No errors
No warnings
227 ms
data source=metars
4555 results
raw_text,station_id,observation_time,latitude,longitude,temp_c,dewpoint_c,wind_dir_degrees,wind_speed_kt,wind_gust_kt,visibility_statute_mi,altim_in_hg,sea_level_pressure_mb,corrected,auto,auto_station,maintenance_indicator_on,no_signal,lightning_sensor_off,freezing_rain_sensor_off,present_weather_sensor_off,wx_string,sky_cover,cloud_base_ft_agl,sky_cover,cloud_base_ft_agl,sky_cover,cloud_base_ft_agl,sky_cover,cloud_base_ft_agl,flight_category,three_hr_pressure_tendency_mb,maxT_c,minT_c,maxT24hr_c,minT24hr_c,precip_in,pcp3hr_in,pcp6hr_in,pcp24hr_in,snow_in,vert_vis_ft,metar_type,elevation_m
KMQI 220703Z AUTO 18012KT 10SM BKN044 OVC050 09/08 A3022 RMK AO2,KMQI,2015-02-22T07:03:00Z,35.92,-75.7,9.0,8.0,180,12,,10.0,30.221457,,,TRUE,TRUE,,,,,,,BKN,4400,OVC,5000,,,,,VFR,,,,,,,,,,,,METAR,4.0
CYOO 220703Z AUTO 00000KT 5SM BR CLR M19/M21 A3011 RMK SLP207,CYOO,2015-02-22T07:03:00Z,43.92,-78.9,-19.0,-21.0,0,0,,5.0,30.109253,1020.7,,TRUE,,,,,,,BR,CLR,,,,,,,,MVFR,,,,,,,,,,,,SPECI,139.0
CYER 220702Z AUTO 31008KT 3SM -SN OVC023 M26/M29 A3024 RMK SLP241,CYER,2015-02-22T07:02:00Z,56.02,-87.68,-26.0,-29.0,310,8,,3.0,30.239174,1024.1,,TRUE,,,,,,,-SN,OVC,2300,,,,,,,MVFR,,,,,,,,,,,,SPECI,16.0
CYYB 220702Z AUTO 22003KT 6SM -SN OVC009 M12/M13 A2998 RMK SLP181,CYYB,2015-02-22T07:02:00Z,46.35,-79.42,-12.0,-13.0,220,3,,6.0,29.97933,1018.1,,TRUE,,,,,,,-SN,OVC,900,,,,,,,IFR,,,,,,,,,,,,SPECI,371.0
CYNA 220701Z AUTO 16005KT 2 1/4SM -SN OVC023 M12/M13 A3028 RMK SLP253,CYNA,2015-02-22T07:01:00Z,50.17,-61.82,-12.0,-13.0,160,5,,2.25,30.280512,1025.3,,TRUE,,,,,,,-SN,OVC,2300,,,,,,,IFR,,,,,,,,,,,,SPECI,11.0
CYOY 220701Z AUTO 00000KT 3SM -SN OVC013 OVC028 OVC061 M12/M14 A3005,CYOY,2015-02-22T07:01:00Z,46.88,-71.5,-12.0,-14.0,0,0,,3.0,30.050198,,,TRUE,,,,,,,-SN,OVC,1300,OVC,2800,OVC,6100,,,MVFR,,,,,,,,,,,,SPECI,168.0
KVLL 220701Z AUTO 00000KT 7SM OVC090 M05/M08 A3013 RMK AO2,KVLL,2015-02-22T07:01:00Z,42.55,-83.18,-5.0,-8.0,0,0,,7.0,30.129921,,,TRUE,TRUE,,,,,,,OVC,9000,,,,,,,VFR,,,,,,,,,,,,METAR,222.0
BIKF 220701Z 10032KT 2000 -SN BLSN FEW003 BKN027 BKN190 M03/M05 Q0973 R11/450061,BIKF,2015-02-22T07:01:00Z,63.98,-22.6,-3.0,-5.0,100,32,,1.24,28.730314,,,,,,,,,,-SN BLSN,FEW,300,BKN,2700,BKN,19000,,,IFR,,,,,,,,,,,,METAR,54.0
KRRT 220701Z AUTO 31008KT 10SM CLR M30/M34 A3048 RMK AO2,KRRT,2015-02-22T07:01:00Z,48.93,-95.33,-30.0,-34.0,310,8,,10.0,30.481298,,,TRUE,TRUE,,,,,,,CLR,,,,,,,,VFR,,,,,,,,,,,,METAR,327.0
KRNM 220701Z 26006KT 10SM BKN023 BKN030 OVC037 12/08 A2994 RMK AO2 T01220083,KRNM,2015-02-22T07:01:00Z,33.03,-116.92,12.2,8.3,260,6,,10.0,29.940945,,,,TRUE,,,,,,,BKN,2300,BKN,3000,OVC,3700,,,MVFR,,,,,,,,,,,,METAR,427.0
KHUL 220701Z AUTO 22005KT 1 3/4SM -SN BR OVC022 M03/M05 A3005 RMK AO2 P0000 T10331050,KHUL,2015-02-22T07:01:00Z,46.12,-67.8,-3.3,-5.0,220,5,,1.75,30.050198,,,TRUE,TRUE,,,,,,-SN BR,OVC,2200,,,,,,,IFR,,,,,,0.0050,,,,,,METAR,150.0
KGCK 220701Z AUTO 05024G32KT 3/4SM BR BKN011 OVC034 M05/M06 A3023 RMK AO2 PK WND 05032/0657 T10501056 PWINO FZRANO $,KGCK,2015-02-22T07:01:00Z,37.92,-100.72,-5.0,-5.6,50,24,32,0.75,30.230314,,,TRUE,TRUE,TRUE,,,TRUE,TRUE,BR,BKN,1100,OVC,3400,,,,,LIFR,,,,,,,,,,,,METAR,877.0
KDXR 220701Z AUTO 25004KT 1 1/2SM -SN FEW017 OVC024 M02/M05 A3014 RMK AO2 P0000 T10221050,KDXR,2015-02-22T07:01:00Z,41.37,-73.48,-2.2,-5.0,250,4,,1.5,30.138779,,,TRUE,TRUE,,,,,,-SN,FEW,1700,OVC,2400,,,,,IFR,,,,,,0.0050,,,,,,METAR,139.0
KDDC 220701Z AUTO 04024G30KT 1SM -SN BR FEW006 SCT011 OVC018 M04/M06 A3023 RMK AO2 PK WND 04030/0654 P0000 T10391056,KDDC,2015-02-22T07:01:00Z,37.77,-99.97,-3.9,-5.6,40,24,30,1.0,30.230314,,,TRUE,TRUE,,,,,,-SN BR,FEW,600,SCT,1100,OVC,1800,,,IFR,,,,,,0.0050,,,,,,METAR,789.0
KCYS 220701Z AUTO 02006KT 1 1/2SM -SN OVC026 M12/M14 A3020 RMK AO2 P0000 T11171144,KCYS,2015-02-22T07:01:00Z,41.15,-104.8,-11.7,-14.4,20,6,,1.5,30.200787,,,TRUE,TRUE,,,,,,-SN,OVC,2600,,,,,,,IFR,,,,,,0.0050,,,,,,METAR,1868.0
KBFD 220701Z AUTO 00000KT 1 3/4SM BR OVC002 M07/M08 A2999 RMK AO2 T10671078,KBFD,2015-02-22T07:01:00Z,41.8,-78.63,-6.7,-7.8,0,0,,1.75,29.991142,,,TRUE,TRUE,,,,,,BR,OVC,200,,,,,,,LIFR,,,,,,,,,,,,METAR,647.0
KBEH 220701Z AUTO 00000KT 9SM OVC026 M03/M06 A3015 RMK AO2 T10281061,KBEH,2015-02-22T07:01:00Z,42.13,-86.42,-2.8,-6.1,0,0,,9.0,30.15059,,,TRUE,TRUE,,,,,,,OVC,2600,,,,,,,MVFR,,,,,,,,,,,,METAR,191.0
KAPA 220701Z 36010KT 1SM -SN BR FEW009 BKN018 OVC034 M11/M12 A3022 RMK AO2 TWR VIS 2 P0000 T11061117 $,KAPA,2015-02-22T07:01:00Z,39.57,-104.85,-10.6,-11.7,360,10,,1.0,30.221457,,,,TRUE,TRUE,,,,,-SN BR,FEW,900,BKN,1800,OVC,3400,,,IFR,,,,,,0.0050,,,,,,METAR,1775.0
KAOO 220701Z AUTO 00000KT 3SM BR SCT009 SCT013 OVC027 M05/M07 A3004 RMK AO2 T10501067,KAOO,2015-02-22T07:01:00Z,40.3,-78.32,-5.0,-6.7,0,0,,3.0,30.041338,,,TRUE,TRUE,,,,,,BR,SCT,900,SCT,1300,OVC,2700,,,MVFR,,,,,,,,,,,,METAR,455.0
PAKF 220701Z AUTO 15017G23KT 6SM -RA BR OVC010 05/04 A2939 RMK AO2 PK WND 15029/0610 CIG 006V013 P0002 $,PAKF,2015-02-22T07:01:00Z,54.85,-163.42,5.0,4.0,150,17,23,6.0,29.388779,,,TRUE,TRUE,TRUE,,,,,-RA BR,OVC,1000,,,,,,,MVFR,,,,,,0.02,,,,,,SPECI,6.0
PAIK 220701Z AUTO 10013G21KT 10SM FEW009 OVC030 M01/M01 A2972 RMK AO2 SNE0638 P0000 FZRANO,PAIK,2015-02-22T07:01:00Z,66.98,-160.43,-1.0,-1.0,100,13,21,10.0,29.719488,,,TRUE,TRUE,,,,TRUE,,,FEW,900,OVC,3000,,,,,MVFR,,,,,,0.0050,,,,,,METAR,51.0
PABA 220701Z AUTO 07007KT 3/4SM -SN BR OVC002 M13/M14 A3003 RMK AO2 SLP169 P0000 T11331144 FZRANO,PABA,2015-02-22T07:01:00Z,70.13,-143.58,-13.3,-14.4,70,7,,0.75,30.029528,1016.9,,TRUE,TRUE,,,,TRUE,,-SN BR,OVC,200,,,,,,,LIFR,,,,,,0.0050,,,,,,METAR,2.0
KVTA 220701Z AUTO 32007KT 6SM BR SCT007 M04/M06 A3011 RMK AO2 T10441061,KVTA,2015-02-22T07:01:00Z,40.02,-82.47,-4.4,-6.1,320,7,,6.0,30.109253,,,TRUE,TRUE,,,,,,BR,SCT,700,,,,,,,VFR,,,,,,,,,,,,METAR,268.0
KTTN 220701Z AUTO 3SM -RA BR OVC004 01/M01 A3013 RMK AO2 RAB0658FZRAE0655 P0001 I1000 T00061011 $,KTTN,2015-02-22T07:01:00Z,40.28,-74.82,0.6,-1.1,,,,3.0,30.129921,,,TRUE,TRUE,TRUE,,,,,-RA BR,OVC,400,,,,,,,LIFR,,,,,,0.01,,,,,,METAR,59.0
UBBN 220700Z 14004KT 9999 SCT050 BKN100 03/M01 Q1020 R14R/CLRD60 NOSIG RMK MT OP QFE690,UBBN,2015-02-22T07:00:00Z,39.18,45.45,3.0,-1.0,140,4,,6.21,30.11811,,,,,,TRUE,,,,,SCT,5000,BKN,10000,,,,,VFR,,,,,,,,,,,,METAR,873.0
SBMO 220700Z 33002KT 9999 SCT020 SCT070 21/20 Q1012,SBMO,2015-02-22T07:00:00Z,-9.52,-35.77,21.0,20.0,330,2,,6.21,29.88189,,,,,,,,,,,SCT,2000,SCT,7000,,,,,VFR,,,,,,,,,,,,METAR,115.0
OYHD 220700Z 33007KT 290V050 9999 FEW030 SCT060 28/22 Q1014,OYHD,2015-02-22T07:00:00Z,14.75,42.97,28.0,22.0,330,7,,6.21,29.940945,,,,,,,,,,,FEW,3000,SCT,6000,,,,,VFR,,,,,,,,,,,,METAR,115.0
NFTF 220700Z 14006KT 9999 FEW016 26/22 Q1009,NFTF,2015-02-22T07:00:00Z,-21.23,-175.15,26.0,22.0,140,6,,6.21,29.793306,,,,,,,,,,,FEW,1600,,,,,,,VFR,,,,,,,,,,,,METAR,38.0
OYSN 220700Z 08004KT 8000 NSC 20/08 Q1026 NOSIG,OYSN,2015-02-22T07:00:00Z,15.48,44.22,20.0,8.0,80,4,,4.97,30.295275,,,,,,TRUE,,,,,,,,,,,,,,,,,,,,,,,,,METAR,2190.0
SBCG 220700Z 35002KT 9999 FEW040 22/19 Q1016,SBCG,2015-02-22T07:00:00Z,-20.47,-54.67,22.0,19.0,350,2,,6.21,30.0,,,,,,,,,,,FEW,4000,,,,,,,VFR,,,,,,,,,,,,METAR,567.0
SBRF 220700Z 29003KT 9999 SCT020 BKN060 24/23 Q1011,SBRF,2015-02-22T07:00:00Z,-8.13,-34.92,24.0,23.0,290,3,,6.21,29.852362,,,,,,,,,,,SCT,2000,BKN,6000,,,,,VFR,,,,,,,,,,,,METAR,19.0
SBPV 220700Z 00000KT 9999 FEW015 SCT100 22/21 Q1011,SBPV,2015-02-22T07:00:00Z,-8.72,-63.9,22.0,21.0,0,0,,6.21,29.852362,,,,,,,,,,,FEW,1500,SCT,10000,,,,,VFR,,,,,,,,,,,,METAR,88.0
SBEG 220700Z 08005KT 9999 FEW010 BKN100 25/22 Q1010,SBEG,2015-02-22T07:00:00Z,-3.02,-60.03,25.0,22.0,80,5,,6.21,29.822834,,,,,,,,,,,FEW,1000,BKN,10000,,,,,VFR,,,,,,,,,,,,METAR,2.0
SBPA 220700Z 16005KT 9999 FEW013 23/22 Q1017,SBPA,2015-02-22T07:00:00Z,-30.0,-51.17,23.0,22.0,160,5,,6.21,30.029528,,,,,,,,,,,FEW,1300,,,,,,,VFR,,,,,,,,,,,,METAR,3.0
OPSK 220700Z 05006KT 3000 HZ FEW100 SCT100 24/17 Q1017 RH68 PC,OPSK,2015-02-22T07:00:00Z,27.72,68.8,24.0,17.0,50,6,,1.86,30.029528,,,,,,,,,,HZ,FEW,10000,SCT,10000,,,,,IFR,,,,,,,,,,,,METAR,58.0
LQMO 220700Z 17011KT 140V210 8000 -RA FEW020 OVC040 10/06 Q1003,LQMO,2015-02-22T07:00:00Z,43.28,17.83,10.0,6.0,170,11,,4.97,29.616142,,,,,,,,,,-RA,FEW,2000,OVC,4000,,,,,MVFR,,,,,,,,,,,,METAR,48.0
OSKL 220700Z 02010KT CAVOK 08/00 Q1019,OSKL,2015-02-22T07:00:00Z,37.03,41.2,8.0,0.0,20,10,,6.21,30.088583,,,,,,,,,,,CAVOK,,,,,,,,VFR,,,,,,,,,,,,METAR,455.0
OSLK 220700Z VRB03KT 9999 FEW030 13/03 Q1023,OSLK,2015-02-22T07:00:00Z,35.4,35.95,13.0,3.0,0,3,,6.21,30.206694,,,,,,,,,,,FEW,3000,,,,,,,VFR,,,,,,,,,,,,METAR,7.0
OSDI 220700Z 15004KT CAVOK 06/01 Q10123,OSDI,2015-02-22T07:00:00Z,33.42,36.52,6.0,1.0,150,4,,6.21,,,,,,,,,,,,CAVOK,,,,,,,,VFR,,,,,,,,,,,,METAR,605.0
SBPS 220700Z 26005KT 9999 SCT015 SCT020 23/22 Q1015,SBPS,2015-02-22T07:00:00Z,-16.43,-39.07,23.0,22.0,260,5,,6.21,29.970472,,,,,,,,,,,SCT,1500,SCT,2000,,,,,VFR,,,,,,,,,,,,METAR,51.0
SBCF 220700Z 15004KT CAVOK 19/15 Q1020,SBCF,2015-02-22T07:00:00Z,-19.63,-43.97,19.0,15.0,150,4,,6.21,30.11811,,,,,,,,,,,CAVOK,,,,,,,,VFR,,,,,,,,,,,,METAR,828.0
OYAT 220700Z 33007KT 0500 DU NSC 20/01 Q1021,OYAT,2015-02-22T07:00:00Z,14.55,46.83,20.0,1.0,330,7,,0.31,30.147638,,,,,,,,,,DU,,,,,,,,,,,,,,,,,,,,,METAR,1039.0
SBSL 220700Z 15004KT 9999 BKN017 23/20 Q1011,SBSL,2015-02-22T07:00:00Z,-2.6,-44.22,23.0,20.0,150,4,,6.21,29.852362,,,,,,,,,,,BKN,1700,,,,,,,MVFR,,,,,,,,,,,,METAR,53.0
ZMUB 220700Z VRB01MPS CAVOK M12/M24 Q1015 NOSIG RMK QFE653.9 33,ZMUB,2015-02-22T07:00:00Z,47.83,106.78,-12.0,-24.0,0,2,,6.21,29.970472,,,,,,TRUE,,,,,CAVOK,,,,,,,,VFR,,,,,,,,,,,,METAR,1330.0
BKPR 220700Z VRB03KT 8000 -RA SCT035 BKN070 04/01 Q1009 NOSIG RMK 17010095,BKPR,2015-02-22T07:00:00Z,42.58,21.03,4.0,1.0,0,3,,4.97,29.793306,,,,,,TRUE,,,,-RA,SCT,3500,BKN,7000,,,,,MVFR,,,,,,,,,,,,METAR,576.0
FNLU 220700Z VRB03KT 9999 FEW020 SCT023 BKN090 27/24 Q1011 NOSIG,FNLU,2015-02-22T07:00:00Z,-8.83,13.22,27.0,24.0,0,3,,6.21,29.852362,,,,,,TRUE,,,,,FEW,2000,SCT,2300,BKN,9000,,,VFR,,,,,,,,,,,,METAR,70.0
MPTO 220700Z 00000KT 9999 FEW020 25/21 Q1010 NOSIG,MPTO,2015-02-22T07:00:00Z,9.05,-79.37,25.0,21.0,0,0,,6.21,29.822834,,,,,,TRUE,,,,,FEW,2000,,,,,,,VFR,,,,,,,,,,,,SPECI,45.0
FBSK 220700Z 07006KT 020V100 CAVOK 30/10 Q1019 NOSIG,FBSK,2015-02-22T07:00:00Z,-24.55,25.92,30.0,10.0,70,6,,6.21,30.088583,,,,,,TRUE,,,,,CAVOK,,,,,,,,VFR,,,,,,,,,,,,METAR,1005.0
OKBK 220700Z 31020KT 9999 FEW020 SCT040 12/03 Q1018 NOSIG,OKBK,2015-02-22T07:00:00Z,29.22,47.97,12.0,3.0,310,20,,6.21,30.059055,,,,,,TRUE,,,,,FEW,2000,SCT,4000,,,,,VFR,,,,,,,,,,,,METAR,55.0
SBCT 220700Z 13005KT 9999 BKN009 19/18 Q1023,SBCT,2015-02-22T07:00:00Z,-25.52,-49.17,19.0,18.0,130,5,,6.21,30.206694,,,,,,,,,,,BKN,900,,,,,,,IFR,,,,,,,,,,,,METAR,908.0
SBNT 220700Z 20003KT 9999 SCT018 BKN080 24/23 Q1011,SBNT,2015-02-22T07:00:00Z,-5.92,-35.25,24.0,23.0,200,3,,6.21,29.852362,,,,,,,,,,,SCT,1800,BKN,8000,,,,,VFR,,,,,,,,,,,,METAR,49.0
RPLC 220700Z 04010KT 9999 FEW030 BKN300 31/17 Q1012 NOSIG A2991,RPLC,2015-02-22T07:00:00Z,15.17,120.58,31.0,17.0,40,10,,6.21,29.88189,,,,,,TRUE,,,,,FEW,3000,BKN,30000,,,,,VFR,,,,,,,,,,,,METAR,196.0
FQMA 220700Z 18013KT 4000 DZ SCT009 OVC020 22/21 Q1018 NOSIG,FQMA,2015-02-22T07:00:00Z,-25.92,32.57,22.0,21.0,180,13,,2.49,30.059055,,,,,,TRUE,,,,DZ,SCT,900,OVC,2000,,,,,IFR,,,,,,,,,,,,METAR,44.0
OPRN 220700Z 31008KT 4000 HZ SKC 20/12 Q1018.5/30.07,OPRN,2015-02-22T07:00:00Z,33.62,73.08,20.0,12.0,310,8,,2.49,,,,,,,,,,,HZ,SKC,,,,,,,,IFR,,,,,,,,,,,,METAR,508.0
OPNH 220700Z 36006KT 1500M FU FEW035 SCT100 26/14 Q1017,OPNH,2015-02-22T07:00:00Z,26.22,68.37,26.0,14.0,360,6,,0.93,30.029528,,,,,,,,,,FU,FEW,3500,SCT,10000,,,,,LIFR,,,,,,,,,,,,METAR,38.0
SBBR 220700Z 21003KT 9999 FEW020 BKN070 19/14 Q1019,SBBR,2015-02-22T07:00:00Z,-15.87,-47.92,19.0,14.0,210,3,,6.21,30.088583,,,,,,,,,,,FEW,2000,BKN,7000,,,,,VFR,,,,,,,,,,,,METAR,1061.0
ORBI 220700Z 34016KT CAVOK 10/04 Q1019 NOSIG,ORBI,2015-02-22T07:00:00Z,33.27,44.23,10.0,4.0,340,16,,6.21,30.088583,,,,,,TRUE,,,,,CAVOK,,,,,,,,VFR,,,,,,,,,,,,METAR,35.0
MDSD 220700Z 02006KT 9999 FEW016 21/20 Q1018 NOSIG,MDSD,2015-02-22T07:00:00Z,18.42,-69.67,21.0,20.0,20,6,,6.21,30.059055,,,,,,TRUE,,,,,FEW,1600,,,,,,,VFR,,,,,,,,,,,,METAR,18.0
MDPC 220700Z 08010KT 9999 FEW018 24/21 Q1018 NOSIG,MDPC,2015-02-22T07:00:00Z,18.57,-68.37,24.0,21.0,80,10,,6.21,30.059055,,,,,,TRUE,,,,,FEW,1800,,,,,,,VFR,,,,,,,,,,,,METAR,12.0
MDST 220700Z 11004KT 9999 BKN012 22/21 Q1019 RERA,MDST,2015-02-22T07:00:00Z,19.4,-70.6,22.0,21.0,110,4,,6.21,30.088583,,,,,,,,,,,BKN,1200,,,,,,,MVFR,,,,,,,,,,,,METAR,184.0
SBFZ 220700Z 14004KT 9999 BKN017 22/20 Q1011 RERA,SBFZ,2015-02-22T07:00:00Z,-3.77,-38.52,22.0,20.0,140,4,,6.21,29.852362,,,,,,,,,,,BKN,1700,,,,,,,MVFR,,,,,,,,,,,,METAR,25.0
SBGR 220700Z 12004KT 9999 SCT009 21/20 Q1021,SBGR,2015-02-22T07:00:00Z,-23.42,-46.47,21.0,20.0,120,4,,6.21,30.147638,,,,,,,,,,,SCT,900,,,,,,,VFR,,,,,,,,,,,,METAR,750.0
OYIB 220700Z 32004KT CAVOK 21/11 Q1019,OYIB,2015-02-22T07:00:00Z,13.97,44.17,21.0,11.0,320,4,,6.21,30.088583,,,,,,,,,,,CAVOK,,,,,,,,VFR,,,,,,,,,,,,METAR,1920.0
OYMB 220700Z 06008KT 1000 DU NSC 19/01 Q1018,OYMB,2015-02-22T07:00:00Z,15.47,45.32,19.0,1.0,60,8,,0.62,30.059055,,,,,,,,,,DU,,,,,,,,,,,,,,,,,,,,,METAR,1000.0
KFCI 220700Z AUTO 00000KT 2SM OVC004 01/M05 A3017 RMK AO1 P0001,KFCI,2015-02-22T07:00:00Z,37.4,-77.52,1.0,-5.0,0,0,,2.0,30.171259,,,TRUE,TRUE,,,,,,,OVC,400,,,,,,,LIFR,,,,,,0.01,,,,,,METAR,72.0
LBGO 220700Z VRB02KT CAVOK 05/00 Q1012 NOSIG,LBGO,2015-02-22T07:00:00Z,43.15,25.72,5.0,0.0,0,2,,6.21,29.88189,,,,,,TRUE,,,,,CAVOK,,,,,,,,VFR,,,,,,,,,,,,METAR,86.0
LBPD 220700Z VRB02KT 2300 BR NSC M00/M01 Q1016 BECMG 4000 BR,LBPD,2015-02-22T07:00:00Z,42.13,24.8,0.0,-1.0,0,2,,1.43,30.0,,,,,,,,,,BR,,,,,,,,,,,,,,,,,,,,,METAR,185.0
NWWW 220700Z AUTO VRB03KT 9999 BKN062 OVC074 26/23 Q1009,NWWW,2015-02-22T07:00:00Z,-22.02,166.22,26.0,23.0,0,3,,6.21,29.793306,,,TRUE,,,,,,,,BKN,6200,OVC,7400,,,,,VFR,,,,,,,,,,,,METAR,16.0
OYSY 220700Z 04004KT 350V110 2500 DU SKC 25/08 Q1017,OYSY,2015-02-22T07:00:00Z,15.97,48.78,25.0,8.0,40,4,,1.55,30.029528,,,,,,,,,,DU,SKC,,,,,,,,IFR,,,,,,,,,,,,METAR,701.0
WSSL 220700Z 03012KT 9999 FEW020 BKN150 31/22 Q1010 RMK 0630Z Q1010,WSSL,2015-02-22T07:00:00Z,1.42,103.87,31.0,22.0,30,12,,6.21,29.822834,,,,,,,,,,,FEW,2000,BKN,15000,,,,,VFR,,,,,,,,,,,,METAR,14.0
NCPY 220700Z AUTO NIL,NCPY,2015-02-22T07:00:00Z,-9.02,-158.07,,,,,,,,,,TRUE,,,,,,,,,,,,,,,,,,,,,,,,,,,,METAR,2.0
NCMH 2207000 AUTO NIL,NCMH,2015-02-22T07:00:00Z,-10.38,-161.0,,,220,70,,,,,,TRUE,,,,,,,,,,,,,,,,,,,,,,,,,,,,METAR,0.0
NCAI 220700Z AUTO 06008KT //// ///// 27/24 Q1013,NCAI,2015-02-22T07:00:00Z,-18.82,-159.77,27.0,24.0,60,8,,,29.911417,,,TRUE,,,,,,,,,,,,,,,,,,,,,,,,,,,,METAR,6.0
NCRG 220700Z 07010KT 9999 SCT016 28/25 Q1014,NCRG,2015-02-22T07:00:00Z,-21.2,-159.82,28.0,25.0,70,10,,6.21,29.940945,,,,,,,,,,,SCT,1600,,,,,,,VFR,,,,,,,,,,,,METAR,7.0
TFFF 220700Z AUTO 07011KT 9999 SCT028 SCT052 25/20 Q1015,TFFF,2015-02-22T07:00:00Z,14.6,-61.0,25.0,20.0,70,11,,6.21,29.970472,,,TRUE,,,,,,,,SCT,2800,SCT,5200,,,,,VFR,,,,,,,,,,,,METAR,5.0
UBBG 220700Z 33004KT 300V050 9999 BKN100 05/01 Q1024 R30/CLRD70 NOSIG,UBBG,2015-02-22T07:00:00Z,40.73,46.32,5.0,1.0,330,4,,6.21,30.236221,,,,,,TRUE,,,,,BKN,10000,,,,,,,VFR,,,,,,,,,,,,METAR,330.0
SBCB 220700Z 06005KT CAVOK 25/25 Q1017,SBCB,2015-02-22T07:00:00Z,-22.92,-42.08,25.0,25.0,60,5,,6.21,30.029528,,,,,,,,,,,CAVOK,,,,,,,,VFR,,,,,,,,,,,,METAR,4.0
SBAR 220700Z 14010KT 9999 SCT015 26/22 Q1011,SBAR,2015-02-22T07:00:00Z,-10.97,-37.07,26.0,22.0,140,10,,6.21,29.852362,,,,,,,,,,,SCT,1500,,,,,,,VFR,,,,,,,,,,,,METAR,9.0
UKOO 220700Z 18006MPS 9999 BKN020 05/03 Q1020 16190058 NOSIG,UKOO,2015-02-22T07:00:00Z,46.42,30.68,5.0,3.0,180,12,,6.21,30.11811,,,,,,TRUE,,,,,BKN,2000,,,,,,,MVFR,,,,,,,,,,,,METAR,35.0
UKHH 220700Z 16004MPS CAVOK M02/M06 Q1023 07710560 NOSIG,UKHH,2015-02-22T07:00:00Z,49.92,36.28,-2.0,-6.0,160,8,,6.21,30.206694,,,,,,TRUE,,,,,CAVOK,,,,,,,,VFR,,,,,,,,,,,,METAR,155.0
UKBB 220700Z 20006MPS 9999 OVC011 01/M00 Q1016 18190055 68CLRD95 NOSIG,UKBB,2015-02-22T07:00:00Z,50.33,30.9,1.0,0.0,200,12,,6.21,30.0,,,,,,TRUE,,,,,OVC,1100,,,,,,,MVFR,,,,,,,,,,,,METAR,119.0
VHHH 220700Z 10011KT 9999 FEW012 SCT040 24/19 Q1013 NOSIG,VHHH,2015-02-22T07:00:00Z,22.32,113.92,24.0,19.0,100,11,,6.21,29.911417,,,,,,TRUE,,,,,FEW,1200,SCT,4000,,,,,VFR,,,,,,,,,,,,METAR,9.0
PKWA 220700Z AUTO 06007KT 10SM SCT021 28/22 A2981 RMK AO2 T02840220,PKWA,2015-02-22T07:00:00Z,8.72,167.72,28.4,22.0,60,7,,10.0,29.811024,,,TRUE,TRUE,,,,,,,SCT,2100,,,,,,,VFR,,,,,,,,,,,,METAR,8.0
SCRM 220700Z 29018KT 5000 BR OVC007 01/M01 Q0982,SCRM,2015-02-22T07:00:00Z,-62.18,-58.98,1.0,-1.0,290,18,,3.11,28.996063,,,,,,,,,,BR,OVC,700,,,,,,,IFR,,,,,,,,,,,,METAR,45.0
SCTN 220700Z AUTO 17007KT 9999 OVC008 12/10 Q1018,SCTN,2015-02-22T07:00:00Z,-42.92,-72.7,12.0,10.0,170,7,,6.21,30.059055,,,TRUE,,,,,,,,OVC,800,,,,,,,IFR,,,,,,,,,,,,METAR,4.0
SCPQ 220700Z AUTO 18010KT 9999 SCT004 09/08 Q1018,SCPQ,2015-02-22T07:00:00Z,-42.33,-73.72,9.0,8.0,180,10,,6.21,30.059055,,,TRUE,,,,,,,,SCT,400,,,,,,,VFR,,,,,,,,,,,,METAR,5.0
SCIP 220700Z 09006KT 060V130 9999 SCT020 22/19 Q1022 RESHRA NOSIG,SCIP,2015-02-22T07:00:00Z,-27.17,-109.43,22.0,19.0,90,6,,6.21,30.177166,,,,,,TRUE,,,,,SCT,2000,,,,,,,VFR,,,,,,,,,,,,METAR,69.0
SCEL 220700Z 17006KT CAVOK 15/10 Q1015 NOSIG,SCEL,2015-02-22T07:00:00Z,-33.37,-70.77,15.0,10.0,170,6,,6.21,29.970472,,,,,,TRUE,,,,,CAVOK,,,,,,,,VFR,,,,,,,,,,,,METAR,476.0
SCQP 220700Z 00000KT 2000 BR OVC002 11/10 Q1017,SCQP,2015-02-22T07:00:00Z,-38.92,-72.65,11.0,10.0,0,0,,1.24,30.029528,,,,,,,,,,BR,OVC,200,,,,,,,LIFR,,,,,,,,,,,,METAR,97.0
SCSE 220700Z 24002KT CAVOK 15/13 Q1015,SCSE,2015-02-22T07:00:00Z,-29.92,-71.2,15.0,13.0,240,2,,6.21,29.970472,,,,,,,,,,,CAVOK,,,,,,,,VFR,,,,,,,,,,,,METAR,146.0
SCDA 220700Z 18010KT CAVOK 21/16 Q1013,SCDA,2015-02-22T07:00:00Z,-20.52,-70.17,21.0,16.0,180,10,,6.21,29.911417,,,,,,,,,,,CAVOK,,,,,,,,VFR,,,,,,,,,,,,METAR,52.0
SCAT 220700Z AUTO 17007KT 9000 // NCD 16/13 Q1015,SCAT,2015-02-22T07:00:00Z,-27.27,-70.77,16.0,13.0,170,7,,5.59,29.970472,,,TRUE,,,,,,,,,,,,,,,,,,,,,,,,,,,,METAR,204.0
SCIE 220700Z 12002KT CAVOK 10/09 Q1015,SCIE,2015-02-22T07:00:00Z,-36.77,-73.07,10.0,9.0,120,2,,6.21,29.970472,,,,,,,,,,,CAVOK,,,,,,,,VFR,,,,,,,,,,,,METAR,16.0
SCCF 220700Z 12009KT CAVOK 11/07 Q1026,SCCF,2015-02-22T07:00:00Z,-22.5,-68.9,11.0,7.0,120,9,,6.21,30.295275,,,,,,,,,,,CAVOK,,,,,,,,VFR,,,,,,,,,,,,METAR,2312.0
SCBA 220700Z AUTO 24006KT CAVOK 07/04 Q1016,SCBA,2015-02-22T07:00:00Z,-45.92,-71.67,7.0,4.0,240,6,,6.21,30.0,,,TRUE,,,,,,,,CAVOK,,,,,,,,VFR,,,,,,,,,,,,METAR,524.0
SCAR 220700Z 21002KT 9999 BKN060 24/18 Q1013,SCAR,2015-02-22T07:00:00Z,-18.35,-70.32,24.0,18.0,210,2,,6.21,29.911417,,,,,,,,,,,BKN,6000,,,,,,,VFR,,,,,,,,,,,,METAR,59.0
TFFR 220700Z AUTO 10004KT 9999 FEW037 23/20 Q1016,TFFR,2015-02-22T07:00:00Z,16.27,-61.53,23.0,20.0,100,4,,6.21,30.0,,,TRUE,,,,,,,,FEW,3700,,,,,,,VFR,,,,,,,,,,,,METAR,11.0
KQFV 220700Z AUTO 32006G16KT 4000 HZ CLR 03/M05 A2990 RMK A02 TSNO,KQFV,2015-02-22T07:00:00Z,100.65,-1000.65,3.0,-5.0,320,6,16,2.49,29.899607,,,TRUE,TRUE,,,TRUE,,,HZ,CLR,,,,,,,,IFR,,,,,,,,,,,,METAR,999.0
KQFT 220700Z AUTO 26007G13KT 9000 HZ FEW011 BKN013 06/M05 A2998 RMK A02 TSNO,KQFT,2015-02-22T07:00:00Z,100.65,-1000.65,6.0,-5.0,260,7,13,5.59,29.97933,,,TRUE,TRUE,,,TRUE,,,HZ,FEW,1100,BKN,1300,,,,,MVFR,,,,,,,,,,,,METAR,999.0
KQFB 220700Z AUTO 28006KT 9999 BKN040 14/03 A2996 RMK A02 TSNO,KQFB,2015-02-22T07:00:00Z,100.65,-1000.65,14.0,3.0,280,6,,6.21,29.958662,,,TRUE,TRUE,,,TRUE,,,,BKN,4000,,,,,,,VFR,,,,,,,,,,,,METAR,999.0
KQEY 220700Z AUTO 25009G15KT 4800 HZ FEW027 07/M01 A3001 RMK A02 TSNO,KQEY,2015-02-22T07:00:00Z,100.65,-1000.65,7.0,-1.0,250,9,15,2.98,30.008858,,,TRUE,TRUE,,,TRUE,,,HZ,FEW,2700,,,,,,,IFR,,,,,,,,,,,,METAR,999.0
KQEX 220700Z AUTO 29006G12KT 9999 CLR 13/M02 A2997 RMK A02 TSNO,KQEX,2015-02-22T07:00:00Z,100.65,-1000.65,13.0,-2.0,290,6,12,6.21,29.970472,,,TRUE,TRUE,,,TRUE,,,,CLR,,,,,,,,VFR,,,,,,,,,,,,METAR,999.0
KQEV 220700Z AUTO 28009G15KT 8000 HZ CLR 07/M02 A3003 RMK A02 TSNO,KQEV,2015-02-22T07:00:00Z,100.65,-1000.65,7.0,-2.0,280,9,15,4.97,30.029528,,,TRUE,TRUE,,,TRUE,,,HZ,CLR,,,,,,,,MVFR,,,,,,,,,,,,METAR,999.0
KQES 220700Z AUTO 9999 BKN026 03/M04 A3010 RMK A02 TSNO,KQES,2015-02-22T07:00:00Z,100.65,-1000.65,3.0,-4.0,,,,6.21,30.100393,,,TRUE,TRUE,,,TRUE,,,,BKN,2600,,,,,,,MVFR,,,,,,,,,,,,METAR,999.0
KQER 220700Z AUTO 8000 /CLR M06/M11 / RMK A02 TSNO,KQER,2015-02-22T07:00:00Z,100.65,-1000.65,-6.0,-11.0,,,,4.97,,,,TRUE,TRUE,,,TRUE,,,,CLR,,,,,,,,MVFR,,,,,,,,,,,,METAR,999.0
KQEQ 220700Z AUTO 23012G19KT 9999 BKN031 05/M05 A2987 RMK A02 TSNO,KQEQ,2015-02-22T07:00:00Z,100.65,-1000.65,5.0,-5.0,230,12,19,6.21,29.870079,,,TRUE,TRUE,,,TRUE,,,,BKN,3100,,,,,,,VFR,,,,,,,,,,,,METAR,999.0
KQEN 220700Z AUTO 6000 CLR 00/M11 / RMK A02 TSNO,KQEN,2015-02-22T07:00:00Z,100.65,-1000.65,0.0,-11.0,,,,3.73,,,,TRUE,TRUE,,,TRUE,,,,CLR,,,,,,,,MVFR,,,,,,,,,,,,METAR,999.0
KQEL 220700Z AUTO 29005KT 6000 HZ SCT040 05/M04 A3000 RMK A02 TSNO,KQEL,2015-02-22T07:00:00Z,100.65,-1000.65,5.0,-4.0,290,5,,3.73,30.0,,,TRUE,TRUE,,,TRUE,,,HZ,SCT,4000,,,,,,,MVFR,,,,,,,,,,,,METAR,999.0
KQEJ 220700Z AUTO 21007G16KT 6000 HZ BKN041 06/M05 A2987 RMK A02 TSNO,KQEJ,2015-02-22T07:00:00Z,100.65,-1000.65,6.0,-5.0,210,7,16,3.73,29.870079,,,TRUE,TRUE,,,TRUE,,,HZ,BKN,4100,,,,,,,MVFR,,,,,,,,,,,,METAR,999.0
KQEI 220700Z AUTO 22004G14KT 4800 HZ FEW042 05/M05 A2992 RMK A02 TSNO,KQEI,2015-02-22T07:00:00Z,100.65,-1000.65,5.0,-5.0,220,4,14,2.98,29.920275,,,TRUE,TRUE,,,TRUE,,,HZ,FEW,4200,,,,,,,IFR,,,,,,,,,,,,METAR,999.0
LZTT 220700Z 16005KT 120V180 9999 SCT046 01/M03 Q1007 NOSIG,LZTT,2015-02-22T07:00:00Z,49.07,20.25,1.0,-3.0,160,5,,6.21,29.734253,,,,,,TRUE,,,,,SCT,4600,,,,,,,VFR,,,,,,,,,,,,METAR,707.0
LZKZ 220700Z 32002KT CAVOK 01/M02 Q1009 NOSIG,LZKZ,2015-02-22T07:00:00Z,48.67,21.23,1.0,-2.0,320,2,,6.21,29.793306,,,,,,TRUE,,,,,CAVOK,,,,,,,,VFR,,,,,,,,,,,,METAR,232.0
LZIB 220700Z 04006KT CAVOK 02/M01 Q1007 NOSIG,LZIB,2015-02-22T07:00:00Z,48.17,17.22,2.0,-1.0,40,6,,6.21,29.734253,,,,,,TRUE,,,,,CAVOK,,,,,,,,VFR,,,,,,,,,,,,METAR,134.0
LHBP 220700Z 07005KT CAVOK 03/M02 Q1008 NOSIG,LHBP,2015-02-22T07:00:00Z,47.42,19.27,3.0,-2.0,70,5,,6.21,29.763779,,,,,,TRUE,,,,,CAVOK,,,,,,,,VFR,,,,,,,,,,,,METAR,185.0
LZZI 220700Z VRB01KT 9999 SCT055 M03/M04 Q1007,LZZI,2015-02-22T07:00:00Z,49.23,18.62,-3.0,-4.0,0,1,,6.21,29.734253,,,,,,,,,,,SCT,5500,,,,,,,VFR,,,,,,,,,,,,METAR,311.0
LZSL 220700Z 08003KT 030V110 9999 SCT060 02/M01 Q1008,LZSL,2015-02-22T07:00:00Z,48.63,19.13,2.0,-1.0,80,3,,6.21,29.763779,,,,,,,,,,,SCT,6000,,,,,,,VFR,,,,,,,,,,,,METAR,313.0
LZPP 220700Z 26003KT CAVOK 04/M01 Q1006,LZPP,2015-02-22T07:00:00Z,48.62,17.83,4.0,-1.0,260,3,,6.21,29.704725,,,,,,,,,,,CAVOK,,,,,,,,VFR,,,,,,,,,,,,METAR,161.0
WSAP 220700Z 04013KT 9999 FEW020 BKN140 30/22 Q1010,WSAP,2015-02-22T07:00:00Z,1.37,103.92,30.0,22.0,40,13,,6.21,29.822834,,,,,,,,,,,FEW,2000,BKN,14000,,,,,VFR,,,,,,,,,,,,METAR,32.0
LBBG 220700Z VRB02KT 6000 FEW047 03/01 Q1016 NOSIG,LBBG,2015-02-22T07:00:00Z,42.57,27.52,3.0,1.0,0,2,,3.73,30.0,,,,,,TRUE,,,,,FEW,4700,,,,,,,MVFR,,,,,,,,,,,,METAR,28.0
LBWN 220700Z 14008KT 9999 FEW014 06/03 Q1016 NOSIG,LBWN,2015-02-22T07:00:00Z,43.22,27.82,6.0,3.0,140,8,,6.21,30.0,,,,,,TRUE,,,,,FEW,1400,,,,,,,VFR,,,,,,,,,,,,METAR,43.0
LBSF 220700Z 10007KT 7000 SCT065 04/01 Q1013 NOSIG,LBSF,2015-02-22T07:00:00Z,42.65,23.38,4.0,1.0,100,7,,4.35,29.911417,,,,,,TRUE,,,,,SCT,6500,,,,,,,MVFR,,,,,,,,,,,,METAR,595.0
MGSJ 220700Z 00000KT CAVOK 22/21 Q1013 A2991 SCT080,MGSJ,2015-02-22T07:00:00Z,13.92,-90.83,22.0,21.0,0,0,,6.21,29.911417,,,,,,,,,,,SCT,8000,,,,,,,VFR,,,,,,,,,,,,METAR,9.0
MGPB 220700Z 00000KT 9999 SCT016 21/21 Q1015 A2997,MGPB,2015-02-22T07:00:00Z,15.72,-88.58,21.0,21.0,0,0,,6.21,29.970472,,,,,,,,,,,SCT,1600,,,,,,,VFR,,,,,,,,,,,,METAR,10.0
MGHT 220700Z 00000KT 9999 SCT025 14/10 QFE 818/7,MGHT,2015-02-22T07:00:00Z,15.32,-91.5,14.0,10.0,0,0,,6.21,,,,,,,,,,,,SCT,2500,,,,,,,VFR,,,,,,,,,,,,METAR,1901.0
MGMM 220700Z 00000KT CAVOK 18/16 Q1016 A3000,MGMM,2015-02-22T07:00:00Z,17.07,-89.15,18.0,16.0,0,0,,6.21,30.0,,,,,,,,,,,CAVOK,,,,,,,,VFR,,,,,,,,,,,,METAR,105.0
WSSS 220700Z 04011KT 330V080 9999 FEW023 BKN140 30/22 Q1010 NOSIG,WSSS,2015-02-22T07:00:00Z,1.37,103.97,30.0,22.0,40,11,,6.21,29.822834,,,,,,TRUE,,,,,FEW,2300,BKN,14000,,,,,VFR,,,,,,,,,,,,METAR,16.0
UKDR 220700Z 14005MPS 4900 BR OVC021 M04/M05 Q1021 1809//65 NOSIG,UKDR,2015-02-22T07:00:00Z,48.05,33.22,-4.0,-5.0,140,10,,3.04,30.147638,,,,,,TRUE,,,,BR,OVC,2100,,,,,,,MVFR,,,,,,,,,,,,METAR,124.0
UKLL 220700Z 13003MPS CAVOK 04/M02 Q1010 13CLRD80 NOSIG,UKLL,2015-02-22T07:00:00Z,49.82,23.93,4.0,-2.0,130,6,,6.21,29.822834,,,,,,TRUE,,,,,CAVOK,,,,,,,,VFR,,,,,,,,,,,,METAR,325.0
UKDD 220700Z 16004MPS 130V200 CAVOK M01/M04 Q1023 08090070 NOSIG,UKDD,2015-02-22T07:00:00Z,48.37,35.1,-1.0,-4.0,160,8,,6.21,30.206694,,,,,,TRUE,,,,,CAVOK,,,,,,,,VFR,,,,,,,,,,,,METAR,149.0
UKDE 220700Z 15003MPS 110V180 9999 SCT010 BKN100 M01/M04 Q1024 02CLRD70 NOSIG,UKDE,2015-02-22T07:00:00Z,47.87,35.32,-1.0,-4.0,150,6,,6.21,30.236221,,,,,,TRUE,,,,,SCT,1000,BKN,10000,,,,,VFR,,,,,,,,,,,,METAR,113.0
UKKM 220700Z AUTO 19005MPS 6000 ///007 02/01 Q1015,UKKM,2015-02-22T07:00:00Z,50.6,30.2,2.0,1.0,190,10,,3.73,29.970472,,,TRUE,,,,,,,,,,,,,,,,,,,,,,,,,,,,METAR,157.0
UKKK 220700Z 20004MPS 9999 OVC008 02/00 Q1015 26190060 NOSIG,UKKK,2015-02-22T07:00:00Z,50.4,30.45,2.0,0.0,200,8,,6.21,29.970472,,,,,,TRUE,,,,,OVC,800,,,,,,,IFR,,,,,,,,,,,,METAR,179.0
UKLU 220700Z 00000MPS 9999 BKN200 M00/M02 Q1010 NOSIG,UKLU,2015-02-22T07:00:00Z,48.63,22.27,0.0,-2.0,0,0,,6.21,29.822834,,,,,,TRUE,,,,,BKN,20000,,,,,,,VFR,,,,,,,,,,,,METAR,117.0
UKLN 220700Z 09004MPS 0050 FZFG VV001 M00/M00 Q1013 1509//70 NOSIG,UKLN,2015-02-22T07:00:00Z,48.27,25.98,0.0,0.0,90,8,,0.03,29.911417,,,,,,TRUE,,,,FZFG,OVX,0,,,,,,,LIFR,,,,,,,,,,,100,METAR,252.0
OYRN 220700Z 10013KT 9999 SCT015 27/19 Q1015,OYRN,2015-02-22T07:00:00Z,14.67,49.38,27.0,19.0,100,13,,6.21,29.970472,,,,,,,,,,,SCT,1500,,,,,,,VFR,,,,,,,,,,,,METAR,17.0
HSSS 220700Z 02012KT CAVOK 19/M09 Q1015 NOSIG,HSSS,2015-02-22T07:00:00Z,15.58,32.53,19.0,-9.0,20,12,,6.21,29.970472,,,,,,TRUE,,,,,CAVOK,,,,,,,,VFR,,,,,,,,,,,,METAR,380.0
UBBL 220700Z 21005KT 9999 -DZ OVC026 02/01 Q1028 R33/////// RMK MT OBSC,UBBL,2015-02-22T07:00:00Z,38.75,48.82,2.0,1.0,210,5,,6.21,30.35433,,,,,,,,,,-DZ,OVC,2600,,,,,,,MVFR,,,,,,,,,,,,METAR,10.0
SBFL 220700Z 00000KT 9000 BKN010 25/23 Q1018,SBFL,2015-02-22T07:00:00Z,-27.67,-48.53,25.0,23.0,0,0,,5.59,30.059055,,,,,,,,,,,BKN,1000,,,,,,,MVFR,,,,,,,,,,,,METAR,5.0
SBFI 220700Z 10009KT CAVOK 24/22 Q0994,SBFI,2015-02-22T07:00:00Z,-25.6,-54.48,24.0,22.0,100,9,,6.21,29.350393,,,,,,,,,,,CAVOK,,,,,,,,VFR,,,,,,,,,,,,METAR,243.0
NFFN 220700Z 12008KT 9999 FEW028 SCT048 BKN300 27/23 Q1006 NOSIG,NFFN,2015-02-22T07:00:00Z,-17.75,177.45,27.0,23.0,120,8,,6.21,29.704725,,,,,,TRUE,,,,,FEW,2800,SCT,4800,BKN,30000,,,VFR,,,,,,,,,,,,METAR,18.0
KEHY 220700Z AUTO 4SM -SN BKN015 OVC020 M12/M15 A3008 RMK AO2,KEHY,2015-02-22T07:00:00Z,41.73,-106.47,-12.0,-15.0,,,,4.0,30.079725,,,TRUE,TRUE,,,,,,-SN,BKN,1500,OVC,2000,,,,,MVFR,,,,,,,,,,,,METAR,2225.0
FQQL 220700Z 25004KT 9999 SCT020 28/25 Q1012,FQQL,2015-02-22T07:00:00Z,-17.87,36.87,28.0,25.0,250,4,,6.21,29.88189,,,,,,,,,,,SCT,2000,,,,,,,VFR,,,,,,,,,,,,METAR,16.0
HRYR 220700Z 00000KT 8000 FEW023 21/20 Q1020 NOSIG,HRYR,2015-02-22T07:00:00Z,-1.97,30.12,21.0,20.0,0,0,,4.97,30.11811,,,,,,TRUE,,,,,FEW,2300,,,,,,,MVFR,,,,,,,,,,,,METAR,1497.0
WAMM 220700Z 03008KT 9000 SCT020 30/24 Q1010 NOSIG,WAMM,2015-02-22T07:00:00Z,1.55,124.92,30.0,24.0,30,8,,5.59,29.822834,,,,,,TRUE,,,,,SCT,2000,,,,,,,VFR,,,,,,,,,,,,METAR,80.0
OIFM 220700Z 16006KT 6000 NSC 04/M10 Q1012 A2989,OIFM,2015-02-22T07:00:00Z,32.75,51.87,4.0,-10.0,160,6,,3.73,29.88189,,,,,,,,,,,,,,,,,,,,,,,,,,,,,,,METAR,1542.0
SBPL 220700Z 09005KT CAVOK 24/21 Q1014,SBPL,2015-02-22T07:00:00Z,-9.37,-40.57,24.0,21.0,90,5,,6.21,29.940945,,,,,,,,,,,CAVOK,,,,,,,,VFR,,,,,,,,,,,,METAR,375.0
UBEE 220700Z 13005KT 090V160 9999 OVC018 04/03 Q1026 R30/CLRD70 NOSIG,UBEE,2015-02-22T07:00:00Z,40.63,47.15,4.0,3.0,130,5,,6.21,30.295275,,,,,,TRUE,,,,,OVC,1800,,,,,,,MVFR,,,,,,,,,,,,METAR,15.0
OIKB 220700Z 21018KT 2000 HZ NSC 23/07 Q1013 A2992 NOSIG,OIKB,2015-02-22T07:00:00Z,27.22,56.37,23.0,7.0,210,18,,1.24,29.911417,,,,,,TRUE,,,,HZ,,,,,,,,,,,,,,,,,,,,,METAR,10.0
OIII 220700Z 25010KT 8000 NSC 03/M08 Q1014 A2994 NOSIG,OIII,2015-02-22T07:00:00Z,35.68,51.3,3.0,-8.0,250,10,,4.97,29.940945,,,,,,TRUE,,,,,,,,,,,,,,,,,,,,,,,,,METAR,1191.0
OITT 220700Z 03004KT 9999 FEW031TCU BKN170 01/M04 Q1020 A3013 NOSIG,OITT,2015-02-22T07:00:00Z,38.13,46.23,1.0,-4.0,30,4,,6.21,30.11811,,,,,,TRUE,,,,,FEW,3100,BKN,17000,,,,,VFR,,,,,,,,,,,,METAR,1361.0
OISS 220700Z 00000KT 6000 SCT040 SCT180 07/M06 Q1013 A2992,OISS,2015-02-22T07:00:00Z,29.52,52.57,7.0,-6.0,0,0,,3.73,29.911417,,,,,,,,,,,SCT,4000,SCT,18000,,,,,MVFR,,,,,,,,,,,,METAR,1491.0
OIMM 220700Z 30018KT 9999 -RA BKN010 OVC080 03/03 Q1015 A2999,OIMM,2015-02-22T07:00:00Z,36.23,59.62,3.0,3.0,300,18,,6.21,29.970472,,,,,,,,,,-RA,BKN,1000,OVC,8000,,,,,MVFR,,,,,,,,,,,,METAR,980.0
OIKK 220700Z 25010G20KT 6000 FEW040 08/M02 Q1013 A2994,OIKK,2015-02-22T07:00:00Z,30.25,56.97,8.0,-2.0,250,10,20,3.73,29.911417,,,,,,,,,,,FEW,4000,,,,,,,MVFR,,,,,,,,,,,,METAR,1754.0
OIZH 220700Z 22032KT 3000 -SHRA SA SCT030CB BKN090 19/02 Q1012 A2991 TEMPO +TSSHRA 23032G44KT,OIZH,2015-02-22T07:00:00Z,29.47,60.92,19.0,2.0,220,32,,1.86,29.88189,,,,,,,,,,-SHRA SA,SCT,3000,BKN,9000,,,,,IFR,,,,,,,,,,,,METAR,1370.0
OICC 220700Z 23004KT 9999 FEW030 04/M01 Q1015 A3000 NOSIG,OICC,2015-02-22T07:00:00Z,34.33,47.17,4.0,-1.0,230,4,,6.21,29.970472,,,,,,TRUE,,,,,FEW,3000,,,,,,,VFR,,,,,,,,,,,,METAR,1322.0
OIBK 220700Z 29016KT 6000 NSC 21/00 Q1015,OIBK,2015-02-22T07:00:00Z,26.53,53.98,21.0,0.0,290,16,,3.73,29.970472,,,,,,,,,,,,,,,,,,,,,,,,,,,,,,,METAR,30.0
OIAA 220700Z 29020KT 7000 SCT030CB SCT035 09/06 Q1016,OIAA,2015-02-22T07:00:00Z,30.37,48.25,9.0,6.0,290,20,,4.35,30.0,,,,,,,,,,,SCT,3000,SCT,3500,,,,,MVFR,,,,,,,,,,,,METAR,11.0
OIIE 220700Z 33028KT CAVOK 01/M09 Q1015 TEMPO 33038KT,OIIE,2015-02-22T07:00:00Z,35.42,51.15,1.0,-9.0,330,28,,6.21,29.970472,,,,,,,,,,,CAVOK,,,,,,,,VFR,,,,,,,,,,,,METAR,1008.0
OIYY 220700Z 29004KT 9999 FEW040 07/M02 Q1015,OIYY,2015-02-22T07:00:00Z,31.9,54.28,7.0,-2.0,290,4,,6.21,29.970472,,,,,,,,,,,FEW,4000,,,,,,,VFR,,,,,,,,,,,,METAR,1236.0
OITR 220700Z 25004KT 9999 SCT040 SCT170 01/M07 Q1019 NOSIG,OITR,2015-02-22T07:00:00Z,37.67,45.07,1.0,-7.0,250,4,,6.21,30.088583,,,,,,TRUE,,,,,SCT,4000,SCT,17000,,,,,VFR,,,,,,,,,,,,METAR,1312.0
YSTW 220700Z AUTO 11014KT 9999 // NCD 31/14 Q1012,YSTW,2015-02-22T07:00:00Z,-31.07,150.85,31.0,14.0,110,14,,6.21,29.88189,,,TRUE,,,,,,,,,,,,,,,,,,,,,,,,,,,,METAR,410.0
GOOY 220700Z 01009KT 8000 NSC 16/14 Q1015 NOSIG,GOOY,2015-02-22T07:00:00Z,14.72,-17.5,16.0,14.0,10,9,,4.97,29.970472,,,,,,TRUE,,,,,,,,,,,,,,,,,,,,,,,,,METAR,24.0
FNSA 220700Z 00000KT 9999 BKN017 21/20 Q1015,FNSA,2015-02-22T07:00:00Z,-9.68,20.43,21.0,20.0,0,0,,6.21,29.970472,,,,,,,,,,,BKN,1700,,,,,,,MVFR,,,,,,,,,,,,METAR,1093.0
FNUE 220700Z 09008KT 9999 TS SCT020 FEW040CB SCT060 19/// Q1019,FNUE,2015-02-22T07:00:00Z,-11.77,19.9,,,90,8,,6.21,30.088583,,,,,,,,,,TS,SCT,2000,FEW,4000,SCT,6000,,,VFR,,,,,,,,,,,,METAR,1329.0
GQNN 220700Z 04008KT 6000 NSC 14/M00 Q1017 NOSIG,GQNN,2015-02-22T07:00:00Z,18.1,-15.93,14.0,0.0,40,8,,3.73,30.029528,,,,,,TRUE,,,,,,,,,,,,,,,,,,,,,,,,,METAR,3.0
YSWG 220700Z AUTO 08007KT 9999 // NCD 34/11 Q1011,YSWG,2015-02-22T07:00:00Z,-35.13,147.47,34.0,11.0,80,7,,6.21,29.852362,,,TRUE,,,,,,,,,,,,,,,,,,,,,,,,,,,,METAR,213.0
YTRE 220700Z AUTO 08007KT //// // SCT034 BKN046 OVC056 23/21 Q1015,YTRE,2015-02-22T07:00:00Z,-31.88,152.52,23.0,21.0,80,7,,,29.970472,,,TRUE,,,,,,,,SCT,3400,BKN,4600,OVC,5600,,,,,,,,,,,,,,,METAR,12.0
YTNK 220700Z AUTO 35015KT 9999 // SCT059 SCT073 34/18 Q1007,YTNK,2015-02-22T07:00:00Z,-19.63,134.18,34.0,18.0,350,15,,6.21,29.734253,,,TRUE,,,,,,,,SCT,5900,SCT,7300,,,,,VFR,,,,,,,,,,,,METAR,377.0
YTEF 220700Z AUTO 28005KT //// // ////// 43/16 Q1002,YTEF,2015-02-22T07:00:00Z,-21.72,122.23,43.0,16.0,280,5,,,29.586615,,,TRUE,,,,,,,,,,,,,,,,,,,,,,,,,,,,METAR,296.0
YWGT 220700Z AUTO 35005KT //// // ////// 35/10 Q1011,YWGT,2015-02-22T07:00:00Z,-36.42,146.3,35.0,10.0,350,5,,,29.852362,,,TRUE,,,,,,,,,,,,,,,,,,,,,,,,,,,,METAR,153.0
YWHA 220700Z AUTO 12010KT //// // ////// 36/14 Q1005,YWHA,2015-02-22T07:00:00Z,-33.07,137.52,36.0,14.0,120,10,,,29.675198,,,TRUE,,,,,,,,,,,,,,,,,,,,,,,,,,,,METAR,13.0
YWLM 220700Z AUTO 11012KT 9999 // SCT014 25/20 Q1015,YWLM,2015-02-22T07:00:00Z,-32.8,151.83,25.0,20.0,110,12,,6.21,29.970472,,,TRUE,,,,,,,,SCT,1400,,,,,,,VFR,,,,,,,,,,,,METAR,9.0
UBBB 220700Z 35028G38KT 3000 -SNRA OVC007 01/01 Q1025 88290060 NOSIG,UBBB,2015-02-22T07:00:00Z,40.45,50.07,1.0,1.0,350,28,38,1.86,30.265747,,,,,,TRUE,,,,-SN -RA,OVC,700,,,,,,,IFR,,,,,,,,,,,,METAR,-6.0
OIAM 220700Z 27010KT 9999 SCT035CB SCT040 10/07 Q1015,OIAM,2015-02-22T07:00:00Z,30.55,49.15,10.0,7.0,270,10,,6.21,29.970472,,,,,,,,,,,SCT,3500,SCT,4000,,,,,VFR,,,,,,,,,,,,METAR,4.0
OIAG 220700Z 11010KT 8000 FEW030CB SCT035 OVC090 09/07 Q1016 RESH,OIAG,2015-02-22T07:00:00Z,30.77,49.67,9.0,7.0,110,10,,4.97,30.0,,,,,,,,,,,FEW,3000,SCT,3500,OVC,9000,,,MVFR,,,,,,,,,,,,METAR,29.0
OISL 220700Z 00000KT CAVOK 12/M00 Q1014,OISL,2015-02-22T07:00:00Z,27.67,54.37,12.0,0.0,0,0,,6.21,29.940945,,,,,,,,,,,CAVOK,,,,,,,,VFR,,,,,,,,,,,,METAR,805.0
OINR 220700Z 33016KT 9999 FEW025CB SCT027 SCT200 07/M00 Q1023,OINR,2015-02-22T07:00:00Z,36.88,50.67,7.0,0.0,330,16,,6.21,30.206694,,,,,,,,,,,FEW,2500,SCT,2700,SCT,20000,,,VFR,,,,,,,,,,,,METAR,-20.0
OINN 220700Z 30017KT 9999 SCT030 BKN090 08/02 Q1023,OINN,2015-02-22T07:00:00Z,36.67,51.47,8.0,2.0,300,17,,6.21,30.206694,,,,,,,,,,,SCT,3000,BKN,9000,,,,,VFR,,,,,,,,,,,,METAR,-19.0
OIKQ 220700Z 25028KT 3500 SA FEW025CB FEW030 SCT100 23/05 Q1013,OIKQ,2015-02-22T07:00:00Z,26.75,55.9,23.0,5.0,250,28,,2.17,29.911417,,,,,,,,,,SA,FEW,2500,FEW,3000,SCT,10000,,,IFR,,,,,,,,,,,,METAR,12.0
OICI 220700Z 27004KT 9999 FEW020 FEW030CB SCT040 04/M00 Q1013 A2992,OICI,2015-02-22T07:00:00Z,33.58,46.4,4.0,0.0,270,4,,6.21,29.911417,,,,,,,,,,,FEW,2000,FEW,3000,SCT,4000,,,VFR,,,,,,,,,,,,METAR,1343.0
OISY 220700Z 20008KT 7000 SCT040 OVC080 M00/M08 Q1012,OISY,2015-02-22T07:00:00Z,30.7,51.55,0.0,-8.0,200,8,,4.35,29.88189,,,,,,,,,,,SCT,4000,OVC,8000,,,,,MVFR,,,,,,,,,,,,METAR,1811.0
OITZ 220700Z 00000KT 9999 FEW020 SCT090 M04/M09 Q1016,OITZ,2015-02-22T07:00:00Z,36.77,48.37,-4.0,-9.0,0,0,,6.21,30.0,,,,,,,,,,,FEW,2000,SCT,9000,,,,,VFR,,,,,,,,,,,,METAR,1663.0
OIHH 220700Z 28006KT 8000 FEW030CB SCT040 BKN090 M03/M07 Q1015,OIHH,2015-02-22T07:00:00Z,34.87,48.55,-3.0,-7.0,280,6,,4.97,29.970472,,,,,,,,,,,FEW,3000,SCT,4000,BKN,9000,,,MVFR,,,,,,,,,,,,METAR,1757.0
OICS 220700Z 01006KT 9999 FEW035 01/M08 Q1017,OICS,2015-02-22T07:00:00Z,35.25,47.02,1.0,-8.0,10,6,,6.21,30.029528,,,,,,,,,,,FEW,3500,,,,,,,VFR,,,,,,,,,,,,METAR,1373.0
OICK 220700Z 31004KT 7000 FEW010 SCT040 OVC100 03/00 Q1014,OICK,2015-02-22T07:00:00Z,33.43,48.28,3.0,0.0,310,4,,4.35,29.940945,,,,,,,,,,,FEW,1000,SCT,4000,OVC,10000,,,MVFR,,,,,,,,,,,,METAR,1155.0
OIBP 220700Z 10006KT 5000 DU NSC 20/M01 Q1015 A3000,OIBP,2015-02-22T07:00:00Z,27.38,52.73,20.0,-1.0,100,6,,3.11,29.970472,,,,,,,,,,DU,,,,,,,,,,,,,,,,,,,,,METAR,9.0
OIBB 220700Z 23021KT 6000 SHRA SCT025 SCT030CB OVC100 15/08 Q1014 A2997,OIBB,2015-02-22T07:00:00Z,28.97,50.82,15.0,8.0,230,21,,3.73,29.940945,,,,,,,,,,SHRA,SCT,2500,SCT,3000,OVC,10000,,,MVFR,,,,,,,,,,,,METAR,19.0
OINZ 220700Z 22014KT 9999 FEW025TCU BKN030 07/02 Q1023,OINZ,2015-02-22T07:00:00Z,36.63,53.2,7.0,2.0,220,14,,6.21,30.206694,,,,,,,,,,,FEW,2500,BKN,3000,,,,,MVFR,,,,,,,,,,,,METAR,11.0
OITL 220700Z 11006KT 1000 SN PRFZFG BR BKN005 BKN012 OVC060 M04/M05 Q1019,OITL,2015-02-22T07:00:00Z,38.33,48.42,-4.0,-5.0,110,6,,0.62,30.088583,,,,,,,,,,SN PRFZFG BR,BKN,500,BKN,1200,OVC,6000,,,LIFR,,,,,,,,,,,,METAR,1316.0
OING 220700Z 24026KT 9999 SCT030 SCT100 10/02 Q1024,OING,2015-02-22T07:00:00Z,36.9,54.4,10.0,2.0,240,26,,6.21,30.236221,,,,,,,,,,,SCT,3000,SCT,10000,,,,,VFR,,,,,,,,,,,,METAR,155.0
OIBS 220700Z 27016KT 9999 SCT035 24/19 Q1015,OIBS,2015-02-22T07:00:00Z,25.9,54.55,24.0,19.0,270,16,,6.21,29.970472,,,,,,,,,,,SCT,3500,,,,,,,VFR,,,,,,,,,,,,METAR,14.0
OIBJ 220700Z 25010KT 6000 SCT020 OVC100 13/M00 Q1016,OIBJ,2015-02-22T07:00:00Z,27.82,52.35,13.0,0.0,250,10,,3.73,30.0,,,,,,,,,,,SCT,2000,OVC,10000,,,,,MVFR,,,,,,,,,,,,METAR,663.0
OIZB 220700Z 34018KT 8000 NSC 18/12 Q1010 RERA,OIZB,2015-02-22T07:00:00Z,31.1,61.55,18.0,12.0,340,18,,4.97,29.822834,,,,,,,,,,,,,,,,,,,,,,,,,,,,,,,METAR,489.0
OIZI 220700Z 23006KT 9999 FEW025 OVC090 24/06 Q1014,OIZI,2015-02-22T07:00:00Z,27.23,60.72,24.0,6.0,230,6,,6.21,29.940945,,,,,,,,,,,FEW,2500,OVC,9000,,,,,VFR,,,,,,,,,,,,METAR,591.0
GQPP 220700Z 01020KT 8000 NSC 15/12 Q1020 NOSIG,GQPP,2015-02-22T07:00:00Z,20.92,-17.02,15.0,12.0,10,20,,4.97,30.11811,,,,,,TRUE,,,,,,,,,,,,,,,,,,,,,,,,,METAR,3.0
GBYD 220700Z 05015KT 9000 NSC 19/04 Q1012,GBYD,2015-02-22T07:00:00Z,13.33,-16.65,19.0,4.0,50,15,,5.59,29.88189,,,,,,,,,,,,,,,,,,,,,,,,,,,,,,,METAR,36.0
FIMP 220700Z 08007KT 9999 FEW008 FEW012CB SCT015 30/25 Q1015,FIMP,2015-02-22T07:00:00Z,-20.42,57.67,30.0,25.0,80,7,,6.21,29.970472,,,,,,,,,,,FEW,800,FEW,1200,SCT,1500,,,VFR,,,,,,,,,,,,METAR,57.0
UHHH 220700Z 04011G14MPS 1200 SHSN BLSN SCT008 OVC027CB M06/M06 Q1006 BECMG 05010G15MPS,UHHH,2015-02-22T07:00:00Z,48.52,135.18,-6.0,-6.0,40,21,27,0.75,29.704725,,,,,,,,,,SHSN BLSN,SCT,800,OVC,2700,,,,,LIFR,,,,,,,,,,,,METAR,72.0
SPZO 220700Z 08003KT 9000 -DZ FEW025 SCT036 BKN080 08/06 Q1032 RMK PP008,SPZO,2015-02-22T07:00:00Z,-13.55,-71.97,8.0,6.0,80,3,,5.59,30.47244,,,,,,,,,,-DZ,FEW,2500,SCT,3600,BKN,8000,,,VFR,,,,,,,,,,,,METAR,3249.0
SPTN 220700Z 12005KT CAVOK 21/17 Q1012 RMK PP000,SPTN,2015-02-22T07:00:00Z,-18.07,-70.28,21.0,17.0,120,5,,6.21,29.88189,,,,,,,,,,,CAVOK,,,,,,,,VFR,,,,,,,,,,,,METAR,458.0
SPSO 220700Z 21007KT CAVOK 22/19 Q1011 RMK PP000,SPSO,2015-02-22T07:00:00Z,-13.73,-76.22,22.0,19.0,210,7,,6.21,29.852362,,,,,,,,,,,CAVOK,,,,,,,,VFR,,,,,,,,,,,,METAR,10.0
SPRU 220700Z 12007KT 6000 SCT050 OVC140 22/19 Q1011 RMK PP000,SPRU,2015-02-22T07:00:00Z,-8.08,-79.12,22.0,19.0,120,7,,3.73,29.852362,,,,,,,,,,,SCT,5000,OVC,14000,,,,,MVFR,,,,,,,,,,,,METAR,30.0
SPQU 220700Z 05006KT 9999 SCT017 BKN150 11/10 Q1026 RMK PP000,SPQU,2015-02-22T07:00:00Z,-16.33,-71.57,11.0,10.0,50,6,,6.21,30.295275,,,,,,,,,,,SCT,1700,BKN,15000,,,,,VFR,,,,,,,,,,,,METAR,2554.0
SPQT 220700Z 15003KT CAVOK 25/24 Q1010 RMK PP000,SPQT,2015-02-22T07:00:00Z,-3.78,-73.32,25.0,24.0,150,3,,6.21,29.822834,,,,,,,,,,,CAVOK,,,,,,,,VFR,,,,,,,,,,,,METAR,126.0
SPHI 220700Z 18005KT CAVOK 24/19 Q1011 RMK PP000,SPHI,2015-02-22T07:00:00Z,-6.77,-79.82,24.0,19.0,180,5,,6.21,29.852362,,,,,,,,,,,CAVOK,,,,,,,,VFR,,,,,,,,,,,,METAR,34.0
LDOS 220700Z 11009KT 9999 FEW040 07/03 Q1004,LDOS,2015-02-22T07:00:00Z,45.47,18.82,7.0,3.0,110,9,,6.21,29.64567,,,,,,,,,,,FEW,4000,,,,,,,VFR,,,,,,,,,,,,METAR,89.0
LDZD 220700Z 10010KT 060V140 9999 -RA SCT015 OVC033 09/09 Q0999 NOSIG,LDZD,2015-02-22T07:00:00Z,44.1,15.37,9.0,9.0,100,10,,6.21,29.498032,,,,,,TRUE,,,,-RA,SCT,1500,OVC,3300,,,,,VFR,,,,,,,,,,,,METAR,84.0
LDZA 220700Z 25002KT 8000 BKN045 04/02 Q1003 BECMG 05007KT,LDZA,2015-02-22T07:00:00Z,45.72,16.07,4.0,2.0,250,2,,4.97,29.616142,,,,,,,,,,,BKN,4500,,,,,,,MVFR,,,,,,,,,,,,METAR,107.0
LDDU 220700Z 11028KT 9999 -RA SCT023 BKN030 10/08 Q1004 NOSIG,LDDU,2015-02-22T07:00:00Z,42.57,18.27,10.0,8.0,110,28,,6.21,29.64567,,,,,,TRUE,,,,-RA,SCT,2300,BKN,3000,,,,,MVFR,,,,,,,,,,,,METAR,165.0
LDPL 220700Z 07011KT 8000 RA BKN012 OVC014 09/08 Q0999 NOSIG,LDPL,2015-02-22T07:00:00Z,44.88,13.92,9.0,8.0,70,11,,4.97,29.498032,,,,,,TRUE,,,,RA,BKN,1200,OVC,1400,,,,,MVFR,,,,,,,,,,,,METAR,63.0
LDSP 220700Z 10011KT 050V150 6000 -RA SCT013 BKN030 OVC050 12/10 Q1001 NOSIG,LDSP,2015-02-22T07:00:00Z,43.52,16.3,12.0,10.0,100,11,,3.73,29.557087,,,,,,TRUE,,,,-RA,SCT,1300,BKN,3000,OVC,5000,,,MVFR,,,,,,,,,,,,METAR,21.0
OEMA 220700Z 08009KT 9000 SKC 13/M04 Q1024 NOSIG,OEMA,2015-02-22T07:00:00Z,24.55,39.7,13.0,-4.0,80,9,,5.59,30.236221,,,,,,TRUE,,,,,SKC,,,,,,,,VFR,,,,,,,,,,,,METAR,631.0
OEJN 220700Z 35014KT CAVOK 22/05 Q1016 NOSIG,OEJN,2015-02-22T07:00:00Z,21.68,39.15,22.0,5.0,350,14,,6.21,30.0,,,,,,TRUE,,,,,CAVOK,,,,,,,,VFR,,,,,,,,,,,,METAR,15.0
OEDR 220700Z 29017G27KT 0800 BLDU SKC 17/01 Q1017 NOSIG,OEDR,2015-02-22T07:00:00Z,26.27,50.17,17.0,1.0,290,17,27,0.5,30.029528,,,,,,TRUE,,,,BLDU,SKC,,,,,,,,LIFR,,,,,,,,,,,,METAR,17.0
OEDF 220700Z 29017KT 4000 BLDU SKC 15/01 Q1018 NOSIG,OEDF,2015-02-22T07:00:00Z,26.47,49.8,15.0,1.0,290,17,,2.49,30.059055,,,,,,TRUE,,,,BLDU,SKC,,,,,,,,IFR,,,,,,,,,,,,METAR,22.0
SPCL 220700Z 14004KT 9999 BKN013 BKN070 22/21 Q1013 RMK PP000,SPCL,2015-02-22T07:00:00Z,-8.38,-74.58,22.0,21.0,140,4,,6.21,29.911417,,,,,,,,,,,BKN,1300,BKN,7000,,,,,MVFR,,,,,,,,,,,,METAR,149.0
SBSN 220700Z 15003KT 9999 -RA SCT013 BKN100 24/24 Q1009,SBSN,2015-02-22T07:00:00Z,-2.42,-54.78,24.0,24.0,150,3,,6.21,29.793306,,,,,,,,,,-RA,SCT,1300,BKN,10000,,,,,VFR,,,,,,,,,,,,METAR,72.0
LEMO 220700Z 19007KT CAVOK 04/03 Q1017 NOSIG,LEMO,2015-02-22T07:00:00Z,37.17,-5.62,4.0,3.0,190,7,,6.21,30.029528,,,,,,TRUE,,,,,CAVOK,,,,,,,,VFR,,,,,,,,,,,,METAR,88.0
SBVT 220700Z 00000KT 9999 FEW020 24/22 Q1017,SBVT,2015-02-22T07:00:00Z,-20.27,-40.27,24.0,22.0,0,0,,6.21,30.029528,,,,,,,,,,,FEW,2000,,,,,,,VFR,,,,,,,,,,,,METAR,4.0
MHTG 220700Z 36004KT 9999 FEW028 18/15 Q1020 A3012 NOSIG,MHTG,2015-02-22T07:00:00Z,14.07,-87.22,18.0,15.0,360,4,,6.21,30.11811,,,,,,TRUE,,,,,FEW,2800,,,,,,,VFR,,,,,,,,,,,,METAR,1004.0
MHLM 220700Z 00000KT 9999 FEW025 20/20 Q1015 A2997 NOSIG,MHLM,2015-02-22T07:00:00Z,15.45,-87.93,20.0,20.0,0,0,,6.21,29.970472,,,,,,TRUE,,,,,FEW,2500,,,,,,,VFR,,,,,,,,,,,,METAR,26.0
SBCY 220700Z 00000KT 9999 FEW020 BKN100 23/21 Q1013,SBCY,2015-02-22T07:00:00Z,-15.65,-56.12,23.0,21.0,0,0,,6.21,29.911417,,,,,,,,,,,FEW,2000,BKN,10000,,,,,VFR,,,,,,,,,,,,METAR,182.0
SBSP 220700Z 14005KT CAVOK 21/18 Q1021,SBSP,2015-02-22T07:00:00Z,-23.62,-46.63,21.0,18.0,140,5,,6.21,30.147638,,,,,,,,,,,CAVOK,,,,,,,,VFR,,,,,,,,,,,,METAR,803.0
LWSK 220700Z 17005KT 130V210 9999 BKN018 OVC046 07/04 Q1013 NOSIG,LWSK,2015-02-22T07:00:00Z,41.97,21.63,7.0,4.0,170,5,,6.21,29.911417,,,,,,TRUE,,,,,BKN,1800,OVC,4600,,,,,MVFR,,,,,,,,,,,,METAR,239.0
WADL 220700Z 30014KT 9999 SCT016 31/25 Q1007 NOSIG,WADL,2015-02-22T07:00:00Z,-8.75,116.28,31.0,25.0,300,14,,6.21,29.734253,,,,,,TRUE,,,,,SCT,1600,,,,,,,VFR,,,,,,,,,,,,METAR,97.0
FMMI 220700Z 13005KT 090V180 9999 SCT017 BKN090 21/21 Q1022 NOSIG,FMMI,2015-02-22T07:00:00Z,-18.8,47.47,21.0,21.0,130,5,,6.21,30.177166,,,,,,TRUE,,,,,SCT,1700,BKN,9000,,,,,VFR,,,,,,,,,,,,METAR,1276.0
SBGL 220700Z 14003KT CAVOK 25/22 Q1017,SBGL,2015-02-22T07:00:00Z,-22.82,-43.25,25.0,22.0,140,3,,6.21,30.029528,,,,,,,,,,,CAVOK,,,,,,,,VFR,,,,,,,,,,,,METAR,6.0
SBMN 220700Z 12002KT 9999 FEW009 BKN100 25/23 Q1010,SBMN,2015-02-22T07:00:00Z,-3.13,-59.97,25.0,23.0,120,2,,6.21,29.822834,,,,,,,,,,,FEW,900,BKN,10000,,,,,VFR,,,,,,,,,,,,METAR,84.0
MHCA 220700Z 12002KT 9999 SCT026 BKN070 21/19 Q1018,MHCA,2015-02-22T07:00:00Z,14.9,-85.78,21.0,19.0,120,2,,6.21,30.059055,,,,,,,,,,,SCT,2600,BKN,7000,,,,,VFR,,,,,,,,,,,,METAR,442.0
OYSQ 220700Z 04010KT 9999 FEW018 27/19 Q1013,OYSQ,2015-02-22T07:00:00Z,12.62,53.88,27.0,19.0,40,10,,6.21,29.911417,,,,,,,,,,,FEW,1800,,,,,,,VFR,,,,,,,,,,,,METAR,45.0
SBBV 220700Z 05012KT CAVOK 23/19 Q1010,SBBV,2015-02-22T07:00:00Z,2.85,-60.7,23.0,19.0,50,12,,6.21,29.822834,,,,,,,,,,,CAVOK,,,,,,,,VFR,,,,,,,,,,,,METAR,140.0
MGGT 220700Z 36010KT 5000 BR BKN004 BKN012 15/13 Q1025 A3027,MGGT,2015-02-22T07:00:00Z,14.57,-90.53,15.0,13.0,360,10,,3.11,30.265747,,,,,,,,,,BR,BKN,400,BKN,1200,,,,,LIFR,,,,,,,,,,,,METAR,1509.0
UKON 220700Z 13005MPS 9999 BKN021 01/M02 Q1021 NOSIG,UKON,2015-02-22T07:00:00Z,47.05,31.92,1.0,-2.0,130,10,,6.21,30.147638,,,,,,TRUE,,,,,BKN,2100,,,,,,,MVFR,,,,,,,,,,,,METAR,56.0
UKLI 220700Z 12001MPS CAVOK 01/M00 Q1011 28090070 NOSIG,UKLI,2015-02-22T07:00:00Z,48.88,24.68,1.0,0.0,120,2,,6.21,29.852362,,,,,,TRUE,,,,,CAVOK,,,,,,,,VFR,,,,,,,,,,,,METAR,280.0
UKLR 220700Z VRB01MPS CAVOK 01/M01 Q1011 NOSIG,UKLR,2015-02-22T07:00:00Z,50.6,26.13,1.0,-1.0,0,2,,6.21,29.852362,,,,,,TRUE,,,,,CAVOK,,,,,,,,VFR,,,,,,,,,,,,METAR,230.0
SBJP 220700Z 21006KT 9999 BKN020 24/22 Q1011,SBJP,2015-02-22T07:00:00Z,-7.15,-34.95,24.0,22.0,210,6,,6.21,29.852362,,,,,,,,,,,BKN,2000,,,,,,,MVFR,,,,,,,,,,,,METAR,7.0
NTAA 220700Z 18003KT 160V230 9999 FEW020 28/22 Q1013 NOSIG,NTAA,2015-02-22T07:00:00Z,-17.55,-149.62,28.0,22.0,180,3,,6.21,29.911417,,,,,,TRUE,,,,,FEW,2000,,,,,,,VFR,,,,,,,,,,,,METAR,2.0
UBBY 220700Z 12004KT 8000 OVC022 03/02 Q1027 R33/////// NOSIG RMK MT OBSC,UBBY,2015-02-22T07:00:00Z,41.57,46.67,3.0,2.0,120,4,,4.97,30.324802,,,,,,TRUE,,,,,OVC,2200,,,,,,,MVFR,,,,,,,,,,,,METAR,390.0
SBGO 220700Z 02002KT CAVOK 19/18 Q1018,SBGO,2015-02-22T07:00:00Z,-16.62,-49.22,19.0,18.0,20,2,,6.21,30.059055,,,,,,,,,,,CAVOK,,,,,,,,VFR,,,,,,,,,,,,METAR,747.0
LUKK 220700Z 17013KT 9999 SCT011 04/00 Q1017 R26/150060 NOSIG,LUKK,2015-02-22T07:00:00Z,46.93,28.93,4.0,0.0,170,13,,6.21,30.029528,,,,,,TRUE,,,,,SCT,1100,,,,,,,VFR,,,,,,,,,,,,METAR,122.0
SBMQ 220700Z 27002KT 9999 FEW004 BKN006 BKN080 24/24 Q1010,SBMQ,2015-02-22T07:00:00Z,0.05,-51.07,24.0,24.0,270,2,,6.21,29.822834,,,,,,,,,,,FEW,400,BKN,600,BKN,8000,,,IFR,,,,,,,,,,,,METAR,15.0
SBRP 220700Z 10004KT CAVOK 21/18 Q1017,SBRP,2015-02-22T07:00:00Z,-21.12,-47.77,21.0,18.0,100,4,,6.21,30.029528,,,,,,,,,,,CAVOK,,,,,,,,VFR,,,,,,,,,,,,METAR,549.0
LDRI 220700Z 08004KT 040V160 8000 -RA SCT027 OVC040 09/07 Q1000,LDRI,2015-02-22T07:00:00Z,45.22,14.57,9.0,7.0,80,4,,4.97,29.52756,,,,,,,,,,-RA,SCT,2700,OVC,4000,,,,,MVFR,,,,,,,,,,,,METAR,85.0
VOBL 220700Z 09013KT CAVOK 32/08 Q10,VOBL,2015-02-22T07:00:00Z,13.2,77.7,32.0,8.0,90,13,,6.21,,,,,,,,,,,,CAVOK,,,,,,,,VFR,,,,,,,,,,,,METAR,915.0
SBLO 220700Z 14003KT CAVOK 23/23 Q1019,SBLO,2015-02-22T07:00:00Z,-23.32,-51.12,23.0,23.0,140,3,,6.21,30.088583,,,,,,,,,,,CAVOK,,,,,,,,VFR,,,,,,,,,,,,METAR,570.0
LUBL 220700Z AUTO 16014KT 9999 ///005 02/01 Q1014,LUBL,2015-02-22T07:00:00Z,47.83,27.78,2.0,1.0,160,14,,6.21,29.940945,,,TRUE,,,,,,,,,,,,,,,,,,,,,,,,,,,,METAR,232.0
SBSJ 220700Z 14004KT 9999 FEW020 22/19 Q1020,SBSJ,2015-02-22T07:00:00Z,-23.22,-45.87,22.0,19.0,140,4,,6.21,30.11811,,,,,,,,,,,FEW,2000,,,,,,,VFR,,,,,,,,,,,,METAR,646.0
SOCA 220700Z AUTO 04007KT 9999 FEW022/// SCT037/// BKN064/// 26/23 Q1011,SOCA,2015-02-22T07:00:00Z,4.82,-52.37,26.0,23.0,40,7,,6.21,29.852362,,,TRUE,,,,,,,,,,,,,,,,,,,,,,,,,,,,METAR,9.0
SBMA 220700Z 14002KT 9999 -RA SCT015 OVC070 22/22 Q1012,SBMA,2015-02-22T07:00:00Z,-5.37,-49.13,22.0,22.0,140,2,,6.21,29.88189,,,,,,,,,,-RA,SCT,1500,OVC,7000,,,,,VFR,,,,,,,,,,,,METAR,102.0
OITM 220700Z 00000KT 9999 FEW035 SCT100 BKN180 M00/M04 Q1018,OITM,2015-02-22T07:00:00Z,37.35,46.15,0.0,-4.0,0,0,,6.21,30.059055,,,,,,,,,,,FEW,3500,SCT,10000,BKN,18000,,,VFR,,,,,,,,,,,,METAR,1340.0
OITK 220700Z 25002KT 9999 FEW035 SCT190 M04/M06 Q1019,OITK,2015-02-22T07:00:00Z,38.42,44.98,-4.0,-6.0,250,2,,6.21,30.088583,,,,,,,,,,,FEW,3500,SCT,19000,,,,,VFR,,,,,,,,,,,,METAR,1107.0
OINE 220700Z 19010KT 8000 BKN025 OVC080 07/03 Q1022,OINE,2015-02-22T07:00:00Z,37.38,55.45,7.0,3.0,190,10,,4.97,30.177166,,,,,,,,,,,BKN,2500,OVC,8000,,,,,MVFR,,,,,,,,,,,,METAR,130.0
OIMQ 220700Z 00000KT 9999 FEW020 SCT035 OVC100 08/06 Q1012,OIMQ,2015-02-22T07:00:00Z,35.23,58.47,8.0,6.0,0,0,,6.21,29.88189,,,,,,,,,,,FEW,2000,SCT,3500,OVC,10000,,,VFR,,,,,,,,,,,,METAR,1140.0
OIMD 220700Z 00000KT 5000 BR FEW030CB SCT030 OVC080 07/05 Q1009,OIMD,2015-02-22T07:00:00Z,34.38,58.63,7.0,5.0,0,0,,3.11,29.793306,,,,,,,,,,BR,FEW,3000,SCT,3000,OVC,8000,,,MVFR,,,,,,,,,,,,METAR,1100.0
OIMC 220700Z 33019KT 4000 BR BKN020 OVC080 07/05 Q1018,OIMC,2015-02-22T07:00:00Z,36.5,61.07,7.0,5.0,330,19,,2.49,30.059055,,,,,,,,,,BR,BKN,2000,OVC,8000,,,,,IFR,,,,,,,,,,,,METAR,288.0
OIIK 220700Z 34006KT CAVOK 00/M10 Q1016,OIIK,2015-02-22T07:00:00Z,36.25,50.05,0.0,-10.0,340,6,,6.21,30.0,,,,,,,,,,,CAVOK,,,,,,,,VFR,,,,,,,,,,,,METAR,1278.0
OIBQ 220700Z 29014KT 7000 SCT040 BKN090 14/10 Q1015,OIBQ,2015-02-22T07:00:00Z,29.27,50.32,14.0,10.0,290,14,,4.35,29.970472,,,,,,,,,,,SCT,4000,BKN,9000,,,,,MVFR,,,,,,,,,,,,METAR,6.0
UTAA 220700Z 31006MPS 9999 -SHRA SCT010 FEW016CB OVC016 06/04 Q1018 R30/290050 NOSIG,UTAA,2015-02-22T07:00:00Z,37.98,58.37,6.0,4.0,310,12,,6.21,30.059055,,,,,,TRUE,,,,-SHRA,SCT,1000,FEW,1600,OVC,1600,,,MVFR,,,,,,,,,,,,METAR,210.0
AGGH 220700Z 18003KT 9999 HZ FEW015 SCT026 OVC100 25/25 Q1009,AGGH,2015-02-22T07:00:00Z,-9.42,160.05,25.0,25.0,180,3,,6.21,29.793306,,,,,,,,,,HZ,FEW,1500,SCT,2600,OVC,10000,,,VFR,,,,,,,,,,,,METAR,9.0
OIMB 220700Z 26004KT 6000 FEW020 BKN035CB BKN090 09/05 Q1011,OIMB,2015-02-22T07:00:00Z,32.9,59.28,9.0,5.0,260,4,,3.73,29.852362,,,,,,,,,,,FEW,2000,BKN,3500,BKN,9000,,,MVFR,,,,,,,,,,,,METAR,1491.0
OIIP 220700Z 30020KT 7000 FEW035 BKN100 M04/M09 Q1015,OIIP,2015-02-22T07:00:00Z,35.78,50.83,-4.0,-9.0,300,20,,4.35,29.970472,,,,,,,,,,,FEW,3500,BKN,10000,,,,,MVFR,,,,,,,,,,,,METAR,1271.0
OIFS 220700Z 29004KT 9999 SCT035 OVC080 M01/M12 Q1010,OIFS,2015-02-22T07:00:00Z,32.32,50.85,-1.0,-12.0,290,4,,6.21,29.822834,,,,,,,,,,,SCT,3500,OVC,8000,,,,,VFR,,,,,,,,,,,,METAR,2078.0
OIBV 220700Z 22008KT 7000 SKC 20/03 Q1015,OIBV,2015-02-22T07:00:00Z,26.82,53.35,20.0,3.0,220,8,,4.35,29.970472,,,,,,,,,,,SKC,,,,,,,,MVFR,,,,,,,,,,,,METAR,24.0
OIBA 220700Z 27016KT 8000 SCT035 SCT090 21/06 Q1014,OIBA,2015-02-22T07:00:00Z,25.88,55.03,21.0,6.0,270,16,,4.97,29.940945,,,,,,,,,,,SCT,3500,SCT,9000,,,,,MVFR,,,,,,,,,,,,METAR,7.0
KSTS 220700Z AUTO 00000KT 1SM BR VV007 08/07 A2984 RMK AO2,KSTS,2015-02-22T07:00:00Z,38.5,-122.82,8.0,7.0,0,0,,1.0,29.840551,,,TRUE,TRUE,,,,,,BR,OVX,0,,,,,,,LIFR,,,,,,,,,,,700,METAR,39.0
KRHP 220700Z AUTO 00000KT 2SM -RA OVC024 03/03 A3011 RMK AO2 T00280028,KRHP,2015-02-22T07:00:00Z,35.18,-83.85,2.8,2.8,0,0,,2.0,30.109253,,,TRUE,TRUE,,,,,,-RA,OVC,2400,,,,,,,IFR,,,,,,,,,,,,METAR,518.0
KRBD 220700Z 06009KT 10SM BKN017 09/06 A3001 RMK AO2 T00940056,KRBD,2015-02-22T07:00:00Z,32.68,-96.87,9.4,5.6,60,9,,10.0,30.008858,,,,TRUE,,,,,,,BKN,1700,,,,,,,MVFR,,,,,,,,,,,,METAR,203.0
KPNS 220700Z AUTO 20006KT 4SM -RA BR SCT005 BKN019 OVC035 17/17 A3008 RMK AO2 P0000 T01720167,KPNS,2015-02-22T07:00:00Z,30.48,-87.18,17.2,16.7,200,6,,4.0,30.079725,,,TRUE,TRUE,,,,,,-RA BR,SCT,500,BKN,1900,OVC,3500,,,MVFR,,,,,,0.0050,,,,,,METAR,38.0
KPAH 220700Z AUTO 29003KT 1/2SM FZFG CLR M03/M03 A3021 RMK AO2 T10281033,KPAH,2015-02-22T07:00:00Z,37.07,-88.77,-2.8,-3.3,290,3,,0.5,30.209646,,,TRUE,TRUE,,,,,,FZFG,CLR,,,,,,,,LIFR,,,,,,,,,,,,METAR,119.0
KMLU 220700Z AUTO 02011KT 10SM SCT008 OVC046 06/04 A3010 RMK AO2 T00560044,KMLU,2015-02-22T07:00:00Z,32.52,-92.03,5.6,4.4,20,11,,10.0,30.100393,,,TRUE,TRUE,,,,,,,SCT,800,OVC,4600,,,,,VFR,,,,,,,,,,,,METAR,29.0
KM19 220700Z AUTO 02008KT 8SM BKN013 01/00 A3021 RMK AO2 BKN V SCT,KM19,2015-02-22T07:00:00Z,35.65,-91.17,1.0,0.0,20,8,,8.0,30.209646,,,TRUE,TRUE,,,,,,,BKN,1300,,,,,,,MVFR,,,,,,,,,,,,METAR,73.0
KLOZ 220700Z AUTO 35005KT 7SM BKN004 OVC012 03/01 A3009 RMK AO2 T00330011,KLOZ,2015-02-22T07:00:00Z,37.08,-84.07,3.3,1.1,350,5,,7.0,30.088583,,,TRUE,TRUE,,,,,,,BKN,400,OVC,1200,,,,,LIFR,,,,,,,,,,,,METAR,362.0
KIAG 220700Z AUTO 00000KT 1/4SM R28R/1000V3500FT FZFG VV011 M16/M16 A3011 RMK AO2 T11561161,KIAG,2015-02-22T07:00:00Z,43.12,-78.93,-15.6,-16.1,0,0,,0.25,30.109253,,,TRUE,TRUE,,,,,,FZFG,OVX,0,,,,,,,LIFR,,,,,,,,,,,1100,METAR,182.0
KDEN 220700Z 35008KT 1SM R35L/5000VP6000FT -SN BR VV010 M09/M11 A3025 RMK AO2 TWR VIS 1 1/2 P0000 T10941111 $,KDEN,2015-02-22T07:00:00Z,39.85,-104.65,-9.4,-11.1,350,8,,1.0,30.250984,,,,TRUE,TRUE,,,,,-SN BR,OVX,0,,,,,,,LIFR,,,,,,0.0050,,,,,1000,METAR,1640.0
KANB 220700Z AUTO 03004KT 8SM -RA FEW005 BKN080 OVC100 11/10 A3009 RMK AO2 P0001 T01110100,KANB,2015-02-22T07:00:00Z,33.58,-85.85,11.1,10.0,30,4,,8.0,30.088583,,,TRUE,TRUE,,,,,,-RA,FEW,500,BKN,8000,OVC,10000,,,VFR,,,,,,0.01,,,,,,METAR,183.0
LUBM 220700Z 13005LT 6000 BKN016 04/M01 Q1015 R25/CLRD65,LUBM,2015-02-22T07:00:00Z,47.87,28.22,4.0,-1.0,,,,3.73,29.970472,,,,,,,,,,,BKN,1600,,,,,,,MVFR,,,,,,,,,,,,METAR,95.0
UGSB 220700Z 09004KT 010V170 CAVOK 08/02 Q1027 R13/CLRD70 NOSIG,UGSB,2015-02-22T07:00:00Z,41.62,41.6,8.0,2.0,90,4,,6.21,30.324802,,,,,,TRUE,,,,,CAVOK,,,,,,,,VFR,,,,,,,,,,,,METAR,32.0
UGKO 220700Z 05006KT 9999 BKN049 07/03 Q1026 R07/09//70 NOSIG,UGKO,2015-02-22T07:00:00Z,42.18,42.48,7.0,3.0,50,6,,6.21,30.295275,,,,,,TRUE,,,,,BKN,4900,,,,,,,VFR,,,,,,,,,,,,METAR,68.0
UGTB 220700Z 31021KT CAVOK 06/M02 Q1024 R31L/CLRD80 NOSIG,UGTB,2015-02-22T07:00:00Z,41.67,44.95,6.0,-2.0,310,21,,6.21,30.236221,,,,,,TRUE,,,,,CAVOK,,,,,,,,VFR,,,,,,,,,,,,METAR,495.0
KSMX 220700Z AUTO 18003KT 9SM OVC030 14/11 A2989 RMK AO2 T01440106 TSNO,KSMX,2015-02-22T07:00:00Z,34.9,-120.45,14.4,10.6,180,3,,9.0,29.890747,,,TRUE,TRUE,,,TRUE,,,,OVC,3000,,,,,,,MVFR,,,,,,,,,,,,METAR,74.0
KQEP 220700Z AUTO 28007G16KT 9999 CLR 05/M05 A2996 RMK A02 TSNO,KQEP,2015-02-22T07:00:00Z,100.65,-1000.65,5.0,-5.0,280,7,16,6.21,29.958662,,,TRUE,TRUE,,,TRUE,,,,CLR,,,,,,,,VFR,,,,,,,,,,,,METAR,999.0
KQEW 220700Z AUTO 27008G15KT 9999 CLR 10/M01 A2993 RMK A02 TSNO,KQEW,2015-02-22T07:00:00Z,100.65,-1000.65,10.0,-1.0,270,8,15,6.21,29.929134,,,TRUE,TRUE,,,TRUE,,,,CLR,,,,,,,,VFR,,,,,,,,,,,,METAR,999.0
KQFU 220700Z AUTO 08008G19KT 9000 HZ CLR 05/M05 A2999 RMK A02 TSNO,KQFU,2015-02-22T07:00:00Z,100.65,-1000.65,5.0,-5.0,80,8,19,5.59,29.991142,,,TRUE,TRUE,,,TRUE,,,HZ,CLR,,,,,,,,VFR,,,,,,,,,,,,METAR,999.0
KQFX 220700Z AUTO 26005G15KT 4000 HZ SCT010 BKN012 05/M04 A3002 RMK A02 TSNO,KQFX,2015-02-22T07:00:00Z,100.65,-1000.65,5.0,-4.0,260,5,15,2.49,30.02067,,,TRUE,TRUE,,,TRUE,,,HZ,SCT,1000,BKN,1200,,,,,IFR,,,,,,,,,,,,METAR,999.0
UBBQ 220700Z 10002KT 9000 OVC003 03/01 Q1024 R16/29//60 NOSIG RMK MT OBSC,UBBQ,2015-02-22T07:00:00Z,40.82,47.72,3.0,1.0,100,2,,5.59,30.236221,,,,,,TRUE,,,,,OVC,300,,,,,,,LIFR,,,,,,,,,,,,METAR,338.0
GMAD 220700Z 10004KT 8000 SCT010 SCT020 13/10 Q1017 NOSIG,GMAD,2015-02-22T07:00:00Z,30.32,-9.42,13.0,10.0,100,4,,4.97,30.029528,,,,,,TRUE,,,,,SCT,1000,SCT,2000,,,,,MVFR,,,,,,,,,,,,METAR,74.0
KS39 220700Z AUTO 32008KT 10SM FEW060 M00/M05 A3029 RMK AO2,KS39,2015-02-22T07:00:00Z,44.28,-120.9,0.0,-5.0,320,8,,10.0,30.28937,,,TRUE,TRUE,,,,,,,FEW,6000,,,,,,,VFR,,,,,,,,,,,,METAR,991.0
KGRY 220700Z AUTO 23013KT 9SM CLR 22/17 A3005 RMK A01,KGRY,2015-02-22T07:00:00Z,27.63,-90.45,22.0,17.0,230,13,,9.0,30.050198,,,TRUE,TRUE,,,,,,,CLR,,,,,,,,VFR,,,,,,,,,,,,METAR,58.0
GMFF 220700Z 28008KT 9999 SCT026 08/06 Q1020 NOSIG,GMFF,2015-02-22T07:00:00Z,33.92,-4.97,8.0,6.0,280,8,,6.21,30.11811,,,,,,TRUE,,,,,SCT,2600,,,,,,,VFR,,,,,,,,,,,,METAR,579.0
GMME 220700Z 20006KT 5000 SCT013 BKN016 11/09 Q1020 NOSIG,GMME,2015-02-22T07:00:00Z,34.03,-6.77,11.0,9.0,200,6,,3.11,30.11811,,,,,,TRUE,,,,,SCT,1300,BKN,1600,,,,,MVFR,,,,,,,,,,,,METAR,75.0
GMTT 220700Z 29010KT 8000 BKN016 12/09 Q1018 NOSIG,GMTT,2015-02-22T07:00:00Z,35.72,-5.9,12.0,9.0,290,10,,4.97,30.059055,,,,,,TRUE,,,,,BKN,1600,,,,,,,MVFR,,,,,,,,,,,,METAR,21.0
GMAG 220700Z ///12KT 9999 BKN016 13/10 Q1017 NOSIG,GMAG,2015-02-22T07:00:00Z,29.03,-10.05,13.0,10.0,,,,6.21,30.029528,,,,,,TRUE,,,,,BKN,1600,,,,,,,MVFR,,,,,,,,,,,,METAR,333.0
GMFK 220700Z 16004KT CAVOK 07/01 Q1014 NOSIG,GMFK,2015-02-22T07:00:00Z,31.95,-4.4,7.0,1.0,160,4,,6.21,29.940945,,,,,,TRUE,,,,,CAVOK,,,,,,,,VFR,,,,,,,,,,,,METAR,1045.0
GMFM 220700Z 25006KT 8000 BKN016 07/05 Q1020 NOSIG,GMFM,2015-02-22T07:00:00Z,33.87,-5.52,7.0,5.0,250,6,,4.97,30.11811,,,,,,TRUE,,,,,BKN,1600,,,,,,,MVFR,,,,,,,,,,,,METAR,549.0
GMFO 220700Z 28008KT 250V320 9999 SCT013 SCT023 BKN033 11/07 Q1013 NOSIG,GMFO,2015-02-22T07:00:00Z,34.77,-1.92,11.0,7.0,280,8,,6.21,29.911417,,,,,,TRUE,,,,,SCT,1300,SCT,2300,BKN,3300,,,VFR,,,,,,,,,,,,METAR,470.0
GMMB 220700Z AUTO 18006KT //// NCD 09/09 Q1021,GMMB,2015-02-22T07:00:00Z,33.65,-7.63,9.0,9.0,180,6,,,30.147638,,,TRUE,,,,,,,,,,,,,,,,,,,,,,,,,,,,METAR,191.0
GMMC 220700Z /////KT 6000 FEW016 SCT026 12/09 Q1020,GMMC,2015-02-22T07:00:00Z,33.57,-7.67,12.0,9.0,,,,3.73,30.11811,,,,,,,,,,,FEW,1600,SCT,2600,,,,,MVFR,,,,,,,,,,,,METAR,62.0
GMMH 220700Z 03005KT 5000 SCT010 BKN016 16/15 Q1021 NOSIG,GMMH,2015-02-22T07:00:00Z,23.72,-15.93,16.0,15.0,30,5,,3.11,30.147638,,,,,,TRUE,,,,,SCT,1000,BKN,1600,,,,,MVFR,,,,,,,,,,,,METAR,11.0
GMMI 220700Z AUTO 06005KT 9999NDV NCD 10/07 Q1020 NOSIG,GMMI,2015-02-22T07:00:00Z,31.4,-9.68,10.0,7.0,60,5,,,30.11811,,,TRUE,,,TRUE,,,,,,,,,,,,,,,,,,,,,,,,,METAR,8.0
GMMW 220700Z 29003KT 180V330 9999 FEW020 SCT100 09/05 Q1014 NOSIG,GMMW,2015-02-22T07:00:00Z,34.98,-3.02,9.0,5.0,290,3,,6.21,29.940945,,,,,,TRUE,,,,,FEW,2000,SCT,10000,,,,,VFR,,,,,,,,,,,,METAR,175.0
GMTA 220700Z 18006KT 9999 FEW020 BKN200 09/07 Q1015 NOSIG,GMTA,2015-02-22T07:00:00Z,35.17,-3.85,9.0,7.0,180,6,,6.21,29.970472,,,,,,TRUE,,,,,FEW,2000,BKN,20000,,,,,VFR,,,,,,,,,,,,METAR,14.0
OIGG 220700Z 30004KT 4000 -RA SCT010 FEW012CB OVC070 04/04 Q1026,OIGG,2015-02-22T07:00:00Z,37.33,49.6,4.0,4.0,300,4,,2.49,30.295275,,,,,,,,,,-RA,SCT,1000,FEW,1200,OVC,7000,,,IFR,,,,,,,,,,,,METAR,-13.0
PAOM 220700Z 11015KT 3SM BR OVC010 01/01 A2947 RMK AO2 T00110011,PAOM,2015-02-22T07:00:00Z,64.5,-165.43,1.1,1.1,110,15,,3.0,29.471457,,,,TRUE,,,,,,BR,OVC,1000,,,,,,,MVFR,,,,,,,,,,,,METAR,11.0
PASI 220700Z 34006KT 4SM -RA BR OVC025 06/06 A3038 RMK AO2 P0000 T00560056,PASI,2015-02-22T07:00:00Z,57.07,-135.35,5.6,5.6,340,6,,4.0,30.380905,,,,TRUE,,,,,,-RA BR,OVC,2500,,,,,,,MVFR,,,,,,0.0050,,,,,,METAR,5.0
PHTO 220700Z 23006KT 2 1/2SM +RA BR BKN010 OVC015 21/21 A3002 RMK AO2 P0007 T02110206 $,PHTO,2015-02-22T07:00:00Z,19.72,-155.05,21.1,20.6,230,6,,2.5,30.02067,,,,TRUE,TRUE,,,,,+RA BR,BKN,1000,OVC,1500,,,,,IFR,,,,,,0.07,,,,,,METAR,12.0
TLPL 220700Z 07017KT 9999 SCT023 SCT040 26/21 Q1015 NOSIG,TLPL,2015-02-22T07:00:00Z,13.75,-60.95,26.0,21.0,70,17,,6.21,29.970472,,,,,,TRUE,,,,,SCT,2300,SCT,4000,,,,,VFR,,,,,,,,,,,,METAR,3.0
SUMU 220700Z 00000KT CAVOK 19/17 Q1019 NOSIG,SUMU,2015-02-22T07:00:00Z,-34.82,-56.0,19.0,17.0,0,0,,6.21,30.088583,,,,,,TRUE,,,,,CAVOK,,,,,,,,VFR,,,,,,,,,,,,METAR,32.0
SULS 220700Z 33003KT 9999 SCT014 BKN070 17/15 Q1019,SULS,2015-02-22T07:00:00Z,-34.87,-55.1,17.0,15.0,330,3,,6.21,30.088583,,,,,,,,,,,SCT,1400,BKN,7000,,,,,VFR,,,,,,,,,,,,METAR,30.0
LCLK 220700Z 34004KT 9999 FEW025 13/02 Q1022 NOSIG,LCLK,2015-02-22T07:00:00Z,34.87,33.62,13.0,2.0,340,4,,6.21,30.177166,,,,,,TRUE,,,,,FEW,2500,,,,,,,VFR,,,,,,,,,,,,METAR,2.0
LCPH 220700Z 02005KT 9999 FEW030 13/06 Q1022,LCPH,2015-02-22T07:00:00Z,34.72,32.47,13.0,6.0,20,5,,6.21,30.177166,,,,,,,,,,,FEW,3000,,,,,,,VFR,,,,,,,,,,,,METAR,8.0
NGFU 220700Z 27008KT 9999 VCSH SCT018TCU BKN110 30/25 Q1008,NGFU,2015-02-22T07:00:00Z,-8.52,179.22,30.0,25.0,270,8,,6.21,29.763779,,,,,,,,,,VCSH,SCT,1800,BKN,11000,,,,,VFR,,,,,,,,,,,,METAR,1.0
WAJJ 220700Z 30012KT 9999 SCT015TCU 31/23 Q1006,WAJJ,2015-02-22T07:00:00Z,-2.58,140.52,31.0,23.0,300,12,,6.21,29.704725,,,,,,,,,,,SCT,1500,,,,,,,VFR,,,,,,,,,,,,METAR,88.0
SBKP 220700Z 12010KT CAVOK 21/19 Q1019,SBKP,2015-02-22T07:00:00Z,-23.0,-47.12,21.0,19.0,120,10,,6.21,30.088583,,,,,,,,,,,CAVOK,,,,,,,,VFR,,,,,,,,,,,,METAR,661.0
BIAR 220700Z 26003KT CAVOK M08/M14 Q0987 R01/010074,BIAR,2015-02-22T07:00:00Z,65.67,-18.07,-8.0,-14.0,260,3,,6.21,29.143702,,,,,,,,,,,CAVOK,,,,,,,,VFR,,,,,,,,,,,,METAR,27.0
BIEG 220700Z VRB03KT 7000 -SHSN BKN038 OVC130 M11/M14 Q0992 R04/910195,BIEG,2015-02-22T07:00:00Z,65.27,-14.4,-11.0,-14.0,0,3,,4.35,29.291338,,,,,,,,,,-SHSN,BKN,3800,OVC,13000,,,,,MVFR,,,,,,,,,,,,METAR,38.0
BIRK 220700Z 08025KT 9999 R19///// FEW 018 SCT040 BKN120 M04/M06 Q0974,BIRK,2015-02-22T07:00:00Z,64.13,-21.93,-4.0,-6.0,80,25,,6.21,28.759842,,,,,,,,,,,FEW,1800,SCT,4000,BKN,12000,,,VFR,,,,,,,,,,,,METAR,61.0
LYBE 220700Z 12018KT 9999 SCT040 09/02 Q1006 NOSIG,LYBE,2015-02-22T07:00:00Z,44.82,20.28,9.0,2.0,120,18,,6.21,29.704725,,,,,,TRUE,,,,,SCT,4000,,,,,,,VFR,,,,,,,,,,,,METAR,99.0
OYTZ 220700Z 28006KT 9999 FEW025 22/14 Q1020,OYTZ,2015-02-22T07:00:00Z,13.67,44.12,22.0,14.0,280,6,,6.21,30.11811,,,,,,,,,,,FEW,2500,,,,,,,VFR,,,,,,,,,,,,METAR,1385.0
OYSH 220700Z 09006KT CAVOK 19/11 Q1025,OYSH,2015-02-22T07:00:00Z,16.97,43.72,19.0,11.0,90,6,,6.21,30.265747,,,,,,,,,,,CAVOK,,,,,,,,VFR,,,,,,,,,,,,METAR,1890.0
OYSD 220700Z 16005KT CAVOK 23/M01 Q////,OYSD,2015-02-22T07:00:00Z,,,23.0,-1.0,160,5,,6.21,,,,,,,,,,,,CAVOK,,,,,,,,VFR,,,,,,,,,,,,METAR,
OYMT 220700Z VRB02KT 9999 SCT020 18/13 Q////,OYMT,2015-02-22T07:00:00Z,,,18.0,13.0,0,2,,6.21,,,,,,,,,,,,SCT,2000,,,,,,,VFR,,,,,,,,,,,,METAR,
OYMK 220700Z 32008KT 9999 FEW030 SCT060 26/23 Q////,OYMK,2015-02-22T07:00:00Z,13.32,43.27,26.0,23.0,320,8,,6.21,,,,,,,,,,,,FEW,3000,SCT,6000,,,,,VFR,,,,,,,,,,,,METAR,3.0
OYHJ 220700Z 00000KT 9999 FEW015 17/13 Q////,OYHJ,2015-02-22T07:00:00Z,15.7,43.6,17.0,13.0,0,0,,6.21,,,,,,,,,,,,FEW,1500,,,,,,,VFR,,,,,,,,,,,,METAR,1760.0
OYGD 220700Z 14009KT 9999 SCT025 27/18 Q1015,OYGD,2015-02-22T07:00:00Z,16.18,52.17,27.0,18.0,140,9,,6.21,29.970472,,,,,,,,,,,SCT,2500,,,,,,,VFR,,,,,,,,,,,,METAR,41.0
OYDM 220700Z VRB02KT CAVOK 19/06 Q////,OYDM,2015-02-22T07:00:00Z,14.53,44.43,19.0,6.0,0,2,,6.21,,,,,,,,,,,,CAVOK,,,,,,,,VFR,,,,,,,,,,,,METAR,2425.0
OYAR 220700Z 00000KT CAVOK 17/04 Q////,OYAR,2015-02-22T07:00:00Z,14.58,49.25,17.0,4.0,0,0,,6.21,,,,,,,,,,,,CAVOK,,,,,,,,VFR,,,,,,,,,,,,METAR,25.0
LYBT 220700Z 13015KT 9999 SCT040 08/03 Q1007 NOSIG,LYBT,2015-02-22T07:00:00Z,44.93,20.25,8.0,3.0,130,15,,6.21,29.734253,,,,,,TRUE,,,,,SCT,4000,,,,,,,VFR,,,,,,,,,,,,METAR,80.0
LYKV 220700Z 12010KT 9999 FEW033 09/02 Q1007 NOSIG,LYKV,2015-02-22T07:00:00Z,43.82,20.58,9.0,2.0,120,10,,6.21,29.734253,,,,,,TRUE,,,,,FEW,3300,,,,,,,VFR,,,,,,,,,,,,METAR,209.0
LYNI 220700Z 10011KT 070V130 9999 FEW040 08/M00 Q1010,LYNI,2015-02-22T07:00:00Z,43.32,21.88,8.0,0.0,100,11,,6.21,29.822834,,,,,,,,,,,FEW,4000,,,,,,,VFR,,,,,,,,,,,,METAR,202.0
KVKS 220700Z AUTO 04005KT 3SM BR BKN005 OVC008 07/06 A3006 RMK A01,KVKS,2015-02-22T07:00:00Z,,,7.0,6.0,40,5,,3.0,30.059055,,,TRUE,TRUE,,,,,,BR,BKN,500,OVC,800,,,,,IFR,,,,,,,,,,,,METAR,
LYPG 220700Z 33004KT 300V360 3000 RA BR FEW010 BKN034 OVC070 08/08 Q1007 NOSIG RMK 3000SE 3000NE,LYPG,2015-02-22T07:00:00Z,42.37,19.25,8.0,8.0,330,4,,1.86,29.734253,,,,,,TRUE,,,,RA BR,FEW,1000,BKN,3400,OVC,7000,,,IFR,,,,,,,,,,,,METAR,43.0
LYTV 220700Z 15010G21KT 9999 -RA FEW023 SCT026 BKN080 11/09 Q1005 NOSIG,LYTV,2015-02-22T07:00:00Z,42.38,18.72,11.0,9.0,150,10,21,6.21,29.675198,,,,,,TRUE,,,,-RA,FEW,2300,SCT,2600,BKN,8000,,,VFR,,,,,,,,,,,,METAR,5.0
LYUZ 220700Z 12007KT 060V180 CAVOK 04/M01 Q1005 R10///////,LYUZ,2015-02-22T07:00:00Z,43.9,19.7,4.0,-1.0,120,7,,6.21,29.675198,,,,,,,,,,,CAVOK,,,,,,,,VFR,,,,,,,,,,,,METAR,904.0
LYVR 220700Z 13025G35KT 9999 SCT046 08/04 Q1008 NOSIG,LYVR,2015-02-22T07:00:00Z,45.13,21.32,8.0,4.0,130,25,35,6.21,29.763779,,,,,,TRUE,,,,,SCT,4600,,,,,,,VFR,,,,,,,,,,,,METAR,85.0
OYAA 220700Z 14006KT 100V170 9999 SCT018 BKN025 26/19 Q1014 TEMPO RA,OYAA,2015-02-22T07:00:00Z,12.83,45.02,26.0,19.0,140,6,,6.21,29.940945,,,,,,,,,,,SCT,1800,BKN,2500,,,,,MVFR,,,,,,,,,,,,METAR,3.0
SBTE 220700Z 00000KT 9999 -RA FEW020 OVC100 22/22 Q1011,SBTE,2015-02-22T07:00:00Z,-5.03,-42.82,22.0,22.0,0,0,,6.21,29.852362,,,,,,,,,,-RA,FEW,2000,OVC,10000,,,,,VFR,,,,,,,,,,,,METAR,69.0
EIKN 220700Z 16016G26KT 1200 -RA BKN001 OVC006 03/03 Q0994 TEMPO 0400,EIKN,2015-02-22T07:00:00Z,53.92,-8.82,3.0,3.0,160,16,26,0.75,29.350393,,,,,,,,,,-RA,BKN,100,OVC,600,,,,,LIFR,,,,,,,,,,,,METAR,64.0
EICK 220700Z 19015KT 6000 -RA OVC002 07/07 Q0999 BECMG 2000,EICK,2015-02-22T07:00:00Z,51.85,-8.47,7.0,7.0,190,15,,3.73,29.498032,,,,,,,,,,-RA,OVC,200,,,,,,,LIFR,,,,,,,,,,,,METAR,162.0
EINN 220700Z 16014KT 9999 -RADZ SCT012 BKN017 BKN027 07/05 Q0997 NOSIG,EINN,2015-02-22T07:00:00Z,52.7,-8.92,7.0,5.0,160,14,,6.21,29.438976,,,,,,TRUE,,,,-RA -DZ,SCT,1200,BKN,1700,BKN,2700,,,MVFR,,,,,,,,,,,,METAR,20.0
EIDW 220700Z 18009KT 150V210 8000 -RA FEW016 SCT023 BKN027 04/01 Q1000 NOSIG,EIDW,2015-02-22T07:00:00Z,53.42,-6.25,4.0,1.0,180,9,,4.97,29.52756,,,,,,TRUE,,,,-RA,FEW,1600,SCT,2300,BKN,2700,,,MVFR,,,,,,,,,,,,METAR,85.0
EPZG 220700Z 19002KT CAVOK 02/00 Q1007,EPZG,2015-02-22T07:00:00Z,52.13,15.8,2.0,0.0,190,2,,6.21,29.734253,,,,,,,,,,,CAVOK,,,,,,,,VFR,,,,,,,,,,,,METAR,59.0
EPWR 220700Z 31003KT 5000 BR FEW030 M00/M02 Q1006,EPWR,2015-02-22T07:00:00Z,51.1,16.87,0.0,-2.0,310,3,,3.11,29.704725,,,,,,,,,,BR,FEW,3000,,,,,,,MVFR,,,,,,,,,,,,METAR,121.0
EPSC 220700Z 16004KT 4500 BR BKN026 M01/M02 Q1006,EPSC,2015-02-22T07:00:00Z,53.58,14.9,-1.0,-2.0,160,4,,2.8,29.704725,,,,,,,,,,BR,BKN,2600,,,,,,,IFR,,,,,,,,,,,,METAR,3.0
EPMO 220700Z VRB01KT 7000 NSC 01/M00 Q1007,EPMO,2015-02-22T07:00:00Z,52.45,20.65,1.0,0.0,0,1,,4.35,29.734253,,,,,,,,,,,,,,,,,,,,,,,,,,,,,,,METAR,104.0
EPLB 220700Z VRB01KT CAVOK 02/M01 Q1009,EPLB,2015-02-22T07:00:00Z,51.23,22.72,2.0,-1.0,0,1,,6.21,29.793306,,,,,,,,,,,CAVOK,,,,,,,,VFR,,,,,,,,,,,,METAR,206.0
EPKT 220700Z 12005KT 4000 BR NSC M01/M02 Q1006,EPKT,2015-02-22T07:00:00Z,50.47,19.08,-1.0,-2.0,120,5,,2.49,29.704725,,,,,,,,,,BR,,,,,,,,,,,,,,,,,,,,,METAR,284.0
EPBY 220700Z VRB02KT CAVOK 02/M00 Q1007,EPBY,2015-02-22T07:00:00Z,53.1,18.0,2.0,0.0,0,2,,6.21,29.734253,,,,,,,,,,,CAVOK,,,,,,,,VFR,,,,,,,,,,,,METAR,71.0
EPWA 220700Z 14002KT 5000 BR FEW012 01/M02 Q1008 BECMG 7000 NSW,EPWA,2015-02-22T07:00:00Z,52.17,20.97,1.0,-2.0,140,2,,3.11,29.763779,,,,,,,,,,BR,FEW,1200,,,,,,,MVFR,,,,,,,,,,,,METAR,107.0
EPRZ 220700Z 30001KT CAVOK 03/M01 Q1009,EPRZ,2015-02-22T07:00:00Z,50.1,22.05,3.0,-1.0,300,1,,6.21,29.793306,,,,,,,,,,,CAVOK,,,,,,,,VFR,,,,,,,,,,,,METAR,202.0
EPPO 220700Z 16002KT 9999 BKN036 03/M00 Q1006,EPPO,2015-02-22T07:00:00Z,52.42,16.82,3.0,0.0,160,2,,6.21,29.704725,,,,,,,,,,,BKN,3600,,,,,,,VFR,,,,,,,,,,,,METAR,92.0
EPLL 220700Z 06001KT 3500 BR NSC M01/M02 Q1007,EPLL,2015-02-22T07:00:00Z,51.72,19.4,-1.0,-2.0,60,1,,2.17,29.734253,,,,,,,,,,BR,,,,,,,,,,,,,,,,,,,,,METAR,184.0
EPKK 220700Z VRB02KT 6000 NSC M00/M02 Q1007,EPKK,2015-02-22T07:00:00Z,50.07,19.8,0.0,-2.0,0,2,,3.73,29.734253,,,,,,,,,,,,,,,,,,,,,,,,,,,,,,,METAR,237.0
EPGD 220700Z 27006KT 240V310 9999 BKN022 03/M02 Q1005,EPGD,2015-02-22T07:00:00Z,54.37,18.47,3.0,-2.0,270,6,,6.21,29.675198,,,,,,,,,,,BKN,2200,,,,,,,MVFR,,,,,,,,,,,,METAR,138.0
OPPS 220700Z 13004KT 4000 HZ FEW210 22/11 Q1018.2,OPPS,2015-02-22T07:00:00Z,34.02,71.52,22.0,11.0,130,4,,2.49,30.06496,,,,,,,,,,HZ,FEW,21000,,,,,,,IFR,,,,,,,,,,,,METAR,360.0
OMSJ 220700Z 27012KT 8000 SCT040 22/03 Q1016 RERA,OMSJ,2015-02-22T07:00:00Z,25.32,55.52,22.0,3.0,270,12,,4.97,30.0,,,,,,,,,,,SCT,4000,,,,,,,MVFR,,,,,,,,,,,,METAR,33.0
OMRK 220700Z 28008KT 6000 SCT040 21/09 Q1016 A3002,OMRK,2015-02-22T07:00:00Z,25.62,55.92,21.0,9.0,280,8,,3.73,30.0,,,,,,,,,,,SCT,4000,,,,,,,MVFR,,,,,,,,,,,,METAR,31.0
OMFJ 220700Z 23007KT 200V320 6000 SCT040 23/04 Q1014 A2996,OMFJ,2015-02-22T07:00:00Z,25.1,56.32,23.0,4.0,230,7,,3.73,29.940945,,,,,,,,,,,SCT,4000,,,,,,,MVFR,,,,,,,,,,,,METAR,28.0
OMDW 220700Z 29008KT 8000 NSC 21/05 Q1017 TEMPO 4000 SHRA,OMDW,2015-02-22T07:00:00Z,24.9,55.17,21.0,5.0,290,8,,4.97,30.029528,,,,,,,,,,,,,,,,,,,,,,,,,,,,,,,METAR,25.0
OMDB 220700Z 28009KT 210V350 9999 FEW030 22/05 Q1016 NOSIG,OMDB,2015-02-22T07:00:00Z,25.25,55.37,22.0,5.0,280,9,,6.21,30.0,,,,,,TRUE,,,,,FEW,3000,,,,,,,VFR,,,,,,,,,,,,METAR,5.0
OMAL 220700Z 35007KT 7000 NSC 18/10 Q1017 A3004 NOSIG,OMAL,2015-02-22T07:00:00Z,24.25,55.6,18.0,10.0,350,7,,4.35,30.029528,,,,,,TRUE,,,,,,,,,,,,,,,,,,,,,,,,,METAR,262.0
OMAD 220700Z 02004KT 330V070 9000 NSC 21/05 Q1016 A3002 NOSIG,OMAD,2015-02-22T07:00:00Z,24.42,54.47,21.0,5.0,20,4,,5.59,30.0,,,,,,TRUE,,,,,,,,,,,,,,,,,,,,,,,,,METAR,3.0
OMAA 220700Z 35004KT 8000 NSC 21/05 Q1016 A3001 NOSIG,OMAA,2015-02-22T07:00:00Z,24.42,54.63,21.0,5.0,350,4,,4.97,30.0,,,,,,TRUE,,,,,,,,,,,,,,,,,,,,,,,,,METAR,27.0
FMCH 220700Z 29004KT 250V330 9999 FEW020TCU SCT030 30/25 Q1013 NOSIG,FMCH,2015-02-22T07:00:00Z,-11.52,43.27,30.0,25.0,290,4,,6.21,29.911417,,,,,,TRUE,,,,,FEW,2000,SCT,3000,,,,,VFR,,,,,,,,,,,,METAR,29.0
FMSD 220700Z 06019KT 9999 FEW020 30/24 Q1013,FMSD,2015-02-22T07:00:00Z,-25.02,46.95,30.0,24.0,60,19,,6.21,29.911417,,,,,,,,,,,FEW,2000,,,,,,,VFR,,,,,,,,,,,,METAR,9.0
FMMT 220700Z 26006KT 9999 FEW007 SCT033 BKN100 27/24 Q1014 NOSIG,FMMT,2015-02-22T07:00:00Z,-18.12,49.38,27.0,24.0,260,6,,6.21,29.940945,,,,,,TRUE,,,,,FEW,700,SCT,3300,BKN,10000,,,VFR,,,,,,,,,,,,METAR,6.0
FMNM 220700Z 12004KT 9999 FEW016CB BKN100 29/25 Q1013 NOSIG,FMNM,2015-02-22T07:00:00Z,-15.67,46.35,29.0,25.0,120,4,,6.21,29.911417,,,,,,TRUE,,,,,FEW,1600,BKN,10000,,,,,VFR,,,,,,,,,,,,METAR,18.0
LKTB 220700Z 07006KT CAVOK 02/M01 Q1005 NOSIG,LKTB,2015-02-22T07:00:00Z,49.13,16.68,2.0,-1.0,70,6,,6.21,29.675198,,,,,,TRUE,,,,,CAVOK,,,,,,,,VFR,,,,,,,,,,,,METAR,246.0
LKPR 220700Z 32007KT 9000 NSC 01/M01 Q1006 NOSIG,LKPR,2015-02-22T07:00:00Z,50.1,14.27,1.0,-1.0,320,7,,5.59,29.704725,,,,,,TRUE,,,,,,,,,,,,,,,,,,,,,,,,,METAR,365.0
LKMT 220700Z 02003KT 340V080 CAVOK M00/M02 Q1006 NOSIG,LKMT,2015-02-22T07:00:00Z,49.67,18.12,0.0,-2.0,20,3,,6.21,29.704725,,,,,,TRUE,,,,,CAVOK,,,,,,,,VFR,,,,,,,,,,,,METAR,256.0
LKKV 220700Z 00000KT CAVOK M00/M02 Q1005 R29/09//95,LKKV,2015-02-22T07:00:00Z,50.2,12.92,0.0,-2.0,0,0,,6.21,29.675198,,,,,,,,,,,CAVOK,,,,,,,,VFR,,,,,,,,,,,,METAR,604.0
LQTZ 220700Z 08005KT CAVOK 08/00 Q1004,LQTZ,2015-02-22T07:00:00Z,44.47,18.73,8.0,0.0,80,5,,6.21,29.64567,,,,,,,,,,,CAVOK,,,,,,,,VFR,,,,,,,,,,,,METAR,306.0
LQSA 220700Z 10003KT 9999 -RA FEW025 BKN040 06/04 Q1004 NOSIG,LQSA,2015-02-22T07:00:00Z,43.82,18.32,6.0,4.0,100,3,,6.21,29.64567,,,,,,TRUE,,,,-RA,FEW,2500,BKN,4000,,,,,VFR,,,,,,,,,,,,METAR,511.0
LQBK 220700Z 32002KT 9999 SCT047 04/02 Q1003 RERA NOSIG,LQBK,2015-02-22T07:00:00Z,44.93,17.3,4.0,2.0,320,2,,6.21,29.616142,,,,,,TRUE,,,,,SCT,4700,,,,,,,VFR,,,,,,,,,,,,METAR,122.0
LEVX 220700Z VRB01KT 9999 BKN023 07/06 Q1020 NOSIG,LEVX,2015-02-22T07:00:00Z,42.22,-8.62,7.0,6.0,0,1,,6.21,30.11811,,,,,,TRUE,,,,,BKN,2300,,,,,,,MVFR,,,,,,,,,,,,METAR,256.0
LEIB 220700Z 33016G31KT 9999 FEW040 11/01 Q1007 NOSIG,LEIB,2015-02-22T07:00:00Z,38.87,1.37,11.0,1.0,330,16,31,6.21,29.734253,,,,,,TRUE,,,,,FEW,4000,,,,,,,VFR,,,,,,,,,,,,METAR,12.0
LEAL 220700Z 28012G23KT 240V310 9999 FEW040 11/M02 Q1010 NOSIG,LEAL,2015-02-22T07:00:00Z,38.27,-0.55,11.0,-2.0,280,12,23,6.21,29.822834,,,,,,TRUE,,,,,FEW,4000,,,,,,,VFR,,,,,,,,,,,,METAR,31.0
LEVC 220700Z 33015G26KT 9999 SCT030 12/M02 Q1010 NOSIG,LEVC,2015-02-22T07:00:00Z,39.5,-0.47,12.0,-2.0,330,15,26,6.21,29.822834,,,,,,TRUE,,,,,SCT,3000,,,,,,,VFR,,,,,,,,,,,,METAR,62.0
LEMG 220700Z 29014KT CAVOK 11/03 Q1015 NOSIG,LEMG,2015-02-22T07:00:00Z,36.67,-4.5,11.0,3.0,290,14,,6.21,29.970472,,,,,,TRUE,,,,,CAVOK,,,,,,,,VFR,,,,,,,,,,,,METAR,7.0
LEZL 220700Z VRB02KT CAVOK 04/04 Q1016 NOSIG,LEZL,2015-02-22T07:00:00Z,37.42,-5.9,4.0,4.0,0,2,,6.21,30.0,,,,,,TRUE,,,,,CAVOK,,,,,,,,VFR,,,,,,,,,,,,METAR,31.0
LEPA 220700Z VRB01KT 9999 FEW020 07/03 Q1005 NOSIG,LEPA,2015-02-22T07:00:00Z,39.53,2.72,7.0,3.0,0,1,,6.21,29.675198,,,,,,TRUE,,,,,FEW,2000,,,,,,,VFR,,,,,,,,,,,,METAR,8.0
LEBL 220700Z 33006KT 9999 FEW030 05/M02 Q1006 NOSIG,LEBL,2015-02-22T07:00:00Z,41.27,2.07,5.0,-2.0,330,6,,6.21,29.704725,,,,,,TRUE,,,,,FEW,3000,,,,,,,VFR,,,,,,,,,,,,METAR,6.0
LEMD 220700Z VRB05G15KT CAVOK 03/M03 Q1014 NOSIG,LEMD,2015-02-22T07:00:00Z,40.48,-3.57,3.0,-3.0,0,5,15,6.21,29.940945,,,,,,TRUE,,,,,CAVOK,,,,,,,,VFR,,,,,,,,,,,,METAR,582.0
SADF 220700Z 00000KT 7000 MIFG NSC 20/19 Q1018,SADF,2015-02-22T07:00:00Z,-34.45,-58.58,20.0,19.0,0,0,,4.35,30.059055,,,,,,,,,,MIFG,,,,,,,,,,,,,,,,,,,,,METAR,4.0
FMCZ 220700Z 07005KT 040V110 9999 SCT022 SCT290 32/25 Q1013 NOSIG,FMCZ,2015-02-22T07:00:00Z,-12.8,45.27,32.0,25.0,70,5,,6.21,29.911417,,,,,,TRUE,,,,,SCT,2200,SCT,29000,,,,,VFR,,,,,,,,,,,,METAR,7.0
SPIM 220700Z 18005KT 9999 BKN100 22/21 Q1012 NOSIG RMK PP000,SPIM,2015-02-22T07:00:00Z,-12.02,-77.12,22.0,21.0,180,5,,6.21,29.88189,,,,,,TRUE,,,,,BKN,10000,,,,,,,VFR,,,,,,,,,,,,METAR,13.0
MYNN 220700Z 12003KT 9999 FEW018 BKN030 20/17 A3019,MYNN,2015-02-22T07:00:00Z,25.03,-77.47,20.0,17.0,120,3,,6.21,30.188976,,,,,,,,,,,FEW,1800,BKN,3000,,,,,MVFR,,,,,,,,,,,,METAR,3.0
KDPA 220659Z AUTO 32016KT 7SM UP SCT018 SCT023 OVC041 M03/M07 A3018 RMK AO2 P0000 T10281072,KDPA,2015-02-22T06:59:00Z,41.92,-88.25,-2.8,-7.2,320,16,,7.0,30.180119,,,TRUE,TRUE,,,,,,UP,SCT,1800,SCT,2300,OVC,4100,,,VFR,,,,,,0.0050,,,,,,METAR,231.0
KBHK 220659Z AUTO 34007KT 10SM BKN018 M18/M21 A3048 RMK AO2 T11781211,KBHK,2015-02-22T06:59:00Z,46.35,-104.25,-17.8,-21.1,340,7,,10.0,30.481298,,,TRUE,TRUE,,,,,,,BKN,1800,,,,,,,MVFR,,,,,,,,,,,,METAR,902.0
KNGU 220659Z 10003KT 6SM BR FEW029 BKN055 OVC075 02/00 A3020 RMK AO2 SLP225 P0001 T00220000 $,KNGU,2015-02-22T06:59:00Z,36.92,-76.27,2.2,0.0,100,3,,6.0,30.200787,1022.5,,,TRUE,TRUE,,,,,BR,FEW,2900,BKN,5500,OVC,7500,,,VFR,,,,,,0.01,,,,,,METAR,5.0
KPDK 220659Z 04005KT 2SM -RA BR OVC016 04/04 A3015 RMK AO2 P0000,KPDK,2015-02-22T06:59:00Z,33.88,-84.3,4.0,4.0,40,5,,2.0,30.15059,,,,TRUE,,,,,,-RA BR,OVC,1600,,,,,,,IFR,,,,,,0.0050,,,,,,METAR,302.0
KPHN 220659Z AUTO 20003KT 7SM OVC090 M10/M11 A3011 RMK AO2,KPHN,2015-02-22T06:59:00Z,42.92,-82.52,-10.0,-11.0,200,3,,7.0,30.109253,,,TRUE,TRUE,,,,,,,OVC,9000,,,,,,,VFR,,,,,,,,,,,,METAR,198.0
KQIR 220658Z 27004KT 5000 HZ FEW130 SCT190 SCT220 19/05 A3005 RMK AO2A SLP178 T01940045,KQIR,2015-02-22T06:58:00Z,100.65,-1000.65,19.4,4.5,270,4,,3.11,30.050198,1017.8,,,TRUE,,,,,,HZ,FEW,13000,SCT,19000,SCT,22000,,,MVFR,,,,,,,,,,,,METAR,999.0
KGTB 220658Z AUTO 22008KT 10SM UP OVC022 M05/M08 A3006 RMK AO2 UPB0633 SLP191 P0000 T10551085,KGTB,2015-02-22T06:58:00Z,44.07,-75.72,-5.5,-8.5,220,8,,10.0,30.059055,1019.1,,TRUE,TRUE,,,,,,UP,OVC,2200,,,,,,,MVFR,,,,,,0.0050,,,,,,METAR,207.0
KOFF 220658Z AUTO 35011G18KT 10SM CLR M08/M16 A3045 RMK AO2 SLP331 T10811158 $,KOFF,2015-02-22T06:58:00Z,41.12,-95.92,-8.1,-15.8,350,11,18,10.0,30.448818,1033.1,,TRUE,TRUE,TRUE,,,,,,CLR,,,,,,,,VFR,,,,,,,,,,,,METAR,319.0
KRCA 220658Z AUTO 36011KT 10SM -SN BKN004 BKN012 OVC024 M12/M14 A3041 RMK AO2 SNE0623B0632DZB0629E0632 SLP362 P0000 T11191142 400231119 $,KRCA,2015-02-22T06:58:00Z,44.13,-103.08,-11.9,-14.2,360,11,,10.0,30.410433,1036.2,,TRUE,TRUE,TRUE,,,,,-SN,BKN,400,BKN,1200,OVC,2400,,,LIFR,,,,2.3,-11.9,0.0050,,,,,,METAR,999.0
KRDR 220658Z AUTO 35008KT 10SM CLR M27/M32 A3060 RMK AO2 SLP398 T12721321,KRDR,2015-02-22T06:58:00Z,47.97,-97.4,-27.2,-32.1,350,8,,10.0,30.59941,1039.8,,TRUE,TRUE,,,,,,,CLR,,,,,,,,VFR,,,,,,,,,,,,METAR,278.0
KRIV 220658Z AUTO 18006KT 10SM OVC029 13/07 A2991 RMK AO2 SLP124 T01260073,KRIV,2015-02-22T06:58:00Z,33.87,-117.27,12.6,7.3,180,6,,10.0,29.911417,1012.4,,TRUE,TRUE,,,,,,,OVC,2900,,,,,,,MVFR,,,,,,,,,,,,METAR,469.0
KTIK 220658Z AUTO 09008KT 10SM FEW150 06/01 A3013 RMK AO2 SLP212 T00570014 $,KTIK,2015-02-22T06:58:00Z,35.42,-97.37,5.7,1.4,90,8,,10.0,30.129921,1021.2,,TRUE,TRUE,TRUE,,,,,,FEW,15000,,,,,,,VFR,,,,,,,,,,,,METAR,394.0
KRND 220658Z AUTO 06011KT 10SM OVC012 14/07 A2998 RMK AO2 SLP148 T01370074,KRND,2015-02-22T06:58:00Z,29.52,-98.27,13.7,7.4,60,11,,10.0,29.97933,1014.8,,TRUE,TRUE,,,,,,,OVC,1200,,,,,,,MVFR,,,,,,,,,,,,METAR,232.0
KTTS 220658Z AUTO 17002KT 10SM SCT080 16/14 A3020 RMK AO2 SLP230 T01630142 $,KTTS,2015-02-22T06:58:00Z,28.62,-80.72,16.3,14.2,170,2,,10.0,30.200787,1023.0,,TRUE,TRUE,TRUE,,,,,,SCT,8000,,,,,,,VFR,,,,,,,,,,,,METAR,3.0
KWRB 220658Z AUTO 14004KT 10SM OVC060 11/08 A3013 RMK AO2 DZB45E54 SLP205 P0000 T01140075,KWRB,2015-02-22T06:58:00Z,32.62,-83.58,11.4,7.5,140,4,,10.0,30.129921,1020.5,,TRUE,TRUE,,,,,,,OVC,6000,,,,,,,VFR,,,,,,0.0050,,,,,,METAR,90.0
KAFF 220658Z AUTO 34014KT 5SM -SN FEW002 SCT007 SCT011 OVC029 M11/M14 A3015 RMK AO2 CIG 007V030 SLP267 P0000 $,KAFF,2015-02-22T06:58:00Z,38.97,-104.82,-11.0,-14.0,340,14,,5.0,30.15059,1026.7,,TRUE,TRUE,TRUE,,,,,-SN,FEW,200,SCT,700,SCT,1100,OVC,2900,MVFR,,,,,,0.0050,,,,,,METAR,2003.0
KCOF 220658Z AUTO 15004KT 3SM R20/4000FT BR CLR 16/15 A3020 RMK AO2 SLP231 T01590151 CHINO RWY02 $,KCOF,2015-02-22T06:58:00Z,28.23,-80.6,15.9,15.1,150,4,,3.0,30.200787,1023.1,,TRUE,TRUE,TRUE,,,,,BR,CLR,,,,,,,,MVFR,,,,,,,,,,,,METAR,3.0
KDAA 220658Z AUTO 00000KT 10SM R32/5500FT -RA OVC005 01/00 A3014 RMK AO2 RAE0626B0651DZB0626E0648 SLP211 P0001 T00071002,KDAA,2015-02-22T06:58:00Z,38.72,-77.17,0.7,-0.2,0,0,,10.0,30.138779,1021.1,,TRUE,TRUE,,,,,,-RA,OVC,500,,,,,,,IFR,,,,,,0.01,,,,,,METAR,21.0
K14Y 220658Z AUTO 28007KT 10SM CLR M22/M27 A3041 RMK AO2,K14Y,2015-02-22T06:58:00Z,45.9,-94.87,-22.0,-27.0,280,7,,10.0,30.410433,,,TRUE,TRUE,,,,,,,CLR,,,,,,,,VFR,,,,,,,,,,,,METAR,406.0
KLTS 220658Z AUTO 08006KT 10SM OVC140 06/02 A3007 RMK AO2 SLP184 T00600015 $,KLTS,2015-02-22T06:58:00Z,34.67,-99.27,6.0,1.5,80,6,,10.0,30.070866,1018.4,,TRUE,TRUE,TRUE,,,,,,OVC,14000,,,,,,,VFR,,,,,,,,,,,,METAR,420.0
KGSB 220658Z AUTO 17002KT 10SM CLR 12/12 A3017 RMK AO2 SLP220 T01220122 $,KGSB,2015-02-22T06:58:00Z,35.32,-77.97,12.2,12.2,170,2,,10.0,30.171259,1022.0,,TRUE,TRUE,TRUE,,,,,,CLR,,,,,,,,VFR,,,,,,,,,,,,METAR,33.0
K1J0 220658Z AUTO 17007KT 10SM BKN055 OVC070 15/13 A3013 RMK AO2 SLP159 T01500133,K1J0,2015-02-22T06:58:00Z,30.85,-85.6,15.0,13.3,170,7,,10.0,30.129921,1015.9,,TRUE,TRUE,,,,,,,BKN,5500,OVC,7000,,,,,VFR,,,,,,,,,,,,METAR,26.0
K0J4 220658Z AUTO 17004KT 5SM BR OVC009 16/14 A3012 RMK AO2 RAE42 CIG 006V012 SLP196 P0000 T01560144 $,K0J4,2015-02-22T06:58:00Z,31.05,-86.32,15.6,14.4,170,4,,5.0,30.121063,1019.6,,TRUE,TRUE,TRUE,,,,,BR,OVC,900,,,,,,,IFR,,,,,,0.0050,,,,,,METAR,96.0
KEUF 220658Z AUTO 18004KT 10SM FEW017 OVC048 14/11 A3010 RMK AO2 SLP190 T01440106 PWINO $,KEUF,2015-02-22T06:58:00Z,31.95,-85.13,14.4,10.6,180,4,,10.0,30.100393,1019.0,,TRUE,TRUE,TRUE,,,,TRUE,,FEW,1700,OVC,4800,,,,,VFR,,,,,,,,,,,,METAR,87.0
KHZY 220658Z AUTO 21003KT 2SM BR OVC003 M08/M10 A3012 RMK AO2 T10831100,KHZY,2015-02-22T06:58:00Z,41.78,-80.7,-8.3,-10.0,210,3,,2.0,30.121063,,,TRUE,TRUE,,,,,,BR,OVC,300,,,,,,,LIFR,,,,,,,,,,,,METAR,276.0
KMEI 220658Z AUTO 15004KT 6SM RA BR SCT047 BKN060 OVC070 13/13 A3005 RMK AO2 LTG DSNT SE SLP172 P0029 T01330133,KMEI,2015-02-22T06:58:00Z,32.33,-88.75,13.3,13.3,150,4,,6.0,30.050198,1017.2,,TRUE,TRUE,,,,,,RA BR,SCT,4700,BKN,6000,OVC,7000,,,VFR,,,,,,0.29,,,,,,METAR,89.0
KGRK 220658Z AUTO 03004KT 10SM OVC029 09/06 A2999 RMK AO2 OVC V BKN SLP154 T00880064 $,KGRK,2015-02-22T06:58:00Z,31.07,-97.83,8.8,6.4,30,4,,10.0,29.991142,1015.4,,TRUE,TRUE,TRUE,,,,,,OVC,2900,,,,,,,MVFR,,,,,,,,,,,,METAR,309.0
KHLR 220658Z AUTO 05006KT 10SM OVC030 10/06 A2999 RMK AO2 SLP152 T01000061,KHLR,2015-02-22T06:58:00Z,31.13,-97.72,10.0,6.1,50,6,,10.0,29.991142,1015.2,,TRUE,TRUE,,,,,,,OVC,3000,,,,,,,MVFR,,,,,,,,,,,,METAR,283.0
KXMR 220658Z AUTO 14005KT 10SM BKN080 17/15 A3019 RMK AO2 SLP226 T01680150 $,KXMR,2015-02-22T06:58:00Z,28.47,-80.57,16.8,15.0,140,5,,10.0,30.188976,1022.6,,TRUE,TRUE,TRUE,,,,,,BKN,8000,,,,,,,VFR,,,,,,,,,,,,METAR,3.0
KLSV 220658Z AUTO 36003KT 10SM BKN160 13/M07 A2969 RMK AO2 SLP043 T01281074,KLSV,2015-02-22T06:58:00Z,36.22,-115.02,12.8,-7.4,360,3,,10.0,29.68996,1004.3,,TRUE,TRUE,,,,,,,BKN,16000,,,,,,,VFR,,,,,,,,,,,,METAR,570.0
KDOV 220658Z AUTO 19004KT 7SM R01/5500FT -RA FEW006 OVC011 01/01 A3015 RMK AO2 SLP213 P0009 T00100010,KDOV,2015-02-22T06:58:00Z,39.12,-75.47,1.0,1.0,190,4,,7.0,30.15059,1021.3,,TRUE,TRUE,,,,,,-RA,FEW,600,OVC,1100,,,,,MVFR,,,,,,0.09,,,,,,METAR,9.0
KMRH 220658Z AUTO 25006KT 10SM FEW020 BKN028 OVC048 12/11 A3023 RMK AO2 WSHFT 0630 SLP238 T01220111 TSNO,KMRH,2015-02-22T06:58:00Z,34.73,-76.65,12.2,11.1,250,6,,10.0,30.230314,1023.8,,TRUE,TRUE,,,TRUE,,,,FEW,2000,BKN,2800,OVC,4800,,,MVFR,,,,,,,,,,,,METAR,3.0
KPOE 220658Z AUTO 21004KT 8SM -RA OVC006 18/17 A2998 RMK AO2 RAB00E22RAB42 SLP153 P0003,KPOE,2015-02-22T06:58:00Z,31.05,-93.2,18.0,17.0,210,4,,8.0,29.97933,1015.3,,TRUE,TRUE,,,,,,-RA,OVC,600,,,,,,,IFR,,,,,,0.03,,,,,,METAR,101.0
KMCF 220658Z AUTO 12005KT 10SM FEW060 14/13 A3017 RMK AO2 SLP220 T01350133,KMCF,2015-02-22T06:58:00Z,27.85,-82.52,13.5,13.3,120,5,,10.0,30.171259,1022.0,,TRUE,TRUE,,,,,,,FEW,6000,,,,,,,VFR,,,,,,,,,,,,METAR,4.0
KLUF 220658Z AUTO 20006KT 10SM CLR 15/04 A2978 RMK AO2 SLP078 T01470039 402510081 $,KLUF,2015-02-22T06:58:00Z,33.52,-112.37,14.7,3.9,200,6,,10.0,29.778543,1007.8,,TRUE,TRUE,TRUE,,,,,,CLR,,,,,,,,VFR,,,,25.1,8.1,,,,,,,METAR,332.0
KLRF 220658Z AUTO 02008KT 10SM OVC010 03/02 A3016 RMK AO2 SLP218 T00300016,KLRF,2015-02-22T06:58:00Z,34.92,-92.15,3.0,1.6,20,8,,10.0,30.159449,1021.8,,TRUE,TRUE,,,,,,,OVC,1000,,,,,,,MVFR,,,,,,,,,,,,METAR,95.0
KINS 220658Z AUTO 18002KT 10SM OVC100 11/M09 A2972 RMK AO2 SLP038 T01091088 $,KINS,2015-02-22T06:58:00Z,36.58,-115.67,10.9,-8.8,180,2,,10.0,29.719488,1003.8,,TRUE,TRUE,TRUE,,,,,,OVC,10000,,,,,,,VFR,,,,,,,,,,,,METAR,955.0
KIAB 220658Z AUTO 04019G28KT 3SM UP BR OVC009 M02/M04 A3027 RMK AO2 PK WND 04028/55 SNE54UPB54 SLP261 P0000,KIAB,2015-02-22T06:58:00Z,37.62,-97.27,-2.0,-4.0,40,19,28,3.0,30.268702,1026.1,,TRUE,TRUE,,,,,,BR UP,OVC,900,,,,,,,IFR,,,,,,0.0050,,,,,,METAR,418.0
KHUA 220658Z AUTO 02006KT 3SM -RA BR OVC005 06/06 A3007 RMK AO2 LTG DSNT S DZE02RAB02E12RAB13E14RAB18 SLP185 P0000 T00620060,KHUA,2015-02-22T06:58:00Z,34.68,-86.68,6.2,6.0,20,6,,3.0,30.070866,1018.5,,TRUE,TRUE,,,,,,-RA BR,OVC,500,,,,,,,IFR,,,,,,0.0050,,,,,,METAR,209.0
KFBG 220658Z AUTO 17002KT 10SM OVC120 10/09 A3016 RMK AO2 SLP217 T00950088,KFBG,2015-02-22T06:58:00Z,35.12,-78.92,9.5,8.8,170,2,,10.0,30.159449,1021.7,,TRUE,TRUE,,,,,,,OVC,12000,,,,,,,VFR,,,,,,,,,,,,METAR,74.0
KEGI 220658Z AUTO 16007KT 2 1/2SM +RA BR FEW003 OVC014 16/16 A3009 RMK AO2 VIS 2V2 1/2 DZE0559RAB0559 CIG 008V014 SLP191 P0021 $,KEGI,2015-02-22T06:58:00Z,30.63,-86.52,16.0,16.0,160,7,,2.5,30.088583,1019.1,,TRUE,TRUE,TRUE,,,,,+RA BR,FEW,300,OVC,1400,,,,,IFR,,,,,,0.21,,,,,,METAR,59.0
RKJK 220658Z AUTO 31012KT 9SM FEW029 06/00 A3007 RMK AO2 SLP187 T00550001 $,RKJK,2015-02-22T06:58:00Z,35.9,126.62,5.5,0.1,310,12,,9.0,30.070866,1018.7,,TRUE,TRUE,TRUE,,,,,,FEW,2900,,,,,,,VFR,,,,,,,,,,,,METAR,9.0
PWAK 220658Z AUTO 34021G26KT 9999 SCT028 BKN034 BKN046 23/18 A2986 RMK AO2 PK WND 34027/49 SLP118 T02330180,PWAK,2015-02-22T06:58:00Z,19.28,166.65,23.3,18.0,340,21,26,6.21,29.861221,1011.8,,TRUE,TRUE,,,,,,,SCT,2800,BKN,3400,BKN,4600,,,VFR,,,,,,,,,,,,METAR,4.0
PGUA 220658Z AUTO 05018KT 10SM OVC044 25/19 A2993 RMK AO2 SLP126 T02510188 $,PGUA,2015-02-22T06:58:00Z,13.57,144.92,25.1,18.8,50,18,,10.0,29.929134,1012.6,,TRUE,TRUE,TRUE,,,,,,OVC,4400,,,,,,,VFR,,,,,,,,,,,,METAR,187.0
PAED 220658Z 33011KT 6SM -RA SCT028 SCT043 OVC050 02/02 A2993 RMK AO2A RAE53DZB53E54RAB54 CIG 003 RWY24 SLP133 P0001 T00150015,PAED,2015-02-22T06:58:00Z,61.25,-149.8,1.5,1.5,330,11,,6.0,29.929134,1013.3,,,TRUE,,,,,,-RA,SCT,2800,SCT,4300,OVC,5000,,,VFR,,,,,,0.01,,,,,,METAR,59.0
KSKF 220658Z AUTO 06014G21KT 10SM OVC012 16/10 A2995 RMK AO2 SLP138 T01550097 $,KSKF,2015-02-22T06:58:00Z,29.37,-98.57,15.5,9.7,60,14,21,10.0,29.949802,1013.8,,TRUE,TRUE,TRUE,,,,,,OVC,1200,,,,,,,MVFR,,,,,,,,,,,,METAR,210.0
KMUO 220658Z AUTO 12009KT 10SM OVC050 02/M06 A3017 RMK AO2 SLP228 T00171065 400921023,KMUO,2015-02-22T06:58:00Z,43.03,-115.87,1.7,-6.5,120,9,,10.0,30.171259,1022.8,,TRUE,TRUE,,,,,,,OVC,5000,,,,,,,VFR,,,,9.2,-2.3,,,,,,,METAR,913.0
KFRI 220658Z AUTO 03012KT 10SM OVC070 M04/M09 A3040 RMK AO2 SLP301 T10361089,KFRI,2015-02-22T06:58:00Z,39.03,-96.77,-3.6,-8.9,30,12,,10.0,30.398623,1030.1,,TRUE,TRUE,,,,,,,OVC,7000,,,,,,,VFR,,,,,,,,,,,,METAR,325.0
ETOU 220658Z AUTO 27001KT 9999 FEW035 OVC055 01/01 A2980 RMK AO2 SLP100 T00130011 $,ETOU,2015-02-22T06:58:00Z,50.03,8.32,1.3,1.1,270,1,,6.21,29.799213,1010.0,,TRUE,TRUE,TRUE,,,,,,FEW,3500,OVC,5500,,,,,VFR,,,,,,,,,,,,METAR,141.0
ETAR 220658Z AUTO 00000KT 8000 BR SCT032 BKN041 OVC070 00/00 A2979 RMK AO2 CIG 032 RWY08 PRESRR SLP103 T00011001 $,ETAR,2015-02-22T06:58:00Z,49.42,7.58,0.1,-0.1,0,0,,4.97,29.790354,1010.3,,TRUE,TRUE,TRUE,,,,,BR,SCT,3200,BKN,4100,OVC,7000,,,MVFR,,,,,,,,,,,,METAR,238.0
ETAD 220658Z AUTO 27004KT 9999 BKN016 00/M02 A2980 RMK AO2 SLP099 T10041020,ETAD,2015-02-22T06:58:00Z,49.98,6.7,-0.4,-2.0,270,4,,6.21,29.799213,1009.9,,TRUE,TRUE,,,,,,,BKN,1600,,,,,,,MVFR,,,,,,,,,,,,METAR,365.0
KVAD 220658Z AUTO 18004KT 10SM FEW220 10/06 A3015 RMK AO2 SLP212 T01040060,KVAD,2015-02-22T06:58:00Z,30.97,-83.2,10.4,6.0,180,4,,10.0,30.15059,1021.2,,TRUE,TRUE,,,,,,,FEW,22000,,,,,,,VFR,,,,,,,,,,,,METAR,71.0
RODN 220658Z AUTO 19014KT 10SM SCT029 23/17 A3001 RMK AO2 SLP169 T02300165,RODN,2015-02-22T06:58:00Z,26.35,127.77,23.0,16.5,190,14,,10.0,30.008858,1016.9,,TRUE,TRUE,,,,,,,SCT,2900,,,,,,,VFR,,,,,,,,,,,,METAR,45.0
PHHI 220658Z AUTO 30002KT 10SM CLR 17/14 A3001 RMK AO2 SLP158 T01700142 $,PHHI,2015-02-22T06:58:00Z,21.48,-158.05,17.0,14.2,300,2,,10.0,30.008858,1015.8,,TRUE,TRUE,TRUE,,,,,,CLR,,,,,,,,VFR,,,,,,,,,,,,METAR,255.0
KLFI 220658Z AUTO 21001KT 4SM R08/4000FT BR BKN023 BKN028 BKN070 01/00 A3019 RMK AO2 RAE0603DZB0603E0612 SLP230 P0000 T00100003 $,KLFI,2015-02-22T06:58:00Z,37.07,-76.37,1.0,0.3,210,1,,4.0,30.188976,1023.0,,TRUE,TRUE,TRUE,,,,,BR,BKN,2300,BKN,2800,BKN,7000,,,MVFR,,,,,,0.0050,,,,,,METAR,3.0
KQGX 220658Z AUTO 04004KT 9999 FEW120 22/03 A3004 RMK AO2 DZB0629E0638 SLP175 P0000 T02180034 $,KQGX,2015-02-22T06:58:00Z,100.65,-1000.65,21.8,3.4,40,4,,6.21,30.041338,1017.5,,TRUE,TRUE,TRUE,,,,,,FEW,12000,,,,,,,VFR,,,,,,0.0050,,,,,,METAR,999.0
KADW 220658Z AUTO 19007KT 10SM -RA BKN005 OVC014 01/00 A3012 RMK AO2 SLP210 P0001 T00070003 $,KADW,2015-02-22T06:58:00Z,38.82,-76.87,0.7,0.3,190,7,,10.0,30.121063,1021.0,,TRUE,TRUE,TRUE,,,,,-RA,BKN,500,OVC,1400,,,,,IFR,,,,,,0.01,,,,,,METAR,86.0
KBAB 220658Z AUTO 35008KT 3SM R15/3500FT BR BKN120 08/08 A2984 RMK AO2 SLP182 T00820082 $,KBAB,2015-02-22T06:58:00Z,39.12,-121.42,8.2,8.2,350,8,,3.0,29.840551,1018.2,,TRUE,TRUE,TRUE,,,,,BR,BKN,12000,,,,,,,MVFR,,,,,,,,,,,,METAR,34.0
KBLV 220658Z AUTO 34006KT 10SM OVC029 01/M01 A3023 RMK AO2 SLP244 T00091010 $,KBLV,2015-02-22T06:58:00Z,38.53,-89.83,0.9,-1.0,340,6,,10.0,30.230314,1024.4,,TRUE,TRUE,TRUE,,,,,,OVC,2900,,,,,,,MVFR,,,,,,,,,,,,METAR,138.0
KCEF 220658Z AUTO 17007KT 10SM OVC055 M01/M02 A3010 RMK AO2 SNE0622DZB0622E0640 SLP202 P0001 T10141025,KCEF,2015-02-22T06:58:00Z,42.2,-72.52,-1.4,-2.5,170,7,,10.0,30.100393,1020.2,,TRUE,TRUE,,,,,,,OVC,5500,,,,,,,VFR,,,,,,0.01,,,,,,METAR,75.0
KDYS 220658Z AUTO 15003KT 10SM CLR 06/03 A3000 RMK AO2 SLP154 T00580031 $,KDYS,2015-02-22T06:58:00Z,32.42,-99.83,5.8,3.1,150,3,,10.0,30.0,1015.4,,TRUE,TRUE,TRUE,,,,,,CLR,,,,,,,,VFR,,,,,,,,,,,,METAR,545.0
KFAF 220658Z AUTO 26003KT 10SM OVC017 01/01 A3018 RMK AO2 DZE0602 SLP223 P0000 T00070007 $,KFAF,2015-02-22T06:58:00Z,37.12,-76.62,0.7,0.7,260,3,,10.0,30.180119,1022.3,,TRUE,TRUE,TRUE,,,,,,OVC,1700,,,,,,,MVFR,,,,,,0.0050,,,,,,METAR,4.0
KFTK 220658Z AUTO 34003KT 10SM CLR M01/M02 A3015 RMK AO2 SLP219 T10121022,KFTK,2015-02-22T06:58:00Z,37.88,-85.97,-1.2,-2.2,340,3,,10.0,30.15059,1021.9,,TRUE,TRUE,,,,,,,CLR,,,,,,,,VFR,,,,,,,,,,,,METAR,230.0
KSGJ 220658Z AUTO 19005KT 10SM CLR 14/12 A3021 RMK AO2 SLP230 T01440117,KSGJ,2015-02-22T06:58:00Z,29.97,-81.32,14.4,11.7,190,5,,10.0,30.209646,1023.0,,TRUE,TRUE,,,,,,,CLR,,,,,,,,VFR,,,,,,,,,,,,METAR,3.0
KGUS 220658Z AUTO 23005KT 10SM OVC025 M04/M05 A3016 RMK AO2 SLP228 T10371054,KGUS,2015-02-22T06:58:00Z,40.63,-86.15,-3.7,-5.4,230,5,,10.0,30.159449,1022.8,,TRUE,TRUE,,,,,,,OVC,2500,,,,,,,MVFR,,,,,,,,,,,,METAR,247.0
KHOP 220658Z AUTO 33003KT 10SM CLR M01/M02 A3018 RMK AO2 SLP226 T10091022,KHOP,2015-02-22T06:58:00Z,36.67,-87.5,-0.9,-2.2,330,3,,10.0,30.180119,1022.6,,TRUE,TRUE,,,,,,,CLR,,,,,,,,VFR,,,,,,,,,,,,METAR,174.0
KPAM 220658Z AUTO 16009KT 10SM OVC060 17/15 A3012 RMK AO2 SLP203 T01700154 $,KPAM,2015-02-22T06:58:00Z,30.07,-85.57,17.0,15.4,160,9,,10.0,30.121063,1020.3,,TRUE,TRUE,TRUE,,,,,,OVC,6000,,,,,,,VFR,,,,,,,,,,,,METAR,5.0
KSSC 220658Z AUTO 00000KT 10SM FEW140 BKN160 09/07 A3015 RMK AO2 SLP211 T00920069 $,KSSC,2015-02-22T06:58:00Z,33.97,-80.47,9.2,6.9,0,0,,10.0,30.15059,1021.1,,TRUE,TRUE,TRUE,,,,,,FEW,14000,BKN,16000,,,,,VFR,,,,,,,,,,,,METAR,74.0
PFKT 220658Z AUTO 10011KT 10SM -RA OVC032 01/00 A2948 RMK AO2 UPB12E46RAB46 SLP983 P0000 T00060000 FZRANO,PFKT,2015-02-22T06:58:00Z,65.33,-166.47,0.6,0.0,100,11,,10.0,29.480314,998.3,,TRUE,TRUE,,,,TRUE,,-RA,OVC,3200,,,,,,,VFR,,,,,,0.0050,,,,,,METAR,9.0
PAWM 220658Z AUTO 13016G22KT 10SM OVC025 02/01 A2954 RMK AO2 RAE08 SLP016 P0000 T00170011 FZRANO,PAWM,2015-02-22T06:58:00Z,64.68,-163.42,1.7,1.1,130,16,22,10.0,29.53937,1001.6,,TRUE,TRUE,,,,TRUE,,,OVC,2500,,,,,,,MVFR,,,,,,0.0050,,,,,,METAR,82.0
PATE 220658Z AUTO 12008KT 10SM -RA OVC027 01/00 A2946 RMK AO2 SLP988 P0001 T00110000 FZRANO,PATE,2015-02-22T06:58:00Z,65.23,-166.33,1.1,0.0,120,8,,10.0,29.459646,998.8,,TRUE,TRUE,,,,TRUE,,-RA,OVC,2700,,,,,,,MVFR,,,,,,0.01,,,,,,METAR,90.0
PAIW 220658Z AUTO 13024KT 6SM -RA BR CLR 02/01 A2944 RMK AO2 PK WND 13028/0657 WSHFT 0546 UPE09RAB09 SLP971 P0007 T00170006 FZRANO,PAIW,2015-02-22T06:58:00Z,65.62,-168.1,1.7,0.6,130,24,,6.0,29.438976,997.1,,TRUE,TRUE,,,,TRUE,,-RA BR,CLR,,,,,,,,VFR,,,,,,0.07,,,,,,METAR,7.0
PAGA 220658Z AUTO 11009KT 10SM OVC065 01/M03 A2975 RMK AO2 SLP081 T00061033 FZRANO,PAGA,2015-02-22T06:58:00Z,64.73,-156.93,0.6,-3.3,110,9,,10.0,29.749016,1008.1,,TRUE,TRUE,,,,TRUE,,,OVC,6500,,,,,,,VFR,,,,,,,,,,,,METAR,46.0
KDAW 220658Z AUTO 00000KT 4SM BR OVC011 M02/M03 A3008 RMK AO2 SNE53 CIG 005V014 P0000 T10171033,KDAW,2015-02-22T06:58:00Z,43.28,-70.92,-1.7,-3.3,0,0,,4.0,30.079725,,,TRUE,TRUE,,,,,,BR,OVC,1100,,,,,,,MVFR,,,,,,0.0050,,,,,,METAR,100.0
KCON 220658Z AUTO 31003KT 4SM BR SCT012 OVC090 M04/M05 A3009 RMK AO2 T10391050,KCON,2015-02-22T06:58:00Z,43.2,-71.5,-3.9,-5.0,310,3,,4.0,30.088583,,,TRUE,TRUE,,,,,,BR,SCT,1200,OVC,9000,,,,,MVFR,,,,,,,,,,,,METAR,103.0
KBCE 220658Z AUTO 36003KT 3/4SM -SN BR VV009 M03/M04 A2991 RMK AO2 P0000 T10281039,KBCE,2015-02-22T06:58:00Z,37.7,-112.15,-2.8,-3.9,360,3,,0.75,29.911417,,,TRUE,TRUE,,,,,,-SN BR,OVX,0,,,,,,,LIFR,,,,,,0.0050,,,,,900,METAR,2312.0
PFSH 220658Z AUTO 14015KT 10SM BKN080 OVC090 04/01 A2961 RMK AO2 SLP042 T00390006,PFSH,2015-02-22T06:58:00Z,64.37,-161.22,3.9,0.6,140,15,,10.0,29.610237,1004.2,,TRUE,TRUE,,,,,,,BKN,8000,OVC,9000,,,,,VFR,,,,,,,,,,,,METAR,7.0
PFNO 220658Z AUTO 08014KT 10SM UP SCT011 OVC025 01/M01 A2969 RMK AO2 UPB52 SLP056 P0000 T00061011 FZRANO,PFNO,2015-02-22T06:58:00Z,66.82,-161.02,0.6,-1.1,80,14,,10.0,29.68996,1005.6,,TRUE,TRUE,,,,TRUE,,UP,SCT,1100,OVC,2500,,,,,MVFR,,,,,,0.0050,,,,,,METAR,17.0
PFEL 220658Z AUTO 18009G15KT 10SM OVC034 03/01 A2961 RMK AO2 RAB0559E23 SLP031 P0000 T00280006,PFEL,2015-02-22T06:58:00Z,64.62,-162.27,2.8,0.6,180,9,15,10.0,29.610237,1003.1,,TRUE,TRUE,,,,,,,OVC,3400,,,,,,,VFR,,,,,,0.0050,,,,,,METAR,49.0
KVRB 220658Z AUTO 35003KT 2 1/2SM BR FEW025 12/12 A3019 RMK AO2 VIS 3/4V5 T01220117,KVRB,2015-02-22T06:58:00Z,27.65,-80.42,12.2,11.7,350,3,,2.5,30.188976,,,TRUE,TRUE,,,,,,BR,FEW,2500,,,,,,,IFR,,,,,,,,,,,,METAR,10.0
ETIK 220658Z AUTO 21001KT 9999 CLR M01/M01 A2976 RMK AO2 SLP095 T10151015,ETIK,2015-02-22T06:58:00Z,49.47,10.37,-1.5,-1.5,210,1,,6.21,29.760826,1009.5,,TRUE,TRUE,,,,,,,CLR,,,,,,,,VFR,,,,,,,,,,,,METAR,325.0
ETIH 220658Z AUTO 32001KT 9999 FEW027 01/00 A2973 RMK AO2 SLP092 T00061002,ETIH,2015-02-22T06:58:00Z,49.22,11.82,0.6,-0.2,320,1,,6.21,29.731298,1009.2,,TRUE,TRUE,,,,,,,FEW,2700,,,,,,,VFR,,,,,,,,,,,,METAR,442.0
ETIC 220658Z AUTO 00000KT 8000 BR FEW080 SCT090 OVC120 00/00 A2972 RMK AO2 SLP086 T00011005 $,ETIC,2015-02-22T06:58:00Z,49.7,11.93,0.1,-0.5,0,0,,4.97,29.719488,1008.6,,TRUE,TRUE,TRUE,,,,,BR,FEW,8000,SCT,9000,OVC,12000,,,MVFR,,,,,,,,,,,,METAR,415.0
ETEB 220658Z AUTO 27003KT 9999 FEW024 OVC035 00/00 A2974 RMK AO2 SLP104 T10021002 $,ETEB,2015-02-22T06:58:00Z,49.32,10.62,-0.2,-0.2,270,3,,6.21,29.740158,1010.4,,TRUE,TRUE,TRUE,,,,,,FEW,2400,OVC,3500,,,,,VFR,,,,,,,,,,,,METAR,467.0
KSLH 220658Z AUTO 27006KT 10SM CLR M14/M17 A3015 RMK AO2 T11461174,KSLH,2015-02-22T06:58:00Z,45.65,-84.52,-14.6,-17.4,270,6,,10.0,30.15059,,,TRUE,TRUE,,,,,,,CLR,,,,,,,,VFR,,,,,,,,,,,,METAR,195.0
RKSG 220658Z 30013G22KT 3SM HZ SCT030 SCT050 05/M03 A3005 RMK AO2A PK WND 31026/44 SLP180 T00451032 $,RKSG,2015-02-22T06:58:00Z,36.97,127.02,4.5,-3.2,300,13,22,3.0,30.050198,1018.0,,,TRUE,TRUE,,,,,HZ,SCT,3000,SCT,5000,,,,,MVFR,,,,,,,,,,,,METAR,16.0
PAEI 220658Z 00000KT 10SM -RA SCT008 SCT050 BKN100 00/M02 A2982 RMK AO2A DZE0557UPB0557E46 SLP109 P0000 T10041018 CHINO RWY14 $,PAEI,2015-02-22T06:58:00Z,64.67,-147.1,-0.4,-1.8,0,0,,10.0,29.819881,1010.9,,,TRUE,TRUE,,,,,-RA,SCT,800,SCT,5000,BKN,10000,,,VFR,,,,,,0.0050,,,,,,METAR,167.0
KSZL 220658Z AUTO 02009KT 10SM OVC140 M03/M07 A3032 RMK AO2 SLP278 T10331073 $,KSZL,2015-02-22T06:58:00Z,38.72,-93.53,-3.3,-7.3,20,9,,10.0,30.318897,1027.8,,TRUE,TRUE,TRUE,,,,,,OVC,14000,,,,,,,VFR,,,,,,,,,,,,METAR,265.0
KSUU 220658Z 00000KT 6SM BR SCT005 09/09 A2983 RMK AO2A SLP108 T00930087 $,KSUU,2015-02-22T06:58:00Z,38.27,-121.92,9.3,8.7,0,0,,6.0,29.828741,1010.8,,,TRUE,TRUE,,,,,BR,SCT,500,,,,,,,VFR,,,,,,,,,,,,METAR,19.0
KPOB 220658Z AUTO 03002KT 10SM OVC120 07/06 A3017 RMK AO2 SLP220 T00730062,KPOB,2015-02-22T06:58:00Z,35.17,-79.02,7.3,6.2,30,2,,10.0,30.171259,1022.0,,TRUE,TRUE,,,,,,,OVC,12000,,,,,,,VFR,,,,,,,,,,,,METAR,66.0
KHRT 220658Z AUTO 16004KT 7SM -RA BKN016 BKN024 OVC030 17/15 A3007 RMK AO2 RAE10DZB10E11RAB11E44DZB44E56RAB56 SLP184 P0003 T01670151 $,KHRT,2015-02-22T06:58:00Z,30.42,-86.67,16.7,15.1,160,4,,7.0,30.070866,1018.4,,TRUE,TRUE,TRUE,,,,,-RA,BKN,1600,BKN,2400,OVC,3000,,,MVFR,,,,,,0.03,,,,,,METAR,12.0
KCBM 220658Z AUTO 34005KT 10SM -RA OVC004 07/07 A3006 RMK AO2 RAE16DZB16E20RAB20 SLP182 P0001 T00730072 $,KCBM,2015-02-22T06:58:00Z,33.63,-88.45,7.3,7.2,340,5,,10.0,30.059055,1018.2,,TRUE,TRUE,TRUE,,,,,-RA,OVC,400,,,,,,,LIFR,,,,,,0.01,,,,,,METAR,67.0
MUCF 220658Z AUTO 06005KT 20/18 Q1019,MUCF,2015-02-22T06:58:00Z,22.13,-80.4,20.0,18.0,60,5,,,30.088583,,,TRUE,,,,,,,,,,,,,,,,,,,,,,,,,,,,METAR,39.0
KHIF 220658Z AUTO 09021G30KT 10SM CLR M01/M07 A2999 RMK AO2 SLP162 T10101069 400451010,KHIF,2015-02-22T06:58:00Z,41.12,-111.97,-1.0,-6.9,90,21,30,10.0,29.991142,1016.2,,TRUE,TRUE,,,,,,,CLR,,,,,,,,VFR,,,,4.5,-1.0,,,,,,,METAR,1459.0
KHMN 220658Z AUTO 22009KT 10SM CLR 16/M02 A2989 RMK AO2 SLP068 T01631016 402230057 $,KHMN,2015-02-22T06:58:00Z,32.85,-106.08,16.3,-1.6,220,9,,10.0,29.890747,1006.8,,TRUE,TRUE,TRUE,,,,,,CLR,,,,,,,,VFR,,,,22.3,5.7,,,,,,,METAR,1248.0
KSKA 220658Z AUTO 11002KT 10SM CLR M03/M11 A3044 RMK AO2 SLP334 T10261106,KSKA,2015-02-22T06:58:00Z,47.62,-117.65,-2.6,-10.6,110,2,,10.0,30.43996,1033.4,,TRUE,TRUE,,,,,,,CLR,,,,,,,,VFR,,,,,,,,,,,,METAR,750.0
KTCM 220658Z AUTO 10002KT 10SM OVC080 02/02 A3042 RMK AO2 SLP307 T00190017 $,KTCM,2015-02-22T06:58:00Z,47.12,-122.47,1.9,1.7,100,2,,10.0,30.41929,1030.7,,TRUE,TRUE,TRUE,,,,,,OVC,8000,,,,,,,VFR,,,,,,,,,,,,METAR,98.0
MHSC 220658Z AUTO 00000KT 9999 CLR 19/16 A3002 RMK AO2 SLP126 T01860164 $,MHSC,2015-02-22T06:58:00Z,14.37,-87.62,18.6,16.4,0,0,,6.21,30.02067,1012.6,,TRUE,TRUE,TRUE,,,,,,CLR,,,,,,,,VFR,,,,,,,,,,,,METAR,626.0
ROTM 220658Z 20010KT 9999 FEW030 BKN050 BKN100 24/17 A3002 RMK SLP174 T02430172,ROTM,2015-02-22T06:58:00Z,26.27,127.75,24.3,17.2,200,10,,6.21,30.02067,1017.4,,,,,,,,,,FEW,3000,BKN,5000,BKN,10000,,,VFR,,,,,,,,,,,,METAR,75.0
RJTY 220658Z AUTO 04003KT 7SM OVC014 06/02 A3017 RMK AO2 CIG 010 RWY18 SLP226 T00560022,RJTY,2015-02-22T06:58:00Z,35.75,139.33,5.6,2.2,40,3,,7.0,30.171259,1022.6,,TRUE,TRUE,,,,,,,OVC,1400,,,,,,,MVFR,,,,,,,,,,,,METAR,139.0
KSVN 220658Z AUTO 20002KT 10SM OVC170 13/10 A3016 RMK AO2 SLP216 T01320103,KSVN,2015-02-22T06:58:00Z,32.02,-81.15,13.2,10.3,200,2,,10.0,30.159449,1021.6,,TRUE,TRUE,,,,,,,OVC,17000,,,,,,,VFR,,,,,,,,,,,,METAR,13.0
KMMT 220658Z AUTO 22003KT 10SM CLR 12/08 A3017 RMK AO2 SLP219 T01160075,KMMT,2015-02-22T06:58:00Z,33.92,-80.78,11.6,7.5,220,3,,10.0,30.171259,1021.9,,TRUE,TRUE,,,,,,,CLR,,,,,,,,VFR,,,,,,,,,,,,METAR,77.0
KEND 220658Z AUTO 06009KT 10SM SCT020 OVC030 07/04 A3014 RMK AO2 SLP209 T00660037 $,KEND,2015-02-22T06:58:00Z,36.32,-97.92,6.6,3.7,60,9,,10.0,30.138779,1020.9,,TRUE,TRUE,TRUE,,,,,,SCT,2000,OVC,3000,,,,,MVFR,,,,,,,,,,,,METAR,398.0
KEDW 220658Z AUTO 23017G23KT 10SM CLR 10/07 A2978 RMK AO2 PK WND 23028/09 SLP076 T00990070 $,KEDW,2015-02-22T06:58:00Z,34.88,-117.87,9.9,7.0,230,17,23,10.0,29.778543,1007.6,,TRUE,TRUE,TRUE,,,,,,CLR,,,,,,,,VFR,,,,,,,,,,,,METAR,702.0
KLSF 220658Z AUTO 17003KT 10SM -DZ OVC043 14/11 A3011 RMK AO2 DZB12E16RAB16E36DZB36E38RAB44E54DZB54 SLP198 P0000 T01380106,KLSF,2015-02-22T06:58:00Z,32.32,-84.97,13.8,10.6,170,3,,10.0,30.109253,1019.8,,TRUE,TRUE,,,,,,-DZ,OVC,4300,,,,,,,VFR,,,,,,0.0050,,,,,,METAR,71.0
KLHW 220658Z AUTO 13003KT 6SM R33/5000FT HZ OVC180 12/09 A3015 RMK AO2 SLP213 T01150091,KLHW,2015-02-22T06:58:00Z,31.87,-81.57,11.5,9.1,130,3,,6.0,30.15059,1021.3,,TRUE,TRUE,,,,,,HZ,OVC,18000,,,,,,,VFR,,,,,,,,,,,,METAR,14.0
KHST 220658Z AUTO 10006KT 10SM BKN042 21/17 A3016 RMK AO2 SLP216 T02090168,KHST,2015-02-22T06:58:00Z,25.47,-80.37,20.9,16.8,100,6,,10.0,30.159449,1021.6,,TRUE,TRUE,,,,,,,BKN,4200,,,,,,,VFR,,,,,,,,,,,,METAR,2.0
KGRF 220658Z AUTO 13002KT 10SM SCT080 02/02 A3041 RMK AO2 SLP304 T00240023 $,KGRF,2015-02-22T06:58:00Z,47.07,-122.57,2.4,2.3,130,2,,10.0,30.410433,1030.4,,TRUE,TRUE,TRUE,,,,,,SCT,8000,,,,,,,VFR,,,,,,,,,,,,METAR,92.0
KFFO 220658Z 31003KT 6SM BR CLR M08/M09 A3016 RMK AO2A SLP228 T10781088,KFFO,2015-02-22T06:58:00Z,39.82,-84.03,-7.8,-8.8,310,3,,6.0,30.159449,1022.8,,,TRUE,,,,,,BR,CLR,,,,,,,,VFR,,,,,,,,,,,,METAR,251.0
KMXF 220658Z AUTO 21004KT 10SM -RA OVC015 16/13 A3008 RMK AO2 DZB49E52RAB52 SLP188 P0000 T01610132,KMXF,2015-02-22T06:58:00Z,32.37,-86.37,16.1,13.2,210,4,,10.0,30.079725,1018.8,,TRUE,TRUE,,,,,,-RA,OVC,1500,,,,,,,MVFR,,,,,,0.0050,,,,,,METAR,51.0
KMUI 220658Z AUTO 07001KT 8SM OVC011 M04/M05 A3012 RMK AO2 UPE0632 SLP210 P0000 T10441054,KMUI,2015-02-22T06:58:00Z,40.42,-76.57,-4.4,-5.4,70,1,,8.0,30.121063,1021.0,,TRUE,TRUE,,,,,,,OVC,1100,,,,,,,MVFR,,,,,,0.0050,,,,,,METAR,149.0
KMTC 220658Z AUTO 22003KT 10SM BKN090 M08/M09 A3010 RMK AO2 SLP207 T10831095 $,KMTC,2015-02-22T06:58:00Z,42.62,-82.82,-8.3,-9.5,220,3,,10.0,30.100393,1020.7,,TRUE,TRUE,TRUE,,,,,,BKN,9000,,,,,,,VFR,,,,,,,,,,,,METAR,177.0
KMGE 220658Z AUTO 12002KT 4SM R11/4000FT -RA BR FEW002 OVC025 05/05 A3013 RMK AO2 SLPNO P0005 T00490048 $,KMGE,2015-02-22T06:58:00Z,33.92,-84.52,4.9,4.8,120,2,,4.0,30.129921,,,TRUE,TRUE,TRUE,,,,,-RA BR,FEW,200,OVC,2500,,,,,MVFR,,,,,,0.05,,,,,,METAR,326.0
KVOK 220658Z AUTO 29007KT 10SM CLR M13/M17 A3024 RMK AO2 SLP260 T11271171,KVOK,2015-02-22T06:58:00Z,43.92,-90.27,-12.7,-17.1,290,7,,10.0,30.239174,1026.0,,TRUE,TRUE,,,,,,,CLR,,,,,,,,VFR,,,,,,,,,,,,METAR,277.0
KTBN 220658Z AUTO 02007KT 8SM OVC023 00/00 A3020 RMK AO2 SLP240 T00020002,KTBN,2015-02-22T06:58:00Z,37.72,-92.12,0.2,0.2,20,7,,8.0,30.200787,1024.0,,TRUE,TRUE,,,,,,,OVC,2300,,,,,,,MVFR,,,,,,,,,,,,METAR,353.0
KSLI 220658Z AUTO 00000KT 10SM OVC048 14/11 A2992 RMK AO2 SLP135 T01380106,KSLI,2015-02-22T06:58:00Z,33.77,-118.03,13.8,10.6,0,0,,10.0,29.920275,1013.5,,TRUE,TRUE,,,,,,,OVC,4800,,,,,,,VFR,,,,,,,,,,,,METAR,11.0
KOZR 220658Z AUTO 17007KT 10SM FEW013 OVC044 15/12 A3011 RMK AO2 SLP197 T01500120,KOZR,2015-02-22T06:58:00Z,31.28,-85.72,15.0,12.0,170,7,,10.0,30.109253,1019.7,,TRUE,TRUE,,,,,,,FEW,1300,OVC,4400,,,,,VFR,,,,,,,,,,,,METAR,93.0
KFSI 220658Z AUTO 06007KT 10SM OVC140 05/01 A3007 RMK AO2 SLP183 T00530010 $,KFSI,2015-02-22T06:58:00Z,34.65,-98.4,5.3,1.0,60,7,,10.0,30.070866,1018.3,,TRUE,TRUE,TRUE,,,,,,OVC,14000,,,,,,,VFR,,,,,,,,,,,,METAR,362.0
KPSM 220658Z 22006KT 7SM FEW008 SCT014 OVC035 00/M01 A3009 RMK AO2A SNE0654 SLP194 P0000 T10011013,KPSM,2015-02-22T06:58:00Z,43.07,-70.82,-0.1,-1.3,220,6,,7.0,30.088583,1019.4,,,TRUE,,,,,,,FEW,800,SCT,1400,OVC,3500,,,VFR,,,,,,0.0050,,,,,,METAR,31.0
KFCS 220658Z 01020G25KT 8SM -SN OVC028 M08/M11 A3016 RMK AO2A PK WND 01027/05 SLP283 P0000 T10811115 400101081,KFCS,2015-02-22T06:58:00Z,38.67,-104.77,-8.1,-11.5,10,20,25,8.0,30.159449,1028.3,,,TRUE,,,,,,-SN,OVC,2800,,,,,,,MVFR,,,,1.0,-8.1,0.0050,,,,,,METAR,1789.0
KDMA 220658Z AUTO VRB03KT 10SM FEW150 18/02 A2988 RMK AO2 SLP086 T01770020 402540090 $,KDMA,2015-02-22T06:58:00Z,32.17,-110.87,17.7,2.0,0,3,,10.0,29.878937,1008.6,,TRUE,TRUE,TRUE,,,,,,FEW,15000,,,,,,,VFR,,,,25.4,9.0,,,,,,,METAR,824.0
KDLF 220658Z AUTO 11009KT 10SM CLR 19/13 A2989 RMK AO2 SLP110 T01860132 $,KDLF,2015-02-22T06:58:00Z,29.37,-100.77,18.6,13.2,110,9,,10.0,29.890747,1011.0,,TRUE,TRUE,TRUE,,,,,,CLR,,,,,,,,VFR,,,,,,,,,,,,METAR,330.0
CWOB 220658Z AUTO 34005KT M23/ A2968,CWOB,2015-02-22T06:58:00Z,63.32,-64.15,-23.0,,340,5,,,29.681103,,,TRUE,,,,,,,,,,,,,,,,,,,,,,,,,,,,SPECI,367.0
CYAY 220658Z AUTO 24019G25KT 9SM -SN CLR M10/M12 A3027 RMK PRESRR SLP253,CYAY,2015-02-22T06:58:00Z,51.38,-56.07,-10.0,-12.0,240,19,25,9.0,30.268702,1025.3,,TRUE,,,,,,,-SN,CLR,,,,,,,,VFR,,,,,,,,,,,,SPECI,28.0
KBIX 220658Z AUTO 18009KT 10SM CLR 17/17 A3004 RMK AO2 SLP175 T01670167,KBIX,2015-02-22T06:58:00Z,30.42,-88.92,16.7,16.7,180,9,,10.0,30.041338,1017.5,,TRUE,TRUE,,,,,,,CLR,,,,,,,,VFR,,,,,,,,,,,,METAR,10.0
CYRQ 220658Z AUTO 00000KT 6SM BR OVC014 M17/M19 A3009 RMK SLP193,CYRQ,2015-02-22T06:58:00Z,46.35,-72.68,-17.0,-19.0,0,0,,6.0,30.088583,1019.3,,TRUE,,,,,,,BR,OVC,1400,,,,,,,MVFR,,,,,,,,,,,,SPECI,61.0
KMTN 220657Z AUTO 13004KT 3SM RA BKN004 OVC007 00/00 A3015 RMK AO2 P0002,KMTN,2015-02-22T06:57:00Z,39.32,-76.42,0.0,0.0,130,4,,3.0,30.15059,,,TRUE,TRUE,,,,,,RA,BKN,400,OVC,700,,,,,LIFR,,,,,,0.02,,,,,,METAR,7.0
KNSI 220657Z AUTO 28004KT 10SM OVC031 00/00 A2992 RMK AO2 SLPNO T00000000 $,KNSI,2015-02-22T06:57:00Z,33.22,-119.45,0.0,0.0,280,4,,10.0,29.920275,,,TRUE,TRUE,TRUE,,,,,,OVC,3100,,,,,,,VFR,,,,,,,,,,,,METAR,154.0
KNJM 220657Z AUTO 24006KT 4SM -RA BR FEW026 OVC038 12/12 A3024 RMK AO2 SLP243 P0002 T01220117 $,KNJM,2015-02-22T06:57:00Z,34.67,-77.02,12.2,11.7,240,6,,4.0,30.239174,1024.3,,TRUE,TRUE,TRUE,,,,,-RA BR,FEW,2600,OVC,3800,,,,,MVFR,,,,,,0.02,,,,,,METAR,7.0
KCQX 220657Z AUTO 20012G22KT 4SM -RA BR BKN003 BKN013 OVC045 04/03 A3012 RMK AO2 P0000 T00390033,KCQX,2015-02-22T06:57:00Z,41.68,-70.0,3.9,3.3,200,12,22,4.0,30.121063,,,TRUE,TRUE,,,,,,-RA BR,BKN,300,BKN,1300,OVC,4500,,,LIFR,,,,,,0.0050,,,,,,METAR,19.0
KCOQ 220657Z AUTO 31009KT 10SM CLR M21/M26 A3030 RMK AO2,KCOQ,2015-02-22T06:57:00Z,46.7,-92.5,-21.0,-26.0,310,9,,10.0,30.301182,,,TRUE,TRUE,,,,,,,CLR,,,,,,,,VFR,,,,,,,,,,,,METAR,390.0
KSJX 220657Z AUTO 00000KT 10SM CLR M19/M21 A3017 RMK AO2 T11891210,KSJX,2015-02-22T06:57:00Z,45.7,-85.57,-18.9,-21.0,0,0,,10.0,30.171259,,,TRUE,TRUE,,,,,,,CLR,,,,,,,,VFR,,,,,,,,,,,,METAR,204.0
CYNM 220657Z AUTO 33008KT 9SM -SN FEW085 SCT180 M23/M26 A3001 RMK SLP192,CYNM,2015-02-22T06:57:00Z,49.77,-77.82,-23.0,-26.0,330,8,,9.0,30.008858,1019.2,,TRUE,,,,,,,-SN,FEW,8500,SCT,18000,,,,,VFR,,,,,,,,,,,,SPECI,281.0
CYBC 220657Z AUTO 14003KT 2SM -SN OVC026 M10/M11 A3014 RMK SLP207,CYBC,2015-02-22T06:57:00Z,49.12,-68.2,-10.0,-11.0,140,3,,2.0,30.138779,1020.7,,TRUE,,,,,,,-SN,OVC,2600,,,,,,,IFR,,,,,,,,,,,,SPECI,22.0
PHNG 220657Z 09004KT FEW042 22/15 A3000 RMK AO2 SLP155 T02220150 $ ,PHNG,2015-02-22T06:57:00Z,21.43,-157.77,22.2,15.0,90,4,,,30.0,1015.5,,,TRUE,TRUE,,,,,,FEW,4200,,,,,,,,,,,,,,,,,,,METAR,3.0
KGWW 220657Z AUTO 18005KT 10SM SCT120 12/11 A3019 RMK AO2,KGWW,2015-02-22T06:57:00Z,35.47,-77.97,12.0,11.0,180,5,,10.0,30.188976,,,TRUE,TRUE,,,,,,,SCT,12000,,,,,,,VFR,,,,,,,,,,,,METAR,41.0
KSAW 220657Z AUTO 33003KT 10SM CLR M22/M24 A3013 RMK AO2 T12171240,KSAW,2015-02-22T06:57:00Z,46.35,-87.4,-21.7,-24.0,330,3,,10.0,30.129921,,,TRUE,TRUE,,,,,,,CLR,,,,,,,,VFR,,,,,,,,,,,,METAR,372.0
KROG 220657Z AUTO 04003KT 4SM BR CLR 01/00 A3021 RMK AO2 SLP239 T00060000 TSNO,KROG,2015-02-22T06:57:00Z,36.37,-94.08,0.6,0.0,40,3,,4.0,30.209646,1023.9,,TRUE,TRUE,,,TRUE,,,BR,CLR,,,,,,,,MVFR,,,,,,,,,,,,METAR,415.0
KFLG 220657Z AUTO 00000KT 10SM CLR M01/M05 A2990 RMK AO2 SLP080 T10061050 401281044 TSNO,KFLG,2015-02-22T06:57:00Z,35.13,-111.67,-0.6,-5.0,0,0,,10.0,29.899607,1008.0,,TRUE,TRUE,,,TRUE,,,,CLR,,,,,,,,VFR,,,,12.8,-4.4,,,,,,,METAR,2134.0
KCVX 220657Z AUTO 33008KT 10SM OVC055 M13/M16 A3020 RMK AO2,KCVX,2015-02-22T06:57:00Z,45.3,-85.27,-13.0,-16.0,330,8,,10.0,30.200787,,,TRUE,TRUE,,,,,,,OVC,5500,,,,,,,VFR,,,,,,,,,,,,METAR,204.0
PAGH 220657Z AUTO 11021G32KT 10SM OVC037 00/M04 A2980 RMK AO2 PK WND 11032/0653 UPB30E50SNE30 SLP123 P0000 T00001039 FZRANO,PAGH,2015-02-22T06:57:00Z,66.88,-157.17,0.0,-3.9,110,21,32,10.0,29.799213,1012.3,,TRUE,TRUE,,,,TRUE,,,OVC,3700,,,,,,,VFR,,,,,,0.0050,,,,,,METAR,60.0
PAVA 220657Z AUTO 14023G27KT 10SM OVC004 01/01 A2945 RMK AO2 PK WND 15028/0647 SLP976 T00110011 FZRANO,PAVA,2015-02-22T06:57:00Z,61.53,-165.6,1.1,1.1,140,23,27,10.0,29.450787,997.6,,TRUE,TRUE,,,,TRUE,,,OVC,400,,,,,,,LIFR,,,,,,,,,,,,METAR,23.0
KNYL 220657Z AUTO 00000KT 10SM CLR 18/11 A2978 RMK AO2 SLP081 T01780106 402720122,KNYL,2015-02-22T06:57:00Z,32.63,-114.62,17.8,10.6,0,0,,10.0,29.778543,1008.1,,TRUE,TRUE,,,,,,,CLR,,,,,,,,VFR,,,,27.2,12.2,,,,,,,METAR,65.0
KMQJ 220656Z AUTO 00000KT 5SM OVC036 M07/ A3017 RMK AO1,KMQJ,2015-02-22T06:56:00Z,39.85,-85.9,-7.0,,0,0,,5.0,30.171259,,,TRUE,TRUE,,,,,,,OVC,3600,,,,,,,MVFR,,,,,,,,,,,,METAR,263.0
KONA 220656Z AUTO 30005KT 10SM CLR M12/M18 A3035 RMK AO2,KONA,2015-02-22T06:56:00Z,44.07,-91.7,-12.0,-18.0,300,5,,10.0,30.351377,,,TRUE,TRUE,,,,,,,CLR,,,,,,,,VFR,,,,,,,,,,,,METAR,200.0
KHFF 220656Z AUTO 16003KT 10SM FEW100 SCT120 SCT180 09/08 A3020 RMK AO2 SLP230 T00920080,KHFF,2015-02-22T06:56:00Z,35.02,-79.5,9.2,8.0,160,3,,10.0,30.200787,1023.0,,TRUE,TRUE,,,,,,,FEW,10000,SCT,12000,SCT,18000,,,VFR,,,,,,,,,,,,METAR,115.0
KI69 220656Z AUTO 32005KT 5SM BR OVC006 M02/M02 A3015 RMK AO1,KI69,2015-02-22T06:56:00Z,39.08,-84.22,-2.0,-2.0,320,5,,5.0,30.15059,,,TRUE,TRUE,,,,,,BR,OVC,600,,,,,,,IFR,,,,,,,,,,,,METAR,255.0
PPIZ 220656Z AUTO -SN BKN004 BKN009 M14/M16 A2989 RMK AO2 TSNO T11381161 P0000 SLP127 $,PPIZ,2015-02-22T06:56:00Z,69.73,-163.0,-13.8,-16.1,,,,,29.890747,1012.7,,TRUE,TRUE,TRUE,,TRUE,,,-SN,BKN,400,BKN,900,,,,,,,,,,,0.0050,,,,,,METAR,8.0
PAVC 220656Z AUTO 15016G24KT 10SM -RA BKN010 BKN015 OVC034 04/03 A2945 RMK AO2 TSNO T00440027 CIG 008V013 P0000 PK WND 14029/0602 SLP975 $,PAVC,2015-02-22T06:56:00Z,55.12,-162.27,4.4,2.7,150,16,24,10.0,29.450787,997.5,,TRUE,TRUE,TRUE,,TRUE,,,-RA,BKN,1000,BKN,1500,OVC,3400,,,MVFR,,,,,,0.0050,,,,,,METAR,47.0
PARY 220656Z AUTO 09013KT 9SM UP SCT036 OVC045 M02/M05 A2978 RMK AO2 TSNO T10221050 SNB0558E00B02E03 P0000 SLP095 $,PARY,2015-02-22T06:56:00Z,64.73,-155.47,-2.2,-5.0,90,13,,9.0,29.778543,1009.5,,TRUE,TRUE,TRUE,,TRUE,,,UP,SCT,3600,OVC,4500,,,,,VFR,,,,,,0.0050,,,,,,METAR,199.0
PARS 220656Z AUTO 00000KT 10SM OVC041 03/01 A2959 RMK AO2 TSNO T00330011 SLP027 $,PARS,2015-02-22T06:56:00Z,61.77,-161.32,3.3,1.1,0,0,,10.0,29.589567,1002.7,,TRUE,TRUE,TRUE,,TRUE,,,,OVC,4100,,,,,,,VFR,,,,,,,,,,,,METAR,16.0
PAPM 220656Z AUTO 08021KT 10SM OVC075 03/02 A2953 RMK AO2 TSNO T00330016 SLP000 $,PAPM,2015-02-22T06:56:00Z,59.02,-161.82,3.3,1.6,80,21,,10.0,29.530512,1000.0,,TRUE,TRUE,TRUE,,TRUE,,,,OVC,7500,,,,,,,VFR,,,,,,,,,,,,METAR,5.0
PAOU 220656Z AUTO 13013KT 7SM SCT027 OVC033 04/04 A2948 RMK AO2 TSNO T00440044 RAE41 P0000 SLP986 $,PAOU,2015-02-22T06:56:00Z,56.0,-161.17,4.4,4.4,130,13,,7.0,29.480314,998.6,,TRUE,TRUE,TRUE,,TRUE,,,,SCT,2700,OVC,3300,,,,,VFR,,,,,,0.0050,,,,,,METAR,4.0
PAOO 220656Z AUTO 12021KT 9SM OVC007 01/01 A2941 RMK AO2 TSNO T00050005 CIG 007V011 PK WND 12027/0557 SLP961 $,PAOO,2015-02-22T06:56:00Z,60.53,-165.12,0.5,0.5,120,21,,9.0,29.409449,996.1,,TRUE,TRUE,TRUE,,TRUE,,,,OVC,700,,,,,,,IFR,,,,,,,,,,,,METAR,18.0
PAOH 220656Z AUTO 09007KT 10SM BKN030 OVC034 04/04 A3042 RMK AO2 TSNO T00440044 SLP303 $,PAOH,2015-02-22T06:56:00Z,58.1,-135.45,4.4,4.4,90,7,,10.0,30.41929,1030.3,,TRUE,TRUE,TRUE,,TRUE,,,,BKN,3000,OVC,3400,,,,,MVFR,,,,,,,,,,,,METAR,9.0
PAMO 220656Z AUTO 13018KT 10SM BKN018 OVC024 02/02 A2952 RMK AO2 TSNO T00160016 BKN V SCT SLP882 $,PAMO,2015-02-22T06:56:00Z,62.1,-163.68,1.6,1.6,130,18,,10.0,29.518702,988.2,,TRUE,TRUE,TRUE,,TRUE,,,,BKN,1800,OVC,2400,,,,,MVFR,,,,,,,,,,,,METAR,103.0
PAMK 220656Z AUTO 14013KT 10SM CLR 04/01 A2956 RMK AO2 TSNO T00380005 SLP016 $,PAMK,2015-02-22T06:56:00Z,63.48,-162.12,3.8,0.5,140,13,,10.0,29.56004,1001.6,,TRUE,TRUE,TRUE,,TRUE,,,,CLR,,,,,,,,VFR,,,,,,,,,,,,METAR,28.0
PAMB 220656Z AUTO 10007KT CLR 02/01 A2962 RMK AO2 TSNO T00160011 SLP034 $,PAMB,2015-02-22T06:56:00Z,58.98,-159.05,1.6,1.1,100,7,,,29.619095,1003.4,,TRUE,TRUE,TRUE,,TRUE,,,,CLR,,,,,,,,,,,,,,,,,,,,METAR,16.0
PALG 220656Z AUTO 10008KT CLR 04/01 RMK AO2 PWINO TSNO T00440011 SLPNO $,PALG,2015-02-22T06:56:00Z,61.53,-160.33,4.4,1.1,100,8,,,,,,TRUE,TRUE,TRUE,,TRUE,,TRUE,,CLR,,,,,,,,,,,,,,,,,,,,METAR,17.0
KQBL 220656Z AUTO 14001KT 2 1/4SM -SHRA BR FEW015 SCT022 BKN034 OVC041 17/16 A3010 RMK AO2 VIS 2V2 1/2 SLP198 P0004 T01670162,KQBL,2015-02-22T06:56:00Z,100.65,-1000.65,16.7,16.2,140,1,,2.25,30.100393,1019.8,,TRUE,TRUE,,,,,,-SHRA BR,FEW,1500,SCT,2200,BKN,3400,OVC,4100,IFR,,,,,,0.04,,,,,,METAR,999.0
KMHS 220656Z AUTO 06005KT 10SM CLR 02/M07 A3005 RMK AO2 SLP197 T00171067,KMHS,2015-02-22T06:56:00Z,41.32,-122.32,1.7,-6.7,60,5,,10.0,30.050198,1019.7,,TRUE,TRUE,,,,,,,CLR,,,,,,,,VFR,,,,,,,,,,,,METAR,1078.0
KFEW 220656Z AUTO 01004KT 2 1/4SM -SN OVC021 M12/M14 A3016 RMK AO2 VIS 1 3/4V2 1/4 SLP286 T11201137 410271120 $,KFEW,2015-02-22T06:56:00Z,41.13,-104.87,-12.0,-13.7,10,4,,2.25,30.159449,1028.6,,TRUE,TRUE,TRUE,,,,,-SN,OVC,2100,,,,,,,IFR,,,,-2.7,-12.0,,,,,,,METAR,1878.0
K1QW 220656Z AUTO 04006KT M /// /// M 00/M12 A3039 RMK AO2 SLP317 T10021119 $,K1QW,2015-02-22T06:56:00Z,46.8,-120.17,-0.2,-11.9,40,6,,,30.389763,1031.7,,TRUE,TRUE,TRUE,,,,,,,,,,,,,,,,,,,,,,,,,,METAR,928.0
PMDY 220656Z AUTO 20007KT 6SM BR FEW050 18/18 A2964 RMK AO2 TSNO T01830183 SLP342 $,PMDY,2015-02-22T06:56:00Z,28.22,-177.37,18.3,18.3,200,7,,6.0,29.639763,1034.2,,TRUE,TRUE,TRUE,,TRUE,,,BR,FEW,5000,,,,,,,VFR,,,,,,,,,,,,METAR,4.0
PHNY 220656Z AUTO 05011KT 10SM CLR 18/16 A3006 RMK AO2 TSNO T01830161 SLP163 $,PHNY,2015-02-22T06:56:00Z,20.77,-156.93,18.3,16.1,50,11,,10.0,30.059055,1016.3,,TRUE,TRUE,TRUE,,TRUE,,,,CLR,,,,,,,,VFR,,,,,,,,,,,,METAR,399.0
KQHY 220656Z AUTO 16003KT 5SM BR OVC017 17/16 A3010 RMK AO2 SHRAE53 SLP199 P0003 T01660161,KQHY,2015-02-22T06:56:00Z,100.65,-1000.65,16.6,16.1,160,3,,5.0,30.100393,1019.9,,TRUE,TRUE,,,,,,BR,OVC,1700,,,,,,,MVFR,,,,,,0.03,,,,,,METAR,999.0
KBDU 220656Z AUTO 36005KT M08/M10 A3027 RMK AO2 PWINO,KBDU,2015-02-22T06:56:00Z,40.03,-105.23,-8.0,-10.0,360,5,,,30.268702,,,TRUE,TRUE,,,,,TRUE,,,,,,,,,,,,,,,,,,,,,,METAR,1612.0
K4BM 220656Z AUTO 00000KT 1 3/4SM -SN SCT011 OVC019 A2995 RMK AO2,K4BM,2015-02-22T06:56:00Z,39.05,-105.52,,,0,0,,1.75,29.949802,,,TRUE,TRUE,,,,,,-SN,SCT,1100,OVC,1900,,,,,IFR,,,,,,,,,,,,METAR,3438.0
PANW 220656Z AUTO 08005KT 10SM FEW039 OVC050 03/01 A2973 RMK AO2 TSNO T00330011 SLP047 $,PANW,2015-02-22T06:56:00Z,59.45,-157.37,3.3,1.1,80,5,,10.0,29.731298,1004.7,,TRUE,TRUE,TRUE,,TRUE,,,,FEW,3900,OVC,5000,,,,,VFR,,,,,,,,,,,,METAR,92.0
KCHS 220656Z 18003KT 10SM OVC160 11/09 A3019 RMK AO2 SLP222 T01060089,KCHS,2015-02-22T06:56:00Z,32.9,-80.03,10.6,8.9,180,3,,10.0,30.188976,1022.2,,,TRUE,,,,,,,OVC,16000,,,,,,,VFR,,,,,,,,,,,,METAR,13.0
KMGG 220656Z AUTO 30008G14KT 10SM CLR M19/M24 A3042 RMK AO2 T11951236,KMGG,2015-02-22T06:56:00Z,45.23,-93.98,-19.5,-23.6,300,8,14,10.0,30.41929,,,TRUE,TRUE,,,,,,,CLR,,,,,,,,VFR,,,,,,,,,,,,METAR,313.0
KPOV 220656Z AUTO 31004KT 7SM OVC005 M07/ A3009 RMK AO2 T1070,KPOV,2015-02-22T06:56:00Z,41.22,-81.25,-7.0,,310,4,,7.0,30.088583,,,TRUE,TRUE,,,,,,,OVC,500,,,,,,,IFR,,,,,,,,,,,,METAR,365.0
KROS 220656Z AUTO 32006KT 10SM BKN120 M19/M25 A3038 RMK AO2 T11941248,KROS,2015-02-22T06:56:00Z,45.7,-92.95,-19.4,-24.8,320,6,,10.0,30.380905,,,TRUE,TRUE,,,,,,,BKN,12000,,,,,,,VFR,,,,,,,,,,,,METAR,281.0
YLIS 220656Z AUTO 17009KT 9999 // SCT008 SCT010 SCT021 24/23 Q1011 RESHRA,YLIS,2015-02-22T06:56:00Z,-28.83,153.27,24.0,23.0,170,9,,6.21,29.852362,,,TRUE,,,,,,,,SCT,800,SCT,1000,SCT,2100,,,VFR,,,,,,,,,,,,SPECI,11.0
PHSF 220656Z AUTO 28001KT 5SM M FEW010 BKN014 BKN020 13/12 A3029 RMK AO2 SLP143 T01290121 $,PHSF,2015-02-22T06:56:00Z,19.77,-155.55,12.9,12.1,280,1,,5.0,30.28937,1014.3,,TRUE,TRUE,TRUE,,,,,,FEW,1000,BKN,1400,BKN,2000,,,MVFR,,,,,,,,,,,,METAR,1887.0
KM63 220656Z AUTO 20016KT 10SM BKN170 18/M01 A2988 RMK AO2 LTG DSNT SW SLP063 T01751011 402100111,KM63,2015-02-22T06:56:00Z,32.05,-106.15,17.5,-1.1,200,16,,10.0,29.878937,1006.3,,TRUE,TRUE,,,,,,,BKN,17000,,,,,,,VFR,,,,21.0,11.1,,,,,,,METAR,1283.0
KNJK 220656Z AUTO 26027G35KT 4SM HZ BKN007 18/06 A2977 RMK AO2 PK WND 25037/0634 SLP098 T01780056 $,KNJK,2015-02-22T06:56:00Z,32.82,-115.67,17.8,5.6,260,27,35,4.0,29.769686,1009.8,,TRUE,TRUE,TRUE,,,,,HZ,BKN,700,,,,,,,IFR,,,,,,,,,,,,METAR,-13.0
KMNH 220656Z AUTO 34008KT BKN007 OVC017 M13/M14 A3013 RMK AO2 PWINO,KMNH,2015-02-22T06:56:00Z,39.22,-104.65,-13.0,-14.0,340,8,,,30.129921,,,TRUE,TRUE,,,,,TRUE,,BKN,700,OVC,1700,,,,,,,,,,,,,,,,,METAR,2152.0
KAUM 220656Z AUTO 31010KT 10SM CLR M18/M22 A3035 RMK AO2,KAUM,2015-02-22T06:56:00Z,43.67,-92.92,-18.0,-22.0,310,10,,10.0,30.351377,,,TRUE,TRUE,,,,,,,CLR,,,,,,,,VFR,,,,,,,,,,,,METAR,375.0
KP60 220656Z AUTO VRB03KT M18/M22 A3012 RMK AO1 SLP284 T11781222 410671178 $,KP60,2015-02-22T06:56:00Z,44.55,-110.42,-17.8,-22.2,0,3,,,30.121063,1028.4,,TRUE,TRUE,TRUE,,,,,,,,,,,,,,,,,,-6.7,-17.8,,,,,,,METAR,2388.0
KQFS 220656Z AUTO 28006KT 9999 M 13/01 A2992 RMK AO2 SLPNO T01300006 $,KQFS,2015-02-22T06:56:00Z,100.65,-1000.65,13.0,0.6,280,6,,6.21,29.920275,,,TRUE,TRUE,TRUE,,,,,,,,,,,,,,,,,,,,,,,,,,METAR,999.0
KQRH 220656Z AUTO VRB06KT 9999 FEW019 SCT044 29/21 A3000 RMK AO2 SLP152 T02880209,KQRH,2015-02-22T06:56:00Z,100.65,-1000.65,28.8,20.9,0,6,,6.21,30.0,1015.2,,TRUE,TRUE,,,,,,,FEW,1900,SCT,4400,,,,,VFR,,,,,,,,,,,,METAR,999.0
KNID 220656Z AUTO 26003KT CLR 15/M04 A2971 RMK AO2 SLP051 T01501044 $,KNID,2015-02-22T06:56:00Z,35.67,-117.67,15.0,-4.4,260,3,,,29.71063,1005.1,,TRUE,TRUE,TRUE,,,,,,CLR,,,,,,,,,,,,,,,,,,,,METAR,696.0
KGNA 220656Z AUTO VRB03KT M23/M27 A3033 RMK AO1 SLP297 T12331272,KGNA,2015-02-22T06:56:00Z,47.75,-90.35,-23.3,-27.2,0,3,,,30.33071,1029.7,,TRUE,TRUE,,,,,,,,,,,,,,,,,,,,,,,,,,,METAR,185.0
KETH 220656Z AUTO 35010G14KT 10SM CLR M22/M26 A3054 RMK AO2,KETH,2015-02-22T06:56:00Z,45.78,-96.55,-22.0,-26.0,350,10,14,10.0,30.540354,,,TRUE,TRUE,,,,,,,CLR,,,,,,,,VFR,,,,,,,,,,,,METAR,313.0
KAQV 220656Z AUTO 01009KT 4SM -RA BR OVC004 11/09 A3002 RMK AO2 SLP164 P0000 T01060094,KAQV,2015-02-22T06:56:00Z,31.4,-93.3,10.6,9.4,10,9,,4.0,30.02067,1016.4,,TRUE,TRUE,,,,,,-RA BR,OVC,400,,,,,,,LIFR,,,,,,0.0050,,,,,,METAR,111.0
KNBC 220656Z AUTO 00000KT 10SM CLR 10/08 A3019 RMK AO2 SLP222 T01000078 $,KNBC,2015-02-22T06:56:00Z,32.47,-80.72,10.0,7.8,0,0,,10.0,30.188976,1022.2,,TRUE,TRUE,TRUE,,,,,,CLR,,,,,,,,VFR,,,,,,,,,,,,METAR,12.0
KNCA 220656Z AUTO 18005KT 10SM BKN037 BKN047 OVC065 14/13 A3021 RMK AO2 SLP234 T01390128,KNCA,2015-02-22T06:56:00Z,34.72,-77.45,13.9,12.8,180,5,,10.0,30.209646,1023.4,,TRUE,TRUE,,,,,,,BKN,3700,BKN,4700,OVC,6500,,,VFR,,,,,,,,,,,,METAR,8.0
KSPD 220656Z AUTO 04025G33KT M05/M06 A3012 RMK AO1 PK WND 04033/0653 SLP207 P0006 T10501061 400501067,KSPD,2015-02-22T06:56:00Z,37.28,-102.62,-5.0,-6.1,40,25,33,,30.121063,1020.7,,TRUE,TRUE,,,,,,,,,,,,,,,,,,,5.0,-6.7,0.06,,,,,,METAR,1335.0
KD07 220656Z AUTO 35008KT M18/M22 A3047 RMK AO1 SLP382 T11781222 400001178,KD07,2015-02-22T06:56:00Z,45.03,-102.02,-17.8,-22.2,350,8,,,30.469488,1038.2,,TRUE,TRUE,,,,,,,,,,,,,,,,,,,,-17.8,,,,,,,METAR,784.0
KPRN 220656Z AUTO 19007KT 10SM OVC006 16/14 A3007 RMK AO2 SLP180 T01610139,KPRN,2015-02-22T06:56:00Z,31.85,-86.62,16.1,13.9,190,7,,10.0,30.070866,1018.0,,TRUE,TRUE,,,,,,,OVC,600,,,,,,,IFR,,,,,,,,,,,,METAR,138.0
KNMM 220656Z AUTO 14004KT 9SM -RA SCT065 BKN085 OVC100 14/13 A3005 RMK AO2 SLP183 P0018 T01390133 $,KNMM,2015-02-22T06:56:00Z,32.53,-88.57,13.9,13.3,140,4,,9.0,30.050198,1018.3,,TRUE,TRUE,TRUE,,,,,-RA,SCT,6500,BKN,8500,OVC,10000,,,VFR,,,,,,0.18,,,,,,METAR,97.0
KSRC 220656Z AUTO 03012KT 10SM OVC012 03/02 A3019 RMK AO2 SLP232 T00330017 TSNO,KSRC,2015-02-22T06:56:00Z,35.22,-91.73,3.3,1.7,30,12,,10.0,30.188976,1023.2,,TRUE,TRUE,,,TRUE,,,,OVC,1200,,,,,,,MVFR,,,,,,,,,,,,METAR,80.0
PAAK 220656Z 28015G30KT 2 1/2SM FEW008 SCT026 BKN035 00/M04 A2947 RMK AO1,PAAK,2015-02-22T06:56:00Z,52.22,-174.2,0.0,-4.0,280,15,30,2.5,29.471457,,,,TRUE,,,,,,,FEW,800,SCT,2600,BKN,3500,,,IFR,,,,,,,,,,,,METAR,17.0
PAZK 220656Z AUTO 00000KT 10SM BKN120 M04/M04 A2985 RMK AO1,PAZK,2015-02-22T06:56:00Z,61.93,-147.17,-4.0,-4.0,0,0,,10.0,29.84941,,,TRUE,TRUE,,,,,,,BKN,12000,,,,,,,VFR,,,,,,,,,,,,METAR,1003.0
PAWS 220656Z AUTO 00000KT 5SM OVC036 01/M01 A2994 RMK AO1 P0003,PAWS,2015-02-22T06:56:00Z,61.57,-149.53,1.0,-1.0,0,0,,5.0,29.940945,,,TRUE,TRUE,,,,,,,OVC,3600,,,,,,,MVFR,,,,,,0.03,,,,,,METAR,107.0
PABV 220656Z AUTO 00000KT 10SM FEW048 OVC055 02/02 A2996 RMK AO1,PABV,2015-02-22T06:56:00Z,61.42,-149.52,2.0,2.0,0,0,,10.0,29.958662,,,TRUE,TRUE,,,,,,,FEW,4800,OVC,5500,,,,,VFR,,,,,,,,,,,,METAR,29.0
PABL 220656Z AUTO 11016G20KT 10SM BKN017 BKN027 01/M02 A2965 RMK AO1,PABL,2015-02-22T06:56:00Z,65.98,-161.15,1.0,-2.0,110,16,20,10.0,29.648623,,,TRUE,TRUE,,,,,,,BKN,1700,BKN,2700,,,,,MVFR,,,,,,,,,,,,METAR,7.0
KXVG 220656Z AUTO 30005KT 10SM CLR M25/M28 A3037 RMK AO2,KXVG,2015-02-22T06:56:00Z,46.98,-94.2,-25.0,-28.0,300,5,,10.0,30.369095,,,TRUE,TRUE,,,,,,,CLR,,,,,,,,VFR,,,,,,,,,,,,METAR,407.0
PAHL 220656Z AUTO 08011G16KT 10SM BKN046 OVC060 M01/M06 A2976 RMK AO1,PAHL,2015-02-22T06:56:00Z,65.7,-156.35,-1.0,-6.0,80,11,16,10.0,29.760826,,,TRUE,TRUE,,,,,,,BKN,4600,OVC,6000,,,,,VFR,,,,,,,,,,,,METAR,65.0
PAGM 220656Z AUTO 06019KT 3SM SCT005 BKN022 OVC029 M02/M03 A2924 RMK AO1,PAGM,2015-02-22T06:56:00Z,63.77,-171.73,-2.0,-3.0,60,19,,3.0,29.241142,,,TRUE,TRUE,,,,,,,SCT,500,BKN,2200,OVC,2900,,,MVFR,,,,,,,,,,,,METAR,8.0
PAGL 220656Z AUTO 13016KT 10SM OVC031 03/01 A2958 RMK AO1,PAGL,2015-02-22T06:56:00Z,64.55,-163.03,3.0,1.0,130,16,,10.0,29.58071,,,TRUE,TRUE,,,,,,,OVC,3100,,,,,,,VFR,,,,,,,,,,,,METAR,8.0
PAFM 220656Z AUTO 05003KT 1 3/4SM SCT004 BKN008 OVC012 M01/M02 A2980 RMK AO1,PAFM,2015-02-22T06:56:00Z,67.1,-157.85,-1.0,-2.0,50,3,,1.75,29.799213,,,TRUE,TRUE,,,,,,,SCT,400,BKN,800,OVC,1200,,,IFR,,,,,,,,,,,,METAR,88.0
PAFE 220656Z AUTO 00000KT 10SM OVC040 05/03 A3050 RMK AO1,PAFE,2015-02-22T06:56:00Z,56.97,-133.92,5.0,3.0,0,0,,10.0,30.499016,,,TRUE,TRUE,,,,,,,OVC,4000,,,,,,,VFR,,,,,,,,,,,,METAR,9.0
PADL 220656Z 14012KT 10SM CLR 03/03 A2968 RMK AO1,PADL,2015-02-22T06:56:00Z,59.05,-158.52,3.0,3.0,140,12,,10.0,29.681103,,,,TRUE,,,,,,,CLR,,,,,,,,VFR,,,,,,,,,,,,METAR,26.0
PADK 220656Z AUTO 31010KT 10SM FEW040 SCT046 OVC055 01/M07 A2960 RMK AO1,PADK,2015-02-22T06:56:00Z,51.88,-176.65,1.0,-7.0,310,10,,10.0,29.601377,,,TRUE,TRUE,,,,,,,FEW,4000,SCT,4600,OVC,5500,,,VFR,,,,,,,,,,,,METAR,4.0
PAHY 220656Z AUTO 9SM OVC080 05/01 A3048 RMK AO1,PAHY,2015-02-22T06:56:00Z,55.2,-132.83,5.0,1.0,,,,9.0,30.481298,,,TRUE,TRUE,,,,,,,OVC,8000,,,,,,,VFR,,,,,,,,,,,,METAR,1.0
PAHP 220656Z AUTO 14023G26KT 10SM OVC006 01/M01 A2939 RMK AO1,PAHP,2015-02-22T06:56:00Z,61.53,-166.15,1.0,-1.0,140,23,26,10.0,29.388779,,,TRUE,TRUE,,,,,,,OVC,600,,,,,,,IFR,,,,,,,,,,,,METAR,5.0
PAII 220656Z AUTO 14010KT 10SM BKN100 03/01 A2968 RMK AO1,PAII,2015-02-22T06:56:00Z,58.18,-157.38,3.0,1.0,140,10,,10.0,29.681103,,,TRUE,TRUE,,,,,,,BKN,10000,,,,,,,VFR,,,,,,,,,,,,METAR,30.0
PAIN 220656Z AUTO 16003KT 10SM OVC043 03/02 A2983 RMK AO1,PAIN,2015-02-22T06:56:00Z,63.73,-148.92,3.0,2.0,160,3,,10.0,29.828741,,,TRUE,TRUE,,,,,,,OVC,4300,,,,,,,VFR,,,,,,,,,,,,METAR,524.0
PAJC 220656Z AUTO 11007KT 8SM SCT015 BKN020 OVC026 06/03 A2960 RMK AO1 P0013,PAJC,2015-02-22T06:56:00Z,56.32,-158.37,6.0,3.0,110,7,,8.0,29.601377,,,TRUE,TRUE,,,,,,,SCT,1500,BKN,2000,OVC,2600,,,MVFR,,,,,,0.13,,,,,,METAR,15.0
PAJZ 220656Z AUTO 12017KT 10SM SCT023 OVC039 03/01 A2977 RMK AO2 TSNO T00330011 SLP071 $,PAJZ,2015-02-22T06:56:00Z,59.73,-157.27,3.3,1.1,120,17,,10.0,29.769686,1007.1,,TRUE,TRUE,TRUE,,TRUE,,,,SCT,2300,OVC,3900,,,,,VFR,,,,,,,,,,,,METAR,82.0
PAKP 220656Z AUTO 24014KT 10SM OVC039 M04/M07 A2975 RMK AO1,PAKP,2015-02-22T06:56:00Z,68.13,-151.73,-4.0,-7.0,240,14,,10.0,29.749016,,,TRUE,TRUE,,,,,,,OVC,3900,,,,,,,VFR,,,,,,,,,,,,METAR,642.0
PAKK 220656Z AUTO 11005KT 10SM OVC043 03/00 A2957 RMK AO1,PAKK,2015-02-22T06:56:00Z,64.93,-161.15,3.0,0.0,110,5,,10.0,29.568897,,,TRUE,TRUE,,,,,,,OVC,4300,,,,,,,VFR,,,,,,,,,,,,METAR,47.0
PAMD 220656Z 12008KT M1/4SM OVC002 06/05 A3001 RMK AO1,PAMD,2015-02-22T06:56:00Z,59.43,-146.3,6.0,5.0,120,8,,0.25,30.008858,,,,TRUE,,,,,,,OVC,200,,,,,,,LIFR,,,,,,,,,,,,METAR,14.0
PAMH 220656Z AUTO 00000KT 10SM FEW090 SCT120 M04/M08 A2981 RMK AO1,PAMH,2015-02-22T06:56:00Z,63.9,-152.32,-4.0,-8.0,0,0,,10.0,29.811024,,,TRUE,TRUE,,,,,,,FEW,9000,SCT,12000,,,,,VFR,,,,,,,,,,,,METAR,214.0
PAMM 220656Z AUTO 00000KT 10SM CLR 06/01 A3052 RMK AO1,PAMM,2015-02-22T06:56:00Z,55.13,-131.58,6.0,1.0,0,0,,10.0,30.519686,,,TRUE,TRUE,,,,,,,CLR,,,,,,,,VFR,,,,,,,,,,,,METAR,1.0
PAMY 220656Z AUTO 15021KT 6SM OVC005 01/M02 A2934 RMK AO1,PAMY,2015-02-22T06:56:00Z,60.37,-166.27,1.0,-2.0,150,21,,6.0,29.338583,,,TRUE,TRUE,,,,,,,OVC,500,,,,,,,IFR,,,,,,,,,,,,METAR,13.0
PANI 220656Z AUTO 11006KT 10SM BKN025 04/01 A2965 RMK AO1,PANI,2015-02-22T06:56:00Z,61.58,-159.53,4.0,1.0,110,6,,10.0,29.648623,,,TRUE,TRUE,,,,,,,BKN,2500,,,,,,,MVFR,,,,,,,,,,,,METAR,26.0
PANV 220656Z AUTO 06007KT 10SM CLR 01/M01 A2961 RMK AO1,PANV,2015-02-22T06:56:00Z,62.65,-160.18,1.0,-1.0,60,7,,10.0,29.610237,,,TRUE,TRUE,,,,,,,CLR,,,,,,,,VFR,,,,,,,,,,,,METAR,99.0
PAPH 220656Z AUTO 14014KT 10SM FEW025 SCT033 BKN040 06/01 A2959 RMK AO1,PAPH,2015-02-22T06:56:00Z,56.95,-158.62,6.0,1.0,140,14,,10.0,29.589567,,,TRUE,TRUE,,,,,,,FEW,2500,SCT,3300,BKN,4000,,,VFR,,,,,,,,,,,,METAR,29.0
PAPO 220656Z AUTO 03015KT 4SM FEW011 SCT022 BKN029 M07/M08 A2965 RMK AO1,PAPO,2015-02-22T06:56:00Z,68.35,-166.8,-7.0,-8.0,30,15,,4.0,29.648623,,,TRUE,TRUE,,,,,,,FEW,1100,SCT,2200,BKN,2900,,,MVFR,,,,,,,,,,,,METAR,6.0
PARC 220656Z AUTO 00000KT 10SM OVC070 M11/M16 A2979 RMK AO1,PARC,2015-02-22T06:56:00Z,68.12,-145.58,-11.0,-16.0,0,0,,10.0,29.790354,,,TRUE,TRUE,,,,,,,OVC,7000,,,,,,,VFR,,,,,,,,,,,,METAR,636.0
PASD 220656Z AUTO 16012KT 5SM OVC005 06/05 A2953 RMK AO1,PASD,2015-02-22T06:56:00Z,55.33,-160.5,6.0,5.0,160,12,,5.0,29.530512,,,TRUE,TRUE,,,,,,,OVC,500,,,,,,,IFR,,,,,,,,,,,,METAR,7.0
PASK 220656Z AUTO 08015KT 10SM FEW037 OVC047 M01/M02 A2972 RMK AO1,PASK,2015-02-22T06:56:00Z,66.6,-160.0,-1.0,-2.0,80,15,,10.0,29.719488,,,TRUE,TRUE,,,,,,,FEW,3700,OVC,4700,,,,,VFR,,,,,,,,,,,,METAR,8.0
PASL 220656Z AUTO 18004KT 10SM BKN048 OVC060 06/M02 A2975 RMK AO1,PASL,2015-02-22T06:56:00Z,61.72,-157.15,6.0,-2.0,180,4,,10.0,29.749016,,,TRUE,TRUE,,,,,,,BKN,4800,OVC,6000,,,,,VFR,,,,,,,,,,,,METAR,55.0
PASM 220656Z AUTO 14013G19KT 10SM BKN022 OVC026 03/01 A2951 RMK AO1,PASM,2015-02-22T06:56:00Z,62.07,-163.3,3.0,1.0,140,13,19,10.0,29.509842,,,TRUE,TRUE,,,,,,,BKN,2200,OVC,2600,,,,,MVFR,,,,,,,,,,,,METAR,92.0
PASX 220656Z AUTO 07004KT 10SM SCT055 OVC075 02/01 A2989 RMK AO1,PASX,2015-02-22T06:56:00Z,60.48,-151.03,2.0,1.0,70,4,,10.0,29.890747,,,TRUE,TRUE,,,,,,,SCT,5500,OVC,7500,,,,,VFR,,,,,,,,,,,,METAR,32.0
PATG 220656Z AUTO 12017KT 10SM BKN041 OVC048 03/02 A2960 RMK AO1,PATG,2015-02-22T06:56:00Z,59.05,-160.38,3.0,2.0,120,17,,10.0,29.601377,,,TRUE,TRUE,,,,,,,BKN,4100,OVC,4800,,,,,VFR,,,,,,,,,,,,METAR,4.0
PAUN 220656Z AUTO 08017KT 10SM OVC055 03/M01 A2962 RMK AO1,PAUN,2015-02-22T06:56:00Z,63.88,-160.8,3.0,-1.0,80,17,,10.0,29.619095,,,TRUE,TRUE,,,,,,,OVC,5500,,,,,,,VFR,,,,,,,,,,,,METAR,6.0
PAVD 220656Z 00000KT 5SM OVC050 01/M01 A3007 RMK AO1 0647Z WEA: -RA SNE15 TWR WND 00000KT LAST P0005,PAVD,2015-02-22T06:56:00Z,61.13,-146.25,1.0,-1.0,0,0,,5.0,30.070866,,,,TRUE,,,,,,-RA,OVC,5000,,,,,,,MVFR,,,,,,0.05,,,,,,METAR,37.0
PAWG 220656Z 16007KT 10SM OVC070 06/00 A3052 RMK AO1 WEA: NONE (MCQ),PAWG,2015-02-22T06:56:00Z,56.48,-132.37,6.0,0.0,160,7,,10.0,30.519686,,,,TRUE,,,,,,,OVC,7000,,,,,,,VFR,,,,,,,,,,,,METAR,11.0
KTTF 220656Z AUTO 00000KT 7SM OVC030 A3013 RMK AO2,KTTF,2015-02-22T06:56:00Z,41.93,-83.42,,,0,0,,7.0,30.129921,,,TRUE,TRUE,,,,,,,OVC,3000,,,,,,,MVFR,,,,,,,,,,,,METAR,188.0
PAFB 220656Z AUTO 00000KT 8SM UP OVC042 M01/M03 A2983 RMK UPB43 SLP110 P0000 T10061028 $ VIA AUTODIAL,PAFB,2015-02-22T06:56:00Z,64.83,-147.62,-0.6,-2.8,0,0,,8.0,29.828741,1011.0,,TRUE,,TRUE,,,,,UP,OVC,4200,,,,,,,VFR,,,,,,0.0050,,,,,,METAR,137.0
KCJR 220656Z AUTO 00000KT 7SM BKN007 OVC029 01/01 A3012 RMK AO2,KCJR,2015-02-22T06:56:00Z,38.53,-77.87,1.0,1.0,0,0,,7.0,30.121063,,,TRUE,TRUE,,,,,,,BKN,700,OVC,2900,,,,,IFR,,,,,,,,,,,,METAR,97.0
KWMC 220656Z AUTO 35006KT 10SM FEW029 BKN046 OVC060 00/M04 A3005 RMK AO2 SLP179 T00001044,KWMC,2015-02-22T06:56:00Z,40.9,-117.8,0.0,-4.4,350,6,,10.0,30.050198,1017.9,,TRUE,TRUE,,,,,,,FEW,2900,BKN,4600,OVC,6000,,,VFR,,,,,,,,,,,,METAR,1310.0
PHBK 220656Z AUTO 08005KT 10SM CLR 21/15 A3000 RMK AO2 SLP161 T02060150,PHBK,2015-02-22T06:56:00Z,22.03,-159.78,20.6,15.0,80,5,,10.0,30.0,1016.1,,TRUE,TRUE,,,,,,,CLR,,,,,,,,VFR,,,,,,,,,,,,METAR,8.0
K79J 220656Z AUTO 19004KT 9SM -RA OVC006 17/14 A3009 RMK AO2 RAB50 SLP187 P0000 T01670139,K79J,2015-02-22T06:56:00Z,31.32,-86.4,16.7,13.9,190,4,,9.0,30.088583,1018.7,,TRUE,TRUE,,,,,,-RA,OVC,600,,,,,,,IFR,,,,,,0.0050,,,,,,METAR,94.0
KNSE 220656Z AUTO 19010KT 3SM RA BR BKN038 17/16 A3009 RMK AO2 RAE09B25 SLP173 T01720161 PNO $,KNSE,2015-02-22T06:56:00Z,30.73,-87.02,17.2,16.1,190,10,,3.0,30.088583,1017.3,,TRUE,TRUE,TRUE,,,,,RA BR,BKN,3800,,,,,,,MVFR,,,,,,,,,,,,METAR,61.0
KNFL 220656Z AUTO 36012KT 10SM FEW010 OVC110 03/M04 A2998 RMK AO2 SLP123 T00331044,KNFL,2015-02-22T06:56:00Z,39.42,-118.7,3.3,-4.4,360,12,,10.0,29.97933,1012.3,,TRUE,TRUE,,,,,,,FEW,1000,OVC,11000,,,,,VFR,,,,,,,,,,,,METAR,1199.0
KNOG 220656Z AUTO 17005KT 10SM SCT009 OVC013 19/19 A2993 RMK AO2 SLP115 T01940189 $,KNOG,2015-02-22T06:56:00Z,27.9,-98.05,19.4,18.9,170,5,,10.0,29.929134,1011.5,,TRUE,TRUE,TRUE,,,,,,SCT,900,OVC,1300,,,,,MVFR,,,,,,,,,,,,METAR,78.0
KNQI 220656Z AUTO 15010KT 10SM OVC020 20/20 A2993 RMK AO2 SLP130 T02000200 TSNO $,KNQI,2015-02-22T06:56:00Z,27.5,-97.82,20.0,20.0,150,10,,10.0,29.929134,1013.0,,TRUE,TRUE,TRUE,,TRUE,,,,OVC,2000,,,,,,,MVFR,,,,,,,,,,,,METAR,15.0
KNRS 220656Z AUTO 25007KT SCT030 OVC046 16/11 A2996 RMK AO2 SLP144 T01610106 $,KNRS,2015-02-22T06:56:00Z,32.57,-117.12,16.1,10.6,250,7,,,29.958662,1014.4,,TRUE,TRUE,TRUE,,,,,,SCT,3000,OVC,4600,,,,,,,,,,,,,,,,,METAR,7.0
KALK 220656Z AUTO 21012G23KT 10SM BKN120 13/01 A2998 RMK AO2 PK WND 19026/0641 SLP078 T01330011 402000072,KALK,2015-02-22T06:56:00Z,31.6,-110.43,13.3,1.1,210,12,23,10.0,29.97933,1007.8,,TRUE,TRUE,,,,,,,BKN,12000,,,,,,,VFR,,,,20.0,7.2,,,,,,,METAR,1453.0
KSXT 220656Z AUTO VRB05G16KT 10SM CLR 02/M07 A3010 RMK AO2 SLP208 T00171067,KSXT,2015-02-22T06:56:00Z,42.6,-123.37,1.7,-6.7,0,5,16,10.0,30.100393,1020.8,,TRUE,TRUE,,,,,,,CLR,,,,,,,,VFR,,,,,,,,,,,,METAR,1170.0
PASY 220656Z AUTO 31016KT 10SM CLR M02/M17 A2982 RMK AO2 SLP099 T10171167 TSNO $,PASY,2015-02-22T06:56:00Z,52.72,174.12,-1.7,-16.7,310,16,,10.0,29.819881,1009.9,,TRUE,TRUE,TRUE,,TRUE,,,,CLR,,,,,,,,VFR,,,,,,,,,,,,METAR,31.0
KAVC 220656Z AUTO 00000KT 1/2SM OVC004 00/00 A3022 RMK AO2 P0001 T00001002,KAVC,2015-02-22T06:56:00Z,36.68,-78.03,0.0,-0.2,0,0,,0.5,30.221457,,,TRUE,TRUE,,,,,,,OVC,400,,,,,,,LIFR,,,,,,0.01,,,,,,METAR,135.0
KEKO 220656Z AUTO 04007KT 10SM CLR M02/M06 A2998 RMK AO2 SLP162 T10171061,KEKO,2015-02-22T06:56:00Z,40.82,-115.78,-1.7,-6.1,40,7,,10.0,29.97933,1016.2,,TRUE,TRUE,,,,,,,CLR,,,,,,,,VFR,,,,,,,,,,,,METAR,1547.0
KEED 220656Z AUTO 19008KT 10SM CLR 21/01 A2970 RMK AO2 SLP034 T02060006,KEED,2015-02-22T06:56:00Z,34.77,-114.62,20.6,0.6,190,8,,10.0,29.698818,1003.4,,TRUE,TRUE,,,,,,,CLR,,,,,,,,VFR,,,,,,,,,,,,METAR,302.0
KEAU 220656Z AUTO 31006KT 10SM CLR M16/M23 A3031 RMK AO2 SLP284 T11611233,KEAU,2015-02-22T06:56:00Z,44.87,-91.47,-16.1,-23.3,310,6,,10.0,30.31004,1028.4,,TRUE,TRUE,,,,,,,CLR,,,,,,,,VFR,,,,,,,,,,,,METAR,276.0
KDUG 220656Z AUTO 15008KT 10SM CLR 14/04 A2996 RMK AO2 SLP092 T01390044 402220056,KDUG,2015-02-22T06:56:00Z,31.47,-109.58,13.9,4.4,150,8,,10.0,29.958662,1009.2,,TRUE,TRUE,,,,,,,CLR,,,,,,,,VFR,,,,22.2,5.6,,,,,,,METAR,1265.0
KDIK 220656Z AUTO 34012KT 10SM CLR M22/M26 A3047 RMK AO2 SLP387 T12171256 410671217,KDIK,2015-02-22T06:56:00Z,46.8,-102.8,-21.7,-25.6,340,12,,10.0,30.469488,1038.7,,TRUE,TRUE,,,,,,,CLR,,,,,,,,VFR,,,,-6.7,-21.7,,,,,,,METAR,788.0
KDIJ 220656Z AUTO 16009KT 9SM SCT047 M11/M16 A3010 RMK AO2 T11111155 SLP224,KDIJ,2015-02-22T06:56:00Z,43.75,-111.1,-11.1,-15.5,160,9,,9.0,30.100393,1022.4,,TRUE,TRUE,,,,,,,SCT,4700,,,,,,,VFR,,,,,,,,,,,,METAR,1899.0
KDAY 220656Z 32005KT 1 1/2SM BR FEW010 BKN210 M09/M11 A3015 RMK AO2 SLP224 T10941111,KDAY,2015-02-22T06:56:00Z,39.9,-84.22,-9.4,-11.1,320,5,,1.5,30.15059,1022.4,,,TRUE,,,,,,BR,FEW,1000,BKN,21000,,,,,IFR,,,,,,,,,,,,METAR,305.0
KCXY 220656Z AUTO 00000KT 4SM BR BKN006 OVC010 M04/M05 A3012 RMK AO2 UPE21B45E54 SLP206 P0000 T10391050,KCXY,2015-02-22T06:56:00Z,40.22,-76.85,-3.9,-5.0,0,0,,4.0,30.121063,1020.6,,TRUE,TRUE,,,,,,BR,BKN,600,OVC,1000,,,,,IFR,,,,,,0.0050,,,,,,METAR,106.0
KCTB 220656Z AUTO 26005KT 10SM CLR M16/M18 A3046 RMK AO2 SLP385 T11611178 410441178,KCTB,2015-02-22T06:56:00Z,48.6,-112.37,-16.1,-17.8,260,5,,10.0,30.46063,1038.5,,TRUE,TRUE,,,,,,,CLR,,,,,,,,VFR,,,,-4.4,-17.8,,,,,,,METAR,1175.0
KNGP 220656Z AUTO 17013KT 6SM BR OVC024 19/19 A2994 RMK AO2 SLP137 T01940189,KNGP,2015-02-22T06:56:00Z,27.68,-97.27,19.4,18.9,170,13,,6.0,29.940945,1013.7,,TRUE,TRUE,,,,,,BR,OVC,2400,,,,,,,MVFR,,,,,,,,,,,,METAR,6.0
KNBT 220656Z AUTO A3022 RMK AO2 SLP239 PWINO PNO $,KNBT,2015-02-22T06:56:00Z,35.02,-76.47,,,,,,,30.221457,1023.9,,TRUE,TRUE,TRUE,,,,TRUE,,,,,,,,,,,,,,,,,,,,,,METAR,5.0
KGNR 220656Z AUTO 00000KT M08/M09 A2999 RMK AO1 SLP184 P0002 T10831094,KGNR,2015-02-22T06:56:00Z,45.47,-69.55,-8.3,-9.4,0,0,,,29.991142,1018.4,,TRUE,TRUE,,,,,,,,,,,,,,,,,,,,,0.02,,,,,,METAR,427.0
KNXP 220656Z AUTO 26010KT 10SM CLR 13/01 A2981 RMK AO2 SLP846 T01330011,KNXP,2015-02-22T06:56:00Z,34.28,-116.17,13.3,1.1,260,10,,10.0,29.811024,984.6,,TRUE,TRUE,,,,,,,CLR,,,,,,,,VFR,,,,,,,,,,,,METAR,626.0
KEKQ 220656Z AUTO 35003KT 4SM BR OVC002 02/02 A3014 RMK AO2 T00220022 SNE49 P0000 SLP214,KEKQ,2015-02-22T06:56:00Z,36.85,-84.85,2.2,2.2,350,3,,4.0,30.138779,1021.4,,TRUE,TRUE,,,,,,BR,OVC,200,,,,,,,LIFR,,,,,,0.0050,,,,,,METAR,294.0
KELZ 220656Z AUTO 00000KT 1 3/4SM BR OVC002 M06/M08 A3000 RMK AO2 SLP193 T10611078,KELZ,2015-02-22T06:56:00Z,42.1,-77.98,-6.1,-7.8,0,0,,1.75,30.0,1019.3,,TRUE,TRUE,,,,,,BR,OVC,200,,,,,,,LIFR,,,,,,,,,,,,METAR,646.0
KGEZ 220656Z AUTO 10004KT 2SM HZ OVC037 M08/M11 A3016 RMK AO2 T10831111,KGEZ,2015-02-22T06:56:00Z,39.58,-85.8,-8.3,-11.1,100,4,,2.0,30.159449,,,TRUE,TRUE,,,,,,HZ,OVC,3700,,,,,,,IFR,,,,,,,,,,,,METAR,245.0
KFSD 220656Z AUTO 34013G23KT 10SM CLR M14/M19 A3045 RMK AO2 SLP343 T11441194,KFSD,2015-02-22T06:56:00Z,43.58,-96.75,-14.4,-19.4,340,13,23,10.0,30.448818,1034.3,,TRUE,TRUE,,,,,,,CLR,,,,,,,,VFR,,,,,,,,,,,,METAR,436.0
KGON 220656Z AUTO 22004KT 6SM UP BR SCT012 BKN020 OVC042 00/00 A3014 RMK AO2 SLP207 P0001 T00000000 $,KGON,2015-02-22T06:56:00Z,41.33,-72.05,0.0,0.0,220,4,,6.0,30.138779,1020.7,,TRUE,TRUE,TRUE,,,,,BR UP,SCT,1200,BKN,2000,OVC,4200,,,MVFR,,,,,,0.01,,,,,,METAR,3.0
KGRD 220656Z AUTO VRB03KT 8SM -RA OVC075 04/02 A3015 RMK AO2 SLP210 P0004 T00390017,KGRD,2015-02-22T06:56:00Z,34.25,-82.15,3.9,1.7,0,3,,8.0,30.15059,1021.0,,TRUE,TRUE,,,,,,-RA,OVC,7500,,,,,,,VFR,,,,,,0.04,,,,,,METAR,185.0
KHPN 220656Z 31005KT 3/4SM R16/P6000FT -SN BR VV003 M01/M03 A3012 RMK AO2 UPB03E13SNB26 SLP209 P0001 T10111028,KHPN,2015-02-22T06:56:00Z,41.07,-73.7,-1.1,-2.8,310,5,,0.75,30.121063,1020.9,,,TRUE,,,,,,-SN BR,OVX,0,,,,,,,LIFR,,,,,,0.01,,,,,300,METAR,121.0
KHND 220656Z AUTO 17006KT 10SM CLR 11/M06 A2972 RMK AO2 SLP057 T01111061,KHND,2015-02-22T06:56:00Z,35.98,-115.13,11.1,-6.1,170,6,,10.0,29.719488,1005.7,,TRUE,TRUE,,,,,,,CLR,,,,,,,,VFR,,,,,,,,,,,,METAR,749.0
KHWV 220656Z AUTO 22003KT 3SM -RA BR FEW009 BKN016 OVC042 01/M01 A3016 RMK AO2 RAB56FZRAE56 SLP216 P0007 I1001 T00061006 TSNO,KHWV,2015-02-22T06:56:00Z,40.82,-72.87,0.6,-0.6,220,3,,3.0,30.159449,1021.6,,TRUE,TRUE,,,TRUE,,,-RA BR,FEW,900,BKN,1600,OVC,4200,,,MVFR,,,,,,0.07,,,,,,METAR,21.0
KHYA 220656Z AUTO 21011KT 4SM RA BR FEW002 BKN030 OVC039 04/04 A3011 RMK AO2 PK WND 23026/0633 WSHFT 0622 SLP199 P0017 T00440044,KHYA,2015-02-22T06:56:00Z,41.67,-70.27,4.4,4.4,210,11,,4.0,30.109253,1019.9,,TRUE,TRUE,,,,,,RA BR,FEW,200,BKN,3000,OVC,3900,,,MVFR,,,,,,0.17,,,,,,METAR,22.0
KRDM 220656Z AUTO 34008KT 10SM CLR M01/M04 A3030 RMK AO2 SLP276 T10061039,KRDM,2015-02-22T06:56:00Z,44.25,-121.15,-0.6,-3.9,340,8,,10.0,30.301182,1027.6,,TRUE,TRUE,,,,,,,CLR,,,,,,,,VFR,,,,,,,,,,,,METAR,938.0
KSDF 220656Z 02004KT 5SM BR FEW010 BKN200 M01/M03 A3017 RMK AO2 SLP221 T10111033,KSDF,2015-02-22T06:56:00Z,38.18,-85.73,-1.1,-3.3,20,4,,5.0,30.171259,1022.1,,,TRUE,,,,,,BR,FEW,1000,BKN,20000,,,,,MVFR,,,,,,,,,,,,METAR,146.0
KSBP 220656Z AUTO 00000KT 10SM OVC026 14/10 A2988 RMK AO2 SLP119 T01390100,KSBP,2015-02-22T06:56:00Z,35.23,-120.63,13.9,10.0,0,0,,10.0,29.878937,1011.9,,TRUE,TRUE,,,,,,,OVC,2600,,,,,,,MVFR,,,,,,,,,,,,METAR,59.0
KSGH 220656Z AUTO 00000KT 1/2SM FZFG OVC001 M07/M08 A3015 RMK AO2 T10721077 SLP223,KSGH,2015-02-22T06:56:00Z,39.83,-83.83,-7.2,-7.7,0,0,,0.5,30.15059,1022.3,,TRUE,TRUE,,,,,,FZFG,OVC,100,,,,,,,LIFR,,,,,,,,,,,,METAR,321.0
KSFO 220656Z 00000KT 10SM FEW200 13/10 A2984 RMK AO2 SLP104 T01280100,KSFO,2015-02-22T06:56:00Z,37.62,-122.37,12.8,10.0,0,0,,10.0,29.840551,1010.4,,,TRUE,,,,,,,FEW,20000,,,,,,,VFR,,,,,,,,,,,,METAR,3.0
KSHV 220656Z 06010KT 10SM FEW015 OVC035 08/04 A3007 RMK AO2 SLP181 T00780044,KSHV,2015-02-22T06:56:00Z,32.45,-93.83,7.8,4.4,60,10,,10.0,30.070866,1018.1,,,TRUE,,,,,,,FEW,1500,OVC,3500,,,,,VFR,,,,,,,,,,,,METAR,83.0
KART 220656Z AUTO 19007KT 10SM OVC018 M04/M08 A3008 RMK AO2 SLP195 T10391078,KART,2015-02-22T06:56:00Z,43.98,-76.03,-3.9,-7.8,190,7,,10.0,30.079725,1019.5,,TRUE,TRUE,,,,,,,OVC,1800,,,,,,,MVFR,,,,,,,,,,,,METAR,100.0
KMQY 220656Z AUTO 35007KT 6SM BR OVC003 01/01 A3015 RMK AO2 T00110005 SLP222,KMQY,2015-02-22T06:56:00Z,36.02,-86.52,1.1,0.5,350,7,,6.0,30.15059,1022.2,,TRUE,TRUE,,,,,,BR,OVC,300,,,,,,,LIFR,,,,,,,,,,,,METAR,166.0
KMOB 220656Z AUTO 16003KT 2SM BR BKN025 BKN030 14/14 A3006 RMK AO2 SLP178 T01440144,KMOB,2015-02-22T06:56:00Z,30.68,-88.25,14.4,14.4,160,3,,2.0,30.059055,1017.8,,TRUE,TRUE,,,,,,BR,BKN,2500,BKN,3000,,,,,IFR,,,,,,,,,,,,METAR,63.0
KMDT 220656Z 35004KT 4SM -FZDZ BR OVC009 M04/M05 A3012 RMK AO2 FZDZB47SNE47 SLP204 P0000 I1000 T10391050,KMDT,2015-02-22T06:56:00Z,40.2,-76.77,-3.9,-5.0,350,4,,4.0,30.121063,1020.4,,,TRUE,,,,,,-FZDZ BR,OVC,900,,,,,,,IFR,,,,,,0.0050,,,,,,METAR,95.0
TJSJ 220656Z 12003KT 10SM SCT025 25/22 A3005 RMK AO2 SLP174 T02500222,TJSJ,2015-02-22T06:56:00Z,18.43,-66.02,25.0,22.2,120,3,,10.0,30.050198,1017.4,,,TRUE,,,,,,,SCT,2500,,,,,,,VFR,,,,,,,,,,,,METAR,21.0
PPIT 220656Z AUTO 15017KT 10SM OVC032 04/02 A2952 RMK AO2 SLP996 T00390022,PPIT,2015-02-22T06:56:00Z,60.9,-162.43,3.9,2.2,150,17,,10.0,29.518702,999.6,,TRUE,TRUE,,,,,,,OVC,3200,,,,,,,VFR,,,,,,,,,,,,METAR,4.0
PFWS 220656Z AUTO 15016G23KT 10SM OVC110 05/03 A2971 RMK AO2 SLP065 T00500033,PFWS,2015-02-22T06:56:00Z,58.7,-157.0,5.0,3.3,150,16,23,10.0,29.71063,1006.5,,TRUE,TRUE,,,,,,,OVC,11000,,,,,,,VFR,,,,,,,,,,,,METAR,49.0
PFKW 220656Z AUTO 14009KT 10SM BKN100 04/01 A2955 RMK AO2 SLP007 T00390011 $,PFKW,2015-02-22T06:56:00Z,60.8,-161.43,3.9,1.1,140,9,,10.0,29.551182,1000.7,,TRUE,TRUE,TRUE,,,,,,BKN,10000,,,,,,,VFR,,,,,,,,,,,,METAR,8.0
PFCL 220656Z AUTO 13019KT 10SM CLR 03/02 A2965 RMK AO2 SLP043 T00280017,PFCL,2015-02-22T06:56:00Z,58.83,-158.53,2.8,1.7,130,19,,10.0,29.648623,1004.3,,TRUE,TRUE,,,,,,,CLR,,,,,,,,VFR,,,,,,,,,,,,METAR,24.0
PATQ 220656Z AUTO 07022KT 1 1/4SM -SN BR OVC024 M16/M18 A3005 RMK AO2 TSNO T11611177 P0000 PK WND 07026/0636 SLP183 $,PATQ,2015-02-22T06:56:00Z,70.47,-157.43,-16.1,-17.7,70,22,,1.25,30.050198,1018.3,,TRUE,TRUE,TRUE,,TRUE,,,-SN BR,OVC,2400,,,,,,,IFR,,,,,,0.0050,,,,,,METAR,29.0
PAQH 220656Z AUTO 10014KT 10SM FEW055 SCT075 BKN090 04/02 A2954 RMK AO2 SLP003 T00390017,PAQH,2015-02-22T06:56:00Z,59.75,-161.85,3.9,1.7,100,14,,10.0,29.53937,1000.3,,TRUE,TRUE,,,,,,,FEW,5500,SCT,7500,BKN,9000,,,VFR,,,,,,,,,,,,METAR,13.0
PANA 220656Z AUTO 14009KT 10SM OVC080 03/01 A2954 RMK AO2 SLP005 T00280011,PANA,2015-02-22T06:56:00Z,60.68,-161.98,2.8,1.1,140,9,,10.0,29.53937,1000.5,,TRUE,TRUE,,,,,,,OVC,8000,,,,,,,VFR,,,,,,,,,,,,METAR,5.0
PAHX 220656Z AUTO 14005KT 10SM CLR 05/02 A2964 RMK AO2 SLP041 T00500017,PAHX,2015-02-22T06:56:00Z,62.7,-159.57,5.0,1.7,140,5,,10.0,29.639763,1004.1,,TRUE,TRUE,,,,,,,CLR,,,,,,,,VFR,,,,,,,,,,,,METAR,24.0
PAGN 220656Z AUTO 00000KT 10SM BKN036 04/03 A3044 RMK AO2 TSNO T00440033 RAE31 P0000 SLP312 $,PAGN,2015-02-22T06:56:00Z,57.5,-134.58,4.4,3.3,0,0,,10.0,30.43996,1031.2,,TRUE,TRUE,TRUE,,TRUE,,,,BKN,3600,,,,,,,VFR,,,,,,0.0050,,,,,,METAR,2.0
PACM 220656Z AUTO 16019G24KT 10SM UP OVC007 02/02 A2944 RMK AO2 FZRANO TSNO T00160016 P0000 SLP963 $,PACM,2015-02-22T06:56:00Z,61.85,-165.57,1.6,1.6,160,19,24,10.0,29.438976,996.3,,TRUE,TRUE,TRUE,,TRUE,TRUE,,UP,OVC,700,,,,,,,IFR,,,,,,0.0050,,,,,,METAR,4.0
KY50 220656Z AUTO 00000KT 10SM FEW015 BKN021 BKN032 M11/M15 A3023 RMK AO2 TSNO T11051150 SLP249,KY50,2015-02-22T06:56:00Z,44.03,-89.3,-10.5,-15.0,0,0,,10.0,30.230314,1024.9,,TRUE,TRUE,,,TRUE,,,,FEW,1500,BKN,2100,BKN,3200,,,MVFR,,,,,,,,,,,,METAR,262.0
KWJF 220656Z AUTO 23020G30KT 10SM CLR 10/07 A2982 RMK AO2 PK WND 24032/0605 SLP095 T01000067,KWJF,2015-02-22T06:56:00Z,34.72,-118.22,10.0,6.7,230,20,30,10.0,29.819881,1009.5,,TRUE,TRUE,,,,,,,CLR,,,,,,,,VFR,,,,,,,,,,,,METAR,715.0
KVPZ 220656Z AUTO 25005KT 6SM HZ OVC019 M03/M06 A3017 RMK AO2 SLP226 T10281061 TSNO,KVPZ,2015-02-22T06:56:00Z,41.45,-87.0,-2.8,-6.1,250,5,,6.0,30.171259,1022.6,,TRUE,TRUE,,,TRUE,,,HZ,OVC,1900,,,,,,,MVFR,,,,,,,,,,,,METAR,231.0
KUKI 220656Z AUTO 00000KT 10SM CLR 10/06 A2985 RMK AO2 SLP104 T01000056,KUKI,2015-02-22T06:56:00Z,39.12,-123.2,10.0,5.6,0,0,,10.0,29.84941,1010.4,,TRUE,TRUE,,,,,,,CLR,,,,,,,,VFR,,,,,,,,,,,,METAR,187.0
KUCP 220656Z AUTO 00000KT 10SM BKN008 OVC017 M06/M07 A3010 RMK AO2 T10551072 BKN V OVC SLP223,KUCP,2015-02-22T06:56:00Z,41.03,-80.42,-5.5,-7.2,0,0,,10.0,30.100393,1022.3,,TRUE,TRUE,,,,,,,BKN,800,OVC,1700,,,,,IFR,,,,,,,,,,,,METAR,327.0
KTPH 220656Z AUTO 36010KT 10SM BKN070 OVC100 06/M07 A2988 RMK AO2 SLP097 T00561067,KTPH,2015-02-22T06:56:00Z,38.05,-117.08,5.6,-6.7,360,10,,10.0,29.878937,1009.7,,TRUE,TRUE,,,,,,,BKN,7000,OVC,10000,,,,,VFR,,,,,,,,,,,,METAR,1652.0
KSLE 220656Z AUTO 02006KT 10SM CLR 08/M02 A3032 RMK AO2 SLP268 T00781022,KSLE,2015-02-22T06:56:00Z,44.9,-123.0,7.8,-2.2,20,6,,10.0,30.318897,1026.8,,TRUE,TRUE,,,,,,,CLR,,,,,,,,VFR,,,,,,,,,,,,METAR,59.0
KMTW 220656Z AUTO 36012KT 10SM BKN038 OVC047 M09/M11 A3020 RMK AO2 SNE37 SLP250 P0000 T10891111 FZRANO,KMTW,2015-02-22T06:56:00Z,44.12,-87.67,-8.9,-11.1,360,12,,10.0,30.200787,1025.0,,TRUE,TRUE,,,,TRUE,,,BKN,3800,OVC,4700,,,,,VFR,,,,,,0.0050,,,,,,METAR,198.0
KNUQ 220656Z 00000KT 10SM BKN024 12/09 A2985 RMK AO2 SLP110 T01170094,KNUQ,2015-02-22T06:56:00Z,37.4,-122.05,11.7,9.4,0,0,,10.0,29.84941,1011.0,,,TRUE,,,,,,,BKN,2400,,,,,,,MVFR,,,,,,,,,,,,METAR,12.0
KOFK 220656Z AUTO 36013KT 10SM FEW070 BKN100 OVC120 M10/M16 A3044 RMK AO2 SLP335 T11001161,KOFK,2015-02-22T06:56:00Z,41.98,-97.43,-10.0,-16.1,360,13,,10.0,30.43996,1033.5,,TRUE,TRUE,,,,,,,FEW,7000,BKN,10000,OVC,12000,,,VFR,,,,,,,,,,,,METAR,470.0
KOWB 220656Z AUTO 36003KT 10SM CLR M02/M03 A3019 RMK AO2 TSNO T10221027 SLP227,KOWB,2015-02-22T06:56:00Z,37.72,-87.17,-2.2,-2.7,360,3,,10.0,30.188976,1022.7,,TRUE,TRUE,,,TRUE,,,,CLR,,,,,,,,VFR,,,,,,,,,,,,METAR,124.0
KIGX 220656Z AUTO 00000KT 10SM OVC110 01/M02 A3018 RMK AO2 SLP222 T00111017 $,KIGX,2015-02-22T06:56:00Z,35.93,-79.07,1.1,-1.7,0,0,,10.0,30.180119,1022.2,,TRUE,TRUE,TRUE,,,,,,OVC,11000,,,,,,,VFR,,,,,,,,,,,,METAR,155.0
KINW 220656Z AUTO 24004KT 10SM CLR 04/M04 A2987 RMK AO2 SLP081 T00441039 402000044,KINW,2015-02-22T06:56:00Z,35.03,-110.72,4.4,-3.9,240,4,,10.0,29.870079,1008.1,,TRUE,TRUE,,,,,,,CLR,,,,,,,,VFR,,,,20.0,4.4,,,,,,,METAR,1490.0
KISP 220656Z AUTO 20004KT 4SM -RA BR BKN019 BKN026 OVC037 01/M01 A3014 RMK AO2 SLP208 P0006 T00061006 $,KISP,2015-02-22T06:56:00Z,40.8,-73.1,0.6,-0.6,200,4,,4.0,30.138779,1020.8,,TRUE,TRUE,TRUE,,,,,-RA BR,BKN,1900,BKN,2600,OVC,3700,,,MVFR,,,,,,0.06,,,,,,METAR,43.0
KITH 220656Z AUTO 00000KT 10SM OVC016 M06/M08 A3007 RMK AO2 T10551077 SLP203,KITH,2015-02-22T06:56:00Z,42.47,-76.45,-5.5,-7.7,0,0,,10.0,30.070866,1020.3,,TRUE,TRUE,,,,,,,OVC,1600,,,,,,,MVFR,,,,,,,,,,,,METAR,335.0
KJAX 220656Z 17005KT 10SM BKN180 BKN250 13/11 A3018 RMK AO2 SLP221 T01280111,KJAX,2015-02-22T06:56:00Z,30.5,-81.68,12.8,11.1,170,5,,10.0,30.180119,1022.1,,,TRUE,,,,,,,BKN,18000,BKN,25000,,,,,VFR,,,,,,,,,,,,METAR,10.0
KJKL 220656Z AUTO VRB05KT 3SM BR OVC002 03/02 A3008 RMK AO2 T00280017,KJKL,2015-02-22T06:56:00Z,37.6,-83.32,2.8,1.7,0,5,,3.0,30.079725,,,TRUE,TRUE,,,,,,BR,OVC,200,,,,,,,LIFR,,,,,,,,,,,,METAR,416.0
KJMS 220656Z AUTO 35013KT 10SM FEW024 M24/M29 A3053 RMK AO2 SLP385 T12441289,KJMS,2015-02-22T06:56:00Z,46.93,-98.67,-24.4,-28.9,350,13,,10.0,30.528543,1038.5,,TRUE,TRUE,,,,,,,FEW,2400,,,,,,,VFR,,,,,,,,,,,,METAR,455.0
KJXN 220656Z 22004KT 6SM HZ BKN026 OVC031 M06/M09 A3010 RMK AO2 SLP207 T10611089,KJXN,2015-02-22T06:56:00Z,42.27,-84.47,-6.1,-8.9,220,4,,6.0,30.100393,1020.7,,,TRUE,,,,,,HZ,BKN,2600,OVC,3100,,,,,MVFR,,,,,,,,,,,,METAR,305.0
KLAS 220656Z 19008KT 10SM SCT150 13/M07 A2966 RMK AO2 SLP033 T01331072,KLAS,2015-02-22T06:56:00Z,36.07,-115.17,13.3,-7.2,190,8,,10.0,29.660433,1003.3,,,TRUE,,,,,,,SCT,15000,,,,,,,VFR,,,,,,,,,,,,METAR,636.0
KLNR 220656Z AUTO 30008KT 10SM OVC037 M09/M16 A3027 RMK AO2 SLP256 T10941156,KLNR,2015-02-22T06:56:00Z,43.22,-90.18,-9.4,-15.6,300,8,,10.0,30.268702,1025.6,,TRUE,TRUE,,,,,,,OVC,3700,,,,,,,VFR,,,,,,,,,,,,METAR,217.0
KLRD 220656Z AUTO 14009KT 10SM CLR 20/18 A2989 RMK AO2 T02000177 SLP112,KLRD,2015-02-22T06:56:00Z,27.55,-99.47,20.0,17.7,140,9,,10.0,29.890747,1011.2,,TRUE,TRUE,,,,,,,CLR,,,,,,,,VFR,,,,,,,,,,,,METAR,155.0
KLWS 220656Z AUTO 09005KT 10SM CLR 01/M10 A3046 RMK AO2 SLP328 T00111100,KLWS,2015-02-22T06:56:00Z,46.37,-117.02,1.1,-10.0,90,5,,10.0,30.46063,1032.8,,TRUE,TRUE,,,,,,,CLR,,,,,,,,VFR,,,,,,,,,,,,METAR,438.0
K1M4 220656Z AUTO 04005KT 3SM BR 06/06 A3007 RMK AO2 T00550055 RAE13 P0000 SLP195 $,K1M4,2015-02-22T06:56:00Z,34.28,-87.6,5.5,5.5,40,5,,3.0,30.070866,1019.5,,TRUE,TRUE,TRUE,,,,,BR,,,,,,,,,,,,,,,0.0050,,,,,,METAR,284.0
KAJO 220656Z AUTO 26003KT 10SM BKN036 BKN049 14/09 A2992 RMK AO2 T01380088 SLP127 $,KAJO,2015-02-22T06:56:00Z,33.9,-117.6,13.8,8.8,260,3,,10.0,29.920275,1012.7,,TRUE,TRUE,TRUE,,,,,,BKN,3600,BKN,4900,,,,,VFR,,,,,,,,,,,,METAR,163.0
KAND 220656Z AUTO 04005KT 3SM RA BR OVC036 03/02 A3016 RMK AO2 SLP214 P0010 T00330022,KAND,2015-02-22T06:56:00Z,34.5,-82.72,3.3,2.2,40,5,,3.0,30.159449,1021.4,,TRUE,TRUE,,,,,,RA BR,OVC,3600,,,,,,,MVFR,,,,,,0.1,,,,,,METAR,239.0
KBED 220656Z 22004KT 7SM OVC027 M01/M01 A3010 RMK AO2 SNE56 SLP210 P0000 T10061011,KBED,2015-02-22T06:56:00Z,42.47,-71.3,-0.6,-1.1,220,4,,7.0,30.100393,1021.0,,,TRUE,,,,,,,OVC,2700,,,,,,,MVFR,,,,,,0.0050,,,,,,METAR,50.0
KBMI 220656Z AUTO 32010KT 10SM OVC024 M03/M06 A3022 RMK AO2 T10271061 SLP251,KBMI,2015-02-22T06:56:00Z,40.47,-88.92,-2.7,-6.1,320,10,,10.0,30.221457,1025.1,,TRUE,TRUE,,,,,,,OVC,2400,,,,,,,MVFR,,,,,,,,,,,,METAR,267.0
KBJJ 220656Z AUTO 34003KT 3/4SM BR OVC002 M08/M09 A3011 RMK AO2 SLP214 I1001 T10781089 TSNO $,KBJJ,2015-02-22T06:56:00Z,40.87,-81.88,-7.8,-8.9,340,3,,0.75,30.109253,1021.4,,TRUE,TRUE,TRUE,,TRUE,,,BR,OVC,200,,,,,,,LIFR,,,,,,,,,,,,METAR,343.0
KBIH 220656Z AUTO 36019G25KT 10SM OVC100 10/M11 A2982 RMK AO2 PK WND 35033/0616 SLP067 T01001106,KBIH,2015-02-22T06:56:00Z,37.37,-118.35,10.0,-10.6,360,19,25,10.0,29.819881,1006.7,,TRUE,TRUE,,,,,,,OVC,10000,,,,,,,VFR,,,,,,,,,,,,METAR,1253.0
KP53 220656Z AUTO 00000KT M16/M19 A3017 RMK AO1 SLP232 T11611189,KP53,2015-02-22T06:56:00Z,46.42,-86.65,-16.1,-18.9,0,0,,,30.171259,1023.2,,TRUE,TRUE,,,,,,,,,,,,,,,,,,,,,,,,,,,METAR,187.0
KNTU 220656Z 18008KT 10SM -RA FEW027 BKN050 OVC075 10/07 A3019 RMK RAB0558 SLP226 P0004 T01000072,KNTU,2015-02-22T06:56:00Z,36.82,-76.02,10.0,7.2,180,8,,10.0,30.188976,1022.6,,,,,,,,,-RA,FEW,2700,BKN,5000,OVC,7500,,,VFR,,,,,,0.04,,,,,,METAR,7.0
KCWN 220656Z AUTO 34013G25KT 1 1/2SM -SN OVC012 M11/M12 A2980 RMK AO2 SLP152 T11101124 410161110,KCWN,2015-02-22T06:56:00Z,38.75,-104.85,-11.0,-12.4,340,13,25,1.5,29.799213,1015.2,,TRUE,TRUE,,,,,,-SN,OVC,1200,,,,,,,IFR,,,,-1.6,-11.0,,,,,,,METAR,2040.0
KBOK 220656Z AUTO 00000KT 10SM CLR 13/M03 A3004 RMK AO2 T01271027 402000094 SLP174,KBOK,2015-02-22T06:56:00Z,42.07,-124.28,12.7,-2.7,0,0,,10.0,30.041338,1017.4,,TRUE,TRUE,,,,,,,CLR,,,,,,,,VFR,,,,20.0,9.4,,,,,,,METAR,140.0
PAIG 220656Z AUTO 11013G20KT BKN065 06/01 A2973 RMK AO2 TSNO T00550011 SLP070 $,PAIG,2015-02-22T06:56:00Z,59.32,-155.9,5.5,1.1,110,13,20,,29.731298,1007.0,,TRUE,TRUE,TRUE,,TRUE,,,,BKN,6500,,,,,,,,,,,,,,,,,,,METAR,28.0
PAHC 220656Z AUTO 00000KT 10SM FEW033 06/01 A2963 RMK AO2 TSNO T00550011 SLP037 $,PAHC,2015-02-22T06:56:00Z,62.18,-159.78,5.5,1.1,0,0,,10.0,29.630905,1003.7,,TRUE,TRUE,TRUE,,TRUE,,,,FEW,3300,,,,,,,VFR,,,,,,,,,,,,METAR,21.0
PAFS 220656Z AUTO 05006KT 10SM FEW070 OVC095 01/M04 A2977 RMK AO2 TSNO T00111044 SLP093 $,PAFS,2015-02-22T06:56:00Z,63.02,-154.35,1.1,-4.4,50,6,,10.0,29.769686,1009.3,,TRUE,TRUE,TRUE,,TRUE,,,,FEW,7000,OVC,9500,,,,,VFR,,,,,,,,,,,,METAR,126.0
PADU 220656Z AUTO 20009KT 10SM OVC034 04/01 A2931 RMK AO2 RAE42 SLP931 P0000 T00440006,PADU,2015-02-22T06:56:00Z,53.9,-166.53,4.4,0.6,200,9,,10.0,29.309055,993.1,,TRUE,TRUE,,,,,,,OVC,3400,,,,,,,VFR,,,,,,0.0050,,,,,,METAR,4.0
PADM 220656Z AUTO 12014KT 10SM OVC040 05/01 A2959 RMK AO2 TSNO T00500011 SLP009 $,PADM,2015-02-22T06:56:00Z,61.87,-162.03,5.0,1.1,120,14,,10.0,29.589567,1000.9,,TRUE,TRUE,TRUE,,TRUE,,,,OVC,4000,,,,,,,VFR,,,,,,,,,,,,METAR,31.0
PAKH 220656Z AUTO 09017KT 05/04 RMK AO2 PWINO TSNO T00500038 SLPNO $,PAKH,2015-02-22T06:56:00Z,56.93,-154.18,5.0,3.8,90,17,,,,,,TRUE,TRUE,TRUE,,TRUE,,TRUE,,,,,,,,,,,,,,,,,,,,,,METAR,14.0
KCEC 220656Z AUTO 33006KT 10SM CLR 12/M01 A3002 RMK AO2 SLP165 T01221011,KCEC,2015-02-22T06:56:00Z,41.77,-124.22,12.2,-1.1,330,6,,10.0,30.02067,1016.5,,TRUE,TRUE,,,,,,,CLR,,,,,,,,VFR,,,,,,,,,,,,METAR,17.0
KCAE 220656Z 21003KT 10SM OVC110 12/08 A3016 RMK AO2 SLP213 T01220078,KCAE,2015-02-22T06:56:00Z,33.93,-81.12,12.2,7.8,210,3,,10.0,30.159449,1021.3,,,TRUE,,,,,,,OVC,11000,,,,,,,VFR,,,,,,,,,,,,METAR,70.0
KBZN 220656Z AUTO 19009KT 10SM CLR M14/M19 A3041 RMK AO2 SLP371 T11391189 410061139,KBZN,2015-02-22T06:56:00Z,45.78,-111.17,-13.9,-18.9,190,9,,10.0,30.410433,1037.1,,TRUE,TRUE,,,,,,,CLR,,,,,,,,VFR,,,,-0.6,-13.9,,,,,,,METAR,1361.0
KNPA 220656Z AUTO 18008KT 10SM -RA SCT013 BKN024 OVC070 17/17 A3007 RMK AO2 SLP184 P0011 T01720167 $,KNPA,2015-02-22T06:56:00Z,30.35,-87.32,17.2,16.7,180,8,,10.0,30.070866,1018.4,,TRUE,TRUE,TRUE,,,,,-RA,SCT,1300,BKN,2400,OVC,7000,,,MVFR,,,,,,0.11,,,,,,METAR,9.0
KTDR 220656Z AUTO 16009KT 10SM OVC060 17/16 A3012 RMK AO2 SLP203 T01690159,KTDR,2015-02-22T06:56:00Z,30.05,-85.52,16.9,15.9,160,9,,10.0,30.121063,1020.3,,TRUE,TRUE,,,,,,,OVC,6000,,,,,,,VFR,,,,,,,,,,,,METAR,5.0
KSXS 220656Z AUTO 18010KT 9SM FEW010 BKN038 BKN060 15/13 A3011 RMK AO2 SLP197 T01500130,KSXS,2015-02-22T06:56:00Z,31.37,-85.85,15.0,13.0,180,10,,9.0,30.109253,1019.7,,TRUE,TRUE,,,,,,,FEW,1000,BKN,3800,BKN,6000,,,VFR,,,,,,,,,,,,METAR,122.0
KSHM 220656Z AUTO 35012G19KT 4SM -SN OVC028 M10/M12 A3018 RMK AO2 SLP286 T10991125,KSHM,2015-02-22T06:56:00Z,38.8,-104.52,-9.9,-12.5,350,12,19,4.0,30.180119,1028.6,,TRUE,TRUE,,,,,,-SN,OVC,2800,,,,,,,MVFR,,,,,,,,,,,,METAR,1900.0
K2DP 220656Z AUTO 20009G17KT 10SM OVC037 14/09 A3022 RMK AO2 SLPNO T01350093,K2DP,2015-02-22T06:56:00Z,35.68,-75.9,13.5,9.3,200,9,17,10.0,30.221457,,,TRUE,TRUE,,,,,,,OVC,3700,,,,,,,VFR,,,,,,,,,,,,METAR,3.0
K1YT 220656Z AUTO 10005KT 10SM BKN080 03/M06 A3047 RMK AO2 SLPNO T00271061,K1YT,2015-02-22T06:56:00Z,46.67,-120.45,2.7,-6.1,100,5,,10.0,30.469488,,,TRUE,TRUE,,,,,,,BKN,8000,,,,,,,VFR,,,,,,,,,,,,METAR,438.0
K2WX 220656Z AUTO 33010KT M17/M21 A3037 RMK AO1 SLP354 T11721211 410111178,K2WX,2015-02-22T06:56:00Z,45.6,-103.55,-17.2,-21.1,330,10,,,30.369095,1035.4,,TRUE,TRUE,,,,,,,,,,,,,,,,,,,-1.1,-17.8,,,,,,,METAR,915.0
KNFE 220656Z AUTO 19007KT 10SM -RA FEW041 SCT047 OVC065 11/08 A3020 RMK AO2 RAB0559 SLP227 P0003 T01110078,KNFE,2015-02-22T06:56:00Z,36.7,-76.13,11.1,7.8,190,7,,10.0,30.200787,1022.7,,TRUE,TRUE,,,,,,-RA,FEW,4100,SCT,4700,OVC,6500,,,VFR,,,,,,0.03,,,,,,METAR,5.0
KNUW 220656Z 17003KT 10SM CLR 09/M04 A3045 RMK AO2 SLP314 T00891044 VISNO E $,KNUW,2015-02-22T06:56:00Z,48.35,-122.65,8.9,-4.4,170,3,,10.0,30.448818,1031.4,,,TRUE,TRUE,,,,,,CLR,,,,,,,,VFR,,,,,,,,,,,,METAR,14.0
KMEH 220656Z AUTO 03004KT 10SM CLR M03/M08 A3027 RMK AO2 SLP278 T10281078,KMEH,2015-02-22T06:56:00Z,45.52,-118.42,-2.8,-7.8,30,4,,10.0,30.268702,1027.8,,TRUE,TRUE,,,,,,,CLR,,,,,,,,VFR,,,,,,,,,,,,METAR,1136.0
KNXF 220656Z AUTO 20007KT 9SM OVC047 16/08 A2993 RMK AO2 SLP221 T01610083 $,KNXF,2015-02-22T06:56:00Z,33.28,-117.45,16.1,8.3,200,7,,9.0,29.929134,1022.1,,TRUE,TRUE,TRUE,,,,,,OVC,4700,,,,,,,VFR,,,,,,,,,,,,METAR,27.0
KNTD 220656Z 00000KT 10SM OVC027 16/12 A2991 RMK AO2 SLP130 T01610117 $,KNTD,2015-02-22T06:56:00Z,34.12,-119.12,16.1,11.7,0,0,,10.0,29.911417,1013.0,,,TRUE,TRUE,,,,,,OVC,2700,,,,,,,MVFR,,,,,,,,,,,,METAR,4.0
KFHU 220656Z AUTO 21008G15KT 10SM SCT120 16/M02 A2997 RMK AO2 SLP100 T01561017 402110083 $,KFHU,2015-02-22T06:56:00Z,31.58,-110.35,15.6,-1.7,210,8,15,10.0,29.970472,1010.0,,TRUE,TRUE,TRUE,,,,,,SCT,12000,,,,,,,VFR,,,,21.1,8.3,,,,,,,METAR,1438.0
K8D3 220656Z AUTO 01010KT M19/M21 A3049 RMK AO1 SLP375 T11891211,K8D3,2015-02-22T06:56:00Z,45.67,-96.98,-18.9,-21.1,10,10,,,30.490158,1037.5,,TRUE,TRUE,,,,,,,,,,,,,,,,,,,,,,,,,,,METAR,354.0
KP28 220656Z AUTO 04021G27KT 01/M02 A3020 RMK AO1 PK WND 05027/0629 SLP231 T00061017,KP28,2015-02-22T06:56:00Z,37.28,-98.55,0.6,-1.7,40,21,27,,30.200787,1023.1,,TRUE,TRUE,,,,,,,,,,,,,,,,,,,,,,,,,,,METAR,469.0
PAKI 220656Z AUTO 12019KT 10SM BKN016 OVC045 01/00 A2945 RMK AO2 TSNO T00110000 BKN V OVC SLP972 $,PAKI,2015-02-22T06:56:00Z,59.93,-164.03,1.1,0.0,120,19,,10.0,29.450787,997.2,,TRUE,TRUE,TRUE,,TRUE,,,,BKN,1600,OVC,4500,,,,,MVFR,,,,,,,,,,,,METAR,4.0
KRDK 220655Z AUTO 36014G19KT 10SM BKN090 OVC120 M09/M15 A3043 RMK AO2,KRDK,2015-02-22T06:55:00Z,41.02,-95.27,-9.0,-15.0,360,14,19,10.0,30.431103,,,TRUE,TRUE,,,,,,,BKN,9000,OVC,12000,,,,,VFR,,,,,,,,,,,,METAR,318.0
KN03 220655Z AUTO 00000KT 10SM OVC017 M05/M06 A3007 RMK AO2,KN03,2015-02-22T06:55:00Z,42.6,-76.22,-5.0,-6.0,0,0,,10.0,30.070866,,,TRUE,TRUE,,,,,,,OVC,1700,,,,,,,MVFR,,,,,,,,,,,,METAR,366.0
KFKA 220655Z AUTO 32014KT 10SM CLR M16/M21 A3031 RMK AO2 T11651212,KFKA,2015-02-22T06:55:00Z,43.68,-92.17,-16.5,-21.2,320,14,,10.0,30.31004,,,TRUE,TRUE,,,,,,,CLR,,,,,,,,VFR,,,,,,,,,,,,METAR,389.0
K1P1 220655Z AUTO 00000KT 3SM -SN SCT010 OVC023 M07/M07 A3009 RMK AO2 P0001 T10731073,K1P1,2015-02-22T06:55:00Z,43.78,-71.75,-7.3,-7.3,0,0,,3.0,30.088583,,,TRUE,TRUE,,,,,,-SN,SCT,1000,OVC,2300,,,,,MVFR,,,,,,0.01,,,,,,METAR,154.0
KGWR 220655Z AUTO 02010KT 7SM BKN004 OVC009 M21/M25 A3053 RMK A01 P000,KGWR,2015-02-22T06:55:00Z,46.22,-97.65,-21.0,-25.0,20,10,,7.0,30.528543,,,TRUE,TRUE,,,,,,,BKN,400,OVC,900,,,,,LIFR,,,,,,,,,,,,METAR,386.0
OPMT 220655Z 31006KTS 5000 FU BKN120 23/16 Q1017 NOSIG,OPMT,2015-02-22T06:55:00Z,30.18,71.42,23.0,16.0,310,6,,3.11,30.029528,,,,,,TRUE,,,,FU,BKN,12000,,,,,,,MVFR,,,,,,,,,,,,METAR,123.0
KVDF 220655Z AUTO 00000KT 4SM BR CLR 11/10 A3019 RMK AO2,KVDF,2015-02-22T06:55:00Z,28.02,-82.33,11.0,10.0,0,0,,4.0,30.188976,,,TRUE,TRUE,,,,,,BR,CLR,,,,,,,,MVFR,,,,,,,,,,,,METAR,7.0
KLDJ 220655Z AUTO 00000KT 1 3/4SM DZ OVC006 02/01 A3017 RMK AO2 VIS 1V3 P0001 T00180010,KLDJ,2015-02-22T06:55:00Z,40.62,-74.25,1.8,1.0,0,0,,1.75,30.171259,,,TRUE,TRUE,,,,,,DZ,OVC,600,,,,,,,IFR,,,,,,0.01,,,,,,METAR,7.0
KJZI 220655Z AUTO 00000KT 10SM CLR 12/10 A3019 RMK A02 P000,KJZI,2015-02-22T06:55:00Z,32.7,-80.0,12.0,10.0,0,0,,10.0,30.188976,,,TRUE,TRUE,,,,,,,CLR,,,,,,,,VFR,,,,,,,,,,,,METAR,6.0
KFDW 220655Z AUTO 18005KT 10SM CLR 11/08 A3016 RMK AO1,KFDW,2015-02-22T06:55:00Z,34.32,-81.12,11.0,8.0,180,5,,10.0,30.159449,,,TRUE,TRUE,,,,,,,CLR,,,,,,,,VFR,,,,,,,,,,,,METAR,176.0
TXKF 220655Z 09009KT 9999 FEW030 SCT050 SCT300 16/10 Q1031 ,TXKF,2015-02-22T06:55:00Z,32.37,-64.68,16.0,10.0,90,9,,6.21,30.442913,,,,,,,,,,,FEW,3000,SCT,5000,SCT,30000,,,VFR,,,,,,,,,,,,METAR,6.0
KSPA 220655Z AUTO 35005KT 5SM RA SCT045 OVC055 03/03 A3016 RMK AO2 P0005,KSPA,2015-02-22T06:55:00Z,34.92,-81.93,3.0,3.0,350,5,,5.0,30.159449,,,TRUE,TRUE,,,,,,RA,SCT,4500,OVC,5500,,,,,MVFR,,,,,,0.05,,,,,,METAR,303.0
KCLS 220655Z AUTO 04003KT 10SM CLR 04/03 A3041 RMK AO2,KCLS,2015-02-22T06:55:00Z,46.68,-122.98,4.0,3.0,40,3,,10.0,30.410433,,,TRUE,TRUE,,,,,,,CLR,,,,,,,,VFR,,,,,,,,,,,,METAR,54.0
KCKI 220655Z AUTO 00000KT 10SM CLR 10/10 A3018 RMK AO2,KCKI,2015-02-22T06:55:00Z,33.72,-79.85,10.0,10.0,0,0,,10.0,30.180119,,,TRUE,TRUE,,,,,,,CLR,,,,,,,,VFR,,,,,,,,,,,,METAR,21.0
K4I7 220655Z AUTO 00000KT 10SM OVC016 M03/M07 A3018 RMK AO2,K4I7,2015-02-22T06:55:00Z,39.63,-86.82,-3.0,-7.0,0,0,,10.0,30.180119,,,TRUE,TRUE,,,,,,,OVC,1600,,,,,,,MVFR,,,,,,,,,,,,METAR,257.0
KLUX 220655Z AUTO 03003KT 7SM RA SCT033 BKN040 OVC060 02/02 A3015 RMK AO2 P0001,KLUX,2015-02-22T06:55:00Z,34.5,-81.95,2.0,2.0,30,3,,7.0,30.15059,,,TRUE,TRUE,,,,,,RA,SCT,3300,BKN,4000,OVC,6000,,,VFR,,,,,,0.01,,,,,,METAR,213.0
KLQK 220655Z AUTO 3SM RA SCT022 OVC028 03/03 A3018 RMK AO2 T00330033,KLQK,2015-02-22T06:55:00Z,34.82,-82.7,3.3,3.3,,,,3.0,30.180119,,,TRUE,TRUE,,,,,,RA,SCT,2200,OVC,2800,,,,,MVFR,,,,,,,,,,,,METAR,309.0
KJFX 220655Z AUTO 00000KT 4SM BR OVC001 13/13 A3005 RMK A02 P-128,KJFX,2015-02-22T06:55:00Z,33.9,-87.32,13.0,13.0,0,0,,4.0,30.050198,,,TRUE,TRUE,,,,,,BR,OVC,100,,,,,,,LIFR,,,,,,,,,,,,METAR,148.0
KGPH 220655Z AUTO 35006KT 10SM CLR M02/M07 A3037 RMK AO2,KGPH,2015-02-22T06:55:00Z,39.33,-94.32,-2.0,-7.0,350,6,,10.0,30.369095,,,TRUE,TRUE,,,,,,,CLR,,,,,,,,VFR,,,,,,,,,,,,METAR,235.0
KGGE 220655Z AUTO 00000KT 10SM CLR 07/07 A3021 RMK AO2,KGGE,2015-02-22T06:55:00Z,33.32,-79.32,7.0,7.0,0,0,,10.0,30.209646,,,TRUE,TRUE,,,,,,,CLR,,,,,,,,VFR,,,,,,,,,,,,METAR,12.0
KBDN 220655Z AUTO 32006KT 10SM CLR 00/M03 A3030 RMK AO2,KBDN,2015-02-22T06:55:00Z,44.1,-121.2,0.0,-3.0,320,6,,10.0,30.301182,,,TRUE,TRUE,,,,,,,CLR,,,,,,,,VFR,,,,,,,,,,,,METAR,1055.0
KAIK 220655Z AUTO 18005KT 10SM BKN120 12/08 A3019 RMK AO2,KAIK,2015-02-22T06:55:00Z,33.65,-81.68,12.0,8.0,180,5,,10.0,30.188976,,,TRUE,TRUE,,,,,,,BKN,12000,,,,,,,VFR,,,,,,,,,,,,METAR,161.0
KM40 220655Z AUTO 03005KT 10SM OVC005 07/00 A3009 RMK AO2 P0001,KM40,2015-02-22T06:55:00Z,33.87,-88.48,7.0,0.0,30,5,,10.0,30.088583,,,TRUE,TRUE,,,,,,,OVC,500,,,,,,,IFR,,,,,,0.01,,,,,,METAR,69.0
KGLY 220655Z AUTO 02014G18KT 10SM SCT120 M01/M05 A3031 RMK AO2,KGLY,2015-02-22T06:55:00Z,38.35,-93.68,-1.0,-5.0,20,14,18,10.0,30.31004,,,TRUE,TRUE,,,,,,,SCT,12000,,,,,,,VFR,,,,,,,,,,,,METAR,251.0
KHVS 220655Z AUTO 00000KT 10SM SCT110 10/07 A3017 RMK AO2,KHVS,2015-02-22T06:55:00Z,34.4,-80.12,10.0,7.0,0,0,,10.0,30.171259,,,TRUE,TRUE,,,,,,,SCT,11000,,,,,,,VFR,,,,,,,,,,,,METAR,111.0
K9L2 220655Z AUTO 22018G28KT 9SM CLR 10/07 A2978 RMK AO2 PK WND 24029/0615 SLP081 T01000067 TSNO $,K9L2,2015-02-22T06:55:00Z,34.97,-117.87,10.0,6.7,220,18,28,9.0,29.778543,1008.1,,TRUE,TRUE,TRUE,,TRUE,,,,CLR,,,,,,,,VFR,,,,,,,,,,,,METAR,701.0
KRNH 220655Z AUTO 32008KT 10SM CLR M18/M25 A3036 RMK AO2 T11811249,KRNH,2015-02-22T06:55:00Z,45.15,-92.53,-18.1,-24.9,320,8,,10.0,30.360237,,,TRUE,TRUE,,,,,,,CLR,,,,,,,,VFR,,,,,,,,,,,,METAR,304.0
KRRL 220655Z AUTO 00000KT 10SM CLR M21/M22 A3019 RMK AO2 T12081225,KRRL,2015-02-22T06:55:00Z,45.2,-89.72,-20.8,-22.5,0,0,,10.0,30.188976,,,TRUE,TRUE,,,,,,,CLR,,,,,,,,VFR,,,,,,,,,,,,METAR,401.0
KRUQ 220655Z AUTO 00000KT 4SM -RA SCT039 SCT060 OVC075 01/M01 A3015 RMK AO2 T00081015,KRUQ,2015-02-22T06:55:00Z,35.65,-80.52,0.8,-1.5,0,0,,4.0,30.15059,,,TRUE,TRUE,,,,,,-RA,SCT,3900,SCT,6000,OVC,7500,,,MVFR,,,,,,,,,,,,METAR,236.0
KSBO 220655Z AUTO 16003KT 10SM CLR 13/06 A3016 RMK AO2,KSBO,2015-02-22T06:55:00Z,32.62,-82.37,13.0,6.0,160,3,,10.0,30.159449,,,TRUE,TRUE,,,,,,,CLR,,,,,,,,VFR,,,,,,,,,,,,METAR,100.0
KSDA 220655Z AUTO 36014KT 10SM SCT080 OVC095 M08/M15 A3044 RMK AO2,KSDA,2015-02-22T06:55:00Z,40.75,-95.42,-8.0,-15.0,360,14,,10.0,30.43996,,,TRUE,TRUE,,,,,,,SCT,8000,OVC,9500,,,,,VFR,,,,,,,,,,,,METAR,296.0
KSEZ 220655Z AUTO 00000KT 10SM CLR 11/00 A2988 RMK AO2,KSEZ,2015-02-22T06:55:00Z,34.85,-111.78,11.0,0.0,0,0,,10.0,29.878937,,,TRUE,TRUE,,,,,,,CLR,,,,,,,,VFR,,,,,,,,,,,,METAR,1473.0
KHDC 220655Z AUTO 14003KT 10SM SCT049 OVC090 15/14 A3004 RMK AO2,KHDC,2015-02-22T06:55:00Z,30.52,-90.42,15.0,14.0,140,3,,10.0,30.041338,,,TRUE,TRUE,,,,,,,SCT,4900,OVC,9000,,,,,VFR,,,,,,,,,,,,METAR,13.0
KJYO 220655Z AUTO 00000KT 7SM OVC004 01/01 A3011 RMK AO2,KJYO,2015-02-22T06:55:00Z,39.07,-77.57,1.0,1.0,0,0,,7.0,30.109253,,,TRUE,TRUE,,,,,,,OVC,400,,,,,,,LIFR,,,,,,,,,,,,METAR,119.0
KL35 220655Z AUTO 27012KT 10SM CLR 01/M02 A2990 RMK AO2,KL35,2015-02-22T06:55:00Z,34.27,-116.85,1.0,-2.0,270,12,,10.0,29.899607,,,TRUE,TRUE,,,,,,,CLR,,,,,,,,VFR,,,,,,,,,,,,METAR,2059.0
KL38 220655Z AUTO 00000KT 10SM OVC050 18/18 A3002 RMK AO2 T01750175,KL38,2015-02-22T06:55:00Z,30.17,-90.93,17.5,17.5,0,0,,10.0,30.02067,,,TRUE,TRUE,,,,,,,OVC,5000,,,,,,,VFR,,,,,,,,,,,,METAR,4.0
KLCQ 220655Z AUTO 00000KT 10SM CLR 11/08 A3018 RMK AO2,KLCQ,2015-02-22T06:55:00Z,30.18,-82.58,11.0,8.0,0,0,,10.0,30.180119,,,TRUE,TRUE,,,,,,,CLR,,,,,,,,VFR,,,,,,,,,,,,METAR,61.0
KLGC 220655Z AUTO 20005KT 10SM OVC020 15/12 A3010 RMK AO2 T01520117,KLGC,2015-02-22T06:55:00Z,33.0,-85.07,15.2,11.7,200,5,,10.0,30.100393,,,TRUE,TRUE,,,,,,,OVC,2000,,,,,,,MVFR,,,,,,,,,,,,METAR,211.0
KLKU 220655Z AUTO 22003KT 5SM BR OVC016 01/01 A3011 RMK AO2,KLKU,2015-02-22T06:55:00Z,38.02,-77.97,1.0,1.0,220,3,,5.0,30.109253,,,TRUE,TRUE,,,,,,BR,OVC,1600,,,,,,,MVFR,,,,,,,,,,,,METAR,150.0
KLHZ 220655Z AUTO 00000KT 1/4SM FG OVC001 00/00 A3019 RMK AO2,KLHZ,2015-02-22T06:55:00Z,36.02,-78.33,0.0,0.0,0,0,,0.25,30.188976,,,TRUE,TRUE,,,,,,FG,OVC,100,,,,,,,LIFR,,,,,,,,,,,,METAR,113.0
KLNP 220655Z AUTO 25004KT 1 1/4SM RA OVC004 03/03 A3005 RMK AO2,KLNP,2015-02-22T06:55:00Z,36.97,-82.52,3.0,3.0,250,4,,1.25,30.050198,,,TRUE,TRUE,,,,,,RA,OVC,400,,,,,,,LIFR,,,,,,,,,,,,METAR,817.0
KLRJ 220655Z AUTO 35010G18KT 10SM BKN110 M12/M17 A3047 RMK AO2,KLRJ,2015-02-22T06:55:00Z,42.77,-96.2,-12.0,-17.0,350,10,18,10.0,30.469488,,,TRUE,TRUE,,,,,,,BKN,11000,,,,,,,VFR,,,,,,,,,,,,METAR,365.0
KLRU 220655Z AUTO 27006KT 10SM CLR 12/M01 A2994 RMK AO2 T01181008,KLRU,2015-02-22T06:55:00Z,32.27,-106.92,11.8,-0.8,270,6,,10.0,29.940945,,,TRUE,TRUE,,,,,,,CLR,,,,,,,,VFR,,,,,,,,,,,,METAR,1358.0
KLSB 220655Z AUTO 22007KT 10SM CLR 11/M01 A2992 RMK AO2,KLSB,2015-02-22T06:55:00Z,32.33,-108.7,11.0,-1.0,220,7,,10.0,29.920275,,,TRUE,TRUE,,,,,,,CLR,,,,,,,,VFR,,,,,,,,,,,,METAR,1307.0
KLWB 220655Z AUTO 00000KT 5SM UP SCT001 OVC028 M01/M02 A3005 RMK AO2 T10121020,KLWB,2015-02-22T06:55:00Z,37.87,-80.4,-1.2,-2.0,0,0,,5.0,30.050198,,,TRUE,TRUE,,,,,,UP,SCT,100,OVC,2800,,,,,MVFR,,,,,,,,,,,,METAR,702.0
KLXN 220655Z AUTO 01009KT 5SM -SN SCT017 BKN028 OVC050 M07/M09 A3041 RMK AO2 T10701092,KLXN,2015-02-22T06:55:00Z,40.78,-99.77,-7.0,-9.2,10,9,,5.0,30.410433,,,TRUE,TRUE,,,,,,-SN,SCT,1700,BKN,2800,OVC,5000,,,MVFR,,,,,,,,,,,,METAR,734.0
KLXY 220655Z AUTO 05004KT 10SM OVC035 12/08 A2999 RMK AO2 T01210075,KLXY,2015-02-22T06:55:00Z,31.63,-96.52,12.1,7.5,50,4,,10.0,29.991142,,,TRUE,TRUE,,,,,,,OVC,3500,,,,,,,VFR,,,,,,,,,,,,METAR,166.0
KMDZ 220655Z AUTO 31004KT 10SM CLR M18/M21 A3019 RMK AO2 T11821210,KMDZ,2015-02-22T06:55:00Z,45.1,-90.3,-18.2,-21.0,310,4,,10.0,30.188976,,,TRUE,TRUE,,,,,,,CLR,,,,,,,,VFR,,,,,,,,,,,,METAR,448.0
KMKJ 220655Z AUTO 00000KT 2SM -DZ BKN037 OVC043 02/01 A3007 RMK AO2 T00160010,KMKJ,2015-02-22T06:55:00Z,36.88,-81.33,1.6,1.0,0,0,,2.0,30.070866,,,TRUE,TRUE,,,,,,-DZ,BKN,3700,OVC,4300,,,,,IFR,,,,,,,,,,,,METAR,780.0
KMLE 220655Z AUTO 34009G15KT 10SM SCT080 OVC095 M08/M17 A3047 RMK AO2 T10801170,KMLE,2015-02-22T06:55:00Z,41.2,-96.12,-8.0,-17.0,340,9,15,10.0,30.469488,,,TRUE,TRUE,,,,,,,SCT,8000,OVC,9500,,,,,VFR,,,,,,,,,,,,METAR,320.0
KMLJ 220655Z AUTO 00000KT 10SM -RA SCT060 OVC090 13/09 A3013 RMK AO2,KMLJ,2015-02-22T06:55:00Z,33.15,-83.23,13.0,9.0,0,0,,10.0,30.129921,,,TRUE,TRUE,,,,,,-RA,SCT,6000,OVC,9000,,,,,VFR,,,,,,,,,,,,METAR,117.0
KMPZ 220655Z AUTO 33013G18KT 10SM CLR M08/M13 A3032 RMK AO2 T10811128,KMPZ,2015-02-22T06:55:00Z,40.95,-91.52,-8.1,-12.8,330,13,18,10.0,30.318897,,,TRUE,TRUE,,,,,,,CLR,,,,,,,,VFR,,,,,,,,,,,,METAR,224.0
KBBP 220655Z AUTO 13003KT 10SM OVC120 10/07 A3016 RMK AO2,KBBP,2015-02-22T06:55:00Z,34.62,-79.73,10.0,7.0,130,3,,10.0,30.159449,,,TRUE,TRUE,,,,,,,OVC,12000,,,,,,,VFR,,,,,,,,,,,,METAR,45.0
KQWM 220655Z 29023G30KT 9999 SCT016 SCT050 09/03 A3008 RMK SLP189 QNH1018,KQWM,2015-02-22T06:55:00Z,100.65,-1000.65,9.0,3.0,290,23,30,6.21,30.079725,1018.9,,,,,,,,,,SCT,1600,SCT,5000,,,,,VFR,,,,,,,,,,,,METAR,999.0
KQVF 220655Z AUTO VRB01KT 9999 CLR 30/22 A2997 RMK AO2 SLP149 T03020215 $,KQVF,2015-02-22T06:55:00Z,100.65,-1000.65,30.2,21.5,0,1,,6.21,29.970472,1014.9,,TRUE,TRUE,TRUE,,,,,,CLR,,,,,,,,VFR,,,,,,,,,,,,METAR,999.0
KQTH 220655Z 28006KT 6000 HZ CLR 26/09 A3011 RMK AO2A SLP179 T02600092,KQTH,2015-02-22T06:55:00Z,100.65,-1000.65,26.0,9.2,280,6,,3.73,30.109253,1017.9,,,TRUE,,,,,,HZ,CLR,,,,,,,,MVFR,,,,,,,,,,,,METAR,999.0
KQSA 220655Z 01004KT 9999 FEW030 BKN070 OVC180 12/07 A3025 RMK AO2A SLP191 T01210074 VISNO RWY21 CHINO RWY21 $,KQSA,2015-02-22T06:55:00Z,100.65,-1000.65,12.1,7.4,10,4,,6.21,30.250984,1019.1,,,TRUE,TRUE,,,,,,FEW,3000,BKN,7000,OVC,18000,,,VFR,,,,,,,,,,,,METAR,999.0
KQGV 220655Z 28026G32KT 8000 DU FEW040 09/03 A3008 RMK SLPNO QNH1019 PA +318,KQGV,2015-02-22T06:55:00Z,100.65,-1000.65,9.0,3.0,280,26,32,4.97,30.079725,,,,,,,,,,DU,FEW,4000,,,,,,,MVFR,,,,,,,,,,,,METAR,999.0
KQBF 220655Z AUTO 05002KT 10SM FEW120 BKN140 22/06 A3015 RMK AO2 SLP196 T02240057,KQBF,2015-02-22T06:55:00Z,100.65,-1000.65,22.4,5.7,50,2,,10.0,30.15059,1019.6,,TRUE,TRUE,,,,,,,FEW,12000,BKN,14000,,,,,VFR,,,,,,,,,,,,METAR,999.0
KGXA 220655Z AUTO 09001KT 10SM CLR 08/03 A2981 RMK AO2 SLP094 T00760030 TSNO $,KGXA,2015-02-22T06:55:00Z,34.57,-117.67,7.6,3.0,90,1,,10.0,29.811024,1009.4,,TRUE,TRUE,TRUE,,TRUE,,,,CLR,,,,,,,,VFR,,,,,,,,,,,,METAR,923.0
OPLA 220655Z 31008KT 7000 NSC 22/11 Q1016/A30.01 NOSIG,OPLA,2015-02-22T06:55:00Z,31.52,74.4,22.0,11.0,310,8,,4.35,,,,,,,TRUE,,,,,,,,,,,,,,,,,,,,,,,,,METAR,217.0
OPKC 220655Z 05008KT 5000 HZ FEW100 SCT200 30/13 Q1016 NOSIG,OPKC,2015-02-22T06:55:00Z,24.88,67.17,30.0,13.0,50,8,,3.11,30.0,,,,,,TRUE,,,,HZ,FEW,10000,SCT,20000,,,,,MVFR,,,,,,,,,,,,METAR,22.0
EHQE 220655Z AUTO 25016KT 9999 FEW016/// SCT020/// 05/01 Q////,EHQE,2015-02-22T06:55:00Z,52.92,4.15,5.0,1.0,250,16,,6.21,,,,TRUE,,,,,,,,,,,,,,,,,,,,,,,,,,,,METAR,50.0
EHPG 220655Z AUTO VRB10KT 9999 FEW011/// 04/01 Q1007,EHPG,2015-02-22T06:55:00Z,52.37,3.35,4.0,1.0,0,10,,6.21,29.734253,,,TRUE,,,,,,,,,,,,,,,,,,,,,,,,,,,,METAR,50.0
EHMG 220655Z AUTO 25016KT 9999 FEW015/// SCT027/// 05/01 Q1005,EHMG,2015-02-22T06:55:00Z,53.62,4.97,5.0,1.0,250,16,,6.21,29.675198,,,TRUE,,,,,,,,,,,,,,,,,,,,,,,,,,,,METAR,50.0
EHMA 220655Z AUTO 23015KT 9999 NCD 03/01 Q1006,EHMA,2015-02-22T06:55:00Z,53.5,5.95,3.0,1.0,230,15,,6.21,29.704725,,,TRUE,,,,,,,,,,,,,,,,,,,,,,,,,,,,METAR,50.0
EHKV 220655Z AUTO 27018KT 9999 FEW016/// 05/00 Q1005,EHKV,2015-02-22T06:55:00Z,53.27,3.63,5.0,0.0,270,18,,6.21,29.675198,,,TRUE,,,,,,,,,,,,,,,,,,,,,,,,,,,,METAR,50.0
EHJA 220655Z AUTO 25018KT 9999 SCT013/// SCT016/// 05/02 Q1004,EHJA,2015-02-22T06:55:00Z,53.82,2.95,5.0,2.0,250,18,,6.21,29.64567,,,TRUE,,,,,,,,,,,,,,,,,,,,,,,,,,,,METAR,50.0
EHFZ 220655Z AUTO 26014KT 9999 FEW016/// 06/01 Q1004,EHFZ,2015-02-22T06:55:00Z,54.12,4.02,6.0,1.0,260,14,,6.21,29.64567,,,TRUE,,,,,,,,,,,,,,,,,,,,,,,,,,,,METAR,50.0
EHFD 220655Z AUTO 30007KT 9999 FEW014/// SCT025/// 05/02 Q1003,EHFD,2015-02-22T06:55:00Z,54.85,4.7,5.0,2.0,300,7,,6.21,29.616142,,,TRUE,,,,,,,,,,,,,,,,,,,,,,,,,,,,METAR,50.0
EHDV 220655Z AUTO 26014KT 220V300 9999 FEW032/// 05/02 Q1004,EHDV,2015-02-22T06:55:00Z,54.32,2.93,5.0,2.0,260,14,,6.21,29.64567,,,TRUE,,,,,,,,,,,,,,,,,,,,,,,,,,,,METAR,50.0
EHAK 220655Z AUTO 32013KT 9999 FEW012/// BKN034/// BKN042/// 04/01 Q1002,EHAK,2015-02-22T06:55:00Z,55.42,3.82,4.0,1.0,320,13,,6.21,29.586615,,,TRUE,,,,,,,,,,,,,,,,,,,,,,,,,,,,METAR,50.0
KMUT 220655Z AUTO 33015G20KT 10SM FEW028 M07/M12 A3033 RMK AO2,KMUT,2015-02-22T06:55:00Z,41.37,-91.15,-7.0,-12.0,330,15,20,10.0,30.33071,,,TRUE,TRUE,,,,,,,FEW,2800,,,,,,,VFR,,,,,,,,,,,,METAR,167.0
KMWA 220655Z AUTO 00000KT 2 1/2SM BR CLR M03/M04 A3022 RMK AO2,KMWA,2015-02-22T06:55:00Z,37.77,-89.02,-3.0,-4.0,0,0,,2.5,30.221457,,,TRUE,TRUE,,,,,,BR,CLR,,,,,,,,IFR,,,,,,,,,,,,METAR,144.0
KMWC 220655Z AUTO 32009KT 10SM SCT035 OVC047 M06/M12 A3020 RMK AO2,KMWC,2015-02-22T06:55:00Z,43.12,-88.03,-6.0,-12.0,320,9,,10.0,30.200787,,,TRUE,TRUE,,,,,,,SCT,3500,OVC,4700,,,,,VFR,,,,,,,,,,,,METAR,227.0
KMWK 220655Z AUTO 00000KT 3SM BR SCT026 BKN042 OVC075 01/00 A3015 RMK AO2 T00061005,KMWK,2015-02-22T06:55:00Z,36.47,-80.55,0.6,-0.5,0,0,,3.0,30.15059,,,TRUE,TRUE,,,,,,BR,SCT,2600,BKN,4200,OVC,7500,,,MVFR,,,,,,,,,,,,METAR,380.0
KMXO 220655Z AUTO 31011KT 10SM CLR M11/M15 A3030 RMK AO2,KMXO,2015-02-22T06:55:00Z,42.22,-91.17,-11.0,-15.0,310,11,,10.0,30.301182,,,TRUE,TRUE,,,,,,,CLR,,,,,,,,VFR,,,,,,,,,,,,METAR,259.0
KNY0 220655Z AUTO 00000KT 10SM OVC025 M09/M10 A3008 RMK AO2 T10911105,KNY0,2015-02-22T06:55:00Z,42.98,-74.33,-9.1,-10.5,0,0,,10.0,30.079725,,,TRUE,TRUE,,,,,,,OVC,2500,,,,,,,MVFR,,,,,,,,,,,,METAR,271.0
KOEO 220655Z AUTO 33010G15KT 10SM CLR M17/M24 A3041 RMK AO2 T11751245,KOEO,2015-02-22T06:55:00Z,45.32,-92.7,-17.5,-24.5,330,10,15,10.0,30.410433,,,TRUE,TRUE,,,,,,,CLR,,,,,,,,VFR,,,,,,,,,,,,METAR,275.0
KOGA 220655Z AUTO 03005KT 3SM -SN BKN012 OVC018 M08/M10 A3038 RMK AO2 T10821103 400211082,KOGA,2015-02-22T06:55:00Z,41.12,-101.77,-8.2,-10.3,30,5,,3.0,30.380905,,,TRUE,TRUE,,,,,,-SN,BKN,1200,OVC,1800,,,,,MVFR,,,,2.1,-8.2,,,,,,,METAR,999.0
KSFQ 220655Z AUTO 00000KT 10SM SCT015 SCT030 OVC075 03/02 A3020 RMK AO2 T00290024,KSFQ,2015-02-22T06:55:00Z,36.68,-76.6,2.9,2.4,0,0,,10.0,30.200787,,,TRUE,TRUE,,,,,,,SCT,1500,SCT,3000,OVC,7500,,,VFR,,,,,,,,,,,,METAR,22.0
KSHL 220655Z AUTO 34016KT 10SM BKN110 M15/M20 A3042 RMK AO2,KSHL,2015-02-22T06:55:00Z,43.22,-95.82,-15.0,-20.0,340,16,,10.0,30.41929,,,TRUE,TRUE,,,,,,,BKN,11000,,,,,,,VFR,,,,,,,,,,,,METAR,432.0
KSLB 220655Z AUTO 35015G21KT 10SM BKN110 M14/M20 A3041 RMK AO2,KSLB,2015-02-22T06:55:00Z,42.6,-95.22,-14.0,-20.0,350,15,21,10.0,30.410433,,,TRUE,TRUE,,,,,,,BKN,11000,,,,,,,VFR,,,,,,,,,,,,METAR,454.0
KSME 220655Z AUTO 36004KT 10SM OVC004 01/01 A3012 RMK AO2,KSME,2015-02-22T06:55:00Z,37.05,-84.62,1.0,1.0,360,4,,10.0,30.121063,,,TRUE,TRUE,,,,,,,OVC,400,,,,,,,LIFR,,,,,,,,,,,,METAR,283.0
KSNK 220655Z AUTO 08009KT 10SM CLR 06/03 A3001 RMK AO2 T00640031 TSNO,KSNK,2015-02-22T06:55:00Z,32.7,-100.95,6.4,3.1,80,9,,10.0,30.008858,,,TRUE,TRUE,,,TRUE,,,,CLR,,,,,,,,VFR,,,,,,,,,,,,METAR,741.0
KSOA 220655Z AUTO 08004KT 10SM CLR 13/07 A2998 RMK AO2,KSOA,2015-02-22T06:55:00Z,30.58,-100.65,13.0,7.0,80,4,,10.0,29.97933,,,TRUE,TRUE,,,,,,,CLR,,,,,,,,VFR,,,,,,,,,,,,METAR,652.0
KSVH 220655Z AUTO 00000KT 3SM RA OVC075 00/00 A3014 RMK AO2 P0004 T00001005,KSVH,2015-02-22T06:55:00Z,35.75,-80.95,0.0,-0.5,0,0,,3.0,30.138779,,,TRUE,TRUE,,,,,,RA,OVC,7500,,,,,,,MVFR,,,,,,0.04,,,,,,METAR,294.0
KGYB 220655Z AUTO 05004KT 10SM OVC018 14/08 A3002 RMK AO2 T01360080,KGYB,2015-02-22T06:55:00Z,30.17,-96.98,13.6,8.0,50,4,,10.0,30.02067,,,TRUE,TRUE,,,,,,,OVC,1800,,,,,,,MVFR,,,,,,,,,,,,METAR,148.0
KGVT 220655Z AUTO 05005KT 10SM CLR 08/03 A3005 RMK AO2,KGVT,2015-02-22T06:55:00Z,33.07,-96.07,8.0,3.0,50,5,,10.0,30.050198,,,TRUE,TRUE,,,,,,,CLR,,,,,,,,VFR,,,,,,,,,,,,METAR,163.0
KGUR 220655Z AUTO 35006G15KT 10SM SCT060 OVC070 M05/M12 A3034 RMK AO2 T10501123,KGUR,2015-02-22T06:55:00Z,42.25,-104.72,-5.0,-12.3,350,6,15,10.0,30.339567,,,TRUE,TRUE,,,,,,,SCT,6000,OVC,7000,,,,,VFR,,,,,,,,,,,,METAR,1358.0
KSYF 220655Z AUTO 03015KT 3SM -SN SCT012 OVC018 M07/M09 A3035 RMK AO2 T10751091,KSYF,2015-02-22T06:55:00Z,39.77,-101.8,-7.5,-9.1,30,15,,3.0,30.351377,,,TRUE,TRUE,,,,,,-SN,SCT,1200,OVC,1800,,,,,MVFR,,,,,,,,,,,,METAR,1025.0
KSWW 220655Z AUTO 05003KT 10SM CLR 06/04 A3003 RMK AO2 T00640036,KSWW,2015-02-22T06:55:00Z,32.47,-100.47,6.4,3.6,50,3,,10.0,30.029528,,,TRUE,TRUE,,,,,,,CLR,,,,,,,,VFR,,,,,,,,,,,,METAR,727.0
KCDN 220655Z AUTO 00000KT 10SM CLR 11/07 A3017 RMK AO2 TSNO,KCDN,2015-02-22T06:55:00Z,34.28,-80.57,11.0,7.0,0,0,,10.0,30.171259,,,TRUE,TRUE,,,TRUE,,,,CLR,,,,,,,,VFR,,,,,,,,,,,,METAR,92.0
KBDG 220655Z AUTO 19005KT 10SM SCT019 BKN024 OVC038 00/M01 A3004 RMK AO1 T00041007 401591024,KBDG,2015-02-22T06:55:00Z,37.58,-109.47,0.4,-0.7,190,5,,10.0,30.041338,,,TRUE,TRUE,,,,,,,SCT,1900,BKN,2400,OVC,3800,,,MVFR,,,,15.9,-2.4,,,,,,,METAR,1788.0
KJMR 220655Z AUTO 32008KT 10SM CLR M20/M25 A3039 RMK AO2,KJMR,2015-02-22T06:55:00Z,45.88,-93.27,-20.0,-25.0,320,8,,10.0,30.389763,,,TRUE,TRUE,,,,,,,CLR,,,,,,,,VFR,,,,,,,,,,,,METAR,309.0
KLKR 220655Z AUTO 00000KT 10SM BKN090 05/M01 A3018 RMK AO2,KLKR,2015-02-22T06:55:00Z,34.72,-80.85,5.0,-1.0,0,0,,10.0,30.180119,,,TRUE,TRUE,,,,,,,BKN,9000,,,,,,,VFR,,,,,,,,,,,,METAR,149.0
KBJC 220655Z AUTO 01008KT OVC007 M09/M10 A3025 RMK AO2 PWINO,KBJC,2015-02-22T06:55:00Z,39.9,-105.1,-9.0,-10.0,10,8,,,30.250984,,,TRUE,TRUE,,,,,TRUE,,OVC,700,,,,,,,,,,,,,,,,,,,METAR,1724.0
KBID 220655Z AUTO 28006KT 5SM FEW003 BKN009 OVC019 01/M01 A3014 RMK AO1 P0009,KBID,2015-02-22T06:55:00Z,41.17,-71.58,1.0,-1.0,280,6,,5.0,30.138779,,,TRUE,TRUE,,,,,,,FEW,300,BKN,900,OVC,1900,,,IFR,,,,,,0.09,,,,,,METAR,33.0
KBHB 220655Z 21007KT 2SM OVC004 01/01 A3012 RMK AO1 P0004,KBHB,2015-02-22T06:55:00Z,44.45,-68.37,1.0,1.0,210,7,,2.0,30.121063,,,,TRUE,,,,,,,OVC,400,,,,,,,LIFR,,,,,,0.04,,,,,,METAR,26.0
KAWO 220655Z AUTO 00000KT 10SM CLR 01/M03 A3046 RMK AO1,KAWO,2015-02-22T06:55:00Z,48.17,-122.17,1.0,-3.0,0,0,,10.0,30.46063,,,TRUE,TRUE,,,,,,,CLR,,,,,,,,VFR,,,,,,,,,,,,METAR,42.0
KAUO 220655Z AUTO 18005KT 10SM OVC017 12/08 A3013 RMK AO1 P0001,KAUO,2015-02-22T06:55:00Z,32.62,-85.42,12.0,8.0,180,5,,10.0,30.129921,,,TRUE,TRUE,,,,,,,OVC,1700,,,,,,,MVFR,,,,,,0.01,,,,,,METAR,236.0
KARG 220655Z AUTO 06007KT 5SM BKN014 OVC024 01/M01 A3020 RMK AO1,KARG,2015-02-22T06:55:00Z,36.12,-90.92,1.0,-1.0,60,7,,5.0,30.200787,,,TRUE,TRUE,,,,,,,BKN,1400,OVC,2400,,,,,MVFR,,,,,,,,,,,,METAR,83.0
KAIZ 220655Z AUTO 36008KT 290V030 10SM BKN018 OVC031 01/M03 A3025 RMK AO1,KAIZ,2015-02-22T06:55:00Z,38.1,-92.53,1.0,-3.0,360,8,,10.0,30.250984,,,TRUE,TRUE,,,,,,,BKN,1800,OVC,3100,,,,,MVFR,,,,,,,,,,,,METAR,265.0
K33V 220655Z AUTO 05010KT 2 1/2SM SCT005 OVC011 M12/M15 A2998 RMK AO2,K33V,2015-02-22T06:55:00Z,40.75,-106.28,-12.0,-15.0,50,10,,2.5,29.97933,,,TRUE,TRUE,,,,,,,SCT,500,OVC,1100,,,,,IFR,,,,,,,,,,,,METAR,2484.0
K20V 220655Z AUTO 01004KT 5SM -SN SCT009 BKN024 OVC033 M07/M10 A2999 RMK AO2,K20V,2015-02-22T06:55:00Z,40.05,-106.37,-7.0,-10.0,10,4,,5.0,29.991142,,,TRUE,TRUE,,,,,,-SN,SCT,900,BKN,2400,OVC,3300,,,MVFR,,,,,,,,,,,,METAR,2259.0
K1V6 220655Z AUTO 13020G24KT 2SM -SN BKN009 OVC017 M05/M07 A3019 RMK AO2,K1V6,2015-02-22T06:55:00Z,38.43,-105.1,-5.0,-7.0,130,20,24,2.0,30.188976,,,TRUE,TRUE,,,,,,-SN,BKN,900,OVC,1700,,,,,IFR,,,,,,,,,,,,METAR,1658.0
K0CO 220655Z AUTO 22011KT 10SM SCT024 BKN033 M17/M20 A2987 RMK AO2,K0CO,2015-02-22T06:55:00Z,39.8,-105.77,-17.0,-20.0,220,11,,10.0,29.870079,,,TRUE,TRUE,,,,,,,SCT,2400,BKN,3300,,,,,VFR,,,,,,,,,,,,METAR,3807.0
KTSP 220655Z AUTO 29013KT 4SM HZ CLR 05/03 A2985 RMK AO2,KTSP,2015-02-22T06:55:00Z,35.13,-118.43,5.0,3.0,290,13,,4.0,29.84941,,,TRUE,TRUE,,,,,,HZ,CLR,,,,,,,,MVFR,,,,,,,,,,,,METAR,1220.0
KBVX 220655Z AUTO 00000KT 8SM CLR 01/M01 A3019 RMK AO1,KBVX,2015-02-22T06:55:00Z,35.73,-91.65,1.0,-1.0,0,0,,8.0,30.188976,,,TRUE,TRUE,,,,,,,CLR,,,,,,,,VFR,,,,,,,,,,,,METAR,141.0
KIBM 220655Z AUTO 35006KT 5SM -SN SCT017 BKN024 OVC036 M10/M12 A3027 RMK AO2 T11001118 410011100,KIBM,2015-02-22T06:55:00Z,41.18,-103.68,-10.0,-11.8,350,6,,5.0,30.268702,,,TRUE,TRUE,,,,,,-SN,SCT,1700,BKN,2400,OVC,3600,,,MVFR,,,,-0.1,-10.0,,,,,,,METAR,1501.0
KI75 220655Z AUTO 33013G18KT 10SM CLR M10/M17 A3036 RMK AO2 T10991166,KI75,2015-02-22T06:55:00Z,41.05,-93.68,-9.9,-16.6,330,13,18,10.0,30.360237,,,TRUE,TRUE,,,,,,,CLR,,,,,,,,VFR,,,,,,,,,,,,METAR,339.0
KHZR 220655Z AUTO 20004KT 7SM -RA SCT016 BKN037 OVC049 19/17 A3001 RMK AO2 P0001 T01860167,KHZR,2015-02-22T06:55:00Z,30.72,-91.48,18.6,16.7,200,4,,7.0,30.008858,,,TRUE,TRUE,,,,,,-RA,SCT,1600,BKN,3700,OVC,4900,,,VFR,,,,,,0.01,,,,,,METAR,12.0
KHSP 220655Z AUTO 23008KT 1/4SM -DZ OVC002 02/02 A2999 RMK AO2 T00210021,KHSP,2015-02-22T06:55:00Z,37.95,-79.82,2.1,2.1,230,8,,0.25,29.991142,,,TRUE,TRUE,,,,,,-DZ,OVC,200,,,,,,,LIFR,,,,,,,,,,,,METAR,1156.0
KHNR 220655Z AUTO 35012G20KT 10SM CLR M11/M19 A3045 RMK AO2,KHNR,2015-02-22T06:55:00Z,41.58,-95.33,-11.0,-19.0,350,12,20,10.0,30.448818,,,TRUE,TRUE,,,,,,,CLR,,,,,,,,VFR,,,,,,,,,,,,METAR,375.0
KHJH 220655Z AUTO 01015KT 10SM OVC065 M06/M13 A3043 RMK AO2 T10611130,KHJH,2015-02-22T06:55:00Z,40.15,-97.58,-6.1,-13.0,10,15,,10.0,30.431103,,,TRUE,TRUE,,,,,,,OVC,6500,,,,,,,VFR,,,,,,,,,,,,METAR,447.0
KHHW 220655Z AUTO 00000KT 10SM CLR 05/04 A3010 RMK AO2 T00470035,KHHW,2015-02-22T06:55:00Z,34.03,-95.55,4.7,3.5,0,0,,10.0,30.100393,,,TRUE,TRUE,,,,,,,CLR,,,,,,,,VFR,,,,,,,,,,,,METAR,144.0
KHDE 220655Z AUTO 03013KT 3SM -SN OVC013 M07/M10 A3040 RMK AO2 T10751102,KHDE,2015-02-22T06:55:00Z,40.45,-99.32,-7.5,-10.2,30,13,,3.0,30.398623,,,TRUE,TRUE,,,,,,-SN,OVC,1300,,,,,,,MVFR,,,,,,,,,,,,METAR,705.0
KH21 220655Z AUTO 36007G14KT 10SM BKN018 OVC022 00/M02 A3024 RMK AO2,KH21,2015-02-22T06:55:00Z,37.97,-92.68,0.0,-2.0,360,7,14,10.0,30.239174,,,TRUE,TRUE,,,,,,,BKN,1800,OVC,2200,,,,,MVFR,,,,,,,,,,,,METAR,324.0
KGYI 220655Z AUTO 00000KT 10SM CLR 07/05 A3008 RMK AO2 T00670052,KGYI,2015-02-22T06:55:00Z,33.72,-96.67,6.7,5.2,0,0,,10.0,30.079725,,,TRUE,TRUE,,,,,,,CLR,,,,,,,,VFR,,,,,,,,,,,,METAR,228.0
KGOP 220655Z AUTO 08007KT 10SM SCT036 09/06 A3002 RMK AO2,KGOP,2015-02-22T06:55:00Z,31.42,-97.8,9.0,6.0,80,7,,10.0,30.02067,,,TRUE,TRUE,,,,,,,SCT,3600,,,,,,,VFR,,,,,,,,,,,,METAR,276.0
KGGP 220655Z AUTO 23005KT 7SM SCT017 OVC026 M03/M05 A3019 RMK AO2,KGGP,2015-02-22T06:55:00Z,40.72,-86.37,-3.0,-5.0,230,5,,7.0,30.188976,,,TRUE,TRUE,,,,,,,SCT,1700,OVC,2600,,,,,MVFR,,,,,,,,,,,,METAR,225.0
KFWC 220655Z AUTO 00000KT 10SM SCT022 BKN036 M02/M04 A3021 RMK AO1 T10201037,KFWC,2015-02-22T06:55:00Z,38.38,-88.42,-2.0,-3.7,0,0,,10.0,30.209646,,,TRUE,TRUE,,,,,,,SCT,2200,BKN,3600,,,,,VFR,,,,,,,,,,,,METAR,133.0
KFFA 220655Z AUTO 19006KT 10SM BKN044 OVC050 12/09 A3020 RMK AO2 T01170092,KFFA,2015-02-22T06:55:00Z,36.02,-75.67,11.7,9.2,190,6,,10.0,30.200787,,,TRUE,TRUE,,,,,,,BKN,4400,OVC,5000,,,,,VFR,,,,,,,,,,,,METAR,4.0
KEMV 220655Z AUTO 00000KT 7SM BKN002 OVC007 00/00 A3021 RMK AO2,KEMV,2015-02-22T06:55:00Z,36.68,-77.48,0.0,0.0,0,0,,7.0,30.209646,,,TRUE,TRUE,,,,,,,BKN,200,OVC,700,,,,,LIFR,,,,,,,,,,,,METAR,39.0
KELA 220655Z AUTO 00000KT 10SM OVC010 15/14 A2998 RMK AO2 T01500135,KELA,2015-02-22T06:55:00Z,29.6,-96.32,15.0,13.5,0,0,,10.0,29.97933,,,TRUE,TRUE,,,,,,,OVC,1000,,,,,,,MVFR,,,,,,,,,,,,METAR,56.0
KE11 220655Z AUTO 10009KT 10SM CLR 07/03 A2993 RMK AO2 T00680031,KE11,2015-02-22T06:55:00Z,32.33,-102.53,6.8,3.1,100,9,,10.0,29.929134,,,TRUE,TRUE,,,,,,,CLR,,,,,,,,VFR,,,,,,,,,,,,METAR,967.0
KDTA 220655Z AUTO 36008KT 10SM BKN065 OVC095 00/M04 A2995 RMK AO1 T00011044 401991183,KDTA,2015-02-22T06:55:00Z,39.38,-112.5,0.1,-4.4,360,8,,10.0,29.949802,,,TRUE,TRUE,,,,,,,BKN,6500,OVC,9500,,,,,VFR,,,,19.9,-18.3,,,,,,,METAR,1402.0
KD25 220655Z AUTO 30003KT 7SM -SN SCT012 SCT039 M22/M24 A3018 RMK AO2 T12231243,KD25,2015-02-22T06:55:00Z,46.12,-89.88,-22.3,-24.3,300,3,,7.0,30.180119,,,TRUE,TRUE,,,,,,-SN,SCT,1200,SCT,3900,,,,,VFR,,,,,,,,,,,,METAR,491.0
KCXE 220655Z AUTO 00000KT 1 1/2SM BKN003 OVC036 01/01 A3016 RMK AO1 P0012 T00120012,KCXE,2015-02-22T06:55:00Z,36.78,-78.5,1.2,1.2,0,0,,1.5,30.159449,,,TRUE,TRUE,,,,,,,BKN,300,OVC,3600,,,,,LIFR,,,,,,0.12,,,,,,METAR,153.0
KCMY 220655Z AUTO 31009KT 10SM CLR M12/M19 A3029 RMK AO2 T11251186,KCMY,2015-02-22T06:55:00Z,43.97,-90.73,-12.5,-18.6,310,9,,10.0,30.28937,,,TRUE,TRUE,,,,,,,CLR,,,,,,,,VFR,,,,,,,,,,,,METAR,256.0
KCKP 220655Z AUTO 35010G14KT 10SM CLR M13/M19 A3044 RMK AO2 T11321187,KCKP,2015-02-22T06:55:00Z,42.73,-95.55,-13.2,-18.7,350,10,14,10.0,30.43996,,,TRUE,TRUE,,,,,,,CLR,,,,,,,,VFR,,,,,,,,,,,,METAR,374.0
KCBK 220655Z AUTO 36012G17KT 2SM -SN OVC022 M05/M05 A3034 RMK AO2,KCBK,2015-02-22T06:55:00Z,39.43,-101.05,-5.0,-5.0,360,12,17,2.0,30.339567,,,TRUE,TRUE,,,,,,-SN,OVC,2200,,,,,,,IFR,,,,,,,,,,,,METAR,971.0
KC75 220655Z AUTO 31013G18KT 10SM OVC036 M04/M08 A3025 RMK AO2 T10451082,KC75,2015-02-22T06:55:00Z,41.02,-89.38,-4.5,-8.2,310,13,18,10.0,30.250984,,,TRUE,TRUE,,,,,,,OVC,3600,,,,,,,VFR,,,,,,,,,,,,METAR,173.0
KBQP 220655Z AUTO 02003KT 7SM -DZ BKN009 BKN021 OVC044 04/04 A3011 RMK AO2 T00440039,KBQP,2015-02-22T06:55:00Z,32.75,-91.88,4.4,3.9,20,3,,7.0,30.109253,,,TRUE,TRUE,,,,,,-DZ,BKN,900,BKN,2100,OVC,4400,,,IFR,,,,,,,,,,,,METAR,51.0
KBQK 220655Z AUTO 20006KT 10SM CLR 16/10 A3018 RMK AO1,KBQK,2015-02-22T06:55:00Z,31.25,-81.47,16.0,10.0,200,6,,10.0,30.180119,,,TRUE,TRUE,,,,,,,CLR,,,,,,,,VFR,,,,,,,,,,,,METAR,8.0
KBMC 220655Z AUTO 06020G28KT 10SM CLR 01/M08 A3003 RMK AO1 T00091076 401811077,KBMC,2015-02-22T06:55:00Z,41.55,-112.07,0.9,-7.6,60,20,28,10.0,30.029528,,,TRUE,TRUE,,,,,,,CLR,,,,,,,,VFR,,,,18.1,-7.7,,,,,,,METAR,1288.0
KARV 220655Z AUTO 00000KT 10SM SCT024 M20/M22 A3017 RMK AO2 T11961219,KARV,2015-02-22T06:55:00Z,45.92,-89.72,-19.6,-21.9,0,0,,10.0,30.171259,,,TRUE,TRUE,,,,,,,SCT,2400,,,,,,,VFR,,,,,,,,,,,,METAR,496.0
KAQR 220655Z AUTO 02005KT 10SM CLR 05/01 A3014 RMK AO2,KAQR,2015-02-22T06:55:00Z,34.4,-96.15,5.0,1.0,20,5,,10.0,30.138779,,,TRUE,TRUE,,,,,,,CLR,,,,,,,,VFR,,,,,,,,,,,,METAR,189.0
KAFO 220655Z AUTO 00000KT 10SM SCT041 OVC046 M06/M10 A3005 RMK AO2,KAFO,2015-02-22T06:55:00Z,42.72,-110.95,-6.0,-10.0,0,0,,10.0,30.050198,,,TRUE,TRUE,,,,,,,SCT,4100,OVC,4600,,,,,VFR,,,,,,,,,,,,METAR,1897.0
KA08 220655Z AUTO 04003KT 7SM RA BKN016 BKN021 OVC027 14/13 A3007 RMK AO2 T01350133,KA08,2015-02-22T06:55:00Z,32.52,-87.38,13.5,13.3,40,3,,7.0,30.070866,,,TRUE,TRUE,,,,,,RA,BKN,1600,BKN,2100,OVC,2700,,,MVFR,,,,,,,,,,,,METAR,69.0
K9V9 220655Z AUTO 33007KT 10SM CLR M14/M19 A3050 RMK AO2 T11441186,K9V9,2015-02-22T06:55:00Z,43.77,-99.32,-14.4,-18.6,330,7,,10.0,30.499016,,,TRUE,TRUE,,,,,,,CLR,,,,,,,,VFR,,,,,,,,,,,,METAR,519.0
K8A0 220655Z AUTO 15007KT 5SM -RA SCT001 BKN018 OVC075 10/10 A3004 RMK AO2 P0004,K8A0,2015-02-22T06:55:00Z,34.23,-86.25,10.0,10.0,150,7,,5.0,30.041338,,,TRUE,TRUE,,,,,,-RA,SCT,100,BKN,1800,OVC,7500,,,MVFR,,,,,,0.04,,,,,,METAR,315.0
K5R8 220655Z AUTO 20004KT 10SM SCT015 BKN028 OVC049 19/19 A3000 RMK AO2 T01850185,K5R8,2015-02-22T06:55:00Z,30.43,-93.47,18.5,18.5,200,4,,10.0,30.0,,,TRUE,TRUE,,,,,,,SCT,1500,BKN,2800,OVC,4900,,,MVFR,,,,,,,,,,,,METAR,24.0
K3K3 220655Z AUTO 04021G30KT 1 1/4SM -SN SCT008 OVC014 M04/M05 A3021 RMK AO2,K3K3,2015-02-22T06:55:00Z,38.0,-101.75,-4.0,-5.0,40,21,30,1.25,30.209646,,,TRUE,TRUE,,,,,,-SN,SCT,800,OVC,1400,,,,,IFR,,,,,,,,,,,,METAR,1013.0
KSCR 220655Z AUTO 00000KT 10SM BKN095 OVC120 01/M02 A3017 RMK AO2 T00131021,KSCR,2015-02-22T06:55:00Z,35.7,-79.5,1.3,-2.1,0,0,,10.0,30.171259,,,TRUE,TRUE,,,,,,,BKN,9500,OVC,12000,,,,,VFR,,,,,,,,,,,,METAR,188.0
KY51 220655Z AUTO 31010KT 10SM SCT035 M13/M19 A3024 RMK AO1 T11281187,KY51,2015-02-22T06:55:00Z,43.58,-90.9,-12.8,-18.7,310,10,,10.0,30.239174,,,TRUE,TRUE,,,,,,,SCT,3500,,,,,,,VFR,,,,,,,,,,,,METAR,394.0
KY23 220655Z AUTO 10SM CLR M17/M23 A3031 RMK AO2 T11721232,KY23,2015-02-22T06:55:00Z,45.3,-91.63,-17.2,-23.2,,,,10.0,30.31004,,,TRUE,TRUE,,,,,,,CLR,,,,,,,,VFR,,,,,,,,,,,,METAR,322.0
KW22 220655Z AUTO 22004KT 2SM -RA OVC002 02/02 A3004 RMK AO2,KW22,2015-02-22T06:55:00Z,39.0,-80.27,2.0,2.0,220,4,,2.0,30.041338,,,TRUE,TRUE,,,,,,-RA,OVC,200,,,,,,,LIFR,,,,,,,,,,,,METAR,499.0
KVUJ 220655Z AUTO 05003KT 10SM OVC090 03/M01 A3021 RMK AO2 T00261015,KVUJ,2015-02-22T06:55:00Z,35.42,-80.15,2.6,-1.5,50,3,,10.0,30.209646,,,TRUE,TRUE,,,,,,,OVC,9000,,,,,,,VFR,,,,,,,,,,,,METAR,186.0
KVES 220655Z AUTO 00000KT 5SM BR OVC028 M12/M13 A3014 RMK AO2,KVES,2015-02-22T06:55:00Z,40.2,-84.53,-12.0,-13.0,0,0,,5.0,30.138779,,,TRUE,TRUE,,,,,,BR,OVC,2800,,,,,,,MVFR,,,,,,,,,,,,METAR,307.0
KUXL 220655Z AUTO 20007KT 7SM SCT028 SCT080 OVC090 19/18 A3000 RMK AO2 T01910182,KUXL,2015-02-22T06:55:00Z,30.13,-93.38,19.1,18.2,200,7,,7.0,30.0,,,TRUE,TRUE,,,,,,,SCT,2800,SCT,8000,OVC,9000,,,VFR,,,,,,,,,,,,METAR,4.0
KUNV 220655Z AUTO 00000KT 7SM OVC016 M06/M07 A3006 RMK AO2 T10561066,KUNV,2015-02-22T06:55:00Z,40.85,-77.83,-5.6,-6.6,0,0,,7.0,30.059055,,,TRUE,TRUE,,,,,,,OVC,1600,,,,,,,MVFR,,,,,,,,,,,,METAR,378.0
KUKF 220655Z AUTO 00000KT 5SM BR SCT050 BKN070 OVC080 00/00 A3018 RMK AO2,KUKF,2015-02-22T06:55:00Z,36.22,-81.1,0.0,0.0,0,0,,5.0,30.180119,,,TRUE,TRUE,,,,,,BR,SCT,5000,BKN,7000,OVC,8000,,,MVFR,,,,,,,,,,,,METAR,396.0
KUBE 220655Z AUTO 32007G15KT 10SM CLR M18/M25 A3029 RMK AO2,KUBE,2015-02-22T06:55:00Z,45.5,-91.98,-18.0,-25.0,320,7,15,10.0,30.28937,,,TRUE,TRUE,,,,,,,CLR,,,,,,,,VFR,,,,,,,,,,,,METAR,379.0
KU68 220655Z AUTO 01008KT 10SM SCT024 SCT036 OVC055 M08/M13 A3039 RMK AO2,KU68,2015-02-22T06:55:00Z,44.92,-108.45,-8.0,-13.0,10,8,,10.0,30.389763,,,TRUE,TRUE,,,,,,,SCT,2400,SCT,3600,OVC,5500,,,VFR,,,,,,,,,,,,METAR,1247.0
KTVI 220655Z AUTO 00000KT 10SM OVC090 13/09 A3016 RMK AO2,KTVI,2015-02-22T06:55:00Z,30.9,-83.88,13.0,9.0,0,0,,10.0,30.159449,,,TRUE,TRUE,,,,,,,OVC,9000,,,,,,,VFR,,,,,,,,,,,,METAR,80.0
KTRK 220655Z AUTO 04009G17KT 10SM SCT040 SCT050 OVC095 01/M10 A2993 RMK AO2,KTRK,2015-02-22T06:55:00Z,39.32,-120.12,1.0,-10.0,40,9,17,10.0,29.929134,,,TRUE,TRUE,,,,,,,SCT,4000,SCT,5000,OVC,9500,,,VFR,,,,,,,,,,,,METAR,1798.0
KTNU 220655Z AUTO 34015G20KT 10SM CLR M12/M18 A3036 RMK AO2,KTNU,2015-02-22T06:55:00Z,41.67,-93.02,-12.0,-18.0,340,15,20,10.0,30.360237,,,TRUE,TRUE,,,,,,,CLR,,,,,,,,VFR,,,,,,,,,,,,METAR,290.0
KTIF 220655Z AUTO 36007KT 10SM SCT038 SCT050 OVC070 M09/M12 A3039 RMK AO2 T10881118,KTIF,2015-02-22T06:55:00Z,41.97,-100.57,-8.8,-11.8,360,7,,10.0,30.389763,,,TRUE,TRUE,,,,,,,SCT,3800,SCT,5000,OVC,7000,,,VFR,,,,,,,,,,,,METAR,892.0
KTFP 220655Z AUTO 17011KT 7SM BKN022 BKN027 OVC039 18/17 A2994 RMK AO2 T01760168,KTFP,2015-02-22T06:55:00Z,27.92,-97.22,17.6,16.8,170,11,,7.0,29.940945,,,TRUE,TRUE,,,,,,,BKN,2200,BKN,2700,OVC,3900,,,MVFR,,,,,,,,,,,,METAR,6.0
KTDF 220655Z AUTO 00000KT 10SM -DZ SCT050 BKN090 OVC120 00/00 A3018 RMK AO2,KTDF,2015-02-22T06:55:00Z,36.28,-78.98,0.0,0.0,0,0,,10.0,30.180119,,,TRUE,TRUE,,,,,,-DZ,SCT,5000,BKN,9000,OVC,12000,,,VFR,,,,,,,,,,,,METAR,186.0
KTAZ 220655Z AUTO 34012KT 5SM BR OVC014 M01/M02 A3023 RMK AO2,KTAZ,2015-02-22T06:55:00Z,39.53,-89.33,-1.0,-2.0,340,12,,5.0,30.230314,,,TRUE,TRUE,,,,,,BR,OVC,1400,,,,,,,MVFR,,,,,,,,,,,,METAR,190.0
KT65 220655Z AUTO 17012G19KT 7SM OVC011 21/19 A2992 RMK AO2 T02100185,KT65,2015-02-22T06:55:00Z,26.18,-97.97,21.0,18.5,170,12,19,7.0,29.920275,,,TRUE,TRUE,,,,,,,OVC,1100,,,,,,,MVFR,,,,,,,,,,,,METAR,21.0
KT35 220655Z AUTO 00000KT 10SM OVC028 13/09 A2999 RMK AO2 T01250090,KT35,2015-02-22T06:55:00Z,30.88,-96.97,12.5,9.0,0,0,,10.0,29.991142,,,TRUE,TRUE,,,,,,,OVC,2800,,,,,,,MVFR,,,,,,,,,,,,METAR,123.0
KGAD 220655Z 00000KT 3SM CLR A3008 RMK AO1 P0009,KGAD,2015-02-22T06:55:00Z,33.97,-86.07,,,0,0,,3.0,30.079725,,,,TRUE,,,,,,,CLR,,,,,,,,MVFR,,,,,,0.09,,,,,,METAR,173.0
KGAI 220655Z AUTO 17005KT 7SM SCT030 BKN039 OVC060 01/M01 A3013 RMK AO1 P0005,KGAI,2015-02-22T06:55:00Z,39.17,-77.17,1.0,-1.0,170,5,,7.0,30.129921,,,TRUE,TRUE,,,,,,,SCT,3000,BKN,3900,OVC,6000,,,VFR,,,,,,0.05,,,,,,METAR,165.0
KGBD 220655Z AUTO 03015G24KT 3SM FEW010 SCT024 OVC039 M04/M09 A3032 RMK AO1,KGBD,2015-02-22T06:55:00Z,38.35,-98.87,-4.0,-9.0,30,15,24,3.0,30.318897,,,TRUE,TRUE,,,,,,,FEW,1000,SCT,2400,OVC,3900,,,MVFR,,,,,,,,,,,,METAR,575.0
KGDV 220655Z AUTO 01007KT 10SM FEW018 M20/M23 A3056 RMK AO1,KGDV,2015-02-22T06:55:00Z,47.12,-104.78,-20.0,-23.0,10,7,,10.0,30.561024,,,TRUE,TRUE,,,,,,,FEW,1800,,,,,,,VFR,,,,,,,,,,,,METAR,749.0
KGPZ 220655Z AUTO 31011KT 10SM FEW031 M23/M28 A3031 RMK AO1,KGPZ,2015-02-22T06:55:00Z,47.22,-93.52,-23.0,-28.0,310,11,,10.0,30.31004,,,TRUE,TRUE,,,,,,,FEW,3100,,,,,,,VFR,,,,,,,,,,,,METAR,413.0
KGUC 220655Z 04003KT 10SM BKN015 OVC023 M04/M07 A2998 RMK AO1,KGUC,2015-02-22T06:55:00Z,38.52,-106.92,-4.0,-7.0,40,3,,10.0,29.97933,,,,TRUE,,,,,,,BKN,1500,OVC,2300,,,,,MVFR,,,,,,,,,,,,METAR,2339.0
KGTU 220655Z 00000KT 10SM OVC028 12/07 A3000 RMK AO1,KGTU,2015-02-22T06:55:00Z,30.68,-97.68,12.0,7.0,0,0,,10.0,30.0,,,,TRUE,,,,,,,OVC,2800,,,,,,,MVFR,,,,,,,,,,,,METAR,240.0
KGXY 220655Z AUTO 02007KT 8SM CLR M09/M13 A3029 RMK AO1,KGXY,2015-02-22T06:55:00Z,40.42,-104.62,-9.0,-13.0,20,7,,8.0,30.28937,,,TRUE,TRUE,,,,,,,CLR,,,,,,,,VFR,,,,,,,,,,,,METAR,1420.0
KHDN 220655Z AUTO 25009KT 10SM FEW010 SCT027 OVC033 M07/M10 A2997 RMK AO1,KHDN,2015-02-22T06:55:00Z,40.47,-107.22,-7.0,-10.0,250,9,,10.0,29.970472,,,TRUE,TRUE,,,,,,,FEW,1000,SCT,2700,OVC,3300,,,VFR,,,,,,,,,,,,METAR,2012.0
KHEF 220655Z 15003KT 7SM FEW009 BKN021 OVC060 01/01 A3012 RMK AO1 P0007,KHEF,2015-02-22T06:55:00Z,38.72,-77.52,1.0,1.0,150,3,,7.0,30.121063,,,,TRUE,,,,,,,FEW,900,BKN,2100,OVC,6000,,,MVFR,,,,,,0.07,,,,,,METAR,59.0
KHEZ 220655Z AUTO 34006KT 10SM OVC004 09/07 A3005 RMK AO1 P0004,KHEZ,2015-02-22T06:55:00Z,31.62,-91.3,9.0,7.0,340,6,,10.0,30.050198,,,TRUE,TRUE,,,,,,,OVC,400,,,,,,,LIFR,,,,,,0.04,,,,,,METAR,83.0
KHNB 220655Z AUTO 35006KT 9SM CLR M03/M06 A3019 RMK AO1,KHNB,2015-02-22T06:55:00Z,38.25,-86.95,-3.0,-6.0,350,6,,9.0,30.188976,,,TRUE,TRUE,,,,,,,CLR,,,,,,,,VFR,,,,,,,,,,,,METAR,161.0
KHYI 220655Z 04008KT 10SM OVC019 13/07 A3000 RMK AO1,KHYI,2015-02-22T06:55:00Z,29.88,-97.87,13.0,7.0,40,8,,10.0,30.0,,,,TRUE,,,,,,,OVC,1900,,,,,,,MVFR,,,,,,,,,,,,METAR,182.0
KHYS 220655Z AUTO 04014KT 5SM FEW012 FEW036 OVC050 M05/M11 A3035 RMK AO1,KHYS,2015-02-22T06:55:00Z,38.85,-99.27,-5.0,-11.0,40,14,,5.0,30.351377,,,TRUE,TRUE,,,,,,,FEW,1200,FEW,3600,OVC,5000,,,MVFR,,,,,,,,,,,,METAR,609.0
KILE 220655Z AUTO 03004KT 10SM OVC031 09/04 A2998 RMK AO1,KILE,2015-02-22T06:55:00Z,31.07,-97.67,9.0,4.0,30,4,,10.0,29.97933,,,TRUE,TRUE,,,,,,,OVC,3100,,,,,,,VFR,,,,,,,,,,,,METAR,258.0
KIWD 220655Z AUTO 34008G14KT 1 3/4SM OVC015 M17/M19 A3021 RMK AO1,KIWD,2015-02-22T06:55:00Z,46.52,-90.12,-17.0,-19.0,340,8,14,1.75,30.209646,,,TRUE,TRUE,,,,,,,OVC,1500,,,,,,,IFR,,,,,,,,,,,,METAR,375.0
KJAC 220655Z 02014KT 10SM CLR M12/M16 A3010 RMK AO1,KJAC,2015-02-22T06:55:00Z,43.62,-110.73,-12.0,-16.0,20,14,,10.0,30.100393,,,,TRUE,,,,,,,CLR,,,,,,,,VFR,,,,,,,,,,,,METAR,1961.0
KUTA 220655Z AUTO 36012KT 5SM BR OVC007 01/00 A3018 RMK AO2,KUTA,2015-02-22T06:55:00Z,34.68,-90.35,1.0,0.0,360,12,,5.0,30.180119,,,TRUE,TRUE,,,,,,BR,OVC,700,,,,,,,IFR,,,,,,,,,,,,METAR,59.0
KGTR 220655Z 35005KT 10SM OVC008 07/06 A3006 RMK AO1,KGTR,2015-02-22T06:55:00Z,33.45,-88.57,7.0,6.0,350,5,,10.0,30.059055,,,,TRUE,,,,,,,OVC,800,,,,,,,IFR,,,,,,,,,,,,METAR,80.0
KPNM 220655Z AUTO 29007KT 10SM CLR M20/M25 A3040 RMK AO2,KPNM,2015-02-22T06:55:00Z,45.57,-93.6,-20.0,-25.0,290,7,,10.0,30.398623,,,TRUE,TRUE,,,,,,,CLR,,,,,,,,VFR,,,,,,,,,,,,METAR,298.0
KLYV 220655Z AUTO 35013G17KT 10SM CLR M14/M18 A3045 RMK AO2,KLYV,2015-02-22T06:55:00Z,43.62,-96.22,-14.0,-18.0,350,13,17,10.0,30.448818,,,TRUE,TRUE,,,,,,,CLR,,,,,,,,VFR,,,,,,,,,,,,METAR,436.0
KCCU 220655Z AUTO 18010KT 1SM -SN BKN008 OVC014 M10/M13 A2988 RMK AO2,KCCU,2015-02-22T06:55:00Z,39.48,-106.15,-10.0,-13.0,180,10,,1.0,29.878937,,,TRUE,TRUE,,,,,,-SN,BKN,800,OVC,1400,,,,,IFR,,,,,,,,,,,,METAR,3680.0
KCGZ 220655Z AUTO 00000KT 10SM CLR 17/03 A2982 RMK AO1,KCGZ,2015-02-22T06:55:00Z,32.95,-111.77,17.0,3.0,0,0,,10.0,29.819881,,,TRUE,TRUE,,,,,,,CLR,,,,,,,,VFR,,,,,,,,,,,,METAR,446.0
KCOD 220655Z 34010KT 10SM OVC015 M12/M16 A3033 RMK AO1,KCOD,2015-02-22T06:55:00Z,44.52,-109.02,-12.0,-16.0,340,10,,10.0,30.33071,,,,TRUE,,,,,,,OVC,1500,,,,,,,MVFR,,,,,,,,,,,,METAR,1553.0
KCIU 220655Z AUTO 25004KT 10SM CLR M17/M18 A3011 RMK AO1,KCIU,2015-02-22T06:55:00Z,46.25,-84.47,-17.0,-18.0,250,4,,10.0,30.109253,,,TRUE,TRUE,,,,,,,CLR,,,,,,,,VFR,,,,,,,,,,,,METAR,244.0
KCOE 220655Z AUTO 08007KT 10SM CLR M03/M12 A3046 RMK AO1,KCOE,2015-02-22T06:55:00Z,47.77,-116.82,-3.0,-12.0,80,7,,10.0,30.46063,,,TRUE,TRUE,,,,,,,CLR,,,,,,,,VFR,,,,,,,,,,,,METAR,707.0
KCPW 220655Z AUTO 20012G19KT 1/2SM SN OVC001 M11/M11 A2996 RMK AO2 P0001,KCPW,2015-02-22T06:55:00Z,37.45,-106.8,-11.0,-11.0,200,12,19,0.5,29.958662,,,TRUE,TRUE,,,,,,SN,OVC,100,,,,,,,LIFR,,,,,,0.01,,,,,,METAR,3584.0
KCVN 220655Z AUTO 11011KT 10SM CLR 03/M01 A2998 RMK AO1,KCVN,2015-02-22T06:55:00Z,34.42,-103.07,3.0,-1.0,110,11,,10.0,29.97933,,,TRUE,TRUE,,,,,,,CLR,,,,,,,,VFR,,,,,,,,,,,,METAR,1284.0
KCVO 220655Z AUTO 05008KT 10SM CLR 07/M02 A3030 RMK AO1,KCVO,2015-02-22T06:55:00Z,44.5,-123.27,7.0,-2.0,50,8,,10.0,30.301182,,,TRUE,TRUE,,,,,,,CLR,,,,,,,,VFR,,,,,,,,,,,,METAR,75.0
KCWI 220655Z AUTO 32015KT 10SM SCT033 M08/M14 A3029 RMK AO1,KCWI,2015-02-22T06:55:00Z,41.82,-90.32,-8.0,-14.0,320,15,,10.0,30.28937,,,TRUE,TRUE,,,,,,,SCT,3300,,,,,,,VFR,,,,,,,,,,,,METAR,216.0
KDVL 220655Z AUTO 35013KT 10SM CLR M28/M34 A3054 RMK AO1,KDVL,2015-02-22T06:55:00Z,48.12,-98.92,-28.0,-34.0,350,13,,10.0,30.540354,,,TRUE,TRUE,,,,,,,CLR,,,,,,,,VFR,,,,,,,,,,,,METAR,443.0
KDYR 220655Z 02007KT 10SM OVC008 00/M07 A3022 RMK AO1,KDYR,2015-02-22T06:55:00Z,36.0,-89.4,0.0,-7.0,20,7,,10.0,30.221457,,,,TRUE,,,,,,,OVC,800,,,,,,,IFR,,,,,,,,,,,,METAR,103.0
KEAR 220655Z 02017KT 7SM BKN036 BKN042 OVC048 M08/M13 A3042 RMK AO1,KEAR,2015-02-22T06:55:00Z,40.72,-99.0,-8.0,-13.0,20,17,,7.0,30.41929,,,,TRUE,,,,,,,BKN,3600,BKN,4200,OVC,4800,,,VFR,,,,,,,,,,,,METAR,649.0
KEEN 220655Z AUTO 00000KT 6SM OVC012 M03/M04 A3009 RMK AO1 P0002,KEEN,2015-02-22T06:55:00Z,42.88,-72.27,-3.0,-4.0,0,0,,6.0,30.088583,,,TRUE,TRUE,,,,,,,OVC,1200,,,,,,,MVFR,,,,,,0.02,,,,,,METAR,149.0
KEGE 220655Z AUTO 00000KT 10SM OVC031 M04/M05 A2999 RMK AO1,KEGE,2015-02-22T06:55:00Z,39.63,-106.92,-4.0,-5.0,0,0,,10.0,29.991142,,,TRUE,TRUE,,,,,,,OVC,3100,,,,,,,VFR,,,,,,,,,,,,METAR,1993.0
KEHR 220655Z AUTO 35004KT 10SM CLR M03/M05 A3020 RMK AO1,KEHR,2015-02-22T06:55:00Z,37.82,-87.67,-3.0,-5.0,350,4,,10.0,30.200787,,,TRUE,TRUE,,,,,,,CLR,,,,,,,,VFR,,,,,,,,,,,,METAR,117.0
KEIK 220655Z AUTO 36007KT 3SM -SN OVC046 M09/M10 A3028 RMK AO2 T10861096,KEIK,2015-02-22T06:55:00Z,40.02,-105.05,-8.6,-9.6,360,7,,3.0,30.280512,,,TRUE,TRUE,,,,,,-SN,OVC,4600,,,,,,,MVFR,,,,,,,,,,,,METAR,1564.0
KENV 220655Z AUTO 01013G19KT 10SM BKN065 01/M04 A3003 RMK AO1,KENV,2015-02-22T06:55:00Z,40.72,-114.02,1.0,-4.0,10,13,19,10.0,30.029528,,,TRUE,TRUE,,,,,,,BKN,6500,,,,,,,VFR,,,,,,,,,,,,METAR,1292.0
KESC 220655Z AUTO 29004KT 10SM CLR M15/M19 A3017 RMK AO1,KESC,2015-02-22T06:55:00Z,45.75,-87.08,-15.0,-19.0,290,4,,10.0,30.171259,,,TRUE,TRUE,,,,,,,CLR,,,,,,,,VFR,,,,,,,,,,,,METAR,187.0
KEWK 220655Z AUTO 03020G24KT 10SM FEW019 BKN038 OVC048 M03/M09 A3031 RMK AO1,KEWK,2015-02-22T06:55:00Z,38.03,-97.27,-3.0,-9.0,30,20,24,10.0,30.31004,,,TRUE,TRUE,,,,,,,FEW,1900,BKN,3800,OVC,4800,,,VFR,,,,,,,,,,,,METAR,467.0
KEUL 220655Z AUTO 34005KT 10SM CLR 01/M08 A3019 RMK AO1,KEUL,2015-02-22T06:55:00Z,43.62,-116.62,1.0,-8.0,340,5,,10.0,30.188976,,,TRUE,TRUE,,,,,,,CLR,,,,,,,,VFR,,,,,,,,,,,,METAR,740.0
KFAM 220655Z AUTO 01005KT 6SM OVC027 01/M01 A3023 RMK AO1,KFAM,2015-02-22T06:55:00Z,37.77,-90.42,1.0,-1.0,10,5,,6.0,30.230314,,,TRUE,TRUE,,,,,,,OVC,2700,,,,,,,MVFR,,,,,,,,,,,,METAR,288.0
KOCF 220655Z AUTO 00000KT 10SM OVC075 12/09 A3019 RMK AO1,KOCF,2015-02-22T06:55:00Z,29.17,-82.22,12.0,9.0,0,0,,10.0,30.188976,,,TRUE,TRUE,,,,,,,OVC,7500,,,,,,,VFR,,,,,,,,,,,,METAR,27.0
KRQO 220655Z AUTO 07010KT SCT070 BKN110 06/01 A3010 RMK AO2 PWINO,KRQO,2015-02-22T06:55:00Z,35.47,-98.0,6.0,1.0,70,10,,,30.100393,,,TRUE,TRUE,,,,,TRUE,,SCT,7000,BKN,11000,,,,,,,,,,,,,,,,,METAR,432.0
KOCH 220655Z AUTO 07004KT 10SM BKN011 OVC026 11/08 A3004 RMK AO1,KOCH,2015-02-22T06:55:00Z,31.57,-94.72,11.0,8.0,70,4,,10.0,30.041338,,,TRUE,TRUE,,,,,,,BKN,1100,OVC,2600,,,,,MVFR,,,,,,,,,,,,METAR,108.0
KOLU 220655Z AUTO 36011KT 10SM FEW065 M09/M19 A3046 RMK AO1,KOLU,2015-02-22T06:55:00Z,41.45,-97.32,-9.0,-19.0,360,11,,10.0,30.46063,,,TRUE,TRUE,,,,,,,FEW,6500,,,,,,,VFR,,,,,,,,,,,,METAR,440.0
KOTG 220655Z AUTO 34013G18KT 10SM CLR M17/M21 A3041 RMK AO1,KOTG,2015-02-22T06:55:00Z,43.63,-95.57,-17.0,-21.0,340,13,18,10.0,30.410433,,,TRUE,TRUE,,,,,,,CLR,,,,,,,,VFR,,,,,,,,,,,,METAR,480.0
KOTH 220655Z 03009KT 10SM CLR 09/03 A3021 RMK AO1,KOTH,2015-02-22T06:55:00Z,43.42,-124.25,9.0,3.0,30,9,,10.0,30.209646,,,,TRUE,,,,,,,CLR,,,,,,,,VFR,,,,,,,,,,,,METAR,4.0
KOWA 220655Z AUTO 31012KT 10SM CLR M18/M23 A3038 RMK AO2,KOWA,2015-02-22T06:55:00Z,44.12,-93.25,-18.0,-23.0,310,12,,10.0,30.380905,,,TRUE,TRUE,,,,,,,CLR,,,,,,,,VFR,,,,,,,,,,,,METAR,350.0
KOXC 220655Z 27003KT 3SM OVC010 M02/M06 A3013 RMK AO1,KOXC,2015-02-22T06:55:00Z,41.47,-73.13,-2.0,-6.0,270,3,,3.0,30.129921,,,,TRUE,,,,,,,OVC,1000,,,,,,,MVFR,,,,,,,,,,,,METAR,222.0
KPIB 220655Z AUTO 16005KT 8SM SCT044 BKN050 15/13 A3003 RMK AO1 LTG DSNT NE,KPIB,2015-02-22T06:55:00Z,31.47,-89.32,15.0,13.0,160,5,,8.0,30.029528,,,TRUE,TRUE,,,,,,,SCT,4400,BKN,5000,,,,,VFR,,,,,,,,,,,,METAR,91.0
KPQI 220655Z AUTO 00000KT 2SM OVC018 M07/M13 A3007 RMK AO1 P0003,KPQI,2015-02-22T06:55:00Z,46.67,-68.03,-7.0,-13.0,0,0,,2.0,30.070866,,,TRUE,TRUE,,,,,,,OVC,1800,,,,,,,IFR,,,,,,0.03,,,,,,METAR,146.0
KPRX 220655Z 09010KT 10SM CLR 06/02 A3009 RMK AO1,KPRX,2015-02-22T06:55:00Z,33.62,-95.45,6.0,2.0,90,10,,10.0,30.088583,,,,TRUE,,,,,,,CLR,,,,,,,,VFR,,,,,,,,,,,,METAR,167.0
KPTN 220655Z AUTO 24003KT 10SM FEW080 18/16 A3003 RMK AO1,KPTN,2015-02-22T06:55:00Z,29.72,-91.32,18.0,16.0,240,3,,10.0,30.029528,,,TRUE,TRUE,,,,,,,FEW,8000,,,,,,,VFR,,,,,,,,,,,,METAR,3.0
KPTV 220655Z AUTO 00000KT M1/4SM OVC001 06/04 A2985 RMK AO1,KPTV,2015-02-22T06:55:00Z,36.02,-119.07,6.0,4.0,0,0,,0.25,29.84941,,,TRUE,TRUE,,,,,,,OVC,100,,,,,,,LIFR,,,,,,,,,,,,METAR,135.0
KPVC 220655Z AUTO 19009KT 8SM FEW005 SCT016 BKN022 04/02 A3012 RMK AO1,KPVC,2015-02-22T06:55:00Z,42.07,-70.22,4.0,2.0,190,9,,8.0,30.121063,,,TRUE,TRUE,,,,,,,FEW,500,SCT,1600,BKN,2200,,,MVFR,,,,,,,,,,,,METAR,2.0
KPVG 220655Z AUTO 00000KT 4SM FEW030 SCT050 OVC075 03/01 A3021 RMK AO1 P0001,KPVG,2015-02-22T06:55:00Z,36.78,-76.45,3.0,1.0,0,0,,4.0,30.209646,,,TRUE,TRUE,,,,,,,FEW,3000,SCT,5000,OVC,7500,,,MVFR,,,,,,0.01,,,,,,METAR,7.0
KPVU 220655Z AUTO 00000KT 10SM OVC015 M01/M02 A2998 RMK AO1,KPVU,2015-02-22T06:55:00Z,40.22,-111.72,-1.0,-2.0,0,0,,10.0,29.97933,,,TRUE,TRUE,,,,,,,OVC,1500,,,,,,,MVFR,,,,,,,,,,,,METAR,1369.0
KPWG 220655Z AUTO 36004KT 10SM 07/03 A3002 RMK AO1,KPWG,2015-02-22T06:55:00Z,31.47,-97.32,7.0,3.0,360,4,,10.0,30.02067,,,TRUE,TRUE,,,,,,,,,,,,,,,,,,,,,,,,,,,METAR,180.0
KPWT 220655Z AUTO 04008KT 10SM SCT075 08/M01 A3046 RMK AO1,KPWT,2015-02-22T06:55:00Z,47.5,-122.75,8.0,-1.0,40,8,,10.0,30.46063,,,TRUE,TRUE,,,,,,,SCT,7500,,,,,,,VFR,,,,,,,,,,,,METAR,147.0
EBFS 220655Z AUTO 15003KT 0150 SCT001/// BKN016/// 00/00 Q1009 RED,EBFS,2015-02-22T06:55:00Z,50.22,4.65,0.0,0.0,150,3,,0.09,29.793306,,,TRUE,,,,,,,,,,,,,,,,,,,,,,,,,,,,METAR,299.0
EBFN 220655Z 22006KT 8000 FEW017 M00/M01 Q1010 BLU,EBFN,2015-02-22T06:55:00Z,51.07,2.63,0.0,-1.0,220,6,,4.97,29.822834,,,,,,,,,,,FEW,1700,,,,,,,MVFR,,,,,,,,,,,,METAR,9.0
EBBL 220655Z 21006KT 0200 FZFG BKN001 00/M00 Q1010 RED,EBBL,2015-02-22T06:55:00Z,51.17,5.47,0.0,0.0,210,6,,0.12,29.822834,,,,,,,,,,FZFG,BKN,100,,,,,,,LIFR,,,,,,,,,,,,METAR,64.0
KQTC 220655Z AUTO 11008G15KT 10SM CLR RMK AO2 SLPNO $,KQTC,2015-02-22T06:55:00Z,100.65,-1000.65,,,110,8,15,10.0,,,,TRUE,TRUE,TRUE,,,,,,CLR,,,,,,,,VFR,,,,,,,,,,,,METAR,999.0
KQHN 220655Z 05011KT 4400 BLDU OVC100 22/M02 A3003 RMK SLP121 Q1017 DA4825,KQHN,2015-02-22T06:55:00Z,100.65,-1000.65,22.0,-2.0,50,11,,2.73,30.029528,1012.1,,,,,,,,,BLDU,OVC,10000,,,,,,,IFR,,,,,,,,,,,,METAR,999.0
KVIS 220655Z AUTO 13003KT M1/4SM OVC001 07/03 A2985 RMK AO1,KVIS,2015-02-22T06:55:00Z,36.32,-119.4,7.0,3.0,130,3,,0.25,29.84941,,,TRUE,TRUE,,,,,,,OVC,100,,,,,,,LIFR,,,,,,,,,,,,METAR,89.0
KVBT 220655Z AUTO 05005KT 5SM CLR 02/M01 A3022 RMK AO1,KVBT,2015-02-22T06:55:00Z,36.35,-94.22,2.0,-1.0,50,5,,5.0,30.221457,,,TRUE,TRUE,,,,,,,CLR,,,,,,,,MVFR,,,,,,,,,,,,METAR,395.0
KUDG 220655Z AUTO 20006KT 10SM SCT110 09/05 A3018 RMK AO1,KUDG,2015-02-22T06:55:00Z,34.45,-79.88,9.0,5.0,200,6,,10.0,30.180119,,,TRUE,TRUE,,,,,,,SCT,11000,,,,,,,VFR,,,,,,,,,,,,METAR,59.0
KTVF 220655Z AUTO 33010KT 10SM CLR M28/M33 A3049 RMK AO1,KTVF,2015-02-22T06:55:00Z,48.07,-96.17,-28.0,-33.0,330,10,,10.0,30.490158,,,TRUE,TRUE,,,,,,,CLR,,,,,,,,VFR,,,,,,,,,,,,METAR,340.0
KTPL 220655Z AUTO 34003KT 10SM OVC032 08/04 A3000 RMK AO1,KTPL,2015-02-22T06:55:00Z,31.13,-97.4,8.0,4.0,340,3,,10.0,30.0,,,TRUE,TRUE,,,,,,,OVC,3200,,,,,,,VFR,,,,,,,,,,,,METAR,208.0
KSUE 220655Z AUTO 35009KT 10SM BKN038 OVC044 M13/M18 A3022 RMK AO1,KSUE,2015-02-22T06:55:00Z,44.85,-87.42,-13.0,-18.0,350,9,,10.0,30.221457,,,TRUE,TRUE,,,,,,,BKN,3800,OVC,4400,,,,,VFR,,,,,,,,,,,,METAR,221.0
KSQI 220655Z AUTO 30009KT 10SM OVC039 M06/M09 A3024 RMK AO1,KSQI,2015-02-22T06:55:00Z,41.75,-89.67,-6.0,-9.0,300,9,,10.0,30.239174,,,TRUE,TRUE,,,,,,,OVC,3900,,,,,,,VFR,,,,,,,,,,,,METAR,197.0
KSOP 220655Z AUTO 00000KT 10SM OVC110 08/06 A3017 RMK AO1,KSOP,2015-02-22T06:55:00Z,35.22,-79.4,8.0,6.0,0,0,,10.0,30.171259,,,TRUE,TRUE,,,,,,,OVC,11000,,,,,,,VFR,,,,,,,,,,,,METAR,141.0
KSMN 220655Z AUTO 03007KT 10SM CLR M06/M17 A3034 RMK AO1,KSMN,2015-02-22T06:55:00Z,45.12,-113.87,-6.0,-17.0,30,7,,10.0,30.339567,,,TRUE,TRUE,,,,,,,CLR,,,,,,,,VFR,,,,,,,,,,,,METAR,1233.0
KSLG 220655Z AUTO 05004KT 8SM CLR 01/M02 A3022 RMK AO1,KSLG,2015-02-22T06:55:00Z,36.2,-94.47,1.0,-2.0,50,4,,8.0,30.221457,,,TRUE,TRUE,,,,,,,CLR,,,,,,,,VFR,,,,,,,,,,,,METAR,300.0
KSGU 220655Z AUTO 05012KT 10SM OVC090 13/M09 A2980 RMK AO1,KSGU,2015-02-22T06:55:00Z,37.07,-113.52,13.0,-9.0,50,12,,10.0,29.799213,,,TRUE,TRUE,,,,,,,OVC,9000,,,,,,,VFR,,,,,,,,,,,,METAR,896.0
KSGT 220655Z AUTO 04013G17KT 10SM OVC010 03/01 A3017 RMK AO1,KSGT,2015-02-22T06:55:00Z,34.6,-91.57,3.0,1.0,40,13,17,10.0,30.171259,,,TRUE,TRUE,,,,,,,OVC,1000,,,,,,,MVFR,,,,,,,,,,,,METAR,68.0
KSFZ 220655Z 21004KT 9SM FEW020 BKN035 OVC041 01/M01 A3009 RMK AO1 P0006,KSFZ,2015-02-22T06:55:00Z,41.92,-71.5,1.0,-1.0,210,4,,9.0,30.088583,,,,TRUE,,,,,,,FEW,2000,BKN,3500,OVC,4100,,,VFR,,,,,,0.06,,,,,,METAR,134.0
KVTP 220655Z AUTO 1/2SM SN OVC001 M15/M17 A3001 RMK AO2,KVTP,2015-02-22T06:55:00Z,37.5,-105.17,-15.0,-17.0,,,,0.5,30.008858,,,TRUE,TRUE,,,,,,SN,OVC,100,,,,,,,LIFR,,,,,,,,,,,,METAR,3114.0
KIRS 220655Z AUTO 00000KT 7SM OVC016 M04/M07 A3012 RMK AO2,KIRS,2015-02-22T06:55:00Z,41.8,-85.43,-4.0,-7.0,0,0,,7.0,30.121063,,,TRUE,TRUE,,,,,,,OVC,1600,,,,,,,MVFR,,,,,,,,,,,,METAR,282.0
KI67 220655Z AUTO 00000KT 1/2SM BKN008 M07/M07 A3017 RMK AO1,KI67,2015-02-22T06:55:00Z,39.25,-84.78,-7.0,-7.0,0,0,,0.5,30.171259,,,TRUE,TRUE,,,,,,,BKN,800,,,,,,,LIFR,,,,,,,,,,,,METAR,178.0
KHYX 220655Z AUTO 00000KT 4SM -SN SCT038 BKN090 M05/M06 A3011 RMK AO2,KHYX,2015-02-22T06:55:00Z,43.43,-83.87,-5.0,-6.0,0,0,,4.0,30.109253,,,TRUE,TRUE,,,,,,-SN,SCT,3800,BKN,9000,,,,,MVFR,,,,,,,,,,,,METAR,183.0
KHYW 220655Z AUTO 00000KT 2SM BR CLR 08/ A3020 RMK AO2 VIS 1V5,KHYW,2015-02-22T06:55:00Z,33.83,-79.12,8.0,,0,0,,2.0,30.200787,,,TRUE,TRUE,,,,,,BR,CLR,,,,,,,,IFR,,,,,,,,,,,,METAR,11.0
KHXD 220655Z AUTO 18005KT 10SM CLR 14/12 A3019 RMK AO2 P0000,KHXD,2015-02-22T06:55:00Z,32.22,-80.7,14.0,12.0,180,5,,10.0,30.188976,,,TRUE,TRUE,,,,,,,CLR,,,,,,,,VFR,,,,,,0.0050,,,,,,METAR,6.0
KHOB 220655Z AUTO 09009KT 10SM CLR 07/03 A2994 RMK AO2,KHOB,2015-02-22T06:55:00Z,32.67,-103.22,7.0,3.0,90,9,,10.0,29.940945,,,TRUE,TRUE,,,,,,,CLR,,,,,,,,VFR,,,,,,,,,,,,METAR,1115.0
KHAF 220655Z AUTO 00000KT 8SM BKN014 BKN023 10/09 A2985 RMK AO2,KHAF,2015-02-22T06:55:00Z,37.52,-122.5,10.0,9.0,0,0,,8.0,29.84941,,,TRUE,TRUE,,,,,,,BKN,1400,BKN,2300,,,,,MVFR,,,,,,,,,,,,METAR,21.0
KGOV 220655Z AUTO 31003KT 10SM BKN046 OVC090 M12/M15 A3010 RMK AO2 T11201155,KGOV,2015-02-22T06:55:00Z,44.68,-84.73,-12.0,-15.5,310,3,,10.0,30.100393,,,TRUE,TRUE,,,,,,,BKN,4600,OVC,9000,,,,,VFR,,,,,,,,,,,,METAR,353.0
KFYM 220655Z AUTO 05009KT 8SM OVC004 03/03 RMK,KFYM,2015-02-22T06:55:00Z,35.07,-86.57,3.0,3.0,50,9,,8.0,,,,TRUE,,,,,,,,OVC,400,,,,,,,LIFR,,,,,,,,,,,,METAR,300.0
KFSE 220655Z AUTO 32008KT 10SM CLR M29/M33 A3047 RMK AO2,KFSE,2015-02-22T06:55:00Z,47.58,-95.77,-29.0,-33.0,320,8,,10.0,30.469488,,,TRUE,TRUE,,,,,,,CLR,,,,,,,,VFR,,,,,,,,,,,,METAR,389.0
KFPK 220655Z AUTO 00000KT 5SM BR SCT011 SCT032 OVC075 M05/M07 A3009 RMK AO2 T10501071,KFPK,2015-02-22T06:55:00Z,42.57,-84.82,-5.0,-7.1,0,0,,5.0,30.088583,,,TRUE,TRUE,,,,,,BR,SCT,1100,SCT,3200,OVC,7500,,,MVFR,,,,,,,,,,,,METAR,272.0
KFMM 220655Z AUTO 00000KT 2 1/2SM -SN SCT009 BKN026 OVC070 M08/M09 A3031 RMK AO2 T10831095,KFMM,2015-02-22T06:55:00Z,40.33,-103.8,-8.3,-9.5,0,0,,2.5,30.31004,,,TRUE,TRUE,,,,,,-SN,SCT,900,BKN,2600,OVC,7000,,,IFR,,,,,,,,,,,,METAR,1393.0
KFMH 220655Z AUTO 22012G19KT 4SM BR FEW025 OVC034 05/05 A3012 RMK AO2 FZRANO,KFMH,2015-02-22T06:55:00Z,41.63,-70.52,5.0,5.0,220,12,19,4.0,30.121063,,,TRUE,TRUE,,,,TRUE,,BR,FEW,2500,OVC,3400,,,,,MVFR,,,,,,,,,,,,METAR,40.0
KFKL 220655Z AUTO 00000KT 7SM OVC024 M06/M08 A3006 RMK AO1,KFKL,2015-02-22T06:55:00Z,41.37,-79.87,-6.0,-8.0,0,0,,7.0,30.059055,,,TRUE,TRUE,,,,,,,OVC,2400,,,,,,,MVFR,,,,,,,,,,,,METAR,469.0
KERY 220655Z AUTO 29005KT 10SM CLR M19/M20 A3011 RMK AO2 T11901202,KERY,2015-02-22T06:55:00Z,46.3,-85.45,-19.0,-20.2,290,5,,10.0,30.109253,,,TRUE,TRUE,,,,,,,CLR,,,,,,,,VFR,,,,,,,,,,,,METAR,265.0
KEDC 220655Z AUTO 04006KT 10SM OVC024 12/08 A3000 RMK AO2,KEDC,2015-02-22T06:55:00Z,30.4,-97.57,12.0,8.0,40,6,,10.0,30.0,,,TRUE,TRUE,,,,,,,OVC,2400,,,,,,,MVFR,,,,,,,,,,,,METAR,189.0
KE80 220655Z AUTO 32006KT 10SM CLR 05/M09 A2993 RMK AO2 T00511095,KE80,2015-02-22T06:55:00Z,34.65,-106.83,5.1,-9.5,320,6,,10.0,29.929134,,,TRUE,TRUE,,,,,,,CLR,,,,,,,,VFR,,,,,,,,,,,,METAR,1582.0
KWRI 220655Z 22007KT 10SM -RA OVC004 01/00 A3012 RMK AO2A SLP202,KWRI,2015-02-22T06:55:00Z,40.02,-74.58,1.0,0.0,220,7,,10.0,30.121063,1020.2,,,TRUE,,,,,,-RA,OVC,400,,,,,,,LIFR,,,,,,,,,,,,METAR,41.0
KBYS 220655Z AUTO 22011G18KT 10SM CLR 12/04 A2973 RMK AO2 SLP058 T01160040 $,KBYS,2015-02-22T06:55:00Z,35.28,-116.62,11.6,4.0,220,11,18,10.0,29.731298,1005.8,,TRUE,TRUE,TRUE,,,,,,CLR,,,,,,,,VFR,,,,,,,,,,,,METAR,716.0
KVBG 220655Z AUTO 19003KT 10SM OVC024 13/11 A2990 RMK AO2 SLP115 T01330106 TSNO $,KVBG,2015-02-22T06:55:00Z,34.73,-120.58,13.3,10.6,190,3,,10.0,29.899607,1011.5,,TRUE,TRUE,TRUE,,TRUE,,,,OVC,2400,,,,,,,MVFR,,,,,,,,,,,,METAR,112.0
KOAJ 220655Z AUTO 17005KT 10SM SCT035 12/11 A3022 RMK AO1,KOAJ,2015-02-22T06:55:00Z,34.82,-77.62,12.0,11.0,170,5,,10.0,30.221457,,,TRUE,TRUE,,,,,,,SCT,3500,,,,,,,VFR,,,,,,,,,,,,METAR,29.0
KMYR 220655Z AUTO 17006KT 10SM SCT065 13/11 A3022 RMK AO1,KMYR,2015-02-22T06:55:00Z,33.67,-78.92,13.0,11.0,170,6,,10.0,30.221457,,,TRUE,TRUE,,,,,,,SCT,6500,,,,,,,VFR,,,,,,,,,,,,METAR,8.0
KMVN 220655Z AUTO 00000KT 10SM OVC035 M01/M04 A3023 RMK AO1,KMVN,2015-02-22T06:55:00Z,38.32,-88.87,-1.0,-4.0,0,0,,10.0,30.230314,,,TRUE,TRUE,,,,,,,OVC,3500,,,,,,,VFR,,,,,,,,,,,,METAR,146.0
KMRF 220655Z AUTO 30004KT 10SM CLR 08/03 A2998 RMK AO1,KMRF,2015-02-22T06:55:00Z,30.37,-104.02,8.0,3.0,300,4,,10.0,29.97933,,,TRUE,TRUE,,,,,,,CLR,,,,,,,,VFR,,,,,,,,,,,,METAR,1481.0
KMNM 220655Z AUTO 34004KT 10SM OVC049 M13/M19 A3021 RMK AO1,KMNM,2015-02-22T06:55:00Z,45.12,-87.62,-13.0,-19.0,340,4,,10.0,30.209646,,,TRUE,TRUE,,,,,,,OVC,4900,,,,,,,VFR,,,,,,,,,,,,METAR,191.0
KMML 220655Z AUTO 34008KT 10SM CLR M18/M22 A3046 RMK AO1,KMML,2015-02-22T06:55:00Z,44.45,-95.82,-18.0,-22.0,340,8,,10.0,30.46063,,,TRUE,TRUE,,,,,,,CLR,,,,,,,,VFR,,,,,,,,,,,,METAR,359.0
KMKY 220655Z AUTO 10005KT 10SM CLR 15/13 A3015 RMK AO1,KMKY,2015-02-22T06:55:00Z,26.0,-81.67,15.0,13.0,100,5,,10.0,30.15059,,,TRUE,TRUE,,,,,,,CLR,,,,,,,,VFR,,,,,,,,,,,,METAR,2.0
KMKT 220655Z AUTO 33012KT 10SM CLR M18/M24 A3040 RMK AO1,KMKT,2015-02-22T06:55:00Z,44.22,-93.92,-18.0,-24.0,330,12,,10.0,30.398623,,,TRUE,TRUE,,,,,,,CLR,,,,,,,,VFR,,,,,,,,,,,,METAR,311.0
KMBL 220655Z AUTO 05007KT 4SM BKN020 M09/M13 A3016 RMK AO1,KMBL,2015-02-22T06:55:00Z,44.27,-86.25,-9.0,-13.0,50,7,,4.0,30.159449,,,TRUE,TRUE,,,,,,,BKN,2000,,,,,,,MVFR,,,,,,,,,,,,METAR,189.0
KLPC 220655Z AUTO 00000KT 10SM BKN025 OVC034 14/09 A2990 RMK AO1,KLPC,2015-02-22T06:55:00Z,34.67,-120.47,14.0,9.0,0,0,,10.0,29.899607,,,TRUE,TRUE,,,,,,,BKN,2500,OVC,3400,,,,,MVFR,,,,,,,,,,,,METAR,27.0
KLKV 220655Z 35016G19KT 10SM CLR M02/M07 A3012 RMK AO1,KLKV,2015-02-22T06:55:00Z,42.17,-120.4,-2.0,-7.0,350,16,19,10.0,30.121063,,,,TRUE,,,,,,,CLR,,,,,,,,VFR,,,,,,,,,,,,METAR,1441.0
KLGD 220655Z AUTO 36017KT 10SM CLR M01/M10 A3028 RMK AO1,KLGD,2015-02-22T06:55:00Z,45.27,-118.0,-1.0,-10.0,360,17,,10.0,30.280512,,,TRUE,TRUE,,,,,,,CLR,,,,,,,,VFR,,,,,,,,,,,,METAR,827.0
KLEW 220655Z AUTO 00000KT 3SM FEW024 BKN033 OVC040 M06/M07 A3008 RMK AO1,KLEW,2015-02-22T06:55:00Z,44.03,-70.27,-6.0,-7.0,0,0,,3.0,30.079725,,,TRUE,TRUE,,,,,,,FEW,2400,BKN,3300,OVC,4000,,,MVFR,,,,,,,,,,,,METAR,88.0
KLCI 220655Z AUTO 00000KT 4SM FEW019 SCT023 OVC070 M06/M08 A3007 RMK AO1,KLCI,2015-02-22T06:55:00Z,43.57,-71.42,-6.0,-8.0,0,0,,4.0,30.070866,,,TRUE,TRUE,,,,,,,FEW,1900,SCT,2300,OVC,7000,,,MVFR,,,,,,,,,,,,METAR,166.0
KLBL 220655Z AUTO 05017G26KT 1 3/4SM OVC004 01/M03 A3016 RMK AO1 P0003,KLBL,2015-02-22T06:55:00Z,37.03,-100.97,1.0,-3.0,50,17,26,1.75,30.159449,,,TRUE,TRUE,,,,,,,OVC,400,,,,,,,LIFR,,,,,,0.03,,,,,,METAR,879.0
KKLS 220655Z 00000KT 10SM CLR 03/01 A3044 RMK AO1,KKLS,2015-02-22T06:55:00Z,46.12,-122.9,3.0,1.0,0,0,,10.0,30.43996,,,,TRUE,,,,,,,CLR,,,,,,,,VFR,,,,,,,,,,,,METAR,5.0
K7N0 220655Z AUTO 18006KT 10SM CLR A3004 RMK AO1,K7N0,2015-02-22T06:55:00Z,29.95,-90.07,,,180,6,,10.0,30.041338,,,TRUE,TRUE,,,,,,,CLR,,,,,,,,VFR,,,,,,,,,,,,METAR,0.0
KYKN 220655Z AUTO 34012G17KT 10SM CLR M13/M18 A3051 RMK AO1,KYKN,2015-02-22T06:55:00Z,42.92,-97.37,-13.0,-18.0,340,12,17,10.0,30.510826,,,TRUE,TRUE,,,,,,,CLR,,,,,,,,VFR,,,,,,,,,,,,METAR,398.0
KWVL 220655Z 27003KT OVC018 M05/M07 A3007 RMK AO1,KWVL,2015-02-22T06:55:00Z,44.52,-69.67,-5.0,-7.0,270,3,,,30.070866,,,,TRUE,,,,,,,OVC,1800,,,,,,,,,,,,,,,,,,,METAR,101.0
KRCV 220655Z AUTO 00000KT 10SM BKN043 OVC100 M04/M07 A2996 RMK AO2 T10361072 400181080,KRCV,2015-02-22T06:55:00Z,37.72,-106.35,-3.6,-7.2,0,0,,10.0,29.958662,,,TRUE,TRUE,,,,,,,BKN,4300,OVC,10000,,,,,VFR,,,,1.8,-8.0,,,,,,,METAR,2424.0
KJHN 220655Z AUTO 03021KT 2SM -SN BKN007 OVC013 M04/M05 A3019 RMK AO2 T10361046,KJHN,2015-02-22T06:55:00Z,37.58,-101.73,-3.6,-4.6,30,21,,2.0,30.188976,,,TRUE,TRUE,,,,,,-SN,BKN,700,OVC,1300,,,,,IFR,,,,,,,,,,,,METAR,1013.0
KJHW 220655Z 00000KT 10SM BKN012 OVC034 M08/M09 A3002 RMK AO1,KJHW,2015-02-22T06:55:00Z,42.13,-79.27,-8.0,-9.0,0,0,,10.0,30.02067,,,,TRUE,,,,,,,BKN,1200,OVC,3400,,,,,MVFR,,,,,,,,,,,,METAR,525.0
KM91 220655Z AUTO 04006KT 10SM OVC005 M01/M01 A3015 RMK,KM91,2015-02-22T06:55:00Z,36.53,-86.92,-1.0,-1.0,40,6,,10.0,30.15059,,,TRUE,,,,,,,,OVC,500,,,,,,,IFR,,,,,,,,,,,,METAR,215.0
KLWA 220655Z AUTO 00000KT 10SM SCT050 OVC065 M02/M06 A3014 RMK AO2 T10251065,KLWA,2015-02-22T06:55:00Z,42.35,-86.25,-2.5,-6.5,0,0,,10.0,30.138779,,,TRUE,TRUE,,,,,,,SCT,5000,OVC,6500,,,,,VFR,,,,,,,,,,,,METAR,203.0
KLDM 220655Z AUTO 04006KT 2 1/2SM -SN SCT010 OVC022 M08/M10 A3015 RMK AO2 T10771102,KLDM,2015-02-22T06:55:00Z,43.97,-86.4,-7.7,-10.2,40,6,,2.5,30.15059,,,TRUE,TRUE,,,,,,-SN,SCT,1000,OVC,2200,,,,,IFR,,,,,,,,,,,,METAR,197.0
KJYM 220655Z AUTO 00000KT 7SM OVC026 M06/M08 A3009 RMK AO2 T10611084,KJYM,2015-02-22T06:55:00Z,41.92,-84.58,-6.1,-8.4,0,0,,7.0,30.088583,,,TRUE,TRUE,,,,,,,OVC,2600,,,,,,,MVFR,,,,,,,,,,,,METAR,360.0
KJYG 220655Z AUTO 32014G25KT 10SM CLR M17/M21 A3044 RMK AO2,KJYG,2015-02-22T06:55:00Z,43.98,-94.55,-17.0,-21.0,320,14,25,10.0,30.43996,,,TRUE,TRUE,,,,,,,CLR,,,,,,,,VFR,,,,,,,,,,,,METAR,325.0
KIKV 220655Z AUTO 34013KT 10SM CLR M12/M19 A3040 RMK AO2,KIKV,2015-02-22T06:55:00Z,41.68,-93.57,-12.0,-19.0,340,13,,10.0,30.398623,,,TRUE,TRUE,,,,,,,CLR,,,,,,,,VFR,,,,,,,,,,,,METAR,275.0
KIKK 220655Z AUTO 27006KT 5SM BR OVC034 M02/M03 A3020 RMK AO2 T10211035,KIKK,2015-02-22T06:55:00Z,41.07,-87.85,-2.1,-3.5,270,6,,5.0,30.200787,,,TRUE,TRUE,,,,,,BR,OVC,3400,,,,,,,MVFR,,,,,,,,,,,,METAR,192.0
KIJX 220655Z AUTO 33011KT 10SM OVC020 00/M05 A3025 RMK AO2 T10051048,KIJX,2015-02-22T06:55:00Z,39.77,-90.25,-0.5,-4.8,330,11,,10.0,30.250984,,,TRUE,TRUE,,,,,,,OVC,2000,,,,,,,MVFR,,,,,,,,,,,,METAR,190.0
KIIB 220655Z AUTO 32011G17KT 10SM CLR M13/M16 A3033 RMK AO2,KIIB,2015-02-22T06:55:00Z,42.45,-91.95,-13.0,-16.0,320,11,17,10.0,30.33071,,,TRUE,TRUE,,,,,,,CLR,,,,,,,,VFR,,,,,,,,,,,,METAR,298.0
KIDP 220655Z AUTO 03014G21KT 10SM SCT035 BKN050 OVC090 02/M02 A3027 RMK AO2,KIDP,2015-02-22T06:55:00Z,37.17,-95.78,2.0,-2.0,30,14,21,10.0,30.268702,,,TRUE,TRUE,,,,,,,SCT,3500,BKN,5000,OVC,9000,,,VFR,,,,,,,,,,,,METAR,251.0
K4I3 220655Z AUTO 32004KT 5SM BR BKN005 OVC014 M07/M07 A3009 RMK AO2,K4I3,2015-02-22T06:55:00Z,40.33,-82.53,-7.0,-7.0,320,4,,5.0,30.088583,,,TRUE,TRUE,,,,,,BR,BKN,500,OVC,1400,,,,,IFR,,,,,,,,,,,,METAR,363.0
K1S5 220655Z AUTO 09003KT 10SM CLR 02/M11 A3048 RMK AO2 T00231114,K1S5,2015-02-22T06:55:00Z,46.33,-119.97,2.3,-11.4,90,3,,10.0,30.481298,,,TRUE,TRUE,,,,,,,CLR,,,,,,,,VFR,,,,,,,,,,,,METAR,234.0
K0A9 220655Z AUTO 06005KT 10SM OVC048 03/03 A3005 RMK,K0A9,2015-02-22T06:55:00Z,36.37,-82.17,3.0,3.0,60,5,,10.0,30.050198,,,TRUE,,,,,,,,OVC,4800,,,,,,,VFR,,,,,,,,,,,,METAR,486.0
KMEZ 220655Z AUTO 08003KT 1/2SM VV005 02/01 A3012 RMK AO2,KMEZ,2015-02-22T06:55:00Z,34.55,-94.2,2.0,1.0,80,3,,0.5,30.121063,,,TRUE,TRUE,,,,,,,OVX,0,,,,,,,LIFR,,,,,,,,,,,500,METAR,329.0
KACB 220655Z AUTO 01003KT 7SM OVC043 M11/M15 A3017 RMK AO2 T11101146,KACB,2015-02-22T06:55:00Z,44.98,-85.2,-11.0,-14.6,10,3,,7.0,30.171259,,,TRUE,TRUE,,,,,,,OVC,4300,,,,,,,VFR,,,,,,,,,,,,METAR,190.0
K6L4 220655Z AUTO 00000KT 1 1/4SM BR OVC021 04/04 A3005 RMK AO2,K6L4,2015-02-22T06:55:00Z,37.85,-81.92,4.0,4.0,0,0,,1.25,30.050198,,,TRUE,TRUE,,,,,,BR,OVC,2100,,,,,,,IFR,,,,,,,,,,,,METAR,508.0
KAFJ 220655Z AUTO 24003KT 2 1/2SM BKN003 OVC110 01/00 A3007 RMK AO1,KAFJ,2015-02-22T06:55:00Z,40.12,-80.27,1.0,0.0,240,3,,2.5,30.070866,,,TRUE,TRUE,,,,,,,BKN,300,OVC,11000,,,,,LIFR,,,,,,,,,,,,METAR,361.0
KAEG 220655Z AUTO 01008KT 10SM CLR 03/M09 A2996 RMK AO2 T00311088 401751025,KAEG,2015-02-22T06:55:00Z,35.13,-106.8,3.1,-8.8,10,8,,10.0,29.958662,,,TRUE,TRUE,,,,,,,CLR,,,,,,,,VFR,,,,17.5,-2.5,,,,,,,METAR,1779.0
KALM 220655Z AUTO 19008KT 10SM CLR 14/M02 A2992 RMK AO2,KALM,2015-02-22T06:55:00Z,32.82,-105.97,14.0,-2.0,190,8,,10.0,29.920275,,,TRUE,TRUE,,,,,,,CLR,,,,,,,,VFR,,,,,,,,,,,,METAR,1279.0
KAQX 220655Z AUTO 00000KT 10SM CLR 12/09 A3017 RMK AO2,KAQX,2015-02-22T06:55:00Z,32.98,-81.27,12.0,9.0,0,0,,10.0,30.171259,,,TRUE,TRUE,,,,,,,CLR,,,,,,,,VFR,,,,,,,,,,,,METAR,49.0
KATS 220655Z AUTO 14008KT 10SM CLR 11/03 A2987 RMK AO2,KATS,2015-02-22T06:55:00Z,32.85,-104.47,11.0,3.0,140,8,,10.0,29.870079,,,TRUE,TRUE,,,,,,,CLR,,,,,,,,VFR,,,,,,,,,,,,METAR,1081.0
KBDH 220655Z AUTO 31005KT 10SM CLR M20/M24 A3045 RMK AO2,KBDH,2015-02-22T06:55:00Z,45.12,-95.13,-20.0,-24.0,310,5,,10.0,30.448818,,,TRUE,TRUE,,,,,,,CLR,,,,,,,,VFR,,,,,,,,,,,,METAR,247.0
KBLM 220655Z AUTO 24004KT 8SM FEW006 OVC015 01/M02 A3014 RMK AO1 P0002,KBLM,2015-02-22T06:55:00Z,40.17,-74.12,1.0,-2.0,240,4,,8.0,30.138779,,,TRUE,TRUE,,,,,,,FEW,600,OVC,1500,,,,,MVFR,,,,,,0.02,,,,,,METAR,48.0
KBGF 220655Z AUTO 32003KT 4SM OVC006 04/04 A3009 RMK,KBGF,2015-02-22T06:55:00Z,35.18,-86.07,4.0,4.0,320,3,,4.0,30.088583,,,TRUE,,,,,,,,OVC,600,,,,,,,IFR,,,,,,,,,,,,METAR,299.0
KBOW 220655Z AUTO 00000KT 10SM CLR 12/12 A3020 RMK AO2,KBOW,2015-02-22T06:55:00Z,27.93,-81.77,12.0,12.0,0,0,,10.0,30.200787,,,TRUE,TRUE,,,,,,,CLR,,,,,,,,VFR,,,,,,,,,,,,METAR,39.0
KBNL 220655Z AUTO 00000KT CLR 13/09 A3018 RMK AO2,KBNL,2015-02-22T06:55:00Z,33.25,-81.38,13.0,9.0,0,0,,,30.180119,,,TRUE,TRUE,,,,,,,CLR,,,,,,,,,,,,,,,,,,,,METAR,75.0
KBTP 220655Z AUTO 32003KT 6SM OVC006 M02/M03 A3007 RMK AO1 P0001,KBTP,2015-02-22T06:55:00Z,40.77,-79.95,-2.0,-3.0,320,3,,6.0,30.070866,,,TRUE,TRUE,,,,,,,OVC,600,,,,,,,IFR,,,,,,0.01,,,,,,METAR,380.0
KCAD 220655Z AUTO 01006KT 10SM -SN BKN020 OVC045 M12/M14 A3008 RMK AO2 T11191146,KCAD,2015-02-22T06:55:00Z,44.27,-85.42,-11.9,-14.6,10,6,,10.0,30.079725,,,TRUE,TRUE,,,,,,-SN,BKN,2000,OVC,4500,,,,,MVFR,,,,,,,,,,,,METAR,398.0
KBVU 220655Z AUTO 05004KT 10SM CLR 12/00 A2971 RMK AO2,KBVU,2015-02-22T06:55:00Z,35.95,-114.87,12.0,0.0,50,4,,10.0,29.71063,,,TRUE,TRUE,,,,,,,CLR,,,,,,,,VFR,,,,,,,,,,,,METAR,671.0
KCIC 220655Z AUTO 04004KT 10SM CLR 08/07 A2989 RMK AO1,KCIC,2015-02-22T06:55:00Z,39.78,-121.83,8.0,7.0,40,4,,10.0,29.890747,,,TRUE,TRUE,,,,,,,CLR,,,,,,,,VFR,,,,,,,,,,,,METAR,73.0
KCBG 220655Z AUTO 30007KT 10SM CLR M19/M25 A3038 RMK AO2,KCBG,2015-02-22T06:55:00Z,45.57,-93.27,-19.0,-25.0,300,7,,10.0,30.380905,,,TRUE,TRUE,,,,,,,CLR,,,,,,,,VFR,,,,,,,,,,,,METAR,287.0
KCKN 220655Z AUTO 35012KT 10SM CLR M27/M31 A3058 RMK AO2,KCKN,2015-02-22T06:55:00Z,47.85,-96.62,-27.0,-31.0,350,12,,10.0,30.578741,,,TRUE,TRUE,,,,,,,CLR,,,,,,,,VFR,,,,,,,,,,,,METAR,273.0
KCQW 220655Z AUTO 00000KT 10SM FEW100 07/07 A3016 RMK AO2,KCQW,2015-02-22T06:55:00Z,34.72,-79.95,7.0,7.0,0,0,,10.0,30.159449,,,TRUE,TRUE,,,,,,,FEW,10000,,,,,,,VFR,,,,,,,,,,,,METAR,73.0
KRNP 220655Z AUTO 26003KT 5SM BR OVC015 M05/M07 A3010 RMK AO2 T10491068,KRNP,2015-02-22T06:55:00Z,43.0,-84.13,-4.9,-6.8,260,3,,5.0,30.100393,,,TRUE,TRUE,,,,,,BR,OVC,1500,,,,,,,MVFR,,,,,,,,,,,,METAR,224.0
KPVE 220655Z AUTO 02006KT 10SM OVC008 00/M01 A3013 RMK,KPVE,2015-02-22T06:55:00Z,35.65,-88.2,0.0,-1.0,20,6,,10.0,30.129921,,,TRUE,,,,,,,,OVC,800,,,,,,,IFR,,,,,,,,,,,,METAR,149.0
KPSO 220655Z AUTO 17003KT 2SM -VCTSSN OVC013 M01/M02 A2997 RMK AO2 T10121020,KPSO,2015-02-22T06:55:00Z,37.28,-107.05,-1.2,-2.0,170,3,,2.0,29.970472,,,TRUE,TRUE,,,,,,VCTS -SN,OVC,1300,,,,,,,IFR,,,,,,,,,,,,METAR,2334.0
KPHT 220655Z AUTO 02013KT 10SM OVC008 M02/M03 A3019 RMK,KPHT,2015-02-22T06:55:00Z,36.33,-88.38,-2.0,-3.0,20,13,,10.0,30.188976,,,TRUE,,,,,,,,OVC,800,,,,,,,IFR,,,,,,,,,,,,METAR,177.0
KPAN 220655Z AUTO 00000KT 10SM CLR 08/M00 A2992 RMK AO2,KPAN,2015-02-22T06:55:00Z,34.25,-111.33,8.0,0.0,0,0,,10.0,29.920275,,,TRUE,TRUE,,,,,,,CLR,,,,,,,,VFR,,,,,,,,,,,,METAR,1572.0
KOZW 220655Z AUTO 24003KT 5SM BR SCT016 OVC029 M06/M08 A3009 RMK AO2 T10621081,KOZW,2015-02-22T06:55:00Z,42.62,-83.97,-6.2,-8.1,240,3,,5.0,30.088583,,,TRUE,TRUE,,,,,,BR,SCT,1600,OVC,2900,,,,,MVFR,,,,,,,,,,,,METAR,293.0
KOKK 220655Z AUTO 21005KT 6SM FEW027 M04/M06 A3017 RMK AO1,KOKK,2015-02-22T06:55:00Z,40.53,-86.07,-4.0,-6.0,210,5,,6.0,30.171259,,,TRUE,TRUE,,,,,,,FEW,2700,,,,,,,VFR,,,,,,,,,,,,METAR,253.0
KMSV 220655Z AUTO 00000KT 3SM FEW017 BKN024 OVC039 M07/M07 A3007 RMK AO1,KMSV,2015-02-22T06:55:00Z,41.7,-74.78,-7.0,-7.0,0,0,,3.0,30.070866,,,TRUE,TRUE,,,,,,,FEW,1700,BKN,2400,OVC,3900,,,MVFR,,,,,,,,,,,,METAR,428.0
KMRC 220655Z AUTO 01005KT OVC006 A3010 RMK,KMRC,2015-02-22T06:55:00Z,35.55,-87.18,,,10,5,,,30.100393,,,TRUE,,,,,,,,OVC,600,,,,,,,,,,,,,,,,,,,METAR,208.0
KMOP 220655Z AUTO 00000KT 10SM BKN021 OVC085 M06/M08 A3010 RMK AO2 T10561083,KMOP,2015-02-22T06:55:00Z,43.62,-84.73,-5.6,-8.3,0,0,,10.0,30.100393,,,TRUE,TRUE,,,,,,,BKN,2100,OVC,8500,,,,,MVFR,,,,,,,,,,,,METAR,230.0
KMNI 220655Z AUTO 00000KT 10SM CLR 11/08 A3018 RMK AO2,KMNI,2015-02-22T06:55:00Z,33.58,-80.22,11.0,8.0,0,0,,10.0,30.180119,,,TRUE,TRUE,,,,,,,CLR,,,,,,,,VFR,,,,,,,,,,,,METAR,32.0
KMJX 220655Z AUTO 22004KT 9SM OVC015 01/00 A3015 RMK AO1 P0007,KMJX,2015-02-22T06:55:00Z,39.93,-74.3,1.0,0.0,220,4,,9.0,30.15059,,,TRUE,TRUE,,,,,,,OVC,1500,,,,,,,MVFR,,,,,,0.07,,,,,,METAR,25.0
KMGN 220655Z AUTO 00000KT 10SM SCT055 M13/M17 A3016 RMK AO2 T11361170,KMGN,2015-02-22T06:55:00Z,45.43,-84.92,-13.6,-17.0,0,0,,10.0,30.159449,,,TRUE,TRUE,,,,,,,SCT,5500,,,,,,,VFR,,,,,,,,,,,,METAR,209.0
KDYB 220655Z AUTO 18004KT 10SM CLR 12/10 A3019 RMK AO1,KDYB,2015-02-22T06:55:00Z,33.07,-80.28,12.0,10.0,180,4,,10.0,30.188976,,,TRUE,TRUE,,,,,,,CLR,,,,,,,,VFR,,,,,,,,,,,,METAR,18.0
KDWU 220655Z AUTO 34003KT 10SM OVC008 02/01 A3010 RMK AO1 P0002,KDWU,2015-02-22T06:55:00Z,38.55,-82.73,2.0,1.0,340,3,,10.0,30.100393,,,TRUE,TRUE,,,,,,,OVC,800,,,,,,,IFR,,,,,,0.02,,,,,,METAR,166.0
KDUH 220655Z AUTO 00000KT 5SM BR SCT037 OVC090 M12/M14 A3015 RMK AO2,KDUH,2015-02-22T06:55:00Z,41.73,-83.65,-12.0,-14.0,0,0,,5.0,30.15059,,,TRUE,TRUE,,,,,,BR,SCT,3700,OVC,9000,,,,,MVFR,,,,,,,,,,,,METAR,204.0
KDTL 220655Z AUTO 33010KT 2 1/2SM HZ OVC003 M25/M28 A3045 RMK AO2,KDTL,2015-02-22T06:55:00Z,46.82,-95.87,-25.0,-28.0,330,10,,2.5,30.448818,,,TRUE,TRUE,,,,,,HZ,OVC,300,,,,,,,LIFR,,,,,,,,,,,,METAR,426.0
KDRM 220655Z AUTO 30003KT 10SM BKN100 M14/M16 A3011 RMK AO2 T11371165,KDRM,2015-02-22T06:55:00Z,46.0,-83.75,-13.7,-16.5,300,3,,10.0,30.109253,,,TRUE,TRUE,,,,,,,BKN,10000,,,,,,,VFR,,,,,,,,,,,,METAR,204.0
KD57 220655Z AUTO 34012G17KT 10SM FEW004 SCT008 SCT015 M22/M27 A3055 RMK AO2,KD57,2015-02-22T06:55:00Z,46.82,-101.87,-22.0,-27.0,340,12,17,10.0,30.549213,,,TRUE,TRUE,,,,,,,FEW,400,SCT,800,SCT,1500,,,VFR,,,,,,,,,,,,METAR,637.0
KSEM 220655Z AUTO 03005KT 3SM -RA 15/14 A3007 RMK AO2,KSEM,2015-02-22T06:55:00Z,32.35,-86.98,15.0,14.0,30,5,,3.0,30.070866,,,TRUE,TRUE,,,,,,-RA,,,,,,,,,,,,,,,,,,,,,METAR,51.0
KSNH 220655Z AUTO 01008KT 10SM OVC006 02/01 A3013 RMK,KSNH,2015-02-22T06:55:00Z,35.17,-88.22,2.0,1.0,10,8,,10.0,30.129921,,,TRUE,,,,,,,,OVC,600,,,,,,,IFR,,,,,,,,,,,,METAR,144.0
KSMS 220655Z AUTO 17005KT 10SM CLR 11/08 A3017 RMK AO2,KSMS,2015-02-22T06:55:00Z,34.0,-80.37,11.0,8.0,170,5,,10.0,30.171259,,,TRUE,TRUE,,,,,,,CLR,,,,,,,,VFR,,,,,,,,,,,,METAR,56.0
KSPL 220655Z AUTO 00000KT 1/2SM VV005 18/18 A2995 RMK AO1,KSPL,2015-02-22T06:55:00Z,26.07,-97.15,18.0,18.0,0,0,,0.5,29.949802,,,TRUE,TRUE,,,,,,,OVX,0,,,,,,,LIFR,,,,,,,,,,,500,METAR,4.0
KSUA 220655Z AUTO 00000KT 10SM CLR 16/13 A3019 RMK AO2,KSUA,2015-02-22T06:55:00Z,27.18,-80.22,16.0,13.0,0,0,,10.0,30.188976,,,TRUE,TRUE,,,,,,,CLR,,,,,,,,VFR,,,,,,,,,,,,METAR,6.0
KTHA 220655Z AUTO 36005KT 3SM OVC003 03/02 A3009 RMK,KTHA,2015-02-22T06:55:00Z,35.38,-86.25,3.0,2.0,360,5,,3.0,30.088583,,,TRUE,,,,,,,,OVC,300,,,,,,,LIFR,,,,,,,,,,,,METAR,331.0
KTEX 220655Z AUTO 13004KT 10SM BKN060 OVC070 M04/M10 A2995 RMK AO2 T10401103,KTEX,2015-02-22T06:55:00Z,37.95,-107.9,-4.0,-10.3,130,4,,10.0,29.949802,,,TRUE,TRUE,,,,,,,BKN,6000,OVC,7000,,,,,VFR,,,,,,,,,,,,METAR,2769.0
KUKT 220655Z AUTO 00000KT 4SM OVC008 M03/M03 A3012 RMK AO1 P0002,KUKT,2015-02-22T06:55:00Z,40.43,-75.38,-3.0,-3.0,0,0,,4.0,30.121063,,,TRUE,TRUE,,,,,,,OVC,800,,,,,,,IFR,,,,,,0.02,,,,,,METAR,160.0
KUYF 220655Z AUTO 31003KT 1/4SM FZFG OVC001 M11/M12 A3012 RMK AO2,KUYF,2015-02-22T06:55:00Z,39.93,-83.47,-11.0,-12.0,310,3,,0.25,30.121063,,,TRUE,TRUE,,,,,,FZFG,OVC,100,,,,,,,LIFR,,,,,,,,,,,,METAR,330.0
KWWD 220655Z AUTO 23005KT 4SM BKN006 BKN023 OVC050 02/00 A3015 RMK AO1 P0003,KWWD,2015-02-22T06:55:00Z,39.02,-74.92,2.0,0.0,230,5,,4.0,30.15059,,,TRUE,TRUE,,,,,,,BKN,600,BKN,2300,OVC,5000,,,IFR,,,,,,0.03,,,,,,METAR,7.0
PACZ 220655Z AUTO 17024G32KT 1SM -SHRA BR OVC002 02/02 A2936 RMK AO2 PK WND 16034/0643 RAB0434E0614DZB0614E0648SHRAB0648 SLP948 P0000 T00150015,PACZ,2015-02-22T06:55:00Z,61.78,-166.03,1.5,1.5,170,24,32,1.0,29.359253,994.8,,TRUE,TRUE,,,,,,-SHRA BR,OVC,200,,,,,,,LIFR,,,,,,0.0050,,,,,,METAR,146.0
PALU 220655Z AUTO 09013KT 040V120 1 3/4SM -SN BKN009 M12/M13 A2979 RMK AO2 SNB0556 SLP086 P0000 T11221135,PALU,2015-02-22T06:55:00Z,68.88,-166.13,-12.2,-13.5,90,13,,1.75,29.790354,1008.6,,TRUE,TRUE,,,,,,-SN,BKN,900,,,,,,,IFR,,,,,,0.0050,,,,,,METAR,3.0
PAEH 220655Z AUTO 16024G31KT 130V190 10SM CLR 06/02 A2948 RMK AO2 PK WND 14033/0622 SLP990 T00640024 TSNO $,PAEH,2015-02-22T06:55:00Z,58.65,-162.07,6.4,2.4,160,24,31,10.0,29.480314,999.0,,TRUE,TRUE,TRUE,,TRUE,,,,CLR,,,,,,,,VFR,,,,,,,,,,,,METAR,161.0
PATL 220655Z AUTO 11004KT 10SM -SHRA FEW040 BKN065 02/00 A2976 RMK AO2 SHRAB0355 SLP091 P0001 T00181003 $,PATL,2015-02-22T06:55:00Z,62.9,-155.97,1.8,-0.3,110,4,,10.0,29.760826,1009.1,,TRUE,TRUE,TRUE,,,,,-SHRA,FEW,4000,BKN,6500,,,,,VFR,,,,,,0.01,,,,,,METAR,294.0
PASV 220655Z AUTO 17009KT 10SM FEW034 BKN060 06/00 A2972 RMK AO2 SLP072 T00621001,PASV,2015-02-22T06:55:00Z,61.1,-155.57,6.2,-0.1,170,9,,10.0,29.719488,1007.2,,TRUE,TRUE,,,,,,,FEW,3400,BKN,6000,,,,,VFR,,,,,,,,,,,,METAR,484.0
KNBG 220655Z AUTO 20005KT 9SM CLR 16/14 A3004 RMK AO2 SLP170 T01560139 $,KNBG,2015-02-22T06:55:00Z,29.82,-90.02,15.6,13.9,200,5,,9.0,30.041338,1017.0,,TRUE,TRUE,TRUE,,,,,,CLR,,,,,,,,VFR,,,,,,,,,,,,METAR,1.0
KNKX 220655Z 25006KT 10SM OVC040 15/07 A2994 RMK AO2 SLP136 T01500072 $,KNKX,2015-02-22T06:55:00Z,32.87,-117.13,15.0,7.2,250,6,,10.0,29.940945,1013.6,,,TRUE,TRUE,,,,,,OVC,4000,,,,,,,VFR,,,,,,,,,,,,METAR,146.0
EHDL 220655Z AUTO 00000KT 2200 BR FEW093 M01/M02 Q1008 YLO,EHDL,2015-02-22T06:55:00Z,52.07,5.87,-1.0,-2.0,0,0,,1.37,29.763779,,,TRUE,,,,,,,BR,FEW,9300,,,,,,,IFR,,,,,,,,,,,,METAR,52.0
EHGR 220655Z AUTO 22005KT 2300 BR OVC370 M00/M00 Q1009 YLO,EHGR,2015-02-22T06:55:00Z,51.57,4.92,0.0,0.0,220,5,,1.43,29.793306,,,TRUE,,,,,,,BR,OVC,37000,,,,,,,IFR,,,,,,,,,,,,METAR,13.0
EHLW 220655Z AUTO 22006KT 9999 NCD 00/M00 Q1006 BLU,EHLW,2015-02-22T06:55:00Z,53.22,5.75,0.0,0.0,220,6,,6.21,29.704725,,,TRUE,,,,,,,,,,,,,,,,,,,,,,,,,,,,METAR,2.0
EHVK 220655Z AUTO 20005KT 2500 BR BKN015 M01/M02 Q1009 YLO,EHVK,2015-02-22T06:55:00Z,51.63,5.7,-1.0,-2.0,200,5,,1.55,29.793306,,,TRUE,,,,,,,BR,BKN,1500,,,,,,,IFR,,,,,,,,,,,,METAR,21.0
EHVL 220655Z AUTO 26014KT 9999 // FEW086 SCT420 04/01 Q1006 BLU,EHVL,2015-02-22T06:55:00Z,53.23,4.92,4.0,1.0,260,14,,6.21,29.704725,,,TRUE,,,,,,,,FEW,8600,SCT,42000,,,,,VFR,,,,,,,,,,,,METAR,5.0
EHWO 220655Z AUTO 23005KT 2500 BR BKN012 M02/M02 Q1009 YLO,EHWO,2015-02-22T06:55:00Z,51.45,4.32,-2.0,-2.0,230,5,,1.55,29.793306,,,TRUE,,,,,,,BR,BKN,1200,,,,,,,IFR,,,,,,,,,,,,METAR,17.0
EHAM 220655Z 20008KT 9999 FEW016 00/M01 Q1008 NOSIG,EHAM,2015-02-22T06:55:00Z,52.32,4.78,0.0,-1.0,200,8,,6.21,29.763779,,,,,,TRUE,,,,,FEW,1600,,,,,,,VFR,,,,,,,,,,,,METAR,9.0
EHBK 220655Z AUTO 23007KT 1800 BR FEW003 SCT035 OVC041 01/00 Q1009 TEMPO 1200 BKN002,EHBK,2015-02-22T06:55:00Z,50.92,5.77,1.0,0.0,230,7,,1.12,29.793306,,,TRUE,,,,,,,BR,FEW,300,SCT,3500,OVC,4100,,,IFR,,,,,,,,,,,,METAR,116.0
EHGG 220655Z AUTO 21007KT 7000 NCD M01/M01 Q1006 NOSIG,EHGG,2015-02-22T06:55:00Z,53.12,6.57,-1.0,-1.0,210,7,,4.35,29.704725,,,TRUE,,,TRUE,,,,,,,,,,,,,,,,,,,,,,,,,METAR,4.0
EHRD 220655Z AUTO 20006KT 3100 BR NCD M00/M01 Q1008 TEMPO 4000,EHRD,2015-02-22T06:55:00Z,51.95,4.45,0.0,-1.0,200,6,,1.93,29.763779,,,TRUE,,,,,,,BR,,,,,,,,,,,,,,,,,,,,,METAR,-5.0
KQAY 220655Z AUTO 24015G23KT 9000 HZ FEW009 SCT029 11/03 A3009 RMK AO2 SLP188 T01140033 $,KQAY,2015-02-22T06:55:00Z,100.65,-1000.65,11.4,3.3,240,15,23,5.59,30.088583,1018.8,,TRUE,TRUE,TRUE,,,,,HZ,FEW,900,SCT,2900,,,,,VFR,,,,,,,,,,,,METAR,999.0
KQEA 220655Z AUTO 27008KT 240V300 10SM FEW039 30/20 A2986 RMK AO2 SLP109 T02950198,KQEA,2015-02-22T06:55:00Z,100.65,-1000.65,29.5,19.8,270,8,,10.0,29.861221,1010.9,,TRUE,TRUE,,,,,,,FEW,3900,,,,,,,VFR,,,,,,,,,,,,METAR,999.0
KQFG 220655Z AUTO VRB05KT 9999 FEW220 20/09 A3021 RMK AO2 SLP223 T02040087,KQFG,2015-02-22T06:55:00Z,100.65,-1000.65,20.4,8.7,0,5,,6.21,30.209646,1022.3,,TRUE,TRUE,,,,,,,FEW,22000,,,,,,,VFR,,,,,,,,,,,,METAR,999.0
KQQY 220655Z AUTO 28001KT 9999 BKN100 26/18 A2995 RMK AO2 SLP114 T02570177,KQQY,2015-02-22T06:55:00Z,100.65,-1000.65,25.7,17.7,280,1,,6.21,29.949802,1011.4,,TRUE,TRUE,,,,,,,BKN,10000,,,,,,,VFR,,,,,,,,,,,,METAR,999.0
KQSF 220655Z AUTO 10003KT 8000 FEW230 12/05 A3033 RMK AO2 SLP282 T01240047,KQSF,2015-02-22T06:55:00Z,100.65,-1000.65,12.4,4.7,100,3,,4.97,30.33071,1028.2,,TRUE,TRUE,,,,,,,FEW,23000,,,,,,,MVFR,,,,,,,,,,,,METAR,999.0
K1A9 220655Z AUTO 31005KT 5SM +RA OVC015 15/14 A3009 RMK AO2 P0004 T01480135,K1A9,2015-02-22T06:55:00Z,32.43,-86.52,14.8,13.5,310,5,,5.0,30.088583,,,TRUE,TRUE,,,,,,+RA,OVC,1500,,,,,,,MVFR,,,,,,0.04,,,,,,METAR,69.0
K2D5 220655Z AUTO 34012KT 10SM M20/M23 A3051 RMK AO2,K2D5,2015-02-22T06:55:00Z,46.17,-98.08,-20.0,-23.0,340,12,,10.0,30.510826,,,TRUE,TRUE,,,,,,,,,,,,,,,,,,,,,,,,,,,METAR,407.0
K3D2 220655Z AUTO 33006KT 10SM SCT045 SCT060 M13/M18 A3019 RMK AO2 T11351183,K3D2,2015-02-22T06:55:00Z,45.13,-87.18,-13.5,-18.3,330,6,,10.0,30.188976,,,TRUE,TRUE,,,,,,,SCT,4500,SCT,6000,,,,,VFR,,,,,,,,,,,,METAR,234.0
K42J 220655Z AUTO 14005KT 9SM CLR 13/11 A3019 RMK AO1 TSNO,K42J,2015-02-22T06:55:00Z,29.85,-82.05,13.0,11.0,140,5,,9.0,30.188976,,,TRUE,TRUE,,,TRUE,,,,CLR,,,,,,,,VFR,,,,,,,,,,,,METAR,60.0
K46D 220655Z AUTO 10SM CLR M26/M30 A3055 RMK AO2,K46D,2015-02-22T06:55:00Z,47.45,-99.15,-26.0,-30.0,,,,10.0,30.549213,,,TRUE,TRUE,,,,,,,CLR,,,,,,,,VFR,,,,,,,,,,,,METAR,490.0
K4M9 220655Z AUTO 00000KT 4SM BR OVC021 00/00 A3021 RMK AO2,K4M9,2015-02-22T06:55:00Z,36.4,-90.65,0.0,0.0,0,0,,4.0,30.209646,,,TRUE,TRUE,,,,,,BR,OVC,2100,,,,,,,MVFR,,,,,,,,,,,,METAR,90.0
K6A2 220655Z AUTO 20003KT 10SM OVC037 12/11 A3010 RMK AO2,K6A2,2015-02-22T06:55:00Z,33.23,-84.27,12.0,11.0,200,3,,10.0,30.100393,,,TRUE,TRUE,,,,,,,OVC,3700,,,,,,,VFR,,,,,,,,,,,,METAR,292.0
K7W4 220655Z AUTO 21004KT 5SM SCT006 OVC014 00/00 A3014 RMK AO1 T00020000,K7W4,2015-02-22T06:55:00Z,37.97,-77.75,0.2,0.0,210,4,,5.0,30.138779,,,TRUE,TRUE,,,,,,,SCT,600,OVC,1400,,,,,MVFR,,,,,,,,,,,,METAR,106.0
K82V 220655Z AUTO 02005KT 5SM -SN OVC026 M10/M12 A3027 RMK AO2,K82V,2015-02-22T06:55:00Z,41.15,-104.13,-10.0,-12.0,20,5,,5.0,30.268702,,,TRUE,TRUE,,,,,,-SN,OVC,2600,,,,,,,MVFR,,,,,,,,,,,,METAR,1570.0
K8W2 220655Z AUTO 27003KT 10SM OVC046 03/01 A3006 RMK AO1 T00250006,K8W2,2015-02-22T06:55:00Z,38.65,-78.7,2.5,0.6,270,3,,10.0,30.059055,,,TRUE,TRUE,,,,,,,OVC,4600,,,,,,,VFR,,,,,,,,,,,,METAR,297.0
KAAT 220655Z AUTO 02016G24KT 10SM CLR 01/M07 A3007 RMK AO2 SLP185 T00061072 $,KAAT,2015-02-22T06:55:00Z,41.48,-120.57,0.6,-7.2,20,16,24,10.0,30.070866,1018.5,,TRUE,TRUE,TRUE,,,,,,CLR,,,,,,,,VFR,,,,,,,,,,,,METAR,1331.0
KAIB 220655Z AUTO 00000KT 10SM OVC120 M01/M10 A2996 RMK AO2,KAIB,2015-02-22T06:55:00Z,38.23,-108.57,-1.0,-10.0,0,0,,10.0,29.958662,,,TRUE,TRUE,,,,,,,OVC,12000,,,,,,,VFR,,,,,,,,,,,,METAR,1811.0
KAJL 220655Z AUTO 08019G23KT M1/4SM SN OVC003 A2991 RMK AO2,KAJL,2015-02-22T06:55:00Z,43.67,-110.03,,,80,19,23,0.25,29.911417,,,TRUE,TRUE,,,,,,SN,OVC,300,,,,,,,LIFR,,,,,,,,,,,,METAR,3161.0
KAJZ 220655Z AUTO 33003KT 10SM CLR M01/M08 A2996 RMK AO2 T10081077,KAJZ,2015-02-22T06:55:00Z,38.78,-108.07,-0.8,-7.7,330,3,,10.0,29.958662,,,TRUE,TRUE,,,,,,,CLR,,,,,,,,VFR,,,,,,,,,,,,METAR,1583.0
KANJ 220655Z AUTO 26005KT 9SM BKN009 OVC019 M16/M18 A3010 RMK AO2 SLP206 T11561183,KANJ,2015-02-22T06:55:00Z,46.47,-84.37,-15.6,-18.3,260,5,,9.0,30.100393,1020.6,,TRUE,TRUE,,,,,,,BKN,900,OVC,1900,,,,,IFR,,,,,,,,,,,,METAR,218.0
KAST 220655Z AUTO 09005KT 7SM CLR 04/02 A3038 RMK AO2 SLP286 T00440017,KAST,2015-02-22T06:55:00Z,46.15,-123.88,4.4,1.7,90,5,,7.0,30.380905,1028.6,,TRUE,TRUE,,,,,,,CLR,,,,,,,,VFR,,,,,,,,,,,,METAR,3.0
KINL 220655Z AUTO 32007KT 10SM CLR M27/M31 A3037 RMK AO2 SLP328 T12721306,KINL,2015-02-22T06:55:00Z,48.57,-93.4,-27.2,-30.6,320,7,,10.0,30.369095,1032.8,,TRUE,TRUE,,,,,,,CLR,,,,,,,,VFR,,,,,,,,,,,,METAR,360.0
KIGQ 220655Z AUTO 27004KT 7SM OVC045 M02/M05 A3018 RMK AO2 T10221050,KIGQ,2015-02-22T06:55:00Z,41.53,-87.53,-2.2,-5.0,270,4,,7.0,30.180119,,,TRUE,TRUE,,,,,,,OVC,4500,,,,,,,VFR,,,,,,,,,,,,METAR,188.0
KIFA 220655Z AUTO 32017KT 10SM CLR M14/M19 A3037 RMK AO2 T11441188,KIFA,2015-02-22T06:55:00Z,42.47,-93.27,-14.4,-18.8,320,17,,10.0,30.369095,,,TRUE,TRUE,,,,,,,CLR,,,,,,,,VFR,,,,,,,,,,,,METAR,347.0
KIDI 220655Z AUTO 27005KT 4SM BR OVC004 01/01 A3007 RMK A01,KIDI,2015-02-22T06:55:00Z,40.62,-79.08,1.0,1.0,270,5,,4.0,30.070866,,,TRUE,TRUE,,,,,,BR,OVC,400,,,,,,,LIFR,,,,,,,,,,,,METAR,429.0
KICL 220655Z AUTO 36008KT 10SM CLR M08/M13 A3043 RMK AO2,KICL,2015-02-22T06:55:00Z,40.72,-95.02,-8.0,-13.0,360,8,,10.0,30.431103,,,TRUE,TRUE,,,,,,,CLR,,,,,,,,VFR,,,,,,,,,,,,METAR,303.0
KI39 220655Z AUTO 33004KT 1/4SM OVC002 00/M00 A3012 RMK AO2,KI39,2015-02-22T06:55:00Z,37.63,-84.33,0.0,0.0,330,4,,0.25,30.121063,,,TRUE,TRUE,,,,,,,OVC,200,,,,,,,LIFR,,,,,,,,,,,,METAR,306.0
KHZE 220655Z AUTO 33010KT 10SM CLR M23/M28 A3060 RMK AO2,KHZE,2015-02-22T06:55:00Z,47.28,-101.58,-23.0,-28.0,330,10,,10.0,30.59941,,,TRUE,TRUE,,,,,,,CLR,,,,,,,,VFR,,,,,,,,,,,,METAR,553.0
KHSB 220655Z AUTO 33004KT 5SM BR CLR M03/M03 A3023 RMK AO2 T10271027,KHSB,2015-02-22T06:55:00Z,37.82,-88.55,-2.7,-2.7,330,4,,5.0,30.230314,,,TRUE,TRUE,,,,,,BR,CLR,,,,,,,,MVFR,,,,,,,,,,,,METAR,121.0
KHON 220655Z AUTO 29006KT 10SM CLR M19/M22 A3051 RMK AO2 SLP363 T11941222,KHON,2015-02-22T06:55:00Z,44.38,-98.23,-19.4,-22.2,290,6,,10.0,30.510826,1036.3,,TRUE,TRUE,,,,,,,CLR,,,,,,,,VFR,,,,,,,,,,,,METAR,390.0
KHAE 220655Z AUTO 35007KT 10SM OVC023 M02/M08 A3029 RMK AO2,KHAE,2015-02-22T06:55:00Z,39.73,-91.45,-2.0,-8.0,350,7,,10.0,30.28937,,,TRUE,TRUE,,,,,,,OVC,2300,,,,,,,MVFR,,,,,,,,,,,,METAR,234.0
KGZL 220655Z AUTO 06009KT 10SM CLR 04/00 A3017 RMK AO2,KGZL,2015-02-22T06:55:00Z,35.28,-95.1,4.0,0.0,60,9,,10.0,30.171259,,,TRUE,TRUE,,,,,,,CLR,,,,,,,,VFR,,,,,,,,,,,,METAR,183.0
KGPM 220655Z AUTO 03007KT 10SM BKN016 09/06 A3003 RMK AO2 T00920058,KGPM,2015-02-22T06:55:00Z,32.7,-97.05,9.2,5.8,30,7,,10.0,30.029528,,,TRUE,TRUE,,,,,,,BKN,1600,,,,,,,MVFR,,,,,,,,,,,,METAR,180.0
KGPI 220655Z 00000KT 10SM CLR M10/M15 A3049 RMK AO2 SLP363 T11001150 400281100,KGPI,2015-02-22T06:55:00Z,48.32,-114.25,-10.0,-15.0,0,0,,10.0,30.490158,1036.3,,,TRUE,,,,,,,CLR,,,,,,,,VFR,,,,2.8,-10.0,,,,,,,METAR,908.0
KGKT 220655Z AUTO 00000KT 2 1/2SM FEW005 OVC050 01/01 A3007 RMK,KGKT,2015-02-22T06:55:00Z,35.85,-83.53,1.0,1.0,0,0,,2.5,30.070866,,,TRUE,,,,,,,,FEW,500,OVC,5000,,,,,IFR,,,,,,,,,,,,METAR,309.0
KGEV 220655Z AUTO 16004KT 10SM SCT016 OVC042 05/02 A3004 RMK AO2 T00500021,KGEV,2015-02-22T06:55:00Z,36.43,-81.42,5.0,2.1,160,4,,10.0,30.041338,,,TRUE,TRUE,,,,,,,SCT,1600,OVC,4200,,,,,VFR,,,,,,,,,,,,METAR,969.0
KGCM 220655Z AUTO 06008KT 7SM CLR 03/02 A3025 RMK AO2,KGCM,2015-02-22T06:55:00Z,36.3,-95.48,3.0,2.0,60,8,,7.0,30.250984,,,TRUE,TRUE,,,,,,,CLR,,,,,,,,VFR,,,,,,,,,,,,METAR,221.0
KFWZ 220655Z AUTO M16/M18 RMK AO2 PWINO,KFWZ,2015-02-22T06:55:00Z,42.52,-108.78,-16.0,-18.0,,,,,,,,TRUE,TRUE,,,,,TRUE,,,,,,,,,,,,,,,,,,,,,,METAR,2588.0
KFVX 220655Z AUTO 20003KT 3SM UP SCT013 SCT036 OVC070 02/02 A3016 RMK AO2 P0002 T00150015,KFVX,2015-02-22T06:55:00Z,37.35,-78.42,1.5,1.5,200,3,,3.0,30.159449,,,TRUE,TRUE,,,,,,UP,SCT,1300,SCT,3600,OVC,7000,,,MVFR,,,,,,0.02,,,,,,METAR,125.0
KFRR 220655Z AUTO 19003KT 10SM OVC090 03/01 A3005 RMK AO1 P0001,KFRR,2015-02-22T06:55:00Z,38.92,-78.25,3.0,1.0,190,3,,10.0,30.050198,,,TRUE,TRUE,,,,,,,OVC,9000,,,,,,,VFR,,,,,,0.01,,,,,,METAR,216.0
KFKS 220655Z AUTO 05005KT 4SM -SN BKN014 BKN027 OVC050 M10/M13 A3017 RMK AO2 T11031126,KFKS,2015-02-22T06:55:00Z,44.63,-86.2,-10.3,-12.6,50,5,,4.0,30.171259,,,TRUE,TRUE,,,,,,-SN,BKN,1400,BKN,2700,OVC,5000,,,MVFR,,,,,,,,,,,,METAR,193.0
KFEP 220655Z AUTO 35003KT 10SM SCT027 OVC035 M06/M11 A3025 RMK AO2 T10631110,KFEP,2015-02-22T06:55:00Z,42.25,-89.58,-6.3,-11.0,350,3,,10.0,30.250984,,,TRUE,TRUE,,,,,,,SCT,2700,OVC,3500,,,,,VFR,,,,,,,,,,,,METAR,262.0
KFBR 220655Z AUTO 08012KT 2SM -SN OVC012 M11/M11 A3009 RMK AO2 T11071115,KFBR,2015-02-22T06:55:00Z,41.4,-110.4,-10.7,-11.5,80,12,,2.0,30.088583,,,TRUE,TRUE,,,,,,-SN,OVC,1200,,,,,,,IFR,,,,,,,,,,,,METAR,2144.0
KEQA 220655Z AUTO 04017G22KT 10SM OVC017 00/M04 A3028 RMK AO2,KEQA,2015-02-22T06:55:00Z,37.78,-96.82,0.0,-4.0,40,17,22,10.0,30.280512,,,TRUE,TRUE,,,,,,,OVC,1700,,,,,,,MVFR,,,,,,,,,,,,METAR,420.0
KELK 220655Z AUTO 09005KT 10SM OVC110 A3014 RMK AO2,KELK,2015-02-22T06:55:00Z,35.43,-99.4,,,90,5,,10.0,30.138779,,,TRUE,TRUE,,,,,,,OVC,11000,,,,,,,VFR,,,,,,,,,,,,METAR,610.0
KEDE 220655Z AUTO 17006KT 10SM BKN046 BKN060 OVC070 10/09 A3020 RMK AO2 T00980087,KEDE,2015-02-22T06:55:00Z,36.02,-76.57,9.8,8.7,170,6,,10.0,30.200787,,,TRUE,TRUE,,,,,,,BKN,4600,BKN,6000,OVC,7000,,,VFR,,,,,,,,,,,,METAR,6.0
KEAT 220655Z AUTO 10006KT 10SM BKN080 05/M04 A3049 RMK AO2 SLP331 T00501044,KEAT,2015-02-22T06:55:00Z,47.4,-120.2,5.0,-4.4,100,6,,10.0,30.490158,1033.1,,TRUE,TRUE,,,,,,,BKN,8000,,,,,,,VFR,,,,,,,,,,,,METAR,377.0
KDVK 220655Z AUTO 34008KT 1SM BR OVC003 00/00 A3014 RMK AO2,KDVK,2015-02-22T06:55:00Z,37.58,-84.77,0.0,0.0,340,8,,1.0,30.138779,,,TRUE,TRUE,,,,,,BR,OVC,300,,,,,,,LIFR,,,,,,,,,,,,METAR,312.0
KDLH 220655Z 31009KT 10SM CLR M21/M26 A3027 RMK AO2 SLP291 T12111261 $,KDLH,2015-02-22T06:55:00Z,46.85,-92.2,-21.1,-26.1,310,9,,10.0,30.268702,1029.1,,,TRUE,TRUE,,,,,,CLR,,,,,,,,VFR,,,,,,,,,,,,METAR,435.0
KD50 220655Z AUTO 30008KT 10SM CLR M30/M33 A3062 RMK AO2,KD50,2015-02-22T06:55:00Z,48.93,-103.3,-30.0,-33.0,300,8,,10.0,30.620079,,,TRUE,TRUE,,,,,,,CLR,,,,,,,,VFR,,,,,,,,,,,,METAR,595.0
KCZT 220655Z AUTO 13004KT 10SM CLR 16/12 A2988 RMK AO2,KCZT,2015-02-22T06:55:00Z,28.52,-99.82,16.0,12.0,130,4,,10.0,29.878937,,,TRUE,TRUE,,,,,,,CLR,,,,,,,,VFR,,,,,,,,,,,,METAR,183.0
KCXP 220655Z AUTO 07011KT 10SM OVC070 05/M09 A2998 RMK AO2,KCXP,2015-02-22T06:55:00Z,39.18,-119.73,5.0,-9.0,70,11,,10.0,29.97933,,,TRUE,TRUE,,,,,,,OVC,7000,,,,,,,VFR,,,,,,,,,,,,METAR,1435.0
KCWV 220655Z AUTO 00000KT 10SM CLR 13/10 A3017 RMK AO2,KCWV,2015-02-22T06:55:00Z,32.2,-81.87,13.0,10.0,0,0,,10.0,30.171259,,,TRUE,TRUE,,,,,,,CLR,,,,,,,,VFR,,,,,,,,,,,,METAR,33.0
KCVC 220655Z AUTO 34003KT 10SM OVC038 11/10 A3012 RMK AO2,KCVC,2015-02-22T06:55:00Z,33.63,-83.85,11.0,10.0,340,3,,10.0,30.121063,,,TRUE,TRUE,,,,,,,OVC,3800,,,,,,,VFR,,,,,,,,,,,,METAR,247.0
KCUL 220655Z AUTO 33003KT 10SM CLR M03/M03 A3020 RMK AO2 T10261032,KCUL,2015-02-22T06:55:00Z,38.08,-88.12,-2.6,-3.2,330,3,,10.0,30.200787,,,TRUE,TRUE,,,,,,,CLR,,,,,,,,VFR,,,,,,,,,,,,METAR,118.0
KCNK 220655Z AUTO 02016KT 10SM OVC070 M05/M12 A3041 RMK AO2 SLP310 T10501122 $,KCNK,2015-02-22T06:55:00Z,39.55,-97.65,-5.0,-12.2,20,16,,10.0,30.410433,1031.0,,TRUE,TRUE,TRUE,,,,,,OVC,7000,,,,,,,VFR,,,,,,,,,,,,METAR,447.0
KCMA 220655Z AUTO 30005KT 7SM BKN028 OVC049 15/11 A2990 RMK AO2 SLP132 T01500111,KCMA,2015-02-22T06:55:00Z,34.22,-119.1,15.0,11.1,300,5,,7.0,29.899607,1013.2,,TRUE,TRUE,,,,,,,BKN,2800,OVC,4900,,,,,MVFR,,,,,,,,,,,,METAR,23.0
KCLK 220655Z AUTO 05005KT 10SM CLR 06/00 A3011 RMK AO2,KCLK,2015-02-22T06:55:00Z,35.53,-98.93,6.0,0.0,50,5,,10.0,30.109253,,,TRUE,TRUE,,,,,,,CLR,,,,,,,,VFR,,,,,,,,,,,,METAR,492.0
KCLI 220655Z AUTO 34004KT 10SM CLR M12/M18 A3022 RMK AO2,KCLI,2015-02-22T06:55:00Z,44.62,-88.73,-12.0,-18.0,340,4,,10.0,30.221457,,,TRUE,TRUE,,,,,,,CLR,,,,,,,,VFR,,,,,,,,,,,,METAR,250.0
KCGC 220655Z AUTO 14003KT 10SM BKN060 13/10 A3019 RMK AO2,KCGC,2015-02-22T06:55:00Z,28.87,-82.57,13.0,10.0,140,3,,10.0,30.188976,,,TRUE,TRUE,,,,,,,BKN,6000,,,,,,,VFR,,,,,,,,,,,,METAR,3.0
KCEY 220655Z AUTO 04007KT 10SM OVC010 00/M01 A3019 RMK AO1,KCEY,2015-02-22T06:55:00Z,36.67,-88.37,0.0,-1.0,40,7,,10.0,30.188976,,,TRUE,TRUE,,,,,,,OVC,1000,,,,,,,MVFR,,,,,,,,,,,,METAR,176.0
KCAO 220655Z AUTO 06007KT 1 1/4SM -SN BR BKN004 OVC014 01/M01 A3004 RMK AO2 SLP171 P0004 T00061006 400830000,KCAO,2015-02-22T06:55:00Z,36.45,-103.15,0.6,-0.6,60,7,,1.25,30.041338,1017.1,,TRUE,TRUE,,,,,,-SN BR,BKN,400,OVC,1400,,,,,LIFR,,,,8.3,,0.04,,,,,,METAR,1514.0
KBXA 220655Z AUTO 17003KT 10SM 17/14 A3004 RMK AO2 T01730143,KBXA,2015-02-22T06:55:00Z,30.82,-89.87,17.3,14.3,170,3,,10.0,30.041338,,,TRUE,TRUE,,,,,,,,,,,,,,,,,,,,,,,,,,,METAR,36.0
KBVS 220655Z AUTO 04007KT 10SM CLR 09/M03 A3046 RMK A01 P000,KBVS,2015-02-22T06:55:00Z,48.47,-122.42,9.0,-3.0,40,7,,10.0,30.46063,,,TRUE,TRUE,,,,,,,CLR,,,,,,,,VFR,,,,,,,,,,,,METAR,43.0
KBPC 220655Z AUTO 05007KT 10SM SCT032 BKN040 OVC055 05/00 A3007 RMK AO2,KBPC,2015-02-22T06:55:00Z,35.88,-101.03,5.0,0.0,50,7,,10.0,30.070866,,,TRUE,TRUE,,,,,,,SCT,3200,BKN,4000,OVC,5500,,,VFR,,,,,,,,,,,,METAR,845.0
KBEA 220655Z AUTO 17011G16KT 10SM OVC006 20/20 A2993 RMK AO2 T02000195,KBEA,2015-02-22T06:55:00Z,28.37,-97.78,20.0,19.5,170,11,16,10.0,29.929134,,,TRUE,TRUE,,,,,,,OVC,600,,,,,,,IFR,,,,,,,,,,,,METAR,82.0
KBCK 220655Z AUTO 31004KT 10SM CLR M13/M20 A3028 RMK AO2 T11341197,KBCK,2015-02-22T06:55:00Z,44.25,-90.85,-13.4,-19.7,310,4,,10.0,30.280512,,,TRUE,TRUE,,,,,,,CLR,,,,,,,,VFR,,,,,,,,,,,,METAR,255.0
KBCB 220655Z AUTO 00000KT 3SM BR OVC048 02/00 A3009 RMK AO2 T00150003,KBCB,2015-02-22T06:55:00Z,37.22,-80.42,1.5,0.3,0,0,,3.0,30.088583,,,TRUE,TRUE,,,,,,BR,OVC,4800,,,,,,,MVFR,,,,,,,,,,,,METAR,650.0
KAXS 220655Z AUTO 06006KT 10SM CLR 06/01 A3009 RMK AO2 T00630010,KAXS,2015-02-22T06:55:00Z,34.7,-99.33,6.3,1.0,60,6,,10.0,30.088583,,,TRUE,TRUE,,,,,,,CLR,,,,,,,,VFR,,,,,,,,,,,,METAR,437.0
KIPJ 220655Z AUTO 00000KT 5SM -RA SCT070 OVC090 01/00 A3015 RMK AO2 P0004 T00080003,KIPJ,2015-02-22T06:55:00Z,35.48,-81.17,0.8,0.3,0,0,,5.0,30.15059,,,TRUE,TRUE,,,,,,-RA,SCT,7000,OVC,9000,,,,,MVFR,,,,,,0.04,,,,,,METAR,267.0
KIRK 220655Z AUTO 35014KT 10SM CLR M06/M11 A3032 RMK AO2 SLP279 T10611106,KIRK,2015-02-22T06:55:00Z,40.1,-92.55,-6.1,-10.6,350,14,,10.0,30.318897,1027.9,,TRUE,TRUE,,,,,,,CLR,,,,,,,,VFR,,,,,,,,,,,,METAR,293.0
KJKA 220655Z AUTO 15005KT 10SM OVC070 17/16 A3007 RMK AO2 T01660160,KJKA,2015-02-22T06:55:00Z,30.28,-87.67,16.6,16.0,150,5,,10.0,30.070866,,,TRUE,TRUE,,,,,,,OVC,7000,,,,,,,VFR,,,,,,,,,,,,METAR,5.0
KJQF 220655Z AUTO 00000KT 10SM UP SCT044 SCT055 BKN085 03/M02 A3019 RMK AO2,KJQF,2015-02-22T06:55:00Z,35.38,-80.72,3.0,-2.0,0,0,,10.0,30.188976,,,TRUE,TRUE,,,,,,UP,SCT,4400,SCT,5500,BKN,8500,,,VFR,,,,,,,,,,,,METAR,210.0
KL18 220655Z AUTO 21004KT 10SM SCT023 OVC038 13/09 A2994 RMK AO2,KL18,2015-02-22T06:55:00Z,33.35,-117.25,13.0,9.0,210,4,,10.0,29.940945,,,TRUE,TRUE,,,,,,,SCT,2300,OVC,3800,,,,,VFR,,,,,,,,,,,,METAR,216.0
KLIC 220655Z AUTO 02016KT 3SM -SN BR OVC037 M10/M12 A3021 RMK AO2 SLP271 P0000 T11001122 410171100 $,KLIC,2015-02-22T06:55:00Z,39.27,-103.67,-10.0,-12.2,20,16,,3.0,30.209646,1027.1,,TRUE,TRUE,TRUE,,,,,-SN BR,OVC,3700,,,,,,,MVFR,,,,-1.7,-10.0,0.0050,,,,,,METAR,1630.0
KLHM 220655Z AUTO 33004KT 1/4SM BKN002 BKN120 04/03 A2984 RMK AO1,KLHM,2015-02-22T06:55:00Z,38.92,-121.35,4.0,3.0,330,4,,0.25,29.840551,,,TRUE,TRUE,,,,,,,BKN,200,BKN,12000,,,,,LIFR,,,,,,,,,,,,METAR,37.0
KLHB 220655Z AUTO 03004KT 10SM OVC027 13/08 A3001 RMK AO2 T01330078,KLHB,2015-02-22T06:55:00Z,30.87,-96.62,13.3,7.8,30,4,,10.0,30.008858,,,TRUE,TRUE,,,,,,,OVC,2700,,,,,,,MVFR,,,,,,,,,,,,METAR,87.0
KLBE 220655Z AUTO 22004KT 7SM -RA OVC006 00/00 A3007 RMK AO2,KLBE,2015-02-22T06:55:00Z,40.27,-79.4,0.0,0.0,220,4,,7.0,30.070866,,,TRUE,TRUE,,,,,,-RA,OVC,600,,,,,,,IFR,,,,,,,,,,,,METAR,361.0
KONX 220655Z AUTO 23009KT 7SM RA BKN030 OVC039 12/07 A3023 RMK AO2 T01220073,KONX,2015-02-22T06:55:00Z,36.4,-76.02,12.2,7.3,230,9,,7.0,30.230314,,,TRUE,TRUE,,,,,,RA,BKN,3000,OVC,3900,,,,,MVFR,,,,,,,,,,,,METAR,5.0
KOKZ 220655Z AUTO 00000KT 10SM BKN060 OVC095 11/06 A3016 RMK AO2 T01090064 PNO,KOKZ,2015-02-22T06:55:00Z,32.97,-82.83,10.9,6.4,0,0,,10.0,30.159449,,,TRUE,TRUE,,,,,,,BKN,6000,OVC,9500,,,,,VFR,,,,,,,,,,,,METAR,134.0
KMZH 220655Z AUTO 31004KT 10SM CLR M21/M26 A3034 RMK AO2,KMZH,2015-02-22T06:55:00Z,46.42,-92.8,-21.0,-26.0,310,4,,10.0,30.339567,,,TRUE,TRUE,,,,,,,CLR,,,,,,,,VFR,,,,,,,,,,,,METAR,328.0
KMMI 220655Z AUTO 00000KT 4SM OVC033 03/03 A3009 RMK,KMMI,2015-02-22T06:55:00Z,35.4,-84.57,3.0,3.0,0,0,,4.0,30.088583,,,TRUE,,,,,,,,OVC,3300,,,,,,,MVFR,,,,,,,,,,,,METAR,266.0
KMMH 220655Z AUTO 29013G18KT 10SM BKN044 OVC050 01/M09 A2990 RMK AO1,KMMH,2015-02-22T06:55:00Z,37.62,-118.82,1.0,-9.0,290,13,18,10.0,29.899607,,,TRUE,TRUE,,,,,,,BKN,4400,OVC,5000,,,,,VFR,,,,,,,,,,,,METAR,2173.0
KMKN 220655Z AUTO 14005KT 10SM CLR 07/06 A3001 RMK AO2 T00650063,KMKN,2015-02-22T06:55:00Z,31.92,-98.6,6.5,6.3,140,5,,10.0,30.008858,,,TRUE,TRUE,,,,,,,CLR,,,,,,,,VFR,,,,,,,,,,,,METAR,423.0
KMKG 220655Z AUTO 00000KT 3SM -SN BR BKN026 OVC035 M06/M08 A3013 RMK AO2 SNB42 SLP213 P0000 T10561078,KMKG,2015-02-22T06:55:00Z,43.17,-86.23,-5.6,-7.8,0,0,,3.0,30.129921,1021.3,,TRUE,TRUE,,,,,,-SN BR,BKN,2600,OVC,3500,,,,,MVFR,,,,,,0.0050,,,,,,METAR,191.0
KMFV 220655Z AUTO 18009KT 5SM -RA SCT047 OVC060 06/05 A3017 RMK AO2 P0008,KMFV,2015-02-22T06:55:00Z,37.63,-75.77,6.0,5.0,180,9,,5.0,30.171259,,,TRUE,TRUE,,,,,,-RA,SCT,4700,OVC,6000,,,,,MVFR,,,,,,0.08,,,,,,METAR,15.0
KMER 220655Z AUTO 00000KT 05/05 A2984 RMK AO1,KMER,2015-02-22T06:55:00Z,37.38,-120.57,5.0,5.0,0,0,,,29.840551,,,TRUE,TRUE,,,,,,,,,,,,,,,,,,,,,,,,,,,METAR,57.0
KMDQ 220655Z AUTO 01005KT 3SM -RA BKN005 OVC011 05/03 A3008 RMK AO2,KMDQ,2015-02-22T06:55:00Z,34.87,-86.55,5.0,3.0,10,5,,3.0,30.079725,,,TRUE,TRUE,,,,,,-RA,BKN,500,OVC,1100,,,,,IFR,,,,,,,,,,,,METAR,230.0
KMCX 220655Z AUTO 25003KT 5SM BR SCT023 OVC039 M07/M07 A3018 RMK AO2 T10671072,KMCX,2015-02-22T06:55:00Z,40.72,-86.77,-6.7,-7.2,250,3,,5.0,30.180119,,,TRUE,TRUE,,,,,,BR,SCT,2300,OVC,3900,,,,,MVFR,,,,,,,,,,,,METAR,206.0
KMCJ 220655Z AUTO 00000KT 2 1/2SM OVC002 19/19 A2995 RMK AO1,KMCJ,2015-02-22T06:55:00Z,29.72,-95.4,19.0,19.0,0,0,,2.5,29.949802,,,TRUE,TRUE,,,,,,,OVC,200,,,,,,,LIFR,,,,,,,,,,,,METAR,69.0
KLLJ 220655Z AUTO 02009KT 10SM OVC065 M07/M16 A3024 RMK AO2 SLP268 T10671156 400391067 $,KLLJ,2015-02-22T06:55:00Z,44.52,-114.22,-6.7,-15.6,20,9,,10.0,30.239174,1026.8,,TRUE,TRUE,TRUE,,,,,,OVC,6500,,,,,,,VFR,,,,3.9,-6.7,,,,,,,METAR,1536.0
KORG 220655Z AUTO 20008KT 7SM SCT025 BKN050 OVC080 19/17 A3000 RMK AO2 T01850174,KORG,2015-02-22T06:55:00Z,30.07,-93.8,18.5,17.4,200,8,,7.0,30.0,,,TRUE,TRUE,,,,,,,SCT,2500,BKN,5000,OVC,8000,,,VFR,,,,,,,,,,,,METAR,4.0
KPCM 220655Z AUTO 13004KT 10SM CLR A3020 RMK AO2,KPCM,2015-02-22T06:55:00Z,28.0,-82.17,,,130,4,,10.0,30.200787,,,TRUE,TRUE,,,,,,,CLR,,,,,,,,VFR,,,,,,,,,,,,METAR,47.0
KPBH 220655Z AUTO 35005KT 10SM CLR M18/M22 A3021 RMK AO2 T11851220,KPBH,2015-02-22T06:55:00Z,45.7,-90.4,-18.5,-22.0,350,5,,10.0,30.209646,,,TRUE,TRUE,,,,,,,CLR,,,,,,,,VFR,,,,,,,,,,,,METAR,449.0
KOWP 220655Z AUTO 06008KT 10SM OVC037 08/03 A3020 RMK AO2 T00750029,KOWP,2015-02-22T06:55:00Z,36.18,-96.15,7.5,2.9,60,8,,10.0,30.200787,,,TRUE,TRUE,,,,,,,OVC,3700,,,,,,,VFR,,,,,,,,,,,,METAR,272.0
KPHP 220655Z AUTO 33004KT 10SM FEW036 OVC055 M13/M17 A3050 RMK AO2 SLP363 T11281167 400111150 $,KPHP,2015-02-22T06:55:00Z,44.05,-101.6,-12.8,-16.7,330,4,,10.0,30.499016,1036.3,,TRUE,TRUE,TRUE,,,,,,FEW,3600,OVC,5500,,,,,VFR,,,,1.1,-15.0,,,,,,,METAR,672.0
KPEZ 220655Z AUTO 08006KT 7SM OVC006 19/18 A2994 RMK AO2 T01870175,KPEZ,2015-02-22T06:55:00Z,28.95,-98.52,18.7,17.5,80,6,,7.0,29.940945,,,TRUE,TRUE,,,,,,,OVC,600,,,,,,,IFR,,,,,,,,,,,,METAR,132.0
KPVF 220655Z AUTO 00000KT 10SM OVC050 07/04 A2984 RMK AO1,KPVF,2015-02-22T06:55:00Z,38.72,-120.75,7.0,4.0,0,0,,10.0,29.840551,,,TRUE,TRUE,,,,,,,OVC,5000,,,,,,,VFR,,,,,,,,,,,,METAR,789.0
KRBW 220655Z AUTO 15003KT 10SM CLR 10/08 A3018 RMK AO2,KRBW,2015-02-22T06:55:00Z,32.92,-80.63,10.0,8.0,150,3,,10.0,30.180119,,,TRUE,TRUE,,,,,,,CLR,,,,,,,,VFR,,,,,,,,,,,,METAR,31.0
KRCX 220655Z AUTO 33009KT 10SM CLR M17/M22 A3027 RMK AO2 T11711223,KRCX,2015-02-22T06:55:00Z,45.5,-91.0,-17.1,-22.3,330,9,,10.0,30.268702,,,TRUE,TRUE,,,,,,,CLR,,,,,,,,VFR,,,,,,,,,,,,METAR,377.0
KRNO 220655Z 07007KT 10SM BKN075 OVC090 05/M08 A2998 RMK AO2 SLP138 T00501078 $,KRNO,2015-02-22T06:55:00Z,39.5,-119.77,5.0,-7.8,70,7,,10.0,29.97933,1013.8,,,TRUE,TRUE,,,,,,BKN,7500,OVC,9000,,,,,VFR,,,,,,,,,,,,METAR,1342.0
KRPD 220655Z AUTO 32006KT 10SM CLR M17/M24 A3032 RMK AO2 T11711238,KRPD,2015-02-22T06:55:00Z,45.42,-91.77,-17.1,-23.8,320,6,,10.0,30.318897,,,TRUE,TRUE,,,,,,,CLR,,,,,,,,VFR,,,,,,,,,,,,METAR,338.0
KRSN 220655Z AUTO 04003KT 10SM SCT005 OVC009 05/05 A3013 RMK AO2 T00540054,KRSN,2015-02-22T06:55:00Z,32.52,-92.58,5.4,5.4,40,3,,10.0,30.129921,,,TRUE,TRUE,,,,,,,SCT,500,OVC,900,,,,,IFR,,,,,,,,,,,,METAR,95.0
KRSV 220655Z AUTO 32004KT 10SM OVC025 M04/M05 A3022 RMK AO2 T10361052,KRSV,2015-02-22T06:55:00Z,39.02,-87.65,-3.6,-5.2,320,4,,10.0,30.221457,,,TRUE,TRUE,,,,,,,OVC,2500,,,,,,,MVFR,,,,,,,,,,,,METAR,141.0
KSAR 220655Z AUTO 01005KT 10SM CLR 00/M02 A3024 RMK AO2 T00001022,KSAR,2015-02-22T06:55:00Z,38.15,-89.7,0.0,-2.2,10,5,,10.0,30.239174,,,TRUE,TRUE,,,,,,,CLR,,,,,,,,VFR,,,,,,,,,,,,METAR,164.0
KSLO 220655Z AUTO 35008KT 7SM OVC034 01/M02 A3023 RMK AO2 T00051023,KSLO,2015-02-22T06:55:00Z,38.65,-88.97,0.5,-2.3,350,8,,7.0,30.230314,,,TRUE,TRUE,,,,,,,OVC,3400,,,,,,,VFR,,,,,,,,,,,,METAR,175.0
KSCK 220655Z AUTO 09005KT 4SM BR CLR 08/07 A2983 RMK AO2 SLP100 T00830072,KSCK,2015-02-22T06:55:00Z,37.88,-121.22,8.3,7.2,90,5,,4.0,29.828741,1010.0,,TRUE,TRUE,,,,,,BR,CLR,,,,,,,,MVFR,,,,,,,,,,,,METAR,10.0
KSNL 220655Z AUTO 08007KT 10SM SCT120 07/03 A3016 RMK AO2,KSNL,2015-02-22T06:55:00Z,35.35,-96.95,7.0,3.0,80,7,,10.0,30.159449,,,TRUE,TRUE,,,,,,,SCT,12000,,,,,,,VFR,,,,,,,,,,,,METAR,327.0
KSOW 220655Z AUTO 20014G18KT 10SM CLR 07/M03 A2992 RMK AO2,KSOW,2015-02-22T06:55:00Z,34.27,-110.0,7.0,-3.0,200,14,18,10.0,29.920275,,,TRUE,TRUE,,,,,,,CLR,,,,,,,,VFR,,,,,,,,,,,,METAR,1954.0
K1II 220655Z AUTO 00000KT 7SM CLR M08/M10 A3018 RMK AO2,K1II,2015-02-22T06:55:00Z,39.33,-86.03,-8.0,-10.0,0,0,,7.0,30.180119,,,TRUE,TRUE,,,,,,,CLR,,,,,,,,VFR,,,,,,,,,,,,METAR,214.0
K1K1 220655Z AUTO 04010G18KT 10SM -SN OVC017 M01/M05 A3029 RMK AO2 T10151051,K1K1,2015-02-22T06:55:00Z,37.77,-97.12,-1.5,-5.1,40,10,18,10.0,30.28937,,,TRUE,TRUE,,,,,,-SN,OVC,1700,,,,,,,MVFR,,,,,,,,,,,,METAR,416.0
KPUJ 220655Z AUTO 17004KT 1/2SM RA SCT002 BKN019 OVC025 07/07 A3010 RMK AO2,KPUJ,2015-02-22T06:55:00Z,33.92,-84.93,7.0,7.0,170,4,,0.5,30.100393,,,TRUE,TRUE,,,,,,RA,SCT,200,BKN,1900,OVC,2500,,,LIFR,,,,,,,,,,,,METAR,393.0
KPKV 220655Z AUTO 16005KT 4SM BR BKN005 OVC012 19/19 A2997 RMK AO2 T01920187,KPKV,2015-02-22T06:55:00Z,28.65,-96.68,19.2,18.7,160,5,,4.0,29.970472,,,TRUE,TRUE,,,,,,BR,BKN,500,OVC,1200,,,,,IFR,,,,,,,,,,,,METAR,9.0
KRZR 220655Z AUTO 00000KT 6SM OVC031 05/04 A3006 RMK,KRZR,2015-02-22T06:55:00Z,35.22,-84.8,5.0,4.0,0,0,,6.0,30.059055,,,TRUE,,,,,,,,OVC,3100,,,,,,,VFR,,,,,,,,,,,,METAR,263.0
KORS 220655Z AUTO 09003KT 10SM CLR 09/M03 A3044 RMK AO2,KORS,2015-02-22T06:55:00Z,48.7,-122.92,9.0,-3.0,90,3,,10.0,30.43996,,,TRUE,TRUE,,,,,,,CLR,,,,,,,,VFR,,,,,,,,,,,,METAR,9.0
KOLV 220655Z AUTO 01009G14KT 8SM OVC005 00/00 A3016 RMK A01 P000,KOLV,2015-02-22T06:55:00Z,34.98,-89.78,0.0,0.0,10,9,14,8.0,30.159449,,,TRUE,TRUE,,,,,,,OVC,500,,,,,,,IFR,,,,,,,,,,,,METAR,122.0
K3I2 220655Z AUTO 00000KT 7SM OVC004 01/01 A3012 RMK AO2,K3I2,2015-02-22T06:55:00Z,38.92,-82.1,1.0,1.0,0,0,,7.0,30.121063,,,TRUE,TRUE,,,,,,,OVC,400,,,,,,,LIFR,,,,,,,,,,,,METAR,196.0
K40J 220655Z AUTO 00000KT 10SM CLR 12/08 A3017 RMK AO2 T01180081,K40J,2015-02-22T06:55:00Z,30.07,-83.57,11.8,8.1,0,0,,10.0,30.171259,,,TRUE,TRUE,,,,,,,CLR,,,,,,,,VFR,,,,,,,,,,,,METAR,13.0
K3J7 220655Z AUTO 19006KT 10SM -RA SCT045 BKN060 OVC090 13/11 A3009 RMK AO2,K3J7,2015-02-22T06:55:00Z,33.6,-83.13,13.0,11.0,190,6,,10.0,30.088583,,,TRUE,TRUE,,,,,,-RA,SCT,4500,BKN,6000,OVC,9000,,,VFR,,,,,,,,,,,,METAR,206.0
K4O4 220655Z AUTO 09007KT 10SM CLR 03/02 A3010 RMK AO2,K4O4,2015-02-22T06:55:00Z,33.92,-94.87,3.0,2.0,90,7,,10.0,30.100393,,,TRUE,TRUE,,,,,,,CLR,,,,,,,,VFR,,,,,,,,,,,,METAR,144.0
KADM 220655Z AUTO 05006KT 10SM CLR 06/03 A3011 RMK AO2 T00640030,KADM,2015-02-22T06:55:00Z,34.28,-97.02,6.4,3.0,50,6,,10.0,30.109253,,,TRUE,TRUE,,,,,,,CLR,,,,,,,,VFR,,,,,,,,,,,,METAR,232.0
KALN 220655Z AUTO 34006KT 10SM OVC022 01/M04 A3024 RMK AO2 T00081037,KALN,2015-02-22T06:55:00Z,38.88,-90.03,0.8,-3.7,340,6,,10.0,30.239174,,,TRUE,TRUE,,,,,,,OVC,2200,,,,,,,MVFR,,,,,,,,,,,,METAR,166.0
KASN 220655Z AUTO 00000KT 1 1/4SM -RA SCT027 BKN060 OVC070 13/12 A3009 RMK AO2 P0006 T01260116,KASN,2015-02-22T06:55:00Z,33.57,-86.05,12.6,11.6,0,0,,1.25,30.088583,,,TRUE,TRUE,,,,,,-RA,SCT,2700,BKN,6000,OVC,7000,,,IFR,,,,,,0.06,,,,,,METAR,162.0
KFRM 220655Z AUTO 31019G23KT 10SM CLR M17/M22 A3039 RMK AO1,KFRM,2015-02-22T06:55:00Z,43.63,-94.42,-17.0,-22.0,310,19,23,10.0,30.389763,,,TRUE,TRUE,,,,,,,CLR,,,,,,,,VFR,,,,,,,,,,,,METAR,354.0
KFOD 220655Z AUTO 34010G16KT 10SM CLR M15/M22 A3041 RMK AO1,KFOD,2015-02-22T06:55:00Z,42.53,-94.17,-15.0,-22.0,340,10,16,10.0,30.410433,,,TRUE,TRUE,,,,,,,CLR,,,,,,,,VFR,,,,,,,,,,,,METAR,355.0
KFNL 220655Z AUTO 03003KT 5SM CLR M09/M12 A3030 RMK AO1,KFNL,2015-02-22T06:55:00Z,40.45,-105.02,-9.0,-12.0,30,3,,5.0,30.301182,,,TRUE,TRUE,,,,,,,CLR,,,,,,,,MVFR,,,,,,,,,,,,METAR,1529.0
KFLP 220655Z 00000KT 6SM BKN013 01/M01 A3020 RMK AO1 P0001,KFLP,2015-02-22T06:55:00Z,36.28,-92.58,1.0,-1.0,0,0,,6.0,30.200787,,,,TRUE,,,,,,,BKN,1300,,,,,,,MVFR,,,,,,0.01,,,,,,METAR,219.0
KAUN 220655Z AUTO 00000KT 8SM FEW095 08/07 A2983 RMK AO1,KAUN,2015-02-22T06:55:00Z,38.95,-121.08,8.0,7.0,0,0,,8.0,29.828741,,,TRUE,TRUE,,,,,,,FEW,9500,,,,,,,VFR,,,,,,,,,,,,METAR,467.0
KAZC 220655Z AUTO 05008KT 10SM OVC080 09/M09 A2984 RMK AO2 T00881090,KAZC,2015-02-22T06:55:00Z,36.97,-113.02,8.8,-9.0,50,8,,10.0,29.840551,,,TRUE,TRUE,,,,,,,OVC,8000,,,,,,,VFR,,,,,,,,,,,,METAR,1486.0
KBGE 220655Z AUTO 22005KT 10SM SCT060 SCT080 16/13 A3015 RMK AO2,KBGE,2015-02-22T06:55:00Z,30.97,-84.63,16.0,13.0,220,5,,10.0,30.15059,,,TRUE,TRUE,,,,,,,SCT,6000,SCT,8000,,,,,VFR,,,,,,,,,,,,METAR,43.0
KBYY 220655Z AUTO 17005KT 5SM BR SCT013 BKN029 OVC045 19/19 A2997 RMK AO2 T01960196,KBYY,2015-02-22T06:55:00Z,28.97,-95.87,19.6,19.6,170,5,,5.0,29.970472,,,TRUE,TRUE,,,,,,BR,SCT,1300,BKN,2900,OVC,4500,,,MVFR,,,,,,,,,,,,METAR,14.0
KBKS 220655Z AUTO 16010KT 10SM OVC016 22/19 A2991 RMK AO1 T02180185,KBKS,2015-02-22T06:55:00Z,27.2,-98.12,21.8,18.5,160,10,,10.0,29.911417,,,TRUE,TRUE,,,,,,,OVC,1600,,,,,,,MVFR,,,,,,,,,,,,METAR,34.0
KCKF 220655Z AUTO 19004KT 10SM BKN100 15/08 A3014 RMK AO2 T01450077,KCKF,2015-02-22T06:55:00Z,31.98,-83.77,14.5,7.7,190,4,,10.0,30.138779,,,TRUE,TRUE,,,,,,,BKN,10000,,,,,,,VFR,,,,,,,,,,,,METAR,91.0
KCNI 220655Z AUTO 09005KT 3SM -RA OVC050 06/04 A3011 RMK AO2,KCNI,2015-02-22T06:55:00Z,34.32,-84.42,6.0,4.0,90,5,,3.0,30.109253,,,TRUE,TRUE,,,,,,-RA,OVC,5000,,,,,,,MVFR,,,,,,,,,,,,METAR,372.0
KCLW 220655Z AUTO 00000KT 10SM CLR 14/12 A3017 RMK AO2,KCLW,2015-02-22T06:55:00Z,27.98,-82.75,14.0,12.0,0,0,,10.0,30.171259,,,TRUE,TRUE,,,,,,,CLR,,,,,,,,VFR,,,,,,,,,,,,METAR,22.0
KDKB 220655Z AUTO 33010G16KT 10SM BKN025 OVC038 M05/M10 A3020 RMK AO2 T10481098,KDKB,2015-02-22T06:55:00Z,41.93,-88.7,-4.8,-9.8,330,10,16,10.0,30.200787,,,TRUE,TRUE,,,,,,,BKN,2500,OVC,3800,,,,,MVFR,,,,,,,,,,,,METAR,279.0
KDUA 220655Z AUTO 04006KT 10SM CLR 05/03 A3009 RMK AO2,KDUA,2015-02-22T06:55:00Z,33.95,-96.4,5.0,3.0,40,6,,10.0,30.088583,,,TRUE,TRUE,,,,,,,CLR,,,,,,,,VFR,,,,,,,,,,,,METAR,213.0
KDRI 220655Z AUTO 00000KT 7SM OVC013 18/17 A3001 RMK AO2 T01780170,KDRI,2015-02-22T06:55:00Z,30.83,-93.33,17.8,17.0,0,0,,7.0,30.008858,,,TRUE,TRUE,,,,,,,OVC,1300,,,,,,,MVFR,,,,,,,,,,,,METAR,63.0
KDVO 220655Z AUTO 34003KT 08/08 A2986 RMK AO2,KDVO,2015-02-22T06:55:00Z,38.15,-122.55,8.0,8.0,340,3,,,29.861221,,,TRUE,TRUE,,,,,,,,,,,,,,,,,,,,,,,,,,,METAR,1.0
KECS 220655Z AUTO 35012G20KT 10SM CLR M12/M17 A3034 RMK AO2,KECS,2015-02-22T06:55:00Z,43.88,-104.32,-12.0,-17.0,350,12,20,10.0,30.339567,,,TRUE,TRUE,,,,,,,CLR,,,,,,,,VFR,,,,,,,,,,,,METAR,1273.0
KEDN 220655Z AUTO 18009G14KT 10SM SCT022 BKN037 OVC060 15/12 A3010 RMK AO2,KEDN,2015-02-22T06:55:00Z,31.3,-85.9,15.0,12.0,180,9,14,10.0,30.100393,,,TRUE,TRUE,,,,,,,SCT,2200,BKN,3700,OVC,6000,,,VFR,,,,,,,,,,,,METAR,110.0
KHHF 220655Z AUTO 10004KT 10SM -DZ SCT037 BKN044 OVC050 07/01 A3009 RMK AO2 T00700011,KHHF,2015-02-22T06:55:00Z,35.9,-100.4,7.0,1.1,100,4,,10.0,30.088583,,,TRUE,TRUE,,,,,,-DZ,SCT,3700,BKN,4400,OVC,5000,,,VFR,,,,,,,,,,,,METAR,712.0
KHBI 220655Z AUTO 00000KT 10SM BKN090 01/M02 A3019 RMK AO2 T00101022,KHBI,2015-02-22T06:55:00Z,35.65,-79.9,1.0,-2.2,0,0,,10.0,30.188976,,,TRUE,TRUE,,,,,,,BKN,9000,,,,,,,VFR,,,,,,,,,,,,METAR,205.0
KGYY 220655Z AUTO 00000KT 7SM SCT025 BKN035 OVC045 M01/M06 A3018 RMK AO2 T10101062,KGYY,2015-02-22T06:55:00Z,41.62,-87.42,-1.0,-6.2,0,0,,7.0,30.180119,,,TRUE,TRUE,,,,,,,SCT,2500,BKN,3500,OVC,4500,,,VFR,,,,,,,,,,,,METAR,180.0
KGIC 220655Z AUTO 04004KT 10SM CLR M03/M08 A3040 RMK AO1 T10351085 401661185,KGIC,2015-02-22T06:55:00Z,45.95,-116.12,-3.5,-8.5,40,4,,10.0,30.398623,,,TRUE,TRUE,,,,,,,CLR,,,,,,,,VFR,,,,16.6,-18.5,,,,,,,METAR,1009.0
KFKR 220655Z AUTO 23005KT 5SM BR OVC015 M04/M04 A3020 RMK AO2 T10391039,KFKR,2015-02-22T06:55:00Z,40.27,-86.57,-3.9,-3.9,230,5,,5.0,30.200787,,,TRUE,TRUE,,,,,,BR,OVC,1500,,,,,,,MVFR,,,,,,,,,,,,METAR,262.0
KEHO 220655Z AUTO 33003KT 5SM -RA BKN050 OVC070 01/00 A3016 RMK AO2 P0003 T00110001,KEHO,2015-02-22T06:55:00Z,35.25,-81.6,1.1,0.1,330,3,,5.0,30.159449,,,TRUE,TRUE,,,,,,-RA,BKN,5000,OVC,7000,,,,,MVFR,,,,,,0.03,,,,,,METAR,258.0
KHNZ 220655Z AUTO 00000KT 1/2SM FG OVC001 00/00 A3016 RMK AO2 T00001003,KHNZ,2015-02-22T06:55:00Z,36.37,-78.53,0.0,-0.3,0,0,,0.5,30.159449,,,TRUE,TRUE,,,,,,FG,OVC,100,,,,,,,LIFR,,,,,,,,,,,,METAR,161.0
KHVE 220655Z AUTO 00000KT 10SM BKN090 OVC110 02/M09 A2994 RMK AO2,KHVE,2015-02-22T06:55:00Z,38.42,-110.7,2.0,-9.0,0,0,,10.0,29.940945,,,TRUE,TRUE,,,,,,,BKN,9000,OVC,11000,,,,,VFR,,,,,,,,,,,,METAR,1350.0
KHQZ 220655Z AUTO 03004KT 10SM CLR 08/05 A3004 RMK AO1 T00800051,KHQZ,2015-02-22T06:55:00Z,32.75,-96.53,8.0,5.1,30,4,,10.0,30.041338,,,TRUE,TRUE,,,,,,,CLR,,,,,,,,VFR,,,,,,,,,,,,METAR,136.0
KIXA 220655Z AUTO 00000KT 7SM OVC007 01/00 A3020 RMK AO2,KIXA,2015-02-22T06:55:00Z,36.33,-77.63,1.0,0.0,0,0,,7.0,30.200787,,,TRUE,TRUE,,,,,,,OVC,700,,,,,,,IFR,,,,,,,,,,,,METAR,44.0
RJOI 220655Z 03007KT 2000 SHRA BR SCT004 BKN012 OVC020 11/11 A2995 RMK SLP140 P0011 T01110106,RJOI,2015-02-22T06:55:00Z,34.13,132.22,11.1,10.6,30,7,,1.24,29.949802,1014.0,,,,,,,,,SHRA BR,SCT,400,BKN,1200,OVC,2000,,,IFR,,,,,,0.11,,,,,,METAR,2.0
KJGG 220655Z AUTO 00000KT 4SM OVC016 02/01 A3020 RMK AO1 P0001,KJGG,2015-02-22T06:55:00Z,37.23,-76.72,2.0,1.0,0,0,,4.0,30.200787,,,TRUE,TRUE,,,,,,,OVC,1600,,,,,,,MVFR,,,,,,0.01,,,,,,METAR,15.0
KIZA 220655Z AUTO 00000KT 10SM SCT024 OVC034 12/10 A2990 RMK AO2,KIZA,2015-02-22T06:55:00Z,34.6,-120.07,12.0,10.0,0,0,,10.0,29.899607,,,TRUE,TRUE,,,,,,,SCT,2400,OVC,3400,,,,,VFR,,,,,,,,,,,,METAR,205.0
KISO 220655Z AUTO 17007KT 10SM SCT046 12/11 A3021 RMK AO2 T01160113,KISO,2015-02-22T06:55:00Z,35.32,-77.62,11.6,11.3,170,7,,10.0,30.209646,,,TRUE,TRUE,,,,,,,SCT,4600,,,,,,,VFR,,,,,,,,,,,,METAR,29.0
KIOB 220655Z AUTO 36005KT 1/4SM FG OVC002 00/00 A3014 RMK AO2,KIOB,2015-02-22T06:55:00Z,38.05,-83.98,0.0,0.0,360,5,,0.25,30.138779,,,TRUE,TRUE,,,,,,FG,OVC,200,,,,,,,LIFR,,,,,,,,,,,,METAR,311.0
KINJ 220655Z AUTO 05008KT 10SM CLR 08/05 A3001 RMK AO2 T00840045,KINJ,2015-02-22T06:55:00Z,32.08,-97.1,8.4,4.5,50,8,,10.0,30.008858,,,TRUE,TRUE,,,,,,,CLR,,,,,,,,VFR,,,,,,,,,,,,METAR,209.0
EHFS 220655Z AUTO 22007KT 200V260 9999 OVC018/// 02/02 Q1009,EHFS,2015-02-22T06:55:00Z,51.45,3.6,2.0,2.0,220,7,,6.21,29.793306,,,TRUE,,,,,,,,,,,,,,,,,,,,,,,,,,,,METAR,32.0
KFET 220655Z AUTO 34009KT 10SM SCT100 BKN120 M09/M17 A3046 RMK AO2 T10881168,KFET,2015-02-22T06:55:00Z,41.45,-96.52,-8.8,-16.8,340,9,,10.0,30.46063,,,TRUE,TRUE,,,,,,,SCT,10000,BKN,12000,,,,,VFR,,,,,,,,,,,,METAR,367.0
KF70 220655Z AUTO 22007KT 10SM BKN043 12/08 A2993 RMK AO1,KF70,2015-02-22T06:55:00Z,33.57,-117.13,12.0,8.0,220,7,,10.0,29.929134,,,TRUE,TRUE,,,,,,,BKN,4300,,,,,,,VFR,,,,,,,,,,,,METAR,412.0
KEZF 220655Z AUTO 19004KT 10SM OVC015 01/01 A3014 RMK AO2 P0002 T00120012,KEZF,2015-02-22T06:55:00Z,38.27,-77.45,1.2,1.2,190,4,,10.0,30.138779,,,TRUE,TRUE,,,,,,,OVC,1500,,,,,,,MVFR,,,,,,0.02,,,,,,METAR,26.0
KEXX 220655Z AUTO 00000KT 2SM -RA SCT043 BKN050 OVC060 01/00 A3015 RMK AO2 P0004 T00051001,KEXX,2015-02-22T06:55:00Z,35.78,-80.3,0.5,-0.1,0,0,,2.0,30.15059,,,TRUE,TRUE,,,,,,-RA,SCT,4300,BKN,5000,OVC,6000,,,IFR,,,,,,0.04,,,,,,METAR,223.0
KEOK 220655Z AUTO 33012KT 10SM CLR M06/M10 A3030 RMK AO2,KEOK,2015-02-22T06:55:00Z,40.47,-91.42,-6.0,-10.0,330,12,,10.0,30.301182,,,TRUE,TRUE,,,,,,,CLR,,,,,,,,VFR,,,,,,,,,,,,METAR,205.0
KEFK 220655Z AUTO 19003KT 5SM -SN BKN044 BKN110 M09/M10 A3007 RMK AO2 T10901103,KEFK,2015-02-22T06:55:00Z,44.88,-72.23,-9.0,-10.3,190,3,,5.0,30.070866,,,TRUE,TRUE,,,,,,-SN,BKN,4400,BKN,11000,,,,,MVFR,,,,,,,,,,,,METAR,284.0
KEBS 220655Z AUTO 34020G26KT 10SM SCT110 M14/M20 A3037 RMK AO2,KEBS,2015-02-22T06:55:00Z,42.42,-93.87,-14.0,-20.0,340,20,26,10.0,30.369095,,,TRUE,TRUE,,,,,,,SCT,11000,,,,,,,VFR,,,,,,,,,,,,METAR,342.0
KE38 220655Z AUTO 23006KT 10SM CLR 15/02 A3000 RMK AO2 T01500016,KE38,2015-02-22T06:55:00Z,30.38,-103.68,15.0,1.6,230,6,,10.0,30.0,,,TRUE,TRUE,,,,,,,CLR,,,,,,,,VFR,,,,,,,,,,,,METAR,1376.0
KDWX 220655Z AUTO 03017G23KT 10SM OVC048 M08/M12 A3004 RMK AO2 T10821121 401601180,KDWX,2015-02-22T06:55:00Z,41.03,-107.5,-8.2,-12.1,30,17,23,10.0,30.041338,,,TRUE,TRUE,,,,,,,OVC,4800,,,,,,,VFR,,,,16.0,-18.0,,,,,,,METAR,1996.0
KDUB 220655Z AUTO 12007KT 10SM SCT010 SCT018 SCT044 M15/M17 A3012 RMK AO2,KDUB,2015-02-22T06:55:00Z,43.55,-109.68,-15.0,-17.0,120,7,,10.0,30.121063,,,TRUE,TRUE,,,,,,,SCT,1000,SCT,1800,SCT,4400,,,VFR,,,,,,,,,,,,METAR,2224.0
KDEH 220655Z AUTO 31007G14KT 10SM CLR M14/M19 A3030 RMK AO2,KDEH,2015-02-22T06:55:00Z,43.27,-91.72,-14.0,-19.0,310,7,14,10.0,30.301182,,,TRUE,TRUE,,,,,,,CLR,,,,,,,,VFR,,,,,,,,,,,,METAR,353.0
KDBN 220655Z AUTO 00000KT 10SM SCT110 09/06 A3017 RMK AO2,KDBN,2015-02-22T06:55:00Z,32.57,-82.98,9.0,6.0,0,0,,10.0,30.171259,,,TRUE,TRUE,,,,,,,SCT,11000,,,,,,,VFR,,,,,,,,,,,,METAR,94.0
KCWF 220655Z AUTO 23004KT 7SM SCT010 BKN027 OVC060 17/17 A3000 RMK AO2 T01800170,KCWF,2015-02-22T06:55:00Z,30.22,-93.15,18.0,17.0,230,4,,7.0,30.0,,,TRUE,TRUE,,,,,,,SCT,1000,BKN,2700,OVC,6000,,,MVFR,,,,,,,,,,,,METAR,4.0
KCVB 220655Z AUTO 07011KT 7SM OVC012 17/10 A2997 RMK AO2 T01710104,KCVB,2015-02-22T06:55:00Z,29.35,-98.85,17.1,10.4,70,11,,7.0,29.970472,,,TRUE,TRUE,,,,,,,OVC,1200,,,,,,,MVFR,,,,,,,,,,,,METAR,235.0
KCTZ 220655Z AUTO 17003KT 10SM CLR 11/11 A3020 RMK AO2 T01100110,KCTZ,2015-02-22T06:55:00Z,34.98,-78.37,11.0,11.0,170,3,,10.0,30.200787,,,TRUE,TRUE,,,,,,,CLR,,,,,,,,VFR,,,,,,,,,,,,METAR,45.0
KCTJ 220655Z AUTO 00000KT 2 1/2SM +RA SCT005 BKN029 OVC047 10/10 A3015 RMK AO2,KCTJ,2015-02-22T06:55:00Z,33.63,-85.15,10.0,10.0,0,0,,2.5,30.15059,,,TRUE,TRUE,,,,,,+RA,SCT,500,BKN,2900,OVC,4700,,,IFR,,,,,,,,,,,,METAR,354.0
KCSQ 220655Z AUTO 36012G17KT 10SM FEW120 M11/M16 A3037 RMK AO2,KCSQ,2015-02-22T06:55:00Z,41.02,-94.37,-11.0,-16.0,360,12,17,10.0,30.369095,,,TRUE,TRUE,,,,,,,FEW,12000,,,,,,,VFR,,,,,,,,,,,,METAR,394.0
KCQF 220655Z AUTO 15004KT 10SM BKN075 16/15 A3006 RMK AO2,KCQF,2015-02-22T06:55:00Z,30.47,-87.88,16.0,15.0,150,4,,10.0,30.059055,,,TRUE,TRUE,,,,,,,BKN,7500,,,,,,,VFR,,,,,,,,,,,,METAR,28.0
KCQB 220655Z AUTO 07006KT 10SM BKN039 BKN095 06/04 A3016 RMK AO2,KCQB,2015-02-22T06:55:00Z,35.72,-96.82,6.0,4.0,70,6,,10.0,30.159449,,,TRUE,TRUE,,,,,,,BKN,3900,BKN,9500,,,,,VFR,,,,,,,,,,,,METAR,300.0
KCPT 220655Z AUTO 06007KT 10SM CLR 08/06 A3002 RMK AO2,KCPT,2015-02-22T06:55:00Z,32.35,-97.43,8.0,6.0,60,7,,10.0,30.02067,,,TRUE,TRUE,,,,,,,CLR,,,,,,,,VFR,,,,,,,,,,,,METAR,260.0
KCPC 220655Z AUTO 18003KT 10SM CLR 12/11 A3019 RMK AO2 T01200105,KCPC,2015-02-22T06:55:00Z,34.28,-78.72,12.0,10.5,180,3,,10.0,30.188976,,,TRUE,TRUE,,,,,,,CLR,,,,,,,,VFR,,,,,,,,,,,,METAR,29.0
KCOM 220655Z AUTO 00000KT 7SM CLR 08/05 A3000 RMK AO2 T00770052,KCOM,2015-02-22T06:55:00Z,31.83,-99.4,7.7,5.2,0,0,,7.0,30.0,,,TRUE,TRUE,,,,,,,CLR,,,,,,,,VFR,,,,,,,,,,,,METAR,517.0
KCNC 220655Z AUTO 34018G24KT 10SM FEW130 FEW150 M10/M20 A3035 RMK AO2,KCNC,2015-02-22T06:55:00Z,41.02,-93.37,-10.0,-20.0,340,18,24,10.0,30.351377,,,TRUE,TRUE,,,,,,,FEW,13000,FEW,15000,,,,,VFR,,,,,,,,,,,,METAR,320.0
KCIN 220655Z AUTO 35015G21KT 10SM SCT090 BKN120 M13/M19 A3041 RMK AO2,KCIN,2015-02-22T06:55:00Z,42.03,-94.77,-13.0,-19.0,350,15,21,10.0,30.410433,,,TRUE,TRUE,,,,,,,SCT,9000,BKN,12000,,,,,VFR,,,,,,,,,,,,METAR,375.0
KCHK 220655Z AUTO 09009KT 10SM CLR 05/02 A3010 RMK AO2,KCHK,2015-02-22T06:55:00Z,35.1,-97.97,5.0,2.0,90,9,,10.0,30.100393,,,TRUE,TRUE,,,,,,,CLR,,,,,,,,VFR,,,,,,,,,,,,METAR,351.0
KCFD 220655Z AUTO 04004KT 10SM SCT023 12/08 A3000 RMK AO2 T01230082,KCFD,2015-02-22T06:55:00Z,30.72,-96.33,12.3,8.2,40,4,,10.0,30.0,,,TRUE,TRUE,,,,,,,SCT,2300,,,,,,,VFR,,,,,,,,,,,,METAR,112.0
KCCY 220655Z AUTO 32016G21KT 10SM CLR M16/M21 A3036 RMK AO2,KCCY,2015-02-22T06:55:00Z,43.07,-92.62,-16.0,-21.0,320,16,21,10.0,30.360237,,,TRUE,TRUE,,,,,,,CLR,,,,,,,,VFR,,,,,,,,,,,,METAR,343.0
KCBF 220655Z AUTO 35011G19KT 10SM FEW065 BKN075 OVC095 M09/M16 A3042 RMK AO2,KCBF,2015-02-22T06:55:00Z,41.27,-95.77,-9.0,-16.0,350,11,19,10.0,30.41929,,,TRUE,TRUE,,,,,,,FEW,6500,BKN,7500,OVC,9500,,,VFR,,,,,,,,,,,,METAR,382.0
KCAV 220655Z AUTO 34013G19KT 10SM CLR M15/M21 A3039 RMK AO2,KCAV,2015-02-22T06:55:00Z,42.75,-93.77,-15.0,-21.0,340,13,19,10.0,30.389763,,,TRUE,TRUE,,,,,,,CLR,,,,,,,,VFR,,,,,,,,,,,,METAR,354.0
KC35 220655Z AUTO 29005KT 10SM SCT034 M10/M15 A3024 RMK AO2 T11011151,KC35,2015-02-22T06:55:00Z,43.53,-89.98,-10.1,-15.1,290,5,,10.0,30.239174,,,TRUE,TRUE,,,,,,,SCT,3400,,,,,,,VFR,,,,,,,,,,,,METAR,276.0
KC29 220655Z AUTO 30005KT 10SM CLR M09/M15 A3023 RMK AO1 T10901147,KC29,2015-02-22T06:55:00Z,43.12,-89.53,-9.0,-14.7,300,5,,10.0,30.230314,,,TRUE,TRUE,,,,,,,CLR,,,,,,,,VFR,,,,,,,,,,,,METAR,283.0
KC09 220655Z AUTO 30012KT 10SM OVC037 M02/M05 A3019 RMK AO2 T10231050,KC09,2015-02-22T06:55:00Z,41.43,-88.42,-2.3,-5.0,300,12,,10.0,30.188976,,,TRUE,TRUE,,,,,,,OVC,3700,,,,,,,VFR,,,,,,,,,,,,METAR,178.0
KBVN 220655Z AUTO 35009G15KT 10SM OVC095 M09/M16 A3043 RMK AO2 T10911163,KBVN,2015-02-22T06:55:00Z,41.73,-98.05,-9.1,-16.3,350,9,15,10.0,30.431103,,,TRUE,TRUE,,,,,,,OVC,9500,,,,,,,VFR,,,,,,,,,,,,METAR,551.0
KBTA 220655Z AUTO 34014G21KT 10SM SCT110 M09/M17 A3043 RMK AO2 T10881168,KBTA,2015-02-22T06:55:00Z,41.42,-96.12,-8.8,-16.8,340,14,21,10.0,30.431103,,,TRUE,TRUE,,,,,,,SCT,11000,,,,,,,VFR,,,,,,,,,,,,METAR,396.0
KBPG 220655Z AUTO 05007KT 10SM CLR 09/03 A2998 RMK AO2 T00850025,KBPG,2015-02-22T06:55:00Z,32.22,-101.52,8.5,2.5,50,7,,10.0,29.97933,,,TRUE,TRUE,,,,,,,CLR,,,,,,,,VFR,,,,,,,,,,,,METAR,784.0
KBNW 220655Z AUTO 34018KT 10SM BKN110 M14/M20 A3036 RMK AO2,KBNW,2015-02-22T06:55:00Z,42.03,-93.83,-14.0,-20.0,340,18,,10.0,30.360237,,,TRUE,TRUE,,,,,,,BKN,11000,,,,,,,VFR,,,,,,,,,,,,METAR,354.0
KXSA 220655Z AUTO 00000KT 4SM DZ BKN002 OVC009 02/00 A3016 RMK AO2 T00160000,KXSA,2015-02-22T06:55:00Z,37.87,-76.9,1.6,0.0,0,0,,4.0,30.159449,,,TRUE,TRUE,,,,,,DZ,BKN,200,OVC,900,,,,,LIFR,,,,,,,,,,,,METAR,42.0
KXLL 220655Z AUTO 00000KT 2 1/2SM -SN BKN015 OVC030 M03/M04 A3014 RMK AO2 P0002,KXLL,2015-02-22T06:55:00Z,40.57,-75.48,-3.0,-4.0,0,0,,2.5,30.138779,,,TRUE,TRUE,,,,,,-SN,BKN,1500,OVC,3000,,,,,IFR,,,,,,0.02,,,,,,METAR,122.0
KWDR 220655Z AUTO 03005KT 2 1/2SM RA SCT003 BKN010 OVC033 04/04 A3018 RMK AO1,KWDR,2015-02-22T06:55:00Z,33.98,-83.67,4.0,4.0,30,5,,2.5,30.180119,,,TRUE,TRUE,,,,,,RA,SCT,300,BKN,1000,OVC,3300,,,IFR,,,,,,,,,,,,METAR,287.0
KVCV 220655Z AUTO 19014KT 10SM CLR 10/05 A2981 RMK AO2,KVCV,2015-02-22T06:55:00Z,34.58,-117.38,10.0,5.0,190,14,,10.0,29.811024,,,TRUE,TRUE,,,,,,,CLR,,,,,,,,VFR,,,,,,,,,,,,METAR,876.0
KVBW 220655Z AUTO 17003KT 10SM BKN035 OVC046 02/01 A3005 RMK AO2 T00190006,KVBW,2015-02-22T06:55:00Z,38.37,-78.97,1.9,0.6,170,3,,10.0,30.050198,,,TRUE,TRUE,,,,,,,BKN,3500,OVC,4600,,,,,VFR,,,,,,,,,,,,METAR,355.0
KTZR 220655Z AUTO 31007KT 4SM BR CLR A3013 RMK AO2,KTZR,2015-02-22T06:55:00Z,39.9,-83.13,,,310,7,,4.0,30.129921,,,TRUE,TRUE,,,,,,BR,CLR,,,,,,,,MVFR,,,,,,,,,,,,METAR,276.0
KTVK 220655Z AUTO 34011KT 10SM CLR M09/M13 A3035 RMK AO2,KTVK,2015-02-22T06:55:00Z,40.68,-92.9,-9.0,-13.0,340,11,,10.0,30.351377,,,TRUE,TRUE,,,,,,,CLR,,,,,,,,VFR,,,,,,,,,,,,METAR,314.0
KTQH 220655Z AUTO 03003KT 10SM CLR 01/00 A3020 RMK AO2,KTQH,2015-02-22T06:55:00Z,35.93,-95.0,1.0,0.0,30,3,,10.0,30.200787,,,TRUE,TRUE,,,,,,,CLR,,,,,,,,VFR,,,,,,,,,,,,METAR,266.0
KTOC 220655Z AUTO 00000KT 3/4SM -RA BKN021 OVC034 04/04 A3015 RMK AO2 T00390035,KTOC,2015-02-22T06:55:00Z,34.6,-83.3,3.9,3.5,0,0,,0.75,30.15059,,,TRUE,TRUE,,,,,,-RA,BKN,2100,OVC,3400,,,,,LIFR,,,,,,,,,,,,METAR,304.0
KTNB 220655Z AUTO 26005KT 240V300 10SM SCT014 SCT039 BKN050 06/03 A3007 RMK AO2 T00560025,KTNB,2015-02-22T06:55:00Z,36.2,-81.65,5.6,2.5,260,5,,10.0,30.070866,,,TRUE,TRUE,,,,,,,SCT,1400,SCT,3900,BKN,5000,,,VFR,,,,,,,,,,,,METAR,911.0
KTMK 220655Z AUTO 09003KT 10SM CLR 10/M02 A3036 RMK AO2,KTMK,2015-02-22T06:55:00Z,45.42,-123.82,10.0,-2.0,90,3,,10.0,30.360237,,,TRUE,TRUE,,,,,,,CLR,,,,,,,,VFR,,,,,,,,,,,,METAR,11.0
KTKV 220655Z AUTO 00000KT 10SM CLR M19/M21 A3019 RMK AO2 T11951215,KTKV,2015-02-22T06:55:00Z,45.47,-89.82,-19.5,-21.5,0,0,,10.0,30.188976,,,TRUE,TRUE,,,,,,,CLR,,,,,,,,VFR,,,,,,,,,,,,METAR,453.0
KTGI 220655Z AUTO 22004KT 2SM OVC005 01/00 A3017 RMK AO1 P0012,KTGI,2015-02-22T06:55:00Z,37.82,-75.98,1.0,0.0,220,4,,2.0,30.171259,,,TRUE,TRUE,,,,,,,OVC,500,,,,,,,IFR,,,,,,0.12,,,,,,METAR,2.0
KLCK 220655Z AUTO 31003KT 5SM BR CLR M06/M07 A3013 RMK AO2 T10641075,KLCK,2015-02-22T06:55:00Z,39.82,-82.92,-6.4,-7.5,310,3,,5.0,30.129921,,,TRUE,TRUE,,,,,,BR,CLR,,,,,,,,MVFR,,,,,,,,,,,,METAR,227.0
KLCG 220655Z AUTO 35011G15KT 10SM OVC110 M11/M17 A3046 RMK AO2 T11071170,KLCG,2015-02-22T06:55:00Z,42.25,-96.98,-10.7,-17.0,350,11,15,10.0,30.46063,,,TRUE,TRUE,,,,,,,OVC,11000,,,,,,,VFR,,,,,,,,,,,,METAR,436.0
KLAM 220655Z AUTO 04007KT 10SM BKN080 OVC120 01/M05 A3000 RMK AO2 T00091051,KLAM,2015-02-22T06:55:00Z,35.87,-106.27,0.9,-5.1,40,7,,10.0,30.0,,,TRUE,TRUE,,,,,,,BKN,8000,OVC,12000,,,,,VFR,,,,,,,,,,,,METAR,2179.0
MUHA 220655Z 08003KT CAVOK 17/15 Q1019,MUHA,2015-02-22T06:55:00Z,22.97,-82.42,17.0,15.0,80,3,,6.21,30.088583,,,,,,,,,,,CAVOK,,,,,,,,VFR,,,,,,,,,,,,METAR,64.0
FJDG 220655Z 31014KT 8000 -SHRA SCT020 BKN050 OVC080 26/25 A2985 RMK SLP105 P0062 T02610254,FJDG,2015-02-22T06:55:00Z,-7.32,72.42,26.1,25.4,310,14,,4.97,29.84941,1010.5,,,,,,,,,-SHRA,SCT,2000,BKN,5000,OVC,8000,,,MVFR,,,,,,0.62,,,,,,METAR,3.0
KQFQ 220655Z AUTO VRB06KT 4SM HZ FEW039 SCT140 BKN200 05/M04 A2996 RMK AO2 SLP149 T00491045 $,KQFQ,2015-02-22T06:55:00Z,100.65,-1000.65,4.9,-4.5,0,6,,4.0,29.958662,1014.9,,TRUE,TRUE,TRUE,,,,,HZ,FEW,3900,SCT,14000,BKN,20000,,,MVFR,,,,,,,,,,,,METAR,999.0
KQAJ 220655Z 29013G23KT 9999 SCT020 10/03 A3008 RMK SLP188 T01030032,KQAJ,2015-02-22T06:55:00Z,100.65,-1000.65,10.3,3.2,290,13,23,6.21,30.079725,1018.8,,,,,,,,,,SCT,2000,,,,,,,VFR,,,,,,,,,,,,METAR,999.0
KJNX 220655Z AUTO 00000KT M1/4SM FG OVC002 06/06 A3018 RMK AO2,KJNX,2015-02-22T06:55:00Z,35.53,-78.38,6.0,6.0,0,0,,0.25,30.180119,,,TRUE,TRUE,,,,,,FG,OVC,200,,,,,,,LIFR,,,,,,,,,,,,METAR,50.0
KLUA 220655Z AUTO 22008KT 10SM BKN046 BKN050 OVC090 04/03 A3006 RMK AO2,KLUA,2015-02-22T06:55:00Z,38.67,-78.5,4.0,3.0,220,8,,10.0,30.059055,,,TRUE,TRUE,,,,,,,BKN,4600,BKN,5000,OVC,9000,,,VFR,,,,,,,,,,,,METAR,275.0
KJVL 220655Z AUTO 33013KT 10SM OVC039 M06/M13 A3021 RMK AO2,KJVL,2015-02-22T06:55:00Z,42.62,-89.05,-6.0,-13.0,330,13,,10.0,30.209646,,,TRUE,TRUE,,,,,,,OVC,3900,,,,,,,VFR,,,,,,,,,,,,METAR,246.0
KJSO 220655Z AUTO 07007KT 10SM OVC025 11/07 A3004 RMK AO2 T01080080,KJSO,2015-02-22T06:55:00Z,31.87,-95.22,10.8,8.0,70,7,,10.0,30.041338,,,TRUE,TRUE,,,,,,,OVC,2500,,,,,,,MVFR,,,,,,,,,,,,METAR,206.0
KVBS 220655Z AUTO 24012KT 10SM BKN041 OVC055 19/18 A2998 RMK A01,KVBS,2015-02-22T06:55:00Z,29.48,-93.63,19.0,18.0,240,12,,10.0,29.97933,,,TRUE,TRUE,,,,,,,BKN,4100,OVC,5500,,,,,VFR,,,,,,,,,,,,METAR,31.0
KMTV 220655Z AUTO 00000KT 5SM BR SCT035 BKN070 00/00 A3016 RMK AO2 T00020002,KMTV,2015-02-22T06:55:00Z,36.63,-80.02,0.2,0.2,0,0,,5.0,30.159449,,,TRUE,TRUE,,,,,,BR,SCT,3500,BKN,7000,,,,,MVFR,,,,,,,,,,,,METAR,287.0
KMYZ 220655Z AUTO 01015G24KT 10SM OVC070 M06/M11 A3041 RMK AO2,KMYZ,2015-02-22T06:55:00Z,39.25,-96.63,-6.0,-11.0,10,15,24,10.0,30.410433,,,TRUE,TRUE,,,,,,,OVC,7000,,,,,,,VFR,,,,,,,,,,,,METAR,319.0
KMZZ 220655Z AUTO 21004KT 7SM OVC029 M06/M07 A3017 RMK AO2 T10581071,KMZZ,2015-02-22T06:55:00Z,40.48,-85.68,-5.8,-7.1,210,4,,7.0,30.171259,,,TRUE,TRUE,,,,,,,OVC,2900,,,,,,,MVFR,,,,,,,,,,,,METAR,262.0
KOCQ 220655Z AUTO 34005KT 10SM BKN050 M12/M18 A3022 RMK AO1 T11241182,KOCQ,2015-02-22T06:55:00Z,44.87,-87.92,-12.4,-18.2,340,5,,10.0,30.221457,,,TRUE,TRUE,,,,,,,BKN,5000,,,,,,,VFR,,,,,,,,,,,,METAR,183.0
KPNA 220655Z AUTO 25004KT 3SM -SN SCT012 SCT019 OVC050 M11/M12 A3007 RMK AO2,KPNA,2015-02-22T06:55:00Z,42.8,-109.8,-11.0,-12.0,250,4,,3.0,30.070866,,,TRUE,TRUE,,,,,,-SN,SCT,1200,SCT,1900,OVC,5000,,,MVFR,,,,,,,,,,,,METAR,2160.0
KSFM 220655Z AUTO 24003KT 7SM OVC006 M01/M04 A3010 RMK AO1,KSFM,2015-02-22T06:55:00Z,43.38,-70.72,-1.0,-4.0,240,3,,7.0,30.100393,,,TRUE,TRUE,,,,,,,OVC,600,,,,,,,IFR,,,,,,,,,,,,METAR,74.0
KSDY 220655Z AUTO 34007KT 10SM CLR M22/M26 A3066 RMK AO1,KSDY,2015-02-22T06:55:00Z,47.7,-104.2,-22.0,-26.0,340,7,,10.0,30.661417,,,TRUE,TRUE,,,,,,,CLR,,,,,,,,VFR,,,,,,,,,,,,METAR,605.0
KSBS 220655Z AUTO 13006KT 10SM OVC015 M06/M09 A2996 RMK AO1 T10601087,KSBS,2015-02-22T06:55:00Z,40.52,-106.87,-6.0,-8.7,130,6,,10.0,29.958662,,,TRUE,TRUE,,,,,,,OVC,1500,,,,,,,MVFR,,,,,,,,,,,,METAR,2096.0
KRZT 220655Z AUTO 35007KT 7SM SCT021 M03/M05 A3013 RMK AO2,KRZT,2015-02-22T06:55:00Z,39.43,-83.02,-3.0,-5.0,350,7,,7.0,30.129921,,,TRUE,TRUE,,,,,,,SCT,2100,,,,,,,VFR,,,,,,,,,,,,METAR,221.0
KRUT 220655Z 00000KT 10SM OVC021 M06/M06 A3008 RMK AO1 P0002,KRUT,2015-02-22T06:55:00Z,43.52,-72.95,-6.0,-6.0,0,0,,10.0,30.079725,,,,TRUE,,,,,,,OVC,2100,,,,,,,MVFR,,,,,,0.02,,,,,,METAR,240.0
KRKD 220655Z AUTO 22008KT 4SM OVC004 01/01 A3010 RMK AO1 P0002,KRKD,2015-02-22T06:55:00Z,44.07,-69.08,1.0,1.0,220,8,,4.0,30.100393,,,TRUE,TRUE,,,,,,,OVC,400,,,,,,,LIFR,,,,,,0.02,,,,,,METAR,17.0
PAUT 220655Z AUTO 10SM SCT005 BKN015 OVC055 04/04 A2930 RMK AO2 T00370036,PAUT,2015-02-22T06:55:00Z,54.15,-165.6,3.7,3.6,,,,10.0,29.300198,,,TRUE,TRUE,,,,,,,SCT,500,BKN,1500,OVC,5500,,,MVFR,,,,,,,,,,,,METAR,25.0
KSTF 220655Z AUTO 33005KT 5SM -RA BKN008 OVC012 06/06 A3009 RMK AO2 P0002,KSTF,2015-02-22T06:55:00Z,33.43,-88.85,6.0,6.0,330,5,,5.0,30.088583,,,TRUE,TRUE,,,,,,-RA,BKN,800,OVC,1200,,,,,IFR,,,,,,0.02,,,,,,METAR,102.0
KSVC 220655Z AUTO 29010KT 10SM CLR 08/M03 A2996 RMK AO2,KSVC,2015-02-22T06:55:00Z,32.63,-108.15,8.0,-3.0,290,10,,10.0,29.958662,,,TRUE,TRUE,,,,,,,CLR,,,,,,,,VFR,,,,,,,,,,,,METAR,1659.0
KSYI 220655Z AUTO 01005KT 4SM OVC004 03/02 A3011 RMK,KSYI,2015-02-22T06:55:00Z,35.57,-86.45,3.0,2.0,10,5,,4.0,30.109253,,,TRUE,,,,,,,,OVC,400,,,,,,,LIFR,,,,,,,,,,,,METAR,245.0
KTME 220655Z AUTO 34004KT 10SM OVC008 15/13 A3000 RMK AO2,KTME,2015-02-22T06:55:00Z,29.8,-95.9,15.0,13.0,340,4,,10.0,30.0,,,TRUE,TRUE,,,,,,,OVC,800,,,,,,,IFR,,,,,,,,,,,,METAR,51.0
KTPF 220655Z AUTO 00000KT 10SM SCT060 15/13 A3018 RMK AO2,KTPF,2015-02-22T06:55:00Z,27.92,-82.45,15.0,13.0,0,0,,10.0,30.180119,,,TRUE,TRUE,,,,,,,SCT,6000,,,,,,,VFR,,,,,,,,,,,,METAR,3.0
KTTA 220655Z AUTO 00000KT 10SM CLR 03/00 A3018 RMK AO2 T00260000,KTTA,2015-02-22T06:55:00Z,35.58,-79.1,2.6,0.0,0,0,,10.0,30.180119,,,TRUE,TRUE,,,,,,,CLR,,,,,,,,VFR,,,,,,,,,,,,METAR,75.0
KUCY 220655Z AUTO 02007KT 10SM BKN006 OVC011 M01/M01 A3018 RMK,KUCY,2015-02-22T06:55:00Z,36.38,-88.98,-1.0,-1.0,20,7,,10.0,30.180119,,,TRUE,,,,,,,,BKN,600,OVC,1100,,,,,IFR,,,,,,,,,,,,METAR,104.0
EHKD 220655Z AUTO 25009KT 9999 NCD 03/01 Q1006 BLU 25006KT 9999 FEW016,EHKD,2015-02-22T06:55:00Z,52.92,4.77,3.0,1.0,250,9,,6.21,29.704725,,,TRUE,,,,,,,,FEW,1600,,,,,,,VFR,,,,,,,,,,,,METAR,14.0
KUGN 220655Z AUTO 32006KT 8SM OVC044 M04/M08 A3017 RMK AO2 SLP234 T10441078,KUGN,2015-02-22T06:55:00Z,42.42,-87.87,-4.4,-7.8,320,6,,8.0,30.171259,1023.4,,TRUE,TRUE,,,,,,,OVC,4400,,,,,,,VFR,,,,,,,,,,,,METAR,222.0
KW13 220655Z AUTO 25005KT 10SM BKN029 OVC046 05/03 A3005 RMK AO1 T00450027,KW13,2015-02-22T06:55:00Z,38.08,-78.95,4.5,2.7,250,5,,10.0,30.050198,,,TRUE,TRUE,,,,,,,BKN,2900,OVC,4600,,,,,MVFR,,,,,,,,,,,,METAR,443.0
KVTI 220655Z AUTO 33010KT 10SM CLR M11/M16 A3035 RMK AO2 T11151161,KVTI,2015-02-22T06:55:00Z,42.22,-92.02,-11.5,-16.1,330,10,,10.0,30.351377,,,TRUE,TRUE,,,,,,,CLR,,,,,,,,VFR,,,,,,,,,,,,METAR,255.0
KVDI 220655Z AUTO 17003KT 10SM CLR 13/10 A3016 RMK AO2,KVDI,2015-02-22T06:55:00Z,32.2,-82.37,13.0,10.0,170,3,,10.0,30.159449,,,TRUE,TRUE,,,,,,,CLR,,,,,,,,VFR,,,,,,,,,,,,METAR,84.0
KIMM 220655Z AUTO 00000KT 7SM CLR A3017 RMK A01 P000,KIMM,2015-02-22T06:55:00Z,26.43,-81.4,,,0,0,,7.0,30.171259,,,TRUE,TRUE,,,,,,,CLR,,,,,,,,VFR,,,,,,,,,,,,SPECI,12.0
K24J 220655Z AUTO 12004KT 7SM CLR 13/09 A3018 RMK AO1,K24J,2015-02-22T06:55:00Z,30.3,-83.03,13.0,9.0,120,4,,7.0,30.180119,,,TRUE,TRUE,,,,,,,CLR,,,,,,,,VFR,,,,,,,,,,,,SPECI,32.0
KRYV 220655Z AUTO 32004KT 10SM OVC033 M08/M11 A3020 RMK AO2 T10781115,KRYV,2015-02-22T06:55:00Z,43.17,-88.72,-7.8,-11.5,320,4,,10.0,30.200787,,,TRUE,TRUE,,,,,,,OVC,3300,,,,,,,VFR,,,,,,,,,,,,METAR,254.0
KSEE 220655Z AUTO 24006KT 10SM FEW024 OVC039 14/09 A2996 RMK AO2,KSEE,2015-02-22T06:55:00Z,32.82,-116.97,14.0,9.0,240,6,,10.0,29.958662,,,TRUE,TRUE,,,,,,,FEW,2400,OVC,3900,,,,,VFR,,,,,,,,,,,,METAR,117.0
KSRR 220655Z AUTO 24019G22KT 10SM CLR 10/M04 A2995 RMK AO2,KSRR,2015-02-22T06:55:00Z,33.47,-105.52,10.0,-4.0,240,19,22,10.0,29.949802,,,TRUE,TRUE,,,,,,,CLR,,,,,,,,VFR,,,,,,,,,,,,METAR,2076.0
KSTE 220655Z AUTO 00000KT 10SM OVC040 M14/M18 A3022 RMK AO2 T11441176,KSTE,2015-02-22T06:55:00Z,44.55,-89.53,-14.4,-17.6,0,0,,10.0,30.221457,,,TRUE,TRUE,,,,,,,OVC,4000,,,,,,,VFR,,,,,,,,,,,,METAR,338.0
KSUW 220655Z AUTO 31004KT 10SM CLR M20/M25 A3039 RMK AO2 T12031255,KSUW,2015-02-22T06:55:00Z,46.68,-92.1,-20.3,-25.5,310,4,,10.0,30.389763,,,TRUE,TRUE,,,,,,,CLR,,,,,,,,VFR,,,,,,,,,,,,METAR,206.0
KTBR 220655Z AUTO 19006KT 10SM CLR 13/10 A3016 RMK AO2 T01320100,KTBR,2015-02-22T06:55:00Z,32.48,-81.73,13.2,10.0,190,6,,10.0,30.159449,,,TRUE,TRUE,,,,,,,CLR,,,,,,,,VFR,,,,,,,,,,,,METAR,57.0
KTMA 220655Z AUTO 17004KT 10SM BKN095 12/07 A3015 RMK AO2 T01230065,KTMA,2015-02-22T06:55:00Z,31.43,-83.48,12.3,6.5,170,4,,10.0,30.15059,,,TRUE,TRUE,,,,,,,BKN,9500,,,,,,,VFR,,,,,,,,,,,,METAR,109.0
KUES 220655Z AUTO 32012G16KT 10SM OVC042 M07/M13 A3019 RMK AO2,KUES,2015-02-22T06:55:00Z,43.05,-88.25,-7.0,-13.0,320,12,16,10.0,30.188976,,,TRUE,TRUE,,,,,,,OVC,4200,,,,,,,VFR,,,,,,,,,,,,METAR,278.0
KUNU 220655Z AUTO 30006KT 10SM BKN030 M09/M14 A3021 RMK AO2 T10951145,KUNU,2015-02-22T06:55:00Z,43.42,-88.7,-9.5,-14.5,300,6,,10.0,30.209646,,,TRUE,TRUE,,,,,,,BKN,3000,,,,,,,MVFR,,,,,,,,,,,,METAR,285.0
KVER 220655Z AUTO 02006KT 10SM CLR M03/M07 A3032 RMK AO2 T10281072,KVER,2015-02-22T06:55:00Z,38.95,-92.68,-2.8,-7.2,20,6,,10.0,30.318897,,,TRUE,TRUE,,,,,,,CLR,,,,,,,,VFR,,,,,,,,,,,,METAR,218.0
KVNC 220655Z AUTO 09006KT 10SM CLR 15/13 A3017 RMK AO2,KVNC,2015-02-22T06:55:00Z,27.07,-82.43,15.0,13.0,90,6,,10.0,30.171259,,,TRUE,TRUE,,,,,,,CLR,,,,,,,,VFR,,,,,,,,,,,,METAR,6.0
KVVG 220655Z AUTO 00000KT 8SM 14/12 A3009 RMK A01,KVVG,2015-02-22T06:55:00Z,28.95,-81.97,14.0,12.0,0,0,,8.0,30.088583,,,TRUE,TRUE,,,,,,,,,,,,,,,,,,,,,,,,,,,METAR,27.0
KW78 220655Z AUTO 00000KT 3SM SCT015 SCT039 OVC070 00/00 A3016 RMK AO1 P0012 T00001005,KW78,2015-02-22T06:55:00Z,36.68,-78.85,0.0,-0.5,0,0,,3.0,30.159449,,,TRUE,TRUE,,,,,,,SCT,1500,SCT,3900,OVC,7000,,,MVFR,,,,,,0.12,,,,,,METAR,129.0
KVYS 220655Z AUTO 30014KT 10SM OVC037 M04/M07 A3024 RMK AO2 T10361072,KVYS,2015-02-22T06:55:00Z,41.35,-89.15,-3.6,-7.2,300,14,,10.0,30.239174,,,TRUE,TRUE,,,,,,,OVC,3700,,,,,,,VFR,,,,,,,,,,,,METAR,199.0
KOJA 220655Z AUTO 09005KT 10SM OVC055 06/01 A3011 RMK AO2,KOJA,2015-02-22T06:55:00Z,35.55,-98.67,6.0,1.0,90,5,,10.0,30.109253,,,TRUE,TRUE,,,,,,,OVC,5500,,,,,,,VFR,,,,,,,,,,,,METAR,490.0
KF17 220655Z AUTO 04007KT 10SM OVC007 08/07 A3005 RMK AO2 T00810067,KF17,2015-02-22T06:55:00Z,31.83,-94.15,8.1,6.7,40,7,,10.0,30.050198,,,TRUE,TRUE,,,,,,,OVC,700,,,,,,,IFR,,,,,,,,,,,,METAR,97.0
K3AU 220655Z AUTO 03020G25KT 4SM -SN BKN016 OVC030 M01/M04 A3029 RMK AO2,K3AU,2015-02-22T06:55:00Z,37.67,-97.08,-1.0,-4.0,30,20,25,4.0,30.28937,,,TRUE,TRUE,,,,,,-SN,BKN,1600,OVC,3000,,,,,MVFR,,,,,,,,,,,,METAR,405.0
KOLY 220655Z AUTO 00000KT 10SM BKN020 OVC037 M02/M04 A3022 RMK AO2,KOLY,2015-02-22T06:55:00Z,38.72,-88.18,-2.0,-4.0,0,0,,10.0,30.221457,,,TRUE,TRUE,,,,,,,BKN,2000,OVC,3700,,,,,MVFR,,,,,,,,,,,,METAR,147.0
KOLG 220655Z AUTO 33003KT 10SM CLR M20/M25 A3030 RMK AO1,KOLG,2015-02-22T06:55:00Z,46.3,-91.82,-20.0,-25.0,330,3,,10.0,30.301182,,,TRUE,TRUE,,,,,,,CLR,,,,,,,,VFR,,,,,,,,,,,,METAR,336.0
KOKM 220655Z AUTO 03008KT 10SM CLR 03/01 A3018 RMK AO2 T00250010,KOKM,2015-02-22T06:55:00Z,35.67,-95.95,2.5,1.0,30,8,,10.0,30.180119,,,TRUE,TRUE,,,,,,,CLR,,,,,,,,VFR,,,,,,,,,,,,METAR,220.0
KOXV 220655Z AUTO 34014KT 10SM CLR M10/M17 A3035 RMK AO2,KOXV,2015-02-22T06:55:00Z,41.28,-93.12,-10.0,-17.0,340,14,,10.0,30.351377,,,TRUE,TRUE,,,,,,,CLR,,,,,,,,VFR,,,,,,,,,,,,METAR,283.0
KOUN 220655Z AUTO 06007KT 10SM CLR 03/01 A3014 RMK AO2,KOUN,2015-02-22T06:55:00Z,35.25,-97.47,3.0,1.0,60,7,,10.0,30.138779,,,TRUE,TRUE,,,,,,,CLR,,,,,,,,VFR,,,,,,,,,,,,METAR,357.0
KOSA 220655Z AUTO 07012G17KT 10SM CLR 07/02 A3009 RMK AO1 T00730023,KOSA,2015-02-22T06:55:00Z,33.1,-94.97,7.3,2.3,70,12,17,10.0,30.088583,,,TRUE,TRUE,,,,,,,CLR,,,,,,,,VFR,,,,,,,,,,,,METAR,111.0
KORC 220655Z AUTO 35014G18KT 10SM CLR M13/M19 A3043 RMK AO2,KORC,2015-02-22T06:55:00Z,42.97,-96.07,-13.0,-19.0,350,14,18,10.0,30.431103,,,TRUE,TRUE,,,,,,,CLR,,,,,,,,VFR,,,,,,,,,,,,METAR,431.0
KOPL 220655Z AUTO 22005KT 10SM OVC032 18/17 A3000 RMK AO2 T01840167,KOPL,2015-02-22T06:55:00Z,30.55,-92.1,18.4,16.7,220,5,,10.0,30.0,,,TRUE,TRUE,,,,,,,OVC,3200,,,,,,,VFR,,,,,,,,,,,,METAR,23.0
KOOA 220655Z AUTO 34015KT 10SM CLR M10/M15 A3035 RMK AO2 T11041155,KOOA,2015-02-22T06:55:00Z,41.23,-92.5,-10.4,-15.5,340,15,,10.0,30.351377,,,TRUE,TRUE,,,,,,,CLR,,,,,,,,VFR,,,,,,,,,,,,METAR,256.0
KONL 220655Z AUTO 35010KT 10SM SCT025 BKN100 M10/M14 A3044 RMK AO2 T11001144,KONL,2015-02-22T06:55:00Z,42.47,-98.67,-10.0,-14.4,350,10,,10.0,30.43996,,,TRUE,TRUE,,,,,,,SCT,2500,BKN,10000,,,,,VFR,,,,,,,,,,,,METAR,619.0
KOMH 220655Z AUTO 17006KT 7SM OVC004 01/01 A3013 RMK AO2,KOMH,2015-02-22T06:55:00Z,38.25,-78.05,1.0,1.0,170,6,,7.0,30.129921,,,TRUE,TRUE,,,,,,,OVC,400,,,,,,,LIFR,,,,,,,,,,,,METAR,142.0
KOLZ 220655Z AUTO 32016G21KT 10SM CLR M14/M18 A3033 RMK AO2,KOLZ,2015-02-22T06:55:00Z,42.67,-91.97,-14.0,-18.0,320,16,21,10.0,30.33071,,,TRUE,TRUE,,,,,,,CLR,,,,,,,,VFR,,,,,,,,,,,,METAR,328.0
KPEA 220655Z AUTO 35010G14KT 10SM CLR M11/M14 A3037 RMK AO2 T11111145,KPEA,2015-02-22T06:55:00Z,41.4,-92.95,-11.1,-14.5,350,10,14,10.0,30.369095,,,TRUE,TRUE,,,,,,,CLR,,,,,,,,VFR,,,,,,,,,,,,METAR,270.0
KPBX 220655Z AUTO 00000KT 1/4SM FG OVC003 03/03 A3007 RMK AO2 T00300030,KPBX,2015-02-22T06:55:00Z,37.57,-82.57,3.0,3.0,0,0,,0.25,30.070866,,,TRUE,TRUE,,,,,,FG,OVC,300,,,,,,,LIFR,,,,,,,,,,,,METAR,449.0
KOZA 220655Z AUTO 11004KT 10SM CLR 13/06 A2996 RMK AO2,KOZA,2015-02-22T06:55:00Z,30.73,-101.2,13.0,6.0,110,4,,10.0,29.958662,,,TRUE,TRUE,,,,,,,CLR,,,,,,,,VFR,,,,,,,,,,,,METAR,726.0
KPGV 220655Z AUTO 20006KT 10SM CLR 12/11 A3021 RMK AO2,KPGV,2015-02-22T06:55:00Z,35.62,-77.4,12.0,11.0,200,6,,10.0,30.209646,,,TRUE,TRUE,,,,,,,CLR,,,,,,,,VFR,,,,,,,,,,,,METAR,8.0
KPNT 220655Z AUTO 30010KT 7SM OVC030 M02/M04 A3022 RMK AO2 T10201045,KPNT,2015-02-22T06:55:00Z,40.92,-88.62,-2.0,-4.5,300,10,,7.0,30.221457,,,TRUE,TRUE,,,,,,,OVC,3000,,,,,,,MVFR,,,,,,,,,,,,METAR,201.0
KPLU 220655Z AUTO 00000KT 10SM FEW075 01/01 A3042 RMK AO2,KPLU,2015-02-22T06:55:00Z,47.1,-122.28,1.0,1.0,0,0,,10.0,30.41929,,,TRUE,TRUE,,,,,,,FEW,7500,,,,,,,VFR,,,,,,,,,,,,METAR,164.0
KPSK 220655Z AUTO 00000KT 2 1/2SM BR OVC055 02/02 A3007 RMK AO2 T00150015,KPSK,2015-02-22T06:55:00Z,37.12,-80.67,1.5,1.5,0,0,,2.5,30.070866,,,TRUE,TRUE,,,,,,BR,OVC,5500,,,,,,,IFR,,,,,,,,,,,,METAR,642.0
KPRS 220655Z AUTO 10SM SCT120 19/04 A2986 RMK AO2 T01850039,KPRS,2015-02-22T06:55:00Z,29.63,-104.35,18.5,3.9,,,,10.0,29.861221,,,TRUE,TRUE,,,,,,,SCT,12000,,,,,,,VFR,,,,,,,,,,,,METAR,896.0
KPRG 220655Z AUTO 00000KT 4SM BR OVC035 M05/M05 A3021 RMK AO2 T10471054,KPRG,2015-02-22T06:55:00Z,39.7,-87.67,-4.7,-5.4,0,0,,4.0,30.209646,,,TRUE,TRUE,,,,,,BR,OVC,3500,,,,,,,MVFR,,,,,,,,,,,,METAR,199.0
KPPA 220655Z AUTO 12012KT 10SM CLR 05/00 A3006 RMK AO2 T00501004,KPPA,2015-02-22T06:55:00Z,35.62,-101.0,5.0,-0.4,120,12,,10.0,30.059055,,,TRUE,TRUE,,,,,,,CLR,,,,,,,,VFR,,,,,,,,,,,,METAR,989.0
KPOY 220655Z AUTO 35015KT M14/M16 A3030 RMK AO2 PWINO,KPOY,2015-02-22T06:55:00Z,44.87,-108.8,-14.0,-16.0,350,15,,,30.301182,,,TRUE,TRUE,,,,,TRUE,,,,,,,,,,,,,,,,,,,,,,METAR,1552.0
KPVB 220655Z AUTO 28005KT 10SM CLR M11/M14 A3025 RMK AO1 T11071138,KPVB,2015-02-22T06:55:00Z,42.68,-90.43,-10.7,-13.8,280,5,,10.0,30.250984,,,TRUE,TRUE,,,,,,,CLR,,,,,,,,VFR,,,,,,,,,,,,METAR,313.0
KPTB 220655Z AUTO 17003KT 1 3/4SM BR OVC003 02/02 A3018 RMK AO2 T00200017,KPTB,2015-02-22T06:55:00Z,37.17,-77.52,2.0,1.7,170,3,,1.75,30.180119,,,TRUE,TRUE,,,,,,BR,OVC,300,,,,,,,LIFR,,,,,,,,,,,,METAR,59.0
KRAS 220655Z AUTO 17012G16KT 5SM BR BKN007 BKN013 OVC017 19/19 A2994 RMK AO2 T01880185,KRAS,2015-02-22T06:55:00Z,27.82,-97.08,18.8,18.5,170,12,16,5.0,29.940945,,,TRUE,TRUE,,,,,,BR,BKN,700,BKN,1300,OVC,1700,,,IFR,,,,,,,,,,,,METAR,2.0
KPXE 220655Z AUTO 18004KT 10SM SCT065 14/07 A3014 RMK AO2 T01350071,KPXE,2015-02-22T06:55:00Z,32.52,-83.77,13.5,7.1,180,4,,10.0,30.138779,,,TRUE,TRUE,,,,,,,SCT,6500,,,,,,,VFR,,,,,,,,,,,,METAR,127.0
KPVW 220655Z AUTO 11009KT 10SM CLR 04/02 A3000 RMK AO2 T00390015,KPVW,2015-02-22T06:55:00Z,34.17,-101.72,3.9,1.5,110,9,,10.0,30.0,,,TRUE,TRUE,,,,,,,CLR,,,,,,,,VFR,,,,,,,,,,,,METAR,1028.0
KBKD 220655Z AUTO 07007KT 7SM CLR 08/03 A3003 RMK AO2 T00820031,KBKD,2015-02-22T06:55:00Z,32.72,-98.88,8.2,3.1,70,7,,7.0,30.029528,,,TRUE,TRUE,,,,,,,CLR,,,,,,,,VFR,,,,,,,,,,,,METAR,392.0
KAZE 220655Z AUTO 19005KT 10SM CLR 14/10 A3015 RMK AO2 T01400095,KAZE,2015-02-22T06:55:00Z,31.88,-82.65,14.0,9.5,190,5,,10.0,30.15059,,,TRUE,TRUE,,,,,,,CLR,,,,,,,,VFR,,,,,,,,,,,,METAR,78.0
KASJ 220655Z AUTO 00000KT 10SM BKN016 BKN022 OVC110 02/00 A3021 RMK AO2 T00211003,KASJ,2015-02-22T06:55:00Z,36.28,-77.17,2.1,-0.3,0,0,,10.0,30.209646,,,TRUE,TRUE,,,,,,,BKN,1600,BKN,2200,OVC,11000,,,MVFR,,,,,,,,,,,,METAR,21.0
KACP 220655Z AUTO 20004KT 7SM SCT033 SCT041 OVC090 19/17 A3000 RMK AO2 T01870170,KACP,2015-02-22T06:55:00Z,30.75,-92.68,18.7,17.0,200,4,,7.0,30.0,,,TRUE,TRUE,,,,,,,SCT,3300,SCT,4100,OVC,9000,,,VFR,,,,,,,,,,,,METAR,33.0
KACJ 220655Z AUTO 23005KT 10SM OVC048 13/08 A3015 RMK AO2,KACJ,2015-02-22T06:55:00Z,32.12,-84.18,13.0,8.0,230,5,,10.0,30.15059,,,TRUE,TRUE,,,,,,,OVC,4800,,,,,,,VFR,,,,,,,,,,,,METAR,143.0
K6R3 220655Z AUTO 00000KT 2 1/2SM BR 17/17 A2999 RMK AO2 T01710169,K6R3,2015-02-22T06:55:00Z,30.35,-95.0,17.1,16.9,0,0,,2.5,29.991142,,,TRUE,TRUE,,,,,,BR,,,,,,,,,,,,,,,,,,,,,METAR,46.0
K5H4 220655Z AUTO 35005KT 10SM CLR M29/M32 A3057 RMK AO2,K5H4,2015-02-22T06:55:00Z,47.78,-99.93,-29.0,-32.0,350,5,,10.0,30.569881,,,TRUE,TRUE,,,,,,,CLR,,,,,,,,VFR,,,,,,,,,,,,METAR,490.0
K3T5 220655Z AUTO 00000KT 10SM OVC017 15/10 A2998 RMK AO2 T01500098,K3T5,2015-02-22T06:55:00Z,29.9,-96.95,15.0,9.8,0,0,,10.0,29.97933,,,TRUE,TRUE,,,,,,,OVC,1700,,,,,,,MVFR,,,,,,,,,,,,METAR,99.0
K3N8 220655Z AUTO 32010KT 10SM CLR M28/M31 A3047 RMK AO2 T12771306,K3N8,2015-02-22T06:55:00Z,47.25,-95.88,-27.7,-30.6,320,10,,10.0,30.469488,,,TRUE,TRUE,,,,,,,CLR,,,,,,,,VFR,,,,,,,,,,,,METAR,383.0
K20U 220655Z AUTO 35007KT 10SM BKN003 M22/M23 A3053 RMK AO2,K20U,2015-02-22T06:55:00Z,46.93,-103.98,-22.0,-23.0,350,7,,10.0,30.528543,,,TRUE,TRUE,,,,,,,BKN,300,,,,,,,LIFR,,,,,,,,,,,,METAR,840.0
K1F0 220655Z AUTO 05005KT 10SM CLR 06/01 A3010 RMK AO2,K1F0,2015-02-22T06:55:00Z,34.15,-97.12,6.0,1.0,50,5,,10.0,30.100393,,,TRUE,TRUE,,,,,,,CLR,,,,,,,,VFR,,,,,,,,,,,,METAR,257.0
KY49 220655Z AUTO 30004KT 10SM CLR M26/M29 A3039 RMK AO2 T12601287,KY49,2015-02-22T06:55:00Z,47.13,-94.65,-26.0,-28.7,300,4,,10.0,30.389763,,,TRUE,TRUE,,,,,,,CLR,,,,,,,,VFR,,,,,,,,,,,,METAR,416.0
KY19 220655Z AUTO 35016KT 10SM SCT020 M22/M25 A3055 RMK AO2,KY19,2015-02-22T06:55:00Z,46.77,-100.9,-22.0,-25.0,350,16,,10.0,30.549213,,,TRUE,TRUE,,,,,,,SCT,2000,,,,,,,VFR,,,,,,,,,,,,METAR,593.0
KWWR 220655Z AUTO 05013G21KT 10SM SCT026 OVC035 06/01 A3016 RMK AO2,KWWR,2015-02-22T06:55:00Z,36.45,-99.52,6.0,1.0,50,13,21,10.0,30.159449,,,TRUE,TRUE,,,,,,,SCT,2600,OVC,3500,,,,,VFR,,,,,,,,,,,,METAR,667.0
KWDG 220655Z AUTO 06013G17KT 10SM -RA BKN022 BKN027 BKN033 06/04 A3016 RMK AO2,KWDG,2015-02-22T06:55:00Z,36.37,-97.77,6.0,4.0,60,13,17,10.0,30.159449,,,TRUE,TRUE,,,,,,-RA,BKN,2200,BKN,2700,BKN,3300,,,MVFR,,,,,,,,,,,,METAR,356.0
KW99 220655Z AUTO 00000KT 5SM BR OVC042 M01/M01 A3006 RMK AO2 T10081008,KW99,2015-02-22T06:55:00Z,39.0,-79.15,-0.8,-0.8,0,0,,5.0,30.059055,,,TRUE,TRUE,,,,,,BR,OVC,4200,,,,,,,MVFR,,,,,,,,,,,,METAR,293.0
KW63 220655Z AUTO 00000KT 3SM OVC002 00/00 A3016 RMK AO1,KW63,2015-02-22T06:55:00Z,36.6,-78.55,0.0,0.0,0,0,,3.0,30.159449,,,TRUE,TRUE,,,,,,,OVC,200,,,,,,,LIFR,,,,,,,,,,,,METAR,129.0
KMNE 220655Z AUTO 04003KT 10SM BKN039 OVC045 06/04 A3010 RMK AO2 T00610037,KMNE,2015-02-22T06:55:00Z,32.65,-93.3,6.1,3.7,40,3,,10.0,30.100393,,,TRUE,TRUE,,,,,,,BKN,3900,OVC,4500,,,,,VFR,,,,,,,,,,,,METAR,85.0
KMGC 220655Z AUTO 23004KT 7SM OVC020 M03/M07 A3017 RMK AO2,KMGC,2015-02-22T06:55:00Z,41.7,-86.82,-3.0,-7.0,230,4,,7.0,30.171259,,,TRUE,TRUE,,,,,,,OVC,2000,,,,,,,MVFR,,,,,,,,,,,,METAR,200.0
KMDD 220655Z AUTO 09008KT 10SM CLR 10/04 A2993 RMK AO2 T01020043,KMDD,2015-02-22T06:55:00Z,32.03,-102.1,10.2,4.3,90,8,,10.0,29.929134,,,TRUE,TRUE,,,,,,,CLR,,,,,,,,VFR,,,,,,,,,,,,METAR,854.0
KLOT 220655Z AUTO 29006KT 7SM OVC038 M03/M05 A3019 RMK AO2 T10261052,KLOT,2015-02-22T06:55:00Z,41.6,-88.1,-2.6,-5.2,290,6,,7.0,30.188976,,,TRUE,TRUE,,,,,,,OVC,3800,,,,,,,VFR,,,,,,,,,,,,METAR,205.0
KLNL 220655Z AUTO 31004KT 5SM -SN CLR M20/M22 A3015 RMK AO2 T11961218,KLNL,2015-02-22T06:55:00Z,46.15,-89.22,-19.6,-21.8,310,4,,5.0,30.15059,,,TRUE,TRUE,,,,,,-SN,CLR,,,,,,,,MVFR,,,,,,,,,,,,METAR,520.0
KJOT 220655Z AUTO 28004KT 5SM BR OVC038 M03/M05 A3019 RMK AO2 T10261050,KJOT,2015-02-22T06:55:00Z,41.52,-88.18,-2.6,-5.0,280,4,,5.0,30.188976,,,TRUE,TRUE,,,,,,BR,OVC,3800,,,,,,,MVFR,,,,,,,,,,,,METAR,177.0
KJES 220655Z AUTO 00000KT 10SM CLR 15/12 A3017 RMK AO2,KJES,2015-02-22T06:55:00Z,31.55,-81.88,15.0,12.0,0,0,,10.0,30.171259,,,TRUE,TRUE,,,,,,,CLR,,,,,,,,VFR,,,,,,,,,,,,METAR,33.0
KHRX 220655Z AUTO 11011KT 10SM CLR 04/01 A3001 RMK AO2 T00400010,KHRX,2015-02-22T06:55:00Z,34.87,-102.33,4.0,1.0,110,11,,10.0,30.008858,,,TRUE,TRUE,,,,,,,CLR,,,,,,,,VFR,,,,,,,,,,,,METAR,1154.0
KHOE 220655Z AUTO 18003KT 10SM CLR 14/09 A3017 RMK AO2,KHOE,2015-02-22T06:55:00Z,31.05,-82.78,14.0,9.0,180,3,,10.0,30.171259,,,TRUE,TRUE,,,,,,,CLR,,,,,,,,VFR,,,,,,,,,,,,METAR,57.0
KHHG 220655Z AUTO 17003KT 10SM OVC026 M05/M08 A3015 RMK AO2 T10531084,KHHG,2015-02-22T06:55:00Z,40.85,-85.45,-5.3,-8.4,170,3,,10.0,30.15059,,,TRUE,TRUE,,,,,,,OVC,2600,,,,,,,MVFR,,,,,,,,,,,,METAR,246.0
KHFJ 220655Z AUTO 36005KT 3SM BR SCT022 SCT027 BKN120 00/00 A3022 RMK AO2,KHFJ,2015-02-22T06:55:00Z,36.9,-94.02,0.0,0.0,360,5,,3.0,30.221457,,,TRUE,TRUE,,,,,,BR,SCT,2200,SCT,2700,BKN,12000,,,MVFR,,,,,,,,,,,,METAR,401.0
KGYH 220655Z AUTO 06005KT 3SM RA SCT025 OVC033 01/01 A3015 RMK AO2 P0009,KGYH,2015-02-22T06:55:00Z,34.75,-82.38,1.0,1.0,60,5,,3.0,30.15059,,,TRUE,TRUE,,,,,,RA,SCT,2500,OVC,3300,,,,,MVFR,,,,,,0.09,,,,,,METAR,292.0
KGVE 220655Z AUTO 22004KT 5SM BR OVC005 00/00 A3011 RMK AO1 P0003 T00001003,KGVE,2015-02-22T06:55:00Z,38.15,-78.17,0.0,-0.3,220,4,,5.0,30.109253,,,TRUE,TRUE,,,,,,BR,OVC,500,,,,,,,IFR,,,,,,0.03,,,,,,METAR,138.0
KFZG 220655Z AUTO 00000KT 10SM BKN100 BKN120 12/06 A3018 RMK AO2 T01150055 PWINO,KFZG,2015-02-22T06:55:00Z,31.68,-83.27,11.5,5.5,0,0,,10.0,30.180119,,,TRUE,TRUE,,,,,TRUE,,BKN,10000,BKN,12000,,,,,VFR,,,,,,,,,,,,METAR,111.0
KFXY 220655Z AUTO 33015G23KT 10SM CLR M16/M22 A3038 RMK AO2,KFXY,2015-02-22T06:55:00Z,43.23,-93.62,-16.0,-22.0,330,15,23,10.0,30.380905,,,TRUE,TRUE,,,,,,,CLR,,,,,,,,VFR,,,,,,,,,,,,METAR,375.0
KEOE 220655Z AUTO 00000KT 10SM SCT065 SCT075 OVC100 05/00 A3018 RMK AO2,KEOE,2015-02-22T06:55:00Z,34.32,-81.63,5.0,0.0,0,0,,10.0,30.180119,,,TRUE,TRUE,,,,,,,SCT,6500,SCT,7500,OVC,10000,,,VFR,,,,,,,,,,,,METAR,174.0
KENL 220655Z AUTO 35008KT 7SM OVC035 00/M03 A3023 RMK AO2 T00001032,KENL,2015-02-22T06:55:00Z,38.52,-89.1,0.0,-3.2,350,8,,7.0,30.230314,,,TRUE,TRUE,,,,,,,OVC,3500,,,,,,,VFR,,,,,,,,,,,,METAR,163.0
KEFT 220655Z AUTO 35008G14KT 10SM OVC032 M07/M11 A3021 RMK AO2,KEFT,2015-02-22T06:55:00Z,42.62,-89.6,-7.0,-11.0,350,8,14,10.0,30.209646,,,TRUE,TRUE,,,,,,,OVC,3200,,,,,,,VFR,,,,,,,,,,,,METAR,331.0
KDNN 220655Z AUTO 00000KT 7SM -RA SCT035 BKN075 OVC090 06/06 A3009 RMK AO2,KDNN,2015-02-22T06:55:00Z,34.72,-84.87,6.0,6.0,0,0,,7.0,30.088583,,,TRUE,TRUE,,,,,,-RA,SCT,3500,BKN,7500,OVC,9000,,,VFR,,,,,,,,,,,,METAR,216.0
KDCY 220655Z AUTO 32004KT 10SM OVC021 M04/M06 A3019 RMK AO2 T10361057,KDCY,2015-02-22T06:55:00Z,38.7,-87.13,-3.6,-5.7,320,4,,10.0,30.188976,,,TRUE,TRUE,,,,,,,OVC,2100,,,,,,,MVFR,,,,,,,,,,,,METAR,144.0
KCKM 220655Z AUTO 01013G18KT 7SM OVC009 02/02 A3016 RMK AO1,KCKM,2015-02-22T06:55:00Z,34.3,-90.52,2.0,2.0,10,13,18,7.0,30.159449,,,TRUE,TRUE,,,,,,,OVC,900,,,,,,,IFR,,,,,,,,,,,,METAR,53.0
KCDH 220655Z AUTO 10SM SCT012 BKN060 BKN090 04/02 A3014 RMK AO2,KCDH,2015-02-22T06:55:00Z,33.62,-92.77,4.0,2.0,,,,10.0,30.138779,,,TRUE,TRUE,,,,,,,SCT,1200,BKN,6000,BKN,9000,,,VFR,,,,,,,,,,,,METAR,35.0
K5A6 220655Z AUTO 03008KT 10SM OVC008 05/05 A3007 RMK AO2 P0003 T00540047,K5A6,2015-02-22T06:55:00Z,33.47,-89.73,5.4,4.7,30,8,,10.0,30.070866,,,TRUE,TRUE,,,,,,,OVC,800,,,,,,,IFR,,,,,,0.03,,,,,,METAR,111.0
KCFJ 220655Z AUTO 27003KT 10SM BKN012 OVC036 M04/M08 A3019 RMK AO2 T10451078,KCFJ,2015-02-22T06:55:00Z,,,-4.5,-7.8,270,3,,10.0,30.188976,,,TRUE,TRUE,,,,,,,BKN,1200,OVC,3600,,,,,MVFR,,,,,,,,,,,,METAR,
KZPH 220655Z AUTO 00000KT 7SM CLR 10/10 A3019 RMK AO2,KZPH,2015-02-22T06:55:00Z,28.23,-82.15,10.0,10.0,0,0,,7.0,30.188976,,,TRUE,TRUE,,,,,,,CLR,,,,,,,,VFR,,,,,,,,,,,,METAR,26.0
KW75 220655Z AUTO 00000KT 2 1/2SM BKN004 OVC022 01/00 A3019 RMK AO1 P0003 T00050000,KW75,2015-02-22T06:55:00Z,37.6,-76.45,0.5,0.0,0,0,,2.5,30.188976,,,TRUE,TRUE,,,,,,,BKN,400,OVC,2200,,,,,LIFR,,,,,,0.03,,,,,,METAR,9.0
KMQB 220655Z AUTO 33011KT 10SM OVC023 M04/M07 A3029 RMK AO2 T10401071,KMQB,2015-02-22T06:55:00Z,40.52,-90.65,-4.0,-7.1,330,11,,10.0,30.28937,,,TRUE,TRUE,,,,,,,OVC,2300,,,,,,,MVFR,,,,,,,,,,,,METAR,215.0
KSZT 220655Z AUTO 02007KT 10SM CLR M01/M13 A3048 RMK AO2,KSZT,2015-02-22T06:55:00Z,48.3,-116.57,-1.0,-13.0,20,7,,10.0,30.481298,,,TRUE,TRUE,,,,,,,CLR,,,,,,,,VFR,,,,,,,,,,,,METAR,648.0
KSUN 220655Z AUTO 36003KT 10SM SCT031 OVC039 M03/M09 A3010 RMK AO2,KSUN,2015-02-22T06:55:00Z,43.5,-114.28,-3.0,-9.0,360,3,,10.0,30.100393,,,TRUE,TRUE,,,,,,,SCT,3100,OVC,3900,,,,,VFR,,,,,,,,,,,,METAR,1620.0
KSCD 220655Z AUTO 00000KT 1 1/2SM -RA SCT041 BKN060 OVC085 12/12 A3009 RMK AO2 P0008 T01190119,KSCD,2015-02-22T06:55:00Z,33.17,-86.3,11.9,11.9,0,0,,1.5,30.088583,,,TRUE,TRUE,,,,,,-RA,SCT,4100,BKN,6000,OVC,8500,,,IFR,,,,,,0.08,,,,,,METAR,173.0
KRYW 220655Z AUTO 06005KT 10SM OVC023 11/07 A3000 RMK AO2 T01110068,KRYW,2015-02-22T06:55:00Z,30.5,-97.97,11.1,6.8,60,5,,10.0,30.0,,,TRUE,TRUE,,,,,,,OVC,2300,,,,,,,MVFR,,,,,,,,,,,,METAR,376.0
KPVJ 220655Z AUTO 07006KT 10SM CLR 05/01 A3012 RMK AO2 T00450010,KPVJ,2015-02-22T06:55:00Z,34.72,-97.22,4.5,1.0,70,6,,10.0,30.121063,,,TRUE,TRUE,,,,,,,CLR,,,,,,,,VFR,,,,,,,,,,,,METAR,295.0
KPRO 220655Z AUTO 34015KT 10SM M12/M18 A3041 RMK AO2 T11241183,KPRO,2015-02-22T06:55:00Z,41.83,-94.17,-12.4,-18.3,340,15,,10.0,30.410433,,,TRUE,TRUE,,,,,,,,,,,,,,,,,,,,,,,,,,,METAR,308.0
KOBE 220655Z AUTO 00000KT 1 1/4SM BR VV007 12/12 A3019 RMK AO2,KOBE,2015-02-22T06:55:00Z,27.27,-80.85,12.0,12.0,0,0,,1.25,30.188976,,,TRUE,TRUE,,,,,,BR,OVX,0,,,,,,,LIFR,,,,,,,,,,,700,METAR,11.0
KW31 220655Z AUTO 15004KT 1SM BKN003 BKN025 OVC035 01/01 A3014 RMK AO1 P0015 T00070005,KW31,2015-02-22T06:55:00Z,36.95,-78.18,0.7,0.5,150,4,,1.0,30.138779,,,TRUE,TRUE,,,,,,,BKN,300,BKN,2500,OVC,3500,,,LIFR,,,,,,0.15,,,,,,METAR,162.0
KVJI 220655Z AUTO 00000KT 7SM BKN042 OVC048 03/03 A3004 RMK AO2 T00330032,KVJI,2015-02-22T06:55:00Z,36.67,-82.02,3.3,3.2,0,0,,7.0,30.041338,,,TRUE,TRUE,,,,,,,BKN,4200,OVC,4800,,,,,VFR,,,,,,,,,,,,METAR,631.0
KUVA 220655Z AUTO 07009KT 10SM BKN011 17/14 A2993 RMK AO2 T01660141,KUVA,2015-02-22T06:55:00Z,29.22,-99.75,16.6,14.1,70,9,,10.0,29.929134,,,TRUE,TRUE,,,,,,,BKN,1100,,,,,,,MVFR,,,,,,,,,,,,METAR,287.0
KRZN 220655Z AUTO 32008KT 10SM CLR M19/M25 A3036 RMK AO2 T11901250,KRZN,2015-02-22T06:55:00Z,45.82,-92.37,-19.0,-25.0,320,8,,10.0,30.360237,,,TRUE,TRUE,,,,,,,CLR,,,,,,,,VFR,,,,,,,,,,,,METAR,301.0
KRWV 220655Z AUTO 00000KT 10SM OVC022 13/08 A3002 RMK AO2,KRWV,2015-02-22T06:55:00Z,30.52,-96.7,13.0,8.0,0,0,,10.0,30.02067,,,TRUE,TRUE,,,,,,,OVC,2200,,,,,,,MVFR,,,,,,,,,,,,METAR,119.0
KLRO 220655Z AUTO 00000KT 9SM -RA CLR 08/07 A3019 RMK AO2,KLRO,2015-02-22T06:55:00Z,32.9,-79.78,8.0,7.0,0,0,,9.0,30.188976,,,TRUE,TRUE,,,,,,-RA,CLR,,,,,,,,VFR,,,,,,,,,,,,METAR,4.0
KHII 220655Z AUTO 13010G17KT 10SM CLR 20/02 A2970 RMK AO2,KHII,2015-02-22T06:55:00Z,34.57,-114.37,20.0,2.0,130,10,17,10.0,29.698818,,,TRUE,TRUE,,,,,,,CLR,,,,,,,,VFR,,,,,,,,,,,,METAR,238.0
KHBV 220655Z AUTO 13014KT 7SM OVC006 A2990 RMK AO2 PWINO,KHBV,2015-02-22T06:55:00Z,27.35,-98.73,,,130,14,,7.0,29.899607,,,TRUE,TRUE,,,,,TRUE,,OVC,600,,,,,,,IFR,,,,,,,,,,,,METAR,202.0
KGLW 220655Z AUTO 01005KT 5SM BR OVC004 00/00 A3014 RMK AO2 T00020002,KGLW,2015-02-22T06:55:00Z,37.03,-85.95,0.2,0.2,10,5,,5.0,30.138779,,,TRUE,TRUE,,,,,,BR,OVC,400,,,,,,,LIFR,,,,,,,,,,,,METAR,218.0
KDED 220655Z AUTO 16003KT 10SM CLR A3021 RMK AO1,KDED,2015-02-22T06:55:00Z,29.07,-81.28,,,160,3,,10.0,30.209646,,,TRUE,TRUE,,,,,,,CLR,,,,,,,,VFR,,,,,,,,,,,,METAR,24.0
KCCA 220655Z AUTO 00000KT 7SM OVC016 03/00 A3021 RMK AO2,KCCA,2015-02-22T06:55:00Z,35.6,-92.45,3.0,0.0,0,0,,7.0,30.209646,,,TRUE,TRUE,,,,,,,OVC,1600,,,,,,,MVFR,,,,,,,,,,,,METAR,157.0
KBWP 220655Z AUTO 35013G21KT 10SM SCT008 SCT039 M22/M27 A3054 RMK AO1,KBWP,2015-02-22T06:55:00Z,46.25,-96.62,-22.0,-27.0,350,13,21,10.0,30.540354,,,TRUE,TRUE,,,,,,,SCT,800,SCT,3900,,,,,VFR,,,,,,,,,,,,METAR,295.0
KBUU 220655Z AUTO 33010KT 10SM -SN SCT028 BKN033 OVC046 M07/M11 A3019 RMK AO2 T10681115,KBUU,2015-02-22T06:55:00Z,42.68,-88.3,-6.8,-11.5,330,10,,10.0,30.188976,,,TRUE,TRUE,,,,,,-SN,SCT,2800,BKN,3300,OVC,4600,,,VFR,,,,,,,,,,,,METAR,237.0
KANK 220655Z AUTO 11013G20KT 10SM OVC020 M04/M08 A3009 RMK AO1 T10381077,KANK,2015-02-22T06:55:00Z,38.53,-106.05,-3.8,-7.7,110,13,20,10.0,30.088583,,,TRUE,TRUE,,,,,,,OVC,2000,,,,,,,MVFR,,,,,,,,,,,,METAR,2293.0
KAIG 220655Z AUTO 31003KT 10SM BKN023 M20/M22 A3016 RMK AO2 T12051220,KAIG,2015-02-22T06:55:00Z,45.15,-89.12,-20.5,-22.0,310,3,,10.0,30.159449,,,TRUE,TRUE,,,,,,,BKN,2300,,,,,,,MVFR,,,,,,,,,,,,METAR,464.0
K2J9 220655Z AUTO 19003KT 10SM FEW060 OVC080 12/10 A3016 RMK AO1,K2J9,2015-02-22T06:55:00Z,30.6,-84.55,12.0,10.0,190,3,,10.0,30.159449,,,TRUE,TRUE,,,,,,,FEW,6000,OVC,8000,,,,,VFR,,,,,,,,,,,,METAR,69.0
K2C8 220655Z AUTO 34013KT 10SM CLR M27/M31 A3061 RMK AO2,K2C8,2015-02-22T06:55:00Z,48.78,-97.63,-27.0,-31.0,340,13,,10.0,30.611221,,,TRUE,TRUE,,,,,,,CLR,,,,,,,,VFR,,,,,,,,,,,,METAR,272.0
K28J 220655Z AUTO 17004KT 10SM FEW035 SCT055 SCT065 14/12 A3020 RMK AO2,K28J,2015-02-22T06:55:00Z,29.65,-81.58,14.0,12.0,170,4,,10.0,30.200787,,,TRUE,TRUE,,,,,,,FEW,3500,SCT,5500,SCT,6500,,,VFR,,,,,,,,,,,,METAR,15.0
K06D 220655Z AUTO 33009KT 10SM SCT034 SCT040 BKN049 M30/M34 A3054 RMK AO2,K06D,2015-02-22T06:55:00Z,48.88,-99.62,-30.0,-34.0,330,9,,10.0,30.540354,,,TRUE,TRUE,,,,,,,SCT,3400,SCT,4000,BKN,4900,,,VFR,,,,,,,,,,,,METAR,556.0
KVQT 220655Z AUTO VRB04G10KT 5SM HZ BKN070 22/19 A3002 RMK A01,KVQT,2015-02-22T06:55:00Z,28.27,-92.27,22.0,19.0,0,4,10,5.0,30.02067,,,TRUE,TRUE,,,,,,HZ,BKN,7000,,,,,,,MVFR,,,,,,,,,,,,METAR,25.0
KVOA 220655Z AUTO VRB08G14KT 10SM OVC060 21/19 A3006 RMK A01,KVOA,2015-02-22T06:55:00Z,29.23,-87.78,21.0,19.0,0,8,14,10.0,30.059055,,,TRUE,TRUE,,,,,,,OVC,6000,,,,,,,VFR,,,,,,,,,,,,METAR,53.0
KVKY 220655Z AUTO 00000KT 10SM BKN050 OVC070 21/19 A3005 RMK A01,KVKY,2015-02-22T06:55:00Z,29.25,-88.43,21.0,19.0,0,0,,10.0,30.050198,,,TRUE,TRUE,,,,,,,BKN,5000,OVC,7000,,,,,VFR,,,,,,,,,,,,METAR,32.0
KXIH 220655Z AUTO 20010KT 5SM BR FEW031 BKN065 18/17 A2998 RMK A01,KXIH,2015-02-22T06:55:00Z,29.18,-94.52,18.0,17.0,200,10,,5.0,29.97933,,,TRUE,TRUE,,,,,,BR,FEW,3100,BKN,6500,,,,,MVFR,,,,,,,,,,,,METAR,75.0
KAEJ 220655Z AUTO 07006KT 10SM BKN030 OVC034 M07/M12 A3002 RMK AO2 T10701121,KAEJ,2015-02-22T06:55:00Z,38.82,-106.12,-7.0,-12.1,70,6,,10.0,30.02067,,,TRUE,TRUE,,,,,,,BKN,3000,OVC,3400,,,,,MVFR,,,,,,,,,,,,METAR,2422.0
KXPY 220655Z AUTO 18006KT 6SM BR CLR 19/17 A3007 RMK A01,KXPY,2015-02-22T06:55:00Z,29.12,-90.2,19.0,17.0,180,6,,6.0,30.070866,,,TRUE,TRUE,,,,,,BR,CLR,,,,,,,,VFR,,,,,,,,,,,,METAR,2.0
KGNT 220655Z AUTO 00000KT 10SM CLR M02/M10 A2996 RMK AO2 T10241096 401571043,KGNT,2015-02-22T06:55:00Z,35.17,-107.9,-2.4,-9.6,0,0,,10.0,29.958662,,,TRUE,TRUE,,,,,,,CLR,,,,,,,,VFR,,,,15.7,-4.3,,,,,,,METAR,1987.0
KGHG 220655Z AUTO 27003KT 3/4SM -RA OVC002 03/02 A3014 RMK AO2 VSBY 1/2V2 P0005,KGHG,2015-02-22T06:55:00Z,42.1,-70.67,3.0,2.0,270,3,,0.75,30.138779,,,TRUE,TRUE,,,,,,-RA,OVC,200,,,,,,,LIFR,,,,,,0.05,,,,,,METAR,4.0
KGCD 220655Z AUTO 33007KT 10SM CLR 00/M07 A3023 RMK AO2 T10051067,KGCD,2015-02-22T06:55:00Z,44.38,-118.97,-0.5,-6.7,330,7,,10.0,30.230314,,,TRUE,TRUE,,,,,,,CLR,,,,,,,,VFR,,,,,,,,,,,,METAR,1127.0
KGBG 220655Z AUTO 33011KT 10SM OVC021 M05/M09 A3027 RMK AO2 T10551091,KGBG,2015-02-22T06:55:00Z,40.93,-90.43,-5.5,-9.1,330,11,,10.0,30.268702,,,TRUE,TRUE,,,,,,,OVC,2100,,,,,,,MVFR,,,,,,,,,,,,METAR,233.0
KFWS 220655Z AUTO 06004KT 10SM CLR 08/04 A3003 RMK AO2 T00760042,KFWS,2015-02-22T06:55:00Z,32.57,-97.3,7.6,4.2,60,4,,10.0,30.029528,,,TRUE,TRUE,,,,,,,CLR,,,,,,,,VFR,,,,,,,,,,,,METAR,208.0
KFSW 220655Z AUTO 34014KT 10SM SCT025 M07/M11 A3030 RMK AO2,KFSW,2015-02-22T06:55:00Z,40.67,-91.32,-7.0,-11.0,340,14,,10.0,30.301182,,,TRUE,TRUE,,,,,,,SCT,2500,,,,,,,VFR,,,,,,,,,,,,METAR,221.0
KFQD 220655Z AUTO 00000KT 1SM RA BKN033 OVC041 01/01 A3017 RMK AO2 P0004 T00060006,KFQD,2015-02-22T06:55:00Z,35.42,-81.93,0.6,0.6,0,0,,1.0,30.171259,,,TRUE,TRUE,,,,,,RA,BKN,3300,OVC,4100,,,,,IFR,,,,,,0.04,,,,,,METAR,329.0
KFOA 220655Z AUTO 32007KT 10SM OVC021 M01/M03 A3023 RMK AO2 T10071033,KFOA,2015-02-22T06:55:00Z,38.67,-88.45,-0.7,-3.3,320,7,,10.0,30.230314,,,TRUE,TRUE,,,,,,,OVC,2100,,,,,,,MVFR,,,,,,,,,,,,METAR,144.0
KFKN 220655Z AUTO 00000KT 10SM OVC016 01/00 A3021 RMK AO2 T00070000,KFKN,2015-02-22T06:55:00Z,36.7,-76.9,0.7,0.0,0,0,,10.0,30.209646,,,TRUE,TRUE,,,,,,,OVC,1600,,,,,,,MVFR,,,,,,,,,,,,METAR,12.0
KFIN 220655Z AUTO 17005KT 10SM CLR 14/13 A3020 RMK AO2 T01440125,KFIN,2015-02-22T06:55:00Z,29.47,-81.2,14.4,12.5,170,5,,10.0,30.200787,,,TRUE,TRUE,,,,,,,CLR,,,,,,,,VFR,,,,,,,,,,,,METAR,10.0
KFFL 220655Z AUTO 34013KT 10SM CLR M09/M14 A3033 RMK AO2,KFFL,2015-02-22T06:55:00Z,41.03,-91.97,-9.0,-14.0,340,13,,10.0,30.33071,,,TRUE,TRUE,,,,,,,CLR,,,,,,,,VFR,,,,,,,,,,,,METAR,244.0
KBKT 220655Z AUTO 2SM SCT004 BKN010 OVC060 01/01 A3014 RMK AO1 P0016 T00100006,KBKT,2015-02-22T06:55:00Z,37.07,-77.95,1.0,0.6,,,,2.0,30.138779,,,TRUE,TRUE,,,,,,,SCT,400,BKN,1000,OVC,6000,,,IFR,,,,,,0.16,,,,,,METAR,134.0
KBIJ 220655Z AUTO 00000KT 10SM OVC060 15/12 A3014 RMK AO2,KBIJ,2015-02-22T06:55:00Z,31.4,-84.9,15.0,12.0,0,0,,10.0,30.138779,,,TRUE,TRUE,,,,,,,OVC,6000,,,,,,,VFR,,,,,,,,,,,,METAR,65.0
KBIE 220655Z AUTO 01017G22KT 10SM OVC070 M07/M14 A3044 RMK AO2 T10751144,KBIE,2015-02-22T06:55:00Z,40.28,-96.75,-7.5,-14.4,10,17,22,10.0,30.43996,,,TRUE,TRUE,,,,,,,OVC,7000,,,,,,,VFR,,,,,,,,,,,,METAR,403.0
KAXH 220655Z AUTO 00000KT 4SM BR BKN009 BKN025 OVC041 19/19 A2998 RMK AO2 T01850185,KAXH,2015-02-22T06:55:00Z,29.52,-95.48,18.5,18.5,0,0,,4.0,29.97933,,,TRUE,TRUE,,,,,,BR,BKN,900,BKN,2500,OVC,4100,,,IFR,,,,,,,,,,,,METAR,21.0
KAXA 220655Z AUTO 35016G23KT 10SM SCT120 M16/M21 A3041 RMK AO2,KAXA,2015-02-22T06:55:00Z,43.07,-94.27,-16.0,-21.0,350,16,23,10.0,30.410433,,,TRUE,TRUE,,,,,,,SCT,12000,,,,,,,VFR,,,,,,,,,,,,METAR,372.0
KAWG 220655Z AUTO 33011KT 10SM CLR M09/M11 A3033 RMK AO2,KAWG,2015-02-22T06:55:00Z,41.27,-91.67,-9.0,-11.0,330,11,,10.0,30.33071,,,TRUE,TRUE,,,,,,,CLR,,,,,,,,VFR,,,,,,,,,,,,METAR,230.0
KAVQ 220655Z AUTO 18005KT 10SM CLR 18/02 A2985 RMK AO2 T01810015,KAVQ,2015-02-22T06:55:00Z,32.4,-111.22,18.1,1.5,180,5,,10.0,29.84941,,,TRUE,TRUE,,,,,,,CLR,,,,,,,,VFR,,,,,,,,,,,,METAR,619.0
KAUH 220655Z AUTO 01016G19KT 10SM BKN100 M08/M15 A3043 RMK AO2 T10831148,KAUH,2015-02-22T06:55:00Z,40.88,-98.0,-8.3,-14.8,10,16,19,10.0,30.431103,,,TRUE,TRUE,,,,,,,BKN,10000,,,,,,,VFR,,,,,,,,,,,,METAR,550.0
KATW 220655Z AUTO 34007KT 10SM OVC044 M10/M16 A3020 RMK AO2,KATW,2015-02-22T06:55:00Z,44.27,-88.52,-10.0,-16.0,340,7,,10.0,30.200787,,,TRUE,TRUE,,,,,,,OVC,4400,,,,,,,VFR,,,,,,,,,,,,METAR,280.0
KASL 220655Z AUTO 08007KT 10SM OVC037 09/06 A3009 RMK AO1 T00900055,KASL,2015-02-22T06:55:00Z,32.52,-94.3,9.0,5.5,80,7,,10.0,30.088583,,,TRUE,TRUE,,,,,,,OVC,3700,,,,,,,VFR,,,,,,,,,,,,METAR,109.0
KARM 220655Z AUTO 00000KT 4SM BR BKN008 OVC015 18/18 A2998 RMK AO2 T01810177,KARM,2015-02-22T06:55:00Z,29.25,-96.15,18.1,17.7,0,0,,4.0,29.97933,,,TRUE,TRUE,,,,,,BR,BKN,800,OVC,1500,,,,,IFR,,,,,,,,,,,,METAR,31.0
KAQO 220655Z AUTO 13004KT 10SM OVC031 10/07 A3003 RMK AO2,KAQO,2015-02-22T06:55:00Z,30.78,-98.67,10.0,7.0,130,4,,10.0,30.029528,,,TRUE,TRUE,,,,,,,OVC,3100,,,,,,,VFR,,,,,,,,,,,,METAR,336.0
KANW 220655Z AUTO 35011KT 10SM -SN BKN015 OVC085 M10/M13 A3041 RMK AO2 T11031130,KANW,2015-02-22T06:55:00Z,42.57,-100.0,-10.3,-13.0,350,11,,10.0,30.410433,,,TRUE,TRUE,,,,,,-SN,BKN,1500,OVC,8500,,,,,MVFR,,,,,,,,,,,,METAR,789.0
KALX 220655Z AUTO 00000KT 7SM RA BKN009 BKN015 OVC034 14/12 A3010 RMK AO2 P0022 T01400115,KALX,2015-02-22T06:55:00Z,32.92,-85.97,14.0,11.5,0,0,,7.0,30.100393,,,TRUE,TRUE,,,,,,RA,BKN,900,BKN,1500,OVC,3400,,,IFR,,,,,,0.22,,,,,,METAR,209.0
KAIO 220655Z AUTO 01013KT 10SM OVC100 M10/M16 A3041 RMK AO2,KAIO,2015-02-22T06:55:00Z,41.38,-95.03,-10.0,-16.0,10,13,,10.0,30.410433,,,TRUE,TRUE,,,,,,,OVC,10000,,,,,,,VFR,,,,,,,,,,,,METAR,360.0
KAHQ 220655Z AUTO 36014KT 10SM SCT090 OVC110 M09/M17 A3046 RMK AO2 T10881175,KAHQ,2015-02-22T06:55:00Z,41.23,-96.6,-8.8,-17.5,360,14,,10.0,30.46063,,,TRUE,TRUE,,,,,,,SCT,9000,OVC,11000,,,,,VFR,,,,,,,,,,,,METAR,374.0
KAFP 220655Z AUTO 00000KT 10SM OVC100 04/M01 A3018 RMK AO2 T00401010,KAFP,2015-02-22T06:55:00Z,35.02,-80.08,4.0,-1.0,0,0,,10.0,30.180119,,,TRUE,TRUE,,,,,,,OVC,10000,,,,,,,VFR,,,,,,,,,,,,METAR,92.0
KAFK 220655Z AUTO 01014KT 10SM SCT100 BKN120 M07/M16 A3042 RMK AO2 T10671160,KAFK,2015-02-22T06:55:00Z,40.6,-95.85,-6.7,-16.0,10,14,,10.0,30.41929,,,TRUE,TRUE,,,,,,,SCT,10000,BKN,12000,,,,,VFR,,,,,,,,,,,,METAR,354.0
KADU 220655Z AUTO 34008KT 10SM CLR M12/M17 A3041 RMK AO2,KADU,2015-02-22T06:55:00Z,41.7,-94.92,-12.0,-17.0,340,8,,10.0,30.410433,,,TRUE,TRUE,,,,,,,CLR,,,,,,,,VFR,,,,,,,,,,,,METAR,392.0
KADS 220655Z AUTO 06008G14KT 10SM SCT024 10/05 A3005 RMK AO2 T00950052,KADS,2015-02-22T06:55:00Z,32.97,-96.82,9.5,5.2,60,8,14,10.0,30.050198,,,TRUE,TRUE,,,,,,,SCT,2400,,,,,,,VFR,,,,,,,,,,,,METAR,196.0
K6B0 220655Z AUTO 18006KT 10SM OVC014 M04/M05 A3010 RMK AO2 T10451053,K6B0,2015-02-22T06:55:00Z,43.98,-73.1,-4.5,-5.3,180,6,,10.0,30.100393,,,TRUE,TRUE,,,,,,,OVC,1400,,,,,,,MVFR,,,,,,,,,,,,METAR,149.0
K66R 220655Z AUTO 36003KT 10SM -RA OVC011 15/12 A2998 RMK AO2 T01450120,K66R,2015-02-22T06:55:00Z,29.65,-96.52,14.5,12.0,360,3,,10.0,29.97933,,,TRUE,TRUE,,,,,,-RA,OVC,1100,,,,,,,MVFR,,,,,,,,,,,,METAR,74.0
K54J 220655Z AUTO 16006KT 4SM RA OVC003 15/15 A3011 RMK AO2 P0005 T01500148,K54J,2015-02-22T06:55:00Z,30.73,-86.15,15.0,14.8,160,6,,4.0,30.109253,,,TRUE,TRUE,,,,,,RA,OVC,300,,,,,,,LIFR,,,,,,0.05,,,,,,METAR,88.0
K3R7 220655Z AUTO 20004KT 7SM -RA BKN032 BKN050 OVC060 17/17 A3000 RMK AO2 P0004 T01730168,K3R7,2015-02-22T06:55:00Z,30.25,-92.67,17.3,16.8,200,4,,7.0,30.0,,,TRUE,TRUE,,,,,,-RA,BKN,3200,BKN,5000,OVC,6000,,,VFR,,,,,,0.04,,,,,,METAR,7.0
K3LF 220655Z AUTO 33009KT 10SM OVC021 M01/M04 A3023 RMK AO2 T10101043,K3LF,2015-02-22T06:55:00Z,39.17,-89.67,-1.0,-4.3,330,9,,10.0,30.230314,,,TRUE,TRUE,,,,,,,OVC,2100,,,,,,,MVFR,,,,,,,,,,,,METAR,210.0
K2G9 220655Z AUTO 27003KT 4SM -SN OVC004 00/00 A3000 RMK AO2,K2G9,2015-02-22T06:55:00Z,40.03,-79.02,0.0,0.0,270,3,,4.0,30.0,,,TRUE,TRUE,,,,,,-SN,OVC,400,,,,,,,LIFR,,,,,,,,,,,,METAR,693.0
K1L0 220655Z AUTO 24006KT 7SM BKN055 OVC065 19/16 A3003 RMK AO2 T01930163,K1L0,2015-02-22T06:55:00Z,30.08,-90.58,19.3,16.3,240,6,,7.0,30.029528,,,TRUE,TRUE,,,,,,,BKN,5500,OVC,6500,,,,,VFR,,,,,,,,,,,,METAR,2.0
K1H2 220655Z AUTO 30004KT 7SM M02/M06 A3024 RMK AO2 T10221057,K1H2,2015-02-22T06:55:00Z,39.07,-88.53,-2.2,-5.7,300,4,,7.0,30.239174,,,TRUE,TRUE,,,,,,,,,,,,,,,,,,,,,,,,,,,METAR,179.0
K1A6 220655Z AUTO 00000KT 1/2SM -RA OVC004 01/01 A3010 RMK AO2 P0004 T00090009,K1A6,2015-02-22T06:55:00Z,36.62,-83.73,0.9,0.9,0,0,,0.5,30.100393,,,TRUE,TRUE,,,,,,-RA,OVC,400,,,,,,,LIFR,,,,,,0.04,,,,,,METAR,352.0
K0VG 220655Z AUTO 00000KT 1/2SM -RA BKN003 BKN011 OVC016 00/00 A3011 RMK AO2 P0001,K0VG,2015-02-22T06:55:00Z,36.65,-83.22,0.0,0.0,0,0,,0.5,30.109253,,,TRUE,TRUE,,,,,,-RA,BKN,300,BKN,1100,OVC,1600,,,LIFR,,,,,,0.01,,,,,,METAR,430.0
K0V4 220655Z AUTO 00000KT 7SM SCT005 SCT032 OVC065 01/01 A3015 RMK AO1 P0002 T00100010,K0V4,2015-02-22T06:55:00Z,37.15,-79.02,1.0,1.0,0,0,,7.0,30.15059,,,TRUE,TRUE,,,,,,,SCT,500,SCT,3200,OVC,6500,,,VFR,,,,,,0.02,,,,,,METAR,182.0
K0F2 220655Z AUTO 05004KT 10SM SCT024 06/03 A3005 RMK AO2 T00610030,K0F2,2015-02-22T06:55:00Z,33.6,-97.78,6.1,3.0,50,4,,10.0,30.050198,,,TRUE,TRUE,,,,,,,SCT,2400,,,,,,,VFR,,,,,,,,,,,,METAR,336.0
K0E0 220655Z AUTO 25003KT 10SM CLR 00/M03 A2997 RMK AO2 T00001035,K0E0,2015-02-22T06:55:00Z,34.98,-106.0,0.0,-3.5,250,3,,10.0,29.970472,,,TRUE,TRUE,,,,,,,CLR,,,,,,,,VFR,,,,,,,,,,,,METAR,1890.0
KQTZ 220655Z 35010G18KT 9999 CLR 10/02 A3012 RMK SLP199 WND DATA ESTMD ALSTG/SLP ESTMD,KQTZ,2015-02-22T06:55:00Z,100.65,-1000.65,10.0,2.0,350,10,18,6.21,30.121063,1019.9,,,,,,,,,,CLR,,,,,,,,VFR,,,,,,,,,,,,METAR,999.0
KQXT 220655Z 16020G29KT 0800 DS BKN000 OVC014 26/M05 A2992 RMK DU BKN000 OVC014 SLP113 WND DATA ESTMD ALSTG/SLP ESTMD Q1013,KQXT,2015-02-22T06:55:00Z,100.65,-1000.65,26.0,-5.0,160,20,29,0.5,29.920275,1011.3,,,,,,,,,DS,BKN,0,OVC,1400,,,,,LIFR,,,,,,,,,,,,METAR,999.0
KEDU 220655Z AUTO 34006KT 4SM SCT016 SCT110 10/09 A2986 RMK AO1,KEDU,2015-02-22T06:55:00Z,38.53,-121.78,10.0,9.0,340,6,,4.0,29.861221,,,TRUE,TRUE,,,,,,,SCT,1600,SCT,11000,,,,,MVFR,,,,,,,,,,,,METAR,21.0
KEBG 220655Z AUTO 15007KT 10SM OVC016 23/19 A2992 RMK AO2 T02250185,KEBG,2015-02-22T06:55:00Z,26.45,-98.13,22.5,18.5,150,7,,10.0,29.920275,,,TRUE,TRUE,,,,,,,OVC,1600,,,,,,,MVFR,,,,,,,,,,,,METAR,24.0
KE16 220655Z AUTO 00000KT 10SM OVC023 12/11 A2987 RMK AO2,KE16,2015-02-22T06:55:00Z,37.08,-121.6,12.0,11.0,0,0,,10.0,29.870079,,,TRUE,TRUE,,,,,,,OVC,2300,,,,,,,MVFR,,,,,,,,,,,,METAR,86.0
KDZB 220655Z AUTO 00000KT 10SM OVC027 11/06 A3001 RMK AO2 T01100061,KDZB,2015-02-22T06:55:00Z,30.53,-98.37,11.0,6.1,0,0,,10.0,30.008858,,,TRUE,TRUE,,,,,,,OVC,2700,,,,,,,MVFR,,,,,,,,,,,,METAR,334.0
KDUX 220655Z AUTO 11009KT 10SM OVC048 04/00 A3005 RMK AO2 T00400002,KDUX,2015-02-22T06:55:00Z,35.85,-102.02,4.0,0.2,110,9,,10.0,30.050198,,,TRUE,TRUE,,,,,,,OVC,4800,,,,,,,VFR,,,,,,,,,,,,METAR,1129.0
KDUC 220655Z AUTO 07011KT 10SM CLR 06/02 A3008 RMK AO2,KDUC,2015-02-22T06:55:00Z,34.47,-97.97,6.0,2.0,70,11,,10.0,30.079725,,,TRUE,TRUE,,,,,,,CLR,,,,,,,,VFR,,,,,,,,,,,,METAR,339.0
KDQH 220655Z AUTO 00000KT 10SM CLR 12/07 A3018 RMK AO2,KDQH,2015-02-22T06:55:00Z,31.48,-82.87,12.0,7.0,0,0,,10.0,30.180119,,,TRUE,TRUE,,,,,,,CLR,,,,,,,,VFR,,,,,,,,,,,,METAR,78.0
KDPL 220655Z AUTO 00000KT 1 3/4SM BR VV007 10/09 A3022 RMK AO2 T00980094,KDPL,2015-02-22T06:55:00Z,35.0,-77.97,9.8,9.4,0,0,,1.75,30.221457,,,TRUE,TRUE,,,,,,BR,OVX,0,,,,,,,LIFR,,,,,,,,,,,700,METAR,42.0
KDNV 220655Z AUTO 28003KT 5SM BR OVC031 M03/M04 A3018 RMK AO2 T10301045,KDNV,2015-02-22T06:55:00Z,40.2,-87.6,-3.0,-4.5,280,3,,5.0,30.180119,,,TRUE,TRUE,,,,,,BR,OVC,3100,,,,,,,MVFR,,,,,,,,,,,,METAR,212.0
KDNS 220655Z AUTO 35013G19KT 10SM BKN090 OVC110 M12/M19 A3042 RMK AO2,KDNS,2015-02-22T06:55:00Z,41.97,-95.37,-12.0,-19.0,350,13,19,10.0,30.41929,,,TRUE,TRUE,,,,,,,BKN,9000,OVC,11000,,,,,VFR,,,,,,,,,,,,METAR,388.0
KCWC 220655Z AUTO 05008KT 10SM CLR 07/02 A3008 RMK AO2 T00710024,KCWC,2015-02-22T06:55:00Z,33.85,-98.48,7.1,2.4,50,8,,10.0,30.079725,,,TRUE,TRUE,,,,,,,CLR,,,,,,,,VFR,,,,,,,,,,,,METAR,305.0
KCWA 220655Z AUTO 32003KT 10SM CLR M15/M17 A3021 RMK AO2,KCWA,2015-02-22T06:55:00Z,44.78,-89.67,-15.0,-17.0,320,3,,10.0,30.209646,,,TRUE,TRUE,,,,,,,CLR,,,,,,,,VFR,,,,,,,,,,,,METAR,389.0
KCUH 220655Z AUTO 06004KT 10SM OVC042 05/04 A3017 RMK AO2,KCUH,2015-02-22T06:55:00Z,35.95,-96.77,5.0,4.0,60,4,,10.0,30.171259,,,TRUE,TRUE,,,,,,,OVC,4200,,,,,,,VFR,,,,,,,,,,,,METAR,279.0
KCRX 220655Z AUTO 04007G12KT 10SM OVC007 03/01 A3012 RMK AO2,KCRX,2015-02-22T06:55:00Z,34.92,-88.6,3.0,1.0,40,7,12,10.0,30.121063,,,TRUE,TRUE,,,,,,,OVC,700,,,,,,,IFR,,,,,,,,,,,,METAR,130.0
KCPK 220655Z AUTO 18004KT 10SM RA SCT055 OVC075 10/09 A3019 RMK AO2,KCPK,2015-02-22T06:55:00Z,36.67,-76.32,10.0,9.0,180,4,,10.0,30.188976,,,TRUE,TRUE,,,,,,RA,SCT,5500,OVC,7500,,,,,VFR,,,,,,,,,,,,METAR,6.0
KCMD 220655Z AUTO 00000KT 3SM -DZ OVC002 08/07 A3008 RMK AO2 P0001 T00770074,KCMD,2015-02-22T06:55:00Z,34.27,-86.85,7.7,7.4,0,0,,3.0,30.079725,,,TRUE,TRUE,,,,,,-DZ,OVC,200,,,,,,,LIFR,,,,,,0.01,,,,,,METAR,294.0
KCIR 220655Z AUTO 31003KT 3SM BR CLR 00/M01 A3023 RMK AO2 T10011006,KCIR,2015-02-22T06:55:00Z,37.07,-89.22,-0.1,-0.6,310,3,,3.0,30.230314,,,TRUE,TRUE,,,,,,BR,CLR,,,,,,,,MVFR,,,,,,,,,,,,METAR,98.0
KERV 220655Z AUTO 08006KT 10SM OVC017 14/10 A2998 RMK AO2 T01350102,KERV,2015-02-22T06:55:00Z,29.98,-99.08,13.5,10.2,80,6,,10.0,29.97933,,,TRUE,TRUE,,,,,,,OVC,1700,,,,,,,MVFR,,,,,,,,,,,,METAR,510.0
KETC 220655Z AUTO 00000KT 10SM BKN120 12/10 A3021 RMK AO2 T01210104,KETC,2015-02-22T06:55:00Z,35.93,-77.55,12.1,10.4,0,0,,10.0,30.209646,,,TRUE,TRUE,,,,,,,BKN,12000,,,,,,,VFR,,,,,,,,,,,,METAR,17.0
KEYF 220655Z AUTO 00000KT 10SM CLR 11/11 A3019 RMK AO2 T01110111,KEYF,2015-02-22T06:55:00Z,34.6,-78.58,11.1,11.1,0,0,,10.0,30.188976,,,TRUE,TRUE,,,,,,,CLR,,,,,,,,VFR,,,,,,,,,,,,METAR,41.0
KEZM 220655Z AUTO 00000KT 10SM CLR 09/07 A3018 RMK AO2 T00900071,KEZM,2015-02-22T06:55:00Z,32.22,-83.13,9.0,7.1,0,0,,10.0,30.180119,,,TRUE,TRUE,,,,,,,CLR,,,,,,,,VFR,,,,,,,,,,,,METAR,93.0
KEZS 220655Z AUTO 00000KT 10SM CLR M13/M18 A3023 RMK AO2 T11271180,KEZS,2015-02-22T06:55:00Z,44.78,-88.57,-12.7,-18.0,0,0,,10.0,30.230314,,,TRUE,TRUE,,,,,,,CLR,,,,,,,,VFR,,,,,,,,,,,,METAR,248.0
KF05 220655Z AUTO 08007KT 10SM SCT110 06/00 A3008 RMK AO1 T00601002,KF05,2015-02-22T06:55:00Z,34.23,-99.28,6.0,-0.2,80,7,,10.0,30.079725,,,TRUE,TRUE,,,,,,,SCT,11000,,,,,,,VFR,,,,,,,,,,,,METAR,386.0
KGGI 220655Z AUTO 33013KT 10SM CLR M12/M17 A3035 RMK AO2 T11251168,KGGI,2015-02-22T06:55:00Z,41.72,-92.73,-12.5,-16.8,330,13,,10.0,30.351377,,,TRUE,TRUE,,,,,,,CLR,,,,,,,,VFR,,,,,,,,,,,,METAR,307.0
KGDJ 220655Z AUTO 10004KT 10SM CLR 09/05 A3004 RMK AO2 T00910045,KGDJ,2015-02-22T06:55:00Z,32.45,-97.82,9.1,4.5,100,4,,10.0,30.041338,,,TRUE,TRUE,,,,,,,CLR,,,,,,,,VFR,,,,,,,,,,,,METAR,237.0
KGAO 220655Z AUTO 7SM CLR 18/16 A3004 RMK AO2 T01790162,KGAO,2015-02-22T06:55:00Z,29.45,-90.27,17.9,16.2,,,,7.0,30.041338,,,TRUE,TRUE,,,,,,,CLR,,,,,,,,VFR,,,,,,,,,,,,METAR,1.0
KFYJ 220655Z AUTO 00000KT 1 3/4SM SCT017 BKN026 OVC040 02/01 A3019 RMK AO2 P0008 T00200007,KFYJ,2015-02-22T06:55:00Z,37.52,-76.77,2.0,0.7,0,0,,1.75,30.188976,,,TRUE,TRUE,,,,,,,SCT,1700,BKN,2600,OVC,4000,,,IFR,,,,,,0.08,,,,,,METAR,7.0
KFSO 220655Z AUTO 20003KT 10SM SCT033 OVC110 M06/M08 A3010 RMK AO2 T10651083,KFSO,2015-02-22T06:55:00Z,44.93,-73.1,-6.5,-8.3,200,3,,10.0,30.100393,,,TRUE,TRUE,,,,,,,SCT,3300,OVC,11000,,,,,VFR,,,,,,,,,,,,METAR,70.0
KFOT 220655Z AUTO 15006KT 9SM CLR 07/07 A2993 RMK AO1,KFOT,2015-02-22T06:55:00Z,40.55,-124.13,7.0,7.0,150,6,,9.0,29.929134,,,TRUE,TRUE,,,,,,,CLR,,,,,,,,VFR,,,,,,,,,,,,METAR,120.0
KFHB 220655Z AUTO 20005KT 10SM CLR 17/12 A3018 RMK AO1,KFHB,2015-02-22T06:55:00Z,30.62,-81.47,17.0,12.0,200,5,,10.0,30.180119,,,TRUE,TRUE,,,,,,,CLR,,,,,,,,VFR,,,,,,,,,,,,METAR,5.0
KF46 220655Z AUTO 06007KT 10SM CLR 08/06 A3003 RMK AO2 T00800055,KF46,2015-02-22T06:55:00Z,32.93,-96.43,8.0,5.5,60,7,,10.0,30.029528,,,TRUE,TRUE,,,,,,,CLR,,,,,,,,VFR,,,,,,,,,,,,METAR,176.0
KF44 220655Z AUTO 08006KT 10SM OVC037 11/08 A3001 RMK AO2,KF44,2015-02-22T06:55:00Z,32.17,-95.83,11.0,8.0,80,6,,10.0,30.008858,,,TRUE,TRUE,,,,,,,OVC,3700,,,,,,,VFR,,,,,,,,,,,,METAR,135.0
KGLE 220655Z AUTO 01006KT 10SM CLR 05/02 A3010 RMK AO2 T00510024,KGLE,2015-02-22T06:55:00Z,33.65,-97.2,5.1,2.4,10,6,,10.0,30.100393,,,TRUE,TRUE,,,,,,,CLR,,,,,,,,VFR,,,,,,,,,,,,METAR,256.0
KGMJ 220655Z AUTO 00000KT 4SM BR BKN120 02/02 A3025 RMK AO2,KGMJ,2015-02-22T06:55:00Z,36.6,-94.73,2.0,2.0,0,0,,4.0,30.250984,,,TRUE,TRUE,,,,,,BR,BKN,12000,,,,,,,MVFR,,,,,,,,,,,,METAR,254.0
KGNC 220655Z AUTO 10009KT 10SM CLR 07/03 A2996 RMK AO2 T00670025,KGNC,2015-02-22T06:55:00Z,32.68,-102.65,6.7,2.5,100,9,,10.0,29.958662,,,TRUE,TRUE,,,,,,,CLR,,,,,,,,VFR,,,,,,,,,,,,METAR,1010.0
KGOO 220655Z AUTO 08009KT 10SM FEW080 OVC095 10/M08 A2984 RMK AO1,KGOO,2015-02-22T06:55:00Z,39.22,-121.0,10.0,-8.0,80,9,,10.0,29.840551,,,TRUE,TRUE,,,,,,,FEW,8000,OVC,9500,,,,,VFR,,,,,,,,,,,,METAR,962.0
KHLX 220655Z AUTO 19010KT 10SM SCT025 OVC047 05/03 A3006 RMK AO2 P0006 T00450030,KHLX,2015-02-22T06:55:00Z,36.77,-80.82,4.5,3.0,190,10,,10.0,30.059055,,,TRUE,TRUE,,,,,,,SCT,2500,OVC,4700,,,,,VFR,,,,,,0.06,,,,,,METAR,834.0
KGWB 220655Z AUTO 00000KT 7SM OVC027 M05/M07 A3014 RMK AO2,KGWB,2015-02-22T06:55:00Z,41.3,-85.07,-5.0,-7.0,0,0,,7.0,30.138779,,,TRUE,TRUE,,,,,,,OVC,2700,,,,,,,MVFR,,,,,,,,,,,,METAR,269.0
KHQU 220655Z AUTO 16004KT 10SM OVC055 13/09 A3019 RMK AO1 T01270087,KHQU,2015-02-22T06:55:00Z,33.53,-82.52,12.7,8.7,160,4,,10.0,30.188976,,,TRUE,TRUE,,,,,,,OVC,5500,,,,,,,VFR,,,,,,,,,,,,METAR,152.0
KHRJ 220655Z AUTO 00000KT 5SM BR OVC120 10/10 A3018 RMK AO2 T00950095,KHRJ,2015-02-22T06:55:00Z,35.38,-78.73,9.5,9.5,0,0,,5.0,30.180119,,,TRUE,TRUE,,,,,,BR,OVC,12000,,,,,,,MVFR,,,,,,,,,,,,METAR,60.0
KHUM 220655Z AUTO 18003KT 5SM BR BKN065 16/16 A3004 RMK AO2 T01580155,KHUM,2015-02-22T06:55:00Z,29.57,-90.67,15.8,15.5,180,3,,5.0,30.041338,,,TRUE,TRUE,,,,,,BR,BKN,6500,,,,,,,MVFR,,,,,,,,,,,,METAR,3.0
KHZL 220655Z AUTO 35003KT 5SM -SN OVC008 M03/M05 A3007 RMK AO2,KHZL,2015-02-22T06:55:00Z,40.98,-76.0,-3.0,-5.0,350,3,,5.0,30.070866,,,TRUE,TRUE,,,,,,-SN,OVC,800,,,,,,,IFR,,,,,,,,,,,,METAR,489.0
KI16 220655Z AUTO 2SM UP OVC009 02/02 A3011 RMK AO2 T00200020,KI16,2015-02-22T06:55:00Z,37.6,-81.57,2.0,2.0,,,,2.0,30.109253,,,TRUE,TRUE,,,,,,UP,OVC,900,,,,,,,IFR,,,,,,,,,,,,METAR,544.0
KRCZ 220655Z AUTO 20003KT 10SM 10/08 A3017 RMK AO2 T01000075,KRCZ,2015-02-22T06:55:00Z,34.88,-79.77,10.0,7.5,200,3,,10.0,30.171259,,,TRUE,TRUE,,,,,,,,,,,,,,,,,,,,,,,,,,,METAR,109.0
KPYX 220655Z AUTO 07011G15KT 10SM 04/03 A3011 RMK AO2 T00430028,KPYX,2015-02-22T06:55:00Z,36.42,-100.75,4.3,2.8,70,11,15,10.0,30.109253,,,TRUE,TRUE,,,,,,,,,,,,,,,,,,,,,,,,,,,METAR,889.0
KRFI 220655Z AUTO 07006KT 10SM OVC028 09/06 A3006 RMK AO2 T00900060,KRFI,2015-02-22T06:55:00Z,32.15,-94.85,9.0,6.0,70,6,,10.0,30.059055,,,TRUE,TRUE,,,,,,,OVC,2800,,,,,,,MVFR,,,,,,,,,,,,METAR,135.0
KRKR 220655Z AUTO 36008KT 10SM CLR 03/00 A3017 RMK AO2 T00290002,KRKR,2015-02-22T06:55:00Z,35.02,-94.62,2.9,0.2,360,8,,10.0,30.171259,,,TRUE,TRUE,,,,,,,CLR,,,,,,,,VFR,,,,,,,,,,,,METAR,138.0
KRPH 220655Z AUTO 06007KT 10SM CLR 07/04 A3002 RMK AO2 T00720037,KRPH,2015-02-22T06:55:00Z,33.12,-98.55,7.2,3.7,60,7,,10.0,30.02067,,,TRUE,TRUE,,,,,,,CLR,,,,,,,,VFR,,,,,,,,,,,,METAR,342.0
KRPJ 220655Z AUTO 34010KT 10SM OVC039 M05/M09 A3022 RMK AO2 T10461090,KRPJ,2015-02-22T06:55:00Z,41.88,-89.08,-4.6,-9.0,340,10,,10.0,30.221457,,,TRUE,TRUE,,,,,,,OVC,3900,,,,,,,VFR,,,,,,,,,,,,METAR,238.0
KRTS 220655Z AUTO 05006KT 10SM OVC075 02/M08 A2998 RMK AO2,KRTS,2015-02-22T06:55:00Z,39.67,-119.88,2.0,-8.0,50,6,,10.0,29.97933,,,TRUE,TRUE,,,,,,,OVC,7500,,,,,,,VFR,,,,,,,,,,,,METAR,1540.0
KSAA 220655Z AUTO 14004KT 4SM -SN BKN017 BKN023 OVC028 M10/M12 A3008 RMK AO2,KSAA,2015-02-22T06:55:00Z,41.45,-106.83,-10.0,-12.0,140,4,,4.0,30.079725,,,TRUE,TRUE,,,,,,-SN,BKN,1700,BKN,2300,OVC,2800,,,MVFR,,,,,,,,,,,,METAR,2138.0
KSFY 220655Z AUTO 31010KT 10SM OVC037 M06/M12 A3027 RMK AO2 T10621116,KSFY,2015-02-22T06:55:00Z,42.05,-90.12,-6.2,-11.6,310,10,,10.0,30.268702,,,TRUE,TRUE,,,,,,,OVC,3700,,,,,,,VFR,,,,,,,,,,,,METAR,188.0
KSEP 220655Z AUTO 07003KT 10SM CLR 07/04 A3002 RMK AO2 T00700039,KSEP,2015-02-22T06:55:00Z,32.22,-98.17,7.0,3.9,70,3,,10.0,30.02067,,,TRUE,TRUE,,,,,,,CLR,,,,,,,,VFR,,,,,,,,,,,,METAR,402.0
KSHD 220655Z AUTO 00000KT 5SM -DZ BKN047 BKN055 BKN080 02/00 A3008 RMK AO2 P0003 T00160002,KSHD,2015-02-22T06:55:00Z,38.27,-78.9,1.6,0.2,0,0,,5.0,30.079725,,,TRUE,TRUE,,,,,,-DZ,BKN,4700,BKN,5500,BKN,8000,,,MVFR,,,,,,0.03,,,,,,METAR,366.0
KSIF 220655Z AUTO 00000KT 7SM SCT090 BKN120 00/00 A3015 RMK AO2 T00001005,KSIF,2015-02-22T06:55:00Z,36.43,-79.85,0.0,-0.5,0,0,,7.0,30.15059,,,TRUE,TRUE,,,,,,,SCT,9000,BKN,12000,,,,,VFR,,,,,,,,,,,,METAR,211.0
KVAF 220655Z AUTO 18022KT 5SM HZ OVC055 21/18 A2999 RMK A01,KVAF,2015-02-22T06:55:00Z,27.35,-94.63,21.0,18.0,180,22,,5.0,29.991142,,,TRUE,TRUE,,,,,,HZ,OVC,5500,,,,,,,MVFR,,,,,,,,,,,,METAR,46.0
KSQE 220655Z AUTO VRB05G11KT 10SM OVC070 22/18 A3004 RMK A01,KSQE,2015-02-22T06:55:00Z,28.07,-90.82,22.0,18.0,0,5,11,10.0,30.041338,,,TRUE,TRUE,,,,,,,OVC,7000,,,,,,,VFR,,,,,,,,,,,,METAR,0.0
KSPR 220655Z AUTO 20013KT 5SM HZ FEW075 21/19 A3001 RMK A01,KSPR,2015-02-22T06:55:00Z,28.6,-91.2,21.0,19.0,200,13,,5.0,30.008858,,,TRUE,TRUE,,,,,,HZ,FEW,7500,,,,,,,MVFR,,,,,,,,,,,,METAR,31.0
KS25 220655Z AUTO 33008KT 10SM CLR M24/M28 A3058 RMK AO2,KS25,2015-02-22T06:55:00Z,47.8,-103.25,-24.0,-28.0,330,8,,10.0,30.578741,,,TRUE,TRUE,,,,,,,CLR,,,,,,,,VFR,,,,,,,,,,,,METAR,644.0
KRZL 220655Z AUTO 27006KT 5SM BR OVC035 M01/M02 A3018 RMK AO2,KRZL,2015-02-22T06:55:00Z,40.95,-87.18,-1.0,-2.0,270,6,,5.0,30.180119,,,TRUE,TRUE,,,,,,BR,OVC,3500,,,,,,,MVFR,,,,,,,,,,,,METAR,213.0
KRNV 220655Z AUTO 02010G18KT 10SM SCT010 02/02 A3012 RMK AO2 T00230017,KRNV,2015-02-22T06:55:00Z,33.77,-90.75,2.3,1.7,20,10,18,10.0,30.121063,,,TRUE,TRUE,,,,,,,SCT,1000,,,,,,,VFR,,,,,,,,,,,,METAR,41.0
KRNC 220655Z AUTO 34004KT 3SM OVC004 04/04 A3009 RMK,KRNC,2015-02-22T06:55:00Z,35.7,-85.85,4.0,4.0,340,4,,3.0,30.088583,,,TRUE,,,,,,,,OVC,400,,,,,,,LIFR,,,,,,,,,,,,METAR,315.0
KRCM 220655Z AUTO 36009KT 10SM CLR M03/M07 A3034 RMK AO2,KRCM,2015-02-22T06:55:00Z,38.78,-93.8,-3.0,-7.0,360,9,,10.0,30.339567,,,TRUE,TRUE,,,,,,,CLR,,,,,,,,VFR,,,,,,,,,,,,METAR,244.0
KRCE 220655Z AUTO 10011KT 10SM 07/02 A3013 RMK AO2,KRCE,2015-02-22T06:55:00Z,35.48,-97.82,7.0,2.0,100,11,,10.0,30.129921,,,TRUE,TRUE,,,,,,,,,,,,,,,,,,,,,,,,,,,METAR,413.0
KMZG 220655Z AUTO 16007KT 4SM BR 21/20 A2995 RMK A01,KMZG,2015-02-22T06:55:00Z,27.73,-96.18,21.0,20.0,160,7,,4.0,29.949802,,,TRUE,TRUE,,,,,,BR,,,,,,,,,,,,,,,,,,,,,METAR,29.0
KMOR 220655Z AUTO 00000KT 6SM OVC037 02/02 A3007 RMK,KMOR,2015-02-22T06:55:00Z,36.18,-83.37,2.0,2.0,0,0,,6.0,30.070866,,,TRUE,,,,,,,,OVC,3700,,,,,,,VFR,,,,,,,,,,,,METAR,400.0
KMIS 220655Z AUTO 20010KT 7SM SCT075 23/18 A3006 RMK A01,KMIS,2015-02-22T06:55:00Z,29.3,-88.85,23.0,18.0,200,10,,7.0,30.059055,,,TRUE,TRUE,,,,,,,SCT,7500,,,,,,,VFR,,,,,,,,,,,,METAR,32.0
KMDJ 220655Z AUTO 20015G20KT 10SM FEW025 FEW035 23/18 A3007 RMK A01,KMDJ,2015-02-22T06:55:00Z,28.65,-89.8,23.0,18.0,200,15,20,10.0,30.070866,,,TRUE,TRUE,,,,,,,FEW,2500,FEW,3500,,,,,VFR,,,,,,,,,,,,METAR,31.0
KMAN 220655Z AUTO 17012KT 10SM 02/00 A3018 RMK AO1,KMAN,2015-02-22T06:55:00Z,43.58,-116.52,2.0,0.0,170,12,,10.0,30.180119,,,TRUE,TRUE,,,,,,,,,,,,,,,,,,,,,,,,,,,METAR,774.0
KIPN 220655Z AUTO 23018KT 10SM SCT031 BKN049 OVC090 23/17 A3006 RMK A01,KIPN,2015-02-22T06:55:00Z,28.08,-87.98,23.0,17.0,230,18,,10.0,30.059055,,,TRUE,TRUE,,,,,,,SCT,3100,BKN,4900,OVC,9000,,,VFR,,,,,,,,,,,,METAR,41.0
KINF 220655Z AUTO 00000KT 10SM CLR 09/08 A3020 RMK AO2,KINF,2015-02-22T06:55:00Z,28.8,-82.32,9.0,8.0,0,0,,10.0,30.200787,,,TRUE,TRUE,,,,,,,CLR,,,,,,,,VFR,,,,,,,,,,,,METAR,15.0
KIKT 220655Z AUTO VRB05G25KT 10SM SCT031 BKN041 OVC055 23/17 A3005 RMK A01,KIKT,2015-02-22T06:55:00Z,28.52,-88.28,23.0,17.0,0,5,25,10.0,30.050198,,,TRUE,TRUE,,,,,,,SCT,3100,BKN,4100,OVC,5500,,,VFR,,,,,,,,,,,,METAR,25.0
KHQI 220655Z AUTO 15024KT 9SM OVC065 21/19 A3000 RMK A01,KHQI,2015-02-22T06:55:00Z,27.93,-93.67,21.0,19.0,150,24,,9.0,30.0,,,TRUE,TRUE,,,,,,,OVC,6500,,,,,,,VFR,,,,,,,,,,,,METAR,26.0
KHHV 220655Z AUTO 15020KT 5SM HZ FEW050 21/19 A2998 RMK A01,KHHV,2015-02-22T06:55:00Z,26.93,-94.68,21.0,19.0,150,20,,5.0,29.97933,,,TRUE,TRUE,,,,,,HZ,FEW,5000,,,,,,,MVFR,,,,,,,,,,,,METAR,25.0
KGVX 220655Z AUTO 17013KT 4SM BR OVC065 20/19 A2999 RMK A01,KGVX,2015-02-22T06:55:00Z,28.58,-94.98,20.0,19.0,170,13,,4.0,29.991142,,,TRUE,TRUE,,,,,,BR,OVC,6500,,,,,,,MVFR,,,,,,,,,,,,METAR,39.0
KGUL 220655Z AUTO 10SM OVC055 21/18 A3001 RMK A01,KGUL,2015-02-22T06:55:00Z,27.3,-93.53,21.0,18.0,,,,10.0,30.008858,,,TRUE,TRUE,,,,,,,OVC,5500,,,,,,,VFR,,,,,,,,,,,,METAR,30.0
KGHB 220655Z AUTO 21012KT 8SM OVC060 22/19 A3004 RMK A01,KGHB,2015-02-22T06:55:00Z,27.83,-91.98,22.0,19.0,210,12,,8.0,30.041338,,,TRUE,TRUE,,,,,,,OVC,6000,,,,,,,VFR,,,,,,,,,,,,METAR,30.0
KGBK 220655Z AUTO 18009KT 10SM FEW022 SCT050 OVC060 22/19 A3004 RMK A01,KGBK,2015-02-22T06:55:00Z,27.2,-92.2,22.0,19.0,180,9,,10.0,30.041338,,,TRUE,TRUE,,,,,,,FEW,2200,SCT,5000,OVC,6000,,,VFR,,,,,,,,,,,,METAR,59.0
KEMK 220655Z AUTO 16020KT 6SM HZ OVC060 21/19 A2999 RMK A01,KEMK,2015-02-22T06:55:00Z,27.82,-94.32,21.0,19.0,160,20,,6.0,29.991142,,,TRUE,TRUE,,,,,,HZ,OVC,6000,,,,,,,VFR,,,,,,,,,,,,METAR,26.0
KEIR 220655Z AUTO 20014KT 21/19 A3003 RMK A01,KEIR,2015-02-22T06:55:00Z,28.63,-91.48,21.0,19.0,200,14,,,30.029528,,,TRUE,TRUE,,,,,,,,,,,,,,,,,,,,,,,,,,,METAR,28.0
KEHC 220655Z AUTO 19019KT 10SM CLR 23/18 A3000 RMK A01,KEHC,2015-02-22T06:55:00Z,28.43,-92.88,23.0,18.0,190,19,,10.0,30.0,,,TRUE,TRUE,,,,,,,CLR,,,,,,,,VFR,,,,,,,,,,,,METAR,31.0
KDLP 220655Z AUTO 22009KT 10SM CLR 21/18 A3005 RMK A01,KDLP,2015-02-22T06:55:00Z,29.12,-89.55,21.0,18.0,220,9,,10.0,30.050198,,,TRUE,TRUE,,,,,,,CLR,,,,,,,,VFR,,,,,,,,,,,,METAR,36.0
KCVW 220655Z AUTO 21007KT 3SM BR 17/16 A3002 RMK A01,KCVW,2015-02-22T06:55:00Z,29.78,-93.3,17.0,16.0,210,7,,3.0,30.02067,,,TRUE,TRUE,,,,,,BR,,,,,,,,,,,,,,,,,,,,,METAR,1.0
KCRH 220655Z AUTO 19012KT 5SM BR OVC070 20/18 A3000 RMK A01,KCRH,2015-02-22T06:55:00Z,28.92,-93.3,20.0,18.0,190,12,,5.0,30.0,,,TRUE,TRUE,,,,,,BR,OVC,7000,,,,,,,MVFR,,,,,,,,,,,,METAR,34.0
KBXK 220655Z AUTO 00000KT 10SM BKN120 14/02 A2980 RMK AO1,KBXK,2015-02-22T06:55:00Z,33.42,-112.68,14.0,2.0,0,0,,10.0,29.799213,,,TRUE,TRUE,,,,,,,BKN,12000,,,,,,,VFR,,,,,,,,,,,,METAR,315.0
KBWD 220655Z AUTO 09004KT 10SM BKN034 BKN041 BKN060 09/05 A3000 RMK AO2,KBWD,2015-02-22T06:55:00Z,31.8,-98.95,9.0,5.0,90,4,,10.0,30.0,,,TRUE,TRUE,,,,,,,BKN,3400,BKN,4100,BKN,6000,,,VFR,,,,,,,,,,,,METAR,423.0
KBQX 220655Z AUTO VRB04KT 3SM BR BKN040 OVC050 20/19 A2999 RMK A01,KBQX,2015-02-22T06:55:00Z,28.5,-95.72,20.0,19.0,0,4,,3.0,29.991142,,,TRUE,TRUE,,,,,,BR,BKN,4000,OVC,5000,,,,,MVFR,,,,,,,,,,,,METAR,34.0
KBBF 220655Z AUTO 19014KT 3SM BR FEW014 21/19 A2995 RMK A01,KBBF,2015-02-22T06:55:00Z,27.83,-96.02,21.0,19.0,190,14,,3.0,29.949802,,,TRUE,TRUE,,,,,,BR,FEW,1400,,,,,,,MVFR,,,,,,,,,,,,METAR,36.0
KBAC 220655Z AUTO 36010KT 10SM FEW006 SCT029 M24/M27 A3053 RMK AO2,KBAC,2015-02-22T06:55:00Z,46.93,-98.02,-24.0,-27.0,360,10,,10.0,30.528543,,,TRUE,TRUE,,,,,,,FEW,600,SCT,2900,,,,,VFR,,,,,,,,,,,,METAR,684.0
KATP 220655Z AUTO 17012G19KT 120V200 10SM BKN033 BKN038 23/16 A3006 RMK A01,KATP,2015-02-22T06:55:00Z,27.2,-90.03,23.0,16.0,170,12,19,10.0,30.059055,,,TRUE,TRUE,,,,,,,BKN,3300,BKN,3800,,,,,VFR,,,,,,,,,,,,METAR,62.0
EHEH 220655Z AUTO 20005KT 2500 R21/1800 BR NCD M01/M02 Q1009 YLO 22005KT 3500 BR NSC TEMPO 2000,EHEH,2015-02-22T06:55:00Z,51.45,5.38,-1.0,-2.0,200,5,,1.55,29.793306,,,TRUE,,,,,,,BR BR,,,,,,,,,,,,,,,,,,,,,METAR,22.0
KMRN 220655Z AUTO 00000KT 1 1/2SM -SN SCT030 SCT047 OVC070 01/00 A3019 RMK AO2 T00050003,KMRN,2015-02-22T06:55:00Z,35.82,-81.62,0.5,0.3,0,0,,1.5,30.188976,,,TRUE,TRUE,,,,,,-SN,SCT,3000,SCT,4700,OVC,7000,,,IFR,,,,,,,,,,,,METAR,387.0
KMQS 220655Z AUTO 00000KT 3SM -RA OVC002 01/01 A3011 RMK AO2,KMQS,2015-02-22T06:55:00Z,39.98,-75.87,1.0,1.0,0,0,,3.0,30.109253,,,TRUE,TRUE,,,,,,-RA,OVC,200,,,,,,,LIFR,,,,,,,,,,,,METAR,201.0
KMNZ 220655Z AUTO 08004KT 10SM CLR 08/05 A3000 RMK AO2 T00800048,KMNZ,2015-02-22T06:55:00Z,31.67,-98.15,8.0,4.8,80,4,,10.0,30.0,,,TRUE,TRUE,,,,,,,CLR,,,,,,,,VFR,,,,,,,,,,,,METAR,396.0
KMMU 220655Z AUTO 00000KT 2 1/2SM -SN SCT013 SCT019 OVC028 M02/M03 A3014 RMK AO2,KMMU,2015-02-22T06:55:00Z,40.78,-74.42,-2.0,-3.0,0,0,,2.5,30.138779,,,TRUE,TRUE,,,,,,-SN,SCT,1300,SCT,1900,OVC,2800,,,IFR,,,,,,,,,,,,METAR,57.0
KMHV 220655Z AUTO 22015G23KT 10SM CLR 10/01 A2980 RMK AO1,KMHV,2015-02-22T06:55:00Z,35.07,-118.15,10.0,1.0,220,15,23,10.0,29.799213,,,TRUE,TRUE,,,,,,,CLR,,,,,,,,VFR,,,,,,,,,,,,METAR,849.0
KMGR 220655Z AUTO 15003KT 10SM OVC090 13/08 A3016 RMK AO2,KMGR,2015-02-22T06:55:00Z,31.08,-83.8,13.0,8.0,150,3,,10.0,30.159449,,,TRUE,TRUE,,,,,,,OVC,9000,,,,,,,VFR,,,,,,,,,,,,METAR,90.0
PAAD 220655Z AUTO 05014KT 1 1/2SM BR OVC002 09/08 A3004 RMK AO2,PAAD,2015-02-22T06:55:00Z,70.13,-146.28,9.0,8.0,50,14,,1.5,30.041338,,,TRUE,TRUE,,,,,,BR,OVC,200,,,,,,,LIFR,,,,,,,,,,,,METAR,8.0
KXBP 220655Z AUTO 07005KT 10SM BKN021 07/05 A3005 RMK AO2 T00700045,KXBP,2015-02-22T06:55:00Z,33.18,-97.83,7.0,4.5,70,5,,10.0,30.050198,,,TRUE,TRUE,,,,,,,BKN,2100,,,,,,,MVFR,,,,,,,,,,,,METAR,260.0
KW96 220655Z AUTO 14003KT 1SM BKN003 OVC009 01/01 A3016 RMK AO1 P0027 T00080006,KW96,2015-02-22T06:55:00Z,37.5,-77.12,0.8,0.6,140,3,,1.0,30.159449,,,TRUE,TRUE,,,,,,,BKN,300,OVC,900,,,,,LIFR,,,,,,0.27,,,,,,METAR,37.0
KW81 220655Z AUTO 00000KT 3/4SM OVC006 01/00 A3014 RMK AO1 P0012 T00100004,KW81,2015-02-22T06:55:00Z,37.18,-78.1,1.0,0.4,0,0,,0.75,30.138779,,,TRUE,TRUE,,,,,,,OVC,600,,,,,,,LIFR,,,,,,0.12,,,,,,METAR,129.0
KW43 220655Z AUTO 10SM CLR M15/M18 A3038 RMK AO2,KW43,2015-02-22T06:55:00Z,44.67,-104.57,-15.0,-18.0,,,,10.0,30.380905,,,TRUE,TRUE,,,,,,,CLR,,,,,,,,VFR,,,,,,,,,,,,METAR,1300.0
KUSE 220655Z AUTO 00000KT 3SM BR OVC031 M10/M12 A3014 RMK AO2,KUSE,2015-02-22T06:55:00Z,41.62,-84.13,-10.0,-12.0,0,0,,3.0,30.138779,,,TRUE,TRUE,,,,,,BR,OVC,3100,,,,,,,MVFR,,,,,,,,,,,,METAR,238.0
KTYQ 220655Z AUTO 00000KT 5SM BR OVC026 M05/M06 A3018 RMK AO2 T10481065,KTYQ,2015-02-22T06:55:00Z,40.03,-86.25,-4.8,-6.5,0,0,,5.0,30.180119,,,TRUE,TRUE,,,,,,BR,OVC,2600,,,,,,,MVFR,,,,,,,,,,,,METAR,281.0
KTIP 220655Z AUTO 31005KT 7SM OVC022 M01/M03 A3021 RMK AO2 T10061034,KTIP,2015-02-22T06:55:00Z,40.28,-88.15,-0.6,-3.4,310,5,,7.0,30.209646,,,TRUE,TRUE,,,,,,,OVC,2200,,,,,,,MVFR,,,,,,,,,,,,METAR,225.0
KT82 220655Z AUTO 08007KT 10SM OVC017 11/07 A2999 RMK AO2 T01110074,KT82,2015-02-22T06:55:00Z,30.25,-98.92,11.1,7.4,80,7,,10.0,29.991142,,,TRUE,TRUE,,,,,,,OVC,1700,,,,,,,MVFR,,,,,,,,,,,,METAR,517.0
KT20 220655Z AUTO 05008G15KT 10SM OVC013 15/10 A2998 RMK AO2 T01500095,KT20,2015-02-22T06:55:00Z,29.52,-97.47,15.0,9.5,50,8,15,10.0,29.97933,,,TRUE,TRUE,,,,,,,OVC,1300,,,,,,,MVFR,,,,,,,,,,,,METAR,108.0
KSUT 220655Z AUTO 19004KT 10SM SCT020 BKN034 OVC060 13/12 A3022 RMK AO2 T01300122,KSUT,2015-02-22T06:55:00Z,33.93,-78.08,13.0,12.2,190,4,,10.0,30.221457,,,TRUE,TRUE,,,,,,,SCT,2000,BKN,3400,OVC,6000,,,VFR,,,,,,,,,,,,METAR,8.0
KSLR 220655Z AUTO 06007KT 10SM CLR 08/03 A3008 RMK AO2 T00760028,KSLR,2015-02-22T06:55:00Z,33.17,-95.62,7.6,2.8,60,7,,10.0,30.079725,,,TRUE,TRUE,,,,,,,CLR,,,,,,,,VFR,,,,,,,,,,,,METAR,149.0
KSJS 220655Z AUTO 00000KT 1/2SM FG BKN003 OVC008 03/03 A3008 RMK AO2 T00300030,KSJS,2015-02-22T06:55:00Z,37.75,-82.63,3.0,3.0,0,0,,0.5,30.079725,,,TRUE,TRUE,,,,,,FG,BKN,300,OVC,800,,,,,LIFR,,,,,,,,,,,,METAR,372.0
KMVH 220655Z AUTO 29009KT 10SM BKN028 M17/M22 A3042 RMK A01,KMVH,2015-02-22T06:55:00Z,46.83,-108.93,-17.0,-22.0,290,9,,10.0,30.41929,,,TRUE,TRUE,,,,,,,BKN,2800,,,,,,,MVFR,,,,,,,,,,,,METAR,1355.0
KMWO 220655Z AUTO 00000KT 1 3/4SM BR VV007 M07/M09 A3018 RMK AO2 T10731093,KMWO,2015-02-22T06:55:00Z,39.53,-84.4,-7.3,-9.3,0,0,,1.75,30.180119,,,TRUE,TRUE,,,,,,BR,OVX,0,,,,,,,LIFR,,,,,,,,,,,700,METAR,198.0
KN38 220655Z AUTO 19003KT 1 1/4SM BR OVC003 M08/M08 A3002 RMK AO2,KN38,2015-02-22T06:55:00Z,41.73,-77.4,-8.0,-8.0,190,3,,1.25,30.02067,,,TRUE,TRUE,,,,,,BR,OVC,300,,,,,,,LIFR,,,,,,,,,,,,METAR,577.0
KO69 220655Z AUTO 00000KT 2 1/2SM SCT009 07/07 A2987 RMK AO1,KO69,2015-02-22T06:55:00Z,38.25,-122.6,7.0,7.0,0,0,,2.5,29.870079,,,TRUE,TRUE,,,,,,,SCT,900,,,,,,,IFR,,,,,,,,,,,,METAR,28.0
KOCW 220655Z AUTO 17003KT 10SM SCT046 BKN050 OVC070 12/11 A3021 RMK AO2 T01200105 PWINO,KOCW,2015-02-22T06:55:00Z,35.57,-77.05,12.0,10.5,170,3,,10.0,30.209646,,,TRUE,TRUE,,,,,TRUE,,SCT,4600,BKN,5000,OVC,7000,,,VFR,,,,,,,,,,,,METAR,12.0
KOKV 220655Z AUTO 22004KT 10SM OVC100 03/00 A3006 RMK AO2,KOKV,2015-02-22T06:55:00Z,39.13,-78.15,3.0,0.0,220,4,,10.0,30.059055,,,TRUE,TRUE,,,,,,,OVC,10000,,,,,,,VFR,,,,,,,,,,,,METAR,222.0
KOLE 220655Z AUTO 00000KT 1SM BR OVC003 M07/M07 A2998 RMK AO2,KOLE,2015-02-22T06:55:00Z,42.23,-78.37,-7.0,-7.0,0,0,,1.0,29.97933,,,TRUE,TRUE,,,,,,BR,OVC,300,,,,,,,LIFR,,,,,,,,,,,,METAR,651.0
KONM 220655Z AUTO 36008KT 10SM 11/M07 A2991 RMK AO2 T01101070,KONM,2015-02-22T06:55:00Z,34.02,-106.9,11.0,-7.0,360,8,,10.0,29.911417,,,TRUE,TRUE,,,,,,,,,,,,,,,,,,,,,,,,,,,METAR,1410.0
KONP 220655Z AUTO 00000KT 10SM CLR 06/00 A3031 RMK AO2,KONP,2015-02-22T06:55:00Z,44.57,-124.03,6.0,0.0,0,0,,10.0,30.31004,,,TRUE,TRUE,,,,,,,CLR,,,,,,,,VFR,,,,,,,,,,,,METAR,48.0
KOPN 220655Z AUTO 20005KT 10SM -RA OVC042 13/10 A3013 RMK AO2,KOPN,2015-02-22T06:55:00Z,32.95,-84.27,13.0,10.0,200,5,,10.0,30.129921,,,TRUE,TRUE,,,,,,-RA,OVC,4200,,,,,,,VFR,,,,,,,,,,,,METAR,243.0
KOXI 220655Z AUTO 00000KT 5SM OVC023 M02/M09 A3015 RMK AO1,KOXI,2015-02-22T06:55:00Z,41.33,-86.67,-2.0,-9.0,0,0,,5.0,30.15059,,,TRUE,TRUE,,,,,,,OVC,2300,,,,,,,MVFR,,,,,,,,,,,,METAR,209.0
KP08 220655Z AUTO 18008KT 10SM CLR 17/04 A2984 RMK AO2,KP08,2015-02-22T06:55:00Z,32.93,-111.43,17.0,4.0,180,8,,10.0,29.840551,,,TRUE,TRUE,,,,,,,CLR,,,,,,,,VFR,,,,,,,,,,,,METAR,481.0
KPCZ 220655Z AUTO 35004KT 10SM SCT042 M11/M17 A3023 RMK AO2 T11061173,KPCZ,2015-02-22T06:55:00Z,44.33,-89.02,-10.6,-17.3,350,4,,10.0,30.230314,,,TRUE,TRUE,,,,,,,SCT,4200,,,,,,,VFR,,,,,,,,,,,,METAR,252.0
KPDC 220655Z AUTO 30008KT 10SM CLR M11/M17 A3032 RMK AO2 T11151175,KPDC,2015-02-22T06:55:00Z,43.02,-91.12,-11.5,-17.5,300,8,,10.0,30.318897,,,TRUE,TRUE,,,,,,,CLR,,,,,,,,VFR,,,,,,,,,,,,METAR,201.0
KPEQ 220655Z AUTO 09004KT 10SM BKN120 13/04 A2986 RMK AO2 T01280041,KPEQ,2015-02-22T06:55:00Z,31.38,-103.52,12.8,4.1,90,4,,10.0,29.861221,,,TRUE,TRUE,,,,,,,BKN,12000,,,,,,,VFR,,,,,,,,,,,,METAR,797.0
KPMV 220655Z AUTO 33013G17KT 10SM SCT100 OVC110 M08/M16 A3043 RMK AO2 T10811158,KPMV,2015-02-22T06:55:00Z,40.95,-95.92,-8.1,-15.8,330,13,17,10.0,30.431103,,,TRUE,TRUE,,,,,,,SCT,10000,OVC,11000,,,,,VFR,,,,,,,,,,,,METAR,367.0
KPPO 220655Z AUTO 00000KT 7SM OVC024 M02/M05 A3016 RMK AO2 T10221047,KPPO,2015-02-22T06:55:00Z,41.57,-86.73,-2.2,-4.7,0,0,,7.0,30.159449,,,TRUE,TRUE,,,,,,,OVC,2400,,,,,,,MVFR,,,,,,,,,,,,METAR,248.0
KPPQ 220655Z AUTO 34010KT 10SM OVC020 M01/M05 A3027 RMK AO2 T10141050,KPPQ,2015-02-22T06:55:00Z,39.63,-90.78,-1.4,-5.0,340,10,,10.0,30.268702,,,TRUE,TRUE,,,,,,,OVC,2000,,,,,,,MVFR,,,,,,,,,,,,METAR,216.0
KPSN 220655Z AUTO 06005KT 10SM OVC027 12/09 A3002 RMK AO2 T01300095,KPSN,2015-02-22T06:55:00Z,31.78,-95.7,13.0,9.5,60,5,,10.0,30.02067,,,TRUE,TRUE,,,,,,,OVC,2700,,,,,,,MVFR,,,,,,,,,,,,METAR,129.0
KPTS 220655Z AUTO 03012G16KT 10SM BKN080 OVC090 02/M01 A3028 RMK AO2 T00221015,KPTS,2015-02-22T06:55:00Z,37.45,-94.73,2.2,-1.5,30,12,16,10.0,30.280512,,,TRUE,TRUE,,,,,,,BKN,8000,OVC,9000,,,,,VFR,,,,,,,,,,,,METAR,290.0
KPTT 220655Z AUTO 05023G27KT 4SM -SN BKN010 OVC015 M02/M03 A3027 RMK AO2,KPTT,2015-02-22T06:55:00Z,37.7,-98.75,-2.0,-3.0,50,23,27,4.0,30.268702,,,TRUE,TRUE,,,,,,-SN,BKN,1000,OVC,1500,,,,,MVFR,,,,,,,,,,,,METAR,595.0
KIER 220655Z AUTO 03004KT 10SM OVC008 09/08 A3006 RMK AO2 P0003 T00860082,KIER,2015-02-22T06:55:00Z,31.73,-93.1,8.6,8.2,30,4,,10.0,30.059055,,,TRUE,TRUE,,,,,,,OVC,800,,,,,,,IFR,,,,,,0.03,,,,,,METAR,37.0
KIFP 220655Z AUTO 20005KT 10SM CLR 18/00 A2970 RMK AO2 PWINO,KIFP,2015-02-22T06:55:00Z,35.15,-114.57,18.0,0.0,200,5,,10.0,29.698818,,,TRUE,TRUE,,,,,TRUE,,CLR,,,,,,,,VFR,,,,,,,,,,,,METAR,212.0
KIIY 220655Z AUTO 00000KT 5SM -RA BKN009 BKN016 06/06 A3012 RMK AO2,KIIY,2015-02-22T06:55:00Z,33.78,-82.82,6.0,6.0,0,0,,5.0,30.121063,,,TRUE,TRUE,,,,,,-RA,BKN,900,BKN,1600,,,,,IFR,,,,,,,,,,,,METAR,197.0
KJAS 220655Z AUTO 21006KT 4SM BR OVC004 18/17 A3001 RMK AO2 T01770170,KJAS,2015-02-22T06:55:00Z,30.88,-94.03,17.7,17.0,210,6,,4.0,30.008858,,,TRUE,TRUE,,,,,,BR,OVC,400,,,,,,,LIFR,,,,,,,,,,,,METAR,65.0
KJDD 220655Z AUTO 08003KT 10SM CLR 09/05 A3005 RMK AO2,KJDD,2015-02-22T06:55:00Z,32.75,-95.5,9.0,5.0,80,3,,10.0,30.050198,,,TRUE,TRUE,,,,,,,CLR,,,,,,,,VFR,,,,,,,,,,,,METAR,132.0
KJFZ 220655Z AUTO 31006KT 10SM OVC030 03/02 A3003 RMK AO2 T00330020,KJFZ,2015-02-22T06:55:00Z,37.07,-81.8,3.3,2.0,310,6,,10.0,30.029528,,,TRUE,TRUE,,,,,,,OVC,3000,,,,,,,MVFR,,,,,,,,,,,,METAR,809.0
KJSV 220655Z AUTO 00000KT 10SM CLR 04/00 A3018 RMK AO2,KJSV,2015-02-22T06:55:00Z,35.43,-94.8,4.0,0.0,0,0,,10.0,30.180119,,,TRUE,TRUE,,,,,,,CLR,,,,,,,,VFR,,,,,,,,,,,,METAR,161.0
KJTC 220655Z AUTO 24012G18KT 10SM CLR 08/M04 A2993 RMK AO2,KJTC,2015-02-22T06:55:00Z,34.13,-109.32,8.0,-4.0,240,12,18,10.0,29.929134,,,TRUE,TRUE,,,,,,,CLR,,,,,,,,VFR,,,,,,,,,,,,METAR,2150.0
KJWG 220655Z AUTO 06007KT 10SM SCT045 BKN055 OVC065 07/03 A3012 RMK AO2 T00660027,KJWG,2015-02-22T06:55:00Z,35.87,-98.42,6.6,2.7,60,7,,10.0,30.121063,,,TRUE,TRUE,,,,,,,SCT,4500,BKN,5500,OVC,6500,,,VFR,,,,,,,,,,,,METAR,472.0
KJWY 220655Z AUTO 05007KT 10SM CLR 08/06 A3003 RMK AO2 T00770057,KJWY,2015-02-22T06:55:00Z,32.45,-96.92,7.7,5.7,50,7,,10.0,30.029528,,,TRUE,TRUE,,,,,,,CLR,,,,,,,,VFR,,,,,,,,,,,,METAR,217.0
KJXI 220655Z AUTO 04007KT 10SM OVC042 08/03 A3006 RMK AO2 T00780031,KJXI,2015-02-22T06:55:00Z,32.7,-94.95,7.8,3.1,40,7,,10.0,30.059055,,,TRUE,TRUE,,,,,,,OVC,4200,,,,,,,VFR,,,,,,,,,,,,METAR,127.0
KJYL 220655Z AUTO 19003KT 10SM CLR 13/10 A3017 RMK AO2 T01260101,KJYL,2015-02-22T06:55:00Z,32.65,-81.6,12.6,10.1,190,3,,10.0,30.171259,,,TRUE,TRUE,,,,,,,CLR,,,,,,,,VFR,,,,,,,,,,,,METAR,57.0
KJYR 220655Z AUTO 01015G19KT 10SM OVC075 M09/M15 A3043 RMK AO2,KJYR,2015-02-22T06:55:00Z,40.9,-97.62,-9.0,-15.0,10,15,19,10.0,30.431103,,,TRUE,TRUE,,,,,,,OVC,7500,,,,,,,VFR,,,,,,,,,,,,METAR,509.0
KLAL 220655Z AUTO 00000KT 10SM CLR 12/11 A3019 RMK AO2,KLAL,2015-02-22T06:55:00Z,27.97,-82.02,12.0,11.0,0,0,,10.0,30.188976,,,TRUE,TRUE,,,,,,,CLR,,,,,,,,VFR,,,,,,,,,,,,METAR,43.0
KLNC 220655Z AUTO 06004KT 10SM SCT016 08/05 A3004 RMK AO2 T00820046,KLNC,2015-02-22T06:55:00Z,32.58,-96.72,8.2,4.6,60,4,,10.0,30.041338,,,TRUE,TRUE,,,,,,,SCT,1600,,,,,,,VFR,,,,,,,,,,,,METAR,153.0
KLNN 220655Z AUTO 00000KT 1/4SM OVC002 A3014 RMK AO1,KLNN,2015-02-22T06:55:00Z,41.67,-81.37,,,0,0,,0.25,30.138779,,,TRUE,TRUE,,,,,,,OVC,200,,,,,,,LIFR,,,,,,,,,,,,METAR,191.0
KLOM 220655Z AUTO 00000KT 3SM OVC007 01/01 A3012 RMK AO1 P0001,KLOM,2015-02-22T06:55:00Z,40.13,-75.27,1.0,1.0,0,0,,3.0,30.121063,,,TRUE,TRUE,,,,,,,OVC,700,,,,,,,IFR,,,,,,0.01,,,,,,METAR,92.0
KLUD 220655Z AUTO 07012G17KT 10SM OVC021 07/03 A3003 RMK AO2 T00730032,KLUD,2015-02-22T06:55:00Z,33.25,-97.58,7.3,3.2,70,12,17,10.0,30.029528,,,TRUE,TRUE,,,,,,,OVC,2100,,,,,,,MVFR,,,,,,,,,,,,METAR,319.0
KLUM 220655Z AUTO 29007KT 10SM CLR M15/M23 A3033 RMK AO2 T11551226,KLUM,2015-02-22T06:55:00Z,44.9,-91.87,-15.5,-22.6,290,7,,10.0,30.33071,,,TRUE,TRUE,,,,,,,CLR,,,,,,,,VFR,,,,,,,,,,,,METAR,273.0
KLVL 220655Z AUTO 00000KT 1/2SM OVC002 00/00 A3018 RMK AO1 T00000000,KLVL,2015-02-22T06:55:00Z,36.78,-77.8,0.0,0.0,0,0,,0.5,30.180119,,,TRUE,TRUE,,,,,,,OVC,200,,,,,,,LIFR,,,,,,,,,,,,METAR,100.0
KM30 220655Z AUTO 00000KT 1/2SM FZFG VV005 M02/M02 A3020 RMK AO2 T10251025,KM30,2015-02-22T06:55:00Z,37.18,-88.75,-2.5,-2.5,0,0,,0.5,30.200787,,,TRUE,TRUE,,,,,,FZFG,OVX,0,,,,,,,LIFR,,,,,,,,,,,500,METAR,117.0
KMCC 220655Z AUTO 34004KT 2SM BR CLR 07/07 A2987 RMK AO2,KMCC,2015-02-22T06:55:00Z,38.67,-121.4,7.0,7.0,340,4,,2.0,29.870079,,,TRUE,TRUE,,,,,,BR,CLR,,,,,,,,IFR,,,,,,,,,,,,METAR,23.0
K05U 220655Z AUTO 16003KT 10SM FEW041 BKN046 OVC060 M04/M08 A2997 RMK AO1,K05U,2015-02-22T06:55:00Z,39.6,-116.0,-4.0,-8.0,160,3,,10.0,29.970472,,,TRUE,TRUE,,,,,,,FEW,4100,BKN,4600,OVC,6000,,,VFR,,,,,,,,,,,,METAR,1816.0
K11R 220655Z AUTO 03003KT 10SM BKN020 BKN045 15/10 A3000 RMK AO2 T01500096,K11R,2015-02-22T06:55:00Z,30.22,-96.37,15.0,9.6,30,3,,10.0,30.0,,,TRUE,TRUE,,,,,,,BKN,2000,BKN,4500,,,,,MVFR,,,,,,,,,,,,METAR,94.0
K5C1 220655Z AUTO 06008KT 10SM OVC014 13/08 A2999 RMK AO1,K5C1,2015-02-22T06:55:00Z,29.72,-98.7,13.0,8.0,60,8,,10.0,29.991142,,,TRUE,TRUE,,,,,,,OVC,1400,,,,,,,MVFR,,,,,,,,,,,,METAR,423.0
K4A9 220655Z AUTO 00000KT 4SM -DZ BKN022 BKN041 OVC085 07/06 A3007 RMK AO2 P0001,K4A9,2015-02-22T06:55:00Z,34.47,-85.72,7.0,6.0,0,0,,4.0,30.070866,,,TRUE,TRUE,,,,,,-DZ,BKN,2200,BKN,4100,OVC,8500,,,MVFR,,,,,,0.01,,,,,,METAR,267.0
K36U 220655Z AUTO 02018G22KT 10SM CLR M02/M07 A2998 RMK AO2,K36U,2015-02-22T06:55:00Z,40.48,-111.43,-2.0,-7.0,20,18,22,10.0,29.97933,,,TRUE,TRUE,,,,,,,CLR,,,,,,,,VFR,,,,,,,,,,,,METAR,1718.0
K2I0 220655Z AUTO 35005KT 2 1/2SM BR CLR M02/M02 A3019 RMK AO2 T10171023,K2I0,2015-02-22T06:55:00Z,37.35,-87.4,-1.7,-2.3,350,5,,2.5,30.188976,,,TRUE,TRUE,,,,,,BR,CLR,,,,,,,,IFR,,,,,,,,,,,,METAR,134.0
K1A5 220655Z AUTO 00000KT 4SM -RA 02/02 A3013 RMK AO2 P0004 T00230023,K1A5,2015-02-22T06:55:00Z,35.22,-83.42,2.3,2.3,0,0,,4.0,30.129921,,,TRUE,TRUE,,,,,,-RA,,,,,,,,,,,,,,,0.04,,,,,,METAR,616.0
K19A 220655Z AUTO 02003KT 2 1/2SM RA SCT003 OVC017 03/03 A3016 RMK AO2 TSNO,K19A,2015-02-22T06:55:00Z,34.18,-83.57,3.0,3.0,20,3,,2.5,30.159449,,,TRUE,TRUE,,,TRUE,,,RA,SCT,300,OVC,1700,,,,,IFR,,,,,,,,,,,,METAR,290.0
K65S 220655Z AUTO 15004KT 10SM CLR M01/M14 A3047 RMK AO2,K65S,2015-02-22T06:55:00Z,48.73,-116.3,-1.0,-14.0,150,4,,10.0,30.469488,,,TRUE,TRUE,,,,,,,CLR,,,,,,,,VFR,,,,,,,,,,,,METAR,713.0
K5T9 220655Z AUTO 09007KT 10SM CLR 18/11 A2989 RMK A01,K5T9,2015-02-22T06:55:00Z,28.85,-100.52,18.0,11.0,90,7,,10.0,29.890747,,,TRUE,TRUE,,,,,,,CLR,,,,,,,,VFR,,,,,,,,,,,,METAR,270.0
K82C 220655Z AUTO 30006KT 10SM BKN040 M12/M16 A3024 RMK AO2 T11171161,K82C,2015-02-22T06:55:00Z,43.83,-90.13,-11.7,-16.1,300,6,,10.0,30.239174,,,TRUE,TRUE,,,,,,,BKN,4000,,,,,,,VFR,,,,,,,,,,,,METAR,276.0
KAAA 220655Z AUTO 31005KT 10SM OVC026 M01/M06 A3026 RMK AO2 T10151058,KAAA,2015-02-22T06:55:00Z,40.17,-89.33,-1.5,-5.8,310,5,,10.0,30.259842,,,TRUE,TRUE,,,,,,,OVC,2600,,,,,,,MVFR,,,,,,,,,,,,METAR,182.0
KADH 220655Z AUTO 06004KT 10SM CLR 05/02 A3013 RMK AO2,KADH,2015-02-22T06:55:00Z,34.8,-96.67,5.0,2.0,60,4,,10.0,30.129921,,,TRUE,TRUE,,,,,,,CLR,,,,,,,,VFR,,,,,,,,,,,,METAR,308.0
KAJG 220655Z AUTO 32005KT 10SM OVC023 M03/M06 A3021 RMK AO2,KAJG,2015-02-22T06:55:00Z,38.62,-87.73,-3.0,-6.0,320,5,,10.0,30.209646,,,TRUE,TRUE,,,,,,,OVC,2300,,,,,,,MVFR,,,,,,,,,,,,METAR,131.0
KAPY 220655Z AUTO 14007KT 7SM SCT011 19/18 A2988 RMK AO2 T01960186,KAPY,2015-02-22T06:55:00Z,26.97,-99.25,19.6,18.6,140,7,,7.0,29.878937,,,TRUE,TRUE,,,,,,,SCT,1100,,,,,,,VFR,,,,,,,,,,,,METAR,129.0
KASW 220655Z AUTO 24003KT 7SM OVC022 M03/M06 A3014 RMK AO2,KASW,2015-02-22T06:55:00Z,41.27,-85.83,-3.0,-6.0,240,3,,7.0,30.138779,,,TRUE,TRUE,,,,,,,OVC,2200,,,,,,,MVFR,,,,,,,,,,,,METAR,259.0
KAVK 220655Z AUTO 04018G26KT 4SM BR BKN018 BKN022 OVC033 04/03 A3020 RMK AO2 P0003,KAVK,2015-02-22T06:55:00Z,36.77,-98.67,4.0,3.0,40,18,26,4.0,30.200787,,,TRUE,TRUE,,,,,,BR,BKN,1800,BKN,2200,OVC,3300,,,MVFR,,,,,,0.03,,,,,,METAR,449.0
KAXX 220655Z AUTO 00000KT 2 1/2SM -SN OVC011 M03/M04 A3002 RMK AO2 VIS 1 1/2V3 T10271041,KAXX,2015-02-22T06:55:00Z,36.42,-105.28,-2.7,-4.1,0,0,,2.5,30.02067,,,TRUE,TRUE,,,,,,-SN,OVC,1100,,,,,,,IFR,,,,,,,,,,,,METAR,2548.0
KAYS 220655Z AUTO 20006KT 10SM CLR 16/12 A3016 RMK AO2 T01630115,KAYS,2015-02-22T06:55:00Z,31.25,-82.4,16.3,11.5,200,6,,10.0,30.159449,,,TRUE,TRUE,,,,,,,CLR,,,,,,,,VFR,,,,,,,,,,,,METAR,46.0
KDCM 220655Z AUTO 07003KT 10SM SCT070 BKN100 OVC120 05/M01 A3017 RMK AO2,KDCM,2015-02-22T06:55:00Z,34.78,-81.2,5.0,-1.0,70,3,,10.0,30.171259,,,TRUE,TRUE,,,,,,,SCT,7000,BKN,10000,OVC,12000,,,VFR,,,,,,,,,,,,SPECI,200.0
KBBD 220655Z AUTO 11006KT 10SM CLR 08/05 A2997 RMK,KBBD,2015-02-22T06:55:00Z,31.18,-99.32,8.0,5.0,110,6,,10.0,29.970472,,,TRUE,,,,,,,,CLR,,,,,,,,VFR,,,,,,,,,,,,METAR,557.0
KSNC 220655Z AUTO 23005KT 5SM -RA OVC005 01/00 A3013 RMK AO2 P0002,KSNC,2015-02-22T06:55:00Z,41.38,-72.5,1.0,0.0,230,5,,5.0,30.129921,,,TRUE,TRUE,,,,,,-RA,OVC,500,,,,,,,IFR,,,,,,0.02,,,,,,METAR,127.0
KRUG 220655Z AUTO 00000KT 10SM CLR M31/M34 A3058 RMK AO2,KRUG,2015-02-22T06:55:00Z,48.38,-100.02,-31.0,-34.0,0,0,,10.0,30.578741,,,TRUE,TRUE,,,,,,,CLR,,,,,,,,VFR,,,,,,,,,,,,METAR,472.0
KFGX 220655Z AUTO 33004KT 5SM BR OVC004 00/00 A3014 RMK AO2 T10021003,KFGX,2015-02-22T06:55:00Z,38.55,-83.75,-0.2,-0.3,330,4,,5.0,30.138779,,,TRUE,TRUE,,,,,,BR,OVC,400,,,,,,,LIFR,,,,,,,,,,,,METAR,278.0
KBHC 220655Z AUTO 20003KT 10SM CLR 15/10 A3016 RMK AO2,KBHC,2015-02-22T06:55:00Z,31.72,-82.4,15.0,10.0,200,3,,10.0,30.159449,,,TRUE,TRUE,,,,,,,CLR,,,,,,,,VFR,,,,,,,,,,,,METAR,61.0
KUOX 220655Z AUTO 01006KT 10SM OVC005 01/00 A3015 RMK AO2 PWINO PNO,KUOX,2015-02-22T06:55:00Z,34.38,-89.53,1.0,0.0,10,6,,10.0,30.15059,,,TRUE,TRUE,,,,,TRUE,,OVC,500,,,,,,,IFR,,,,,,,,,,,,METAR,137.0
KBMT 220655Z AUTO 20007KT 10SM BKN022 OVC030 19/18 A2999 RMK AO2 T01880176,KBMT,2015-02-22T06:55:00Z,30.07,-94.22,18.8,17.6,200,7,,10.0,29.991142,,,TRUE,TRUE,,,,,,,BKN,2200,OVC,3000,,,,,MVFR,,,,,,,,,,,,METAR,10.0
KCDA 220655Z AUTO 00000KT 5SM -SN CLR M07/M08 A3005 RMK AO2 T10701085,KCDA,2015-02-22T06:55:00Z,44.57,-72.02,-7.0,-8.5,0,0,,5.0,30.050198,,,TRUE,TRUE,,,,,,-SN,CLR,,,,,,,,MVFR,,,,,,,,,,,,METAR,363.0
KCCO 220655Z AUTO 20005KT 10SM OVC019 12/11 A3010 RMK AO2 T01210110,KCCO,2015-02-22T06:55:00Z,33.32,-84.77,12.1,11.0,200,5,,10.0,30.100393,,,TRUE,TRUE,,,,,,,OVC,1900,,,,,,,MVFR,,,,,,,,,,,,METAR,296.0
KVPS 220655Z 08005KT 3SM -RA BR BKN003 OVC012 16/15 A3009 RMK AO2A CIG 003V005 SLP196 P0002 T01570152 $,KVPS,2015-02-22T06:55:00Z,30.47,-86.52,15.7,15.2,80,5,,3.0,30.088583,1019.6,,,TRUE,TRUE,,,,,-RA BR,BKN,300,OVC,1200,,,,,LIFR,,,,,,0.02,,,,,,METAR,26.0
KCVS 220655Z 11011KT 10SM FEW150 BKN250 03/M01 A2997 RMK A02A SLP178 T00281010 401561005 $,KCVS,2015-02-22T06:55:00Z,34.37,-103.32,2.8,-1.0,110,11,,10.0,29.970472,1017.8,,,TRUE,TRUE,,,,,,FEW,15000,BKN,25000,,,,,VFR,,,,15.6,-0.5,,,,,,,METAR,1309.0
KRCR 220655Z AUTO 24003KT 7SM OVC026 M02/M03 A3016 RMK AO2,KRCR,2015-02-22T06:55:00Z,41.07,-86.18,-2.0,-3.0,240,3,,7.0,30.159449,,,TRUE,TRUE,,,,,,,OVC,2600,,,,,,,MVFR,,,,,,,,,,,,METAR,241.0
KRMN 220655Z AUTO 00000KT 5SM HZ 01/ A3017 RMK AO2 T0012,KRMN,2015-02-22T06:55:00Z,38.4,-77.45,1.2,,0,0,,5.0,30.171259,,,TRUE,TRUE,,,,,,HZ,,,,,,,,,,,,,,,,,,,,,METAR,65.0
K1R7 220655Z AUTO 00000KT OVC029 16/16 A3002 RMK AO2,K1R7,2015-02-22T06:55:00Z,31.6,-90.42,16.0,16.0,0,0,,,30.02067,,,TRUE,TRUE,,,,,,,OVC,2900,,,,,,,,,,,,,,,,,,,METAR,149.0
KNFG 220654Z AUTO 22005KT 8SM OVC045 16/08 A2993 RMK AO2 SLP135 T01560078 $,KNFG,2015-02-22T06:54:00Z,33.28,-117.33,15.6,7.8,220,5,,8.0,29.929134,1013.5,,TRUE,TRUE,TRUE,,,,,,OVC,4500,,,,,,,VFR,,,,,,,,,,,,METAR,24.0
K1V4 220654Z AUTO M07/M08 A3006 RMK AO1 SLP197 T10671083,K1V4,2015-02-22T06:54:00Z,44.42,-72.02,-6.7,-8.3,,,,,30.059055,1019.7,,TRUE,TRUE,,,,,,,,,,,,,,,,,,,,,,,,,,,METAR,210.0
KNKT 220654Z 21008KT 8SM FEW028 BKN040 OVC075 14/12 A3024 RMK AO2 SLP238 P0009 T01390122 $,KNKT,2015-02-22T06:54:00Z,34.9,-76.88,13.9,12.2,210,8,,8.0,30.239174,1023.8,,,TRUE,TRUE,,,,,,FEW,2800,BKN,4000,OVC,7500,,,VFR,,,,,,0.09,,,,,,METAR,9.0
KMQE 220654Z AUTO 20011KT 00/00 A3007 RMK AO1 SLP201 P0003 T00000000,KMQE,2015-02-22T06:54:00Z,42.22,-71.12,0.0,0.0,200,11,,,30.070866,1020.1,,TRUE,TRUE,,,,,,,,,,,,,,,,,,,,,0.03,,,,,,METAR,199.0
KMTP 220654Z AUTO 26004KT 01/M01 A3016 RMK AO1 SLP212 P0010 T00061006,KMTP,2015-02-22T06:54:00Z,41.07,-71.92,0.6,-0.6,260,4,,,30.159449,1021.2,,TRUE,TRUE,,,,,,,,,,,,,,,,,,,,,0.1,,,,,,METAR,2.0
K12N 220654Z AUTO 00000KT M04/M06 A3012 RMK AO1 SLP217 P0004 T10441056,K12N,2015-02-22T06:54:00Z,41.02,-74.73,-4.4,-5.6,0,0,,,30.121063,1021.7,,TRUE,TRUE,,,,,,,,,,,,,,,,,,,,,0.04,,,,,,METAR,177.0
KMVE 220654Z AUTO 35005KT 10SM CLR M20/M23 A3049 RMK AO2,KMVE,2015-02-22T06:54:00Z,44.97,-95.72,-20.0,-23.0,350,5,,10.0,30.490158,,,TRUE,TRUE,,,,,,,CLR,,,,,,,,VFR,,,,,,,,,,,,METAR,315.0
KONZ 220654Z AUTO 00000KT 10SM OVC085 M09/M11 A3013 RMK AO2,KONZ,2015-02-22T06:54:00Z,42.1,-83.15,-9.0,-11.0,0,0,,10.0,30.129921,,,TRUE,TRUE,,,,,,,OVC,8500,,,,,,,VFR,,,,,,,,,,,,METAR,180.0
KFGN 220654Z AUTO 31009KT 10SM CLR M31/M35 A3046 RMK AO2,KFGN,2015-02-22T06:54:00Z,49.32,-94.9,-31.0,-35.0,310,9,,10.0,30.46063,,,TRUE,TRUE,,,,,,,CLR,,,,,,,,VFR,,,,,,,,,,,,METAR,328.0
PGUM 220654Z 04013KT 10SM FEW036 SCT044 OVC060 27/19 A2992 RMK AO2 SLP126 T02670189,PGUM,2015-02-22T06:54:00Z,13.48,144.8,26.7,18.9,40,13,,10.0,29.920275,1012.6,,,TRUE,,,,,,,FEW,3600,SCT,4400,OVC,6000,,,VFR,,,,,,,,,,,,METAR,91.0
OAHR 220654Z 09008KT 4000 -RA BR SCT030 BKN060 11/08 Q1013 RMK OVC VIS MIN 4000 GRN,OAHR,2015-02-22T06:54:00Z,34.22,62.22,11.0,8.0,90,8,,2.49,29.911417,,,,,,,,,,-RA BR,SCT,3000,BKN,6000,,,,,IFR,,,,,,,,,,,,METAR,964.0
KGYL 220654Z AUTO 31014G21KT 10SM CLR M18/M22 A3042 RMK AO2 T11821223,KGYL,2015-02-22T06:54:00Z,44.77,-94.08,-18.2,-22.3,310,14,21,10.0,30.41929,,,TRUE,TRUE,,,,,,,CLR,,,,,,,,VFR,,,,,,,,,,,,METAR,302.0
KHCO 220654Z AUTO 35010KT 10SM CLR M28/M32 A3058 RMK AO2,KHCO,2015-02-22T06:54:00Z,48.75,-96.93,-28.0,-32.0,350,10,,10.0,30.578741,,,TRUE,TRUE,,,,,,,CLR,,,,,,,,VFR,,,,,,,,,,,,METAR,250.0
K04W 220654Z AUTO 32008KT 10SM CLR M20/M24 A3036 RMK AO2,K04W,2015-02-22T06:54:00Z,46.02,-92.9,-20.0,-24.0,320,8,,10.0,30.360237,,,TRUE,TRUE,,,,,,,CLR,,,,,,,,VFR,,,,,,,,,,,,METAR,311.0
KBBB 220654Z AUTO 34004KT 10SM CLR M22/M25 A3047 RMK AO2,KBBB,2015-02-22T06:54:00Z,45.32,-95.65,-22.0,-25.0,340,4,,10.0,30.469488,,,TRUE,TRUE,,,,,,,CLR,,,,,,,,VFR,,,,,,,,,,,,METAR,317.0
KANE 220654Z AUTO 30011KT 10SM CLR M18/M23 A3039 RMK AO2,KANE,2015-02-22T06:54:00Z,45.15,-93.22,-18.0,-23.0,300,11,,10.0,30.389763,,,TRUE,TRUE,,,,,,,CLR,,,,,,,,VFR,,,,,,,,,,,,METAR,278.0
KFBL 220654Z AUTO 29009G15KT 10SM CLR M18/M23 A3038 RMK AO2,KFBL,2015-02-22T06:54:00Z,44.33,-93.32,-18.0,-23.0,290,9,15,10.0,30.380905,,,TRUE,TRUE,,,,,,,CLR,,,,,,,,VFR,,,,,,,,,,,,METAR,322.0
KFFM 220654Z AUTO 33010KT 10SM CLR M24/M29 A3053 RMK AO2,KFFM,2015-02-22T06:54:00Z,46.28,-96.15,-24.0,-29.0,330,10,,10.0,30.528543,,,TRUE,TRUE,,,,,,,CLR,,,,,,,,VFR,,,,,,,,,,,,METAR,361.0
KBUF 220654Z 22003KT 3SM BR MIFG FEW004 FEW045 M09/M12 A3010 RMK AO2 SLP206 VIS N 1 1/2 T10941117,KBUF,2015-02-22T06:54:00Z,42.93,-78.73,-9.4,-11.7,220,3,,3.0,30.100393,1020.6,,,TRUE,,,,,,BR MIFG,FEW,400,FEW,4500,,,,,MVFR,,,,,,,,,,,,METAR,211.0
KBTV 220654Z 20006KT 10SM OVC100 M05/M08 A3010 RMK AO2 SLP197 T10501083,KBTV,2015-02-22T06:54:00Z,44.47,-73.15,-5.0,-8.3,200,6,,10.0,30.100393,1019.7,,,TRUE,,,,,,,OVC,10000,,,,,,,VFR,,,,,,,,,,,,METAR,105.0
KBOS 220654Z 16003KT 4SM -RA BR SCT013 BKN028 OVC040 00/00 A3012 RMK AO2 SLP198 P0005 T00000000,KBOS,2015-02-22T06:54:00Z,42.37,-71.02,0.0,0.0,160,3,,4.0,30.121063,1019.8,,,TRUE,,,,,,-RA BR,SCT,1300,BKN,2800,OVC,4000,,,MVFR,,,,,,0.05,,,,,,METAR,6.0
KBFL 220654Z 10003KT 4SM HZ CLR 10/07 A2983 RMK AO2 SLP100 T01000072,KBFL,2015-02-22T06:54:00Z,35.43,-119.05,10.0,7.2,100,3,,4.0,29.828741,1010.0,,,TRUE,,,,,,HZ,CLR,,,,,,,,MVFR,,,,,,,,,,,,METAR,151.0
KAVL 220654Z AUTO 16006KT 8SM -RA FEW028 OVC070 04/03 A3011 RMK AO2 SLP200 P0003 T00440033,KAVL,2015-02-22T06:54:00Z,35.43,-82.53,4.4,3.3,160,6,,8.0,30.109253,1020.0,,TRUE,TRUE,,,,,,-RA,FEW,2800,OVC,7000,,,,,VFR,,,,,,0.03,,,,,,METAR,670.0
KAUW 220654Z AUTO 32003KT 10SM CLR M16/M18 A3019 RMK AO2 SLP252 T11561183,KAUW,2015-02-22T06:54:00Z,44.93,-89.62,-15.6,-18.3,320,3,,10.0,30.188976,1025.2,,TRUE,TRUE,,,,,,,CLR,,,,,,,,VFR,,,,,,,,,,,,METAR,362.0
KAQP 220654Z AUTO 28004KT 10SM CLR M22/M26 A3049 RMK AO2,KAQP,2015-02-22T06:54:00Z,45.22,-96.0,-22.0,-26.0,280,4,,10.0,30.490158,,,TRUE,TRUE,,,,,,,CLR,,,,,,,,VFR,,,,,,,,,,,,METAR,311.0
KAPC 220654Z AUTO 21004KT 5SM BR OVC002 09/09 A2985 RMK AO2 SLP098 T00940094,KAPC,2015-02-22T06:54:00Z,38.2,-122.28,9.4,9.4,210,4,,5.0,29.84941,1009.8,,TRUE,TRUE,,,,,,BR,OVC,200,,,,,,,LIFR,,,,,,,,,,,,METAR,13.0
KALO 220654Z AUTO 33015G22KT 10SM CLR M14/M18 A3035 RMK AO2 SLP295 T11441183,KALO,2015-02-22T06:54:00Z,42.55,-92.4,-14.4,-18.3,330,15,22,10.0,30.351377,1029.5,,TRUE,TRUE,,,,,,,CLR,,,,,,,,VFR,,,,,,,,,,,,METAR,264.0
KAKR 220654Z AUTO 03003KT 6SM BR OVC006 M05/M07 A3008 RMK AO2 SLP201 T10501072 $,KAKR,2015-02-22T06:54:00Z,41.03,-81.47,-5.0,-7.2,30,3,,6.0,30.079725,1020.1,,TRUE,TRUE,TRUE,,,,,BR,OVC,600,,,,,,,IFR,,,,,,,,,,,,METAR,363.0
KAKQ 220654Z AUTO 00000KT 3SM BR OVC013 01/00 A3019 RMK AO2 SLP226 T00110000 TSNO,KAKQ,2015-02-22T06:54:00Z,36.98,-77.0,1.1,0.0,0,0,,3.0,30.188976,1022.6,,TRUE,TRUE,,,TRUE,,,BR,OVC,1300,,,,,,,MVFR,,,,,,,,,,,,METAR,34.0
KAKH 220654Z AUTO 00000KT 6SM -RA OVC075 03/M01 A3015 RMK AO2 RAB10 SLP214 P0003 T00281011,KAKH,2015-02-22T06:54:00Z,35.2,-81.15,2.8,-1.1,0,0,,6.0,30.15059,1021.4,,TRUE,TRUE,,,,,,-RA,OVC,7500,,,,,,,VFR,,,,,,0.03,,,,,,METAR,243.0
KAAO 220654Z AUTO 03016G24KT 9SM -SN BKN018 OVC026 M02/M06 A3029 RMK AO2 SNB0555 SLP264 P0000 T10171056,KAAO,2015-02-22T06:54:00Z,37.75,-97.22,-1.7,-5.6,30,16,24,9.0,30.28937,1026.4,,TRUE,TRUE,,,,,,-SN,BKN,1800,OVC,2600,,,,,MVFR,,,,,,0.0050,,,,,,METAR,434.0
K7BM 220654Z AUTO 00000KT 5SM -SN SCT009 BKN015 BKN120 M09/M11 A2996 RMK AO2,K7BM,2015-02-22T06:54:00Z,38.78,-106.22,-9.0,-11.0,0,0,,5.0,29.958662,,,TRUE,TRUE,,,,,,-SN,SCT,900,BKN,1500,BKN,12000,,,MVFR,,,,,,,,,,,,METAR,2995.0
K5SM 220654Z AUTO 00000KT 10SM CLR RMK AO2,K5SM,2015-02-22T06:54:00Z,39.43,-107.38,,,0,0,,10.0,,,,TRUE,TRUE,,,,,,,CLR,,,,,,,,VFR,,,,,,,,,,,,METAR,3232.0
KTOB 220654Z AUTO 31015G20KT 10SM SCT080 SCT090 M17/M22 A3032 RMK AO2,KTOB,2015-02-22T06:54:00Z,44.02,-92.82,-17.0,-22.0,310,15,20,10.0,30.318897,,,TRUE,TRUE,,,,,,,SCT,8000,SCT,9000,,,,,VFR,,,,,,,,,,,,METAR,398.0
KBUY 220654Z AUTO 16003KT 10SM BKN075 OVC095 02/M04 A3015 RMK AO2 SLP215 T00171039,KBUY,2015-02-22T06:54:00Z,36.05,-79.47,1.7,-3.9,160,3,,10.0,30.15059,1021.5,,TRUE,TRUE,,,,,,,BKN,7500,OVC,9500,,,,,VFR,,,,,,,,,,,,METAR,180.0
KBKB 220654Z AUTO 00000KT 6SM BR OVC011 19/17 A2997 RMK AO2 RAE54 CIG 007V015 SLP176 P0001 T01940172,KBKB,2015-02-22T06:54:00Z,31.0,-92.92,19.4,17.2,0,0,,6.0,29.970472,1017.6,,TRUE,TRUE,,,,,,BR,OVC,1100,,,,,,,MVFR,,,,,,0.01,,,,,,METAR,94.0
KFZY 220654Z AUTO 24007KT 10SM OVC027 M04/M09 A3010 RMK AO2 SLP200 T10441089,KFZY,2015-02-22T06:54:00Z,43.35,-76.38,-4.4,-8.9,240,7,,10.0,30.100393,1020.0,,TRUE,TRUE,,,,,,,OVC,2700,,,,,,,MVFR,,,,,,,,,,,,METAR,138.0
KGCN 220654Z 20003KT 10SM FEW120 04/M03 A2989 RMK AO2 SLP072 T00391033 401441100 $,KGCN,2015-02-22T06:54:00Z,35.95,-112.15,3.9,-3.3,200,3,,10.0,29.890747,1007.2,,,TRUE,TRUE,,,,,,FEW,12000,,,,,,,VFR,,,,14.4,-10.0,,,,,,,METAR,2016.0
KGED 220654Z AUTO 23005KT 3SM -RA BR OVC005 02/01 A3017 RMK AO2 UPB35E50 SLP215 P0002 T00170011,KGED,2015-02-22T06:54:00Z,38.68,-75.37,1.7,1.1,230,5,,3.0,30.171259,1021.5,,TRUE,TRUE,,,,,,-RA BR,OVC,500,,,,,,,IFR,,,,,,0.02,,,,,,METAR,19.0
KGSO 220654Z 20003KT 2 1/2SM RA BR BKN055 OVC070 01/M01 A3013 RMK AO2 SLP209 P0017 T00061011,KGSO,2015-02-22T06:54:00Z,36.1,-79.95,0.6,-1.1,200,3,,2.5,30.129921,1020.9,,,TRUE,,,,,,RA BR,BKN,5500,OVC,7000,,,,,IFR,,,,,,0.17,,,,,,METAR,275.0
KHWD 220654Z AUTO 03003KT 10SM CLR 13/09 A2984 RMK AO2 SLP114 T01280094,KHWD,2015-02-22T06:54:00Z,37.67,-122.12,12.8,9.4,30,3,,10.0,29.840551,1011.4,,TRUE,TRUE,,,,,,,CLR,,,,,,,,VFR,,,,,,,,,,,,METAR,21.0
KINT 220654Z AUTO 00000KT 3SM RA BR OVC065 01/M01 A3014 RMK AO2 UPE17RAB17 SLP212 P0006 T00061011,KINT,2015-02-22T06:54:00Z,36.13,-80.22,0.6,-1.1,0,0,,3.0,30.138779,1021.2,,TRUE,TRUE,,,,,,RA BR,OVC,6500,,,,,,,MVFR,,,,,,0.06,,,,,,METAR,291.0
KISW 220654Z AUTO 34006KT 10SM BKN041 M13/M18 A3023 RMK AO2 SLP259 T11281183,KISW,2015-02-22T06:54:00Z,44.37,-89.83,-12.8,-18.3,340,6,,10.0,30.230314,1025.9,,TRUE,TRUE,,,,,,,BKN,4100,,,,,,,VFR,,,,,,,,,,,,METAR,307.0
KTWM 220654Z AUTO 32003KT 10SM CLR M20/M25 A3028 RMK AO2,KTWM,2015-02-22T06:54:00Z,47.03,-91.75,-20.0,-25.0,320,3,,10.0,30.280512,,,TRUE,TRUE,,,,,,,CLR,,,,,,,,VFR,,,,,,,,,,,,METAR,328.0
KIZG 220654Z AUTO 00000KT 3SM -SN BR OVC034 M08/M09 A3008 RMK AO2 SLP194 P0002 T10781094,KIZG,2015-02-22T06:54:00Z,43.98,-70.95,-7.8,-9.4,0,0,,3.0,30.079725,1019.4,,TRUE,TRUE,,,,,,-SN BR,OVC,3400,,,,,,,MVFR,,,,,,0.02,,,,,,METAR,135.0
KULM 220654Z AUTO 33013KT 10SM CLR M18/M23 A3043 RMK AO2,KULM,2015-02-22T06:54:00Z,44.32,-94.5,-18.0,-23.0,330,13,,10.0,30.431103,,,TRUE,TRUE,,,,,,,CLR,,,,,,,,VFR,,,,,,,,,,,,METAR,308.0
KVVV 220654Z AUTO 33006KT 10SM CLR M19/M23 A3048 RMK AO2,KVVV,2015-02-22T06:54:00Z,45.3,-96.42,-19.0,-23.0,330,6,,10.0,30.481298,,,TRUE,TRUE,,,,,,,CLR,,,,,,,,VFR,,,,,,,,,,,,METAR,335.0
KY63 220654Z AUTO 33007KT 10SM CLR M23/M27 A3047 RMK AO2 T12321267,KY63,2015-02-22T06:54:00Z,45.98,-96.0,-23.2,-26.7,330,7,,10.0,30.469488,,,TRUE,TRUE,,,,,,,CLR,,,,,,,,VFR,,,,,,,,,,,,METAR,367.0
KPEX 220654Z AUTO 26005KT 10SM CLR M22/M26 A3044 RMK AO2 T12241261,KPEX,2015-02-22T06:54:00Z,45.37,-94.73,-22.4,-26.1,260,5,,10.0,30.43996,,,TRUE,TRUE,,,,,,,CLR,,,,,,,,VFR,,,,,,,,,,,,METAR,360.0
KTEW 220654Z AUTO 00000KT 5SM BR OVC029 M06/M08 A3010 RMK AO2 T10651085,KTEW,2015-02-22T06:54:00Z,42.57,-84.42,-6.5,-8.5,0,0,,5.0,30.100393,,,TRUE,TRUE,,,,,,BR,OVC,2900,,,,,,,MVFR,,,,,,,,,,,,METAR,280.0
KSYN 220654Z AUTO 31011KT 10SM CLR M17/M23 A3038 RMK AO2 T11701230,KSYN,2015-02-22T06:54:00Z,44.47,-93.02,-17.0,-23.0,310,11,,10.0,30.380905,,,TRUE,TRUE,,,,,,,CLR,,,,,,,,VFR,,,,,,,,,,,,METAR,280.0
KLXL 220654Z AUTO 30005KT 10SM CLR M21/M26 A3042 RMK AO2,KLXL,2015-02-22T06:54:00Z,45.95,-94.33,-21.0,-26.0,300,5,,10.0,30.41929,,,TRUE,TRUE,,,,,,,CLR,,,,,,,,VFR,,,,,,,,,,,,METAR,342.0
KPQN 220654Z AUTO 34006KT 10SM CLR M17/M20 A3041 RMK AO2,KPQN,2015-02-22T06:54:00Z,43.97,-96.32,-17.0,-20.0,340,6,,10.0,30.410433,,,TRUE,TRUE,,,,,,,CLR,,,,,,,,VFR,,,,,,,,,,,,METAR,529.0
KPWC 220654Z AUTO 31004KT 10SM CLR M24/M27 A3041 RMK AO2,KPWC,2015-02-22T06:54:00Z,46.72,-94.37,-24.0,-27.0,310,4,,10.0,30.410433,,,TRUE,TRUE,,,,,,,CLR,,,,,,,,VFR,,,,,,,,,,,,METAR,395.0
KRMY 220654Z AUTO 25003KT 7SM OVC028 M05/M07 A3011 RMK AO2 T10461067,KRMY,2015-02-22T06:54:00Z,42.23,-84.95,-4.6,-6.7,250,3,,7.0,30.109253,,,TRUE,TRUE,,,,,,,OVC,2800,,,,,,,MVFR,,,,,,,,,,,,METAR,287.0
KROX 220654Z AUTO 31007KT 10SM CLR M29/M33 A3051 RMK AO2,KROX,2015-02-22T06:54:00Z,48.85,-95.7,-29.0,-33.0,310,7,,10.0,30.510826,,,TRUE,TRUE,,,,,,,CLR,,,,,,,,VFR,,,,,,,,,,,,METAR,323.0
KBWI 220654Z 00000KT 4SM -RA BR BKN007 OVC018 01/00 A3012 RMK AO2 SLP201 P0003 T00060000,KBWI,2015-02-22T06:54:00Z,39.17,-76.68,0.6,0.0,0,0,,4.0,30.121063,1020.1,,,TRUE,,,,,,-RA BR,BKN,700,OVC,1800,,,,,IFR,,,,,,0.03,,,,,,METAR,59.0
KCAR 220654Z AUTO 17003KT 2SM -SN BR OVC028 M07/M08 A3005 RMK AO2 SLP193 P0002 T10671083,KCAR,2015-02-22T06:54:00Z,46.87,-68.02,-6.7,-8.3,170,3,,2.0,30.050198,1019.3,,TRUE,TRUE,,,,,,-SN BR,OVC,2800,,,,,,,IFR,,,,,,0.02,,,,,,METAR,191.0
KCEU 220654Z AUTO 00000KT 2SM RA BR BKN018 OVC024 05/03 A3018 RMK AO2 SLP223 P0008 T00500028 $,KCEU,2015-02-22T06:54:00Z,34.67,-82.88,5.0,2.8,0,0,,2.0,30.180119,1022.3,,TRUE,TRUE,TRUE,,,,,RA BR,BKN,1800,OVC,2400,,,,,IFR,,,,,,0.08,,,,,,METAR,268.0
KCOS 220654Z 35013KT 2 1/2SM -SN BR FEW015 SCT025 OVC035 M09/M13 A3019 RMK AO2 SLP280 P0000 T10891133 410061089 $,KCOS,2015-02-22T06:54:00Z,38.82,-104.68,-8.9,-13.3,350,13,,2.5,30.188976,1028.0,,,TRUE,TRUE,,,,,-SN BR,FEW,1500,SCT,2500,OVC,3500,,,IFR,,,,-0.6,-8.9,0.0050,,,,,,METAR,1856.0
KCOU 220654Z AUTO 01011KT 10SM OVC016 M03/M06 A3029 RMK AO2 SLP263 T10281056 $,KCOU,2015-02-22T06:54:00Z,38.82,-92.22,-2.8,-5.6,10,11,,10.0,30.28937,1026.3,,TRUE,TRUE,TRUE,,,,,,OVC,1600,,,,,,,MVFR,,,,,,,,,,,,METAR,271.0
KDDH 220654Z AUTO 00000KT 6SM BR OVC018 M05/M06 A3008 RMK AO2 SNE18 SLP198 P0000 T10501061,KDDH,2015-02-22T06:54:00Z,42.9,-73.25,-5.0,-6.1,0,0,,6.0,30.079725,1019.8,,TRUE,TRUE,,,,,,BR,OVC,1800,,,,,,,MVFR,,,,,,0.0050,,,,,,METAR,244.0
KDEC 220654Z AUTO 33010KT 8SM OVC022 M01/M04 A3021 RMK AO2 SLP238 T10061044 TSNO,KDEC,2015-02-22T06:54:00Z,39.83,-88.85,-0.6,-4.4,330,10,,8.0,30.209646,1023.8,,TRUE,TRUE,,,TRUE,,,,OVC,2200,,,,,,,MVFR,,,,,,,,,,,,METAR,207.0
KDSM 220654Z 35008KT 10SM CLR M11/M20 A3039 RMK AO2 SLP307 T11061200,KDSM,2015-02-22T06:54:00Z,41.53,-93.67,-10.6,-20.0,350,8,,10.0,30.389763,1030.7,,,TRUE,,,,,,,CLR,,,,,,,,VFR,,,,,,,,,,,,METAR,295.0
KDSV 220654Z AUTO A3008 RMK AO2 SLPNO PWINO FZRANO $,KDSV,2015-02-22T06:54:00Z,42.57,-77.72,,,,,,,30.079725,,,TRUE,TRUE,TRUE,,,TRUE,TRUE,,,,,,,,,,,,,,,,,,,,,,METAR,198.0
KEUG 220654Z 02008KT 10SM CLR 06/M01 A3027 RMK AO2 SLP250 T00561011 $,KEUG,2015-02-22T06:54:00Z,44.13,-123.22,5.6,-1.1,20,8,,10.0,30.268702,1025.0,,,TRUE,TRUE,,,,,,CLR,,,,,,,,VFR,,,,,,,,,,,,METAR,114.0
KEWN 220654Z AUTO 20007KT 10SM FEW029 BKN046 OVC055 14/12 A3023 RMK AO2 RAB20E38 SLP237 P0000 T01390122,KEWN,2015-02-22T06:54:00Z,35.07,-77.05,13.9,12.2,200,7,,10.0,30.230314,1023.7,,TRUE,TRUE,,,,,,,FEW,2900,BKN,4600,OVC,5500,,,VFR,,,,,,0.0050,,,,,,METAR,3.0
KOFP 220654Z AUTO 18004KT 2SM -RA BR OVC009 01/00 A3017 RMK AO2 RAE38B54UPB38E54 SLP217 P0004 T00060000,KOFP,2015-02-22T06:54:00Z,37.7,-77.43,0.6,0.0,180,4,,2.0,30.171259,1021.7,,TRUE,TRUE,,,,,,-RA BR,OVC,900,,,,,,,IFR,,,,,,0.04,,,,,,METAR,62.0
KOLS 220654Z AUTO 16009KT 10SM BKN120 14/04 A2995 RMK AO2 SLP092 T01440039 402280067,KOLS,2015-02-22T06:54:00Z,31.42,-110.85,14.4,3.9,160,9,,10.0,29.949802,1009.2,,TRUE,TRUE,,,,,,,BKN,12000,,,,,,,VFR,,,,22.8,6.7,,,,,,,METAR,1184.0
KOLM 220654Z AUTO 00000KT 9SM SCT080 00/M01 A3042 RMK AO2 SLP304 T00001011,KOLM,2015-02-22T06:54:00Z,46.97,-122.9,0.0,-1.1,0,0,,9.0,30.41929,1030.4,,TRUE,TRUE,,,,,,,SCT,8000,,,,,,,VFR,,,,,,,,,,,,METAR,58.0
KORH 220654Z AUTO 24015KT 1 1/4SM -SN BR BKN007 BKN014 OVC021 M01/M03 A3005 RMK AO2 SLP191 P0003 T10111028,KORH,2015-02-22T06:54:00Z,42.27,-71.87,-1.1,-2.8,240,15,,1.25,30.050198,1019.1,,TRUE,TRUE,,,,,,-SN BR,BKN,700,BKN,1400,OVC,2100,,,IFR,,,,,,0.03,,,,,,METAR,304.0
KPHF 220654Z 00000KT 4SM BR BKN021 OVC029 03/01 A3019 RMK AO2 RAE15 SLP222 P0000 T00280006,KPHF,2015-02-22T06:54:00Z,37.13,-76.5,2.8,0.6,0,0,,4.0,30.188976,1022.2,,,TRUE,,,,,,BR,BKN,2100,OVC,2900,,,,,MVFR,,,,,,0.0050,,,,,,METAR,12.0
KPIA 220654Z VRB05KT 10SM OVC030 M03/M09 A3026 RMK AO2 SLP254 T10331089,KPIA,2015-02-22T06:54:00Z,40.67,-89.68,-3.3,-8.9,0,5,,10.0,30.259842,1025.4,,,TRUE,,,,,,,OVC,3000,,,,,,,MVFR,,,,,,,,,,,,METAR,205.0
KPNE 220654Z 23004KT 4SM -RA OVC004 02/M01 A3016 RMK AO2 SLP213 P0001 T00171011,KPNE,2015-02-22T06:54:00Z,40.08,-75.02,1.7,-1.1,230,4,,4.0,30.159449,1021.3,,,TRUE,,,,,,-RA,OVC,400,,,,,,,LIFR,,,,,,0.01,,,,,,METAR,28.0
KPSF 220654Z AUTO 24006KT 5SM -SN BR BKN011 OVC075 M04/M06 A3004 RMK AO2 SLP193 P0000 T10441061,KPSF,2015-02-22T06:54:00Z,42.43,-73.28,-4.4,-6.1,240,6,,5.0,30.041338,1019.3,,TRUE,TRUE,,,,,,-SN BR,BKN,1100,OVC,7500,,,,,MVFR,,,,,,0.0050,,,,,,METAR,355.0
KRBL 220654Z AUTO 36022G28KT 10SM CLR 14/M04 A2993 RMK AO2 PK WND 36031/0556 SLP133 T01391039,KRBL,2015-02-22T06:54:00Z,40.15,-122.25,13.9,-3.9,360,22,28,10.0,29.929134,1013.3,,TRUE,TRUE,,,,,,,CLR,,,,,,,,VFR,,,,,,,,,,,,METAR,104.0
KVSF 220654Z AUTO 00000KT 6SM BR FEW075 OVC100 M07/M08 A3010 RMK AO2 SNE46 SLP203 P0000 T10721083 TSNO,KVSF,2015-02-22T06:54:00Z,43.35,-72.52,-7.2,-8.3,0,0,,6.0,30.100393,1020.3,,TRUE,TRUE,,,TRUE,,,BR,FEW,7500,OVC,10000,,,,,VFR,,,,,,0.0050,,,,,,METAR,175.0
KUZA 220654Z AUTO 00000KT 7SM -RA BKN085 OVC100 04/M02 A3016 RMK AO2 RAB46 SLP218 P0000 T00391017,KUZA,2015-02-22T06:54:00Z,34.98,-81.05,3.9,-1.7,0,0,,7.0,30.159449,1021.8,,TRUE,TRUE,,,,,,-RA,BKN,8500,OVC,10000,,,,,VFR,,,,,,0.0050,,,,,,METAR,202.0
KUIN 220654Z AUTO 34012KT 10SM OVC022 M04/M08 A3027 RMK AO2 SLP259 T10391083,KUIN,2015-02-22T06:54:00Z,39.95,-91.2,-3.9,-8.3,340,12,,10.0,30.268702,1025.9,,TRUE,TRUE,,,,,,,OVC,2200,,,,,,,MVFR,,,,,,,,,,,,METAR,234.0
KTAD 220654Z AUTO 36016KT 1/2SM SN FZFG BKN011 OVC016 M07/M09 A3021 RMK AO2 PK WND 34029/0603 SLP245 P0001 T10671089 400781067,KTAD,2015-02-22T06:54:00Z,37.27,-104.33,-6.7,-8.9,360,16,,0.5,30.209646,1024.5,,TRUE,TRUE,,,,,,SN FZFG,BKN,1100,OVC,1600,,,,,LIFR,,,,7.8,-6.7,0.01,,,,,,METAR,1756.0
KSYR 220654Z 00000KT 8SM OVC025 M08/M08 A3010 RMK AO2 SLP198 T10831083 PNO $,KSYR,2015-02-22T06:54:00Z,43.12,-76.1,-8.3,-8.3,0,0,,8.0,30.100393,1019.8,,,TRUE,TRUE,,,,,,OVC,2500,,,,,,,MVFR,,,,,,,,,,,,METAR,127.0
KSUS 220654Z AUTO 36005KT 10SM OVC022 01/M03 A3024 RMK AO2 SLP248 T00111033,KSUS,2015-02-22T06:54:00Z,38.65,-90.65,1.1,-3.3,360,5,,10.0,30.239174,1024.8,,TRUE,TRUE,,,,,,,OVC,2200,,,,,,,MVFR,,,,,,,,,,,,METAR,141.0
KSJN 220654Z AUTO 23009KT 10SM CLR 09/M01 A2988 RMK AO2 SLP060 T00891011 401780044,KSJN,2015-02-22T06:54:00Z,34.52,-109.38,8.9,-1.1,230,9,,10.0,29.878937,1006.0,,TRUE,TRUE,,,,,,,CLR,,,,,,,,VFR,,,,17.8,4.4,,,,,,,METAR,1745.0
KIPT 220654Z AUTO 09005KT 10SM OVC023 M04/M07 A3011 RMK AO2 SLP204 T10441072,KIPT,2015-02-22T06:54:00Z,41.25,-76.92,-4.4,-7.2,90,5,,10.0,30.109253,1020.4,,TRUE,TRUE,,,,,,,OVC,2300,,,,,,,MVFR,,,,,,,,,,,,METAR,164.0
KIND 220654Z 29004KT 5SM BR FEW025 BKN038 M05/M07 A3017 RMK AO2 SLP224 T10501067,KIND,2015-02-22T06:54:00Z,39.72,-86.3,-5.0,-6.7,290,4,,5.0,30.171259,1022.4,,,TRUE,,,,,,BR,FEW,2500,BKN,3800,,,,,MVFR,,,,,,,,,,,,METAR,241.0
KILN 220654Z AUTO 33006KT 4SM BR CLR M06/M07 A3012 RMK AO2 SLP231 T10611072,KILN,2015-02-22T06:54:00Z,39.43,-83.8,-6.1,-7.2,330,6,,4.0,30.121063,1023.1,,TRUE,TRUE,,,,,,BR,CLR,,,,,,,,MVFR,,,,,,,,,,,,METAR,322.0
KHAI 220654Z AUTO 28004KT 7SM SCT013 OVC023 M03/M06 A3014 RMK AO2 T10301062,KHAI,2015-02-22T06:54:00Z,41.97,-85.6,-3.0,-6.2,280,4,,7.0,30.138779,,,TRUE,TRUE,,,,,,,SCT,1300,OVC,2300,,,,,MVFR,,,,,,,,,,,,METAR,251.0
KEVV 220654Z AUTO 36006KT 10SM CLR M02/M05 A3020 RMK AO2 SLP231 T10221050,KEVV,2015-02-22T06:54:00Z,38.05,-87.52,-2.2,-5.0,360,6,,10.0,30.200787,1023.1,,TRUE,TRUE,,,,,,,CLR,,,,,,,,VFR,,,,,,,,,,,,METAR,117.0
KDYL 220654Z AUTO 00000KT 4SM -FZRA BR OVC004 M01/M01 A3012 RMK AO2 SLP208 P0000 I1002 T10111011,KDYL,2015-02-22T06:54:00Z,40.33,-75.12,-1.1,-1.1,0,0,,4.0,30.121063,1020.8,,TRUE,TRUE,,,,,,-FZRA BR,OVC,400,,,,,,,LIFR,,,,,,0.0050,,,,,,METAR,117.0
KACY 220654Z 25005KT 5SM -RA BR SCT005 BKN009 OVC050 02/01 A3016 RMK AO2 SLP213 P0004 T00170011,KACY,2015-02-22T06:54:00Z,39.45,-74.57,1.7,1.1,250,5,,5.0,30.159449,1021.3,,,TRUE,,,,,,-RA BR,SCT,500,BKN,900,OVC,5000,,,IFR,,,,,,0.04,,,,,,METAR,23.0
KNAK 220654Z AUTO 17005KT 5SM -RA BR BKN006 OVC018 01/M01 A3013 RMK AO2 SLP206 P0001 T00061006,KNAK,2015-02-22T06:54:00Z,38.98,-76.48,0.6,-0.6,170,5,,5.0,30.129921,1020.6,,TRUE,TRUE,,,,,,-RA BR,BKN,600,OVC,1800,,,,,IFR,,,,,,0.01,,,,,,METAR,2.0
KMVL 220654Z AUTO 00000KT 7SM FEW042 OVC050 M11/M13 A3008 RMK AO2 SNE42 SLP202 P0000 T11061128 TSNO,KMVL,2015-02-22T06:54:00Z,44.53,-72.62,-10.6,-12.8,0,0,,7.0,30.079725,1020.2,,TRUE,TRUE,,,TRUE,,,,FEW,4200,OVC,5000,,,,,VFR,,,,,,0.0050,,,,,,METAR,234.0
KMRY 220654Z AUTO 16005KT 10SM BKN019 OVC023 13/10 A2986 RMK AO2 SLP124 T01330100,KMRY,2015-02-22T06:54:00Z,36.58,-121.85,13.3,10.0,160,5,,10.0,29.861221,1012.4,,TRUE,TRUE,,,,,,,BKN,1900,OVC,2300,,,,,MVFR,,,,,,,,,,,,METAR,66.0
KMOT 220654Z AUTO 30011KT 10SM CLR M27/M31 A3059 RMK AO2 SLP416 T12671311,KMOT,2015-02-22T06:54:00Z,48.25,-101.27,-26.7,-31.1,300,11,,10.0,30.590551,1041.6,,TRUE,TRUE,,,,,,,CLR,,,,,,,,VFR,,,,,,,,,,,,METAR,519.0
KMKC 220654Z 01009KT 10SM CLR M03/M08 A3037 RMK AO2 SLP290 T10281083,KMKC,2015-02-22T06:54:00Z,39.12,-94.6,-2.8,-8.3,10,9,,10.0,30.369095,1029.0,,,TRUE,,,,,,,CLR,,,,,,,,VFR,,,,,,,,,,,,METAR,227.0
KMIV 220654Z AUTO 00000KT 4SM -RA BR FEW004 OVC011 01/00 A3015 RMK AO2 SLP209 P0004 T00060000,KMIV,2015-02-22T06:54:00Z,39.37,-75.08,0.6,0.0,0,0,,4.0,30.15059,1020.9,,TRUE,TRUE,,,,,,-RA BR,FEW,400,OVC,1100,,,,,MVFR,,,,,,0.04,,,,,,METAR,23.0
KMFI 220654Z AUTO 33007KT 10SM SCT042 M17/M20 A3021 RMK AO2 SLP259 T11671200,KMFI,2015-02-22T06:54:00Z,,,-16.7,-20.0,330,7,,10.0,30.209646,1025.9,,TRUE,TRUE,,,,,,,SCT,4200,,,,,,,VFR,,,,,,,,,,,,METAR,
KMEM 220654Z 03009KT 10SM OVC007 02/00 A3017 RMK AO2 SLP216 T00170000 $,KMEM,2015-02-22T06:54:00Z,35.07,-89.98,1.7,0.0,30,9,,10.0,30.171259,1021.6,,,TRUE,TRUE,,,,,,OVC,700,,,,,,,IFR,,,,,,,,,,,,METAR,86.0
KLYH 220654Z AUTO 21006KT 4SM UP BR BKN003 OVC065 M01/M01 A3014 RMK AO2 UPB40FZRAE36 SLP216 P0002 T10061006,KLYH,2015-02-22T06:54:00Z,37.32,-79.2,-0.6,-0.6,210,6,,4.0,30.138779,1021.6,,TRUE,TRUE,,,,,,BR UP,BKN,300,OVC,6500,,,,,LIFR,,,,,,0.02,,,,,,METAR,295.0
KLWM 220654Z AUTO 20005KT 7SM -SN BR OVC032 00/M01 A3012 RMK AO2 SLP200 P0002 T00001011,KLWM,2015-02-22T06:54:00Z,42.72,-71.13,0.0,-1.1,200,5,,7.0,30.121063,1020.0,,TRUE,TRUE,,,,,,-SN BR,OVC,3200,,,,,,,VFR,,,,,,0.02,,,,,,METAR,54.0
KLNK 220654Z AUTO 01016KT 10SM OVC090 M08/M16 A3047 RMK AO2 SLP335 T10831161,KLNK,2015-02-22T06:54:00Z,40.85,-96.77,-8.3,-16.1,10,16,,10.0,30.469488,1033.5,,TRUE,TRUE,,,,,,,OVC,9000,,,,,,,VFR,,,,,,,,,,,,METAR,364.0
KLMO 220654Z AUTO 02006KT 10SM SCT020 OVC041 M07/M10 A3031 RMK AO2 T10751100,KLMO,2015-02-22T06:54:00Z,40.17,-105.17,-7.5,-10.0,20,6,,10.0,30.31004,,,TRUE,TRUE,,,,,,,SCT,2000,OVC,4100,,,,,VFR,,,,,,,,,,,,METAR,1541.0
KLBT 220654Z AUTO 16004KT 10SM CLR 09/08 A3018 RMK AO2 SLP219 T00940083,KLBT,2015-02-22T06:54:00Z,34.6,-79.07,9.4,8.3,160,4,,10.0,30.180119,1021.9,,TRUE,TRUE,,,,,,,CLR,,,,,,,,VFR,,,,,,,,,,,,METAR,37.0
KLAF 220654Z AUTO 00000KT 5SM BR FEW029 OVC042 M04/M06 A3019 RMK AO2 SLP231 T10441056 TSNO,KLAF,2015-02-22T06:54:00Z,40.42,-86.93,-4.4,-5.6,0,0,,5.0,30.188976,1023.1,,TRUE,TRUE,,,TRUE,,,BR,FEW,2900,OVC,4200,,,,,MVFR,,,,,,,,,,,,METAR,182.0
KJST 220654Z AUTO 25007KT 1/4SM -SN FG VV002 00/M01 A2998 RMK AO2 SLP183 P0000 T00001011,KJST,2015-02-22T06:54:00Z,40.32,-78.83,0.0,-1.1,250,7,,0.25,29.97933,1018.3,,TRUE,TRUE,,,,,,-SN FG,OVX,0,,,,,,,LIFR,,,,,,0.0050,,,,,200,METAR,694.0
KJAN 220654Z AUTO 35010KT 10SM -RA BKN005 OVC008 10/09 A3004 RMK AO2 SLP170 P0008 T01000094,KJAN,2015-02-22T06:54:00Z,32.32,-90.08,10.0,9.4,350,10,,10.0,30.041338,1017.0,,TRUE,TRUE,,,,,,-RA,BKN,500,OVC,800,,,,,IFR,,,,,,0.08,,,,,,METAR,91.0
KWLD 220654Z AUTO 04012G21KT 8SM FEW016 BKN028 OVC038 02/M01 A3025 RMK AO2 SLP248 T00221006,KWLD,2015-02-22T06:54:00Z,37.17,-97.03,2.2,-0.6,40,12,21,8.0,30.250984,1024.8,,TRUE,TRUE,,,,,,,FEW,1600,BKN,2800,OVC,3800,,,MVFR,,,,,,,,,,,,METAR,350.0
KWAL 220654Z AUTO 22009KT 7SM -RA FEW039 OVC065 06/06 A3018 RMK AO2 SLP216 P0017 T00560056,KWAL,2015-02-22T06:54:00Z,37.93,-75.47,5.6,5.6,220,9,,7.0,30.180119,1021.6,,TRUE,TRUE,,,,,,-RA,FEW,3900,OVC,6500,,,,,VFR,,,,,,0.17,,,,,,METAR,14.0
KISQ 220654Z AUTO 28005KT 10SM SCT120 M18/M19 A3016 RMK AO2 T11771191,KISQ,2015-02-22T06:54:00Z,45.97,-86.17,-17.7,-19.1,280,5,,10.0,30.159449,,,TRUE,TRUE,,,,,,,SCT,12000,,,,,,,VFR,,,,,,,,,,,,METAR,209.0
KLEX 220654Z 35008KT 1/4SM BR OVC003 M01/M01 A3013 RMK AO2 SFC VIS 6 SLP210 T10061011 $,KLEX,2015-02-22T06:54:00Z,38.03,-84.6,-0.6,-1.1,350,8,,0.25,30.129921,1021.0,,,TRUE,TRUE,,,,,BR,OVC,300,,,,,,,LIFR,,,,,,,,,,,,METAR,300.0
KMGJ 220654Z AUTO 00000KT 1SM -SN BR VV018 M05/M07 A3012 RMK AO2 SNB00 SLP205 P0002 T10501067 TSNO,KMGJ,2015-02-22T06:54:00Z,41.52,-74.27,-5.0,-6.7,0,0,,1.0,30.121063,1020.5,,TRUE,TRUE,,,TRUE,,,-SN BR,OVX,0,,,,,,,LIFR,,,,,,0.02,,,,,1800,METAR,108.0
KAMN 220654Z AUTO 00000KT 7SM BKN010 BKN015 OVC035 M05/M06 A3011 RMK AO2 T10501061,KAMN,2015-02-22T06:54:00Z,43.32,-84.68,-5.0,-6.1,0,0,,7.0,30.109253,,,TRUE,TRUE,,,,,,,BKN,1000,BKN,1500,OVC,3500,,,MVFR,,,,,,,,,,,,METAR,230.0
KAVP 220654Z 00000KT 3SM -SN BR BKN019 OVC026 M04/M07 A3008 RMK AO2 SLP199 P0000 T10441067 $,KAVP,2015-02-22T06:54:00Z,41.33,-75.72,-4.4,-6.7,0,0,,3.0,30.079725,1019.9,,,TRUE,TRUE,,,,,-SN BR,BKN,1900,OVC,2600,,,,,MVFR,,,,,,0.0050,,,,,,METAR,291.0
KBAX 220654Z AUTO 31004KT 3SM -SN SCT009 BKN020 OVC026 M06/M07 A3010 RMK AO2 T10651074,KBAX,2015-02-22T06:54:00Z,43.78,-82.98,-6.5,-7.4,310,4,,3.0,30.100393,,,TRUE,TRUE,,,,,,-SN,SCT,900,BKN,2000,OVC,2600,,,MVFR,,,,,,,,,,,,METAR,234.0
KBFW 220654Z AUTO 00000KT 10SM CLR M21/M25 A3027 RMK AO2,KBFW,2015-02-22T06:54:00Z,47.25,-91.4,-21.0,-25.0,0,0,,10.0,30.268702,,,TRUE,TRUE,,,,,,,CLR,,,,,,,,VFR,,,,,,,,,,,,METAR,331.0
KCFS 220654Z AUTO 00000KT 2 1/2SM -SN SCT039 OVC095 M05/M07 A3010 RMK AO2 T10531075,KCFS,2015-02-22T06:54:00Z,43.47,-83.45,-5.3,-7.5,0,0,,2.5,30.100393,,,TRUE,TRUE,,,,,,-SN,SCT,3900,OVC,9500,,,,,IFR,,,,,,,,,,,,METAR,214.0
KCQM 220654Z AUTO 30004KT 10SM CLR M25/M28 A3031 RMK AO2,KCQM,2015-02-22T06:54:00Z,47.82,-92.68,-25.0,-28.0,300,4,,10.0,30.31004,,,TRUE,TRUE,,,,,,,CLR,,,,,,,,VFR,,,,,,,,,,,,METAR,404.0
KRQB 220654Z AUTO 00000KT 10SM SCT035 BKN044 OVC075 M09/M10 A3008 RMK AO2 T10891101,KRQB,2015-02-22T06:54:00Z,43.72,-85.5,-8.9,-10.1,0,0,,10.0,30.079725,,,TRUE,TRUE,,,,,,,SCT,3500,BKN,4400,OVC,7500,,,VFR,,,,,,,,,,,,METAR,302.0
KRDG 220654Z 00000KT 1/2SM R36/P6000FT -FZRA BR OVC011 M03/M05 A3012 RMK AO2 SFC VIS 4 UPE23FZRAB23 SLP210 P0000 I1002 T10331050,KRDG,2015-02-22T06:54:00Z,40.37,-75.97,-3.3,-5.0,0,0,,0.5,30.121063,1021.0,,,TRUE,,,,,,-FZRA BR,OVC,1100,,,,,,,LIFR,,,,,,0.0050,,,,,,METAR,109.0
KPZQ 220654Z AUTO 28004KT 10SM OVC100 M12/M14 A3014 RMK AO2 T11201145,KPZQ,2015-02-22T06:54:00Z,45.4,-83.82,-12.0,-14.5,280,4,,10.0,30.138779,,,TRUE,TRUE,,,,,,,OVC,10000,,,,,,,VFR,,,,,,,,,,,,METAR,204.0
KPTW 220654Z AUTO 00000KT 4SM -FZRA BR OVC006 M02/M02 A3014 RMK AO2 CIG 003V008 SLP207 P0002 I1002 T10171017,KPTW,2015-02-22T06:54:00Z,40.23,-75.55,-1.7,-1.7,0,0,,4.0,30.138779,1020.7,,TRUE,TRUE,,,,,,-FZRA BR,OVC,600,,,,,,,IFR,,,,,,0.02,,,,,,METAR,92.0
KPHL 220654Z 22006KT 5SM -RA BR OVC005 01/00 A3015 RMK AO2 SLP209 CIG 004V006 P0003 T00110000,KPHL,2015-02-22T06:54:00Z,39.87,-75.23,1.1,0.0,220,6,,5.0,30.15059,1020.9,,,TRUE,,,,,,-RA BR,OVC,500,,,,,,,IFR,,,,,,0.03,,,,,,METAR,18.0
KOEB 220654Z AUTO 00000KT 7SM OVC019 M04/M07 A3011 RMK AO2 T10421073,KOEB,2015-02-22T06:54:00Z,41.92,-85.03,-4.2,-7.3,0,0,,7.0,30.109253,,,TRUE,TRUE,,,,,,,OVC,1900,,,,,,,MVFR,,,,,,,,,,,,METAR,292.0
PGSN 220654Z 06020G31KT 10SM FEW045 BKN070 26/17 A2992 RMK AO2 PK WND 07033/0616 SLP154 T02560167,PGSN,2015-02-22T06:54:00Z,15.12,145.72,25.6,16.7,60,20,31,10.0,29.920275,1015.4,,,TRUE,,,,,,,FEW,4500,BKN,7000,,,,,VFR,,,,,,,,,,,,METAR,65.0
PHOG 220654Z 05007KT 10SM BKN035 22/17 A3003 RMK AO2 SLP175 T02220167,PHOG,2015-02-22T06:54:00Z,20.9,-156.43,22.2,16.7,50,7,,10.0,30.029528,1017.5,,,TRUE,,,,,,,BKN,3500,,,,,,,VFR,,,,,,,,,,,,METAR,12.0
PHMK 220654Z AUTO 04007KT 10SM CLR 20/16 A3003 RMK AO2 SLP174 T02000161 TSNO $,PHMK,2015-02-22T06:54:00Z,21.15,-157.1,20.0,16.1,40,7,,10.0,30.029528,1017.4,,TRUE,TRUE,TRUE,,TRUE,,,,CLR,,,,,,,,VFR,,,,,,,,,,,,METAR,141.0
KVAY 220654Z AUTO 00000KT 3SM -RA BR FEW007 BKN017 OVC048 01/00 A3015 RMK AO2 SLP209 P0008 T00060000,KVAY,2015-02-22T06:54:00Z,39.93,-74.83,0.6,0.0,0,0,,3.0,30.15059,1020.9,,TRUE,TRUE,,,,,,-RA BR,FEW,700,BKN,1700,OVC,4800,,,MVFR,,,,,,0.08,,,,,,METAR,15.0
KPLN 220654Z AUTO 30005KT 10SM FEW055 M15/M18 A3015 RMK AO2 SLP227 T11501183,KPLN,2015-02-22T06:54:00Z,45.57,-84.8,-15.0,-18.3,300,5,,10.0,30.15059,1022.7,,TRUE,TRUE,,,,,,,FEW,5500,,,,,,,VFR,,,,,,,,,,,,METAR,217.0
KMCD 220654Z AUTO 26005KT 10SM CLR M16/M18 A3013 RMK AO2 T11601184,KMCD,2015-02-22T06:54:00Z,45.85,-84.63,-16.0,-18.4,260,5,,10.0,30.129921,,,TRUE,TRUE,,,,,,,CLR,,,,,,,,VFR,,,,,,,,,,,,METAR,226.0
KFWA 220654Z 19004KT 9SM OVC026 M06/M07 A3015 RMK AO2 SLP221 T10561072 $,KFWA,2015-02-22T06:54:00Z,40.98,-85.18,-5.6,-7.2,190,4,,9.0,30.15059,1022.1,,,TRUE,TRUE,,,,,,OVC,2600,,,,,,,MVFR,,,,,,,,,,,,METAR,248.0
KFIG 220654Z AUTO 00000KT 2 1/2SM BR OVC005 M06/M07 A3003 RMK AO2 SLP195 I1001 T10561067,KFIG,2015-02-22T06:54:00Z,41.05,-78.42,-5.6,-6.7,0,0,,2.5,30.029528,1019.5,,TRUE,TRUE,,,,,,BR,OVC,500,,,,,,,IFR,,,,,,,,,,,,METAR,462.0
CYUY 220654Z 32002KT 2 1/2SM -SN OVC050 M19/M21 A2997 RMK SC8 SLP178,CYUY,2015-02-22T06:54:00Z,48.2,-78.82,-19.0,-21.0,320,2,,2.5,29.970472,1017.8,,,,,,,,,-SN,OVC,5000,,,,,,,IFR,,,,,,,,,,,,SPECI,301.0
KTQE 220654Z AUTO 35017KT 10SM OVC100 M09/M18 A3047 RMK AO2 SLP330 T10941178,KTQE,2015-02-22T06:54:00Z,41.77,-96.18,-9.4,-17.8,350,17,,10.0,30.469488,1033.0,,TRUE,TRUE,,,,,,,OVC,10000,,,,,,,VFR,,,,,,,,,,,,METAR,312.0
KAPN 220654Z AUTO 31005KT 10SM OVC100 M11/M16 A3013 RMK AO2 SLP216 T11111161,KAPN,2015-02-22T06:54:00Z,45.07,-83.57,-11.1,-16.1,310,5,,10.0,30.129921,1021.6,,TRUE,TRUE,,,,,,,OVC,10000,,,,,,,VFR,,,,,,,,,,,,METAR,210.0
KSET 220654Z AUTO 34008KT 9SM OVC024 01/M03 A3025 RMK AO2 SLP246 T00111028 $,KSET,2015-02-22T06:54:00Z,38.93,-90.43,1.1,-2.8,340,8,,9.0,30.250984,1024.6,,TRUE,TRUE,TRUE,,,,,,OVC,2400,,,,,,,MVFR,,,,,,,,,,,,METAR,134.0
KSBY 220654Z AUTO 25005KT 2 1/2SM -RA BR OVC005 03/02 A3018 RMK AO2 SLP222 P0005 T00330017,KSBY,2015-02-22T06:54:00Z,38.33,-75.5,3.3,1.7,250,5,,2.5,30.180119,1022.2,,TRUE,TRUE,,,,,,-RA BR,OVC,500,,,,,,,IFR,,,,,,0.05,,,,,,METAR,19.0
PAKN 220654Z 15007KT 10SM BKN055 BKN110 05/03 A2968 RMK AO2 SLP049 T00500028,PAKN,2015-02-22T06:54:00Z,58.68,-156.65,5.0,2.8,150,7,,10.0,29.681103,1004.9,,,TRUE,,,,,,,BKN,5500,BKN,11000,,,,,VFR,,,,,,,,,,,,METAR,17.0
PAHN 220654Z AUTO 08012G19KT 10SM -RA OVC020 04/01 A3040 RMK AO2 PK WND 08026/0607 RAE0556B22 SLP296 P0000 T00440011 TSNO,PAHN,2015-02-22T06:54:00Z,59.25,-135.52,4.4,1.1,80,12,19,10.0,30.398623,1029.6,,TRUE,TRUE,,,TRUE,,,-RA,OVC,2000,,,,,,,MVFR,,,,,,0.0050,,,,,,METAR,5.0
KSBN 220654Z 27005KT 8SM OVC019 M03/M06 A3015 RMK AO2 SLP223 T10331061,KSBN,2015-02-22T06:54:00Z,41.7,-86.32,-3.3,-6.1,270,5,,8.0,30.15059,1022.3,,,TRUE,,,,,,,OVC,1900,,,,,,,MVFR,,,,,,,,,,,,METAR,237.0
KRST 220654Z AUTO 30012KT 10SM CLR M18/M22 A3032 RMK AO2 SLP298 T11781222,KRST,2015-02-22T06:54:00Z,43.9,-92.5,-17.8,-22.2,300,12,,10.0,30.318897,1029.8,,TRUE,TRUE,,,,,,,CLR,,,,,,,,VFR,,,,,,,,,,,,METAR,403.0
KROC 220654Z 29006KT 10SM OVC013 M06/M09 A3011 RMK AO2 SLP208 T10561089,KROC,2015-02-22T06:54:00Z,43.12,-77.68,-5.6,-8.9,290,6,,10.0,30.109253,1020.8,,,TRUE,,,,,,,OVC,1300,,,,,,,MVFR,,,,,,,,,,,,METAR,178.0
KROA 220654Z 00000KT 4SM BR OVC003 M01/M02 A3012 RMK AO2 SLP212 P0000 T10061017 $,KROA,2015-02-22T06:54:00Z,37.32,-79.97,-0.6,-1.7,0,0,,4.0,30.121063,1021.2,,,TRUE,TRUE,,,,,BR,OVC,300,,,,,,,LIFR,,,,,,0.0050,,,,,,METAR,362.0
KRIC 220654Z 22003KT 2SM -RA BR OVC003 01/00 A3016 RMK AO2 SLP221 P0010 T00110000,KRIC,2015-02-22T06:54:00Z,37.52,-77.32,1.1,0.0,220,3,,2.0,30.159449,1022.1,,,TRUE,,,,,,-RA BR,OVC,300,,,,,,,LIFR,,,,,,0.1,,,,,,METAR,50.0
KRFD 220654Z 35009KT 8SM OVC041 M06/M12 A3024 RMK AO2 SLP250 T10561122,KRFD,2015-02-22T06:54:00Z,42.2,-89.1,-5.6,-12.2,350,9,,8.0,30.239174,1025.0,,,TRUE,,,,,,,OVC,4100,,,,,,,VFR,,,,,,,,,,,,METAR,221.0
KIMT 220654Z AUTO 00000KT 10SM CLR M21/M23 A3015 RMK AO2 SLP239 T12061228,KIMT,2015-02-22T06:54:00Z,45.82,-88.12,-20.6,-22.8,0,0,,10.0,30.15059,1023.9,,TRUE,TRUE,,,,,,,CLR,,,,,,,,VFR,,,,,,,,,,,,METAR,349.0
KRKS 220654Z AUTO 07022G29KT 10SM OVC050 M12/M17 A3011 RMK AO2 PK WND 05031/0607 SLP257 T11221167 410111122,KRKS,2015-02-22T06:54:00Z,41.6,-109.07,-12.2,-16.7,70,22,29,10.0,30.109253,1025.7,,TRUE,TRUE,,,,,,,OVC,5000,,,,,,,VFR,,,,-1.1,-12.2,,,,,,,METAR,2060.0
KDMH 220654Z AUTO 00/00 A3014 RMK AO1 SLP204 P0003 T00000000 $,KDMH,2015-02-22T06:54:00Z,39.28,-76.62,0.0,0.0,,,,,30.138779,1020.4,,TRUE,TRUE,TRUE,,,,,,,,,,,,,,,,,,,,0.03,,,,,,METAR,5.0
KCRW 220654Z 00000KT 1SM -RA BR BKN001 OVC015 02/01 A3008 RMK AO2 SLP191 P0002 T00170011 RVRNO,KCRW,2015-02-22T06:54:00Z,38.38,-81.58,1.7,1.1,0,0,,1.0,30.079725,1019.1,,,TRUE,,,,,,-RA BR,BKN,100,OVC,1500,,,,,LIFR,,,,,,0.02,,,,,,METAR,309.0
KRSP 220654Z AUTO 5SM UP BR BKN050 OVC090 00/M01 RMK AO2 UPB42FZRAE10 SLPNO P0000 T00001011 $ ,KRSP,2015-02-22T06:54:00Z,39.65,-77.47,0.0,-1.1,,,,5.0,,,,TRUE,TRUE,TRUE,,,,,BR UP,BKN,5000,OVC,9000,,,,,MVFR,,,,,,0.0050,,,,,,METAR,561.0
PAOR 220653Z 26003KT 10SM FEW160 SCT190 OVC220 M08/M10 A2991 RMK AO2 SLP172 T10831100,PAOR,2015-02-22T06:53:00Z,62.97,-141.93,-8.3,-10.0,260,3,,10.0,29.911417,1017.2,,,TRUE,,,,,,,FEW,16000,SCT,19000,OVC,22000,,,VFR,,,,,,,,,,,,METAR,523.0
PANT 220653Z AUTO 00000KT 10SM CLR 02/02 A3050 RMK AO2 SLP329 T00220017 TSNO,PANT,2015-02-22T06:53:00Z,55.03,-131.57,2.2,1.7,0,0,,10.0,30.499016,1032.9,,TRUE,TRUE,,,TRUE,,,,CLR,,,,,,,,VFR,,,,,,,,,,,,METAR,36.0
PANN 220653Z AUTO VRB04KT 10SM UP OVC060 M02/M07 A2980 RMK AO2 UPB33 SLP100 P0000 T10171067 TSNO $,PANN,2015-02-22T06:53:00Z,64.55,-149.08,-1.7,-6.7,0,4,,10.0,29.799213,1010.0,,TRUE,TRUE,TRUE,,TRUE,,,UP,OVC,6000,,,,,,,VFR,,,,,,0.0050,,,,,,METAR,110.0
PANC 220653Z 00000KT 3SM -RA BR SCT004 OVC035 02/01 A2994 RMK AO2 SLP142 P0003 T00220011,PANC,2015-02-22T06:53:00Z,61.17,-150.02,2.2,1.1,0,0,,3.0,29.940945,1014.2,,,TRUE,,,,,,-RA BR,SCT,400,OVC,3500,,,,,MVFR,,,,,,0.03,,,,,,METAR,38.0
KMPO 220653Z AUTO 28008KT 2SM -SN BR OVC034 M04/M06 A3001 RMK AO2 SLP196 P0001 T10441061,KMPO,2015-02-22T06:53:00Z,41.13,-75.38,-4.4,-6.1,280,8,,2.0,30.008858,1019.6,,TRUE,TRUE,,,,,,-SN BR,OVC,3400,,,,,,,IFR,,,,,,0.01,,,,,,METAR,577.0
KMRB 220653Z AUTO 02005KT 6SM HZ OVC049 M02/M04 A3008 RMK AO2 SLP193 T10171044 TSNO,KMRB,2015-02-22T06:53:00Z,39.4,-77.98,-1.7,-4.4,20,5,,6.0,30.079725,1019.3,,TRUE,TRUE,,,TRUE,,,HZ,OVC,4900,,,,,,,VFR,,,,,,,,,,,,METAR,164.0
KMRT 220653Z AUTO 33003KT 1 3/4SM OVC002 M09/M10 A3013 RMK AO2 T10901105,KMRT,2015-02-22T06:53:00Z,40.22,-83.35,-9.0,-10.5,330,3,,1.75,30.129921,,,TRUE,TRUE,,,,,,,OVC,200,,,,,,,LIFR,,,,,,,,,,,,METAR,312.0
KMSL 220653Z AUTO 02005KT 10SM OVC009 06/03 A3010 RMK AO2 CIG 008V012 SLP191 P0004 T00560033 $,KMSL,2015-02-22T06:53:00Z,34.75,-87.6,5.6,3.3,20,5,,10.0,30.100393,1019.1,,TRUE,TRUE,TRUE,,,,,,OVC,900,,,,,,,IFR,,,,,,0.04,,,,,,METAR,164.0
KMSS 220653Z AUTO 00000KT 8SM OVC016 M09/M11 A3010 RMK AO2 SLP202 T10941106,KMSS,2015-02-22T06:53:00Z,44.93,-74.85,-9.4,-10.6,0,0,,8.0,30.100393,1020.2,,TRUE,TRUE,,,,,,,OVC,1600,,,,,,,MVFR,,,,,,,,,,,,METAR,66.0
KMVY 220653Z AUTO 22011G20KT 2 1/2SM +RA BR FEW007 BKN028 OVC038 06/04 A3013 RMK AO2 PK WND 18027/0604 WSHFT 0609 SLP203 P0030 T00560044,KMVY,2015-02-22T06:53:00Z,41.4,-70.62,5.6,4.4,220,11,20,2.5,30.129921,1020.3,,TRUE,TRUE,,,,,,+RA BR,FEW,700,BKN,2800,OVC,3800,,,IFR,,,,,,0.3,,,,,,METAR,16.0
KMWL 220653Z AUTO 07006KT 10SM CLR 07/03 A3000 RMK AO2 SLP156 T00720028,KMWL,2015-02-22T06:53:00Z,32.78,-98.07,7.2,2.8,70,6,,10.0,30.0,1015.6,,TRUE,TRUE,,,,,,,CLR,,,,,,,,VFR,,,,,,,,,,,,METAR,284.0
KMWM 220653Z AUTO 32015KT 10SM CLR M17/M21 A3041 RMK AO2,KMWM,2015-02-22T06:53:00Z,43.9,-95.1,-17.0,-21.0,320,15,,10.0,30.410433,,,TRUE,TRUE,,,,,,,CLR,,,,,,,,VFR,,,,,,,,,,,,METAR,430.0
KODO 220653Z AUTO 13011KT 10SM CLR 11/04 A2992 RMK AO2 SLP107 T01060044,KODO,2015-02-22T06:53:00Z,31.92,-102.4,10.6,4.4,130,11,,10.0,29.920275,1010.7,,TRUE,TRUE,,,,,,,CLR,,,,,,,,VFR,,,,,,,,,,,,METAR,902.0
KOGB 220653Z AUTO 20005KT 10SM CLR 11/08 A3017 RMK AO2 SLP216 T01110078,KOGB,2015-02-22T06:53:00Z,33.47,-80.85,11.1,7.8,200,5,,10.0,30.171259,1021.6,,TRUE,TRUE,,,,,,,CLR,,,,,,,,VFR,,,,,,,,,,,,METAR,59.0
KOMK 220653Z AUTO 28009KT 10SM CLR 02/M08 A3048 RMK AO2 SLP332 T00171078,KOMK,2015-02-22T06:53:00Z,48.47,-119.52,1.7,-7.8,280,9,,10.0,30.481298,1033.2,,TRUE,TRUE,,,,,,,CLR,,,,,,,,VFR,,,,,,,,,,,,METAR,395.0
KOSC 220653Z AUTO 34005KT 7SM OVC090 M07/M10 A3011 RMK AO2 T10751100,KOSC,2015-02-22T06:53:00Z,44.45,-83.4,-7.5,-10.0,340,5,,7.0,30.109253,,,TRUE,TRUE,,,,,,,OVC,9000,,,,,,,VFR,,,,,,,,,,,,METAR,193.0
KOSU 220653Z AUTO 29004KT 4SM BR CLR M09/M09 A3013 RMK AO2 SLP216 I1000 T10891094,KOSU,2015-02-22T06:53:00Z,40.08,-83.08,-8.9,-9.4,290,4,,4.0,30.129921,1021.6,,TRUE,TRUE,,,,,,BR,CLR,,,,,,,,MVFR,,,,,,,,,,,,METAR,280.0
KOVL 220653Z AUTO 32010KT 10SM CLR M19/M22 A3045 RMK AO2,KOVL,2015-02-22T06:53:00Z,44.78,-95.03,-19.0,-22.0,320,10,,10.0,30.448818,,,TRUE,TRUE,,,,,,,CLR,,,,,,,,VFR,,,,,,,,,,,,METAR,328.0
KOWD 220653Z AUTO 00000KT 5SM -RA BR OVC047 01/01 A3011 RMK AO2 UPB39E45 SLP197 P0000 T00110006,KOWD,2015-02-22T06:53:00Z,42.18,-71.17,1.1,0.6,0,0,,5.0,30.109253,1019.7,,TRUE,TRUE,,,,,,-RA BR,OVC,4700,,,,,,,MVFR,,,,,,0.0050,,,,,,METAR,19.0
KFFT 220653Z AUTO 35008KT 10SM OVC008 00/M02 A3013 RMK AO2 SLP209 T00001022,KFFT,2015-02-22T06:53:00Z,38.18,-84.9,0.0,-2.2,350,8,,10.0,30.129921,1020.9,,TRUE,TRUE,,,,,,,OVC,800,,,,,,,IFR,,,,,,,,,,,,METAR,236.0
KFHR 220653Z AUTO 00000KT 10SM CLR 05/M02 A3046 RMK AO2 SLP314 T00501022,KFHR,2015-02-22T06:53:00Z,48.52,-123.03,5.0,-2.2,0,0,,10.0,30.46063,1031.4,,TRUE,TRUE,,,,,,,CLR,,,,,,,,VFR,,,,,,,,,,,,METAR,32.0
KFLO 220653Z AUTO 18004KT 10SM CLR 10/07 A3018 RMK AO2 SLP216 T01000072,KFLO,2015-02-22T06:53:00Z,34.18,-79.73,10.0,7.2,180,4,,10.0,30.180119,1021.6,,TRUE,TRUE,,,,,,,CLR,,,,,,,,VFR,,,,,,,,,,,,METAR,44.0
KFMN 220653Z AUTO 05008KT 10SM OVC060 04/M04 A2995 RMK AO2 SLP136 T00391044 400891028,KFMN,2015-02-22T06:53:00Z,36.75,-108.23,3.9,-4.4,50,8,,10.0,29.949802,1013.6,,TRUE,TRUE,,,,,,,OVC,6000,,,,,,,VFR,,,,8.9,-2.8,,,,,,,METAR,1685.0
KFNT 220653Z AUTO 25004KT 5SM HZ OVC036 M04/M08 A3010 RMK AO2 SLP206 T10441083 $,KFNT,2015-02-22T06:53:00Z,42.97,-83.75,-4.4,-8.3,250,4,,5.0,30.100393,1020.6,,TRUE,TRUE,TRUE,,,,,HZ,OVC,3600,,,,,,,MVFR,,,,,,,,,,,,METAR,233.0
KFOK 220653Z 00000KT 3SM -RA BR BKN011 BKN017 OVC041 01/00 A3017 RMK AO2 SLP217 P0005 T00060000,KFOK,2015-02-22T06:53:00Z,40.85,-72.62,0.6,0.0,0,0,,3.0,30.171259,1021.7,,,TRUE,,,,,,-RA BR,BKN,1100,BKN,1700,OVC,4100,,,MVFR,,,,,,0.05,,,,,,METAR,33.0
KFOZ 220653Z AUTO 32003KT 10SM CLR M26/M29 A3036 RMK AO2,KFOZ,2015-02-22T06:53:00Z,47.77,-93.65,-26.0,-29.0,320,3,,10.0,30.360237,,,TRUE,TRUE,,,,,,,CLR,,,,,,,,VFR,,,,,,,,,,,,METAR,411.0
KFRG 220653Z AUTO 00000KT 5SM UP BR BKN025 OVC037 01/M01 A3016 RMK AO2 RAE23UPB23 SLP212 P0004 T00061006,KFRG,2015-02-22T06:53:00Z,40.73,-73.42,0.6,-0.6,0,0,,5.0,30.159449,1021.2,,TRUE,TRUE,,,,,,BR UP,BKN,2500,OVC,3700,,,,,MVFR,,,,,,0.04,,,,,,METAR,21.0
KGRI 220653Z AUTO 01015KT 10SM SCT060 BKN075 OVC100 M08/M13 A3044 RMK AO2 SLP341 T10831133,KGRI,2015-02-22T06:53:00Z,40.97,-98.32,-8.3,-13.3,10,15,,10.0,30.43996,1034.1,,TRUE,TRUE,,,,,,,SCT,6000,BKN,7500,OVC,10000,,,VFR,,,,,,,,,,,,METAR,561.0
KADC 220653Z AUTO 31006KT 10SM CLR M25/M29 A3041 RMK AO2,KADC,2015-02-22T06:53:00Z,46.45,-95.22,-25.0,-29.0,310,6,,10.0,30.410433,,,TRUE,TRUE,,,,,,,CLR,,,,,,,,VFR,,,,,,,,,,,,METAR,418.0
KMTO 220653Z AUTO 30006KT 2 1/2SM BR FEW019 M06/M07 A3020 RMK AO2 SLP237 I1000 T10611072 $,KMTO,2015-02-22T06:53:00Z,39.47,-88.27,-6.1,-7.2,300,6,,2.5,30.200787,1023.7,,TRUE,TRUE,TRUE,,,,,BR,FEW,1900,,,,,,,IFR,,,,,,,,,,,,METAR,214.0
KMIC 220653Z AUTO 31011KT 10SM CLR M18/M24 A3040 RMK AO2 SLP317 T11831244 TSNO,KMIC,2015-02-22T06:53:00Z,45.07,-93.35,-18.3,-24.4,310,11,,10.0,30.398623,1031.7,,TRUE,TRUE,,,TRUE,,,,CLR,,,,,,,,VFR,,,,,,,,,,,,METAR,265.0
KLBF 220653Z AUTO 36010KT 5SM -SN OVC032 M08/M12 A3040 RMK AO2 SLP328 P0000 T10831117 $,KLBF,2015-02-22T06:53:00Z,41.12,-100.67,-8.3,-11.7,360,10,,5.0,30.398623,1032.8,,TRUE,TRUE,TRUE,,,,,-SN,OVC,3200,,,,,,,MVFR,,,,,,0.0050,,,,,,METAR,847.0
KIWI 220653Z AUTO VRB06KT 5SM -SN BR BKN009 BKN040 OVC050 01/M01 A3012 RMK AO2 SLP200 P0000 T00061006,KIWI,2015-02-22T06:53:00Z,43.97,-69.72,0.6,-0.6,0,6,,5.0,30.121063,1020.0,,TRUE,TRUE,,,,,,-SN BR,BKN,900,BKN,4000,OVC,5000,,,IFR,,,,,,0.0050,,,,,,METAR,20.0
KGFK 220653Z AUTO 34012KT 10SM FEW009 M27/M31 A3060 RMK AO2 SLP393 T12671311 TSNO,KGFK,2015-02-22T06:53:00Z,47.95,-97.18,-26.7,-31.1,340,12,,10.0,30.59941,1039.3,,TRUE,TRUE,,,TRUE,,,,FEW,900,,,,,,,VFR,,,,,,,,,,,,METAR,258.0
KFNB 220653Z AUTO 01016G23KT 10SM CLR M06/M14 A3041 RMK AO2 SLP308 T10611144,KFNB,2015-02-22T06:53:00Z,40.07,-95.58,-6.1,-14.4,10,16,23,10.0,30.410433,1030.8,,TRUE,TRUE,,,,,,,CLR,,,,,,,,VFR,,,,,,,,,,,,METAR,300.0
KTCS 220653Z AUTO 00000KT 10SM CLR 14/M02 A2988 RMK AO2 SLP059 T01391022 402220072 TSNO,KTCS,2015-02-22T06:53:00Z,33.23,-107.27,13.9,-2.2,0,0,,10.0,29.878937,1005.9,,TRUE,TRUE,,,TRUE,,,,CLR,,,,,,,,VFR,,,,22.2,7.2,,,,,,,METAR,1469.0
TJNR 220653Z AUTO 07006KT 10SM CLR 25/21 A3008 RMK AO2 SLP187 T02500211 $,TJNR,2015-02-22T06:53:00Z,18.25,-65.63,25.0,21.1,70,6,,10.0,30.079725,1018.7,,TRUE,TRUE,TRUE,,,,,,CLR,,,,,,,,VFR,,,,,,,,,,,,METAR,12.0
KMWT 220653Z AUTO 00000KT 10SM CLR 01/00 A3011 RMK AO2 SLP204 T00110000,KMWT,2015-02-22T06:53:00Z,34.55,-93.58,1.1,0.0,0,0,,10.0,30.109253,1020.4,,TRUE,TRUE,,,,,,,CLR,,,,,,,,VFR,,,,,,,,,,,,METAR,214.0
KNIP 220653Z 17007KT 10SM BKN180 OVC240 16/11 A3019 RMK AO2 SLP220 T01610106,KNIP,2015-02-22T06:53:00Z,30.22,-81.67,16.1,10.6,170,7,,10.0,30.188976,1022.0,,,TRUE,,,,,,,BKN,18000,OVC,24000,,,,,VFR,,,,,,,,,,,,METAR,7.0
KOQT 220653Z AUTO 20003KT OVC012 03/02 A3010 RMK AO2 RAB40E50 SLP205 P0000 T00280022 $,KOQT,2015-02-22T06:53:00Z,36.02,-84.23,2.8,2.2,200,3,,,30.100393,1020.5,,TRUE,TRUE,TRUE,,,,,,OVC,1200,,,,,,,,,,,,,0.0050,,,,,,METAR,277.0
KNQX 220653Z AUTO 11013KT 10SM CLR 21/18 A3012 RMK AO2 SLP198 T02110178 $,KNQX,2015-02-22T06:53:00Z,24.57,-81.67,21.1,17.8,110,13,,10.0,30.121063,1019.8,,TRUE,TRUE,TRUE,,,,,,CLR,,,,,,,,VFR,,,,,,,,,,,,METAR,2.0
KCTY 220653Z AUTO 00000KT 09/07 A3018 RMK AO1 SLP218 T00940072,KCTY,2015-02-22T06:53:00Z,29.63,-83.1,9.4,7.2,0,0,,,30.180119,1021.8,,TRUE,TRUE,,,,,,,,,,,,,,,,,,,,,,,,,,,METAR,13.0
KGWO 220653Z AUTO 02012KT 10SM BKN024 BKN055 OVC075 05/04 A3009 RMK AO2 RAE51 SLP188 P0000 T00500039,KGWO,2015-02-22T06:53:00Z,33.5,-90.08,5.0,3.9,20,12,,10.0,30.088583,1018.8,,TRUE,TRUE,,,,,,,BKN,2400,BKN,5500,OVC,7500,,,MVFR,,,,,,0.0050,,,,,,METAR,44.0
KGUP 220653Z AUTO 00000KT 10SM CLR M01/M11 A2994 RMK AO2 SLP095 T10061106 401501044,KGUP,2015-02-22T06:53:00Z,35.52,-108.8,-0.6,-10.6,0,0,,10.0,29.940945,1009.5,,TRUE,TRUE,,,,,,,CLR,,,,,,,,VFR,,,,15.0,-4.4,,,,,,,METAR,1971.0
KGOK 220653Z AUTO 09008KT 10SM SCT042 BKN080 OVC120 07/02 A3015 RMK AO2 SLP213 T00670022,KGOK,2015-02-22T06:53:00Z,35.85,-97.4,6.7,2.2,90,8,,10.0,30.15059,1021.3,,TRUE,TRUE,,,,,,,SCT,4200,BKN,8000,OVC,12000,,,VFR,,,,,,,,,,,,METAR,324.0
KGNV 220653Z AUTO 00000KT 10SM CLR 10/08 A3019 RMK AO2 SLP222 T01000083,KGNV,2015-02-22T06:53:00Z,29.7,-82.28,10.0,8.3,0,0,,10.0,30.188976,1022.2,,TRUE,TRUE,,,,,,,CLR,,,,,,,,VFR,,,,,,,,,,,,METAR,45.0
KGLH 220653Z AUTO 01011KT 10SM BKN070 OVC080 04/01 A3012 RMK AO2 SLP208 T00390011,KGLH,2015-02-22T06:53:00Z,33.5,-90.98,3.9,1.1,10,11,,10.0,30.121063,1020.8,,TRUE,TRUE,,,,,,,BKN,7000,OVC,8000,,,,,VFR,,,,,,,,,,,,METAR,45.0
KGKY 220653Z AUTO 04008KT 10SM SCT017 10/04 A3002 RMK AO2 SLP162 T01000044 $,KGKY,2015-02-22T06:53:00Z,32.67,-97.1,10.0,4.4,40,8,,10.0,30.02067,1016.2,,TRUE,TRUE,TRUE,,,,,,SCT,1700,,,,,,,VFR,,,,,,,,,,,,METAR,192.0
KGKJ 220653Z AUTO 00000KT 8SM OVC013 M07/M09 A3005 RMK AO2 SLP196 T10671094 TSNO $,KGKJ,2015-02-22T06:53:00Z,41.63,-80.22,-6.7,-9.4,0,0,,8.0,30.050198,1019.6,,TRUE,TRUE,TRUE,,TRUE,,,,OVC,1300,,,,,,,MVFR,,,,,,,,,,,,METAR,428.0
KGHW 220653Z AUTO 32009KT 10SM CLR M22/M26 A3043 RMK AO2,KGHW,2015-02-22T06:53:00Z,45.63,-95.32,-22.0,-26.0,320,9,,10.0,30.431103,,,TRUE,TRUE,,,,,,,CLR,,,,,,,,VFR,,,,,,,,,,,,METAR,425.0
KGGG 220653Z AUTO 06008KT 10SM OVC034 09/04 A3005 RMK AO2 SLP175 T00890044,KGGG,2015-02-22T06:53:00Z,32.38,-94.72,8.9,4.4,60,8,,10.0,30.050198,1017.5,,TRUE,TRUE,,,,,,,OVC,3400,,,,,,,VFR,,,,,,,,,,,,METAR,107.0
KGEG 220653Z 06003KT 10SM CLR M01/M12 A3045 RMK AO2 SLP329 T10061122,KGEG,2015-02-22T06:53:00Z,47.62,-117.53,-0.6,-12.2,60,3,,10.0,30.448818,1032.9,,,TRUE,,,,,,,CLR,,,,,,,,VFR,,,,,,,,,,,,METAR,735.0
KGDB 220653Z AUTO 31007KT 10SM CLR M18/M21 A3049 RMK AO2 T11831214,KGDB,2015-02-22T06:53:00Z,44.75,-95.55,-18.3,-21.4,310,7,,10.0,30.490158,,,TRUE,TRUE,,,,,,,CLR,,,,,,,,VFR,,,,,,,,,,,,METAR,319.0
KFYV 220653Z AUTO 35004KT 7SM CLR 01/00 A3020 RMK AO2 SLP233 T00060000,KFYV,2015-02-22T06:53:00Z,36.02,-94.17,0.6,0.0,350,4,,7.0,30.200787,1023.3,,TRUE,TRUE,,,,,,,CLR,,,,,,,,VFR,,,,,,,,,,,,METAR,379.0
KFWN 220653Z AUTO 00000KT 1SM -SN BR VV015 M04/M06 A3012 RMK AO2 P0001 T10441061 $,KFWN,2015-02-22T06:53:00Z,41.2,-74.63,-4.4,-6.1,0,0,,1.0,30.121063,,,TRUE,TRUE,TRUE,,,,,-SN BR,OVX,0,,,,,,,LIFR,,,,,,0.01,,,,,1500,METAR,133.0
KFVE 220653Z AUTO 00000KT 2 1/2SM -SN BR OVC034 M09/M11 A3003 RMK AO2 SNE13B30 SLP189 P0000 T10941111,KFVE,2015-02-22T06:53:00Z,47.28,-68.3,-9.4,-11.1,0,0,,2.5,30.029528,1018.9,,TRUE,TRUE,,,,,,-SN BR,OVC,3400,,,,,,,IFR,,,,,,0.0050,,,,,,METAR,301.0
KHAO 220653Z AUTO 00000KT 3SM BR CLR M09/M10 A3018 RMK AO2 SLP229 I1000 T10891100,KHAO,2015-02-22T06:53:00Z,39.37,-84.52,-8.9,-10.0,0,0,,3.0,30.180119,1022.9,,TRUE,TRUE,,,,,,BR,CLR,,,,,,,,MVFR,,,,,,,,,,,,METAR,188.0
KGZH 220653Z AUTO 16007KT 10SM BKN007 OVC017 17/16 A3007 RMK AO2 SLP182 T01670156,KGZH,2015-02-22T06:53:00Z,31.42,-87.05,16.7,15.6,160,7,,10.0,30.070866,1018.2,,TRUE,TRUE,,,,,,,BKN,700,OVC,1700,,,,,IFR,,,,,,,,,,,,METAR,78.0
KHBR 220653Z AUTO 09004KT BKN120 05/01 A3009 RMK AO2 SLP191 T00500006,KHBR,2015-02-22T06:53:00Z,34.98,-99.05,5.0,0.6,90,4,,,30.088583,1019.1,,TRUE,TRUE,,,,,,,BKN,12000,,,,,,,,,,,,,,,,,,,METAR,473.0
KHFD 220653Z AUTO 00000KT 2 1/2SM -SN BR OVC020 M01/M02 A3015 RMK AO2 SLP208 P0001 T10111017,KHFD,2015-02-22T06:53:00Z,41.73,-72.65,-1.1,-1.7,0,0,,2.5,30.15059,1020.8,,TRUE,TRUE,,,,,,-SN BR,OVC,2000,,,,,,,IFR,,,,,,0.01,,,,,,METAR,4.0
KHGR 220653Z 33003KT 5SM BR OVC041 M03/M05 A3007 RMK AO2 SLP204 T10281050,KHGR,2015-02-22T06:53:00Z,39.7,-77.73,-2.8,-5.0,330,3,,5.0,30.070866,1020.4,,,TRUE,,,,,,BR,OVC,4100,,,,,,,MVFR,,,,,,,,,,,,METAR,224.0
KHUF 220653Z 29003KT 9SM OVC019 M03/M06 A3020 RMK AO2 SLP234 T10281056,KHUF,2015-02-22T06:53:00Z,39.45,-87.3,-2.8,-5.6,290,3,,9.0,30.200787,1023.4,,,TRUE,,,,,,,OVC,1900,,,,,,,MVFR,,,,,,,,,,,,METAR,179.0
KHSV 220653Z AUTO 02005KT 4SM BR OVC006 08/06 A3008 RMK AO2 DZE0557 CIG 005V010 SLP184 P0000 T00780061 $,KHSV,2015-02-22T06:53:00Z,34.65,-86.78,7.8,6.1,20,5,,4.0,30.079725,1018.4,,TRUE,TRUE,TRUE,,,,,BR,OVC,600,,,,,,,IFR,,,,,,0.0050,,,,,,METAR,191.0
KHRO 220653Z AUTO 00000KT 1 1/4SM BR BKN011 M01/M01 A3019 RMK AO2 SLP233 T10061006,KHRO,2015-02-22T06:53:00Z,36.27,-93.15,-0.6,-0.6,0,0,,1.25,30.188976,1023.3,,TRUE,TRUE,,,,,,BR,BKN,1100,,,,,,,IFR,,,,,,,,,,,,METAR,417.0
KHRI 220653Z AUTO 06011KT 10SM CLR 03/M08 A3041 RMK AO2 SLP300 T00331083,KHRI,2015-02-22T06:53:00Z,45.83,-119.27,3.3,-8.3,60,11,,10.0,30.410433,1030.0,,TRUE,TRUE,,,,,,,CLR,,,,,,,,VFR,,,,,,,,,,,,METAR,195.0
KHQM 220653Z AUTO 07004KT 9SM CLR 02/01 A3041 RMK AO2 SLP299 T00220006,KHQM,2015-02-22T06:53:00Z,46.97,-123.93,2.2,0.6,70,4,,9.0,30.410433,1029.9,,TRUE,TRUE,,,,,,,CLR,,,,,,,,VFR,,,,,,,,,,,,METAR,7.0
KHOT 220653Z AUTO 08009KT 10SM BKN011 03/01 A3015 RMK AO2 SLP210 T00280011,KHOT,2015-02-22T06:53:00Z,34.48,-93.1,2.8,1.1,80,9,,10.0,30.15059,1021.0,,TRUE,TRUE,,,,,,,BKN,1100,,,,,,,MVFR,,,,,,,,,,,,METAR,162.0
KHLG 220653Z AUTO 26003KT 1/4SM R03/1800V2400FT FG VV002 01/00 A3005 RMK AO2 SLP190 T00060000,KHLG,2015-02-22T06:53:00Z,40.17,-80.65,0.6,0.0,260,3,,0.25,30.050198,1019.0,,TRUE,TRUE,,,,,,FG,OVX,0,,,,,,,LIFR,,,,,,,,,,,200,METAR,372.0
KHLC 220653Z AUTO 04011KT 1 1/2SM -SN BR FEW010 SCT016 OVC027 M06/M07 A3038 RMK AO2 SLP305 P0000 T10561072,KHLC,2015-02-22T06:53:00Z,39.37,-99.83,-5.6,-7.2,40,11,,1.5,30.380905,1030.5,,TRUE,TRUE,,,,,,-SN BR,FEW,1000,SCT,1600,OVC,2700,,,IFR,,,,,,0.0050,,,,,,METAR,669.0
KHKS 220653Z AUTO 03006G19KT 1 3/4SM +RA BR BKN006 OVC019 08/07 A3004 RMK AO2 SLP167 P0016 T00780072,KHKS,2015-02-22T06:53:00Z,32.33,-90.22,7.8,7.2,30,6,19,1.75,30.041338,1016.7,,TRUE,TRUE,,,,,,+RA BR,BKN,600,OVC,1900,,,,,IFR,,,,,,0.16,,,,,,METAR,108.0
KHKA 220653Z AUTO 02008KT 8SM BKN009 00/M01 A3020 RMK AO2 SLP230 T00001006,KHKA,2015-02-22T06:53:00Z,35.93,-89.83,0.0,-0.6,20,8,,8.0,30.200787,1023.0,,TRUE,TRUE,,,,,,,BKN,900,,,,,,,IFR,,,,,,,,,,,,METAR,78.0
KHIO 220653Z 03007KT 10SM CLR 08/M01 A3037 RMK AO2 SLP285 T00781006,KHIO,2015-02-22T06:53:00Z,45.55,-122.95,7.8,-0.6,30,7,,10.0,30.369095,1028.5,,,TRUE,,,,,,,CLR,,,,,,,,VFR,,,,,,,,,,,,METAR,68.0
KHVN 220653Z AUTO 22004KT 5SM -FZRA BR OVC004 M01/M01 A3015 RMK AO2 SLP208 P0000 I1003 T10061011,KHVN,2015-02-22T06:53:00Z,41.27,-72.87,-0.6,-1.1,220,4,,5.0,30.15059,1020.8,,TRUE,TRUE,,,,,,-FZRA BR,OVC,400,,,,,,,LIFR,,,,,,0.0050,,,,,,METAR,4.0
KILM 220653Z AUTO 17005KT 10SM SCT037 BKN060 OVC100 13/13 A3022 RMK AO2 SLP232 T01330128,KILM,2015-02-22T06:53:00Z,34.27,-77.9,13.3,12.8,170,5,,10.0,30.221457,1023.2,,TRUE,TRUE,,,,,,,SCT,3700,BKN,6000,OVC,10000,,,VFR,,,,,,,,,,,,METAR,9.0
KIKW 220653Z AUTO 33003KT 10SM OVC028 M05/M08 A3011 RMK AO2 T10521080,KIKW,2015-02-22T06:53:00Z,43.67,-84.27,-5.2,-8.0,330,3,,10.0,30.109253,,,TRUE,TRUE,,,,,,,OVC,2800,,,,,,,MVFR,,,,,,,,,,,,METAR,194.0
KJBR 220653Z AUTO 05007KT 8SM OVC006 01/01 A3020 RMK AO2 SLP228 T00060006,KJBR,2015-02-22T06:53:00Z,35.83,-90.65,0.6,0.6,50,7,,8.0,30.200787,1022.8,,TRUE,TRUE,,,,,,,OVC,600,,,,,,,IFR,,,,,,,,,,,,METAR,79.0
KINK 220653Z AUTO 13012KT 10SM FEW120 13/03 A2986 RMK AO2 SLP086 T01330033,KINK,2015-02-22T06:53:00Z,31.78,-103.2,13.3,3.3,130,12,,10.0,29.861221,1008.6,,TRUE,TRUE,,,,,,,FEW,12000,,,,,,,VFR,,,,,,,,,,,,METAR,855.0
KIMS 220653Z AUTO 00000KT 7SM CLR M02/M04 A3019 RMK AO1,KIMS,2015-02-22T06:53:00Z,38.75,-85.47,-2.0,-4.0,0,0,,7.0,30.188976,,,TRUE,TRUE,,,,,,,CLR,,,,,,,,VFR,,,,,,,,,,,,METAR,250.0
K2W6 220653Z AUTO 20003KT 5SM SCT003 OVC007 00/00 A3016 RMK AO1,K2W6,2015-02-22T06:53:00Z,38.32,-76.55,0.0,0.0,200,3,,5.0,30.159449,,,TRUE,TRUE,,,,,,,SCT,300,OVC,700,,,,,IFR,,,,,,,,,,,,METAR,44.0
K9MN 220653Z AUTO 29009KT 10SM CLR M16/M22 A3034 RMK AO1 T11651222,K9MN,2015-02-22T06:53:00Z,44.02,-92.48,-16.5,-22.2,290,9,,10.0,30.339567,,,TRUE,TRUE,,,,,,,CLR,,,,,,,,VFR,,,,,,,,,,,,METAR,355.0
KAAF 220653Z AUTO 17004KT 7SM BKN085 16/14 A3014 RMK AO2 SLP205 T01610139,KAAF,2015-02-22T06:53:00Z,29.73,-85.03,16.1,13.9,170,4,,7.0,30.138779,1020.5,,TRUE,TRUE,,,,,,,BKN,8500,,,,,,,VFR,,,,,,,,,,,,METAR,5.0
KABY 220653Z AUTO 22004KT 10SM OVC060 14/08 A3016 RMK AO2 SLP213 T01390083,KABY,2015-02-22T06:53:00Z,31.53,-84.2,13.9,8.3,220,4,,10.0,30.159449,1021.3,,TRUE,TRUE,,,,,,,OVC,6000,,,,,,,VFR,,,,,,,,,,,,METAR,58.0
KACK 220653Z AUTO 18019KT 5SM -RA BR FEW028 OVC048 04/03 A3014 RMK AO2 SLP207 P0005 T00440033,KACK,2015-02-22T06:53:00Z,41.25,-70.07,4.4,3.3,180,19,,5.0,30.138779,1020.7,,TRUE,TRUE,,,,,,-RA BR,FEW,2800,OVC,4800,,,,,MVFR,,,,,,0.05,,,,,,METAR,16.0
KAIT 220653Z AUTO 30005KT 10SM CLR M21/M26 A3036 RMK AO2,KAIT,2015-02-22T06:53:00Z,46.53,-93.67,-21.0,-26.0,300,5,,10.0,30.360237,,,TRUE,TRUE,,,,,,,CLR,,,,,,,,VFR,,,,,,,,,,,,METAR,367.0
KALW 220653Z AUTO 04010KT 10SM CLR 01/M07 A3041 RMK AO2 SLP305 T00111067,KALW,2015-02-22T06:53:00Z,46.1,-118.28,1.1,-6.7,40,10,,10.0,30.410433,1030.5,,TRUE,TRUE,,,,,,,CLR,,,,,,,,VFR,,,,,,,,,,,,METAR,363.0
KAMA 220653Z AUTO 11014KT 10SM BKN065 BKN120 04/M01 A3004 RMK AO2 SLP162 T00441006,KAMA,2015-02-22T06:53:00Z,35.22,-101.72,4.4,-0.6,110,14,,10.0,30.041338,1016.2,,TRUE,TRUE,,,,,,,BKN,6500,BKN,12000,,,,,VFR,,,,,,,,,,,,METAR,1093.0
KAMG 220653Z AUTO 18004KT 10SM CLR 13/08 A3016 RMK AO2 SLP211 T01280083,KAMG,2015-02-22T06:53:00Z,31.53,-82.5,12.8,8.3,180,4,,10.0,30.159449,1021.1,,TRUE,TRUE,,,,,,,CLR,,,,,,,,VFR,,,,,,,,,,,,METAR,59.0
KBKE 220653Z AUTO 30013KT 10SM CLR M03/M07 A3025 RMK AO2 SLP266 T10281067 TSNO,KBKE,2015-02-22T06:53:00Z,44.85,-117.82,-2.8,-6.7,300,13,,10.0,30.250984,1026.6,,TRUE,TRUE,,,TRUE,,,,CLR,,,,,,,,VFR,,,,,,,,,,,,METAR,1024.0
KBGR 220653Z 30004KT 3/4SM R15/P6000FT -SN BR FEW005 OVC011 M01/M02 A3011 RMK AO2 SFC VIS 1 SLP198 P0003 T10111017,KBGR,2015-02-22T06:53:00Z,44.8,-68.82,-1.1,-1.7,300,4,,0.75,30.109253,1019.8,,,TRUE,,,,,,-SN BR,FEW,500,OVC,1100,,,,,LIFR,,,,,,0.03,,,,,,METAR,57.0
KBGM 220653Z AUTO 21003KT 10SM OVC012 M07/M08 A3003 RMK AO2 SLP196 T10671078,KBGM,2015-02-22T06:53:00Z,42.22,-75.98,-6.7,-7.8,210,3,,10.0,30.029528,1019.6,,TRUE,TRUE,,,,,,,OVC,1200,,,,,,,MVFR,,,,,,,,,,,,METAR,490.0
KBFI 220653Z 00000KT 10SM SCT085 08/02 A3044 RMK AO2 SLP308 T00780022,KBFI,2015-02-22T06:53:00Z,47.55,-122.32,7.8,2.2,0,0,,10.0,30.43996,1030.8,,,TRUE,,,,,,,SCT,8500,,,,,,,VFR,,,,,,,,,,,,METAR,4.0
KBAF 220653Z AUTO 18008KT 10SM OVC060 M01/M03 A3010 RMK AO2 SNE33 SLP198 P0000 T10111033,KBAF,2015-02-22T06:53:00Z,42.17,-72.72,-1.1,-3.3,180,8,,10.0,30.100393,1019.8,,TRUE,TRUE,,,,,,,OVC,6000,,,,,,,VFR,,,,,,0.0050,,,,,,METAR,83.0
KAWM 220653Z AUTO 02011KT 3SM BR OVC004 01/01 A3018 RMK AO2 SLP222 T00060006 $,KAWM,2015-02-22T06:53:00Z,35.13,-90.23,0.6,0.6,20,11,,3.0,30.180119,1022.2,,TRUE,TRUE,TRUE,,,,,BR,OVC,400,,,,,,,LIFR,,,,,,,,,,,,METAR,65.0
KAUG 220653Z AUTO 26003KT 2 1/2SM -SN BR OVC031 M03/M04 A3010 RMK AO2 SLP197 P0001 T10281044,KAUG,2015-02-22T06:53:00Z,44.32,-69.8,-2.8,-4.4,260,3,,2.5,30.100393,1019.7,,TRUE,TRUE,,,,,,-SN BR,OVC,3100,,,,,,,IFR,,,,,,0.01,,,,,,METAR,109.0
KARB 220653Z AUTO 25003KT 5SM BR BKN080 M09/M11 A3012 RMK AO2 SLP215 T10941111,KARB,2015-02-22T06:53:00Z,42.22,-83.73,-9.4,-11.1,250,3,,5.0,30.121063,1021.5,,TRUE,TRUE,,,,,,BR,BKN,8000,,,,,,,MVFR,,,,,,,,,,,,METAR,251.0
KBKL 220653Z AUTO 00000KT 1/4SM FZFG VV002 M14/M16 A3015 RMK AO2 SLP220 T11391156,KBKL,2015-02-22T06:53:00Z,41.53,-81.67,-13.9,-15.6,0,0,,0.25,30.15059,1022.0,,TRUE,TRUE,,,,,,FZFG,OVX,0,,,,,,,LIFR,,,,,,,,,,,200,METAR,184.0
KBLI 220653Z AUTO 03012KT 10SM CLR 08/M06 A3045 RMK AO2 SLP320 T00781056 $,KBLI,2015-02-22T06:53:00Z,48.8,-122.53,7.8,-5.6,30,12,,10.0,30.448818,1032.0,,TRUE,TRUE,TRUE,,,,,,CLR,,,,,,,,VFR,,,,,,,,,,,,METAR,50.0
KBMG 220653Z AUTO 00000KT 4SM BR SCT022 M07/M08 A3017 RMK AO2 SLP224 T10721083 $,KBMG,2015-02-22T06:53:00Z,39.15,-86.62,-7.2,-8.3,0,0,,4.0,30.171259,1022.4,,TRUE,TRUE,TRUE,,,,,BR,SCT,2200,,,,,,,MVFR,,,,,,,,,,,,METAR,257.0
KDFW 220653Z 06011KT 10SM OVC021 10/05 A3003 RMK AO2 SLP167 T01000050,KDFW,2015-02-22T06:53:00Z,32.9,-97.02,10.0,5.0,60,11,,10.0,30.029528,1016.7,,,TRUE,,,,,,,OVC,2100,,,,,,,MVFR,,,,,,,,,,,,METAR,174.0
KDHN 220653Z AUTO 18007KT 10SM OVC049 14/12 A3015 RMK AO2 SLPNO T01440122,KDHN,2015-02-22T06:53:00Z,31.32,-85.45,14.4,12.2,180,7,,10.0,30.15059,,,TRUE,TRUE,,,,,,,OVC,4900,,,,,,,VFR,,,,,,,,,,,,METAR,113.0
KDHT 220653Z AUTO 08007KT 6SM -RA BKN025 OVC032 04/02 A3006 RMK AO2 SLP168 P0000 T00440017,KDHT,2015-02-22T06:53:00Z,36.02,-102.55,4.4,1.7,80,7,,6.0,30.059055,1016.8,,TRUE,TRUE,,,,,,-RA,BKN,2500,OVC,3200,,,,,MVFR,,,,,,0.0050,,,,,,METAR,1217.0
KMLC 220653Z AUTO 03006KT 10SM FEW090 BKN110 06/01 A3015 RMK AO2 SLP208 T00560011,KMLC,2015-02-22T06:53:00Z,34.88,-95.78,5.6,1.1,30,6,,10.0,30.15059,1020.8,,TRUE,TRUE,,,,,,,FEW,9000,BKN,11000,,,,,VFR,,,,,,,,,,,,METAR,232.0
KMLB 220653Z AUTO 11003KT 10SM CLR 16/14 A3020 RMK AO2 SLP226 T01610144,KMLB,2015-02-22T06:53:00Z,28.1,-80.65,16.1,14.4,110,3,,10.0,30.200787,1022.6,,TRUE,TRUE,,,,,,,CLR,,,,,,,,VFR,,,,,,,,,,,,METAR,11.0
KMKO 220653Z AUTO 01007KT 10SM CLR 03/M01 A3021 RMK AO2 SLP230 T00281006,KMKO,2015-02-22T06:53:00Z,35.65,-95.37,2.8,-0.6,10,7,,10.0,30.209646,1023.0,,TRUE,TRUE,,,,,,,CLR,,,,,,,,VFR,,,,,,,,,,,,METAR,185.0
KMKL 220653Z AUTO 01009KT 10SM OVC005 01/M01 A3017 RMK AO2 SLP218 T00111006,KMKL,2015-02-22T06:53:00Z,35.6,-88.92,1.1,-0.6,10,9,,10.0,30.171259,1021.8,,TRUE,TRUE,,,,,,,OVC,500,,,,,,,IFR,,,,,,,,,,,,METAR,128.0
KDLS 220653Z AUTO 09004KT 10SM CLR 05/M04 A3045 RMK AO2 SLP315 T00501044,KDLS,2015-02-22T06:53:00Z,45.62,-121.17,5.0,-4.4,90,4,,10.0,30.448818,1031.5,,TRUE,TRUE,,,,,,,CLR,,,,,,,,VFR,,,,,,,,,,,,METAR,71.0
KDKK 220653Z AUTO 24003KT 9SM BKN007 OVC014 M08/M09 A3011 RMK AO2 SLP208 T10781089,KDKK,2015-02-22T06:53:00Z,42.5,-79.28,-7.8,-8.9,240,3,,9.0,30.109253,1020.8,,TRUE,TRUE,,,,,,,BKN,700,OVC,1400,,,,,IFR,,,,,,,,,,,,METAR,202.0
KDUJ 220653Z AUTO 28003KT 1 1/4SM BR BKN005 OVC010 M03/M04 A3001 RMK AO2 SLP186 I1000 T10331044,KDUJ,2015-02-22T06:53:00Z,41.17,-78.9,-3.3,-4.4,280,3,,1.25,30.008858,1018.6,,TRUE,TRUE,,,,,,BR,BKN,500,OVC,1000,,,,,IFR,,,,,,,,,,,,METAR,554.0
KDTW 220653Z 20004KT 6SM BR OVC085 M08/M10 A3014 RMK AO2 SLP216 T10781100,KDTW,2015-02-22T06:53:00Z,42.23,-83.33,-7.8,-10.0,200,4,,6.0,30.138779,1021.6,,,TRUE,,,,,,BR,OVC,8500,,,,,,,VFR,,,,,,,,,,,,METAR,195.0
KDTS 220653Z AUTO 14006KT 8SM OVC016 18/17 A3009 RMK AO2 RAB15E47 SLP189 P0001 T01780167 TSNO,KDTS,2015-02-22T06:53:00Z,30.4,-86.47,17.8,16.7,140,6,,8.0,30.088583,1018.9,,TRUE,TRUE,,,TRUE,,,,OVC,1600,,,,,,,MVFR,,,,,,0.01,,,,,,METAR,5.0
KDTO 220653Z AUTO 05008KT 10SM OVC026 09/04 A3005 RMK AO2 SLP173 T00890044,KDTO,2015-02-22T06:53:00Z,33.2,-97.2,8.9,4.4,50,8,,10.0,30.050198,1017.3,,TRUE,TRUE,,,,,,,OVC,2600,,,,,,,MVFR,,,,,,,,,,,,METAR,196.0
KDTN 220653Z AUTO 05006KT 10SM OVC038 07/03 A3008 RMK AO2 SLP185 T00670028 $,KDTN,2015-02-22T06:53:00Z,32.55,-93.75,6.7,2.8,50,6,,10.0,30.079725,1018.5,,TRUE,TRUE,TRUE,,,,,,OVC,3800,,,,,,,VFR,,,,,,,,,,,,METAR,53.0
KDMN 220653Z AUTO 27009KT 10SM CLR 12/00 A2992 RMK AO2 SLP080 T01220000 402110050 PWINO,KDMN,2015-02-22T06:53:00Z,32.27,-107.72,12.2,0.0,270,9,,10.0,29.920275,1008.0,,TRUE,TRUE,,,,,TRUE,,CLR,,,,,,,,VFR,,,,21.1,5.0,,,,,,,METAR,1311.0
KDYT 220653Z AUTO 32004KT 10SM CLR M18/M25 A3039 RMK AO2,KDYT,2015-02-22T06:53:00Z,46.72,-92.03,-18.0,-25.0,320,4,,10.0,30.389763,,,TRUE,TRUE,,,,,,,CLR,,,,,,,,VFR,,,,,,,,,,,,METAR,186.0
KDXX 220653Z AUTO 32007KT 10SM CLR M17/M21 A3049 RMK AO2,KDXX,2015-02-22T06:53:00Z,44.98,-96.18,-17.0,-21.0,320,7,,10.0,30.490158,,,TRUE,TRUE,,,,,,,CLR,,,,,,,,VFR,,,,,,,,,,,,METAR,330.0
KDVP 220653Z AUTO 33009KT 10SM CLR M17/M21 A3041 RMK AO2 T11741214,KDVP,2015-02-22T06:53:00Z,43.98,-95.78,-17.4,-21.4,330,9,,10.0,30.410433,,,TRUE,TRUE,,,,,,,CLR,,,,,,,,VFR,,,,,,,,,,,,METAR,495.0
KEPH 220653Z AUTO 05007KT 10SM BKN070 OVC085 03/M07 A3048 RMK AO2 SLP332 T00281072,KEPH,2015-02-22T06:53:00Z,47.3,-119.52,2.8,-7.2,50,7,,10.0,30.481298,1033.2,,TRUE,TRUE,,,,,,,BKN,7000,OVC,8500,,,,,VFR,,,,,,,,,,,,METAR,383.0
KELO 220653Z AUTO 31004KT 10SM CLR M24/M27 A3027 RMK AO2,KELO,2015-02-22T06:53:00Z,47.82,-91.82,-24.0,-27.0,310,4,,10.0,30.268702,,,TRUE,TRUE,,,,,,,CLR,,,,,,,,VFR,,,,,,,,,,,,METAR,443.0
KELN 220653Z AUTO 09005KT 10SM CLR 01/M06 A3046 RMK AO2 SLP326 T00061061,KELN,2015-02-22T06:53:00Z,47.03,-120.53,0.6,-6.1,90,5,,10.0,30.46063,1032.6,,TRUE,TRUE,,,,,,,CLR,,,,,,,,VFR,,,,,,,,,,,,METAR,519.0
KELM 220653Z AUTO 00000KT 9SM OVC017 M06/M08 A3008 RMK AO2 SLP200 T10561078,KELM,2015-02-22T06:53:00Z,42.15,-76.9,-5.6,-7.8,0,0,,9.0,30.079725,1020.0,,TRUE,TRUE,,,,,,,OVC,1700,,,,,,,MVFR,,,,,,,,,,,,METAR,302.0
KELD 220653Z AUTO 03008KT 10SM OVC050 04/02 A3012 RMK AO2 SLP200 T00440017,KELD,2015-02-22T06:53:00Z,33.22,-92.82,4.4,1.7,30,8,,10.0,30.121063,1020.0,,TRUE,TRUE,,,,,,,OVC,5000,,,,,,,VFR,,,,,,,,,,,,METAR,81.0
KECP 220653Z AUTO 14006KT 8SM OVC047 16/15 A3012 RMK AO2 RAB22E32 SLP211 P0000 T01610150 $,KECP,2015-02-22T06:53:00Z,30.35,-85.8,16.1,15.0,140,6,,8.0,30.121063,1021.1,,TRUE,TRUE,TRUE,,,,,,OVC,4700,,,,,,,VFR,,,,,,0.0050,,,,,,METAR,21.0
KEWB 220653Z AUTO 25007KT 4SM RA BR BKN006 BKN011 OVC028 04/04 A3012 RMK AO2 SLP201 P0012 T00440039,KEWB,2015-02-22T06:53:00Z,41.68,-70.95,4.4,3.9,250,7,,4.0,30.121063,1020.1,,TRUE,TRUE,,,,,,RA BR,BKN,600,BKN,1100,OVC,2800,,,IFR,,,,,,0.12,,,,,,METAR,23.0
KEYE 220653Z AUTO 00000KT 6SM BR OVC040 M05/M07 A3017 RMK AO2 SLP228 T10501067,KEYE,2015-02-22T06:53:00Z,39.83,-86.3,-5.0,-6.7,0,0,,6.0,30.171259,1022.8,,TRUE,TRUE,,,,,,BR,OVC,4000,,,,,,,VFR,,,,,,,,,,,,METAR,248.0
KFAY 220653Z AUTO 18004KT 10SM CLR 10/09 A3017 RMK AO2 SLP213 T01000089,KFAY,2015-02-22T06:53:00Z,34.98,-78.88,10.0,8.9,180,4,,10.0,30.171259,1021.3,,TRUE,TRUE,,,,,,,CLR,,,,,,,,VFR,,,,,,,,,,,,METAR,55.0
KFDR 220653Z AUTO 07011KT 10SM CLR 06/01 A3005 RMK AO2 SLP172 T00560011 $,KFDR,2015-02-22T06:53:00Z,34.35,-98.98,5.6,1.1,70,11,,10.0,30.050198,1017.2,,TRUE,TRUE,TRUE,,,,,,CLR,,,,,,,,VFR,,,,,,,,,,,,METAR,386.0
KFDY 220653Z AUTO 18003KT 4SM BR FEW001 OVC034 M13/M16 A3015 RMK AO2 SLP220 T11331156 $,KFDY,2015-02-22T06:53:00Z,41.02,-83.67,-13.3,-15.6,180,3,,4.0,30.15059,1022.0,,TRUE,TRUE,TRUE,,,,,BR,FEW,100,OVC,3400,,,,,MVFR,,,,,,,,,,,,METAR,247.0
KFST 220653Z AUTO 16012KT 10SM BKN120 18/03 A2988 RMK AO2 SLP083 T01780028,KFST,2015-02-22T06:53:00Z,30.92,-102.92,17.8,2.8,160,12,,10.0,29.878937,1008.3,,TRUE,TRUE,,,,,,,BKN,12000,,,,,,,VFR,,,,,,,,,,,,METAR,918.0
KFSM 220653Z AUTO 03005KT 10SM CLR 03/00 A3018 RMK AO2 SLP222 T00280000,KFSM,2015-02-22T06:53:00Z,35.33,-94.37,2.8,0.0,30,5,,10.0,30.180119,1022.2,,TRUE,TRUE,,,,,,,CLR,,,,,,,,VFR,,,,,,,,,,,,METAR,140.0
KBNA 220653Z 35007KT 4SM BR OVC004 01/00 A3014 RMK AO2 SLP209 T00060000 $,KBNA,2015-02-22T06:53:00Z,36.12,-86.68,0.6,0.0,350,7,,4.0,30.138779,1020.9,,,TRUE,TRUE,,,,,BR,OVC,400,,,,,,,LIFR,,,,,,,,,,,,METAR,210.0
KBNO 220653Z AUTO 30005KT 10SM OVC070 M02/M07 A3017 RMK AO2 SLP232 T10171072,KBNO,2015-02-22T06:53:00Z,43.6,-118.95,-1.7,-7.2,300,5,,10.0,30.171259,1023.2,,TRUE,TRUE,,,,,,,OVC,7000,,,,,,,VFR,,,,,,,,,,,,METAR,1264.0
KBPK 220653Z AUTO 34003KT 5SM BR FEW010 01/00 A3020 RMK AO2 SLP231 T00060000 $,KBPK,2015-02-22T06:53:00Z,36.37,-92.47,0.6,0.0,340,3,,5.0,30.200787,1023.1,,TRUE,TRUE,TRUE,,,,,BR,FEW,1000,,,,,,,MVFR,,,,,,,,,,,,METAR,280.0
KBVY 220653Z AUTO 00000KT 2 1/2SM -SN BR SCT005 OVC012 01/M01 A3011 RMK AO2 RAB04E09B18E41SNE18B45 SLP193 P0000 T00061011,KBVY,2015-02-22T06:53:00Z,42.58,-70.92,0.6,-1.1,0,0,,2.5,30.109253,1019.3,,TRUE,TRUE,,,,,,-SN BR,SCT,500,OVC,1200,,,,,IFR,,,,,,0.0050,,,,,,METAR,28.0
KBRL 220653Z AUTO 34009KT 10SM CLR M07/M11 A3029 RMK AO2 SLP267 T10671111,KBRL,2015-02-22T06:53:00Z,40.77,-91.13,-6.7,-11.1,340,9,,10.0,30.28937,1026.7,,TRUE,TRUE,,,,,,,CLR,,,,,,,,VFR,,,,,,,,,,,,METAR,211.0
KBWG 220653Z AUTO 01006KT 10SM OVC006 01/M01 A3016 RMK AO2 SLP214 T00111011,KBWG,2015-02-22T06:53:00Z,36.97,-86.42,1.1,-1.1,10,6,,10.0,30.159449,1021.4,,TRUE,TRUE,,,,,,,OVC,600,,,,,,,IFR,,,,,,,,,,,,METAR,168.0
KCBE 220653Z AUTO 00000KT 7SM SCT034 OVC042 M03/M04 A3012 RMK AO1,KCBE,2015-02-22T06:53:00Z,39.62,-78.77,-3.0,-4.0,0,0,,7.0,30.121063,,,TRUE,TRUE,,,,,,,SCT,3400,OVC,4200,,,,,VFR,,,,,,,,,,,,METAR,236.0
KCDS 220653Z AUTO 09008KT 10SM CLR 07/01 A3007 RMK AO2 SLP180 T00670006,KCDS,2015-02-22T06:53:00Z,34.43,-100.28,6.7,0.6,90,8,,10.0,30.070866,1018.0,,TRUE,TRUE,,,,,,,CLR,,,,,,,,VFR,,,,,,,,,,,,METAR,594.0
KCDW 220653Z AUTO 00000KT 1 1/2SM -SN BR BKN021 OVC035 M03/M04 A3016 RMK AO2 SLP219 P0002 T10281044 TSNO,KCDW,2015-02-22T06:53:00Z,40.88,-74.28,-2.8,-4.4,0,0,,1.5,30.159449,1021.9,,TRUE,TRUE,,,TRUE,,,-SN BR,BKN,2100,OVC,3500,,,,,IFR,,,,,,0.02,,,,,,METAR,64.0
KCEW 220653Z AUTO 17004KT 4SM -RA BR BKN005 OVC011 16/16 A3012 RMK AO2 SLP196 P0001 T01610156,KCEW,2015-02-22T06:53:00Z,30.78,-86.52,16.1,15.6,170,4,,4.0,30.121063,1019.6,,TRUE,TRUE,,,,,,-RA BR,BKN,500,OVC,1100,,,,,IFR,,,,,,0.01,,,,,,METAR,55.0
KCGE 220653Z AUTO 15004KT 4SM OVC005 02/01 A3015 RMK AO1,KCGE,2015-02-22T06:53:00Z,38.53,-76.03,2.0,1.0,150,4,,4.0,30.15059,,,TRUE,TRUE,,,,,,,OVC,500,,,,,,,IFR,,,,,,,,,,,,METAR,6.0
KCKB 220653Z 26003KT 5SM BR BKN008 OVC024 02/02 A3006 RMK AO2 RAE38 CIG 005V011 SLP181 P0001 T00220022,KCKB,2015-02-22T06:53:00Z,39.3,-80.22,2.2,2.2,260,3,,5.0,30.059055,1018.1,,,TRUE,,,,,,BR,BKN,800,OVC,2400,,,,,IFR,,,,,,0.01,,,,,,METAR,360.0
KCLM 220653Z AUTO 24008KT 10SM CLR 03/M01 A3045 RMK AO2 SLP314 T00331011,KCLM,2015-02-22T06:53:00Z,48.12,-123.5,3.3,-1.1,240,8,,10.0,30.448818,1031.4,,TRUE,TRUE,,,,,,,CLR,,,,,,,,VFR,,,,,,,,,,,,METAR,85.0
KCNM 220653Z AUTO 11005KT 10SM CLR 11/03 A2986 RMK AO2 SLP083 T01060028 402000061,KCNM,2015-02-22T06:53:00Z,32.33,-104.25,10.6,2.8,110,5,,10.0,29.861221,1008.3,,TRUE,TRUE,,,,,,,CLR,,,,,,,,VFR,,,,20.0,6.1,,,,,,,METAR,985.0
KCRG 220653Z AUTO 18006KT 10SM CLR 15/11 A3019 RMK AO2 SLP222 T01500106,KCRG,2015-02-22T06:53:00Z,30.33,-81.52,15.0,10.6,180,6,,10.0,30.188976,1022.2,,TRUE,TRUE,,,,,,,CLR,,,,,,,,VFR,,,,,,,,,,,,METAR,13.0
KCRE 220653Z AUTO 00000KT 9SM CLR 12/11 A3019 RMK AO1 SLP224 T01170106,KCRE,2015-02-22T06:53:00Z,33.82,-78.72,11.7,10.6,0,0,,9.0,30.188976,1022.4,,TRUE,TRUE,,,,,,,CLR,,,,,,,,VFR,,,,,,,,,,,,METAR,10.0
KCRS 220653Z AUTO 01004KT 10SM CLR 09/06 A3002 RMK AO2 SLP166 T00890056,KCRS,2015-02-22T06:53:00Z,32.03,-96.4,8.9,5.6,10,4,,10.0,30.02067,1016.6,,TRUE,TRUE,,,,,,,CLR,,,,,,,,VFR,,,,,,,,,,,,METAR,133.0
KCSM 220653Z AUTO 11010KT 10SM SCT110 07/01 A3011 RMK AO2 SLP193 T00720006,KCSM,2015-02-22T06:53:00Z,35.35,-99.2,7.2,0.6,110,10,,10.0,30.109253,1019.3,,TRUE,TRUE,,,,,,,SCT,11000,,,,,,,VFR,,,,,,,,,,,,METAR,588.0
KCUB 220653Z AUTO 00000KT 10SM BKN120 11/07 A3018 RMK AO2 SLP219 T01110072 $,KCUB,2015-02-22T06:53:00Z,33.97,-81.0,11.1,7.2,0,0,,10.0,30.180119,1021.9,,TRUE,TRUE,TRUE,,,,,,BKN,12000,,,,,,,VFR,,,,,,,,,,,,METAR,56.0
KD95 220653Z AUTO 25003KT 7SM OVC036 M05/M08 A3010 RMK AO2 T10551080,KD95,2015-02-22T06:53:00Z,43.07,-83.27,-5.5,-8.0,250,3,,7.0,30.100393,,,TRUE,TRUE,,,,,,,OVC,3600,,,,,,,VFR,,,,,,,,,,,,METAR,255.0
KDAB 220653Z 18003KT 10SM CLR 14/12 A3021 RMK AO2 SLP227 T01390122 $,KDAB,2015-02-22T06:53:00Z,29.18,-81.07,13.9,12.2,180,3,,10.0,30.209646,1022.7,,,TRUE,TRUE,,,,,,CLR,,,,,,,,VFR,,,,,,,,,,,,METAR,9.0
KDAL 220653Z 06007KT 10SM SCT020 BKN300 09/05 A3003 RMK AO2 SLP167 T00940050,KDAL,2015-02-22T06:53:00Z,32.85,-96.85,9.4,5.0,60,7,,10.0,30.029528,1016.7,,,TRUE,,,,,,,SCT,2000,BKN,30000,,,,,VFR,,,,,,,,,,,,METAR,158.0
KDAN 220653Z AUTO 25003KT 8SM -RA FEW050 SCT075 OVC100 01/M01 A3017 RMK AO2 UPE03RAB03 SLP213 P0007 T00061011,KDAN,2015-02-22T06:53:00Z,36.57,-79.33,0.6,-1.1,250,3,,8.0,30.171259,1021.3,,TRUE,TRUE,,,,,,-RA,FEW,5000,SCT,7500,OVC,10000,,,VFR,,,,,,0.07,,,,,,METAR,175.0
KCHO 220653Z AUTO 19006KT 4SM BR OVC003 00/M01 A3010 RMK AO2 SLP198 I1000 T00001006,KCHO,2015-02-22T06:53:00Z,38.13,-78.45,0.0,-0.6,190,6,,4.0,30.100393,1019.8,,TRUE,TRUE,,,,,,BR,OVC,300,,,,,,,LIFR,,,,,,,,,,,,METAR,192.0
KDFI 220653Z AUTO 00000KT 5SM BR OVC027 M09/M11 A3016 RMK AO2 SLP224 T10891106,KDFI,2015-02-22T06:53:00Z,41.33,-84.43,-8.9,-10.6,0,0,,5.0,30.159449,1022.4,,TRUE,TRUE,,,,,,BR,OVC,2700,,,,,,,MVFR,,,,,,,,,,,,METAR,219.0
KJLN 220653Z AUTO 01006KT 10SM SCT029 OVC100 02/M02 A3027 RMK AO2 SLP254 T00221017,KJLN,2015-02-22T06:53:00Z,37.15,-94.5,2.2,-1.7,10,6,,10.0,30.268702,1025.4,,TRUE,TRUE,,,,,,,SCT,2900,OVC,10000,,,,,VFR,,,,,,,,,,,,METAR,299.0
KLEB 220653Z AUTO 00000KT 7SM FEW075 OVC100 M06/M07 A3008 RMK AO2 SNE40 SLP200 P0000 T10611072,KLEB,2015-02-22T06:53:00Z,43.63,-72.3,-6.1,-7.2,0,0,,7.0,30.079725,1020.0,,TRUE,TRUE,,,,,,,FEW,7500,OVC,10000,,,,,VFR,,,,,,0.0050,,,,,,METAR,171.0
KLBB 220653Z 10012KT 10SM BKN300 05/02 A2999 RMK AO2 SLP139 T00500022,KLBB,2015-02-22T06:53:00Z,33.67,-101.82,5.0,2.2,100,12,,10.0,29.991142,1013.9,,,TRUE,,,,,,,BKN,30000,,,,,,,VFR,,,,,,,,,,,,METAR,993.0
KLAW 220653Z AUTO 06009KT 10SM CLR 06/01 A3008 RMK AO2 SLP189 T00560006,KLAW,2015-02-22T06:53:00Z,34.55,-98.42,5.6,0.6,60,9,,10.0,30.079725,1018.9,,TRUE,TRUE,,,,,,,CLR,,,,,,,,VFR,,,,,,,,,,,,METAR,337.0
KLAN 220653Z 26005KT 5SM BR OVC016 M05/M07 A3011 RMK AO2 SLP209 T10501072 $,KLAN,2015-02-22T06:53:00Z,42.78,-84.58,-5.0,-7.2,260,5,,5.0,30.109253,1020.9,,,TRUE,TRUE,,,,,BR,OVC,1600,,,,,,,MVFR,,,,,,,,,,,,METAR,264.0
KLHQ 220653Z AUTO 32006KT 6SM BR CLR M03/M05 A3012 RMK AO2 SLP208 T10331050,KLHQ,2015-02-22T06:53:00Z,39.75,-82.67,-3.3,-5.0,320,6,,6.0,30.121063,1020.8,,TRUE,TRUE,,,,,,BR,CLR,,,,,,,,VFR,,,,,,,,,,,,METAR,260.0
KLJF 220653Z AUTO 32008G15KT 10SM CLR M19/M25 A3044 RMK AO2,KLJF,2015-02-22T06:53:00Z,45.1,-94.52,-19.0,-25.0,320,8,15,10.0,30.43996,,,TRUE,TRUE,,,,,,,CLR,,,,,,,,VFR,,,,,,,,,,,,METAR,348.0
KLIT 220653Z 03009G16KT 10SM OVC011 03/01 A3017 RMK AO2 SLP221 T00330006 $,KLIT,2015-02-22T06:53:00Z,34.73,-92.23,3.3,0.6,30,9,16,10.0,30.171259,1022.1,,,TRUE,TRUE,,,,,,OVC,1100,,,,,,,MVFR,,,,,,,,,,,,METAR,79.0
KLLQ 220653Z AUTO 03007G15KT 10SM SCT012 BKN065 OVC085 04/01 A3013 RMK AO2 SLP202 T00390011 $,KLLQ,2015-02-22T06:53:00Z,33.63,-91.75,3.9,1.1,30,7,15,10.0,30.129921,1020.2,,TRUE,TRUE,TRUE,,,,,,SCT,1200,BKN,6500,OVC,8500,,,VFR,,,,,,,,,,,,METAR,83.0
KLNS 220653Z AUTO 00000KT 3SM -FZRA BR OVC010 M02/M04 A3011 RMK AO2 UPB03E18FZRAE03B18 SLP202 P0001 I1001 T10221039,KLNS,2015-02-22T06:53:00Z,40.12,-76.3,-2.2,-3.9,0,0,,3.0,30.109253,1020.2,,TRUE,TRUE,,,,,,-FZRA BR,OVC,1000,,,,,,,MVFR,,,,,,0.01,,,,,,METAR,125.0
KLMT 220653Z AUTO 04011G19KT 10SM FEW045 01/M08 A3013 RMK AO2 SLP204 T00061078,KLMT,2015-02-22T06:53:00Z,42.15,-121.72,0.6,-7.8,40,11,19,10.0,30.129921,1020.4,,TRUE,TRUE,,,,,,,FEW,4500,,,,,,,VFR,,,,,,,,,,,,METAR,1246.0
KLOU 220653Z 34003KT 5SM BR CLR M02/M03 A3018 RMK AO2 SLP223 T10171033,KLOU,2015-02-22T06:53:00Z,38.22,-85.67,-1.7,-3.3,340,3,,5.0,30.180119,1022.3,,,TRUE,,,,,,BR,CLR,,,,,,,,MVFR,,,,,,,,,,,,METAR,164.0
KLPR 220653Z AUTO 24003KT 1/4SM FZFG VV002 M12/M13 A3014 RMK AO2 SLP220 T11171133 TSNO,KLPR,2015-02-22T06:53:00Z,41.35,-82.18,-11.7,-13.3,240,3,,0.25,30.138779,1022.0,,TRUE,TRUE,,,TRUE,,,FZFG,OVX,0,,,,,,,LIFR,,,,,,,,,,,200,METAR,241.0
KLUK 220653Z AUTO 01004KT 5SM BR CLR M04/M06 A3018 RMK AO2 SLP225 T10441056 $,KLUK,2015-02-22T06:53:00Z,39.1,-84.42,-4.4,-5.6,10,4,,5.0,30.180119,1022.5,,TRUE,TRUE,TRUE,,,,,BR,CLR,,,,,,,,MVFR,,,,,,,,,,,,METAR,155.0
KTKI 220653Z AUTO 06007KT 10SM CLR 08/04 A3005 RMK AO2 SLP186 T00830039,KTKI,2015-02-22T06:53:00Z,33.18,-96.58,8.3,3.9,60,7,,10.0,30.050198,1018.6,,TRUE,TRUE,,,,,,,CLR,,,,,,,,VFR,,,,,,,,,,,,METAR,179.0
K04V 220653Z AUTO 31009KT 10SM BKN120 M03/M08 A2996 RMK AO2,K04V,2015-02-22T06:53:00Z,38.1,-106.17,-3.0,-8.0,310,9,,10.0,29.958662,,,TRUE,TRUE,,,,,,,BKN,12000,,,,,,,VFR,,,,,,,,,,,,METAR,2385.0
KTUS 220653Z 19007KT 10SM CLR 19/03 A2989 RMK AO2 SLP086 T01890033 402610089,KTUS,2015-02-22T06:53:00Z,32.13,-110.95,18.9,3.3,190,7,,10.0,29.890747,1008.6,,,TRUE,,,,,,,CLR,,,,,,,,VFR,,,,26.1,8.9,,,,,,,METAR,776.0
KTTD 220653Z AUTO 07008KT 10SM CLR 10/M04 A3036 RMK AO2 SLP280 T01001044,KTTD,2015-02-22T06:53:00Z,45.55,-122.42,10.0,-4.4,70,8,,10.0,30.360237,1028.0,,TRUE,TRUE,,,,,,,CLR,,,,,,,,VFR,,,,,,,,,,,,METAR,14.0
KTRL 220653Z AUTO 06009KT 10SM FEW020 10/05 A3004 RMK AO2 SLP170 T01000050,KTRL,2015-02-22T06:53:00Z,32.72,-96.27,10.0,5.0,60,9,,10.0,30.041338,1017.0,,TRUE,TRUE,,,,,,,FEW,2000,,,,,,,VFR,,,,,,,,,,,,METAR,145.0
KTLH 220653Z AUTO 00000KT 10SM SCT085 08/07 A3015 RMK AO2 SLP208 T00830067 $,KTLH,2015-02-22T06:53:00Z,30.4,-84.35,8.3,6.7,0,0,,10.0,30.15059,1020.8,,TRUE,TRUE,TRUE,,,,,,SCT,8500,,,,,,,VFR,,,,,,,,,,,,METAR,19.0
KBVO 220653Z AUTO 03012G19KT 10SM SCT043 BKN110 04/M01 A3026 RMK AO2 SLP247 T00391011,KBVO,2015-02-22T06:53:00Z,36.77,-96.02,3.9,-1.1,30,12,19,10.0,30.259842,1024.7,,TRUE,TRUE,,,,,,,SCT,4300,BKN,11000,,,,,VFR,,,,,,,,,,,,METAR,210.0
PABI 220653Z AUTO 11015KT 10SM BKN095 OVC110 00/M04 A2983 RMK AO2 PK WND 12029/0622 SNB23E33 SLP124 T00001039 TSNO PNO $,PABI,2015-02-22T06:53:00Z,64.0,-145.73,0.0,-3.9,110,15,,10.0,29.828741,1012.4,,TRUE,TRUE,TRUE,,TRUE,,,,BKN,9500,OVC,11000,,,,,VFR,,,,,,,,,,,,METAR,386.0
PABE 220653Z 13007KT 10SM OVC095 03/01 A2956 RMK AO2 SLP011 T00280011,PABE,2015-02-22T06:53:00Z,60.78,-161.85,2.8,1.1,130,7,,10.0,29.56004,1001.1,,,TRUE,,,,,,,OVC,9500,,,,,,,VFR,,,,,,,,,,,,METAR,41.0
PAAQ 220653Z AUTO 35008KT 10SM OVC060 03/01 A2994 RMK AO2 RAE45 SLP142 P0000 T00280006 TSNO,PAAQ,2015-02-22T06:53:00Z,61.6,-149.08,2.8,0.6,350,8,,10.0,29.940945,1014.2,,TRUE,TRUE,,,TRUE,,,,OVC,6000,,,,,,,VFR,,,,,,0.0050,,,,,,METAR,73.0
PAYA 220653Z AUTO 11012G23KT 2 1/2SM -RA BR BKN008 OVC012 06/06 A3028 RMK AO2 SLP254 P0016 T00610056 TSNO,PAYA,2015-02-22T06:53:00Z,59.52,-139.67,6.1,5.6,110,12,23,2.5,30.280512,1025.4,,TRUE,TRUE,,,TRUE,,,-RA BR,BKN,800,OVC,1200,,,,,IFR,,,,,,0.16,,,,,,METAR,11.0
PAWD 220653Z AUTO 00000KT 10SM OVC045 04/02 A2997 RMK AO2 SLP149 T00390022 TSNO $,PAWD,2015-02-22T06:53:00Z,60.12,-149.42,3.9,2.2,0,0,,10.0,29.970472,1014.9,,TRUE,TRUE,TRUE,,TRUE,,,,OVC,4500,,,,,,,VFR,,,,,,,,,,,,METAR,23.0
PATO 220653Z AUTO 14008G15KT 10SM -RA OVC041 04/03 A3003 RMK AO2 SLP170 P0001 T00390028 TSNO,PATO,2015-02-22T06:53:00Z,60.78,-148.85,3.9,2.8,140,8,15,10.0,30.029528,1017.0,,TRUE,TRUE,,,TRUE,,,-RA,OVC,4100,,,,,,,VFR,,,,,,0.01,,,,,,METAR,31.0
PATK 220653Z AUTO 00000KT 6SM -RA BR FEW012 OVC030 02/01 A2996 RMK AO2 SLP151 P0005 T00170006 TSNO,PATK,2015-02-22T06:53:00Z,62.3,-150.1,1.7,0.6,0,0,,6.0,29.958662,1015.1,,TRUE,TRUE,,,TRUE,,,-RA BR,FEW,1200,OVC,3000,,,,,MVFR,,,,,,0.05,,,,,,METAR,109.0
PASO 220653Z AUTO 01003KT 10SM OVC070 04/04 A2987 RMK AO2 SLP116 T00440039 TSNO,PASO,2015-02-22T06:53:00Z,59.45,-151.7,4.4,3.9,10,3,,10.0,29.870079,1011.6,,TRUE,TRUE,,,TRUE,,,,OVC,7000,,,,,,,VFR,,,,,,,,,,,,METAR,9.0
PASN 220653Z AUTO 18011KT 10SM BKN004 BKN011 OVC060 01/01 A2915 RMK AO2 UPE13RAB13E27 SLP873 P0000 T00110006 TSNO,PASN,2015-02-22T06:53:00Z,57.15,-170.22,1.1,0.6,180,11,,10.0,29.149607,987.3,,TRUE,TRUE,,,TRUE,,,,BKN,400,BKN,1100,OVC,6000,,,LIFR,,,,,,0.0050,,,,,,METAR,29.0
PASC 220653Z 05017KT 1SM R05/6000VP6000FT -SN BLSN VV013 M14/M17 A3003 RMK AO2 SLP172 P0000 T11391167,PASC,2015-02-22T06:53:00Z,70.2,-148.47,-13.9,-16.7,50,17,,1.0,30.029528,1017.2,,,TRUE,,,,,,-SN BLSN,OVX,0,,,,,,,LIFR,,,,,,0.0050,,,,,1300,METAR,15.0
PAQT 220653Z AUTO 05015KT 1 1/4SM -SN BR OVC029 M14/M16 A3007 RMK AO2 SLP186 P0000 T11391161 TSNO,PAQT,2015-02-22T06:53:00Z,70.22,-151.0,-13.9,-16.1,50,15,,1.25,30.070866,1018.6,,TRUE,TRUE,,,TRUE,,,-SN BR,OVC,2900,,,,,,,IFR,,,,,,0.0050,,,,,,METAR,12.0
PAPB 220653Z AUTO 19010KT 10SM UP BKN006 OVC048 02/01 A2918 RMK AO2 UPB0556 SLP868 P0001 T00170011 TSNO,PAPB,2015-02-22T06:53:00Z,56.58,-169.67,1.7,1.1,190,10,,10.0,29.179134,986.8,,TRUE,TRUE,,,TRUE,,,UP,BKN,600,OVC,4800,,,,,IFR,,,,,,0.01,,,,,,METAR,35.0
PAOT 220653Z 11024KT 1 3/4SM SN BR FEW025 BKN039 OVC075 00/M02 A2962 RMK AO2 PK WND 11032/0555 UPE0559SNB0559 SLP030 P0000 T00001017,PAOT,2015-02-22T06:53:00Z,66.87,-162.58,0.0,-1.7,110,24,,1.75,29.619095,1003.0,,,TRUE,,,,,,SN BR,FEW,2500,BKN,3900,OVC,7500,,,IFR,,,,,,0.0050,,,,,,METAR,3.0
PHJR 220653Z AUTO 06003KT 10SM CLR 19/15 A3001 RMK AO2 SLP170 T01940150 TSNO,PHJR,2015-02-22T06:53:00Z,21.32,-158.07,19.4,15.0,60,3,,10.0,30.008858,1017.0,,TRUE,TRUE,,,TRUE,,,,CLR,,,,,,,,VFR,,,,,,,,,,,,METAR,15.0
PHLI 220653Z 06006KT 10SM FEW029 BKN037 22/15 A3004 RMK AO2 SLP169 T02220150,PHLI,2015-02-22T06:53:00Z,21.97,-159.33,22.2,15.0,60,6,,10.0,30.041338,1016.9,,,TRUE,,,,,,,FEW,2900,BKN,3700,,,,,VFR,,,,,,,,,,,,METAR,45.0
PHKO 220653Z 00000KT 10SM CLR 25/18 A2997 RMK AO2 SLP148 T02500178,PHKO,2015-02-22T06:53:00Z,19.73,-156.05,25.0,17.8,0,0,,10.0,29.970472,1014.8,,,TRUE,,,,,,,CLR,,,,,,,,VFR,,,,,,,,,,,,METAR,27.0
PHNL 220653Z 06007KT 10SM FEW029 22/15 A3000 RMK AO2 SLP159 T02170150,PHNL,2015-02-22T06:53:00Z,21.33,-157.92,21.7,15.0,60,7,,10.0,30.0,1015.9,,,TRUE,,,,,,,FEW,2900,,,,,,,VFR,,,,,,,,,,,,METAR,4.0
KGFL 220653Z AUTO 00000KT 10SM FEW011 OVC030 M06/M08 A3012 RMK AO2 SLP212 T10611083,KGFL,2015-02-22T06:53:00Z,43.33,-73.62,-6.1,-8.3,0,0,,10.0,30.121063,1021.2,,TRUE,TRUE,,,,,,,FEW,1100,OVC,3000,,,,,MVFR,,,,,,,,,,,,METAR,103.0
PAIL 220653Z AUTO 10012KT 10SM -RA BKN030 OVC035 06/02 A2980 RMK AO2 RAB48 SLP094 P0000 T00560022 TSNO,PAIL,2015-02-22T06:53:00Z,59.75,-154.92,5.6,2.2,100,12,,10.0,29.799213,1009.4,,TRUE,TRUE,,,TRUE,,,-RA,BKN,3000,OVC,3500,,,,,MVFR,,,,,,0.0050,,,,,,METAR,49.0
PAHO 220653Z AUTO 07003KT 10SM FEW043 OVC065 06/04 A2988 RMK AO2 RAB35E44 SLP117 P0000 T00610039 TSNO,PAHO,2015-02-22T06:53:00Z,59.63,-151.5,6.1,3.9,70,3,,10.0,29.878937,1011.7,,TRUE,TRUE,,,TRUE,,,,FEW,4300,OVC,6500,,,,,VFR,,,,,,0.0050,,,,,,METAR,28.0
PAGY 220653Z AUTO 03003KT 10SM BKN025 OVC050 02/01 A3041 RMK AO2 SLP298 T00170006 TSNO,PAGY,2015-02-22T06:53:00Z,59.47,-135.3,1.7,0.6,30,3,,10.0,30.410433,1029.8,,TRUE,TRUE,,,TRUE,,,,BKN,2500,OVC,5000,,,,,MVFR,,,,,,,,,,,,METAR,5.0
PAGK 220653Z AUTO 16007KT 10SM BKN003 OVC060 00/M01 A2995 RMK AO2 SLP173 I1000 T00001011 TSNO,PAGK,2015-02-22T06:53:00Z,62.15,-145.45,0.0,-1.1,160,7,,10.0,29.949802,1017.3,,TRUE,TRUE,,,TRUE,,,,BKN,300,OVC,6000,,,,,LIFR,,,,,,,,,,,,METAR,481.0
PAJN 220653Z 12012KT 10SM -RA OVC035 04/02 A3046 RMK AO2 SLP313 P0001 T00390022 $,PAJN,2015-02-22T06:53:00Z,58.37,-134.58,3.9,2.2,120,12,,10.0,30.46063,1031.3,,,TRUE,TRUE,,,,,-RA,OVC,3500,,,,,,,VFR,,,,,,0.01,,,,,,METAR,5.0
PAKV 220653Z AUTO 00000KT 10SM OVC041 00/M02 A2975 RMK AO1 SLP078 T00001022 FZRANO TSNO,PAKV,2015-02-22T06:53:00Z,64.33,-158.75,0.0,-2.2,0,0,,10.0,29.749016,1007.8,,TRUE,TRUE,,,TRUE,TRUE,,,OVC,4100,,,,,,,VFR,,,,,,,,,,,,METAR,61.0
PAKT 220653Z AUTO 00000KT 10SM FEW100 02/01 A3051 RMK AO2 SLP332 T00220006 TSNO,PAKT,2015-02-22T06:53:00Z,55.35,-131.7,2.2,0.6,0,0,,10.0,30.510826,1033.2,,TRUE,TRUE,,,TRUE,,,,FEW,10000,,,,,,,VFR,,,,,,,,,,,,METAR,28.0
PAKW 220653Z AUTO 03005KT 10SM OVC055 06/01 A3046 RMK AO2 SLP317 T00610011 TSNO,PAKW,2015-02-22T06:53:00Z,55.58,-133.07,6.1,1.1,30,5,,10.0,30.46063,1031.7,,TRUE,TRUE,,,TRUE,,,,OVC,5500,,,,,,,VFR,,,,,,,,,,,,METAR,15.0
PALH 220653Z 00000KT 9SM -RA BKN041 OVC055 02/02 A2996 RMK AO2 SLP145 P0004 T00170017,PALH,2015-02-22T06:53:00Z,61.18,-149.97,1.7,1.7,0,0,,9.0,29.958662,1014.5,,,TRUE,,,,,,-RA,BKN,4100,OVC,5500,,,,,VFR,,,,,,0.04,,,,,,METAR,22.0
PAMC 220653Z AUTO 13009KT 10SM -RA SCT075 OVC090 03/M02 A2976 RMK AO2 RAB0558E14B32 SLP083 P0000 T00281017 TSNO,PAMC,2015-02-22T06:53:00Z,62.97,-155.62,2.8,-1.7,130,9,,10.0,29.760826,1008.3,,TRUE,TRUE,,,TRUE,,,-RA,SCT,7500,OVC,9000,,,,,VFR,,,,,,0.0050,,,,,,METAR,103.0
PAMR 220653Z 00000KT 10SM -RA BKN004 OVC038 02/01 A2995 RMK AO2 SLP143 P0002 T00170006,PAMR,2015-02-22T06:53:00Z,61.22,-149.85,1.7,0.6,0,0,,10.0,29.949802,1014.3,,,TRUE,,,,,,-RA,BKN,400,OVC,3800,,,,,LIFR,,,,,,0.02,,,,,,METAR,41.0
KCPS 220653Z AUTO 34009KT 10SM OVC023 02/M02 A3024 RMK AO2 SLP244 T00171022 TSNO $,KCPS,2015-02-22T06:53:00Z,38.57,-90.15,1.7,-2.2,340,9,,10.0,30.239174,1024.4,,TRUE,TRUE,TRUE,,TRUE,,,,OVC,2300,,,,,,,MVFR,,,,,,,,,,,,METAR,126.0
KTVR 220653Z AUTO 01006KT 10SM -RA OVC008 06/05 A3007 RMK AO2 SLP190 P0008 T00610050,KTVR,2015-02-22T06:53:00Z,32.35,-91.03,6.1,5.0,10,6,,10.0,30.070866,1019.0,,TRUE,TRUE,,,,,,-RA,OVC,800,,,,,,,IFR,,,,,,0.08,,,,,,METAR,26.0
KTXK 220653Z AUTO 07012G19KT 10SM OVC070 06/02 A3010 RMK AO2 SLP190 T00560022,KTXK,2015-02-22T06:53:00Z,33.45,-93.98,5.6,2.2,70,12,19,10.0,30.100393,1019.0,,TRUE,TRUE,,,,,,,OVC,7000,,,,,,,VFR,,,,,,,,,,,,METAR,111.0
KTYR 220653Z AUTO 07011KT 10SM BKN031 BKN041 OVC050 10/06 A3002 RMK AO2 SLP164 T01000056,KTYR,2015-02-22T06:53:00Z,32.37,-95.4,10.0,5.6,70,11,,10.0,30.02067,1016.4,,TRUE,TRUE,,,,,,,BKN,3100,BKN,4100,OVC,5000,,,VFR,,,,,,,,,,,,METAR,165.0
KUAO 220653Z AUTO 05010KT 10SM CLR 10/M03 A3035 RMK AO2 SLP278 T01001033,KUAO,2015-02-22T06:53:00Z,45.25,-122.77,10.0,-3.3,50,10,,10.0,30.351377,1027.8,,TRUE,TRUE,,,,,,,CLR,,,,,,,,VFR,,,,,,,,,,,,METAR,59.0
KUIL 220653Z AUTO 03010KT 10SM CLR 08/M01 A3042 RMK AO2 SLP301 T00781011 $,KUIL,2015-02-22T06:53:00Z,47.93,-124.55,7.8,-1.1,30,10,,10.0,30.41929,1030.1,,TRUE,TRUE,TRUE,,,,,,CLR,,,,,,,,VFR,,,,,,,,,,,,METAR,54.0
KUUU 220653Z AUTO 00000KT 4SM RA BR SCT003 BKN026 OVC039 01/01 A3013 RMK AO2 SLP204 P0011 T00110011,KUUU,2015-02-22T06:53:00Z,41.53,-71.28,1.1,1.1,0,0,,4.0,30.129921,1020.4,,TRUE,TRUE,,,,,,RA BR,SCT,300,BKN,2600,OVC,3900,,,MVFR,,,,,,0.11,,,,,,METAR,51.0
KVLD 220653Z AUTO 17004KT 10SM CLR 11/07 A3017 RMK AO2 SLP224 T01060067 TSNO,KVLD,2015-02-22T06:53:00Z,30.78,-83.27,10.6,6.7,170,4,,10.0,30.171259,1022.4,,TRUE,TRUE,,,TRUE,,,,CLR,,,,,,,,VFR,,,,,,,,,,,,METAR,62.0
KVUO 220653Z AUTO 06006KT 10SM CLR 10/M04 A3038 RMK AO2 SLP287 T01001044,KVUO,2015-02-22T06:53:00Z,45.62,-122.65,10.0,-4.4,60,6,,10.0,30.380905,1028.7,,TRUE,TRUE,,,,,,,CLR,,,,,,,,VFR,,,,,,,,,,,,METAR,8.0
KWST 220653Z AUTO 23004KT 4SM -RA BR SCT016 SCT024 OVC035 01/00 A3014 RMK AO2 SLP208 P0007 T00060000,KWST,2015-02-22T06:53:00Z,41.35,-71.8,0.6,0.0,230,4,,4.0,30.138779,1020.8,,TRUE,TRUE,,,,,,-RA BR,SCT,1600,SCT,2400,OVC,3500,,,MVFR,,,,,,0.07,,,,,,METAR,21.0
KXNA 220653Z AUTO 03005KT 6SM BR CLR 01/00 A3020 RMK AO2 SLP233 T00110000,KXNA,2015-02-22T06:53:00Z,36.28,-94.3,1.1,0.0,30,5,,6.0,30.200787,1023.3,,TRUE,TRUE,,,,,,BR,CLR,,,,,,,,VFR,,,,,,,,,,,,METAR,392.0
KZZV 220653Z AUTO 34006KT 5SM BR BKN007 OVC014 M01/M02 A3009 RMK AO2 CIG 005V010 SLP197 T10061022 TSNO,KZZV,2015-02-22T06:53:00Z,39.95,-81.9,-0.6,-2.2,340,6,,5.0,30.088583,1019.7,,TRUE,TRUE,,,TRUE,,,BR,BKN,700,OVC,1400,,,,,IFR,,,,,,,,,,,,METAR,268.0
KYKM 220653Z AUTO 09004KT 10SM OVC080 06/M07 A3048 RMK AO2 SLP328 T00611072,KYKM,2015-02-22T06:53:00Z,46.57,-120.53,6.1,-7.2,90,4,,10.0,30.481298,1032.8,,TRUE,TRUE,,,,,,,OVC,8000,,,,,,,VFR,,,,,,,,,,,,METAR,324.0
KYIP 220653Z AUTO VRB03KT 6SM HZ SCT023 OVC085 M07/M11 A3013 RMK AO2 SLP211 T10721106 TSNO,KYIP,2015-02-22T06:53:00Z,42.23,-83.53,-7.2,-10.6,0,3,,6.0,30.129921,1021.1,,TRUE,TRUE,,,TRUE,,,HZ,SCT,2300,OVC,8500,,,,,VFR,,,,,,,,,,,,METAR,215.0
KY70 220653Z AUTO 29005KT 5SM BR SCT009 OVC080 M04/M06 A3010 RMK AO2 T10451061,KY70,2015-02-22T06:53:00Z,42.93,-85.07,-4.5,-6.1,290,5,,5.0,30.100393,,,TRUE,TRUE,,,,,,BR,SCT,900,OVC,8000,,,,,MVFR,,,,,,,,,,,,METAR,250.0
KOXB 220653Z AUTO 23013KT 7SM -RA FEW028 SCT055 OVC070 08/07 A3017 RMK AO2 SLP216 P0007 T00780067 TSNO,KOXB,2015-02-22T06:53:00Z,38.32,-75.12,7.8,6.7,230,13,,7.0,30.171259,1021.6,,TRUE,TRUE,,,TRUE,,,-RA,FEW,2800,SCT,5500,OVC,7000,,,VFR,,,,,,0.07,,,,,,METAR,3.0
KPAE 220653Z 11004KT 10SM CLR 07/03 A3044 RMK AO2 SLP310 T00670033,KPAE,2015-02-22T06:53:00Z,47.92,-122.28,6.7,3.3,110,4,,10.0,30.43996,1031.0,,,TRUE,,,,,,,CLR,,,,,,,,VFR,,,,,,,,,,,,METAR,180.0
KPBF 220653Z AUTO 02010KT 9SM OVC006 02/01 A3017 RMK AO2 SLP218 T00220011 $,KPBF,2015-02-22T06:53:00Z,34.18,-91.93,2.2,1.1,20,10,,9.0,30.171259,1021.8,,TRUE,TRUE,TRUE,,,,,,OVC,600,,,,,,,IFR,,,,,,,,,,,,METAR,62.0
KPBG 220653Z AUTO 00000KT 10SM OVC034 M08/M09 A3010 RMK AO2 SLP198 T10831094,KPBG,2015-02-22T06:53:00Z,44.65,-73.47,-8.3,-9.4,0,0,,10.0,30.100393,1019.8,,TRUE,TRUE,,,,,,,OVC,3400,,,,,,,VFR,,,,,,,,,,,,METAR,72.0
KMLT 220653Z AUTO 00000KT 1 1/4SM -SN BR OVC015 M06/M07 A3009 RMK AO2 SLP202 P0003 T10611072,KMLT,2015-02-22T06:53:00Z,45.65,-68.7,-6.1,-7.2,0,0,,1.25,30.088583,1020.2,,TRUE,TRUE,,,,,,-SN BR,OVC,1500,,,,,,,IFR,,,,,,0.03,,,,,,METAR,123.0
KMLP 220653Z AUTO 12006KT 10SM CLR M13/M21 A3028 RMK AO2 SLP329 T11281206,KMLP,2015-02-22T06:53:00Z,47.45,-115.67,-12.8,-20.6,120,6,,10.0,30.280512,1032.9,,TRUE,TRUE,,,,,,,CLR,,,,,,,,VFR,,,,,,,,,,,,METAR,1837.0
KPDX 220653Z 07010G16KT 10SM CLR 10/M03 A3038 RMK AO2 SLP286 T01001033,KPDX,2015-02-22T06:53:00Z,45.6,-122.62,10.0,-3.3,70,10,16,10.0,30.380905,1028.6,,,TRUE,,,,,,,CLR,,,,,,,,VFR,,,,,,,,,,,,METAR,7.0
KPDT 220653Z AUTO 04013KT 10SM CLR 01/M06 A3036 RMK AO2 SLP285 T00061056,KPDT,2015-02-22T06:53:00Z,45.7,-118.83,0.6,-5.6,40,13,,10.0,30.360237,1028.5,,TRUE,TRUE,,,,,,,CLR,,,,,,,,VFR,,,,,,,,,,,,METAR,462.0
KPEO 220653Z AUTO 21005KT 10SM OVC015 M05/M09 A3007 RMK AO2 SLP199 T10501094,KPEO,2015-02-22T06:53:00Z,42.65,-77.05,-5.0,-9.4,210,5,,10.0,30.070866,1019.9,,TRUE,TRUE,,,,,,,OVC,1500,,,,,,,MVFR,,,,,,,,,,,,METAR,256.0
KPKB 220653Z AUTO 28003KT 1 1/4SM BR OVC002 01/01 A3011 RMK AO2 SLP202 T00110006,KPKB,2015-02-22T06:53:00Z,39.35,-81.42,1.1,0.6,280,3,,1.25,30.109253,1020.2,,TRUE,TRUE,,,,,,BR,OVC,200,,,,,,,LIFR,,,,,,,,,,,,METAR,262.0
KPHD 220653Z AUTO 31006KT 4SM HZ OVC009 M02/M05 A3011 RMK AO2 SLP206 T10221050,KPHD,2015-02-22T06:53:00Z,40.47,-81.42,-2.2,-5.0,310,6,,4.0,30.109253,1020.6,,TRUE,TRUE,,,,,,HZ,OVC,900,,,,,,,IFR,,,,,,,,,,,,METAR,272.0
KTIW 220653Z AUTO 02006KT 10SM BKN080 09/00 A3043 RMK AO2 SLP305 T00890000,KTIW,2015-02-22T06:53:00Z,47.27,-122.58,8.9,0.0,20,6,,10.0,30.431103,1030.5,,TRUE,TRUE,,,,,,,BKN,8000,,,,,,,VFR,,,,,,,,,,,,METAR,89.0
KTHV 220653Z AUTO 00000KT 5SM BR BKN009 BKN050 OVC080 M01/M01 A3010 RMK AO2 UPE09FZRAB09E45 CIG 008V013 SLP200 P0000 I1001 T10061011 $,KTHV,2015-02-22T06:53:00Z,39.92,-76.88,-0.6,-1.1,0,0,,5.0,30.100393,1020.0,,TRUE,TRUE,TRUE,,,,,BR,BKN,900,BKN,5000,OVC,8000,,,IFR,,,,,,0.0050,,,,,,METAR,144.0
KTDZ 220653Z AUTO 00000KT 5SM BR SCT001 BKN036 OVC080 M13/M15 A3016 RMK AO2 SLP223 T11281150 TSNO,KTDZ,2015-02-22T06:53:00Z,41.57,-83.48,-12.8,-15.0,0,0,,5.0,30.159449,1022.3,,TRUE,TRUE,,,TRUE,,,BR,SCT,100,BKN,3600,OVC,8000,,,MVFR,,,,,,,,,,,,METAR,189.0
KTCC 220653Z AUTO 07009KT 10SM FEW039 06/M01 A3000 RMK AO2 SLP145 T00561006 401561017,KTCC,2015-02-22T06:53:00Z,35.18,-103.6,5.6,-0.6,70,9,,10.0,30.0,1014.5,,TRUE,TRUE,,,,,,,FEW,3900,,,,,,,VFR,,,,15.6,-1.7,,,,,,,METAR,1235.0
KSSI 220653Z AUTO 20004KT 10SM CLR 13/10 A3018 RMK AO2 SLP220 T01330100,KSSI,2015-02-22T06:53:00Z,31.15,-81.38,13.3,10.0,200,4,,10.0,30.180119,1022.0,,TRUE,TRUE,,,,,,,CLR,,,,,,,,VFR,,,,,,,,,,,,METAR,6.0
KSPB 220653Z AUTO 28003KT 10SM CLR 03/01 A3038 RMK AO2 SLP289 T00330006 $,KSPB,2015-02-22T06:53:00Z,45.77,-122.87,3.3,0.6,280,3,,10.0,30.380905,1028.9,,TRUE,TRUE,TRUE,,,,,,CLR,,,,,,,,VFR,,,,,,,,,,,,METAR,14.0
KSMQ 220653Z AUTO 00000KT 4SM UP BR BKN010 OVC014 M02/M04 A3013 RMK AO2 UPB11SNE11 SLP206 P0000 I1000 T10221039 TSNO,KSMQ,2015-02-22T06:53:00Z,40.62,-74.67,-2.2,-3.9,0,0,,4.0,30.129921,1020.6,,TRUE,TRUE,,,TRUE,,,BR UP,BKN,1000,OVC,1400,,,,,MVFR,,,,,,0.0050,,,,,,METAR,30.0
KSHN 220653Z AUTO 00000KT 10SM CLR M02/M02 A3041 RMK AO2 SLP301 T10171022,KSHN,2015-02-22T06:53:00Z,47.23,-123.13,-1.7,-2.2,0,0,,10.0,30.410433,1030.1,,TRUE,TRUE,,,,,,,CLR,,,,,,,,VFR,,,,,,,,,,,,METAR,82.0
KSFF 220653Z AUTO 04004KT 10SM CLR 00/M12 A3048 RMK AO2 SLP333 T00001117,KSFF,2015-02-22T06:53:00Z,47.68,-117.32,0.0,-11.7,40,4,,10.0,30.481298,1033.3,,TRUE,TRUE,,,,,,,CLR,,,,,,,,VFR,,,,,,,,,,,,METAR,609.0
KSFB 220653Z AUTO 10003KT 8SM CLR 13/12 A3020 RMK AO2 SLP227 T01280117,KSFB,2015-02-22T06:53:00Z,28.77,-81.22,12.8,11.7,100,3,,8.0,30.200787,1022.7,,TRUE,TRUE,,,,,,,CLR,,,,,,,,VFR,,,,,,,,,,,,METAR,17.0
KSEG 220653Z AUTO 00000KT 5SM BR OVC038 M04/M06 A3012 RMK AO2 SLP207 T10391056,KSEG,2015-02-22T06:53:00Z,40.82,-76.87,-3.9,-5.6,0,0,,5.0,30.121063,1020.7,,TRUE,TRUE,,,,,,BR,OVC,3800,,,,,,,MVFR,,,,,,,,,,,,METAR,134.0
KSEA 220653Z 04003KT 10SM SCT075 08/01 A3044 RMK AO2 SLP315 T00780006,KSEA,2015-02-22T06:53:00Z,47.45,-122.32,7.8,0.6,40,3,,10.0,30.43996,1031.5,,,TRUE,,,,,,,SCT,7500,,,,,,,VFR,,,,,,,,,,,,METAR,136.0
KSDL 220653Z 04005KT 10SM CLR 16/03 A2981 RMK AO2 SLP078 T01610028 402440106,KSDL,2015-02-22T06:53:00Z,33.62,-111.92,16.1,2.8,40,5,,10.0,29.811024,1007.8,,,TRUE,,,,,,,CLR,,,,,,,,VFR,,,,24.4,10.6,,,,,,,METAR,447.0
KSAZ 220653Z AUTO 32007KT 10SM CLR M26/M29 A3040 RMK AO2,KSAZ,2015-02-22T06:53:00Z,46.37,-94.8,-26.0,-29.0,320,7,,10.0,30.398623,,,TRUE,TRUE,,,,,,,CLR,,,,,,,,VFR,,,,,,,,,,,,METAR,392.0
KSAV 220653Z AUTO 16005KT 10SM CLR 12/09 A3018 RMK AO2 SLP219 T01170089 TSNO,KSAV,2015-02-22T06:53:00Z,32.12,-81.2,11.7,8.9,160,5,,10.0,30.180119,1021.9,,TRUE,TRUE,,,TRUE,,,,CLR,,,,,,,,VFR,,,,,,,,,,,,METAR,14.0
KSAF 220653Z AUTO 02009KT 10SM BKN090 03/M06 A2997 RMK AO2 SLP110 T00331061 401111050,KSAF,2015-02-22T06:53:00Z,35.62,-106.1,3.3,-6.1,20,9,,10.0,29.970472,1011.0,,TRUE,TRUE,,,,,,,BKN,9000,,,,,,,VFR,,,,11.1,-5.0,,,,,,,METAR,1930.0
KMJQ 220653Z AUTO 33015G25KT 10SM CLR M16/M21 A3040 RMK AO2,KMJQ,2015-02-22T06:53:00Z,43.63,-94.97,-16.0,-21.0,330,15,25,10.0,30.398623,,,TRUE,TRUE,,,,,,,CLR,,,,,,,,VFR,,,,,,,,,,,,METAR,441.0
KMIE 220653Z AUTO 00000KT 4SM BR OVC043 M07/M08 A3016 RMK AO2 SLP222 T10671078,KMIE,2015-02-22T06:53:00Z,40.23,-85.4,-6.7,-7.8,0,0,,4.0,30.159449,1022.2,,TRUE,TRUE,,,,,,BR,OVC,4300,,,,,,,MVFR,,,,,,,,,,,,METAR,285.0
KMHT 220653Z 19003KT 6SM BR BKN006 BKN019 OVC120 M01/M01 A3008 RMK AO2 SNE48 SLP205 P0000 T10111011,KMHT,2015-02-22T06:53:00Z,42.93,-71.43,-1.1,-1.1,190,3,,6.0,30.079725,1020.5,,,TRUE,,,,,,BR,BKN,600,BKN,1900,OVC,12000,,,IFR,,,,,,0.0050,,,,,,METAR,81.0
KMGY 220653Z AUTO 34005KT 4SM BR FEW004 M08/M09 A3014 RMK AO2 SLP216 I1000 T10781089,KMGY,2015-02-22T06:53:00Z,39.6,-84.23,-7.8,-8.9,340,5,,4.0,30.138779,1021.6,,TRUE,TRUE,,,,,,BR,FEW,400,,,,,,,MVFR,,,,,,,,,,,,METAR,289.0
KMGW 220653Z AUTO 22004KT 10SM OVC006 02/00 A3006 RMK AO2 SLP189 T00170000 TSNO,KMGW,2015-02-22T06:53:00Z,39.65,-79.92,1.7,0.0,220,4,,10.0,30.059055,1018.9,,TRUE,TRUE,,,TRUE,,,,OVC,600,,,,,,,IFR,,,,,,,,,,,,METAR,378.0
KMFR 220653Z AUTO 07003KT 10SM CLR 08/M06 A3016 RMK AO2 SLP214 T00781056,KMFR,2015-02-22T06:53:00Z,42.38,-122.87,7.8,-5.6,70,3,,10.0,30.159449,1021.4,,TRUE,TRUE,,,,,,,CLR,,,,,,,,VFR,,,,,,,,,,,,METAR,396.0
KMBS 220653Z 36006KT 6SM HZ OVC037 M04/M08 A3011 RMK AO2 SNE43 SLP208 P0000 T10441078,KMBS,2015-02-22T06:53:00Z,43.53,-84.08,-4.4,-7.8,360,6,,6.0,30.109253,1020.8,,,TRUE,,,,,,HZ,OVC,3700,,,,,,,VFR,,,,,,0.0050,,,,,,METAR,202.0
KMAI 220653Z AUTO 18008KT 10SM OVC060 14/13 A3013 RMK AO2 SLP202 T01440133 PNO $,KMAI,2015-02-22T06:53:00Z,30.83,-85.18,14.4,13.3,180,8,,10.0,30.129921,1020.2,,TRUE,TRUE,TRUE,,,,,,OVC,6000,,,,,,,VFR,,,,,,,,,,,,METAR,32.0
KMAF 220653Z AUTO 12012KT 10SM CLR 11/04 A2992 RMK AO2 SLP107 T01060044 TSNO,KMAF,2015-02-22T06:53:00Z,31.95,-102.2,10.6,4.4,120,12,,10.0,29.920275,1010.7,,TRUE,TRUE,,,TRUE,,,,CLR,,,,,,,,VFR,,,,,,,,,,,,METAR,874.0
KLWV 220653Z AUTO 32004KT 7SM OVC022 M04/M05 A3021 RMK AO2 SLP235 T10391050,KLWV,2015-02-22T06:53:00Z,38.77,-87.6,-3.9,-5.0,320,4,,7.0,30.209646,1023.5,,TRUE,TRUE,,,,,,,OVC,2200,,,,,,,MVFR,,,,,,,,,,,,METAR,131.0
KLVS 220653Z AUTO 01009KT 10SM OVC035 01/M02 A3000 RMK AO2 SLP130 T00111017 400671050,KLVS,2015-02-22T06:53:00Z,35.65,-105.13,1.1,-1.7,10,9,,10.0,30.0,1013.0,,TRUE,TRUE,,,,,,,OVC,3500,,,,,,,VFR,,,,6.7,-5.0,,,,,,,METAR,2091.0
KPOU 220653Z AUTO 00000KT 1 1/2SM -SN BR OVC028 M03/M04 A3015 RMK AO2 SNB04 SLP207 P0001 T10281044,KPOU,2015-02-22T06:53:00Z,41.63,-73.88,-2.8,-4.4,0,0,,1.5,30.15059,1020.7,,TRUE,TRUE,,,,,,-SN BR,OVC,2800,,,,,,,IFR,,,,,,0.01,,,,,,METAR,46.0
KPUW 220653Z AUTO 05015KT 10SM CLR M01/M13 A3045 RMK AO2 SLP333 T10061133,KPUW,2015-02-22T06:53:00Z,46.75,-117.12,-0.6,-13.3,50,15,,10.0,30.448818,1033.3,,TRUE,TRUE,,,,,,,CLR,,,,,,,,VFR,,,,,,,,,,,,METAR,773.0
KPTK 220653Z AUTO 00000KT 7SM FEW022 OVC085 M07/M09 A3009 RMK AO2 SLP204 T10671094 TSNO $,KPTK,2015-02-22T06:53:00Z,42.67,-83.42,-6.7,-9.4,0,0,,7.0,30.088583,1020.4,,TRUE,TRUE,TRUE,,TRUE,,,,FEW,2200,OVC,8500,,,,,VFR,,,,,,,,,,,,METAR,299.0
KPSC 220653Z AUTO 02007KT 10SM CLR M02/M07 A3048 RMK AO2 SLP324 T10171067,KPSC,2015-02-22T06:53:00Z,46.27,-119.12,-1.7,-6.7,20,7,,10.0,30.481298,1032.4,,TRUE,TRUE,,,,,,,CLR,,,,,,,,VFR,,,,,,,,,,,,METAR,121.0
KPWA 220653Z AUTO 09012KT 10SM FEW120 07/01 A3014 RMK AO2 SLP205 T00720011,KPWA,2015-02-22T06:53:00Z,35.53,-97.65,7.2,1.1,90,12,,10.0,30.138779,1020.5,,TRUE,TRUE,,,,,,,FEW,12000,,,,,,,VFR,,,,,,,,,,,,METAR,397.0
KRBG 220653Z AUTO 00000KT 10SM CLR 05/02 A3020 RMK AO2 SLP229 T00500022,KRBG,2015-02-22T06:53:00Z,43.23,-123.35,5.0,2.2,0,0,,10.0,30.200787,1022.9,,TRUE,TRUE,,,,,,,CLR,,,,,,,,VFR,,,,,,,,,,,,METAR,154.0
KRME 220653Z AUTO 12004KT 10SM FEW027 BKN033 OVC040 M07/M08 A3012 RMK AO2 SLP205 T10721083,KRME,2015-02-22T06:53:00Z,43.22,-75.4,-7.2,-8.3,120,4,,10.0,30.121063,1020.5,,TRUE,TRUE,,,,,,,FEW,2700,BKN,3300,OVC,4000,,,VFR,,,,,,,,,,,,METAR,154.0
KRNT 220653Z AUTO VRB03KT 10SM CLR 05/04 A3044 RMK AO2 SLP313 T00500039,KRNT,2015-02-22T06:53:00Z,47.5,-122.22,5.0,3.9,0,3,,10.0,30.43996,1031.3,,TRUE,TRUE,,,,,,,CLR,,,,,,,,VFR,,,,,,,,,,,,METAR,21.0
KRQE 220653Z AUTO 00000KT 10SM BKN080 OVC120 03/M10 A2992 RMK AO2 SLP072 T00331100 401501039 TSNO,KRQE,2015-02-22T06:53:00Z,35.65,-109.07,3.3,-10.0,0,0,,10.0,29.920275,1007.2,,TRUE,TRUE,,,TRUE,,,,BKN,8000,OVC,12000,,,,,VFR,,,,15.0,-3.9,,,,,,,METAR,2055.0
KRTN 220653Z AUTO 35024G30KT 2SM -SN OVC017 M04/M08 A3005 RMK AO2 PK WND 36030/0636 SLP185 P0004 T10441078 400221044,KRTN,2015-02-22T06:53:00Z,36.73,-104.5,-4.4,-7.8,350,24,30,2.0,30.050198,1018.5,,TRUE,TRUE,,,,,,-SN,OVC,1700,,,,,,,IFR,,,,2.2,-4.4,0.04,,,,,,METAR,1936.0
KRUE 220653Z AUTO 33003KT 9SM FEW002 M01/M02 A3016 RMK AO2 SLP213 T10061017,KRUE,2015-02-22T06:53:00Z,35.25,-93.1,-0.6,-1.7,330,3,,9.0,30.159449,1021.3,,TRUE,TRUE,,,,,,,FEW,200,,,,,,,VFR,,,,,,,,,,,,METAR,115.0
KUNO 220653Z AUTO 02007KT 6SM BR FEW120 01/M01 A3018 RMK AO2 SLP227 T00111011 $,KUNO,2015-02-22T06:53:00Z,36.88,-91.9,1.1,-1.1,20,7,,6.0,30.180119,1022.7,,TRUE,TRUE,TRUE,,,,,BR,FEW,12000,,,,,,,VFR,,,,,,,,,,,,METAR,372.0
KGAG 220653Z AUTO 07012KT 10SM SCT040 BKN050 OVC090 06/01 A3011 RMK AO2 SLP195 T00610006,KGAG,2015-02-22T06:53:00Z,36.3,-99.77,6.1,0.6,70,12,,10.0,30.109253,1019.5,,TRUE,TRUE,,,,,,,SCT,4000,BKN,5000,OVC,9000,,,VFR,,,,,,,,,,,,METAR,668.0
KCKC 220653Z AUTO 33011G16KT 10SM SCT090 M25/M28 A3015 RMK AO2,KCKC,2015-02-22T06:53:00Z,47.83,-90.37,-25.0,-28.0,330,11,16,10.0,30.15059,,,TRUE,TRUE,,,,,,,SCT,9000,,,,,,,VFR,,,,,,,,,,,,METAR,548.0
KCNB 220653Z AUTO 29003KT 10SM CLR M18/M21 A3048 RMK AO2 T11811207,KCNB,2015-02-22T06:53:00Z,44.73,-96.27,-18.1,-20.7,290,3,,10.0,30.481298,,,TRUE,TRUE,,,,,,,CLR,,,,,,,,VFR,,,,,,,,,,,,METAR,364.0
PAEN 220653Z AUTO 36006KT 10SM OVC050 02/02 A2991 RMK AO2 SLP131 T00170017 TSNO,PAEN,2015-02-22T06:53:00Z,60.57,-151.25,1.7,1.7,360,6,,10.0,29.911417,1013.1,,TRUE,TRUE,,,TRUE,,,,OVC,5000,,,,,,,VFR,,,,,,,,,,,,METAR,27.0
PAEG 220653Z AUTO 00000KT 10SM UP OVC065 03/M05 A2991 RMK AO2 UPB0559E02B44RAB02E44 SLP140 P0000 T00281050 TSNO,PAEG,2015-02-22T06:53:00Z,64.78,-141.15,2.8,-5.0,0,0,,10.0,29.911417,1014.0,,TRUE,TRUE,,,TRUE,,,UP,OVC,6500,,,,,,,VFR,,,,,,0.0050,,,,,,METAR,268.0
PADQ 220653Z 09008KT 10SM BKN005 OVC019 05/04 A2986 RMK AO2 SLP111 T00500044,PADQ,2015-02-22T06:53:00Z,57.75,-152.5,5.0,4.4,90,8,,10.0,29.861221,1011.1,,,TRUE,,,,,,,BKN,500,OVC,1900,,,,,IFR,,,,,,,,,,,,METAR,34.0
PAFA 220653Z 00000KT 8SM -FZRASN SCT055 BKN080 OVC100 00/M02 A2984 RMK AO2 FZRAE20B38SNE20B38 SLP112 I1000 T00001022,PAFA,2015-02-22T06:53:00Z,64.8,-147.88,0.0,-2.2,0,0,,8.0,29.840551,1011.2,,,TRUE,,,,,,-FZRA SN,SCT,5500,BKN,8000,OVC,10000,,,VFR,,,,,,,,,,,,METAR,132.0
PABR 220653Z 05015KT 10SM OVC100 M17/M20 A3013 RMK AO2 SLP206 T11721200,PABR,2015-02-22T06:53:00Z,71.28,-156.8,-17.2,-20.0,50,15,,10.0,30.129921,1020.6,,,TRUE,,,,,,,OVC,10000,,,,,,,VFR,,,,,,,,,,,,METAR,7.0
KIML 220653Z AUTO 02011KT 1 1/2SM -SN M08/M11 A3038 RMK AO2 SLP324 P0000 T10831111 400391083 $,KIML,2015-02-22T06:53:00Z,40.52,-101.62,-8.3,-11.1,20,11,,1.5,30.380905,1032.4,,TRUE,TRUE,TRUE,,,,,-SN,,,,,,,,,,,,,3.9,-8.3,0.0050,,,,,,METAR,998.0
KSWO 220653Z AUTO 06009KT 10SM OVC040 07/03 A3017 RMK AO2 SLP216 T00720028 TSNO,KSWO,2015-02-22T06:53:00Z,36.17,-97.08,7.2,2.8,60,9,,10.0,30.171259,1021.6,,TRUE,TRUE,,,TRUE,,,,OVC,4000,,,,,,,VFR,,,,,,,,,,,,METAR,290.0
KPUC 220653Z AUTO 35006KT 10SM CLR M03/M11 A2991 RMK AO2 SLP150 T10331106 400891056,KPUC,2015-02-22T06:53:00Z,39.62,-110.75,-3.3,-10.6,350,6,,10.0,29.911417,1015.0,,TRUE,TRUE,,,,,,,CLR,,,,,,,,VFR,,,,8.9,-5.6,,,,,,,METAR,2091.0
KODX 220653Z AUTO 36010KT 10SM SCT055 OVC075 M09/M13 A3042 RMK AO2 SLP336 T10891133,KODX,2015-02-22T06:53:00Z,41.62,-98.95,-8.9,-13.3,360,10,,10.0,30.41929,1033.6,,TRUE,TRUE,,,,,,,SCT,5500,OVC,7500,,,,,VFR,,,,,,,,,,,,METAR,631.0
PABT 220653Z 34003KT 10SM OVC038 M03/M06 A2986 RMK AO2 SLP129 T10331061 PNO,PABT,2015-02-22T06:53:00Z,66.92,-151.52,-3.3,-6.1,340,3,,10.0,29.861221,1012.9,,,TRUE,,,,,,,OVC,3800,,,,,,,VFR,,,,,,,,,,,,METAR,195.0
KHEY 220653Z AUTO 16004KT 10SM FEW013 BKN045 OVC055 14/12 A3011 RMK AO2 SLP083 T01440117,KHEY,2015-02-22T06:53:00Z,31.35,-85.65,14.4,11.7,160,4,,10.0,30.109253,1008.3,,TRUE,TRUE,,,,,,,FEW,1300,BKN,4500,OVC,5500,,,VFR,,,,,,,,,,,,METAR,97.0
KLOR 220653Z AUTO 19006KT 10SM FEW046 OVC060 15/12 A3010 RMK AO2 SLP190 T01500122,KLOR,2015-02-22T06:53:00Z,31.35,-85.75,15.0,12.2,190,6,,10.0,30.100393,1019.0,,TRUE,TRUE,,,,,,,FEW,4600,OVC,6000,,,,,VFR,,,,,,,,,,,,METAR,74.0
KNUI 220653Z AUTO 15004KT 5SM -RA BR OVC065 01/M01 A3015 RMK AO2 SLP209 P0001 T00111011 $,KNUI,2015-02-22T06:53:00Z,38.15,-76.43,1.1,-1.1,150,4,,5.0,30.15059,1020.9,,TRUE,TRUE,TRUE,,,,,-RA BR,OVC,6500,,,,,,,MVFR,,,,,,0.01,,,,,,METAR,7.0
KP68 220653Z AUTO 14005KT M04/M08 A2996 RMK AO1 SLP135 T10391078,KP68,2015-02-22T06:53:00Z,39.6,-116.0,-3.9,-7.8,140,5,,,29.958662,1013.5,,TRUE,TRUE,,,,,,,,,,,,,,,,,,,,,,,,,,,METAR,1809.0
KRYT 220653Z AUTO 00000KT 3SM UP BR BKN043 OVC060 M03/M04 A3006 RMK AO2 UPB43FZRAE10 SLP200 P0000 T10281039 $,KRYT,2015-02-22T06:53:00Z,39.73,-77.43,-2.8,-3.9,0,0,,3.0,30.059055,1020.0,,TRUE,TRUE,TRUE,,,,,BR UP,BKN,4300,OVC,6000,,,,,MVFR,,,,,,0.0050,,,,,,METAR,274.0
KP92 220653Z AUTO VRB03KT 17/17 A3000 RMK AO1 SLP160 T01720167,KP92,2015-02-22T06:53:00Z,29.57,-91.53,17.2,16.7,0,3,,,30.0,1016.0,,TRUE,TRUE,,,,,,,,,,,,,,,,,,,,,,,,,,,METAR,1.0
MMMD 220653Z 09005KT 7SM SKC 19/16 A2999,MMMD,2015-02-22T06:53:00Z,20.95,-89.65,19.0,16.0,90,5,,7.0,29.991142,,,,,,,,,,,SKC,,,,,,,,VFR,,,,,,,,,,,,METAR,10.0
KCQC 220653Z AUTO 10004KT 10SM CLR 01/M03 A2996 RMK AO2 SLP108 T00061028 401441028,KCQC,2015-02-22T06:53:00Z,35.0,-105.67,0.6,-2.8,100,4,,10.0,29.958662,1010.8,,TRUE,TRUE,,,,,,,CLR,,,,,,,,VFR,,,,14.4,-2.8,,,,,,,METAR,2160.0
K6R6 220653Z AUTO 04007KT 17/03 A2987 RMK AO1 SLP086 T01720033,K6R6,2015-02-22T06:53:00Z,30.05,-102.22,17.2,3.3,40,7,,,29.870079,1008.6,,TRUE,TRUE,,,,,,,,,,,,,,,,,,,,,,,,,,,METAR,701.0
KTUP 220653Z 03011KT 10SM OVC007 04/02 A3011 RMK AO2 SLP195 T00390022,KTUP,2015-02-22T06:53:00Z,34.27,-88.77,3.9,2.2,30,11,,10.0,30.109253,1019.5,,,TRUE,,,,,,,OVC,700,,,,,,,IFR,,,,,,,,,,,,METAR,105.0
KLXV 220653Z AUTO 00000KT 10SM BKN010 M13/M14 A2992 RMK AO2 CIG 008V013 SLP136 T11281139 410391133,KLXV,2015-02-22T06:53:00Z,39.23,-106.32,-12.8,-13.9,0,0,,10.0,29.920275,1013.6,,TRUE,TRUE,,,,,,,BKN,1000,,,,,,,MVFR,,,,-3.9,-13.3,,,,,,,METAR,3028.0
KMOX 220653Z AUTO 33009KT 10SM CLR M21/M24 A3047 RMK AO2,KMOX,2015-02-22T06:53:00Z,45.57,-95.97,-21.0,-24.0,330,9,,10.0,30.469488,,,TRUE,TRUE,,,,,,,CLR,,,,,,,,VFR,,,,,,,,,,,,METAR,344.0
KMNN 220653Z AUTO 32003KT 1/4SM FZFG VV002 M07/M09 A3013 RMK AO2 SLP221 I1001 T10721089 TSNO,KMNN,2015-02-22T06:53:00Z,40.62,-83.07,-7.2,-8.9,320,3,,0.25,30.129921,1022.1,,TRUE,TRUE,,,TRUE,,,FZFG,OVX,0,,,,,,,LIFR,,,,,,,,,,,200,METAR,301.0
KMMV 220653Z AUTO 05010KT 10SM CLR 08/M01 A3035 RMK AO2 SLP277 T00831011 $,KMMV,2015-02-22T06:53:00Z,45.2,-123.13,8.3,-1.1,50,10,,10.0,30.351377,1027.7,,TRUE,TRUE,TRUE,,,,,,CLR,,,,,,,,VFR,,,,,,,,,,,,METAR,48.0
KMMK 220653Z AUTO 19003KT 1 1/4SM -SN BR BKN008 OVC011 00/M01 A3014 RMK AO2 FZRAE24SNB31 CIG 004V010 SLP209 I1000 T00001011 TSNO PNO $,KMMK,2015-02-22T06:53:00Z,41.52,-72.83,0.0,-1.1,190,3,,1.25,30.138779,1020.9,,TRUE,TRUE,TRUE,,TRUE,,,-SN BR,BKN,800,OVC,1100,,,,,IFR,,,,,,,,,,,,METAR,31.0
KTOR 220653Z AUTO 34011G19KT 10SM BKN050 OVC070 M08/M16 A3033 RMK AO2 SNE28 SLP320 P0000 T10831156 410111083 $,KTOR,2015-02-22T06:53:00Z,42.07,-104.15,-8.3,-15.6,340,11,19,10.0,30.33071,1032.0,,TRUE,TRUE,TRUE,,,,,,BKN,5000,OVC,7000,,,,,VFR,,,,-1.1,-8.3,0.0050,,,,,,METAR,1277.0
KTOP 220653Z AUTO 36011KT 10SM SCT100 M03/M09 A3039 RMK AO2 SLP296 T10331089,KTOP,2015-02-22T06:53:00Z,39.07,-95.63,-3.3,-8.9,360,11,,10.0,30.389763,1029.6,,TRUE,TRUE,,,,,,,SCT,10000,,,,,,,VFR,,,,,,,,,,,,METAR,268.0
KTOI 220653Z AUTO 20006G15KT 10SM OVC015 16/13 A3010 RMK AO2 SLP189 T01610128,KTOI,2015-02-22T06:53:00Z,31.85,-86.02,16.1,12.8,200,6,15,10.0,30.100393,1018.9,,TRUE,TRUE,,,,,,,OVC,1500,,,,,,,MVFR,,,,,,,,,,,,METAR,118.0
KTMB 220653Z 12007KT 10SM FEW028 BKN041 BKN048 21/17 A3017 RMK AO2 SLP216 T02110167,KTMB,2015-02-22T06:53:00Z,25.65,-80.43,21.1,16.7,120,7,,10.0,30.171259,1021.6,,,TRUE,,,,,,,FEW,2800,BKN,4100,BKN,4800,,,VFR,,,,,,,,,,,,METAR,2.0
KTCL 220653Z AUTO 17004KT 10SM -RA OVC090 14/13 A3006 RMK AO2 SLP176 P0010 T01390128,KTCL,2015-02-22T06:53:00Z,33.22,-87.62,13.9,12.8,170,4,,10.0,30.059055,1017.6,,TRUE,TRUE,,,,,,-RA,OVC,9000,,,,,,,VFR,,,,,,0.1,,,,,,METAR,49.0
KVCB 220653Z AUTO 35007KT 4SM BR OVC006 11/09 A2986 RMK AO2 SLP111 T01110089,KVCB,2015-02-22T06:53:00Z,38.38,-121.95,11.1,8.9,350,7,,4.0,29.861221,1011.1,,TRUE,TRUE,,,,,,BR,OVC,600,,,,,,,IFR,,,,,,,,,,,,METAR,33.0
KUTS 220653Z AUTO 00000KT 10SM OVC021 14/09 A3000 RMK AO2 SLP156 T01390094,KUTS,2015-02-22T06:53:00Z,30.75,-95.58,13.9,9.4,0,0,,10.0,30.0,1015.6,,TRUE,TRUE,,,,,,,OVC,2100,,,,,,,MVFR,,,,,,,,,,,,METAR,104.0
KTYS 220653Z 06005KT 1 1/4SM -RA BR BKN004 OVC030 02/01 A3008 RMK AO2 SLP192 P0000 T00170011 $,KTYS,2015-02-22T06:53:00Z,35.82,-83.98,1.7,1.1,60,5,,1.25,30.079725,1019.2,,,TRUE,TRUE,,,,,-RA BR,BKN,400,OVC,3000,,,,,LIFR,,,,,,0.0050,,,,,,METAR,302.0
KTWF 220653Z AUTO 08017G23KT 10SM BKN075 M02/M12 A3015 RMK AO2 SLP209 T10221122 400831022,KTWF,2015-02-22T06:53:00Z,42.48,-114.48,-2.2,-12.2,80,17,23,10.0,30.15059,1020.9,,TRUE,TRUE,,,,,,,BKN,7500,,,,,,,VFR,,,,8.3,-2.2,,,,,,,METAR,1266.0
KTVL 220653Z AUTO 08010G18KT 040V110 10SM SCT060 02/M12 A2992 RMK AO2 SLP106 T00221117,KTVL,2015-02-22T06:53:00Z,38.9,-120.0,2.2,-11.7,80,10,18,10.0,29.920275,1010.6,,TRUE,TRUE,,,,,,,SCT,6000,,,,,,,VFR,,,,,,,,,,,,METAR,1924.0
KTVC 220653Z AUTO 02009KT 7SM -SN OVC050 M11/M14 A3015 RMK AO2 SNB38 SLP222 P0000 T11061144,KTVC,2015-02-22T06:53:00Z,44.73,-85.57,-10.6,-14.4,20,9,,7.0,30.15059,1022.2,,TRUE,TRUE,,,,,,-SN,OVC,5000,,,,,,,VFR,,,,,,0.0050,,,,,,METAR,190.0
KTUL 220653Z 04007KT 10SM SCT120 OVC250 06/03 A3020 RMK AO2 SLP229 T00560028,KTUL,2015-02-22T06:53:00Z,36.2,-95.88,5.6,2.8,40,7,,10.0,30.200787,1022.9,,,TRUE,,,,,,,SCT,12000,OVC,25000,,,,,VFR,,,,,,,,,,,,METAR,207.0
KTRI 220653Z 00000KT 2 1/2SM BR OVC043 01/01 A3005 RMK AO2 RAE05 SLP171 P0000 T00110011,KTRI,2015-02-22T06:53:00Z,36.48,-82.4,1.1,1.1,0,0,,2.5,30.050198,1017.1,,,TRUE,,,,,,BR,OVC,4300,,,,,,,IFR,,,,,,0.0050,,,,,,METAR,474.0
KTPA 220653Z 12004KT 10SM SCT090 SCT200 16/12 A3018 RMK AO2 SLP218 T01610122,KTPA,2015-02-22T06:53:00Z,27.97,-82.53,16.1,12.2,120,4,,10.0,30.180119,1021.8,,,TRUE,,,,,,,SCT,9000,SCT,20000,,,,,VFR,,,,,,,,,,,,METAR,11.0
KMAE 220653Z AUTO 00000KT 2 1/2SM BR CLR 07/06 A2985 RMK AO2 SLP107 T00720061,KMAE,2015-02-22T06:53:00Z,36.98,-120.12,7.2,6.1,0,0,,2.5,29.84941,1010.7,,TRUE,TRUE,,,,,,BR,CLR,,,,,,,,IFR,,,,,,,,,,,,METAR,77.0
KPGD 220653Z AUTO 11005KT 10SM CLR 14/13 A3018 RMK AO2 SLP221 T01440128,KPGD,2015-02-22T06:53:00Z,26.92,-82.0,14.4,12.8,110,5,,10.0,30.180119,1022.1,,TRUE,TRUE,,,,,,,CLR,,,,,,,,VFR,,,,,,,,,,,,METAR,7.0
KPIH 220653Z AUTO 04018G26KT 10SM CLR M06/M16 A3019 RMK AO2 PK WND 04029/0620 SLP252 T10561161 400501056,KPIH,2015-02-22T06:53:00Z,42.92,-112.57,-5.6,-16.1,40,18,26,10.0,30.188976,1025.2,,TRUE,TRUE,,,,,,,CLR,,,,,,,,VFR,,,,5.0,-5.6,,,,,,,METAR,1359.0
KPIE 220653Z AUTO 13003KT 10SM FEW060 13/12 A3017 RMK AO2 SLP216 T01280117,KPIE,2015-02-22T06:53:00Z,27.92,-82.68,12.8,11.7,130,3,,10.0,30.171259,1021.6,,TRUE,TRUE,,,,,,,FEW,6000,,,,,,,VFR,,,,,,,,,,,,METAR,4.0
KPIL 220653Z AUTO 14008KT 5SM BR OVC006 20/19 A2994 RMK AO2 SLP137 T02000189,KPIL,2015-02-22T06:53:00Z,26.17,-97.33,20.0,18.9,140,8,,5.0,29.940945,1013.7,,TRUE,TRUE,,,,,,BR,OVC,600,,,,,,,IFR,,,,,,,,,,,,METAR,5.0
KPIR 220653Z AUTO 33007KT 10SM SCT038 M17/M20 A3051 RMK AO2 SLP369 T11671200,KPIR,2015-02-22T06:53:00Z,44.38,-100.28,-16.7,-20.0,330,7,,10.0,30.510826,1036.9,,TRUE,TRUE,,,,,,,SCT,3800,,,,,,,VFR,,,,,,,,,,,,METAR,526.0
KMCI 220653Z 36013KT 10SM CLR M04/M09 A3036 RMK AO2 SLP288 T10441089,KMCI,2015-02-22T06:53:00Z,39.3,-94.73,-4.4,-8.9,360,13,,10.0,30.360237,1028.8,,,TRUE,,,,,,,CLR,,,,,,,,VFR,,,,,,,,,,,,METAR,320.0
KVGT 220653Z 34004KT 10SM CLR 12/M07 A2970 RMK AO2 SLP065 T01221072,KVGT,2015-02-22T06:53:00Z,36.22,-115.2,12.2,-7.2,340,4,,10.0,29.698818,1006.5,,,TRUE,,,,,,,CLR,,,,,,,,VFR,,,,,,,,,,,,METAR,671.0
KVEL 220653Z AUTO 01010KT 10SM BKN020 OVC030 M04/M08 A3004 RMK AO2 SNE47 SLP190 P0000 T10441078 400561044,KVEL,2015-02-22T06:53:00Z,40.45,-109.52,-4.4,-7.8,10,10,,10.0,30.041338,1019.0,,TRUE,TRUE,,,,,,,BKN,2000,OVC,3000,,,,,MVFR,,,,5.6,-4.4,0.0050,,,,,,METAR,1604.0
KLHX 220653Z AUTO 03019G27KT 3/4SM -SN BR BKN012 BKN029 OVC035 M06/M07 A3024 RMK AO2 PK WND 02033/0620 SLP257 P0000 T10561072 400441056 $,KLHX,2015-02-22T06:53:00Z,38.05,-103.52,-5.6,-7.2,30,19,27,0.75,30.239174,1025.7,,TRUE,TRUE,TRUE,,,,,-SN BR,BKN,1200,BKN,2900,OVC,3500,,,LIFR,,,,4.4,-5.6,0.0050,,,,,,METAR,1277.0
KLGB 220653Z 00000KT 10SM OVC048 16/09 A2992 RMK AO2 SLP131 T01560094,KLGB,2015-02-22T06:53:00Z,33.82,-118.15,15.6,9.4,0,0,,10.0,29.920275,1013.1,,,TRUE,,,,,,,OVC,4800,,,,,,,VFR,,,,,,,,,,,,METAR,10.0
KLFT 220653Z AUTO 17003KT 9SM SCT041 OVC090 18/17 A3001 RMK AO2 SLP161 T01780167,KLFT,2015-02-22T06:53:00Z,30.2,-92.0,17.8,16.7,170,3,,9.0,30.008858,1016.1,,TRUE,TRUE,,,,,,,SCT,4100,OVC,9000,,,,,VFR,,,,,,,,,,,,METAR,11.0
KLFK 220653Z AUTO 07006KT 10SM BKN005 BKN010 OVC023 14/12 A3001 RMK AO2 CIG 004V008 SLP157 T01440122,KLFK,2015-02-22T06:53:00Z,31.23,-94.75,14.4,12.2,70,6,,10.0,30.008858,1015.7,,TRUE,TRUE,,,,,,,BKN,500,BKN,1000,OVC,2300,,,IFR,,,,,,,,,,,,METAR,88.0
KLEE 220653Z AUTO 13003KT 10SM CLR 12/11 A3020 RMK AO2 SLP224 T01170111,KLEE,2015-02-22T06:53:00Z,28.82,-81.82,11.7,11.1,130,3,,10.0,30.200787,1022.4,,TRUE,TRUE,,,,,,,CLR,,,,,,,,VFR,,,,,,,,,,,,METAR,23.0
KLCH 220653Z AUTO 22006KT 8SM SCT028 BKN044 OVC090 18/17 A2999 RMK AO2 SLP163 T01830167,KLCH,2015-02-22T06:53:00Z,30.13,-93.22,18.3,16.7,220,6,,8.0,29.991142,1016.3,,TRUE,TRUE,,,,,,,SCT,2800,BKN,4400,OVC,9000,,,VFR,,,,,,,,,,,,METAR,4.0
KLBX 220653Z AUTO 24005KT 5SM -RA BR OVC005 19/19 A2997 RMK AO2 RAB31 CIG 005V009 SLP150 P0001 T01890189,KLBX,2015-02-22T06:53:00Z,29.12,-95.47,18.9,18.9,240,5,,5.0,29.970472,1015.0,,TRUE,TRUE,,,,,,-RA BR,OVC,500,,,,,,,IFR,,,,,,0.01,,,,,,METAR,6.0
KLAX 220653Z 00000KT 10SM SCT024 OVC038 15/10 A2992 RMK AO2 SLP130 T01500100 $,KLAX,2015-02-22T06:53:00Z,33.93,-118.38,15.0,10.0,0,0,,10.0,29.920275,1013.0,,,TRUE,TRUE,,,,,,SCT,2400,OVC,3800,,,,,VFR,,,,,,,,,,,,METAR,46.0
KLAR 220653Z AUTO 05008KT 8SM BKN042 OVC080 M14/M18 A3011 RMK AO2 SNE36 SLP262 P0001 T11441178 410221144,KLAR,2015-02-22T06:53:00Z,41.32,-105.67,-14.4,-17.8,50,8,,8.0,30.109253,1026.2,,TRUE,TRUE,,,,,,,BKN,4200,OVC,8000,,,,,VFR,,,,-2.2,-14.4,0.01,,,,,,METAR,2216.0
KLAA 220653Z AUTO 05018KT 3/4SM -SN VV012 M05/ A3023 RMK AO2 PK WND 04034/0619 SLP254 P0000 T1050 400391061 $,KLAA,2015-02-22T06:53:00Z,38.07,-102.68,-5.0,,50,18,,0.75,30.230314,1025.4,,TRUE,TRUE,TRUE,,,,,-SN,OVX,0,,,,,,,LIFR,,,,3.9,-6.1,0.0050,,,,,1200,METAR,1119.0
KMCK 220653Z AUTO 36010KT 1 3/4SM -SN BR FEW010 OVC024 M06/M08 A3039 RMK AO2 SNB21 SLP312 P0000 T10561078,KMCK,2015-02-22T06:53:00Z,40.2,-100.58,-5.6,-7.8,360,10,,1.75,30.389763,1031.2,,TRUE,TRUE,,,,,,-SN BR,FEW,1000,OVC,2400,,,,,IFR,,,,,,0.0050,,,,,,METAR,782.0
KMCN 220653Z AUTO 18005KT 10SM OVC060 13/07 A3013 RMK AO2 SLP201 T01280067 TSNO $,KMCN,2015-02-22T06:53:00Z,32.68,-83.65,12.8,6.7,180,5,,10.0,30.129921,1020.1,,TRUE,TRUE,TRUE,,TRUE,,,,OVC,6000,,,,,,,VFR,,,,,,,,,,,,METAR,109.0
KMCO 220653Z 00000KT 10SM FEW080 SCT250 14/13 A3021 RMK AO2 SLP228 T01390128,KMCO,2015-02-22T06:53:00Z,28.42,-81.33,13.9,12.8,0,0,,10.0,30.209646,1022.8,,,TRUE,,,,,,,FEW,8000,SCT,25000,,,,,VFR,,,,,,,,,,,,METAR,29.0
KMCW 220653Z AUTO 32016KT 10SM CLR M17/M22 A3038 RMK AO2 SLP309 T11671217 $,KMCW,2015-02-22T06:53:00Z,43.15,-93.33,-16.7,-21.7,320,16,,10.0,30.380905,1030.9,,TRUE,TRUE,TRUE,,,,,,CLR,,,,,,,,VFR,,,,,,,,,,,,METAR,369.0
KMDW 220653Z 29005KT 7SM OVC041 M01/M06 A3018 RMK AO2 SLP231 T10111061 $,KMDW,2015-02-22T06:53:00Z,41.78,-87.75,-1.1,-6.1,290,5,,7.0,30.180119,1023.1,,,TRUE,TRUE,,,,,,OVC,4100,,,,,,,VFR,,,,,,,,,,,,METAR,188.0
KMFE 220653Z AUTO 14012KT 10SM OVC014 22/19 A2992 RMK AO2 SLP129 T02170189,KMFE,2015-02-22T06:53:00Z,26.18,-98.25,21.7,18.9,140,12,,10.0,29.920275,1012.9,,TRUE,TRUE,,,,,,,OVC,1400,,,,,,,MVFR,,,,,,,,,,,,METAR,38.0
KMGM 220653Z AUTO 21004KT 10SM OVC014 17/13 A3009 RMK AO2 SLP188 T01670128,KMGM,2015-02-22T06:53:00Z,32.3,-86.4,16.7,12.8,210,4,,10.0,30.088583,1018.8,,TRUE,TRUE,,,,,,,OVC,1400,,,,,,,MVFR,,,,,,,,,,,,METAR,63.0
KMHE 220653Z AUTO 31006KT 10SM CLR M16/M19 A3052 RMK AO2 SLP362 T11611189,KMHE,2015-02-22T06:53:00Z,43.77,-98.02,-16.1,-18.9,310,6,,10.0,30.519686,1036.2,,TRUE,TRUE,,,,,,,CLR,,,,,,,,VFR,,,,,,,,,,,,METAR,397.0
KMIA 220653Z 11010KT 10SM FEW027 BKN049 BKN085 22/17 A3017 RMK AO2 SLP218 T02170172,KMIA,2015-02-22T06:53:00Z,25.8,-80.28,21.7,17.2,110,10,,10.0,30.171259,1021.8,,,TRUE,,,,,,,FEW,2700,BKN,4900,BKN,8500,,,VFR,,,,,,,,,,,,METAR,3.0
KMIW 220653Z AUTO 34013KT 10SM CLR M14/M19 A3036 RMK AO2 SLP301 T11391189,KMIW,2015-02-22T06:53:00Z,42.12,-92.92,-13.9,-18.9,340,13,,10.0,30.360237,1030.1,,TRUE,TRUE,,,,,,,CLR,,,,,,,,VFR,,,,,,,,,,,,METAR,296.0
KMLS 220653Z AUTO 34008KT 10SM CLR M14/M18 A3054 RMK AO2 SLP393 T11391178 410281139,KMLS,2015-02-22T06:53:00Z,46.43,-105.88,-13.9,-17.8,340,8,,10.0,30.540354,1039.3,,TRUE,TRUE,,,,,,,CLR,,,,,,,,VFR,,,,-2.8,-13.9,,,,,,,METAR,801.0
KMOD 220653Z AUTO 11005KT 3SM BR CLR 08/07 A2983 RMK AO2 SLP101 T00780067,KMOD,2015-02-22T06:53:00Z,37.62,-120.95,7.8,6.7,110,5,,3.0,29.828741,1010.1,,TRUE,TRUE,,,,,,BR,CLR,,,,,,,,MVFR,,,,,,,,,,,,METAR,29.0
KMSN 220653Z AUTO 31006KT 10SM CLR M09/M16 A3022 RMK AO2 SLP248 T10941156,KMSN,2015-02-22T06:53:00Z,43.13,-89.35,-9.4,-15.6,310,6,,10.0,30.221457,1024.8,,TRUE,TRUE,,,,,,,CLR,,,,,,,,VFR,,,,,,,,,,,,METAR,261.0
KMSO 220653Z AUTO 14011KT 10SM CLR M08/M15 A3050 RMK AO2 SLP373 T10831150 400111083,KMSO,2015-02-22T06:53:00Z,46.92,-114.1,-8.3,-15.0,140,11,,10.0,30.499016,1037.3,,TRUE,TRUE,,,,,,,CLR,,,,,,,,VFR,,,,1.1,-8.3,,,,,,,METAR,975.0
KMCE 220653Z AUTO 08003KT 3SM BR CLR 08/07 A2984 RMK AO2 SLP104 T00830067 $,KMCE,2015-02-22T06:53:00Z,37.28,-120.5,8.3,6.7,80,3,,3.0,29.840551,1010.4,,TRUE,TRUE,TRUE,,,,,BR,CLR,,,,,,,,MVFR,,,,,,,,,,,,METAR,47.0
KMCB 220653Z AUTO 18004KT 10SM SCT040 OVC070 17/15 A3001 RMK AO2 SLP159 T01670150,KMCB,2015-02-22T06:53:00Z,31.18,-90.47,16.7,15.0,180,4,,10.0,30.008858,1015.9,,TRUE,TRUE,,,,,,,SCT,4000,OVC,7000,,,,,VFR,,,,,,,,,,,,METAR,124.0
KBRD 220653Z AUTO 32008KT 10SM CLR M23/M27 A3039 RMK AO2 SLP326 T12281267 $,KBRD,2015-02-22T06:53:00Z,46.4,-94.13,-22.8,-26.7,320,8,,10.0,30.389763,1032.6,,TRUE,TRUE,TRUE,,,,,,CLR,,,,,,,,VFR,,,,,,,,,,,,METAR,372.0
KBPT 220653Z AUTO 20008KT 8SM FEW024 SCT031 OVC080 19/17 A2998 RMK AO2 SLP153 T01940172,KBPT,2015-02-22T06:53:00Z,29.95,-94.03,19.4,17.2,200,8,,8.0,29.97933,1015.3,,TRUE,TRUE,,,,,,,FEW,2400,SCT,3100,OVC,8000,,,VFR,,,,,,,,,,,,METAR,5.0
KBPI 220653Z AUTO 21009KT 3SM -SN BR OVC035 M11/M13 A3008 RMK AO2 SNE02B35 SLP225 P0000 T11111133 410061117,KBPI,2015-02-22T06:53:00Z,42.58,-110.1,-11.1,-13.3,210,9,,3.0,30.079725,1022.5,,TRUE,TRUE,,,,,,-SN BR,OVC,3500,,,,,,,MVFR,,,,-0.6,-11.7,0.0050,,,,,,METAR,2117.0
MMZC 220653Z 00000KT 10SM SKC 08/M02 A3023,MMZC,2015-02-22T06:53:00Z,22.9,-102.68,8.0,-2.0,0,0,,10.0,30.230314,,,,,,,,,,,SKC,,,,,,,,VFR,,,,,,,,,,,,METAR,2177.0
KBRO 220653Z 14009KT 5SM BR OVC005 20/19 A2994 RMK AO2 SLP138 T02000194 $,KBRO,2015-02-22T06:53:00Z,25.92,-97.42,20.0,19.4,140,9,,5.0,29.940945,1013.8,,,TRUE,TRUE,,,,,BR,OVC,500,,,,,,,IFR,,,,,,,,,,,,METAR,7.0
KBTM 220653Z AUTO 15005KT 10SM CLR M21/M24 A3036 RMK AO2 SLP382 T12111239 410221211,KBTM,2015-02-22T06:53:00Z,45.97,-112.5,-21.1,-23.9,150,5,,10.0,30.360237,1038.2,,TRUE,TRUE,,,,,,,CLR,,,,,,,,VFR,,,,-2.2,-21.1,,,,,,,METAR,1688.0
KBTL 220653Z 28004KT 6SM HZ BKN015 BKN023 OVC065 M03/M07 A3011 RMK AO2 SLP210 T10331067,KBTL,2015-02-22T06:53:00Z,42.32,-85.23,-3.3,-6.7,280,4,,6.0,30.109253,1021.0,,,TRUE,,,,,,HZ,BKN,1500,BKN,2300,OVC,6500,,,MVFR,,,,,,,,,,,,METAR,290.0
KBYG 220653Z AUTO 02008KT 1 1/2SM -SN BR OVC013 M13/M14 A3031 RMK AO2 SNB04 SLP335 P0000 T11281144 410171128 $,KBYG,2015-02-22T06:53:00Z,44.38,-106.72,-12.8,-14.4,20,8,,1.5,30.31004,1033.5,,TRUE,TRUE,TRUE,,,,,-SN BR,OVC,1300,,,,,,,IFR,,,,-1.7,-12.8,0.0050,,,,,,METAR,1497.0
KBUR 220653Z 19004KT 10SM BKN017 OVC023 14/10 A2990 RMK AO2 SLP117 T01440100,KBUR,2015-02-22T06:53:00Z,34.2,-118.37,14.4,10.0,190,4,,10.0,29.899607,1011.7,,,TRUE,,,,,,,BKN,1700,OVC,2300,,,,,MVFR,,,,,,,,,,,,METAR,217.0
KBTR 220653Z 19006KT 10SM FEW018 SCT070 OVC090 19/17 A3001 RMK AO2 SLP162 T01890167,KBTR,2015-02-22T06:53:00Z,30.53,-91.15,18.9,16.7,190,6,,10.0,30.008858,1016.2,,,TRUE,,,,,,,FEW,1800,SCT,7000,OVC,9000,,,VFR,,,,,,,,,,,,METAR,21.0
KWRL 220653Z AUTO 32008KT 10SM OVC100 M08/M12 A3034 RMK AO2 SLP331 T10831122 400001094,KWRL,2015-02-22T06:53:00Z,43.97,-107.95,-8.3,-12.2,320,8,,10.0,30.339567,1033.1,,TRUE,TRUE,,,,,,,OVC,10000,,,,,,,VFR,,,,,-9.4,,,,,,,METAR,1271.0
KWVI 220653Z AUTO 26004KT 10SM OVC028 14/11 A2987 RMK AO2 SLP113 T01440106,KWVI,2015-02-22T06:53:00Z,36.93,-121.78,14.4,10.6,260,4,,10.0,29.870079,1011.3,,TRUE,TRUE,,,,,,,OVC,2800,,,,,,,MVFR,,,,,,,,,,,,METAR,43.0
KVPC 220653Z AUTO 16007KT 7SM -RA OVC080 08/06 A3010 RMK AO2 SLP189 P0007 T00780061,KVPC,2015-02-22T06:53:00Z,34.13,-84.85,7.8,6.1,160,7,,7.0,30.100393,1018.9,,TRUE,TRUE,,,,,,-RA,OVC,8000,,,,,,,VFR,,,,,,0.07,,,,,,METAR,222.0
KVIH 220653Z AUTO 36013KT 7SM FEW024 M01/M03 A3021 RMK AO2 SLP241 T10061033,KVIH,2015-02-22T06:53:00Z,38.13,-91.77,-0.6,-3.3,360,13,,7.0,30.209646,1024.1,,TRUE,TRUE,,,,,,,FEW,2400,,,,,,,VFR,,,,,,,,,,,,METAR,333.0
KDBQ 220653Z AUTO 33009KT 10SM CLR M11/M16 A3026 RMK AO2 SLP265 T11111156,KDBQ,2015-02-22T06:53:00Z,42.4,-90.7,-11.1,-15.6,330,9,,10.0,30.259842,1026.5,,TRUE,TRUE,,,,,,,CLR,,,,,,,,VFR,,,,,,,,,,,,METAR,326.0
KCXO 220653Z AUTO 36004KT 10SM OVC014 16/11 A2999 RMK AO2 SLP155 T01560111,KCXO,2015-02-22T06:53:00Z,30.35,-95.42,15.6,11.1,360,4,,10.0,29.991142,1015.5,,TRUE,TRUE,,,,,,,OVC,1400,,,,,,,MVFR,,,,,,,,,,,,METAR,75.0
KCUT 220653Z AUTO 00000KT 10SM CLR M16/M22 A3020 RMK AO2 SLP312 T11611217 410391161,KCUT,2015-02-22T06:53:00Z,43.73,-103.62,-16.1,-21.7,0,0,,10.0,30.200787,1031.2,,TRUE,TRUE,,,,,,,CLR,,,,,,,,VFR,,,,-3.9,-16.1,,,,,,,METAR,1725.0
KCRQ 220653Z AUTO 20007KT 10SM OVC043 16/07 A2993 RMK AO2 SLP133 T01560072 TSNO,KCRQ,2015-02-22T06:53:00Z,33.13,-117.28,15.6,7.2,200,7,,10.0,29.929134,1013.3,,TRUE,TRUE,,,TRUE,,,,OVC,4300,,,,,,,VFR,,,,,,,,,,,,METAR,99.0
KCPR 220653Z AUTO 33006KT 10SM FEW031 OVC048 M15/M17 A3028 RMK AO2 SLP323 T11501172 410331156,KCPR,2015-02-22T06:53:00Z,42.9,-106.47,-15.0,-17.2,330,6,,10.0,30.280512,1032.3,,TRUE,TRUE,,,,,,,FEW,3100,OVC,4800,,,,,VFR,,,,-3.3,-15.6,,,,,,,METAR,1621.0
KCOT 220653Z AUTO 11008KT 8SM CLR 19/17 A2989 RMK AO2 SLP114 T01940167 $,KCOT,2015-02-22T06:53:00Z,28.45,-99.22,19.4,16.7,110,8,,8.0,29.890747,1011.4,,TRUE,TRUE,TRUE,,,,,,CLR,,,,,,,,VFR,,,,,,,,,,,,METAR,140.0
KCNY 220653Z AUTO 16007KT 10SM CLR 01/M07 A2990 RMK AO2 SLP122 T00111072 401111011,KCNY,2015-02-22T06:53:00Z,38.77,-109.75,1.1,-7.2,160,7,,10.0,29.899607,1012.2,,TRUE,TRUE,,,,,,,CLR,,,,,,,,VFR,,,,11.1,-1.1,,,,,,,METAR,1390.0
KCNO 220653Z AUTO 25008KT 10SM OVC038 14/09 A2993 RMK AO2 SLP131 T01390094,KCNO,2015-02-22T06:53:00Z,33.98,-117.62,13.9,9.4,250,8,,10.0,29.929134,1013.1,,TRUE,TRUE,,,,,,,OVC,3800,,,,,,,VFR,,,,,,,,,,,,METAR,207.0
KCMX 220653Z AUTO 01010KT 3SM HZ OVC012 M18/M22 A3019 RMK AO2 SNE0559B18E36 SLP252 P0000 T11831217,KCMX,2015-02-22T06:53:00Z,47.17,-88.48,-18.3,-21.7,10,10,,3.0,30.188976,1025.2,,TRUE,TRUE,,,,,,HZ,OVC,1200,,,,,,,MVFR,,,,,,0.0050,,,,,,METAR,326.0
KCMI 220653Z AUTO 32012KT 6SM HZ OVC021 M02/M04 A3021 RMK AO2 SLP238 T10171044,KCMI,2015-02-22T06:53:00Z,40.03,-88.27,-1.7,-4.4,320,12,,6.0,30.209646,1023.8,,TRUE,TRUE,,,,,,HZ,OVC,2100,,,,,,,MVFR,,,,,,,,,,,,METAR,228.0
KCLL 220653Z 06004KT 10SM SCT027 13/08 A2999 RMK AO2 SLP152 T01330078,KCLL,2015-02-22T06:53:00Z,30.58,-96.37,13.3,7.8,60,4,,10.0,29.991142,1015.2,,,TRUE,,,,,,,SCT,2700,,,,,,,VFR,,,,,,,,,,,,METAR,96.0
KCHA 220653Z 00000KT 1 3/4SM BR OVC011 04/04 A3008 RMK AO2 RAE14 SLP189 P0001 T00440039 $,KCHA,2015-02-22T06:53:00Z,35.03,-85.2,4.4,3.9,0,0,,1.75,30.079725,1018.9,,,TRUE,TRUE,,,,,BR,OVC,1100,,,,,,,IFR,,,,,,0.01,,,,,,METAR,210.0
KCGI 220653Z AUTO 00000KT 1/4SM FZFG VV003 M04/M04 A3022 RMK AO2 SLP237 T10391039 TSNO RVRNO,KCGI,2015-02-22T06:53:00Z,37.23,-89.58,-3.9,-3.9,0,0,,0.25,30.221457,1023.7,,TRUE,TRUE,,,TRUE,,,FZFG,OVX,0,,,,,,,LIFR,,,,,,,,,,,300,METAR,102.0
KCEZ 220653Z AUTO 00000KT 2 1/2SM -SN BR OVC026 01/00 A2998 RMK AO2 SLP133 P0000 T00060000 400891072,KCEZ,2015-02-22T06:53:00Z,37.3,-108.63,0.6,0.0,0,0,,2.5,29.97933,1013.3,,TRUE,TRUE,,,,,,-SN BR,OVC,2600,,,,,,,IFR,,,,8.9,-7.2,0.0050,,,,,,METAR,1797.0
KCDR 220653Z AUTO 02005KT 10SM OVC032 M09/M14 A3040 RMK AO2 SLP352 T10891139 400061089,KCDR,2015-02-22T06:53:00Z,42.83,-103.1,-8.9,-13.9,20,5,,10.0,30.398623,1035.2,,TRUE,TRUE,,,,,,,OVC,3200,,,,,,,VFR,,,,0.6,-8.9,,,,,,,METAR,1010.0
KCDC 220653Z AUTO 36004KT 10SM OVC048 02/M09 A2989 RMK AO2 SLP108 T00221094 401111056,KCDC,2015-02-22T06:53:00Z,37.7,-113.1,2.2,-9.4,360,4,,10.0,29.890747,1010.8,,TRUE,TRUE,,,,,,,OVC,4800,,,,,,,VFR,,,,11.1,-5.6,,,,,,,METAR,1714.0
KCCR 220653Z 00000KT 9SM CLR 11/08 A2984 RMK AO2 SLP092 T01060078,KCCR,2015-02-22T06:53:00Z,38.0,-122.05,10.6,7.8,0,0,,9.0,29.840551,1009.2,,,TRUE,,,,,,,CLR,,,,,,,,VFR,,,,,,,,,,,,METAR,11.0
KCAG 220653Z AUTO A3001 RMK AO2 SLPNO 400281050 PWINO $,KCAG,2015-02-22T06:53:00Z,40.5,-107.52,,,,,,,30.008858,,,TRUE,TRUE,TRUE,,,,TRUE,,,,,,,,,,,,,,2.8,-5.0,,,,,,,METAR,1887.0
KBYI 220653Z AUTO 09014G21KT 10SM CLR M04/M13 A3016 RMK AO2 SLP231 T10391133 400781039,KBYI,2015-02-22T06:53:00Z,42.55,-113.77,-3.9,-13.3,90,14,21,10.0,30.159449,1023.1,,TRUE,TRUE,,,,,,,CLR,,,,,,,,VFR,,,,7.8,-3.9,,,,,,,METAR,1264.0
KLND 220653Z AUTO 02006KT 3SM -SN BR FEW017 SCT036 OVC046 M12/M13 A3025 RMK AO2 SLP310 P0000 T11171133 410111117,KLND,2015-02-22T06:53:00Z,42.82,-108.73,-11.7,-13.3,20,6,,3.0,30.250984,1031.0,,TRUE,TRUE,,,,,,-SN BR,FEW,1700,SCT,3600,OVC,4600,,,MVFR,,,,-1.1,-11.7,0.0050,,,,,,METAR,1694.0
KLOL 220653Z AUTO 07008KT 10SM CLR 01/M04 A3001 RMK AO2 SLP165 T00111044,KLOL,2015-02-22T06:53:00Z,40.07,-118.57,1.1,-4.4,70,8,,10.0,30.008858,1016.5,,TRUE,TRUE,,,,,,,CLR,,,,,,,,VFR,,,,,,,,,,,,METAR,1189.0
KLSE 220653Z AUTO 33008KT 10SM CLR M13/M19 A3032 RMK AO2 SLP286 T11281194,KLSE,2015-02-22T06:53:00Z,43.88,-91.25,-12.8,-19.4,330,8,,10.0,30.318897,1028.6,,TRUE,TRUE,,,,,,,CLR,,,,,,,,VFR,,,,,,,,,,,,METAR,199.0
KLVK 220653Z AUTO 00000KT 9SM CLR 11/08 A2983 RMK AO2 SLP100 T01110083,KLVK,2015-02-22T06:53:00Z,37.7,-121.82,11.1,8.3,0,0,,9.0,29.828741,1010.0,,TRUE,TRUE,,,,,,,CLR,,,,,,,,VFR,,,,,,,,,,,,METAR,117.0
KLVJ 220653Z AUTO 19003KT 4SM -RA BR OVC006 19/19 A2999 RMK AO2 RAB13 SLP153 P0001 T01940189,KLVJ,2015-02-22T06:53:00Z,29.52,-95.25,19.4,18.9,190,3,,4.0,29.991142,1015.3,,TRUE,TRUE,,,,,,-RA BR,OVC,600,,,,,,,IFR,,,,,,0.01,,,,,,METAR,12.0
KLWD 220653Z AUTO 36017G23KT 10SM CLR M09/M17 A3035 RMK AO2 SLP292 T10891167,KLWD,2015-02-22T06:53:00Z,40.63,-93.9,-8.9,-16.7,360,17,23,10.0,30.351377,1029.2,,TRUE,TRUE,,,,,,,CLR,,,,,,,,VFR,,,,,,,,,,,,METAR,346.0
KLVM 220653Z AUTO 00000KT 10SM BKN019 OVC024 M14/M19 A3040 RMK AO2 SLP373 T11441194 410171144,KLVM,2015-02-22T06:53:00Z,45.7,-110.43,-14.4,-19.4,0,0,,10.0,30.398623,1037.3,,TRUE,TRUE,,,,,,,BKN,1900,OVC,2400,,,,,MVFR,,,,-1.7,-14.4,,,,,,,METAR,1418.0
KLXT 220653Z AUTO 36010KT 10SM CLR M03/M08 A3034 RMK AO2 SLP283 T10331078,KLXT,2015-02-22T06:53:00Z,38.97,-94.37,-3.3,-7.8,360,10,,10.0,30.339567,1028.3,,TRUE,TRUE,,,,,,,CLR,,,,,,,,VFR,,,,,,,,,,,,METAR,306.0
KSRQ 220653Z 10005KT 10SM CLR 14/12 A3016 RMK AO2 SLP211 T01440122,KSRQ,2015-02-22T06:53:00Z,27.4,-82.57,14.4,12.2,100,5,,10.0,30.159449,1021.1,,,TRUE,,,,,,,CLR,,,,,,,,VFR,,,,,,,,,,,,METAR,18.0
KRHI 220653Z AUTO 32004KT 10SM CLR M18/M21 A3016 RMK AO2 SNE02 SLP252 P0000 I1000 T11831211,KRHI,2015-02-22T06:53:00Z,45.63,-89.48,-18.3,-21.1,320,4,,10.0,30.159449,1025.2,,TRUE,TRUE,,,,,,,CLR,,,,,,,,VFR,,,,,,0.0050,,,,,,METAR,485.0
KRIL 220653Z AUTO 14003KT 10SM CLR M05/M07 A2997 RMK AO2 SLP169 T10501072 400391050,KRIL,2015-02-22T06:53:00Z,39.53,-107.73,-5.0,-7.2,140,3,,10.0,29.970472,1016.9,,TRUE,TRUE,,,,,,,CLR,,,,,,,,VFR,,,,3.9,-5.0,,,,,,,METAR,1678.0
KRIW 220653Z AUTO 00000KT 7SM -SN FEW021 OVC027 M12/M14 A3027 RMK AO2 SNB23 SLP317 P0000 T11171144 410221122,KRIW,2015-02-22T06:53:00Z,43.07,-108.47,-11.7,-14.4,0,0,,7.0,30.268702,1031.7,,TRUE,TRUE,,,,,,-SN,FEW,2100,OVC,2700,,,,,MVFR,,,,-2.2,-12.2,0.0050,,,,,,METAR,1697.0
KSTC 220653Z AUTO 32010KT 10SM CLR M21/M26 A3041 RMK AO2 SLP334 T12111256,KSTC,2015-02-22T06:53:00Z,45.55,-94.05,-21.1,-25.6,320,10,,10.0,30.410433,1033.4,,TRUE,TRUE,,,,,,,CLR,,,,,,,,VFR,,,,,,,,,,,,METAR,314.0
KSSF 220653Z AUTO 05012G20KT 10SM OVC014 15/08 A2995 RMK AO2 SLP138 T01500083,KSSF,2015-02-22T06:53:00Z,29.33,-98.47,15.0,8.3,50,12,20,10.0,29.949802,1013.8,,TRUE,TRUE,,,,,,,OVC,1400,,,,,,,MVFR,,,,,,,,,,,,METAR,176.0
KSTJ 220653Z AUTO 35012KT 10SM CLR M04/M11 A3040 RMK AO2 SLP303 T10441106,KSTJ,2015-02-22T06:53:00Z,39.77,-94.92,-4.4,-10.6,350,12,,10.0,30.398623,1030.3,,TRUE,TRUE,,,,,,,CLR,,,,,,,,VFR,,,,,,,,,,,,METAR,247.0
KSTP 220653Z AUTO 31013KT 10SM CLR M18/M24 A3042 RMK AO2 SLP316 T11781239,KSTP,2015-02-22T06:53:00Z,44.93,-93.05,-17.8,-23.9,310,13,,10.0,30.41929,1031.6,,TRUE,TRUE,,,,,,,CLR,,,,,,,,VFR,,,,,,,,,,,,METAR,219.0
KJEF 220653Z AUTO 01007KT 10SM BKN018 M02/M06 A3030 RMK AO2 SLP257 T10171061,KJEF,2015-02-22T06:53:00Z,38.6,-92.15,-1.7,-6.1,10,7,,10.0,30.301182,1025.7,,TRUE,TRUE,,,,,,,BKN,1800,,,,,,,MVFR,,,,,,,,,,,,METAR,168.0
KIXD 220653Z AUTO 01018G24KT 10SM FEW120 M03/M08 A3035 RMK AO2 SLP282 T10331083,KIXD,2015-02-22T06:53:00Z,38.82,-94.88,-3.3,-8.3,10,18,24,10.0,30.351377,1028.2,,TRUE,TRUE,,,,,,,FEW,12000,,,,,,,VFR,,,,,,,,,,,,METAR,342.0
KITR 220653Z AUTO 02018KT 1/2SM SN FZFG VV013 M08/M10 A3027 RMK AO2 PK WND 03026/0642 SNEMMB37 SLP279 P0000 T10831100 400331083 $,KITR,2015-02-22T06:53:00Z,39.23,-102.28,-8.3,-10.0,20,18,,0.5,30.268702,1027.9,,TRUE,TRUE,TRUE,,,,,SN FZFG,OVX,0,,,,,,,LIFR,,,,3.3,-8.3,0.0050,,,,,1300,METAR,1279.0
KIPL 220653Z AUTO 26019G30KT 7SM CLR 17/06 A2976 RMK AO2 PK WND 26030/0651 SLP077 T01670061,KIPL,2015-02-22T06:53:00Z,32.83,-115.58,16.7,6.1,260,19,30,7.0,29.760826,1007.7,,TRUE,TRUE,,,,,,,CLR,,,,,,,,VFR,,,,,,,,,,,,METAR,-17.0
KRKP 220653Z AUTO 17008KT 4SM BR SCT004 OVC021 19/18 A2994 RMK AO2 SLP140 T01940183,KRKP,2015-02-22T06:53:00Z,28.08,-97.05,19.4,18.3,170,8,,4.0,29.940945,1014.0,,TRUE,TRUE,,,,,,BR,SCT,400,OVC,2100,,,,,MVFR,,,,,,,,,,,,METAR,6.0
KICR 220653Z AUTO 33007KT 10SM CLR M15/M20 A3048 RMK AO2 SLP360 T11501200,KICR,2015-02-22T06:53:00Z,43.38,-99.85,-15.0,-20.0,330,7,,10.0,30.481298,1036.0,,TRUE,TRUE,,,,,,,CLR,,,,,,,,VFR,,,,,,,,,,,,METAR,621.0
KIAH 220653Z 17004KT 3SM BR BKN005 OVC015 19/19 A2997 RMK AO2 SFC VIS 5 SLP149 T01940189,KIAH,2015-02-22T06:53:00Z,30.0,-95.37,19.4,18.9,170,4,,3.0,29.970472,1014.9,,,TRUE,,,,,,BR,BKN,500,OVC,1500,,,,,IFR,,,,,,,,,,,,METAR,36.0
KHYR 220653Z AUTO 33004KT 10SM CLR M18/M25 A3029 RMK AO2 SLP288 T11831250,KHYR,2015-02-22T06:53:00Z,46.02,-91.45,-18.3,-25.0,330,4,,10.0,30.28937,1028.8,,TRUE,TRUE,,,,,,,CLR,,,,,,,,VFR,,,,,,,,,,,,METAR,370.0
KHWO 220653Z AUTO 13008KT 10SM SCT055 OVC080 22/17 A3018 RMK AO2 SLP221 T02170167,KHWO,2015-02-22T06:53:00Z,26.0,-80.23,21.7,16.7,130,8,,10.0,30.180119,1022.1,,TRUE,TRUE,,,,,,,SCT,5500,OVC,8000,,,,,VFR,,,,,,,,,,,,METAR,2.0
KRMG 220653Z AUTO 00000KT 4SM -RA BR OVC006 06/06 A3010 RMK AO2 SLP191 P0004 T00610061,KRMG,2015-02-22T06:53:00Z,34.35,-85.17,6.1,6.1,0,0,,4.0,30.100393,1019.1,,TRUE,TRUE,,,,,,-RA BR,OVC,600,,,,,,,IFR,,,,,,0.04,,,,,,METAR,193.0
KIDA 220653Z AUTO 01020G24KT 10SM CLR M07/M17 A3020 RMK AO2 PK WND 01033/0623 SLP254 T10671167 400611067,KIDA,2015-02-22T06:53:00Z,43.52,-112.07,-6.7,-16.7,10,20,24,10.0,30.200787,1025.4,,TRUE,TRUE,,,,,,,CLR,,,,,,,,VFR,,,,6.1,-6.7,,,,,,,METAR,1453.0
KICT 220653Z 04017G24KT 1 1/4SM -SN BR BKN013 BKN018 OVC032 M02/M04 A3029 RMK AO2 TWR VIS 1 3/4 SLP263 P0000 T10171039,KICT,2015-02-22T06:53:00Z,37.65,-97.43,-1.7,-3.9,40,17,24,1.25,30.28937,1026.3,,,TRUE,,,,,,-SN BR,BKN,1300,BKN,1800,OVC,3200,,,IFR,,,,,,0.0050,,,,,,METAR,407.0
KJER 220653Z AUTO 06023G29KT 10SM OVC075 M03/M14 A3015 RMK AO2 PK WND 06032/0640 SLP232 T10281139 400671028,KJER,2015-02-22T06:53:00Z,42.72,-114.45,-2.8,-13.9,60,23,29,10.0,30.15059,1023.2,,TRUE,TRUE,,,,,,,OVC,7500,,,,,,,VFR,,,,6.7,-2.8,,,,,,,METAR,1222.0
KRSL 220653Z AUTO 03021G27KT 10SM FEW039 OVC055 M04/M11 A3034 RMK AO2 PK WND 02033/0626 SNB0554E37 SLP288 P0000 T10391106,KRSL,2015-02-22T06:53:00Z,38.87,-98.82,-3.9,-10.6,30,21,27,10.0,30.339567,1028.8,,TRUE,TRUE,,,,,,,FEW,3900,OVC,5500,,,,,VFR,,,,,,0.0050,,,,,,METAR,567.0
KRSW 220653Z AUTO 10003KT 10SM CLR 16/14 A3016 RMK AO2 SLP211 T01610139,KRSW,2015-02-22T06:53:00Z,26.53,-81.75,16.1,13.9,100,3,,10.0,30.159449,1021.1,,TRUE,TRUE,,,,,,,CLR,,,,,,,,VFR,,,,,,,,,,,,METAR,10.0
KRVS 220653Z 04007KT 10SM CLR 06/02 A3021 RMK AO2 SLP235 T00560022,KRVS,2015-02-22T06:53:00Z,36.05,-95.98,5.6,2.2,40,7,,10.0,30.209646,1023.5,,,TRUE,,,,,,,CLR,,,,,,,,VFR,,,,,,,,,,,,METAR,200.0
PAVL 220653Z AUTO 09012KT 1 1/4SM -SN BR FEW008 OVC015 00/M01 A2961 RMK SLP028 P0003 T00001006 TSNO VIA AUTODIAL,PAVL,2015-02-22T06:53:00Z,67.73,-164.55,0.0,-0.6,90,12,,1.25,29.610237,1002.8,,TRUE,,,,TRUE,,,-SN BR,FEW,800,OVC,1500,,,,,IFR,,,,,,0.03,,,,,,METAR,3.0
PAWI 220653Z AUTO 05024G28KT 1SM -SN OVC032 M16/M18 A3004 RMK PK WND 05029/0632 UPB0556E04SNE0556B04 SLP175 P0000 T11561183 TSNO $ VIA AUTODIAL,PAWI,2015-02-22T06:53:00Z,70.62,-159.85,-15.6,-18.3,50,24,28,1.0,30.041338,1017.5,,TRUE,,TRUE,,TRUE,,,-SN,OVC,3200,,,,,,,IFR,,,,,,0.0050,,,,,,METAR,27.0
KMSP 220653Z 31012KT 10SM CLR M19/M24 A3041 RMK AO2 SLP317 T11891244,KMSP,2015-02-22T06:53:00Z,44.88,-93.23,-18.9,-24.4,310,12,,10.0,30.410433,1031.7,,,TRUE,,,,,,,CLR,,,,,,,,VFR,,,,,,,,,,,,METAR,265.0
KSNA 220653Z 20004KT 10SM FEW028 BKN050 17/09 A2992 RMK AO2 SLP132 T01720089,KSNA,2015-02-22T06:53:00Z,33.67,-117.87,17.2,8.9,200,4,,10.0,29.920275,1013.2,,,TRUE,,,,,,,FEW,2800,BKN,5000,,,,,VFR,,,,,,,,,,,,METAR,16.0
KSMF 220653Z 32004KT 3SM BR BCFG BKN021 08/07 A2985 RMK AO2 SLP108 T00830072,KSMF,2015-02-22T06:53:00Z,38.7,-121.6,8.3,7.2,320,4,,3.0,29.84941,1010.8,,,TRUE,,,,,,BR BCFG,BKN,2100,,,,,,,MVFR,,,,,,,,,,,,METAR,6.0
KSLN 220653Z 03016G22KT 10SM BKN050 OVC070 M02/M11 A3037 RMK AO2 SLP291 T10221106,KSLN,2015-02-22T06:53:00Z,38.78,-97.65,-2.2,-10.6,30,16,22,10.0,30.369095,1029.1,,,TRUE,,,,,,,BKN,5000,OVC,7000,,,,,VFR,,,,,,,,,,,,METAR,385.0
KSLC 220653Z 24004KT 10SM FEW055 FEW070 01/M02 A2999 RMK AO2 SLP156 T00061017 400781006 $,KSLC,2015-02-22T06:53:00Z,40.77,-111.97,0.6,-1.7,240,4,,10.0,29.991142,1015.6,,,TRUE,TRUE,,,,,,FEW,5500,FEW,7000,,,,,VFR,,,,7.8,-0.6,,,,,,,METAR,1286.0
KSJC 220653Z 09003KT 10SM OVC020 13/09 A2984 RMK AO2 SLP105 T01330094,KSJC,2015-02-22T06:53:00Z,37.37,-121.92,13.3,9.4,90,3,,10.0,29.840551,1010.5,,,TRUE,,,,,,,OVC,2000,,,,,,,MVFR,,,,,,,,,,,,METAR,24.0
KSIY 220653Z AUTO 03014KT 10SM CLR 04/M06 A3013 RMK AO2 PK WND 03026/0556 SLP217 T00441061,KSIY,2015-02-22T06:53:00Z,41.77,-122.47,4.4,-6.1,30,14,,10.0,30.129921,1021.7,,TRUE,TRUE,,,,,,,CLR,,,,,,,,VFR,,,,,,,,,,,,METAR,807.0
KSHR 220653Z AUTO 34006KT 2SM -SN BR BKN014 OVC031 M10/M12 A3041 RMK AO2 SLP362 P0001 T11001122 400001100,KSHR,2015-02-22T06:53:00Z,44.77,-106.97,-10.0,-12.2,340,6,,2.0,30.410433,1036.2,,TRUE,TRUE,,,,,,-SN BR,BKN,1400,OVC,3100,,,,,IFR,,,,,-10.0,0.01,,,,,,METAR,1202.0
KSGR 220653Z AUTO 20004KT 5SM BR BKN010 BKN015 OVC027 19/19 A2997 RMK AO2 SLP151 T01940189,KSGR,2015-02-22T06:53:00Z,29.62,-95.65,19.4,18.9,200,4,,5.0,29.970472,1015.1,,TRUE,TRUE,,,,,,BR,BKN,1000,BKN,1500,OVC,2700,,,MVFR,,,,,,,,,,,,METAR,2.0
KSDM 220653Z AUTO 25005KT 10SM SCT020 OVC042 14/10 A2995 RMK AO2 SLP138 T01440100,KSDM,2015-02-22T06:53:00Z,32.58,-117.0,14.4,10.0,250,5,,10.0,29.949802,1013.8,,TRUE,TRUE,,,,,,,SCT,2000,OVC,4200,,,,,VFR,,,,,,,,,,,,METAR,159.0
KSBM 220653Z AUTO 35008KT 10SM OVC044 M08/M12 A3018 RMK AO2 SLP232 T10831117,KSBM,2015-02-22T06:53:00Z,43.78,-87.85,-8.3,-11.7,350,8,,10.0,30.180119,1023.2,,TRUE,TRUE,,,,,,,OVC,4400,,,,,,,VFR,,,,,,,,,,,,METAR,232.0
KSBA 220653Z AUTO 26005KT 10SM OVC031 15/11 A2989 RMK AO2 SLP122 T01500106,KSBA,2015-02-22T06:53:00Z,34.43,-119.85,15.0,10.6,260,5,,10.0,29.890747,1012.2,,TRUE,TRUE,,,,,,,OVC,3100,,,,,,,VFR,,,,,,,,,,,,METAR,3.0
KSAC 220653Z AUTO 00000KT 5SM BR CLR 09/08 A2985 RMK AO2 SLP107 T00940078,KSAC,2015-02-22T06:53:00Z,38.5,-121.5,9.4,7.8,0,0,,5.0,29.84941,1010.7,,TRUE,TRUE,,,,,,BR,CLR,,,,,,,,MVFR,,,,,,,,,,,,METAR,11.0
KRXE 220653Z AUTO 02012G20KT 10SM CLR M09/M17 A3020 RMK AO2 SLP263 T10891167 400331089,KRXE,2015-02-22T06:53:00Z,43.83,-111.8,-8.9,-16.7,20,12,20,10.0,30.200787,1026.3,,TRUE,TRUE,,,,,,,CLR,,,,,,,,VFR,,,,3.3,-8.9,,,,,,,METAR,1480.0
KRWL 220653Z AUTO 05014KT 6SM -SN BKN029 OVC050 M13/M16 A3013 RMK AO2 SLP263 P0000 T11281156 410221128,KRWL,2015-02-22T06:53:00Z,41.78,-107.2,-12.8,-15.6,50,14,,6.0,30.129921,1026.3,,TRUE,TRUE,,,,,,-SN,BKN,2900,OVC,5000,,,,,MVFR,,,,-2.2,-12.8,0.0050,,,,,,METAR,2077.0
KRWI 220653Z AUTO 01004KT 2 1/2SM BR OVC008 06/06 A3019 RMK AO2 SLP225 T00610056,KRWI,2015-02-22T06:53:00Z,35.85,-77.9,6.1,5.6,10,4,,2.5,30.188976,1022.5,,TRUE,TRUE,,,,,,BR,OVC,800,,,,,,,IFR,,,,,,,,,,,,METAR,47.0
KRWF 220653Z AUTO 34011G17KT 10SM CLR M18/M22 A3046 RMK AO2 SLP339 T11781222,KRWF,2015-02-22T06:53:00Z,44.55,-95.08,-17.8,-22.2,340,11,17,10.0,30.46063,1033.9,,TRUE,TRUE,,,,,,,CLR,,,,,,,,VFR,,,,,,,,,,,,METAR,311.0
KSNS 220653Z 31004KT 10SM OVC027 15/10 A2986 RMK AO2 SLP121 T01500100,KSNS,2015-02-22T06:53:00Z,36.67,-121.6,15.0,10.0,310,4,,10.0,29.861221,1012.1,,,TRUE,,,,,,,OVC,2700,,,,,,,MVFR,,,,,,,,,,,,METAR,30.0
KSPW 220653Z AUTO 35010KT 10SM CLR M15/M20 A3042 RMK AO2 SLP329 T11501200 TSNO,KSPW,2015-02-22T06:53:00Z,43.17,-95.22,-15.0,-20.0,350,10,,10.0,30.41929,1032.9,,TRUE,TRUE,,,TRUE,,,,CLR,,,,,,,,VFR,,,,,,,,,,,,METAR,403.0
KSNY 220653Z AUTO 04007KT 1 1/2SM -SN BR OVC025 M09/M12 A3032 RMK AO2 SLP313 P0001 T10941117 400111094,KSNY,2015-02-22T06:53:00Z,41.1,-102.98,-9.4,-11.7,40,7,,1.5,30.318897,1031.3,,TRUE,TRUE,,,,,,-SN BR,OVC,2500,,,,,,,IFR,,,,1.1,-9.4,0.01,,,,,,METAR,1307.0
KSPG 220653Z AUTO 00000KT 10SM BKN060 15/13 A3016 RMK AO2 SLP212 T01500128,KSPG,2015-02-22T06:53:00Z,27.77,-82.63,15.0,12.8,0,0,,10.0,30.159449,1021.2,,TRUE,TRUE,,,,,,,BKN,6000,,,,,,,VFR,,,,,,,,,,,,METAR,2.0
KMYF 220653Z AUTO 23007KT 10SM OVC042 15/08 A2995 RMK AO2 SLP139 T01500083 TSNO,KMYF,2015-02-22T06:53:00Z,32.82,-117.13,15.0,8.3,230,7,,10.0,29.949802,1013.9,,TRUE,TRUE,,,TRUE,,,,OVC,4200,,,,,,,VFR,,,,,,,,,,,,METAR,136.0
KMTJ 220653Z AUTO 21003KT 10SM CLR M02/M07 A2995 RMK AO2 SLP129 T10221067 400831044,KMTJ,2015-02-22T06:53:00Z,38.5,-107.9,-2.2,-6.7,210,3,,10.0,29.949802,1012.9,,TRUE,TRUE,,,,,,,CLR,,,,,,,,VFR,,,,8.3,-4.4,,,,,,,METAR,1750.0
KMTH 220653Z AUTO 12008KT 10SM BKN028 21/18 A3013 RMK AO2 SLP203 T02110183,KMTH,2015-02-22T06:53:00Z,24.73,-81.05,21.1,18.3,120,8,,10.0,30.129921,1020.3,,TRUE,TRUE,,,,,,,BKN,2800,,,,,,,MVFR,,,,,,,,,,,,METAR,2.0
KMSY 220653Z 18004KT 9SM BKN065 BKN150 16/14 A3004 RMK AO2 SLP174 T01610144 $,KMSY,2015-02-22T06:53:00Z,30.0,-90.25,16.1,14.4,180,4,,9.0,30.041338,1017.4,,,TRUE,TRUE,,,,,,BKN,6500,BKN,15000,,,,,VFR,,,,,,,,,,,,METAR,5.0
KONO 220653Z AUTO 35012KT 10SM CLR 03/M07 A3022 RMK AO2 SLP247 T00281072 401170000,KONO,2015-02-22T06:53:00Z,44.02,-117.02,2.8,-7.2,350,12,,10.0,30.221457,1024.7,,TRUE,TRUE,,,,,,,CLR,,,,,,,,VFR,,,,11.7,,,,,,,,METAR,667.0
KOLF 220653Z AUTO 36007KT 10SM CLR M19/M24 A3065 RMK AO2 SLP430 T11891239 410611189,KOLF,2015-02-22T06:53:00Z,48.1,-105.58,-18.9,-23.9,360,7,,10.0,30.649607,1043.0,,TRUE,TRUE,,,,,,,CLR,,,,,,,,VFR,,,,-6.1,-18.9,,,,,,,METAR,604.0
KOJC 220653Z AUTO 01014G20KT 10SM CLR M03/M08 A3033 RMK AO2 SLP278 T10281083,KOJC,2015-02-22T06:53:00Z,38.85,-94.73,-2.8,-8.3,10,14,20,10.0,30.33071,1027.8,,TRUE,TRUE,,,,,,,CLR,,,,,,,,VFR,,,,,,,,,,,,METAR,326.0
KOGD 220653Z AUTO 07015KT 10SM OVC085 01/M08 A3000 RMK AO2 SLP159 T00061083 400440000 TSNO,KOGD,2015-02-22T06:53:00Z,41.2,-112.02,0.6,-8.3,70,15,,10.0,30.0,1015.9,,TRUE,TRUE,,,TRUE,,,,OVC,8500,,,,,,,VFR,,,,4.4,,,,,,,,METAR,1353.0
KOAK 220653Z 00000KT 10SM FEW200 11/09 A2984 RMK AO2 SLP105 T01110089,KOAK,2015-02-22T06:53:00Z,37.72,-122.23,11.1,8.9,0,0,,10.0,29.840551,1010.5,,,TRUE,,,,,,,FEW,20000,,,,,,,VFR,,,,,,,,,,,,METAR,26.0
KNEW 220653Z 19004KT 10SM FEW065 17/14 A3004 RMK AO2 SLP166 T01720144,KNEW,2015-02-22T06:53:00Z,30.05,-90.03,17.2,14.4,190,4,,10.0,30.041338,1016.6,,,TRUE,,,,,,,FEW,6500,,,,,,,VFR,,,,,,,,,,,,METAR,3.0
KMYV 220653Z AUTO 33007KT 4SM BR FEW120 08/07 A2986 RMK AO2 SLP115 T00830072,KMYV,2015-02-22T06:53:00Z,39.1,-121.57,8.3,7.2,330,7,,4.0,29.861221,1011.5,,TRUE,TRUE,,,,,,BR,FEW,12000,,,,,,,MVFR,,,,,,,,,,,,METAR,21.0
KPBI 220653Z 15013KT 10SM FEW030 SCT090 22/16 A3017 RMK AO2 SLP214 T02170161,KPBI,2015-02-22T06:53:00Z,26.68,-80.1,21.7,16.1,150,13,,10.0,30.171259,1021.4,,,TRUE,,,,,,,FEW,3000,SCT,9000,,,,,VFR,,,,,,,,,,,,METAR,6.0
KOVS 220653Z AUTO 32007KT 10SM CLR M09/M17 A3030 RMK AO2 SLP272 T10941172,KOVS,2015-02-22T06:53:00Z,43.15,-90.68,-9.4,-17.2,320,7,,10.0,30.301182,1027.2,,TRUE,TRUE,,,,,,,CLR,,,,,,,,VFR,,,,,,,,,,,,METAR,202.0
KOVE 220653Z AUTO 31009KT 3SM BR CLR 09/07 A2988 RMK AO2 SLP120 T00890072,KOVE,2015-02-22T06:53:00Z,39.5,-121.62,8.9,7.2,310,9,,3.0,29.878937,1012.0,,TRUE,TRUE,,,,,,BR,CLR,,,,,,,,MVFR,,,,,,,,,,,,METAR,58.0
KOTM 220653Z AUTO 33011KT 10SM CLR M10/M15 A3033 RMK AO2 SLP284 T11001150,KOTM,2015-02-22T06:53:00Z,41.1,-92.45,-10.0,-15.0,330,11,,10.0,30.33071,1028.4,,TRUE,TRUE,,,,,,,CLR,,,,,,,,VFR,,,,,,,,,,,,METAR,256.0
KOSH 220653Z 33009KT 10SM OVC043 M09/M16 A3020 RMK AO2 SLP250 T10941161,KOSH,2015-02-22T06:53:00Z,43.97,-88.55,-9.4,-16.1,330,9,,10.0,30.200787,1025.0,,,TRUE,,,,,,,OVC,4300,,,,,,,VFR,,,,,,,,,,,,METAR,248.0
KORL 220653Z 14004KT 10SM CLR 14/12 A3020 RMK AO2 SLP231 T01390122,KORL,2015-02-22T06:53:00Z,28.55,-81.33,13.9,12.2,140,4,,10.0,30.200787,1023.1,,,TRUE,,,,,,,CLR,,,,,,,,VFR,,,,,,,,,,,,METAR,37.0
KORB 220653Z AUTO 31004KT 10SM BKN024 M26/M29 A3029 RMK AO2,KORB,2015-02-22T06:53:00Z,48.02,-92.87,-26.0,-29.0,310,4,,10.0,30.28937,,,TRUE,TRUE,,,,,,,BKN,2400,,,,,,,MVFR,,,,,,,,,,,,METAR,397.0
KOPF 220653Z AUTO 13008KT 10SM SCT060 OVC080 21/17 A3017 RMK AO2 SLP218 T02060167,KOPF,2015-02-22T06:53:00Z,25.92,-80.28,20.6,16.7,130,8,,10.0,30.171259,1021.8,,TRUE,TRUE,,,,,,,SCT,6000,OVC,8000,,,,,VFR,,,,,,,,,,,,METAR,16.0
KONT 220653Z 26007KT 9SM FEW036 OVC050 13/09 A2991 RMK AO2 SLP124 T01330089,KONT,2015-02-22T06:53:00Z,34.05,-117.58,13.3,8.9,260,7,,9.0,29.911417,1012.4,,,TRUE,,,,,,,FEW,3600,OVC,5000,,,,,VFR,,,,,,,,,,,,METAR,274.0
KFTW 220653Z 04010KT 9SM BKN016 09/04 A3001 RMK AO2 SLP161 T00890044,KFTW,2015-02-22T06:53:00Z,32.83,-97.37,8.9,4.4,40,10,,9.0,30.008858,1016.1,,,TRUE,,,,,,,BKN,1600,,,,,,,MVFR,,,,,,,,,,,,METAR,214.0
KAGC 220653Z AUTO 26004KT 1 1/2SM BR OVC003 01/M01 A3004 RMK AO2 SLP190 T00061011 TSNO,KAGC,2015-02-22T06:53:00Z,40.35,-79.92,0.6,-1.1,260,4,,1.5,30.041338,1019.0,,TRUE,TRUE,,,TRUE,,,BR,OVC,300,,,,,,,LIFR,,,,,,,,,,,,METAR,389.0
KAFW 220653Z 05008KT 10SM OVC023 08/04 A3003 RMK AO2 SLP170 T00830044,KAFW,2015-02-22T06:53:00Z,32.97,-97.32,8.3,4.4,50,8,,10.0,30.029528,1017.0,,,TRUE,,,,,,,OVC,2300,,,,,,,MVFR,,,,,,,,,,,,METAR,233.0
KADG 220653Z AUTO 24003KT 5SM BR SCT034 OVC060 M09/M11 A3014 RMK AO2 SLP222 T10941106 TSNO,KADG,2015-02-22T06:53:00Z,41.87,-84.08,-9.4,-10.6,240,3,,5.0,30.138779,1022.2,,TRUE,TRUE,,,TRUE,,,BR,SCT,3400,OVC,6000,,,,,MVFR,,,,,,,,,,,,METAR,241.0
KFXE 220653Z AUTO 12013KT 10SM FEW023 OVC085 22/17 A3017 RMK AO2 SLP220 T02170172 TSNO,KFXE,2015-02-22T06:53:00Z,26.2,-80.18,21.7,17.2,120,13,,10.0,30.171259,1022.0,,TRUE,TRUE,,,TRUE,,,,FEW,2300,OVC,8500,,,,,VFR,,,,,,,,,,,,METAR,6.0
KFUL 220653Z 22004KT 10SM OVC050 16/09 A2991 RMK AO2 SLP128 T01560089,KFUL,2015-02-22T06:53:00Z,33.87,-117.98,15.6,8.9,220,4,,10.0,29.911417,1012.8,,,TRUE,,,,,,,OVC,5000,,,,,,,VFR,,,,,,,,,,,,METAR,35.0
KFTY 220653Z 06007KT 2 1/2SM -RA BR SCT006 OVC015 06/05 A3014 RMK AO2 SLP209 P0006 T00610050,KFTY,2015-02-22T06:53:00Z,33.78,-84.52,6.1,5.0,60,7,,2.5,30.138779,1020.9,,,TRUE,,,,,,-RA BR,SCT,600,OVC,1500,,,,,IFR,,,,,,0.06,,,,,,METAR,263.0
KFPR 220653Z AUTO 00000KT 7SM FEW025 BKN080 12/12 A3018 RMK AO2 SLP220 T01220122,KFPR,2015-02-22T06:53:00Z,27.5,-80.38,12.2,12.2,0,0,,7.0,30.180119,1022.0,,TRUE,TRUE,,,,,,,FEW,2500,BKN,8000,,,,,VFR,,,,,,,,,,,,METAR,13.0
KFOE 220653Z AUTO 02013KT 10SM SCT110 M03/M09 A3036 RMK AO2 SLP287 T10281094,KFOE,2015-02-22T06:53:00Z,38.93,-95.65,-2.8,-9.4,20,13,,10.0,30.360237,1028.7,,TRUE,TRUE,,,,,,,SCT,11000,,,,,,,VFR,,,,,,,,,,,,METAR,320.0
KFMY 220653Z AUTO 11003KT 10SM CLR 16/14 A3016 RMK AO2 SLP214 T01610139,KFMY,2015-02-22T06:53:00Z,26.58,-81.87,16.1,13.9,110,3,,10.0,30.159449,1021.4,,TRUE,TRUE,,,,,,,CLR,,,,,,,,VFR,,,,,,,,,,,,METAR,4.0
KFLL 220653Z 14015KT 10SM FEW023 BKN085 21/17 A3017 RMK AO2 SLP214 T02110172,KFLL,2015-02-22T06:53:00Z,26.07,-80.15,21.1,17.2,140,15,,10.0,30.171259,1021.4,,,TRUE,,,,,,,FEW,2300,BKN,8500,,,,,VFR,,,,,,,,,,,,METAR,3.0
KFLD 220653Z AUTO 34009KT 10SM OVC041 M08/M14 A3019 RMK AO2 UPB14E33 SLP238 P0000 T10831144,KFLD,2015-02-22T06:53:00Z,43.77,-88.48,-8.3,-14.4,340,9,,10.0,30.188976,1023.8,,TRUE,TRUE,,,,,,,OVC,4100,,,,,,,VFR,,,,,,0.0050,,,,,,METAR,240.0
KFFC 220653Z AUTO 00000KT 9SM OVC029 11/09 A3011 RMK AO2 RAB27E40 SLP197 P0000 T01110094,KFFC,2015-02-22T06:53:00Z,33.35,-84.57,11.1,9.4,0,0,,9.0,30.109253,1019.7,,TRUE,TRUE,,,,,,,OVC,2900,,,,,,,MVFR,,,,,,0.0050,,,,,,METAR,262.0
KFCM 220653Z AUTO 32009KT 10SM CLR M18/M24 A3040 RMK AO2 SLP316 T11831244,KFCM,2015-02-22T06:53:00Z,44.83,-93.47,-18.3,-24.4,320,9,,10.0,30.398623,1031.6,,TRUE,TRUE,,,,,,,CLR,,,,,,,,VFR,,,,,,,,,,,,METAR,280.0
KFAT 220653Z 00000KT 3SM BR CLR 09/07 A2985 RMK AO2 SLP108 T00890072,KFAT,2015-02-22T06:53:00Z,36.78,-119.72,8.9,7.2,0,0,,3.0,29.84941,1010.8,,,TRUE,,,,,,BR,CLR,,,,,,,,MVFR,,,,,,,,,,,,METAR,104.0
KFAR 220653Z 34015KT 10SM CLR M25/M29 A3058 RMK AO2 SLP385 T12501294,KFAR,2015-02-22T06:53:00Z,46.93,-96.82,-25.0,-29.4,340,15,,10.0,30.578741,1038.5,,,TRUE,,,,,,,CLR,,,,,,,,VFR,,,,,,,,,,,,METAR,277.0
KEYW 220653Z AUTO 11012KT 10SM CLR 21/18 A3012 RMK AO2 SLP200 T02110183 $,KEYW,2015-02-22T06:53:00Z,24.55,-81.75,21.1,18.3,110,12,,10.0,30.121063,1020.0,,TRUE,TRUE,TRUE,,,,,,CLR,,,,,,,,VFR,,,,,,,,,,,,METAR,5.0
KEVW 220653Z AUTO 07014G25KT 10SM OVC032 M11/M13 A3002 RMK AO2 PK WND 07027/0555 SLP195 T11061133 400221106 $,KEVW,2015-02-22T06:53:00Z,41.27,-111.03,-10.6,-13.3,70,14,25,10.0,30.02067,1019.5,,TRUE,TRUE,TRUE,,,,,,OVC,3200,,,,,,,VFR,,,,2.2,-10.6,,,,,,,METAR,2177.0
KESF 220653Z AUTO 04007KT 010V070 10SM RA OVC004 10/08 A3004 RMK AO2 RAB05 SLP171 P0002 T01000083,KESF,2015-02-22T06:53:00Z,31.4,-92.28,10.0,8.3,40,7,,10.0,30.041338,1017.1,,TRUE,TRUE,,,,,,RA,OVC,400,,,,,,,LIFR,,,,,,0.02,,,,,,METAR,28.0
KEQY 220653Z AUTO 06003KT 10SM OVC090 04/M02 A3016 RMK AO2 SLP231 T00391022,KEQY,2015-02-22T06:53:00Z,35.02,-80.62,3.9,-2.2,60,3,,10.0,30.159449,1023.1,,TRUE,TRUE,,,,,,,OVC,9000,,,,,,,VFR,,,,,,,,,,,,METAR,212.0
KENW 220653Z AUTO 33010KT 10SM OVC045 M06/M11 A3017 RMK AO2 SNE26 SLP229 P0000 T10561111,KENW,2015-02-22T06:53:00Z,42.6,-87.93,-5.6,-11.1,330,10,,10.0,30.171259,1022.9,,TRUE,TRUE,,,,,,,OVC,4500,,,,,,,VFR,,,,,,0.0050,,,,,,METAR,219.0
KEMP 220653Z AUTO 03014G20KT 9SM OVC021 M03/M07 A3033 RMK AO2 SLP281 T10281067,KEMP,2015-02-22T06:53:00Z,38.33,-96.2,-2.8,-6.7,30,14,20,9.0,30.33071,1028.1,,TRUE,TRUE,,,,,,,OVC,2100,,,,,,,MVFR,,,,,,,,,,,,METAR,367.0
KELY 220653Z AUTO 02012KT 10SM BKN075 M01/M07 A2993 RMK AO2 SLP122 T10111067,KELY,2015-02-22T06:53:00Z,39.3,-114.85,-1.1,-6.7,20,12,,10.0,29.929134,1012.2,,TRUE,TRUE,,,,,,,BKN,7500,,,,,,,VFR,,,,,,,,,,,,METAR,1906.0
KEET 220653Z AUTO VRB03KT 3SM RA BR SCT050 OVC075 13/12 A3008 RMK AO2 SLP184 P0011 T01280122,KEET,2015-02-22T06:53:00Z,33.18,-86.78,12.8,12.2,0,3,,3.0,30.079725,1018.4,,TRUE,TRUE,,,,,,RA BR,SCT,5000,OVC,7500,,,,,MVFR,,,,,,0.11,,,,,,METAR,173.0
KEEO 220653Z AUTO 09004KT 10SM OVC021 M03/M06 A2997 RMK AO2 SNE36 SLP164 P0000 T10331061 400171056 $,KEEO,2015-02-22T06:53:00Z,40.05,-107.88,-3.3,-6.1,90,4,,10.0,29.970472,1016.4,,TRUE,TRUE,TRUE,,,,,,OVC,2100,,,,,,,MVFR,,,,1.7,-5.6,0.0050,,,,,,METAR,1930.0
KDWH 220653Z 35005KT 9SM -RA OVC008 16/13 A2998 RMK AO2 RAB25 SLP150 P0004 T01610133,KDWH,2015-02-22T06:53:00Z,30.07,-95.55,16.1,13.3,350,5,,9.0,29.97933,1015.0,,,TRUE,,,,,,-RA,OVC,800,,,,,,,IFR,,,,,,0.04,,,,,,METAR,46.0
KDVT 220653Z 00000KT 10SM CLR 16/02 A2979 RMK AO2 SLP073 T01560017 402390100,KDVT,2015-02-22T06:53:00Z,33.68,-112.07,15.6,1.7,0,0,,10.0,29.790354,1007.3,,,TRUE,,,,,,,CLR,,,,,,,,VFR,,,,23.9,10.0,,,,,,,METAR,443.0
KDRT 220653Z AUTO 12004KT 10SM CLR 17/08 A2989 RMK AO2 SLP107 T01720083,KDRT,2015-02-22T06:53:00Z,29.37,-100.92,17.2,8.3,120,4,,10.0,29.890747,1010.7,,TRUE,TRUE,,,,,,,CLR,,,,,,,,VFR,,,,,,,,,,,,METAR,313.0
KDRO 220653Z AUTO 18004KT 1SM -SN BR VV010 M01/M02 A2997 RMK AO2 SLP153 P0004 T10111017 400721056,KDRO,2015-02-22T06:53:00Z,37.15,-107.77,-1.1,-1.7,180,4,,1.0,29.970472,1015.3,,TRUE,TRUE,,,,,,-SN BR,OVX,0,,,,,,,LIFR,,,,7.2,-5.6,0.04,,,,,1000,METAR,2035.0
KDNL 220653Z AUTO 17004KT 10SM SCT100 12/08 A3017 RMK AO2 SLP212 T01220078,KDNL,2015-02-22T06:53:00Z,33.47,-82.03,12.2,7.8,170,4,,10.0,30.171259,1021.2,,TRUE,TRUE,,,,,,,SCT,10000,,,,,,,VFR,,,,,,,,,,,,METAR,130.0
KDMO 220653Z AUTO 01011KT 10SM CLR M03/M07 A3033 RMK AO2 SLP278 T10281067,KDMO,2015-02-22T06:53:00Z,38.72,-93.17,-2.8,-6.7,10,11,,10.0,30.33071,1027.8,,TRUE,TRUE,,,,,,,CLR,,,,,,,,VFR,,,,,,,,,,,,METAR,274.0
KDLN 220653Z AUTO 07014KT 10SM CLR M14/M21 A3033 RMK AO2 SLP350 T11441211 410111144,KDLN,2015-02-22T06:53:00Z,45.25,-112.55,-14.4,-21.1,70,14,,10.0,30.33071,1035.0,,TRUE,TRUE,,,,,,,CLR,,,,,,,,VFR,,,,-1.1,-14.4,,,,,,,METAR,1591.0
KDGW 220653Z AUTO 03003KT 10SM BKN050 OVC075 M13/M15 A3032 RMK AO2 SLP331 T11281150 410171128,KDGW,2015-02-22T06:53:00Z,42.8,-105.38,-12.8,-15.0,30,3,,10.0,30.318897,1033.1,,TRUE,TRUE,,,,,,,BKN,5000,OVC,7500,,,,,VFR,,,,-1.7,-12.8,,,,,,,METAR,1499.0
KPKD 220653Z AUTO 32008KT 10SM CLR M27/M30 A3039 RMK AO2 SLP337 T12671300,KPKD,2015-02-22T06:53:00Z,46.9,-95.07,-26.7,-30.0,320,8,,10.0,30.389763,1033.7,,TRUE,TRUE,,,,,,,CLR,,,,,,,,VFR,,,,,,,,,,,,METAR,442.0
PACD 220653Z AUTO 15019G27KT 9SM -RA SCT008 OVC014 04/04 A2940 RMK AO2 PK WND 15027/0649 RAB0555E05B11 SLP956 P0000 T00390039 TSNO,PACD,2015-02-22T06:53:00Z,55.2,-162.72,3.9,3.9,150,19,27,9.0,29.40059,995.6,,TRUE,TRUE,,,TRUE,,,-RA,SCT,800,OVC,1400,,,,,MVFR,,,,,,0.0050,,,,,,METAR,30.0
PACV 220653Z 08005KT 10SM OVC032 06/04 A3007 RMK AO2 SLP181 T00610039,PACV,2015-02-22T06:53:00Z,60.5,-145.5,6.1,3.9,80,5,,10.0,30.070866,1018.1,,,TRUE,,,,,,,OVC,3200,,,,,,,VFR,,,,,,,,,,,,METAR,12.0
PADE 220653Z AUTO 13017KT 10SM OVC090 07/M01 A2954 RMK AO2 SLP004 T00671006 TSNO,PADE,2015-02-22T06:53:00Z,66.07,-162.77,6.7,-0.6,130,17,,10.0,29.53937,1000.4,,TRUE,TRUE,,,TRUE,,,,OVC,9000,,,,,,,VFR,,,,,,,,,,,,METAR,5.0
KGCC 220653Z AUTO 02007KT 1 1/2SM -SN BR BKN015 OVC023 M13/M15 A3035 RMK AO2 SNB39 SLP348 P0000 T11281150 410111156 TSNO,KGCC,2015-02-22T06:53:00Z,44.33,-105.55,-12.8,-15.0,20,7,,1.5,30.351377,1034.8,,TRUE,TRUE,,,TRUE,,,-SN BR,BKN,1500,OVC,2300,,,,,IFR,,,,-1.1,-15.6,0.0050,,,,,,METAR,1320.0
KPGA 220653Z AUTO 05011KT 10SM OVC075 10/M08 A2987 RMK AO2 SLP087 T01001078 401390056 TSNO,KPGA,2015-02-22T06:53:00Z,36.92,-111.45,10.0,-7.8,50,11,,10.0,29.870079,1008.7,,TRUE,TRUE,,,TRUE,,,,OVC,7500,,,,,,,VFR,,,,13.9,5.6,,,,,,,METAR,1307.0
KACV 220653Z AUTO 08003KT 10SM CLR 06/04 A2993 RMK AO2 SLP141 T00560039,KACV,2015-02-22T06:53:00Z,40.98,-124.1,5.6,3.9,80,3,,10.0,29.929134,1014.1,,TRUE,TRUE,,,,,,,CLR,,,,,,,,VFR,,,,,,,,,,,,METAR,67.0
KABR 220653Z AUTO 35014KT 10SM CLR M17/M22 A3053 RMK AO2 SLP370 T11721222,KABR,2015-02-22T06:53:00Z,45.45,-98.42,-17.2,-22.2,350,14,,10.0,30.528543,1037.0,,TRUE,TRUE,,,,,,,CLR,,,,,,,,VFR,,,,,,,,,,,,METAR,397.0
KAEX 220653Z 01010KT 3SM RA BR BKN005 OVC009 10/09 A3001 RMK AO2 RAB22 CIG 004V008 SLP166 P0005 T01000094,KAEX,2015-02-22T06:53:00Z,31.33,-92.57,10.0,9.4,10,10,,3.0,30.008858,1016.6,,,TRUE,,,,,,RA BR,BKN,500,OVC,900,,,,,IFR,,,,,,0.05,,,,,,METAR,27.0
KAGS 220653Z AUTO 00000KT 10SM FEW110 09/07 A3017 RMK AO2 SLP215 T00940067,KAGS,2015-02-22T06:53:00Z,33.37,-81.97,9.4,6.7,0,0,,10.0,30.171259,1021.5,,TRUE,TRUE,,,,,,,FEW,11000,,,,,,,VFR,,,,,,,,,,,,METAR,44.0
KAIA 220653Z AUTO 01004KT 10SM OVC030 M09/M13 A3034 RMK AO2 SNE17 SLP319 P0000 T10941133 410111100,KAIA,2015-02-22T06:53:00Z,42.05,-102.8,-9.4,-13.3,10,4,,10.0,30.339567,1031.9,,TRUE,TRUE,,,,,,,OVC,3000,,,,,,,MVFR,,,,-1.1,-10.0,0.0050,,,,,,METAR,1196.0
KAKO 220653Z AUTO 03005KT 1 1/4SM -SN BR OVC021 M09/M11 A3028 RMK AO2 SLP296 P0000 T10941106 400221094,KAKO,2015-02-22T06:53:00Z,40.17,-103.22,-9.4,-10.6,30,5,,1.25,30.280512,1029.6,,TRUE,TRUE,,,,,,-SN BR,OVC,2100,,,,,,,IFR,,,,2.2,-9.4,0.0050,,,,,,METAR,1421.0
KAPF 220653Z 10007KT 10SM CLR 19/15 A3015 RMK AO2 SLP207 T01890150,KAPF,2015-02-22T06:53:00Z,26.15,-81.77,18.9,15.0,100,7,,10.0,30.15059,1020.7,,,TRUE,,,,,,,CLR,,,,,,,,VFR,,,,,,,,,,,,METAR,3.0
KARA 220653Z AUTO 19007KT 8SM FEW041 BKN049 OVC080 18/17 A3002 RMK AO2 SLP164 T01780167,KARA,2015-02-22T06:53:00Z,30.03,-91.88,17.8,16.7,190,7,,8.0,30.02067,1016.4,,TRUE,TRUE,,,,,,,FEW,4100,BKN,4900,OVC,8000,,,VFR,,,,,,,,,,,,METAR,18.0
KASD 220653Z AUTO 00000KT 7SM OVC065 14/14 A3003 RMK AO2 SLP170 T01440139,KASD,2015-02-22T06:53:00Z,30.35,-89.82,14.4,13.9,0,0,,7.0,30.029528,1017.0,,TRUE,TRUE,,,,,,,OVC,6500,,,,,,,VFR,,,,,,,,,,,,METAR,9.0
KASE 220653Z AUTO 22008KT 10SM CLR M10/M12 A2993 RMK AO2 SLP148 T11001122 410111111,KASE,2015-02-22T06:53:00Z,39.23,-106.87,-10.0,-12.2,220,8,,10.0,29.929134,1014.8,,TRUE,TRUE,,,,,,,CLR,,,,,,,,VFR,,,,-1.1,-11.1,,,,,,,METAR,2354.0
KASX 220653Z AUTO 30005KT 10SM OVC037 M19/M23 A3033 RMK AO2 SLP292 T11891233,KASX,2015-02-22T06:53:00Z,46.55,-90.92,-18.9,-23.3,300,5,,10.0,30.33071,1029.2,,TRUE,TRUE,,,,,,,OVC,3700,,,,,,,VFR,,,,,,,,,,,,METAR,251.0
KATY 220653Z AUTO 33010KT 10SM CLR M18/M22 A3042 RMK AO2 SLP344 T11781217,KATY,2015-02-22T06:53:00Z,44.9,-97.15,-17.8,-21.7,330,10,,10.0,30.41929,1034.4,,TRUE,TRUE,,,,,,,CLR,,,,,,,,VFR,,,,,,,,,,,,METAR,532.0
KAUS 220653Z 05007KT 10SM OVC022 13/08 A2999 RMK AO2 SLP153 T01280078,KAUS,2015-02-22T06:53:00Z,30.18,-97.68,12.8,7.8,50,7,,10.0,29.991142,1015.3,,,TRUE,,,,,,,OVC,2200,,,,,,,MVFR,,,,,,,,,,,,METAR,166.0
KAXN 220653Z AUTO 33008KT 10SM CLR M23/M27 A3042 RMK AO2 SLP345 T12281272,KAXN,2015-02-22T06:53:00Z,45.87,-95.4,-22.8,-27.2,330,8,,10.0,30.41929,1034.5,,TRUE,TRUE,,,,,,,CLR,,,,,,,,VFR,,,,,,,,,,,,METAR,433.0
KAZO 220653Z AUTO 26005KT 6SM HZ OVC045 M04/M07 A3013 RMK AO2 SLP215 T10391067 $,KAZO,2015-02-22T06:53:00Z,42.23,-85.55,-3.9,-6.7,260,5,,6.0,30.129921,1021.5,,TRUE,TRUE,TRUE,,,,,HZ,OVC,4500,,,,,,,VFR,,,,,,,,,,,,METAR,272.0
KBBW 220653Z AUTO 36012KT 6SM HZ BKN050 OVC065 M08/M12 A3039 RMK AO2 SNE51 SLP329 P0000 T10831122,KBBW,2015-02-22T06:53:00Z,41.43,-99.63,-8.3,-12.2,360,12,,6.0,30.389763,1032.9,,TRUE,TRUE,,,,,,HZ,BKN,5000,OVC,6500,,,,,VFR,,,,,,0.0050,,,,,,METAR,776.0
KBDE 220653Z AUTO 32009KT 10SM CLR M29/M33 A3043 RMK AO2 SLP345 T12891328 TSNO,KBDE,2015-02-22T06:53:00Z,48.73,-94.62,-28.9,-32.8,320,9,,10.0,30.431103,1034.5,,TRUE,TRUE,,,TRUE,,,,CLR,,,,,,,,VFR,,,,,,,,,,,,METAR,329.0
KBFF 220653Z AUTO 34009KT 9SM OVC060 M07/M12 A3035 RMK AO2 SLP322 T10721117 400061072,KBFF,2015-02-22T06:53:00Z,41.87,-103.58,-7.2,-11.7,340,9,,9.0,30.351377,1032.2,,TRUE,TRUE,,,,,,,OVC,6000,,,,,,,VFR,,,,0.6,-7.2,,,,,,,METAR,1203.0
KBFM 220653Z AUTO 18004KT 9SM BKN031 15/14 A3008 RMK AO2 SLP184 T01500144,KBFM,2015-02-22T06:53:00Z,30.62,-88.07,15.0,14.4,180,4,,9.0,30.079725,1018.4,,TRUE,TRUE,,,,,,,BKN,3100,,,,,,,VFR,,,,,,,,,,,,METAR,20.0
KBHM 220653Z 16005KT 8SM -RA OVC080 13/12 A3009 RMK AO2 SLP186 P0009 T01280117,KBHM,2015-02-22T06:53:00Z,33.57,-86.75,12.8,11.7,160,5,,8.0,30.088583,1018.6,,,TRUE,,,,,,-RA,OVC,8000,,,,,,,VFR,,,,,,0.09,,,,,,METAR,197.0
KBIL 220653Z 36008KT 10SM FEW036 M12/M16 A3047 RMK AO2 SLP377 T11221161 400001122,KBIL,2015-02-22T06:53:00Z,45.8,-108.55,-12.2,-16.1,360,8,,10.0,30.469488,1037.7,,,TRUE,,,,,,,FEW,3600,,,,,,,VFR,,,,,-12.2,,,,,,,METAR,1091.0
KBIV 220653Z AUTO 00000KT 5SM BR OVC036 M06/M08 A3014 RMK AO2 SLP217 T10561078,KBIV,2015-02-22T06:53:00Z,42.75,-86.1,-5.6,-7.8,0,0,,5.0,30.138779,1021.7,,TRUE,TRUE,,,,,,BR,OVC,3600,,,,,,,MVFR,,,,,,,,,,,,METAR,208.0
KBKV 220653Z 13003KT 10SM CLR 11/09 A3019 RMK AO2 SLP222 T01060089,KBKV,2015-02-22T06:53:00Z,28.47,-82.45,10.6,8.9,130,3,,10.0,30.188976,1022.2,,,TRUE,,,,,,,CLR,,,,,,,,VFR,,,,,,,,,,,,METAR,20.0
KBMQ 220653Z AUTO A3002 RMK AO2 SLPNO PWINO FZRANO,KBMQ,2015-02-22T06:53:00Z,30.73,-98.23,,,,,,,30.02067,,,TRUE,TRUE,,,,TRUE,TRUE,,,,,,,,,,,,,,,,,,,,,,METAR,389.0
KBOI 220653Z 17009KT 10SM OVC048 02/M02 A3019 RMK AO2 SLP232 T00221017 400941028 $,KBOI,2015-02-22T06:53:00Z,43.57,-116.23,2.2,-1.7,170,9,,10.0,30.188976,1023.2,,,TRUE,TRUE,,,,,,OVC,4800,,,,,,,VFR,,,,9.4,-2.8,,,,,,,METAR,875.0
KGEY 220653Z AUTO 33014KT 10SM CLR M08/M16 A3036 RMK AO2 SLP332 T10831156 400061083,KGEY,2015-02-22T06:53:00Z,44.52,-108.08,-8.3,-15.6,330,14,,10.0,30.360237,1033.2,,TRUE,TRUE,,,,,,,CLR,,,,,,,,VFR,,,,0.6,-8.3,,,,,,,METAR,1191.0
KGGW 220653Z AUTO 02009KT 10SM CLR M19/M23 A3061 RMK AO2 SLP424 T11891228 410611189,KGGW,2015-02-22T06:53:00Z,48.22,-106.62,-18.9,-22.8,20,9,,10.0,30.611221,1042.4,,TRUE,TRUE,,,,,,,CLR,,,,,,,,VFR,,,,-6.1,-18.9,,,,,,,METAR,694.0
KGIF 220653Z AUTO 10004KT 10SM CLR 13/12 A3021 RMK AO2 SLP227 T01330122,KGIF,2015-02-22T06:53:00Z,28.07,-81.75,13.3,12.2,100,4,,10.0,30.209646,1022.7,,TRUE,TRUE,,,,,,,CLR,,,,,,,,VFR,,,,,,,,,,,,METAR,43.0
KGJT 220653Z AUTO 22003KT 10SM CLR M02/M06 A2993 RMK AO2 SLP134 T10171056 400891033,KGJT,2015-02-22T06:53:00Z,39.12,-108.52,-1.7,-5.6,220,3,,10.0,29.929134,1013.4,,TRUE,TRUE,,,,,,,CLR,,,,,,,,VFR,,,,8.9,-3.3,,,,,,,METAR,1475.0
KGLD 220653Z AUTO 01017KT 2SM -SN BR OVC020 M07/M09 A3031 RMK AO2 PK WND 01026/0631 SLP287 P0000 T10721089 400561072,KGLD,2015-02-22T06:53:00Z,39.37,-101.7,-7.2,-8.9,10,17,,2.0,30.31004,1028.7,,TRUE,TRUE,,,,,,-SN BR,OVC,2000,,,,,,,IFR,,,,5.6,-7.2,0.0050,,,,,,METAR,1113.0
KGLR 220653Z AUTO 33005KT 10SM FEW013 OVC042 M13/M16 A3008 RMK AO2 SLP213 T11331156,KGLR,2015-02-22T06:53:00Z,45.02,-84.68,-13.3,-15.6,330,5,,10.0,30.079725,1021.3,,TRUE,TRUE,,,,,,,FEW,1300,OVC,4200,,,,,VFR,,,,,,,,,,,,METAR,407.0
KGMU 220653Z AUTO 02004KT 4SM RA BR BKN026 OVC033 02/01 A3016 RMK AO2 SLP220 P0009 T00220006,KGMU,2015-02-22T06:53:00Z,34.85,-82.35,2.2,0.6,20,4,,4.0,30.159449,1022.0,,TRUE,TRUE,,,,,,RA BR,BKN,2600,OVC,3300,,,,,MVFR,,,,,,0.09,,,,,,METAR,315.0
KGPT 220653Z 16004KT 1/4SM FG VV002 16/16 A3005 RMK AO2 SLP173 T01560156 RVRNO,KGPT,2015-02-22T06:53:00Z,30.42,-89.08,15.6,15.6,160,4,,0.25,30.050198,1017.3,,,TRUE,,,,,,FG,OVX,0,,,,,,,LIFR,,,,,,,,,,,200,METAR,14.0
KGRB 220653Z AUTO 34011KT 10SM OVC049 M10/M17 A3021 RMK AO2 SNE07 SLP244 P0000 T11001172 $,KGRB,2015-02-22T06:53:00Z,44.48,-88.13,-10.0,-17.2,340,11,,10.0,30.209646,1024.4,,TRUE,TRUE,TRUE,,,,,,OVC,4900,,,,,,,VFR,,,,,,0.0050,,,,,,METAR,208.0
KGRR 220653Z AUTO 30005KT 7SM SCT055 OVC075 M05/M08 A3013 RMK AO2 SLP214 T10501078,KGRR,2015-02-22T06:53:00Z,42.88,-85.52,-5.0,-7.8,300,5,,7.0,30.129921,1021.4,,TRUE,TRUE,,,,,,,SCT,5500,OVC,7500,,,,,VFR,,,,,,,,,,,,METAR,237.0
KGSH 220653Z AUTO 25004KT 6SM HZ OVC019 M04/M07 A3014 RMK AO2 SLP218 T10391067,KGSH,2015-02-22T06:53:00Z,41.53,-85.78,-3.9,-6.7,250,4,,6.0,30.138779,1021.8,,TRUE,TRUE,,,,,,HZ,OVC,1900,,,,,,,MVFR,,,,,,,,,,,,METAR,252.0
KGSP 220653Z AUTO 35003KT 5SM -RA BR FEW026 BKN034 OVC044 02/01 A3015 RMK AO2 SLP213 P0008 T00170006,KGSP,2015-02-22T06:53:00Z,34.9,-82.22,1.7,0.6,350,3,,5.0,30.15059,1021.3,,TRUE,TRUE,,,,,,-RA BR,FEW,2600,BKN,3400,OVC,4400,,,MVFR,,,,,,0.08,,,,,,METAR,287.0
KGTF 220653Z 21004KT 10SM CLR M17/M19 A3050 RMK AO2 SLP410 T11721194 410391189,KGTF,2015-02-22T06:53:00Z,47.47,-111.38,-17.2,-19.4,210,4,,10.0,30.499016,1041.0,,,TRUE,,,,,,,CLR,,,,,,,,VFR,,,,-3.9,-18.9,,,,,,,METAR,1119.0
KGUY 220653Z AUTO 06008KT 6SM -RA BR BKN008 OVC013 04/03 A3011 RMK AO2 CIG 006V010 SLP190 P0005 T00390028,KGUY,2015-02-22T06:53:00Z,36.68,-101.5,3.9,2.8,60,8,,6.0,30.109253,1019.0,,TRUE,TRUE,,,,,,-RA BR,BKN,800,OVC,1300,,,,,IFR,,,,,,0.05,,,,,,METAR,948.0
KGVL 220653Z AUTO 12005KT 2 1/2SM +RA BR FEW017 OVC026 04/04 A3015 RMK AO2 SLP212 P0012 T00440044,KGVL,2015-02-22T06:53:00Z,34.27,-83.83,4.4,4.4,120,5,,2.5,30.15059,1021.2,,TRUE,TRUE,,,,,,+RA BR,FEW,1700,OVC,2600,,,,,IFR,,,,,,0.12,,,,,,METAR,386.0
KHBG 220653Z AUTO 17005KT 10SM BKN080 OVC100 17/15 A3003 RMK AO2 SLP166 T01670150,KHBG,2015-02-22T06:53:00Z,31.27,-89.25,16.7,15.0,170,5,,10.0,30.029528,1016.6,,TRUE,TRUE,,,,,,,BKN,8000,OVC,10000,,,,,VFR,,,,,,,,,,,,METAR,44.0
KHEI 220653Z AUTO 34007KT 10SM CLR M21/M24 A3048 RMK AO2 SLP387 T12111244 410441211,KHEI,2015-02-22T06:53:00Z,46.02,-102.65,-21.1,-24.4,340,7,,10.0,30.481298,1038.7,,TRUE,TRUE,,,,,,,CLR,,,,,,,,VFR,,,,-4.4,-21.1,,,,,,,METAR,828.0
KHHR 220653Z AUTO 22003KT 10SM BKN039 OVC050 16/09 A2992 RMK AO2 SLP130 T01610094,KHHR,2015-02-22T06:53:00Z,33.92,-118.33,16.1,9.4,220,3,,10.0,29.920275,1013.0,,TRUE,TRUE,,,,,,,BKN,3900,OVC,5000,,,,,VFR,,,,,,,,,,,,METAR,18.0
KHIB 220653Z AUTO 33011KT 10SM FEW022 M23/M28 A3031 RMK AO2 UPB08E36 SLP304 P0000 T12331278,KHIB,2015-02-22T06:53:00Z,47.38,-92.83,-23.3,-27.8,330,11,,10.0,30.31004,1030.4,,TRUE,TRUE,,,,,,,FEW,2200,,,,,,,VFR,,,,,,0.0050,,,,,,METAR,412.0
KHJO 220653Z AUTO 00000KT 1/4SM FG VV005 05/05 A2985 RMK AO2 SLP111 T00500050,KHJO,2015-02-22T06:53:00Z,36.32,-119.62,5.0,5.0,0,0,,0.25,29.84941,1011.1,,TRUE,TRUE,,,,,,FG,OVX,0,,,,,,,LIFR,,,,,,,,,,,500,METAR,74.0
KHKY 220653Z AUTO 00000KT 3SM UP BR SCT040 BKN050 OVC055 00/M01 A3014 RMK AO2 SLP203 P0005 T00001011,KHKY,2015-02-22T06:53:00Z,35.75,-81.38,0.0,-1.1,0,0,,3.0,30.138779,1020.3,,TRUE,TRUE,,,,,,BR UP,SCT,4000,BKN,5000,OVC,5500,,,MVFR,,,,,,0.05,,,,,,METAR,354.0
KHLN 220653Z 28007KT 10SM CLR M14/M18 A3050 RMK AO2 SLP407 T11391178 400001139 $,KHLN,2015-02-22T06:53:00Z,46.6,-111.98,-13.9,-17.8,280,7,,10.0,30.499016,1040.7,,,TRUE,TRUE,,,,,,CLR,,,,,,,,VFR,,,,,-13.9,,,,,,,METAR,1182.0
KHOU 220653Z 19003KT 4SM BR OVC005 19/19 A2997 RMK AO2 RAB0555E11 SLP154 P0002 T01940189,KHOU,2015-02-22T06:53:00Z,29.63,-95.28,19.4,18.9,190,3,,4.0,29.970472,1015.4,,,TRUE,,,,,,BR,OVC,500,,,,,,,IFR,,,,,,0.02,,,,,,METAR,36.0
KHSI 220653Z AUTO 03015KT 10SM BKN055 OVC070 M08/M13 A3042 RMK AO2 SLP322 T10781133,KHSI,2015-02-22T06:53:00Z,40.6,-98.43,-7.8,-13.3,30,15,,10.0,30.41929,1032.2,,TRUE,TRUE,,,,,,,BKN,5500,OVC,7000,,,,,VFR,,,,,,,,,,,,METAR,591.0
KHTL 220653Z AUTO 33004KT 10SM OVC095 M11/M14 A3009 RMK AO2 SLP212 T11061144,KHTL,2015-02-22T06:53:00Z,44.35,-84.67,-10.6,-14.4,330,4,,10.0,30.088583,1021.2,,TRUE,TRUE,,,,,,,OVC,9500,,,,,,,VFR,,,,,,,,,,,,METAR,351.0
KHVR 220653Z AUTO 28007KT 10SM CLR M16/M19 A3059 RMK AO2 SLP412 T11561194 410501156,KHVR,2015-02-22T06:53:00Z,48.55,-109.77,-15.6,-19.4,280,7,,10.0,30.590551,1041.2,,TRUE,TRUE,,,,,,,CLR,,,,,,,,VFR,,,,-5.0,-15.6,,,,,,,METAR,787.0
KRDD 220653Z 02024G35KT 10SM CLR 14/M03 A2997 RMK AO2 PK WND 02035/0614 SLP146 T01391033,KRDD,2015-02-22T06:53:00Z,40.52,-122.3,13.9,-3.3,20,24,35,10.0,29.970472,1014.6,,,TRUE,,,,,,,CLR,,,,,,,,VFR,,,,,,,,,,,,METAR,155.0
KRAL 220653Z AUTO 00000KT 10SM BKN030 OVC035 14/09 A2992 RMK AO2 SLP120 T01390089,KRAL,2015-02-22T06:53:00Z,33.95,-117.45,13.9,8.9,0,0,,10.0,29.920275,1012.0,,TRUE,TRUE,,,,,,,BKN,3000,OVC,3500,,,,,MVFR,,,,,,,,,,,,METAR,252.0
KRAC 220653Z AUTO 31007KT 10SM FEW014 OVC046 M05/M09 A3019 RMK AO2 SNE41 SLP232 P0000 T10501094,KRAC,2015-02-22T06:53:00Z,42.77,-87.82,-5.0,-9.4,310,7,,10.0,30.188976,1023.2,,TRUE,TRUE,,,,,,,FEW,1400,OVC,4600,,,,,VFR,,,,,,0.0050,,,,,,METAR,203.0
KPUB 220653Z 03014KT 1 1/2SM -SN BR OVC017 M07/M08 A3025 RMK AO2 SLP267 P0001 T10671083 400391067 $,KPUB,2015-02-22T06:53:00Z,38.28,-104.5,-6.7,-8.3,30,14,,1.5,30.250984,1026.7,,,TRUE,TRUE,,,,,-SN BR,OVC,1700,,,,,,,IFR,,,,3.9,-6.7,0.01,,,,,,METAR,1420.0
KPSX 220653Z AUTO 15006KT 4SM BR SCT003 BKN016 OVC044 19/19 A2997 RMK AO2 SLP148 T01940189,KPSX,2015-02-22T06:53:00Z,28.72,-96.25,19.4,18.9,150,6,,4.0,29.970472,1014.8,,TRUE,TRUE,,,,,,BR,SCT,300,BKN,1600,OVC,4400,,,MVFR,,,,,,,,,,,,METAR,5.0
KPSP 220653Z 26008KT 10SM CLR 18/05 A2975 RMK AO2 SLP071 T01830050,KPSP,2015-02-22T06:53:00Z,33.82,-116.5,18.3,5.0,260,8,,10.0,29.749016,1007.1,,,TRUE,,,,,,,CLR,,,,,,,,VFR,,,,,,,,,,,,METAR,135.0
KPRC 220653Z AUTO 15003KT 10SM CLR 08/M02 A2987 RMK AO2 SLP065 T00781022 401830017,KPRC,2015-02-22T06:53:00Z,34.65,-112.42,7.8,-2.2,150,3,,10.0,29.870079,1006.5,,TRUE,TRUE,,,,,,,CLR,,,,,,,,VFR,,,,18.3,1.7,,,,,,,METAR,1524.0
KPRB 220653Z AUTO 24006KT 10SM OVC018 12/09 A2987 RMK AO2 SLP114 T01220089 TSNO $,KPRB,2015-02-22T06:53:00Z,35.67,-120.63,12.2,8.9,240,6,,10.0,29.870079,1011.4,,TRUE,TRUE,TRUE,,TRUE,,,,OVC,1800,,,,,,,MVFR,,,,,,,,,,,,METAR,245.0
KPQL 220653Z AUTO 18004KT 10SM CLR 17/16 A3005 RMK AO2 SLP177 T01720161 TSNO,KPQL,2015-02-22T06:53:00Z,30.47,-88.53,17.2,16.1,180,4,,10.0,30.050198,1017.7,,TRUE,TRUE,,,TRUE,,,,CLR,,,,,,,,VFR,,,,,,,,,,,,METAR,6.0
KPOF 220653Z AUTO 00000KT 4SM BR OVC023 M01/M02 A3020 RMK AO2 SLP234 I1000 T10061017,KPOF,2015-02-22T06:53:00Z,36.77,-90.32,-0.6,-1.7,0,0,,4.0,30.200787,1023.4,,TRUE,TRUE,,,,,,BR,OVC,2300,,,,,,,MVFR,,,,,,,,,,,,METAR,99.0
KPNC 220653Z AUTO 05016G22KT 10SM BKN047 OVC060 05/00 A3021 RMK AO2 SLP230 T00500000,KPNC,2015-02-22T06:53:00Z,36.73,-97.1,5.0,0.0,50,16,22,10.0,30.209646,1023.0,,TRUE,TRUE,,,,,,,BKN,4700,OVC,6000,,,,,VFR,,,,,,,,,,,,METAR,308.0
KPMP 220653Z 14013KT 10SM OVC090 22/16 A3018 RMK AO2 SLP219 T02170161,KPMP,2015-02-22T06:53:00Z,26.25,-80.12,21.7,16.1,140,13,,10.0,30.180119,1021.9,,,TRUE,,,,,,,OVC,9000,,,,,,,VFR,,,,,,,,,,,,METAR,6.0
KPMD 220653Z AUTO 22021KT 10SM CLR 10/06 A2982 RMK AO2 PK WND 23026/0556 SLP086 T01000061,KPMD,2015-02-22T06:53:00Z,34.63,-118.08,10.0,6.1,220,21,,10.0,29.819881,1008.6,,TRUE,TRUE,,,,,,,CLR,,,,,,,,VFR,,,,,,,,,,,,METAR,780.0
KDEW 220653Z AUTO 00000KT 10SM CLR M06/M11 A3047 RMK AO2 SLP340 T10561106,KDEW,2015-02-22T06:53:00Z,47.97,-117.43,-5.6,-10.6,0,0,,10.0,30.469488,1034.0,,TRUE,TRUE,,,,,,,CLR,,,,,,,,VFR,,,,,,,,,,,,METAR,674.0
KDET 220653Z 24004KT 6SM HZ OVC090 M06/M09 A3012 RMK AO2 SLP210 T10561089,KDET,2015-02-22T06:53:00Z,42.4,-83.02,-5.6,-8.9,240,4,,6.0,30.121063,1021.0,,,TRUE,,,,,,HZ,OVC,9000,,,,,,,VFR,,,,,,,,,,,,METAR,190.0
KDEQ 220653Z AUTO 04003KT 10SM CLR 01/01 A3011 RMK AO2 SLP196 T00110011,KDEQ,2015-02-22T06:53:00Z,34.05,-94.4,1.1,1.1,40,3,,10.0,30.109253,1019.6,,TRUE,TRUE,,,,,,,CLR,,,,,,,,VFR,,,,,,,,,,,,METAR,106.0
KDCU 220653Z AUTO 2 1/2SM BR OVC006 06/06 A3008 RMK AO2 SLP187 T00610061 $,KDCU,2015-02-22T06:53:00Z,34.65,-86.95,6.1,6.1,,,,2.5,30.079725,1018.7,,TRUE,TRUE,TRUE,,,,,BR,OVC,600,,,,,,,IFR,,,,,,,,,,,,METAR,176.0
KAMW 220653Z AUTO 34016G22KT 10SM CLR M13/M19 A3039 RMK AO2 SLP306 T11331194,KAMW,2015-02-22T06:53:00Z,41.98,-93.62,-13.3,-19.4,340,16,22,10.0,30.389763,1030.6,,TRUE,TRUE,,,,,,,CLR,,,,,,,,VFR,,,,,,,,,,,,METAR,279.0
KALI 220653Z AUTO 15006KT 8SM OVC013 20/19 A2992 RMK AO2 SLP128 T02000189,KALI,2015-02-22T06:53:00Z,27.73,-98.02,20.0,18.9,150,6,,8.0,29.920275,1012.8,,TRUE,TRUE,,,,,,,OVC,1300,,,,,,,MVFR,,,,,,,,,,,,METAR,53.0
KARR 220652Z AUTO 33018KT 6SM HZ OVC042 M03/M07 A3019 RMK AO2 SLP232 T10281072,KARR,2015-02-22T06:52:00Z,41.77,-88.48,-2.8,-7.2,330,18,,6.0,30.188976,1023.2,,TRUE,TRUE,,,,,,HZ,OVC,4200,,,,,,,VFR,,,,,,,,,,,,METAR,215.0
KAQW 220652Z AUTO 00000KT 5SM -SN BR FEW011 BKN024 OVC034 M04/M06 A3009 RMK AO2 SLP202 P0000 T10441056,KAQW,2015-02-22T06:52:00Z,42.7,-73.17,-4.4,-5.6,0,0,,5.0,30.088583,1020.2,,TRUE,TRUE,,,,,,-SN BR,FEW,1100,BKN,2400,OVC,3400,,,MVFR,,,,,,0.0050,,,,,,METAR,199.0
KALS 220652Z AUTO 11018G24KT 10SM BKN080 OVC100 M04/M12 A2995 RMK AO2 SLP136 T10391122 400671100,KALS,2015-02-22T06:52:00Z,37.43,-105.87,-3.9,-12.2,110,18,24,10.0,29.949802,1013.6,,TRUE,TRUE,,,,,,,BKN,8000,OVC,10000,,,,,VFR,,,,6.7,-10.0,,,,,,,METAR,2299.0
KABI 220652Z 14005KT 10SM CLR 07/03 A3001 RMK AO2 SLP158 T00670033,KABI,2015-02-22T06:52:00Z,32.42,-99.68,6.7,3.3,140,5,,10.0,30.008858,1015.8,,,TRUE,,,,,,,CLR,,,,,,,,VFR,,,,,,,,,,,,METAR,548.0
KMLI 220652Z AUTO 31012G19KT 10SM CLR M08/M12 A3029 RMK AO2 SLP265 T10781122,KMLI,2015-02-22T06:52:00Z,41.45,-90.52,-7.8,-12.2,310,12,19,10.0,30.28937,1026.5,,TRUE,TRUE,,,,,,,CLR,,,,,,,,VFR,,,,,,,,,,,,METAR,184.0
KMLF 220652Z AUTO 35015KT 10SM OVC065 03/M09 A2991 RMK AO2 SLP117 T00281089 401061044 TSNO,KMLF,2015-02-22T06:52:00Z,38.42,-113.02,2.8,-8.9,350,15,,10.0,29.911417,1011.7,,TRUE,TRUE,,,TRUE,,,,OVC,6500,,,,,,,VFR,,,,10.6,-4.4,,,,,,,METAR,1534.0
KMKE 220652Z 32009KT 9SM OVC046 M06/M12 A3018 RMK AO2 SNE43 SLP232 P0000 T10561122,KMKE,2015-02-22T06:52:00Z,42.95,-87.9,-5.6,-12.2,320,9,,9.0,30.180119,1023.2,,,TRUE,,,,,,,OVC,4600,,,,,,,VFR,,,,,,0.0050,,,,,,METAR,206.0
KMHK 220652Z AUTO 02011KT 10SM OVC065 M03/M09 A3040 RMK AO2 SLP302 T10331089 TSNO,KMHK,2015-02-22T06:52:00Z,39.13,-96.68,-3.3,-8.9,20,11,,10.0,30.398623,1030.2,,TRUE,TRUE,,,TRUE,,,,OVC,6500,,,,,,,VFR,,,,,,,,,,,,METAR,317.0
KMFD 220652Z 00000KT 1 3/4SM BR OVC002 M07/M08 A3010 RMK AO2 SLP211 T10721078,KMFD,2015-02-22T06:52:00Z,40.82,-82.52,-7.2,-7.8,0,0,,1.75,30.100393,1021.1,,,TRUE,,,,,,BR,OVC,200,,,,,,,LIFR,,,,,,,,,,,,METAR,395.0
KMEB 220652Z AUTO 18004KT 10SM OVC120 09/07 A3018 RMK AO2 SLP220 T00890072 $,KMEB,2015-02-22T06:52:00Z,34.78,-79.37,8.9,7.2,180,4,,10.0,30.180119,1022.0,,TRUE,TRUE,TRUE,,,,,,OVC,12000,,,,,,,VFR,,,,,,,,,,,,METAR,67.0
KMDH 220652Z AUTO 33003KT 2SM BR CLR M03/M03 A3022 RMK AO2 SLP238 I1000 T10281033,KMDH,2015-02-22T06:52:00Z,37.78,-89.25,-2.8,-3.3,330,3,,2.0,30.221457,1023.8,,TRUE,TRUE,,,,,,BR,CLR,,,,,,,,IFR,,,,,,,,,,,,METAR,130.0
KMBG 220652Z AUTO 35014KT 10SM CLR M18/M23 A3049 RMK AO2 SLP366 T11781228,KMBG,2015-02-22T06:52:00Z,45.55,-100.42,-17.8,-22.8,350,14,,10.0,30.490158,1036.6,,TRUE,TRUE,,,,,,,CLR,,,,,,,,VFR,,,,,,,,,,,,METAR,510.0
KLWC 220652Z AUTO 02012KT 10SM CLR M03/M09 A3038 RMK AO2 SLP292 T10331094,KLWC,2015-02-22T06:52:00Z,39.02,-95.22,-3.3,-9.4,20,12,,10.0,30.380905,1029.2,,TRUE,TRUE,,,,,,,CLR,,,,,,,,VFR,,,,,,,,,,,,METAR,253.0
KISN 220652Z AUTO 34012KT 10SM CLR M24/M28 A3062 RMK AO2 SLP430 T12441283 $,KISN,2015-02-22T06:52:00Z,48.17,-103.63,-24.4,-28.3,340,12,,10.0,30.620079,1043.0,,TRUE,TRUE,TRUE,,,,,,CLR,,,,,,,,VFR,,,,,,,,,,,,METAR,579.0
KIOW 220652Z AUTO 33014KT 10SM CLR M09/M14 A3034 RMK AO2 SLP285 T10941144,KIOW,2015-02-22T06:52:00Z,41.63,-91.55,-9.4,-14.4,330,14,,10.0,30.339567,1028.5,,TRUE,TRUE,,,,,,,CLR,,,,,,,,VFR,,,,,,,,,,,,METAR,198.0
KIJD 220652Z AUTO 00000KT 2 1/2SM -SN BR OVC008 00/M01 A3013 RMK AO2 RAB14E49UPB49E51SNE14B51 SLP205 P0003 I1000 T00001011,KIJD,2015-02-22T06:52:00Z,41.75,-72.18,0.0,-1.1,0,0,,2.5,30.129921,1020.5,,TRUE,TRUE,,,,,,-SN BR,OVC,800,,,,,,,IFR,,,,,,0.03,,,,,,METAR,75.0
KIEN 220652Z AUTO 35004KT 10SM FEW040 M11/M17 A3039 RMK AO2 SLP342 T11061167 400001106,KIEN,2015-02-22T06:52:00Z,43.03,-102.52,-10.6,-16.7,350,4,,10.0,30.389763,1034.2,,TRUE,TRUE,,,,,,,FEW,4000,,,,,,,VFR,,,,,-10.6,,,,,,,METAR,998.0
KIAD 220652Z COR 22003KT 3SM -RA BR BKN006 OVC065 01/M01 A3011 RMK AO2 SFC VIS 4 RAB52 SLP199 P0000 T00061006,KIAD,2015-02-22T06:52:00Z,38.93,-77.45,0.6,-0.6,220,3,,3.0,30.109253,1019.9,TRUE,,TRUE,,,,,,-RA BR,BKN,600,OVC,6500,,,,,IFR,,,,,,0.0050,,,,,,METAR,93.0
KHUT 220652Z AUTO 04014G25KT 4SM -SN OVC038 M02/M07 A3030 RMK AO2 PK WND 02027/0612 SNE0559B10 SLP264 P0000 T10221067,KHUT,2015-02-22T06:52:00Z,38.07,-97.87,-2.2,-6.7,40,14,25,4.0,30.301182,1026.4,,TRUE,TRUE,,,,,,-SN,OVC,3800,,,,,,,MVFR,,,,,,0.0050,,,,,,METAR,467.0
KHIE 220652Z AUTO 00000KT 6SM -SN BR OVC045 M07/M08 A3004 RMK AO2 SLP192 P0002 T10671083,KHIE,2015-02-22T06:52:00Z,44.37,-71.55,-6.7,-8.3,0,0,,6.0,30.041338,1019.2,,TRUE,TRUE,,,,,,-SN BR,OVC,4500,,,,,,,VFR,,,,,,0.02,,,,,,METAR,318.0
KGLS 220652Z AUTO 17009KT 7SM FEW014 BKN029 OVC037 18/18 A2999 RMK AO2 SLP156 T01780178,KGLS,2015-02-22T06:52:00Z,29.27,-94.87,17.8,17.8,170,9,,7.0,29.991142,1015.6,,TRUE,TRUE,,,,,,,FEW,1400,BKN,2900,OVC,3700,,,MVFR,,,,,,,,,,,,METAR,6.0
KFIT 220652Z AUTO 26004KT 3SM -SN FEW021 OVC033 00/M03 A3010 RMK AO2 SLP197 P0001 T00001033,KFIT,2015-02-22T06:52:00Z,42.55,-71.75,0.0,-3.3,260,4,,3.0,30.100393,1019.7,,TRUE,TRUE,,,,,,-SN,FEW,2100,OVC,3300,,,,,MVFR,,,,,,0.01,,,,,,METAR,103.0
KEST 220652Z AUTO 34014KT 10SM CLR M17/M21 A3040 RMK AO2 SLP323 T11671211,KEST,2015-02-22T06:52:00Z,43.4,-94.75,-16.7,-21.1,340,14,,10.0,30.398623,1032.3,,TRUE,TRUE,,,,,,,CLR,,,,,,,,VFR,,,,,,,,,,,,METAR,401.0
KNFW 220652Z AUTO 05005KT 10SM FEW017 09/04 A3006 RMK AO2 SLP162 T00890044 $,KNFW,2015-02-22T06:52:00Z,32.78,-97.43,8.9,4.4,50,5,,10.0,30.059055,1016.2,,TRUE,TRUE,TRUE,,,,,,FEW,1700,,,,,,,VFR,,,,,,,,,,,,METAR,198.0
KBLU 220652Z AUTO 05010G20KT 020V090 10SM SCT065 OVC085 04/M10 A2987 RMK AO2 SLP081 T00441100,KBLU,2015-02-22T06:52:00Z,39.28,-120.7,4.4,-10.0,50,10,20,10.0,29.870079,1008.1,,TRUE,TRUE,,,,,,,SCT,6500,OVC,8500,,,,,VFR,,,,,,,,,,,,METAR,1609.0
KN60 220652Z AUTO 33011KT M27/M29 A3056 RMK AO1 SLP408 T12671294,KN60,2015-02-22T06:52:00Z,47.65,-101.43,-26.7,-29.4,330,11,,,30.561024,1040.8,,TRUE,TRUE,,,,,,,,,,,,,,,,,,,,,,,,,,,METAR,582.0
KCZZ 220652Z AUTO 24012KT 09/07 A2990 RMK AO1 SLP108 T00940067,KCZZ,2015-02-22T06:52:00Z,32.63,-116.47,9.4,6.7,240,12,,,29.899607,1010.8,,TRUE,TRUE,,,,,,,,,,,,,,,,,,,,,,,,,,,METAR,807.0
KNHK 220652Z AUTO 00000KT 5SM UP BR BKN060 OVC070 01/00 A3015 RMK AO2 VIS 2 1/2 RY24 RAB11E20 SLP210 P0001 T00060000,KNHK,2015-02-22T06:52:00Z,38.27,-76.4,0.6,0.0,0,0,,5.0,30.15059,1021.0,,TRUE,TRUE,,,,,,BR UP,BKN,6000,OVC,7000,,,,,MVFR,,,,,,0.01,,,,,,METAR,12.0
KCDJ 220652Z AUTO 35004KT M04/M09 A3036 RMK AO1 SLP293 T10391089,KCDJ,2015-02-22T06:52:00Z,39.82,-93.58,-3.9,-8.9,350,4,,,30.360237,1029.3,,TRUE,TRUE,,,,,,,,,,,,,,,,,,,,,,,,,,,METAR,234.0
KBAN 220652Z AUTO 02009G14KT 10SM OVC055 01/M11 A2990 RMK AO2 SLP095 T00061106 $,KBAN,2015-02-22T06:52:00Z,38.35,-119.52,0.6,-10.6,20,9,14,10.0,29.899607,1009.5,,TRUE,TRUE,TRUE,,,,,,OVC,5500,,,,,,,VFR,,,,,,,,,,,,METAR,2057.0
KNRB 220652Z AUTO 18007KT 10SM CLR 14/11 A3019 RMK AO2 SLP222 T01440111 $,KNRB,2015-02-22T06:52:00Z,30.38,-81.42,14.4,11.1,180,7,,10.0,30.188976,1022.2,,TRUE,TRUE,TRUE,,,,,,CLR,,,,,,,,VFR,,,,,,,,,,,,METAR,5.0
KREO 220652Z AUTO 10005KT M04/M08 A3013 RMK AO1 SLP220 T10391078,KREO,2015-02-22T06:52:00Z,42.58,-117.87,-3.9,-7.8,100,5,,,30.129921,1022.0,,TRUE,TRUE,,,,,,,,,,,,,,,,,,,,,,,,,,,METAR,1235.0
KPYM 220652Z AUTO 23005KT 4SM RA BR BKN003 OVC013 03/03 A3012 RMK AO2 SLP199 P0010 T00280028,KPYM,2015-02-22T06:52:00Z,41.92,-70.73,2.8,2.8,230,5,,4.0,30.121063,1019.9,,TRUE,TRUE,,,,,,RA BR,BKN,300,OVC,1300,,,,,LIFR,,,,,,0.1,,,,,,METAR,43.0
KHRL 220652Z 15013KT 8SM BKN013 OVC019 22/19 A2992 RMK AO2 SLP132 T02170194,KHRL,2015-02-22T06:52:00Z,26.23,-97.65,21.7,19.4,150,13,,8.0,29.920275,1013.2,,,TRUE,,,,,,,BKN,1300,OVC,1900,,,,,MVFR,,,,,,,,,,,,METAR,10.0
KAFN 220652Z AUTO VRB04KT 8SM OVC010 M03/M04 A3005 RMK AO2 SNE51 SLP197 P0000 T10281044,KAFN,2015-02-22T06:52:00Z,42.8,-72.0,-2.8,-4.4,0,4,,8.0,30.050198,1019.7,,TRUE,TRUE,,,,,,,OVC,1000,,,,,,,MVFR,,,,,,0.0050,,,,,,METAR,313.0
KVTN 220652Z AUTO 36007KT 10SM SCT009 M12/M14 A3043 RMK AO2 SLP348 T11171139,KVTN,2015-02-22T06:52:00Z,42.87,-100.55,-11.7,-13.9,360,7,,10.0,30.431103,1034.8,,TRUE,TRUE,,,,,,,SCT,900,,,,,,,VFR,,,,,,,,,,,,METAR,788.0
PKMR 220652Z 06007KT 15SM FEW015 FEW050 SCT300 28/24 A2978 RMK SLP086 T02840238,PKMR,2015-02-22T06:52:00Z,7.08,171.38,28.4,23.8,60,7,,15.0,29.778543,1008.6,,,,,,,,,,FEW,1500,FEW,5000,SCT,30000,,,VFR,,,,,,,,,,,,METAR,4.0
KABQ 220652Z 32005KT 10SM SCT140 BKN250 08/M08 A2993 RMK AO2 SLP097 T00781083 401940011,KABQ,2015-02-22T06:52:00Z,35.05,-106.62,7.8,-8.3,320,5,,10.0,29.929134,1009.7,,,TRUE,,,,,,,SCT,14000,BKN,25000,,,,,VFR,,,,19.4,1.1,,,,,,,METAR,1618.0
CYQA 220652Z AUTO 00000KT 9SM -SN OVC020 M14/M15 A3004 RMK SLP195,CYQA,2015-02-22T06:52:00Z,44.97,-79.28,-14.0,-15.0,0,0,,9.0,30.041338,1019.5,,TRUE,,,,,,,-SN,OVC,2000,,,,,,,MVFR,,,,,,,,,,,,SPECI,282.0
KHCD 220652Z AUTO 31013KT 10SM CLR M19/M23 A3043 RMK AO2 T11901235,KHCD,2015-02-22T06:52:00Z,44.87,-94.38,-19.0,-23.5,310,13,,10.0,30.431103,,,TRUE,TRUE,,,,,,,CLR,,,,,,,,VFR,,,,,,,,,,,,METAR,323.0
KJKJ 220652Z AUTO 35015KT 10SM CLR M25/M28 A3056 RMK AO2,KJKJ,2015-02-22T06:52:00Z,46.83,-96.67,-25.0,-28.0,350,15,,10.0,30.561024,,,TRUE,TRUE,,,,,,,CLR,,,,,,,,VFR,,,,,,,,,,,,METAR,280.0
KBJI 220652Z AUTO 31008KT 10SM CLR M28/M30 A3040 RMK AO2 T12771304,KBJI,2015-02-22T06:52:00Z,47.5,-94.92,-27.7,-30.4,310,8,,10.0,30.398623,,,TRUE,TRUE,,,,,,,CLR,,,,,,,,VFR,,,,,,,,,,,,METAR,420.0
ETHC 220652Z 24006KT 5000 BR BKN009 02/01 Q1008 GRN,ETHC,2015-02-22T06:52:00Z,52.6,10.02,2.0,1.0,240,6,,3.11,29.763779,,,,,,,,,,BR,BKN,900,,,,,,,IFR,,,,,,,,,,,,SPECI,52.0
EBLB 220652Z AUTO 26004KT 3600 NCD M03/M03 Q1007 YLO,EBLB,2015-02-22T06:52:00Z,50.47,6.17,-3.0,-3.0,260,4,,2.24,29.734253,,,TRUE,,,,,,,,,,,,,,,,,,,,,,,,,,,,METAR,570.0
KEVM 220652Z AUTO 33008KT 4SM HZ OVC005 M22/M26 A3030 RMK AO2,KEVM,2015-02-22T06:52:00Z,47.42,-92.5,-22.0,-26.0,330,8,,4.0,30.301182,,,TRUE,TRUE,,,,,,HZ,OVC,500,,,,,,,IFR,,,,,,,,,,,,METAR,421.0
KD39 220652Z AUTO 31008KT 10SM CLR M22/M26 A3043 RMK AO2 T12201263,KD39,2015-02-22T06:52:00Z,45.7,-94.93,-22.0,-26.3,310,8,,10.0,30.431103,,,TRUE,TRUE,,,,,,,CLR,,,,,,,,VFR,,,,,,,,,,,,METAR,380.0
KATL 220652Z COR 01010KT 4SM -RA BR BKN004 OVC013 08/07 A3014 RMK AO2 RAB11 SLP208 P0007 T00830072,KATL,2015-02-22T06:52:00Z,33.63,-84.45,8.3,7.2,10,10,,4.0,30.138779,1020.8,TRUE,,TRUE,,,,,,-RA BR,BKN,400,OVC,1300,,,,,LIFR,,,,,,0.07,,,,,,METAR,296.0
KDCA 220652Z 19006KT 5SM -RA BR BKN007 OVC019 02/M01 A3014 RMK AO2 SLP206 P0002 T00171006,KDCA,2015-02-22T06:52:00Z,38.85,-77.03,1.7,-0.6,190,6,,5.0,30.138779,1020.6,,,TRUE,,,,,,-RA BR,BKN,700,OVC,1900,,,,,IFR,,,,,,0.02,,,,,,METAR,18.0
KCVG 220652Z 36003KT 6SM BR OVC200 M04/M06 A3014 RMK AO2 SLP214 BINOVC T10441056 $,KCVG,2015-02-22T06:52:00Z,39.05,-84.67,-4.4,-5.6,360,3,,6.0,30.138779,1021.4,,,TRUE,TRUE,,,,,BR,OVC,20000,,,,,,,VFR,,,,,,,,,,,,METAR,269.0
KCNU 220652Z AUTO 02013KT 10SM OVC095 00/M05 A3031 RMK AO2 SLP266 T00001050,KCNU,2015-02-22T06:52:00Z,37.67,-95.48,0.0,-5.0,20,13,,10.0,30.31004,1026.6,,TRUE,TRUE,,,,,,,OVC,9500,,,,,,,VFR,,,,,,,,,,,,METAR,297.0
KCLT 220652Z 11004KT 8SM RA OVC075 03/M02 A3015 RMK AO2 RAB29 SLP213 P0002 T00331022,KCLT,2015-02-22T06:52:00Z,35.22,-80.95,3.3,-2.2,110,4,,8.0,30.15059,1021.3,,,TRUE,,,,,,RA,OVC,7500,,,,,,,VFR,,,,,,0.02,,,,,,METAR,220.0
KCKV 220652Z AUTO 36006KT 9SM OVC011 00/M02 A3018 RMK AO2 SLP222 T00001017,KCKV,2015-02-22T06:52:00Z,36.62,-87.42,0.0,-1.7,360,6,,9.0,30.180119,1022.2,,TRUE,TRUE,,,,,,,OVC,1100,,,,,,,MVFR,,,,,,,,,,,,METAR,165.0
KCID 220652Z AUTO 32013KT 10SM CLR M12/M14 A3032 RMK AO2 SLP281 T11171144,KCID,2015-02-22T06:52:00Z,41.88,-91.72,-11.7,-14.4,320,13,,10.0,30.318897,1028.1,,TRUE,TRUE,,,,,,,CLR,,,,,,,,VFR,,,,,,,,,,,,METAR,264.0
KCFV 220652Z AUTO 03012KT 10SM OVC095 03/M02 A3027 RMK AO2 SLP252 T00331017,KCFV,2015-02-22T06:52:00Z,37.08,-95.57,3.3,-1.7,30,12,,10.0,30.268702,1025.2,,TRUE,TRUE,,,,,,,OVC,9500,,,,,,,VFR,,,,,,,,,,,,METAR,225.0
KBML 220652Z AUTO 00000KT 4SM -SN BR BKN027 OVC034 M08/M10 A3002 RMK AO2 SLP187 P0000 T10781100,KBML,2015-02-22T06:52:00Z,44.58,-71.18,-7.8,-10.0,0,0,,4.0,30.02067,1018.7,,TRUE,TRUE,,,,,,-SN BR,BKN,2700,OVC,3400,,,,,MVFR,,,,,,0.0050,,,,,,METAR,345.0
KBLH 220652Z AUTO 16009KT 10SM CLR 17/06 A2974 RMK AO2 SLP065 T01720056,KBLH,2015-02-22T06:52:00Z,33.62,-114.72,17.2,5.6,160,9,,10.0,29.740158,1006.5,,TRUE,TRUE,,,,,,,CLR,,,,,,,,VFR,,,,,,,,,,,,METAR,119.0
KBLF 220652Z AUTO 30004KT 10SM BKN029 OVC035 06/02 A3002 RMK AO2 SLP172 T00610017,KBLF,2015-02-22T06:52:00Z,37.3,-81.2,6.1,1.7,300,4,,10.0,30.02067,1017.2,,TRUE,TRUE,,,,,,,BKN,2900,OVC,3500,,,,,MVFR,,,,,,,,,,,,METAR,873.0
KBIS 220652Z AUTO 35012KT 10SM FEW013 M22/M26 A3058 RMK AO2 SLP402 T12171256,KBIS,2015-02-22T06:52:00Z,46.77,-100.75,-21.7,-25.6,350,12,,10.0,30.578741,1040.2,,TRUE,TRUE,,,,,,,FEW,1300,,,,,,,VFR,,,,,,,,,,,,METAR,505.0
KBDR 220652Z AUTO 27003KT 3SM -SN BR OVC003 M01/M01 A3015 RMK AO2 UPB08E24FZRAE08B24E46SNB46 SLP210 P0003 I1002 T10061006,KBDR,2015-02-22T06:52:00Z,41.17,-73.13,-0.6,-0.6,270,3,,3.0,30.15059,1021.0,,TRUE,TRUE,,,,,,-SN BR,OVC,300,,,,,,,LIFR,,,,,,0.03,,,,,,METAR,7.0
KW29 220652Z AUTO 18005KT 7SM -DZ 00/00 A3015 RMK AO1,KW29,2015-02-22T06:52:00Z,38.98,-76.33,0.0,0.0,180,5,,7.0,30.15059,,,TRUE,TRUE,,,,,,-DZ,,,,,,,,,,,,,,,,,,,,,METAR,15.0
KTKC 220652Z AUTO 34010KT 10SM CLR M17/M21 A3044 RMK AO2 T11701208,KTKC,2015-02-22T06:52:00Z,44.25,-95.62,-17.0,-20.8,340,10,,10.0,30.43996,,,TRUE,TRUE,,,,,,,CLR,,,,,,,,VFR,,,,,,,,,,,,METAR,408.0
KTAN 220652Z AUTO 23004KT 5SM -RA BR SCT005 BKN011 OVC017 02/02 A3013 RMK AO2 SLP202 P0010 T00220017,KTAN,2015-02-22T06:52:00Z,41.88,-71.02,2.2,1.7,230,4,,5.0,30.129921,1020.2,,TRUE,TRUE,,,,,,-RA BR,SCT,500,BKN,1100,OVC,1700,,,MVFR,,,,,,0.1,,,,,,METAR,7.0
KDRA 220652Z AUTO 01005KT 10SM OVC100 12/M09 A2973 RMK AO2 SLP038 T01221094,KDRA,2015-02-22T06:52:00Z,36.62,-116.03,12.2,-9.4,10,5,,10.0,29.731298,1003.8,,TRUE,TRUE,,,,,,,OVC,10000,,,,,,,VFR,,,,,,,,,,,,METAR,1006.0
KSUX 220652Z AUTO 34016KT 10SM BKN110 M10/M19 A3047 RMK AO2 PK WND 33027/0623 SLP336 T11001189,KSUX,2015-02-22T06:52:00Z,42.38,-96.38,-10.0,-18.9,340,16,,10.0,30.469488,1033.6,,TRUE,TRUE,,,,,,,BKN,11000,,,,,,,VFR,,,,,,,,,,,,METAR,338.0
KSPS 220652Z AUTO 06008KT 10SM CLR 05/02 A3007 RMK AO2 SLP181 T00500017,KSPS,2015-02-22T06:52:00Z,33.98,-98.5,5.0,1.7,60,8,,10.0,30.070866,1018.1,,TRUE,TRUE,,,,,,,CLR,,,,,,,,VFR,,,,,,,,,,,,METAR,308.0
KSPI 220652Z 35011KT 10SM OVC022 M01/M06 A3025 RMK AO2 SLP249 T10111056,KSPI,2015-02-22T06:52:00Z,39.85,-89.68,-1.1,-5.6,350,11,,10.0,30.250984,1024.9,,,TRUE,,,,,,,OVC,2200,,,,,,,MVFR,,,,,,,,,,,,METAR,181.0
KSGF 220652Z 34006KT 6SM BR SCT120 01/M01 A3021 RMK AO2 SLP240 T00061011,KSGF,2015-02-22T06:52:00Z,37.23,-93.38,0.6,-1.1,340,6,,6.0,30.209646,1024.0,,,TRUE,,,,,,BR,SCT,12000,,,,,,,VFR,,,,,,,,,,,,METAR,390.0
KRAP 220652Z AUTO 01011KT 4SM -SN BR FEW010 SCT019 OVC035 M12/M13 A3041 RMK AO2 SLP357 P0001 T11171133 400221122,KRAP,2015-02-22T06:52:00Z,44.05,-103.05,-11.7,-13.3,10,11,,4.0,30.410433,1035.7,,TRUE,TRUE,,,,,,-SN BR,FEW,1000,SCT,1900,OVC,3500,,,MVFR,,,,2.2,-12.2,0.01,,,,,,METAR,965.0
KPWK 220652Z AUTO 32012KT 7SM OVC042 M03/M07 A3019 RMK AO2 SLP232 T10281072,KPWK,2015-02-22T06:52:00Z,42.12,-87.9,-2.8,-7.2,320,12,,7.0,30.188976,1023.2,,TRUE,TRUE,,,,,,,OVC,4200,,,,,,,VFR,,,,,,,,,,,,METAR,203.0
KPPF 220652Z AUTO 02010G17KT 7SM -SN OVC042 02/M02 A3029 RMK AO2 SNB49 SLP259 P0000 T00221017 TSNO,KPPF,2015-02-22T06:52:00Z,37.33,-95.5,2.2,-1.7,20,10,17,7.0,30.28937,1025.9,,TRUE,TRUE,,,TRUE,,,-SN,OVC,4200,,,,,,,VFR,,,,,,0.0050,,,,,,METAR,274.0
KORE 220652Z AUTO 18004KT 10SM BKN016 OVC095 M02/M03 A3009 RMK AO2 SNE18 SLP198 P0000 T10221033,KORE,2015-02-22T06:52:00Z,42.57,-72.28,-2.2,-3.3,180,4,,10.0,30.088583,1019.8,,TRUE,TRUE,,,,,,,BKN,1600,OVC,9500,,,,,MVFR,,,,,,0.0050,,,,,,METAR,164.0
KOMA 220652Z 35017G26KT 10SM SCT120 M08/M16 A3045 RMK AO2 PK WND 35026/0609 SLP326 T10831161,KOMA,2015-02-22T06:52:00Z,41.32,-95.9,-8.3,-16.1,350,17,26,10.0,30.448818,1032.6,,,TRUE,,,,,,,SCT,12000,,,,,,,VFR,,,,,,,,,,,,METAR,312.0
KOKC 220652Z 09013G19KT 10SM SCT120 BKN150 OVC200 07/01 A3012 RMK AO2 SLP199 T00720006,KOKC,2015-02-22T06:52:00Z,35.38,-97.6,7.2,0.6,90,13,19,10.0,30.121063,1019.9,,,TRUE,,,,,,,SCT,12000,BKN,15000,OVC,20000,,,VFR,,,,,,,,,,,,METAR,390.0
KOKB 220652Z AUTO 22006KT 10SM OVC045 16/08 A2993 RMK AO2 SLP133 T01610083,KOKB,2015-02-22T06:52:00Z,33.22,-117.35,16.1,8.3,220,6,,10.0,29.929134,1013.3,,TRUE,TRUE,,,,,,,OVC,4500,,,,,,,VFR,,,,,,,,,,,,METAR,8.0
KTRM 220652Z AUTO 34016G26KT 10SM CLR 18/07 A2973 RMK AO2 PK WND 34026/0556 SLP069 T01830067 TSNO,KTRM,2015-02-22T06:52:00Z,33.63,-116.17,18.3,6.7,340,16,26,10.0,29.731298,1006.9,,TRUE,TRUE,,,TRUE,,,,CLR,,,,,,,,VFR,,,,,,,,,,,,METAR,-35.0
KTOL 220652Z 25003KT 6SM BR SCT065 BKN080 M13/M14 A3015 RMK AO2 SLP222 T11281144,KTOL,2015-02-22T06:52:00Z,41.58,-83.8,-12.8,-14.4,250,3,,6.0,30.15059,1022.2,,,TRUE,,,,,,BR,SCT,6500,BKN,8000,,,,,VFR,,,,,,,,,,,,METAR,210.0
KFLY 220652Z AUTO 36014KT 5SM -SN OVC034 M11/M14 A3014 RMK AO2 T11131140 410161113,KFLY,2015-02-22T06:52:00Z,38.95,-104.57,-11.3,-14.0,360,14,,5.0,30.138779,,,TRUE,TRUE,,,,,,-SN,OVC,3400,,,,,,,MVFR,,,,-1.6,-11.3,,,,,,,METAR,2096.0
KMWH 220652Z AUTO 06005KT 10SM CLR 01/M06 A3049 RMK AO2 SLP333 T00061061,KMWH,2015-02-22T06:52:00Z,47.2,-119.32,0.6,-6.1,60,5,,10.0,30.490158,1033.3,,TRUE,TRUE,,,,,,,CLR,,,,,,,,VFR,,,,,,,,,,,,METAR,362.0
KDVN 220652Z AUTO 31012KT 10SM FEW026 M09/M14 A3028 RMK AO2 SLP266 T10941139,KDVN,2015-02-22T06:52:00Z,41.62,-90.58,-9.4,-13.9,310,12,,10.0,30.280512,1026.6,,TRUE,TRUE,,,,,,,FEW,2600,,,,,,,VFR,,,,,,,,,,,,METAR,230.0
KP69 220652Z AUTO 00000KT M02/M03 A3048 RMK AO1 SLP346 T10221033,KP69,2015-02-22T06:52:00Z,46.15,-115.6,-2.2,-3.3,0,0,,,30.481298,1034.6,,TRUE,TRUE,,,,,,,,,,,,,,,,,,,,,,,,,,,METAR,480.0
CYSB 220652Z 24005KT 1/4SM R22/2200FT/N FZFG VV001 M15/M16 A2998 RMK FG8 SLP179,CYSB,2015-02-22T06:52:00Z,46.63,-80.8,-15.0,-16.0,240,5,,0.25,29.97933,1017.9,,,,,,,,,FZFG,OVX,0,,,,,,,LIFR,,,,,,,,,,,100,SPECI,348.0
KNZY 220652Z AUTO 25006KT 10SM OVC044 16/09 A2994 RMK AO2 SLP139 T01560089 $,KNZY,2015-02-22T06:52:00Z,32.7,-117.22,15.6,8.9,250,6,,10.0,29.940945,1013.9,,TRUE,TRUE,TRUE,,,,,,OVC,4400,,,,,,,VFR,,,,,,,,,,,,METAR,8.0
PATA 220652Z AUTO 05007KT 10SM BKN085 OVC110 M06/M09 A2985 RMK AO2 SLP116 T10561089 TSNO,PATA,2015-02-22T06:52:00Z,65.17,-152.1,-5.6,-8.9,50,7,,10.0,29.84941,1011.6,,TRUE,TRUE,,,TRUE,,,,BKN,8500,OVC,11000,,,,,VFR,,,,,,,,,,,,METAR,67.0
KAEL 220652Z AUTO 32008G15KT 10SM CLR M18/M22 A3037 RMK AO2,KAEL,2015-02-22T06:52:00Z,43.68,-93.37,-18.0,-22.0,320,8,15,10.0,30.369095,,,TRUE,TRUE,,,,,,,CLR,,,,,,,,VFR,,,,,,,,,,,,METAR,383.0
MMMZ 220651Z 03007KT 8SM SKC 16/15 A2995 RMK HZY,MMMZ,2015-02-22T06:51:00Z,23.17,-106.27,16.0,15.0,30,7,,8.0,29.949802,,,,,,,,,,,SKC,,,,,,,,VFR,,,,,,,,,,,,METAR,10.0
KFME 220651Z AUTO 00000KT 1 3/4SM OVC006 00/00 A3015 RMK AO1,KFME,2015-02-22T06:51:00Z,39.08,-76.77,0.0,0.0,0,0,,1.75,30.15059,,,TRUE,TRUE,,,,,,,OVC,600,,,,,,,IFR,,,,,,,,,,,,METAR,46.0
PTRO 220651Z 03006KT 12SM -SHRA BKN015CB BKN120 OVC300 25/24 A2985 RMK CB VC ALQDS,PTRO,2015-02-22T06:51:00Z,7.37,134.55,25.0,24.0,30,6,,12.0,29.84941,,,,,,,,,,-SHRA,BKN,1500,BKN,12000,OVC,30000,,,MVFR,,,,,,,,,,,,METAR,54.0
KP59 220651Z AUTO 04012KT M17/M22 A3023 RMK AO1 SLP262 T11671217 $,KP59,2015-02-22T06:51:00Z,47.47,-87.88,-16.7,-21.7,40,12,,,30.230314,1026.2,,TRUE,TRUE,TRUE,,,,,,,,,,,,,,,,,,,,,,,,,,METAR,190.0
KP58 220651Z AUTO 36011G18KT M07/M09 A3009 RMK AO1 SLP207 T10671089,KP58,2015-02-22T06:51:00Z,44.02,-82.8,-6.7,-8.9,360,11,18,,30.088583,1020.7,,TRUE,TRUE,,,,,,,,,,,,,,,,,,,,,,,,,,,METAR,179.0
KTEB 220651Z 33004KT 2 1/2SM -SN OVC006 M01/M03 A3015 RMK AO2 SNB05 CIG 005V009 SLP209 P0002 T10111028 $,KTEB,2015-02-22T06:51:00Z,40.87,-74.05,-1.1,-2.8,330,4,,2.5,30.15059,1020.9,,,TRUE,TRUE,,,,,-SN,OVC,600,,,,,,,IFR,,,,,,0.02,,,,,,METAR,7.0
KSTL 220651Z 34009KT 10SM OVC024 02/M03 A3024 RMK AO2 SLP250 T00171033,KSTL,2015-02-22T06:51:00Z,38.75,-90.37,1.7,-3.3,340,9,,10.0,30.239174,1025.0,,,TRUE,,,,,,,OVC,2400,,,,,,,MVFR,,,,,,,,,,,,METAR,171.0
KSMO 220651Z AUTO 23004KT 10SM OVC044 16/10 A2992 RMK AO2 SLP129 T01560100 $,KSMO,2015-02-22T06:51:00Z,34.02,-118.45,15.6,10.0,230,4,,10.0,29.920275,1012.9,,TRUE,TRUE,TRUE,,,,,,OVC,4400,,,,,,,VFR,,,,,,,,,,,,METAR,57.0
KSJT 220651Z 07006KT 10SM CLR 09/05 A2996 RMK AO2 SLP139 T00890050,KSJT,2015-02-22T06:51:00Z,31.37,-100.5,8.9,5.0,70,6,,10.0,29.958662,1013.9,,,TRUE,,,,,,,CLR,,,,,,,,VFR,,,,,,,,,,,,METAR,576.0
KSAT 220651Z 06007KT 10SM OVC014 16/09 A2998 RMK AO2 SLP136 T01560089,KSAT,2015-02-22T06:51:00Z,29.53,-98.47,15.6,8.9,60,7,,10.0,29.97933,1013.6,,,TRUE,,,,,,,OVC,1400,,,,,,,MVFR,,,,,,,,,,,,METAR,243.0
KSAN 220651Z 24007KT 10SM FEW023 BKN044 16/08 A2996 RMK AO2 SLP146 T01610083,KSAN,2015-02-22T06:51:00Z,32.73,-117.18,16.1,8.3,240,7,,10.0,29.958662,1014.6,,,TRUE,,,,,,,FEW,2300,BKN,4400,,,,,VFR,,,,,,,,,,,,METAR,12.0
KROW 220651Z AUTO 11004KT 10SM CLR 10/03 A2986 RMK AO2 SLP079 T01000028 401780033,KROW,2015-02-22T06:51:00Z,33.3,-104.5,10.0,2.8,110,4,,10.0,29.861221,1007.9,,TRUE,TRUE,,,,,,,CLR,,,,,,,,VFR,,,,17.8,3.3,,,,,,,METAR,1112.0
KRDU 220651Z 05003KT 2SM BR OVC003 01/M01 A3018 RMK AO2 SFC VIS 3 SLP222 T00111006,KRDU,2015-02-22T06:51:00Z,35.9,-78.78,1.1,-0.6,50,3,,2.0,30.180119,1022.2,,,TRUE,,,,,,BR,OVC,300,,,,,,,LIFR,,,,,,,,,,,,METAR,130.0
KPWM 220651Z AUTO 00000KT 9SM OVC010 00/M01 A3011 RMK AO2 SNE33 SLP196 P0000 T00001011,KPWM,2015-02-22T06:51:00Z,43.65,-70.3,0.0,-1.1,0,0,,9.0,30.109253,1019.6,,TRUE,TRUE,,,,,,,OVC,1000,,,,,,,MVFR,,,,,,0.0050,,,,,,METAR,15.0
KPVD 220651Z AUTO 18004KT 4SM -RA BR FEW020 SCT030 OVC040 01/01 A3013 RMK AO2 SLP203 P0007 T00110006,KPVD,2015-02-22T06:51:00Z,41.72,-71.43,1.1,0.6,180,4,,4.0,30.129921,1020.3,,TRUE,TRUE,,,,,,-RA BR,FEW,2000,SCT,3000,OVC,4000,,,MVFR,,,,,,0.07,,,,,,METAR,16.0
KPIT 220651Z 36006KT 1/2SM R28R/4500VP6000FT -FZDZ FZFG OVC002 M01/M01 A3005 RMK AO2 FZDZB29SNE10 SLP197 P0000 I1000 T10061011,KPIT,2015-02-22T06:51:00Z,40.5,-80.27,-0.6,-1.1,360,6,,0.5,30.050198,1019.7,,,TRUE,,,,,,-FZDZ FZFG,OVC,200,,,,,,,LIFR,,,,,,0.0050,,,,,,METAR,357.0
KPHX 220651Z 09006KT 10SM BKN270 18/04 A2978 RMK AO2 SLP071 T01780039 402610122 $,KPHX,2015-02-22T06:51:00Z,33.43,-112.02,17.8,3.9,90,6,,10.0,29.778543,1007.1,,,TRUE,TRUE,,,,,,BKN,27000,,,,,,,VFR,,,,26.1,12.2,,,,,,,METAR,336.0
KOXR 220651Z AUTO 30004KT 7SM BKN032 OVC050 15/11 A2990 RMK AO2 SLP124 T01500111,KOXR,2015-02-22T06:51:00Z,34.2,-119.2,15.0,11.1,300,4,,7.0,29.899607,1012.4,,TRUE,TRUE,,,,,,,BKN,3200,OVC,5000,,,,,VFR,,,,,,,,,,,,METAR,20.0
KORF 220651Z AUTO 00000KT 6SM UP BR FEW021 BKN049 OVC070 01/01 A3019 RMK AO2 RAE42UPB00E08B42 SLP222 P0003 T00110006 TSNO,KORF,2015-02-22T06:51:00Z,36.9,-76.2,1.1,0.6,0,0,,6.0,30.188976,1022.2,,TRUE,TRUE,,,TRUE,,,BR UP,FEW,2100,BKN,4900,OVC,7000,,,VFR,,,,,,0.03,,,,,,METAR,14.0
KORD 220651Z 30011KT 7SM -SN OVC044 M02/M07 A3017 RMK AO2 SNB27 SLP224 P0000 T10221067,KORD,2015-02-22T06:51:00Z,41.98,-87.93,-2.2,-6.7,300,11,,7.0,30.171259,1022.4,,,TRUE,,,,,,-SN,OVC,4400,,,,,,,VFR,,,,,,0.0050,,,,,,METAR,200.0
KMYL 220651Z AUTO 02008KT 10SM CLR M06/M14 A3017 RMK AO2 SLP247 T10561139 400331056,KMYL,2015-02-22T06:51:00Z,44.9,-116.1,-5.6,-13.9,20,8,,10.0,30.171259,1024.7,,TRUE,TRUE,,,,,,,CLR,,,,,,,,VFR,,,,3.3,-5.6,,,,,,,METAR,1533.0
KMPV 220651Z AUTO 00000KT 10SM OVC025 M07/M09 A3008 RMK AO2 SLP208 T10721089,KMPV,2015-02-22T06:51:00Z,44.2,-72.57,-7.2,-8.9,0,0,,10.0,30.079725,1020.8,,TRUE,TRUE,,,,,,,OVC,2500,,,,,,,MVFR,,,,,,,,,,,,METAR,343.0
KLGU 220651Z AUTO 11016KT 10SM FEW049 M02/M09 A3007 RMK AO2 SLP189 T10171089 400561022 $,KLGU,2015-02-22T06:51:00Z,41.78,-111.85,-1.7,-8.9,110,16,,10.0,30.070866,1018.9,,TRUE,TRUE,TRUE,,,,,,FEW,4900,,,,,,,VFR,,,,5.6,-2.2,,,,,,,METAR,1355.0
KLGA 220651Z 22006KT 5SM -FZRA BR OVC013 01/M01 A3014 RMK AO2 SLP207 P0001 T00061011 $,KLGA,2015-02-22T06:51:00Z,40.78,-73.88,0.6,-1.1,220,6,,5.0,30.138779,1020.7,,,TRUE,TRUE,,,,,-FZRA BR,OVC,1300,,,,,,,MVFR,,,,,,0.01,,,,,,METAR,11.0
KJFK 220651Z 00000KT 4SM -FZRA BR SCT008 BKN014 OVC035 00/M02 A3017 RMK AO2 SLP214 P0002 T00001017 $,KJFK,2015-02-22T06:51:00Z,40.63,-73.77,0.0,-1.7,0,0,,4.0,30.171259,1021.4,,,TRUE,TRUE,,,,,-FZRA BR,SCT,800,BKN,1400,OVC,3500,,,MVFR,,,,,,0.02,,,,,,METAR,9.0
KJCT 220651Z AUTO 08008KT 10SM FEW025 11/07 A2997 RMK AO2 SLP123 T01110067,KJCT,2015-02-22T06:51:00Z,30.5,-99.77,11.1,6.7,80,8,,10.0,29.970472,1012.3,,TRUE,TRUE,,,,,,,FEW,2500,,,,,,,VFR,,,,,,,,,,,,METAR,522.0
KILG 220651Z AUTO 20004KT 3SM -RA BR OVC005 01/00 A3015 RMK AO2 SLP209 P0003 T00060000 $,KILG,2015-02-22T06:51:00Z,39.67,-75.6,0.6,0.0,200,4,,3.0,30.15059,1020.9,,TRUE,TRUE,TRUE,,,,,-RA BR,OVC,500,,,,,,,IFR,,,,,,0.03,,,,,,METAR,28.0
KIGM 220651Z AUTO 14008KT 10SM CLR 09/M04 A2977 RMK AO2 SLP035 T00891039 402110039 $,KIGM,2015-02-22T06:51:00Z,35.25,-113.93,8.9,-3.9,140,8,,10.0,29.769686,1003.5,,TRUE,TRUE,TRUE,,,,,,CLR,,,,,,,,VFR,,,,21.1,3.9,,,,,,,METAR,1032.0
KHTS 220651Z 33005KT 1/2SM FG OVC003 01/01 A3009 RMK AO2 SLP196 T00110011,KHTS,2015-02-22T06:51:00Z,38.37,-82.55,1.1,1.1,330,5,,0.5,30.088583,1019.6,,,TRUE,,,,,,FG,OVC,300,,,,,,,LIFR,,,,,,,,,,,,METAR,254.0
KHSE 220651Z AUTO 20014G23KT 7SM FEW035 BKN045 OVC055 15/11 A3024 RMK AO2 SLP239 T01500111 TSNO,KHSE,2015-02-22T06:51:00Z,35.23,-75.62,15.0,11.1,200,14,23,7.0,30.239174,1023.9,,TRUE,TRUE,,,TRUE,,,,FEW,3500,BKN,4500,OVC,5500,,,VFR,,,,,,,,,,,,METAR,3.0
KHDO 220651Z AUTO 08012KT 10SM OVC012 19/14 A2996 RMK AO2 SLP131 T01890139,KHDO,2015-02-22T06:51:00Z,29.37,-99.17,18.9,13.9,80,12,,10.0,29.958662,1013.1,,TRUE,TRUE,,,,,,,OVC,1200,,,,,,,MVFR,,,,,,,,,,,,METAR,282.0
KEWR 220651Z 00000KT 5SM -FZRA BR BKN005 OVC010 00/M01 A3015 RMK AO2 SLP209 P0001 T00001011,KEWR,2015-02-22T06:51:00Z,40.68,-74.17,0.0,-1.1,0,0,,5.0,30.15059,1020.9,,,TRUE,,,,,,-FZRA BR,BKN,500,OVC,1000,,,,,IFR,,,,,,0.01,,,,,,METAR,7.0
KERI 220651Z AUTO 22005KT 5SM BR OVC004 M08/M09 A3012 RMK AO2 SLP211 T10781094,KERI,2015-02-22T06:51:00Z,42.08,-80.18,-7.8,-9.4,220,5,,5.0,30.121063,1021.1,,TRUE,TRUE,,,,,,BR,OVC,400,,,,,,,LIFR,,,,,,,,,,,,METAR,222.0
KELP 220651Z 23015G20KT 10SM SCT180 BKN250 18/01 A2990 RMK AO2 SLP067 T01780011 402390139,KELP,2015-02-22T06:51:00Z,31.82,-106.38,17.8,1.1,230,15,20,10.0,29.899607,1006.7,,,TRUE,,,,,,,SCT,18000,BKN,25000,,,,,VFR,,,,23.9,13.9,,,,,,,METAR,1197.0
KEKN 220651Z AUTO 00000KT 3SM -RA BR OVC022 01/01 A3004 RMK AO2 SLP195 P0000 T00060006 TSNO,KEKN,2015-02-22T06:51:00Z,38.88,-79.85,0.6,0.6,0,0,,3.0,30.041338,1019.5,,TRUE,TRUE,,,TRUE,,,-RA BR,OVC,2200,,,,,,,MVFR,,,,,,0.0050,,,,,,METAR,603.0
KCSG 220651Z AUTO 20004KT 10SM FEW020 OVC038 13/09 A3011 RMK AO2 SLP194 T01330089,KCSG,2015-02-22T06:51:00Z,32.52,-84.95,13.3,8.9,200,4,,10.0,30.109253,1019.4,,TRUE,TRUE,,,,,,,FEW,2000,OVC,3800,,,,,VFR,,,,,,,,,,,,METAR,135.0
KCRP 220651Z 17013KT 7SM BKN007 OVC011 20/19 A2993 RMK AO2 SLP135 T02000189,KCRP,2015-02-22T06:51:00Z,27.77,-97.5,20.0,18.9,170,13,,7.0,29.929134,1013.5,,,TRUE,,,,,,,BKN,700,OVC,1100,,,,,IFR,,,,,,,,,,,,METAR,14.0
KCMH 220651Z 34005KT 3SM BR BKN200 M07/M08 A3012 RMK AO2 SLP212 T10671083,KCMH,2015-02-22T06:51:00Z,40.0,-82.88,-6.7,-8.3,340,5,,3.0,30.121063,1021.2,,,TRUE,,,,,,BR,BKN,20000,,,,,,,MVFR,,,,,,,,,,,,METAR,247.0
KCLE 220651Z 26003KT 1/2SM FZFG VV002 M07/M09 A3016 RMK AO2 SLP225 I1000 T10721094,KCLE,2015-02-22T06:51:00Z,41.42,-81.85,-7.2,-9.4,260,3,,0.5,30.159449,1022.5,,,TRUE,,,,,,FZFG,OVX,0,,,,,,,LIFR,,,,,,,,,,,200,METAR,233.0
KCAK 220651Z 00000KT 4SM BR FEW005 OVC016 M06/M07 A3008 RMK AO2 SLP204 T10561072 $,KCAK,2015-02-22T06:51:00Z,40.92,-81.45,-5.6,-7.2,0,0,,4.0,30.079725,1020.4,,,TRUE,TRUE,,,,,BR,FEW,500,OVC,1600,,,,,MVFR,,,,,,,,,,,,METAR,377.0
KBKW 220651Z AUTO 00000KT 4SM -RA BR OVC012 02/01 A3004 RMK AO2 SLP199 P0002 T00220011,KBKW,2015-02-22T06:51:00Z,37.8,-81.12,2.2,1.1,0,0,,4.0,30.041338,1019.9,,TRUE,TRUE,,,,,,-RA BR,OVC,1200,,,,,,,MVFR,,,,,,0.02,,,,,,METAR,764.0
KBGD 220651Z AUTO 10007KT 10SM BKN055 OVC100 07/M01 A3007 RMK AO2 SLP175 T00671011,KBGD,2015-02-22T06:51:00Z,35.7,-101.4,6.7,-1.1,100,7,,10.0,30.070866,1017.5,,TRUE,TRUE,,,,,,,BKN,5500,OVC,10000,,,,,VFR,,,,,,,,,,,,METAR,927.0
KBDL 220651Z 17006KT 1SM R06/P6000FT -SN BR FEW005 SCT025 OVC035 M01/M02 A3012 RMK AO2 SFC VIS 1 1/2 SLP200 P0001 T10061022,KBDL,2015-02-22T06:51:00Z,41.93,-72.68,-0.6,-2.2,170,6,,1.0,30.121063,1020.0,,,TRUE,,,,,,-SN BR,FEW,500,SCT,2500,OVC,3500,,,IFR,,,,,,0.01,,,,,,METAR,60.0
KBAZ 220651Z AUTO 05017KT 10SM OVC016 14/08 A2997 RMK AO2 SLP144 T01390078,KBAZ,2015-02-22T06:51:00Z,29.72,-98.05,13.9,7.8,50,17,,10.0,29.970472,1014.4,,TRUE,TRUE,,,,,,,OVC,1600,,,,,,,MVFR,,,,,,,,,,,,METAR,195.0
KAVX 220651Z AUTO 21005KT 10SM OVC022 11/07 A2993 RMK AO2 SLP130 T01110072,KAVX,2015-02-22T06:51:00Z,33.4,-118.42,11.1,7.2,210,5,,10.0,29.929134,1013.0,,TRUE,TRUE,,,,,,,OVC,2200,,,,,,,MVFR,,,,,,,,,,,,METAR,482.0
KASH 220651Z AUTO 00000KT 10SM -SN FEW002 M01/M01 A3010 RMK AO2 FZRANO T10111011 P0000 SLP452 $,KASH,2015-02-22T06:51:00Z,42.78,-71.52,-1.1,-1.1,0,0,,10.0,30.100393,1045.2,,TRUE,TRUE,TRUE,,,TRUE,,-SN,FEW,200,,,,,,,VFR,,,,,,0.0050,,,,,,METAR,61.0
KALB 220651Z 17005KT 10SM SCT035 OVC070 M04/M07 A3012 RMK AO2 SNE41 SLP205 P0000 T10441072 $,KALB,2015-02-22T06:51:00Z,42.75,-73.8,-4.4,-7.2,170,5,,10.0,30.121063,1020.5,,,TRUE,TRUE,,,,,,SCT,3500,OVC,7000,,,,,VFR,,,,,,0.0050,,,,,,METAR,92.0
KAHN 220651Z AUTO VRB03KT 4SM -RA BR FEW026 OVC035 03/03 A3014 RMK AO2 SLP210 P0010 T00330028,KAHN,2015-02-22T06:51:00Z,33.95,-83.33,3.3,2.8,0,3,,4.0,30.138779,1021.0,,TRUE,TRUE,,,,,,-RA BR,FEW,2600,OVC,3500,,,,,MVFR,,,,,,0.1,,,,,,METAR,244.0
KACT 220651Z 02004KT 10SM CLR 06/04 A3001 RMK AO2 SLP161 T00610044,KACT,2015-02-22T06:51:00Z,31.62,-97.23,6.1,4.4,20,4,,10.0,30.008858,1016.1,,,TRUE,,,,,,,CLR,,,,,,,,VFR,,,,,,,,,,,,METAR,151.0
KABE 220651Z 00000KT 3SM -SN BR BKN018 OVC030 M03/M06 A3012 RMK AO2 SLP207 P0004 T10331056,KABE,2015-02-22T06:51:00Z,40.65,-75.45,-3.3,-5.6,0,0,,3.0,30.121063,1020.7,,,TRUE,,,,,,-SN BR,BKN,1800,OVC,3000,,,,,MVFR,,,,,,0.04,,,,,,METAR,114.0
KYNG 220651Z 00000KT 10SM BKN014 OVC020 M06/M08 A3008 RMK AO2 SLP202 T10611078,KYNG,2015-02-22T06:51:00Z,41.25,-80.67,-6.1,-7.8,0,0,,10.0,30.079725,1020.2,,,TRUE,,,,,,,BKN,1400,OVC,2000,,,,,MVFR,,,,,,,,,,,,METAR,360.0
KVNY 220651Z AUTO 17004KT 10SM OVC049 14/09 A2990 RMK AO2 SLP122 T01390094,KVNY,2015-02-22T06:51:00Z,34.22,-118.48,13.9,9.4,170,4,,10.0,29.899607,1012.2,,TRUE,TRUE,,,,,,,OVC,4900,,,,,,,VFR,,,,,,,,,,,,METAR,245.0
KVCT 220651Z AUTO 16006KT 5SM BR BKN007 OVC011 19/19 A2997 RMK AO2 CIG 005V009 SLP146 T01940189 TSNO $,KVCT,2015-02-22T06:51:00Z,28.87,-96.93,19.4,18.9,160,6,,5.0,29.970472,1014.6,,TRUE,TRUE,TRUE,,TRUE,,,BR,BKN,700,OVC,1100,,,,,IFR,,,,,,,,,,,,METAR,31.0
KSNT 220651Z AUTO 02004KT M07/M17 A3014 RMK AO1 SLP217 T10721167 400221111,KSNT,2015-02-22T06:51:00Z,44.17,-114.93,-7.2,-16.7,20,4,,,30.138779,1021.7,,TRUE,TRUE,,,,,,,,,,,,,,,,,,,2.2,-11.1,,,,,,,METAR,1980.0
KSAD 220651Z AUTO 00000KT 10SM CLR 16/01 A2986 RMK AO2 SLP076 T01560011 402390067,KSAD,2015-02-22T06:51:00Z,32.85,-109.63,15.6,1.1,0,0,,10.0,29.861221,1007.6,,TRUE,TRUE,,,,,,,CLR,,,,,,,,VFR,,,,23.9,6.7,,,,,,,METAR,962.0
KNYC 220651Z AUTO 00000KT 3SM UP BR OVC007 01/M01 A3016 RMK AO2 UPB11 SLP207 P0001 I1001 T00061011 $,KNYC,2015-02-22T06:51:00Z,40.78,-73.97,0.6,-1.1,0,0,,3.0,30.159449,1020.7,,TRUE,TRUE,TRUE,,,,,BR UP,OVC,700,,,,,,,IFR,,,,,,0.01,,,,,,METAR,11.0
KSLK 220651Z AUTO 26003KT 10SM OVC013 M09/M11 A2998 RMK AO2 SLP181 T10891106,KSLK,2015-02-22T06:51:00Z,44.4,-74.2,-8.9,-10.6,260,3,,10.0,29.97933,1018.1,,TRUE,TRUE,,,,,,,OVC,1300,,,,,,,MVFR,,,,,,,,,,,,METAR,498.0
KATT 220651Z AUTO 00000KT 10SM OVC025 13/07 A3001 RMK AO2 SLP155 T01280072,KATT,2015-02-22T06:51:00Z,30.32,-97.77,12.8,7.2,0,0,,10.0,30.008858,1015.5,,TRUE,TRUE,,,,,,,OVC,2500,,,,,,,MVFR,,,,,,,,,,,,METAR,201.0
KBVE 220651Z AUTO 17004KT 6SM BR CLR 17/16 A3006 RMK AO2 SLP178 T01670161,KBVE,2015-02-22T06:51:00Z,29.32,-89.4,16.7,16.1,170,4,,6.0,30.059055,1017.8,,TRUE,TRUE,,,,,,BR,CLR,,,,,,,,VFR,,,,,,,,,,,,METAR,1.0
YAYE 220651Z AUTO 16017G27KT 9999 // OVC125 33/10 Q1009,YAYE,2015-02-22T06:51:00Z,-25.18,130.98,33.0,10.0,160,17,27,6.21,29.793306,,,TRUE,,,,,,,,OVC,12500,,,,,,,VFR,,,,,,,,,,,,METAR,496.0
PTKR 220651Z 09006KT 14SM -SHRA SCT017CB OVC280 27/24 A2985 RMK SHRAB50 CB ALQDS MOV SW SLP107 T02720241,PTKR,2015-02-22T06:51:00Z,7.33,134.48,27.2,24.1,90,6,,14.0,29.84941,1010.7,,,,,,,,,-SHRA,SCT,1700,OVC,28000,,,,,VFR,,,,,,,,,,,,METAR,30.0
K21D 220651Z AUTO 30010G15KT 10SM CLR M17/M23 A3039 RMK AO2,K21D,2015-02-22T06:51:00Z,45.0,-92.85,-17.0,-23.0,300,10,15,10.0,30.389763,,,TRUE,TRUE,,,,,,,CLR,,,,,,,,VFR,,,,,,,,,,,,METAR,285.0
KAXV 220651Z AUTO 00000KT 4SM BR OVC001 M12/M13 A3015 RMK AO2,KAXV,2015-02-22T06:51:00Z,40.5,-84.3,-12.0,-13.0,0,0,,4.0,30.15059,,,TRUE,TRUE,,,,,,BR,OVC,100,,,,,,,LIFR,,,,,,,,,,,,METAR,279.0
KSGS 220651Z AUTO 31008KT 10SM CLR M17/M24 A3040 RMK AO2 T11751239,KSGS,2015-02-22T06:51:00Z,44.87,-93.03,-17.5,-23.9,310,8,,10.0,30.398623,,,TRUE,TRUE,,,,,,,CLR,,,,,,,,VFR,,,,,,,,,,,,METAR,250.0
KFFX 220651Z AUTO 00000KT 7SM -SN BKN033 OVC039 M08/M09 A3011 RMK AO2 T10801092,KFFX,2015-02-22T06:51:00Z,43.43,-86.0,-8.0,-9.2,0,0,,7.0,30.109253,,,TRUE,TRUE,,,,,,-SN,BKN,3300,OVC,3900,,,,,VFR,,,,,,,,,,,,METAR,236.0
KRGK 220651Z AUTO 30009KT 10SM CLR M16/M23 A3037 RMK AO2,KRGK,2015-02-22T06:51:00Z,44.58,-92.48,-16.0,-23.0,300,9,,10.0,30.369095,,,TRUE,TRUE,,,,,,,CLR,,,,,,,,VFR,,,,,,,,,,,,METAR,239.0
KGDP 220651Z AUTO 24016G23KT 10SM CLR 13/M03 A2996 RMK AO2 SLP086 T01281028 402170056,KGDP,2015-02-22T06:51:00Z,31.83,-104.82,12.8,-2.8,240,16,23,10.0,29.958662,1008.6,,TRUE,TRUE,,,,,,,CLR,,,,,,,,VFR,,,,21.7,5.6,,,,,,,METAR,1692.0
MUCC 220651Z 09011KT 9000 FEW020 23/19 Q1020,MUCC,2015-02-22T06:51:00Z,22.47,-78.33,23.0,19.0,90,11,,5.59,30.11811,,,,,,,,,,,FEW,2000,,,,,,,VFR,,,,,,,,,,,,METAR,4.0
EGYP 220650Z 27009KT 9999 FEW009 SCT180 06/05 Q1006 BLU,EGYP,2015-02-22T06:50:00Z,-51.82,-58.45,6.0,5.0,270,9,,6.21,29.704725,,,,,,,,,,,FEW,900,SCT,18000,,,,,VFR,,,,,,,,,,,,METAR,74.0
ESDF 220650Z 23010KT 9999 SCT011 BKN020 02/01 Q1001,ESDF,2015-02-22T06:50:00Z,56.27,15.27,2.0,1.0,230,10,,6.21,29.557087,,,,,,,,,,,SCT,1100,BKN,2000,,,,,MVFR,,,,,,,,,,,,METAR,74.0
ESSL 220650Z AUTO 24012KT 9999NDV NCD 01/M00 Q0994,ESSL,2015-02-22T06:50:00Z,58.38,15.67,1.0,0.0,240,12,,,29.350393,,,TRUE,,,,,,,,,,,,,,,,,,,,,,,,,,,,METAR,52.0
ESPE 220650Z AUTO VRB01KT 9999NDV FEW110/// M14/M15 Q0983,ESPE,2015-02-22T06:50:00Z,65.88,20.15,-14.0,-15.0,0,1,,,29.02559,,,TRUE,,,,,,,,,,,,,,,,,,,,,,,,,,,,METAR,182.0
ESPA 220650Z 21005KT 180V240 9999 OVC006 M02/M03 Q0984,ESPA,2015-02-22T06:50:00Z,65.53,22.12,-2.0,-3.0,210,5,,6.21,29.055119,,,,,,,,,,,OVC,600,,,,,,,IFR,,,,,,,,,,,,METAR,34.0
ESIB 220650Z AUTO 22012KT 9999NDV OVC012/// 02/01 Q0994,ESIB,2015-02-22T06:50:00Z,58.42,12.68,2.0,1.0,220,12,,,29.350393,,,TRUE,,,,,,,,,,,,,,,,,,,,,,,,,,,,METAR,74.0
ESCF 220650Z AUTO 23009KT 9999NDV SCT021/// 00/M00 Q0994,ESCF,2015-02-22T06:50:00Z,58.38,15.52,0.0,0.0,230,9,,,29.350393,,,TRUE,,,,,,,,,,,,,,,,,,,,,,,,,,,,METAR,117.0
ESSV 220650Z AUTO 24017KT 9999 BKN015/// OVC020/// 02/01 Q0997 R21/29//70,ESSV,2015-02-22T06:50:00Z,57.67,18.35,2.0,1.0,240,17,,6.21,29.438976,,,TRUE,,,,,,,,,,,,,,,,,,,,,,,,,,,,METAR,47.0
ESSP 220650Z AUTO 24011KT 9999 OVC016/// 01/00 Q0994,ESSP,2015-02-22T06:50:00Z,58.57,16.25,1.0,0.0,240,11,,6.21,29.350393,,,TRUE,,,,,,,,,,,,,,,,,,,,,,,,,,,,METAR,8.0
ESSD 220650Z AUTO 27007KT 9999 NCD M02/M03 Q0989,ESSD,2015-02-22T06:50:00Z,60.42,15.5,-2.0,-3.0,270,7,,6.21,29.202755,,,TRUE,,,,,,,,,,,,,,,,,,,,,,,,,,,,METAR,161.0
ESSB 220650Z AUTO 23009KT 9999 OVC006/// 01/00 Q0992,ESSB,2015-02-22T06:50:00Z,59.35,17.93,1.0,0.0,230,9,,6.21,29.291338,,,TRUE,,,,,,,,,,,,,,,,,,,,,,,,,,,,METAR,11.0
ESSA 220650Z 24009KT 9999 BKN005 01/00 Q0990 R01L/520167 R08/520156 R01R/SNOCLO NOSIG,ESSA,2015-02-22T06:50:00Z,59.63,17.93,1.0,0.0,240,9,,6.21,29.232283,,,,,,TRUE,,,,SN,BKN,500,,,,,,,IFR,,,,,,,,,,,,METAR,61.0
ESOW 220650Z AUTO 23010KT 9999 SCT017/// BKN021/// 01/M01 Q0991,ESOW,2015-02-22T06:50:00Z,59.57,16.62,1.0,-1.0,230,10,,6.21,29.26181,,,TRUE,,,,,,,,,,,,,,,,,,,,,,,,,,,,METAR,31.0
ESOK 220650Z AUTO 23003KT 9999 FEW005/// M03/M03 Q0992,ESOK,2015-02-22T06:50:00Z,59.45,13.33,-3.0,-3.0,230,3,,6.21,29.291338,,,TRUE,,,,,,,,,,,,,,,,,,,,,,,,,,,,METAR,107.0
ESOE 220650Z AUTO 22009KT 9999NDV FEW013/// BKN015/// BKN019/// 02/M00 Q0992,ESOE,2015-02-22T06:50:00Z,59.22,15.05,2.0,0.0,220,9,,,29.291338,,,TRUE,,,,,,,,,,,,,,,,,,,,,,,,,,,,METAR,57.0
ESKN 220650Z 26013KT 9999 BKN020 01/M00 Q0993 R26/620260,ESKN,2015-02-22T06:50:00Z,58.78,16.9,1.0,0.0,260,13,,6.21,29.320866,,,,,,,,,,,BKN,2000,,,,,,,MVFR,,,,,,,,,,,,METAR,43.0
ESUT 220650Z AUTO 00000KT 9999 BKN017/// OVC021/// M02/M04 Q0981,ESUT,2015-02-22T06:50:00Z,65.8,15.08,-2.0,-4.0,0,0,,6.21,28.966536,,,TRUE,,,,,,,,,,,,,,,,,,,,,,,,,,,,METAR,463.0
ESNZ 220650Z 26007KT 9999 FEW031 M03/M07 Q0985,ESNZ,2015-02-22T06:50:00Z,63.17,14.5,-3.0,-7.0,260,7,,6.21,29.084646,,,,,,,,,,,FEW,3100,,,,,,,VFR,,,,,,,,,,,,METAR,370.0
ESNU 220650Z 29003KT 260V320 9999 OVC002 M01/M02 Q0985 R14/79//50,ESNU,2015-02-22T06:50:00Z,63.78,20.27,-1.0,-2.0,290,3,,6.21,29.084646,,,,,,,,,,,OVC,200,,,,,,,LIFR,,,,,,,,,,,,METAR,14.0
ESNS 220650Z 20003KT 9999 OVC008 M01/M02 Q0984,ESNS,2015-02-22T06:50:00Z,64.62,21.07,-1.0,-2.0,200,3,,6.21,29.055119,,,,,,,,,,,OVC,800,,,,,,,IFR,,,,,,,,,,,,METAR,49.0
ESNQ 220650Z AUTO 21005KT 9999 BKN045/// M07/M09 Q0978,ESNQ,2015-02-22T06:50:00Z,67.82,20.32,-7.0,-9.0,210,5,,6.21,28.877953,,,TRUE,,,,,,,,,,,,,,,,,,,,,,,,,,,,METAR,452.0
ESNO 220650Z AUTO 32003KT 9999 NCD M09/M10 Q0984,ESNO,2015-02-22T06:50:00Z,63.38,18.97,-9.0,-10.0,320,3,,6.21,29.055119,,,TRUE,,,,,,,,,,,,,,,,,,,,,,,,,,,,METAR,103.0
ESNN 220650Z AUTO 00000KT 9999 NCD M09/M10 Q0987 R16/19//67,ESNN,2015-02-22T06:50:00Z,62.52,17.43,-9.0,-10.0,0,0,,6.21,29.143702,,,TRUE,,,,,,,,,,,,,,,,,,,,,,,,,,,,METAR,10.0
ESNK 220650Z AUTO 36004KT 9999 NCD M10/M11 Q0987,ESNK,2015-02-22T06:50:00Z,63.03,17.77,-10.0,-11.0,360,4,,6.21,29.143702,,,TRUE,,,,,,,,,,,,,,,,,,,,,,,,,,,,METAR,19.0
ESNG 220650Z AUTO 10004KT 060V130 1200 R30/P1500N OVC001/// M12/M13 Q0980,ESNG,2015-02-22T06:50:00Z,67.13,20.82,-12.0,-13.0,100,4,,0.75,28.937008,,,TRUE,,,,,,,,,,,,,,,,,,,,,,,,,,,,METAR,310.0
ESUD 220650Z AUTO 00000KT 9999 NCD M15/M17 Q0983,ESUD,2015-02-22T06:50:00Z,64.97,17.7,-15.0,-17.0,0,0,,6.21,29.02559,,,TRUE,,,,,,,,,,,,,,,,,,,,,,,,,,,,METAR,279.0
ESNX 220650Z AUTO VRB01KT 0250NDV R12/0550 R30/1200VP2000D BCFG VV001 M11/M12 Q0981,ESNX,2015-02-22T06:50:00Z,65.58,19.28,-11.0,-12.0,0,1,,0.34,28.966536,,,TRUE,,,,,,,BCFG,OVX,0,,,,,,,LIFR,,,,,,,,,,,100,METAR,379.0
ESNL 220650Z AUTO 00000KT 9999 NCD M16/M18 Q0984,ESNL,2015-02-22T06:50:00Z,64.55,18.72,-16.0,-18.0,0,0,,6.21,29.055119,,,TRUE,,,,,,,,,,,,,,,,,,,,,,,,,,,,METAR,214.0
ESGR 220650Z AUTO 22006KT 8000 -RA BKN011/// BKN022/// OVC045/// 02/00 Q0994 RESHUP REUP,ESGR,2015-02-22T06:50:00Z,58.45,13.97,2.0,0.0,220,6,,4.97,29.350393,,,TRUE,,,,,,,-RA UP,,,,,,,,,,,,,,,,,,,,,METAR,105.0
EGSH 220650Z 24009KT CAVOK M01/M02 Q1007 NOSIG,EGSH,2015-02-22T06:50:00Z,52.68,1.28,-1.0,-2.0,240,9,,6.21,29.734253,,,,,,TRUE,,,,,CAVOK,,,,,,,,VFR,,,,,,,,,,,,METAR,36.0
EGJJ 220650Z 18007KT 9999 FEW028 02/M01 Q1011 NOSIG,EGJJ,2015-02-22T06:50:00Z,49.22,-2.2,2.0,-1.0,180,7,,6.21,29.852362,,,,,,TRUE,,,,,FEW,2800,,,,,,,VFR,,,,,,,,,,,,METAR,84.0
EGJB 220650Z 21008KT 9999 FEW025 05/02 Q1010,EGJB,2015-02-22T06:50:00Z,49.42,-2.6,5.0,2.0,210,8,,6.21,29.822834,,,,,,,,,,,FEW,2500,,,,,,,VFR,,,,,,,,,,,,METAR,102.0
EGCN 220650Z 18008KT 9999 SCT032 01/M00 Q1006,EGCN,2015-02-22T06:50:00Z,53.48,-1.0,1.0,0.0,180,8,,6.21,29.704725,,,,,,,,,,,SCT,3200,,,,,,,VFR,,,,,,,,,,,,METAR,17.0
LSZL 220650Z AUTO 09007KT 9999NDV BKN092 01/00 Q1002 RMK WHT,LSZL,2015-02-22T06:50:00Z,46.17,8.88,1.0,0.0,90,7,,,29.586615,,,TRUE,,,,,,,,BKN,9200,,,,,,,,,,,,,,,,,,,METAR,600.0
LSZC 220650Z AUTO 00000KT 1800 SN BKN003 OVC020 00/00 Q1007,LSZC,2015-02-22T06:50:00Z,46.97,8.38,0.0,0.0,0,0,,1.12,29.734253,,,TRUE,,,,,,,SN,BKN,300,OVC,2000,,,,,LIFR,,,,,,,,,,,,METAR,450.0
LSZS 220650Z 04010KT 2500 -SN OVC025 M05/M06 Q0999 R03///99//,LSZS,2015-02-22T06:50:00Z,46.53,9.88,-5.0,-6.0,40,10,,1.55,29.498032,,,,,,,,,,-SN,OVC,2500,,,,,,,IFR,,,,,,,,,,,,METAR,1706.0
LSZR 220650Z AUTO 23002KT 7000 -SN OVC070 SCT090 01/01 Q1008,LSZR,2015-02-22T06:50:00Z,47.48,9.57,1.0,1.0,230,2,,4.35,29.763779,,,TRUE,,,,,,,-SN,OVC,7000,SCT,9000,,,,,MVFR,,,,,,,,,,,,METAR,398.0
LSZG 220650Z 02001KT 2500 BR BKN009 01/00 Q1008 NOSIG,LSZG,2015-02-22T06:50:00Z,47.17,7.42,1.0,0.0,20,1,,1.55,29.763779,,,,,,TRUE,,,,BR,BKN,900,,,,,,,IFR,,,,,,,,,,,,METAR,430.0
LSGS 220650Z VRB01KT 9999 BKN015 01/M00 Q1005,LSGS,2015-02-22T06:50:00Z,46.22,7.32,1.0,0.0,0,1,,6.21,29.675198,,,,,,,,,,,BKN,1500,,,,,,,MVFR,,,,,,,,,,,,METAR,481.0
LSGC 220650Z VRB03KT 1600 -SN VV002 M03/M04 Q1005 R/SNOCLO,LSGC,2015-02-22T06:50:00Z,47.08,6.8,-3.0,-4.0,0,3,,0.99,29.675198,,,,,,,,,,-SN SN,OVX,0,,,,,,,LIFR,,,,,,,,,,,200,METAR,1027.0
EGPO 220650Z AUTO 18018KT 9999 FEW015/// SCT018/// 04/01 Q0992,EGPO,2015-02-22T06:50:00Z,58.22,-6.32,4.0,1.0,180,18,,6.21,29.291338,,,TRUE,,,,,,,,,,,,,,,,,,,,,,,,,,,,METAR,13.0
EGPM 220650Z AUTO 25010KT 9999 BKN049/// 02/M08 Q0996,EGPM,2015-02-22T06:50:00Z,60.42,-1.3,2.0,-8.0,250,10,,6.21,29.409449,,,TRUE,,,,,,,,,,,,,,,,,,,,,,,,,,,,METAR,22.0
EGPL 220650Z 17014KT 9999 FEW014TCU FEW019 04/02 Q0991,EGPL,2015-02-22T06:50:00Z,57.47,-7.37,4.0,2.0,170,14,,6.21,29.26181,,,,,,,,,,,FEW,1400,FEW,1900,,,,,VFR,,,,,,,,,,,,METAR,6.0
EGPC 220650Z AUTO 17008KT 9999 SCT023/// SCT027/// 02/M01 Q0996,EGPC,2015-02-22T06:50:00Z,58.45,-3.07,2.0,-1.0,170,8,,6.21,29.409449,,,TRUE,,,,,,,,,,,,,,,,,,,,,,,,,,,,METAR,39.0
EGPA 220650Z 18007KT 9999 FEW029 BKN048 01/M03 Q0996,EGPA,2015-02-22T06:50:00Z,58.95,-2.88,1.0,-3.0,180,7,,6.21,29.409449,,,,,,,,,,,FEW,2900,BKN,4800,,,,,VFR,,,,,,,,,,,,METAR,21.0
EGTK 220650Z 24006KT 8000 NSC M03/M03 Q1008,EGTK,2015-02-22T06:50:00Z,51.83,-1.32,-3.0,-3.0,240,6,,4.97,29.763779,,,,,,,,,,,,,,,,,,,,,,,,,,,,,,,METAR,82.0
EGMC 220650Z 25007KT CAVOK M00/M02 Q1009,EGMC,2015-02-22T06:50:00Z,51.57,0.7,0.0,-2.0,250,7,,6.21,29.793306,,,,,,,,,,,CAVOK,,,,,,,,VFR,,,,,,,,,,,,METAR,15.0
EGPB 220650Z AUTO 28006KT 9999 BKN037/// 03/M04 Q0996,EGPB,2015-02-22T06:50:00Z,59.87,-1.3,3.0,-4.0,280,6,,6.21,29.409449,,,TRUE,,,,,,,,,,,,,,,,,,,,,,,,,,,,METAR,5.0
EGNV 220650Z 17010KT 9999 FEW020 00/M01 Q1002,EGNV,2015-02-22T06:50:00Z,54.52,-1.42,0.0,-1.0,170,10,,6.21,29.586615,,,,,,,,,,,FEW,2000,,,,,,,VFR,,,,,,,,,,,,METAR,37.0
EGNT 220650Z 19005KT 9999 SCT028 01/00 Q1001,EGNT,2015-02-22T06:50:00Z,55.02,-1.7,1.0,0.0,190,5,,6.21,29.557087,,,,,,,,,,,SCT,2800,,,,,,,VFR,,,,,,,,,,,,METAR,81.0
EGGP 220650Z 17004KT 120V240 CAVOK 03/01 Q1004,EGGP,2015-02-22T06:50:00Z,53.32,-2.85,3.0,1.0,170,4,,6.21,29.64567,,,,,,,,,,,CAVOK,,,,,,,,VFR,,,,,,,,,,,,METAR,26.0
EGGD 220650Z 19006KT 9999 FEW030 00/M01 Q1007,EGGD,2015-02-22T06:50:00Z,51.37,-2.72,0.0,-1.0,190,6,,6.21,29.734253,,,,,,,,,,,FEW,3000,,,,,,,VFR,,,,,,,,,,,,METAR,189.0
EGPE 220650Z AUTO 27004KT 220V290 9999 NCD M01/M02 Q0996,EGPE,2015-02-22T06:50:00Z,57.52,-4.03,-1.0,-2.0,270,4,,6.21,29.409449,,,TRUE,,,,,,,,,,,,,,,,,,,,,,,,,,,,METAR,9.0
EGNJ 220650Z 21005KT 9999 FEW030 M00/M01 Q1005,EGNJ,2015-02-22T06:50:00Z,53.57,-0.35,0.0,-1.0,210,5,,6.21,29.675198,,,,,,,,,,,FEW,3000,,,,,,,VFR,,,,,,,,,,,,METAR,31.0
EGNH 220650Z 19012KT 9999 FEW018 03/01 Q1003,EGNH,2015-02-22T06:50:00Z,53.77,-3.02,3.0,1.0,190,12,,6.21,29.616142,,,,,,,,,,,FEW,1800,,,,,,,VFR,,,,,,,,,,,,METAR,10.0
LSMS 220650Z VRB01KT 9999 BKN015 01/M00 Q1005,LSMS,2015-02-22T06:50:00Z,46.22,7.32,1.0,0.0,0,1,,6.21,29.675198,,,,,,,,,,,BKN,1500,,,,,,,MVFR,,,,,,,,,,,,METAR,481.0
LSMP 220650Z AUTO VRB02KT 2200NDV -RA BR SCT002 00/00 Q1007 RMK YLO,LSMP,2015-02-22T06:50:00Z,46.82,6.92,0.0,0.0,0,2,,,29.734253,,,TRUE,,,,,,,-RA BR,SCT,200,,,,,,,,,,,,,,,,,,,METAR,491.0
LSME 220650Z AUTO 00000KT 0750NDV R04/1200U R22/1300D -SN FG NCD 00/00 Q1008 RMK RED,LSME,2015-02-22T06:50:00Z,47.1,8.3,0.0,0.0,0,0,,,29.763779,,,TRUE,,,,,,,-SN FG,,,,,,,,,,,,,,,,,,,,,METAR,427.0
LSMD 220650Z AUTO 00000KT 0500NDV R11/P2000N R29/0500V0750N -RA FG FEW069 M00/M00 Q1007 RMK RED,LSMD,2015-02-22T06:50:00Z,47.4,8.65,0.0,0.0,0,0,,1.24,29.734253,,,TRUE,,,,,,,-RA FG,FEW,6900,,,,,,,IFR,,,,,,,,,,,,METAR,448.0
LSMA 220650Z AUTO 00000KT 1900NDV -RA BR FEW002 SCT004 BKN006 00/M00 Q1007 RMK AMB,LSMA,2015-02-22T06:50:00Z,46.95,8.28,0.0,0.0,0,0,,,29.734253,,,TRUE,,,,,,,-RA BR,FEW,200,SCT,400,BKN,600,,,,,,,,,,,,,,,METAR,444.0
EGCC 220650Z 19006KT 9999 FEW019 M00/M01 Q1004 NOSIG,EGCC,2015-02-22T06:50:00Z,53.35,-2.27,0.0,-1.0,190,6,,6.21,29.64567,,,,,,TRUE,,,,,FEW,1900,,,,,,,VFR,,,,,,,,,,,,METAR,78.0
EGSS 220650Z 00000KT CAVOK M03/M03 Q1008,EGSS,2015-02-22T06:50:00Z,51.88,0.22,-3.0,-3.0,0,0,,6.21,29.763779,,,,,,,,,,,CAVOK,,,,,,,,VFR,,,,,,,,,,,,METAR,106.0
EGPK 220650Z 16006KT 9999 -RA SCT012 BKN035 02/01 Q0999,EGPK,2015-02-22T06:50:00Z,55.5,-4.57,2.0,1.0,160,6,,6.21,29.498032,,,,,,,,,,-RA,SCT,1200,BKN,3500,,,,,VFR,,,,,,,,,,,,METAR,20.0
EGPH 220650Z 00000KT 9999 SCT028 M01/M02 Q0999,EGPH,2015-02-22T06:50:00Z,55.95,-3.35,-1.0,-2.0,0,0,,6.21,29.498032,,,,,,,,,,,SCT,2800,,,,,,,VFR,,,,,,,,,,,,METAR,41.0
EGPF 220650Z AUTO 09004KT 4900 BR BKN004/// OVC026/// //////CB 00/00 Q0999,EGPF,2015-02-22T06:50:00Z,55.87,-4.42,0.0,0.0,90,4,,3.04,29.498032,,,TRUE,,,,,,,BR,,,,,,,,,,,,,,,,,,,,,METAR,8.0
EGLL 220650Z 19004KT CAVOK M02/M03 Q1009,EGLL,2015-02-22T06:50:00Z,51.48,-0.45,-2.0,-3.0,190,4,,6.21,29.793306,,,,,,,,,,,CAVOK,,,,,,,,VFR,,,,,,,,,,,,METAR,24.0
EGKK 220650Z 00000KT CAVOK M03/M04 Q1009,EGKK,2015-02-22T06:50:00Z,51.13,-0.17,-3.0,-4.0,0,0,,6.21,29.793306,,,,,,,,,,,CAVOK,,,,,,,,VFR,,,,,,,,,,,,METAR,62.0
EGBB 220650Z 21007KT 170V240 CAVOK 00/M02 Q1006,EGBB,2015-02-22T06:50:00Z,52.47,-1.75,0.0,-2.0,210,7,,6.21,29.704725,,,,,,,,,,,CAVOK,,,,,,,,VFR,,,,,,,,,,,,METAR,99.0
EGPD 220650Z 16004KT 9999 BKN034 01/M01 Q0999 NOSIG,EGPD,2015-02-22T06:50:00Z,57.2,-2.22,1.0,-1.0,160,4,,6.21,29.498032,,,,,,TRUE,,,,,BKN,3400,,,,,,,VFR,,,,,,,,,,,,METAR,65.0
EGNX 220650Z 21010KT CAVOK 00/M01 Q1006,EGNX,2015-02-22T06:50:00Z,52.82,-1.32,0.0,-1.0,210,10,,6.21,29.704725,,,,,,,,,,,CAVOK,,,,,,,,VFR,,,,,,,,,,,,METAR,94.0
EGNM 220650Z 23008KT 200V260 9999 SCT008 SCT027 01/01 Q1003,EGNM,2015-02-22T06:50:00Z,53.87,-1.63,1.0,1.0,230,8,,6.21,29.616142,,,,,,,,,,,SCT,800,SCT,2700,,,,,VFR,,,,,,,,,,,,METAR,208.0
EGLC 220650Z AUTO 23006KT 9999 NCD 01/M01 Q1009,EGLC,2015-02-22T06:50:00Z,51.5,0.05,1.0,-1.0,230,6,,6.21,29.793306,,,TRUE,,,,,,,,,,,,,,,,,,,,,,,,,,,,METAR,5.0
EGGW 220650Z 25007KT CAVOK M01/M02 Q1007,EGGW,2015-02-22T06:50:00Z,51.87,-0.37,-1.0,-2.0,250,7,,6.21,29.734253,,,,,,,,,,,CAVOK,,,,,,,,VFR,,,,,,,,,,,,METAR,160.0
EGFF 220650Z AUTO 18004KT 9999 BKN022 03/02 Q1007,EGFF,2015-02-22T06:50:00Z,51.38,-3.35,3.0,2.0,180,4,,6.21,29.734253,,,TRUE,,,,,,,,BKN,2200,,,,,,,MVFR,,,,,,,,,,,,METAR,67.0
EGAC 220650Z 22003KT CAVOK 02/M01 Q0999,EGAC,2015-02-22T06:50:00Z,54.62,-5.87,2.0,-1.0,220,3,,6.21,29.498032,,,,,,,,,,,CAVOK,,,,,,,,VFR,,,,,,,,,,,,METAR,5.0
EGAA 220650Z 18009KT 8000 -RA SCT027 BKN039 02/01 Q0998,EGAA,2015-02-22T06:50:00Z,54.63,-6.22,2.0,1.0,180,9,,4.97,29.468504,,,,,,,,,,-RA,SCT,2700,BKN,3900,,,,,MVFR,,,,,,,,,,,,METAR,81.0
EFVA 220650Z AUTO 15003KT 9999 SCT012/// OVC027/// 00/M00 Q0985 R16/19//95,EFVA,2015-02-22T06:50:00Z,63.03,21.77,0.0,0.0,150,3,,6.21,29.084646,,,TRUE,,,,,,,,,,,,,,,,,,,,,,,,,,,,METAR,4.0
EFTU 220650Z AUTO 22006KT 180V280 9999 OVC006/// 02/01 Q0985,EFTU,2015-02-22T06:50:00Z,60.52,22.27,2.0,1.0,220,6,,6.21,29.084646,,,TRUE,,,,,,,,,,,,,,,,,,,,,,,,,,,,METAR,59.0
EFTP 220650Z AUTO 18009KT 2700 BR VCSH FEW003 BKN005 BKN007 01/01 Q0985,EFTP,2015-02-22T06:50:00Z,61.42,23.62,1.0,1.0,180,9,,1.68,29.084646,,,TRUE,,,,,,,BR VCSH,FEW,300,BKN,500,BKN,700,,,IFR,,,,,,,,,,,,METAR,112.0
EFRO 220650Z AUTO 16009KT 9000 -SG FEW006 SCT009 BKN011 OVC027 M01/M02 Q0984,EFRO,2015-02-22T06:50:00Z,66.57,25.82,-1.0,-2.0,160,9,,5.59,29.055119,,,TRUE,,,,,,,-SG,FEW,600,SCT,900,BKN,1100,OVC,2700,MVFR,,,,,,,,,,,,METAR,201.0
EFOU 220650Z AUTO 15007KT 9999 OVC029/// 00/M02 Q0986 R12/19//95,EFOU,2015-02-22T06:50:00Z,64.92,25.37,0.0,-2.0,150,7,,6.21,29.114174,,,TRUE,,,,,,,,,,,,,,,,,,,,,,,,,,,,METAR,15.0
EFKU 220650Z AUTO 15009KT 1300 SN OVC004 00/00 Q0987,EFKU,2015-02-22T06:50:00Z,63.02,27.8,0.0,0.0,150,9,,0.81,29.143702,,,TRUE,,,,,,,SN,OVC,400,,,,,,,LIFR,,,,,,,,,,,,METAR,102.0
EFJY 220650Z AUTO 15007KT 1500 -SN OVC004 00/00 Q0985,EFJY,2015-02-22T06:50:00Z,62.4,25.68,0.0,0.0,150,7,,0.93,29.084646,,,TRUE,,,,,,,-SN,OVC,400,,,,,,,LIFR,,,,,,,,,,,,METAR,145.0
EFHK 220650Z 17015KT 8000 SCT013 BKN022 02/M00 Q0988 TEMPO 7000 BKN012,EFHK,2015-02-22T06:50:00Z,60.32,24.97,2.0,0.0,170,15,,4.97,29.17323,,,,,,,,,,,SCT,1300,BKN,2200,,,,,MVFR,,,,,,,,,,,,METAR,56.0
BGJN 220650Z AUTO 14012KT 9999NDV FEW039/// M23/M28 Q0998,BGJN,2015-02-22T06:50:00Z,69.25,-51.07,-23.0,-28.0,140,12,,,29.468504,,,TRUE,,,,,,,,,,,,,,,,,,,,,,,,,,,,METAR,25.0
BGGH 220650Z AUTO 31021KT //// FEW010/// BKN023/// M13/M15 Q0995,BGGH,2015-02-22T06:50:00Z,64.2,-51.68,-13.0,-15.0,310,21,,,29.379921,,,TRUE,,,,,,,,,,,,,,,,,,,,,,,,,,,,METAR,70.0
BGSF 220650Z AUTO 06009KT 9999NDV NCD M36/M40 Q1000,BGSF,2015-02-22T06:50:00Z,67.0,-50.72,-36.0,-40.0,60,9,,,29.52756,,,TRUE,,,,,,,,,,,,,,,,,,,,,,,,,,,,METAR,53.0
EDVE 220650Z 25003KT 8000 OVC027 02/02 Q1007,EDVE,2015-02-22T06:50:00Z,52.32,10.55,2.0,2.0,250,3,,4.97,29.734253,,,,,,,,,,,OVC,2700,,,,,,,MVFR,,,,,,,,,,,,METAR,88.0
EDLN 220650Z VRB03KT 3000 BR BKN004 01/01 Q1009 RMK ATIS A,EDLN,2015-02-22T06:50:00Z,51.23,6.5,1.0,1.0,0,3,,1.86,29.793306,,,,,,,,,,BR,BKN,400,,,,,,,LIFR,,,,,,,,,,,,METAR,38.0
EYSA 220650Z 21012KT 9999 BKN020 01/M00 Q1003 R14L/19//95 R14R/19//95,EYSA,2015-02-22T06:50:00Z,55.9,23.4,1.0,0.0,210,12,,6.21,29.616142,,,,,,,,,,,BKN,2000,,,,,,,MVFR,,,,,,,,,,,,METAR,135.0
EDDV 220650Z 23003KT 9000 SCT012 BKN030 02/00 Q1007 NOSIG,EDDV,2015-02-22T06:50:00Z,52.47,9.68,2.0,0.0,230,3,,5.59,29.734253,,,,,,TRUE,,,,,SCT,1200,BKN,3000,,,,,MVFR,,,,,,,,,,,,METAR,54.0
EDDT 220650Z 25004KT CAVOK M01/M02 Q1007 NOSIG,EDDT,2015-02-22T06:50:00Z,52.57,13.32,-1.0,-2.0,250,4,,6.21,29.734253,,,,,,TRUE,,,,,CAVOK,,,,,,,,VFR,,,,,,,,,,,,METAR,37.0
EDDS 220650Z 28003KT 9999 SCT025 BKN110 00/M01 Q1008 NOSIG,EDDS,2015-02-22T06:50:00Z,48.67,9.22,0.0,-1.0,280,3,,6.21,29.763779,,,,,,TRUE,,,,,SCT,2500,BKN,11000,,,,,VFR,,,,,,,,,,,,METAR,419.0
EDDN 220650Z VRB01KT 0250 R28/0800N FG VV/// 01/01 Q1007 NOSIG,EDDN,2015-02-22T06:50:00Z,49.5,11.08,1.0,1.0,0,1,,0.16,29.734253,,,,,,TRUE,,,,FG,OVX,0,,,,,,,LIFR,,,,,,,,,,,,METAR,312.0
EDDM 220650Z 31004KT 2700 -SN FEW003 BKN005 OVC007 01/00 Q1006 TEMPO 1500,EDDM,2015-02-22T06:50:00Z,48.35,11.82,1.0,0.0,310,4,,1.68,29.704725,,,,,,,,,,-SN,FEW,300,BKN,500,OVC,700,,,IFR,,,,,,,,,,,,METAR,447.0
EDDL 220650Z 22006KT 3000 BR SCT002 BKN003 01/01 Q1009 BECMG BKN007,EDDL,2015-02-22T06:50:00Z,51.3,6.77,1.0,1.0,220,6,,1.86,29.793306,,,,,,,,,,BR,SCT,200,BKN,300,,,,,LIFR,,,,,,,,,,,,METAR,44.0
EDDK 220650Z 26004KT 7000 SCT007 BKN015 BKN040 02/01 Q1009 TEMPO BKN008,EDDK,2015-02-22T06:50:00Z,50.87,7.15,2.0,1.0,260,4,,4.35,29.793306,,,,,,,,,,,SCT,700,BKN,1500,BKN,4000,,,MVFR,,,,,,,,,,,,METAR,99.0
EDDH 220650Z 24009KT 9999 BKN008 02/01 Q1006 NOSIG,EDDH,2015-02-22T06:50:00Z,53.63,10.0,2.0,1.0,240,9,,6.21,29.704725,,,,,,TRUE,,,,,BKN,800,,,,,,,IFR,,,,,,,,,,,,METAR,16.0
EDDF 220650Z 30004KT 9999 FEW018 BKN026 BKN055 02/01 Q1008 NOSIG,EDDF,2015-02-22T06:50:00Z,50.05,8.6,2.0,1.0,300,4,,6.21,29.763779,,,,,,TRUE,,,,,FEW,1800,BKN,2600,BKN,5500,,,MVFR,,,,,,,,,,,,METAR,113.0
LLSD 220650Z 09006KT CAVOK 13/06 Q1021 RMK FEW065,LLSD,2015-02-22T06:50:00Z,32.12,34.78,13.0,6.0,90,6,,6.21,30.147638,,,,,,,,,,,CAVOK,,,,,,,,VFR,,,,,,,,,,,,METAR,14.0
LLOV 220650Z /////KT CAVOK 09/04 Q1022,LLOV,2015-02-22T06:50:00Z,29.93,34.93,9.0,4.0,,,,6.21,30.177166,,,,,,,,,,,CAVOK,,,,,,,,VFR,,,,,,,,,,,,METAR,432.0
LLIB 220650Z 03004KT CAVOK 08/02 Q1023,LLIB,2015-02-22T06:50:00Z,32.98,35.57,8.0,2.0,30,4,,6.21,30.206694,,,,,,,,,,,CAVOK,,,,,,,,VFR,,,,,,,,,,,,METAR,282.0
LLHA 220650Z 13007KT CAVOK 11/06 Q1023 RMK FEW060,LLHA,2015-02-22T06:50:00Z,32.78,35.02,11.0,6.0,130,7,,6.21,30.206694,,,,,,,,,,,CAVOK,,,,,,,,VFR,,,,,,,,,,,,METAR,8.0
LLET 220650Z 03009KT CAVOK 13/04 Q1023,LLET,2015-02-22T06:50:00Z,29.55,34.95,13.0,4.0,30,9,,6.21,30.206694,,,,,,,,,,,CAVOK,,,,,,,,VFR,,,,,,,,,,,,METAR,13.0
EKVD 220650Z AUTO 22010KT //// ///////// 01/M00 Q1002,EKVD,2015-02-22T06:50:00Z,55.42,9.32,1.0,0.0,220,10,,,29.586615,,,TRUE,,,,,,,,,,,,,,,,,,,,,,,,,,,,METAR,45.0
EDDW 220650Z 21007KT 4500 BR BKN004 01/01 Q1007 NOSIG,EDDW,2015-02-22T06:50:00Z,53.03,8.8,1.0,1.0,210,7,,2.8,29.734253,,,,,,TRUE,,,,BR,BKN,400,,,,,,,LIFR,,,,,,,,,,,,METAR,5.0
EDDR 220650Z VRB02KT 9999 FEW022 BKN050 01/M00 Q1008 NOSIG,EDDR,2015-02-22T06:50:00Z,49.22,7.1,1.0,0.0,0,2,,6.21,29.763779,,,,,,TRUE,,,,,FEW,2200,BKN,5000,,,,,VFR,,,,,,,,,,,,METAR,320.0
EDDP 220650Z 22005KT CAVOK M02/M02 Q1007 NOSIG,EDDP,2015-02-22T06:50:00Z,51.43,12.23,-2.0,-2.0,220,5,,6.21,29.734253,,,,,,TRUE,,,,,CAVOK,,,,,,,,VFR,,,,,,,,,,,,METAR,149.0
EDDG 220650Z 20004KT 1100 R25/P2000N BR SCT001 BKN002 00/00 Q1008 TEMPO 0700 FG BKN001,EDDG,2015-02-22T06:50:00Z,52.13,7.7,0.0,0.0,200,4,,0.68,29.763779,,,,,,,,,,BR,SCT,100,BKN,200,,,,,LIFR,,,,,,,,,,,,METAR,52.0
EDDE 220650Z 22005KT 8000 NSC M01/M01 Q1007 TEMPO 4000 BR,EDDE,2015-02-22T06:50:00Z,50.98,10.97,-1.0,-1.0,220,5,,4.97,29.734253,,,,,,,,,,,,,,,,,,,,,,,,,,,,,,,METAR,323.0
EDDC 220650Z 32003KT 9999 FEW040 BKN090 01/M01 Q1007 NOSIG,EDDC,2015-02-22T06:50:00Z,51.13,13.75,1.0,-1.0,320,3,,6.21,29.734253,,,,,,TRUE,,,,,FEW,4000,BKN,9000,,,,,VFR,,,,,,,,,,,,METAR,226.0
EDDB 220650Z 26005KT CAVOK M02/M02 Q1007 NOSIG,EDDB,2015-02-22T06:50:00Z,52.38,13.53,-2.0,-2.0,260,5,,6.21,29.734253,,,,,,TRUE,,,,,CAVOK,,,,,,,,VFR,,,,,,,,,,,,METAR,48.0
EKRN 220650Z AUTO 24015KT 9999NDV BKN007/// BKN029/// 03/02 Q1004,EKRN,2015-02-22T06:50:00Z,55.07,14.75,3.0,2.0,240,15,,,29.64567,,,TRUE,,,,,,,,,,,,,,,,,,,,,,,,,,,,METAR,16.0
EKEB 220650Z AUTO 20007KT 9999NDV FEW058/// 03/01 Q1001,EKEB,2015-02-22T06:50:00Z,55.52,8.55,3.0,1.0,200,7,,,29.557087,,,TRUE,,,,,,,,,,,,,,,,,,,,,,,,,,,,METAR,29.0
EKAH 220650Z AUTO 23007KT 180V280 9999NDV NCD 01/M01 Q1000,EKAH,2015-02-22T06:50:00Z,56.28,10.62,1.0,-1.0,230,7,,,29.52756,,,TRUE,,,,,,,,,,,,,,,,,,,,,,,,,,,,METAR,25.0
EKRK 220650Z AUTO 22009KT 9999NDV SCT004/// BKN006/// 01/00 Q1002 R03/790115 R11/790115,EKRK,2015-02-22T06:50:00Z,55.57,12.12,1.0,0.0,220,9,,0.07,29.586615,,,TRUE,,,,,,,,,,,,,,,,,,,,,,,,,,,,METAR,44.0
EKYT 220650Z 22010KT 9999 SCT009 BKN023 03/03 Q0997 R26/710195,EKYT,2015-02-22T06:50:00Z,57.1,9.87,3.0,3.0,220,10,,6.21,29.438976,,,,,,,,,,,SCT,900,BKN,2300,,,,,MVFR,,,,,,,,,,,,METAR,3.0
EKBI 220650Z AUTO 21006KT 180V240 9999NDV NCD 02/00 Q1001 R09/710177,EKBI,2015-02-22T06:50:00Z,55.72,9.15,2.0,0.0,210,6,,0.11,29.557087,,,TRUE,,,,,,,,,,,,,,,,,,,,,,,,,,,,METAR,66.0
EKCH 220650Z 23010KT 9999 BKN008 02/01 Q1002 BECMG FEW008,EKCH,2015-02-22T06:50:00Z,55.62,12.67,2.0,1.0,230,10,,6.21,29.586615,,,,,,,,,,,BKN,800,,,,,,,IFR,,,,,,,,,,,,METAR,5.0
ESTL 220650Z AUTO 23010KT 9999NDV BKN006/// 02/01 Q1001,ESTL,2015-02-22T06:50:00Z,56.07,13.2,2.0,1.0,230,10,,,29.557087,,,TRUE,,,,,,,,,,,,,,,,,,,,,,,,,,,,METAR,43.0
ESTA 220650Z 21011KT 9999 SCT030 OVC040 02/00 Q1000,ESTA,2015-02-22T06:50:00Z,56.28,12.83,2.0,0.0,210,11,,6.21,29.52756,,,,,,,,,,,SCT,3000,OVC,4000,,,,,VFR,,,,,,,,,,,,METAR,47.0
ESMX 220650Z 21010KT 9999 FEW007 BKN011 01/01 Q0998,ESMX,2015-02-22T06:50:00Z,56.92,14.72,1.0,1.0,210,10,,6.21,29.468504,,,,,,,,,,,FEW,700,BKN,1100,,,,,MVFR,,,,,,,,,,,,METAR,186.0
ESMT 220650Z AUTO 23016KT 9999 FEW006/// SCT011/// BKN025/// 02/01 Q0999 REUP,ESMT,2015-02-22T06:50:00Z,56.67,12.82,2.0,1.0,230,16,,6.21,29.498032,,,TRUE,,,,,,,,,,,,,,,,,,,,,,,,,,,,METAR,30.0
ESMS 220650Z 24012KT 9000 BR BKN005 02/01 Q1002 R17/29//95,ESMS,2015-02-22T06:50:00Z,55.53,13.37,2.0,1.0,240,12,,5.59,29.586615,,,,,,,,,,BR,BKN,500,,,,,,,IFR,,,,,,,,,,,,METAR,106.0
ESMQ 220650Z AUTO 19008KT 9999 NCD 02/00 Q1000,ESMQ,2015-02-22T06:50:00Z,56.68,16.3,2.0,0.0,190,8,,6.21,29.52756,,,TRUE,,,,,,,,,,,,,,,,,,,,,,,,,,,,METAR,16.0
ESMK 220650Z AUTO 23010KT 9999 OVC010/// 03/01 Q1001,ESMK,2015-02-22T06:50:00Z,55.92,14.07,3.0,1.0,230,10,,6.21,29.557087,,,TRUE,,,,,,,,,,,,,,,,,,,,,,,,,,,,METAR,23.0
ESGP 220650Z 22012KT 9999 BKN008 BKN031 OVC038 02/01 Q0996 REUP REDZ RERA R19/29//95,ESGP,2015-02-22T06:50:00Z,57.77,11.87,2.0,1.0,220,12,,6.21,29.409449,,,,,,,,,,RA,BKN,800,BKN,3100,OVC,3800,,,IFR,,,,,,,,,,,,METAR,53.0
ESGJ 220650Z AUTO 23010KT 5000 -SN FEW005/// SCT009/// BKN010/// 00/00 Q0995,ESGJ,2015-02-22T06:50:00Z,57.77,14.07,0.0,0.0,230,10,,3.11,29.379921,,,TRUE,,,,,,,-SN,,,,,,,,,,,,,,,,,,,,,METAR,232.0
ESGG 220650Z 23013KT 9999 OVC004 01/00 Q0996 R21/29//95,ESGG,2015-02-22T06:50:00Z,57.67,12.3,1.0,0.0,230,13,,6.21,29.409449,,,,,,,,,,,OVC,400,,,,,,,LIFR,,,,,,,,,,,,METAR,169.0
PGWT 220650Z 07019G28KT 7SM FEW016 SCT035 BKN100 26/17 A2992,PGWT,2015-02-22T06:50:00Z,14.98,145.62,26.0,17.0,70,19,28,7.0,29.920275,,,,,,,,,,,FEW,1600,SCT,3500,BKN,10000,,,VFR,,,,,,,,,,,,METAR,82.0
KDAG 220650Z AUTO 27017KT 10SM CLR 14/04 A2974 RMK AO2 PK WND 25030/0559 SLP055 T01390039,KDAG,2015-02-22T06:50:00Z,34.85,-116.78,13.9,3.9,270,17,,10.0,29.740158,1005.5,,TRUE,TRUE,,,,,,,CLR,,,,,,,,VFR,,,,,,,,,,,,METAR,587.0
PTKK 220650Z VRB04KT 15SM SCT014 BKN120 OVC280 28/25 A2980 RMK SLP093 T02810249,PTKK,2015-02-22T06:50:00Z,7.47,151.85,28.1,24.9,0,4,,15.0,29.799213,1009.3,,,,,,,,,,SCT,1400,BKN,12000,OVC,28000,,,VFR,,,,,,,,,,,,METAR,2.0
EVVA 220650Z AUTO 24016KT 9999 BKN018 OVC025 04/02 Q0998,EVVA,2015-02-22T06:50:00Z,57.35,21.55,4.0,2.0,240,16,,6.21,29.468504,,,TRUE,,,,,,,,BKN,1800,OVC,2500,,,,,MVFR,,,,,,,,,,,,METAR,6.0
PTYA 220650Z 05012KT 12SM SCT016 OVC150 28/23 A2983 RMK SLP101 T02790228,PTYA,2015-02-22T06:50:00Z,9.48,138.08,27.9,22.8,50,12,,12.0,29.828741,1010.1,,,,,,,,,,SCT,1600,OVC,15000,,,,,VFR,,,,,,,,,,,,METAR,17.0
EKSP 220650Z 22010KT 9999 FEW020 01/M00 Q1002,EKSP,2015-02-22T06:50:00Z,55.22,9.27,1.0,0.0,220,10,,6.21,29.586615,,,,,,,,,,,FEW,2000,,,,,,,VFR,,,,,,,,,,,,METAR,40.0
EKKA 220650Z 23011KT 7000 -SHRA FEW014CB BKN027 02/01 Q0999,EKKA,2015-02-22T06:50:00Z,56.3,9.12,2.0,1.0,230,11,,4.35,29.498032,,,,,,,,,,-SHRA,FEW,1400,BKN,2700,,,,,MVFR,,,,,,,,,,,,METAR,52.0
EDVK 220650Z 25004KT 9999 BKN040 01/M01 Q1007 RMK ATIS E,EDVK,2015-02-22T06:50:00Z,51.38,9.37,1.0,-1.0,250,4,,6.21,29.734253,,,,,,,,,,,BKN,4000,,,,,,,VFR,,,,,,,,,,,,METAR,285.0
EDSB 220650Z 20005KT 9000 BKN021 02/01 Q1009,EDSB,2015-02-22T06:50:00Z,48.78,8.08,2.0,1.0,200,5,,5.59,29.793306,,,,,,,,,,,BKN,2100,,,,,,,MVFR,,,,,,,,,,,,METAR,124.0
EDOP 220650Z 22009KT 9999 OVC021 02/01 Q1006 RMK ATIS GOL,EDOP,2015-02-22T06:50:00Z,53.43,11.78,2.0,1.0,220,9,,6.21,29.704725,,,,,,,,,,,OVC,2100,,,,,,,MVFR,,,,,,,,,,,,METAR,51.0
EDLW 220650Z 24007KT 6000 BKN042 01/M00 Q1008 RMK ATIS F,EDLW,2015-02-22T06:50:00Z,51.52,7.62,1.0,0.0,240,7,,3.73,29.763779,,,,,,,,,,,BKN,4200,,,,,,,MVFR,,,,,,,,,,,,METAR,127.0
EDLP 220650Z 26004KT 230V300 9000 SCT012 BKN030 01/01 Q1008 RMK ATIS FOX,EDLP,2015-02-22T06:50:00Z,51.62,8.62,1.0,1.0,260,4,,5.59,29.763779,,,,,,,,,,,SCT,1200,BKN,3000,,,,,MVFR,,,,,,,,,,,,METAR,213.0
EDHL 220650Z 24006KT 9000 -DZ BKN008 02/01 Q1005 RMK ATIS DEL,EDHL,2015-02-22T06:50:00Z,53.8,10.72,2.0,1.0,240,6,,5.59,29.675198,,,,,,,,,,-DZ,BKN,800,,,,,,,IFR,,,,,,,,,,,,METAR,16.0
EDFH 220650Z 29005KT 2500 1200W R21/P2000N BR BKN001 BKN020 M00/M00 Q1007,EDFH,2015-02-22T06:50:00Z,49.95,7.27,0.0,0.0,290,5,,1.55,29.734253,,,,,,,,,,BR,BKN,100,BKN,2000,,,,,LIFR,,,,,,,,,,,,METAR,498.0
LLBG 220650Z VRB01KT CAVOK 15/06 Q1022 NOSIG,LLBG,2015-02-22T06:50:00Z,32.0,34.88,15.0,6.0,0,1,,6.21,30.177166,,,,,,TRUE,,,,,CAVOK,,,,,,,,VFR,,,,,,,,,,,,METAR,49.0
LSZA 220650Z VRB02KT 9999 FEW008 OVC050 01/01 Q1002 NOSIG,LSZA,2015-02-22T06:50:00Z,46.0,8.92,1.0,1.0,0,2,,6.21,29.586615,,,,,,TRUE,,,,,FEW,800,OVC,5000,,,,,VFR,,,,,,,,,,,,METAR,276.0
LSZB 220650Z 33002KT 4500 BR FEW010 SCT035 BKN070 00/00 Q1007 RESHSN NOSIG,LSZB,2015-02-22T06:50:00Z,46.92,7.5,0.0,0.0,330,2,,2.8,29.734253,,,,,,TRUE,,,,BR,FEW,1000,SCT,3500,BKN,7000,,,IFR,,,,,,,,,,,,METAR,505.0
LSGG 220650Z 04005KT 9999 FEW010 SCT040 01/01 Q1007 NOSIG,LSGG,2015-02-22T06:50:00Z,46.25,6.12,1.0,1.0,40,5,,6.21,29.734253,,,,,,TRUE,,,,,FEW,1000,SCT,4000,,,,,VFR,,,,,,,,,,,,METAR,416.0
VGEG 220650Z 12006KT 4000 HZ NSC 28/15 Q1013 NOSIG,VGEG,2015-02-22T06:50:00Z,22.27,91.82,28.0,15.0,120,6,,2.49,29.911417,,,,,,TRUE,,,,HZ,,,,,,,,,,,,,,,,,,,,,METAR,6.0
EYVI 220650Z 20007KT 4000 BR SCT041 BKN100 M00/M02 Q1006 R20/1///95 NOSIG,EYVI,2015-02-22T06:50:00Z,54.63,25.28,0.0,-2.0,200,7,,2.49,29.704725,,,,,,TRUE,,,,BR,SCT,4100,BKN,10000,,,,,IFR,,,,,,,,,,,,METAR,197.0
EYPA 220650Z AUTO 24005KT 200V290 9999 FEW023/// SCT029/// 03/01 Q1003,EYPA,2015-02-22T06:50:00Z,55.97,21.08,3.0,1.0,240,5,,6.21,29.616142,,,TRUE,,,,,,,,,,,,,,,,,,,,,,,,,,,,METAR,10.0
EYKA 220650Z 18005KT 150V210 6000 NSC M00/M04 Q1006 R08/090095,EYKA,2015-02-22T06:50:00Z,54.97,24.08,0.0,-4.0,180,5,,3.73,29.704725,,,,,,,,,,,,,,,,,,,,,,,,,,,,,,,METAR,77.0
EETN 220650Z 20015KT 170V230 9000 -RA BKN015 OVC024 02/00 Q0990 R08/310195 TEMPO 19015G25KT 4000 RA,EETN,2015-02-22T06:50:00Z,59.4,24.82,2.0,0.0,200,15,,5.59,29.232283,,,,,,,,,,-RA,BKN,1500,OVC,2400,,,,,MVFR,,,,,,,,,,,,METAR,40.0
UMMS 220650Z 17004G07MPS 150V210 3600 BR OVC005 00/M00 Q1009 R13/D NOSIG,UMMS,2015-02-22T06:50:00Z,53.88,28.03,0.0,0.0,170,8,14,2.24,29.793306,,,,,,TRUE,,,,BR,OVC,500,,,,,,,IFR,,,,,,,,,,,,SPECI,205.0
PGRO 220650Z 05021KT 7SM SCT032 BKN080 26/21 A2993,PGRO,2015-02-22T06:50:00Z,14.18,145.25,26.0,21.0,50,21,,7.0,29.929134,,,,,,,,,,,SCT,3200,BKN,8000,,,,,VFR,,,,,,,,,,,,METAR,185.0
FDSK 220650Z 20015KT 9999 BKN030 25/18 Q1020 NOSIG,FDSK,2015-02-22T06:50:00Z,-26.35,31.72,25.0,18.0,200,15,,6.21,30.11811,,,,,,TRUE,,,,,BKN,3000,,,,,,,MVFR,,,,,,,,,,,,METAR,324.0
EKVG 220650Z AUTO 12003KT 9999NDV BKN120/// M04/M08 Q0992 RMK NCD WIND 850FT 13010KT,EKVG,2015-02-22T06:50:00Z,62.07,-7.3,-4.0,-8.0,120,3,,,29.291338,,,TRUE,,,,,,,,,,,,,,,,,,,,,,,,,,,,METAR,85.0
EVRA 220650Z 21013KT 9999 BKN026 04/M00 Q0999 R18/190095 NOSIG,EVRA,2015-02-22T06:50:00Z,56.92,23.97,4.0,0.0,210,13,,6.21,29.498032,,,,,,TRUE,,,,,BKN,2600,,,,,,,MVFR,,,,,,,,,,,,METAR,10.0
VECC 220650Z 05005KT 2800 HZ NSC 30/20 Q1012 BECMG 3000 HZ,VECC,2015-02-22T06:50:00Z,22.65,88.43,30.0,20.0,50,5,,1.74,29.88189,,,,,,,,,,HZ,,,,,,,,,,,,,,,,,,,,,METAR,6.0
K2G4 220650Z AUTO 26005KT 3/4SM BR OVC002 00/ A2998 RMK AO1,K2G4,2015-02-22T06:50:00Z,39.58,-79.33,0.0,,260,5,,0.75,29.97933,,,TRUE,TRUE,,,,,,BR,OVC,200,,,,,,,LIFR,,,,,,,,,,,,METAR,894.0
OAKB 220650Z 08001KT 5000 BR FU SCT050 BKN180 12/06 Q1025 NOSIG RMK WHT WHT,OAKB,2015-02-22T06:50:00Z,34.55,69.22,12.0,6.0,80,1,,3.11,30.265747,,,,,,TRUE,,,,BR FU,SCT,5000,BKN,18000,,,,,MVFR,,,,,,,,,,,,METAR,1791.0
LSMM 220650Z AUTO 12003KT 060V180 4400NDV R10/0750V1500U R28/P2000U -RA FEW010 BKN018 BKN075 01/M01 Q1006 RMK GRN,LSMM,2015-02-22T06:50:00Z,46.75,8.12,1.0,-1.0,120,3,,,29.704725,,,TRUE,,,,,,,-RA,FEW,1000,BKN,1800,BKN,7500,,,,,,,,,,,,,,,METAR,577.0
KDMW 220650Z AUTO 22003KT 5SM -DZ SCT045 BKN055 OVC090 01/00 RMK AO2,KDMW,2015-02-22T06:50:00Z,39.6,-77.0,1.0,0.0,220,3,,5.0,,,,TRUE,TRUE,,,,,,-DZ,SCT,4500,BKN,5500,OVC,9000,,,MVFR,,,,,,,,,,,,METAR,241.0
KFDK 220650Z AUTO 00000KT 5SM BR OVC006 00/M01 A3013 RMK AO2 P0001,KFDK,2015-02-22T06:50:00Z,39.42,-77.37,0.0,-1.0,0,0,,5.0,30.129921,,,TRUE,TRUE,,,,,,BR,OVC,600,,,,,,,IFR,,,,,,0.01,,,,,,METAR,92.0
KCGS 220650Z AUTO 00000KT 4SM OVC006 01/01 A3013 RMK AO1,KCGS,2015-02-22T06:50:00Z,38.98,-76.92,1.0,1.0,0,0,,4.0,30.129921,,,TRUE,TRUE,,,,,,,OVC,600,,,,,,,IFR,,,,,,,,,,,,METAR,15.0
KCVH 220650Z AUTO 16003KT 10SM OVC023 13/13 A2986 RMK AO1,KCVH,2015-02-22T06:50:00Z,36.9,-121.42,13.0,13.0,160,3,,10.0,29.861221,,,TRUE,TRUE,,,,,,,OVC,2300,,,,,,,MVFR,,,,,,,,,,,,METAR,70.0
VNKT 220650Z 21006KT 6000 FEW020 21/10 Q1018 NOSIG,VNKT,2015-02-22T06:50:00Z,27.68,85.37,21.0,10.0,210,6,,3.73,30.059055,,,,,,TRUE,,,,,FEW,2000,,,,,,,MVFR,,,,,,,,,,,,METAR,1337.0
VGHS 220650Z 12004KT 2600 HZ SCT015 BKN100 27/19 Q1012 BECMG S/VIS 3000M,VGHS,2015-02-22T06:50:00Z,23.85,90.4,27.0,19.0,120,4,,1.62,29.88189,,,,,,,,,,HZ,SCT,1500,BKN,10000,,,,,IFR,,,,,,,,,,,,METAR,10.0
VEPT 220650Z 27006KT 3000 HZ NSC 28/19 Q1012 NOSIG,VEPT,2015-02-22T06:50:00Z,25.6,85.08,28.0,19.0,270,6,,1.86,29.88189,,,,,,TRUE,,,,HZ,,,,,,,,,,,,,,,,,,,,,METAR,60.0
ENTO 220650Z 25008KT CAVOK M01/M04 Q0992,ENTO,2015-02-22T06:50:00Z,59.2,10.27,-1.0,-4.0,250,8,,6.21,29.291338,,,,,,,,,,,CAVOK,,,,,,,,VFR,,,,,,,,,,,,METAR,88.0
ENTC 220650Z 22008KT 9999 3000S -SHSN FEW013 SCT035 01/M01 Q0978 RMK WIND 2600FT 21014KT,ENTC,2015-02-22T06:50:00Z,69.68,18.92,1.0,-1.0,220,8,,6.21,28.877953,,,,,,,,,,-SHSN,FEW,1300,SCT,3500,,,,,VFR,,,-1.4,,,,,,,,,METAR,10.0
ENSB 220650Z 12005KT CAVOK M24/M28 Q0987 RMK WIND 1400FT 05003KT,ENSB,2015-02-22T06:50:00Z,78.25,15.47,-24.0,-28.0,120,5,,6.21,29.143702,,,,,,,,,,,CAVOK,,,,,,,,VFR,,,,,,,,,,,,METAR,29.0
ENRY 220650Z 20005KT 180V330 CAVOK M02/M03 Q0992,ENRY,2015-02-22T06:50:00Z,59.37,10.77,-2.0,-3.0,200,5,,6.21,29.291338,,,,,,,,,,,CAVOK,,,,,,,,VFR,,,,,,,,,,,,METAR,53.0
ENRO 220650Z AUTO VRB02KT 9999NDV -SHSN FEW006/// SCT011/// OVC016/// M06/M07 Q0986,ENRO,2015-02-22T06:50:00Z,62.57,11.33,-6.0,-7.0,0,2,,,29.114174,,,TRUE,,,,,,,-SHSN,,,,,,,,,,,,,,,,,,,,,METAR,626.0
ENHD 220650Z AUTO 29017KT 9999NDV BKN053/// 03/M02 Q0996,ENHD,2015-02-22T06:50:00Z,59.35,5.22,3.0,-2.0,290,17,,,29.409449,,,TRUE,,,,,,,,,,,,,,,,,,,,,,,,,,,,METAR,24.0
ENCN 220650Z VRB02KT CAVOK M01/M02 Q0996,ENCN,2015-02-22T06:50:00Z,58.2,8.07,-1.0,-2.0,0,2,,6.21,29.409449,,,,,,,,,,,CAVOK,,,,,,,,VFR,,,,,,,,,,,,METAR,17.0
ENAL 220650Z 35006KT 300V020 8000 -SHSN VV011 01/00 Q0990,ENAL,2015-02-22T06:50:00Z,62.57,6.12,1.0,0.0,350,6,,4.97,29.232283,,,,,,,,,,-SHSN,OVX,0,,,,,,,LIFR,,,,,,,,,,,1100,METAR,22.0
ENLA 220650Z AUTO 26009KT 210V290 9999NDV BKN054/// 05/M04 Q0999 W///S4,ENLA,2015-02-22T06:50:00Z,59.1,2.83,5.0,-4.0,260,9,,,29.498032,,,TRUE,,,,,,,,,,,,,,,,,,,,,,,,,,,,METAR,4.0
EGHI 220650Z 00000KT 9000 NSC M05/M06 Q1010,EGHI,2015-02-22T06:50:00Z,50.95,-1.35,-5.0,-6.0,0,0,,5.59,29.822834,,,,,,,,,,,,,,,,,,,,,,,,,,,,,,,METAR,14.0
LGTS 220650Z 11006KT 9999 FEW030 BKN080 09/04 Q1015 NOSIG,LGTS,2015-02-22T06:50:00Z,40.52,22.97,9.0,4.0,110,6,,6.21,29.970472,,,,,,TRUE,,,,,FEW,3000,BKN,8000,,,,,VFR,,,,,,,,,,,,METAR,7.0
LGSA 220650Z 27003KT 9999 FEW020 BKN090 OVC180 10/08 Q1013,LGSA,2015-02-22T06:50:00Z,35.53,24.13,10.0,8.0,270,3,,6.21,29.911417,,,,,,,,,,,FEW,2000,BKN,9000,OVC,18000,,,VFR,,,,,,,,,,,,METAR,135.0
LGLM 220650Z 00000KT 9999 FEW020 SCT180 07/06 Q1016,LGLM,2015-02-22T06:50:00Z,39.92,25.23,7.0,6.0,0,0,,6.21,30.0,,,,,,,,,,,FEW,2000,SCT,18000,,,,,VFR,,,,,,,,,,,,METAR,5.0
LGKO 220650Z 14012KT 9999 SCT025 BKN080 13/07 Q1017,LGKO,2015-02-22T06:50:00Z,36.8,27.08,13.0,7.0,140,12,,6.21,30.029528,,,,,,,,,,,SCT,2500,BKN,8000,,,,,VFR,,,,,,,,,,,,METAR,125.0
LGKL 220650Z 00000KT 9999 SCT030 BKN035 BKN080 10/07 Q1013,LGKL,2015-02-22T06:50:00Z,37.07,22.02,10.0,7.0,0,0,,6.21,29.911417,,,,,,,,,,,SCT,3000,BKN,3500,BKN,8000,,,VFR,,,,,,,,,,,,METAR,8.0
LGAD 220650Z 13008KT 9999 FEW020 BKN080 12/04 Q1011,LGAD,2015-02-22T06:50:00Z,37.92,21.27,12.0,4.0,130,8,,6.21,29.852362,,,,,,,,,,,FEW,2000,BKN,8000,,,,,VFR,,,,,,,,,,,,METAR,12.0
LGSO 220650Z 15007KT 9999 FEW018 SCT080 BKN180 12/08 Q1016,LGSO,2015-02-22T06:50:00Z,37.42,24.95,12.0,8.0,150,7,,6.21,30.0,,,,,,,,,,,FEW,1800,SCT,8000,BKN,18000,,,VFR,,,,,,,,,,,,METAR,72.0
LGPA 220650Z 13012KT 9999 FEW025 13/08 Q1015,LGPA,2015-02-22T06:50:00Z,37.0,25.13,13.0,8.0,130,12,,6.21,29.970472,,,,,,,,,,,FEW,2500,,,,,,,VFR,,,,,,,,,,,,METAR,36.0
LGNX 220650Z VRB03KT 9999 FEW015 SCT080 BKN180 10/06 Q1016,LGNX,2015-02-22T06:50:00Z,37.08,25.37,10.0,6.0,0,3,,6.21,30.0,,,,,,,,,,,FEW,1500,SCT,8000,BKN,18000,,,VFR,,,,,,,,,,,,METAR,4.0
LGMK 220650Z 17007KT 9999 FEW018 SCT090 BKN180 12/08 Q1015,LGMK,2015-02-22T06:50:00Z,37.43,25.35,12.0,8.0,170,7,,6.21,29.970472,,,,,,,,,,,FEW,1800,SCT,9000,BKN,18000,,,VFR,,,,,,,,,,,,METAR,123.0
LGKZ 220650Z 00000KT 7000 -RA FEW006 BKN020 OVC070 03/03 Q1013,LGKZ,2015-02-22T06:50:00Z,40.28,21.83,3.0,3.0,0,0,,4.35,29.911417,,,,,,,,,,-RA,FEW,600,BKN,2000,OVC,7000,,,MVFR,,,,,,,,,,,,METAR,628.0
LGKP 220650Z 12014KT 9999 BKN025 14/09 Q1018,LGKP,2015-02-22T06:50:00Z,35.42,27.15,14.0,9.0,120,14,,6.21,30.059055,,,,,,,,,,,BKN,2500,,,,,,,MVFR,,,,,,,,,,,,METAR,20.0
LGKF 220650Z AUTO 14016G27KT //// -RA ////// 14/// Q1009 RE//,LGKF,2015-02-22T06:50:00Z,38.12,20.5,,,140,16,27,,29.793306,,,TRUE,,,,,,,-RA,,,,,,,,,,,,,,,,,,,,,METAR,18.0
LGHI 220650Z 14004KT 9999 FEW020 BKN080 12/08 Q1016,LGHI,2015-02-22T06:50:00Z,38.32,26.12,12.0,8.0,140,4,,6.21,30.0,,,,,,,,,,,FEW,2000,BKN,8000,,,,,VFR,,,,,,,,,,,,METAR,4.0
LGBL 220650Z 00000KT 8000 FEW025 BKN080 07/05 Q1014,LGBL,2015-02-22T06:50:00Z,39.22,22.8,7.0,5.0,0,0,,4.97,29.940945,,,,,,,,,,,FEW,2500,BKN,8000,,,,,MVFR,,,,,,,,,,,,METAR,26.0
LSZH 220650Z 33003KT 300V020 2000 -SN FEW002 BKN010 BKN035 00/00 Q1008 R88/29//// TEMPO 1500,LSZH,2015-02-22T06:50:00Z,47.48,8.53,0.0,0.0,330,3,,1.24,29.763779,,,,,,,,,,-SN,FEW,200,BKN,1000,BKN,3500,,,IFR,,,,,,,,,,,,METAR,432.0
LGZA 220650Z 14018G28KT 9999 FEW018TCU BKN020 BKN080 14/11 Q1010,LGZA,2015-02-22T06:50:00Z,37.75,20.87,14.0,11.0,140,18,28,6.21,29.822834,,,,,,,,,,,FEW,1800,BKN,2000,BKN,8000,,,MVFR,,,,,,,,,,,,METAR,3.0
LGSR 220650Z 13014KT 9999 SCT025 SCT080 14/09 Q1015 RMK FEW180 BLU,LGSR,2015-02-22T06:50:00Z,36.4,25.48,14.0,9.0,130,14,,6.21,29.970472,,,,,,,,,,,SCT,2500,SCT,8000,,,,,VFR,,,,,,,,,,,,METAR,40.0
LGRX 220650Z 04004KT 9999 BKN080 12/08 Q1011,LGRX,2015-02-22T06:50:00Z,38.17,21.42,12.0,8.0,40,4,,6.21,29.852362,,,,,,,,,,,BKN,8000,,,,,,,VFR,,,,,,,,,,,,METAR,15.0
LGPZ 220650Z 14013KT 9999 FEW018 SCT035 BKN090 13/05 Q1010,LGPZ,2015-02-22T06:50:00Z,38.92,20.77,13.0,5.0,140,13,,6.21,29.822834,,,,,,,,,,,FEW,1800,SCT,3500,BKN,9000,,,VFR,,,,,,,,,,,,METAR,4.0
LGMT 220650Z 15009KT 9999 FEW030 BKN170 10/00 Q1018,LGMT,2015-02-22T06:50:00Z,39.05,26.6,10.0,0.0,150,9,,6.21,30.059055,,,,,,,,,,,FEW,3000,BKN,17000,,,,,VFR,,,,,,,,,,,,METAR,17.0
LGKV 220650Z 00000KT 9999 SCT025 BKN070 04/03 Q1016,LGKV,2015-02-22T06:50:00Z,40.92,24.62,4.0,3.0,0,0,,6.21,30.0,,,,,,,,,,,SCT,2500,BKN,7000,,,,,VFR,,,,,,,,,,,,METAR,5.0
LGIO 220650Z AUTO 17008KT 130V200 //// -RA ////// 08/04 Q1010 RE//,LGIO,2015-02-22T06:50:00Z,39.7,20.82,8.0,4.0,170,8,,,29.822834,,,TRUE,,,,,,,-RA,,,,,,,,,,,,,,,,,,,,,METAR,476.0
LGEL 220650Z 10004KT 9999 BKN025 BKN070 11/07 Q1015,LGEL,2015-02-22T06:50:00Z,38.07,23.55,11.0,7.0,100,4,,6.21,29.970472,,,,,,,,,,,BKN,2500,BKN,7000,,,,,MVFR,,,,,,,,,,,,METAR,31.0
LGAL 220650Z 00000KT CAVOK 01/M04 Q1016,LGAL,2015-02-22T06:50:00Z,40.85,25.95,1.0,-4.0,0,0,,6.21,30.0,,,,,,,,,,,CAVOK,,,,,,,,VFR,,,,,,,,,,,,METAR,3.0
KSQL 220650Z AUTO 22005KT 10SM FEW031 12/09 A2985 RMK AO2,KSQL,2015-02-22T06:50:00Z,37.52,-122.25,12.0,9.0,220,5,,10.0,29.84941,,,TRUE,TRUE,,,,,,,FEW,3100,,,,,,,VFR,,,,,,,,,,,,METAR,1.0
EGSD 220650Z 22005KT CAVOK M01/M02 Q1007,EGSD,2015-02-22T06:50:00Z,52.63,1.72,-1.0,-2.0,220,5,,6.21,29.734253,,,,,,,,,,,CAVOK,,,,,,,,VFR,,,,,,,,,,,,METAR,2.0
KMDS 220650Z AUTO 34012KT 10SM CLR M17/M19 A3043 RMK AO2,KMDS,2015-02-22T06:50:00Z,44.02,-97.08,-17.0,-19.0,340,12,,10.0,30.431103,,,TRUE,TRUE,,,,,,,CLR,,,,,,,,VFR,,,,,,,,,,,,METAR,524.0
LTAN 220650Z 11003KT 070V140 7000 NSC M07/M09 Q1022 NOSIG,LTAN,2015-02-22T06:50:00Z,37.97,32.53,-7.0,-9.0,110,3,,4.35,30.177166,,,,,,TRUE,,,,,,,,,,,,,,,,,,,,,,,,,METAR,1006.0
KSYM 220650Z AUTO 32005KT 1 1/4SM BR OVC003 01/00 A3013 RMK AO2,KSYM,2015-02-22T06:50:00Z,38.22,-83.58,1.0,0.0,320,5,,1.25,30.129921,,,TRUE,TRUE,,,,,,BR,OVC,300,,,,,,,LIFR,,,,,,,,,,,,METAR,313.0
KSTK 220650Z AUTO 05006KT 3SM -SN BKN010 OVC015 M07/M09 A3032 RMK AO2,KSTK,2015-02-22T06:50:00Z,40.62,-103.27,-7.0,-9.0,50,6,,3.0,30.318897,,,TRUE,TRUE,,,,,,-SN,BKN,1000,OVC,1500,,,,,MVFR,,,,,,,,,,,,METAR,1231.0
KEDJ 220650Z AUTO 00000KT M1/4SM BKN001 M13/M14 A3014 RMK AO1,KEDJ,2015-02-22T06:50:00Z,40.37,-83.82,-13.0,-14.0,0,0,,0.25,30.138779,,,TRUE,TRUE,,,,,,,BKN,100,,,,,,,LIFR,,,,,,,,,,,,METAR,342.0
EFKT 220650Z 17008KT 9999 -SN OVC011 M02/M03 Q0983 R16/39//95,EFKT,2015-02-22T06:50:00Z,67.7,24.85,-2.0,-3.0,170,8,,6.21,29.02559,,,,,,,,,,-SN,OVC,1100,,,,,,,MVFR,,,,,,,,,,,,METAR,643.0
EFKS 220650Z 16006KT 140V220 9999 SCT012 OVC023 M01/M03 Q0986,EFKS,2015-02-22T06:50:00Z,66.0,29.23,-1.0,-3.0,160,6,,6.21,29.114174,,,,,,,,,,,SCT,1200,OVC,2300,,,,,MVFR,,,,,,,,,,,,METAR,263.0
EFKI 220650Z AUTO 12005KT 090V180 3400 -SN FEW004 OVC025 M00/M00 Q0986,EFKI,2015-02-22T06:50:00Z,64.27,27.67,0.0,0.0,120,5,,2.11,29.114174,,,TRUE,,,,,,,-SN,FEW,400,OVC,2500,,,,,IFR,,,,,,,,,,,,METAR,136.0
EFKE 220650Z AUTO 16009KT 8000 -SHSN OVC007 M00/M01 Q0985,EFKE,2015-02-22T06:50:00Z,65.77,24.57,0.0,-1.0,160,9,,4.97,29.084646,,,TRUE,,,,,,,-SHSN,OVC,700,,,,,,,IFR,,,,,,,,,,,,METAR,15.0
EFIV 220650Z 18007KT 110V240 9999 BKN014 M01/M04 Q0983,EFIV,2015-02-22T06:50:00Z,68.62,27.42,-1.0,-4.0,180,7,,6.21,29.02559,,,,,,,,,,,BKN,1400,,,,,,,MVFR,,,,,,,,,,,,METAR,148.0
EFET 220650Z AUTO 18007KT 130V220 9999 OVC005 M06/M06 Q0981,EFET,2015-02-22T06:50:00Z,68.37,23.43,-6.0,-6.0,180,7,,6.21,28.966536,,,TRUE,,,,,,,,OVC,500,,,,,,,IFR,,,,,,,,,,,,METAR,306.0
EFVR 220650Z AUTO 16009KT 110V210 5000 -RA BKN007 00/M01 Q0989,EFVR,2015-02-22T06:50:00Z,62.17,27.87,0.0,-1.0,160,9,,3.11,29.202755,,,TRUE,,,,,,,-RA,BKN,700,,,,,,,IFR,,,,,,,,,,,,METAR,87.0
EFSA 220650Z AUTO 15009KT 120V190 5000 OVC006 00/M01 Q0990,EFSA,2015-02-22T06:50:00Z,61.95,28.93,0.0,-1.0,150,9,,3.11,29.232283,,,TRUE,,,,,,,,OVC,600,,,,,,,IFR,,,,,,,,,,,,METAR,95.0
EFMI 220650Z AUTO 16008KT 130V220 5000 -SHRA OVC006 00/M00 Q0988,EFMI,2015-02-22T06:50:00Z,61.68,27.2,0.0,0.0,160,8,,3.11,29.17323,,,TRUE,,,,,,,-SHRA,OVC,600,,,,,,,IFR,,,,,,,,,,,,METAR,138.0
EFLP 220650Z AUTO 17007KT 130V230 5000 FEW005 OVC007 ///// Q////,EFLP,2015-02-22T06:50:00Z,61.07,28.13,,,170,7,,3.11,,,,TRUE,,,,,,,,FEW,500,OVC,700,,,,,IFR,,,,,,,,,,,,METAR,106.0
EFJO 220650Z AUTO 16011KT 130V200 4400 BR OVC005 M00/M00 Q0989,EFJO,2015-02-22T06:50:00Z,62.67,29.62,0.0,0.0,160,11,,2.73,29.202755,,,TRUE,,,,,,,BR,OVC,500,,,,,,,IFR,,,,,,,,,,,,METAR,117.0
LTCI 220650Z 29004KT 250V330 9999 FEW040 00/M08 Q1019 NOSIG,LTCI,2015-02-22T06:50:00Z,38.45,43.32,0.0,-8.0,290,4,,6.21,30.088583,,,,,,TRUE,,,,,FEW,4000,,,,,,,VFR,,,,,,,,,,,,METAR,1661.0
LTCF 220650Z 00000KT CAVOK M14/M16 Q1020,LTCF,2015-02-22T06:50:00Z,40.57,43.12,-14.0,-16.0,0,0,,6.21,30.11811,,,,,,,,,,,CAVOK,,,,,,,,VFR,,,,,,,,,,,,METAR,1795.0
LTCD 220650Z 00000KT CAVOK M01/M06 Q1023 NOSIG,LTCD,2015-02-22T06:50:00Z,39.72,39.5,-1.0,-6.0,0,0,,6.21,30.206694,,,,,,TRUE,,,,,CAVOK,,,,,,,,VFR,,,,,,,,,,,,METAR,1215.0
LTCA 220650Z VRB02KT CAVOK 02/M05 Q1022 NOSIG,LTCA,2015-02-22T06:50:00Z,38.6,39.27,2.0,-5.0,0,2,,6.21,30.177166,,,,,,TRUE,,,,,CAVOK,,,,,,,,VFR,,,,,,,,,,,,METAR,882.0
LTBY 220650Z 10014KT CAVOK M03/M07 Q1021,LTBY,2015-02-22T06:50:00Z,39.82,30.52,-3.0,-7.0,100,14,,6.21,30.147638,,,,,,,,,,,CAVOK,,,,,,,,VFR,,,,,,,,,,,,METAR,789.0
LTAY 220650Z 09014KT 9999 FEW035 BKN100 01/M05 Q1019,LTAY,2015-02-22T06:50:00Z,37.77,29.68,1.0,-5.0,90,14,,6.21,30.088583,,,,,,,,,,,FEW,3500,BKN,10000,,,,,VFR,,,,,,,,,,,,METAR,849.0
LTAR 220650Z 13004KT CAVOK M10/M11 Q1020,LTAR,2015-02-22T06:50:00Z,39.8,36.9,-10.0,-11.0,130,4,,6.21,30.11811,,,,,,,,,,,CAVOK,,,,,,,,VFR,,,,,,,,,,,,METAR,1271.0
EGHQ 220650Z 16010KT 9999 FEW048 03/01 Q1007,EGHQ,2015-02-22T06:50:00Z,50.43,-5.0,3.0,1.0,160,10,,6.21,29.734253,,,,,,,,,,,FEW,4800,,,,,,,VFR,,,,,,,,,,,,METAR,119.0
MUCU 220650Z 35005KT 9000 FEW020 22/18 Q1018,MUCU,2015-02-22T06:50:00Z,19.97,-75.83,22.0,18.0,350,5,,5.59,30.059055,,,,,,,,,,,FEW,2000,,,,,,,VFR,,,,,,,,,,,,METAR,76.0
MUHG 220650Z 09007KT CAVOK 23/20 Q1018,MUHG,2015-02-22T06:50:00Z,20.77,-76.32,23.0,20.0,90,7,,6.21,30.059055,,,,,,,,,,,CAVOK,,,,,,,,VFR,,,,,,,,,,,,METAR,106.0
MUCM 220650Z 08008KT 9000 FEW020 20/18 Q1020,MUCM,2015-02-22T06:50:00Z,21.42,-77.85,20.0,18.0,80,8,,5.59,30.11811,,,,,,,,,,,FEW,2000,,,,,,,VFR,,,,,,,,,,,,METAR,122.0
MUSC 220650Z 10005KT 9000 SKC 18/16 Q1021,MUSC,2015-02-22T06:50:00Z,22.5,-79.95,18.0,16.0,100,5,,5.59,30.147638,,,,,,,,,,,SKC,,,,,,,,VFR,,,,,,,,,,,,METAR,103.0
MUVR 220650Z 12005KT 090V150 9999 NSC 19/16 Q1020,MUVR,2015-02-22T06:50:00Z,23.03,-81.43,19.0,16.0,120,5,,6.21,30.11811,,,,,,,,,,,,,,,,,,,,,,,,,,,,,,,METAR,65.0
LTFH 220650Z 16005KT 130V200 CAVOK 06/M05 Q1023 NOSIG,LTFH,2015-02-22T06:50:00Z,41.27,36.55,6.0,-5.0,160,5,,6.21,30.206694,,,,,,TRUE,,,,,CAVOK,,,,,,,,VFR,,,,,,,,,,,,METAR,5.0
LTDA 220650Z 00000KT CAVOK 06/03 Q1024,LTDA,2015-02-22T06:50:00Z,36.37,36.28,6.0,3.0,0,0,,6.21,30.236221,,,,,,,,,,,CAVOK,,,,,,,,VFR,,,,,,,,,,,,METAR,82.0
ENHE 220650Z 34010KT 9999 SCT020 01/M03 Q0988 W///S7,ENHE,2015-02-22T06:50:00Z,65.33,2.33,1.0,-3.0,340,10,,6.21,29.17323,,,,,,,,,,,SCT,2000,,,,,,,VFR,,,,,,,,,,,,METAR,1.0
LTAG 220650Z 32004KT CAVOK 08/M03 Q1023 NOSIG,LTAG,2015-02-22T06:50:00Z,37.0,35.42,8.0,-3.0,320,4,,6.21,30.206694,,,,,,TRUE,,,,,CAVOK,,,,,,,,VFR,,,,,,,,,,,,METAR,66.0
LIRQ 220650Z 15003KT 9999 BKN030 07/07 Q0997,LIRQ,2015-02-22T06:50:00Z,43.78,11.18,7.0,7.0,150,3,,6.21,29.438976,,,,,,,,,,,BKN,3000,,,,,,,MVFR,,,,,,,,,,,,METAR,38.0
LIRN 220650Z 34007KT 280V030 1000 R24/2000VP2000N +RA SCT020 OVC040 10/10 Q0995,LIRN,2015-02-22T06:50:00Z,40.88,14.3,10.0,10.0,340,7,,0.62,29.379921,,,,,,,,,,+RA,SCT,2000,OVC,4000,,,,,LIFR,,,,,,,,,,,,METAR,72.0
LIRF 220650Z 11008KT 9999 -RA SCT025 OVC045 10/09 Q0995 NOSIG,LIRF,2015-02-22T06:50:00Z,41.78,12.22,10.0,9.0,110,8,,6.21,29.379921,,,,,,TRUE,,,,-RA,SCT,2500,OVC,4500,,,,,VFR,,,,,,,,,,,,METAR,3.0
LIML 220650Z 33005KT 290V360 9999 -RA FEW015 BKN040 05/05 Q1001 NOSIG,LIML,2015-02-22T06:50:00Z,45.47,9.27,5.0,5.0,330,5,,6.21,29.557087,,,,,,TRUE,,,,-RA,FEW,1500,BKN,4000,,,,,VFR,,,,,,,,,,,,METAR,103.0
LIMJ 220650Z 05006KT 350V110 9999 FEW025 BKN070 05/01 Q0999,LIMJ,2015-02-22T06:50:00Z,44.42,8.83,5.0,1.0,50,6,,6.21,29.498032,,,,,,,,,,,FEW,2500,BKN,7000,,,,,VFR,,,,,,,,,,,,METAR,3.0
LIMF 220650Z 28005KT 7000 RADZ BKN015 BKN035 02/02 Q1002,LIMF,2015-02-22T06:50:00Z,45.22,7.65,2.0,2.0,280,5,,4.35,29.586615,,,,,,,,,,RA DZ,BKN,1500,BKN,3500,,,,,MVFR,,,,,,,,,,,,METAR,287.0
LIME 220650Z 00000KT 9999 -RA FEW030 BKN045 03/03 Q1000,LIME,2015-02-22T06:50:00Z,45.67,9.68,3.0,3.0,0,0,,6.21,29.52756,,,,,,,,,,-RA,FEW,3000,BKN,4500,,,,,VFR,,,,,,,,,,,,METAR,237.0
LIMC 220650Z 33006KT 6000 RA BKN012 OVC030 03/03 Q1001 NOSIG,LIMC,2015-02-22T06:50:00Z,45.62,8.72,3.0,3.0,330,6,,3.73,29.557087,,,,,,TRUE,,,,RA,BKN,1200,OVC,3000,,,,,MVFR,,,,,,,,,,,,METAR,211.0
LIEO 220650Z VRB02KT 9999 SCT040 07/07 Q0995,LIEO,2015-02-22T06:50:00Z,40.88,9.52,7.0,7.0,0,2,,6.21,29.379921,,,,,,,,,,,SCT,4000,,,,,,,VFR,,,,,,,,,,,,METAR,13.0
LIEE 220650Z 33004KT 0300 NSC 07/07 Q0995,LIEE,2015-02-22T06:50:00Z,39.25,9.07,7.0,7.0,330,4,,0.19,29.379921,,,,,,,,,,,,,,,,,,,,,,,,,,,,,,,METAR,4.0
LIEA 220650Z 31004KT 270V010 9999 -DZ SCT012 SCT020 09/09 Q0995,LIEA,2015-02-22T06:50:00Z,40.62,8.27,9.0,9.0,310,4,,6.21,29.379921,,,,,,,,,,-DZ,SCT,1200,SCT,2000,,,,,VFR,,,,,,,,,,,,METAR,23.0
KEFD 220650Z 19005KT 5SM BR OVC005 19/18 A2999,KEFD,2015-02-22T06:50:00Z,29.6,-95.17,19.0,18.0,190,5,,5.0,29.991142,,,,,,,,,,BR,OVC,500,,,,,,,IFR,,,,,,,,,,,,METAR,10.0
OAMS 220650Z 26014G19KT 9000 FEW040 SCT100 BKN200 17/11 Q1013 BLU+ BLU,OAMS,2015-02-22T06:50:00Z,36.7,67.2,17.0,11.0,260,14,19,5.59,29.911417,,,,,,,,,,,FEW,4000,SCT,10000,BKN,20000,,,VFR,,,,,,,,,,,,METAR,378.0
KQRB 220650Z 03001KT 9999 SCT020 BKN024 BKN090 23/23 A2988 RMK AO2A SLP117 T02330226,KQRB,2015-02-22T06:50:00Z,100.65,-1000.65,23.3,22.6,30,1,,6.21,29.878937,1011.7,,,TRUE,,,,,,,SCT,2000,BKN,2400,BKN,9000,,,MVFR,,,,,,,,,,,,METAR,999.0
KQBC 220650Z AUTO 11001KT 8000 BR FEW010 BKN100 24/22 A2989 RMK AO2 SLP119 T02380216,KQBC,2015-02-22T06:50:00Z,,,23.8,21.6,110,1,,4.97,29.890747,1011.9,,TRUE,TRUE,,,,,,BR,FEW,1000,BKN,10000,,,,,MVFR,,,,,,,,,,,,METAR,
EEPU 220650Z 19015G30KT 150V220 9999 OVC023 02/M00 Q0993 RERA,EEPU,2015-02-22T06:50:00Z,58.42,24.47,2.0,0.0,190,15,30,6.21,29.320866,,,,,,,,,,,OVC,2300,,,,,,,MVFR,,,,,,,,,,,,METAR,14.0
EETU 220650Z AUTO 21016KT 9999 BKN023/// 02/M03 Q0997,EETU,2015-02-22T06:50:00Z,58.32,26.68,2.0,-3.0,210,16,,6.21,29.438976,,,TRUE,,,,,,,,,,,,,,,,,,,,,,,,,,,,METAR,67.0
EEKE 220650Z AUTO 25020G32KT 200V280 9999NDV OVC010 03/01 Q0992,EEKE,2015-02-22T06:50:00Z,58.23,22.52,3.0,1.0,250,20,32,,29.291338,,,TRUE,,,,,,,,OVC,1000,,,,,,,,,,,,,,,,,,,METAR,4.0
EDGS 220650Z 31012KT 5000 -FZDZ PRFG FEW003 SCT006 BKN013 M01/M01 Q1006,EDGS,2015-02-22T06:50:00Z,50.7,8.08,-1.0,-1.0,310,12,,3.11,29.704725,,,,,,,,,,-FZDZ PRFG,FEW,300,SCT,600,BKN,1300,,,MVFR,,,,,,,,,,,,METAR,602.0
EDLV 220650Z 21004KT 170V250 0400 R27/0500N FZFG VV/// M00/M00 Q1009,EDLV,2015-02-22T06:50:00Z,51.6,6.15,0.0,0.0,210,4,,0.25,29.793306,,,,,,,,,,FZFG,OVX,0,,,,,,,LIFR,,,,,,,,,,,,METAR,32.0
EDFE 220650Z VRB01KT 9999 FEW019 BKN022 00/M01 Q1008,EDFE,2015-02-22T06:50:00Z,49.97,8.63,0.0,-1.0,0,1,,6.21,29.763779,,,,,,,,,,,FEW,1900,BKN,2200,,,,,MVFR,,,,,,,,,,,,METAR,118.0
LOXZ 220650Z VRB02KT 25KM BKN057SC M00/M03 Q1004 RMK OVC,LOXZ,2015-02-22T06:50:00Z,47.2,14.75,0.0,-3.0,0,2,,15.53,29.64567,,,,,,,,,,,,,,,,,,,,,,,,,,,,,,,METAR,682.0
EBBR 220650Z 22005KT 4200 BR FEW002 M00/M02 Q1009 TEMPO 2000 BR,EBBR,2015-02-22T06:50:00Z,50.9,4.5,0.0,-2.0,220,5,,2.61,29.793306,,,,,,,,,,BR,FEW,200,,,,,,,IFR,,,,,,,,,,,,METAR,58.0
ELLX 220650Z VRB02KT 9999 FEW008 BKN013 00/M01 Q1009 NOSIG,ELLX,2015-02-22T06:50:00Z,49.63,6.2,0.0,-1.0,0,2,,6.21,29.793306,,,,,,TRUE,,,,,FEW,800,BKN,1300,,,,,MVFR,,,,,,,,,,,,METAR,379.0
EBOS 220650Z 20005KT 9999 FEW017 M00/M01 Q1009 NOSIG,EBOS,2015-02-22T06:50:00Z,51.2,2.87,0.0,-1.0,200,5,,6.21,29.793306,,,,,,TRUE,,,,,FEW,1700,,,,,,,VFR,,,,,,,,,,,,METAR,5.0
EBLG 220650Z 21007KT 2700 BR FEW003 BKN004 01/M00 Q1009 TEMPO 1200 BCFG,EBLG,2015-02-22T06:50:00Z,50.63,5.45,1.0,0.0,210,7,,1.68,29.793306,,,,,,,,,,BR,FEW,300,BKN,400,,,,,LIFR,,,,,,,,,,,,METAR,178.0
EBCI 220650Z 21005KT 1600 BR BCFG FEW003 M00/M01 Q1010 TEMPO 0800 BCFG,EBCI,2015-02-22T06:50:00Z,50.47,4.45,0.0,-1.0,210,5,,0.99,29.822834,,,,,,,,,,BR BCFG,FEW,300,,,,,,,LIFR,,,,,,,,,,,,METAR,192.0
EBAW 220650Z 23005KT 4500 BR FEW003 01/M01 Q1009 NOSIG,EBAW,2015-02-22T06:50:00Z,51.2,4.47,1.0,-1.0,230,5,,2.8,29.793306,,,,,,TRUE,,,,BR,FEW,300,,,,,,,IFR,,,,,,,,,,,,METAR,14.0
LOWK 220650Z VRB01KT 9999 -SNRA SCT030 BKN040 01/M01 Q1004 R10L/15//95 TEMPO SNRA,LOWK,2015-02-22T06:50:00Z,46.65,14.32,1.0,-1.0,0,1,,6.21,29.64567,,,,,,,,,,-SN -RA,SCT,3000,BKN,4000,,,,,VFR,,,,,,,,,,,,METAR,441.0
LOWG 220650Z VRB02KT 9999 BKN062 01/M01 Q1005 NOSIG,LOWG,2015-02-22T06:50:00Z,47.0,15.42,1.0,-1.0,0,2,,6.21,29.675198,,,,,,TRUE,,,,,BKN,6200,,,,,,,VFR,,,,,,,,,,,,METAR,347.0
LOWI 220650Z 29002KT 1500 R08/1300N R26/1500U -SN BR SCT004 BKN008 BKN012 00/00 Q1005 R08/2///95 TEMPO 1000,LOWI,2015-02-22T06:50:00Z,47.27,11.33,0.0,0.0,290,2,,0.93,29.675198,,,,,,,,,,-SN BR,SCT,400,BKN,800,BKN,1200,,,LIFR,,,,,,,,,,,,METAR,581.0
LOWS 220650Z VRB02KT 9999 FEW019 BKN023 01/M01 Q1005 NOSIG,LOWS,2015-02-22T06:50:00Z,47.78,13.02,1.0,-1.0,0,2,,6.21,29.675198,,,,,,TRUE,,,,,FEW,1900,BKN,2300,,,,,MVFR,,,,,,,,,,,,METAR,450.0
LOWL 220650Z 26003KT 7000 FEW070 BKN110 01/M01 Q1006 NOSIG,LOWL,2015-02-22T06:50:00Z,48.22,14.18,1.0,-1.0,260,3,,4.35,29.704725,,,,,,TRUE,,,,,FEW,7000,BKN,11000,,,,,MVFR,,,,,,,,,,,,METAR,313.0
LOWW 220650Z 36004KT 9000 FEW100 SCT200 BKN300 M00/M02 Q1006 NOSIG,LOWW,2015-02-22T06:50:00Z,48.12,16.57,0.0,-2.0,360,4,,5.59,29.704725,,,,,,TRUE,,,,,FEW,10000,SCT,20000,BKN,30000,,,VFR,,,,,,,,,,,,METAR,190.0
HLLM 220650Z 22005KT 6000 FEW040 BKN080 16/08 Q1002,HLLM,2015-02-22T06:50:00Z,32.9,13.28,16.0,8.0,220,5,,3.73,29.586615,,,,,,,,,,,FEW,4000,BKN,8000,,,,,MVFR,,,,,,,,,,,,METAR,11.0
LXGB 220650Z 25010KT 9999 FEW025 10/07 Q1017 NOSIG,LXGB,2015-02-22T06:50:00Z,36.13,-5.33,10.0,7.0,250,10,,6.21,30.029528,,,,,,TRUE,,,,,FEW,2500,,,,,,,VFR,,,,,,,,,,,,METAR,5.0
EFSI 220650Z AUTO 00000KT 2100 -SN BKN001 OVC006 M00/M00 Q0984,EFSI,2015-02-22T06:50:00Z,62.7,22.83,0.0,0.0,0,0,,1.3,29.055119,,,TRUE,,,,,,,-SN,BKN,100,OVC,600,,,,,LIFR,,,,,,,,,,,,METAR,91.0
EFPO 220650Z AUTO 31004KT 1200 R30/1600D -SN VV006 00/M00 Q0984,EFPO,2015-02-22T06:50:00Z,61.47,21.8,0.0,0.0,310,4,,0.75,29.055119,,,TRUE,,,,,,,-SN,OVX,0,,,,,,,LIFR,,,,,,,,,,,600,METAR,17.0
EFMA 220650Z AUTO 28007KT 240V330 7000 -RA OVC004 01/01 Q0988,EFMA,2015-02-22T06:50:00Z,60.12,19.88,1.0,1.0,280,7,,4.35,29.17323,,,TRUE,,,,,,,-RA,OVC,400,,,,,,,LIFR,,,,,,,,,,,,METAR,6.0
EFKK 220650Z AUTO 13001KT 9999 FEW009 SCT011 BKN029 M00/M01 Q0985,EFKK,2015-02-22T06:50:00Z,63.72,23.13,0.0,-1.0,130,1,,6.21,29.084646,,,TRUE,,,,,,,,FEW,900,SCT,1100,BKN,2900,,,MVFR,,,,,,,,,,,,METAR,25.0
EFHF 220650Z 16012KT 130V220 8000 BKN022 02/M00 Q0988,EFHF,2015-02-22T06:50:00Z,60.25,25.05,2.0,0.0,160,12,,4.97,29.17323,,,,,,,,,,,BKN,2200,,,,,,,MVFR,,,,,,,,,,,,METAR,28.0
EFHA 220650Z AUTO 17008KT 4500 BR OVC004 00/00 Q0985,EFHA,2015-02-22T06:50:00Z,61.85,24.8,0.0,0.0,170,8,,2.8,29.084646,,,TRUE,,,,,,,BR,OVC,400,,,,,,,LIFR,,,,,,,,,,,,METAR,145.0
LIBD 220650Z 16013G26KT 9999 SCT020 14/10 Q0998,LIBD,2015-02-22T06:50:00Z,41.12,16.77,14.0,10.0,160,13,26,6.21,29.468504,,,,,,,,,,,SCT,2000,,,,,,,VFR,,,,,,,,,,,,METAR,44.0
LICC 220650Z VRB01KT 8000 FEW030 SCT060 13/11 Q0997,LICC,2015-02-22T06:50:00Z,37.47,15.05,13.0,11.0,0,1,,4.97,29.438976,,,,,,,,,,,FEW,3000,SCT,6000,,,,,MVFR,,,,,,,,,,,,METAR,17.0
LICJ 220650Z 25011KT 200V260 4500 +RA SCT018 BKN025 12/11 Q0995,LICJ,2015-02-22T06:50:00Z,38.17,13.08,12.0,11.0,250,11,,2.8,29.379921,,,,,,,,,,+RA,SCT,1800,BKN,2500,,,,,IFR,,,,,,,,,,,,METAR,34.0
LIPE 220650Z VRB02KT 4000 -RA BR BKN006 BKN012 07/07 Q0999,LIPE,2015-02-22T06:50:00Z,44.52,11.3,7.0,7.0,0,2,,2.49,29.498032,,,,,,,,,,-RA BR,BKN,600,BKN,1200,,,,,IFR,,,,,,,,,,,,METAR,42.0
LIPB 220650Z VRB01KT 1200 DZ BR SCT010 BKN030 04/04 Q1003,LIPB,2015-02-22T06:50:00Z,46.47,11.32,4.0,4.0,0,1,,0.75,29.616142,,,,,,,,,,DZ BR,SCT,1000,BKN,3000,,,,,LIFR,,,,,,,,,,,,METAR,241.0
LIPQ 220650Z 36006KT 9999 -RA SCT025 BKN040 08/04 Q1000,LIPQ,2015-02-22T06:50:00Z,45.82,13.47,8.0,4.0,360,6,,6.21,29.52756,,,,,,,,,,-RA,SCT,2500,BKN,4000,,,,,VFR,,,,,,,,,,,,METAR,12.0
EDTL 220650Z 10001KT 7000 BKBN012 02/01 Q1009,EDTL,2015-02-22T06:50:00Z,48.37,7.83,2.0,1.0,100,1,,4.35,29.793306,,,,,,,,,,,,,,,,,,,,,,,,,,,,,,,METAR,156.0
EDJA 220650Z 21004KT 2400 -SN BKN003 M03/M03 Q1007,EDJA,2015-02-22T06:50:00Z,47.98,10.23,-3.0,-3.0,210,4,,1.49,29.734253,,,,,,,,,,-SN,BKN,300,,,,,,,LIFR,,,,,,,,,,,,METAR,633.0
LIPZ 220650Z 03015KT 4000 -RA BR SCT018 BKN030 07/06 Q1000,LIPZ,2015-02-22T06:50:00Z,45.5,12.35,7.0,6.0,30,15,,2.49,29.52756,,,,,,,,,,-RA BR,SCT,1800,BKN,3000,,,,,IFR,,,,,,,,,,,,METAR,6.0
ENFB 220650Z AUTO 30009KT 8000NDV -SHRASN BKN013/// BKN048/// 01/M01 Q0994 W///S6,ENFB,2015-02-22T06:50:00Z,61.2,1.83,1.0,-1.0,300,9,,,29.350393,,,TRUE,,,,,,,-SHRA SN,,,,,,,,,,,,,,,,,,,,,METAR,10.0
ENSL 220650Z 31011KT 280V060 8000 -SHSNRA BKN022 02/M01 Q0998 W///S/,ENSL,2015-02-22T06:50:00Z,58.37,1.9,2.0,-1.0,310,11,,4.97,29.468504,,,,,,,,,,-SHSN -SHRA,BKN,2200,,,,,,,MVFR,,,,,,,,,,,,METAR,50.0
ENOA 220650Z 29017KT 9999 FEW015CB SCT030 01/M01 Q0994 W///S6,ENOA,2015-02-22T06:50:00Z,60.5,2.83,1.0,-1.0,290,17,,6.21,29.350393,,,,,,,,,,,FEW,1500,SCT,3000,,,,,VFR,,,,,,,,,,,,METAR,5.0
ENEK 220650Z 29012KT 9999 SCT050 05/M04 Q1001 W07/S4,ENEK,2015-02-22T06:50:00Z,56.53,3.25,5.0,-4.0,290,12,,6.21,29.557087,,,,,,,,,,,SCT,5000,,,,,,,VFR,,,,,,,,,,,,METAR,3.0
ENDR 220650Z AUTO 33009KT 03/M05 Q0988,ENDR,2015-02-22T06:50:00Z,64.35,7.8,3.0,-5.0,330,9,,,29.17323,,,TRUE,,,,,,,,,,,,,,,,,,,,,,,,,,,,METAR,50.0
ENZV 220650Z 30014KT 9999 FEW016 SCT036 BKN049 04/M03 Q0997 NOSIG,ENZV,2015-02-22T06:50:00Z,58.87,5.62,4.0,-3.0,300,14,,6.21,29.438976,,,,,,TRUE,,,,,FEW,1600,SCT,3600,BKN,4900,,,VFR,,,,,,,,,,,,METAR,9.0
ENVA 220650Z 24009KT 9999 SCT019 BKN031 01/M02 Q0989 TEMPO 2000 SHSN BKN010 RMK WIND 670FT 25010KT,ENVA,2015-02-22T06:50:00Z,63.47,10.92,1.0,-2.0,240,9,,6.21,29.202755,,,,,,,,,,,SCT,1900,BKN,3100,,,,,VFR,,,,,,,,,,,,METAR,17.0
ENOL 220650Z VRB02KT 0500 SHSN VV007 00/M00 Q0988 TEMPO 9999 -SHSN FEW012CB BKN030,ENOL,2015-02-22T06:50:00Z,63.7,9.58,0.0,0.0,0,2,,0.31,29.17323,,,,,,,,,,SHSN,OVX,0,,,,,,,LIFR,,,,,,,,,,,700,METAR,7.0
ENGM 220650Z VRB02KT 0500 R19R/0550N R01R/0750U FZFG VV001 M09/M10 Q0990 TEMPO 0700 FZFG,ENGM,2015-02-22T06:50:00Z,60.2,11.1,-9.0,-10.0,0,2,,0.31,29.232283,,,,,,,,,,FZFG,OVX,0,,,,,,,LIFR,,,,,,,,,,,100,METAR,204.0
ENDU 220650Z VRB01KT 9999 FEW035 SCT060 BKN100 M04/M06 Q0978 NOSIG,ENDU,2015-02-22T06:50:00Z,69.03,18.55,-4.0,-6.0,0,1,,6.21,28.877953,,,,,,TRUE,,,,,FEW,3500,SCT,6000,BKN,10000,,,VFR,,,,,,,,,,,,METAR,79.0
ENBO 220650Z 25011KT 9999 FEW008 BKN025 01/01 Q0981,ENBO,2015-02-22T06:50:00Z,67.27,14.37,1.0,1.0,250,11,,6.21,28.966536,,,,,,,,,,,FEW,800,BKN,2500,,,,,MVFR,,,,,,,,,,,,METAR,13.0
ENBR 220650Z 14003KT 080V160 9999 VCSH FEW010CB SCT012TCU BKN024 M00/M02 Q0994 TEMPO 3000 SHRASN BKN010 RMK WIND 1200FT 28014KT,ENBR,2015-02-22T06:50:00Z,60.28,5.22,0.0,-2.0,140,3,,6.21,29.350393,,,,,,,,,,VCSH,FEW,1000,SCT,1200,BKN,2400,,,MVFR,,,,,,,,,,,,METAR,50.0
ENAN 220650Z 31009KT 6000 -SHSN FEW008 BKN012 FEW015CB 01/M00 Q0978,ENAN,2015-02-22T06:50:00Z,69.28,16.13,1.0,0.0,310,9,,3.73,28.877953,,,,,,,,,,-SHSN,FEW,800,BKN,1200,FEW,1500,,,MVFR,,,,,,,,,,,,METAR,14.0
ENNA 220650Z 17011KT 9999 FEW015 SCT065 M04/M07 Q0980 RMK WIND 1800FT 19011KT,ENNA,2015-02-22T06:50:00Z,70.07,24.97,-4.0,-7.0,170,11,,6.21,28.937008,,,,,,,,,,,FEW,1500,SCT,6500,,,,,VFR,,,,,,,,,,,,METAR,8.0
ENML 220650Z AUTO 26013KT 9999NDV -SHSN FEW018/// BKN025/// OVC033/// 01/M00 Q0990,ENML,2015-02-22T06:50:00Z,62.75,7.27,1.0,0.0,260,13,,,29.232283,,,TRUE,,,,,,,-SHSN,,,,,,,,,,,,,,,,,,,,,METAR,3.0
ENKR 220650Z AUTO 21012KT 9999NDV OVC014/// M01/M03 Q0982 RMK WIND 731FT 22020KT,ENKR,2015-02-22T06:50:00Z,69.72,29.88,-1.0,-3.0,210,12,,,28.996063,,,TRUE,,,,,,,,,,,,,,,,,,,,,,,,,,,,METAR,91.0
ENKB 220650Z AUTO 03001KT 1600NDV -SN FEW001/// SCT013/// BKN021/// M00/M01 Q0989,ENKB,2015-02-22T06:50:00Z,63.12,7.82,0.0,-1.0,30,1,,,29.202755,,,TRUE,,,,,,,-SN,,,,,,,,,,,,,,,,,,,,,METAR,62.0
ENFL 220650Z AUTO VRB03KT //// R07///// R25///// BKN013/// BKN021/// OVC036/// 00/M01 Q0992,ENFL,2015-02-22T06:50:00Z,61.57,5.02,0.0,-1.0,0,3,,,29.291338,,,TRUE,,,,,,,,,,,,,,,,,,,,,,,,,,,,METAR,9.0
ENEV 220650Z AUTO 19003KT 140V230 9999NDV OVC031/// 01/M01 Q0979 RMK WIND 1400FT 20016KT,ENEV,2015-02-22T06:50:00Z,68.52,16.67,1.0,-1.0,190,3,,,28.90748,,,TRUE,,,,,,,,,,,,,,,,,,,1.6,,,,,,,,,METAR,26.0
ENAT 220650Z 16006KT CAVOK M05/M09 Q0980 RMK WIND 700FT 15013KT,ENAT,2015-02-22T06:50:00Z,69.97,23.37,-5.0,-9.0,160,6,,6.21,28.937008,,,,,,,,,,,CAVOK,,,,,,,,VFR,,,,,,,,,,,,METAR,3.0
LCRA 220650Z 04004KT 9999 FEW050 BKN230 13/05 Q1022 NOSIG,LCRA,2015-02-22T06:50:00Z,34.57,32.97,13.0,5.0,40,4,,6.21,30.177166,,,,,,TRUE,,,,,FEW,5000,BKN,23000,,,,,VFR,,,,,,,,,,,,METAR,23.0
LGRP 220650Z 09007KT 060V120 9999 SCT020 14/06 Q1019 NOSIG,LGRP,2015-02-22T06:50:00Z,36.4,28.08,14.0,6.0,90,7,,6.21,30.088583,,,,,,TRUE,,,,,SCT,2000,,,,,,,VFR,,,,,,,,,,,,METAR,5.0
LGKR 220650Z 13018KT 9999 FEW015 SCT030 BKN080 13/08 Q1008 NOSIG,LGKR,2015-02-22T06:50:00Z,39.62,19.92,13.0,8.0,130,18,,6.21,29.763779,,,,,,TRUE,,,,,FEW,1500,SCT,3000,BKN,8000,,,VFR,,,,,,,,,,,,METAR,2.0
LGIR 220650Z 19016KT 9999 FEW025 BKN080 OVC180 14/09 Q1014 NOSIG,LGIR,2015-02-22T06:50:00Z,35.32,25.17,14.0,9.0,190,16,,6.21,29.940945,,,,,,TRUE,,,,,FEW,2500,BKN,8000,OVC,18000,,,VFR,,,,,,,,,,,,METAR,39.0
LGAV 220650Z VRB02KT 9999 BKN025 09/06 Q1015 NOSIG,LGAV,2015-02-22T06:50:00Z,37.93,23.95,9.0,6.0,0,2,,6.21,29.970472,,,,,,TRUE,,,,,BKN,2500,,,,,,,MVFR,,,,,,,,,,,,METAR,94.0
KVWU 220650Z AUTO 30005KT 10SM CLR M28/M31 A3042 RMK AO2,KVWU,2015-02-22T06:50:00Z,48.15,-94.52,-28.0,-31.0,300,5,,10.0,30.41929,,,TRUE,TRUE,,,,,,,CLR,,,,,,,,VFR,,,,,,,,,,,,METAR,360.0
LATI 220650Z 19004KT 9999 -RA SCT053 OVC076 09/07 Q1006 NOSIG,LATI,2015-02-22T06:50:00Z,41.42,19.72,9.0,7.0,190,4,,6.21,29.704725,,,,,,TRUE,,,,-RA,SCT,5300,OVC,7600,,,,,VFR,,,,,,,,,,,,METAR,90.0
LTBJ 220650Z 14004KT 110V170 9999 FEW030 SCT100 04/M01 Q1018 NOSIG,LTBJ,2015-02-22T06:50:00Z,38.28,27.15,4.0,-1.0,140,4,,6.21,30.059055,,,,,,TRUE,,,,,FEW,3000,SCT,10000,,,,,VFR,,,,,,,,,,,,METAR,120.0
LTBA 220650Z 12007KT CAVOK 07/00 Q1018 NOSIG,LTBA,2015-02-22T06:50:00Z,40.97,28.82,7.0,0.0,120,7,,6.21,30.059055,,,,,,TRUE,,,,,CAVOK,,,,,,,,VFR,,,,,,,,,,,,METAR,37.0
LTAZ 220650Z VRB01KT CAVOK M07/M10 Q1023,LTAZ,2015-02-22T06:50:00Z,38.77,34.55,-7.0,-10.0,0,1,,6.21,30.206694,,,,,,,,,,,CAVOK,,,,,,,,VFR,,,,,,,,,,,,METAR,945.0
LTAJ 220650Z 00000KT CAVOK 02/M05 Q1021 NOSIG,LTAJ,2015-02-22T06:50:00Z,36.95,37.48,2.0,-5.0,0,0,,6.21,30.147638,,,,,,TRUE,,,,,CAVOK,,,,,,,,VFR,,,,,,,,,,,,METAR,855.0
LTAI 220650Z 33005KT 9999 FEW030 BKN100 08/M03 Q1022 NOSIG,LTAI,2015-02-22T06:50:00Z,36.9,30.8,8.0,-3.0,330,5,,6.21,30.177166,,,,,,TRUE,,,,,FEW,3000,BKN,10000,,,,,VFR,,,,,,,,,,,,METAR,54.0
LTAF 220650Z 03005KT 340V060 9999 FEW040 09/M05 Q1023 NOSIG,LTAF,2015-02-22T06:50:00Z,36.97,35.28,9.0,-5.0,30,5,,6.21,30.206694,,,,,,TRUE,,,,,FEW,4000,,,,,,,VFR,,,,,,,,,,,,METAR,20.0
LTAC 220650Z VRB02KT CAVOK M05/M08 Q1022 NOSIG,LTAC,2015-02-22T06:50:00Z,40.12,32.97,-5.0,-8.0,0,2,,6.21,30.177166,,,,,,TRUE,,,,,CAVOK,,,,,,,,VFR,,,,,,,,,,,,METAR,949.0
LTCJ 220650Z 34004KT 310V020 0400 R02/0450N R20////// FG VV002 00/00 Q1021,LTCJ,2015-02-22T06:50:00Z,37.93,41.12,0.0,0.0,340,4,,0.25,30.147638,,,,,,,,,,FG,OVX,0,,,,,,,LIFR,,,,,,,,,,,200,METAR,540.0
LTCE 220650Z 00000KT 4000 BR NSC M14/M15 Q1021 NOSIG,LTCE,2015-02-22T06:50:00Z,39.95,41.17,-14.0,-15.0,0,0,,2.49,30.147638,,,,,,TRUE,,,,BR,,,,,,,,,,,,,,,,,,,,,METAR,1758.0
LTCC 220650Z 31009KT CAVOK 06/M03 Q1020 NOSIG,LTCC,2015-02-22T06:50:00Z,37.87,40.2,6.0,-3.0,310,9,,6.21,30.11811,,,,,,TRUE,,,,,CAVOK,,,,,,,,VFR,,,,,,,,,,,,METAR,677.0
LTBU 220650Z 13006KT 6000 NSC 05/02 Q1017,LTBU,2015-02-22T06:50:00Z,41.12,27.92,5.0,2.0,130,6,,3.73,30.029528,,,,,,,,,,,,,,,,,,,,,,,,,,,,,,,METAR,173.0
LTBQ 220650Z 00000KT CAVOK 03/M01 Q1019 NOSIG,LTBQ,2015-02-22T06:50:00Z,40.72,30.07,3.0,-1.0,0,0,,6.21,30.088583,,,,,,TRUE,,,,,CAVOK,,,,,,,,VFR,,,,,,,,,,,,METAR,50.0
LTBF 220650Z 00000KT 1600 BR NSC 00/M01 Q1019 NOSIG,LTBF,2015-02-22T06:50:00Z,39.62,27.92,0.0,-1.0,0,0,,0.99,30.088583,,,,,,TRUE,,,,BR,,,,,,,,,,,,,,,,,,,,,METAR,102.0
LTAU 220650Z 02004KT CAVOK M08/M12 Q1023 NOSIG,LTAU,2015-02-22T06:50:00Z,38.77,35.47,-8.0,-12.0,20,4,,6.21,30.206694,,,,,,TRUE,,,,,CAVOK,,,,,,,,VFR,,,,,,,,,,,,METAR,1054.0
LTAT 220650Z 09003KT 040V120 CAVOK 01/M06 Q1022 NOSIG,LTAT,2015-02-22T06:50:00Z,38.42,38.07,1.0,-6.0,90,3,,6.21,30.177166,,,,,,TRUE,,,,,CAVOK,,,,,,,,VFR,,,,,,,,,,,,METAR,849.0
LTAP 220650Z VRB02KT 9999 FEW040 M02/M05 Q1023 NOSIG,LTAP,2015-02-22T06:50:00Z,40.83,35.52,-2.0,-5.0,0,2,,6.21,30.206694,,,,,,TRUE,,,,,FEW,4000,,,,,,,VFR,,,,,,,,,,,,METAR,535.0
LTCG 220650Z 09005KT 060V120 CAVOK 06/M01 Q1025 NOSIG,LTCG,2015-02-22T06:50:00Z,41.0,39.8,6.0,-1.0,90,5,,6.21,30.265747,,,,,,TRUE,,,,,CAVOK,,,,,,,,VFR,,,,,,,,,,,,METAR,30.0
LTBS 220650Z 07006KT 9999 FEW030 BKN120 08/04 Q1021 NOSIG,LTBS,2015-02-22T06:50:00Z,36.7,28.77,8.0,4.0,70,6,,6.21,30.147638,,,,,,TRUE,,,,,FEW,3000,BKN,12000,,,,,VFR,,,,,,,,,,,,METAR,2.0
LTBR 220650Z 09016KT CAVOK 03/M05 Q1020 NOSIG,LTBR,2015-02-22T06:50:00Z,40.25,29.57,3.0,-5.0,90,16,,6.21,30.11811,,,,,,TRUE,,,,,CAVOK,,,,,,,,VFR,,,,,,,,,,,,METAR,232.0
LTFE 220650Z 00000KT 9999 FEW035 BKN200 06/04 Q1019 BECMG TL0800 14012KT,LTFE,2015-02-22T06:50:00Z,37.25,27.67,6.0,4.0,0,0,,6.21,30.088583,,,,,,,,,,,FEW,3500,BKN,20000,,,,,VFR,,,,,,,,,,,,METAR,6.0
LTFC 220650Z VRB02KT CAVOK M00/M05 Q1021,LTFC,2015-02-22T06:50:00Z,37.87,30.38,0.0,-5.0,0,2,,6.21,30.147638,,,,,,,,,,,CAVOK,,,,,,,,VFR,,,,,,,,,,,,METAR,864.0
LTCS 220650Z 33003KT CAVOK 05/M03 Q1021,LTCS,2015-02-22T06:50:00Z,37.45,38.9,5.0,-3.0,330,3,,6.21,30.147638,,,,,,,,,,,CAVOK,,,,,,,,VFR,,,,,,,,,,,,METAR,825.0
LTFJ 220650Z 17004KT 120V220 CAVOK 08/M04 Q1018 NOSIG,LTFJ,2015-02-22T06:50:00Z,40.9,29.3,8.0,-4.0,170,4,,6.21,30.059055,,,,,,TRUE,,,,,CAVOK,,,,,,,,VFR,,,,,,,,,,,,METAR,98.0
LTCL 220650Z 14001KT CAVOK 04/00 Q1021,LTCL,2015-02-22T06:50:00Z,37.98,41.83,4.0,0.0,140,1,,6.21,30.147638,,,,,,,,,,,CAVOK,,,,,,,,VFR,,,,,,,,,,,,METAR,610.0
LTCK 220650Z 14003KT 120V180 9999 FEW040 M03/M08 Q1021,LTCK,2015-02-22T06:50:00Z,38.75,41.67,-3.0,-8.0,140,3,,6.21,30.147638,,,,,,,,,,,FEW,4000,,,,,,,VFR,,,,,,,,,,,,METAR,1266.0
LTBO 220650Z VRB01KT CAVOK 00/M10 Q1019,LTBO,2015-02-22T06:50:00Z,38.67,29.47,0.0,-10.0,0,1,,6.21,30.088583,,,,,,,,,,,CAVOK,,,,,,,,VFR,,,,,,,,,,,,METAR,919.0
LTBH 220650Z 07004KT CAVOK 05/02 Q1017,LTBH,2015-02-22T06:50:00Z,40.13,26.42,5.0,2.0,70,4,,6.21,30.029528,,,,,,,,,,,CAVOK,,,,,,,,VFR,,,,,,,,,,,,METAR,3.0
LTCM 220650Z 14008KT CAVOK 06/M05 Q1020 R23/0/////,LTCM,2015-02-22T06:50:00Z,42.02,35.07,6.0,-5.0,140,8,,6.21,30.11811,,,,,,,,,,,CAVOK,,,,,,,,VFR,,,,,,,,,,,,METAR,8.0
LTCO 220650Z VRB02KT 6000 NSC M12/M14 Q1020,LTCO,2015-02-22T06:50:00Z,39.65,43.03,-12.0,-14.0,0,2,,3.73,30.11811,,,,,,,,,,,,,,,,,,,,,,,,,,,,,,,METAR,1665.0
LTCN 220650Z 16004KT 120V200 CAVOK 03/M03 Q1022,LTCN,2015-02-22T06:50:00Z,37.53,36.95,3.0,-3.0,160,4,,6.21,30.177166,,,,,,,,,,,CAVOK,,,,,,,,VFR,,,,,,,,,,,,METAR,526.0
LTCR 220650Z 35006KT 300V030 CAVOK 09/M02 Q1020,LTCR,2015-02-22T06:50:00Z,37.22,40.63,9.0,-2.0,350,6,,6.21,30.11811,,,,,,,,,,,CAVOK,,,,,,,,VFR,,,,,,,,,,,,METAR,527.0
LTCP 220650Z 22004KT CAVOK 05/M03 Q1021,LTCP,2015-02-22T06:50:00Z,37.73,38.47,5.0,-3.0,220,4,,6.21,30.147638,,,,,,,,,,,CAVOK,,,,,,,,VFR,,,,,,,,,,,,METAR,676.0
LTCT 220650Z 25008KT CAVOK 04/M06 Q1021,LTCT,2015-02-22T06:50:00Z,39.98,43.87,4.0,-6.0,250,8,,6.21,30.147638,,,,,,,,,,,CAVOK,,,,,,,,VFR,,,,,,,,,,,,METAR,946.0
LTFG 220650Z 14004KT 110V200 9999 FEW035 BKN200 12/04 Q1022,LTFG,2015-02-22T06:50:00Z,36.3,32.3,12.0,4.0,140,4,,6.21,30.177166,,,,,,,,,,,FEW,3500,BKN,20000,,,,,VFR,,,,,,,,,,,,METAR,95.0
LTFD 220650Z 11003KT 080V140 CAVOK 05/M00 Q1018,LTFD,2015-02-22T06:50:00Z,39.55,27.02,5.0,0.0,110,3,,6.21,30.059055,,,,,,,,,,,CAVOK,,,,,,,,VFR,,,,,,,,,,,,METAR,16.0
LTCU 220650Z VRB02KT CAVOK 00/M09 Q1022,LTCU,2015-02-22T06:50:00Z,38.87,40.58,0.0,-9.0,0,2,,6.21,30.177166,,,,,,,,,,,CAVOK,,,,,,,,VFR,,,,,,,,,,,,METAR,1061.0
LCEN 220650Z 27004KT 230V290 9999 FEW025 BKN180 10/02 Q1022 NOSIG,LCEN,2015-02-22T06:50:00Z,35.13,33.5,10.0,2.0,270,4,,6.21,30.177166,,,,,,TRUE,,,,,FEW,2500,BKN,18000,,,,,VFR,,,,,,,,,,,,METAR,91.0
OOMS 220650Z 33015KT 280V350 5000 DU SCT025 25/17 Q1014 NOSIG,OOMS,2015-02-22T06:50:00Z,23.57,58.27,25.0,17.0,330,15,,3.11,29.940945,,,,,,TRUE,,,,DU,SCT,2500,,,,,,,MVFR,,,,,,,,,,,,METAR,8.0
KUNI 220650Z AUTO 33004KT 7SM OVC003 00/00 A3010 RMK AO2 T00011002,KUNI,2015-02-22T06:50:00Z,39.22,-82.23,0.1,-0.2,330,4,,7.0,30.100393,,,TRUE,TRUE,,,,,,,OVC,300,,,,,,,LIFR,,,,,,,,,,,,METAR,193.0
KMRJ 220650Z AUTO 31005KT 10SM OVC030 M08/M14 A3023 RMK AO2,KMRJ,2015-02-22T06:50:00Z,42.88,-90.23,-8.0,-14.0,310,5,,10.0,30.230314,,,TRUE,TRUE,,,,,,,OVC,3000,,,,,,,MVFR,,,,,,,,,,,,METAR,359.0
KETB 220650Z AUTO 28005KT 10SM OVC037 M08/M13 A3017 RMK AO2,KETB,2015-02-22T06:50:00Z,43.42,-88.13,-8.0,-13.0,280,5,,10.0,30.171259,,,TRUE,TRUE,,,,,,,OVC,3700,,,,,,,VFR,,,,,,,,,,,,METAR,270.0
KEGV 220650Z AUTO 31003KT 10SM CLR M19/M22 A3014 RMK AO2 T11941223,KEGV,2015-02-22T06:50:00Z,45.93,-89.27,-19.4,-22.3,310,3,,10.0,30.138779,,,TRUE,TRUE,,,,,,,CLR,,,,,,,,VFR,,,,,,,,,,,,METAR,500.0
KDLL 220650Z AUTO 31003KT 10SM CLR M11/M16 A3023 RMK AO2 T11111160,KDLL,2015-02-22T06:50:00Z,43.52,-89.77,-11.1,-16.0,310,3,,10.0,30.230314,,,TRUE,TRUE,,,,,,,CLR,,,,,,,,VFR,,,,,,,,,,,,METAR,299.0
KDKR 220650Z AUTO 04005KT 10SM OVC025 15/12 A3004 RMK AO2,KDKR,2015-02-22T06:50:00Z,31.3,-95.4,15.0,12.0,40,5,,10.0,30.041338,,,TRUE,TRUE,,,,,,,OVC,2500,,,,,,,MVFR,,,,,,,,,,,,METAR,106.0
KO86 220650Z AUTO 04003KT 10SM CLR 05/M04 A3005 RMK AO1,KO86,2015-02-22T06:50:00Z,40.98,-122.7,5.0,-4.0,40,3,,10.0,30.050198,,,TRUE,TRUE,,,,,,,CLR,,,,,,,,VFR,,,,,,,,,,,,METAR,729.0
K6I2 220650Z AUTO 00000KT 2 1/2SM BR OVC002 00/00 A3014 RMK AO2,K6I2,2015-02-22T06:50:00Z,37.63,-85.25,0.0,0.0,0,0,,2.5,30.138779,,,TRUE,TRUE,,,,,,BR,OVC,200,,,,,,,LIFR,,,,,,,,,,,,METAR,264.0
ENVH 220650Z AUTO 27010KT 9999NDV FEW035/// BKN043/// 05/M02 Q1001 W///S4,ENVH,2015-02-22T06:50:00Z,56.27,3.38,5.0,-2.0,270,10,,,29.557087,,,TRUE,,,,,,,,,,,,,,,,,,,,,,,,,,,,METAR,4.0
ENHM 220650Z 28025KT 9999 BKN040 03/M07 Q0996 W07/S6,ENHM,2015-02-22T06:50:00Z,59.57,2.23,3.0,-7.0,280,25,,6.21,29.409449,,,,,,,,,,,BKN,4000,,,,,,,VFR,,,,,,,,,,,,METAR,10.0
ENQA 220650Z AUTO 26015KT 9999NDV -SHRA BKN016/// 01/00 Q0994 W03/S6,ENQA,2015-02-22T06:50:00Z,60.65,3.72,1.0,0.0,260,15,,,29.350393,,,TRUE,,,,,,,-SHRA,,,,,,,,,,,,,,,,,,,,,METAR,20.0
ENQC 220650Z AUTO 29013KT 9999NDV FEW009/// SCT016/// 02/M01 Q0993 W///S6,ENQC,2015-02-22T06:50:00Z,60.88,3.62,2.0,-1.0,290,13,,,29.320866,,,TRUE,,,,,,,,,,,,,,,,,,,,,,,,,,,,METAR,20.0
ENSE 220650Z AUTO 02016KT 9999NDV FEW021/// BKN046/// 02/01 Q0993 W///S6,ENSE,2015-02-22T06:50:00Z,61.45,2.15,2.0,1.0,20,16,,,29.320866,,,TRUE,,,,,,,,,,,,,,,,,,,,,,,,,,,,METAR,10.0
ENQR 220650Z AUTO 02018KT 9999NDV FEW021/// 02/M02 Q0993 W///S6,ENQR,2015-02-22T06:50:00Z,61.35,2.22,2.0,-2.0,20,18,,,29.320866,,,TRUE,,,,,,,,,,,,,,,,,,,,,,,,,,,,METAR,10.0
ENNE 220650Z 34015KT 300V360 9999 FEW015 SCT030 02/M04 Q0987 W///S7,ENNE,2015-02-22T06:50:00Z,66.03,8.08,2.0,-4.0,340,15,,6.21,29.143702,,,,,,,,,,,FEW,1500,SCT,3000,,,,,VFR,,,,,,,,,,,,METAR,10.0
ENHF 220650Z AUTO VRB01KT 9999NDV BKN078/// M03/M06 Q0978 RMK WIND 1254FT 20015KT,ENHF,2015-02-22T06:50:00Z,70.67,23.67,-3.0,-6.0,0,1,,,28.877953,,,TRUE,,,,,,,,,,,,,,,,,,,1.5,,,,,,,,,METAR,81.0
ENBN 220650Z AUTO 04004KT 310V100 //// R04///// R22///// // ///////// M00/M01 Q0986,ENBN,2015-02-22T06:50:00Z,65.47,12.22,0.0,-1.0,40,4,,,29.114174,,,TRUE,,,,,,,,,,,,,,,,,,,,,,,,,,,,METAR,9.0
EEEI 220650Z 18017G27KT 9999 -RASN BKN012 OVC019 02/00 Q0990 R24/190095 NOSIG,EEEI,2015-02-22T06:50:00Z,59.27,24.2,2.0,0.0,180,17,27,6.21,29.232283,,,,,,TRUE,,,,-RA -SN,BKN,1200,OVC,1900,,,,,MVFR,,,,,,,,,,,,METAR,20.0
EDFM 220650Z VRB01KT 9999 SCT031 BKN38 00/M00 Q1009,EDFM,2015-02-22T06:50:00Z,49.47,8.52,0.0,0.0,0,1,,6.21,29.793306,,,,,,,,,,,SCT,3100,,,,,,,VFR,,,,,,,,,,,,METAR,100.0
EGXW 220650Z 22009KT CAVOK 00/M02 Q1005 BLU NOSIG,EGXW,2015-02-22T06:50:00Z,53.18,-0.52,0.0,-2.0,220,9,,6.21,29.675198,,,,,,TRUE,,,,,CAVOK,,,,,,,,VFR,,,,,,,,,,,,METAR,70.0
EGDR 220650Z 20011KT 9999 HZ FEW014 BKN040 OVC080 07/03 Q1007 BLU,EGDR,2015-02-22T06:50:00Z,50.08,-5.25,7.0,3.0,200,11,,6.21,29.734253,,,,,,,,,,HZ,FEW,1400,BKN,4000,OVC,8000,,,VFR,,,,,,,,,,,,METAR,82.0
EGXV 220650Z AUTO 21009KT 9999 BKN022/// 01/00 Q1004,EGXV,2015-02-22T06:50:00Z,53.87,-0.45,1.0,0.0,210,9,,6.21,29.64567,,,TRUE,,,,,,,,,,,,,,,,,,,,,,,,,,,,METAR,6.0
EGXE 220650Z 16008KT 9999 BKN030 01/M01 Q1003 BLU NOSIG,EGXE,2015-02-22T06:50:00Z,54.28,-1.52,1.0,-1.0,160,8,,6.21,29.616142,,,,,,TRUE,,,,,BKN,3000,,,,,,,MVFR,,,,,,,,,,,,METAR,40.0
EGXC 220650Z 20005KT CAVOK M02/M03 Q1006 BLU,EGXC,2015-02-22T06:50:00Z,53.1,-0.17,-2.0,-3.0,200,5,,6.21,29.704725,,,,,,,,,,,CAVOK,,,,,,,,VFR,,,,,,,,,,,,METAR,7.0
EGWU 220650Z 17003KT 9999 FEW008 M03/M04 Q1009 BLU NOSIG,EGWU,2015-02-22T06:50:00Z,51.55,-0.42,-3.0,-4.0,170,3,,6.21,29.793306,,,,,,TRUE,,,,,FEW,800,,,,,,,VFR,,,,,,,,,,,,METAR,40.0
EGVO 220650Z 22007KT CAVOK M01/M03 Q1008 BLU,EGVO,2015-02-22T06:50:00Z,51.23,-0.95,-1.0,-3.0,220,7,,6.21,29.763779,,,,,,,,,,,CAVOK,,,,,,,,VFR,,,,,,,,,,,,METAR,123.0
EGVN 220650Z 25002KT 9999 MIFG SCT250 M02/M02 Q1008 BLU NOSIG,EGVN,2015-02-22T06:50:00Z,51.77,-1.58,-2.0,-2.0,250,2,,6.21,29.763779,,,,,,TRUE,,,,MIFG,SCT,25000,,,,,,,VFR,,,,,,,,,,,,METAR,88.0
EGQS 220650Z 16005KT 9999 FEW030 BKN046 01/M02 Q0996 BLU,EGQS,2015-02-22T06:50:00Z,57.72,-3.32,1.0,-2.0,160,5,,6.21,29.409449,,,,,,,,,,,FEW,3000,BKN,4600,,,,,VFR,,,,,,,,,,,,METAR,13.0
EGQM 220650Z AUTO 18006KT 9999 BKN031/// 01/01 Q1001 RERA,EGQM,2015-02-22T06:50:00Z,55.42,-1.6,1.0,1.0,180,6,,6.21,29.557087,,,TRUE,,,,,,,,,,,,,,,,,,,,,,,,,,,,METAR,23.0
EGQL 220650Z 23002KT 9999 OVC037 M01/M01 Q0999 BLU,EGQL,2015-02-22T06:50:00Z,56.38,-2.87,-1.0,-1.0,230,2,,6.21,29.498032,,,,,,,,,,,OVC,3700,,,,,,,VFR,,,,,,,,,,,,METAR,12.0
CYHZ 220649Z CCA 16015G24KT 1 1/2SM -SHSN OVC003 M01/M02 A3030 RMK SN2SF6 SLP269,CYHZ,2015-02-22T06:49:00Z,44.87,-63.5,-1.0,-2.0,160,15,24,1.5,30.301182,1026.9,,,,,,,,,-SHSN,OVC,300,,,,,,,LIFR,,,,,,,,,,,,METAR,145.0
CZPC 220649Z AUTO 29004KT 270V350 9SM BKN038 M15/M16 A3046 RMK SLP402,CZPC,2015-02-22T06:49:00Z,49.52,-114.0,-15.0,-16.0,290,4,,9.0,30.46063,1040.2,,TRUE,,,,,,,,BKN,3800,,,,,,,VFR,,,,,,,,,,,,SPECI,1190.0
ETNN 220649Z 22001KT 0800 FZFG FEW012 M00/M01 Q1009 AMB,ETNN,2015-02-22T06:49:00Z,50.82,6.67,0.0,-1.0,220,1,,0.5,29.793306,,,,,,,,,,FZFG,FEW,1200,,,,,,,LIFR,,,,,,,,,,,,SPECI,135.0
KCDD 220649Z AUTO 33003KT 10SM CLR M25/M27 A3036 RMK AO2,KCDD,2015-02-22T06:49:00Z,48.27,-92.48,-25.0,-27.0,330,3,,10.0,30.360237,,,TRUE,TRUE,,,,,,,CLR,,,,,,,,VFR,,,,,,,,,,,,METAR,341.0
KMIB 220648Z AUTO 32012KT 4SM R29/5500FT HZ CLR M27/M30 A3059 RMK AO2,KMIB,2015-02-22T06:48:00Z,48.42,-101.33,-27.0,-30.0,320,12,,4.0,30.590551,,,TRUE,TRUE,,,,,,HZ,CLR,,,,,,,,MVFR,,,,,,,,,,,,SPECI,508.0
MMQT 220648Z 09008KT 8SM SKC 15/04 A3024,MMQT,2015-02-22T06:48:00Z,20.62,-100.18,15.0,4.0,90,8,,8.0,30.239174,,,,,,,,,,,SKC,,,,,,,,VFR,,,,,,,,,,,,METAR,1813.0
KMWN 220648Z 27045KT 0SM -SN FZFG BLSN VV000 M15/M15 RMK VRY LGT ICG,KMWN,2015-02-22T06:48:00Z,44.27,-71.3,-15.0,-15.0,270,45,,0.0,,,,,,,,,,,-SN FZFG BLSN,OVX,0,,,,,,,LIFR,,,,,,,,,,,0,METAR,1910.0
MMMY 220648Z 12004KT 15SM SKC 18/11 A2989,MMMY,2015-02-22T06:48:00Z,25.77,-100.08,18.0,11.0,120,4,,15.0,29.890747,,,,,,,,,,,SKC,,,,,,,,VFR,,,,,,,,,,,,METAR,387.0
KJDN 220648Z AUTO 34009KT M16/M21 A3057 RMK AO1 SLP413 T11611206 410391161,KJDN,2015-02-22T06:48:00Z,47.33,-106.95,-16.1,-20.6,340,9,,,30.569881,1041.3,,TRUE,TRUE,,,,,,,,,,,,,,,,,,,-3.9,-16.1,,,,,,,METAR,801.0
KHZX 220648Z AUTO 30007KT 10SM CLR M22/M25 A3035 RMK AO2,KHZX,2015-02-22T06:48:00Z,46.62,-93.32,-22.0,-25.0,300,7,,10.0,30.351377,,,TRUE,TRUE,,,,,,,CLR,,,,,,,,VFR,,,,,,,,,,,,METAR,374.0
MMMM 220648Z 23002KT 7SM SKC 13/09 A3019,MMMM,2015-02-22T06:48:00Z,19.85,-101.02,13.0,9.0,230,2,,7.0,30.188976,,,,,,,,,,,SKC,,,,,,,,VFR,,,,,,,,,,,,METAR,1833.0
KIWA 220647Z 12005KT 20SM BKN250 14/06 A2983 RMK LAST,KIWA,2015-02-22T06:47:00Z,33.3,-111.65,14.0,6.0,120,5,,20.0,29.828741,,,,,,,,,,,BKN,25000,,,,,,,VFR,,,,,,,,,,,,METAR,412.0
KCQT 220647Z AUTO 00000KT 10SM FEW020 SCT028 OVC045 16/11 A2991 RMK AO2 SLP127 T01560106,KCQT,2015-02-22T06:47:00Z,34.02,-118.28,15.6,10.6,0,0,,10.0,29.911417,1012.7,,TRUE,TRUE,,,,,,,FEW,2000,SCT,2800,OVC,4500,,,VFR,,,,,,,,,,,,METAR,56.0
MMLO 220647Z 22004KT 8SM SKC 14/03 A3024,MMLO,2015-02-22T06:47:00Z,21.0,-101.47,14.0,3.0,220,4,,8.0,30.239174,,,,,,,,,,,SKC,,,,,,,,VFR,,,,,,,,,,,,METAR,1819.0
MMMX 220646Z 24005KT 7SM SKC 17/06 A3029 NOSIG RMK HZY,MMMX,2015-02-22T06:46:00Z,19.42,-99.08,17.0,6.0,240,5,,7.0,30.28937,,,,,,TRUE,,,,,SKC,,,,,,,,VFR,,,,,,,,,,,,METAR,2238.0
KPCW 220646Z AUTO 00000KT 10SM FEW039 M15/M18 A3014 RMK AO2 T11501183,KPCW,2015-02-22T06:46:00Z,41.52,-82.87,-15.0,-18.3,0,0,,10.0,30.138779,,,TRUE,TRUE,,,,,,,FEW,3900,,,,,,,VFR,,,,,,,,,,,,METAR,178.0
KMWS 220645Z 23007G09KT 04/04 RMK SNOW DEPTH M,KMWS,2015-02-22T06:45:00Z,34.23,-118.05,4.0,4.0,230,7,9,,,,,,,,,,,,,,,,,,,,,,,,,,,,,,,,,METAR,1739.0
MMPB 220645Z 32005KT 7SM SCT200 12/07 A3030 RMK 8/006 HZY,MMPB,2015-02-22T06:45:00Z,19.17,-98.37,12.0,7.0,320,5,,7.0,30.301182,,,,,,,,,,,SCT,20000,,,,,,,VFR,,,,,,,,,,,,METAR,2244.0
MMAA 220645Z 00000KT 8SM SKC 24/21 A2989 RMK HZY,MMAA,2015-02-22T06:45:00Z,16.75,-99.75,24.0,21.0,0,0,,8.0,29.890747,,,,,,,,,,,SKC,,,,,,,,VFR,,,,,,,,,,,,METAR,5.0
LHSN 220645Z 08006KT CAVOK 02/M02 Q1008 NOSIG RMK BLU,LHSN,2015-02-22T06:45:00Z,47.12,20.23,2.0,-2.0,80,6,,6.21,29.763779,,,,,,TRUE,,,,,CAVOK,,,,,,,,VFR,,,,,,,,,,,,METAR,98.0
LHKE 220645Z 08006KT 8000 NSC 04/00 Q1008 NOSIG RMK BLU,LHKE,2015-02-22T06:45:00Z,46.92,19.75,4.0,0.0,80,6,,4.97,29.763779,,,,,,TRUE,,,,,,,,,,,,,,,,,,,,,,,,,METAR,115.0
LMML 220645Z 20014KT 170V230 6000 FEW040 15/12 Q0998 NOSIG,LMML,2015-02-22T06:45:00Z,35.85,14.47,15.0,12.0,200,14,,3.73,29.468504,,,,,,TRUE,,,,,FEW,4000,,,,,,,MVFR,,,,,,,,,,,,METAR,91.0
KSWF 220645Z VRB03KT 1 1/2SM -SN OVC003 M04/M05 A3013,KSWF,2015-02-22T06:45:00Z,41.5,-74.08,-4.0,-5.0,0,3,,1.5,30.129921,,,,,,,,,,-SN,OVC,300,,,,,,,LIFR,,,,,,,,,,,,METAR,150.0
CMGB 220645Z AUTO 22001KT M08/M09 RMK AO1 SOG 41 0001 SLP194 T10761093,CMGB,2015-02-22T06:45:00Z,45.37,-72.77,-7.6,-9.3,220,1,,,,1019.4,,TRUE,TRUE,,,,,,,,,,,,,,,,,,,,,,,,,,,METAR,86.0
KCFE 220645Z AUTO 31008G15KT 10SM CLR M20/M25 A3043 RMK AO2,KCFE,2015-02-22T06:45:00Z,45.17,-93.85,-20.0,-25.0,310,8,15,10.0,30.431103,,,TRUE,TRUE,,,,,,,CLR,,,,,,,,VFR,,,,,,,,,,,,METAR,295.0
ETNH 220645Z 21008KT 5000 BR FEW004 01/01 Q1004 WHT,ETNH,2015-02-22T06:45:00Z,54.32,9.55,1.0,1.0,210,8,,3.11,29.64567,,,,,,,,,,BR,FEW,400,,,,,,,MVFR,,,,,,,,,,,,SPECI,17.0
LIRP 220645Z 09007KT 9999 SCT025 BKN040 09/07 Q0995 NOSIG,LIRP,2015-02-22T06:45:00Z,43.67,10.37,9.0,7.0,90,7,,6.21,29.379921,,,,,,TRUE,,,,,SCT,2500,BKN,4000,,,,,VFR,,,,,,,,,,,,METAR,2.0
LIRA 220645Z 12001KT 8000 -RA SCT018 BKN025 09/09 Q0994,LIRA,2015-02-22T06:45:00Z,41.8,12.58,9.0,9.0,120,1,,4.97,29.350393,,,,,,,,,,-RA,SCT,1800,BKN,2500,,,,,MVFR,,,,,,,,,,,,METAR,101.0
LIBR 220645Z 14025G36KT 7000 -RA SCT010 BKN020 11/10 Q1003 NOSIG,LIBR,2015-02-22T06:45:00Z,40.65,17.95,11.0,10.0,140,25,36,4.35,29.616142,,,,,,TRUE,,,,-RA,SCT,1000,BKN,2000,,,,,MVFR,,,,,,,,,,,,METAR,10.0
LIPR 220645Z 00000KT 5000 -RA BR BKN050 SCT070 06/06 Q0997,LIPR,2015-02-22T06:45:00Z,44.02,12.62,6.0,6.0,0,0,,3.11,29.438976,,,,,,,,,,-RA BR,BKN,5000,SCT,7000,,,,,MVFR,,,,,,,,,,,,METAR,13.0
LIPH 220645Z /////KT 3000 -RA BR SCT010 BKN020 07/06 Q1001,LIPH,2015-02-22T06:45:00Z,45.63,12.17,7.0,6.0,,,,1.86,29.557087,,,,,,,,,,-RA BR,SCT,1000,BKN,2000,,,,,IFR,,,,,,,,,,,,METAR,23.0
MMGL 220645Z 00000KT 10SM SKC 15/06 A3015,MMGL,2015-02-22T06:45:00Z,20.52,-103.32,15.0,6.0,0,0,,10.0,30.15059,,,,,,,,,,,SKC,,,,,,,,VFR,,,,,,,,,,,,METAR,1528.0
LIPX 220645Z 03008KT 6000 -RA OVC030 06/04 Q1000,LIPX,2015-02-22T06:45:00Z,45.38,10.87,6.0,4.0,30,8,,3.73,29.52756,,,,,,,,,,-RA,OVC,3000,,,,,,,MVFR,,,,,,,,,,,,METAR,68.0
FAKM 220645Z 09005KT CAVOK 16/12 Q1022,FAKM,2015-02-22T06:45:00Z,-28.8,24.77,16.0,12.0,90,5,,6.21,30.177166,,,,,,,,,,,CAVOK,,,,,,,,VFR,,,,,,,,,,,,SPECI,1192.0
YBHM 220645Z AUTO 18017G27KT 9999 // SCT008 BKN023 OVC092 28/26 Q1007,YBHM,2015-02-22T06:45:00Z,-20.35,148.95,28.0,26.0,180,17,27,6.21,29.734253,,,TRUE,,,,,,,,SCT,800,BKN,2300,OVC,9200,,,MVFR,,,,,,,,,,,,SPECI,5.0
LHPP 220645Z 08008KT CAVOK 04/M00 Q1005,LHPP,2015-02-22T06:45:00Z,45.98,18.23,4.0,0.0,80,8,,6.21,29.675198,,,,,,,,,,,CAVOK,,,,,,,,VFR,,,,,,,,,,,,METAR,305.0
LHPA 220645Z 01001MPS CAVOK 04/01 Q1006 NOSIG RMK BLU,LHPA,2015-02-22T06:45:00Z,47.35,17.5,4.0,1.0,10,2,,6.21,29.704725,,,,,,TRUE,,,,,CAVOK,,,,,,,,VFR,,,,,,,,,,,,METAR,148.0
LHDC 220645Z 04005KT 9000 SCT083 OVC200 02/M03 Q1010,LHDC,2015-02-22T06:45:00Z,47.47,21.62,2.0,-3.0,40,5,,5.59,29.822834,,,,,,,,,,,SCT,8300,OVC,20000,,,,,VFR,,,,,,,,,,,,METAR,112.0
LHBC 220645Z 13006KT CAVOK 05/M01 Q1009,LHBC,2015-02-22T06:45:00Z,46.68,21.17,5.0,-1.0,130,6,,6.21,29.793306,,,,,,,,,,,CAVOK,,,,,,,,VFR,,,,,,,,,,,,METAR,86.0
LHUD 220645Z 13009KT 8000 FEW060 BKN083 06/02 Q1007,LHUD,2015-02-22T06:45:00Z,46.25,20.1,6.0,2.0,130,9,,4.97,29.734253,,,,,,,,,,,FEW,6000,BKN,8300,,,,,MVFR,,,,,,,,,,,,METAR,84.0
LHSM 220645Z 07008KT CAVOK 04/M01 Q1005,LHSM,2015-02-22T06:45:00Z,46.68,17.17,4.0,-1.0,70,8,,6.21,29.675198,,,,,,,,,,,CAVOK,,,,,,,,VFR,,,,,,,,,,,,METAR,125.0
LHPR 220645Z 11006KT CAVOK 04/M00 Q1007,LHPR,2015-02-22T06:45:00Z,47.63,17.82,4.0,0.0,110,6,,6.21,29.734253,,,,,,,,,,,CAVOK,,,,,,,,VFR,,,,,,,,,,,,METAR,129.0
CYGV 220645Z AUTO 08007KT 6SM -SN OVC027 M15/M16 A3024 RMK SLP244,CYGV,2015-02-22T06:45:00Z,50.27,-63.62,-15.0,-16.0,80,7,,6.0,30.239174,1024.4,,TRUE,,,,,,,-SN,OVC,2700,,,,,,,MVFR,,,,,,,,,,,,SPECI,33.0
CYZR 220645Z AUTO 20005KT 2 1/2SM BR BKN043 OVC095 M11/M12 A3011 RMK SLP208,CYZR,2015-02-22T06:45:00Z,43.0,-82.3,-11.0,-12.0,200,5,,2.5,30.109253,1020.8,,TRUE,,,,,,,BR,BKN,4300,OVC,9500,,,,,IFR,,,,,,,,,,,,SPECI,181.0
CWPF 220645Z AUTO 36007KT 07/01 RMK AO1 T00710010,CWPF,2015-02-22T06:45:00Z,48.43,-123.43,7.1,1.0,360,7,,,,,,TRUE,TRUE,,,,,,,,,,,,,,,,,,,,,,,,,,,METAR,12.0
KQAZ 220645Z AUTO 03004KT 9999 CLR 24/09 A2991 RMK CDP03565 CLR,KQAZ,2015-02-22T06:45:00Z,100.65,-1000.65,24.0,9.0,30,4,,6.21,29.911417,,,TRUE,,,,,,,,CLR,,,,,,,,VFR,,,,,,,,,,,,METAR,999.0
RKNY 220644Z 26034G47KT CAVOK 09/M03 Q1006 WS ALL RWY NOSIG,RKNY,2015-02-22T06:44:00Z,38.07,128.67,9.0,-3.0,260,34,47,6.21,29.704725,,,,,,TRUE,,,,,CAVOK,,,,,,,,VFR,,,,,,,,,,,,SPECI,74.0
CYPD 220644Z AUTO 14006KT 3SM -SN OVC024 M04/M05 A3041 RMK SLP305,CYPD,2015-02-22T06:44:00Z,45.67,-61.37,-4.0,-5.0,140,6,,3.0,30.410433,1030.5,,TRUE,,,,,,,-SN,OVC,2400,,,,,,,MVFR,,,,,,,,,,,,SPECI,114.0
RJDC 220644Z 29009KT 250V320 3000 -DZ BR FEW003 BKN006 BKN010 12/11 Q1014 RMK 2ST003 5ST006 7ST010 A2996,RJDC,2015-02-22T06:44:00Z,33.92,131.27,12.0,11.0,290,9,,1.86,29.940945,,,,,,,,,,-DZ BR,FEW,300,BKN,600,BKN,1000,,,IFR,,,,,,,,,,,,SPECI,8.0
MMHO 220643Z 15004KT 10SM OVC100 22/14 A2994 RMK 8/07/,MMHO,2015-02-22T06:43:00Z,29.08,-111.05,22.0,14.0,150,4,,10.0,29.940945,,,,,,,,,,,OVC,10000,,,,,,,VFR,,,,,,,,,,,,METAR,184.0
MMUN 220643Z 00000KT 7SM SCT018 19/19 A3003 RMK 8/500,MMUN,2015-02-22T06:43:00Z,21.02,-86.85,19.0,19.0,0,0,,7.0,30.029528,,,,,,,,,,,SCT,1800,,,,,,,VFR,,,,,,,,,,,,METAR,10.0
MMCZ 220643Z 11003KT 7SM SCT015 18/18 A3003 RMK 8/100 RTS,MMCZ,2015-02-22T06:43:00Z,20.52,-86.92,18.0,18.0,110,3,,7.0,30.029528,,,,,,,,,,,SCT,1500,,,,,,,VFR,,,,,,,,,,,,METAR,5.0
CZCP 220643Z AUTO 24005KT 9SM CLR M17/ A3002,CZCP,2015-02-22T06:43:00Z,70.17,-124.72,-17.0,,240,5,,9.0,30.02067,,,TRUE,,,,,,,,CLR,,,,,,,,VFR,,,,,,,,,,,,SPECI,93.0
FASB 220643Z 10013KT CAVOK 19/01 Q1018,FASB,2015-02-22T06:43:00Z,-29.68,17.93,19.0,1.0,100,13,,6.21,30.059055,,,,,,,,,,,CAVOK,,,,,,,,VFR,,,,,,,,,,,,SPECI,813.0
FACV 220643Z 10016KT CAVOK 15/01 Q1021,FACV,2015-02-22T06:43:00Z,-31.5,19.72,15.0,1.0,100,16,,6.21,30.147638,,,,,,,,,,,CAVOK,,,,,,,,VFR,,,,,,,,,,,,SPECI,977.0
MMCV 220642Z 18003KT 8SM SKC 14/14 A2991 RMK HZY,MMCV,2015-02-22T06:42:00Z,23.72,-98.97,14.0,14.0,180,3,,8.0,29.911417,,,,,,,,,,,SKC,,,,,,,,VFR,,,,,,,,,,,,METAR,238.0
CYVO 220642Z AUTO 22004KT 9SM -SN CLR M15/M16 A2996 RMK SLP178,CYVO,2015-02-22T06:42:00Z,48.07,-77.77,-15.0,-16.0,220,4,,9.0,29.958662,1017.8,,TRUE,,,,,,,-SN,CLR,,,,,,,,VFR,,,,,,,,,,,,SPECI,337.0
MMPR 220642Z 00000KT 12SM SKC 20/19 A2995,MMPR,2015-02-22T06:42:00Z,20.67,-105.25,20.0,19.0,0,0,,12.0,29.949802,,,,,,,,,,,SKC,,,,,,,,VFR,,,,,,,,,,,,METAR,6.0
MMTJ 220640Z 22006KT 7SM BKN025 BKN120 15/09 A2997 RMK 8/550 HZY,MMTJ,2015-02-22T06:40:00Z,32.53,-116.97,15.0,9.0,220,6,,7.0,29.970472,,,,,,,,,,,BKN,2500,BKN,12000,,,,,MVFR,,,,,,,,,,,,METAR,152.0
MMTO 220640Z 00000KT 6SM SKC 09/05 A3037 RMK HZY,MMTO,2015-02-22T06:40:00Z,19.35,-99.57,9.0,5.0,0,0,,6.0,30.369095,,,,,,,,,,,SKC,,,,,,,,VFR,,,,,,,,,,,,METAR,2576.0
MMCU 220640Z 00000KT 10SM SCT090 BKN200 12/02 A3003 RMK 8/072,MMCU,2015-02-22T06:40:00Z,28.7,-105.97,12.0,2.0,0,0,,10.0,30.029528,,,,,,,,,,,SCT,9000,BKN,20000,,,,,VFR,,,,,,,,,,,,METAR,1372.0
MMRX 220640Z 14012KT 8SM OVC015 20/17 A2992 RMK 8/5// HZY FU,MMRX,2015-02-22T06:40:00Z,26.02,-98.22,20.0,17.0,140,12,,8.0,29.920275,,,,,,,,,,,OVC,1500,,,,,,,MVFR,,,,,,,,,,,,METAR,39.0
VAAH 220640Z 07005T 5000 FU NSC 35/13 Q1014 NOSIG,VAAH,2015-02-22T06:40:00Z,23.07,72.62,35.0,13.0,,,,3.11,29.940945,,,,,,TRUE,,,,FU,,,,,,,,,,,,,,,,,,,,,METAR,55.0
VABB 220640Z 13008KT 4000 FU NSC 37/10 Q1013 NOSIG,VABB,2015-02-22T06:40:00Z,19.1,72.87,37.0,10.0,130,8,,2.49,29.911417,,,,,,TRUE,,,,FU,,,,,,,,,,,,,,,,,,,,,METAR,8.0
VOHS 220640Z VRB08KT 6000 NSC 32/04 Q1018 NOSIG,VOHS,2015-02-22T06:40:00Z,17.23,78.43,32.0,4.0,0,8,,3.73,30.059055,,,,,,TRUE,,,,,,,,,,,,,,,,,,,,,,,,,METAR,1.0
VANP 220640Z 09004KT 5000 HZ NSC 33/10 Q1016 NOSIG,VANP,2015-02-22T06:40:00Z,21.08,79.05,33.0,10.0,90,4,,3.11,30.0,,,,,,TRUE,,,,HZ,,,,,,,,,,,,,,,,,,,,,METAR,310.0
VOMM 220640Z 09010KT 6000 FEW020 32/16 Q1014 NOSIG,VOMM,2015-02-22T06:40:00Z,13.0,80.17,32.0,16.0,90,10,,3.73,29.940945,,,,,,TRUE,,,,,FEW,2000,,,,,,,MVFR,,,,,,,,,,,,METAR,16.0
VOTR 220640Z 06012KT 6000 FEW018 32/18 Q1014 NOSIG,VOTR,2015-02-22T06:40:00Z,10.77,78.72,32.0,18.0,60,12,,3.73,29.940945,,,,,,TRUE,,,,,FEW,1800,,,,,,,MVFR,,,,,,,,,,,,METAR,88.0
VOTV 220640Z 20004KT 6000 NSC 33/19 Q1011 NOSIG,VOTV,2015-02-22T06:40:00Z,8.47,76.95,33.0,19.0,200,4,,3.73,29.852362,,,,,,TRUE,,,,,,,,,,,,,,,,,,,,,,,,,METAR,8.0
K8S0 220640Z 24003KT ,K8S0,2015-02-22T06:40:00Z,48.6,-113.12,,,240,3,,,,,,,,,,,,,,,,,,,,,,,,,,,,,,,,,,METAR,1419.0
MMTP 220640Z 00000KT 10SM FEW150 25/22 A2989 RMK 8/030,MMTP,2015-02-22T06:40:00Z,14.77,-92.37,25.0,22.0,0,0,,10.0,29.890747,,,,,,,,,,,FEW,15000,,,,,,,VFR,,,,,,,,,,,,METAR,29.0
MMSP 220640Z 00000KT 9SM SKC 13/M04 A3016 RMK HZY CI,MMSP,2015-02-22T06:40:00Z,22.25,-100.93,13.0,-4.0,0,0,,9.0,30.159449,,,,,,,,,,,SKC,,,,,,,,VFR,,,,,,,,,,,,METAR,1903.0
CWZQ 220640Z AUTO 10013G19KT M03/M06 RMK AO1 T10311056,CWZQ,2015-02-22T06:40:00Z,46.53,-61.05,-3.1,-5.6,100,13,19,,,,,TRUE,TRUE,,,,,,,,,,,,,,,,,,,,,,,,,,,METAR,17.0
RJOK 220639Z 20014KT 2500 SHRA BR FEW003 SCT007 BKN009 15/15 Q1015 RMK 1ST003 3ST007 5ST009 A3000,RJOK,2015-02-22T06:39:00Z,33.52,133.67,15.0,15.0,200,14,,1.55,29.970472,,,,,,,,,,SHRA BR,FEW,300,SCT,700,BKN,900,,,IFR,,,,,,,,,,,,METAR,10.0
KACQ 220639Z AUTO 31013KT 10SM CLR M18/M22 A3039 RMK AO2,KACQ,2015-02-22T06:39:00Z,44.07,-93.55,-18.0,-22.0,310,13,,10.0,30.389763,,,TRUE,TRUE,,,,,,,CLR,,,,,,,,VFR,,,,,,,,,,,,METAR,343.0
FAUP 220639Z 11004KT CAVOK 25/M01 Q1017 NOSIG,FAUP,2015-02-22T06:39:00Z,-28.38,21.27,25.0,-1.0,110,4,,6.21,30.029528,,,,,,TRUE,,,,,CAVOK,,,,,,,,VFR,,,,,,,,,,,,SPECI,836.0
CYGW 220638Z AUTO 17002KT 9SM CLR M32/M35 A3012 RMK SLP200,CYGW,2015-02-22T06:38:00Z,55.27,-77.77,-32.0,-35.0,170,2,,9.0,30.121063,1020.0,,TRUE,,,,,,,,CLR,,,,,,,,VFR,,,,,,,,,,,,SPECI,12.0
RCKH 220637Z 26012KT 4500 HZ FEW016 BKN100 27/21 Q1014 NOSIG RMK 30012KT/R09 A2996,RCKH,2015-02-22T06:37:00Z,22.57,120.33,27.0,21.0,260,12,,2.8,29.940945,,,,,,TRUE,,,,HZ,FEW,1600,BKN,10000,,,,,IFR,,,,,,,,,,,,METAR,9.0
RJOA 220636Z 31003KT 3000 R10/1000VP1800U -SHRA PRFG BR FEW000 SCT003 BKN015 11/11 Q1013 RMK 1ST000 3ST003 5CU015 A2994 1500W FG S-W,RJOA,2015-02-22T06:36:00Z,34.42,132.92,11.0,11.0,310,3,,1.86,29.911417,,,,,,,,,,PRFG -SHRA BR,FEW,0,SCT,300,BKN,1500,,,IFR,,,,,,,,,,,,METAR,6.0
CYAH 220636Z AUTO 00000KT 9SM CLR M29/M32 A2996 RMK SLP185,CYAH,2015-02-22T06:36:00Z,53.75,-73.67,-29.0,-32.0,0,0,,9.0,29.958662,1018.5,,TRUE,,,,,,,,CLR,,,,,,,,VFR,,,,,,,,,,,,SPECI,306.0
PFYU 220636Z 00000KT 10SM CLR M13/M16 A2992 RMK AO1,PFYU,2015-02-22T06:36:00Z,66.57,-145.27,-13.0,-16.0,0,0,,10.0,29.920275,,,,TRUE,,,,,,,CLR,,,,,,,,VFR,,,,,,,,,,,,SPECI,131.0
PAPG 220636Z 00000KT 10SM OVC065 04/01 A3047 RMK AO1,PAPG,2015-02-22T06:36:00Z,56.82,-132.97,4.0,1.0,0,0,,10.0,30.469488,,,,TRUE,,,,,,,OVC,6500,,,,,,,VFR,,,,,,,,,,,,SPECI,15.0
KSPF 220635Z AUTO 32013KT 10SM -SN FEW015 SCT027 BKN031 M14/M18 A3038 RMK AO2 P0001,KSPF,2015-02-22T06:35:00Z,44.47,-103.77,-14.0,-18.0,320,13,,10.0,30.380905,,,TRUE,TRUE,,,,,,-SN,FEW,1500,SCT,2700,BKN,3100,,,VFR,,,,,,0.01,,,,,,METAR,1188.0
KFWB 220635Z AUTO 03003KT M1/4SM FG BKN001 OVC120 00/00 A3019 RMK AO2,KFWB,2015-02-22T06:35:00Z,36.7,-93.4,0.0,0.0,30,3,,0.25,30.188976,,,TRUE,TRUE,,,,,,FG,BKN,100,OVC,12000,,,,,LIFR,,,,,,,,,,,,METAR,406.0
KDYA 220635Z AUTO 00000KT 2 1/2SM +RA SCT024 BKN030 OVC041 14/ A3007 RMK AO2 T0144,KDYA,2015-02-22T06:35:00Z,32.47,-87.95,14.4,,0,0,,2.5,30.070866,,,TRUE,TRUE,,,,,,+RA,SCT,2400,BKN,3000,OVC,4100,,,IFR,,,,,,,,,,,,METAR,34.0
KVQQ 220635Z AUTO 00000KT 10SM CLR 10/09 A3019 RMK AO2,KVQQ,2015-02-22T06:35:00Z,30.22,-81.88,10.0,9.0,0,0,,10.0,30.188976,,,TRUE,TRUE,,,,,,,CLR,,,,,,,,VFR,,,,,,,,,,,,METAR,25.0
CYHU 220635Z AUTO 20004KT 5SM -SN OVC029 M09/M10 A3010 RMK SLP195,CYHU,2015-02-22T06:35:00Z,45.52,-73.42,-9.0,-10.0,200,4,,5.0,30.100393,1019.5,,TRUE,,,,,,,-SN,OVC,2900,,,,,,,MVFR,,,,,,,,,,,,SPECI,27.0
RJFT 220635Z 24008KT 4500 BR FEW001 SCT002 BKN005 12/12 Q1015 RMK 1ST001 3ST002 7ST005 A2999,RJFT,2015-02-22T06:35:00Z,32.82,130.83,12.0,12.0,240,8,,2.8,29.970472,,,,,,,,,,BR,FEW,100,SCT,200,BKN,500,,,IFR,,,,,,,,,,,,METAR,196.0
KD60 220635Z AUTO 33011KT 10SM CLR M27/M29 A3058 RMK AO2,KD60,2015-02-22T06:35:00Z,48.38,-102.9,-27.0,-29.0,330,11,,10.0,30.578741,,,TRUE,TRUE,,,,,,,CLR,,,,,,,,VFR,,,,,,,,,,,,SPECI,693.0
KO22 220635Z AUTO 00000KT 5SM BKN041 BKN048 04/04 A2981 RMK AO1,KO22,2015-02-22T06:35:00Z,38.03,-120.42,4.0,4.0,0,0,,5.0,29.811024,,,TRUE,TRUE,,,,,,,BKN,4100,BKN,4800,,,,,MVFR,,,,,,,,,,,,SPECI,646.0
YBCG 220635Z AUTO 17015G26KT 9999 // SCT012 BKN019 BKN038 24/23 Q1009,YBCG,2015-02-22T06:35:00Z,-28.17,153.5,24.0,23.0,170,15,26,6.21,29.793306,,,TRUE,,,,,,,,SCT,1200,BKN,1900,BKN,3800,,,MVFR,,,,,,,,,,,,SPECI,6.0
FMEE 220635Z 03006KT 9999 FEW021TCU SCT130 30/25 Q1015 NOSIG,FMEE,2015-02-22T06:35:00Z,-20.87,55.52,30.0,25.0,30,6,,6.21,29.970472,,,,,,TRUE,,,,,FEW,2100,SCT,13000,,,,,VFR,,,,,,,,,,,,METAR,25.0
KBBG 220635Z AUTO 00000KT 1/2SM FG OVC110 00/M01 A3020 RMK AO2,KBBG,2015-02-22T06:35:00Z,36.53,-93.2,0.0,-1.0,0,0,,0.5,30.200787,,,TRUE,TRUE,,,,,,FG,OVC,11000,,,,,,,LIFR,,,,,,,,,,,,SPECI,397.0
K9D7 220635Z AUTO 35012KT 10SM CLR M28/M32 A3057 RMK AO2,K9D7,2015-02-22T06:35:00Z,48.48,-99.23,-28.0,-32.0,350,12,,10.0,30.569881,,,TRUE,TRUE,,,,,,,CLR,,,,,,,,VFR,,,,,,,,,,,,SPECI,452.0
K96D 220635Z AUTO 32008KT 10SM M28/M32 A3062 RMK AO2,K96D,2015-02-22T06:35:00Z,48.93,-97.9,-28.0,-32.0,320,8,,10.0,30.620079,,,TRUE,TRUE,,,,,,,,,,,,,,,,,,,,,,,,,,,SPECI,290.0
K4A6 220635Z AUTO 00000KT 1 1/4SM BR BKN008 BKN012 OVC018 07/07 A3007 RMK AO2,K4A6,2015-02-22T06:35:00Z,34.68,-86.0,7.0,7.0,0,0,,1.25,30.070866,,,TRUE,TRUE,,,,,,BR,BKN,800,BKN,1200,OVC,1800,,,IFR,,,,,,,,,,,,SPECI,198.0
KO54 220635Z AUTO 06004KT 10SM CLR 08/M08 A3000 RMK AO1,KO54,2015-02-22T06:35:00Z,40.75,-122.92,8.0,-8.0,60,4,,10.0,30.0,,,TRUE,TRUE,,,,,,,CLR,,,,,,,,VFR,,,,,,,,,,,,SPECI,717.0
CYQB 220633Z 33002KT 2 1/4SM -SN BKN018 OVC036 M11/M13 A3008 RMK SN5SC2SC1 SLP193,CYQB,2015-02-22T06:33:00Z,46.78,-71.37,-11.0,-13.0,330,2,,2.25,30.079725,1019.3,,,,,,,,,-SN,BKN,1800,OVC,3600,,,,,IFR,,,,,,,,,,,,SPECI,73.0
FAPE 220632Z 29005KT 250V340 CAVOK 19/11 Q1024 NOSIG,FAPE,2015-02-22T06:32:00Z,-33.97,25.6,19.0,11.0,290,5,,6.21,30.236221,,,,,,TRUE,,,,,CAVOK,,,,,,,,VFR,,,,,,,,,,,,SPECI,60.0
CYWK 220632Z AUTO 00000KT 9SM OVC042 M31/M34 A2999 RMK SLP223,CYWK,2015-02-22T06:32:00Z,52.92,-66.87,-31.0,-34.0,0,0,,9.0,29.991142,1022.3,,TRUE,,,,,,,,OVC,4200,,,,,,,VFR,,,,,,,,,,,,SPECI,551.0
UTNN 220630Z 02017KT CAVOK 02/M12 Q1020 R33/CLRD60 NOSIG,UTNN,2015-02-22T06:30:00Z,42.48,59.63,2.0,-12.0,20,17,,6.21,30.11811,,,,,,TRUE,,,,,CAVOK,,,,,,,,VFR,,,,,,,,,,,,METAR,67.0
WATT 220630Z 34005G15KT 9999 SCT016 BKN080 30/25 Q1008 NOSIG,WATT,2015-02-22T06:30:00Z,-10.17,123.67,30.0,25.0,340,5,15,6.21,29.763779,,,,,,TRUE,,,,,SCT,1600,BKN,8000,,,,,VFR,,,,,,,,,,,,METAR,102.0
UTTT 220630Z 36005KT 4000 -SHRA BR OVC025CB 10/09 Q1015 R88/290050 NOSIG,UTTT,2015-02-22T06:30:00Z,41.27,69.27,10.0,9.0,360,5,,2.49,29.970472,,,,,,TRUE,,,,-SHRA BR,OVC,2500,,,,,,,IFR,,,,,,,,,,,,METAR,489.0
UTST 220630Z 22011KT CAVOK 20/11 Q1011 R88/CLRD70 NOSIG,UTST,2015-02-22T06:30:00Z,37.28,67.32,20.0,11.0,220,11,,6.21,29.852362,,,,,,TRUE,,,,,CAVOK,,,,,,,,VFR,,,,,,,,,,,,METAR,302.0
UTSS 220630Z 08008KT 2300 -SHRA BR BKN008 OVC040CB 08/07 Q1014 R88/29//55 NOSIG,UTSS,2015-02-22T06:30:00Z,39.7,66.98,8.0,7.0,80,8,,1.43,29.940945,,,,,,TRUE,,,,-SHRA BR,BKN,800,OVC,4000,,,,,IFR,,,,,,,,,,,,METAR,724.0
UTSK 220630Z 15011KT 8000 OVC007CB 13/11 Q1014 R16/290250 RMK BASE760,UTSK,2015-02-22T06:30:00Z,38.83,65.77,13.0,11.0,150,11,,4.97,29.940945,,,,,,,,,,,OVC,700,,,,,,,IFR,,,,,,,,,,,,METAR,1365.0
UTSB 220630Z 13003KT 1700 BR SCT010 OVC047CB 11/11 Q1013 R01/290350 NOSIG,UTSB,2015-02-22T06:30:00Z,39.77,64.48,11.0,11.0,130,3,,1.06,29.911417,,,,,,TRUE,,,,BR,SCT,1000,OVC,4700,,,,,IFR,,,,,,,,,,,,METAR,226.0
UTSA 220630Z 06002KT 010V110 3300 BR OVC013 11/10 Q1013 R25/2///65 NOSIG,UTSA,2015-02-22T06:30:00Z,40.12,65.17,11.0,10.0,60,2,,2.05,29.911417,,,,,,TRUE,,,,BR,OVC,1300,,,,,,,IFR,,,,,,,,,,,,METAR,346.0
UTNU 220630Z 04018KT CAVOK 02/M03 Q1016 R31/CLRD70 NOSIG,UTNU,2015-02-22T06:30:00Z,41.58,60.63,2.0,-3.0,40,18,,6.21,30.0,,,,,,TRUE,,,,,CAVOK,,,,,,,,VFR,,,,,,,,,,,,METAR,98.0
WIPP 220630Z 00000KT 9999 BKN012 31/25 Q1009 NOSIG,WIPP,2015-02-22T06:30:00Z,-2.88,104.7,31.0,25.0,0,0,,6.21,29.793306,,,,,,TRUE,,,,,BKN,1200,,,,,,,MVFR,,,,,,,,,,,,METAR,10.0
WALL 220630Z 03010KT 9999 SCT018 33/24 Q1007 NOSIG,WALL,2015-02-22T06:30:00Z,-1.27,116.9,33.0,24.0,30,10,,6.21,29.734253,,,,,,TRUE,,,,,SCT,1800,,,,,,,VFR,,,,,,,,,,,,METAR,3.0
WAOO 220630Z 04008KT 9999 SCT015 32/25 Q1007 NOSIG,WAOO,2015-02-22T06:30:00Z,-3.45,114.77,32.0,25.0,40,8,,6.21,29.734253,,,,,,TRUE,,,,,SCT,1500,,,,,,,VFR,,,,,,,,,,,,METAR,20.0
WIPT 220630Z 27007KT 230V300 9999 FEW020 31/23 Q1010,WIPT,2015-02-22T06:30:00Z,-0.78,100.28,31.0,23.0,270,7,,6.21,29.822834,,,,,,,,,,,FEW,2000,,,,,,,VFR,,,,,,,,,,,,METAR,5.0
WIBB 220630Z 10005KT 8000 BKN017 32/23 Q1009 NOSIG,WIBB,2015-02-22T06:30:00Z,0.47,101.45,32.0,23.0,100,5,,4.97,29.793306,,,,,,TRUE,,,,,BKN,1700,,,,,,,MVFR,,,,,,,,,,,,METAR,31.0
GLRB 220630Z 00000KT 9999 FEW011 SCT100 23/22 Q1011 NOSIG,GLRB,2015-02-22T06:30:00Z,6.25,-10.33,23.0,22.0,0,0,,6.21,29.852362,,,,,,TRUE,,,,,FEW,1100,SCT,10000,,,,,VFR,,,,,,,,,,,,METAR,18.0
HKJK 220630Z 07009KT 9999 BKN020 21/15 Q1022 NOSIG,HKJK,2015-02-22T06:30:00Z,-1.32,36.92,21.0,15.0,70,9,,6.21,30.177166,,,,,,TRUE,,,,,BKN,2000,,,,,,,MVFR,,,,,,,,,,,,METAR,1624.0
UTDD 220630Z 10005MPS 060V130 9999 SCT066CB BKN100 16/08 Q1012 R09/19//60 NOSIG RMK QFE691/0921,UTDD,2015-02-22T06:30:00Z,38.53,68.82,16.0,8.0,100,10,,6.21,29.88189,,,,,,TRUE,,,,,SCT,6600,BKN,10000,,,,,VFR,,,,,,,,,,,,METAR,803.0
UAUU 220630Z 29007MPS 9999 OVC037 M03/M07 Q1018 R33/820160 NOSIG RMK QFE748/0997,UAUU,2015-02-22T06:30:00Z,53.2,63.55,-3.0,-7.0,290,14,,6.21,30.059055,,,,,,TRUE,,,,,OVC,3700,,,,,,,VFR,,,,,,,,,,,,SPECI,182.0
UATT 220630Z 24003MPS 9999 BKN012 M09/M12 Q1026 R31/0///60 NOSIG RMK QFE749/0999,UATT,2015-02-22T06:30:00Z,50.25,57.2,-9.0,-12.0,240,6,,6.21,30.295275,,,,,,TRUE,,,,,BKN,1200,,,,,,,MVFR,,,,,,,,,,,,METAR,227.0
UATG 220630Z 19002MPS 5000 BR SCT200 M11/M12 Q1033 R14/CLRD70 NOSIG RMK QFE777/1036,UATG,2015-02-22T06:30:00Z,47.12,51.83,-11.0,-12.0,190,4,,3.11,30.501968,,,,,,TRUE,,,,BR,SCT,20000,,,,,,,MVFR,,,,,,,,,,,,SPECI,-22.0
UATE 220630Z 03007MPS CAVOK M01/M18 Q1029 R12/0///70 NOSIG RMK QFE770/1027,UATE,2015-02-22T06:30:00Z,43.87,51.1,-1.0,-18.0,30,14,,6.21,30.383858,,,,,,TRUE,,,,,CAVOK,,,,,,,,VFR,,,,,,,,,,,,METAR,22.0
UARR 220630Z 22002MPS 180V250 CAVOK M06/M08 Q1026 R22/820560 NOSIG RMK QFE766/1022,UARR,2015-02-22T06:30:00Z,51.15,51.53,-6.0,-8.0,220,4,,6.21,30.295275,,,,,,TRUE,,,,,CAVOK,,,,,,,,VFR,,,,,,,,,,,,METAR,38.0
UASS 220630Z VRB01MPS 9999 BKN032 M06/M10 Q1023 R26/75//42 NOSIG RMK QFE749/0998,UASS,2015-02-22T06:30:00Z,50.35,80.23,-6.0,-10.0,0,2,,6.21,30.206694,,,,,,TRUE,,,,,BKN,3200,,,,,,,VFR,,,,,,,,,,,,SPECI,232.0
UASP 220630Z 18004MPS CAVOK M14/M18 Q1021 R21/0///60 NOSIG RMK QFE754/1006,UASP,2015-02-22T06:30:00Z,52.2,77.07,-14.0,-18.0,180,8,,6.21,30.147638,,,,,,TRUE,,,,,CAVOK,,,,,,,,VFR,,,,,,,,,,,,METAR,125.0
UASK 220630Z 26003MPS 3000 SHSN BKN029CB OVC042 M05/M07 Q1023 R30/850242 NOSIG RMK QFE742/0989,UASK,2015-02-22T06:30:00Z,50.03,82.5,-5.0,-7.0,260,6,,1.86,30.206694,,,,,,TRUE,,,,SHSN,BKN,2900,OVC,4200,,,,,IFR,,,,,,,,,,,,METAR,286.0
UAOO 220630Z 04007MPS CAVOK 02/M04 Q1022 R06/CLRD70 NOSIG RMK QFE755/1006,UAOO,2015-02-22T06:30:00Z,44.7,65.6,2.0,-4.0,40,14,,6.21,30.177166,,,,,,TRUE,,,,,CAVOK,,,,,,,,VFR,,,,,,,,,,,,METAR,129.0
UAKK 220630Z 24006MPS 9999 OVC021 M08/M11 Q1019 R23/920555 NOSIG RMK QFE717/0956,UAKK,2015-02-22T06:30:00Z,49.67,73.33,-8.0,-11.0,240,12,,6.21,30.088583,,,,,,TRUE,,,,,OVC,2100,,,,,,,MVFR,,,,,,,,,,,,SPECI,538.0
UAII 220630Z 26002MPS 3000 -SHRA BR BKN050CB OVC100 09/09 Q1016 R28/1///60 NOSIG RMK QFE725/0967,UAII,2015-02-22T06:30:00Z,42.37,69.48,9.0,9.0,260,4,,1.86,30.0,,,,,,TRUE,,,,-SHRA BR,BKN,5000,OVC,10000,,,,,IFR,,,,,,,,,,,,METAR,422.0
UACP 220630Z 23008MPS 8000 OVC007 M06/M07 Q1013 R23/4/2035 NOSIG RMK QFE747/0997,UACP,2015-02-22T06:30:00Z,54.78,69.18,-6.0,-7.0,230,16,,4.97,29.911417,,,,,,TRUE,,,,,OVC,700,,,,,,,IFR,,,,,,,,,,,,METAR,142.0
UACK 220630Z 25007MPS 9999 -SHSN DRSN OVC022CB M07/M10 Q1015 R20/420347 NOSIG RMK QFE737/0983,UACK,2015-02-22T06:30:00Z,53.32,69.58,-7.0,-10.0,250,14,,6.21,29.970472,,,,,,TRUE,,,,-SHSN DRSN,OVC,2200,,,,,,,MVFR,,,,,,,,,,,,METAR,2547.0
UACC 220630Z 24007MPS 9999 -SN OVC020 M11/M13 Q1019 R22/4/0260 NOSIG RMK QFE733/0977,UACC,2015-02-22T06:30:00Z,51.02,71.47,-11.0,-13.0,240,14,,6.21,30.088583,,,,,,TRUE,,,,-SN,OVC,2000,,,,,,,MVFR,,,,,,,,,,,,METAR,355.0
UADD 220630Z 34003MPS 6000 -RA OVC003 02/M00 Q1017 R13/19//60 TEMPO 1000 BR OVC002 RMK QBB100 MT OBSC QFE706/0941,UADD,2015-02-22T06:30:00Z,42.85,71.3,2.0,0.0,340,6,,3.73,30.029528,,,,,,,,,,-RA,OVC,300,,,,,,,LIFR,,,,,,,,,,,,METAR,665.0
UAAH 220630Z 06003MPS CAVOK M08/M13 Q1022 R05/0///60 NOSIG RMK QFE729/0973,UAAH,2015-02-22T06:30:00Z,46.9,75.0,-8.0,-13.0,60,6,,6.21,30.177166,,,,,,TRUE,,,,,CAVOK,,,,,,,,VFR,,,,,,,,,,,,SPECI,441.0
UAAA 220630Z 34002MPS 290V020 5000 BR FU BKN100 02/M02 Q1017 R88/65D NOSIG,UAAA,2015-02-22T06:30:00Z,43.35,77.03,2.0,-2.0,340,4,,3.11,30.029528,,,,,,TRUE,,,,BR FU,BKN,10000,,,,,,,MVFR,,,,,,,,,,,,METAR,847.0
UDSG 220630Z 00000MPS 9999 NSC M08/M13 Q1019 R02/CLRD70 NOSIG,UDSG,2015-02-22T06:30:00Z,40.75,43.87,-8.0,-13.0,0,0,,6.21,30.088583,,,,,,TRUE,,,,,,,,,,,,,,,,,,,,,,,,,METAR,1524.0
UDYZ 220630Z VRB01MPS 9999 FEW040 SCT100 02/M02 Q1021 R09/0///70 NOSIG,UDYZ,2015-02-22T06:30:00Z,40.15,44.4,2.0,-2.0,0,2,,6.21,30.147638,,,,,,TRUE,,,,,FEW,4000,SCT,10000,,,,,VFR,,,,,,,,,,,,SPECI,865.0
ZYTX 220630Z 22007MPS 1600 DU HZ SCT016 M00/M10 Q1014 NOSIG,ZYTX,2015-02-22T06:30:00Z,41.63,123.48,0.0,-10.0,220,14,,0.99,29.940945,,,,,,TRUE,,,,DU HZ,SCT,1600,,,,,,,LIFR,,,,,,,,,,,,METAR,35.0
ZYTL 220630Z 29009MPS 2500 R28/1300 SA NSC 00/M09 Q1018 BECMG TL0700 3000 SA,ZYTL,2015-02-22T06:30:00Z,38.97,121.53,0.0,-9.0,290,17,,1.55,30.059055,,,,,,,,,,SA,,,,,,,,,,,,,,,,,,,,,SPECI,97.0
ZWWW 220630Z VRB02MPS 1700 FU NSC M05/M11 Q1022 BECMG TL0800 3000 FU,ZWWW,2015-02-22T06:30:00Z,43.88,87.47,-5.0,-11.0,0,4,,1.06,30.177166,,,,,,,,,,FU,,,,,,,,,,,,,,,,,,,,,SPECI,654.0
ZSSS 220630Z 36004MPS 4000 HZ SCT023 09/04 Q1021 NOSIG,ZSSS,2015-02-22T06:30:00Z,31.2,121.33,9.0,4.0,360,8,,2.49,30.147638,,,,,,TRUE,,,,HZ,SCT,2300,,,,,,,IFR,,,,,,,,,,,,METAR,7.0
ZSPD 220630Z 35004MPS 320V020 3500 BR BKN020 08/04 Q1022 NOSIG,ZSPD,2015-02-22T06:30:00Z,31.15,121.8,8.0,4.0,350,8,,2.17,30.177166,,,,,,TRUE,,,,BR,BKN,2000,,,,,,,IFR,,,,,,,,,,,,METAR,4.0
ZSHC 220630Z 01005MPS 340V050 5000 HZ BKN017 09/02 Q1022 NOSIG,ZSHC,2015-02-22T06:30:00Z,30.22,120.43,9.0,2.0,10,10,,3.11,30.177166,,,,,,TRUE,,,,HZ,BKN,1700,,,,,,,MVFR,,,,,,,,,,,,METAR,43.0
ZGGG 220630Z 18003MPS 6000 OVC036 25/19 Q1013 NOSIG,ZGGG,2015-02-22T06:30:00Z,23.4,113.3,25.0,19.0,180,6,,3.73,29.911417,,,,,,TRUE,,,,,OVC,3600,,,,,,,MVFR,,,,,,,,,,,,METAR,15.0
ZBYN 220630Z 23004MPS 170V270 CAVOK M01/M20 Q1020 NOSIG,ZBYN,2015-02-22T06:30:00Z,37.77,112.63,-1.0,-20.0,230,8,,6.21,30.11811,,,,,,TRUE,,,,,CAVOK,,,,,,,,VFR,,,,,,,,,,,,METAR,779.0
ZBTJ 220630Z 32006G12MPS CAVOK 03/M17 Q1021 NOSIG,ZBTJ,2015-02-22T06:30:00Z,39.12,117.35,3.0,-17.0,320,12,23,6.21,30.147638,,,,,,TRUE,,,,,CAVOK,,,,,,,,VFR,,,,,,,,,,,,METAR,3.0
ZBAA 220630Z 28009G15MPS CAVOK 03/M18 Q1021 NOSIG,ZBAA,2015-02-22T06:30:00Z,40.07,116.58,3.0,-18.0,280,17,29,6.21,30.147638,,,,,,TRUE,,,,,CAVOK,,,,,,,,VFR,,,,,,,,,,,,METAR,30.0
GEML 220630Z 28018G28KT 230V310 9999 FEW020 15/08 Q1013,GEML,2015-02-22T06:30:00Z,35.27,-2.95,15.0,8.0,280,18,28,6.21,29.911417,,,,,,,,,,,FEW,2000,,,,,,,VFR,,,,,,,,,,,,METAR,55.0
LRTR 220630Z 10008KT CAVOK 06/02 Q1008,LRTR,2015-02-22T06:30:00Z,45.82,21.33,6.0,2.0,100,8,,6.21,29.763779,,,,,,,,,,,CAVOK,,,,,,,,VFR,,,,,,,,,,,,METAR,88.0
LRSB 220630Z 21003KT CAVOK 01/M01 Q1010,LRSB,2015-02-22T06:30:00Z,45.78,24.08,1.0,-1.0,210,3,,6.21,29.822834,,,,,,,,,,,CAVOK,,,,,,,,VFR,,,,,,,,,,,,METAR,444.0
LROP 220630Z 05008KT 6000 NSC 01/M00 Q1013 RMK R88/19//95 NOSIG,LROP,2015-02-22T06:30:00Z,44.57,26.1,1.0,0.0,50,8,,3.73,29.911417,,,,,,,,,,,,,,,,,,,,,,,,,,,,,,,METAR,95.0
LRCK 220630Z 15011KT 9999 BKN011 04/04 Q1016 NOSIG,LRCK,2015-02-22T06:30:00Z,44.37,28.48,4.0,4.0,150,11,,6.21,30.0,,,,,,TRUE,,,,,BKN,1100,,,,,,,MVFR,,,,,,,,,,,,METAR,108.0
LRBS 220630Z 04005KT CAVOK 01/00 Q1014 NOSIG,LRBS,2015-02-22T06:30:00Z,44.5,26.08,1.0,0.0,40,5,,6.21,29.940945,,,,,,TRUE,,,,,CAVOK,,,,,,,,VFR,,,,,,,,,,,,METAR,91.0
LFSL 220630Z AUTO 31005KT 9999 NSC M01/M02 Q1011,LFSL,2015-02-22T06:30:00Z,45.03,1.48,-1.0,-2.0,310,5,,6.21,29.852362,,,TRUE,,,,,,,,,,,,,,,,,,,,,,,,,,,,SPECI,310.0
LFMV 220630Z AUTO 35031G48KT 320V020 9999 FEW031 05/00 Q1001,LFMV,2015-02-22T06:30:00Z,43.9,4.9,5.0,0.0,350,31,48,6.21,29.557087,,,TRUE,,,,,,,,FEW,3100,,,,,,,VFR,,,,,,,,,,,,METAR,38.0
LFMP 220630Z AUTO 31023G37KT 9999 FEW038 05/M02 Q1006,LFMP,2015-02-22T06:30:00Z,42.72,2.87,5.0,-2.0,310,23,37,6.21,29.704725,,,TRUE,,,,,,,,FEW,3800,,,,,,,VFR,,,,,,,,,,,,METAR,48.0
LFLC 220630Z 34005KT 300V030 9999 BKN026 BKN043 02/M02 Q1010 NOSIG,LFLC,2015-02-22T06:30:00Z,45.77,3.17,2.0,-2.0,340,5,,6.21,29.822834,,,,,,TRUE,,,,,BKN,2600,BKN,4300,,,,,MVFR,,,,,,,,,,,,METAR,330.0
LFKJ 220630Z 06005KT 9999 FEW020 SCT068 07/06 Q0995 NOSIG,LFKJ,2015-02-22T06:30:00Z,41.92,8.8,7.0,6.0,60,5,,6.21,29.379921,,,,,,TRUE,,,,,FEW,2000,SCT,6800,,,,,VFR,,,,,,,,,,,,METAR,9.0
LFKF 220630Z AUTO 00000KT 9999 OVC066/// 07/06 Q0995,LFKF,2015-02-22T06:30:00Z,41.5,9.08,7.0,6.0,0,0,,6.21,29.379921,,,TRUE,,,,,,,,,,,,,,,,,,,,,,,,,,,,METAR,23.0
LFKC 220630Z VRB02KT 9999 SCT020 BKN030 07/06 Q0995 NOSIG,LFKC,2015-02-22T06:30:00Z,42.52,8.8,7.0,6.0,0,2,,6.21,29.379921,,,,,,TRUE,,,,,SCT,2000,BKN,3000,,,,,MVFR,,,,,,,,,,,,METAR,58.0
LFKB 220630Z 23003KT 9999 -SHRA BKN028 BKN056 08/06 Q0995 NOSIG,LFKB,2015-02-22T06:30:00Z,42.53,9.47,8.0,6.0,230,3,,6.21,29.379921,,,,,,TRUE,,,,-SHRA,BKN,2800,BKN,5600,,,,,MVFR,,,,,,,,,,,,METAR,12.0
LFRK 220630Z AUTO 24006KT 9999 NSC 00/M01 Q1011,LFRK,2015-02-22T06:30:00Z,49.17,-0.45,0.0,-1.0,240,6,,6.21,29.852362,,,TRUE,,,,,,,,,,,,,,,,,,,,,,,,,,,,SPECI,67.0
LFRG 220630Z AUTO 23005KT 9999 FEW025 M01/M01 Q1011,LFRG,2015-02-22T06:30:00Z,49.37,0.15,-1.0,-1.0,230,5,,6.21,29.852362,,,TRUE,,,,,,,,FEW,2500,,,,,,,VFR,,,,,,,,,,,,METAR,146.0
LFRC 220630Z AUTO 20006KT 9999 NSC 00/M02 Q1010,LFRC,2015-02-22T06:30:00Z,49.63,-1.47,0.0,-2.0,200,6,,6.21,29.822834,,,TRUE,,,,,,,,,,,,,,,,,,,,,,,,,,,,SPECI,138.0
LFPN 220630Z AUTO 25001KT 1800 BR NSC M02/M03 Q1011,LFPN,2015-02-22T06:30:00Z,48.75,2.12,-2.0,-3.0,250,1,,1.12,29.852362,,,TRUE,,,,,,,BR,,,,,,,,,,,,,,,,,,,,,METAR,164.0
LFOT 220630Z AUTO 28002KT 5000 BR NSC M02/M02 Q1012,LFOT,2015-02-22T06:30:00Z,47.43,0.72,-2.0,-2.0,280,2,,3.11,29.88189,,,TRUE,,,,,,,BR,,,,,,,,,,,,,,,,,,,,,SPECI,108.0
LFMH 220630Z 33010KT 310V010 9999 SCT013 BKN025 01/M02 Q1009 NOSIG,LFMH,2015-02-22T06:30:00Z,45.52,4.28,1.0,-2.0,330,10,,6.21,29.793306,,,,,,TRUE,,,,,SCT,1300,BKN,2500,,,,,MVFR,,,,,,,,,,,,METAR,402.0
LFQG 220630Z AUTO 31004KT 9999 NSC M00/M01 Q1011,LFQG,2015-02-22T06:30:00Z,47.0,3.1,0.0,-1.0,310,4,,6.21,29.852362,,,TRUE,,,,,,,,,,,,,,,,,,,,,,,,,,,,METAR,181.0
RJOW 220630Z 27016KT 4000 -SHRA FEW012 BKN020 14/13 Q1013 RMK 1CU012 6CU020 A2991,RJOW,2015-02-22T06:30:00Z,34.67,131.8,14.0,13.0,270,16,,2.49,29.911417,,,,,,,,,,-SHRA,FEW,1200,BKN,2000,,,,,IFR,,,,,,,,,,,,SPECI,54.0
KECU 220630Z AUTO 10006KT 10SM FEW016 13/08 A2997 RMK AO2,KECU,2015-02-22T06:30:00Z,29.95,-100.17,13.0,8.0,100,6,,10.0,29.970472,,,TRUE,TRUE,,,,,,,FEW,1600,,,,,,,VFR,,,,,,,,,,,,METAR,725.0
LFMN 220630Z 33008KT 9999 FEW050 BKN066 07/04 Q0996 NOSIG,LFMN,2015-02-22T06:30:00Z,43.63,7.2,7.0,4.0,330,8,,6.21,29.409449,,,,,,TRUE,,,,,FEW,5000,BKN,6600,,,,,VFR,,,,,,,,,,,,METAR,10.0
UCFO 220630Z 13003MPS 9000 OVC130 09/06 Q1012 R12/29//50 NOSIG,UCFO,2015-02-22T06:30:00Z,40.6,72.8,9.0,6.0,130,6,,5.59,29.88189,,,,,,TRUE,,,,,OVC,13000,,,,,,,VFR,,,,,,,,,,,,METAR,884.0
UCFM 220630Z 00000MPS CAVOK 04/01 Q1017 R26/CLRD70 NOSIG,UCFM,2015-02-22T06:30:00Z,43.07,74.48,4.0,1.0,0,0,,6.21,30.029528,,,,,,TRUE,,,,,CAVOK,,,,,,,,VFR,,,,,,,,,,,,METAR,633.0
UTDL 220630Z 09007MPS 4300 BR SCT067CB SCT100 OVC200 10/04 Q1016 NOSIG RMK QFE723/0964 88CLRD70,UTDL,2015-02-22T06:30:00Z,40.22,69.7,10.0,4.0,90,14,,2.67,30.0,,,,,,TRUE,,,,BR,SCT,6700,SCT,10000,OVC,20000,,,IFR,,,,,,,,,,,,SPECI,442.0
UTDT 220630Z 00000MPS 9999 FEW100 BKN150 23/07 Q1009 35CLRD70 RMK QFE718/0957,UTDT,2015-02-22T06:30:00Z,37.87,68.87,23.0,7.0,0,0,,6.21,29.793306,,,,,,,,,,,FEW,10000,BKN,15000,,,,,VFR,,,,,,,,,,,,METAR,449.0
UTDK 220630Z 27002MPS 9999 FEW060CB BKN110 16/08 Q1011 0119//65 RMK QFE701/0935,UTDK,2015-02-22T06:30:00Z,37.98,69.8,16.0,8.0,270,4,,6.21,29.852362,,,,,,,,,,,FEW,6000,BKN,11000,,,,,VFR,,,,,,,,,,,,METAR,699.0
GMMN 220630Z 21006KT 6000 SCT016 BKN080 07/06 Q1021 NOSIG,GMMN,2015-02-22T06:30:00Z,33.37,-7.57,7.0,6.0,210,6,,3.73,30.147638,,,,,,TRUE,,,,,SCT,1600,BKN,8000,,,,,MVFR,,,,,,,,,,,,METAR,206.0
DIAP 220630Z 33005KT 9999 FEW011 25/24 Q1011 NOSIG,DIAP,2015-02-22T06:30:00Z,5.25,-3.92,25.0,24.0,330,5,,6.21,29.852362,,,,,,TRUE,,,,,FEW,1100,,,,,,,VFR,,,,,,,,,,,,METAR,8.0
YBTL 220630Z 29015KT 9999 FEW019 BKN024 BKN140 30/22 Q1007 RMK DISTANT SHOWERS,YBTL,2015-02-22T06:30:00Z,-19.25,146.75,30.0,22.0,290,15,,6.21,29.734253,,,,,,,,,,,FEW,1900,BKN,2400,BKN,14000,,,MVFR,,,,,,,,,,,,METAR,6.0
UMMM 220630Z 16002MPS 2800 BR BKN004 00/M01 Q1008 R12/620235 NOSIG RMK QFE736 QBB140,UMMM,2015-02-22T06:30:00Z,53.87,27.52,0.0,-1.0,160,4,,1.74,29.763779,,,,,,TRUE,,,,BR,BKN,400,,,,,,,LIFR,,,,,,,,,,,,METAR,234.0
UMGG 220630Z 17007G10MPS 9999 OVC012 01/M02 Q1014 R10/190055 NOSIG,UMGG,2015-02-22T06:30:00Z,52.53,31.02,1.0,-2.0,170,14,19,6.21,29.940945,,,,,,TRUE,,,,,OVC,1200,,,,,,,MVFR,,,,,,,,,,,,METAR,144.0
VVPQ 220630Z 11009KT 060V130 9999 FEW020 29/20 Q1013 NOSIG,VVPQ,2015-02-22T06:30:00Z,10.23,103.97,29.0,20.0,110,9,,6.21,29.911417,,,,,,TRUE,,,,,FEW,2000,,,,,,,VFR,,,,,,,,,,,,METAR,4.0
VVCT 220630Z 12004KT 090V170 9999 BKN015 30/20 Q1012 NOSIG,VVCT,2015-02-22T06:30:00Z,10.08,105.72,30.0,20.0,120,4,,6.21,29.88189,,,,,,TRUE,,,,,BKN,1500,,,,,,,MVFR,,,,,,,,,,,,METAR,3.0
VVCR 220630Z 12008KT 9999 FEW015 30/22 Q1012 NOSIG,VVCR,2015-02-22T06:30:00Z,12.0,109.22,30.0,22.0,120,8,,6.21,29.88189,,,,,,TRUE,,,,,FEW,1500,,,,,,,VFR,,,,,,,,,,,,METAR,12.0
VVPB 220630Z 15003KT 9999 FEW020 BKN070 26/23 Q1013 NOSIG,VVPB,2015-02-22T06:30:00Z,16.38,107.7,26.0,23.0,150,3,,6.21,29.911417,,,,,,TRUE,,,,,FEW,2000,BKN,7000,,,,,VFR,,,,,,,,,,,,METAR,17.0
VVDN 220630Z 01005KT 320V050 7000 FEW015 BKN060 29/23 Q1012 NOSIG,VVDN,2015-02-22T06:30:00Z,16.02,108.2,29.0,23.0,10,5,,4.35,29.88189,,,,,,TRUE,,,,,FEW,1500,BKN,6000,,,,,MVFR,,,,,,,,,,,,METAR,7.0
VVNB 220630Z 12007KT 6000 FEW007 SCT010 BKN040 25/21 Q1012 NOSIG,VVNB,2015-02-22T06:30:00Z,21.22,105.8,25.0,21.0,120,7,,3.73,29.88189,,,,,,TRUE,,,,,FEW,700,SCT,1000,BKN,4000,,,MVFR,,,,,,,,,,,,METAR,12.0
VVTS 220630Z VRB03KT 9999 SCT020 SCT050 32/20 Q1011 NOSIG,VVTS,2015-02-22T06:30:00Z,10.82,106.67,32.0,20.0,0,3,,6.21,29.852362,,,,,,TRUE,,,,,SCT,2000,SCT,5000,,,,,VFR,,,,,,,,,,,,METAR,19.0
VMMC 220630Z 15004KT 4000 BR FEW005 SCT020 20/18 Q1014 NOSIG,VMMC,2015-02-22T06:30:00Z,22.15,113.58,20.0,18.0,150,4,,2.49,29.940945,,,,,,TRUE,,,,BR,FEW,500,SCT,2000,,,,,IFR,,,,,,,,,,,,METAR,6.0
RCNN 220630Z 31011KT 6000 FEW012 SCT032 BKN060 25/19 Q1014 NOSIG RMK A2995,RCNN,2015-02-22T06:30:00Z,22.93,120.2,25.0,19.0,310,11,,3.73,29.940945,,,,,,TRUE,,,,,FEW,1200,SCT,3200,BKN,6000,,,MVFR,,,,,,,,,,,,SPECI,19.0
RCMQ 220630Z 34014KT 8000 FEW010 SCT060 22/17 Q1014 NOSIG RMK A2997,RCMQ,2015-02-22T06:30:00Z,24.27,120.62,22.0,17.0,340,14,,4.97,29.940945,,,,,,TRUE,,,,,FEW,1000,SCT,6000,,,,,MVFR,,,,,,,,,,,,SPECI,5.0
RCSS 220630Z 09012KT 9999 FEW015 BKN022 BKN060 21/16 Q1015 NOSIG RMK A3000,RCSS,2015-02-22T06:30:00Z,25.07,121.53,21.0,16.0,90,12,,6.21,29.970472,,,,,,TRUE,,,,,FEW,1500,BKN,2200,BKN,6000,,,MVFR,,,,,,,,,,,,SPECI,6.0
RCTP 220630Z 03016KT 8000 SCT003 BKN006 BKN016 19/16 Q1016 NOSIG RMK A3001,RCTP,2015-02-22T06:30:00Z,25.07,121.22,19.0,16.0,30,16,,4.97,30.0,,,,,,TRUE,,,,,SCT,300,BKN,600,BKN,1600,,,IFR,,,,,,,,,,,,METAR,33.0
FALA 220630Z 04004KT 320V120 CAVOK 24/12 Q1024 NOSIG,FALA,2015-02-22T06:30:00Z,-25.92,27.92,24.0,12.0,40,4,,6.21,30.236221,,,,,,TRUE,,,,,CAVOK,,,,,,,,VFR,,,,,,,,,,,,SPECI,1377.0
DTTJ 220630Z 26023KT 6000 FEW016 SCT026 13/09 Q0998 NOSIG,DTTJ,2015-02-22T06:30:00Z,33.87,10.77,13.0,9.0,260,23,,3.73,29.468504,,,,,,TRUE,,,,,FEW,1600,SCT,2600,,,,,MVFR,,,,,,,,,,,,METAR,4.0
DTTA 220630Z 26007KT 220V280 8000 SCT026 10/09 Q0995 NOSIG,DTTA,2015-02-22T06:30:00Z,36.85,10.22,10.0,9.0,260,7,,4.97,29.379921,,,,,,TRUE,,,,,SCT,2600,,,,,,,MVFR,,,,,,,,,,,,METAR,4.0
DTNH 220630Z AUTO 28010KT 9999NDV BKN023 BKN040 10/09 Q0995,DTNH,2015-02-22T06:30:00Z,36.07,10.43,10.0,9.0,280,10,,,29.379921,,,TRUE,,,,,,,,BKN,2300,BKN,4000,,,,,,,,,,,,,,,,,METAR,2.0
DTMB 220630Z 27013KT 5000 -RA SCT020 BKN026 11/10 Q0995 NOSIG,DTMB,2015-02-22T06:30:00Z,35.77,10.75,11.0,10.0,270,13,,3.11,29.379921,,,,,,TRUE,,,,-RA,SCT,2000,BKN,2600,,,,,MVFR,,,,,,,,,,,,METAR,2.0
VDSR 220630Z 24007KT 180V290 9999 SCT017 BKN040 32/21 Q1010,VDSR,2015-02-22T06:30:00Z,13.42,103.83,32.0,21.0,240,7,,6.21,29.822834,,,,,,,,,,,SCT,1700,BKN,4000,,,,,VFR,,,,,,,,,,,,METAR,15.0
VDPP 220630Z 16006KT 080V210 9999 SCT015 32/21 Q1011,VDPP,2015-02-22T06:30:00Z,11.55,104.83,32.0,21.0,160,6,,6.21,29.852362,,,,,,,,,,,SCT,1500,,,,,,,VFR,,,,,,,,,,,,METAR,10.0
VYYY 220630Z 25008KT 9000 R21/2000N NSC 34/16 Q1013 NOSIG,VYYY,2015-02-22T06:30:00Z,16.9,96.13,34.0,16.0,250,8,,5.59,29.911417,,,,,,TRUE,,,,,,,,,,,,,,,,,,,,,,,,,SPECI,33.0
VYMD 220630Z 00000KT 8000 NSC 34/15 Q1012 NOSIG,VYMD,2015-02-22T06:30:00Z,21.7,95.98,34.0,15.0,0,0,,4.97,29.88189,,,,,,TRUE,,,,,,,,,,,,,,,,,,,,,,,,,SPECI,91.0
VLVT 220630Z 18002KT 8000 FEW020 FEW050 31/22 Q1011 NOSIG,VLVT,2015-02-22T06:30:00Z,17.98,102.57,31.0,22.0,180,2,,4.97,29.852362,,,,,,TRUE,,,,,FEW,2000,FEW,5000,,,,,MVFR,,,,,,,,,,,,METAR,171.0
VTSP 220630Z 08006KT 9999 FEW020 32/19 Q1011 A2987,VTSP,2015-02-22T06:30:00Z,8.12,98.32,32.0,19.0,80,6,,6.21,29.852362,,,,,,,,,,,FEW,2000,,,,,,,VFR,,,,,,,,,,,,METAR,10.0
VTSS 220630Z 04009KT 9999 SCT020 BKN300 31/23 Q1011 A2987 NOSIG,VTSS,2015-02-22T06:30:00Z,6.92,100.38,31.0,23.0,40,9,,6.21,29.852362,,,,,,TRUE,,,,,SCT,2000,BKN,30000,,,,,VFR,,,,,,,,,,,,METAR,35.0
VTBU 220630Z 20010KT 9999 FEW020 SCT300 30/21 Q1012 A2991,VTBU,2015-02-22T06:30:00Z,12.68,101.0,30.0,21.0,200,10,,6.21,29.88189,,,,,,,,,,,FEW,2000,SCT,30000,,,,,VFR,,,,,,,,,,,,METAR,5.0
VTBD 220630Z 18009KT 150V220 33/22 Q1012 NOSIG,VTBD,2015-02-22T06:30:00Z,13.92,100.6,33.0,22.0,180,9,,,29.88189,,,,,,TRUE,,,,,,,,,,,,,,,,,,,,,,,,,METAR,3.0
VTBS 220630Z 20012KT 160V250 9999 FEW020 BKN300 32/21 Q1012 NOSIG,VTBS,2015-02-22T06:30:00Z,13.68,100.75,32.0,21.0,200,12,,6.21,29.88189,,,,,,TRUE,,,,,FEW,2000,BKN,30000,,,,,VFR,,,,,,,,,,,,METAR,2.0
DAOO 220630Z 36007KT 9999 BKN026 FEW030CB 10/06 Q1012,DAOO,2015-02-22T06:30:00Z,35.62,-0.6,10.0,6.0,360,7,,6.21,29.88189,,,,,,,,,,,BKN,2600,FEW,3000,,,,,MVFR,,,,,,,,,,,,SPECI,90.0
DAON 220630Z 28016KT 9999 FEW020 SCT026 12/08 Q1013,DAON,2015-02-22T06:30:00Z,35.02,-1.47,12.0,8.0,280,16,,6.21,29.911417,,,,,,,,,,,FEW,2000,SCT,2600,,,,,VFR,,,,,,,,,,,,SPECI,247.0
DABC 220630Z 28013KT 8000 -RA SCT020 BKN026 04/02 Q0999,DABC,2015-02-22T06:30:00Z,36.27,6.62,4.0,2.0,280,13,,4.97,29.498032,,,,,,,,,,-RA,SCT,2000,BKN,2600,,,,,MVFR,,,,,,,,,,,,SPECI,694.0
DABB 220630Z 29012KT 8000 FEW020 FEW026CB BKN040 10/09 Q0996,DABB,2015-02-22T06:30:00Z,36.82,7.82,10.0,9.0,290,12,,4.97,29.409449,,,,,,,,,,,FEW,2000,FEW,2600,BKN,4000,,,MVFR,,,,,,,,,,,,SPECI,4.0
DAAT 220630Z 35004KT 3000 HZ FEW050 SCT100 06/M02 Q1017,DAAT,2015-02-22T06:30:00Z,22.82,5.47,6.0,-2.0,350,4,,1.86,30.029528,,,,,,,,,,HZ,FEW,5000,SCT,10000,,,,,IFR,,,,,,,,,,,,SPECI,1377.0
DAAG 220630Z 28009KT 9999 SQ FEW020TCU SCT026CB BKN040 09/04 Q1007 RETS,DAAG,2015-02-22T06:30:00Z,36.72,3.22,9.0,4.0,280,9,,6.21,29.734253,,,,,,,,,,SQ,FEW,2000,SCT,2600,BKN,4000,,,VFR,,,,,,,,,,,,SPECI,25.0
GMMX 220630Z 07005KT 9999 BKN020 11/10 Q1020 NOSIG,GMMX,2015-02-22T06:30:00Z,31.62,-8.02,11.0,10.0,70,5,,6.21,30.11811,,,,,,TRUE,,,,,BKN,2000,,,,,,,MVFR,,,,,,,,,,,,METAR,466.0
ROAH 220630Z 19014KT 9999 FEW020 BKN110 22/16 Q1016 RMK 1CU020 5AC110 A3001,ROAH,2015-02-22T06:30:00Z,26.17,127.65,22.0,16.0,190,14,,6.21,30.0,,,,,,,,,,,FEW,2000,BKN,11000,,,,,VFR,,,,,,,,,,,,METAR,8.0
WBGG 220630Z 01008KT 330V050 9999 BKN020 BKN150 30/24 Q1010 NOSIG,WBGG,2015-02-22T06:30:00Z,1.47,110.35,30.0,24.0,10,8,,6.21,29.822834,,,,,,TRUE,,,,,BKN,2000,BKN,15000,,,,,MVFR,,,,,,,,,,,,METAR,27.0
RJTT 220630Z 02003KT 340V040 7000 FEW009 SCT015 BKN025 08/04 Q1020 TEMPO FEW008 BKN012 RMK 1ST009 3ST015 6SC025 A3015,RJTT,2015-02-22T06:30:00Z,35.53,139.77,8.0,4.0,20,3,,4.35,30.11811,,,,,,,,,,,FEW,900,SCT,1500,BKN,2500,,,MVFR,,,,,,,,,,,,METAR,8.0
RJFF 220630Z 30012KT 9999 FEW010 SCT015 BKN025 13/11 Q1015 RMK 1ST010 3CU015 5CU025 A2998,RJFF,2015-02-22T06:30:00Z,33.57,130.43,13.0,11.0,300,12,,6.21,29.970472,,,,,,,,,,,FEW,1000,SCT,1500,BKN,2500,,,MVFR,,,,,,,,,,,,METAR,12.0
RJCC 220630Z 16014KT 9999 BKN015 02/M02 Q1019 RMK 7ST015 A3010 MOD TURB OBS AT 0618Z 35NM W UWE FL300 B744,RJCC,2015-02-22T06:30:00Z,42.77,141.67,2.0,-2.0,160,14,,6.21,30.088583,,,,,,,,,,,BKN,1500,,,,,,,MVFR,,,,,,,,,,,,SPECI,30.0
RJBB 220630Z 17013KT 9999 -SHRA FEW015 SCT030 BKN045 15/10 Q1015 TEMPO 19020G31KT,RJBB,2015-02-22T06:30:00Z,34.42,135.25,15.0,10.0,170,13,,6.21,29.970472,,,,,,,,,,-SHRA,FEW,1500,SCT,3000,BKN,4500,,,VFR,,,,,,,,,,,,SPECI,8.0
RJAA 220630Z 24003KT 200V280 9000 FEW005 SCT008 BKN050 12/10 Q1020 BECMG 22005KT,RJAA,2015-02-22T06:30:00Z,35.77,140.37,12.0,10.0,240,3,,5.59,30.11811,,,,,,,,,,,FEW,500,SCT,800,BKN,5000,,,VFR,,,,,,,,,,,,SPECI,44.0
WMKP 220630Z 21008KT 160V240 9999 FEW020 SCT150 BKN280 32/23 Q1010 NOSIG,WMKP,2015-02-22T06:30:00Z,5.28,100.27,32.0,23.0,210,8,,6.21,29.822834,,,,,,TRUE,,,,,FEW,2000,SCT,15000,BKN,28000,,,VFR,,,,,,,,,,,,METAR,4.0
WMKK 220630Z 23007KT 180V280 9999 SCT018 BKN280 34/21 Q1009 NOSIG,WMKK,2015-02-22T06:30:00Z,2.75,101.72,34.0,21.0,230,7,,6.21,29.793306,,,,,,TRUE,,,,,SCT,1800,BKN,28000,,,,,VFR,,,,,,,,,,,,METAR,22.0
WBSB 220630Z 36007KT 9999 FEW018 BKN140 31/25 Q1009 NOSIG,WBSB,2015-02-22T06:30:00Z,4.92,114.92,31.0,25.0,360,7,,6.21,29.793306,,,,,,TRUE,,,,,FEW,1800,BKN,14000,,,,,VFR,,,,,,,,,,,,METAR,15.0
WBKK 220630Z 34005KT 280V050 9999 FEW015 BKN140 BKN280 31/24 Q1009 NOSIG,WBKK,2015-02-22T06:30:00Z,5.92,116.03,31.0,24.0,340,5,,6.21,29.793306,,,,,,TRUE,,,,,FEW,1500,BKN,14000,BKN,28000,,,VFR,,,,,,,,,,,,METAR,3.0
RJGG 220630Z 11013KT 9999 VCSH FEW015 SCT025 BKN040 12/10 Q1018 NOSIG,RJGG,2015-02-22T06:30:00Z,34.87,136.8,12.0,10.0,110,13,,6.21,30.059055,,,,,,TRUE,,,,VCSH,FEW,1500,SCT,2500,BKN,4000,,,VFR,,,,,,,,,,,,METAR,5.0
NZCH 220630Z AUTO 19010KT 9999 SCT018/// OVC041/// 17/13 Q1025 NOSIG,NZCH,2015-02-22T06:30:00Z,-43.47,172.55,17.0,13.0,190,10,,6.21,30.265747,,,TRUE,,,TRUE,,,,,,,,,,,,,,,,,,,,,,,,,SPECI,34.0
NZWN 220630Z AUTO 21007KT 9999 BKN019/// BKN100/// 16/15 Q1024 TEMPO BKN004,NZWN,2015-02-22T06:30:00Z,-41.32,174.8,16.0,15.0,210,7,,6.21,30.236221,,,TRUE,,,,,,,,,,,,,,,,,,,,,,,,,,,,SPECI,7.0
NZAA 220630Z AUTO 26008KT 9999 FEW043/// 21/16 Q1022 NOSIG,NZAA,2015-02-22T06:30:00Z,-37.02,174.8,21.0,16.0,260,8,,6.21,30.177166,,,TRUE,,,TRUE,,,,,,,,,,,,,,,,,,,,,,,,,SPECI,6.0
LFML 220630Z 33027KT CAVOK 05/M00 Q0999 TEMPO 33029G45KT,LFML,2015-02-22T06:30:00Z,43.45,5.22,5.0,0.0,330,27,,6.21,29.498032,,,,,,,,,,,CAVOK,,,,,,,,VFR,,,,,,,,,,,,METAR,36.0
FMEP 220630Z AUTO 17006KT 9999 ////// 30/25 Q1015,FMEP,2015-02-22T06:30:00Z,-21.32,55.42,30.0,25.0,170,6,,6.21,29.970472,,,TRUE,,,,,,,,,,,,,,,,,,,,,,,,,,,,METAR,53.0
VTCC 220630Z 15003KT 8000 FEW035 31/09 Q1014 A2995 NOSIG,VTCC,2015-02-22T06:30:00Z,18.77,98.97,31.0,9.0,150,3,,4.97,29.940945,,,,,,TRUE,,,,,FEW,3500,,,,,,,MVFR,,,,,,,,,,,,METAR,314.0
UIII 220630Z 15005MPS CAVOK M12/M20 Q1020 NOSIG RMK QFE722/0963 12810360,UIII,2015-02-22T06:30:00Z,52.27,104.4,-12.0,-20.0,150,10,,6.21,30.11811,,,,,,TRUE,,,,,CAVOK,,,,,,,,VFR,,,,,,,,,,,,METAR,513.0
UIUU 220630Z 00000MPS 9999 SKC M17/M24 Q1023 NOSIG RMK QFE722/0963 26820550,UIUU,2015-02-22T06:30:00Z,51.8,107.45,-17.0,-24.0,0,0,,6.21,30.206694,,,,,,TRUE,,,,,SKC,,,,,,,,VFR,,,,,,,,,,,,METAR,515.0
USCM 220630Z 03002MPS 360V070 9999 SCT020 M03/M08 Q1019 NOSIG 01090060 RMK QFE726,USCM,2015-02-22T06:30:00Z,53.4,58.75,-3.0,-8.0,30,4,,6.21,30.088583,,,,,,TRUE,,,,,SCT,2000,,,,,,,VFR,,,,,,,,,,,,METAR,435.0
UEEE 220630Z 00000MPS CAVOK M30/M33 Q1032 NOSIG RMK QFE765 23490150,UEEE,2015-02-22T06:30:00Z,62.08,129.77,-30.0,-33.0,0,0,,6.21,30.47244,,,,,,TRUE,,,,,CAVOK,,,,,,,,VFR,,,,,,,,,,,,METAR,103.0
USPP 220630Z 23004MPS 9999 BKN037 BKN100 M00/M02 Q1017 21390134 NOSIG RMK QFE752/1002,USPP,2015-02-22T06:30:00Z,57.92,56.02,0.0,-2.0,230,8,,6.21,30.029528,,,,,,TRUE,,,,,BKN,3700,BKN,10000,,,,,VFR,,,-39.0,,,,,,,,,METAR,123.0
UWKD 220630Z 21005G08MPS 5000 BR OVC006 M01/M01 Q1020 R29/7/0045 NOSIG RMK QFE753/1005,UWKD,2015-02-22T06:30:00Z,55.62,49.28,-1.0,-1.0,210,10,16,3.11,30.11811,,,,,,TRUE,,,,BR,OVC,600,,,,,,,IFR,,,,,,,,,,,,METAR,126.0
UWKE 220630Z 21007G10MPS 3000 BR BKN005 M02/M03 Q1020 NOSIG RMK QBB150 QFE748/0997 21510540,UWKE,2015-02-22T06:30:00Z,55.57,52.08,-2.0,-3.0,210,14,19,1.86,30.11811,,,,,,TRUE,,,,BR,BKN,500,,,,,,,IFR,,,-51.0,,,,,,,,,METAR,196.0
UWKS 220630Z 22008MPS 2000 BR OVC004 M01/M02 Q1018 TEMPO 1500 BR OVC003 RMK QBB120 QFE749 24750228,UWKS,2015-02-22T06:30:00Z,56.08,47.35,-1.0,-2.0,220,16,,1.24,30.059055,,,,,,,,,,BR,OVC,400,,,,,,,LIFR,,,,,,,,,,,,METAR,170.0
UWOO 220630Z 27002MPS 4400 BR OVC007 M06/M08 Q1026 26790134 TEMPO 1000 BR RMK QFE759/1012,UWOO,2015-02-22T06:30:00Z,51.8,55.47,-6.0,-8.0,270,4,,2.73,30.295275,,,,,,,,,,BR,OVC,700,,,,,,,IFR,,,,,,,,,,,,METAR,109.0
UWSS 220630Z 28005MPS CAVOK 01/M06 Q1025 30800355 NOSIG RMK QFE755,UWSS,2015-02-22T06:30:00Z,51.57,46.07,1.0,-6.0,280,10,,6.21,30.265747,,,,,,TRUE,,,,,CAVOK,,,,,,,,VFR,,,,,,,,,,,,METAR,166.0
UWWW 220630Z 21004MPS 3200 BR OVC005 M04/M05 Q1023 23420545 15//99// TEMPO 0VC003 RMK QFE756/1008,UWWW,2015-02-22T06:30:00Z,53.5,50.17,-4.0,-5.0,210,8,,1.99,30.206694,,,,,,,,,,BR,OVC,500,,,,,,,IFR,,,,,,,,,,,,METAR,146.0
UIBB 220630Z 09002MPS 9999 SKC M15/M22 Q1022 NOSIG RMK QFE723/0964 30820550,UIBB,2015-02-22T06:30:00Z,56.37,101.7,-15.0,-22.0,90,4,,6.21,30.177166,,,,,,TRUE,,,,,SKC,,,,,,,,VFR,,,,,,,,,,,,METAR,490.0
UIAA 220630Z 35003MPS 300V030 9999 SKC M10/M24 Q1017 NOSIG RMK QFE704 29CLRD70,UIAA,2015-02-22T06:30:00Z,52.02,113.32,-10.0,-24.0,350,6,,6.21,30.029528,,,,,,TRUE,,,,,SKC,,,,,,,,VFR,,,,,,,,,,,,METAR,685.0
UUWW 220630Z 19005MPS 9000 BKN024 BKN100 01/M01 Q1012 24290150 NOSIG,UUWW,2015-02-22T06:30:00Z,55.6,37.27,1.0,-1.0,190,10,,5.59,29.88189,,,,,,TRUE,,,,,BKN,2400,BKN,10000,,,,,MVFR,,,,,,,,,,,,METAR,203.0
UUEE 220630Z 19006MPS 8000 OVC012 01/M01 Q1011 75290145 25290145 NOSIG,UUEE,2015-02-22T06:30:00Z,55.97,37.42,1.0,-1.0,190,12,,4.97,29.852362,,,,,,TRUE,,,,,OVC,1200,,,,,,,MVFR,,,,,,,,,52.9,,,METAR,190.0
UUDL 220630Z 18003MPS 5000 -RA BR OVC011 01/00 Q1009 NOSIG RMK QFE749 23190150,UUDL,2015-02-22T06:30:00Z,57.57,40.17,1.0,0.0,180,6,,3.11,29.793306,,,,,,TRUE,,,,-RA BR,OVC,1100,,,,,,,MVFR,,,,,,,,,,,,METAR,88.0
UUDD 220630Z 20006MPS CAVOK 02/M01 Q1013 64290095 14290095 NOSIG,UUDD,2015-02-22T06:30:00Z,55.4,37.9,2.0,-1.0,200,12,,6.21,29.911417,,,,,,TRUE,,,,,CAVOK,,,,,,,,VFR,,,,,,,,42.9,,,,METAR,168.0
UUBW 220630Z 20004MPS 9999 SCT033 OVC100 02/M01 Q1013 NOSIG RMK SC0.40,UUBW,2015-02-22T06:30:00Z,55.55,38.15,2.0,-1.0,200,8,,6.21,29.911417,,,,,,TRUE,,,,,SCT,3300,OVC,10000,,,,,VFR,,,,,,,,,,,,METAR,115.0
ULLI 220630Z 18004G09MPS 120V280 CAVOK 01/M01 Q0996 88310150 NOSIG,ULLI,2015-02-22T06:30:00Z,59.8,30.27,1.0,-1.0,180,8,17,6.21,29.409449,,,,,,TRUE,,,,,CAVOK,,,,,,,,VFR,,,,,,,,,,,,METAR,4.0
UWGG 220630Z 20004MPS 4900 -RA BR OVC006 01/00 Q1015 NOSIG 18190040 RMK QFE754,UWGG,2015-02-22T06:30:00Z,56.23,43.78,1.0,0.0,200,8,,3.04,29.970472,,,,,,TRUE,,,,-RA BR,OVC,600,,,,,,,IFR,,,,,,,,,,,,METAR,73.0
UUOB 220630Z 19005MPS CAVOK M03/M07 Q1022 11190050 NOSIG,UUOB,2015-02-22T06:30:00Z,50.65,36.58,-3.0,-7.0,190,10,,6.21,30.177166,,,,,,TRUE,,,,,CAVOK,,,,,,,,VFR,,-19.0,,,,,,,,,,METAR,224.0
ULWC 220630Z 21003G06MPS 6000 SCT006 OVC/// M01/M02 Q1005 NOSIG RMK QFE743/0991 SC045,ULWC,2015-02-22T06:30:00Z,59.28,38.02,-1.0,-2.0,210,6,12,3.73,29.675198,,,,,,TRUE,,,,,SCT,600,,,,,,,MVFR,,,,,,,,,,,,METAR,115.0
USHH 220630Z 25004MPS 9999 SCT022 OVC080 M04/M06 Q1002 TEMPO 2000 SN BKN005 RMK QFE748 24////37,USHH,2015-02-22T06:30:00Z,61.03,69.08,-4.0,-6.0,250,8,,6.21,29.586615,,,,,,,,,,,SCT,2200,OVC,8000,,,,,VFR,,,,,,,,,,,,METAR,23.0
USTR 220630Z 27005G08MPS 9999 DRSN SCT020CB OVC053 M00/M04 Q1011 NOSIG RMK QFE749/0999 21CLRD65 30CLRD65,USTR,2015-02-22T06:30:00Z,57.17,65.32,0.0,-4.0,270,10,16,6.21,29.852362,,,,,,TRUE,,,,DRSN,SCT,2000,OVC,5300,,,,,VFR,,,,,,,,,,,,METAR,115.0
UNTT 220630Z 22002MPS 9999 SCT023CB BKN066 OVC230 M09/M12 Q1014 NOSIG RMK QFE746 21490140,UNTT,2015-02-22T06:30:00Z,56.38,85.22,-9.0,-12.0,220,4,,6.21,29.940945,,,,,,TRUE,,,,,SCT,2300,BKN,6600,OVC,23000,,,VFR,,,-49.0,,,,,,,,,METAR,182.0
UNOO 220630Z 18003MPS 1300 R25/0900VP1500U SN BKN006 OVC066 M12/M14 Q1014 25490545 TEMPO 0500 +SN VV003 RMK QBB180 OBST OBSC QFE752,UNOO,2015-02-22T06:30:00Z,54.97,73.32,-12.0,-14.0,180,6,,0.81,29.940945,,,,,,,,,,SN,BKN,600,OVC,6600,,,,,LIFR,,,,,,,,,,,,METAR,95.0
UNNT 220630Z 25007MPS 8000 -SN FEW012 OVC023 M15/M18 Q1018 25490240 16491030 NOSIG RMK QFE754/1005,UNNT,2015-02-22T06:30:00Z,55.02,82.63,-15.0,-18.0,250,14,,4.97,30.059055,,,,,,TRUE,,,,-SN,FEW,1200,OVC,2300,,,,,MVFR,,,,,,,,,,,,METAR,111.0
UNKL 220630Z VRB02MPS 4600 FU BKN170 M13/M22 Q1017 NOSIG RMK QFE737 29////65,UNKL,2015-02-22T06:30:00Z,56.17,92.48,-13.0,-22.0,0,4,,2.86,30.029528,,,,,,TRUE,,,,FU,BKN,17000,,,,,,,IFR,,,,,,,,,,,,METAR,276.0
UNEE 220630Z 15003MPS 9999 BKN020CB OVC066 M10/M12 Q1014 NOSIG RMK QFE738 23451040,UNEE,2015-02-22T06:30:00Z,55.27,86.08,-10.0,-12.0,150,6,,6.21,29.940945,,,,,,TRUE,,,,,BKN,2000,OVC,6600,,,,,MVFR,,,,,,,,,,,,METAR,260.0
UNBB 220630Z 23005MPS 9999 FEW009 SCT100 BKN200 M15/M19 Q1019 NOSIG RMK QFE742/0989 06492035,UNBB,2015-02-22T06:30:00Z,53.37,83.53,-15.0,-19.0,230,10,,6.21,30.088583,,,,,,TRUE,,,,,FEW,900,SCT,10000,BKN,20000,,,VFR,,,,,,,,,,,,METAR,255.0
UNAA 220630Z VRB01MPS 9000 BKN100 M12/M23 Q1017 NOSIG RMK QFE740 52090065,UNAA,2015-02-22T06:30:00Z,53.75,91.4,-12.0,-23.0,0,2,,5.59,30.029528,,,,,,TRUE,,,,,BKN,10000,,,,,,,VFR,9.0,,,,,,,,,,,METAR,245.0
URFF 220630Z 08004MPS CAVOK 01/M02 Q1021 19010065 NOSIG,URFF,2015-02-22T06:30:00Z,45.03,33.98,1.0,-2.0,80,8,,6.21,30.147638,,,,,,TRUE,,,,,CAVOK,,,,,,,,VFR,,,,,,,,,,,,METAR,188.0
URWW 220630Z 25003MPS CAVOK M02/M07 Q1030 NOSIG RMK 29CLRD70,URWW,2015-02-22T06:30:00Z,48.78,44.33,-2.0,-7.0,250,6,,6.21,30.413385,,,,,,TRUE,,,,,CAVOK,,,,,,,,VFR,,,,,,,,,,,,METAR,147.0
URWA 220630Z VRB01MPS CAVOK M01/M09 Q1033 NOSIG RMK QFE777/1036 SC060,URWA,2015-02-22T06:30:00Z,46.28,48.02,-1.0,-9.0,0,2,,6.21,30.501968,,,,,,TRUE,,,,,CAVOK,,,,,,,,VFR,,,,,,,,,,,,METAR,-20.0
URSS 220630Z 08003MPS 9999 SCT024 OVC047 07/03 Q1025 NOSIG RMK R02/05002MPS MT OBSC QFE767 06000070 02//////,URSS,2015-02-22T06:30:00Z,43.45,39.95,7.0,3.0,80,6,,6.21,30.265747,,,,,,TRUE,,,,,SCT,2400,OVC,4700,,,,,VFR,,,,,,,,,,,,METAR,16.0
URRR 220630Z 10005MPS CAVOK M02/M05 Q1027 04CLRD70 NOSIG,URRR,2015-02-22T06:30:00Z,47.25,39.82,-2.0,-5.0,100,10,,6.21,30.324802,,,,,,TRUE,,,,,CAVOK,,,,,,,,VFR,,,,,,,,,,,,METAR,77.0
URMT 220630Z 13006MPS CAVOK M02/M06 Q1025 NOSIG RMK QFE728 SC060,URMT,2015-02-22T06:30:00Z,45.12,42.12,-2.0,-6.0,130,12,,6.21,30.265747,,,,,,TRUE,,,,,CAVOK,,,,,,,,VFR,,,,,,,,,,,,METAR,453.0
URMO 220630Z VRB01MPS 8000 SKC M03/M03 Q1027 NOSIG RMK QFE726/0968 SC070,URMO,2015-02-22T06:30:00Z,43.2,44.6,-3.0,-3.0,0,2,,4.97,30.324802,,,,,,TRUE,,,,,SKC,,,,,,,,MVFR,,,,,,,,,,,,METAR,510.0
URMN 220630Z 10001MPS 9999 SKC M02/M04 Q1027 NOSIG RMK QFE733 SC055,URMN,2015-02-22T06:30:00Z,43.52,43.63,-2.0,-4.0,100,2,,6.21,30.324802,,,,,,TRUE,,,,,SKC,,,,,,,,VFR,,,,,,,,,,,,METAR,445.0
URMM 220630Z 09006MPS 9999 SCT003 M02/M03 Q1027 R12/70D NOSIG RMK QBB100 MT OBSC QFE742/0989,URMM,2015-02-22T06:30:00Z,44.22,43.1,-2.0,-3.0,90,12,,6.21,30.324802,,,,,,TRUE,,,,,SCT,300,,,,,,,VFR,,,,,,,,,,,,METAR,314.0
URML 220630Z 32002MPS 280V360 9999 SCT100 03/M03 Q1031 NOSIG RMK QFE773/1031 SC070,URML,2015-02-22T06:30:00Z,42.82,47.65,3.0,-3.0,320,4,,6.21,30.442913,,,,,,TRUE,,,,,SCT,10000,,,,,,,VFR,,,,,,,,,,,,METAR,4.0
URKK 220630Z 08003MPS 7000 SKC M02/M04 Q1025 TEMPO 2000 BR SCT005 RMK QFE765 SC050,URKK,2015-02-22T06:30:00Z,45.03,39.15,-2.0,-4.0,80,6,,4.35,30.265747,,,,,,,,,,,SKC,,,,,,,,MVFR,,,,,,,,,,,,METAR,34.0
URKA 220630Z 14003MPS CAVOK 07/03 Q1024 NOSIG RMK QFE764/1019 SC070,URKA,2015-02-22T06:30:00Z,45.0,37.35,7.0,3.0,140,6,,6.21,30.236221,,,,,,TRUE,,,,,CAVOK,,,,,,,,VFR,,,,,,,,,,,,METAR,53.0
USSS 220630Z 27008MPS 9999 BKN013 OVC067 M01/M03 Q1015 7639//35 NOSIG RMK QFE741,USSS,2015-02-22T06:30:00Z,56.75,60.82,-1.0,-3.0,270,16,,6.21,29.970472,,,,,,TRUE,,,,,BKN,1300,OVC,6700,,,,,MVFR,,,,,,,,,,,,METAR,233.0
USRR 220630Z 18004MPS 2600 -SN OVC031 M13/M15 Q1004 TEMPO 1500 SN BKN005 RMK OBST OBSC QFE747 25////40,USRR,2015-02-22T06:30:00Z,61.33,73.42,-13.0,-15.0,180,8,,1.62,29.64567,,,,,,,,,,-SN,OVC,3100,,,,,,,IFR,,,,,,,,,,,,METAR,44.0
USNN 220630Z 13005MPS CAVOK M12/M17 Q1006 NOSIG RMK QFE750 21410265,USNN,2015-02-22T06:30:00Z,60.95,76.48,-12.0,-17.0,130,10,,6.21,29.704725,,,,,,TRUE,,,,,CAVOK,,,,,,,,VFR,,,-41.0,,,,,,,,,METAR,54.0
USCC 220630Z 28007MPS 9999 DRSN BKN026 OVC070 M02/M06 Q1017 27400260 NOSIG RMK QFE742,USCC,2015-02-22T06:30:00Z,55.3,61.5,-2.0,-6.0,280,14,,6.21,30.029528,,,,,,TRUE,,,,DRSN,BKN,2600,OVC,7000,,,,,MVFR,,,,,,,,,,,,METAR,234.0
UWUU 220630Z 21006MPS 9999 OVC030 M03/M04 Q1022 14610350 NOSIG RMK QFE756/1008 MOD ICE INC,UWUU,2015-02-22T06:30:00Z,54.57,55.87,-3.0,-4.0,210,12,,6.21,30.177166,,,,,,TRUE,,,,,OVC,3000,,,,,,,MVFR,,,,,,,,,,,,METAR,137.0
UHWW 220630Z 16004MPS 9999 SCT008 BKN016CB OVC100 04/03 Q1002 NOSIG RMK QFE750/1000 2529//60,UHWW,2015-02-22T06:30:00Z,43.4,132.15,4.0,3.0,160,8,,6.21,29.586615,,,,,,TRUE,,,,,SCT,800,BKN,1600,OVC,10000,,,MVFR,,,,,,,,,,,,METAR,184.0
UHSS 220630Z 20003MPS 3100 SHRASN BR BKN007 BKN011CB M00/M01 Q1019 NOSIG RMK MT OBSC QFE763/1018 19690535,UHSS,2015-02-22T06:30:00Z,46.88,142.72,0.0,-1.0,200,6,,1.93,30.088583,,,,,,TRUE,,,,SHRA SHSN BR,BKN,700,BKN,1100,,,,,IFR,,,,,,,,,,,,METAR,31.0
UHMM 220630Z 30001MPS 9999 SKC M17/M29 Q1018 NOSIG RMK QFE749 88950545,UHMM,2015-02-22T06:30:00Z,59.92,150.72,-17.0,-29.0,300,2,,6.21,30.059055,,,,,,TRUE,,,,,SKC,,,,,,,,VFR,,,,,,,,,,,,METAR,118.0
UHBB 220630Z 05005MPS 010V070 1900 SHSN VV007 M03/M03 Q1003 TEMPO 0800 +SHSN VV002 RMK QFE735/0980 36490230,UHBB,2015-02-22T06:30:00Z,50.43,127.42,-3.0,-3.0,50,10,,1.18,29.616142,,,,,,,,,,SHSN,OVX,0,,,,,,,LIFR,,,,,,,,,,,700,METAR,195.0
VIJP 220630Z VRB08KT 4000 HZ NSC 28/11 Q1018 NOSIG,VIJP,2015-02-22T06:30:00Z,26.82,75.78,28.0,11.0,0,8,,2.49,30.059055,,,,,,TRUE,,,,HZ,,,,,,,,,,,,,,,,,,,,,METAR,390.0
VIBN 220630Z 23010KT 4000 HZ NSC 27/16 Q1013,VIBN,2015-02-22T06:30:00Z,25.43,82.87,27.0,16.0,230,10,,2.49,29.911417,,,,,,,,,,HZ,,,,,,,,,,,,,,,,,,,,,SPECI,85.0
WAAA 220630Z 27006KT 210V340 9999 FEW020 32/25 Q1008 NOSIG,WAAA,2015-02-22T06:30:00Z,-5.07,119.53,32.0,25.0,270,6,,6.21,29.763779,,,,,,TRUE,,,,,FEW,2000,,,,,,,VFR,,,,,,,,,,,,METAR,14.0
WADD 220630Z 25008KT 220V280 9999 FEW017 31/24 Q1006 NOSIG,WADD,2015-02-22T06:30:00Z,-8.73,115.17,31.0,24.0,250,8,,6.21,29.704725,,,,,,TRUE,,,,,FEW,1700,,,,,,,VFR,,,,,,,,,,,,METAR,216.0
WIDD 220630Z 06015KT 9999 FEW015 29/22 Q1011,WIDD,2015-02-22T06:30:00Z,1.12,104.12,29.0,22.0,60,15,,6.21,29.852362,,,,,,,,,,,FEW,1500,,,,,,,VFR,,,,,,,,,,,,METAR,38.0
WARR 220630Z 31009KT 270V350 9999 FEW018 FEW020TCU 31/23 Q1007 NOSIG,WARR,2015-02-22T06:30:00Z,-7.37,112.78,31.0,23.0,310,9,,6.21,29.734253,,,,,,TRUE,,,,,FEW,1800,FEW,2000,,,,,VFR,,,,,,,,,,,,METAR,2.0
WIMM 220630Z 01010KT 7000 SCT017 32/24 Q1010 NOSIG,WIMM,2015-02-22T06:30:00Z,3.57,98.67,32.0,24.0,10,10,,4.35,29.822834,,,,,,TRUE,,,,,SCT,1700,,,,,,,MVFR,,,,,,,,,,,,METAR,25.0
YPTN 220630Z AUTO 36007KT 9999 // NCD 32/23 Q1007,YPTN,2015-02-22T06:30:00Z,-14.52,132.38,32.0,23.0,360,7,,6.21,29.734253,,,TRUE,,,,,,,,,,,,,,,,,,,,,,,,,,,,METAR,109.0
YSSY 220630Z 08014KT 9999 FEW020 SCT025 26/18 Q1016 NOSIG,YSSY,2015-02-22T06:30:00Z,-33.95,151.17,26.0,18.0,80,14,,6.21,30.0,,,,,,TRUE,,,,,FEW,2000,SCT,2500,,,,,VFR,,,,,,,,,,,,METAR,3.0
YPPH 220630Z 19013KT CAVOK 31/13 Q1012,YPPH,2015-02-22T06:30:00Z,-31.93,115.98,31.0,13.0,190,13,,6.21,29.88189,,,,,,,,,,,CAVOK,,,,,,,,VFR,,,,,,,,,,,,METAR,13.0
YMML 220630Z 16011KT 9999 VCSH SCT090TCU BKN260 33/14 Q1010 INTER 0630/0930 VRB25G40KT 4000 TSRA SCT080CB,YMML,2015-02-22T06:30:00Z,-37.67,144.82,33.0,14.0,160,11,,6.21,29.822834,,,,,,,,,,VCSH,SCT,9000,BKN,26000,,,,,VFR,,,,,,,,,,,,METAR,141.0
YPLM 220630Z 21016KT CAVOK 38/15 Q1002,YPLM,2015-02-22T06:30:00Z,-22.22,114.07,38.0,15.0,210,16,,6.21,29.586615,,,,,,,,,,,CAVOK,,,,,,,,VFR,,,,,,,,,,,,METAR,6.0
YPKU 220630Z AUTO 35009KT 9999 // SCT044 32/22 Q1006,YPKU,2015-02-22T06:30:00Z,-15.77,128.68,32.0,22.0,350,9,,6.21,29.704725,,,TRUE,,,,,,,,SCT,4400,,,,,,,VFR,,,,,,,,,,,,METAR,45.0
YPJT 220630Z AUTO 18010KT 160V220 9999 // NCD 31/13 Q1012,YPJT,2015-02-22T06:30:00Z,-32.1,115.88,31.0,13.0,180,10,,6.21,29.88189,,,TRUE,,,,,,,,,,,,,,,,,,,,,,,,,,,,METAR,30.0
YHID 220630Z AUTO 28010KT 9999 -RA SCT019 SCT025 BKN032 30/26 Q1009,YHID,2015-02-22T06:30:00Z,-10.58,142.3,30.0,26.0,280,10,,6.21,29.793306,,,TRUE,,,,,,,-RA,SCT,1900,SCT,2500,BKN,3200,,,VFR,,,,,,,,,,,,METAR,13.0
YPDN 220630Z 34009KT 9999 FEW017 SCT023 BKN100 29/24 Q1008 RMK DISTANT SHRA,YPDN,2015-02-22T06:30:00Z,-12.42,130.9,29.0,24.0,340,9,,6.21,29.763779,,,,,,,,,,,FEW,1700,SCT,2300,BKN,10000,,,VFR,,,,,,,,,,,,METAR,30.0
YCFS 220630Z AUTO 16013KT 9999 // SCT017 BKN020 OVC026 24/23 Q1013,YCFS,2015-02-22T06:30:00Z,-30.32,153.12,24.0,23.0,160,13,,6.21,29.911417,,,TRUE,,,,,,,,SCT,1700,BKN,2000,OVC,2600,,,MVFR,,,,,,,,,,,,METAR,5.0
YPCC 220630Z 15013KT 9999 FEW022 31/25 Q1010,YPCC,2015-02-22T06:30:00Z,-12.17,96.82,31.0,25.0,150,13,,6.21,29.822834,,,,,,,,,,,FEW,2200,,,,,,,VFR,,,,,,,,,,,,METAR,3.0
YSCB 220630Z 08010KT 9999 FEW050 SCT200 FEW050TCU 28/14 Q1016 RMK TCU TO DIST SW,YSCB,2015-02-22T06:30:00Z,-35.28,149.17,28.0,14.0,80,10,,6.21,30.0,,,,,,,,,,,FEW,5000,SCT,20000,FEW,5000,,,VFR,,,,,,,,,,,,METAR,577.0
YBCS 220630Z 14008KT 9999 FEW025 31/24 Q1006,YBCS,2015-02-22T06:30:00Z,-16.87,145.75,31.0,24.0,140,8,,6.21,29.704725,,,,,,,,,,,FEW,2500,,,,,,,VFR,,,,,,,,,,,,METAR,7.0
YBBN 220630Z 17010KT 9999 VCSH FEW014 BKN069 27/21 Q1008,YBBN,2015-02-22T06:30:00Z,-27.38,153.13,27.0,21.0,170,10,,6.21,29.763779,,,,,,,,,,VCSH,FEW,1400,BKN,6900,,,,,VFR,,,,,,,,,,,,METAR,5.0
YBAS 220630Z 01010KT CAVOK 37/16 Q1007 RMK 7CU091 DISTANT SHOWERS S,YBAS,2015-02-22T06:30:00Z,-23.8,133.9,37.0,16.0,10,10,,6.21,29.734253,,,,,,,,,,,CAVOK,,,,,,,,VFR,,,,,,,,,,,,METAR,541.0
YPAD 220630Z 23011KT CAVOK 35/11 Q1007 NOSIG,YPAD,2015-02-22T06:30:00Z,-34.95,138.52,35.0,11.0,230,11,,6.21,29.734253,,,,,,TRUE,,,,,CAVOK,,,,,,,,VFR,,,,,,,,,,,,METAR,4.0
YPWR 220630Z AUTO 02006KT 9999 // NCD 39/09 Q1007,YPWR,2015-02-22T06:30:00Z,-31.12,136.82,39.0,9.0,20,6,,6.21,29.734253,,,TRUE,,,,,,,,,,,,,,,,,,,,,,,,,,,,METAR,167.0
YBRK 220630Z 22005KT CAVOK 36/21 Q1005,YBRK,2015-02-22T06:30:00Z,-23.37,150.47,36.0,21.0,220,5,,6.21,29.675198,,,,,,,,,,,CAVOK,,,,,,,,VFR,,,,,,,,,,,,METAR,14.0
YSRI 220630Z AUTO 08010KT 9999 // BKN031 BKN044 OVC085 26/19 Q1015,YSRI,2015-02-22T06:30:00Z,-33.6,150.77,26.0,19.0,80,10,,6.21,29.970472,,,TRUE,,,,,,,,BKN,3100,BKN,4400,OVC,8500,,,VFR,,,,,,,,,,,,METAR,21.0
YPPD 220630Z AUTO 02014KT 9999 // SCT017 34/27 Q1002,YPPD,2015-02-22T06:30:00Z,-20.37,118.62,34.0,27.0,20,14,,6.21,29.586615,,,TRUE,,,,,,,,SCT,1700,,,,,,,VFR,,,,,,,,,,,,METAR,6.0
YSNF 220630Z 09015KT 9999 SCT018 BKN180 22/18 Q1016,YSNF,2015-02-22T06:30:00Z,-29.02,167.92,22.0,18.0,90,15,,6.21,30.0,,,,,,,,,,,SCT,1800,BKN,18000,,,,,VFR,,,,,,,,,,,,METAR,109.0
YBMA 220630Z AUTO 26004KT 9999 // SCT081 38/18 Q1007,YBMA,2015-02-22T06:30:00Z,-20.67,139.47,38.0,18.0,260,4,,6.21,29.734253,,,TRUE,,,,,,,,SCT,8100,,,,,,,VFR,,,,,,,,,,,,METAR,344.0
YMLT 220630Z AUTO 33015KT 9999 // NCD 31/12 Q1012,YMLT,2015-02-22T06:30:00Z,-41.52,147.18,31.0,12.0,330,15,,6.21,29.88189,,,TRUE,,,,,,,,,,,,,,,,,,,,,,,,,,,,METAR,178.0
YPKG 220630Z AUTO 15012KT 9999 // NCD 34/08 Q1010,YPKG,2015-02-22T06:30:00Z,-30.77,121.45,34.0,8.0,150,12,,6.21,29.822834,,,TRUE,,,,,,,,,,,,,,,,,,,,,,,,,,,,METAR,360.0
YMHB 220630Z 16013KT CAVOK 27/17 Q1010 RMK 2AC100 3AC160,YMHB,2015-02-22T06:30:00Z,-42.82,147.52,27.0,17.0,160,13,,6.21,29.822834,,,,,,,,,,,CAVOK,,,,,,,,VFR,,,,,,,,,,,,METAR,27.0
YPGV 220630Z 31011KT 9999 FEW018TCU SCT095 30/25 Q1009 RMK CB TOP TO S,YPGV,2015-02-22T06:30:00Z,-12.27,136.82,30.0,25.0,310,11,,6.21,29.793306,,,,,,,,,,,FEW,1800,SCT,9500,,,,,VFR,,,,,,,,,,,,METAR,55.0
YGEL 220630Z 19024KT CAVOK 27/16 Q1009,YGEL,2015-02-22T06:30:00Z,-28.8,114.7,27.0,16.0,190,24,,6.21,29.793306,,,,,,,,,,,CAVOK,,,,,,,,VFR,,,,,,,,,,,,METAR,37.0
YSDU 220630Z AUTO 09009KT 9999 // SCT079 SCT092 34/16 Q1011,YSDU,2015-02-22T06:30:00Z,-32.22,148.57,34.0,16.0,90,9,,6.21,29.852362,,,TRUE,,,,,,,,SCT,7900,SCT,9200,,,,,VFR,,,,,,,,,,,,METAR,275.0
YCIN 220630Z AUTO 35007KT //// // SCT043 SCT053 34/24 Q1003,YCIN,2015-02-22T06:30:00Z,-17.58,123.83,34.0,24.0,350,7,,,29.616142,,,TRUE,,,,,,,,SCT,4300,SCT,5300,,,,,,,,,,,,,,,,,METAR,91.0
YBRM 220630Z 32014KT 9999 FEW016 BKN300 33/27 Q1004,YBRM,2015-02-22T06:30:00Z,-17.93,122.22,33.0,27.0,320,14,,6.21,29.64567,,,,,,,,,,,FEW,1600,BKN,30000,,,,,VFR,,,,,,,,,,,,METAR,9.0
YMAV 220630Z AUTO 03011KT 9999 -SHRA SCT054 SCT074 BKN100 27/18 Q1010 RESHRA,YMAV,2015-02-22T06:30:00Z,-38.03,144.48,27.0,18.0,30,11,,6.21,29.822834,,,TRUE,,,,,,,-SHRA,SCT,5400,SCT,7400,BKN,10000,,,VFR,,,,,,,,,,,,METAR,8.0
YAMB 220630Z AUTO 08007KT 9999 // SCT024 SCT041 BKN100 26/23 Q1009,YAMB,2015-02-22T06:30:00Z,-27.63,152.72,26.0,23.0,80,7,,6.21,29.793306,,,TRUE,,,,,,,,SCT,2400,SCT,4100,BKN,10000,,,VFR,,,,,,,,,,,,METAR,28.0
LPPD 220630Z 36005KT 340V040 9999 BKN016 14/11 Q1033,LPPD,2015-02-22T06:30:00Z,37.72,-25.68,14.0,11.0,360,5,,6.21,30.501968,,,,,,,,,,,BKN,1600,,,,,,,MVFR,,,,,,,,,,,,METAR,72.0
LPAZ 220630Z 30007KT 9999 FEW014 BKN018 14/11 Q1034,LPAZ,2015-02-22T06:30:00Z,36.97,-25.17,14.0,11.0,300,7,,6.21,30.531496,,,,,,,,,,,FEW,1400,BKN,1800,,,,,MVFR,,,,,,,,,,,,METAR,100.0
LPPT 220630Z VRB05KT 9999 FEW018 10/07 Q1020 WS R03,LPPT,2015-02-22T06:30:00Z,38.77,-9.12,10.0,7.0,0,5,,6.21,30.11811,,,,,,,,,,,FEW,1800,,,,,,,VFR,,,,,,,,,,,,METAR,123.0
LPPS 220630Z 01014KT 8000 -RA BKN010 14/13 Q1026,LPPS,2015-02-22T06:30:00Z,33.07,-16.35,14.0,13.0,10,14,,4.97,30.295275,,,,,,,,,,-RA,BKN,1000,,,,,,,MVFR,,,,,,,,,,,,METAR,82.0
LPPR 220630Z 02003KT 300V080 9999 FEW020 BKN030 08/06 Q1020,LPPR,2015-02-22T06:30:00Z,41.22,-8.67,8.0,6.0,20,3,,6.21,30.11811,,,,,,,,,,,FEW,2000,BKN,3000,,,,,MVFR,,,,,,,,,,,,METAR,73.0
LPMA 220630Z 01015KT 320V050 9999 SCT015 14/11 Q1025 RS31015G26KT 0536011KT 2335012G25KT,LPMA,2015-02-22T06:30:00Z,32.7,-16.77,14.0,11.0,10,15,,6.21,30.265747,,,,,,,,,,,SCT,1500,,,,,,,VFR,,,,,,,,,,,,METAR,55.0
LPFR 220630Z 35016KT CAVOK 11/05 Q1017,LPFR,2015-02-22T06:30:00Z,37.02,-7.97,11.0,5.0,350,16,,6.21,30.029528,,,,,,,,,,,CAVOK,,,,,,,,VFR,,,,,,,,,,,,METAR,4.0
UMKK 220630Z 23004MPS 9999 BKN029 BKN100 02/M01 Q1005 R24/19//60 NOSIG RMK QFE753/1004,UMKK,2015-02-22T06:30:00Z,54.88,20.6,2.0,-1.0,230,8,,6.21,29.675198,,,,,,TRUE,,,,,BKN,2900,BKN,10000,,,,,MVFR,,,,,,,,,,,,METAR,21.0
ULMM 220630Z 19002MPS 160V260 9999 BKN026 00/M04 Q0985 NOSIG RMK QFE732 13490143,ULMM,2015-02-22T06:30:00Z,68.78,32.75,0.0,-4.0,190,4,,6.21,29.084646,,,,,,TRUE,,,,,BKN,2600,,,,,,,MVFR,,,,,,,,,,,,METAR,51.0
UUYY 220630Z 21004G07MPS 9999 BKN012CB OVC066 01/M01 Q1009 NOSIG 1939//36 RMK QFE748/0997,UUYY,2015-02-22T06:30:00Z,61.65,50.82,1.0,-1.0,210,8,14,6.21,29.793306,,,,,,TRUE,,,,,BKN,1200,OVC,6600,,,,,MVFR,,,,,,,,,,,,METAR,119.0
UUOO 220630Z 22004G08MPS CAVOK M01/M07 Q1023 NOSIG RMK 30801050,UUOO,2015-02-22T06:30:00Z,51.82,39.23,-1.0,-7.0,220,8,16,6.21,30.206694,,,,,,TRUE,,,,,CAVOK,,,,,,,,VFR,,,,,,,,,,,,METAR,157.0
ULAA 220630Z 22003G06MPS 160V260 9999 OVC012 01/00 Q0997 26920560 NOSIG RMK QFE747/0996,ULAA,2015-02-22T06:30:00Z,64.6,40.72,1.0,0.0,220,6,12,6.21,29.438976,,,,,,TRUE,,,,,OVC,1200,,,,,,,MVFR,,,,,,,,,,,,METAR,19.0
VOCI 220630Z VRB03KT 5000 HZ NSC 31/18 Q1012 NOSIG,VOCI,2015-02-22T06:30:00Z,10.15,76.4,31.0,18.0,0,3,,3.11,29.88189,,,,,,TRUE,,,,HZ,,,,,,,,,,,,,,,,,,,,,METAR,8.0
GABS 220630Z 04010KT CAVOK 21/M04 Q1015 NOSIG,GABS,2015-02-22T06:30:00Z,12.52,-7.95,21.0,-4.0,40,10,,6.21,29.970472,,,,,,TRUE,,,,,CAVOK,,,,,,,,VFR,,,,,,,,,,,,METAR,381.0
VIDP 220630Z 30011KT 2800 HZ NSC 25/12 Q1015 BECMG 3000,VIDP,2015-02-22T06:30:00Z,28.57,77.12,25.0,12.0,300,11,,1.74,29.970472,,,,,,,,,,HZ,,,,,,,,,,,,,,,,,,,,,SPECI,233.0
VILK 220630Z 31010KT 4000 HZ NSC 25/15 Q1013 NOSIG,VILK,2015-02-22T06:30:00Z,26.75,80.87,25.0,15.0,310,10,,2.49,29.911417,,,,,,TRUE,,,,HZ,,,,,,,,,,,,,,,,,,,,,METAR,128.0
VIAR 220630Z 27009KT 4000 HZ SCT100 21/14 Q1016,VIAR,2015-02-22T06:30:00Z,31.7,74.8,21.0,14.0,270,9,,2.49,30.0,,,,,,,,,,HZ,SCT,10000,,,,,,,IFR,,,,,,,,,,,,METAR,234.0
YFRT 220630Z AUTO 16019G30KT //// // ////// 36/13 Q1008,YFRT,2015-02-22T06:30:00Z,-30.83,128.12,36.0,13.0,160,19,30,,29.763779,,,TRUE,,,,,,,,,,,,,,,,,,,,,,,,,,,,METAR,156.0
VOCL 220630Z 21004KT 8000 FEW015 33/18 Q1012 NOSIG,VOCL,2015-02-22T06:30:00Z,11.13,75.95,33.0,18.0,210,4,,4.97,29.88189,,,,,,TRUE,,,,,FEW,1500,,,,,,,MVFR,,,,,,,,,,,,METAR,104.0
OIAW 220630Z 16008KT 9999 SCT025 OVC080 08/06 Q1015,OIAW,2015-02-22T06:30:00Z,31.32,48.77,8.0,6.0,160,8,,6.21,29.970472,,,,,,,,,,,SCT,2500,OVC,8000,,,,,VFR,,,,,,,,,,,,METAR,22.0
WIII 220630Z 33009KT 300V010 9999 FEW022 31/23 Q1008 NOSIG,WIII,2015-02-22T06:30:00Z,-6.13,106.67,31.0,23.0,330,9,,6.21,29.763779,,,,,,TRUE,,,,,FEW,2200,,,,,,,VFR,,,,,,,,,,,,METAR,8.0
LEXJ 220630Z 29010KT 9999 FEW022 BKN044 BKN056 08/06 Q1017,LEXJ,2015-02-22T06:30:00Z,43.42,-3.82,8.0,6.0,290,10,,6.21,30.029528,,,,,,,,,,,FEW,2200,BKN,4400,BKN,5600,,,VFR,,,,,,,,,,,,METAR,6.0
LEPP 220630Z 33008KT 9000 FEW012 SCT028 03/03 Q1012,LEPP,2015-02-22T06:30:00Z,42.77,-1.65,3.0,3.0,330,8,,5.59,29.88189,,,,,,,,,,,FEW,1200,SCT,2800,,,,,VFR,,,,,,,,,,,,METAR,459.0
LEJR 220630Z 00000KT CAVOK 04/04 Q1017,LEJR,2015-02-22T06:30:00Z,36.75,-6.07,4.0,4.0,0,0,,6.21,30.029528,,,,,,,,,,,CAVOK,,,,,,,,VFR,,,,,,,,,,,,METAR,30.0
LEDA 220630Z 28014KT CAVOK 02/M01 Q1007,LEDA,2015-02-22T06:30:00Z,41.73,0.53,2.0,-1.0,280,14,,6.21,29.734253,,,,,,,,,,,CAVOK,,,,,,,,VFR,,,,,,,,,,,,METAR,350.0
LETL 220630Z AUTO 33028KT 9999 FEW030/// SCT036/// BKN044/// 02/M03 Q1008,LETL,2015-02-22T06:30:00Z,40.42,-1.22,2.0,-3.0,330,28,,6.21,29.763779,,,TRUE,,,,,,,,,,,,,,,,,,,,,,,,,,,,METAR,1013.0
LEAG 220630Z AUTO VRB05KT 9999 // NCD 10/05 Q1016,LEAG,2015-02-22T06:30:00Z,,,10.0,5.0,0,5,,6.21,30.0,,,TRUE,,,,,,,,,,,,,,,,,,,,,,,,,,,,METAR,
LESA 220630Z VRB02KT CAVOK M02/M02 Q1016,LESA,2015-02-22T06:30:00Z,40.95,-5.5,-2.0,-2.0,0,2,,6.21,30.0,,,,,,,,,,,CAVOK,,,,,,,,VFR,,,,,,,,,,,,METAR,795.0
LEVS 220630Z 27009KT CAVOK 03/M02 Q1013,LEVS,2015-02-22T06:30:00Z,40.37,-3.77,3.0,-2.0,270,9,,6.21,29.911417,,,,,,,,,,,CAVOK,,,,,,,,VFR,,,,,,,,,,,,METAR,687.0
LEVD 220630Z 30008KT CAVOK M00/M02 Q1015,LEVD,2015-02-22T06:30:00Z,41.72,-4.83,0.0,-2.0,300,8,,6.21,29.970472,,,,,,,,,,,CAVOK,,,,,,,,VFR,,,,,,,,,,,,METAR,854.0
LEGR 220630Z 00000KT 0200 R09/0350N FG VV001 04/04 Q1014,LEGR,2015-02-22T06:30:00Z,37.17,-3.77,4.0,4.0,0,0,,0.12,29.940945,,,,,,,,,,FG,OVX,0,,,,,,,LIFR,,,,,,,,,,,100,METAR,559.0
LEAM 220630Z 32018G28KT 9999 FEW020 14/M03 Q1010,LEAM,2015-02-22T06:30:00Z,36.85,-2.37,14.0,-3.0,320,18,28,6.21,29.822834,,,,,,,,,,,FEW,2000,,,,,,,VFR,,,,,,,,,,,,METAR,21.0
LEMH 220630Z 35021G36KT 320V020 9999 FEW015 FEW025CB 07/M03 Q1003,LEMH,2015-02-22T06:30:00Z,39.87,4.22,7.0,-3.0,350,21,36,6.21,29.616142,,,,,,,,,,,FEW,1500,FEW,2500,,,,,VFR,,,,,,,,,,,,METAR,82.0
LERS 220630Z VRB02KT 9999 FEW035 05/M01 Q1007,LERS,2015-02-22T06:30:00Z,41.13,1.17,5.0,-1.0,0,2,,6.21,29.734253,,,,,,,,,,,FEW,3500,,,,,,,VFR,,,,,,,,,,,,METAR,76.0
LEVT 220630Z 31004KT 9999 RA FEW015 BKN025 03/02 Q1014,LEVT,2015-02-22T06:30:00Z,42.87,-2.72,3.0,2.0,310,4,,6.21,29.940945,,,,,,,,,,RA,FEW,1500,BKN,2500,,,,,MVFR,,,,,,,,,,,,METAR,509.0
LESO 220630Z 32007KT 230V030 9999 FEW030 SCT040 08/05 Q1015,LESO,2015-02-22T06:30:00Z,43.35,-1.8,8.0,5.0,320,7,,6.21,29.970472,,,,,,,,,,,FEW,3000,SCT,4000,,,,,VFR,,,,,,,,,,,,METAR,8.0
LEZG 220630Z 31014KT 290V360 9999 FEW030 SCT075 05/02 Q1012,LEZG,2015-02-22T06:30:00Z,41.67,-1.02,5.0,2.0,310,14,,6.21,29.88189,,,,,,,,,,,FEW,3000,SCT,7500,,,,,VFR,,,,,,,,,,,,METAR,258.0
LEST 220630Z 00000KT 3000 R35/1400U BCFG SCT002 BKN022 06/05 Q1019 TEMPO 1500 BR,LEST,2015-02-22T06:30:00Z,42.88,-8.42,6.0,5.0,0,0,,1.86,30.088583,,,,,,,,,,BCFG,SCT,200,BKN,2200,,,,,IFR,,,,,,,,,,,,SPECI,367.0
LEGE 220630Z VRB04KT CAVOK 04/M05 Q1005,LEGE,2015-02-22T06:30:00Z,41.88,2.77,4.0,-5.0,0,4,,6.21,29.675198,,,,,,,,,,,CAVOK,,,,,,,,VFR,,,,,,,,,,,,METAR,129.0
LECO 220630Z VRB02KT 9999 FEW012 BKN020 BKN030 08/08 Q1019 NOSIG,LECO,2015-02-22T06:30:00Z,43.28,-8.37,8.0,8.0,0,2,,6.21,30.088583,,,,,,TRUE,,,,,FEW,1200,BKN,2000,BKN,3000,,,MVFR,,,,,,,,,,,,METAR,103.0
LEBB 220630Z 33007KT 7000 SCT025 BKN045 08/06 Q1016 NOSIG,LEBB,2015-02-22T06:30:00Z,43.28,-2.92,8.0,6.0,330,7,,4.35,30.0,,,,,,TRUE,,,,,SCT,2500,BKN,4500,,,,,MVFR,,,,,,,,,,,,METAR,34.0
LEAS 220630Z 22006KT 9000 -RA FEW020 BKN030 07/05 Q1018 NOSIG,LEAS,2015-02-22T06:30:00Z,43.53,-6.02,7.0,5.0,220,6,,5.59,30.059055,,,,,,TRUE,,,,-RA,FEW,2000,BKN,3000,,,,,MVFR,,,,,,,,,,,,METAR,134.0
GCFV 220630Z 03020KT 9999 BKN035 16/10 Q1021,GCFV,2015-02-22T06:30:00Z,28.43,-13.87,16.0,10.0,30,20,,6.21,30.147638,,,,,,,,,,,BKN,3500,,,,,,,VFR,,,,,,,,,,,,METAR,23.0
GCRR 220630Z 01009KT 9999 FEW025 BKN035 16/12 Q1022,GCRR,2015-02-22T06:30:00Z,28.93,-13.58,16.0,12.0,10,9,,6.21,30.177166,,,,,,,,,,,FEW,2500,BKN,3500,,,,,VFR,,,,,,,,,,,,METAR,40.0
GCTS 220630Z 07011KT 9999 FEW010 SCT030 16/14 Q1022 NOSIG,GCTS,2015-02-22T06:30:00Z,28.05,-16.57,16.0,14.0,70,11,,6.21,30.177166,,,,,,TRUE,,,,,FEW,1000,SCT,3000,,,,,VFR,,,,,,,,,,,,METAR,72.0
GCXO 220630Z 33018KT 300V360 4000 1500NW R12/0750N -DZ BCFG FEW000 BKN006 BKN013 11/11 Q1023 NOSIG,GCXO,2015-02-22T06:30:00Z,28.48,-16.35,11.0,11.0,330,18,,2.49,30.206694,,,,,,TRUE,,,,BCFG -DZ,FEW,0,BKN,600,BKN,1300,,,IFR,,,,,,,,,,,,SPECI,632.0
GCLP 220630Z 36013KT 9999 FEW010 SCT015 BKN028 16/13 Q1022 NOSIG,GCLP,2015-02-22T06:30:00Z,27.92,-15.37,16.0,13.0,360,13,,6.21,30.177166,,,,,,TRUE,,,,,FEW,1000,SCT,1500,BKN,2800,,,MVFR,,,,,,,,,,,,METAR,25.0
HECA 220630Z 00000KT 4000 BR NSC 13/09 Q1022 NOSIG,HECA,2015-02-22T06:30:00Z,30.12,31.38,13.0,9.0,0,0,,2.49,30.177166,,,,,,TRUE,,,,BR,,,,,,,,,,,,,,,,,,,,,SPECI,74.0
LRCL 220630Z VRB01KT 2000 BR SCT075 M00/M00 Q1011,LRCL,2015-02-22T06:30:00Z,46.78,23.68,0.0,0.0,0,1,,1.24,29.852362,,,,,,,,,,BR,SCT,7500,,,,,,,IFR,,,,,,,,,,,,METAR,413.0
LRBM 220630Z AUTO 11004KT 9999NDV FEW075/// SCT190/// 02/M01 Q1011,LRBM,2015-02-22T06:30:00Z,47.67,23.47,2.0,-1.0,110,4,,,29.852362,,,TRUE,,,,,,,,,,,,,,,,,,,,,,,,,,,,METAR,185.0
LRAR 220630Z 14011KT CAVOK 07/M00 Q1008,LRAR,2015-02-22T06:30:00Z,46.18,21.27,7.0,0.0,140,11,,6.21,29.763779,,,,,,,,,,,CAVOK,,,,,,,,VFR,,,,,,,,,,,,METAR,118.0
LFSN 220630Z AUTO VRB03KT 9999 BKN010 OVC014 02/00 Q1009,LFSN,2015-02-22T06:30:00Z,48.67,6.22,2.0,0.0,0,3,,6.21,29.793306,,,TRUE,,,,,,,,BKN,1000,OVC,1400,,,,,MVFR,,,,,,,,,,,,METAR,217.0
LFQB 220630Z AUTO 30006KT 4200 BR BKN038 M01/M02 Q1011,LFQB,2015-02-22T06:30:00Z,48.32,4.02,-1.0,-2.0,300,6,,2.61,29.852362,,,TRUE,,,,,,,BR,BKN,3800,,,,,,,IFR,,,,,,,,,,,,METAR,118.0
LFQA 220630Z AUTO 00000KT 2400 BCFG NSC M02/M03 Q1011,LFQA,2015-02-22T06:30:00Z,49.2,4.15,-2.0,-3.0,0,0,,1.49,29.852362,,,TRUE,,,,,,,BCFG,,,,,,,,,,,,,,,,,,,,,METAR,95.0
LFPB 220630Z AUTO 25002KT 3000 0700 R27/1500U R09/P2000 R07/1700U BCFG NSC M01/M02 Q1011,LFPB,2015-02-22T06:30:00Z,48.97,2.45,-1.0,-2.0,250,2,,1.86,29.852362,,,TRUE,,,,,,,BCFG,,,,,,,,,,,,,,,,,,,,,SPECI,65.0
LFOP 220630Z AUTO 20003KT 1800 R22/1400U BR SCT022 SCT028 M02/M02 Q1010,LFOP,2015-02-22T06:30:00Z,49.37,1.17,-2.0,-2.0,200,3,,1.12,29.822834,,,TRUE,,,,,,,BR,SCT,2200,SCT,2800,,,,,IFR,,,,,,,,,,,,SPECI,157.0
LFOK 220630Z AUTO 21002KT 7000 FEW037 M01/M01 Q1010,LFOK,2015-02-22T06:30:00Z,48.78,4.18,-1.0,-1.0,210,2,,4.35,29.822834,,,TRUE,,,,,,,,FEW,3700,,,,,,,MVFR,,,,,,,,,,,,METAR,162.0
LFOH 220630Z AUTO 20006KT 9999 FEW023 03/01 Q1010,LFOH,2015-02-22T06:30:00Z,49.52,0.07,3.0,1.0,200,6,,6.21,29.822834,,,TRUE,,,,,,,,FEW,2300,,,,,,,VFR,,,,,,,,,,,,METAR,103.0
LFOB 220630Z AUTO VRB02KT 2200 BR NSC M04/M05 Q1011,LFOB,2015-02-22T06:30:00Z,49.47,2.12,-4.0,-5.0,0,2,,1.37,29.852362,,,TRUE,,,,,,,BR,,,,,,,,,,,,,,,,,,,,,METAR,111.0
LFMU 220630Z AUTO 31013KT 9999 NSC 05/M05 Q1006,LFMU,2015-02-22T06:30:00Z,43.32,3.35,5.0,-5.0,310,13,,6.21,29.704725,,,TRUE,,,,,,,,,,,,,,,,,,,,,,,,,,,,SPECI,17.0
LFMT 220630Z 34008KT CAVOK 05/M05 Q1004 NOSIG,LFMT,2015-02-22T06:30:00Z,43.57,3.97,5.0,-5.0,340,8,,6.21,29.64567,,,,,,TRUE,,,,,CAVOK,,,,,,,,VFR,,,,,,,,,,,,METAR,6.0
LFLY 220630Z AUTO 35013KT 9999 OVC035 03/M01 Q1008,LFLY,2015-02-22T06:30:00Z,45.72,4.95,3.0,-1.0,350,13,,6.21,29.763779,,,TRUE,,,,,,,,OVC,3500,,,,,,,VFR,,,,,,,,,,,,METAR,201.0
LFLU 220630Z AUTO 36021KT 9999 SCT035 BKN058 OVC090 03/M01 Q1006,LFLU,2015-02-22T06:30:00Z,44.92,4.98,3.0,-1.0,360,21,,6.21,29.704725,,,TRUE,,,,,,,,SCT,3500,BKN,5800,OVC,9000,,,VFR,,,,,,,,,,,,METAR,160.0
LFLS 220630Z AUTO 35018KT 330V030 7000 -SN OVC010 01/M01 Q1006,LFLS,2015-02-22T06:30:00Z,45.37,5.32,1.0,-1.0,350,18,,4.35,29.704725,,,TRUE,,,,,,,-SN,OVC,1000,,,,,,,MVFR,,,,,,,,,,,,METAR,386.0
LFLP 220630Z AUTO 29004KT 260V350 9999 FEW024 BKN037 OVC048 01/M01 Q1006,LFLP,2015-02-22T06:30:00Z,45.92,6.08,1.0,-1.0,290,4,,6.21,29.704725,,,TRUE,,,,,,,,FEW,2400,BKN,3700,OVC,4800,,,VFR,,,,,,,,,,,,METAR,463.0
LFJL 220630Z AUTO 30004KT 9999 FEW013 SCT018 OVC028 01/00 Q1009,LFJL,2015-02-22T06:30:00Z,48.97,6.25,1.0,0.0,300,4,,6.21,29.793306,,,TRUE,,,,,,,,FEW,1300,SCT,1800,OVC,2800,,,MVFR,,,,,,,,,,,,METAR,264.0
LFCR 220630Z AUTO 31010KT 9999 FEW033 M02/M03 Q1008,LFCR,2015-02-22T06:30:00Z,44.38,2.47,-2.0,-3.0,310,10,,6.21,29.763779,,,TRUE,,,,,,,,FEW,3300,,,,,,,VFR,,,,,,,,,,,,METAR,580.0
LFTH 220630Z AUTO 35011KT 320V040 9999 OVC038 07/00 Q0997,LFTH,2015-02-22T06:30:00Z,43.1,6.15,7.0,0.0,350,11,,6.21,29.438976,,,TRUE,,,,,,,,OVC,3800,,,,,,,VFR,,,,,,,,,,,,METAR,4.0
LFST 220630Z AUTO 32006KT 8000 BKN012 BKN017 OVC022 03/02 Q1009,LFST,2015-02-22T06:30:00Z,48.53,7.62,3.0,2.0,320,6,,4.97,29.793306,,,TRUE,,,,,,,,BKN,1200,BKN,1700,OVC,2200,,,MVFR,,,,,,,,,,,,METAR,154.0
LFSG 220630Z AUTO 35005KT 260V030 9999 SCT011 OVC046 02/M00 Q1009,LFSG,2015-02-22T06:30:00Z,48.33,6.07,2.0,0.0,350,5,,6.21,29.793306,,,TRUE,,,,,,,,SCT,1100,OVC,4600,,,,,VFR,,,,,,,,,,,,METAR,330.0
LFSB 220630Z 31003KT 7000 -RA BKN009 01/01 Q1008 NOSIG,LFSB,2015-02-22T06:30:00Z,47.6,7.52,1.0,1.0,310,3,,4.35,29.763779,,,,,,TRUE,,,,-RA,BKN,900,,,,,,,IFR,,,,,,,,,,,,METAR,271.0
LFRZ 220630Z AUTO 29004KT 9999 NSC 02/00 Q1013,LFRZ,2015-02-22T06:30:00Z,47.32,-2.17,2.0,0.0,290,4,,6.21,29.911417,,,TRUE,,,,,,,,,,,,,,,,,,,,,,,,,,,,SPECI,4.0
LFRV 220630Z AUTO 27004KT 9999 NSC 00/M00 Q1012,LFRV,2015-02-22T06:30:00Z,47.72,-2.72,0.0,0.0,270,4,,6.21,29.88189,,,TRUE,,,,,,,,,,,,,,,,,,,,,,,,,,,,METAR,133.0
LFRO 220630Z AUTO 17004KT 9999 FEW034 BKN052 00/M01 Q1011,LFRO,2015-02-22T06:30:00Z,48.75,-3.47,0.0,-1.0,170,4,,6.21,29.852362,,,TRUE,,,,,,,,FEW,3400,BKN,5200,,,,,VFR,,,,,,,,,,,,METAR,89.0
LFRN 220630Z AUTO 19003KT 8000 NSC M01/M02 Q1012,LFRN,2015-02-22T06:30:00Z,48.07,-1.72,-1.0,-2.0,190,3,,4.97,29.88189,,,TRUE,,,,,,,,,,,,,,,,,,,,,,,,,,,,METAR,37.0
LFRM 220630Z AUTO VRB02KT 6000 SCT002 M03/M03 Q1012,LFRM,2015-02-22T06:30:00Z,47.95,0.2,-3.0,-3.0,0,2,,3.73,29.88189,,,TRUE,,,,,,,,SCT,200,,,,,,,MVFR,,,,,,,,,,,,METAR,52.0
LFRI 220630Z AUTO 30003KT 4600 BR NSC M01/M01 Q1013,LFRI,2015-02-22T06:30:00Z,46.7,-1.37,-1.0,-1.0,300,3,,2.86,29.911417,,,TRUE,,,,,,,BR,,,,,,,,,,,,,,,,,,,,,METAR,91.0
LFRD 220630Z AUTO 19005KT 9999 NSC 00/M01 Q1012,LFRD,2015-02-22T06:30:00Z,48.58,-2.07,0.0,-1.0,190,5,,6.21,29.88189,,,TRUE,,,,,,,,,,,,,,,,,,,,,,,,,,,,METAR,59.0
LFOV 220630Z AUTO VRB01KT 9999 NSC M01/M01 Q1012,LFOV,2015-02-22T06:30:00Z,48.03,-0.75,-1.0,-1.0,0,1,,6.21,29.88189,,,TRUE,,,,,,,,,,,,,,,,,,,,,,,,,,,,METAR,101.0
LFMK 220630Z AUTO 28013KT 9999 OVC019 03/00 Q1011,LFMK,2015-02-22T06:30:00Z,43.22,2.32,3.0,0.0,280,13,,6.21,29.852362,,,TRUE,,,,,,,,OVC,1900,,,,,,,MVFR,,,,,,,,,,,,METAR,130.0
LFMI 220630Z AUTO 35031G42KT 9999 FEW035 06/M01 Q1000,LFMI,2015-02-22T06:30:00Z,43.52,4.92,6.0,-1.0,350,31,42,6.21,29.52756,,,TRUE,,,,,,,,FEW,3500,,,,,,,VFR,,,,,,,,,,,,METAR,24.0
LFTW 220630Z AUTO 35019G31KT 310V010 9999 NSC 05/M04 Q1002,LFTW,2015-02-22T06:30:00Z,43.75,4.42,5.0,-4.0,350,19,31,6.21,29.586615,,,TRUE,,,,,,,,,,,,,,,,,,,,,,,,,,,,METAR,96.0
LFSD 220630Z AUTO 36007KT 9999 BKN022 OVC030 02/00 Q1010,LFSD,2015-02-22T06:30:00Z,47.27,5.07,2.0,0.0,360,7,,6.21,29.822834,,,TRUE,,,,,,,,BKN,2200,OVC,3000,,,,,MVFR,,,,,,,,,,,,METAR,227.0
LFRQ 220630Z AUTO 00000KT 9999 NSC M00/M01 Q1012,LFRQ,2015-02-22T06:30:00Z,47.97,-4.17,0.0,-1.0,0,0,,6.21,29.88189,,,TRUE,,,,,,,,,,,,,,,,,,,,,,,,,,,,METAR,94.0
LFRH 220630Z AUTO 00000KT 9999 NSC M01/M01 Q1013,LFRH,2015-02-22T06:30:00Z,47.77,-3.45,-1.0,-1.0,0,0,,6.21,29.911417,,,TRUE,,,,,,,,,,,,,,,,,,,,,,,,,,,,SPECI,44.0
LFPT 220630Z AUTO 00000KT 0650 R05/1300D FZFG NSC M02/M03 Q1011,LFPT,2015-02-22T06:30:00Z,49.1,2.03,-2.0,-3.0,0,0,,0.4,29.852362,,,TRUE,,,,,,,FZFG,,,,,,,,,,,,,,,,,,,,,METAR,99.0
LFPM 220630Z AUTO 21003KT 3700 BR NSC M02/M02 Q1011,LFPM,2015-02-22T06:30:00Z,48.62,2.67,-2.0,-2.0,210,3,,2.3,29.852362,,,TRUE,,,,,,,BR,,,,,,,,,,,,,,,,,,,,,METAR,92.0
LFLN 220630Z AUTO 31008KT 9999 FEW007 OVC036 01/00 Q1010,LFLN,2015-02-22T06:30:00Z,46.42,4.02,1.0,0.0,310,8,,6.21,29.822834,,,TRUE,,,,,,,,FEW,700,OVC,3600,,,,,VFR,,,,,,,,,,,,METAR,244.0
LFGA 220630Z AUTO VRB02KT 9999 OVC031 02/01 Q1009,LFGA,2015-02-22T06:30:00Z,48.1,7.35,2.0,1.0,0,2,,6.21,29.793306,,,TRUE,,,,,,,,OVC,3100,,,,,,,VFR,,,,,,,,,,,,METAR,191.0
LFBU 220630Z AUTO 00000KT 0200 R28/0700N FZFG SCT005 M03/M03 Q1013,LFBU,2015-02-22T06:30:00Z,45.72,0.22,-3.0,-3.0,0,0,,0.12,29.911417,,,TRUE,,,,,,,FZFG,SCT,500,,,,,,,LIFR,,,,,,,,,,,,METAR,133.0
LFAT 220630Z AUTO 14004KT 7000 NSC M01/M02 Q1010,LFAT,2015-02-22T06:30:00Z,50.52,1.62,-1.0,-2.0,140,4,,4.35,29.822834,,,TRUE,,,,,,,,,,,,,,,,,,,,,,,,,,,,METAR,14.0
LFAQ 220630Z AUTO VRB02KT 2700 BR NSC M01/M02 Q1010,LFAQ,2015-02-22T06:30:00Z,49.97,2.7,-1.0,-2.0,0,2,,1.68,29.822834,,,TRUE,,,,,,,BR,,,,,,,,,,,,,,,,,,,,,METAR,111.0
LFLX 220630Z 26005KT 6000 NSC M03/M03 Q1012 NOSIG,LFLX,2015-02-22T06:30:00Z,46.85,1.72,-3.0,-3.0,260,5,,3.73,29.88189,,,,,,TRUE,,,,,,,,,,,,,,,,,,,,,,,,,SPECI,157.0
LFLB 220630Z 02010KT 9999 -RA FEW023 BKN033 02/01 Q1006 BECMG 36015G25KT,LFLB,2015-02-22T06:30:00Z,45.63,5.87,2.0,1.0,20,10,,6.21,29.704725,,,,,,,,,,-RA,FEW,2300,BKN,3300,,,,,VFR,,,,,,,,,,,,SPECI,239.0
LFCK 220630Z AUTO 30010KT 9999 OVC011 01/M01 Q1011,LFCK,2015-02-22T06:30:00Z,43.55,2.28,1.0,-1.0,300,10,,6.21,29.852362,,,TRUE,,,,,,,,OVC,1100,,,,,,,MVFR,,,,,,,,,,,,METAR,240.0
LFBZ 220630Z AUTO 05007KT 020V080 9999 BKN029/// BKN039/// OVC054/// ///TCU 06/03 Q1015,LFBZ,2015-02-22T06:30:00Z,43.47,-1.52,6.0,3.0,50,7,,6.21,29.970472,,,TRUE,,,,,,,,,,,,,,,,,,,,,,,,,,,,SPECI,71.0
LFBT 220630Z AUTO 26007KT 230V290 9999 FEW016 SCT064 02/01 Q1014,LFBT,2015-02-22T06:30:00Z,43.17,0.0,2.0,1.0,260,7,,6.21,29.940945,,,TRUE,,,,,,,,FEW,1600,SCT,6400,,,,,VFR,,,,,,,,,,,,METAR,363.0
LFBP 220630Z AUTO VRB02KT 9999 BKN052 OVC084 03/02 Q1014,LFBP,2015-02-22T06:30:00Z,43.37,-0.42,3.0,2.0,0,2,,6.21,29.940945,,,TRUE,,,,,,,,BKN,5200,OVC,8400,,,,,VFR,,,,,,,,,,,,METAR,185.0
LFBO 220630Z AUTO 29012KT 9999 FEW008 02/00 Q1012,LFBO,2015-02-22T06:30:00Z,43.62,1.37,2.0,0.0,290,12,,6.21,29.88189,,,TRUE,,,,,,,,FEW,800,,,,,,,VFR,,,,,,,,,,,,METAR,153.0
LFBL 220630Z AUTO 36005KT 320V030 9999 OVC002 M01/M01 Q1011,LFBL,2015-02-22T06:30:00Z,45.87,1.17,-1.0,-1.0,360,5,,6.21,29.852362,,,TRUE,,,,,,,,OVC,200,,,,,,,LIFR,,,,,,,,,,,,METAR,402.0
LFBI 220630Z AUTO 29002KT 9999 NSC M02/M03 Q1013,LFBI,2015-02-22T06:30:00Z,46.57,0.32,-2.0,-3.0,290,2,,6.21,29.911417,,,TRUE,,,,,,,,,,,,,,,,,,,,,,,,,,,,METAR,120.0
LFBH 220630Z AUTO 36006KT 9999 NSC 03/01 Q1014,LFBH,2015-02-22T06:30:00Z,46.18,-1.2,3.0,1.0,360,6,,6.21,29.940945,,,TRUE,,,,,,,,,,,,,,,,,,,,,,,,,,,,SPECI,10.0
LFBD 220630Z AUTO VRB01KT 9999 1900 NSC M00/M01 Q1014,LFBD,2015-02-22T06:30:00Z,44.82,-0.7,0.0,-1.0,0,1,,6.21,29.940945,,,TRUE,,,,,,,,,,,,,,,,,,,,,,,,,,,,SPECI,61.0
LFYR 220630Z AUTO 00000KT 0150 FZFG NSC M06/M06 Q1012,LFYR,2015-02-22T06:30:00Z,47.32,1.67,-6.0,-6.0,0,0,,0.09,29.88189,,,TRUE,,,,,,,FZFG,,,,,,,,,,,,,,,,,,,,,METAR,86.0
LFSX 220630Z AUTO 31003KT 4400 BR OVC041 01/00 Q1009,LFSX,2015-02-22T06:30:00Z,47.77,6.33,1.0,0.0,310,3,,2.73,29.793306,,,TRUE,,,,,,,BR,OVC,4100,,,,,,,IFR,,,,,,,,,,,,METAR,273.0
LFSO 220630Z AUTO 33003KT 4800 BR SCT010 BKN017 OVC022 01/01 Q1009,LFSO,2015-02-22T06:30:00Z,48.57,5.97,1.0,1.0,330,3,,2.98,29.793306,,,TRUE,,,,,,,BR,SCT,1000,BKN,1700,OVC,2200,,,IFR,,,,,,,,,,,,METAR,350.0
LFSI 220630Z AUTO 32007KT //// R29///// // OVC006 02/00 Q1011,LFSI,2015-02-22T06:30:00Z,48.62,4.9,2.0,0.0,320,7,,,29.852362,,,TRUE,,,,,,,,OVC,600,,,,,,,,,,,,,,,,,,,SPECI,140.0
LFRL 220630Z AUTO 17004KT 9999 NSC 04/02 Q1012,LFRL,2015-02-22T06:30:00Z,48.27,-4.42,4.0,2.0,170,4,,6.21,29.88189,,,TRUE,,,,,,,,,,,,,,,,,,,,,,,,,,,,METAR,82.0
LFRJ 220630Z AUTO 17008KT 9999 FEW028 SCT110 BKN200 01/00 Q1011,LFRJ,2015-02-22T06:30:00Z,48.52,-4.15,1.0,0.0,170,8,,6.21,29.852362,,,TRUE,,,,,,,,FEW,2800,SCT,11000,BKN,20000,,,VFR,,,,,,,,,,,,METAR,115.0
LFOJ 220630Z AUTO 24003KT 6000 NSC M03/M04 Q1012,LFOJ,2015-02-22T06:30:00Z,47.97,1.75,-3.0,-4.0,240,3,,3.73,29.88189,,,TRUE,,,,,,,,,,,,,,,,,,,,,,,,,,,,SPECI,125.0
LFOE 220630Z AUTO 25005KT 0400 R22/1500U FZFG NSC M03/M03 Q1011,LFOE,2015-02-22T06:30:00Z,49.02,1.22,-3.0,-3.0,250,5,,0.25,29.852362,,,TRUE,,,,,,,FZFG,,,,,,,,,,,,,,,,,,,,,SPECI,146.0
LFOC 220630Z AUTO 28004KT 9999 NSC M03/M03 Q1012,LFOC,2015-02-22T06:30:00Z,48.03,1.37,-3.0,-3.0,280,4,,6.21,29.88189,,,TRUE,,,,,,,,,,,,,,,,,,,,,,,,,,,,METAR,127.0
LRTC 220630Z 14013KT 9999 BKN015 04/04 Q1017,LRTC,2015-02-22T06:30:00Z,45.07,28.72,4.0,4.0,140,13,,6.21,30.029528,,,,,,,,,,,BKN,1500,,,,,,,MVFR,,,,,,,,,,,,METAR,6.0
LRSV 220630Z 19005KT 0200 R34/0275N FZFG VV001 M01/M01 Q1012,LRSV,2015-02-22T06:30:00Z,47.68,26.35,-1.0,-1.0,190,5,,0.12,29.88189,,,,,,,,,,FZFG,OVX,0,,,,,,,LIFR,,,,,,,,,,,100,METAR,351.0
LRIA 220630Z 14007KT 9999 OVC010 02/01 Q1015 R14/19//95,LRIA,2015-02-22T06:30:00Z,47.17,27.62,2.0,1.0,140,7,,6.21,29.970472,,,,,,,,,,,OVC,1000,,,,,,,MVFR,,,,,,,,,,,,METAR,104.0
LRCV 220630Z 05002KT 6000 NSC 02/M00 Q1013,LRCV,2015-02-22T06:30:00Z,44.32,23.88,2.0,0.0,50,2,,3.73,29.911417,,,,,,,,,,,,,,,,,,,,,,,,,,,,,,,METAR,191.0
LRBC 220630Z 17011KT 1000 R34/1100V1800U BR VV002 01/01 Q1014 R16/09//95,LRBC,2015-02-22T06:30:00Z,46.52,26.92,1.0,1.0,170,11,,0.62,29.940945,,,,,,,,,,BR,OVX,0,,,,,,,LIFR,,,,,,,,,,,200,METAR,185.0
LFPV 220630Z AUTO 24002KT 9000 NSC M01/M02 Q1011,LFPV,2015-02-22T06:30:00Z,48.77,2.2,-1.0,-2.0,240,2,,5.59,29.852362,,,TRUE,,,,,,,,,,,,,,,,,,,,,,,,,,,,SPECI,179.0
LFPC 220630Z AUTO 00000KT 8000 ////// M03/M03 Q1011,LFPC,2015-02-22T06:30:00Z,49.25,2.52,-3.0,-3.0,0,0,,4.97,29.852362,,,TRUE,,,,,,,,,,,,,,,,,,,,,,,,,,,,METAR,88.0
LFOA 220630Z AUTO 14002KT 4500 BR NSC M02/M03 Q1012,LFOA,2015-02-22T06:30:00Z,47.03,2.63,-2.0,-3.0,140,2,,2.8,29.88189,,,TRUE,,,,,,,BR,,,,,,,,,,,,,,,,,,,,,SPECI,179.0
LFMY 220630Z AUTO 34028G39KT 9999 NSC 05/M00 Q0999,LFMY,2015-02-22T06:30:00Z,43.6,5.08,5.0,0.0,340,28,39,6.21,29.498032,,,TRUE,,,,,,,,,,,,,,,,,,,,,,,,,,,,METAR,60.0
LFMO 220630Z AUTO 36027G42KT 9999 SCT030 BKN038 05/M00 Q1003,LFMO,2015-02-22T06:30:00Z,44.12,4.87,5.0,0.0,360,27,42,6.21,29.616142,,,TRUE,,,,,,,,SCT,3000,BKN,3800,,,,,VFR,,,,,,,,,,,,METAR,55.0
LFMC 220630Z AUTO 22004KT 180V240 9999 BKN026 BKN032 OVC040 04/01 Q0997,LFMC,2015-02-22T06:30:00Z,43.37,6.37,4.0,1.0,220,4,,6.21,29.438976,,,TRUE,,,,,,,,BKN,2600,BKN,3200,OVC,4000,,,MVFR,,,,,,,,,,,,METAR,78.0
LFKS 220630Z AUTO 30003KT 270V020 9999 BKN029 OVC037 08/07 Q0995,LFKS,2015-02-22T06:30:00Z,41.92,9.4,8.0,7.0,300,3,,6.21,29.379921,,,TRUE,,,,,,,,BKN,2900,OVC,3700,,,,,MVFR,,,,,,,,,,,,METAR,22.0
LFBM 220630Z AUTO 00000KT 0350 R27/P2000 FZFG NSC M00/M01 Q1015,LFBM,2015-02-22T06:30:00Z,43.92,-0.5,0.0,-1.0,0,0,,0.22,29.970472,,,TRUE,,,,,,,FZFG,,,,,,,,,,,,,,,,,,,,,SPECI,63.0
LFBG 220630Z AUTO 00000KT 5000 BCFG NSC M01/M02 Q1014,LFBG,2015-02-22T06:30:00Z,45.67,-0.32,-1.0,-2.0,0,0,,3.11,29.940945,,,TRUE,,,,,,,BCFG,,,,,,,,,,,,,,,,,,,,,SPECI,31.0
LFBC 220630Z AUTO 27001KT 0700 R24/1800D FG FEW035 01/00 Q1015,LFBC,2015-02-22T06:30:00Z,44.52,-1.12,1.0,0.0,270,1,,0.43,29.970472,,,TRUE,,,,,,,FG,FEW,3500,,,,,,,LIFR,,,,,,,,,,,,SPECI,33.0
RKSI 220630Z 29019KT 6000 SCT025 04/M06 Q1017 NOSIG RMK ASIAN DUST(HWANGSA),RKSI,2015-02-22T06:30:00Z,37.47,126.45,4.0,-6.0,290,19,,3.73,30.029528,,,,,,TRUE,,,,,SCT,2500,,,,,,,MVFR,,,,,,,,,,,,SPECI,7.0
LJPZ 220630Z 20003KT 160V240 9999 -RA SCT030 BKN040 08/06 Q0999,LJPZ,2015-02-22T06:30:00Z,45.47,13.62,8.0,6.0,200,3,,6.21,29.498032,,,,,,,,,,-RA,SCT,3000,BKN,4000,,,,,VFR,,,,,,,,,,,,METAR,2.0
LJMB 220630Z 32003KT 6000 -RA BKN033 03/01 Q1004,LJMB,2015-02-22T06:30:00Z,46.47,15.67,3.0,1.0,320,3,,3.73,29.64567,,,,,,,,,,-RA,BKN,3300,,,,,,,MVFR,,,,,,,,,,,,METAR,265.0
LJLJ 220630Z VRB01KT 4000 -RA BR BKN020 OVC030 02/02 Q1003 NOSIG,LJLJ,2015-02-22T06:30:00Z,46.22,14.47,2.0,2.0,0,1,,2.49,29.616142,,,,,,TRUE,,,,-RA BR,BKN,2000,OVC,3000,,,,,IFR,,,,,,,,,,,,METAR,385.0
LJCE 220630Z 24003KT 6000 -RA OVC037 03/02 Q1004 RMK WHT,LJCE,2015-02-22T06:30:00Z,45.9,15.52,3.0,2.0,240,3,,3.73,29.64567,,,,,,,,,,-RA,OVC,3700,,,,,,,MVFR,,,,,,,,,,,,METAR,155.0
LROD 220630Z 10006KT CAVOK 05/M02 Q1009,LROD,2015-02-22T06:30:00Z,47.03,21.92,5.0,-2.0,100,6,,6.21,29.793306,,,,,,,,,,,CAVOK,,,,,,,,VFR,,,,,,,,,,,,METAR,140.0
LRSM 220630Z AUTO 10004KT 7000NDV OVC090/// 01/00 Q1010,LRSM,2015-02-22T06:30:00Z,47.7,22.88,1.0,0.0,100,4,,,29.822834,,,TRUE,,,,,,,,,,,,,,,,,,,,,,,,,,,,METAR,124.0
LRTM 220630Z 09004KT 8000 FEW012 00/M01 Q1011,LRTM,2015-02-22T06:30:00Z,46.47,24.42,0.0,-1.0,90,4,,4.97,29.852362,,,,,,,,,,,FEW,1200,,,,,,,MVFR,,,,,,,,,,,,METAR,309.0
LFLL 220630Z 34016KT 9999 BKN023 02/M01 Q1008 NOSIG,LFLL,2015-02-22T06:30:00Z,45.72,5.07,2.0,-1.0,340,16,,6.21,29.763779,,,,,,TRUE,,,,,BKN,2300,,,,,,,MVFR,,,,,,,,,,,,METAR,240.0
LFPG 220630Z 24003KT 6000 FEW036 M01/M02 Q1011 NOSIG,LFPG,2015-02-22T06:30:00Z,49.02,2.52,-1.0,-2.0,240,3,,3.73,29.852362,,,,,,TRUE,,,,,FEW,3600,,,,,,,MVFR,,,,,,,,,,,,METAR,109.0
LFPO 220630Z 27003KT CAVOK M02/M02 Q1011 NOSIG,LFPO,2015-02-22T06:30:00Z,48.72,2.38,-2.0,-2.0,270,3,,6.21,29.852362,,,,,,TRUE,,,,,CAVOK,,,,,,,,VFR,,,,,,,,,,,,METAR,96.0
LFQQ 220630Z VRB01KT 8000 NSC M00/M00 Q1010 R08/090095 NOSIG,LFQQ,2015-02-22T06:30:00Z,50.57,3.1,0.0,0.0,0,1,,4.97,29.822834,,,,,,TRUE,,,,,,,,,,,,,,,,,,,,,,,,,SPECI,52.0
LFRB 220630Z 17005KT CAVOK 03/01 Q1011 NOSIG,LFRB,2015-02-22T06:30:00Z,48.45,-4.42,3.0,1.0,170,5,,6.21,29.852362,,,,,,TRUE,,,,,CAVOK,,,,,,,,VFR,,,,,,,,,,,,METAR,103.0
LFBA 220630Z AUTO 26004KT 9999 FEW015 BKN240 01/M00 Q1013,LFBA,2015-02-22T06:30:00Z,44.17,0.6,1.0,0.0,260,4,,6.21,29.911417,,,TRUE,,,,,,,,FEW,1500,BKN,24000,,,,,VFR,,,,,,,,,,,,METAR,60.0
LFJR 220630Z AUTO 00000KT 9000 NSC M04/M05 Q1013,LFJR,2015-02-22T06:30:00Z,47.57,-0.3,-4.0,-5.0,0,0,,5.59,29.911417,,,TRUE,,,,,,,,,,,,,,,,,,,,,,,,,,,,METAR,60.0
LFGJ 220630Z AUTO 35010KT 9999 FEW020 OVC045 02/00 Q1009,LFGJ,2015-02-22T06:30:00Z,47.05,5.43,2.0,0.0,350,10,,6.21,29.793306,,,TRUE,,,,,,,,FEW,2000,OVC,4500,,,,,VFR,,,,,,,,,,,,METAR,196.0
LFBE 220630Z AUTO 30003KT 2800 BR NSC M03/M04 Q////,LFBE,2015-02-22T06:30:00Z,44.82,0.52,-3.0,-4.0,300,3,,1.74,,,,TRUE,,,,,,,BR,,,,,,,,,,,,,,,,,,,,,SPECI,52.0
LFMD 220630Z AUTO 00000KT 9999 FEW038 OVC056 07/05 Q0997,LFMD,2015-02-22T06:30:00Z,43.53,6.95,7.0,5.0,0,0,,6.21,29.438976,,,TRUE,,,,,,,,FEW,3800,OVC,5600,,,,,VFR,,,,,,,,,,,,METAR,9.0
LFLW 220630Z AUTO 27003KT 9999 FEW022 SCT028 BKN036 M02/M03 Q1008,LFLW,2015-02-22T06:30:00Z,44.88,2.42,-2.0,-3.0,270,3,,6.21,29.763779,,,TRUE,,,,,,,,FEW,2200,SCT,2800,BKN,3600,,,VFR,,,,,,,,,,,,METAR,639.0
RJFE 220629Z 30008KT 250V360 8000 -SHRA FEW006 SCT007 BKN008 12/10 Q1016 RMK 1ST006 3ST007 5ST008 A3000,RJFE,2015-02-22T06:29:00Z,32.67,128.82,12.0,10.0,300,8,,4.97,30.0,,,,,,,,,,-SHRA,FEW,600,SCT,700,BKN,800,,,IFR,,,,,,,,,,,,METAR,80.0
FADY 220629Z 11016KT CAVOK 13/04 Q1022,FADY,2015-02-22T06:29:00Z,-30.67,23.98,13.0,4.0,110,16,,6.21,30.177166,,,,,,,,,,,CAVOK,,,,,,,,VFR,,,,,,,,,,,,SPECI,384.0
CYZF 220628Z 11007KT 15SM -SN OVC011 M21/M25 A3029 RMK ST8 SLP288,CYZF,2015-02-22T06:28:00Z,62.47,-114.45,-21.0,-25.0,110,7,,15.0,30.28937,1028.8,,,,,,,,,-SN,OVC,1100,,,,,,,MVFR,,,,,,,,,,,,SPECI,206.0
VTUD 220627Z 35008KT 320V030 2300 R30/1400 VP2000N R12/P2000N +TSRA FEW018CB BKN032 25/23 Q1012 A2990 CB OVER AD WS ALL RWY INFO K RWY30,VTUD,2015-02-22T06:27:00Z,17.37,102.78,25.0,23.0,350,8,,1.43,29.88189,,,,,,,,,,+TSRA,FEW,1800,BKN,3200,,,,,IFR,,,,,,,,,,,,SPECI,182.0
RJOF 220625Z VRB01KT 2000 -SHRA BR FEW004 BKN006 BKN010 13/13 Q1013 RMK 2ST004 6ST006 7CU010 A2993 VIS NE 2500M,RJOF,2015-02-22T06:25:00Z,34.02,131.55,13.0,13.0,0,1,,1.24,29.911417,,,,,,,,,,-SHRA BR,FEW,400,BKN,600,BKN,1000,,,IFR,,,,,,,,,,,,METAR,5.0
EBDT 220625Z AUTO 19005KT 0100 VV001/// M00/M00 Q1009 RED,EBDT,2015-02-22T06:25:00Z,51.02,5.07,0.0,0.0,190,5,,0.06,29.793306,,,TRUE,,,,,,,,,,,,,,,,,,,,,,,,,,,,SPECI,54.0
EBCV 220625Z AUTO 22005KT 2800 NCD M01/M02 Q1007 YLO,EBCV,2015-02-22T06:25:00Z,50.57,3.82,-1.0,-2.0,220,5,,1.74,29.734253,,,TRUE,,,,,,,,,,,,,,,,,,,,,,,,,,,,SPECI,63.0
EBBE 220625Z AUTO 22007KT 0150 VV002/// M00/00 Q1009 RED,EBBE,2015-02-22T06:25:00Z,50.75,4.77,0.0,0.0,220,7,,0.09,29.793306,,,TRUE,,,,,,,,,,,,,,,,,,,,,,,,,,,,SPECI,127.0
EHSC 220625Z AUTO 27012G13KT 9999 ///////// 05/02 Q1008 W06/H9,EHSC,2015-02-22T06:25:00Z,51.93,3.67,5.0,2.0,270,12,13,6.21,29.763779,,,TRUE,,,,,,,,,,,,,,,,,,,,,,,,,,,,METAR,50.0
EHSA 220625Z AUTO 26010G12KT //// ///////// 05/M80 Q1008 W///H10,EHSA,2015-02-22T06:25:00Z,52.0,3.28,5.0,-80.0,260,10,12,,29.763779,,,TRUE,,,,,,,,,,,,,,,,,,,,,,,,,,,,METAR,50.0
EHJR 220625Z AUTO 24016G18KT //// ///////// 05/01 Q1005 W06/H13,EHJR,2015-02-22T06:25:00Z,53.22,3.22,5.0,1.0,240,16,18,,29.675198,,,TRUE,,,,,,,,,,,,,,,,,,,,,,,,,,,,METAR,50.0
DAAE 220625Z 28008KT 6000 SCT016TCU FEW026CB BKN040 08/06 Q1004 RETS,DAAE,2015-02-22T06:25:00Z,36.72,5.07,8.0,6.0,280,8,,3.73,29.64567,,,,,,,,,,,SCT,1600,FEW,2600,BKN,4000,,,MVFR,,,,,,,,,,,,SPECI,2.0
UTO8 M M M 134/-27/-31/2515+22/M/ PK WND 2724 0549Z SOG 14 8005 57MM,UTO8,2015-02-22T06:24:00Z,,,,,,,,4.97,,,,,,,,,,,,,,,,,,,,,,,,,,,,,,,,METAR,
CYYU 220623Z 35004KT 15SM SKC M27/M30 A3017 RMK SLP242,CYYU,2015-02-22T06:23:00Z,49.42,-82.47,-27.0,-30.0,350,4,,15.0,30.171259,1024.2,,,,,,,,,,SKC,,,,,,,,VFR,,,,,,,,,,,,SPECI,227.0
CYUA 220623Z AUTO 30005KT 9SM SCT006 M14/ A2996,CYUA,2015-02-22T06:23:00Z,68.95,-137.28,-14.0,,300,5,,9.0,29.958662,,,TRUE,,,,,,,,SCT,600,,,,,,,VFR,,,,,,,,,,,,SPECI,38.0
CYFS 220623Z 15003KT 15SM -SG BKN006 M14/M16 A3018 RMK ST6 SLP240,CYFS,2015-02-22T06:23:00Z,61.75,-121.22,-14.0,-16.0,150,3,,15.0,30.180119,1024.0,,,,,,,,,-SG,BKN,600,,,,,,,IFR,,,,,,,,,,,,SPECI,169.0
RJTO 220622Z VRB01KT 5000 BR FEW004 SCT008 BKN050 11/11 Q1020 RMK 1ST004 3ST008 7SC050 A3014,RJTO,2015-02-22T06:22:00Z,34.77,139.37,11.0,11.0,0,1,,3.11,30.11811,,,,,,,,,,BR,FEW,400,SCT,800,BKN,5000,,,MVFR,,,,,,,,,,,,SPECI,41.0
KLVN 220621Z AUTO 30012KT 10SM CLR M19/M24 A3038 RMK AO2,KLVN,2015-02-22T06:21:00Z,44.63,-93.23,-19.0,-24.0,300,12,,10.0,30.380905,,,TRUE,TRUE,,,,,,,CLR,,,,,,,,VFR,,,,,,,,,,,,METAR,293.0
YMTG 220620Z AUTO 27017KT 9999 // NCD 35/11 Q1008,YMTG,2015-02-22T06:20:00Z,-37.75,140.78,35.0,11.0,270,17,,6.21,29.763779,,,TRUE,,,,,,,,,,,,,,,,,,,,,,,,,,,,SPECI,65.0
ENGC 220620Z 02009KT 9999 -SHSNRA FEW005 BKN015 01/M01 Q0993 W05/S5,ENGC,2015-02-22T06:20:00Z,61.02,2.02,1.0,-1.0,20,9,,6.21,29.320866,,,,,,,,,,-SHSN -SHRA,FEW,500,BKN,1500,,,,,MVFR,,,,,,,,,,,,SPECI,10.0
ETWM 220620Z AUTO 21004KT 3800 // ////// M01/M01 Q1007 ///,ETWM,2015-02-22T06:20:00Z,52.72,7.33,-1.0,-1.0,210,4,,2.36,29.734253,,,TRUE,,,,,,,,,,,,,,,,,,,,,,,,,,,,METAR,21.0
ETSH 220620Z 28002KT 7000 MIFG BKN120 BKN200 M01/M02 Q1007 WHT,ETSH,2015-02-22T06:20:00Z,51.77,13.17,-1.0,-2.0,280,2,,4.35,29.734253,,,,,,,,,,MIFG,BKN,12000,BKN,20000,,,,,MVFR,,,,,,,,,,,,METAR,79.0
ETNW 220620Z AUTO 23008KT 6000 // ////// 02/00 Q1007 ///,ETNW,2015-02-22T06:20:00Z,52.45,9.42,2.0,0.0,230,8,,3.73,29.734253,,,TRUE,,,,,,,,,,,,,,,,,,,,,,,,,,,,METAR,70.0
ETNT 220620Z 20006KT 9999 FEW200 M01/M02 Q1006 BLU+,ETNT,2015-02-22T06:20:00Z,53.53,7.67,-1.0,-2.0,200,6,,6.21,29.704725,,,,,,,,,,,FEW,20000,,,,,,,VFR,,,,,,,,,,,,METAR,12.0
ETNS 220620Z AUTO 21008KT 5000 // ////// 01/01 Q1004 ///,ETNS,2015-02-22T06:20:00Z,54.47,9.52,1.0,1.0,210,8,,3.11,29.64567,,,TRUE,,,,,,,,,,,,,,,,,,,,,,,,,,,,METAR,25.0
ETNL 220620Z 25008KT 9000 BKN017 03/01 Q1005 WHT,ETNL,2015-02-22T06:20:00Z,53.92,12.27,3.0,1.0,250,8,,5.59,29.675198,,,,,,,,,,,BKN,1700,,,,,,,MVFR,,,,,,,,,,,,METAR,40.0
ETMN 220620Z 22008KT 7000 FEW004 M00/M01 Q1005 WHT,ETMN,2015-02-22T06:20:00Z,53.77,8.67,0.0,-1.0,220,8,,4.35,29.675198,,,,,,,,,,,FEW,400,,,,,,,MVFR,,,,,,,,,,,,METAR,31.0
ETML 220620Z AUTO 22007KT //// // ////// 01/00 Q1004 ///,ETML,2015-02-22T06:20:00Z,,,1.0,0.0,220,7,,,29.64567,,,TRUE,,,,,,,,,,,,,,,,,,,,,,,,,,,,METAR,
ETHS 220620Z 23006KT 7000 BKN006 BKN030 01/M00 Q1006 YLO,ETHS,2015-02-22T06:20:00Z,52.92,10.18,1.0,0.0,230,6,,4.35,29.704725,,,,,,,,,,,BKN,600,BKN,3000,,,,,IFR,,,,,,,,,,,,METAR,88.0
ETHF 220620Z 32002KT 9999 FEW028 BKN048 00/M01 Q1007 BLU,ETHF,2015-02-22T06:20:00Z,51.12,9.27,0.0,-1.0,320,2,,6.21,29.734253,,,,,,,,,,,FEW,2800,BKN,4800,,,,,VFR,,,,,,,,,,,,METAR,181.0
ETHE 220620Z AUTO 22005KT //// // ////// 00/M00 Q1008 ///,ETHE,2015-02-22T06:20:00Z,52.28,7.37,0.0,0.0,220,5,,,29.763779,,,TRUE,,,,,,,,,,,,,,,,,,,,,,,,,,,,METAR,49.0
ETHB 220620Z 23008KT 6000 BKN030 01/M00 Q1007 WHT,ETHB,2015-02-22T06:20:00Z,52.27,9.07,1.0,0.0,230,8,,3.73,29.734253,,,,,,,,,,,BKN,3000,,,,,,,MVFR,,,,,,,,,,,,METAR,78.0
ETGG 220620Z 21014KT 9999 01/00 Q1003 BLU+,ETGG,2015-02-22T06:20:00Z,54.83,9.5,1.0,0.0,210,14,,6.21,29.616142,,,,,,,,,,,,,,,,,,,,,,,,,,,,,,,METAR,33.0
ETSN 220620Z AUTO 29002KT //// // ////// 01/00 Q1006 ///,ETSN,2015-02-22T06:20:00Z,48.72,11.22,1.0,0.0,290,2,,,29.704725,,,TRUE,,,,,,,,,,,,,,,,,,,,,,,,,,,,METAR,387.0
ETSL 220620Z 27003KT 2000 -SN BR BKN005 OVC010 M00/M01 Q1006 RESN BLACKYLO,ETSL,2015-02-22T06:20:00Z,48.17,10.87,0.0,-1.0,270,3,,1.24,29.704725,,,,,,,,,,-SN BR,BKN,500,OVC,1000,,,,,IFR,,,,,,,,,,,,SPECI,562.0
ETSI 220620Z AUTO 31004KT 2700 // ////// 01/01 Q1006 ///,ETSI,2015-02-22T06:20:00Z,48.72,11.52,1.0,1.0,310,4,,1.68,29.704725,,,TRUE,,,,,,,,,,,,,,,,,,,,,,,,,,,,METAR,370.0
ETSB 220620Z AUTO 31004KT 9999 // ////// M01/M02 Q1007 ///,ETSB,2015-02-22T06:20:00Z,50.17,7.07,-1.0,-2.0,310,4,,6.21,29.734253,,,TRUE,,,,,,,,,,,,,,,,,,,,,,,,,,,,METAR,486.0
ETSA 220620Z 27006KT 1200 SN BR OVC003 M01/M01 Q1006 AMB,ETSA,2015-02-22T06:20:00Z,48.07,10.9,-1.0,-1.0,270,6,,0.75,29.704725,,,,,,,,,,SN BR,OVC,300,,,,,,,LIFR,,,,,,,,,,,,METAR,628.0
ETHL 220620Z 23003KT 0700 FZFG SCT050 SCT110 M02/M02 Q1006 RED,ETHL,2015-02-22T06:20:00Z,48.22,9.92,-2.0,-2.0,230,3,,0.43,29.704725,,,,,,,,,,FZFG,SCT,5000,SCT,11000,,,,,LIFR,,,,,,,,,,,,METAR,549.0
ETHA 220620Z AUTO 24002KT //// // ////// M01/M02 Q1005 ///,ETHA,2015-02-22T06:20:00Z,47.82,10.87,-1.0,-2.0,240,2,,,29.675198,,,TRUE,,,,,,,,,,,,,,,,,,,,,,,,,,,,METAR,760.0
EFUT 220620Z AUTO 16010KT 140V200 2000 -RASN OVC006 00/M00 Q0990,EFUT,2015-02-22T06:20:00Z,60.88,26.92,0.0,0.0,160,10,,1.24,29.232283,,,TRUE,,,,,,,-RA -SN,OVC,600,,,,,,,IFR,,,,,,,,,,,,METAR,100.0
EDNY 220620Z 00000KT 2500 BCFG NSC M00/M02 Q1007 RMK C,EDNY,2015-02-22T06:20:00Z,47.67,9.52,0.0,-2.0,0,0,,1.55,29.734253,,,,,,,,,,BCFG,,,,,,,,,,,,,,,,,,,,,METAR,424.0
EGHH 220620Z 00000KT CAVOK M04/M05 Q1009,EGHH,2015-02-22T06:20:00Z,50.78,-1.83,-4.0,-5.0,0,0,,6.21,29.793306,,,,,,,,,,,CAVOK,,,,,,,,VFR,,,,,,,,,,,,METAR,11.0
RJAH 220620Z 08004KT 6000 FEW006 OVC008 08/05 Q1020 RMK 1ST006 8ST008 A3012,RJAH,2015-02-22T06:20:00Z,36.17,140.42,8.0,5.0,80,4,,3.73,30.11811,,,,,,,,,,,FEW,600,OVC,800,,,,,IFR,,,,,,,,,,,,SPECI,35.0
ETHN 220620Z 22006KT 9999 FEW070 SCT220 M01/M01 Q1007 BLU+,ETHN,2015-02-22T06:20:00Z,49.38,9.97,-1.0,-1.0,220,6,,6.21,29.734253,,,,,,,,,,,FEW,7000,SCT,22000,,,,,VFR,,,,,,,,,,,,SPECI,473.0
EGPI 220620Z AUTO 18009KT 150V220 9999 NCD 04/02 Q0997,EGPI,2015-02-22T06:20:00Z,55.68,-6.25,4.0,2.0,180,9,,6.21,29.438976,,,TRUE,,,,,,,,,,,,,,,,,,,,,,,,,,,,SPECI,18.0
EGPU 220620Z AUTO 19022KT 9999 NCD 05/02 Q0994 RERA,EGPU,2015-02-22T06:20:00Z,56.5,-6.87,5.0,2.0,190,22,,6.21,29.350393,,,TRUE,,,,,,,,,,,,,,,,,,,,,,,,,,,,SPECI,12.0
CYUS 220618Z AUTO 21014KT 3/4SM CLR M32/ A3010,CYUS,2015-02-22T06:18:00Z,68.82,-93.42,-32.0,,210,14,,0.75,30.100393,,,TRUE,,,,,,,,CLR,,,,,,,,LIFR,,,,,,,,,,,,SPECI,42.0
CYOW 220617Z 04004KT 8SM -SN BKN006 OVC013 M12/M14 A3007 RMK SF5SC3 SLP192,CYOW,2015-02-22T06:17:00Z,45.32,-75.67,-12.0,-14.0,40,4,,8.0,30.070866,1019.2,,,,,,,,,-SN,BKN,600,OVC,1300,,,,,IFR,,,,,,,,,,,,SPECI,114.0
KFYG 220615Z AUTO 01009KT 10SM OVC028 02/M04 A3024 RMK AO2,KFYG,2015-02-22T06:15:00Z,38.58,-91.0,2.0,-4.0,10,9,,10.0,30.239174,,,TRUE,TRUE,,,,,,,OVC,2800,,,,,,,MVFR,,,,,,,,,,,,SPECI,149.0
RJTE 220614Z 29005KT 4900 -RA BR FEW006 BKN040 OVC070 12/10 Q1021 RMK 2ST006 6SC040 8AS070 A3016,RJTE,2015-02-22T06:14:00Z,34.97,139.82,12.0,10.0,290,5,,3.04,30.147638,,,,,,,,,,-RA BR,FEW,600,BKN,4000,OVC,7000,,,MVFR,,,,,,,,,,,,METAR,6.0
RJFG 220612Z 30009KT 0900 R31/P1800N -SHRA FG FEW001 SCT002 BKN005 15/15 Q1016 RMK 1ST001 3ST002 5ST005 A3002,RJFG,2015-02-22T06:12:00Z,30.62,130.98,15.0,15.0,300,9,,0.56,30.0,,,,,,,,,,-SHRA FG,FEW,100,SCT,200,BKN,500,,,LIFR,,,,,,,,,,,,METAR,95.0
CYYE 220610Z 19005KT 15SM BKN008 M03/M04 A3018 RMK SF5 SLP247,CYYE,2015-02-22T06:10:00Z,58.82,-122.57,-3.0,-4.0,190,5,,15.0,30.180119,1024.7,,,,,,,,,,BKN,800,,,,,,,IFR,,,,,,,,,,,,SPECI,382.0
RJFR 220610Z 27012KT 8000 VCSH FEW004 SCT010 BKN020 13/12 Q1014 RMK 1ST004 3CU010 7CU020 A2994,RJFR,2015-02-22T06:10:00Z,33.82,131.03,13.0,12.0,270,12,,4.97,29.940945,,,,,,,,,,VCSH,FEW,400,SCT,1000,BKN,2000,,,MVFR,,,,,,,,,,,,METAR,6.0
CYGP 220610Z 25004KT 2 1/2SM -SN BKN020 OVC040 M12/M14 A3023 RMK SC6SC2 SLP238,CYGP,2015-02-22T06:10:00Z,48.77,-64.47,-12.0,-14.0,250,4,,2.5,30.230314,1023.8,,,,,,,,,-SN,BKN,2000,OVC,4000,,,,,IFR,,,,,,,,,,,,SPECI,33.0
RJNG 220610Z 11005KT 9999 -SHRA FEW015 BKN020 BKN025 10/10 Q1018 RMK 1CU015 5CU020 6CU025 A3008,RJNG,2015-02-22T06:10:00Z,35.37,136.87,10.0,10.0,110,5,,6.21,30.059055,,,,,,,,,,-SHRA,FEW,1500,BKN,2000,BKN,2500,,,MVFR,,,,,,,,,,,,METAR,42.0
RJOZ 220607Z 26015G25KT 3000 -SHRA BR FEW003 SCT005 BKN010 13/12 Q1014 RMK 2ST003 3ST005 7ST010 A2996,RJOZ,2015-02-22T06:07:00Z,34.03,131.05,13.0,12.0,260,15,25,1.86,29.940945,,,,,,,,,,-SHRA BR,FEW,300,SCT,500,BKN,1000,,,IFR,,,,,,,,,,,,METAR,7.0
CYHK 220606Z AUTO 22018KT 2SM HZ OVC055 M32/M35 A3008 RMK VIS VRB 1 3/4-2 1/2 SLP194,CYHK,2015-02-22T06:06:00Z,68.62,-95.83,-32.0,-35.0,220,18,,2.0,30.079725,1019.4,,TRUE,,,,,,,HZ,OVC,5500,,,,,,,IFR,,,,,,,,,,,,SPECI,46.0
RJNT 220606Z 18018G29KT 9999 FEW030 BKN070 BKN100 15/05 Q1013 RMK 1CU030 5AC070 7AC100 A2991,RJNT,2015-02-22T06:06:00Z,36.63,137.17,15.0,5.0,180,18,29,6.21,29.911417,,,,,,,,,,,FEW,3000,BKN,7000,BKN,10000,,,VFR,,,,,,,,,,,,METAR,27.0
MUCL 220605Z AUTO 10012KT 24/19 Q1019,MUCL,2015-02-22T06:05:00Z,21.63,-81.55,24.0,19.0,100,12,,,30.088583,,,TRUE,,,,,,,,,,,,,,,,,,,,,,,,,,,,METAR,5.0
PAEM 220604Z 15016G23KT 10SM OVC008 03/00 A2946 RMK VIA PHONE,PAEM,2015-02-22T06:04:00Z,62.77,-164.52,3.0,0.0,150,16,23,10.0,29.459646,,,,,,,,,,,OVC,800,,,,,,,IFR,,,,,,,,,,,,METAR,3.0
CYEK 220603Z AUTO 32015KT 6SM HZ CLR M35/M39 A3047 RMK SLP321,CYEK,2015-02-22T06:03:00Z,61.1,-94.07,-35.0,-39.0,320,15,,6.0,30.469488,1032.1,,TRUE,,,,,,,HZ,CLR,,,,,,,,VFR,,,,,,,,,,,,SPECI,10.0
CYWE 220602Z AUTO 17004KT 9SM OVC009 M24/M28 A3021 RMK SLP288,CYWE,2015-02-22T06:02:00Z,64.18,-114.08,-24.0,-28.0,170,4,,9.0,30.209646,1028.8,,TRUE,,,,,,,,OVC,900,,,,,,,IFR,,,,,,,,,,,,SPECI,371.0
PASA 220602Z KT 10SM BKN003 BKN008 OVC080 M01/M01 A2925 RMK VIA PHONE WIND MISSING,PASA,2015-02-22T06:02:00Z,63.68,-170.5,-1.0,-1.0,,,,10.0,29.25,,,,,,,,,,,BKN,300,BKN,800,OVC,8000,,,LIFR,,,,,,,,,,,,METAR,16.0
GAMB 220601Z 36008KT CAVOK 20/M02 Q1014,GAMB,2015-02-22T06:01:00Z,14.52,-4.08,20.0,-2.0,360,8,,6.21,29.940945,,,,,,,,,,,CAVOK,,,,,,,,VFR,,,,,,,,,,,,METAR,272.0
WARS 220600Z 31014KT 9000 FEW019 31/26 Q1008 NOSIG,WARS,2015-02-22T06:00:00Z,-6.97,110.38,31.0,26.0,310,14,,5.59,29.763779,,,,,,TRUE,,,,,FEW,1900,,,,,,,VFR,,,,,,,,,,,,METAR,3.0
VTCH 220600Z VRB03KT 7000 NSC 30/11 Q1014 A2994,VTCH,2015-02-22T06:00:00Z,19.3,97.98,30.0,11.0,0,3,,4.35,29.940945,,,,,,,,,,,,,,,,,,,,,,,,,,,,,,,METAR,269.0
UTFF 220600Z 24004KT 170V300 8000 NSC 10/04 Q1014 R18/CLRD70,UTFF,2015-02-22T06:00:00Z,40.37,71.77,10.0,4.0,240,4,,4.97,29.940945,,,,,,,,,,,,,,,,,,,,,,,,,,,,,,,METAR,577.0
DAUI 220600Z 00000KT 7000 NSC 08/03 Q1014,DAUI,2015-02-22T06:00:00Z,27.25,2.52,8.0,3.0,0,0,,4.35,29.940945,,,,,,,,,,,,,,,,,,,,,,,,,,,,,,,METAR,269.0
SAZS 220600Z 00000KT CAVOK 07/04 Q1019,SAZS,2015-02-22T06:00:00Z,-41.13,-71.17,7.0,4.0,0,0,,6.21,30.088583,,,,,,,,,,,CAVOK,,,,,,,,VFR,,,,,,,,,,,,METAR,840.0
HKMO 220600Z 06006KT 9999 BKN021 30/24 Q1013 NOSIG,HKMO,2015-02-22T06:00:00Z,-4.02,39.62,30.0,24.0,60,6,,6.21,29.911417,,,,,,TRUE,,,,,BKN,2100,,,,,,,MVFR,,,,,,,,,,,,METAR,55.0
FNKU 220600Z 25006KT 8000 -DZ FEW013 BKN090 16/16 Q////,FNKU,2015-02-22T06:00:00Z,-12.37,16.93,16.0,16.0,250,6,,4.97,,,,,,,,,,,-DZ,FEW,1300,BKN,9000,,,,,MVFR,,,,,,,,,,,,METAR,1699.0
OEDM 220600Z 01016KT CAVOK 08/M02 Q1020,OEDM,2015-02-22T06:00:00Z,24.45,44.12,8.0,-2.0,10,16,,6.21,30.11811,,,,,,,,,,,CAVOK,,,,,,,,VFR,,,,,,,,,,,,METAR,922.0
OEBH 220600Z 07012KT CAVOK 15/00 Q1020 NOSIG,OEBH,2015-02-22T06:00:00Z,19.97,42.62,15.0,0.0,70,12,,6.21,30.11811,,,,,,TRUE,,,,,CAVOK,,,,,,,,VFR,,,,,,,,,,,,METAR,1157.0
OEBA 220600Z 12003KT CAVOK 15/12 Q1021 NOSIG,OEBA,2015-02-22T06:00:00Z,20.3,41.62,15.0,12.0,120,3,,6.21,30.147638,,,,,,TRUE,,,,,CAVOK,,,,,,,,VFR,,,,,,,,,,,,METAR,1656.0
OEAH 220600Z 28013KT 3500 BLDU SKC 14/M05 Q1018 NOSIG,OEAH,2015-02-22T06:00:00Z,25.27,49.47,14.0,-5.0,280,13,,2.17,30.059055,,,,,,TRUE,,,,BLDU,SKC,,,,,,,,IFR,,,,,,,,,,,,METAR,172.0
OEAB 220600Z 19016KT 9999 SCT010 15/12 Q1023 NOSIG,OEAB,2015-02-22T06:00:00Z,18.22,42.63,15.0,12.0,190,16,,6.21,30.206694,,,,,,TRUE,,,,,SCT,1000,,,,,,,VFR,,,,,,,,,,,,METAR,2084.0
OETF 220600Z 09007KT CAVOK 11/M01 Q1021 NOSIG,OETF,2015-02-22T06:00:00Z,21.47,40.53,11.0,-1.0,90,7,,6.21,30.147638,,,,,,TRUE,,,,,CAVOK,,,,,,,,VFR,,,,,,,,,,,,METAR,1449.0
URWI 220600Z 15004MPS CAVOK M02/M11 Q1030 NOSIG,URWI,2015-02-22T06:00:00Z,46.37,44.33,-2.0,-11.0,150,8,,6.21,30.413385,,,,,,TRUE,,,,,CAVOK,,,,,,,,VFR,,,,,,,,,,,,METAR,150.0
OEGN 220600Z 29004KT 9999 FEW030 28/17 Q1015 NOSIG,OEGN,2015-02-22T06:00:00Z,16.88,42.57,28.0,17.0,290,4,,6.21,29.970472,,,,,,TRUE,,,,,FEW,3000,,,,,,,VFR,,,,,,,,,,,,METAR,3.0
OEYN 220600Z 07006KT CAVOK 16/08 Q1018 NOSIG,OEYN,2015-02-22T06:00:00Z,24.13,38.07,16.0,8.0,70,6,,6.21,30.059055,,,,,,TRUE,,,,,CAVOK,,,,,,,,VFR,,,,,,,,,,,,METAR,8.0
OEWJ 220600Z 05004KT CAVOK 16/09 Q1020 NOSIG,OEWJ,2015-02-22T06:00:00Z,26.18,36.47,16.0,9.0,50,4,,6.21,30.11811,,,,,,TRUE,,,,,CAVOK,,,,,,,,VFR,,,,,,,,,,,,METAR,16.0
OEWD 220600Z 02006KT 6000 SKC 18/02 Q1019 NOSIG,OEWD,2015-02-22T06:00:00Z,20.5,45.2,18.0,2.0,20,6,,3.73,30.088583,,,,,,TRUE,,,,,SKC,,,,,,,,MVFR,,,,,,,,,,,,METAR,617.0
OETR 220600Z 26004KT CAVOK 03/01 Q1021,OETR,2015-02-22T06:00:00Z,31.7,38.73,3.0,1.0,260,4,,6.21,30.147638,,,,,,,,,,,CAVOK,,,,,,,,VFR,,,,,,,,,,,,METAR,855.0
OETB 220600Z 04004KT CAVOK 06/M01 Q1022 NOSIG,OETB,2015-02-22T06:00:00Z,28.37,36.62,6.0,-1.0,40,4,,6.21,30.177166,,,,,,TRUE,,,,,CAVOK,,,,,,,,VFR,,,,,,,,,,,,METAR,770.0
OESK 220600Z 26004KT CAVOK 05/01 Q1022 NOSIG,OESK,2015-02-22T06:00:00Z,29.77,40.1,5.0,1.0,260,4,,6.21,30.177166,,,,,,TRUE,,,,,CAVOK,,,,,,,,VFR,,,,,,,,,,,,METAR,684.0
OESH 220600Z 09014KT 4000 BLDU SKC 21/03 Q1018 NOSIG,OESH,2015-02-22T06:00:00Z,17.47,47.12,21.0,3.0,90,14,,2.49,30.059055,,,,,,TRUE,,,,BLDU,SKC,,,,,,,,IFR,,,,,,,,,,,,METAR,722.0
OERR 220600Z 28010KT CAVOK 04/04 Q1022 NOSIG,OERR,2015-02-22T06:00:00Z,30.88,41.12,4.0,4.0,280,10,,6.21,30.177166,,,,,,TRUE,,,,,CAVOK,,,,,,,,VFR,,,,,,,,,,,,METAR,552.0
OERF 220600Z 31012KT CAVOK 07/M02 Q1021,OERF,2015-02-22T06:00:00Z,29.62,43.47,7.0,-2.0,310,12,,6.21,30.147638,,,,,,,,,,,CAVOK,,,,,,,,VFR,,,,,,,,,,,,METAR,447.0
OEPA 220600Z 30016KT CAVOK 08/05 Q1018 NOSIG,OEPA,2015-02-22T06:00:00Z,28.32,46.12,8.0,5.0,300,16,,6.21,30.059055,,,,,,TRUE,,,,,CAVOK,,,,,,,,VFR,,,,,,,,,,,,METAR,355.0
OENG 220600Z 10006KT 1500 DU SKC 17/M01 Q1020 NOSIG,OENG,2015-02-22T06:00:00Z,17.62,44.42,17.0,-1.0,100,6,,0.93,30.11811,,,,,,TRUE,,,,DU,SKC,,,,,,,,LIFR,,,,,,,,,,,,METAR,1203.0
OEMK 220600Z 00000KT CAVOK 17/08 Q1015,OEMK,2015-02-22T06:00:00Z,21.43,40.0,17.0,8.0,0,0,,6.21,29.970472,,,,,,,,,,,CAVOK,,,,,,,,VFR,,,,,,,,,,,,METAR,369.0
OEKM 220600Z 22004KT 9999 FEW025 15/08 Q1023 NOSIG,OEKM,2015-02-22T06:00:00Z,18.3,42.78,15.0,8.0,220,4,,6.21,30.206694,,,,,,TRUE,,,,,FEW,2500,,,,,,,VFR,,,,,,,,,,,,METAR,2054.0
OEKK 220600Z 27024KT CAVOK 07/04 Q1020 NOSIG,OEKK,2015-02-22T06:00:00Z,27.88,45.52,7.0,4.0,270,24,,6.21,30.11811,,,,,,TRUE,,,,,CAVOK,,,,,,,,VFR,,,,,,,,,,,,METAR,413.0
OEKJ 220600Z 35013KT 0500 DU SKC 12/00 Q1020,OEKJ,2015-02-22T06:00:00Z,24.07,47.58,12.0,0.0,350,13,,0.31,30.11811,,,,,,,,,,DU,SKC,,,,,,,,LIFR,,,,,,,,,,,,METAR,503.0
OEHL 220600Z 04002KT 9999 SCT045 07/00 Q1022,OEHL,2015-02-22T06:00:00Z,27.42,41.67,7.0,0.0,40,2,,6.21,30.177166,,,,,,,,,,,SCT,4500,,,,,,,VFR,,,,,,,,,,,,METAR,1013.0
OEGS 220600Z 33010KT CAVOK 09/04 Q1021,OEGS,2015-02-22T06:00:00Z,26.3,43.77,9.0,4.0,330,10,,6.21,30.147638,,,,,,,,,,,CAVOK,,,,,,,,VFR,,,,,,,,,,,,METAR,650.0
HKEL 220600Z 09010KT 9999 FEW020CB BKN280 20/09 Q1024,HKEL,2015-02-22T06:00:00Z,0.4,35.23,20.0,9.0,90,10,,6.21,30.236221,,,,,,,,,,,FEW,2000,BKN,28000,,,,,VFR,,,,,,,,,,,,SPECI,2133.0
PLCH 220600Z 14004KT 9999 SCT019 26/23 Q1009,PLCH,2015-02-22T06:00:00Z,1.98,-157.35,26.0,23.0,140,4,,6.21,29.793306,,,,,,,,,,,SCT,1900,,,,,,,VFR,,,,,,,,,,,,SPECI,3.0
FKKN 220600Z 00000KT CAVOK 19/11 Q1016,FKKN,2015-02-22T06:00:00Z,7.33,13.57,19.0,11.0,0,0,,6.21,30.0,,,,,,,,,,,CAVOK,,,,,,,,VFR,,,,,,,,,,,,METAR,1104.0
FKKD 220600Z 00000KT 8000 TS BKN013 FEW016CB 27/26 Q1010 NOSIG,FKKD,2015-02-22T06:00:00Z,4.0,9.72,27.0,26.0,0,0,,4.97,29.822834,,,,,,TRUE,,,,TS,BKN,1300,FEW,1600,,,,,MVFR,,,,,,,,,,,,METAR,9.0
NSFA 220600Z 01009KT 9999 SCT020 BKN270 28/25 Q1008,NSFA,2015-02-22T06:00:00Z,-13.83,-172.0,28.0,25.0,10,9,,6.21,29.763779,,,,,,,,,,,SCT,2000,BKN,27000,,,,,VFR,,,,,,,,,,,,METAR,5.0
FKKR 220600Z 33004KT 6000 NSC 30/10 Q1009,FKKR,2015-02-22T06:00:00Z,9.32,13.37,30.0,10.0,330,4,,3.73,29.793306,,,,,,,,,,,,,,,,,,,,,,,,,,,,,,,METAR,244.0
FKYS 220600Z 23003KT 200V270 8000 FEW003 BKN006 23/21 Q1014 NOSIG,FKYS,2015-02-22T06:00:00Z,3.82,11.52,23.0,21.0,230,3,,4.97,29.940945,,,,,,TRUE,,,,,FEW,300,BKN,600,,,,,IFR,,,,,,,,,,,,METAR,760.0
CYZS 220600Z 33013KT 15SM DRSN SKC M36/M41 A3019 RMK SLP235,CYZS,2015-02-22T06:00:00Z,64.2,-83.37,-36.0,-41.0,330,13,,15.0,30.188976,1023.5,,,,,,,,,DRSN,SKC,,,,,,,,VFR,,,,,,,,,,,,METAR,64.0
CYXT 220600Z 01007G15KT 15SM SKC 00/M02 A3054 RMK SLP352,CYXT,2015-02-22T06:00:00Z,54.47,-128.57,0.0,-2.0,10,7,15,15.0,30.540354,1035.2,,,,,,,,,,SKC,,,,,,,,VFR,,,,,,,,,,,,METAR,217.0
CYTH 220600Z 30005KT 15SM IC SKC M31/M36 A3055 RMK SLP384,CYTH,2015-02-22T06:00:00Z,55.78,-97.87,-31.0,-36.0,300,5,,15.0,30.549213,1038.4,,,,,,,,,IC,SKC,,,,,,,,VFR,,,,,,,,,,,,METAR,218.0
CYVR 220600Z 06003KT 30SM SKC 06/01 A3048 RMK SLP321,CYVR,2015-02-22T06:00:00Z,49.17,-123.17,6.0,1.0,60,3,,30.0,30.481298,1032.1,,,,,,,,,,SKC,,,,,,,,VFR,,,,,,,,,,,,SPECI,2.0
DAAJ 220600Z 21009KT 9999 BKN046 SCT100 14/10 Q1013,DAAJ,2015-02-22T06:00:00Z,24.28,9.47,14.0,10.0,210,9,,6.21,29.911417,,,,,,,,,,,BKN,4600,SCT,10000,,,,,VFR,,,,,,,,,,,,METAR,968.0
HKKS 220600Z 11004KT CAVOK 21/14 Q////,HKKS,2015-02-22T06:00:00Z,-0.67,34.77,21.0,14.0,110,4,,6.21,,,,,,,,,,,,CAVOK,,,,,,,,VFR,,,,,,,,,,,,METAR,1493.0
HKNK 220600Z 00000KT CAVOK 17/10 Q////,HKNK,2015-02-22T06:00:00Z,-0.3,36.17,17.0,10.0,0,0,,6.21,,,,,,,,,,,,CAVOK,,,,,,,,VFR,,,,,,,,,,,,METAR,1901.0
CXDE 220600Z AUTO 12003KT M19/M21 RMK AO1 SOG 15 8013 SLP222 T11941213,CXDE,2015-02-22T06:00:00Z,65.22,-123.43,-19.4,-21.3,120,3,,,,1022.2,,TRUE,TRUE,,,,,,,,,,,,,,,,,,,,,,,,,,,METAR,213.0
CXEC 220600Z AUTO M15/ RMK AO1 T1148,CXEC,2015-02-22T06:00:00Z,53.57,-113.52,-14.8,,,,,,,,,TRUE,TRUE,,,,,,,,,,,,,,,,,,,,,,,,,,,METAR,671.0
SACO 220600Z 36004KT CAVOK 15/14 Q1021,SACO,2015-02-22T06:00:00Z,-31.32,-64.22,15.0,14.0,360,4,,6.21,30.147638,,,,,,,,,,,CAVOK,,,,,,,,VFR,,,,,,,,,,,,METAR,474.0
SABE 220600Z 05003KT CAVOK 22/19 Q1018,SABE,2015-02-22T06:00:00Z,-34.57,-58.42,22.0,19.0,50,3,,6.21,30.059055,,,,,,,,,,,CAVOK,,,,,,,,VFR,,,,,,,,,,,,METAR,6.0
SAAR 220600Z 16003KT CAVOK 14/13 Q1019,SAAR,2015-02-22T06:00:00Z,-32.92,-60.77,14.0,13.0,160,3,,6.21,30.088583,,,,,,,,,,,CAVOK,,,,,,,,VFR,,,,,,,,,,,,METAR,25.0
RKJB 220600Z 34013KT 3500 DU BKN025 07/02 Q1019 NOSIG,RKJB,2015-02-22T06:00:00Z,34.98,126.38,7.0,2.0,340,13,,2.17,30.088583,,,,,,TRUE,,,,DU,BKN,2500,,,,,,,IFR,,,,,,,,,,,,METAR,2.0
RKTN 220600Z 32014KT 9999 FEW040 SCT200 14/03 Q1012 NOSIG,RKTN,2015-02-22T06:00:00Z,35.88,128.65,14.0,3.0,320,14,,6.21,29.88189,,,,,,TRUE,,,,,FEW,4000,SCT,20000,,,,,VFR,,,,,,,,,,,,METAR,35.0
RKTU 220600Z 29011KT 4800 DU BKN030 07/01 Q1015 NOSIG,RKTU,2015-02-22T06:00:00Z,36.7,127.5,7.0,1.0,290,11,,2.98,29.970472,,,,,,TRUE,,,,DU,BKN,3000,,,,,,,IFR,,,,,,,,,,,,METAR,66.0
RKPK 220600Z 30007KT 9999 FEW030 SCT200 16/08 Q1013 NOSIG,RKPK,2015-02-22T06:00:00Z,35.17,128.92,16.0,8.0,300,7,,6.21,29.911417,,,,,,TRUE,,,,,FEW,3000,SCT,20000,,,,,VFR,,,,,,,,,,,,METAR,15.0
RKPC 220600Z 33006KT 7000 BKN025 09/02 Q1019 NOSIG,RKPC,2015-02-22T06:00:00Z,33.5,126.48,9.0,2.0,330,6,,4.35,30.088583,,,,,,TRUE,,,,,BKN,2500,,,,,,,MVFR,,,,,,,,,,,,METAR,27.0
RKSS 220600Z 26014KT 5000 DU SCT040 05/M06 Q1016 WS ALL RWY NOSIG,RKSS,2015-02-22T06:00:00Z,37.53,126.78,5.0,-6.0,260,14,,3.11,30.0,,,,,,TRUE,,,,DU,SCT,4000,,,,,,,MVFR,,,,,,,,,,,,METAR,19.0
CYEN 220600Z 31008KT 15SM FEW130 M30/M33 A3059 RMK AC1 SLP431,CYEN,2015-02-22T06:00:00Z,49.22,-102.97,-30.0,-33.0,310,8,,15.0,30.590551,1043.1,,,,,,,,,,FEW,13000,,,,,,,VFR,,,,,,,,,,,,METAR,581.0
CYDN 220600Z AUTO 26008KT 9SM CLR M32/M36 A3067 RMK SLP430,CYDN,2015-02-22T06:00:00Z,51.1,-100.03,-32.0,-36.0,260,8,,9.0,30.670275,1043.0,,TRUE,,,,,,,,CLR,,,,,,,,VFR,,,,,,,,,,,,METAR,305.0
CYBU 220600Z AUTO 23004KT 9SM CLR M33/M36 A3067 RMK SLP441,CYBU,2015-02-22T06:00:00Z,53.32,-104.0,-33.0,-36.0,230,4,,9.0,30.670275,1044.1,,TRUE,,,,,,,,CLR,,,,,,,,VFR,,,,,,,,,,,,METAR,374.0
CYBR 220600Z 29006KT 15SM SKC M34/M38 A3062 RMK SLP428,CYBR,2015-02-22T06:00:00Z,49.92,-99.95,-34.0,-38.0,290,6,,15.0,30.620079,1042.8,,,,,,,,,,SKC,,,,,,,,VFR,,,,,,,,,,,,METAR,409.0
CYBQ 220600Z AUTO 30007KT 9SM CLR M33/M38 A3050 RMK SLP379,CYBQ,2015-02-22T06:00:00Z,58.7,-98.5,-33.0,-38.0,300,7,,9.0,30.499016,1037.9,,TRUE,,,,,,,,CLR,,,,,,,,VFR,,,,,,,,,,,,METAR,262.0
CYBK 220600Z 16003KT 120V190 15SM SKC M38/M42 A3040 RMK AURBO SLP297,CYBK,2015-02-22T06:00:00Z,64.28,-96.07,-38.0,-42.0,160,3,,15.0,30.398623,1029.7,,,,,,,,,,SKC,,,,,,,,VFR,,,,,,,,,,,,METAR,18.0
CWHN 220600Z AUTO 25005KT 9SM CLR M24/M27 A3050 RMK ICG PAST HR SLP402,CWHN,2015-02-22T06:00:00Z,54.88,-109.97,-24.0,-27.0,250,5,,9.0,30.499016,1040.2,,TRUE,,,,,,,,CLR,,,,,,,,VFR,,,,,,,,,,,,METAR,636.0
CYET 220600Z AUTO 32002KT 9SM BKN140 M12/M13 A3038 RMK SLP351,CYET,2015-02-22T06:00:00Z,53.57,-116.47,-12.0,-13.0,320,2,,9.0,30.380905,1035.1,,TRUE,,,,,,,,BKN,14000,,,,,,,VFR,,,,,,,,,,,,METAR,925.0
FQBR 220600Z 20009KT 9999 BKN018 SCT030 27/26 Q1011,FQBR,2015-02-22T06:00:00Z,-19.8,34.88,27.0,26.0,200,9,,6.21,29.852362,,,,,,,,,,,BKN,1800,SCT,3000,,,,,MVFR,,,,,,,,,,,,METAR,16.0
MHCH 220600Z 04014KT 9999 FEW030 26/20 HZ,MHCH,2015-02-22T06:00:00Z,13.32,-87.15,26.0,20.0,40,14,,6.21,,,,,,,,,,,HZ,FEW,3000,,,,,,,VFR,,,,,,,,,,,,METAR,48.0
MHSR 220600Z 00000KT 8000 BKN020 17/17 8KMS TD BR,MHSR,2015-02-22T06:00:00Z,14.78,-88.78,17.0,17.0,0,0,,4.97,,,,,,,,,,,BR,BKN,2000,,,,,,,MVFR,,,,,,,,,,,,METAR,1079.0
MHAM 220600Z 00000KT 9999 SKC 28/22,MHAM,2015-02-22T06:00:00Z,13.27,-87.65,28.0,22.0,0,0,,6.21,,,,,,,,,,,,SKC,,,,,,,,VFR,,,,,,,,,,,,METAR,5.0
FNBC 220600Z VRB02KT 3000 BR BKN007 OVC011 23/// Q1012,FNBC,2015-02-22T06:00:00Z,-6.27,14.25,,,0,2,,1.86,29.88189,,,,,,,,,,BR,BKN,700,OVC,1100,,,,,IFR,,,,,,,,,,,,METAR,567.0
MNMG 220600Z 12004KT CAVOK 24/20 Q1012 A2990 NOSIG,MNMG,2015-02-22T06:00:00Z,12.15,-86.17,24.0,20.0,120,4,,6.21,29.88189,,,,,,TRUE,,,,,CAVOK,,,,,,,,VFR,,,,,,,,,,,,METAR,59.0
CPIR 220600Z AUTO 19005KT M15/M16 RMK AO1 T11511161 50004,CPIR,2015-02-22T06:00:00Z,49.9,-112.73,-15.1,-16.1,190,5,,,,,,TRUE,TRUE,,,,,,,,,,,,,,,,0.4,,,,,,,,,,,METAR,858.0
FVWN 220600Z 02002KT CAVOK 24/19 Q1017,FVWN,2015-02-22T06:00:00Z,-18.62,27.0,24.0,19.0,20,2,,6.21,30.029528,,,,,,,,,,,CAVOK,,,,,,,,VFR,,,,,,,,,,,,METAR,1077.0
NGTT 220600Z 04006KT 9999 FEW020 30/24 Q1007,NGTT,2015-02-22T06:00:00Z,1.35,172.92,30.0,24.0,40,6,,6.21,29.734253,,,,,,,,,,,FEW,2000,,,,,,,VFR,,,,,,,,,,,,METAR,2.0
LERI 220600Z 33008KT CAVOK 11/M03 Q1012 NOSIG,LERI,2015-02-22T06:00:00Z,37.95,-1.22,11.0,-3.0,330,8,,6.21,29.88189,,,,,,TRUE,,,,,CAVOK,,,,,,,,VFR,,,,,,,,,,,,METAR,75.0
FAVV 220600Z AUTO /////KT //// // ////// 18/13 Q1025,FAVV,2015-02-22T06:00:00Z,-26.57,27.97,18.0,13.0,,,,,30.265747,,,TRUE,,,,,,,,,,,,,,,,,,,,,,,,,,,,METAR,1483.0
FASI 220600Z AUTO /////KT //// // ////// 17/12 Q1025,FASI,2015-02-22T06:00:00Z,-26.25,28.4,17.0,12.0,,,,,30.265747,,,TRUE,,,,,,,,,,,,,,,,,,,,,,,,,,,,METAR,1628.0
FAJB 220600Z AUTO 14003KT //// // ////// 21/10 Q1023,FAJB,2015-02-22T06:00:00Z,-26.15,28.0,21.0,10.0,140,3,,,30.206694,,,TRUE,,,,,,,,,,,,,,,,,,,,,,,,,,,,METAR,1626.0
FAGC 220600Z AUTO 14009KT //// // ////// 22/10 Q1023,FAGC,2015-02-22T06:00:00Z,-25.98,28.13,22.0,10.0,140,9,,,30.206694,,,TRUE,,,,,,,,,,,,,,,,,,,,,,,,,,,,METAR,1623.0
DTTZ 220600Z 23013KT 5000 SCT030 11/08 Q0999 NOSIG,DTTZ,2015-02-22T06:00:00Z,33.92,8.08,11.0,8.0,230,13,,3.11,29.498032,,,,,,TRUE,,,,,SCT,3000,,,,,,,MVFR,,,,,,,,,,,,METAR,93.0
DTTX 220600Z 22011KT 6000 SCT020 10/09 Q0996 NOSIG,DTTX,2015-02-22T06:00:00Z,34.72,10.67,10.0,9.0,220,11,,3.73,29.409449,,,,,,TRUE,,,,,SCT,2000,,,,,,,MVFR,,,,,,,,,,,,METAR,23.0
DTTF 220600Z 25013KT 8000 BKN026 SCT030 09/08 Q0998,DTTF,2015-02-22T06:00:00Z,34.42,8.82,9.0,8.0,250,13,,4.97,29.468504,,,,,,,,,,,BKN,2600,SCT,3000,,,,,MVFR,,,,,,,,,,,,METAR,314.0
DTKA 220600Z 22010KT 8000 SCT020 SCT030 10/07 Q0996 NOSIG,DTKA,2015-02-22T06:00:00Z,36.98,8.88,10.0,7.0,220,10,,4.97,29.409449,,,,,,TRUE,,,,,SCT,2000,SCT,3000,,,,,MVFR,,,,,,,,,,,,METAR,21.0
LERT 220600Z 30012KT CAVOK 09/07 Q1017 NOSIG,LERT,2015-02-22T06:00:00Z,36.63,-6.33,9.0,7.0,300,12,,6.21,30.029528,,,,,,TRUE,,,,,CAVOK,,,,,,,,VFR,,,,,,,,,,,,METAR,26.0
SLVR 220600Z 17006KT 9999 BKN070 24/22 Q1013,SLVR,2015-02-22T06:00:00Z,-17.63,-63.12,24.0,22.0,170,6,,6.21,29.911417,,,,,,,,,,,BKN,7000,,,,,,,VFR,,,,,,,,,,,,METAR,373.0
SLLP 220600Z 11006KT 4000E VCFG FEW003 SCT200 06/05 Q1036,SLLP,2015-02-22T06:00:00Z,-16.52,-68.17,6.0,5.0,110,6,,2.49,30.590551,,,,,,,,,,VCFG,FEW,300,SCT,20000,,,,,IFR,,,,,,,,,,,,METAR,4014.0
SLCB 220600Z 16007KT 9999 SCT025 SCT200 17/09 Q1025,SLCB,2015-02-22T06:00:00Z,-17.42,-66.18,17.0,9.0,160,7,,6.21,30.265747,,,,,,,,,,,SCT,2500,SCT,20000,,,,,VFR,,,,,,,,,,,,METAR,2548.0
SGES 220600Z 15006KT 9999 TS SCT008 OVC020 FEW040CB 24/23 Q1015,SGES,2015-02-22T06:00:00Z,-25.45,-54.85,24.0,23.0,150,6,,6.21,29.970472,,,,,,,,,,TS,SCT,800,OVC,2000,FEW,4000,,,MVFR,,,,,,,,,,,,METAR,849.0
SGAS 220600Z 00000KT 9999 FEW030 BKN080 24/23 Q1013,SGAS,2015-02-22T06:00:00Z,-25.25,-57.52,24.0,23.0,0,0,,6.21,29.911417,,,,,,,,,,,FEW,3000,BKN,8000,,,,,VFR,,,,,,,,,,,,METAR,101.0
DTTR 220600Z 21010KT 8000 BKN026 09/09 Q1004,DTTR,2015-02-22T06:00:00Z,31.7,9.27,9.0,9.0,210,10,,4.97,29.64567,,,,,,,,,,,BKN,2600,,,,,,,MVFR,,,,,,,,,,,,METAR,259.0
DTTN 220600Z VRB01KT 6000 SCT013 SCT020 09/09 Q0996,DTTN,2015-02-22T06:00:00Z,36.47,8.8,9.0,9.0,0,1,,3.73,29.409449,,,,,,,,,,,SCT,1300,SCT,2000,,,,,MVFR,,,,,,,,,,,,METAR,144.0
OLBA 220600Z 09005KT 9999 FEW026 BKN200 12/02 Q1024,OLBA,2015-02-22T06:00:00Z,33.82,35.47,12.0,2.0,90,5,,6.21,30.236221,,,,,,,,,,,FEW,2600,BKN,20000,,,,,VFR,,,,,,,,,,,,METAR,19.0
OJAQ 220600Z 00000KT CAVOK 09/02 Q1022 NOSIG,OJAQ,2015-02-22T06:00:00Z,29.62,35.02,9.0,2.0,0,0,,6.21,30.177166,,,,,,TRUE,,,,,CAVOK,,,,,,,,VFR,,,,,,,,,,,,METAR,51.0
OJAM 220600Z 00000KT 2000 BR NSC 03/02 Q1022 NOSIG,OJAM,2015-02-22T06:00:00Z,31.97,35.97,3.0,2.0,0,0,,1.24,30.177166,,,,,,TRUE,,,,BR,,,,,,,,,,,,,,,,,,,,,SPECI,773.0
OJAI 220600Z 00000KT 4000 BR NSC 00/00 Q1024 NOSIG,OJAI,2015-02-22T06:00:00Z,31.72,36.0,0.0,0.0,0,0,,2.49,30.236221,,,,,,TRUE,,,,BR,,,,,,,,,,,,,,,,,,,,,SPECI,730.0
MROC 220600Z 08008KT 9999 FEW030 20/15 A3001 NOSIG,MROC,2015-02-22T06:00:00Z,10.0,-84.22,20.0,15.0,80,8,,6.21,30.008858,,,,,,TRUE,,,,,FEW,3000,,,,,,,VFR,,,,,,,,,,,,METAR,920.0
SBBE 220600Z 10005KT CAVOK 25/22 Q1010,SBBE,2015-02-22T06:00:00Z,-1.37,-48.47,25.0,22.0,100,5,,6.21,29.822834,,,,,,,,,,,CAVOK,,,,,,,,VFR,,,,,,,,,,,,METAR,16.0
RJAW 220600Z 07014KT 9999 FEW030 BKN080 18/08 Q1022 RMK 1CU030 7AC080 A3019,RJAW,2015-02-22T06:00:00Z,24.77,141.32,18.0,8.0,70,14,,6.21,30.177166,,,,,,,,,,,FEW,3000,BKN,8000,,,,,VFR,,,,,,,,,,,,METAR,116.0
FAWK 220600Z AUTO 15007KT //// // ////// 23/11 Q1024,FAWK,2015-02-22T06:00:00Z,-25.82,28.22,23.0,11.0,150,7,,,30.236221,,,TRUE,,,,,,,,,,,,,,,,,,,,,,,,,,,,METAR,1500.0
FAWB 220600Z AUTO 15004KT //// // ////// 23/11 Q1020,FAWB,2015-02-22T06:00:00Z,-25.63,28.22,23.0,11.0,150,4,,,30.11811,,,TRUE,,,,,,,,,,,,,,,,,,,,,,,,,,,,METAR,1248.0
FLSK 220600Z 00000KT 9999 FEW009 SCT100 BKN300 21/20 Q1018,FLSK,2015-02-22T06:00:00Z,-13.0,28.67,21.0,20.0,0,0,,6.21,30.059055,,,,,,,,,,,FEW,900,SCT,10000,BKN,30000,,,VFR,,,,,,,,,,,,METAR,1261.0
GMML 220600Z 03009KT 6000 SCT013 BKN020 14/12 Q1020 NOSIG,GMML,2015-02-22T06:00:00Z,27.13,-13.23,14.0,12.0,30,9,,3.73,30.11811,,,,,,TRUE,,,,,SCT,1300,BKN,2000,,,,,MVFR,,,,,,,,,,,,METAR,6.0
DAUZ 220600Z 22011KT 8000 NSC 11/08 Q1008,DAUZ,2015-02-22T06:00:00Z,28.05,9.62,11.0,8.0,220,11,,4.97,29.763779,,,,,,,,,,,,,,,,,,,,,,,,,,,,,,,METAR,562.0
DABS 220600Z 32014KT 8000 RA SCT026 BKN033 05/04 Q0998,DABS,2015-02-22T06:00:00Z,35.43,8.12,5.0,4.0,320,14,,4.97,29.468504,,,,,,,,,,RA,SCT,2600,BKN,3300,,,,,MVFR,,,,,,,,,,,,METAR,813.0
FVFA 220600Z 11004KT 080V160 CAVOK 24/21 Q1016 NOSIG,FVFA,2015-02-22T06:00:00Z,-18.1,25.85,24.0,21.0,110,4,,6.21,30.0,,,,,,TRUE,,,,,CAVOK,,,,,,,,VFR,,,,,,,,,,,,METAR,1062.0
YMOR 220600Z AUTO 20004KT 160V310 9999 // NCD 36/14 Q1009,YMOR,2015-02-22T06:00:00Z,-29.5,149.85,36.0,14.0,200,4,,6.21,29.793306,,,TRUE,,,,,,,,,,,,,,,,,,,,,,,,,,,,METAR,214.0
YMIA 220600Z AUTO 07004KT 360V100 9999 // NCD 39/03 Q1008,YMIA,2015-02-22T06:00:00Z,-34.23,142.08,39.0,3.0,70,4,,6.21,29.763779,,,TRUE,,,,,,,,,,,,,,,,,,,,,,,,,,,,METAR,51.0
YMER 220600Z AUTO 03013G25KT 9999 // NCD 24/20 Q1015,YMER,2015-02-22T06:00:00Z,-36.92,149.9,24.0,20.0,30,13,25,6.21,29.970472,,,TRUE,,,,,,,,,,,,,,,,,,,,,,,,,,,,METAR,2.0
YMEN 220600Z AUTO 20014KT 190V340 9999 // SCT120 32/15 Q1010,YMEN,2015-02-22T06:00:00Z,-37.72,144.9,32.0,15.0,200,14,,6.21,29.822834,,,TRUE,,,,,,,,SCT,12000,,,,,,,VFR,,,,,,,,,,,,METAR,86.0
YMEK 220600Z AUTO 25010KT 9999 // NCD 41/06 Q1006,YMEK,2015-02-22T06:00:00Z,-26.62,118.55,41.0,6.0,250,10,,6.21,29.704725,,,TRUE,,,,,,,,,,,,,,,,,,,,,,,,,,,,METAR,522.0
YMDG 220600Z AUTO 14008KT //// // SCT068 30/15 Q1014,YMDG,2015-02-22T06:00:00Z,-32.57,149.62,30.0,15.0,140,8,,,29.940945,,,TRUE,,,,,,,,SCT,6800,,,,,,,,,,,,,,,,,,,METAR,471.0
YMAY 220600Z AUTO 25004KT 130V290 9999 // NCD 34/13 Q1012,YMAY,2015-02-22T06:00:00Z,-36.07,146.93,34.0,13.0,250,4,,6.21,29.88189,,,TRUE,,,,,,,,,,,,,,,,,,,,,,,,,,,,METAR,171.0
YLRE 220600Z AUTO 25010KT 9999 // NCD 42/14 Q1005,YLRE,2015-02-22T06:00:00Z,-23.43,144.28,42.0,14.0,250,10,,6.21,29.675198,,,TRUE,,,,,,,,,,,,,,,,,,,,,,,,,,,,METAR,193.0
YPXM 220600Z AUTO 21008KT 9999 // SCT018 SCT024 SCT030 29/23 Q1011,YPXM,2015-02-22T06:00:00Z,-10.45,105.67,29.0,23.0,210,8,,6.21,29.852362,,,TRUE,,,,,,,,SCT,1800,SCT,2400,SCT,3000,,,VFR,,,,,,,,,,,,METAR,259.0
FAUT 220600Z 33003KT 9999 FEW010 BKN020 14/09 Q1025,FAUT,2015-02-22T06:00:00Z,-31.52,28.67,14.0,9.0,330,3,,6.21,30.265747,,,,,,,,,,,FEW,1000,BKN,2000,,,,,MVFR,,,,,,,,,,,,METAR,732.0
UTAT 220600Z 36007MPS CAVOK 00/M04 Q1019 99CLRD70 NOSIG,UTAT,2015-02-22T06:00:00Z,41.77,59.83,0.0,-4.0,360,14,,6.21,30.088583,,,,,,TRUE,,,,,CAVOK,,,,,,,,VFR,,,,,,,,,,,,METAR,83.0
UTAM 220600Z 31007MPS 9999 OVC015 07/05 Q1017 NOSIG RMK 881///60,UTAM,2015-02-22T06:00:00Z,37.62,61.9,7.0,5.0,310,14,,6.21,30.029528,,,,,,TRUE,,,,,OVC,1500,,,,,,,MVFR,,,,,,,,,,,,METAR,222.0
UTAV 220600Z 23004MPS 8000 OVC012 11/11 Q1013 NOSIG,UTAV,2015-02-22T06:00:00Z,39.08,63.62,11.0,11.0,230,8,,4.97,29.911417,,,,,,TRUE,,,,,OVC,1200,,,,,,,MVFR,,,,,,,,,,,,METAR,192.0
UTAK 220600Z 07006MPS 9999 BKN017 02/02 Q1020 R34/29//50 NOSIG,UTAK,2015-02-22T06:00:00Z,40.05,53.0,2.0,2.0,70,12,,6.21,30.11811,,,,,,TRUE,,,,,BKN,1700,,,,,,,MVFR,,,,,,,,,,,,METAR,85.0
LIMP 220600Z 05005KT 020V090 4000 -RA BR BKN006 BKN025 07/05 Q0999,LIMP,2015-02-22T06:00:00Z,44.82,10.3,7.0,5.0,50,5,,2.49,29.498032,,,,,,,,,,-RA BR,BKN,600,BKN,2500,,,,,IFR,,,,,,,,,,,,SPECI,50.0
TTCP 220600Z 00000KT 9999 FEW016 24/20 Q1014 NOSIG,TTCP,2015-02-22T06:00:00Z,11.15,-60.85,24.0,20.0,0,0,,6.21,29.940945,,,,,,TRUE,,,,,FEW,1600,,,,,,,VFR,,,,,,,,,,,,METAR,8.0
TTPP 220600Z 10003KT 9999 FEW016 24/21 Q1013 NOSIG,TTPP,2015-02-22T06:00:00Z,10.58,-61.35,24.0,21.0,100,3,,6.21,29.911417,,,,,,TRUE,,,,,FEW,1600,,,,,,,VFR,,,,,,,,,,,,METAR,15.0
ZUUU 220600Z 01003MPS 310V080 CAVOK 15/03 Q1017 NOSIG,ZUUU,2015-02-22T06:00:00Z,30.58,103.95,15.0,3.0,10,6,,6.21,30.029528,,,,,,TRUE,,,,,CAVOK,,,,,,,,VFR,,,,,,,,,,,,METAR,508.0
ZUGY 220600Z 02004MPS 9999 SCT007 BKN016 OVC033 10/08 Q1016 NOSIG,ZUGY,2015-02-22T06:00:00Z,26.53,106.8,10.0,8.0,20,8,,6.21,30.0,,,,,,TRUE,,,,,SCT,700,BKN,1600,OVC,3300,,,MVFR,,,,,,,,,,,,METAR,1074.0
ZSQD 220600Z 30007MPS 260V330 CAVOK 05/M15 Q1022 NOSIG,ZSQD,2015-02-22T06:00:00Z,36.27,120.38,5.0,-15.0,300,14,,6.21,30.177166,,,,,,TRUE,,,,,CAVOK,,,,,,,,VFR,,,,,,,,,,,,METAR,77.0
ZSNB 220600Z 33004MPS 4000 BR BKN020 10/06 Q1021 NOSIG,ZSNB,2015-02-22T06:00:00Z,29.83,121.47,10.0,6.0,330,8,,2.49,30.147638,,,,,,TRUE,,,,BR,BKN,2000,,,,,,,IFR,,,,,,,,,,,,METAR,4.0
ZSFZ 220600Z 04007MPS 5000 BR BKN008 14/11 Q1018 BECMG TL0730 BKN010,ZSFZ,2015-02-22T06:00:00Z,25.93,119.67,14.0,11.0,40,14,,3.11,30.059055,,,,,,,,,,BR,BKN,800,,,,,,,IFR,,,,,,,,,,,,METAR,85.0
ZSAM 220600Z 10004MPS 9999 SCT020 23/17 Q1016 NOSIG,ZSAM,2015-02-22T06:00:00Z,24.53,118.13,23.0,17.0,100,8,,6.21,30.0,,,,,,TRUE,,,,,SCT,2000,,,,,,,VFR,,,,,,,,,,,,METAR,139.0
ZPPP 220600Z 24009MPS 210V270 CAVOK 18/M03 Q1019 NOSIG,ZPPP,2015-02-22T06:00:00Z,25.0,102.75,18.0,-3.0,240,17,,6.21,30.088583,,,,,,TRUE,,,,,CAVOK,,,,,,,,VFR,,,,,,,,,,,,METAR,1892.0
ZLXY 220600Z 08005MPS 050V120 6000 NSC 04/M15 Q1023 NOSIG,ZLXY,2015-02-22T06:00:00Z,34.43,108.75,4.0,-15.0,80,10,,3.73,30.206694,,,,,,TRUE,,,,,,,,,,,,,,,,,,,,,,,,,METAR,479.0
ZGSZ 220600Z 20003MPS 170V230 5000 BR BKN033 22/19 Q1014 NOSIG,ZGSZ,2015-02-22T06:00:00Z,22.63,113.8,22.0,19.0,200,6,,3.11,29.940945,,,,,,TRUE,,,,BR,BKN,3300,,,,,,,MVFR,,,,,,,,,,,,METAR,18.0
ZGOW 220600Z 08004MPS 7000 FEW017 SCT050 23/17 Q1015 NOSIG,ZGOW,2015-02-22T06:00:00Z,23.55,116.5,23.0,17.0,80,8,,4.35,29.970472,,,,,,TRUE,,,,,FEW,1700,SCT,5000,,,,,MVFR,,,,,,,,,,,,METAR,3.0
ZGKL 220600Z VRB02MPS 9999 SCT023 OVC043 15/10 Q1016 NOSIG,ZGKL,2015-02-22T06:00:00Z,25.22,110.03,15.0,10.0,0,4,,6.21,30.0,,,,,,TRUE,,,,,SCT,2300,OVC,4300,,,,,VFR,,,,,,,,,,,,METAR,166.0
FVHA 220600Z 10005KT 060V120 9999 BKN010 20/20 Q1021 NOSIG RMK QFE 853.6,FVHA,2015-02-22T06:00:00Z,-17.92,31.12,20.0,20.0,100,5,,6.21,30.147638,,,,,,TRUE,,,,,BKN,1000,,,,,,,MVFR,,,,,,,,,,,,METAR,1503.0
FVCZ 220600Z 16001KT 9999 FEW020 24/20 Q1020,FVCZ,2015-02-22T06:00:00Z,-21.02,31.57,24.0,20.0,160,1,,6.21,30.11811,,,,,,,,,,,FEW,2000,,,,,,,VFR,,,,,,,,,,,,METAR,430.0
ZWSH 220600Z VRB01MPS CAVOK 10/M10 Q1015 NOSIG,ZWSH,2015-02-22T06:00:00Z,39.55,76.02,10.0,-10.0,0,2,,6.21,29.970472,,,,,,TRUE,,,,,CAVOK,,,,,,,,VFR,,,,,,,,,,,,METAR,1291.0
ZBSJ 220600Z 28005MPS CAVOK 05/M19 Q1023 NOSIG,ZBSJ,2015-02-22T06:00:00Z,38.28,114.7,5.0,-19.0,280,10,,6.21,30.206694,,,,,,TRUE,,,,,CAVOK,,,,,,,,VFR,,,,,,,,,,,,METAR,71.0
FSIA 220600Z 01005KT 9999 FEW019 29/24 Q1012 NOSIG,FSIA,2015-02-22T06:00:00Z,-4.67,55.52,29.0,24.0,10,5,,6.21,29.88189,,,,,,TRUE,,,,,FEW,1900,,,,,,,VFR,,,,,,,,,,,,METAR,3.0
LKPD 220600Z 00000KT 1500 BR NSC M03/M04 Q1005 NOSIG RMK AMB AMB,LKPD,2015-02-22T06:00:00Z,50.02,15.73,-3.0,-4.0,0,0,,0.93,29.675198,,,,,,TRUE,,,,BR,,,,,,,,,,,,,,,,,,,,,METAR,226.0
YPEA 220600Z AUTO 19012KT 9999 // NCD 31/14 Q1011,YPEA,2015-02-22T06:00:00Z,-31.67,116.02,31.0,14.0,190,12,,6.21,29.852362,,,TRUE,,,,,,,,,,,,,,,,,,,,,,,,,,,,METAR,49.0
LKNA 220600Z 03003KT 9000 NSC M01/M01 Q1003 NOSIG RMK BLU BLU,LKNA,2015-02-22T06:00:00Z,49.17,16.12,-1.0,-1.0,30,3,,5.59,29.616142,,,,,,TRUE,,,,,,,,,,,,,,,,,,,,,,,,,METAR,472.0
LKLN 220600Z AUTO 20001KT 9999 BKN037 00/M01 Q1006,LKLN,2015-02-22T06:00:00Z,49.68,13.27,0.0,-1.0,200,1,,6.21,29.704725,,,TRUE,,,,,,,,BKN,3700,,,,,,,VFR,,,,,,,,,,,,METAR,362.0
LKKB 220600Z 32004KT 290V010 5000 BR NSC 01/M02 Q1005 NOSIG,LKKB,2015-02-22T06:00:00Z,50.12,14.53,1.0,-2.0,320,4,,3.11,29.675198,,,,,,TRUE,,,,BR,,,,,,,,,,,,,,,,,,,,,METAR,286.0
LKCV 220600Z 23001KT 4000 BR BKN021 M02/M02 Q1005 NOSIG RMK GRN GRN,LKCV,2015-02-22T06:00:00Z,49.93,15.38,-2.0,-2.0,230,1,,2.49,29.675198,,,,,,TRUE,,,,BR,BKN,2100,,,,,,,IFR,,,,,,,,,,,,METAR,242.0
OERY 220600Z 33013KT 1500 BLSA NSC 11/01 Q1021,OERY,2015-02-22T06:00:00Z,24.72,46.72,11.0,1.0,330,13,,0.93,30.147638,,,,,,,,,,BLSA,,,,,,,,,,,,,,,,,,,,,METAR,612.0
LELO 220600Z 26012KT 9999 FEW010 BKN025 06/03 Q1014,LELO,2015-02-22T06:00:00Z,42.45,-2.32,6.0,3.0,260,12,,6.21,29.940945,,,,,,,,,,,FEW,1000,BKN,2500,,,,,MVFR,,,,,,,,,,,,METAR,363.0
LEBT 220600Z AUTO 28012KT 230V320 9999 // FEW060/// 10/M02 Q1009,LEBT,2015-02-22T06:00:00Z,39.58,-0.45,10.0,-2.0,280,12,,6.21,29.793306,,,TRUE,,,,,,,,,,,,,,,,,,,,,,,,,,,,METAR,50.0
LEAO 220600Z 12002KT CAVOK M02/M03 Q1014,LEAO,2015-02-22T06:00:00Z,38.95,-3.73,-2.0,-3.0,120,2,,6.21,29.940945,,,,,,,,,,,CAVOK,,,,,,,,VFR,,,,,,,,,,,,METAR,629.0
LEBA 220600Z 00000KT 0400 R21/1000U FG VV002 05/05 Q1016,LEBA,2015-02-22T06:00:00Z,37.85,-4.82,5.0,5.0,0,0,,0.25,30.0,,,,,,,,,,FG,OVX,0,,,,,,,LIFR,,,,,,,,,,,200,METAR,92.0
LEBG 220600Z 29008KT 250V320 9999 BKN015 02/00 Q1014 RESN,LEBG,2015-02-22T06:00:00Z,42.37,-3.62,2.0,0.0,290,8,,6.21,29.940945,,,,,,,,,,,BKN,1500,,,,,,,MVFR,,,,,,,,,,,,METAR,891.0
RJOT 220600Z 01004KT 340V060 9999 FEW020 SCT050 BKN090 14/11 Q1013,RJOT,2015-02-22T06:00:00Z,34.22,134.02,14.0,11.0,10,4,,6.21,29.911417,,,,,,,,,,,FEW,2000,SCT,5000,BKN,9000,,,VFR,,,,,,,,,,,,METAR,188.0
RJOR 220600Z 16020KT 9999 -SHRA FEW025 SCT040 BKN070 15/09 Q1011,RJOR,2015-02-22T06:00:00Z,35.52,134.17,15.0,9.0,160,20,,6.21,29.852362,,,,,,,,,,-SHRA,FEW,2500,SCT,4000,BKN,7000,,,VFR,,,,,,,,,,,,METAR,18.0
RJOO 220600Z 06005KT 040V100 9999 -SHRA FEW015 SCT030 BKN040 15/08 Q1016 RMK 1CU015 3CU030 6CU040 A3001,RJOO,2015-02-22T06:00:00Z,34.77,135.43,15.0,8.0,60,5,,6.21,30.0,,,,,,,,,,-SHRA,FEW,1500,SCT,3000,BKN,4000,,,VFR,,,,,,,,,,,,METAR,15.0
RJOM 220600Z 01011KT 9999 FEW020 SCT025 BKN040 11/09 Q1013,RJOM,2015-02-22T06:00:00Z,33.82,132.68,11.0,9.0,10,11,,6.21,29.911417,,,,,,,,,,,FEW,2000,SCT,2500,BKN,4000,,,VFR,,,,,,,,,,,,METAR,7.0
RJOH 220600Z 17013KT 9999 -SHRA FEW015 BKN040 BKN060 13/09 Q1011,RJOH,2015-02-22T06:00:00Z,35.47,133.25,13.0,9.0,170,13,,6.21,29.852362,,,,,,,,,,-SHRA,FEW,1500,BKN,4000,BKN,6000,,,VFR,,,,,,,,,,,,METAR,9.0
RJOC 220600Z VRB04KT 9999 FEW015 SCT040 BKN050 15/11 Q1011,RJOC,2015-02-22T06:00:00Z,35.42,132.87,15.0,11.0,0,4,,6.21,29.852362,,,,,,,,,,,FEW,1500,SCT,4000,BKN,5000,,,VFR,,,,,,,,,,,,METAR,5.0
RJOB 220600Z 07008KT 9999 -SHRA FEW002 SCT010 BKN070 12/11 Q1014,RJOB,2015-02-22T06:00:00Z,34.75,133.83,12.0,11.0,70,8,,6.21,29.940945,,,,,,,,,,-SHRA,FEW,200,SCT,1000,BKN,7000,,,VFR,,,,,,,,,,,,METAR,242.0
RJNS 220600Z 01003KT 320V080 9999 FEW005 BKN035 BKN060 11/10 Q1020,RJNS,2015-02-22T06:00:00Z,34.8,138.18,11.0,10.0,10,3,,6.21,30.11811,,,,,,,,,,,FEW,500,BKN,3500,BKN,6000,,,VFR,,,,,,,,,,,,METAR,135.0
RJNW 220600Z 22008KT 9999 -SHRA FEW030 SCT040 BKN050 14/07 Q1012,RJNW,2015-02-22T06:00:00Z,37.3,136.97,14.0,7.0,220,8,,6.21,29.88189,,,,,,,,,,-SHRA,FEW,3000,SCT,4000,BKN,5000,,,VFR,,,,,,,,,,,,METAR,219.0
RJKA 220600Z 21016KT 9999 -RA FEW020 SCT040 BKN050 21/16 Q1016,RJKA,2015-02-22T06:00:00Z,28.42,129.72,21.0,16.0,210,16,,6.21,30.0,,,,,,,,,,-RA,FEW,2000,SCT,4000,BKN,5000,,,VFR,,,,,,,,,,,,METAR,7.0
RJFU 220600Z 26007KT 9999 FEW009 BKN015 BKN020 14/12 Q1015,RJFU,2015-02-22T06:00:00Z,32.92,129.92,14.0,12.0,260,7,,6.21,29.970472,,,,,,,,,,,FEW,900,BKN,1500,BKN,2000,,,MVFR,,,,,,,,,,,,METAR,5.0
RJFO 220600Z 23004KT 9999 FEW010 SCT030 BKN040 15/14 Q1013,RJFO,2015-02-22T06:00:00Z,33.47,131.72,15.0,14.0,230,4,,6.21,29.911417,,,,,,,,,,,FEW,1000,SCT,3000,BKN,4000,,,VFR,,,,,,,,,,,,METAR,8.0
RJFM 220600Z 25017KT 9999 FEW005 SCT060 19/14 Q1014,RJFM,2015-02-22T06:00:00Z,31.87,131.43,19.0,14.0,250,17,,6.21,29.940945,,,,,,,,,,,FEW,500,SCT,6000,,,,,VFR,,,,,,,,,,,,METAR,9.0
RJFK 220600Z 26007KT 8000 -SHRA FEW002 SCT004 BKN005 14/13 Q1016 RMK 1ST002 3ST004 6ST005 A3000,RJFK,2015-02-22T06:00:00Z,31.8,130.72,14.0,13.0,260,7,,4.97,30.0,,,,,,,,,,-SHRA,FEW,200,SCT,400,BKN,500,,,IFR,,,,,,,,,,,,METAR,275.0
RJFS 220600Z 24004KT 9999 -SHRA FEW010 BKN015 BKN025 13/11 Q1015,RJFS,2015-02-22T06:00:00Z,33.15,130.3,13.0,11.0,240,4,,6.21,29.970472,,,,,,,,,,-SHRA,FEW,1000,BKN,1500,BKN,2500,,,MVFR,,,,,,,,,,,,METAR,5.0
RJEC 220600Z 36007KT 9999 FEW035 SCT070 BKN/// 03/M04 Q1017,RJEC,2015-02-22T06:00:00Z,43.67,142.43,3.0,-4.0,360,7,,6.21,30.029528,,,,,,,,,,,FEW,3500,SCT,7000,,,,,VFR,,,,,,,,,,,,METAR,211.0
RJEB 220600Z 09005KT CAVOK 01/M04 Q1019,RJEB,2015-02-22T06:00:00Z,44.3,143.4,1.0,-4.0,90,5,,6.21,30.088583,,,,,,,,,,,CAVOK,,,,,,,,VFR,,,,,,,,,,,,METAR,25.0
RJDT 220600Z 28011KT 240V320 9999 FEW010 SCT015 BKN020 10/07 Q1014,RJDT,2015-02-22T06:00:00Z,34.27,129.32,10.0,7.0,280,11,,6.21,29.940945,,,,,,,,,,,FEW,1000,SCT,1500,BKN,2000,,,MVFR,,,,,,,,,,,,METAR,66.0
RJCW 220600Z 20006KT 9999 FEW040 06/M05 Q1017,RJCW,2015-02-22T06:00:00Z,45.38,141.8,6.0,-5.0,200,6,,6.21,30.029528,,,,,,,,,,,FEW,4000,,,,,,,VFR,,,,,,,,,,,,METAR,11.0
RJCN 220600Z 23012KT 9999 FEW015 BKN020 01/M02 Q1022,RJCN,2015-02-22T06:00:00Z,43.57,144.97,1.0,-2.0,230,12,,6.21,30.177166,,,,,,,,,,,FEW,1500,BKN,2000,,,,,MVFR,,,,,,,,,,,,METAR,70.0
RJCM 220600Z 20010KT 9999 FEW015 BKN100 03/M03 Q1020,RJCM,2015-02-22T06:00:00Z,43.88,144.17,3.0,-3.0,200,10,,6.21,30.11811,,,,,,,,,,,FEW,1500,BKN,10000,,,,,VFR,,,,,,,,,,,,METAR,36.0
RJCK 220600Z 17006KT 9999 -SHSN FEW005 BKN007 BKN010 M00/M02 Q1022,RJCK,2015-02-22T06:00:00Z,43.02,144.18,0.0,-2.0,170,6,,6.21,30.177166,,,,,,,,,,-SHSN,FEW,500,BKN,700,BKN,1000,,,IFR,,,,,,,,,,,,METAR,98.0
RJCH 220600Z 07008KT 9999 FEW015 SCT100 BKN/// 07/M01 Q1017,RJCH,2015-02-22T06:00:00Z,41.77,140.82,7.0,-1.0,70,8,,6.21,30.029528,,,,,,,,,,,FEW,1500,SCT,10000,,,,,VFR,,,,,,,,,,,,METAR,36.0
RJCB 220600Z 35004KT 9999 FEW010 BKN015 M01/M05 Q1021,RJCB,2015-02-22T06:00:00Z,42.72,143.22,-1.0,-5.0,350,4,,6.21,30.147638,,,,,,,,,,,FEW,1000,BKN,1500,,,,,MVFR,,,,,,,,,,,,METAR,152.0
RJBT 220600Z 18015KT 150V210 9999 -SHRA FEW010 SCT020 BKN025 13/08 Q1012,RJBT,2015-02-22T06:00:00Z,35.5,134.8,13.0,8.0,180,15,,6.21,29.88189,,,,,,,,,,-SHRA,FEW,1000,SCT,2000,BKN,2500,,,MVFR,,,,,,,,,,,,METAR,210.0
RJBE 220600Z 02003KT 9999 -SHRA FEW012 SCT025 BKN035 13/10 Q1016,RJBE,2015-02-22T06:00:00Z,34.63,135.23,13.0,10.0,20,3,,6.21,30.0,,,,,,,,,,-SHRA,FEW,1200,SCT,2500,BKN,3500,,,VFR,,,,,,,,,,,,METAR,5.0
RJBD 220600Z 16011KT 9999 FEW008 SCT015 BKN030 15/13 Q1017,RJBD,2015-02-22T06:00:00Z,33.67,135.37,15.0,13.0,160,11,,6.21,30.029528,,,,,,,,,,,FEW,800,SCT,1500,BKN,3000,,,MVFR,,,,,,,,,,,,METAR,108.0
RJAF 220600Z 14013KT 9999 VCSH SCT030 BKN040 09/03 Q1017,RJAF,2015-02-22T06:00:00Z,36.17,137.92,9.0,3.0,140,13,,6.21,30.029528,,,,,,,,,,VCSH,SCT,3000,BKN,4000,,,,,VFR,,,,,,,,,,,,METAR,660.0
RORS 220600Z 19014KT 9999 FEW019 BKN030 BKN090 22/17 Q1016,RORS,2015-02-22T06:00:00Z,24.82,125.15,22.0,17.0,190,14,,6.21,30.0,,,,,,,,,,,FEW,1900,BKN,3000,BKN,9000,,,MVFR,,,,,,,,,,,,METAR,16.0
ROMY 220600Z 20016KT 9999 FEW017 SCT023 BKN100 23/17 Q1016,ROMY,2015-02-22T06:00:00Z,24.77,125.27,23.0,17.0,200,16,,6.21,30.0,,,,,,,,,,,FEW,1700,SCT,2300,BKN,10000,,,VFR,,,,,,,,,,,,METAR,41.0
ROIG 220600Z 18012KT 9999 FEW015 BKN028 BKN050 22/18 Q1015,ROIG,2015-02-22T06:00:00Z,24.32,124.17,22.0,18.0,180,12,,6.21,29.970472,,,,,,,,,,,FEW,1500,BKN,2800,BKN,5000,,,MVFR,,,,,,,,,,,,METAR,7.0
RJTI 220600Z VRB02KT 8000 SCT010 BKN012 08/02 Q1021,RJTI,2015-02-22T06:00:00Z,35.63,139.83,8.0,2.0,0,2,,4.97,30.147638,,,,,,,,,,,SCT,1000,BKN,1200,,,,,MVFR,,,,,,,,,,,,METAR,8.0
RJTF 220600Z 02004KT 310V080 5000 BR FEW010 SCT015 BKN050 07/00 Q1021,RJTF,2015-02-22T06:00:00Z,35.67,139.52,7.0,0.0,20,4,,3.11,30.147638,,,,,,,,,,BR,FEW,1000,SCT,1500,BKN,5000,,,MVFR,,,,,,,,,,,,METAR,44.0
RJSY 220600Z 10016KT 9999 FEW050 BKN070 10/M00 Q1015,RJSY,2015-02-22T06:00:00Z,38.82,139.77,10.0,0.0,100,16,,6.21,29.970472,,,,,,,,,,,FEW,5000,BKN,7000,,,,,VFR,,,,,,,,,,,,METAR,22.0
RJSS 220600Z 16016KT 9999 FEW020 BKN030 08/03 Q1020,RJSS,2015-02-22T06:00:00Z,38.12,140.92,8.0,3.0,160,16,,6.21,30.11811,,,,,,,,,,,FEW,2000,BKN,3000,,,,,MVFR,,,,,,,,,,,,METAR,5.0
RJSN 220600Z 15012KT 9999 FEW040 SCT090 BKN130 14/01 Q1014,RJSN,2015-02-22T06:00:00Z,37.95,139.12,14.0,1.0,150,12,,6.21,29.940945,,,,,,,,,,,FEW,4000,SCT,9000,BKN,13000,,,VFR,,,,,,,,,,,,METAR,4.0
RJSR 220600Z 15005KT 110V180 9999 FEW040 BKN050 BKN/// 11/M02 Q1015,RJSR,2015-02-22T06:00:00Z,40.18,140.37,11.0,-2.0,150,5,,6.21,29.970472,,,,,,,,,,,FEW,4000,BKN,5000,,,,,VFR,,,,,,,,,,,,METAR,87.0
RJSK 220600Z 13009KT 9999 FEW030 SCT100 OVC/// 09/M02 Q1016,RJSK,2015-02-22T06:00:00Z,39.62,140.22,9.0,-2.0,130,9,,6.21,30.0,,,,,,,,,,,FEW,3000,SCT,10000,,,,,VFR,,,,,,,,,,,,METAR,96.0
RJSI 220600Z 18012KT 9999 FEW015 BKN025 BKN100 07/01 Q1020,RJSI,2015-02-22T06:00:00Z,39.42,141.12,7.0,1.0,180,12,,6.21,30.11811,,,,,,,,,,,FEW,1500,BKN,2500,BKN,10000,,,MVFR,,,,,,,,,,,,METAR,93.0
RJSF 220600Z 18010KT 4000 -RA BR FEW003 BKN004 BKN006 04/04 Q1020,RJSF,2015-02-22T06:00:00Z,37.22,140.42,4.0,4.0,180,10,,2.49,30.11811,,,,,,,,,,-RA BR,FEW,300,BKN,400,BKN,600,,,LIFR,,,,,,,,,,,,METAR,375.0
RJSC 220600Z 07009KT 9999 FEW020 BKN070 BKN/// 07/M00 Q1018,RJSC,2015-02-22T06:00:00Z,38.42,140.37,7.0,0.0,70,9,,6.21,30.059055,,,,,,,,,,,FEW,2000,BKN,7000,,,,,VFR,,,,,,,,,,,,METAR,108.0
RJSA 220600Z 05005KT 9999 FEW030 BKN110 BKN160 03/M01 Q1015,RJSA,2015-02-22T06:00:00Z,40.72,140.68,3.0,-1.0,50,5,,6.21,29.970472,,,,,,,,,,,FEW,3000,BKN,11000,BKN,16000,,,VFR,,,,,,,,,,,,METAR,201.0
RJOY 220600Z 19003KT 120V280 9999 FEW030 SCT040 BKN050 17/07 Q1016,RJOY,2015-02-22T06:00:00Z,34.6,135.58,17.0,7.0,190,3,,6.21,30.0,,,,,,,,,,,FEW,3000,SCT,4000,BKN,5000,,,VFR,,,,,,,,,,,,METAR,13.0
FBSP 220600Z 11010KT CAVOK 25/17 Q1018,FBSP,2015-02-22T06:00:00Z,-22.05,27.82,25.0,17.0,110,10,,6.21,30.059055,,,,,,,,,,,CAVOK,,,,,,,,VFR,,,,,,,,,,,,METAR,892.0
FBMN 220600Z VRB01KT CAVOK 25/13 Q1015,FBMN,2015-02-22T06:00:00Z,-19.97,23.42,25.0,13.0,0,1,,6.21,29.970472,,,,,,,,,,,CAVOK,,,,,,,,VFR,,,,,,,,,,,,METAR,900.0
FBKE 220600Z 08005KT CAVOK 24/20 Q1016,FBKE,2015-02-22T06:00:00Z,-17.82,25.17,24.0,20.0,80,5,,6.21,30.0,,,,,,,,,,,CAVOK,,,,,,,,VFR,,,,,,,,,,,,METAR,1000.0
FBFT 220600Z 10007KT CAVOK 24/13 Q1018,FBFT,2015-02-22T06:00:00Z,-21.17,27.48,24.0,13.0,100,7,,6.21,30.059055,,,,,,,,,,,CAVOK,,,,,,,,VFR,,,,,,,,,,,,METAR,1000.0
FAPP 220600Z 05011KT 9999 SCT020 20/14 Q1021 NOSIG,FAPP,2015-02-22T06:00:00Z,-23.83,29.45,20.0,14.0,50,11,,6.21,30.147638,,,,,,TRUE,,,,,SCT,2000,,,,,,,VFR,,,,,,,,,,,,METAR,1242.0
FAPN 220600Z AUTO 17002KT //// // ////// 23/13 Q1020,FAPN,2015-02-22T06:00:00Z,-25.33,27.17,23.0,13.0,170,2,,,30.11811,,,TRUE,,,,,,,,,,,,,,,,,,,,,,,,,,,,METAR,1039.0
FAOR 220600Z 15008KT CAVOK 19/11 Q1025 NOSIG,FAOR,2015-02-22T06:00:00Z,-26.12,28.22,19.0,11.0,150,8,,6.21,30.265747,,,,,,TRUE,,,,,CAVOK,,,,,,,,VFR,,,,,,,,,,,,METAR,1700.0
FAOB 220600Z AUTO 10005KT //// // ////// 15/07 Q1022,FAOB,2015-02-22T06:00:00Z,-34.6,20.27,15.0,7.0,100,5,,,30.177166,,,TRUE,,,,,,,,,,,,,,,,,,,,,,,,,,,,METAR,75.0
FAMM 220600Z 09008KT CAVOK 23/12 Q1021 NOSIG,FAMM,2015-02-22T06:00:00Z,-25.8,25.52,23.0,12.0,90,8,,6.21,30.147638,,,,,,TRUE,,,,,CAVOK,,,,,,,,VFR,,,,,,,,,,,,METAR,1277.0
FALW 220600Z AUTO 20004KT //// // ////// 14/05 Q1018,FALW,2015-02-22T06:00:00Z,-32.97,18.17,14.0,5.0,200,4,,,30.059055,,,TRUE,,,,,,,,,,,,,,,,,,,,,,,,,,,,METAR,0.0
FALE 220600Z 21013KT 9999 OVC020 20/15 Q1023 NOSIG,FALE,2015-02-22T06:00:00Z,-29.62,31.12,20.0,15.0,210,13,,6.21,30.206694,,,,,,TRUE,,,,,OVC,2000,,,,,,,MVFR,,,,,,,,,,,,METAR,109.0
FAKN 220600Z 14005KT 8000 SCT010 OVC015 19/17 Q1021 TEMPO -DZ,FAKN,2015-02-22T06:00:00Z,-25.38,31.1,19.0,17.0,140,5,,4.97,30.147638,,,,,,,,,,,SCT,1000,OVC,1500,,,,,MVFR,,,,,,,,,,,,METAR,862.0
FAGG 220600Z 09004KT CAVOK 14/09 Q1022,FAGG,2015-02-22T06:00:00Z,-34.0,22.37,14.0,9.0,90,4,,6.21,30.177166,,,,,,,,,,,CAVOK,,,,,,,,VFR,,,,,,,,,,,,METAR,193.0
FAEL 220600Z 24007KT 9999 FEW036 SCT042 18/11 Q1024,FAEL,2015-02-22T06:00:00Z,-33.02,27.82,18.0,11.0,240,7,,6.21,30.236221,,,,,,,,,,,FEW,3600,SCT,4200,,,,,VFR,,,,,,,,,,,,METAR,125.0
FACT 220600Z VRB01KT CAVOK 14/06 Q1019 NOSIG,FACT,2015-02-22T06:00:00Z,-33.97,18.6,14.0,6.0,0,1,,6.21,30.088583,,,,,,TRUE,,,,,CAVOK,,,,,,,,VFR,,,,,,,,,,,,METAR,42.0
FABL 220600Z 12004KT CAVOK 17/11 Q1023 NOSIG,FABL,2015-02-22T06:00:00Z,-29.1,26.3,17.0,11.0,120,4,,6.21,30.206694,,,,,,TRUE,,,,,CAVOK,,,,,,,,VFR,,,,,,,,,,,,METAR,1348.0
SAZN 220600Z 27003KT CAVOK 20/11 Q1014,SAZN,2015-02-22T06:00:00Z,-38.95,-68.15,20.0,11.0,270,3,,6.21,29.940945,,,,,,,,,,,CAVOK,,,,,,,,VFR,,,,,,,,,,,,METAR,271.0
SAZM 220600Z 36002KT 9999 SCT025 BKN100 20/18 Q1020,SAZM,2015-02-22T06:00:00Z,-37.92,-57.57,20.0,18.0,360,2,,6.21,30.11811,,,,,,,,,,,SCT,2500,BKN,10000,,,,,VFR,,,,,,,,,,,,METAR,21.0
SAWG 220600Z 27004KT 9999 SCT040 SCT100 07/M00 Q1010,SAWG,2015-02-22T06:00:00Z,-51.62,-69.32,7.0,0.0,270,4,,6.21,29.822834,,,,,,,,,,,SCT,4000,SCT,10000,,,,,VFR,,,,,,,,,,,,METAR,19.0
SAVC 220600Z 27003KT CAVOK 11/08 Q1016,SAVC,2015-02-22T06:00:00Z,-45.77,-67.47,11.0,8.0,270,3,,6.21,30.0,,,,,,,,,,,CAVOK,,,,,,,,VFR,,,,,,,,,,,,METAR,46.0
SARP 220600Z 09006KT CAVOK 24/23 Q1015,SARP,2015-02-22T06:00:00Z,-27.38,-55.97,24.0,23.0,90,6,,6.21,29.970472,,,,,,,,,,,CAVOK,,,,,,,,VFR,,,,,,,,,,,,METAR,125.0
SARL 220600Z 11007KT CAVOK 24/22 Q1015,SARL,2015-02-22T06:00:00Z,-29.67,-57.13,24.0,22.0,110,7,,6.21,29.970472,,,,,,,,,,,CAVOK,,,,,,,,VFR,,,,,,,,,,,,METAR,70.0
SARI 220600Z 05005KT CAVOK 23/23 Q1017,SARI,2015-02-22T06:00:00Z,-25.72,-54.47,23.0,23.0,50,5,,6.21,30.029528,,,,,,,,,,,CAVOK,,,,,,,,VFR,,,,,,,,,,,,METAR,270.0
SARE 220600Z 18001KT FEW020 FEW100 BKN200 23/20 Q1014,SARE,2015-02-22T06:00:00Z,-27.43,-59.03,23.0,20.0,180,1,,,29.940945,,,,,,,,,,,FEW,2000,FEW,10000,BKN,20000,,,,,,,,,,,,,,,METAR,52.0
SARC 220600Z 18004KT 9999 BKN027 BKN100 24/21 Q1014,SARC,2015-02-22T06:00:00Z,-27.43,-58.77,24.0,21.0,180,4,,6.21,29.940945,,,,,,,,,,,BKN,2700,BKN,10000,,,,,MVFR,,,,,,,,,,,,METAR,62.0
SAOC 220600Z 34009KT CAVOK 17/15 Q1018,SAOC,2015-02-22T06:00:00Z,-33.12,-64.27,17.0,15.0,340,9,,6.21,30.059055,,,,,,,,,,,CAVOK,,,,,,,,VFR,,,,,,,,,,,,METAR,421.0
SAME 220600Z 00000KT CAVOK 17/15 Q1017,SAME,2015-02-22T06:00:00Z,-32.82,-68.77,17.0,15.0,0,0,,6.21,30.029528,,,,,,,,,,,CAVOK,,,,,,,,VFR,,,,,,,,,,,,METAR,704.0
SAEZ 220600Z 18001KT 9000 R11/0500N MIFG NSC 17/17 Q1018,SAEZ,2015-02-22T06:00:00Z,-34.82,-58.52,17.0,17.0,180,1,,5.59,30.059055,,,,,,,,,,MIFG,,,,,,,,,,,,,,,,,,,,,METAR,20.0
DRZA 220600Z 02006KT CAVOK 23/12 Q1014,DRZA,2015-02-22T06:00:00Z,16.97,8.0,23.0,12.0,20,6,,6.21,29.940945,,,,,,,,,,,CAVOK,,,,,,,,VFR,,,,,,,,,,,,METAR,502.0
DRRT 220600Z 06010KT CAVOK 23/10 Q1012,DRRT,2015-02-22T06:00:00Z,14.9,5.25,23.0,10.0,60,10,,6.21,29.88189,,,,,,,,,,,CAVOK,,,,,,,,VFR,,,,,,,,,,,,METAR,391.0
DRRN 220600Z 00000KT CAVOK 23/16 Q1013 NOSIG,DRRN,2015-02-22T06:00:00Z,13.47,2.17,23.0,16.0,0,0,,6.21,29.911417,,,,,,TRUE,,,,,CAVOK,,,,,,,,VFR,,,,,,,,,,,,METAR,227.0
DRRM 220600Z 04004KT 4000 DU NSC 23/011 Q1012,DRRM,2015-02-22T06:00:00Z,13.5,7.12,,,40,4,,2.49,29.88189,,,,,,,,,,DU,,,,,,,,,,,,,,,,,,,,,METAR,373.0
SVMI 220600Z 00000KT 9999 FEW016 25/20 Q1013 NOSIG,SVMI,2015-02-22T06:00:00Z,10.58,-67.0,25.0,20.0,0,0,,6.21,29.911417,,,,,,TRUE,,,,,FEW,1600,,,,,,,VFR,,,,,,,,,,,,METAR,48.0
SKBO 220600Z 17007KT 8000 4000NW HZ BKN020 12/108 A3030,SKBO,2015-02-22T06:00:00Z,4.7,-74.12,,,170,7,,4.97,30.301182,,,,,,,,,,HZ,BKN,2000,,,,,,,MVFR,,,,,,,,,,,,METAR,2548.0
FNHU 220600Z 00000KT 9999 SCT015 SCT060 17/16 Q1021,FNHU,2015-02-22T06:00:00Z,-12.82,15.77,17.0,16.0,0,0,,6.21,30.147638,,,,,,,,,,,SCT,1500,SCT,6000,,,,,VFR,,,,,,,,,,,,METAR,1701.0
GVSV 220600Z 07019KT 9999 FEW022 19/12 Q1018 NOSIG,GVSV,2015-02-22T06:00:00Z,16.83,-25.07,19.0,12.0,70,19,,6.21,30.059055,,,,,,TRUE,,,,,FEW,2200,,,,,,,VFR,,,,,,,,,,,,METAR,20.0
GVNP 220600Z 05019KT 8000 FEW020 18/13 Q1017 NOSIG,GVNP,2015-02-22T06:00:00Z,14.95,-23.48,18.0,13.0,50,19,,4.97,30.029528,,,,,,TRUE,,,,,FEW,2000,,,,,,,MVFR,,,,,,,,,,,,METAR,70.0
GVAC 220600Z 05015KT 9999 SCT015 SCT200 18/12 Q1018 NOSIG,GVAC,2015-02-22T06:00:00Z,16.72,-22.93,18.0,12.0,50,15,,6.21,30.059055,,,,,,TRUE,,,,,SCT,1500,SCT,20000,,,,,VFR,,,,,,,,,,,,METAR,55.0
GQPZ 220600Z 34006KT 8000 BKN040 12/07 Q1020,GQPZ,2015-02-22T06:00:00Z,22.75,-12.48,12.0,7.0,340,6,,4.97,30.11811,,,,,,,,,,,BKN,4000,,,,,,,MVFR,,,,,,,,,,,,METAR,344.0
GOGG 220600Z 02004KT CAVOK 19/06 Q1013,GOGG,2015-02-22T06:00:00Z,12.55,-16.27,19.0,6.0,20,4,,6.21,29.911417,,,,,,,,,,,CAVOK,,,,,,,,VFR,,,,,,,,,,,,METAR,23.0
GOSS 220600Z 02004KT 350V060 CAVOK 15/11 Q1015,GOSS,2015-02-22T06:00:00Z,16.05,-16.43,15.0,11.0,20,4,,6.21,29.970472,,,,,,,,,,,CAVOK,,,,,,,,VFR,,,,,,,,,,,,METAR,4.0
GOGS 220600Z 36012KT CAVOK 19/12 Q1012,GOGS,2015-02-22T06:00:00Z,12.4,-16.75,19.0,12.0,360,12,,6.21,29.88189,,,,,,,,,,,CAVOK,,,,,,,,VFR,,,,,,,,,,,,METAR,13.0
CWJB 220600Z AUTO 08001KT M10/M10 RMK AO1 SOG 47 T10981104 50028,CWJB,2015-02-22T06:00:00Z,46.78,-71.27,-9.8,-10.4,80,1,,,,,,TRUE,TRUE,,,,,,,,,,,,,,,,2.8,,,,,,,,,,,METAR,91.0
CWIZ 220600Z AUTO 19004KT M09/M10 RMK AO1 T10901097 50012,CWIZ,2015-02-22T06:00:00Z,45.28,-73.33,-9.0,-9.7,190,4,,,,,,TRUE,TRUE,,,,,,,,,,,,,,,,1.2,,,,,,,,,,,METAR,45.0
CWIW 220600Z AUTO 28006KT M28/M31 RMK AO1 SOG 04 1011 SLP441 T12821311 50002,CWIW,2015-02-22T06:00:00Z,51.67,-105.4,-28.2,-31.1,280,6,,,,1044.1,,TRUE,TRUE,,,,,,,,,,,,,,,,0.2,,,,,,,,,,,METAR,526.0
CWIT 220600Z AUTO 13001KT M09/M10 RMK AO1 0000 SLP184 T10941098 50011,CWIT,2015-02-22T06:00:00Z,45.17,-73.67,-9.4,-9.8,130,1,,,,1018.4,,TRUE,TRUE,,,,,,,,,,,,,,,,1.1,,,,,,,,,,,METAR,52.0
CWPC 220600Z AUTO 25005KT M11/M12 RMK AO1 SLP204 T11061124 53011,CWPC,2015-02-22T06:00:00Z,42.87,-79.25,-10.6,-12.4,250,5,,,,1020.4,,TRUE,TRUE,,,,,,,,,,,,,,,,1.1,,,,,,,,,,,METAR,184.0
CWLS 220600Z AUTO 17001KT M13/M14 RMK AO1 7PAST HR SOG 28 1010 SLP199 P0003 T11271136 50009,CWLS,2015-02-22T06:00:00Z,43.97,-80.75,-12.7,-13.6,170,1,,,,1019.9,,TRUE,TRUE,,,,,,,,,,,,,,,,0.9,,,,,0.03,,,,,,METAR,415.0
CXTP 220600Z AUTO 24008G15KT M11/M15 RMK AO1 SOG 33 3026 SLP307 T11111150,CXTP,2015-02-22T06:00:00Z,48.55,-53.97,-11.1,-15.0,240,8,15,,,1030.7,,TRUE,TRUE,,,,,,,,,,,,,,,,,,,,,,,,,,,METAR,107.0
CXRH 220600Z AUTO 23005KT M07/M10 RMK AO1 SOG 58 T10741096,CXRH,2015-02-22T06:00:00Z,49.57,-57.88,-7.4,-9.6,230,5,,,,,,TRUE,TRUE,,,,,,,,,,,,,,,,,,,,,,,,,,,METAR,68.0
CWDV 220600Z AUTO 35003KT M28/M30 RMK AO1 SOG 61 1022 SLP282 T12811304,CWDV,2015-02-22T06:00:00Z,49.02,-90.47,-28.1,-30.4,350,3,,,,1028.2,,TRUE,TRUE,,,,,,,,,,,,,,,,,,,,,,,,,,,METAR,489.0
CWNC 220600Z AUTO 33004KT M11/M13 RMK AO1 SOG 11 3015 SLP191 T11051131 50002,CWNC,2015-02-22T06:00:00Z,43.95,-78.17,-10.5,-13.1,330,4,,,,1019.1,,TRUE,TRUE,,,,,,,,,,,,,,,,0.2,,,,,,,,,,,METAR,78.0
CWDO 220600Z AUTO M07/M11 RMK AO1 33 0528Z SOG 16 1018 SLP274 T10711112,CWDO,2015-02-22T06:00:00Z,49.67,-54.78,-7.1,-11.2,,,,,,1027.4,,TRUE,TRUE,,,,,,,,,,,,,,,,,,,,,,,,,,,METAR,92.0
CWWE 220600Z AUTO 16018KT M00/M00 RMK AO1 6038 PK WND 15024/0524 SLP272 T10011001 50007,CWWE,2015-02-22T06:00:00Z,43.97,-64.67,-0.1,-0.1,160,18,,,,1027.2,,TRUE,TRUE,,,,,,,,,,,,,,,,0.7,,,,,,,,,,,METAR,9.0
CWRA 220600Z AUTO 27013KT M05/ RMK AO1 PK WND 28020/0533 SLP344 T1047 53020,CWRA,2015-02-22T06:00:00Z,46.63,-53.07,-4.7,,270,13,,,,1034.4,,TRUE,TRUE,,,,,,,,,,,,,,,,2.0,,,,,,,,,,,METAR,28.0
CZDB 220600Z AUTO 17011G16KT M04/M05 RMK AO1 3PAST HR 7037 SLP274 P0001 T10431052 50006,CZDB,2015-02-22T06:00:00Z,45.42,-63.47,-4.3,-5.2,170,11,16,,,1027.4,,TRUE,TRUE,,,,,,,,,,,,,,,,0.6,,,,,0.01,,,,,,METAR,38.0
CXNP 220600Z AUTO 17016G22KT M02/M03 RMK AO1 5PAST HR 6044 PK WND 17022/0543 SLP240 P0002 T10151027 50005,CXNP,2015-02-22T06:00:00Z,45.75,-64.23,-1.5,-2.7,170,16,22,,,1024.0,,TRUE,TRUE,,,,,,,,,,,,,,,,0.5,,,,,0.02,,,,,,METAR,20.0
CWEB 220600Z AUTO 08005KT 05/04 RMK AO1 SLP315 T00520035 51012,CWEB,2015-02-22T06:00:00Z,49.38,-126.55,5.2,3.5,80,5,,,,1031.5,,TRUE,TRUE,,,,,,,,,,,,,,,,1.2,,,,,,,,,,,METAR,7.0
CWEZ 220600Z AUTO 03012KT 09/02 RMK AO1 SLP313 T00890020 53015,CWEZ,2015-02-22T06:00:00Z,48.78,-123.05,8.9,2.0,30,12,,,,1031.3,,TRUE,TRUE,,,,,,,,,,,,,,,,1.5,,,,,,,,,,,METAR,7.0
CWGD 220600Z AUTO 16005KT M10/M11 RMK AO1 SOG 11 1009 SLP194 T10951107,CWGD,2015-02-22T06:00:00Z,43.77,-81.72,-9.5,-10.7,160,5,,,,1019.4,,TRUE,TRUE,,,,,,,,,,,,,,,,,,,,,,,,,,,METAR,214.0
CWGM 220600Z AUTO 23001KT M18/M20 RMK AO1 T11761197,CWGM,2015-02-22T06:00:00Z,49.13,-113.78,-17.6,-19.7,230,1,,,,,,TRUE,TRUE,,,,,,,,,,,,,,,,,,,,,,,,,,,METAR,1296.0
CXZC 220600Z AUTO 29004KT M29/M32 RMK AO1 SOG 78 2011 SLP238 T12871317,CXZC,2015-02-22T06:00:00Z,51.3,-80.62,-28.7,-31.7,290,4,,,,1023.8,,TRUE,TRUE,,,,,,,,,,,,,,,,,,,,,,,,,,,METAR,9.0
CWEQ 220600Z AUTO 26007KT M33/M37 RMK AO1 SLP432 T13321368 51015,CWEQ,2015-02-22T06:00:00Z,52.12,-101.22,-33.2,-36.8,260,7,,,,1043.2,,TRUE,TRUE,,,,,,,,,,,,,,,,1.5,,,,,,,,,,,METAR,335.0
CWAV 220600Z AUTO 00000KT M19/M22 RMK AO1 SOG 08 8010 SLP386 T11941218,CWAV,2015-02-22T06:00:00Z,51.77,-114.67,-19.4,-21.8,0,0,,,,1038.6,,TRUE,TRUE,,,,,,,,,,,,,,,,,,,,,,,,,,,METAR,1114.0
CWPE 220600Z AUTO 18029G37KT 03/02 RMK AO1 37 0552Z SOG 20 6038 SLP211 T00250017,CWPE,2015-02-22T06:00:00Z,45.07,-66.47,2.5,1.7,180,29,37,,,1021.1,,TRUE,TRUE,,,,,,,,,,,,,,,,,,,,,,,,,,,METAR,1.0
CZRP 220600Z AUTO 28021KT M25/M28 RMK AO1 PK WND 27025/0536 SLP132 T12511277 58005,CZRP,2015-02-22T06:00:00Z,75.37,-105.72,-25.1,-27.7,280,21,,,,1013.2,,TRUE,TRUE,,,,,,,,,,,,,,,,-0.5,,,,,,,,,,,METAR,12.0
CXVN 220600Z AUTO 20003KT M12/M14 RMK AO1 SLP201 T11221138 53008,CXVN,2015-02-22T06:00:00Z,43.18,-79.4,-12.2,-13.8,200,3,,,,1020.1,,TRUE,TRUE,,,,,,,,,,,,,,,,0.8,,,,,,,,,,,METAR,79.0
CXSE 220600Z AUTO 27010KT M30/M33 RMK AO1 SLP149 T13001331 58006,CXSE,2015-02-22T06:00:00Z,73.77,-105.28,-30.0,-33.1,270,10,,,,1014.9,,TRUE,TRUE,,,,,,,,,,,,,,,,-0.6,,,,,,,,,,,METAR,11.0
CXPC 220600Z AUTO M09/M12 RMK AO1 SOG 45 1009 SLP182 T10941116,CXPC,2015-02-22T06:00:00Z,45.35,-80.05,-9.4,-11.6,,,,,,1018.2,,TRUE,TRUE,,,,,,,,,,,,,,,,,,,,,,,,,,,METAR,176.0
CXDK 220600Z AUTO 32009G16KT 01/M06 RMK AO1 SOG 42 8007 SLP217 T00091063,CXDK,2015-02-22T06:00:00Z,61.27,-124.47,0.9,-6.3,320,9,16,,,1021.7,,TRUE,TRUE,,,,,,,,,,,,,,,,,,,,,,,,,,,METAR,283.0
DAUB 220600Z 32022KT 6000 FEW026CB OVC030 10/03 Q0999,DAUB,2015-02-22T06:00:00Z,34.78,5.72,10.0,3.0,320,22,,3.73,29.498032,,,,,,,,,,,FEW,2600,OVC,3000,,,,,MVFR,,,,,,,,,,,,METAR,87.0
FVMV 220600Z 00000KT CAVOK 22/16 Q1019,FVMV,2015-02-22T06:00:00Z,-20.07,30.87,22.0,16.0,0,0,,6.21,30.088583,,,,,,,,,,,CAVOK,,,,,,,,VFR,,,,,,,,,,,,METAR,1095.0
LICB 220600Z 19014G26KT 4000 BR DZ FEW015 BKN030 13/11 Q0997,LICB,2015-02-22T06:00:00Z,37.0,14.62,13.0,11.0,190,14,26,2.49,29.438976,,,,,,,,,,BR DZ,FEW,1500,BKN,3000,,,,,IFR,,,,,,,,,,,,SPECI,220.0
CZFS 220600Z AUTO 16003KT M16/M17 RMK AO1 SOG 40 7005 SLP240 T11571170,CZFS,2015-02-22T06:00:00Z,61.77,-121.23,-15.7,-17.0,160,3,,,,1024.0,,TRUE,TRUE,,,,,,,,,,,,,,,,,,,,,,,,,,,METAR,168.0
CZEV 220600Z AUTO 09005KT M11/M13 RMK AO1 SOG 38 6020 SLP151 T11111134,CZEV,2015-02-22T06:00:00Z,68.32,-133.52,-11.1,-13.4,90,5,,,,1015.1,,TRUE,TRUE,,,,,,,,,,,,,,,,,,,,,,,,,,,METAR,103.0
CWDJ 220600Z AUTO 30005KT M32/M36 RMK AO1 SOG 09 1015 SLP443 T13221363,CWDJ,2015-02-22T06:00:00Z,50.4,-104.58,-32.2,-36.3,300,5,,,,1044.3,,TRUE,TRUE,,,,,,,,,,,,,,,,,,,,,,,,,,,METAR,573.0
SANT 220600Z 27004KT 6000 BKN010 OVC030 19/17 Q1019,SANT,2015-02-22T06:00:00Z,-26.85,-65.08,19.0,17.0,270,4,,3.73,30.088583,,,,,,,,,,,BKN,1000,OVC,3000,,,,,MVFR,,,,,,,,,,,,METAR,450.0
CWIS 220600Z AUTO 20003KT M13/M14 RMK AO1 SOG 118 7009 SLP165 T11311142 50022,CWIS,2015-02-22T06:00:00Z,47.28,-70.63,-13.1,-14.2,200,3,,,,1016.5,,TRUE,TRUE,,,,,,,,,,,,,,,,2.2,,,,,,,,,,,METAR,719.0
CWIP 220600Z AUTO 30003KT M16/ RMK AO1 T1157,CWIP,2015-02-22T06:00:00Z,50.17,-66.43,-15.7,,300,3,,,,,,TRUE,TRUE,,,,,,,,,,,,,,,,,,,,,,,,,,,METAR,25.0
CWII 220600Z AUTO 33006KT M31/M34 RMK AO1 T13051342,CWII,2015-02-22T06:00:00Z,50.7,-96.57,-30.5,-34.2,330,6,,,,,,TRUE,TRUE,,,,,,,,,,,,,,,,,,,,,,,,,,,METAR,220.0
CWIG 220600Z AUTO 15002KT RMK AO1,CWIG,2015-02-22T06:00:00Z,47.07,-70.53,,,150,2,,,,,,TRUE,TRUE,,,,,,,,,,,,,,,,,,,,,,,,,,,METAR,18.0
CWHV 220600Z AUTO 15003KT M09/M10 RMK AO1 5003 SLP186 T10921099 50020,CWHV,2015-02-22T06:00:00Z,46.2,-70.77,-9.2,-9.9,150,3,,,,1018.6,,TRUE,TRUE,,,,,,,,,,,,,,,,2.0,,,,,,,,,,,METAR,229.0
CWHQ 220600Z AUTO 07001KT M11/M12 RMK AO1 T11071120 50011,CWHQ,2015-02-22T06:00:00Z,46.68,-71.97,-10.7,-12.0,70,1,,,,,,TRUE,TRUE,,,,,,,,,,,,,,,,1.1,,,,,,,,,,,METAR,55.0
CWHM 220600Z AUTO 25001KT M11/M12 RMK AO1 T11101115,CWHM,2015-02-22T06:00:00Z,45.72,-73.37,-11.0,-11.5,250,1,,,,,,TRUE,TRUE,,,,,,,,,,,,,,,,,,,,,,,,,,,METAR,192.0
CWHL 220600Z AUTO 06007KT 06/02 RMK AO1 SLP321 T00610024 51003,CWHL,2015-02-22T06:00:00Z,54.17,-130.35,6.1,2.4,60,7,,,,1032.1,,TRUE,TRUE,,,,,,,,,,,,,,,,0.3,,,,,,,,,,,METAR,5.0
CWGY 220600Z AUTO 20004KT M21/M25 RMK AO1 SLP429 T12131247 58001,CWGY,2015-02-22T06:00:00Z,51.67,-110.2,-21.3,-24.7,200,4,,,,1042.9,,TRUE,TRUE,,,,,,,,,,,,,,,,-0.1,,,,,,,,,,,METAR,707.0
CWGX 220600Z AUTO 31010KT M31/M36 RMK AO1 SLP345 T13111362 53003,CWGX,2015-02-22T06:00:00Z,56.35,-94.7,-31.1,-36.2,310,10,,,,1034.5,,TRUE,TRUE,,,,,,,,,,,,,,,,0.3,,,,,,,,,,,METAR,145.0
CWGW 220600Z AUTO 09013KT M10/M14 RMK AO1 SOG 04 1011 PK WND 11019/0519 SLP385 T11011139,CWGW,2015-02-22T06:00:00Z,49.75,-114.9,-10.1,-13.9,90,13,,,,1038.5,,TRUE,TRUE,,,,,,,,,,,,,,,,,,,,,,,,,,,METAR,1137.0
CWGT 220600Z AUTO 14006KT 08/05 RMK AO1 SLP315 T00760052 51015,CWGT,2015-02-22T06:00:00Z,49.48,-124.43,7.6,5.2,140,6,,,,1031.5,,TRUE,TRUE,,,,,,,,,,,,,,,,1.5,,,,,,,,,,,METAR,5.0
CWGR 220600Z AUTO 17017G23KT M06/M08 RMK AO1 PK WND 18025/0546 SLP275 T10631079 58024,CWGR,2015-02-22T06:00:00Z,47.42,-61.8,-6.3,-7.9,170,17,23,,,1027.5,,TRUE,TRUE,,,,,,,,,,,,,,,,-2.4,,,,,,,,,,,METAR,60.0
TAPA 220600Z 07014KT 9999 SCT017 ///// Q1017,TAPA,2015-02-22T06:00:00Z,17.12,-61.78,,,70,14,,6.21,30.029528,,,,,,,,,,,SCT,1700,,,,,,,VFR,,,,,,,,,,,,METAR,14.0
FNBG 220600Z 00000KT 9999 FEW020 BKN100 26/22 Q1010,FNBG,2015-02-22T06:00:00Z,-12.62,13.4,26.0,22.0,0,0,,6.21,29.822834,,,,,,,,,,,FEW,2000,BKN,10000,,,,,VFR,,,,,,,,,,,,METAR,36.0
WMKN 220600Z 06007KT 9999 FEW020 BKN280 30/23 Q1012,WMKN,2015-02-22T06:00:00Z,5.37,103.08,30.0,23.0,60,7,,6.21,29.88189,,,,,,,,,,,FEW,2000,BKN,28000,,,,,VFR,,,,,,,,,,,,METAR,6.0
WMKM 220600Z 09006KT 020V140 9999 SCT021 BKN280 33/25 Q1010,WMKM,2015-02-22T06:00:00Z,2.27,102.25,33.0,25.0,90,6,,6.21,29.822834,,,,,,,,,,,SCT,2100,BKN,28000,,,,,VFR,,,,,,,,,,,,METAR,9.0
WMKL 220600Z 01007KT 9999 FEW020TCU BKN280 33/22 Q1011,WMKL,2015-02-22T06:00:00Z,6.32,99.72,33.0,22.0,10,7,,6.21,29.852362,,,,,,,,,,,FEW,2000,BKN,28000,,,,,VFR,,,,,,,,,,,,METAR,7.0
WMKI 220600Z 32003KT 9999 FEW017CB BKN290 33/23 Q1010,WMKI,2015-02-22T06:00:00Z,4.57,101.08,33.0,23.0,320,3,,6.21,29.822834,,,,,,,,,,,FEW,1700,BKN,29000,,,,,VFR,,,,,,,,,,,,METAR,39.0
WMKE 220600Z 06007KT 9999 FEW018 SCT140 BKN290 30/23 Q1011,WMKE,2015-02-22T06:00:00Z,4.53,103.43,30.0,23.0,60,7,,6.21,29.852362,,,,,,,,,,,FEW,1800,SCT,14000,BKN,29000,,,VFR,,,,,,,,,,,,METAR,5.0
WMKD 220600Z 06004KT 9999 SCT018 BKN280 31/23 Q1011 NOSIG,WMKD,2015-02-22T06:00:00Z,3.77,103.22,31.0,23.0,60,4,,6.21,29.852362,,,,,,TRUE,,,,,SCT,1800,BKN,28000,,,,,VFR,,,,,,,,,,,,METAR,16.0
WMKC 220600Z 06010KT 9999 SCT018 BKN280 30/24 Q1012,WMKC,2015-02-22T06:00:00Z,6.17,102.27,30.0,24.0,60,10,,6.21,29.88189,,,,,,,,,,,SCT,1800,BKN,28000,,,,,VFR,,,,,,,,,,,,METAR,5.0
WMKB 220600Z 30009KT 250V340 7000 FEW020 BKN280 31/25 Q1010 NOSIG,WMKB,2015-02-22T06:00:00Z,5.47,100.37,31.0,25.0,300,9,,4.35,29.822834,,,,,,TRUE,,,,,FEW,2000,BKN,28000,,,,,MVFR,,,,,,,,,,,,METAR,4.0
WMKA 220600Z 36004KT 8000 SCT020 BKN300 34/23 Q1010,WMKA,2015-02-22T06:00:00Z,6.2,100.4,34.0,23.0,360,4,,4.97,29.822834,,,,,,,,,,,SCT,2000,BKN,30000,,,,,MVFR,,,,,,,,,,,,METAR,5.0
WMBA 220600Z 28006KT 240V320 9999 SCT020TCU BKN280 33/24 Q1010,WMBA,2015-02-22T06:00:00Z,4.22,100.7,33.0,24.0,280,6,,6.21,29.822834,,,,,,,,,,,SCT,2000,BKN,28000,,,,,VFR,,,,,,,,,,,,METAR,8.0
WMAU 220600Z 02007KT 9999 SCT020 SCT150 BKN280 30/24 Q//// QFF1011,WMAU,2015-02-22T06:00:00Z,2.38,103.88,30.0,24.0,20,7,,6.21,,,,,,,,,,,,SCT,2000,SCT,15000,BKN,28000,,,VFR,,,,,,,,,,,,METAR,45.0
WMSA 220600Z 24006KT 140V300 9999 SCT019 SCT140 BKN280 34/22 Q1010,WMSA,2015-02-22T06:00:00Z,3.13,101.55,34.0,22.0,240,6,,6.21,29.822834,,,,,,,,,,,SCT,1900,SCT,14000,BKN,28000,,,VFR,,,,,,,,,,,,METAR,27.0
WMKJ 220600Z 03006KT 320V030 9999 SCT018 SCT140 BKN280 32/24 Q1010,WMKJ,2015-02-22T06:00:00Z,1.62,103.67,32.0,24.0,30,6,,6.21,29.822834,,,,,,,,,,,SCT,1800,SCT,14000,BKN,28000,,,VFR,,,,,,,,,,,,METAR,40.0
WBKW 220600Z 24005KT 9999 FEW017 BKN140 32/24 Q1010,WBKW,2015-02-22T06:00:00Z,4.32,118.12,32.0,24.0,240,5,,6.21,29.822834,,,,,,,,,,,FEW,1700,BKN,14000,,,,,VFR,,,,,,,,,,,,METAR,20.0
WBKT 220600Z 07008KT 9999 FEW015 SCT140 BKN270 29/25 Q1011,WBKT,2015-02-22T06:00:00Z,6.92,116.82,29.0,25.0,70,8,,6.21,29.852362,,,,,,,,,,,FEW,1500,SCT,14000,BKN,27000,,,VFR,,,,,,,,,,,,METAR,5.0
WBKS 220600Z 09010KT 9999 FEW016 BKN140 29/24 Q1011,WBKS,2015-02-22T06:00:00Z,5.9,118.07,29.0,24.0,90,10,,6.21,29.852362,,,,,,,,,,,FEW,1600,BKN,14000,,,,,VFR,,,,,,,,,,,,METAR,13.0
WBKL 220600Z 34006KT 250V020 9999 FEW015 BKN140 BKN300 31/25 Q1009,WBKL,2015-02-22T06:00:00Z,5.28,115.25,31.0,25.0,340,6,,6.21,29.793306,,,,,,,,,,,FEW,1500,BKN,14000,BKN,30000,,,VFR,,,,,,,,,,,,METAR,30.0
WBGY 220600Z 33003KT 9999 SCT022 BKN300 31/25 Q1009,WBGY,2015-02-22T06:00:00Z,1.22,111.43,31.0,25.0,330,3,,6.21,29.793306,,,,,,,,,,,SCT,2200,BKN,30000,,,,,VFR,,,,,,,,,,,,METAR,34.0
WBGS 220600Z 25003KT 9999 SCT017 SCT150 BKN300 31/24 Q1010,WBGS,2015-02-22T06:00:00Z,2.27,111.98,31.0,24.0,250,3,,6.21,29.822834,,,,,,,,,,,SCT,1700,SCT,15000,BKN,30000,,,VFR,,,,,,,,,,,,METAR,8.0
WBGR 220600Z 30007KT 9999 FEW016 BKN300 30/25 Q1009,WBGR,2015-02-22T06:00:00Z,4.32,113.97,30.0,25.0,300,7,,6.21,29.793306,,,,,,,,,,,FEW,1600,BKN,30000,,,,,VFR,,,,,,,,,,,,METAR,18.0
WBGB 220600Z 33006KT 300V010 9999 SCT016 SCT150 BKN300 31/26 Q1009,WBGB,2015-02-22T06:00:00Z,3.12,113.02,31.0,26.0,330,6,,6.21,29.793306,,,,,,,,,,,SCT,1600,SCT,15000,BKN,30000,,,VFR,,,,,,,,,,,,METAR,5.0
CWCJ 220600Z AUTO 04004KT M24/M26 RMK AO1 SOG 64 2019 SLP244 T12371262,CWCJ,2015-02-22T06:00:00Z,48.6,-86.28,-23.7,-26.2,40,4,,,,1024.4,,TRUE,TRUE,,,,,,,,,,,,,,,,,,,,,,,,,,,METAR,206.0
VTST 220600Z 03010KT 9999 FEW020 SCT300 33/22 Q1010 RWY08 INFO G,VTST,2015-02-22T06:00:00Z,7.52,99.62,33.0,22.0,30,10,,6.21,29.822834,,,,,,,,,,,FEW,2000,SCT,30000,,,,,VFR,,,,,,,,,,,,METAR,16.0
CWVP 220600Z AUTO 32007G15KT M22/M25 RMK AO1 2PAST HR SOG 10 0000 SLP376 P0001 T12191247 50002,CWVP,2015-02-22T06:00:00Z,49.63,-109.52,-21.9,-24.7,320,7,15,,,1037.6,,TRUE,TRUE,,,,,,,,,,,,,,,,0.2,,,,,0.01,,,,,,METAR,1271.0
CWIY 220600Z AUTO M08/M08 RMK AO1 SLP198 T10781084 56021,CWIY,2015-02-22T06:00:00Z,47.13,-67.82,-7.8,-8.4,,,,,,1019.8,,TRUE,TRUE,,,,,,,,,,,,,,,,-2.1,,,,,,,,,,,METAR,241.0
MKJP 220600Z 01011KT 9999 FEW024 26/20 Q1016,MKJP,2015-02-22T06:00:00Z,17.92,-76.78,26.0,20.0,10,11,,6.21,30.0,,,,,,,,,,,FEW,2400,,,,,,,VFR,,,,,,,,,,,,METAR,3.0
FDMS 220600Z 10003KT 9999 SCT020 BKN035 20/18 Q1021 NOSIG,FDMS,2015-02-22T06:00:00Z,-26.52,31.3,20.0,18.0,100,3,,6.21,30.147638,,,,,,TRUE,,,,,SCT,2000,BKN,3500,,,,,VFR,,,,,,,,,,,,METAR,641.0
PASH 220600Z 09013KT 10SM FEW048 FEW060 00/M01 A2953 RMK VIA PHONE,PASH,2015-02-22T06:00:00Z,66.27,-166.08,0.0,-1.0,90,13,,10.0,29.530512,,,,,,,,,,,FEW,4800,FEW,6000,,,,,VFR,,,,,,,,,,,,METAR,2.0
TNCM 220600Z 08012KT 9999 SCT018 25/21 Q1018 A3006,TNCM,2015-02-22T06:00:00Z,18.05,-63.12,25.0,21.0,80,12,,6.21,30.059055,,,,,,,,,,,SCT,1800,,,,,,,VFR,,,,,,,,,,,,METAR,4.0
LFRS 220600Z 00000KT CAVOK M01/M02 Q1013 NOSIG,LFRS,2015-02-22T06:00:00Z,47.17,-1.6,-1.0,-2.0,0,0,,6.21,29.911417,,,,,,TRUE,,,,,CAVOK,,,,,,,,VFR,,,,,,,,,,,,METAR,27.0
SKLT 220600Z 00000KT 9999 BKN006 23/23 A2985 RMK AD OPR IMC,SKLT,2015-02-22T06:00:00Z,-4.2,-69.93,23.0,23.0,0,0,,6.21,29.84941,,,,,,,,,,,BKN,600,,,,,,,IFR,,,,,,,,,,,,SPECI,84.0
SKCL 220600Z 06004KT 9999 FEW020 BKN100 22/18 A2994,SKCL,2015-02-22T06:00:00Z,3.53,-76.37,22.0,18.0,60,4,,6.21,29.940945,,,,,,,,,,,FEW,2000,BKN,10000,,,,,VFR,,,,,,,,,,,,METAR,969.0
SKPE 220600Z 07006KT 9999 FEW017 SCT090 21/17 A3002,SKPE,2015-02-22T06:00:00Z,4.82,-75.73,21.0,17.0,70,6,,6.21,30.02067,,,,,,,,,,,FEW,1700,SCT,9000,,,,,VFR,,,,,,,,,,,,METAR,1346.0
SKRG 220600Z 00000KT 7000 BKN010 SCT080 14/13 A3030 RMK HZ,SKRG,2015-02-22T06:00:00Z,6.17,-75.42,14.0,13.0,0,0,,4.35,30.301182,,,,,,,,,,,BKN,1000,SCT,8000,,,,,MVFR,,,,,,,,,,,,METAR,2137.0
SKBQ 220600Z 02013KT CAVOK 27/22 A2981,SKBQ,2015-02-22T06:00:00Z,10.9,-74.77,27.0,22.0,20,13,,6.21,29.811024,,,,,,,,,,,CAVOK,,,,,,,,VFR,,,,,,,,,,,,METAR,10.0
SKCG 220600Z 36004KT CAVOK 26/23 A2979,SKCG,2015-02-22T06:00:00Z,10.43,-75.52,26.0,23.0,360,4,,6.21,29.790354,,,,,,,,,,,CAVOK,,,,,,,,VFR,,,,,,,,,,,,METAR,1.0
SKSP 220600Z 07007KT 9999 FEW017 27/24 A2992,SKSP,2015-02-22T06:00:00Z,12.57,-81.72,27.0,24.0,70,7,,6.21,29.920275,,,,,,,,,,,FEW,1700,,,,,,,VFR,,,,,,,,,,,,METAR,-2.0
DXSK 220600Z 00000KT CAVOK 20/17 Q////,DXSK,2015-02-22T06:00:00Z,9.0,1.15,20.0,17.0,0,0,,6.21,,,,,,,,,,,,CAVOK,,,,,,,,VFR,,,,,,,,,,,,METAR,387.0
DXNG 220600Z 33006KT 300V360 9999 SCT008 21/16 Q1014 NOSIG,DXNG,2015-02-22T06:00:00Z,9.77,1.1,21.0,16.0,330,6,,6.21,29.940945,,,,,,TRUE,,,,,SCT,800,,,,,,,VFR,,,,,,,,,,,,METAR,343.0
DXXX 220600Z 25005KT 220V280 8000 TS FEW012 FEW020CB 27/24 Q1011 NOSIG,DXXX,2015-02-22T06:00:00Z,6.17,1.25,27.0,24.0,250,5,,4.97,29.852362,,,,,,TRUE,,,,TS,FEW,1200,FEW,2000,,,,,MVFR,,,,,,,,,,,,METAR,25.0
DFFD 220600Z 07002KT CAVOK 23/10 Q1014 TEMPO 4000 HZ,DFFD,2015-02-22T06:00:00Z,12.33,-1.52,23.0,10.0,70,2,,6.21,29.940945,,,,,,,,,,,CAVOK,,,,,,,,VFR,,,,,,,,,,,,METAR,306.0
DFOO 220600Z 36006KT CAVOK 24/08 Q1013,DFOO,2015-02-22T06:00:00Z,11.17,-4.32,24.0,8.0,360,6,,6.21,29.911417,,,,,,,,,,,CAVOK,,,,,,,,VFR,,,,,,,,,,,,METAR,460.0
FTTA 220600Z 00000KT CAVOK 25/12 Q1011,FTTA,2015-02-22T06:00:00Z,9.15,18.37,25.0,12.0,0,0,,6.21,29.852362,,,,,,,,,,,CAVOK,,,,,,,,VFR,,,,,,,,,,,,METAR,365.0
FTTJ 220600Z 35004KT 2200 HZ NSC 21/07 Q1009 NOSIG,FTTJ,2015-02-22T06:00:00Z,12.12,15.02,21.0,7.0,350,4,,1.37,29.793306,,,,,,TRUE,,,,HZ,,,,,,,,,,,,,,,,,,,,,METAR,295.0
DBBB 220600Z VRB01KT 8000 TS SCT011 FEW025CB 26/25 Q1010 NOSIG,DBBB,2015-02-22T06:00:00Z,6.33,2.37,26.0,25.0,0,1,,4.97,29.822834,,,,,,TRUE,,,,TS,SCT,1100,FEW,2500,,,,,MVFR,,,,,,,,,,,,METAR,9.0
DGAA 220600Z 27011KT CAVOK 25/23 Q1011 NOSIG,DGAA,2015-02-22T06:00:00Z,5.58,-0.17,25.0,23.0,270,11,,6.21,29.852362,,,,,,TRUE,,,,,CAVOK,,,,,,,,VFR,,,,,,,,,,,,METAR,69.0
DRZR 220600Z 34002KT 3500 DU NSC 24/M04 Q1012,DRZR,2015-02-22T06:00:00Z,13.77,8.97,24.0,-4.0,340,2,,2.17,29.88189,,,,,,,,,,DU,,,,,,,,,,,,,,,,,,,,,METAR,453.0
CXMY 220600Z AUTO M02/M02 RMK AO1 T10191024,CXMY,2015-02-22T06:00:00Z,44.98,-62.48,-1.9,-2.4,,,,,,,,TRUE,TRUE,,,,,,,,,,,,,,,,,,,,,,,,,,,METAR,40.0
NFTL 220600Z 12012KT 9999 FEW010 FEW016TCU BKN100 25/23 Q1006 RERA,NFTL,2015-02-22T06:00:00Z,-19.78,-174.33,25.0,23.0,120,12,,6.21,29.704725,,,,,,,,,,,FEW,1000,FEW,1600,BKN,10000,,,VFR,,,,,,,,,,,,METAR,3.0
NFTV 220600Z 32013KT 9999 FEW016 BKN035 BKN110 26/23 Q1007 RESH,NFTV,2015-02-22T06:00:00Z,-18.58,-173.97,26.0,23.0,320,13,,6.21,29.734253,,,,,,,,,,,FEW,1600,BKN,3500,BKN,11000,,,VFR,,,,,,,,,,,,METAR,71.0
RPLI 220600Z 34014KT 9999 FEW019 BKN100 29/22 Q1013 NOSIG RMK A2991,RPLI,2015-02-22T06:00:00Z,18.17,120.52,29.0,22.0,340,14,,6.21,29.911417,,,,,,TRUE,,,,,FEW,1900,BKN,10000,,,,,VFR,,,,,,,,,,,,METAR,5.0
LEGT 220600Z 29007KT CAVOK 04/M03 Q1013,LEGT,2015-02-22T06:00:00Z,40.28,-3.72,4.0,-3.0,290,7,,6.21,29.911417,,,,,,,,,,,CAVOK,,,,,,,,VFR,,,,,,,,,,,,METAR,612.0
CWMT 220600Z AUTO 11005KT M22/M25 RMK AO1 SLP261 T12241246 56018,CWMT,2015-02-22T06:00:00Z,63.13,-117.25,-22.4,-24.6,110,5,,,,1026.1,,TRUE,TRUE,,,,,,,,,,,,,,,,-1.8,,,,,,,,,,,METAR,271.0
CWDQ 220600Z AUTO 00000KT M13/M14 RMK AO1 SOG 40 6001 SLP193 T11311139 50020,CWDQ,2015-02-22T06:00:00Z,47.42,-72.78,-13.1,-13.9,0,0,,,,1019.3,,TRUE,TRUE,,,,,,,,,,,,,,,,2.0,,,,,,,,,,,METAR,169.0
CWWB 220600Z AUTO 24005KT M10/M12 RMK AO1 SLP203 T11001124 53007,CWWB,2015-02-22T06:00:00Z,43.3,-79.78,-10.0,-12.4,240,5,,,,1020.3,,TRUE,TRUE,,,,,,,,,,,,,,,,0.7,,,,,,,,,,,METAR,76.0
CWNZ 220600Z AUTO 34003KT M32/M35 RMK AO1 SOG 97 3011 SLP253 T13181349,CWNZ,2015-02-22T06:00:00Z,49.75,-84.17,-31.8,-34.9,340,3,,,,1025.3,,TRUE,TRUE,,,,,,,,,,,,,,,,,,,,,,,,,,,METAR,256.0
CWWZ 220600Z AUTO 21003KT M10/M11 RMK AO1 SOG 10 3008 SLP203 T10971107 50002,CWWZ,2015-02-22T06:00:00Z,43.25,-79.22,-9.7,-10.7,210,3,,,,1020.3,,TRUE,TRUE,,,,,,,,,,,,,,,,0.2,,,,,,,,,,,METAR,79.0
CWPO 220600Z AUTO 34007KT M30/M34 RMK AO1 SLP409 T13041342 51027,CWPO,2015-02-22T06:00:00Z,49.2,-98.9,-30.4,-34.2,340,7,,,,1040.9,,TRUE,TRUE,,,,,,,,,,,,,,,,2.7,,,,,,,,,,,METAR,470.0
CWBE 220600Z AUTO 30007KT M13/M15 RMK AO1 SLP194 T11271150 51014,CWBE,2015-02-22T06:00:00Z,45.98,-81.48,-12.7,-15.0,300,7,,,,1019.4,,TRUE,TRUE,,,,,,,,,,,,,,,,1.4,,,,,,,,,,,METAR,196.0
CWAJ 220600Z AUTO 27001KT M18/M20 RMK AO1 SLP211 T11761195 53012,CWAJ,2015-02-22T06:00:00Z,42.25,-81.9,-17.6,-19.5,270,1,,,,1021.1,,TRUE,TRUE,,,,,,,,,,,,,,,,1.2,,,,,,,,,,,METAR,178.0
CZZJ 220600Z AUTO 00000KT M12/M14 RMK AO1 SOG 37 6021 SLP348 T11151139,CZZJ,2015-02-22T06:00:00Z,53.58,-116.47,-11.5,-13.9,0,0,,,,1034.8,,TRUE,TRUE,,,,,,,,,,,,,,,,,,,,,,,,,,,METAR,927.0
CZTB 220600Z AUTO 35005KT M22/M26 RMK AO1 SLP281 T12181264 52028,CZTB,2015-02-22T06:00:00Z,48.37,-89.32,-21.8,-26.4,350,5,,,,1028.1,,TRUE,TRUE,,,,,,,,,,,,,,,,2.8,,,,,,,,,,,METAR,199.0
CZMJ 220600Z AUTO 28009KT M30/M33 RMK AO1 SOG 11 1014 SLP454 T13001333,CZMJ,2015-02-22T06:00:00Z,50.33,-105.57,-30.0,-33.3,280,9,,,,1045.4,,TRUE,TRUE,,,,,,,,,,,,,,,,,,,,,,,,,,,METAR,577.0
CZKD 220600Z AUTO 30005KT M31/M34 RMK AO1 SOG 49 3004 SLP360 T13071342,CZKD,2015-02-22T06:00:00Z,56.03,-96.52,-30.7,-34.2,300,5,,,,1036.0,,TRUE,TRUE,,,,,,,,,,,,,,,,,,,,,,,,,,,METAR,183.0
CXZV 220600Z AUTO 03005KT M17/M20 RMK AO1 SOG 40 6013 SLP232 T11721201,CXZV,2015-02-22T06:00:00Z,50.22,-66.25,-17.2,-20.1,30,5,,,,1023.2,,TRUE,TRUE,,,,,,,,,,,,,,,,,,,,,,,,,,,METAR,52.0
CXTD 220600Z AUTO 16008KT M03/M04 RMK AO1 SOG 15 8017 PK WND 19020/0521 SLP315 T10331035,CXTD,2015-02-22T06:00:00Z,45.62,-61.68,-3.3,-3.5,160,8,,,,1031.5,,TRUE,TRUE,,,,,,,,,,,,,,,,,,,,,,,,,,,METAR,68.0
CXRL 220600Z AUTO M26/M28 RMK AO1 T12581284,CXRL,2015-02-22T06:00:00Z,54.5,-111.7,-25.8,-28.4,,,,,,,,TRUE,TRUE,,,,,,,,,,,,,,,,,,,,,,,,,,,METAR,585.0
CXLB 220600Z AUTO 18021KT M00/ RMK AO1 PK WND 19025/0516 SLP273 T1003 58036,CXLB,2015-02-22T06:00:00Z,44.37,-64.3,-0.3,,180,21,,,,1027.3,,TRUE,TRUE,,,,,,,,,,,,,,,,-3.6,,,,,,,,,,,METAR,4.0
CXKI 220600Z AUTO M16/M17 RMK AO1 SOG 43 3019 SLP180 T11581173,CXKI,2015-02-22T06:00:00Z,48.22,-80.0,-15.8,-17.3,,,,,,1018.0,,TRUE,TRUE,,,,,,,,,,,,,,,,,,,,,,,,,,,METAR,324.0
CXCP 220600Z AUTO 10003KT M17/M18 RMK AO1 T11661178,CXCP,2015-02-22T06:00:00Z,50.28,-113.35,-16.6,-17.8,100,3,,,,,,TRUE,TRUE,,,,,,,,,,,,,,,,,,,,,,,,,,,METAR,1006.0
CWBY 220600Z AUTO 08005KT M14/M16 RMK AO1 SOG 10 6018 SLP239 T11421158,CWBY,2015-02-22T06:00:00Z,49.82,-64.28,-14.2,-15.8,80,5,,,,1023.9,,TRUE,TRUE,,,,,,,,,,,,,,,,,,,,,,,,,,,METAR,53.0
CXSL 220600Z AUTO 19004KT M19/M22 RMK AO1 T11861218,CXSL,2015-02-22T06:00:00Z,54.28,-112.5,-18.6,-21.8,190,4,,,,,,TRUE,TRUE,,,,,,,,,,,,,,,,,,,,,,,,,,,METAR,680.0
CPXL 220600Z AUTO 17002KT M17/M19 RMK AO1 T11651194 50004,CPXL,2015-02-22T06:00:00Z,49.87,-111.38,-16.5,-19.4,170,2,,,,,,TRUE,TRUE,,,,,,,,,,,,,,,,0.4,,,,,,,,,,,METAR,799.0
CPSV 220600Z AUTO 21004KT M19/M20 RMK AO1 T11851195,CPSV,2015-02-22T06:00:00Z,49.92,-110.92,-18.5,-19.5,210,4,,,,,,TRUE,TRUE,,,,,,,,,,,,,,,,,,,,,,,,,,,METAR,766.0
CPST 220600Z AUTO 21005KT M15/M16 RMK AO1 5PAST HR M P0002 T11461159 50005,CPST,2015-02-22T06:00:00Z,51.03,-113.28,-14.6,-15.9,210,5,,,,,,TRUE,TRUE,,,,,,,,,,,,,,,,0.5,,,,,0.02,,,,,,METAR,967.0
CWZW 220600Z AUTO 03004KT M01/M06 RMK AO1 SOG 38 6006 SLP294 T10061056,CWZW,2015-02-22T06:00:00Z,60.17,-132.73,-0.6,-5.6,30,4,,,,1029.4,,TRUE,TRUE,,,,,,,,,,,,,,,,,,,,,,,,,,,METAR,705.0
CWVT 220600Z AUTO 19005KT M26/M30 RMK AO1 8PAST HR SOG 36 8015 SLP420 P0003 T12611296 50010,CWVT,2015-02-22T06:00:00Z,55.82,-108.42,-26.1,-29.6,190,5,,,,1042.0,,TRUE,TRUE,,,,,,,,,,,,,,,,1.0,,,,,0.03,,,,,,METAR,434.0
CWRM 220600Z AUTO 13002KT M20/M22 RMK AO1 SOG 35 8014 SLP380 T12021220,CWRM,2015-02-22T06:00:00Z,52.42,-114.92,-20.2,-22.0,130,2,,,,1038.0,,TRUE,TRUE,,,,,,,,,,,,,,,,,,,,,,,,,,,METAR,988.0
CWZG 220600Z AUTO 32002KT M12/M15 RMK AO1 2PAST HR 1003 SLP380 P0001 T11191148 50002,CWZG,2015-02-22T06:00:00Z,51.2,-115.53,-11.9,-14.8,320,2,,,,1038.0,,TRUE,TRUE,,,,,,,,,,,,,,,,0.2,,,,,0.01,,,,,,METAR,1397.0
CWRO 220600Z AUTO 09007KT 07/06 RMK AO1 SLP320 T00740062 52001,CWRO,2015-02-22T06:00:00Z,54.17,-131.67,7.4,6.2,90,7,,,,1032.0,,TRUE,TRUE,,,,,,,,,,,,,,,,0.1,,,,,,,,,,,METAR,7.0
CWLP 220600Z AUTO 29003KT 08/04 RMK AO1 SLP316 T00820043 51005,CWLP,2015-02-22T06:00:00Z,50.93,-127.63,8.2,4.3,290,3,,,,1031.6,,TRUE,TRUE,,,,,,,,,,,,,,,,0.5,,,,,,,,,,,METAR,17.0
CWJD 220600Z AUTO 31006KT M30/M34 RMK AO1 SOG 44 3010 SLP414 T12991339,CWJD,2015-02-22T06:00:00Z,53.17,-99.27,-29.9,-33.9,310,6,,,,1041.4,,TRUE,TRUE,,,,,,,,,,,,,,,,,,,,,,,,,,,METAR,223.0
CWOY 220600Z AUTO 27004KT M28/M32 RMK AO1 SOG 13 2013 SLP432 T12821320 50002,CWOY,2015-02-22T06:00:00Z,51.77,-104.2,-28.2,-32.0,270,4,,,,1043.2,,TRUE,TRUE,,,,,,,,,,,,,,,,0.2,,,,,,,,,,,METAR,560.0
CWKO 220600Z AUTO 32006KT M26/M28 RMK AO1 SOG 05 1018 SLP423 T12581282,CWKO,2015-02-22T06:00:00Z,49.17,-105.97,-25.8,-28.2,320,6,,,,1042.3,,TRUE,TRUE,,,,,,,,,,,,,,,,,,,,,,,,,,,METAR,917.0
CWEH 220600Z AUTO 33007KT M22/M24 RMK AO1 SOG 30 1008 SLP399 T12181235 50002,CWEH,2015-02-22T06:00:00Z,49.42,-108.97,-21.8,-23.5,330,7,,,,1039.9,,TRUE,TRUE,,,,,,,,,,,,,,,,0.2,,,,,,,,,,,METAR,1078.0
CWDC 220600Z AUTO 06003KT M37/M41 RMK AO1 SOG 41 8021 SLP392 T13691408,CWDC,2015-02-22T06:00:00Z,59.57,-108.47,-36.9,-40.8,60,3,,,,1039.2,,TRUE,TRUE,,,,,,,,,,,,,,,,,,,,,,,,,,,METAR,318.0
CWLB 220600Z AUTO 18005KT M22/M26 RMK AO1 SOG 27 7015 SLP394 T12151255,CWLB,2015-02-22T06:00:00Z,54.77,-112.02,-21.5,-25.5,180,5,,,,1039.4,,TRUE,TRUE,,,,,,,,,,,,,,,,,,,,,,,,,,,METAR,567.0
CWDZ 220600Z AUTO 15005KT M20/M22 RMK AO1 SLP404 T12011223 58006,CWDZ,2015-02-22T06:00:00Z,51.42,-112.67,-20.1,-22.3,150,5,,,,1040.4,,TRUE,TRUE,,,,,,,,,,,,,,,,-0.6,,,,,,,,,,,METAR,678.0
CWDK 220600Z AUTO 12003KT M13/M14 RMK AO1 SLP400 T11251143 58008,CWDK,2015-02-22T06:00:00Z,50.02,-113.62,-12.5,-14.3,120,3,,,,1040.0,,TRUE,TRUE,,,,,,,,,,,,,,,,-0.8,,,,,,,,,,,METAR,1012.0
CWBZ 220600Z AUTO 00000KT M11/M12 RMK AO1 0000 SLP193 T11061115 50026,CWBZ,2015-02-22T06:00:00Z,45.12,-74.27,-10.6,-11.5,0,0,,,,1019.3,,TRUE,TRUE,,,,,,,,,,,,,,,,2.6,,,,,,,,,,,METAR,49.0
CWBT 220600Z AUTO 04003KT M15/M16 RMK AO1 SLP246 T11461163 58010,CWBT,2015-02-22T06:00:00Z,50.27,-64.23,-14.6,-16.3,40,3,,,,1024.6,,TRUE,TRUE,,,,,,,,,,,,,,,,-1.0,,,,,,,,,,,METAR,11.0
CWBS 220600Z AUTO 31003KT M11/M12 RMK AO1 T11101124,CWBS,2015-02-22T06:00:00Z,46.18,-72.92,-11.0,-12.4,310,3,,,,,,TRUE,TRUE,,,,,,,,,,,,,,,,,,,,,,,,,,,METAR,16.0
CWBO 220600Z AUTO 19003KT M20/M21 RMK AO1 SOG 03 8006 SLP409 T11981211,CWBO,2015-02-22T06:00:00Z,50.53,-111.83,-19.8,-21.1,190,3,,,,1040.9,,TRUE,TRUE,,,,,,,,,,,,,,,,,,,,,,,,,,,METAR,747.0
CWBA 220600Z AUTO 19005KT M12/M12 RMK AO1 SOG 56 T11171115,CWBA,2015-02-22T06:00:00Z,46.72,-79.1,-11.7,-11.5,190,5,,,,,,TRUE,TRUE,,,,,,,,,,,,,,,,,,,,,,,,,,,METAR,181.0
CWAF 220600Z AUTO M08/M09 RMK AO1 T10821092,CWAF,2015-02-22T06:00:00Z,48.07,-69.53,-8.2,-9.2,,,,,,,,TRUE,TRUE,,,,,,,,,,,,,,,,,,,,,,,,,,,METAR,5.0
CWPZ 220600Z AUTO 00000KT M10/M12 RMK AO1 SOG 64 8002 SLP362 T11041115,CWPZ,2015-02-22T06:00:00Z,54.38,-125.97,-10.4,-11.5,0,0,,,,1036.2,,TRUE,TRUE,,,,,,,,,,,,,,,,,,,,,,,,,,,METAR,713.0
CWPR 220600Z AUTO 31002KT M04/M07 RMK AO1 SOG 15 3016 SLP352 T10351069,CWPR,2015-02-22T06:00:00Z,49.47,-120.52,-3.5,-6.9,310,2,,,,1035.2,,TRUE,TRUE,,,,,,,,,,,,,,,,,,,,,,,,,,,METAR,700.0
CWPD 220600Z AUTO 17002KT M14/M15 RMK AO1 8006 SLP177 T11411151 50010,CWPD,2015-02-22T06:00:00Z,47.57,-71.22,-14.1,-15.1,170,2,,,,1017.7,,TRUE,TRUE,,,,,,,,,,,,,,,,1.0,,,,,,,,,,,METAR,803.0
CWOE 220600Z AUTO 28008KT M18/M21 RMK AO1 SLP406 T11791211 51007,CWOE,2015-02-22T06:00:00Z,49.12,-110.47,-17.9,-21.1,280,8,,,,1040.6,,TRUE,TRUE,,,,,,,,,,,,,,,,0.7,,,,,,,,,,,METAR,935.0
ZGNN 220600Z 15005MPS 120V180 9999 SCT020 25/20 Q1012 NOSIG,ZGNN,2015-02-22T06:00:00Z,22.62,108.17,25.0,20.0,150,10,,6.21,29.88189,,,,,,TRUE,,,,,SCT,2000,,,,,,,VFR,,,,,,,,,,,,METAR,73.0
CWHT 220600Z AUTO 07009G15KT 04/M02 RMK AO1 SOG 32 8021 SLP200 T00441017,CWHT,2015-02-22T06:00:00Z,60.77,-137.58,4.4,-1.7,70,9,15,,,1020.0,,TRUE,TRUE,,,,,,,,,,,,,,,,,,,,,,,,,,,METAR,599.0
LWOH 220600Z 31003KT 9999 -RA FEW023 OVC035 03/01 Q1010,LWOH,2015-02-22T06:00:00Z,41.18,20.75,3.0,1.0,310,3,,6.21,29.822834,,,,,,,,,,-RA,FEW,2300,OVC,3500,,,,,VFR,,,,,,,,,,,,METAR,761.0
YBDV 220600Z AUTO 30005KT //// // ////// 42/09 Q1004,YBDV,2015-02-22T06:00:00Z,-25.9,139.35,42.0,9.0,300,5,,,29.64567,,,TRUE,,,,,,,,,,,,,,,,,,,,,,,,,,,,METAR,47.0
DAAD 220600Z 34029KT 6000 BKN030 07/02 Q1003,DAAD,2015-02-22T06:00:00Z,35.32,4.2,7.0,2.0,340,29,,3.73,29.616142,,,,,,,,,,,BKN,3000,,,,,,,MVFR,,,,,,,,,,,,METAR,461.0
DAAS 220600Z 30008KT 8000 -RA SCT010 BKN026 01/00 Q1000,DAAS,2015-02-22T06:00:00Z,36.18,5.33,1.0,0.0,300,8,,4.97,29.52756,,,,,,,,,,-RA,SCT,1000,BKN,2600,,,,,MVFR,,,,,,,,,,,,METAR,1038.0
DAAV 220600Z 32020KT 5000 -RA SCT013 FEW023CB BKN026 10/08 Q1000,DAAV,2015-02-22T06:00:00Z,36.8,5.88,10.0,8.0,320,20,,3.11,29.52756,,,,,,,,,,-RA,SCT,1300,FEW,2300,BKN,2600,,,MVFR,,,,,,,,,,,,METAR,11.0
DAAY 220600Z 28018KT 6000 SCT010 BKN026 05/04 Q1012,DAAY,2015-02-22T06:00:00Z,33.53,-0.25,5.0,4.0,280,18,,3.73,29.88189,,,,,,,,,,,SCT,1000,BKN,2600,,,,,MVFR,,,,,,,,,,,,METAR,1149.0
DABT 220600Z 29017KT 8000 -RA FEW010 BKN020 04/01 Q1000,DABT,2015-02-22T06:00:00Z,35.75,6.32,4.0,1.0,290,17,,4.97,29.52756,,,,,,,,,,-RA,FEW,1000,BKN,2000,,,,,MVFR,,,,,,,,,,,,METAR,1052.0
DAEF 220600Z 24012KT 5000 NSC 08/04 Q1008,DAEF,2015-02-22T06:00:00Z,28.43,7.55,8.0,4.0,240,12,,3.11,29.763779,,,,,,,,,,,,,,,,,,,,,,,,,,,,,,,METAR,472.0
DAOB 220600Z 29014KT 6000 FEW010 BKN020 01/M00 Q1006,DAOB,2015-02-22T06:00:00Z,35.33,1.47,1.0,0.0,290,14,,3.73,29.704725,,,,,,,,,,,FEW,1000,BKN,2000,,,,,MVFR,,,,,,,,,,,,METAR,989.0
DAOF 220600Z 28008KT CAVOK 09/04 Q1015,DAOF,2015-02-22T06:00:00Z,27.7,-8.17,9.0,4.0,280,8,,6.21,29.970472,,,,,,,,,,,CAVOK,,,,,,,,VFR,,,,,,,,,,,,METAR,431.0
DAOR 220600Z 02008KT CAVOK 06/03 Q1013,DAOR,2015-02-22T06:00:00Z,31.65,-2.27,6.0,3.0,20,8,,6.21,29.911417,,,,,,,,,,,CAVOK,,,,,,,,VFR,,,,,,,,,,,,METAR,773.0
DAOV 220600Z 36016KT 9999 BKN030 10/08 Q1008,DAOV,2015-02-22T06:00:00Z,35.2,0.15,10.0,8.0,360,16,,6.21,29.763779,,,,,,,,,,,BKN,3000,,,,,,,MVFR,,,,,,,,,,,,METAR,514.0
DAUG 220600Z 30019KT 9999 SCT030 08/00 Q1006,DAUG,2015-02-22T06:00:00Z,32.37,3.82,8.0,0.0,300,19,,6.21,29.704725,,,,,,,,,,,SCT,3000,,,,,,,VFR,,,,,,,,,,,,METAR,450.0
DAUT 220600Z 00000KT CAVOK 07/M06 Q1012,DAUT,2015-02-22T06:00:00Z,29.25,0.27,7.0,-6.0,0,0,,6.21,29.88189,,,,,,,,,,,CAVOK,,,,,,,,VFR,,,,,,,,,,,,METAR,312.0
DAER 220600Z 22014KT 6000 SCT040 09/07 Q1008,DAER,2015-02-22T06:00:00Z,,,9.0,7.0,220,14,,3.73,29.763779,,,,,,,,,,,SCT,4000,,,,,,,MVFR,,,,,,,,,,,,METAR,
ZBHH 220600Z 21004MPS 170V240 CAVOK M09/M18 Q1021 NOSIG,ZBHH,2015-02-22T06:00:00Z,40.85,111.82,-9.0,-18.0,210,8,,6.21,30.147638,,,,,,TRUE,,,,,CAVOK,,,,,,,,VFR,,,,,,,,,,,,METAR,1065.0
ZGHA 220600Z 31003MPS 290V360 4000 HZ SCT023 12/07 Q1018 NOSIG,ZGHA,2015-02-22T06:00:00Z,28.18,113.22,12.0,7.0,310,6,,2.49,30.059055,,,,,,TRUE,,,,HZ,SCT,2300,,,,,,,IFR,,,,,,,,,,,,METAR,66.0
ZHCC 220600Z VRB02MPS 5000 HZ NSC 06/M11 Q1024 NOSIG,ZHCC,2015-02-22T06:00:00Z,34.52,113.83,6.0,-11.0,0,4,,3.11,30.236221,,,,,,TRUE,,,,HZ,,,,,,,,,,,,,,,,,,,,,METAR,111.0
ZHHH 220600Z 05004MPS 3100 HZ NSC 09/04 Q1022 BECMG TL0640 2500 BR,ZHHH,2015-02-22T06:00:00Z,30.78,114.22,9.0,4.0,50,8,,1.93,30.177166,,,,,,,,,,HZ,,,,,,,,,,,,,,,,,,,,,METAR,23.0
ZJHK 220600Z 17004MPS 130V210 9999 FEW020 SCT040 25/20 Q1012 NOSIG,ZJHK,2015-02-22T06:00:00Z,19.93,110.47,25.0,20.0,170,8,,6.21,29.88189,,,,,,TRUE,,,,,FEW,2000,SCT,4000,,,,,VFR,,,,,,,,,,,,METAR,23.0
ZJSY 220600Z 13003MPS 110V170 9999 FEW020 OVC066 25/22 Q1013 NOSIG,ZJSY,2015-02-22T06:00:00Z,18.3,109.42,25.0,22.0,130,6,,6.21,29.911417,,,,,,TRUE,,,,,FEW,2000,OVC,6600,,,,,VFR,,,,,,,,,,,,METAR,27.0
ZLLL 220600Z 21004MPS 140V280 CAVOK 06/M11 Q1013 NOSIG,ZLLL,2015-02-22T06:00:00Z,36.52,103.62,6.0,-11.0,210,8,,6.21,29.911417,,,,,,TRUE,,,,,CAVOK,,,,,,,,VFR,,,,,,,,,,,,METAR,1947.0
ZSNJ 220600Z 08003MPS 050V110 2300 HZ OVC020 09/04 Q1022 NOSIG,ZSNJ,2015-02-22T06:00:00Z,31.75,118.87,9.0,4.0,80,6,,1.43,30.177166,,,,,,TRUE,,,,HZ,OVC,2000,,,,,,,IFR,,,,,,,,,,,,METAR,33.0
ZSOF 220600Z 03004MPS 2000 BR BKN015 OVC040 08/05 Q1022 NOSIG,ZSOF,2015-02-22T06:00:00Z,31.78,117.3,8.0,5.0,30,8,,1.24,30.177166,,,,,,TRUE,,,,BR,BKN,1500,OVC,4000,,,,,IFR,,,,,,,,,,,,METAR,33.0
ZUCK 220600Z 27005MPS 260V340 1600 -RA BR SCT002 SCT012 OVC040 10/09 Q1017 NOSIG,ZUCK,2015-02-22T06:00:00Z,29.72,106.63,10.0,9.0,270,10,,0.99,30.029528,,,,,,TRUE,,,,-RA BR,SCT,200,SCT,1200,OVC,4000,,,LIFR,,,,,,,,,,,,METAR,351.0
ZYCC 220600Z 22010MPS 1600 R24/1300N -SN BR SCT010 BKN020 M04/M08 Q1006 BECMG TL0700 1200 -SN,ZYCC,2015-02-22T06:00:00Z,43.98,125.68,-4.0,-8.0,220,19,,0.99,29.704725,,,,,,,,,,-SN BR,SCT,1000,BKN,2000,,,,,LIFR,,,,,,,,,,,,METAR,238.0
ZYHB 220600Z 20008MPS 0600 R23/0750N -SN FZFG SCT013 OVC020 M06/M07 Q1002 BECMG TL0730 0900,ZYHB,2015-02-22T06:00:00Z,45.62,126.25,-6.0,-7.0,200,16,,0.37,29.586615,,,,,,,,,,-SN FZFG,SCT,1300,OVC,2000,,,,,LIFR,,,,,,,,,,,,SPECI,140.0
EIME 220600Z 20011KT 9999 FEW021 BKN043 BKN080 04/01 Q1001,EIME,2015-02-22T06:00:00Z,53.3,-6.45,4.0,1.0,200,11,,6.21,29.557087,,,,,,,,,,,FEW,2100,BKN,4300,BKN,8000,,,VFR,,,,,,,,,,,,METAR,93.0
EIWF 220600Z 21017KT 9999 SCT020 BKN025 06/04 Q1003,EIWF,2015-02-22T06:00:00Z,52.18,-7.08,6.0,4.0,210,17,,6.21,29.616142,,,,,,,,,,,SCT,2000,BKN,2500,,,,,MVFR,,,,,,,,,,,,METAR,36.0
MHLC 220600Z 00000KT 9999 FEW028 20/19 Q1015 A2997 NOSIG,MHLC,2015-02-22T06:00:00Z,15.75,-86.85,20.0,19.0,0,0,,6.21,29.970472,,,,,,TRUE,,,,,FEW,2800,,,,,,,VFR,,,,,,,,,,,,METAR,15.0
SBRB 220600Z 30003KT 9999 SCT003 BKN100 21/20 Q1012,SBRB,2015-02-22T06:00:00Z,-10.0,-67.78,21.0,20.0,300,3,,6.21,29.88189,,,,,,,,,,,SCT,300,BKN,10000,,,,,VFR,,,,,,,,,,,,METAR,143.0
FNCA 220600Z 00000KT 9999 FEW015 BKN090 26/25 Q1010,FNCA,2015-02-22T06:00:00Z,-5.58,12.18,26.0,25.0,0,0,,6.21,29.822834,,,,,,,,,,,FEW,1500,BKN,9000,,,,,VFR,,,,,,,,,,,,METAR,20.0
YESP 220600Z AUTO 20017KT 9999 // OVC021 20/14 Q1016,YESP,2015-02-22T06:00:00Z,-33.68,121.82,20.0,14.0,200,17,,6.21,30.0,,,TRUE,,,,,,,,OVC,2100,,,,,,,MVFR,,,,,,,,,,,,METAR,143.0
YEML 220600Z AUTO 21008KT 9999 // NCD 40/16 Q1005,YEML,2015-02-22T06:00:00Z,-23.57,148.18,40.0,16.0,210,8,,6.21,29.675198,,,TRUE,,,,,,,,,,,,,,,,,,,,,,,,,,,,METAR,190.0
YDBY 220600Z AUTO 33011KT //// // ////// 34/25 Q1004,YDBY,2015-02-22T06:00:00Z,-17.37,123.67,34.0,25.0,330,11,,,29.64567,,,TRUE,,,,,,,,,,,,,,,,,,,,,,,,,,,,METAR,7.0
YCOM 220600Z AUTO 34003KT 9999 // NCD 27/10 Q1018,YCOM,2015-02-22T06:00:00Z,-36.3,148.97,27.0,10.0,340,3,,6.21,30.059055,,,TRUE,,,,,,,,,,,,,,,,,,,,,,,,,,,,METAR,941.0
YCNM 220600Z AUTO 21007KT 180V350 //// // ////// 36/12 Q////,YCNM,2015-02-22T06:00:00Z,-30.98,148.38,36.0,12.0,210,7,,,,,,TRUE,,,,,,,,,,,,,,,,,,,,,,,,,,,,METAR,184.0
YCDU 220600Z AUTO 19014KT //// // NCD 31/15 Q1006,YCDU,2015-02-22T06:00:00Z,-32.12,133.7,31.0,15.0,190,14,,,29.704725,,,TRUE,,,,,,,,,,,,,,,,,,,,,,,,,,,,METAR,15.0
YLEC 220600Z AUTO 36008KT 330V030 //// // ////// 38/11 Q1008,YLEC,2015-02-22T06:00:00Z,-30.6,138.43,38.0,11.0,360,8,,,29.763779,,,TRUE,,,,,,,,,,,,,,,,,,,,,,,,,,,,METAR,262.0
YKRY 220600Z AUTO 13007KT //// // ////// 29/20 Q1010,YKRY,2015-02-22T06:00:00Z,-26.57,151.83,29.0,20.0,130,7,,,29.822834,,,TRUE,,,,,,,,,,,,,,,,,,,,,,,,,,,,METAR,434.0
YHUG 220600Z AUTO 28010KT //// // ////// 39/16 Q1007,YHUG,2015-02-22T06:00:00Z,-20.82,144.23,39.0,16.0,280,10,,,29.734253,,,TRUE,,,,,,,,,,,,,,,,,,,,,,,,,,,,METAR,318.0
YGTH 220600Z AUTO 06009KT 9999 // NCD 35/11 Q1011,YGTH,2015-02-22T06:00:00Z,-34.25,146.07,35.0,11.0,60,9,,6.21,29.852362,,,TRUE,,,,,,,,,,,,,,,,,,,,,,,,,,,,METAR,134.0
CYYH 220600Z 20016G21KT 1 1/2SM -SN BR BLSN SCT015 BKN030 OVC040 M32/M36 A3008 RMK FG1ST2SC2SC3 SLP191,CYYH,2015-02-22T06:00:00Z,69.53,-93.57,-32.0,-36.0,200,16,21,1.5,30.079725,1019.1,,,,,,,,,-SN BR BLSN,SCT,1500,BKN,3000,OVC,4000,,,IFR,,,,,,,,,,,,METAR,28.0
CYXU 220600Z 10003KT 1/8SM R15/2800VP6000FT/D FZFG OVC001 M18/M20 A3008 RMK FG7ST1 FROIN SLP209,CYXU,2015-02-22T06:00:00Z,43.02,-81.15,-18.0,-20.0,100,3,,0.13,30.079725,1020.9,,,,,,,,,FZFG,OVC,100,,,,,,,LIFR,,,,,,,,,,,,SPECI,278.0
CYXL 220600Z 36006KT 15SM IC SKC M29/M33 A3033 RMK SLP322,CYXL,2015-02-22T06:00:00Z,50.12,-91.9,-29.0,-33.0,360,6,,15.0,30.33071,1032.2,,,,,,,,,IC,SKC,,,,,,,,VFR,,,,,,,,,,,,METAR,390.0
CYVQ 220600Z 08004KT 30SM FEW050 BKN160 BKN290 M13/M15 A3009 RMK SC1AC4CI1 SLP197,CYVQ,2015-02-22T06:00:00Z,65.27,-126.78,-13.0,-15.0,80,4,,30.0,30.088583,1019.7,,,,,,,,,,FEW,5000,BKN,16000,BKN,29000,,,VFR,,,,,,,,,,,,METAR,74.0
CYSC 220600Z AUTO 00000KT 9SM BKN110 M09/M09 A3006 RMK SLP194,CYSC,2015-02-22T06:00:00Z,45.43,-71.68,-9.0,-9.0,0,0,,9.0,30.059055,1019.4,,TRUE,,,,,,,,BKN,11000,,,,,,,VFR,,,,,,,,,,,,METAR,241.0
RJNK 220600Z 21016KT 9999 -SHRA FEW030 BKN060 OVC080 15/06 Q1013,RJNK,2015-02-22T06:00:00Z,36.37,136.42,15.0,6.0,210,16,,6.21,29.911417,,,,,,,,,,-SHRA,FEW,3000,BKN,6000,OVC,8000,,,VFR,,,,,,,,,,,,METAR,9.0
CZSJ 220600Z AUTO 29005KT 9SM CLR M33/M36 A3040 RMK SLP343,CZSJ,2015-02-22T06:00:00Z,53.07,-93.35,-33.0,-36.0,290,5,,9.0,30.398623,1034.3,,TRUE,,,,,,,,CLR,,,,,,,,VFR,,,,,,,,,,,,METAR,290.0
CZMD 220600Z AUTO 27005KT 9SM -SN CLR M33/M37 A3035 RMK SLP324,CZMD,2015-02-22T06:00:00Z,53.43,-91.77,-33.0,-37.0,270,5,,9.0,30.351377,1032.4,,TRUE,,,,,,,-SN,CLR,,,,,,,,VFR,,,,,,,,,,,,METAR,278.0
CWJH 220600Z AUTO 24002KT M37/M41 RMK AO1 SOG 43 0000 SLP429 T13721412,CWJH,2015-02-22T06:00:00Z,56.32,-103.27,-37.2,-41.2,240,2,,,,1042.9,,TRUE,TRUE,,,,,,,,,,,,,,,,,,,,,,,,,,,METAR,344.0
RPMD 220600Z 01012KT 9999 SCT016 SCT290 32/20 Q1011 RMK A2985,RPMD,2015-02-22T06:00:00Z,7.12,125.65,32.0,20.0,10,12,,6.21,29.852362,,,,,,,,,,,SCT,1600,SCT,29000,,,,,VFR,,,,,,,,,,,,METAR,18.0
RPLL 220600Z VRB12KT 9999 FEW025 30/17 Q1013 NOSIG RMK A2991,RPLL,2015-02-22T06:00:00Z,14.52,121.0,30.0,17.0,0,12,,6.21,29.911417,,,,,,TRUE,,,,,FEW,2500,,,,,,,VFR,,,,,,,,,,,,METAR,21.0
YGLA 220600Z AUTO 24006KT 220V280 9999 // NCD 36/22 Q1005,YGLA,2015-02-22T06:00:00Z,-23.87,151.22,36.0,22.0,240,6,,6.21,29.675198,,,TRUE,,,,,,,,,,,,,,,,,,,,,,,,,,,,METAR,52.0
YGFN 220600Z AUTO 15012KT 8000 // SCT018 SCT023 BKN028 25/21 Q1012,YGFN,2015-02-22T06:00:00Z,-29.77,153.03,25.0,21.0,150,12,,4.97,29.88189,,,TRUE,,,,,,,,SCT,1800,SCT,2300,BKN,2800,,,MVFR,,,,,,,,,,,,METAR,34.0
YPBO 220600Z AUTO 20007KT 160V240 9999 // NCD 42/06 Q1003,YPBO,2015-02-22T06:00:00Z,-23.2,117.75,42.0,6.0,200,7,,6.21,29.616142,,,TRUE,,,,,,,,,,,,,,,,,,,,,,,,,,,,METAR,1292.0
YOLD 220600Z AUTO 03004KT 350V100 9999 // ////// 40/11 Q1007,YOLD,2015-02-22T06:00:00Z,-30.48,136.88,40.0,11.0,30,4,,6.21,29.734253,,,TRUE,,,,,,,,,,,,,,,,,,,,,,,,,,,,METAR,105.0
YNWN 220600Z AUTO 26010KT //// // ////// 42/07 Q1004,YNWN,2015-02-22T06:00:00Z,-23.42,119.8,42.0,7.0,260,10,,,29.64567,,,TRUE,,,,,,,,,,,,,,,,,,,,,,,,,,,,METAR,525.0
YNTN 220600Z AUTO 31012KT //// // ////// 34/25 Q1007,YNTN,2015-02-22T06:00:00Z,-17.68,141.07,34.0,25.0,310,12,,,29.734253,,,TRUE,,,,,,,,,,,,,,,,,,,,,,,,,,,,METAR,22.0
YNBR 220600Z AUTO 14012KT //// // ////// 36/15 Q1009,YNBR,2015-02-22T06:00:00Z,-30.32,149.83,36.0,15.0,140,12,,,29.793306,,,TRUE,,,,,,,,,,,,,,,,,,,,,,,,,,,,METAR,240.0
YNAR 220600Z AUTO 02010KT //// // ////// 35/12 Q1011,YNAR,2015-02-22T06:00:00Z,-34.7,146.52,35.0,12.0,20,10,,,29.852362,,,TRUE,,,,,,,,,,,,,,,,,,,,,,,,,,,,METAR,145.0
YSNW 220600Z AUTO 08014KT 9999 // SCT023 26/18 Q1016,YSNW,2015-02-22T06:00:00Z,-34.95,150.52,26.0,18.0,80,14,,6.21,30.0,,,TRUE,,,,,,,,SCT,2300,,,,,,,VFR,,,,,,,,,,,,METAR,110.0
YRMD 220600Z AUTO 29008KT //// // ////// 38/17 Q1006,YRMD,2015-02-22T06:00:00Z,-20.7,143.12,38.0,17.0,290,8,,,29.704725,,,TRUE,,,,,,,,,,,,,,,,,,,,,,,,,,,,METAR,207.0
YBPN 220600Z AUTO 36009KT 9999 // SCT115 32/26 Q1006,YBPN,2015-02-22T06:00:00Z,-20.5,148.55,32.0,26.0,360,9,,6.21,29.704725,,,TRUE,,,,,,,,SCT,11500,,,,,,,VFR,,,,,,,,,,,,METAR,25.0
YBOK 220600Z AUTO 11012KT 9999 // SCT046 BKN059 29/20 Q1011,YBOK,2015-02-22T06:00:00Z,-27.42,151.72,29.0,20.0,110,12,,6.21,29.852362,,,TRUE,,,,,,,,SCT,4600,BKN,5900,,,,,VFR,,,,,,,,,,,,METAR,407.0
YBNA 220600Z AUTO 16012KT 9999 // SCT040 SCT058 BKN067 25/22 Q1011,YBNA,2015-02-22T06:00:00Z,-28.83,153.57,25.0,22.0,160,12,,6.21,29.852362,,,TRUE,,,,,,,,SCT,4000,SCT,5800,BKN,6700,,,VFR,,,,,,,,,,,,METAR,2.0
YBMK 220600Z AUTO 25005KT 190V280 9999 // SCT028 SCT049 BKN073 26/24 Q1007,YBMK,2015-02-22T06:00:00Z,-21.17,149.17,26.0,24.0,250,5,,6.21,29.734253,,,TRUE,,,,,,,,SCT,2800,SCT,4900,BKN,7300,,,VFR,,,,,,,,,,,,METAR,31.0
YBHI 220600Z AUTO 34004KT 290V030 9999 // BKN098 37/10 Q1009,YBHI,2015-02-22T06:00:00Z,-32.0,141.47,37.0,10.0,340,4,,6.21,29.793306,,,TRUE,,,,,,,,BKN,9800,,,,,,,VFR,,,,,,,,,,,,METAR,292.0
FYWB 220600Z 02007KT 9999 BKN080 15/12 Q1013,FYWB,2015-02-22T06:00:00Z,-22.98,14.65,15.0,12.0,20,7,,6.21,29.911417,,,,,,,,,,,BKN,8000,,,,,,,VFR,,,,,,,,,,,,METAR,46.0
RKSM 220600Z 24012KT 8000 SA SCT030 05/M03 A3002,RKSM,2015-02-22T06:00:00Z,37.42,127.12,5.0,-3.0,240,12,,4.97,30.02067,,,,,,,,,,SA,SCT,3000,,,,,,,MVFR,,,,,,,,,,,,METAR,20.0
ORSU 220600Z 08007KT 9999 FEW040 SCT200 06/M03 Q1019,ORSU,2015-02-22T06:00:00Z,35.57,45.32,6.0,-3.0,80,7,,6.21,30.088583,,,,,,,,,,,FEW,4000,SCT,20000,,,,,VFR,,,,,,,,,,,,METAR,761.0
UMBB 220600Z 15002MPS 6000 NSC M00/M03 Q1008 NOSIG,UMBB,2015-02-22T06:00:00Z,52.12,23.9,0.0,-3.0,150,4,,3.73,29.763779,,,,,,TRUE,,,,,,,,,,,,,,,,,,,,,,,,,METAR,143.0
UMII 220600Z 18006G10MPS 3600 BR OVC014 02/M00 Q1007 TEMPO 2000 BKN005,UMII,2015-02-22T06:00:00Z,55.13,30.35,2.0,0.0,180,12,19,2.24,29.734253,,,,,,,,,,BR,OVC,1400,,,,,,,IFR,,,,,,,,,,,,METAR,208.0
UMMG 220600Z 19005G08MPS 7000 NSC M00/M02 Q1007 NOSIG,UMMG,2015-02-22T06:00:00Z,53.6,24.05,0.0,-2.0,190,10,16,4.35,29.734253,,,,,,TRUE,,,,,,,,,,,,,,,,,,,,,,,,,METAR,135.0
CYZP 220600Z AUTO 15003KT 9SM OVC230 06/04 A3048 RMK SLP321,CYZP,2015-02-22T06:00:00Z,53.25,-131.82,6.0,4.0,150,3,,9.0,30.481298,1032.1,,TRUE,,,,,,,,OVC,23000,,,,,,,VFR,,,,,,,,,,,,METAR,6.0
CYXS 220600Z AUTO 19002KT 9SM SCT190 M04/M07 A3048 RMK SLP363,CYXS,2015-02-22T06:00:00Z,53.9,-122.68,-4.0,-7.0,190,2,,9.0,30.481298,1036.3,,TRUE,,,,,,,,SCT,19000,,,,,,,VFR,,,,,,,,,,,,METAR,691.0
CYXE 220600Z 23007KT 15SM SKC M31/M34 A3066 RMK SLP451,CYXE,2015-02-22T06:00:00Z,52.17,-106.7,-31.0,-34.0,230,7,,15.0,30.661417,1045.1,,,,,,,,,,SKC,,,,,,,,VFR,,,,,,,,,,,,METAR,504.0
CYXC 220600Z 22004KT 25SM SKC M09/M13 A3046 RMK SLP365,CYXC,2015-02-22T06:00:00Z,49.6,-115.77,-9.0,-13.0,220,4,,25.0,30.46063,1036.5,,,,,,,,,,SKC,,,,,,,,VFR,,,,,,,,,,,,METAR,939.0
CYVL 220600Z AUTO VRB02KT 9SM M18/M20 A3001 RMK CLD MISG SLP196,CYVL,2015-02-22T06:00:00Z,67.02,-126.13,-18.0,-20.0,0,2,,9.0,30.008858,1019.6,,TRUE,,,,,,,,,,,,,,,,,,,,,,,,,,,,METAR,259.0
CYRV 220600Z AUTO 31009KT 290V360 9SM CLR M03/M05 A3052 RMK SLP354,CYRV,2015-02-22T06:00:00Z,50.97,-118.17,-3.0,-5.0,310,9,,9.0,30.519686,1035.4,,TRUE,,,,,,,,CLR,,,,,,,,VFR,,,,,,,,,,,,METAR,443.0
CYQZ 220600Z AUTO 00000KT 9SM CLR M01/M02 A3052 RMK SLP364,CYQZ,2015-02-22T06:00:00Z,53.02,-122.52,-1.0,-2.0,0,0,,9.0,30.519686,1036.4,,TRUE,,,,,,,,CLR,,,,,,,,VFR,,,,,,,,,,,,METAR,545.0
CYZT 220600Z 00000KT 15SM SKC 01/00 A3048 RMK SLP320,CYZT,2015-02-22T06:00:00Z,50.67,-127.37,1.0,0.0,0,0,,15.0,30.481298,1032.0,,,,,,,,,,SKC,,,,,,,,VFR,,,,,,,,,,,,METAR,22.0
CXMM 220600Z AUTO 01005KT M21/M24 RMK AO1 SOG 25 6022 SLP384 T12101239,CXMM,2015-02-22T06:00:00Z,56.65,-111.22,-21.0,-23.9,10,5,,,,1038.4,,TRUE,TRUE,,,,,,,,,,,,,,,,,,,,,,,,,,,METAR,369.0
UMOO 220600Z 18005MPS 8000 OVC008 01/M01 Q1011 NOSIG,UMOO,2015-02-22T06:00:00Z,53.95,30.1,1.0,-1.0,180,10,,4.97,29.852362,,,,,,TRUE,,,,,OVC,800,,,,,,,IFR,,,,,,,,,,,,METAR,194.0
DAUE 220600Z 27012KT CAVOK 10/06 Q1009,DAUE,2015-02-22T06:00:00Z,30.57,2.87,10.0,6.0,270,12,,6.21,29.793306,,,,,,,,,,,CAVOK,,,,,,,,VFR,,,,,,,,,,,,METAR,397.0
SASJ 220600Z 00000KT 5000 -DZ SCT005 OVC010 18/17 Q1020,SASJ,2015-02-22T06:00:00Z,-24.37,-65.1,18.0,17.0,0,0,,3.11,30.11811,,,,,,,,,,-DZ,SCT,500,OVC,1000,,,,,MVFR,,,,,,,,,,,,METAR,1167.0
SAWH 220600Z 32005KT 9999 SCT035 05/02 Q1006,SAWH,2015-02-22T06:00:00Z,-54.85,-68.3,5.0,2.0,320,5,,6.21,29.704725,,,,,,,,,,,SCT,3500,,,,,,,VFR,,,,,,,,,,,,METAR,14.0
CWAR 220600Z AUTO 25021KT M03/M07 RMK AO1 PK WND 24027/0513 SLP329 T10251070 53016,CWAR,2015-02-22T06:00:00Z,47.28,-54.0,-2.5,-7.0,250,21,,,,1032.9,,TRUE,TRUE,,,,,,,,,,,,,,,,1.6,,,,,,,,,,,METAR,16.0
CYQM 220600Z 16015KT 10SM -SN DRSN FEW008 BKN021 OVC060 M03/M05 A3019 RMK SF1SC5SC2 SLP229,CYQM,2015-02-22T06:00:00Z,46.12,-64.67,-3.0,-5.0,160,15,,10.0,30.188976,1022.9,,,,,,,,,-SN DRSN,FEW,800,BKN,2100,OVC,6000,,,MVFR,,,,,,,,,,,,SPECI,71.0
CBBC 220600Z AUTO 00000KT 9SM CLR 00/M00 A3051 RMK SLP334,CBBC,2015-02-22T06:00:00Z,52.18,-128.15,0.0,0.0,0,0,,9.0,30.510826,1033.4,,TRUE,,,,,,,,CLR,,,,,,,,VFR,,,,,,,,,,,,METAR,43.0
CYDL 220600Z AUTO 18012KT 9SM OVC065 M03/M06 A3040 RMK SLP338,CYDL,2015-02-22T06:00:00Z,58.42,-130.02,-3.0,-6.0,180,12,,9.0,30.398623,1033.8,,TRUE,,,,,,,,OVC,6500,,,,,,,VFR,,,,,,,,,,,,METAR,816.0
CYMA 220600Z 04006KT 350V080 20SM FEW080 SCT100 M04/M08 A3008 RMK AC1AS2 CLIMAT-3.3/-6.3/0.0SOG 35 SLP229,CYMA,2015-02-22T06:00:00Z,63.62,-135.87,-4.0,-8.0,40,6,,20.0,30.079725,1022.9,,,,,,,,,,FEW,8000,SCT,10000,,,,,VFR,,,,,,,,,,,,METAR,504.0
CYLW 220600Z AUTO 36002KT 9SM CLR M04/M07 A3051 RMK SLP351,CYLW,2015-02-22T06:00:00Z,49.95,-119.37,-4.0,-7.0,360,2,,9.0,30.510826,1035.1,,TRUE,,,,,,,,CLR,,,,,,,,VFR,,,,,,,,,,,,METAR,430.0
CYKA 220600Z 30004KT 260V340 40SM SKC 01/M07 A3053 RMK SLP355,CYKA,2015-02-22T06:00:00Z,50.7,-120.45,1.0,-7.0,300,4,,40.0,30.528543,1035.5,,,,,,,,,,SKC,,,,,,,,VFR,,,,,,,,,,,,METAR,346.0
CYIN 220600Z AUTO 22002KT 9SM CLR M07/M09 A3045 RMK SLP361,CYIN,2015-02-22T06:00:00Z,51.27,-121.68,-7.0,-9.0,220,2,,9.0,30.448818,1036.1,,TRUE,,,,,,,,CLR,,,,,,,,VFR,,,,,,,,,,,,METAR,1128.0
CYQH 220600Z 29002KT 20SM BKN035 M10/M11 A3027 RMK SC6 CLIMAT -6.0/-9.9/0.0CM/0.0MM SLP314,CYQH,2015-02-22T06:00:00Z,60.12,-128.82,-10.0,-11.0,290,2,,20.0,30.268702,1031.4,,,,,,,,,,BKN,3500,,,,,,,VFR,,,,,,,,,,,,METAR,690.0
CYQU 220600Z CCA 29004KT 25SM SCT210 M11/M12 A3033 RMK CI3 SLP320,CYQU,2015-02-22T06:00:00Z,55.18,-118.88,-11.0,-12.0,290,4,,25.0,30.33071,1032.0,,,,,,,,,,SCT,21000,,,,,,,VFR,,,,,,,,,,,,METAR,669.0
CYWL 220600Z 00000KT 15SM SKC M05/M08 A3048 RMK SLP370,CYWL,2015-02-22T06:00:00Z,52.18,-122.07,-5.0,-8.0,0,0,,15.0,30.481298,1037.0,,,,,,,,,,SKC,,,,,,,,VFR,,,,,,,,,,,,METAR,940.0
CYXJ 220600Z 16005KT 15SM SCT170 M06/M09 A3025 RMK AC3 SLP288,CYXJ,2015-02-22T06:00:00Z,56.25,-120.73,-6.0,-9.0,160,5,,15.0,30.250984,1028.8,,,,,,,,,,SCT,17000,,,,,,,VFR,,,,,,,,,,,,METAR,695.0
CYXY 220600Z 18012KT 15SM OVC240 02/M05 A3014 RMK CI8 SLP247,CYXY,2015-02-22T06:00:00Z,60.72,-135.07,2.0,-5.0,180,12,,15.0,30.138779,1024.7,,,,,,,,,,OVC,24000,,,,,,,VFR,,,,,,,,,,,,SPECI,703.0
LFBY 220600Z AUTO VRB01KT 9999 // FEW047/// 04/03 Q1014,LFBY,2015-02-22T06:00:00Z,43.67,-1.07,4.0,3.0,0,1,,6.21,29.940945,,,TRUE,,,,,,,,,,,,,,,,,,,,,,,,,,,,METAR,32.0
CYDB 220600Z AUTO 10016G28KT 9SM CLR 03/M01 A2985 RMK SLP146,CYDB,2015-02-22T06:00:00Z,61.37,-139.05,3.0,-1.0,100,16,28,9.0,29.84941,1014.6,,TRUE,,,,,,,,CLR,,,,,,,,VFR,,,,,,,,,,,,METAR,801.0
CYDQ 220600Z AUTO 14009KT 9SM OVC180 M04/M06 A3027 RMK SLP290,CYDQ,2015-02-22T06:00:00Z,55.75,-120.17,-4.0,-6.0,140,9,,9.0,30.268702,1029.0,,TRUE,,,,,,,,OVC,18000,,,,,,,VFR,,,,,,,,,,,,SPECI,655.0
CYEV 220600Z 07004KT 15SM OVC120 M11/M14 A2995 RMK AC8 SLP151,CYEV,2015-02-22T06:00:00Z,68.32,-133.5,-11.0,-14.0,70,4,,15.0,29.949802,1015.1,,,,,,,,,,OVC,12000,,,,,,,VFR,,,,,,,,,,,,METAR,68.0
CYIV 220600Z 29008KT 15SM SKC M32/M36 A3047 RMK SLP359,CYIV,2015-02-22T06:00:00Z,53.85,-94.65,-32.0,-36.0,290,8,,15.0,30.469488,1035.9,,,,,,,,,,SKC,,,,,,,,VFR,,,,,,,,,,,,METAR,237.0
CYHE 220600Z AUTO 10007KT 9SM CLR 05/M01 A3053 RMK SLP339,CYHE,2015-02-22T06:00:00Z,49.37,-121.5,5.0,-1.0,100,7,,9.0,30.528543,1033.9,,TRUE,,,,,,,,CLR,,,,,,,,VFR,,,,,,,,,,,,METAR,39.0
CYKY 220600Z 00000KT 15SM SCT240 M23/M26 A3059 RMK CI4 SLP432,CYKY,2015-02-22T06:00:00Z,51.52,-109.17,-23.0,-26.0,0,0,,15.0,30.590551,1043.2,,,,,,,,,,SCT,24000,,,,,,,VFR,,,,,,,,,,,,METAR,694.0
CYPR 220600Z AUTO 00000KT 9SM CLR 03/03 A3050 RMK SLP329,CYPR,2015-02-22T06:00:00Z,54.28,-130.42,3.0,3.0,0,0,,9.0,30.499016,1032.9,,TRUE,,,,,,,,CLR,,,,,,,,VFR,,,,,,,,,,,,METAR,34.0
CYQD 220600Z 30009KT 15SM SKC M29/M34 A3065 RMK AURBO SLP421,CYQD,2015-02-22T06:00:00Z,53.97,-101.08,-29.0,-34.0,300,9,,15.0,30.649607,1042.1,,,,,,,,,,SKC,,,,,,,,VFR,,,,,,,,,,,,METAR,271.0
CYZX 220600Z 17017G22KT 2SM -SN DRSN OVC051 M01/M01 A3026 RMK SC8 WNDY HILL 18014G24KT VIS VRB 11/2-21/2 SLP249,CYZX,2015-02-22T06:00:00Z,44.98,-64.92,-1.0,-1.0,170,17,22,2.0,30.259842,1024.9,,,,,,,,,-SN DRSN,OVC,5100,,,,,,,IFR,,,,,,,,,,,,SPECI,28.0
CYZV 220600Z 05007KT 15SM -SN OVC015 M17/M21 A3020 RMK SC8 SLP233,CYZV,2015-02-22T06:00:00Z,50.22,-66.27,-17.0,-21.0,50,7,,15.0,30.200787,1023.3,,,,,,,,,-SN,OVC,1500,,,,,,,MVFR,,,,,,,,,,,,SPECI,55.0
CYYZ 220600Z 36003KT 12SM SKC M13/M15 A3010 RMK SLP207,CYYZ,2015-02-22T06:00:00Z,43.67,-79.62,-13.0,-15.0,360,3,,12.0,30.100393,1020.7,,,,,,,,,,SKC,,,,,,,,VFR,,,,,,,,,,,,SPECI,173.0
CYYT 220600Z 25016G24KT 15SM FEW020 M07/M10 A3045 RMK SC1 SLP321,CYYT,2015-02-22T06:00:00Z,47.62,-52.72,-7.0,-10.0,250,16,24,15.0,30.448818,1032.1,,,,,,,,,,FEW,2000,,,,,,,VFR,,,,,,,,,,,,SPECI,140.0
CYYR 220600Z 24008KT 15SM SKC M19/M25 A3023 RMK SLP241,CYYR,2015-02-22T06:00:00Z,53.32,-60.42,-19.0,-25.0,240,8,,15.0,30.230314,1024.1,,,,,,,,,,SKC,,,,,,,,VFR,,,,,,,,,,,,SPECI,49.0
CYYQ 220600Z 33015KT 15SM DRSN SKC M31/M34 A3049 RMK SLP329,CYYQ,2015-02-22T06:00:00Z,58.75,-94.07,-31.0,-34.0,330,15,,15.0,30.490158,1032.9,,,,,,,,,DRSN,SKC,,,,,,,,VFR,,,,,,,,,,,,SPECI,29.0
CYYJ 220600Z 24008KT 30SM SKC 03/01 A3047 RMK SLP319,CYYJ,2015-02-22T06:00:00Z,48.63,-123.42,3.0,1.0,240,8,,30.0,30.469488,1031.9,,,,,,,,,,SKC,,,,,,,,VFR,,,,,,,,,,,,SPECI,19.0
CYYC 220600Z 19005KT 15SM FEW035 M12/M14 A3046 RMK SC1 SC TR SLP397,CYYC,2015-02-22T06:00:00Z,51.12,-114.02,-12.0,-14.0,190,5,,15.0,30.46063,1039.7,,,,,,,,,,FEW,3500,,,,,,,VFR,,,,,,,,,,,,SPECI,1084.0
CYXX 220600Z 03009KT 15SM SKC 08/M06 A3048 RMK SLP324,CYXX,2015-02-22T06:00:00Z,49.03,-122.38,8.0,-6.0,30,9,,15.0,30.481298,1032.4,,,,,,,,,,SKC,,,,,,,,VFR,,,,,,,,,,,,SPECI,58.0
CYWG 220600Z 32013KT 15SM SKC M30/M34 A3061 RMK SLP399,CYWG,2015-02-22T06:00:00Z,49.88,-97.22,-30.0,-34.0,320,13,,15.0,30.611221,1039.9,,,,,,,,,,SKC,,,,,,,,VFR,,,,,,,,,,,,SPECI,239.0
CYUL 220600Z 34002KT 6SM -SN BR BKN025 OVC050 M12/M14 A3010 RMK SC7SC1 SLP195,CYUL,2015-02-22T06:00:00Z,45.47,-73.73,-12.0,-14.0,340,2,,6.0,30.100393,1019.5,,,,,,,,,-SN BR,BKN,2500,OVC,5000,,,,,MVFR,,,,,,,,,,,,SPECI,36.0
CYTR 220600Z 30006KT 15SM SCT025 M09/M10 A3009 RMK SC3 SLP197,CYTR,2015-02-22T06:00:00Z,44.12,-77.52,-9.0,-10.0,300,6,,15.0,30.088583,1019.7,,,,,,,,,,SCT,2500,,,,,,,VFR,,,,,,,,,,,,SPECI,86.0
CYQY 220600Z 20009KT 15SM BKN100 M06/M10 A3048 RMK AC7 SLP326,CYQY,2015-02-22T06:00:00Z,46.17,-60.03,-6.0,-10.0,200,9,,15.0,30.481298,1032.6,,,,,,,,,,BKN,10000,,,,,,,VFR,,,,,,,,,,,,SPECI,62.0
CYQX 220600Z 23013G23KT 20SM FEW020 SCT250 M11/M14 A3039 RMK SC1CI2 SLP302,CYQX,2015-02-22T06:00:00Z,48.95,-54.58,-11.0,-14.0,230,13,23,20.0,30.389763,1030.2,,,,,,,,,,FEW,2000,SCT,25000,,,,,VFR,,,,,,,,,,,,SPECI,151.0
CYQQ 220600Z 24002KT 20SM SKC 03/M01 A3047 RMK SLP319,CYQQ,2015-02-22T06:00:00Z,49.72,-124.9,3.0,-1.0,240,2,,20.0,30.469488,1031.9,,,,,,,,,,SKC,,,,,,,,VFR,,,,,,,,,,,,SPECI,24.0
CYQG 220600Z 21004KT 190V250 8SM BKN027 OVC090 M09/M10 A3012 RMK SC7AC1 SLP209,CYQG,2015-02-22T06:00:00Z,42.27,-82.97,-9.0,-10.0,210,4,,8.0,30.121063,1020.9,,,,,,,,,,BKN,2700,OVC,9000,,,,,MVFR,,,,,,,,,,,,SPECI,190.0
CYMX 220600Z 05003KT 030V200 5SM -SN FEW008 OVC022 M12/M14 A3009 RMK SF1SC8 SF TR SLP195,CYMX,2015-02-22T06:00:00Z,45.67,-74.02,-12.0,-14.0,50,3,,5.0,30.088583,1019.5,,,,,,,,,-SN,FEW,800,OVC,2200,,,,,MVFR,,,,,,,,,,,,SPECI,82.0
CYJT 220600Z 23020KT 15SM OVC025 M05/M11 A3042 RMK SC8 SLP302,CYJT,2015-02-22T06:00:00Z,48.55,-58.57,-5.0,-11.0,230,20,,15.0,30.41929,1030.2,,,,,,,,,,OVC,2500,,,,,,,MVFR,,,,,,,,,,,,SPECI,26.0
CYGL 220600Z 30007KT 15SM FEW015 M30/M33 A3001 RMK SC2 SLP190,CYGL,2015-02-22T06:00:00Z,53.62,-77.7,-30.0,-33.0,300,7,,15.0,30.008858,1019.0,,,,,,,,,,FEW,1500,,,,,,,VFR,,,,,,,,,,,,SPECI,195.0
CYFC 220600Z AUTO 18009KT 1 1/4SM -SN OVC005 00/00 A3011 RMK ICG SLP197,CYFC,2015-02-22T06:00:00Z,45.87,-66.52,0.0,0.0,180,9,,1.25,30.109253,1019.7,,TRUE,,,,,,,-SN,OVC,500,,,,,,,IFR,,,,,,,,,,,,SPECI,20.0
CYFB 220600Z 31008KT 15SM IC SKC M35/M40 A3007 RMK SLP189,CYFB,2015-02-22T06:00:00Z,63.75,-68.55,-35.0,-40.0,310,8,,15.0,30.070866,1018.9,,,,,,,,,IC,SKC,,,,,,,,VFR,,,,,,,,,,,,SPECI,34.0
CYEG 220600Z 18009KT 15SM SCT190 M18/M22 A3049 RMK AS3 SLP392,CYEG,2015-02-22T06:00:00Z,53.28,-113.57,-18.0,-22.0,180,9,,15.0,30.490158,1039.2,,,,,,,,,,SCT,19000,,,,,,,VFR,,,,,,,,,,,,SPECI,723.0
CYBG 220600Z 00000KT 4SM -SN BKN030 BKN070 M13/M15 A3006 RMK SC5AC2 SLP194,CYBG,2015-02-22T06:00:00Z,48.33,-70.98,-13.0,-15.0,0,0,,4.0,30.059055,1019.4,,,,,,,,,-SN,BKN,3000,BKN,7000,,,,,MVFR,,,,,,,,,,,,SPECI,159.0
CYZY 220600Z AUTO 19004KT 9SM OVC190 M02/M06 A3044 RMK SLP346,CYZY,2015-02-22T06:00:00Z,55.28,-123.12,-2.0,-6.0,190,4,,9.0,30.43996,1034.6,,TRUE,,,,,,,,OVC,19000,,,,,,,VFR,,,,,,,,,,,,SPECI,690.0
CYYF 220600Z 05002KT 15SM SKC M01/M08 A3051 RMK SLP346,CYYF,2015-02-22T06:00:00Z,49.47,-119.58,-1.0,-8.0,50,2,,15.0,30.510826,1034.6,,,,,,,,,,SKC,,,,,,,,VFR,,,,,,,,,,,,METAR,344.0
CYYD 220600Z AUTO 18002KT 9SM CLR M04/M05 A3050 RMK SLP357,CYYD,2015-02-22T06:00:00Z,54.82,-127.18,-4.0,-5.0,180,2,,9.0,30.499016,1035.7,,TRUE,,,,,,,,CLR,,,,,,,,VFR,,,,,,,,,,,,METAR,523.0
GOGK 220600Z 02004KT 8000 NSC 20/05 Q1012,GOGK,2015-02-22T06:00:00Z,12.9,-14.97,20.0,5.0,20,4,,4.97,29.88189,,,,,,,,,,,,,,,,,,,,,,,,,,,,,,,METAR,10.0
GOOD 220600Z 00000KT 8000 NSC 15/08 Q1014,GOOD,2015-02-22T06:00:00Z,14.65,-16.22,15.0,8.0,0,0,,4.97,29.940945,,,,,,,,,,,,,,,,,,,,,,,,,,,,,,,METAR,9.0
GOSM 220600Z 04004KT CAVOK 17/06 Q1015,GOSM,2015-02-22T06:00:00Z,15.6,-13.33,17.0,6.0,40,4,,6.21,29.970472,,,,,,,,,,,CAVOK,,,,,,,,VFR,,,,,,,,,,,,METAR,17.0
GOOG 220600Z 04004KT 7000 NSC 16/04 Q////,GOOG,2015-02-22T06:00:00Z,15.4,-15.08,16.0,4.0,40,4,,4.35,,,,,,,,,,,,,,,,,,,,,,,,,,,,,,,,METAR,21.0
GOSP 220600Z 02002KT CAVOK 15/04 Q1015,GOSP,2015-02-22T06:00:00Z,16.68,-14.97,15.0,4.0,20,2,,6.21,29.970472,,,,,,,,,,,CAVOK,,,,,,,,VFR,,,,,,,,,,,,METAR,7.0
DAAP 220600Z 24010KT 6000 NSC 10/06 Q1011,DAAP,2015-02-22T06:00:00Z,26.72,8.62,10.0,6.0,240,10,,3.73,29.852362,,,,,,,,,,,,,,,,,,,,,,,,,,,,,,,METAR,558.0
GOTT 220600Z 02010KT CAVOK 20/10 Q1012,GOTT,2015-02-22T06:00:00Z,13.73,-13.65,20.0,10.0,20,10,,6.21,29.88189,,,,,,,,,,,CAVOK,,,,,,,,VFR,,,,,,,,,,,,METAR,50.0
GOOK 220600Z 36006KT 8000 NSC 18/12 Q1014,GOOK,2015-02-22T06:00:00Z,14.15,-16.07,18.0,12.0,360,6,,4.97,29.940945,,,,,,,,,,,,,,,,,,,,,,,,,,,,,,,METAR,7.0
CXSR 220600Z AUTO 19007KT M07/M07 RMK AO1 SOG 54 7025 SLP286 T10681071,CXSR,2015-02-22T06:00:00Z,55.7,-119.23,-6.8,-7.1,190,7,,,,1028.6,,TRUE,TRUE,,,,,,,,,,,,,,,,,,,,,,,,,,,METAR,1015.0
CXET 220600Z AUTO 20003KT M14/M16 RMK AO1 SOG 15 1010 SLP195 T11351161,CXET,2015-02-22T06:00:00Z,44.23,-79.78,-13.5,-16.1,200,3,,,,1019.5,,TRUE,TRUE,,,,,,,,,,,,,,,,,,,,,,,,,,,METAR,251.0
CXDI 220600Z AUTO 26001KT M13/M14 RMK AO1 2011 SLP199 T11261135 50002,CXDI,2015-02-22T06:00:00Z,42.87,-80.55,-12.6,-13.5,260,1,,,,1019.9,,TRUE,TRUE,,,,,,,,,,,,,,,,0.2,,,,,,,,,,,METAR,232.0
CWDT 220600Z AUTO 00000KT M17/M19 RMK AO1 SLP196 T11701188 55004,CWDT,2015-02-22T06:00:00Z,49.88,-71.25,-17.0,-18.8,0,0,,,,1019.6,,TRUE,TRUE,,,,,,,,,,,,,,,,-0.4,,,,,,,,,,,METAR,399.0
CWIK 220600Z AUTO 30004KT M30/M34 RMK AO1 SOG 15 1019 SLP421 T13001337,CWIK,2015-02-22T06:00:00Z,50.37,-102.58,-30.0,-33.7,300,4,,,,1042.1,,TRUE,TRUE,,,,,,,,,,,,,,,,,,,,,,,,,,,METAR,602.0
CXYH 220600Z AUTO 10003KT M05/M08 RMK AO1 SOG 60 2011 SLP203 T10531079,CXYH,2015-02-22T06:00:00Z,61.25,-123.75,-5.3,-7.9,100,3,,,,1020.3,,TRUE,TRUE,,,,,,,,,,,,,,,,,,,,,,,,,,,METAR,204.0
CXTO 220600Z AUTO M10/M12 RMK AO1 SLP200 T10971121 53010,CXTO,2015-02-22T06:00:00Z,43.67,-79.4,-9.7,-12.1,,,,,,1020.0,,TRUE,TRUE,,,,,,,,,,,,,,,,1.0,,,,,,,,,,,METAR,113.0
CXRB 220600Z AUTO 35003KT M26/M29 RMK AO1 2PAST HR SOG 00 6015 SLP083 P0001 T12591286 50002,CXRB,2015-02-22T06:00:00Z,74.72,-94.98,-25.9,-28.6,350,3,,,,1008.3,,TRUE,TRUE,,,,,,,,,,,,,,,,0.2,,,,,0.01,,,,,,METAR,68.0
CTNK 220600Z AUTO 00000KT M17/M19 RMK AO1 SOG 54 3012 SLP186 T11741192 50002,CTNK,2015-02-22T06:00:00Z,45.53,-78.27,-17.4,-19.2,0,0,,,,1018.6,,TRUE,TRUE,,,,,,,,,,,,,,,,0.2,,,,,,,,,,,METAR,410.0
CWMM 220600Z AUTO 28001KT 03/01 RMK AO1 SLP322 T00340011 51020,CWMM,2015-02-22T06:00:00Z,49.22,-122.68,3.4,1.1,280,1,,,,1032.2,,TRUE,TRUE,,,,,,,,,,,,,,,,2.0,,,,,,,,,,,METAR,5.0
CWXC 220600Z AUTO 00000KT M17/M18 RMK AO1 SLP178 T11711175 56003,CWXC,2015-02-22T06:00:00Z,48.88,-71.03,-17.1,-17.5,0,0,,,,1017.8,,TRUE,TRUE,,,,,,,,,,,,,,,,-0.3,,,,,,,,,,,METAR,300.0
CWWK 220600Z AUTO 03003KT 08/M02 RMK AO1 SOG 00 2016 SLP320 T00791018,CWWK,2015-02-22T06:00:00Z,49.02,-122.78,7.9,-1.8,30,3,,,,1032.0,,TRUE,TRUE,,,,,,,,,,,,,,,,,,,,,,,,,,,METAR,15.0
CWEK 220600Z AUTO 07021KT 07/ RMK AO1 PK WND 07025/0543 SLP323 T0067 50004,CWEK,2015-02-22T06:00:00Z,54.58,-130.7,6.7,,70,21,,,,1032.3,,TRUE,TRUE,,,,,,,,,,,,,,,,0.4,,,,,,,,,,,METAR,8.0
CWIJ 220600Z AUTO 00000KT M22/M25 RMK AO1 SOG 74 8029 T12191246,CWIJ,2015-02-22T06:00:00Z,65.77,-111.23,-21.9,-24.6,0,0,,,,,,TRUE,TRUE,,,,,,,,,,,,,,,,,,,,,,,,,,,METAR,500.0
CWID 220600Z AUTO 09002KT M18/M20 RMK AO1 SLP249 T11801200 56021,CWID,2015-02-22T06:00:00Z,61.32,-117.6,-18.0,-20.0,90,2,,,,1024.9,,TRUE,TRUE,,,,,,,,,,,,,,,,-2.1,,,,,,,,,,,METAR,161.0
CYHY 220600Z 20012KT 15SM FEW230 M09/M11 A3025 RMK CI1 SLP262,CYHY,2015-02-22T06:00:00Z,60.82,-115.77,-9.0,-11.0,200,12,,15.0,30.250984,1026.2,,,,,,,,,,FEW,23000,,,,,,,VFR,,,,,,,,,,,,METAR,166.0
FSPP 220600Z 34006KT //// //// 28/22 Q1013,FSPP,2015-02-22T06:00:00Z,-4.32,55.7,28.0,22.0,340,6,,,29.911417,,,,,,,,,,,,,,,,,,,,,,,,,,,,,,,METAR,4.0
HUEN 220600Z 32006KT 9000 FEW019 FEW21CB SCT150 23/20 Q1017,HUEN,2015-02-22T06:00:00Z,0.03,32.45,23.0,20.0,320,6,,5.59,30.029528,,,,,,,,,,,FEW,1900,SCT,15000,,,,,VFR,,,,,,,,,,,,METAR,1155.0
FTTY 220600Z 04010KT CAVOK 19/M05 Q1014,FTTY,2015-02-22T06:00:00Z,18.0,19.17,19.0,-5.0,40,10,,6.21,29.940945,,,,,,,,,,,CAVOK,,,,,,,,VFR,,,,,,,,,,,,METAR,234.0
VTPO 220600Z 25004KT 8000 FEW022 31/20 Q1011,VTPO,2015-02-22T06:00:00Z,17.23,99.82,31.0,20.0,250,4,,4.97,29.852362,,,,,,,,,,,FEW,2200,,,,,,,MVFR,,,,,,,,,,,,METAR,54.0
VOCB 220600Z 07009KT 6000 NSC 28/10 Q1017 NOSIG,VOCB,2015-02-22T06:00:00Z,11.02,77.03,28.0,10.0,70,9,,3.73,30.029528,,,,,,TRUE,,,,,,,,,,,,,,,,,,,,,,,,,METAR,399.0
MDPP 220600Z 00000KT 9999 SCT016 21/21 Q1019,MDPP,2015-02-22T06:00:00Z,19.75,-70.57,21.0,21.0,0,0,,6.21,30.088583,,,,,,,,,,,SCT,1600,,,,,,,VFR,,,,,,,,,,,,METAR,5.0
DTTB 220600Z 24007KT 8000 SCT016TCU BKN030 10/10 Q0995,DTTB,2015-02-22T06:00:00Z,37.25,9.8,10.0,10.0,240,7,,4.97,29.379921,,,,,,,,,,,SCT,1600,BKN,3000,,,,,MVFR,,,,,,,,,,,,METAR,3.0
DTTK 220600Z 00000KT 6000 RA BKN023 SCT030 11/10 Q0996,DTTK,2015-02-22T06:00:00Z,35.67,10.08,11.0,10.0,0,0,,3.73,29.409449,,,,,,,,,,RA,BKN,2300,SCT,3000,,,,,MVFR,,,,,,,,,,,,METAR,68.0
DTTD 220600Z 25012KT 8000 BKN020 09/07 Q1001,DTTD,2015-02-22T06:00:00Z,32.32,10.4,9.0,7.0,250,12,,4.97,29.557087,,,,,,,,,,,BKN,2000,,,,,,,MVFR,,,,,,,,,,,,METAR,301.0
SCCI 220600Z 32006KT 9999 FEW040 BKN140 08/03 Q1008 NOSIG,SCCI,2015-02-22T06:00:00Z,-53.0,-70.83,8.0,3.0,320,6,,6.21,29.763779,,,,,,TRUE,,,,,FEW,4000,BKN,14000,,,,,VFR,,,,,,,,,,,,METAR,37.0
SCVD 220600Z AUTO 00000KT 0800 R35/0650VP2000 BCFG NCD 08/08 Q1017,SCVD,2015-02-22T06:00:00Z,-39.65,-73.07,8.0,8.0,0,0,,0.5,30.029528,,,TRUE,,,,,,,BCFG,,,,,,,,,,,,,,,,,,,,,METAR,14.0
SCTE 220600Z 21004KT CAVOK 11/10 Q1019 NOSIG,SCTE,2015-02-22T06:00:00Z,-41.42,-73.07,11.0,10.0,210,4,,6.21,30.088583,,,,,,TRUE,,,,,CAVOK,,,,,,,,VFR,,,,,,,,,,,,METAR,86.0
SCFA 220600Z 20007KT CAVOK 19/16 Q1014 NOSIG,SCFA,2015-02-22T06:00:00Z,-23.42,-70.42,19.0,16.0,200,7,,6.21,29.940945,,,,,,TRUE,,,,,CAVOK,,,,,,,,VFR,,,,,,,,,,,,METAR,120.0
ORMM 220600Z 25019KT 5000 RA FEW035 SCT040 BKN100 08/07 Q1016 NOSIG,ORMM,2015-02-22T06:00:00Z,30.57,47.67,8.0,7.0,250,19,,3.11,30.0,,,,,,TRUE,,,,RA,FEW,3500,SCT,4000,BKN,10000,,,MVFR,,,,,,,,,,,,METAR,2.0
SYCJ 220600Z 00000KT 9999 BKN015 23/22 Q1012 NOSIG,SYCJ,2015-02-22T06:00:00Z,6.5,-58.25,23.0,22.0,0,0,,6.21,29.88189,,,,,,TRUE,,,,,BKN,1500,,,,,,,MVFR,,,,,,,,,,,,METAR,30.0
NVVA 220600Z 15006KT 9999 SCT025 29/25 Q1008,NVVA,2015-02-22T06:00:00Z,-20.25,169.77,29.0,25.0,150,6,,6.21,29.763779,,,,,,,,,,,SCT,2500,,,,,,,VFR,,,,,,,,,,,,METAR,3.0
NVVW 220600Z 02010KT 9999 SCT020 29/24 Q1007,NVVW,2015-02-22T06:00:00Z,-19.45,169.22,29.0,24.0,20,10,,6.21,29.734253,,,,,,,,,,,SCT,2000,,,,,,,VFR,,,,,,,,,,,,METAR,6.0
NVVV 220600Z 00000KT 9999 FEW006 BKN018 FEW025CB BKN110 27/26 Q1007,NVVV,2015-02-22T06:00:00Z,-17.68,168.3,27.0,26.0,0,0,,6.21,29.734253,,,,,,,,,,,FEW,600,BKN,1800,FEW,2500,BKN,11000,MVFR,,,,,,,,,,,,METAR,21.0
NVSL 220600Z 00000KT 9999 RETS SCT025 FEW028CB 29/26 Q1007,NVSL,2015-02-22T06:00:00Z,-16.45,167.83,29.0,26.0,0,0,,6.21,29.734253,,,,,,,,,,,SCT,2500,FEW,2800,,,,,VFR,,,,,,,,,,,,METAR,26.0
NVSS 220600Z 17005KT 9999 SCT020 FEW025CB BKN300 29/25 Q1006,NVSS,2015-02-22T06:00:00Z,-15.52,167.22,29.0,25.0,170,5,,6.21,29.704725,,,,,,,,,,,SCT,2000,FEW,2500,BKN,30000,,,VFR,,,,,,,,,,,,METAR,44.0
NVSG 220600Z 00000KT 9999 SCT025 BKN300 29/26 Q1006,NVSG,2015-02-22T06:00:00Z,-15.3,167.97,29.0,26.0,0,0,,6.21,29.704725,,,,,,,,,,,SCT,2500,BKN,30000,,,,,VFR,,,,,,,,,,,,METAR,51.0
NVSC 220600Z 00000KT 9999 SCT020 FEW025CB 30/27 Q1006,NVSC,2015-02-22T06:00:00Z,-13.83,167.55,30.0,27.0,0,0,,6.21,29.704725,,,,,,,,,,,SCT,2000,FEW,2500,,,,,VFR,,,,,,,,,,,,METAR,18.0
CWQK 220600Z AUTO 07003KT 10/01 RMK AO1 SLP312 T00970009 53014,CWQK,2015-02-22T06:00:00Z,48.3,-123.53,9.7,0.9,70,3,,,,1031.2,,TRUE,TRUE,,,,,,,,,,,,,,,,1.4,,,,,,,,,,,METAR,5.0
ORNI 220600Z 32017KT 8000 NSC 08/06 Q1019 NOSIG,ORNI,2015-02-22T06:00:00Z,31.98,44.4,8.0,6.0,320,17,,4.97,30.088583,,,,,,TRUE,,,,,,,,,,,,,,,,,,,,,,,,,METAR,53.0
ORER 220600Z 22004KT 9000 NSC 05/01 Q1020 NOSIG,ORER,2015-02-22T06:00:00Z,36.23,43.97,5.0,1.0,220,4,,5.59,30.11811,,,,,,TRUE,,,,,,,,,,,,,,,,,,,,,,,,,METAR,409.0
OERK 220600Z 32015KT 3000 BLDU NSC 11/00 Q1021 NOSIG,OERK,2015-02-22T06:00:00Z,24.95,46.72,11.0,0.0,320,15,,1.86,30.147638,,,,,,TRUE,,,,BLDU,,,,,,,,,,,,,,,,,,,,,METAR,612.0
VTUU 220600Z VRB04KT 9999 SCT026 SCT300 31/22 Q1011 A2988,VTUU,2015-02-22T06:00:00Z,15.25,104.87,31.0,22.0,0,4,,6.21,29.852362,,,,,,,,,,,SCT,2600,SCT,30000,,,,,VFR,,,,,,,,,,,,METAR,127.0
VTUO 220600Z VRB03KT 8000 FEW018TCU SCT020 BKN300 31/23 Q1012 A2989 INFO G RWY 22,VTUO,2015-02-22T06:00:00Z,15.23,103.25,31.0,23.0,0,3,,4.97,29.88189,,,,,,,,,,,FEW,1800,SCT,2000,BKN,30000,,,MVFR,,,,,,,,,,,,METAR,183.0
VTUL 220600Z VRB03KT 6000 SCT032 30/21 Q1013 A2991 RERA,VTUL,2015-02-22T06:00:00Z,17.43,101.72,30.0,21.0,0,3,,3.73,29.911417,,,,,,,,,,,SCT,3200,,,,,,,MVFR,,,,,,,,,,,,METAR,254.0
VTUK 220600Z 17007KT 130V270 9999 FEW020CB SCT030 32/21 Q1012 A2990 CB W-NW RWY03,VTUK,2015-02-22T06:00:00Z,16.47,102.78,32.0,21.0,170,7,,6.21,29.88189,,,,,,,,,,,FEW,2000,SCT,3000,,,,,VFR,,,,,,,,,,,,METAR,204.0
VTUI 220600Z 11004KT 9999 FEW025 31/21 Q1012 A2991 INFO F RWY05,VTUI,2015-02-22T06:00:00Z,17.2,104.12,31.0,21.0,110,4,,6.21,29.88189,,,,,,,,,,,FEW,2500,,,,,,,VFR,,,,,,,,,,,,METAR,172.0
VTBO 220600Z 18010KT 9999 SCT021 31/23 Q1013,VTBO,2015-02-22T06:00:00Z,12.28,102.32,31.0,23.0,180,10,,6.21,29.911417,,,,,,,,,,,SCT,2100,,,,,,,VFR,,,,,,,,,,,,METAR,32.0
WABP 220600Z 28004KT 8000 FEW015CB SCT016 31/25 Q1010,WABP,2015-02-22T06:00:00Z,-4.52,136.88,31.0,25.0,280,4,,4.97,29.822834,,,,,,,,,,,FEW,1500,SCT,1600,,,,,MVFR,,,,,,,,,,,,METAR,31.0
FVKB 220600Z 00000KT 9999 FEW030 BKN300 26/21 Q1012,FVKB,2015-02-22T06:00:00Z,-16.52,28.87,26.0,21.0,0,0,,6.21,29.88189,,,,,,,,,,,FEW,3000,BKN,30000,,,,,VFR,,,,,,,,,,,,METAR,518.0
HKNC 220600Z 09006KT 9999 SCT017 SCT080 18/16 Q1023,HKNC,2015-02-22T06:00:00Z,-1.3,36.75,18.0,16.0,90,6,,6.21,30.206694,,,,,,,,,,,SCT,1700,SCT,8000,,,,,VFR,,,,,,,,,,,,METAR,1798.0
HKMU 220600Z 00000KT 9999 BKN022 24/19,HKMU,2015-02-22T06:00:00Z,-2.27,37.82,24.0,19.0,0,0,,6.21,,,,,,,,,,,,BKN,2200,,,,,,,MVFR,,,,,,,,,,,,METAR,1000.0
HKKI 220600Z 00000KT CAVOK 24/17 Q1017,HKKI,2015-02-22T06:00:00Z,-0.1,34.75,24.0,17.0,0,0,,6.21,30.029528,,,,,,,,,,,CAVOK,,,,,,,,VFR,,,,,,,,,,,,METAR,1146.0
DAEN 220600Z 25010KT 8000 SCT040 10/07 Q1007,DAEN,2015-02-22T06:00:00Z,29.73,6.72,10.0,7.0,250,10,,4.97,29.734253,,,,,,,,,,,SCT,4000,,,,,,,MVFR,,,,,,,,,,,,METAR,252.0
HKRE 220600Z 09010KT 9999 BKN022 19/15 Q1022,HKRE,2015-02-22T06:00:00Z,-1.28,36.87,19.0,15.0,90,10,,6.21,30.177166,,,,,,,,,,,BKN,2200,,,,,,,MVFR,,,,,,,,,,,,METAR,1627.0
LETO 220600Z 02003KT 340V100 CAVOK 03/M02 Q1014 NOSIG,LETO,2015-02-22T06:00:00Z,40.47,-3.47,3.0,-2.0,20,3,,6.21,29.940945,,,,,,TRUE,,,,,CAVOK,,,,,,,,VFR,,,,,,,,,,,,METAR,608.0
LELN 220600Z 25008KT CAVOK M01/M02 Q1015,LELN,2015-02-22T06:00:00Z,42.57,-5.65,-1.0,-2.0,250,8,,6.21,29.970472,,,,,,,,,,,CAVOK,,,,,,,,VFR,,,,,,,,,,,,METAR,914.0
LELC 220600Z 30011KT 9999 FEW030 10/M01 Q1012 NOSIG,LELC,2015-02-22T06:00:00Z,37.77,-0.8,10.0,-1.0,300,11,,6.21,29.88189,,,,,,TRUE,,,,,FEW,3000,,,,,,,VFR,,,,,,,,,,,,METAR,3.0
LEBZ 220600Z 25006KT CAVOK 06/04 Q1017,LEBZ,2015-02-22T06:00:00Z,38.87,-6.82,6.0,4.0,250,6,,6.21,30.029528,,,,,,,,,,,CAVOK,,,,,,,,VFR,,,,,,,,,,,,METAR,192.0
LEAB 220600Z 30012KT CAVOK 03/M02 Q1012 NOSIG,LEAB,2015-02-22T06:00:00Z,38.95,-1.85,3.0,-2.0,300,12,,6.21,29.88189,,,,,,TRUE,,,,,CAVOK,,,,,,,,VFR,,,,,,,,,,,,METAR,704.0
GANR 220600Z 00000KT CAVOK 14/M03 Q////,GANR,2015-02-22T06:00:00Z,15.23,-9.58,14.0,-3.0,0,0,,6.21,,,,,,,,,,,,CAVOK,,,,,,,,VFR,,,,,,,,,,,,METAR,237.0
CWWL 220600Z AUTO 08003KT 08/M00 RMK AO1 SLP317 T00751001 50004,CWWL,2015-02-22T06:00:00Z,53.5,-130.63,7.5,-0.1,80,3,,,,1031.7,,TRUE,TRUE,,,,,,,,,,,,,,,,0.4,,,,,,,,,,,METAR,17.0
HKML 220600Z 06010KT 9999 BKN021TCU 30/23 Q1012,HKML,2015-02-22T06:00:00Z,-3.22,40.1,30.0,23.0,60,10,,6.21,29.88189,,,,,,,,,,,BKN,2100,,,,,,,MVFR,,,,,,,,,,,,METAR,23.0
SBBH 220600Z 08001KT CAVOK 18/16 Q1019,SBBH,2015-02-22T06:00:00Z,-19.85,-43.95,18.0,16.0,80,1,,6.21,30.088583,,,,,,,,,,,CAVOK,,,,,,,,VFR,,,,,,,,,,,,METAR,785.0
CWNM 220600Z AUTO 08003KT M01/M07 RMK AO1 SLP340 T10121066 51017,CWNM,2015-02-22T06:00:00Z,49.5,-117.28,-1.2,-6.6,80,3,,,,1034.0,,TRUE,TRUE,,,,,,,,,,,,,,,,1.7,,,,,,,,,,,METAR,535.0
CWNK 220600Z AUTO 32007KT M28/M33 RMK AO1 T12811328,CWNK,2015-02-22T06:00:00Z,49.5,-98.03,-28.1,-32.8,320,7,,,,,,TRUE,TRUE,,,,,,,,,,,,,,,,,,,,,,,,,,,METAR,268.0
CWNE 220600Z AUTO 17012G17KT M04/M05 RMK AO1 PK WND 17018/0509 SLP235 T10351049 56032,CWNE,2015-02-22T06:00:00Z,47.07,-64.0,-3.5,-4.9,170,12,17,,,1023.5,,TRUE,TRUE,,,,,,,,,,,,,,,,-3.2,,,,,,,,,,,METAR,15.0
CMFM 220600Z AUTO 00000KT M15/M16 RMK AO1 SOG 72 8008 SLP170 T11471157 50002,CMFM,2015-02-22T06:00:00Z,47.32,-71.15,-14.7,-15.7,0,0,,,,1017.0,,TRUE,TRUE,,,,,,,,,,,,,,,,0.2,,,,,,,,,,,METAR,672.0
CZEL 220600Z AUTO 33003KT M17/M19 RMK AO1 2010 SLP202 T11681186 50017,CZEL,2015-02-22T06:00:00Z,43.65,-80.42,-16.8,-18.6,330,3,,,,1020.2,,TRUE,TRUE,,,,,,,,,,,,,,,,1.7,,,,,,,,,,,METAR,376.0
CXBI 220600Z AUTO 30002KT M15/M17 RMK AO1 1009 SLP200 T11501166 50004,CXBI,2015-02-22T06:00:00Z,44.48,-79.55,-15.0,-16.6,300,2,,,,1020.0,,TRUE,TRUE,,,,,,,,,,,,,,,,0.4,,,,,,,,,,,METAR,289.0
CTRA 220600Z AUTO 01004KT M28/M32 RMK AO1 SLP347 T12791315 51027,CTRA,2015-02-22T06:00:00Z,49.67,-93.73,-27.9,-31.5,10,4,,,,1034.7,,TRUE,TRUE,,,,,,,,,,,,,,,,2.7,,,,,,,,,,,METAR,435.0
CWMQ 220600Z AUTO 20003KT M20/M23 RMK AO1 SOG 01 0004 SLP428 T12031230 50002,CWMQ,2015-02-22T06:00:00Z,49.9,-109.47,-20.3,-23.0,200,3,,,,1042.8,,TRUE,TRUE,,,,,,,,,,,,,,,,0.2,,,,,,,,,,,METAR,767.0
CWMJ 220600Z AUTO 00000KT M13/M15 RMK AO1 SOG 36 1005 SLP187 T11341146,CWMJ,2015-02-22T06:00:00Z,46.27,-76.0,-13.4,-14.6,0,0,,,,1018.7,,TRUE,TRUE,,,,,,,,,,,,,,,,,,,,,,,,,,,METAR,200.0
CWLM 220600Z AUTO 02012KT 08/01 RMK AO1 SLP311 T00790005 53014,CWLM,2015-02-22T06:00:00Z,48.42,-123.32,7.9,0.5,20,12,,,,1031.1,,TRUE,TRUE,,,,,,,,,,,,,,,,1.4,,,,,,,,,,,METAR,70.0
CWLE 220600Z AUTO 26007KT M30/M33 RMK AO1 2PAST HR SOG 22 0007 SLP442 P0001 T13001329 50002,CWLE,2015-02-22T06:00:00Z,50.95,-107.15,-30.0,-32.9,260,7,,,,1044.2,,TRUE,TRUE,,,,,,,,,,,,,,,,0.2,,,,,0.01,,,,,,METAR,665.0
CWLC 220600Z AUTO 12003KT 07/05 RMK AO1 T00690047,CWLC,2015-02-22T06:00:00Z,54.3,-130.62,6.9,4.7,120,3,,,,,,TRUE,TRUE,,,,,,,,,,,,,,,,,,,,,,,,,,,METAR,27.0
CWKX 220600Z AUTO 25002KT M03/M06 RMK AO1 SOG 49 0001 SLP353 T10331063,CWKX,2015-02-22T06:00:00Z,58.43,-130.02,-3.3,-6.3,250,2,,,,1035.3,,TRUE,TRUE,,,,,,,,,,,,,,,,,,,,,,,,,,,METAR,793.0
CWKH 220600Z AUTO 07/M04 RMK AO1 SLP301 T00661039 52011,CWKH,2015-02-22T06:00:00Z,48.57,-123.55,6.6,-3.9,,,,,,1030.1,,TRUE,TRUE,,,,,,,,,,,,,,,,1.1,,,,,,,,,,,METAR,366.0
CWKG 220600Z AUTO 14008G16KT M01/M01 RMK AO1 2PAST HR 6037 PK WND 14017/0546 SLP255 P0001 T10101013 50017,CWKG,2015-02-22T06:00:00Z,44.43,-65.2,-1.0,-1.3,140,8,16,,,1025.5,,TRUE,TRUE,,,,,,,,,,,,,,,,1.7,,,,,0.01,,,,,,METAR,165.0
CWJX 220600Z AUTO 19004KT M22/M26 RMK AO1 SOG 01 0004 SLP431 T12231256,CWJX,2015-02-22T06:00:00Z,50.88,-109.5,-22.3,-25.6,190,4,,,,1043.1,,TRUE,TRUE,,,,,,,,,,,,,,,,,,,,,,,,,,,METAR,672.0
CWJW 220600Z AUTO 17003KT M07/M12 RMK AO1 SOG 20 0002 SLP361 T10711123,CWJW,2015-02-22T06:00:00Z,52.93,-118.03,-7.1,-12.3,170,3,,,,1036.1,,TRUE,TRUE,,,,,,,,,,,,,,,,,,,,,,,,,,,METAR,1020.0
CWJV 220600Z AUTO 11006KT M01/M07 RMK AO1 SLP344 T10061072 51011,CWJV,2015-02-22T06:00:00Z,50.22,-119.18,-0.6,-7.2,110,6,,,,1034.4,,TRUE,TRUE,,,,,,,,,,,,,,,,1.1,,,,,,,,,,,METAR,556.0
CWJT 220600Z AUTO 03001KT M12/M14 RMK AO1 1002 SLP196 T11151141 50010,CWJT,2015-02-22T06:00:00Z,46.07,-74.57,-11.5,-14.1,30,1,,,,1019.6,,TRUE,TRUE,,,,,,,,,,,,,,,,1.0,,,,,,,,,,,METAR,239.0
CWJR 220600Z AUTO 23001KT 00/M10 RMK AO1 SOG 01 1019 SLP352 T00001095,CWJR,2015-02-22T06:00:00Z,49.07,-116.5,0.0,-9.5,230,1,,,,1035.2,,TRUE,TRUE,,,,,,,,,,,,,,,,,,,,,,,,,,,METAR,646.0
CWJO 220600Z AUTO 12001KT M13/M14 RMK AO1 7003 SLP200 T11251141 50010,CWJO,2015-02-22T06:00:00Z,48.43,-71.15,-12.5,-14.1,120,1,,,,1020.0,,TRUE,TRUE,,,,,,,,,,,,,,,,1.0,,,,,,,,,,,METAR,133.0
CWJI 220600Z AUTO 30007KT M27/M29 RMK AO1 SOG 08 1013 SLP432 T12651291 50002,CWJI,2015-02-22T06:00:00Z,49.72,-105.92,-26.5,-29.1,300,7,,,,1043.2,,TRUE,TRUE,,,,,,,,,,,,,,,,0.2,,,,,,,,,,,METAR,724.0
CWSF 220600Z AUTO 12007KT M12/M13 RMK AO1 SLP232 T11161129 56019,CWSF,2015-02-22T06:00:00Z,49.25,-65.32,-11.6,-12.9,120,7,,,,1023.2,,TRUE,TRUE,,,,,,,,,,,,,,,,-1.9,,,,,,,,,,,METAR,29.0
CWNH 220600Z AUTO 15002KT M10/M12 RMK AO1 5PAST HR SOG 33 7013 SLP193 P0002 T11031117 50016,CWNH,2015-02-22T06:00:00Z,47.78,-69.53,-10.3,-11.7,150,2,,,,1019.3,,TRUE,TRUE,,,,,,,,,,,,,,,,1.6,,,,,0.02,,,,,,METAR,148.0
CWSS 220600Z AUTO 18007KT 01/M00 RMK AO1 5PAST HR SOG 62 6030 SLP199 P0002 T00061002 50038,CWSS,2015-02-22T06:00:00Z,45.2,-67.25,0.6,-0.2,180,7,,,,1019.9,,TRUE,TRUE,,,,,,,,,,,,,,,,3.8,,,,,0.02,,,,,,METAR,26.0
CWRN 220600Z AUTO 19012G17KT M01/ RMK AO1 PK WND 19017/0549 T1011,CWRN,2015-02-22T06:00:00Z,45.35,-60.98,-1.1,,190,12,17,,,,,TRUE,TRUE,,,,,,,,,,,,,,,,,,,,,,,,,,,METAR,8.0
CWHO 220600Z AUTO 23007KT M19/M22 RMK AO1 1021 SLP204 T11851224 50015,CWHO,2015-02-22T06:00:00Z,55.45,-60.22,-18.5,-22.4,230,7,,,,1020.4,,TRUE,TRUE,,,,,,,,,,,,,,,,1.5,,,,,,,,,,,METAR,8.0
CWBV 220600Z AUTO 22015KT M01/M01 RMK AO1 PK WND 23018/0528 SLP297 T10071012 58023,CWBV,2015-02-22T06:00:00Z,44.82,-62.32,-0.7,-1.2,220,15,,,,1029.7,,TRUE,TRUE,,,,,,,,,,,,,,,,-2.3,,,,,,,,,,,METAR,10.0
CWER 220600Z AUTO 28001KT RMK AO1,CWER,2015-02-22T06:00:00Z,47.0,-70.82,,,280,1,,,,,,TRUE,TRUE,,,,,,,,,,,,,,,,,,,,,,,,,,,METAR,5.0
CWEP 220600Z AUTO 19014G19KT M05/M05 RMK AO1 SOG 81 8018 PK WND 19020/0504 SLP292 T10491054,CWEP,2015-02-22T06:00:00Z,46.45,-61.97,-4.9,-5.4,190,14,19,,,1029.2,,TRUE,TRUE,,,,,,,,,,,,,,,,,,,,,,,,,,,METAR,11.0
CWPK 220600Z AUTO 20001KT M14/M16 RMK AO1 SOG 47 3004 SLP176 T11371163 50004,CWPK,2015-02-22T06:00:00Z,47.92,-74.62,-13.7,-16.3,200,1,,,,1017.6,,TRUE,TRUE,,,,,,,,,,,,,,,,0.4,,,,,,,,,,,METAR,442.0
CWDM 220600Z AUTO 28007KT M13/M16 RMK AO1 SOG 65 0010 SLP271 T11331160,CWDM,2015-02-22T06:00:00Z,50.47,-59.62,-13.3,-16.0,280,7,,,,1027.1,,TRUE,TRUE,,,,,,,,,,,,,,,,,,,,,,,,,,,METAR,6.0
CXKE 220600Z AUTO 13001KT M09/M11 RMK AO1 SOG 30 2004 SLP183 T10941111 50014,CXKE,2015-02-22T06:00:00Z,45.0,-75.63,-9.4,-11.1,130,1,,,,1018.3,,TRUE,TRUE,,,,,,,,,,,,,,,,1.4,,,,,,,,,,,METAR,99.0
CXKA 220600Z AUTO 35007KT M26/M30 RMK AO1 SOG 75 2016 SLP241 T12611298,CXKA,2015-02-22T06:00:00Z,49.4,-82.45,-26.1,-29.8,350,7,,,,1024.1,,TRUE,TRUE,,,,,,,,,,,,,,,,,,,,,,,,,,,METAR,218.0
CXHM 220600Z AUTO 26002KT M11/M12 RMK AO1 SLP201 T11061123 53008,CXHM,2015-02-22T06:00:00Z,43.28,-79.9,-10.6,-12.3,260,2,,,,1020.1,,TRUE,TRUE,,,,,,,,,,,,,,,,0.8,,,,,,,,,,,METAR,107.0
CWZS 220600Z AUTO 06001KT M12/M14 RMK AO1 SLP209 T11241138 56017,CWZS,2015-02-22T06:00:00Z,48.47,-67.43,-12.4,-13.8,60,1,,,,1020.9,,TRUE,TRUE,,,,,,,,,,,,,,,,-1.7,,,,,,,,,,,METAR,166.0
CWZO 220600Z AUTO 05002KT RMK AO1,CWZO,2015-02-22T06:00:00Z,48.55,-123.23,,,50,2,,,,,,TRUE,TRUE,,,,,,,,,,,,,,,,,,,,,,,,,,,METAR,1.0
CWZA 220600Z AUTO 01005KT 08/M04 RMK AO1 SLP330 T00821037 53020,CWZA,2015-02-22T06:00:00Z,49.25,-121.77,8.2,-3.7,10,5,,,,1033.0,,TRUE,TRUE,,,,,,,,,,,,,,,,2.0,,,,,,,,,,,METAR,15.0
CWYY 220600Z AUTO 31004KT 04/M06 RMK AO1 SLP334 T00441062 53015,CWYY,2015-02-22T06:00:00Z,49.03,-119.43,4.4,-6.2,310,4,,,,1033.4,,TRUE,TRUE,,,,,,,,,,,,,,,,1.5,,,,,,,,,,,METAR,283.0
CWYL 220600Z AUTO 08004KT M17/M20 RMK AO1 SOG 85 1001 SLP363 T11681198,CWYL,2015-02-22T06:00:00Z,51.45,-116.32,-16.8,-19.8,80,4,,,,1036.3,,TRUE,TRUE,,,,,,,,,,,,,,,,,,,,,,,,,,,METAR,1615.0
CWYJ 220600Z AUTO 34004KT 08/M00 RMK AO1 SLP312 T00821002 53016,CWYJ,2015-02-22T06:00:00Z,48.45,-123.3,8.2,-0.2,340,4,,,,1031.2,,TRUE,TRUE,,,,,,,,,,,,,,,,1.6,,,,,,,,,,,METAR,39.0
CWXL 220600Z AUTO 20002KT M17/M20 RMK AO1 T11651200,CWXL,2015-02-22T06:00:00Z,49.73,-111.45,-16.5,-20.0,200,2,,,,,,TRUE,TRUE,,,,,,,,,,,,,,,,,,,,,,,,,,,METAR,817.0
CXZU 220600Z AUTO M12/M15 RMK AO1 SLP351 T11231148 58018,CXZU,2015-02-22T06:00:00Z,54.15,-115.78,-12.3,-14.8,,,,,,1035.1,,TRUE,TRUE,,,,,,,,,,,,,,,,-1.8,,,,,,,,,,,METAR,785.0
CXWN 220600Z AUTO 33006KT M28/M33 RMK AO1 SLP390 T12781329 51022,CXWN,2015-02-22T06:00:00Z,49.88,-97.13,-27.8,-32.9,330,6,,,,1039.0,,TRUE,TRUE,,,,,,,,,,,,,,,,2.2,,,,,,,,,,,METAR,230.0
CXSH 220600Z AUTO 31001KT M12/M14 RMK AO1 SLP186 T11191141 55003,CXSH,2015-02-22T06:00:00Z,46.58,-72.73,-11.9,-14.1,310,1,,,,1018.6,,TRUE,TRUE,,,,,,,,,,,,,,,,-0.3,,,,,,,,,,,METAR,110.0
CXQT 220600Z AUTO 00000KT 18/06 RMK AO1 T01820056,CXQT,2015-02-22T06:00:00Z,48.43,-89.22,18.2,5.6,0,0,,,,,,TRUE,TRUE,,,,,,,,,,,,,,,,,,,,,,,,,,,METAR,183.0
CXOX 220600Z AUTO 23002KT M32/M36 RMK AO1 SOG 45 8005 SLP427 T13241363,CXOX,2015-02-22T06:00:00Z,55.15,-105.27,-32.4,-36.3,230,2,,,,1042.7,,TRUE,TRUE,,,,,,,,,,,,,,,,,,,,,,,,,,,METAR,379.0
CXNM 220600Z AUTO 25010G17KT M09/M10 RMK AO1 SOG 150 PK WND 25017/0600 T10861095,CXNM,2015-02-22T06:00:00Z,46.82,-60.67,-8.6,-9.5,250,10,17,,,,,TRUE,TRUE,,,,,,,,,,,,,,,,,,,,,,,,,,,METAR,439.0
CXMI 220600Z AUTO 18018KT M01/M01 RMK AO1 PK WND 18022/0543 SLP287 T10061007 56031,CXMI,2015-02-22T06:00:00Z,44.6,-63.53,-0.6,-0.7,180,18,,,,1028.7,,TRUE,TRUE,,,,,,,,,,,,,,,,-3.1,,,,,,,,,,,METAR,15.0
CXMD 220600Z AUTO 34006KT M28/M32 RMK AO1 SOG 10 1027 SLP402 T12781315,CXMD,2015-02-22T06:00:00Z,49.22,-98.08,-27.8,-31.5,340,6,,,,1040.2,,TRUE,TRUE,,,,,,,,,,,,,,,,,,,,,,,,,,,METAR,301.0
CXIB 220600Z AUTO 24008KT M06/M11 RMK AO1 SLP313 T10561107 57011,CXIB,2015-02-22T06:00:00Z,46.67,-60.38,-5.6,-10.7,240,8,,,,1031.3,,TRUE,TRUE,,,,,,,,,,,,,,,,-1.1,,,,,,,,,,,METAR,8.0
CXHF 220600Z AUTO M14/M15 RMK AO1 T11361149,CXHF,2015-02-22T06:00:00Z,45.83,-75.65,-13.6,-14.9,,,,,,,,TRUE,TRUE,,,,,,,,,,,,,,,,,,,,,,,,,,,METAR,190.0
CXGH 220600Z AUTO 36008KT M29/M33 RMK AO1 T12911330,CXGH,2015-02-22T06:00:00Z,50.63,-97.0,-29.1,-33.0,360,8,,,,,,TRUE,TRUE,,,,,,,,,,,,,,,,,,,,,,,,,,,METAR,217.0
CXEA 220600Z AUTO 32005KT M29/M33 RMK AO1 SOG 48 1025 SLP339 T12911333,CXEA,2015-02-22T06:00:00Z,50.63,-93.22,-29.1,-33.3,320,5,,,,1033.9,,TRUE,TRUE,,,,,,,,,,,,,,,,,,,,,,,,,,,METAR,355.0
CXDW 220600Z AUTO 32010KT M29/M33 RMK AO1 T12871327,CXDW,2015-02-22T06:00:00Z,49.4,-98.32,-28.7,-32.7,320,10,,,,,,TRUE,TRUE,,,,,,,,,,,,,,,,,,,,,,,,,,,METAR,341.0
CXCK 220600Z AUTO 19002KT M05/M07 RMK AO1 SOG 30 7013 SLP203 T10461073,CXCK,2015-02-22T06:00:00Z,62.12,-136.2,-4.6,-7.3,190,2,,,,1020.3,,TRUE,TRUE,,,,,,,,,,,,,,,,,,,,,,,,,,,METAR,540.0
CXCH 220600Z AUTO M07/M11 RMK AO1 SOG 41 T10721113,CXCH,2015-02-22T06:00:00Z,46.63,-60.95,-7.2,-11.3,,,,,,,,TRUE,TRUE,,,,,,,,,,,,,,,,,,,,,,,,,,,METAR,44.0
CXCA 220600Z AUTO 35007KT M25/M28 RMK AO1 SLP292 T12461276 52025,CXCA,2015-02-22T06:00:00Z,49.15,-88.35,-24.6,-27.6,350,7,,,,1029.2,,TRUE,TRUE,,,,,,,,,,,,,,,,2.5,,,,,,,,,,,METAR,228.0
CXBO 220600Z AUTO 02003KT RMK AO1 50031,CXBO,2015-02-22T06:00:00Z,46.83,-71.2,,,20,3,,,,,,TRUE,TRUE,,,,,,,,,,,,,,,,3.1,,,,,,,,,,,METAR,100.0
CXKT 220600Z AUTO 14007G16KT M02/M02 RMK AO1 2PAST HR SOG 78 6041 PK WND 19017/0532 SLP247 P0001 T10151022 50007,CXKT,2015-02-22T06:00:00Z,45.07,-64.48,-1.5,-2.2,140,7,16,,,1024.7,,TRUE,TRUE,,,,,,,,,,,,,,,,0.7,,,,,0.01,,,,,,METAR,49.0
CXBK 220600Z AUTO 27009KT M32/M35 RMK AO1 SOG 12 1016 SLP427 T13161351,CXBK,2015-02-22T06:00:00Z,50.2,-104.7,-31.6,-35.1,270,9,,,,1042.7,,TRUE,TRUE,,,,,,,,,,,,,,,,,,,,,,,,,,,METAR,580.0
CWXA 220600Z AUTO 10001KT M19/M21 RMK AO1 8006 SLP380 T11921214 50002,CWXA,2015-02-22T06:00:00Z,51.07,-115.07,-19.2,-21.4,100,1,,,,1038.0,,TRUE,TRUE,,,,,,,,,,,,,,,,0.2,,,,,,,,,,,METAR,1298.0
CWWF 220600Z AUTO 33008KT M30/M33 RMK AO1 SOG 17 1021 SLP435 T13031331,CWWF,2015-02-22T06:00:00Z,49.7,-103.8,-30.3,-33.1,330,8,,,,1043.5,,TRUE,TRUE,,,,,,,,,,,,,,,,,,,,,,,,,,,METAR,589.0
CWWA 220600Z AUTO 02002KT 05/M02 RMK AO1 SLP317 T00531021 51015,CWWA,2015-02-22T06:00:00Z,49.35,-123.17,5.3,-2.1,20,2,,,,1031.7,,TRUE,TRUE,,,,,,,,,,,,,,,,1.5,,,,,,,,,,,METAR,178.0
CWVQ 220600Z AUTO 35001KT M12/M13 RMK AO1 2PAST HR 0001 SLP193 P0001 T11171133 50014,CWVQ,2015-02-22T06:00:00Z,45.42,-73.92,-11.7,-13.3,350,1,,,,1019.3,,TRUE,TRUE,,,,,,,,,,,,,,,,1.4,,,,,0.01,,,,,,METAR,39.0
CWVN 220600Z AUTO 36007KT M20/M23 RMK AO1 1010 SLP416 T12001228 50002,CWVN,2015-02-22T06:00:00Z,49.07,-107.57,-20.0,-22.8,360,7,,,,1041.6,,TRUE,TRUE,,,,,,,,,,,,,,,,0.2,,,,,,,,,,,METAR,785.0
CWVI 220600Z AUTO 17005KT M26/M29 RMK AO1 SLP422 T12551291 56008,CWVI,2015-02-22T06:00:00Z,53.52,-112.1,-25.5,-29.1,170,5,,,,1042.2,,TRUE,TRUE,,,,,,,,,,,,,,,,-0.8,,,,,,,,,,,METAR,639.0
CWVF 220600Z AUTO 07002KT 08/06 RMK AO1 T00790062,CWVF,2015-02-22T06:00:00Z,49.1,-123.3,7.9,6.2,70,2,,,,,,TRUE,TRUE,,,,,,,,,,,,,,,,,,,,,,,,,,,METAR,1.0
CWUX 220600Z AUTO 00000KT M15/M16 RMK AO1 SLP190 T11511164 58005,CWUX,2015-02-22T06:00:00Z,48.3,-70.93,-15.1,-16.4,0,0,,,,1019.0,,TRUE,TRUE,,,,,,,,,,,,,,,,-0.5,,,,,,,,,,,METAR,135.0
CWUS 220600Z AUTO 29006KT 00/M08 RMK AO1 SLP343 T00001075 52014,CWUS,2015-02-22T06:00:00Z,49.57,-119.65,0.0,-7.5,290,6,,,,1034.3,,TRUE,TRUE,,,,,,,,,,,,,,,,1.4,,,,,,,,,,,METAR,454.0
CWTY 220600Z AUTO 30003KT M12/M12 RMK AO1 5001 SLP194 T11171123 50026,CWTY,2015-02-22T06:00:00Z,46.35,-72.52,-11.7,-12.3,300,3,,,,1019.4,,TRUE,TRUE,,,,,,,,,,,,,,,,2.6,,,,,,,,,,,METAR,6.0
CWTT 220600Z AUTO 03002KT M10/M10 RMK AO1 T10971104,CWTT,2015-02-22T06:00:00Z,45.27,-72.17,-9.7,-10.4,30,2,,,,,,TRUE,TRUE,,,,,,,,,,,,,,,,,,,,,,,,,,,METAR,209.0
CWTN 220600Z AUTO 00000KT M09/M11 RMK AO1 6011 SLP195 T10911106 50020,CWTN,2015-02-22T06:00:00Z,47.07,-70.78,-9.1,-10.6,0,0,,,,1019.5,,TRUE,TRUE,,,,,,,,,,,,,,,,2.0,,,,,,,,,,,METAR,6.0
CWTG 220600Z AUTO 03005KT M11/M12 RMK AO1 0PAST HR 6015 SLP220 P0008 T11131124 50020,CWTG,2015-02-22T06:00:00Z,49.32,-67.37,-11.3,-12.4,30,5,,,,1022.0,,TRUE,TRUE,,,,,,,,,,,,,,,,2.0,,,,,0.08,,,,,,METAR,5.0
CWTA 220600Z AUTO 19005KT M07/M09 RMK AO1 SLP188 T10741086 50002,CWTA,2015-02-22T06:00:00Z,45.5,-73.58,-7.4,-8.6,190,5,,,,1018.8,,TRUE,TRUE,,,,,,,,,,,,,,,,0.2,,,,,,,,,,,METAR,63.0
CAHR 220600Z AUTO 16011G17KT M04/M06 RMK AO1 PK WND 16018/0521 SLP261 T10441055 58033,CAHR,2015-02-22T06:00:00Z,46.35,-63.17,-4.4,-5.5,160,11,17,,,1026.1,,TRUE,TRUE,,,,,,,,,,,,,,,,-3.3,,,,,,,,,,,METAR,53.0
CWGL 220600Z AUTO 15002KT M18/M20 RMK AO1 SLP194 T11751202 51012,CWGL,2015-02-22T06:00:00Z,44.52,-79.22,-17.5,-20.2,150,2,,,,1019.4,,TRUE,TRUE,,,,,,,,,,,,,,,,1.2,,,,,,,,,,,METAR,221.0
CWGB 220600Z AUTO 22002KT 07/04 RMK AO1 SLP314 T00700035 51016,CWGB,2015-02-22T06:00:00Z,49.35,-124.17,7.0,3.5,220,2,,,,1031.4,,TRUE,TRUE,,,,,,,,,,,,,,,,1.6,,,,,,,,,,,METAR,5.0
CWFQ 220600Z AUTO 18002KT M07/M08 RMK AO1 SOG 51 0000 SLP184 T10741082 50035,CWFQ,2015-02-22T06:00:00Z,45.03,-72.82,-7.4,-8.2,180,2,,,,1018.4,,TRUE,TRUE,,,,,,,,,,,,,,,,3.5,,,,,,,,,,,METAR,152.0
CWFJ 220600Z AUTO 22009KT M16/M17 RMK AO1 T11551172 50002,CWFJ,2015-02-22T06:00:00Z,49.2,-113.27,-15.5,-17.2,220,9,,,,,,TRUE,TRUE,,,,,,,,,,,,,,,,0.2,,,,,,,,,,,METAR,1136.0
CWFF 220600Z AUTO 32006KT M28/M32 RMK AO1 SOG 19 1016 SLP441 T12771317,CWFF,2015-02-22T06:00:00Z,52.82,-104.58,-27.7,-31.7,320,6,,,,1044.1,,TRUE,TRUE,,,,,,,,,,,,,,,,,,,,,,,,,,,METAR,490.0
CWEW 220600Z AUTO 29001KT M15/M17 RMK AO1 SOG 21 3002 SLP207 T11491166 50020,CWEW,2015-02-22T06:00:00Z,45.82,-73.43,-14.9,-16.6,290,1,,,,1020.7,,TRUE,TRUE,,,,,,,,,,,,,,,,2.0,,,,,,,,,,,METAR,21.0
CWEL 220600Z AUTO 17004KT 07/03 RMK AO1 SLP318 T00720030 51015,CWEL,2015-02-22T06:00:00Z,49.22,-123.78,7.2,3.0,170,4,,,,1031.8,,TRUE,TRUE,,,,,,,,,,,,,,,,1.5,,,,,,,,,,,METAR,5.0
CWST 220600Z AUTO 16004KT M08/M10 RMK AO1 5PAST HR SOG 09 8014 SLP185 P0002 T10841104 50016,CWST,2015-02-22T06:00:00Z,47.35,-70.02,-8.4,-10.4,160,4,,,,1018.5,,TRUE,TRUE,,,,,,,,,,,,,,,,1.6,,,,,0.02,,,,,,METAR,31.0
CWSR 220600Z AUTO 20002KT M36/M40 RMK AO1 SOG 20 0001 SLP426 T13591396,CWSR,2015-02-22T06:00:00Z,53.37,-107.53,-35.9,-39.6,200,2,,,,1042.6,,TRUE,TRUE,,,,,,,,,,,,,,,,,,,,,,,,,,,METAR,584.0
CWSP 220600Z AUTO 10005KT 08/01 RMK AO1 SLP313 T00840008 53011,CWSP,2015-02-22T06:00:00Z,48.38,-123.92,8.4,0.8,100,5,,,,1031.3,,TRUE,TRUE,,,,,,,,,,,,,,,,1.1,,,,,,,,,,,METAR,21.0
CWSL 220600Z AUTO 17002KT M02/M05 RMK AO1 SLP351 T10221053 51012,CWSL,2015-02-22T06:00:00Z,50.7,-119.27,-2.2,-5.3,170,2,,,,1035.1,,TRUE,TRUE,,,,,,,,,,,,,,,,1.2,,,,,,,,,,,METAR,351.0
CWSK 220600Z AUTO 04001KT 01/00 RMK AO1 SLP323 T00120000 51021,CWSK,2015-02-22T06:00:00Z,49.78,-123.17,1.2,0.0,40,1,,,,1032.3,,TRUE,TRUE,,,,,,,,,,,,,,,,2.1,,,,,,,,,,,METAR,60.0
CWSG 220600Z AUTO 07006KT M11/M12 RMK AO1 SLP219 T11121123 56019,CWSG,2015-02-22T06:00:00Z,49.12,-66.65,-11.2,-12.3,70,6,,,,1021.9,,TRUE,TRUE,,,,,,,,,,,,,,,,-1.9,,,,,,,,,,,METAR,5.0
CWSD 220600Z AUTO 17018G25KT M04/M05 RMK AO1 SOG 79 6037 PK WND 17025/0557 SLP244 T10361050,CWSD,2015-02-22T06:00:00Z,46.42,-63.85,-3.6,-5.0,170,18,25,,,1024.4,,TRUE,TRUE,,,,,,,,,,,,,,,,,,,,,,,,,,,METAR,24.0
CWRZ 220600Z AUTO 36004KT M09/M10 RMK AO1 SLP233 T10911100 57026,CWRZ,2015-02-22T06:00:00Z,48.42,-64.32,-9.1,-10.0,360,4,,,,1023.3,,TRUE,TRUE,,,,,,,,,,,,,,,,-2.6,,,,,,,,,,,METAR,16.0
CWRY 220600Z AUTO 30004KT M20/M21 RMK AO1 SOG 01 8001 SLP405 T11961213 50002,CWRY,2015-02-22T06:00:00Z,49.12,-112.03,-19.6,-21.3,300,4,,,,1040.5,,TRUE,TRUE,,,,,,,,,,,,,,,,0.2,,,,,,,,,,,METAR,1050.0
CWRT 220600Z AUTO 25001KT M17/M19 RMK AO1 T11651188,CWRT,2015-02-22T06:00:00Z,49.62,-114.47,-16.5,-18.8,250,1,,,,,,TRUE,TRUE,,,,,,,,,,,,,,,,,,,,,,,,,,,METAR,1303.0
CWRK 220600Z AUTO 00000KT M21/M23 RMK AO1 SOG 42 3014 SLP189 T12061227 50002,CWRK,2015-02-22T06:00:00Z,45.07,-77.87,-20.6,-22.7,0,0,,,,1018.9,,TRUE,TRUE,,,,,,,,,,,,,,,,0.2,,,,,,,,,,,METAR,331.0
CWRJ 220600Z AUTO 24007KT M30/M32 RMK AO1 SOG 14 1009 SLP443 T12971323 50002,CWRJ,2015-02-22T06:00:00Z,51.57,-107.92,-29.7,-32.3,240,7,,,,1044.3,,TRUE,TRUE,,,,,,,,,,,,,,,,0.2,,,,,,,,,,,METAR,586.0
CWQV 220600Z AUTO 14003KT M11/M12 RMK AO1 T11101124,CWQV,2015-02-22T06:00:00Z,48.27,-70.12,-11.0,-12.4,140,3,,,,,,TRUE,TRUE,,,,,,,,,,,,,,,,,,,,,,,,,,,METAR,1.0
CWQR 220600Z AUTO 06008KT M12/ RMK AO1 T1121,CWQR,2015-02-22T06:00:00Z,50.22,-64.22,-12.1,,60,8,,,,,,TRUE,TRUE,,,,,,,,,,,,,,,,,,,,,,,,,,,METAR,9.0
CWQP 220600Z AUTO 26010G17KT M04/M08 RMK AO1 SOG 27 3012 PK WND 26019/0541 T10441080 50002,CWQP,2015-02-22T06:00:00Z,43.83,-77.15,-4.4,-8.0,260,10,17,,,,,TRUE,TRUE,,,,,,,,,,,,,,,,0.2,,,,,,,,,,,METAR,79.0
CWQO 220600Z AUTO 11003KT M09/M10 RMK AO1 T10931102,CWQO,2015-02-22T06:00:00Z,48.42,-68.9,-9.3,-10.2,110,3,,,,,,TRUE,TRUE,,,,,,,,,,,,,,,,,,,,,,,,,,,METAR,1.0
CWQH 220600Z AUTO 22007KT M08/M09 RMK AO1 4PAST HR SOG 33 M P0005 T10761090 50036,CWQH,2015-02-22T06:00:00Z,45.37,-71.82,-7.6,-9.0,220,7,,,,,,TRUE,TRUE,,,,,,,,,,,,,,,,3.6,,,,,0.05,,,,,,METAR,181.0
CERM 220600Z AUTO 33001KT M10/M12 RMK AO1 2PAST HR SOG 50 6019 SLP197 P0001 T11041121 50021,CERM,2015-02-22T06:00:00Z,47.42,-68.32,-10.4,-12.1,330,1,,,,1019.7,,TRUE,TRUE,,,,,,,,,,,,,,,,2.1,,,,,0.01,,,,,,METAR,154.0
CZSP 220600Z AUTO 16009G15KT M05/M06 RMK AO1 8PAST HR SOG 57 8026 SLP282 P0003 T10501056 50008,CZSP,2015-02-22T06:00:00Z,46.45,-62.58,-5.0,-5.6,160,9,15,,,1028.2,,TRUE,TRUE,,,,,,,,,,,,,,,,0.8,,,,,0.03,,,,,,METAR,30.0
CZCR 220600Z AUTO 11006KT M11/M12 RMK AO1 5PAST HR 8020 SLP224 P0002 T11071121 50013,CZCR,2015-02-22T06:00:00Z,47.97,-66.32,-10.7,-12.1,110,6,,,,1022.4,,TRUE,TRUE,,,,,,,,,,,,,,,,1.3,,,,,0.02,,,,,,METAR,38.0
CWXI 220600Z AUTO 25021G30KT M09/M13 RMK AO1 PK WND 27031/0519 SLP243 T10881128 51023,CWXI,2015-02-22T06:00:00Z,51.02,-57.1,-8.8,-12.8,250,21,30,,,1024.3,,TRUE,TRUE,,,,,,,,,,,,,,,,2.3,,,,,,,,,,,METAR,6.0
CWBK 220600Z AUTO 17013KT M03/M04 RMK AO1 7PAST HR SOG 77 8033 PK WND 17017/0559 SLP277 P0003 T10251041 50007,CWBK,2015-02-22T06:00:00Z,45.77,-62.67,-2.5,-4.1,170,13,,,,1027.7,,TRUE,TRUE,,,,,,,,,,,,,,,,0.7,,,,,0.03,,,,,,METAR,2.0
RPVM 220600Z 02009KT 9999 FEW020 BKN300 28/21 Q1013 RMK A2991,RPVM,2015-02-22T06:00:00Z,10.32,123.98,28.0,21.0,20,9,,6.21,29.911417,,,,,,,,,,,FEW,2000,BKN,30000,,,,,VFR,,,,,,,,,,,,METAR,10.0
RPMZ 220600Z 06002KT 9999 FEW017CB SCT100 33/24 Q1012RMK A2988 CB NW,RPMZ,2015-02-22T06:00:00Z,6.92,122.07,33.0,24.0,60,2,,6.21,29.878937,,,,,,,,,,,FEW,1700,SCT,10000,,,,,VFR,,,,,,,,,,,,METAR,6.0
VTCN 220600Z 15006KT 9999 FEW025 SCT100 31/14 Q1012 RWY/02 INFO/E,VTCN,2015-02-22T06:00:00Z,18.82,100.77,31.0,14.0,150,6,,6.21,29.88189,,,,,,,,,,,FEW,2500,SCT,10000,,,,,VFR,,,,,,,,,,,,METAR,201.0
VTCL 220600Z VRB03KT 6000 FEW025 32/13 Q1013 A2992 INFO: H,VTCL,2015-02-22T06:00:00Z,18.27,99.52,32.0,13.0,0,3,,3.73,29.911417,,,,,,,,,,,FEW,2500,,,,,,,MVFR,,,,,,,,,,,,METAR,242.0
VTPP 220600Z 22007KT 7000 SCT023 SCT300 32/21 Q1012,VTPP,2015-02-22T06:00:00Z,16.78,100.28,32.0,21.0,220,7,,4.35,29.88189,,,,,,,,,,,SCT,2300,SCT,30000,,,,,MVFR,,,,,,,,,,,,METAR,44.0
VTCP 220600Z 22004KT 9999 FEW025 SCT120 32/16 Q1012 A2990 INFO F RWY 19,VTCP,2015-02-22T06:00:00Z,18.13,100.17,32.0,16.0,220,4,,6.21,29.88189,,,,,,,,,,,FEW,2500,SCT,12000,,,,,VFR,,,,,,,,,,,,METAR,162.0
CXAF 220600Z AUTO 15003KT M26/M29 RMK AO1 T12591288,CXAF,2015-02-22T06:00:00Z,54.28,-112.97,-25.9,-28.8,150,3,,,,,,TRUE,TRUE,,,,,,,,,,,,,,,,,,,,,,,,,,,METAR,664.0
CXBR 220600Z AUTO 28005KT M09/M12 RMK AO1 T10931123,CXBR,2015-02-22T06:00:00Z,49.62,-113.82,-9.3,-12.3,280,5,,,,,,TRUE,TRUE,,,,,,,,,,,,,,,,,,,,,,,,,,,METAR,1073.0
CXDP 220600Z AUTO 10007KT M22/M25 RMK AO1 T12151253,CXDP,2015-02-22T06:00:00Z,54.32,-113.95,-21.5,-25.3,100,7,,,,,,TRUE,TRUE,,,,,,,,,,,,,,,,,,,,,,,,,,,METAR,614.0
CXHR 220600Z AUTO 25008KT M17/M19 RMK AO1 T11741190,CXHR,2015-02-22T06:00:00Z,51.18,-112.5,-17.4,-19.0,250,8,,,,,,TRUE,TRUE,,,,,,,,,,,,,,,,,,,,,,,,,,,METAR,971.0
CXFR 220600Z AUTO 12007KT M07/M09 RMK AO1 T10741089,CXFR,2015-02-22T06:00:00Z,56.08,-118.43,-7.4,-8.9,120,7,,,,,,TRUE,TRUE,,,,,,,,,,,,,,,,,,,,,,,,,,,METAR,655.0
HEMA 220600Z 32011KT CAVOK 16/04 Q1020 NOSIG,HEMA,2015-02-22T06:00:00Z,25.55,34.58,16.0,4.0,320,11,,6.21,30.11811,,,,,,TRUE,,,,,CAVOK,,,,,,,,VFR,,,,,,,,,,,,METAR,77.0
HESG 220600Z 28005KT CAVOK 12/03 Q1020 NOSIG,HESG,2015-02-22T06:00:00Z,26.33,31.75,12.0,3.0,280,5,,6.21,30.11811,,,,,,TRUE,,,,,CAVOK,,,,,,,,VFR,,,,,,,,,,,,METAR,70.0
HESC 220600Z 00000KT CAVOK 03/00 Q1023 NOSIG,HESC,2015-02-22T06:00:00Z,28.68,34.07,3.0,0.0,0,0,,6.21,30.206694,,,,,,TRUE,,,,,CAVOK,,,,,,,,VFR,,,,,,,,,,,,METAR,1332.0
HEBL 220600Z 35006KT CAVOK 15/02 Q1019 NOSIG,HEBL,2015-02-22T06:00:00Z,22.38,31.62,15.0,2.0,350,6,,6.21,30.088583,,,,,,TRUE,,,,,CAVOK,,,,,,,,VFR,,,,,,,,,,,,METAR,188.0
HEBA 220600Z 17007KT 9999 SCT020 Q11/10 Q1020 NOSIG,HEBA,2015-02-22T06:00:00Z,30.92,29.7,11.0,10.0,170,7,,6.21,30.11811,,,,,,TRUE,,,,,SCT,2000,,,,,,,VFR,,,,,,,,,,,,METAR,54.0
HEAT 220600Z 14001KT CAVOK 10/04 Q1021 NOSIG,HEAT,2015-02-22T06:00:00Z,27.05,31.02,10.0,4.0,140,1,,6.21,30.147638,,,,,,TRUE,,,,,CAVOK,,,,,,,,VFR,,,,,,,,,,,,METAR,70.0
HESH 220600Z 36013KT CAVOK 15/05 Q1020 NOSIG,HESH,2015-02-22T06:00:00Z,27.97,34.38,15.0,5.0,360,13,,6.21,30.11811,,,,,,TRUE,,,,,CAVOK,,,,,,,,VFR,,,,,,,,,,,,METAR,50.0
HEPS 220600Z 22004KT CAVOK 11/08 Q1022 NOSIG,HEPS,2015-02-22T06:00:00Z,31.28,32.25,11.0,8.0,220,4,,6.21,30.177166,,,,,,TRUE,,,,,CAVOK,,,,,,,,VFR,,,,,,,,,,,,METAR,6.0
HEGN 220600Z 30010KT 9999 SCT025 15/09 Q1021 NOSIG,HEGN,2015-02-22T06:00:00Z,27.18,33.8,15.0,9.0,300,10,,6.21,30.147638,,,,,,TRUE,,,,,SCT,2500,,,,,,,VFR,,,,,,,,,,,,METAR,14.0
HEAR 220600Z 15009KT CAVOK 08/08 Q1022 NOSIG,HEAR,2015-02-22T06:00:00Z,31.07,33.82,8.0,8.0,150,9,,6.21,30.177166,,,,,,TRUE,,,,,CAVOK,,,,,,,,VFR,,,,,,,,,,,,METAR,32.0
HESN 220600Z 36006KT CAVOK 12/M01 Q1020 NOSIG,HESN,2015-02-22T06:00:00Z,23.97,32.82,12.0,-1.0,360,6,,6.21,30.11811,,,,,,TRUE,,,,,CAVOK,,,,,,,,VFR,,,,,,,,,,,,METAR,194.0
HELX 220600Z 00000KT CAVOK 12/04 Q1021 NOSIG,HELX,2015-02-22T06:00:00Z,25.67,32.7,12.0,4.0,0,0,,6.21,30.147638,,,,,,TRUE,,,,,CAVOK,,,,,,,,VFR,,,,,,,,,,,,METAR,88.0
HEAX 220600Z 15004KT CAVOK 11/07 Q1019 NOSIG,HEAX,2015-02-22T06:00:00Z,31.18,29.93,11.0,7.0,150,4,,6.21,30.088583,,,,,,TRUE,,,,,CAVOK,,,,,,,,VFR,,,,,,,,,,,,METAR,7.0
HEMM 220600Z 00000KT 9999 SCT020 SCT022 12/10 Q1020 NOSIG,HEMM,2015-02-22T06:00:00Z,31.32,27.22,12.0,10.0,0,0,,6.21,30.11811,,,,,,TRUE,,,,,SCT,2000,SCT,2200,,,,,VFR,,,,,,,,,,,,METAR,30.0
CXWB 220600Z AUTO 12002KT M36/M41 RMK AO1 T13551408,CXWB,2015-02-22T06:00:00Z,65.88,-89.45,-35.5,-40.8,120,2,,,,,,TRUE,TRUE,,,,,,,,,,,,,,,,,,,,,,,,,,,METAR,18.0
CWWS 220600Z AUTO 31011KT M30/M34 RMK AO1 SOG 57 1012 SLP401 T12991341,CWWS,2015-02-22T06:00:00Z,52.82,-97.62,-29.9,-34.1,310,11,,,,1040.1,,TRUE,TRUE,,,,,,,,,,,,,,,,,,,,,,,,,,,METAR,223.0
CWCT 220600Z AUTO 23007KT M25/M27 RMK AO1 SOG 08 8004 SLP421 T12471271,CWCT,2015-02-22T06:00:00Z,52.07,-111.47,-24.7,-27.1,230,7,,,,1042.1,,TRUE,TRUE,,,,,,,,,,,,,,,,,,,,,,,,,,,METAR,791.0
CWIX 220600Z AUTO 15001KT M13/M14 RMK AO1 T11261142,CWIX,2015-02-22T06:00:00Z,48.6,-71.72,-12.6,-14.2,150,1,,,,,,TRUE,TRUE,,,,,,,,,,,,,,,,,,,,,,,,,,,METAR,113.0
CWEE 220600Z AUTO M16/M18 RMK AO1 T11611183,CWEE,2015-02-22T06:00:00Z,49.27,-73.33,-16.1,-18.3,,,,,,,,TRUE,TRUE,,,,,,,,,,,,,,,,,,,,,,,,,,,METAR,305.0
CZHY 220600Z AUTO 21012KT M09/M11 RMK AO1 SOG 33 7018 SLP252 T10881110 50002,CZHY,2015-02-22T06:00:00Z,60.83,-115.78,-8.8,-11.0,210,12,,,,1025.2,,TRUE,TRUE,,,,,,,,,,,,,,,,0.2,,,,,,,,,,,METAR,164.0
CWKD 220600Z AUTO 09001KT M22/M24 RMK AO1 6004 SLP192 T12221242 50001,CWKD,2015-02-22T06:00:00Z,50.73,-71.02,-22.2,-24.2,90,1,,,,1019.2,,TRUE,TRUE,,,,,,,,,,,,,,,,0.1,,,,,,,,,,,METAR,497.0
CXHP 220600Z AUTO 08004KT M12/M14 RMK AO1 T11191137,CXHP,2015-02-22T06:00:00Z,55.4,-116.48,-11.9,-13.7,80,4,,,,,,TRUE,TRUE,,,,,,,,,,,,,,,,,,,,,,,,,,,METAR,602.0
CXEG 220600Z AUTO M19/M22 RMK AO1 SOG 11 T11851218,CXEG,2015-02-22T06:00:00Z,53.3,-113.6,-18.5,-21.8,,,,,,,,TRUE,TRUE,,,,,,,,,,,,,,,,,,,,,,,,,,,METAR,715.0
CXAT 220600Z AUTO 13005KT M32/M36 RMK AO1 SOG 02 8031 SLP131 T13191357,CXAT,2015-02-22T06:00:00Z,73.0,-85.03,-31.9,-35.7,130,5,,,,1013.1,,TRUE,TRUE,,,,,,,,,,,,,,,,,,,,,,,,,,,METAR,19.0
TGPY 220600Z 09008KT 9999 FEW017 26/22 Q1014,TGPY,2015-02-22T06:00:00Z,12.0,-61.78,26.0,22.0,90,8,,6.21,29.940945,,,,,,,,,,,FEW,1700,,,,,,,VFR,,,,,,,,,,,,METAR,7.0
YCCY 220600Z AUTO 36007KT 340V050 //// // ////// 39/16 Q1006,YCCY,2015-02-22T06:00:00Z,-20.67,140.5,39.0,16.0,360,7,,,29.704725,,,TRUE,,,,,,,,,,,,,,,,,,,,,,,,,,,,METAR,570.0
YCBP 220600Z AUTO 04004KT 020V090 //// // NCD 38/08 Q1008,YCBP,2015-02-22T06:00:00Z,-29.03,134.72,38.0,8.0,40,4,,,29.763779,,,TRUE,,,,,,,,,,,,,,,,,,,,,,,,,,,,METAR,226.0
YCBB 220600Z AUTO 13011KT 100V170 //// // ////// 31/14 Q1013,YCBB,2015-02-22T06:00:00Z,-31.33,149.27,31.0,14.0,130,11,,,29.911417,,,TRUE,,,,,,,,,,,,,,,,,,,,,,,,,,,,METAR,645.0
YCBA 220600Z AUTO 14006KT //// // ////// 35/13 Q1010,YCBA,2015-02-22T06:00:00Z,-31.53,145.8,35.0,13.0,140,6,,,29.822834,,,TRUE,,,,,,,,,,,,,,,,,,,,,,,,,,,,METAR,221.0
YCAS 220600Z AUTO 14011KT //// // ////// 24/22 Q1011,YCAS,2015-02-22T06:00:00Z,-28.88,153.07,24.0,22.0,140,11,,,29.852362,,,TRUE,,,,,,,,,,,,,,,,,,,,,,,,,,,,METAR,26.0
YCAR 220600Z AUTO 19020KT 9999 // NCD 31/16 Q1006,YCAR,2015-02-22T06:00:00Z,-24.88,113.67,31.0,16.0,190,20,,6.21,29.704725,,,TRUE,,,,,,,,,,,,,,,,,,,,,,,,,,,,METAR,8.0
YBWX 220600Z AUTO 23020KT //// // ////// 31/23 Q1002,YBWX,2015-02-22T06:00:00Z,-20.88,115.4,31.0,23.0,230,20,,,29.586615,,,TRUE,,,,,,,,,,,,,,,,,,,,,,,,,,,,METAR,6.0
YBWP 220600Z AUTO 28010KT 9999 // NCD 31/25 Q1009,YBWP,2015-02-22T06:00:00Z,-12.68,141.92,31.0,25.0,280,10,,6.21,29.793306,,,TRUE,,,,,,,,,,,,,,,,,,,,,,,,,,,,METAR,12.0
YBUD 220600Z AUTO 19007KT 9999 // NCD 33/21 Q1006,YBUD,2015-02-22T06:00:00Z,-24.9,152.32,33.0,21.0,190,7,,6.21,29.704725,,,TRUE,,,,,,,,,,,,,,,,,,,,,,,,,,,,METAR,82.0
TNCA 220600Z 07015KT 9999 FEW019 27/23 Q1013 A2993 NOSIG,TNCA,2015-02-22T06:00:00Z,12.5,-70.0,27.0,23.0,70,15,,6.21,29.911417,,,,,,TRUE,,,,,FEW,1900,,,,,,,VFR,,,,,,,,,,,,METAR,18.0
OIZJ 220600Z 31012KT 6000 NSC 23/19 Q1009,OIZJ,2015-02-22T06:00:00Z,25.65,57.8,23.0,19.0,310,12,,3.73,29.793306,,,,,,,,,,,,,,,,,,,,,,,,,,,,,,,METAR,4.0
OIBL 220600Z 28012KT 6000 NSC 19/M01 Q1014,OIBL,2015-02-22T06:00:00Z,26.53,54.82,19.0,-1.0,280,12,,3.73,29.940945,,,,,,,,,,,,,,,,,,,,,,,,,,,,,,,METAR,14.0
CWRU 220600Z AUTO 01008KT 09/M00 RMK AO1 SLP304 T00931001 53003,CWRU,2015-02-22T06:00:00Z,50.12,-127.93,9.3,-0.1,10,8,,,,1030.4,,TRUE,TRUE,,,,,,,,,,,,,,,,0.3,,,,,,,,,,,METAR,98.0
CWQS 220600Z AUTO 13004KT 08/05 RMK AO1 SLP312 T00760051 51005,CWQS,2015-02-22T06:00:00Z,53.32,-132.77,7.6,5.1,130,4,,,,1031.2,,TRUE,TRUE,,,,,,,,,,,,,,,,0.5,,,,,,,,,,,METAR,14.0
CWME 220600Z AUTO 07010G16KT 06/02 RMK AO1 PK WND 05018/0517 SLP321 T00620020 51005,CWME,2015-02-22T06:00:00Z,52.18,-127.47,6.2,2.0,70,10,16,,,1032.1,,TRUE,TRUE,,,,,,,,,,,,,,,,0.5,,,,,,,,,,,METAR,32.0
CYRB 220600Z 34003KT 10SM -SN BKN076 M26/M29 A2977 RMK AC7 SLP092,CYRB,2015-02-22T06:00:00Z,74.72,-94.97,-26.0,-29.0,340,3,,10.0,29.769686,1009.2,,,,,,,,,-SN,BKN,7600,,,,,,,VFR,,,,,,,,,,,,SPECI,67.0
CYQK 220600Z 32006KT 15SM SKC M30/M33 A3039 RMK SLP344,CYQK,2015-02-22T06:00:00Z,49.77,-94.37,-30.0,-33.0,320,6,,15.0,30.389763,1034.4,,,,,,,,,,SKC,,,,,,,,VFR,,,,,,,,,,,,METAR,411.0
CYPO 220600Z AUTO 27006KT 9SM CLR M32/M35 A3018 RMK SLP230,CYPO,2015-02-22T06:00:00Z,54.98,-85.43,-32.0,-35.0,270,6,,9.0,30.180119,1023.0,,TRUE,,,,,,,,CLR,,,,,,,,VFR,,,,,,,,,,,,METAR,53.0
CYLH 220600Z AUTO 28004KT 9SM CLR M33/M36 A3026 RMK SLP288,CYLH,2015-02-22T06:00:00Z,52.2,-87.93,-33.0,-36.0,280,4,,9.0,30.259842,1028.8,,TRUE,,,,,,,,CLR,,,,,,,,VFR,,,,,,,,,,,,METAR,254.0
CYKZ 220600Z CCA 00000KT 12SM FEW075 M18/M19 A3009 RMK AS1 FROIN SLP205,CYKZ,2015-02-22T06:00:00Z,43.87,-79.37,-18.0,-19.0,0,0,,12.0,30.088583,1020.5,,,,,,,,,,FEW,7500,,,,,,,VFR,,,,,,,,,,,,METAR,198.0
CYKP 220600Z AUTO 31006KT 9SM CLR M32/M35 A3025 RMK SLP271,CYKP,2015-02-22T06:00:00Z,51.67,-85.9,-32.0,-35.0,310,6,,9.0,30.250984,1027.1,,TRUE,,,,,,,,CLR,,,,,,,,VFR,,,,,,,,,,,,METAR,179.0
CYKL 220600Z AUTO 18006KT 9SM FEW055 OVC072 M24/M27 A2997 RMK SLP209,CYKL,2015-02-22T06:00:00Z,54.78,-66.82,-24.0,-27.0,180,6,,9.0,29.970472,1020.9,,TRUE,,,,,,,,FEW,5500,OVC,7200,,,,,VFR,,,,,,,,,,,,SPECI,521.0
CYKF 220600Z AUTO 30003KT 4SM BR CLR M21/M24 A3007 RMK SLP208,CYKF,2015-02-22T06:00:00Z,43.47,-80.38,-21.0,-24.0,300,3,,4.0,30.070866,1020.8,,TRUE,,,,,,,BR,CLR,,,,,,,,MVFR,,,,,,,,,,,,METAR,317.0
CYHM 220600Z 29004KT 15SM SCT039 M13/M14 A3008 RMK SC4 SLP203,CYHM,2015-02-22T06:00:00Z,43.17,-79.93,-13.0,-14.0,290,4,,15.0,30.079725,1020.3,,,,,,,,,,SCT,3900,,,,,,,VFR,,,,,,,,,,,,METAR,238.0
CYGQ 220600Z 34006KT 15SM SKC M28/M32 A3021 RMK SLP274,CYGQ,2015-02-22T06:00:00Z,49.77,-86.92,-28.0,-32.0,340,6,,15.0,30.209646,1027.4,,,,,,,,,,SKC,,,,,,,,VFR,,,,,,,,,,,,METAR,351.0
CYCK 220600Z AUTO VRB02KT 1/4SM FZFG VV001 M19/M21 A3012 RMK SLP215,CYCK,2015-02-22T06:00:00Z,42.3,-82.08,-19.0,-21.0,0,2,,0.25,30.121063,1021.5,,TRUE,,,,,,,FZFG,OVX,0,,,,,,,LIFR,,,,,,,,,,,100,METAR,198.0
CYBN 220600Z AUTO 18002KT 9SM FEW020 M17/M18 A3007 RMK SLP203,CYBN,2015-02-22T06:00:00Z,44.27,-79.92,-17.0,-18.0,180,2,,9.0,30.070866,1020.3,,TRUE,,,,,,,,FEW,2000,,,,,,,VFR,,,,,,,,,,,,METAR,223.0
CYAT 220600Z AUTO 26005KT 9SM CLR M32/M35 A3023 RMK SLP239,CYAT,2015-02-22T06:00:00Z,52.93,-82.43,-32.0,-35.0,260,5,,9.0,30.230314,1023.9,,TRUE,,,,,,,,CLR,,,,,,,,VFR,,,,,,,,,,,,METAR,9.0
CZBF 220600Z 00000KT 1 1/2SM -SN VV010 M11/M13 A3017 RMK SN8 /SO2/ SLP223,CZBF,2015-02-22T06:00:00Z,47.62,-65.75,-11.0,-13.0,0,0,,1.5,30.171259,1022.3,,,,,,,,,-SN,OVX,0,,,,,,,LIFR,,,,,,,,,,,1000,SPECI,59.0
CWZZ 220600Z AUTO 02002KT M22/ A2985 RMK SLP168,CWZZ,2015-02-22T06:00:00Z,58.32,-62.57,-22.0,,20,2,,,29.84941,1016.8,,TRUE,,,,,,,,,,,,,,,,,,,,,,,,,,,,METAR,483.0
CWYK 220600Z AUTO 16051KT M20/ A2971 RMK SLP147,CWYK,2015-02-22T06:00:00Z,57.12,-61.47,-20.0,,160,51,,,29.71063,1014.7,,TRUE,,,,,,,,,,,,,,,,,,,,,,,,,,,,METAR,834.0
CWVH 220600Z AUTO 11004KT M13/ A2991 RMK SLP157,CWVH,2015-02-22T06:00:00Z,68.9,-133.93,-13.0,,110,4,,,29.911417,1015.7,,TRUE,,,,,,,,,,,,,,,,,,,,,,,,,,,,METAR,261.0
CWUW 220600Z AUTO 30011KT 9SM CLR M32/ A2960 RMK SLP112,CWUW,2015-02-22T06:00:00Z,68.65,-71.17,-32.0,,300,11,,9.0,29.601377,1011.2,,TRUE,,,,,,,,CLR,,,,,,,,VFR,,,,,,,,,,,,METAR,527.0
CWUP 220600Z AUTO ///// M26/ A2959 RMK SLP081,CWUP,2015-02-22T06:00:00Z,68.47,-66.82,-26.0,,,,,,29.589567,1008.1,,TRUE,,,,,,,,,,,,,,,,,,,,,,,,,,,,METAR,390.0
CWRX 220600Z AUTO 28018KT M30/ A2997,CWRX,2015-02-22T06:00:00Z,69.07,-79.02,-30.0,,280,18,,,29.970472,,,TRUE,,,,,,,,,,,,,,,,,,,,,,,,,,,,METAR,41.0
CWPX 220600Z AUTO 34005KT M20/ A3001 RMK SLP194,CWPX,2015-02-22T06:00:00Z,69.02,-107.82,-20.0,,340,5,,,30.008858,1019.4,,TRUE,,,,,,,,,,,,,,,,,,,,,,,,,,,,METAR,165.0
CWLY 220600Z AUTO 02005KT 9SM CLR 02/M04 A3053 RMK SLP347,CWLY,2015-02-22T06:00:00Z,50.22,-121.58,2.0,-4.0,20,5,,9.0,30.528543,1034.7,,TRUE,,,,,,,,CLR,,,,,,,,VFR,,,,,,,,,,,,METAR,229.0
CWLX 220600Z AUTO 33021KT M35/ A2982 RMK SLP130,CWLX,2015-02-22T06:00:00Z,68.9,-75.15,-35.0,,330,21,,,29.819881,1013.0,,TRUE,,,,,,,,,,,,,,,,,,,,,,,,,,,,METAR,162.0
CWLI 220600Z AUTO 12004KT M16/ A2999 RMK SLP172,CWLI,2015-02-22T06:00:00Z,69.58,-130.9,-16.0,,120,4,,,29.991142,1017.2,,TRUE,,,,,,,,,,,,,,,,,,,,,,,,,,,,METAR,102.0
CWKW 220600Z AUTO ///// M23/ A2978 RMK SLP153,CWKW,2015-02-22T06:00:00Z,59.97,-64.17,-23.0,,,,,,29.778543,1015.3,,TRUE,,,,,,,,,,,,,,,,,,,,,,,,,,,,METAR,551.0
CWKM 220600Z AUTO 29006KT M13/ A3002 RMK SLP172,CWKM,2015-02-22T06:00:00Z,69.6,-140.17,-13.0,,290,6,,,30.02067,1017.2,,TRUE,,,,,,,,,,,,,,,,,,,,,,,,,,,,METAR,13.0
CWIL 220600Z AUTO 23013KT M25/ A3004 RMK SLP186,CWIL,2015-02-22T06:00:00Z,68.32,-100.07,-25.0,,230,13,,,30.041338,1018.6,,TRUE,,,,,,,,,,,,,,,,,,,,,,,,,,,,METAR,36.0
CWCL 220600Z AUTO 30004KT 9SM M05/M11 A3046 RMK SLP362,CWCL,2015-02-22T06:00:00Z,51.13,-121.5,-5.0,-11.0,300,4,,9.0,30.46063,1036.2,,TRUE,,,,,,,,,,,,,,,,,,,,,,,,,,,,METAR,1057.0
CWCA 220600Z 16002KT 15SM FEW030 M17/M21 A3016 RMK SC1 TR SC SLP216,CWCA,2015-02-22T06:00:00Z,53.7,-57.02,-17.0,-21.0,160,2,,15.0,30.159449,1021.6,,,,,,,,,,FEW,3000,,,,,,,VFR,,,,,,,,,,,,METAR,14.0
CYYG 220600Z 16014KT 2 1/2SM -SN DRSN OVC011 M05/M06 A3031 RMK NS8 /S01/ SLP268,CYYG,2015-02-22T06:00:00Z,46.27,-63.12,-5.0,-6.0,160,14,,2.5,30.31004,1026.8,,,,,,,,,-SN DRSN,OVC,1100,,,,,,,IFR,,,,,,,,,,,,METAR,54.0
CYSJ 220600Z CCA 18019G29KT 1 1/2SM -SN DRSN OVC006 M00/M01 A3016 RMK SF8 /S07/ PRESFR SLP218,CYSJ,2015-02-22T06:00:00Z,45.32,-65.87,0.0,-1.0,180,19,29,1.5,30.159449,1021.8,,,,,,,,,DRSN -SN,OVC,600,,,,,,,IFR,,,,,,,,,,,,SPECI,109.0
CYDF 220600Z 23012KT 10SM -SN FEW020 BKN038 M09/M13 A3040 RMK SF2SC5 SLP295,CYDF,2015-02-22T06:00:00Z,49.22,-57.4,-9.0,-13.0,230,12,,10.0,30.398623,1029.5,,,,,,,,,-SN,FEW,2000,BKN,3800,,,,,VFR,,,,,,,,,,,,METAR,22.0
CYCX 220600Z 19009KT 1SM -SN OVC006 00/00 A3011 RMK SF8 DA-1730FT SLP200,CYCX,2015-02-22T06:00:00Z,45.82,-66.42,0.0,0.0,190,9,,1.0,30.109253,1020.0,,,,,,,,,-SN,OVC,600,,,,,,,IFR,,,,,,,,,,,,METAR,51.0
CYQI 220600Z 18014G19KT 9SM -SHRA FEW009 OVC022 01/01 A3026 RMK SF2SC6 SLP251,CYQI,2015-02-22T06:00:00Z,43.83,-66.08,1.0,1.0,180,14,19,9.0,30.259842,1025.1,,,,,,,,,-SHRA,FEW,900,OVC,2200,,,,,MVFR,,,,,,,,,,,,METAR,43.0
CYPX 220600Z AUTO 06009KT 9SM CLR M32/M35 A3009 RMK SLP195,CYPX,2015-02-22T06:00:00Z,60.03,-77.27,-32.0,-35.0,60,9,,9.0,30.088583,1019.5,,TRUE,,,,,,,,CLR,,,,,,,,VFR,,,,,,,,,,,,METAR,23.0
CYPH 220600Z AUTO 05004KT 9SM CLR M33/M37 A3006 RMK SLP185,CYPH,2015-02-22T06:00:00Z,58.45,-78.08,-33.0,-37.0,50,4,,9.0,30.059055,1018.5,,TRUE,,,,,,,,CLR,,,,,,,,VFR,,,,,,,,,,,,METAR,3.0
CYMH 220600Z AUTO 27011KT 240V310 9SM M13/M18 A3020 RMK CLD MISG SLP229,CYMH,2015-02-22T06:00:00Z,52.28,-55.85,-13.0,-18.0,270,11,,9.0,30.200787,1022.9,,TRUE,,,,,,,,,,,,,,,,,,,,,,,,,,,,SPECI,11.0
CYBX 220600Z 27015KT 15SM FEW020 M13/M21 A3025 RMK SC2 WND ESTD SLP248,CYBX,2015-02-22T06:00:00Z,51.45,-57.17,-13.0,-21.0,270,15,,15.0,30.250984,1024.8,,,,,,,,,,FEW,2000,,,,,,,VFR,,,,,,,,,,,,METAR,35.0
CYZE 220600Z AUTO 29005KT 9SM OVC120 M13/M16 A3008 RMK ICG SLP202,CYZE,2015-02-22T06:00:00Z,45.87,-82.57,-13.0,-16.0,290,5,,9.0,30.079725,1020.2,,TRUE,,,,,,,,OVC,12000,,,,,,,VFR,,,,,,,,,,,,METAR,193.0
CYYY 220600Z 18006KT 2SM -SN OVC030 M10/M13 A3013 RMK SC8 /S01/ SLP206,CYYY,2015-02-22T06:00:00Z,48.6,-68.22,-10.0,-13.0,180,6,,2.0,30.129921,1020.6,,,,,,,,,-SN,OVC,3000,,,,,,,IFR,,,,,,,,,,,,METAR,52.0
CYXR 220600Z AUTO 30006KT 9SM -SN FEW020 BKN160 M20/M22 A3000 RMK ICG SLP182,CYXR,2015-02-22T06:00:00Z,47.7,-79.83,-20.0,-22.0,300,6,,9.0,30.0,1018.2,,TRUE,,,,,,,-SN,FEW,2000,BKN,16000,,,,,VFR,,,,,,,,,,,,METAR,243.0
CYWA 220600Z AUTO 00000KT 9SM OVC058 M14/M16 A3007 RMK SLP195,CYWA,2015-02-22T06:00:00Z,45.95,-77.32,-14.0,-16.0,0,0,,9.0,30.070866,1019.5,,TRUE,,,,,,,,OVC,5800,,,,,,,VFR,,,,,,,,,,,,METAR,130.0
CYVV 220600Z 21006KT 10SM -SN FEW012 OVC023 M09/M11 A3006 RMK SF2SC6 SLP196,CYVV,2015-02-22T06:00:00Z,44.75,-81.08,-9.0,-11.0,210,6,,10.0,30.059055,1019.6,,,,,,,,,-SN,FEW,1200,OVC,2300,,,,,MVFR,,,,,,,,,,,,METAR,222.0
CYVP 220600Z 22005KT 15SM SKC M28/M31 A3014 RMK SLP213,CYVP,2015-02-22T06:00:00Z,58.12,-68.42,-28.0,-31.0,220,5,,15.0,30.138779,1021.3,,,,,,,,,,SKC,,,,,,,,VFR,,,,,,,,,,,,SPECI,60.0
CYTZ 220600Z AUTO 32005KT 8SM CLR M09/M12 A3012 RMK SLP206,CYTZ,2015-02-22T06:00:00Z,43.63,-79.4,-9.0,-12.0,320,5,,8.0,30.121063,1020.6,,TRUE,,,,,,,,CLR,,,,,,,,VFR,,,,,,,,,,,,METAR,77.0
CYTS 220600Z 33009KT 6SM -SN DRSN FEW030 OVC057 M21/M24 A3005 RMK SC2SC6 /S01/ SLP206,CYTS,2015-02-22T06:00:00Z,48.57,-81.37,-21.0,-24.0,330,9,,6.0,30.050198,1020.6,,,,,,,,,-SN DRSN,FEW,3000,OVC,5700,,,,,VFR,,,,,,,,,,,,METAR,295.0
CYTL 220600Z AUTO 29010KT 9SM -SN BKN033 M32/M36 A3030 RMK SLP297,CYTL,2015-02-22T06:00:00Z,53.82,-89.88,-32.0,-36.0,290,10,,9.0,30.301182,1029.7,,TRUE,,,,,,,-SN,BKN,3300,,,,,,,VFR,,,,,,,,,,,,SPECI,224.0
CYRJ 220600Z CCA 00000KT 2SM -SN OVC015 M14/M16 A3005 RMK SN4SC4 SLP191,CYRJ,2015-02-22T06:00:00Z,48.52,-72.27,-14.0,-16.0,0,0,,2.0,30.050198,1019.1,,,,,,,,,-SN,OVC,1500,,,,,,,IFR,,,,,,,,,,,,METAR,179.0
CYQT 220600Z 34003KT 15SM SKC M22/M26 A3030 RMK SLP283,CYQT,2015-02-22T06:00:00Z,48.37,-89.32,-22.0,-26.0,340,3,,15.0,30.301182,1028.3,,,,,,,,,,SKC,,,,,,,,VFR,,,,,,,,,,,,METAR,199.0
CYPQ 220600Z AUTO VRB02KT 9SM CLR M19/M20 A3008 RMK SLP202,CYPQ,2015-02-22T06:00:00Z,44.22,-78.37,-19.0,-20.0,0,2,,9.0,30.079725,1020.2,,TRUE,,,,,,,,CLR,,,,,,,,VFR,,,,,,,,,,,,METAR,191.0
CYMO 220600Z AUTO 30006KT 9SM CLR M28/M32 A3023 RMK SLP238,CYMO,2015-02-22T06:00:00Z,51.28,-80.62,-28.0,-32.0,300,6,,9.0,30.230314,1023.8,,TRUE,,,,,,,,CLR,,,,,,,,VFR,,,,,,,,,,,,METAR,10.0
CYHD 220600Z AUTO 02008KT 9SM CLR M28/M32 A3033 RMK SLP326,CYHD,2015-02-22T06:00:00Z,49.82,-92.75,-28.0,-32.0,20,8,,9.0,30.33071,1032.6,,TRUE,,,,,,,,CLR,,,,,,,,VFR,,,,,,,,,,,,METAR,413.0
CYAM 220600Z 29008KT 15SM FEW130 FEW140 BKN160 M17/M19 A3012 RMK AC1AC1AC3 SLP215,CYAM,2015-02-22T06:00:00Z,46.47,-84.52,-17.0,-19.0,290,8,,15.0,30.121063,1021.5,,,,,,,,,,FEW,13000,FEW,14000,BKN,16000,,,VFR,,,,,,,,,,,,METAR,192.0
CZUM 220600Z AUTO 00000KT 9SM CLR M32/M35 A3004 RMK SLP230,CZUM,2015-02-22T06:00:00Z,53.53,-64.08,-32.0,-35.0,0,0,,9.0,30.041338,1023.0,,TRUE,,,,,,,,CLR,,,,,,,,VFR,,,,,,,,,,,,METAR,440.0
CWYM 220600Z AUTO 25012G19KT M27/ A2951 RMK SLP077,CWYM,2015-02-22T06:00:00Z,64.95,-63.57,-27.0,,250,12,19,,29.509842,1007.7,,TRUE,,,,,,,,,,,,,,,,,,,,,,,,,,,,METAR,583.0
CWXR 220600Z AUTO 23003KT M14/ A3004 RMK SLP184,CWXR,2015-02-22T06:00:00Z,69.27,-119.22,-14.0,,230,3,,,30.041338,1018.4,,TRUE,,,,,,,,,,,,,,,,,,,,,,,,,,,,METAR,69.0
CWTU 220600Z AUTO 30013KT M19/ A2986 RMK SLP171,CWTU,2015-02-22T06:00:00Z,54.72,-58.35,-19.0,,300,13,,,29.861221,1017.1,,TRUE,,,,,,,,,,,,,,,,,,,,,,,,,,,,METAR,683.0
CWSA 220600Z AUTO 17007KT 9SM OVC085 01/M03 A3057 RMK SLP351,CWSA,2015-02-22T06:00:00Z,43.93,-60.0,1.0,-3.0,170,7,,9.0,30.569881,1035.1,,TRUE,,,,,,,,OVC,8500,,,,,,,VFR,,,,,,,,,,,,METAR,4.0
CWRH 220600Z AUTO ///// M23/ A2981 RMK SLP152,CWRH,2015-02-22T06:00:00Z,61.57,-64.65,-23.0,,,,,,29.811024,1015.2,,TRUE,,,,,,,,,,,,,,,,,,,,,,,,,,,,METAR,369.0
CWKP 220600Z AUTO 01004KT M11/ A2995 RMK SLP183,CWKP,2015-02-22T06:00:00Z,69.67,-121.67,-11.0,,10,4,,,29.949802,1018.3,,TRUE,,,,,,,,,,,,,,,,,,,,,,,,,,,,METAR,330.0
CWFD 220600Z AUTO 31016KT 9SM FEW086 M25/ A2931 RMK SLP031,CWFD,2015-02-22T06:00:00Z,66.57,-61.58,-25.0,,310,16,,9.0,29.309055,1003.1,,TRUE,,,,,,,,FEW,8600,,,,,,,VFR,,,,,,,,,,,,METAR,393.0
CWEU 220600Z 09002KT 15SM FEW070 M28/M33 A2981 RMK AC1 SLP095,CWEU,2015-02-22T06:00:00Z,80.0,-85.92,-28.0,-33.0,90,2,,15.0,29.811024,1009.5,,,,,,,,,,FEW,7000,,,,,,,VFR,,,,,,,,,,,,METAR,10.0
CYVM 220600Z AUTO 20011KT 9SM CLR M30/M35 A2982 RMK SLP100,CYVM,2015-02-22T06:00:00Z,67.53,-64.02,-30.0,-35.0,200,11,,9.0,29.819881,1010.0,,TRUE,,,,,,,,CLR,,,,,,,,VFR,,,,,,,,,,,,METAR,6.0
CYTE 220600Z AUTO 27006KT 9SM FEW012 M28/M31 A3011 RMK SLP206,CYTE,2015-02-22T06:00:00Z,64.22,-76.52,-28.0,-31.0,270,6,,9.0,30.109253,1020.6,,TRUE,,,,,,,,FEW,1200,,,,,,,VFR,,,,,,,,,,,,SPECI,47.0
CYRT 220600Z 33007KT 15SM IC SKC M37/M42 A3040 RMK SLP299,CYRT,2015-02-22T06:00:00Z,62.82,-92.12,-37.0,-42.0,330,7,,15.0,30.398623,1029.9,,,,,,,,,IC,SKC,,,,,,,,VFR,,,,,,,,,,,,METAR,32.0
CYCO 220600Z 23010KT 15SM FEW018 SCT120 M17/M20 A3013 RMK SF2AC1 SLP205,CYCO,2015-02-22T06:00:00Z,67.82,-115.15,-17.0,-20.0,230,10,,15.0,30.129921,1020.5,,,,,,,,,,FEW,1800,SCT,12000,,,,,VFR,,,,,,,,,,,,METAR,22.0
CYCB 220600Z 28006KT 5SM -SN BKN020 M23/M26 A3008 RMK SC7 SLP192,CYCB,2015-02-22T06:00:00Z,69.08,-105.12,-23.0,-26.0,280,6,,5.0,30.079725,1019.2,,,,,,,,,-SN,BKN,2000,,,,,,,MVFR,,,,,,,,,,,,METAR,27.0
CYXH 220600Z AUTO 18003KT 9SM CLR M17/M20 A3062 RMK SLP425,CYXH,2015-02-22T06:00:00Z,50.02,-110.72,-17.0,-20.0,180,3,,9.0,30.620079,1042.5,,TRUE,,,,,,,,CLR,,,,,,,,VFR,,,,,,,,,,,,METAR,716.0
CYUX 220600Z AUTO 30014KT 4SM HZ CLR M37/M41 A3008 RMK SLP188,CYUX,2015-02-22T06:00:00Z,68.77,-81.25,-37.0,-41.0,300,14,,4.0,30.079725,1018.8,,TRUE,,,,,,,HZ,CLR,,,,,,,,MVFR,,,,,,,,,,,,METAR,8.0
CYUB 220600Z 05002KT 2SM BR BKN002 M18/M22 A3001 RMK ST3 -14.2/-19.6/0/25 TRACE LOOSE LAST OBS/NEXT 221400UTC SLP162,CYUB,2015-02-22T06:00:00Z,69.45,-133.02,-18.0,-22.0,50,2,,2.0,30.008858,1016.2,,,,,,,,,BR,BKN,200,,,,,,,LIFR,,,,,,,,,,,,METAR,5.0
CYSM 220600Z 14008KT 15SM SKC M23/M27 A3042 RMK AURBO SLP332,CYSM,2015-02-22T06:00:00Z,60.03,-111.97,-23.0,-27.0,140,8,,15.0,30.41929,1033.2,,,,,,,,,,SKC,,,,,,,,VFR,,,,,,,,,,,,METAR,203.0
CYSF 220600Z AUTO 13002KT 9SM CLR M37/M41 A3059 RMK SLP405,CYSF,2015-02-22T06:00:00Z,59.25,-105.82,-37.0,-41.0,130,2,,9.0,30.590551,1040.5,,TRUE,,,,,,,,CLR,,,,,,,,VFR,,,,,,,,,,,,METAR,250.0
CYQV 220600Z AUTO 27009KT 9SM CLR M30/M34 A3060 RMK SLP427,CYQV,2015-02-22T06:00:00Z,51.27,-102.47,-30.0,-34.0,270,9,,9.0,30.59941,1042.7,,TRUE,,,,,,,,CLR,,,,,,,,VFR,,,,,,,,,,,,METAR,498.0
CYPE 220600Z 00000KT 15SM BKN250 M09/M11 A3033 RMK CI6 SLP314,CYPE,2015-02-22T06:00:00Z,56.22,-117.45,-9.0,-11.0,0,0,,15.0,30.33071,1031.4,,,,,,,,,,BKN,25000,,,,,,,VFR,,,,,,,,,,,,METAR,571.0
CYOD 220600Z 16003KT 15SM FEW240 M25/M29 A3056 RMK CI1 FROIN SLP412,CYOD,2015-02-22T06:00:00Z,54.4,-110.28,-25.0,-29.0,160,3,,15.0,30.561024,1041.2,,,,,,,,,,FEW,24000,,,,,,,VFR,,,,,,,,,,,,METAR,544.0
CYIO 220600Z AUTO 22007KT 9SM CLR M35/M39 A2986 RMK SLP125,CYIO,2015-02-22T06:00:00Z,72.67,-77.97,-35.0,-39.0,220,7,,9.0,29.861221,1012.5,,TRUE,,,,,,,,CLR,,,,,,,,VFR,,,,,,,,,,,,METAR,57.0
CYED 220600Z AUTO 19004KT 9SM CLR M16/M22 A3049 RMK SLP385,CYED,2015-02-22T06:00:00Z,53.67,-113.47,-16.0,-22.0,190,4,,9.0,30.490158,1038.5,,TRUE,,,,,,,,CLR,,,,,,,,VFR,,,,,,,,,,,,METAR,688.0
CYCY 220600Z AUTO 28017KT 9SM CLR M27/M32 A2973 RMK SLP071,CYCY,2015-02-22T06:00:00Z,70.47,-68.52,-27.0,-32.0,280,17,,9.0,29.731298,1007.1,,TRUE,,,,,,,,CLR,,,,,,,,VFR,,,,,,,,,,,,METAR,26.0
CYBW 220600Z AUTO 31003KT 9SM CLR M17/M19 A3043 RMK SLP400,CYBW,2015-02-22T06:00:00Z,51.1,-114.37,-17.0,-19.0,310,3,,9.0,30.431103,1040.0,,TRUE,,,,,,,,CLR,,,,,,,,VFR,,,,,,,,,,,,METAR,1200.0
CWVD 220600Z AUTO 30011KT M27/ A2950 RMK SLP082,CWVD,2015-02-22T06:00:00Z,67.52,-63.77,-27.0,,300,11,,,29.500984,1008.2,,TRUE,,,,,,,,,,,,,,,,,,,,,,,,,,,,METAR,573.0
CWRF 220600Z AUTO ///// M34/ A2996 RMK SLP212,CWRF,2015-02-22T06:00:00Z,69.42,-89.72,-34.0,,,,,,29.958662,1021.2,,TRUE,,,,,,,,,,,,,,,,,,,,,,,,,,,,METAR,325.0
CZVL 220600Z AUTO 18008KT 9SM CLR M16/M19 A3048 RMK SLP383,CZVL,2015-02-22T06:00:00Z,53.67,-113.85,-16.0,-19.0,180,8,,9.0,30.481298,1038.3,,TRUE,,,,,,,,CLR,,,,,,,,VFR,,,,,,,,,,,,METAR,686.0
CYZH 220600Z AUTO 08008KT 9SM SCT170 M14/M18 A3043 RMK SLP358,CYZH,2015-02-22T06:00:00Z,55.28,-114.77,-14.0,-18.0,80,8,,9.0,30.431103,1035.8,,TRUE,,,,,,,,SCT,17000,,,,,,,VFR,,,,,,,,,,,,METAR,581.0
CYYN 220600Z AUTO 32003KT 9SM CLR M25/M27 A3054 RMK SLP421,CYYN,2015-02-22T06:00:00Z,50.27,-107.67,-25.0,-27.0,320,3,,9.0,30.540354,1042.1,,TRUE,,,,,,,,CLR,,,,,,,,VFR,,,,,,,,,,,,METAR,818.0
CYYL 220600Z AUTO 30007KT 9SM CLR M33/M37 A3055 RMK SLP404,CYYL,2015-02-22T06:00:00Z,56.87,-101.07,-33.0,-37.0,300,7,,9.0,30.549213,1040.4,,TRUE,,,,,,,,CLR,,,,,,,,VFR,,,,,,,,,,,,METAR,357.0
CYXD 220600Z AUTO 17004KT 9SM CLR M15/M20 A3050 RMK SLP386,CYXD,2015-02-22T06:00:00Z,53.57,-113.52,-15.0,-20.0,170,4,,9.0,30.499016,1038.6,,TRUE,,,,,,,,CLR,,,,,,,,VFR,,,,,,,,,,,,METAR,671.0
CYVC 220600Z VRB02KT 15SM SKC M32/M35 A3064 RMK SLP429,CYVC,2015-02-22T06:00:00Z,55.15,-105.27,-32.0,-35.0,0,2,,15.0,30.640747,1042.9,,,,,,,,,,SKC,,,,,,,,VFR,,,,,,,,,,,,METAR,379.0
CYQW 220600Z AUTO 15002KT 9SM CLR M26/M28 A3064 RMK SLP444,CYQW,2015-02-22T06:00:00Z,52.77,-108.25,-26.0,-28.0,150,2,,9.0,30.640747,1044.4,,TRUE,,,,,,,,CLR,,,,,,,,VFR,,,,,,,,,,,,METAR,548.0
CYQR 220600Z 29006KT 15SM SKC M31/M34 A3062 RMK SLP443,CYQR,2015-02-22T06:00:00Z,50.43,-104.67,-31.0,-34.0,290,6,,15.0,30.620079,1044.3,,,,,,,,,,SKC,,,,,,,,VFR,,,,,,,,,,,,METAR,577.0
CYQL 220600Z AUTO 22006KT 9SM CLR M17/M19 A3054 RMK SLP419,CYQL,2015-02-22T06:00:00Z,49.63,-112.8,-17.0,-19.0,220,6,,9.0,30.540354,1041.9,,TRUE,,,,,,,,CLR,,,,,,,,VFR,,,,,,,,,,,,METAR,929.0
CYQF 220600Z 20003KT 15SM SKC M19/M21 A3048 RMK SLP400,CYQF,2015-02-22T06:00:00Z,52.17,-113.9,-19.0,-21.0,200,3,,15.0,30.481298,1040.0,,,,,,,,,,SKC,,,,,,,,VFR,,,,,,,,,,,,METAR,905.0
CYPY 220600Z AUTO 09005KT 9SM CLR M25/M29 A3048 RMK SLP355,CYPY,2015-02-22T06:00:00Z,58.77,-111.12,-25.0,-29.0,90,5,,9.0,30.481298,1035.5,,TRUE,,,,,,,,CLR,,,,,,,,VFR,,,,,,,,,,,,METAR,232.0
CYPA 220600Z 00000KT 15SM SKC M33/M37 A3066 RMK SLP443,CYPA,2015-02-22T06:00:00Z,53.22,-105.67,-33.0,-37.0,0,0,,15.0,30.661417,1044.3,,,,,,,,,,SKC,,,,,,,,VFR,,,,,,,,,,,,METAR,428.0
CYOJ 220600Z AUTO VRB02KT 9SM BKN013 BKN150 BKN170 OVC190 M16/M17 A3032 RMK SLP304,CYOJ,2015-02-22T06:00:00Z,58.62,-117.17,-16.0,-17.0,0,2,,9.0,30.318897,1030.4,,TRUE,,,,,,,,BKN,1300,BKN,15000,BKN,17000,OVC,19000,MVFR,,,,,,,,,,,,METAR,338.0
CYNE 220600Z AUTO 32005KT 9SM CLR M30/M34 A3058 RMK SLP393,CYNE,2015-02-22T06:00:00Z,53.97,-97.82,-30.0,-34.0,320,5,,9.0,30.578741,1039.3,,TRUE,,,,,,,,CLR,,,,,,,,VFR,,,,,,,,,,,,METAR,223.0
CYMM 220600Z AUTO 09005KT 9SM SCT140 SCT170 SCT190 M21/M24 A3052 RMK SLP379,CYMM,2015-02-22T06:00:00Z,56.65,-111.22,-21.0,-24.0,90,5,,9.0,30.519686,1037.9,,TRUE,,,,,,,,SCT,14000,SCT,17000,SCT,19000,,,VFR,,,,,,,,,,,,METAR,369.0
CYLL 220600Z AUTO 24008KT 9SM FEW240 M24/M27 A3055 RMK SLP421,CYLL,2015-02-22T06:00:00Z,53.32,-110.07,-24.0,-27.0,240,8,,9.0,30.549213,1042.1,,TRUE,,,,,,,,FEW,24000,,,,,,,VFR,,,,,,,,,,,,METAR,669.0
CYKJ 220600Z AUTO 21004KT 9SM CLR M36/M40 A3049 RMK SLP408,CYKJ,2015-02-22T06:00:00Z,57.25,-105.62,-36.0,-40.0,210,4,,9.0,30.490158,1040.8,,TRUE,,,,,,,,CLR,,,,,,,,VFR,,,,,,,,,,,,METAR,509.0
CYGX 220600Z 32010KT 15SM SKC M31/M36 A3048 RMK SLP346,CYGX,2015-02-22T06:00:00Z,56.35,-94.7,-31.0,-36.0,320,10,,15.0,30.481298,1034.6,,,,,,,,,,SKC,,,,,,,,VFR,,,,,,,,,,,,METAR,145.0
UAKD 220600Z 20004MPS 7000 NSC M09/M13 Q1023 R04/92//50 NOSIG RMK QFE734/0978,UAKD,2015-02-22T06:00:00Z,47.7,67.73,-9.0,-13.0,200,8,,4.35,30.206694,,,,,,TRUE,,,,,,,,,,,,,,,,,,,,,,,,,SPECI,381.0
TNCB 220600Z AUTO 05012KT 020V080 //// ////// 26/23 Q1014 NOSIG,TNCB,2015-02-22T06:00:00Z,12.13,-68.28,26.0,23.0,50,12,,,29.940945,,,TRUE,,,TRUE,,,,,,,,,,,,,,,,,,,,,,,,,METAR,6.0
TNCE 220600Z AUTO 05015KT //// ////// ///// Q1018,TNCE,2015-02-22T06:00:00Z,17.47,-62.97,,,50,15,,,30.059055,,,TRUE,,,,,,,,,,,,,,,,,,,,,,,,,,,,METAR,39.0
TNCC 220600Z 10011KT 9999 SCT016 26/22 Q1014 NOSIG,TNCC,2015-02-22T06:00:00Z,12.2,-68.97,26.0,22.0,100,11,,6.21,29.940945,,,,,,TRUE,,,,,SCT,1600,,,,,,,VFR,,,,,,,,,,,,METAR,9.0
SASA 220600 00000KT 80000 FEW010 BKN018 OVC100 16/16 Q1023,SASA,2015-02-22T06:00:00Z,-24.85,-65.47,16.0,16.0,0,0,,0.0,30.206694,,,,,,,,,,,FEW,1000,BKN,1800,OVC,10000,,,LIFR,,,,,,,,,,,,METAR,1216.0
WIHH 220600Z 28012KT 6000 FEW017 32/22 Q1009 NOSIG,WIHH,2015-02-22T06:00:00Z,-6.25,106.88,32.0,22.0,280,12,,3.73,29.793306,,,,,,TRUE,,,,,FEW,1700,,,,,,,MVFR,,,,,,,,,,,,METAR,25.0
SBUR 220600Z 04006KT CAVOK 23/16 Q1018,SBUR,2015-02-22T06:00:00Z,-19.77,-47.97,23.0,16.0,40,6,,6.21,30.059055,,,,,,,,,,,CAVOK,,,,,,,,VFR,,,,,,,,,,,,METAR,807.0
SBUL 220600Z 08007KT CAVOK 21/15 Q1019,SBUL,2015-02-22T06:00:00Z,-18.87,-48.22,21.0,15.0,80,7,,6.21,30.088583,,,,,,,,,,,CAVOK,,,,,,,,VFR,,,,,,,,,,,,METAR,922.0
SBSR 220600Z 00000KT CAVOK 25/19 Q1017,SBSR,2015-02-22T06:00:00Z,-20.8,-49.4,25.0,19.0,0,0,,6.21,30.029528,,,,,,,,,,,CAVOK,,,,,,,,VFR,,,,,,,,,,,,METAR,543.0
SBSC 220600Z 02002KT CAVOK 24/21 Q1015,SBSC,2015-02-22T06:00:00Z,-22.92,-43.72,24.0,21.0,20,2,,6.21,29.970472,,,,,,,,,,,CAVOK,,,,,,,,VFR,,,,,,,,,,,,METAR,3.0
SBME 220600Z 08001KT CAVOK 23/23 Q1017,SBME,2015-02-22T06:00:00Z,-22.35,-41.77,23.0,23.0,80,1,,6.21,30.029528,,,,,,,,,,,CAVOK,,,,,,,,VFR,,,,,,,,,,,,METAR,2.0
SBDN 220600Z 12010KT CAVOK 24/20 Q1016,SBDN,2015-02-22T06:00:00Z,-22.18,-51.43,24.0,20.0,120,10,,6.21,30.0,,,,,,,,,,,CAVOK,,,,,,,,VFR,,,,,,,,,,,,METAR,435.0
SBBU 220600Z 14008KT CAVOK 23/22 Q1018,SBBU,2015-02-22T06:00:00Z,-22.32,-49.07,23.0,22.0,140,8,,6.21,30.059055,,,,,,,,,,,CAVOK,,,,,,,,VFR,,,,,,,,,,,,METAR,590.0
SBAF 220600Z 10002KT CAVOK 27/19 Q1015,SBAF,2015-02-22T06:00:00Z,-22.87,-43.37,27.0,19.0,100,2,,6.21,29.970472,,,,,,,,,,,CAVOK,,,,,,,,VFR,,,,,,,,,,,,METAR,34.0
OTHH 220600Z 26006KT 230V010 5000 DU NSC 19/04 Q1017 NOSIG,OTHH,2015-02-22T06:00:00Z,25.25,51.6,19.0,4.0,260,6,,3.11,30.029528,,,,,,TRUE,,,,DU,,,,,,,,,,,,,,,,,,,,,METAR,0.0
OBBI 220600Z 28013KT 3000 DU SKC 17/02 Q1018 BECMG 1500,OBBI,2015-02-22T06:00:00Z,26.27,50.63,17.0,2.0,280,13,,1.86,30.059055,,,,,,,,,,DU,SKC,,,,,,,,IFR,,,,,,,,,,,,METAR,2.0
LPLA 220600Z /////KT 9999 FEW016 BKN020 14/12 Q1034,LPLA,2015-02-22T06:00:00Z,38.77,-27.1,14.0,12.0,,,,6.21,30.531496,,,,,,,,,,,FEW,1600,BKN,2000,,,,,MVFR,,,,,,,,,,,,METAR,55.0
LPBJ 220600Z 31008KT CAVOK 06/05 Q1018,LPBJ,2015-02-22T06:00:00Z,38.08,-7.93,6.0,5.0,310,8,,6.21,30.059055,,,,,,,,,,,CAVOK,,,,,,,,VFR,,,,,,,,,,,,METAR,247.0
DAOI 220600Z 32008KT 9999 BKN026 FEW030CB 10/02 Q1009,DAOI,2015-02-22T06:00:00Z,36.22,1.32,10.0,2.0,320,8,,6.21,29.793306,,,,,,,,,,,BKN,2600,FEW,3000,,,,,MVFR,,,,,,,,,,,,METAR,143.0
RPLB 220600Z 09006KT 9999 FEW020 BKN300 32/14 Q1012 NOSIG,RPLB,2015-02-22T06:00:00Z,14.8,120.27,32.0,14.0,90,6,,6.21,29.88189,,,,,,TRUE,,,,,FEW,2000,BKN,30000,,,,,VFR,,,,,,,,,,,,METAR,17.0
FVTL 220600Z 09005KT 9999 FEW020 21/16 Q1021,FVTL,2015-02-22T06:00:00Z,-19.43,29.85,21.0,16.0,90,5,,6.21,30.147638,,,,,,,,,,,FEW,2000,,,,,,,VFR,,,,,,,,,,,,METAR,1429.0
FNGI 220600Z 27004KT CAVOK 23/14 Q1014,FNGI,2015-02-22T06:00:00Z,-17.05,15.68,23.0,14.0,270,4,,6.21,29.940945,,,,,,,,,,,CAVOK,,,,,,,,VFR,,,,,,,,,,,,METAR,1087.0
SBKG 220600Z 00000KT 9999 FEW018 23/20 Q1014,SBKG,2015-02-22T06:00:00Z,-7.27,-35.87,23.0,20.0,0,0,,6.21,29.940945,,,,,,,,,,,FEW,1800,,,,,,,VFR,,,,,,,,,,,,METAR,560.0
SBJU 220600Z 08003KT 9999 FEW010 SCT018 BKN070 22/21 Q1015,SBJU,2015-02-22T06:00:00Z,-7.22,-39.27,22.0,21.0,80,3,,6.21,29.970472,,,,,,,,,,,FEW,1000,SCT,1800,BKN,7000,,,VFR,,,,,,,,,,,,METAR,409.0
SBIL 220600Z 13012KT 8000 VCSH SCT018 SCT030 BKN070 27/23 Q1013 RETS,SBIL,2015-02-22T06:00:00Z,-14.8,-39.02,27.0,23.0,130,12,,4.97,29.911417,,,,,,,,,,VCSH,SCT,1800,SCT,3000,BKN,7000,,,MVFR,,,,,,,,,,,,METAR,5.0
CWNL 220600Z AUTO 32008G15KT M11/M15 RMK AO1 SLP205 T11121150 53017,CWNL,2015-02-22T06:00:00Z,45.62,-82.97,-11.2,-15.0,320,8,15,,,1020.5,,TRUE,TRUE,,,,,,,,,,,,,,,,1.7,,,,,,,,,,,METAR,183.0
CWMZ 220600Z AUTO 26012KT M07/M09 RMK AO1 SLP187 T10651089 52010,CWMZ,2015-02-22T06:00:00Z,45.02,-80.37,-6.5,-8.9,260,12,,,,1018.7,,TRUE,TRUE,,,,,,,,,,,,,,,,1.0,,,,,,,,,,,METAR,191.0
CXVW 220600Z AUTO 14011KT M08/M09 RMK AO1 T10821094,CXVW,2015-02-22T06:00:00Z,55.1,-117.2,-8.2,-9.4,140,11,,,,,,TRUE,TRUE,,,,,,,,,,,,,,,,,,,,,,,,,,,METAR,698.0
CWZN 220600Z AUTO 00025KT M04/M10 RMK AO1 SLP322 T10421101 51013,CWZN,2015-02-22T06:00:00Z,47.37,-55.8,-4.2,-10.1,0,25,,,,1032.2,,TRUE,TRUE,,,,,,,,,,,,,,,,1.3,,,,,,,,,,,METAR,64.0
UHPP 220600Z 28006MPS 9999 NSC M05/M19 Q1015 NOSIG RMK QFE757/1010 SC070,UHPP,2015-02-22T06:00:00Z,53.17,158.45,-5.0,-19.0,280,12,,6.21,29.970472,,,,,,TRUE,,,,,,,,,,,,,,,,,,,,,,,,,METAR,40.0
UHMA 220600Z 32004MPS 2000 SN BKN007 OVC080 M18/M20 Q1004 NOSIG RMK QBB210 QFE749/0999,UHMA,2015-02-22T06:00:00Z,64.73,177.73,-18.0,-20.0,320,8,,1.24,29.64567,,,,,,TRUE,,,,SN,BKN,700,OVC,8000,,,,,IFR,,,,,,,,,,,,METAR,62.0
DAUL 220600Z 32022KT 9999 BKN026 04/01 Q1006,DAUL,2015-02-22T06:00:00Z,33.77,2.92,4.0,1.0,320,22,,6.21,29.704725,,,,,,,,,,,BKN,2600,,,,,,,MVFR,,,,,,,,,,,,METAR,765.0
VTSM 220600Z 13012KT 9999 FEW020 BKN300 31/22 Q1014 A2994,VTSM,2015-02-22T06:00:00Z,9.55,100.07,31.0,22.0,130,12,,6.21,29.940945,,,,,,,,,,,FEW,2000,BKN,30000,,,,,VFR,,,,,,,,,,,,METAR,17.0
VTSH 220600Z 06008KT 9999 FEW020 BKN300 30/24 Q1012 A2989,VTSH,2015-02-22T06:00:00Z,7.2,100.58,30.0,24.0,60,8,,6.21,29.88189,,,,,,,,,,,FEW,2000,BKN,30000,,,,,VFR,,,,,,,,,,,,METAR,5.0
VTSG 220600Z 04007KT 9999 CAVOK 33/18 Q1012 A2989,VTSG,2015-02-22T06:00:00Z,8.1,98.98,33.0,18.0,40,7,,6.21,29.88189,,,,,,,,,,,CAVOK,,,,,,,,VFR,,,,,,,,,,,,METAR,25.0
VTSF 220600Z 06008KT 360V100 9999 FEW020 31/23 Q1012 A2990 INFO G / RWY 19,VTSF,2015-02-22T06:00:00Z,8.53,99.95,31.0,23.0,60,8,,6.21,29.88189,,,,,,,,,,,FEW,2000,,,,,,,VFR,,,,,,,,,,,,METAR,4.0
VTSB 220600Z 06010KT 9999 SCT020 31/23 Q1012 A2989,VTSB,2015-02-22T06:00:00Z,9.12,99.13,31.0,23.0,60,10,,6.21,29.88189,,,,,,,,,,,SCT,2000,,,,,,,VFR,,,,,,,,,,,,METAR,11.0
FXMM 220600Z 00000KT CAVOK 16/12 Q1023 NOSIG,FXMM,2015-02-22T06:00:00Z,-29.47,27.55,16.0,12.0,0,0,,6.21,30.206694,,,,,,TRUE,,,,,CAVOK,,,,,,,,VFR,,,,,,,,,,,,METAR,1631.0
VTSR 220600Z 10007KT 030V170 9999 34/20 Q1011 A2987 VOR/DME RWY02 INFO N,VTSR,2015-02-22T06:00:00Z,9.78,98.58,34.0,20.0,100,7,,6.21,29.852362,,,,,,,,,,,,,,,,,,,,,,,,,,,,,,,SPECI,8.0
FTTD 220600Z 00000KT CAVOK 25/09 Q1010,FTTD,2015-02-22T06:00:00Z,8.62,16.07,25.0,9.0,0,0,,6.21,29.822834,,,,,,,,,,,CAVOK,,,,,,,,VFR,,,,,,,,,,,,METAR,422.0
OTBD 220600Z 25006KT 200V280 5000 FU NSC 19/13 Q1018 NOSIG,OTBD,2015-02-22T06:00:00Z,25.25,51.57,19.0,13.0,250,6,,3.11,30.059055,,,,,,TRUE,,,,FU,,,,,,,,,,,,,,,,,,,,,METAR,10.0
HKNY 220600Z 00000KT CAVOK 18/13 Q1024,HKNY,2015-02-22T06:00:00Z,-0.07,37.02,18.0,13.0,0,0,,6.21,30.236221,,,,,,,,,,,CAVOK,,,,,,,,VFR,,,,,,,,,,,,METAR,1905.0
FCPP 220600Z VRB01KT 4000 BR FEW010 BKN023 26/25 Q1010 BECMG 6000 NSW,FCPP,2015-02-22T06:00:00Z,-4.82,11.9,26.0,25.0,0,1,,2.49,29.822834,,,,,,,,,,BR,FEW,1000,BKN,2300,,,,,IFR,,,,,,,,,,,,METAR,17.0
DATM 220600Z 32010KT 5000 NSC 11/M02 Q1017,DATM,2015-02-22T06:00:00Z,21.38,0.92,11.0,-2.0,320,10,,3.11,30.029528,,,,,,,,,,,,,,,,,,,,,,,,,,,,,,,METAR,396.0
CXWM 220600Z AUTO 19004KT M18/M19 RMK AO1 T11771193 50004,CXWM,2015-02-22T06:00:00Z,49.5,-112.12,-17.7,-19.3,190,4,,,,,,TRUE,TRUE,,,,,,,,,,,,,,,,0.4,,,,,,,,,,,METAR,944.0
CZSM 220600Z AUTO 12003KT M23/M27 RMK AO1 SOG 42 7024 SLP327 T12311273,CZSM,2015-02-22T06:00:00Z,60.03,-111.93,-23.1,-27.3,120,3,,,,1032.7,,TRUE,TRUE,,,,,,,,,,,,,,,,,,,,,,,,,,,METAR,203.0
CPFI 220600Z AUTO 18005KT M15/M17 RMK AO1 T11451167,CPFI,2015-02-22T06:00:00Z,49.8,-112.03,-14.5,-16.7,180,5,,,,,,TRUE,TRUE,,,,,,,,,,,,,,,,,,,,,,,,,,,METAR,833.0
CXTH 220600Z AUTO 17006KT M20/M22 RMK AO1 T12031224 50005,CXTH,2015-02-22T06:00:00Z,53.63,-111.68,-20.3,-22.4,170,6,,,,,,TRUE,TRUE,,,,,,,,,,,,,,,,0.5,,,,,,,,,,,METAR,678.0
CXFM 220600Z AUTO 26002KT M21/M24 RMK AO1 T12111236,CXFM,2015-02-22T06:00:00Z,49.48,-111.48,-21.1,-23.6,260,2,,,,,,TRUE,TRUE,,,,,,,,,,,,,,,,,,,,,,,,,,,METAR,881.0
CXDB 220600Z AUTO 23008KT M19/M21 RMK AO1 T11921210,CXDB,2015-02-22T06:00:00Z,49.05,-112.82,-19.2,-21.0,230,8,,,,,,TRUE,TRUE,,,,,,,,,,,,,,,,,,,,,,,,,,,METAR,1310.0
CXAK 220600Z AUTO 19011KT M20/M22 RMK AO1 T12021224,CXAK,2015-02-22T06:00:00Z,52.35,-112.6,-20.2,-22.4,190,11,,,,,,TRUE,TRUE,,,,,,,,,,,,,,,,,,,,,,,,,,,METAR,795.0
CPRO 220600Z AUTO 18006KT M23/M25 RMK AO1 T12321251 50004,CPRO,2015-02-22T06:00:00Z,50.83,-112.05,-23.2,-25.1,180,6,,,,,,TRUE,TRUE,,,,,,,,,,,,,,,,0.4,,,,,,,,,,,METAR,714.0
FCBB 220600Z 36003KT 8000 -TSRA FEW010 SCT016 FEW030CB 24/23 Q1013 BECMG 4000 TSRA,FCBB,2015-02-22T06:00:00Z,-4.25,15.25,24.0,23.0,360,3,,4.97,29.911417,,,,,,,,,,-TSRA,FEW,1000,SCT,1600,FEW,3000,,,MVFR,,,,,,,,,,,,METAR,316.0
FEFF 220600Z 00000KT 9999 SCT013 BKN150 25/24 Q1010 BECMG BKN007,FEFF,2015-02-22T06:00:00Z,4.4,18.52,25.0,24.0,0,0,,6.21,29.822834,,,,,,,,,,,SCT,1300,BKN,15000,,,,,VFR,,,,,,,,,,,,METAR,366.0
UUBP 220600Z 18006G09MPS 9999 OVC032 M00/M05 Q1015 NOSIG 16SCRD60 RMK QFE743,UUBP,2015-02-22T06:00:00Z,53.22,34.18,0.0,-5.0,180,12,17,6.21,29.970472,,,,,,TRUE,,,,,OVC,3200,,,,,,,VFR,,,,,,,,,,,,METAR,202.0
FWCL 220600Z 14003KT 9999 FEW025CB 26/21 Q1016 NOSIG,FWCL,2015-02-22T06:00:00Z,-15.67,34.97,26.0,21.0,140,3,,6.21,30.0,,,,,,TRUE,,,,,FEW,2500,,,,,,,VFR,,,,,,,,,,,,METAR,767.0
GUCY 220600Z VRB02KT 9999 FEW015 25/22 Q1010 NOSIG,GUCY,2015-02-22T06:00:00Z,9.57,-13.62,25.0,22.0,0,2,,6.21,29.822834,,,,,,TRUE,,,,,FEW,1500,,,,,,,VFR,,,,,,,,,,,,METAR,26.0
FMNN 220600Z 05004KT 9999 BKN020 30/26 Q1013,FMNN,2015-02-22T06:00:00Z,-13.32,48.32,30.0,26.0,50,4,,6.21,29.911417,,,,,,,,,,,BKN,2000,,,,,,,MVFR,,,,,,,,,,,,METAR,9.0
MKJS 220600Z 10010KT 9999 FEW020 24/23 Q1016,MKJS,2015-02-22T06:00:00Z,18.5,-77.92,24.0,23.0,100,10,,6.21,30.0,,,,,,,,,,,FEW,2000,,,,,,,VFR,,,,,,,,,,,,METAR,1.0
UWOR 220600Z 28007MPS 7000 BKN013 OVC100 M09/M11 Q1024 25850250 NOSIG RMK QFE744/0993,UWOR,2015-02-22T06:00:00Z,51.07,58.6,-9.0,-11.0,280,14,,4.35,30.236221,,,,,,TRUE,,,,,BKN,1300,OVC,10000,,,,,MVFR,,,,,,,,,,,,METAR,277.0
UWLW 220600Z 19003MPS 5000 BR OVC013 M02/M02 Q1022 20800250 NOSIG RMK QFE761,UWLW,2015-02-22T06:00:00Z,54.4,48.8,-2.0,-2.0,190,6,,3.11,30.177166,,,,,,TRUE,,,,BR,OVC,1300,,,,,,,MVFR,,,0.0,,,,,,,,,METAR,66.0
UUMO 220600Z 21004MPS 9999 SCT030 BKN100 01/M01 Q1013 NOSIG RMK QFE744/0992 26290050,UUMO,2015-02-22T06:00:00Z,55.52,37.5,1.0,-1.0,210,8,,6.21,29.911417,,,,,,TRUE,,,,,SCT,3000,BKN,10000,,,,,VFR,,,,,,,,,,,,METAR,174.0
CWZV 220600Z AUTO 04005KT 08/05 RMK AO1 SLP315 T00750052 51005,CWZV,2015-02-22T06:00:00Z,51.93,-131.02,7.5,5.2,40,5,,,,1031.5,,TRUE,TRUE,,,,,,,,,,,,,,,,0.5,,,,,,,,,,,METAR,92.0
CWZL 220600Z AUTO 20003KT 08/05 RMK AO1 SLP327 T00770050 51005,CWZL,2015-02-22T06:00:00Z,53.03,-131.6,7.7,5.0,200,3,,,,1032.7,,TRUE,TRUE,,,,,,,,,,,,,,,,0.5,,,,,,,,,,,METAR,17.0
CXSC 220600Z AUTO 26004KT M20/M22 RMK AO1 T11961221,CXSC,2015-02-22T06:00:00Z,50.3,-110.08,-19.6,-22.1,260,4,,,,,,TRUE,TRUE,,,,,,,,,,,,,,,,,,,,,,,,,,,METAR,800.0
CWHP 220600Z AUTO 20011KT M08/M09 RMK AO1 SLP265 T10751088 58012,CWHP,2015-02-22T06:00:00Z,49.07,-61.7,-7.5,-8.8,200,11,,,,1026.5,,TRUE,TRUE,,,,,,,,,,,,,,,,-1.2,,,,,,,,,,,METAR,4.0
CWWX 220600Z AUTO 34013KT M09/M12 RMK AO1 PK WND 34017/0545 SLP191 T10901124 51018,CWWX,2015-02-22T06:00:00Z,45.32,-81.73,-9.0,-12.4,340,13,,,,1019.1,,TRUE,TRUE,,,,,,,,,,,,,,,,1.8,,,,,,,,,,,METAR,181.0
CWND 220600Z AUTO 00000KT M18/M20 RMK AO1 SLP119 T11781197 58019,CWND,2015-02-22T06:00:00Z,69.63,-135.43,-17.8,-19.7,0,0,,,,1011.9,,TRUE,TRUE,,,,,,,,,,,,,,,,-1.9,,,,,,,,,,,METAR,12.0
CXTV 220600Z AUTO 04004KT M14/M15 RMK AO1 SLP153 T11381149 56013,CXTV,2015-02-22T06:00:00Z,68.75,-133.5,-13.8,-14.9,40,4,,,,1015.3,,TRUE,TRUE,,,,,,,,,,,,,,,,-1.3,,,,,,,,,,,METAR,85.0
CWCF 220600Z AUTO 30005KT M31/M35 RMK AO1 SOG 17 1014 SLP389 T13121350,CWCF,2015-02-22T06:00:00Z,52.35,-97.03,-31.2,-35.0,300,5,,,,1038.9,,TRUE,TRUE,,,,,,,,,,,,,,,,,,,,,,,,,,,METAR,222.0
CWAQ 220600Z AUTO 32007KT M25/M28 RMK AO1 SOG 01 0014 SLP410 T12471275,CWAQ,2015-02-22T06:00:00Z,49.05,-105.48,-24.7,-27.5,320,7,,,,1041.0,,TRUE,TRUE,,,,,,,,,,,,,,,,,,,,,,,,,,,METAR,756.0
CWJU 220600Z AUTO 15008KT 07/03 RMK AO1 SLP315 T00700033 53002,CWJU,2015-02-22T06:00:00Z,54.25,-133.07,7.0,3.3,150,8,,,,1031.5,,TRUE,TRUE,,,,,,,,,,,,,,,,0.2,,,,,,,,,,,METAR,41.0
CXPA 220600Z AUTO 10006KT M08/M10 RMK AO1 T10841096,CXPA,2015-02-22T06:00:00Z,55.62,-118.3,-8.4,-9.6,100,6,,,,,,TRUE,TRUE,,,,,,,,,,,,,,,,,,,,,,,,,,,METAR,621.0
CXOY 220600Z AUTO 32003KT M21/M24 RMK AO1 T12111241 50004,CXOY,2015-02-22T06:00:00Z,51.38,-110.35,-21.1,-24.1,320,3,,,,,,TRUE,TRUE,,,,,,,,,,,,,,,,0.4,,,,,,,,,,,METAR,767.0
CXKM 220600Z AUTO 23005KT M21/M23 RMK AO1 T12131234 50010,CXKM,2015-02-22T06:00:00Z,52.82,-111.85,-21.3,-23.4,230,5,,,,,,TRUE,TRUE,,,,,,,,,,,,,,,,1.0,,,,,,,,,,,METAR,675.0
LRCT 220600Z VRB03KT 2000 BR BKN100 M00/M01 Q1011 YLO GRN,LRCT,2015-02-22T06:00:00Z,46.5,23.88,0.0,-1.0,0,3,,1.24,29.852362,,,,,,,,,,BR,BKN,10000,,,,,,,IFR,,,,,,,,,,,,METAR,331.0
GMTN 220600Z AUTO 29011G22KT 250V320 R24///// /// 13/08 Q1015,GMTN,2015-02-22T06:00:00Z,35.57,-5.32,13.0,8.0,290,11,22,,29.970472,,,TRUE,,,,,,,,,,,,,,,,,,,,,,,,,,,,METAR,10.0
GMMZ 220600Z 28010KT CAVOK 09/M08 Q1014 NOSIG,GMMZ,2015-02-22T06:00:00Z,30.92,-6.9,9.0,-8.0,280,10,,6.21,29.940945,,,,,,TRUE,,,,,CAVOK,,,,,,,,VFR,,,,,,,,,,,,METAR,1140.0
YABA 220600Z 19013KT 9999 BKN040 19/09 Q1017,YABA,2015-02-22T06:00:00Z,-34.93,117.8,19.0,9.0,190,13,,6.21,30.029528,,,,,,,,,,,BKN,4000,,,,,,,VFR,,,,,,,,,,,,METAR,69.0
YARG 220600Z AUTO 36012KT 9999 // SCT057 BKN072 34/20 Q1005,YARG,2015-02-22T06:00:00Z,-16.63,128.45,34.0,20.0,360,12,,6.21,29.675198,,,TRUE,,,,,,,,SCT,5700,BKN,7200,,,,,VFR,,,,,,,,,,,,METAR,165.0
CPEH 220600Z AUTO 20006KT M16/M18 RMK AO1 T11591175,CPEH,2015-02-22T06:00:00Z,50.18,-112.43,-15.9,-17.5,200,6,,,,,,TRUE,TRUE,,,,,,,,,,,,,,,,,,,,,,,,,,,METAR,801.0
CPBT 220600Z AUTO 23004KT M18/M20 RMK AO1 T11821198,CPBT,2015-02-22T06:00:00Z,49.57,-113.05,-18.2,-19.8,230,4,,,,,,TRUE,TRUE,,,,,,,,,,,,,,,,,,,,,,,,,,,METAR,980.0
YGTE 220600Z AUTO 35009KT 9999 // SCT042 34/23 Q1008,YGTE,2015-02-22T06:00:00Z,-13.97,136.45,34.0,23.0,350,9,,6.21,29.763779,,,TRUE,,,,,,,,SCT,4200,,,,,,,VFR,,,,,,,,,,,,METAR,14.0
HTZA 220600Z 02010KT 9999 FEW020 SCT080 29/24 Q1012 NOSIG,HTZA,2015-02-22T06:00:00Z,-6.22,39.22,29.0,24.0,20,10,,6.21,29.88189,,,,,,TRUE,,,,,FEW,2000,SCT,8000,,,,,VFR,,,,,,,,,,,,SPECI,15.0
HTKJ 220600Z 09015KT 9999 SCT024 24/19 Q1016 NOSIG,HTKJ,2015-02-22T06:00:00Z,-3.42,37.07,24.0,19.0,90,15,,6.21,30.0,,,,,,TRUE,,,,,SCT,2400,,,,,,,VFR,,,,,,,,,,,,SPECI,896.0
HTDA 220600Z 36010KT 9999 SCT027 BKN090 30/24 Q1012 NOSIG,HTDA,2015-02-22T06:00:00Z,-6.88,39.2,30.0,24.0,360,10,,6.21,29.88189,,,,,,TRUE,,,,,SCT,2700,BKN,9000,,,,,VFR,,,,,,,,,,,,SPECI,55.0
FOOG 220600Z /////KT 8000 TS SCT008 FEW020CB BKN033 28/25 Q1010,FOOG,2015-02-22T06:00:00Z,-0.7,8.75,28.0,25.0,,,,4.97,29.822834,,,,,,,,,,TS,SCT,800,FEW,2000,BKN,3300,,,MVFR,,,,,,,,,,,,METAR,4.0
FGSL 220600Z 22005KT 9999 TS SCT010 FEW020CB 26/25 Q1010 NOSIG,FGSL,2015-02-22T06:00:00Z,3.75,8.72,26.0,25.0,220,5,,6.21,29.822834,,,,,,TRUE,,,,TS,SCT,1000,FEW,2000,,,,,VFR,,,,,,,,,,,,SPECI,56.0
FLKK 220600Z 10006KT CAVOK 21/18 Q1019,FLKK,2015-02-22T06:00:00Z,-15.32,28.45,21.0,18.0,100,6,,6.21,30.088583,,,,,,,,,,,CAVOK,,,,,,,,VFR,,,,,,,,,,,,METAR,1154.0
FYWW 220600Z 10003KT 9999 VC RA FEW045CB BKN090 22/04 Q1022,FYWW,2015-02-22T06:00:00Z,-22.57,17.1,22.0,4.0,100,3,,6.21,30.177166,,,,,,,,,,VC RA,FEW,4500,BKN,9000,,,,,VFR,,,,,,,,,,,,METAR,1725.0
FYWH 220600Z 00000KT 9999 SCT090 19/11 Q1023 NOSIG,FYWH,2015-02-22T06:00:00Z,-22.47,17.47,19.0,11.0,0,0,,6.21,30.206694,,,,,,TRUE,,,,,SCT,9000,,,,,,,VFR,,,,,,,,,,,,METAR,1700.0
FYWE 220600Z 16010KT 9999 FEW050 23/01 Q1022,FYWE,2015-02-22T06:00:00Z,-22.62,17.08,23.0,1.0,160,10,,6.21,30.177166,,,,,,,,,,,FEW,5000,,,,,,,VFR,,,,,,,,,,,,METAR,1700.0
FYRN 220600Z 05004KT CAVOK 22/11 Q1016,FYRN,2015-02-22T06:00:00Z,-20.02,13.85,22.0,11.0,50,4,,6.21,30.0,,,,,,,,,,,CAVOK,,,,,,,,VFR,,,,,,,,,,,,METAR,756.0
FYOA 220600Z AUTO 00000KT //// // ////// 25/09 Q1014,FYOA,2015-02-22T06:00:00Z,-17.88,15.97,25.0,9.0,0,0,,,29.940945,,,TRUE,,,,,,,,,,,,,,,,,,,,,,,,,,,,METAR,1095.0
FYKT 220600Z 24010KT CAVOK 24/M02 Q1017,FYKT,2015-02-22T06:00:00Z,-26.52,18.12,24.0,-2.0,240,10,,6.21,30.029528,,,,,,,,,,,CAVOK,,,,,,,,VFR,,,,,,,,,,,,METAR,1061.0
FYKM 220600Z 00000KT CAVOK 22/15 Q1015,FYKM,2015-02-22T06:00:00Z,-17.63,24.18,22.0,15.0,0,0,,6.21,29.970472,,,,,,,,,,,CAVOK,,,,,,,,VFR,,,,,,,,,,,,METAR,958.0
FYGF 220600Z 18001KT CAVOK 23/11 Q1021,FYGF,2015-02-22T06:00:00Z,-19.6,18.12,23.0,11.0,180,1,,6.21,30.147638,,,,,,,,,,,CAVOK,,,,,,,,VFR,,,,,,,,,,,,METAR,1400.0
CWDA 220600Z AUTO 28015G22KT M09/M12 RMK AO1 PK WND 28024/0546 SLP262 T10921116 51036,CWDA,2015-02-22T06:00:00Z,50.72,-56.12,-9.2,-11.6,280,15,22,,,1026.2,,TRUE,TRUE,,,,,,,,,,,,,,,,3.6,,,,,,,,,,,METAR,29.0
CWEF 220600Z AUTO 22014G20KT M04/M11 RMK AO1 PK WND 23021/0525 SLP304 T10441110,CWEF,2015-02-22T06:00:00Z,47.22,-60.12,-4.4,-11.0,220,14,20,,,1030.4,,TRUE,TRUE,,,,,,,,,,,,,,,,,,,,,,,,,,,METAR,26.0
CWKK 220600Z AUTO 35012KT M27/M30 RMK AO1 1PAST HR SOG 14 2023 SLP281 P0000 T12731295 50032,CWKK,2015-02-22T06:00:00Z,49.72,-88.33,-27.3,-29.5,350,12,,,,1028.1,,TRUE,TRUE,,,,,,,,,,,,,,,,3.2,,,,,0.0050,,,,,,METAR,260.0
CWCI 220600Z AUTO 03005KT M15/M17 RMK AO1 SLP223 T11461171 52019,CWCI,2015-02-22T06:00:00Z,47.32,-85.82,-14.6,-17.1,30,5,,,,1022.3,,TRUE,TRUE,,,,,,,,,,,,,,,,1.9,,,,,,,,,,,METAR,187.0
CWPS 220600Z AUTO M08/M09 RMK AO1 SLP200 T10801088 53013,CWPS,2015-02-22T06:00:00Z,42.57,-80.03,-8.0,-8.8,,,,,,1020.0,,TRUE,TRUE,,,,,,,,,,,,,,,,1.3,,,,,,,,,,,METAR,175.0
HTAR 220600Z 12010KT 9999 BKN018 20/18 Q1020,HTAR,2015-02-22T06:00:00Z,-3.37,36.63,20.0,18.0,120,10,,6.21,30.11811,,,,,,,,,,,BKN,1800,,,,,,,MVFR,,,,,,,,,,,,METAR,1387.0
HTMU 220600Z 09005KT 9999 FEW022CB 25/16 Q1017,HTMU,2015-02-22T06:00:00Z,-1.5,33.78,25.0,16.0,90,5,,6.21,30.029528,,,,,,,,,,,FEW,2200,,,,,,,VFR,,,,,,,,,,,,METAR,1147.0
HTMG 220600Z 03005KT 9999 SCT024 26/21 Q1014,HTMG,2015-02-22T06:00:00Z,-6.82,37.63,26.0,21.0,30,5,,6.21,29.940945,,,,,,,,,,,SCT,2400,,,,,,,VFR,,,,,,,,,,,,METAR,526.0
HTKA 220600Z 00000KT 9999 FEW020 FEW021CB BKN090 21/19 Q1017,HTKA,2015-02-22T06:00:00Z,-4.87,29.67,21.0,19.0,0,0,,6.21,30.029528,,,,,,,,,,,FEW,2000,FEW,2100,BKN,9000,,,VFR,,,,,,,,,,,,METAR,885.0
HTIR 220600Z 00000KT 9999 FEW020 23/17 Q1020,HTIR,2015-02-22T06:00:00Z,-7.67,35.75,23.0,17.0,0,0,,6.21,30.11811,,,,,,,,,,,FEW,2000,,,,,,,VFR,,,,,,,,,,,,METAR,1428.0
HTDO 220600Z 08015KT 9999 SCT021 23/18 Q1018 NOSIG,HTDO,2015-02-22T06:00:00Z,-6.17,35.77,23.0,18.0,80,15,,6.21,30.059055,,,,,,TRUE,,,,,SCT,2100,,,,,,,VFR,,,,,,,,,,,,METAR,1120.0
HTBU 220600Z 24005KT 9999 SCT017 FEW019CB BKN090 21/19 Q1017,HTBU,2015-02-22T06:00:00Z,-1.32,31.82,21.0,19.0,240,5,,6.21,30.029528,,,,,,,,,,,SCT,1700,FEW,1900,BKN,9000,,,VFR,,,,,,,,,,,,METAR,1137.0
HTMW 220600Z 06005KT 9999 FEW025 FEW026CB 24/20 Q1015 NOSIG,HTMW,2015-02-22T06:00:00Z,-2.47,32.92,24.0,20.0,60,5,,6.21,29.970472,,,,,,TRUE,,,,,FEW,2500,FEW,2600,,,,,VFR,,,,,,,,,,,,METAR,1140.0
FWKI 220600Z 06005KT 9999 FEW009 BKN020 22/20 Q1019 NOSIG,FWKI,2015-02-22T06:00:00Z,-13.77,33.77,22.0,20.0,60,5,,6.21,30.088583,,,,,,TRUE,,,,,FEW,900,BKN,2000,,,,,MVFR,,,,,,,,,,,,METAR,1229.0
YBCV 220600Z AUTO 23012KT 9999 // SCT115 40/06 Q1007,YBCV,2015-02-22T06:00:00Z,-26.38,146.27,40.0,6.0,230,12,,6.21,29.734253,,,TRUE,,,,,,,,SCT,11500,,,,,,,VFR,,,,,,,,,,,,METAR,304.0
CXCS 220600Z AUTO 23008KT M23/M25 RMK AO1 T12281253,CXCS,2015-02-22T06:00:00Z,51.93,-110.72,-22.8,-25.3,230,8,,,,,,TRUE,TRUE,,,,,,,,,,,,,,,,,,,,,,,,,,,METAR,772.0
CXCD 220600Z AUTO 36002KT M10/M11 RMK AO1 T10971107 50004,CXCD,2015-02-22T06:00:00Z,56.32,-119.75,-9.7,-10.7,360,2,,,,,,TRUE,TRUE,,,,,,,,,,,,,,,,0.4,,,,,,,,,,,METAR,630.0
CXBA 220600Z AUTO 18005KT M24/M27 RMK AO1 T12361267,CXBA,2015-02-22T06:00:00Z,52.12,-110.1,-23.6,-26.7,180,5,,,,,,TRUE,TRUE,,,,,,,,,,,,,,,,,,,,,,,,,,,METAR,687.0
CXAJ 220600Z AUTO 23003KT M20/M22 RMK AO1 SOG 12 T11991223,CXAJ,2015-02-22T06:00:00Z,54.77,-112.82,-19.9,-22.3,230,3,,,,,,TRUE,TRUE,,,,,,,,,,,,,,,,,,,,,,,,,,,METAR,574.0
CXAG 220600Z AUTO 14003KT M26/M29 RMK AO1 T12631288,CXAG,2015-02-22T06:00:00Z,53.92,-112.28,-26.3,-28.8,140,3,,,,,,TRUE,TRUE,,,,,,,,,,,,,,,,,,,,,,,,,,,METAR,625.0
CZPS 220600Z AUTO 23011KT M14/M16 RMK AO1 T11421155,CZPS,2015-02-22T06:00:00Z,52.43,-113.6,-14.2,-15.5,230,11,,,,,,TRUE,TRUE,,,,,,,,,,,,,,,,,,,,,,,,,,,METAR,965.0
CXVM 220600Z AUTO 19003KT M26/M28 RMK AO1 T12611281,CXVM,2015-02-22T06:00:00Z,53.35,-110.88,-26.1,-28.1,190,3,,,,,,TRUE,TRUE,,,,,,,,,,,,,,,,,,,,,,,,,,,METAR,623.0
CXSP 220600Z AUTO 18001KT M27/M29 RMK AO1 T12681288,CXSP,2015-02-22T06:00:00Z,54.02,-111.27,-26.8,-28.8,180,1,,,,,,TRUE,TRUE,,,,,,,,,,,,,,,,,,,,,,,,,,,METAR,649.0
CXPL 220600Z AUTO 21003KT M22/M24 RMK AO1 T12201237,CXPL,2015-02-22T06:00:00Z,51.13,-111.7,-22.0,-23.7,210,3,,,,,,TRUE,TRUE,,,,,,,,,,,,,,,,,,,,,,,,,,,METAR,750.0
CXOL 220600Z AUTO 20008KT M16/M17 RMK AO1 T11571167,CXOL,2015-02-22T06:00:00Z,51.77,-114.08,-15.7,-16.7,200,8,,,,,,TRUE,TRUE,,,,,,,,,,,,,,,,,,,,,,,,,,,METAR,1046.0
CXMO 220600Z AUTO 19006KT M20/M21 RMK AO1 T11991212,CXMO,2015-02-22T06:00:00Z,51.67,-112.68,-19.9,-21.2,190,6,,,,,,TRUE,TRUE,,,,,,,,,,,,,,,,,,,,,,,,,,,METAR,836.0
CXMG 220600Z AUTO 15008KT M09/M10 RMK AO1 T10871095,CXMG,2015-02-22T06:00:00Z,56.97,-117.45,-8.7,-9.5,150,8,,,,,,TRUE,TRUE,,,,,,,,,,,,,,,,,,,,,,,,,,,METAR,457.0
CXHD 220600Z AUTO 21005KT M24/M26 RMK AO1 T12381258,CXHD,2015-02-22T06:00:00Z,53.18,-112.25,-23.8,-25.8,210,5,,,,,,TRUE,TRUE,,,,,,,,,,,,,,,,,,,,,,,,,,,METAR,688.0
CPRY 220600Z AUTO 22003KT M16/M17 RMK AO1 T11601172,CPRY,2015-02-22T06:00:00Z,49.48,-112.68,-16.0,-17.2,220,3,,,,,,TRUE,TRUE,,,,,,,,,,,,,,,,,,,,,,,,,,,METAR,937.0
CWBU 220600Z AUTO 25004KT M33/M37 RMK AO1 SOG 25 1009 SLP439 T13311366,CWBU,2015-02-22T06:00:00Z,53.33,-104.02,-33.1,-36.6,250,4,,,,1043.9,,TRUE,TRUE,,,,,,,,,,,,,,,,,,,,,,,,,,,SPECI,373.0
HTSU 220600Z 00000KT 9999 FEW019 FEW020CB BKN220 19/15 Q1021,HTSU,2015-02-22T06:00:00Z,-7.95,31.67,19.0,15.0,0,0,,6.21,30.147638,,,,,,,,,,,FEW,1900,FEW,2000,BKN,22000,,,VFR,,,,,,,,,,,,METAR,1804.0
HTMT 220600Z 32010KT 9999 SCT023 FEW024CB 29/24 Q1012,HTMT,2015-02-22T06:00:00Z,-10.27,40.17,29.0,24.0,320,10,,6.21,29.88189,,,,,,,,,,,SCT,2300,FEW,2400,,,,,VFR,,,,,,,,,,,,METAR,113.0
HTTB 220600Z 00000KT 9999 FEW019 24/19 Q1018,HTTB,2015-02-22T06:00:00Z,-5.07,32.82,24.0,19.0,0,0,,6.21,30.059055,,,,,,,,,,,FEW,1900,,,,,,,VFR,,,,,,,,,,,,METAR,1190.0
HTSO 220600Z 00000KT 9999 FEW022CB SCT080 22/20 1018,HTSO,2015-02-22T06:00:00Z,-10.67,35.57,22.0,20.0,0,0,,6.21,,,,,,,,,,,,FEW,2200,SCT,8000,,,,,VFR,,,,,,,,,,,,METAR,1067.0
CWOD 220600Z AUTO 12003KT M13/M14 RMK AO1 2PAST HR SOG 06 5000 SLP176 P0001 T11321135 50002,CWOD,2015-02-22T06:00:00Z,48.85,-72.55,-13.2,-13.5,120,3,,,,1017.6,,TRUE,TRUE,,,,,,,,,,,,,,,,0.2,,,,,0.01,,,,,,METAR,137.0
CWOC 220600Z AUTO 05004KT M09/M10 RMK AO1 8PAST HR 6026 SLP226 P0007 T10941102 50038,CWOC,2015-02-22T06:00:00Z,48.02,-65.32,-9.4,-10.2,50,4,,,,1022.6,,TRUE,TRUE,,,,,,,,,,,,,,,,3.8,,,,,0.07,,,,,,METAR,47.0
CWNQ 220600Z AUTO 00000KT M13/M15 RMK AO1 5001 SLP188 T11321147 50016,CWNQ,2015-02-22T06:00:00Z,46.22,-72.65,-13.2,-14.7,0,0,,,,1018.8,,TRUE,TRUE,,,,,,,,,,,,,,,,1.6,,,,,,,,,,,METAR,10.0
CWNP 220600Z AUTO 07003KT M02/M06 RMK AO1 SOG 01 1014 SLP341 T10151055,CWNP,2015-02-22T06:00:00Z,50.27,-117.82,-1.5,-5.5,70,3,,,,1034.1,,TRUE,TRUE,,,,,,,,,,,,,,,,,,,,,,,,,,,METAR,524.0
SBPJ 220600Z 10003KT 9999 FEW013 SCT090 22/21 Q1013,SBPJ,2015-02-22T06:00:00Z,-10.28,-48.37,22.0,21.0,100,3,,6.21,29.911417,,,,,,,,,,,FEW,1300,SCT,9000,,,,,VFR,,,,,,,,,,,,METAR,236.0
SBAN 220600Z 09004KT CAVOK 19/15 Q1020,SBAN,2015-02-22T06:00:00Z,-16.22,-48.97,19.0,15.0,90,4,,6.21,30.11811,,,,,,,,,,,CAVOK,,,,,,,,VFR,,,,,,,,,,,,METAR,1137.0
KQTM 220559Z AUTO 05005KT //// CLR 13/M01 A2970 RMK CDP03569 CLR,KQTM,2015-02-22T05:59:00Z,,,13.0,-1.0,50,5,,,29.698818,,,TRUE,,,,,,,,CLR,,,,,,,,,,,,,,,,,,,,METAR,
KQGA 220559Z AUTO VRB06KT 4000 HZ CLR 20/00 A2996 RMK CDP03659 CLR,KQGA,2015-02-22T05:59:00Z,100.65,-1000.65,20.0,0.0,0,6,,2.49,29.958662,,,TRUE,,,,,,,HZ,CLR,,,,,,,,IFR,,,,,,,,,,,,METAR,999.0
EGVA 220558Z AUTO 27007KT 9999 CLR M02/M03 A2976 RMK AO2 SLP086 T10251028 11017 21041 55000 $,EGVA,2015-02-22T05:58:00Z,51.67,-1.77,-2.5,-2.8,270,7,,6.21,29.760826,1008.6,,TRUE,TRUE,TRUE,,,,,,CLR,,,,,,,,VFR,0.0,-1.7,-4.1,,,,,,,,,METAR,87.0
EGUN 220558Z AUTO 23008KT 9999 CLR M01/M02 A2975 RMK AO2 SLP078 T10091024 10001 21018 53001,EGUN,2015-02-22T05:58:00Z,52.37,0.47,-0.9,-2.4,230,8,,6.21,29.749016,1007.8,,TRUE,TRUE,,,,,,,CLR,,,,,,,,VFR,0.1,0.1,-1.8,,,,,,,,,METAR,10.0
EGUL 220558Z AUTO 21002KT 9999 CLR M02/M03 A2974 RMK AO2 SLP075 T10201032 11001 21020 53001,EGUL,2015-02-22T05:58:00Z,52.42,0.57,-2.0,-3.2,210,2,,6.21,29.740158,1007.5,,TRUE,TRUE,,,,,,,CLR,,,,,,,,VFR,0.1,-0.1,-2.0,,,,,,,,,METAR,10.0
KBIF 220558Z AUTO 24009KT 10SM OVC170 18/00 A2993 RMK AO2 SLP086 T01831004 10220 20180 50006 $,KBIF,2015-02-22T05:58:00Z,31.85,-106.38,18.3,-0.4,240,9,,10.0,29.929134,1008.6,,TRUE,TRUE,TRUE,,,,,,OVC,17000,,,,,,,VFR,0.6,22.0,18.0,,,,,,,,,METAR,1203.0
KBAD 220558Z AUTO 04007KT 10SM OVC035 07/05 A3009 RMK AO2 SLP192 60000 T00710046 10149 20071 402110071 52013,KBAD,2015-02-22T05:58:00Z,32.5,-93.67,7.1,4.6,40,7,,10.0,30.088583,1019.2,,TRUE,TRUE,,,,,,,OVC,3500,,,,,,,VFR,1.3,14.9,7.1,21.1,7.1,,,0.0050,,,,METAR,51.0
RKSO 220558Z 29015KT 3SM BKN020 OVC050 04/01 A3003 RMK AO2A SLP173 60001 T00440008 10052 20039 55002 $,RKSO,2015-02-22T05:58:00Z,37.07,127.02,4.4,0.8,290,15,,3.0,30.029528,1017.3,,,TRUE,TRUE,,,,,,BKN,2000,OVC,5000,,,,,MVFR,-0.2,5.2,3.9,,,,,0.01,,,,METAR,12.0
KBKF 220558Z 34009KT 2SM -SN BR SCT003 SCT009 OVC014 M10/M11 A3023 RMK AO2A SLP275 P0003 60018 T10991107 11052 21102 51016,KBKF,2015-02-22T05:58:00Z,39.72,-104.75,-9.9,-10.7,340,9,,2.0,30.230314,1027.5,,,TRUE,,,,,,-SN BR,SCT,300,SCT,900,OVC,1400,,,IFR,1.6,-5.2,-10.2,,,0.03,,0.18,,,,METAR,1726.0
KU16 220558Z AUTO 02019G25KT 10SM CLR 00/M09 A2999 RMK AO2 SLP784 60000 T00001089 10072 21006 400891033 51006 TSNO $,KU16,2015-02-22T05:58:00Z,41.05,-113.07,0.0,-8.9,20,19,25,10.0,29.991142,978.4,,TRUE,TRUE,TRUE,,TRUE,,,,CLR,,,,,,,,VFR,0.6,7.2,-0.6,8.9,-3.3,,,,,,,SPECI,1292.0
KGFA 220556Z AUTO 23002KT 10SM CLR M14/M18 A3054 RMK AO2 SLP427 T11411180 11096 21151 50002 TSNO $,KGFA,2015-02-22T05:56:00Z,47.5,-111.17,-14.1,-18.0,230,2,,10.0,30.540354,1042.7,,TRUE,TRUE,TRUE,,TRUE,,,,CLR,,,,,,,,VFR,0.2,-9.6,-15.1,,,,,,,,,METAR,1075.0
MUGM 220556Z 30006KT 9999 FEW030 24/20 A3008 RMK SLP187 T02390200 10267 20239 58011,MUGM,2015-02-22T05:56:00Z,19.9,-75.2,23.9,20.0,300,6,,6.21,30.079725,1018.7,,,,,,,,,,FEW,3000,,,,,,,VFR,-1.1,26.7,23.9,,,,,,,,,METAR,17.0
KGXF 220556Z 19003KT 10SM SCT210 19/01 A2979 RMK AO2A SLP081 T01880015 10259 20169 51005,KGXF,2015-02-22T05:56:00Z,32.87,-112.72,18.8,1.5,190,3,,10.0,29.790354,1008.1,,,TRUE,,,,,,,SCT,21000,,,,,,,VFR,0.5,25.9,16.9,,,,,,,,,METAR,262.0
PAPN 220556Z AUTO 00000KT BKN095 A2964 RMK AO2 PWINO TSNO 53010 SLPNO $,PAPN,2015-02-22T05:56:00Z,57.58,-157.57,,,0,0,,,29.639763,,,TRUE,TRUE,TRUE,,TRUE,,TRUE,,BKN,9500,,,,,,,,1.0,,,,,,,,,,,METAR,18.0
LIPS 220555Z 03011KT 4000 -RA BR SCT020 BKN030 06/05 Q1001 RMK OVC VIS MIN 4000 WIND THR26 /////KT WIND THR08 02011KT GRN,LIPS,2015-02-22T05:55:00Z,45.67,12.08,6.0,5.0,30,11,,2.49,29.557087,,,,,,,,,,-RA BR,SCT,2000,BKN,3000,,,,,IFR,,,,,,,,,,,,SPECI,41.0
LIRH 220555Z 30004KT 2000 -RA BR SCT015 BKN030 06/03 Q0996 RMK OVC MON INVIS NC VIS MIN 2000 WIND THR16 00000KT YLO,LIRH,2015-02-22T05:55:00Z,41.65,13.3,6.0,3.0,300,4,,1.24,29.409449,,,,,,,,,,-RA BR,SCT,1500,BKN,3000,,,,,IFR,,,,,,,,,,,,SPECI,181.0
LIRV 220555Z 04008KT 8000 -RA SCT015 SCT027 06/04 Q0995 RMK OVC MON E SE INVIS NC VIS MIN 8000 BLU,LIRV,2015-02-22T05:55:00Z,42.42,12.07,6.0,4.0,40,8,,4.97,29.379921,,,,,,,,,,-RA,SCT,1500,SCT,2700,,,,,MVFR,,,,,,,,,,,,SPECI,300.0
LIPF 220555Z 02004KT 3000 -RA BR OVC015 07/06 Q0998 RMK OVC VIS MIN 3000,LIPF,2015-02-22T05:55:00Z,44.82,11.62,7.0,6.0,20,4,,1.86,29.468504,,,,,,,,,,-RA BR,OVC,1500,,,,,,,IFR,,,,,,,,,,,,METAR,10.0
LIPC 220555Z 11004KT 9999 SCT060 08/06 Q0997 RMK OVC BKN090 VIS MIN 9999 WIND THR11 10003KT BLU,LIPC,2015-02-22T05:55:00Z,44.22,12.3,8.0,6.0,110,4,,6.21,29.438976,,,,,,,,,,,SCT,6000,,,,,,,VFR,,0.3,,,,,,,,,,METAR,10.0
LIMS 220555Z 05006KT 020V110 2000 -RA BR SCT004 BKN015 05/05 Q0998 RMK OVC VIS MIN 2000 WIND THR30 04006KT YLO,LIMS,2015-02-22T05:55:00Z,44.92,9.72,5.0,5.0,50,6,,1.24,29.468504,,,,,,,,,,-RA BR,SCT,400,BKN,1500,,,,,IFR,,,,,,,,,,,,METAR,138.0
LICZ 220555Z 07004KT 7000 -RA BKN030 SCT090 13/13 Q0997 RMK OVC VIS MIN 7000 WIND THR28 09003KT A2947 WHT,LICZ,2015-02-22T05:55:00Z,37.38,14.92,13.0,13.0,70,4,,4.35,29.438976,,,,,,,,,,-RA,BKN,3000,SCT,9000,,,,,MVFR,,,,,,,,,,,,METAR,22.0
KQTI 220555Z 33008G15KT 9999 FEW200 07/02 A3010 RMK SLP194 WND DATA ESTMD ALSTG/SLP ESTMD,KQTI,2015-02-22T05:55:00Z,100.65,-1000.65,7.0,2.0,330,8,15,6.21,30.100393,1019.4,,,,,,,,,,FEW,20000,,,,,,,VFR,,,,,,,,,,,,METAR,999.0
KQL5 220555Z 35006KT 9999 FEW160 SCT200 20/08 A3020 RMK SLP218 T02000084 10143 20124 50004,KQL5,2015-02-22T05:55:00Z,100.65,-1000.65,20.0,8.4,350,6,,6.21,30.200787,1021.8,,,,,,,,,,FEW,16000,SCT,20000,,,,,VFR,0.4,14.3,12.4,,,,,,,,,METAR,999.0
LICF 220555Z 24018G43KT 9999 SCT010 SCT025 14/11 Q0996 RMK OVC OVC080 QUK 5 QUL 3 SW VIS MAR 10 KM MON INC VAR RAPID VIS MIN 9999,LICF,2015-02-22T05:55:00Z,38.2,15.55,14.0,11.0,240,18,43,6.21,29.409449,,,,,,,,,,,SCT,1000,SCT,2500,,,,,VFR,,,,,,,,,,,,METAR,51.0
LIBY 220555Z 18027G40KT 8000 -RA SCT011 OVC015 11/09 Q1004 RMK OVC QUK 5 QUL 3 S VIS MAR 8 KM VIS MIN 8000,LIBY,2015-02-22T05:55:00Z,39.82,18.35,11.0,9.0,180,27,40,4.97,29.64567,,,,,,,,,,-RA,SCT,1100,OVC,1500,,,,,MVFR,,,,,,,,,,,,METAR,112.0
LIEB 220555Z 30007KT 9999 FEW015 SCT020 08/08 Q0993 RMK BKN QUK 2 QUL 0 VIS MAR 20 KM MON W CIME INC VIS MIN 9999,LIEB,2015-02-22T05:55:00Z,39.93,9.72,8.0,8.0,300,7,,6.21,29.320866,,,,,,,,,,,FEW,1500,SCT,2000,,,,,VFR,,,,,,,,,,,,METAR,156.0
LIED 220555Z 00000KT 8000 SCT003 08/06 Q0994 RMK BKN SCT090 VIS MIN 8000 WIND THR35 35003KT WIND THR17 30002KT BLU,LIED,2015-02-22T05:55:00Z,39.35,8.97,8.0,6.0,0,0,,4.97,29.350393,,,,,,,,,,,SCT,300,,,,,,,MVFR,,,,,,,,,,,,METAR,28.0
LIQC 220555Z ///05KT 4000 RA OVC015 11/09 Q0994 RMK OVC QUK 3 QUL 1 S VIS MAR 4 KM VIS MIN 4000,LIQC,2015-02-22T05:55:00Z,40.55,14.2,11.0,9.0,,,,2.49,29.350393,,,,,,,,,,RA,OVC,1500,,,,,,,IFR,,,,,,,,,,,,SPECI,269.0
LIVD 220555Z 09004KT 3000 -SN OVC020 M00/M01 Q1001 RMK OVC VIS MIN 3000,LIVD,2015-02-22T05:55:00Z,46.72,12.22,0.0,-1.0,90,4,,1.86,29.557087,,,,,,,,,,-SN,OVC,2000,,,,,,,IFR,,,,,,,,,,,,SPECI,1226.0
NZCM 220555Z 09005KT 8000 -SN BR FEW015 BKN040 BKN060 M07/M10 A2865 RMK SNE0040B0330 SLP774,NZCM,2015-02-22T05:55:00Z,-77.87,166.97,-7.0,-10.0,90,5,,4.97,28.65059,977.4,,,,,,,,,-SN BR,FEW,1500,BKN,4000,BKN,6000,,,MVFR,,,,,,,,,,,,METAR,8.0
LIMT 220555Z 01004KT 0000 FZFG VV/// M01/M03 Q0994 RMK MON INVIS VAL INVIS VIS MIN 0000,LIMT,2015-02-22T05:55:00Z,44.47,9.92,-1.0,-3.0,10,4,,0.0,29.350393,,,,,,,,,,FZFG,OVX,0,,,,,,,LIFR,,,,,,,,,,,,METAR,1040.0
LIVP 220555Z 36012KT 0100 -SN FZFG VV/// M06/M07 Q0995 RESN RMK MON INVIS VAL INVIS VIS MIN 0100,LIVP,2015-02-22T05:55:00Z,46.15,11.03,-6.0,-7.0,360,12,,0.06,29.379921,,,,,,,,,,-SN FZFG,OVX,0,,,,,,,LIFR,,,,,,,,,,,,METAR,2129.0
LIVC 220555Z 24012KT 0000 FZFG VV000 M02/M03 Q0993 RMK MON INVIS VAL INVIS VIS MIN 0000,LIVC,2015-02-22T05:55:00Z,44.2,10.68,-2.0,-3.0,240,12,,0.0,29.320866,,,,,,,,,,FZFG,OVX,0,,,,,,,LIFR,,,,,,,,,,,0,METAR,2173.0
LIMK 220555Z 01005KT 0050 -SN FZFG VV000 M01/M01 Q0998 RMK VAL INVIS VIS MIN 0050,LIMK,2015-02-22T05:55:00Z,45.02,7.72,-1.0,-1.0,10,5,,0.03,29.468504,,,,,,,,,,-SN FZFG,OVX,0,,,,,,,LIFR,,,,,,,,,,,0,METAR,710.0
LIVF 220555Z 24003KT 5000 -RA BR BKN015 02/02 Q0996 RMK OVC SCT060 MON INVIS VAL INVIS VIS MIN 5000,LIVF,2015-02-22T05:55:00Z,43.52,12.72,2.0,2.0,240,3,,3.11,29.409449,,,,,,,,,,-RA BR,BKN,1500,,,,,,,MVFR,,,,,,,,,,,,METAR,574.0
LIVE 220555Z /////KT 2000 BR OVC008 M02/M05 Q0997 RMK OVC VIS MIN 2000,LIVE,2015-02-22T05:55:00Z,46.85,10.5,-2.0,-5.0,,,,1.24,29.438976,,,,,,,,,,BR,OVC,800,,,,,,,IFR,,,,,,,,,,,,METAR,1800.0
LIRX 220555Z 36004KT 0100 -RA FG VV/// 08/06 Q0994 RMK VIS MIN 0100 VIS MAR 0100 M,LIRX,2015-02-22T05:55:00Z,42.73,10.38,8.0,6.0,360,4,,0.06,29.350393,,,,,,,,,,-RA FG,OVX,0,,,,,,,LIFR,,,,,,,,,,,,METAR,297.0
LIRT 220555Z 15008KT 0000 -RA FG VV/// 04/02 Q0994 RMK MON INVIS VAL INVIS VIS MIN 0000,LIRT,2015-02-22T05:55:00Z,41.03,15.22,4.0,2.0,150,8,,0.0,29.350393,,,,,,,,,,-RA FG,OVX,0,,,,,,,LIFR,,,,,,,,,,,,METAR,1093.0
LIRK 220555Z AUTO /////KT //// ///// Q////,LIRK,2015-02-22T05:55:00Z,42.47,12.97,,,,,,,,,,TRUE,,,,,,,,,,,,,,,,,,,,,,,,,,,,METAR,1875.0
LIRE 220555Z 12012KT 5000 +RA BR SCT016 SCT030 10/09 Q0995 RMK OVC VIS MIN 5000 WIND THR31 /////KT WHT,LIRE,2015-02-22T05:55:00Z,41.63,12.42,10.0,9.0,120,12,,3.11,29.379921,,,,,,,,,,+RA BR,SCT,1600,SCT,3000,,,,,MVFR,,,,,,,,,,,,METAR,12.0
LIQO 220555Z 04009KT 0000 FG VV/// 08/08 Q0994 RMK VAL INVIS NC VIS MIN 0000,LIQO,2015-02-22T05:55:00Z,42.37,11.17,8.0,8.0,40,9,,0.0,29.350393,,,,,,,,,,FG,OVX,0,,,,,,,LIFR,,,,,,,,,,,,METAR,632.0
LIMY 220555Z 26006KT 0800 FZFG OVC008 M01/M02 Q0999 RMK OVC VAL NEBBIA VIS MIN 0800,LIMY,2015-02-22T05:55:00Z,44.25,7.78,-1.0,-2.0,260,6,,0.5,29.498032,,,,,,,,,,FZFG,OVC,800,,,,,,,LIFR,,,,,,,,,,,,METAR,1742.0
LIMU 220555Z 36012KT 9999 SCT028 07/M01 Q0995 RMK BKN SCT060 QUK / QUL / VIS MAR 25 KM VIS MIN 9999,LIMU,2015-02-22T05:55:00Z,43.95,8.17,7.0,-1.0,360,12,,6.21,29.379921,,,,,,,,,,,SCT,2800,,,,,,,VFR,,,,,,,,,,,,METAR,221.0
LIMH 220555Z /////KT 0100 -SN FZFG VV/// M16/M17 Q0992 RMK MON INVIS VAL INVIS VIS MIN 0100,LIMH,2015-02-22T05:55:00Z,45.93,7.7,-16.0,-17.0,,,,0.06,29.291338,,,,,,,,,,FZFG -SN,OVX,0,,,,,,,LIFR,,,,,,,,,,,,METAR,3488.0
LIVT 220555Z 03015G34KT 9999 SCT040 07/04 Q1000 RERA RMK OVC SCT080 QUK 3 QUL 1 NE VIS MAR 20 KM VIS MIN 9999,LIVT,2015-02-22T05:55:00Z,45.68,13.75,7.0,4.0,30,15,34,6.21,29.52756,,,,,,,,,,,SCT,4000,,,,,,,VFR,,,,,,,,,,,,METAR,20.0
LIVO 220555Z 00000KT 0800 FG OVC020 01/01 Q1001 RMK OVC VIS MIN 0800,LIVO,2015-02-22T05:55:00Z,46.5,13.57,1.0,1.0,0,0,,0.5,29.557087,,,,,,,,,,FG,OVC,2000,,,,,,,LIFR,,,,,,,,,,,,METAR,778.0
LIBQ 220555Z 20030KT 0000 -RA FG VV/// 03/03 Q0998 RMK MON INVIS VAL INVIS VIS MIN 0000,LIBQ,2015-02-22T05:55:00Z,39.32,16.38,3.0,3.0,200,30,,0.0,29.468504,,,,,,,,,,-RA FG,OVX,0,,,,,,,LIFR,,,,,,,,,,,,METAR,1720.0
LIRS 220555Z /////KT 9999 FEW015 BKN060 08/06 Q0995 RMK OVC VIS MIN 9999 WIND THR03 02003KT WIND THR21 /////KT BLU,LIRS,2015-02-22T05:55:00Z,42.75,11.07,8.0,6.0,,,,6.21,29.379921,,,,,,,,,,,FEW,1500,BKN,6000,,,,,VFR,,,,,,,,,,,,METAR,7.0
LIRM 220555Z 35003KT 4000 -RA BR SCT010 BKN030 10/08 Q0995 RMK OVC VIS MIN 4000 WIND THR06 34005KT GRN,LIRM,2015-02-22T05:55:00Z,41.03,14.07,10.0,8.0,350,3,,2.49,29.379921,,,,,,,,,,-RA BR,SCT,1000,BKN,3000,,,,,IFR,,,,,,,,,,,,METAR,10.0
LIRL 220555Z 09004KT 7000 -RA SCT020 BKN040 10/08 Q0995 RMK OVC MON LIB VAR RAPID VIS MIN 7000 WIND THR30 12003KT WHT,LIRL,2015-02-22T05:55:00Z,41.53,12.9,10.0,8.0,90,4,,4.35,29.379921,,,,,,,,,,-RA,SCT,2000,BKN,4000,,,,,MVFR,,,,,,,,,,,,METAR,26.0
LICT 220555Z 20006KT 8000 -RA SCT010 BKN018 12/11 Q0994 RMK OVC BKN060 VIS MIN 8000 WIND THR13 /////KT WHT,LICT,2015-02-22T05:55:00Z,37.92,12.5,12.0,11.0,200,6,,4.97,29.350393,,,,,,,,,,-RA,SCT,1000,BKN,1800,,,,,MVFR,,,,,,,,,,,,METAR,7.0
LICG 220555Z /////KT 7000 -RA SCT003 SCT007 12/09 Q0995,LICG,2015-02-22T05:55:00Z,36.82,11.97,12.0,9.0,,,,4.35,29.379921,,,,,,,,,,-RA,SCT,300,SCT,700,,,,,MVFR,,,,,,,,,,,,METAR,191.0
LIBV 220555Z 15037G47KT 1500 RA BR BKN003 SCT007 10/09 Q0999 RMK OVC VIS MIN 1500 WIND THR32 15034G53KT WIND THR14 15034G47KT AMB,LIBV,2015-02-22T05:55:00Z,40.77,16.92,10.0,9.0,150,37,47,0.93,29.498032,,,,,,,,,,RA BR,BKN,300,SCT,700,,,,,LIFR,,,,,,,,,,,,METAR,350.0
KLWT 220554Z AUTO 27009KT 10SM SCT031 M15/M19 A3045 RMK AO2 SLP383 60000 T11501189 11078 21156 50006,KLWT,2015-02-22T05:54:00Z,47.03,-109.47,-15.0,-18.9,270,9,,10.0,30.448818,1038.3,,TRUE,TRUE,,,,,,,SCT,3100,,,,,,,VFR,0.6,-7.8,-15.6,,,,,0.0050,,,,METAR,1270.0
NSTU 220552Z VRB03KT 10SM -SHRA SCT015CB BKN033 OVC070 26/23 A2977 RMK CB S-SW SLP081 60075 8/32/ T02570233 10311 20257 51008,NSTU,2015-02-22T05:52:00Z,-14.33,-170.72,25.7,23.3,0,3,,10.0,29.769686,1008.1,,,,,,,,,-SHRA,SCT,1500,BKN,3300,OVC,7000,,,VFR,0.8,31.1,25.7,,,,,0.75,,,,METAR,3.0
LIRZ 220550Z 35007KT 9000 -RA BKN040 06/06 Q0996,LIRZ,2015-02-22T05:50:00Z,43.1,12.5,6.0,6.0,350,7,,5.59,29.409449,,,,,,,,,,-RA,BKN,4000,,,,,,,VFR,,,,,,,,,,,,METAR,205.0
MSLP 220550Z 36003KT CAVOK 23/19 Q1012 A2989,MSLP,2015-02-22T05:50:00Z,13.43,-89.05,23.0,19.0,360,3,,6.21,29.88189,,,,,,,,,,,CAVOK,,,,,,,,VFR,,,,,,,,,,,,METAR,25.0
FHAW 220550Z 13015KT 9999 FEW024 25/20 Q1012 BLU,FHAW,2015-02-22T05:50:00Z,-7.97,-14.4,25.0,20.0,130,15,,6.21,29.88189,,,,,,,,,,,FEW,2400,,,,,,,VFR,,,,,,,,,,,,METAR,79.0
EGNS 220550Z 23011KT 200V260 9999 FEW015 05/02 Q1002,EGNS,2015-02-22T05:50:00Z,54.08,-4.63,5.0,2.0,230,11,,6.21,29.586615,,,,,,,,,,,FEW,1500,,,,,,,VFR,,,,,,,,,,,,METAR,17.0
LIPY 220550Z 20003KT 9999 FEW020 BKN070 07/05 Q0997,LIPY,2015-02-22T05:50:00Z,43.62,13.37,7.0,5.0,200,3,,6.21,29.438976,,,,,,,,,,,FEW,2000,BKN,7000,,,,,VFR,,,,,,,,,,,,METAR,10.0
LIPO 220550Z 04007KT 9999 -RA BKN030 06/05 Q1000,LIPO,2015-02-22T05:50:00Z,45.42,10.33,6.0,5.0,40,7,,6.21,29.52756,,,,,,,,,,-RA,BKN,3000,,,,,,,MVFR,,,,,,,,,,,,METAR,109.0
LIMZ 220550Z 32005KT 4000 -SN BR OVC005 01/00 Q1001,LIMZ,2015-02-22T05:50:00Z,44.53,7.62,1.0,0.0,320,5,,2.49,29.557087,,,,,,,,,,-SN BR,OVC,500,,,,,,,IFR,,,,,,,,,,,,METAR,380.0
NZSP 220550Z 05009KT 2400 -SG BLSN BKN010 OVC030 M36/ A2848 RMK CLN AIR 04010KT ALL WNDS GRID,NZSP,2015-02-22T05:50:00Z,-89.98,179.98,-36.0,,50,9,,1.49,28.47933,,,,,,,,,,-SG BLSN,BKN,1000,OVC,3000,,,,,IFR,,,,,,,,,,,,METAR,2830.0
OOSA 220550Z AUTO 22007KT 9999 25/17 Q1016,OOSA,2015-02-22T05:50:00Z,17.02,54.07,25.0,17.0,220,7,,6.21,30.0,,,TRUE,,,,,,,,,,,,,,,,,,,,,,,,,,,,METAR,20.0
MSSS 220550Z 00000KT CAVOK 22/18 Q1013 A2993,MSSS,2015-02-22T05:50:00Z,13.7,-89.12,22.0,18.0,0,0,,6.21,29.911417,,,,,,,,,,,CAVOK,,,,,,,,VFR,,,,,,,,,,,,METAR,616.0
LTBZ 220550Z 13011KT CAVOK M05/M09 Q1020,LTBZ,2015-02-22T05:50:00Z,38.63,27.35,-5.0,-9.0,130,11,,6.21,30.11811,,,,,,,,,,,CAVOK,,,,,,,,VFR,,,,,,,,,,,,METAR,73.0
EGYM 220550Z AUTO 18004KT 9999 NCD M02/M03 Q1007,EGYM,2015-02-22T05:50:00Z,52.63,0.57,-2.0,-3.0,180,4,,6.21,29.734253,,,TRUE,,,,,,,,,,,,,,,,,,,,,,,,,,,,METAR,23.0
EGYD 220550Z AUTO 26011KT 9999 // NCD M00/M02 Q1006,EGYD,2015-02-22T05:50:00Z,53.03,-0.5,0.0,-2.0,260,11,,6.21,29.704725,,,TRUE,,,,,,,,,,,,,,,,,,,,,,,,,,,,METAR,67.0
EGXZ 220550Z AUTO 16005KT 9999 NCD M04/M04 Q1004,EGXZ,2015-02-22T05:50:00Z,54.2,-1.38,-4.0,-4.0,160,5,,6.21,29.64567,,,TRUE,,,,,,,,,,,,,,,,,,,,,,,,,,,,METAR,28.0
EGXU 220550Z AUTO 19009KT 9999 // SCT021/// 01/00 Q1004,EGXU,2015-02-22T05:50:00Z,54.05,-1.25,1.0,0.0,190,9,,6.21,29.64567,,,TRUE,,,,,,,,,,,,,,,,,,,,,,,,,,,,METAR,16.0
EGXT 220550Z AUTO 20005KT 9999 NCD M01/M02 Q1006,EGXT,2015-02-22T05:50:00Z,52.62,-0.47,-1.0,-2.0,200,5,,6.21,29.704725,,,TRUE,,,,,,,,,,,,,,,,,,,,,,,,,,,,METAR,84.0
EGXS 220550Z AUTO 21010KT 9999 // NCD M00/M01 Q1005,EGXS,2015-02-22T05:50:00Z,53.48,0.15,0.0,-1.0,210,10,,6.21,29.675198,,,TRUE,,,,,,,,,,,,,,,,,,,,,,,,,,,,METAR,3.0
EGXP 220550Z AUTO 21009KT 9999 // FEW036/// M00/M01 Q1005,EGXP,2015-02-22T05:50:00Z,53.3,-0.55,0.0,-1.0,210,9,,6.21,29.675198,,,TRUE,,,,,,,,,,,,,,,,,,,,,,,,,,,,METAR,61.0
EGXD 220550Z AUTO 20007KT 9999 // SCT018/// M00/M01 Q1004,EGXD,2015-02-22T05:50:00Z,54.13,-1.42,0.0,-1.0,200,7,,6.21,29.64567,,,TRUE,,,,,,,,,,,,,,,,,,,,,,,,,,,,METAR,35.0
EGVP 220550Z AUTO 25001KT 9999 // NCD M02/M02 Q1008,EGVP,2015-02-22T05:50:00Z,51.13,-1.57,-2.0,-2.0,250,1,,6.21,29.763779,,,TRUE,,,,,,,,,,,,,,,,,,,,,,,,,,,,METAR,91.0
EGUW 220550Z AUTO 23006KT 9999 NCD M02/M03 Q1007,EGUW,2015-02-22T05:50:00Z,52.12,0.97,-2.0,-3.0,230,6,,6.21,29.734253,,,TRUE,,,,,,,,,,,,,,,,,,,,,,,,,,,,METAR,87.0
EGUB 220550Z AUTO 16006KT 9999 // NCD M03/M04 Q1008,EGUB,2015-02-22T05:50:00Z,51.62,-1.07,-3.0,-4.0,160,6,,6.21,29.763779,,,TRUE,,,,,,,,,,,,,,,,,,,,,,,,,,,,METAR,63.0
EGQK 220550Z AUTO 23003KT 9999 BKN044/// SCT090/// BKN210/// 00/M01 Q0998,EGQK,2015-02-22T05:50:00Z,57.65,-3.57,0.0,-1.0,230,3,,6.21,29.468504,,,TRUE,,,,,,,,,,,,,,,,,,,,,,,,,,,,METAR,7.0
EGOV 220550Z AUTO 22015KT 9999 SCT240/// 05/01 Q1004,EGOV,2015-02-22T05:50:00Z,53.25,-4.53,5.0,1.0,220,15,,6.21,29.64567,,,TRUE,,,,,,,,,,,,,,,,,,,,,,,,,,,,METAR,11.0
EGOS 220550Z AUTO 22004KT 9999 NCD 00/M01 Q1005,EGOS,2015-02-22T05:50:00Z,52.8,-2.67,0.0,-1.0,220,4,,6.21,29.675198,,,TRUE,,,,,,,,,,,,,,,,,,,,,,,,,,,,METAR,76.0
EGOP 220550Z AUTO 14006KT 9999 // SCT027/// 02/01 Q1007,EGOP,2015-02-22T05:50:00Z,51.72,-4.32,2.0,1.0,140,6,,6.21,29.734253,,,TRUE,,,,,,,,,,,,,,,,,,,,,,,,,,,,METAR,6.0
EGOM 220550Z AUTO 22009KT 9999 BKN002/// BKN009/// BKN012/// 01/01 Q0999,EGOM,2015-02-22T05:50:00Z,55.05,-2.55,1.0,1.0,220,9,,6.21,29.498032,,,TRUE,,,,,,,,,,,,,,,,,,,,,,,,,,,,METAR,325.0
EGDY 220550Z AUTO 12003KT 9999 FEW030/// M03/M03 Q1009,EGDY,2015-02-22T05:50:00Z,51.0,-2.62,-3.0,-3.0,120,3,,6.21,29.793306,,,TRUE,,,,,,,,,,,,,,,,,,,,,,,,,,,,METAR,23.0
EGDX 220550Z AUTO 09001KT 9999 FEW018/// SCT023/// 00/M00 Q1007,EGDX,2015-02-22T05:50:00Z,51.4,-3.43,0.0,0.0,90,1,,6.21,29.734253,,,TRUE,,,,,,,,,,,,,,,,,,,,,,,,,,,,METAR,50.0
EGDM 220550Z AUTO 18003KT 5000 BR NCD M03/M03 Q1008,EGDM,2015-02-22T05:50:00Z,51.17,-1.75,-3.0,-3.0,180,3,,3.11,29.763779,,,TRUE,,,,,,,BR,,,,,,,,,,,,,,,,,,,,,METAR,124.0
LICR 220550Z 15023G42KT 8000 RA BKN030 15/12 Q0998 RMK VIS MIN 7000S,LICR,2015-02-22T05:50:00Z,38.07,15.65,15.0,12.0,150,23,42,4.97,29.468504,,,,,,,,,,RA,BKN,3000,,,,,,,MVFR,,,,,,,,,,,,METAR,21.0
LICD 220550Z 21023G37KT 7000 -RA SCT030 13/10 Q0996,LICD,2015-02-22T05:50:00Z,35.5,12.62,13.0,10.0,210,23,37,4.35,29.409449,,,,,,,,,,-RA,SCT,3000,,,,,,,MVFR,,,,,,,,,,,,METAR,20.0
LICA 220550Z 06013KT 9999 FEW020 BKN070 13/11 Q0998,LICA,2015-02-22T05:50:00Z,38.88,16.25,13.0,11.0,60,13,,6.21,29.468504,,,,,,,,,,,FEW,2000,BKN,7000,,,,,VFR,,,,,,,,,,,,METAR,15.0
LIBP 220550Z VRB03KT 6000 RA SCT040 BKN070 06/04 Q0997,LIBP,2015-02-22T05:50:00Z,42.42,14.18,6.0,4.0,0,3,,3.73,29.438976,,,,,,,,,,RA,SCT,4000,BKN,7000,,,,,MVFR,,,,,,,,,,,,METAR,11.0
