No errors
No warnings
252 ms
data source=metars
4499 results
raw_text,station_id,observation_time,latitude,longitude,temp_c,dewpoint_c,wind_dir_degrees,wind_speed_kt,wind_gust_kt,visibility_statute_mi,altim_in_hg,sea_level_pressure_mb,corrected,auto,auto_station,maintenance_indicator_on,no_signal,lightning_sensor_off,freezing_rain_sensor_off,present_weather_sensor_off,wx_string,sky_cover,cloud_base_ft_agl,sky_cover,cloud_base_ft_agl,sky_cover,cloud_base_ft_agl,sky_cover,cloud_base_ft_agl,flight_category,three_hr_pressure_tendency_mb,maxT_c,minT_c,maxT24hr_c,minT24hr_c,precip_in,pcp3hr_in,pcp6hr_in,pcp24hr_in,snow_in,vert_vis_ft,metar_type,elevation_m
CYLH 250543Z AUTO 00000KT 7SM CLR M09/M09 A3011 RMK ICG SLP215,CYLH,2015-04-25T05:43:00Z,52.2,-87.93,-9.0,-9.0,0,0,,7.0,30.109253,1021.5,,TRUE,,,,,,,,CLR,,,,,,,,VFR,,,,,,,,,,,,SPECI,254.0
KESN 250542Z AUTO 02004KT 10SM CLR 09/M02 A3000 RMK AO2 T00871020,KESN,2015-04-25T05:42:00Z,38.8,-76.07,8.7,-2.0,20,4,,10.0,30.0,,,TRUE,TRUE,,,,,,,CLR,,,,,,,,VFR,,,,,,,,,,,,SPECI,22.0
KSRC 250542Z AUTO 00000KT 10SM -RA OVC007 15/14 A2973 RMK AO2 RAB30 CIG 004V010 P0000 TSNO,KSRC,2015-04-25T05:42:00Z,35.22,-91.73,15.0,14.0,0,0,,10.0,29.731298,,,TRUE,TRUE,,,TRUE,,,-RA,OVC,700,,,,,,,IFR,,,,,,0.0050,,,,,,SPECI,80.0
CYHK 250542Z AUTO 06015KT 5SM BR OVC055 M12/M13 A3049 RMK SLP333,CYHK,2015-04-25T05:42:00Z,68.62,-95.83,-12.0,-13.0,60,15,,5.0,30.490158,1033.3,,TRUE,,,,,,,BR,OVC,5500,,,,,,,MVFR,,,,,,,,,,,,SPECI,46.0
CYPH 250542Z AUTO 07014KT 2 1/2SM BR SCT004 OVC009 M00/M00 A3010 RMK VIS VRB 1 1/4-3 SLP196,CYPH,2015-04-25T05:42:00Z,58.45,-78.08,0.0,0.0,70,14,,2.5,30.100393,1019.6,,TRUE,,,,,,,BR,SCT,400,OVC,900,,,,,IFR,,,,,,,,,,,,SPECI,3.0
PAVA 250541Z AUTO 35009KT 10SM BKN030 BKN040 OVC048 03/01 A2964 RMK AO2,PAVA,2015-04-25T05:41:00Z,61.53,-165.6,3.0,1.0,350,9,,10.0,29.639763,,,TRUE,TRUE,,,,,,,BKN,3000,BKN,4000,OVC,4800,,,MVFR,,,,,,,,,,,,SPECI,23.0
KUIL 250541Z AUTO 00000KT 4SM -RA BR BKN028 BKN035 OVC050 04/04 A2989 RMK AO2 RAB28 P0007 T00440039,KUIL,2015-04-25T05:41:00Z,47.93,-124.55,4.4,3.9,0,0,,4.0,29.890747,,,TRUE,TRUE,,,,,,-RA BR,BKN,2800,BKN,3500,OVC,5000,,,MVFR,,,,,,0.07,,,,,,SPECI,54.0
KSLC 250541Z 34009KT 6SM -RA BR FEW012 BKN032 OVC039 08/06 A2980 RMK AO2 P0003 T00830061 $,KSLC,2015-04-25T05:41:00Z,40.77,-111.97,8.3,6.1,340,9,,6.0,29.799213,,,,TRUE,TRUE,,,,,-RA BR,FEW,1200,BKN,3200,OVC,3900,,,VFR,,,,,,0.03,,,,,,SPECI,1286.0
KPSX 250541Z AUTO 13006KT 5SM BR SCT009 BKN029 BKN110 25/24 A2980 RMK AO2 RAE08 P0000 T02500239,KPSX,2015-04-25T05:41:00Z,28.72,-96.25,25.0,23.9,130,6,,5.0,29.799213,,,TRUE,TRUE,,,,,,BR,SCT,900,BKN,2900,BKN,11000,,,MVFR,,,,,,0.0050,,,,,,SPECI,5.0
KOGD 250541Z 25005KT 7SM -RA FEW015 BKN034 OVC049 07/06 A2979 RMK AO2 P0007 T00720061,KOGD,2015-04-25T05:41:00Z,41.2,-112.02,7.2,6.1,250,5,,7.0,29.790354,,,,TRUE,,,,,,-RA,FEW,1500,BKN,3400,OVC,4900,,,VFR,,,,,,0.07,,,,,,SPECI,1353.0
KHBG 250541Z AUTO 16007KT 10SM OVC010 23/21 A2981 RMK AO2 CIG 008V014 T02330211,KHBG,2015-04-25T05:41:00Z,31.27,-89.25,23.3,21.1,160,7,,10.0,29.811024,,,TRUE,TRUE,,,,,,,OVC,1000,,,,,,,MVFR,,,,,,,,,,,,SPECI,44.0
KAEX 250541Z AUTO 00000KT 7SM SCT017 BKN035 OVC045 23/22 A2982 RMK AO2 T02280217,KAEX,2015-04-25T05:41:00Z,31.33,-92.57,22.8,21.7,0,0,,7.0,29.819881,,,TRUE,TRUE,,,,,,,SCT,1700,BKN,3500,OVC,4500,,,VFR,,,,,,,,,,,,SPECI,27.0
KABR 250541Z AUTO 05012KT 8SM SCT012 OVC044 08/06 A2967 RMK AO2 T00830061,KABR,2015-04-25T05:41:00Z,45.45,-98.42,8.3,6.1,50,12,,8.0,29.66929,,,TRUE,TRUE,,,,,,,SCT,1200,OVC,4400,,,,,VFR,,,,,,,,,,,,SPECI,397.0
KRVS 250541Z AUTO 19006KT 10SM SCT011 16/14 A2957 RMK AO2 T01610144,KRVS,2015-04-25T05:41:00Z,36.05,-95.98,16.1,14.4,190,6,,10.0,29.568897,,,TRUE,TRUE,,,,,,,SCT,1100,,,,,,,VFR,,,,,,,,,,,,SPECI,200.0
CYXS 250541Z AUTO 13008KT 050V140 9SM -RA BKN011 OVC015 03/03 A2978 RMK SLP108,CYXS,2015-04-25T05:41:00Z,53.9,-122.68,3.0,3.0,130,8,,9.0,29.778543,1010.8,,TRUE,,,,,,,-RA,BKN,1100,OVC,1500,,,,,MVFR,,,,,,,,,,,,SPECI,691.0
KUKT 250540Z AUTO 00000KT 10SM CLR 02/M06 A2995 RMK AO1,KUKT,2015-04-25T05:40:00Z,40.43,-75.38,2.0,-6.0,0,0,,10.0,29.949802,,,TRUE,TRUE,,,,,,,CLR,,,,,,,,VFR,,,,,,,,,,,,METAR,160.0
KS39 250540Z AUTO 00000KT 10SM BKN050 04/M01 A2987 RMK AO2,KS39,2015-04-25T05:40:00Z,44.28,-120.9,4.0,-1.0,0,0,,10.0,29.870079,,,TRUE,TRUE,,,,,,,BKN,5000,,,,,,,VFR,,,,,,,,,,,,SPECI,991.0
KVKS 250540Z AUTO 19010KT 10SM BKN018 BKN025 OVC046 23/21 A2980 RMK A01,KVKS,2015-04-25T05:40:00Z,,,23.0,21.0,190,10,,10.0,29.799213,,,TRUE,TRUE,,,,,,,BKN,1800,BKN,2500,OVC,4600,,,MVFR,,,,,,,,,,,,SPECI,
KGOO 250540Z AUTO 14007G15KT 120V190 3SM BKN003 OVC017 05/05 A2993 RMK AO1 P0009,KGOO,2015-04-25T05:40:00Z,39.22,-121.0,5.0,5.0,140,7,15,3.0,29.929134,,,TRUE,TRUE,,,,,,,BKN,300,OVC,1700,,,,,LIFR,,,,,,0.09,,,,,,SPECI,962.0
KEDU 250540Z AUTO 21009G15KT 8SM BKN095 BKN120 13/08 A2993 RMK AO1,KEDU,2015-04-25T05:40:00Z,38.53,-121.78,13.0,8.0,210,9,15,8.0,29.929134,,,TRUE,TRUE,,,,,,,BKN,9500,BKN,12000,,,,,VFR,,,,,,,,,,,,SPECI,21.0
K05U 250540Z AUTO 24004KT 10SM FEW027 SCT036 BKN050 05/00 A2988 RMK AO1,K05U,2015-04-25T05:40:00Z,39.6,-116.0,5.0,0.0,240,4,,10.0,29.878937,,,TRUE,TRUE,,,,,,,FEW,2700,SCT,3600,BKN,5000,,,VFR,,,,,,,,,,,,SPECI,1816.0
PKWA 250540Z AUTO 07012KT 10SM SCT021 BKN041 30/24 A2977 RMK AO2 T02980235,PKWA,2015-04-25T05:40:00Z,8.72,167.72,29.8,23.5,70,12,,10.0,29.769686,,,TRUE,TRUE,,,,,,,SCT,2100,BKN,4100,,,,,VFR,,,,,,,,,,,,SPECI,8.0
KTOP 250540Z AUTO 15008KT 7SM -RA SCT023 BKN029 OVC070 17/15 A2947 RMK AO2 LTG DSNT N AND NE RAB17 P0003 T01720150,KTOP,2015-04-25T05:40:00Z,39.07,-95.63,17.2,15.0,150,8,,7.0,29.471457,,,TRUE,TRUE,,,,,,-RA,SCT,2300,BKN,2900,OVC,7000,,,MVFR,,,,,,0.03,,,,,,SPECI,268.0
KSTS 250540Z AUTO 14003KT 2 1/2SM RA BR OVC005 11/10 A2993 RMK AO2 P0007,KSTS,2015-04-25T05:40:00Z,38.5,-122.82,11.0,10.0,140,3,,2.5,29.929134,,,TRUE,TRUE,,,,,,RA BR,OVC,500,,,,,,,IFR,,,,,,0.07,,,,,,SPECI,39.0
KFVE 250540Z AUTO 35006KT 1 1/4SM BR OVC002 00/M01 A2954 RMK AO2 T00001011,KFVE,2015-04-25T05:40:00Z,47.28,-68.3,0.0,-1.1,350,6,,1.25,29.53937,,,TRUE,TRUE,,,,,,BR,OVC,200,,,,,,,LIFR,,,,,,,,,,,,SPECI,301.0
KFOE 250540Z 15011KT 10SM -RA SCT020 BKN029 OVC055 18/15 A2947 RMK AO2 LTG DSNT N RAB0456E05B22 TSB16E34 P0001 T01780150,KFOE,2015-04-25T05:40:00Z,38.93,-95.65,17.8,15.0,150,11,,10.0,29.471457,,,,TRUE,,,,,,-RA,SCT,2000,BKN,2900,OVC,5500,,,MVFR,,,,,,0.01,,,,,,SPECI,320.0
KFBR 250540Z AUTO 26009KT 10SM SCT046 BKN070 OVC080 06/03 A2978 RMK AO2 T00570033,KFBR,2015-04-25T05:40:00Z,41.4,-110.4,5.7,3.3,260,9,,10.0,29.778543,,,TRUE,TRUE,,,,,,,SCT,4600,BKN,7000,OVC,8000,,,VFR,,,,,,,,,,,,SPECI,2144.0
KDRT 250540Z AUTO 00000KT 3SM BR OVC004 23/22 A2977 RMK AO2 T02330222,KDRT,2015-04-25T05:40:00Z,29.37,-100.92,23.3,22.2,0,0,,3.0,29.769686,,,TRUE,TRUE,,,,,,BR,OVC,400,,,,,,,LIFR,,,,,,,,,,,,SPECI,313.0
KQFX 250540Z AUTO 29005KT 9999 FEW070 24/M04 A3009 RMK A02 TSNO,KQFX,2015-04-25T05:40:00Z,100.65,-1000.65,24.0,-4.0,290,5,,6.21,30.088583,,,TRUE,TRUE,,,TRUE,,,,FEW,7000,,,,,,,VFR,,,,,,,,,,,,METAR,999.0
KQFV 250540Z AUTO 32008G12KT 9999 CLR 22/M05 A3007 RMK A02 TSNO,KQFV,2015-04-25T05:40:00Z,100.65,-1000.65,22.0,-5.0,320,8,12,6.21,30.070866,,,TRUE,TRUE,,,TRUE,,,,CLR,,,,,,,,VFR,,,,,,,,,,,,METAR,999.0
KQFU 250540Z AUTO 10006G17KT 3200 // CLR 22/M04 A3010 RMK A02 TSNO,KQFU,2015-04-25T05:40:00Z,100.65,-1000.65,22.0,-4.0,100,6,17,1.99,30.100393,,,TRUE,TRUE,,,TRUE,,,,CLR,,,,,,,,IFR,,,,,,,,,,,,METAR,999.0
KQFT 250540Z AUTO 19007G11KT 9999 FEW048 24/M04 A3007 RMK A02 TSNO,KQFT,2015-04-25T05:40:00Z,100.65,-1000.65,24.0,-4.0,190,7,11,6.21,30.070866,,,TRUE,TRUE,,,TRUE,,,,FEW,4800,,,,,,,VFR,,,,,,,,,,,,METAR,999.0
KQFB 250540Z AUTO 31009G16KT 9999 CLR 25/M03 A3012 RMK A02 TSNO,KQFB,2015-04-25T05:40:00Z,100.65,-1000.65,25.0,-3.0,310,9,16,6.21,30.121063,,,TRUE,TRUE,,,TRUE,,,,CLR,,,,,,,,VFR,,,,,,,,,,,,METAR,999.0
KQEY 250540Z AUTO 33008G12KT 9999 CLR 23/M05 A3011 RMK A02 TSNO,KQEY,2015-04-25T05:40:00Z,100.65,-1000.65,23.0,-5.0,330,8,12,6.21,30.109253,,,TRUE,TRUE,,,TRUE,,,,CLR,,,,,,,,VFR,,,,,,,,,,,,METAR,999.0
KQEX 250540Z AUTO 36005G14KT 9999 CLR 25/M04 A3009 RMK A02 TSNO,KQEX,2015-04-25T05:40:00Z,100.65,-1000.65,25.0,-4.0,360,5,14,6.21,30.088583,,,TRUE,TRUE,,,TRUE,,,,CLR,,,,,,,,VFR,,,,,,,,,,,,METAR,999.0
KQEW 250540Z AUTO 28008G13KT 9999 CLR 25/M04 A3006 RMK A02 TSNO,KQEW,2015-04-25T05:40:00Z,100.65,-1000.65,25.0,-4.0,280,8,13,6.21,30.059055,,,TRUE,TRUE,,,TRUE,,,,CLR,,,,,,,,VFR,,,,,,,,,,,,METAR,999.0
KQEV 250540Z AUTO 25005G14KT 9999 CLR 25/M04 A3010 RMK A02 TSNO,KQEV,2015-04-25T05:40:00Z,100.65,-1000.65,25.0,-4.0,250,5,14,6.21,30.100393,,,TRUE,TRUE,,,TRUE,,,,CLR,,,,,,,,VFR,,,,,,,,,,,,METAR,999.0
KQES 250540Z AUTO 9999 // CLR 13/03 A3017 RMK A02 TSNO,KQES,2015-04-25T05:40:00Z,100.65,-1000.65,13.0,3.0,,,,6.21,30.171259,,,TRUE,TRUE,,,TRUE,,,,CLR,,,,,,,,VFR,,,,,,,,,,,,METAR,999.0
KQER 250540Z AUTO 26005G15KT 8000 /OVC016 23/M04 A3004 RMK A02 TSNO,KQER,2015-04-25T05:40:00Z,100.65,-1000.65,23.0,-4.0,260,5,15,4.97,30.041338,,,TRUE,TRUE,,,TRUE,,,,OVC,1600,,,,,,,MVFR,,,,,,,,,,,,METAR,999.0
KQEQ 250540Z AUTO 21011G17KT 9999 CLR 21/M01 A2996 RMK A02 TSNO,KQEQ,2015-04-25T05:40:00Z,100.65,-1000.65,21.0,-1.0,210,11,17,6.21,29.958662,,,TRUE,TRUE,,,TRUE,,,,CLR,,,,,,,,VFR,,,,,,,,,,,,METAR,999.0
KQEP 250540Z AUTO 23006G19KT 9999 CLR 23/M06 A3005 RMK A02 TSNO,KQEP,2015-04-25T05:40:00Z,100.65,-1000.65,23.0,-6.0,230,6,19,6.21,30.050198,,,TRUE,TRUE,,,TRUE,,,,CLR,,,,,,,,VFR,,,,,,,,,,,,METAR,999.0
KQEN 250540Z AUTO 9999 CLR M03/M05 / RMK A02 TSNO,KQEN,2015-04-25T05:40:00Z,100.65,-1000.65,-3.0,-5.0,,,,6.21,,,,TRUE,TRUE,,,TRUE,,,,CLR,,,,,,,,VFR,,,,,,,,,,,,METAR,999.0
KQEL 250540Z AUTO 21009KT 9999 CLR 24/M02 A3010 RMK A02 TSNO,KQEL,2015-04-25T05:40:00Z,100.65,-1000.65,24.0,-2.0,210,9,,6.21,30.100393,,,TRUE,TRUE,,,TRUE,,,,CLR,,,,,,,,VFR,,,,,,,,,,,,METAR,999.0
KQEJ 250540Z AUTO 24002KT 9999 CLR 24/M07 A3001 RMK A02 TSNO,KQEJ,2015-04-25T05:40:00Z,100.65,-1000.65,24.0,-7.0,240,2,,6.21,30.008858,,,TRUE,TRUE,,,TRUE,,,,CLR,,,,,,,,VFR,,,,,,,,,,,,METAR,999.0
KQEI 250540Z AUTO 14007G17KT 9999 CLR 23/M06 A3007 RMK A02 TSNO,KQEI,2015-04-25T05:40:00Z,100.65,-1000.65,23.0,-6.0,140,7,17,6.21,30.070866,,,TRUE,TRUE,,,TRUE,,,,CLR,,,,,,,,VFR,,,,,,,,,,,,METAR,999.0
PAOO 250539Z AUTO 2SM BR OVC005 A2958 RMK AO2 TSNO CIG 003V007 $,PAOO,2015-04-25T05:39:00Z,60.53,-165.12,,,,,,2.0,29.58071,,,TRUE,TRUE,TRUE,,TRUE,,,BR,OVC,500,,,,,,,IFR,,,,,,,,,,,,SPECI,18.0
KHOU 250539Z 22008KT 8SM FEW008 SCT016 BKN035 OVC250 25/23 A2978 RMK AO2,KHOU,2015-04-25T05:39:00Z,29.63,-95.28,25.0,23.0,220,8,,8.0,29.778543,,,,TRUE,,,,,,,FEW,800,SCT,1600,BKN,3500,OVC,25000,VFR,,,,,,,,,,,,SPECI,36.0
KMTO 250539Z AUTO 15010KT 10SM OVC028 13/03 A2978 RMK AO2 T01280033,KMTO,2015-04-25T05:39:00Z,39.47,-88.27,12.8,3.3,150,10,,10.0,29.778543,,,TRUE,TRUE,,,,,,,OVC,2800,,,,,,,MVFR,,,,,,,,,,,,SPECI,214.0
KDIJ 250539Z AUTO 20008KT 10SM BKN026 OVC033 04/03 A2973 RMK AO2 BKN V SCT,KDIJ,2015-04-25T05:39:00Z,43.75,-111.1,4.0,3.0,200,8,,10.0,29.731298,,,TRUE,TRUE,,,,,,,BKN,2600,OVC,3300,,,,,MVFR,,,,,,,,,,,,SPECI,1899.0
KAAO 250539Z AUTO 20019G26KT 10SM VCTS OVC016 18/14 A2947 RMK AO2 PK WND 19026/0533 LTG DSNT ALQDS T01780144 $,KAAO,2015-04-25T05:39:00Z,37.75,-97.22,17.8,14.4,200,19,26,10.0,29.471457,,,TRUE,TRUE,TRUE,,,,,VCTS,OVC,1600,,,,,,,MVFR,,,,,,,,,,,,SPECI,434.0
KDLZ 250538Z AUTO 10004KT 10SM OVC085 08/00 A2992 RMK AO2,KDLZ,2015-04-25T05:38:00Z,40.28,-83.12,8.0,0.0,100,4,,10.0,29.920275,,,TRUE,TRUE,,,,,,,OVC,8500,,,,,,,VFR,,,,,,,,,,,,METAR,289.0
KBDU 250538Z AUTO 00000KT 10SM CLR 08/00 A2969 RMK AO2,KBDU,2015-04-25T05:38:00Z,40.03,-105.23,8.0,0.0,0,0,,10.0,29.68996,,,TRUE,TRUE,,,,,,,CLR,,,,,,,,VFR,,,,,,,,,,,,METAR,1612.0
CYPO 250538Z AUTO 33006KT 1 3/4SM BR OVC005 M05/M05 A3013 RMK ICG SLP208,CYPO,2015-04-25T05:38:00Z,54.98,-85.43,-5.0,-5.0,330,6,,1.75,30.129921,1020.8,,TRUE,,,,,,,BR,OVC,500,,,,,,,IFR,,,,,,,,,,,,SPECI,53.0
KMNH 250538Z AUTO 24009KT 10SM CLR 02/M02 A2977 RMK AO2,KMNH,2015-04-25T05:38:00Z,39.22,-104.65,2.0,-2.0,240,9,,10.0,29.769686,,,TRUE,TRUE,,,,,,,CLR,,,,,,,,VFR,,,,,,,,,,,,METAR,2152.0
CYYD 250538Z AUTO 35005KT 6SM RA BR OVC026 05/04 A2984 RMK SLP119,CYYD,2015-04-25T05:38:00Z,54.82,-127.18,5.0,4.0,350,5,,6.0,29.840551,1011.9,,TRUE,,,,,,,RA BR,OVC,2600,,,,,,,MVFR,,,,,,,,,,,,SPECI,523.0
LEMH 250538Z 16005KT 2000 BR BKN002 15/15 Q1015,LEMH,2015-04-25T05:38:00Z,39.87,4.22,15.0,15.0,160,5,,1.24,29.970472,,,,,,,,,,BR,BKN,200,,,,,,,LIFR,,,,,,,,,,,,SPECI,82.0
YPAD 250538Z 19014KT 5000 -SHRA FEW018 SCT032 BKN055 15/13 Q1015 FM0540 18015KT 9999 -SHRA SCT025 BKN030 INTER 0530/0700 5000 SHRA SCT015 BKN025,YPAD,2015-04-25T05:38:00Z,-34.95,138.52,15.0,13.0,190,14,,3.11,29.970472,,,,,,,,,,-SHRA,FEW,1800,SCT,3200,BKN,5500,,,MVFR,,,,,,,,,,,,SPECI,4.0
KFNB 250538Z AUTO 25009G27KT 220V300 2SM +TSRA BR SCT013 BKN029 BKN041 14/14 A2949 RMK AO2 PK WND 25027/0535 VIS 1 3/4V4 LTG DSNT ALQDS RAB18 TSB09 P0027 T01390139,KFNB,2015-04-25T05:38:00Z,40.07,-95.58,13.9,13.9,250,9,27,2.0,29.489174,,,TRUE,TRUE,,,,,,+TSRA BR,SCT,1300,BKN,2900,BKN,4100,,,IFR,,,,,,0.27,,,,,,SPECI,300.0
PGUA 250538Z AUTO 12014G19KT 10SM BKN010 29/24 A2977 RMK AO2 CIG 010V015 BKN V SCT $,PGUA,2015-04-25T05:38:00Z,13.57,144.92,29.0,24.0,120,14,19,10.0,29.769686,,,TRUE,TRUE,TRUE,,,,,,BKN,1000,,,,,,,MVFR,,,,,,,,,,,,SPECI,187.0
KSKF 250538Z AUTO 11001KT 10SM FEW012 21/20 A2977 RMK AO2 $,KSKF,2015-04-25T05:38:00Z,29.37,-98.57,21.0,20.0,110,1,,10.0,29.769686,,,TRUE,TRUE,TRUE,,,,,,FEW,1200,,,,,,,VFR,,,,,,,,,,,,SPECI,210.0
KRND 250538Z AUTO 19009KT 9SM BKN009 OVC018 24/24 A2978 RMK AO2,KRND,2015-04-25T05:38:00Z,29.52,-98.27,24.0,24.0,190,9,,9.0,29.778543,,,TRUE,TRUE,,,,,,,BKN,900,OVC,1800,,,,,IFR,,,,,,,,,,,,SPECI,232.0
KFRI 250538Z AUTO 15008KT 10SM VCTS SCT065 SCT090 13/13 A2943 RMK AO2 LTG DSNT S RAE0458RAB00E38 PRESFR,KFRI,2015-04-25T05:38:00Z,39.03,-96.77,13.0,13.0,150,8,,10.0,29.430119,,,TRUE,TRUE,,,,,,VCTS,SCT,6500,SCT,9000,,,,,VFR,,,,,,,,,,,,SPECI,325.0
EGVA 250538Z AUTO 24005KT 9999 BKN008 OVC012 11/11 A2965 RMK AO2 CIG 008V011 $,EGVA,2015-04-25T05:38:00Z,51.67,-1.77,11.0,11.0,240,5,,6.21,29.648623,,,TRUE,TRUE,TRUE,,,,,,BKN,800,OVC,1200,,,,,IFR,,,,,,,,,,,,METAR,87.0
KRKP 250538Z AUTO 16013G21KT 4SM -RA BR FEW090 BKN110 25/23 A2977 RMK AO2 LTG DSNT E-SW TSB17E32 P0000 T02500233,KRKP,2015-04-25T05:38:00Z,28.08,-97.05,25.0,23.3,160,13,21,4.0,29.769686,,,TRUE,TRUE,,,,,,-RA BR,FEW,9000,BKN,11000,,,,,MVFR,,,,,,0.0050,,,,,,SPECI,6.0
PACD 250538Z AUTO 00000KT 10SM FEW015 SCT024 OVC090 02/02 A2944 RMK AO2 T00220017 TSNO,PACD,2015-04-25T05:38:00Z,55.2,-162.72,2.2,1.7,0,0,,10.0,29.438976,,,TRUE,TRUE,,,TRUE,,,,FEW,1500,SCT,2400,OVC,9000,,,VFR,,,,,,,,,,,,SPECI,30.0
KPKV 250538Z AUTO 09019G24KT 4SM RA SCT035 SCT055 SCT075 24/23 A2968 RMK AO2 P0001,KPKV,2015-04-25T05:38:00Z,28.65,-96.68,24.0,23.0,90,19,24,4.0,29.681103,,,TRUE,TRUE,,,,,,RA,SCT,3500,SCT,5500,SCT,7500,,,MVFR,,,,,,0.01,,,,,,SPECI,9.0
KMGG 250537Z AUTO 11008G16KT 10SM OVC014 08/05 A2980 RMK AO2 T00750053,KMGG,2015-04-25T05:37:00Z,45.23,-93.98,7.5,5.3,110,8,16,10.0,29.799213,,,TRUE,TRUE,,,,,,,OVC,1400,,,,,,,MVFR,,,,,,,,,,,,METAR,313.0
K4BM 250537Z AUTO 31011G16KT 10SM SCT100 M02/M09 A2996 RMK AO2,K4BM,2015-04-25T05:37:00Z,39.05,-105.52,-2.0,-9.0,310,11,16,10.0,29.958662,,,TRUE,TRUE,,,,,,,SCT,10000,,,,,,,VFR,,,,,,,,,,,,METAR,3438.0
KVCT 250537Z AUTO 15007KT 3SM BR SCT016 24/24 A2977 RMK AO2 PRESRR T02390239 TSNO,KVCT,2015-04-25T05:37:00Z,28.87,-96.93,23.9,23.9,150,7,,3.0,29.769686,,,TRUE,TRUE,,,TRUE,,,BR,SCT,1600,,,,,,,MVFR,,,,,,,,,,,,SPECI,31.0
KPQL 250537Z AUTO 16004KT 10SM BKN019 24/22 A2982 RMK AO2 T02390217 TSNO,KPQL,2015-04-25T05:37:00Z,30.47,-88.53,23.9,21.7,160,4,,10.0,29.819881,,,TRUE,TRUE,,,TRUE,,,,BKN,1900,,,,,,,MVFR,,,,,,,,,,,,SPECI,6.0
KLWT 250537Z AUTO 31008KT 6SM RA BR FEW003 BKN014 OVC020 06/04 A2970 RMK AO2 P0008 T00560044,KLWT,2015-04-25T05:37:00Z,47.03,-109.47,5.6,4.4,310,8,,6.0,29.698818,,,TRUE,TRUE,,,,,,RA BR,FEW,300,BKN,1400,OVC,2000,,,MVFR,,,,,,0.08,,,,,,SPECI,1270.0
KLFT 250537Z AUTO 20011KT 8SM SCT012 BKN018 OVC033 26/23 A2979 RMK AO2 T02560233,KLFT,2015-04-25T05:37:00Z,30.2,-92.0,25.6,23.3,200,11,,8.0,29.790354,,,TRUE,TRUE,,,,,,,SCT,1200,BKN,1800,OVC,3300,,,MVFR,,,,,,,,,,,,SPECI,11.0
KDTS 250537Z AUTO 18005G15KT 10SM SCT029 OVC039 24/22 A2987 RMK AO2 T02390222 TSNO,KDTS,2015-04-25T05:37:00Z,30.4,-86.47,23.9,22.2,180,5,15,10.0,29.870079,,,TRUE,TRUE,,,TRUE,,,,SCT,2900,OVC,3900,,,,,VFR,,,,,,,,,,,,SPECI,5.0
KFBG 250537Z AUTO 22004KT 10SM CLR 13/03 A2993 RMK AO2,KFBG,2015-04-25T05:37:00Z,35.12,-78.92,13.0,3.0,220,4,,10.0,29.929134,,,TRUE,TRUE,,,,,,,CLR,,,,,,,,VFR,,,,,,,,,,,,SPECI,74.0
KNZY 250537Z 25007KT 9SM -RA BKN020 OVC030 16/11 A3002 RMK AO2 RAB36 P0000 T01610111 $,KNZY,2015-04-25T05:37:00Z,32.7,-117.22,16.1,11.1,250,7,,9.0,30.02067,,,,TRUE,TRUE,,,,,-RA,BKN,2000,OVC,3000,,,,,MVFR,,,,,,0.0050,,,,,,SPECI,8.0
KROS 250536Z AUTO 09004KT 10SM OVC031 08/00 A2984 RMK AO2 T00751001,KROS,2015-04-25T05:36:00Z,45.7,-92.95,7.5,-0.1,90,4,,10.0,29.840551,,,TRUE,TRUE,,,,,,,OVC,3100,,,,,,,VFR,,,,,,,,,,,,METAR,281.0
KMQJ 250536Z AUTO 00000KT 10SM BKN060 12/M03 A2989 RMK AO1,KMQJ,2015-04-25T05:36:00Z,39.85,-85.9,12.0,-3.0,0,0,,10.0,29.890747,,,TRUE,TRUE,,,,,,,BKN,6000,,,,,,,VFR,,,,,,,,,,,,METAR,263.0
KJMR 250536Z AUTO 08005KT 10SM OVC030 05/M01 A2985 RMK AO2,KJMR,2015-04-25T05:36:00Z,45.88,-93.27,5.0,-1.0,80,5,,10.0,29.84941,,,TRUE,TRUE,,,,,,,OVC,3000,,,,,,,MVFR,,,,,,,,,,,,METAR,309.0
K14Y 250536Z AUTO 09008KT 10SM OVC010 05/03 A2980 RMK AO2,K14Y,2015-04-25T05:36:00Z,45.9,-94.87,5.0,3.0,90,8,,10.0,29.799213,,,TRUE,TRUE,,,,,,,OVC,1000,,,,,,,MVFR,,,,,,,,,,,,METAR,406.0
KXVG 250536Z AUTO 08005KT 10SM OVC032 04/M01 A2985 RMK AO2,KXVG,2015-04-25T05:36:00Z,46.98,-94.2,4.0,-1.0,80,5,,10.0,29.84941,,,TRUE,TRUE,,,,,,,OVC,3200,,,,,,,VFR,,,,,,,,,,,,METAR,407.0
K4I3 250536Z AUTO 06007KT 10SM OVC085 08/M02 A2994 RMK AO2,K4I3,2015-04-25T05:36:00Z,40.33,-82.53,8.0,-2.0,60,7,,10.0,29.940945,,,TRUE,TRUE,,,,,,,OVC,8500,,,,,,,VFR,,,,,,,,,,,,METAR,363.0
KAUM 250536Z AUTO 11014G20KT 10SM OVC030 06/03 A2974 RMK AO2,KAUM,2015-04-25T05:36:00Z,43.67,-92.92,6.0,3.0,110,14,20,10.0,29.740158,,,TRUE,TRUE,,,,,,,OVC,3000,,,,,,,MVFR,,,,,,,,,,,,METAR,375.0
CYGV 250536Z AUTO 05012KT 9SM -RA BKN020 OVC033 03/02 A2969 RMK PCPN 0.5MM PAST HR SLP056,CYGV,2015-04-25T05:36:00Z,50.27,-63.62,3.0,2.0,50,12,,9.0,29.68996,1005.6,,TRUE,,,,,,,-RA,BKN,2000,OVC,3300,,,,,MVFR,,,,,,,,,,,,SPECI,33.0
KMOP 250536Z AUTO 07005KT 10SM BKN120 03/M05 A3001 RMK AO2 T00301050,KMOP,2015-04-25T05:36:00Z,43.62,-84.73,3.0,-5.0,70,5,,10.0,30.008858,,,TRUE,TRUE,,,,,,,BKN,12000,,,,,,,VFR,,,,,,,,,,,,METAR,230.0
K33V 250536Z AUTO 13005KT 10SM CLR 00/M02 A2983 RMK AO2,K33V,2015-04-25T05:36:00Z,40.75,-106.28,0.0,-2.0,130,5,,10.0,29.828741,,,TRUE,TRUE,,,,,,,CLR,,,,,,,,VFR,,,,,,,,,,,,METAR,2484.0
KCOQ 250536Z AUTO 09009G14KT 10SM BKN050 OVC060 01/M03 A2990 RMK AO2,KCOQ,2015-04-25T05:36:00Z,46.7,-92.5,1.0,-3.0,90,9,14,10.0,29.899607,,,TRUE,TRUE,,,,,,,BKN,5000,OVC,6000,,,,,VFR,,,,,,,,,,,,METAR,390.0
KCCU 250536Z AUTO 25013G22KT SCT031 M02/M08 A2997 RMK AO2 PWINO,KCCU,2015-04-25T05:36:00Z,39.48,-106.15,-2.0,-8.0,250,13,22,,29.970472,,,TRUE,TRUE,,,,,TRUE,,SCT,3100,,,,,,,,,,,,,,,,,,,METAR,3680.0
KCBG 250536Z AUTO 11007G16KT 073V133 10SM OVC030 09/03 A2981 RMK AO2,KCBG,2015-04-25T05:36:00Z,45.57,-93.27,9.0,3.0,110,7,16,10.0,29.811024,,,TRUE,TRUE,,,,,,,OVC,3000,,,,,,,MVFR,,,,,,,,,,,,METAR,287.0
KBJC 250536Z AUTO 28013KT 10SM CLR 10/M03 A2971 RMK AO2,KBJC,2015-04-25T05:36:00Z,39.9,-105.1,10.0,-3.0,280,13,,10.0,29.71063,,,TRUE,TRUE,,,,,,,CLR,,,,,,,,VFR,,,,,,,,,,,,METAR,1724.0
KAVC 250536Z AUTO 00000KT 10SM CLR 06/03 A2999 RMK AO2 T00600030,KAVC,2015-04-25T05:36:00Z,36.68,-78.03,6.0,3.0,0,0,,10.0,29.991142,,,TRUE,TRUE,,,,,,,CLR,,,,,,,,VFR,,,,,,,,,,,,METAR,135.0
KTTF 250536Z AUTO 00000KT 7SM -RA BKN025 BKN030 OVC038 06/03 A3002 RMK AO2,KTTF,2015-04-25T05:36:00Z,41.93,-83.42,6.0,3.0,0,0,,7.0,30.02067,,,TRUE,TRUE,,,,,,-RA,BKN,2500,BKN,3000,OVC,3800,,,MVFR,,,,,,,,,,,,SPECI,188.0
KPHN 250536Z AUTO 05004KT 10SM CLR 02/M06 A3002 RMK AO2,KPHN,2015-04-25T05:36:00Z,42.92,-82.52,2.0,-6.0,50,4,,10.0,30.02067,,,TRUE,TRUE,,,,,,,CLR,,,,,,,,VFR,,,,,,,,,,,,SPECI,198.0
KMCD 250536Z AUTO 01004KT 10SM CLR M01/M08 A3003 RMK AO2 T10111078,KMCD,2015-04-25T05:36:00Z,45.85,-84.63,-1.1,-7.8,10,4,,10.0,30.029528,,,TRUE,TRUE,,,,,,,CLR,,,,,,,,VFR,,,,,,,,,,,,SPECI,226.0
KBKB 250536Z AUTO 00000KT 8SM FEW016 BKN030 OVC042 25/22 A2981 RMK AO2 T02500217,KBKB,2015-04-25T05:36:00Z,31.0,-92.92,25.0,21.7,0,0,,8.0,29.811024,,,TRUE,TRUE,,,,,,,FEW,1600,BKN,3000,OVC,4200,,,MVFR,,,,,,,,,,,,METAR,94.0
PAZK 250536Z AUTO 00000KT 10SM CLR M02/M12 A2967 RMK AO1,PAZK,2015-04-25T05:36:00Z,61.93,-147.17,-2.0,-12.0,0,0,,10.0,29.66929,,,TRUE,TRUE,,,,,,,CLR,,,,,,,,VFR,,,,,,,,,,,,METAR,1003.0
PAWS 250536Z AUTO 31005KT 10SM FEW110 07/M13 A2974 RMK AO1,PAWS,2015-04-25T05:36:00Z,61.57,-149.53,7.0,-13.0,310,5,,10.0,29.740158,,,TRUE,TRUE,,,,,,,FEW,11000,,,,,,,VFR,,,,,,,,,,,,METAR,107.0
PAWN 250536Z AUTO 02006KT 10SM CLR 04/M06 A2974 RMK AO1,PAWN,2015-04-25T05:36:00Z,67.57,-162.98,4.0,-6.0,20,6,,10.0,29.740158,,,TRUE,TRUE,,,,,,,CLR,,,,,,,,VFR,,,,,,,,,,,,METAR,30.0
PAWG 250536Z 28004KT 10SM FEW080 09/02 A2983 RMK AO1 WEA: NONE (MCQ),PAWG,2015-04-25T05:36:00Z,56.48,-132.37,9.0,2.0,280,4,,10.0,29.828741,,,,TRUE,,,,,,,FEW,8000,,,,,,,VFR,,,,,,,,,,,,METAR,11.0
PAVD 250536Z 09005KT 10SM FEW065 SCT150 SCT200 04/M03 A2981 RMK AO1 0447Z WEA: NONE TWR WND 05004KT,PAVD,2015-04-25T05:36:00Z,61.13,-146.25,4.0,-3.0,90,5,,10.0,29.811024,,,,TRUE,,,,,,,FEW,6500,SCT,15000,SCT,20000,,,VFR,,,,,,,,,,,,METAR,37.0
PAUN 250536Z AUTO 34003KT 10SM OVC090 05/M01 A2967 RMK AO1,PAUN,2015-04-25T05:36:00Z,63.88,-160.8,5.0,-1.0,340,3,,10.0,29.66929,,,TRUE,TRUE,,,,,,,OVC,9000,,,,,,,VFR,,,,,,,,,,,,METAR,6.0
PATG 250536Z AUTO 06007KT 10SM OVC060 05/01 A2954 RMK AO1,PATG,2015-04-25T05:36:00Z,59.05,-160.38,5.0,1.0,60,7,,10.0,29.53937,,,TRUE,TRUE,,,,,,,OVC,6000,,,,,,,VFR,,,,,,,,,,,,METAR,4.0
PASX 250536Z AUTO 09011KT 10SM OVC095 A2972 RMK AO1,PASX,2015-04-25T05:36:00Z,60.48,-151.03,,,90,11,,10.0,29.719488,,,TRUE,TRUE,,,,,,,OVC,9500,,,,,,,VFR,,,,,,,,,,,,METAR,32.0
PASM 250536Z AUTO 08008KT 10SM CLR 04/M02 A2960 RMK AO1,PASM,2015-04-25T05:36:00Z,62.07,-163.3,4.0,-2.0,80,8,,10.0,29.601377,,,TRUE,TRUE,,,,,,,CLR,,,,,,,,VFR,,,,,,,,,,,,METAR,92.0
PASL 250536Z AUTO 00000KT 10SM SCT060 OVC070 08/M02 A2967 RMK AO1,PASL,2015-04-25T05:36:00Z,61.72,-157.15,8.0,-2.0,0,0,,10.0,29.66929,,,TRUE,TRUE,,,,,,,SCT,6000,OVC,7000,,,,,VFR,,,,,,,,,,,,METAR,55.0
PASK 250536Z AUTO 06006KT 10SM CLR 01/M02 A2978 RMK AO1,PASK,2015-04-25T05:36:00Z,66.6,-160.0,1.0,-2.0,60,6,,10.0,29.778543,,,TRUE,TRUE,,,,,,,CLR,,,,,,,,VFR,,,,,,,,,,,,METAR,8.0
PASD 250536Z AUTO 15006KT 10SM BKN049 05/03 A2948 RMK AO1,PASD,2015-04-25T05:36:00Z,55.33,-160.5,5.0,3.0,150,6,,10.0,29.480314,,,TRUE,TRUE,,,,,,,BKN,4900,,,,,,,VFR,,,,,,,,,,,,METAR,7.0
PASA 250536Z AUTO 03006KT 1/4SM OVC003 M02/M02 A2978 RMK AO1,PASA,2015-04-25T05:36:00Z,63.68,-170.5,-2.0,-2.0,30,6,,0.25,29.778543,,,TRUE,TRUE,,,,,,,OVC,300,,,,,,,LIFR,,,,,,,,,,,,METAR,16.0
PARC 250536Z AUTO 02006KT 10SM CLR M01/M09 A2984 RMK AO1,PARC,2015-04-25T05:36:00Z,68.12,-145.58,-1.0,-9.0,20,6,,10.0,29.840551,,,TRUE,TRUE,,,,,,,CLR,,,,,,,,VFR,,,,,,,,,,,,METAR,636.0
PAPO 250536Z AUTO 01008KT 10SM CLR M03/M05 RMK AO1,PAPO,2015-04-25T05:36:00Z,68.35,-166.8,-3.0,-5.0,10,8,,10.0,,,,TRUE,TRUE,,,,,,,CLR,,,,,,,,VFR,,,,,,,,,,,,METAR,6.0
PAPH 250536Z AUTO 13014KT 10SM OVC060 04/M03 A2948 RMK AO1,PAPH,2015-04-25T05:36:00Z,56.95,-158.62,4.0,-3.0,130,14,,10.0,29.480314,,,TRUE,TRUE,,,,,,,OVC,6000,,,,,,,VFR,,,,,,,,,,,,METAR,29.0
PANV 250536Z AUTO 05007KT 10SM BKN070 08/M03 A2961 RMK AO1,PANV,2015-04-25T05:36:00Z,62.65,-160.18,8.0,-3.0,50,7,,10.0,29.610237,,,TRUE,TRUE,,,,,,,BKN,7000,,,,,,,VFR,,,,,,,,,,,,METAR,99.0
PANI 250536Z 13006KT 10SM SCT038 SCT046 BKN120 07/00 A2962 RMK AO1,PANI,2015-04-25T05:36:00Z,61.58,-159.53,7.0,0.0,130,6,,10.0,29.619095,,,,TRUE,,,,,,,SCT,3800,SCT,4600,BKN,12000,,,VFR,,,,,,,,,,,,METAR,26.0
PAMY 250536Z AUTO 00000KT M1/4SM OVC002 00/M03 A2957 RMK AO1,PAMY,2015-04-25T05:36:00Z,60.37,-166.27,0.0,-3.0,0,0,,0.25,29.568897,,,TRUE,TRUE,,,,,,,OVC,200,,,,,,,LIFR,,,,,,,,,,,,METAR,13.0
PAMM 250536Z AUTO 00000KT 10SM BKN090 10/04 A2985 RMK AO1,PAMM,2015-04-25T05:36:00Z,55.13,-131.58,10.0,4.0,0,0,,10.0,29.84941,,,TRUE,TRUE,,,,,,,BKN,9000,,,,,,,VFR,,,,,,,,,,,,METAR,1.0
PAMH 250536Z AUTO 17003KT 10SM CLR 08/M12 A2964 RMK AO1,PAMH,2015-04-25T05:36:00Z,63.9,-152.32,8.0,-12.0,170,3,,10.0,29.639763,,,TRUE,TRUE,,,,,,,CLR,,,,,,,,VFR,,,,,,,,,,,,METAR,214.0
PAKP 250536Z AUTO 20003KT 10SM CLR M02/M11 A2977 RMK AO1,PAKP,2015-04-25T05:36:00Z,68.13,-151.73,-2.0,-11.0,200,3,,10.0,29.769686,,,TRUE,TRUE,,,,,,,CLR,,,,,,,,VFR,,,,,,,,,,,,METAR,642.0
PAKK 250536Z AUTO 36008KT 10SM CLR 06/M08 A2968 RMK AO1,PAKK,2015-04-25T05:36:00Z,64.93,-161.15,6.0,-8.0,360,8,,10.0,29.681103,,,TRUE,TRUE,,,,,,,CLR,,,,,,,,VFR,,,,,,,,,,,,METAR,47.0
PAJC 250536Z AUTO 13005KT 10SM SCT100 05/M01 A2948 RMK AO1,PAJC,2015-04-25T05:36:00Z,56.32,-158.37,5.0,-1.0,130,5,,10.0,29.480314,,,TRUE,TRUE,,,,,,,SCT,10000,,,,,,,VFR,,,,,,,,,,,,METAR,15.0
PAIN 250536Z AUTO 00000KT 10SM CLR 02/M09 A2971 RMK AO1,PAIN,2015-04-25T05:36:00Z,63.73,-148.92,2.0,-9.0,0,0,,10.0,29.71063,,,TRUE,TRUE,,,,,,,CLR,,,,,,,,VFR,,,,,,,,,,,,METAR,524.0
PAII 250536Z AUTO 11009KT 10SM CLR 04/01 A2955 RMK AO1,PAII,2015-04-25T05:36:00Z,58.18,-157.38,4.0,1.0,110,9,,10.0,29.551182,,,TRUE,TRUE,,,,,,,CLR,,,,,,,,VFR,,,,,,,,,,,,METAR,30.0
PAHY 250536Z AUTO 00000KT 10SM CLR 09/01 A2982 RMK AO1,PAHY,2015-04-25T05:36:00Z,55.2,-132.83,9.0,1.0,0,0,,10.0,29.819881,,,TRUE,TRUE,,,,,,,CLR,,,,,,,,VFR,,,,,,,,,,,,METAR,1.0
PAHP 250536Z AUTO 03007KT 10SM BKN041 BKN050 OVC060 01/M01 A2960 RMK AO1,PAHP,2015-04-25T05:36:00Z,61.53,-166.15,1.0,-1.0,30,7,,10.0,29.601377,,,TRUE,TRUE,,,,,,,BKN,4100,BKN,5000,OVC,6000,,,VFR,,,,,,,,,,,,SPECI,5.0
PAHL 250536Z AUTO 07005KT 10SM CLR 08/M07 A2972 RMK AO1,PAHL,2015-04-25T05:36:00Z,65.7,-156.35,8.0,-7.0,70,5,,10.0,29.719488,,,TRUE,TRUE,,,,,,,CLR,,,,,,,,VFR,,,,,,,,,,,,METAR,65.0
PAGS 250536Z AUTO 34006KT 10SM BKN100 08/M01 A2983 RMK AO1 PNO,PAGS,2015-04-25T05:36:00Z,58.42,-135.73,8.0,-1.0,340,6,,10.0,29.828741,,,TRUE,TRUE,,,,,,,BKN,10000,,,,,,,VFR,,,,,,,,,,,,METAR,9.0
PAGM 250536Z AUTO 03013G18KT 1/2SM OVC003 00/M02 A2978 RMK AO1,PAGM,2015-04-25T05:36:00Z,63.77,-171.73,0.0,-2.0,30,13,18,0.5,29.778543,,,TRUE,TRUE,,,,,,,OVC,300,,,,,,,LIFR,,,,,,,,,,,,METAR,8.0
PAGL 250536Z AUTO 31005KT 10SM OVC060 04/M01 A2972 RMK AO1,PAGL,2015-04-25T05:36:00Z,64.55,-163.03,4.0,-1.0,310,5,,10.0,29.719488,,,TRUE,TRUE,,,,,,,OVC,6000,,,,,,,VFR,,,,,,,,,,,,SPECI,8.0
PAFM 250536Z AUTO 02008KT 10SM CLR 04/M08 A2981 RMK AO1,PAFM,2015-04-25T05:36:00Z,67.1,-157.85,4.0,-8.0,20,8,,10.0,29.811024,,,TRUE,TRUE,,,,,,,CLR,,,,,,,,VFR,,,,,,,,,,,,METAR,88.0
PAFE 250536Z AUTO 06006KT 10SM CLR 05/01 A2985 RMK AO1,PAFE,2015-04-25T05:36:00Z,56.97,-133.92,5.0,1.0,60,6,,10.0,29.84941,,,TRUE,TRUE,,,,,,,CLR,,,,,,,,VFR,,,,,,,,,,,,METAR,9.0
PAEM 250536Z AUTO 01006KT 10SM CLR 03/M02 A2964 RMK AO1,PAEM,2015-04-25T05:36:00Z,62.77,-164.52,3.0,-2.0,10,6,,10.0,29.639763,,,TRUE,TRUE,,,,,,,CLR,,,,,,,,VFR,,,,,,,,,,,,METAR,3.0
PADK 250536Z 33030G36KT 10SM SCT037 OVC048 02/M07 A3014 RMK AO1,PADK,2015-04-25T05:36:00Z,51.88,-176.65,2.0,-7.0,330,30,36,10.0,30.138779,,,,TRUE,,,,,,,SCT,3700,OVC,4800,,,,,VFR,,,,,,,,,,,,SPECI,4.0
PABV 250536Z AUTO 02003KT 10SM BKN100 08/M06 A2976 RMK AO1,PABV,2015-04-25T05:36:00Z,61.42,-149.52,8.0,-6.0,20,3,,10.0,29.760826,,,TRUE,TRUE,,,,,,,BKN,10000,,,,,,,VFR,,,,,,,,,,,,METAR,29.0
PABL 250536Z AUTO 00000KT 10SM CLR 03/M02 A2977 RMK AO1,PABL,2015-04-25T05:36:00Z,65.98,-161.15,3.0,-2.0,0,0,,10.0,29.769686,,,TRUE,TRUE,,,,,,,CLR,,,,,,,,VFR,,,,,,,,,,,,METAR,7.0
PAAK 250536Z 30023G35KT 10SM SCT037 BKN045 OVC060 02/M04 A2996 RMK AO1,PAAK,2015-04-25T05:36:00Z,52.22,-174.2,2.0,-4.0,300,23,35,10.0,29.958662,,,,TRUE,,,,,,,SCT,3700,BKN,4500,OVC,6000,,,VFR,,,,,,,,,,,,SPECI,17.0
PASC 250536Z 06010KT 6SM BR BKN006 M06/M07 A2989 RMK AO2 T10561072,PASC,2015-04-25T05:36:00Z,70.2,-148.47,-5.6,-7.2,60,10,,6.0,29.890747,,,,TRUE,,,,,,BR,BKN,600,,,,,,,IFR,,,,,,,,,,,,SPECI,15.0
KCEW 250536Z AUTO 00000KT 9SM FEW009 BKN029 BKN035 18/17 A2988 RMK AO2 T01830172,KCEW,2015-04-25T05:36:00Z,30.78,-86.52,18.3,17.2,0,0,,9.0,29.878937,,,TRUE,TRUE,,,,,,,FEW,900,BKN,2900,BKN,3500,,,MVFR,,,,,,,,,,,,SPECI,55.0
KMEM 250536Z 16010KT 6SM -RA BR FEW016 SCT070CB OVC110 15/13 A2979 RMK AO2 TSE30 OCNL LTGICCG SE-SW AND W-NW CB SE-SW AND W-NW MOV E P0009,KMEM,2015-04-25T05:36:00Z,35.07,-89.98,15.0,13.0,160,10,,6.0,29.790354,,,,TRUE,,,,,,-RA BR,FEW,1600,SCT,7000,OVC,11000,,,VFR,,,,,,0.09,,,,,,SPECI,86.0
KHSI 250536Z AUTO 00000KT 1 3/4SM +TSRA BR OVC004 13/13 A2949 RMK AO2 LTG DSNT NE AND S AND SW RAB06 TSB02E27B36 P0010 T01280128,KHSI,2015-04-25T05:36:00Z,40.6,-98.43,12.8,12.8,0,0,,1.75,29.489174,,,TRUE,TRUE,,,,,,+TSRA BR,OVC,400,,,,,,,LIFR,,,,,,0.1,,,,,,SPECI,591.0
KSGR 250536Z AUTO 17010KT 7SM BKN011 OVC031 25/23 A2977 RMK AO2 RAE12 P0000 T02500233,KSGR,2015-04-25T05:36:00Z,29.62,-95.65,25.0,23.3,170,10,,7.0,29.769686,,,TRUE,TRUE,,,,,,,BKN,1100,OVC,3100,,,,,MVFR,,,,,,0.0050,,,,,,SPECI,2.0
KTXK 250536Z AUTO 19008KT 10SM FEW006 16/16 A2972 RMK AO2 RAE0456 P0000 T01610156,KTXK,2015-04-25T05:36:00Z,33.45,-93.98,16.1,15.6,190,8,,10.0,29.719488,,,TRUE,TRUE,,,,,,,FEW,600,,,,,,,VFR,,,,,,0.0050,,,,,,SPECI,111.0
KSWO 250536Z AUTO 19013G20KT 10SM BKN012 17/14 A2954 RMK AO2 T01670144 TSNO,KSWO,2015-04-25T05:36:00Z,36.17,-97.08,16.7,14.4,190,13,20,10.0,29.53937,,,TRUE,TRUE,,,TRUE,,,,BKN,1200,,,,,,,MVFR,,,,,,,,,,,,SPECI,290.0
KSAW 250536Z AUTO 00000KT 10SM CLR M01/M08 A3001 RMK AO2 T10101078,KSAW,2015-04-25T05:36:00Z,46.35,-87.4,-1.0,-7.8,0,0,,10.0,30.008858,,,TRUE,TRUE,,,,,,,CLR,,,,,,,,VFR,,,,,,,,,,,,SPECI,372.0
KCJR 250536Z AUTO 00000KT 10SM CLR 03/M01 A2998 RMK AO2,KCJR,2015-04-25T05:36:00Z,38.53,-77.87,3.0,-1.0,0,0,,10.0,29.97933,,,TRUE,TRUE,,,,,,,CLR,,,,,,,,VFR,,,,,,,,,,,,SPECI,97.0
KRMN 250535Z AUTO 00000KT 10SM CLR 01/M01 A3000 RMK AO2 T00111014,KRMN,2015-04-25T05:35:00Z,38.4,-77.45,1.1,-1.4,0,0,,10.0,30.0,,,TRUE,TRUE,,,,,,,CLR,,,,,,,,VFR,,,,,,,,,,,,SPECI,65.0
KSPA 250535Z AUTO 00000KT 10SM CLR 13/09 A2992 RMK AO2,KSPA,2015-04-25T05:35:00Z,34.92,-81.93,13.0,9.0,0,0,,10.0,29.920275,,,TRUE,TRUE,,,,,,,CLR,,,,,,,,VFR,,,,,,,,,,,,METAR,303.0
KSMS 250535Z AUTO 19004KT 10SM CLR 16/10 A2998 RMK AO2,KSMS,2015-04-25T05:35:00Z,34.0,-80.37,16.0,10.0,190,4,,10.0,29.97933,,,TRUE,TRUE,,,,,,,CLR,,,,,,,,VFR,,,,,,,,,,,,METAR,56.0
KRZT 250535Z AUTO 12003KT 10SM OVC085 09/02 A2992 RMK AO2,KRZT,2015-04-25T05:35:00Z,39.43,-83.02,9.0,2.0,120,3,,10.0,29.920275,,,TRUE,TRUE,,,,,,,OVC,8500,,,,,,,VFR,,,,,,,,,,,,METAR,221.0
KRQO 250535Z AUTO 18012KT 16/15 A2958 RMK AO2 PWINO,KRQO,2015-04-25T05:35:00Z,35.47,-98.0,16.0,15.0,180,12,,,29.58071,,,TRUE,TRUE,,,,,TRUE,,,,,,,,,,,,,,,,,,,,,,METAR,432.0
KRBW 250535Z AUTO 00000KT 10SM CLR 14/10 A2998 RMK AO2,KRBW,2015-04-25T05:35:00Z,32.92,-80.63,14.0,10.0,0,0,,10.0,29.97933,,,TRUE,TRUE,,,,,,,CLR,,,,,,,,VFR,,,,,,,,,,,,METAR,31.0
KPSO 250535Z AUTO 00000KT 10SM BKN070 00/M01 A2999 RMK AO2 T00001011,KPSO,2015-04-25T05:35:00Z,37.28,-107.05,0.0,-1.1,0,0,,10.0,29.991142,,,TRUE,TRUE,,,,,,,BKN,7000,,,,,,,VFR,,,,,,,,,,,,METAR,2334.0
KPOV 250535Z AUTO 10005KT 10SM BKN110 02/M06 A2999 RMK AO2 T00231058,KPOV,2015-04-25T05:35:00Z,41.22,-81.25,2.3,-5.8,100,5,,10.0,29.991142,,,TRUE,TRUE,,,,,,,BKN,11000,,,,,,,VFR,,,,,,,,,,,,METAR,365.0
KPIB 250535Z AUTO 18005KT 10SM OVC008 22/18 A2982 RMK AO1,KPIB,2015-04-25T05:35:00Z,31.47,-89.32,22.0,18.0,180,5,,10.0,29.819881,,,TRUE,TRUE,,,,,,,OVC,800,,,,,,,IFR,,,,,,,,,,,,METAR,91.0
KPHT 250535Z AUTO 18013KT 10SM BKN075 OVC085 12/11 A2978 RMK,KPHT,2015-04-25T05:35:00Z,36.33,-88.38,12.0,11.0,180,13,,10.0,29.778543,,,TRUE,,,,,,,,BKN,7500,OVC,8500,,,,,VFR,,,,,,,,,,,,METAR,177.0
KPAN 250535Z AUTO 00000KT 10SM BKN034 OVC070 09/06 A3002 RMK AO2,KPAN,2015-04-25T05:35:00Z,34.25,-111.33,9.0,6.0,0,0,,10.0,30.02067,,,TRUE,TRUE,,,,,,,BKN,3400,OVC,7000,,,,,VFR,,,,,,,,,,,,METAR,1572.0
KOWA 250535Z AUTO 09012G17KT 10SM BKN015 BKN032 06/04 A2977 RMK AO2,KOWA,2015-04-25T05:35:00Z,44.12,-93.25,6.0,4.0,90,12,17,10.0,29.769686,,,TRUE,TRUE,,,,,,,BKN,1500,BKN,3200,,,,,MVFR,,,,,,,,,,,,METAR,350.0
KO54 250535Z AUTO 23007KT 10SM SCT029 BKN060 BKN070 08/04 A2986 RMK AO1,KO54,2015-04-25T05:35:00Z,40.75,-122.92,8.0,4.0,230,7,,10.0,29.861221,,,TRUE,TRUE,,,,,,,SCT,2900,BKN,6000,BKN,7000,,,VFR,,,,,,,,,,,,METAR,717.0
KMRT 250535Z AUTO 00000KT 10SM OVC080 10/M01 A2992 RMK AO2 T00971012,KMRT,2015-04-25T05:35:00Z,40.22,-83.35,9.7,-1.2,0,0,,10.0,29.920275,,,TRUE,TRUE,,,,,,,OVC,8000,,,,,,,VFR,,,,,,,,,,,,METAR,312.0
KMKS 250535Z AUTO 00000KT 10SM CLR 13/09 A2997 RMK AO2,KMKS,2015-04-25T05:35:00Z,33.18,-80.03,13.0,9.0,0,0,,10.0,29.970472,,,TRUE,TRUE,,,,,,,CLR,,,,,,,,VFR,,,,,,,,,,,,METAR,23.0
KMEZ 250535Z AUTO 00000KT 4SM OVC002 17/16 A2971 RMK AO2,KMEZ,2015-04-25T05:35:00Z,34.55,-94.2,17.0,16.0,0,0,,4.0,29.71063,,,TRUE,TRUE,,,,,,,OVC,200,,,,,,,LIFR,,,,,,,,,,,,METAR,329.0
KM91 250535Z AUTO 18009KT 10SM SCT031 12/12 A2981 RMK,KM91,2015-04-25T05:35:00Z,36.53,-86.92,12.0,12.0,180,9,,10.0,29.811024,,,TRUE,,,,,,,,SCT,3100,,,,,,,VFR,,,,,,,,,,,,METAR,215.0
KLXL 250535Z AUTO 12006KT 10SM OVC020 06/02 A2981 RMK AO2,KLXL,2015-04-25T05:35:00Z,45.95,-94.33,6.0,2.0,120,6,,10.0,29.811024,,,TRUE,TRUE,,,,,,,OVC,2000,,,,,,,MVFR,,,,,,,,,,,,METAR,342.0
KLUX 250535Z AUTO 20006KT 10SM OVC110 15/10 A2995 RMK AO2,KLUX,2015-04-25T05:35:00Z,34.5,-81.95,15.0,10.0,200,6,,10.0,29.949802,,,TRUE,TRUE,,,,,,,OVC,11000,,,,,,,VFR,,,,,,,,,,,,METAR,213.0
KLQK 250535Z AUTO 00000KT 10SM OVC095 13/11 A2994 RMK AO2 T01250109,KLQK,2015-04-25T05:35:00Z,34.82,-82.7,12.5,10.9,0,0,,10.0,29.940945,,,TRUE,TRUE,,,,,,,OVC,9500,,,,,,,VFR,,,,,,,,,,,,METAR,309.0
KLDJ 250535Z AUTO 31003KT 10SM CLR 05/M04 A2996 RMK AO2 T00541036,KLDJ,2015-04-25T05:35:00Z,40.62,-74.25,5.4,-3.6,310,3,,10.0,29.958662,,,TRUE,TRUE,,,,,,,CLR,,,,,,,,VFR,,,,,,,,,,,,METAR,7.0
KLBE 250535Z AUTO 00000KT 10SM CLR 01/M04 A3001 RMK AO2,KLBE,2015-04-25T05:35:00Z,40.27,-79.4,1.0,-4.0,0,0,,10.0,30.008858,,,TRUE,TRUE,,,,,,,CLR,,,,,,,,VFR,,,,,,,,,,,,METAR,361.0
KJVW 250535Z AUTO 19006G11KT 9SM BKN011 22/20 A2980 RMK AO2 LTG DSNT N AND NW,KJVW,2015-04-25T05:35:00Z,32.3,-90.42,22.0,20.0,190,6,11,9.0,29.799213,,,TRUE,TRUE,,,,,,,BKN,1100,,,,,,,MVFR,,,,,,,,,,,,METAR,76.0
KJHN 250535Z AUTO 28008KT 10SM SCT080 BKN100 OVC120 12/08 A2962 RMK AO2 T01160082,KJHN,2015-04-25T05:35:00Z,37.58,-101.73,11.6,8.2,280,8,,10.0,29.619095,,,TRUE,TRUE,,,,,,,SCT,8000,BKN,10000,OVC,12000,,,VFR,,,,,,,,,,,,METAR,1013.0
KINF 250535Z AUTO 00000KT 10SM CLR A2998 RMK AO2,KINF,2015-04-25T05:35:00Z,28.8,-82.32,,,0,0,,10.0,29.97933,,,TRUE,TRUE,,,,,,,CLR,,,,,,,,VFR,,,,,,,,,,,,METAR,15.0
KI67 250535Z AUTO 00000KT 10SM OVC070 12/02 A2988 RMK AO1,KI67,2015-04-25T05:35:00Z,39.25,-84.78,12.0,2.0,0,0,,10.0,29.878937,,,TRUE,TRUE,,,,,,,OVC,7000,,,,,,,VFR,,,,,,,,,,,,METAR,178.0
KHYW 250535Z AUTO 00000KT 7SM CLR 13/08 A2998 RMK AO2,KHYW,2015-04-25T05:35:00Z,33.83,-79.12,13.0,8.0,0,0,,7.0,29.97933,,,TRUE,TRUE,,,,,,,CLR,,,,,,,,VFR,,,,,,,,,,,,METAR,11.0
KHXD 250535Z AUTO 17004KT 10SM CLR 18/11 A3000 RMK AO2 P0000,KHXD,2015-04-25T05:35:00Z,32.22,-80.7,18.0,11.0,170,4,,10.0,30.0,,,TRUE,TRUE,,,,,,,CLR,,,,,,,,VFR,,,,,,0.0050,,,,,,METAR,6.0
KHVS 250535Z AUTO 21005KT 10SM CLR 13/07 A2998 RMK AO2,KHVS,2015-04-25T05:35:00Z,34.4,-80.12,13.0,7.0,210,5,,10.0,29.97933,,,TRUE,TRUE,,,,,,,CLR,,,,,,,,VFR,,,,,,,,,,,,METAR,111.0
KHOB 250535Z AUTO 24009KT 10SM CLR 14/M03 A2988 RMK AO2,KHOB,2015-04-25T05:35:00Z,32.67,-103.22,14.0,-3.0,240,9,,10.0,29.878937,,,TRUE,TRUE,,,,,,,CLR,,,,,,,,VFR,,,,,,,,,,,,METAR,1115.0
KHEZ 250535Z AUTO 21003KT 10SM BKN011 OVC018 23/21 A2984 RMK AO1,KHEZ,2015-04-25T05:35:00Z,31.62,-91.3,23.0,21.0,210,3,,10.0,29.840551,,,TRUE,TRUE,,,,,,,BKN,1100,OVC,1800,,,,,MVFR,,,,,,,,,,,,METAR,83.0
KGYH 250535Z AUTO 25004KT 10SM CLR 12/05 A2994 RMK AO2,KGYH,2015-04-25T05:35:00Z,34.75,-82.38,12.0,5.0,250,4,,10.0,29.940945,,,TRUE,TRUE,,,,,,,CLR,,,,,,,,VFR,,,,,,,,,,,,METAR,292.0
KGTR 250535Z 14010KT 8SM VCTS SCT038 BKN060 OVC090 17/13 A2979 RMK AO1 LTG DSNT W TSE11B21,KGTR,2015-04-25T05:35:00Z,33.45,-88.57,17.0,13.0,140,10,,8.0,29.790354,,,,TRUE,,,,,,VCTS,SCT,3800,BKN,6000,OVC,9000,,,VFR,,,,,,,,,,,,METAR,80.0
KGKT 250535Z AUTO 00000KT 10SM SCT085 BKN110 10/04 A2991 RMK,KGKT,2015-04-25T05:35:00Z,35.85,-83.53,10.0,4.0,0,0,,10.0,29.911417,,,TRUE,,,,,,,,SCT,8500,BKN,11000,,,,,VFR,,,,,,,,,,,,METAR,309.0
KGAF 250535Z AUTO 12009KT 10SM BKN049 OVC055 07/01 A2984 RMK AO2,KGAF,2015-04-25T05:35:00Z,48.4,-97.37,7.0,1.0,120,9,,10.0,29.840551,,,TRUE,TRUE,,,,,,,BKN,4900,OVC,5500,,,,,VFR,,,,,,,,,,,,METAR,252.0
KGAD 250535Z 00000KT 10SM FEW038 SCT049 BKN100 A2987 RMK AO1,KGAD,2015-04-25T05:35:00Z,33.97,-86.07,,,0,0,,10.0,29.870079,,,,TRUE,,,,,,,FEW,3800,SCT,4900,BKN,10000,,,VFR,,,,,,,,,,,,METAR,173.0
KFYM 250535Z AUTO 13003KT 3SM 12/11 A2991 RMK,KFYM,2015-04-25T05:35:00Z,35.07,-86.57,12.0,11.0,130,3,,3.0,29.911417,,,TRUE,,,,,,,,,,,,,,,,,,,,,,,,,,,,METAR,300.0
KFMM 250535Z AUTO 34010KT 10SM CLR 11/02 A2967 RMK AO2 T01070020,KFMM,2015-04-25T05:35:00Z,40.33,-103.8,10.7,2.0,340,10,,10.0,29.66929,,,TRUE,TRUE,,,,,,,CLR,,,,,,,,VFR,,,,,,,,,,,,METAR,1393.0
KFMH 250535Z AUTO 30007KT 10SM CLR 03/M04 A2978 RMK AO2,KFMH,2015-04-25T05:35:00Z,41.63,-70.52,3.0,-4.0,300,7,,10.0,29.778543,,,TRUE,TRUE,,,,,,,CLR,,,,,,,,VFR,,,,,,,,,,,,SPECI,40.0
KEDC 250535Z AUTO 00000KT 5SM BR FEW018 23/23 A2974 RMK AO2,KEDC,2015-04-25T05:35:00Z,30.4,-97.57,23.0,23.0,0,0,,5.0,29.740158,,,TRUE,TRUE,,,,,,BR,FEW,1800,,,,,,,MVFR,,,,,,,,,,,,METAR,189.0
KDCM 250535Z AUTO 17003KT 10SM CLR 13/04 A2995 RMK AO2,KDCM,2015-04-25T05:35:00Z,34.78,-81.2,13.0,4.0,170,3,,10.0,29.949802,,,TRUE,TRUE,,,,,,,CLR,,,,,,,,VFR,,,,,,,,,,,,METAR,200.0
KD57 250535Z AUTO 08005KT 10SM CLR 06/03 A2968 RMK AO2,KD57,2015-04-25T05:35:00Z,46.82,-101.87,6.0,3.0,80,5,,10.0,29.681103,,,TRUE,TRUE,,,,,,,CLR,,,,,,,,VFR,,,,,,,,,,,,METAR,637.0
KD55 250535Z AUTO 09008KT 10SM OVC021 05/00 A2982 RMK AO2,KD55,2015-04-25T05:35:00Z,48.75,-98.4,5.0,0.0,90,8,,10.0,29.819881,,,TRUE,TRUE,,,,,,,OVC,2100,,,,,,,MVFR,,,,,,,,,,,,METAR,491.0
KCQW 250535Z AUTO 22005KT 10SM CLR 12/04 A2996 RMK AO2,KCQW,2015-04-25T05:35:00Z,34.72,-79.95,12.0,4.0,220,5,,10.0,29.958662,,,TRUE,TRUE,,,,,,,CLR,,,,,,,,VFR,,,,,,,,,,,,METAR,73.0
KCMR 250535Z AUTO 21010G16KT 10SM FEW030 SCT037 BKN046 07/02 A3007 RMK AO2,KCMR,2015-04-25T05:35:00Z,35.3,-112.2,7.0,2.0,210,10,16,10.0,30.070866,,,TRUE,TRUE,,,,,,,FEW,3000,SCT,3700,BKN,4600,,,VFR,,,,,,,,,,,,METAR,2036.0
KCLS 250535Z AUTO 00000KT 10SM FEW060 OVC080 07/07 A2990 RMK AO2,KCLS,2015-04-25T05:35:00Z,46.68,-122.98,7.0,7.0,0,0,,10.0,29.899607,,,TRUE,TRUE,,,,,,,FEW,6000,OVC,8000,,,,,VFR,,,,,,,,,,,,METAR,54.0
KCKI 250535Z AUTO 00000KT 10SM CLR 16/12 A2998 RMK AO2,KCKI,2015-04-25T05:35:00Z,33.72,-79.85,16.0,12.0,0,0,,10.0,29.97933,,,TRUE,TRUE,,,,,,,CLR,,,,,,,,VFR,,,,,,,,,,,,METAR,21.0
KCIC 250535Z AUTO 14015KT 10SM OVC060 13/11 A2988 RMK AO1 P0001,KCIC,2015-04-25T05:35:00Z,39.78,-121.83,13.0,11.0,140,15,,10.0,29.878937,,,TRUE,TRUE,,,,,,,OVC,6000,,,,,,,VFR,,,,,,0.01,,,,,,METAR,73.0
KCGC 250535Z AUTO 00000KT 10SM CLR 20/16 A2997 RMK AO2,KCGC,2015-04-25T05:35:00Z,28.87,-82.57,20.0,16.0,0,0,,10.0,29.970472,,,TRUE,TRUE,,,,,,,CLR,,,,,,,,VFR,,,,,,,,,,,,METAR,3.0
KCDN 250535Z AUTO 19005KT 10SM CLR 14/08 A2997 RMK AO2 TSNO,KCDN,2015-04-25T05:35:00Z,34.28,-80.57,14.0,8.0,190,5,,10.0,29.970472,,,TRUE,TRUE,,,TRUE,,,,CLR,,,,,,,,VFR,,,,,,,,,,,,METAR,92.0
KBVU 250535Z AUTO 23012G17KT 10SM CLR 18/03 A2980 RMK AO2,KBVU,2015-04-25T05:35:00Z,35.95,-114.87,18.0,3.0,230,12,17,10.0,29.799213,,,TRUE,TRUE,,,,,,,CLR,,,,,,,,VFR,,,,,,,,,,,,METAR,671.0
KBOW 250535Z AUTO 00000KT 10SM CLR 20/19 A2998 RMK AO2,KBOW,2015-04-25T05:35:00Z,27.93,-81.77,20.0,19.0,0,0,,10.0,29.97933,,,TRUE,TRUE,,,,,,,CLR,,,,,,,,VFR,,,,,,,,,,,,METAR,39.0
KBNL 250535Z AUTO 18003KT 10SM CLR 17/09 A2997 RMK AO2,KBNL,2015-04-25T05:35:00Z,33.25,-81.38,17.0,9.0,180,3,,10.0,29.970472,,,TRUE,TRUE,,,,,,,CLR,,,,,,,,VFR,,,,,,,,,,,,METAR,75.0
KBDN 250535Z AUTO 13003KT 10SM SCT035 03/M01 A2986 RMK AO2,KBDN,2015-04-25T05:35:00Z,44.1,-121.2,3.0,-1.0,130,3,,10.0,29.861221,,,TRUE,TRUE,,,,,,,SCT,3500,,,,,,,VFR,,,,,,,,,,,,METAR,1055.0
KBAC 250535Z AUTO 11009KT 2 1/2SM BR OVC004 05/05 A2977 RMK AO2,KBAC,2015-04-25T05:35:00Z,46.93,-98.02,5.0,5.0,110,9,,2.5,29.769686,,,TRUE,TRUE,,,,,,BR,OVC,400,,,,,,,LIFR,,,,,,,,,,,,METAR,684.0
KAUO 250535Z AUTO 13004KT 10SM CLR 18/09 A2991 RMK AO1,KAUO,2015-04-25T05:35:00Z,32.62,-85.42,18.0,9.0,130,4,,10.0,29.911417,,,TRUE,TRUE,,,,,,,CLR,,,,,,,,VFR,,,,,,,,,,,,METAR,236.0
KATS 250535Z AUTO 25010KT 10SM CLR 15/M02 A2988 RMK AO2,KATS,2015-04-25T05:35:00Z,32.85,-104.47,15.0,-2.0,250,10,,10.0,29.878937,,,TRUE,TRUE,,,,,,,CLR,,,,,,,,VFR,,,,,,,,,,,,METAR,1081.0
KAQX 250535Z AUTO 00000KT 10SM CLR 16/09 A2996 RMK AO2,KAQX,2015-04-25T05:35:00Z,32.98,-81.27,16.0,9.0,0,0,,10.0,29.958662,,,TRUE,TRUE,,,,,,,CLR,,,,,,,,VFR,,,,,,,,,,,,METAR,49.0
KAEJ 250535Z AUTO 29007KT 10SM CLR 04/M05 A2987 RMK AO2 T00441050,KAEJ,2015-04-25T05:35:00Z,38.82,-106.12,4.4,-5.0,290,7,,10.0,29.870079,,,TRUE,TRUE,,,,,,,CLR,,,,,,,,VFR,,,,,,,,,,,,METAR,2422.0
KAEG 250535Z AUTO 24012KT 10SM CLR 07/00 A2997 RMK AO2 T00680001,KAEG,2015-04-25T05:35:00Z,35.13,-106.8,6.8,0.1,240,12,,10.0,29.970472,,,TRUE,TRUE,,,,,,,CLR,,,,,,,,VFR,,,,,,,,,,,,METAR,1779.0
K9D7 250535Z AUTO 11009KT 10SM CLR 04/00 A2980 RMK AO2,K9D7,2015-04-25T05:35:00Z,48.48,-99.23,4.0,0.0,110,9,,10.0,29.799213,,,TRUE,TRUE,,,,,,,CLR,,,,,,,,VFR,,,,,,,,,,,,METAR,452.0
K6L4 250535Z AUTO 00000KT 10SM OVC120 10/M04 A2988 RMK AO2,K6L4,2015-04-25T05:35:00Z,37.85,-81.92,10.0,-4.0,0,0,,10.0,29.878937,,,TRUE,TRUE,,,,,,,OVC,12000,,,,,,,VFR,,,,,,,,,,,,METAR,508.0
K4I7 250535Z AUTO 08004KT 10SM OVC039 11/00 A2985 RMK AO2,K4I7,2015-04-25T05:35:00Z,39.63,-86.82,11.0,0.0,80,4,,10.0,29.84941,,,TRUE,TRUE,,,,,,,OVC,3900,,,,,,,VFR,,,,,,,,,,,,METAR,257.0
K0A9 250535Z AUTO 00000KT 10SM OVC080 09/01 A2994 RMK,K0A9,2015-04-25T05:35:00Z,36.37,-82.17,9.0,1.0,0,0,,10.0,29.940945,,,TRUE,,,,,,,,OVC,8000,,,,,,,VFR,,,,,,,,,,,,METAR,486.0
K08D 250535Z AUTO 10010KT 10SM BKN085 OVC110 07/06 A2971 RMK AO2,K08D,2015-04-25T05:35:00Z,48.3,-102.4,7.0,6.0,100,10,,10.0,29.71063,,,TRUE,TRUE,,,,,,,BKN,8500,OVC,11000,,,,,VFR,,,,,,,,,,,,METAR,684.0
KVER 250535Z AUTO 12007KT 10SM OVC050 13/10 A2964 RMK AO2 T01330103,KVER,2015-04-25T05:35:00Z,38.95,-92.68,13.3,10.3,120,7,,10.0,29.639763,,,TRUE,TRUE,,,,,,,OVC,5000,,,,,,,VFR,,,,,,,,,,,,METAR,218.0
KUYF 250535Z AUTO 00000KT 10SM OVC070 08/02 A2992 RMK AO2,KUYF,2015-04-25T05:35:00Z,39.93,-83.47,8.0,2.0,0,0,,10.0,29.920275,,,TRUE,TRUE,,,,,,,OVC,7000,,,,,,,VFR,,,,,,,,,,,,METAR,330.0
KUTA 250535Z AUTO 13011KT 5SM VCTSRA BKN018 OVC024 14/13 A2980 RMK AO2 P0013 LTG DSNT ALQS,KUTA,2015-04-25T05:35:00Z,34.68,-90.35,14.0,13.0,130,11,,5.0,29.799213,,,TRUE,TRUE,,,,,,VCTSRA,BKN,1800,OVC,2400,,,,,MVFR,,,,,,0.13,,,,,,METAR,59.0
KUCY 250535Z AUTO 16016KT 10SM CLR 13/00 A2971 RMK,KUCY,2015-04-25T05:35:00Z,36.38,-88.98,13.0,0.0,160,16,,10.0,29.71063,,,TRUE,,,,,,,,CLR,,,,,,,,VFR,,,,,,,,,,,,METAR,104.0
KTSP 250535Z AUTO 29017G24KT 10SM OVC046 10/M03 A2999 RMK AO2,KTSP,2015-04-25T05:35:00Z,35.13,-118.43,10.0,-3.0,290,17,24,10.0,29.991142,,,TRUE,TRUE,,,,,,,OVC,4600,,,,,,,VFR,,,,,,,,,,,,METAR,1220.0
KTHA 250535Z AUTO 17003KT 8SM FEW018 OVC028 12/10 A2993 RMK,KTHA,2015-04-25T05:35:00Z,35.38,-86.25,12.0,10.0,170,3,,8.0,29.929134,,,TRUE,,,,,,,,FEW,1800,OVC,2800,,,,,MVFR,,,,,,,,,,,,METAR,331.0
KTEX 250535Z AUTO 14007KT 10SM BKN075 01/M02 A2999 RMK AO2 T00051017,KTEX,2015-04-25T05:35:00Z,37.95,-107.9,0.5,-1.7,140,7,,10.0,29.991142,,,TRUE,TRUE,,,,,,,BKN,7500,,,,,,,VFR,,,,,,,,,,,,METAR,2769.0
KSVC 250535Z AUTO 34010KT 10SM 05/M02 A3003 RMK AO2,KSVC,2015-04-25T05:35:00Z,32.63,-108.15,5.0,-2.0,340,10,,10.0,30.029528,,,TRUE,TRUE,,,,,,,,,,,,,,,,,,,,,,,,,,,METAR,1659.0
KSUA 250535Z AUTO 09007KT 10SM CLR 24/20 A2997 RMK AO2,KSUA,2015-04-25T05:35:00Z,27.18,-80.22,24.0,20.0,90,7,,10.0,29.970472,,,TRUE,TRUE,,,,,,,CLR,,,,,,,,VFR,,,,,,,,,,,,METAR,6.0
KSQL 250535Z AUTO 17006KT 10SM OVC017 13/09 A3002 RMK AO2,KSQL,2015-04-25T05:35:00Z,37.52,-122.25,13.0,9.0,170,6,,10.0,30.02067,,,TRUE,TRUE,,,,,,,OVC,1700,,,,,,,MVFR,,,,,,,,,,,,METAR,1.0
KN03 250535Z AUTO 27006KT 10SM CLR 00/M04 A2994 RMK AO2,KN03,2015-04-25T05:35:00Z,42.6,-76.22,0.0,-4.0,270,6,,10.0,29.940945,,,TRUE,TRUE,,,,,,,CLR,,,,,,,,VFR,,,,,,,,,,,,METAR,366.0
KM25 250535Z AUTO 17010G21KT 10SM OVC010 13/12 A2975 RMK AO2,KM25,2015-04-25T05:35:00Z,36.77,-88.58,13.0,12.0,170,10,21,10.0,29.749016,,,TRUE,TRUE,,,,,,,OVC,1000,,,,,,,MVFR,,,,,,,,,,,,METAR,160.0
KLKR 250535Z AUTO 16003KT 10SM CLR 13/05 A2995 RMK AO2,KLKR,2015-04-25T05:35:00Z,34.72,-80.85,13.0,5.0,160,3,,10.0,29.949802,,,TRUE,TRUE,,,,,,,CLR,,,,,,,,VFR,,,,,,,,,,,,METAR,149.0
KJZI 250535Z AUTO 00000KT 10SM CLR 18/08 A2998 RMK A02 P000,KJZI,2015-04-25T05:35:00Z,32.7,-80.0,18.0,8.0,0,0,,10.0,29.97933,,,TRUE,TRUE,,,,,,,CLR,,,,,,,,VFR,,,,,,,,,,,,METAR,6.0
KGLY 250535Z AUTO 11006KT 10SM CLR 13/12 A2960 RMK AO2,KGLY,2015-04-25T05:35:00Z,38.35,-93.68,13.0,12.0,110,6,,10.0,29.601377,,,TRUE,TRUE,,,,,,,CLR,,,,,,,,VFR,,,,,,,,,,,,METAR,251.0
KCXP 250535Z AUTO 21008G16KT 170V240 10SM BKN050 OVC075 08/M02 A2988 RMK AO2,KCXP,2015-04-25T05:35:00Z,39.18,-119.73,8.0,-2.0,210,8,16,10.0,29.878937,,,TRUE,TRUE,,,,,,,BKN,5000,OVC,7500,,,,,VFR,,,,,,,,,,,,METAR,1435.0
KBBP 250535Z AUTO 20004KT 10SM CLR 12/03 A2997 RMK AO2,KBBP,2015-04-25T05:35:00Z,34.62,-79.73,12.0,3.0,200,4,,10.0,29.970472,,,TRUE,TRUE,,,,,,,CLR,,,,,,,,VFR,,,,,,,,,,,,METAR,45.0
KARW 250535Z AUTO 00000KT 7SM CLR 17/12 A2999 RMK AO2,KARW,2015-04-25T05:35:00Z,32.42,-80.63,17.0,12.0,0,0,,7.0,29.991142,,,TRUE,TRUE,,,,,,,CLR,,,,,,,,VFR,,,,,,,,,,,,METAR,4.0
KMAO 250535Z AUTO 19004KT 10SM CLR 13/07 A2997 RMK AO2,KMAO,2015-04-25T05:35:00Z,34.18,-79.33,13.0,7.0,190,4,,10.0,29.970472,,,TRUE,TRUE,,,,,,,CLR,,,,,,,,VFR,,,,,,,,,,,,METAR,28.0
KJFX 250535Z AUTO 00000KT 9SM -DZ CLR 16/15 A2987 RMK A02 P-128,KJFX,2015-04-25T05:35:00Z,33.9,-87.32,16.0,15.0,0,0,,9.0,29.870079,,,TRUE,TRUE,,,,,,-DZ,CLR,,,,,,,,VFR,,,,,,,,,,,,METAR,148.0
KIMM 250535Z AUTO 00000KT 8SM SCT046 A2997 RMK A01 P000,KIMM,2015-04-25T05:35:00Z,26.43,-81.4,,,0,0,,8.0,29.970472,,,TRUE,TRUE,,,,,,,SCT,4600,,,,,,,VFR,,,,,,,,,,,,METAR,12.0
KAIK 250535Z AUTO 18005KT 10SM BKN120 15/07 A3000 RMK AO2,KAIK,2015-04-25T05:35:00Z,33.65,-81.68,15.0,7.0,180,5,,10.0,30.0,,,TRUE,TRUE,,,,,,,BKN,12000,,,,,,,VFR,,,,,,,,,,,,METAR,161.0
K1P1 250535Z AUTO 32004KT 10SM OVC038 02/M03 A2975 RMK AO2 T00171028,K1P1,2015-04-25T05:35:00Z,43.78,-71.75,1.7,-2.8,320,4,,10.0,29.749016,,,TRUE,TRUE,,,,,,,OVC,3800,,,,,,,VFR,,,,,,,,,,,,METAR,154.0
KVDF 250535Z AUTO 00000KT 10SM CLR 23/19 A2998 RMK AO2,KVDF,2015-04-25T05:35:00Z,28.02,-82.33,23.0,19.0,0,0,,10.0,29.97933,,,TRUE,TRUE,,,,,,,CLR,,,,,,,,VFR,,,,,,,,,,,,METAR,7.0
KORS 250535Z AUTO 00000KT 10SM FEW011 05/05 A2985 RMK AO2,KORS,2015-04-25T05:35:00Z,48.7,-122.92,5.0,5.0,0,0,,10.0,29.84941,,,TRUE,TRUE,,,,,,,FEW,1100,,,,,,,VFR,,,,,,,,,,,,METAR,9.0
KMHL 250535Z AUTO 13008KT 10SM SCT060 SCT090 SCT120 15/12 A2961 RMK AO2,KMHL,2015-04-25T05:35:00Z,39.1,-93.2,15.0,12.0,130,8,,10.0,29.610237,,,TRUE,TRUE,,,,,,,SCT,6000,SCT,9000,SCT,12000,,,VFR,,,,,,,,,,,,METAR,237.0
KDYB 250535Z AUTO 00000KT 10SM CLR 13/10 A2998 RMK AO1,KDYB,2015-04-25T05:35:00Z,33.07,-80.28,13.0,10.0,0,0,,10.0,29.97933,,,TRUE,TRUE,,,,,,,CLR,,,,,,,,VFR,,,,,,,,,,,,METAR,18.0
K2V5 250535Z AUTO 30006KT 10SM CLR 10/05 A2961 RMK AO2 T01030048,K2V5,2015-04-25T05:35:00Z,40.1,-102.25,10.3,4.8,300,6,,10.0,29.610237,,,TRUE,TRUE,,,,,,,CLR,,,,,,,,VFR,,,,,,,,,,,,SPECI,1118.0
K1S5 250535Z AUTO 27003KT 10SM BKN120 08/02 A2981 RMK AO2 T00800015,K1S5,2015-04-25T05:35:00Z,46.33,-119.97,8.0,1.5,270,3,,10.0,29.811024,,,TRUE,TRUE,,,,,,,BKN,12000,,,,,,,VFR,,,,,,,,,,,,SPECI,234.0
KOLV 250535Z AUTO 14011KT 5SM SCT002 BKN021 OVC044 13/ A2980 RMK A01 P007,KOLV,2015-04-25T05:35:00Z,34.98,-89.78,13.0,,140,11,,5.0,29.799213,,,TRUE,TRUE,,,,,,,SCT,200,BKN,2100,OVC,4400,,,MVFR,,,,,,,,,,,,SPECI,122.0
KFDW 250535Z AUTO 16007KT 10SM CLR 14/06 A2996 RMK AO1,KFDW,2015-04-25T05:35:00Z,34.32,-81.12,14.0,6.0,160,7,,10.0,29.958662,,,TRUE,TRUE,,,,,,,CLR,,,,,,,,VFR,,,,,,,,,,,,SPECI,176.0
KGGE 250535Z AUTO 19004KT 10SM CLR 11/10 A2999 RMK AO2,KGGE,2015-04-25T05:35:00Z,33.32,-79.32,11.0,10.0,190,4,,10.0,29.991142,,,TRUE,TRUE,,,,,,,CLR,,,,,,,,VFR,,,,,,,,,,,,METAR,12.0
K24J 250535Z AUTO 00000KT 10SM BKN030 20/15 A2997 RMK AO1,K24J,2015-04-25T05:35:00Z,30.3,-83.03,20.0,15.0,0,0,,10.0,29.970472,,,TRUE,TRUE,,,,,,,BKN,3000,,,,,,,MVFR,,,,,,,,,,,,METAR,32.0
K7N0 250535Z AUTO 17010G16KT OVC006 A2979 RMK AO1,K7N0,2015-04-25T05:35:00Z,29.95,-90.07,,,170,10,16,,29.790354,,,TRUE,TRUE,,,,,,,OVC,600,,,,,,,,,,,,,,,,,,,METAR,0.0
KACB 250535Z AUTO 00000KT 10SM CLR 02/M06 A3003 RMK AO2 T00201059,KACB,2015-04-25T05:35:00Z,44.98,-85.2,2.0,-5.9,0,0,,10.0,30.029528,,,TRUE,TRUE,,,,,,,CLR,,,,,,,,VFR,,,,,,,,,,,,METAR,190.0
KAFJ 250535Z AUTO 00000KT 10SM OVC100 02/M02 A3000 RMK AO1,KAFJ,2015-04-25T05:35:00Z,40.12,-80.27,2.0,-2.0,0,0,,10.0,30.0,,,TRUE,TRUE,,,,,,,OVC,10000,,,,,,,VFR,,,,,,,,,,,,METAR,361.0
KAIZ 250535Z AUTO 15006KT 10SM OVC008 14/11 A2965 RMK AO1,KAIZ,2015-04-25T05:35:00Z,38.1,-92.53,14.0,11.0,150,6,,10.0,29.648623,,,TRUE,TRUE,,,,,,,OVC,800,,,,,,,IFR,,,,,,,,,,,,METAR,265.0
KARG 250535Z AUTO 19007KT 10SM OVC006 14/12 A2970 RMK AO1,KARG,2015-04-25T05:35:00Z,36.12,-90.92,14.0,12.0,190,7,,10.0,29.698818,,,TRUE,TRUE,,,,,,,OVC,600,,,,,,,IFR,,,,,,,,,,,,METAR,83.0
KAWO 250535Z AUTO 05009KT 10SM BKN041 OVC047 06/02 A2990 RMK AO1 WSHFT 55 P0001,KAWO,2015-04-25T05:35:00Z,48.17,-122.17,6.0,2.0,50,9,,10.0,29.899607,,,TRUE,TRUE,,,,,,,BKN,4100,OVC,4700,,,,,VFR,,,,,,0.01,,,,,,METAR,42.0
KBDH 250535Z AUTO 10015KT 10SM BKN013 07/05 A2977 RMK AO2,KBDH,2015-04-25T05:35:00Z,45.12,-95.13,7.0,5.0,100,15,,10.0,29.769686,,,TRUE,TRUE,,,,,,,BKN,1300,,,,,,,MVFR,,,,,,,,,,,,METAR,247.0
KBHB 250535Z 00000KT 10SM OVC055 01/M01 A2965 RMK AO1,KBHB,2015-04-25T05:35:00Z,44.45,-68.37,1.0,-1.0,0,0,,10.0,29.648623,,,,TRUE,,,,,,,OVC,5500,,,,,,,VFR,,,,,,,,,,,,METAR,26.0
KBID 250535Z AUTO 32007G14KT 10SM CLR 03/M07 A2982 RMK AO1,KBID,2015-04-25T05:35:00Z,41.17,-71.58,3.0,-7.0,320,7,14,10.0,29.819881,,,TRUE,TRUE,,,,,,,CLR,,,,,,,,VFR,,,,,,,,,,,,METAR,33.0
KCKN 250535Z AUTO 10005KT 10SM OVC036 07/01 A2984 RMK AO2,KCKN,2015-04-25T05:35:00Z,47.85,-96.62,7.0,1.0,100,5,,10.0,29.840551,,,TRUE,TRUE,,,,,,,OVC,3600,,,,,,,VFR,,,,,,,,,,,,METAR,273.0
KCIU 250535Z AUTO 33003KT 10SM CLR M03/M06 A3003 RMK AO1,KCIU,2015-04-25T05:35:00Z,46.25,-84.47,-3.0,-6.0,330,3,,10.0,30.029528,,,TRUE,TRUE,,,,,,,CLR,,,,,,,,VFR,,,,,,,,,,,,METAR,244.0
KCGZ 250535Z AUTO 24003KT 10SM CLR 18/03 A2989 RMK AO1,KCGZ,2015-04-25T05:35:00Z,32.95,-111.77,18.0,3.0,240,3,,10.0,29.890747,,,TRUE,TRUE,,,,,,,CLR,,,,,,,,VFR,,,,,,,,,,,,METAR,446.0
KCFS 250535Z AUTO 00000KT 10SM SCT120 01/M07 A3002 RMK AO2 T00121068,KCFS,2015-04-25T05:35:00Z,43.47,-83.45,1.2,-6.8,0,0,,10.0,30.02067,,,TRUE,TRUE,,,,,,,SCT,12000,,,,,,,VFR,,,,,,,,,,,,METAR,214.0
KCFE 250535Z AUTO 10010G15KT 10SM OVC014 07/04 A2981 RMK AO2 T00670040,KCFE,2015-04-25T05:35:00Z,45.17,-93.85,6.7,4.0,100,10,15,10.0,29.811024,,,TRUE,TRUE,,,,,,,OVC,1400,,,,,,,MVFR,,,,,,,,,,,,METAR,295.0
KCAD 250535Z AUTO 07005KT 10SM BKN100 02/M08 A2998 RMK AO2 T00251081,KCAD,2015-04-25T05:35:00Z,44.27,-85.42,2.5,-8.1,70,5,,10.0,29.97933,,,TRUE,TRUE,,,,,,,BKN,10000,,,,,,,VFR,,,,,,,,,,,,METAR,398.0
KBVX 250535Z AUTO 18008KT 10SM OVC004 15/14 A2969 RMK AO1,KBVX,2015-04-25T05:35:00Z,35.73,-91.65,15.0,14.0,180,8,,10.0,29.68996,,,TRUE,TRUE,,,,,,,OVC,400,,,,,,,LIFR,,,,,,,,,,,,METAR,141.0
KBTP 250535Z AUTO 00000KT 10SM CLR 01/M08 A3001 RMK AO1,KBTP,2015-04-25T05:35:00Z,40.77,-79.95,1.0,-8.0,0,0,,10.0,30.008858,,,TRUE,TRUE,,,,,,,CLR,,,,,,,,VFR,,,,,,,,,,,,METAR,380.0
KBLM 250535Z AUTO 32004KT 10SM CLR 03/M08 A2993 RMK AO1,KBLM,2015-04-25T05:35:00Z,40.17,-74.12,3.0,-8.0,320,4,,10.0,29.929134,,,TRUE,TRUE,,,,,,,CLR,,,,,,,,VFR,,,,,,,,,,,,METAR,48.0
KBKX 250535Z AUTO 12018G24KT 10SM FEW039 FEW049 OVC070 09/07 A2965 RMK AO1 LTG DSNT E,KBKX,2015-04-25T05:35:00Z,44.28,-96.82,9.0,7.0,120,18,24,10.0,29.648623,,,TRUE,TRUE,,,,,,,FEW,3900,FEW,4900,OVC,7000,,,VFR,,,,,,,,,,,,METAR,502.0
KLRF 250535Z AUTO 14013G23KT 9SM -TSRA OVC004 16/15 A2967 RMK AO2 TSB30 PRESFR,KLRF,2015-04-25T05:35:00Z,34.92,-92.15,16.0,15.0,140,13,23,9.0,29.66929,,,TRUE,TRUE,,,,,,-TSRA,OVC,400,,,,,,,LIFR,,,,,,,,,,,,SPECI,95.0
KEAR 250535Z 11006KT 4SM FEW003 FEW009 SCT060 13/12 A2950 RMK AO1 LTG DSNT S P0010,KEAR,2015-04-25T05:35:00Z,40.72,-99.0,13.0,12.0,110,6,,4.0,29.500984,,,,TRUE,,,,,,,FEW,300,FEW,900,SCT,6000,,,MVFR,,,,,,0.1,,,,,,METAR,649.0
KDYR 250535Z 15013G20KT 10SM SCT006 BKN120 13/07 A2972 RMK AO1,KDYR,2015-04-25T05:35:00Z,36.0,-89.4,13.0,7.0,150,13,20,10.0,29.719488,,,,TRUE,,,,,,,SCT,600,BKN,12000,,,,,VFR,,,,,,,,,,,,METAR,103.0
KDWU 250535Z AUTO 00000KT 10SM OVC080 10/04 A2990 RMK AO1,KDWU,2015-04-25T05:35:00Z,38.55,-82.73,10.0,4.0,0,0,,10.0,29.899607,,,TRUE,TRUE,,,,,,,OVC,8000,,,,,,,VFR,,,,,,,,,,,,METAR,166.0
KDVL 250535Z AUTO 11011KT 10SM OVC023 07/03 A2979 RMK AO1,KDVL,2015-04-25T05:35:00Z,48.12,-98.92,7.0,3.0,110,11,,10.0,29.790354,,,TRUE,TRUE,,,,,,,OVC,2300,,,,,,,MVFR,,,,,,,,,,,,METAR,443.0
KDTL 250535Z AUTO 12010KT 10SM OVC020 05/00 A2980 RMK AO2,KDTL,2015-04-25T05:35:00Z,46.82,-95.87,5.0,0.0,120,10,,10.0,29.799213,,,TRUE,TRUE,,,,,,,OVC,2000,,,,,,,MVFR,,,,,,,,,,,,METAR,426.0
KDRM 250535Z AUTO 00000KT 10SM CLR M03/M06 A3003 RMK AO2 T10271062,KDRM,2015-04-25T05:35:00Z,46.0,-83.75,-2.7,-6.2,0,0,,10.0,30.029528,,,TRUE,TRUE,,,,,,,CLR,,,,,,,,VFR,,,,,,,,,,,,METAR,204.0
KCWI 250535Z AUTO 09019KT 5SM SCT047 BKN055 06/03 A2979 RMK AO1,KCWI,2015-04-25T05:35:00Z,41.82,-90.32,6.0,3.0,90,19,,5.0,29.790354,,,TRUE,TRUE,,,,,,,SCT,4700,BKN,5500,,,,,MVFR,,,,,,,,,,,,METAR,216.0
KCVX 250535Z AUTO 00000KT 10SM CLR 01/M05 A3006 RMK AO2 T00111055,KCVX,2015-04-25T05:35:00Z,45.3,-85.27,1.1,-5.5,0,0,,10.0,30.059055,,,TRUE,TRUE,,,,,,,CLR,,,,,,,,VFR,,,,,,,,,,,,METAR,204.0
KCVO 250535Z 17004KT 10SM BKN048 OVC075 08/06 A2995 RMK AO1,KCVO,2015-04-25T05:35:00Z,44.5,-123.27,8.0,6.0,170,4,,10.0,29.949802,,,,TRUE,,,,,,,BKN,4800,OVC,7500,,,,,VFR,,,,,,,,,,,,METAR,75.0
KCVN 250535Z AUTO 26011KT 10SM CLR 12/M01 A2982 RMK AO1,KCVN,2015-04-25T05:35:00Z,34.42,-103.07,12.0,-1.0,260,11,,10.0,29.819881,,,TRUE,TRUE,,,,,,,CLR,,,,,,,,VFR,,,,,,,,,,,,METAR,1284.0
KCOE 250535Z AUTO 10003KT 10SM CLR 04/M01 A2982 RMK AO1,KCOE,2015-04-25T05:35:00Z,47.77,-116.82,4.0,-1.0,100,3,,10.0,29.819881,,,TRUE,TRUE,,,,,,,CLR,,,,,,,,VFR,,,,,,,,,,,,METAR,707.0
KCOD 250535Z 22005KT 10SM SCT110 09/03 A2961 RMK AO1,KCOD,2015-04-25T05:35:00Z,44.52,-109.02,9.0,3.0,220,5,,10.0,29.610237,,,,TRUE,,,,,,,SCT,11000,,,,,,,VFR,,,,,,,,,,,,METAR,1553.0
KLKV 250535Z 15008KT 10SM SCT075 OVC085 03/M02 A2986 RMK AO1,KLKV,2015-04-25T05:35:00Z,42.17,-120.4,3.0,-2.0,150,8,,10.0,29.861221,,,,TRUE,,,,,,,SCT,7500,OVC,8500,,,,,VFR,,,,,,,,,,,,METAR,1441.0
KLGD 250535Z AUTO 31006KT 10SM SCT110 07/M05 A2982 RMK AO1,KLGD,2015-04-25T05:35:00Z,45.27,-118.0,7.0,-5.0,310,6,,10.0,29.819881,,,TRUE,TRUE,,,,,,,SCT,11000,,,,,,,VFR,,,,,,,,,,,,METAR,827.0
KLEW 250535Z AUTO 31009KT 10SM BKN110 02/M06 A2969 RMK AO1,KLEW,2015-04-25T05:35:00Z,44.03,-70.27,2.0,-6.0,310,9,,10.0,29.68996,,,TRUE,TRUE,,,,,,,BKN,11000,,,,,,,VFR,,,,,,,,,,,,METAR,88.0
KLDM 250535Z AUTO 00000KT 10SM OVC080 05/M02 A3000 RMK AO2 T00471019,KLDM,2015-04-25T05:35:00Z,43.97,-86.4,4.7,-1.9,0,0,,10.0,30.0,,,TRUE,TRUE,,,,,,,OVC,8000,,,,,,,VFR,,,,,,,,,,,,METAR,197.0
KLCI 250535Z AUTO 30009KT 10SM OVC110 02/M07 A2974 RMK AO1,KLCI,2015-04-25T05:35:00Z,43.57,-71.42,2.0,-7.0,300,9,,10.0,29.740158,,,TRUE,TRUE,,,,,,,OVC,11000,,,,,,,VFR,,,,,,,,,,,,METAR,166.0
KLBL 250535Z AUTO 28009KT 10SM FEW100 12/06 A2963 RMK AO1,KLBL,2015-04-25T05:35:00Z,37.03,-100.97,12.0,6.0,280,9,,10.0,29.630905,,,TRUE,TRUE,,,,,,,FEW,10000,,,,,,,VFR,,,,,,,,,,,,METAR,879.0
KKLS 250535Z 00000KT 10SM SCT033 OVC095 08/06 A2995 RMK AO1,KKLS,2015-04-25T05:35:00Z,46.12,-122.9,8.0,6.0,0,0,,10.0,29.949802,,,,TRUE,,,,,,,SCT,3300,OVC,9500,,,,,VFR,,,,,,,,,,,,METAR,5.0
KLPC 250535Z AUTO 29008KT 10SM BKN019 13/08 A3007 RMK AO1,KLPC,2015-04-25T05:35:00Z,34.67,-120.47,13.0,8.0,290,8,,10.0,30.070866,,,TRUE,TRUE,,,,,,,BKN,1900,,,,,,,MVFR,,,,,,,,,,,,METAR,27.0
KMGN 250535Z AUTO 02003KT 10SM CLR M02/M06 A3004 RMK AO2 T10191065,KMGN,2015-04-25T05:35:00Z,45.43,-84.92,-1.9,-6.5,20,3,,10.0,30.041338,,,TRUE,TRUE,,,,,,,CLR,,,,,,,,VFR,,,,,,,,,,,,METAR,209.0
KMBL 250535Z AUTO 12004KT 10SM OVC100 04/M09 A3001 RMK AO1,KMBL,2015-04-25T05:35:00Z,44.27,-86.25,4.0,-9.0,120,4,,10.0,30.008858,,,TRUE,TRUE,,,,,,,OVC,10000,,,,,,,VFR,,,,,,,,,,,,METAR,189.0
KMNM 250535Z AUTO 03003KT 10SM OVC070 03/M04 A3001 RMK AO1,KMNM,2015-04-25T05:35:00Z,45.12,-87.62,3.0,-4.0,30,3,,10.0,30.008858,,,TRUE,TRUE,,,,,,,OVC,7000,,,,,,,VFR,,,,,,,,,,,,METAR,191.0
KMSV 250535Z AUTO 29006KT 10SM CLR M02/M08 A2988 RMK AO1,KMSV,2015-04-25T05:35:00Z,41.7,-74.78,-2.0,-8.0,290,6,,10.0,29.878937,,,TRUE,TRUE,,,,,,,CLR,,,,,,,,VFR,,,,,,,,,,,,METAR,428.0
KMRF 250535Z AUTO 10006KT 10SM CLR 10/M01 A3001 RMK AO1,KMRF,2015-04-25T05:35:00Z,30.37,-104.02,10.0,-1.0,100,6,,10.0,30.008858,,,TRUE,TRUE,,,,,,,CLR,,,,,,,,VFR,,,,,,,,,,,,METAR,1481.0
KMVN 250535Z AUTO 11003KT 10SM OVC020 13/04 A2978 RMK AO1,KMVN,2015-04-25T05:35:00Z,38.32,-88.87,13.0,4.0,110,3,,10.0,29.778543,,,TRUE,TRUE,,,,,,,OVC,2000,,,,,,,MVFR,,,,,,,,,,,,METAR,146.0
KOAJ 250535Z AUTO 00000KT 10SM CLR 08/04 A2997 RMK AO1,KOAJ,2015-04-25T05:35:00Z,34.82,-77.62,8.0,4.0,0,0,,10.0,29.970472,,,TRUE,TRUE,,,,,,,CLR,,,,,,,,VFR,,,,,,,,,,,,METAR,29.0
KMYR 250535Z AUTO 22004KT 10SM CLR 16/07 A3000 RMK AO1,KMYR,2015-04-25T05:35:00Z,33.67,-78.92,16.0,7.0,220,4,,10.0,30.0,,,TRUE,TRUE,,,,,,,CLR,,,,,,,,VFR,,,,,,,,,,,,METAR,8.0
KOCH 250535Z AUTO 00000KT 10SM CLR 21/19 A2978 RMK AO1 P0001,KOCH,2015-04-25T05:35:00Z,31.57,-94.72,21.0,19.0,0,0,,10.0,29.778543,,,TRUE,TRUE,,,,,,,CLR,,,,,,,,VFR,,,,,,0.01,,,,,,METAR,108.0
KOCF 250535Z AUTO 00000KT 10SM CLR 19/16 A2998 RMK AO1,KOCF,2015-04-25T05:35:00Z,29.17,-82.22,19.0,16.0,0,0,,10.0,29.97933,,,TRUE,TRUE,,,,,,,CLR,,,,,,,,VFR,,,,,,,,,,,,METAR,27.0
KOKK 250535Z AUTO 10009KT 10SM CLR 11/02 A2987 RMK AO1,KOKK,2015-04-25T05:35:00Z,40.53,-86.07,11.0,2.0,100,9,,10.0,29.870079,,,TRUE,TRUE,,,,,,,CLR,,,,,,,,VFR,,,,,,,,,,,,METAR,253.0
KOLU 250535Z AUTO 08007KT 6SM OVC010 13/10 A2953 RMK AO1,KOLU,2015-04-25T05:35:00Z,41.45,-97.32,13.0,10.0,80,7,,6.0,29.530512,,,TRUE,TRUE,,,,,,,OVC,1000,,,,,,,MVFR,,,,,,,,,,,,METAR,440.0
KOTG 250535Z AUTO 10011KT 10SM OVC007 07/05 A2967 RMK AO1,KOTG,2015-04-25T05:35:00Z,43.63,-95.57,7.0,5.0,100,11,,10.0,29.66929,,,TRUE,TRUE,,,,,,,OVC,700,,,,,,,IFR,,,,,,,,,,,,METAR,480.0
KOTH 250535Z 18004KT 9SM SCT020 BKN031 OVC055 10/09 A2997 RMK AO1 P0003,KOTH,2015-04-25T05:35:00Z,43.42,-124.25,10.0,9.0,180,4,,9.0,29.970472,,,,TRUE,,,,,,,SCT,2000,BKN,3100,OVC,5500,,,VFR,,,,,,0.03,,,,,,METAR,4.0
KOXC 250535Z 29003KT 10SM CLR 00/M08 A2986 RMK AO1,KOXC,2015-04-25T05:35:00Z,41.47,-73.13,0.0,-8.0,290,3,,10.0,29.861221,,,,TRUE,,,,,,,CLR,,,,,,,,VFR,,,,,,,,,,,,METAR,222.0
KOZW 250535Z AUTO 20004KT 7SM RA SCT023 BKN031 OVC041 07/00 A3000 RMK AO2 T00670000,KOZW,2015-04-25T05:35:00Z,42.62,-83.97,6.7,0.0,200,4,,7.0,30.0,,,TRUE,TRUE,,,,,,RA,SCT,2300,BKN,3100,OVC,4100,,,VFR,,,,,,,,,,,,METAR,293.0
KPQI 250535Z AUTO 32004KT 10SM FEW008 SCT012 BKN021 01/M02 A2955 RMK AO1,KPQI,2015-04-25T05:35:00Z,46.67,-68.03,1.0,-2.0,320,4,,10.0,29.551182,,,TRUE,TRUE,,,,,,,FEW,800,SCT,1200,BKN,2100,,,MVFR,,,,,,,,,,,,METAR,146.0
KPRX 250535Z 10SM OVC004 17/14 A2971 RMK AO1,KPRX,2015-04-25T05:35:00Z,33.62,-95.45,17.0,14.0,,,,10.0,29.71063,,,,TRUE,,,,,,,OVC,400,,,,,,,LIFR,,,,,,,,,,,,METAR,167.0
KPTN 250535Z AUTO 18012KT 9SM OVC007 25/23 A2979 RMK AO1,KPTN,2015-04-25T05:35:00Z,29.72,-91.32,25.0,23.0,180,12,,9.0,29.790354,,,TRUE,TRUE,,,,,,,OVC,700,,,,,,,IFR,,,,,,,,,,,,METAR,3.0
KMML 250535Z AUTO 13013KT 8SM OVC010 07/03 A2970 RMK AO1 LTG DSNT SW,KMML,2015-04-25T05:35:00Z,44.45,-95.82,7.0,3.0,130,13,,8.0,29.698818,,,TRUE,TRUE,,,,,,,OVC,1000,,,,,,,MVFR,,,,,,,,,,,,METAR,359.0
KMKY 250535Z AUTO 07006KT 8SM CLR 24/21 A2995 RMK AO1,KMKY,2015-04-25T05:35:00Z,26.0,-81.67,24.0,21.0,70,6,,8.0,29.949802,,,TRUE,TRUE,,,,,,,CLR,,,,,,,,VFR,,,,,,,,,,,,METAR,2.0
KMKT 250535Z AUTO 10012G18KT 10SM OVC026 07/03 A2975 RMK AO1,KMKT,2015-04-25T05:35:00Z,44.22,-93.92,7.0,3.0,100,12,18,10.0,29.749016,,,TRUE,TRUE,,,,,,,OVC,2600,,,,,,,MVFR,,,,,,,,,,,,METAR,311.0
KMJX 250535Z AUTO 00000KT 10SM CLR M02/M05 A2995 RMK AO1,KMJX,2015-04-25T05:35:00Z,39.93,-74.3,-2.0,-5.0,0,0,,10.0,29.949802,,,TRUE,TRUE,,,,,,,CLR,,,,,,,,VFR,,,,,,,,,,,,METAR,25.0
KPVC 250535Z 31018G24KT 10SM CLR A2976 RMK AO1,KPVC,2015-04-25T05:35:00Z,42.07,-70.22,,,310,18,24,10.0,29.760826,,,,TRUE,,,,,,,CLR,,,,,,,,VFR,,,,,,,,,,,,METAR,2.0
KPTV 250535Z AUTO 00000KT 10SM CLR 16/03 A2996 RMK AO1,KPTV,2015-04-25T05:35:00Z,36.02,-119.07,16.0,3.0,0,0,,10.0,29.958662,,,TRUE,TRUE,,,,,,,CLR,,,,,,,,VFR,,,,,,,,,,,,METAR,135.0
KPVG 250535Z AUTO 08004KT 10SM CLR 05/02 A2997 RMK AO1,KPVG,2015-04-25T05:35:00Z,36.78,-76.45,5.0,2.0,80,4,,10.0,29.970472,,,TRUE,TRUE,,,,,,,CLR,,,,,,,,VFR,,,,,,,,,,,,METAR,7.0
KEEN 250535Z AUTO 30007KT 10SM OVC046 03/M07 A2979 RMK AO1,KEEN,2015-04-25T05:35:00Z,42.88,-72.27,3.0,-7.0,300,7,,10.0,29.790354,,,TRUE,TRUE,,,,,,,OVC,4600,,,,,,,VFR,,,,,,,,,,,,METAR,149.0
KEGE 250535Z AUTO 09005KT 10SM CLR 02/M02 A2987 RMK AO1,KEGE,2015-04-25T05:35:00Z,39.63,-106.92,2.0,-2.0,90,5,,10.0,29.870079,,,TRUE,TRUE,,,,,,,CLR,,,,,,,,VFR,,,,,,,,,,,,METAR,1993.0
KEHR 250535Z AUTO 14006KT 10SM OVC023 13/04 A2981 RMK AO1,KEHR,2015-04-25T05:35:00Z,37.82,-87.67,13.0,4.0,140,6,,10.0,29.811024,,,TRUE,TRUE,,,,,,,OVC,2300,,,,,,,MVFR,,,,,,,,,,,,METAR,117.0
KENV 250535Z AUTO 27011KT 10SM CLR 08/M02 A2981 RMK AO1,KENV,2015-04-25T05:35:00Z,40.72,-114.02,8.0,-2.0,270,11,,10.0,29.811024,,,TRUE,TRUE,,,,,,,CLR,,,,,,,,VFR,,,,,,,,,,,,METAR,1292.0
KEUL 250535Z AUTO 32010KT 10SM FEW065 SCT080 OVC090 10/M01 A2980 RMK AO1,KEUL,2015-04-25T05:35:00Z,43.62,-116.62,10.0,-1.0,320,10,,10.0,29.799213,,,TRUE,TRUE,,,,,,,FEW,6500,SCT,8000,OVC,9000,,,VFR,,,,,,,,,,,,METAR,740.0
KESC 250535Z AUTO 04004KT 10SM FEW110 03/M04 A3003 RMK AO1,KESC,2015-04-25T05:35:00Z,45.75,-87.08,3.0,-4.0,40,4,,10.0,30.029528,,,TRUE,TRUE,,,,,,,FEW,11000,,,,,,,VFR,,,,,,,,,,,,METAR,187.0
KEWK 250535Z AUTO 02011KT 10SM TS FEW027 SCT040 BKN060 12/09 A2949 RMK AO1 LTG DSNT ALQDS P0008,KEWK,2015-04-25T05:35:00Z,38.03,-97.27,12.0,9.0,20,11,,10.0,29.489174,,,TRUE,TRUE,,,,,,TS,FEW,2700,SCT,4000,BKN,6000,,,VFR,,,,,,0.08,,,,,,METAR,467.0
KFAM 250535Z AUTO 16008KT 10SM OVC010 12/09 A2977 RMK AO1,KFAM,2015-04-25T05:35:00Z,37.77,-90.42,12.0,9.0,160,8,,10.0,29.769686,,,TRUE,TRUE,,,,,,,OVC,1000,,,,,,,MVFR,,,,,,,,,,,,METAR,288.0
KFKL 250535Z AUTO 05003KT 10SM CLR 00/M09 A2998 RMK AO1,KFKL,2015-04-25T05:35:00Z,41.37,-79.87,0.0,-9.0,50,3,,10.0,29.97933,,,TRUE,TRUE,,,,,,,CLR,,,,,,,,VFR,,,,,,,,,,,,METAR,469.0
KFLP 250535Z AUTO 00000KT 10SM OVC011 16/14 A2964 RMK AO1,KFLP,2015-04-25T05:35:00Z,36.28,-92.58,16.0,14.0,0,0,,10.0,29.639763,,,TRUE,TRUE,,,,,,,OVC,1100,,,,,,,MVFR,,,,,,,,,,,,METAR,219.0
KFNL 250535Z AUTO 02003KT 10SM SCT120 11/01 A2970 RMK AO1,KFNL,2015-04-25T05:35:00Z,40.45,-105.02,11.0,1.0,20,3,,10.0,29.698818,,,TRUE,TRUE,,,,,,,SCT,12000,,,,,,,VFR,,,,,,,,,,,,METAR,1529.0
KFOD 250535Z AUTO 10013G19KT 10SM BKN017 OVC040 08/05 A2967 RMK AO1,KFOD,2015-04-25T05:35:00Z,42.53,-94.17,8.0,5.0,100,13,19,10.0,29.66929,,,TRUE,TRUE,,,,,,,BKN,1700,OVC,4000,,,,,MVFR,,,,,,,,,,,,METAR,355.0
KFPK 250535Z AUTO 14003KT 10SM OVC050 05/03 A2998 RMK AO2 T00480026,KFPK,2015-04-25T05:35:00Z,42.57,-84.82,4.8,2.6,140,3,,10.0,29.97933,,,TRUE,TRUE,,,,,,,OVC,5000,,,,,,,VFR,,,,,,,,,,,,METAR,272.0
KFRM 250535Z AUTO 11012KT 10SM OVC026 07/M07 A2971 RMK AO1,KFRM,2015-04-25T05:35:00Z,43.63,-94.42,7.0,-7.0,110,12,,10.0,29.71063,,,TRUE,TRUE,,,,,,,OVC,2600,,,,,,,MVFR,,,,,,,,,,,,METAR,354.0
KGAI 250535Z AUTO 00000KT 10SM CLR 03/M04 A3000 RMK AO1,KGAI,2015-04-25T05:35:00Z,39.17,-77.17,3.0,-4.0,0,0,,10.0,30.0,,,TRUE,TRUE,,,,,,,CLR,,,,,,,,VFR,,,,,,,,,,,,METAR,165.0
KGBD 250535Z AUTO 13007KT 10SM OVC090 13/11 A2948 RMK AO1,KGBD,2015-04-25T05:35:00Z,38.35,-98.87,13.0,11.0,130,7,,10.0,29.480314,,,TRUE,TRUE,,,,,,,OVC,9000,,,,,,,VFR,,,,,,,,,,,,METAR,575.0
KGDV 250535Z AUTO 09005KT 10SM CLR 11/01 A2963 RMK AO1,KGDV,2015-04-25T05:35:00Z,47.12,-104.78,11.0,1.0,90,5,,10.0,29.630905,,,TRUE,TRUE,,,,,,,CLR,,,,,,,,VFR,,,,,,,,,,,,METAR,749.0
KGOV 250535Z AUTO 10004KT 10SM SCT110 01/M07 A3001 RMK AO2 T00061068,KGOV,2015-04-25T05:35:00Z,44.68,-84.73,0.6,-6.8,100,4,,10.0,30.008858,,,TRUE,TRUE,,,,,,,SCT,11000,,,,,,,VFR,,,,,,,,,,,,METAR,353.0
KGPZ 250535Z AUTO 11005KT 10SM OVC042 03/M07 A2989 RMK AO1,KGPZ,2015-04-25T05:35:00Z,47.22,-93.52,3.0,-7.0,110,5,,10.0,29.890747,,,TRUE,TRUE,,,,,,,OVC,4200,,,,,,,VFR,,,,,,,,,,,,METAR,413.0
KGTU 250535Z 20003KT 6SM BKN019 BKN024 24/21 A2975 RMK AO1,KGTU,2015-04-25T05:35:00Z,30.68,-97.68,24.0,21.0,200,3,,6.0,29.749016,,,,TRUE,,,,,,,BKN,1900,BKN,2400,,,,,MVFR,,,,,,,,,,,,METAR,240.0
KGUC 250535Z 35004KT 10SM CLR 01/M05 A2994 RMK AO1,KGUC,2015-04-25T05:35:00Z,38.52,-106.92,1.0,-5.0,350,4,,10.0,29.940945,,,,TRUE,,,,,,,CLR,,,,,,,,VFR,,,,,,,,,,,,METAR,2339.0
KGXY 250535Z 33012KT 10SM CLR 12/02 A2968 RMK AO1,KGXY,2015-04-25T05:35:00Z,40.42,-104.62,12.0,2.0,330,12,,10.0,29.681103,,,,TRUE,,,,,,,CLR,,,,,,,,VFR,,,,,,,,,,,,METAR,1420.0
KHDN 250535Z AUTO 09009KT 10SM BKN090 07/M01 A2979 RMK AO1,KHDN,2015-04-25T05:35:00Z,40.47,-107.22,7.0,-1.0,90,9,,10.0,29.790354,,,TRUE,TRUE,,,,,,,BKN,9000,,,,,,,VFR,,,,,,,,,,,,METAR,2012.0
KHEF 250535Z 00000KT 10SM CLR 03/01 A2997 RMK AO1,KHEF,2015-04-25T05:35:00Z,38.72,-77.52,3.0,1.0,0,0,,10.0,29.970472,,,,TRUE,,,,,,,CLR,,,,,,,,VFR,,,,,,,,,,,,METAR,59.0
KHNB 250535Z AUTO 11004KT 10SM FEW035 BKN043 OVC080 12/07 A2984 RMK AO1,KHNB,2015-04-25T05:35:00Z,38.25,-86.95,12.0,7.0,110,4,,10.0,29.840551,,,TRUE,TRUE,,,,,,,FEW,3500,BKN,4300,OVC,8000,,,VFR,,,,,,,,,,,,METAR,161.0
KHYI 250535Z 20008KT 7SM FEW018 24/22 A2976 RMK AO1,KHYI,2015-04-25T05:35:00Z,29.88,-97.87,24.0,22.0,200,8,,7.0,29.760826,,,,TRUE,,,,,,,FEW,1800,,,,,,,VFR,,,,,,,,,,,,METAR,182.0
KHYS 250535Z 29012KT 10SM FEW055 SCT065 BKN090 12/08 A2953 RMK AO1,KHYS,2015-04-25T05:35:00Z,38.85,-99.27,12.0,8.0,290,12,,10.0,29.530512,,,,TRUE,,,,,,,FEW,5500,SCT,6500,BKN,9000,,,VFR,,,,,,,,,,,,METAR,609.0
KHYX 250535Z AUTO 07004KT 10SM CLR 02/M05 A3003 RMK AO2,KHYX,2015-04-25T05:35:00Z,43.43,-83.87,2.0,-5.0,70,4,,10.0,30.029528,,,TRUE,TRUE,,,,,,,CLR,,,,,,,,VFR,,,,,,,,,,,,METAR,183.0
KILE 250535Z AUTO 18005KT 10SM CLR 21/16 A2974 RMK AO1,KILE,2015-04-25T05:35:00Z,31.07,-97.67,21.0,16.0,180,5,,10.0,29.740158,,,TRUE,TRUE,,,,,,,CLR,,,,,,,,VFR,,,,,,,,,,,,METAR,258.0
KIWD 250535Z AUTO 09004KT 10SM OVC050 04/M04 A2992 RMK AO1,KIWD,2015-04-25T05:35:00Z,46.52,-90.12,4.0,-4.0,90,4,,10.0,29.920275,,,TRUE,TRUE,,,,,,,OVC,5000,,,,,,,VFR,,,,,,,,,,,,METAR,375.0
KJAC 250535Z 20006KT 10SM BKN021 BKN029 OVC060 03/03 A2972 RMK AO1,KJAC,2015-04-25T05:35:00Z,43.62,-110.73,3.0,3.0,200,6,,10.0,29.719488,,,,TRUE,,,,,,,BKN,2100,BKN,2900,OVC,6000,,,MVFR,,,,,,,,,,,,METAR,1961.0
KJHW 250535Z 30003KT 10SM CLR M01/M08 A2996 RMK AO1,KJHW,2015-04-25T05:35:00Z,42.13,-79.27,-1.0,-8.0,300,3,,10.0,29.958662,,,,TRUE,,,,,,,CLR,,,,,,,,VFR,,,,,,,,,,,,METAR,525.0
KJYM 250535Z AUTO 05007KT 10SM -RA BKN029 OVC039 06/03 A2996 RMK AO2 T00630033,KJYM,2015-04-25T05:35:00Z,41.92,-84.58,6.3,3.3,50,7,,10.0,29.958662,,,TRUE,TRUE,,,,,,-RA,BKN,2900,OVC,3900,,,,,MVFR,,,,,,,,,,,,METAR,360.0
KPVU 250535Z AUTO 14009KT 10SM FEW048 FEW055 SCT110 08/06 A2982 RMK AO1,KPVU,2015-04-25T05:35:00Z,40.22,-111.72,8.0,6.0,140,9,,10.0,29.819881,,,TRUE,TRUE,,,,,,,FEW,4800,FEW,5500,SCT,11000,,,VFR,,,,,,,,,,,,METAR,1369.0
KPWG 250535Z AUTO 21005KT 10SM VCTS CLR 20/15 A2972 RMK AO1 LTG DSNT W TSB00E15B18,KPWG,2015-04-25T05:35:00Z,31.47,-97.32,20.0,15.0,210,5,,10.0,29.719488,,,TRUE,TRUE,,,,,,VCTS,CLR,,,,,,,,VFR,,,,,,,,,,,,METAR,180.0
KPWT 250535Z AUTO 00000KT 10SM BKN110 04/03 A2989 RMK AO1,KPWT,2015-04-25T05:35:00Z,47.5,-122.75,4.0,3.0,0,0,,10.0,29.890747,,,TRUE,TRUE,,,,,,,BKN,11000,,,,,,,VFR,,,,,,,,,,,,METAR,147.0
KPZQ 250535Z AUTO 29003KT 10SM CLR M03/M05 A3005 RMK AO2 T10341055,KPZQ,2015-04-25T05:35:00Z,45.4,-83.82,-3.4,-5.5,290,3,,10.0,30.050198,,,TRUE,TRUE,,,,,,,CLR,,,,,,,,VFR,,,,,,,,,,,,METAR,204.0
KRKD 250535Z AUTO 28009KT 10SM BKN070 OVC080 02/M04 A2966 RMK AO1,KRKD,2015-04-25T05:35:00Z,44.07,-69.08,2.0,-4.0,280,9,,10.0,29.660433,,,TRUE,TRUE,,,,,,,BKN,7000,OVC,8000,,,,,VFR,,,,,,,,,,,,METAR,17.0
KRUT 250535Z AUTO 34008KT 10SM OVC041 01/M06 A2981 RMK AO1,KRUT,2015-04-25T05:35:00Z,43.52,-72.95,1.0,-6.0,340,8,,10.0,29.811024,,,TRUE,TRUE,,,,,,,OVC,4100,,,,,,,VFR,,,,,,,,,,,,METAR,240.0
KSDY 250535Z AUTO 00000KT 10SM FEW110 13/01 A2964 RMK AO1,KSDY,2015-04-25T05:35:00Z,47.7,-104.2,13.0,1.0,0,0,,10.0,29.639763,,,TRUE,TRUE,,,,,,,FEW,11000,,,,,,,VFR,,,,,,,,,,,,METAR,605.0
KSFM 250535Z AUTO 28011G15KT 10SM FEW110 02/M08 A2972 RMK AO1,KSFM,2015-04-25T05:35:00Z,43.38,-70.72,2.0,-8.0,280,11,15,10.0,29.719488,,,TRUE,TRUE,,,,,,,FEW,11000,,,,,,,VFR,,,,,,,,,,,,METAR,74.0
KSFZ 250535Z 28006KT 10SM CLR 02/M09 A2977 RMK AO1,KSFZ,2015-04-25T05:35:00Z,41.92,-71.5,2.0,-9.0,280,6,,10.0,29.769686,,,,TRUE,,,,,,,CLR,,,,,,,,VFR,,,,,,,,,,,,METAR,134.0
KSGT 250535Z AUTO 16014KT 10SM VCTS FEW015 BKN090 OVC110 16/13 A2979 RMK AO1 LTG DSNT N TSE09B29 P0011,KSGT,2015-04-25T05:35:00Z,34.6,-91.57,16.0,13.0,160,14,,10.0,29.790354,,,TRUE,TRUE,,,,,,VCTS,FEW,1500,BKN,9000,OVC,11000,,,VFR,,,,,,0.11,,,,,,METAR,68.0
KSGU 250535Z AUTO 02004KT 10SM FEW047 BKN070 OVC085 13/09 A2985 RMK AO1,KSGU,2015-04-25T05:35:00Z,37.07,-113.52,13.0,9.0,20,4,,10.0,29.84941,,,TRUE,TRUE,,,,,,,FEW,4700,BKN,7000,OVC,8500,,,VFR,,,,,,,,,,,,METAR,896.0
KSJX 250535Z AUTO 00000KT 10SM CLR M01/M04 A3004 RMK AO2 T10131045,KSJX,2015-04-25T05:35:00Z,45.7,-85.57,-1.3,-4.5,0,0,,10.0,30.041338,,,TRUE,TRUE,,,,,,,CLR,,,,,,,,VFR,,,,,,,,,,,,METAR,204.0
KSKX 250535Z 24005KT 10SM FEW060 FEW080 03/M04 A2998 RMK AO1,KSKX,2015-04-25T05:35:00Z,36.45,-105.67,3.0,-4.0,240,5,,10.0,29.97933,,,,TRUE,,,,,,,FEW,6000,FEW,8000,,,,,VFR,,,,,,,,,,,,METAR,2161.0
KSLG 250535Z AUTO 17011G18KT 10SM CLR 16/12 A2962 RMK AO1,KSLG,2015-04-25T05:35:00Z,36.2,-94.47,16.0,12.0,170,11,18,10.0,29.619095,,,TRUE,TRUE,,,,,,,CLR,,,,,,,,VFR,,,,,,,,,,,,METAR,300.0
KSLH 250535Z AUTO 22003KT 10SM CLR M03/M05 A3004 RMK AO2 T10301054,KSLH,2015-04-25T05:35:00Z,45.65,-84.52,-3.0,-5.4,220,3,,10.0,30.041338,,,TRUE,TRUE,,,,,,,CLR,,,,,,,,VFR,,,,,,,,,,,,METAR,195.0
KSMN 250535Z AUTO 01008KT 10SM BKN120 05/M03 A2976 RMK AO1,KSMN,2015-04-25T05:35:00Z,45.12,-113.87,5.0,-3.0,10,8,,10.0,29.760826,,,TRUE,TRUE,,,,,,,BKN,12000,,,,,,,VFR,,,,,,,,,,,,METAR,1233.0
KSOP 250535Z AUTO 23008KT 10SM CLR 13/02 A2995 RMK AO1,KSOP,2015-04-25T05:35:00Z,35.22,-79.4,13.0,2.0,230,8,,10.0,29.949802,,,TRUE,TRUE,,,,,,,CLR,,,,,,,,VFR,,,,,,,,,,,,METAR,141.0
KSQI 250535Z AUTO 07016G22KT 5SM BKN043 BKN055 BKN100 06/03 A2982 RMK AO1,KSQI,2015-04-25T05:35:00Z,41.75,-89.67,6.0,3.0,70,16,22,5.0,29.819881,,,TRUE,TRUE,,,,,,,BKN,4300,BKN,5500,BKN,10000,,,MVFR,,,,,,,,,,,,METAR,197.0
KSUE 250535Z AUTO 08006KT 10SM OVC100 04/M08 A3003 RMK AO1,KSUE,2015-04-25T05:35:00Z,44.85,-87.42,4.0,-8.0,80,6,,10.0,30.029528,,,TRUE,TRUE,,,,,,,OVC,10000,,,,,,,VFR,,,,,,,,,,,,METAR,221.0
KTPL 250535Z AUTO 22005KT 10SM CLR 20/17 A2972 RMK AO1,KTPL,2015-04-25T05:35:00Z,31.13,-97.4,20.0,17.0,220,5,,10.0,29.719488,,,TRUE,TRUE,,,,,,,CLR,,,,,,,,VFR,,,,,,,,,,,,METAR,208.0
KTVF 250535Z AUTO 08007KT 10SM OVC034 06/M01 A2985 RMK AO1,KTVF,2015-04-25T05:35:00Z,48.07,-96.17,6.0,-1.0,80,7,,10.0,29.84941,,,TRUE,TRUE,,,,,,,OVC,3400,,,,,,,VFR,,,,,,,,,,,,METAR,340.0
KUDG 250535Z AUTO 22006KT 10SM CLR 14/06 A2999 RMK AO1,KUDG,2015-04-25T05:35:00Z,34.45,-79.88,14.0,6.0,220,6,,10.0,29.991142,,,TRUE,TRUE,,,,,,,CLR,,,,,,,,VFR,,,,,,,,,,,,METAR,59.0
KVBT 250535Z AUTO 18009KT 10SM CLR A2961 RMK AO1,KVBT,2015-04-25T05:35:00Z,36.35,-94.22,,,180,9,,10.0,29.610237,,,TRUE,TRUE,,,,,,,CLR,,,,,,,,VFR,,,,,,,,,,,,METAR,395.0
KVIS 250535Z AUTO 31009KT 10SM CLR 16/04 A2996 RMK AO1,KVIS,2015-04-25T05:35:00Z,36.32,-119.4,16.0,4.0,310,9,,10.0,29.958662,,,TRUE,TRUE,,,,,,,CLR,,,,,,,,VFR,,,,,,,,,,,,METAR,89.0
KVLL 250535Z AUTO 06003KT 10SM OVC090 04/M04 A3004 RMK AO2 T00351045,KVLL,2015-04-25T05:35:00Z,42.55,-83.18,3.5,-4.5,60,3,,10.0,30.041338,,,TRUE,TRUE,,,,,,,OVC,9000,,,,,,,VFR,,,,,,,,,,,,METAR,222.0
KWVL 250535Z 30010G14KT 10SM FEW046 SCT050 02/M06 A2964 RMK AO1,KWVL,2015-04-25T05:35:00Z,44.52,-69.67,2.0,-6.0,300,10,14,10.0,29.639763,,,,TRUE,,,,,,,FEW,4600,SCT,5000,,,,,VFR,,,,,,,,,,,,METAR,101.0
KYKN 250535Z AUTO 11006KT 10SM FEW030 FEW050 16/11 A2958 RMK AO1 LTG DSNT W,KYKN,2015-04-25T05:35:00Z,42.92,-97.37,16.0,11.0,110,6,,10.0,29.58071,,,TRUE,TRUE,,,,,,,FEW,3000,FEW,5000,,,,,VFR,,,,,,,,,,,,METAR,398.0
CYVR 250535Z 10010KT 15SM FEW012 BKN026 OVC046 07/05 A2986 RMK CF1SC6SC1 SLP112,CYVR,2015-04-25T05:35:00Z,49.17,-123.17,7.0,5.0,100,10,,15.0,29.861221,1011.2,,,,,,,,,,FEW,1200,BKN,2600,OVC,4600,,,MVFR,,,,,,,,,,,,SPECI,2.0
KOBE 250535Z AUTO 00000KT 7SM CLR 20/20 A2997 RMK AO2,KOBE,2015-04-25T05:35:00Z,27.27,-80.85,20.0,20.0,0,0,,7.0,29.970472,,,TRUE,TRUE,,,,,,,CLR,,,,,,,,VFR,,,,,,,,,,,,METAR,11.0
KONX 250535Z AUTO 00000KT 10SM CLR 10/06 A2996 RMK AO2 T00960059,KONX,2015-04-25T05:35:00Z,36.4,-76.02,9.6,5.9,0,0,,10.0,29.958662,,,TRUE,TRUE,,,,,,,CLR,,,,,,,,VFR,,,,,,,,,,,,METAR,5.0
KOPF 250535Z AUTO 07004KT 10SM FEW023 BKN028 BKN034 26/22 A2997 RMK AO2 T02610222,KOPF,2015-04-25T05:35:00Z,25.92,-80.28,26.1,22.2,70,4,,10.0,29.970472,,,TRUE,TRUE,,,,,,,FEW,2300,BKN,2800,BKN,3400,,,MVFR,,,,,,,,,,,,METAR,16.0
KOWP 250535Z AUTO 16009G14KT 10SM BKN010 17/15 A2957 RMK AO2 T01740152,KOWP,2015-04-25T05:35:00Z,36.18,-96.15,17.4,15.2,160,9,14,10.0,29.568897,,,TRUE,TRUE,,,,,,,BKN,1000,,,,,,,MVFR,,,,,,,,,,,,METAR,272.0
KOXI 250535Z AUTO 13014KT 10SM OVC070 07/M03 A2988 RMK AO1,KOXI,2015-04-25T05:35:00Z,41.33,-86.67,7.0,-3.0,130,14,,10.0,29.878937,,,TRUE,TRUE,,,,,,,OVC,7000,,,,,,,VFR,,,,,,,,,,,,METAR,209.0
KPBH 250535Z AUTO 12006KT 10SM OVC070 05/00 A2991 RMK AO2 T00451005,KPBH,2015-04-25T05:35:00Z,45.7,-90.4,4.5,-0.5,120,6,,10.0,29.911417,,,TRUE,TRUE,,,,,,,OVC,7000,,,,,,,VFR,,,,,,,,,,,,METAR,449.0
KPEZ 250535Z AUTO 09005KT 2 1/2SM BR OVC006 24/23 A2974 RMK AO2 LTG DSNT NE T02400233,KPEZ,2015-04-25T05:35:00Z,28.95,-98.52,24.0,23.3,90,5,,2.5,29.740158,,,TRUE,TRUE,,,,,,BR,OVC,600,,,,,,,IFR,,,,,,,,,,,,METAR,132.0
KPCM 250535Z AUTO 00000KT 10SM CLR 22/20 A2999 RMK AO2,KPCM,2015-04-25T05:35:00Z,28.0,-82.17,22.0,20.0,0,0,,10.0,29.991142,,,TRUE,TRUE,,,,,,,CLR,,,,,,,,VFR,,,,,,,,,,,,METAR,47.0
KPSN 250535Z AUTO 11003KT 7SM CLR 20/18 A2974 RMK AO2 T01970190,KPSN,2015-04-25T05:35:00Z,31.78,-95.7,19.7,19.0,110,3,,7.0,29.740158,,,TRUE,TRUE,,,,,,,CLR,,,,,,,,VFR,,,,,,,,,,,,METAR,129.0
KPVJ 250535Z AUTO 18006KT 10SM BKN007 BKN011 16/15 A2964 RMK AO2 T01580153,KPVJ,2015-04-25T05:35:00Z,34.72,-97.22,15.8,15.3,180,6,,10.0,29.639763,,,TRUE,TRUE,,,,,,,BKN,700,BKN,1100,,,,,IFR,,,,,,,,,,,,METAR,295.0
KRCV 250535Z AUTO 27014G19KT 10SM CLR 04/M06 A2992 RMK AO2 T00411057,KRCV,2015-04-25T05:35:00Z,37.72,-106.35,4.1,-5.7,270,14,19,10.0,29.920275,,,TRUE,TRUE,,,,,,,CLR,,,,,,,,VFR,,,,,,,,,,,,METAR,2424.0
KRCX 250535Z AUTO 13009KT 10SM OVC049 07/00 A2991 RMK AO2 T00710000,KRCX,2015-04-25T05:35:00Z,45.5,-91.0,7.1,0.0,130,9,,10.0,29.911417,,,TRUE,TRUE,,,,,,,OVC,4900,,,,,,,VFR,,,,,,,,,,,,METAR,377.0
KRNC 250535Z AUTO 00000KT 10SM FEW046 SCT055 SCT085 12/12 A2990 RMK,KRNC,2015-04-25T05:35:00Z,35.7,-85.85,12.0,12.0,0,0,,10.0,29.899607,,,TRUE,,,,,,,,FEW,4600,SCT,5500,SCT,8500,,,VFR,,,,,,,,,,,,METAR,315.0
KRST 250535Z AUTO 09011KT 8SM BKN016 BKN021 OVC033 06/03 A2980 RMK AO2 T00560033,KRST,2015-04-25T05:35:00Z,43.9,-92.5,5.6,3.3,90,11,,8.0,29.799213,,,TRUE,TRUE,,,,,,,BKN,1600,BKN,2100,OVC,3300,,,MVFR,,,,,,,,,,,,METAR,403.0
KRSV 250535Z AUTO 15006KT 10SM OVC032 13/05 A2982 RMK AO2 T01270051,KRSV,2015-04-25T05:35:00Z,39.02,-87.65,12.7,5.1,150,6,,10.0,29.819881,,,TRUE,TRUE,,,,,,,OVC,3200,,,,,,,VFR,,,,,,,,,,,,METAR,141.0
KRZL 250535Z AUTO 07009KT 10SM OVC065 10/03 A2986 RMK AO2,KRZL,2015-04-25T05:35:00Z,40.95,-87.18,10.0,3.0,70,9,,10.0,29.861221,,,TRUE,TRUE,,,,,,,OVC,6500,,,,,,,VFR,,,,,,,,,,,,METAR,213.0
KSBS 250535Z AUTO 00000KT 10SM SCT085 OVC100 04/00 A2981 RMK AO1 T00371001,KSBS,2015-04-25T05:35:00Z,40.52,-106.87,3.7,-0.1,0,0,,10.0,29.811024,,,TRUE,TRUE,,,,,,,SCT,8500,OVC,10000,,,,,VFR,,,,,,,,,,,,METAR,2096.0
KSEM 250535Z AUTO 00000KT 10SM CLR 17/14 A2985 RMK AO2,KSEM,2015-04-25T05:35:00Z,32.35,-86.98,17.0,14.0,0,0,,10.0,29.84941,,,TRUE,TRUE,,,,,,,CLR,,,,,,,,VFR,,,,,,,,,,,,METAR,51.0
KSOW 250535Z AUTO 18006KT 10SM CLR 03/00 A3004 RMK AO2,KSOW,2015-04-25T05:35:00Z,34.27,-110.0,3.0,0.0,180,6,,10.0,30.041338,,,TRUE,TRUE,,,,,,,CLR,,,,,,,,VFR,,,,,,,,,,,,METAR,1954.0
KSTF 250535Z AUTO 09004KT 10SM -TSRA OVC032 17/15 A2979 RMK AO2 P0002 LTG DSNT ALQS,KSTF,2015-04-25T05:35:00Z,33.43,-88.85,17.0,15.0,90,4,,10.0,29.790354,,,TRUE,TRUE,,,,,,-TSRA,OVC,3200,,,,,,,VFR,,,,,,0.02,,,,,,METAR,102.0
KSZT 250535Z AUTO 36003KT 10SM CLR 03/00 A2981 RMK AO2,KSZT,2015-04-25T05:35:00Z,48.3,-116.57,3.0,0.0,360,3,,10.0,29.811024,,,TRUE,TRUE,,,,,,,CLR,,,,,,,,VFR,,,,,,,,,,,,METAR,648.0
KTBX 250535Z AUTO 13008KT 10SM BKN070 BKN100 06/M01 A2976 RMK AO2,KTBX,2015-04-25T05:35:00Z,43.47,-108.23,6.0,-1.0,130,8,,10.0,29.760826,,,TRUE,TRUE,,,,,,,BKN,7000,BKN,10000,,,,,VFR,,,,,,,,,,,,METAR,2225.0
KTME 250535Z AUTO 18008KT 5SM BR CLR 24/23 A2974 RMK AO2,KTME,2015-04-25T05:35:00Z,29.8,-95.9,24.0,23.0,180,8,,5.0,29.740158,,,TRUE,TRUE,,,,,,BR,CLR,,,,,,,,MVFR,,,,,,,,,,,,METAR,51.0
KTMK 250535Z AUTO 16003KT 4SM +RA SCT016 BKN021 OVC033 09/08 A2993 RMK AO2 P0006,KTMK,2015-04-25T05:35:00Z,45.42,-123.82,9.0,8.0,160,3,,4.0,29.929134,,,TRUE,TRUE,,,,,,+RA,SCT,1600,BKN,2100,OVC,3300,,,MVFR,,,,,,0.06,,,,,,METAR,11.0
KTPF 250535Z AUTO 12005KT 10SM BKN049 25/21 A2997 RMK AO2,KTPF,2015-04-25T05:35:00Z,27.92,-82.45,25.0,21.0,120,5,,10.0,29.970472,,,TRUE,TRUE,,,,,,,BKN,4900,,,,,,,VFR,,,,,,,,,,,,METAR,3.0
KXBP 250535Z AUTO 22009KT 10SM CLR 18/18 A2970 RMK AO2 T01750175,KXBP,2015-04-25T05:35:00Z,33.18,-97.83,17.5,17.5,220,9,,10.0,29.698818,,,TRUE,TRUE,,,,,,,CLR,,,,,,,,VFR,,,,,,,,,,,,METAR,260.0
KXSA 250535Z AUTO 00000KT 10SM CLR 03/M01 A2997 RMK AO2 T00251013,KXSA,2015-04-25T05:35:00Z,37.87,-76.9,2.5,-1.3,0,0,,10.0,29.970472,,,TRUE,TRUE,,,,,,,CLR,,,,,,,,VFR,,,,,,,,,,,,METAR,42.0
PAUT 250535Z AUTO 28015KT 10SM SCT014 BKN021 OVC041 03/01 A2949 RMK AO2 T00260007,PAUT,2015-04-25T05:35:00Z,54.15,-165.6,2.6,0.7,280,15,,10.0,29.489174,,,TRUE,TRUE,,,,,,,SCT,1400,BKN,2100,OVC,4100,,,MVFR,,,,,,,,,,,,METAR,25.0
K04V 250535Z AUTO 31009KT 10SM CLR 01/M03 A2992 RMK AO2,K04V,2015-04-25T05:35:00Z,38.1,-106.17,1.0,-3.0,310,9,,10.0,29.920275,,,TRUE,TRUE,,,,,,,CLR,,,,,,,,VFR,,,,,,,,,,,,METAR,2385.0
K06D 250535Z AUTO 08004KT 10SM BKN030 BKN035 02/00 A2981 RMK AO2,K06D,2015-04-25T05:35:00Z,48.88,-99.62,2.0,0.0,80,4,,10.0,29.811024,,,TRUE,TRUE,,,,,,,BKN,3000,BKN,3500,,,,,MVFR,,,,,,,,,,,,METAR,556.0
K0CO 250535Z AUTO 31025G32KT 10SM SCT032 M06/M11 A2994 RMK AO2,K0CO,2015-04-25T05:35:00Z,39.8,-105.77,-6.0,-11.0,310,25,32,10.0,29.940945,,,TRUE,TRUE,,,,,,,SCT,3200,,,,,,,VFR,,,,,,,,,,,,METAR,3807.0
K1K1 250535Z AUTO 21010G18KT 10SM OVC013 17/15 A2949 RMK AO2 T01700145,K1K1,2015-04-25T05:35:00Z,37.77,-97.12,17.0,14.5,210,10,18,10.0,29.489174,,,TRUE,TRUE,,,,,,,OVC,1300,,,,,,,MVFR,,,,,,,,,,,,METAR,416.0
K1V6 250535Z AUTO 28004KT 10SM CLR 08/00 A2976 RMK AO2,K1V6,2015-04-25T05:35:00Z,38.43,-105.1,8.0,0.0,280,4,,10.0,29.760826,,,TRUE,TRUE,,,,,,,CLR,,,,,,,,VFR,,,,,,,,,,,,METAR,1658.0
K1R7 250535Z AUTO 19004KT 22/22 A2984 RMK AO2,K1R7,2015-04-25T05:35:00Z,31.6,-90.42,22.0,22.0,190,4,,,29.840551,,,TRUE,TRUE,,,,,,,,,,,,,,,,,,,,,,,,,,,METAR,149.0
K20V 250535Z AUTO 05003KT 10SM OVC095 03/M02 A2986 RMK AO2,K20V,2015-04-25T05:35:00Z,40.05,-106.37,3.0,-2.0,50,3,,10.0,29.861221,,,TRUE,TRUE,,,,,,,OVC,9500,,,,,,,VFR,,,,,,,,,,,,METAR,2259.0
K2C8 250535Z AUTO 07005KT 10SM OVC032 05/00 A2985 RMK AO2,K2C8,2015-04-25T05:35:00Z,48.78,-97.63,5.0,0.0,70,5,,10.0,29.84941,,,TRUE,TRUE,,,,,,,OVC,3200,,,,,,,VFR,,,,,,,,,,,,METAR,272.0
K42J 250535Z AUTO 00000KT 10SM CLR 17/16 A2998 RMK AO1 TSNO,K42J,2015-04-25T05:35:00Z,29.85,-82.05,17.0,16.0,0,0,,10.0,29.97933,,,TRUE,TRUE,,,TRUE,,,,CLR,,,,,,,,VFR,,,,,,,,,,,,METAR,60.0
K46D 250535Z AUTO 11011KT 10SM OVC019 07/07 A2977 RMK AO2,K46D,2015-04-25T05:35:00Z,47.45,-99.15,7.0,7.0,110,11,,10.0,29.769686,,,TRUE,TRUE,,,,,,,OVC,1900,,,,,,,MVFR,,,,,,,,,,,,METAR,490.0
K7BM 250535Z AUTO 29015G36KT 250V350 10SM CLR 03/M06 A2990 RMK AO2,K7BM,2015-04-25T05:35:00Z,38.78,-106.22,3.0,-6.0,290,15,36,10.0,29.899607,,,TRUE,TRUE,,,,,,,CLR,,,,,,,,VFR,,,,,,,,,,,,METAR,2995.0
KI39 250535Z AUTO 14004KT 10SM SCT050 OVC070 12/03 A2987 RMK AO2,KI39,2015-04-25T05:35:00Z,37.63,-84.33,12.0,3.0,140,4,,10.0,29.870079,,,TRUE,TRUE,,,,,,,SCT,5000,OVC,7000,,,,,VFR,,,,,,,,,,,,METAR,306.0
KHZE 250535Z AUTO 12009KT 10SM FEW035 07/04 A2970 RMK AO2,KHZE,2015-04-25T05:35:00Z,47.28,-101.58,7.0,4.0,120,9,,10.0,29.698818,,,TRUE,TRUE,,,,,,,FEW,3500,,,,,,,VFR,,,,,,,,,,,,METAR,553.0
KHQZ 250535Z AUTO 16006KT 7SM CLR 17/16 A2970 RMK AO1 T01650162,KHQZ,2015-04-25T05:35:00Z,32.75,-96.53,16.5,16.2,160,6,,7.0,29.698818,,,TRUE,TRUE,,,,,,,CLR,,,,,,,,VFR,,,,,,,,,,,,METAR,136.0
KHLX 250535Z AUTO 20003KT 10SM CLR 08/M04 A2994 RMK AO2 T00821041,KHLX,2015-04-25T05:35:00Z,36.77,-80.82,8.2,-4.1,200,3,,10.0,29.940945,,,TRUE,TRUE,,,,,,,CLR,,,,,,,,VFR,,,,,,,,,,,,METAR,834.0
KHEQ 250535Z AUTO 28006KT 10SM CLR 09/05 A2961 RMK AO2,KHEQ,2015-04-25T05:35:00Z,40.57,-102.28,9.0,5.0,280,6,,10.0,29.610237,,,TRUE,TRUE,,,,,,,CLR,,,,,,,,VFR,,,,,,,,,,,,METAR,1137.0
KHAF 250535Z AUTO 18010KT 1 1/2SM BR OVC009 12/11 A3002 RMK AO2,KHAF,2015-04-25T05:35:00Z,37.52,-122.5,12.0,11.0,180,10,,1.5,30.02067,,,TRUE,TRUE,,,,,,BR,OVC,900,,,,,,,IFR,,,,,,,,,,,,METAR,21.0
KHAE 250535Z AUTO 12005KT 10SM SCT070 12/08 A2967 RMK AO2,KHAE,2015-04-25T05:35:00Z,39.73,-91.45,12.0,8.0,120,5,,10.0,29.66929,,,TRUE,TRUE,,,,,,,SCT,7000,,,,,,,VFR,,,,,,,,,,,,METAR,234.0
KGWW 250535Z AUTO 00000KT 10SM CLR 08/06 A2995 RMK AO2 T00760061,KGWW,2015-04-25T05:35:00Z,35.47,-77.97,7.6,6.1,0,0,,10.0,29.949802,,,TRUE,TRUE,,,,,,,CLR,,,,,,,,VFR,,,,,,,,,,,,METAR,41.0
KGWR 250535Z AUTO 10012KT 5SM OVC005 07/07 A2976 RMK A01 P000,KGWR,2015-04-25T05:35:00Z,46.22,-97.65,7.0,7.0,100,12,,5.0,29.760826,,,TRUE,TRUE,,,,,,,OVC,500,,,,,,,IFR,,,,,,,,,,,,METAR,386.0
KGGI 250535Z AUTO 07015KT 10SM OVC032 08/06 A2966 RMK AO2 T00800060,KGGI,2015-04-25T05:35:00Z,41.72,-92.73,8.0,6.0,70,15,,10.0,29.660433,,,TRUE,TRUE,,,,,,,OVC,3200,,,,,,,VFR,,,,,,,,,,,,METAR,307.0
KFWZ 250535Z AUTO 25008KT 1/4SM UP OVC002 01/01 A2970 RMK AO2,KFWZ,2015-04-25T05:35:00Z,42.52,-108.78,1.0,1.0,250,8,,0.25,29.698818,,,TRUE,TRUE,,,,,,UP,OVC,200,,,,,,,LIFR,,,,,,,,,,,,METAR,2588.0
KFWB 250535Z AUTO 08005KT M1/4SM FG OVC002 13/13 A2965 RMK AO2,KFWB,2015-04-25T05:35:00Z,36.7,-93.4,13.0,13.0,80,5,,0.25,29.648623,,,TRUE,TRUE,,,,,,FG,OVC,200,,,,,,,LIFR,,,,,,,,,,,,METAR,406.0
KFSO 250535Z AUTO 28005KT 10SM OVC037 01/M05 A2984 RMK AO2 T00081047,KFSO,2015-04-25T05:35:00Z,44.93,-73.1,0.8,-4.7,280,5,,10.0,29.840551,,,TRUE,TRUE,,,,,,,OVC,3700,,,,,,,VFR,,,,,,,,,,,,METAR,70.0
KFSE 250535Z AUTO 10005KT 10SM SCT023 OVC039 05/M01 A2984 RMK AO2,KFSE,2015-04-25T05:35:00Z,47.58,-95.77,5.0,-1.0,100,5,,10.0,29.840551,,,TRUE,TRUE,,,,,,,SCT,2300,OVC,3900,,,,,VFR,,,,,,,,,,,,METAR,389.0
KFLY 250535Z AUTO 29010KT 10SM CLR 06/M04 A2978 RMK AO2 T00631036,KFLY,2015-04-25T05:35:00Z,38.95,-104.57,6.3,-3.6,290,10,,10.0,29.778543,,,TRUE,TRUE,,,,,,,CLR,,,,,,,,VFR,,,,,,,,,,,,METAR,2096.0
KFKR 250535Z AUTO 09007KT 10SM BKN060 11/03 A2987 RMK AO2 T01130025,KFKR,2015-04-25T05:35:00Z,40.27,-86.57,11.3,2.5,90,7,,10.0,29.870079,,,TRUE,TRUE,,,,,,,BKN,6000,,,,,,,VFR,,,,,,,,,,,,METAR,262.0
KFEP 250535Z AUTO 08013G20KT 10SM OVC048 05/02 A2988 RMK AO2 T00450020,KFEP,2015-04-25T05:35:00Z,42.25,-89.58,4.5,2.0,80,13,20,10.0,29.878937,,,TRUE,TRUE,,,,,,,OVC,4800,,,,,,,VFR,,,,,,,,,,,,METAR,262.0
KF46 250535Z AUTO 19007KT 10SM CLR 17/17 A2968 RMK AO2 T01720172,KF46,2015-04-25T05:35:00Z,32.93,-96.43,17.2,17.2,190,7,,10.0,29.681103,,,TRUE,TRUE,,,,,,,CLR,,,,,,,,VFR,,,,,,,,,,,,METAR,176.0
KETH 250535Z AUTO 10010KT 3SM BR BKN007 OVC012 05/04 A2977 RMK AO2,KETH,2015-04-25T05:35:00Z,45.78,-96.55,5.0,4.0,100,10,,3.0,29.769686,,,TRUE,TRUE,,,,,,BR,BKN,700,OVC,1200,,,,,IFR,,,,,,,,,,,,METAR,313.0
KEIK 250535Z AUTO 00000KT 10SM CLR 06/00 A2969 RMK AO2 T00620004,KEIK,2015-04-25T05:35:00Z,40.02,-105.05,6.2,0.4,0,0,,10.0,29.68996,,,TRUE,TRUE,,,,,,,CLR,,,,,,,,VFR,,,,,,,,,,,,METAR,1564.0
KECS 250535Z AUTO 08006KT 10SM CLR 04/03 A2967 RMK AO2,KECS,2015-04-25T05:35:00Z,43.88,-104.32,4.0,3.0,80,6,,10.0,29.66929,,,TRUE,TRUE,,,,,,,CLR,,,,,,,,VFR,,,,,,,,,,,,METAR,1273.0
KE80 250535Z AUTO 26009KT 10SM CLR 11/01 A2997 RMK AO2 T01080010,KE80,2015-04-25T05:35:00Z,34.65,-106.83,10.8,1.0,260,9,,10.0,29.970472,,,TRUE,TRUE,,,,,,,CLR,,,,,,,,VFR,,,,,,,,,,,,METAR,1582.0
KDZB 250535Z AUTO 00000KT 4SM BR CLR 22/21 A2978 RMK AO2 T02150210,KDZB,2015-04-25T05:35:00Z,30.53,-98.37,21.5,21.0,0,0,,4.0,29.778543,,,TRUE,TRUE,,,,,,BR,CLR,,,,,,,,MVFR,,,,,,,,,,,,METAR,334.0
KDYA 250535Z AUTO 12003KT 10SM 19/16 A2982 RMK AO2 T01880156,KDYA,2015-04-25T05:35:00Z,32.47,-87.95,18.8,15.6,120,3,,10.0,29.819881,,,TRUE,TRUE,,,,,,,,,,,,,,,,,,,,,,,,,,,METAR,34.0
KDUA 250535Z AUTO 18010KT 7SM OVC005 16/16 A2969 RMK AO2,KDUA,2015-04-25T05:35:00Z,33.95,-96.4,16.0,16.0,180,10,,7.0,29.68996,,,TRUE,TRUE,,,,,,,OVC,500,,,,,,,IFR,,,,,,,,,,,,METAR,213.0
KDRI 250535Z AUTO 26004KT 7SM SCT013 BKN024 OVC036 24/23 A2985 RMK AO2 T02410228,KDRI,2015-04-25T05:35:00Z,30.83,-93.33,24.1,22.8,260,4,,7.0,29.84941,,,TRUE,TRUE,,,,,,,SCT,1300,BKN,2400,OVC,3600,,,MVFR,,,,,,,,,,,,METAR,63.0
KDED 250535Z AUTO 00000KT 10SM 18/17 A2999 RMK AO1,KDED,2015-04-25T05:35:00Z,29.07,-81.28,18.0,17.0,0,0,,10.0,29.991142,,,TRUE,TRUE,,,,,,,,,,,,,,,,,,,,,,,,,,,METAR,24.0
KCLI 250535Z AUTO 14004KT 10SM SCT048 OVC055 04/M05 A2998 RMK AO2,KCLI,2015-04-25T05:35:00Z,44.62,-88.73,4.0,-5.0,140,4,,10.0,29.97933,,,TRUE,TRUE,,,,,,,SCT,4800,OVC,5500,,,,,VFR,,,,,,,,,,,,METAR,250.0
KCFJ 250535Z AUTO 11003KT 10SM OVC048 10/M02 A2985 RMK AO2 T01021016,KCFJ,2015-04-25T05:35:00Z,,,10.2,-1.6,110,3,,10.0,29.84941,,,TRUE,TRUE,,,,,,,OVC,4800,,,,,,,VFR,,,,,,,,,,,,METAR,
KBXA 250535Z AUTO 00000KT 10SM 24/21 A2983 RMK AO2 T02380213,KBXA,2015-04-25T05:35:00Z,30.82,-89.87,23.8,21.3,0,0,,10.0,29.828741,,,TRUE,TRUE,,,,,,,,,,,,,,,,,,,,,,,,,,,METAR,36.0
KBPC 250535Z AUTO 24010KT 10SM CLR 17/00 A2963 RMK AO2,KBPC,2015-04-25T05:35:00Z,35.88,-101.03,17.0,0.0,240,10,,10.0,29.630905,,,TRUE,TRUE,,,,,,,CLR,,,,,,,,VFR,,,,,,,,,,,,METAR,845.0
KAXS 250535Z AUTO 23010KT 10SM CLR 16/07 A2963 RMK AO2 T01600067,KAXS,2015-04-25T05:35:00Z,34.7,-99.33,16.0,6.7,230,10,,10.0,29.630905,,,TRUE,TRUE,,,,,,,CLR,,,,,,,,VFR,,,,,,,,,,,,METAR,437.0
KAUN 250535Z AUTO 14007KT 4SM SCT001 OVC017 08/07 A2996 RMK AO1 P0009,KAUN,2015-04-25T05:35:00Z,38.95,-121.08,8.0,7.0,140,7,,4.0,29.958662,,,TRUE,TRUE,,,,,,,SCT,100,OVC,1700,,,,,MVFR,,,,,,0.09,,,,,,METAR,467.0
KASW 250535Z AUTO 08009KT 10SM -RA OVC060 08/02 A2991 RMK AO2,KASW,2015-04-25T05:35:00Z,41.27,-85.83,8.0,2.0,80,9,,10.0,29.911417,,,TRUE,TRUE,,,,,,-RA,OVC,6000,,,,,,,VFR,,,,,,,,,,,,METAR,259.0
KASN 250535Z AUTO 00000KT 10SM RA SCT060 OVC110 17/14 A2988 RMK AO2 T01730140,KASN,2015-04-25T05:35:00Z,33.57,-86.05,17.3,14.0,0,0,,10.0,29.878937,,,TRUE,TRUE,,,,,,RA,SCT,6000,OVC,11000,,,,,VFR,,,,,,,,,,,,METAR,162.0
KANK 250535Z AUTO 23007KT 10SM CLR 07/M04 A2993 RMK AO1 T00691043,KANK,2015-04-25T05:35:00Z,38.53,-106.05,6.9,-4.3,230,7,,10.0,29.929134,,,TRUE,TRUE,,,,,,,CLR,,,,,,,,VFR,,,,,,,,,,,,METAR,2293.0
KALM 250535Z AUTO 22006KT 10SM CLR 14/M03 A2996 RMK AO2,KALM,2015-04-25T05:35:00Z,32.82,-105.97,14.0,-3.0,220,6,,10.0,29.958662,,,TRUE,TRUE,,,,,,,CLR,,,,,,,,VFR,,,,,,,,,,,,METAR,1279.0
KAJZ 250535Z AUTO 10SM CLR 08/02 A2984 RMK AO2 T00810015 PWINO,KAJZ,2015-04-25T05:35:00Z,38.78,-108.07,8.1,1.5,,,,10.0,29.840551,,,TRUE,TRUE,,,,,TRUE,,CLR,,,,,,,,VFR,,,,,,,,,,,,METAR,1583.0
K96D 250535Z AUTO 09007KT 10SM BKN030 OVC046 04/00 A2985 RMK AO2,K96D,2015-04-25T05:35:00Z,48.93,-97.9,4.0,0.0,90,7,,10.0,29.84941,,,TRUE,TRUE,,,,,,,BKN,3000,OVC,4600,,,,,MVFR,,,,,,,,,,,,METAR,290.0
K8W2 250535Z AUTO 00000KT 10SM CLR 01/M01 A2997 RMK AO1 T00111009,K8W2,2015-04-25T05:35:00Z,38.65,-78.7,1.1,-0.9,0,0,,10.0,29.970472,,,TRUE,TRUE,,,,,,,CLR,,,,,,,,VFR,,,,,,,,,,,,METAR,297.0
K82V 250535Z AUTO 28014KT 10SM SCT120 08/03 A2967 RMK AO2,K82V,2015-04-25T05:35:00Z,41.15,-104.13,8.0,3.0,280,14,,10.0,29.66929,,,TRUE,TRUE,,,,,,,SCT,12000,,,,,,,VFR,,,,,,,,,,,,METAR,1570.0
KICL 250535Z AUTO 10008KT 5SM +RA FEW008 SCT024 BKN032 14/13 A2954 RMK AO2,KICL,2015-04-25T05:35:00Z,40.72,-95.02,14.0,13.0,100,8,,5.0,29.53937,,,TRUE,TRUE,,,,,,+RA,FEW,800,SCT,2400,BKN,3200,,,MVFR,,,,,,,,,,,,METAR,303.0
KIDI 250535Z AUTO 00000KT 10SM OVC049 01/M08 A3001 RMK A01,KIDI,2015-04-25T05:35:00Z,40.62,-79.08,1.0,-8.0,0,0,,10.0,30.008858,,,TRUE,TRUE,,,,,,,OVC,4900,,,,,,,VFR,,,,,,,,,,,,METAR,429.0
KJNX 250535Z AUTO 00000KT 10SM CLR 08/07 A2994 RMK AO2,KJNX,2015-04-25T05:35:00Z,35.53,-78.38,8.0,7.0,0,0,,10.0,29.940945,,,TRUE,TRUE,,,,,,,CLR,,,,,,,,VFR,,,,,,,,,,,,METAR,50.0
KCRP 250535Z 03011KT 5SM -RA BR FEW030 SCT048 BKN075 OVC130 26/24 A2974 RMK AO2 TSE35 OCNL LTGICCC DSNT NE-E TS MOV NE CB DSNT NE-E P0003 T02560239 $,KCRP,2015-04-25T05:35:00Z,27.77,-97.5,25.6,23.9,30,11,,5.0,29.740158,,,,TRUE,TRUE,,,,,-RA BR,FEW,3000,SCT,4800,BKN,7500,OVC,13000,MVFR,,,,,,0.03,,,,,,SPECI,14.0
KJSV 250535Z AUTO 11007KT 10SM BKN006 16/15 A2964 RMK AO2,KJSV,2015-04-25T05:35:00Z,35.43,-94.8,16.0,15.0,110,7,,10.0,29.639763,,,TRUE,TRUE,,,,,,,BKN,600,,,,,,,IFR,,,,,,,,,,,,METAR,161.0
KJWY 250535Z AUTO 00000KT 10SM CLR 17/17 A2972 RMK AO2 T01720172,KJWY,2015-04-25T05:35:00Z,32.45,-96.92,17.2,17.2,0,0,,10.0,29.719488,,,TRUE,TRUE,,,,,,,CLR,,,,,,,,VFR,,,,,,,,,,,,METAR,217.0
KJYG 250535Z AUTO 09010G16KT 10SM SCT014 OVC024 07/04 A2973 RMK AO2,KJYG,2015-04-25T05:35:00Z,43.98,-94.55,7.0,4.0,90,10,16,10.0,29.731298,,,TRUE,TRUE,,,,,,,SCT,1400,OVC,2400,,,,,MVFR,,,,,,,,,,,,METAR,325.0
KL18 250535Z AUTO 00000KT 10SM OVC032 13/11 A3003 RMK AO2,KL18,2015-04-25T05:35:00Z,33.35,-117.25,13.0,11.0,0,0,,10.0,30.029528,,,TRUE,TRUE,,,,,,,OVC,3200,,,,,,,VFR,,,,,,,,,,,,METAR,216.0
KLVL 250535Z AUTO 00000KT 10SM CLR 07/03 A2993 RMK AO1 T00690029,KLVL,2015-04-25T05:35:00Z,36.78,-77.8,6.9,2.9,0,0,,10.0,29.929134,,,TRUE,TRUE,,,,,,,CLR,,,,,,,,VFR,,,,,,,,,,,,METAR,100.0
KLNC 250535Z AUTO 00000KT 10SM CLR 17/16 A2971 RMK AO2 P0001 T01660157,KLNC,2015-04-25T05:35:00Z,32.58,-96.72,16.6,15.7,0,0,,10.0,29.71063,,,TRUE,TRUE,,,,,,,CLR,,,,,,,,VFR,,,,,,0.01,,,,,,METAR,153.0
KLMO 250535Z AUTO 00000KT 10SM CLR 09/01 A2970 RMK AO2 T00900010,KLMO,2015-04-25T05:35:00Z,40.17,-105.17,9.0,1.0,0,0,,10.0,29.698818,,,TRUE,TRUE,,,,,,,CLR,,,,,,,,VFR,,,,,,,,,,,,METAR,1541.0
KMKN 250535Z AUTO 24008KT 10SM CLR 19/16 A2975 RMK AO2 T01880161,KMKN,2015-04-25T05:35:00Z,31.92,-98.6,18.8,16.1,240,8,,10.0,29.749016,,,TRUE,TRUE,,,,,,,CLR,,,,,,,,VFR,,,,,,,,,,,,METAR,423.0
KVWU 250535Z AUTO 00000KT 10SM OVC041 05/M01 A2988 RMK AO2,KVWU,2015-04-25T05:35:00Z,48.15,-94.52,5.0,-1.0,0,0,,10.0,29.878937,,,TRUE,TRUE,,,,,,,OVC,4100,,,,,,,VFR,,,,,,,,,,,,SPECI,360.0
KLCH 250535Z AUTO 18010G17KT 7SM SCT009 BKN013 OVC026 24/23 A2977 RMK AO2 LTG DSNT E T02440228,KLCH,2015-04-25T05:35:00Z,30.13,-93.22,24.4,22.8,180,10,17,7.0,29.769686,,,TRUE,TRUE,,,,,,,SCT,900,BKN,1300,OVC,2600,,,MVFR,,,,,,,,,,,,SPECI,4.0
KMRC 250535Z AUTO 17003KT 7SM BKN030 BKN036 OVC049 13/00 A2986 RMK,KMRC,2015-04-25T05:35:00Z,35.55,-87.18,13.0,0.0,170,3,,7.0,29.861221,,,TRUE,,,,,,,,BKN,3000,BKN,3600,OVC,4900,,,MVFR,,,,,,,,,,,,METAR,208.0
KMNI 250535Z AUTO 19004KT 10SM CLR 16/03 A2998 RMK AO2,KMNI,2015-04-25T05:35:00Z,33.58,-80.22,16.0,3.0,190,4,,10.0,29.97933,,,TRUE,TRUE,,,,,,,CLR,,,,,,,,VFR,,,,,,,,,,,,METAR,32.0
K4O4 250535Z AUTO 19007KT 10SM OVC005 16/15 A2972 RMK AO2,K4O4,2015-04-25T05:35:00Z,33.92,-94.87,16.0,15.0,190,7,,10.0,29.719488,,,TRUE,TRUE,,,,,,,OVC,500,,,,,,,IFR,,,,,,,,,,,,SPECI,144.0
K4A9 250535Z AUTO 00000KT 7SM -RA SCT041 BKN047 OVC080 13/10 A2991 RMK AO2,K4A9,2015-04-25T05:35:00Z,34.47,-85.72,13.0,10.0,0,0,,7.0,29.911417,,,TRUE,TRUE,,,,,,-RA,SCT,4100,BKN,4700,OVC,8000,,,VFR,,,,,,,,,,,,SPECI,267.0
K49A 250535Z AUTO 00000KT 10SM BKN090 A2995 RMK AO2,K49A,2015-04-25T05:35:00Z,34.63,-84.53,,,0,0,,10.0,29.949802,,,TRUE,TRUE,,,,,,,BKN,9000,,,,,,,VFR,,,,,,,,,,,,SPECI,453.0
K3J7 250535Z AUTO 00000KT 10SM BKN110 18/10 A2991 RMK AO2,K3J7,2015-04-25T05:35:00Z,33.6,-83.13,18.0,10.0,0,0,,10.0,29.911417,,,TRUE,TRUE,,,,,,,BKN,11000,,,,,,,VFR,,,,,,,,,,,,SPECI,206.0
K3I2 250535Z AUTO 00000KT 10SM SCT080 08/03 A2994 RMK AO2,K3I2,2015-04-25T05:35:00Z,38.92,-82.1,8.0,3.0,0,0,,10.0,29.940945,,,TRUE,TRUE,,,,,,,SCT,8000,,,,,,,VFR,,,,,,,,,,,,SPECI,196.0
K3D2 250535Z AUTO 10006KT 10SM OVC075 03/M08 A3000 RMK AO2 T00321076,K3D2,2015-04-25T05:35:00Z,45.13,-87.18,3.2,-7.6,100,6,,10.0,30.0,,,TRUE,TRUE,,,,,,,OVC,7500,,,,,,,VFR,,,,,,,,,,,,METAR,234.0
K36U 250535Z AUTO 22009KT 10SM UP BKN030 BKN035 OVC041 06/03 A2979 RMK AO2,K36U,2015-04-25T05:35:00Z,40.48,-111.43,6.0,3.0,220,9,,10.0,29.790354,,,TRUE,TRUE,,,,,,UP,BKN,3000,BKN,3500,OVC,4100,,,MVFR,,,,,,,,,,,,SPECI,1718.0
K1II 250535Z AUTO 11004KT 10SM OVC042 11/03 A2987 RMK AO2,K1II,2015-04-25T05:35:00Z,39.33,-86.03,11.0,3.0,110,4,,10.0,29.870079,,,TRUE,TRUE,,,,,,,OVC,4200,,,,,,,VFR,,,,,,,,,,,,SPECI,214.0
K1A9 250535Z AUTO 00000KT 10SM CLR 16/14 A2985 RMK AO2 T01550142,K1A9,2015-04-25T05:35:00Z,32.43,-86.52,15.5,14.2,0,0,,10.0,29.84941,,,TRUE,TRUE,,,,,,,CLR,,,,,,,,VFR,,,,,,,,,,,,SPECI,69.0
K19A 250535Z AUTO 00000KT 10SM -RA OVC100 17/11 A2993 RMK AO2,K19A,2015-04-25T05:35:00Z,34.18,-83.57,17.0,11.0,0,0,,10.0,29.929134,,,TRUE,TRUE,,,,,,-RA,OVC,10000,,,,,,,VFR,,,,,,,,,,,,SPECI,290.0
K11R 250535Z AUTO 16010KT 5SM BR CLR 25/24 A2968 RMK AO2 T02500240,K11R,2015-04-25T05:35:00Z,30.22,-96.37,25.0,24.0,160,10,,5.0,29.681103,,,TRUE,TRUE,,,,,,BR,CLR,,,,,,,,MVFR,,,,,,,,,,,,SPECI,94.0
KQAY 250535Z AUTO 30014G28KT 1600 HZ FEW007 BKN009 22/M03 A3010 RMK AO2 SLP192 $,KQAY,2015-04-25T05:35:00Z,100.65,-1000.65,22.0,-3.0,300,14,28,0.99,30.100393,1019.2,,TRUE,TRUE,TRUE,,,,,HZ,FEW,700,BKN,900,,,,,LIFR,,,,,,,,,,,,SPECI,999.0
K5R8 250535Z AUTO 28003KT 7SM OVC008 23/23 A2979 RMK AO2 T02340234,K5R8,2015-04-25T05:35:00Z,30.43,-93.47,23.4,23.4,280,3,,7.0,29.790354,,,TRUE,TRUE,,,,,,,OVC,800,,,,,,,IFR,,,,,,,,,,,,SPECI,24.0
K5A6 250535Z AUTO 15007KT 10SM SCT020 BKN039 OVC048 17/16 A2974 RMK AO2 LTG DSNT ALQS T01690161,K5A6,2015-04-25T05:35:00Z,33.47,-89.73,16.9,16.1,150,7,,10.0,29.740158,,,TRUE,TRUE,,,,,,,SCT,2000,BKN,3900,OVC,4800,,,VFR,,,,,,,,,,,,SPECI,111.0
KALN 250535Z AUTO 12004KT 10SM OVC019 12/08 A2974 RMK AO2 T01180076,KALN,2015-04-25T05:35:00Z,38.88,-90.03,11.8,7.6,120,4,,10.0,29.740158,,,TRUE,TRUE,,,,,,,OVC,1900,,,,,,,MVFR,,,,,,,,,,,,SPECI,166.0
KAJG 250535Z AUTO 14007KT 10SM OVC028 14/04 A2981 RMK AO2,KAJG,2015-04-25T05:35:00Z,38.62,-87.73,14.0,4.0,140,7,,10.0,29.811024,,,TRUE,TRUE,,,,,,,OVC,2800,,,,,,,MVFR,,,,,,,,,,,,SPECI,131.0
KAAA 250535Z AUTO 10005KT 10SM OVC034 12/04 A2976 RMK AO2 LTG DSNT W AND NW T01220042,KAAA,2015-04-25T05:35:00Z,40.17,-89.33,12.2,4.2,100,5,,10.0,29.760826,,,TRUE,TRUE,,,,,,,OVC,3400,,,,,,,VFR,,,,,,,,,,,,SPECI,182.0
K82C 250535Z AUTO 10006KT 5SM -DZ OVC010 04/03 A2990 RMK AO2 T00410030,K82C,2015-04-25T05:35:00Z,43.83,-90.13,4.1,3.0,100,6,,5.0,29.899607,,,TRUE,TRUE,,,,,,-DZ,OVC,1000,,,,,,,MVFR,,,,,,,,,,,,METAR,276.0
K7W4 250535Z AUTO 00000KT 10SM CLR 04/M01 A2996 RMK AO1 T00411009,K7W4,2015-04-25T05:35:00Z,37.97,-77.75,4.1,-0.9,0,0,,10.0,29.958662,,,TRUE,TRUE,,,,,,,CLR,,,,,,,,VFR,,,,,,,,,,,,SPECI,106.0
K6A2 250535Z AUTO 14003KT 10SM SCT100 SCT120 18/13 A2991 RMK AO2,K6A2,2015-04-25T05:35:00Z,33.23,-84.27,18.0,13.0,140,3,,10.0,29.911417,,,TRUE,TRUE,,,,,,,SCT,10000,SCT,12000,,,,,VFR,,,,,,,,,,,,SPECI,292.0
KCDH 250535Z AUTO 00000KT 7SM -RA SCT003 BKN030 BKN041 17/15 A2974 RMK AO2,KCDH,2015-04-25T05:35:00Z,33.62,-92.77,17.0,15.0,0,0,,7.0,29.740158,,,TRUE,TRUE,,,,,,-RA,SCT,300,BKN,3000,BKN,4100,,,MVFR,,,,,,,,,,,,SPECI,35.0
KCDA 250535Z AUTO 00000KT 10SM SCT020 SCT032 BKN049 M01/M05 A2977 RMK AO2 T10131051,KCDA,2015-04-25T05:35:00Z,44.57,-72.02,-1.3,-5.1,0,0,,10.0,29.769686,,,TRUE,TRUE,,,,,,,SCT,2000,SCT,3200,BKN,4900,,,VFR,,,,,,,,,,,,SPECI,363.0
KCCY 250535Z AUTO 10016G23KT 10SM OVC036 06/05 A2975 RMK AO2,KCCY,2015-04-25T05:35:00Z,43.07,-92.62,6.0,5.0,100,16,23,10.0,29.749016,,,TRUE,TRUE,,,,,,,OVC,3600,,,,,,,VFR,,,,,,,,,,,,SPECI,343.0
KCCO 250535Z AUTO 15004KT 10SM SCT100 BKN120 18/14 A2989 RMK AO2 T01780143,KCCO,2015-04-25T05:35:00Z,33.32,-84.77,17.8,14.3,150,4,,10.0,29.890747,,,TRUE,TRUE,,,,,,,SCT,10000,BKN,12000,,,,,VFR,,,,,,,,,,,,SPECI,296.0
KBTA 250535Z AUTO 07007KT 7SM RA OVC008 13/11 A2953 RMK AO2 LTG DSNT S T01300110,KBTA,2015-04-25T05:35:00Z,41.42,-96.12,13.0,11.0,70,7,,7.0,29.530512,,,TRUE,TRUE,,,,,,RA,OVC,800,,,,,,,IFR,,,,,,,,,,,,SPECI,396.0
KBKS 250535Z AUTO 11006KT 4SM CLR 26/24 A2972 RMK AO1 T02600242,KBKS,2015-04-25T05:35:00Z,27.2,-98.12,26.0,24.2,110,6,,4.0,29.719488,,,TRUE,TRUE,,,,,,,CLR,,,,,,,,MVFR,,,,,,,,,,,,SPECI,34.0
KBKD 250535Z AUTO 21007KT 10SM CLR 19/15 A2971 RMK AO2 T01870147,KBKD,2015-04-25T05:35:00Z,32.72,-98.88,18.7,14.7,210,7,,10.0,29.71063,,,TRUE,TRUE,,,,,,,CLR,,,,,,,,VFR,,,,,,,,,,,,SPECI,392.0
KBHC 250535Z AUTO 00000KT 10SM BKN110 18/12 A2997 RMK AO2,KBHC,2015-04-25T05:35:00Z,31.72,-82.4,18.0,12.0,0,0,,10.0,29.970472,,,TRUE,TRUE,,,,,,,BKN,11000,,,,,,,VFR,,,,,,,,,,,,SPECI,61.0
KBEA 250535Z AUTO 08003KT 2 1/2SM BR BKN009 OVC021 24/24 A2977 RMK AO2 LTG DSNT E T02430243,KBEA,2015-04-25T05:35:00Z,28.37,-97.78,24.3,24.3,80,3,,2.5,29.769686,,,TRUE,TRUE,,,,,,BR,BKN,900,OVC,2100,,,,,IFR,,,,,,,,,,,,SPECI,82.0
KBDG 250535Z AUTO 13004KT 10SM SCT075 09/M02 A2994 RMK AO1 T00871024,KBDG,2015-04-25T05:35:00Z,37.58,-109.47,8.7,-2.4,130,4,,10.0,29.940945,,,TRUE,TRUE,,,,,,,SCT,7500,,,,,,,VFR,,,,,,,,,,,,SPECI,1788.0
KBCK 250535Z AUTO 10007KT 10SM OVC011 05/04 A2989 RMK AO2 T00480041,KBCK,2015-04-25T05:35:00Z,44.25,-90.85,4.8,4.1,100,7,,10.0,29.890747,,,TRUE,TRUE,,,,,,,OVC,1100,,,,,,,MVFR,,,,,,,,,,,,SPECI,255.0
KBCB 250535Z AUTO 00000KT 10SM CLR 06/M02 A2997 RMK AO2 T00551024,KBCB,2015-04-25T05:35:00Z,37.22,-80.42,5.5,-2.4,0,0,,10.0,29.970472,,,TRUE,TRUE,,,,,,,CLR,,,,,,,,VFR,,,,,,,,,,,,SPECI,650.0
KAZC 250535Z AUTO 00000KT 10SM -RA OVC050 11/08 A2990 RMK AO2 T01140077,KAZC,2015-04-25T05:35:00Z,36.97,-113.02,11.4,7.7,0,0,,10.0,29.899607,,,TRUE,TRUE,,,,,,-RA,OVC,5000,,,,,,,VFR,,,,,,,,,,,,SPECI,1486.0
KAYS 250535Z AUTO 16003KT 10SM CLR 19/14 A2997 RMK AO2 T01930144,KAYS,2015-04-25T05:35:00Z,31.25,-82.4,19.3,14.4,160,3,,10.0,29.970472,,,TRUE,TRUE,,,,,,,CLR,,,,,,,,VFR,,,,,,,,,,,,SPECI,46.0
KAXX 250535Z AUTO 25006KT 10SM SCT026 02/M02 A2998 RMK AO2 T00151025,KAXX,2015-04-25T05:35:00Z,36.42,-105.28,1.5,-2.5,250,6,,10.0,29.97933,,,TRUE,TRUE,,,,,,,SCT,2600,,,,,,,VFR,,,,,,,,,,,,SPECI,2548.0
KANW 250535Z AUTO 04007KT 10SM SCT090 12/08 A2955 RMK AO2 T01240076,KANW,2015-04-25T05:35:00Z,42.57,-100.0,12.4,7.6,40,7,,10.0,29.551182,,,TRUE,TRUE,,,,,,,SCT,9000,,,,,,,VFR,,,,,,,,,,,,SPECI,789.0
KPCZ 250535Z AUTO 07006KT 10SM -RA SCT036 BKN042 OVC060 04/01 A2998 RMK AO2 T00370006,KPCZ,2015-04-25T05:35:00Z,44.33,-89.02,3.7,0.6,70,6,,10.0,29.97933,,,TRUE,TRUE,,,,,,-RA,SCT,3600,BKN,4200,OVC,6000,,,VFR,,,,,,,,,,,,SPECI,252.0
KORG 250535Z AUTO 21007KT 5SM BR BKN005 OVC010 24/22 A2980 RMK AO2 T02400222,KORG,2015-04-25T05:35:00Z,30.07,-93.8,24.0,22.2,210,7,,5.0,29.799213,,,TRUE,TRUE,,,,,,BR,BKN,500,OVC,1000,,,,,IFR,,,,,,,,,,,,SPECI,4.0
KONP 250535Z AUTO 17005KT 7SM SCT026 BKN036 BKN044 08/07 A2996 RMK AO2,KONP,2015-04-25T05:35:00Z,44.57,-124.03,8.0,7.0,170,5,,7.0,29.958662,,,TRUE,TRUE,,,,,,,SCT,2600,BKN,3600,BKN,4400,,,VFR,,,,,,,,,,,,SPECI,48.0
KOLE 250535Z AUTO 28003KT 10SM CLR M02/M05 A2993 RMK AO2,KOLE,2015-04-25T05:35:00Z,42.23,-78.37,-2.0,-5.0,280,3,,10.0,29.929134,,,TRUE,TRUE,,,,,,,CLR,,,,,,,,VFR,,,,,,,,,,,,SPECI,651.0
KOKV 250535Z AUTO 00000KT 10SM CLR 07/M07 A2997 RMK AO2,KOKV,2015-04-25T05:35:00Z,39.13,-78.15,7.0,-7.0,0,0,,10.0,29.970472,,,TRUE,TRUE,,,,,,,CLR,,,,,,,,VFR,,,,,,,,,,,,SPECI,222.0
KOCW 250535Z AUTO 20004KT 10SM CLR 10/03 A2995 RMK AO2 T01030032,KOCW,2015-04-25T05:35:00Z,35.57,-77.05,10.3,3.2,200,4,,10.0,29.949802,,,TRUE,TRUE,,,,,,,CLR,,,,,,,,VFR,,,,,,,,,,,,SPECI,12.0
KMQS 250535Z AUTO 00000KT 10SM CLR 03/M06 A2996 RMK AO2,KMQS,2015-04-25T05:35:00Z,39.98,-75.87,3.0,-6.0,0,0,,10.0,29.958662,,,TRUE,TRUE,,,,,,,CLR,,,,,,,,VFR,,,,,,,,,,,,SPECI,201.0
KMQI 250535Z AUTO 13006KT 10SM CLR 10/06 A2995 RMK AO2 T00990061,KMQI,2015-04-25T05:35:00Z,35.92,-75.7,9.9,6.1,130,6,,10.0,29.949802,,,TRUE,TRUE,,,,,,,CLR,,,,,,,,VFR,,,,,,,,,,,,SPECI,4.0
KMQB 250535Z AUTO 12007KT 10SM BKN034 OVC043 13/06 A2974 RMK AO2 LTG DSNT NE T01280055,KMQB,2015-04-25T05:35:00Z,40.52,-90.65,12.8,5.5,120,7,,10.0,29.740158,,,TRUE,TRUE,,,,,,,BKN,3400,OVC,4300,,,,,VFR,,,,,,,,,,,,SPECI,215.0
KMMH 250535Z AUTO 25013G19KT 10SM SCT075 05/M06 A2999 RMK AO1,KMMH,2015-04-25T05:35:00Z,37.62,-118.82,5.0,-6.0,250,13,19,10.0,29.991142,,,TRUE,TRUE,,,,,,,SCT,7500,,,,,,,VFR,,,,,,,,,,,,SPECI,2173.0
KMGR 250535Z AUTO 11003KT 10SM CLR 19/16 A2994 RMK AO2,KMGR,2015-04-25T05:35:00Z,31.08,-83.8,19.0,16.0,110,3,,10.0,29.940945,,,TRUE,TRUE,,,,,,,CLR,,,,,,,,VFR,,,,,,,,,,,,SPECI,90.0
KMCX 250535Z AUTO 09003KT 10SM OVC070 12/01 A2985 RMK AO2 T01150010,KMCX,2015-04-25T05:35:00Z,40.72,-86.77,11.5,1.0,90,3,,10.0,29.84941,,,TRUE,TRUE,,,,,,,OVC,7000,,,,,,,VFR,,,,,,,,,,,,SPECI,206.0
KLXY 250535Z AUTO 14011KT 10SM CLR 21/18 A2971 RMK AO2 T02060184,KLXY,2015-04-25T05:35:00Z,31.63,-96.52,20.6,18.4,140,11,,10.0,29.71063,,,TRUE,TRUE,,,,,,,CLR,,,,,,,,VFR,,,,,,,,,,,,SPECI,166.0
KLUM 250535Z AUTO 09007KT 10SM OVC034 06/03 A2987 RMK AO2 T00610025,KLUM,2015-04-25T05:35:00Z,44.9,-91.87,6.1,2.5,90,7,,10.0,29.870079,,,TRUE,TRUE,,,,,,,OVC,3400,,,,,,,VFR,,,,,,,,,,,,SPECI,273.0
KLOM 250535Z AUTO 00000KT 10SM CLR 02/M03 A2995 RMK AO1,KLOM,2015-04-25T05:35:00Z,40.13,-75.27,2.0,-3.0,0,0,,10.0,29.949802,,,TRUE,TRUE,,,,,,,CLR,,,,,,,,VFR,,,,,,,,,,,,SPECI,92.0
KLHB 250535Z AUTO 12003KT 7SM BKN015 BKN019 OVC025 24/22 A2974 RMK AO2 T02380223,KLHB,2015-04-25T05:35:00Z,30.87,-96.62,23.8,22.3,120,3,,7.0,29.740158,,,TRUE,TRUE,,,,,,,BKN,1500,BKN,1900,OVC,2500,,,MVFR,,,,,,,,,,,,SPECI,87.0
KJYR 250535Z AUTO 04009KT 3SM -RA OVC008 13/13 A2949 RMK AO2 LTG DSNT W P0001,KJYR,2015-04-25T05:35:00Z,40.9,-97.62,13.0,13.0,40,9,,3.0,29.489174,,,TRUE,TRUE,,,,,,-RA,OVC,800,,,,,,,IFR,,,,,,0.01,,,,,,SPECI,509.0
KJWG 250535Z AUTO 20014G24KT 10SM CLR 17/17 A2954 RMK AO2 T01720172,KJWG,2015-04-25T05:35:00Z,35.87,-98.42,17.2,17.2,200,14,24,10.0,29.53937,,,TRUE,TRUE,,,,,,,CLR,,,,,,,,VFR,,,,,,,,,,,,SPECI,472.0
KJSO 250535Z AUTO 23005KT 10SM CLR 20/18 A2976 RMK AO2 T02060186,KJSO,2015-04-25T05:35:00Z,31.87,-95.22,20.6,18.6,230,5,,10.0,29.760826,,,TRUE,TRUE,,,,,,,CLR,,,,,,,,VFR,,,,,,,,,,,,SPECI,206.0
KJQF 250535Z AUTO 00000KT 10SM SCT090 10/06 A2997 RMK AO2,KJQF,2015-04-25T05:35:00Z,35.38,-80.72,10.0,6.0,0,0,,10.0,29.970472,,,TRUE,TRUE,,,,,,,SCT,9000,,,,,,,VFR,,,,,,,,,,,,SPECI,210.0
KJKA 250535Z AUTO 15007KT 7SM OVC007 23/23 A2984 RMK AO2 P0001 T02310226,KJKA,2015-04-25T05:35:00Z,30.28,-87.67,23.1,22.6,150,7,,7.0,29.840551,,,TRUE,TRUE,,,,,,,OVC,700,,,,,,,IFR,,,,,,0.01,,,,,,SPECI,5.0
KJFZ 250535Z AUTO 00000KT 10SM OVC080 10/M33 A2993 RMK AO2 T01021333,KJFZ,2015-04-25T05:35:00Z,37.07,-81.8,10.2,-33.3,0,0,,10.0,29.929134,,,TRUE,TRUE,,,,,,,OVC,8000,,,,,,,VFR,,,,,,,,,,,,SPECI,809.0
KIPJ 250535Z AUTO 00000KT 10SM OVC090 10/07 A2993 RMK AO2 T01030069,KIPJ,2015-04-25T05:35:00Z,35.48,-81.17,10.3,6.9,0,0,,10.0,29.929134,,,TRUE,TRUE,,,,,,,OVC,9000,,,,,,,VFR,,,,,,,,,,,,SPECI,267.0
KIGQ 250535Z AUTO 04005KT 10SM -RA SCT065 OVC090 07/03 A2988 RMK AO2 T00650033,KIGQ,2015-04-25T05:35:00Z,41.53,-87.53,6.5,3.3,40,5,,10.0,29.878937,,,TRUE,TRUE,,,,,,-RA,SCT,6500,OVC,9000,,,,,VFR,,,,,,,,,,,,SPECI,188.0
KIFA 250535Z AUTO 09013KT 10SM BKN037 OVC046 08/05 A2969 RMK AO2 T00750052,KIFA,2015-04-25T05:35:00Z,42.47,-93.27,7.5,5.2,90,13,,10.0,29.68996,,,TRUE,TRUE,,,,,,,BKN,3700,OVC,4600,,,,,VFR,,,,,,,,,,,,SPECI,347.0
KI35 250535Z AUTO 08003KT 10SM SCT060 BKN070 OVC090 11/04 A2991 RMK AO1,KI35,2015-04-25T05:35:00Z,36.87,-83.37,11.0,4.0,80,3,,10.0,29.911417,,,TRUE,TRUE,,,,,,,SCT,6000,BKN,7000,OVC,9000,,,VFR,,,,,,,,,,,,SPECI,473.0
KHVE 250535Z AUTO 25008KT 10SM SCT120 15/M01 A2977 RMK AO2,KHVE,2015-04-25T05:35:00Z,38.42,-110.7,15.0,-1.0,250,8,,10.0,29.769686,,,TRUE,TRUE,,,,,,,SCT,12000,,,,,,,VFR,,,,,,,,,,,,SPECI,1350.0
KHUM 250535Z AUTO 16009G18KT 7SM OVC009 26/25 A2980 RMK AO2 T02550245,KHUM,2015-04-25T05:35:00Z,29.57,-90.67,25.5,24.5,160,9,18,7.0,29.799213,,,TRUE,TRUE,,,,,,,OVC,900,,,,,,,IFR,,,,,,,,,,,,SPECI,3.0
KHSB 250535Z AUTO 12004KT 10SM OVC019 14/07 A2980 RMK AO2 T01350071,KHSB,2015-04-25T05:35:00Z,37.82,-88.55,13.5,7.1,120,4,,10.0,29.799213,,,TRUE,TRUE,,,,,,,OVC,1900,,,,,,,MVFR,,,,,,,,,,,,SPECI,121.0
KHHF 250535Z AUTO 20005KT 10SM CLR 14/08 A2960 RMK AO2 T01350077,KHHF,2015-04-25T05:35:00Z,35.9,-100.4,13.5,7.7,200,5,,10.0,29.601377,,,TRUE,TRUE,,,,,,,CLR,,,,,,,,VFR,,,,,,,,,,,,SPECI,712.0
KGYY 250535Z AUTO 05008KT 10SM -DZ BKN070 OVC095 08/04 A2988 RMK AO2 T00760035,KGYY,2015-04-25T05:35:00Z,41.62,-87.42,7.6,3.5,50,8,,10.0,29.878937,,,TRUE,TRUE,,,,,,-DZ,BKN,7000,OVC,9500,,,,,VFR,,,,,,,,,,,,SPECI,180.0
KGPM 250535Z AUTO 18003KT 10SM CLR 17/17 A2971 RMK AO2 T01720172,KGPM,2015-04-25T05:35:00Z,32.7,-97.05,17.2,17.2,180,3,,10.0,29.71063,,,TRUE,TRUE,,,,,,,CLR,,,,,,,,VFR,,,,,,,,,,,,SPECI,180.0
KGIC 250535Z AUTO 00000KT 10SM OVC070 04/00 A2986 RMK AO1 T00400000,KGIC,2015-04-25T05:35:00Z,45.95,-116.12,4.0,0.0,0,0,,10.0,29.861221,,,TRUE,TRUE,,,,,,,OVC,7000,,,,,,,VFR,,,,,,,,,,,,SPECI,1009.0
KGEV 250535Z AUTO 00000KT 10SM BKN085 08/M13 A2994 RMK AO2 T00821127,KGEV,2015-04-25T05:35:00Z,36.43,-81.42,8.2,-12.7,0,0,,10.0,29.940945,,,TRUE,TRUE,,,,,,,BKN,8500,,,,,,,VFR,,,,,,,,,,,,SPECI,969.0
KRYW 250535Z AUTO 22003KT 7SM OVC013 25/23 A2979 RMK AO2 T02450225,KRYW,2015-04-25T05:35:00Z,30.5,-97.97,24.5,22.5,220,3,,7.0,29.790354,,,TRUE,TRUE,,,,,,,OVC,1300,,,,,,,MVFR,,,,,,,,,,,,SPECI,376.0
KSNL 250535Z AUTO 18010G16KT OVC008 16/16 A2961 RMK AO2 PWINO,KSNL,2015-04-25T05:35:00Z,35.35,-96.95,16.0,16.0,180,10,16,,29.610237,,,TRUE,TRUE,,,,,TRUE,,OVC,800,,,,,,,,,,,,,,,,,,,SPECI,327.0
KSLO 250535Z AUTO 13005KT 10SM OVC017 14/06 A2977 RMK AO2 T01420055,KSLO,2015-04-25T05:35:00Z,38.65,-88.97,14.2,5.5,130,5,,10.0,29.769686,,,TRUE,TRUE,,,,,,,OVC,1700,,,,,,,MVFR,,,,,,,,,,,,SPECI,175.0
KSJS 250535Z AUTO 00000KT 10SM BKN080 OVC090 11/01 A2991 RMK AO2 T01060012,KSJS,2015-04-25T05:35:00Z,37.75,-82.63,10.6,1.2,0,0,,10.0,29.911417,,,TRUE,TRUE,,,,,,,BKN,8000,OVC,9000,,,,,VFR,,,,,,,,,,,,SPECI,372.0
KSIF 250535Z AUTO 00000KT 10SM CLR 05/04 A2993 RMK AO2 T00470040,KSIF,2015-04-25T05:35:00Z,36.43,-79.85,4.7,4.0,0,0,,10.0,29.929134,,,TRUE,TRUE,,,,,,,CLR,,,,,,,,VFR,,,,,,,,,,,,SPECI,211.0
KSEP 250535Z AUTO 27005KT 10SM CLR 18/15 A2977 RMK AO2 T01770152,KSEP,2015-04-25T05:35:00Z,32.22,-98.17,17.7,15.2,270,5,,10.0,29.769686,,,TRUE,TRUE,,,,,,,CLR,,,,,,,,VFR,,,,,,,,,,,,SPECI,402.0
KSAR 250535Z AUTO 14005KT 10SM BKN016 13/08 A2976 RMK AO2 T01250081,KSAR,2015-04-25T05:35:00Z,38.15,-89.7,12.5,8.1,140,5,,10.0,29.760826,,,TRUE,TRUE,,,,,,,BKN,1600,,,,,,,MVFR,,,,,,,,,,,,SPECI,164.0
KSAA 250535Z AUTO 10SM CLR 01/00 A2977 RMK AO2,KSAA,2015-04-25T05:35:00Z,41.45,-106.83,1.0,0.0,,,,10.0,29.769686,,,TRUE,TRUE,,,,,,,CLR,,,,,,,,VFR,,,,,,,,,,,,SPECI,2138.0
KEHO 250535Z AUTO 00000KT 10SM SCT090 13/05 A2993 RMK AO2 T01280045,KEHO,2015-04-25T05:35:00Z,35.25,-81.6,12.8,4.5,0,0,,10.0,29.929134,,,TRUE,TRUE,,,,,,,SCT,9000,,,,,,,VFR,,,,,,,,,,,,SPECI,258.0
KEDN 250535Z AUTO 00000KT 10SM CLR 18/16 A2987 RMK AO2,KEDN,2015-04-25T05:35:00Z,31.3,-85.9,18.0,16.0,0,0,,10.0,29.870079,,,TRUE,TRUE,,,,,,,CLR,,,,,,,,VFR,,,,,,,,,,,,SPECI,110.0
KEDE 250535Z AUTO 23006KT 10SM CLR 14/05 A2994 RMK AO2 T01410047,KEDE,2015-04-25T05:35:00Z,36.02,-76.57,14.1,4.7,230,6,,10.0,29.940945,,,TRUE,TRUE,,,,,,,CLR,,,,,,,,VFR,,,,,,,,,,,,SPECI,6.0
KEBG 250535Z AUTO 14013G19KT 10SM CLR 27/20 A2970 RMK AO2 LTG DSNT NE AND E T02660195,KEBG,2015-04-25T05:35:00Z,26.45,-98.13,26.6,19.5,140,13,19,10.0,29.698818,,,TRUE,TRUE,,,,,,,CLR,,,,,,,,VFR,,,,,,,,,,,,SPECI,24.0
KE11 250535Z AUTO 28012G19KT 10SM CLR 18/M03 A2986 RMK AO2 T01761030,KE11,2015-04-25T05:35:00Z,32.33,-102.53,17.6,-3.0,280,12,19,10.0,29.861221,,,TRUE,TRUE,,,,,,,CLR,,,,,,,,VFR,,,,,,,,,,,,SPECI,967.0
KDZJ 250535Z AUTO 00000KT 10SM -RA 13/M02 A2996 RMK AO2 T01311016,KDZJ,2015-04-25T05:35:00Z,34.85,-84.0,13.1,-1.6,0,0,,10.0,29.958662,,,TRUE,TRUE,,,,,,-RA,,,,,,,,,,,,,,,,,,,,,SPECI,582.0
KDVO 250535Z AUTO 17003KT 2SM -RA 12/11 A2996 RMK AO2,KDVO,2015-04-25T05:35:00Z,38.15,-122.55,12.0,11.0,170,3,,2.0,29.958662,,,TRUE,TRUE,,,,,,-RA,,,,,,,,,,,,,,,,,,,,,SPECI,1.0
KDVK 250535Z AUTO 00000KT 10SM BKN046 OVC050 11/05 A2988 RMK AO2,KDVK,2015-04-25T05:35:00Z,37.58,-84.77,11.0,5.0,0,0,,10.0,29.878937,,,TRUE,TRUE,,,,,,,BKN,4600,OVC,5000,,,,,VFR,,,,,,,,,,,,SPECI,312.0
KDUX 250535Z AUTO 26016KT 10SM CLR 14/M02 A2970 RMK AO2 T01361020,KDUX,2015-04-25T05:35:00Z,35.85,-102.02,13.6,-2.0,260,16,,10.0,29.698818,,,TRUE,TRUE,,,,,,,CLR,,,,,,,,VFR,,,,,,,,,,,,SPECI,1129.0
KDUC 250535Z AUTO 22007KT 5SM BR BKN004 BKN010 17/17 A2965 RMK AO2,KDUC,2015-04-25T05:35:00Z,34.47,-97.97,17.0,17.0,220,7,,5.0,29.648623,,,TRUE,TRUE,,,,,,BR,BKN,400,BKN,1000,,,,,LIFR,,,,,,,,,,,,SPECI,339.0
KDQH 250535Z AUTO 00000KT 10SM CLR 18/11 A2998 RMK AO2,KDQH,2015-04-25T05:35:00Z,31.48,-82.87,18.0,11.0,0,0,,10.0,29.97933,,,TRUE,TRUE,,,,,,,CLR,,,,,,,,VFR,,,,,,,,,,,,SPECI,78.0
KDPL 250535Z AUTO 00000KT 10SM CLR 08/06 A2997 RMK AO2 T00750055,KDPL,2015-04-25T05:35:00Z,35.0,-77.97,7.5,5.5,0,0,,10.0,29.970472,,,TRUE,TRUE,,,,,,,CLR,,,,,,,,VFR,,,,,,,,,,,,SPECI,42.0
KDNV 250535Z AUTO 10004KT 10SM OVC044 11/05 A2980 RMK AO2 T01060051,KDNV,2015-04-25T05:35:00Z,40.2,-87.6,10.6,5.1,100,4,,10.0,29.799213,,,TRUE,TRUE,,,,,,,OVC,4400,,,,,,,VFR,,,,,,,,,,,,SPECI,212.0
KDNS 250535Z AUTO 10014G20KT 5SM BR OVC005 10/10 A2958 RMK AO2,KDNS,2015-04-25T05:35:00Z,41.97,-95.37,10.0,10.0,100,14,20,5.0,29.58071,,,TRUE,TRUE,,,,,,BR,OVC,500,,,,,,,IFR,,,,,,,,,,,,SPECI,388.0
KDLL 250535Z AUTO 09009G15KT 10SM OVC038 03/01 A2991 RMK AO2 T00320009,KDLL,2015-04-25T05:35:00Z,43.52,-89.77,3.2,0.9,90,9,15,10.0,29.911417,,,TRUE,TRUE,,,,,,,OVC,3800,,,,,,,VFR,,,,,,,,,,,,SPECI,299.0
KDKB 250535Z AUTO 06013G20KT 10SM -DZ OVC050 04/02 A2987 RMK AO2 T00360019,KDKB,2015-04-25T05:35:00Z,41.93,-88.7,3.6,1.9,60,13,20,10.0,29.870079,,,TRUE,TRUE,,,,,,-DZ,OVC,5000,,,,,,,VFR,,,,,,,,,,,,SPECI,279.0
KCZT 250535Z AUTO 00000KT 10SM CLR 21/21 A2973 RMK AO2,KCZT,2015-04-25T05:35:00Z,28.52,-99.82,21.0,21.0,0,0,,10.0,29.731298,,,TRUE,TRUE,,,,,,,CLR,,,,,,,,VFR,,,,,,,,,,,,SPECI,183.0
KCZL 250535Z AUTO 00000KT 10SM OVC080 16/09 A2991 RMK AO2 T01580085,KCZL,2015-04-25T05:35:00Z,,,15.8,8.5,0,0,,10.0,29.911417,,,TRUE,TRUE,,,,,,,OVC,8000,,,,,,,VFR,,,,,,,,,,,,SPECI,
KCWF 250535Z AUTO 18009KT 7SM SCT010 OVC027 23/22 A2979 RMK AO2 T02400228,KCWF,2015-04-25T05:35:00Z,30.22,-93.15,24.0,22.8,180,9,,7.0,29.790354,,,TRUE,TRUE,,,,,,,SCT,1000,OVC,2700,,,,,MVFR,,,,,,,,,,,,SPECI,4.0
KCWC 250535Z AUTO 23003KT 10SM CLR 19/16 A2967 RMK AO2 T01940163,KCWC,2015-04-25T05:35:00Z,33.85,-98.48,19.4,16.3,230,3,,10.0,29.66929,,,TRUE,TRUE,,,,,,,CLR,,,,,,,,VFR,,,,,,,,,,,,SPECI,305.0
KCUL 250535Z AUTO 12007KT 10SM SCT021 BKN030 OVC090 13/05 A2980 RMK AO2 T01290050,KCUL,2015-04-25T05:35:00Z,38.08,-88.12,12.9,5.0,120,7,,10.0,29.799213,,,TRUE,TRUE,,,,,,,SCT,2100,BKN,3000,OVC,9000,,,MVFR,,,,,,,,,,,,SPECI,118.0
KCUH 250535Z AUTO 19012G15KT 10SM BKN010 15/15 A2956 RMK AO2,KCUH,2015-04-25T05:35:00Z,35.95,-96.77,15.0,15.0,190,12,15,10.0,29.56004,,,TRUE,TRUE,,,,,,,BKN,1000,,,,,,,MVFR,,,,,,,,,,,,SPECI,279.0
KCPK 250535Z AUTO 04003KT 10SM CLR 09/07 A2996 RMK AO2,KCPK,2015-04-25T05:35:00Z,36.67,-76.32,9.0,7.0,40,3,,10.0,29.958662,,,TRUE,TRUE,,,,,,,CLR,,,,,,,,VFR,,,,,,,,,,,,SPECI,6.0
KCMD 250535Z AUTO 10003KT 10SM SCT039 SCT049 BKN060 15/10 A2990 RMK AO2 T01490096,KCMD,2015-04-25T05:35:00Z,34.27,-86.85,14.9,9.6,100,3,,10.0,29.899607,,,TRUE,TRUE,,,,,,,SCT,3900,SCT,4900,BKN,6000,,,VFR,,,,,,,,,,,,SPECI,294.0
KCLW 250535Z AUTO 13006KT 10SM CLR 23/20 A2996 RMK AO2,KCLW,2015-04-25T05:35:00Z,27.98,-82.75,23.0,20.0,130,6,,10.0,29.958662,,,TRUE,TRUE,,,,,,,CLR,,,,,,,,VFR,,,,,,,,,,,,SPECI,22.0
KCLK 250535Z AUTO 21014G20KT 10SM SCT120 17/09 A2957 RMK AO2,KCLK,2015-04-25T05:35:00Z,35.53,-98.93,17.0,9.0,210,14,20,10.0,29.568897,,,TRUE,TRUE,,,,,,,SCT,12000,,,,,,,VFR,,,,,,,,,,,,SPECI,492.0
KCKF 250535Z AUTO 15008KT 10SM CLR 21/13 A2993 RMK AO2 T02110132,KCKF,2015-04-25T05:35:00Z,31.98,-83.77,21.1,13.2,150,8,,10.0,29.929134,,,TRUE,TRUE,,,,,,,CLR,,,,,,,,VFR,,,,,,,,,,,,SPECI,91.0
KCIR 250535Z AUTO 12003KT 10SM OVC010 14/12 A2977 RMK AO2 T01350120,KCIR,2015-04-25T05:35:00Z,37.07,-89.22,13.5,12.0,120,3,,10.0,29.769686,,,TRUE,TRUE,,,,,,,OVC,1000,,,,,,,MVFR,,,,,,,,,,,,SPECI,98.0
KW96 250535Z AUTO 00000KT 10SM CLR 04/02 A2996 RMK AO1 T00440018,KW96,2015-04-25T05:35:00Z,37.5,-77.12,4.4,1.8,0,0,,10.0,29.958662,,,TRUE,TRUE,,,,,,,CLR,,,,,,,,VFR,,,,,,,,,,,,SPECI,37.0
KW63 250535Z AUTO 00000KT 10SM CLR 05/03 A2992 RMK AO1,KW63,2015-04-25T05:35:00Z,36.6,-78.55,5.0,3.0,0,0,,10.0,29.920275,,,TRUE,TRUE,,,,,,,CLR,,,,,,,,VFR,,,,,,,,,,,,SPECI,129.0
KW43 250535Z AUTO 12007KT 10SM CLR 11/00 A2965 RMK AO2,KW43,2015-04-25T05:35:00Z,44.67,-104.57,11.0,0.0,120,7,,10.0,29.648623,,,TRUE,TRUE,,,,,,,CLR,,,,,,,,VFR,,,,,,,,,,,,SPECI,1300.0
KW13 250535Z AUTO 00000KT 10SM OVC095 06/M04 A2996 RMK AO1 T00611045,KW13,2015-04-25T05:35:00Z,38.08,-78.95,6.1,-4.5,0,0,,10.0,29.958662,,,TRUE,TRUE,,,,,,,OVC,9500,,,,,,,VFR,,,,,,,,,,,,SPECI,443.0
KVTI 250535Z AUTO 10013KT 7SM OVC048 07/05 A2973 RMK AO2 T00730052,KVTI,2015-04-25T05:35:00Z,42.22,-92.02,7.3,5.2,100,13,,7.0,29.731298,,,TRUE,TRUE,,,,,,,OVC,4800,,,,,,,VFR,,,,,,,,,,,,SPECI,255.0
KVBW 250535Z AUTO 14003KT 10SM BKN100 04/00 A2996 RMK AO2 T00381001,KVBW,2015-04-25T05:35:00Z,38.37,-78.97,3.8,-0.1,140,3,,10.0,29.958662,,,TRUE,TRUE,,,,,,,BKN,10000,,,,,,,VFR,,,,,,,,,,,,METAR,355.0
KTYQ 250535Z AUTO 17003KT 10SM OVC050 11/03 A2988 RMK AO2 T01140028,KTYQ,2015-04-25T05:35:00Z,40.03,-86.25,11.4,2.8,170,3,,10.0,29.878937,,,TRUE,TRUE,,,,,,,OVC,5000,,,,,,,VFR,,,,,,,,,,,,SPECI,281.0
KTVI 250535Z AUTO 15007KT 10SM CLR 20/16 A2993 RMK AO2,KTVI,2015-04-25T05:35:00Z,30.9,-83.88,20.0,16.0,150,7,,10.0,29.929134,,,TRUE,TRUE,,,,,,,CLR,,,,,,,,VFR,,,,,,,,,,,,SPECI,80.0
KTQH 250535Z AUTO 15008G15KT 10SM CLR 15/13 A2962 RMK AO2,KTQH,2015-04-25T05:35:00Z,35.93,-95.0,15.0,13.0,150,8,15,10.0,29.619095,,,TRUE,TRUE,,,,,,,CLR,,,,,,,,VFR,,,,,,,,,,,,SPECI,266.0
KEHY 250535Z AUTO 27009KT 10SM CLR 05/00 A2973 RMK AO2,KEHY,2015-04-25T05:35:00Z,41.73,-106.47,5.0,0.0,270,9,,10.0,29.731298,,,TRUE,TRUE,,,,,,,CLR,,,,,,,,VFR,,,,,,,,,,,,SPECI,2225.0
KGDJ 250535Z AUTO 22008KT 10SM SCT027 SCT039 BKN075 20/16 A2972 RMK AO2 T01950164,KGDJ,2015-04-25T05:35:00Z,32.45,-97.82,19.5,16.4,220,8,,10.0,29.719488,,,TRUE,TRUE,,,,,,,SCT,2700,SCT,3900,BKN,7500,,,VFR,,,,,,,,,,,,SPECI,237.0
KGAO 250535Z AUTO 16009G15KT 7SM BKN007 OVC018 26/25 A2981 RMK AO2 T02630245,KGAO,2015-04-25T05:35:00Z,29.45,-90.27,26.3,24.5,160,9,15,7.0,29.811024,,,TRUE,TRUE,,,,,,,BKN,700,OVC,1800,,,,,IFR,,,,,,,,,,,,SPECI,1.0
KFYJ 250535Z AUTO 00000KT 10SM CLR 03/01 A2998 RMK AO2 T00320008,KFYJ,2015-04-25T05:35:00Z,37.52,-76.77,3.2,0.8,0,0,,10.0,29.97933,,,TRUE,TRUE,,,,,,,CLR,,,,,,,,VFR,,,,,,,,,,,,SPECI,7.0
KFOA 250535Z AUTO 14006KT 10SM OVC023 13/06 A2980 RMK AO2 T01250058,KFOA,2015-04-25T05:35:00Z,38.67,-88.45,12.5,5.8,140,6,,10.0,29.799213,,,TRUE,TRUE,,,,,,,OVC,2300,,,,,,,MVFR,,,,,,,,,,,,SPECI,144.0
KF44 250535Z AUTO 14003KT 10SM CLR 17/17 A2972 RMK AO2,KF44,2015-04-25T05:35:00Z,32.17,-95.83,17.0,17.0,140,3,,10.0,29.719488,,,TRUE,TRUE,,,,,,,CLR,,,,,,,,VFR,,,,,,,,,,,,SPECI,135.0
KEZS 250535Z AUTO 10005KT 10SM OVC070 05/M04 A3000 RMK AO2 T00481038,KEZS,2015-04-25T05:35:00Z,44.78,-88.57,4.8,-3.8,100,5,,10.0,30.0,,,TRUE,TRUE,,,,,,,OVC,7000,,,,,,,VFR,,,,,,,,,,,,SPECI,248.0
KEZM 250535Z AUTO 16004KT 10SM CLR 19/13 A2997 RMK AO2 T01880133,KEZM,2015-04-25T05:35:00Z,32.22,-83.13,18.8,13.3,160,4,,10.0,29.970472,,,TRUE,TRUE,,,,,,,CLR,,,,,,,,VFR,,,,,,,,,,,,SPECI,93.0
KEYF 250535Z AUTO 00000KT 10SM CLR 12/07 A2997 RMK AO2 T01230069,KEYF,2015-04-25T05:35:00Z,34.6,-78.58,12.3,6.9,0,0,,10.0,29.970472,,,TRUE,TRUE,,,,,,,CLR,,,,,,,,VFR,,,,,,,,,,,,SPECI,41.0
KELK 250535Z AUTO 23012KT 10SM CLR 16/05 A2962 RMK AO2,KELK,2015-04-25T05:35:00Z,35.43,-99.4,16.0,5.0,230,12,,10.0,29.619095,,,TRUE,TRUE,,,,,,,CLR,,,,,,,,VFR,,,,,,,,,,,,SPECI,610.0
KVBS 250535Z AUTO VRB04KT 10SM 24/24 A2976 RMK A01,KVBS,2015-04-25T05:35:00Z,29.48,-93.63,24.0,24.0,0,4,,10.0,29.760826,,,TRUE,TRUE,,,,,,,,,,,,,,,,,,,,,,,,,,,SPECI,31.0
KVAF 250535Z AUTO 21018KT 5SM BR CLR 25/25 A2977 RMK A01,KVAF,2015-04-25T05:35:00Z,27.35,-94.63,25.0,25.0,210,18,,5.0,29.769686,,,TRUE,TRUE,,,,,,BR,CLR,,,,,,,,MVFR,,,,,,,,,,,,SPECI,46.0
KUSE 250535Z AUTO 04013KT 10SM FEW044 BKN060 OVC065 07/05 A2997 RMK AO2,KUSE,2015-04-25T05:35:00Z,41.62,-84.13,7.0,5.0,40,13,,10.0,29.970472,,,TRUE,TRUE,,,,,,,FEW,4400,BKN,6000,OVC,6500,,,VFR,,,,,,,,,,,,SPECI,238.0
KSQE 250535Z AUTO 17008G14KT 130V190 6SM BR SCT011 OVC018 26/25 A2984 RMK A01,KSQE,2015-04-25T05:35:00Z,28.07,-90.82,26.0,25.0,170,8,14,6.0,29.840551,,,TRUE,TRUE,,,,,,BR,SCT,1100,OVC,1800,,,,,MVFR,,,,,,,,,,,,SPECI,0.0
KSPR 250535Z AUTO 18019KT 3SM BR FEW012 OVC018 26/25 A2980 RMK A01,KSPR,2015-04-25T05:35:00Z,28.6,-91.2,26.0,25.0,180,19,,3.0,29.799213,,,TRUE,TRUE,,,,,,BR,FEW,1200,OVC,1800,,,,,MVFR,,,,,,,,,,,,SPECI,31.0
KSLR 250535Z AUTO 18004KT 10SM OVC003 18/18 A2975 RMK AO2 P0002 T01780178,KSLR,2015-04-25T05:35:00Z,33.17,-95.62,17.8,17.8,180,4,,10.0,29.749016,,,TRUE,TRUE,,,,,,,OVC,300,,,,,,,LIFR,,,,,,0.02,,,,,,SPECI,149.0
KSFY 250535Z AUTO 07018G24KT 7SM OVC050 06/04 A2979 RMK AO2 LTG DSNT S T00580037,KSFY,2015-04-25T05:35:00Z,42.05,-90.12,5.8,3.7,70,18,24,7.0,29.790354,,,TRUE,TRUE,,,,,,,OVC,5000,,,,,,,VFR,,,,,,,,,,,,SPECI,188.0
KSCF 250535Z AUTO 16015KT 3SM BR CLR 25/24 A2979 RMK A01,KSCF,2015-04-25T05:35:00Z,29.12,-91.87,25.0,24.0,160,15,,3.0,29.790354,,,TRUE,TRUE,,,,,,BR,CLR,,,,,,,,MVFR,,,,,,,,,,,,SPECI,8.0
KRTS 250535Z AUTO 00000KT 10SM BKN043 06/M03 A2986 RMK AO2,KRTS,2015-04-25T05:35:00Z,39.67,-119.88,6.0,-3.0,0,0,,10.0,29.861221,,,TRUE,TRUE,,,,,,,BKN,4300,,,,,,,VFR,,,,,,,,,,,,SPECI,1540.0
KRPJ 250535Z AUTO 07018G22KT 10SM OVC049 05/03 A2983 RMK AO2 T00450029,KRPJ,2015-04-25T05:35:00Z,41.88,-89.08,4.5,2.9,70,18,22,10.0,29.828741,,,TRUE,TRUE,,,,,,,OVC,4900,,,,,,,VFR,,,,,,,,,,,,SPECI,238.0
KRPD 250535Z AUTO 11008KT 10SM OVC040 07/00 A2989 RMK AO2 T00731005,KRPD,2015-04-25T05:35:00Z,45.42,-91.77,7.3,-0.5,110,8,,10.0,29.890747,,,TRUE,TRUE,,,,,,,OVC,4000,,,,,,,VFR,,,,,,,,,,,,SPECI,338.0
KRNV 250535Z AUTO 03004KT 7SM VCTSRA SCT038 BKN070 OVC085 17/17 A2979 RMK AO2 LTG DSNT ALQS T01690169,KRNV,2015-04-25T05:35:00Z,33.77,-90.75,16.9,16.9,30,4,,7.0,29.790354,,,TRUE,TRUE,,,,,,VCTSRA,SCT,3800,BKN,7000,OVC,8500,,,VFR,,,,,,,,,,,,SPECI,41.0
KRAS 250535Z AUTO 13007KT 4SM TSRA SCT034 BKN090 OVC110 24/24 A2980 RMK AO2 LTG DSNT ALQS P0006 T02400236,KRAS,2015-04-25T05:35:00Z,27.82,-97.08,24.0,23.6,130,7,,4.0,29.799213,,,TRUE,TRUE,,,,,,TSRA,SCT,3400,BKN,9000,OVC,11000,,,MVFR,,,,,,0.06,,,,,,SPECI,2.0
KPVF 250535Z AUTO 18010KT 6SM BKN031 OVC037 06/05 A2997 RMK AO1 P0002,KPVF,2015-04-25T05:35:00Z,38.72,-120.75,6.0,5.0,180,10,,6.0,29.970472,,,TRUE,TRUE,,,,,,,BKN,3100,OVC,3700,,,,,VFR,,,,,,0.02,,,,,,SPECI,789.0
KPUJ 250535Z AUTO 17003KT 10SM SCT090 BKN110 18/10 A2990 RMK AO2,KPUJ,2015-04-25T05:35:00Z,33.92,-84.93,18.0,10.0,170,3,,10.0,29.899607,,,TRUE,TRUE,,,,,,,SCT,9000,BKN,11000,,,,,VFR,,,,,,,,,,,,SPECI,393.0
KPTS 250535Z AUTO 18006KT 10SM CLR 16/14 A2954 RMK AO2 T01610141,KPTS,2015-04-25T05:35:00Z,37.45,-94.73,16.1,14.1,180,6,,10.0,29.53937,,,TRUE,TRUE,,,,,,,CLR,,,,,,,,VFR,,,,,,,,,,,,SPECI,290.0
KPRO 250535Z AUTO 10015G20KT 5SM BR OVC011 09/07 A2962 RMK AO2 T00870072,KPRO,2015-04-25T05:35:00Z,41.83,-94.17,8.7,7.2,100,15,20,5.0,29.619095,,,TRUE,TRUE,,,,,,BR,OVC,1100,,,,,,,MVFR,,,,,,,,,,,,SPECI,308.0
KPPQ 250535Z AUTO 13008KT 10SM SCT050 SCT080 SCT110 12/08 A2971 RMK AO2 T01220075,KPPQ,2015-04-25T05:35:00Z,39.63,-90.78,12.2,7.5,130,8,,10.0,29.71063,,,TRUE,TRUE,,,,,,,SCT,5000,SCT,8000,SCT,11000,,,VFR,,,,,,,,,,,,SPECI,216.0
KPMV 250535Z AUTO 06009KT 7SM BKN010 OVC020 13/11 A2950 RMK AO2 LTG DSNT SE THRU SW T01280111,KPMV,2015-04-25T05:35:00Z,40.95,-95.92,12.8,11.1,60,9,,7.0,29.500984,,,TRUE,TRUE,,,,,,,BKN,1000,OVC,2000,,,,,MVFR,,,,,,,,,,,,SPECI,367.0
KPEQ 250535Z AUTO 25008KT 10SM CLR 16/M03 A2988 RMK AO2 T01621035,KPEQ,2015-04-25T05:35:00Z,31.38,-103.52,16.2,-3.5,250,8,,10.0,29.878937,,,TRUE,TRUE,,,,,,,CLR,,,,,,,,VFR,,,,,,,,,,,,SPECI,797.0
KPDC 250535Z AUTO 09015G18KT 10SM OVC049 06/02 A2982 RMK AO2 T00620019,KPDC,2015-04-25T05:35:00Z,43.02,-91.12,6.2,1.9,90,15,18,10.0,29.819881,,,TRUE,TRUE,,,,,,,OVC,4900,,,,,,,VFR,,,,,,,,,,,,SPECI,201.0
KP08 250535Z AUTO 00000KT 10SM CLR 17/04 A2992 RMK AO2,KP08,2015-04-25T05:35:00Z,32.93,-111.43,17.0,4.0,0,0,,10.0,29.920275,,,TRUE,TRUE,,,,,,,CLR,,,,,,,,VFR,,,,,,,,,,,,SPECI,481.0
KOUN 250535Z AUTO 18015G21KT 10SM OVC006 16/16 A2961 RMK AO2,KOUN,2015-04-25T05:35:00Z,35.25,-97.47,16.0,16.0,180,15,21,10.0,29.610237,,,TRUE,TRUE,,,,,,,OVC,600,,,,,,,IFR,,,,,,,,,,,,SPECI,357.0
KOPN 250535Z AUTO 14004KT 10SM BKN120 19/13 A2993 RMK AO2,KOPN,2015-04-25T05:35:00Z,32.95,-84.27,19.0,13.0,140,4,,10.0,29.929134,,,TRUE,TRUE,,,,,,,BKN,12000,,,,,,,VFR,,,,,,,,,,,,SPECI,243.0
KOKZ 250535Z AUTO 16005KT 10SM OVC120 18/11 A2995 RMK AO2 T01750110,KOKZ,2015-04-25T05:35:00Z,32.97,-82.83,17.5,11.0,160,5,,10.0,29.949802,,,TRUE,TRUE,,,,,,,OVC,12000,,,,,,,VFR,,,,,,,,,,,,SPECI,134.0
KOJA 250535Z AUTO 22012G17KT 10SM SCT110 17/13 A2956 RMK AO2,KOJA,2015-04-25T05:35:00Z,35.55,-98.67,17.0,13.0,220,12,17,10.0,29.56004,,,TRUE,TRUE,,,,,,,SCT,11000,,,,,,,VFR,,,,,,,,,,,,SPECI,490.0
KO86 250535Z AUTO 27003KT 10SM BKN085 07/04 A2986 RMK AO1,KO86,2015-04-25T05:35:00Z,40.98,-122.7,7.0,4.0,270,3,,10.0,29.861221,,,TRUE,TRUE,,,,,,,BKN,8500,,,,,,,VFR,,,,,,,,,,,,SPECI,729.0
KO69 250535Z AUTO 10003KT 2SM OVC004 10/10 A2997 RMK AO1 P0009,KO69,2015-04-25T05:35:00Z,38.25,-122.6,10.0,10.0,100,3,,2.0,29.970472,,,TRUE,TRUE,,,,,,,OVC,400,,,,,,,LIFR,,,,,,0.09,,,,,,SPECI,28.0
KN38 250535Z AUTO 30005KT 10SM CLR M01/M07 A2994 RMK AO2,KN38,2015-04-25T05:35:00Z,41.73,-77.4,-1.0,-7.0,300,5,,10.0,29.940945,,,TRUE,TRUE,,,,,,,CLR,,,,,,,,VFR,,,,,,,,,,,,SPECI,577.0
KMZG 250535Z AUTO 29008KT 4SM BR 24/24 A2984 RMK A01,KMZG,2015-04-25T05:35:00Z,27.73,-96.18,24.0,24.0,290,8,,4.0,29.840551,,,TRUE,TRUE,,,,,,BR,,,,,,,,,,,,,,,,,,,,,SPECI,29.0
KMWO 250535Z AUTO 06004KT 10SM OVC070 13/03 A2991 RMK AO2 T01250028,KMWO,2015-04-25T05:35:00Z,39.53,-84.4,12.5,2.8,60,4,,10.0,29.911417,,,TRUE,TRUE,,,,,,,OVC,7000,,,,,,,VFR,,,,,,,,,,,,SPECI,198.0
KMWA 250535Z AUTO 17004KT 10SM OVC013 15/08 A2978 RMK AO2,KMWA,2015-04-25T05:35:00Z,37.77,-89.02,15.0,8.0,170,4,,10.0,29.778543,,,TRUE,TRUE,,,,,,,OVC,1300,,,,,,,MVFR,,,,,,,,,,,,SPECI,144.0
KMVH 250535Z AUTO 32010KT 10SM OVC034 06/05 A2967 RMK A01,KMVH,2015-04-25T05:35:00Z,46.83,-108.93,6.0,5.0,320,10,,10.0,29.66929,,,TRUE,TRUE,,,,,,,OVC,3400,,,,,,,VFR,,,,,,,,,,,,SPECI,1355.0
KMNZ 250535Z AUTO 22006KT 10SM CLR 18/16 A2975 RMK AO2 T01800162,KMNZ,2015-04-25T05:35:00Z,31.67,-98.15,18.0,16.2,220,6,,10.0,29.749016,,,TRUE,TRUE,,,,,,,CLR,,,,,,,,VFR,,,,,,,,,,,,SPECI,396.0
KMIS 250535Z AUTO 19011KT 5SM HZ OVC070 28/24 A2983 RMK A01,KMIS,2015-04-25T05:35:00Z,29.3,-88.85,28.0,24.0,190,11,,5.0,29.828741,,,TRUE,TRUE,,,,,,HZ,OVC,7000,,,,,,,MVFR,,,,,,,,,,,,SPECI,32.0
KMHV 250535Z AUTO 25021KT 10SM CLR 14/M02 A2993 RMK AO1,KMHV,2015-04-25T05:35:00Z,35.07,-118.15,14.0,-2.0,250,21,,10.0,29.929134,,,TRUE,TRUE,,,,,,,CLR,,,,,,,,VFR,,,,,,,,,,,,SPECI,849.0
KMEV 250535Z AUTO 25009KT 10SM OVC050 08/M01 A2989 RMK AO2,KMEV,2015-04-25T05:35:00Z,38.98,-119.75,8.0,-1.0,250,9,,10.0,29.890747,,,TRUE,TRUE,,,,,,,OVC,5000,,,,,,,VFR,,,,,,,,,,,,SPECI,1439.0
KMDQ 250535Z AUTO 00000KT 10SM -RA SCT023 SCT028 OVC043 12/10 A2991 RMK AO2 P0010,KMDQ,2015-04-25T05:35:00Z,34.87,-86.55,12.0,10.0,0,0,,10.0,29.911417,,,TRUE,TRUE,,,,,,-RA,SCT,2300,SCT,2800,OVC,4300,,,VFR,,,,,,0.1,,,,,,SPECI,230.0
KMDJ 250535Z AUTO 18020KT 7SM OVC022 27/25 A2986 RMK A01,KMDJ,2015-04-25T05:35:00Z,28.65,-89.8,27.0,25.0,180,20,,7.0,29.861221,,,TRUE,TRUE,,,,,,,OVC,2200,,,,,,,MVFR,,,,,,,,,,,,SPECI,31.0
KM30 250535Z AUTO 00000KT 10SM OVC015 14/11 A2978 RMK AO2 T01420109,KM30,2015-04-25T05:35:00Z,37.18,-88.75,14.2,10.9,0,0,,10.0,29.778543,,,TRUE,TRUE,,,,,,,OVC,1500,,,,,,,MVFR,,,,,,,,,,,,SPECI,117.0
KLZZ 250535Z AUTO 27003KT 10SM CLR 20/19 A2975 RMK AO2 T02000187,KLZZ,2015-04-25T05:35:00Z,31.1,-98.2,20.0,18.7,270,3,,10.0,29.749016,,,TRUE,TRUE,,,,,,,CLR,,,,,,,,VFR,,,,,,,,,,,,SPECI,371.0
KLUD 250535Z AUTO 15004KT 4SM BR SCT001 16/16 A2969 RMK AO2 T01550155,KLUD,2015-04-25T05:35:00Z,33.25,-97.58,15.5,15.5,150,4,,4.0,29.68996,,,TRUE,TRUE,,,,,,BR,SCT,100,,,,,,,MVFR,,,,,,,,,,,,SPECI,319.0
KLRO 250535Z AUTO 10SM CLR 12/10 A2998 RMK AO2,KLRO,2015-04-25T05:35:00Z,32.9,-79.78,12.0,10.0,,,,10.0,29.97933,,,TRUE,TRUE,,,,,,,CLR,,,,,,,,VFR,,,,,,,,,,,,SPECI,4.0
KLNP 250535Z AUTO 18003KT 10SM OVC060 12/M03 A2994 RMK AO2,KLNP,2015-04-25T05:35:00Z,36.97,-82.52,12.0,-3.0,180,3,,10.0,29.940945,,,TRUE,TRUE,,,,,,,OVC,6000,,,,,,,VFR,,,,,,,,,,,,SPECI,817.0
KLNN 250535Z AUTO 16003KT 10SM 04/M06 A2999 RMK AO1 T00351057,KLNN,2015-04-25T05:35:00Z,41.67,-81.37,3.5,-5.7,160,3,,10.0,29.991142,,,TRUE,TRUE,,,,,,,,,,,,,,,,,,,,,,,,,,,SPECI,191.0
KLHM 250535Z AUTO 15012KT 7SM OVC041 10/08 A2993 RMK AO1 P0011,KLHM,2015-04-25T05:35:00Z,38.92,-121.35,10.0,8.0,150,12,,7.0,29.929134,,,TRUE,TRUE,,,,,,,OVC,4100,,,,,,,VFR,,,,,,0.11,,,,,,SPECI,37.0
KLAL 250535Z AUTO 00000KT 10SM CLR 21/18 A2998 RMK AO2,KLAL,2015-04-25T05:35:00Z,27.97,-82.02,21.0,18.0,0,0,,10.0,29.97933,,,TRUE,TRUE,,,,,,,CLR,,,,,,,,VFR,,,,,,,,,,,,SPECI,43.0
KL38 250535Z AUTO 17003KT 7SM OVC008 A2978 RMK AO2,KL38,2015-04-25T05:35:00Z,30.17,-90.93,,,170,3,,7.0,29.778543,,,TRUE,TRUE,,,,,,,OVC,800,,,,,,,IFR,,,,,,,,,,,,SPECI,4.0
KJYL 250535Z AUTO 00000KT 10SM CLR 16/11 A2999 RMK AO2 T01600107,KJYL,2015-04-25T05:35:00Z,32.65,-81.6,16.0,10.7,0,0,,10.0,29.991142,,,TRUE,TRUE,,,,,,,CLR,,,,,,,,VFR,,,,,,,,,,,,SPECI,57.0
KJXI 250535Z AUTO 18006KT 10SM CLR 19/18 A2973 RMK AO2 LTG DSNT E P0005 T01860181,KJXI,2015-04-25T05:35:00Z,32.7,-94.95,18.6,18.1,180,6,,10.0,29.731298,,,TRUE,TRUE,,,,,,,CLR,,,,,,,,VFR,,,,,,0.05,,,,,,SPECI,127.0
KJTC 250535Z AUTO 18008KT 10SM BKN049 05/M03 A3006 RMK AO2,KJTC,2015-04-25T05:35:00Z,34.13,-109.32,5.0,-3.0,180,8,,10.0,30.059055,,,TRUE,TRUE,,,,,,,BKN,4900,,,,,,,VFR,,,,,,,,,,,,METAR,2150.0
KJAS 250535Z AUTO 13004KT 5SM BR SCT019 BKN033 OVC075 25/24 A2982 RMK AO2 T02500235,KJAS,2015-04-25T05:35:00Z,30.88,-94.03,25.0,23.5,130,4,,5.0,29.819881,,,TRUE,TRUE,,,,,,BR,SCT,1900,BKN,3300,OVC,7500,,,MVFR,,,,,,,,,,,,SPECI,65.0
KIXA 250535Z AUTO 00000KT 10SM CLR 06/04 A2993 RMK AO2,KIXA,2015-04-25T05:35:00Z,36.33,-77.63,6.0,4.0,0,0,,10.0,29.929134,,,TRUE,TRUE,,,,,,,CLR,,,,,,,,VFR,,,,,,,,,,,,SPECI,44.0
KIPN 250535Z AUTO 16021KT 10SM FEW013 SCT022 BKN040 26/24 A2986 RMK A01,KIPN,2015-04-25T05:35:00Z,28.08,-87.98,26.0,24.0,160,21,,10.0,29.861221,,,TRUE,TRUE,,,,,,,FEW,1300,SCT,2200,BKN,4000,,,VFR,,,,,,,,,,,,SPECI,41.0
KIKT 250535Z AUTO VRB05G20KT 7SM SCT014 SCT021 BKN040 27/24 A2984 RMK A01,KIKT,2015-04-25T05:35:00Z,28.52,-88.28,27.0,24.0,0,5,20,7.0,29.840551,,,TRUE,TRUE,,,,,,,SCT,1400,SCT,2100,BKN,4000,,,VFR,,,,,,,,,,,,SPECI,25.0
KIFP 250535Z AUTO 18007KT 10SM CLR 22/03 A2979 RMK AO2,KIFP,2015-04-25T05:35:00Z,35.15,-114.57,22.0,3.0,180,7,,10.0,29.790354,,,TRUE,TRUE,,,,,,,CLR,,,,,,,,VFR,,,,,,,,,,,,SPECI,212.0
KIER 250535Z AUTO 16003KT 7SM SCT036 SCT047 BKN090 23/23 A2980 RMK AO2 T02300226,KIER,2015-04-25T05:35:00Z,31.73,-93.1,23.0,22.6,160,3,,7.0,29.799213,,,TRUE,TRUE,,,,,,,SCT,3600,SCT,4700,BKN,9000,,,VFR,,,,,,,,,,,,SPECI,37.0
KXLL 250535Z AUTO 22003KT 10SM CLR 02/M05 A2996 RMK AO2,KXLL,2015-04-25T05:35:00Z,40.57,-75.48,2.0,-5.0,220,3,,10.0,29.958662,,,TRUE,TRUE,,,,,,,CLR,,,,,,,,VFR,,,,,,,,,,,,SPECI,122.0
KWDR 250535Z AUTO 21003KT 10SM -RA SCT110 18/11 A2996 RMK AO1,KWDR,2015-04-25T05:35:00Z,33.98,-83.67,18.0,11.0,210,3,,10.0,29.958662,,,TRUE,TRUE,,,,,,-RA,SCT,11000,,,,,,,VFR,,,,,,,,,,,,SPECI,287.0
KW75 250535Z AUTO 00000KT 10SM CLR 04/02 A2996 RMK AO1 T00410016,KW75,2015-04-25T05:35:00Z,37.6,-76.45,4.1,1.6,0,0,,10.0,29.958662,,,TRUE,TRUE,,,,,,,CLR,,,,,,,,VFR,,,,,,,,,,,,SPECI,9.0
KVJI 250535Z AUTO 00000KT 10SM BKN075 OVC085 11/02 A2994 RMK AO2 T01110015,KVJI,2015-04-25T05:35:00Z,36.67,-82.02,11.1,1.5,0,0,,10.0,29.940945,,,TRUE,TRUE,,,,,,,BKN,7500,OVC,8500,,,,,VFR,,,,,,,,,,,,SPECI,631.0
KTTA 250535Z AUTO 00000KT 10SM CLR 07/06 A2994 RMK AO2 T00700064,KTTA,2015-04-25T05:35:00Z,35.58,-79.1,7.0,6.4,0,0,,10.0,29.940945,,,TRUE,TRUE,,,,,,,CLR,,,,,,,,VFR,,,,,,,,,,,,SPECI,75.0
KTNB 250535Z AUTO 00000KT 10SM BKN075 07/M02 A2995 RMK AO2 T00651021,KTNB,2015-04-25T05:35:00Z,36.2,-81.65,6.5,-2.1,0,0,,10.0,29.949802,,,TRUE,TRUE,,,,,,,BKN,7500,,,,,,,VFR,,,,,,,,,,,,SPECI,911.0
KTKV 250535Z AUTO 10005KT 10SM BKN070 OVC080 04/M03 A2994 RMK AO2 T00371027,KTKV,2015-04-25T05:35:00Z,45.47,-89.82,3.7,-2.7,100,5,,10.0,29.940945,,,TRUE,TRUE,,,,,,,BKN,7000,OVC,8000,,,,,VFR,,,,,,,,,,,,SPECI,453.0
KTBR 250535Z AUTO 00000KT 10SM 17/11 A2998 RMK AO2 T01650107,KTBR,2015-04-25T05:35:00Z,32.48,-81.73,16.5,10.7,0,0,,10.0,29.97933,,,TRUE,TRUE,,,,,,,,,,,,,,,,,,,,,,,,,,,SPECI,57.0
KSWW 250535Z AUTO 23008KT 10SM CLR 17/03 A2981 RMK AO2 T01710031,KSWW,2015-04-25T05:35:00Z,32.47,-100.47,17.1,3.1,230,8,,10.0,29.811024,,,TRUE,TRUE,,,,,,,CLR,,,,,,,,VFR,,,,,,,,,,,,SPECI,727.0
KSUT 250535Z AUTO 24007KT 10SM CLR 17/09 A2998 RMK AO2 T01670092,KSUT,2015-04-25T05:35:00Z,33.93,-78.08,16.7,9.2,240,7,,10.0,29.97933,,,TRUE,TRUE,,,,,,,CLR,,,,,,,,VFR,,,,,,,,,,,,SPECI,8.0
KSUN 250535Z AUTO 14006KT 10SM OVC110 05/01 A2973 RMK AO2,KSUN,2015-04-25T05:35:00Z,43.5,-114.28,5.0,1.0,140,6,,10.0,29.731298,,,TRUE,TRUE,,,,,,,OVC,11000,,,,,,,VFR,,,,,,,,,,,,SPECI,1620.0
KBGE 250535Z AUTO 00000KT 10SM CLR 20/17 A2989 RMK AO2,KBGE,2015-04-25T05:35:00Z,30.97,-84.63,20.0,17.0,0,0,,10.0,29.890747,,,TRUE,TRUE,,,,,,,CLR,,,,,,,,VFR,,,,,,,,,,,,SPECI,43.0
KAZE 250535Z AUTO 15006KT 1 1/2SM HZ BKN110 19/12 A2994 RMK AO2 VIS 1/2V5 T01870118,KAZE,2015-04-25T05:35:00Z,31.88,-82.65,18.7,11.8,150,6,,1.5,29.940945,,,TRUE,TRUE,,,,,,HZ,BKN,11000,,,,,,,IFR,,,,,,,,,,,,SPECI,78.0
KAXH 250535Z AUTO 17005KT 5SM BR SCT016 SCT033 24/24 A2980 RMK AO2 T02430240,KAXH,2015-04-25T05:35:00Z,29.52,-95.48,24.3,24.0,170,5,,5.0,29.799213,,,TRUE,TRUE,,,,,,BR,SCT,1600,SCT,3300,,,,,MVFR,,,,,,,,,,,,SPECI,21.0
KAXA 250535Z AUTO 10011G21KT 10SM OVC023 07/06 A2969 RMK AO2,KAXA,2015-04-25T05:35:00Z,43.07,-94.27,7.0,6.0,100,11,21,10.0,29.68996,,,TRUE,TRUE,,,,,,,OVC,2300,,,,,,,MVFR,,,,,,,,,,,,SPECI,372.0
KAWG 250535Z AUTO 11013KT 10SM OVC045 10/08 A2968 RMK AO2,KAWG,2015-04-25T05:35:00Z,41.27,-91.67,10.0,8.0,110,13,,10.0,29.681103,,,TRUE,TRUE,,,,,,,OVC,4500,,,,,,,VFR,,,,,,,,,,,,SPECI,230.0
KAUH 250535Z AUTO 04009KT 2SM +TSRA SCT006 BKN011 OVC017 13/13 A2950 RMK AO2 LTG DSNT ALQS P0060 T01300130,KAUH,2015-04-25T05:35:00Z,40.88,-98.0,13.0,13.0,40,9,,2.0,29.500984,,,TRUE,TRUE,,,,,,+TSRA,SCT,600,BKN,1100,OVC,1700,,,IFR,,,,,,0.6,,,,,,SPECI,550.0
KATW 250535Z AUTO 10006KT 10SM BKN050 OVC055 03/00 A2998 RMK AO2,KATW,2015-04-25T05:35:00Z,44.27,-88.52,3.0,0.0,100,6,,10.0,29.97933,,,TRUE,TRUE,,,,,,,BKN,5000,OVC,5500,,,,,VFR,,,,,,,,,,,,SPECI,280.0
KASL 250535Z AUTO 19004KT 10SM SCT120 20/19 A2976 RMK AO1 P0001 T02020187,KASL,2015-04-25T05:35:00Z,32.52,-94.3,20.2,18.7,190,4,,10.0,29.760826,,,TRUE,TRUE,,,,,,,SCT,12000,,,,,,,VFR,,,,,,0.01,,,,,,SPECI,109.0
KARM 250535Z AUTO 14007KT 4SM BR SCT006 SCT034 SCT050 24/23 A2978 RMK AO2 LTG DSNT SW P0001 T02380231,KARM,2015-04-25T05:35:00Z,29.25,-96.15,23.8,23.1,140,7,,4.0,29.778543,,,TRUE,TRUE,,,,,,BR,SCT,600,SCT,3400,SCT,5000,,,MVFR,,,,,,0.01,,,,,,SPECI,31.0
KALX 250535Z AUTO 00000KT 10SM CLR 19/13 A2988 RMK AO2 T01920125,KALX,2015-04-25T05:35:00Z,32.92,-85.97,19.2,12.5,0,0,,10.0,29.878937,,,TRUE,TRUE,,,,,,,CLR,,,,,,,,VFR,,,,,,,,,,,,SPECI,209.0
KAJR 250535Z AUTO 00000KT 10SM OVC100 15/09 A2995 RMK AO2 T01460094,KAJR,2015-04-25T05:35:00Z,,,14.6,9.4,0,0,,10.0,29.949802,,,TRUE,TRUE,,,,,,,OVC,10000,,,,,,,VFR,,,,,,,,,,,,SPECI,
KAIO 250535Z AUTO 07010KT 2SM -DZ OVC004 11/11 A2957 RMK AO2,KAIO,2015-04-25T05:35:00Z,41.38,-95.03,11.0,11.0,70,10,,2.0,29.568897,,,TRUE,TRUE,,,,,,-DZ,OVC,400,,,,,,,LIFR,,,,,,,,,,,,SPECI,360.0
KAHQ 250535Z AUTO 06009KT 7SM OVC011 14/11 A2952 RMK AO2 T01390110,KAHQ,2015-04-25T05:35:00Z,41.23,-96.6,13.9,11.0,60,9,,7.0,29.518702,,,TRUE,TRUE,,,,,,,OVC,1100,,,,,,,MVFR,,,,,,,,,,,,SPECI,374.0
KAFP 250535Z AUTO 20003KT 10SM CLR 12/05 A2995 RMK AO2 T01220045,KAFP,2015-04-25T05:35:00Z,35.02,-80.08,12.2,4.5,200,3,,10.0,29.949802,,,TRUE,TRUE,,,,,,,CLR,,,,,,,,VFR,,,,,,,,,,,,SPECI,92.0
KAFO 250535Z AUTO 00000KT 10SM RA SCT007 BKN016 OVC025 03/02 A2973 RMK AO2,KAFO,2015-04-25T05:35:00Z,42.72,-110.95,3.0,2.0,0,0,,10.0,29.731298,,,TRUE,TRUE,,,,,,RA,SCT,700,BKN,1600,OVC,2500,,,MVFR,,,,,,,,,,,,SPECI,1897.0
KAFK 250535Z AUTO 09009KT 7SM -TSRA OVC016 13/13 A2948 RMK AO2 LTG DSNT ALQS P0014 T01330126,KAFK,2015-04-25T05:35:00Z,40.6,-95.85,13.3,12.6,90,9,,7.0,29.480314,,,TRUE,TRUE,,,,,,-TSRA,OVC,1600,,,,,,,MVFR,,,,,,0.14,,,,,,SPECI,354.0
KADU 250535Z AUTO 09010KT 2SM -RA OVC004 10/08 A2960 RMK AO2,KADU,2015-04-25T05:35:00Z,41.7,-94.92,10.0,8.0,90,10,,2.0,29.601377,,,TRUE,TRUE,,,,,,-RA,OVC,400,,,,,,,LIFR,,,,,,,,,,,,SPECI,392.0
KADS 250535Z AUTO 17004KT 10SM CLR A2971 RMK AO2,KADS,2015-04-25T05:35:00Z,32.97,-96.82,,,170,4,,10.0,29.71063,,,TRUE,TRUE,,,,,,,CLR,,,,,,,,VFR,,,,,,,,,,,,SPECI,196.0
KADM 250535Z AUTO 17006KT 10SM OVC005 17/17 A2967 RMK AO2 T01700170,KADM,2015-04-25T05:35:00Z,34.28,-97.02,17.0,17.0,170,6,,10.0,29.66929,,,TRUE,TRUE,,,,,,,OVC,500,,,,,,,IFR,,,,,,,,,,,,SPECI,232.0
KADH 250535Z AUTO 17011KT 7SM OVC002 16/16 A2965 RMK AO2,KADH,2015-04-25T05:35:00Z,34.8,-96.67,16.0,16.0,170,11,,7.0,29.648623,,,TRUE,TRUE,,,,,,,OVC,200,,,,,,,LIFR,,,,,,,,,,,,SPECI,308.0
K9A5 250535Z AUTO 00000KT 10SM SCT010 SCT019 SCT039 16/08 A2992 RMK AO2 T01550080,K9A5,2015-04-25T05:35:00Z,34.68,-85.28,15.5,8.0,0,0,,10.0,29.920275,,,TRUE,TRUE,,,,,,,SCT,1000,SCT,1900,SCT,3900,,,VFR,,,,,,,,,,,,SPECI,237.0
K6B0 250535Z AUTO 36005KT 10SM SCT042 BKN050 OVC120 02/M05 A2982 RMK AO2 T00151051,K6B0,2015-04-25T05:35:00Z,43.98,-73.1,1.5,-5.1,360,5,,10.0,29.819881,,,TRUE,TRUE,,,,,,,SCT,4200,BKN,5000,OVC,12000,,,VFR,,,,,,,,,,,,SPECI,149.0
K5C1 250535Z AUTO 25003KT 4SM CLR 22/21 A2979 RMK AO1,K5C1,2015-04-25T05:35:00Z,29.72,-98.7,22.0,21.0,250,3,,4.0,29.790354,,,TRUE,TRUE,,,,,,,CLR,,,,,,,,MVFR,,,,,,,,,,,,SPECI,423.0
K54J 250535Z AUTO 00000KT 10SM SCT034 19/17 A2989 RMK AO2 T01850174,K54J,2015-04-25T05:35:00Z,30.73,-86.15,18.5,17.4,0,0,,10.0,29.890747,,,TRUE,TRUE,,,,,,,SCT,3400,,,,,,,VFR,,,,,,,,,,,,SPECI,88.0
K40J 250535Z AUTO 10007KT 10SM CLR 20/16 A2994 RMK AO2 T02000157,K40J,2015-04-25T05:35:00Z,30.07,-83.57,20.0,15.7,100,7,,10.0,29.940945,,,TRUE,TRUE,,,,,,,CLR,,,,,,,,VFR,,,,,,,,,,,,SPECI,13.0
K3R7 250535Z AUTO 23005KT 7SM OVC010 25/24 A2979 RMK AO2 T02450235,K3R7,2015-04-25T05:35:00Z,30.25,-92.67,24.5,23.5,230,5,,7.0,29.790354,,,TRUE,TRUE,,,,,,,OVC,1000,,,,,,,MVFR,,,,,,,,,,,,SPECI,7.0
K3LF 250535Z AUTO 15010KT 10SM BKN080 OVC100 12/06 A2974 RMK AO2 LTG DSNT N T01200055,K3LF,2015-04-25T05:35:00Z,39.17,-89.67,12.0,5.5,150,10,,10.0,29.740158,,,TRUE,TRUE,,,,,,,BKN,8000,OVC,10000,,,,,VFR,,,,,,,,,,,,SPECI,210.0
K2I0 250535Z AUTO 00000KT 10SM BKN030 14/07 A2983 RMK AO2 T01390072,K2I0,2015-04-25T05:35:00Z,37.35,-87.4,13.9,7.2,0,0,,10.0,29.828741,,,TRUE,TRUE,,,,,,,BKN,3000,,,,,,,MVFR,,,,,,,,,,,,SPECI,134.0
K2G9 250535Z AUTO 35003KT 10SM CLR 01/M09 A2995 RMK AO2,K2G9,2015-04-25T05:35:00Z,40.03,-79.02,1.0,-9.0,350,3,,10.0,29.949802,,,TRUE,TRUE,,,,,,,CLR,,,,,,,,VFR,,,,,,,,,,,,METAR,693.0
K1L0 250535Z AUTO 17010KT 7SM OVC007 A2977 RMK AO2,K1L0,2015-04-25T05:35:00Z,30.08,-90.58,,,170,10,,7.0,29.769686,,,TRUE,TRUE,,,,,,,OVC,700,,,,,,,IFR,,,,,,,,,,,,SPECI,2.0
K1H2 250535Z AUTO 11006KT 10SM -RA OVC024 12/05 A2980 RMK AO2 T01200046,K1H2,2015-04-25T05:35:00Z,39.07,-88.53,12.0,4.6,110,6,,10.0,29.799213,,,TRUE,TRUE,,,,,,-RA,OVC,2400,,,,,,,MVFR,,,,,,,,,,,,SPECI,179.0
K1A6 250535Z AUTO 00000KT 10SM BKN060 OVC070 13/06 A2992 RMK AO2 T01260058,K1A6,2015-04-25T05:35:00Z,36.62,-83.73,12.6,5.8,0,0,,10.0,29.920275,,,TRUE,TRUE,,,,,,,BKN,6000,OVC,7000,,,,,VFR,,,,,,,,,,,,SPECI,352.0
K1A5 250535Z AUTO 00000KT 10SM -DZ 11/09 A2996 RMK AO2 T01120090,K1A5,2015-04-25T05:35:00Z,35.22,-83.42,11.2,9.0,0,0,,10.0,29.958662,,,TRUE,TRUE,,,,,,-DZ,,,,,,,,,,,,,,,,,,,,,SPECI,616.0
K0VG 250535Z AUTO 00000KT 10SM FEW060 BKN070 OVC100 12/06 A2993 RMK AO2,K0VG,2015-04-25T05:35:00Z,36.65,-83.22,12.0,6.0,0,0,,10.0,29.929134,,,TRUE,TRUE,,,,,,,FEW,6000,BKN,7000,OVC,10000,,,VFR,,,,,,,,,,,,SPECI,430.0
K0V4 250535Z AUTO 00000KT 10SM BKN110 06/02 A2994 RMK AO1 T00630015,K0V4,2015-04-25T05:35:00Z,37.15,-79.02,6.3,1.5,0,0,,10.0,29.940945,,,TRUE,TRUE,,,,,,,BKN,11000,,,,,,,VFR,,,,,,,,,,,,SPECI,182.0
K0E0 250535Z AUTO 00000KT 10SM CLR 05/M02 A2998 RMK AO2 T00501023,K0E0,2015-04-25T05:35:00Z,34.98,-106.0,5.0,-2.3,0,0,,10.0,29.97933,,,TRUE,TRUE,,,,,,,CLR,,,,,,,,VFR,,,,,,,,,,,,SPECI,1890.0
KFET 250535Z AUTO 08010G14KT 5SM BR OVC011 14/12 A2953 RMK AO2 LTG DSNT SE T01400115,KFET,2015-04-25T05:35:00Z,41.45,-96.52,14.0,11.5,80,10,14,5.0,29.530512,,,TRUE,TRUE,,,,,,BR,OVC,1100,,,,,,,MVFR,,,,,,,,,,,,SPECI,367.0
KF70 250535Z AUTO 00000KT 10SM SCT012 OVC038 12/10 A3003 RMK AO1,KF70,2015-04-25T05:35:00Z,33.57,-117.13,12.0,10.0,0,0,,10.0,30.029528,,,TRUE,TRUE,,,,,,,SCT,1200,OVC,3800,,,,,VFR,,,,,,,,,,,,SPECI,412.0
KF05 250535Z AUTO 23008KT 10SM CLR 16/09 A2966 RMK AO1 T01600085,KF05,2015-04-25T05:35:00Z,34.23,-99.28,16.0,8.5,230,8,,10.0,29.660433,,,TRUE,TRUE,,,,,,,CLR,,,,,,,,VFR,,,,,,,,,,,,SPECI,386.0
KETC 250535Z AUTO 00000KT 10SM CLR 08/07 A2995 RMK AO2 T00750066,KETC,2015-04-25T05:35:00Z,35.93,-77.55,7.5,6.6,0,0,,10.0,29.949802,,,TRUE,TRUE,,,,,,,CLR,,,,,,,,VFR,,,,,,,,,,,,SPECI,17.0
KERV 250535Z AUTO 00000KT 2SM BR OVC007 22/21 A2981 RMK AO2 T02200212,KERV,2015-04-25T05:35:00Z,29.98,-99.08,22.0,21.2,0,0,,2.0,29.811024,,,TRUE,TRUE,,,,,,BR,OVC,700,,,,,,,IFR,,,,,,,,,,,,SPECI,510.0
KEOK 250535Z AUTO 13009G14KT 10SM BKN032 OVC039 14/07 A2967 RMK AO2,KEOK,2015-04-25T05:35:00Z,40.47,-91.42,14.0,7.0,130,9,14,10.0,29.66929,,,TRUE,TRUE,,,,,,,BKN,3200,OVC,3900,,,,,VFR,,,,,,,,,,,,SPECI,205.0
KEFK 250535Z AUTO 28005KT 10SM OVC023 M01/M05 A2977 RMK AO2 T10081051,KEFK,2015-04-25T05:35:00Z,44.88,-72.23,-0.8,-5.1,280,5,,10.0,29.769686,,,TRUE,TRUE,,,,,,,OVC,2300,,,,,,,MVFR,,,,,,,,,,,,SPECI,284.0
KE38 250535Z AUTO 24007KT 10SM CLR 10/01 A3003 RMK AO2 T00950008,KE38,2015-04-25T05:35:00Z,30.38,-103.68,9.5,0.8,240,7,,10.0,30.029528,,,TRUE,TRUE,,,,,,,CLR,,,,,,,,VFR,,,,,,,,,,,,SPECI,1376.0
KDUB 250535Z AUTO 33009KT 10SM SCT048 SCT060 SCT080 02/00 A2969 RMK AO2,KDUB,2015-04-25T05:35:00Z,43.55,-109.68,2.0,0.0,330,9,,10.0,29.68996,,,TRUE,TRUE,,,,,,,SCT,4800,SCT,6000,SCT,8000,,,VFR,,,,,,,,,,,,SPECI,2224.0
KDEH 250535Z AUTO 10015G22KT 10SM OVC038 05/04 A2978 RMK AO2,KDEH,2015-04-25T05:35:00Z,43.27,-91.72,5.0,4.0,100,15,22,10.0,29.778543,,,TRUE,TRUE,,,,,,,OVC,3800,,,,,,,VFR,,,,,,,,,,,,SPECI,353.0
KDCY 250535Z AUTO 12004KT 10SM BKN034 BKN044 OVC075 12/09 A2982 RMK AO2 T01150086,KDCY,2015-04-25T05:35:00Z,38.7,-87.13,11.5,8.6,120,4,,10.0,29.819881,,,TRUE,TRUE,,,,,,,BKN,3400,BKN,4400,OVC,7500,,,VFR,,,,,,,,,,,,SPECI,144.0
KDBN 250535Z AUTO 15005KT 10SM SCT120 21/15 A2996 RMK AO2,KDBN,2015-04-25T05:35:00Z,32.57,-82.98,21.0,15.0,150,5,,10.0,29.958662,,,TRUE,TRUE,,,,,,,SCT,12000,,,,,,,VFR,,,,,,,,,,,,SPECI,94.0
KCXU 250535Z AUTO 09005KT 10SM CLR 19/17 A2991 RMK AO2 T01920172,KCXU,2015-04-25T05:35:00Z,,,19.2,17.2,90,5,,10.0,29.911417,,,TRUE,TRUE,,,,,,,CLR,,,,,,,,VFR,,,,,,,,,,,,SPECI,
KCVC 250535Z AUTO 00000KT 10SM OVC100 19/12 A2991 RMK AO2,KCVC,2015-04-25T05:35:00Z,33.63,-83.85,19.0,12.0,0,0,,10.0,29.911417,,,TRUE,TRUE,,,,,,,OVC,10000,,,,,,,VFR,,,,,,,,,,,,SPECI,247.0
KCTZ 250535Z AUTO 00000KT 10SM CLR 10/06 A2996 RMK AO2 T01000064,KCTZ,2015-04-25T05:35:00Z,34.98,-78.37,10.0,6.4,0,0,,10.0,29.958662,,,TRUE,TRUE,,,,,,,CLR,,,,,,,,VFR,,,,,,,,,,,,SPECI,45.0
KCSQ 250535Z AUTO 10011KT 10SM OVC023 13/13 A2958 RMK AO2,KCSQ,2015-04-25T05:35:00Z,41.02,-94.37,13.0,13.0,100,11,,10.0,29.58071,,,TRUE,TRUE,,,,,,,OVC,2300,,,,,,,MVFR,,,,,,,,,,,,SPECI,394.0
KCPT 250535Z AUTO 20004KT 10SM CLR 18/18 A2972 RMK AO2,KCPT,2015-04-25T05:35:00Z,32.35,-97.43,18.0,18.0,200,4,,10.0,29.719488,,,TRUE,TRUE,,,,,,,CLR,,,,,,,,VFR,,,,,,,,,,,,SPECI,260.0
KCPC 250535Z AUTO 20003KT 10SM SCT110 13/07 A2997 RMK AO2 T01300067,KCPC,2015-04-25T05:35:00Z,34.28,-78.72,13.0,6.7,200,3,,10.0,29.970472,,,TRUE,TRUE,,,,,,,SCT,11000,,,,,,,VFR,,,,,,,,,,,,SPECI,29.0
KCOM 250535Z AUTO 22004KT 10SM CLR 17/16 A2978 RMK AO2 T01700157,KCOM,2015-04-25T05:35:00Z,31.83,-99.4,17.0,15.7,220,4,,10.0,29.778543,,,TRUE,TRUE,,,,,,,CLR,,,,,,,,VFR,,,,,,,,,,,,SPECI,517.0
KCNC 250535Z AUTO 09007KT OVC027 11/10 A2962 RMK AO2,KCNC,2015-04-25T05:35:00Z,41.02,-93.37,11.0,10.0,90,7,,,29.619095,,,TRUE,TRUE,,,,,,,OVC,2700,,,,,,,,,,,,,,,,,,,SPECI,320.0
KCIN 250535Z AUTO 09012KT 3SM BR OVC004 09/09 A2962 RMK AO2,KCIN,2015-04-25T05:35:00Z,42.03,-94.77,9.0,9.0,90,12,,3.0,29.619095,,,TRUE,TRUE,,,,,,BR,OVC,400,,,,,,,LIFR,,,,,,,,,,,,SPECI,375.0
KCHK 250535Z AUTO 20011G16KT 10SM CLR 16/16 A2960 RMK AO2,KCHK,2015-04-25T05:35:00Z,35.1,-97.97,16.0,16.0,200,11,16,10.0,29.601377,,,TRUE,TRUE,,,,,,,CLR,,,,,,,,VFR,,,,,,,,,,,,SPECI,351.0
KCFD 250535Z AUTO 04004KT 10SM SCT012 SCT026 24/23 A2974 RMK AO2 T02350228,KCFD,2015-04-25T05:35:00Z,30.72,-96.33,23.5,22.8,40,4,,10.0,29.740158,,,TRUE,TRUE,,,,,,,SCT,1200,SCT,2600,,,,,VFR,,,,,,,,,,,,SPECI,112.0
KCBF 250535Z AUTO 08014KT 6SM BR BKN008 OVC012 13/13 A2953 RMK AO2,KCBF,2015-04-25T05:35:00Z,41.27,-95.77,13.0,13.0,80,14,,6.0,29.530512,,,TRUE,TRUE,,,,,,BR,BKN,800,OVC,1200,,,,,IFR,,,,,,,,,,,,SPECI,382.0
KCAV 250535Z AUTO 10017KT 10SM OVC022 07/07 A2967 RMK AO2,KCAV,2015-04-25T05:35:00Z,42.75,-93.77,7.0,7.0,100,17,,10.0,29.66929,,,TRUE,TRUE,,,,,,,OVC,2200,,,,,,,MVFR,,,,,,,,,,,,SPECI,354.0
KC35 250535Z AUTO 09007KT 10SM OVC042 04/01 A2990 RMK AO2 T00360010,KC35,2015-04-25T05:35:00Z,43.53,-89.98,3.6,1.0,90,7,,10.0,29.899607,,,TRUE,TRUE,,,,,,,OVC,4200,,,,,,,VFR,,,,,,,,,,,,SPECI,276.0
KBYY 250535Z AUTO 23003KT 5SM BR BKN015 BKN031 BKN043 25/25 A2980 RMK AO2 T02480247,KBYY,2015-04-25T05:35:00Z,28.97,-95.87,24.8,24.7,230,3,,5.0,29.799213,,,TRUE,TRUE,,,,,,BR,BKN,1500,BKN,3100,BKN,4300,,,MVFR,,,,,,,,,,,,SPECI,14.0
KBVS 250535Z AUTO 00000KT 10SM OVC034 06/05 A2988 RMK A01,KBVS,2015-04-25T05:35:00Z,48.47,-122.42,6.0,5.0,0,0,,10.0,29.878937,,,TRUE,TRUE,,,,,,,OVC,3400,,,,,,,VFR,,,,,,,,,,,,SPECI,43.0
KBVN 250535Z AUTO 12007KT 7SM OVC014 15/12 A2951 RMK AO2 LTG DSNT N T01450115,KBVN,2015-04-25T05:35:00Z,41.73,-98.05,14.5,11.5,120,7,,7.0,29.509842,,,TRUE,TRUE,,,,,,,OVC,1400,,,,,,,MVFR,,,,,,,,,,,,SPECI,551.0
KBQK 250535Z AUTO 00000KT 10SM CLR 18/15 A2999 RMK AO1,KBQK,2015-04-25T05:35:00Z,31.25,-81.47,18.0,15.0,0,0,,10.0,29.991142,,,TRUE,TRUE,,,,,,,CLR,,,,,,,,VFR,,,,,,,,,,,,SPECI,8.0
KBNW 250535Z AUTO 10016G21KT 5SM BR OVC018 08/08 A2963 RMK AO2,KBNW,2015-04-25T05:35:00Z,42.03,-93.83,8.0,8.0,100,16,21,5.0,29.630905,,,TRUE,TRUE,,,,,,BR,OVC,1800,,,,,,,MVFR,,,,,,,,,,,,SPECI,354.0
KBMT 250535Z AUTO 25006KT 7SM BKN008 BKN013 OVC023 24/23 A2982 RMK AO2 T02380231,KBMT,2015-04-25T05:35:00Z,30.07,-94.22,23.8,23.1,250,6,,7.0,29.819881,,,TRUE,TRUE,,,,,,,BKN,800,BKN,1300,OVC,2300,,,IFR,,,,,,,,,,,,SPECI,10.0
KBKT 250535Z AUTO 05003KT 10SM SCT110 07/00 A2994 RMK AO1 T00710000,KBKT,2015-04-25T05:35:00Z,37.07,-77.95,7.1,0.0,50,3,,10.0,29.940945,,,TRUE,TRUE,,,,,,,SCT,11000,,,,,,,VFR,,,,,,,,,,,,SPECI,134.0
KBIE 250535Z AUTO 03006G17KT 10SM -RA SCT017 SCT029 OVC080 14/12 A2940 RMK AO2 LTG DSNT N THRU E P0010 T01360115,KBIE,2015-04-25T05:35:00Z,40.28,-96.75,13.6,11.5,30,6,17,10.0,29.40059,,,TRUE,TRUE,,,,,,-RA,SCT,1700,SCT,2900,OVC,8000,,,VFR,,,,,,0.1,,,,,,SPECI,403.0
KHZL 250535Z AUTO 29010G16KT 10SM CLR 01/M07 A2992 RMK AO2,KHZL,2015-04-25T05:35:00Z,40.98,-76.0,1.0,-7.0,290,10,16,10.0,29.920275,,,TRUE,TRUE,,,,,,,CLR,,,,,,,,VFR,,,,,,,,,,,,SPECI,489.0
KHRJ 250535Z AUTO 17005KT 10SM CLR 12/06 A2995 RMK AO2 T01160064,KHRJ,2015-04-25T05:35:00Z,35.38,-78.73,11.6,6.4,170,5,,10.0,29.949802,,,TRUE,TRUE,,,,,,,CLR,,,,,,,,VFR,,,,,,,,,,,,SPECI,60.0
KHQI 250535Z AUTO 15011G18KT 120V210 3SM BR FEW008 FEW042 25/25 A2978 RMK A01,KHQI,2015-04-25T05:35:00Z,27.93,-93.67,25.0,25.0,150,11,18,3.0,29.778543,,,TRUE,TRUE,,,,,,BR,FEW,800,FEW,4200,,,,,MVFR,,,,,,,,,,,,SPECI,26.0
KHOE 250535Z AUTO 12003KT 10SM CLR 18/13 A2997 RMK AO2,KHOE,2015-04-25T05:35:00Z,31.05,-82.78,18.0,13.0,120,3,,10.0,29.970472,,,TRUE,TRUE,,,,,,,CLR,,,,,,,,VFR,,,,,,,,,,,,SPECI,57.0
KHNZ 250535Z AUTO 00000KT 10SM CLR 07/04 A2994 RMK AO2 T00660035,KHNZ,2015-04-25T05:35:00Z,36.37,-78.53,6.6,3.5,0,0,,10.0,29.940945,,,TRUE,TRUE,,,,,,,CLR,,,,,,,,VFR,,,,,,,,,,,,SPECI,161.0
KHHV 250535Z AUTO 18018KT 4SM BR SCT009 25/25 A2978 RMK A01,KHHV,2015-04-25T05:35:00Z,26.93,-94.68,25.0,25.0,180,18,,4.0,29.778543,,,TRUE,TRUE,,,,,,BR,SCT,900,,,,,,,MVFR,,,,,,,,,,,,SPECI,25.0
KHBI 250535Z AUTO 00000KT 10SM CLR 11/03 A2996 RMK AO2 T01100034,KHBI,2015-04-25T05:35:00Z,35.65,-79.9,11.0,3.4,0,0,,10.0,29.958662,,,TRUE,TRUE,,,,,,,CLR,,,,,,,,VFR,,,,,,,,,,,,SPECI,205.0
KGYI 250535Z AUTO 16009KT 7SM OVC004 18/18 A2968 RMK AO2 T01770177,KGYI,2015-04-25T05:35:00Z,33.72,-96.67,17.7,17.7,160,9,,7.0,29.681103,,,TRUE,TRUE,,,,,,,OVC,400,,,,,,,LIFR,,,,,,,,,,,,SPECI,228.0
KGYB 250535Z AUTO 25003KT 7SM CLR 24/22 A2976 RMK AO2 T02400215,KGYB,2015-04-25T05:35:00Z,30.17,-96.98,24.0,21.5,250,3,,7.0,29.760826,,,TRUE,TRUE,,,,,,,CLR,,,,,,,,VFR,,,,,,,,,,,,SPECI,148.0
KGUL 250535Z AUTO BKN009 25/24 A2980 RMK A01,KGUL,2015-04-25T05:35:00Z,27.3,-93.53,25.0,24.0,,,,,29.799213,,,TRUE,TRUE,,,,,,,BKN,900,,,,,,,,,,,,,,,,,,,SPECI,30.0
KGRY 250535Z AUTO 22012KT 4SM BR FEW050 FEW060 26/25 A2984 RMK A01,KGRY,2015-04-25T05:35:00Z,27.63,-90.45,26.0,25.0,220,12,,4.0,29.840551,,,TRUE,TRUE,,,,,,BR,FEW,5000,FEW,6000,,,,,MVFR,,,,,,,,,,,,SPECI,58.0
KGNT 250535Z AUTO 30003KT 10SM CLR 05/00 A3002 RMK AO2 T00541003,KGNT,2015-04-25T05:35:00Z,35.17,-107.9,5.4,-0.3,300,3,,10.0,30.02067,,,TRUE,TRUE,,,,,,,CLR,,,,,,,,VFR,,,,,,,,,,,,SPECI,1987.0
KGMJ 250535Z AUTO 16007KT 10SM CLR 17/15 A2958 RMK AO2,KGMJ,2015-04-25T05:35:00Z,36.6,-94.73,17.0,15.0,160,7,,10.0,29.58071,,,TRUE,TRUE,,,,,,,CLR,,,,,,,,VFR,,,,,,,,,,,,SPECI,254.0
KGHB 250535Z AUTO 16010KT 6SM BR OVC013 26/26 A2982 RMK A01,KGHB,2015-04-25T05:35:00Z,27.83,-91.98,26.0,26.0,160,10,,6.0,29.819881,,,TRUE,TRUE,,,,,,BR,OVC,1300,,,,,,,MVFR,,,,,,,,,,,,SPECI,30.0
KGGP 250535Z AUTO 08007KT 10SM OVC075 10/00 A2987 RMK AO2,KGGP,2015-04-25T05:35:00Z,40.72,-86.37,10.0,0.0,80,7,,10.0,29.870079,,,TRUE,TRUE,,,,,,,OVC,7500,,,,,,,VFR,,,,,,,,,,,,SPECI,225.0
KFTN 250535Z AUTO 08005KT 10SM CLR 22/22 A2974 RMK A01,KFTN,2015-04-25T05:35:00Z,28.22,-100.02,22.0,22.0,80,5,,10.0,29.740158,,,TRUE,TRUE,,,,,,,CLR,,,,,,,,VFR,,,,,,,,,,,,SPECI,236.0
KFOT 250535Z AUTO 31006KT 5SM OVC020 08/08 A2995 RMK AO1,KFOT,2015-04-25T05:35:00Z,40.55,-124.13,8.0,8.0,310,6,,5.0,29.949802,,,TRUE,TRUE,,,,,,,OVC,2000,,,,,,,MVFR,,,,,,,,,,,,SPECI,120.0
KFGX 250535Z AUTO 09004KT 10SM SCT075 OVC090 10/03 A2989 RMK AO2 T00980026,KFGX,2015-04-25T05:35:00Z,38.55,-83.75,9.8,2.6,90,4,,10.0,29.890747,,,TRUE,TRUE,,,,,,,SCT,7500,OVC,9000,,,,,VFR,,,,,,,,,,,,SPECI,278.0
KEQA 250535Z AUTO 21013G22KT 10SM OVC015 18/15 A2948 RMK AO2,KEQA,2015-04-25T05:35:00Z,37.78,-96.82,18.0,15.0,210,13,22,10.0,29.480314,,,TRUE,TRUE,,,,,,,OVC,1500,,,,,,,MVFR,,,,,,,,,,,,SPECI,420.0
KEMK 250535Z AUTO 4SM BR OVC006 25/24 A2977 RMK A01,KEMK,2015-04-25T05:35:00Z,27.82,-94.32,25.0,24.0,,,,4.0,29.769686,,,TRUE,TRUE,,,,,,BR,OVC,600,,,,,,,IFR,,,,,,,,,,,,SPECI,26.0
KEIR 250535Z AUTO 18011KT 6SM BR OVC018 25/25 A2982 RMK A01,KEIR,2015-04-25T05:35:00Z,28.63,-91.48,25.0,25.0,180,11,,6.0,29.819881,,,TRUE,TRUE,,,,,,BR,OVC,1800,,,,,,,MVFR,,,,,,,,,,,,SPECI,28.0
KEHC 250535Z AUTO 17018KT 6SM BR CLR 26/24 A2978 RMK A01,KEHC,2015-04-25T05:35:00Z,28.43,-92.88,26.0,24.0,170,18,,6.0,29.778543,,,TRUE,TRUE,,,,,,BR,CLR,,,,,,,,VFR,,,,,,,,,,,,SPECI,31.0
KE16 250535Z AUTO 12007KT 10SM BKN042 OVC120 12/08 A3005 RMK AO2,KE16,2015-04-25T05:35:00Z,37.08,-121.6,12.0,8.0,120,7,,10.0,30.050198,,,TRUE,TRUE,,,,,,,BKN,4200,OVC,12000,,,,,VFR,,,,,,,,,,,,SPECI,86.0
KDLP 250535Z AUTO 17016KT 6SM BR FEW010 BKN015 OVC030 25/25 A2982 RMK A01,KDLP,2015-04-25T05:35:00Z,29.12,-89.55,25.0,25.0,170,16,,6.0,29.819881,,,TRUE,TRUE,,,,,,BR,FEW,1000,BKN,1500,OVC,3000,,,MVFR,,,,,,,,,,,,SPECI,36.0
KCVW 250535Z AUTO 17010KT 5SM BR 25/24 A2979 RMK A01,KCVW,2015-04-25T05:35:00Z,29.78,-93.3,25.0,24.0,170,10,,5.0,29.790354,,,TRUE,TRUE,,,,,,BR,,,,,,,,,,,,,,,,,,,,,SPECI,1.0
KCRX 250535Z AUTO 12003KT 7SM -RA FEW036 SCT070 BKN085 13/12 A2984 RMK AO2 LTG DSNT SW AND W,KCRX,2015-04-25T05:35:00Z,34.92,-88.6,13.0,12.0,120,3,,7.0,29.840551,,,TRUE,TRUE,,,,,,-RA,FEW,3600,SCT,7000,BKN,8500,,,VFR,,,,,,,,,,,,SPECI,130.0
KCCA 250535Z AUTO 00000KT 9SM OVC006 15/15 A2969 RMK AO2,KCCA,2015-04-25T05:35:00Z,35.6,-92.45,15.0,15.0,0,0,,9.0,29.68996,,,TRUE,TRUE,,,,,,,OVC,600,,,,,,,IFR,,,,,,,,,,,,SPECI,157.0
KBQX 250535Z AUTO 26007KT 3SM BR BKN006 BKN060 BKN070 24/24 A2984 RMK A01,KBQX,2015-04-25T05:35:00Z,28.5,-95.72,24.0,24.0,260,7,,3.0,29.840551,,,TRUE,TRUE,,,,,,BR,BKN,600,BKN,6000,BKN,7000,,,IFR,,,,,,,,,,,,SPECI,34.0
KBBG 250535Z AUTO 00000KT 10SM CLR 14/13 A2965 RMK AO2,KBBG,2015-04-25T05:35:00Z,36.53,-93.2,14.0,13.0,0,0,,10.0,29.648623,,,TRUE,TRUE,,,,,,,CLR,,,,,,,,VFR,,,,,,,,,,,,SPECI,397.0
KBBF 250535Z AUTO 31011KT 3SM BR SCT007 25/23 A2984 RMK A01,KBBF,2015-04-25T05:35:00Z,27.83,-96.02,25.0,23.0,310,11,,3.0,29.840551,,,TRUE,TRUE,,,,,,BR,SCT,700,,,,,,,MVFR,,,,,,,,,,,,SPECI,36.0
KAVK 250535Z AUTO 29009G15KT 10SM FEW050 SCT080 BKN120 15/10 A2951 RMK AO2,KAVK,2015-04-25T05:35:00Z,36.77,-98.67,15.0,10.0,290,9,15,10.0,29.509842,,,TRUE,TRUE,,,,,,,FEW,5000,SCT,8000,BKN,12000,,,VFR,,,,,,,,,,,,SPECI,449.0
KATP 250535Z AUTO 17016G24KT 8SM SCT015 SCT027 SCT060 27/24 A2986 RMK A01,KATP,2015-04-25T05:35:00Z,27.2,-90.03,27.0,24.0,170,16,24,8.0,29.861221,,,TRUE,TRUE,,,,,,,SCT,1500,SCT,2700,SCT,6000,,,VFR,,,,,,,,,,,,SPECI,62.0
KAIB 250535Z AUTO 00000KT 10SM OVC110 10/M03 A2988 RMK AO2,KAIB,2015-04-25T05:35:00Z,38.23,-108.57,10.0,-3.0,0,0,,10.0,29.878937,,,TRUE,TRUE,,,,,,,OVC,11000,,,,,,,VFR,,,,,,,,,,,,SPECI,1811.0
K5T9 250535Z AUTO 32005KT 8SM FEW004 OVC041 21/20 A2976 RMK A01,K5T9,2015-04-25T05:35:00Z,28.85,-100.52,21.0,20.0,320,5,,8.0,29.760826,,,TRUE,TRUE,,,,,,,FEW,400,OVC,4100,,,,,VFR,,,,,,,,,,,,METAR,270.0
K2D5 250535Z AUTO 08015G19KT 6SM BR 07/07 A2974 RMK AO2,K2D5,2015-04-25T05:35:00Z,46.17,-98.08,7.0,7.0,80,15,19,6.0,29.740158,,,TRUE,TRUE,,,,,,BR,,,,,,,,,,,,,,,,,,,,,SPECI,407.0
KXPY 250535Z AUTO 16011KT 4SM BR FEW014 BKN025 26/24 A2984 RMK A01,KXPY,2015-04-25T05:35:00Z,29.12,-90.2,26.0,24.0,160,11,,4.0,29.840551,,,TRUE,TRUE,,,,,,BR,FEW,1400,BKN,2500,,,,,MVFR,,,,,,,,,,,,SPECI,2.0
KXIH 250535Z AUTO 25010KT 4SM BR FEW004 FEW018 OVC048 24/23 A2982 RMK A01,KXIH,2015-04-25T05:35:00Z,29.18,-94.52,24.0,23.0,250,10,,4.0,29.819881,,,TRUE,TRUE,,,,,,BR,FEW,400,FEW,1800,OVC,4800,,,MVFR,,,,,,,,,,,,SPECI,75.0
KVQT 250535Z AUTO 00000KT 3SM BR CLR 26/24 A2980 RMK A01,KVQT,2015-04-25T05:35:00Z,28.27,-92.27,26.0,24.0,0,0,,3.0,29.799213,,,TRUE,TRUE,,,,,,BR,CLR,,,,,,,,MVFR,,,,,,,,,,,,SPECI,25.0
KVOA 250535Z AUTO 19027KT 6SM BR CLR 25/24 A2983 RMK A01,KVOA,2015-04-25T05:35:00Z,29.23,-87.78,25.0,24.0,190,27,,6.0,29.828741,,,TRUE,TRUE,,,,,,BR,CLR,,,,,,,,VFR,,,,,,,,,,,,SPECI,53.0
KVKY 250535Z AUTO VRB04G11KT 10SM FEW004 25/24 A2984 RMK A01,KVKY,2015-04-25T05:35:00Z,29.25,-88.43,25.0,24.0,0,4,11,10.0,29.840551,,,TRUE,TRUE,,,,,,,FEW,400,,,,,,,VFR,,,,,,,,,,,,SPECI,32.0
KLCK 250535Z AUTO 00000KT 10SM OVC070 09/04 A2992 RMK AO2 T00850043,KLCK,2015-04-25T05:35:00Z,39.82,-82.92,8.5,4.3,0,0,,10.0,29.920275,,,TRUE,TRUE,,,,,,,OVC,7000,,,,,,,VFR,,,,,,,,,,,,SPECI,227.0
KLCG 250535Z AUTO 08005KT 10SM OVC020 14/11 A2956 RMK AO2 T01400107,KLCG,2015-04-25T05:35:00Z,42.25,-96.98,14.0,10.7,80,5,,10.0,29.56004,,,TRUE,TRUE,,,,,,,OVC,2000,,,,,,,MVFR,,,,,,,,,,,,SPECI,436.0
KLAM 250535Z AUTO 19005KT 10SM SCT041 SCT050 BKN070 07/00 A2999 RMK AO2 T00731004,KLAM,2015-04-25T05:35:00Z,35.87,-106.27,7.3,-0.4,190,5,,10.0,29.991142,,,TRUE,TRUE,,,,,,,SCT,4100,SCT,5000,BKN,7000,,,VFR,,,,,,,,,,,,SPECI,2179.0
KL35 250535Z AUTO 24004KT 10SM CLR 03/M01 A3002 RMK AO2,KL35,2015-04-25T05:35:00Z,34.27,-116.85,3.0,-1.0,240,4,,10.0,30.02067,,,TRUE,TRUE,,,,,,,CLR,,,,,,,,VFR,,,,,,,,,,,,SPECI,2059.0
KJZP 250535Z AUTO 13003KT 10SM OVC080 16/M02 A2995 RMK AO2 T01591022,KJZP,2015-04-25T05:35:00Z,,,15.9,-2.2,130,3,,10.0,29.949802,,,TRUE,TRUE,,,,,,,OVC,8000,,,,,,,VFR,,,,,,,,,,,,SPECI,
KJVL 250535Z AUTO 08013KT 10SM BKN037 OVC043 05/01 A2990 RMK AO2,KJVL,2015-04-25T05:35:00Z,42.62,-89.05,5.0,1.0,80,13,,10.0,29.899607,,,TRUE,TRUE,,,,,,,BKN,3700,OVC,4300,,,,,VFR,,,,,,,,,,,,SPECI,246.0
KJGG 250535Z AUTO 09003KT 10SM CLR 08/06 A2997 RMK AO1,KJGG,2015-04-25T05:35:00Z,37.23,-76.72,8.0,6.0,90,3,,10.0,29.970472,,,TRUE,TRUE,,,,,,,CLR,,,,,,,,VFR,,,,,,,,,,,,SPECI,15.0
KJES 250535Z AUTO 00000KT 10SM BKN110 17/14 A2997 RMK AO2,KJES,2015-04-25T05:35:00Z,31.55,-81.88,17.0,14.0,0,0,,10.0,29.970472,,,TRUE,TRUE,,,,,,,BKN,11000,,,,,,,VFR,,,,,,,,,,,,SPECI,33.0
KISO 250535Z AUTO 18003KT 10SM CLR 09/06 A2996 RMK AO2 T00940055,KISO,2015-04-25T05:35:00Z,35.32,-77.62,9.4,5.5,180,3,,10.0,29.958662,,,TRUE,TRUE,,,,,,,CLR,,,,,,,,VFR,,,,,,,,,,,,SPECI,29.0
KINJ 250535Z AUTO 16004KT 10SM CLR 18/16 A2971 RMK AO2 T01800159,KINJ,2015-04-25T05:35:00Z,32.08,-97.1,18.0,15.9,160,4,,10.0,29.71063,,,TRUE,TRUE,,,,,,,CLR,,,,,,,,VFR,,,,,,,,,,,,SPECI,209.0
KIKV 250535Z AUTO 08009KT 10SM BKN015 OVC021 09/07 A2964 RMK AO2,KIKV,2015-04-25T05:35:00Z,41.68,-93.57,9.0,7.0,80,9,,10.0,29.639763,,,TRUE,TRUE,,,,,,,BKN,1500,OVC,2100,,,,,MVFR,,,,,,,,,,,,SPECI,275.0
KIJX 250535Z AUTO 12006KT 10SM -RA BKN049 OVC055 13/08 A2973 RMK AO2 LTG DSNT N T01300079,KIJX,2015-04-25T05:35:00Z,39.77,-90.25,13.0,7.9,120,6,,10.0,29.731298,,,TRUE,TRUE,,,,,,-RA,BKN,4900,OVC,5500,,,,,VFR,,,,,,,,,,,,SPECI,190.0
KIIY 250535Z AUTO 19003KT 7SM CLR 18/11 A2994 RMK AO2,KIIY,2015-04-25T05:35:00Z,33.78,-82.82,18.0,11.0,190,3,,7.0,29.940945,,,TRUE,TRUE,,,,,,,CLR,,,,,,,,VFR,,,,,,,,,,,,SPECI,197.0
KIIB 250535Z AUTO 09016G20KT 10SM OVC045 06/04 A2974 RMK AO2,KIIB,2015-04-25T05:35:00Z,42.45,-91.95,6.0,4.0,90,16,20,10.0,29.740158,,,TRUE,TRUE,,,,,,,OVC,4500,,,,,,,VFR,,,,,,,,,,,,SPECI,298.0
KIDP 250535Z AUTO 19015KT 10SM CLR 16/14 A2952 RMK AO2,KIDP,2015-04-25T05:35:00Z,37.17,-95.78,16.0,14.0,190,15,,10.0,29.518702,,,TRUE,TRUE,,,,,,,CLR,,,,,,,,VFR,,,,,,,,,,,,SPECI,251.0
KIBM 250535Z AUTO 29010KT 10SM SCT110 09/03 A2964 RMK AO2 T00910033,KIBM,2015-04-25T05:35:00Z,41.18,-103.68,9.1,3.3,290,10,,10.0,29.639763,,,TRUE,TRUE,,,,,,,SCT,11000,,,,,,,VFR,,,,,,,,,,,,SPECI,1501.0
KI75 250535Z AUTO 07008KT 5SM BR SCT002 OVC026 11/10 A2961 RMK AO2 T01110104,KI75,2015-04-25T05:35:00Z,41.05,-93.68,11.1,10.4,70,8,,5.0,29.610237,,,TRUE,TRUE,,,,,,BR,SCT,200,OVC,2600,,,,,MVFR,,,,,,,,,,,,SPECI,339.0
KHHG 250535Z AUTO 09004KT 10SM OVC070 10/00 A2991 RMK AO2 T01010002,KHHG,2015-04-25T05:35:00Z,40.85,-85.45,10.1,0.2,90,4,,10.0,29.911417,,,TRUE,TRUE,,,,,,,OVC,7000,,,,,,,VFR,,,,,,,,,,,,SPECI,246.0
KHDE 250535Z AUTO 11007G19KT 1 3/4SM +RA BKN002 OVC006 13/12 A2950 RMK AO2 LTG DSNT SE THRU SW P0017 T01320124,KHDE,2015-04-25T05:35:00Z,40.45,-99.32,13.2,12.4,110,7,19,1.75,29.500984,,,TRUE,TRUE,,,,,,+RA,BKN,200,OVC,600,,,,,LIFR,,,,,,0.17,,,,,,SPECI,705.0
KHDC 250535Z AUTO 16007KT 10SM BKN009 BKN013 OVC027 24/21 A2982 RMK AO2,KHDC,2015-04-25T05:35:00Z,30.52,-90.42,24.0,21.0,160,7,,10.0,29.819881,,,TRUE,TRUE,,,,,,,BKN,900,BKN,1300,OVC,2700,,,IFR,,,,,,,,,,,,SPECI,13.0
KGWB 250535Z AUTO 07008KT 10SM OVC075 08/01 A2995 RMK AO2,KGWB,2015-04-25T05:35:00Z,41.3,-85.07,8.0,1.0,70,8,,10.0,29.949802,,,TRUE,TRUE,,,,,,,OVC,7500,,,,,,,VFR,,,,,,,,,,,,SPECI,269.0
KGUR 250535Z AUTO 13003KT 10SM 12/08 A2965 RMK AO2 T01150082 PWINO,KGUR,2015-04-25T05:35:00Z,42.25,-104.72,11.5,8.2,130,3,,10.0,29.648623,,,TRUE,TRUE,,,,,TRUE,,,,,,,,,,,,,,,,,,,,,,SPECI,1358.0
KGOP 250535Z AUTO 00000KT 9SM CLR 20/18 A2975 RMK AO2,KGOP,2015-04-25T05:35:00Z,31.42,-97.8,20.0,18.0,0,0,,9.0,29.749016,,,TRUE,TRUE,,,,,,,CLR,,,,,,,,VFR,,,,,,,,,,,,SPECI,276.0
KGNC 250535Z AUTO 27009KT 10SM CLR 14/M02 A2986 RMK AO2 T01401023,KGNC,2015-04-25T05:35:00Z,32.68,-102.65,14.0,-2.3,270,9,,10.0,29.861221,,,TRUE,TRUE,,,,,,,CLR,,,,,,,,VFR,,,,,,,,,,,,SPECI,1010.0
KGCD 250535Z AUTO 00000KT 10SM SCT070 BKN090 07/M02 A2983 RMK AO2 T00711023,KGCD,2015-04-25T05:35:00Z,44.38,-118.97,7.1,-2.3,0,0,,10.0,29.828741,,,TRUE,TRUE,,,,,,,SCT,7000,BKN,9000,,,,,VFR,,,,,,,,,,,,SPECI,1127.0
KFWS 250535Z AUTO 16004KT 7SM CLR 17/16 A2971 RMK AO2 T01650161,KFWS,2015-04-25T05:35:00Z,32.57,-97.3,16.5,16.1,160,4,,7.0,29.71063,,,TRUE,TRUE,,,,,,,CLR,,,,,,,,VFR,,,,,,,,,,,,SPECI,208.0
KFQD 250535Z AUTO 00000KT 10SM SCT080 13/05 A2994 RMK AO2 T01340048,KFQD,2015-04-25T05:35:00Z,35.42,-81.93,13.4,4.8,0,0,,10.0,29.940945,,,TRUE,TRUE,,,,,,,SCT,8000,,,,,,,VFR,,,,,,,,,,,,SPECI,329.0
KFIN 250535Z AUTO 00000KT 10SM CLR 19/17 A2997 RMK AO2 T01850172,KFIN,2015-04-25T05:35:00Z,29.47,-81.2,18.5,17.2,0,0,,10.0,29.970472,,,TRUE,TRUE,,,,,,,CLR,,,,,,,,VFR,,,,,,,,,,,,SPECI,10.0
KFHB 250535Z AUTO 12005KT 7SM CLR 22/19 A2995 RMK AO1,KFHB,2015-04-25T05:35:00Z,30.62,-81.47,22.0,19.0,120,5,,7.0,29.949802,,,TRUE,TRUE,,,,,,,CLR,,,,,,,,VFR,,,,,,,,,,,,SPECI,5.0
KFFL 250535Z AUTO 09012KT 10SM OVC034 12/04 A2967 RMK AO2,KFFL,2015-04-25T05:35:00Z,41.03,-91.97,12.0,4.0,90,12,,10.0,29.66929,,,TRUE,TRUE,,,,,,,OVC,3400,,,,,,,VFR,,,,,,,,,,,,SPECI,244.0
KD50 250535Z AUTO 12011KT 10SM BKN080 OVC110 11/03 A2968 RMK AO2,KD50,2015-04-25T05:35:00Z,48.93,-103.3,11.0,3.0,120,11,,10.0,29.681103,,,TRUE,TRUE,,,,,,,BKN,8000,OVC,11000,,,,,VFR,,,,,,,,,,,,SPECI,595.0
KCEY 250535Z AUTO 18013G26KT 10SM FEW010 SCT048 BKN075 13/13 A2974 RMK AO1,KCEY,2015-04-25T05:35:00Z,36.67,-88.37,13.0,13.0,180,13,26,10.0,29.740158,,,TRUE,TRUE,,,,,,,FEW,1000,SCT,4800,BKN,7500,,,VFR,,,,,,,,,,,,SPECI,176.0
KBMC 250535Z AUTO 33006KT 1 3/4SM SCT013 BKN017 OVC025 08/06 A2979 RMK AO1 VIS 1V4 T00810059,KBMC,2015-04-25T05:35:00Z,41.55,-112.07,8.1,5.9,330,6,,1.75,29.790354,,,TRUE,TRUE,,,,,,,SCT,1300,BKN,1700,OVC,2500,,,IFR,,,,,,,,,,,,SPECI,1288.0
KBIJ 250535Z AUTO 00000KT 10SM CLR 18/18 A2989 RMK AO2,KBIJ,2015-04-25T05:35:00Z,31.4,-84.9,18.0,18.0,0,0,,10.0,29.890747,,,TRUE,TRUE,,,,,,,CLR,,,,,,,,VFR,,,,,,,,,,,,SPECI,65.0
KAVQ 250535Z AUTO 00000KT 10SM CLR 17/04 A2993 RMK AO2 T01740040,KAVQ,2015-04-25T05:35:00Z,32.4,-111.22,17.4,4.0,0,0,,10.0,29.929134,,,TRUE,TRUE,,,,,,,CLR,,,,,,,,VFR,,,,,,,,,,,,SPECI,619.0
KAQR 250535Z AUTO 11007KT 007V177 10SM OVC003 16/16 A2968 RMK AO2,KAQR,2015-04-25T05:35:00Z,34.4,-96.15,16.0,16.0,110,7,,10.0,29.681103,,,TRUE,TRUE,,,,,,,OVC,300,,,,,,,LIFR,,,,,,,,,,,,SPECI,189.0
KAPY 250535Z AUTO 16004KT 4SM BR OVC017 27/26 A2972 RMK AO2 T02700265,KAPY,2015-04-25T05:35:00Z,26.97,-99.25,27.0,26.5,160,4,,4.0,29.719488,,,TRUE,TRUE,,,,,,BR,OVC,1700,,,,,,,MVFR,,,,,,,,,,,,SPECI,129.0
KA08 250535Z AUTO 10004KT 10SM SCT050 17/14 A2984 RMK AO2 T01720137 PWINO,KA08,2015-04-25T05:35:00Z,32.52,-87.38,17.2,13.7,100,4,,10.0,29.840551,,,TRUE,TRUE,,,,,TRUE,,SCT,5000,,,,,,,VFR,,,,,,,,,,,,SPECI,69.0
K9V9 250535Z AUTO 10005KT 10SM SCT080 SCT110 12/07 A2953 RMK AO2 T01220070,K9V9,2015-04-25T05:35:00Z,43.77,-99.32,12.2,7.0,100,5,,10.0,29.530512,,,TRUE,TRUE,,,,,,,SCT,8000,SCT,11000,,,,,VFR,,,,,,,,,,,,SPECI,519.0
K8A0 250535Z AUTO 08004KT 10SM -RA SCT050 BKN075 OVC095 13/12 A2988 RMK AO2 P0001,K8A0,2015-04-25T05:35:00Z,34.23,-86.25,13.0,12.0,80,4,,10.0,29.878937,,,TRUE,TRUE,,,,,,-RA,SCT,5000,BKN,7500,OVC,9500,,,VFR,,,,,,0.01,,,,,,SPECI,315.0
K6R3 250535Z AUTO 00000KT 5SM BR SCT016 SCT022 24/23 A2979 RMK AO2 T02400232,K6R3,2015-04-25T05:35:00Z,30.35,-95.0,24.0,23.2,0,0,,5.0,29.790354,,,TRUE,TRUE,,,,,,BR,SCT,1600,SCT,2200,,,,,MVFR,,,,,,,,,,,,SPECI,46.0
K66R 250535Z AUTO 18008G16KT 5SM BR SCT006 SCT028 SCT070 24/23 A2973 RMK AO2 LTG DSNT SW T02400234,K66R,2015-04-25T05:35:00Z,29.65,-96.52,24.0,23.4,180,8,16,5.0,29.731298,,,TRUE,TRUE,,,,,,BR,SCT,600,SCT,2800,SCT,7000,,,MVFR,,,,,,,,,,,,SPECI,74.0
K5M9 250535Z AUTO 04004KT 10SM OVC019 13/08 A2980 RMK AO2 T01270075,K5M9,2015-04-25T05:35:00Z,37.33,-88.12,12.7,7.5,40,4,,10.0,29.799213,,,TRUE,TRUE,,,,,,,OVC,1900,,,,,,,MVFR,,,,,,,,,,,,SPECI,199.0
K4M9 250535Z AUTO 00000KT 10SM 14/14 A2972 RMK AO2,K4M9,2015-04-25T05:35:00Z,36.4,-90.65,14.0,14.0,0,0,,10.0,29.719488,,,TRUE,TRUE,,,,,,,,,,,,,,,,,,,,,,,,,,,SPECI,90.0
K3K3 250535Z AUTO 00000KT 10SM CLR 11/10 A2961 RMK AO2,K3K3,2015-04-25T05:35:00Z,38.0,-101.75,11.0,10.0,0,0,,10.0,29.610237,,,TRUE,TRUE,,,,,,,CLR,,,,,,,,VFR,,,,,,,,,,,,METAR,1013.0
K3AU 250535Z AUTO 20015G22KT 10SM OVC013 17/15 A2948 RMK AO2,K3AU,2015-04-25T05:35:00Z,37.67,-97.08,17.0,15.0,200,15,22,10.0,29.480314,,,TRUE,TRUE,,,,,,,OVC,1300,,,,,,,MVFR,,,,,,,,,,,,SPECI,405.0
K18A 250535Z AUTO 00000KT 10SM -RA 15/10 A2994 RMK AO2 T01510102,K18A,2015-04-25T05:35:00Z,34.35,-83.13,15.1,10.2,0,0,,10.0,29.940945,,,TRUE,TRUE,,,,,,-RA,,,,,,,,,,,,,,,,,,,,,SPECI,271.0
KMWC 250535Z AUTO 06006KT 10SM OVC050 03/00 A2997 RMK AO2,KMWC,2015-04-25T05:35:00Z,43.12,-88.03,3.0,0.0,60,6,,10.0,29.970472,,,TRUE,TRUE,,,,,,,OVC,5000,,,,,,,VFR,,,,,,,,,,,,SPECI,227.0
KMUT 250535Z AUTO 10014KT 10SM FEW044 BKN060 OVC075 11/05 A2971 RMK AO2,KMUT,2015-04-25T05:35:00Z,41.37,-91.15,11.0,5.0,100,14,,10.0,29.71063,,,TRUE,TRUE,,,,,,,FEW,4400,BKN,6000,OVC,7500,,,VFR,,,,,,,,,,,,SPECI,167.0
KMRN 250535Z AUTO 00000KT 10SM OVC085 11/07 A2997 RMK AO2 T01050072,KMRN,2015-04-25T05:35:00Z,35.82,-81.62,10.5,7.2,0,0,,10.0,29.970472,,,TRUE,TRUE,,,,,,,OVC,8500,,,,,,,VFR,,,,,,,,,,,,SPECI,387.0
KMOR 250535Z AUTO 00000KT 10SM FEW085 BKN100 12/06 A2992 RMK,KMOR,2015-04-25T05:35:00Z,36.18,-83.37,12.0,6.0,0,0,,10.0,29.920275,,,TRUE,,,,,,,,FEW,8500,BKN,10000,,,,,VFR,,,,,,,,,,,,METAR,400.0
KMNE 250535Z AUTO 00000KT 10SM VCTSRA SCT011 BKN070 OVC110 18/17 A2981 RMK AO2 LTG DSNT NE THRU SE P0017 T01820172,KMNE,2015-04-25T05:35:00Z,32.65,-93.3,18.2,17.2,0,0,,10.0,29.811024,,,TRUE,TRUE,,,,,,VCTSRA,SCT,1100,BKN,7000,OVC,11000,,,VFR,,,,,,0.17,,,,,,SPECI,85.0
KMLJ 250535Z AUTO 00000KT 10SM BKN120 18/12 A2993 RMK AO2,KMLJ,2015-04-25T05:35:00Z,33.15,-83.23,18.0,12.0,0,0,,10.0,29.929134,,,TRUE,TRUE,,,,,,,BKN,12000,,,,,,,VFR,,,,,,,,,,,,SPECI,117.0
KMLE 250535Z AUTO 07005KT 7SM OVC010 14/12 A2952 RMK AO2 LTG DSNT S T01420118,KMLE,2015-04-25T05:35:00Z,41.2,-96.12,14.2,11.8,70,5,,7.0,29.518702,,,TRUE,TRUE,,,,,,,OVC,1000,,,,,,,MVFR,,,,,,,,,,,,SPECI,320.0
KMKJ 250535Z AUTO 00000KT 10SM OVC090 07/02 A2996 RMK AO2 T00690015,KMKJ,2015-04-25T05:35:00Z,36.88,-81.33,6.9,1.5,0,0,,10.0,29.958662,,,TRUE,TRUE,,,,,,,OVC,9000,,,,,,,VFR,,,,,,,,,,,,SPECI,780.0
KMFV 250535Z AUTO 22005KT 10SM CLR 06/00 A2996 RMK AO2,KMFV,2015-04-25T05:35:00Z,37.63,-75.77,6.0,0.0,220,5,,10.0,29.958662,,,TRUE,TRUE,,,,,,,CLR,,,,,,,,VFR,,,,,,,,,,,,SPECI,15.0
KMER 250535Z AUTO 31011KT 10SM CLR 14/05 A2999 RMK AO1,KMER,2015-04-25T05:35:00Z,37.38,-120.57,14.0,5.0,310,11,,10.0,29.991142,,,TRUE,TRUE,,,,,,,CLR,,,,,,,,VFR,,,,,,,,,,,,SPECI,57.0
KMDD 250535Z AUTO 28013G20KT 10SM CLR 20/M03 A2984 RMK AO2 T02001033,KMDD,2015-04-25T05:35:00Z,32.03,-102.1,20.0,-3.3,280,13,20,10.0,29.840551,,,TRUE,TRUE,,,,,,,CLR,,,,,,,,VFR,,,,,,,,,,,,SPECI,854.0
KMCJ 250535Z AUTO 19006KT 020V030 5SM FEW010 25/23 A2976 RMK AO1,KMCJ,2015-04-25T05:35:00Z,29.72,-95.4,25.0,23.0,190,6,,5.0,29.760826,,,TRUE,TRUE,,,,,,,FEW,1000,,,,,,,MVFR,,,,,,,,,,,,SPECI,69.0
KLXN 250535Z AUTO 26004KT 10SM SCT090 BKN120 13/11 A2953 RMK AO2 LTG DSNT SE THRU SW T01300112,KLXN,2015-04-25T05:35:00Z,40.78,-99.77,13.0,11.2,260,4,,10.0,29.530512,,,TRUE,TRUE,,,,,,,SCT,9000,BKN,12000,,,,,VFR,,,,,,,,,,,,SPECI,734.0
KLUA 250535Z AUTO 20003KT 10SM CLR 05/00 A2997 RMK AO2,KLUA,2015-04-25T05:35:00Z,38.67,-78.5,5.0,0.0,200,3,,10.0,29.970472,,,TRUE,TRUE,,,,,,,CLR,,,,,,,,VFR,,,,,,,,,,,,SPECI,275.0
KLSB 250535Z AUTO 28004KT 10SM CLR 10/M02 A2999 RMK AO2,KLSB,2015-04-25T05:35:00Z,32.33,-108.7,10.0,-2.0,280,4,,10.0,29.991142,,,TRUE,TRUE,,,,,,,CLR,,,,,,,,VFR,,,,,,,,,,,,SPECI,1307.0
KLRU 250535Z AUTO 27008KT 10SM CLR 10/M02 A2999 RMK AO2 T00951016,KLRU,2015-04-25T05:35:00Z,32.27,-106.92,9.5,-1.6,270,8,,10.0,29.991142,,,TRUE,TRUE,,,,,,,CLR,,,,,,,,VFR,,,,,,,,,,,,SPECI,1358.0
KLRJ 250535Z AUTO 11007KT 10SM CLR 10/09 A2960 RMK AO2,KLRJ,2015-04-25T05:35:00Z,42.77,-96.2,10.0,9.0,110,7,,10.0,29.601377,,,TRUE,TRUE,,,,,,,CLR,,,,,,,,VFR,,,,,,,,,,,,SPECI,365.0
KLKU 250535Z AUTO 00000KT 10SM CLR 03/M03 A2995 RMK AO2,KLKU,2015-04-25T05:35:00Z,38.02,-77.97,3.0,-3.0,0,0,,10.0,29.949802,,,TRUE,TRUE,,,,,,,CLR,,,,,,,,VFR,,,,,,,,,,,,SPECI,150.0
KLGC 250535Z AUTO 16003KT 10SM BKN120 19/16 A2989 RMK AO2 T01880158,KLGC,2015-04-25T05:35:00Z,33.0,-85.07,18.8,15.8,160,3,,10.0,29.890747,,,TRUE,TRUE,,,,,,,BKN,12000,,,,,,,VFR,,,,,,,,,,,,SPECI,211.0
KLCQ 250535Z AUTO 12004KT 10SM CLR 16/15 A2996 RMK AO2,KLCQ,2015-04-25T05:35:00Z,30.18,-82.58,16.0,15.0,120,4,,10.0,29.958662,,,TRUE,TRUE,,,,,,,CLR,,,,,,,,VFR,,,,,,,,,,,,SPECI,61.0
KSCR 250535Z AUTO 00000KT 10SM CLR 06/05 A2994 RMK AO2 T00640051,KSCR,2015-04-25T05:35:00Z,35.7,-79.5,6.4,5.1,0,0,,10.0,29.940945,,,TRUE,TRUE,,,,,,,CLR,,,,,,,,VFR,,,,,,,,,,,,SPECI,188.0
KSCD 250535Z AUTO 00000KT 10SM CLR 19/11 A2988 RMK AO2 T01920108,KSCD,2015-04-25T05:35:00Z,33.17,-86.3,19.2,10.8,0,0,,10.0,29.878937,,,TRUE,TRUE,,,,,,,CLR,,,,,,,,VFR,,,,,,,,,,,,SPECI,173.0
KS25 250535Z AUTO 10006KT 10SM FEW095 07/00 A2963 RMK AO2,KS25,2015-04-25T05:35:00Z,47.8,-103.25,7.0,0.0,100,6,,10.0,29.630905,,,TRUE,TRUE,,,,,,,FEW,9500,,,,,,,VFR,,,,,,,,,,,,SPECI,644.0
KRUQ 250535Z AUTO 00000KT 10SM SCT090 11/05 A2993 RMK AO2 T01090053,KRUQ,2015-04-25T05:35:00Z,35.65,-80.52,10.9,5.3,0,0,,10.0,29.929134,,,TRUE,TRUE,,,,,,,SCT,9000,,,,,,,VFR,,,,,,,,,,,,SPECI,236.0
KRRL 250535Z AUTO 12006KT 10SM OVC070 05/M04 A2994 RMK AO2 T00471043,KRRL,2015-04-25T05:35:00Z,45.2,-89.72,4.7,-4.3,120,6,,10.0,29.940945,,,TRUE,TRUE,,,,,,,OVC,7000,,,,,,,VFR,,,,,,,,,,,,SPECI,401.0
KRKR 250535Z AUTO 26005KT 10SM CLR 16/14 A2964 RMK AO2 T01560141,KRKR,2015-04-25T05:35:00Z,35.02,-94.62,15.6,14.1,260,5,,10.0,29.639763,,,TRUE,TRUE,,,,,,,CLR,,,,,,,,VFR,,,,,,,,,,,,SPECI,138.0
KRHP 250535Z AUTO 26004KT 10SM -DZ SCT110 11/09 A2995 RMK AO2 T01130090,KRHP,2015-04-25T05:35:00Z,35.18,-83.85,11.3,9.0,260,4,,10.0,29.949802,,,TRUE,TRUE,,,,,,-DZ,SCT,11000,,,,,,,VFR,,,,,,,,,,,,SPECI,518.0
KRFI 250535Z AUTO 00000KT 10SM CLR 18/18 A2976 RMK AO2 T01830180,KRFI,2015-04-25T05:35:00Z,32.15,-94.85,18.3,18.0,0,0,,10.0,29.760826,,,TRUE,TRUE,,,,,,,CLR,,,,,,,,VFR,,,,,,,,,,,,SPECI,135.0
KRDK 250535Z AUTO 06008KT 10SM BKN012 OVC027 14/13 A2953 RMK AO2,KRDK,2015-04-25T05:35:00Z,41.02,-95.27,14.0,13.0,60,8,,10.0,29.530512,,,TRUE,TRUE,,,,,,,BKN,1200,OVC,2700,,,,,MVFR,,,,,,,,,,,,SPECI,318.0
KRCZ 250535Z AUTO 19004KT 10SM CLR 13/04 A2995 RMK AO2 T01270036,KRCZ,2015-04-25T05:35:00Z,34.88,-79.77,12.7,3.6,190,4,,10.0,29.949802,,,TRUE,TRUE,,,,,,,CLR,,,,,,,,VFR,,,,,,,,,,,,SPECI,109.0
KRCR 250535Z AUTO 05008KT 10SM SCT050 OVC075 11/02 A2989 RMK AO2,KRCR,2015-04-25T05:35:00Z,41.07,-86.18,11.0,2.0,50,8,,10.0,29.890747,,,TRUE,TRUE,,,,,,,SCT,5000,OVC,7500,,,,,VFR,,,,,,,,,,,,SPECI,241.0
KRCM 250535Z AUTO 11011G14KT 10SM SCT033 SCT120 13/11 A2959 RMK AO2,KRCM,2015-04-25T05:35:00Z,38.78,-93.8,13.0,11.0,110,11,14,10.0,29.589567,,,TRUE,TRUE,,,,,,,SCT,3300,SCT,12000,,,,,VFR,,,,,,,,,,,,SPECI,244.0
KRCE 250535Z AUTO 20018G24KT 10SM FEW008 17/17 A2959 RMK AO2,KRCE,2015-04-25T05:35:00Z,35.48,-97.82,17.0,17.0,200,18,24,10.0,29.589567,,,TRUE,TRUE,,,,,,,FEW,800,,,,,,,VFR,,,,,,,,,,,,SPECI,413.0
KRBO 250535Z 4SM -RA SCT017 SCT028 SCT048 26/26 A2975 RMK AO2 LTG DSNT NE THRU S P0001 T02560256,KRBO,2015-04-25T05:35:00Z,27.78,-97.68,25.6,25.6,,,,4.0,29.749016,,,,TRUE,,,,,,-RA,SCT,1700,SCT,2800,SCT,4800,,,MVFR,,,,,,0.01,,,,,,SPECI,24.0
KPXE 250535Z AUTO 15004KT 10SM CLR 20/12 A2993 RMK AO2 T02000122,KPXE,2015-04-25T05:35:00Z,32.52,-83.77,20.0,12.2,150,4,,10.0,29.929134,,,TRUE,TRUE,,,,,,,CLR,,,,,,,,VFR,,,,,,,,,,,,SPECI,127.0
KPRG 250535Z AUTO 10004KT 10SM DZ OVC040 11/06 A2984 RMK AO2 T01110060,KPRG,2015-04-25T05:35:00Z,39.7,-87.67,11.1,6.0,100,4,,10.0,29.840551,,,TRUE,TRUE,,,,,,DZ,OVC,4000,,,,,,,VFR,,,,,,,,,,,,SPECI,199.0
KPPO 250535Z AUTO 06006KT 10SM RA OVC065 08/05 A2991 RMK AO2 P0001 T00800045,KPPO,2015-04-25T05:35:00Z,41.57,-86.73,8.0,4.5,60,6,,10.0,29.911417,,,TRUE,TRUE,,,,,,RA,OVC,6500,,,,,,,VFR,,,,,,0.01,,,,,,SPECI,248.0
KPOY 250535Z AUTO 34015G24KT 10SM CLR 07/03 A2961 RMK AO2,KPOY,2015-04-25T05:35:00Z,44.87,-108.8,7.0,3.0,340,15,24,10.0,29.610237,,,TRUE,TRUE,,,,,,,CLR,,,,,,,,VFR,,,,,,,,,,,,SPECI,1552.0
KPLU 250535Z AUTO 00000KT 10SM FEW045 FEW060 OVC075 06/06 A2989 RMK AO2,KPLU,2015-04-25T05:35:00Z,47.1,-122.28,6.0,6.0,0,0,,10.0,29.890747,,,TRUE,TRUE,,,,,,,FEW,4500,FEW,6000,OVC,7500,,,VFR,,,,,,,,,,,,SPECI,164.0
KPBX 250535Z AUTO 00000KT 10SM BKN070 BKN080 OVC110 12/M03 A2990 RMK AO2 T01161031,KPBX,2015-04-25T05:35:00Z,37.57,-82.57,11.6,-3.1,0,0,,10.0,29.899607,,,TRUE,TRUE,,,,,,,BKN,7000,BKN,8000,OVC,11000,,,VFR,,,,,,,,,,,,SPECI,449.0
KOZA 250535Z AUTO 02003KT 10SM CLR 15/09 A2988 RMK AO2,KOZA,2015-04-25T05:35:00Z,30.73,-101.2,15.0,9.0,20,3,,10.0,29.878937,,,TRUE,TRUE,,,,,,,CLR,,,,,,,,VFR,,,,,,,,,,,,SPECI,726.0
KOXV 250535Z AUTO 11009KT 10SM OVC029 10/07 A2961 RMK AO2,KOXV,2015-04-25T05:35:00Z,41.28,-93.12,10.0,7.0,110,9,,10.0,29.610237,,,TRUE,TRUE,,,,,,,OVC,2900,,,,,,,MVFR,,,,,,,,,,,,SPECI,283.0
KOSA 250535Z AUTO 13003KT 3SM OVC002 A2973 RMK AO1,KOSA,2015-04-25T05:35:00Z,33.1,-94.97,,,130,3,,3.0,29.731298,,,TRUE,TRUE,,,,,,,OVC,200,,,,,,,LIFR,,,,,,,,,,,,SPECI,111.0
KORC 250535Z AUTO 10008KT 10SM SCT009 OVC023 08/07 A2962 RMK AO2,KORC,2015-04-25T05:35:00Z,42.97,-96.07,8.0,7.0,100,8,,10.0,29.619095,,,TRUE,TRUE,,,,,,,SCT,900,OVC,2300,,,,,MVFR,,,,,,,,,,,,SPECI,431.0
KOPL 250535Z AUTO 00000KT 7SM BKN014 OVC035 A2979 RMK AO2,KOPL,2015-04-25T05:35:00Z,30.55,-92.1,,,0,0,,7.0,29.790354,,,TRUE,TRUE,,,,,,,BKN,1400,OVC,3500,,,,,MVFR,,,,,,,,,,,,SPECI,23.0
KONM 250535Z AUTO 29020G25KT 10SM CLR 14/M02 A2993 RMK AO2 T01351020,KONM,2015-04-25T05:35:00Z,34.02,-106.9,13.5,-2.0,290,20,25,10.0,29.929134,,,TRUE,TRUE,,,,,,,CLR,,,,,,,,VFR,,,,,,,,,,,,SPECI,1410.0
KONL 250535Z AUTO 07010G16KT 10SM TS SCT011 BKN020 OVC110 15/13 A2956 RMK AO2 LTG DSNT N AND NE T01540133,KONL,2015-04-25T05:35:00Z,42.47,-98.67,15.4,13.3,70,10,16,10.0,29.56004,,,TRUE,TRUE,,,,,,TS,SCT,1100,BKN,2000,OVC,11000,,,MVFR,,,,,,,,,,,,SPECI,619.0
KOMH 250535Z AUTO 00000KT 10SM CLR 03/00 A2998 RMK AO2,KOMH,2015-04-25T05:35:00Z,38.25,-78.05,3.0,0.0,0,0,,10.0,29.97933,,,TRUE,TRUE,,,,,,,CLR,,,,,,,,VFR,,,,,,,,,,,,SPECI,142.0
KOLZ 250535Z AUTO 09018G26KT 9SM OVC041 06/04 A2975 RMK AO2,KOLZ,2015-04-25T05:35:00Z,42.67,-91.97,6.0,4.0,90,18,26,9.0,29.749016,,,TRUE,TRUE,,,,,,,OVC,4100,,,,,,,VFR,,,,,,,,,,,,SPECI,328.0
KOLG 250535Z AUTO 04006KT 10SM OVC065 02/00 A2989 RMK AO1,KOLG,2015-04-25T05:35:00Z,46.3,-91.82,2.0,0.0,40,6,,10.0,29.890747,,,TRUE,TRUE,,,,,,,OVC,6500,,,,,,,VFR,,,,,,,,,,,,SPECI,336.0
KOGA 250535Z AUTO 34008KT 10SM CLR 12/07 A2957 RMK AO2 T01200066,KOGA,2015-04-25T05:35:00Z,41.12,-101.77,12.0,6.6,340,8,,10.0,29.568897,,,TRUE,TRUE,,,,,,,CLR,,,,,,,,VFR,,,,,,,,,,,,SPECI,999.0
KOEO 250535Z AUTO 11015G20KT 10SM OVC034 08/02 A2985 RMK AO2 T00750017,KOEO,2015-04-25T05:35:00Z,45.32,-92.7,7.5,1.7,110,15,20,10.0,29.84941,,,TRUE,TRUE,,,,,,,OVC,3400,,,,,,,VFR,,,,,,,,,,,,SPECI,275.0
KMZZ 250535Z AUTO 08006KT 10SM OVC075 11/01 A2989 RMK AO2 T01050010,KMZZ,2015-04-25T05:35:00Z,40.48,-85.68,10.5,1.0,80,6,,10.0,29.890747,,,TRUE,TRUE,,,,,,,OVC,7500,,,,,,,VFR,,,,,,,,,,,,SPECI,262.0
KMXO 250535Z AUTO 09010KT 7SM OVC050 06/06 A2977 RMK AO2,KMXO,2015-04-25T05:35:00Z,42.22,-91.17,6.0,6.0,90,10,,7.0,29.769686,,,TRUE,TRUE,,,,,,,OVC,5000,,,,,,,VFR,,,,,,,,,,,,SPECI,259.0
KNOW 250535Z AUTO 25007KT 10SM CLR 08/04 A2987 RMK AO2 T00750035,KNOW,2015-04-25T05:35:00Z,,,7.5,3.5,250,7,,10.0,29.870079,,,TRUE,TRUE,,,,,,,CLR,,,,,,,,VFR,,,,,,,,,,,,METAR,
KWWR 250535Z AUTO 26003KT 10SM SCT080 SCT095 OVC110 16/08 A2959 RMK AO2,KWWR,2015-04-25T05:35:00Z,36.45,-99.52,16.0,8.0,260,3,,10.0,29.589567,,,TRUE,TRUE,,,,,,,SCT,8000,SCT,9500,OVC,11000,,,VFR,,,,,,,,,,,,SPECI,667.0
KWDG 250535Z AUTO 20013G21KT 10SM SCT010 SCT013 17/16 A2949 RMK AO2,KWDG,2015-04-25T05:35:00Z,36.37,-97.77,17.0,16.0,200,13,21,10.0,29.489174,,,TRUE,TRUE,,,,,,,SCT,1000,SCT,1300,,,,,VFR,,,,,,,,,,,,SPECI,356.0
KW31 250535Z AUTO 34003KT 10SM CLR 07/M01 A2994 RMK AO1 T00731009,KW31,2015-04-25T05:35:00Z,36.95,-78.18,7.3,-0.9,340,3,,10.0,29.940945,,,TRUE,TRUE,,,,,,,CLR,,,,,,,,VFR,,,,,,,,,,,,SPECI,162.0
KW22 250535Z AUTO 09004KT 10SM CLR 04/M04 A2995 RMK AO2,KW22,2015-04-25T05:35:00Z,39.0,-80.27,4.0,-4.0,90,4,,10.0,29.949802,,,TRUE,TRUE,,,,,,,CLR,,,,,,,,VFR,,,,,,,,,,,,SPECI,499.0
KVUJ 250535Z AUTO 00000KT 10SM CLR 08/06 A2998 RMK AO2 T00810064,KVUJ,2015-04-25T05:35:00Z,35.42,-80.15,8.1,6.4,0,0,,10.0,29.97933,,,TRUE,TRUE,,,,,,,CLR,,,,,,,,VFR,,,,,,,,,,,,SPECI,186.0
KVCV 250535Z AUTO 25019G23KT 10SM CLR 13/04 A2993 RMK AO2,KVCV,2015-04-25T05:35:00Z,34.58,-117.38,13.0,4.0,250,19,23,10.0,29.929134,,,TRUE,TRUE,,,,,,,CLR,,,,,,,,VFR,,,,,,,,,,,,SPECI,876.0
KUXL 250535Z AUTO 17009KT 7SM SCT011 SCT025 25/24 A2978 RMK AO2 T02470237,KUXL,2015-04-25T05:35:00Z,30.13,-93.38,24.7,23.7,170,9,,7.0,29.778543,,,TRUE,TRUE,,,,,,,SCT,1100,SCT,2500,,,,,VFR,,,,,,,,,,,,SPECI,4.0
KUNV 250535Z AUTO 00000KT 10SM CLR 01/M09 A2996 RMK AO2 T00141091,KUNV,2015-04-25T05:35:00Z,40.85,-77.83,1.4,-9.1,0,0,,10.0,29.958662,,,TRUE,TRUE,,,,,,,CLR,,,,,,,,VFR,,,,,,,,,,,,SPECI,378.0
KUNI 250535Z AUTO 00000KT 10SM OVC080 09/01 A2993 RMK AO2 T00870011,KUNI,2015-04-25T05:35:00Z,39.22,-82.23,8.7,1.1,0,0,,10.0,29.929134,,,TRUE,TRUE,,,,,,,OVC,8000,,,,,,,VFR,,,,,,,,,,,,SPECI,193.0
KUBE 250535Z AUTO 13007KT 10SM OVC036 06/00 A2986 RMK AO2,KUBE,2015-04-25T05:35:00Z,45.5,-91.98,6.0,0.0,130,7,,10.0,29.861221,,,TRUE,TRUE,,,,,,,OVC,3600,,,,,,,VFR,,,,,,,,,,,,SPECI,379.0
KU68 250535Z AUTO 30024G31KT 10SM BKN100 BKN120 11/04 A2957 RMK AO2,KU68,2015-04-25T05:35:00Z,44.92,-108.45,11.0,4.0,300,24,31,10.0,29.568897,,,TRUE,TRUE,,,,,,,BKN,10000,BKN,12000,,,,,VFR,,,,,,,,,,,,SPECI,1247.0
KTZR 250535Z AUTO 00000KT 10SM OVC075 10/03 A2993 RMK AO2 T00990028,KTZR,2015-04-25T05:35:00Z,39.9,-83.13,9.9,2.8,0,0,,10.0,29.929134,,,TRUE,TRUE,,,,,,,OVC,7500,,,,,,,VFR,,,,,,,,,,,,SPECI,276.0
KTOC 250535Z AUTO 00000KT 10SM -DZ OVC100 15/10 A2994 RMK AO2 T01510103,KTOC,2015-04-25T05:35:00Z,34.6,-83.3,15.1,10.3,0,0,,10.0,29.940945,,,TRUE,TRUE,,,,,,-DZ,OVC,10000,,,,,,,VFR,,,,,,,,,,,,SPECI,304.0
KTNU 250535Z AUTO 09016KT 10SM OVC028 09/06 A2964 RMK AO2 PWINO,KTNU,2015-04-25T05:35:00Z,41.67,-93.02,9.0,6.0,90,16,,10.0,29.639763,,,TRUE,TRUE,,,,,TRUE,,OVC,2800,,,,,,,MVFR,,,,,,,,,,,,SPECI,290.0
KTIP 250535Z AUTO 10005KT 10SM BKN038 OVC044 12/05 A2982 RMK AO2 T01200050,KTIP,2015-04-25T05:35:00Z,40.28,-88.15,12.0,5.0,100,5,,10.0,29.819881,,,TRUE,TRUE,,,,,,,BKN,3800,OVC,4400,,,,,VFR,,,,,,,,,,,,SPECI,225.0
KTIF 250535Z AUTO 00000KT 10SM SCT100 OVC120 14/08 A2953 RMK AO2 T01390080,KTIF,2015-04-25T05:35:00Z,41.97,-100.57,13.9,8.0,0,0,,10.0,29.530512,,,TRUE,TRUE,,,,,,,SCT,10000,OVC,12000,,,,,VFR,,,,,,,,,,,,SPECI,892.0
KTDF 250535Z AUTO 00000KT 10SM CLR 05/04 A2994 RMK AO2,KTDF,2015-04-25T05:35:00Z,36.28,-78.98,5.0,4.0,0,0,,10.0,29.940945,,,TRUE,TRUE,,,,,,,CLR,,,,,,,,VFR,,,,,,,,,,,,SPECI,186.0
KT65 250535Z AUTO 17006G14KT 10SM CLR 23/19 A2972 RMK AO2 LTG DSNT NE AND E T02310187,KT65,2015-04-25T05:35:00Z,26.18,-97.97,23.1,18.7,170,6,14,10.0,29.719488,,,TRUE,TRUE,,,,,,,CLR,,,,,,,,VFR,,,,,,,,,,,,SPECI,21.0
KT20 250535Z AUTO 19010KT 5SM HZ OVC006 A2977 RMK AO2 LTG DSNT E THRU S,KT20,2015-04-25T05:35:00Z,29.52,-97.47,,,190,10,,5.0,29.769686,,,TRUE,TRUE,,,,,,HZ,OVC,600,,,,,,,IFR,,,,,,,,,,,,SPECI,108.0
KSVH 250535Z AUTO 00000KT 10SM BKN090 12/04 A2992 RMK AO2 T01180036,KSVH,2015-04-25T05:35:00Z,35.75,-80.95,11.8,3.6,0,0,,10.0,29.920275,,,TRUE,TRUE,,,,,,,BKN,9000,,,,,,,VFR,,,,,,,,,,,,SPECI,294.0
KSOA 250535Z AUTO 36006KT 10SM 18/18 A2988 RMK AO2,KSOA,2015-04-25T05:35:00Z,30.58,-100.65,18.0,18.0,360,6,,10.0,29.878937,,,TRUE,TRUE,,,,,,,,,,,,,,,,,,,,,,,,,,,SPECI,652.0
KSNK 250535Z AUTO 25008KT 10SM CLR 13/03 A2979 RMK AO2 T01330033 TSNO,KSNK,2015-04-25T05:35:00Z,32.7,-100.95,13.3,3.3,250,8,,10.0,29.790354,,,TRUE,TRUE,,,TRUE,,,,CLR,,,,,,,,VFR,,,,,,,,,,,,SPECI,741.0
KSLB 250535Z AUTO 11014KT 6SM BR OVC005 09/08 A2963 RMK AO2,KSLB,2015-04-25T05:35:00Z,42.6,-95.22,9.0,8.0,110,14,,6.0,29.630905,,,TRUE,TRUE,,,,,,BR,OVC,500,,,,,,,IFR,,,,,,,,,,,,SPECI,454.0
KSHL 250535Z AUTO 11014KT 10SM BKN011 OVC033 09/09 A2962 RMK AO2,KSHL,2015-04-25T05:35:00Z,43.22,-95.82,9.0,9.0,110,14,,10.0,29.619095,,,TRUE,TRUE,,,,,,,BKN,1100,OVC,3300,,,,,MVFR,,,,,,,,,,,,SPECI,432.0
KSHD 250535Z AUTO 00000KT 10SM BKN100 06/M02 A2998 RMK AO2 T00571021,KSHD,2015-04-25T05:35:00Z,38.27,-78.9,5.7,-2.1,0,0,,10.0,29.97933,,,TRUE,TRUE,,,,,,,BKN,10000,,,,,,,VFR,,,,,,,,,,,,SPECI,366.0
KSDA 250535Z AUTO 10011G16KT 10SM SCT023 BKN044 OVC055 14/13 A2951 RMK AO2,KSDA,2015-04-25T05:35:00Z,40.75,-95.42,14.0,13.0,100,11,16,10.0,29.509842,,,TRUE,TRUE,,,,,,,SCT,2300,BKN,4400,OVC,5500,,,VFR,,,,,,,,,,,,SPECI,296.0
KHSP 250535Z AUTO 32003KT 10SM CLR 06/M11 A2993 RMK AO2 T00561113,KHSP,2015-04-25T05:35:00Z,37.95,-79.82,5.6,-11.3,320,3,,10.0,29.929134,,,TRUE,TRUE,,,,,,,CLR,,,,,,,,VFR,,,,,,,,,,,,SPECI,1156.0
KHNR 250535Z AUTO 09009G14KT 1 3/4SM BR OVC004 11/11 A2960 RMK AO2,KHNR,2015-04-25T05:35:00Z,41.58,-95.33,11.0,11.0,90,9,14,1.75,29.601377,,,TRUE,TRUE,,,,,,BR,OVC,400,,,,,,,LIFR,,,,,,,,,,,,SPECI,375.0
KHJH 250535Z AUTO 10005KT 2SM RA BKN043 BKN050 OVC075 13/12 A2942 RMK AO2 LTG DSNT NW P0013 T01320122,KHJH,2015-04-25T05:35:00Z,40.15,-97.58,13.2,12.2,100,5,,2.0,29.421259,,,TRUE,TRUE,,,,,,RA,BKN,4300,BKN,5000,OVC,7500,,,IFR,,,,,,0.13,,,,,,SPECI,447.0
KHHW 250535Z AUTO 19008KT 10SM OVC003 17/16 A2970 RMK AO2 T01720163,KHHW,2015-04-25T05:35:00Z,34.03,-95.55,17.2,16.3,190,8,,10.0,29.698818,,,TRUE,TRUE,,,,,,,OVC,300,,,,,,,LIFR,,,,,,,,,,,,SPECI,144.0
KVNC 250535Z AUTO 10007KT 10SM CLR 24/21 A2996 RMK AO2,KVNC,2015-04-25T05:35:00Z,27.07,-82.43,24.0,21.0,100,7,,10.0,29.958662,,,TRUE,TRUE,,,,,,,CLR,,,,,,,,VFR,,,,,,,,,,,,SPECI,6.0
KSRR 250535Z AUTO 27010G20KT 030V040 10SM CLR 09/M04 A3001 RMK AO2,KSRR,2015-04-25T05:35:00Z,33.47,-105.52,9.0,-4.0,270,10,20,10.0,30.008858,,,TRUE,TRUE,,,,,,,CLR,,,,,,,,VFR,,,,,,,,,,,,SPECI,2076.0
KMAN 250535Z AUTO 32010KT 10SM OVC065 10/00 A2978 RMK AO1,KMAN,2015-04-25T05:35:00Z,43.58,-116.52,10.0,0.0,320,10,,10.0,29.778543,,,TRUE,TRUE,,,,,,,OVC,6500,,,,,,,VFR,,,,,,,,,,,,SPECI,774.0
KCKM 250535Z AUTO 09011KT 15/15 A2979 RMK AO1 P0007,KCKM,2015-04-25T05:35:00Z,34.3,-90.52,15.0,15.0,90,11,,,29.790354,,,TRUE,TRUE,,,,,,,,,,,,,,,,,,,,,0.07,,,,,,SPECI,53.0
KBWD 250535Z AUTO 12004KT 4SM BR FEW048 BKN060 14/14 A2978 RMK AO2,KBWD,2015-04-25T05:35:00Z,31.8,-98.95,14.0,14.0,120,4,,4.0,29.778543,,,TRUE,TRUE,,,,,,BR,FEW,4800,BKN,6000,,,,,MVFR,,,,,,,,,,,,SPECI,423.0
K28J 250535Z AUTO 00000KT 10SM FEW016 17/17 A2998 RMK AO2,K28J,2015-04-25T05:35:00Z,29.65,-81.58,17.0,17.0,0,0,,10.0,29.97933,,,TRUE,TRUE,,,,,,,FEW,1600,,,,,,,VFR,,,,,,,,,,,,SPECI,15.0
KTMA 250535Z AUTO 13005KT 10SM CLR 18/12 A2995 RMK AO2 T01810120,KTMA,2015-04-25T05:35:00Z,31.43,-83.48,18.1,12.0,130,5,,10.0,29.949802,,,TRUE,TRUE,,,,,,,CLR,,,,,,,,VFR,,,,,,,,,,,,SPECI,109.0
KSTE 250535Z AUTO 10007KT 7SM RA SCT041 OVC050 02/00 A2996 RMK AO2 T00200002,KSTE,2015-04-25T05:35:00Z,44.55,-89.53,2.0,0.2,100,7,,7.0,29.958662,,,TRUE,TRUE,,,,,,RA,SCT,4100,OVC,5000,,,,,VFR,,,,,,,,,,,,SPECI,338.0
KHRX 250535Z AUTO 10SM CLR 13/01 A2978 RMK AO2 T01310007,KHRX,2015-04-25T05:35:00Z,34.87,-102.33,13.1,0.7,,,,10.0,29.778543,,,TRUE,TRUE,,,,,,,CLR,,,,,,,,VFR,,,,,,,,,,,,SPECI,1154.0
KBUU 250535Z AUTO 08009G14KT 10SM OVC044 03/00 A2993 RMK AO2 T00340001,KBUU,2015-04-25T05:35:00Z,42.68,-88.3,3.4,0.1,80,9,14,10.0,29.929134,,,TRUE,TRUE,,,,,,,OVC,4400,,,,,,,VFR,,,,,,,,,,,,SPECI,237.0
KASJ 250535Z AUTO 00000KT 10SM CLR 05/04 A2993 RMK AO2 T00530039,KASJ,2015-04-25T05:35:00Z,36.28,-77.17,5.3,3.9,0,0,,10.0,29.929134,,,TRUE,TRUE,,,,,,,CLR,,,,,,,,VFR,,,,,,,,,,,,SPECI,21.0
K1F0 250535Z AUTO 20004KT 10SM OVC003 16/16 A2967 RMK AO2,K1F0,2015-04-25T05:35:00Z,34.15,-97.12,16.0,16.0,200,4,,10.0,29.66929,,,TRUE,TRUE,,,,,,,OVC,300,,,,,,,LIFR,,,,,,,,,,,,SPECI,257.0
KMDZ 250535Z AUTO 11005KT 10SM OVC075 04/00 A2991 RMK AO2 T00370000,KMDZ,2015-04-25T05:35:00Z,45.1,-90.3,3.7,0.0,110,5,,10.0,29.911417,,,TRUE,TRUE,,,,,,,OVC,7500,,,,,,,VFR,,,,,,,,,,,,SPECI,448.0
KLWB 250535Z AUTO 36003KT 10SM CLR 05/M02 A2994 RMK AO2 T00471018,KLWB,2015-04-25T05:35:00Z,37.87,-80.4,4.7,-1.8,360,3,,10.0,29.940945,,,TRUE,TRUE,,,,,,,CLR,,,,,,,,VFR,,,,,,,,,,,,SPECI,702.0
KLOT 250535Z AUTO 09014KT 5SM -RA OVC085 05/04 A2984 RMK AO2 P0006 T00510040,KLOT,2015-04-25T05:35:00Z,41.6,-88.1,5.1,4.0,90,14,,5.0,29.840551,,,TRUE,TRUE,,,,,,-RA,OVC,8500,,,,,,,MVFR,,,,,,0.06,,,,,,SPECI,205.0
KLNL 250535Z AUTO 14004KT 10SM SCT060 OVC075 04/M01 A2996 RMK AO2 T00401012,KLNL,2015-04-25T05:35:00Z,46.15,-89.22,4.0,-1.2,140,4,,10.0,29.958662,,,TRUE,TRUE,,,,,,,SCT,6000,OVC,7500,,,,,VFR,,,,,,,,,,,,SPECI,520.0
KLHZ 250535Z AUTO 00000KT 10SM CLR 06/03 A2994 RMK AO2,KLHZ,2015-04-25T05:35:00Z,36.02,-78.33,6.0,3.0,0,0,,10.0,29.940945,,,TRUE,TRUE,,,,,,,CLR,,,,,,,,VFR,,,,,,,,,,,,SPECI,113.0
KJYO 250535Z AUTO 00000KT 10SM CLR 06/M01 A2999 RMK AO2,KJYO,2015-04-25T05:35:00Z,39.07,-77.57,6.0,-1.0,0,0,,10.0,29.991142,,,TRUE,TRUE,,,,,,,CLR,,,,,,,,VFR,,,,,,,,,,,,SPECI,119.0
KJOT 250535Z AUTO 07010KT 4SM -RA SCT080 OVC090 06/05 A2984 RMK AO2 P0008 T00600051,KJOT,2015-04-25T05:35:00Z,41.52,-88.18,6.0,5.1,70,10,,4.0,29.840551,,,TRUE,TRUE,,,,,,-RA,SCT,8000,OVC,9000,,,,,MVFR,,,,,,0.08,,,,,,SPECI,177.0
KIZA 250535Z AUTO 00000KT 10SM SCT013 BKN018 09/06 A3005 RMK AO2,KIZA,2015-04-25T05:35:00Z,34.6,-120.07,9.0,6.0,0,0,,10.0,30.050198,,,TRUE,TRUE,,,,,,,SCT,1300,BKN,1800,,,,,MVFR,,,,,,,,,,,,SPECI,205.0
KIYA 250535Z AUTO 19011G14KT 10SM OVC008 25/24 A2980 RMK AO2 T02500239,KIYA,2015-04-25T05:35:00Z,29.98,-92.08,25.0,23.9,190,11,14,10.0,29.799213,,,TRUE,TRUE,,,,,,,OVC,800,,,,,,,IFR,,,,,,,,,,,,SPECI,5.0
KIOB 250535Z AUTO 00000KT 10SM BKN065 BKN075 OVC090 12/00 A2991 RMK AO2,KIOB,2015-04-25T05:35:00Z,38.05,-83.98,12.0,0.0,0,0,,10.0,29.911417,,,TRUE,TRUE,,,,,,,BKN,6500,BKN,7500,OVC,9000,,,VFR,,,,,,,,,,,,SPECI,311.0
KIKK 250535Z AUTO 05007KT 10SM OVC060 08/03 A2986 RMK AO2 T00820033,KIKK,2015-04-25T05:35:00Z,41.07,-87.85,8.2,3.3,50,7,,10.0,29.861221,,,TRUE,TRUE,,,,,,,OVC,6000,,,,,,,VFR,,,,,,,,,,,,SPECI,192.0
KI16 250535Z AUTO 10SM OVC120 07/03 A2997 RMK AO2 T00700025,KI16,2015-04-25T05:35:00Z,37.6,-81.57,7.0,2.5,,,,10.0,29.970472,,,TRUE,TRUE,,,,,,,OVC,12000,,,,,,,VFR,,,,,,,,,,,,SPECI,544.0
KHZR 250535Z AUTO 00000KT 5SM BR OVC005 23/22 A2981 RMK AO2 T02250217,KHZR,2015-04-25T05:35:00Z,30.72,-91.48,22.5,21.7,0,0,,5.0,29.811024,,,TRUE,TRUE,,,,,,BR,OVC,500,,,,,,,IFR,,,,,,,,,,,,SPECI,12.0
KHWY 250535Z AUTO 00000KT 10SM CLR 02/01 A2997 RMK AO2 T00200009,KHWY,2015-04-25T05:35:00Z,38.58,-77.72,2.0,0.9,0,0,,10.0,29.970472,,,TRUE,TRUE,,,,,,,CLR,,,,,,,,VFR,,,,,,,,,,,,SPECI,103.0
KHQU 250535Z AUTO 00000KT 10SM SCT120 19/11 A2999 RMK AO1 T01850110,KHQU,2015-04-25T05:35:00Z,33.53,-82.52,18.5,11.0,0,0,,10.0,29.991142,,,TRUE,TRUE,,,,,,,SCT,12000,,,,,,,VFR,,,,,,,,,,,,SPECI,152.0
KHMZ 250535Z AUTO 00000KT 10SM CLR 02/M08 A2997 RMK AO2 T00161082,KHMZ,2015-04-25T05:35:00Z,,,1.6,-8.2,0,0,,10.0,29.970472,,,TRUE,TRUE,,,,,,,CLR,,,,,,,,VFR,,,,,,,,,,,,SPECI,
KHII 250535Z AUTO 15005KT 10SM CLR 22/06 A2981 RMK AO2,KHII,2015-04-25T05:35:00Z,34.57,-114.37,22.0,6.0,150,5,,10.0,29.811024,,,TRUE,TRUE,,,,,,,CLR,,,,,,,,VFR,,,,,,,,,,,,SPECI,238.0
KHFJ 250535Z AUTO 15008KT 10SM CLR 14/13 A2959 RMK AO2,KHFJ,2015-04-25T05:35:00Z,36.9,-94.02,14.0,13.0,150,8,,10.0,29.589567,,,TRUE,TRUE,,,,,,,CLR,,,,,,,,VFR,,,,,,,,,,,,SPECI,401.0
KHBV 250535Z AUTO 03004KT 3SM BR 26/25 A2976 RMK AO2 T02600245,KHBV,2015-04-25T05:35:00Z,27.35,-98.73,26.0,24.5,30,4,,3.0,29.760826,,,TRUE,TRUE,,,,,,BR,,,,,,,,,,,,,,,,,,,,,SPECI,202.0
KGZL 250535Z AUTO 13006KT 10SM OVC070 15/15 A2963 RMK AO2,KGZL,2015-04-25T05:35:00Z,35.28,-95.1,15.0,15.0,130,6,,10.0,29.630905,,,TRUE,TRUE,,,,,,,OVC,7000,,,,,,,VFR,,,,,,,,,,,,SPECI,183.0
KGVT 250535Z AUTO 15004KT 10SM SCT004 17/16 A2970 RMK AO2,KGVT,2015-04-25T05:35:00Z,33.07,-96.07,17.0,16.0,150,4,,10.0,29.698818,,,TRUE,TRUE,,,,,,,SCT,400,,,,,,,VFR,,,,,,,,,,,,SPECI,163.0
KGVE 250535Z AUTO 00000KT 10SM CLR 03/00 A2996 RMK AO1 T00321001,KGVE,2015-04-25T05:35:00Z,38.15,-78.17,3.2,-0.1,0,0,,10.0,29.958662,,,TRUE,TRUE,,,,,,,CLR,,,,,,,,VFR,,,,,,,,,,,,SPECI,138.0
KGLE 250535Z AUTO 18008KT 2SM BR OVC003 16/16 A2970 RMK AO2 T01620160,KGLE,2015-04-25T05:35:00Z,33.65,-97.2,16.2,16.0,180,8,,2.0,29.698818,,,TRUE,TRUE,,,,,,BR,OVC,300,,,,,,,LIFR,,,,,,,,,,,,SPECI,256.0
KGHG 250535Z AUTO 27004KT 10SM SCT050 04/M03 A2979 RMK AO2,KGHG,2015-04-25T05:35:00Z,42.1,-70.67,4.0,-3.0,270,4,,10.0,29.790354,,,TRUE,TRUE,,,,,,,SCT,5000,,,,,,,VFR,,,,,,,,,,,,SPECI,4.0
KFZG 250535Z AUTO 16004KT 10SM CLR 18/12 A2997 RMK AO2 T01830116 PWINO,KFZG,2015-04-25T05:35:00Z,31.68,-83.27,18.3,11.6,160,4,,10.0,29.970472,,,TRUE,TRUE,,,,,TRUE,,CLR,,,,,,,,VFR,,,,,,,,,,,,SPECI,111.0
KFXY 250535Z AUTO 10013G17KT 10SM OVC031 06/05 A2970 RMK AO2,KFXY,2015-04-25T05:35:00Z,43.23,-93.62,6.0,5.0,100,13,17,10.0,29.698818,,,TRUE,TRUE,,,,,,,OVC,3100,,,,,,,VFR,,,,,,,,,,,,SPECI,375.0
KFWC 250535Z AUTO 11004KT 10SM OVC022 13/06 A2978 RMK AO1 T01300061,KFWC,2015-04-25T05:35:00Z,38.38,-88.42,13.0,6.1,110,4,,10.0,29.778543,,,TRUE,TRUE,,,,,,,OVC,2200,,,,,,,MVFR,,,,,,,,,,,,SPECI,133.0
KFVX 250535Z AUTO 00000KT 10SM OVC110 09/01 A2994 RMK AO2 T00910007,KFVX,2015-04-25T05:35:00Z,37.35,-78.42,9.1,0.7,0,0,,10.0,29.940945,,,TRUE,TRUE,,,,,,,OVC,11000,,,,,,,VFR,,,,,,,,,,,,SPECI,125.0
KFSW 250535Z AUTO 13009KT 10SM SCT033 OVC041 13/06 A2969 RMK AO2,KFSW,2015-04-25T05:35:00Z,40.67,-91.32,13.0,6.0,130,9,,10.0,29.68996,,,TRUE,TRUE,,,,,,,SCT,3300,OVC,4100,,,,,VFR,,,,,,,,,,,,SPECI,221.0
KFRR 250535Z AUTO 00000KT 10SM CLR 03/M02 A2996 RMK AO1,KFRR,2015-04-25T05:35:00Z,38.92,-78.25,3.0,-2.0,0,0,,10.0,29.958662,,,TRUE,TRUE,,,,,,,CLR,,,,,,,,VFR,,,,,,,,,,,,SPECI,216.0
KFKN 250535Z AUTO 00000KT 10SM CLR 05/02 A2995 RMK AO2 T00470020,KFKN,2015-04-25T05:35:00Z,36.7,-76.9,4.7,2.0,0,0,,10.0,29.949802,,,TRUE,TRUE,,,,,,,CLR,,,,,,,,VFR,,,,,,,,,,,,SPECI,12.0
KFFA 250535Z AUTO 13004KT 10SM CLR 10/06 A2994 RMK AO2 T00980064,KFFA,2015-04-25T05:35:00Z,36.02,-75.67,9.8,6.4,130,4,,10.0,29.940945,,,TRUE,TRUE,,,,,,,CLR,,,,,,,,VFR,,,,,,,,,,,,SPECI,4.0
KF17 250535Z AUTO 18003KT 10SM -RA SCT023 SCT049 BKN065 20/19 A2976 RMK AO2 P0016 T01960185,KF17,2015-04-25T05:35:00Z,31.83,-94.15,19.6,18.5,180,3,,10.0,29.760826,,,TRUE,TRUE,,,,,,-RA,SCT,2300,SCT,4900,BKN,6500,,,VFR,,,,,,0.16,,,,,,SPECI,97.0
KEZF 250535Z AUTO 35010KT 10SM CLR 06/02 A2995 RMK AO2 T00580017,KEZF,2015-04-25T05:35:00Z,38.27,-77.45,5.8,1.7,350,10,,10.0,29.949802,,,TRUE,TRUE,,,,,,,CLR,,,,,,,,VFR,,,,,,,,,,,,SPECI,26.0
KEXX 250535Z AUTO 00000KT 10SM CLR 12/04 A2992 RMK AO2 T01170040,KEXX,2015-04-25T05:35:00Z,35.78,-80.3,11.7,4.0,0,0,,10.0,29.920275,,,TRUE,TRUE,,,,,,,CLR,,,,,,,,VFR,,,,,,,,,,,,SPECI,223.0
KT82 250535Z AUTO 00000KT 3SM BR BKN008 OVC014 20/20 A2981 RMK AO2 T02000195,KT82,2015-04-25T05:35:00Z,30.25,-98.92,20.0,19.5,0,0,,3.0,29.811024,,,TRUE,TRUE,,,,,,BR,BKN,800,OVC,1400,,,,,IFR,,,,,,,,,,,,SPECI,517.0
KT35 250535Z AUTO 00000KT 10SM BKN024 24/23 A2972 RMK AO2 T02390225,KT35,2015-04-25T05:35:00Z,30.88,-96.97,23.9,22.5,0,0,,10.0,29.719488,,,TRUE,TRUE,,,,,,,BKN,2400,,,,,,,MVFR,,,,,,,,,,,,SPECI,123.0
KSYF 250535Z AUTO 24008KT 10SM CLR 10/05 A2960 RMK AO2 T00980054,KSYF,2015-04-25T05:35:00Z,39.77,-101.8,9.8,5.4,240,8,,10.0,29.601377,,,TRUE,TRUE,,,,,,,CLR,,,,,,,,VFR,,,,,,,,,,,,SPECI,1025.0
KSUW 250535Z AUTO 06009G16KT 10SM OVC065 02/00 A2994 RMK AO2 T00171002,KSUW,2015-04-25T05:35:00Z,46.68,-92.1,1.7,-0.2,60,9,16,10.0,29.940945,,,TRUE,TRUE,,,,,,,OVC,6500,,,,,,,VFR,,,,,,,,,,,,SPECI,206.0
KSPF 250535Z AUTO 10SM CLR 05/00 A2965 RMK AO2,KSPF,2015-04-25T05:35:00Z,44.47,-103.77,5.0,0.0,,,,10.0,29.648623,,,TRUE,TRUE,,,,,,,CLR,,,,,,,,VFR,,,,,,,,,,,,SPECI,1188.0
KSME 250535Z AUTO 00000KT 10SM OVC048 12/05 A2989 RMK AO2,KSME,2015-04-25T05:35:00Z,37.05,-84.62,12.0,5.0,0,0,,10.0,29.890747,,,TRUE,TRUE,,,,,,,OVC,4800,,,,,,,VFR,,,,,,,,,,,,SPECI,283.0
KSFQ 250535Z AUTO 00000KT 10SM CLR 06/04 A2996 RMK AO2 T00590043,KSFQ,2015-04-25T05:35:00Z,36.68,-76.6,5.9,4.3,0,0,,10.0,29.958662,,,TRUE,TRUE,,,,,,,CLR,,,,,,,,VFR,,,,,,,,,,,,SPECI,22.0
KSEZ 250535Z AUTO 17007KT 10SM SCT029 SCT035 10/07 A2998 RMK AO2,KSEZ,2015-04-25T05:35:00Z,34.85,-111.78,10.0,7.0,170,7,,10.0,29.97933,,,TRUE,TRUE,,,,,,,SCT,2900,SCT,3500,,,,,VFR,,,,,,,,,,,,SPECI,1473.0
KSEE 250535Z AUTO 14004KT 10SM FEW020 SCT025 BKN029 14/11 A3005 RMK AO2,KSEE,2015-04-25T05:35:00Z,32.82,-116.97,14.0,11.0,140,4,,10.0,30.050198,,,TRUE,TRUE,,,,,,,FEW,2000,SCT,2500,BKN,2900,,,MVFR,,,,,,,,,,,,SPECI,117.0
KRYV 250535Z AUTO 09008KT 10SM OVC038 04/02 A2993 RMK AO2 T00350016,KRYV,2015-04-25T05:35:00Z,43.17,-88.72,3.5,1.6,90,8,,10.0,29.929134,,,TRUE,TRUE,,,,,,,OVC,3800,,,,,,,VFR,,,,,,,,,,,,SPECI,254.0
KRWV 250535Z AUTO 00000KT 6SM BR CLR 23/23 A2973 RMK AO2,KRWV,2015-04-25T05:35:00Z,30.52,-96.7,23.0,23.0,0,0,,6.0,29.731298,,,TRUE,TRUE,,,,,,BR,CLR,,,,,,,,VFR,,,,,,,,,,,,SPECI,119.0
KRPH 250535Z AUTO 19004KT 10SM CLR 16/16 A2968 RMK AO2 T01610158,KRPH,2015-04-25T05:35:00Z,33.12,-98.55,16.1,15.8,190,4,,10.0,29.681103,,,TRUE,TRUE,,,,,,,CLR,,,,,,,,VFR,,,,,,,,,,,,SPECI,342.0
KRNH 250535Z AUTO 11012G19KT 10SM OVC034 06/02 A2983 RMK AO2 T00630015,KRNH,2015-04-25T05:35:00Z,45.15,-92.53,6.3,1.5,110,12,19,10.0,29.828741,,,TRUE,TRUE,,,,,,,OVC,3400,,,,,,,VFR,,,,,,,,,,,,SPECI,304.0
KPYX 250535Z AUTO 00000KT 10SM CLR 11/08 A2961 RMK AO2 T01070080,KPYX,2015-04-25T05:35:00Z,36.42,-100.75,10.7,8.0,0,0,,10.0,29.610237,,,TRUE,TRUE,,,,,,,CLR,,,,,,,,VFR,,,,,,,,,,,,SPECI,889.0
KPVW 250535Z AUTO 26008KT 10SM CLR 13/01 A2976 RMK AO2 T01270010,KPVW,2015-04-25T05:35:00Z,34.17,-101.72,12.7,1.0,260,8,,10.0,29.760826,,,TRUE,TRUE,,,,,,,CLR,,,,,,,,VFR,,,,,,,,,,,,SPECI,1028.0
KPVB 250535Z AUTO 08019G23KT 10SM OVC048 05/03 A2982 RMK AO1 T00510026,KPVB,2015-04-25T05:35:00Z,42.68,-90.43,5.1,2.6,80,19,23,10.0,29.819881,,,TRUE,TRUE,,,,,,,OVC,4800,,,,,,,VFR,,,,,,,,,,,,SPECI,313.0
KPTB 250535Z AUTO 04004KT 10SM SCT110 08/01 A2995 RMK AO2 T00810014,KPTB,2015-04-25T05:35:00Z,37.17,-77.52,8.1,1.4,40,4,,10.0,29.949802,,,TRUE,TRUE,,,,,,,SCT,11000,,,,,,,VFR,,,,,,,,,,,,SPECI,59.0
KPSK 250535Z AUTO 00000KT 10SM CLR 07/M01 A2994 RMK AO2 T00711012,KPSK,2015-04-25T05:35:00Z,37.12,-80.67,7.1,-1.2,0,0,,10.0,29.940945,,,TRUE,TRUE,,,,,,,CLR,,,,,,,,VFR,,,,,,,,,,,,SPECI,642.0
KPRS 250535Z AUTO 04003KT 10SM CLR 19/M04 A2991 RMK AO2 T01861045,KPRS,2015-04-25T05:35:00Z,29.63,-104.35,18.6,-4.5,40,3,,10.0,29.911417,,,TRUE,TRUE,,,,,,,CLR,,,,,,,,VFR,,,,,,,,,,,,SPECI,896.0
KPPA 250535Z AUTO 26015KT 10SM CLR 16/M03 A2966 RMK AO2 T01561031,KPPA,2015-04-25T05:35:00Z,35.62,-101.0,15.6,-3.1,260,15,,10.0,29.660433,,,TRUE,TRUE,,,,,,,CLR,,,,,,,,VFR,,,,,,,,,,,,SPECI,989.0
KPNT 250535Z AUTO 07016KT 10SM OVC046 09/03 A2982 RMK AO2 T00860032,KPNT,2015-04-25T05:35:00Z,40.92,-88.62,8.6,3.2,70,16,,10.0,29.819881,,,TRUE,TRUE,,,,,,,OVC,4600,,,,,,,VFR,,,,,,,,,,,,SPECI,201.0
KPNA 250535Z AUTO 00000KT 10SM OVC017 02/02 A2975 RMK AO2,KPNA,2015-04-25T05:35:00Z,42.8,-109.8,2.0,2.0,0,0,,10.0,29.749016,,,TRUE,TRUE,,,,,,,OVC,1700,,,,,,,MVFR,,,,,,,,,,,,SPECI,2160.0
KPGV 250535Z AUTO 22004KT 10SM CLR 11/04 A2997 RMK AO2,KPGV,2015-04-25T05:35:00Z,35.62,-77.4,11.0,4.0,220,4,,10.0,29.970472,,,TRUE,TRUE,,,,,,,CLR,,,,,,,,VFR,,,,,,,,,,,,SPECI,8.0
KPEA 250535Z AUTO 11009G14KT 10SM OVC029 10/08 A2965 RMK AO2 T00970081,KPEA,2015-04-25T05:35:00Z,41.4,-92.95,9.7,8.1,110,9,14,10.0,29.648623,,,TRUE,TRUE,,,,,,,OVC,2900,,,,,,,MVFR,,,,,,,,,,,,SPECI,270.0
KOOA 250535Z AUTO 09012KT 10SM OVC031 10/06 A2965 RMK AO2 T01000062,KOOA,2015-04-25T05:35:00Z,41.23,-92.5,10.0,6.2,90,12,,10.0,29.648623,,,TRUE,TRUE,,,,,,,OVC,3100,,,,,,,VFR,,,,,,,,,,,,SPECI,256.0
KOLY 250535Z AUTO 14008KT 10SM OVC024 12/05 A2979 RMK AO2,KOLY,2015-04-25T05:35:00Z,38.72,-88.18,12.0,5.0,140,8,,10.0,29.790354,,,TRUE,TRUE,,,,,,,OVC,2400,,,,,,,MVFR,,,,,,,,,,,,SPECI,147.0
KOKM 250535Z AUTO 19013G19KT 130V200 10SM CLR 16/15 A2960 RMK AO2 T01560148,KOKM,2015-04-25T05:35:00Z,35.67,-95.95,15.6,14.8,190,13,19,10.0,29.601377,,,TRUE,TRUE,,,,,,,CLR,,,,,,,,VFR,,,,,,,,,,,,SPECI,220.0
KOCQ 250535Z AUTO 00000KT 10SM OVC090 03/M03 A3001 RMK AO1 T00301031,KOCQ,2015-04-25T05:35:00Z,44.87,-87.92,3.0,-3.1,0,0,,10.0,30.008858,,,TRUE,TRUE,,,,,,,OVC,9000,,,,,,,VFR,,,,,,,,,,,,SPECI,183.0
KNY0 250535Z AUTO 28010KT 10SM CLR M02/M06 A2985 RMK AO2 T10181061,KNY0,2015-04-25T05:35:00Z,42.98,-74.33,-1.8,-6.1,280,10,,10.0,29.84941,,,TRUE,TRUE,,,,,,,CLR,,,,,,,,VFR,,,,,,,,,,,,SPECI,271.0
KMYZ 250535Z AUTO 15013G22KT 10SM OVC009 13/12 A2938 RMK AO2 LTG DSNT NE,KMYZ,2015-04-25T05:35:00Z,39.25,-96.63,13.0,12.0,150,13,22,10.0,29.379921,,,TRUE,TRUE,,,,,,,OVC,900,,,,,,,IFR,,,,,,,,,,,,SPECI,319.0
KMWK 250535Z AUTO 00000KT CLR 10/03 A2994 RMK AO2 T00950031 PWINO,KMWK,2015-04-25T05:35:00Z,36.47,-80.55,9.5,3.1,0,0,,,29.940945,,,TRUE,TRUE,,,,,TRUE,,CLR,,,,,,,,,,,,,,,,,,,,SPECI,380.0
KMTV 250535Z AUTO 00000KT 10SM CLR 06/03 A2995 RMK AO2 T00560034,KMTV,2015-04-25T05:35:00Z,36.63,-80.02,5.6,3.4,0,0,,10.0,29.949802,,,TRUE,TRUE,,,,,,,CLR,,,,,,,,VFR,,,,,,,,,,,,SPECI,287.0
KMPZ 250535Z AUTO 09009KT 10SM BKN038 BKN046 BKN085 12/03 A2968 RMK AO2 T01150025,KMPZ,2015-04-25T05:35:00Z,40.95,-91.52,11.5,2.5,90,9,,10.0,29.681103,,,TRUE,TRUE,,,,,,,BKN,3800,BKN,4600,BKN,8500,,,VFR,,,,,,,,,,,,SPECI,224.0
KMMU 250535Z AUTO 00000KT 10SM CLR 04/M06 A2993 RMK AO2,KMMU,2015-04-25T05:35:00Z,40.78,-74.42,4.0,-6.0,0,0,,10.0,29.929134,,,TRUE,TRUE,,,,,,,CLR,,,,,,,,VFR,,,,,,,,,,,,SPECI,57.0
KMGC 250535Z AUTO 05005KT 10SM -DZ OVC050 06/05 A2992 RMK AO2,KMGC,2015-04-25T05:35:00Z,41.7,-86.82,6.0,5.0,50,5,,10.0,29.920275,,,TRUE,TRUE,,,,,,-DZ,OVC,5000,,,,,,,VFR,,,,,,,,,,,,SPECI,200.0
KY51 250535Z AUTO 10019G23KT 10SM OVC043 04/03 A2983 RMK AO1 T00400026,KY51,2015-04-25T05:35:00Z,43.58,-90.9,4.0,2.6,100,19,23,10.0,29.828741,,,TRUE,TRUE,,,,,,,OVC,4300,,,,,,,VFR,,,,,,,,,,,,SPECI,394.0
KY49 250535Z AUTO 09007KT 10SM BKN027 OVC034 04/00 A2984 RMK AO2 T00430000,KY49,2015-04-25T05:35:00Z,47.13,-94.65,4.3,0.0,90,7,,10.0,29.840551,,,TRUE,TRUE,,,,,,,BKN,2700,OVC,3400,,,,,MVFR,,,,,,,,,,,,SPECI,416.0
KY23 250535Z AUTO 11011G18KT 10SM OVC040 07/00 A2988 RMK AO2 T00700000,KY23,2015-04-25T05:35:00Z,45.3,-91.63,7.0,0.0,110,11,18,10.0,29.878937,,,TRUE,TRUE,,,,,,,OVC,4000,,,,,,,VFR,,,,,,,,,,,,SPECI,322.0
KW99 250535Z AUTO 00000KT 10SM CLR 02/M03 A2999 RMK AO2 T00201031,KW99,2015-04-25T05:35:00Z,39.0,-79.15,2.0,-3.1,0,0,,10.0,29.991142,,,TRUE,TRUE,,,,,,,CLR,,,,,,,,VFR,,,,,,,,,,,,SPECI,293.0
KW81 250535Z AUTO 00000KT 10SM SCT110 06/02 A2994 RMK AO1 T00620017,KW81,2015-04-25T05:35:00Z,37.18,-78.1,6.2,1.7,0,0,,10.0,29.940945,,,TRUE,TRUE,,,,,,,SCT,11000,,,,,,,VFR,,,,,,,,,,,,SPECI,129.0
KW78 250535Z AUTO 00000KT 10SM CLR 06/04 A2993 RMK AO1 T00550038,KW78,2015-04-25T05:35:00Z,36.68,-78.85,5.5,3.8,0,0,,10.0,29.929134,,,TRUE,TRUE,,,,,,,CLR,,,,,,,,VFR,,,,,,,,,,,,SPECI,129.0
KVYS 250535Z AUTO 07011KT 10SM -RA SCT047 BKN060 OVC090 08/04 A2981 RMK AO2 P0001 T00770040,KVYS,2015-04-25T05:35:00Z,41.35,-89.15,7.7,4.0,70,11,,10.0,29.811024,,,TRUE,TRUE,,,,,,-RA,SCT,4700,BKN,6000,OVC,9000,,,VFR,,,,,,0.01,,,,,,SPECI,199.0
KVVG 250535Z AUTO 00000KT 10SM 20/20 A2989 RMK A01,KVVG,2015-04-25T05:35:00Z,28.95,-81.97,20.0,20.0,0,0,,10.0,29.890747,,,TRUE,TRUE,,,,,,,,,,,,,,,,,,,,,,,,,,,SPECI,27.0
KVES 250535Z AUTO 06003KT 10SM -RA OVC070 10/02 A2991 RMK AO2,KVES,2015-04-25T05:35:00Z,40.2,-84.53,10.0,2.0,60,3,,10.0,29.911417,,,TRUE,TRUE,,,,,,-RA,OVC,7000,,,,,,,VFR,,,,,,,,,,,,SPECI,307.0
KVDI 250535Z AUTO 15005KT 10SM CLR 17/11 A2996 RMK AO2,KVDI,2015-04-25T05:35:00Z,32.2,-82.37,17.0,11.0,150,5,,10.0,29.958662,,,TRUE,TRUE,,,,,,,CLR,,,,,,,,VFR,,,,,,,,,,,,SPECI,84.0
KUNU 250535Z AUTO 07011KT 10SM SCT041 OVC049 03/01 A2995 RMK AO2 T00310006,KUNU,2015-04-25T05:35:00Z,43.42,-88.7,3.1,0.6,70,11,,10.0,29.949802,,,TRUE,TRUE,,,,,,,SCT,4100,OVC,4900,,,,,VFR,,,,,,,,,,,,SPECI,285.0
KUKF 250535Z AUTO 00000KT 10SM CLR 08/02 A2997 RMK AO2,KUKF,2015-04-25T05:35:00Z,36.22,-81.1,8.0,2.0,0,0,,10.0,29.970472,,,TRUE,TRUE,,,,,,,CLR,,,,,,,,VFR,,,,,,,,,,,,SPECI,396.0
KUES 250535Z AUTO 06008KT 10SM OVC048 02/00 A2996 RMK AO2,KUES,2015-04-25T05:35:00Z,43.05,-88.25,2.0,0.0,60,8,,10.0,29.958662,,,TRUE,TRUE,,,,,,,OVC,4800,,,,,,,VFR,,,,,,,,,,,,SPECI,278.0
KTVK 250535Z AUTO 12006KT 10SM OVC028 13/11 A2965 RMK AO2,KTVK,2015-04-25T05:35:00Z,40.68,-92.9,13.0,11.0,120,6,,10.0,29.648623,,,TRUE,TRUE,,,,,,,OVC,2800,,,,,,,MVFR,,,,,,,,,,,,SPECI,314.0
KTRK 250535Z AUTO 18007KT 10SM BKN036 BKN045 BKN050 02/M01 A2990 RMK AO2,KTRK,2015-04-25T05:35:00Z,39.32,-120.12,2.0,-1.0,180,7,,10.0,29.899607,,,TRUE,TRUE,,,,,,,BKN,3600,BKN,4500,BKN,5000,,,VFR,,,,,,,,,,,,SPECI,1798.0
KTFP 250535Z AUTO 14017G22KT 5SM VCTSRA SCT047 SCT065 BKN110 26/24 A2973 RMK AO2 LTG DSNT NE THRU S P0001 T02550240,KTFP,2015-04-25T05:35:00Z,27.92,-97.22,25.5,24.0,140,17,22,5.0,29.731298,,,TRUE,TRUE,,,,,,VCTSRA,SCT,4700,SCT,6500,BKN,11000,,,MVFR,,,,,,0.01,,,,,,SPECI,6.0
KTAZ 250535Z AUTO 14005KT 10SM SCT026 BKN060 OVC100 12/03 A2976 RMK AO2 LTG DSNT SW,KTAZ,2015-04-25T05:35:00Z,39.53,-89.33,12.0,3.0,140,5,,10.0,29.760826,,,TRUE,TRUE,,,,,,,SCT,2600,BKN,6000,OVC,10000,,,VFR,,,,,,,,,,,,SPECI,190.0
KENL 250535Z AUTO 14006KT 10SM OVC018 13/05 A2976 RMK AO2 T01300053,KENL,2015-04-25T05:35:00Z,38.52,-89.1,13.0,5.3,140,6,,10.0,29.760826,,,TRUE,TRUE,,,,,,,OVC,1800,,,,,,,MVFR,,,,,,,,,,,,SPECI,163.0
KEMV 250535Z AUTO 00000KT 10SM CLR 03/02 A2995 RMK AO2,KEMV,2015-04-25T05:35:00Z,36.68,-77.48,3.0,2.0,0,0,,10.0,29.949802,,,TRUE,TRUE,,,,,,,CLR,,,,,,,,VFR,,,,,,,,,,,,SPECI,39.0
KEMM 250535Z AUTO 24010KT 10SM DZ SCT007 BKN018 OVC030 03/02 A2975 RMK AO2 P0001,KEMM,2015-04-25T05:35:00Z,41.82,-110.55,3.0,2.0,240,10,,10.0,29.749016,,,TRUE,TRUE,,,,,,DZ,SCT,700,BKN,1800,OVC,3000,,,MVFR,,,,,,0.01,,,,,,SPECI,2220.0
KELA 250535Z AUTO 16012KT 5SM BR CLR 24/24 A2971 RMK AO2 T02400236,KELA,2015-04-25T05:35:00Z,29.6,-96.32,24.0,23.6,160,12,,5.0,29.71063,,,TRUE,TRUE,,,,,,BR,CLR,,,,,,,,MVFR,,,,,,,,,,,,SPECI,56.0
KEFT 250535Z AUTO 07013G20KT 10SM OVC046 04/01 A2986 RMK AO2,KEFT,2015-04-25T05:35:00Z,42.62,-89.6,4.0,1.0,70,13,20,10.0,29.861221,,,TRUE,TRUE,,,,,,,OVC,4600,,,,,,,VFR,,,,,,,,,,,,SPECI,331.0
KECU 250535Z AUTO 00000KT 3SM BR CLR 20/20 A2986 RMK AO2,KECU,2015-04-25T05:35:00Z,29.95,-100.17,20.0,20.0,0,0,,3.0,29.861221,,,TRUE,TRUE,,,,,,BR,CLR,,,,,,,,MVFR,,,,,,,,,,,,SPECI,725.0
KEBS 250535Z AUTO 09013G19KT 10SM OVC021 08/08 A2965 RMK AO2,KEBS,2015-04-25T05:35:00Z,42.42,-93.87,8.0,8.0,90,13,19,10.0,29.648623,,,TRUE,TRUE,,,,,,,OVC,2100,,,,,,,MVFR,,,,,,,,,,,,SPECI,342.0
KEBA 250535Z AUTO 00000KT 10SM BKN110 18/14 A2996 RMK AO2 T01790143,KEBA,2015-04-25T05:35:00Z,34.1,-82.82,17.9,14.3,0,0,,10.0,29.958662,,,TRUE,TRUE,,,,,,,BKN,11000,,,,,,,VFR,,,,,,,,,,,,SPECI,184.0
KDWX 250535Z AUTO 06004KT 10SM OVC080 03/01 A2979 RMK AO2 T00340012,KDWX,2015-04-25T05:35:00Z,41.03,-107.5,3.4,1.2,60,4,,10.0,29.790354,,,TRUE,TRUE,,,,,,,OVC,8000,,,,,,,VFR,,,,,,,,,,,,SPECI,1996.0
KDTA 250535Z AUTO 00000KT 10SM BKN025 BKN034 OVC075 09/07 A2983 RMK AO1 T00860068,KDTA,2015-04-25T05:35:00Z,39.38,-112.5,8.6,6.8,0,0,,10.0,29.828741,,,TRUE,TRUE,,,,,,,BKN,2500,BKN,3400,OVC,7500,,,MVFR,,,,,,,,,,,,SPECI,1402.0
KDNN 250535Z AUTO 00000KT 10SM OVC095 14/12 A2992 RMK AO2,KDNN,2015-04-25T05:35:00Z,34.72,-84.87,14.0,12.0,0,0,,10.0,29.920275,,,TRUE,TRUE,,,,,,,OVC,9500,,,,,,,VFR,,,,,,,,,,,,SPECI,216.0
KD25 250535Z AUTO 14006KT 10SM SCT044 SCT055 OVC080 04/M01 A2993 RMK AO2 T00431011,KD25,2015-04-25T05:35:00Z,46.12,-89.88,4.3,-1.1,140,6,,10.0,29.929134,,,TRUE,TRUE,,,,,,,SCT,4400,SCT,5500,OVC,8000,,,VFR,,,,,,,,,,,,SPECI,491.0
KCXE 250535Z AUTO 00000KT 10SM CLR 08/03 A2992 RMK AO1 T00760030,KCXE,2015-04-25T05:35:00Z,36.78,-78.5,7.6,3.0,0,0,,10.0,29.920275,,,TRUE,TRUE,,,,,,,CLR,,,,,,,,VFR,,,,,,,,,,,,SPECI,153.0
KCWV 250535Z AUTO 00000KT 10SM CLR 17/11 A2997 RMK AO2,KCWV,2015-04-25T05:35:00Z,32.2,-81.87,17.0,11.0,0,0,,10.0,29.970472,,,TRUE,TRUE,,,,,,,CLR,,,,,,,,VFR,,,,,,,,,,,,SPECI,33.0
KCWA 250535Z AUTO 11008KT 10SM OVC055 03/M01 A2995 RMK AO2,KCWA,2015-04-25T05:35:00Z,44.78,-89.67,3.0,-1.0,110,8,,10.0,29.949802,,,TRUE,TRUE,,,,,,,OVC,5500,,,,,,,VFR,,,,,,,,,,,,SPECI,389.0
KCVB 250535Z AUTO 11003KT 7SM SCT009 20/19 A2978 RMK AO2 T02000185,KCVB,2015-04-25T05:35:00Z,29.35,-98.85,20.0,18.5,110,3,,7.0,29.778543,,,TRUE,TRUE,,,,,,,SCT,900,,,,,,,VFR,,,,,,,,,,,,SPECI,235.0
KCQF 250535Z AUTO 16010KT 10SM OVC007 23/22 A2983 RMK AO2,KCQF,2015-04-25T05:35:00Z,30.47,-87.88,23.0,22.0,160,10,,10.0,29.828741,,,TRUE,TRUE,,,,,,,OVC,700,,,,,,,IFR,,,,,,,,,,,,SPECI,28.0
KCQB 250535Z AUTO 19011G20KT 10SM OVC008 17/17 A2958 RMK AO2,KCQB,2015-04-25T05:35:00Z,35.72,-96.82,17.0,17.0,190,11,20,10.0,29.58071,,,TRUE,TRUE,,,,,,,OVC,800,,,,,,,IFR,,,,,,,,,,,,SPECI,300.0
KCMY 250535Z AUTO 10017G22KT 10SM BKN015 OVC045 05/02 A2988 RMK AO2 T00460021,KCMY,2015-04-25T05:35:00Z,43.97,-90.73,4.6,2.1,100,17,22,10.0,29.878937,,,TRUE,TRUE,,,,,,,BKN,1500,OVC,4500,,,,,MVFR,,,,,,,,,,,,SPECI,256.0
KCKP 250535Z AUTO 10009KT 10SM SCT015 OVC026 10/09 A2962 RMK AO2 T00980085,KCKP,2015-04-25T05:35:00Z,42.73,-95.55,9.8,8.5,100,9,,10.0,29.619095,,,TRUE,TRUE,,,,,,,SCT,1500,OVC,2600,,,,,MVFR,,,,,,,,,,,,SPECI,374.0
KCBK 250535Z AUTO 22008KT 10SM CLR 11/08 A2959 RMK AO2,KCBK,2015-04-25T05:35:00Z,39.43,-101.05,11.0,8.0,220,8,,10.0,29.589567,,,TRUE,TRUE,,,,,,,CLR,,,,,,,,VFR,,,,,,,,,,,,SPECI,971.0
KC75 250535Z AUTO 09013G18KT 10SM OVC044 08/03 A2978 RMK AO2 LTG DSNT SW T00790030,KC75,2015-04-25T05:35:00Z,41.02,-89.38,7.9,3.0,90,13,18,10.0,29.778543,,,TRUE,TRUE,,,,,,,OVC,4400,,,,,,,VFR,,,,,,,,,,,,SPECI,173.0
KC29 250535Z AUTO 10010KT 10SM OVC031 05/02 A2990 RMK AO1 T00500017,KC29,2015-04-25T05:35:00Z,43.12,-89.53,5.0,1.7,100,10,,10.0,29.899607,,,TRUE,TRUE,,,,,,,OVC,3100,,,,,,,VFR,,,,,,,,,,,,SPECI,283.0
KC09 250535Z AUTO 07011G14KT 7SM -RA OVC090 06/05 A2980 RMK AO2 T00580046,KC09,2015-04-25T05:35:00Z,41.43,-88.42,5.8,4.6,70,11,14,7.0,29.799213,,,TRUE,TRUE,,,,,,-RA,OVC,9000,,,,,,,VFR,,,,,,,,,,,,SPECI,178.0
KBQP 250535Z AUTO 29006G16KT 10SM -RA SCT019 SCT030 OVC100 19/18 A2979 RMK AO2 LTG DSNT ALQS P0003 T01850178,KBQP,2015-04-25T05:35:00Z,32.75,-91.88,18.5,17.8,290,6,16,10.0,29.790354,,,TRUE,TRUE,,,,,,-RA,SCT,1900,SCT,3000,OVC,10000,,,VFR,,,,,,0.03,,,,,,SPECI,51.0
KBPG 250535Z AUTO 24006KT 10SM CLR 17/M02 A2984 RMK AO2 T01741025,KBPG,2015-04-25T05:35:00Z,32.22,-101.52,17.4,-2.5,240,6,,10.0,29.840551,,,TRUE,TRUE,,,,,,,CLR,,,,,,,,VFR,,,,,,,,,,,,SPECI,784.0
KARV 250535Z AUTO 13007KT 10SM BKN044 OVC075 05/00 A2993 RMK AO2 T00530000,KARV,2015-04-25T05:35:00Z,45.92,-89.72,5.3,0.0,130,7,,10.0,29.929134,,,TRUE,TRUE,,,,,,,BKN,4400,OVC,7500,,,,,VFR,,,,,,,,,,,,SPECI,496.0
KAQO 250535Z AUTO 00000KT 10SM CLR 19/18 A2980 RMK AO2,KAQO,2015-04-25T05:35:00Z,30.78,-98.67,19.0,18.0,0,0,,10.0,29.799213,,,TRUE,TRUE,,,,,,,CLR,,,,,,,,VFR,,,,,,,,,,,,SPECI,336.0
KACP 250535Z AUTO 31003KT 5SM BR SCT007 BKN012 BKN026 23/22 A2981 RMK AO2 LTG DSNT N T02250219,KACP,2015-04-25T05:35:00Z,30.75,-92.68,22.5,21.9,310,3,,5.0,29.811024,,,TRUE,TRUE,,,,,,BR,SCT,700,BKN,1200,BKN,2600,,,MVFR,,,,,,,,,,,,SPECI,33.0
K7L2 250535Z AUTO 08014KT 9SM BKN009 07/07 A2969 RMK AO2,K7L2,2015-04-25T05:35:00Z,46.22,-100.25,7.0,7.0,80,14,,9.0,29.68996,,,TRUE,TRUE,,,,,,,BKN,900,,,,,,,IFR,,,,,,,,,,,,SPECI,543.0
K3T5 250535Z AUTO 22005KT 5SM BR BKN008 25/24 A2973 RMK AO2 T02500242,K3T5,2015-04-25T05:35:00Z,29.9,-96.95,25.0,24.2,220,5,,5.0,29.731298,,,TRUE,TRUE,,,,,,BR,BKN,800,,,,,,,IFR,,,,,,,,,,,,SPECI,99.0
K3N8 250535Z AUTO 11006KT 10SM OVC023 06/00 A2981 RMK AO2 T00570000,K3N8,2015-04-25T05:35:00Z,47.25,-95.88,5.7,0.0,110,6,,10.0,29.811024,,,TRUE,TRUE,,,,,,,OVC,2300,,,,,,,MVFR,,,,,,,,,,,,SPECI,383.0
K0F2 250535Z AUTO 00000KT 1/4SM FG OVC002 16/16 A2968 RMK AO2 T01560155,K0F2,2015-04-25T05:35:00Z,33.6,-97.78,15.6,15.5,0,0,,0.25,29.681103,,,TRUE,TRUE,,,,,,FG,OVC,200,,,,,,,LIFR,,,,,,,,,,,,SPECI,336.0
PAAD 250535Z AUTO 09018KT 10SM OVC006 M01/M02 A2988 RMK AO2,PAAD,2015-04-25T05:35:00Z,70.13,-146.28,-1.0,-2.0,90,18,,10.0,29.878937,,,TRUE,TRUE,,,,,,,OVC,600,,,,,,,IFR,,,,,,,,,,,,SPECI,8.0
KROX 250534Z AUTO 09007KT 10SM OVC033 05/01 A2988 RMK AO2,KROX,2015-04-25T05:34:00Z,48.85,-95.7,5.0,1.0,90,7,,10.0,29.878937,,,TRUE,TRUE,,,,,,,OVC,3300,,,,,,,VFR,,,,,,,,,,,,METAR,323.0
KPWC 250534Z AUTO 09009KT 10SM OVC030 04/00 A2988 RMK AO2,KPWC,2015-04-25T05:34:00Z,46.72,-94.37,4.0,0.0,90,9,,10.0,29.878937,,,TRUE,TRUE,,,,,,,OVC,3000,,,,,,,MVFR,,,,,,,,,,,,METAR,395.0
KPNM 250534Z AUTO 10006KT 10SM OVC024 08/04 A2982 RMK AO2,KPNM,2015-04-25T05:34:00Z,45.57,-93.6,8.0,4.0,100,6,,10.0,29.819881,,,TRUE,TRUE,,,,,,,OVC,2400,,,,,,,MVFR,,,,,,,,,,,,METAR,298.0
KPEX 250534Z AUTO 06010G14KT 10SM OVC008 05/04 A2978 RMK AO2 T00450037,KPEX,2015-04-25T05:34:00Z,45.37,-94.73,4.5,3.7,60,10,14,10.0,29.778543,,,TRUE,TRUE,,,,,,,OVC,800,,,,,,,IFR,,,,,,,,,,,,METAR,360.0
KOSC 250534Z AUTO 00000KT 10SM CLR M03/M05 A3003 RMK AO2 T10311055,KOSC,2015-04-25T05:34:00Z,44.45,-83.4,-3.1,-5.5,0,0,,10.0,30.029528,,,TRUE,TRUE,,,,,,,CLR,,,,,,,,VFR,,,,,,,,,,,,SPECI,193.0
KONZ 250534Z AUTO 12003KT 10SM DZ OVC033 06/02 A3001 RMK AO2,KONZ,2015-04-25T05:34:00Z,42.1,-83.15,6.0,2.0,120,3,,10.0,30.008858,,,TRUE,TRUE,,,,,,DZ,OVC,3300,,,,,,,VFR,,,,,,,,,,,,METAR,180.0
KMVE 250534Z AUTO 13012KT 10SM OVC013 07/05 A2975 RMK AO2,KMVE,2015-04-25T05:34:00Z,44.97,-95.72,7.0,5.0,130,12,,10.0,29.749016,,,TRUE,TRUE,,,,,,,OVC,1300,,,,,,,MVFR,,,,,,,,,,,,METAR,315.0
KLYV 250534Z AUTO 13008KT 7SM OVC007 10/07 A2966 RMK AO2 LTG DSNT W THRU N,KLYV,2015-04-25T05:34:00Z,43.62,-96.22,10.0,7.0,130,8,,7.0,29.660433,,,TRUE,TRUE,,,,,,,OVC,700,,,,,,,IFR,,,,,,,,,,,,METAR,436.0
KI69 250534Z AUTO 12003KT 10SM OVC070 11/M01 A2988 RMK AO1,KI69,2015-04-25T05:34:00Z,39.08,-84.22,11.0,-1.0,120,3,,10.0,29.878937,,,TRUE,TRUE,,,,,,,OVC,7000,,,,,,,VFR,,,,,,,,,,,,METAR,255.0
KHZX 250534Z AUTO 08010KT 10SM OVC037 02/M01 A2987 RMK AO2,KHZX,2015-04-25T05:34:00Z,46.62,-93.32,2.0,-1.0,80,10,,10.0,29.870079,,,TRUE,TRUE,,,,,,,OVC,3700,,,,,,,VFR,,,,,,,,,,,,METAR,374.0
KHCO 250534Z AUTO 09007KT 10SM BKN034 OVC060 06/01 A2985 RMK AO2,KHCO,2015-04-25T05:34:00Z,48.75,-96.93,6.0,1.0,90,7,,10.0,29.84941,,,TRUE,TRUE,,,,,,,BKN,3400,OVC,6000,,,,,VFR,,,,,,,,,,,,METAR,250.0
KGYL 250534Z AUTO 10013G17KT 10SM OVC013 07/06 A2977 RMK AO2 T00720055,KGYL,2015-04-25T05:34:00Z,44.77,-94.08,7.2,5.5,100,13,17,10.0,29.769686,,,TRUE,TRUE,,,,,,,OVC,1300,,,,,,,MVFR,,,,,,,,,,,,METAR,302.0
KGHW 250534Z AUTO 10011KT 2 1/2SM BR OVC005 06/04 A2978 RMK AO2,KGHW,2015-04-25T05:34:00Z,45.63,-95.32,6.0,4.0,100,11,,2.5,29.778543,,,TRUE,TRUE,,,,,,BR,OVC,500,,,,,,,IFR,,,,,,,,,,,,METAR,425.0
KGDB 250534Z AUTO 09008G15KT 10SM OVC012 07/04 A2975 RMK AO2 T00680043,KGDB,2015-04-25T05:34:00Z,44.75,-95.55,6.8,4.3,90,8,15,10.0,29.749016,,,TRUE,TRUE,,,,,,,OVC,1200,,,,,,,MVFR,,,,,,,,,,,,METAR,319.0
KFKA 250534Z AUTO 11013G17KT 10SM SCT014 OVC035 05/03 A2980 RMK AO2 T00480025,KFKA,2015-04-25T05:34:00Z,43.68,-92.17,4.8,2.5,110,13,17,10.0,29.799213,,,TRUE,TRUE,,,,,,,SCT,1400,OVC,3500,,,,,VFR,,,,,,,,,,,,METAR,389.0
KFGN 250534Z AUTO 10007KT 10SM OVC035 04/M04 A2989 RMK AO2,KFGN,2015-04-25T05:34:00Z,49.32,-94.9,4.0,-4.0,100,7,,10.0,29.890747,,,TRUE,TRUE,,,,,,,OVC,3500,,,,,,,VFR,,,,,,,,,,,,METAR,328.0
KFFM 250534Z AUTO 13012G18KT 10SM OVC011 07/03 A2980 RMK AO2,KFFM,2015-04-25T05:34:00Z,46.28,-96.15,7.0,3.0,130,12,18,10.0,29.799213,,,TRUE,TRUE,,,,,,,OVC,1100,,,,,,,MVFR,,,,,,,,,,,,METAR,361.0
KFBL 250534Z AUTO 08009KT 10SM BKN015 OVC034 07/04 A2979 RMK AO2,KFBL,2015-04-25T05:34:00Z,44.33,-93.32,7.0,4.0,80,9,,10.0,29.790354,,,TRUE,TRUE,,,,,,,BKN,1500,OVC,3400,,,,,MVFR,,,,,,,,,,,,METAR,322.0
KDXX 250534Z AUTO 10011KT 7SM RA OVC012 07/05 A2973 RMK AO2 P0001,KDXX,2015-04-25T05:34:00Z,44.98,-96.18,7.0,5.0,100,11,,7.0,29.731298,,,TRUE,TRUE,,,,,,RA,OVC,1200,,,,,,,MVFR,,,,,,0.01,,,,,,METAR,330.0
KD95 250534Z AUTO 09003KT 10SM CLR 01/M07 A3001 RMK AO2 T00111070,KD95,2015-04-25T05:34:00Z,43.07,-83.27,1.1,-7.0,90,3,,10.0,30.008858,,,TRUE,TRUE,,,,,,,CLR,,,,,,,,VFR,,,,,,,,,,,,METAR,255.0
KBJI 250534Z AUTO 11010KT 10SM SCT029 OVC043 05/M01 A2984 RMK AO2 T00451010,KBJI,2015-04-25T05:34:00Z,47.5,-94.92,4.5,-1.0,110,10,,10.0,29.840551,,,TRUE,TRUE,,,,,,,SCT,2900,OVC,4300,,,,,VFR,,,,,,,,,,,,METAR,420.0
KBBB 250534Z AUTO 13009KT 7SM OVC012 07/04 A2976 RMK AO2,KBBB,2015-04-25T05:34:00Z,45.32,-95.65,7.0,4.0,130,9,,7.0,29.760826,,,TRUE,TRUE,,,,,,,OVC,1200,,,,,,,MVFR,,,,,,,,,,,,METAR,317.0
KAQP 250534Z AUTO 10011G18KT 10SM BKN011 07/04 A2974 RMK AO2,KAQP,2015-04-25T05:34:00Z,45.22,-96.0,7.0,4.0,100,11,18,10.0,29.740158,,,TRUE,TRUE,,,,,,,BKN,1100,,,,,,,MVFR,,,,,,,,,,,,METAR,311.0
KVVV 250534Z AUTO 10012KT 7SM -DZ OVC011 07/04 A2973 RMK AO2,KVVV,2015-04-25T05:34:00Z,45.3,-96.42,7.0,4.0,100,12,,7.0,29.731298,,,TRUE,TRUE,,,,,,-DZ,OVC,1100,,,,,,,MVFR,,,,,,,,,,,,METAR,335.0
KULM 250534Z AUTO 10011KT 10SM BKN025 OVC036 07/04 A2973 RMK AO2,KULM,2015-04-25T05:34:00Z,44.32,-94.5,7.0,4.0,100,11,,10.0,29.731298,,,TRUE,TRUE,,,,,,,BKN,2500,OVC,3600,,,,,MVFR,,,,,,,,,,,,METAR,308.0
KTWM 250534Z AUTO 06011G18KT 10SM OVC075 04/M04 A2993 RMK AO2,KTWM,2015-04-25T05:34:00Z,47.03,-91.75,4.0,-4.0,60,11,18,10.0,29.929134,,,TRUE,TRUE,,,,,,,OVC,7500,,,,,,,VFR,,,,,,,,,,,,METAR,328.0
KTOB 250534Z AUTO 10014G21KT 7SM OVC014 06/04 A2978 RMK AO2,KTOB,2015-04-25T05:34:00Z,44.02,-92.82,6.0,4.0,100,14,21,7.0,29.778543,,,TRUE,TRUE,,,,,,,OVC,1400,,,,,,,MVFR,,,,,,,,,,,,METAR,398.0
KTEW 250534Z AUTO 18003KT 10SM -DZ SCT040 SCT048 OVC060 07/01 A2999 RMK AO2 T00680009,KTEW,2015-04-25T05:34:00Z,42.57,-84.42,6.8,0.9,180,3,,10.0,29.991142,,,TRUE,TRUE,,,,,,-DZ,SCT,4000,SCT,4800,OVC,6000,,,VFR,,,,,,,,,,,,METAR,280.0
KSYN 250534Z AUTO 10011G14KT 10SM BKN013 BKN019 OVC031 07/04 A2979 RMK AO2 T00660041,KSYN,2015-04-25T05:34:00Z,44.47,-93.02,6.6,4.1,100,11,14,10.0,29.790354,,,TRUE,TRUE,,,,,,,BKN,1300,BKN,1900,OVC,3100,,,MVFR,,,,,,,,,,,,METAR,280.0
EKSP 250534Z 21008KT 4500 BR BKN010 09/07 Q1003,EKSP,2015-04-25T05:34:00Z,55.22,9.27,9.0,7.0,210,8,,2.8,29.616142,,,,,,,,,,BR,BKN,1000,,,,,,,IFR,,,,,,,,,,,,SPECI,40.0
CYVO 250534Z AUTO 34011KT 9SM SCT018 BKN029 OVC070 M03/M06 A2995 RMK SLP164,CYVO,2015-04-25T05:34:00Z,48.07,-77.77,-3.0,-6.0,340,11,,9.0,29.949802,1016.4,,TRUE,,,,,,,,SCT,1800,BKN,2900,OVC,7000,,,MVFR,,,,,,,,,,,,SPECI,337.0
KBFW 250534Z AUTO 05008KT 10SM OVC075 02/M06 A2995 RMK AO2,KBFW,2015-04-25T05:34:00Z,47.25,-91.4,2.0,-6.0,50,8,,10.0,29.949802,,,TRUE,TRUE,,,,,,,OVC,7500,,,,,,,VFR,,,,,,,,,,,,METAR,331.0
KBAX 250534Z AUTO 00000KT 10SM SCT120 00/M05 A3004 RMK AO2 T10011048,KBAX,2015-04-25T05:34:00Z,43.78,-82.98,-0.1,-4.8,0,0,,10.0,30.041338,,,TRUE,TRUE,,,,,,,SCT,12000,,,,,,,VFR,,,,,,,,,,,,METAR,234.0
KCNB 250534Z AUTO 10012KT 4SM -RA OVC005 07/06 A2972 RMK AO2 P0001 T00670059,KCNB,2015-04-25T05:34:00Z,44.73,-96.27,6.7,5.9,100,12,,4.0,29.719488,,,TRUE,TRUE,,,,,,-RA,OVC,500,,,,,,,IFR,,,,,,0.01,,,,,,METAR,364.0
KCDC 250534Z AUTO 03003KT 10SM -RA SCT023 BKN034 OVC041 07/05 A2986 RMK AO2 P0003 T00670050,KCDC,2015-04-25T05:34:00Z,37.7,-113.1,6.7,5.0,30,3,,10.0,29.861221,,,TRUE,TRUE,,,,,,-RA,SCT,2300,BKN,3400,OVC,4100,,,VFR,,,,,,0.03,,,,,,METAR,1714.0
KDUH 250534Z AUTO 05006KT 10SM -DZ BKN047 OVC060 08/00 A3000 RMK AO2,KDUH,2015-04-25T05:34:00Z,41.73,-83.65,8.0,0.0,50,6,,10.0,30.0,,,TRUE,TRUE,,,,,,-DZ,BKN,4700,OVC,6000,,,,,VFR,,,,,,,,,,,,METAR,204.0
KCQM 250534Z AUTO 08005KT 10SM OVC048 02/M08 A2993 RMK AO2,KCQM,2015-04-25T05:34:00Z,47.82,-92.68,2.0,-8.0,80,5,,10.0,29.929134,,,TRUE,TRUE,,,,,,,OVC,4800,,,,,,,VFR,,,,,,,,,,,,METAR,404.0
KLWA 250534Z AUTO 07007KT 10SM -DZ OVC065 06/04 A2996 RMK AO2 T00600036,KLWA,2015-04-25T05:34:00Z,42.35,-86.25,6.0,3.6,70,7,,10.0,29.958662,,,TRUE,TRUE,,,,,,-DZ,OVC,6500,,,,,,,VFR,,,,,,,,,,,,METAR,203.0
KOEB 250534Z AUTO 07008KT 10SM -RA SCT045 SCT050 OVC070 06/03 A2996 RMK AO2 T00580032,KOEB,2015-04-25T05:34:00Z,41.92,-85.03,5.8,3.2,70,8,,10.0,29.958662,,,TRUE,TRUE,,,,,,-RA,SCT,4500,SCT,5000,OVC,7000,,,VFR,,,,,,,,,,,,METAR,292.0
KPNS 250534Z AUTO 16011KT 10SM BKN009 BKN019 OVC036 23/22 A2985 RMK AO2 T02330222,KPNS,2015-04-25T05:34:00Z,30.48,-87.18,23.3,22.2,160,11,,10.0,29.84941,,,TRUE,TRUE,,,,,,,BKN,900,BKN,1900,OVC,3600,,,IFR,,,,,,,,,,,,METAR,38.0
KMKC 250534Z 14012G20KT 10SM TS BKN029 OVC042 17/12 A2952 RMK AO2 TSB34 T01720122,KMKC,2015-04-25T05:34:00Z,39.12,-94.6,17.2,12.2,140,12,20,10.0,29.518702,,,,TRUE,,,,,,TS,BKN,2900,OVC,4200,,,,,MVFR,,,,,,,,,,,,METAR,227.0
KERY 250534Z AUTO 35008KT 10SM CLR M03/M07 A3004 RMK AO2 T10311074,KERY,2015-04-25T05:34:00Z,46.3,-85.45,-3.1,-7.4,350,8,,10.0,30.041338,,,TRUE,TRUE,,,,,,,CLR,,,,,,,,VFR,,,,,,,,,,,,METAR,265.0
KFFX 250534Z AUTO 00000KT 10SM UP OVC050 06/M01 A2999 RMK AO2 T00621015,KFFX,2015-04-25T05:34:00Z,43.43,-86.0,6.2,-1.5,0,0,,10.0,29.991142,,,TRUE,TRUE,,,,,,UP,OVC,5000,,,,,,,VFR,,,,,,,,,,,,METAR,236.0
KGLS 250534Z AUTO 22010KT 8SM BKN008 BKN018 25/24 A2984 RMK AO2 PRESRR T02500239,KGLS,2015-04-25T05:34:00Z,29.27,-94.87,25.0,23.9,220,10,,8.0,29.840551,,,TRUE,TRUE,,,,,,,BKN,800,BKN,1800,,,,,IFR,,,,,,,,,,,,METAR,6.0
KHAI 250534Z AUTO 06012KT 10SM SCT041 OVC070 06/04 A2994 RMK AO2 T00630035,KHAI,2015-04-25T05:34:00Z,41.97,-85.6,6.3,3.5,60,12,,10.0,29.940945,,,TRUE,TRUE,,,,,,,SCT,4100,OVC,7000,,,,,VFR,,,,,,,,,,,,METAR,251.0
KIRS 250534Z AUTO 04011KT 10SM -RA BKN075 OVC085 06/04 A2992 RMK AO2,KIRS,2015-04-25T05:34:00Z,41.8,-85.43,6.0,4.0,40,11,,10.0,29.920275,,,TRUE,TRUE,,,,,,-RA,BKN,7500,OVC,8500,,,,,VFR,,,,,,,,,,,,METAR,282.0
KISQ 250534Z AUTO 04003KT 10SM CLR 00/M07 A3004 RMK AO2 T00001066,KISQ,2015-04-25T05:34:00Z,45.97,-86.17,0.0,-6.6,40,3,,10.0,30.041338,,,TRUE,TRUE,,,,,,,CLR,,,,,,,,VFR,,,,,,,,,,,,METAR,209.0
KISW 250534Z AUTO 11009KT 9SM -RA BKN008 OVC036 03/01 A2995 RMK AO2 CIG 007V011 P0000 T00330011,KISW,2015-04-25T05:34:00Z,44.37,-89.83,3.3,1.1,110,9,,9.0,29.949802,,,TRUE,TRUE,,,,,,-RA,BKN,800,OVC,3600,,,,,IFR,,,,,,0.0050,,,,,,METAR,307.0
KRNP 250534Z AUTO 00000KT 10SM OVC090 04/M02 A3000 RMK AO2 T00401019,KRNP,2015-04-25T05:34:00Z,43.0,-84.13,4.0,-1.9,0,0,,10.0,30.0,,,TRUE,TRUE,,,,,,,OVC,9000,,,,,,,VFR,,,,,,,,,,,,METAR,224.0
KRQB 250534Z AUTO 05003KT 10SM OVC080 06/M08 A2999 RMK AO2 T00581083,KRQB,2015-04-25T05:34:00Z,43.72,-85.5,5.8,-8.3,50,3,,10.0,29.991142,,,TRUE,TRUE,,,,,,,OVC,8000,,,,,,,VFR,,,,,,,,,,,,METAR,302.0
KVTP 250534Z AUTO 21009G22KT 170V270 10SM CLR M01/M07 A2992 RMK AO2,KVTP,2015-04-25T05:34:00Z,37.5,-105.17,-1.0,-7.0,210,9,22,10.0,29.920275,,,TRUE,TRUE,,,,,,,CLR,,,,,,,,VFR,,,,,,,,,,,,METAR,3114.0
KADC 250534Z AUTO 09007KT 10SM OVC019 04/M01 A2980 RMK AO2,KADC,2015-04-25T05:34:00Z,46.45,-95.22,4.0,-1.0,90,7,,10.0,29.799213,,,TRUE,TRUE,,,,,,,OVC,1900,,,,,,,MVFR,,,,,,,,,,,,METAR,418.0
KFKS 250534Z AUTO 11004KT 10SM OVC110 06/M11 A3000 RMK AO2 T00581114,KFKS,2015-04-25T05:34:00Z,44.63,-86.2,5.8,-11.4,110,4,,10.0,30.0,,,TRUE,TRUE,,,,,,,OVC,11000,,,,,,,VFR,,,,,,,,,,,,SPECI,193.0
LFLC 250534Z VRB02KT 9999 FEW040 OVC066 13/10 Q1012 NOSIG,LFLC,2015-04-25T05:34:00Z,45.77,3.17,13.0,10.0,0,2,,6.21,29.88189,,,,,,TRUE,,,,,FEW,4000,OVC,6600,,,,,VFR,,,,,,,,,,,,METAR,330.0
KSAZ 250533Z AUTO 09005KT 10SM OVC021 05/00 A2981 RMK AO2,KSAZ,2015-04-25T05:33:00Z,46.37,-94.8,5.0,0.0,90,5,,10.0,29.811024,,,TRUE,TRUE,,,,,,,OVC,2100,,,,,,,MVFR,,,,,,,,,,,,METAR,392.0
KRRT 250533Z AUTO 07005KT 10SM OVC035 03/M01 A2990 RMK AO2,KRRT,2015-04-25T05:33:00Z,48.93,-95.33,3.0,-1.0,70,5,,10.0,29.899607,,,TRUE,TRUE,,,,,,,OVC,3500,,,,,,,VFR,,,,,,,,,,,,METAR,327.0
KRMY 250533Z AUTO 06004KT 10SM -RA OVC045 04/03 A2997 RMK AO2 T00400026,KRMY,2015-04-25T05:33:00Z,42.23,-84.95,4.0,2.6,60,4,,10.0,29.970472,,,TRUE,TRUE,,,,,,-RA,OVC,4500,,,,,,,VFR,,,,,,,,,,,,METAR,287.0
KPCW 250533Z AUTO 07008KT 10SM -RA FEW023 SCT029 BKN035 07/M01 A3000 RMK,KPCW,2015-04-25T05:33:00Z,41.52,-82.87,7.0,-1.0,70,8,,10.0,30.0,,,TRUE,,,,,,,-RA,FEW,2300,SCT,2900,BKN,3500,,,VFR,,,,,,,,,,,,METAR,178.0
KOVL 250533Z AUTO 11010KT 10SM OVC013 05/02 A2974 RMK AO2,KOVL,2015-04-25T05:33:00Z,44.78,-95.03,5.0,2.0,110,10,,10.0,29.740158,,,TRUE,TRUE,,,,,,,OVC,1300,,,,,,,MVFR,,,,,,,,,,,,METAR,328.0
KMOX 250533Z AUTO 11011KT 1 1/4SM BR OVC006 06/06 A2975 RMK AO2,KMOX,2015-04-25T05:33:00Z,45.57,-95.97,6.0,6.0,110,11,,1.25,29.749016,,,TRUE,TRUE,,,,,,BR,OVC,600,,,,,,,IFR,,,,,,,,,,,,METAR,344.0
KMJQ 250533Z AUTO 11015KT 10SM OVC008 07/05 A2970 RMK AO2,KMJQ,2015-04-25T05:33:00Z,43.63,-94.97,7.0,5.0,110,15,,10.0,29.698818,,,TRUE,TRUE,,,,,,,OVC,800,,,,,,,IFR,,,,,,,,,,,,METAR,441.0
KLVN 250533Z AUTO 11011KT 10SM OVC015 05/04 A2980 RMK AO2,KLVN,2015-04-25T05:33:00Z,44.63,-93.23,5.0,4.0,110,11,,10.0,29.799213,,,TRUE,TRUE,,,,,,,OVC,1500,,,,,,,MVFR,,,,,,,,,,,,METAR,293.0
KLJF 250533Z AUTO 10015G19KT 10SM OVC011 07/06 A2978 RMK AO2,KLJF,2015-04-25T05:33:00Z,45.1,-94.52,7.0,6.0,100,15,19,10.0,29.778543,,,TRUE,TRUE,,,,,,,OVC,1100,,,,,,,MVFR,,,,,,,,,,,,METAR,348.0
KIMS 250533Z AUTO 00000KT 10SM OVC040 12/00 A2989 RMK AO1,KIMS,2015-04-25T05:33:00Z,38.75,-85.47,12.0,0.0,0,0,,10.0,29.890747,,,TRUE,TRUE,,,,,,,OVC,4000,,,,,,,VFR,,,,,,,,,,,,METAR,250.0
KIKW 250533Z AUTO 08005KT 10SM OVC120 03/M05 A3003 RMK AO2 T00321046,KIKW,2015-04-25T05:33:00Z,43.67,-84.27,3.2,-4.6,80,5,,10.0,30.029528,,,TRUE,TRUE,,,,,,,OVC,12000,,,,,,,VFR,,,,,,,,,,,,METAR,194.0
KELO 250533Z AUTO 10005KT 10SM OVC050 02/M09 A2995 RMK AO2,KELO,2015-04-25T05:33:00Z,47.82,-91.82,2.0,-9.0,100,5,,10.0,29.949802,,,TRUE,TRUE,,,,,,,OVC,5000,,,,,,,VFR,,,,,,,,,,,,METAR,443.0
KDYT 250533Z AUTO 05018KT 10SM OVC060 02/00 A2995 RMK AO2,KDYT,2015-04-25T05:33:00Z,46.72,-92.03,2.0,0.0,50,18,,10.0,29.949802,,,TRUE,TRUE,,,,,,,OVC,6000,,,,,,,VFR,,,,,,,,,,,,METAR,186.0
KAXV 250533Z AUTO 00000KT 10SM OVC070 10/03 A2993 RMK AO2,KAXV,2015-04-25T05:33:00Z,40.5,-84.3,10.0,3.0,0,0,,10.0,29.929134,,,TRUE,TRUE,,,,,,,OVC,7000,,,,,,,VFR,,,,,,,,,,,,METAR,279.0
KANE 250533Z AUTO 11010G17KT 10SM OVC028 08/04 A2981 RMK AO2,KANE,2015-04-25T05:33:00Z,45.15,-93.22,8.0,4.0,110,10,17,10.0,29.811024,,,TRUE,TRUE,,,,,,,OVC,2800,,,,,,,MVFR,,,,,,,,,,,,METAR,278.0
KAIT 250533Z AUTO 07008KT 10SM OVC035 04/M01 A2984 RMK AO2,KAIT,2015-04-25T05:33:00Z,46.53,-93.67,4.0,-1.0,70,8,,10.0,29.840551,,,TRUE,TRUE,,,,,,,OVC,3500,,,,,,,VFR,,,,,,,,,,,,METAR,367.0
KAEL 250533Z AUTO 12012G18KT 10SM OVC029 07/05 A2973 RMK AO2,KAEL,2015-04-25T05:33:00Z,43.68,-93.37,7.0,5.0,120,12,18,10.0,29.731298,,,TRUE,TRUE,,,,,,,OVC,2900,,,,,,,MVFR,,,,,,,,,,,,METAR,383.0
K9MN 250533Z AUTO 09010G16KT 060V120 10SM OVC013 06/05 A2981 RMK AO1 T00560048,K9MN,2015-04-25T05:33:00Z,44.02,-92.48,5.6,4.8,90,10,16,10.0,29.811024,,,TRUE,TRUE,,,,,,,OVC,1300,,,,,,,MVFR,,,,,,,,,,,,METAR,355.0
K04W 250533Z AUTO 06007KT 10SM OVC040 06/00 A2985 RMK AO2,K04W,2015-04-25T05:33:00Z,46.02,-92.9,6.0,0.0,60,7,,10.0,29.84941,,,TRUE,TRUE,,,,,,,OVC,4000,,,,,,,VFR,,,,,,,,,,,,METAR,311.0
KSPW 250533Z AUTO 10013KT 10SM SCT010 BKN028 OVC033 08/06 A2966 RMK AO2 T00830061 TSNO,KSPW,2015-04-25T05:33:00Z,43.17,-95.22,8.3,6.1,100,13,,10.0,29.660433,,,TRUE,TRUE,,,TRUE,,,,SCT,1000,BKN,2800,OVC,3300,,,MVFR,,,,,,,,,,,,METAR,403.0
KORB 250533Z AUTO 00000KT 10SM OVC046 03/M09 A2990 RMK AO2,KORB,2015-04-25T05:33:00Z,48.02,-92.87,3.0,-9.0,0,0,,10.0,29.899607,,,TRUE,TRUE,,,,,,,OVC,4600,,,,,,,VFR,,,,,,,,,,,,METAR,397.0
KMLU 250533Z AUTO 29008G20KT 6SM +TSRA BR FEW015 BKN032 OVC075 19/18 A2982 RMK AO2 PK WND 28032/0502 WSHFT 0449 LTG DSNT ALQDS TSB21 P0050 T01940183 $,KMLU,2015-04-25T05:33:00Z,32.52,-92.03,19.4,18.3,290,8,20,6.0,29.819881,,,TRUE,TRUE,TRUE,,,,,+TSRA BR,FEW,1500,BKN,3200,OVC,7500,,,VFR,,,,,,0.5,,,,,,METAR,29.0
KLNK 250533Z AUTO 05010KT 7SM VCTS -RA OVC011 13/12 A2950 RMK AO2 LTG DSNT SE P0000 T01330117,KLNK,2015-04-25T05:33:00Z,40.85,-96.77,13.3,11.7,50,10,,7.0,29.500984,,,TRUE,TRUE,,,,,,VCTS -RA,OVC,1100,,,,,,,MVFR,,,,,,0.0050,,,,,,METAR,364.0
KFOZ 250533Z AUTO 12007KT 10SM BKN048 OVC060 04/M06 A2990 RMK AO2,KFOZ,2015-04-25T05:33:00Z,47.77,-93.65,4.0,-6.0,120,7,,10.0,29.899607,,,TRUE,TRUE,,,,,,,BKN,4800,OVC,6000,,,,,VFR,,,,,,,,,,,,METAR,411.0
KDVP 250533Z AUTO 09012KT 7SM OVC006 07/07 A2969 RMK AO2 T00710065,KDVP,2015-04-25T05:33:00Z,43.98,-95.78,7.1,6.5,90,12,,7.0,29.68996,,,TRUE,TRUE,,,,,,,OVC,600,,,,,,,IFR,,,,,,,,,,,,METAR,495.0
CYVP 250533Z 05007KT 15SM -RA BKN028 OVC057 03/00 A3015 RMK SC7SC1 SLP214,CYVP,2015-04-25T05:33:00Z,58.12,-68.42,3.0,0.0,50,7,,15.0,30.15059,1021.4,,,,,,,,,-RA,BKN,2800,OVC,5700,,,,,MVFR,,,,,,,,,,,,SPECI,60.0
CYQD 250533Z 01006KT 360V060 10SM -SN OVC005 M03/M04 A2995 RMK SF8 /S01/ PCPN VRY LGT SLP160,CYQD,2015-04-25T05:33:00Z,53.97,-101.08,-3.0,-4.0,10,6,,10.0,29.949802,1016.0,,,,,,,,,-SN,OVC,500,,,,,,,IFR,,,,,,,,,,,,SPECI,271.0
KVPS 250533Z 17009KT 10SM FEW010 OVC028 23/21 A2987 RMK AO2A $,KVPS,2015-04-25T05:33:00Z,30.47,-86.52,23.0,21.0,170,9,,10.0,29.870079,,,,TRUE,TRUE,,,,,,FEW,1000,OVC,2800,,,,,MVFR,,,,,,,,,,,,SPECI,26.0
KVOK 250533Z AUTO 10011KT 10SM OVC009 04/04 A2991 RMK AO2 UPB14E33,KVOK,2015-04-25T05:33:00Z,43.92,-90.27,4.0,4.0,100,11,,10.0,29.911417,,,TRUE,TRUE,,,,,,,OVC,900,,,,,,,IFR,,,,,,,,,,,,SPECI,277.0
ETOU 250533Z AUTO 29002KT 9999 SCT085 09/07 A2983 RMK AO2,ETOU,2015-04-25T05:33:00Z,50.03,8.32,9.0,7.0,290,2,,6.21,29.828741,,,TRUE,TRUE,,,,,,,SCT,8500,,,,,,,VFR,,,,,,,,,,,,SPECI,141.0
EBFS 250533Z AUTO 18007KT 3500 -DZ BKN055/// OVC070/// 10/09 Q1009 YLO,EBFS,2015-04-25T05:33:00Z,50.22,4.65,10.0,9.0,180,7,,2.17,29.793306,,,TRUE,,,,,,,-DZ,,,,,,,,,,,,,,,,,,,,,SPECI,299.0
K5SM 250533Z AUTO 00000KT 10SM SCT050 M01/M03 A2998 RMK AO2,K5SM,2015-04-25T05:33:00Z,39.43,-107.38,-1.0,-3.0,0,0,,10.0,29.97933,,,TRUE,TRUE,,,,,,,SCT,5000,,,,,,,VFR,,,,,,,,,,,,METAR,3232.0
KCKC 250533Z AUTO 05007KT 10SM OVC048 M01/M12 A2998 RMK AO2,KCKC,2015-04-25T05:33:00Z,47.83,-90.37,-1.0,-12.0,50,7,,10.0,29.97933,,,TRUE,TRUE,,,,,,,OVC,4800,,,,,,,VFR,,,,,,,,,,,,METAR,548.0
PANW 250533Z AUTO 09012KT 10SM SCT007 BKN028 OVC060 03/02 A2959 RMK AO2 TSNO $,PANW,2015-04-25T05:33:00Z,59.45,-157.37,3.0,2.0,90,12,,10.0,29.589567,,,TRUE,TRUE,TRUE,,TRUE,,,,SCT,700,BKN,2800,OVC,6000,,,MVFR,,,,,,,,,,,,METAR,92.0
KJKJ 250532Z AUTO 10005KT 10SM BKN028 OVC036 07/02 A2980 RMK AO2,KJKJ,2015-04-25T05:32:00Z,46.83,-96.67,7.0,2.0,100,5,,10.0,29.799213,,,TRUE,TRUE,,,,,,,BKN,2800,OVC,3600,,,,,MVFR,,,,,,,,,,,,METAR,280.0
KHCD 250532Z AUTO 10015G19KT 10SM OVC014 07/05 A2977 RMK AO2 T00680052,KHCD,2015-04-25T05:32:00Z,44.87,-94.38,6.8,5.2,100,15,19,10.0,29.769686,,,TRUE,TRUE,,,,,,,OVC,1400,,,,,,,MVFR,,,,,,,,,,,,METAR,323.0
KD39 250532Z AUTO 10008KT 7SM OVC008 05/04 A2979 RMK AO2 T00530042,KD39,2015-04-25T05:32:00Z,45.7,-94.93,5.3,4.2,100,8,,7.0,29.790354,,,TRUE,TRUE,,,,,,,OVC,800,,,,,,,IFR,,,,,,,,,,,,METAR,380.0
KCDD 250532Z AUTO 00000KT 10SM OVC049 02/M09 A2996 RMK AO2,KCDD,2015-04-25T05:32:00Z,48.27,-92.48,2.0,-9.0,0,0,,10.0,29.958662,,,TRUE,TRUE,,,,,,,OVC,4900,,,,,,,VFR,,,,,,,,,,,,METAR,341.0
KY70 250532Z AUTO 23003KT 10SM SCT045 SCT060 OVC070 08/00 A2998 RMK AO2 T00830002,KY70,2015-04-25T05:32:00Z,42.93,-85.07,8.3,0.2,230,3,,10.0,29.97933,,,TRUE,TRUE,,,,,,,SCT,4500,SCT,6000,OVC,7000,,,VFR,,,,,,,,,,,,METAR,250.0
KY63 250532Z AUTO 12012G17KT 3SM BR OVC007 06/05 A2976 RMK AO2 T00550050,KY63,2015-04-25T05:32:00Z,45.98,-96.0,5.5,5.0,120,12,17,3.0,29.760826,,,TRUE,TRUE,,,,,,BR,OVC,700,,,,,,,IFR,,,,,,,,,,,,METAR,367.0
KJMS 250532Z AUTO 09011KT 9SM OVC014 07/04 A2975 RMK AO2 T00720044,KJMS,2015-04-25T05:32:00Z,46.93,-98.67,7.2,4.4,90,11,,9.0,29.749016,,,TRUE,TRUE,,,,,,,OVC,1400,,,,,,,MVFR,,,,,,,,,,,,METAR,455.0
KLLQ 250532Z AUTO 00000KT 7SM VCTS -RA SCT005 SCT019 BKN100 17/17 A2981 RMK AO2 LTG DSNT NE AND SE TSE0459 P0033 T01670167,KLLQ,2015-04-25T05:32:00Z,33.63,-91.75,16.7,16.7,0,0,,7.0,29.811024,,,TRUE,TRUE,,,,,,VCTS -RA,SCT,500,SCT,1900,BKN,10000,,,VFR,,,,,,0.33,,,,,,METAR,83.0
KEVW 250532Z AUTO 23015KT 9SM -RA BKN006 OVC023 03/02 A2978 RMK AO2 P0002 T00280017,KEVW,2015-04-25T05:32:00Z,41.27,-111.03,2.8,1.7,230,15,,9.0,29.778543,,,TRUE,TRUE,,,,,,-RA,BKN,600,OVC,2300,,,,,IFR,,,,,,0.02,,,,,,METAR,2177.0
CYQZ 250532Z AUTO VRB02KT 9SM SCT027 BKN038 OVC050 05/04 A2977 RMK SLP102,CYQZ,2015-04-25T05:32:00Z,53.02,-122.52,5.0,4.0,0,2,,9.0,29.769686,1010.2,,TRUE,,,,,,,,SCT,2700,BKN,3800,OVC,5000,,,VFR,,,,,,,,,,,,SPECI,545.0
KMZH 250532Z AUTO 00000KT 10SM SCT049 OVC060 01/M01 A2987 RMK AO2,KMZH,2015-04-25T05:32:00Z,46.42,-92.8,1.0,-1.0,0,0,,10.0,29.870079,,,TRUE,TRUE,,,,,,,SCT,4900,OVC,6000,,,,,VFR,,,,,,,,,,,,METAR,328.0
EHEH 250532Z AUTO 20008KT 5000 +DZ FEW007 OVC028 11/10 Q1008 WHT 21008KT 7000 -RADZ SCT025 OVC030 TEMPO 4500 DZ SCT010,EHEH,2015-04-25T05:32:00Z,51.45,5.38,11.0,10.0,200,8,,3.11,29.763779,,,TRUE,,,,,,,+DZ -RA DZ,FEW,700,OVC,2800,SCT,2500,OVC,3000,MVFR,,,-0.8,,,,,,,,,METAR,22.0
KSGS 250531Z AUTO 13008KT 100V160 10SM OVC029 07/04 A2982 RMK AO2 T00700040,KSGS,2015-04-25T05:31:00Z,44.87,-93.03,7.0,4.0,130,8,,10.0,29.819881,,,TRUE,TRUE,,,,,,,OVC,2900,,,,,,,MVFR,,,,,,,,,,,,METAR,250.0
KEVM 250531Z AUTO 08006KT 10SM OVC050 02/M07 A2992 RMK AO2,KEVM,2015-04-25T05:31:00Z,47.42,-92.5,2.0,-7.0,80,6,,10.0,29.920275,,,TRUE,TRUE,,,,,,,OVC,5000,,,,,,,VFR,,,,,,,,,,,,METAR,421.0
RJTY 250531Z AUTO 20010KT 10SM -RA BKN065 19/07 A3003 RMK AO2 RAB31,RJTY,2015-04-25T05:31:00Z,35.75,139.33,19.0,7.0,200,10,,10.0,30.029528,,,TRUE,TRUE,,,,,,-RA,BKN,6500,,,,,,,VFR,,,,,,,,,,,,METAR,139.0
YLRE 250531Z 21017KT CAVOK 26/M02 Q1013,YLRE,2015-04-25T05:31:00Z,-23.43,144.28,26.0,-2.0,210,17,,6.21,29.911417,,,,,,,,,,,CAVOK,,,,,,,,VFR,,,,,,,,,,,,SPECI,193.0
KSPI 250531Z AUTO 17010KT 10SM -RA BKN029 BKN060 OVC090 13/06 A2975 RMK AO2 RAB23 P0000 T01330061,KSPI,2015-04-25T05:31:00Z,39.85,-89.68,13.3,6.1,170,10,,10.0,29.749016,,,TRUE,TRUE,,,,,,-RA,BKN,2900,BKN,6000,OVC,9000,,,MVFR,,,,,,0.0050,,,,,,METAR,181.0
KHKS 250531Z AUTO 19008KT 10SM OVC011 22/20 A2980 RMK AO2 LTG DSNT N AND NW CIG 009V014 T02220200,KHKS,2015-04-25T05:31:00Z,32.33,-90.22,22.2,20.0,190,8,,10.0,29.799213,,,TRUE,TRUE,,,,,,,OVC,1100,,,,,,,MVFR,,,,,,,,,,,,METAR,108.0
KGWO 250531Z AUTO 15015G25KT 10SM -RA BKN021 BKN034 OVC044 18/16 A2970 RMK AO2 LTG DSNT W-NE RAB05 P0002 T01830161,KGWO,2015-04-25T05:31:00Z,33.5,-90.08,18.3,16.1,150,15,25,10.0,29.698818,,,TRUE,TRUE,,,,,,-RA,BKN,2100,BKN,3400,OVC,4400,,,MVFR,,,,,,0.02,,,,,,METAR,44.0
KDWH 250531Z 20009KT 9SM BKN014 BKN020 25/23 A2976 RMK AO2,KDWH,2015-04-25T05:31:00Z,30.07,-95.55,25.0,23.0,200,9,,9.0,29.760826,,,,TRUE,,,,,,,BKN,1400,BKN,2000,,,,,MVFR,,,,,,,,,,,,METAR,46.0
KAWM 250531Z AUTO 16015KT 10SM VCTS RA OVC110 14/14 A2975 RMK AO2 LTG DSNT SE AND S P0010 T01440144,KAWM,2015-04-25T05:31:00Z,35.13,-90.23,14.4,14.4,160,15,,10.0,29.749016,,,TRUE,TRUE,,,,,,VCTS RA,OVC,11000,,,,,,,VFR,,,,,,0.1,,,,,,METAR,65.0
CZCP 250531Z AUTO 10021KT 5/8SM CLR M11/ A3033 RMK ICG,CZCP,2015-04-25T05:31:00Z,70.17,-124.72,-11.0,,100,21,,0.63,30.33071,,,TRUE,,,,,,,,CLR,,,,,,,,LIFR,,,,,,,,,,,,SPECI,93.0
YMEN 250531Z AUTO 23009KT 9999 // BKN011 BKN028 BKN066 14/14 Q1009,YMEN,2015-04-25T05:31:00Z,-37.72,144.9,14.0,14.0,230,9,,6.21,29.793306,,,TRUE,,,,,,,,BKN,1100,BKN,2800,BKN,6600,,,MVFR,,,,,,,,,,,,SPECI,86.0
KRGK 250531Z AUTO 11011G16KT 10SM SCT021 OVC037 07/04 A2983 RMK AO2,KRGK,2015-04-25T05:31:00Z,44.58,-92.48,7.0,4.0,110,11,16,10.0,29.828741,,,TRUE,TRUE,,,,,,,SCT,2100,OVC,3700,,,,,VFR,,,,,,,,,,,,METAR,239.0
KSUU 250531Z AUTO 25014G20KT 10SM -RA OVC018 13/10 A2993 RMK AO2 RAB31 OVC V BKN $,KSUU,2015-04-25T05:31:00Z,38.27,-121.92,13.0,10.0,250,14,20,10.0,29.929134,,,TRUE,TRUE,TRUE,,,,,-RA,OVC,1800,,,,,,,MVFR,,,,,,,,,,,,SPECI,19.0
LQMO 250530Z 15003KT 9999 4800SE FEW003 09/08 Q1018,LQMO,2015-04-25T05:30:00Z,43.28,17.83,9.0,8.0,150,3,,6.21,30.059055,,,,,,,,,,,FEW,300,,,,,,,VFR,,,,,,,,,,,,METAR,48.0
UMBB 250530Z 17002MPS 9000 SCT040CB FEW100 09/06 Q1014 NOSIG,UMBB,2015-04-25T05:30:00Z,52.12,23.9,9.0,6.0,170,4,,5.59,29.940945,,,,,,TRUE,,,,,SCT,4000,FEW,10000,,,,,VFR,,,,,,,,,,,,METAR,143.0
UKLN 250530Z 31004MPS CAVOK 11/04 Q1016 15////// NOSIG,UKLN,2015-04-25T05:30:00Z,48.27,25.98,11.0,4.0,310,8,,6.21,30.0,,,,,,TRUE,,,,,CAVOK,,,,,,,,VFR,,,,,,,,,,,,METAR,252.0
UKKK 250530Z 03002MPS 340V070 9999 FEW033CB BKN080 13/05 Q1016 26CLRD70 NOSIG,UKKK,2015-04-25T05:30:00Z,50.4,30.45,13.0,5.0,30,4,,6.21,30.0,,,,,,TRUE,,,,,FEW,3300,BKN,8000,,,,,VFR,,,,,,,,,,,,METAR,179.0
UKLI 250530Z 00000MPS CAVOK 12/06 Q1016 28090070 NOSIG,UKLI,2015-04-25T05:30:00Z,48.88,24.68,12.0,6.0,0,0,,6.21,30.0,,,,,,TRUE,,,,,CAVOK,,,,,,,,VFR,,,,,,,,,,,,METAR,280.0
UKLR 250530Z 08003MPS 9999 FEW030 BKN100 13/06 Q1015 NOSIG,UKLR,2015-04-25T05:30:00Z,50.6,26.13,13.0,6.0,80,6,,6.21,29.970472,,,,,,TRUE,,,,,FEW,3000,BKN,10000,,,,,VFR,,,,,,,,,,,,METAR,230.0
KMDS 250530Z AUTO 08019G23KT 10SM OVC008 08/08 A2965 RMK AO2 LTG DSNT E-SW,KMDS,2015-04-25T05:30:00Z,44.02,-97.08,8.0,8.0,80,19,23,10.0,29.648623,,,TRUE,TRUE,,,,,,,OVC,800,,,,,,,IFR,,,,,,,,,,,,METAR,524.0
KCVH 250530Z AUTO 22008KT 8SM CLR 12/09 A3005 RMK AO1,KCVH,2015-04-25T05:30:00Z,36.9,-121.42,12.0,9.0,220,8,,8.0,30.050198,,,TRUE,TRUE,,,,,,,CLR,,,,,,,,VFR,,,,,,,,,,,,METAR,70.0
K21D 250530Z AUTO 11011G17KT 10SM OVC030 07/03 A2982 RMK AO2,K21D,2015-04-25T05:30:00Z,45.0,-92.85,7.0,3.0,110,11,17,10.0,29.819881,,,TRUE,TRUE,,,,,,,OVC,3000,,,,,,,MVFR,,,,,,,,,,,,METAR,285.0
KTKC 250530Z AUTO 10008KT 7SM OVC008 08/06 A2971 RMK AO2 LTG DSNT W T00760062,KTKC,2015-04-25T05:30:00Z,44.25,-95.62,7.6,6.2,100,8,,7.0,29.71063,,,TRUE,TRUE,,,,,,,OVC,800,,,,,,,IFR,,,,,,,,,,,,METAR,408.0
KSYM 250530Z AUTO 00000KT 10SM FEW055 BKN070 OVC090 13/M05 A2991 RMK AO2,KSYM,2015-04-25T05:30:00Z,38.22,-83.58,13.0,-5.0,0,0,,10.0,29.911417,,,TRUE,TRUE,,,,,,,FEW,5500,BKN,7000,OVC,9000,,,VFR,,,,,,,,,,,,METAR,313.0
YSSY 250530Z 11011KT 9999 -TSRA FEW020 SCT040CB 21/10 Q1004 FM0600 06008KT 9999 -SHRA SCT040 TEMPO 0600/0830 VRB25G35KT 3000 TSRA SCT012 SCT050CB,YSSY,2015-04-25T05:30:00Z,-33.95,151.17,21.0,10.0,110,11,,6.21,29.64567,,,,,,,,,,-TSRA,FEW,2000,SCT,4000,,,,,VFR,,,,,,,,,,,,SPECI,3.0
VMMC 250530Z 11014KT 9999 FEW030 24/20 Q1016 NOSIG,VMMC,2015-04-25T05:30:00Z,22.15,113.58,24.0,20.0,110,14,,6.21,30.0,,,,,,TRUE,,,,,FEW,3000,,,,,,,VFR,,,,,,,,,,,,METAR,6.0
RCNN 250530Z 28009KT 9000 FEW010 SCT025 29/21 Q1014 NOSIG RMK A2995,RCNN,2015-04-25T05:30:00Z,22.93,120.2,29.0,21.0,280,9,,5.59,29.940945,,,,,,TRUE,,,,,FEW,1000,SCT,2500,,,,,VFR,,,,,,,,,,,,METAR,19.0
RCMQ 250530Z 33014KT 9999 SCT010 BKN200 26/20 Q1014 NOSIG RMK A2997,RCMQ,2015-04-25T05:30:00Z,24.27,120.62,26.0,20.0,330,14,,6.21,29.940945,,,,,,TRUE,,,,,SCT,1000,BKN,20000,,,,,VFR,,,,,,,,,,,,METAR,5.0
RCSS 250530Z 10019KT 9999 FEW020 25/16 Q1018 WS R10 NOSIG RMK A3006,RCSS,2015-04-25T05:30:00Z,25.07,121.53,25.0,16.0,100,19,,6.21,30.059055,,,,,,TRUE,,,,,FEW,2000,,,,,,,VFR,,,,,,,,,,,,METAR,6.0
RCKH 250530Z 26011KT 210V280 7000 FEW016 29/20 Q1014 NOSIG RMK 27011KT/R09 A2997,RCKH,2015-04-25T05:30:00Z,22.57,120.33,29.0,20.0,260,11,,4.35,29.940945,,,,,,TRUE,,,,,FEW,1600,,,,,,,MVFR,,,,,,,,,,,,METAR,9.0
RCTP 250530Z 07019KT 9999 FEW015 SCT110 25/16 Q1016 WS R05R NOSIG RMK A3002,RCTP,2015-04-25T05:30:00Z,25.07,121.22,25.0,16.0,70,19,,6.21,30.0,,,,,,TRUE,,,,,FEW,1500,SCT,11000,,,,,VFR,,,,,,,,,,,,METAR,33.0
DAUH 250530Z 21008KT CAVOK 21/M05 Q1010,DAUH,2015-04-25T05:30:00Z,31.67,6.15,21.0,-5.0,210,8,,6.21,29.822834,,,,,,,,,,,CAVOK,,,,,,,,VFR,,,,,,,,,,,,METAR,142.0
DAOO 250530Z 21002KT CAVOK 13/12 Q1016,DAOO,2015-04-25T05:30:00Z,35.62,-0.6,13.0,12.0,210,2,,6.21,30.0,,,,,,,,,,,CAVOK,,,,,,,,VFR,,,,,,,,,,,,METAR,90.0
DAON 250530Z 00000KT 8000 FEW010 BKN233 11/10 Q1018,DAON,2015-04-25T05:30:00Z,35.02,-1.47,11.0,10.0,0,0,,4.97,30.059055,,,,,,,,,,,FEW,1000,BKN,23300,,,,,MVFR,,,,,,,,,,,,METAR,247.0
DABC 250530Z 00000KT 9999 SCT040 12/09 Q1016,DABC,2015-04-25T05:30:00Z,36.27,6.62,12.0,9.0,0,0,,6.21,30.0,,,,,,,,,,,SCT,4000,,,,,,,VFR,,,,,,,,,,,,METAR,694.0
DABB 250530Z 27002KT 3000 BR FEW030 BKN220 12/11 Q1014,DABB,2015-04-25T05:30:00Z,36.82,7.82,12.0,11.0,270,2,,1.86,29.940945,,,,,,,,,,BR,FEW,3000,BKN,22000,,,,,IFR,,,,,,,,,,,,METAR,4.0
DAAT 250530Z 09005KT CAVOK 17/M05 Q1025,DAAT,2015-04-25T05:30:00Z,22.82,5.47,17.0,-5.0,90,5,,6.21,30.265747,,,,,,,,,,,CAVOK,,,,,,,,VFR,,,,,,,,,,,,METAR,1377.0
DAAG 250530Z 25004KT 220V290 3000 BR BKN010 16/15 Q1017,DAAG,2015-04-25T05:30:00Z,36.72,3.22,16.0,15.0,250,4,,1.86,30.029528,,,,,,,,,,BR,BKN,1000,,,,,,,IFR,,,,,,,,,,,,METAR,25.0
OIMM 250530Z 00000KT CAVOK 30/06 Q1010 A2983,OIMM,2015-04-25T05:30:00Z,36.23,59.62,30.0,6.0,0,0,,6.21,29.822834,,,,,,,,,,,CAVOK,,,,,,,,VFR,,,,,,,,,,,,METAR,980.0
FMEP 250530Z AUTO 12015KT 9999 NCD 28/22 Q1017,FMEP,2015-04-25T05:30:00Z,-21.32,55.42,28.0,22.0,120,15,,6.21,30.029528,,,TRUE,,,,,,,,,,,,,,,,,,,,,,,,,,,,METAR,53.0
FMEE 250530Z 12012KT 9999 FEW030 27/21 Q1017 NOSIG,FMEE,2015-04-25T05:30:00Z,-20.87,55.52,27.0,21.0,120,12,,6.21,30.029528,,,,,,TRUE,,,,,FEW,3000,,,,,,,VFR,,,,,,,,,,,,METAR,25.0
VOCL 250530Z 11004KT 7000 FEW015 BKN090 26/23 Q1013 NOSIG,VOCL,2015-04-25T05:30:00Z,11.13,75.95,26.0,23.0,110,4,,4.35,29.911417,,,,,,TRUE,,,,,FEW,1500,BKN,9000,,,,,MVFR,,,,,,,,,,,,METAR,104.0
VOCI 250530Z 00000KT 5000 HZ SCT015 SCT090 28/24 Q1012 NOSIG,VOCI,2015-04-25T05:30:00Z,10.15,76.4,28.0,24.0,0,0,,3.11,29.88189,,,,,,TRUE,,,,HZ,SCT,1500,SCT,9000,,,,,MVFR,,,,,,,,,,,,METAR,8.0
WMKP 250530Z 15004KT 9000 FEW020 SCT140 BKN270 31/25 Q1009 NOSIG,WMKP,2015-04-25T05:30:00Z,5.28,100.27,31.0,25.0,150,4,,5.59,29.793306,,,,,,TRUE,,,,,FEW,2000,SCT,14000,BKN,27000,,,VFR,,,,,,,,,,,,METAR,4.0
WMKK 250530Z 25004KT 9999 FEW017CB SCT140 BKN280 32/24 Q1009 NOSIG,WMKK,2015-04-25T05:30:00Z,2.75,101.72,32.0,24.0,250,4,,6.21,29.793306,,,,,,TRUE,,,,,FEW,1700,SCT,14000,BKN,28000,,,VFR,,,,,,,,,,,,METAR,22.0
WBSB 250530Z 29007KT 9999 SCT016 FEW017CB BKN280 32/26 Q1008 NOSIG,WBSB,2015-04-25T05:30:00Z,4.92,114.92,32.0,26.0,290,7,,6.21,29.763779,,,,,,TRUE,,,,,SCT,1600,FEW,1700,BKN,28000,,,VFR,,,,,,,,,,,,METAR,15.0
WBKK 250530Z 32008KT 280V350 9999 FEW015 FEW015TCU BKN300 32/26 Q1008 NOSIG,WBKK,2015-04-25T05:30:00Z,5.92,116.03,32.0,26.0,320,8,,6.21,29.763779,,,,,,TRUE,,,,,FEW,1500,FEW,1500,BKN,30000,,,VFR,,,,,,,,,,,,METAR,3.0
WBGG 250530Z 19009KT 3000 TSRA FEW015CB SCT020 BKN150 27/25 Q1009 BECMG 5000 TSRA,WBGG,2015-04-25T05:30:00Z,1.47,110.35,27.0,25.0,190,9,,1.86,29.793306,,,,,,,,,,TSRA,FEW,1500,SCT,2000,BKN,15000,,,IFR,,,,,,,,,,,,METAR,27.0
LPPD 250530Z 28016KT 9999 SCT018 15/11 Q1010,LPPD,2015-04-25T05:30:00Z,37.72,-25.68,15.0,11.0,280,16,,6.21,29.822834,,,,,,,,,,,SCT,1800,,,,,,,VFR,,,,,,,,,,,,METAR,72.0
LPAZ 250530Z 29015KT 9999 FEW016 15/12 Q1011,LPAZ,2015-04-25T05:30:00Z,36.97,-25.17,15.0,12.0,290,15,,6.21,29.852362,,,,,,,,,,,FEW,1600,,,,,,,VFR,,,,,,,,,,,,METAR,100.0
LPPT 250530Z 22010KT 9999 -RA FEW006 SCT025 BKN030 15/14 Q1014,LPPT,2015-04-25T05:30:00Z,38.77,-9.12,15.0,14.0,220,10,,6.21,29.940945,,,,,,,,,,-RA,FEW,600,SCT,2500,BKN,3000,,,MVFR,,,,,,,,,,,,METAR,123.0
LPPS 250530Z 22007KT 9999 FEW015 17/15 Q1017,LPPS,2015-04-25T05:30:00Z,33.07,-16.35,17.0,15.0,220,7,,6.21,30.029528,,,,,,,,,,,FEW,1500,,,,,,,VFR,,,,,,,,,,,,METAR,82.0
LPPR 250530Z 20013KT 9999 SCT008 BKN016 15/14 Q1013,LPPR,2015-04-25T05:30:00Z,41.22,-8.67,15.0,14.0,200,13,,6.21,29.911417,,,,,,,,,,,SCT,800,BKN,1600,,,,,MVFR,,,,,,,,,,,,METAR,73.0
LPMA 250530Z VRB04KT 9999 FEW016 17/12 Q1017,LPMA,2015-04-25T05:30:00Z,32.7,-16.77,17.0,12.0,0,4,,6.21,30.029528,,,,,,,,,,,FEW,1600,,,,,,,VFR,,,,,,,,,,,,METAR,55.0
LPFR 250530Z 26005KT 9999 SCT007 16/15 Q1017,LPFR,2015-04-25T05:30:00Z,37.02,-7.97,16.0,15.0,260,5,,6.21,30.029528,,,,,,,,,,,SCT,700,,,,,,,VFR,,,,,,,,,,,,METAR,4.0
UTDL 250530Z 07010G14MPS 9999 SKC 26/09 Q1011 NOSIG RMK QFE719/0959 88CLRD70,UTDL,2015-04-25T05:30:00Z,40.22,69.7,26.0,9.0,70,19,27,6.21,29.852362,,,,,,TRUE,,,,,SKC,,,,,,,,VFR,,,,,,,,,,,,METAR,442.0
UTDT 250530Z 30002MPS 250V010 9999 FEW200 28/10 Q1012 35CLRD70 RMK QFE720/0960,UTDT,2015-04-25T05:30:00Z,37.87,68.87,28.0,10.0,300,4,,6.21,29.88189,,,,,,,,,,,FEW,20000,,,,,,,VFR,,,,,,,,,,,,METAR,449.0
UTDK 250530Z 18002MPS 9999 SKC 26/10 Q1014 01CLRD70 RMK QFE703/0938,UTDK,2015-04-25T05:30:00Z,37.98,69.8,26.0,10.0,180,4,,6.21,29.940945,,,,,,,,,,,SKC,,,,,,,,VFR,,,,,,,,,,,,METAR,699.0
UTDD 250530Z 09005MPS 9999 NSC 26/10 Q1015 R09/D NOSIG RMK QFE693/0924,UTDD,2015-04-25T05:30:00Z,38.53,68.82,26.0,10.0,90,10,,6.21,29.970472,,,,,,TRUE,,,,,,,,,,,,,,,,,,,,,,,,,METAR,803.0
UCFO 250530Z 35002MPS CAVOK 25/08 Q1014 R12/CLRD70 NOSIG,UCFO,2015-04-25T05:30:00Z,40.6,72.8,25.0,8.0,350,4,,6.21,29.940945,,,,,,TRUE,,,,,CAVOK,,,,,,,,VFR,,,,,,,,,,,,METAR,884.0
UCFM 250530Z 10005MPS 070V130 CAVOK 26/07 Q1012 R08/CLRD70 NOSIG,UCFM,2015-04-25T05:30:00Z,43.07,74.48,26.0,7.0,100,10,,6.21,29.88189,,,,,,TRUE,,,,,CAVOK,,,,,,,,VFR,,,,,,,,,,,,METAR,633.0
UAUU 250530Z 25010G15MPS 9999 BKN046 12/M01 Q1002 R33/CLRD70 TEMPO 23015MPS RMK QFE736/0982,UAUU,2015-04-25T05:30:00Z,53.2,63.55,12.0,-1.0,250,19,29,6.21,29.586615,,,,,,,,,,,BKN,4600,,,,,,,VFR,,,,,,,,,,,,METAR,182.0
UATT 250530Z 27007MPS 9999 SCT042 13/02 Q1009 R31/0///60 NOSIG RMK QFE736/0982,UATT,2015-04-25T05:30:00Z,50.25,57.2,13.0,2.0,270,14,,6.21,29.793306,,,,,,TRUE,,,,,SCT,4200,,,,,,,VFR,,,,,,,,,,,,METAR,227.0
UATG 250530Z VRB01MPS CAVOK 14/04 Q1013 R32/CLRD70 NOSIG RMK QFE762/1016,UATG,2015-04-25T05:30:00Z,47.12,51.83,14.0,4.0,0,2,,6.21,29.911417,,,,,,TRUE,,,,,CAVOK,,,,,,,,VFR,,,,,,,,,,,,METAR,-22.0
UATE 250530Z 31006MPS 270V330 9999 FEW040 BKN100 11/06 Q1015 R30/0///70 NOSIG RMK QFE760/1014,UATE,2015-04-25T05:30:00Z,43.87,51.1,11.0,6.0,310,12,,6.21,29.970472,,,,,,TRUE,,,,,FEW,4000,BKN,10000,,,,,VFR,,,,,,,,,,,,METAR,22.0
UARR 250530Z 28006MPS CAVOK 11/M03 Q1011 R22/CLRD70 NOSIG RMK QFE755/1006,UARR,2015-04-25T05:30:00Z,51.15,51.53,11.0,-3.0,280,12,,6.21,29.852362,,,,,,TRUE,,,,,CAVOK,,,,,,,,VFR,,,,,,,,,,,,METAR,38.0
UASS 250530Z 20003MPS 120V280 CAVOK 16/06 Q1017 R26/1///60 NOSIG RMK QFE745/0993,UASS,2015-04-25T05:30:00Z,50.35,80.23,16.0,6.0,200,6,,6.21,30.029528,,,,,,TRUE,,,,,CAVOK,,,,,,,,VFR,,,,,,,,,,,,METAR,232.0
UASP 250530Z 21007MPS 9999 FEW040 FEW100 17/M03 Q1014 R21/0///70 NOSIG RMK QFE749/0999,UASP,2015-04-25T05:30:00Z,52.2,77.07,17.0,-3.0,210,14,,6.21,29.940945,,,,,,TRUE,,,,,FEW,4000,FEW,10000,,,,,VFR,,,,,,,,,,,,METAR,125.0
UASK 250530Z 24002MPS 190V290 9999 FEW023 BKN230 14/08 Q1018 R12/210260 NOSIG RMK QFE738/0984,UASK,2015-04-25T05:30:00Z,50.03,82.5,14.0,8.0,240,4,,6.21,30.059055,,,,,,TRUE,,,,,FEW,2300,BKN,23000,,,,,VFR,,,,,,,,,,,,METAR,286.0
UAOO 250530Z 04005MPS 9999 SCT033CB BKN160 23/03 Q1009 R06/CLRD70 NOSIG RMK QFE745/0993,UAOO,2015-04-25T05:30:00Z,44.7,65.6,23.0,3.0,40,10,,6.21,29.793306,,,,,,TRUE,,,,,SCT,3300,BKN,16000,,,,,VFR,,,,,,,,,,,,METAR,129.0
UAKK 250530Z 21006MPS 170V250 CAVOK 15/M02 Q1014 R23/0///70 NOSIG RMK QFE714/0952,UAKK,2015-04-25T05:30:00Z,49.67,73.33,15.0,-2.0,210,12,,6.21,29.940945,,,,,,TRUE,,,,,CAVOK,,,,,,,,VFR,,,,,,,,,,,,METAR,538.0
UAII 250530Z 00000MPS CAVOK 29/10 Q1009 R10/0///70 NOSIG RMK QFE722/0962,UAII,2015-04-25T05:30:00Z,42.37,69.48,29.0,10.0,0,0,,6.21,29.793306,,,,,,TRUE,,,,,CAVOK,,,,,,,,VFR,,,,,,,,,,,,METAR,422.0
UACP 250530Z 22009MPS 9999 -SHRA OVC033CB 07/05 Q1001 R23/0/0060 NOSIG RMK QFE738/0985,UACP,2015-04-25T05:30:00Z,54.78,69.18,7.0,5.0,220,17,,6.21,29.557087,,,,,,TRUE,,,,-SHRA,OVC,3300,,,,,,,VFR,,,,,,,,,,,,METAR,142.0
UACK 250530Z 24014MPS CAVOK 14/M03 Q1004 R20/010070 NOSIG RMK QFE730/0973,UACK,2015-04-25T05:30:00Z,53.32,69.58,14.0,-3.0,240,27,,6.21,29.64567,,,,,,TRUE,,,,,CAVOK,,,,,,,,VFR,,,,,,,,,,,,METAR,2547.0
UACC 250530Z 21010MPS 9999 FEW050CB OVC093 14/M02 Q1012 R22/0/0070 NOSIG RMK QFE727/0970,UACC,2015-04-25T05:30:00Z,51.02,71.47,14.0,-2.0,210,19,,6.21,29.88189,,,,,,TRUE,,,,,FEW,5000,OVC,9300,,,,,VFR,,,,,,,,,,,,METAR,355.0
UADD 250530Z 35004MPS 9999 NSC 26/08 Q1011 NOSIG RMK QFE701/0935,UADD,2015-04-25T05:30:00Z,42.85,71.3,26.0,8.0,350,8,,6.21,29.852362,,,,,,TRUE,,,,,,,,,,,,,,,,,,,,,,,,,METAR,665.0
UAAH 250530Z 03002MPS 310V080 CAVOK 18/03 Q1016 R05/0///60 NOSIG RMK QFE724/0966,UAAH,2015-04-25T05:30:00Z,46.9,75.0,18.0,3.0,30,4,,6.21,30.0,,,,,,TRUE,,,,,CAVOK,,,,,,,,VFR,,,,,,,,,,,,METAR,441.0
UAAA 250530Z 04003MPS 350V080 9999 SCT100 BKN200 22/11 Q1015 R88/65D NOSIG,UAAA,2015-04-25T05:30:00Z,43.35,77.03,22.0,11.0,40,6,,6.21,29.970472,,,,,,TRUE,,,,,SCT,10000,BKN,20000,,,,,VFR,,,,,,,,,,,,METAR,847.0
UDSG 250530Z 23002MPS 9000 FEW050 04/M04 Q1021 R02/CLRD70 NOSIG,UDSG,2015-04-25T05:30:00Z,40.75,43.87,4.0,-4.0,230,4,,5.59,30.147638,,,,,,TRUE,,,,,FEW,5000,,,,,,,VFR,,,,,,,,,,,,METAR,1524.0
UDYZ 250530Z VRB01MPS 9999 FEW100 09/02 Q1022 R09/000070 NOSIG,UDYZ,2015-04-25T05:30:00Z,40.15,44.4,9.0,2.0,0,2,,6.21,30.177166,,,,,,TRUE,,,,,FEW,10000,,,,,,,VFR,,,,,,,,,,,,METAR,865.0
GEML 250530Z 26010KT CAVOK 17/13 Q1017,GEML,2015-04-25T05:30:00Z,35.27,-2.95,17.0,13.0,260,10,,6.21,30.029528,,,,,,,,,,,CAVOK,,,,,,,,VFR,,,,,,,,,,,,METAR,55.0
OIYY 250530Z 22016KT 8000 NSC 30/M04 Q1016,OIYY,2015-04-25T05:30:00Z,31.9,54.28,30.0,-4.0,220,16,,4.97,30.0,,,,,,,,,,,,,,,,,,,,,,,,,,,,,,,METAR,1236.0
OITR 250530Z 08004KT 9999 FEW035 10/M04 Q1020,OITR,2015-04-25T05:30:00Z,37.67,45.07,10.0,-4.0,80,4,,6.21,30.11811,,,,,,,,,,,FEW,3500,,,,,,,VFR,,,,,,,,,,,,METAR,1312.0
OIGG 250530Z VRB02KT 9999 FEW020 14/08 Q1021,OIGG,2015-04-25T05:30:00Z,37.33,49.6,14.0,8.0,0,2,,6.21,30.147638,,,,,,,,,,,FEW,2000,,,,,,,VFR,,,,,,,,,,,,METAR,-13.0
OICC 250530Z 30006KT CAVOK 09/M05 Q1022 A3019 NOSIG,OICC,2015-04-25T05:30:00Z,34.33,47.17,9.0,-5.0,300,6,,6.21,30.177166,,,,,,TRUE,,,,,CAVOK,,,,,,,,VFR,,,,,,,,,,,,METAR,1322.0
OICK 250530Z 00000KT CAVOK 13/M06 Q1021,OICK,2015-04-25T05:30:00Z,33.43,48.28,13.0,-6.0,0,0,,6.21,30.147638,,,,,,,,,,,CAVOK,,,,,,,,VFR,,,,,,,,,,,,METAR,1155.0
OIBP 250530Z 28006KT 5000 DU SKC 28/19 Q1010 A2983,OIBP,2015-04-25T05:30:00Z,27.38,52.73,28.0,19.0,280,6,,3.11,29.822834,,,,,,,,,,DU,SKC,,,,,,,,MVFR,,,,,,,,,,,,METAR,9.0
OIZH 250530Z 24010KT 8000 NSC 32/01 Q1016 A3002,OIZH,2015-04-25T05:30:00Z,29.47,60.92,32.0,1.0,240,10,,4.97,30.0,,,,,,,,,,,,,,,,,,,,,,,,,,,,,,,METAR,1370.0
OISS 250530Z 00000KT 3000 DU NSC 26/00 Q1020 A3014,OISS,2015-04-25T05:30:00Z,29.52,52.57,26.0,0.0,0,0,,1.86,30.11811,,,,,,,,,,DU,,,,,,,,,,,,,,,,,,,,,METAR,1491.0
OIKB 250530Z 10004KT 3000 HZ NSC 34/16 Q1008 A2978,OIKB,2015-04-25T05:30:00Z,27.22,56.37,34.0,16.0,100,4,,1.86,29.763779,,,,,,,,,,HZ,,,,,,,,,,,,,,,,,,,,,METAR,10.0
OIFM 250530Z 25019KT CAVOK 23/M18 Q1015 A3000,OIFM,2015-04-25T05:30:00Z,32.75,51.87,23.0,-18.0,250,19,,6.21,29.970472,,,,,,,,,,,CAVOK,,,,,,,,VFR,,,,,,,,,,,,METAR,1542.0
OIAW 250530Z 34006KT CAVOK 21/05 Q1017,OIAW,2015-04-25T05:30:00Z,31.32,48.77,21.0,5.0,340,6,,6.21,30.029528,,,,,,,,,,,CAVOK,,,,,,,,VFR,,,,,,,,,,,,METAR,22.0
ZYTX 250530Z 21010MPS 7000 NSC 28/01 Q1010 NOSIG,ZYTX,2015-04-25T05:30:00Z,41.63,123.48,28.0,1.0,210,19,,4.35,29.822834,,,,,,TRUE,,,,,,,,,,,,,,,,,,,,,,,,,METAR,35.0
ZYTL 250530Z 27008MPS 6000 NSC 26/12 Q1015 NOSIG,ZYTL,2015-04-25T05:30:00Z,38.97,121.53,26.0,12.0,270,16,,3.73,29.970472,,,,,,TRUE,,,,,,,,,,,,,,,,,,,,,,,,,METAR,97.0
ZWWW 250530Z 32004MPS 280V360 CAVOK 29/01 Q1015 NOSIG,ZWWW,2015-04-25T05:30:00Z,43.88,87.47,29.0,1.0,320,8,,6.21,29.970472,,,,,,TRUE,,,,,CAVOK,,,,,,,,VFR,,,,,,,,,,,,METAR,654.0
ZSSS 250530Z VRB03G09MPS CAVOK 28/04 Q1019 NOSIG,ZSSS,2015-04-25T05:30:00Z,31.2,121.33,28.0,4.0,0,6,17,6.21,30.088583,,,,,,TRUE,,,,,CAVOK,,,,,,,,VFR,,,,,,,,,,,,METAR,7.0
ZSPD 250530Z 11005MPS CAVOK 24/11 Q1020 NOSIG,ZSPD,2015-04-25T05:30:00Z,31.15,121.8,24.0,11.0,110,10,,6.21,30.11811,,,,,,TRUE,,,,,CAVOK,,,,,,,,VFR,,,,,,,,,,,,METAR,4.0
ZSHC 250530Z 08004MPS 360V120 8000 NSC 26/00 Q1019 NOSIG,ZSHC,2015-04-25T05:30:00Z,30.22,120.43,26.0,0.0,80,8,,4.97,30.088583,,,,,,TRUE,,,,,,,,,,,,,,,,,,,,,,,,,METAR,43.0
ZGGG 250530Z 04002MPS 330V080 6000 FEW026 BKN050 28/20 Q1016 NOSIG,ZGGG,2015-04-25T05:30:00Z,23.4,113.3,28.0,20.0,40,4,,3.73,30.0,,,,,,TRUE,,,,,FEW,2600,BKN,5000,,,,,MVFR,,,,,,,,,,,,METAR,15.0
ZBYN 250530Z 23003MPS 170V270 9999 FEW040 27/M00 Q1018 NOSIG,ZBYN,2015-04-25T05:30:00Z,37.77,112.63,27.0,0.0,230,6,,6.21,30.059055,,,,,,TRUE,,,,,FEW,4000,,,,,,,VFR,,,,,,,,,,,,METAR,779.0
ZBTJ 250530Z 23005MPS 190V290 7000 NSC 30/07 Q1014 NOSIG,ZBTJ,2015-04-25T05:30:00Z,39.12,117.35,30.0,7.0,230,10,,4.35,29.940945,,,,,,TRUE,,,,,,,,,,,,,,,,,,,,,,,,,METAR,3.0
ZBAA 250530Z 21004MPS 170V240 CAVOK 31/04 Q1013 NOSIG,ZBAA,2015-04-25T05:30:00Z,40.07,116.58,31.0,4.0,210,8,,6.21,29.911417,,,,,,TRUE,,,,,CAVOK,,,,,,,,VFR,,,,,,,,,,,,METAR,30.0
RKSI 250530Z 23009KT 9000 NSC 17/M04 Q1020 NOSIG,RKSI,2015-04-25T05:30:00Z,37.47,126.45,17.0,-4.0,230,9,,5.59,30.11811,,,,,,TRUE,,,,,,,,,,,,,,,,,,,,,,,,,METAR,7.0
LEXJ 250530Z 00000KT 3000 BR MIFG SCT080 11/10 Q1011,LEXJ,2015-04-25T05:30:00Z,43.42,-3.82,11.0,10.0,0,0,,1.86,29.852362,,,,,,,,,,BR MIFG,SCT,8000,,,,,,,IFR,,,,,,,,,,,,METAR,6.0
LEPP 250530Z 00000KT CAVOK 12/11 Q1013,LEPP,2015-04-25T05:30:00Z,42.77,-1.65,12.0,11.0,0,0,,6.21,29.911417,,,,,,,,,,,CAVOK,,,,,,,,VFR,,,,,,,,,,,,METAR,459.0
LEJR 250530Z VRB01KT 7000 -DZ SCT008 OVC018 16/16 Q1017,LEJR,2015-04-25T05:30:00Z,36.75,-6.07,16.0,16.0,0,1,,4.35,30.029528,,,,,,,,,,-DZ,SCT,800,OVC,1800,,,,,MVFR,,,,,,,,,,,,METAR,30.0
LETL 250530Z AUTO 10002KT CAVOK 09/04 Q1016,LETL,2015-04-25T05:30:00Z,40.42,-1.22,9.0,4.0,100,2,,6.21,30.0,,,TRUE,,,,,,,,CAVOK,,,,,,,,VFR,,,,,,,,,,,,METAR,1013.0
LEAG 250530Z AUTO 28006KT 220V340 9999 FEW022 17/14 Q1017,LEAG,2015-04-25T05:30:00Z,,,17.0,14.0,280,6,,6.21,30.029528,,,TRUE,,,,,,,,FEW,2200,,,,,,,VFR,,,,,,,,,,,,METAR,
LEVS 250530Z 23011KT 9999 SCT030 10/10 Q1015,LEVS,2015-04-25T05:30:00Z,40.37,-3.77,10.0,10.0,230,11,,6.21,29.970472,,,,,,,,,,,SCT,3000,,,,,,,VFR,,,,,,,,,,,,METAR,687.0
LEVD 250530Z VRB02KT 8000 BKN030 09/08 Q1015,LEVD,2015-04-25T05:30:00Z,41.72,-4.83,9.0,8.0,0,2,,4.97,29.970472,,,,,,,,,,,BKN,3000,,,,,,,MVFR,,,,,,,,,,,,METAR,854.0
LEGR 250530Z 00000KT 9999 FEW060 09/06 Q1018,LEGR,2015-04-25T05:30:00Z,37.17,-3.77,9.0,6.0,0,0,,6.21,30.059055,,,,,,,,,,,FEW,6000,,,,,,,VFR,,,,,,,,,,,,METAR,559.0
LEAM 250530Z 00000KT 3500 BR OVC010 16/15 Q1015,LEAM,2015-04-25T05:30:00Z,36.85,-2.37,16.0,15.0,0,0,,2.17,29.970472,,,,,,,,,,BR,OVC,1000,,,,,,,IFR,,,,,,,,,,,,METAR,21.0
LERS 250530Z VRB02KT 7000 FEW006 SCT008 BKN010 17/15 Q1014,LERS,2015-04-25T05:30:00Z,41.13,1.17,17.0,15.0,0,2,,4.35,29.940945,,,,,,,,,,,FEW,600,SCT,800,BKN,1000,,,MVFR,,,,,,,,,,,,METAR,76.0
LEVT 250530Z 00000KT 9999 FEW035 SCT075 12/09 Q1013,LEVT,2015-04-25T05:30:00Z,42.87,-2.72,12.0,9.0,0,0,,6.21,29.911417,,,,,,,,,,,FEW,3500,SCT,7500,,,,,VFR,,,,,,,,,,,,METAR,509.0
LESO 250530Z VRB01KT 6000 SCT008 14/14 Q1012,LESO,2015-04-25T05:30:00Z,43.35,-1.8,14.0,14.0,0,1,,3.73,29.88189,,,,,,,,,,,SCT,800,,,,,,,MVFR,,,,,,,,,,,,METAR,8.0
LEZG 250530Z 27006KT 9999 FEW050 13/09 Q1013,LEZG,2015-04-25T05:30:00Z,41.67,-1.02,13.0,9.0,270,6,,6.21,29.911417,,,,,,,,,,,FEW,5000,,,,,,,VFR,,,,,,,,,,,,METAR,258.0
LEST 250530Z 23013G26KT 170V280 9999 FEW008 SCT012 BKN018 12/11 Q1010 RERA NOSIG,LEST,2015-04-25T05:30:00Z,42.88,-8.42,12.0,11.0,230,13,26,6.21,29.822834,,,,,,TRUE,,,,,FEW,800,SCT,1200,BKN,1800,,,MVFR,,,,,,,,,,,,METAR,367.0
LEGE 250530Z VRB01KT 5000 BR FEW040 14/13 Q1013,LEGE,2015-04-25T05:30:00Z,41.88,2.77,14.0,13.0,0,1,,3.11,29.911417,,,,,,,,,,BR,FEW,4000,,,,,,,MVFR,,,,,,,,,,,,METAR,129.0
LEBB 250530Z VRB01KT 2500 BR SCT006 13/12 Q1012 NOSIG,LEBB,2015-04-25T05:30:00Z,43.28,-2.92,13.0,12.0,0,1,,1.55,29.88189,,,,,,TRUE,,,,BR,SCT,600,,,,,,,IFR,,,,,,,,,,,,METAR,34.0
LEAS 250530Z 24006KT 8000 SCT070 SCT084 13/12 Q1010 NOSIG,LEAS,2015-04-25T05:30:00Z,43.53,-6.02,13.0,12.0,240,6,,4.97,29.822834,,,,,,TRUE,,,,,SCT,7000,SCT,8400,,,,,MVFR,,,,,,,,,,,,METAR,134.0
GCFV 250530Z VRB02KT 9999 FEW025 16/13 Q1019,GCFV,2015-04-25T05:30:00Z,28.43,-13.87,16.0,13.0,0,2,,6.21,30.088583,,,,,,,,,,,FEW,2500,,,,,,,VFR,,,,,,,,,,,,METAR,23.0
GCRR 250530Z 35006KT 9999 FEW018 17/15 Q1019,GCRR,2015-04-25T05:30:00Z,28.93,-13.58,17.0,15.0,350,6,,6.21,30.088583,,,,,,,,,,,FEW,1800,,,,,,,VFR,,,,,,,,,,,,METAR,40.0
GCTS 250530Z VRB01KT 9999 FEW020 16/13 Q1019 NOSIG,GCTS,2015-04-25T05:30:00Z,28.05,-16.57,16.0,13.0,0,1,,6.21,30.088583,,,,,,TRUE,,,,,FEW,2000,,,,,,,VFR,,,,,,,,,,,,METAR,72.0
GCXO 250530Z 27004KT 240V300 9999 FEW010 12/11 Q1020 NOSIG,GCXO,2015-04-25T05:30:00Z,28.48,-16.35,12.0,11.0,270,4,,6.21,30.11811,,,,,,TRUE,,,,,FEW,1000,,,,,,,VFR,,,,,,,,,,,,METAR,632.0
GCLP 250530Z 36005KT 9999 FEW020 17/14 Q1019 NOSIG,GCLP,2015-04-25T05:30:00Z,27.92,-15.37,17.0,14.0,360,5,,6.21,30.088583,,,,,,TRUE,,,,,FEW,2000,,,,,,,VFR,,,,,,,,,,,,METAR,25.0
LEVX 250530Z 22013KT 6000 BCFG FEW016 SCT018 BKN026 14/13 Q1012 RERA NOSIG,LEVX,2015-04-25T05:30:00Z,42.22,-8.62,14.0,13.0,220,13,,3.73,29.88189,,,,,,TRUE,,,,BCFG,FEW,1600,SCT,1800,BKN,2600,,,MVFR,,,,,,,,,,,,METAR,256.0
LEIB 250530Z 24011KT 9999 OVC011 17/14 Q1015 NOSIG,LEIB,2015-04-25T05:30:00Z,38.87,1.37,17.0,14.0,240,11,,6.21,29.970472,,,,,,TRUE,,,,,OVC,1100,,,,,,,MVFR,,,,,,,,,,,,METAR,12.0
LEAL 250530Z 22004KT 200V260 2000 BR NSC 14/13 Q1014 NOSIG,LEAL,2015-04-25T05:30:00Z,38.27,-0.55,14.0,13.0,220,4,,1.24,29.940945,,,,,,TRUE,,,,BR,,,,,,,,,,,,,,,,,,,,,METAR,31.0
LEVC 250530Z 00000KT 4000 BR NSC 14/13 Q1013 NOSIG,LEVC,2015-04-25T05:30:00Z,39.5,-0.47,14.0,13.0,0,0,,2.49,29.911417,,,,,,TRUE,,,,BR,,,,,,,,,,,,,,,,,,,,,METAR,62.0
LEMG 250530Z 28017KT 240V300 CAVOK 18/07 Q1015 NOSIG,LEMG,2015-04-25T05:30:00Z,36.67,-4.5,18.0,7.0,280,17,,6.21,29.970472,,,,,,TRUE,,,,,CAVOK,,,,,,,,VFR,,,,,,,,,,,,METAR,7.0
LEZL 250530Z 23005KT 7000 BKN006 16/15 Q1017 NOSIG,LEZL,2015-04-25T05:30:00Z,37.42,-5.9,16.0,15.0,230,5,,4.35,30.029528,,,,,,TRUE,,,,,BKN,600,,,,,,,IFR,,,,,,,,,,,,METAR,31.0
LEPA 250530Z 00000KT 9999 FEW010 12/11 Q1015 NOSIG,LEPA,2015-04-25T05:30:00Z,39.53,2.72,12.0,11.0,0,0,,6.21,29.970472,,,,,,TRUE,,,,,FEW,1000,,,,,,,VFR,,,,,,,,,,,,METAR,8.0
LEBL 250530Z 20004KT 9000 BKN010 16/15 Q1013 NOSIG,LEBL,2015-04-25T05:30:00Z,41.27,2.07,16.0,15.0,200,4,,5.59,29.911417,,,,,,TRUE,,,,,BKN,1000,,,,,,,MVFR,,,,,,,,,,,,METAR,6.0
LEMD 250530Z 18002KT 9999 BKN018 12/09 Q1015 NOSIG,LEMD,2015-04-25T05:30:00Z,40.48,-3.57,12.0,9.0,180,2,,6.21,29.970472,,,,,,TRUE,,,,,BKN,1800,,,,,,,MVFR,,,,,,,,,,,,METAR,582.0
LFTW 250530Z AUTO 11008KT 5000 BR OVC006/// ///TCU 13/12 Q1015,LFTW,2015-04-25T05:30:00Z,43.75,4.42,13.0,12.0,110,8,,3.11,29.970472,,,TRUE,,,,,,,BR,,,,,,,,,,,,,,,,,,,,,METAR,96.0
LFSD 250530Z AUTO 00000KT 9999 NSC 11/08 Q1011,LFSD,2015-04-25T05:30:00Z,47.27,5.07,11.0,8.0,0,0,,6.21,29.852362,,,TRUE,,,,,,,,,,,,,,,,,,,,,,,,,,,,METAR,227.0
LFRQ 250530Z AUTO 21008KT 9999 OVC005 12/12 Q1008,LFRQ,2015-04-25T05:30:00Z,47.97,-4.17,12.0,12.0,210,8,,6.21,29.763779,,,TRUE,,,,,,,,OVC,500,,,,,,,IFR,,,,,,,,,,,,METAR,94.0
LFRH 250530Z AUTO 21010KT 9999 BKN004/// OVC011/// ///TCU 12/12 Q1008,LFRH,2015-04-25T05:30:00Z,47.77,-3.45,12.0,12.0,210,10,,6.21,29.763779,,,TRUE,,,,,,,,,,,,,,,,,,,,,,,,,,,,METAR,44.0
LFPT 250530Z AUTO 22005KT 8000 NSC 11/10 Q1009,LFPT,2015-04-25T05:30:00Z,49.1,2.03,11.0,10.0,220,5,,4.97,29.793306,,,TRUE,,,,,,,,,,,,,,,,,,,,,,,,,,,,METAR,99.0
LFPM 250530Z AUTO 21005KT 3300 -RA BR FEW047 12/11 Q1010,LFPM,2015-04-25T05:30:00Z,48.62,2.67,12.0,11.0,210,5,,2.05,29.822834,,,TRUE,,,,,,,-RA BR,FEW,4700,,,,,,,IFR,,,,,,,,,,,,METAR,92.0
LFLN 250530Z AUTO 00000KT 9999 -RA FEW015 OVC074 13/12 Q1012,LFLN,2015-04-25T05:30:00Z,46.42,4.02,13.0,12.0,0,0,,6.21,29.88189,,,TRUE,,,,,,,-RA,FEW,1500,OVC,7400,,,,,VFR,,,,,,,,,,,,METAR,244.0
LFGA 250530Z AUTO VRB02KT 9999 NSC 11/07 Q1011,LFGA,2015-04-25T05:30:00Z,48.1,7.35,11.0,7.0,0,2,,6.21,29.852362,,,TRUE,,,,,,,,,,,,,,,,,,,,,,,,,,,,METAR,191.0
LFBU 250530Z AUTO 17004KT 140V200 9999 ///TCU 13/11 Q1011,LFBU,2015-04-25T05:30:00Z,45.72,0.22,13.0,11.0,170,4,,6.21,29.852362,,,TRUE,,,,,,,,,,,,,,,,,,,,,,,,,,,,METAR,133.0
LFAT 250530Z AUTO 21002KT 3600 BR BKN011 BKN020 BKN025 11/10 Q1008,LFAT,2015-04-25T05:30:00Z,50.52,1.62,11.0,10.0,210,2,,2.24,29.763779,,,TRUE,,,,,,,BR,BKN,1100,BKN,2000,BKN,2500,,,IFR,,,,,,,,,,,,METAR,14.0
LFAQ 250530Z AUTO 23008KT 3100 -RA BR BKN007 BKN011 BKN029 12/11 Q1008,LFAQ,2015-04-25T05:30:00Z,49.97,2.7,12.0,11.0,230,8,,1.93,29.763779,,,TRUE,,,,,,,-RA BR,BKN,700,BKN,1100,BKN,2900,,,IFR,,,,,,,,,,,,METAR,111.0
LFSN 250530Z AUTO 11004KT 9999 -RA NSC 10/07 Q1010,LFSN,2015-04-25T05:30:00Z,48.67,6.22,10.0,7.0,110,4,,6.21,29.822834,,,TRUE,,,,,,,-RA,,,,,,,,,,,,,,,,,,,,,METAR,217.0
LFQB 250530Z AUTO 00000KT 3300 BR ///TCU 13/12 Q1010,LFQB,2015-04-25T05:30:00Z,48.32,4.02,13.0,12.0,0,0,,2.05,29.822834,,,TRUE,,,,,,,BR,,,,,,,,,,,,,,,,,,,,,METAR,118.0
LFQA 250530Z AUTO 17003KT 2500 -RA BR FEW027 SCT041 BKN048 12/12 Q1010,LFQA,2015-04-25T05:30:00Z,49.2,4.15,12.0,12.0,170,3,,1.55,29.822834,,,TRUE,,,,,,,-RA BR,FEW,2700,SCT,4100,BKN,4800,,,IFR,,,,,,,,,,,,METAR,95.0
LFPB 250530Z AUTO 26006KT 230V290 9999 -RA FEW014 SCT019 BKN040 12/10 Q1010,LFPB,2015-04-25T05:30:00Z,48.97,2.45,12.0,10.0,260,6,,6.21,29.822834,,,TRUE,,,,,,,-RA,FEW,1400,SCT,1900,BKN,4000,,,VFR,,,,,,,,,,,,METAR,65.0
LFOP 250530Z AUTO 22005KT 4500 -RA BR SCT005 SCT009 BKN013 11/10 Q1009,LFOP,2015-04-25T05:30:00Z,49.37,1.17,11.0,10.0,220,5,,2.8,29.793306,,,TRUE,,,,,,,-RA BR,SCT,500,SCT,900,BKN,1300,,,IFR,,,,,,,,,,,,METAR,157.0
LFOK 250530Z AUTO 22006KT 1500 1000 R10/P2000 R28/P2000 -DZ BR BKN002/// BKN022/// BKN043/// ///TCU 12/12 Q1010,LFOK,2015-04-25T05:30:00Z,48.78,4.18,12.0,12.0,220,6,,0.93,29.822834,,,TRUE,,,,,,,-DZ BR,,,,,,,,,,,,,,,,,,,,,METAR,162.0
LFOH 250530Z AUTO 21010KT 9999 OVC012 11/09 Q1008,LFOH,2015-04-25T05:30:00Z,49.52,0.07,11.0,9.0,210,10,,6.21,29.763779,,,TRUE,,,,,,,,OVC,1200,,,,,,,MVFR,,,,,,,,,,,,METAR,103.0
LFOB 250530Z AUTO 22007KT 7000 -RA FEW022 OVC068 11/10 Q1009,LFOB,2015-04-25T05:30:00Z,49.47,2.12,11.0,10.0,220,7,,4.35,29.793306,,,TRUE,,,,,,,-RA,FEW,2200,OVC,6800,,,,,MVFR,,,,,,,,,,,,METAR,111.0
LFMU 250530Z AUTO 07009KT 5000 BR OVC006 16/15 Q1013,LFMU,2015-04-25T05:30:00Z,43.32,3.35,16.0,15.0,70,9,,3.11,29.911417,,,TRUE,,,,,,,BR,OVC,600,,,,,,,IFR,,,,,,,,,,,,METAR,17.0
LFMT 250530Z 10013KT 9999 -RA BKN007 SCT011TCU BKN018 16/15 Q1014 NOSIG,LFMT,2015-04-25T05:30:00Z,43.57,3.97,16.0,15.0,100,13,,6.21,29.940945,,,,,,TRUE,,,,-RA,BKN,700,SCT,1100,BKN,1800,,,IFR,,,,,,,,,,,,METAR,6.0
LFLY 250530Z AUTO 19014KT 9999 NSC 16/09 Q1013,LFLY,2015-04-25T05:30:00Z,45.72,4.95,16.0,9.0,190,14,,6.21,29.911417,,,TRUE,,,,,,,,,,,,,,,,,,,,,,,,,,,,METAR,201.0
LFLS 250530Z AUTO 22009KT 9999 NSC 14/09 Q1014,LFLS,2015-04-25T05:30:00Z,45.37,5.32,14.0,9.0,220,9,,6.21,29.940945,,,TRUE,,,,,,,,,,,,,,,,,,,,,,,,,,,,METAR,386.0
LFLP 250530Z AUTO VRB02KT 9999 NSC 12/06 Q1014,LFLP,2015-04-25T05:30:00Z,45.92,6.08,12.0,6.0,0,2,,6.21,29.940945,,,TRUE,,,,,,,,,,,,,,,,,,,,,,,,,,,,METAR,463.0
LFJL 250530Z AUTO 19005KT 9999 -RA NSC 11/07 Q1011,LFJL,2015-04-25T05:30:00Z,48.97,6.25,11.0,7.0,190,5,,6.21,29.852362,,,TRUE,,,,,,,-RA,,,,,,,,,,,,,,,,,,,,,METAR,264.0
LFCR 250530Z AUTO 12008KT 9999 NSC 13/08 Q1013,LFCR,2015-04-25T05:30:00Z,44.38,2.47,13.0,8.0,120,8,,6.21,29.911417,,,TRUE,,,,,,,,,,,,,,,,,,,,,,,,,,,,METAR,580.0
LFTH 250530Z AUTO 01003KT 340V060 7000 SCT013 BKN023 BKN058 14/13 Q1016,LFTH,2015-04-25T05:30:00Z,43.1,6.15,14.0,13.0,10,3,,4.35,30.0,,,TRUE,,,,,,,,SCT,1300,BKN,2300,BKN,5800,,,MVFR,,,,,,,,,,,,METAR,4.0
LFST 250530Z AUTO VRB03KT 9999 -RA NSC 11/08 Q1011,LFST,2015-04-25T05:30:00Z,48.53,7.62,11.0,8.0,0,3,,6.21,29.852362,,,TRUE,,,,,,,-RA,,,,,,,,,,,,,,,,,,,,,METAR,154.0
LFSG 250530Z AUTO 14004KT 090V170 9999 NSC 10/06 Q1011,LFSG,2015-04-25T05:30:00Z,48.33,6.07,10.0,6.0,140,4,,6.21,29.852362,,,TRUE,,,,,,,,,,,,,,,,,,,,,,,,,,,,METAR,330.0
LFSB 250530Z 18004KT 140V290 9999 -RA FEW050 SCT073 BKN093 11/06 Q1012 NOSIG,LFSB,2015-04-25T05:30:00Z,47.6,7.52,11.0,6.0,180,4,,6.21,29.88189,,,,,,TRUE,,,,-RA,FEW,5000,SCT,7300,BKN,9300,,,VFR,,,,,,,,,,,,METAR,271.0
LFRZ 250530Z AUTO 22007KT 9999 FEW041 SCT064 BKN076 13/10 Q1010,LFRZ,2015-04-25T05:30:00Z,47.32,-2.17,13.0,10.0,220,7,,6.21,29.822834,,,TRUE,,,,,,,,FEW,4100,SCT,6400,BKN,7600,,,VFR,,,,,,,,,,,,METAR,4.0
LFRV 250530Z AUTO 19004KT 160V230 9999 -RADZ OVC004/// ///TCU 11/11 Q1009,LFRV,2015-04-25T05:30:00Z,47.72,-2.72,11.0,11.0,190,4,,6.21,29.793306,,,TRUE,,,,,,,-RA -DZ,,,,,,,,,,,,,,,,,,,,,METAR,133.0
LFRO 250530Z AUTO 17002KT 8000 SCT014 BKN024 BKN033 10/10 Q1007,LFRO,2015-04-25T05:30:00Z,48.75,-3.47,10.0,10.0,170,2,,4.97,29.734253,,,TRUE,,,,,,,,SCT,1400,BKN,2400,BKN,3300,,,MVFR,,,,,,,,,,,,METAR,89.0
LFRN 250530Z AUTO VRB01KT CAVOK 11/10 Q1009,LFRN,2015-04-25T05:30:00Z,48.07,-1.72,11.0,10.0,0,1,,6.21,29.793306,,,TRUE,,,,,,,,CAVOK,,,,,,,,VFR,,,,,,,,,,,,METAR,37.0
LFRM 250530Z AUTO 00000KT 9999 NSC 11/10 Q1010,LFRM,2015-04-25T05:30:00Z,47.95,0.2,11.0,10.0,0,0,,6.21,29.822834,,,TRUE,,,,,,,,,,,,,,,,,,,,,,,,,,,,METAR,52.0
LFRI 250530Z AUTO 18003KT 9000 NSC 11/10 Q1010,LFRI,2015-04-25T05:30:00Z,46.7,-1.37,11.0,10.0,180,3,,5.59,29.822834,,,TRUE,,,,,,,,,,,,,,,,,,,,,,,,,,,,METAR,91.0
LFRD 250530Z AUTO 20007KT 9999 FEW045 SCT084 11/10 Q1008,LFRD,2015-04-25T05:30:00Z,48.58,-2.07,11.0,10.0,200,7,,6.21,29.763779,,,TRUE,,,,,,,,FEW,4500,SCT,8400,,,,,VFR,,,,,,,,,,,,METAR,59.0
LFOV 250530Z AUTO 18003KT 4400 BR FEW041 SCT056 OVC080 10/10 Q1010,LFOV,2015-04-25T05:30:00Z,48.03,-0.75,10.0,10.0,180,3,,2.73,29.822834,,,TRUE,,,,,,,BR,FEW,4100,SCT,5600,OVC,8000,,,IFR,,,,,,,,,,,,METAR,101.0
LFMK 250530Z AUTO 10010KT 070V150 9999 FEW009 BKN019 BKN120 15/13 Q1012,LFMK,2015-04-25T05:30:00Z,43.22,2.32,15.0,13.0,100,10,,6.21,29.88189,,,TRUE,,,,,,,,FEW,900,BKN,1900,BKN,12000,,,MVFR,,,,,,,,,,,,METAR,130.0
LFMI 250530Z AUTO 10009KT 6000 SCT017/// BKN033/// BKN044/// ///TCU 15/13 Q1015,LFMI,2015-04-25T05:30:00Z,43.52,4.92,15.0,13.0,100,9,,3.73,29.970472,,,TRUE,,,,,,,,,,,,,,,,,,,,,,,,,,,,METAR,24.0
LFRK 250530Z AUTO 22006KT 9999 OVC014 11/09 Q1008,LFRK,2015-04-25T05:30:00Z,49.17,-0.45,11.0,9.0,220,6,,6.21,29.763779,,,TRUE,,,,,,,,OVC,1400,,,,,,,MVFR,,,,,,,,,,,,METAR,67.0
LFRG 250530Z AUTO 23007KT 9000 OVC009 10/10 Q1009,LFRG,2015-04-25T05:30:00Z,49.37,0.15,10.0,10.0,230,7,,5.59,29.793306,,,TRUE,,,,,,,,OVC,900,,,,,,,IFR,,,,,,,,,,,,METAR,146.0
LFRC 250530Z AUTO 21009KT 9999 OVC006 11/10 Q1007,LFRC,2015-04-25T05:30:00Z,49.63,-1.47,11.0,10.0,210,9,,6.21,29.734253,,,TRUE,,,,,,,,OVC,600,,,,,,,IFR,,,,,,,,,,,,METAR,138.0
LFPN 250530Z AUTO 23006KT 9999 SCT048 BKN056 OVC066 11/10 Q1010,LFPN,2015-04-25T05:30:00Z,48.75,2.12,11.0,10.0,230,6,,6.21,29.822834,,,TRUE,,,,,,,,SCT,4800,BKN,5600,OVC,6600,,,VFR,,,,,,,,,,,,METAR,164.0
LFOT 250530Z 14003KT 4500 BR NSC 12/11 Q1010 NOSIG,LFOT,2015-04-25T05:30:00Z,47.43,0.72,12.0,11.0,140,3,,2.8,29.822834,,,,,,TRUE,,,,BR,,,,,,,,,,,,,,,,,,,,,METAR,108.0
LFMH 250530Z 19006KT 170V250 CAVOK 16/06 Q1013 NOSIG,LFMH,2015-04-25T05:30:00Z,45.52,4.28,16.0,6.0,190,6,,6.21,29.911417,,,,,,TRUE,,,,,CAVOK,,,,,,,,VFR,,,,,,,,,,,,METAR,402.0
LFMD 250530Z AUTO 00000KT 9999 NSC 14/11 Q1017,LFMD,2015-04-25T05:30:00Z,43.53,6.95,14.0,11.0,0,0,,6.21,30.029528,,,TRUE,,,,,,,,,,,,,,,,,,,,,,,,,,,,METAR,9.0
LFJR 250530Z AUTO 33002KT 9999 FEW034 OVC056 11/10 Q1010,LFJR,2015-04-25T05:30:00Z,47.57,-0.3,11.0,10.0,330,2,,6.21,29.822834,,,TRUE,,,,,,,,FEW,3400,OVC,5600,,,,,VFR,,,,,,,,,,,,METAR,60.0
LFGJ 250530Z AUTO 18008KT 140V210 9999 NSC 14/10 Q1012,LFGJ,2015-04-25T05:30:00Z,47.05,5.43,14.0,10.0,180,8,,6.21,29.88189,,,TRUE,,,,,,,,,,,,,,,,,,,,,,,,,,,,METAR,196.0
LFBE 250530Z AUTO 13006KT 9999 ///TCU 14/13 Q1012,LFBE,2015-04-25T05:30:00Z,44.82,0.52,14.0,13.0,130,6,,6.21,29.88189,,,TRUE,,,,,,,,,,,,,,,,,,,,,,,,,,,,METAR,52.0
LFBA 250530Z AUTO VRB02KT 9999 ///TCU 14/12 Q1012,LFBA,2015-04-25T05:30:00Z,44.17,0.6,14.0,12.0,0,2,,6.21,29.88189,,,TRUE,,,,,,,,,,,,,,,,,,,,,,,,,,,,METAR,60.0
LFRS 250530Z 17003KT 5000 BKN032 BKN049 OVC087 12/11 Q1010 NOSIG,LFRS,2015-04-25T05:30:00Z,47.17,-1.6,12.0,11.0,170,3,,3.11,29.822834,,,,,,TRUE,,,,,BKN,3200,BKN,4900,OVC,8700,,,MVFR,,,,,,,,,,,,METAR,27.0
LFRB 250530Z 21009KT 8000 BKN004 12/11 Q1007 NOSIG,LFRB,2015-04-25T05:30:00Z,48.45,-4.42,12.0,11.0,210,9,,4.97,29.734253,,,,,,TRUE,,,,,BKN,400,,,,,,,LIFR,,,,,,,,,,,,METAR,103.0
LFQQ 250530Z 16006KT 3000 -RA BR SCT007 OVC021 12/11 Q1008 TEMPO BKN007,LFQQ,2015-04-25T05:30:00Z,50.57,3.1,12.0,11.0,160,6,,1.86,29.763779,,,,,,,,,,-RA BR,SCT,700,OVC,2100,,,,,IFR,,,,,,,,,,,,METAR,52.0
LFPO 250530Z 23006KT 200V260 6000 FEW014 SCT056 BKN070 12/10 Q1010 TEMPO 3000 -RA BKN012,LFPO,2015-04-25T05:30:00Z,48.72,2.38,12.0,10.0,230,6,,3.73,29.822834,,,,,,,,,,,FEW,1400,SCT,5600,BKN,7000,,,MVFR,,,,,,,,,,,,METAR,96.0
LFPG 250530Z 23009KT 9999 -RA FEW011 SCT038 BKN056 12/10 Q1010 NOSIG,LFPG,2015-04-25T05:30:00Z,49.02,2.52,12.0,10.0,230,9,,6.21,29.822834,,,,,,TRUE,,,,-RA,FEW,1100,SCT,3800,BKN,5600,,,VFR,,,,,,,,,,,,METAR,109.0
LFMN 250530Z 34005KT 9999 FEW060 BKN120 14/10 Q1016 NOSIG,LFMN,2015-04-25T05:30:00Z,43.63,7.2,14.0,10.0,340,5,,6.21,30.0,,,,,,TRUE,,,,,FEW,6000,BKN,12000,,,,,VFR,,,,,,,,,,,,METAR,10.0
LFLL 250530Z 19019KT 9999 FEW060TCU BKN086 16/09 Q1012 TEMPO 18020G35KT,LFLL,2015-04-25T05:30:00Z,45.72,5.07,16.0,9.0,190,19,,6.21,29.88189,,,,,,,,,,,FEW,6000,BKN,8600,,,,,VFR,,,,,,,,,,,,METAR,240.0
LFRL 250530Z AUTO 20007KT 9999 BKN004 OVC008 12/12 Q1007,LFRL,2015-04-25T05:30:00Z,48.27,-4.42,12.0,12.0,200,7,,6.21,29.734253,,,TRUE,,,,,,,,BKN,400,OVC,800,,,,,LIFR,,,,,,,,,,,,METAR,82.0
LFRJ 250530Z AUTO 22006KT 9999 SCT007 SCT011 OVC029 12/11 Q1007,LFRJ,2015-04-25T05:30:00Z,48.52,-4.15,12.0,11.0,220,6,,6.21,29.734253,,,TRUE,,,,,,,,SCT,700,SCT,1100,OVC,2900,,,MVFR,,,,,,,,,,,,METAR,115.0
LFOJ 250530Z AUTO 20003KT 5000 -RA BR NSC 12/11 Q1010,LFOJ,2015-04-25T05:30:00Z,47.97,1.75,12.0,11.0,200,3,,3.11,29.822834,,,TRUE,,,,,,,-RA BR,,,,,,,,,,,,,,,,,,,,,METAR,125.0
LFOE 250530Z AUTO 22006KT 8000 -RA BKN034 OVC040 10/10 Q1009,LFOE,2015-04-25T05:30:00Z,49.02,1.22,10.0,10.0,220,6,,4.97,29.793306,,,TRUE,,,,,,,-RA,BKN,3400,OVC,4000,,,,,MVFR,,,,,,,,,,,,METAR,146.0
LFOC 250530Z AUTO 21003KT 7000 NSC 11/10 Q1010,LFOC,2015-04-25T05:30:00Z,48.03,1.37,11.0,10.0,210,3,,4.35,29.822834,,,TRUE,,,,,,,,,,,,,,,,,,,,,,,,,,,,METAR,127.0
LRTC 250530Z 14005KT 8000 NSC 11/09 Q1018,LRTC,2015-04-25T05:30:00Z,45.07,28.72,11.0,9.0,140,5,,4.97,30.059055,,,,,,,,,,,,,,,,,,,,,,,,,,,,,,,METAR,6.0
LRSV 250530Z 19002KT CAVOK 14/06 Q1016,LRSV,2015-04-25T05:30:00Z,47.68,26.35,14.0,6.0,190,2,,6.21,30.0,,,,,,,,,,,CAVOK,,,,,,,,VFR,,,,,,,,,,,,METAR,351.0
LRIA 250530Z 12007KT CAVOK 13/06 Q1016,LRIA,2015-04-25T05:30:00Z,47.17,27.62,13.0,6.0,120,7,,6.21,30.0,,,,,,,,,,,CAVOK,,,,,,,,VFR,,,,,,,,,,,,METAR,104.0
LRCV 250530Z 25006KT 230V290 CAVOK 12/06 Q1016,LRCV,2015-04-25T05:30:00Z,44.32,23.88,12.0,6.0,250,6,,6.21,30.0,,,,,,,,,,,CAVOK,,,,,,,,VFR,,,,,,,,,,,,METAR,191.0
LRBC 250530Z 16003KT CAVOK 11/07 Q1017,LRBC,2015-04-25T05:30:00Z,46.52,26.92,11.0,7.0,160,3,,6.21,30.029528,,,,,,,,,,,CAVOK,,,,,,,,VFR,,,,,,,,,,,,METAR,185.0
LFSL 250530Z AUTO 07001KT 9999 NSC 12/11 Q1012,LFSL,2015-04-25T05:30:00Z,45.03,1.48,12.0,11.0,70,1,,6.21,29.88189,,,TRUE,,,,,,,,,,,,,,,,,,,,,,,,,,,,METAR,310.0
LFMV 250530Z AUTO 13005KT 6000 -RA SCT038/// BKN060/// OVC082/// ///TCU 14/13 Q1015,LFMV,2015-04-25T05:30:00Z,43.9,4.9,14.0,13.0,130,5,,3.73,29.970472,,,TRUE,,,,,,,-RA,,,,,,,,,,,,,,,,,,,,,METAR,38.0
LFMP 250530Z AUTO 00000KT 4400 BR BKN011 BKN110 OVC150 15/14 Q1013,LFMP,2015-04-25T05:30:00Z,42.72,2.87,15.0,14.0,0,0,,2.73,29.911417,,,TRUE,,,,,,,BR,BKN,1100,BKN,11000,OVC,15000,,,IFR,,,,,,,,,,,,METAR,48.0
LFKJ 250530Z 03005KT 360V060 CAVOK 12/10 Q1017 NOSIG,LFKJ,2015-04-25T05:30:00Z,41.92,8.8,12.0,10.0,30,5,,6.21,30.029528,,,,,,TRUE,,,,,CAVOK,,,,,,,,VFR,,,,,,,,,,,,METAR,9.0
LFKF 250530Z AUTO 00000KT 3100 BR SCT002/// 11/10 Q1017,LFKF,2015-04-25T05:30:00Z,41.5,9.08,11.0,10.0,0,0,,1.93,30.029528,,,TRUE,,,,,,,BR,,,,,,,,,,,,,,,,,,,,,METAR,23.0
LFKC 250530Z 00000KT CAVOK 12/10 Q1017 NOSIG,LFKC,2015-04-25T05:30:00Z,42.52,8.8,12.0,10.0,0,0,,6.21,30.029528,,,,,,TRUE,,,,,CAVOK,,,,,,,,VFR,,,,,,,,,,,,METAR,58.0
LFKB 250530Z 24003KT 9999 BKN012 BKN220 12/11 Q1017 NOSIG,LFKB,2015-04-25T05:30:00Z,42.53,9.47,12.0,11.0,240,3,,6.21,30.029528,,,,,,TRUE,,,,,BKN,1200,BKN,22000,,,,,MVFR,,,,,,,,,,,,METAR,12.0
LRSB 250530Z 10003KT 060V130 CAVOK 13/04 Q1018,LRSB,2015-04-25T05:30:00Z,45.78,24.08,13.0,4.0,100,3,,6.21,30.059055,,,,,,,,,,,CAVOK,,,,,,,,VFR,,,,,,,,,,,,METAR,444.0
LRTR 250530Z 19003KT CAVOK 12/09 Q1017 NOSIG,LRTR,2015-04-25T05:30:00Z,45.82,21.33,12.0,9.0,190,3,,6.21,30.029528,,,,,,TRUE,,,,,CAVOK,,,,,,,,VFR,,,,,,,,,,,,METAR,88.0
LROP 250530Z VRB01KT CAVOK 13/07 Q1016 NOSIG,LROP,2015-04-25T05:30:00Z,44.57,26.1,13.0,7.0,0,1,,6.21,30.0,,,,,,TRUE,,,,,CAVOK,,,,,,,,VFR,,,,,,,,,,,,METAR,95.0
LRCK 250530Z 04003KT 360V090 0800 R36/1500U FG FEW000 10/10 Q1017 BECMG 1500 BR,LRCK,2015-04-25T05:30:00Z,44.37,28.48,10.0,10.0,40,3,,0.5,30.029528,,,,,,,,,,FG,FEW,0,,,,,,,LIFR,,,,,,,,,,,,METAR,108.0
LRBS 250530Z VRB01KT CAVOK 13/07 Q1016 NOSIG,LRBS,2015-04-25T05:30:00Z,44.5,26.08,13.0,7.0,0,1,,6.21,30.0,,,,,,TRUE,,,,,CAVOK,,,,,,,,VFR,,,,,,,,,,,,METAR,91.0
LFMY 250530Z AUTO 07004KT 5000 RA BR BKN032/// OVC038/// ///TCU 13/12 Q1016,LFMY,2015-04-25T05:30:00Z,43.6,5.08,13.0,12.0,70,4,,3.11,30.0,,,TRUE,,,,,,,RA BR,,,,,,,,,,,,,,,,,,,,,METAR,60.0
LFMO 250530Z AUTO 09002KT 9999 -RA FEW043/// BKN058/// OVC082/// ///TCU 13/12 Q1016,LFMO,2015-04-25T05:30:00Z,44.12,4.87,13.0,12.0,90,2,,6.21,30.0,,,TRUE,,,,,,,-RA,,,,,,,,,,,,,,,,,,,,,METAR,55.0
LFMC 250530Z AUTO VRB01KT 9999 NSC 12/11 Q1017,LFMC,2015-04-25T05:30:00Z,43.37,6.37,12.0,11.0,0,1,,6.21,30.029528,,,TRUE,,,,,,,,,,,,,,,,,,,,,,,,,,,,METAR,78.0
LFKS 250530Z AUTO 28004KT 9999 FEW066 BKN210 13/11 Q1017,LFKS,2015-04-25T05:30:00Z,41.92,9.4,13.0,11.0,280,4,,6.21,30.029528,,,TRUE,,,,,,,,FEW,6600,BKN,21000,,,,,VFR,,,,,,,,,,,,METAR,22.0
LFBM 250530Z AUTO VRB02KT 7000 FEW005/// OVC076/// ///TCU 14/13 Q1012,LFBM,2015-04-25T05:30:00Z,43.92,-0.5,14.0,13.0,0,2,,4.35,29.88189,,,TRUE,,,,,,,,,,,,,,,,,,,,,,,,,,,,METAR,63.0
LFBG 250530Z AUTO 22003KT 190V250 9999 NSC 14/12 Q1011,LFBG,2015-04-25T05:30:00Z,45.67,-0.32,14.0,12.0,220,3,,6.21,29.852362,,,TRUE,,,,,,,,,,,,,,,,,,,,,,,,,,,,METAR,31.0
LFBC 250530Z AUTO VRB03KT 9999 SCT011/// SCT098/// ///CB 14/13 Q1012,LFBC,2015-04-25T05:30:00Z,44.52,-1.12,14.0,13.0,0,3,,6.21,29.88189,,,TRUE,,,,,,,,,,,,,,,,,,,,,,,,,,,,METAR,33.0
LFYR 250530Z AUTO 00000KT 1400 -RA BR FEW016/// BKN028/// BKN039/// ///CB 12/12 Q1010,LFYR,2015-04-25T05:30:00Z,47.32,1.67,12.0,12.0,0,0,,0.87,29.822834,,,TRUE,,,,,,,-RA BR,,,,,,,,,,,,,,,,,,,,,METAR,86.0
LFSX 250530Z AUTO 08005KT 9999 NSC 10/07 Q1011,LFSX,2015-04-25T05:30:00Z,47.77,6.33,10.0,7.0,80,5,,6.21,29.852362,,,TRUE,,,,,,,,,,,,,,,,,,,,,,,,,,,,METAR,273.0
LFSO 250530Z AUTO 13003KT 9999 NSC 11/08 Q1010,LFSO,2015-04-25T05:30:00Z,48.57,5.97,11.0,8.0,130,3,,6.21,29.822834,,,TRUE,,,,,,,,,,,,,,,,,,,,,,,,,,,,METAR,350.0
LFSI 250530Z AUTO 13003KT 4600 -RA BR NSC 12/11 Q1010,LFSI,2015-04-25T05:30:00Z,48.62,4.9,12.0,11.0,130,3,,2.86,29.822834,,,TRUE,,,,,,,-RA BR,,,,,,,,,,,,,,,,,,,,,METAR,140.0
LJCE 250530Z 27003KT 210V300 CAVOK 09/08 Q1017,LJCE,2015-04-25T05:30:00Z,45.9,15.52,9.0,8.0,270,3,,6.21,30.029528,,,,,,,,,,,CAVOK,,,,,,,,VFR,,,,,,,,,,,,METAR,155.0
LFML 250530Z 04003KT 9000 -RA FEW019 BKN043 15/12 Q1016 NOSIG,LFML,2015-04-25T05:30:00Z,43.45,5.22,15.0,12.0,40,3,,5.59,30.0,,,,,,TRUE,,,,-RA,FEW,1900,BKN,4300,,,,,VFR,,,,,,,,,,,,METAR,36.0
LFLX 250530Z VRB02KT 7000 -RA FEW005 BKN040 13/12 Q1010 NOSIG,LFLX,2015-04-25T05:30:00Z,46.85,1.72,13.0,12.0,0,2,,4.35,29.822834,,,,,,TRUE,,,,-RA,FEW,500,BKN,4000,,,,,MVFR,,,,,,,,,,,,METAR,157.0
LFLB 250530Z VRB02KT 9999 FEW060 OVC100 12/09 Q1014 NOSIG,LFLB,2015-04-25T05:30:00Z,45.63,5.87,12.0,9.0,0,2,,6.21,29.940945,,,,,,TRUE,,,,,FEW,6000,OVC,10000,,,,,VFR,,,,,,,,,,,,METAR,239.0
LFCK 250530Z AUTO 12019KT 9999 NSC 15/11 Q1012,LFCK,2015-04-25T05:30:00Z,43.55,2.28,15.0,11.0,120,19,,6.21,29.88189,,,TRUE,,,,,,,,,,,,,,,,,,,,,,,,,,,,METAR,240.0
LFBZ 250530Z AUTO 00000KT 7000 NSC 14/13 Q1012,LFBZ,2015-04-25T05:30:00Z,43.47,-1.52,14.0,13.0,0,0,,4.35,29.88189,,,TRUE,,,,,,,,,,,,,,,,,,,,,,,,,,,,METAR,71.0
LFBT 250530Z AUTO 20003KT 9999 OVC096 13/11 Q1012,LFBT,2015-04-25T05:30:00Z,43.17,0.0,13.0,11.0,200,3,,6.21,29.88189,,,TRUE,,,,,,,,OVC,9600,,,,,,,VFR,,,,,,,,,,,,METAR,363.0
LFBP 250530Z AUTO VRB02KT 2000 1300 R31/P2000 R13/P2000 BR BKN100/// OVC130/// ///TCU 13/13 Q1012,LFBP,2015-04-25T05:30:00Z,43.37,-0.42,13.0,13.0,0,2,,1.24,29.88189,,,TRUE,,,,,,,BR,,,,,,,,,,,,,,,,,,,,,METAR,185.0
LFBO 250530Z AUTO 26004KT 9999 NSC 15/12 Q1013,LFBO,2015-04-25T05:30:00Z,43.62,1.37,15.0,12.0,260,4,,6.21,29.911417,,,TRUE,,,,,,,,,,,,,,,,,,,,,,,,,,,,METAR,153.0
LFBL 250530Z AUTO 14003KT 110V190 9999 -RA NSC 12/11 Q1011,LFBL,2015-04-25T05:30:00Z,45.87,1.17,12.0,11.0,140,3,,6.21,29.852362,,,TRUE,,,,,,,-RA,,,,,,,,,,,,,,,,,,,,,METAR,402.0
LFBI 250530Z AUTO 18003KT 7000 NSC 12/11 Q1010,LFBI,2015-04-25T05:30:00Z,46.57,0.32,12.0,11.0,180,3,,4.35,29.822834,,,TRUE,,,,,,,,,,,,,,,,,,,,,,,,,,,,METAR,120.0
LFBH 250530Z AUTO 19003KT 9000 NSC 13/12 Q1010,LFBH,2015-04-25T05:30:00Z,46.18,-1.2,13.0,12.0,190,3,,5.59,29.822834,,,TRUE,,,,,,,,,,,,,,,,,,,,,,,,,,,,METAR,10.0
LFBD 250530Z AUTO 20005KT 9999 -RA ///CB 14/13 Q1012,LFBD,2015-04-25T05:30:00Z,44.82,-0.7,14.0,13.0,200,5,,6.21,29.88189,,,TRUE,,,,,,,-RA,,,,,,,,,,,,,,,,,,,,,METAR,61.0
LJPZ 250530Z 11003KT 070V150 9999 FEW020 10/08 Q1018,LJPZ,2015-04-25T05:30:00Z,45.47,13.62,10.0,8.0,110,3,,6.21,30.059055,,,,,,,,,,,FEW,2000,,,,,,,VFR,,,,,,,,,,,,METAR,2.0
LJMB 250530Z 00000KT CAVOK 07/06 Q1015,LJMB,2015-04-25T05:30:00Z,46.47,15.67,7.0,6.0,0,0,,6.21,29.970472,,,,,,,,,,,CAVOK,,,,,,,,VFR,,,,,,,,,,,,METAR,265.0
LJLJ 250530Z VRB01KT 9999 FEW033 07/06 Q1017 NOSIG,LJLJ,2015-04-25T05:30:00Z,46.22,14.47,7.0,6.0,0,1,,6.21,30.029528,,,,,,TRUE,,,,,FEW,3300,,,,,,,VFR,,,,,,,,,,,,METAR,385.0
LFPV 250530Z AUTO 24006KT 210V270 9999 FEW046 OVC056 11/10 Q1010,LFPV,2015-04-25T05:30:00Z,48.77,2.2,11.0,10.0,240,6,,6.21,29.822834,,,TRUE,,,,,,,,FEW,4600,OVC,5600,,,,,VFR,,,,,,,,,,,,METAR,179.0
LFPC 250530Z AUTO 23010KT 7000 -RA FEW008 BKN035 OVC062 12/11 Q1009,LFPC,2015-04-25T05:30:00Z,49.25,2.52,12.0,11.0,230,10,,4.35,29.793306,,,TRUE,,,,,,,-RA,FEW,800,BKN,3500,OVC,6200,,,MVFR,,,,,,,,,,,,METAR,88.0
LFOA 250530Z AUTO 15006KT 3700 -RA BR FEW027/// SCT038/// BKN046/// ///CB 13/12 Q1011,LFOA,2015-04-25T05:30:00Z,47.03,2.63,13.0,12.0,150,6,,2.3,29.852362,,,TRUE,,,,,,,-RA BR,,,,,,,,,,,,,,,,,,,,,METAR,179.0
LRTM 250530Z 07004KT 9999 FEW011 07/03 Q1018,LRTM,2015-04-25T05:30:00Z,46.47,24.42,7.0,3.0,70,4,,6.21,30.059055,,,,,,,,,,,FEW,1100,,,,,,,VFR,,,,,,,,,,,,METAR,309.0
LRSM 250530Z 00000KT CAVOK 11/07 Q1016,LRSM,2015-04-25T05:30:00Z,47.7,22.88,11.0,7.0,0,0,,6.21,30.0,,,,,,,,,,,CAVOK,,,,,,,,VFR,,,,,,,,,,,,METAR,124.0
LROD 250530Z 13004KT CAVOK 12/06 Q1017,LROD,2015-04-25T05:30:00Z,47.03,21.92,12.0,6.0,130,4,,6.21,30.029528,,,,,,,,,,,CAVOK,,,,,,,,VFR,,,,,,,,,,,,METAR,140.0
LRCL 250530Z 09003KT 060V120 CAVOK 09/04 Q1018,LRCL,2015-04-25T05:30:00Z,46.78,23.68,9.0,4.0,90,3,,6.21,30.059055,,,,,,,,,,,CAVOK,,,,,,,,VFR,,,,,,,,,,,,METAR,413.0
LRBM 250530Z 11002KT CAVOK 10/06 Q1017,LRBM,2015-04-25T05:30:00Z,47.67,23.47,10.0,6.0,110,2,,6.21,30.029528,,,,,,,,,,,CAVOK,,,,,,,,VFR,,,,,,,,,,,,METAR,185.0
LRAR 250530Z 15005KT CAVOK 11/07 Q1017,LRAR,2015-04-25T05:30:00Z,46.18,21.27,11.0,7.0,150,5,,6.21,30.029528,,,,,,,,,,,CAVOK,,,,,,,,VFR,,,,,,,,,,,,METAR,118.0
DTTJ 250530Z 06008KT 6000 SCT020 BKN026 18/14 Q1015 NOSIG,DTTJ,2015-04-25T05:30:00Z,33.87,10.77,18.0,14.0,60,8,,3.73,29.970472,,,,,,TRUE,,,,,SCT,2000,BKN,2600,,,,,MVFR,,,,,,,,,,,,METAR,4.0
DTTA 250530Z 00000KT 8000 SCT023 14/13 Q1016 NOSIG,DTTA,2015-04-25T05:30:00Z,36.85,10.22,14.0,13.0,0,0,,4.97,30.0,,,,,,TRUE,,,,,SCT,2300,,,,,,,MVFR,,,,,,,,,,,,METAR,4.0
DTNH 250530Z AUTO 33004KT 9000NDV FEW011 13/10 Q1016,DTNH,2015-04-25T05:30:00Z,36.07,10.43,13.0,10.0,330,4,,,30.0,,,TRUE,,,,,,,,FEW,1100,,,,,,,,,,,,,,,,,,,METAR,2.0
DTMB 250530Z 01004KT 6000 FEW012 17/14 Q1016,DTMB,2015-04-25T05:30:00Z,35.77,10.75,17.0,14.0,10,4,,3.73,30.0,,,,,,,,,,,FEW,1200,,,,,,,MVFR,,,,,,,,,,,,METAR,2.0
CMGB 250530Z AUTO 25006KT 01/M04 RMK AO1 SLP096 T00061037 58006,CMGB,2015-04-25T05:30:00Z,45.37,-72.77,0.6,-3.7,250,6,,,,1009.6,,TRUE,TRUE,,,,,,,,,,,,,,,,-0.6,,,,,,,,,,,METAR,86.0
EICK 250530Z 23006KT 9999 FEW023 SCT039 07/07 Q1002 TEMPO BKN007,EICK,2015-04-25T05:30:00Z,51.85,-8.47,7.0,7.0,230,6,,6.21,29.586615,,,,,,,,,,,FEW,2300,SCT,3900,,,,,VFR,,,,,,,,,,,,METAR,162.0
EIKN 250530Z 36009KT 9999 -RA SCT007 OVC012 05/05 Q1001 NOSIG,EIKN,2015-04-25T05:30:00Z,53.92,-8.82,5.0,5.0,360,9,,6.21,29.557087,,,,,,TRUE,,,,-RA,SCT,700,OVC,1200,,,,,MVFR,,,,,,,,,,,,METAR,64.0
EINN 250530Z 24007KT 9999 SCT007 BKN035 10/09 Q1001 NOSIG,EINN,2015-04-25T05:30:00Z,52.7,-8.92,10.0,9.0,240,7,,6.21,29.557087,,,,,,TRUE,,,,,SCT,700,BKN,3500,,,,,VFR,,,,,,,,,,,,METAR,20.0
EIDW 250530Z 24013KT 9999 FEW010 SCT035 09/08 Q1000 NOSIG,EIDW,2015-04-25T05:30:00Z,53.42,-6.25,9.0,8.0,240,13,,6.21,29.52756,,,,,,TRUE,,,,,FEW,1000,SCT,3500,,,,,VFR,,,,,,,,,,,,METAR,85.0
VOCB 250530Z 23005KT 5000 HZ FEW015 SCT080 29/21 Q1014 NOSIG,VOCB,2015-04-25T05:30:00Z,11.02,77.03,29.0,21.0,230,5,,3.11,29.940945,,,,,,TRUE,,,,HZ,FEW,1500,SCT,8000,,,,,MVFR,,,,,,,,,,,,METAR,399.0
LQTZ 250530Z 28003KT CAVOK 08/08 Q1018,LQTZ,2015-04-25T05:30:00Z,44.47,18.73,8.0,8.0,280,3,,6.21,30.059055,,,,,,,,,,,CAVOK,,,,,,,,VFR,,,,,,,,,,,,METAR,306.0
LQSA 250530Z VRB01KT 0800 R12/0400U FG FEW001 06/06 Q1020 BECMG 1500 BR,LQSA,2015-04-25T05:30:00Z,43.82,18.32,6.0,6.0,0,1,,0.5,30.11811,,,,,,,,,,FG,FEW,100,,,,,,,LIFR,,,,,,,,,,,,METAR,511.0
LQBK 250530Z 00000KT CAVOK 09/07 Q1018 NOSIG,LQBK,2015-04-25T05:30:00Z,44.93,17.3,9.0,7.0,0,0,,6.21,30.059055,,,,,,TRUE,,,,,CAVOK,,,,,,,,VFR,,,,,,,,,,,,METAR,122.0
BIKF 250530Z 02015KT 9999 FEW035 M04/M11 Q1020,BIKF,2015-04-25T05:30:00Z,63.98,-22.6,-4.0,-11.0,20,15,,6.21,30.11811,,,,,,,,,,,FEW,3500,,,,,,,VFR,,,,,,,,,,,,METAR,54.0
LYVR 250530Z 18002KT CAVOK 15/08 Q1018 NOSIG,LYVR,2015-04-25T05:30:00Z,45.13,21.32,15.0,8.0,180,2,,6.21,30.059055,,,,,,TRUE,,,,,CAVOK,,,,,,,,VFR,,,,,,,,,,,,METAR,85.0
LYUZ 250530Z 24004KT 200V290 CAVOK 08/05 Q1018,LYUZ,2015-04-25T05:30:00Z,43.9,19.7,8.0,5.0,240,4,,6.21,30.059055,,,,,,,,,,,CAVOK,,,,,,,,VFR,,,,,,,,,,,,METAR,904.0
LYTV 250530Z VRB01KT CAVOK 10/10 Q1019 NOSIG,LYTV,2015-04-25T05:30:00Z,42.38,18.72,10.0,10.0,0,1,,6.21,30.088583,,,,,,TRUE,,,,,CAVOK,,,,,,,,VFR,,,,,,,,,,,,METAR,5.0
LYPG 250530Z VRB02KT 9999 FEW007 11/11 Q1019 NOSIG,LYPG,2015-04-25T05:30:00Z,42.37,19.25,11.0,11.0,0,2,,6.21,30.088583,,,,,,TRUE,,,,,FEW,700,,,,,,,VFR,,,,,,,,,,,,METAR,43.0
LYNI 250530Z 10003KT 070V170 9999 FEW040 13/06 Q1019 NOSIG,LYNI,2015-04-25T05:30:00Z,43.32,21.88,13.0,6.0,100,3,,6.21,30.088583,,,,,,TRUE,,,,,FEW,4000,,,,,,,VFR,,,,,,,,,,,,METAR,202.0
LYKV 250530Z 00000KT 9999 SCT037 13/10 Q1019 NOSIG,LYKV,2015-04-25T05:30:00Z,43.82,20.58,13.0,10.0,0,0,,6.21,30.088583,,,,,,TRUE,,,,,SCT,3700,,,,,,,VFR,,,,,,,,,,,,METAR,209.0
LYBT 250530Z 15003KT CAVOK 13/08 Q1018 NOSIG,LYBT,2015-04-25T05:30:00Z,44.93,20.25,13.0,8.0,150,3,,6.21,30.059055,,,,,,TRUE,,,,,CAVOK,,,,,,,,VFR,,,,,,,,,,,,METAR,80.0
LYBE 250530Z 22006KT CAVOK 14/08 Q1018 NOSIG,LYBE,2015-04-25T05:30:00Z,44.82,20.28,14.0,8.0,220,6,,6.21,30.059055,,,,,,TRUE,,,,,CAVOK,,,,,,,,VFR,,,,,,,,,,,,METAR,99.0
LKTB 250530Z 00000KT CAVOK 08/04 Q1014 NOSIG,LKTB,2015-04-25T05:30:00Z,49.13,16.68,8.0,4.0,0,0,,6.21,29.940945,,,,,,TRUE,,,,,CAVOK,,,,,,,,VFR,,,,,,,,,,,,METAR,246.0
LKPR 250530Z 19005KT CAVOK 09/03 Q1012 NOSIG,LKPR,2015-04-25T05:30:00Z,50.1,14.27,9.0,3.0,190,5,,6.21,29.88189,,,,,,TRUE,,,,,CAVOK,,,,,,,,VFR,,,,,,,,,,,,METAR,365.0
LKMT 250530Z VRB02KT CAVOK 09/06 Q1014 NOSIG,LKMT,2015-04-25T05:30:00Z,49.67,18.12,9.0,6.0,0,2,,6.21,29.940945,,,,,,TRUE,,,,,CAVOK,,,,,,,,VFR,,,,,,,,,,,,METAR,256.0
FMCZ 250530Z 12009KT 9999 FEW022 31/25 Q1013 NOSIG,FMCZ,2015-04-25T05:30:00Z,-12.8,45.27,31.0,25.0,120,9,,6.21,29.911417,,,,,,TRUE,,,,,FEW,2200,,,,,,,VFR,,,,,,,,,,,,METAR,7.0
LCPH 250530Z 07003KT 360V110 CAVOK 17/07 Q1023,LCPH,2015-04-25T05:30:00Z,34.72,32.47,17.0,7.0,70,3,,6.21,30.206694,,,,,,,,,,,CAVOK,,,,,,,,VFR,,,,,,,,,,,,METAR,8.0
LCLK 250530Z 35003KT 320V020 CAVOK 18/07 Q1024 NOSIG,LCLK,2015-04-25T05:30:00Z,34.87,33.62,18.0,7.0,350,3,,6.21,30.236221,,,,,,TRUE,,,,,CAVOK,,,,,,,,VFR,,,,,,,,,,,,METAR,2.0
KMOB 250530Z AUTO 16010KT 10SM FEW007 SCT013 BKN018 23/22 A2984 RMK AO2 T02330222,KMOB,2015-04-25T05:30:00Z,30.68,-88.25,23.3,22.2,160,10,,10.0,29.840551,,,TRUE,TRUE,,,,,,,FEW,700,SCT,1300,BKN,1800,,,MVFR,,,,,,,,,,,,METAR,63.0
KMLC 250530Z AUTO 17007G17KT 140V200 10SM FEW008 FEW100 17/16 A2964 RMK AO2 T01720156,KMLC,2015-04-25T05:30:00Z,34.88,-95.78,17.2,15.6,170,7,17,10.0,29.639763,,,TRUE,TRUE,,,,,,,FEW,800,FEW,10000,,,,,VFR,,,,,,,,,,,,METAR,232.0
KHLC 250530Z AUTO 17005KT 10SM TS OVC055 14/10 A2950 RMK AO2 LTG DSNT NE AND S RAE22 TSB24 P0000 T01390100,KHLC,2015-04-25T05:30:00Z,39.37,-99.83,13.9,10.0,170,5,,10.0,29.500984,,,TRUE,TRUE,,,,,,TS,OVC,5500,,,,,,,VFR,,,,,,0.0050,,,,,,METAR,669.0
KEMP 250530Z AUTO 30004KT 10SM VCTS -RA OVC022 15/13 A2950 RMK AO2 LTG DSNT SW-N P0002 T01500128,KEMP,2015-04-25T05:30:00Z,38.33,-96.2,15.0,12.8,300,4,,10.0,29.500984,,,TRUE,TRUE,,,,,,VCTS -RA,OVC,2200,,,,,,,MVFR,,,,,,0.02,,,,,,METAR,367.0
KCAR 250530Z AUTO 33005KT 10SM BKN011 OVC017 01/M01 A2954 RMK AO2 T00061006,KCAR,2015-04-25T05:30:00Z,46.87,-68.02,0.6,-0.6,330,5,,10.0,29.53937,,,TRUE,TRUE,,,,,,,BKN,1100,OVC,1700,,,,,MVFR,,,,,,,,,,,,METAR,191.0
GMTT 250530Z 00000KT 8000 BKN016 12/11 Q1018 NOSIG,GMTT,2015-04-25T05:30:00Z,35.72,-5.9,12.0,11.0,0,0,,4.97,30.059055,,,,,,TRUE,,,,,BKN,1600,,,,,,,MVFR,,,,,,,,,,,,METAR,21.0
GMMX 250530Z 23002KT CAVOK 13/10 Q1018 NOSIG,GMMX,2015-04-25T05:30:00Z,31.62,-8.02,13.0,10.0,230,2,,6.21,30.059055,,,,,,TRUE,,,,,CAVOK,,,,,,,,VFR,,,,,,,,,,,,METAR,466.0
GMMN 250530Z 00000KT 7000 SCT013 10/09 Q1019 NOSIG,GMMN,2015-04-25T05:30:00Z,33.37,-7.57,10.0,9.0,0,0,,4.35,30.088583,,,,,,TRUE,,,,,SCT,1300,,,,,,,MVFR,,,,,,,,,,,,METAR,206.0
GMME 250530Z VRB02KT 5000 BKN016 SCT200 13/12 Q1018 NOSIG,GMME,2015-04-25T05:30:00Z,34.03,-6.77,13.0,12.0,0,2,,3.11,30.059055,,,,,,TRUE,,,,,BKN,1600,SCT,20000,,,,,MVFR,,,,,,,,,,,,METAR,75.0
GMAD 250530Z 09003KT 060V130 9999 SCT010 BKN016 16/13 Q1018 NOSIG,GMAD,2015-04-25T05:30:00Z,30.32,-9.42,16.0,13.0,90,3,,6.21,30.059055,,,,,,TRUE,,,,,SCT,1000,BKN,1600,,,,,MVFR,,,,,,,,,,,,METAR,74.0
EPWA 250530Z 17003KT CAVOK 11/07 Q1012 NOSIG,EPWA,2015-04-25T05:30:00Z,52.17,20.97,11.0,7.0,170,3,,6.21,29.88189,,,,,,TRUE,,,,,CAVOK,,,,,,,,VFR,,,,,,,,,,,,METAR,107.0
EPRZ 250530Z 22004KT CAVOK 13/07 Q1015,EPRZ,2015-04-25T05:30:00Z,50.1,22.05,13.0,7.0,220,4,,6.21,29.970472,,,,,,,,,,,CAVOK,,,,,,,,VFR,,,,,,,,,,,,METAR,202.0
EPPO 250530Z 18003KT CAVOK 11/05 Q1011,EPPO,2015-04-25T05:30:00Z,52.42,16.82,11.0,5.0,180,3,,6.21,29.852362,,,,,,,,,,,CAVOK,,,,,,,,VFR,,,,,,,,,,,,METAR,92.0
EPLL 250530Z VRB01KT CAVOK 10/06 Q1013,EPLL,2015-04-25T05:30:00Z,51.72,19.4,10.0,6.0,0,1,,6.21,29.911417,,,,,,,,,,,CAVOK,,,,,,,,VFR,,,,,,,,,,,,METAR,184.0
EPKK 250530Z 00000KT CAVOK 11/08 Q1014,EPKK,2015-04-25T05:30:00Z,50.07,19.8,11.0,8.0,0,0,,6.21,29.940945,,,,,,,,,,,CAVOK,,,,,,,,VFR,,,,,,,,,,,,METAR,237.0
EPGD 250530Z 00000KT 9000 NSC 07/07 Q1010,EPGD,2015-04-25T05:30:00Z,54.37,18.47,7.0,7.0,0,0,,5.59,29.822834,,,,,,,,,,,,,,,,,,,,,,,,,,,,,,,METAR,138.0
EPZG 250530Z 23001KT CAVOK 08/06 Q1011,EPZG,2015-04-25T05:30:00Z,52.13,15.8,8.0,6.0,230,1,,6.21,29.852362,,,,,,,,,,,CAVOK,,,,,,,,VFR,,,,,,,,,,,,METAR,59.0
EPWR 250530Z 13003KT CAVOK 10/07 Q1012,EPWR,2015-04-25T05:30:00Z,51.1,16.87,10.0,7.0,130,3,,6.21,29.88189,,,,,,,,,,,CAVOK,,,,,,,,VFR,,,,,,,,,,,,METAR,121.0
EPSC 250530Z 14004KT CAVOK 09/05 Q1009,EPSC,2015-04-25T05:30:00Z,53.58,14.9,9.0,5.0,140,4,,6.21,29.793306,,,,,,,,,,,CAVOK,,,,,,,,VFR,,,,,,,,,,,,METAR,3.0
EPMO 250530Z 19005KT CAVOK 10/06 Q1012,EPMO,2015-04-25T05:30:00Z,52.45,20.65,10.0,6.0,190,5,,6.21,29.88189,,,,,,,,,,,CAVOK,,,,,,,,VFR,,,,,,,,,,,,METAR,104.0
EPLB 250530Z VRB02KT CAVOK 11/10 Q1014,EPLB,2015-04-25T05:30:00Z,51.23,22.72,11.0,10.0,0,2,,6.21,29.940945,,,,,,,,,,,CAVOK,,,,,,,,VFR,,,,,,,,,,,,METAR,206.0
EPKT 250530Z 14004KT CAVOK 12/06 Q1014,EPKT,2015-04-25T05:30:00Z,50.47,19.08,12.0,6.0,140,4,,6.21,29.940945,,,,,,,,,,,CAVOK,,,,,,,,VFR,,,,,,,,,,,,METAR,284.0
EPBY 250530Z VRB02KT CAVOK 11/05 Q1011,EPBY,2015-04-25T05:30:00Z,53.1,18.0,11.0,5.0,0,2,,6.21,29.852362,,,,,,,,,,,CAVOK,,,,,,,,VFR,,,,,,,,,,,,METAR,71.0
YSNW 250530Z AUTO 26007KT 6000 // BKN026 BKN038 OVC077 17/15 Q1006,YSNW,2015-04-25T05:30:00Z,-34.95,150.52,17.0,15.0,260,7,,3.73,29.704725,,,TRUE,,,,,,,,BKN,2600,BKN,3800,OVC,7700,,,MVFR,,,,,,,,,,,,SPECI,110.0
HRYR 250530Z 00000KT 8000 BKN025 19/19 Q1022 NOSIG,HRYR,2015-04-25T05:30:00Z,-1.97,30.12,19.0,19.0,0,0,,4.97,30.177166,,,,,,TRUE,,,,,BKN,2500,,,,,,,MVFR,,,,,,,,,,,,METAR,1497.0
CWPF 250530Z AUTO 25004KT 08/03 RMK AO1 T00780028,CWPF,2015-04-25T05:30:00Z,48.43,-123.43,7.8,2.8,250,4,,,,,,TRUE,TRUE,,,,,,,,,,,,,,,,,,,,,,,,,,,METAR,12.0
DIAP 250530Z 21009KT 8000 FEW011 FEW020CB 28/25 Q1012 TEMPO TS,DIAP,2015-04-25T05:30:00Z,5.25,-3.92,28.0,25.0,210,9,,4.97,29.88189,,,,,,,,,,,FEW,1100,FEW,2000,,,,,MVFR,,,,,,,,,,,,SPECI,8.0
UGSB 250530Z 04007KT CAVOK 12/05 Q1027 R13/70D NOSIG,UGSB,2015-04-25T05:30:00Z,41.62,41.6,12.0,5.0,40,7,,6.21,30.324802,,,,,,TRUE,,,,,CAVOK,,,,,,,,VFR,,,,,,,,,,,,METAR,32.0
UGKO 250530Z 09006KT 060V120 9999 SCT014 11/06 Q1025 R07/19//60 NOSIG,UGKO,2015-04-25T05:30:00Z,42.18,42.48,11.0,6.0,90,6,,6.21,30.265747,,,,,,TRUE,,,,,SCT,1400,,,,,,,VFR,,,,,,,,,,,,METAR,68.0
UGTB 250530Z 31027KT CAVOK 10/02 Q1023 R31L/CLRD80 NOSIG,UGTB,2015-04-25T05:30:00Z,41.67,44.95,10.0,2.0,310,27,,6.21,30.206694,,,,,,TRUE,,,,,CAVOK,,,,,,,,VFR,,,,,,,,,,,,METAR,495.0
KSDB 250530Z AUTO 26007G17KT 220V280 5SM HZ SCT026 OVC032 09/05 A3003 RMK AO2 T00890050,KSDB,2015-04-25T05:30:00Z,34.75,-118.72,8.9,5.0,260,7,17,5.0,30.029528,,,TRUE,TRUE,,,,,,HZ,SCT,2600,OVC,3200,,,,,MVFR,,,,,,,,,,,,SPECI,1377.0
WSSS 250530Z 04008KT 350V090 9999 FEW020 FEW022TCU SCT280 32/23 Q1010 NOSIG,WSSS,2015-04-25T05:30:00Z,1.37,103.97,32.0,23.0,40,8,,6.21,29.822834,,,,,,TRUE,,,,,FEW,2000,FEW,2200,SCT,28000,,,VFR,,,,,,,,,,,,METAR,16.0
NTAA 250530Z VRB02KT 9999 FEW023 27/22 Q1013 WS R22 NOSIG,NTAA,2015-04-25T05:30:00Z,-17.55,-149.62,27.0,22.0,0,2,,6.21,29.911417,,,,,,TRUE,,,,,FEW,2300,,,,,,,VFR,,,,,,,,,,,,METAR,2.0
VHHH 250530Z 10011KT 070V130 9999 FEW030 27/19 Q1016 NOSIG,VHHH,2015-04-25T05:30:00Z,22.32,113.92,27.0,19.0,100,11,,6.21,30.0,,,,,,TRUE,,,,,FEW,3000,,,,,,,VFR,,,,,,,,,,,,METAR,9.0
HECA 250530Z 05009KT CAVOK 15/05 Q1022 NOSIG,HECA,2015-04-25T05:30:00Z,30.12,31.38,15.0,5.0,50,9,,6.21,30.177166,,,,,,TRUE,,,,,CAVOK,,,,,,,,VFR,,,,,,,,,,,,METAR,74.0
LHBP 250530Z VRB02KT CAVOK 10/07 Q1017 NOSIG,LHBP,2015-04-25T05:30:00Z,47.42,19.27,10.0,7.0,0,2,,6.21,30.029528,,,,,,TRUE,,,,,CAVOK,,,,,,,,VFR,,,,,,,,,,,,METAR,185.0
TFFR 250530Z AUTO VRB02KT 9999 FEW017 SCT023 BKN032 24/22 Q1014,TFFR,2015-04-25T05:30:00Z,16.27,-61.53,24.0,22.0,0,2,,6.21,29.940945,,,TRUE,,,,,,,,FEW,1700,SCT,2300,BKN,3200,,,VFR,,,,,,,,,,,,METAR,11.0
LBGO 250530Z AUTO 08004KT 060V130 9999 FEW150/// BKN170/// 12/08 Q1017 NOSIG,LBGO,2015-04-25T05:30:00Z,43.15,25.72,12.0,8.0,80,4,,6.21,30.029528,,,TRUE,,,TRUE,,,,,,,,,,,,,,,,,,,,,,,,,METAR,86.0
LBPD 250530Z AUTO 09003KT 050V120 9999 BKN100/// OVC150/// 12/08 Q1018 NOSIG,LBPD,2015-04-25T05:30:00Z,42.13,24.8,12.0,8.0,90,3,,6.21,30.059055,,,TRUE,,,TRUE,,,,,,,,,,,,,,,,,,,,,,,,,METAR,185.0
LBBG 250530Z 26005KT CAVOK 12/11 Q1018 NOSIG,LBBG,2015-04-25T05:30:00Z,42.57,27.52,12.0,11.0,260,5,,6.21,30.059055,,,,,,TRUE,,,,,CAVOK,,,,,,,,VFR,,,,,,,,,,,,METAR,28.0
LBWN 250530Z VRB01KT CAVOK 11/09 Q1017 NOSIG,LBWN,2015-04-25T05:30:00Z,43.22,27.82,11.0,9.0,0,1,,6.21,30.029528,,,,,,TRUE,,,,,CAVOK,,,,,,,,VFR,,,,,,,,,,,,METAR,43.0
LBSF 250530Z 25004KT 9999 SCT060 BKN070 12/07 Q1019 NOSIG,LBSF,2015-04-25T05:30:00Z,42.65,23.38,12.0,7.0,250,4,,6.21,30.088583,,,,,,TRUE,,,,,SCT,6000,BKN,7000,,,,,VFR,,,,,,,,,,,,METAR,595.0
NWWW 250530Z AUTO 01006KT 340V050 9999 FEW049 29/19 Q1010,NWWW,2015-04-25T05:30:00Z,-22.02,166.22,29.0,19.0,10,6,,6.21,29.822834,,,TRUE,,,,,,,,FEW,4900,,,,,,,VFR,,,,,,,,,,,,METAR,16.0
LZTT 250530Z 25003KT 220V300 9999 FEW056 07/03 Q1016 NOSIG,LZTT,2015-04-25T05:30:00Z,49.07,20.25,7.0,3.0,250,3,,6.21,30.0,,,,,,TRUE,,,,,FEW,5600,,,,,,,VFR,,,,,,,,,,,,METAR,707.0
LZKZ 250530Z VRB01KT CAVOK 11/05 Q1016 NOSIG,LZKZ,2015-04-25T05:30:00Z,48.67,21.23,11.0,5.0,0,1,,6.21,30.0,,,,,,TRUE,,,,,CAVOK,,,,,,,,VFR,,,,,,,,,,,,METAR,232.0
LZIB 250530Z 03005KT CAVOK 10/07 Q1015 NOSIG,LZIB,2015-04-25T05:30:00Z,48.17,17.22,10.0,7.0,30,5,,6.21,29.970472,,,,,,TRUE,,,,,CAVOK,,,,,,,,VFR,,,,,,,,,,,,METAR,134.0
UKDR 250530Z 25003MPS CAVOK 11/06 Q1016 1809//70 NOSIG,UKDR,2015-04-25T05:30:00Z,48.05,33.22,11.0,6.0,250,6,,6.21,30.0,,,,,,TRUE,,,,,CAVOK,,,,,,,,VFR,,,,,,,,,,,,METAR,124.0
UKLL 250530Z 20002MPS CAVOK 12/07 Q1016 13CLRD80 NOSIG,UKLL,2015-04-25T05:30:00Z,49.82,23.93,12.0,7.0,200,4,,6.21,30.0,,,,,,TRUE,,,,,CAVOK,,,,,,,,VFR,,,,,,,,,,,,METAR,325.0
UKDD 250530Z 24003MPS 210V280 CAVOK 12/06 Q1016 26090070 NOSIG,UKDD,2015-04-25T05:30:00Z,48.37,35.1,12.0,6.0,240,6,,6.21,30.0,,,,,,TRUE,,,,,CAVOK,,,,,,,,VFR,,,,,,,,,,,,METAR,149.0
UKDE 250530Z 21004MPS 160V240 CAVOK 11/07 Q1017 20CLRD70 NOSIG,UKDE,2015-04-25T05:30:00Z,47.87,35.32,11.0,7.0,210,8,,6.21,30.029528,,,,,,TRUE,,,,,CAVOK,,,,,,,,VFR,,,,,,,,,,,,METAR,113.0
UKOO 250530Z 22004MPS CAVOK 12/09 Q1018 16090060 NOSIG,UKOO,2015-04-25T05:30:00Z,46.42,30.68,12.0,9.0,220,8,,6.21,30.059055,,,,,,TRUE,,,,,CAVOK,,,,,,,,VFR,,,,,,,,,,,,METAR,35.0
UKHH 250530Z 29005MPS CAVOK 15/02 Q1013 250///65 NOSIG,UKHH,2015-04-25T05:30:00Z,49.92,36.28,15.0,2.0,290,10,,6.21,29.911417,,,,,,TRUE,,,,,CAVOK,,,,,,,,VFR,,,,,,,,,,,,METAR,155.0
UKBB 250530Z 36002MPS CAVOK 13/04 Q1016 88CLRD95 NOSIG,UKBB,2015-04-25T05:30:00Z,50.33,30.9,13.0,4.0,360,4,,6.21,30.0,,,,,,TRUE,,,,,CAVOK,,,,,,,,VFR,,,,,,,,,,,,METAR,119.0
LZZI 250530Z 08004KT CAVOK 08/06 Q1015,LZZI,2015-04-25T05:30:00Z,49.23,18.62,8.0,6.0,80,4,,6.21,29.970472,,,,,,,,,,,CAVOK,,,,,,,,VFR,,,,,,,,,,,,METAR,311.0
LZSL 250530Z 00000KT CAVOK 06/05 Q1017,LZSL,2015-04-25T05:30:00Z,48.63,19.13,6.0,5.0,0,0,,6.21,30.029528,,,,,,,,,,,CAVOK,,,,,,,,VFR,,,,,,,,,,,,METAR,313.0
LZPP 250530Z VRB01KT CAVOK 07/06 Q1015,LZPP,2015-04-25T05:30:00Z,48.62,17.83,7.0,6.0,0,1,,6.21,29.970472,,,,,,,,,,,CAVOK,,,,,,,,VFR,,,,,,,,,,,,METAR,161.0
VOBL 250530Z 28009KT 250V330 8000 SCT015 29/23 Q1017 NOSIG,VOBL,2015-04-25T05:30:00Z,13.2,77.7,29.0,23.0,280,9,,4.97,30.029528,,,,,,TRUE,,,,,SCT,1500,,,,,,,MVFR,,,,,,,,,,,,METAR,915.0
UBBB 250530Z 28010KT 9999 -SHRA SCT050CB OVC050 11/07 Q1019 88290060 NOSIG,UBBB,2015-04-25T05:30:00Z,40.45,50.07,11.0,7.0,280,10,,6.21,30.088583,,,,,,TRUE,,,,-SHRA,SCT,5000,OVC,5000,,,,,VFR,,,,,,,,,,,,METAR,-6.0
TFFF 250530Z AUTO 10003KT 9999 -RA FEW019/// 23/21 Q1015,TFFF,2015-04-25T05:30:00Z,14.6,-61.0,23.0,21.0,100,3,,6.21,29.970472,,,TRUE,,,,,,,-RA,,,,,,,,,,,,,,,,,,,,,METAR,5.0
WIII 250530Z 23005KT 9000 BKN020 30/24 Q1009 NOSIG,WIII,2015-04-25T05:30:00Z,-6.13,106.67,30.0,24.0,230,5,,5.59,29.793306,,,,,,TRUE,,,,,BKN,2000,,,,,,,MVFR,,,,,,,,,,,,METAR,8.0
LUKK 250530Z VRB02KT CAVOK 14/02 Q1017 R26/65D NOSIG,LUKK,2015-04-25T05:30:00Z,46.93,28.93,14.0,2.0,0,2,,6.21,30.029528,,,,,,TRUE,,,,,CAVOK,,,,,,,,VFR,,,,,,,,,,,,METAR,122.0
CYAY 250530Z AUTO 04017KT 8SM SCT009 OVC028 01/01 A2989 RMK SLP123,CYAY,2015-04-25T05:30:00Z,51.38,-56.07,1.0,1.0,40,17,,8.0,29.890747,1012.3,,TRUE,,,,,,,,SCT,900,OVC,2800,,,,,MVFR,,,,,,,,,,,,SPECI,28.0
DXXX 250530Z VRB01KT 8000 FEW010 26/22 Q1012 NOSIG,DXXX,2015-04-25T05:30:00Z,6.17,1.25,26.0,22.0,0,1,,4.97,29.88189,,,,,,TRUE,,,,,FEW,1000,,,,,,,MVFR,,,,,,,,,,,,METAR,25.0
UBBG 250530Z 32015KT 9999 BKN083 12/03 Q1020 R30/CLRD70 NOSIG,UBBG,2015-04-25T05:30:00Z,40.73,46.32,12.0,3.0,320,15,,6.21,30.11811,,,,,,TRUE,,,,,BKN,8300,,,,,,,VFR,,,,,,,,,,,,METAR,330.0
LUBL 250530Z 20006KT CAVOK 13/05 Q1016,LUBL,2015-04-25T05:30:00Z,47.83,27.78,13.0,5.0,200,6,,6.21,30.0,,,,,,,,,,,CAVOK,,,,,,,,VFR,,,,,,,,,,,,METAR,232.0
LDOS 250530Z 21006KT CAVOK 09/07 Q1018,LDOS,2015-04-25T05:30:00Z,45.47,18.82,9.0,7.0,210,6,,6.21,30.059055,,,,,,,,,,,CAVOK,,,,,,,,VFR,,,,,,,,,,,,METAR,89.0
LDZD 250530Z 13005KT 100V160 9999 FEW027 12/10 Q1018 NOSIG,LDZD,2015-04-25T05:30:00Z,44.1,15.37,12.0,10.0,130,5,,6.21,30.059055,,,,,,TRUE,,,,,FEW,2700,,,,,,,VFR,,,,,,,,,,,,METAR,84.0
LDZA 250530Z 00000KT CAVOK 08/07 Q1017 NOSIG,LDZA,2015-04-25T05:30:00Z,45.72,16.07,8.0,7.0,0,0,,6.21,30.029528,,,,,,TRUE,,,,,CAVOK,,,,,,,,VFR,,,,,,,,,,,,METAR,107.0
LDDU 250530Z 10007KT CAVOK 13/04 Q1019 NOSIG,LDDU,2015-04-25T05:30:00Z,42.57,18.27,13.0,4.0,100,7,,6.21,30.088583,,,,,,TRUE,,,,,CAVOK,,,,,,,,VFR,,,,,,,,,,,,METAR,165.0
LDPL 250530Z 12006KT 060V160 9999 FEW015 13/11 Q1018 NOSIG,LDPL,2015-04-25T05:30:00Z,44.88,13.92,13.0,11.0,120,6,,6.21,30.059055,,,,,,TRUE,,,,,FEW,1500,,,,,,,VFR,,,,,,,,,,,,METAR,63.0
LDSP 250530Z VRB01KT 9999 FEW040 13/11 Q1019 NOSIG,LDSP,2015-04-25T05:30:00Z,43.52,16.3,13.0,11.0,0,1,,6.21,30.088583,,,,,,TRUE,,,,,FEW,4000,,,,,,,VFR,,,,,,,,,,,,METAR,21.0
FMMI 250530Z 16009KT 9999 VCSH FEW010 BKN020 19/19 Q1024 NOSIG,FMMI,2015-04-25T05:30:00Z,-18.8,47.47,19.0,19.0,160,9,,6.21,30.236221,,,,,,TRUE,,,,VCSH,FEW,1000,BKN,2000,,,,,MVFR,,,,,,,,,,,,METAR,1276.0
UBBN 250530Z 32013KT 9999 SCT050 SCT100 10/01 Q1021 R14R/CLRD60 NOSIG RMK MT OP QFE690,UBBN,2015-04-25T05:30:00Z,39.18,45.45,10.0,1.0,320,13,,6.21,30.147638,,,,,,TRUE,,,,,SCT,5000,SCT,10000,,,,,VFR,,,,,,,,,,,,METAR,873.0
SOCA 250530Z AUTO VRB01KT 9999 BKN017/// OVC030/// 26/24 Q1012,SOCA,2015-04-25T05:30:00Z,4.82,-52.37,26.0,24.0,0,1,,6.21,29.88189,,,TRUE,,,,,,,,,,,,,,,,,,,,,,,,,,,,METAR,9.0
YCBP 250530Z AUTO 21015G25KT //// // NCD 21/03 Q1019,YCBP,2015-04-25T05:30:00Z,-29.03,134.72,21.0,3.0,210,15,25,,30.088583,,,TRUE,,,,,,,,,,,,,,,,,,,,,,,,,,,,SPECI,226.0
HSSS 250530Z 34011KT CAVOK Q1012,HSSS,2015-04-25T05:30:00Z,15.58,32.53,,,340,11,,6.21,29.88189,,,,,,,,,,,CAVOK,,,,,,,,VFR,,,,,,,,,,,,METAR,380.0
OPKC 250530Z 23007KT 7000 NSC 32/22 Q1007 NOSIG,OPKC,2015-04-25T05:30:00Z,24.88,67.17,32.0,22.0,230,7,,4.35,29.734253,,,,,,TRUE,,,,,,,,,,,,,,,,,,,,,,,,,SPECI,22.0
GOOY 250530Z VRB01KT 8000 NSC 18/17 Q1011 BECMG 4000 BR,GOOY,2015-04-25T05:30:00Z,14.72,-17.5,18.0,17.0,0,1,,4.97,29.852362,,,,,,,,,,,,,,,,,,,,,,,,,,,,,,,METAR,24.0
BKPR 250530Z VRB01KT 9999 FEW010 SCT030 BKN080 09/07 Q1020 NOSIG,BKPR,2015-04-25T05:30:00Z,42.58,21.03,9.0,7.0,0,1,,6.21,30.11811,,,,,,TRUE,,,,,FEW,1000,SCT,3000,BKN,8000,,,VFR,,,,,,,,,,,,METAR,576.0
GLRB 250530Z 00000KT 9999 FEW014 FEW023CB 25/24 Q1012 RMK CB-S,GLRB,2015-04-25T05:30:00Z,6.25,-10.33,25.0,24.0,0,0,,6.21,29.88189,,,,,,,,,,,FEW,1400,FEW,2300,,,,,VFR,,,,,,,,,,,,METAR,18.0
ORBI 250530Z 32010KT CAVOK 18/04 Q1023,ORBI,2015-04-25T05:30:00Z,33.27,44.23,18.0,4.0,320,10,,6.21,30.206694,,,,,,,,,,,CAVOK,,,,,,,,VFR,,,,,,,,,,,,METAR,35.0
LWSK 250530Z 27001KT 9999 BKN053 12/08 Q1020 NOSIG,LWSK,2015-04-25T05:30:00Z,41.97,21.63,12.0,8.0,270,1,,6.21,30.11811,,,,,,TRUE,,,,,BKN,5300,,,,,,,VFR,,,,,,,,,,,,METAR,239.0
GQNN 250530Z 36008KT 7000 NSC 23/09 Q1010 NOSIG,GQNN,2015-04-25T05:30:00Z,18.1,-15.93,23.0,9.0,360,8,,4.35,29.822834,,,,,,TRUE,,,,,,,,,,,,,,,,,,,,,,,,,METAR,3.0
ZMUB 250530Z 25007MPS 210V300 CAVOK 24/M11 Q1011 NOSIG RMK QFE651.6 09,ZMUB,2015-04-25T05:30:00Z,47.83,106.78,24.0,-11.0,250,14,,6.21,29.852362,,,,,,TRUE,,,,,CAVOK,,,,,,,,VFR,,,,,,,,,,,,SPECI,1330.0
UMGG 250530Z 30005MPS CAVOK 09/03 Q1015 R28/D NOSIG,UMGG,2015-04-25T05:30:00Z,52.53,31.02,9.0,3.0,300,10,,6.21,29.970472,,,,,,TRUE,,,,,CAVOK,,,,,,,,VFR,,,,,,,,,,,,METAR,144.0
UMMG 250530Z 16001MPS 9000 NSC 06/04 Q1013 R17/CLRD// NOSIG,UMMG,2015-04-25T05:30:00Z,53.6,24.05,6.0,4.0,160,2,,5.59,29.911417,,,,,,TRUE,,,,,,,,,,,,,,,,,,,,,,,,,METAR,135.0
UMMM 250530Z 00000MPS 9999 BKN033 08/04 Q1014 R30/60D NOSIG RMK QFE741,UMMM,2015-04-25T05:30:00Z,53.87,27.52,8.0,4.0,0,0,,6.21,29.940945,,,,,,TRUE,,,,,BKN,3300,,,,,,,VFR,,,,,,,,,,,,METAR,234.0
VTBD 250530Z 13003KT 080V210 9999 FEW020 SCT120 BKN300 31/23 Q1013 NOSIG,VTBD,2015-04-25T05:30:00Z,13.92,100.6,31.0,23.0,130,3,,6.21,29.911417,,,,,,TRUE,,,,,FEW,2000,SCT,12000,BKN,30000,,,VFR,,,,,,,,,,,,METAR,3.0
VTCC 250530Z 18004KT 9999 SCT040 31/20 Q1015 A2999 NOSIG,VTCC,2015-04-25T05:30:00Z,18.77,98.97,31.0,20.0,180,4,,6.21,29.970472,,,,,,TRUE,,,,,SCT,4000,,,,,,,VFR,,,,,,,,,,,,METAR,314.0
VTSS 250530Z 07011KT 9999 SCT020 BKN300 32/29 Q1010 A2984 NOSIG,VTSS,2015-04-25T05:30:00Z,6.92,100.38,32.0,29.0,70,11,,6.21,29.822834,,,,,,TRUE,,,,,SCT,2000,BKN,30000,,,,,VFR,,,,,,,,,,,,METAR,35.0
VTSP 250530Z 08009KT 9999 FEW022 BKN300 32/22 Q1011 A2987 NOSIG,VTSP,2015-04-25T05:30:00Z,8.12,98.32,32.0,22.0,80,9,,6.21,29.852362,,,,,,TRUE,,,,,FEW,2200,BKN,30000,,,,,VFR,,,,,,,,,,,,METAR,10.0
VLVT 250530Z 04004KT 9999 SCT020 FEW040 29/23 Q1014 NOSIG,VLVT,2015-04-25T05:30:00Z,17.98,102.57,29.0,23.0,40,4,,6.21,29.940945,,,,,,TRUE,,,,,SCT,2000,FEW,4000,,,,,VFR,,,,,,,,,,,,METAR,171.0
VYYY 250530Z 22006KT 8000 SCT018 FEW020TCU 34/22 Q1012 NOSIG,VYYY,2015-04-25T05:30:00Z,16.9,96.13,34.0,22.0,220,6,,4.97,29.88189,,,,,,TRUE,,,,,SCT,1800,FEW,2000,,,,,MVFR,,,,,,,,,,,,METAR,33.0
VDPP 250530Z 33004KT 9999 SCT015 FEW020TCU 33/24 Q1010,VDPP,2015-04-25T05:30:00Z,11.55,104.83,33.0,24.0,330,4,,6.21,29.822834,,,,,,,,,,,SCT,1500,FEW,2000,,,,,VFR,,,,,,,,,,,,METAR,10.0
VDSR 250530Z VRB04KT 9999 SCT017 BKN050 33/21 Q1011,VDSR,2015-04-25T05:30:00Z,13.42,103.83,33.0,21.0,0,4,,6.21,29.852362,,,,,,,,,,,SCT,1700,BKN,5000,,,,,VFR,,,,,,,,,,,,METAR,15.0
KMWS 250530Z 03001G04KT 05/05 RMK SNOW DEPTH M,KMWS,2015-04-25T05:30:00Z,34.23,-118.05,5.0,5.0,30,1,4,,,,,,,,,,,,,,,,,,,,,,,,,,,,,,,,,METAR,1739.0
KAMN 250530Z AUTO 03007KT 10SM OVC100 03/M01 A3002 RMK AO2 T00311008,KAMN,2015-04-25T05:30:00Z,43.32,-84.68,3.1,-0.8,30,7,,10.0,30.02067,,,TRUE,TRUE,,,,,,,OVC,10000,,,,,,,VFR,,,,,,,,,,,,METAR,230.0
VTBS 250530Z 10007G17KT 070V140 9000 FEW020 SCT040 BKN110 31/22 Q1013 NOSIG,VTBS,2015-04-25T05:30:00Z,13.68,100.75,31.0,22.0,100,7,17,5.59,29.911417,,,,,,TRUE,,,,,FEW,2000,SCT,4000,BKN,11000,,,VFR,,,,,,,,,,,,METAR,2.0
UMMS 250530Z 00000MPS 9999 BKN043 08/03 Q1014 R31/D NOSIG,UMMS,2015-04-25T05:30:00Z,53.88,28.03,8.0,3.0,0,0,,6.21,29.940945,,,,,,TRUE,,,,,BKN,4300,,,,,,,VFR,,,,,,,,,,,,METAR,205.0
VVTS 250530Z 10009KT 050V140 9999 SCT020 35/18 Q1010 NOSIG,VVTS,2015-04-25T05:30:00Z,10.82,106.67,35.0,18.0,100,9,,6.21,29.822834,,,,,,TRUE,,,,,SCT,2000,,,,,,,VFR,,,,,,,,,,,,METAR,19.0
VVCR 250530Z 05013KT 9999 FEW017 34/25 Q1012 NOSIG,VVCR,2015-04-25T05:30:00Z,12.0,109.22,34.0,25.0,50,13,,6.21,29.88189,,,,,,TRUE,,,,,FEW,1700,,,,,,,VFR,,,,,,,,,,,,METAR,12.0
VVPB 250530Z 16005KT 9999 FEW010 SCT015 BKN050 27/25 Q1015 NOSIG,VVPB,2015-04-25T05:30:00Z,16.38,107.7,27.0,25.0,160,5,,6.21,29.970472,,,,,,TRUE,,,,,FEW,1000,SCT,1500,BKN,5000,,,VFR,,,,,,,,,,,,METAR,17.0
VVDN 250530Z 08007KT 040V140 7000 SCT010 FEW015TCU SCT050 31/25 Q1015 NOSIG,VVDN,2015-04-25T05:30:00Z,16.02,108.2,31.0,25.0,80,7,,4.35,29.970472,,,,,,TRUE,,,,,SCT,1000,FEW,1500,SCT,5000,,,MVFR,,,,,,,,,,,,METAR,7.0
VVNB 250530Z 29007KT 6000 FEW026 BKN070 26/19 Q1018 NOSIG,VVNB,2015-04-25T05:30:00Z,21.22,105.8,26.0,19.0,290,7,,3.73,30.059055,,,,,,TRUE,,,,,FEW,2600,BKN,7000,,,,,MVFR,,,,,,,,,,,,METAR,12.0
VVPQ 250530Z 09007KT 050V120 9999 FEW017 31/23 Q1011 NOSIG,VVPQ,2015-04-25T05:30:00Z,10.23,103.97,31.0,23.0,90,7,,6.21,29.852362,,,,,,TRUE,,,,,FEW,1700,,,,,,,VFR,,,,,,,,,,,,METAR,4.0
VVCT 250530Z 10007KT 080V170 9999 BKN015 32/22 Q1011 NOSIG,VVCT,2015-04-25T05:30:00Z,10.08,105.72,32.0,22.0,100,7,,6.21,29.852362,,,,,,TRUE,,,,,BKN,1500,,,,,,,MVFR,,,,,,,,,,,,METAR,3.0
USHH 250530Z 14004MPS 7000 -SHRA BKN004CB OVC080 02/00 Q0989 TEMPO 1000 SHRA BR OVC002 RMK QBB120 QFE738 06////50,USHH,2015-04-25T05:30:00Z,61.03,69.08,2.0,0.0,140,8,,4.35,29.202755,,,,,,,,,,-SHRA,BKN,400,OVC,8000,,,,,LIFR,,,,,,,,,,,,METAR,23.0
KSTK 250530Z AUTO 30009KT 10SM OVC095 11/04 A2962 RMK AO2,KSTK,2015-04-25T05:30:00Z,40.62,-103.27,11.0,4.0,300,9,,10.0,29.619095,,,TRUE,TRUE,,,,,,,OVC,9500,,,,,,,VFR,,,,,,,,,,,,METAR,1231.0
KEDJ 250530Z AUTO 13004KT 10SM OVC065 08/00 A2993 RMK AO1,KEDJ,2015-04-25T05:30:00Z,40.37,-83.82,8.0,0.0,130,4,,10.0,29.929134,,,TRUE,TRUE,,,,,,,OVC,6500,,,,,,,VFR,,,,,,,,,,,,METAR,342.0
USDD 250530Z 06004MPS 6000 SCT013 BKN100 M03/M05 Q0996 NOSIG RMK QFE741/0988 04140060,USDD,2015-04-25T05:30:00Z,66.58,66.62,-3.0,-5.0,60,8,,3.73,29.409449,,,,,,TRUE,,,,,SCT,1300,BKN,10000,,,,,MVFR,,,,,,,,,,,,SPECI,67.0
UOOO 250530Z 33002MPS CAVOK M08/M10 Q0995 NOSIG RMK QFE732 0119//49,UOOO,2015-04-25T05:30:00Z,69.32,87.33,-8.0,-10.0,330,4,,6.21,29.379921,,,,,,TRUE,,,,,CAVOK,,,,,,,,VFR,,,,,,,,,,,,SPECI,175.0
UERR 250530Z VRB02MPS 9999 FEW030 OVC100 06/M02 Q0994 NOSIG RMK QFE715 25290150,UERR,2015-04-25T05:30:00Z,62.53,114.05,6.0,-2.0,0,4,,6.21,29.350393,,,,,,TRUE,,,,,FEW,3000,OVC,10000,,,,,VFR,,,,,,,,,,,,SPECI,347.0
UERP 250530Z 15002MPS 9999 SCT030CB BKN038 OVC200 04/M04 Q0995 NOSIG RMK QFE702 35090050,UERP,2015-04-25T05:30:00Z,66.4,112.03,4.0,-4.0,150,4,,6.21,29.379921,,,,,,TRUE,,,,,SCT,3000,BKN,3800,OVC,20000,,,VFR,,,,,,,,,,,,SPECI,509.0
UEEE 250530Z 02006MPS CAVOK 06/M08 Q0995 NOSIG RMK QFE738 5509//60,UEEE,2015-04-25T05:30:00Z,62.08,129.77,6.0,-8.0,20,12,,6.21,29.379921,,,,,,TRUE,,,,,CAVOK,,,,,,,,VFR,,,,,,,,,,,,SPECI,103.0
ROAH 250530Z 09007KT 020V130 9999 FEW020 SCT030 BKN040 23/16 Q1017 RMK 1CU020 3CU030 5CU040 A3004,ROAH,2015-04-25T05:30:00Z,26.17,127.65,23.0,16.0,90,7,,6.21,30.029528,,,,,,,,,,,FEW,2000,SCT,3000,BKN,4000,,,VFR,,,,,,,,,,,,METAR,8.0
RJTT 250530Z 12013KT 9999 FEW025 SCT100 19/12 Q1015 NOSIG RMK 1CU025 4AC100 A2999,RJTT,2015-04-25T05:30:00Z,35.53,139.77,19.0,12.0,120,13,,6.21,29.970472,,,,,,TRUE,,,,,FEW,2500,SCT,10000,,,,,VFR,,,,,,,,,,,,METAR,8.0
RJGG 250530Z 22008KT 9999 FEW035 21/08 Q1015 NOSIG,RJGG,2015-04-25T05:30:00Z,34.87,136.8,21.0,8.0,220,8,,6.21,29.970472,,,,,,TRUE,,,,,FEW,3500,,,,,,,VFR,,,,,,,,,,,,METAR,5.0
RJCC 250530Z 17014KT 9999 FEW030 SCT070 15/M01 Q1012 RMK 1CU030 4AC070 A2990,RJCC,2015-04-25T05:30:00Z,42.77,141.67,15.0,-1.0,170,14,,6.21,29.88189,,,,,,,,,,,FEW,3000,SCT,7000,,,,,VFR,,,,,,,,,,,,SPECI,30.0
RJBB 250530Z 31007KT 280V340 9999 FEW040 22/M05 Q1016 NOSIG,RJBB,2015-04-25T05:30:00Z,34.42,135.25,22.0,-5.0,310,7,,6.21,30.0,,,,,,TRUE,,,,,FEW,4000,,,,,,,VFR,,,,,,,,,,,,METAR,8.0
RJAA 250530Z 08011KT 9999 FEW030 BKN080 17/06 Q1016 NOSIG RMK 1CU030 7AC080 A3003,RJAA,2015-04-25T05:30:00Z,35.77,140.37,17.0,6.0,80,11,,6.21,30.0,,,,,,TRUE,,,,,FEW,3000,BKN,8000,,,,,VFR,,,,,,,,,,,,SPECI,44.0
NZCH 250530Z AUTO 35007KT 9999 NCD 20/07 Q1012 NOSIG,NZCH,2015-04-25T05:30:00Z,-43.47,172.55,20.0,7.0,350,7,,6.21,29.88189,,,TRUE,,,TRUE,,,,,,,,,,,,,,,,,,,,,,,,,METAR,34.0
NZWN 250530Z AUTO 34017KT 9999 FEW025/// BKN050/// 17/11 Q1021 NOSIG,NZWN,2015-04-25T05:30:00Z,-41.32,174.8,17.0,11.0,340,17,,6.21,30.147638,,,TRUE,,,TRUE,,,,,,,,,,,,,,,,,,,,,,,,,METAR,7.0
NZAA 250530Z AUTO 04009KT 9999 SCT030/// BKN040/// 17/12 Q1023 NOSIG,NZAA,2015-04-25T05:30:00Z,-37.02,174.8,17.0,12.0,40,9,,6.21,30.206694,,,TRUE,,,TRUE,,,,,,,,,,,,,,,,,,,,,,,,,METAR,6.0
USTR 250530Z 22008G11MPS 9999 BKN026CB 07/01 Q0993 TEMPO 25015MPS 2000 SHRA RMK QFE735/0980 30290060 21////99,USTR,2015-04-25T05:30:00Z,57.17,65.32,7.0,1.0,220,16,21,6.21,29.320866,,,,,,,,,,,BKN,2600,,,,,,,MVFR,,,0.0,,,,,,,,,SPECI,115.0
UNTT 250530Z 23008MPS 9999 SCT026CB BKN066 OVC230 11/M00 Q1012 TEMPO 22012G17MPS RMK QFE744 21190055,UNTT,2015-04-25T05:30:00Z,56.38,85.22,11.0,0.0,230,16,,6.21,29.88189,,,,,,,,,,,SCT,2600,BKN,6600,OVC,23000,,,VFR,,,-19.0,,,,,,,,,METAR,182.0
UNOO 250530Z 22010G17MPS CAVOK 15/M01 Q1004 25CLRD60 TEMPO 21018MPS RMK QFE745,UNOO,2015-04-25T05:30:00Z,54.97,73.32,15.0,-1.0,220,19,33,6.21,29.64567,,,,,,,,,,,CAVOK,,,,,,,,VFR,,,-1.8,,,,,,,,,SPECI,95.0
UNNT 250530Z 22008MPS CAVOK 14/M02 Q1014 25090070 16090070 NOSIG RMK QFE750/1001,UNNT,2015-04-25T05:30:00Z,55.02,82.63,14.0,-2.0,220,16,,6.21,29.940945,,,,,,TRUE,,,,,CAVOK,,,,,,,,VFR,,,,,,,,,,,,SPECI,111.0
UNKL 250530Z 26009G16MPS CAVOK 12/M04 Q1013 TEMPO 26012G17MPS RMK QFE734 29////65,UNKL,2015-04-25T05:30:00Z,56.17,92.48,12.0,-4.0,260,17,31,6.21,29.911417,,,,,,,,,,,CAVOK,,,,,,,,VFR,,,,,,,,,,,,SPECI,276.0
UNEE 250530Z 24006G11MPS 9999 FEW040 12/M03 Q1015 NOSIG RMK QFE738 23CLRD60,UNEE,2015-04-25T05:30:00Z,55.27,86.08,12.0,-3.0,240,12,21,6.21,29.970472,,,,,,TRUE,,,,,FEW,4000,,,,,,,VFR,,,,,,,,,,,,SPECI,260.0
UNBB 250530Z 23006MPS 190V260 9999 FEW040 14/M03 Q1016 NOSIG RMK QFE740/0987 24CLRD66,UNBB,2015-04-25T05:30:00Z,53.37,83.53,14.0,-3.0,230,12,,6.21,30.0,,,,,,TRUE,,,,,FEW,4000,,,,,,,VFR,,,,,,,,,,,,SPECI,255.0
UNAA 250530Z 25007MPS 9999 FEW040 17/M07 Q1015 NOSIG RMK QFE739 20090065,UNAA,2015-04-25T05:30:00Z,53.75,91.4,17.0,-7.0,250,14,,6.21,29.970472,,,,,,TRUE,,,,,FEW,4000,,,,,,,VFR,,,9.0,,,,,,,,,SPECI,245.0
UWWW 250530Z 23005MPS CAVOK 09/M04 Q1007 R23R/CLRD60 NOSIG RMK QFE744/0992,UWWW,2015-04-25T05:30:00Z,53.5,50.17,9.0,-4.0,230,10,,6.21,29.734253,,,,,,TRUE,,,,,CAVOK,,,,,,,,VFR,,,,,,,,,,,,SPECI,146.0
UWSS 250530Z 17003MPS CAVOK 09/M04 Q1008 120///60 NOSIG RMK QFE744,UWSS,2015-04-25T05:30:00Z,51.57,46.07,9.0,-4.0,170,6,,6.21,29.763779,,,,,,TRUE,,,,,CAVOK,,,,,,,,VFR,,,,,,,,,,,,SPECI,166.0
UWOO 250530Z 28004G07MPS 260V320 P5000 SCT040 10/M01 Q1009 26CLRD65 NOSIG RMK QFE746/0995,UWOO,2015-04-25T05:30:00Z,51.8,55.47,10.0,-1.0,280,8,14,3.11,29.793306,,,,,,TRUE,,,,,SCT,4000,,,,,,,MVFR,,,,,,,,,,,,METAR,109.0
UWKS 250530Z 26005MPS 9999 SCT026CB BKN066 06/M01 Q1002 NOSIG RMK QFE737 24000060,UWKS,2015-04-25T05:30:00Z,56.08,47.35,6.0,-1.0,260,10,,6.21,29.586615,,,,,,TRUE,,,,,SCT,2600,BKN,6600,,,,,VFR,,,,,,,,,,,,METAR,170.0
UWKE 250530Z 24007G10MPS 9999 SCT020 04/M00 Q1002 NOSIG RMK QFE734/0979 21090070,UWKE,2015-04-25T05:30:00Z,55.57,52.08,4.0,0.0,240,14,19,6.21,29.586615,,,,,,TRUE,,,,,SCT,2000,,,,,,,VFR,,,-9.0,,,,,,,,,SPECI,196.0
UWKD 250530Z 26006MPS 9999 SCT025 07/02 Q1003 R29/70D NOSIG RMK QFE741/0988,UWKD,2015-04-25T05:30:00Z,55.62,49.28,7.0,2.0,260,12,,6.21,29.616142,,,,,,TRUE,,,,,SCT,2500,,,,,,,VFR,,,,,,,,,,,,METAR,126.0
USPP 250530Z 26007G10MPS 9999 OVC022 04/01 Q0995 21290250 NOSIG RMK QFE736/0981,USPP,2015-04-25T05:30:00Z,57.92,56.02,4.0,1.0,260,14,19,6.21,29.379921,,,,,,TRUE,,,,,OVC,2200,,,,,,,MVFR,,,-29.0,,,,,,,,,SPECI,123.0
USSS 250530Z 27011G17MPS 9999 BKN028 OVC067 04/01 Q0995 76220337 TEMPO 24017MPS RMK QFE725,USSS,2015-04-25T05:30:00Z,56.75,60.82,4.0,1.0,270,21,33,6.21,29.379921,,,,,,,,,,,BKN,2800,OVC,6700,,,,,MVFR,,,,,,,,,0.0,,,SPECI,233.0
USRR 250530Z 11005MPS 7000 BKN036 OVC070 05/03 Q0994 NOSIG RMK QFE740 07////60,USRR,2015-04-25T05:30:00Z,61.33,73.42,5.0,3.0,110,10,,4.35,29.350393,,,,,,TRUE,,,,,BKN,3600,OVC,7000,,,,,MVFR,,,,,,,,,,,,SPECI,44.0
USNN 250530Z 12005MPS CAVOK 09/M00 Q0998 NOSIG RMK QFE744 030///65,USNN,2015-04-25T05:30:00Z,60.95,76.48,9.0,0.0,120,10,,6.21,29.468504,,,,,,TRUE,,,,,CAVOK,,,,,,,,VFR,,,,,,,,,,,,SPECI,54.0
USCC 250530Z 28009MPS 9999 SCT030CB 06/M02 Q0998 R27/000060 NOSIG RMK QFE729,USCC,2015-04-25T05:30:00Z,55.3,61.5,6.0,-2.0,280,17,,6.21,29.468504,,,,,,TRUE,,,,,SCT,3000,,,,,,,VFR,,,,,,,,,,,,SPECI,234.0
UWUU 250530Z 26008MPS 220V290 9999 BKN030 07/01 Q1004 R32L/1///54 NOSIG RMK QFE741/0988,UWUU,2015-04-25T05:30:00Z,54.57,55.87,7.0,1.0,260,16,,6.21,29.64567,,,,,,TRUE,,,,,BKN,3000,,,,,,,MVFR,,,,,,,,,,,,SPECI,137.0
ULWC 250530Z 25003G06MPS 9999 BKN010 OVC016 03/01 Q1001 NOSIG RMK QFE741/0988 SC057,ULWC,2015-04-25T05:30:00Z,59.28,38.02,3.0,1.0,250,6,12,6.21,29.557087,,,,,,TRUE,,,,,BKN,1000,OVC,1600,,,,,MVFR,,,,,,,,,,,,METAR,115.0
UWGG 250530Z 24003MPS 210V280 9999 SCT026 BKN100 06/00 Q1002 NOSIG 36150055 RMK QFE745,UWGG,2015-04-25T05:30:00Z,56.23,43.78,6.0,0.0,240,6,,6.21,29.586615,,,,,,TRUE,,,,,SCT,2600,BKN,10000,,,,,VFR,,,,,,,,,,,,SPECI,73.0
UUOB 250530Z 27003MPS CAVOK 12/03 Q1012 29090060 NOSIG,UUOB,2015-04-25T05:30:00Z,50.65,36.58,12.0,3.0,270,6,,6.21,29.88189,,,,,,TRUE,,,,,CAVOK,,,,,,,,VFR,,,,,,,,,,,,METAR,224.0
UUBP 250530Z 29006MPS CAVOK 10/01 Q1011 NOSIG SC/// RMK QFE741/0988,UUBP,2015-04-25T05:30:00Z,53.22,34.18,10.0,1.0,290,12,,6.21,29.852362,,,,,,TRUE,,,,,CAVOK,,,,,,,,VFR,,,,,,,,,,,,SPECI,202.0
UUMO 250530Z 27012MPS 9999 CAVOK 07/01 Q1004 R26/090060 NOSIG RMK QFE738/0984,UUMO,2015-04-25T05:30:00Z,55.52,37.5,7.0,1.0,270,23,,6.21,29.64567,,,,,,TRUE,,,,,CAVOK,,,,,,,,VFR,,,,,,,,,,,,METAR,174.0
UUWW 250530Z 29012MPS 9999 BKN022 BKN200 05/00 Q1004 WS RWY24 TEMPO 27015G20MPS,UUWW,2015-04-25T05:30:00Z,55.6,37.27,5.0,0.0,290,23,,6.21,29.64567,,,,,,,,,,,BKN,2200,BKN,20000,,,,,MVFR,,,,,,,,,,,,METAR,203.0
UUEE 250530Z 27009MPS 9999 OVC015 05/02 Q1004 NOSIG,UUEE,2015-04-25T05:30:00Z,55.97,37.42,5.0,2.0,270,17,,6.21,29.64567,,,,,,TRUE,,,,,OVC,1500,,,,,,,MVFR,,,,,,,,,,,,METAR,190.0
UUDL 250530Z 25003MPS CAVOK 04/01 Q1001 NOSIG RMK QFE743 23000060,UUDL,2015-04-25T05:30:00Z,57.57,40.17,4.0,1.0,250,6,,6.21,29.557087,,,,,,TRUE,,,,,CAVOK,,,,,,,,VFR,,,,,,,,,,,,METAR,88.0
UUDD 250530Z 29009G15MPS 9999 SCT031 BKN200 07/01 Q1004 WS R32L NOSIG,UUDD,2015-04-25T05:30:00Z,55.4,37.9,7.0,1.0,290,17,29,6.21,29.64567,,,,,,TRUE,,,,,SCT,3100,BKN,20000,,,,,VFR,,,,,,,,,,,,SPECI,168.0
UUBW 250530Z 27008MPS 9999 SCT023 BKN100 08/02 Q1003 NOSIG,UUBW,2015-04-25T05:30:00Z,55.55,38.15,8.0,2.0,270,16,,6.21,29.616142,,,,,,TRUE,,,,,SCT,2300,BKN,10000,,,,,VFR,,,,,,,,,,,,METAR,115.0
ULLI 250530Z 29006MPS 9999 SCT016 BKN200 04/01 Q1007 88190060 NOSIG,ULLI,2015-04-25T05:30:00Z,59.8,30.27,4.0,1.0,290,12,,6.21,29.734253,,,,,,TRUE,,,,,SCT,1600,BKN,20000,,,,,VFR,,,,,,,,,,,,METAR,4.0
USCM 250530Z 29010MPS 9999 SCT030 07/M03 Q1003 R19/090065 NOSIG RMK QFE715,USCM,2015-04-25T05:30:00Z,53.4,58.75,7.0,-3.0,290,19,,6.21,29.616142,,,,,,TRUE,,,,,SCT,3000,,,,,,,VFR,,,,,,,,,,,,METAR,435.0
UIUU 250530Z 31012G17MPS 9999 BKN100 25/M02 Q1003 NOSIG RMK QFE708/0944 26CLRD60,UIUU,2015-04-25T05:30:00Z,51.8,107.45,25.0,-2.0,310,23,33,6.21,29.616142,,,,,,TRUE,,,,,BKN,10000,,,,,,,VFR,,,,,,,,,,,,SPECI,515.0
UIII 250530Z 29010G14MPS CAVOK 20/03 Q1008 NOSIG RMK QFE712/0949 30CLRD60,UIII,2015-04-25T05:30:00Z,52.27,104.4,20.0,3.0,290,19,27,6.21,29.763779,,,,,,TRUE,,,,,CAVOK,,,,,,,,VFR,,,,,,,,,,,,METAR,513.0
UIBB 250530Z 29006G11MPS 9999 SCT040CB BKN100 10/00 Q1007 NOSIG RMK QFE713/0951 30290150,UIBB,2015-04-25T05:30:00Z,56.37,101.7,10.0,0.0,290,12,21,6.21,29.734253,,,,,,TRUE,,,,,SCT,4000,BKN,10000,,,,,VFR,,,,,,,,,,,,SPECI,490.0
UIAA 250530Z 22007MPS 9999 FEW050 OVC200 26/M01 Q0999 NOSIG RMK QFE691 29CLRD70,UIAA,2015-04-25T05:30:00Z,52.02,113.32,26.0,-1.0,220,14,,6.21,29.498032,,,,,,TRUE,,,,,FEW,5000,OVC,20000,,,,,VFR,,,,,,,,,,,,SPECI,685.0
UHHH 250530Z 24008G11MPS 9999 SCT033CB OVC100 13/M02 Q1001 NOSIG RMK QFE744/0992 23090060,UHHH,2015-04-25T05:30:00Z,48.52,135.18,13.0,-2.0,240,16,21,6.21,29.557087,,,,,,TRUE,,,,,SCT,3300,OVC,10000,,,,,VFR,,,,,,,,,,,,SPECI,72.0
UHWW 250530Z 21008MPS 9999 BKN200 19/M11 Q1011 NOSIG RMK QFE757/1009 25CLRD70,UHWW,2015-04-25T05:30:00Z,43.4,132.15,19.0,-11.0,210,16,,6.21,29.852362,,,,,,TRUE,,,,,BKN,20000,,,,,,,VFR,,,,,,,,,,,,METAR,184.0
UHSS 250530Z 30003MPS 260V350 9999 NSC 12/M03 Q1007 NOSIG RMK QFE754/1006 01CLRD70,UHSS,2015-04-25T05:30:00Z,46.88,142.72,12.0,-3.0,300,6,,6.21,29.734253,,,,,,TRUE,,,,,,,,,,,,,,,,,,,,,,,,,SPECI,31.0
UHPP 250530Z 23002MPS 190V260 8000 SCT023CB BKN100 04/M00 Q1010 NOSIG RMK MT OBSC QFE754/1005 SC070,UHPP,2015-04-25T05:30:00Z,53.17,158.45,4.0,0.0,230,4,,4.97,29.822834,,,,,,TRUE,,,,,SCT,2300,BKN,10000,,,,,MVFR,,,,,,,,,,,,METAR,40.0
UHMM 250530Z 05004MPS 9999 -SHSN BKN024CB OVC100 M03/M08 Q0996 TEMPO 2000 SHSN RMK QFE732 88910565 MT OBSC,UHMM,2015-04-25T05:30:00Z,59.92,150.72,-3.0,-8.0,50,8,,6.21,29.409449,,,,,,,,,,-SHSN,BKN,2400,OVC,10000,,,,,MVFR,,,,,,,,,,,,SPECI,118.0
UHBB 250530Z 32004MPS 280V020 9999 SCT033 21/02 Q0997 NOSIG RMK QFE731/0974 36090060,UHBB,2015-04-25T05:30:00Z,50.43,127.42,21.0,2.0,320,8,,6.21,29.438976,,,,,,TRUE,,,,,SCT,3300,,,,,,,VFR,,,,,,,,,,,,METAR,195.0
URKA 250530Z 20009MPS 9999 FEW023 11/06 Q1023 NOSIG RMK QFE762/1016 SC070,URKA,2015-04-25T05:30:00Z,45.0,37.35,11.0,6.0,200,17,,6.21,30.206694,,,,,,TRUE,,,,,FEW,2300,,,,,,,VFR,,,,,,,,,,,,METAR,53.0
URKK 250530Z 22007MPS CAVOK 12/04 Q1022 NOSIG RMK QFE763 SC070,URKK,2015-04-25T05:30:00Z,45.03,39.15,12.0,4.0,220,14,,6.21,30.177166,,,,,,TRUE,,,,,CAVOK,,,,,,,,VFR,,,,,,,,,,,,METAR,34.0
URFF 250530Z 22005MPS CAVOK 12/01 Q1021 19010095 NOSIG,URFF,2015-04-25T05:30:00Z,45.03,33.98,12.0,1.0,220,10,,6.21,30.147638,,,,,,TRUE,,,,,CAVOK,,,,,,,,VFR,,,,,,,,,,,,METAR,188.0
URWW 250530Z 25009MPS CAVOK 12/06 Q1012 NOSIG RMK SC070,URWW,2015-04-25T05:30:00Z,48.78,44.33,12.0,6.0,250,17,,6.21,29.88189,,,,,,TRUE,,,,,CAVOK,,,,,,,,VFR,,,,,,,,,,,,METAR,147.0
URWA 250530Z 28007MPS CAVOK 14/05 Q1016 NOSIG RMK QFE763/1018 SC070,URWA,2015-04-25T05:30:00Z,46.28,48.02,14.0,5.0,280,14,,6.21,30.0,,,,,,TRUE,,,,,CAVOK,,,,,,,,VFR,,,,,,,,,,,,METAR,-20.0
URSS 250530Z 13003MPS 9999 SKC 11/06 Q1025 NOSIG RMK R02/16003MPS QFE767 06000070 02//////,URSS,2015-04-25T05:30:00Z,43.45,39.95,11.0,6.0,130,6,,6.21,30.265747,,,,,,TRUE,,,,,SKC,,,,,,,,VFR,,,,,,,,,,,,METAR,16.0
URMT 250530Z 29010MPS CAVOK 11/M05 Q1020 R25/010070 NOSIG RMK QFE726,URMT,2015-04-25T05:30:00Z,45.12,42.12,11.0,-5.0,290,19,,6.21,30.11811,,,,,,TRUE,,,,,CAVOK,,,,,,,,VFR,,,,,,,,,,,,METAR,453.0
URMO 250530Z VRB01MPS CAVOK 13/M01 Q1022 NOSIG RMK R10/010095,URMO,2015-04-25T05:30:00Z,43.2,44.6,13.0,-1.0,0,2,,6.21,30.177166,,,,,,TRUE,,,,,CAVOK,,,,,,,,VFR,,,,,,,,,,,,METAR,510.0
URMN 250530Z 00000MPS 9999 SKC 13/M02 Q1021 NOSIG RMK QFE729 SC07,URMN,2015-04-25T05:30:00Z,43.52,43.63,13.0,-2.0,0,0,,6.21,30.147638,,,,,,TRUE,,,,,SKC,,,,,,,,VFR,,,,,,,,,,,,METAR,445.0
URMM 250530Z 29008MPS 9999 NSC 12/M00 Q1021 R30/000070 NOSIG RMK QFE738/0984,URMM,2015-04-25T05:30:00Z,44.22,43.1,12.0,0.0,290,16,,6.21,30.147638,,,,,,TRUE,,,,,,,,,,,,,,,,,,,,,,,,,METAR,314.0
URML 250530Z 33011G19MPS 9999 FEW100 17/02 Q1019 TEMPO 33013G18MPS RMK QFE764/1018 SC070,URML,2015-04-25T05:30:00Z,42.82,47.65,17.0,2.0,330,21,37,6.21,30.088583,,,,,,,,,,,FEW,10000,,,,,,,VFR,,,,,,,,,,,,METAR,4.0
GABS 250530Z 22006KT CAVOK 29/16 Q1012 NOSIG,GABS,2015-04-25T05:30:00Z,12.52,-7.95,29.0,16.0,220,6,,6.21,29.88189,,,,,,TRUE,,,,,CAVOK,,,,,,,,VFR,,,,,,,,,,,,METAR,381.0
KMCC 250530Z AUTO 19009KT 2 1/2SM -RA FEW001 SCT017 OVC036 11/08 A2997 RMK AO2,KMCC,2015-04-25T05:30:00Z,38.67,-121.4,11.0,8.0,190,9,,2.5,29.970472,,,TRUE,TRUE,,,,,,-RA,FEW,100,SCT,1700,OVC,3600,,,IFR,,,,,,,,,,,,SPECI,23.0
LFLW 250530Z AUTO 14003KT 9999 NSC 11/09 Q1013,LFLW,2015-04-25T05:30:00Z,44.88,2.42,11.0,9.0,140,3,,6.21,29.911417,,,TRUE,,,,,,,,,,,,,,,,,,,,,,,,,,,,METAR,639.0
OIMN 250530Z 30016KT 9000 FEW015 SCT040 OVC080 08/05 Q1017,OIMN,2015-04-25T05:30:00Z,37.48,57.3,8.0,5.0,300,16,,5.59,30.029528,,,,,,,,,,,FEW,1500,SCT,4000,OVC,8000,,,VFR,,,,,,,,,,,,METAR,1074.0
OIFS 250530Z 22016G21KT CAVOK 17/M16 Q1020,OIFS,2015-04-25T05:30:00Z,32.32,50.85,17.0,-16.0,220,16,21,6.21,30.11811,,,,,,,,,,,CAVOK,,,,,,,,VFR,,,,,,,,,,,,METAR,2078.0
OIII 250530Z 27024KT CAVOK 16/M14 Q1015 A3000 TEMPO 28018G26KT,OIII,2015-04-25T05:30:00Z,35.68,51.3,16.0,-14.0,270,24,,6.21,29.970472,,,,,,,,,,,CAVOK,,,,,,,,VFR,,,,,,,,,,,,SPECI,1191.0
YBTL 250530Z 35010KT CAVOK 28/19 Q1009 RMK DISTANT SMOKE TO NW,YBTL,2015-04-25T05:30:00Z,-19.25,146.75,28.0,19.0,350,10,,6.21,29.793306,,,,,,,,,,,CAVOK,,,,,,,,VFR,,,,,,,,,,,,SPECI,6.0
YPTN 250530Z AUTO 13011KT 9999 // NCD 33/04 Q1010,YPTN,2015-04-25T05:30:00Z,-14.52,132.38,33.0,4.0,130,11,,6.21,29.822834,,,TRUE,,,,,,,,,,,,,,,,,,,,,,,,,,,,SPECI,109.0
YSTW 250530Z AUTO 31013KT 9999 // NCD 23/05 Q1007,YSTW,2015-04-25T05:30:00Z,-31.07,150.85,23.0,5.0,310,13,,6.21,29.734253,,,TRUE,,,,,,,,,,,,,,,,,,,,,,,,,,,,SPECI,410.0
YPPH 250530Z 07012KT CAVOK 22/03 Q1023,YPPH,2015-04-25T05:30:00Z,-31.93,115.98,22.0,3.0,70,12,,6.21,30.206694,,,,,,,,,,,CAVOK,,,,,,,,VFR,,,,,,,,,,,,METAR,13.0
YPLM 250530Z AUTO 03009KT //// // NCD 29/13 Q1012,YPLM,2015-04-25T05:30:00Z,-22.22,114.07,29.0,13.0,30,9,,,29.88189,,,TRUE,,,,,,,,,,,,,,,,,,,,,,,,,,,,SPECI,6.0
YPKU 250530Z AUTO 14007KT 9999 // NCD 36/03 Q1009,YPKU,2015-04-25T05:30:00Z,-15.77,128.68,36.0,3.0,140,7,,6.21,29.793306,,,TRUE,,,,,,,,,,,,,,,,,,,,,,,,,,,,SPECI,45.0
YPJT 250530Z AUTO 09010KT 9999 // NCD 22/04 Q1023,YPJT,2015-04-25T05:30:00Z,-32.1,115.88,22.0,4.0,90,10,,6.21,30.206694,,,TRUE,,,,,,,,,,,,,,,,,,,,,,,,,,,,METAR,30.0
YHID 250530Z AUTO 07008KT 9999 // BKN058 OVC069 29/23 Q1008,YHID,2015-04-25T05:30:00Z,-10.58,142.3,29.0,23.0,70,8,,6.21,29.763779,,,TRUE,,,,,,,,BKN,5800,OVC,6900,,,,,VFR,,,,,,,,,,,,METAR,13.0
YBCG 250530Z AUTO 02009KT 9999 // NCD 27/13 Q1007,YBCG,2015-04-25T05:30:00Z,-28.17,153.5,27.0,13.0,20,9,,6.21,29.734253,,,TRUE,,,,,,,,,,,,,,,,,,,,,,,,,,,,SPECI,6.0
YPDN 250530Z 34008KT CAVOK 31/22 Q1008,YPDN,2015-04-25T05:30:00Z,-12.42,130.9,31.0,22.0,340,8,,6.21,29.763779,,,,,,,,,,,CAVOK,,,,,,,,VFR,,,,,,,,,,,,METAR,30.0
YCFS 250530Z AUTO 06009KT 9999 // NCD 25/11 Q1006,YCFS,2015-04-25T05:30:00Z,-30.32,153.12,25.0,11.0,60,9,,6.21,29.704725,,,TRUE,,,,,,,,,,,,,,,,,,,,,,,,,,,,METAR,5.0
YPCC 250530Z 09013KT 9999 -SHRA FEW018 BKN043 26/24 Q1010,YPCC,2015-04-25T05:30:00Z,-12.17,96.82,26.0,24.0,90,13,,6.21,29.822834,,,,,,,,,,-SHRA,FEW,1800,BKN,4300,,,,,VFR,,,,,,,,,,,,METAR,3.0
YSCB 250530Z 17006KT 9999 -SHRA FEW035 BKN055 11/08 Q1007,YSCB,2015-04-25T05:30:00Z,-35.28,149.17,11.0,8.0,170,6,,6.21,29.734253,,,,,,,,,,-SHRA,FEW,3500,BKN,5500,,,,,VFR,,,,,,,,,,,,METAR,577.0
YBCS 250530Z 02007KT 9999 FEW030 27/20 Q1010,YBCS,2015-04-25T05:30:00Z,-16.87,145.75,27.0,20.0,20,7,,6.21,29.822834,,,,,,,,,,,FEW,3000,,,,,,,VFR,,,,,,,,,,,,METAR,7.0
YBBN 250530Z 04009KT CAVOK 26/15 Q1007,YBBN,2015-04-25T05:30:00Z,-27.38,153.13,26.0,15.0,40,9,,6.21,29.734253,,,,,,,,,,,CAVOK,,,,,,,,VFR,,,,,,,,,,,,METAR,5.0
YBAS 250530Z 17010KT CAVOK 20/M02 Q1019,YBAS,2015-04-25T05:30:00Z,-23.8,133.9,20.0,-2.0,170,10,,6.21,30.088583,,,,,,,,,,,CAVOK,,,,,,,,VFR,,,,,,,,,,,,METAR,541.0
YPWR 250530Z AUTO 22017KT 9999 // SCT034 20/08 Q1017,YPWR,2015-04-25T05:30:00Z,-31.12,136.82,20.0,8.0,220,17,,6.21,30.029528,,,TRUE,,,,,,,,SCT,3400,,,,,,,VFR,,,,,,,,,,,,METAR,167.0
YWLM 250530Z AUTO 36006KT 9999 // NCD 24/11 Q1005,YWLM,2015-04-25T05:30:00Z,-32.8,151.83,24.0,11.0,360,6,,6.21,29.675198,,,TRUE,,,,,,,,,,,,,,,,,,,,,,,,,,,,SPECI,9.0
YBRK 250530Z 04004KT CAVOK 31/11 Q1007,YBRK,2015-04-25T05:30:00Z,-23.37,150.47,31.0,11.0,40,4,,6.21,29.734253,,,,,,,,,,,CAVOK,,,,,,,,VFR,,,,,,,,,,,,METAR,14.0
YSRI 250530Z AUTO 03010KT 9999 // BKN067 BKN085 22/13 Q1003,YSRI,2015-04-25T05:30:00Z,-33.6,150.77,22.0,13.0,30,10,,6.21,29.616142,,,TRUE,,,,,,,,BKN,6700,BKN,8500,,,,,VFR,,,,,,,,,,,,SPECI,21.0
YPPD 250530Z AUTO 12017KT 9999 // BKN086 29/07 Q1013,YPPD,2015-04-25T05:30:00Z,-20.37,118.62,29.0,7.0,120,17,,6.21,29.911417,,,TRUE,,,,,,,,BKN,8600,,,,,,,VFR,,,,,,,,,,,,SPECI,6.0
YSNF 250530Z 03014KT 9999 SCT021 22/16 Q1015,YSNF,2015-04-25T05:30:00Z,-29.02,167.92,22.0,16.0,30,14,,6.21,29.970472,,,,,,,,,,,SCT,2100,,,,,,,VFR,,,,,,,,,,,,METAR,109.0
YBMA 250530Z AUTO 16015KT 9999 // NCD 27/M01 Q1014,YBMA,2015-04-25T05:30:00Z,-20.67,139.47,27.0,-1.0,160,15,,6.21,29.940945,,,TRUE,,,,,,,,,,,,,,,,,,,,,,,,,,,,SPECI,344.0
YMLT 250530Z AUTO 14014KT 9999 // NCD 15/08 Q1009,YMLT,2015-04-25T05:30:00Z,-41.52,147.18,15.0,8.0,140,14,,6.21,29.793306,,,TRUE,,,,,,,,,,,,,,,,,,,,,,,,,,,,SPECI,178.0
YPKG 250530Z AUTO 07006KT 9999 // SCT050 17/02 Q1025,YPKG,2015-04-25T05:30:00Z,-30.77,121.45,17.0,2.0,70,6,,6.21,30.265747,,,TRUE,,,,,,,,SCT,5000,,,,,,,VFR,,,,,,,,,,,,SPECI,360.0
YMHB 250530Z 19012KT 9999 VCSH FEW020 SCT034 BKN039 12/05 Q1011,YMHB,2015-04-25T05:30:00Z,-42.82,147.52,12.0,5.0,190,12,,6.21,29.852362,,,,,,,,,,VCSH,FEW,2000,SCT,3400,BKN,3900,,,VFR,,,,,,,,,,,,METAR,27.0
YBHM 250530Z AUTO 08004KT 9999 // NCD 28/20 Q1009,YBHM,2015-04-25T05:30:00Z,-20.35,148.95,28.0,20.0,80,4,,6.21,29.793306,,,TRUE,,,,,,,,,,,,,,,,,,,,,,,,,,,,SPECI,5.0
YPGV 250530Z 15013KT 9999 FEW045 30/18 Q1009,YPGV,2015-04-25T05:30:00Z,-12.27,136.82,30.0,18.0,150,13,,6.21,29.793306,,,,,,,,,,,FEW,4500,,,,,,,VFR,,,,,,,,,,,,METAR,55.0
YGEL 250530Z 08012KT CAVOK 27/02 Q1018,YGEL,2015-04-25T05:30:00Z,-28.8,114.7,27.0,2.0,80,12,,6.21,30.059055,,,,,,,,,,,CAVOK,,,,,,,,VFR,,,,,,,,,,,,METAR,37.0
YFRT 250530Z AUTO /////KT //// // ////// 19/09 Q1023,YFRT,2015-04-25T05:30:00Z,-30.83,128.12,19.0,9.0,,,,,30.206694,,,TRUE,,,,,,,,,,,,,,,,,,,,,,,,,,,,SPECI,156.0
YSDU 250530Z AUTO 30015KT 9999 // SCT061 SCT092 21/09 Q1006,YSDU,2015-04-25T05:30:00Z,-32.22,148.57,21.0,9.0,300,15,,6.21,29.704725,,,TRUE,,,,,,,,SCT,6100,SCT,9200,,,,,VFR,,,,,,,,,,,,SPECI,275.0
YCIN 250530Z AUTO 12009KT //// // NCD 33/10 Q1009,YCIN,2015-04-25T05:30:00Z,-17.58,123.83,33.0,10.0,120,9,,,29.793306,,,TRUE,,,,,,,,,,,,,,,,,,,,,,,,,,,,SPECI,91.0
YBRM 250530Z 09011KT CAVOK 31/10 Q1010 RMK 6AC170,YBRM,2015-04-25T05:30:00Z,-17.93,122.22,31.0,10.0,90,11,,6.21,29.822834,,,,,,,,,,,CAVOK,,,,,,,,VFR,,,,,,,,,,,,SPECI,9.0
YMAV 250530Z AUTO 20010KT 9999 -RA SCT022 BKN028 OVC033 14/12 Q1009 RERA,YMAV,2015-04-25T05:30:00Z,-38.03,144.48,14.0,12.0,200,10,,6.21,29.793306,,,TRUE,,,,,,,-RA,SCT,2200,BKN,2800,OVC,3300,,,MVFR,,,,,,,,,,,,METAR,8.0
YAMB 250530Z AUTO 36007KT 9999 // NCD 28/10 Q1006,YAMB,2015-04-25T05:30:00Z,-27.63,152.72,28.0,10.0,360,7,,6.21,29.704725,,,TRUE,,,,,,,,,,,,,,,,,,,,,,,,,,,,SPECI,28.0
K6I2 250530Z AUTO 00000KT 10SM BKN046 14/01 A2986 RMK AO2,K6I2,2015-04-25T05:30:00Z,37.63,-85.25,14.0,1.0,0,0,,10.0,29.861221,,,TRUE,TRUE,,,,,,,BKN,4600,,,,,,,VFR,,,,,,,,,,,,SPECI,264.0
K65S 250530Z AUTO 00000KT 10SM BKN080 05/01 A2980 RMK AO2,K65S,2015-04-25T05:30:00Z,48.73,-116.3,5.0,1.0,0,0,,10.0,29.799213,,,TRUE,TRUE,,,,,,,BKN,8000,,,,,,,VFR,,,,,,,,,,,,SPECI,713.0
ULAA 250530Z 36003MPS 330V040 9999 -SHSN OVC013CB M04/M07 Q1003 08CLRD70 TEMPO 2000 SHSN BR BKN005CB RMK QFE751/1002,ULAA,2015-04-25T05:30:00Z,64.6,40.72,-4.0,-7.0,360,6,,6.21,29.616142,,,,,,,,,,-SHSN,OVC,1300,,,,,,,MVFR,,,,,,,,,,,,SPECI,19.0
UMKK 250530Z 16003MPS CAVOK 10/07 Q1011 R24/70D NOSIG RMK QFE757/1009,UMKK,2015-04-25T05:30:00Z,54.88,20.6,10.0,7.0,160,6,,6.21,29.852362,,,,,,TRUE,,,,,CAVOK,,,,,,,,VFR,,,,,,,,,,,,METAR,21.0
ULOO 250530Z 28003MPS P6000 NSC 05/M03 Q1010 19090070 NOSIG RMK QFE753,ULOO,2015-04-25T05:30:00Z,57.78,28.4,5.0,-3.0,280,6,,3.73,29.822834,,,,,,TRUE,,,,,,,,,,,,,,,,,,,,,,,,,SPECI,47.0
UUYY 250530Z 32003MPS 280V350 9999 FEW020 OVC200 04/M06 Q0995 NOSIG 01CLRD61 RMK QFE737/0983,UUYY,2015-04-25T05:30:00Z,61.65,50.82,4.0,-6.0,320,6,,6.21,29.379921,,,,,,TRUE,,,,,FEW,2000,OVC,20000,,,,,VFR,,,,,,,,,,,,SPECI,119.0
UUOO 250530Z 26005MPS 8000 SCT100 13/02 Q1008 NOSIG RMK 30090060,UUOO,2015-04-25T05:30:00Z,51.82,39.23,13.0,2.0,260,10,,4.97,29.763779,,,,,,TRUE,,,,,SCT,10000,,,,,,,MVFR,,,,,,,,,,,,SPECI,157.0
ULMM 250530Z 31003MPS 9999 BKN015CB BKN080 M01/M04 Q1007 NOSIG RMK QFE748 31490248,ULMM,2015-04-25T05:30:00Z,68.78,32.75,-1.0,-4.0,310,6,,6.21,29.734253,,,,,,TRUE,,,,,BKN,1500,BKN,8000,,,,,MVFR,,,,,,,,,,,,SPECI,51.0
WAMM 250530Z 31007KT 240V010 9999 SCT021 32/23 Q1008 NOSIG,WAMM,2015-04-25T05:30:00Z,1.55,124.92,32.0,23.0,310,7,,6.21,29.763779,,,,,,TRUE,,,,,SCT,2100,,,,,,,VFR,,,,,,,,,,,,METAR,80.0
WADD 250530Z 26006KT 220V290 9999 FEW015CB SCT015 30/25 Q1008 NOSIG RMK CB TO N,WADD,2015-04-25T05:30:00Z,-8.73,115.17,30.0,25.0,260,6,,6.21,29.763779,,,,,,TRUE,,,,,FEW,1500,SCT,1500,,,,,VFR,,,,,,,,,,,,SPECI,216.0
WAAA 250530Z 27007KT 230V320 9999 FEW019 32/25 Q1008 NOSIG,WAAA,2015-04-25T05:30:00Z,-5.07,119.53,32.0,25.0,270,7,,6.21,29.763779,,,,,,TRUE,,,,,FEW,1900,,,,,,,VFR,,,,,,,,,,,,METAR,14.0
WIDD 250530Z 04014KT 9999 SCT014 30/23 Q1010,WIDD,2015-04-25T05:30:00Z,1.12,104.12,30.0,23.0,40,14,,6.21,29.822834,,,,,,,,,,,SCT,1400,,,,,,,VFR,,,,,,,,,,,,METAR,38.0
WARR 250530Z 29010KT 9999 FEW018 28/23 Q1008,WARR,2015-04-25T05:30:00Z,-7.37,112.78,28.0,23.0,290,10,,6.21,29.763779,,,,,,,,,,,FEW,1800,,,,,,,VFR,,,,,,,,,,,,METAR,2.0
WIMM 250530Z 32008KT 8000 BKN016 31/26 Q1010 NOSIG,WIMM,2015-04-25T05:30:00Z,3.57,98.67,31.0,26.0,320,8,,4.97,29.822834,,,,,,TRUE,,,,,BKN,1600,,,,,,,MVFR,,,,,,,,,,,,METAR,25.0
VYMD 250530Z 33005KT 7000 BKN020 FEW025CB 34/23 Q1012,VYMD,2015-04-25T05:30:00Z,21.7,95.98,34.0,23.0,330,5,,4.35,29.88189,,,,,,,,,,,BKN,2000,FEW,2500,,,,,MVFR,,,,,,,,,,,,METAR,91.0
WIEE 250530Z 27006KT 220V300 9999 FEW022 31/24 Q1010,WIEE,2015-04-25T05:30:00Z,,,31.0,24.0,270,6,,6.21,29.822834,,,,,,,,,,,FEW,2200,,,,,,,VFR,,,,,,,,,,,,METAR,
KRZN 250530Z AUTO 07004KT 10SM SCT032 OVC040 07/M01 A2987 RMK AO2 T00681010,KRZN,2015-04-25T05:30:00Z,45.82,-92.37,6.8,-1.0,70,4,,10.0,29.870079,,,TRUE,TRUE,,,,,,,SCT,3200,OVC,4000,,,,,VFR,,,,,,,,,,,,SPECI,301.0
KMRJ 250530Z AUTO 09013G18KT 10SM OVC048 05/02 A2984 RMK AO2,KMRJ,2015-04-25T05:30:00Z,42.88,-90.23,5.0,2.0,90,13,18,10.0,29.840551,,,TRUE,TRUE,,,,,,,OVC,4800,,,,,,,VFR,,,,,,,,,,,,SPECI,359.0
KGLW 250530Z AUTO 15003KT 10SM SCT050 15/03 A2984 RMK AO2 T01450026,KGLW,2015-04-25T05:30:00Z,37.03,-85.95,14.5,2.6,150,3,,10.0,29.840551,,,TRUE,TRUE,,,,,,,SCT,5000,,,,,,,VFR,,,,,,,,,,,,SPECI,218.0
KGBG 250530Z AUTO 11010KT 10SM +TSRA OVC038 10/05 A2973 RMK AO2 LTG DSNT SE P0001 T01030048,KGBG,2015-04-25T05:30:00Z,40.93,-90.43,10.3,4.8,110,10,,10.0,29.731298,,,TRUE,TRUE,,,,,,+TSRA,OVC,3800,,,,,,,VFR,,,,,,0.01,,,,,,SPECI,233.0
KETB 250530Z AUTO 07006KT 10SM OVC049 02/00 A2997 RMK AO2,KETB,2015-04-25T05:30:00Z,43.42,-88.13,2.0,0.0,70,6,,10.0,29.970472,,,TRUE,TRUE,,,,,,,OVC,4900,,,,,,,VFR,,,,,,,,,,,,SPECI,270.0
KEGV 250530Z AUTO 15004KT 10SM SCT060 OVC070 04/M04 A2995 RMK AO2 T00381040,KEGV,2015-04-25T05:30:00Z,45.93,-89.27,3.8,-4.0,150,4,,10.0,29.949802,,,TRUE,TRUE,,,,,,,SCT,6000,OVC,7000,,,,,VFR,,,,,,,,,,,,SPECI,500.0
KBWP 250530Z AUTO 13013KT 10SM OVC013 07/03 A2978 RMK AO1,KBWP,2015-04-25T05:30:00Z,46.25,-96.62,7.0,3.0,130,13,,10.0,29.778543,,,TRUE,TRUE,,,,,,,OVC,1300,,,,,,,MVFR,,,,,,,,,,,,SPECI,295.0
KAIG 250530Z AUTO 13007KT 10SM OVC050 03/M05 A2996 RMK AO2 T00301055,KAIG,2015-04-25T05:30:00Z,45.15,-89.12,3.0,-5.5,130,7,,10.0,29.958662,,,TRUE,TRUE,,,,,,,OVC,5000,,,,,,,VFR,,,,,,,,,,,,SPECI,464.0
KACJ 250530Z AUTO 14004KT 10SM CLR 19/13 A2993 RMK AO2,KACJ,2015-04-25T05:30:00Z,32.12,-84.18,19.0,13.0,140,4,,10.0,29.929134,,,TRUE,TRUE,,,,,,,CLR,,,,,,,,VFR,,,,,,,,,,,,SPECI,143.0
VTBU 250530Z 20013KT 1000 +TSRA BR FEW018CB SCT035 BKN110 25/23 Q1013 A2994 TS OVER AD LTG,VTBU,2015-04-25T05:30:00Z,12.68,101.0,25.0,23.0,200,13,,0.62,29.911417,,,,,,,,,,+TSRA BR TS,FEW,1800,SCT,3500,BKN,11000,,,LIFR,,,,,,,,,,,,SPECI,5.0
WAHS 250530Z 35003KT 7000 SCT017 28/24 Q1009 NOSIG,WAHS,2015-04-25T05:30:00Z,,,28.0,24.0,350,3,,4.35,29.793306,,,,,,TRUE,,,,,SCT,1700,,,,,,,MVFR,,,,,,,,,,,,METAR,
YMML 250530Z 21010KT 9000 -RA VCSH VCFC FEW005 BKN009 FEW015TCU 13/13 Q1009 FM0530 22012KT 9999 -SHRA SCT010 BKN020 TEMPO 0530/0830 4000 SHRA BKN006,YMML,2015-04-25T05:30:00Z,-37.67,144.82,13.0,13.0,210,10,,5.59,29.793306,,,,,,,,,,-RA VCSH VCFC,FEW,500,BKN,900,FEW,1500,,,IFR,,,,,,,,,,,,SPECI,141.0
UTTT 250530Z 09006KT 060V130 CAVOK 31/06 Q1009 R88/70D NOSIG,UTTT,2015-04-25T05:30:00Z,41.27,69.27,31.0,6.0,90,6,,6.21,29.793306,,,,,,TRUE,,,,,CAVOK,,,,,,,,VFR,,,,,,,,,,,,METAR,489.0
UTST 250530Z 07006KT 030V120 CAVOK 32/07 Q1010 R88/CLRD70 NOSIG,UTST,2015-04-25T05:30:00Z,37.28,67.32,32.0,7.0,70,6,,6.21,29.822834,,,,,,TRUE,,,,,CAVOK,,,,,,,,VFR,,,,,,,,,,,,SPECI,302.0
UTSB 250530Z 13011KT 070V150 CAVOK 29/10 Q1005 R01/CLRD70 NOSIG,UTSB,2015-04-25T05:30:00Z,39.77,64.48,29.0,10.0,130,11,,6.21,29.675198,,,,,,TRUE,,,,,CAVOK,,,,,,,,VFR,,,,,,,,,,,,SPECI,226.0
UTSA 250530Z 11009KT 6000 NSC 28/11 Q1006 R07/CLRD70 NOSIG,UTSA,2015-04-25T05:30:00Z,40.12,65.17,28.0,11.0,110,9,,3.73,29.704725,,,,,,TRUE,,,,,,,,,,,,,,,,,,,,,,,,,SPECI,346.0
UTNU 250530Z 13006KT 9999 SCT066CB SCT100 BKN200 20/08 Q1005 R31/CLRD70 NOSIG,UTNU,2015-04-25T05:30:00Z,41.58,60.63,20.0,8.0,130,6,,6.21,29.675198,,,,,,TRUE,,,,,SCT,6600,SCT,10000,BKN,20000,,,VFR,,,,,,,,,,,,SPECI,98.0
UTNN 250530Z 02013KT CAVOK 19/05 Q1008 R33/CLRD60 NOSIG,UTNN,2015-04-25T05:30:00Z,42.48,59.63,19.0,5.0,20,13,,6.21,29.763779,,,,,,TRUE,,,,,CAVOK,,,,,,,,VFR,,,,,,,,,,,,SPECI,67.0
WADL 250530Z 20003KT 160V250 9000 FEW015CB SCT016 31/24 Q1008 NOSIG CB TO E,WADL,2015-04-25T05:30:00Z,-8.75,116.28,31.0,24.0,200,3,,5.59,29.763779,,,,,,TRUE,,,,,FEW,1500,SCT,1600,,,,,VFR,,,,,,,,,,,,METAR,97.0
WALL 250530Z VRB03KT 9999 FEW020CB FEW022 32/26 Q1008 RMK CB TO NE AND SW,WALL,2015-04-25T05:30:00Z,-1.27,116.9,32.0,26.0,0,3,,6.21,29.763779,,,,,,,,,,,FEW,2000,FEW,2200,,,,,VFR,,,,,,,,,,,,METAR,3.0
WAOO 250530Z 25009KT 4500 RA BKN010 24/23 Q1010,WAOO,2015-04-25T05:30:00Z,-3.45,114.77,24.0,23.0,250,9,,2.8,29.822834,,,,,,,,,,RA,BKN,1000,,,,,,,IFR,,,,,,,,,,,,METAR,20.0
WIPP 250530Z 30006KT 9999 SCT013 30/24 Q1010 NOSIG,WIPP,2015-04-25T05:30:00Z,-2.88,104.7,30.0,24.0,300,6,,6.21,29.822834,,,,,,TRUE,,,,,SCT,1300,,,,,,,VFR,,,,,,,,,,,,METAR,10.0
WIOO 250530Z 19008KT 7000 FEW010CB BKN011 25/24 Q1010 RERA NOSIG,WIOO,2015-04-25T05:30:00Z,-0.15,109.4,25.0,24.0,190,8,,4.35,29.822834,,,,,,TRUE,,,,,FEW,1000,BKN,1100,,,,,MVFR,,,,,,,,,,,,METAR,3.0
RJFF 250530Z 30009KT 9999 FEW035 20/10 Q1019 RMK 1CU035 A3009,RJFF,2015-04-25T05:30:00Z,33.57,130.43,20.0,10.0,300,9,,6.21,30.088583,,,,,,,,,,,FEW,3500,,,,,,,VFR,,,,,,,,,,,,METAR,12.0
KCBM 250529Z AUTO 09006KT 8SM R13C/5500FT -TSRA FEW038 OVC055 16/15 A2980 RMK AO2 LTG DSNT SE AND W-NW RAB01 TSB24 $,KCBM,2015-04-25T05:29:00Z,33.63,-88.45,16.0,15.0,90,6,,8.0,29.799213,,,TRUE,TRUE,TRUE,,,,,-TSRA,FEW,3800,OVC,5500,,,,,VFR,,,,,,,,,,,,METAR,67.0
KRUE 250529Z AUTO 00000KT 10SM BKN013 16/15 A2967 RMK AO2 T01610150,KRUE,2015-04-25T05:29:00Z,35.25,-93.1,16.1,15.0,0,0,,10.0,29.66929,,,TRUE,TRUE,,,,,,,BKN,1300,,,,,,,MVFR,,,,,,,,,,,,SPECI,115.0
KRNM 250529Z 30004KT 6SM -RA BR BKN007 BKN013 OVC018 12/11 A3003 RMK AO2 RAB22 P0000 T01170106,KRNM,2015-04-25T05:29:00Z,33.03,-116.92,11.7,10.6,300,4,,6.0,30.029528,,,,TRUE,,,,,,-RA BR,BKN,700,BKN,1300,OVC,1800,,,IFR,,,,,,0.0050,,,,,,SPECI,427.0
KBAD 250529Z AUTO 14005KT 10SM CLR 18/18 A2975 RMK AO2,KBAD,2015-04-25T05:29:00Z,32.5,-93.67,18.0,18.0,140,5,,10.0,29.749016,,,TRUE,TRUE,,,,,,,CLR,,,,,,,,VFR,,,,,,,,,,,,METAR,51.0
KLGU 250529Z AUTO 18008KT 7SM -RA FEW021 SCT026 OVC033 07/04 A2977 RMK AO2 P0005 T00670039,KLGU,2015-04-25T05:29:00Z,41.78,-111.85,6.7,3.9,180,8,,7.0,29.769686,,,TRUE,TRUE,,,,,,-RA,FEW,2100,SCT,2600,OVC,3300,,,VFR,,,,,,0.05,,,,,,SPECI,1355.0
ETAD 250528Z AUTO 00000KT 9999 -RA BKN049 BKN075 10/07 A2982 RMK AO2 RAB16,ETAD,2015-04-25T05:28:00Z,49.98,6.7,10.0,7.0,0,0,,6.21,29.819881,,,TRUE,TRUE,,,,,,-RA,BKN,4900,BKN,7500,,,,,VFR,,,,,,,,,,,,METAR,365.0
KEHA 250528Z AUTO 27010KT 09/04 RMK AO1 PK WND 13 001 T00940045,KEHA,2015-04-25T05:28:00Z,37.0,-101.9,9.4,4.5,270,10,,,,,,TRUE,TRUE,,,,,,,,,,,,,,,,,,,,,,,,,,,METAR,1099.0
PABI 250528Z 19016G23KT 10SM FEW080 SCT180 08/M11 A2968 RMK AO2 LAST T00831111,PABI,2015-04-25T05:28:00Z,64.0,-145.73,8.3,-11.1,190,16,23,10.0,29.681103,,,,TRUE,,,,,,,FEW,8000,SCT,18000,,,,,VFR,,,,,,,,,,,,METAR,386.0
KDLF 250528Z AUTO 33003KT 9SM R13/5500FT OVC004 21/19 A2977 RMK AO2,KDLF,2015-04-25T05:28:00Z,29.37,-100.77,21.0,19.0,330,3,,9.0,29.769686,,,TRUE,TRUE,,,,,,,OVC,400,,,,,,,LIFR,,,,,,,,,,,,METAR,330.0
KGLH 250528Z AUTO 01006KT 1 1/2SM +TSRA BR BKN035 OVC065 17/17 A2980 RMK AO2 LTG DSNT ALQDS TSE0456B0459 PRESRR P0055 T01670167,KGLH,2015-04-25T05:28:00Z,33.5,-90.98,16.7,16.7,10,6,,1.5,29.799213,,,TRUE,TRUE,,,,,,+TSRA BR,BKN,3500,OVC,6500,,,,,IFR,,,,,,0.55,,,,,,SPECI,45.0
KFSM 250528Z 09006KT 10SM BKN004 BKN008 16/14 A2965 RMK AO2 T01560144,KFSM,2015-04-25T05:28:00Z,35.33,-94.37,15.6,14.4,90,6,,10.0,29.648623,,,,TRUE,,,,,,,BKN,400,BKN,800,,,,,LIFR,,,,,,,,,,,,SPECI,140.0
KTUP 250528Z AUTO 07006KT 8SM VCTS -RA BKN029 BKN037 OVC080 15/13 A2983 RMK AO2 LTG DSNT S-NW RAE0455B21 P0003 T01500133,KTUP,2015-04-25T05:28:00Z,34.27,-88.77,15.0,13.3,70,6,,8.0,29.828741,,,TRUE,TRUE,,,,,,VCTS -RA,BKN,2900,BKN,3700,OVC,8000,,,MVFR,,,,,,0.03,,,,,,SPECI,105.0
KFSI 250528Z AUTO 20007KT 9SM SCT004 17/17 A2961 RMK AO2,KFSI,2015-04-25T05:28:00Z,34.65,-98.4,17.0,17.0,200,7,,9.0,29.610237,,,TRUE,TRUE,,,,,,,SCT,400,,,,,,,VFR,,,,,,,,,,,,SPECI,362.0
KEST 250528Z AUTO 11015KT 10SM BKN023 OVC031 07/06 A2968 RMK AO2 T00720056,KEST,2015-04-25T05:28:00Z,43.4,-94.75,7.2,5.6,110,15,,10.0,29.681103,,,TRUE,TRUE,,,,,,,BKN,2300,OVC,3100,,,,,MVFR,,,,,,,,,,,,SPECI,401.0
CYFC 250528Z AUTO 25004KT 5SM BR OVC009 02/01 A2956 RMK SLP012,CYFC,2015-04-25T05:28:00Z,45.87,-66.52,2.0,1.0,250,4,,5.0,29.56004,1001.2,,TRUE,,,,,,,BR,OVC,900,,,,,,,IFR,,,,,,,,,,,,SPECI,20.0
KMUO 250528Z AUTO 24006KT 10SM BKN070 OVC120 07/M01 A2976 RMK AO2,KMUO,2015-04-25T05:28:00Z,43.03,-115.87,7.0,-1.0,240,6,,10.0,29.760826,,,TRUE,TRUE,,,,,,,BKN,7000,OVC,12000,,,,,VFR,,,,,,,,,,,,SPECI,913.0
KHIF 250528Z 27014KT 7SM R14/5500FT -RA SCT009 OVC025 07/07 A2980 RMK AO2A CIG 008V026,KHIF,2015-04-25T05:28:00Z,41.12,-111.97,7.0,7.0,270,14,,7.0,29.799213,,,,TRUE,,,,,,-RA,SCT,900,OVC,2500,,,,,MVFR,,,,,,,,,,,,SPECI,1459.0
KARA 250527Z AUTO 18011KT 7SM OVC009 26/24 A2980 RMK AO2 CIG 007V013 T02560239,KARA,2015-04-25T05:27:00Z,30.03,-91.88,25.6,23.9,180,11,,7.0,29.799213,,,TRUE,TRUE,,,,,,,OVC,900,,,,,,,IFR,,,,,,,,,,,,SPECI,18.0
CWOB 250527Z AUTO 07022KT -SN M14/ A3041,CWOB,2015-04-25T05:27:00Z,63.32,-64.15,-14.0,,70,22,,,30.410433,,,TRUE,,,,,,,-SN,,,,,,,,,,,,,,,,,,,,,SPECI,367.0
RJNG 250527Z 29015G25KT 9999 FEW040 23/M01 Q1015 RMK 1SC040 A2997,RJNG,2015-04-25T05:27:00Z,35.37,136.87,23.0,-1.0,290,15,25,6.21,29.970472,,,,,,,,,,,FEW,4000,,,,,,,VFR,,,,,,,,,,,,SPECI,42.0
KBAB 250526Z AUTO 14016G22KT 10SM OVC041 11/11 A2991 RMK AO2 DZE11,KBAB,2015-04-25T05:26:00Z,39.12,-121.42,11.0,11.0,140,16,22,10.0,29.911417,,,TRUE,TRUE,,,,,,,OVC,4100,,,,,,,VFR,,,,,,,,,,,,METAR,34.0
K2DP 250526Z AUTO 18001KT 3/8SM -SHRA FG VV002 06/06 A2995 RMK AO2 RAE00SHRAB00 $,K2DP,2015-04-25T05:26:00Z,35.68,-75.9,6.0,6.0,180,1,,0.38,29.949802,,,TRUE,TRUE,TRUE,,,,,-SHRA FG,OVX,0,,,,,,,LIFR,,,,,,,,,,,200,SPECI,3.0
KOWB 250526Z AUTO 13005KT 10SM BKN026 OVC041 14/04 A2984 RMK AO2 TSNO,KOWB,2015-04-25T05:26:00Z,37.72,-87.17,14.0,4.0,130,5,,10.0,29.840551,,,TRUE,TRUE,,,TRUE,,,,BKN,2600,OVC,4100,,,,,MVFR,,,,,,,,,,,,SPECI,124.0
KHRL 250526Z 13006KT 10SM VCTS -RA FEW060 SCT080 BKN120 23/21 A2972 RMK AO2 PK WND 28035/0453 WSHFT 0455 LTG DSNT NW-NE TSE20 P0006 T02280206,KHRL,2015-04-25T05:26:00Z,26.23,-97.65,22.8,20.6,130,6,,10.0,29.719488,,,,TRUE,,,,,,VCTS -RA,FEW,6000,SCT,8000,BKN,12000,,,VFR,,,,,,0.06,,,,,,SPECI,10.0
KFAR 250526Z 10007KT 10SM FEW025 OVC032 08/03 A2979 RMK AO2 T00780033,KFAR,2015-04-25T05:26:00Z,46.93,-96.82,7.8,3.3,100,7,,10.0,29.790354,,,,TRUE,,,,,,,FEW,2500,OVC,3200,,,,,VFR,,,,,,,,,,,,SPECI,277.0
KCEC 250526Z AUTO 00000KT 1 3/4SM BR SCT075 OVC100 09/07 A2997 RMK AO2 T00890072,KCEC,2015-04-25T05:26:00Z,41.77,-124.22,8.9,7.2,0,0,,1.75,29.970472,,,TRUE,TRUE,,,,,,BR,SCT,7500,OVC,10000,,,,,IFR,,,,,,,,,,,,SPECI,17.0
KBRO 250526Z 29003KT 10SM OVC034 24/21 A2982 RMK AO2 LTG DSNT NW T02390206,KBRO,2015-04-25T05:26:00Z,25.92,-97.42,23.9,20.6,290,3,,10.0,29.819881,,,,TRUE,,,,,,,OVC,3400,,,,,,,VFR,,,,,,,,,,,,SPECI,7.0
KAXN 250526Z AUTO 11010KT 2SM -RA BR OVC005 06/04 A2978 RMK AO2 P0000 T00560044,KAXN,2015-04-25T05:26:00Z,45.87,-95.4,5.6,4.4,110,10,,2.0,29.778543,,,TRUE,TRUE,,,,,,-RA BR,OVC,500,,,,,,,IFR,,,,,,0.0050,,,,,,SPECI,433.0
KBLU 250526Z AUTO 15011G21KT 1 1/2SM -SN BR OVC003 01/M01 A2994 RMK AO2 RAE14SNB14 P0006 T00111006,KBLU,2015-04-25T05:26:00Z,39.28,-120.7,1.1,-0.6,150,11,21,1.5,29.940945,,,TRUE,TRUE,,,,,,-SN BR,OVC,300,,,,,,,LIFR,,,,,,0.06,,,,,,SPECI,1609.0
KMWM 250526Z AUTO 10011G15KT 10SM OVC010 07/06 A2970 RMK AO2,KMWM,2015-04-25T05:26:00Z,43.9,-95.1,7.0,6.0,100,11,15,10.0,29.698818,,,TRUE,TRUE,,,,,,,OVC,1000,,,,,,,MVFR,,,,,,,,,,,,SPECI,430.0
EHSA 250525Z AUTO VRB01G02KT 9999 ///////// 10/09 Q1006 W09/H9,EHSA,2015-04-25T05:25:00Z,52.0,3.28,10.0,9.0,0,1,2,6.21,29.704725,,,TRUE,,,,,,,,,,,,,,,,,,,,,,,,,,,,METAR,50.0
EHSC 250525Z AUTO 22018G21KT 6000 ///////// 10/09 Q1006 W09/H9,EHSC,2015-04-25T05:25:00Z,51.93,3.67,10.0,9.0,220,18,21,3.73,29.704725,,,TRUE,,,,,,,,,,,,,,,,,,,,,,,,,,,,METAR,50.0
EHJR 250525Z AUTO 20023G25KT //// ///////// 09/09 Q1004 W08/H10,EHJR,2015-04-25T05:25:00Z,53.22,3.22,9.0,9.0,200,23,25,,29.64567,,,TRUE,,,,,,,,,,,,,,,,,,,,,,,,,,,,METAR,50.0
EBLB 250525Z AUTO 19004KT 2600 RA FEW011/// SCT016/// BKN027/// 09/09 Q1009 YLO,EBLB,2015-04-25T05:25:00Z,50.47,6.17,9.0,9.0,190,4,,1.62,29.793306,,,TRUE,,,,,,,RA,,,,,,,,,,,,,,,,,,,,,METAR,570.0
EBFN 250525Z 20004KT 7000 -RADZ FEW029 SCT038 BKN065 10/09 Q1007 WHT,EBFN,2015-04-25T05:25:00Z,51.07,2.63,10.0,9.0,200,4,,4.35,29.734253,,,,,,,,,,-RA -DZ,FEW,2900,SCT,3800,BKN,6500,,,MVFR,,,,,,,,,,,,METAR,9.0
EBDT 250525Z AUTO 21004KT 9000 FEW043/// BKN060/// 10/09 Q1009 BLU,EBDT,2015-04-25T05:25:00Z,51.02,5.07,10.0,9.0,210,4,,5.59,29.793306,,,TRUE,,,,,,,,,,,,,,,,,,,,,,,,,,,,METAR,54.0
EBCV 250525Z AUTO 16006KT 3300 BR FEW030/// SCT043/// BKN050/// 11/10 Q1008 YLO,EBCV,2015-04-25T05:25:00Z,50.57,3.82,11.0,10.0,160,6,,2.05,29.763779,,,TRUE,,,,,,,BR,,,,,,,,,,,,,,,,,,,,,METAR,63.0
EBBL 250525Z 23005KT 9999 -RA SCT025 BKN040 10/09 Q1009 BLU,EBBL,2015-04-25T05:25:00Z,51.17,5.47,10.0,9.0,230,5,,6.21,29.793306,,,,,,,,,,-RA,SCT,2500,BKN,4000,,,,,VFR,,,,,,,,,,,,METAR,64.0
EBBE 250525Z AUTO 15003KT 7000 SCT050/// BKN070/// 10/09 Q1009 WHT,EBBE,2015-04-25T05:25:00Z,50.75,4.77,10.0,9.0,150,3,,4.35,29.793306,,,TRUE,,,,,,,,,,,,,,,,,,,,,,,,,,,,METAR,127.0
SBCY 250525Z 27005KT 9999 BKN007 26/23 Q1016,SBCY,2015-04-25T05:25:00Z,-15.65,-56.12,26.0,23.0,270,5,,6.21,30.0,,,,,,,,,,,BKN,700,,,,,,,IFR,,,,,,,,,,,,SPECI,182.0
EHFS 250525Z AUTO 19009KT 8000 FEW031/// OVC038/// 11/09 Q1007,EHFS,2015-04-25T05:25:00Z,51.45,3.6,11.0,9.0,190,9,,4.97,29.734253,,,TRUE,,,,,,,,,,,,,,,,,,,,,,,,,,,,METAR,32.0
EHQE 250525Z AUTO 22020KT 5000 -SHRA FEW033/// SCT042/// 10/09 Q//// REDZ,EHQE,2015-04-25T05:25:00Z,52.92,4.15,10.0,9.0,220,20,,3.11,,,,TRUE,,,,,,,-SHRA,,,,,,,,,,,,,,,,,,,,,METAR,50.0
EHPG 250525Z AUTO 21020KT 8000 NSC 10/09 Q1005,EHPG,2015-04-25T05:25:00Z,52.37,3.35,10.0,9.0,210,20,,4.97,29.675198,,,TRUE,,,,,,,,,,,,,,,,,,,,,,,,,,,,METAR,50.0
EHMG 250525Z AUTO 22022KT 9999 FEW035/// 10/08 Q1004,EHMG,2015-04-25T05:25:00Z,53.62,4.97,10.0,8.0,220,22,,6.21,29.64567,,,TRUE,,,,,,,,,,,,,,,,,,,,,,,,,,,,METAR,50.0
EHMA 250525Z AUTO 21017KT 7000 NSC 11/09 Q1005,EHMA,2015-04-25T05:25:00Z,53.5,5.95,11.0,9.0,210,17,,4.35,29.675198,,,TRUE,,,,,,,,,,,,,,,,,,,,,,,,,,,,METAR,50.0
EHKV 250525Z AUTO 21022KT 8000 FEW028/// BKN043/// 10/09 Q1004,EHKV,2015-04-25T05:25:00Z,53.27,3.63,10.0,9.0,210,22,,4.97,29.64567,,,TRUE,,,,,,,,,,,,,,,,,,,,,,,,,,,,METAR,50.0
EHJA 250525Z AUTO 21023KT 8000 FEW045/// SCT049/// 10/09 Q1002,EHJA,2015-04-25T05:25:00Z,53.82,2.95,10.0,9.0,210,23,,4.97,29.586615,,,TRUE,,,,,,,,,,,,,,,,,,,,,,,,,,,,METAR,50.0
EHFZ 250525Z AUTO 22021KT 7000 SCT031/// BKN036/// OVC044/// 10/08 Q1002,EHFZ,2015-04-25T05:25:00Z,54.12,4.02,10.0,8.0,220,21,,4.35,29.586615,,,TRUE,,,,,,,,,,,,,,,,,,,,,,,,,,,,METAR,50.0
EHFD 250525Z AUTO 22024KT 8000 SCT040/// BKN045/// 09/08 Q1001,EHFD,2015-04-25T05:25:00Z,54.85,4.7,9.0,8.0,220,24,,4.97,29.557087,,,TRUE,,,,,,,,,,,,,,,,,,,,,,,,,,,,METAR,50.0
EHDV 250525Z AUTO 22018KT 8000 NSC 09/08 Q1001,EHDV,2015-04-25T05:25:00Z,54.32,2.93,9.0,8.0,220,18,,4.97,29.557087,,,TRUE,,,,,,,,,,,,,,,,,,,,,,,,,,,,METAR,50.0
EHAK 250525Z AUTO 21024KT 6000 NSC 10/08 Q0999,EHAK,2015-04-25T05:25:00Z,55.42,3.82,10.0,8.0,210,24,,3.73,29.498032,,,TRUE,,,,,,,,,,,,,,,,,,,,,,,,,,,,METAR,50.0
OPLA 250525Z 15003KT 7000 NSC 35/12 Q1007 A29.74,OPLA,2015-04-25T05:25:00Z,31.52,74.4,35.0,12.0,150,3,,4.35,29.734253,,,,,,,,,,,,,,,,,,,,,,,,,,,,,,,SPECI,217.0
K2W6 250525Z AUTO 29003KT 10SM CLR 04/M02 A2997 RMK AO1,K2W6,2015-04-25T05:25:00Z,38.32,-76.55,4.0,-2.0,290,3,,10.0,29.970472,,,TRUE,TRUE,,,,,,,CLR,,,,,,,,VFR,,,,,,,,,,,,SPECI,44.0
K2G4 250525Z AUTO 01003KT 10SM CLR 02/M07 A2993 RMK AO1,K2G4,2015-04-25T05:25:00Z,39.58,-79.33,2.0,-7.0,10,3,,10.0,29.929134,,,TRUE,TRUE,,,,,,,CLR,,,,,,,,VFR,,,,,,,,,,,,SPECI,894.0
KW29 250525Z AUTO 35007KT 10SM A2997 RMK AO1,KW29,2015-04-25T05:25:00Z,38.98,-76.33,,,350,7,,10.0,29.970472,,,TRUE,TRUE,,,,,,,,,,,,,,,,,,,,,,,,,,,SPECI,15.0
KDMW 250525Z AUTO 00000KT 10SM SCT090 07/M08 A2996 RMK AO2,KDMW,2015-04-25T05:25:00Z,39.6,-77.0,7.0,-8.0,0,0,,10.0,29.958662,,,TRUE,TRUE,,,,,,,SCT,9000,,,,,,,VFR,,,,,,,,,,,,SPECI,241.0
KCGS 250525Z AUTO 00000KT 10SM CLR 04/00 A2996 RMK AO1,KCGS,2015-04-25T05:25:00Z,38.98,-76.92,4.0,0.0,0,0,,10.0,29.958662,,,TRUE,TRUE,,,,,,,CLR,,,,,,,,VFR,,,,,,,,,,,,SPECI,15.0
KCBE 250525Z AUTO 00000KT 10SM CLR 06/M05 A3002 RMK AO1,KCBE,2015-04-25T05:25:00Z,39.62,-78.77,6.0,-5.0,0,0,,10.0,30.02067,,,TRUE,TRUE,,,,,,,CLR,,,,,,,,VFR,,,,,,,,,,,,SPECI,236.0
KALI 250525Z AUTO 05009KT 4SM BR SCT013 SCT023 27/24 A2973 RMK AO2 T02670244,KALI,2015-04-25T05:25:00Z,27.73,-98.02,26.7,24.4,50,9,,4.0,29.731298,,,TRUE,TRUE,,,,,,BR,SCT,1300,SCT,2300,,,,,MVFR,,,,,,,,,,,,SPECI,53.0
EHRD 250525Z AUTO 20008KT 160V240 6000 DZ SCT011 OVC014 11/10 Q1007 TEMPO 8000,EHRD,2015-04-25T05:25:00Z,51.95,4.45,11.0,10.0,200,8,,3.73,29.734253,,,TRUE,,,,,,,DZ,SCT,1100,OVC,1400,,,,,MVFR,,,,,,,,,,,,METAR,-5.0
EHGG 250525Z AUTO 20008KT 7000 NSC 11/09 Q1006 BECMG 8000,EHGG,2015-04-25T05:25:00Z,53.12,6.57,11.0,9.0,200,8,,4.35,29.704725,,,TRUE,,,,,,,,,,,,,,,,,,,,,,,,,,,,METAR,4.0
EHBK 250525Z AUTO 25003KT 220V300 5000 DZ BKN019 OVC023 10/09 Q1009 TEMPO 8000 NSW BECMG BKN030,EHBK,2015-04-25T05:25:00Z,50.92,5.77,10.0,9.0,250,3,,3.11,29.793306,,,TRUE,,,,,,,DZ,BKN,1900,OVC,2300,,,,,MVFR,,,,,,,,,,,,METAR,116.0
EHAM 250525Z 20009KT 7000 -RADZ FEW008 SCT011 11/10 Q1006 TEMPO 8000 BKN012,EHAM,2015-04-25T05:25:00Z,52.32,4.78,11.0,10.0,200,9,,4.35,29.704725,,,,,,,,,,-RA -DZ,FEW,800,SCT,1100,,,,,MVFR,,,,,,,,,,,,METAR,9.0
EHWO 250525Z AUTO 18004KT 8000 -DZ OVC020 11/10 Q1007 REDZ WHT,EHWO,2015-04-25T05:25:00Z,51.45,4.32,11.0,10.0,180,4,,4.97,29.734253,,,TRUE,,,,,,,-DZ,OVC,2000,,,,,,,MVFR,,,,,,,,,,,,METAR,17.0
EHVL 250525Z AUTO 22017KT 9999 BKN034 OVC038 10/09 Q1005 BLU,EHVL,2015-04-25T05:25:00Z,53.23,4.92,10.0,9.0,220,17,,6.21,29.675198,,,TRUE,,,,,,,,BKN,3400,OVC,3800,,,,,VFR,,,,,,,,,,,,METAR,5.0
EHVK 250525Z AUTO 21007KT 6000 +DZRA OVC035 11/10 Q1008 WHT,EHVK,2015-04-25T05:25:00Z,51.63,5.7,11.0,10.0,210,7,,3.73,29.763779,,,TRUE,,,,,,,+DZ +RA,OVC,3500,,,,,,,MVFR,,,,,,,,,,,,METAR,21.0
EHLW 250525Z AUTO 21008KT 6000 BR FEW046 SCT069 BKN079 10/09 Q1005 WHT,EHLW,2015-04-25T05:25:00Z,53.22,5.75,10.0,9.0,210,8,,3.73,29.675198,,,TRUE,,,,,,,BR,FEW,4600,SCT,6900,BKN,7900,,,MVFR,,,,,,,,,,,,METAR,2.0
EHGR 250525Z AUTO 20006KT 4400 +DZ FEW036 SCT049 10/10 Q1008 GRN,EHGR,2015-04-25T05:25:00Z,51.57,4.92,10.0,10.0,200,6,,2.73,29.763779,,,TRUE,,,,,,,+DZ,FEW,3600,SCT,4900,,,,,IFR,,,,,,,,,,,,METAR,13.0
EHDL 250525Z AUTO 20006KT 6000 DZ FEW048 OVC064 11/09 Q1007 WHT,EHDL,2015-04-25T05:25:00Z,52.07,5.87,11.0,9.0,200,6,,3.73,29.734253,,,TRUE,,,,,,,DZ,FEW,4800,OVC,6400,,,,,MVFR,,,,,,,,,,,,METAR,52.0
KMPV 250525Z AUTO 30013G21KT 10SM BKN029 OVC037 M01/M06 A2981 RMK AO2 T10061056,KMPV,2015-04-25T05:25:00Z,44.2,-72.57,-0.6,-5.6,300,13,21,10.0,29.811024,,,TRUE,TRUE,,,,,,,BKN,2900,OVC,3700,,,,,MVFR,,,,,,,,,,,,SPECI,343.0
EHKD 250525Z AUTO 22011KT 9000 BR FEW029 BKN077 OVC083 10/09 Q1005 BLU 21012KT 8000 FEW035 BKN050,EHKD,2015-04-25T05:25:00Z,52.92,4.77,10.0,9.0,220,11,,5.59,29.675198,,,TRUE,,,,,,,BR,FEW,2900,BKN,7700,OVC,8300,FEW,3500,VFR,,,-1.2,,,,,,,,,METAR,14.0
UTO8 M M M 290/-04/-05/1217/M/ PK WND 1222 0429Z SOG 25 1004 13MM,UTO8,2015-04-25T05:24:08Z,,,,,,,,0.62,,,,,,,,,,,,,,,,,,,,,,,,,,,,,,,,METAR,
KMTN 250524Z AUTO 31003KT 10SM CLR 04/M01 A2998 RMK AO2,KMTN,2015-04-25T05:24:00Z,39.32,-76.42,4.0,-1.0,310,3,,10.0,29.97933,,,TRUE,TRUE,,,,,,,CLR,,,,,,,,VFR,,,,,,,,,,,,SPECI,7.0
KFME 250524Z AUTO 00000KT 10SM CLR 01/00 A2999 RMK AO1,KFME,2015-04-25T05:24:00Z,39.08,-76.77,1.0,0.0,0,0,,10.0,29.991142,,,TRUE,TRUE,,,,,,,CLR,,,,,,,,VFR,,,,,,,,,,,,SPECI,46.0
KCGE 250524Z AUTO 00000KT 10SM CLR 06/00 A2995 RMK AO1,KCGE,2015-04-25T05:24:00Z,38.53,-76.03,6.0,0.0,0,0,,10.0,29.949802,,,TRUE,TRUE,,,,,,,CLR,,,,,,,,VFR,,,,,,,,,,,,SPECI,6.0
CYCX 250524Z 26006KT 9SM -DZ OVC007 02/01 A2956 RMK SF8 DA-860FT SLP011,CYCX,2015-04-25T05:24:00Z,45.82,-66.42,2.0,1.0,260,6,,9.0,29.56004,1001.1,,,,,,,,,-DZ,OVC,700,,,,,,,IFR,,,,,,,,,,,,SPECI,51.0
KFLG 250524Z AUTO 23012KT 10SM SCT013 BKN032 OVC065 05/04 A3000 RMK AO2 RAE09 P0002 T00500044 TSNO,KFLG,2015-04-25T05:24:00Z,35.13,-111.67,5.0,4.4,230,12,,10.0,30.0,,,TRUE,TRUE,,,TRUE,,,,SCT,1300,BKN,3200,OVC,6500,,,VFR,,,,,,0.02,,,,,,SPECI,2134.0
KCXO 250524Z AUTO 20010KT 8SM OVC014 25/22 A2976 RMK AO2 T02500222,KCXO,2015-04-25T05:24:00Z,30.35,-95.42,25.0,22.2,200,10,,8.0,29.760826,,,TRUE,TRUE,,,,,,,OVC,1400,,,,,,,MVFR,,,,,,,,,,,,SPECI,75.0
KASD 250524Z AUTO 00000KT 10SM BKN014 OVC028 20/20 A2979 RMK AO2 T02000200,KASD,2015-04-25T05:24:00Z,30.35,-89.82,20.0,20.0,0,0,,10.0,29.790354,,,TRUE,TRUE,,,,,,,BKN,1400,OVC,2800,,,,,MVFR,,,,,,,,,,,,SPECI,9.0
PAKI 250524Z AUTO 35008KT BKN004 M01/M02 RMK AO2 PWINO TSNO $,PAKI,2015-04-25T05:24:00Z,59.93,-164.03,-1.0,-2.0,350,8,,,,,,TRUE,TRUE,TRUE,,TRUE,,TRUE,,BKN,400,,,,,,,,,,,,,,,,,,,SPECI,4.0
KMYP 250524Z AUTO 10SM SCT017 BKN023 BKN027 M05/M07 A3008 RMK AO2,KMYP,2015-04-25T05:24:00Z,38.48,-106.32,-5.0,-7.0,,,,10.0,30.079725,,,TRUE,TRUE,,,,,,,SCT,1700,BKN,2300,BKN,2700,,,MVFR,,,,,,,,,,,,METAR,3667.0
CYSC 250523Z AUTO 26013KT 6SM -SN OVC012 M02/M02 A2973 RMK SLP077,CYSC,2015-04-25T05:23:00Z,45.43,-71.68,-2.0,-2.0,260,13,,6.0,29.731298,1007.7,,TRUE,,,,,,,-SN,OVC,1200,,,,,,,MVFR,,,,,,,,,,,,SPECI,241.0
OEBH 250523Z 06013KT 2100 BLDU SKC 26/M04 Q1018 NOSIG,OEBH,2015-04-25T05:23:00Z,19.97,42.62,26.0,-4.0,60,13,,1.3,30.059055,,,,,,TRUE,,,,BLDU,SKC,,,,,,,,IFR,,,,,,,,,,,,SPECI,1157.0
KUKI 250523Z AUTO 17007KT 6SM RA BR BKN012 BKN024 OVC050 10/08 A2992 RMK AO2 P0005 T01000083,KUKI,2015-04-25T05:23:00Z,39.12,-123.2,10.0,8.3,170,7,,6.0,29.920275,,,TRUE,TRUE,,,,,,RA BR,BKN,1200,BKN,2400,OVC,5000,,,MVFR,,,,,,0.05,,,,,,METAR,187.0
KGZH 250523Z AUTO 17006KT 10SM BKN008 19/18 A2986 RMK AO2 T01940178,KGZH,2015-04-25T05:23:00Z,31.42,-87.05,19.4,17.8,170,6,,10.0,29.861221,,,TRUE,TRUE,,,,,,,BKN,800,,,,,,,IFR,,,,,,,,,,,,METAR,78.0
CYYR 250523Z 05011KT 15SM BKN003 OVC022 01/M02 A2998 RMK SF5SC3 SLP155,CYYR,2015-04-25T05:23:00Z,53.32,-60.42,1.0,-2.0,50,11,,15.0,29.97933,1015.5,,,,,,,,,,BKN,300,OVC,2200,,,,,LIFR,,,,,,,,,,,,SPECI,49.0
KJBR 250522Z AUTO 16013KT 7SM OVC004 13/13 A2971 RMK AO2 T01330133,KJBR,2015-04-25T05:22:00Z,35.83,-90.65,13.3,13.3,160,13,,7.0,29.71063,,,TRUE,TRUE,,,,,,,OVC,400,,,,,,,LIFR,,,,,,,,,,,,METAR,79.0
KCSV 250522Z AUTO 18004KT 10SM -RA SCT026 SCT036 OVC090 13/03 A2993 RMK AO2 RAB18 P0000 T01330033,KCSV,2015-04-25T05:22:00Z,35.95,-85.08,13.3,3.3,180,4,,10.0,29.929134,,,TRUE,TRUE,,,,,,-RA,SCT,2600,SCT,3600,OVC,9000,,,VFR,,,,,,0.0050,,,,,,METAR,570.0
KBPI 250521Z AUTO 06006KT 10SM FEW009 BKN060 OVC080 03/02 A2975 RMK AO2 RAB06E21 P0000 T00280017,KBPI,2015-04-25T05:21:00Z,42.58,-110.1,2.8,1.7,60,6,,10.0,29.749016,,,TRUE,TRUE,,,,,,,FEW,900,BKN,6000,OVC,8000,,,VFR,,,,,,0.0050,,,,,,SPECI,2117.0
KDTN 250521Z AUTO 16005KT 8SM TSRA FEW075 BKN100 BKN120 19/17 A2977 RMK AO2 LTG DSNT ALQDS TSE0458B17 P0004 T01890172,KDTN,2015-04-25T05:21:00Z,32.55,-93.75,18.9,17.2,160,5,,8.0,29.769686,,,TRUE,TRUE,,,,,,TSRA,FEW,7500,BKN,10000,BKN,12000,,,VFR,,,,,,0.04,,,,,,SPECI,53.0
PHNY 250521Z AUTO 10003KT 10SM BKN031 OVC038 21/17 A3004 RMK AO2 PNO $,PHNY,2015-04-25T05:21:00Z,20.77,-156.93,21.0,17.0,100,3,,10.0,30.041338,,,TRUE,TRUE,TRUE,,,,,,BKN,3100,OVC,3800,,,,,VFR,,,,,,,,,,,,SPECI,399.0
RJTU 250521Z 13013KT 9999 FEW030 SCT200 19/07 Q1016 RMK 1CU030 3CI200 A3001,RJTU,2015-04-25T05:21:00Z,36.52,139.87,19.0,7.0,130,13,,6.21,30.0,,,,,,,,,,,FEW,3000,SCT,20000,,,,,VFR,,,,,,,,,,,,SPECI,105.0
CYBW 250521Z AUTO 35011G17KT 9SM BKN009 OVC210 01/00 A2973 RMK SLP101,CYBW,2015-04-25T05:21:00Z,51.1,-114.37,1.0,0.0,350,11,17,9.0,29.731298,1010.1,,TRUE,,,,,,,,BKN,900,OVC,21000,,,,,IFR,,,,,,,,,,,,SPECI,1200.0
KPQN 250521Z AUTO 07009G18KT 10SM OVC007 08/07 A2968 RMK AO2,KPQN,2015-04-25T05:21:00Z,43.97,-96.32,8.0,7.0,70,9,18,10.0,29.681103,,,TRUE,TRUE,,,,,,,OVC,700,,,,,,,IFR,,,,,,,,,,,,SPECI,529.0
LATI 250520Z VRB02KT 9999 SCT100 12/10 Q1019 NOSIG,LATI,2015-04-25T05:20:00Z,41.42,19.72,12.0,10.0,0,2,,6.21,30.088583,,,,,,TRUE,,,,,SCT,10000,,,,,,,VFR,,,,,,,,,,,,METAR,90.0
LTAF 250520Z 04006KT CAVOK 15/07 Q1024 NOSIG,LTAF,2015-04-25T05:20:00Z,36.97,35.28,15.0,7.0,40,6,,6.21,30.236221,,,,,,TRUE,,,,,CAVOK,,,,,,,,VFR,,,,,,,,,,,,METAR,20.0
EVRA 250520Z 21006KT 150V240 9999 OVC007 06/04 Q1011 NOSIG,EVRA,2015-04-25T05:20:00Z,56.92,23.97,6.0,4.0,210,6,,6.21,29.852362,,,,,,TRUE,,,,,OVC,700,,,,,,,IFR,,,,,,,,,,,,METAR,10.0
EKVG 250520Z AUTO 34029KT 4000NDV -SN OVC015/// 01/00 Q1001 RMK OVC012/// WIND 850FT 35042G59KT,EKVG,2015-04-25T05:20:00Z,62.07,-7.3,1.0,0.0,340,29,,,29.557087,,,TRUE,,,,,,,-SN,,,,,,,,,,,,,,,,,,,,,METAR,85.0
EETN 250520Z 18002KT CAVOK 04/01 Q1009 NOSIG,EETN,2015-04-25T05:20:00Z,59.4,24.82,4.0,1.0,180,2,,6.21,29.793306,,,,,,TRUE,,,,,CAVOK,,,,,,,,VFR,,,,,,,,,,,,METAR,40.0
KHKA 250520Z AUTO 17013KT 10SM BKN008 BKN110 14/13 A2974 RMK AO2 PK WND 17029/0457 RAE13 P0000 T01390133,KHKA,2015-04-25T05:20:00Z,35.93,-89.83,13.9,13.3,170,13,,10.0,29.740158,,,TRUE,TRUE,,,,,,,BKN,800,BKN,11000,,,,,IFR,,,,,,0.0050,,,,,,SPECI,78.0
KSSF 250520Z AUTO 00000KT 10SM BKN009 23/21 A2976 RMK AO2 LTG DSNT SE T02280211,KSSF,2015-04-25T05:20:00Z,29.33,-98.47,22.8,21.1,0,0,,10.0,29.760826,,,TRUE,TRUE,,,,,,,BKN,900,,,,,,,IFR,,,,,,,,,,,,SPECI,176.0
EVVA 250520Z AUTO 18006KT 9000 OVC007 07/06 Q1009,EVVA,2015-04-25T05:20:00Z,57.35,21.55,7.0,6.0,180,6,,5.59,29.793306,,,TRUE,,,,,,,,OVC,700,,,,,,,IFR,,,,,,,,,,,,METAR,6.0
EKKA 250520Z 17008KT 3200 BR FEW004 BKN060 08/07 Q1002,EKKA,2015-04-25T05:20:00Z,56.3,9.12,8.0,7.0,170,8,,1.99,29.586615,,,,,,,,,,BR,FEW,400,BKN,6000,,,,,IFR,,,,,,,,,,,,METAR,52.0
EDDB 250520Z 17005KT CAVOK 10/04 Q1009 NOSIG,EDDB,2015-04-25T05:20:00Z,52.38,13.53,10.0,4.0,170,5,,6.21,29.793306,,,,,,TRUE,,,,,CAVOK,,,,,,,,VFR,,,,,,,,,,,,METAR,48.0
EDDC 250520Z 17005KT 140V200 CAVOK 11/03 Q1011 NOSIG,EDDC,2015-04-25T05:20:00Z,51.13,13.75,11.0,3.0,170,5,,6.21,29.852362,,,,,,TRUE,,,,,CAVOK,,,,,,,,VFR,,,,,,,,,,,,METAR,226.0
EDDE 250520Z 19009KT CAVOK 11/01 Q1010 NOSIG,EDDE,2015-04-25T05:20:00Z,50.98,10.97,11.0,1.0,190,9,,6.21,29.822834,,,,,,TRUE,,,,,CAVOK,,,,,,,,VFR,,,,,,,,,,,,METAR,323.0
EDDF 250520Z 22002KT CAVOK 08/06 Q1010 NOSIG,EDDF,2015-04-25T05:20:00Z,50.05,8.6,8.0,6.0,220,2,,6.21,29.822834,,,,,,TRUE,,,,,CAVOK,,,,,,,,VFR,,,,,,,,,,,,METAR,113.0
EDDG 250520Z 19003KT 6000 BKN038 OVC130 12/08 Q1007 NOSIG,EDDG,2015-04-25T05:20:00Z,52.13,7.7,12.0,8.0,190,3,,3.73,29.734253,,,,,,TRUE,,,,,BKN,3800,OVC,13000,,,,,MVFR,,,,,,,,,,,,METAR,52.0
EDDH 250520Z 17005KT CAVOK 12/07 Q1006 NOSIG,EDDH,2015-04-25T05:20:00Z,53.63,10.0,12.0,7.0,170,5,,6.21,29.704725,,,,,,TRUE,,,,,CAVOK,,,,,,,,VFR,,,,,,,,,,,,METAR,16.0
EDDK 250520Z 09002KT 9999 FEW048 SCT080 OVC120 12/07 Q1009 NOSIG,EDDK,2015-04-25T05:20:00Z,50.87,7.15,12.0,7.0,90,2,,6.21,29.793306,,,,,,TRUE,,,,,FEW,4800,SCT,8000,OVC,12000,,,VFR,,,,,,,,,,,,METAR,99.0
EDDL 250520Z 22004KT 9000 -RA FEW018 BKN032 BKN050 12/09 Q1008 NOSIG,EDDL,2015-04-25T05:20:00Z,51.3,6.77,12.0,9.0,220,4,,5.59,29.763779,,,,,,TRUE,,,,-RA,FEW,1800,BKN,3200,BKN,5000,,,VFR,,,,,,,,,,,,METAR,44.0
EDDM 250520Z VRB01KT CAVOK 03/02 Q1013 NOSIG,EDDM,2015-04-25T05:20:00Z,48.35,11.82,3.0,2.0,0,1,,6.21,29.911417,,,,,,TRUE,,,,,CAVOK,,,,,,,,VFR,,,,,,,,,,,,METAR,447.0
EDDN 250520Z VRB02KT CAVOK 05/02 Q1011 NOSIG,EDDN,2015-04-25T05:20:00Z,49.5,11.08,5.0,2.0,0,2,,6.21,29.852362,,,,,,TRUE,,,,,CAVOK,,,,,,,,VFR,,,,,,,,,,,,METAR,312.0
EDDP 250520Z 17010KT CAVOK 10/03 Q1010 NOSIG,EDDP,2015-04-25T05:20:00Z,51.43,12.23,10.0,3.0,170,10,,6.21,29.822834,,,,,,TRUE,,,,,CAVOK,,,,,,,,VFR,,,,,,,,,,,,METAR,149.0
EDDR 250520Z 22003KT 180V250 9999 -RA NSC 11/04 Q1010 NOSIG,EDDR,2015-04-25T05:20:00Z,49.22,7.1,11.0,4.0,220,3,,6.21,29.822834,,,,,,TRUE,,,,-RA,,,,,,,,,,,,,,,,,,,,,METAR,320.0
EDDS 250520Z 09003KT 060V130 CAVOK 06/04 Q1012 NOSIG,EDDS,2015-04-25T05:20:00Z,48.67,9.22,6.0,4.0,90,3,,6.21,29.88189,,,,,,TRUE,,,,,CAVOK,,,,,,,,VFR,,,,,,,,,,,,METAR,419.0
EDDT 250520Z 19005KT CAVOK 11/03 Q1009 NOSIG,EDDT,2015-04-25T05:20:00Z,52.57,13.32,11.0,3.0,190,5,,6.21,29.793306,,,,,,TRUE,,,,,CAVOK,,,,,,,,VFR,,,,,,,,,,,,METAR,37.0
EDDW 250520Z 19006KT 9999 FEW034 BKN120 BKN250 11/08 Q1007 NOSIG,EDDW,2015-04-25T05:20:00Z,53.03,8.8,11.0,8.0,190,6,,6.21,29.734253,,,,,,TRUE,,,,,FEW,3400,BKN,12000,BKN,25000,,,VFR,,,,,,,,,,,,METAR,5.0
EDDV 250520Z 19003KT 9999 -RA FEW024 BKN120 12/09 Q1007 NOSIG,EDDV,2015-04-25T05:20:00Z,52.47,9.68,12.0,9.0,190,3,,6.21,29.734253,,,,,,TRUE,,,,-RA,FEW,2400,BKN,12000,,,,,VFR,,,,,,,,,,,,METAR,54.0
EDFH 250520Z 22006KT 9999 -RA SCT033 BKN060 13/03 Q1010,EDFH,2015-04-25T05:20:00Z,49.95,7.27,13.0,3.0,220,6,,6.21,29.822834,,,,,,,,,,-RA,SCT,3300,BKN,6000,,,,,VFR,,,,,,,,,,,,METAR,498.0
EDHL 250520Z 18004KT 8000 NSC 10/06 Q1006 RMK ATIS BRA,EDHL,2015-04-25T05:20:00Z,53.8,10.72,10.0,6.0,180,4,,4.97,29.704725,,,,,,,,,,,,,,,,,,,,,,,,,,,,,,,METAR,16.0
EDLP 250520Z 14003KT CAVOK 14/04 Q1008 RMK ATIS HOT,EDLP,2015-04-25T05:20:00Z,51.62,8.62,14.0,4.0,140,3,,6.21,29.763779,,,,,,,,,,,CAVOK,,,,,,,,VFR,,,,,,,,,,,,METAR,213.0
EDLW 250520Z 24006KT 6000 BKN038 12/08 Q1008 RMK ATIS E,EDLW,2015-04-25T05:20:00Z,51.52,7.62,12.0,8.0,240,6,,3.73,29.763779,,,,,,,,,,,BKN,3800,,,,,,,MVFR,,,,,,,,,,,,METAR,127.0
EDMA 250520Z 13005KT CAVOK 06/02 Q1012 RMK ATIS ZUL,EDMA,2015-04-25T05:20:00Z,48.42,10.92,6.0,2.0,130,5,,6.21,29.88189,,,,,,,,,,,CAVOK,,,,,,,,VFR,,,,,,,,,,,,METAR,463.0
EDOP 250520Z 18008KT CAVOK 13/04 Q1007 RMK ATIS D,EDOP,2015-04-25T05:20:00Z,53.43,11.78,13.0,4.0,180,8,,6.21,29.734253,,,,,,,,,,,CAVOK,,,,,,,,VFR,,,,,,,,,,,,METAR,51.0
EDXW 250520Z 22014KT 2400 BR BKN005 09/08 Q1003 RMK ATIS CHA,EDXW,2015-04-25T05:20:00Z,54.92,8.33,9.0,8.0,220,14,,1.49,29.616142,,,,,,,,,,BR,BKN,500,,,,,,,IFR,,,,,,,,,,,,METAR,20.0
EDSB 250520Z 20005KT CAVOK 09/05 Q1011,EDSB,2015-04-25T05:20:00Z,48.78,8.08,9.0,5.0,200,5,,6.21,29.852362,,,,,,,,,,,CAVOK,,,,,,,,VFR,,,,,,,,,,,,METAR,124.0
EKBI 250520Z 15005KT 5000 BR SCT040 BKN250 07/05 Q1003,EKBI,2015-04-25T05:20:00Z,55.72,9.15,7.0,5.0,150,5,,3.11,29.616142,,,,,,,,,,BR,SCT,4000,BKN,25000,,,,,MVFR,,,,,,,,,,,,METAR,66.0
LLBG 250520Z 05005KT CAVOK 16/07 Q1023 NOSIG,LLBG,2015-04-25T05:20:00Z,32.0,34.88,16.0,7.0,50,5,,6.21,30.206694,,,,,,TRUE,,,,,CAVOK,,,,,,,,VFR,,,,,,,,,,,,METAR,49.0
ESGG 250520Z 18011KT 3500 BR BKN006 06/05 Q1003,ESGG,2015-04-25T05:20:00Z,57.67,12.3,6.0,5.0,180,11,,2.17,29.616142,,,,,,,,,,BR,BKN,600,,,,,,,IFR,,,,,,,,,,,,METAR,169.0
ESGJ 250520Z AUTO 18007KT 4200 BR OVC006/// 06/05 Q1003,ESGJ,2015-04-25T05:20:00Z,57.77,14.07,6.0,5.0,180,7,,2.61,29.616142,,,TRUE,,,,,,,BR,,,,,,,,,,,,,,,,,,,,,METAR,232.0
ESMK 250520Z AUTO 12003KT 4400 FEW001/// 07/07 Q1006,ESMK,2015-04-25T05:20:00Z,55.92,14.07,7.0,7.0,120,3,,2.73,29.704725,,,TRUE,,,,,,,,,,,,,,,,,,,,,,,,,,,,METAR,23.0
ESMQ 250520Z AUTO 18009KT 0400 R16/P1500N R34/0650N SCT002/// 05/05 Q1007,ESMQ,2015-04-25T05:20:00Z,56.68,16.3,5.0,5.0,180,9,,0.25,29.734253,,,TRUE,,,,,,,,,,,,,,,,,,,,,,,,,,,,METAR,16.0
ESMS 250520Z 17007KT 5000 BR NSC 07/07 Q1006,ESMS,2015-04-25T05:20:00Z,55.53,13.37,7.0,7.0,170,7,,3.11,29.704725,,,,,,,,,,BR,,,,,,,,,,,,,,,,,,,,,METAR,106.0
ESMT 250520Z VRB02KT 2300 BR FEW003 07/05 Q1004,ESMT,2015-04-25T05:20:00Z,56.67,12.82,7.0,5.0,0,2,,1.43,29.64567,,,,,,,,,,BR,FEW,300,,,,,,,IFR,,,,,,,,,,,,METAR,30.0
ESMX 250520Z AUTO 15005KT 110V170 3800 BR FEW003/// 05/05 Q1005,ESMX,2015-04-25T05:20:00Z,56.92,14.72,5.0,5.0,150,5,,2.36,29.675198,,,TRUE,,,,,,,BR,,,,,,,,,,,,,,,,,,,,,METAR,186.0
ESTL 250520Z AUTO 13005KT 030V160 5000NDV BR NCD 07/06 Q1005,ESTL,2015-04-25T05:20:00Z,56.07,13.2,7.0,6.0,130,5,,,29.675198,,,TRUE,,,,,,,BR,,,,,,,,,,,,,,,,,,,,,METAR,43.0
ESTA 250520Z AUTO 13006KT 4200 BR FEW170/// 06/05 Q1005,ESTA,2015-04-25T05:20:00Z,56.28,12.83,6.0,5.0,130,6,,2.61,29.675198,,,TRUE,,,,,,,BR,,,,,,,,,,,,,,,,,,,,,METAR,47.0
EKCH 250520Z 19006KT 5000 BR NSC 09/08 Q1005 NOSIG,EKCH,2015-04-25T05:20:00Z,55.62,12.67,9.0,8.0,190,6,,3.11,29.675198,,,,,,TRUE,,,,BR,,,,,,,,,,,,,,,,,,,,,METAR,5.0
EKYT 250520Z 17006KT 2500 -RA BR FEW004 BKN006 07/06 Q1002,EKYT,2015-04-25T05:20:00Z,57.1,9.87,7.0,6.0,170,6,,1.55,29.586615,,,,,,,,,,-RA BR,FEW,400,BKN,600,,,,,IFR,,,,,,,,,,,,METAR,3.0
EKRK 250520Z AUTO 16003KT 3200NDV BR SCT110/// 08/07 Q1005,EKRK,2015-04-25T05:20:00Z,55.57,12.12,8.0,7.0,160,3,,,29.675198,,,TRUE,,,,,,,BR,,,,,,,,,,,,,,,,,,,,,METAR,44.0
EKAH 250520Z AUTO 20003KT 3500NDV -DZ BR BKN054/// BKN087/// 08/06 Q1003,EKAH,2015-04-25T05:20:00Z,56.28,10.62,8.0,6.0,200,3,,,29.616142,,,TRUE,,,,,,,-DZ BR,,,,,,,,,,,,,,,,,,,,,METAR,25.0
EKEB 250520Z AUTO 19009KT 160V220 2900NDV BR BKN007/// 09/08 Q1002,EKEB,2015-04-25T05:20:00Z,55.52,8.55,9.0,8.0,190,9,,,29.586615,,,TRUE,,,,,,,BR,,,,,,,,,,,,,,,,,,,,,METAR,29.0
EKRN 250520Z AUTO 13007KT 8000NDV NCD 09/07 Q1008,EKRN,2015-04-25T05:20:00Z,55.07,14.75,9.0,7.0,130,7,,,29.763779,,,TRUE,,,,,,,,,,,,,,,,,,,,,,,,,,,,METAR,16.0
EKSB 250520Z 18006KT 140V210 5000 BR NSC 10/07 Q1003,EKSB,2015-04-25T05:20:00Z,54.97,9.8,10.0,7.0,180,6,,3.11,29.616142,,,,,,,,,,BR,,,,,,,,,,,,,,,,,,,,,METAR,23.0
EKVD 250520Z 18007KT 150V210 4500 BR SCT045 BKN140 09/06 Q1003,EKVD,2015-04-25T05:20:00Z,55.42,9.32,9.0,6.0,180,7,,2.8,29.616142,,,,,,,,,,BR,SCT,4500,BKN,14000,,,,,IFR,,,,,,,,,,,,METAR,45.0
EFHK 250520Z 32004KT CAVOK 03/M03 Q1009 NOSIG,EFHK,2015-04-25T05:20:00Z,60.32,24.97,3.0,-3.0,320,4,,6.21,29.793306,,,,,,TRUE,,,,,CAVOK,,,,,,,,VFR,,,,,,,,,,,,METAR,56.0
EFJY 250520Z AUTO VRB03KT CAVOK 02/00 Q1006,EFJY,2015-04-25T05:20:00Z,62.4,25.68,2.0,0.0,0,3,,6.21,29.704725,,,TRUE,,,,,,,,CAVOK,,,,,,,,VFR,,,,,,,,,,,,METAR,145.0
EFKU 250520Z AUTO VRB03KT 080V180 9999 OVC006 00/M01 Q1007,EFKU,2015-04-25T05:20:00Z,63.02,27.8,0.0,-1.0,0,3,,6.21,29.734253,,,TRUE,,,,,,,,OVC,600,,,,,,,IFR,,,,,,,,,,,,METAR,102.0
EGPU 250520Z AUTO 36016KT 330V030 9999 FEW033/// 04/M02 Q1001,EGPU,2015-04-25T05:20:00Z,56.5,-6.87,4.0,-2.0,360,16,,6.21,29.557087,,,TRUE,,,,,,,,,,,,,,,,,,,,,,,,,,,,METAR,12.0
EGPI 250520Z AUTO 34013KT 310V020 9999 -RA BKN024/// 05/03 Q1001,EGPI,2015-04-25T05:20:00Z,55.68,-6.25,5.0,3.0,340,13,,6.21,29.557087,,,TRUE,,,,,,,-RA,,,,,,,,,,,,,,,,,,,,,METAR,18.0
LCEN 250520Z 28003KT CAVOK 13/06 Q1023 NOSIG,LCEN,2015-04-25T05:20:00Z,35.13,33.5,13.0,6.0,280,3,,6.21,30.206694,,,,,,TRUE,,,,,CAVOK,,,,,,,,VFR,,,,,,,,,,,,METAR,91.0
LTCJ 250520Z 21003KT 150V260 9000 FEW004 07/06 Q1024,LTCJ,2015-04-25T05:20:00Z,37.93,41.12,7.0,6.0,210,3,,5.59,30.236221,,,,,,,,,,,FEW,400,,,,,,,VFR,,,,,,,,,,,,METAR,540.0
LTCE 250520Z 26007KT CAVOK M00/M04 Q1024 NOSIG,LTCE,2015-04-25T05:20:00Z,39.95,41.17,0.0,-4.0,260,7,,6.21,30.236221,,,,,,TRUE,,,,,CAVOK,,,,,,,,VFR,,,,,,,,,,,,METAR,1758.0
LTCC 250520Z 09005KT 050V120 CAVOK 09/04 Q1023 NOSIG,LTCC,2015-04-25T05:20:00Z,37.87,40.2,9.0,4.0,90,5,,6.21,30.206694,,,,,,TRUE,,,,,CAVOK,,,,,,,,VFR,,,,,,,,,,,,METAR,677.0
LTBU 250520Z 14002KT CAVOK 11/10 Q1020,LTBU,2015-04-25T05:20:00Z,41.12,27.92,11.0,10.0,140,2,,6.21,30.11811,,,,,,,,,,,CAVOK,,,,,,,,VFR,,,,,,,,,,,,METAR,173.0
LTAU 250520Z 02004KT 280V080 CAVOK 05/M01 Q1025 NOSIG,LTAU,2015-04-25T05:20:00Z,38.77,35.47,5.0,-1.0,20,4,,6.21,30.265747,,,,,,TRUE,,,,,CAVOK,,,,,,,,VFR,,,,,,,,,,,,METAR,1054.0
LTAT 250520Z 08003KT 030V130 CAVOK 10/M00 Q1024 NOSIG,LTAT,2015-04-25T05:20:00Z,38.42,38.07,10.0,0.0,80,3,,6.21,30.236221,,,,,,TRUE,,,,,CAVOK,,,,,,,,VFR,,,,,,,,,,,,METAR,849.0
LTAP 250520Z 00000KT CAVOK 07/00 Q1023 NOSIG,LTAP,2015-04-25T05:20:00Z,40.83,35.52,7.0,0.0,0,0,,6.21,30.206694,,,,,,TRUE,,,,,CAVOK,,,,,,,,VFR,,,,,,,,,,,,METAR,535.0
LTAG 250520Z 01006KT CAVOK 15/08 Q1024 NOSIG,LTAG,2015-04-25T05:20:00Z,37.0,35.42,15.0,8.0,10,6,,6.21,30.236221,,,,,,TRUE,,,,,CAVOK,,,,,,,,VFR,,,,,,,,,,,,METAR,66.0
LTFJ 250520Z 23004KT 180V270 CAVOK 14/02 Q1020 NOSIG,LTFJ,2015-04-25T05:20:00Z,40.9,29.3,14.0,2.0,230,4,,6.21,30.11811,,,,,,TRUE,,,,,CAVOK,,,,,,,,VFR,,,,,,,,,,,,METAR,98.0
LTFE 250520Z 10004KT 060V140 9999 FEW035 BKN200 10/07 Q1022 NOSIG,LTFE,2015-04-25T05:20:00Z,37.25,27.67,10.0,7.0,100,4,,6.21,30.177166,,,,,,TRUE,,,,,FEW,3500,BKN,20000,,,,,VFR,,,,,,,,,,,,METAR,6.0
LTFC 250520Z VRB02KT 9999 FEW035 BKN200 07/M00 Q1023,LTFC,2015-04-25T05:20:00Z,37.87,30.38,7.0,0.0,0,2,,6.21,30.206694,,,,,,,,,,,FEW,3500,BKN,20000,,,,,VFR,,,,,,,,,,,,METAR,864.0
LTCS 250520Z 01004KT 330V060 CAVOK 11/01 Q1024,LTCS,2015-04-25T05:20:00Z,37.45,38.9,11.0,1.0,10,4,,6.21,30.236221,,,,,,,,,,,CAVOK,,,,,,,,VFR,,,,,,,,,,,,METAR,825.0
LTCG 250520Z 09006KT CAVOK 10/05 Q1024 NOSIG,LTCG,2015-04-25T05:20:00Z,41.0,39.8,10.0,5.0,90,6,,6.21,30.236221,,,,,,TRUE,,,,,CAVOK,,,,,,,,VFR,,,,,,,,,,,,METAR,30.0
LTBS 250520Z 05004KT 9999 FEW030 BKN100 11/07 Q1023 NOSIG,LTBS,2015-04-25T05:20:00Z,36.7,28.77,11.0,7.0,50,4,,6.21,30.206694,,,,,,TRUE,,,,,FEW,3000,BKN,10000,,,,,VFR,,,,,,,,,,,,METAR,2.0
LTBR 250520Z 26002KT CAVOK 07/04 Q1021 NOSIG,LTBR,2015-04-25T05:20:00Z,40.25,29.57,7.0,4.0,260,2,,6.21,30.147638,,,,,,TRUE,,,,,CAVOK,,,,,,,,VFR,,,,,,,,,,,,METAR,232.0
LTBJ 250520Z VRB02KT CAVOK 10/06 Q1021 NOSIG,LTBJ,2015-04-25T05:20:00Z,38.28,27.15,10.0,6.0,0,2,,6.21,30.147638,,,,,,TRUE,,,,,CAVOK,,,,,,,,VFR,,,,,,,,,,,,METAR,120.0
LTBA 250520Z 17004KT 120V240 CAVOK 13/07 Q1020 NOSIG,LTBA,2015-04-25T05:20:00Z,40.97,28.82,13.0,7.0,170,4,,6.21,30.11811,,,,,,TRUE,,,,,CAVOK,,,,,,,,VFR,,,,,,,,,,,,METAR,37.0
LTAZ 250520Z 13009KT CAVOK 06/M02 Q1025,LTAZ,2015-04-25T05:20:00Z,38.77,34.55,6.0,-2.0,130,9,,6.21,30.265747,,,,,,,,,,,CAVOK,,,,,,,,VFR,,,,,,,,,,,,METAR,945.0
LTAJ 250520Z 00000KT CAVOK 12/02 Q1023 NOSIG,LTAJ,2015-04-25T05:20:00Z,36.95,37.48,12.0,2.0,0,0,,6.21,30.206694,,,,,,TRUE,,,,,CAVOK,,,,,,,,VFR,,,,,,,,,,,,METAR,855.0
LTAI 250520Z 35005KT CAVOK 13/01 Q1023 NOSIG,LTAI,2015-04-25T05:20:00Z,36.9,30.8,13.0,1.0,350,5,,6.21,30.206694,,,,,,TRUE,,,,,CAVOK,,,,,,,,VFR,,,,,,,,,,,,METAR,54.0
LTAC 250520Z VRB02KT CAVOK 05/M03 Q1024 NOSIG,LTAC,2015-04-25T05:20:00Z,40.12,32.97,5.0,-3.0,0,2,,6.21,30.236221,,,,,,TRUE,,,,,CAVOK,,,,,,,,VFR,,,,,,,,,,,,METAR,949.0
ENEK 250520Z 20028KT 9999 FEW015 BKN025 09/08 Q0996 W08/S4,ENEK,2015-04-25T05:20:00Z,56.53,3.25,9.0,8.0,200,28,,6.21,29.409449,,,,,,,,,,,FEW,1500,BKN,2500,,,,,MVFR,,,,,,,,,,,,METAR,3.0
ENVH 250520Z AUTO 22030KT 6000NDV BKN030/// 09/08 Q0997 W///S4,ENVH,2015-04-25T05:20:00Z,56.27,3.38,9.0,8.0,220,30,,,29.438976,,,TRUE,,,,,,,,,,,,,,,,,,,,,,,,,,,,METAR,4.0
EDNY 250520Z AUTO 07002KT CAVOK 05/01 Q1013,EDNY,2015-04-25T05:20:00Z,47.67,9.52,5.0,1.0,70,2,,6.21,29.911417,,,TRUE,,,,,,,,CAVOK,,,,,,,,VFR,,,,,,,,,,,,METAR,424.0
KFDK 250520Z AUTO 00000KT 10SM CLR 04/M05 A3000 RMK AO2,KFDK,2015-04-25T05:20:00Z,39.42,-77.37,4.0,-5.0,0,0,,10.0,30.0,,,TRUE,TRUE,,,,,,,CLR,,,,,,,,VFR,,,,,,,,,,,,SPECI,92.0
EFKT 250520Z 04004KT 330V080 CAVOK M05/M08 Q1009,EFKT,2015-04-25T05:20:00Z,67.7,24.85,-5.0,-8.0,40,4,,6.21,29.793306,,,,,,,,,,,CAVOK,,,,,,,,VFR,,,,,,,,,,,,SPECI,643.0
EFKS 250520Z AUTO 19001KT CAVOK M05/M09 Q1006,EFKS,2015-04-25T05:20:00Z,66.0,29.23,-5.0,-9.0,190,1,,6.21,29.704725,,,TRUE,,,,,,,,CAVOK,,,,,,,,VFR,,,,,,,,,,,,SPECI,263.0
EFKI 250520Z AUTO 10005KT 9999 FEW015 OVC025 M01/M04 Q1006,EFKI,2015-04-25T05:20:00Z,64.27,27.67,-1.0,-4.0,100,5,,6.21,29.704725,,,TRUE,,,,,,,,FEW,1500,OVC,2500,,,,,MVFR,,,,,,,,,,,,SPECI,136.0
EFKE 250520Z AUTO 02009KT 3900 -SN OVC008 M01/M02 Q1008,EFKE,2015-04-25T05:20:00Z,65.77,24.57,-1.0,-2.0,20,9,,2.42,29.763779,,,TRUE,,,,,,,-SN,OVC,800,,,,,,,IFR,,,,,,,,,,,,SPECI,15.0
EFIV 250520Z AUTO 34005KT 310V020 9999 SCT013 OVC061 M02/M04 Q1009,EFIV,2015-04-25T05:20:00Z,68.62,27.42,-2.0,-4.0,340,5,,6.21,29.793306,,,TRUE,,,,,,,,SCT,1300,OVC,6100,,,,,VFR,,,,,,,,,,,,SPECI,148.0
EFET 250520Z AUTO 02003KT CAVOK M06/M09 Q1010,EFET,2015-04-25T05:20:00Z,68.37,23.43,-6.0,-9.0,20,3,,6.21,29.822834,,,TRUE,,,,,,,,CAVOK,,,,,,,,VFR,,,,,,,,,,,,SPECI,306.0
LGMK 250520Z 14007KT 9999 FEW015 SCT090 BKN180 16/14 Q1019,LGMK,2015-04-25T05:20:00Z,37.43,25.35,16.0,14.0,140,7,,6.21,30.088583,,,,,,,,,,,FEW,1500,SCT,9000,BKN,18000,,,VFR,,,,,,,,,,,,METAR,123.0
LGKZ 250520Z AUTO VRB01KT //// // ////// 10/07 Q1019 RE//,LGKZ,2015-04-25T05:20:00Z,40.28,21.83,10.0,7.0,0,1,,,30.088583,,,TRUE,,,,,,,,,,,,,,,,,,,,,,,,,,,,SPECI,628.0
LGKP 250520Z 14005KT 9999 FEW020 14/09 Q1021,LGKP,2015-04-25T05:20:00Z,35.42,27.15,14.0,9.0,140,5,,6.21,30.147638,,,,,,,,,,,FEW,2000,,,,,,,VFR,,,,,,,,,,,,METAR,20.0
LGBL 250520Z 28004KT 9999 FEW035 BKN080 13/09 Q1018,LGBL,2015-04-25T05:20:00Z,39.22,22.8,13.0,9.0,280,4,,6.21,30.059055,,,,,,,,,,,FEW,3500,BKN,8000,,,,,VFR,,,,,,,,,,,,METAR,26.0
LIPQ 250520Z VRB01KT 9999 BKN050 11/09 Q1018,LIPQ,2015-04-25T05:20:00Z,45.82,13.47,11.0,9.0,0,1,,6.21,30.059055,,,,,,,,,,,BKN,5000,,,,,,,VFR,,,,,,,,,,,,METAR,12.0
LGSR 250520Z 15006KT 9999 -RA SCT025 BKN080 16/12 Q1020 RERA,LGSR,2015-04-25T05:20:00Z,36.4,25.48,16.0,12.0,150,6,,6.21,30.11811,,,,,,,,,,-RA,SCT,2500,BKN,8000,,,,,VFR,,,,,,,,,,,,METAR,40.0
LGRX 250520Z 00000KT 9999 FEW020 BKN080 13/13 Q1018,LGRX,2015-04-25T05:20:00Z,38.17,21.42,13.0,13.0,0,0,,6.21,30.059055,,,,,,,,,,,FEW,2000,BKN,8000,,,,,VFR,,,,,,,,,,,,METAR,15.0
LGPZ 250520Z 06004KT 9999 FEW020 SCT030 14/11 Q1019,LGPZ,2015-04-25T05:20:00Z,38.92,20.77,14.0,11.0,60,4,,6.21,30.088583,,,,,,,,,,,FEW,2000,SCT,3000,,,,,VFR,,,,,,,,,,,,METAR,4.0
LGMT 250520Z 14006KT 9999 SCT020 SCT090 15/09 Q1020,LGMT,2015-04-25T05:20:00Z,39.05,26.6,15.0,9.0,140,6,,6.21,30.11811,,,,,,,,,,,SCT,2000,SCT,9000,,,,,VFR,,,,,,,,,,,,METAR,17.0
LGKV 250520Z 03004KT 9999 FEW030 11/09 Q1018,LGKV,2015-04-25T05:20:00Z,40.92,24.62,11.0,9.0,30,4,,6.21,30.059055,,,,,,,,,,,FEW,3000,,,,,,,VFR,,,,,,,,,,,,METAR,5.0
LGIO 250520Z 00000KT 9999 SCT050 BKN070 09/09 Q1019,LGIO,2015-04-25T05:20:00Z,39.7,20.82,9.0,9.0,0,0,,6.21,30.088583,,,,,,,,,,,SCT,5000,BKN,7000,,,,,VFR,,,,,,,,,,,,METAR,476.0
LGEL 250520Z 00000KT 9999 FEW030 BKN070 15/11 Q1018,LGEL,2015-04-25T05:20:00Z,38.07,23.55,15.0,11.0,0,0,,6.21,30.059055,,,,,,,,,,,FEW,3000,BKN,7000,,,,,VFR,,,,,,,,,,,,METAR,31.0
LGAL 250520Z 00000KT 9999 SCT025 13/11 Q1018,LGAL,2015-04-25T05:20:00Z,40.85,25.95,13.0,11.0,0,0,,6.21,30.059055,,,,,,,,,,,SCT,2500,,,,,,,VFR,,,,,,,,,,,,METAR,3.0
LGTS 250520Z VRB02KT 8000 FEW015 BKN070 13/10 Q1018 NOSIG,LGTS,2015-04-25T05:20:00Z,40.52,22.97,13.0,10.0,0,2,,4.97,30.059055,,,,,,TRUE,,,,,FEW,1500,BKN,7000,,,,,MVFR,,,,,,,,,,,,METAR,7.0
LGSM 250520Z 00000KT 9999 FEW020 BKN100 14/06 Q1021,LGSM,2015-04-25T05:20:00Z,37.68,26.92,14.0,6.0,0,0,,6.21,30.147638,,,,,,,,,,,FEW,2000,BKN,10000,,,,,VFR,,,,,,,,,,,,METAR,6.0
LGSA 250520Z 14005KT 9999 SCT025 BKN070 15/12 Q1019,LGSA,2015-04-25T05:20:00Z,35.53,24.13,15.0,12.0,140,5,,6.21,30.088583,,,,,,,,,,,SCT,2500,BKN,7000,,,,,VFR,,,,,,,,,,,,METAR,135.0
LGLM 250520Z 17007KT 9999 SCT010 SCT020 BKN080 16/13 Q1018,LGLM,2015-04-25T05:20:00Z,39.92,25.23,16.0,13.0,170,7,,6.21,30.059055,,,,,,,,,,,SCT,1000,SCT,2000,BKN,8000,,,VFR,,,,,,,,,,,,METAR,5.0
LGKO 250520Z 14011KT 9999 FEW020 SCT070 BKN180 14/09 Q1020,LGKO,2015-04-25T05:20:00Z,36.8,27.08,14.0,9.0,140,11,,6.21,30.11811,,,,,,,,,,,FEW,2000,SCT,7000,BKN,18000,,,VFR,,,,,,,,,,,,METAR,125.0
LGKL 250520Z 00000KT 6000 3000SE BR FEW030 BKN080 12/10 Q1018,LGKL,2015-04-25T05:20:00Z,37.07,22.02,12.0,10.0,0,0,,3.73,30.059055,,,,,,,,,,BR,FEW,3000,BKN,8000,,,,,MVFR,,,,,,,,,,,,SPECI,8.0
LGAD 250520Z 00000KT 9999 FEW020 BKN080 13/11 Q1018,LGAD,2015-04-25T05:20:00Z,37.92,21.27,13.0,11.0,0,0,,6.21,30.059055,,,,,,,,,,,FEW,2000,BKN,8000,,,,,VFR,,,,,,,,,,,,METAR,12.0
EFVR 250520Z AUTO 29004KT 240V330 9999 BKN003 02/01 Q1006,EFVR,2015-04-25T05:20:00Z,62.17,27.87,2.0,1.0,290,4,,6.21,29.704725,,,TRUE,,,,,,,,BKN,300,,,,,,,LIFR,,,,,,,,,,,,METAR,87.0
EFUT 250520Z AUTO 29006KT 250V320 CAVOK 03/M01 Q1007,EFUT,2015-04-25T05:20:00Z,60.88,26.92,3.0,-1.0,290,6,,6.21,29.734253,,,TRUE,,,,,,,,CAVOK,,,,,,,,VFR,,,,,,,,,,,,METAR,100.0
EFSA 250520Z AUTO 26008KT 220V290 9999 BKN008 02/01 Q1006,EFSA,2015-04-25T05:20:00Z,61.95,28.93,2.0,1.0,260,8,,6.21,29.704725,,,TRUE,,,,,,,,BKN,800,,,,,,,IFR,,,,,,,,,,,,METAR,95.0
EFMI 250520Z AUTO 28007KT 250V330 9999 OVC007 02/00 Q1007,EFMI,2015-04-25T05:20:00Z,61.68,27.2,2.0,0.0,280,7,,6.21,29.734253,,,TRUE,,,,,,,,OVC,700,,,,,,,IFR,,,,,,,,,,,,METAR,138.0
EFLP 250520Z AUTO 29006KT 250V330 9999 OVC009 02/M00 Q1007,EFLP,2015-04-25T05:20:00Z,61.07,28.13,2.0,0.0,290,6,,6.21,29.734253,,,TRUE,,,,,,,,OVC,900,,,,,,,IFR,,,,,,,,,,,,METAR,106.0
EFJO 250520Z 03004KT 350V070 9999 -SN FEW008 OVC015 M01/M02 Q1006,EFJO,2015-04-25T05:20:00Z,62.67,29.62,-1.0,-2.0,30,4,,6.21,29.704725,,,,,,,,,,-SN,FEW,800,OVC,1500,,,,,MVFR,,,,,,,,,,,,METAR,117.0
ETWM 250520Z AUTO 20006KT 8000 // ////// 11/07 Q1007 ///,ETWM,2015-04-25T05:20:00Z,52.72,7.33,11.0,7.0,200,6,,4.97,29.734253,,,TRUE,,,,,,,,,,,,,,,,,,,,,,,,,,,,METAR,21.0
ETSH 250520Z 14003KT 9999 FEW230 08/04 Q1010 BLU+,ETSH,2015-04-25T05:20:00Z,51.77,13.17,8.0,4.0,140,3,,6.21,29.822834,,,,,,,,,,,FEW,23000,,,,,,,VFR,,,,,,,,,,,,METAR,79.0
ETNW 250520Z AUTO 26004KT 4400 // ////// 13/10 Q1008 ///,ETNW,2015-04-25T05:20:00Z,52.45,9.42,13.0,10.0,260,4,,2.73,29.763779,,,TRUE,,,,,,,,,,,,,,,,,,,,,,,,,,,,METAR,70.0
ETNT 250520Z 21008KT 6000 BKN100 10/08 Q1006 WHT,ETNT,2015-04-25T05:20:00Z,53.53,7.67,10.0,8.0,210,8,,3.73,29.704725,,,,,,,,,,,BKN,10000,,,,,,,MVFR,,,,,,,,,,,,METAR,12.0
ETNS 250520Z AUTO 21007KT 4000 // ////// 10/07 Q1005 ///,ETNS,2015-04-25T05:20:00Z,54.47,9.52,10.0,7.0,210,7,,2.49,29.675198,,,TRUE,,,,,,,,,,,,,,,,,,,,,,,,,,,,METAR,25.0
ETNL 250520Z 18004KT 7000 FEW060 BKN110 BKN230 10/05 Q1007 WHT,ETNL,2015-04-25T05:20:00Z,53.92,12.27,10.0,5.0,180,4,,4.35,29.734253,,,,,,,,,,,FEW,6000,BKN,11000,BKN,23000,,,MVFR,,,,,,,,,,,,METAR,40.0
ETNH 250520Z 22005KT 5000 HZ BKN120 BKN220 10/06 Q1005 WHT,ETNH,2015-04-25T05:20:00Z,54.32,9.55,10.0,6.0,220,5,,3.11,29.675198,,,,,,,,,,HZ,BKN,12000,BKN,22000,,,,,MVFR,,,,,,,,,,,,METAR,17.0
ETMN 250520Z 24009KT 5000 BR FEW060 BKN110 11/08 Q1006 WHT,ETMN,2015-04-25T05:20:00Z,53.77,8.67,11.0,8.0,240,9,,3.11,29.704725,,,,,,,,,,BR,FEW,6000,BKN,11000,,,,,MVFR,,,,,,,,,,,,METAR,31.0
ETML 250520Z AUTO 18008KT //// // ////// 10/07 Q1005 ///,ETML,2015-04-25T05:20:00Z,,,10.0,7.0,180,8,,,29.675198,,,TRUE,,,,,,,,,,,,,,,,,,,,,,,,,,,,METAR,
ETHS 250520Z 23008KT 9999 -RA SCT060 BKN080 12/05 Q1007 BLU,ETHS,2015-04-25T05:20:00Z,52.92,10.18,12.0,5.0,230,8,,6.21,29.734253,,,,,,,,,,-RA,SCT,6000,BKN,8000,,,,,VFR,,,,,,,,,,,,METAR,88.0
ETHF 250520Z VRB01KT 9999 BKN140 OVC230 06/04 Q1009 BLU,ETHF,2015-04-25T05:20:00Z,51.12,9.27,6.0,4.0,0,1,,6.21,29.793306,,,,,,,,,,,BKN,14000,OVC,23000,,,,,VFR,,,,,,,,,,,,METAR,181.0
ETHE 250520Z AUTO 21005KT //// // ////// 12/08 Q1008 ///,ETHE,2015-04-25T05:20:00Z,52.28,7.37,12.0,8.0,210,5,,,29.763779,,,TRUE,,,,,,,,,,,,,,,,,,,,,,,,,,,,METAR,49.0
ETHC 250520Z 20002KT 9000 -RA FEW040 BKN070 OVC090 11/06 Q1007 BLU,ETHC,2015-04-25T05:20:00Z,52.6,10.02,11.0,6.0,200,2,,5.59,29.734253,,,,,,,,,,-RA,FEW,4000,BKN,7000,OVC,9000,,,VFR,,,,,,,,,,,,METAR,52.0
ETHB 250520Z 23005KT 9999 SCT060 OVC095 12/09 Q1007 BLACKBLU,ETHB,2015-04-25T05:20:00Z,52.27,9.07,12.0,9.0,230,5,,6.21,29.734253,,,,,,,,,,,SCT,6000,OVC,9500,,,,,VFR,,,,,,,,,,,,METAR,78.0
ETGG 250520Z 21010KT 4500 HZ BKN110 BKN190 10/07 Q1004 GRN,ETGG,2015-04-25T05:20:00Z,54.83,9.5,10.0,7.0,210,10,,2.8,29.64567,,,,,,,,,,HZ,BKN,11000,BKN,19000,,,,,IFR,,,,,,,,,,,,METAR,33.0
ETSN 250520Z AUTO VRB02KT //// // ////// 04/02 Q1012 ///,ETSN,2015-04-25T05:20:00Z,48.72,11.22,4.0,2.0,0,2,,,29.88189,,,TRUE,,,,,,,,,,,,,,,,,,,,,,,,,,,,METAR,387.0
ETSL 250520Z 19006KT 9999 BKN270 07/02 Q1012 BLU+,ETSL,2015-04-25T05:20:00Z,48.17,10.87,7.0,2.0,190,6,,6.21,29.88189,,,,,,,,,,,BKN,27000,,,,,,,VFR,,,,,,,,,,,,METAR,562.0
ETSI 250520Z AUTO 07003KT 9000 // ////// 05/02 Q1012 ///,ETSI,2015-04-25T05:20:00Z,48.72,11.52,5.0,2.0,70,3,,5.59,29.88189,,,TRUE,,,,,,,,,,,,,,,,,,,,,,,,,,,,METAR,370.0
ETSB 250520Z AUTO 24004KT 9999 // ////// 11/05 Q1009 ///,ETSB,2015-04-25T05:20:00Z,50.17,7.07,11.0,5.0,240,4,,6.21,29.793306,,,TRUE,,,,,,,,,,,,,,,,,,,,,,,,,,,,METAR,486.0
ETSA 250520Z VRB02KT 9999 FEW100 BKN240 07/01 Q1012 BLU+,ETSA,2015-04-25T05:20:00Z,48.07,10.9,7.0,1.0,0,2,,6.21,29.88189,,,,,,,,,,,FEW,10000,BKN,24000,,,,,VFR,,,,,,,,,,,,METAR,628.0
ETNN 250520Z AUTO 00000KT 3600 // ////// 12/10 Q1009 ///,ETNN,2015-04-25T05:20:00Z,50.82,6.67,12.0,10.0,0,0,,2.24,29.793306,,,TRUE,,,,,,,,,,,,,,,,,,,,,,,,,,,,METAR,135.0
ETHN 250520Z 15005KT 9999 OVC160 09/02 Q1011 BLU,ETHN,2015-04-25T05:20:00Z,49.38,9.97,9.0,2.0,150,5,,6.21,29.852362,,,,,,,,,,,OVC,16000,,,,,,,VFR,,,,,,,,,,,,METAR,473.0
ETHL 250520Z 23002KT 9999 FEW130 BKN210 05/02 Q1012 BLU+,ETHL,2015-04-25T05:20:00Z,48.22,9.92,5.0,2.0,230,2,,6.21,29.88189,,,,,,,,,,,FEW,13000,BKN,21000,,,,,VFR,,,,,,,,,,,,METAR,549.0
ETHA 250520Z AUTO 25004KT //// // ////// 05/01 Q1012 ///,ETHA,2015-04-25T05:20:00Z,47.82,10.87,5.0,1.0,250,4,,,29.88189,,,TRUE,,,,,,,,,,,,,,,,,,,,,,,,,,,,METAR,760.0
LIPZ 250520Z 04007KT 7000 NSC 13/11 Q1017,LIPZ,2015-04-25T05:20:00Z,45.5,12.35,13.0,11.0,40,7,,4.35,30.029528,,,,,,,,,,,,,,,,,,,,,,,,,,,,,,,METAR,6.0
LIPE 250520Z 06002KT 0300 R12/1200V1800N FG SCT002 10/10 Q1017,LIPE,2015-04-25T05:20:00Z,44.52,11.3,10.0,10.0,60,2,,0.19,30.029528,,,,,,,,,,FG,SCT,200,,,,,,,LIFR,,,,,,,,,,,,METAR,42.0
LICJ 250520Z 12004KT 080V160 9999 FEW012 16/14 Q1017,LICJ,2015-04-25T05:20:00Z,38.17,13.08,16.0,14.0,120,4,,6.21,30.029528,,,,,,,,,,,FEW,1200,,,,,,,VFR,,,,,,,,,,,,METAR,34.0
LICC 250520Z 27002KT 5000 BR BKN050 13/12 Q1017,LICC,2015-04-25T05:20:00Z,37.47,15.05,13.0,12.0,270,2,,3.11,30.029528,,,,,,,,,,BR,BKN,5000,,,,,,,MVFR,,,,,,,,,,,,METAR,17.0
LIBD 250520Z 21003KT 9999 FEW040 13/11 Q1018,LIBD,2015-04-25T05:20:00Z,41.12,16.77,13.0,11.0,210,3,,6.21,30.059055,,,,,,,,,,,FEW,4000,,,,,,,VFR,,,,,,,,,,,,METAR,44.0
LIMW 250520Z AUTO 10005KT 9999 BKN047 BKN062 13/09 Q1016,LIMW,2015-04-25T05:20:00Z,45.73,7.37,13.0,9.0,100,5,,6.21,30.0,,,TRUE,,,,,,,,BKN,4700,BKN,6200,,,,,VFR,,,,,,,,,,,,METAR,546.0
LIRQ 250520Z 00000KT CAVOK 11/10 Q1017,LIRQ,2015-04-25T05:20:00Z,43.78,11.18,11.0,10.0,0,0,,6.21,30.029528,,,,,,,,,,,CAVOK,,,,,,,,VFR,,,,,,,,,,,,METAR,38.0
LIRN 250520Z VRB02KT CAVOK 14/12 Q1017,LIRN,2015-04-25T05:20:00Z,40.88,14.3,14.0,12.0,0,2,,6.21,30.029528,,,,,,,,,,,CAVOK,,,,,,,,VFR,,,,,,,,,,,,METAR,72.0
LIRF 250520Z VRB02KT 5000 BR SCT010 14/14 Q1017 NOSIG,LIRF,2015-04-25T05:20:00Z,41.78,12.22,14.0,14.0,0,2,,3.11,30.029528,,,,,,TRUE,,,,BR,SCT,1000,,,,,,,MVFR,,,,,,,,,,,,METAR,3.0
LIML 250520Z 10005KT 070V130 9999 SCT080 14/09 Q1017 NOSIG,LIML,2015-04-25T05:20:00Z,45.47,9.27,14.0,9.0,100,5,,6.21,30.029528,,,,,,TRUE,,,,,SCT,8000,,,,,,,VFR,,,,,,,,,,,,METAR,103.0
LIMJ 250520Z 02004KT 9999 SCT070 13/08 Q1017,LIMJ,2015-04-25T05:20:00Z,44.42,8.83,13.0,8.0,20,4,,6.21,30.029528,,,,,,,,,,,SCT,7000,,,,,,,VFR,,,,,,,,,,,,METAR,3.0
LIMF 250520Z 34004KT 9999 BKN040 14/11 Q1016,LIMF,2015-04-25T05:20:00Z,45.22,7.65,14.0,11.0,340,4,,6.21,30.0,,,,,,,,,,,BKN,4000,,,,,,,VFR,,,,,,,,,,,,METAR,287.0
LIME 250520Z 06002KT 9999 SCT045 13/09 Q1017,LIME,2015-04-25T05:20:00Z,45.67,9.68,13.0,9.0,60,2,,6.21,30.029528,,,,,,,,,,,SCT,4500,,,,,,,VFR,,,,,,,,,,,,METAR,237.0
LIMC 250520Z 03006KT 350V050 9999 BKN035 BKN070 14/07 Q1017 NOSIG,LIMC,2015-04-25T05:20:00Z,45.62,8.72,14.0,7.0,30,6,,6.21,30.029528,,,,,,TRUE,,,,,BKN,3500,BKN,7000,,,,,VFR,,,,,,,,,,,,METAR,211.0
LIEE 250520Z 14004KT 9999 FEW004 15/14 Q1017,LIEE,2015-04-25T05:20:00Z,39.25,9.07,15.0,14.0,140,4,,6.21,30.029528,,,,,,,,,,,FEW,400,,,,,,,VFR,,,,,,,,,,,,METAR,4.0
EDLV 250520Z 19005KT 170V230 9000 -DZ BKN049 10/09 Q1008,EDLV,2015-04-25T05:20:00Z,51.6,6.15,10.0,9.0,190,5,,5.59,29.763779,,,,,,,,,,-DZ,BKN,4900,,,,,,,VFR,,,,,,,,,,,,METAR,32.0
EDFE 250520Z VRB02KT CAVOK 07/05 Q1010,EDFE,2015-04-25T05:20:00Z,49.97,8.63,7.0,5.0,0,2,,6.21,29.822834,,,,,,,,,,,CAVOK,,,,,,,,VFR,,,,,,,,,,,,METAR,118.0
LGRP 250520Z VRB02KT 9999 FEW020 14/09 Q1021 NOSIG,LGRP,2015-04-25T05:20:00Z,36.4,28.08,14.0,9.0,0,2,,6.21,30.147638,,,,,,TRUE,,,,,FEW,2000,,,,,,,VFR,,,,,,,,,,,,METAR,5.0
LGKR 250520Z 00000KT 9999 SCT012 SCT025 BKN080 13/12 Q1018 NOSIG,LGKR,2015-04-25T05:20:00Z,39.62,19.92,13.0,12.0,0,0,,6.21,30.059055,,,,,,TRUE,,,,,SCT,1200,SCT,2500,BKN,8000,,,VFR,,,,,,,,,,,,METAR,2.0
LGIR 250520Z 18006KT 9999 FEW025 BKN080 16/10 Q1020 NOSIG,LGIR,2015-04-25T05:20:00Z,35.32,25.17,16.0,10.0,180,6,,6.21,30.11811,,,,,,TRUE,,,,,FEW,2500,BKN,8000,,,,,VFR,,,,,,,,,,,,METAR,39.0
LGAV 250520Z 29004KT 9999 FEW025 SCT070 14/11 Q1019 NOSIG,LGAV,2015-04-25T05:20:00Z,37.93,23.95,14.0,11.0,290,4,,6.21,30.088583,,,,,,TRUE,,,,,FEW,2500,SCT,7000,,,,,VFR,,,,,,,,,,,,METAR,94.0
EDJA 250520Z 19003KT CAVOK 05/02 Q1012,EDJA,2015-04-25T05:20:00Z,47.98,10.23,5.0,2.0,190,3,,6.21,29.88189,,,,,,,,,,,CAVOK,,,,,,,,VFR,,,,,,,,,,,,METAR,633.0
ENRA 250520Z 10004KT CAVOK 02/M04 Q1004,ENRA,2015-04-25T05:20:00Z,66.37,14.3,2.0,-4.0,100,4,,6.21,29.64567,,,,,,,,,,,CAVOK,,,,,,,,VFR,,,,,,,,,,,,METAR,70.0
ENBV 250520Z 33009KT 9999 SCT017 BKN033 M00/M02 Q1010,ENBV,2015-04-25T05:20:00Z,70.87,29.02,0.0,-2.0,330,9,,6.21,29.822834,,,,,,,,,,,SCT,1700,BKN,3300,,,,,VFR,,,,,,,,,,,,METAR,13.0
ENBN 250520Z 07007KT 020V110 CAVOK 04/M03 Q1002,ENBN,2015-04-25T05:20:00Z,65.47,12.22,4.0,-3.0,70,7,,6.21,29.586615,,,,,,,,,,,CAVOK,,,,,,,,VFR,,,,,,,,,,,,METAR,9.0
ENLA 250520Z AUTO 20029KT 4800NDV FEW004/// OVC008/// 09/09 Q0994 W///S4,ENLA,2015-04-25T05:20:00Z,59.1,2.83,9.0,9.0,200,29,,,29.350393,,,TRUE,,,,,,,,,,,,,,,,,,,,,,,,,,,,METAR,4.0
ENHM 250520Z 09006KT 9999 -RA FEW010 SCT015 BKN020 05/04 Q0994 W08/S5,ENHM,2015-04-25T05:20:00Z,59.57,2.23,5.0,4.0,90,6,,6.21,29.350393,,,,,,,,,,-RA,FEW,1000,SCT,1500,BKN,2000,,,MVFR,,,,,,,,,,,,METAR,10.0
ENQA 250520Z AUTO 07006KT 040V130 9999NDV RA FEW008/// OVC030/// 04/03 Q0995 W04/S5,ENQA,2015-04-25T05:20:00Z,60.65,3.72,4.0,3.0,70,6,,,29.379921,,,TRUE,,,,,,,RA,,,,,,,,,,,,,,,,,,,,,METAR,20.0
ENQC 250520Z AUTO VRB04KT 9999NDV -DZ BKN013/// BKN038/// BKN042/// 05/03 Q0995 W///S5,ENQC,2015-04-25T05:20:00Z,60.88,3.62,5.0,3.0,0,4,,,29.379921,,,TRUE,,,,,,,-DZ,,,,,,,,,,,,,,,,,,,,,METAR,20.0
ENSE 250520Z AUTO 09012KT 9999NDV FEW026/// SCT031/// BKN036/// 04/00 Q0995 W///S5,ENSE,2015-04-25T05:20:00Z,61.45,2.15,4.0,0.0,90,12,,,29.379921,,,TRUE,,,,,,,,,,,,,,,,,,,,,,,,,,,,METAR,10.0
ENQR 250520Z AUTO 13010KT 9999NDV SCT130/// 03/00 Q0995 W///S5,ENQR,2015-04-25T05:20:00Z,61.35,2.22,3.0,0.0,130,10,,,29.379921,,,TRUE,,,,,,,,,,,,,,,,,,,,,,,,,,,,METAR,10.0
ENNE 250520Z 03016G27KT 9999 -SHRASN FEW013TCU SCT030 03/01 Q1001 W///S5,ENNE,2015-04-25T05:20:00Z,66.03,8.08,3.0,1.0,30,16,27,6.21,29.557087,,,,,,,,,,-SHRA -SHSN,FEW,1300,SCT,3000,,,,,VFR,,,,,,,,,,,,METAR,10.0
ENZV 250520Z 17011KT 9999 -RA FEW009 BKN014 08/06 Q0995 TEMPO 4000 RADZ BKN008,ENZV,2015-04-25T05:20:00Z,58.87,5.62,8.0,6.0,170,11,,6.21,29.379921,,,,,,,,,,-RA,FEW,900,BKN,1400,,,,,MVFR,,,,,,,,,,,,METAR,9.0
ENVA 250520Z 14004KT 9999 FEW012 SCT050 BKN075 01/M01 Q0999 NOSIG RMK WIND 670FT 10009KT,ENVA,2015-04-25T05:20:00Z,63.47,10.92,1.0,-1.0,140,4,,6.21,29.498032,,,,,,TRUE,,,,,FEW,1200,SCT,5000,BKN,7500,,,VFR,,0.9,,,,,,,,,,METAR,17.0
ENOL 250520Z 08009KT 9999 FEW030 BKN150 02/M02 Q0998 NOSIG,ENOL,2015-04-25T05:20:00Z,63.7,9.58,2.0,-2.0,80,9,,6.21,29.468504,,,,,,TRUE,,,,,FEW,3000,BKN,15000,,,,,VFR,,,,,,,,,,,,METAR,7.0
ENGM 250520Z 15007KT 4500 -DZ BR BKN004 05/04 Q0999 TEMPO 6000 -DZRA BKN002,ENGM,2015-04-25T05:20:00Z,60.2,11.1,5.0,4.0,150,7,,2.8,29.498032,,,,,,,,,,-DZ BR,BKN,400,,,,,,,LIFR,,,,,,,,,,,,METAR,204.0
ENDU 250520Z 11013KT 9999 FEW040 M01/M10 Q1010 NOSIG,ENDU,2015-04-25T05:20:00Z,69.03,18.55,-1.0,-10.0,110,13,,6.21,29.822834,,,,,,TRUE,,,,,FEW,4000,,,,,,,VFR,,,,,,,,,,,,METAR,79.0
ENBO 250520Z 09019KT 9999 FEW040 SCT100 04/M02 Q1005,ENBO,2015-04-25T05:20:00Z,67.27,14.37,4.0,-2.0,90,19,,6.21,29.675198,,,,,,,,,,,FEW,4000,SCT,10000,,,,,VFR,,,,,,,,,,,,METAR,13.0
ENBR 250520Z 18006KT 6000 RADZ FEW004 SCT008 BKN013 06/05 Q0995 TEMPO 4000 RADZ BKN006 RMK WIND 1200FT 19009KT,ENBR,2015-04-25T05:20:00Z,60.28,5.22,6.0,5.0,180,6,,3.73,29.379921,,,,,,,,,,RA DZ,FEW,400,SCT,800,BKN,1300,,,MVFR,,,,,,,,,,,,METAR,50.0
ENAN 250520Z 11014KT CAVOK 02/M05 Q1008,ENAN,2015-04-25T05:20:00Z,69.28,16.13,2.0,-5.0,110,14,,6.21,29.763779,,,,,,,,,,,CAVOK,,,,,,,,VFR,,,,,,,,,,,,METAR,14.0
ENTO 250520Z 18011KT 9999 OVC003 07/06 Q1000,ENTO,2015-04-25T05:20:00Z,59.2,10.27,7.0,6.0,180,11,,6.21,29.52756,,,,,,,,,,,OVC,300,,,,,,,LIFR,,,,,,,,,,,,METAR,88.0
ENTC 250520Z 14009KT CAVOK 00/M10 Q1010 NOSIG RMK WIND 2600FT 14012KT,ENTC,2015-04-25T05:20:00Z,69.68,18.92,0.0,-10.0,140,9,,6.21,29.822834,,,,,,TRUE,,,,,CAVOK,,,,,,,,VFR,,,,,,,,,,,,METAR,10.0
ENRY 250520Z 18008KT 9999 BKN006 07/06 Q1000,ENRY,2015-04-25T05:20:00Z,59.37,10.77,7.0,6.0,180,8,,6.21,29.52756,,,,,,,,,,,BKN,600,,,,,,,IFR,,,,,,,,,,,,METAR,53.0
ENRO 250520Z AUTO VRB03KT 6000NDV -SN SCT006/// BKN034/// OVC045/// 00/M01 Q0996,ENRO,2015-04-25T05:20:00Z,62.57,11.33,0.0,-1.0,0,3,,,29.409449,,,TRUE,,,,,,,-SN,,,,,,,,,,,,,,,,,,,,,METAR,626.0
ENHD 250520Z 09006KT 4200 -DZ BR FEW004 SCT015 OVC023 06/06 Q0995,ENHD,2015-04-25T05:20:00Z,59.35,5.22,6.0,6.0,90,6,,2.61,29.379921,,,,,,,,,,-DZ BR,FEW,400,SCT,1500,OVC,2300,,,IFR,,,,,,,,,,,,METAR,24.0
ENCN 250520Z 16007KT 8000 -RA BKN004 07/06 Q0999,ENCN,2015-04-25T05:20:00Z,58.2,8.07,7.0,6.0,160,7,,4.97,29.498032,,,,,,,,,,-RA,BKN,400,,,,,,,LIFR,,,,,,,,,,,,METAR,17.0
ENAL 250520Z 14011KT 9999 FEW015 SCT039 OVC062 02/01 Q0996,ENAL,2015-04-25T05:20:00Z,62.57,6.12,2.0,1.0,140,11,,6.21,29.409449,,,,,,,,,,,FEW,1500,SCT,3900,OVC,6200,,,VFR,,,,,,,,,,,,METAR,22.0
ENFB 250520Z AUTO 13009KT 9999NDV BKN024/// BKN049/// BKN120/// 05/00 Q0995 W///S/,ENFB,2015-04-25T05:20:00Z,61.2,1.83,5.0,0.0,130,9,,,29.379921,,,TRUE,,,,,,,,,,,,,,,,,,,,,,,,,,,,METAR,10.0
ENSL 250520Z 03016KT 9999 -RA BKN007 06/06 Q0992 W05/S4,ENSL,2015-04-25T05:20:00Z,58.37,1.9,6.0,6.0,30,16,,6.21,29.291338,,,,,,,,,,-RA,BKN,700,,,,,,,IFR,,,,,,,,,,,,METAR,50.0
ENOA 250520Z 09009KT 9999 -DZ BKN017 05/03 Q0994 W///S5,ENOA,2015-04-25T05:20:00Z,60.5,2.83,5.0,3.0,90,9,,6.21,29.350393,,,,,,,,,,-DZ,BKN,1700,,,,,,,MVFR,,,,,,,,,,,,METAR,5.0
ENHE 250520Z 06023KT 9999 VCSH BKN010CB BKN040 02/01 Q1000 W///S5,ENHE,2015-04-25T05:20:00Z,65.33,2.33,2.0,1.0,60,23,,6.21,29.52756,,,,,,,,,,VCSH,BKN,1000,BKN,4000,,,,,MVFR,,,,,,,,,,,,METAR,1.0
ENDR 250520Z AUTO 07017KT 04/M02 Q0999,ENDR,2015-04-25T05:20:00Z,64.35,7.8,4.0,-2.0,70,17,,,29.498032,,,TRUE,,,,,,,,,,,,,,,,,,,,,,,,,,,,METAR,50.0
LOWK 250520Z 32003KT 9999 FEW002 05/04 Q1017 NOSIG,LOWK,2015-04-25T05:20:00Z,46.65,14.32,5.0,4.0,320,3,,6.21,30.029528,,,,,,TRUE,,,,,FEW,200,,,,,,,VFR,,,,,,,,,,,,METAR,441.0
LOWG 250520Z 00000KT CAVOK 07/06 Q1015 NOSIG,LOWG,2015-04-25T05:20:00Z,47.0,15.42,7.0,6.0,0,0,,6.21,29.970472,,,,,,TRUE,,,,,CAVOK,,,,,,,,VFR,,,,,,,,,,,,METAR,347.0
LOWI 250520Z 25004KT 220V280 CAVOK 06/02 Q1016 NOSIG,LOWI,2015-04-25T05:20:00Z,47.27,11.33,6.0,2.0,250,4,,6.21,30.0,,,,,,TRUE,,,,,CAVOK,,,,,,,,VFR,,,,,,,,,,,,METAR,581.0
LOWS 250520Z 15012KT CAVOK 09/03 Q1013 NOSIG,LOWS,2015-04-25T05:20:00Z,47.78,13.02,9.0,3.0,150,12,,6.21,29.911417,,,,,,TRUE,,,,,CAVOK,,,,,,,,VFR,,,,,,,,,,,,METAR,450.0
LOWL 250520Z VRB01KT 9999 VCFG FEW300 06/05 Q1014 NOSIG,LOWL,2015-04-25T05:20:00Z,48.22,14.18,6.0,5.0,0,1,,6.21,29.940945,,,,,,TRUE,,,,VCFG,FEW,30000,,,,,,,VFR,,,,,,,,,,,,METAR,313.0
LOWW 250520Z 16006KT CAVOK 08/07 Q1014 NOSIG,LOWW,2015-04-25T05:20:00Z,48.12,16.57,8.0,7.0,160,6,,6.21,29.940945,,,,,,TRUE,,,,,CAVOK,,,,,,,,VFR,,,,,,,,,,,,METAR,190.0
ENNA 250520Z 10004KT 9999 -SN FEW015 BKN030 M01/M03 Q1012 RMK WIND 1800FT 01003KT,ENNA,2015-04-25T05:20:00Z,70.07,24.97,-1.0,-3.0,100,4,,6.21,29.88189,,,,,,,,,,-SN,FEW,1500,BKN,3000,,,,,MVFR,,,,,,,,,,,,METAR,8.0
ENML 250520Z 04005KT 9999 -RA SCT015 BKN025 03/00 Q0997,ENML,2015-04-25T05:20:00Z,62.75,7.27,3.0,0.0,40,5,,6.21,29.438976,,,,,,,,,,-RA,SCT,1500,BKN,2500,,,,,MVFR,,,,,,,,,,,,METAR,3.0
ENKR 250520Z 33009KT 6000 -SN FEW009 BKN018 M01/M03 Q1009 RMK WIND 731FT 33011KT,ENKR,2015-04-25T05:20:00Z,69.72,29.88,-1.0,-3.0,330,9,,3.73,29.793306,,,,,,,,,,-SN,FEW,900,BKN,1800,,,,,MVFR,,,,,,,,,,,,METAR,91.0
ENKB 250520Z 07007KT CAVOK 03/M03 Q0997,ENKB,2015-04-25T05:20:00Z,63.12,7.82,3.0,-3.0,70,7,,6.21,29.438976,,,,,,,,,,,CAVOK,,,,,,,,VFR,,,,,,,,,,,,METAR,62.0
ENFL 250520Z 02004KT 9999 -SHRA FEW005 SCT008 BKN013 02/02 Q0996,ENFL,2015-04-25T05:20:00Z,61.57,5.02,2.0,2.0,20,4,,6.21,29.409449,,,,,,,,,,-SHRA,FEW,500,SCT,800,BKN,1300,,,MVFR,,,,,,,,,,,,METAR,9.0
ENNM 250520Z 10014KT 9999 FEW010 SCT080 01/M01 Q1001,ENNM,2015-04-25T05:20:00Z,64.47,11.57,1.0,-1.0,100,14,,6.21,29.557087,,,,,,,,,,,FEW,1000,SCT,8000,,,,,VFR,,,,,,,,,,,,METAR,2.0
ENBS 250520Z 04014KT 9999 SCT014 BKN034 M01/M08 Q1008,ENBS,2015-04-25T05:20:00Z,70.62,29.72,-1.0,-8.0,40,14,,6.21,29.763779,,,,,,,,,,,SCT,1400,BKN,3400,,,,,VFR,,,,,,,,,,,,METAR,10.0
ENST 250520Z 04008KT 9999 FEW040 04/M04 Q1002 RMK WIND 300FT 03007KT,ENST,2015-04-25T05:20:00Z,65.97,12.47,4.0,-4.0,40,8,,6.21,29.586615,,,,,,,,,,,FEW,4000,,,,,,,VFR,,,,,,,,,,,,METAR,17.0
ENRS 250520Z 07014KT 9999 FEW015 03/M01 Q1004,ENRS,2015-04-25T05:20:00Z,67.52,12.08,3.0,-1.0,70,14,,6.21,29.64567,,,,,,,,,,,FEW,1500,,,,,,,VFR,,,,,,,,,,,,METAR,4.0
ENRM 250520Z 08007KT CAVOK 02/M00 Q1001,ENRM,2015-04-25T05:20:00Z,64.83,11.13,2.0,0.0,80,7,,6.21,29.557087,,,,,,,,,,,CAVOK,,,,,,,,VFR,,,,,,,,,,,,METAR,14.0
EGNS 250520Z 23013KT 9999 FEW011 SCT025 09/08 Q0999 BECMG 8000 -RA,EGNS,2015-04-25T05:20:00Z,54.08,-4.63,9.0,8.0,230,13,,6.21,29.498032,,,,,,,,,,,FEW,1100,SCT,2500,,,,,VFR,,,,,,,,,,,,METAR,17.0
EBCI 250520Z 16005KT 140V200 9000 -RA FEW035 10/08 Q1009 NOSIG,EBCI,2015-04-25T05:20:00Z,50.47,4.45,10.0,8.0,160,5,,5.59,29.793306,,,,,,TRUE,,,,-RA,FEW,3500,,,,,,,VFR,,,,,,,,,,,,METAR,192.0
ELLX 250520Z 21004KT 7000 -RA FEW045 BKN050 11/09 Q1010 NOSIG,ELLX,2015-04-25T05:20:00Z,49.63,6.2,11.0,9.0,210,4,,4.35,29.822834,,,,,,TRUE,,,,-RA,FEW,4500,BKN,5000,,,,,MVFR,,,,,,,,,,,,METAR,379.0
EBOS 250520Z 18003KT 150V240 7000 FEW040 09/07 Q1007 TEMPO 4000 -RA,EBOS,2015-04-25T05:20:00Z,51.2,2.87,9.0,7.0,180,3,,4.35,29.734253,,,,,,,,,,,FEW,4000,,,,,,,MVFR,,,,,,,,,,,,METAR,5.0
EBLG 250520Z 23005KT 3700 -RA FEW012 BKN015 10/09 Q1009 TEMPO 3000 RA,EBLG,2015-04-25T05:20:00Z,50.63,5.45,10.0,9.0,230,5,,2.3,29.793306,,,,,,,,,,-RA,FEW,1200,BKN,1500,,,,,IFR,,,,,,,,,,,,METAR,178.0
EBBR 250520Z 15005KT 9000 NSC 10/08 Q1008 TEMPO 4500 RA,EBBR,2015-04-25T05:20:00Z,50.9,4.5,10.0,8.0,150,5,,5.59,29.763779,,,,,,,,,,,,,,,,,,,,,,,,,,,,,,,METAR,58.0
EBAW 250520Z 17005KT CAVOK 11/08 Q1008 NOSIG,EBAW,2015-04-25T05:20:00Z,51.2,4.47,11.0,8.0,170,5,,6.21,29.763779,,,,,,TRUE,,,,,CAVOK,,,,,,,,VFR,,,,,,,,,,,,METAR,14.0
EFSI 250520Z AUTO 00000KT CAVOK 02/01 Q1007,EFSI,2015-04-25T05:20:00Z,62.7,22.83,2.0,1.0,0,0,,6.21,29.734253,,,TRUE,,,,,,,,CAVOK,,,,,,,,VFR,,,,,,,,,,,,METAR,91.0
EFPO 250520Z AUTO 12004KT CAVOK 03/M01 Q1007,EFPO,2015-04-25T05:20:00Z,61.47,21.8,3.0,-1.0,120,4,,6.21,29.734253,,,TRUE,,,,,,,,CAVOK,,,,,,,,VFR,,,,,,,,,,,,METAR,17.0
EFMA 250520Z 14003KT CAVOK 07/04 Q1007,EFMA,2015-04-25T05:20:00Z,60.12,19.88,7.0,4.0,140,3,,6.21,29.734253,,,,,,,,,,,CAVOK,,,,,,,,VFR,,,,,,,,,,,,METAR,6.0
EFKK 250520Z AUTO 04004KT 0500 FG VV002 M00/M00 Q1007,EFKK,2015-04-25T05:20:00Z,63.72,23.13,0.0,0.0,40,4,,0.31,29.734253,,,TRUE,,,,,,,FG,OVX,0,,,,,,,LIFR,,,,,,,,,,,200,METAR,25.0
EFHF 250520Z 33003KT CAVOK 04/M03 Q1009,EFHF,2015-04-25T05:20:00Z,60.25,25.05,4.0,-3.0,330,3,,6.21,29.793306,,,,,,,,,,,CAVOK,,,,,,,,VFR,,,,,,,,,,,,METAR,28.0
EFHA 250520Z AUTO VRB03KT 170V240 CAVOK 02/00 Q1007,EFHA,2015-04-25T05:20:00Z,61.85,24.8,2.0,0.0,0,3,,6.21,29.734253,,,TRUE,,,,,,,,CAVOK,,,,,,,,VFR,,,,,,,,,,,,METAR,145.0
ESUD 250520Z AUTO VRB02KT 9999 ////// M01/M02 Q1006,ESUD,2015-04-25T05:20:00Z,64.97,17.7,-1.0,-2.0,0,2,,6.21,29.704725,,,TRUE,,,,,,,,,,,,,,,,,,,,,,,,,,,,METAR,279.0
ESNX 250520Z AUTO 08010KT 9999NDV OVC010/// M02/M05 Q1007,ESNX,2015-04-25T05:20:00Z,65.58,19.28,-2.0,-5.0,80,10,,,29.734253,,,TRUE,,,,,,,,,,,,,,,,,,,,,,,,,,,,METAR,379.0
ESNL 250520Z AUTO VRB01KT 9999 FEW003/// BKN006/// OVC008/// M02/M03 Q1006,ESNL,2015-04-25T05:20:00Z,64.55,18.72,-2.0,-3.0,0,1,,6.21,29.704725,,,TRUE,,,,,,,,,,,,,,,,,,,,,,,,,,,,METAR,214.0
ESGR 250520Z AUTO 16007KT 7000 BR FEW013/// 06/05 Q1003,ESGR,2015-04-25T05:20:00Z,58.45,13.97,6.0,5.0,160,7,,4.35,29.616142,,,TRUE,,,,,,,BR,,,,,,,,,,,,,,,,,,,,,METAR,105.0
ESSL 250520Z AUTO 19009KT 9999NDV NCD 08/05 Q1005,ESSL,2015-04-25T05:20:00Z,58.38,15.67,8.0,5.0,190,9,,,29.675198,,,TRUE,,,,,,,,,,,,,,,,,,,,,,,,,,,,METAR,52.0
ESPE 250520Z AUTO 07005KT 030V140 9999 FEW052/// M00/M08 Q1009,ESPE,2015-04-25T05:20:00Z,65.88,20.15,0.0,-8.0,70,5,,6.21,29.793306,,,TRUE,,,,,,,,,,,,,,,,,,,,,,,,,,,,METAR,182.0
ESPA 250520Z 36006KT 340V040 CAVOK M00/M07 Q1009,ESPA,2015-04-25T05:20:00Z,65.53,22.12,0.0,-7.0,360,6,,6.21,29.793306,,,,,,,,,,,CAVOK,,,,,,,,VFR,,,,,,,,,,,,METAR,34.0
ESIB 250520Z AUTO 19011KT 6000 BR OVC009/// 07/06 Q1002,ESIB,2015-04-25T05:20:00Z,58.42,12.68,7.0,6.0,190,11,,3.73,29.586615,,,TRUE,,,,,,,BR,,,,,,,,,,,,,,,,,,,,,METAR,74.0
ESDF 250520Z AUTO 12004KT 090V150 0300 0200// R01/0375N R19/0500N FG VV002/// 05/05 Q1007,ESDF,2015-04-25T05:20:00Z,56.27,15.27,5.0,5.0,120,4,,0.19,29.734253,,,TRUE,,,,,,,FG,,,,,,,,,,,,,,,,,,,,,METAR,74.0
ESCF 250520Z AUTO 18008KT 9999 FEW220/// 07/05 Q1004,ESCF,2015-04-25T05:20:00Z,58.38,15.52,7.0,5.0,180,8,,6.21,29.64567,,,TRUE,,,,,,,,,,,,,,,,,,,,,,,,,,,,METAR,117.0
ESNQ 250520Z VRB01KT 9999 SCT025 M05/M09 Q1008,ESNQ,2015-04-25T05:20:00Z,67.82,20.32,-5.0,-9.0,0,1,,6.21,29.763779,,,,,,,,,,,SCT,2500,,,,,,,VFR,,,,,,,,,,,,METAR,452.0
ESUT 250520Z AUTO 17011KT 9999 -SN OVC020/// 00/M03 Q1003 RESHUP,ESUT,2015-04-25T05:20:00Z,65.8,15.08,0.0,-3.0,170,11,,6.21,29.616142,,,TRUE,,,,,,,-SN,,,,,,,,,,,,,,,,,,,,,METAR,463.0
ESNZ 250520Z AUTO 12011KT 9999 FEW029/// SCT042/// M00/M04 Q1001,ESNZ,2015-04-25T05:20:00Z,63.17,14.5,0.0,-4.0,120,11,,6.21,29.557087,,,TRUE,,,,,,,,,,,,,,,,,,,,,,,,,,,,METAR,370.0
ESNU 250520Z 04003KT 360V080 9999 SCT030 02/00 Q1007 R14/CLRD//,ESNU,2015-04-25T05:20:00Z,63.78,20.27,2.0,0.0,40,3,,6.21,29.734253,,,,,,,,,,,SCT,3000,,,,,,,VFR,,,,,,,,,,,,METAR,14.0
ESNS 250520Z AUTO 04008KT 020V080 9999 R10///// R28/P1500N -SN SCT023/// OVC031/// 01/M02 Q1008 REUP,ESNS,2015-04-25T05:20:00Z,64.62,21.07,1.0,-2.0,40,8,,6.21,29.763779,,,TRUE,,,,,,,-SN,,,,,,,,,,,,,,,,,,,,,METAR,49.0
ESNO 250520Z AUTO 06003KT 9999 NCD 01/M01 Q1006,ESNO,2015-04-25T05:20:00Z,63.38,18.97,1.0,-1.0,60,3,,6.21,29.704725,,,TRUE,,,,,,,,,,,,,,,,,,,,,,,,,,,,METAR,103.0
ESNN 250520Z AUTO 32003KT 9999 NCD M00/M03 Q1005,ESNN,2015-04-25T05:20:00Z,62.52,17.43,0.0,-3.0,320,3,,6.21,29.675198,,,TRUE,,,,,,,,,,,,,,,,,,,,,,,,,,,,METAR,10.0
ESNK 250520Z AUTO 36003KT 9999 NCD M00/M01 Q1006,ESNK,2015-04-25T05:20:00Z,63.03,17.77,0.0,-1.0,360,3,,6.21,29.704725,,,TRUE,,,,,,,,,,,,,,,,,,,,,,,,,,,,METAR,19.0
ESNG 250520Z AUTO 05007KT 9999 NCD M03/M08 Q1009,ESNG,2015-04-25T05:20:00Z,67.13,20.82,-3.0,-8.0,50,7,,6.21,29.793306,,,TRUE,,,,,,,,,,,,,,,,,,,,,,,,,,,,METAR,310.0
EGTK 250520Z 22006KT 9999 BKN007 OVC008 11/10 Q1004,EGTK,2015-04-25T05:20:00Z,51.83,-1.32,11.0,10.0,220,6,,6.21,29.64567,,,,,,,,,,,BKN,700,OVC,800,,,,,IFR,,,,,,,,,,,,METAR,82.0
EGMC 250520Z 21011KT 9999 BKN009 OVC012 11/09 Q1005,EGMC,2015-04-25T05:20:00Z,51.57,0.7,11.0,9.0,210,11,,6.21,29.675198,,,,,,,,,,,BKN,900,OVC,1200,,,,,IFR,,,,,,,,,,,,METAR,15.0
EGHH 250520Z 24008KT 6000 -DZ OVC002 11/10 Q1005,EGHH,2015-04-25T05:20:00Z,50.78,-1.83,11.0,10.0,240,8,,3.73,29.675198,,,,,,,,,,-DZ,OVC,200,,,,,,,LIFR,,,,,,,,,,,,METAR,11.0
EGSH 250520Z 22008KT 9000 -RA SCT006 BKN009 11/10 Q1004 NOSIG,EGSH,2015-04-25T05:20:00Z,52.68,1.28,11.0,10.0,220,8,,5.59,29.64567,,,,,,TRUE,,,,-RA,SCT,600,BKN,900,,,,,IFR,,,,,,,,,,,,METAR,36.0
ESSV 250520Z AUTO 19005KT 9999 FEW042/// SCT062/// 09/06 Q1007,ESSV,2015-04-25T05:20:00Z,57.67,18.35,9.0,6.0,190,5,,6.21,29.734253,,,TRUE,,,,,,,,,,,,,,,,,,,,,,,,,,,,METAR,47.0
ESSP 250520Z AUTO 15006KT 9999 FEW025/// OVC039/// 08/04 Q1005,ESSP,2015-04-25T05:20:00Z,58.57,16.25,8.0,4.0,150,6,,6.21,29.675198,,,TRUE,,,,,,,,,,,,,,,,,,,,,,,,,,,,METAR,8.0
ESSD 250520Z AUTO 11006KT 9999 BKN016/// OVC051/// 05/02 Q1003,ESSD,2015-04-25T05:20:00Z,60.42,15.5,5.0,2.0,110,6,,6.21,29.616142,,,TRUE,,,,,,,,,,,,,,,,,,,,,,,,,,,,METAR,161.0
ESSB 250520Z AUTO 16004KT 9999 OVC051/// 06/M00 Q1006,ESSB,2015-04-25T05:20:00Z,59.35,17.93,6.0,0.0,160,4,,6.21,29.704725,,,TRUE,,,,,,,,,,,,,,,,,,,,,,,,,,,,METAR,11.0
ESSA 250520Z 16005KT CAVOK 06/00 Q1006 NOSIG,ESSA,2015-04-25T05:20:00Z,59.63,17.93,6.0,0.0,160,5,,6.21,29.704725,,,,,,TRUE,,,,,CAVOK,,,,,,,,VFR,,,,,,,,,,,,METAR,61.0
ESOW 250520Z AUTO 12005KT 9999 BKN042/// 07/02 Q1005,ESOW,2015-04-25T05:20:00Z,59.57,16.62,7.0,2.0,120,5,,6.21,29.675198,,,TRUE,,,,,,,,,,,,,,,,,,,,,,,,,,,,METAR,31.0
ESOK 250520Z AUTO 16010KT 9999 OVC008/// 07/05 Q1002,ESOK,2015-04-25T05:20:00Z,59.45,13.33,7.0,5.0,160,10,,6.21,29.586615,,,TRUE,,,,,,,,,,,,,,,,,,,,,,,,,,,,METAR,107.0
ESOE 250520Z AUTO 12004KT 9999NDV SCT021/// OVC030/// 07/05 Q1004,ESOE,2015-04-25T05:20:00Z,59.22,15.05,7.0,5.0,120,4,,,29.64567,,,TRUE,,,,,,,,,,,,,,,,,,,,,,,,,,,,METAR,57.0
ESKN 250520Z 16006KT 9999 BKN036 08/02 Q1005,ESKN,2015-04-25T05:20:00Z,58.78,16.9,8.0,2.0,160,6,,6.21,29.675198,,,,,,,,,,,BKN,3600,,,,,,,VFR,,,,,,,,,,,,METAR,43.0
EGCN 250520Z 20010KT CAVOK 10/07 Q1002,EGCN,2015-04-25T05:20:00Z,53.48,-1.0,10.0,7.0,200,10,,6.21,29.586615,,,,,,,,,,,CAVOK,,,,,,,,VFR,,,,,,,,,,,,METAR,17.0
EGPE 250520Z 29006KT 270V340 9999 FEW014 SCT028 04/M00 Q0999,EGPE,2015-04-25T05:20:00Z,57.52,-4.03,4.0,0.0,290,6,,6.21,29.498032,,,,,,,,,,,FEW,1400,SCT,2800,,,,,VFR,,,,,,,,,,,,METAR,9.0
EGNJ 250520Z 21011KT CAVOK 10/07 Q1001,EGNJ,2015-04-25T05:20:00Z,53.57,-0.35,10.0,7.0,210,11,,6.21,29.557087,,,,,,,,,,,CAVOK,,,,,,,,VFR,,,,,,,,,,,,METAR,31.0
EGNH 250520Z 24019KT 9999 SCT007 BKN045 10/09 Q1000,EGNH,2015-04-25T05:20:00Z,53.77,-3.02,10.0,9.0,240,19,,6.21,29.52756,,,,,,,,,,,SCT,700,BKN,4500,,,,,VFR,,,,,,,,,,,,METAR,10.0
EGAE 250520Z 01009KT 9999 -RA FEW018 OVC029 06/04 Q1002,EGAE,2015-04-25T05:20:00Z,55.03,-7.15,6.0,4.0,10,9,,6.21,29.586615,,,,,,,,,,-RA,FEW,1800,OVC,2900,,,,,MVFR,,,,,,,,,,,,METAR,9.0
EGPD 250520Z 31011KT 9999 -RA SCT010 SCT020 03/01 Q0997 NOSIG,EGPD,2015-04-25T05:20:00Z,57.2,-2.22,3.0,1.0,310,11,,6.21,29.438976,,,,,,TRUE,,,,-RA,SCT,1000,SCT,2000,,,,,VFR,,,,,,,,,,,,METAR,65.0
EGNX 250520Z 20008KT 9999 SCT036 10/08 Q1003,EGNX,2015-04-25T05:20:00Z,52.82,-1.32,10.0,8.0,200,8,,6.21,29.616142,,,,,,,,,,,SCT,3600,,,,,,,VFR,,,,,,,,,,,,METAR,94.0
EGNM 250520Z 23009KT 200V260 9999 FEW014 SCT022 10/07 Q1000,EGNM,2015-04-25T05:20:00Z,53.87,-1.63,10.0,7.0,230,9,,6.21,29.52756,,,,,,,,,,,FEW,1400,SCT,2200,,,,,VFR,,,,,,,,,,,,METAR,208.0
EGLC 250520Z 21009KT 9999 FEW008 BKN012 12/10 Q1005,EGLC,2015-04-25T05:20:00Z,51.5,0.05,12.0,10.0,210,9,,6.21,29.675198,,,,,,,,,,,FEW,800,BKN,1200,,,,,MVFR,,,,,,,,,,,,METAR,5.0
EGGW 250520Z 21007KT 9999 OVC004 11/10 Q1004,EGGW,2015-04-25T05:20:00Z,51.87,-0.37,11.0,10.0,210,7,,6.21,29.64567,,,,,,,,,,,OVC,400,,,,,,,LIFR,,,,,,,,,,,,METAR,160.0
EGFF 250520Z AUTO 24005KT 9999 OVC033 10/09 Q1005,EGFF,2015-04-25T05:20:00Z,51.38,-3.35,10.0,9.0,240,5,,6.21,29.675198,,,TRUE,,,,,,,,OVC,3300,,,,,,,VFR,,,,,,,,,,,,METAR,67.0
EGAC 250520Z 36012KT 9000 -RA FEW010 SCT019 BKN035 06/03 Q1000,EGAC,2015-04-25T05:20:00Z,54.62,-5.87,6.0,3.0,360,12,,5.59,29.52756,,,,,,,,,,-RA,FEW,1000,SCT,1900,BKN,3500,,,VFR,,,,,,,,,,,,METAR,5.0
EGAA 250520Z 36009KT 9999 -RA FEW006 BKN020 05/05 Q1000 RERA,EGAA,2015-04-25T05:20:00Z,54.63,-6.22,5.0,5.0,360,9,,6.21,29.52756,,,,,,,,,,-RA,FEW,600,BKN,2000,,,,,MVFR,,,,,,,,,,,,METAR,81.0
EGPO 250520Z 30011KT 8000 -RASN BKN009 01/M01 Q1000,EGPO,2015-04-25T05:20:00Z,58.22,-6.32,1.0,-1.0,300,11,,4.97,29.52756,,,,,,,,,,-RA -SN,BKN,900,,,,,,,IFR,,,,,,,,,,,,METAR,13.0
EGPM 250520Z AUTO 18008KT 9999 RA OVC023/// 02/00 Q0995,EGPM,2015-04-25T05:20:00Z,60.42,-1.3,2.0,0.0,180,8,,6.21,29.379921,,,TRUE,,,,,,,RA,,,,,,,,,,,,,,,,,,,,,METAR,22.0
EGPL 250520Z AUTO 33018KT 9999 NCD 04/M02 Q1002,EGPL,2015-04-25T05:20:00Z,57.47,-7.37,4.0,-2.0,330,18,,6.21,29.586615,,,TRUE,,,,,,,,,,,,,,,,,,,,,,,,,,,,METAR,6.0
EGPC 250520Z AUTO 29008KT 9999 NCD 00/M00 Q0997,EGPC,2015-04-25T05:20:00Z,58.45,-3.07,0.0,0.0,290,8,,6.21,29.438976,,,TRUE,,,,,,,,,,,,,,,,,,,,,,,,,,,,METAR,39.0
EGPA 250520Z AUTO 25005KT 9999 FEW039/// 01/00 Q0996,EGPA,2015-04-25T05:20:00Z,58.95,-2.88,1.0,0.0,250,5,,6.21,29.409449,,,TRUE,,,,,,,,,,,,,,,,,,,,,,,,,,,,METAR,21.0
EGPB 250520Z AUTO 32007KT 4200 RA BKN008/// 01/M00 Q0995,EGPB,2015-04-25T05:20:00Z,59.87,-1.3,1.0,0.0,320,7,,2.61,29.379921,,,TRUE,,,,,,,RA,,,,,,,,,,,,,,,,,,,,,METAR,5.0
EGNV 250520Z 21012KT 9999 FEW015 BKN022 11/08 Q0999,EGNV,2015-04-25T05:20:00Z,54.52,-1.42,11.0,8.0,210,12,,6.21,29.498032,,,,,,,,,,,FEW,1500,BKN,2200,,,,,MVFR,,,,,,,,,,,,METAR,37.0
EGNT 250520Z 22009KT 9999 VCSH FEW030 10/08 Q0997,EGNT,2015-04-25T05:20:00Z,55.02,-1.7,10.0,8.0,220,9,,6.21,29.438976,,,,,,,,,,VCSH,FEW,3000,,,,,,,VFR,,,,,,,,,,,,METAR,81.0
EGHI 250520Z 23008KT 200V260 8000 -RA SCT005 BKN009 10/09 Q1005,EGHI,2015-04-25T05:20:00Z,50.95,-1.35,10.0,9.0,230,8,,4.97,29.675198,,,,,,,,,,-RA,SCT,500,BKN,900,,,,,IFR,,,,,,,,,,,,METAR,14.0
EGGP 250520Z 21009KT 9999 FEW026 12/09 Q1001,EGGP,2015-04-25T05:20:00Z,53.32,-2.85,12.0,9.0,210,9,,6.21,29.557087,,,,,,,,,,,FEW,2600,,,,,,,VFR,,,,,,,,,,,,METAR,26.0
EGGD 250520Z 23007KT 6000 FEW002 BKN004 10/10 Q1004,EGGD,2015-04-25T05:20:00Z,51.37,-2.72,10.0,10.0,230,7,,3.73,29.64567,,,,,,,,,,,FEW,200,BKN,400,,,,,LIFR,,,,,,,,,,,,METAR,189.0
LSZC 250520Z AUTO VRB01KT 9999 SCT100 OVC120 10/06 Q1013,LSZC,2015-04-25T05:20:00Z,46.97,8.38,10.0,6.0,0,1,,6.21,29.911417,,,TRUE,,,,,,,,SCT,10000,OVC,12000,,,,,VFR,,,,,,,,,,,,METAR,450.0
LSZS 250520Z VRB02KT 8000 SCT028 BKN048 02/M00 Q1018,LSZS,2015-04-25T05:20:00Z,46.53,9.88,2.0,0.0,0,2,,4.97,30.059055,,,,,,,,,,,SCT,2800,BKN,4800,,,,,MVFR,,,,,,,,,,,,METAR,1706.0
LSZR 250520Z 28004KT 9999 SCT080 09/08 Q1012 NOSIG RMK A,LSZR,2015-04-25T05:20:00Z,47.48,9.57,9.0,8.0,280,4,,6.21,29.88189,,,,,,TRUE,,,,,SCT,8000,,,,,,,VFR,,,,,,,,,,,,METAR,398.0
LSZG 250520Z AUTO 10004KT 050V170 CAVOK 09/07 Q1013,LSZG,2015-04-25T05:20:00Z,47.17,7.42,9.0,7.0,100,4,,6.21,29.911417,,,TRUE,,,,,,,,CAVOK,,,,,,,,VFR,,,,,,,,,,,,METAR,430.0
LSGS 250520Z VRB03KT 9999 SCT080 BKN110 12/04 Q1014,LSGS,2015-04-25T05:20:00Z,46.22,7.32,12.0,4.0,0,3,,6.21,29.940945,,,,,,,,,,,SCT,8000,BKN,11000,,,,,VFR,,,,,,,,,,,,METAR,481.0
LSGC 250520Z AUTO 24007KT 190V270 8000 -SHRA FEW044 OVC050 09/07 Q1014,LSGC,2015-04-25T05:20:00Z,47.08,6.8,9.0,7.0,240,7,,4.97,29.940945,,,TRUE,,,,,,,-SHRA,FEW,4400,OVC,5000,,,,,MVFR,,,,,,,,,,,,METAR,1027.0
EGTE 250520Z 21005KT 9999 FEW005 10/09 Q1005,EGTE,2015-04-25T05:20:00Z,50.72,-3.42,10.0,9.0,210,5,,6.21,29.675198,,,,,,,,,,,FEW,500,,,,,,,VFR,,,,,,,,,,,,METAR,30.0
EGJJ 250520Z 21010KT 9999 FEW006 SCT011 BKN045 11/10 Q1008 TEMPO BKN011,EGJJ,2015-04-25T05:20:00Z,49.22,-2.2,11.0,10.0,210,10,,6.21,29.763779,,,,,,,,,,,FEW,600,SCT,1100,BKN,4500,,,VFR,,,,,,,,,,,,METAR,84.0
EGJB 250520Z 22008KT 9999 FEW002 BKN003 11/10 Q1008,EGJB,2015-04-25T05:20:00Z,49.42,-2.6,11.0,10.0,220,8,,6.21,29.763779,,,,,,,,,,,FEW,200,BKN,300,,,,,LIFR,,,,,,,,,,,,METAR,102.0
EGCC 250520Z 21010KT 9999 BKN047 10/07 Q1001 NOSIG,EGCC,2015-04-25T05:20:00Z,53.35,-2.27,10.0,7.0,210,10,,6.21,29.557087,,,,,,TRUE,,,,,BKN,4700,,,,,,,VFR,,,,,,,,,,,,METAR,78.0
EGSS 250520Z 22008KT 6000 BKN004 OVC008 11/10 Q1005,EGSS,2015-04-25T05:20:00Z,51.88,0.22,11.0,10.0,220,8,,3.73,29.675198,,,,,,,,,,,BKN,400,OVC,800,,,,,LIFR,,,,,,,,,,,,METAR,106.0
EGPH 250520Z 27007KT 9999 -RA FEW015 SCT020 BKN026 07/06 Q0998,EGPH,2015-04-25T05:20:00Z,55.95,-3.35,7.0,6.0,270,7,,6.21,29.468504,,,,,,,,,,-RA,FEW,1500,SCT,2000,BKN,2600,,,MVFR,,,,,,,,,,,,METAR,41.0
EGPF 250520Z AUTO 26004KT 9999 -RA OVC044 06/04 Q0999,EGPF,2015-04-25T05:20:00Z,55.87,-4.42,6.0,4.0,260,4,,6.21,29.498032,,,TRUE,,,,,,,-RA,OVC,4400,,,,,,,VFR,,,,,,,,,,,,METAR,8.0
EGLL 250520Z 21008KT 9999 -RA SCT007 BKN010 11/10 Q1005 TEMPO BKN008,EGLL,2015-04-25T05:20:00Z,51.48,-0.45,11.0,10.0,210,8,,6.21,29.675198,,,,,,,,,,-RA,SCT,700,BKN,1000,,,,,MVFR,,,,,,,,,,,,METAR,24.0
EGKK 250520Z 21005KT 5000 -RADZ BR FEW004 BKN006 11/10 Q1006 REDZ,EGKK,2015-04-25T05:20:00Z,51.13,-0.17,11.0,10.0,210,5,,3.11,29.704725,,,,,,,,,,-RA -DZ BR,FEW,400,BKN,600,,,,,IFR,,,,,,,,,,,,METAR,62.0
EGBB 250520Z 18005KT 150V210 CAVOK 09/07 Q1003,EGBB,2015-04-25T05:20:00Z,52.47,-1.75,9.0,7.0,180,5,,6.21,29.616142,,,,,,,,,,,CAVOK,,,,,,,,VFR,,,,,,,,,,,,METAR,99.0
EFVA 250520Z AUTO 08002KT 0350 R16/0500 FG VV002 M01/M01 Q1007,EFVA,2015-04-25T05:20:00Z,63.03,21.77,-1.0,-1.0,80,2,,0.22,29.734253,,,TRUE,,,,,,,FG,OVX,0,,,,,,,LIFR,,,,,,,,,,,200,METAR,4.0
EFTU 250520Z AUTO 15003KT 9999 FEW100/// 04/M03 Q1008,EFTU,2015-04-25T05:20:00Z,60.52,22.27,4.0,-3.0,150,3,,6.21,29.763779,,,TRUE,,,,,,,,,,,,,,,,,,,,,,,,,,,,METAR,59.0
EFTP 250520Z AUTO VRB03KT 180V250 CAVOK 03/M01 Q1008,EFTP,2015-04-25T05:20:00Z,61.42,23.62,3.0,-1.0,0,3,,6.21,29.763779,,,TRUE,,,,,,,,CAVOK,,,,,,,,VFR,,,,,,,,,,,,METAR,112.0
EFRO 250520Z AUTO 04008KT CAVOK M03/M07 Q1008,EFRO,2015-04-25T05:20:00Z,66.57,25.82,-3.0,-7.0,40,8,,6.21,29.763779,,,TRUE,,,,,,,,CAVOK,,,,,,,,VFR,,,,,,,,,,,,METAR,201.0
EFOU 250520Z AUTO 32005KT 290V360 CAVOK 02/M02 Q1006,EFOU,2015-04-25T05:20:00Z,64.92,25.37,2.0,-2.0,320,5,,6.21,29.704725,,,TRUE,,,,,,,,CAVOK,,,,,,,,VFR,,,,,,,,,,,,METAR,15.0
KBAZ 250520Z AUTO 20006KT 5SM BR BKN013 24/23 A2975 RMK AO2 T02440233,KBAZ,2015-04-25T05:20:00Z,29.72,-98.05,24.4,23.3,200,6,,5.0,29.749016,,,TRUE,TRUE,,,,,,BR,BKN,1300,,,,,,,MVFR,,,,,,,,,,,,SPECI,195.0
LSZA 250520Z 22004KT 110V290 8000 -RA SCT030 OVC040 13/10 Q1017 NOSIG,LSZA,2015-04-25T05:20:00Z,46.0,8.92,13.0,10.0,220,4,,4.97,30.029528,,,,,,TRUE,,,,-RA,SCT,3000,OVC,4000,,,,,MVFR,,,,,,,,,,,,METAR,276.0
LSZB 250520Z 11004KT 080V160 9999 FEW030 SCT050 BKN075 08/06 Q1012 TEMPO SHRA,LSZB,2015-04-25T05:20:00Z,46.92,7.5,8.0,6.0,110,4,,6.21,29.88189,,,,,,,,,,,FEW,3000,SCT,5000,BKN,7500,,,VFR,,,,,,,,,,,,METAR,505.0
LSGG 250520Z 21007KT 9999 FEW037 BKN090 15/07 Q1013 NOSIG,LSGG,2015-04-25T05:20:00Z,46.25,6.12,15.0,7.0,210,7,,6.21,29.911417,,,,,,TRUE,,,,,FEW,3700,BKN,9000,,,,,VFR,,,,,,,,,,,,METAR,416.0
LSZH 250520Z VRB02KT CAVOK 08/06 Q1013 NOSIG,LSZH,2015-04-25T05:20:00Z,47.48,8.53,8.0,6.0,0,2,,6.21,29.911417,,,,,,TRUE,,,,,CAVOK,,,,,,,,VFR,,,,,,,,,,,,METAR,432.0
EYVI 250520Z 17004KT 9999 SCT040 BKN078 07/05 Q1013 NOSIG,EYVI,2015-04-25T05:20:00Z,54.63,25.28,7.0,5.0,170,4,,6.21,29.911417,,,,,,TRUE,,,,,SCT,4000,BKN,7800,,,,,VFR,,,,,,,,,,,,METAR,197.0
EYSA 250520Z 22007KT 6000 FEW004 SCT065 BKN120 06/05 Q1011,EYSA,2015-04-25T05:20:00Z,55.9,23.4,6.0,5.0,220,7,,3.73,29.852362,,,,,,,,,,,FEW,400,SCT,6500,BKN,12000,,,MVFR,,,,,,,,,,,,METAR,135.0
CYQX 250520Z 10014KT 1/8SM R03/3000FT/N R13/2200FT/N -RA FG VV001 01/01 A2974 RMK FG8 SLP078,CYQX,2015-04-25T05:20:00Z,48.95,-54.58,1.0,1.0,100,14,,0.13,29.740158,1007.8,,,,,,,,,-RA FG,OVX,0,,,,,,,LIFR,,,,,,,,,,,100,SPECI,151.0
EYPA 250520Z 21005KT 9999 OVC004 07/06 Q1011,EYPA,2015-04-25T05:20:00Z,55.97,21.08,7.0,6.0,210,5,,6.21,29.852362,,,,,,,,,,,OVC,400,,,,,,,LIFR,,,,,,,,,,,,METAR,10.0
EYKA 250520Z 18004KT 150V210 CAVOK 07/04 Q1012,EYKA,2015-04-25T05:20:00Z,54.97,24.08,7.0,4.0,180,4,,6.21,29.88189,,,,,,,,,,,CAVOK,,,,,,,,VFR,,,,,,,,,,,,METAR,77.0
VECC 250520Z 20005KT 3200 HZ FEW020 FEW030CB SCT100 31/23 Q1011 TEMPO FM0550 2000 TSRA,VECC,2015-04-25T05:20:00Z,22.65,88.43,31.0,23.0,200,5,,1.99,29.852362,,,,,,,,,,HZ,FEW,2000,FEW,3000,SCT,10000,,,IFR,,,,,,,,,,,,METAR,6.0
LTCT 250520Z 29013KT CAVOK 09/M01 Q1022,LTCT,2015-04-25T05:20:00Z,39.98,43.87,9.0,-1.0,290,13,,6.21,30.177166,,,,,,,,,,,CAVOK,,,,,,,,VFR,,,,,,,,,,,,METAR,946.0
VQPR 250520Z 15005KT 6000 FEW025 OVC060 11/07 Q1025 NOSIG,VQPR,2015-04-25T05:20:00Z,27.4,89.43,11.0,7.0,150,5,,3.73,30.265747,,,,,,TRUE,,,,,FEW,2500,OVC,6000,,,,,MVFR,,,,,,,,,,,,METAR,2235.0
EDFM 250520Z 18005KT 150V210 CAVOK 12/03 Q1010,EDFM,2015-04-25T05:20:00Z,49.47,8.52,12.0,3.0,180,5,,6.21,29.822834,,,,,,,,,,,CAVOK,,,,,,,,VFR,,,,,,,,,,,,METAR,100.0
OITT 250520Z 31010KT 9999 FEW028TCU FEW035 SCT040CB BKN100 06/M01 Q1022 A3018,OITT,2015-04-25T05:20:00Z,38.13,46.23,6.0,-1.0,310,10,,6.21,30.177166,,,,,,,,,,,FEW,2800,FEW,3500,SCT,4000,BKN,10000,VFR,,,,,,,,,,,,METAR,1361.0
EDVK 250520Z VRB02KT CAVOK 09/04 Q1009 RMK ATIS D,EDVK,2015-04-25T05:20:00Z,51.38,9.37,9.0,4.0,0,2,,6.21,29.793306,,,,,,,,,,,CAVOK,,,,,,,,VFR,,,,,,,,,,,,SPECI,285.0
EDVE 250520Z 19005KT 9999 FEW049 BKN060 12/05 Q1008,EDVE,2015-04-25T05:20:00Z,52.32,10.55,12.0,5.0,190,5,,6.21,29.763779,,,,,,,,,,,FEW,4900,BKN,6000,,,,,VFR,,,,,,,,,,,,METAR,88.0
LIEA 250520Z VRB02KT CAVOK 10/09 Q1017,LIEA,2015-04-25T05:20:00Z,40.62,8.27,10.0,9.0,0,2,,6.21,30.029528,,,,,,,,,,,CAVOK,,,,,,,,VFR,,,,,,,,,,,,METAR,23.0
PAKU 250519Z 08007KT 7/8SM R06/P6000FT BR BKN000 BKN190 M10/M12 A2993 RMK BR BKN000,PAKU,2015-04-25T05:19:00Z,70.32,-149.58,-10.0,-12.0,80,7,,0.88,29.929134,,,,,,,,,,BR,BKN,0,BKN,19000,,,,,LIFR,,,,,,,,,,,,SPECI,2.0
PGUM 250519Z 11012G18KT 10SM SCT015 SCT021 29/25 A2977 RMK AO2,PGUM,2015-04-25T05:19:00Z,13.48,144.8,29.0,25.0,110,12,18,10.0,29.769686,,,,TRUE,,,,,,,SCT,1500,SCT,2100,,,,,VFR,,,,,,,,,,,,SPECI,91.0
KPNC 250519Z AUTO 18012G18KT 10SM SCT014 BKN021 17/16 A2950 RMK AO2 T01720156 TSNO,KPNC,2015-04-25T05:19:00Z,36.73,-97.1,17.2,15.6,180,12,18,10.0,29.500984,,,TRUE,TRUE,,,TRUE,,,,SCT,1400,BKN,2100,,,,,MVFR,,,,,,,,,,,,SPECI,308.0
KMDH 250519Z AUTO 16004KT 10SM OVC014 14/07 A2977 RMK AO2 T01390072,KMDH,2015-04-25T05:19:00Z,37.78,-89.25,13.9,7.2,160,4,,10.0,29.769686,,,TRUE,TRUE,,,,,,,OVC,1400,,,,,,,MVFR,,,,,,,,,,,,SPECI,130.0
KLVM 250519Z AUTO 26010KT 7SM -RA SCT009 OVC016 04/ A2972 RMK AO2 P0003 T0039 $,KLVM,2015-04-25T05:19:00Z,45.7,-110.43,3.9,,260,10,,7.0,29.719488,,,TRUE,TRUE,TRUE,,,,,-RA,SCT,900,OVC,1600,,,,,MVFR,,,,,,0.03,,,,,,SPECI,1418.0
KACQ 250519Z AUTO 09013KT 10SM SCT013 OVC028 06/04 A2977 RMK AO2,KACQ,2015-04-25T05:19:00Z,44.07,-93.55,6.0,4.0,90,13,,10.0,29.769686,,,TRUE,TRUE,,,,,,,SCT,1300,OVC,2800,,,,,MVFR,,,,,,,,,,,,SPECI,343.0
KAAT 250518Z AUTO 00000KT 9SM -RA BKN010 OVC017 02/01 A2987 RMK AO2 P0002 T00220011,KAAT,2015-04-25T05:18:00Z,41.48,-120.57,2.2,1.1,0,0,,9.0,29.870079,,,TRUE,TRUE,,,,,,-RA,BKN,1000,OVC,1700,,,,,MVFR,,,,,,0.02,,,,,,SPECI,1331.0
KDLN 250518Z AUTO 09007KT 10SM FEW007 FEW016 OVC046 02/01 A2975 RMK AO2 T00220006,KDLN,2015-04-25T05:18:00Z,45.25,-112.55,2.2,0.6,90,7,,10.0,29.749016,,,TRUE,TRUE,,,,,,,FEW,700,FEW,1600,OVC,4600,,,VFR,,,,,,,,,,,,SPECI,1591.0
KLAW 250518Z AUTO 17004KT 5SM BR SCT003 17/16 A2963 RMK AO2 T01670156 TSNO,KLAW,2015-04-25T05:18:00Z,34.55,-98.42,16.7,15.6,170,4,,5.0,29.630905,,,TRUE,TRUE,,,TRUE,,,BR,SCT,300,,,,,,,MVFR,,,,,,,,,,,,SPECI,337.0
KLWC 250518Z AUTO 13017KT 10SM BKN027 OVC033 16/13 A2950 RMK AO2 LTG DSNT ALQDS RAE05 P0001 T01560128,KLWC,2015-04-25T05:18:00Z,39.02,-95.22,15.6,12.8,130,17,,10.0,29.500984,,,TRUE,TRUE,,,,,,,BKN,2700,OVC,3300,,,,,MVFR,,,,,,0.01,,,,,,SPECI,253.0
KMCK 250518Z AUTO VRB03KT 5SM VCTS BR FEW006 BKN090 BKN120 14/13 A2952 RMK AO2 LTG DSNT ALQDS RAE10 TSE12 P0001 T01440133,KMCK,2015-04-25T05:18:00Z,40.2,-100.58,14.4,13.3,0,3,,5.0,29.518702,,,TRUE,TRUE,,,,,,VCTS BR,FEW,600,BKN,9000,BKN,12000,,,MVFR,,,,,,0.01,,,,,,SPECI,782.0
KFTK 250518Z AUTO 05003KT 10SM FEW016 SCT034 OVC055 12/06 A2984 RMK AO2 DZB15E18,KFTK,2015-04-25T05:18:00Z,37.88,-85.97,12.0,6.0,50,3,,10.0,29.840551,,,TRUE,TRUE,,,,,,,FEW,1600,SCT,3400,OVC,5500,,,VFR,,,,,,,,,,,,SPECI,230.0
KPOE 250518Z AUTO 27005KT 10SM BKN015 BKN024 BKN029 OVC035 24/22 A2982 RMK AO2,KPOE,2015-04-25T05:18:00Z,31.05,-93.2,24.0,22.0,270,5,,10.0,29.819881,,,TRUE,TRUE,,,,,,,BKN,1500,BKN,2400,BKN,2900,OVC,3500,MVFR,,,,,,,,,,,,METAR,101.0
KINS 250518Z AUTO 14006KT 10SM SCT090 17/06 A2979 RMK AO2,KINS,2015-04-25T05:18:00Z,36.58,-115.67,17.0,6.0,140,6,,10.0,29.790354,,,TRUE,TRUE,,,,,,,SCT,9000,,,,,,,VFR,,,,,,,,,,,,METAR,955.0
KBFM 250517Z AUTO 15011G16KT 10SM BKN012 OVC019 23/22 A2984 RMK AO2 T02330222,KBFM,2015-04-25T05:17:00Z,30.62,-88.07,23.3,22.2,150,11,16,10.0,29.840551,,,TRUE,TRUE,,,,,,,BKN,1200,OVC,1900,,,,,MVFR,,,,,,,,,,,,SPECI,20.0
KMFE 250517Z AUTO 13019G25KT 10SM CLR 26/19 A2971 RMK AO2 LTG DSNT NE AND E T02560194,KMFE,2015-04-25T05:17:00Z,26.18,-98.25,25.6,19.4,130,19,25,10.0,29.71063,,,TRUE,TRUE,,,,,,,CLR,,,,,,,,VFR,,,,,,,,,,,,SPECI,38.0
KOTM 250517Z AUTO 08011KT 10SM OVC029 11/07 A2965 RMK AO2 T01110067,KOTM,2015-04-25T05:17:00Z,41.1,-92.45,11.1,6.7,80,11,,10.0,29.648623,,,TRUE,TRUE,,,,,,,OVC,2900,,,,,,,MVFR,,,,,,,,,,,,SPECI,256.0
KVCB 250517Z AUTO 23014G21KT 10SM BKN022 BKN027 BKN110 13/07 A2996 RMK AO2 PK WND 23026/0455 T01280072,KVCB,2015-04-25T05:17:00Z,38.38,-121.95,12.8,7.2,230,14,21,10.0,29.958662,,,TRUE,TRUE,,,,,,,BKN,2200,BKN,2700,BKN,11000,,,MVFR,,,,,,,,,,,,SPECI,33.0
CYXX 250517Z 06005KT 10SM FEW020 SCT040 BKN220 06/05 A2988 RMK SC2CU2CS2 SLP118,CYXX,2015-04-25T05:17:00Z,49.03,-122.38,6.0,5.0,60,5,,10.0,29.878937,1011.8,,,,,,,,,,FEW,2000,SCT,4000,BKN,22000,,,VFR,,,,,,,,,,,,SPECI,58.0
PFYU 250516Z 04012G15KT 10SM OVC080 07/M04 A2978 RMK AO1,PFYU,2015-04-25T05:16:00Z,66.57,-145.27,7.0,-4.0,40,12,15,10.0,29.778543,,,,TRUE,,,,,,,OVC,8000,,,,,,,VFR,,,,,,,,,,,,METAR,131.0
K40B 250516Z AUTO 00000KT 00/00 A2956 RMK AO1 SLP028 T10021002 400331002 56005 P0002,K40B,2015-04-25T05:16:00Z,46.62,-69.52,-0.2,-0.2,0,0,,,29.56004,1002.8,,TRUE,TRUE,,,,,,,,,,,,,,,,-0.5,,,3.3,-0.2,0.02,,,,,,METAR,314.0
PHSF 250516Z AUTO 15004KT 8SM SCT014 14/11 A3029 RMK AO2 $,PHSF,2015-04-25T05:16:00Z,19.77,-155.55,14.0,11.0,150,4,,8.0,30.28937,,,TRUE,TRUE,TRUE,,,,,,SCT,1400,,,,,,,VFR,,,,,,,,,,,,SPECI,1887.0
KPIL 250516Z AUTO 25007KT 10SM FEW046 FEW060 24/21 A2981 RMK AO2 PK WND 25033/0454 LTG DSNT SW-N RAB0455E11 P0000 T02390206,KPIL,2015-04-25T05:16:00Z,26.17,-97.33,23.9,20.6,250,7,,10.0,29.811024,,,TRUE,TRUE,,,,,,,FEW,4600,FEW,6000,,,,,VFR,,,,,,0.0050,,,,,,SPECI,5.0
PHKO 250516Z 29007KT 10SM SCT045 26/21 A2997 RMK AO2,PHKO,2015-04-25T05:16:00Z,19.73,-156.05,26.0,21.0,290,7,,10.0,29.970472,,,,TRUE,,,,,,,SCT,4500,,,,,,,VFR,,,,,,,,,,,,SPECI,27.0
KLXT 250515Z AUTO 14009G14KT 120V180 10SM BKN029 OVC033 16/12 A2957 RMK AO2 LTG DSNT W T01560117,KLXT,2015-04-25T05:15:00Z,38.97,-94.37,15.6,11.7,140,9,14,10.0,29.568897,,,TRUE,TRUE,,,,,,,BKN,2900,OVC,3300,,,,,MVFR,,,,,,,,,,,,METAR,306.0
KGOK 250515Z AUTO 19014KT 10SM BKN013 17/15 A2955 RMK AO2 T01720150,KGOK,2015-04-25T05:15:00Z,35.85,-97.4,17.2,15.0,190,14,,10.0,29.551182,,,TRUE,TRUE,,,,,,,BKN,1300,,,,,,,MVFR,,,,,,,,,,,,METAR,324.0
KEOE 250515Z AUTO 16004KT 10SM CLR 15/06 A2997 RMK AO2,KEOE,2015-04-25T05:15:00Z,34.32,-81.63,15.0,6.0,160,4,,10.0,29.970472,,,TRUE,TRUE,,,,,,,CLR,,,,,,,,VFR,,,,,,,,,,,,METAR,174.0
CYRQ 250515Z AUTO 32005KT 230V360 9SM OVC042 02/M03 A2975 RMK SLP078,CYRQ,2015-04-25T05:15:00Z,46.35,-72.68,2.0,-3.0,320,5,,9.0,29.749016,1007.8,,TRUE,,,,,,,,OVC,4200,,,,,,,VFR,,,,,,,,,,,,SPECI,61.0
LHUD 250515Z 21003KT CAVOK 10/07 Q1017,LHUD,2015-04-25T05:15:00Z,46.25,20.1,10.0,7.0,210,3,,6.21,30.029528,,,,,,,,,,,CAVOK,,,,,,,,VFR,,,,,,,,,,,,METAR,84.0
LHSM 250515Z 09002KT 5000 BR FEW005 09/08 Q1017 BECMG 8000 NSW,LHSM,2015-04-25T05:15:00Z,46.68,17.17,9.0,8.0,90,2,,3.11,30.029528,,,,,,,,,,BR,FEW,500,,,,,,,MVFR,,,,,,,,,,,,METAR,125.0
LHPR 250515Z 12002KT CAVOK 11/08 Q1016,LHPR,2015-04-25T05:15:00Z,47.63,17.82,11.0,8.0,120,2,,6.21,30.0,,,,,,,,,,,CAVOK,,,,,,,,VFR,,,,,,,,,,,,METAR,129.0
LHPP 250515Z 30004KT CAVOK 10/08 Q1018,LHPP,2015-04-25T05:15:00Z,45.98,18.23,10.0,8.0,300,4,,6.21,30.059055,,,,,,,,,,,CAVOK,,,,,,,,VFR,,,,,,,,,,,,METAR,305.0
LHPA 250515Z 18004MPS CAVOK 13/08 Q1015 NOSIG RMK BLU,LHPA,2015-04-25T05:15:00Z,47.35,17.5,13.0,8.0,180,8,,6.21,29.970472,,,,,,TRUE,,,,,CAVOK,,,,,,,,VFR,,,,,,,,,,,,METAR,148.0
LHDC 250515Z 16003KT CAVOK 10/05 Q1017 NOSIG,LHDC,2015-04-25T05:15:00Z,47.47,21.62,10.0,5.0,160,3,,6.21,30.029528,,,,,,TRUE,,,,,CAVOK,,,,,,,,VFR,,,,,,,,,,,,METAR,112.0
KVQQ 250515Z AUTO 00000KT 8SM CLR 15/14 A2997 RMK AO2,KVQQ,2015-04-25T05:15:00Z,30.22,-81.88,15.0,14.0,0,0,,8.0,29.970472,,,TRUE,TRUE,,,,,,,CLR,,,,,,,,VFR,,,,,,,,,,,,SPECI,25.0
KFYG 250515Z AUTO 00000KT 10SM OVC017 13/09 A2969 RMK AO2,KFYG,2015-04-25T05:15:00Z,38.58,-91.0,13.0,9.0,0,0,,10.0,29.68996,,,TRUE,TRUE,,,,,,,OVC,1700,,,,,,,MVFR,,,,,,,,,,,,SPECI,149.0
KD60 250515Z AUTO 11011G16KT 10SM SCT085 OVC110 09/03 A2972 RMK AO2,KD60,2015-04-25T05:15:00Z,48.38,-102.9,9.0,3.0,110,11,16,10.0,29.719488,,,TRUE,TRUE,,,,,,,SCT,8500,OVC,11000,,,,,VFR,,,,,,,,,,,,SPECI,693.0
KO22 250515Z AUTO 27003KT 10SM OVC055 12/03 A2997 RMK AO1,KO22,2015-04-25T05:15:00Z,38.03,-120.42,12.0,3.0,270,3,,10.0,29.970472,,,TRUE,TRUE,,,,,,,OVC,5500,,,,,,,VFR,,,,,,,,,,,,SPECI,646.0
KSNC 250515Z AUTO 31007G15KT 10SM CLR 02/M06 A2984 RMK AO2,KSNC,2015-04-25T05:15:00Z,41.38,-72.5,2.0,-6.0,310,7,15,10.0,29.840551,,,TRUE,TRUE,,,,,,,CLR,,,,,,,,VFR,,,,,,,,,,,,SPECI,127.0
K4A6 250515Z AUTO 00000KT 6SM -RA BKN038 OVC047 14/12 A2993 RMK AO2,K4A6,2015-04-25T05:15:00Z,34.68,-86.0,14.0,12.0,0,0,,6.0,29.929134,,,TRUE,TRUE,,,,,,-RA,BKN,3800,OVC,4700,,,,,VFR,,,,,,,,,,,,SPECI,198.0
LIPX 250515Z 00000KT 6000 NSC 09/09 Q1017,LIPX,2015-04-25T05:15:00Z,45.38,10.87,9.0,9.0,0,0,,3.73,30.029528,,,,,,,,,,,,,,,,,,,,,,,,,,,,,,,METAR,68.0
LIPR 250515Z 00000KT CAVOK 08/08 Q1016,LIPR,2015-04-25T05:15:00Z,44.02,12.62,8.0,8.0,0,0,,6.21,30.0,,,,,,,,,,,CAVOK,,,,,,,,VFR,,,,,,,,,,,,METAR,13.0
LIPH 250515Z /////KT 4500 BR NSC 10/10 Q1017,LIPH,2015-04-25T05:15:00Z,45.63,12.17,10.0,10.0,,,,2.8,30.029528,,,,,,,,,,BR,,,,,,,,,,,,,,,,,,,,,METAR,23.0
LIBR 250515Z 12005KT CAVOK 14/11 Q1018 NOSIG,LIBR,2015-04-25T05:15:00Z,40.65,17.95,14.0,11.0,120,5,,6.21,30.059055,,,,,,TRUE,,,,,CAVOK,,,,,,,,VFR,,,,,,,,,,,,METAR,10.0
LIRP 250515Z 15003KT 6000 NSC 08/07 Q1017 TEMPO 4000 BR,LIRP,2015-04-25T05:15:00Z,43.67,10.37,8.0,7.0,150,3,,3.73,30.029528,,,,,,,,,,,,,,,,,,,,,,,,,,,,,,,METAR,2.0
LIRA 250515Z 00000KT CAVOK 10/09 Q1016,LIRA,2015-04-25T05:15:00Z,41.8,12.58,10.0,9.0,0,0,,6.21,30.0,,,,,,,,,,,CAVOK,,,,,,,,VFR,,,,,,,,,,,,METAR,101.0
KUOX 250515Z AUTO 36007KT 2 1/2SM TSBR SCT001 BKN024 BKN030 13/13 A2983 RMK AO2 LTG DSNT ALQDS PWINO PNO,KUOX,2015-04-25T05:15:00Z,34.38,-89.53,13.0,13.0,360,7,,2.5,29.828741,,,TRUE,TRUE,,,,,TRUE,TS BR,SCT,100,BKN,2400,BKN,3000,,,IFR,,,,,,,,,,,,METAR,137.0
KBXK 250515Z AUTO 18005KT 10SM CLR 18/08 A2989 RMK AO1,KBXK,2015-04-25T05:15:00Z,33.42,-112.68,18.0,8.0,180,5,,10.0,29.890747,,,TRUE,TRUE,,,,,,,CLR,,,,,,,,VFR,,,,,,,,,,,,METAR,315.0
K20U 250515Z AUTO 13007KT 10SM CLR 08/00 A2964 RMK AO2,K20U,2015-04-25T05:15:00Z,46.93,-103.98,8.0,0.0,130,7,,10.0,29.639763,,,TRUE,TRUE,,,,,,,CLR,,,,,,,,VFR,,,,,,,,,,,,METAR,840.0
KY19 250515Z AUTO 09009KT 10SM CLR 07/05 A2971 RMK AO2,KY19,2015-04-25T05:15:00Z,46.77,-100.9,7.0,5.0,90,9,,10.0,29.71063,,,TRUE,TRUE,,,,,,,CLR,,,,,,,,VFR,,,,,,,,,,,,METAR,593.0
K2J9 250515Z AUTO 00000KT 10SM CLR 18/17 A2993 RMK AO1,K2J9,2015-04-25T05:15:00Z,30.6,-84.55,18.0,17.0,0,0,,10.0,29.929134,,,TRUE,TRUE,,,,,,,CLR,,,,,,,,VFR,,,,,,,,,,,,METAR,69.0
LHSN 250515Z 28006KT CAVOK 11/07 Q1017 NOSIG RMK BLU,LHSN,2015-04-25T05:15:00Z,47.12,20.23,11.0,7.0,280,6,,6.21,30.029528,,,,,,TRUE,,,,,CAVOK,,,,,,,,VFR,,,,,,,,,,,,METAR,98.0
LHKE 250515Z 00000KT CAVOK 09/08 Q1017 NOSIG RMK BLU,LHKE,2015-04-25T05:15:00Z,46.92,19.75,9.0,8.0,0,0,,6.21,30.029528,,,,,,TRUE,,,,,CAVOK,,,,,,,,VFR,,,,,,,,,,,,METAR,115.0
LMML 250515Z 05014KT 9000 SCT009 16/14 Q1015 BECMG 9999,LMML,2015-04-25T05:15:00Z,35.85,14.47,16.0,14.0,50,14,,5.59,29.970472,,,,,,,,,,,SCT,900,,,,,,,VFR,,,,,,,,,,,,METAR,91.0
KNEW 250514Z AUTO 17012KT 8SM BKN008 OVC025 25/22 A2980 RMK AO2 T02500222 TSNO,KNEW,2015-04-25T05:14:00Z,30.05,-90.03,25.0,22.2,170,12,,8.0,29.799213,,,TRUE,TRUE,,,TRUE,,,,BKN,800,OVC,2500,,,,,IFR,,,,,,,,,,,,METAR,3.0
KLVJ 250514Z AUTO 25007KT 6SM BR SCT012 OVC019 26/23 A2984 RMK AO2 LTG DSNT S T02560233,KLVJ,2015-04-25T05:14:00Z,29.52,-95.25,25.6,23.3,250,7,,6.0,29.840551,,,TRUE,TRUE,,,,,,BR,SCT,1200,OVC,1900,,,,,MVFR,,,,,,,,,,,,METAR,12.0
CYAT 250514Z AUTO 34004KT 310V010 9SM OVC010 M01/M02 A3007 RMK SLP184,CYAT,2015-04-25T05:14:00Z,52.93,-82.43,-1.0,-2.0,340,4,,9.0,30.070866,1018.4,,TRUE,,,,,,,,OVC,1000,,,,,,,MVFR,,,,,,,,,,,,SPECI,9.0
KAVX 250513Z AUTO 25004KT 10SM FEW007 FEW015 11/09 A3003 RMK AO2 T01060094,KAVX,2015-04-25T05:13:00Z,33.4,-118.42,10.6,9.4,250,4,,10.0,30.029528,,,TRUE,TRUE,,,,,,,FEW,700,FEW,1500,,,,,VFR,,,,,,,,,,,,METAR,482.0
KSTL 250513Z 15006KT 10SM BKN018 BKN100 BKN250 13/07 A2973 RMK AO2,KSTL,2015-04-25T05:13:00Z,38.75,-90.37,13.0,7.0,150,6,,10.0,29.731298,,,,TRUE,,,,,,,BKN,1800,BKN,10000,BKN,25000,,,MVFR,,,,,,,,,,,,METAR,171.0
PHHI 250513Z AUTO 06004KT 10SM BKN024 23/19 A2998 RMK AO2,PHHI,2015-04-25T05:13:00Z,21.48,-158.05,23.0,19.0,60,4,,10.0,29.97933,,,TRUE,TRUE,,,,,,,BKN,2400,,,,,,,MVFR,,,,,,,,,,,,METAR,255.0
KBML 250513Z AUTO VRB04KT 10SM SCT027 BKN032 OVC075 M01/M06 A2972 RMK AO2 T10061056,KBML,2015-04-25T05:13:00Z,44.58,-71.18,-0.6,-5.6,0,4,,10.0,29.719488,,,TRUE,TRUE,,,,,,,SCT,2700,BKN,3200,OVC,7500,,,VFR,,,,,,,,,,,,METAR,345.0
CYTE 250513Z AUTO 07014KT 5SM -SN FEW009 OVC031 M04/M04 A3038 RMK SLP292,CYTE,2015-04-25T05:13:00Z,64.22,-76.52,-4.0,-4.0,70,14,,5.0,30.380905,1029.2,,TRUE,,,,,,,-SN,FEW,900,OVC,3100,,,,,MVFR,,,,,,,,,,,,SPECI,47.0
KTGI 250513Z AUTO 25009KT 10SM CLR 12/07 A2995 RMK AO1,KTGI,2015-04-25T05:13:00Z,37.82,-75.98,12.0,7.0,250,9,,10.0,29.949802,,,TRUE,TRUE,,,,,,,CLR,,,,,,,,VFR,,,,,,,,,,,,METAR,2.0
RJFO 250512Z 28010KT 250V310 CAVOK 24/M00 Q1017 RMK A3003,RJFO,2015-04-25T05:12:00Z,33.47,131.72,24.0,0.0,280,10,,6.21,30.029528,,,,,,,,,,,CAVOK,,,,,,,,VFR,,,,,,,,,,,,METAR,8.0
KNUQ 250512Z VRB03KT 10SM BKN028 OVC039 15/07 A3003 RMK AO2,KNUQ,2015-04-25T05:12:00Z,37.4,-122.05,15.0,7.0,0,3,,10.0,30.029528,,,,TRUE,,,,,,,BKN,2800,OVC,3900,,,,,MVFR,,,,,,,,,,,,SPECI,12.0
KBVO 250512Z AUTO 18006KT 10SM BKN016 17/14 A2955 RMK AO2 T01670144,KBVO,2015-04-25T05:12:00Z,36.77,-96.02,16.7,14.4,180,6,,10.0,29.551182,,,TRUE,TRUE,,,,,,,BKN,1600,,,,,,,MVFR,,,,,,,,,,,,METAR,210.0
KGRI 250512Z AUTO 34009KT 3SM -RA BR SCT009 BKN017 OVC023 13/12 A2950 RMK AO2 LTG DSNT S RAB0455 P0000 T01330122,KGRI,2015-04-25T05:12:00Z,40.97,-98.32,13.3,12.2,340,9,,3.0,29.500984,,,TRUE,TRUE,,,,,,-RA BR,SCT,900,BKN,1700,OVC,2300,,,MVFR,,,,,,0.0050,,,,,,SPECI,561.0
KPWA 250511Z AUTO 20020G26KT 10SM OVC010 18/16 A2958 RMK AO2 PK WND 19026/0503 CIG 007V013,KPWA,2015-04-25T05:11:00Z,35.53,-97.65,18.0,16.0,200,20,26,10.0,29.58071,,,TRUE,TRUE,,,,,,,OVC,1000,,,,,,,MVFR,,,,,,,,,,,,SPECI,397.0
KPAE 250511Z AUTO 09004KT 7SM -RA BKN026 OVC035 07/04 A2987 RMK AO2 P0001 T00720044,KPAE,2015-04-25T05:11:00Z,47.92,-122.28,7.2,4.4,90,4,,7.0,29.870079,,,TRUE,TRUE,,,,,,-RA,BKN,2600,OVC,3500,,,,,MVFR,,,,,,0.01,,,,,,SPECI,180.0
CYKL 250511Z AUTO 07004KT 030V110 9SM -RA OVC004 02/01 A2994 RMK SLP164,CYKL,2015-04-25T05:11:00Z,54.78,-66.82,2.0,1.0,70,4,,9.0,29.940945,1016.4,,TRUE,,,,,,,-RA,OVC,400,,,,,,,LIFR,,,,,,,,,,,,SPECI,521.0
KMTH 250511Z AUTO 34005KT 10SM BKN022 28/24 A2995 RMK AO2 T02830244,KMTH,2015-04-25T05:11:00Z,24.73,-81.05,28.3,24.4,340,5,,10.0,29.949802,,,TRUE,TRUE,,,,,,,BKN,2200,,,,,,,MVFR,,,,,,,,,,,,SPECI,2.0
VABB 250510Z 31007KT 3200 HZ FEW020 32/23 Q1011 NOSIG,VABB,2015-04-25T05:10:00Z,19.1,72.87,32.0,23.0,310,7,,1.99,29.852362,,,,,,TRUE,,,,HZ,FEW,2000,,,,,,,IFR,,,,,,,,,,,,METAR,8.0
VANP 250510Z 35004KT 6000 NSC 37/19 Q1010 NOSIG,VANP,2015-04-25T05:10:00Z,21.08,79.05,37.0,19.0,350,4,,3.73,29.822834,,,,,,TRUE,,,,,,,,,,,,,,,,,,,,,,,,,SPECI,310.0
VOTV 250510Z 09005KT 4000 HZ SCT015 FEW025CB SCT100 29/23 Q1011 BECMG 6000,VOTV,2015-04-25T05:10:00Z,8.47,76.95,29.0,23.0,90,5,,2.49,29.852362,,,,,,,,,,HZ,SCT,1500,FEW,2500,SCT,10000,,,IFR,,,,,,,,,,,,SPECI,8.0
VOTR 250510Z 26008KT 5000 HZ SCT016 BKN080 27/21 Q1011 NOSIG,VOTR,2015-04-25T05:10:00Z,10.77,78.72,27.0,21.0,260,8,,3.11,29.852362,,,,,,TRUE,,,,HZ,SCT,1600,BKN,8000,,,,,MVFR,,,,,,,,,,,,METAR,88.0
VOMM 250510Z 26006KT 8000 FEW020 SCT100 31/23 Q1010 NOSIG,VOMM,2015-04-25T05:10:00Z,13.0,80.17,31.0,23.0,260,6,,4.97,29.822834,,,,,,TRUE,,,,,FEW,2000,SCT,10000,,,,,MVFR,,,,,,,,,,,,METAR,16.0
VOHS 250510Z 23011KT 6000 NSC 34/23 Q1013 NOSIG,VOHS,2015-04-25T05:10:00Z,17.23,78.43,34.0,23.0,230,11,,3.73,29.911417,,,,,,TRUE,,,,,,,,,,,,,,,,,,,,,,,,,METAR,1.0
K8S0 250510Z 26004KT ,K8S0,2015-04-25T05:10:00Z,48.6,-113.12,,,260,4,,,,,,,,,,,,,,,,,,,,,,,,,,,,,,,,,,METAR,1419.0
VCRI 250510Z 26008KT 200V290 9999 SCT017 FEW018TCU 32/23 Q1011 NOSIG RMK SE,VCRI,2015-04-25T05:10:00Z,6.28,81.13,32.0,23.0,260,8,,6.21,29.852362,,,,,,TRUE,,,,,SCT,1700,FEW,1800,,,,,VFR,,,,,,,,,,,,METAR,7.0
VCBI 250510Z VRB07KT 9999 TS BKN016 FEW020CB 28/24 Q1012 NOSIG,VCBI,2015-04-25T05:10:00Z,7.17,79.87,28.0,24.0,0,7,,6.21,29.88189,,,,,,TRUE,,,,TS,BKN,1600,FEW,2000,,,,,MVFR,,,,,,,,,,,,METAR,8.0
KHIE 250510Z AUTO 27005KT 7SM -SN FEW024 BKN031 OVC038 00/M05 A2975 RMK AO2 SNB0453 P0000 T00001050 TSNO,KHIE,2015-04-25T05:10:00Z,44.37,-71.55,0.0,-5.0,270,5,,7.0,29.749016,,,TRUE,TRUE,,,TRUE,,,-SN,FEW,2400,BKN,3100,OVC,3800,,,VFR,,,,,,0.0050,,,,,,SPECI,318.0
CYQV 250510Z AUTO 10008KT 9SM -RA BKN065 OVC079 08/02 A2978 RMK SLP098,CYQV,2015-04-25T05:10:00Z,51.27,-102.47,8.0,2.0,100,8,,9.0,29.778543,1009.8,,TRUE,,,,,,,-RA,BKN,6500,OVC,7900,,,,,VFR,,,,,,,,,,,,SPECI,498.0
KTIK 250509Z AUTO 18019KT 10SM OVC007 16/15 A2959 RMK AO2 $,KTIK,2015-04-25T05:09:00Z,35.42,-97.37,16.0,15.0,180,19,,10.0,29.589567,,,TRUE,TRUE,TRUE,,,,,,OVC,700,,,,,,,IFR,,,,,,,,,,,,SPECI,394.0
KBVE 250508Z AUTO 16007KT 6SM BR SCT021 24/23 A2984 RMK AO2 T02390228,KBVE,2015-04-25T05:08:00Z,29.32,-89.4,23.9,22.8,160,7,,6.0,29.840551,,,TRUE,TRUE,,,,,,BR,SCT,2100,,,,,,,VFR,,,,,,,,,,,,SPECI,1.0
CYTH 250508Z 05007KT 15SM -SN SCT008 BKN030 OVC055 M04/M05 A3004 RMK ST4SC2SC2 SLP189,CYTH,2015-04-25T05:08:00Z,55.78,-97.87,-4.0,-5.0,50,7,,15.0,30.041338,1018.9,,,,,,,,,-SN,SCT,800,BKN,3000,OVC,5500,,,MVFR,,,,,,,,,,,,SPECI,218.0
KRIV 250508Z AUTO 32006KT 10SM SCT018 OVC033 13/11 A3001 RMK AO2,KRIV,2015-04-25T05:08:00Z,33.87,-117.27,13.0,11.0,320,6,,10.0,30.008858,,,TRUE,TRUE,,,,,,,SCT,1800,OVC,3300,,,,,VFR,,,,,,,,,,,,SPECI,469.0
KSET 250508Z AUTO 12006KT 10SM BKN023 12/07 A2973 RMK AO2 T01170072,KSET,2015-04-25T05:08:00Z,38.93,-90.43,11.7,7.2,120,6,,10.0,29.731298,,,TRUE,TRUE,,,,,,,BKN,2300,,,,,,,MVFR,,,,,,,,,,,,METAR,134.0
YLEC 250508Z AUTO 21020G30KT //// // ////// 19/04 Q1015,YLEC,2015-04-25T05:08:00Z,-30.6,138.43,19.0,4.0,210,20,30,,29.970472,,,TRUE,,,,,,,,,,,,,,,,,,,,,,,,,,,,SPECI,262.0
MMCV 250507Z 19010KT 3SM TSRA BKN015CB BKN070 OVC200 26/26 A2980 RMK 8/963 TSRAB55,MMCV,2015-04-25T05:07:00Z,23.72,-98.97,26.0,26.0,190,10,,3.0,29.799213,,,,,,,,,,TSRA,BKN,1500,BKN,7000,OVC,20000,,,MVFR,,,,,,,,,,,,METAR,238.0
KBZN 250507Z 28013KT 8SM -RA FEW007 SCT021 OVC028 03/02 A2976 RMK AO2 P0001 T00330022,KBZN,2015-04-25T05:07:00Z,45.78,-111.17,3.3,2.2,280,13,,8.0,29.760826,,,,TRUE,,,,,,-RA,FEW,700,SCT,2100,OVC,2800,,,MVFR,,,,,,0.01,,,,,,METAR,1361.0
RJSH 250507Z 25020G32KT 220V290 9999 FEW030 BKN040 18/M03 Q1015 RMK 1CU030 6CU040 A2997,RJSH,2015-04-25T05:07:00Z,40.53,141.47,18.0,-3.0,250,20,32,6.21,29.970472,,,,,,,,,,,FEW,3000,BKN,4000,,,,,VFR,,,,,,,,,,,,METAR,49.0
KNBG 250507Z AUTO 16012KT 8SM BKN012 OVC024 23/22 A2980 RMK AO2 T02330222 $,KNBG,2015-04-25T05:07:00Z,29.82,-90.02,23.3,22.2,160,12,,8.0,29.799213,,,TRUE,TRUE,TRUE,,,,,,BKN,1200,OVC,2400,,,,,MVFR,,,,,,,,,,,,METAR,1.0
CYYC 250507Z 36010KT 10SM BKN009 BKN100 02/00 A2973 RMK SC5AC2 SLP097,CYYC,2015-04-25T05:07:00Z,51.12,-114.02,2.0,0.0,360,10,,10.0,29.731298,1009.7,,,,,,,,,,BKN,900,BKN,10000,,,,,IFR,,,,,,,,,,,,SPECI,1084.0
LIRZ 250506Z 01003KT 330V060 CAVOK 08/07 Q1018,LIRZ,2015-04-25T05:06:00Z,43.1,12.5,8.0,7.0,10,3,,6.21,30.059055,,,,,,,,,,,CAVOK,,,,,,,,VFR,,,,,,,,,,,,SPECI,205.0
KMQY 250506Z AUTO 13004KT 10SM -RA FEW002 SCT029 12/11 A2989 RMK AO2 TSNO P0001,KMQY,2015-04-25T05:06:00Z,36.02,-86.52,12.0,11.0,130,4,,10.0,29.890747,,,TRUE,TRUE,,,TRUE,,,-RA,FEW,200,SCT,2900,,,,,VFR,,,,,,0.01,,,,,,METAR,166.0
MUCL 250505Z AUTO 06012KT 29/23 Q1014,MUCL,2015-04-25T05:05:00Z,21.63,-81.55,29.0,23.0,60,12,,,29.940945,,,TRUE,,,,,,,,,,,,,,,,,,,,,,,,,,,,METAR,5.0
MUCU 250505Z AUTO 01003KT 24/20 Q1014,MUCU,2015-04-25T05:05:00Z,19.97,-75.83,24.0,20.0,10,3,,,29.940945,,,TRUE,,,,,,,,,,,,,,,,,,,,,,,,,,,,METAR,76.0
KHUL 250505Z AUTO 24003KT 10SM FEW012 OVC019 01/M01 A2955 RMK AO2 T00061006 TSNO,KHUL,2015-04-25T05:05:00Z,46.12,-67.8,0.6,-0.6,240,3,,10.0,29.551182,,,TRUE,TRUE,,,TRUE,,,,FEW,1200,OVC,1900,,,,,MVFR,,,,,,,,,,,,METAR,150.0
KGKY 250505Z AUTO 13005KT 6SM BR CLR 16/14 A2970 RMK AO2 T01610144 TSNO $,KGKY,2015-04-25T05:05:00Z,32.67,-97.1,16.1,14.4,130,5,,6.0,29.698818,,,TRUE,TRUE,TRUE,,TRUE,,,BR,CLR,,,,,,,,VFR,,,,,,,,,,,,METAR,192.0
KADF 250505Z AUTO VRB04KT 10SM OVC004 16/16 A2967 RMK AO2 TSNO,KADF,2015-04-25T05:05:00Z,34.1,-93.07,16.0,16.0,0,4,,10.0,29.66929,,,TRUE,TRUE,,,TRUE,,,,OVC,400,,,,,,,LIFR,,,,,,,,,,,,METAR,56.0
PMDY 250505Z AUTO 03013G19KT 10SM SCT021 SCT026 BKN036 19/15 A3015 RMK AO2 TSNO BKN V OVC $,PMDY,2015-04-25T05:05:00Z,28.22,-177.37,19.0,15.0,30,13,19,10.0,30.15059,,,TRUE,TRUE,TRUE,,TRUE,,,,SCT,2100,SCT,2600,BKN,3600,,,VFR,,,,,,,,,,,,METAR,4.0
KHOT 250504Z AUTO 12011G17KT 10SM BKN005 16/16 A2967 RMK AO2 RAE0458 P0000 T01610156 TSNO,KHOT,2015-04-25T05:04:00Z,34.48,-93.1,16.1,15.6,120,11,17,10.0,29.66929,,,TRUE,TRUE,,,TRUE,,,,BKN,500,,,,,,,IFR,,,,,,0.0050,,,,,,METAR,162.0
RJTC 250504Z 16005KT 9999 -SHRA FEW030 SCT060 BKN070 20/05 Q1016 RMK 1CU030 3SC060 6AC070 A3000,RJTC,2015-04-25T05:04:00Z,35.7,139.4,20.0,5.0,160,5,,6.21,30.0,,,,,,,,,,-SHRA,FEW,3000,SCT,6000,BKN,7000,,,VFR,,,,,,,,,,,,METAR,98.0
EGUL 250504Z AUTO 21009KT 9999 SCT021 OVC034 11/10 A2964 RMK AO2 CIG 022 RWY24,EGUL,2015-04-25T05:04:00Z,52.42,0.57,11.0,10.0,210,9,,6.21,29.639763,,,TRUE,TRUE,,,,,,,SCT,2100,OVC,3400,,,,,VFR,,,,,,,,,,,,METAR,10.0
KSUS 250503Z AUTO 00000KT 10SM BKN019 12/08 A2971 RMK AO2 TSNO,KSUS,2015-04-25T05:03:00Z,38.65,-90.65,12.0,8.0,0,0,,10.0,29.71063,,,TRUE,TRUE,,,TRUE,,,,BKN,1900,,,,,,,MVFR,,,,,,,,,,,,METAR,141.0
KBPT 250503Z AUTO 18008KT 6SM BR BKN008 BKN021 24/23 A2976 RMK AO2 T02390228 TSNO,KBPT,2015-04-25T05:03:00Z,29.95,-94.03,23.9,22.8,180,8,,6.0,29.760826,,,TRUE,TRUE,,,TRUE,,,BR,BKN,800,BKN,2100,,,,,IFR,,,,,,,,,,,,METAR,5.0
KWLD 250503Z AUTO 18019G25KT 10SM BKN013 17/15 A2949 RMK AO2 T01670150 TSNO,KWLD,2015-04-25T05:03:00Z,37.17,-97.03,16.7,15.0,180,19,25,10.0,29.489174,,,TRUE,TRUE,,,TRUE,,,,BKN,1300,,,,,,,MVFR,,,,,,,,,,,,METAR,350.0
EGUN 250503Z AUTO 22007KT 9999 SCT020 OVC032 11/11 A2965 RMK AO2,EGUN,2015-04-25T05:03:00Z,52.37,0.47,11.0,11.0,220,7,,6.21,29.648623,,,TRUE,TRUE,,,,,,,SCT,2000,OVC,3200,,,,,VFR,,,,,,,,,,,,SPECI,10.0
KMWT 250502Z AUTO 19003KT 10SM BKN012 17/17 A2966 RMK AO2 T01670167 $,KMWT,2015-04-25T05:02:00Z,34.55,-93.58,16.7,16.7,190,3,,10.0,29.660433,,,TRUE,TRUE,TRUE,,,,,,BKN,1200,,,,,,,MVFR,,,,,,,,,,,,METAR,214.0
KDSM 250502Z 08015G18KT 10SM SCT012 OVC022 10/07 A2963 RMK AO2 T01000067,KDSM,2015-04-25T05:02:00Z,41.53,-93.67,10.0,6.7,80,15,18,10.0,29.630905,,,,TRUE,,,,,,,SCT,1200,OVC,2200,,,,,MVFR,,,,,,,,,,,,METAR,295.0
TIST 250502Z 14005KT 10SM FEW019 SCT026 BKN032 27/23 A2996 RMK AO2 T02670228,TIST,2015-04-25T05:02:00Z,18.33,-64.98,26.7,22.8,140,5,,10.0,29.958662,,,,TRUE,,,,,,,FEW,1900,SCT,2600,BKN,3200,,,VFR,,,,,,,,,,,,METAR,7.0
KLBX 250501Z AUTO 26006KT 5SM -RA BR FEW009 BKN015 BKN100 24/24 A2982 RMK AO2 RAB0454 TSE01 PRESRR P0001 T02390239,KLBX,2015-04-25T05:01:00Z,29.12,-95.47,23.9,23.9,260,6,,5.0,29.819881,,,TRUE,TRUE,,,,,,-RA BR,FEW,900,BKN,1500,BKN,10000,,,MVFR,,,,,,0.01,,,,,,METAR,6.0
KBPK 250501Z AUTO 00000KT 10SM BKN012 14/13 A2967 RMK AO2 T01390133 TSNO,KBPK,2015-04-25T05:01:00Z,36.37,-92.47,13.9,13.3,0,0,,10.0,29.66929,,,TRUE,TRUE,,,TRUE,,,,BKN,1200,,,,,,,MVFR,,,,,,,,,,,,METAR,280.0
PAKF 250501Z AUTO 00000KT 7SM RA SCT013 BKN019 OVC024 03/01 A2945 RMK AO2 SLP068 P0002 T00280011 $,PAKF,2015-04-25T05:01:00Z,54.85,-163.42,2.8,1.1,0,0,,7.0,29.450787,1006.8,,TRUE,TRUE,TRUE,,,,,RA,SCT,1300,BKN,1900,OVC,2400,,,MVFR,,,,,,0.02,,,,,,METAR,6.0
PAIK 250501Z AUTO 05006KT 10SM CLR 07/M07 A2980 RMK AO2 SLP132 T00721072,PAIK,2015-04-25T05:01:00Z,66.98,-160.43,7.2,-7.2,50,6,,10.0,29.799213,1013.2,,TRUE,TRUE,,,,,,,CLR,,,,,,,,VFR,,,,,,,,,,,,METAR,51.0
PABA 250501Z AUTO 10020KT 9SM CLR M02/M03 A2990 RMK AO2 PK WND 10027/0413 SLP123 T10221033 FZRANO,PABA,2015-04-25T05:01:00Z,70.13,-143.58,-2.2,-3.3,100,20,,9.0,29.899607,1012.3,,TRUE,TRUE,,,,TRUE,,,CLR,,,,,,,,VFR,,,,,,,,,,,,METAR,2.0
CYZS 250500Z 09016KT 15SM OVC011 M04/M06 A3035 RMK SC8 SLP285,CYZS,2015-04-25T05:00:00Z,64.2,-83.37,-4.0,-6.0,90,16,,15.0,30.351377,1028.5,,,,,,,,,,OVC,1100,,,,,,,MVFR,,,,,,,,,,,,METAR,64.0
VIAR 250500Z VRB02KT 4500 DU NSC 35/11 Q1007,VIAR,2015-04-25T05:00:00Z,31.7,74.8,35.0,11.0,0,2,,2.8,29.734253,,,,,,,,,,DU,,,,,,,,,,,,,,,,,,,,,METAR,234.0
VILK 250500Z 12012G24KT 4000 BLDU NSC 31/16 Q1010 NOSIG,VILK,2015-04-25T05:00:00Z,26.75,80.87,31.0,16.0,120,12,24,2.49,29.822834,,,,,,TRUE,,,,BLDU,,,,,,,,,,,,,,,,,,,,,METAR,128.0
VIDP 250500Z 12010KT 1600 R28/2000 R29/1700 DU NSC 32/13 Q1009 NOSIG,VIDP,2015-04-25T05:00:00Z,28.57,77.12,32.0,13.0,120,10,,0.99,29.793306,,,,,,TRUE,,,,DU,,,,,,,,,,,,,,,,,,,,,METAR,233.0
MNMG 250500Z 10012KT 9999 FEW020 BKN300 28/20 Q1011 A2988 NOSIG,MNMG,2015-04-25T05:00:00Z,12.15,-86.17,28.0,20.0,100,12,,6.21,29.852362,,,,,,TRUE,,,,,FEW,2000,BKN,30000,,,,,VFR,,,,,,,,,,,,METAR,59.0
FAWK 250500Z AUTO 14007KT //// // ////// 12/09 Q1029,FAWK,2015-04-25T05:00:00Z,-25.82,28.22,12.0,9.0,140,7,,,30.383858,,,TRUE,,,,,,,,,,,,,,,,,,,,,,,,,,,,METAR,1500.0
UTAA 250500Z 34003MPS 300V030 9999 SKC 20/08 Q1010 R12/CLRD70 NOSIG,UTAA,2015-04-25T05:00:00Z,37.98,58.37,20.0,8.0,340,6,,6.21,29.822834,,,,,,TRUE,,,,,SKC,,,,,,,,VFR,,,,,,,,,,,,METAR,210.0
OSDI 250500Z 08002KT CAVOK 08/03 Q1025,OSDI,2015-04-25T05:00:00Z,33.42,36.52,8.0,3.0,80,2,,6.21,30.265747,,,,,,,,,,,CAVOK,,,,,,,,VFR,,,,,,,,,,,,METAR,605.0
MGGT 250500Z 18006KT 3000 BR SCT014 20/19 Q1026 A3030,MGGT,2015-04-25T05:00:00Z,14.57,-90.53,20.0,19.0,180,6,,1.86,30.295275,,,,,,,,,,BR,SCT,1400,,,,,,,IFR,,,,,,,,,,,,METAR,1509.0
MDST 250500Z 00000KT 9999 BKN021 SCT300 25/22 Q1014,MDST,2015-04-25T05:00:00Z,19.4,-70.6,25.0,22.0,0,0,,6.21,29.940945,,,,,,,,,,,BKN,2100,SCT,30000,,,,,MVFR,,,,,,,,,,,,METAR,184.0
MDSD 250500Z 00000KT 9999 FEW016 22/21 Q1015,MDSD,2015-04-25T05:00:00Z,18.42,-69.67,22.0,21.0,0,0,,6.21,29.970472,,,,,,,,,,,FEW,1600,,,,,,,VFR,,,,,,,,,,,,METAR,18.0
MDPC 250500Z 00000KT 9999 FEW016 24/21 Q1015,MDPC,2015-04-25T05:00:00Z,18.57,-68.37,24.0,21.0,0,0,,6.21,29.970472,,,,,,,,,,,FEW,1600,,,,,,,VFR,,,,,,,,,,,,METAR,12.0
FDSK 250500Z VRB02KT 9999 SCT008 BKN020 20/18 Q1023 NOSIG,FDSK,2015-04-25T05:00:00Z,-26.35,31.72,20.0,18.0,0,2,,6.21,30.206694,,,,,,TRUE,,,,,SCT,800,BKN,2000,,,,,MVFR,,,,,,,,,,,,METAR,324.0
OPSK 250500Z 23006KT 4000 HZ NSC 36/23 Q1003 RH47 PC,OPSK,2015-04-25T05:00:00Z,27.72,68.8,36.0,23.0,230,6,,2.49,29.616142,,,,,,,,,,HZ,,,,,,,,,,,,,,,,,,,,,METAR,58.0
GVAC 250500Z 01016KT 9999 SCT015 BKN200 20/18 Q1014 NOSIG,GVAC,2015-04-25T05:00:00Z,16.72,-22.93,20.0,18.0,10,16,,6.21,29.940945,,,,,,TRUE,,,,,SCT,1500,BKN,20000,,,,,VFR,,,,,,,,,,,,METAR,55.0
ORSU 250500Z 00000KT CAVOK 10/04 Q1024,ORSU,2015-04-25T05:00:00Z,35.57,45.32,10.0,4.0,0,0,,6.21,30.236221,,,,,,,,,,,CAVOK,,,,,,,,VFR,,,,,,,,,,,,METAR,761.0
OJAM 250500Z 06005KT 5000 HZ NSC 09/03 Q1023 NOSIG,OJAM,2015-04-25T05:00:00Z,31.97,35.97,9.0,3.0,60,5,,3.11,30.206694,,,,,,TRUE,,,,HZ,,,,,,,,,,,,,,,,,,,,,METAR,773.0
GVSV 250500Z 06018KT 9999 FEW017 SCT200 20/17 Q1015 NOSIG,GVSV,2015-04-25T05:00:00Z,16.83,-25.07,20.0,17.0,60,18,,6.21,29.970472,,,,,,TRUE,,,,,FEW,1700,SCT,20000,,,,,VFR,,,,,,,,,,,,METAR,20.0
SBMN 250500Z 06002KT CAVOK 26/24 Q1013,SBMN,2015-04-25T05:00:00Z,-3.13,-59.97,26.0,24.0,60,2,,6.21,29.911417,,,,,,,,,,,CAVOK,,,,,,,,VFR,,,,,,,,,,,,METAR,84.0
FQMA 250500Z 32003KT 2500 BR SCT025 20/19 Q1022 NOSIG,FQMA,2015-04-25T05:00:00Z,-25.92,32.57,20.0,19.0,320,3,,1.55,30.177166,,,,,,TRUE,,,,BR,SCT,2500,,,,,,,IFR,,,,,,,,,,,,METAR,44.0
UBBL 250500Z 29004KT 9999 -RA OVC037 11/08 Q1023 R33/CLRD68 RMK MT OBSC,UBBL,2015-04-25T05:00:00Z,38.75,48.82,11.0,8.0,290,4,,6.21,30.206694,,,,,,,,,,-RA,OVC,3700,,,,,,,VFR,,,,,,,,,,,,METAR,10.0
FIMP 250500Z 15014KT 9999 SCT017 27/21 Q1018,FIMP,2015-04-25T05:00:00Z,-20.42,57.67,27.0,21.0,150,14,,6.21,30.059055,,,,,,,,,,,SCT,1700,,,,,,,VFR,,,,,,,,,,,,METAR,57.0
WAJJ 250500Z 14005KT 9999 SCT015TCU 33/23 Q1004,WAJJ,2015-04-25T05:00:00Z,-2.58,140.52,33.0,23.0,140,5,,6.21,29.64567,,,,,,,,,,,SCT,1500,,,,,,,VFR,,,,,,,,,,,,METAR,88.0
GVNP 250500Z 02013KT CAVOK 26/01 Q1013 NOSIG,GVNP,2015-04-25T05:00:00Z,14.95,-23.48,26.0,1.0,20,13,,6.21,29.911417,,,,,,TRUE,,,,,CAVOK,,,,,,,,VFR,,,,,,,,,,,,METAR,70.0
SVBC 250500Z /////KT 9999 FEW010 26/26 Q1013,SVBC,2015-04-25T05:00:00Z,10.12,-64.67,26.0,26.0,,,,6.21,29.911417,,,,,,,,,,,FEW,1000,,,,,,,VFR,,,,,,,,,,,,METAR,7.0
MGSJ 250500Z 00000KT 8000 SCT018 BKN100 29/27 Q1013 A2991 HZ,MGSJ,2015-04-25T05:00:00Z,13.92,-90.83,29.0,27.0,0,0,,4.97,29.911417,,,,,,,,,,HZ,SCT,1800,BKN,10000,,,,,MVFR,,,,,,,,,,,,METAR,9.0
MGPB 250500Z 00000KT CAVOK 26/25 Q1013 A2991,MGPB,2015-04-25T05:00:00Z,15.72,-88.58,26.0,25.0,0,0,,6.21,29.911417,,,,,,,,,,,CAVOK,,,,,,,,VFR,,,,,,,,,,,,METAR,10.0
MGHT 250500Z 00000KT 9000 SKC 18/13 QFE818.5 HZ,MGHT,2015-04-25T05:00:00Z,15.32,-91.5,18.0,13.0,0,0,,5.59,,,,,,,,,,,HZ,SKC,,,,,,,,VFR,,,,,,,,,,,,METAR,1901.0
MGMM 250500Z 12008KT CAVOK 25/21 Q1013 A2991,MGMM,2015-04-25T05:00:00Z,17.07,-89.15,25.0,21.0,120,8,,6.21,29.911417,,,,,,,,,,,CAVOK,,,,,,,,VFR,,,,,,,,,,,,METAR,105.0
NFFN 250500Z 33010KT 9999 FEW030 SCT050 28/21 Q1010 NOSIG,NFFN,2015-04-25T05:00:00Z,-17.75,177.45,28.0,21.0,330,10,,6.21,29.822834,,,,,,TRUE,,,,,FEW,3000,SCT,5000,,,,,VFR,,,,,,,,,,,,METAR,18.0
WSSL 250500Z 34005KT 300V020 9999 SCT018 FEW020TCU SCT280 33/22 Q1010 RMK 0430Z Q1010,WSSL,2015-04-25T05:00:00Z,1.42,103.87,33.0,22.0,340,5,,6.21,29.822834,,,,,,,,,,,SCT,1800,FEW,2000,SCT,28000,,,VFR,,,,,,,,,,,,METAR,14.0
WSAP 250500Z 03005KT 9999 FEW020TCU SCT022 BKN300 33/23 Q1010,WSAP,2015-04-25T05:00:00Z,1.37,103.92,33.0,23.0,30,5,,6.21,29.822834,,,,,,,,,,,FEW,2000,SCT,2200,BKN,30000,,,VFR,,,,,,,,,,,,METAR,32.0
SVMG 250500Z /////KT 9999 FEW010 25/23 Q1012 NOSIG,SVMG,2015-04-25T05:00:00Z,10.92,-63.97,25.0,23.0,,,,6.21,29.88189,,,,,,TRUE,,,,,FEW,1000,,,,,,,VFR,,,,,,,,,,,,METAR,23.0
OEDF 250500Z 34025KT 4000 BLDU SKC 24/09 Q1016 NOSIG,OEDF,2015-04-25T05:00:00Z,26.47,49.8,24.0,9.0,340,25,,2.49,30.0,,,,,,TRUE,,,,BLDU,SKC,,,,,,,,IFR,,,,,,,,,,,,METAR,22.0
OEDR 250500Z 34019G29KT 5000 BLDU SKC 24/08 Q1014 NOSIG,OEDR,2015-04-25T05:00:00Z,26.27,50.17,24.0,8.0,340,19,29,3.11,29.940945,,,,,,TRUE,,,,BLDU,SKC,,,,,,,,MVFR,,,,,,,,,,,,METAR,17.0
OEJN 250500Z 35012KT CAVOK 25/19 Q1010 NOSIG,OEJN,2015-04-25T05:00:00Z,21.68,39.15,25.0,19.0,350,12,,6.21,29.822834,,,,,,TRUE,,,,,CAVOK,,,,,,,,VFR,,,,,,,,,,,,METAR,15.0
OEMA 250500Z 07020KT 6000 SKC 21/M08 Q1021 NOSIG,OEMA,2015-04-25T05:00:00Z,24.55,39.7,21.0,-8.0,70,20,,3.73,30.147638,,,,,,TRUE,,,,,SKC,,,,,,,,MVFR,,,,,,,,,,,,METAR,631.0
OERK 250500Z 01016KT 4000 DU SKC 19/M06 Q1021 NOSIG,OERK,2015-04-25T05:00:00Z,24.95,46.72,19.0,-6.0,10,16,,2.49,30.147638,,,,,,TRUE,,,,DU,SKC,,,,,,,,IFR,,,,,,,,,,,,METAR,612.0
HAAB 250500Z 17005KT 9999 SCT025 17/06 Q1028,HAAB,2015-04-25T05:00:00Z,8.97,38.78,17.0,6.0,170,5,,6.21,30.35433,,,,,,,,,,,SCT,2500,,,,,,,VFR,,,,,,,,,,,,METAR,2355.0
NFNA 250500Z 12008KT 9999 SCT020 26/21 Q1011 ,NFNA,2015-04-25T05:00:00Z,-18.05,178.57,26.0,21.0,120,8,,6.21,29.852362,,,,,,,,,,,SCT,2000,,,,,,,VFR,,,,,,,,,,,,METAR,5.0
NCRG 250500Z 19001KT 9999 FEW025 25/23 Q1013,NCRG,2015-04-25T05:00:00Z,-21.2,-159.82,25.0,23.0,190,1,,6.21,29.911417,,,,,,,,,,,FEW,2500,,,,,,,VFR,,,,,,,,,,,,METAR,7.0
NCAI 250500Z AUTO 22003KT //// ////// 25/24 Q1013,NCAI,2015-04-25T05:00:00Z,-18.82,-159.77,25.0,24.0,220,3,,,29.911417,,,TRUE,,,,,,,,,,,,,,,,,,,,,,,,,,,,METAR,6.0
GBYD 250500Z 27008KT 9000 SKC 20/19 Q1010,GBYD,2015-04-25T05:00:00Z,13.33,-16.65,20.0,19.0,270,8,,5.59,29.822834,,,,,,,,,,,SKC,,,,,,,,VFR,,,,,,,,,,,,METAR,36.0
NCMH 250500Z AUTO NIL,NCMH,2015-04-25T05:00:00Z,-10.38,-161.0,,,,,,,,,,TRUE,,,,,,,,,,,,,,,,,,,,,,,,,,,,METAR,0.0
NCPY 250500Z AUTO 00000KT //// ////// 29/25 Q1009,NCPY,2015-04-25T05:00:00Z,-9.02,-158.07,29.0,25.0,0,0,,,29.793306,,,TRUE,,,,,,,,,,,,,,,,,,,,,,,,,,,,METAR,2.0
SPZO 250500Z 00000KT 9999 NSC 07/03 Q1036 RMK PP000,SPZO,2015-04-25T05:00:00Z,-13.55,-71.97,7.0,3.0,0,0,,6.21,30.590551,,,,,,,,,,,,,,,,,,,,,,,,,,,,,,,METAR,3249.0
SPTN 250500Z VRB02KT 5000 BR SCT010 OVC017 17/16 Q1015 RMK PP000,SPTN,2015-04-25T05:00:00Z,-18.07,-70.28,17.0,16.0,0,2,,3.11,29.970472,,,,,,,,,,BR,SCT,1000,OVC,1700,,,,,MVFR,,,,,,,,,,,,METAR,458.0
SPSO 250500Z 22007KT CAVOK 20/18 Q1013 RMK PP000,SPSO,2015-04-25T05:00:00Z,-13.73,-76.22,20.0,18.0,220,7,,6.21,29.911417,,,,,,,,,,,CAVOK,,,,,,,,VFR,,,,,,,,,,,,METAR,10.0
SPRU 250500Z 11006KT 8000 NSC 20/17 Q1013 RMK PP000,SPRU,2015-04-25T05:00:00Z,-8.08,-79.12,20.0,17.0,110,6,,4.97,29.911417,,,,,,,,,,,,,,,,,,,,,,,,,,,,,,,METAR,30.0
SPQU 250500Z VRB03KT CAVOK 13/08 Q1027 RMK PP000,SPQU,2015-04-25T05:00:00Z,-16.33,-71.57,13.0,8.0,0,3,,6.21,30.324802,,,,,,,,,,,CAVOK,,,,,,,,VFR,,,,,,,,,,,,METAR,2554.0
SPQT 250500Z 25002KT 9999 SCT015 BKN100 24/23 Q1013 RMK PP000,SPQT,2015-04-25T05:00:00Z,-3.78,-73.32,24.0,23.0,250,2,,6.21,29.911417,,,,,,,,,,,SCT,1500,BKN,10000,,,,,VFR,,,,,,,,,,,,METAR,126.0
SPHI 250500Z 17012KT CAVOK 22/19 Q1013 RMK PP000,SPHI,2015-04-25T05:00:00Z,-6.77,-79.82,22.0,19.0,170,12,,6.21,29.911417,,,,,,,,,,,CAVOK,,,,,,,,VFR,,,,,,,,,,,,METAR,34.0
SPCL 250500Z VRB02KT 9999 FEW017 SCT100 25/24 Q1014 RMK PP000,SPCL,2015-04-25T05:00:00Z,-8.38,-74.58,25.0,24.0,0,2,,6.21,29.940945,,,,,,,,,,,FEW,1700,SCT,10000,,,,,VFR,,,,,,,,,,,,METAR,149.0
YOLD 250500Z AUTO 22017G29KT 9999 // SCT038 SCT046 BKN058 19/10 Q1017,YOLD,2015-04-25T05:00:00Z,-30.48,136.88,19.0,10.0,220,17,29,6.21,30.029528,,,TRUE,,,,,,,,SCT,3800,SCT,4600,BKN,5800,,,VFR,,,,,,,,,,,,METAR,105.0
SBSJ 250500Z 20002KT 9999 BKN015 22/18 Q1020,SBSJ,2015-04-25T05:00:00Z,-23.22,-45.87,22.0,18.0,200,2,,6.21,30.11811,,,,,,,,,,,BKN,1500,,,,,,,MVFR,,,,,,,,,,,,METAR,646.0
CYBX 250500Z 06025KT 2SM -DZ BR OVC010 01/01 A2987 RMK SC8 SLP116,CYBX,2015-04-25T05:00:00Z,51.45,-57.17,1.0,1.0,60,25,,2.0,29.870079,1011.6,,,,,,,,,-DZ BR,OVC,1000,,,,,,,IFR,,,,,,,,,,,,SPECI,35.0
CYAH 250500Z AUTO VRB02KT 9SM OVC047 02/M01 A2987 RMK SLP130,CYAH,2015-04-25T05:00:00Z,53.75,-73.67,2.0,-1.0,0,2,,9.0,29.870079,1013.0,,TRUE,,,,,,,,OVC,4700,,,,,,,VFR,,,,,,,,,,,,SPECI,306.0
CZSJ 250500Z AUTO 10009KT 9SM CLR M01/M11 A3002 RMK SLP185,CZSJ,2015-04-25T05:00:00Z,53.07,-93.35,-1.0,-11.0,100,9,,9.0,30.02067,1018.5,,TRUE,,,,,,,,CLR,,,,,,,,VFR,,,,,,,,,,,,METAR,290.0
CZMD 250500Z AUTO 06004KT 9SM CLR M04/M11 A3008 RMK SLP205,CZMD,2015-04-25T05:00:00Z,53.43,-91.77,-4.0,-11.0,60,4,,9.0,30.079725,1020.5,,TRUE,,,,,,,,CLR,,,,,,,,VFR,,,,,,,,,,,,METAR,278.0
CYYU 250500Z 01004KT 15SM BKN075 M01/M07 A3006 RMK AC7 SLP193,CYYU,2015-04-25T05:00:00Z,49.42,-82.47,-1.0,-7.0,10,4,,15.0,30.059055,1019.3,,,,,,,,,,BKN,7500,,,,,,,VFR,,,,,,,,,,,,SPECI,227.0
CYYH 250500Z 05013KT 10SM -SN DRSN SCT012 OVC030 M11/M13 A3058 RMK SC3SC5 VIS SE 3 SLP360,CYYH,2015-04-25T05:00:00Z,69.53,-93.57,-11.0,-13.0,50,13,,10.0,30.578741,1036.0,,,,,,,,,-SN DRSN,SCT,1200,OVC,3000,,,,,MVFR,,,,,,,,,,,,SPECI,28.0
CYYB 250500Z AUTO 00000KT 9SM CLR M02/M05 A2997 RMK SLP168,CYYB,2015-04-25T05:00:00Z,46.35,-79.42,-2.0,-5.0,0,0,,9.0,29.970472,1016.8,,TRUE,,,,,,,,CLR,,,,,,,,VFR,,,,,,,,,,,,SPECI,371.0
CYXU 250500Z 03005KT 15SM SCT250 M00/M07 A3001 RMK CI3 SLP171,CYXU,2015-04-25T05:00:00Z,43.02,-81.15,0.0,-7.0,30,5,,15.0,30.008858,1017.1,,,,,,,,,,SCT,25000,,,,,,,VFR,,,,,,,,,,,,SPECI,278.0
CYXL 250500Z 13005KT 15SM FEW070 BKN110 02/M07 A2999 RMK AC2AC3 SLP172,CYXL,2015-04-25T05:00:00Z,50.12,-91.9,2.0,-7.0,130,5,,15.0,29.991142,1017.2,,,,,,,,,,FEW,7000,BKN,11000,,,,,VFR,,,,,,,,,,,,SPECI,390.0
CYVQ 250500Z 10010G17KT 30SM FEW030 FEW290 03/M07 A3005 RMK SC1CI1 SLP181,CYVQ,2015-04-25T05:00:00Z,65.27,-126.78,3.0,-7.0,100,10,17,30.0,30.050198,1018.1,,,,,,,,,,FEW,3000,FEW,29000,,,,,VFR,,,,,,,,,,,,SPECI,74.0
CYRB 250500Z 10016KT 15SM SCT180 BKN250 M12/M15 A3073 RMK AC4CS2 SLP416,CYRB,2015-04-25T05:00:00Z,74.72,-94.97,-12.0,-15.0,100,16,,15.0,30.72933,1041.6,,,,,,,,,,SCT,18000,BKN,25000,,,,,VFR,,,,,,,,,,,,SPECI,67.0
CYQK 250500Z 13009G16KT 15SM OVC032 04/M02 A2993 RMK SC8 SLP148,CYQK,2015-04-25T05:00:00Z,49.77,-94.37,4.0,-2.0,130,9,16,15.0,29.929134,1014.8,,,,,,,,,,OVC,3200,,,,,,,VFR,,,,,,,,,,,,SPECI,411.0
CYQA 250500Z AUTO 34003KT 9SM CLR M03/M05 A2999 RMK SLP169,CYQA,2015-04-25T05:00:00Z,44.97,-79.28,-3.0,-5.0,340,3,,9.0,29.991142,1016.9,,TRUE,,,,,,,,CLR,,,,,,,,VFR,,,,,,,,,,,,SPECI,282.0
CYOO 250500Z AUTO 35008KT 9SM CLR M01/M06 A2999 RMK SLP160,CYOO,2015-04-25T05:00:00Z,43.92,-78.9,-1.0,-6.0,350,8,,9.0,29.991142,1016.0,,TRUE,,,,,,,,CLR,,,,,,,,VFR,,,,,,,,,,,,METAR,139.0
CYKZ 250500Z 29004KT 15SM SKC M01/M06 A3001 RMK SLP171,CYKZ,2015-04-25T05:00:00Z,43.87,-79.37,-1.0,-6.0,290,4,,15.0,30.008858,1017.1,,,,,,,,,,SKC,,,,,,,,VFR,,,,,,,,,,,,SPECI,198.0
CYKP 250500Z AUTO 03004KT 9SM CLR M05/M09 A3011 RMK SLP211,CYKP,2015-04-25T05:00:00Z,51.67,-85.9,-5.0,-9.0,30,4,,9.0,30.109253,1021.1,,TRUE,,,,,,,,CLR,,,,,,,,VFR,,,,,,,,,,,,METAR,179.0
CYKF 250500Z AUTO 34004KT 9SM CLR M02/M05 A3000 RMK SLP171,CYKF,2015-04-25T05:00:00Z,43.47,-80.38,-2.0,-5.0,340,4,,9.0,30.0,1017.1,,TRUE,,,,,,,,CLR,,,,,,,,VFR,,,,,,,,,,,,SPECI,317.0
CYMH 250500Z AUTO 09003KT 030V100 1/2SM FG VV003 01/00 A3000 RMK SLP160,CYMH,2015-04-25T05:00:00Z,52.28,-55.85,1.0,0.0,90,3,,0.5,30.0,1016.0,,TRUE,,,,,,,FG,OVX,0,,,,,,,LIFR,,,,,,,,,,,300,SPECI,11.0
CYNM 250500Z AUTO 31010KT 9SM OVC011 M04/M06 A2996 RMK ICG INTMT SLP165,CYNM,2015-04-25T05:00:00Z,49.77,-77.82,-4.0,-6.0,310,10,,9.0,29.958662,1016.5,,TRUE,,,,,,,,OVC,1100,,,,,,,MVFR,,,,,,,,,,,,SPECI,281.0
HEMA 250500Z 34018KT CAVOK 20/04 Q1016 NOSIG,HEMA,2015-04-25T05:00:00Z,25.55,34.58,20.0,4.0,340,18,,6.21,30.0,,,,,,TRUE,,,,,CAVOK,,,,,,,,VFR,,,,,,,,,,,,METAR,77.0
HESG 250500Z 30006KT CAVOK 15/M03 Q1017 NOSIG,HESG,2015-04-25T05:00:00Z,26.33,31.75,15.0,-3.0,300,6,,6.21,30.029528,,,,,,TRUE,,,,,CAVOK,,,,,,,,VFR,,,,,,,,,,,,METAR,70.0
HESC 250500Z 00000KT CAVOK 13/M03 Q1024 NOSIG,HESC,2015-04-25T05:00:00Z,28.68,34.07,13.0,-3.0,0,0,,6.21,30.236221,,,,,,TRUE,,,,,CAVOK,,,,,,,,VFR,,,,,,,,,,,,METAR,1332.0
HEBL 250500Z 33009KT CAVOK 16/M04 Q1015 NOSIG,HEBL,2015-04-25T05:00:00Z,22.38,31.62,16.0,-4.0,330,9,,6.21,29.970472,,,,,,TRUE,,,,,CAVOK,,,,,,,,VFR,,,,,,,,,,,,METAR,188.0
HEBA 250500Z 08007KT CAVOK 12/08 Q1022 NOSIG,HEBA,2015-04-25T05:00:00Z,30.92,29.7,12.0,8.0,80,7,,6.21,30.177166,,,,,,TRUE,,,,,CAVOK,,,,,,,,VFR,,,,,,,,,,,,METAR,54.0
HESH 250500Z 01020KT CAVOK 21/08 Q1017 NOSIG,HESH,2015-04-25T05:00:00Z,27.97,34.38,21.0,8.0,10,20,,6.21,30.029528,,,,,,TRUE,,,,,CAVOK,,,,,,,,VFR,,,,,,,,,,,,METAR,50.0
HEPS 250500Z 02010KT CAVOK 15/10 Q1022 NOSIG,HEPS,2015-04-25T05:00:00Z,31.28,32.25,15.0,10.0,20,10,,6.21,30.177166,,,,,,TRUE,,,,,CAVOK,,,,,,,,VFR,,,,,,,,,,,,METAR,6.0
HEGN 250500Z 33011KT CAVOK 18/03 Q1018 NOSIG,HEGN,2015-04-25T05:00:00Z,27.18,33.8,18.0,3.0,330,11,,6.21,30.059055,,,,,,TRUE,,,,,CAVOK,,,,,,,,VFR,,,,,,,,,,,,METAR,14.0
HEAR 250500Z 09006KT CAVOK 15/06 Q1023 NOSIG,HEAR,2015-04-25T05:00:00Z,31.07,33.82,15.0,6.0,90,6,,6.21,30.206694,,,,,,TRUE,,,,,CAVOK,,,,,,,,VFR,,,,,,,,,,,,METAR,32.0
HESN 250500Z 02008KT CAVOK 17/M06 Q1016 NOSIG,HESN,2015-04-25T05:00:00Z,23.97,32.82,17.0,-6.0,20,8,,6.21,30.0,,,,,,TRUE,,,,,CAVOK,,,,,,,,VFR,,,,,,,,,,,,METAR,194.0
HELX 250500Z 00000KT CAVOK 17/01 Q1017 NOSIG,HELX,2015-04-25T05:00:00Z,25.67,32.7,17.0,1.0,0,0,,6.21,30.029528,,,,,,TRUE,,,,,CAVOK,,,,,,,,VFR,,,,,,,,,,,,METAR,88.0
HEAX 250500Z 08004KT CAVOK 15/08 Q1021 NOSIG,HEAX,2015-04-25T05:00:00Z,31.18,29.93,15.0,8.0,80,4,,6.21,30.147638,,,,,,TRUE,,,,,CAVOK,,,,,,,,VFR,,,,,,,,,,,,METAR,7.0
HEMM 250500Z 14008KT CAVOK 13/08 Q1021 NOSIG,HEMM,2015-04-25T05:00:00Z,31.32,27.22,13.0,8.0,140,8,,6.21,30.147638,,,,,,TRUE,,,,,CAVOK,,,,,,,,VFR,,,,,,,,,,,,METAR,30.0
TNCA 250500Z 07015KT 9999 FEW020 27/24 Q1011 A2986 NOSIG,TNCA,2015-04-25T05:00:00Z,12.5,-70.0,27.0,24.0,70,15,,6.21,29.852362,,,,,,TRUE,,,,,FEW,2000,,,,,,,VFR,,,,,,,,,,,,METAR,18.0
GMTN 250500Z AUTO 23010KT R24///// /// 15/11 Q1017,GMTN,2015-04-25T05:00:00Z,35.57,-5.32,15.0,11.0,230,10,,,30.029528,,,TRUE,,,,,,,,,,,,,,,,,,,,,,,,,,,,METAR,10.0
GMTA 250500Z 24002KT 0800 0800NE R17/0800V0900N HZ NSC 14/13 Q1016 REHZ NOSIG,GMTA,2015-04-25T05:00:00Z,35.17,-3.85,14.0,13.0,240,2,,0.5,30.0,,,,,,TRUE,,,,HZ,,,,,,,,,,,,,,,,,,,,,SPECI,14.0
GMMW 250500Z 24004KT 6000 NSC 12/12 Q1016 NOSIG,GMMW,2015-04-25T05:00:00Z,34.98,-3.02,12.0,12.0,240,4,,3.73,30.0,,,,,,TRUE,,,,,,,,,,,,,,,,,,,,,,,,,METAR,175.0
GMML 250500Z 06003KT 9999 SCT023 14/11 Q1018 NOSIG,GMML,2015-04-25T05:00:00Z,27.13,-13.23,14.0,11.0,60,3,,6.21,30.059055,,,,,,TRUE,,,,,SCT,2300,,,,,,,VFR,,,,,,,,,,,,METAR,6.0
GMMI 250500Z AUTO VRB02KT 9999NDV NCD 10/08 Q1017 NOSIG,GMMI,2015-04-25T05:00:00Z,31.4,-9.68,10.0,8.0,0,2,,,30.029528,,,TRUE,,,TRUE,,,,,,,,,,,,,,,,,,,,,,,,,METAR,8.0
GMMB 250500Z AUTO 11004KT //// NCD 11/11 Q1019,GMMB,2015-04-25T05:00:00Z,33.65,-7.63,11.0,11.0,110,4,,,30.088583,,,TRUE,,,,,,,,,,,,,,,,,,,,,,,,,,,,METAR,191.0
GMFO 250500Z 22004KT 9999 FEW020 BKN230 12/10 Q1017 NOSIG,GMFO,2015-04-25T05:00:00Z,34.77,-1.92,12.0,10.0,220,4,,6.21,30.029528,,,,,,TRUE,,,,,FEW,2000,BKN,23000,,,,,VFR,,,,,,,,,,,,METAR,470.0
GMFM 250500Z 00000KT 0600 FG OVC010 09/09 Q1018 BECMG 3000 BR,GMFM,2015-04-25T05:00:00Z,33.87,-5.52,9.0,9.0,0,0,,0.37,30.059055,,,,,,,,,,FG,OVC,1000,,,,,,,LIFR,,,,,,,,,,,,METAR,549.0
GMFK 250500Z 00000KT CAVOK 17/M03 Q1017 NOSIG,GMFK,2015-04-25T05:00:00Z,31.95,-4.4,17.0,-3.0,0,0,,6.21,30.029528,,,,,,TRUE,,,,,CAVOK,,,,,,,,VFR,,,,,,,,,,,,METAR,1045.0
AGGH 250500Z 36006KT 9999 HZ FEW020 BKN300 31/24 Q1007,AGGH,2015-04-25T05:00:00Z,-9.42,160.05,31.0,24.0,360,6,,6.21,29.734253,,,,,,,,,,HZ,FEW,2000,BKN,30000,,,,,VFR,,,,,,,,,,,,METAR,9.0
YCCY 250500Z AUTO 18017KT //// // ////// 28/01 Q1013,YCCY,2015-04-25T05:00:00Z,-20.67,140.5,28.0,1.0,180,17,,,29.911417,,,TRUE,,,,,,,,,,,,,,,,,,,,,,,,,,,,METAR,570.0
YCBB 250500Z AUTO 33014KT //// // ////// 20/07 Q1007,YCBB,2015-04-25T05:00:00Z,-31.33,149.27,20.0,7.0,330,14,,,29.734253,,,TRUE,,,,,,,,,,,,,,,,,,,,,,,,,,,,METAR,645.0
YCBA 250500Z AUTO 32015KT //// // ////// 18/04 Q1007,YCBA,2015-04-25T05:00:00Z,-31.53,145.8,18.0,4.0,320,15,,,29.734253,,,TRUE,,,,,,,,,,,,,,,,,,,,,,,,,,,,METAR,221.0
YCAS 250500Z AUTO 01004KT 320V060 //// // ////// 28/07 Q1006,YCAS,2015-04-25T05:00:00Z,-28.88,153.07,28.0,7.0,10,4,,,29.704725,,,TRUE,,,,,,,,,,,,,,,,,,,,,,,,,,,,METAR,26.0
YCAR 250500Z AUTO 06010KT 9999 // SCT078 OVC097 32/09 Q1014,YCAR,2015-04-25T05:00:00Z,-24.88,113.67,32.0,9.0,60,10,,6.21,29.940945,,,TRUE,,,,,,,,SCT,7800,OVC,9700,,,,,VFR,,,,,,,,,,,,METAR,8.0
YBWX 250500Z AUTO 06023KT //// // ////// 27/15 Q1012,YBWX,2015-04-25T05:00:00Z,-20.88,115.4,27.0,15.0,60,23,,,29.88189,,,TRUE,,,,,,,,,,,,,,,,,,,,,,,,,,,,METAR,6.0
YBWP 250500Z AUTO 20004KT 9999 // SCT044 31/21 Q1008,YBWP,2015-04-25T05:00:00Z,-12.68,141.92,31.0,21.0,200,4,,6.21,29.763779,,,TRUE,,,,,,,,SCT,4400,,,,,,,VFR,,,,,,,,,,,,METAR,12.0
YBUD 250500Z AUTO 01010KT 9999 // NCD 29/13 Q1008,YBUD,2015-04-25T05:00:00Z,-24.9,152.32,29.0,13.0,10,10,,6.21,29.763779,,,TRUE,,,,,,,,,,,,,,,,,,,,,,,,,,,,METAR,82.0
SKPE 250500Z 11010KT 9999 FEW015 SCT200 20/18 A3006,SKPE,2015-04-25T05:00:00Z,4.82,-75.73,20.0,18.0,110,10,,6.21,30.059055,,,,,,,,,,,FEW,1500,SCT,20000,,,,,VFR,,,,,,,,,,,,METAR,1346.0
SKSP 250500Z 07004KT 9999 FEW017 SCT200 2723 A2992,SKSP,2015-04-25T05:00:00Z,12.57,-81.72,,,70,4,,6.21,29.920275,,,,,,,,,,,FEW,1700,SCT,20000,,,,,VFR,,,,,,,,,,,,METAR,-2.0
SKRG 250500Z 00000KT 7000 -DZ BKN008 SCT200 16/15 A3032,SKRG,2015-04-25T05:00:00Z,6.17,-75.42,16.0,15.0,0,0,,4.35,30.318897,,,,,,,,,,-DZ,BKN,800,SCT,20000,,,,,IFR,,,,,,,,,,,,METAR,2137.0
SKCC 250500Z 17012KT 9000 FEW020 SCT090 27/24 A2993 RMK/HZ,SKCC,2015-04-25T05:00:00Z,7.92,-72.52,27.0,24.0,170,12,,5.59,29.929134,,,,,,,,,,,FEW,2000,SCT,9000,,,,,VFR,,,,,,,,,,,,METAR,317.0
SKCG 250500Z 03006KT 9999 FEW015 SCT200 27/24 A2983,SKCG,2015-04-25T05:00:00Z,10.43,-75.52,27.0,24.0,30,6,,6.21,29.828741,,,,,,,,,,,FEW,1500,SCT,20000,,,,,VFR,,,,,,,,,,,,METAR,1.0
SKCL 250500Z 04004KT 9999 SCT015 SCT100 22/19 A3000,SKCL,2015-04-25T05:00:00Z,3.53,-76.37,22.0,19.0,40,4,,6.21,30.0,,,,,,,,,,,SCT,1500,SCT,10000,,,,,VFR,,,,,,,,,,,,METAR,969.0
SKBO 250500Z 02005KT 9999 BKN020 13/10 A3037,SKBO,2015-04-25T05:00:00Z,4.7,-74.12,13.0,10.0,20,5,,6.21,30.369095,,,,,,,,,,,BKN,2000,,,,,,,MVFR,,,,,,,,,,,,METAR,2548.0
FWCL 250500Z 20005KT 9999 FEW022 SCT080 22/12 Q1023 NOSIG,FWCL,2015-04-25T05:00:00Z,-15.67,34.97,22.0,12.0,200,5,,6.21,30.206694,,,,,,TRUE,,,,,FEW,2200,SCT,8000,,,,,VFR,,,,,,,,,,,,SPECI,767.0
KPAH 250500Z AUTO 16005KT 10SM OVC014 14/11 A2978 RMK AO2 T01440106 TSNO,KPAH,2015-04-25T05:00:00Z,37.07,-88.77,14.4,10.6,160,5,,10.0,29.778543,,,TRUE,TRUE,,,TRUE,,,,OVC,1400,,,,,,,MVFR,,,,,,,,,,,,METAR,119.0
WBGB 250500Z 32004KT 9999 SCT014 FEW015CB SCT150 BKN300 31/26 Q1009,WBGB,2015-04-25T05:00:00Z,3.12,113.02,31.0,26.0,320,4,,6.21,29.793306,,,,,,,,,,,SCT,1400,FEW,1500,SCT,15000,BKN,30000,VFR,,,,,,,,,,,,METAR,5.0
WMKN 250500Z 03003KT 9999 SCT018 BKN260 30/26 Q1011,WMKN,2015-04-25T05:00:00Z,5.37,103.08,30.0,26.0,30,3,,6.21,29.852362,,,,,,,,,,,SCT,1800,BKN,26000,,,,,VFR,,,,,,,,,,,,METAR,6.0
WMKM 250500Z 34004KT 270V010 9999 SCT020 SCT140 BKN280 32/25 Q1010,WMKM,2015-04-25T05:00:00Z,2.27,102.25,32.0,25.0,340,4,,6.21,29.822834,,,,,,,,,,,SCT,2000,SCT,14000,BKN,28000,,,VFR,,,,,,,,,,,,METAR,9.0
WMKL 250500Z 10006KT 9999 FEW022 SCT140 BKN260 32/24 Q1010,WMKL,2015-04-25T05:00:00Z,6.32,99.72,32.0,24.0,100,6,,6.21,29.822834,,,,,,,,,,,FEW,2200,SCT,14000,BKN,26000,,,VFR,,,,,,,,,,,,METAR,7.0
WMKI 250500Z 03005KT 330V080 9999 FEW020 BKN280 32/24 Q1010,WMKI,2015-04-25T05:00:00Z,4.57,101.08,32.0,24.0,30,5,,6.21,29.822834,,,,,,,,,,,FEW,2000,BKN,28000,,,,,VFR,,,,,,,,,,,,METAR,39.0
WMKE 250500Z 33004KT 9999 FEW018 SCT140 BKN240 29/25 Q1010,WMKE,2015-04-25T05:00:00Z,4.53,103.43,29.0,25.0,330,4,,6.21,29.822834,,,,,,,,,,,FEW,1800,SCT,14000,BKN,24000,,,VFR,,,,,,,,,,,,METAR,5.0
WMKD 250500Z 05004KT 9999 SCT018 SCT160 BKN280 30/26 Q1011 BECMG -SHRA,WMKD,2015-04-25T05:00:00Z,3.77,103.22,30.0,26.0,50,4,,6.21,29.852362,,,,,,,,,,,SCT,1800,SCT,16000,BKN,28000,,,VFR,,,,,,,,,,,,SPECI,16.0
WMKC 250500Z 07007KT 010V110 9999 FEW017CB SCT018 BKN280 32/26 Q1011,WMKC,2015-04-25T05:00:00Z,6.17,102.27,32.0,26.0,70,7,,6.21,29.852362,,,,,,,,,,,FEW,1700,SCT,1800,BKN,28000,,,VFR,,,,,,,,,,,,METAR,5.0
WMKB 250500Z 01003KT 7000 FEW020 SCT140 BKN270 31/26 Q1010 NOSIG,WMKB,2015-04-25T05:00:00Z,5.47,100.37,31.0,26.0,10,3,,4.35,29.822834,,,,,,TRUE,,,,,FEW,2000,SCT,14000,BKN,27000,,,MVFR,,,,,,,,,,,,METAR,4.0
WMBA 250500Z 36001KT 9999 SCT020 BKN260 31/25 Q1010,WMBA,2015-04-25T05:00:00Z,4.22,100.7,31.0,25.0,360,1,,6.21,29.822834,,,,,,,,,,,SCT,2000,BKN,26000,,,,,VFR,,,,,,,,,,,,METAR,8.0
WMAU 250500Z 02007KT 9999 FEW018 BKN140 30/25 Q//// QFF1010,WMAU,2015-04-25T05:00:00Z,2.38,103.88,30.0,25.0,20,7,,6.21,,,,,,,,,,,,FEW,1800,BKN,14000,,,,,VFR,,,,,,,,,,,,SPECI,45.0
SAZN 250500Z 00000KT 2000 VA 09/08 Q1016 RERMK CENIZA VOLCANICA SUSPENSION Y DEPOSITO,SAZN,2015-04-25T05:00:00Z,-38.95,-68.15,9.0,8.0,0,0,,1.24,30.0,,,,,,,,,,VA IC PE SN,,,,,,,,,,,,,,,,,,,,,METAR,271.0
SAVC 250500Z 32009KT CAVOK 19/11 Q1009,SAVC,2015-04-25T05:00:00Z,-45.77,-67.47,19.0,11.0,320,9,,6.21,29.793306,,,,,,,,,,,CAVOK,,,,,,,,VFR,,,,,,,,,,,,METAR,46.0
SARE 250500Z 05002KT CAVOK 15/14 Q1021,SARE,2015-04-25T05:00:00Z,-27.43,-59.03,15.0,14.0,50,2,,6.21,30.147638,,,,,,,,,,,CAVOK,,,,,,,,VFR,,,,,,,,,,,,METAR,52.0
SACO 250500Z 36005KT CAVOK 16/11 Q1023,SACO,2015-04-25T05:00:00Z,-31.32,-64.22,16.0,11.0,360,5,,6.21,30.206694,,,,,,,,,,,CAVOK,,,,,,,,VFR,,,,,,,,,,,,METAR,474.0
WMSA 250500Z 26003KT 9999 FEW018 SCT140 BKN280 33/22 Q1010,WMSA,2015-04-25T05:00:00Z,3.13,101.55,33.0,22.0,260,3,,6.21,29.822834,,,,,,,,,,,FEW,1800,SCT,14000,BKN,28000,,,VFR,,,,,,,,,,,,METAR,27.0
WMKJ 250500Z 36006KT 9999 SCT018 SCT140 BKN280 33/25 Q1010,WMKJ,2015-04-25T05:00:00Z,1.62,103.67,33.0,25.0,360,6,,6.21,29.822834,,,,,,,,,,,SCT,1800,SCT,14000,BKN,28000,,,VFR,,,,,,,,,,,,METAR,40.0
TTPP 250500Z 11005KT 9999 FEW014 25/23 Q1013 NOSIG,TTPP,2015-04-25T05:00:00Z,10.58,-61.35,25.0,23.0,110,5,,6.21,29.911417,,,,,,TRUE,,,,,FEW,1400,,,,,,,VFR,,,,,,,,,,,,METAR,15.0
PLCH 250500Z 27006KT 9999 DZ SCT016CB SCT040 BKN300 26/25 Q1009,PLCH,2015-04-25T05:00:00Z,1.98,-157.35,26.0,25.0,270,6,,6.21,29.793306,,,,,,,,,,DZ,SCT,1600,SCT,4000,BKN,30000,,,VFR,,,,,,,,,,,,METAR,3.0
ZUUU 250500Z VRB01MPS 8000 FEW026TCU SCT026 26/14 Q1020 NOSIG,ZUUU,2015-04-25T05:00:00Z,30.58,103.95,26.0,14.0,0,2,,4.97,30.11811,,,,,,TRUE,,,,,FEW,2600,SCT,2600,,,,,MVFR,,,,,,,,,,,,METAR,508.0
ZUGY 250500Z 34002MPS 290V050 9999 SCT030 19/12 Q1023 NOSIG,ZUGY,2015-04-25T05:00:00Z,26.53,106.8,19.0,12.0,340,4,,6.21,30.206694,,,,,,TRUE,,,,,SCT,3000,,,,,,,VFR,,,,,,,,,,,,METAR,1074.0
ZSQD 250500Z 17006MPS CAVOK 27/03 Q1018 NOSIG,ZSQD,2015-04-25T05:00:00Z,36.27,120.38,27.0,3.0,170,12,,6.21,30.059055,,,,,,TRUE,,,,,CAVOK,,,,,,,,VFR,,,,,,,,,,,,METAR,77.0
ZSNB 250500Z 15004MPS 050V220 CAVOK 27/09 Q1019 NOSIG,ZSNB,2015-04-25T05:00:00Z,29.83,121.47,27.0,9.0,150,8,,6.21,30.088583,,,,,,TRUE,,,,,CAVOK,,,,,,,,VFR,,,,,,,,,,,,METAR,4.0
ZSFZ 250500Z 03007MPS 9000 OVC041 19/12 Q1020 NOSIG,ZSFZ,2015-04-25T05:00:00Z,25.93,119.67,19.0,12.0,30,14,,5.59,30.11811,,,,,,TRUE,,,,,OVC,4100,,,,,,,VFR,,,,,,,,,,,,METAR,85.0
ZSAM 250500Z 12006MPS 080V150 CAVOK 27/15 Q1017 NOSIG,ZSAM,2015-04-25T05:00:00Z,24.53,118.13,27.0,15.0,120,12,,6.21,30.029528,,,,,,TRUE,,,,,CAVOK,,,,,,,,VFR,,,,,,,,,,,,METAR,139.0
ZPPP 250500Z 04004MPS 0900 R22/0800V1000U R21/0800V0900N FG VV002 11/11 Q1028 NOSIG,ZPPP,2015-04-25T05:00:00Z,25.0,102.75,11.0,11.0,40,8,,0.56,30.35433,,,,,,TRUE,,,,FG,OVX,0,,,,,,,LIFR,,,,,,,,,,,200,METAR,1892.0
ZLXY 250500Z 09002MPS 030V150 5000 HZ NSC 25/13 Q1019 NOSIG,ZLXY,2015-04-25T05:00:00Z,34.43,108.75,25.0,13.0,90,4,,3.11,30.088583,,,,,,TRUE,,,,HZ,,,,,,,,,,,,,,,,,,,,,METAR,479.0
ZGSZ 250500Z 20004MPS 6000 FEW033 26/20 Q1016 NOSIG,ZGSZ,2015-04-25T05:00:00Z,22.63,113.8,26.0,20.0,200,8,,3.73,30.0,,,,,,TRUE,,,,,FEW,3300,,,,,,,MVFR,,,,,,,,,,,,METAR,18.0
CYOY 250500Z AUTO 26009KT 9SM OVC033 OVC084 02/M02 A2964 RMK SLP043,CYOY,2015-04-25T05:00:00Z,46.88,-71.5,2.0,-2.0,260,9,,9.0,29.639763,1004.3,,TRUE,,,,,,,,OVC,3300,OVC,8400,,,,,VFR,,,,,,,,,,,,SPECI,168.0
CYPX 250500Z AUTO 09017G23KT 9SM OVC009 M02/M03 A3020 RMK SLP228,CYPX,2015-04-25T05:00:00Z,60.03,-77.27,-2.0,-3.0,90,17,23,9.0,30.200787,1022.8,,TRUE,,,,,,,,OVC,900,,,,,,,IFR,,,,,,,,,,,,SPECI,23.0
CYQI 250500Z 34012KT 15SM BKN025 OVC050 04/01 A2962 RMK SC5SC3 SLP033,CYQI,2015-04-25T05:00:00Z,43.83,-66.08,4.0,1.0,340,12,,15.0,29.619095,1003.3,,,,,,,,,,BKN,2500,OVC,5000,,,,,MVFR,,,,,,,,,,,,SPECI,43.0
CYUY 250500Z 34009KT 15SM SCT018 OVC050 M03/M06 A2998 RMK SC3SC5 SLP172,CYUY,2015-04-25T05:00:00Z,48.2,-78.82,-3.0,-6.0,340,9,,15.0,29.97933,1017.2,,,,,,,,,,SCT,1800,OVC,5000,,,,,VFR,,,,,,,,,,,,SPECI,301.0
CYWK 250500Z AUTO 04007KT 9SM -RA OVC012 02/01 A2979 RMK SLP111,CYWK,2015-04-25T05:00:00Z,52.92,-66.87,2.0,1.0,40,7,,9.0,29.790354,1011.1,,TRUE,,,,,,,-RA,OVC,1200,,,,,,,MVFR,,,,,,,,,,,,SPECI,551.0
CWFD 250500Z AUTO 32016KT 9SM FEW060 M14/ A3019 RMK SLP311,CWFD,2015-04-25T05:00:00Z,66.57,-61.58,-14.0,,320,16,,9.0,30.188976,1031.1,,TRUE,,,,,,,,FEW,6000,,,,,,,VFR,,,,,,,,,,,,SPECI,393.0
CWKP 250500Z AUTO 12014KT M12/ A3026 RMK SLP287,CWKP,2015-04-25T05:00:00Z,69.67,-121.67,-12.0,,120,14,,,30.259842,1028.7,,TRUE,,,,,,,,,,,,,,,,,,,,,,,,,,,,METAR,330.0
CWRH 250500Z AUTO ///// M11/ A3038 RMK SLP331,CWRH,2015-04-25T05:00:00Z,61.57,-64.65,-11.0,,,,,,30.380905,1033.1,,TRUE,,,,,,,,,,,,,,,,,,,,,,,,,,,,SPECI,369.0
CWTU 250500Z AUTO 12018KT M01/ A2999 RMK SLP186,CWTU,2015-04-25T05:00:00Z,54.72,-58.35,-1.0,,120,18,,,29.991142,1018.6,,TRUE,,,,,,,,,,,,,,,,,,,,,,,,,,,,SPECI,683.0
CWSA 250500Z AUTO 17005KT 9SM CLR 07/ A2960 RMK SLP022,CWSA,2015-04-25T05:00:00Z,43.93,-60.0,7.0,,170,5,,9.0,29.601377,1002.2,,TRUE,,,,,,,,CLR,,,,,,,,VFR,,,,,,,,,,,,SPECI,4.0
CWYM 250500Z AUTO ///// M14/ A3037 RMK SLP351,CWYM,2015-04-25T05:00:00Z,64.95,-63.57,-14.0,,,,,,30.369095,1035.1,,TRUE,,,,,,,,,,,,,,,,,,,,,,,,,,,,SPECI,583.0
CWXR 250500Z AUTO 13017KT M18/ A3042 RMK SLP317,CWXR,2015-04-25T05:00:00Z,69.27,-119.22,-18.0,,130,17,,,30.41929,1031.7,,TRUE,,,,,,,,,,,,,,,,,,,,,,,,,,,,SPECI,69.0
CYPD 250500Z AUTO VRB02KT 9SM OVC006 01/00 A2957 RMK SLP019,CYPD,2015-04-25T05:00:00Z,45.67,-61.37,1.0,0.0,0,2,,9.0,29.568897,1001.9,,TRUE,,,,,,,,OVC,600,,,,,,,IFR,,,,,,,,,,,,METAR,114.0
CZPC 250500Z AUTO 25015KT 9SM BKN250 03/M06 A2971 RMK SLP078,CZPC,2015-04-25T05:00:00Z,49.52,-114.0,3.0,-6.0,250,15,,9.0,29.71063,1007.8,,TRUE,,,,,,,,BKN,25000,,,,,,,VFR,,,,,,,,,,,,SPECI,1190.0
CZUM 250500Z AUTO 08008KT 9SM OVC009 03/02 A2988 RMK SLP137,CZUM,2015-04-25T05:00:00Z,53.53,-64.08,3.0,2.0,80,8,,9.0,29.878937,1013.7,,TRUE,,,,,,,,OVC,900,,,,,,,IFR,,,,,,,,,,,,SPECI,440.0
CXTO 250500Z AUTO 01/M06 RMK AO1 SLP167 T00091058 56003,CXTO,2015-04-25T05:00:00Z,43.67,-79.4,0.9,-5.8,,,,,,1016.7,,TRUE,TRUE,,,,,,,,,,,,,,,,-0.3,,,,,,,,,,,METAR,113.0
CXVN 250500Z AUTO 35006KT 02/M04 RMK AO1 SLP164 T00151035 50000,CXVN,2015-04-25T05:00:00Z,43.18,-79.4,1.5,-3.5,350,6,,,,1016.4,,TRUE,TRUE,,,,,,,,,,,,,,,,0.0,,,,,,,,,,,METAR,79.0
CZZJ 250500Z AUTO 07005KT M00/M00 RMK AO1 8PAST HR SOG 03 1014 SLP120 P0003 T10031003 50039,CZZJ,2015-04-25T05:00:00Z,53.58,-116.47,-0.3,-0.3,70,5,,,,1012.0,,TRUE,TRUE,,,,,,,,,,,,,,,,3.9,,,,,0.03,,,,,,METAR,927.0
CWIJ 250500Z AUTO 07005KT M19/M22 RMK AO1 SOG 76 8002 SLP338 T11911215,CWIJ,2015-04-25T05:00:00Z,65.77,-111.23,-19.1,-21.5,70,5,,,,1033.8,,TRUE,TRUE,,,,,,,,,,,,,,,,,,,,,,,,,,,METAR,500.0
CXDI 250500Z AUTO 00000KT M03/M04 RMK AO1 SLP164 T10331043 56007,CXDI,2015-04-25T05:00:00Z,42.87,-80.55,-3.3,-4.3,0,0,,,,1016.4,,TRUE,TRUE,,,,,,,,,,,,,,,,-0.7,,,,,,,,,,,METAR,232.0
CXDW 250500Z AUTO 12010KT 05/01 RMK AO1 T00530005,CXDW,2015-04-25T05:00:00Z,49.4,-98.32,5.3,0.5,120,10,,,,,,TRUE,TRUE,,,,,,,,,,,,,,,,,,,,,,,,,,,METAR,341.0
CXGH 250500Z AUTO 12008KT 02/M01 RMK AO1 T00211007,CXGH,2015-04-25T05:00:00Z,50.63,-97.0,2.1,-0.7,120,8,,,,,,TRUE,TRUE,,,,,,,,,,,,,,,,,,,,,,,,,,,METAR,217.0
CXLL 250500Z AUTO 05002KT M02/M08 RMK AO1 SOG 02 3008 SLP221 T10201080,CXLL,2015-04-25T05:00:00Z,61.12,-122.85,-2.0,-8.0,50,2,,,,1022.1,,TRUE,TRUE,,,,,,,,,,,,,,,,,,,,,,,,,,,METAR,183.0
CXOX 250500Z AUTO 07005KT M03/M07 RMK AO1 SOG 00 1014 SLP177 T10311067,CXOX,2015-04-25T05:00:00Z,55.15,-105.27,-3.1,-6.7,70,5,,,,1017.7,,TRUE,TRUE,,,,,,,,,,,,,,,,,,,,,,,,,,,METAR,379.0
CXSR 250500Z AUTO 02006KT M02/M06 RMK AO1 SOG 07 1017 SLP153 T10161060,CXSR,2015-04-25T05:00:00Z,55.7,-119.23,-1.6,-6.0,20,6,,,,1015.3,,TRUE,TRUE,,,,,,,,,,,,,,,,,,,,,,,,,,,METAR,1015.0
CYPY 250500Z AUTO 06006KT 9SM CLR M07/M11 A3016 RMK SLP234,CYPY,2015-04-25T05:00:00Z,58.77,-111.12,-7.0,-11.0,60,6,,9.0,30.159449,1023.4,,TRUE,,,,,,,,CLR,,,,,,,,VFR,,,,,,,,,,,,SPECI,232.0
CYPA 250500Z 06012G18KT 15SM -SN BKN015 OVC026 M01/M04 A2991 RMK SC6SC2 SLP151,CYPA,2015-04-25T05:00:00Z,53.22,-105.67,-1.0,-4.0,60,12,18,15.0,29.911417,1015.1,,,,,,,,,-SN,BKN,1500,OVC,2600,,,,,MVFR,,,,,,,,,,,,SPECI,428.0
CYOJ 250500Z AUTO 12005KT 9SM CLR M01/M13 A3010 RMK SLP213,CYOJ,2015-04-25T05:00:00Z,58.62,-117.17,-1.0,-13.0,120,5,,9.0,30.100393,1021.3,,TRUE,,,,,,,,CLR,,,,,,,,VFR,,,,,,,,,,,,SPECI,338.0
CYNE 250500Z AUTO 12007KT 9SM OVC095 03/M07 A2993 RMK SLP147,CYNE,2015-04-25T05:00:00Z,53.97,-97.82,3.0,-7.0,120,7,,9.0,29.929134,1014.7,,TRUE,,,,,,,,OVC,9500,,,,,,,VFR,,,,,,,,,,,,SPECI,223.0
CYMM 250500Z AUTO 35004KT 320V030 9SM CLR M01/M16 A3004 RMK SLP193,CYMM,2015-04-25T05:00:00Z,56.65,-111.22,-1.0,-16.0,350,4,,9.0,30.041338,1019.3,,TRUE,,,,,,,,CLR,,,,,,,,VFR,,,,,,,,,,,,SPECI,369.0
CYLL 250500Z AUTO 07013G19KT 9SM BKN014 OVC023 01/M02 A2983 RMK SLP131,CYLL,2015-04-25T05:00:00Z,53.32,-110.07,1.0,-2.0,70,13,19,9.0,29.828741,1013.1,,TRUE,,,,,,,,BKN,1400,OVC,2300,,,,,MVFR,,,,,,,,,,,,SPECI,669.0
CYKJ 250500Z AUTO 07003KT 9SM CLR M09/M14 A3004 RMK SLP212,CYKJ,2015-04-25T05:00:00Z,57.25,-105.62,-9.0,-14.0,70,3,,9.0,30.041338,1021.2,,TRUE,,,,,,,,CLR,,,,,,,,VFR,,,,,,,,,,,,SPECI,509.0
CYGX 250500Z 09004KT 050V110 15SM BKN025 M05/M12 A3014 RMK SC7 SLP218,CYGX,2015-04-25T05:00:00Z,56.35,-94.7,-5.0,-12.0,90,4,,15.0,30.138779,1021.8,,,,,,,,,,BKN,2500,,,,,,,MVFR,,,,,,,,,,,,SPECI,145.0
CYET 250500Z AUTO 06008KT 1 1/4SM -SN BKN004 OVC008 00/00 A2979 RMK ICG SLP123,CYET,2015-04-25T05:00:00Z,53.57,-116.47,0.0,0.0,60,8,,1.25,29.790354,1012.3,,TRUE,,,,,,,-SN,BKN,400,OVC,800,,,,,LIFR,,,,,,,,,,,,SPECI,925.0
CYEN 250500Z 11010KT 15SM OVC080 11/03 A2969 RMK AC8 SLP066 DENSITY ALT 2000FT,CYEN,2015-04-25T05:00:00Z,49.22,-102.97,11.0,3.0,110,10,,15.0,29.68996,1006.6,,,,,,,,,,OVC,8000,,,,,,,VFR,,,,,,,,,,,,SPECI,581.0
CYDN 250500Z AUTO 10007KT 9SM OVC085 08/01 A2982 RMK SLP107,CYDN,2015-04-25T05:00:00Z,51.1,-100.03,8.0,1.0,100,7,,9.0,29.819881,1010.7,,TRUE,,,,,,,,OVC,8500,,,,,,,VFR,,,,,,,,,,,,SPECI,305.0
CYBU 250500Z AUTO 36015KT 9SM OVC012 M02/M03 A2993 RMK SLP157,CYBU,2015-04-25T05:00:00Z,53.32,-104.0,-2.0,-3.0,360,15,,9.0,29.929134,1015.7,,TRUE,,,,,,,,OVC,1200,,,,,,,MVFR,,,,,,,,,,,,SPECI,374.0
CYBR 250500Z 10008KT 15SM FEW250 03/00 A2982 RMK CI1 SLP113,CYBR,2015-04-25T05:00:00Z,49.92,-99.95,3.0,0.0,100,8,,15.0,29.819881,1011.3,,,,,,,,,,FEW,25000,,,,,,,VFR,,,,,,,,,,,,METAR,409.0
CYBQ 250500Z AUTO 21006KT 9SM CLR M09/M14 A3006 RMK SLP205,CYBQ,2015-04-25T05:00:00Z,58.7,-98.5,-9.0,-14.0,210,6,,9.0,30.059055,1020.5,,TRUE,,,,,,,,CLR,,,,,,,,VFR,,,,,,,,,,,,METAR,262.0
CYBK 250500Z 08017G22KT 5SM -SN DRSN OVC012 M03/M04 A3027 RMK SC8 SLP254,CYBK,2015-04-25T05:00:00Z,64.28,-96.07,-3.0,-4.0,80,17,22,5.0,30.268702,1025.4,,,,,,,,,-SN DRSN,OVC,1200,,,,,,,MVFR,,,,,,,,,,,,SPECI,18.0
CWHN 250500Z AUTO 03003KT 320V070 9SM CLR M01/M08 A2991 RMK SLP161,CWHN,2015-04-25T05:00:00Z,54.88,-109.97,-1.0,-8.0,30,3,,9.0,29.911417,1016.1,,TRUE,,,,,,,,CLR,,,,,,,,VFR,,,,,,,,,,,,METAR,636.0
CYQL 250500Z AUTO 26012KT 9SM SCT240 05/M07 A2969 RMK SLP075,CYQL,2015-04-25T05:00:00Z,49.63,-112.8,5.0,-7.0,260,12,,9.0,29.68996,1007.5,,TRUE,,,,,,,,SCT,24000,,,,,,,VFR,,,,,,,,,,,,SPECI,929.0
CYQF 250500Z 02010KT 1SM -SN BR BKN006 OVC013 00/M00 A2978 RMK ST6SC2 /S01/ SLP118,CYQF,2015-04-25T05:00:00Z,52.17,-113.9,0.0,0.0,20,10,,1.0,29.778543,1011.8,,,,,,,,,-SN BR,BKN,600,OVC,1300,,,,,IFR,,,,,,,,,,,,SPECI,905.0
SADF 250500Z 32003KT CAVOK 15/13 Q1020,SADF,2015-04-25T05:00:00Z,-34.45,-58.58,15.0,13.0,320,3,,6.21,30.11811,,,,,,,,,,,CAVOK,,,,,,,,VFR,,,,,,,,,,,,METAR,4.0
TNCM 250500Z 00000KT 9999 FEW020 BKN040 26/23 Q1015 A2997,TNCM,2015-04-25T05:00:00Z,18.05,-63.12,26.0,23.0,0,0,,6.21,29.970472,,,,,,,,,,,FEW,2000,BKN,4000,,,,,VFR,,,,,,,,,,,,METAR,4.0
CWXC 250500Z AUTO 01006KT 01/01 RMK AO1 2PAST HR 5005 SLP038 P0001 T00130010 50005,CWXC,2015-04-25T05:00:00Z,48.88,-71.03,1.3,1.0,10,6,,,,1003.8,,TRUE,TRUE,,,,,,,,,,,,,,,,0.5,,,,,0.01,,,,,,METAR,300.0
CWVI 250500Z AUTO 07012KT 03/M02 RMK AO1 PK WND 08019/0409 SLP120 T00271022 51012,CWVI,2015-04-25T05:00:00Z,53.52,-112.1,2.7,-2.2,70,12,,,,1012.0,,TRUE,TRUE,,,,,,,,,,,,,,,,1.2,,,,,,,,,,,METAR,639.0
CTNK 250500Z AUTO 32001KT M01/M06 RMK AO1 SLP158 T10071064 53003,CTNK,2015-04-25T05:00:00Z,45.53,-78.27,-0.7,-6.4,320,1,,,,1015.8,,TRUE,TRUE,,,,,,,,,,,,,,,,0.3,,,,,,,,,,,METAR,410.0
CWEK 250500Z AUTO 20011KT 09/ RMK AO1 T0088 53016,CWEK,2015-04-25T05:00:00Z,54.58,-130.7,8.8,,200,11,,,,,,TRUE,TRUE,,,,,,,,,,,,,,,,1.6,,,,,,,,,,,METAR,8.0
CWLB 250500Z AUTO 06006KT 02/M06 RMK AO1 SOG 02 2020 SLP147 T00181062,CWLB,2015-04-25T05:00:00Z,54.77,-112.02,1.8,-6.2,60,6,,,,1014.7,,TRUE,TRUE,,,,,,,,,,,,,,,,,,,,,,,,,,,METAR,567.0
CWAQ 250500Z AUTO 11007KT 11/02 RMK AO1 SLP030 T01140018 51005,CWAQ,2015-04-25T05:00:00Z,49.05,-105.48,11.4,1.8,110,7,,,,1003.0,,TRUE,TRUE,,,,,,,,,,,,,,,,0.5,,,,,,,,,,,METAR,756.0
OIAD 250500Z 00000KT 7000 SKC 19/02 Q1017 A3004,OIAD,2015-04-25T05:00:00Z,32.43,48.4,19.0,2.0,0,0,,4.35,30.029528,,,,,,,,,,,SKC,,,,,,,,MVFR,,,,,,,,,,,,METAR,143.0
OIAM 250500Z 32021KT CAVOK 20/01 Q1017,OIAM,2015-04-25T05:00:00Z,30.55,49.15,20.0,1.0,320,21,,6.21,30.029528,,,,,,,,,,,CAVOK,,,,,,,,VFR,,,,,,,,,,,,METAR,4.0
OIAG 250500Z 32012KT 9999 FEW040 20/M06 Q1017,OIAG,2015-04-25T05:00:00Z,30.77,49.67,20.0,-6.0,320,12,,6.21,30.029528,,,,,,,,,,,FEW,4000,,,,,,,VFR,,,,,,,,,,,,METAR,29.0
OITM 250500Z 00000KT 9999 FEW035TCU FEW040 06/M02 Q1022,OITM,2015-04-25T05:00:00Z,37.35,46.15,6.0,-2.0,0,0,,6.21,30.177166,,,,,,,,,,,FEW,3500,FEW,4000,,,,,VFR,,,,,,,,,,,,METAR,1340.0
OINE 250500Z 20014KT 2000 -RA BKN010 OVC080 11/10 Q1020,OINE,2015-04-25T05:00:00Z,37.38,55.45,11.0,10.0,200,14,,1.24,30.11811,,,,,,,,,,-RA,BKN,1000,OVC,8000,,,,,IFR,,,,,,,,,,,,METAR,130.0
OIMQ 250500Z 25004KT 9999 FEW040 SCT200 29/02 Q1012,OIMQ,2015-04-25T05:00:00Z,35.23,58.47,29.0,2.0,250,4,,6.21,29.88189,,,,,,,,,,,FEW,4000,SCT,20000,,,,,VFR,,,,,,,,,,,,METAR,1140.0
OIMD 250500Z 27004KT 8000 FEW035 SCT100 OVC170 30/02 Q1009,OIMD,2015-04-25T05:00:00Z,34.38,58.63,30.0,2.0,270,4,,4.97,29.793306,,,,,,,,,,,FEW,3500,SCT,10000,OVC,17000,,,MVFR,,,,,,,,,,,,METAR,1100.0
OIMC 250500Z 30020KT 2000 SA NSC 22/11 Q1007,OIMC,2015-04-25T05:00:00Z,36.5,61.07,22.0,11.0,300,20,,1.24,29.734253,,,,,,,,,,SA,,,,,,,,,,,,,,,,,,,,,METAR,288.0
OIIK 250500Z 00000KT CAVOK 13/M06 Q1019,OIIK,2015-04-25T05:00:00Z,36.25,50.05,13.0,-6.0,0,0,,6.21,30.088583,,,,,,,,,,,CAVOK,,,,,,,,VFR,,,,,,,,,,,,METAR,1278.0
OIMB 250500Z 00000KT 8000 NSC 27/M01 Q1018,OIMB,2015-04-25T05:00:00Z,32.9,59.28,27.0,-1.0,0,0,,4.97,30.059055,,,,,,,,,,,,,,,,,,,,,,,,,,,,,,,METAR,1491.0
OIIP 250500Z 32018KT CAVOK 11/M09 Q1017,OIIP,2015-04-25T05:00:00Z,35.78,50.83,11.0,-9.0,320,18,,6.21,30.029528,,,,,,,,,,,CAVOK,,,,,,,,VFR,,,,,,,,,,,,METAR,1271.0
OIBV 250500Z 29019KT 5000 SA NSC 27/19 Q1009,OIBV,2015-04-25T05:00:00Z,26.82,53.35,27.0,19.0,290,19,,3.11,29.793306,,,,,,,,,,SA,,,,,,,,,,,,,,,,,,,,,METAR,24.0
OIBA 250500Z 27006KT 4000 HZ SKC 28/22 Q1008,OIBA,2015-04-25T05:00:00Z,25.88,55.03,28.0,22.0,270,6,,2.49,29.763779,,,,,,,,,,HZ,SKC,,,,,,,,IFR,,,,,,,,,,,,METAR,7.0
RPMZ 250500Z 16006KT 9999 SCT017CB BKN100 35/26 Q1010 RMK A2983 CB W N-NW,RPMZ,2015-04-25T05:00:00Z,6.92,122.07,35.0,26.0,160,6,,6.21,29.822834,,,,,,,,,,,SCT,1700,BKN,10000,,,,,VFR,,,,,,,,,,,,METAR,6.0
RPLC 250500Z 12006KT 9999 SCT020 BKN090 32/20 Q1012 NOSIG RMK A2988,RPLC,2015-04-25T05:00:00Z,15.17,120.58,32.0,20.0,120,6,,6.21,29.88189,,,,,,TRUE,,,,,SCT,2000,BKN,9000,,,,,VFR,,,,,,,,,,,,METAR,196.0
OIZI 250500Z 00000KT 6000 NSC 34/02 Q1012,OIZI,2015-04-25T05:00:00Z,27.23,60.72,34.0,2.0,0,0,,3.73,29.88189,,,,,,,,,,,,,,,,,,,,,,,,,,,,,,,METAR,591.0
OIZB 250500Z 00000KT CAVOK 29/10 Q1010,OIZB,2015-04-25T05:00:00Z,31.1,61.55,29.0,10.0,0,0,,6.21,29.822834,,,,,,,,,,,CAVOK,,,,,,,,VFR,,,,,,,,,,,,METAR,489.0
OING 250500Z 26014KT 9999 BKN020 OVC080 12/11 Q1022,OING,2015-04-25T05:00:00Z,36.9,54.4,12.0,11.0,260,14,,6.21,30.177166,,,,,,,,,,,BKN,2000,OVC,8000,,,,,MVFR,,,,,,,,,,,,METAR,155.0
OIKR 250500Z 25014KT 7000 28/M04 Q1021 A3017,OIKR,2015-04-25T05:00:00Z,30.3,56.05,28.0,-4.0,250,14,,4.35,30.147638,,,,,,,,,,,,,,,,,,,,,,,,,,,,,,,METAR,1615.0
OIBJ 250500Z 30004KT 7000 SKC 26/08 Q1016,OIBJ,2015-04-25T05:00:00Z,27.82,52.35,26.0,8.0,300,4,,4.35,30.0,,,,,,,,,,,SKC,,,,,,,,MVFR,,,,,,,,,,,,METAR,663.0
OITZ 250500Z 25006KT 9999 FEW030CB SCT035 05/M03 Q1019,OITZ,2015-04-25T05:00:00Z,36.77,48.37,5.0,-3.0,250,6,,6.21,30.088583,,,,,,,,,,,FEW,3000,SCT,3500,,,,,VFR,,,,,,,,,,,,METAR,1663.0
OISY 250500Z 00000KT 5000 DU SCT040 SCT080 18/05 Q1023,OISY,2015-04-25T05:00:00Z,30.7,51.55,18.0,5.0,0,0,,3.11,30.206694,,,,,,,,,,DU,SCT,4000,SCT,8000,,,,,MVFR,,,,,,,,,,,,METAR,1811.0
OINR 250500Z 08004KT 9999 BKN027 13/07 Q1021,OINR,2015-04-25T05:00:00Z,36.88,50.67,13.0,7.0,80,4,,6.21,30.147638,,,,,,,,,,,BKN,2700,,,,,,,MVFR,,,,,,,,,,,,METAR,-20.0
OINN 250500Z 00000KT 9999 SCT025 14/06 Q1021,OINN,2015-04-25T05:00:00Z,36.67,51.47,14.0,6.0,0,0,,6.21,30.147638,,,,,,,,,,,SCT,2500,,,,,,,VFR,,,,,,,,,,,,METAR,-19.0
OIKQ 250500Z 24012KT 4000 HZ NSC 29/24 Q1008,OIKQ,2015-04-25T05:00:00Z,26.75,55.9,29.0,24.0,240,12,,2.49,29.763779,,,,,,,,,,HZ,,,,,,,,,,,,,,,,,,,,,METAR,12.0
OICI 250500Z 30010KT CAVOK 11/M07 Q1020 A3015,OICI,2015-04-25T05:00:00Z,33.58,46.4,11.0,-7.0,300,10,,6.21,30.11811,,,,,,,,,,,CAVOK,,,,,,,,VFR,,,,,,,,,,,,METAR,1343.0
OITL 250500Z 00000KT 7000 VCFG SCT005 SCT035 04/02 Q1019,OITL,2015-04-25T05:00:00Z,38.33,48.42,4.0,2.0,0,0,,4.35,30.088583,,,,,,,,,,VCFG,SCT,500,SCT,3500,,,,,MVFR,,,,,,,,,,,,METAR,1316.0
OISR 250500Z 28016KT 4000 DU NSC 30/10 Q1013,OISR,2015-04-25T05:00:00Z,27.37,53.2,30.0,10.0,280,16,,2.49,29.911417,,,,,,,,,,DU,,,,,,,,,,,,,,,,,,,,,METAR,408.0
OINZ 250500Z 23006KT 9999 FEW025CB SCT035 OVC080 12/11 Q1022,OINZ,2015-04-25T05:00:00Z,36.63,53.2,12.0,11.0,230,6,,6.21,30.177166,,,,,,,,,,,FEW,2500,SCT,3500,OVC,8000,,,VFR,,,,,,,,,,,,METAR,11.0
OIHH 250500Z 03006KT CAVOK 07/M08 Q1020,OIHH,2015-04-25T05:00:00Z,34.87,48.55,7.0,-8.0,30,6,,6.21,30.11811,,,,,,,,,,,CAVOK,,,,,,,,VFR,,,,,,,,,,,,METAR,1757.0
OIBB 250500Z 33014G27KT 9999 FEW040 22/09 Q1014 A2996,OIBB,2015-04-25T05:00:00Z,28.97,50.82,22.0,9.0,330,14,27,6.21,29.940945,,,,,,,,,,,FEW,4000,,,,,,,VFR,,,,,,,,,,,,METAR,19.0
OIIE 250500Z 30026KT CAVOK 14/M11 Q1016,OIIE,2015-04-25T05:00:00Z,35.42,51.15,14.0,-11.0,300,26,,6.21,30.0,,,,,,,,,,,CAVOK,,,,,,,,VFR,,,,,,,,,,,,METAR,1008.0
OIBK 250500Z 29018KT 4500 SA NSC 29/21 Q1008,OIBK,2015-04-25T05:00:00Z,26.53,53.98,29.0,21.0,290,18,,2.8,29.763779,,,,,,,,,,SA,,,,,,,,,,,,,,,,,,,,,METAR,30.0
OIAA 250500Z 35014KT CAVOK 19/00 Q1019,OIAA,2015-04-25T05:00:00Z,30.37,48.25,19.0,0.0,350,14,,6.21,30.088583,,,,,,,,,,,CAVOK,,,,,,,,VFR,,,,,,,,,,,,METAR,11.0
OIKK 250500Z 19004KT CAVOK 27/M05 Q1023 A3022,OIKK,2015-04-25T05:00:00Z,30.25,56.97,27.0,-5.0,190,4,,6.21,30.206694,,,,,,,,,,,CAVOK,,,,,,,,VFR,,,,,,,,,,,,METAR,1754.0
SAZS 250500Z 00000KT 6000 VA NSC 10/03 Q1019 RERMK VA SFC CONCENTRATION 0/000030 GRAMS / CUBIC METER,SAZS,2015-04-25T05:00:00Z,-41.13,-71.17,10.0,3.0,0,0,,3.73,30.088583,,,,,,,,,,VA GR IC RA,,,,,,,,,,,,,,,,,,,,,METAR,840.0
SAWG 250500Z 00000KT 9999 SCT030 SCT100 08/06 Q1001,SAWG,2015-04-25T05:00:00Z,-51.62,-69.32,8.0,6.0,0,0,,6.21,29.557087,,,,,,,,,,,SCT,3000,SCT,10000,,,,,VFR,,,,,,,,,,,,METAR,19.0
SASJ 250500Z 32002KT 9999 SCT020 BKN100 16/15 Q1024,SASJ,2015-04-25T05:00:00Z,-24.37,-65.1,16.0,15.0,320,2,,6.21,30.236221,,,,,,,,,,,SCT,2000,BKN,10000,,,,,VFR,,,,,,,,,,,,METAR,1167.0
SARP 250500Z 00000KT CAVOK 16/14 Q1022,SARP,2015-04-25T05:00:00Z,-27.38,-55.97,16.0,14.0,0,0,,6.21,30.177166,,,,,,,,,,,CAVOK,,,,,,,,VFR,,,,,,,,,,,,METAR,125.0
SANT 250500Z 36006KT CAVOK 18/16 Q1022,SANT,2015-04-25T05:00:00Z,-26.85,-65.08,18.0,16.0,360,6,,6.21,30.177166,,,,,,,,,,,CAVOK,,,,,,,,VFR,,,,,,,,,,,,METAR,450.0
SAME 250500Z 00000KT CAVOK 15/11 Q1020,SAME,2015-04-25T05:00:00Z,-32.82,-68.77,15.0,11.0,0,0,,6.21,30.11811,,,,,,,,,,,CAVOK,,,,,,,,VFR,,,,,,,,,,,,METAR,704.0
SAEZ 250500Z 32006KT CAVOK 18/14 Q1020,SAEZ,2015-04-25T05:00:00Z,-34.82,-58.52,18.0,14.0,320,6,,6.21,30.11811,,,,,,,,,,,CAVOK,,,,,,,,VFR,,,,,,,,,,,,METAR,20.0
SAAR 250500Z 25002KT CAVOK 15/14 Q1020,SAAR,2015-04-25T05:00:00Z,-32.92,-60.77,15.0,14.0,250,2,,6.21,30.11811,,,,,,,,,,,CAVOK,,,,,,,,VFR,,,,,,,,,,,,METAR,25.0
FQQL 250500Z 26005KT 9999 FEW020 22/21 Q1019,FQQL,2015-04-25T05:00:00Z,-17.87,36.87,22.0,21.0,260,5,,6.21,30.088583,,,,,,,,,,,FEW,2000,,,,,,,VFR,,,,,,,,,,,,METAR,16.0
BIRK 250500Z 09006KT CAVOK M06/M13 Q1020,BIRK,2015-04-25T05:00:00Z,64.13,-21.93,-6.0,-13.0,90,6,,6.21,30.11811,,,,,,,,,,,CAVOK,,,,,,,,VFR,,,,,,,,,,,,METAR,61.0
BIEG 250500Z 36007KT 9999 VCSH SCT035 BKN066 M06/M09 Q1020 R04/420095,BIEG,2015-04-25T05:00:00Z,65.27,-14.4,-6.0,-9.0,360,7,,6.21,30.11811,,,,,,,,,,VCSH,SCT,3500,BKN,6600,,,,,VFR,,,,,,,,,,,,METAR,38.0
BIAR 250500Z VRB02KT 9999 BKN032 OVC037 M07/M11 Q1024,BIAR,2015-04-25T05:00:00Z,65.67,-18.07,-7.0,-11.0,0,2,,6.21,30.236221,,,,,,,,,,,BKN,3200,OVC,3700,,,,,VFR,,,,,,,,,,,,METAR,27.0
DTTZ 250500Z 07011KT 7000 NSC 19/09 Q1013 NOSIG,DTTZ,2015-04-25T05:00:00Z,33.92,8.08,19.0,9.0,70,11,,4.35,29.911417,,,,,,TRUE,,,,,,,,,,,,,,,,,,,,,,,,,METAR,93.0
DTTX 250500Z 36010KT 8000 FEW030 16/13 Q1015 NOSIG,DTTX,2015-04-25T05:00:00Z,34.72,10.67,16.0,13.0,360,10,,4.97,29.970472,,,,,,TRUE,,,,,FEW,3000,,,,,,,MVFR,,,,,,,,,,,,METAR,23.0
DTTG 250500Z /////KT 5000 FEW020 17/14 Q1015 NOSIG,DTTG,2015-04-25T05:00:00Z,33.73,9.92,17.0,14.0,,,,3.11,29.970472,,,,,,TRUE,,,,,FEW,2000,,,,,,,MVFR,,,,,,,,,,,,METAR,5.0
DTKA 250500Z 05008KT 9999 FEW020 12/08 Q1014 NOSIG,DTKA,2015-04-25T05:00:00Z,36.98,8.88,12.0,8.0,50,8,,6.21,29.940945,,,,,,TRUE,,,,,FEW,2000,,,,,,,VFR,,,,,,,,,,,,METAR,21.0
DTTN 250500Z 00000KT CAVOK 11/10 Q1016,DTTN,2015-04-25T05:00:00Z,36.47,8.8,11.0,10.0,0,0,,6.21,30.0,,,,,,,,,,,CAVOK,,,,,,,,VFR,,,,,,,,,,,,METAR,144.0
DTTK 250500Z 00000KT 8000 NSC 14/13 Q1016,DTTK,2015-04-25T05:00:00Z,35.67,10.08,14.0,13.0,0,0,,4.97,30.0,,,,,,,,,,,,,,,,,,,,,,,,,,,,,,,METAR,68.0
DTTB 250500Z VRB02KT 6000 SCT016 13/12 Q1016,DTTB,2015-04-25T05:00:00Z,37.25,9.8,13.0,12.0,0,2,,3.73,30.0,,,,,,,,,,,SCT,1600,,,,,,,MVFR,,,,,,,,,,,,METAR,3.0
LKKV 250500Z 10004KT CAVOK 04/M00 Q1012,LKKV,2015-04-25T05:00:00Z,50.2,12.92,4.0,0.0,100,4,,6.21,29.88189,,,,,,,,,,,CAVOK,,,,,,,,VFR,,,,,,,,,,,,METAR,604.0
CYQR 250500Z 09014KT 15SM BKN095 BKN120 11/01 A2969 RMK AC6AC1 SLP065 DENSITY ALT 2000FT,CYQR,2015-04-25T05:00:00Z,50.43,-104.67,11.0,1.0,90,14,,15.0,29.68996,1006.5,,,,,,,,,,BKN,9500,BKN,12000,,,,,VFR,,,,,,,,,,,,SPECI,577.0
CYQW 250500Z AUTO 07014G19KT 9SM OVC016 00/M02 A2985 RMK SLP131,CYQW,2015-04-25T05:00:00Z,52.77,-108.25,0.0,-2.0,70,14,19,9.0,29.84941,1013.1,,TRUE,,,,,,,,OVC,1600,,,,,,,MVFR,,,,,,,,,,,,SPECI,548.0
CYVC 250500Z 05005KT 15SM SKC M03/M07 A2999 RMK SLP180,CYVC,2015-04-25T05:00:00Z,55.15,-105.27,-3.0,-7.0,50,5,,15.0,29.991142,1018.0,,,,,,,,,,SKC,,,,,,,,VFR,,,,,,,,,,,,SPECI,379.0
CYYL 250500Z AUTO 04002KT 9SM CLR M06/M10 A3004 RMK SLP201,CYYL,2015-04-25T05:00:00Z,56.87,-101.07,-6.0,-10.0,40,2,,9.0,30.041338,1020.1,,TRUE,,,,,,,,CLR,,,,,,,,VFR,,,,,,,,,,,,SPECI,357.0
CYYN 250500Z AUTO 07009KT 9SM BKN070 05/01 A2968 RMK SLP063,CYYN,2015-04-25T05:00:00Z,50.27,-107.67,5.0,1.0,70,9,,9.0,29.681103,1006.3,,TRUE,,,,,,,,BKN,7000,,,,,,,VFR,,,,,,,,,,,,SPECI,818.0
CYZH 250500Z AUTO 08003KT 040V140 9SM SCT060 BKN200 OVC220 02/M09 A2991 RMK SLP152,CYZH,2015-04-25T05:00:00Z,55.28,-114.77,2.0,-9.0,80,3,,9.0,29.911417,1015.2,,TRUE,,,,,,,,SCT,6000,BKN,20000,OVC,22000,,,VFR,,,,,,,,,,,,SPECI,581.0
HKGA 250500Z 21016KT 9999 SCT025 27/23 Q1011,HKGA,2015-04-25T05:00:00Z,-0.47,39.65,27.0,23.0,210,16,,6.21,29.852362,,,,,,,,,,,SCT,2500,,,,,,,VFR,,,,,,,,,,,,METAR,147.0
DAAS 250500Z 28002KT CAVOK 14/10 Q1018,DAAS,2015-04-25T05:00:00Z,36.18,5.33,14.0,10.0,280,2,,6.21,30.059055,,,,,,,,,,,CAVOK,,,,,,,,VFR,,,,,,,,,,,,METAR,1038.0
FOOG 250500Z /////KT 8000 FEW008 25/24 Q1011,FOOG,2015-04-25T05:00:00Z,-0.7,8.75,25.0,24.0,,,,4.97,29.852362,,,,,,,,,,,FEW,800,,,,,,,MVFR,,,,,,,,,,,,SPECI,4.0
FOON 250500Z /////KT 9999 OVC020 22/21 Q1012,FOON,2015-04-25T05:00:00Z,-1.63,13.42,22.0,21.0,,,,6.21,29.88189,,,,,,,,,,,OVC,2000,,,,,,,MVFR,,,,,,,,,,,,SPECI,441.0
FPST 250500Z 23004KT 9999 FEW020CB BKN100 23/21 Q1012,FPST,2015-04-25T05:00:00Z,0.37,6.72,23.0,21.0,230,4,,6.21,29.88189,,,,,,,,,,,FEW,2000,BKN,10000,,,,,VFR,,,,,,,,,,,,METAR,13.0
FGBT 250500Z 00000KT 9999 FEW010 23/23 Q1012 NOSIG,FGBT,2015-04-25T05:00:00Z,1.88,9.8,23.0,23.0,0,0,,6.21,29.88189,,,,,,TRUE,,,,,FEW,1000,,,,,,,VFR,,,,,,,,,,,,METAR,8.0
FGSL 250500Z 00000KT 9999 FEW010 24/23 Q1013 NOSIG,FGSL,2015-04-25T05:00:00Z,3.75,8.72,24.0,23.0,0,0,,6.21,29.911417,,,,,,TRUE,,,,,FEW,1000,,,,,,,VFR,,,,,,,,,,,,METAR,56.0
CYMO 250500Z AUTO 29004KT 9SM OVC020 M01/M04 A3006 RMK SLP180,CYMO,2015-04-25T05:00:00Z,51.28,-80.62,-1.0,-4.0,290,4,,9.0,30.059055,1018.0,,TRUE,,,,,,,,OVC,2000,,,,,,,MVFR,,,,,,,,,,,,SPECI,10.0
CYHU 250500Z AUTO 28010KT 9SM OVC055 02/M05 A2983 RMK SLP102,CYHU,2015-04-25T05:00:00Z,45.52,-73.42,2.0,-5.0,280,10,,9.0,29.828741,1010.2,,TRUE,,,,,,,,OVC,5500,,,,,,,VFR,,,,,,,,,,,,SPECI,27.0
CYHD 250500Z AUTO 17008KT 9SM SCT042 OVC060 04/M05 A2995 RMK SLP161,CYHD,2015-04-25T05:00:00Z,49.82,-92.75,4.0,-5.0,170,8,,9.0,29.949802,1016.1,,TRUE,,,,,,,,SCT,4200,OVC,6000,,,,,VFR,,,,,,,,,,,,SPECI,413.0
CYGP 250500Z 05003KT 3/4SM -SN BR OVC005 00/M00 A2963 RMK SN6SF2 SLP035,CYGP,2015-04-25T05:00:00Z,48.77,-64.47,0.0,0.0,50,3,,0.75,29.630905,1003.5,,,,,,,,,-SN BR,OVC,500,,,,,,,LIFR,,,,,,,,,,,,SPECI,33.0
CYAM 250500Z 27006KT 15SM SKC M03/M05 A3005 RMK SLP185,CYAM,2015-04-25T05:00:00Z,46.47,-84.52,-3.0,-5.0,270,6,,15.0,30.050198,1018.5,,,,,,,,,,SKC,,,,,,,,VFR,,,,,,,,,,,,SPECI,192.0
CZVL 250500Z AUTO 08005KT 9SM OVC040 03/M02 A2983 RMK SLP124,CZVL,2015-04-25T05:00:00Z,53.67,-113.85,3.0,-2.0,80,5,,9.0,29.828741,1012.4,,TRUE,,,,,,,,OVC,4000,,,,,,,VFR,,,,,,,,,,,,METAR,686.0
MHTG 250500Z 00000KT 9999 FEW032 22/14 Q1019 A3009 NOSIG,MHTG,2015-04-25T05:00:00Z,14.07,-87.22,22.0,14.0,0,0,,6.21,30.088583,,,,,,TRUE,,,,,FEW,3200,,,,,,,VFR,,,,,,,,,,,,METAR,1004.0
MHLM 250500Z 00000KT 9999 FEW028 27/26 Q1013 A2991 NOSIG,MHLM,2015-04-25T05:00:00Z,15.45,-87.93,27.0,26.0,0,0,,6.21,29.911417,,,,,,TRUE,,,,,FEW,2800,,,,,,,VFR,,,,,,,,,,,,METAR,26.0
YPEA 250500Z AUTO 08012KT 9999 // NCD 22/04 Q1023,YPEA,2015-04-25T05:00:00Z,-31.67,116.02,22.0,4.0,80,12,,6.21,30.206694,,,TRUE,,,,,,,,,,,,,,,,,,,,,,,,,,,,METAR,49.0
MROC 250500Z 08010KT 9999 FEW040 SCT150 21/14 A3006 NOSIG,MROC,2015-04-25T05:00:00Z,10.0,-84.22,21.0,14.0,80,10,,6.21,30.059055,,,,,,TRUE,,,,,FEW,4000,SCT,15000,,,,,VFR,,,,,,,,,,,,METAR,920.0
SPIM 250500Z 18007KT 9999 SCT014 BKN025 20/18 Q1013 NOSIGRMK PP000,SPIM,2015-04-25T05:00:00Z,-12.02,-77.12,20.0,18.0,180,7,,6.21,29.911417,,,,,,,,,,GR,SCT,1400,BKN,2500,,,,,MVFR,,,,,,,,,,,,METAR,13.0
TLPL 250500Z 12011KT 9999 SCT022 SCT280 27/23 Q1015 NOSIG,TLPL,2015-04-25T05:00:00Z,13.75,-60.95,27.0,23.0,120,11,,6.21,29.970472,,,,,,TRUE,,,,,SCT,2200,SCT,28000,,,,,VFR,,,,,,,,,,,,METAR,3.0
RKSS 250500Z 26008KT 240V300 CAVOK 22/M09 Q1020 NOSIG,RKSS,2015-04-25T05:00:00Z,37.53,126.78,22.0,-9.0,260,8,,6.21,30.11811,,,,,,TRUE,,,,,CAVOK,,,,,,,,VFR,,,,,,,,,,,,METAR,19.0
RKPC 250500Z 32005KT 280V340 6000 NSC 18/10 Q1021 NOSIG,RKPC,2015-04-25T05:00:00Z,33.5,126.48,18.0,10.0,320,5,,3.73,30.147638,,,,,,TRUE,,,,,,,,,,,,,,,,,,,,,,,,,METAR,27.0
RKPK 250500Z 19012KT CAVOK 22/02 Q1019 NOSIG,RKPK,2015-04-25T05:00:00Z,35.17,128.92,22.0,2.0,190,12,,6.21,30.088583,,,,,,TRUE,,,,,CAVOK,,,,,,,,VFR,,,,,,,,,,,,METAR,15.0
RKTU 250500Z 23010KT CAVOK 23/M01 Q1019 NOSIG,RKTU,2015-04-25T05:00:00Z,36.7,127.5,23.0,-1.0,230,10,,6.21,30.088583,,,,,,TRUE,,,,,CAVOK,,,,,,,,VFR,,,,,,,,,,,,METAR,66.0
RKTN 250500Z 31010KT CAVOK 24/M02 Q1017 NOSIG,RKTN,2015-04-25T05:00:00Z,35.88,128.65,24.0,-2.0,310,10,,6.21,30.029528,,,,,,TRUE,,,,,CAVOK,,,,,,,,VFR,,,,,,,,,,,,METAR,35.0
KLIT 250500Z 17005KT 7SM -TSRA OVC006CB 16/14 A2976 RMK AO2 TSB00 FRQ LTGIC S-SW TS S-SW MOV E P0001 $,KLIT,2015-04-25T05:00:00Z,34.73,-92.23,16.0,14.0,170,5,,7.0,29.760826,,,,TRUE,TRUE,,,,,-TSRA,OVC,600,,,,,,,IFR,,,,,,0.01,,,,,,METAR,79.0
KLGB 250500Z 27003KT 10SM FEW039 BKN055 16/11 A3002 RMK AO2 T01610106,KLGB,2015-04-25T05:00:00Z,33.82,-118.15,16.1,10.6,270,3,,10.0,30.02067,,,,TRUE,,,,,,,FEW,3900,BKN,5500,,,,,VFR,,,,,,,,,,,,METAR,10.0
CYNA 250500Z AUTO 06012KT 9SM -RA OVC009 02/02 A2970 RMK PCPN 0.5MM PAST HR SLP057,CYNA,2015-04-25T05:00:00Z,50.17,-61.82,2.0,2.0,60,12,,9.0,29.698818,1005.7,,TRUE,,,,,,,-RA,OVC,900,,,,,,,IFR,,,,,,,,,,,,SPECI,11.0
CYPQ 250500Z AUTO 31007KT 9SM CLR M02/M05 A2999 RMK SLP164,CYPQ,2015-04-25T05:00:00Z,44.22,-78.37,-2.0,-5.0,310,7,,9.0,29.991142,1016.4,,TRUE,,,,,,,,CLR,,,,,,,,VFR,,,,,,,,,,,,SPECI,191.0
CYQT 250500Z 05003KT 15SM OVC130 01/M04 A3006 RMK AC8 SLP188,CYQT,2015-04-25T05:00:00Z,48.37,-89.32,1.0,-4.0,50,3,,15.0,30.059055,1018.8,,,,,,,,,,OVC,13000,,,,,,,VFR,,,,,,,,,,,,SPECI,199.0
FQPB 250500Z 21012KT 9999 FEW020 24/21 Q1015,FQPB,2015-04-25T05:00:00Z,-12.97,40.5,24.0,21.0,210,12,,6.21,29.970472,,,,,,,,,,,FEW,2000,,,,,,,VFR,,,,,,,,,,,,METAR,50.0
OJAQ 250500Z 36017KT CAVOK 15/05 Q1020 NOSIG,OJAQ,2015-04-25T05:00:00Z,29.62,35.02,15.0,5.0,360,17,,6.21,30.11811,,,,,,TRUE,,,,,CAVOK,,,,,,,,VFR,,,,,,,,,,,,METAR,51.0
OIBS 250500Z 29014KT CAVOK 29/20 Q1009,OIBS,2015-04-25T05:00:00Z,25.9,54.55,29.0,20.0,290,14,,6.21,29.793306,,,,,,,,,,,CAVOK,,,,,,,,VFR,,,,,,,,,,,,METAR,14.0
HKRE 250500Z 19006KT 9999 BKN019 18/16 Q1023,HKRE,2015-04-25T05:00:00Z,-1.28,36.87,18.0,16.0,190,6,,6.21,30.206694,,,,,,,,,,,BKN,1900,,,,,,,MVFR,,,,,,,,,,,,METAR,1627.0
HKNC 250500Z 00000KT 9999 BKN017 16/15 Q1023,HKNC,2015-04-25T05:00:00Z,-1.3,36.75,16.0,15.0,0,0,,6.21,30.206694,,,,,,,,,,,BKN,1700,,,,,,,MVFR,,,,,,,,,,,,METAR,1798.0
HKKS 250500Z 09008KT CAVOK 18/14,HKKS,2015-04-25T05:00:00Z,-0.67,34.77,18.0,14.0,90,8,,6.21,,,,,,,,,,,,CAVOK,,,,,,,,VFR,,,,,,,,,,,,METAR,1493.0
OEYN 250500Z 27004KT CAVOK 23/14 Q1010 NOSIG,OEYN,2015-04-25T05:00:00Z,24.13,38.07,23.0,14.0,270,4,,6.21,29.822834,,,,,,TRUE,,,,,CAVOK,,,,,,,,VFR,,,,,,,,,,,,METAR,8.0
OEWJ 250500Z 01003KT CAVOK 25/04 Q1013 NOSIG,OEWJ,2015-04-25T05:00:00Z,26.18,36.47,25.0,4.0,10,3,,6.21,29.911417,,,,,,TRUE,,,,,CAVOK,,,,,,,,VFR,,,,,,,,,,,,METAR,16.0
OETR 250500Z 08010KT CAVOK 11/01 Q1024 NOSIG,OETR,2015-04-25T05:00:00Z,31.7,38.73,11.0,1.0,80,10,,6.21,30.236221,,,,,,TRUE,,,,,CAVOK,,,,,,,,VFR,,,,,,,,,,,,METAR,855.0
OETB 250500Z 08013KT CAVOK 14/M04 Q1022 NOSIG,OETB,2015-04-25T05:00:00Z,28.37,36.62,14.0,-4.0,80,13,,6.21,30.177166,,,,,,TRUE,,,,,CAVOK,,,,,,,,VFR,,,,,,,,,,,,METAR,770.0
OESK 250500Z 06004KT CAVOK 14/M04 Q1024 NOSIG,OESK,2015-04-25T05:00:00Z,29.77,40.1,14.0,-4.0,60,4,,6.21,30.236221,,,,,,TRUE,,,,,CAVOK,,,,,,,,VFR,,,,,,,,,,,,METAR,684.0
OERR 250500Z 08008KT 7000 SKC 15/05 Q1024 NOSIG,OERR,2015-04-25T05:00:00Z,30.88,41.12,15.0,5.0,80,8,,4.35,30.236221,,,,,,TRUE,,,,,SKC,,,,,,,,MVFR,,,,,,,,,,,,METAR,552.0
OERF 250500Z 04007KT 9000 SKC 16/00 Q1023,OERF,2015-04-25T05:00:00Z,29.62,43.47,16.0,0.0,40,7,,5.59,30.206694,,,,,,,,,,,SKC,,,,,,,,VFR,,,,,,,,,,,,METAR,447.0
FXMM 250500Z 00000KT 9999 FEW030 SCT070 09/07 Q1030 NOSIG,FXMM,2015-04-25T05:00:00Z,-29.47,27.55,9.0,7.0,0,0,,6.21,30.413385,,,,,,TRUE,,,,,FEW,3000,SCT,7000,,,,,VFR,,,,,,,,,,,,METAR,1631.0
FNCA 250500Z 00000KT 9999 FEW020 BKN080 23/22 Q1012,FNCA,2015-04-25T05:00:00Z,-5.58,12.18,23.0,22.0,0,0,,6.21,29.88189,,,,,,,,,,,FEW,2000,BKN,8000,,,,,VFR,,,,,,,,,,,,METAR,20.0
FAUT 250500Z 03002KT 0000 -DZ OVC002 12/10 Q1022,FAUT,2015-04-25T05:00:00Z,-31.52,28.67,12.0,10.0,30,2,,0.0,30.177166,,,,,,,,,,-DZ,OVC,200,,,,,,,LIFR,,,,,,,,,,,,METAR,732.0
FAKM 250500Z 33013KT CAVOK 14/11 Q1025,FAKM,2015-04-25T05:00:00Z,-28.8,24.77,14.0,11.0,330,13,,6.21,30.265747,,,,,,,,,,,CAVOK,,,,,,,,VFR,,,,,,,,,,,,METAR,1192.0
DAUE 250500Z 00000KT CAVOK 21/M00 Q1013,DAUE,2015-04-25T05:00:00Z,30.57,2.87,21.0,0.0,0,0,,6.21,29.911417,,,,,,,,,,,CAVOK,,,,,,,,VFR,,,,,,,,,,,,METAR,397.0
YLIS 250500Z AUTO 35006KT 9999 // NCD 27/09 Q1006,YLIS,2015-04-25T05:00:00Z,-28.83,153.27,27.0,9.0,350,6,,6.21,29.704725,,,TRUE,,,,,,,,,,,,,,,,,,,,,,,,,,,,METAR,11.0
YKRY 250500Z AUTO 26007KT //// // ////// 27/07 Q1009,YKRY,2015-04-25T05:00:00Z,-26.57,151.83,27.0,7.0,260,7,,,29.793306,,,TRUE,,,,,,,,,,,,,,,,,,,,,,,,,,,,METAR,434.0
YHUG 250500Z AUTO 21011KT //// // ////// 29/M02 Q1012,YHUG,2015-04-25T05:00:00Z,-20.82,144.23,29.0,-2.0,210,11,,,29.88189,,,TRUE,,,,,,,,,,,,,,,,,,,,,,,,,,,,METAR,318.0
YGTH 250500Z AUTO 26017KT 9999 // SCT010 SCT040 SCT048 11/09 Q1008,YGTH,2015-04-25T05:00:00Z,-34.25,146.07,11.0,9.0,260,17,,6.21,29.763779,,,TRUE,,,,,,,,SCT,1000,SCT,4000,SCT,4800,,,VFR,,,,,,,,,,,,METAR,134.0
YGTE 250500Z AUTO 12008KT 9999 // NCD 31/16 Q1009,YGTE,2015-04-25T05:00:00Z,-13.97,136.45,31.0,16.0,120,8,,6.21,29.793306,,,TRUE,,,,,,,,,,,,,,,,,,,,,,,,,,,,METAR,14.0
YGLA 250500Z AUTO 05010KT 9999 // NCD 29/13 Q1008,YGLA,2015-04-25T05:00:00Z,-23.87,151.22,29.0,13.0,50,10,,6.21,29.763779,,,TRUE,,,,,,,,,,,,,,,,,,,,,,,,,,,,METAR,52.0
YGFN 250500Z AUTO 35007KT 9999 // NCD 27/10 Q1006,YGFN,2015-04-25T05:00:00Z,-29.77,153.03,27.0,10.0,350,7,,6.21,29.704725,,,TRUE,,,,,,,,,,,,,,,,,,,,,,,,,,,,METAR,34.0
FYML 250500Z AUTO 06004KT //// // ////// 16/07 Q1026,FYML,2015-04-25T05:00:00Z,-24.6,17.93,16.0,7.0,60,4,,,30.295275,,,TRUE,,,,,,,,,,,,,,,,,,,,,,,,,,,,METAR,1113.0
YMOR 250500Z AUTO 31017KT 9999 // NCD 25/03 Q1008,YMOR,2015-04-25T05:00:00Z,-29.5,149.85,25.0,3.0,310,17,,6.21,29.763779,,,TRUE,,,,,,,,,,,,,,,,,,,,,,,,,,,,METAR,214.0
YMIA 250500Z AUTO 22008KT 9999 // SCT028 SCT036 SCT046 16/10 Q1011,YMIA,2015-04-25T05:00:00Z,-34.23,142.08,16.0,10.0,220,8,,6.21,29.852362,,,TRUE,,,,,,,,SCT,2800,SCT,3600,SCT,4600,,,VFR,,,,,,,,,,,,METAR,51.0
SBTE 250500Z 17003KT 9999 BKN015 BKN100 24/24 Q1013,SBTE,2015-04-25T05:00:00Z,-5.03,-42.82,24.0,24.0,170,3,,6.21,29.911417,,,,,,,,,,,BKN,1500,BKN,10000,,,,,MVFR,,,,,,,,,,,,METAR,69.0
SBSV 250500Z 15003KT 9999 SCT017 27/23 Q1014,SBSV,2015-04-25T05:00:00Z,-12.9,-38.32,27.0,23.0,150,3,,6.21,29.940945,,,,,,,,,,,SCT,1700,,,,,,,VFR,,,,,,,,,,,,METAR,6.0
SBSL 250500Z 12002KT 9999 SCT020 26/23 Q1012,SBSL,2015-04-25T05:00:00Z,-2.6,-44.22,26.0,23.0,120,2,,6.21,29.88189,,,,,,,,,,,SCT,2000,,,,,,,VFR,,,,,,,,,,,,METAR,53.0
SBRF 250500Z 12004KT 9999 SCT023 28/24 Q1013,SBRF,2015-04-25T05:00:00Z,-8.13,-34.92,28.0,24.0,120,4,,6.21,29.911417,,,,,,,,,,,SCT,2300,,,,,,,VFR,,,,,,,,,,,,METAR,19.0
SBPL 250500Z 14007KT 9999 FEW020 SCT070 27/22 Q1015,SBPL,2015-04-25T05:00:00Z,-9.37,-40.57,27.0,22.0,140,7,,6.21,29.970472,,,,,,,,,,,FEW,2000,SCT,7000,,,,,VFR,,,,,,,,,,,,METAR,375.0
SBNT 250500Z 21003KT 8000 -RA SCT020 FEW022TCU SCT070 25/23 Q1013 RERA,SBNT,2015-04-25T05:00:00Z,-5.92,-35.25,25.0,23.0,210,3,,4.97,29.911417,,,,,,,,,,-RA,SCT,2000,FEW,2200,SCT,7000,,,MVFR,,,,,,,,,,,,METAR,49.0
SBMO 250500Z 01003KT CAVOK 24/23 Q1014,SBMO,2015-04-25T05:00:00Z,-9.52,-35.77,24.0,23.0,10,3,,6.21,29.940945,,,,,,,,,,,CAVOK,,,,,,,,VFR,,,,,,,,,,,,METAR,115.0
SBKG 250500Z 10005KT 5000 BR BKN003 BKN010 BKN020 23/22 Q1016,SBKG,2015-04-25T05:00:00Z,-7.27,-35.87,23.0,22.0,100,5,,3.11,30.0,,,,,,,,,,BR,BKN,300,BKN,1000,BKN,2000,,,LIFR,,,,,,,,,,,,METAR,560.0
SBJU 250500Z 00000KT 9999 SCT020 26/25 Q1017,SBJU,2015-04-25T05:00:00Z,-7.22,-39.27,26.0,25.0,0,0,,6.21,30.029528,,,,,,,,,,,SCT,2000,,,,,,,VFR,,,,,,,,,,,,METAR,409.0
SBJP 250500Z VRB01KT 9999 BKN017 SCT070 25/24 Q1014,SBJP,2015-04-25T05:00:00Z,-7.15,-34.95,25.0,24.0,0,1,,6.21,29.940945,,,,,,,,,,,BKN,1700,SCT,7000,,,,,MVFR,,,,,,,,,,,,METAR,7.0
SBIL 250500Z 26005KT 9999 SCT025 BKN070 24/23 Q1014,SBIL,2015-04-25T05:00:00Z,-14.8,-39.02,24.0,23.0,260,5,,6.21,29.940945,,,,,,,,,,,SCT,2500,BKN,7000,,,,,VFR,,,,,,,,,,,,METAR,5.0
SBFZ 250500Z 15004KT 9999 SCT017 24/22 Q1012,SBFZ,2015-04-25T05:00:00Z,-3.77,-38.52,24.0,22.0,150,4,,6.21,29.88189,,,,,,,,,,,SCT,1700,,,,,,,VFR,,,,,,,,,,,,METAR,25.0
SBAR 250500Z 10005KT 9999 FEW017 27/23 Q1014,SBAR,2015-04-25T05:00:00Z,-10.97,-37.07,27.0,23.0,100,5,,6.21,29.940945,,,,,,,,,,,FEW,1700,,,,,,,VFR,,,,,,,,,,,,METAR,9.0
SBPJ 250500Z 14002KT 9999 FEW025 24/23 Q1014,SBPJ,2015-04-25T05:00:00Z,-10.28,-48.37,24.0,23.0,140,2,,6.21,29.940945,,,,,,,,,,,FEW,2500,,,,,,,VFR,,,,,,,,,,,,METAR,236.0
SBGO 250500Z 00000KT CAVOK 21/19 Q1019,SBGO,2015-04-25T05:00:00Z,-16.62,-49.22,21.0,19.0,0,0,,6.21,30.088583,,,,,,,,,,,CAVOK,,,,,,,,VFR,,,,,,,,,,,,METAR,747.0
SBCG 250500Z 13006KT 9999 SCT035 22/20 Q1019,SBCG,2015-04-25T05:00:00Z,-20.47,-54.67,22.0,20.0,130,6,,6.21,30.088583,,,,,,,,,,,SCT,3500,,,,,,,VFR,,,,,,,,,,,,METAR,567.0
SBBW 250500Z 33004KT 9999 FEW020 24/23 Q1017,SBBW,2015-04-25T05:00:00Z,-15.87,-52.37,24.0,23.0,330,4,,6.21,30.029528,,,,,,,,,,,FEW,2000,,,,,,,VFR,,,,,,,,,,,,METAR,350.0
SBBR 250500Z 21003KT 9999 -TSRA FEW015 SCT030 FEW040CB BKN100 20/18 Q1021,SBBR,2015-04-25T05:00:00Z,-15.87,-47.92,20.0,18.0,210,3,,6.21,30.147638,,,,,,,,,,-TSRA,FEW,1500,SCT,3000,FEW,4000,BKN,10000,VFR,,,,,,,,,,,,METAR,1061.0
SBAN 250500Z 08004KT CAVOK 19/17 Q1021,SBAN,2015-04-25T05:00:00Z,-16.22,-48.97,19.0,17.0,80,4,,6.21,30.147638,,,,,,,,,,,CAVOK,,,,,,,,VFR,,,,,,,,,,,,METAR,1137.0
SBPA 250500Z 08002KT 5000 BR BKN011 17/16 Q1021,SBPA,2015-04-25T05:00:00Z,-30.0,-51.17,17.0,16.0,80,2,,3.11,30.147638,,,,,,,,,,BR,BKN,1100,,,,,,,MVFR,,,,,,,,,,,,METAR,3.0
SBLO 250500Z 23003KT CAVOK 21/19 Q1019,SBLO,2015-04-25T05:00:00Z,-23.32,-51.12,21.0,19.0,230,3,,6.21,30.088583,,,,,,,,,,,CAVOK,,,,,,,,VFR,,,,,,,,,,,,METAR,570.0
SBFL 250500Z 22009KT 9999 SCT030 21/16 Q1019,SBFL,2015-04-25T05:00:00Z,-27.67,-48.53,21.0,16.0,220,9,,6.21,30.088583,,,,,,,,,,,SCT,3000,,,,,,,VFR,,,,,,,,,,,,METAR,5.0
SBFI 250500Z 11002KT CAVOK 14/14 Q1020,SBFI,2015-04-25T05:00:00Z,-25.6,-54.48,14.0,14.0,110,2,,6.21,30.11811,,,,,,,,,,,CAVOK,,,,,,,,VFR,,,,,,,,,,,,METAR,243.0
SBCT 250500Z 12002KT 9999 BKN010 14/13 Q1022,SBCT,2015-04-25T05:00:00Z,-25.52,-49.17,14.0,13.0,120,2,,6.21,30.177166,,,,,,,,,,,BKN,1000,,,,,,,MVFR,,,,,,,,,,,,METAR,908.0
FTTA 250500Z 00000KT CAVOK 27/17 Q1009,FTTA,2015-04-25T05:00:00Z,9.15,18.37,27.0,17.0,0,0,,6.21,29.793306,,,,,,,,,,,CAVOK,,,,,,,,VFR,,,,,,,,,,,,METAR,365.0
FKKR 250500Z 28016KT 7000 NSC 32/20 Q1008,FKKR,2015-04-25T05:00:00Z,9.32,13.37,32.0,20.0,280,16,,4.35,29.763779,,,,,,,,,,,,,,,,,,,,,,,,,,,,,,,METAR,244.0
DAOY 250500Z /////KT CAVOK 12/02 Q1019,DAOY,2015-04-25T05:00:00Z,33.72,1.08,12.0,2.0,,,,6.21,30.088583,,,,,,,,,,,CAVOK,,,,,,,,VFR,,,,,,,,,,,,METAR,1347.0
SBAF 250500Z 26003KT 9999 FEW020 SCT080 23/21 Q1017,SBAF,2015-04-25T05:00:00Z,-22.87,-43.37,23.0,21.0,260,3,,6.21,30.029528,,,,,,,,,,,FEW,2000,SCT,8000,,,,,VFR,,,,,,,,,,,,METAR,34.0
FNHU 250500Z 06010KT 9999 BKN070 15/13 Q1023,FNHU,2015-04-25T05:00:00Z,-12.82,15.77,15.0,13.0,60,10,,6.21,30.206694,,,,,,,,,,,BKN,7000,,,,,,,VFR,,,,,,,,,,,,METAR,1701.0
SCTN 250500Z AUTO 02003KT 340V050 9999 FEW034 OVC048 13/12 Q1017,SCTN,2015-04-25T05:00:00Z,-42.92,-72.7,13.0,12.0,20,3,,6.21,30.029528,,,TRUE,,,,,,,,FEW,3400,OVC,4800,,,,,VFR,,,,,,,,,,,,METAR,4.0
SCPQ 250500Z AUTO 34004KT 300V010 0550 FG VV001 09/09 Q1017,SCPQ,2015-04-25T05:00:00Z,-42.33,-73.72,9.0,9.0,340,4,,0.34,30.029528,,,TRUE,,,,,,,FG,OVX,0,,,,,,,LIFR,,,,,,,,,,,100,METAR,5.0
SCIP 250500Z 08002KT 9999 FEW020 SCT100 16/14 Q1018 NOSIG,SCIP,2015-04-25T05:00:00Z,-27.17,-109.43,16.0,14.0,80,2,,6.21,30.059055,,,,,,TRUE,,,,,FEW,2000,SCT,10000,,,,,VFR,,,,,,,,,,,,METAR,69.0
SCEL 250500Z VRB01KT 7000 NSC 12/06 Q1013 NOSIG,SCEL,2015-04-25T05:00:00Z,-33.37,-70.77,12.0,6.0,0,1,,4.35,29.911417,,,,,,TRUE,,,,,,,,,,,,,,,,,,,,,,,,,METAR,476.0
SCCI 250500Z 17009KT 9999 -RA OVC003 05/04 Q1002 NOSIG,SCCI,2015-04-25T05:00:00Z,-53.0,-70.83,5.0,4.0,170,9,,6.21,29.586615,,,,,,TRUE,,,,-RA,OVC,300,,,,,,,LIFR,,,,,,,,,,,,METAR,37.0
SCVD 250500Z AUTO 00000KT 0450 R35/0500 FG VV002 07/07 Q1018,SCVD,2015-04-25T05:00:00Z,-39.65,-73.07,7.0,7.0,0,0,,0.28,30.059055,,,TRUE,,,,,,,FG,OVX,0,,,,,,,LIFR,,,,,,,,,,,200,METAR,14.0
SCTE 250500Z 00000KT 5000 BR SCT033 06/06 Q1019 NOSIG,SCTE,2015-04-25T05:00:00Z,-41.42,-73.07,6.0,6.0,0,0,,3.11,30.088583,,,,,,TRUE,,,,BR,SCT,3300,,,,,,,MVFR,,,,,,,,,,,,METAR,86.0
SCQP 250500Z VRB01KT 0200 R01/0700 FG VV002 09/09 Q1017,SCQP,2015-04-25T05:00:00Z,-38.92,-72.65,9.0,9.0,0,1,,0.12,30.029528,,,,,,,,,,FG,OVX,0,,,,,,,LIFR,,,,,,,,,,,200,METAR,97.0
SCSE 250500Z 08002KT 9999 OVC012 13/11 Q1013,SCSE,2015-04-25T05:00:00Z,-29.92,-71.2,13.0,11.0,80,2,,6.21,29.911417,,,,,,,,,,,OVC,1200,,,,,,,MVFR,,,,,,,,,,,,METAR,146.0
SCDA 250500Z 18006KT 9999 BKN025 20/15 Q1015,SCDA,2015-04-25T05:00:00Z,-20.52,-70.17,20.0,15.0,180,6,,6.21,29.970472,,,,,,,,,,,BKN,2500,,,,,,,MVFR,,,,,,,,,,,,METAR,52.0
SCAT 250500Z AUTO 01003KT 5000 // ///011 15/12 Q1015,SCAT,2015-04-25T05:00:00Z,-27.27,-70.77,15.0,12.0,10,3,,3.11,29.970472,,,TRUE,,,,,,,,,,,,,,,,,,,,,,,,,,,,METAR,204.0
SCIE 250500Z 19004KT CAVOK 10/09 Q1015,SCIE,2015-04-25T05:00:00Z,-36.77,-73.07,10.0,9.0,190,4,,6.21,29.970472,,,,,,,,,,,CAVOK,,,,,,,,VFR,,,,,,,,,,,,METAR,16.0
SCCF 250500Z 09012KT CAVOK 09/M03 Q1026,SCCF,2015-04-25T05:00:00Z,-22.5,-68.9,9.0,-3.0,90,12,,6.21,30.295275,,,,,,,,,,,CAVOK,,,,,,,,VFR,,,,,,,,,,,,METAR,2312.0
SCBA 250500Z AUTO 29016KT 260V320 9999 BKN043 14/08 Q1008,SCBA,2015-04-25T05:00:00Z,-45.92,-71.67,14.0,8.0,290,16,,6.21,29.763779,,,TRUE,,,,,,,,BKN,4300,,,,,,,VFR,,,,,,,,,,,,METAR,524.0
SCAR 250500Z 31002KT 9999 OVC033 21/15 Q1014,SCAR,2015-04-25T05:00:00Z,-18.35,-70.32,21.0,15.0,310,2,,6.21,29.940945,,,,,,,,,,,OVC,3300,,,,,,,VFR,,,,,,,,,,,,METAR,59.0
SCFA 250500Z 04002KT CAVOK 16/11 Q1014 NOSIG,SCFA,2015-04-25T05:00:00Z,-23.42,-70.42,16.0,11.0,40,2,,6.21,29.940945,,,,,,TRUE,,,,,CAVOK,,,,,,,,VFR,,,,,,,,,,,,METAR,120.0
UBBY 250500Z VRB02KT 9999 BKN045 09/06 Q1023 R33/////// NOSIG RMK MT OP,UBBY,2015-04-25T05:00:00Z,41.57,46.67,9.0,6.0,0,2,,6.21,30.206694,,,,,,TRUE,,,,,BKN,4500,,,,,,,VFR,,,,,,,,,,,,METAR,390.0
CZPS 250500Z AUTO 30009KT M00/M01 RMK AO1 6PAST HR M PK WND 05018/0401 P0006 T10021011 50016,CZPS,2015-04-25T05:00:00Z,52.43,-113.6,-0.2,-1.1,300,9,,,,,,TRUE,TRUE,,,,,,,,,,,,,,,,1.6,,,,,0.06,,,,,,METAR,965.0
CZOL 250500Z AUTO 08003KT 04/M02 RMK AO1 T00361021,CZOL,2015-04-25T05:00:00Z,53.65,-113.35,3.6,-2.1,80,3,,,,,,TRUE,TRUE,,,,,,,,,,,,,,,,,,,,,,,,,,,METAR,665.0
CXVM 250500Z AUTO 08012KT 01/M02 RMK AO1 PK WND 08018/0456 T00141017,CXVM,2015-04-25T05:00:00Z,53.35,-110.88,1.4,-1.7,80,12,,,,,,TRUE,TRUE,,,,,,,,,,,,,,,,,,,,,,,,,,,METAR,623.0
CXSP 250500Z AUTO 06008KT 02/M04 RMK AO1 T00171035 50004,CXSP,2015-04-25T05:00:00Z,54.02,-111.27,1.7,-3.5,60,8,,,,,,TRUE,TRUE,,,,,,,,,,,,,,,,0.4,,,,,,,,,,,METAR,649.0
CXPL 250500Z AUTO 03013KT 07/04 RMK AO1 PK WND 05023/0441 T00650043,CXPL,2015-04-25T05:00:00Z,51.13,-111.7,6.5,4.3,30,13,,,,,,TRUE,TRUE,,,,,,,,,,,,,,,,,,,,,,,,,,,METAR,750.0
CXOL 250500Z AUTO 36011KT M00/M00 RMK AO1 PK WND 00020/0404 T10041004 50116,CXOL,2015-04-25T05:00:00Z,51.77,-114.08,-0.4,-0.4,360,11,,,,,,TRUE,TRUE,,,,,,,,,,,,,,,,0.0,,,,,,,,,,,METAR,1046.0
CXMO 250500Z AUTO 34002KT 03/02 RMK AO1 PK WND 07025/0420 T00320019 50025,CXMO,2015-04-25T05:00:00Z,51.67,-112.68,3.2,1.9,340,2,,,,,,TRUE,TRUE,,,,,,,,,,,,,,,,2.5,,,,,,,,,,,METAR,836.0
CXMG 250500Z AUTO 04010KT M00/M15 RMK AO1 T10041151,CXMG,2015-04-25T05:00:00Z,56.97,-117.45,-0.4,-15.1,40,10,,,,,,TRUE,TRUE,,,,,,,,,,,,,,,,,,,,,,,,,,,METAR,457.0
CXHD 250500Z AUTO 06012KT 01/M01 RMK AO1 PK WND 06019/0428 T00081007,CXHD,2015-04-25T05:00:00Z,53.18,-112.25,0.8,-0.7,60,12,,,,,,TRUE,TRUE,,,,,,,,,,,,,,,,,,,,,,,,,,,METAR,688.0
CPRY 250500Z AUTO 27010KT 05/M07 RMK AO1 PK WND 27017/0418 T00501074,CPRY,2015-04-25T05:00:00Z,49.48,-112.68,5.0,-7.4,270,10,,,,,,TRUE,TRUE,,,,,,,,,,,,,,,,,,,,,,,,,,,METAR,937.0
CXCS 250500Z AUTO 06015KT 03/02 RMK AO1 PK WND 06020/0429 T00250019 50005,CXCS,2015-04-25T05:00:00Z,51.93,-110.72,2.5,1.9,60,15,,,,,,TRUE,TRUE,,,,,,,,,,,,,,,,0.5,,,,,,,,,,,METAR,772.0
CXCD 250500Z AUTO 05005KT 03/M09 RMK AO1 T00271090,CXCD,2015-04-25T05:00:00Z,56.32,-119.75,2.7,-9.0,50,5,,,,,,TRUE,TRUE,,,,,,,,,,,,,,,,,,,,,,,,,,,METAR,630.0
CXBA 250500Z AUTO 06011KT 02/02 RMK AO1 PK WND 06020/0413 T00230015 50025,CXBA,2015-04-25T05:00:00Z,52.12,-110.1,2.3,1.5,60,11,,,,,,TRUE,TRUE,,,,,,,,,,,,,,,,2.5,,,,,,,,,,,METAR,687.0
CXAJ 250500Z AUTO 06008KT 02/M06 RMK AO1 T00231063,CXAJ,2015-04-25T05:00:00Z,54.77,-112.82,2.3,-6.3,60,8,,,,,,TRUE,TRUE,,,,,,,,,,,,,,,,,,,,,,,,,,,METAR,574.0
CXAG 250500Z AUTO 08008KT 03/M04 RMK AO1 T00281042,CXAG,2015-04-25T05:00:00Z,53.92,-112.28,2.8,-4.2,80,8,,,,,,TRUE,TRUE,,,,,,,,,,,,,,,,,,,,,,,,,,,METAR,625.0
OEKK 250500Z 36018KT CAVOK 19/05 Q1022,OEKK,2015-04-25T05:00:00Z,27.88,45.52,19.0,5.0,360,18,,6.21,30.177166,,,,,,,,,,,CAVOK,,,,,,,,VFR,,,,,,,,,,,,METAR,413.0
TGPY 250500Z 12016KT 9999 FEW020 26/24 Q1013,TGPY,2015-04-25T05:00:00Z,12.0,-61.78,26.0,24.0,120,16,,6.21,29.911417,,,,,,,,,,,FEW,2000,,,,,,,VFR,,,,,,,,,,,,METAR,7.0
CXWM 250500Z AUTO 26010KT 06/M06 RMK AO1 T00561064,CXWM,2015-04-25T05:00:00Z,49.5,-112.12,5.6,-6.4,260,10,,,,,,TRUE,TRUE,,,,,,,,,,,,,,,,,,,,,,,,,,,METAR,944.0
CXTH 250500Z AUTO 07010KT 01/M02 RMK AO1 PK WND 07017/0424 T00101019,CXTH,2015-04-25T05:00:00Z,53.63,-111.68,1.0,-1.9,70,10,,,,,,TRUE,TRUE,,,,,,,,,,,,,,,,,,,,,,,,,,,METAR,678.0
CXFM 250500Z AUTO 27005KT 07/M07 RMK AO1 T00691066,CXFM,2015-04-25T05:00:00Z,49.48,-111.48,6.9,-6.6,270,5,,,,,,TRUE,TRUE,,,,,,,,,,,,,,,,,,,,,,,,,,,METAR,881.0
CXDB 250500Z AUTO 24009KT 02/M07 RMK AO1 T00161070,CXDB,2015-04-25T05:00:00Z,49.05,-112.82,1.6,-7.0,240,9,,,,,,TRUE,TRUE,,,,,,,,,,,,,,,,,,,,,,,,,,,METAR,1310.0
CXAK 250500Z AUTO 05014KT 02/M01 RMK AO1 PK WND 05020/0416 T00151007,CXAK,2015-04-25T05:00:00Z,52.35,-112.6,1.5,-0.7,50,14,,,,,,TRUE,TRUE,,,,,,,,,,,,,,,,,,,,,,,,,,,METAR,795.0
CPRO 250500Z AUTO 02015KT 05/03 RMK AO1 PK WND 00019/0423 T00450033,CPRO,2015-04-25T05:00:00Z,50.83,-112.05,4.5,3.3,20,15,,,,,,TRUE,TRUE,,,,,,,,,,,,,,,,,,,,,,,,,,,METAR,714.0
CZSM 250500Z AUTO 01002KT M05/M12 RMK AO1 SOG 03 1010 SLP239 T10471123,CZSM,2015-04-25T05:00:00Z,60.03,-111.93,-4.7,-12.3,10,2,,,,1023.9,,TRUE,TRUE,,,,,,,,,,,,,,,,,,,,,,,,,,,SPECI,203.0
CWOE 250500Z AUTO 31010KT 08/M03 RMK AO1 SOG 01 1017 SLP057 T00771026,CWOE,2015-04-25T05:00:00Z,49.12,-110.47,7.7,-2.6,310,10,,,,1005.7,,TRUE,TRUE,,,,,,,,,,,,,,,,,,,,,,,,,,,METAR,935.0
CWRU 250500Z AUTO 33014KT 08/03 RMK AO1 PK WND 33017/0439 SLP107 T00820034 51012,CWRU,2015-04-25T05:00:00Z,50.12,-127.93,8.2,3.4,330,14,,,,1010.7,,TRUE,TRUE,,,,,,,,,,,,,,,,1.2,,,,,,,,,,,METAR,98.0
CWQS 250500Z AUTO 35015KT 09/06 RMK AO1 PK WND 34019/0410 SLP110 T00870063 53012,CWQS,2015-04-25T05:00:00Z,53.32,-132.77,8.7,6.3,350,15,,,,1011.0,,TRUE,TRUE,,,,,,,,,,,,,,,,1.2,,,,,,,,,,,METAR,14.0
CWME 250500Z AUTO 18004KT 08/05 RMK AO1 SLP108 T00770047 53014,CWME,2015-04-25T05:00:00Z,52.18,-127.47,7.7,4.7,180,4,,,,1010.8,,TRUE,TRUE,,,,,,,,,,,,,,,,1.4,,,,,,,,,,,METAR,32.0
CWWL 250500Z AUTO 16003KT 08/05 RMK AO1 SLP107 T00770052 51015,CWWL,2015-04-25T05:00:00Z,53.5,-130.63,7.7,5.2,160,3,,,,1010.7,,TRUE,TRUE,,,,,,,,,,,,,,,,1.5,,,,,,,,,,,METAR,17.0
CWHO 250500Z AUTO 01007KT M00/M00 RMK AO1 SLP202 T10031001 53003,CWHO,2015-04-25T05:00:00Z,55.45,-60.22,-0.3,-0.1,10,7,,,,1020.2,,TRUE,TRUE,,,,,,,,,,,,,,,,0.3,,,,,,,,,,,METAR,8.0
CXTV 250500Z AUTO 12005KT 01/M02 RMK AO1 SLP188 T00051016 57008,CXTV,2015-04-25T05:00:00Z,68.75,-133.5,0.5,-1.6,120,5,,,,1018.8,,TRUE,TRUE,,,,,,,,,,,,,,,,-0.8,,,,,,,,,,,METAR,85.0
CWJU 250500Z AUTO 26008KT 08/05 RMK AO1 SLP112 T00810051 53009,CWJU,2015-04-25T05:00:00Z,54.25,-133.07,8.1,5.1,260,8,,,,1011.2,,TRUE,TRUE,,,,,,,,,,,,,,,,0.9,,,,,,,,,,,METAR,41.0
CWZV 250500Z AUTO 31015KT 08/06 RMK AO1 PK WND 31022/0405 SLP104 T00820062 53015,CWZV,2015-04-25T05:00:00Z,51.93,-131.02,8.2,6.2,310,15,,,,1010.4,,TRUE,TRUE,,,,,,,,,,,,,,,,1.5,,,,,,,,,,,METAR,92.0
CWZL 250500Z AUTO 15008KT 08/06 RMK AO1 SLP119 T00840055 53014,CWZL,2015-04-25T05:00:00Z,53.03,-131.6,8.4,5.5,150,8,,,,1011.9,,TRUE,TRUE,,,,,,,,,,,,,,,,1.4,,,,,,,,,,,METAR,17.0
CXSC 250500Z AUTO 25006KT 09/M04 RMK AO1 T00891037,CXSC,2015-04-25T05:00:00Z,50.3,-110.08,8.9,-3.7,250,6,,,,,,TRUE,TRUE,,,,,,,,,,,,,,,,,,,,,,,,,,,METAR,800.0
CWHP 250500Z AUTO 06013KT M00/00 RMK AO1 SLP036 T10020000 58003,CWHP,2015-04-25T05:00:00Z,49.07,-61.7,-0.2,0.0,60,13,,,,1003.6,,TRUE,TRUE,,,,,,,,,,,,,,,,-0.3,,,,,,,,,,,METAR,4.0
CWWX 250500Z AUTO 29005KT M00/M01 RMK AO1 SLP168 T10041011 55005,CWWX,2015-04-25T05:00:00Z,45.32,-81.73,-0.4,-1.1,290,5,,,,1016.8,,TRUE,TRUE,,,,,,,,,,,,,,,,-0.5,,,,,,,,,,,METAR,181.0
CXPA 250500Z AUTO 05011KT 04/M05 RMK AO1 PK WND 05017/0456 T00391052,CXPA,2015-04-25T05:00:00Z,55.62,-118.3,3.9,-5.2,50,11,,,,,,TRUE,TRUE,,,,,,,,,,,,,,,,,,,,,,,,,,,METAR,621.0
CXOY 250500Z AUTO 06011KT 04/02 RMK AO1 PK WND 08017/0403 T00350015,CXOY,2015-04-25T05:00:00Z,51.38,-110.35,3.5,1.5,60,11,,,,,,TRUE,TRUE,,,,,,,,,,,,,,,,,,,,,,,,,,,METAR,767.0
CXKM 250500Z AUTO 06012KT 02/M01 RMK AO1 PK WND 07018/0424 T00171014,CXKM,2015-04-25T05:00:00Z,52.82,-111.85,1.7,-1.4,60,12,,,,,,TRUE,TRUE,,,,,,,,,,,,,,,,,,,,,,,,,,,METAR,675.0
CXHR 250500Z AUTO 31015KT 03/02 RMK AO1 PK WND 30020/0450 T00300021,CXHR,2015-04-25T05:00:00Z,51.18,-112.5,3.0,2.1,310,15,,,,,,TRUE,TRUE,,,,,,,,,,,,,,,,,,,,,,,,,,,METAR,971.0
CXFR 250500Z AUTO 03011KT 01/M12 RMK AO1 T00051118,CXFR,2015-04-25T05:00:00Z,56.08,-118.43,0.5,-11.8,30,11,,,,,,TRUE,TRUE,,,,,,,,,,,,,,,,,,,,,,,,,,,METAR,655.0
CXDP 250500Z AUTO 07007KT 03/M02 RMK AO1 T00341015,CXDP,2015-04-25T05:00:00Z,54.32,-113.95,3.4,-1.5,70,7,,,,,,TRUE,TRUE,,,,,,,,,,,,,,,,,,,,,,,,,,,METAR,614.0
CXBR 250500Z AUTO 26012KT 04/M06 RMK AO1 PK WND 25020/0405 T00431058,CXBR,2015-04-25T05:00:00Z,49.62,-113.82,4.3,-5.8,260,12,,,,,,TRUE,TRUE,,,,,,,,,,,,,,,,,,,,,,,,,,,METAR,1073.0
CXAF 250500Z AUTO 09008KT 03/M06 RMK AO1 T00281063,CXAF,2015-04-25T05:00:00Z,54.28,-112.97,2.8,-6.3,90,8,,,,,,TRUE,TRUE,,,,,,,,,,,,,,,,,,,,,,,,,,,METAR,664.0
OSLK 250500Z 09004KT CAVOK 15/08 Q1024,OSLK,2015-04-25T05:00:00Z,35.4,35.95,15.0,8.0,90,4,,6.21,30.236221,,,,,,,,,,,CAVOK,,,,,,,,VFR,,,,,,,,,,,,METAR,7.0
VRMM 250500Z 28006KT 9999 SCT018 31/25 Q1011 NOSIG,VRMM,2015-04-25T05:00:00Z,4.2,73.52,31.0,25.0,280,6,,6.21,29.852362,,,,,,TRUE,,,,,SCT,1800,,,,,,,VFR,,,,,,,,,,,,METAR,2.0
YMER 250500Z AUTO 11004KT 9999 // SCT074 SCT105 19/13 Q1006,YMER,2015-04-25T05:00:00Z,-36.92,149.9,19.0,13.0,110,4,,6.21,29.704725,,,TRUE,,,,,,,,SCT,7400,SCT,10500,,,,,VFR,,,,,,,,,,,,METAR,2.0
YMEK 250500Z AUTO 08012KT 9999 // NCD 21/01 Q1021,YMEK,2015-04-25T05:00:00Z,-26.62,118.55,21.0,1.0,80,12,,6.21,30.147638,,,TRUE,,,,,,,,,,,,,,,,,,,,,,,,,,,,METAR,522.0
YMDG 250500Z AUTO 31014KT //// // SCT064 20/07 Q1006,YMDG,2015-04-25T05:00:00Z,-32.57,149.62,20.0,7.0,310,14,,,29.704725,,,TRUE,,,,,,,,SCT,6400,,,,,,,,,,,,,,,,,,,METAR,471.0
YMAY 250500Z AUTO 14008KT 9999 // BKN100 16/11 Q1007,YMAY,2015-04-25T05:00:00Z,-36.07,146.93,16.0,11.0,140,8,,6.21,29.734253,,,TRUE,,,,,,,,BKN,10000,,,,,,,VFR,,,,,,,,,,,,METAR,171.0
YESP 250500Z AUTO 12010KT 9999 // SCT032 SCT049 BKN058 17/09 Q1027,YESP,2015-04-25T05:00:00Z,-33.68,121.82,17.0,9.0,120,10,,6.21,30.324802,,,TRUE,,,,,,,,SCT,3200,SCT,4900,BKN,5800,,,VFR,,,,,,,,,,,,METAR,143.0
YEML 250500Z AUTO 27009KT 9999 // NCD 31/00 Q1009,YEML,2015-04-25T05:00:00Z,-23.57,148.18,31.0,0.0,270,9,,6.21,29.793306,,,TRUE,,,,,,,,,,,,,,,,,,,,,,,,,,,,METAR,190.0
YDBY 250500Z AUTO 12009KT //// // ////// 34/10 Q1010,YDBY,2015-04-25T05:00:00Z,-17.37,123.67,34.0,10.0,120,9,,,29.822834,,,TRUE,,,,,,,,,,,,,,,,,,,,,,,,,,,,METAR,7.0
YCOM 250500Z AUTO 36006KT 330V030 9999 // OVC059 OVC066 08/06 Q1008,YCOM,2015-04-25T05:00:00Z,-36.3,148.97,8.0,6.0,360,6,,6.21,29.763779,,,TRUE,,,,,,,,OVC,5900,OVC,6600,,,,,VFR,,,,,,,,,,,,METAR,941.0
YCNM 250500Z AUTO 30013KT //// // ////// 23/06 Q1007,YCNM,2015-04-25T05:00:00Z,-30.98,148.38,23.0,6.0,300,13,,,29.734253,,,TRUE,,,,,,,,,,,,,,,,,,,,,,,,,,,,METAR,184.0
YCDU 250500Z AUTO 21013KT 9999 // SCT022 SCT034 SCT043 17/12 Q1021,YCDU,2015-04-25T05:00:00Z,-32.12,133.7,17.0,12.0,210,13,,6.21,30.147638,,,TRUE,,,,,,,,SCT,2200,SCT,3400,SCT,4300,,,VFR,,,,,,,,,,,,METAR,15.0
YRMD 250500Z AUTO 18012KT //// // ////// 29/M01 Q1012,YRMD,2015-04-25T05:00:00Z,-20.7,143.12,29.0,-1.0,180,12,,,29.88189,,,TRUE,,,,,,,,,,,,,,,,,,,,,,,,,,,,METAR,207.0
YBPN 250500Z AUTO 31002KT 9999 // NCD 32/14 Q1008,YBPN,2015-04-25T05:00:00Z,-20.5,148.55,32.0,14.0,310,2,,6.21,29.763779,,,TRUE,,,,,,,,,,,,,,,,,,,,,,,,,,,,METAR,25.0
YBOK 250500Z AUTO 29013KT 9999 // NCD 27/05 Q1009,YBOK,2015-04-25T05:00:00Z,-27.42,151.72,27.0,5.0,290,13,,6.21,29.793306,,,TRUE,,,,,,,,,,,,,,,,,,,,,,,,,,,,METAR,407.0
YBNA 250500Z AUTO 30006KT 9999 // NCD 28/09 Q1007,YBNA,2015-04-25T05:00:00Z,-28.83,153.57,28.0,9.0,300,6,,6.21,29.734253,,,TRUE,,,,,,,,,,,,,,,,,,,,,,,,,,,,METAR,2.0
YBMK 250500Z AUTO 02011KT 9999 // NCD 30/14 Q1008,YBMK,2015-04-25T05:00:00Z,-21.17,149.17,30.0,14.0,20,11,,6.21,29.763779,,,TRUE,,,,,,,,,,,,,,,,,,,,,,,,,,,,METAR,31.0
YBHI 250500Z AUTO 20026KT 9999 // BKN037 BKN043 14/04 Q1012,YBHI,2015-04-25T05:00:00Z,-32.0,141.47,14.0,4.0,200,26,,6.21,29.88189,,,TRUE,,,,,,,,BKN,3700,BKN,4300,,,,,VFR,,,,,,,,,,,,METAR,292.0
YPBO 250500Z AUTO 09009KT 9999 // SCT080 BKN098 26/09 Q1017,YPBO,2015-04-25T05:00:00Z,-23.2,117.75,26.0,9.0,90,9,,6.21,30.029528,,,TRUE,,,,,,,,SCT,8000,BKN,9800,,,,,VFR,,,,,,,,,,,,METAR,1292.0
YNWN 250500Z AUTO 09011KT 060V120 //// // SCT082 22/06 Q1019,YNWN,2015-04-25T05:00:00Z,-23.42,119.8,22.0,6.0,90,11,,,30.088583,,,TRUE,,,,,,,,SCT,8200,,,,,,,,,,,,,,,,,,,METAR,525.0
YNTN 250500Z AUTO 18015KT //// // ////// 33/02 Q1009,YNTN,2015-04-25T05:00:00Z,-17.68,141.07,33.0,2.0,180,15,,,29.793306,,,TRUE,,,,,,,,,,,,,,,,,,,,,,,,,,,,METAR,22.0
YNBR 250500Z AUTO 33014KT //// // ////// 25/07 Q1007,YNBR,2015-04-25T05:00:00Z,-30.32,149.83,25.0,7.0,330,14,,,29.734253,,,TRUE,,,,,,,,,,,,,,,,,,,,,,,,,,,,METAR,240.0
YNAR 250500Z AUTO 24008KT //// // ////// 17/08 Q1007,YNAR,2015-04-25T05:00:00Z,-34.7,146.52,17.0,8.0,240,8,,,29.734253,,,TRUE,,,,,,,,,,,,,,,,,,,,,,,,,,,,METAR,145.0
YMTG 250500Z AUTO 18018KT 9999 // SCT016 SCT024 BKN040 14/12 Q1013,YMTG,2015-04-25T05:00:00Z,-37.75,140.78,14.0,12.0,180,18,,6.21,29.911417,,,TRUE,,,,,,,,SCT,1600,SCT,2400,BKN,4000,,,VFR,,,,,,,,,,,,METAR,65.0
TNCE 250500Z AUTO VRB01KT //// ////// ///// Q1015,TNCE,2015-04-25T05:00:00Z,17.47,-62.97,,,0,1,,,29.970472,,,TRUE,,,,,,,,,,,,,,,,,,,,,,,,,,,,SPECI,39.0
TNCB 250500Z AUTO 06017KT //// ////// 27/24 Q1012 RE//,TNCB,2015-04-25T05:00:00Z,12.13,-68.28,27.0,24.0,60,17,,,29.88189,,,TRUE,,,,,,,,,,,,,,,,,,,,,,,,,,,,SPECI,6.0
TNCC 250500Z 10012KT 9999 SCT017 27/24 Q1012 NOSIG,TNCC,2015-04-25T05:00:00Z,12.2,-68.97,27.0,24.0,100,12,,6.21,29.88189,,,,,,TRUE,,,,,SCT,1700,,,,,,,VFR,,,,,,,,,,,,METAR,9.0
FNLU 250500Z VRB02KT 8000 -RA SCT020 FEW025CB BKN080 24/22 Q1014 NOSIG,FNLU,2015-04-25T05:00:00Z,-8.83,13.22,24.0,22.0,0,2,,4.97,29.940945,,,,,,TRUE,,,,-RA,SCT,2000,FEW,2500,BKN,8000,,,MVFR,,,,,,,,,,,,METAR,70.0
VTUO 250500Z VRB04KT 9000 FEW020 SCT120 BKN300 31/21 Q1012 A2991 INFO F RWY 04,VTUO,2015-04-25T05:00:00Z,15.23,103.25,31.0,21.0,0,4,,5.59,29.88189,,,,,,,,,,,FEW,2000,SCT,12000,BKN,30000,,,VFR,,,,,,,,,,,,METAR,183.0
VTST 250500Z 07009KT 9999 FEW020 SCT025 BKN300 33/24 Q1009 RWY08 INFO F,VTST,2015-04-25T05:00:00Z,7.52,99.62,33.0,24.0,70,9,,6.21,29.793306,,,,,,,,,,,FEW,2000,SCT,2500,BKN,30000,,,VFR,,,,,,,,,,,,METAR,16.0
CZDB 250500Z AUTO 06003KT 01/M00 RMK AO1 SOG 37 5000 SLP017 T00071004,CZDB,2015-04-25T05:00:00Z,45.42,-63.47,0.7,-0.4,60,3,,,,1001.7,,TRUE,TRUE,,,,,,,,,,,,,,,,,,,,,,,,,,,METAR,38.0
CZCR 250500Z AUTO 34001KT M00/M00 RMK AO1 2PAST HR SOG 08 1003 SLP026 P0001 T10011002 50002,CZCR,2015-04-25T05:00:00Z,47.97,-66.32,-0.1,-0.2,340,1,,,,1002.6,,TRUE,TRUE,,,,,,,,,,,,,,,,0.2,,,,,0.01,,,,,,METAR,38.0
CXNP 250500Z AUTO 18004KT 02/ RMK AO1 5001 SLP010 T0016 50002,CXNP,2015-04-25T05:00:00Z,45.75,-64.23,1.6,,180,4,,,,1001.0,,TRUE,TRUE,,,,,,,,,,,,,,,,0.2,,,,,,,,,,,METAR,20.0
CWKX 250500Z AUTO 34008KT 05/M04 RMK AO1 SLP128 T00521039 53013,CWKX,2015-04-25T05:00:00Z,58.43,-130.02,5.2,-3.9,340,8,,,,1012.8,,TRUE,TRUE,,,,,,,,,,,,,,,,1.3,,,,,,,,,,,METAR,793.0
CWDZ 250500Z AUTO 30010KT 04/03 RMK AO1 T00430026,CWDZ,2015-04-25T05:00:00Z,51.42,-112.67,4.3,2.6,300,10,,,,,,TRUE,TRUE,,,,,,,,,,,,,,,,,,,,,,,,,,,METAR,678.0
CWRA 250500Z AUTO 04018G23KT M00/ RMK AO1 0PAST HR 6020 PK WND 04023/0455 SLP051 P0008 T1001 50020,CWRA,2015-04-25T05:00:00Z,46.63,-53.07,-0.1,,40,18,23,,,1005.1,,TRUE,TRUE,,,,,,,,,,,,,,,,2.0,,,,,0.08,,,,,,METAR,28.0
CWDO 250500Z AUTO 09013G20KT 01/M00 RMK AO1 SOG 29 6014 PK WND 12022/0437 SLP085 T00091003,CWDO,2015-04-25T05:00:00Z,49.67,-54.78,0.9,-0.3,90,13,20,,,1008.5,,TRUE,TRUE,,,,,,,,,,,,,,,,,,,,,,,,,,,METAR,92.0
CTRA 250500Z AUTO 14004KT 03/M05 RMK AO1 SLP145 T00331046 50001,CTRA,2015-04-25T05:00:00Z,49.67,-93.73,3.3,-4.6,140,4,,,,1014.5,,TRUE,TRUE,,,,,,,,,,,,,,,,0.1,,,,,,,,,,,METAR,435.0
CZTB 250500Z AUTO 07004KT 01/M04 RMK AO1 SLP186 T00101040 51001,CZTB,2015-04-25T05:00:00Z,48.37,-89.32,1.0,-4.0,70,4,,,,1018.6,,TRUE,TRUE,,,,,,,,,,,,,,,,0.1,,,,,,,,,,,METAR,199.0
CZRP 250500Z AUTO 34004KT M19/M21 RMK AO1 SLP423 T11921211 58007,CZRP,2015-04-25T05:00:00Z,75.37,-105.72,-19.2,-21.1,340,4,,,,1042.3,,TRUE,TRUE,,,,,,,,,,,,,,,,-0.7,,,,,,,,,,,METAR,12.0
CXSE 250500Z AUTO 11001KT M23/M25 RMK AO1 SLP402 T12271250 57008,CXSE,2015-04-25T05:00:00Z,73.77,-105.28,-22.7,-25.0,110,1,,,,1040.2,,TRUE,TRUE,,,,,,,,,,,,,,,,-0.8,,,,,,,,,,,METAR,11.0
CXRB 250500Z AUTO 08008KT M13/M14 RMK AO1 SOG 08 8008 PK WND 11017/0408 SLP407 T11261144,CXRB,2015-04-25T05:00:00Z,74.72,-94.98,-12.6,-14.4,80,8,,,,1040.7,,TRUE,TRUE,,,,,,,,,,,,,,,,,,,,,,,,,,,METAR,68.0
CXKI 250500Z AUTO M01/M04 RMK AO1 SLP173 T10101038 51008,CXKI,2015-04-25T05:00:00Z,48.22,-80.0,-1.0,-3.8,,,,,,1017.3,,TRUE,TRUE,,,,,,,,,,,,,,,,0.8,,,,,,,,,,,METAR,324.0
CXDK 250500Z AUTO 14005KT 02/M10 RMK AO1 SLP196 T00161103 53006,CXDK,2015-04-25T05:00:00Z,61.27,-124.47,1.6,-10.3,140,5,,,,1019.6,,TRUE,TRUE,,,,,,,,,,,,,,,,0.6,,,,,,,,,,,METAR,283.0
CXHM 250500Z AUTO 29002KT M01/M06 RMK AO1 SLP168 T10141064 51002,CXHM,2015-04-25T05:00:00Z,43.28,-79.9,-1.4,-6.4,290,2,,,,1016.8,,TRUE,TRUE,,,,,,,,,,,,,,,,0.2,,,,,,,,,,,METAR,107.0
CWXL 250500Z AUTO 27010KT 08/M06 RMK AO1 T00831061,CWXL,2015-04-25T05:00:00Z,49.73,-111.45,8.3,-6.1,270,10,,,,,,TRUE,TRUE,,,,,,,,,,,,,,,,,,,,,,,,,,,METAR,817.0
CZFS 250500Z AUTO 12004KT M01/M11 RMK AO1 SOG 02 2006 SLP241 T10061112,CZFS,2015-04-25T05:00:00Z,61.77,-121.23,-0.6,-11.2,120,4,,,,1024.1,,TRUE,TRUE,,,,,,,,,,,,,,,,,,,,,,,,,,,METAR,168.0
CZEV 250500Z AUTO 19001KT 01/M04 RMK AO1 SOG 38 6008 SLP189 T00071036,CZEV,2015-04-25T05:00:00Z,68.32,-133.52,0.7,-3.6,190,1,,,,1018.9,,TRUE,TRUE,,,,,,,,,,,,,,,,,,,,,,,,,,,METAR,103.0
CWPE 250500Z AUTO 28005KT 02/01 RMK AO1 SLP019 T00220009 58001,CWPE,2015-04-25T05:00:00Z,45.07,-66.47,2.2,0.9,280,5,,,,1001.9,,TRUE,TRUE,,,,,,,,,,,,,,,,-0.1,,,,,,,,,,,METAR,1.0
CWIY 250500Z AUTO 00000KT M00/M00 RMK AO1 SLP014 T10021004 53001,CWIY,2015-04-25T05:00:00Z,47.13,-67.82,-0.2,-0.4,0,0,,,,1001.4,,TRUE,TRUE,,,,,,,,,,,,,,,,0.1,,,,,,,,,,,METAR,241.0
CWHV 250500Z AUTO 30004KT M01/M02 RMK AO1 0PAST HR 6008 SLP040 P0004 T10081016 50030,CWHV,2015-04-25T05:00:00Z,46.2,-70.77,-0.8,-1.6,300,4,,,,1004.0,,TRUE,TRUE,,,,,,,,,,,,,,,,3.0,,,,,0.04,,,,,,METAR,229.0
CWGL 250500Z AUTO 35005KT M01/M04 RMK AO1 SLP158 T10071040 58006,CWGL,2015-04-25T05:00:00Z,44.52,-79.22,-0.7,-4.0,350,5,,,,1015.8,,TRUE,TRUE,,,,,,,,,,,,,,,,-0.6,,,,,,,,,,,METAR,221.0
CWGD 250500Z AUTO 09003KT M02/M05 RMK AO1 SLP169 T10171049 57005,CWGD,2015-04-25T05:00:00Z,43.77,-81.72,-1.7,-4.9,90,3,,,,1016.9,,TRUE,TRUE,,,,,,,,,,,,,,,,-0.5,,,,,,,,,,,METAR,214.0
CWEZ 250500Z AUTO 29002KT 07/06 RMK AO1 1012 SLP107 T00660056 50006,CWEZ,2015-04-25T05:00:00Z,48.78,-123.05,6.6,5.6,290,2,,,,1010.7,,TRUE,TRUE,,,,,,,,,,,,,,,,0.6,,,,,,,,,,,METAR,7.0
CWEB 250500Z AUTO 02005KT 05/05 RMK AO1 3008 SLP117 T00540047 50007,CWEB,2015-04-25T05:00:00Z,49.38,-126.55,5.4,4.7,20,5,,,,1011.7,,TRUE,TRUE,,,,,,,,,,,,,,,,0.7,,,,,,,,,,,METAR,7.0
CXTP 250500Z AUTO 07003KT 01/01 RMK AO1 SOG 02 8014 SLP071 T00050005,CXTP,2015-04-25T05:00:00Z,48.55,-53.97,0.5,0.5,70,3,,,,1007.1,,TRUE,TRUE,,,,,,,,,,,,,,,,,,,,,,,,,,,METAR,107.0
CXRH 250500Z AUTO 08007KT 05/02 RMK AO1 SOG 37 T00520018,CXRH,2015-04-25T05:00:00Z,49.57,-57.88,5.2,1.8,80,7,,,,,,TRUE,TRUE,,,,,,,,,,,,,,,,,,,,,,,,,,,METAR,68.0
CXMY 250500Z AUTO M00/M00 RMK AO1 T10041001,CXMY,2015-04-25T05:00:00Z,44.98,-62.48,-0.4,-0.1,,,,,,,,TRUE,TRUE,,,,,,,,,,,,,,,,,,,,,,,,,,,METAR,40.0
CXMM 250500Z AUTO 15005KT M02/M16 RMK AO1 SLP183 T10161157 53020,CXMM,2015-04-25T05:00:00Z,56.65,-111.22,-1.6,-15.7,150,5,,,,1018.3,,TRUE,TRUE,,,,,,,,,,,,,,,,2.0,,,,,,,,,,,METAR,369.0
CXHA 250500Z AUTO 16005KT 05/M00 RMK AO1 SLP162 T00451003 55001,CXHA,2015-04-25T05:00:00Z,42.03,-82.9,4.5,-0.3,160,5,,,,1016.2,,TRUE,TRUE,,,,,,,,,,,,,,,,-0.1,,,,,,,,,,,METAR,191.0
CXET 250500Z AUTO 25004KT M03/M05 RMK AO1 SLP170 T10261046 55005,CXET,2015-04-25T05:00:00Z,44.23,-79.78,-2.6,-4.6,250,4,,,,1017.0,,TRUE,TRUE,,,,,,,,,,,,,,,,-0.5,,,,,,,,,,,METAR,251.0
CXEG 250500Z AUTO 03/M01 RMK AO1 T00271013,CXEG,2015-04-25T05:00:00Z,53.3,-113.6,2.7,-1.3,,,,,,,,TRUE,TRUE,,,,,,,,,,,,,,,,,,,,,,,,,,,METAR,715.0
CXDE 250500Z AUTO 10011KT M04/M11 RMK AO1 SOG 04 7002 SLP241 T10391109,CXDE,2015-04-25T05:00:00Z,65.22,-123.43,-3.9,-10.9,100,11,,,,1024.1,,TRUE,TRUE,,,,,,,,,,,,,,,,,,,,,,,,,,,METAR,213.0
CXCA 250500Z AUTO 02002KT M03/M07 RMK AO1 SLP196 T10301066 51007,CXCA,2015-04-25T05:00:00Z,49.15,-88.35,-3.0,-6.6,20,2,,,,1019.6,,TRUE,TRUE,,,,,,,,,,,,,,,,0.7,,,,,,,,,,,METAR,228.0
SARC 250500Z 00000KT CAVOK 17/15 Q1021,SARC,2015-04-25T05:00:00Z,-27.43,-58.77,17.0,15.0,0,0,,6.21,30.147638,,,,,,,,,,,CAVOK,,,,,,,,VFR,,,,,,,,,,,,METAR,62.0
SAOC 250500Z 00000KT CAVOK 16/12 Q1019,SAOC,2015-04-25T05:00:00Z,-33.12,-64.27,16.0,12.0,0,0,,6.21,30.088583,,,,,,,,,,,CAVOK,,,,,,,,VFR,,,,,,,,,,,,METAR,421.0
LEAO 250500Z VRB01KT CAVOK 09/08 Q1017,LEAO,2015-04-25T05:00:00Z,38.95,-3.73,9.0,8.0,0,1,,6.21,30.029528,,,,,,,,,,,CAVOK,,,,,,,,VFR,,,,,,,,,,,,METAR,629.0
OERY 250500Z 36013KT 3000 BLDU SKC 20/M03 Q1021,OERY,2015-04-25T05:00:00Z,24.72,46.72,20.0,-3.0,360,13,,1.86,30.147638,,,,,,,,,,BLDU,SKC,,,,,,,,IFR,,,,,,,,,,,,METAR,612.0
SEMT 250500Z 14002KT 9999 BKN020 26/23 Q1013,SEMT,2015-04-25T05:00:00Z,-0.95,-80.67,26.0,23.0,140,2,,6.21,29.911417,,,,,,,,,,,BKN,2000,,,,,,,MVFR,,,,,,,,,,,,METAR,14.0
SULS 250500Z 01005KT 9999 VA NSC 13/09 Q1019,SULS,2015-04-25T05:00:00Z,-34.87,-55.1,13.0,9.0,10,5,,6.21,30.088583,,,,,,,,,,VA,,,,,,,,,,,,,,,,,,,,,METAR,30.0
SLVR 250500Z 19015KT 9999 SCT023 FEW030CB BKN070 24/19 Q1018,SLVR,2015-04-25T05:00:00Z,-17.63,-63.12,24.0,19.0,190,15,,6.21,30.059055,,,,,,,,,,,SCT,2300,FEW,3000,BKN,7000,,,VFR,,,,,,,,,,,,METAR,373.0
SLLP 250500Z 07006KT 4000E VCFG FEW002 SCT013 BKN200 06/05Q1041,SLLP,2015-04-25T05:00:00Z,-16.52,-68.17,,,70,6,,2.49,30.73819,,,,,,,,,,VCFG,FEW,200,SCT,1300,BKN,20000,,,IFR,,,,,,,,,,,,METAR,4014.0
SLCB 250500Z 35005KT 9999 FEW013 SCT025 FEW030CB BKN070 16/12 Q1029,SLCB,2015-04-25T05:00:00Z,-17.42,-66.18,16.0,12.0,350,5,,6.21,30.383858,,,,,,,,,,,FEW,1300,SCT,2500,FEW,3000,BKN,7000,VFR,,,,,,,,,,,,METAR,2548.0
SGES 250500Z 19004KT CAVOK 16/15 Q1020,SGES,2015-04-25T05:00:00Z,-25.45,-54.85,16.0,15.0,190,4,,6.21,30.11811,,,,,,,,,,,CAVOK,,,,,,,,VFR,,,,,,,,,,,,METAR,849.0
SGAS 250500Z 16006KT CAVOK 20/17 Q1020,SGAS,2015-04-25T05:00:00Z,-25.25,-57.52,20.0,17.0,160,6,,6.21,30.11811,,,,,,,,,,,CAVOK,,,,,,,,VFR,,,,,,,,,,,,METAR,101.0
SEQM 250500Z 32004KT 1500 0500S BCFG BKN003 13/12 Q1027 TREND BECMG AT0540 1000 BR RMK A3035,SEQM,2015-04-25T05:00:00Z,-0.12,-78.35,13.0,12.0,320,4,,0.93,30.324802,,,,,,,,,,BCFG,BKN,300,,,,,,,LIFR,,,,,,,,,,,,SPECI,2400.0
RPVM 250500Z 04012KT 9999 FEW020 SCT300 33/20 Q1010 RMK A2983,RPVM,2015-04-25T05:00:00Z,10.32,123.98,33.0,20.0,40,12,,6.21,29.822834,,,,,,,,,,,FEW,2000,SCT,30000,,,,,VFR,,,,,,,,,,,,METAR,10.0
RPMD 250500Z 02011KT 340V050 9999 FEW015CB FEW016 34/23 Q1008 RMK A2977 CB NE QD,RPMD,2015-04-25T05:00:00Z,7.12,125.65,34.0,23.0,20,11,,6.21,29.763779,,,,,,,,,,,FEW,1500,FEW,1600,,,,,VFR,,,,,,,,,,,,METAR,18.0
RPLL 250500Z 10008KT 010V170 9999 FEW025 34/20 Q1010 NOSIG RMK A2983,RPLL,2015-04-25T05:00:00Z,14.52,121.0,34.0,20.0,100,8,,6.21,29.822834,,,,,,TRUE,,,,,FEW,2500,,,,,,,VFR,,,,,,,,,,,,METAR,21.0
RPLB 250500Z 07011KT 9999 SCT020 35/20 Q1010 NOSIG RMK A2983,RPLB,2015-04-25T05:00:00Z,14.8,120.27,35.0,20.0,70,11,,6.21,29.822834,,,,,,TRUE,,,,,SCT,2000,,,,,,,VFR,,,,,,,,,,,,METAR,17.0
LELO 250500Z 00000KT 9999 FEW060 12/10 Q1013,LELO,2015-04-25T05:00:00Z,42.45,-2.32,12.0,10.0,0,0,,6.21,29.911417,,,,,,,,,,,FEW,6000,,,,,,,VFR,,,,,,,,,,,,METAR,363.0
LEBT 250500Z AUTO 01001KT 2900 // NSC 12/11 Q1013,LEBT,2015-04-25T05:00:00Z,39.58,-0.45,12.0,11.0,10,1,,1.8,29.911417,,,TRUE,,,,,,,,,,,,,,,,,,,,,,,,,,,,METAR,50.0
CYTL 250500Z AUTO 09004KT 9SM CLR M06/M11 A3011 RMK SLP216,CYTL,2015-04-25T05:00:00Z,53.82,-89.88,-6.0,-11.0,90,4,,9.0,30.109253,1021.6,,TRUE,,,,,,,,CLR,,,,,,,,VFR,,,,,,,,,,,,SPECI,224.0
CYRJ 250500Z 31010KT 10SM -RA OVC008 02/01 A2971 RMK SF8 SLP068,CYRJ,2015-04-25T05:00:00Z,48.52,-72.27,2.0,1.0,310,10,,10.0,29.71063,1006.8,,,,,,,,,-RA,OVC,800,,,,,,,IFR,,,,,,,,,,,,SPECI,179.0
CYTS 250500Z 35004KT 15SM OVC031 M00/M08 A3002 RMK SC8 SLP182,CYTS,2015-04-25T05:00:00Z,48.57,-81.37,0.0,-8.0,350,4,,15.0,30.02067,1018.2,,,,,,,,,,OVC,3100,,,,,,,VFR,,,,,,,,,,,,SPECI,295.0
CYTZ 250500Z AUTO 34011KT 9SM CLR 01/M06 A3002 RMK SLP168,CYTZ,2015-04-25T05:00:00Z,43.63,-79.4,1.0,-6.0,340,11,,9.0,30.02067,1016.8,,TRUE,,,,,,,,CLR,,,,,,,,VFR,,,,,,,,,,,,SPECI,77.0
CYVV 250500Z 23002KT 15SM SKC M02/M05 A3002 RMK SLP176,CYVV,2015-04-25T05:00:00Z,44.75,-81.08,-2.0,-5.0,230,2,,15.0,30.02067,1017.6,,,,,,,,,,SKC,,,,,,,,VFR,,,,,,,,,,,,SPECI,222.0
CYWA 250500Z AUTO 30006KT 9SM FEW039 00/M07 A2995 RMK SLP151,CYWA,2015-04-25T05:00:00Z,45.95,-77.32,0.0,-7.0,300,6,,9.0,29.949802,1015.1,,TRUE,,,,,,,,FEW,3900,,,,,,,VFR,,,,,,,,,,,,SPECI,130.0
CYXR 250500Z AUTO 35007KT 9SM OVC049 00/M04 A3000 RMK SLP173,CYXR,2015-04-25T05:00:00Z,47.7,-79.83,0.0,-4.0,350,7,,9.0,30.0,1017.3,,TRUE,,,,,,,,OVC,4900,,,,,,,VFR,,,,,,,,,,,,SPECI,243.0
FSIA 250500Z 06002KT 9999 -SHRA BKN01730/26 Q1011 TEMPO -SHRA,FSIA,2015-04-25T05:00:00Z,-4.67,55.52,30.0,26.0,60,2,,6.21,29.852362,,,,,,,,,,-SHRA,,,,,,,,,,,,,,,,,,,,,METAR,3.0
SELT 250500Z 21006KT 9999 BKN026 12/10 Q1032,SELT,2015-04-25T05:00:00Z,-0.92,-78.62,12.0,10.0,210,6,,6.21,30.47244,,,,,,,,,,,BKN,2600,,,,,,,MVFR,,,,,,,,,,,,METAR,2785.0
LKPD 250500Z 00000KT CAVOK 04/04 Q1013 NOSIG RMK BLACK,LKPD,2015-04-25T05:00:00Z,50.02,15.73,4.0,4.0,0,0,,6.21,29.911417,,,,,,TRUE,,,,,CAVOK,,,,,,,,VFR,,,,,,,,,,,,METAR,226.0
LKNA 250500Z 01005KT 260V030 CAVOK 07/05 Q1013 NOSIG RMK BLU BLU,LKNA,2015-04-25T05:00:00Z,49.17,16.12,7.0,5.0,10,5,,6.21,29.911417,,,,,,TRUE,,,,,CAVOK,,,,,,,,VFR,,,,,,,,,,,,METAR,472.0
LKCV 250500Z 15003KT CAVOK 09/04 Q1013 NOSIG RMK BLU BLU,LKCV,2015-04-25T05:00:00Z,49.93,15.38,9.0,4.0,150,3,,6.21,29.911417,,,,,,TRUE,,,,,CAVOK,,,,,,,,VFR,,,,,,,,,,,,METAR,242.0
FAVV 250500Z AUTO /////KT //// // ////// 13/08 Q1028,FAVV,2015-04-25T05:00:00Z,-26.57,27.97,13.0,8.0,,,,,30.35433,,,TRUE,,,,,,,,,,,,,,,,,,,,,,,,,,,,METAR,1483.0
FASI 250500Z AUTO /////KT //// // ////// 11/08 Q1030,FASI,2015-04-25T05:00:00Z,-26.25,28.4,11.0,8.0,,,,,30.413385,,,TRUE,,,,,,,,,,,,,,,,,,,,,,,,,,,,METAR,1628.0
FAJB 250500Z AUTO 22003KT //// // ////// 13/08 Q1029,FAJB,2015-04-25T05:00:00Z,-26.15,28.0,13.0,8.0,220,3,,,30.383858,,,TRUE,,,,,,,,,,,,,,,,,,,,,,,,,,,,METAR,1626.0
FAGC 250500Z AUTO 17007KT //// // ////// 11/09 Q1029,FAGC,2015-04-25T05:00:00Z,-25.98,28.13,11.0,9.0,170,7,,,30.383858,,,TRUE,,,,,,,,,,,,,,,,,,,,,,,,,,,,METAR,1623.0
CYYY 250500Z 06014KT 2SM -SN BR OVC004 00/M00 A2961 RMK SF8 SLP029,CYYY,2015-04-25T05:00:00Z,48.6,-68.22,0.0,0.0,60,14,,2.0,29.610237,1002.9,,,,,,,,,-SN BR,OVC,400,,,,,,,LIFR,,,,,,,,,,,,SPECI,52.0
CYZE 250500Z AUTO 30004KT 240V300 9SM CLR M02/M04 A3002 RMK ICG SLP175,CYZE,2015-04-25T05:00:00Z,45.87,-82.57,-2.0,-4.0,300,4,,9.0,30.02067,1017.5,,TRUE,,,,,,,,CLR,,,,,,,,VFR,,,,,,,,,,,,SPECI,193.0
CYZR 250500Z AUTO 07002KT 9SM OVC130 02/M04 A3002 RMK SLP173,CYZR,2015-04-25T05:00:00Z,43.0,-82.3,2.0,-4.0,70,2,,9.0,30.02067,1017.3,,TRUE,,,,,,,,OVC,13000,,,,,,,VFR,,,,,,,,,,,,SPECI,181.0
CYCB 250500Z 03012KT 15SM BKN035 BKN120 M17/M19 A3059 RMK SC5AC2 SLP362,CYCB,2015-04-25T05:00:00Z,69.08,-105.12,-17.0,-19.0,30,12,,15.0,30.590551,1036.2,,,,,,,,,,BKN,3500,BKN,12000,,,,,VFR,,,,,,,,,,,,SPECI,27.0
CYCO 250500Z 10010KT 15SM FEW100 M15/M18 A3050 RMK AS1 SLP330,CYCO,2015-04-25T05:00:00Z,67.82,-115.15,-15.0,-18.0,100,10,,15.0,30.499016,1033.0,,,,,,,,,,FEW,10000,,,,,,,VFR,,,,,,,,,,,,SPECI,22.0
CYFS 250500Z 13004KT 080V180 15SM FEW090 FEW150 BKN210 M01/M12 A3021 RMK AC1AC1CI5 AC TR SLP243,CYFS,2015-04-25T05:00:00Z,61.75,-121.22,-1.0,-12.0,130,4,,15.0,30.209646,1024.3,,,,,,,,,,FEW,9000,FEW,15000,BKN,21000,,,VFR,,,,,,,,,,,,SPECI,169.0
CYHY 250500Z 06005KT 010V090 15SM FEW230 M09/M11 A3026 RMK CI1 SLP262,CYHY,2015-04-25T05:00:00Z,60.82,-115.77,-9.0,-11.0,60,5,,15.0,30.259842,1026.2,,,,,,,,,,FEW,23000,,,,,,,VFR,,,,,,,,,,,,SPECI,166.0
RKNY 250500Z 11011KT CAVOK 18/M03 Q1016 NOSIG,RKNY,2015-04-25T05:00:00Z,38.07,128.67,18.0,-3.0,110,11,,6.21,30.0,,,,,,TRUE,,,,,CAVOK,,,,,,,,VFR,,,,,,,,,,,,METAR,74.0
RKJB 250500Z 32007KT 290V350 CAVOK 23/00 Q1020 NOSIG,RKJB,2015-04-25T05:00:00Z,34.98,126.38,23.0,0.0,320,7,,6.21,30.11811,,,,,,TRUE,,,,,CAVOK,,,,,,,,VFR,,,,,,,,,,,,METAR,2.0
RJFT 250500Z 31007KT 280V010 CAVOK 23/M03 Q1018,RJFT,2015-04-25T05:00:00Z,32.82,130.83,23.0,-3.0,310,7,,6.21,30.059055,,,,,,,,,,,CAVOK,,,,,,,,VFR,,,,,,,,,,,,METAR,196.0
RJFR 250500Z 30015KT 9999 FEW030 20/12 Q1018,RJFR,2015-04-25T05:00:00Z,33.82,131.03,20.0,12.0,300,15,,6.21,30.059055,,,,,,,,,,,FEW,3000,,,,,,,VFR,,,,,,,,,,,,METAR,6.0
RJFM 250500Z 13010KT 9999 FEW030 22/14 Q1016,RJFM,2015-04-25T05:00:00Z,31.87,131.43,22.0,14.0,130,10,,6.21,30.0,,,,,,,,,,,FEW,3000,,,,,,,VFR,,,,,,,,,,,,METAR,9.0
RJFK 250500Z 31013G23KT 9999 FEW040 26/M02 Q1017 WS R34 RMK 1CU040 A3004 VOLCANIC ASH CLOUD S,RJFK,2015-04-25T05:00:00Z,31.8,130.72,26.0,-2.0,310,13,23,6.21,30.029528,,,,,,,,,,,FEW,4000,,,,,,,VFR,,,,,,,,,,,,METAR,275.0
RJAH 250500Z 07016KT 9999 FEW030 BKN100 16/00 Q1016,RJAH,2015-04-25T05:00:00Z,36.17,140.42,16.0,0.0,70,16,,6.21,30.0,,,,,,,,,,,FEW,3000,BKN,10000,,,,,VFR,,,,,,,,,,,,METAR,35.0
RORS 250500Z 05016KT 9999 FEW030 SCT050 BKN070 24/14 Q1017,RORS,2015-04-25T05:00:00Z,24.82,125.15,24.0,14.0,50,16,,6.21,30.029528,,,,,,,,,,,FEW,3000,SCT,5000,BKN,7000,,,VFR,,,,,,,,,,,,METAR,16.0
ROMY 250500Z 05013KT 9999 FEW030 SCT048 BKN060 24/15 Q1017,ROMY,2015-04-25T05:00:00Z,24.77,125.27,24.0,15.0,50,13,,6.21,30.029528,,,,,,,,,,,FEW,3000,SCT,4800,BKN,6000,,,VFR,,,,,,,,,,,,METAR,41.0
ROIG 250500Z 06016KT 9999 FEW024 BKN030 23/17 Q1017,ROIG,2015-04-25T05:00:00Z,24.32,124.17,23.0,17.0,60,16,,6.21,30.029528,,,,,,,,,,,FEW,2400,BKN,3000,,,,,MVFR,,,,,,,,,,,,METAR,7.0
RJTO 250500Z 10014KT 9999 FEW030 SCT/// 19/11 Q1015,RJTO,2015-04-25T05:00:00Z,34.77,139.37,19.0,11.0,100,14,,6.21,29.970472,,,,,,,,,,,FEW,3000,,,,,,,VFR,,,,,,,,,,,,METAR,41.0
RJTI 250500Z 12012KT 9999 FEW030 BKN080 19/// Q1016,RJTI,2015-04-25T05:00:00Z,35.63,139.83,,,120,12,,6.21,30.0,,,,,,,,,,,FEW,3000,BKN,8000,,,,,VFR,,,,,,,,,,,,SPECI,8.0
RJTF 250500Z VRB02KT 9999 FEW030 SCT050 BKN070 20/06 Q1015,RJTF,2015-04-25T05:00:00Z,35.67,139.52,20.0,6.0,0,2,,6.21,29.970472,,,,,,,,,,,FEW,3000,SCT,5000,BKN,7000,,,VFR,,,,,,,,,,,,METAR,44.0
RJSY 250500Z 25012KT 9999 FEW060 15/04 Q1019,RJSY,2015-04-25T05:00:00Z,38.82,139.77,15.0,4.0,250,12,,6.21,30.088583,,,,,,,,,,,FEW,6000,,,,,,,VFR,,,,,,,,,,,,METAR,22.0
RJSS 250500Z 15010KT 9999 FEW030 17/02 Q1016,RJSS,2015-04-25T05:00:00Z,38.12,140.92,17.0,2.0,150,10,,6.21,30.0,,,,,,,,,,,FEW,3000,,,,,,,VFR,,,,,,,,,,,,METAR,5.0
RJSN 250500Z 31010KT 9999 FEW035 16/05 Q1019,RJSN,2015-04-25T05:00:00Z,37.95,139.12,16.0,5.0,310,10,,6.21,30.088583,,,,,,,,,,,FEW,3500,,,,,,,VFR,,,,,,,,,,,,METAR,4.0
RJSR 250500Z 25014KT 220V290 9999 FEW050 16/M02 Q1017,RJSR,2015-04-25T05:00:00Z,40.18,140.37,16.0,-2.0,250,14,,6.21,30.029528,,,,,,,,,,,FEW,5000,,,,,,,VFR,,,,,,,,,,,,METAR,87.0
RJSK 250500Z 27016KT 9999 FEW030 15/04 Q1018,RJSK,2015-04-25T05:00:00Z,39.62,140.22,15.0,4.0,270,16,,6.21,30.059055,,,,,,,,,,,FEW,3000,,,,,,,VFR,,,,,,,,,,,,METAR,96.0
RJSI 250500Z 32011G21KT 180V350 9999 FEW030 SCT050 18/M04 Q1016,RJSI,2015-04-25T05:00:00Z,39.42,141.12,18.0,-4.0,320,11,21,6.21,30.0,,,,,,,,,,,FEW,3000,SCT,5000,,,,,VFR,,,,,,,,,,,,METAR,93.0
RJSF 250500Z 36017KT 9999 FEW030 18/M03 Q1016,RJSF,2015-04-25T05:00:00Z,37.22,140.42,18.0,-3.0,360,17,,6.21,30.0,,,,,,,,,,,FEW,3000,,,,,,,VFR,,,,,,,,,,,,METAR,375.0
RJSC 250500Z 34008KT 9999 FEW040 18/M03 Q1017,RJSC,2015-04-25T05:00:00Z,38.42,140.37,18.0,-3.0,340,8,,6.21,30.029528,,,,,,,,,,,FEW,4000,,,,,,,VFR,,,,,,,,,,,,METAR,108.0
RJSA 250500Z 25018G30KT 9999 FEW030 SCT050 16/M06 Q1015,RJSA,2015-04-25T05:00:00Z,40.72,140.68,16.0,-6.0,250,18,30,6.21,29.970472,,,,,,,,,,,FEW,3000,SCT,5000,,,,,VFR,,,,,,,,,,,,METAR,201.0
RJOY 250500Z 05004KT 9999 FEW040 24/M00 Q1016,RJOY,2015-04-25T05:00:00Z,34.6,135.58,24.0,0.0,50,4,,6.21,30.0,,,,,,,,,,,FEW,4000,,,,,,,VFR,,,,,,,,,,,,METAR,13.0
RJOW 250500Z 30009KT 7000 FEW015 SCT020 17/12 Q1018,RJOW,2015-04-25T05:00:00Z,34.67,131.8,17.0,12.0,300,9,,4.35,30.059055,,,,,,,,,,,FEW,1500,SCT,2000,,,,,MVFR,,,,,,,,,,,,METAR,54.0
LFBY 250500Z AUTO 00000KT 4600 // FEW006/// 14/13 Q1012,LFBY,2015-04-25T05:00:00Z,43.67,-1.07,14.0,13.0,0,0,,2.86,29.88189,,,TRUE,,,,,,,,,,,,,,,,,,,,,,,,,,,,METAR,32.0
YWHA 250500Z AUTO 19014KT 9999 // SCT041 SCT060 18/10 Q1016,YWHA,2015-04-25T05:00:00Z,-33.07,137.52,18.0,10.0,190,14,,6.21,30.0,,,TRUE,,,,,,,,SCT,4100,SCT,6000,,,,,VFR,,,,,,,,,,,,METAR,13.0
YWGT 250500Z AUTO 16004KT //// // ////// 17/08 Q1007,YWGT,2015-04-25T05:00:00Z,-36.42,146.3,17.0,8.0,160,4,,,29.734253,,,TRUE,,,,,,,,,,,,,,,,,,,,,,,,,,,,METAR,153.0
YTRE 250500Z AUTO 08009KT 9999 // NCD 24/12 Q1005,YTRE,2015-04-25T05:00:00Z,-31.88,152.52,24.0,12.0,80,9,,6.21,29.675198,,,TRUE,,,,,,,,,,,,,,,,,,,,,,,,,,,,METAR,12.0
YTNK 250500Z AUTO 11011KT 9999 // NCD 27/01 Q1015,YTNK,2015-04-25T05:00:00Z,-19.63,134.18,27.0,1.0,110,11,,6.21,29.970472,,,TRUE,,,,,,,,,,,,,,,,,,,,,,,,,,,,METAR,377.0
YTEF 250500Z AUTO 12017KT //// // ////// 25/05 Q1016,YTEF,2015-04-25T05:00:00Z,-21.72,122.23,25.0,5.0,120,17,,,30.0,,,TRUE,,,,,,,,,,,,,,,,,,,,,,,,,,,,METAR,296.0
YSWG 250500Z 21013KT 9999 VCTS FEW015 SCT060 FEW035CB 16/11 Q1006,YSWG,2015-04-25T05:00:00Z,-35.13,147.47,16.0,11.0,210,13,,6.21,29.704725,,,,,,,,,,VCTS,FEW,1500,SCT,6000,FEW,3500,,,VFR,,,,,,,,,,,,METAR,213.0
ZLLL 250500Z 16004MPS 130V210 9999 FEW023 18/M00 Q1022 BECMG TL0650 35008MPS,ZLLL,2015-04-25T05:00:00Z,36.52,103.62,18.0,0.0,160,8,,6.21,30.177166,,,,,,,,,,,FEW,2300,,,,,,,VFR,,,,,,,,,,,,METAR,1947.0
ZJSY 250500Z 10006MPS 060V140 9999 SCT020 34/20 Q1014 NOSIG,ZJSY,2015-04-25T05:00:00Z,18.3,109.42,34.0,20.0,100,12,,6.21,29.940945,,,,,,TRUE,,,,,SCT,2000,,,,,,,VFR,,,,,,,,,,,,METAR,27.0
ZJHK 250500Z 02005MPS 350V050 9999 FEW016 SCT040 27/21 Q1016 NOSIG,ZJHK,2015-04-25T05:00:00Z,19.93,110.47,27.0,21.0,20,10,,6.21,30.0,,,,,,TRUE,,,,,FEW,1600,SCT,4000,,,,,VFR,,,,,,,,,,,,METAR,23.0
ZHHH 250500Z VRB02MPS 5000 HZ NSC 26/15 Q1019 NOSIG,ZHHH,2015-04-25T05:00:00Z,30.78,114.22,26.0,15.0,0,4,,3.11,30.088583,,,,,,TRUE,,,,HZ,,,,,,,,,,,,,,,,,,,,,METAR,23.0
ZHCC 250500Z 20003MPS 140V250 9999 SCT040 27/11 Q1019 NOSIG,ZHCC,2015-04-25T05:00:00Z,34.52,113.83,27.0,11.0,200,6,,6.21,30.088583,,,,,,TRUE,,,,,SCT,4000,,,,,,,VFR,,,,,,,,,,,,METAR,111.0
ZGHA 250500Z 14002MPS 9999 SCT040 25/12 Q1019 NOSIG,ZGHA,2015-04-25T05:00:00Z,28.18,113.22,25.0,12.0,140,4,,6.21,30.088583,,,,,,TRUE,,,,,SCT,4000,,,,,,,VFR,,,,,,,,,,,,METAR,66.0
ZBHH 250500Z 23004MPS 200V280 CAVOK 24/M12 Q1019 NOSIG,ZBHH,2015-04-25T05:00:00Z,40.85,111.82,24.0,-12.0,230,8,,6.21,30.088583,,,,,,TRUE,,,,,CAVOK,,,,,,,,VFR,,,,,,,,,,,,METAR,1065.0
RPLI 250500Z 29006KT 9999 FEW019 34/21 Q1011 NOSIG RMK A2985,RPLI,2015-04-25T05:00:00Z,18.17,120.52,34.0,21.0,290,6,,6.21,29.852362,,,,,,TRUE,,,,,FEW,1900,,,,,,,VFR,,,,,,,,,,,,METAR,5.0
ZUCK 250500Z VRB01MPS 9999 FEW030 23/13 Q1021 NOSIG,ZUCK,2015-04-25T05:00:00Z,29.72,106.63,23.0,13.0,0,2,,6.21,30.147638,,,,,,TRUE,,,,,FEW,3000,,,,,,,VFR,,,,,,,,,,,,METAR,351.0
ZSOF 250500Z 11003MPS 050V140 CAVOK 27/10 Q1020 NOSIG,ZSOF,2015-04-25T05:00:00Z,31.78,117.3,27.0,10.0,110,6,,6.21,30.11811,,,,,,TRUE,,,,,CAVOK,,,,,,,,VFR,,,,,,,,,,,,METAR,33.0
ZSNJ 250500Z 13003MPS 050V190 8000 NSC 28/11 Q1019 NOSIG,ZSNJ,2015-04-25T05:00:00Z,31.75,118.87,28.0,11.0,130,6,,4.97,30.088583,,,,,,TRUE,,,,,,,,,,,,,,,,,,,,,,,,,METAR,33.0
ZYCC 250500Z 23009G15MPS 200V270 CAVOK 26/M07 Q1007 NOSIG,ZYCC,2015-04-25T05:00:00Z,43.98,125.68,26.0,-7.0,230,17,29,6.21,29.734253,,,,,,TRUE,,,,,CAVOK,,,,,,,,VFR,,,,,,,,,,,,METAR,238.0
LPBJ 250500Z 20004KT 9999 FEW009 SCT028 15/15 Q1016,LPBJ,2015-04-25T05:00:00Z,38.08,-7.93,15.0,15.0,200,4,,6.21,30.0,,,,,,,,,,,FEW,900,SCT,2800,,,,,VFR,,,,,,,,,,,,METAR,247.0
LPLA 250500Z /////KT 9999 FEW025 FEW026TCU 13/12 Q1010,LPLA,2015-04-25T05:00:00Z,38.77,-27.1,13.0,12.0,,,,6.21,29.822834,,,,,,,,,,,FEW,2500,FEW,2600,,,,,VFR,,,,,,,,,,,,SPECI,55.0
WBGR 250500Z 30006KT 9999 SCT014 FEW015CB BKN150 30/25 Q1009 RESH,WBGR,2015-04-25T05:00:00Z,4.32,113.97,30.0,25.0,300,6,,6.21,29.793306,,,,,,,,,,,SCT,1400,FEW,1500,BKN,15000,,,VFR,,,,,,,,,,,,METAR,18.0
WBKW 250500Z 18008KT 9999 FEW017 BKN300 32/27 Q1008,WBKW,2015-04-25T05:00:00Z,4.32,118.12,32.0,27.0,180,8,,6.21,29.763779,,,,,,,,,,,FEW,1700,BKN,30000,,,,,VFR,,,,,,,,,,,,METAR,20.0
WBKT 250500Z 06008KT 340V120 9999 FEW015 BKN280 32/25 Q1009,WBKT,2015-04-25T05:00:00Z,6.92,116.82,32.0,25.0,60,8,,6.21,29.793306,,,,,,,,,,,FEW,1500,BKN,28000,,,,,VFR,,,,,,,,,,,,METAR,5.0
WBKS 250500Z 07009KT 030V110 9999 FEW016 BKN290 32/26 Q1008,WBKS,2015-04-25T05:00:00Z,5.9,118.07,32.0,26.0,70,9,,6.21,29.763779,,,,,,,,,,,FEW,1600,BKN,29000,,,,,VFR,,,,,,,,,,,,METAR,13.0
WBKL 250500Z 23001KT 9999 FEW010 FEW014CB BKN290 31/26 Q1008,WBKL,2015-04-25T05:00:00Z,5.28,115.25,31.0,26.0,230,1,,6.21,29.763779,,,,,,,,,,,FEW,1000,FEW,1400,BKN,29000,,,VFR,,,,,,,,,,,,METAR,30.0
WBGY 250500Z 11003KT 9999 SCT023 BKN300 33/25 Q1009,WBGY,2015-04-25T05:00:00Z,1.22,111.43,33.0,25.0,110,3,,6.21,29.793306,,,,,,,,,,,SCT,2300,BKN,30000,,,,,VFR,,,,,,,,,,,,METAR,34.0
WBGS 250500Z 32002KT 9999 SCT017 BKN300 33/24 Q1008,WBGS,2015-04-25T05:00:00Z,2.27,111.98,33.0,24.0,320,2,,6.21,29.763779,,,,,,,,,,,SCT,1700,BKN,30000,,,,,VFR,,,,,,,,,,,,METAR,8.0
CYPR 250500Z AUTO 19003KT 150V240 9SM BKN015 08/06 A2986 RMK SLP113,CYPR,2015-04-25T05:00:00Z,54.28,-130.42,8.0,6.0,190,3,,9.0,29.861221,1011.3,,TRUE,,,,,,,,BKN,1500,,,,,,,MVFR,,,,,,,,,,,,SPECI,34.0
CYKY 250500Z 07016G21KT 15SM BKN035 04/01 A2972 RMK SC6 SLP077,CYKY,2015-04-25T05:00:00Z,51.52,-109.17,4.0,1.0,70,16,21,15.0,29.719488,1007.7,,,,,,,,,,BKN,3500,,,,,,,VFR,,,,,,,,,,,,SPECI,694.0
CYIV 250500Z 10006KT 060V130 15SM FEW250 M01/M10 A3002 RMK CI2 SLP181,CYIV,2015-04-25T05:00:00Z,53.85,-94.65,-1.0,-10.0,100,6,,15.0,30.02067,1018.1,,,,,,,,,,FEW,25000,,,,,,,VFR,,,,,,,,,,,,SPECI,237.0
CYEV 250500Z 00000KT 15SM OVC030 01/M03 A3007 RMK SC8 SLP188,CYEV,2015-04-25T05:00:00Z,68.32,-133.5,1.0,-3.0,0,0,,15.0,30.070866,1018.8,,,,,,,,,,OVC,3000,,,,,,,MVFR,,,,,,,,,,,,SPECI,68.0
CYDQ 250500Z AUTO 30004KT 9SM OVC070 03/01 A2992 RMK SLP160,CYDQ,2015-04-25T05:00:00Z,55.75,-120.17,3.0,1.0,300,4,,9.0,29.920275,1016.0,,TRUE,,,,,,,,OVC,7000,,,,,,,VFR,,,,,,,,,,,,SPECI,655.0
CYDB 250500Z AUTO 13015G21KT 9SM CLR 04/M08 A2969 RMK SLP087,CYDB,2015-04-25T05:00:00Z,61.37,-139.05,4.0,-8.0,130,15,21,9.0,29.68996,1008.7,,TRUE,,,,,,,,CLR,,,,,,,,VFR,,,,,,,,,,,,SPECI,801.0
RJAW 250500Z 15008KT 110V220 9999 FEW015 26/19 Q1014 RMK 2CU015 A2995,RJAW,2015-04-25T05:00:00Z,24.77,141.32,26.0,19.0,150,8,,6.21,29.940945,,,,,,,,,,,FEW,1500,,,,,,,VFR,,,,,,,,,,,,METAR,116.0
TTCP 250500Z 11018KT 9999 FEW018 26/22 Q1014 NOSIG,TTCP,2015-04-25T05:00:00Z,11.15,-60.85,26.0,22.0,110,18,,6.21,29.940945,,,,,,TRUE,,,,,FEW,1800,,,,,,,VFR,,,,,,,,,,,,METAR,8.0
YBDV 250500Z AUTO 23015KT //// // ////// 22/03 Q1017,YBDV,2015-04-25T05:00:00Z,-25.9,139.35,22.0,3.0,230,15,,,30.029528,,,TRUE,,,,,,,,,,,,,,,,,,,,,,,,,,,,METAR,47.0
YBCV 250500Z AUTO 26013KT 9999 // NCD 25/M01 Q1011,YBCV,2015-04-25T05:00:00Z,-26.38,146.27,25.0,-1.0,260,13,,6.21,29.852362,,,TRUE,,,,,,,,,,,,,,,,,,,,,,,,,,,,METAR,304.0
YAYE 250500Z AUTO 16007KT 110V200 9999 // NCD 20/01 Q1020,YAYE,2015-04-25T05:00:00Z,-25.18,130.98,20.0,1.0,160,7,,6.21,30.11811,,,TRUE,,,,,,,,,,,,,,,,,,,,,,,,,,,,METAR,496.0
YARG 250500Z AUTO 16009KT 9999 // NCD 35/05 Q1011,YARG,2015-04-25T05:00:00Z,-16.63,128.45,35.0,5.0,160,9,,6.21,29.852362,,,TRUE,,,,,,,,,,,,,,,,,,,,,,,,,,,,METAR,165.0
YABA 250500Z 11008KT 9999 FEW030 BKN220 17/08 Q1028,YABA,2015-04-25T05:00:00Z,-34.93,117.8,17.0,8.0,110,8,,6.21,30.35433,,,,,,,,,,,FEW,3000,BKN,22000,,,,,VFR,,,,,,,,,,,,METAR,69.0
MKJP 250500Z 33007KT 9999 FEW022 27/24 Q1013,MKJP,2015-04-25T05:00:00Z,17.92,-76.78,27.0,24.0,330,7,,6.21,29.911417,,,,,,,,,,,FEW,2200,,,,,,,VFR,,,,,,,,,,,,METAR,3.0
FMSD 250500Z 06014KT 8000 -SHRA SCT016TCU BKN033 24/22 Q1019,FMSD,2015-04-25T05:00:00Z,-25.02,46.95,24.0,22.0,60,14,,4.97,30.088583,,,,,,,,,,-SHRA,SCT,1600,BKN,3300,,,,,MVFR,,,,,,,,,,,,METAR,9.0
FMNM 250500Z 13007KT 9999 FEW020CB 28/20 Q1014 NOSIG,FMNM,2015-04-25T05:00:00Z,-15.67,46.35,28.0,20.0,130,7,,6.21,29.940945,,,,,,TRUE,,,,,FEW,2000,,,,,,,VFR,,,,,,,,,,,,METAR,18.0
FMMT 250500Z 22008KT 9999 VCSH FEW007 SCT017TCU 26/24 Q1017 NOSIG,FMMT,2015-04-25T05:00:00Z,-18.12,49.38,26.0,24.0,220,8,,6.21,30.029528,,,,,,TRUE,,,,VCSH,FEW,700,SCT,1700,,,,,VFR,,,,,,,,,,,,METAR,6.0
FVHA 250500Z 12003KT 100V200 9999 FEW010 13/13 Q1027 NOSIG,FVHA,2015-04-25T05:00:00Z,-17.92,31.12,13.0,13.0,120,3,,6.21,30.324802,,,,,,TRUE,,,,,FEW,1000,,,,,,,VFR,,,,,,,,,,,,METAR,1503.0
FVBU 250500Z 12008KT CAVOK 14/13 Q1027 NOSIG,FVBU,2015-04-25T05:00:00Z,-20.02,28.62,14.0,13.0,120,8,,6.21,30.324802,,,,,,TRUE,,,,,CAVOK,,,,,,,,VFR,,,,,,,,,,,,METAR,1326.0
LEBA 250500Z 32002KT 9999 OVC014 13/12 Q1017,LEBA,2015-04-25T05:00:00Z,37.85,-4.82,13.0,12.0,320,2,,6.21,30.029528,,,,,,,,,,,OVC,1400,,,,,,,MVFR,,,,,,,,,,,,METAR,92.0
LEBG 250500Z 21009KT 9999 BKN012 10/09 Q1014,LEBG,2015-04-25T05:00:00Z,42.37,-3.62,10.0,9.0,210,9,,6.21,29.940945,,,,,,,,,,,BKN,1200,,,,,,,MVFR,,,,,,,,,,,,METAR,891.0
LKLN 250500Z AUTO 00000KT CAVOK 03/01 Q1013,LKLN,2015-04-25T05:00:00Z,49.68,13.27,3.0,1.0,0,0,,6.21,29.911417,,,TRUE,,,,,,,,CAVOK,,,,,,,,VFR,,,,,,,,,,,,METAR,362.0
LKKB 250500Z VRB01KT CAVOK 08/04 Q1012 NOSIG,LKKB,2015-04-25T05:00:00Z,50.12,14.53,8.0,4.0,0,1,,6.21,29.88189,,,,,,TRUE,,,,,CAVOK,,,,,,,,VFR,,,,,,,,,,,,METAR,286.0
DAUZ 250500Z 09005KT CAVOK 20/M06 Q1014,DAUZ,2015-04-25T05:00:00Z,28.05,9.62,20.0,-6.0,90,5,,6.21,29.940945,,,,,,,,,,,CAVOK,,,,,,,,VFR,,,,,,,,,,,,METAR,562.0
DABS 250500Z 00000KT CAVOK 13/10 Q1017,DABS,2015-04-25T05:00:00Z,35.43,8.12,13.0,10.0,0,0,,6.21,30.029528,,,,,,,,,,,CAVOK,,,,,,,,VFR,,,,,,,,,,,,METAR,813.0
GMMZ 250500Z VRB02KT CAVOK 11/M06 Q1017 NOSIG,GMMZ,2015-04-25T05:00:00Z,30.92,-6.9,11.0,-6.0,0,2,,6.21,30.029528,,,,,,TRUE,,,,,CAVOK,,,,,,,,VFR,,,,,,,,,,,,METAR,1140.0
DAUO 250500Z 110//KT CAVOK 19/10 Q1012,DAUO,2015-04-25T05:00:00Z,33.5,6.78,19.0,10.0,,,,6.21,29.88189,,,,,,,,,,,CAVOK,,,,,,,,VFR,,,,,,,,,,,,METAR,63.0
DAUL 250500Z 00000KT 7000 NSC 20/07 Q1015,DAUL,2015-04-25T05:00:00Z,33.77,2.92,20.0,7.0,0,0,,4.35,29.970472,,,,,,,,,,,,,,,,,,,,,,,,,,,,,,,METAR,765.0
DAUK 250500Z 08010KT 8000 NSC 20/09 Q1011,DAUK,2015-04-25T05:00:00Z,33.08,6.12,20.0,9.0,80,10,,4.97,29.852362,,,,,,,,,,,,,,,,,,,,,,,,,,,,,,,METAR,85.0
DAUI 250500Z 13004KT CAVOK 22/// Q1014,DAUI,2015-04-25T05:00:00Z,27.25,2.52,,,130,4,,6.21,29.940945,,,,,,,,,,,CAVOK,,,,,,,,VFR,,,,,,,,,,,,SPECI,269.0
DAUG 250500Z 02010KT 2000 HZ NSC 20/10 Q1014,DAUG,2015-04-25T05:00:00Z,32.37,3.82,20.0,10.0,20,10,,1.24,29.940945,,,,,,,,,,HZ,,,,,,,,,,,,,,,,,,,,,METAR,450.0
DAUB 250500Z 00000KT 7000 NSC 21/12 Q1013,DAUB,2015-04-25T05:00:00Z,34.78,5.72,21.0,12.0,0,0,,4.35,29.911417,,,,,,,,,,,,,,,,,,,,,,,,,,,,,,,METAR,87.0
DAUA 250500Z 22006KT CAVOK 24/// Q1013,DAUA,2015-04-25T05:00:00Z,27.83,-0.18,,,220,6,,6.21,29.911417,,,,,,,,,,,CAVOK,,,,,,,,VFR,,,,,,,,,,,,METAR,263.0
DAOV 250500Z 00000KT 6000 NSC 11/09 Q1017,DAOV,2015-04-25T05:00:00Z,35.2,0.15,11.0,9.0,0,0,,3.73,30.029528,,,,,,,,,,,,,,,,,,,,,,,,,,,,,,,METAR,514.0
DAOR 250500Z 31006KT CAVOK 18/M11 Q1016,DAOR,2015-04-25T05:00:00Z,31.65,-2.27,18.0,-11.0,310,6,,6.21,30.0,,,,,,,,,,,CAVOK,,,,,,,,VFR,,,,,,,,,,,,METAR,773.0
DAOI 250500Z 20004KT 8000 SCT023 14/13 Q1016,DAOI,2015-04-25T05:00:00Z,36.22,1.32,14.0,13.0,200,4,,4.97,30.0,,,,,,,,,,,SCT,2300,,,,,,,MVFR,,,,,,,,,,,,METAR,143.0
DAOF 250500Z 28015KT CAVOK 16/04 Q1015,DAOF,2015-04-25T05:00:00Z,27.7,-8.17,16.0,4.0,280,15,,6.21,29.970472,,,,,,,,,,,CAVOK,,,,,,,,VFR,,,,,,,,,,,,METAR,431.0
DAOB 250500Z 00000KT CAVOK 09/08 Q1017,DAOB,2015-04-25T05:00:00Z,35.33,1.47,9.0,8.0,0,0,,6.21,30.029528,,,,,,,,,,,CAVOK,,,,,,,,VFR,,,,,,,,,,,,METAR,989.0
DABT 250500Z 30006KT CAVOK 11/07 Q1016,DABT,2015-04-25T05:00:00Z,35.75,6.32,11.0,7.0,300,6,,6.21,30.0,,,,,,,,,,,CAVOK,,,,,,,,VFR,,,,,,,,,,,,METAR,1052.0
DAAV 250500Z 21004KT 4000 BR SCT013 BKN200 15/14 Q1015,DAAV,2015-04-25T05:00:00Z,36.8,5.88,15.0,14.0,210,4,,2.49,29.970472,,,,,,,,,,BR,SCT,1300,BKN,20000,,,,,IFR,,,,,,,,,,,,METAR,11.0
DAAJ 250500Z 32005KT 8000 NSC 18/M04 Q1022,DAAJ,2015-04-25T05:00:00Z,24.28,9.47,18.0,-4.0,320,5,,4.97,30.177166,,,,,,,,,,,,,,,,,,,,,,,,,,,,,,,METAR,968.0
DAAE 250500Z 00000KT 8000 FEW020 SCT090 15/14 Q1015,DAAE,2015-04-25T05:00:00Z,36.72,5.07,15.0,14.0,0,0,,4.97,29.970472,,,,,,,,,,,FEW,2000,SCT,9000,,,,,MVFR,,,,,,,,,,,,METAR,2.0
ZYHB 250500Z 23011MPS CAVOK 26/M04 Q1003 NOSIG,ZYHB,2015-04-25T05:00:00Z,45.62,126.25,26.0,-4.0,230,21,,6.21,29.616142,,,,,,TRUE,,,,,CAVOK,,,,,,,,VFR,,,,,,,,,,,,METAR,140.0
CYRT 250500Z 09016G21KT 6SM -SN BKN003 OVC025 M03/M04 A3021 RMK SF5SC3 SLP233,CYRT,2015-04-25T05:00:00Z,62.82,-92.12,-3.0,-4.0,90,16,21,6.0,30.209646,1023.3,,,,,,,,,-SN,BKN,300,OVC,2500,,,,,LIFR,,,,,,,,,,,,SPECI,32.0
CYVM 250500Z AUTO VRB02KT 9SM CLR M17/M22 A3065 RMK SLP380,CYVM,2015-04-25T05:00:00Z,67.53,-64.02,-17.0,-22.0,0,2,,9.0,30.649607,1038.0,,TRUE,,,,,,,,CLR,,,,,,,,VFR,,,,,,,,,,,,SPECI,6.0
CYWE 250500Z AUTO 07007KT 9SM CLR M15/M18 A3033 RMK SLP315,CYWE,2015-04-25T05:00:00Z,64.18,-114.08,-15.0,-18.0,70,7,,9.0,30.33071,1031.5,,TRUE,,,,,,,,CLR,,,,,,,,VFR,,,,,,,,,,,,METAR,371.0
CWCA 250500Z 05008KT 340V060 2SM BR OVC005 00/M00 A3006 RMK ST8 SLP180,CWCA,2015-04-25T05:00:00Z,53.7,-57.02,0.0,0.0,50,8,,2.0,30.059055,1018.0,,,,,,,,,BR,OVC,500,,,,,,,IFR,,,,,,,,,,,,SPECI,14.0
CWIL 250500Z AUTO 05013KT M12/ A3047 RMK SLP328,CWIL,2015-04-25T05:00:00Z,68.32,-100.07,-12.0,,50,13,,,30.469488,1032.8,,TRUE,,,,,,,,,,,,,,,,,,,,,,,,,,,,SPECI,36.0
CWKM 250500Z AUTO 09028KT M03/ A2992 RMK SLP138,CWKM,2015-04-25T05:00:00Z,69.6,-140.17,-3.0,,90,28,,,29.920275,1013.8,,TRUE,,,,,,,,,,,,,,,,,,,,,,,,,,,,SPECI,13.0
CWKW 250500Z AUTO ///// M06/ A3022 RMK SLP273,CWKW,2015-04-25T05:00:00Z,59.97,-64.17,-6.0,,,,,,30.221457,1027.3,,TRUE,,,,,,,,,,,,,,,,,,,,,,,,,,,,SPECI,551.0
CWLI 250500Z AUTO 07013KT M07/ A3017 RMK SLP230,CWLI,2015-04-25T05:00:00Z,69.58,-130.9,-7.0,,70,13,,,30.171259,1023.0,,TRUE,,,,,,,,,,,,,,,,,,,,,,,,,,,,SPECI,102.0
CWLX 250500Z AUTO 07010KT M13/ A3060 RMK SLP384,CWLX,2015-04-25T05:00:00Z,68.9,-75.15,-13.0,,70,10,,,30.59941,1038.4,,TRUE,,,,,,,,,,,,,,,,,,,,,,,,,,,,SPECI,162.0
CWLY 250500Z AUTO 20018G27KT 180V240 9SM FEW110 SCT140 SCT170 07/01 A2979 RMK SLP094,CWLY,2015-04-25T05:00:00Z,50.22,-121.58,7.0,1.0,200,18,27,9.0,29.790354,1009.4,,TRUE,,,,,,,,FEW,11000,SCT,14000,SCT,17000,,,VFR,,,,,,,,,,,,SPECI,229.0
CWPX 250500Z AUTO 03011KT M14/ A3052 RMK SLP365,CWPX,2015-04-25T05:00:00Z,69.02,-107.82,-14.0,,30,11,,,30.519686,1036.5,,TRUE,,,,,,,,,,,,,,,,,,,,,,,,,,,,METAR,165.0
CWRX 250500Z AUTO 06007G15KT M15/ A3062,CWRX,2015-04-25T05:00:00Z,69.07,-79.02,-15.0,,60,7,15,,30.620079,,,TRUE,,,,,,,,,,,,,,,,,,,,,,,,,,,,METAR,41.0
CWUP 250500Z AUTO ///// M12/ A3055 RMK SLP391,CWUP,2015-04-25T05:00:00Z,68.47,-66.82,-12.0,,,,,,30.549213,1039.1,,TRUE,,,,,,,,,,,,,,,,,,,,,,,,,,,,SPECI,390.0
CWVH 250500Z AUTO 11006KT M01/ A3005 RMK SLP199,CWVH,2015-04-25T05:00:00Z,68.9,-133.93,-1.0,,110,6,,,30.050198,1019.9,,TRUE,,,,,,,,,,,,,,,,,,,,,,,,,,,,SPECI,261.0
CWUW 250500Z AUTO 09013KT 9SM FEW083 M13/ A3049 RMK SLP388,CWUW,2015-04-25T05:00:00Z,68.65,-71.17,-13.0,,90,13,,9.0,30.490158,1038.8,,TRUE,,,,,,,,FEW,8300,,,,,,,VFR,,,,,,,,,,,,SPECI,527.0
CWYK 250500Z AUTO ///// M02/ A3005 RMK SLP219,CWYK,2015-04-25T05:00:00Z,57.12,-61.47,-2.0,,,,,,30.050198,1021.9,,TRUE,,,,,,,,,,,,,,,,,,,,,,,,,,,,METAR,834.0
CZBF 250500Z 03003KT 1/4SM -FZDZ FZFG VV001 M00/M01 A2959 RMK FG8 SLP022,CZBF,2015-04-25T05:00:00Z,47.62,-65.75,0.0,-1.0,30,3,,0.25,29.589567,1002.2,,,,,,,,,-FZDZ FZFG,OVX,0,,,,,,,LIFR,,,,,,,,,,,100,SPECI,59.0
CWZZ 250500Z AUTO 03009G16KT M02/ A3018 RMK SLP255,CWZZ,2015-04-25T05:00:00Z,58.32,-62.57,-2.0,,30,9,16,,30.180119,1025.5,,TRUE,,,,,,,,,,,,,,,,,,,,,,,,,,,,SPECI,483.0
LETO 250500Z 00000KT 9999 FEW020 10/08 Q1015 NOSIG,LETO,2015-04-25T05:00:00Z,40.47,-3.47,10.0,8.0,0,0,,6.21,29.970472,,,,,,TRUE,,,,,FEW,2000,,,,,,,VFR,,,,,,,,,,,,METAR,608.0
LELN 250500Z 22006KT 9999 SCT052 08/07 Q1013,LELN,2015-04-25T05:00:00Z,42.57,-5.65,8.0,7.0,220,6,,6.21,29.911417,,,,,,,,,,,SCT,5200,,,,,,,VFR,,,,,,,,,,,,METAR,914.0
LEBZ 250500Z VRB01KT 9999 FEW036 14/13 Q1016,LEBZ,2015-04-25T05:00:00Z,38.87,-6.82,14.0,13.0,0,1,,6.21,30.0,,,,,,,,,,,FEW,3600,,,,,,,VFR,,,,,,,,,,,,METAR,192.0
LEAB 250500Z 25003KT CAVOK 10/06 Q1017 NOSIG,LEAB,2015-04-25T05:00:00Z,38.95,-1.85,10.0,6.0,250,3,,6.21,30.029528,,,,,,TRUE,,,,,CAVOK,,,,,,,,VFR,,,,,,,,,,,,METAR,704.0
LECO 250500Z 14005KT 100V170 9999 FEW022 SCT040 13/13 Q1009 TEMPO 4000 RA,LECO,2015-04-25T05:00:00Z,43.28,-8.37,13.0,13.0,140,5,,6.21,29.793306,,,,,,,,,,,FEW,2200,SCT,4000,,,,,VFR,,,,,,,,,,,,METAR,103.0
FAUP 250500Z 31002KT CAVOK 13/07 Q1021 NOSIG,FAUP,2015-04-25T05:00:00Z,-28.38,21.27,13.0,7.0,310,2,,6.21,30.147638,,,,,,TRUE,,,,,CAVOK,,,,,,,,VFR,,,,,,,,,,,,METAR,836.0
FAPP 250500Z 19002KT 5000 FU NSC 11/09 Q1027 NOSIG,FAPP,2015-04-25T05:00:00Z,-23.83,29.45,11.0,9.0,190,2,,3.11,30.324802,,,,,,TRUE,,,,FU,,,,,,,,,,,,,,,,,,,,,METAR,1242.0
FAPN 250500Z AUTO 34003KT //// // ////// 13/09 Q1026,FAPN,2015-04-25T05:00:00Z,-25.33,27.17,13.0,9.0,340,3,,,30.295275,,,TRUE,,,,,,,,,,,,,,,,,,,,,,,,,,,,METAR,1039.0
FAPE 250500Z 00000KT 0300 R26/0375N R08/0650VP2000D FG VV001 12/11 Q1016 TEMPO 0200,FAPE,2015-04-25T05:00:00Z,-33.97,25.6,12.0,11.0,0,0,,0.19,30.0,,,,,,,,,,FG,OVX,0,,,,,,,LIFR,,,,,,,,,,,100,METAR,60.0
FAOR 250500Z 21010KT CAVOK 12/09 Q1031 NOSIG,FAOR,2015-04-25T05:00:00Z,-26.12,28.22,12.0,9.0,210,10,,6.21,30.442913,,,,,,TRUE,,,,,CAVOK,,,,,,,,VFR,,,,,,,,,,,,METAR,1700.0
FAOB 250500Z AUTO 09003KT //// // ////// 09/09 Q1016,FAOB,2015-04-25T05:00:00Z,-34.6,20.27,9.0,9.0,90,3,,,30.0,,,TRUE,,,,,,,,,,,,,,,,,,,,,,,,,,,,METAR,75.0
FAMM 250500Z 02008KT CAVOK 15/11 Q1028 NOSIG,FAMM,2015-04-25T05:00:00Z,-25.8,25.52,15.0,11.0,20,8,,6.21,30.35433,,,,,,TRUE,,,,,CAVOK,,,,,,,,VFR,,,,,,,,,,,,METAR,1277.0
FALW 250500Z AUTO 05003KT //// // ////// 11/09 Q1018,FALW,2015-04-25T05:00:00Z,-32.97,18.17,11.0,9.0,50,3,,,30.059055,,,TRUE,,,,,,,,,,,,,,,,,,,,,,,,,,,,METAR,0.0
FALE 250500Z 23005KT CAVOK 18/17 Q1020 NOSIG,FALE,2015-04-25T05:00:00Z,-29.62,31.12,18.0,17.0,230,5,,6.21,30.11811,,,,,,TRUE,,,,,CAVOK,,,,,,,,VFR,,,,,,,,,,,,METAR,109.0
FALA 250500Z 15009KT CAVOK 13/10 Q1029 NOSIG,FALA,2015-04-25T05:00:00Z,-25.92,27.92,13.0,10.0,150,9,,6.21,30.383858,,,,,,TRUE,,,,,CAVOK,,,,,,,,VFR,,,,,,,,,,,,METAR,1377.0
FAKN 250500Z 33004KT 4000 BCFG SCT003 BKN010 14/13 Q1025 NOSIG,FAKN,2015-04-25T05:00:00Z,-25.38,31.1,14.0,13.0,330,4,,2.49,30.265747,,,,,,TRUE,,,,BCFG,SCT,300,BKN,1000,,,,,IFR,,,,,,,,,,,,METAR,862.0
FAGG 250500Z 31004KT CAVOK 15/13 Q1016,FAGG,2015-04-25T05:00:00Z,-34.0,22.37,15.0,13.0,310,4,,6.21,30.0,,,,,,,,,,,CAVOK,,,,,,,,VFR,,,,,,,,,,,,METAR,193.0
FAEL 250500Z 29004KT CAVOK 15/14 Q1018,FAEL,2015-04-25T05:00:00Z,-33.02,27.82,15.0,14.0,290,4,,6.21,30.059055,,,,,,,,,,,CAVOK,,,,,,,,VFR,,,,,,,,,,,,METAR,125.0
FABL 250500Z VRB02KT CAVOK 08/06 Q1027 NOSIG,FABL,2015-04-25T05:00:00Z,-29.1,26.3,8.0,6.0,0,2,,6.21,30.324802,,,,,,TRUE,,,,,CAVOK,,,,,,,,VFR,,,,,,,,,,,,METAR,1348.0
RJFG 250500Z 30010KT 270V330 CAVOK 21/12 Q1018,RJFG,2015-04-25T05:00:00Z,30.62,130.98,21.0,12.0,300,10,,6.21,30.059055,,,,,,,,,,,CAVOK,,,,,,,,VFR,,,,,,,,,,,,METAR,95.0
RJFS 250500Z 02012KT CAVOK 24/M00 Q1018,RJFS,2015-04-25T05:00:00Z,33.15,130.3,24.0,0.0,20,12,,6.21,30.059055,,,,,,,,,,,CAVOK,,,,,,,,VFR,,,,,,,,,,,,METAR,5.0
RJEC 250500Z 27010KT 220V310 9999 FEW035 BKN060 13/M03 Q1011,RJEC,2015-04-25T05:00:00Z,43.67,142.43,13.0,-3.0,270,10,,6.21,29.852362,,,,,,,,,,,FEW,3500,BKN,6000,,,,,VFR,,,,,,,,,,,,METAR,211.0
RJEB 250500Z 28016KT 240V300 9999 FEW060 BKN070 14/M05 Q1010,RJEB,2015-04-25T05:00:00Z,44.3,143.4,14.0,-5.0,280,16,,6.21,29.822834,,,,,,,,,,,FEW,6000,BKN,7000,,,,,VFR,,,,,,,,,,,,METAR,25.0
RJDT 250500Z 15007KT CAVOK 19/08 Q1019,RJDT,2015-04-25T05:00:00Z,34.27,129.32,19.0,8.0,150,7,,6.21,30.088583,,,,,,,,,,,CAVOK,,,,,,,,VFR,,,,,,,,,,,,METAR,66.0
RJDC 250500Z 26015KT 9999 FEW035 20/12 Q1017,RJDC,2015-04-25T05:00:00Z,33.92,131.27,20.0,12.0,260,15,,6.21,30.029528,,,,,,,,,,,FEW,3500,,,,,,,VFR,,,,,,,,,,,,METAR,8.0
RJCW 250500Z 23015KT 9999 FEW030 11/02 Q1010,RJCW,2015-04-25T05:00:00Z,45.38,141.8,11.0,2.0,230,15,,6.21,29.822834,,,,,,,,,,,FEW,3000,,,,,,,VFR,,,,,,,,,,,,METAR,11.0
RJCN 250500Z 06009KT 020V080 9999 FEW030 BKN080 14/M01 Q1010,RJCN,2015-04-25T05:00:00Z,43.57,144.97,14.0,-1.0,60,9,,6.21,29.822834,,,,,,,,,,,FEW,3000,BKN,8000,,,,,VFR,,,,,,,,,,,,METAR,70.0
RJCM 250500Z 09010KT 9999 FEW030 SCT060 12/M02 Q1011,RJCM,2015-04-25T05:00:00Z,43.88,144.17,12.0,-2.0,90,10,,6.21,29.852362,,,,,,,,,,,FEW,3000,SCT,6000,,,,,VFR,,,,,,,,,,,,METAR,36.0
RJCK 250500Z 32014KT 290V360 9999 FEW030 SCT050 BKN080 16/M03 Q1010,RJCK,2015-04-25T05:00:00Z,43.02,144.18,16.0,-3.0,320,14,,6.21,29.822834,,,,,,,,,,,FEW,3000,SCT,5000,BKN,8000,,,VFR,,,,,,,,,,,,METAR,98.0
RJCH 250500Z 22015KT 9999 FEW030 SCT080 12/06 Q1014,RJCH,2015-04-25T05:00:00Z,41.77,140.82,12.0,6.0,220,15,,6.21,29.940945,,,,,,,,,,,FEW,3000,SCT,8000,,,,,VFR,,,,,,,,,,,,METAR,36.0
RJCB 250500Z 27008KT 210V330 9999 -SHRA FEW030 SCT100 11/00 Q1012,RJCB,2015-04-25T05:00:00Z,42.72,143.22,11.0,0.0,270,8,,6.21,29.88189,,,,,,,,,,-SHRA,FEW,3000,SCT,10000,,,,,VFR,,,,,,,,,,,,METAR,152.0
RJBT 250500Z 01009KT 340V050 9999 FEW045 19/M02 Q1018,RJBT,2015-04-25T05:00:00Z,35.5,134.8,19.0,-2.0,10,9,,6.21,30.059055,,,,,,,,,,,FEW,4500,,,,,,,VFR,,,,,,,,,,,,METAR,210.0
RJBE 250500Z 26009KT CAVOK 20/06 Q1016,RJBE,2015-04-25T05:00:00Z,34.63,135.23,20.0,6.0,260,9,,6.21,30.0,,,,,,,,,,,CAVOK,,,,,,,,VFR,,,,,,,,,,,,METAR,5.0
RJBD 250500Z 21005KT 150V280 9999 FEW035 22/09 Q1016,RJBD,2015-04-25T05:00:00Z,33.67,135.37,22.0,9.0,210,5,,6.21,30.0,,,,,,,,,,,FEW,3500,,,,,,,VFR,,,,,,,,,,,,METAR,108.0
RJAF 250500Z 34009KT 9999 FEW080 20/M03 Q1015,RJAF,2015-04-25T05:00:00Z,36.17,137.92,20.0,-3.0,340,9,,6.21,29.970472,,,,,,,,,,,FEW,8000,,,,,,,VFR,,,,,,,,,,,,METAR,660.0
RJOT 250500Z 03006KT 350V100 9999 FEW040 21/05 Q1017,RJOT,2015-04-25T05:00:00Z,34.22,134.02,21.0,5.0,30,6,,6.21,30.029528,,,,,,,,,,,FEW,4000,,,,,,,VFR,,,,,,,,,,,,METAR,188.0
RJOR 250500Z 02010KT 9999 FEW040 17/11 Q1018,RJOR,2015-04-25T05:00:00Z,35.52,134.17,17.0,11.0,20,10,,6.21,30.059055,,,,,,,,,,,FEW,4000,,,,,,,VFR,,,,,,,,,,,,METAR,18.0
RJOO 250500Z 34008KT 300V030 CAVOK 24/01 Q1016 RMK A3001,RJOO,2015-04-25T05:00:00Z,34.77,135.43,24.0,1.0,340,8,,6.21,30.0,,,,,,,,,,,CAVOK,,,,,,,,VFR,,,,,,,,,,,,METAR,15.0
RJOM 250500Z 23005KT 7000 FEW030 18/11 Q1017,RJOM,2015-04-25T05:00:00Z,33.82,132.68,18.0,11.0,230,5,,4.35,30.029528,,,,,,,,,,,FEW,3000,,,,,,,MVFR,,,,,,,,,,,,METAR,7.0
RJOK 250500Z 19008KT 9999 FEW035 21/14 Q1016,RJOK,2015-04-25T05:00:00Z,33.52,133.67,21.0,14.0,190,8,,6.21,30.0,,,,,,,,,,,FEW,3500,,,,,,,VFR,,,,,,,,,,,,METAR,10.0
RJOH 250500Z 06012KT 9999 FEW250 18/09 Q1019,RJOH,2015-04-25T05:00:00Z,35.47,133.25,18.0,9.0,60,12,,6.21,30.088583,,,,,,,,,,,FEW,25000,,,,,,,VFR,,,,,,,,,,,,METAR,9.0
RJOC 250500Z 02012KT 9999 FEW030 20/07 Q1018,RJOC,2015-04-25T05:00:00Z,35.42,132.87,20.0,7.0,20,12,,6.21,30.059055,,,,,,,,,,,FEW,3000,,,,,,,VFR,,,,,,,,,,,,METAR,5.0
RJOB 250500Z VRB03KT 9999 FEW035 BKN060 21/06 Q1017,RJOB,2015-04-25T05:00:00Z,34.75,133.83,21.0,6.0,0,3,,6.21,30.029528,,,,,,,,,,,FEW,3500,BKN,6000,,,,,VFR,,,,,,,,,,,,METAR,242.0
RJOA 250500Z 15004KT 070V220 9999 SCT040 21/04 Q1017,RJOA,2015-04-25T05:00:00Z,34.42,132.92,21.0,4.0,150,4,,6.21,30.029528,,,,,,,,,,,SCT,4000,,,,,,,VFR,,,,,,,,,,,,METAR,6.0
RJNS 250500Z 16011KT 9999 FEW030 19/10 Q1015,RJNS,2015-04-25T05:00:00Z,34.8,138.18,19.0,10.0,160,11,,6.21,29.970472,,,,,,,,,,,FEW,3000,,,,,,,VFR,,,,,,,,,,,,METAR,135.0
RJNW 250500Z 11004KT CAVOK 17/05 Q1019,RJNW,2015-04-25T05:00:00Z,37.3,136.97,17.0,5.0,110,4,,6.21,30.088583,,,,,,,,,,,CAVOK,,,,,,,,VFR,,,,,,,,,,,,METAR,219.0
RJNT 250500Z 01008KT 340V060 9999 FEW030 20/M00 Q1018,RJNT,2015-04-25T05:00:00Z,36.63,137.17,20.0,0.0,10,8,,6.21,30.059055,,,,,,,,,,,FEW,3000,,,,,,,VFR,,,,,,,,,,,,METAR,27.0
RJKA 250500Z 36012KT 330V030 CAVOK 24/14 Q1018,RJKA,2015-04-25T05:00:00Z,28.42,129.72,24.0,14.0,360,12,,6.21,30.059055,,,,,,,,,,,CAVOK,,,,,,,,VFR,,,,,,,,,,,,METAR,7.0
RJFU 250500Z 35012KT CAVOK 25/03 Q1018,RJFU,2015-04-25T05:00:00Z,32.92,129.92,25.0,3.0,350,12,,6.21,30.059055,,,,,,,,,,,CAVOK,,,,,,,,VFR,,,,,,,,,,,,METAR,5.0
CYCK 250500Z AUTO 13004KT 9SM FEW170 03/M01 A3001 RMK SLP166,CYCK,2015-04-25T05:00:00Z,42.3,-82.08,3.0,-1.0,130,4,,9.0,30.008858,1016.6,,TRUE,,,,,,,,FEW,17000,,,,,,,VFR,,,,,,,,,,,,METAR,198.0
CYBN 250500Z AUTO 23003KT 9SM CLR M06/M06 A3002 RMK SLP175,CYBN,2015-04-25T05:00:00Z,44.27,-79.92,-6.0,-6.0,230,3,,9.0,30.02067,1017.5,,TRUE,,,,,,,,CLR,,,,,,,,VFR,,,,,,,,,,,,SPECI,223.0
CYBC 250500Z AUTO 06009KT 9SM -RA BKN019 OVC026 02/01 A2964 RMK SLP038,CYBC,2015-04-25T05:00:00Z,49.12,-68.2,2.0,1.0,60,9,,9.0,29.639763,1003.8,,TRUE,,,,,,,-RA,BKN,1900,OVC,2600,,,,,MVFR,,,,,,,,,,,,SPECI,22.0
CYXH 250500Z AUTO 25009KT 9SM FEW130 BKN150 09/M04 A2965 RMK SLP049 DENSITY ALT 2500FT,CYXH,2015-04-25T05:00:00Z,50.02,-110.72,9.0,-4.0,250,9,,9.0,29.648623,1004.9,,TRUE,,,,,,,,FEW,13000,BKN,15000,,,,,VFR,,,,,,,,,,,,SPECI,716.0
CYUX 250500Z AUTO 09009KT 9SM CLR M11/M13 A3065 RMK SLP380,CYUX,2015-04-25T05:00:00Z,68.77,-81.25,-11.0,-13.0,90,9,,9.0,30.649607,1038.0,,TRUE,,,,,,,,CLR,,,,,,,,VFR,,,,,,,,,,,,SPECI,8.0
CYUB 250500Z 10010KT 15SM FEW025 M03/M06 A3012 RMK SC2 -0.5/-5.6/0/25 MEDIUM PACK LAST OBS/NXT 251300UTC SLP202,CYUB,2015-04-25T05:00:00Z,69.45,-133.02,-3.0,-6.0,100,10,,15.0,30.121063,1020.2,,,,,,,,,,FEW,2500,,,,,,,VFR,,,,,,,,,,,,SPECI,5.0
CYSM 250500Z 05003KT 15SM FEW240 M04/M12 A3020 RMK CI1 SLP244,CYSM,2015-04-25T05:00:00Z,60.03,-111.97,-4.0,-12.0,50,3,,15.0,30.200787,1024.4,,,,,,,,,,FEW,24000,,,,,,,VFR,,,,,,,,,,,,SPECI,203.0
CYSF 250500Z AUTO 00000KT 9SM CLR M08/M12 A3016 RMK SLP235,CYSF,2015-04-25T05:00:00Z,59.25,-105.82,-8.0,-12.0,0,0,,9.0,30.159449,1023.5,,TRUE,,,,,,,,CLR,,,,,,,,VFR,,,,,,,,,,,,SPECI,250.0
CYPE 250500Z 05012KT 15SM SCT080 BKN220 02/M11 A2995 RMK AC4CI3 SLP170,CYPE,2015-04-25T05:00:00Z,56.22,-117.45,2.0,-11.0,50,12,,15.0,29.949802,1017.0,,,,,,,,,,SCT,8000,BKN,22000,,,,,VFR,,,,,,,,,,,,SPECI,571.0
CYOD 250500Z 09005KT 15SM FEW050 SCT080 BKN240 02/M05 A2990 RMK SC1AC2CI2 SLP152,CYOD,2015-04-25T05:00:00Z,54.4,-110.28,2.0,-5.0,90,5,,15.0,29.899607,1015.2,,,,,,,,,,FEW,5000,SCT,8000,BKN,24000,,,VFR,,,,,,,,,,,,SPECI,544.0
CYIO 250500Z AUTO 00000KT 9SM CLR M21/M25 A3078 RMK SLP433,CYIO,2015-04-25T05:00:00Z,72.67,-77.97,-21.0,-25.0,0,0,,9.0,30.779528,1043.3,,TRUE,,,,,,,,CLR,,,,,,,,VFR,,,,,,,,,,,,SPECI,57.0
CYEK 250500Z AUTO 19011KT 9SM CLR M14/M15 A3016 RMK SLP213,CYEK,2015-04-25T05:00:00Z,61.1,-94.07,-14.0,-15.0,190,11,,9.0,30.159449,1021.3,,TRUE,,,,,,,,CLR,,,,,,,,VFR,,,,,,,,,,,,SPECI,10.0
CYED 250500Z AUTO 07006KT 9SM OVC038 03/M03 A2982 RMK SLP121,CYED,2015-04-25T05:00:00Z,53.67,-113.47,3.0,-3.0,70,6,,9.0,29.819881,1012.1,,TRUE,,,,,,,,OVC,3800,,,,,,,VFR,,,,,,,,,,,,SPECI,688.0
CYCY 250500Z AUTO 31017KT 9SM CLR M15/M20 A3069 RMK SLP395,CYCY,2015-04-25T05:00:00Z,70.47,-68.52,-15.0,-20.0,310,17,,9.0,30.690945,1039.5,,TRUE,,,,,,,,CLR,,,,,,,,VFR,,,,,,,,,,,,SPECI,26.0
CWVD 250500Z AUTO 30011KT M14/ A3043 RMK SLP378,CWVD,2015-04-25T05:00:00Z,67.52,-63.77,-14.0,,300,11,,,30.431103,1037.8,,TRUE,,,,,,,,,,,,,,,,,,,,,,,,,,,,SPECI,573.0
CWRF 250500Z AUTO ///// M08/ A3045 RMK SLP352,CWRF,2015-04-25T05:00:00Z,69.42,-89.72,-8.0,,,,,,30.448818,1035.2,,TRUE,,,,,,,,,,,,,,,,,,,,,,,,,,,,METAR,325.0
CYZT 250500Z 22004KT 15SM FEW050 03/02 A2988 RMK SC2 SLP119,CYZT,2015-04-25T05:00:00Z,50.67,-127.37,3.0,2.0,220,4,,15.0,29.878937,1011.9,,,,,,,,,,FEW,5000,,,,,,,VFR,,,,,,,,,,,,SPECI,22.0
CYZP 250500Z AUTO 12006KT 9SM OVC047 09/07 A2987 RMK SLP113,CYZP,2015-04-25T05:00:00Z,53.25,-131.82,9.0,7.0,120,6,,9.0,29.870079,1011.3,,TRUE,,,,,,,,OVC,4700,,,,,,,VFR,,,,,,,,,,,,SPECI,6.0
CYXE 250500Z 06019KT 15SM FEW030 BKN110 M00/M03 A2984 RMK SC1AC6 SLP125,CYXE,2015-04-25T05:00:00Z,52.17,-106.7,0.0,-3.0,60,19,,15.0,29.840551,1012.5,,,,,,,,,,FEW,3000,BKN,11000,,,,,VFR,,,,,,,,,,,,SPECI,504.0
CYVL 250500Z AUTO 11012G17KT 9SM CLR M07/M13 A3015 RMK SLP234,CYVL,2015-04-25T05:00:00Z,67.02,-126.13,-7.0,-13.0,110,12,17,9.0,30.15059,1023.4,,TRUE,,,,,,,,CLR,,,,,,,,VFR,,,,,,,,,,,,METAR,259.0
CYUA 250500Z AUTO 11021KT 9SM CLR M01/ A2998 RMK SLP158,CYUA,2015-04-25T05:00:00Z,68.95,-137.28,-1.0,,110,21,,9.0,29.97933,1015.8,,TRUE,,,,,,,,CLR,,,,,,,,VFR,,,,,,,,,,,,SPECI,38.0
CYGW 250500Z AUTO 24004KT 9SM SCT190 M01/M01 A2997 RMK SLP150,CYGW,2015-04-25T05:00:00Z,55.27,-77.77,-1.0,-1.0,240,4,,9.0,29.970472,1015.0,,TRUE,,,,,,,,SCT,19000,,,,,,,VFR,,,,,,,,,,,,SPECI,12.0
CYDF 250500Z 03012G18KT 8SM -SHRA OVC007 02/02 A2973 RMK SC8 SLP069,CYDF,2015-04-25T05:00:00Z,49.22,-57.4,2.0,2.0,30,12,18,8.0,29.731298,1006.9,,,,,,,,,-SHRA,OVC,700,,,,,,,IFR,,,,,,,,,,,,SPECI,22.0
CYSJ 250500Z 27005KT 15SM OVC014 02/01 A2958 RMK SC8 SLP019,CYSJ,2015-04-25T05:00:00Z,45.32,-65.87,2.0,1.0,270,5,,15.0,29.58071,1001.9,,,,,,,,,,OVC,1400,,,,,,,MVFR,,,,,,,,,,,,SPECI,109.0
CBBC 250500Z AUTO 00000KT 9SM BKN032 BKN200 04/04 A2986 RMK SLP113,CBBC,2015-04-25T05:00:00Z,52.18,-128.15,4.0,4.0,0,0,,9.0,29.861221,1011.3,,TRUE,,,,,,,,BKN,3200,BKN,20000,,,,,VFR,,,,,,,,,,,,METAR,43.0
CYYG 250500Z 15003KT 15SM FEW025 BKN058 01/01 A2957 RMK SC2SC4 SLP015,CYYG,2015-04-25T05:00:00Z,46.27,-63.12,1.0,1.0,150,3,,15.0,29.568897,1001.5,,,,,,,,,,FEW,2500,BKN,5800,,,,,VFR,,,,,,,,,,,,SPECI,54.0
CYIN 250500Z AUTO 13006KT 9SM FEW080 00/M04 A2972 RMK SLP088,CYIN,2015-04-25T05:00:00Z,51.27,-121.68,0.0,-4.0,130,6,,9.0,29.719488,1008.8,,TRUE,,,,,,,,FEW,8000,,,,,,,VFR,,,,,,,,,,,,METAR,1128.0
CYDL 250500Z AUTO 35007G15KT 300V030 9SM OVC085 05/M04 A2982 RMK SLP112,CYDL,2015-04-25T05:00:00Z,58.42,-130.02,5.0,-4.0,350,7,15,9.0,29.819881,1011.2,,TRUE,,,,,,,,OVC,8500,,,,,,,VFR,,,,,,,,,,,,METAR,816.0
CYKA 250500Z 09008KT 40SM FEW100 06/01 A2979 RMK AC1 SLP099,CYKA,2015-04-25T05:00:00Z,50.7,-120.45,6.0,1.0,90,8,,40.0,29.790354,1009.9,,,,,,,,,,FEW,10000,,,,,,,VFR,,,,,,,,,,,,SPECI,346.0
CYQU 250500Z 10006KT 15SM -RA SCT030 OVC050 03/00 A2989 RMK SC3SC5 SLP148,CYQU,2015-04-25T05:00:00Z,55.18,-118.88,3.0,0.0,100,6,,15.0,29.890747,1014.8,,,,,,,,,-RA,SCT,3000,OVC,5000,,,,,VFR,,,,,,,,,,,,SPECI,669.0
CYQH 250500Z 13003KT 110V180 20SM FEW030 FEW090 02/M04 A2994 RMK SC1AC1 SLP169,CYQH,2015-04-25T05:00:00Z,60.12,-128.82,2.0,-4.0,130,3,,20.0,29.940945,1016.9,,,,,,,,,,FEW,3000,FEW,9000,,,,,VFR,,,,,,,,,,,,SPECI,690.0
CYMA 250500Z 00000KT 20SM OVC070 07/M05 A2984 RMK AC8 SLP125,CYMA,2015-04-25T05:00:00Z,63.62,-135.87,7.0,-5.0,0,0,,20.0,29.840551,1012.5,,,,,,,,,,OVC,7000,,,,,,,VFR,,,,,,,,,,,,SPECI,504.0
CYLW 250500Z AUTO 00000KT 9SM FEW110 SCT140 05/02 A2981 RMK SLP105,CYLW,2015-04-25T05:00:00Z,49.95,-119.37,5.0,2.0,0,0,,9.0,29.811024,1010.5,,TRUE,,,,,,,,FEW,11000,SCT,14000,,,,,VFR,,,,,,,,,,,,SPECI,430.0
CYWL 250500Z 10007KT 15SM SCT030 OVC070 02/M00 A2975 RMK SC3AC5 SLP103,CYWL,2015-04-25T05:00:00Z,52.18,-122.07,2.0,0.0,100,7,,15.0,29.749016,1010.3,,,,,,,,,,SCT,3000,OVC,7000,,,,,VFR,,,,,,,,,,,,SPECI,940.0
CYXJ 250500Z 01007KT 15SM BKN068 02/M05 A2993 RMK AC7 SLP169,CYXJ,2015-04-25T05:00:00Z,56.25,-120.73,2.0,-5.0,10,7,,15.0,29.929134,1016.9,,,,,,,,,,BKN,6800,,,,,,,VFR,,,,,,,,,,,,SPECI,695.0
SARL 250500Z 07003KT 8000 NSC 12/10 Q1022,SARL,2015-04-25T05:00:00Z,-29.67,-57.13,12.0,10.0,70,3,,4.97,30.177166,,,,,,,,,,,,,,,,,,,,,,,,,,,,,,,METAR,70.0
SARI 250500Z 18005KT CAVOK 17/17 Q1021,SARI,2015-04-25T05:00:00Z,-25.72,-54.47,17.0,17.0,180,5,,6.21,30.147638,,,,,,,,,,,CAVOK,,,,,,,,VFR,,,,,,,,,,,,METAR,270.0
UUOK 250500Z 29006MPS CAVOK 12/03 Q1010 NOSIG RMK 30CLRD70,UUOK,2015-04-25T05:00:00Z,51.75,36.28,12.0,3.0,290,12,,6.21,29.822834,,,,,,TRUE,,,,,CAVOK,,,,,,,,VFR,,,,,,,,,,,,METAR,209.0
URWI 250500Z 27013G17MPS CAVOK 10/03 Q1017 NOSIG,URWI,2015-04-25T05:00:00Z,46.37,44.33,10.0,3.0,270,25,33,6.21,30.029528,,,,,,TRUE,,,,,CAVOK,,,,,,,,VFR,,,,,,,,,,,,METAR,150.0
URRR 250500Z 25008G11MPS 230V290 9999 BKN021 10/06 Q1018 22CLRD70 TEMPO 25010G15MPS,URRR,2015-04-25T05:00:00Z,47.25,39.82,10.0,6.0,250,16,21,6.21,30.059055,,,,,,,,,,,BKN,2100,,,,,,,MVFR,,,,,,,,,,,,METAR,77.0
UWOR 250500Z 27006MPS 9999 FEW050CB SCT100 11/03 Q1007 25CLRD65 NOSIG RMK QFE732/0976,UWOR,2015-04-25T05:00:00Z,51.07,58.6,11.0,3.0,270,12,,6.21,29.734253,,,,,,TRUE,,,,,FEW,5000,SCT,10000,,,,,VFR,,,,,,,,,,,,METAR,277.0
UWLW 250500Z 24003MPS 8000 OVC100 07/01 Q1005 20CLRD60 NOSIG RMK QFE748,UWLW,2015-04-25T05:00:00Z,54.4,48.8,7.0,1.0,240,6,,4.97,29.675198,,,,,,TRUE,,,,,OVC,10000,,,,,,,MVFR,,,,,,,,,,,,METAR,66.0
OLBA 250500Z 09004KT 9999 SKC 15/03 Q1025 NOSIG,OLBA,2015-04-25T05:00:00Z,33.82,35.47,15.0,3.0,90,4,,6.21,30.265747,,,,,,TRUE,,,,,SKC,,,,,,,,VFR,,,,,,,,,,,,METAR,19.0
CYSB 250500Z 33004KT 15SM BKN049 M00/M07 A3000 RMK SC6 SLP175,CYSB,2015-04-25T05:00:00Z,46.63,-80.8,0.0,-7.0,330,4,,15.0,30.0,1017.5,,,,,,,,,,BKN,4900,,,,,,,VFR,,,,,,,,,,,,METAR,348.0
CWEE 250500Z AUTO 01/01 RMK AO1 T00120009,CWEE,2015-04-25T05:00:00Z,49.27,-73.33,1.2,0.9,,,,,,,,TRUE,TRUE,,,,,,,,,,,,,,,,,,,,,,,,,,,METAR,305.0
CWIX 250500Z AUTO 31009KT 03/02 RMK AO1 T00260020,CWIX,2015-04-25T05:00:00Z,48.6,-71.72,2.6,2.0,310,9,,,,,,TRUE,TRUE,,,,,,,,,,,,,,,,,,,,,,,,,,,METAR,113.0
CXHP 250500Z AUTO 07006KT 02/M04 RMK AO1 T00171043,CXHP,2015-04-25T05:00:00Z,55.4,-116.48,1.7,-4.3,70,6,,,,,,TRUE,TRUE,,,,,,,,,,,,,,,,,,,,,,,,,,,METAR,602.0
CWKD 250500Z AUTO 01001KT 01/M00 RMK AO1 4PAST HR 6003 SLP080 P0002 T00081004 50006,CWKD,2015-04-25T05:00:00Z,50.73,-71.02,0.8,-0.4,10,1,,,,1008.0,,TRUE,TRUE,,,,,,,,,,,,,,,,0.6,,,,,0.02,,,,,,METAR,497.0
CZHY 250500Z AUTO 08005KT M08/M11 RMK AO1 SOG 02 3001 SLP255 T10801107,CZHY,2015-04-25T05:00:00Z,60.83,-115.78,-8.0,-10.7,80,5,,,,1025.5,,TRUE,TRUE,,,,,,,,,,,,,,,,,,,,,,,,,,,SPECI,164.0
CWDT 250500Z AUTO 32008KT 01/01 RMK AO1 SLP072 T00130006 57002,CWDT,2015-04-25T05:00:00Z,49.88,-71.25,1.3,0.6,320,8,,,,1007.2,,TRUE,TRUE,,,,,,,,,,,,,,,,-0.2,,,,,,,,,,,METAR,399.0
CXWB 250500Z AUTO M04/M06 RMK AO1 T10411059,CXWB,2015-04-25T05:00:00Z,65.88,-89.45,-4.1,-5.9,,,,,,,,TRUE,TRUE,,,,,,,,,,,,,,,,,,,,,,,,,,,METAR,18.0
CWWS 250500Z AUTO 11007KT M01/M06 RMK AO1 SLP140 T10081059 53009,CWWS,2015-04-25T05:00:00Z,52.82,-97.62,-0.8,-5.9,110,7,,,,1014.0,,TRUE,TRUE,,,,,,,,,,,,,,,,0.9,,,,,,,,,,,METAR,223.0
YPXM 250500Z AUTO 16004KT 9999 // BKN017 BKN023 28/24 Q1010,YPXM,2015-04-25T05:00:00Z,-10.45,105.67,28.0,24.0,160,4,,6.21,29.822834,,,TRUE,,,,,,,,BKN,1700,BKN,2300,,,,,MVFR,,,,,,,,,,,,METAR,259.0
VTSM 250500Z 18005KT 9000 FEW020 SCT120 BKN300 30/25 Q1013 A2992,VTSM,2015-04-25T05:00:00Z,9.55,100.07,30.0,25.0,180,5,,5.59,29.911417,,,,,,,,,,,FEW,2000,SCT,12000,BKN,30000,,,VFR,,,,,,,,,,,,METAR,17.0
CWKK 250500Z AUTO 29002KT M06/M09 RMK AO1 SOG 15 1008 SLP194 T10611088,CWKK,2015-04-25T05:00:00Z,49.72,-88.33,-6.1,-8.8,290,2,,,,1019.4,,TRUE,TRUE,,,,,,,,,,,,,,,,,,,,,,,,,,,METAR,260.0
MHLC 250500Z 00000KT 9999 FEW024 SCT200 24/22 Q1012 A2989 NOSIG,MHLC,2015-04-25T05:00:00Z,15.75,-86.85,24.0,22.0,0,0,,6.21,29.88189,,,,,,TRUE,,,,,FEW,2400,SCT,20000,,,,,VFR,,,,,,,,,,,,METAR,15.0
SMJP 250500Z 14001KT 9999 FEW018 24/24 Q1014 NOSIG,SMJP,2015-04-25T05:00:00Z,5.45,-55.17,24.0,24.0,140,1,,6.21,29.940945,,,,,,TRUE,,,,,FEW,1800,,,,,,,VFR,,,,,,,,,,,,METAR,16.0
FCBB 250500Z 26002KT 9999 FEW010 23/21 Q1014 NOSIG,FCBB,2015-04-25T05:00:00Z,-4.25,15.25,23.0,21.0,260,2,,6.21,29.940945,,,,,,TRUE,,,,,FEW,1000,,,,,,,VFR,,,,,,,,,,,,METAR,316.0
VTSC 250500Z 07007T 040V100 9999 SCT022 BKN200 31/25 Q1012 A2988 RWY20 INFO E,VTSC,2015-04-25T05:00:00Z,6.52,101.75,31.0,25.0,,,,6.21,29.88189,,,,,,,,,,,SCT,2200,BKN,20000,,,,,VFR,,,,,,,,,,,,METAR,6.0
SBSN 250500Z 10005KT 9999 SCT015 BKN100 25/24 Q1013 RETS,SBSN,2015-04-25T05:00:00Z,-2.42,-54.78,25.0,24.0,100,5,,6.21,29.911417,,,,,,,,,,,SCT,1500,BKN,10000,,,,,VFR,,,,,,,,,,,,METAR,72.0
SBRB 250500Z 00000KT 9999 FEW002 BKN100 23/23 Q1014,SBRB,2015-04-25T05:00:00Z,-10.0,-67.78,23.0,23.0,0,0,,6.21,29.940945,,,,,,,,,,,FEW,200,BKN,10000,,,,,VFR,,,,,,,,,,,,METAR,143.0
SBPV 250500Z 00000KT CAVOK 24/23 Q1013,SBPV,2015-04-25T05:00:00Z,-8.72,-63.9,24.0,23.0,0,0,,6.21,29.911417,,,,,,,,,,,CAVOK,,,,,,,,VFR,,,,,,,,,,,,METAR,88.0
SBMQ 250500Z 01002KT 8000 -RA BKN008 BKN015 OVC080 25/25 Q1013,SBMQ,2015-04-25T05:00:00Z,0.05,-51.07,25.0,25.0,10,2,,4.97,29.911417,,,,,,,,,,-RA,BKN,800,BKN,1500,OVC,8000,,,IFR,,,,,,,,,,,,METAR,15.0
SBMA 250500Z 21003KT 9999 SCT010 SCT100 23/23 Q1013,SBMA,2015-04-25T05:00:00Z,-5.37,-49.13,23.0,23.0,210,3,,6.21,29.911417,,,,,,,,,,,SCT,1000,SCT,10000,,,,,VFR,,,,,,,,,,,,METAR,102.0
SBEG 250500Z 00000KT CAVOK 25/24 Q1013,SBEG,2015-04-25T05:00:00Z,-3.02,-60.03,25.0,24.0,0,0,,6.21,29.911417,,,,,,,,,,,CAVOK,,,,,,,,VFR,,,,,,,,,,,,METAR,2.0
SBCC 250500Z 08003KT CAVOK 22/21 Q1016,SBCC,2015-04-25T05:00:00Z,-9.32,-54.95,22.0,21.0,80,3,,6.21,30.0,,,,,,,,,,,CAVOK,,,,,,,,VFR,,,,,,,,,,,,METAR,536.0
SBBV 250500Z 33002KT 9999 SCT040 24/22 Q1014,SBBV,2015-04-25T05:00:00Z,2.85,-60.7,24.0,22.0,330,2,,6.21,29.940945,,,,,,,,,,,SCT,4000,,,,,,,VFR,,,,,,,,,,,,METAR,140.0
SBBE 250500Z 11003KT CAVOK 25/24 Q1013,SBBE,2015-04-25T05:00:00Z,-1.37,-48.47,25.0,24.0,110,3,,6.21,29.911417,,,,,,,,,,,CAVOK,,,,,,,,VFR,,,,,,,,,,,,METAR,16.0
SBVT 250500Z 29004KT 9999 FEW025 BKN035 23/21 Q1015,SBVT,2015-04-25T05:00:00Z,-20.27,-40.27,23.0,21.0,290,4,,6.21,29.970472,,,,,,,,,,,FEW,2500,BKN,3500,,,,,VFR,,,,,,,,,,,,METAR,4.0
SBUR 250500Z 29006KT 9999 SCT003 SCT030 20/20 Q1019,SBUR,2015-04-25T05:00:00Z,-19.77,-47.97,20.0,20.0,290,6,,6.21,30.088583,,,,,,,,,,,SCT,300,SCT,3000,,,,,VFR,,,,,,,,,,,,METAR,807.0
SBUL 250500Z 17004KT 9999 FEW030 20/18 Q1020,SBUL,2015-04-25T05:00:00Z,-18.87,-48.22,20.0,18.0,170,4,,6.21,30.11811,,,,,,,,,,,FEW,3000,,,,,,,VFR,,,,,,,,,,,,METAR,922.0
SBSR 250500Z 00000KT CAVOK 23/20 Q1020,SBSR,2015-04-25T05:00:00Z,-20.8,-49.4,23.0,20.0,0,0,,6.21,30.11811,,,,,,,,,,,CAVOK,,,,,,,,VFR,,,,,,,,,,,,METAR,543.0
SBSP 250500Z AUTO 19007KT 9999 FEW010 SCT012 18/15 Q1021,SBSP,2015-04-25T05:00:00Z,-23.62,-46.63,18.0,15.0,190,7,,6.21,30.147638,,,TRUE,,,,,,,,FEW,1000,SCT,1200,,,,,VFR,,,,,,,,,,,,METAR,803.0
SBSC 250500Z 21006KT 9999 FEW013 SCT070 23/21 Q1015,SBSC,2015-04-25T05:00:00Z,-22.92,-43.72,23.0,21.0,210,6,,6.21,29.970472,,,,,,,,,,,FEW,1300,SCT,7000,,,,,VFR,,,,,,,,,,,,METAR,3.0
SBRP 250500Z 00000KT 9000 FEW003 20/19 Q1017,SBRP,2015-04-25T05:00:00Z,-21.12,-47.77,20.0,19.0,0,0,,5.59,30.029528,,,,,,,,,,,FEW,300,,,,,,,VFR,,,,,,,,,,,,METAR,549.0
SBME 250500Z 25003KT CAVOK 23/22 Q1014,SBME,2015-04-25T05:00:00Z,-22.35,-41.77,23.0,22.0,250,3,,6.21,29.940945,,,,,,,,,,,CAVOK,,,,,,,,VFR,,,,,,,,,,,,METAR,2.0
SBKP 250500Z 11004KT CAVOK 19/17 Q1019,SBKP,2015-04-25T05:00:00Z,-23.0,-47.12,19.0,17.0,110,4,,6.21,30.088583,,,,,,,,,,,CAVOK,,,,,,,,VFR,,,,,,,,,,,,METAR,661.0
SBGR 250500Z 19002KT 9999 SCT018 SCT045 18/17 Q1021,SBGR,2015-04-25T05:00:00Z,-23.42,-46.47,18.0,17.0,190,2,,6.21,30.147638,,,,,,,,,,,SCT,1800,SCT,4500,,,,,VFR,,,,,,,,,,,,METAR,750.0
SBGL 250500Z 26006KT 9999 FEW015 SCT070 24/21 Q1015,SBGL,2015-04-25T05:00:00Z,-22.82,-43.25,24.0,21.0,260,6,,6.21,29.970472,,,,,,,,,,,FEW,1500,SCT,7000,,,,,VFR,,,,,,,,,,,,METAR,6.0
SBDN 250500Z 18001KT CAVOK 21/20 Q1017,SBDN,2015-04-25T05:00:00Z,-22.18,-51.43,21.0,20.0,180,1,,6.21,30.029528,,,,,,,,,,,CAVOK,,,,,,,,VFR,,,,,,,,,,,,METAR,435.0
SBCF 250500Z 21003KT 9999 FEW030 BKN100 20/19 Q1020,SBCF,2015-04-25T05:00:00Z,-19.63,-43.97,20.0,19.0,210,3,,6.21,30.11811,,,,,,,,,,,FEW,3000,BKN,10000,,,,,VFR,,,,,,,,,,,,METAR,828.0
SBBU 250500Z 11007KT CAVOK 22/19 Q1018,SBBU,2015-04-25T05:00:00Z,-22.32,-49.07,22.0,19.0,110,7,,6.21,30.059055,,,,,,,,,,,CAVOK,,,,,,,,VFR,,,,,,,,,,,,METAR,590.0
SBBH 250500Z 10003KT CAVOK 21/19 Q1019,SBBH,2015-04-25T05:00:00Z,-19.85,-43.95,21.0,19.0,100,3,,6.21,30.088583,,,,,,,,,,,CAVOK,,,,,,,,VFR,,,,,,,,,,,,METAR,785.0
FEFF 250500Z VRB03KT CAVOK 23/22 Q1013 NOSIG,FEFF,2015-04-25T05:00:00Z,4.4,18.52,23.0,22.0,0,3,,6.21,29.911417,,,,,,TRUE,,,,,CAVOK,,,,,,,,VFR,,,,,,,,,,,,METAR,366.0
FCPP 250500Z 06003KT 7000 FEW010 SCT023 23/22 Q1012 NOSIG,FCPP,2015-04-25T05:00:00Z,-4.82,11.9,23.0,22.0,60,3,,4.35,29.88189,,,,,,TRUE,,,,,FEW,1000,SCT,2300,,,,,MVFR,,,,,,,,,,,,METAR,17.0
VTCN 250500Z 20007KT 9999 BKN025 SCT100 30/16 Q1014 A2995 RWY/20 INFO/F,VTCN,2015-04-25T05:00:00Z,18.82,100.77,30.0,16.0,200,7,,6.21,29.940945,,,,,,,,,,,BKN,2500,SCT,10000,,,,,MVFR,,,,,,,,,,,,METAR,201.0
VTPO 250500Z 16010KT 9999 SCT022 SCT120 BKN120 31/22 Q1012,VTPO,2015-04-25T05:00:00Z,17.23,99.82,31.0,22.0,160,10,,6.21,29.88189,,,,,,,,,,,SCT,2200,SCT,12000,BKN,12000,,,VFR,,,,,,,,,,,,METAR,54.0
CWSS 250500Z AUTO 29005KT 02/01 RMK AO1 SOG 00 6002 SLP019 T00210005,CWSS,2015-04-25T05:00:00Z,45.2,-67.25,2.1,0.5,290,5,,,,1001.9,,TRUE,TRUE,,,,,,,,,,,,,,,,,,,,,,,,,,,METAR,26.0
CWRN 250500Z AUTO 18006KT 01/ RMK AO1 T0009,CWRN,2015-04-25T05:00:00Z,45.35,-60.98,0.9,,180,6,,,,,,TRUE,TRUE,,,,,,,,,,,,,,,,,,,,,,,,,,,METAR,8.0
CWBV 250500Z AUTO 18004KT 01/01 RMK AO1 SLP017 T00050014 58004,CWBV,2015-04-25T05:00:00Z,44.82,-62.32,0.5,1.4,180,4,,,,1001.7,,TRUE,TRUE,,,,,,,,,,,,,,,,-0.4,,,,,,,,,,,METAR,10.0
TAPA 250500Z VRB02KT 9999 FEW017 BKN034 24/21 Q1015 NOSIG,TAPA,2015-04-25T05:00:00Z,17.12,-61.78,24.0,21.0,0,2,,6.21,29.970472,,,,,,TRUE,,,,,FEW,1700,BKN,3400,,,,,VFR,,,,,,,,,,,,METAR,14.0
VTSH 250500Z 07006KT 9999 FEW018CB BKN300 31/24 Q1011 A2987 CB NW-N,VTSH,2015-04-25T05:00:00Z,7.2,100.58,31.0,24.0,70,6,,6.21,29.852362,,,,,,,,,,,FEW,1800,BKN,30000,,,,,VFR,,,,,,,,,,,,METAR,5.0
VTSF 250500Z 30003KT 9999 SCT020 BKN300 30/26 Q1012 A2989 INFO F / RWY 19,VTSF,2015-04-25T05:00:00Z,8.53,99.95,30.0,26.0,300,3,,6.21,29.88189,,,,,,,,,,,SCT,2000,BKN,30000,,,,,VFR,,,,,,,,,,,,SPECI,4.0
VTSB 250500Z 04008KT 9999 SCT020 BKN120 OVC300 31/26 Q1012 A2989,VTSB,2015-04-25T05:00:00Z,9.12,99.13,31.0,26.0,40,8,,6.21,29.88189,,,,,,,,,,,SCT,2000,BKN,12000,OVC,30000,,,VFR,,,,,,,,,,,,METAR,11.0
VTUW 250500Z 11004KT 9999 SCT025 FEW120 35/16 Q1012 A2990 RWY15 INFO E,VTUW,2015-04-25T05:00:00Z,17.38,104.63,35.0,16.0,110,4,,6.21,29.88189,,,,,,,,,,,SCT,2500,FEW,12000,,,,,VFR,,,,,,,,,,,,SPECI,184.0
VTUU 250500Z 01003KT 9999 SCT025 BKN300 34/19 Q1011 A2988 NOSIG,VTUU,2015-04-25T05:00:00Z,15.25,104.87,34.0,19.0,10,3,,6.21,29.852362,,,,,,TRUE,,,,,SCT,2500,BKN,30000,,,,,VFR,,,,,,,,,,,,METAR,127.0
VTUL 250500Z VRB02KT 9999 -RA SCT018 SCT028 26/22 Q1016 A3001,VTUL,2015-04-25T05:00:00Z,17.43,101.72,26.0,22.0,0,2,,6.21,30.0,,,,,,,,,,-RA,SCT,1800,SCT,2800,,,,,VFR,,,,,,,,,,,,METAR,254.0
VTUK 250500Z 04006KT 360V090 9999 FEW030 SCT100 BKN300 30/20 Q1014 A2996 INFO G RWY03,VTUK,2015-04-25T05:00:00Z,16.47,102.78,30.0,20.0,40,6,,6.21,29.940945,,,,,,,,,,,FEW,3000,SCT,10000,BKN,30000,,,VFR,,,,,,,,,,,,SPECI,204.0
VTUI 250500Z 11004KT 9999 FEW030 33/20 Q1013 A2994 INFO E RWY23,VTUI,2015-04-25T05:00:00Z,17.2,104.12,33.0,20.0,110,4,,6.21,29.911417,,,,,,,,,,,FEW,3000,,,,,,,VFR,,,,,,,,,,,,SPECI,172.0
VTUD 250500Z VRB03KT 9999 FEW033 BKN150 BKN300 29/22 Q1015 A2997 INFO G RWY30,VTUD,2015-04-25T05:00:00Z,17.37,102.78,29.0,22.0,0,3,,6.21,29.970472,,,,,,,,,,,FEW,3300,BKN,15000,BKN,30000,,,VFR,,,,,,,,,,,,SPECI,182.0
VTBO 250500Z 27005KT 9999 FEW021 SCT150 27/25 Q1014,VTBO,2015-04-25T05:00:00Z,12.28,102.32,27.0,25.0,270,5,,6.21,29.940945,,,,,,,,,,,FEW,2100,SCT,15000,,,,,VFR,,,,,,,,,,,,METAR,32.0
VTCP 250500Z 24003KT 9999 TS FEW018CB BKN120 32/20 Q1014 A2994 RWY01 INFO E,VTCP,2015-04-25T05:00:00Z,18.13,100.17,32.0,20.0,240,3,,6.21,29.940945,,,,,,,,,,TS,FEW,1800,BKN,12000,,,,,VFR,,,,,,,,,,,,SPECI,162.0
VTCH 250500Z VRB03KT 9999 FEW025 34/16 Q1012 A2990 INFO: F,VTCH,2015-04-25T05:00:00Z,19.3,97.98,34.0,16.0,0,3,,6.21,29.88189,,,,,,,,,,,FEW,2500,,,,,,,VFR,,,,,,,,,,,,SPECI,269.0
RJNK 250500Z 34009KT 9999 FEW030 17/09 Q1019,RJNK,2015-04-25T05:00:00Z,36.37,136.42,17.0,9.0,340,9,,6.21,30.088583,,,,,,,,,,,FEW,3000,,,,,,,VFR,,,,,,,,,,,,METAR,9.0
UMOO 250500Z 30004MPS CAVOK 06/02 Q1014 NOSIG,UMOO,2015-04-25T05:00:00Z,53.95,30.1,6.0,2.0,300,8,,6.21,29.940945,,,,,,TRUE,,,,,CAVOK,,,,,,,,VFR,,,,,,,,,,,,METAR,194.0
UMII 250500Z 26005MPS CAVOK 05/M05 Q1013 NOSIG,UMII,2015-04-25T05:00:00Z,55.13,30.35,5.0,-5.0,260,10,,6.21,29.911417,,,,,,TRUE,,,,,CAVOK,,,,,,,,VFR,,,,,,,,,,,,METAR,208.0
EIME 250500Z 23012KT 9999 SCT011 BKN022 10/08 Q1000,EIME,2015-04-25T05:00:00Z,53.3,-6.45,10.0,8.0,230,12,,6.21,29.52756,,,,,,,,,,,SCT,1100,BKN,2200,,,,,MVFR,,,,,,,,,,,,METAR,93.0
CYZX 250500Z 26009G15KT 15SM SCT011 OVC018 04/02 A2958 RMK SF4SC4 WNDY HILL 29009G15KT SLP017,CYZX,2015-04-25T05:00:00Z,44.98,-64.92,4.0,2.0,260,9,15,15.0,29.58071,1001.7,,,,,,,,,,SCT,1100,OVC,1800,,,,,MVFR,,,,,,,,,,,,SPECI,28.0
CYZV 250500Z 07007KT 8SM -RA SCT010 OVC033 03/02 A2969 RMK SF3SC5 SLP058,CYZV,2015-04-25T05:00:00Z,50.22,-66.27,3.0,2.0,70,7,,8.0,29.68996,1005.8,,,,,,,,,-RA,SCT,1000,OVC,3300,,,,,VFR,,,,,,,,,,,,SPECI,55.0
CYZF 250500Z 07011KT 15SM FEW240 M08/M13 A3031 RMK CI1 SLP284,CYZF,2015-04-25T05:00:00Z,62.47,-114.45,-8.0,-13.0,70,11,,15.0,30.31004,1028.4,,,,,,,,,,FEW,24000,,,,,,,VFR,,,,,,,,,,,,SPECI,206.0
CYYZ 250500Z 32006KT 15SM SKC M01/M06 A3002 RMK SLP171,CYYZ,2015-04-25T05:00:00Z,43.67,-79.62,-1.0,-6.0,320,6,,15.0,30.02067,1017.1,,,,,,,,,,SKC,,,,,,,,VFR,,,,,,,,,,,,SPECI,173.0
CYYT 250500Z 11012KT 1/4SM R16/1400FT/N -FZDZ FZFG VV001 M01/M01 A2973 RMK FG8 SLP074,CYYT,2015-04-25T05:00:00Z,47.62,-52.72,-1.0,-1.0,110,12,,0.25,29.731298,1007.4,,,,,,,,,-FZDZ FZFG,OVX,0,,,,,,,LIFR,,,,,,,,,,,100,SPECI,140.0
CYYQ 250500Z 17008KT 15SM SKC M11/M14 A3019 RMK SLP225,CYYQ,2015-04-25T05:00:00Z,58.75,-94.07,-11.0,-14.0,170,8,,15.0,30.188976,1022.5,,,,,,,,,,SKC,,,,,,,,VFR,,,,,,,,,,,,SPECI,29.0
CYYJ 250500Z 25005KT 30SM FEW025TCU SCT040 SCT065 SCT180 06/04 A2986 RMK TCU1SC2SC1AC1 SC TR SLP110,CYYJ,2015-04-25T05:00:00Z,48.63,-123.42,6.0,4.0,250,5,,30.0,29.861221,1011.0,,,,,,,,,,FEW,2500,SCT,4000,SCT,6500,SCT,18000,VFR,,,,,,,,,,,,SPECI,19.0
CYWG 250500Z 13009KT 15SM SKC 04/M01 A2989 RMK SLP131,CYWG,2015-04-25T05:00:00Z,49.88,-97.22,4.0,-1.0,130,9,,15.0,29.890747,1013.1,,,,,,,,,,SKC,,,,,,,,VFR,,,,,,,,,,,,SPECI,239.0
CYUL 250500Z 27012G17KT 15SM SCT065 BKN080 01/M05 A2984 RMK SC3AC3 SLP107,CYUL,2015-04-25T05:00:00Z,45.47,-73.73,1.0,-5.0,270,12,17,15.0,29.840551,1010.7,,,,,,,,,,SCT,6500,BKN,8000,,,,,VFR,,,,,,,,,,,,SPECI,36.0
CYTR 250500Z 32005KT 15SM SKC M00/M06 A2997 RMK SLP155,CYTR,2015-04-25T05:00:00Z,44.12,-77.52,0.0,-6.0,320,5,,15.0,29.970472,1015.5,,,,,,,,,,SKC,,,,,,,,VFR,,,,,,,,,,,,SPECI,86.0
CYQY 250500Z 23007KT 5SM BR BKN005 OVC007 01/M00 A2959 RMK ST6ST2 SLP024,CYQY,2015-04-25T05:00:00Z,46.17,-60.03,1.0,0.0,230,7,,5.0,29.589567,1002.4,,,,,,,,,BR,BKN,500,OVC,700,,,,,IFR,,,,,,,,,,,,SPECI,62.0
CYQQ 250500Z 00000KT 20SM FEW035 06/04 A2986 RMK SC2 SLP111,CYQQ,2015-04-25T05:00:00Z,49.72,-124.9,6.0,4.0,0,0,,20.0,29.861221,1011.1,,,,,,,,,,FEW,3500,,,,,,,VFR,,,,,,,,,,,,SPECI,24.0
CYQM 250500Z 05004KT 3/8SM R06/2600FT/N R29/3500FT/U FG VV002 01/01 A2954 RMK FG8 SLP005,CYQM,2015-04-25T05:00:00Z,46.12,-64.67,1.0,1.0,50,4,,0.38,29.53937,1000.5,,,,,,,,,FG,OVX,0,,,,,,,LIFR,,,,,,,,,,,200,SPECI,71.0
CYQG 250500Z 19005KT 15SM SCT100 OVC140 05/M00 A3002 RMK AC3AS5 SLP168,CYQG,2015-04-25T05:00:00Z,42.27,-82.97,5.0,0.0,190,5,,15.0,30.02067,1016.8,,,,,,,,,,SCT,10000,OVC,14000,,,,,VFR,,,,,,,,,,,,SPECI,190.0
CYQB 250500Z 26012KT 15SM BKN085 02/M02 A2965 RMK AC6 SLP042,CYQB,2015-04-25T05:00:00Z,46.78,-71.37,2.0,-2.0,260,12,,15.0,29.648623,1004.2,,,,,,,,,,BKN,8500,,,,,,,VFR,,,,,,,,,,,,SPECI,73.0
CYOW 250500Z 29008KT 15SM FEW120 00/M06 A2991 RMK AC1 AC TR SLP135,CYOW,2015-04-25T05:00:00Z,45.32,-75.67,0.0,-6.0,290,8,,15.0,29.911417,1013.5,,,,,,,,,,FEW,12000,,,,,,,VFR,,,,,,,,,,,,SPECI,114.0
CYMX 250500Z 28005KT 250V330 25SM OVC065 01/M05 A2985 RMK SC8 SLP111,CYMX,2015-04-25T05:00:00Z,45.67,-74.02,1.0,-5.0,280,5,,25.0,29.84941,1011.1,,,,,,,,,,OVC,6500,,,,,,,VFR,,,,,,,,,,,,SPECI,82.0
CYJT 250500Z 08013KT 15SM OVC020 05/02 A2963 RMK SC8 SLP035,CYJT,2015-04-25T05:00:00Z,48.55,-58.57,5.0,2.0,80,13,,15.0,29.630905,1003.5,,,,,,,,,,OVC,2000,,,,,,,MVFR,,,,,,,,,,,,SPECI,26.0
CYHZ 250500Z 12006KT 1/4SM R14/3500V6000FT/U R23/3500FT/D FZFG VV001 M00/M00 A2956 RMK FG8 SLP017,CYHZ,2015-04-25T05:00:00Z,44.87,-63.5,0.0,0.0,120,6,,0.25,29.56004,1001.7,,,,,,,,,FZFG,OVX,0,,,,,,,LIFR,,,,,,,,,,,100,SPECI,145.0
CYGL 250500Z 29008KT 3/8SM FZFG VV002 M02/M02 A2994 RMK FG8 SLP152,CYGL,2015-04-25T05:00:00Z,53.62,-77.7,-2.0,-2.0,290,8,,0.38,29.940945,1015.2,,,,,,,,,FZFG,OVX,0,,,,,,,LIFR,,,,,,,,,,,200,SPECI,195.0
CYFB 250500Z 13007KT 15SM SCT090 OVC170 M07/M12 A3051 RMK AC3AC5 SLP335,CYFB,2015-04-25T05:00:00Z,63.75,-68.55,-7.0,-12.0,130,7,,15.0,30.510826,1033.5,,,,,,,,,,SCT,9000,OVC,17000,,,,,VFR,,,,,,,,,,,,SPECI,34.0
CYEG 250500Z 07008KT 15SM BKN032 OVC070 03/M03 A2981 RMK SC7AC1 SLP121,CYEG,2015-04-25T05:00:00Z,53.28,-113.57,3.0,-3.0,70,8,,15.0,29.811024,1012.1,,,,,,,,,,BKN,3200,OVC,7000,,,,,VFR,,,,,,,,,,,,SPECI,723.0
CYBG 250500Z 29010KT 6SM -RA SCT015 OVC030 03/02 A2965 RMK SF3SC5 SLP047,CYBG,2015-04-25T05:00:00Z,48.33,-70.98,3.0,2.0,290,10,,6.0,29.648623,1004.7,,,,,,,,,-RA,SCT,1500,OVC,3000,,,,,MVFR,,,,,,,,,,,,SPECI,159.0
CYZY 250500Z AUTO 01011G17KT 340V060 9SM SCT039 OVC090 04/M04 A2987 RMK SLP139,CYZY,2015-04-25T05:00:00Z,55.28,-123.12,4.0,-4.0,10,11,17,9.0,29.870079,1013.9,,TRUE,,,,,,,,SCT,3900,OVC,9000,,,,,VFR,,,,,,,,,,,,SPECI,690.0
CYYF 250500Z 33006KT 15SM BKN097 07/02 A2981 RMK AC6 SLP102,CYYF,2015-04-25T05:00:00Z,49.47,-119.58,7.0,2.0,330,6,,15.0,29.811024,1010.2,,,,,,,,,,BKN,9700,,,,,,,VFR,,,,,,,,,,,,SPECI,344.0
CYYE 250500Z 32006KT 15SM BKN070 02/M02 A3006 RMK AC5 SLP200,CYYE,2015-04-25T05:00:00Z,58.82,-122.57,2.0,-2.0,320,6,,15.0,30.059055,1020.0,,,,,,,,,,BKN,7000,,,,,,,VFR,,,,,,,,,,,,SPECI,382.0
CYXY 250500Z 21002KT 40SM BKN068 04/M04 A2981 RMK AC7 SLP126,CYXY,2015-04-25T05:00:00Z,60.72,-135.07,4.0,-4.0,210,2,,40.0,29.811024,1012.6,,,,,,,,,,BKN,6800,,,,,,,VFR,,,,,,,,,,,,SPECI,703.0
CYXT 250500Z 18007KT 15SM FEW045 SCT090 06/04 A2984 RMK SC1AC3 SLP109,CYXT,2015-04-25T05:00:00Z,54.47,-128.57,6.0,4.0,180,7,,15.0,29.840551,1010.9,,,,,,,,,,FEW,4500,SCT,9000,,,,,VFR,,,,,,,,,,,,SPECI,217.0
SVMI 250500Z 02001KT 9999 FEW016 26/24 Q1013 NOSIG,SVMI,2015-04-25T05:00:00Z,10.58,-67.0,26.0,24.0,20,1,,6.21,29.911417,,,,,,TRUE,,,,,FEW,1600,,,,,,,VFR,,,,,,,,,,,,METAR,48.0
LRCT 250500Z 00000KT 9999 FEW080 08/02 Q1017 BLU BLU,LRCT,2015-04-25T05:00:00Z,46.5,23.88,8.0,2.0,0,0,,6.21,30.029528,,,,,,,,,,,FEW,8000,,,,,,,VFR,,,,,,,,,,,,METAR,331.0
FWKI 250500Z 19006KT 6000 BCFG BKN008 16/15 Q1024 NOSIG,FWKI,2015-04-25T05:00:00Z,-13.77,33.77,16.0,15.0,190,6,,3.73,30.236221,,,,,,TRUE,,,,BCFG,BKN,800,,,,,,,IFR,,,,,,,,,,,,METAR,1229.0
FNBG 250500Z 00000KT 9999 SCT020 BKN100 25/23 Q1014,FNBG,2015-04-25T05:00:00Z,-12.62,13.4,25.0,23.0,0,0,,6.21,29.940945,,,,,,,,,,,SCT,2000,BKN,10000,,,,,VFR,,,,,,,,,,,,METAR,36.0
OPRN 250500Z 13006KT 6000 NSC 29/15 Q1010.7/29.84,OPRN,2015-04-25T05:00:00Z,33.62,73.08,29.0,15.0,130,6,,3.73,,,,,,,,,,,,,,,,,,,,,,,,,,,,,,,,METAR,508.0
OPNH 250500Z 18006KT 5000M HZ NSC 35/19 Q1004,OPNH,2015-04-25T05:00:00Z,26.22,68.37,35.0,19.0,180,6,,3.11,29.64567,,,,,,,,,,HZ,,,,,,,,,,,,,,,,,,,,,METAR,38.0
NFTF 250500Z 00000KT 9999 FEW018 25/18 Q1014,NFTF,2015-04-25T05:00:00Z,-21.23,-175.15,25.0,18.0,0,0,,6.21,29.940945,,,,,,,,,,,FEW,1800,,,,,,,VFR,,,,,,,,,,,,METAR,38.0
NFTL 250500Z 12005KT 9999 FEW018 SCT120 25/19 Q1012,NFTL,2015-04-25T05:00:00Z,-19.78,-174.33,25.0,19.0,120,5,,6.21,29.88189,,,,,,,,,,,FEW,1800,SCT,12000,,,,,VFR,,,,,,,,,,,,METAR,3.0
NFTV 250500Z 11005KT 9999 SCT017 BKN120 25/21 Q1012,NFTV,2015-04-25T05:00:00Z,-18.58,-173.97,25.0,21.0,110,5,,6.21,29.88189,,,,,,,,,,,SCT,1700,BKN,12000,,,,,VFR,,,,,,,,,,,,METAR,71.0
SBPS 250500Z 26005KT 9999 SCT020 SCT070 24/23 Q1015,SBPS,2015-04-25T05:00:00Z,-16.43,-39.07,24.0,23.0,260,5,,6.21,29.970472,,,,,,,,,,,SCT,2000,SCT,7000,,,,,VFR,,,,,,,,,,,,METAR,51.0
TBPB 250500Z 10011KT 9999 SCT018 SCT300 26/24 Q1014 NOSIG,TBPB,2015-04-25T05:00:00Z,13.07,-59.48,26.0,24.0,100,11,,6.21,29.940945,,,,,,TRUE,,,,,SCT,1800,SCT,30000,,,,,VFR,,,,,,,,,,,,METAR,52.0
SUMU 250500Z 36004KT CAVOK 14/09 Q1019 NOSIG,SUMU,2015-04-25T05:00:00Z,-34.82,-56.0,14.0,9.0,360,4,,6.21,30.088583,,,,,,TRUE,,,,,CAVOK,,,,,,,,VFR,,,,,,,,,,,,METAR,32.0
OKBK 250500Z 34022KT CAVOK 20/01 Q1019 NOSIG,OKBK,2015-04-25T05:00:00Z,29.22,47.97,20.0,1.0,340,22,,6.21,30.088583,,,,,,TRUE,,,,,CAVOK,,,,,,,,VFR,,,,,,,,,,,,METAR,55.0
LEMO 250500Z 19005KT 9999 SCT010 BKN027 16/14 Q1017 NOSIG,LEMO,2015-04-25T05:00:00Z,37.17,-5.62,16.0,14.0,190,5,,6.21,30.029528,,,,,,TRUE,,,,,SCT,1000,BKN,2700,,,,,MVFR,,,,,,,,,,,,METAR,88.0
FNUE 250500Z 12008KT CAVOK 17/// Q1022,FNUE,2015-04-25T05:00:00Z,-11.77,19.9,,,120,8,,6.21,30.177166,,,,,,,,,,,CAVOK,,,,,,,,VFR,,,,,,,,,,,,METAR,1329.0
OPPS 250500Z 00000KT 5000 HZ SKC 31/16 Q1009,OPPS,2015-04-25T05:00:00Z,34.02,71.52,31.0,16.0,0,0,,3.11,29.793306,,,,,,,,,,HZ,SKC,,,,,,,,MVFR,,,,,,,,,,,,METAR,360.0
UBEE 250500Z 02005KT 9999 SCT040 SCT070 12/07 Q1021 R12/190065 NOSIG,UBEE,2015-04-25T05:00:00Z,40.63,47.15,12.0,7.0,20,5,,6.21,30.147638,,,,,,TRUE,,,,,SCT,4000,SCT,7000,,,,,VFR,,,,,,,,,,,,METAR,15.0
MYNN 250500Z 00000KT 9999 FEW016 SCT250 26/22 A2998,MYNN,2015-04-25T05:00:00Z,25.03,-77.47,26.0,22.0,0,0,,6.21,29.97933,,,,,,,,,,,FEW,1600,SCT,25000,,,,,VFR,,,,,,,,,,,,METAR,3.0
NGFU 250500Z VRB03KT 9999 VCSH SCT018CB BKN100 28/24 Q1008,NGFU,2015-04-25T05:00:00Z,-8.52,179.22,28.0,24.0,0,3,,6.21,29.763779,,,,,,,,,,VCSH,SCT,1800,BKN,10000,,,,,VFR,,,,,,,,,,,,METAR,1.0
UBBQ 250500Z 10003KT 9999 SCT007 OVC040 09/07 Q1021 R34/29//60 NOSIG RMK MT OBSC,UBBQ,2015-04-25T05:00:00Z,40.82,47.72,9.0,7.0,100,3,,6.21,30.147638,,,,,,TRUE,,,,,SCT,700,OVC,4000,,,,,VFR,,,,,,,,,,,,METAR,338.0
MKJS 250500Z VRB02KT 9999 FEW022 26/23 Q1014,MKJS,2015-04-25T05:00:00Z,18.5,-77.92,26.0,23.0,0,2,,6.21,29.940945,,,,,,,,,,,FEW,2200,,,,,,,VFR,,,,,,,,,,,,METAR,1.0
SKBQ 250500Z 03012KT 9999 FEW015 27/25 A2984,SKBQ,2015-04-25T05:00:00Z,10.9,-74.77,27.0,25.0,30,12,,6.21,29.840551,,,,,,,,,,,FEW,1500,,,,,,,VFR,,,,,,,,,,,,METAR,10.0
OMRK 250500Z 25008KT 7000 NSC 34/09 Q1010 A2983,OMRK,2015-04-25T05:00:00Z,25.62,55.92,34.0,9.0,250,8,,4.35,29.822834,,,,,,,,,,,,,,,,,,,,,,,,,,,,,,,METAR,31.0
OMFJ 250500Z 04007KT 6000 NSC 33/19 Q1008 A2978,OMFJ,2015-04-25T05:00:00Z,25.1,56.32,33.0,19.0,40,7,,3.73,29.763779,,,,,,,,,,,,,,,,,,,,,,,,,,,,,,,METAR,28.0
OMDW 250500Z 25008KT 6000 NSC 30/12 Q1011 NOSIG,OMDW,2015-04-25T05:00:00Z,24.9,55.17,30.0,12.0,250,8,,3.73,29.852362,,,,,,TRUE,,,,,,,,,,,,,,,,,,,,,,,,,METAR,25.0
OMDB 250500Z 25007KT 130V300 6000 NSC 31/19 Q1010 NOSIG,OMDB,2015-04-25T05:00:00Z,25.25,55.37,31.0,19.0,250,7,,3.73,29.822834,,,,,,TRUE,,,,,,,,,,,,,,,,,,,,,,,,,METAR,5.0
OMAL 250500Z 35009KT 7000 NSC 35/02 Q1012 A2989 NOSIG,OMAL,2015-04-25T05:00:00Z,24.25,55.6,35.0,2.0,350,9,,4.35,29.88189,,,,,,TRUE,,,,,,,,,,,,,,,,,,,,,,,,,METAR,262.0
OMAD 250500Z 31009KT 6000 NSC 30/21 Q1011 A2985 NOSIG,OMAD,2015-04-25T05:00:00Z,24.42,54.47,30.0,21.0,310,9,,3.73,29.852362,,,,,,TRUE,,,,,,,,,,,,,,,,,,,,,,,,,METAR,3.0
OMAA 250500Z 28011KT 250V310 7000 NSC 30/21 Q1010 A2984 NOSIG,OMAA,2015-04-25T05:00:00Z,24.42,54.63,30.0,21.0,280,11,,4.35,29.822834,,,,,,TRUE,,,,,,,,,,,,,,,,,,,,,,,,,METAR,27.0
HETR 250500Z 00000KT CAVOK 18/06 Q1017,HETR,2015-04-25T05:00:00Z,28.22,33.65,18.0,6.0,0,0,,6.21,30.029528,,,,,,,,,,,CAVOK,,,,,,,,VFR,,,,,,,,,,,,METAR,35.0
UKKM 250500Z AUTO 35002MPS 9999 NCD 12/05 Q1016,UKKM,2015-04-25T05:00:00Z,50.6,30.2,12.0,5.0,350,4,,6.21,30.0,,,TRUE,,,,,,,,,,,,,,,,,,,,,,,,,,,,METAR,157.0
UKLU 250500Z 00000MPS 9999 SCT200 11/07 Q1016 NOSIG,UKLU,2015-04-25T05:00:00Z,48.63,22.27,11.0,7.0,0,0,,6.21,30.0,,,,,,TRUE,,,,,SCT,20000,,,,,,,VFR,,,,,,,,,,,,METAR,117.0
UKON 250500Z 21005MPS CAVOK 11/07 Q1018 NOSIG,UKON,2015-04-25T05:00:00Z,47.05,31.92,11.0,7.0,210,10,,6.21,30.059055,,,,,,TRUE,,,,,CAVOK,,,,,,,,VFR,,,,,,,,,,,,METAR,56.0
SCRM 250500Z 27023KT 2000 BR OVC003 00/00 Q0991,SCRM,2015-04-25T05:00:00Z,-62.18,-58.98,0.0,0.0,270,23,,1.24,29.26181,,,,,,,,,,BR,OVC,300,,,,,,,LIFR,,,,,,,,,,,,METAR,45.0
FBFT 250500Z 10004KT CAVOK 14/13 Q1026,FBFT,2015-04-25T05:00:00Z,-21.17,27.48,14.0,13.0,100,4,,6.21,30.295275,,,,,,,,,,,CAVOK,,,,,,,,VFR,,,,,,,,,,,,METAR,1000.0
FBKE 250500Z 13006KT CAVOK 16/15 Q1024,FBKE,2015-04-25T05:00:00Z,-17.82,25.17,16.0,15.0,130,6,,6.21,30.236221,,,,,,,,,,,CAVOK,,,,,,,,VFR,,,,,,,,,,,,METAR,1000.0
FBMN 250500Z 11005KT CAVOK 16/11 Q1024,FBMN,2015-04-25T05:00:00Z,-19.97,23.42,16.0,11.0,110,5,,6.21,30.236221,,,,,,,,,,,CAVOK,,,,,,,,VFR,,,,,,,,,,,,METAR,900.0
FBSK 250500Z 11004KT CAVOK 15/14 Q1027 NOSIG,FBSK,2015-04-25T05:00:00Z,-24.55,25.92,15.0,14.0,110,4,,6.21,30.324802,,,,,,TRUE,,,,,CAVOK,,,,,,,,VFR,,,,,,,,,,,,METAR,1005.0
NVVV 250500Z 08010KT 9999 SCT020 BKN120 28/23 Q1010 RMK NIL,NVVV,2015-04-25T05:00:00Z,-17.68,168.3,28.0,23.0,80,10,,6.21,29.822834,,,,,,,,,,,SCT,2000,BKN,12000,,,,,VFR,,,,,,,,,,,,METAR,21.0
ZBSJ 250500Z 15004MPS 110V170 8000 NSC 30/13 Q1015 NOSIG,ZBSJ,2015-04-25T05:00:00Z,38.28,114.7,30.0,13.0,150,8,,4.97,29.970472,,,,,,TRUE,,,,,,,,,,,,,,,,,,,,,,,,,METAR,71.0
ZWSH 250500Z 10003MPS 040V170 CAVOK 26/M01 Q1019 NOSIG,ZWSH,2015-04-25T05:00:00Z,39.55,76.02,26.0,-1.0,100,6,,6.21,30.088583,,,,,,TRUE,,,,,CAVOK,,,,,,,,VFR,,,,,,,,,,,,METAR,1291.0
ZGKL 250500Z 11003MPS 060V170 9999 FEW040 BKN053 25/14 Q1019 NOSIG,ZGKL,2015-04-25T05:00:00Z,25.22,110.03,25.0,14.0,110,6,,6.21,30.088583,,,,,,TRUE,,,,,FEW,4000,BKN,5300,,,,,VFR,,,,,,,,,,,,METAR,166.0
SEGU 250500Z 33006KT 9999 FEW010 SCT030 BKN100 27/24 Q1012 NOSIG RMK A2989,SEGU,2015-04-25T05:00:00Z,-2.13,-79.87,27.0,24.0,330,6,,6.21,29.88189,,,,,,TRUE,,,,,FEW,1000,SCT,3000,BKN,10000,,,VFR,,,,,,,,,,,,METAR,9.0
VTSG 250500Z 03005KT 350V110 9999 SCT020 BKN300 30/23 Q1012 A2989,VTSG,2015-04-25T05:00:00Z,8.1,98.98,30.0,23.0,30,5,,6.21,29.88189,,,,,,,,,,,SCT,2000,BKN,30000,,,,,VFR,,,,,,,,,,,,METAR,25.0
SYCJ 250500Z 19004KT 9999 -SHRA SCT009 BKN038 24/24 Q1013 NOSIG,SYCJ,2015-04-25T05:00:00Z,6.5,-58.25,24.0,24.0,190,4,,6.21,29.911417,,,,,,TRUE,,,,-SHRA,SCT,900,BKN,3800,,,,,VFR,,,,,,,,,,,,METAR,30.0
CYXC 250500Z 22004KT 25SM FEW075 SCT230 03/M01 A2979 RMK AC2CI2 SLP107,CYXC,2015-04-25T05:00:00Z,49.6,-115.77,3.0,-1.0,220,4,,25.0,29.790354,1010.7,,,,,,,,,,FEW,7500,SCT,23000,,,,,VFR,,,,,,,,,,,,METAR,939.0
LEGT 250500Z 23008KT 9999 FEW010 11/09 Q1015,LEGT,2015-04-25T05:00:00Z,40.28,-3.72,11.0,9.0,230,8,,6.21,29.970472,,,,,,,,,,,FEW,1000,,,,,,,VFR,,,,,,,,,,,,METAR,612.0
UTFF 250500Z 08003KT 010V140 9999 NSC 26/07 Q1013 R18/CLRD70,UTFF,2015-04-25T05:00:00Z,40.37,71.77,26.0,7.0,80,3,,6.21,29.911417,,,,,,,,,,,,,,,,,,,,,,,,,,,,,,,METAR,577.0
UTSS 250500Z 13008KT 080V170 9999 NSC 28/05 Q1010 R88/70D NOSIG,UTSS,2015-04-25T05:00:00Z,39.7,66.98,28.0,5.0,130,8,,6.21,29.822834,,,,,,TRUE,,,,,,,,,,,,,,,,,,,,,,,,,METAR,724.0
UTSK 250500Z 15003KT 080V200 CAVOK 29/10 Q1008 R16/CLRD70,UTSK,2015-04-25T05:00:00Z,38.83,65.77,29.0,10.0,150,3,,6.21,29.763779,,,,,,,,,,,CAVOK,,,,,,,,VFR,,,,,,,,,,,,METAR,1365.0
VTPH 250500Z 03009KT 9999 FEW030 SCT100 BKN300 30/24 Q1013 NOSIG,VTPH,2015-04-25T05:00:00Z,12.63,99.95,30.0,24.0,30,9,,6.21,29.911417,,,,,,TRUE,,,,,FEW,3000,SCT,10000,BKN,30000,,,VFR,,,,,,,,,,,,METAR,6.0
VTCT 250500Z 15005KT 9999 BKN025 29/22 Q1015 A2999 RMK/RWY03 INFO F,VTCT,2015-04-25T05:00:00Z,19.95,99.88,29.0,22.0,150,5,,6.21,29.970472,,,,,,,,,,,BKN,2500,,,,,,,MVFR,,,,,,,,,,,,METAR,390.0
DFFD 250500Z 19004KT CAVOK 29/12 Q1012 NOSIG,DFFD,2015-04-25T05:00:00Z,12.33,-1.52,29.0,12.0,190,4,,6.21,29.88189,,,,,,TRUE,,,,,CAVOK,,,,,,,,VFR,,,,,,,,,,,,METAR,306.0
DFOO 250500Z 18010KT CAVOK 28/19 Q1012,DFOO,2015-04-25T05:00:00Z,11.17,-4.32,28.0,19.0,180,10,,6.21,29.88189,,,,,,,,,,,CAVOK,,,,,,,,VFR,,,,,,,,,,,,METAR,460.0
FTTJ 250500Z 04009KT CAVOK 27/07 Q1010 NOSIG,FTTJ,2015-04-25T05:00:00Z,12.12,15.02,27.0,7.0,40,9,,6.21,29.822834,,,,,,TRUE,,,,,CAVOK,,,,,,,,VFR,,,,,,,,,,,,METAR,295.0
DBBB 250500Z 20009KT 8000 SCT012 28/26 Q1010 NOSIG,DBBB,2015-04-25T05:00:00Z,6.33,2.37,28.0,26.0,200,9,,4.97,29.822834,,,,,,TRUE,,,,,SCT,1200,,,,,,,MVFR,,,,,,,,,,,,METAR,9.0
WMKA 250500Z 08006KT 9999 FEW020 SCT140 BKN270 33/23 Q1010,WMKA,2015-04-25T05:00:00Z,6.2,100.4,33.0,23.0,80,6,,6.21,29.822834,,,,,,,,,,,FEW,2000,SCT,14000,BKN,27000,,,VFR,,,,,,,,,,,,METAR,5.0
LIMP 250500Z 08004KT 050V110 2500 BR FEW020 11/10 Q1016,LIMP,2015-04-25T05:00:00Z,44.82,10.3,11.0,10.0,80,4,,1.55,30.0,,,,,,,,,,BR,FEW,2000,,,,,,,IFR,,,,,,,,,,,,SPECI,50.0
WATT 250500Z 32007KT 6000 VCSH BKN015 31/25 Q1009 RMK SH TO S AREA,WATT,2015-04-25T05:00:00Z,-10.17,123.67,31.0,25.0,320,7,,3.73,29.793306,,,,,,,,,,VCSH,BKN,1500,,,,,,,MVFR,,,,,,,,,,,,METAR,102.0
WAHQ 250500Z 00000KT 6000 SCT015 27/24 Q1010 NOSIG,WAHQ,2015-04-25T05:00:00Z,,,27.0,24.0,0,0,,3.73,29.822834,,,,,,TRUE,,,,,SCT,1500,,,,,,,MVFR,,,,,,,,,,,,METAR,
OTBD 250500Z 32017KT 270V340 6000 NSC 26/12 Q1013 NOSIG,OTBD,2015-04-25T05:00:00Z,25.25,51.57,26.0,12.0,320,17,,3.73,29.911417,,,,,,TRUE,,,,,,,,,,,,,,,,,,,,,,,,,SPECI,10.0
OBBI 250500Z 33027KT 9000 SKC 24/13 Q1015 NOSIG,OBBI,2015-04-25T05:00:00Z,26.27,50.63,24.0,13.0,330,27,,5.59,29.970472,,,,,,TRUE,,,,,SKC,,,,,,,,VFR,,,,,,,,,,,,METAR,2.0
SABE 250500Z 34005KT CAVOK 18/14 Q1020,SABE,2015-04-25T05:00:00Z,-34.57,-58.42,18.0,14.0,340,5,,6.21,30.11811,,,,,,,,,,,CAVOK,,,,,,,,VFR,,,,,,,,,,,,METAR,6.0
SARF 250500Z 14006KT CAVOK 19/17 Q1021,SARF,2015-04-25T05:00:00Z,-26.22,-58.22,19.0,17.0,140,6,,6.21,30.147638,,,,,,,,,,,CAVOK,,,,,,,,VFR,,,,,,,,,,,,METAR,60.0
VTCL 250500Z VRB04KT 9999 SCT025 SCT120 BKN300 32/22 Q1014 A2996 INFO: G,VTCL,2015-04-25T05:00:00Z,18.27,99.52,32.0,22.0,0,4,,6.21,29.940945,,,,,,,,,,,SCT,2500,SCT,12000,BKN,30000,,,VFR,,,,,,,,,,,,METAR,242.0
NGTA 250500Z VRB03KT 9999 SCT010CB BKN100 OVC300 28/26 Q1007,NGTA,2015-04-25T05:00:00Z,1.35,172.92,28.0,26.0,0,3,,6.21,29.734253,,,,,,,,,,,SCT,1000,BKN,10000,OVC,30000,,,VFR,,,,,,,,,,,,METAR,2.0
ZGNN 250500Z 33003MPS 280V040 CAVOK 28/16 Q1018 NOSIG,ZGNN,2015-04-25T05:00:00Z,22.62,108.17,28.0,16.0,330,6,,6.21,30.059055,,,,,,TRUE,,,,,CAVOK,,,,,,,,VFR,,,,,,,,,,,,METAR,73.0
CWBU 250500Z AUTO 04013KT M02/M04 RMK AO1 SOG 00 3011 PK WND 04018/0411 SLP154 T10211037 50002,CWBU,2015-04-25T05:00:00Z,53.33,-104.02,-2.1,-3.7,40,13,,,,1015.4,,TRUE,TRUE,,,,,,,,,,,,,,,,0.2,,,,,,,,,,,METAR,373.0
CWBY 250500Z AUTO 07012G18KT 02/02 RMK AO1 5PAST HR SOG 02 6001 PK WND 07020/0419 SLP047 P0002 T00160016 50038,CWBY,2015-04-25T05:00:00Z,49.82,-64.28,1.6,1.6,70,12,18,,,1004.7,,TRUE,TRUE,,,,,,,,,,,,,,,,3.8,,,,,0.02,,,,,,METAR,53.0
CWSF 250500Z AUTO 11008KT 00/M00 RMK AO1 3002 SLP040 T00001001 50005,CWSF,2015-04-25T05:00:00Z,49.25,-65.32,0.0,-0.1,110,8,,,,1004.0,,TRUE,TRUE,,,,,,,,,,,,,,,,0.5,,,,,,,,,,,METAR,29.0
CWNH 250500Z AUTO 36006KT 00/M00 RMK AO1 7PAST HR 6006 SLP029 P0003 T00001003 50031,CWNH,2015-04-25T05:00:00Z,47.78,-69.53,0.0,-0.3,360,6,,,,1002.9,,TRUE,TRUE,,,,,,,,,,,,,,,,3.1,,,,,0.03,,,,,,METAR,148.0
DAAP 250500Z 00000KT 4000 HZ FEW046 26/M00 Q1015,DAAP,2015-04-25T05:00:00Z,26.72,8.62,26.0,0.0,0,0,,2.49,29.970472,,,,,,,,,,HZ,FEW,4600,,,,,,,IFR,,,,,,,,,,,,METAR,558.0
DAUU 250500Z 29010KT CAVOK 23/M03 Q1009,DAUU,2015-04-25T05:00:00Z,31.92,5.4,23.0,-3.0,290,10,,6.21,29.793306,,,,,,,,,,,CAVOK,,,,,,,,VFR,,,,,,,,,,,,METAR,141.0
OETF 250500Z 05008KT 0800 DU SKC 19/00 Q1021 NOSIG,OETF,2015-04-25T05:00:00Z,21.47,40.53,19.0,0.0,50,8,,0.5,30.147638,,,,,,TRUE,,,,DU,SKC,,,,,,,,LIFR,,,,,,,,,,,,METAR,1449.0
GUCY 250500Z VRB02KT CAVOK 26/24 Q1012 NOSIG,GUCY,2015-04-25T05:00:00Z,9.57,-13.62,26.0,24.0,0,2,,6.21,29.88189,,,,,,TRUE,,,,,CAVOK,,,,,,,,VFR,,,,,,,,,,,,METAR,26.0
FYWW 250500Z AUTO 10006KT //// // ////// 12/04 Q1028,FYWW,2015-04-25T05:00:00Z,-22.57,17.1,12.0,4.0,100,6,,,30.35433,,,TRUE,,,,,,,,,,,,,,,,,,,,,,,,,,,,METAR,1725.0
FYWH 250500Z 26003KT CAVOK 06/04 Q1029 NOSIG,FYWH,2015-04-25T05:00:00Z,-22.47,17.47,6.0,4.0,260,3,,6.21,30.383858,,,,,,TRUE,,,,,CAVOK,,,,,,,,VFR,,,,,,,,,,,,METAR,1700.0
FYWE 250500Z 12004KT CAVOK 10/04 Q1028,FYWE,2015-04-25T05:00:00Z,-22.62,17.08,10.0,4.0,120,4,,6.21,30.35433,,,,,,,,,,,CAVOK,,,,,,,,VFR,,,,,,,,,,,,METAR,1700.0
FYWB 250500Z 31002KT 9999 BKN090 14/11 Q1018,FYWB,2015-04-25T05:00:00Z,-22.98,14.65,14.0,11.0,310,2,,6.21,30.059055,,,,,,,,,,,BKN,9000,,,,,,,VFR,,,,,,,,,,,,METAR,46.0
FYRN 250500Z 00000KT CAVOK 17/13 Q1023,FYRN,2015-04-25T05:00:00Z,-20.02,13.85,17.0,13.0,0,0,,6.21,30.206694,,,,,,,,,,,CAVOK,,,,,,,,VFR,,,,,,,,,,,,METAR,756.0
FYOW 250500Z AUTO 09003KT //// // ////// 16/M03 Q1024,FYOW,2015-04-25T05:00:00Z,-20.43,16.67,16.0,-3.0,90,3,,,30.236221,,,TRUE,,,,,,,,,,,,,,,,,,,,,,,,,,,,METAR,1481.0
FYOO 250500Z AUTO 15003KT //// // ////// 20/07 Q1023,FYOO,2015-04-25T05:00:00Z,-19.15,15.92,20.0,7.0,150,3,,,30.206694,,,TRUE,,,,,,,,,,,,,,,,,,,,,,,,,,,,METAR,1192.0
FYLZ 250500Z AUTO 22004KT //// // ////// 07/07 Q1018,FYLZ,2015-04-25T05:00:00Z,-26.67,15.25,7.0,7.0,220,4,,,30.059055,,,TRUE,,,,,,,,,,,,,,,,,,,,,,,,,,,,METAR,130.0
FYKT 250500Z 02008KT CAVOK 17/05 Q1022,FYKT,2015-04-25T05:00:00Z,-26.52,18.12,17.0,5.0,20,8,,6.21,30.177166,,,,,,,,,,,CAVOK,,,,,,,,VFR,,,,,,,,,,,,METAR,1061.0
FYGF 250500Z AUTO 26003KT //// // ////// 11/08 Q1027,FYGF,2015-04-25T05:00:00Z,-19.6,18.12,11.0,8.0,260,3,,,30.324802,,,TRUE,,,,,,,,,,,,,,,,,,,,,,,,,,,,METAR,1400.0
FYGB 250500Z AUTO 35002KT //// // ////// 12/08 Q1028,FYGB,2015-04-25T05:00:00Z,-22.5,18.97,12.0,8.0,350,2,,,30.35433,,,TRUE,,,,,,,,,,,,,,,,,,,,,,,,,,,,METAR,1442.0
GOGG 250500Z 22006KT CAVOK 22/20 Q1014,GOGG,2015-04-25T05:00:00Z,12.55,-16.27,22.0,20.0,220,6,,6.21,29.940945,,,,,,,,,,,CAVOK,,,,,,,,VFR,,,,,,,,,,,,METAR,23.0
GOSS 250500Z 01008KT 330V030 CAVOK 20/16 Q1009,GOSS,2015-04-25T05:00:00Z,16.05,-16.43,20.0,16.0,10,8,,6.21,29.793306,,,,,,,,,,,CAVOK,,,,,,,,VFR,,,,,,,,,,,,METAR,4.0
GOGS 250500Z 24004KT CAVOK 22/21 Q1011,GOGS,2015-04-25T05:00:00Z,12.4,-16.75,22.0,21.0,240,4,,6.21,29.852362,,,,,,,,,,,CAVOK,,,,,,,,VFR,,,,,,,,,,,,METAR,13.0
DNMM 250500Z 34003KT 7000 FEW008 24/23 Q1012 NOSIG,DNMM,2015-04-25T05:00:00Z,6.57,3.32,24.0,23.0,340,3,,4.35,29.88189,,,,,,TRUE,,,,,FEW,800,,,,,,,MVFR,,,,,,,,,,,,METAR,38.0
DGAA 250500Z 27005KT CAVOK 26/22 Q1011 NOSIG,DGAA,2015-04-25T05:00:00Z,5.58,-0.17,26.0,22.0,270,5,,6.21,29.852362,,,,,,TRUE,,,,,CAVOK,,,,,,,,VFR,,,,,,,,,,,,METAR,69.0
DRRN 250500Z 08005KT 6000 NSC 31/M07 Q1010 TEMPO 4000 DU,DRRN,2015-04-25T05:00:00Z,13.47,2.17,31.0,-7.0,80,5,,3.73,29.822834,,,,,,,,,,,,,,,,,,,,,,,,,,,,,,,METAR,227.0
OEKJ 250500Z 01019KT 0800 BLDU SKC 21/M07 Q1021,OEKJ,2015-04-25T05:00:00Z,24.07,47.58,21.0,-7.0,10,19,,0.5,30.147638,,,,,,,,,,BLDU,SKC,,,,,,,,LIFR,,,,,,,,,,,,METAR,503.0
OEHL 250500Z 09008KT 9000 SKC 15/M04 Q1024 NOSIG,OEHL,2015-04-25T05:00:00Z,27.42,41.67,15.0,-4.0,90,8,,5.59,30.236221,,,,,,TRUE,,,,,SKC,,,,,,,,VFR,,,,,,,,,,,,METAR,1013.0
OEGT 250500Z 23004KT CAVOK 10/01 Q1024 NOSIG,OEGT,2015-04-25T05:00:00Z,31.42,37.27,10.0,1.0,230,4,,6.21,30.236221,,,,,,TRUE,,,,,CAVOK,,,,,,,,VFR,,,,,,,,,,,,METAR,499.0
OEGS 250500Z 05012KT 5000 DU SKC 18/00 Q1022,OEGS,2015-04-25T05:00:00Z,26.3,43.77,18.0,0.0,50,12,,3.11,30.177166,,,,,,,,,,DU,SKC,,,,,,,,MVFR,,,,,,,,,,,,METAR,650.0
OEGN 250500Z 24006KT 9999 SCT030 31/25 Q1011 TEMPO 9000,OEGN,2015-04-25T05:00:00Z,16.88,42.57,31.0,25.0,240,6,,6.21,29.852362,,,,,,,,,,,SCT,3000,,,,,,,VFR,,,,,,,,,,,,METAR,3.0
OEDM 250500Z 06020KT 2000 BLDU VV/// 17/M06 Q1020,OEDM,2015-04-25T05:00:00Z,24.45,44.12,17.0,-6.0,60,20,,1.24,30.11811,,,,,,,,,,BLDU,OVX,0,,,,,,,LIFR,,,,,,,,,,,,METAR,922.0
OEBA 250500Z 33009KT 2200 DU SKC 22/06 Q1021 NOSIG,OEBA,2015-04-25T05:00:00Z,20.3,41.62,22.0,6.0,330,9,,1.37,30.147638,,,,,,TRUE,,,,DU,SKC,,,,,,,,IFR,,,,,,,,,,,,METAR,1656.0
OEAR 250500Z 32002KT 3500 DU SKC 27/17 Q1010,OEAR,2015-04-25T05:00:00Z,,,27.0,17.0,320,2,,2.17,29.822834,,,,,,,,,,DU,SKC,,,,,,,,IFR,,,,,,,,,,,,METAR,
OEAH 250500Z 34023KT 0500 DS SKC 23/03 Q1016 NOSIG,OEAH,2015-04-25T05:00:00Z,25.27,49.47,23.0,3.0,340,23,,0.31,30.0,,,,,,TRUE,,,,DS,SKC,,,,,,,,LIFR,,,,,,,,,,,,METAR,172.0
OEAB 250500Z 00000KT CAVOK 22/02 Q1025 NOSIG,OEAB,2015-04-25T05:00:00Z,18.22,42.63,22.0,2.0,0,0,,6.21,30.265747,,,,,,TRUE,,,,,CAVOK,,,,,,,,VFR,,,,,,,,,,,,METAR,2084.0
HKVO 250500Z 23010KT 9999 BKN020 24/20,HKVO,2015-04-25T05:00:00Z,-3.38,38.53,24.0,20.0,230,10,,6.21,,,,,,,,,,,,BKN,2000,,,,,,,MVFR,,,,,,,,,,,,METAR,579.0
HKNW 250500Z 00000KT 9999 BKN020 18/16 Q1021,HKNW,2015-04-25T05:00:00Z,-1.32,36.82,18.0,16.0,0,0,,6.21,30.147638,,,,,,,,,,,BKN,2000,,,,,,,MVFR,,,,,,,,,,,,METAR,1679.0
HKNK 250500Z 00000KT CAVOK 15/13,HKNK,2015-04-25T05:00:00Z,-0.3,36.17,15.0,13.0,0,0,,6.21,,,,,,,,,,,,CAVOK,,,,,,,,VFR,,,,,,,,,,,,METAR,1901.0
HKMU 250500Z 00000KT 9999 FEW021 SCT280 21/19,HKMU,2015-04-25T05:00:00Z,-2.27,37.82,21.0,19.0,0,0,,6.21,,,,,,,,,,,,FEW,2100,SCT,28000,,,,,VFR,,,,,,,,,,,,METAR,1000.0
HKMO 250500Z 17006KT 5000 +SHRA FEW009 BKN019 OVC080 4000 +SHRA FEW009 BKN019 OVC080,HKMO,2015-04-25T05:00:00Z,-4.02,39.62,,,170,6,,3.11,,,,,,,,,,,+SHRA +SHRA,FEW,900,BKN,1900,OVC,8000,FEW,900,MVFR,,,,,,,,,,,,SPECI,55.0
HKML 250500Z 18015KT 9999 -RA SCT015TCU OVC080 25/24 Q1013,HKML,2015-04-25T05:00:00Z,-3.22,40.1,25.0,24.0,180,15,,6.21,29.911417,,,,,,,,,,-RA,SCT,1500,OVC,8000,,,,,VFR,,,,,,,,,,,,METAR,23.0
HKKT 250500Z 00000KT CAVOK 15/14,HKKT,2015-04-25T05:00:00Z,0.97,34.97,15.0,14.0,0,0,,6.21,,,,,,,,,,,,CAVOK,,,,,,,,VFR,,,,,,,,,,,,METAR,1850.0
HKKI 250500Z 00000KT FEW018 SCT220 19/19 Q1018,HKKI,2015-04-25T05:00:00Z,-0.1,34.75,19.0,19.0,0,0,,,30.059055,,,,,,,,,,,FEW,1800,SCT,22000,,,,,,,,,,,,,,,,,METAR,1146.0
HKJK 250500Z 21005KT 9999 BKN018 18/16 Q1022 NOSIG,HKJK,2015-04-25T05:00:00Z,-1.32,36.92,18.0,16.0,210,5,,6.21,30.177166,,,,,,TRUE,,,,,BKN,1800,,,,,,,MVFR,,,,,,,,,,,,METAR,1624.0
HKEL 250500Z 09008KT CAVOK 16/13 Q1024,HKEL,2015-04-25T05:00:00Z,0.4,35.23,16.0,13.0,90,8,,6.21,30.236221,,,,,,,,,,,CAVOK,,,,,,,,VFR,,,,,,,,,,,,METAR,2133.0
AYNZ 250500Z 09018KT 9999 06HZ FEW030 FEW035CB OVC280 31/24 Q1006 RMK: CB TO S/SW,AYNZ,2015-04-25T05:00:00Z,-6.57,146.72,31.0,24.0,90,18,,6.21,29.704725,,,,,,,,,,HZ,FEW,3000,FEW,3500,OVC,28000,,,VFR,,,,,,,,,,,,METAR,70.0
AYWK 250500Z 05005KT 9999 FEW020CB FEW020 SCT140 BKN300 30/25 Q1006 RMK: CB ASSW SHOWERS TO W,AYWK,2015-04-25T05:00:00Z,-3.58,143.67,30.0,25.0,50,5,,6.21,29.704725,,,,,,,,,,,FEW,2000,FEW,2000,SCT,14000,BKN,30000,VFR,,,,,,,,,,,,METAR,6.0
AYPY 250500Z VRB02KT 9999 FEW019 SCT030 OVC140 28/24 Q1007,AYPY,2015-04-25T05:00:00Z,-9.42,147.22,28.0,24.0,0,2,,6.21,29.734253,,,,,,,,,,,FEW,1900,SCT,3000,OVC,14000,,,VFR,,,,,,,,,,,,METAR,47.0
SAZM 250500Z 00000KT 1500 VA NSC 13/11 Q1018 REVA SUSPENSION Y DEPOSITO,SAZM,2015-04-25T05:00:00Z,-37.92,-57.57,13.0,11.0,0,0,,0.93,30.059055,,,,,,,,,,VA PE SN DS,,,,,,,,,,,,,,,,,,,,,METAR,21.0
SASA 250500Z 36003KT 9999 OVC020 16/15 Q1026,SASA,2015-04-25T05:00:00Z,-24.85,-65.47,16.0,15.0,360,3,,6.21,30.295275,,,,,,,,,,,OVC,2000,,,,,,,MVFR,,,,,,,,,,,,METAR,1216.0
DRZA 250500Z 10004KT CAVOK 21/M03 Q1014,DRZA,2015-04-25T05:00:00Z,16.97,8.0,21.0,-3.0,100,4,,6.21,29.940945,,,,,,,,,,,CAVOK,,,,,,,,VFR,,,,,,,,,,,,METAR,502.0
UAKD 250500Z 13003MPS 7000 SCT060 OVC100 13/03 Q1014 R22/0///65 NOSIG RMK QFE727/0969,UAKD,2015-04-25T05:00:00Z,47.7,67.73,13.0,3.0,130,6,,4.35,29.940945,,,,,,TRUE,,,,,SCT,6000,OVC,10000,,,,,MVFR,,,,,,,,,,,,SPECI,381.0
FKYS 250500Z 24003KT 210V270 8000 FEW003 BKN006 21/20 Q1017 NOSIG,FKYS,2015-04-25T05:00:00Z,3.82,11.52,21.0,20.0,240,3,,4.97,30.029528,,,,,,TRUE,,,,,FEW,300,BKN,600,,,,,IFR,,,,,,,,,,,,METAR,760.0
FKKD 250500Z 00000KT 7000 TS BKN013 FEW016CB 25/24 Q1012 BECMG NSW,FKKD,2015-04-25T05:00:00Z,4.0,9.72,25.0,24.0,0,0,,4.35,29.88189,,,,,,,,,,TS,BKN,1300,FEW,1600,,,,,MVFR,,,,,,,,,,,,METAR,9.0
OIBQ 250500Z 32026KT 5000 SA SKC 21/10 Q1015,OIBQ,2015-04-25T05:00:00Z,29.27,50.32,21.0,10.0,320,26,,3.11,29.970472,,,,,,,,,,SA,SKC,,,,,,,,MVFR,,,,,,,,,,,,METAR,6.0
OIBL 250500Z 11006KT 6000 NSC 31/23 Q1009,OIBL,2015-04-25T05:00:00Z,26.53,54.82,31.0,23.0,110,6,,3.73,29.793306,,,,,,,,,,,,,,,,,,,,,,,,,,,,,,,METAR,14.0
OIZJ 250500Z 29006KT 6000 NSC 30/23 Q1006,OIZJ,2015-04-25T05:00:00Z,25.65,57.8,30.0,23.0,290,6,,3.73,29.704725,,,,,,,,,,,,,,,,,,,,,,,,,,,,,,,METAR,4.0
WIHH 250500Z 27010KT 6000 SCT017 31/22 Q1010 NOSIG,WIHH,2015-04-25T05:00:00Z,-6.25,106.88,31.0,22.0,270,10,,3.73,29.822834,,,,,,TRUE,,,,,SCT,1700,,,,,,,MVFR,,,,,,,,,,,,METAR,25.0
HDAM 250500Z 05004KT 9999 SCT023 30/24 Q1012,HDAM,2015-04-25T05:00:00Z,11.55,43.17,30.0,24.0,50,4,,6.21,29.88189,,,,,,,,,,,SCT,2300,,,,,,,VFR,,,,,,,,,,,,METAR,49.0
VTUV 250500Z 06008KT 9999 SCT022 BKN300 32/19 Q1013 A2993 INFO F RWY 36,VTUV,2015-04-25T05:00:00Z,16.12,103.78,32.0,19.0,60,8,,6.21,29.911417,,,,,,,,,,,SCT,2200,BKN,30000,,,,,VFR,,,,,,,,,,,,METAR,138.0
ZGOW 250500Z 10003MPS 060V140 8000 BKN036 26/18 Q1017 NOSIG,ZGOW,2015-04-25T05:00:00Z,23.55,116.5,26.0,18.0,100,6,,4.97,30.029528,,,,,,TRUE,,,,,BKN,3600,,,,,,,MVFR,,,,,,,,,,,,METAR,3.0
LERT 250500Z 23006G17KT 190V260 9999 SCT008 BKN020 BKN035 17/15 Q1017 NOSIG,LERT,2015-04-25T05:00:00Z,36.63,-6.33,17.0,15.0,230,6,17,6.21,30.029528,,,,,,TRUE,,,,,SCT,800,BKN,2000,BKN,3500,,,MVFR,,,,,,,,,,,,METAR,26.0
CWGM 250500Z AUTO 24010KT 05/M10 RMK AO1 PK WND 25017/0420 T00481095,CWGM,2015-04-25T05:00:00Z,49.13,-113.78,4.8,-9.5,240,10,,,,,,TRUE,TRUE,,,,,,,,,,,,,,,,,,,,,,,,,,,METAR,1296.0
CWGB 250500Z AUTO 22007KT 07/04 RMK AO1 SLP104 T00720041 52010,CWGB,2015-04-25T05:00:00Z,49.35,-124.17,7.2,4.1,220,7,,,,1010.4,,TRUE,TRUE,,,,,,,,,,,,,,,,1.0,,,,,,,,,,,METAR,5.0
CWFQ 250500Z AUTO 29004KT M01/M04 RMK AO1 SOG 00 8005 SLP096 T10051042,CWFQ,2015-04-25T05:00:00Z,45.03,-72.82,-0.5,-4.2,290,4,,,,1009.6,,TRUE,TRUE,,,,,,,,,,,,,,,,,,,,,,,,,,,METAR,152.0
CWFJ 250500Z AUTO 26007KT 06/M07 RMK AO1 T00551072,CWFJ,2015-04-25T05:00:00Z,49.2,-113.27,5.5,-7.2,260,7,,,,,,TRUE,TRUE,,,,,,,,,,,,,,,,,,,,,,,,,,,METAR,1136.0
CWFF 250500Z AUTO 05015G21KT M02/M03 RMK AO1 SOG 01 1012 PK WND 04022/0444 SLP143 T10191031,CWFF,2015-04-25T05:00:00Z,52.82,-104.58,-1.9,-3.1,50,15,21,,,1014.3,,TRUE,TRUE,,,,,,,,,,,,,,,,,,,,,,,,,,,METAR,490.0
CWEW 250500Z AUTO 27006KT 01/M04 RMK AO1 SOG 14 8008 SLP106 T00091042,CWEW,2015-04-25T05:00:00Z,45.82,-73.43,0.9,-4.2,270,6,,,,1010.6,,TRUE,TRUE,,,,,,,,,,,,,,,,,,,,,,,,,,,METAR,21.0
CWEL 250500Z AUTO 33008KT 07/04 RMK AO1 6PAST HR 1009 SLP106 P0006 T00730040 50056,CWEL,2015-04-25T05:00:00Z,49.22,-123.78,7.3,4.0,330,8,,,,1010.6,,TRUE,TRUE,,,,,,,,,,,,,,,,5.6,,,,,0.06,,,,,,METAR,5.0
CWPZ 250500Z AUTO 23001KT 03/00 RMK AO1 1022 SLP112 T00250000 50001,CWPZ,2015-04-25T05:00:00Z,54.38,-125.97,2.5,0.0,230,1,,,,1011.2,,TRUE,TRUE,,,,,,,,,,,,,,,,0.1,,,,,,,,,,,METAR,713.0
CWPR 250500Z AUTO 32001KT 02/M02 RMK AO1 SOG 00 1016 SLP102 T00241020 50002,CWPR,2015-04-25T05:00:00Z,49.47,-120.52,2.4,-2.0,320,1,,,,1010.2,,TRUE,TRUE,,,,,,,,,,,,,,,,0.2,,,,,,,,,,,METAR,700.0
CWPD 250500Z AUTO 02007G15KT M01/M02 RMK AO1 SLP017 T10111018 57007,CWPD,2015-04-25T05:00:00Z,47.57,-71.22,-1.1,-1.8,20,7,15,,,1001.7,,TRUE,TRUE,,,,,,,,,,,,,,,,-0.7,,,,,,,,,,,METAR,803.0
CWOD 250500Z AUTO 32009KT 02/02 RMK AO1 6003 SLP058 T00210015 50007,CWOD,2015-04-25T05:00:00Z,48.85,-72.55,2.1,1.5,320,9,,,,1005.8,,TRUE,TRUE,,,,,,,,,,,,,,,,0.7,,,,,,,,,,,METAR,137.0
CWOC 250500Z AUTO 04004KT M00/M00 RMK AO1 SLP019 T10031003 58001,CWOC,2015-04-25T05:00:00Z,48.02,-65.32,-0.3,-0.3,40,4,,,,1001.9,,TRUE,TRUE,,,,,,,,,,,,,,,,-0.1,,,,,,,,,,,METAR,47.0
CWNQ 250500Z AUTO 29010KT 02/M02 RMK AO1 SLP078 T00191020 57007,CWNQ,2015-04-25T05:00:00Z,46.22,-72.65,1.9,-2.0,290,10,,,,1007.8,,TRUE,TRUE,,,,,,,,,,,,,,,,-0.7,,,,,,,,,,,METAR,10.0
CWNP 250500Z AUTO 14001KT 03/02 RMK AO1 SLP114 T00290016 52014,CWNP,2015-04-25T05:00:00Z,50.27,-117.82,2.9,1.6,140,1,,,,1011.4,,TRUE,TRUE,,,,,,,,,,,,,,,,1.4,,,,,,,,,,,METAR,524.0
CWNM 250500Z AUTO 13002KT 04/03 RMK AO1 1014 SLP111 T00440026 50002,CWNM,2015-04-25T05:00:00Z,49.5,-117.28,4.4,2.6,130,2,,,,1011.1,,TRUE,TRUE,,,,,,,,,,,,,,,,0.2,,,,,,,,,,,METAR,535.0
CWNK 250500Z AUTO 10007KT 04/M00 RMK AO1 T00431002,CWNK,2015-04-25T05:00:00Z,49.5,-98.03,4.3,-0.2,100,7,,,,,,TRUE,TRUE,,,,,,,,,,,,,,,,,,,,,,,,,,,METAR,268.0
CWNE 250500Z AUTO 07005KT 01/01 RMK AO1 8003 SLP006 T00060005 50015,CWNE,2015-04-25T05:00:00Z,47.07,-64.0,0.6,0.5,70,5,,,,1000.6,,TRUE,TRUE,,,,,,,,,,,,,,,,1.5,,,,,,,,,,,METAR,15.0
CXSL 250500Z AUTO 08008KT 02/M06 RMK AO1 T00231061,CXSL,2015-04-25T05:00:00Z,54.28,-112.5,2.3,-6.1,80,8,,,,,,TRUE,TRUE,,,,,,,,,,,,,,,,,,,,,,,,,,,METAR,680.0
CPXL 250500Z AUTO 25007KT 09/M08 RMK AO1 T00911075,CPXL,2015-04-25T05:00:00Z,49.87,-111.38,9.1,-7.5,250,7,,,,,,TRUE,TRUE,,,,,,,,,,,,,,,,,,,,,,,,,,,METAR,799.0
CPSV 250500Z AUTO 27010KT 08/M05 RMK AO1 T00751054,CPSV,2015-04-25T05:00:00Z,49.92,-110.92,7.5,-5.4,270,10,,,,,,TRUE,TRUE,,,,,,,,,,,,,,,,,,,,,,,,,,,METAR,766.0
CPST 250500Z AUTO 36013KT 02/01 RMK AO1 PK WND 00019/0457 T00170014 50021,CPST,2015-04-25T05:00:00Z,51.03,-113.28,1.7,1.4,360,13,,,,,,TRUE,TRUE,,,,,,,,,,,,,,,,2.1,,,,,,,,,,,METAR,967.0
CPFI 250500Z AUTO 27009KT 07/M07 RMK AO1 T00651068,CPFI,2015-04-25T05:00:00Z,49.8,-112.03,6.5,-6.8,270,9,,,,,,TRUE,TRUE,,,,,,,,,,,,,,,,,,,,,,,,,,,METAR,833.0
CERM 250500Z AUTO 27001KT M00/M00 RMK AO1 2PAST HR SOG 00 3001 SLP016 P0001 T10041003 50013,CERM,2015-04-25T05:00:00Z,47.42,-68.32,-0.4,-0.3,270,1,,,,1001.6,,TRUE,TRUE,,,,,,,,,,,,,,,,1.3,,,,,0.01,,,,,,METAR,154.0
CAHR 250500Z AUTO 15004KT M00/M00 RMK AO1 3002 SLP010 T10031001 50003,CAHR,2015-04-25T05:00:00Z,46.35,-63.17,-0.3,-0.1,150,4,,,,1001.0,,TRUE,TRUE,,,,,,,,,,,,,,,,0.3,,,,,,,,,,,METAR,53.0
CWAR 250500Z AUTO 07007KT 04/02 RMK AO1 SLP044 T00370020 58007,CWAR,2015-04-25T05:00:00Z,47.28,-54.0,3.7,2.0,70,7,,,,1004.4,,TRUE,TRUE,,,,,,,,,,,,,,,,-0.7,,,,,,,,,,,METAR,16.0
CZSP 250500Z AUTO 14005KT M00/01 RMK AO1 SOG 33 1002 SLP021 T10010005,CZSP,2015-04-25T05:00:00Z,46.45,-62.58,-0.1,0.5,140,5,,,,1002.1,,TRUE,TRUE,,,,,,,,,,,,,,,,,,,,,,,,,,,METAR,30.0
CWXI 250500Z AUTO M00/M00 RMK AO1 SLP099 T10021001 56004,CWXI,2015-04-25T05:00:00Z,51.02,-57.1,-0.2,-0.1,,,,,,1009.9,,TRUE,TRUE,,,,,,,,,,,,,,,,-0.4,,,,,,,,,,,METAR,6.0
CWBK 250500Z AUTO 16004KT 01/M00 RMK AO1 SOG 10 3002 SLP013 T00081004,CWBK,2015-04-25T05:00:00Z,45.77,-62.67,0.8,-0.4,160,4,,,,1001.3,,TRUE,TRUE,,,,,,,,,,,,,,,,,,,,,,,,,,,METAR,2.0
CWST 250500Z AUTO 24002KT M00/00 RMK AO1 5PAST HR SOG 00 6008 SLP026 P0002 T10010000 50026,CWST,2015-04-25T05:00:00Z,47.35,-70.02,-0.1,0.0,240,2,,,,1002.6,,TRUE,TRUE,,,,,,,,,,,,,,,,2.6,,,,,0.02,,,,,,METAR,31.0
CWSR 250500Z AUTO 06008KT M01/M02 RMK AO1 5PAST HR SOG 03 1017 SLP135 P0002 T10141019 50034,CWSR,2015-04-25T05:00:00Z,53.37,-107.53,-1.4,-1.9,60,8,,,,1013.5,,TRUE,TRUE,,,,,,,,,,,,,,,,3.4,,,,,0.02,,,,,,METAR,584.0
CWSP 250500Z AUTO 30007KT 07/04 RMK AO1 1014 SLP116 T00710042 50008,CWSP,2015-04-25T05:00:00Z,48.38,-123.92,7.1,4.2,300,7,,,,1011.6,,TRUE,TRUE,,,,,,,,,,,,,,,,0.8,,,,,,,,,,,METAR,21.0
CWSL 250500Z AUTO 17003KT 04/02 RMK AO1 SLP108 T00390015 52017,CWSL,2015-04-25T05:00:00Z,50.7,-119.27,3.9,1.5,170,3,,,,1010.8,,TRUE,TRUE,,,,,,,,,,,,,,,,1.7,,,,,,,,,,,METAR,351.0
CWSK 250500Z AUTO 00000KT 06/05 RMK AO1 3PAST HR 1017 SLP108 P0001 T00580048 50009,CWSK,2015-04-25T05:00:00Z,49.78,-123.17,5.8,4.8,0,0,,,,1010.8,,TRUE,TRUE,,,,,,,,,,,,,,,,0.9,,,,,0.01,,,,,,METAR,60.0
CWSG 250500Z AUTO 06013KT M00/00 RMK AO1 PK WND 06018/0455 SLP028 T10020000 51003,CWSG,2015-04-25T05:00:00Z,49.12,-66.65,-0.2,0.0,60,13,,,,1002.8,,TRUE,TRUE,,,,,,,,,,,,,,,,0.3,,,,,,,,,,,METAR,5.0
CWSD 250500Z AUTO 14003KT 01/00 RMK AO1 SOG 02 4000 SLP007 T00090000,CWSD,2015-04-25T05:00:00Z,46.42,-63.85,0.9,0.0,140,3,,,,1000.7,,TRUE,TRUE,,,,,,,,,,,,,,,,,,,,,,,,,,,METAR,24.0
CWRZ 250500Z AUTO 04010KT M01/ RMK AO1 SLP025 T1008 50000,CWRZ,2015-04-25T05:00:00Z,48.42,-64.32,-0.8,,40,10,,,,1002.5,,TRUE,TRUE,,,,,,,,,,,,,,,,0.0,,,,,,,,,,,METAR,16.0
CWRY 250500Z AUTO 26004KT 04/M04 RMK AO1 SLP070 T00351040 51015,CWRY,2015-04-25T05:00:00Z,49.12,-112.03,3.5,-4.0,260,4,,,,1007.0,,TRUE,TRUE,,,,,,,,,,,,,,,,1.5,,,,,,,,,,,METAR,1050.0
CWRT 250500Z AUTO 28003KT 01/M05 RMK AO1 T00121046,CWRT,2015-04-25T05:00:00Z,49.62,-114.47,1.2,-4.6,280,3,,,,,,TRUE,TRUE,,,,,,,,,,,,,,,,,,,,,,,,,,,METAR,1303.0
CWRK 250500Z AUTO 34004KT M01/M06 RMK AO1 SLP155 T10111064 53004,CWRK,2015-04-25T05:00:00Z,45.07,-77.87,-1.1,-6.4,340,4,,,,1015.5,,TRUE,TRUE,,,,,,,,,,,,,,,,0.4,,,,,,,,,,,METAR,331.0
CWRJ 250500Z AUTO 04019KT 03/M01 RMK AO1 SOG 01 1018 PK WND 04023/0425 SLP083 T00331007,CWRJ,2015-04-25T05:00:00Z,51.57,-107.92,3.3,-0.7,40,19,,,,1008.3,,TRUE,TRUE,,,,,,,,,,,,,,,,,,,,,,,,,,,METAR,586.0
CWQV 250500Z AUTO 28006KT 03/02 RMK AO1 T00290015,CWQV,2015-04-25T05:00:00Z,48.27,-70.12,2.9,1.5,280,6,,,,,,TRUE,TRUE,,,,,,,,,,,,,,,,,,,,,,,,,,,METAR,1.0
CWQR 250500Z AUTO 04014KT 02/ RMK AO1 T0018,CWQR,2015-04-25T05:00:00Z,50.22,-64.22,1.8,,40,14,,,,,,TRUE,TRUE,,,,,,,,,,,,,,,,,,,,,,,,,,,METAR,9.0
CWQO 250500Z AUTO 02009KT 01/01 RMK AO1 PK WND 01020/0418 T00110008,CWQO,2015-04-25T05:00:00Z,48.42,-68.9,1.1,0.8,20,9,,,,,,TRUE,TRUE,,,,,,,,,,,,,,,,,,,,,,,,,,,METAR,1.0
CWQK 250500Z AUTO 26013KT 08/05 RMK AO1 SLP111 T00820046 51008,CWQK,2015-04-25T05:00:00Z,48.3,-123.53,8.2,4.6,260,13,,,,1011.1,,TRUE,TRUE,,,,,,,,,,,,,,,,0.8,,,,,,,,,,,METAR,5.0
CWQH 250500Z AUTO 27006KT M01/M02 RMK AO1 T10091021,CWQH,2015-04-25T05:00:00Z,45.37,-71.82,-0.9,-2.1,270,6,,,,,,TRUE,TRUE,,,,,,,,,,,,,,,,,,,,,,,,,,,METAR,181.0
CWXA 250500Z AUTO 26001KT M01/M05 RMK AO1 SLP083 T10101050 53018,CWXA,2015-04-25T05:00:00Z,51.07,-115.07,-1.0,-5.0,260,1,,,,1008.3,,TRUE,TRUE,,,,,,,,,,,,,,,,1.8,,,,,,,,,,,METAR,1298.0
CWWK 250500Z AUTO 03003KT 06/05 RMK AO1 SOG 00 1012 SLP113 T00580047 50034,CWWK,2015-04-25T05:00:00Z,49.02,-122.78,5.8,4.7,30,3,,,,1011.3,,TRUE,TRUE,,,,,,,,,,,,,,,,3.4,,,,,,,,,,,METAR,15.0
CWWF 250500Z AUTO 12010KT 11/03 RMK AO1 SLP060 T01080027 51007,CWWF,2015-04-25T05:00:00Z,49.7,-103.8,10.8,2.7,120,10,,,,1006.0,,TRUE,TRUE,,,,,,,,,,,,,,,,0.7,,,,,,,,,,,METAR,589.0
CWWA 250500Z AUTO 05002KT 05/04 RMK AO1 1010 SLP108 T00490038 50037,CWWA,2015-04-25T05:00:00Z,49.35,-123.17,4.9,3.8,50,2,,,,1010.8,,TRUE,TRUE,,,,,,,,,,,,,,,,3.7,,,,,,,,,,,METAR,178.0
CWVU 250500Z AUTO 29017KT 03/M00 RMK AO1 PK WND 29020/0432 SLP040 T00311002 51002,CWVU,2015-04-25T05:00:00Z,44.28,-66.33,3.1,-0.2,290,17,,,,1004.0,,TRUE,TRUE,,,,,,,,,,,,,,,,0.2,,,,,,,,,,,METAR,16.0
CWVQ 250500Z AUTO 29010G15KT 02/M04 RMK AO1 PK WND 29017/0412 SLP110 T00161044 58005,CWVQ,2015-04-25T05:00:00Z,45.42,-73.92,1.6,-4.4,290,10,15,,,1011.0,,TRUE,TRUE,,,,,,,,,,,,,,,,-0.5,,,,,,,,,,,METAR,39.0
CWVP 250500Z AUTO 34002KT 06/M05 RMK AO1 SLP047 T00641050 50009,CWVP,2015-04-25T05:00:00Z,49.63,-109.52,6.4,-5.0,340,2,,,,1004.7,,TRUE,TRUE,,,,,,,,,,,,,,,,0.9,,,,,,,,,,,METAR,1271.0
CWVN 250500Z AUTO 28003KT 08/02 RMK AO1 SLP043 T00840020 51008,CWVN,2015-04-25T05:00:00Z,49.07,-107.57,8.4,2.0,280,3,,,,1004.3,,TRUE,TRUE,,,,,,,,,,,,,,,,0.8,,,,,,,,,,,METAR,785.0
CWVF 250500Z AUTO 25006KT 08/03 RMK AO1 T00840030,CWVF,2015-04-25T05:00:00Z,49.1,-123.3,8.4,3.0,250,6,,,,,,TRUE,TRUE,,,,,,,,,,,,,,,,,,,,,,,,,,,METAR,1.0
CWUX 250500Z AUTO 30008KT 02/02 RMK AO1 SLP043 T00220020 55003,CWUX,2015-04-25T05:00:00Z,48.3,-70.93,2.2,2.0,300,8,,,,1004.3,,TRUE,TRUE,,,,,,,,,,,,,,,,-0.3,,,,,,,,,,,METAR,135.0
CWUS 250500Z AUTO 29004KT 06/01 RMK AO1 SLP103 T00580013 51010,CWUS,2015-04-25T05:00:00Z,49.57,-119.65,5.8,1.3,290,4,,,,1010.3,,TRUE,TRUE,,,,,,,,,,,,,,,,1.0,,,,,,,,,,,METAR,454.0
CWTY 250500Z AUTO 29007KT 02/M02 RMK AO1 SLP078 T00181019 58006,CWTY,2015-04-25T05:00:00Z,46.35,-72.52,1.8,-1.9,290,7,,,,1007.8,,TRUE,TRUE,,,,,,,,,,,,,,,,-0.6,,,,,,,,,,,METAR,6.0
CWTT 250500Z AUTO 28011KT M00/M04 RMK AO1 PK WND 28019/0416 T10031036,CWTT,2015-04-25T05:00:00Z,45.27,-72.17,-0.3,-3.6,280,11,,,,,,TRUE,TRUE,,,,,,,,,,,,,,,,,,,,,,,,,,,METAR,209.0
CWTN 250500Z AUTO 03002KT 02/01 RMK AO1 6009 SLP034 T00160013 50010,CWTN,2015-04-25T05:00:00Z,47.07,-70.78,1.6,1.3,30,2,,,,1003.4,,TRUE,TRUE,,,,,,,,,,,,,,,,1.0,,,,,,,,,,,METAR,6.0
CWTG 250500Z AUTO 05016G21KT 01/01 RMK AO1 3002 PK WND 04025/0402 SLP037 T00060006 50050,CWTG,2015-04-25T05:00:00Z,49.32,-67.37,0.6,0.6,50,16,21,,,1003.7,,TRUE,TRUE,,,,,,,,,,,,,,,,5.0,,,,,,,,,,,METAR,5.0
CWTA 250500Z AUTO 17002KT 01/M05 RMK AO1 SLP099 T00141048 56007,CWTA,2015-04-25T05:00:00Z,45.5,-73.58,1.4,-4.8,170,2,,,,1009.9,,TRUE,TRUE,,,,,,,,,,,,,,,,-0.7,,,,,,,,,,,METAR,63.0
CZMJ 250500Z AUTO 04010KT 08/01 RMK AO1 SOG 00 1014 SLP072 T00830009,CZMJ,2015-04-25T05:00:00Z,50.33,-105.57,8.3,0.9,40,10,,,,1007.2,,TRUE,TRUE,,,,,,,,,,,,,,,,,,,,,,,,,,,METAR,577.0
CXZV 250500Z AUTO 06004KT 03/03 RMK AO1 5PAST HR 0002 SLP056 P0002 T00290027 50025,CXZV,2015-04-25T05:00:00Z,50.22,-66.25,2.9,2.7,60,4,,,,1005.6,,TRUE,TRUE,,,,,,,,,,,,,,,,2.5,,,,,0.02,,,,,,METAR,52.0
CXTD 250500Z AUTO 17003KT 01/01 RMK AO1 SOG 00 8003 SLP027 T00140006,CXTD,2015-04-25T05:00:00Z,45.62,-61.68,1.4,0.6,170,3,,,,1002.7,,TRUE,TRUE,,,,,,,,,,,,,,,,,,,,,,,,,,,METAR,68.0
CXRL 250500Z AUTO 01/M06 RMK AO1 T00141061,CXRL,2015-04-25T05:00:00Z,54.5,-111.7,1.4,-6.1,,,,,,,,TRUE,TRUE,,,,,,,,,,,,,,,,,,,,,,,,,,,METAR,585.0
CXPC 250500Z AUTO M01/M03 RMK AO1 SLP162 T10101031 58003,CXPC,2015-04-25T05:00:00Z,45.35,-80.05,-1.0,-3.1,,,,,,1016.2,,TRUE,TRUE,,,,,,,,,,,,,,,,-0.3,,,,,,,,,,,METAR,176.0
CXLB 250500Z AUTO 30003KT 03/ RMK AO1 SLP016 T0033 56002,CXLB,2015-04-25T05:00:00Z,44.37,-64.3,3.3,,300,3,,,,1001.6,,TRUE,TRUE,,,,,,,,,,,,,,,,-0.2,,,,,,,,,,,METAR,4.0
CXCP 250500Z AUTO 32013KT 04/02 RMK AO1 PK WND 34019/0405 T00410017,CXCP,2015-04-25T05:00:00Z,50.28,-113.35,4.1,1.7,320,13,,,,,,TRUE,TRUE,,,,,,,,,,,,,,,,,,,,,,,,,,,METAR,1006.0
CWWB 250500Z AUTO 31004KT 02/M05 RMK AO1 SLP171 T00191050 51001,CWWB,2015-04-25T05:00:00Z,43.3,-79.78,1.9,-5.0,310,4,,,,1017.1,,TRUE,TRUE,,,,,,,,,,,,,,,,0.1,,,,,,,,,,,METAR,76.0
CWDV 250500Z AUTO 17003KT 01/M06 RMK AO1 SOG 02 1010 SLP178 T00051062,CWDV,2015-04-25T05:00:00Z,49.02,-90.47,0.5,-6.2,170,3,,,,1017.8,,TRUE,TRUE,,,,,,,,,,,,,,,,,,,,,,,,,,,METAR,489.0
CWDQ 250500Z AUTO 33006KT 01/M02 RMK AO1 SLP079 T00071015 57004,CWDQ,2015-04-25T05:00:00Z,47.42,-72.78,0.7,-1.5,330,6,,,,1007.9,,TRUE,TRUE,,,,,,,,,,,,,,,,-0.4,,,,,,,,,,,METAR,169.0
CWNZ 250500Z AUTO 36003KT M04/M07 RMK AO1 SLP198 T10371070 52008,CWNZ,2015-04-25T05:00:00Z,49.75,-84.17,-3.7,-7.0,360,3,,,,1019.8,,TRUE,TRUE,,,,,,,,,,,,,,,,0.8,,,,,,,,,,,METAR,256.0
CWNC 250500Z AUTO 34004KT M00/M06 RMK AO1 SLP152 T10041055 57003,CWNC,2015-04-25T05:00:00Z,43.95,-78.17,-0.4,-5.5,340,4,,,,1015.2,,TRUE,TRUE,,,,,,,,,,,,,,,,-0.3,,,,,,,,,,,METAR,78.0
CWWZ 250500Z AUTO 34009KT 02/M03 RMK AO1 SLP168 T00191034 58001,CWWZ,2015-04-25T05:00:00Z,43.25,-79.22,1.9,-3.4,340,9,,,,1016.8,,TRUE,TRUE,,,,,,,,,,,,,,,,-0.1,,,,,,,,,,,METAR,79.0
CWPO 250500Z AUTO 10008KT 02/M00 RMK AO1 SLP118 T00221003 51011,CWPO,2015-04-25T05:00:00Z,49.2,-98.9,2.2,-0.3,100,8,,,,1011.8,,TRUE,TRUE,,,,,,,,,,,,,,,,1.1,,,,,,,,,,,METAR,470.0
CWPC 250500Z AUTO 03007KT 01/M06 RMK AO1 SLP171 T00101055 56002,CWPC,2015-04-25T05:00:00Z,42.87,-79.25,1.0,-5.5,30,7,,,,1017.1,,TRUE,TRUE,,,,,,,,,,,,,,,,-0.2,,,,,,,,,,,METAR,184.0
CWLS 250500Z AUTO 04004KT M04/M05 RMK AO1 SLP172 T10361052 58002,CWLS,2015-04-25T05:00:00Z,43.97,-80.75,-3.6,-5.2,40,4,,,,1017.2,,TRUE,TRUE,,,,,,,,,,,,,,,,-0.2,,,,,,,,,,,METAR,415.0
CWBE 250500Z AUTO 33007KT M01/M05 RMK AO1 SLP178 T10061053 58001,CWBE,2015-04-25T05:00:00Z,45.98,-81.48,-0.6,-5.3,330,7,,,,1017.8,,TRUE,TRUE,,,,,,,,,,,,,,,,-0.1,,,,,,,,,,,METAR,196.0
CWAJ 250500Z AUTO 11007KT 05/M02 RMK AO1 SLP162 T00501018 55005,CWAJ,2015-04-25T05:00:00Z,42.25,-81.9,5.0,-1.8,110,7,,,,1016.2,,TRUE,TRUE,,,,,,,,,,,,,,,,-0.5,,,,,,,,,,,METAR,178.0
CWDK 250500Z AUTO 34009KT 04/M01 RMK AO1 PK WND 35017/0447 SLP081 T00381014 51026,CWDK,2015-04-25T05:00:00Z,50.02,-113.62,3.8,-1.4,340,9,,,,1008.1,,TRUE,TRUE,,,,,,,,,,,,,,,,2.6,,,,,,,,,,,METAR,1012.0
CWDJ 250500Z AUTO 09012G18KT 11/M00 RMK AO1 PK WND 09019/0402 SLP061 T01061003 51007,CWDJ,2015-04-25T05:00:00Z,50.4,-104.58,10.6,-0.3,90,12,18,,,1006.1,,TRUE,TRUE,,,,,,,,,,,,,,,,0.7,,,,,,,,,,,METAR,573.0
CWCJ 250500Z AUTO 04004KT M04/M06 RMK AO1 SLP189 T10421059 50003,CWCJ,2015-04-25T05:00:00Z,48.6,-86.28,-4.2,-5.9,40,4,,,,1018.9,,TRUE,TRUE,,,,,,,,,,,,,,,,0.3,,,,,,,,,,,METAR,206.0
CWCF 250500Z AUTO 11008KT 03/M08 RMK AO1 SOG 02 2007 SLP136 T00261082,CWCF,2015-04-25T05:00:00Z,52.35,-97.03,2.6,-8.2,110,8,,,,1013.6,,TRUE,TRUE,,,,,,,,,,,,,,,,,,,,,,,,,,,METAR,222.0
CWBZ 250500Z AUTO 30009KT 02/M05 RMK AO1 SLP121 T00171048 58004,CWBZ,2015-04-25T05:00:00Z,45.12,-74.27,1.7,-4.8,300,9,,,,1012.1,,TRUE,TRUE,,,,,,,,,,,,,,,,-0.4,,,,,,,,,,,METAR,49.0
CWBT 250500Z AUTO 04004KT 03/03 RMK AO1 2PAST HR 8001 SLP060 P0005 T00310030 50043,CWBT,2015-04-25T05:00:00Z,50.27,-64.23,3.1,3.0,40,4,,,,1006.0,,TRUE,TRUE,,,,,,,,,,,,,,,,4.3,,,,,0.05,,,,,,METAR,11.0
CWBS 250500Z AUTO 27010KT 03/M02 RMK AO1 T00261015,CWBS,2015-04-25T05:00:00Z,46.18,-72.92,2.6,-1.5,270,10,,,,,,TRUE,TRUE,,,,,,,,,,,,,,,,,,,,,,,,,,,METAR,16.0
CWBO 250500Z AUTO 29006KT 05/M02 RMK AO1 SOG 02 1007 SLP041 T00511015,CWBO,2015-04-25T05:00:00Z,50.53,-111.83,5.1,-1.5,290,6,,,,1004.1,,TRUE,TRUE,,,,,,,,,,,,,,,,,,,,,,,,,,,METAR,747.0
CWBA 250500Z AUTO 33003KT M00/M03 RMK AO1 T10011030,CWBA,2015-04-25T05:00:00Z,46.72,-79.1,-0.1,-3.0,330,3,,,,,,TRUE,TRUE,,,,,,,,,,,,,,,,,,,,,,,,,,,METAR,181.0
CWAF 250500Z AUTO 02/01 RMK AO1 T00200013,CWAF,2015-04-25T05:00:00Z,48.07,-69.53,2.0,1.3,,,,,,,,TRUE,TRUE,,,,,,,,,,,,,,,,,,,,,,,,,,,METAR,5.0
CWZW 250500Z AUTO 08005KT 05/M04 RMK AO1 SOG 03 2013 SLP138 T00471035,CWZW,2015-04-25T05:00:00Z,60.17,-132.73,4.7,-3.5,80,5,,,,1013.8,,TRUE,TRUE,,,,,,,,,,,,,,,,,,,,,,,,,,,METAR,705.0
CWVT 250500Z AUTO 03006KT M02/M08 RMK AO1 SOG 00 1015 SLP185 T10221084,CWVT,2015-04-25T05:00:00Z,55.82,-108.42,-2.2,-8.4,30,6,,,,1018.5,,TRUE,TRUE,,,,,,,,,,,,,,,,,,,,,,,,,,,METAR,434.0
CWRM 250500Z AUTO 02003KT 01/01 RMK AO1 0013 SLP101 T00100008 50013,CWRM,2015-04-25T05:00:00Z,52.42,-114.92,1.0,0.8,20,3,,,,1010.1,,TRUE,TRUE,,,,,,,,,,,,,,,,1.3,,,,,,,,,,,METAR,988.0
CWZG 250500Z AUTO 21006KT M01/M04 RMK AO1 SLP091 T10051036 51013,CWZG,2015-04-25T05:00:00Z,51.2,-115.53,-0.5,-3.6,210,6,,,,1009.1,,TRUE,TRUE,,,,,,,,,,,,,,,,1.3,,,,,,,,,,,METAR,1397.0
CWRO 250500Z AUTO 26013KT 08/06 RMK AO1 SLP106 T00820058 51013,CWRO,2015-04-25T05:00:00Z,54.17,-131.67,8.2,5.8,260,13,,,,1010.6,,TRUE,TRUE,,,,,,,,,,,,,,,,1.3,,,,,,,,,,,METAR,7.0
CWLP 250500Z AUTO 30007KT 08/05 RMK AO1 SLP113 T00790047 51012,CWLP,2015-04-25T05:00:00Z,50.93,-127.63,7.9,4.7,300,7,,,,1011.3,,TRUE,TRUE,,,,,,,,,,,,,,,,1.2,,,,,,,,,,,METAR,17.0
CWJD 250500Z AUTO 03005KT M01/M04 RMK AO1 SOG 00 3012 SLP135 T10091039,CWJD,2015-04-25T05:00:00Z,53.17,-99.27,-0.9,-3.9,30,5,,,,1013.5,,TRUE,TRUE,,,,,,,,,,,,,,,,,,,,,,,,,,,METAR,223.0
CWEQ 250500Z AUTO 04013G19KT 02/M02 RMK AO1 PK WND 04019/0459 SLP117 T00241019 53021,CWEQ,2015-04-25T05:00:00Z,52.12,-101.22,2.4,-1.9,40,13,19,,,1011.7,,TRUE,TRUE,,,,,,,,,,,,,,,,2.1,,,,,,,,,,,METAR,335.0
CWOY 250500Z AUTO 04005KT 03/M00 RMK AO1 SLP106 T00281002 51015,CWOY,2015-04-25T05:00:00Z,51.77,-104.2,2.8,-0.2,40,5,,,,1010.6,,TRUE,TRUE,,,,,,,,,,,,,,,,1.5,,,,,,,,,,,METAR,560.0
CWKO 250500Z AUTO 04002KT 10/01 RMK AO1 SLP045 T00970010 51006,CWKO,2015-04-25T05:00:00Z,49.17,-105.97,9.7,1.0,40,2,,,,1004.5,,TRUE,TRUE,,,,,,,,,,,,,,,,0.6,,,,,,,,,,,METAR,917.0
CWEH 250500Z AUTO 03007KT 08/M01 RMK AO1 SLP047 T00801010 50011,CWEH,2015-04-25T05:00:00Z,49.42,-108.97,8.0,-1.0,30,7,,,,1004.7,,TRUE,TRUE,,,,,,,,,,,,,,,,1.1,,,,,,,,,,,METAR,1078.0
CWDC 250500Z AUTO 03003KT M09/M13 RMK AO1 SLP246 T10871128 52007,CWDC,2015-04-25T05:00:00Z,59.57,-108.47,-8.7,-12.8,30,3,,,,1024.6,,TRUE,TRUE,,,,,,,,,,,,,,,,0.7,,,,,,,,,,,METAR,318.0
CWCT 250500Z AUTO 05015KT 03/01 RMK AO1 PK WND 05023/0410 SLP088 T00270008 51013,CWCT,2015-04-25T05:00:00Z,52.07,-111.47,2.7,0.8,50,15,,,,1008.8,,TRUE,TRUE,,,,,,,,,,,,,,,,1.3,,,,,,,,,,,METAR,791.0
CXZU 250500Z AUTO 01/M00 RMK AO1 SLP132 T00081003 51014,CXZU,2015-04-25T05:00:00Z,54.15,-115.78,0.8,-0.3,,,,,,1013.2,,TRUE,TRUE,,,,,,,,,,,,,,,,1.4,,,,,,,,,,,METAR,785.0
CXWN 250500Z AUTO 10002KT 04/M01 RMK AO1 SLP126 T00431014 51008,CXWN,2015-04-25T05:00:00Z,49.88,-97.13,4.3,-1.4,100,2,,,,1012.6,,TRUE,TRUE,,,,,,,,,,,,,,,,0.8,,,,,,,,,,,METAR,230.0
CXSH 250500Z AUTO 32010G15KT 01/M03 RMK AO1 PK WND 33017/0408 SLP071 T00081029 56005,CXSH,2015-04-25T05:00:00Z,46.58,-72.73,0.8,-2.9,320,10,15,,,1007.1,,TRUE,TRUE,,,,,,,,,,,,,,,,-0.5,,,,,,,,,,,METAR,110.0
CXQT 250500Z AUTO 05001KT 01/M04 RMK AO1 T00071043,CXQT,2015-04-25T05:00:00Z,48.43,-89.22,0.7,-4.3,50,1,,,,,,TRUE,TRUE,,,,,,,,,,,,,,,,,,,,,,,,,,,METAR,183.0
CXMI 250500Z AUTO 07002KT M00/M00 RMK AO1 SLP017 T10031002 53002,CXMI,2015-04-25T05:00:00Z,44.6,-63.53,-0.3,-0.2,70,2,,,,1001.7,,TRUE,TRUE,,,,,,,,,,,,,,,,0.2,,,,,,,,,,,METAR,15.0
CXMD 250500Z AUTO 11007KT 04/M01 RMK AO1 SOG 02 1012 SLP116 T00391006,CXMD,2015-04-25T05:00:00Z,49.22,-98.08,3.9,-0.6,110,7,,,,1011.6,,TRUE,TRUE,,,,,,,,,,,,,,,,,,,,,,,,,,,METAR,301.0
CXIB 250500Z AUTO 00000KT M01/M02 RMK AO1 6005 SLP016 T10051022 50002,CXIB,2015-04-25T05:00:00Z,46.67,-60.38,-0.5,-2.2,0,0,,,,1001.6,,TRUE,TRUE,,,,,,,,,,,,,,,,0.2,,,,,,,,,,,METAR,8.0
CXHF 250500Z AUTO M00/M06 RMK AO1 T10031057,CXHF,2015-04-25T05:00:00Z,45.83,-75.65,-0.3,-5.7,,,,,,,,TRUE,TRUE,,,,,,,,,,,,,,,,,,,,,,,,,,,METAR,190.0
CXEC 250500Z AUTO 07008KT 04/M02 RMK AO1 SLP122 T00361022 51012,CXEC,2015-04-25T05:00:00Z,53.57,-113.52,3.6,-2.2,70,8,,,,1012.2,,TRUE,TRUE,,,,,,,,,,,,,,,,1.2,,,,,,,,,,,METAR,671.0
CXEA 250500Z AUTO 03002KT 03/M05 RMK AO1 SLP165 T00251046 51008,CXEA,2015-04-25T05:00:00Z,50.63,-93.22,2.5,-4.6,30,2,,,,1016.5,,TRUE,TRUE,,,,,,,,,,,,,,,,0.8,,,,,,,,,,,METAR,355.0
CXCK 250500Z AUTO 14005KT 05/M04 RMK AO1 SOG 00 2004 SLP120 T00521039,CXCK,2015-04-25T05:00:00Z,62.12,-136.2,5.2,-3.9,140,5,,,,1012.0,,TRUE,TRUE,,,,,,,,,,,,,,,,,,,,,,,,,,,METAR,540.0
CXCH 250500Z AUTO M01/M02 RMK AO1 SOG 22 T10071022,CXCH,2015-04-25T05:00:00Z,46.63,-60.95,-0.7,-2.2,,,,,,,,TRUE,TRUE,,,,,,,,,,,,,,,,,,,,,,,,,,,METAR,44.0
CXBO 250500Z AUTO 25010KT RMK AO1 PK WND 25018/0427,CXBO,2015-04-25T05:00:00Z,46.83,-71.2,,,250,10,,,,,,TRUE,TRUE,,,,,,,,,,,,,,,,,,,,,,,,,,,METAR,100.0
CXBK 250500Z AUTO 08007KT 08/02 RMK AO1 SLP050 T00820015 51007,CXBK,2015-04-25T05:00:00Z,50.2,-104.7,8.2,1.5,80,7,,,,1005.0,,TRUE,TRUE,,,,,,,,,,,,,,,,0.7,,,,,,,,,,,METAR,580.0
CXKT 250500Z AUTO 16003KT 04/02 RMK AO1 SLP011 T00350022 55000,CXKT,2015-04-25T05:00:00Z,45.07,-64.48,3.5,2.2,160,3,,,,1001.1,,TRUE,TRUE,,,,,,,,,,,,,,,,0.0,,,,,,,,,,,METAR,49.0
CWER 250500Z AUTO 02002KT RMK AO1,CWER,2015-04-25T05:00:00Z,47.0,-70.82,,,20,2,,,,,,TRUE,TRUE,,,,,,,,,,,,,,,,,,,,,,,,,,,METAR,5.0
CWEP 250500Z AUTO 18009KT M00/M01 RMK AO1 SLP015 T10041008 53001,CWEP,2015-04-25T05:00:00Z,46.45,-61.97,-0.4,-0.8,180,9,,,,1001.5,,TRUE,TRUE,,,,,,,,,,,,,,,,0.1,,,,,,,,,,,METAR,11.0
CWDM 250500Z AUTO 06016G23KT 01/01 RMK AO1 5PAST HR SOG 68 7004 PK WND 07024/0414 SLP077 P0002 T00110006 50011,CWDM,2015-04-25T05:00:00Z,50.47,-59.62,1.1,0.6,60,16,23,,,1007.7,,TRUE,TRUE,,,,,,,,,,,,,,,,1.1,,,,,0.02,,,,,,METAR,6.0
CWWE 250500Z AUTO 28003KT 03/02 RMK AO1 SLP020 T00270022 57002,CWWE,2015-04-25T05:00:00Z,43.97,-64.67,2.7,2.2,280,3,,,,1002.0,,TRUE,TRUE,,,,,,,,,,,,,,,,-0.2,,,,,,,,,,,METAR,9.0
CWPK 250500Z AUTO 29004KT M03/M05 RMK AO1 SLP118 T10331051 52001,CWPK,2015-04-25T05:00:00Z,47.92,-74.62,-3.3,-5.1,290,4,,,,1011.8,,TRUE,TRUE,,,,,,,,,,,,,,,,0.1,,,,,,,,,,,METAR,442.0
CWMQ 250500Z AUTO 20003KT 05/M00 RMK AO1 SLP055 T00521003 51012,CWMQ,2015-04-25T05:00:00Z,49.9,-109.47,5.2,-0.3,200,3,,,,1005.5,,TRUE,TRUE,,,,,,,,,,,,,,,,1.2,,,,,,,,,,,METAR,767.0
CWMM 250500Z AUTO 05003KT 06/05 RMK AO1 3PAST HR SOG 00 0013 SLP113 P0001 T00620053 50024,CWMM,2015-04-25T05:00:00Z,49.22,-122.68,6.2,5.3,50,3,,,,1011.3,,TRUE,TRUE,,,,,,,,,,,,,,,,2.4,,,,,0.01,,,,,,METAR,5.0
CWMJ 250500Z AUTO 32003KT M01/M06 RMK AO1 SLP138 T10051062 55001,CWMJ,2015-04-25T05:00:00Z,46.27,-76.0,-0.5,-6.2,320,3,,,,1013.8,,TRUE,TRUE,,,,,,,,,,,,,,,,-0.1,,,,,,,,,,,METAR,200.0
CWLM 250500Z AUTO 28008KT 07/04 RMK AO1 SLP111 T00740037 51011,CWLM,2015-04-25T05:00:00Z,48.42,-123.32,7.4,3.7,280,8,,,,1011.1,,TRUE,TRUE,,,,,,,,,,,,,,,,1.1,,,,,,,,,,,METAR,70.0
CWLE 250500Z AUTO 05006KT 01/01 RMK AO1 SLP081 T00050010 51012,CWLE,2015-04-25T05:00:00Z,50.95,-107.15,0.5,1.0,50,6,,,,1008.1,,TRUE,TRUE,,,,,,,,,,,,,,,,1.2,,,,,,,,,,,METAR,665.0
CWLC 250500Z AUTO 19003KT 09/06 RMK AO1 T00870064,CWLC,2015-04-25T05:00:00Z,54.3,-130.62,8.7,6.4,190,3,,,,,,TRUE,TRUE,,,,,,,,,,,,,,,,,,,,,,,,,,,METAR,27.0
CWKH 250500Z AUTO 04/01 RMK AO1 SLP097 T00390007 51010,CWKH,2015-04-25T05:00:00Z,48.57,-123.55,3.9,0.7,,,,,,1009.7,,TRUE,TRUE,,,,,,,,,,,,,,,,1.0,,,,,,,,,,,METAR,366.0
CWKG 250500Z AUTO 23002KT 01/01 RMK AO1 SOG 00 8003 SLP017 T00110008,CWKG,2015-04-25T05:00:00Z,44.43,-65.2,1.1,0.8,230,2,,,,1001.7,,TRUE,TRUE,,,,,,,,,,,,,,,,,,,,,,,,,,,METAR,165.0
CWJX 250500Z AUTO 05002G17KT 06/02 RMK AO1 PK WND 08017/0453 SLP055 T00630018 51017,CWJX,2015-04-25T05:00:00Z,50.88,-109.5,6.3,1.8,50,2,17,,,1005.5,,TRUE,TRUE,,,,,,,,,,,,,,,,1.7,,,,,,,,,,,METAR,672.0
CWJW 250500Z AUTO 18003KT M00/M00 RMK AO1 2PAST HR SOG 03 1013 SLP100 P0001 T10011001 50009,CWJW,2015-04-25T05:00:00Z,52.93,-118.03,-0.1,-0.1,180,3,,,,1010.0,,TRUE,TRUE,,,,,,,,,,,,,,,,0.9,,,,,0.01,,,,,,METAR,1020.0
CWJV 250500Z AUTO 08003KT 05/03 RMK AO1 SLP104 T00480032 51018,CWJV,2015-04-25T05:00:00Z,50.22,-119.18,4.8,3.2,80,3,,,,1010.4,,TRUE,TRUE,,,,,,,,,,,,,,,,1.8,,,,,,,,,,,METAR,556.0
CWJT 250500Z AUTO 29002KT 01/M04 RMK AO1 SLP118 T00051044 56006,CWJT,2015-04-25T05:00:00Z,46.07,-74.57,0.5,-4.4,290,2,,,,1011.8,,TRUE,TRUE,,,,,,,,,,,,,,,,-0.6,,,,,,,,,,,METAR,239.0
CWJR 250500Z AUTO 34002KT 05/03 RMK AO1 SOG 00 1015 SLP114 T00480030,CWJR,2015-04-25T05:00:00Z,49.07,-116.5,4.8,3.0,340,2,,,,1011.4,,TRUE,TRUE,,,,,,,,,,,,,,,,,,,,,,,,,,,METAR,646.0
CWJO 250500Z AUTO 30008KT 03/02 RMK AO1 5005 SLP054 T00290017 50005,CWJO,2015-04-25T05:00:00Z,48.43,-71.15,2.9,1.7,300,8,,,,1005.4,,TRUE,TRUE,,,,,,,,,,,,,,,,0.5,,,,,,,,,,,METAR,133.0
CWJI 250500Z AUTO 11007KT 11/02 RMK AO1 SLP045 T01090021 51010,CWJI,2015-04-25T05:00:00Z,49.72,-105.92,10.9,2.1,110,7,,,,1004.5,,TRUE,TRUE,,,,,,,,,,,,,,,,1.0,,,,,,,,,,,METAR,724.0
CXKE 250500Z AUTO 34008KT M00/M07 RMK AO1 SLP133 T10041069 51001,CXKE,2015-04-25T05:00:00Z,45.0,-75.63,-0.4,-6.9,340,8,,,,1013.3,,TRUE,TRUE,,,,,,,,,,,,,,,,0.1,,,,,,,,,,,METAR,99.0
CWZS 250500Z AUTO 01002KT 01/M00 RMK AO1 SLP020 T00071001 53005,CWZS,2015-04-25T05:00:00Z,48.47,-67.43,0.7,-0.1,10,2,,,,1002.0,,TRUE,TRUE,,,,,,,,,,,,,,,,0.5,,,,,,,,,,,METAR,166.0
CWZO 250500Z AUTO 34006KT RMK AO1,CWZO,2015-04-25T05:00:00Z,48.55,-123.23,,,340,6,,,,,,TRUE,TRUE,,,,,,,,,,,,,,,,,,,,,,,,,,,METAR,1.0
CWZA 250500Z AUTO 22002KT 05/04 RMK AO1 3006 SLP121 T00520044 50102,CWZA,2015-04-25T05:00:00Z,49.25,-121.77,5.2,4.4,220,2,,,,1012.1,,TRUE,TRUE,,,,,,,,,,,,,,,,0.0,,,,,,,,,,,METAR,15.0
CWYY 250500Z AUTO 16001KT 07/01 RMK AO1 SLP095 T00740014 51020,CWYY,2015-04-25T05:00:00Z,49.03,-119.43,7.4,1.4,160,1,,,,1009.5,,TRUE,TRUE,,,,,,,,,,,,,,,,2.0,,,,,,,,,,,METAR,283.0
CWYL 250500Z AUTO 21001KT M03/M04 RMK AO1 SOG 34 1013 SLP085 T10291044,CWYL,2015-04-25T05:00:00Z,51.45,-116.32,-2.9,-4.4,210,1,,,,1008.5,,TRUE,TRUE,,,,,,,,,,,,,,,,,,,,,,,,,,,METAR,1615.0
CWYJ 250500Z AUTO 26003KT 07/03 RMK AO1 SLP107 T00700033 51008,CWYJ,2015-04-25T05:00:00Z,48.45,-123.3,7.0,3.3,260,3,,,,1010.7,,TRUE,TRUE,,,,,,,,,,,,,,,,0.8,,,,,,,,,,,METAR,39.0
CZEL 250500Z AUTO 31003KT M03/M05 RMK AO1 SLP169 T10281053 50000,CZEL,2015-04-25T05:00:00Z,43.65,-80.42,-2.8,-5.3,310,3,,,,1016.9,,TRUE,TRUE,,,,,,,,,,,,,,,,0.0,,,,,,,,,,,METAR,376.0
CXZC 250500Z AUTO 29003KT M01/M03 RMK AO1 SOG 16 5001 SLP181 T10101034,CXZC,2015-04-25T05:00:00Z,51.3,-80.62,-1.0,-3.4,290,3,,,,1018.1,,TRUE,TRUE,,,,,,,,,,,,,,,,,,,,,,,,,,,METAR,9.0
CXBI 250500Z AUTO 32006KT M02/M06 RMK AO1 SLP168 T10191064 58006,CXBI,2015-04-25T05:00:00Z,44.48,-79.55,-1.9,-6.4,320,6,,,,1016.8,,TRUE,TRUE,,,,,,,,,,,,,,,,-0.6,,,,,,,,,,,METAR,289.0
CWMT 250500Z AUTO 09004KT M05/M10 RMK AO1 SLP271 T10481095 51004,CWMT,2015-04-25T05:00:00Z,63.13,-117.25,-4.8,-9.5,90,4,,,,1027.1,,TRUE,TRUE,,,,,,,,,,,,,,,,0.4,,,,,,,,,,,METAR,271.0
CMFM 250500Z AUTO 34005KT M00/M01 RMK AO1 SOG 07 6006 SLP022 T10031010 50007,CMFM,2015-04-25T05:00:00Z,47.32,-71.15,-0.3,-1.0,340,5,,,,1002.2,,TRUE,TRUE,,,,,,,,,,,,,,,,0.7,,,,,,,,,,,METAR,672.0
CWJH 250500Z AUTO 06001KT M07/M10 RMK AO1 SLP206 T10671098 51013,CWJH,2015-04-25T05:00:00Z,56.32,-103.27,-6.7,-9.8,60,1,,,,1020.6,,TRUE,TRUE,,,,,,,,,,,,,,,,1.3,,,,,,,,,,,METAR,344.0
CWJB 250500Z AUTO 25009G15KT 02/M01 RMK AO1 T00181012,CWJB,2015-04-25T05:00:00Z,46.78,-71.27,1.8,-1.2,250,9,15,,,,,TRUE,TRUE,,,,,,,,,,,,,,,,,,,,,,,,,,,METAR,91.0
CWIZ 250500Z AUTO 27006KT 01/M03 RMK AO1 T00121033,CWIZ,2015-04-25T05:00:00Z,45.28,-73.33,1.2,-3.3,270,6,,,,,,TRUE,TRUE,,,,,,,,,,,,,,,,,,,,,,,,,,,METAR,45.0
CWIW 250500Z AUTO 04014KT 02/M00 RMK AO1 8PAST HR 1017 PK WND 04018/0455 SLP106 P0003 T00181002 50008,CWIW,2015-04-25T05:00:00Z,51.67,-105.4,1.8,-0.2,40,14,,,,1010.6,,TRUE,TRUE,,,,,,,,,,,,,,,,0.8,,,,,0.03,,,,,,METAR,526.0
CWIT 250500Z AUTO 29007KT 01/M04 RMK AO1 SLP105 T00141039 58004,CWIT,2015-04-25T05:00:00Z,45.17,-73.67,1.4,-3.9,290,7,,,,1010.5,,TRUE,TRUE,,,,,,,,,,,,,,,,-0.4,,,,,,,,,,,METAR,52.0
CWIS 250500Z AUTO 03017G34KT M01/M01 RMK AO1 5PAST HR SOG 48 6008 PK WND 04034/0405 SLP020 P0002 T10141014 50012,CWIS,2015-04-25T05:00:00Z,47.28,-70.63,-1.4,-1.4,30,17,34,,,1002.0,,TRUE,TRUE,,,,,,,,,,,,,,,,1.2,,,,,0.02,,,,,,METAR,719.0
CWIP 250500Z AUTO 07006KT 03/ RMK AO1 T0028,CWIP,2015-04-25T05:00:00Z,50.17,-66.43,2.8,,70,6,,,,,,TRUE,TRUE,,,,,,,,,,,,,,,,,,,,,,,,,,,METAR,25.0
CWII 250500Z AUTO 13005KT 02/M01 RMK AO1 T00241010,CWII,2015-04-25T05:00:00Z,50.7,-96.57,2.4,-1.0,130,5,,,,,,TRUE,TRUE,,,,,,,,,,,,,,,,,,,,,,,,,,,METAR,220.0
CWIG 250500Z AUTO 18008KT RMK AO1,CWIG,2015-04-25T05:00:00Z,47.07,-70.53,,,180,8,,,,,,TRUE,TRUE,,,,,,,,,,,,,,,,,,,,,,,,,,,METAR,18.0
CWHT 250500Z AUTO 33003KT 05/M06 RMK AO1 SOG 00 3008 SLP104 T00531063,CWHT,2015-04-25T05:00:00Z,60.77,-137.58,5.3,-6.3,330,3,,,,1010.4,,TRUE,TRUE,,,,,,,,,,,,,,,,,,,,,,,,,,,METAR,599.0
CWHQ 250500Z AUTO 27005KT 01/M02 RMK AO1 T00131016,CWHQ,2015-04-25T05:00:00Z,46.68,-71.97,1.3,-1.6,270,5,,,,,,TRUE,TRUE,,,,,,,,,,,,,,,,,,,,,,,,,,,METAR,55.0
CWHM 250500Z AUTO 27009KT 02/M04 RMK AO1 T00171035,CWHM,2015-04-25T05:00:00Z,45.72,-73.37,1.7,-3.5,270,9,,,,,,TRUE,TRUE,,,,,,,,,,,,,,,,,,,,,,,,,,,METAR,192.0
CWHL 250500Z AUTO 24008KT 09/06 RMK AO1 SLP107 T00870055 53015,CWHL,2015-04-25T05:00:00Z,54.17,-130.35,8.7,5.5,240,8,,,,1010.7,,TRUE,TRUE,,,,,,,,,,,,,,,,1.5,,,,,,,,,,,METAR,5.0
CWGY 250500Z AUTO 04013G18KT 04/01 RMK AO1 1016 PK WND 04022/0414 SLP081 T00350012 50008,CWGY,2015-04-25T05:00:00Z,51.67,-110.2,3.5,1.2,40,13,18,,,1008.1,,TRUE,TRUE,,,,,,,,,,,,,,,,0.8,,,,,,,,,,,METAR,707.0
CWGX 250500Z AUTO 08004KT M05/M12 RMK AO1 SLP216 T10511116 53004,CWGX,2015-04-25T05:00:00Z,56.35,-94.7,-5.1,-11.6,80,4,,,,1021.6,,TRUE,TRUE,,,,,,,,,,,,,,,,0.4,,,,,,,,,,,METAR,145.0
CWGW 250500Z AUTO 00000KT 03/M03 RMK AO1 SLP103 T00281028 51014,CWGW,2015-04-25T05:00:00Z,49.75,-114.9,2.8,-2.8,0,0,,,,1010.3,,TRUE,TRUE,,,,,,,,,,,,,,,,1.4,,,,,,,,,,,METAR,1137.0
CWGT 250500Z AUTO 24001KT 08/04 RMK AO1 SLP106 T00790038 52010,CWGT,2015-04-25T05:00:00Z,49.48,-124.43,7.9,3.8,240,1,,,,1010.6,,TRUE,TRUE,,,,,,,,,,,,,,,,1.0,,,,,,,,,,,METAR,5.0
CWGR 250500Z AUTO 11003KT M01/ RMK AO1 SLP014 T1013 56003,CWGR,2015-04-25T05:00:00Z,47.42,-61.8,-1.3,,110,3,,,,1001.4,,TRUE,TRUE,,,,,,,,,,,,,,,,-0.3,,,,,,,,,,,METAR,60.0
CWIK 250500Z AUTO 11011KT 09/03 RMK AO1 PK WND 11021/0433 SLP080 T00920029 51008,CWIK,2015-04-25T05:00:00Z,50.37,-102.58,9.2,2.9,110,11,,,,1008.0,,TRUE,TRUE,,,,,,,,,,,,,,,,0.8,,,,,,,,,,,METAR,602.0
VTPP 250500Z 22005KT 9000 SCT023 BKN300 30/23 Q1014,VTPP,2015-04-25T05:00:00Z,16.78,100.28,30.0,23.0,220,5,,5.59,29.940945,,,,,,,,,,,SCT,2300,BKN,30000,,,,,VFR,,,,,,,,,,,,METAR,44.0
UHMA 250500Z 36005MPS 9999 FEW040 SCT080 M05/M09 Q1014 NOSIG RMK QFE757/1009,UHMA,2015-04-25T05:00:00Z,64.73,177.73,-5.0,-9.0,360,10,,6.21,29.940945,,,,,,TRUE,,,,,FEW,4000,SCT,8000,,,,,VFR,,,,,,,,,,,,METAR,62.0
UTAT 250500Z VRB02MPS 9999 -SHRA SCT066CB OVC100 21/10 Q1006 99GLRD70 TEMPO 03010G15,UTAT,2015-04-25T05:00:00Z,41.77,59.83,21.0,10.0,0,4,,6.21,29.704725,,,,,,,,,,-SHRA,SCT,6600,OVC,10000,,,,,VFR,,,,,,,,,,,,METAR,83.0
UTAM 250500Z 25006G11MPS 4300 DRDU SCT100 BKN230 25/12 Q1005 TEMPO 2000 DRDU,UTAM,2015-04-25T05:00:00Z,37.62,61.9,25.0,12.0,250,12,21,2.67,29.675198,,,,,,,,,,DRDU,SCT,10000,BKN,23000,,,,,IFR,,,,,,,,,,,,METAR,222.0
UTAV 250500Z 16005MPS 9999 SCT033CB BKN033 25/13 Q1005 NOSIG,UTAV,2015-04-25T05:00:00Z,39.08,63.62,25.0,13.0,160,10,,6.21,29.675198,,,,,,TRUE,,,,,SCT,3300,BKN,3300,,,,,VFR,,,,,,,,,,,,METAR,192.0
UTAK 250500Z 30012G17MPS 9999 OVC011 09/06 Q1014 R34/29//55 TEMPO OVC005,UTAK,2015-04-25T05:00:00Z,40.05,53.0,9.0,6.0,300,23,33,6.21,29.940945,,,,,,,,,,,OVC,1100,,,,,,,MVFR,,,,,,,,,,,,METAR,85.0
MHCH 250500Z 00000KT 9999 FEW030 28/21 FU,MHCH,2015-04-25T05:00:00Z,13.32,-87.15,28.0,21.0,0,0,,6.21,,,,,,,,,,,FU,FEW,3000,,,,,,,VFR,,,,,,,,,,,,METAR,48.0
MHSR 250500Z 00000KT 5000 FU SKC 21/21 5KM TDS FU HZ,MHSR,2015-04-25T05:00:00Z,14.78,-88.78,21.0,21.0,0,0,,3.11,,,,,,,,,,,FU FU HZ,SKC,,,,,,,,MVFR,,,,,,,,,,,,METAR,1079.0
MHCA 250500Z 00000KT 9999 SCT028 SCT080 26/21 Q1016 FU,MHCA,2015-04-25T05:00:00Z,14.9,-85.78,26.0,21.0,0,0,,6.21,30.0,,,,,,,,,,FU,SCT,2800,SCT,8000,,,,,VFR,,,,,,,,,,,,METAR,442.0
MHAM 250500Z 00000KT CAVOK 28/22,MHAM,2015-04-25T05:00:00Z,13.27,-87.65,28.0,22.0,0,0,,6.21,,,,,,,,,,,,CAVOK,,,,,,,,VFR,,,,,,,,,,,,METAR,5.0
DAUT 250500Z 00000KT CAVOK 23/M00 Q1014,DAUT,2015-04-25T05:00:00Z,29.25,0.27,23.0,0.0,0,0,,6.21,29.940945,,,,,,,,,,,CAVOK,,,,,,,,VFR,,,,,,,,,,,,SPECI,312.0
CYHM 250500Z 36004KT 15SM FEW200 M01/M09 A3001 RMK CI2 SLP171,CYHM,2015-04-25T05:00:00Z,43.17,-79.93,-1.0,-9.0,360,4,,15.0,30.008858,1017.1,,,,,,,,,,FEW,20000,,,,,,,VFR,,,,,,,,,,,,SPECI,238.0
CYGQ 250500Z 04003KT 15SM SKC M05/M08 A3007 RMK SLP204,CYGQ,2015-04-25T05:00:00Z,49.77,-86.92,-5.0,-8.0,40,3,,15.0,30.070866,1020.4,,,,,,,,,,SKC,,,,,,,,VFR,,,,,,,,,,,,SPECI,351.0
CYER 250500Z AUTO 32006KT 9SM OVC022 M05/M07 A3019 RMK SLP223,CYER,2015-04-25T05:00:00Z,56.02,-87.68,-5.0,-7.0,320,6,,9.0,30.188976,1022.3,,TRUE,,,,,,,,OVC,2200,,,,,,,MVFR,,,,,,,,,,,,METAR,16.0
KNGU 250459Z 12007KT 10SM SCT300 11/05 A2997 RMK AO2 SLP148 T01060050 401890100,KNGU,2015-04-25T04:59:00Z,36.92,-76.27,10.6,5.0,120,7,,10.0,29.970472,1014.8,,,TRUE,,,,,,,SCT,30000,,,,,,,VFR,,,,18.9,10.0,,,,,,,METAR,5.0
KGUS 250459Z AUTO 08005KT 10SM OVC070 11/01 A2988 RMK AO2 DZE59,KGUS,2015-04-25T04:59:00Z,40.63,-86.15,11.0,1.0,80,5,,10.0,29.878937,,,TRUE,TRUE,,,,,,,OVC,7000,,,,,,,VFR,,,,,,,,,,,,METAR,247.0
KPSM 250458Z 29009KT 10SM FEW055 SCT090 03/M06 A2974 RMK AO2A SLP074 T00251060 401110016,KPSM,2015-04-25T04:58:00Z,43.07,-70.82,2.5,-6.0,290,9,,10.0,29.740158,1007.4,,,TRUE,,,,,,,FEW,5500,SCT,9000,,,,,VFR,,,,11.1,1.6,,,,,,,SPECI,31.0
RKSO 250458Z AUTO 28012KT 7SM CLR 22/M10 A3012 RMK AO2 SLP203 T02191102 $,RKSO,2015-04-25T04:58:00Z,37.07,127.02,21.9,-10.2,280,12,,7.0,30.121063,1020.3,,TRUE,TRUE,TRUE,,,,,,CLR,,,,,,,,VFR,,,,,,,,,,,,METAR,12.0
KQGX 250458Z AUTO 29013KT 9999 CLR 30/21 A2987 RMK AO2 SLP116 T02970214 CHINO RWY13 $,KQGX,2015-04-25T04:58:00Z,100.65,-1000.65,29.7,21.4,290,13,,6.21,29.870079,1011.6,,TRUE,TRUE,TRUE,,,,,,CLR,,,,,,,,VFR,,,,,,,,,,,,METAR,999.0
PAIW 250458Z AUTO 06009KT 10SM 01/M01 A2980 RMK AO2 SLP090 T00061011 FZRANO $,PAIW,2015-04-25T04:58:00Z,65.62,-168.1,0.6,-1.1,60,9,,10.0,29.799213,1009.0,,TRUE,TRUE,TRUE,,,TRUE,,,,,,,,,,,,,,,,,,,,,,,SPECI,7.0
KSGJ 250458Z AUTO 14007KT 10SM CLR 21/18 A3000 RMK AO2 SLP157 T02110178 402330194 TSNO,KSGJ,2015-04-25T04:58:00Z,29.97,-81.32,21.1,17.8,140,7,,10.0,30.0,1015.7,,TRUE,TRUE,,,TRUE,,,,CLR,,,,,,,,VFR,,,,23.3,19.4,,,,,,,SPECI,3.0
PFKT 250458Z AUTO 02015KT 10SM OVC065 04/00 A2975 RMK AO2 SLP075 T00390000,PFKT,2015-04-25T04:58:00Z,65.33,-166.47,3.9,0.0,20,15,,10.0,29.749016,1007.5,,TRUE,TRUE,,,,,,,OVC,6500,,,,,,,VFR,,,,,,,,,,,,METAR,9.0
PFEL 250458Z AUTO 02006KT 10SM SCT080 07/M03 A2970 RMK AO2 SLP064 T00721028,PFEL,2015-04-25T04:58:00Z,64.62,-162.27,7.2,-2.8,20,6,,10.0,29.698818,1006.4,,TRUE,TRUE,,,,,,,SCT,8000,,,,,,,VFR,,,,,,,,,,,,METAR,49.0
PATE 250458Z AUTO 05005KT 10SM CLR 03/M01 A2974 RMK AO2 SLP082 T00331006,PATE,2015-04-25T04:58:00Z,65.23,-166.33,3.3,-0.6,50,5,,10.0,29.740158,1008.2,,TRUE,TRUE,,,,,,,CLR,,,,,,,,VFR,,,,,,,,,,,,SPECI,90.0
PAGA 250458Z AUTO 02005KT 10SM CLR 10/M06 A2969 RMK AO2 SLP059 T01001056 PNO $,PAGA,2015-04-25T04:58:00Z,64.73,-156.93,10.0,-5.6,20,5,,10.0,29.68996,1005.9,,TRUE,TRUE,TRUE,,,,,,CLR,,,,,,,,VFR,,,,,,,,,,,,METAR,46.0
KMEI 250458Z AUTO 16003KT 10SM SCT029 BKN120 19/17 A2981 RMK AO2 SLP091 T01940167 TSNO,KMEI,2015-04-25T04:58:00Z,32.33,-88.75,19.4,16.7,160,3,,10.0,29.811024,1009.1,,TRUE,TRUE,,,TRUE,,,,SCT,2900,BKN,12000,,,,,VFR,,,,,,,,,,,,SPECI,89.0
PFSH 250458Z AUTO 02012KT 10SM SCT075 02/M01 A2970 RMK AO2 SLP072 T00221006 FZRANO,PFSH,2015-04-25T04:58:00Z,64.37,-161.22,2.2,-0.6,20,12,,10.0,29.698818,1007.2,,TRUE,TRUE,,,,TRUE,,,SCT,7500,,,,,,,VFR,,,,,,,,,,,,SPECI,7.0
PFNO 250458Z AUTO 08003KT 10SM CLR 07/M05 A2979 RMK AO2 SLP089 T00721050,PFNO,2015-04-25T04:58:00Z,66.82,-161.02,7.2,-5.0,80,3,,10.0,29.790354,1008.9,,TRUE,TRUE,,,,,,,CLR,,,,,,,,VFR,,,,,,,,,,,,METAR,17.0
KQSA 250458Z 30003KT 9999 SKC 24/04 A3007 RMK AO2A SLP092 T02430039 $,KQSA,2015-04-25T04:58:00Z,100.65,-1000.65,24.3,3.9,300,3,,6.21,30.070866,1009.2,,,TRUE,TRUE,,,,,,SKC,,,,,,,,VFR,,,,,,,,,,,,METAR,999.0
KQIR 250458Z 34030KT 6000 BLDU CLR 26/11 A2991 RMK AO2A PK WND 34034/53 SLP129,KQIR,2015-04-25T04:58:00Z,100.65,-1000.65,26.0,11.0,340,30,,3.73,29.911417,1012.9,,,TRUE,,,,,,BLDU,CLR,,,,,,,,MVFR,,,,,,,,,,,,METAR,999.0
KVBG 250458Z AUTO 34008KT 6SM HZ BKN012 OVC018 12/10 A3006 RMK AO2 SLP182 T01200098 TSNO $,KVBG,2015-04-25T04:58:00Z,34.73,-120.58,12.0,9.8,340,8,,6.0,30.059055,1018.2,,TRUE,TRUE,TRUE,,TRUE,,,HZ,BKN,1200,OVC,1800,,,,,MVFR,,,,,,,,,,,,METAR,112.0
KSKA 250458Z AUTO 18006KT 10SM SCT100 05/00 A2979 RMK AO2 SLP100 T00461004,KSKA,2015-04-25T04:58:00Z,47.62,-117.65,4.6,-0.4,180,6,,10.0,29.790354,1010.0,,TRUE,TRUE,,,,,,,SCT,10000,,,,,,,VFR,,,,,,,,,,,,METAR,750.0
KLUF 250458Z AUTO 20009KT 10SM CLR 21/06 A2987 RMK AO2 SLP107 T02080058 $,KLUF,2015-04-25T04:58:00Z,33.52,-112.37,20.8,5.8,200,9,,10.0,29.870079,1010.7,,TRUE,TRUE,TRUE,,,,,,CLR,,,,,,,,VFR,,,,,,,,,,,,METAR,332.0
KHMN 250458Z AUTO 23009KT 10SM CLR 15/M01 A2994 RMK AO2 SLP091 T01461011 $,KHMN,2015-04-25T04:58:00Z,32.85,-106.08,14.6,-1.1,230,9,,10.0,29.940945,1009.1,,TRUE,TRUE,TRUE,,,,,,CLR,,,,,,,,VFR,,,,,,,,,,,,METAR,1248.0
KGXF 250458Z AUTO 16007KT 10SM CLR 20/05 A2988 RMK AO2 SLP110 T02020045 $,KGXF,2015-04-25T04:58:00Z,32.87,-112.72,20.2,4.5,160,7,,10.0,29.878937,1011.0,,TRUE,TRUE,TRUE,,,,,,CLR,,,,,,,,VFR,,,,,,,,,,,,METAR,262.0
KFHU 250458Z AUTO 26003KT 10SM CLR 13/M01 A3003 RMK AO2 SLP166 T01331014,KFHU,2015-04-25T04:58:00Z,31.58,-110.35,13.3,-1.4,260,3,,10.0,30.029528,1016.6,,TRUE,TRUE,,,,,,,CLR,,,,,,,,VFR,,,,,,,,,,,,METAR,1438.0
KDMA 250458Z AUTO 26005KT 10SM CLR 17/01 A2995 RMK AO2 SLP116 T01680014 $,KDMA,2015-04-25T04:58:00Z,32.17,-110.87,16.8,1.4,260,5,,10.0,29.949802,1011.6,,TRUE,TRUE,TRUE,,,,,,CLR,,,,,,,,VFR,,,,,,,,,,,,METAR,824.0
KCVS 250458Z AUTO 28011KT 10SM CLR 13/M01 A2982 RMK AO2 SLP060 T01291006 $,KCVS,2015-04-25T04:58:00Z,34.37,-103.32,12.9,-0.6,280,11,,10.0,29.819881,1006.0,,TRUE,TRUE,TRUE,,,,,,CLR,,,,,,,,VFR,,,,,,,,,,,,METAR,1309.0
KBKF 250458Z 20007KT 10SM BKN100 BKN220 07/00 A2972 RMK AO2A SLP017 T00740000,KBKF,2015-04-25T04:58:00Z,39.72,-104.75,7.4,0.0,200,7,,10.0,29.719488,1001.7,,,TRUE,,,,,,,BKN,10000,BKN,22000,,,,,VFR,,,,,,,,,,,,METAR,1726.0
KAFF 250458Z AUTO VRB01KT 10SM CLR 08/M04 A2976 RMK AO2 SLP022 T00761043,KAFF,2015-04-25T04:58:00Z,38.97,-104.82,7.6,-4.3,0,1,,10.0,29.760826,1002.2,,TRUE,TRUE,,,,,,,CLR,,,,,,,,VFR,,,,,,,,,,,,METAR,2003.0
KTCM 250458Z AUTO 19005KT 10SM SCT070 OVC090 07/07 A2988 RMK AO2 SLP123 T00670065 $,KTCM,2015-04-25T04:58:00Z,47.12,-122.47,6.7,6.5,190,5,,10.0,29.878937,1012.3,,TRUE,TRUE,TRUE,,,,,,SCT,7000,OVC,9000,,,,,VFR,,,,,,,,,,,,METAR,98.0
KSLI 250458Z 21005KT 10SM SCT028 OVC042 16/11 A3001 RMK AO2A SLP165 T01590112,KSLI,2015-04-25T04:58:00Z,33.77,-118.03,15.9,11.2,210,5,,10.0,30.008858,1016.5,,,TRUE,,,,,,,SCT,2800,OVC,4200,,,,,VFR,,,,,,,,,,,,METAR,11.0
KLSV 250458Z AUTO 17010KT 10SM SCT110 20/04 A2977 RMK AO2 SLP066 T02000043,KLSV,2015-04-25T04:58:00Z,36.22,-115.02,20.0,4.3,170,10,,10.0,29.769686,1006.6,,TRUE,TRUE,,,,,,,SCT,11000,,,,,,,VFR,,,,,,,,,,,,SPECI,570.0
KGRF 250458Z AUTO 17006KT 10SM BKN065 OVC085 07/07 A2987 RMK AO2 SLP120 T00740069 $,KGRF,2015-04-25T04:58:00Z,47.07,-122.57,7.4,6.9,170,6,,10.0,29.870079,1012.0,,TRUE,TRUE,TRUE,,,,,,BKN,6500,OVC,8500,,,,,VFR,,,,,,,,,,,,SPECI,92.0
KFCS 250458Z AUTO 00000KT 10SM CLR 06/01 A2974 RMK AO2 SLP049 T00640010,KFCS,2015-04-25T04:58:00Z,38.67,-104.77,6.4,1.0,0,0,,10.0,29.740158,1004.9,,TRUE,TRUE,,,,,,,CLR,,,,,,,,VFR,,,,,,,,,,,,SPECI,1789.0
KEDW 250458Z 23014G22KT 20SM SCT200 12/08 A2992 RMK AO2A PK WND 23028/11 SLP122 T01190075,KEDW,2015-04-25T04:58:00Z,34.88,-117.87,11.9,7.5,230,14,22,20.0,29.920275,1012.2,,,TRUE,,,,,,,SCT,20000,,,,,,,VFR,,,,,,,,,,,,SPECI,702.0
KU16 250458Z AUTO 27010KT 10SM CLR 07/03 A2978 RMK AO2 SLP718 T00720033 $,KU16,2015-04-25T04:58:00Z,41.05,-113.07,7.2,3.3,270,10,,10.0,29.778543,971.8,,TRUE,TRUE,TRUE,,,,,,CLR,,,,,,,,VFR,,,,,,,,,,,,SPECI,1292.0
ETIK 250458Z AUTO 07002KT 9999 CLR 03/02 A2986 RMK AO2 SLP114 T00260024,ETIK,2015-04-25T04:58:00Z,49.47,10.37,2.6,2.4,70,2,,6.21,29.861221,1011.4,,TRUE,TRUE,,,,,,,CLR,,,,,,,,VFR,,,,,,,,,,,,METAR,325.0
ETIH 250458Z AUTO 30001KT 9999 CLR 02/00 A2990 RMK AO2 SLP130,ETIH,2015-04-25T04:58:00Z,49.22,11.82,2.0,0.0,300,1,,6.21,29.899607,1013.0,,TRUE,TRUE,,,,,,,CLR,,,,,,,,VFR,,,,,,,,,,,,METAR,442.0
ETEB 250458Z AUTO 17004KT 9999 CLR 06/02 A2986 RMK AO2 SLP123 T00600022,ETEB,2015-04-25T04:58:00Z,49.32,10.62,6.0,2.2,170,4,,6.21,29.861221,1012.3,,TRUE,TRUE,,,,,,,CLR,,,,,,,,VFR,,,,,,,,,,,,METAR,467.0
ETIC 250458Z AUTO 00000KT 9999 CLR 01/M01 A2989 RMK AO2 SLP129 T00061009 $,ETIC,2015-04-25T04:58:00Z,49.7,11.93,0.6,-0.9,0,0,,6.21,29.890747,1012.9,,TRUE,TRUE,TRUE,,,,,,CLR,,,,,,,,VFR,,,,,,,,,,,,METAR,415.0
LIYW 250458Z AUTO 00000KT 9999 OVC039 12/12 A3006 RMK AO2 SLP181 T01200120 $,LIYW,2015-04-25T04:58:00Z,46.02,12.62,12.0,12.0,0,0,,6.21,30.059055,1018.1,,TRUE,TRUE,TRUE,,,,,,OVC,3900,,,,,,,VFR,,,,,,,,,,,,METAR,126.0
KMRH 250458Z AUTO 25006KT 10SM CLR 16/11 A2998 RMK AO2 SLP151 T01560106 402000094 TSNO,KMRH,2015-04-25T04:58:00Z,34.73,-76.65,15.6,10.6,250,6,,10.0,29.97933,1015.1,,TRUE,TRUE,,,TRUE,,,,CLR,,,,,,,,VFR,,,,20.0,9.4,,,,,,,SPECI,3.0
MUCF 250458Z AUTO 07005KT 25/22 Q1015,MUCF,2015-04-25T04:58:00Z,22.13,-80.4,25.0,22.0,70,5,,,29.970472,,,TRUE,,,,,,,,,,,,,,,,,,,,,,,,,,,,METAR,39.0
PACZ 250458Z AUTO 07009KT 10SM -DZ SCT031 BKN055 04/01 A2957 RMK AO2 SLP020 $,PACZ,2015-04-25T04:58:00Z,61.78,-166.03,4.0,1.0,70,9,,10.0,29.568897,1002.0,,TRUE,TRUE,TRUE,,,,,-DZ,SCT,3100,BKN,5500,,,,,VFR,,,,,,,,,,,,SPECI,146.0
K0J4 250458Z AUTO 15003KT 10SM CLR 18/16 A2990 RMK AO2 SLP122 T01780161 402780144,K0J4,2015-04-25T04:58:00Z,31.05,-86.32,17.8,16.1,150,3,,10.0,29.899607,1012.2,,TRUE,TRUE,,,,,,,CLR,,,,,,,,VFR,,,,27.8,14.4,,,,,,,METAR,96.0
KVAD 250458Z AUTO 11004KT 10SM FEW170 18/13 A2995 RMK AO2 SLP143 T01760126 402860151 $,KVAD,2015-04-25T04:58:00Z,30.97,-83.2,17.6,12.6,110,4,,10.0,29.949802,1014.3,,TRUE,TRUE,TRUE,,,,,,FEW,17000,,,,,,,VFR,,,,28.6,15.1,,,,,,,SPECI,71.0
KTBN 250458Z AUTO 15008KT 8SM OVC004 12/12 A2967 RMK AO2 SLP048 T01150115,KTBN,2015-04-25T04:58:00Z,37.72,-92.12,11.5,11.5,150,8,,8.0,29.66929,1004.8,,TRUE,TRUE,,,,,,,OVC,400,,,,,,,LIFR,,,,,,,,,,,,SPECI,353.0
KSZL 250458Z 12005KT 10SM FEW055 BKN120 13/11 A2960 RMK AO2A SLP024 T01340111 $,KSZL,2015-04-25T04:58:00Z,38.72,-93.53,13.4,11.1,120,5,,10.0,29.601377,1002.4,,,TRUE,TRUE,,,,,,FEW,5500,BKN,12000,,,,,VFR,,,,,,,,,,,,SPECI,265.0
KPOB 250458Z AUTO 02002KT 10SM FEW190 09/07 A2995 RMK AO2 SLP145 T00930067 402140073,KPOB,2015-04-25T04:58:00Z,35.17,-79.02,9.3,6.7,20,2,,10.0,29.949802,1014.5,,TRUE,TRUE,,,,,,,FEW,19000,,,,,,,VFR,,,,21.4,7.3,,,,,,,SPECI,66.0
KLHW 250458Z AUTO 00000KT 10SM BKN140 17/12 A2997 RMK AO2 SLPNO T01670115 402380162,KLHW,2015-04-25T04:58:00Z,31.87,-81.57,16.7,11.5,0,0,,10.0,29.970472,,,TRUE,TRUE,,,,,,,BKN,14000,,,,,,,VFR,,,,23.8,16.2,,,,,,,METAR,14.0
KHUA 250458Z AUTO 05004KT 7SM -RA SCT006 BKN044 14/12 A2989 RMK AO2 RAB18 SLP120 P0005 T01420123,KHUA,2015-04-25T04:58:00Z,34.68,-86.68,14.2,12.3,50,4,,7.0,29.890747,1012.0,,TRUE,TRUE,,,,,,-RA,SCT,600,BKN,4400,,,,,VFR,,,,,,0.05,,,,,,METAR,209.0
KEND 250458Z AUTO 18019G28KT 10SM FEW010 17/16 A2949 RMK AO2 PK WND 18029/34 SLP978 T01690157 $,KEND,2015-04-25T04:58:00Z,36.32,-97.92,16.9,15.7,180,19,28,10.0,29.489174,997.8,,TRUE,TRUE,TRUE,,,,,,FEW,1000,,,,,,,VFR,,,,,,,,,,,,METAR,398.0
KDYS 250458Z AUTO 22007KT 10SM CLR 15/08 A2974 RMK AO2 SLP046 T01460083,KDYS,2015-04-25T04:58:00Z,32.42,-99.83,14.6,8.3,220,7,,10.0,29.740158,1004.6,,TRUE,TRUE,,,,,,,CLR,,,,,,,,VFR,,,,,,,,,,,,METAR,545.0
K1J0 250458Z AUTO 00000KT 10SM CLR 18/18 A2990 RMK AO2 SLP082 T01830178 402890156 $,K1J0,2015-04-25T04:58:00Z,30.85,-85.6,18.3,17.8,0,0,,10.0,29.899607,1008.2,,TRUE,TRUE,TRUE,,,,,,CLR,,,,,,,,VFR,,,,28.9,15.6,,,,,,,METAR,26.0
KEUF 250458Z AUTO 13005KT 10SM CLR 21/13 A2989 RMK AO2 SLP118 T02060133 $,KEUF,2015-04-25T04:58:00Z,31.95,-85.13,20.6,13.3,130,5,,10.0,29.890747,1011.8,,TRUE,TRUE,TRUE,,,,,,CLR,,,,,,,,VFR,,,,,,,,,,,,METAR,87.0
KXMR 250458Z AUTO 10007KT 10SM CLR 22/19 A2996 RMK AO2 SLP148 T02220192 402770222 $,KXMR,2015-04-25T04:58:00Z,28.47,-80.57,22.2,19.2,100,7,,10.0,29.958662,1014.8,,TRUE,TRUE,TRUE,,,,,,CLR,,,,,,,,VFR,,,,27.7,22.2,,,,,,,METAR,3.0
KSVN 250458Z AUTO 17002KT 10SM BKN140 18/12 A2998 RMK AO2 SLP155 T01760116 402220161 $,KSVN,2015-04-25T04:58:00Z,32.02,-81.15,17.6,11.6,170,2,,10.0,29.97933,1015.5,,TRUE,TRUE,TRUE,,,,,,BKN,14000,,,,,,,VFR,,,,22.2,16.1,,,,,,,METAR,13.0
KMXF 250458Z AUTO 15003KT 10SM CLR 20/14 A2987 RMK AO2 SLP116 T01960144,KMXF,2015-04-25T04:58:00Z,32.37,-86.37,19.6,14.4,150,3,,10.0,29.870079,1011.6,,TRUE,TRUE,,,,,,,CLR,,,,,,,,VFR,,,,,,,,,,,,SPECI,51.0
KMMT 250458Z AUTO 11003KT 10SM BKN160 12/09 A2997 RMK AO2 SLP151 T01240087 402230073,KMMT,2015-04-25T04:58:00Z,33.92,-80.78,12.4,8.7,110,3,,10.0,29.970472,1015.1,,TRUE,TRUE,,,,,,,BKN,16000,,,,,,,VFR,,,,22.3,7.3,,,,,,,SPECI,77.0
KMGE 250458Z AUTO 16004KT 10SM BKN120 18/10 A2992 RMK AO2 SLP126 T01840095 402470069 $,KMGE,2015-04-25T04:58:00Z,33.92,-84.52,18.4,9.5,160,4,,10.0,29.920275,1012.6,,TRUE,TRUE,TRUE,,,,,,BKN,12000,,,,,,,VFR,,,,24.7,6.9,,,,,,,METAR,326.0
KIAB 250458Z AUTO 17020G29KT 10SM OVC012 18/15 A2947 RMK AO2 PK WND 19031/40 LTG DSNT NW OVC V BKN SLP975 T01750152,KIAB,2015-04-25T04:58:00Z,37.62,-97.27,17.5,15.2,170,20,29,10.0,29.471457,997.5,,TRUE,TRUE,,,,,,,OVC,1200,,,,,,,MVFR,,,,,,,,,,,,METAR,418.0
KHLR 250458Z AUTO 23004KT 9SM SCT260 22/18 A2972 RMK AO2 SLP054 T02190179,KHLR,2015-04-25T04:58:00Z,31.13,-97.72,21.9,17.9,230,4,,9.0,29.719488,1005.4,,TRUE,TRUE,,,,,,,SCT,26000,,,,,,,VFR,,,,,,,,,,,,SPECI,283.0
KGRK 250458Z AUTO 23008KT 10SM CLR 23/20 A2973 RMK AO2 SLP057 T02340195,KGRK,2015-04-25T04:58:00Z,31.07,-97.83,23.4,19.5,230,8,,10.0,29.731298,1005.7,,TRUE,TRUE,,,,,,,CLR,,,,,,,,VFR,,,,,,,,,,,,METAR,309.0
KLSF 250458Z AUTO 13003KT 10SM CLR 17/16 A2988 RMK AO2 SLP120 T01660159 402670110,KLSF,2015-04-25T04:58:00Z,32.32,-84.97,16.6,15.9,130,3,,10.0,29.878937,1012.0,,TRUE,TRUE,,,,,,,CLR,,,,,,,,VFR,,,,26.7,11.0,,,,,,,METAR,71.0
KMCF 250458Z AUTO 15010KT 10SM CLR 24/22 A2997 RMK AO2 SLP152 T02390215 403180238,KMCF,2015-04-25T04:58:00Z,27.85,-82.52,23.9,21.5,150,10,,10.0,29.970472,1015.2,,TRUE,TRUE,,,,,,,CLR,,,,,,,,VFR,,,,31.8,23.8,,,,,,,METAR,4.0
KGSB 250458Z AUTO 16002KT 10SM CLR 12/04 A2994 RMK AO2 SLP141 T01200036 402020085 $,KGSB,2015-04-25T04:58:00Z,35.32,-77.97,12.0,3.6,160,2,,10.0,29.940945,1014.1,,TRUE,TRUE,TRUE,,,,,,CLR,,,,,,,,VFR,,,,20.2,8.5,,,,,,,METAR,33.0
KDAA 250458Z AUTO 31003KT 10SM CLR 04/00 A2997 RMK AO2 SLP152 T00411003 401630036,KDAA,2015-04-25T04:58:00Z,38.72,-77.17,4.1,-0.3,310,3,,10.0,29.970472,1015.2,,TRUE,TRUE,,,,,,,CLR,,,,,,,,VFR,,,,16.3,3.6,,,,,,,METAR,21.0
KCOF 250458Z AUTO 10011KT 10SM CLR 24/20 A2996 RMK AO2 SLP150 T02440200 402830229 $,KCOF,2015-04-25T04:58:00Z,28.23,-80.6,24.4,20.0,100,11,,10.0,29.958662,1015.0,,TRUE,TRUE,TRUE,,,,,,CLR,,,,,,,,VFR,,,,28.3,22.9,,,,,,,METAR,3.0
KBIX 250458Z AUTO 17008KT 10SM CLR 23/21 A2982 RMK AO2 SLP101 T02300210,KBIX,2015-04-25T04:58:00Z,30.42,-88.92,23.0,21.0,170,8,,10.0,29.819881,1010.1,,TRUE,TRUE,,,,,,,CLR,,,,,,,,VFR,,,,,,,,,,,,METAR,10.0
KWRB 250458Z AUTO 12004KT 10SM OVC120 19/14 A2993 RMK AO2 SLP136 T01850140 402580115,KWRB,2015-04-25T04:58:00Z,32.62,-83.58,18.5,14.0,120,4,,10.0,29.929134,1013.6,,TRUE,TRUE,,,,,,,OVC,12000,,,,,,,VFR,,,,25.8,11.5,,,,,,,METAR,90.0
KTTS 250458Z AUTO 11003KT 10SM CLR 22/19 A2997 RMK AO2 SLP153 T02230187 402680195,KTTS,2015-04-25T04:58:00Z,28.62,-80.72,22.3,18.7,110,3,,10.0,29.970472,1015.3,,TRUE,TRUE,,,,,,,CLR,,,,,,,,VFR,,,,26.8,19.5,,,,,,,SPECI,3.0
KSSC 250458Z AUTO 19003KT 10SM FEW170 14/08 A2996 RMK AO2 SLP146 T01400079 402260068 $,KSSC,2015-04-25T04:58:00Z,33.97,-80.47,14.0,7.9,190,3,,10.0,29.958662,1014.6,,TRUE,TRUE,TRUE,,,,,,FEW,17000,,,,,,,VFR,,,,22.6,6.8,,,,,,,METAR,74.0
KPAM 250458Z AUTO 17006KT 10SM CLR 23/20 A2989 RMK AO2 SLP125 T02260204 $,KPAM,2015-04-25T04:58:00Z,30.07,-85.57,22.6,20.4,170,6,,10.0,29.890747,1012.5,,TRUE,TRUE,TRUE,,,,,,CLR,,,,,,,,VFR,,,,,,,,,,,,METAR,5.0
KOZR 250458Z AUTO 09001KT 10SM CLR 20/15 A2989 RMK AO2 SLP122 T01950151,KOZR,2015-04-25T04:58:00Z,31.28,-85.72,19.5,15.1,90,1,,10.0,29.890747,1012.2,,TRUE,TRUE,,,,,,,CLR,,,,,,,,VFR,,,,,,,,,,,,METAR,93.0
KOFF 250458Z AUTO 06009KT 10SM OVC011 14/12 A2953 RMK AO2 SLP001 T01380117,KOFF,2015-04-25T04:58:00Z,41.12,-95.92,13.8,11.7,60,9,,10.0,29.530512,1000.1,,TRUE,TRUE,,,,,,,OVC,1100,,,,,,,MVFR,,,,,,,,,,,,METAR,319.0
RKJK 250458Z AUTO 27009KT 10SM CLR 19/08 A3014 RMK AO2 SLP211 T01900076 VISNO RWY18 CHINO RWY18 $,RKJK,2015-04-25T04:58:00Z,35.9,126.62,19.0,7.6,270,9,,10.0,30.138779,1021.1,,TRUE,TRUE,TRUE,,,,,,CLR,,,,,,,,VFR,,,,,,,,,,,,METAR,9.0
PAED 250458Z AUTO 15006KT 10SM BKN110 09/M13 A2974 RMK AO2 SLP067 T00881133,PAED,2015-04-25T04:58:00Z,61.25,-149.8,8.8,-13.3,150,6,,10.0,29.740158,1006.7,,TRUE,TRUE,,,,,,,BKN,11000,,,,,,,VFR,,,,,,,,,,,,METAR,59.0
KRCA 250458Z AUTO 32007KT 10SM CLR 09/06 A2962 RMK AO2 SLP026 T00870058 $,KRCA,2015-04-25T04:58:00Z,44.13,-103.08,8.7,5.8,320,7,,10.0,29.619095,1002.6,,TRUE,TRUE,TRUE,,,,,,CLR,,,,,,,,VFR,,,,,,,,,,,,METAR,999.0
KHOP 250458Z AUTO 16010KT 10SM SCT027 14/10 A2980 RMK AO2 SLP091 T01390095 $,KHOP,2015-04-25T04:58:00Z,36.67,-87.5,13.9,9.5,160,10,,10.0,29.799213,1009.1,,TRUE,TRUE,TRUE,,,,,,SCT,2700,,,,,,,VFR,,,,,,,,,,,,METAR,174.0
KGTB 250458Z AUTO 29003KT 10SM OVC055 02/M04 A2991 RMK AO2 SLP136 T00171043 400361011,KGTB,2015-04-25T04:58:00Z,44.07,-75.72,1.7,-4.3,290,3,,10.0,29.911417,1013.6,,TRUE,TRUE,,,,,,,OVC,5500,,,,,,,VFR,,,,3.6,-1.1,,,,,,,METAR,207.0
KBLV 250458Z AUTO 13004KT 10SM OVC017 13/08 A2974 RMK AO2 SLP073 T01270082,KBLV,2015-04-25T04:58:00Z,38.53,-89.83,12.7,8.2,130,4,,10.0,29.740158,1007.3,,TRUE,TRUE,,,,,,,OVC,1700,,,,,,,MVFR,,,,,,,,,,,,METAR,138.0
RODN 250458Z AUTO 05006KT 8SM OVC043 22/17 A3006 RMK AO2 SLP186 T02180169,RODN,2015-04-25T04:58:00Z,26.35,127.77,21.8,16.9,50,6,,8.0,30.059055,1018.6,,TRUE,TRUE,,,,,,,OVC,4300,,,,,,,VFR,,,,,,,,,,,,METAR,45.0
PWAK 250458Z AUTO 08018KT 9999 SCT027 SCT055 27/20 A2993 RMK AO2 SLP142 T02720202,PWAK,2015-04-25T04:58:00Z,19.28,166.65,27.2,20.2,80,18,,6.21,29.929134,1014.2,,TRUE,TRUE,,,,,,,SCT,2700,SCT,5500,,,,,VFR,,,,,,,,,,,,METAR,4.0
PAEI 250458Z AUTO 29004KT 10SM CLR 11/M10 A2965 RMK AO2 SLP047 T01121102 $,PAEI,2015-04-25T04:58:00Z,64.67,-147.1,11.2,-10.2,290,4,,10.0,29.648623,1004.7,,TRUE,TRUE,TRUE,,,,,,CLR,,,,,,,,VFR,,,,,,,,,,,,METAR,167.0
KWRI 250458Z AUTO 34009KT 10SM CLR 02/M06 A2993 RMK AO2 SLP136 T00181058 401260017,KWRI,2015-04-25T04:58:00Z,40.02,-74.58,1.8,-5.8,340,9,,10.0,29.929134,1013.6,,TRUE,TRUE,,,,,,,CLR,,,,,,,,VFR,,,,12.6,1.7,,,,,,,METAR,41.0
KRDR 250458Z AUTO 12006KT 10SM OVC028 08/02 A2982 RMK AO2 SLP108 T00770020,KRDR,2015-04-25T04:58:00Z,47.97,-97.4,7.7,2.0,120,6,,10.0,29.819881,1010.8,,TRUE,TRUE,,,,,,,OVC,2800,,,,,,,MVFR,,,,,,,,,,,,METAR,278.0
KMUI 250458Z AUTO VRB02KT 10SM CLR 05/M08 A2996 RMK AO2 SLP151 T00511083 401250017 $,KMUI,2015-04-25T04:58:00Z,40.42,-76.57,5.1,-8.3,0,2,,10.0,29.958662,1015.1,,TRUE,TRUE,TRUE,,,,,,CLR,,,,,,,,VFR,,,,12.5,1.7,,,,,,,METAR,149.0
KMIB 250458Z AUTO 11015KT 10SM CLR 08/06 A2972 RMK AO2 SLP076 T00760057 $,KMIB,2015-04-25T04:58:00Z,48.42,-101.33,7.6,5.7,110,15,,10.0,29.719488,1007.6,,TRUE,TRUE,TRUE,,,,,,CLR,,,,,,,,VFR,,,,,,,,,,,,METAR,508.0
KHST 250458Z AUTO 07005KT 10SM BKN043 26/22 A2997 RMK AO2 SLP152 T02570224 403210229,KHST,2015-04-25T04:58:00Z,25.47,-80.37,25.7,22.4,70,5,,10.0,29.970472,1015.2,,TRUE,TRUE,,,,,,,BKN,4300,,,,,,,VFR,,,,32.1,22.9,,,,,,,METAR,2.0
KFFO 250458Z AUTO 00000KT 10SM OVC075 11/00 A2991 RMK AO2 SLP132 T01141001 401491028,KFFO,2015-04-25T04:58:00Z,39.82,-84.03,11.4,-0.1,0,0,,10.0,29.911417,1013.2,,TRUE,TRUE,,,,,,,OVC,7500,,,,,,,VFR,,,,14.9,-2.8,,,,,,,METAR,251.0
KCEF 250458Z AUTO 29010KT 10SM CLR 02/M06 A2982 RMK AO2 SLP106 T00181061 400750015,KCEF,2015-04-25T04:58:00Z,42.2,-72.52,1.8,-6.1,290,10,,10.0,29.819881,1010.6,,TRUE,TRUE,,,,,,,CLR,,,,,,,,VFR,,,,7.5,1.5,,,,,,,METAR,75.0
ETAR 250458Z AUTO 00000KT 9999 FEW080 07/04 A2983 RMK AO2 SLP103 T00680044 $,ETAR,2015-04-25T04:58:00Z,49.42,7.58,6.8,4.4,0,0,,6.21,29.828741,1010.3,,TRUE,TRUE,TRUE,,,,,,FEW,8000,,,,,,,VFR,,,,,,,,,,,,METAR,238.0
BGTL 250458Z AUTO 12008KT 9999 CLR M11/M17 A3067 RMK AO2 SLP374 T11131167 $,BGTL,2015-04-25T04:58:00Z,76.53,-68.7,-11.3,-16.7,120,8,,6.21,30.670275,1037.4,,TRUE,TRUE,TRUE,,,,,,CLR,,,,,,,,VFR,,,,,,,,,,,,METAR,77.0
KLFI 250458Z AUTO 15005KT 10SM CLR 11/05 A2995 RMK AO2 SLP149 T01050049 401700050 $,KLFI,2015-04-25T04:58:00Z,37.07,-76.37,10.5,4.9,150,5,,10.0,29.949802,1014.9,,TRUE,TRUE,TRUE,,,,,,CLR,,,,,,,,VFR,,,,17.0,5.0,,,,,,,METAR,3.0
KDOV 250458Z AUTO 05009KT 10SM CLR 06/M01 A2992 RMK AO2 SLP135 T00591013 401360023 VISNO RWY19 CHINO RWY19 $,KDOV,2015-04-25T04:58:00Z,39.12,-75.47,5.9,-1.3,50,9,,10.0,29.920275,1013.5,,TRUE,TRUE,TRUE,,,,,,CLR,,,,,,,,VFR,,,,13.6,2.3,,,,,,,METAR,9.0
KADW 250458Z AUTO 35004KT 10SM CLR 07/M03 A2995 RMK AO2 SLP150 T00661032 401490037,KADW,2015-04-25T04:58:00Z,38.82,-76.87,6.6,-3.2,350,4,,10.0,29.949802,1015.0,,TRUE,TRUE,,,,,,,CLR,,,,,,,,VFR,,,,14.9,3.7,,,,,,,METAR,86.0
KFAF 250458Z AUTO 11004KT 10SM CLR 11/05 A2994 RMK AO2 SLP142 T01060046 401700071 $,KFAF,2015-04-25T04:58:00Z,37.12,-76.62,10.6,4.6,110,4,,10.0,29.940945,1014.2,,TRUE,TRUE,TRUE,,,,,,CLR,,,,,,,,VFR,,,,17.0,7.1,,,,,,,METAR,4.0
ROTM 250458Z 09010G18KT 9999 BKN040 BKN050 23/17 A3007 RMK SLP169 T02280172,ROTM,2015-04-25T04:58:00Z,26.27,127.75,22.8,17.2,90,10,18,6.21,30.070866,1016.9,,,,,,,,,,BKN,4000,BKN,5000,,,,,VFR,,,,,,,,,,,,METAR,75.0
KLTS 250458Z AUTO 21013KT 10SM CLR 15/09 A2961 RMK AO2 SLP017 T01500093 $,KLTS,2015-04-25T04:58:00Z,34.67,-99.27,15.0,9.3,210,13,,10.0,29.610237,1001.7,,TRUE,TRUE,TRUE,,,,,,CLR,,,,,,,,VFR,,,,,,,,,,,,SPECI,420.0
KBIF 250458Z AUTO 31009KT 10SM CLR 16/M03 A2996 RMK AO2 SLP100 T01641029,KBIF,2015-04-25T04:58:00Z,31.85,-106.38,16.4,-2.9,310,9,,10.0,29.958662,1010.0,,TRUE,TRUE,,,,,,,CLR,,,,,,,,VFR,,,,,,,,,,,,METAR,1203.0
RKSG 250458Z AUTO 30008KT 10SM FEW210 22/00 A3012 RMK AO2 SLP203 T02231000 $,RKSG,2015-04-25T04:58:00Z,36.97,127.02,22.3,0.0,300,8,,10.0,30.121063,1020.3,,TRUE,TRUE,TRUE,,,,,,FEW,21000,,,,,,,VFR,,,,,,,,,,,,METAR,16.0
KHRT 250458Z AUTO 16009KT 10SM SCT008 BKN028 23/21 A2986 RMK AO2 CIG 008V028 SLP113 $,KHRT,2015-04-25T04:58:00Z,30.42,-86.67,23.0,21.0,160,9,,10.0,29.861221,1011.3,,TRUE,TRUE,TRUE,,,,,,SCT,800,BKN,2800,,,,,MVFR,,,,,,,,,,,,METAR,12.0
PAGH 250457Z AUTO 08005KT 10SM CLR 08/M08 A2978 RMK AO2 SLP114 T00831078,PAGH,2015-04-25T04:57:00Z,66.88,-157.17,8.3,-7.8,80,5,,10.0,29.778543,1011.4,,TRUE,TRUE,,,,,,,CLR,,,,,,,,VFR,,,,,,,,,,,,METAR,60.0
KROG 250457Z AUTO 16009KT 10SM CLR 16/13 A2964 RMK AO2 SLP027 T01560133 402170100 TSNO PNO $,KROG,2015-04-25T04:57:00Z,36.37,-94.08,15.6,13.3,160,9,,10.0,29.639763,1002.7,,TRUE,TRUE,TRUE,,TRUE,,,,CLR,,,,,,,,VFR,,,,21.7,10.0,,,,,,,METAR,415.0
KNJM 250457Z AUTO 27003KT 10SM CLR 14/07 A2998 RMK AO2 SLP156 T01440067 402060078,KNJM,2015-04-25T04:57:00Z,34.67,-77.02,14.4,6.7,270,3,,10.0,29.97933,1015.6,,TRUE,TRUE,,,,,,,CLR,,,,,,,,VFR,,,,20.6,7.8,,,,,,,METAR,7.0
KNYL 250457Z 27007KT 10SM FEW100 FEW250 19/10 A2988 RMK AO2 SLP118 T01940100,KNYL,2015-04-25T04:57:00Z,32.63,-114.62,19.4,10.0,270,7,,10.0,29.878937,1011.8,,,TRUE,,,,,,,FEW,10000,FEW,25000,,,,,VFR,,,,,,,,,,,,SPECI,65.0
PHNG 250457Z AUTO VRB05KT BKN060 26/20 A2995 RMK AO2 RAE16 SLP136 P0000 T02560200 $,PHNG,2015-04-25T04:57:00Z,21.43,-157.77,25.6,20.0,0,5,,,29.949802,1013.6,,TRUE,TRUE,TRUE,,,,,,BKN,6000,,,,,,,,,,,,,0.0050,,,,,,SPECI,3.0
KNSI 250457Z AUTO 30024G31KT 10SM CLR A3003 RMK AO2 PK WND 29031/0451 SLPNO $,KNSI,2015-04-25T04:57:00Z,33.22,-119.45,,,300,24,31,10.0,30.029528,,,TRUE,TRUE,TRUE,,,,,,CLR,,,,,,,,VFR,,,,,,,,,,,,SPECI,154.0
KNMM 250456Z AUTO 14004KT 10SM CLR 19/16 A2982 RMK AO2 SLP105 T01890161,KNMM,2015-04-25T04:56:00Z,32.53,-88.57,18.9,16.1,140,4,,10.0,29.819881,1010.5,,TRUE,TRUE,,,,,,,CLR,,,,,,,,VFR,,,,,,,,,,,,SPECI,97.0
PAPG 250456Z 00000KT 10SM FEW090 07/M01 A2980,PAPG,2015-04-25T04:56:00Z,56.82,-132.97,7.0,-1.0,0,0,,10.0,29.799213,,,,,,,,,,,FEW,9000,,,,,,,VFR,,,,,,,,,,,,METAR,15.0
KPRN 250456Z AUTO 17003KT 10SM CLR 19/16 A2987 RMK AO2 SLP111 T01890161,KPRN,2015-04-25T04:56:00Z,31.85,-86.62,18.9,16.1,170,3,,10.0,29.870079,1011.1,,TRUE,TRUE,,,,,,,CLR,,,,,,,,VFR,,,,,,,,,,,,METAR,138.0
KCWN 250456Z AUTO 26007KT 10SM SCT230 08/M04 A2947 RMK AO2 SLP926 T00811040 $,KCWN,2015-04-25T04:56:00Z,38.75,-104.85,8.1,-4.0,260,7,,10.0,29.471457,992.6,,TRUE,TRUE,TRUE,,,,,,SCT,23000,,,,,,,VFR,,,,,,,,,,,,METAR,2040.0
KFEW 250456Z AUTO 28016G23KT 10SM FEW140 07/01 A2967 RMK AO2 SLP997 T00690014 $,KFEW,2015-04-25T04:56:00Z,41.13,-104.87,6.9,1.4,280,16,23,10.0,29.66929,999.7,,TRUE,TRUE,TRUE,,,,,,FEW,14000,,,,,,,VFR,,,,,,,,,,,,METAR,1878.0
K1QW 250456Z AUTO 27019G25KT 10SM FEW100 BKN160 03/00 A2975 RMK AO2 SLP088 T00291004,K1QW,2015-04-25T04:56:00Z,46.8,-120.17,2.9,-0.4,270,19,25,10.0,29.749016,1008.8,,TRUE,TRUE,,,,,,,FEW,10000,BKN,16000,,,,,VFR,,,,,,,,,,,,METAR,928.0
KP53 250456Z AUTO 00000KT 01/M05 A3004 RMK AO1 SLP180 T00061050 400441056,KP53,2015-04-25T04:56:00Z,46.42,-86.65,0.6,-5.0,0,0,,,30.041338,1018.0,,TRUE,TRUE,,,,,,,,,,,,,,,,,,,4.4,-5.6,,,,,,,METAR,187.0
KAQV 250456Z AUTO 00000KT 8SM BKN033 OVC041 25/22 A2980 RMK AO2 SLP089 T02500222,KAQV,2015-04-25T04:56:00Z,31.4,-93.3,25.0,22.2,0,0,,8.0,29.799213,1008.9,,TRUE,TRUE,,,,,,,BKN,3300,OVC,4100,,,,,VFR,,,,,,,,,,,,METAR,111.0
KNSE 250456Z AUTO 14004KT 8SM BKN007 OVC025 21/20 A2987 RMK AO2 CIG 006V010 SLP101 T02060200 $,KNSE,2015-04-25T04:56:00Z,30.73,-87.02,20.6,20.0,140,4,,8.0,29.870079,1010.1,,TRUE,TRUE,TRUE,,,,,,BKN,700,OVC,2500,,,,,IFR,,,,,,,,,,,,SPECI,61.0
KNPA 250456Z AUTO 16010KT 10SM OVC012 24/23 A2987 RMK AO2 SLP115 T02390228 $,KNPA,2015-04-25T04:56:00Z,30.35,-87.32,23.9,22.8,160,10,,10.0,29.870079,1011.5,,TRUE,TRUE,TRUE,,,,,,OVC,1200,,,,,,,MVFR,,,,,,,,,,,,METAR,9.0
KSHM 250456Z AUTO 32003KT 10SM CLR 06/00 A2976 RMK AO2 SLP040 T00641003,KSHM,2015-04-25T04:56:00Z,38.8,-104.52,6.4,-0.3,320,3,,10.0,29.760826,1004.0,,TRUE,TRUE,,,,,,,CLR,,,,,,,,VFR,,,,,,,,,,,,METAR,1900.0
KNJK 250456Z AUTO 26014KT 10SM CLR 19/08 A2989 RMK AO2 PK WND 28029/0433 SLP137 T01890083 $,KNJK,2015-04-25T04:56:00Z,32.82,-115.67,18.9,8.3,260,14,,10.0,29.890747,1013.7,,TRUE,TRUE,TRUE,,,,,,CLR,,,,,,,,VFR,,,,,,,,,,,,METAR,-13.0
KMEH 250456Z AUTO 00000KT 10SM SCT065 02/M01 A2983 RMK AO2 SLP115 T00221011,KMEH,2015-04-25T04:56:00Z,45.52,-118.42,2.2,-1.1,0,0,,10.0,29.828741,1011.5,,TRUE,TRUE,,,,,,,SCT,6500,,,,,,,VFR,,,,,,,,,,,,METAR,1136.0
TJSJ 250456Z 16003KT 10SM SCT019 BKN055 27/23 A2996 RMK AO2 SLP146 T02670228,TJSJ,2015-04-25T04:56:00Z,18.43,-66.02,26.7,22.8,160,3,,10.0,29.958662,1014.6,,,TRUE,,,,,,,SCT,1900,BKN,5500,,,,,VFR,,,,,,,,,,,,METAR,21.0
PFWS 250456Z AUTO 13010KT 10SM OVC060 06/M01 A2956 RMK AO2 SLP016 T00611006,PFWS,2015-04-25T04:56:00Z,58.7,-157.0,6.1,-0.6,130,10,,10.0,29.56004,1001.6,,TRUE,TRUE,,,,,,,OVC,6000,,,,,,,VFR,,,,,,,,,,,,METAR,49.0
PAHX 250456Z AUTO 06006KT 10SM OVC065 08/M02 A2963 RMK AO2 SLP036 T00831022,PAHX,2015-04-25T04:56:00Z,62.7,-159.57,8.3,-2.2,60,6,,10.0,29.630905,1003.6,,TRUE,TRUE,,,,,,,OVC,6500,,,,,,,VFR,,,,,,,,,,,,METAR,24.0
PPIZ 250456Z AUTO 10SM CLR M04/M06 A2992 RMK AO2 TSNO T10441061 SLP135 $,PPIZ,2015-04-25T04:56:00Z,69.73,-163.0,-4.4,-6.1,,,,10.0,29.920275,1013.5,,TRUE,TRUE,TRUE,,TRUE,,,,CLR,,,,,,,,VFR,,,,,,,,,,,,METAR,8.0
PPIT 250456Z AUTO 06006KT 10SM -RA FEW033 BKN060 OVC110 03/02 A2956 RMK AO2 SLP011 P0002 T00280022,PPIT,2015-04-25T04:56:00Z,60.9,-162.43,2.8,2.2,60,6,,10.0,29.56004,1001.1,,TRUE,TRUE,,,,,,-RA,FEW,3300,BKN,6000,OVC,11000,,,VFR,,,,,,0.02,,,,,,METAR,4.0
PFKW 250456Z AUTO 01004KT 10SM -RA BKN038 BKN055 OVC100 04/03 A2956 RMK AO2 RAE16B45 SLP011 P0000 T00440033 $,PFKW,2015-04-25T04:56:00Z,60.8,-161.43,4.4,3.3,10,4,,10.0,29.56004,1001.1,,TRUE,TRUE,TRUE,,,,,-RA,BKN,3800,BKN,5500,OVC,10000,,,VFR,,,,,,0.0050,,,,,,METAR,8.0
PFCL 250456Z AUTO 08007KT 10SM BKN050 OVC070 04/02 A2954 RMK AO2 SLP007 T00440022,PFCL,2015-04-25T04:56:00Z,58.83,-158.53,4.4,2.2,80,7,,10.0,29.53937,1000.7,,TRUE,TRUE,,,,,,,BKN,5000,OVC,7000,,,,,VFR,,,,,,,,,,,,METAR,24.0
PAVC 250456Z AUTO 27008KT 10SM -RA FEW018 SCT025 BKN120 04/01 A2944 RMK AO2 TSNO T00440005 BKN V SCT P0000 SLP972 $,PAVC,2015-04-25T04:56:00Z,55.12,-162.27,4.4,0.5,270,8,,10.0,29.438976,997.2,,TRUE,TRUE,TRUE,,TRUE,,,-RA,FEW,1800,SCT,2500,BKN,12000,,,VFR,,,,,,0.0050,,,,,,METAR,47.0
PATQ 250456Z AUTO 05006KT 10SM CLR M07/M08 A2993 RMK AO2 TSNO T10661077 SLP141 $,PATQ,2015-04-25T04:56:00Z,70.47,-157.43,-6.6,-7.7,50,6,,10.0,29.929134,1014.1,,TRUE,TRUE,TRUE,,TRUE,,,,CLR,,,,,,,,VFR,,,,,,,,,,,,METAR,29.0
PARY 250456Z AUTO 07007KT 10SM CLR 09/M11 A2968 RMK AO2 TSNO T00881111 SLP057 $,PARY,2015-04-25T04:56:00Z,64.73,-155.47,8.8,-11.1,70,7,,10.0,29.681103,1005.7,,TRUE,TRUE,TRUE,,TRUE,,,,CLR,,,,,,,,VFR,,,,,,,,,,,,METAR,199.0
PARS 250456Z AUTO 08003KT 10SM FEW045 08/00 A2960 RMK AO2 TSNO T00830000 SLP027 $,PARS,2015-04-25T04:56:00Z,61.77,-161.32,8.3,0.0,80,3,,10.0,29.601377,1002.7,,TRUE,TRUE,TRUE,,TRUE,,,,FEW,4500,,,,,,,VFR,,,,,,,,,,,,METAR,16.0
PAQH 250456Z AUTO 10010KT 10SM BKN100 06/01 A2954 RMK AO2 SLP004 T00610011,PAQH,2015-04-25T04:56:00Z,59.75,-161.85,6.1,1.1,100,10,,10.0,29.53937,1000.4,,TRUE,TRUE,,,,,,,BKN,10000,,,,,,,VFR,,,,,,,,,,,,METAR,13.0
PAPN 250456Z AUTO 00000KT FEW034 BKN046 BKN075 06/00 A2951 RMK AO2 PWINO TSNO T00550000 BKN V SCT SLP994 $,PAPN,2015-04-25T04:56:00Z,57.58,-157.57,5.5,0.0,0,0,,,29.509842,999.4,,TRUE,TRUE,TRUE,,TRUE,,TRUE,,FEW,3400,BKN,4600,BKN,7500,,,,,,,,,,,,,,,METAR,18.0
PAPM 250456Z AUTO 06005KT 10SM SCT034 06/01 A2953 RMK AO2 TSNO T00550005 SLP000 $,PAPM,2015-04-25T04:56:00Z,59.02,-161.82,5.5,0.5,60,5,,10.0,29.530512,1000.0,,TRUE,TRUE,TRUE,,TRUE,,,,SCT,3400,,,,,,,VFR,,,,,,,,,,,,METAR,5.0
PAOU 250456Z AUTO 31003KT OVC005 03/03 A2946 RMK AO2 TSNO T00270027 SLP980 $,PAOU,2015-04-25T04:56:00Z,56.0,-161.17,2.7,2.7,310,3,,,29.459646,998.0,,TRUE,TRUE,TRUE,,TRUE,,,,OVC,500,,,,,,,,,,,,,,,,,,,METAR,4.0
PAOH 250456Z AUTO 11003KT 10SM OVC095 09/03 A2983 RMK AO2 TSNO T00880033 SLP102 $,PAOH,2015-04-25T04:56:00Z,58.1,-135.45,8.8,3.3,110,3,,10.0,29.828741,1010.2,,TRUE,TRUE,TRUE,,TRUE,,,,OVC,9500,,,,,,,VFR,,,,,,,,,,,,METAR,9.0
PANA 250456Z AUTO 07006KT 10SM BKN065 OVC085 04/02 A2956 RMK AO2 RAE05 SLP010 P0000 T00390022,PANA,2015-04-25T04:56:00Z,60.68,-161.98,3.9,2.2,70,6,,10.0,29.56004,1001.0,,TRUE,TRUE,,,,,,,BKN,6500,OVC,8500,,,,,VFR,,,,,,0.0050,,,,,,METAR,5.0
PAMO 250456Z AUTO 06009KT 10SM CLR 05/00 A2962 RMK AO2 TSNO T00500000 SLP916 $,PAMO,2015-04-25T04:56:00Z,62.1,-163.68,5.0,0.0,60,9,,10.0,29.619095,991.6,,TRUE,TRUE,TRUE,,TRUE,,,,CLR,,,,,,,,VFR,,,,,,,,,,,,METAR,103.0
PAMK 250456Z AUTO 04007KT 10SM BKN070 02/M02 A2966 RMK AO2 PWINO TSNO T00161016 SLP048 $,PAMK,2015-04-25T04:56:00Z,63.48,-162.12,1.6,-1.6,40,7,,10.0,29.660433,1004.8,,TRUE,TRUE,TRUE,,TRUE,,TRUE,,BKN,7000,,,,,,,VFR,,,,,,,,,,,,METAR,28.0
PAMB 250456Z AUTO 07007KT 10SM FEW044 05/02 A2950 RMK AO2 TSNO T00500016 SLP994 $,PAMB,2015-04-25T04:56:00Z,58.98,-159.05,5.0,1.6,70,7,,10.0,29.500984,999.4,,TRUE,TRUE,TRUE,,TRUE,,,,FEW,4400,,,,,,,VFR,,,,,,,,,,,,METAR,16.0
PALG 250456Z AUTO 12003KT 10SM FEW041 07/00 A2960 RMK AO2 TSNO T00660000 SLP025 $,PALG,2015-04-25T04:56:00Z,61.53,-160.33,6.6,0.0,120,3,,10.0,29.601377,1002.5,,TRUE,TRUE,TRUE,,TRUE,,,,FEW,4100,,,,,,,VFR,,,,,,,,,,,,METAR,17.0
PAKH 250456Z AUTO 09008KT BKN019 OVC030 04/01 RMK AO2 PWINO TSNO T00380011 BKN V OVC SLPNO $,PAKH,2015-04-25T04:56:00Z,56.93,-154.18,3.8,1.1,90,8,,,,,,TRUE,TRUE,TRUE,,TRUE,,TRUE,,BKN,1900,OVC,3000,,,,,,,,,,,,,,,,,METAR,14.0
PAIG 250456Z AUTO 08014KT BKN038 03/00 A2958 RMK AO2 TSNO T00330000 SLP020 $,PAIG,2015-04-25T04:56:00Z,59.32,-155.9,3.3,0.0,80,14,,,29.58071,1002.0,,TRUE,TRUE,TRUE,,TRUE,,,,BKN,3800,,,,,,,,,,,,,,,,,,,METAR,28.0
PAHC 250456Z AUTO 00000KT 10SM CLR 08/M02 A2961 RMK AO2 TSNO T00831022 SLP030 $,PAHC,2015-04-25T04:56:00Z,62.18,-159.78,8.3,-2.2,0,0,,10.0,29.610237,1003.0,,TRUE,TRUE,TRUE,,TRUE,,,,CLR,,,,,,,,VFR,,,,,,,,,,,,METAR,21.0
PAGN 250456Z AUTO 00000KT 10SM BKN090 09/03 A2980 RMK AO2 TSNO T00880027 BKN V OVC SLP094 $,PAGN,2015-04-25T04:56:00Z,57.5,-134.58,8.8,2.7,0,0,,10.0,29.799213,1009.4,,TRUE,TRUE,TRUE,,TRUE,,,,BKN,9000,,,,,,,VFR,,,,,,,,,,,,METAR,2.0
PAFS 250456Z AUTO 10007G16KT 10SM CLR 09/M09 A2965 RMK AO2 TSNO T00881094 SLP048 $,PAFS,2015-04-25T04:56:00Z,63.02,-154.35,8.8,-9.4,100,7,16,10.0,29.648623,1004.8,,TRUE,TRUE,TRUE,,TRUE,,,,CLR,,,,,,,,VFR,,,,,,,,,,,,METAR,126.0
PADU 250456Z AUTO 28012KT 10SM -RA FEW012 BKN023 OVC028 03/01 A2953 RMK AO2 RAE11B31 SLP005 P0001 T00280011,PADU,2015-04-25T04:56:00Z,53.9,-166.53,2.8,1.1,280,12,,10.0,29.530512,1000.5,,TRUE,TRUE,,,,,,-RA,FEW,1200,BKN,2300,OVC,2800,,,MVFR,,,,,,0.01,,,,,,METAR,4.0
PADM 250456Z AUTO 06008KT 10SM CLR 06/00 A2963 RMK AO2 TSNO T00610000 SLP022 $,PADM,2015-04-25T04:56:00Z,61.87,-162.03,6.1,0.0,60,8,,10.0,29.630905,1002.2,,TRUE,TRUE,TRUE,,TRUE,,,,CLR,,,,,,,,VFR,,,,,,,,,,,,METAR,31.0
PACM 250456Z AUTO 00000KT 10SM BKN039 BKN047 BKN060 02/01 A2963 RMK AO2 FZRANO TSNO T00220005 BKN V OVC RAB11E26 P0000 SLP030 $,PACM,2015-04-25T04:56:00Z,61.85,-165.57,2.2,0.5,0,0,,10.0,29.630905,1003.0,,TRUE,TRUE,TRUE,,TRUE,TRUE,,,BKN,3900,BKN,4700,BKN,6000,,,VFR,,,,,,0.0050,,,,,,METAR,4.0
MUGM 250456Z 35007KT 9999 FEW035 27/23 A2995 RMK SLP142 T02720228 403280239,MUGM,2015-04-25T04:56:00Z,19.9,-75.2,27.2,22.8,350,7,,6.21,29.949802,1014.2,,,,,,,,,,FEW,3500,,,,,,,VFR,,,,32.8,23.9,,,,,,,METAR,17.0
KTDR 250456Z AUTO 15005KT 10SM FEW220 22/21 A2988 RMK AO2 SLP122 T02240211 TSNO $,KTDR,2015-04-25T04:56:00Z,30.05,-85.52,22.4,21.1,150,5,,10.0,29.878937,1012.2,,TRUE,TRUE,TRUE,,TRUE,,,,FEW,22000,,,,,,,VFR,,,,,,,,,,,,METAR,5.0
KBJJ 250456Z AUTO 10009KT 10SM BKN080 OVC095 06/M03 A2998 RMK AO2 SLP156 T00611033 401281033 TSNO,KBJJ,2015-04-25T04:56:00Z,40.87,-81.88,6.1,-3.3,100,9,,10.0,29.97933,1015.6,,TRUE,TRUE,,,TRUE,,,,BKN,8000,OVC,9500,,,,,VFR,,,,12.8,-3.3,,,,,,,METAR,343.0
KBIH 250456Z AUTO 36013G19KT 10SM SCT100 14/M04 A2987 RMK AO2 SLP081 T01391039 TSNO,KBIH,2015-04-25T04:56:00Z,37.37,-118.35,13.9,-3.9,360,13,19,10.0,29.870079,1008.1,,TRUE,TRUE,,,TRUE,,,,SCT,10000,,,,,,,VFR,,,,,,,,,,,,METAR,1253.0
KBED 250456Z AUTO 30009KT 10SM FEW050 03/M06 A2977 RMK AO2 SLP095 T00281061 400940000 TSNO,KBED,2015-04-25T04:56:00Z,42.47,-71.3,2.8,-6.1,300,9,,10.0,29.769686,1009.5,,TRUE,TRUE,,,TRUE,,,,FEW,5000,,,,,,,VFR,,,,9.4,,,,,,,,METAR,50.0
KART 250456Z AUTO 26004KT 10SM OVC055 02/M02 A2994 RMK AO2 SLP143 T00221022 400500000 TSNO,KART,2015-04-25T04:56:00Z,43.98,-76.03,2.2,-2.2,260,4,,10.0,29.940945,1014.3,,TRUE,TRUE,,,TRUE,,,,OVC,5500,,,,,,,VFR,,,,5.0,,,,,,,,METAR,100.0
KAND 250456Z AUTO 29004KT 10SM FEW100 BKN120 15/09 A2995 RMK AO2 SLP136 T01500089 402280039 TSNO,KAND,2015-04-25T04:56:00Z,34.5,-82.72,15.0,8.9,290,4,,10.0,29.949802,1013.6,,TRUE,TRUE,,,TRUE,,,,FEW,10000,BKN,12000,,,,,VFR,,,,22.8,3.9,,,,,,,METAR,239.0
KAJO 250456Z AUTO 26005KT 10SM FEW042 14/11 A3002 RMK AO2 TSNO T01380105 SLP160 $,KAJO,2015-04-25T04:56:00Z,33.9,-117.6,13.8,10.5,260,5,,10.0,30.02067,1016.0,,TRUE,TRUE,TRUE,,TRUE,,,,FEW,4200,,,,,,,VFR,,,,,,,,,,,,METAR,163.0
K1M4 250456Z AUTO 00000KT 10SM 14/12 A2990 RMK AO2 TSNO T01440116 402330055 RAB03E39 P0001 SLP137 $,K1M4,2015-04-25T04:56:00Z,34.28,-87.6,14.4,11.6,0,0,,10.0,29.899607,1013.7,,TRUE,TRUE,TRUE,,TRUE,,,,,,,,,,,,,,,,23.3,5.5,0.01,,,,,,METAR,284.0
KLAS 250456Z 19015G22KT 10SM SCT120 BKN200 BKN250 19/03 A2974 RMK AO2 PK WND 19026/0413 SLP054 VCBLDU T01890033,KLAS,2015-04-25T04:56:00Z,36.07,-115.17,18.9,3.3,190,15,22,10.0,29.740158,1005.4,,,TRUE,,,,,,,SCT,12000,BKN,20000,BKN,25000,,,VFR,,,,,,,,,,,,METAR,636.0
KJXN 250456Z 20004KT 8SM -RA OVC028 06/03 A3000 RMK AO2 RAB00 SLP165 P0004 T00610028 401441067,KJXN,2015-04-25T04:56:00Z,42.27,-84.47,6.1,2.8,200,4,,8.0,30.0,1016.5,,,TRUE,,,,,,-RA,OVC,2800,,,,,,,MVFR,,,,14.4,-6.7,0.04,,,,,,METAR,305.0
KJAX 250456Z 00000KT 10SM BKN180 17/15 A2999 RMK AO2 SLP155 T01720150 402390161,KJAX,2015-04-25T04:56:00Z,30.5,-81.68,17.2,15.0,0,0,,10.0,29.991142,1015.5,,,TRUE,,,,,,,BKN,18000,,,,,,,VFR,,,,23.9,16.1,,,,,,,METAR,10.0
KITH 250456Z AUTO 32006KT 10SM CLR M02/M06 A2996 RMK AO2 TSNO T10161055 SLP158,KITH,2015-04-25T04:56:00Z,42.47,-76.45,-1.6,-5.5,320,6,,10.0,29.958662,1015.8,,TRUE,TRUE,,,TRUE,,,,CLR,,,,,,,,VFR,,,,,,,,,,,,METAR,335.0
KISP 250456Z AUTO 32009KT 10SM CLR 03/M06 A2989 RMK AO2 SLP120 T00281061 400830028 TSNO,KISP,2015-04-25T04:56:00Z,40.8,-73.1,2.8,-6.1,320,9,,10.0,29.890747,1012.0,,TRUE,TRUE,,,TRUE,,,,CLR,,,,,,,,VFR,,,,8.3,2.8,,,,,,,METAR,43.0
KINW 250456Z AUTO 20011KT 10SM FEW090 10/03 A2997 RMK AO2 SLP114 T01000028 TSNO,KINW,2015-04-25T04:56:00Z,35.03,-110.72,10.0,2.8,200,11,,10.0,29.970472,1011.4,,TRUE,TRUE,,,TRUE,,,,FEW,9000,,,,,,,VFR,,,,,,,,,,,,METAR,1490.0
KIGX 250456Z AUTO 00000KT 10SM CLR 09/02 A2994 RMK AO2 SLP137 T00890022 401940039 TSNO,KIGX,2015-04-25T04:56:00Z,35.93,-79.07,8.9,2.2,0,0,,10.0,29.940945,1013.7,,TRUE,TRUE,,,TRUE,,,,CLR,,,,,,,,VFR,,,,19.4,3.9,,,,,,,METAR,155.0
KHYA 250456Z AUTO 28007KT 10SM OVC050 04/M04 A2976 RMK AO2 SLP079 T00391044 401000022 TSNO,KHYA,2015-04-25T04:56:00Z,41.67,-70.27,3.9,-4.4,280,7,,10.0,29.760826,1007.9,,TRUE,TRUE,,,TRUE,,,,OVC,5000,,,,,,,VFR,,,,10.0,2.2,,,,,,,METAR,22.0
KHWV 250456Z AUTO 30005KT 10SM CLR 02/M06 A2990 RMK AO2 SLP125 T00221061 400940022 TSNO,KHWV,2015-04-25T04:56:00Z,40.82,-72.87,2.2,-6.1,300,5,,10.0,29.899607,1012.5,,TRUE,TRUE,,,TRUE,,,,CLR,,,,,,,,VFR,,,,9.4,2.2,,,,,,,METAR,21.0
KHPN 250456Z 30009KT 10SM CLR 02/M07 A2988 RMK AO2 SLP124 T00221067 400720017,KHPN,2015-04-25T04:56:00Z,41.07,-73.7,2.2,-6.7,300,9,,10.0,29.878937,1012.4,,,TRUE,,,,,,,CLR,,,,,,,,VFR,,,,7.2,1.7,,,,,,,METAR,121.0
KY50 250456Z AUTO 08007KT 10SM SCT009 OVC038 03/03 A2997 RMK AO2 TSNO T00330027 SLP150,KY50,2015-04-25T04:56:00Z,44.03,-89.3,3.3,2.7,80,7,,10.0,29.970472,1015.0,,TRUE,TRUE,,,TRUE,,,,SCT,900,OVC,3800,,,,,VFR,,,,,,,,,,,,METAR,262.0
KWMC 250456Z AUTO 21004KT 10SM OVC060 08/01 A2985 RMK AO2 SLP095 T00780006 TSNO,KWMC,2015-04-25T04:56:00Z,40.9,-117.8,7.8,0.6,210,4,,10.0,29.84941,1009.5,,TRUE,TRUE,,,TRUE,,,,OVC,6000,,,,,,,VFR,,,,,,,,,,,,METAR,1310.0
KWJF 250456Z AUTO 22016G24KT 10SM BKN060 11/08 A2997 RMK AO2 SLP146 T01110078 TSNO,KWJF,2015-04-25T04:56:00Z,34.72,-118.22,11.1,7.8,220,16,24,10.0,29.970472,1014.6,,TRUE,TRUE,,,TRUE,,,,BKN,6000,,,,,,,VFR,,,,,,,,,,,,METAR,715.0
KVPZ 250456Z AUTO 13012KT 5SM RA BKN060 OVC075 08/04 A2987 RMK AO2 SLP116 P0008 T00780039 TSNO,KVPZ,2015-04-25T04:56:00Z,41.45,-87.0,7.8,3.9,130,12,,5.0,29.870079,1011.6,,TRUE,TRUE,,,TRUE,,,RA,BKN,6000,OVC,7500,,,,,MVFR,,,,,,0.08,,,,,,METAR,231.0
KUCP 250456Z AUTO 00000KT 10SM CLR 02/M07 A3001 RMK AO2 TSNO T00161066 SLP182,KUCP,2015-04-25T04:56:00Z,41.03,-80.42,1.6,-6.6,0,0,,10.0,30.008858,1018.2,,TRUE,TRUE,,,TRUE,,,,CLR,,,,,,,,VFR,,,,,,,,,,,,METAR,327.0
KTPH 250456Z AUTO 35014KT 10SM CLR 11/M05 A2988 RMK AO2 SLP080 T01061050 TSNO,KTPH,2015-04-25T04:56:00Z,38.05,-117.08,10.6,-5.0,350,14,,10.0,29.878937,1008.0,,TRUE,TRUE,,,TRUE,,,,CLR,,,,,,,,VFR,,,,,,,,,,,,METAR,1652.0
KSLE 250456Z AUTO 20006KT 10SM FEW065 SCT085 09/05 A2992 RMK AO2 SLP133 T00940050 TSNO,KSLE,2015-04-25T04:56:00Z,44.9,-123.0,9.4,5.0,200,6,,10.0,29.920275,1013.3,,TRUE,TRUE,,,TRUE,,,,FEW,6500,SCT,8500,,,,,VFR,,,,,,,,,,,,METAR,59.0
KSHV 250456Z 18009KT 4SM -TSRA BR BKN034CB BKN050 OVC065 19/18 A2977 RMK AO2 TSE07B35 SLP080 FRQ LTGICCG ALQDS TS ALQDS MOV E P0029 T01940183,KSHV,2015-04-25T04:56:00Z,32.45,-93.83,19.4,18.3,180,9,,4.0,29.769686,1008.0,,,TRUE,,,,,,-TSRA BR,BKN,3400,BKN,5000,OVC,6500,,,MVFR,,,,,,0.29,,,,,,METAR,83.0
KSGH 250456Z AUTO 09004KT 8SM BKN070 BKN100 09/03 A2993 RMK AO2 TSNO T00880033 SLP135,KSGH,2015-04-25T04:56:00Z,39.83,-83.83,8.8,3.3,90,4,,8.0,29.929134,1013.5,,TRUE,TRUE,,,TRUE,,,,BKN,7000,BKN,10000,,,,,VFR,,,,,,,,,,,,METAR,321.0
KSFO 250456Z 17010KT 10SM FEW013 BKN016 OVC023 13/09 A3001 RMK AO2 SLP161 T01330094,KSFO,2015-04-25T04:56:00Z,37.62,-122.37,13.3,9.4,170,10,,10.0,30.008858,1016.1,,,TRUE,,,,,,,FEW,1300,BKN,1600,OVC,2300,,,MVFR,,,,,,,,,,,,METAR,3.0
KSDF 250456Z 10004KT 10SM -RA OVC044 14/04 A2986 RMK AO2 RAB12E31B50 SLP109 P0000 T01440039 401830033,KSDF,2015-04-25T04:56:00Z,38.18,-85.73,14.4,3.9,100,4,,10.0,29.861221,1010.9,,,TRUE,,,,,,-RA,OVC,4400,,,,,,,VFR,,,,18.3,3.3,0.0050,,,,,,METAR,146.0
KSBP 250456Z AUTO 30007KT 10SM OVC013 12/09 A3005 RMK AO2 SLP176 T01220089 TSNO,KSBP,2015-04-25T04:56:00Z,35.23,-120.63,12.2,8.9,300,7,,10.0,30.050198,1017.6,,TRUE,TRUE,,,TRUE,,,,OVC,1300,,,,,,,MVFR,,,,,,,,,,,,METAR,59.0
KGRD 250456Z AUTO 17003KT 10SM BKN120 14/09 A2996 RMK AO2 SLP140 T01440089 402280044 TSNO,KGRD,2015-04-25T04:56:00Z,34.25,-82.15,14.4,8.9,170,3,,10.0,29.958662,1014.0,,TRUE,TRUE,,,TRUE,,,,BKN,12000,,,,,,,VFR,,,,22.8,4.4,,,,,,,METAR,185.0
KGON 250456Z AUTO 31007KT 10SM CLR 03/M07 A2984 RMK AO2 SLP105 T00281072 401000022 TSNO,KGON,2015-04-25T04:56:00Z,41.33,-72.05,2.8,-7.2,310,7,,10.0,29.840551,1010.5,,TRUE,TRUE,,,TRUE,,,,CLR,,,,,,,,VFR,,,,10.0,2.2,,,,,,,METAR,3.0
KFSD 250456Z 14010KT 10SM OVC010 11/08 A2961 RMK AO2 SLP027 T01110083,KFSD,2015-04-25T04:56:00Z,43.58,-96.75,11.1,8.3,140,10,,10.0,29.610237,1002.7,,,TRUE,,,,,,,OVC,1000,,,,,,,MVFR,,,,,,,,,,,,METAR,436.0
KELZ 250456Z AUTO 29006KT 10SM CLR M03/M08 A2993 RMK AO2 SLP157 T10281083 400501033 TSNO $,KELZ,2015-04-25T04:56:00Z,42.1,-77.98,-2.8,-8.3,290,6,,10.0,29.929134,1015.7,,TRUE,TRUE,TRUE,,TRUE,,,,CLR,,,,,,,,VFR,,,,5.0,-3.3,,,,,,,METAR,646.0
KEKQ 250456Z AUTO 00000KT 10SM BKN048 13/06 A2991 RMK AO2 TSNO T01330055 402001011 SLP127,KEKQ,2015-04-25T04:56:00Z,36.85,-84.85,13.3,5.5,0,0,,10.0,29.911417,1012.7,,TRUE,TRUE,,,TRUE,,,,BKN,4800,,,,,,,VFR,,,,20.0,-1.1,,,,,,,METAR,294.0
KEKO 250456Z AUTO 25005KT 10SM FEW060 OVC100 05/02 A2984 RMK AO2 RAB04E18 SLP098 P0000 T00500022 TSNO,KEKO,2015-04-25T04:56:00Z,40.82,-115.78,5.0,2.2,250,5,,10.0,29.840551,1009.8,,TRUE,TRUE,,,TRUE,,,,FEW,6000,OVC,10000,,,,,VFR,,,,,,0.0050,,,,,,METAR,1547.0
KEED 250456Z AUTO 21016G25KT 10SM CLR 23/06 A2979 RMK AO2 PK WND 20026/0400 SLP065 T02280056 TSNO,KEED,2015-04-25T04:56:00Z,34.77,-114.62,22.8,5.6,210,16,25,10.0,29.790354,1006.5,,TRUE,TRUE,,,TRUE,,,,CLR,,,,,,,,VFR,,,,,,,,,,,,METAR,302.0
KEAU 250456Z AUTO 13012G17KT 10SM OVC039 06/02 A2988 RMK AO2 SLP121 T00610017 TSNO $,KEAU,2015-04-25T04:56:00Z,44.87,-91.47,6.1,1.7,130,12,17,10.0,29.878937,1012.1,,TRUE,TRUE,TRUE,,TRUE,,,,OVC,3900,,,,,,,VFR,,,,,,,,,,,,METAR,276.0
KDAY 250456Z 14005KT 10SM -RA FEW055 BKN075 OVC085 11/01 A2992 RMK AO2 RAB46 SLP132 P0000 T01110011 401611006,KDAY,2015-04-25T04:56:00Z,39.9,-84.22,11.1,1.1,140,5,,10.0,29.920275,1013.2,,,TRUE,,,,,,-RA,FEW,5500,BKN,7500,OVC,8500,,,VFR,,,,16.1,-0.6,0.0050,,,,,,METAR,305.0
KCXY 250456Z AUTO VRB05KT 10SM CLR 08/M12 A2997 RMK AO2 SLP151 T00781122 401330022 TSNO,KCXY,2015-04-25T04:56:00Z,40.22,-76.85,7.8,-12.2,0,5,,10.0,29.970472,1015.1,,TRUE,TRUE,,,TRUE,,,,CLR,,,,,,,,VFR,,,,13.3,2.2,,,,,,,METAR,106.0
KCTB 250456Z AUTO 28011KT 10SM CLR 06/M07 A2972 RMK AO2 SLP067 T00561072 TSNO,KCTB,2015-04-25T04:56:00Z,48.6,-112.37,5.6,-7.2,280,11,,10.0,29.719488,1006.7,,TRUE,TRUE,,,TRUE,,,,CLR,,,,,,,,VFR,,,,,,,,,,,,METAR,1175.0
KCHS 250456Z 20004KT 10SM SCT200 14/09 A3000 RMK AO2 SLP159 T01440089 402280128,KCHS,2015-04-25T04:56:00Z,32.9,-80.03,14.4,8.9,200,4,,10.0,30.0,1015.9,,,TRUE,,,,,,,SCT,20000,,,,,,,VFR,,,,22.8,12.8,,,,,,,METAR,13.0
KCAE 250456Z 00000KT 10SM SCT200 16/07 A2996 RMK AO2 SLP144 T01560072 402390061,KCAE,2015-04-25T04:56:00Z,33.93,-81.12,15.6,7.2,0,0,,10.0,29.958662,1014.4,,,TRUE,,,,,,,SCT,20000,,,,,,,VFR,,,,23.9,6.1,,,,,,,METAR,70.0
KBOK 250456Z AUTO 00000KT 8SM OVC060 08/08 A2997 RMK AO2 TSNO T00830083 SLP150,KBOK,2015-04-25T04:56:00Z,42.07,-124.28,8.3,8.3,0,0,,8.0,29.970472,1015.0,,TRUE,TRUE,,,TRUE,,,,OVC,6000,,,,,,,VFR,,,,,,,,,,,,METAR,140.0
KBMI 250456Z AUTO 12009KT 10SM OVC038 12/03 A2982 RMK AO2 TSNO T01220027 SLP096,KBMI,2015-04-25T04:56:00Z,40.47,-88.92,12.2,2.7,120,9,,10.0,29.819881,1009.6,,TRUE,TRUE,,,TRUE,,,,OVC,3800,,,,,,,VFR,,,,,,,,,,,,METAR,267.0
KRDM 250456Z AUTO 28005KT 10SM SCT055 05/M02 A2986 RMK AO2 SLP118 T00501017 TSNO,KRDM,2015-04-25T04:56:00Z,44.25,-121.15,5.0,-1.7,280,5,,10.0,29.861221,1011.8,,TRUE,TRUE,,,TRUE,,,,SCT,5500,,,,,,,VFR,,,,,,,,,,,,METAR,938.0
KMTW 250456Z AUTO 00000KT 10SM OVC055 04/M01 A3001 RMK AO2 SLP187 T00391011 TSNO,KMTW,2015-04-25T04:56:00Z,44.12,-87.67,3.9,-1.1,0,0,,10.0,30.008858,1018.7,,TRUE,TRUE,,,TRUE,,,,OVC,5500,,,,,,,VFR,,,,,,,,,,,,METAR,198.0
KMDT 250456Z 34007KT 10SM CLR 07/M12 A2996 RMK AO2 SLP146 T00671122 401390022,KMDT,2015-04-25T04:56:00Z,40.2,-76.77,6.7,-12.2,340,7,,10.0,29.958662,1014.6,,,TRUE,,,,,,,CLR,,,,,,,,VFR,,,,13.9,2.2,,,,,,,METAR,95.0
KM19 250456Z AUTO 16010KT 10SM OVC004 14/14 A2973 RMK AO2 TSNO T01380138 401610105 SLP067,KM19,2015-04-25T04:56:00Z,35.65,-91.17,13.8,13.8,160,10,,10.0,29.731298,1006.7,,TRUE,TRUE,,,TRUE,,,,OVC,400,,,,,,,LIFR,,,,16.1,10.5,,,,,,,METAR,73.0
KLWS 250456Z 18004KT 10SM CLR 07/M01 A2982 RMK AO2 SLP100 T00721006,KLWS,2015-04-25T04:56:00Z,46.37,-117.02,7.2,-0.6,180,4,,10.0,29.819881,1010.0,,,TRUE,,,,,,,CLR,,,,,,,,VFR,,,,,,,,,,,,METAR,438.0
KLRD 250456Z AUTO 07008KT 5SM HZ CLR 27/24 A2972 RMK AO2 TSNO T02720244 SLP054,KLRD,2015-04-25T04:56:00Z,27.55,-99.47,27.2,24.4,70,8,,5.0,29.719488,1005.4,,TRUE,TRUE,,,TRUE,,,HZ,CLR,,,,,,,,MVFR,,,,,,,,,,,,METAR,155.0
KLNR 250456Z AUTO 09015KT 10SM BKN045 OVC055 05/01 A2990 RMK AO2 SLP123 T00500011 TSNO,KLNR,2015-04-25T04:56:00Z,43.22,-90.18,5.0,1.1,90,15,,10.0,29.899607,1012.3,,TRUE,TRUE,,,TRUE,,,,BKN,4500,OVC,5500,,,,,VFR,,,,,,,,,,,,METAR,217.0
K2WX 250456Z AUTO 09012KT 09/01 A2957 RMK AO1 SLP009 T00940006,K2WX,2015-04-25T04:56:00Z,45.6,-103.55,9.4,0.6,90,12,,,29.568897,1000.9,,TRUE,TRUE,,,,,,,,,,,,,,,,,,,,,,,,,,,METAR,915.0
KABH 250456Z AUTO 33004KT 10SM CLR M17/ A2974 RMK AO2 SLPNO T1172 $,KABH,2015-04-25T04:56:00Z,38.75,-104.3,-17.2,,330,4,,10.0,29.740158,,,TRUE,TRUE,TRUE,,,,,,CLR,,,,,,,,VFR,,,,,,,,,,,,METAR,1840.0
KNXF 250456Z AUTO 16016KT 7SM FEW021 OVC032 16/12 A3003 RMK AO2 PK WND 15026/0407 SLP253 T01560122 $,KNXF,2015-04-25T04:56:00Z,33.28,-117.45,15.6,12.2,160,16,,7.0,30.029528,1025.3,,TRUE,TRUE,TRUE,,,,,,FEW,2100,OVC,3200,,,,,VFR,,,,,,,,,,,,METAR,27.0
PASY 250456Z AUTO 26018G23KT 10SM SCT019 04/M01 A3031 RMK AO2 SLP263 T00391011 TSNO,PASY,2015-04-25T04:56:00Z,52.72,174.12,3.9,-1.1,260,18,23,10.0,30.31004,1026.3,,TRUE,TRUE,,,TRUE,,,,SCT,1900,,,,,,,VFR,,,,,,,,,,,,METAR,31.0
KGNR 250456Z AUTO 30007KT 260V330 M02/M03 A2956 RMK AO1 SLP027 T10171033 400391017,KGNR,2015-04-25T04:56:00Z,45.47,-69.55,-1.7,-3.3,300,7,,,29.56004,1002.7,,TRUE,TRUE,,,,,,,,,,,,,,,,,,,3.9,-1.7,,,,,,,METAR,427.0
KP28 250456Z AUTO 31007KT 15/12 A2950 RMK AO1 SLP979 P0001 T01500122,KP28,2015-04-25T04:56:00Z,37.28,-98.55,15.0,12.2,310,7,,,29.500984,997.9,,TRUE,TRUE,,,,,,,,,,,,,,,,,,,,,0.01,,,,,,METAR,469.0
K8D3 250456Z AUTO 13014KT 07/06 A2973 RMK AO1 SLP071 T00720061,K8D3,2015-04-25T04:56:00Z,45.67,-96.98,7.2,6.1,130,14,,,29.731298,1007.1,,TRUE,TRUE,,,,,,,,,,,,,,,,,,,,,,,,,,,METAR,354.0
KNGP 250456Z AUTO 16013KT 6SM -TSRA BR BKN032 BKN039 OVC050 25/24 A2981 RMK AO2 RAB32 TSB06 SLP094 P0001 T02500239,KNGP,2015-04-25T04:56:00Z,27.68,-97.27,25.0,23.9,160,13,,6.0,29.811024,1009.4,,TRUE,TRUE,,,,,,-TSRA BR,BKN,3200,BKN,3900,OVC,5000,,,VFR,,,,,,0.01,,,,,,METAR,6.0
KALK 250456Z AUTO 22010KT 10SM CLR 12/M01 A3004 RMK AO2 SLP109 T01171006,KALK,2015-04-25T04:56:00Z,31.6,-110.43,11.7,-0.6,220,10,,10.0,30.041338,1010.9,,TRUE,TRUE,,,,,,,CLR,,,,,,,,VFR,,,,,,,,,,,,METAR,1453.0
PHBK 250456Z AUTO 13011G19KT 10SM CLR 25/21 A2993 RMK AO2 SLP138 T02500206 $,PHBK,2015-04-25T04:56:00Z,22.03,-159.78,25.0,20.6,130,11,19,10.0,29.929134,1013.8,,TRUE,TRUE,TRUE,,,,,,CLR,,,,,,,,VFR,,,,,,,,,,,,METAR,8.0
KNRS 250456Z AUTO 22005KT 10SM OVC035 17/11 A3004 RMK AO2 SLP171 T01670111 $,KNRS,2015-04-25T04:56:00Z,32.57,-117.12,16.7,11.1,220,5,,10.0,30.041338,1017.1,,TRUE,TRUE,TRUE,,,,,,OVC,3500,,,,,,,VFR,,,,,,,,,,,,METAR,7.0
K79J 250456Z AUTO 00000KT 10SM CLR 21/17 A2988 RMK AO2 SLP115 T02110167 403000167 $,K79J,2015-04-25T04:56:00Z,31.32,-86.4,21.1,16.7,0,0,,10.0,29.878937,1011.5,,TRUE,TRUE,TRUE,,,,,,CLR,,,,,,,,VFR,,,,30.0,16.7,,,,,,,METAR,94.0
KHND 250456Z AUTO 21016KT 10SM CLR 17/04 A2980 RMK AO2 SLP079 T01720044 TSNO,KHND,2015-04-25T04:56:00Z,35.98,-115.13,17.2,4.4,210,16,,10.0,29.799213,1007.9,,TRUE,TRUE,,,TRUE,,,,CLR,,,,,,,,VFR,,,,,,,,,,,,METAR,749.0
KDIK 250456Z AUTO 10007KT 10SM CLR 06/01 A2964 RMK AO2 SLP043 T00610006 TSNO,KDIK,2015-04-25T04:56:00Z,46.8,-102.8,6.1,0.6,100,7,,10.0,29.639763,1004.3,,TRUE,TRUE,,,TRUE,,,,CLR,,,,,,,,VFR,,,,,,,,,,,,METAR,788.0
KNID 250456Z AUTO 27019G27KT 10SM CLR 18/M01 A2976 RMK AO2 PK WND 28031/0421 SLP066 T01831011 $,KNID,2015-04-25T04:56:00Z,35.67,-117.67,18.3,-1.1,270,19,27,10.0,29.760826,1006.6,,TRUE,TRUE,TRUE,,,,,,CLR,,,,,,,,VFR,,,,,,,,,,,,METAR,696.0
KNLC 250456Z AUTO 32015KT 10SM CLR 18/02 A2998 RMK AO2 SLP150 T01780017,KNLC,2015-04-25T04:56:00Z,36.32,-119.95,17.8,1.7,320,15,,10.0,29.97933,1015.0,,TRUE,TRUE,,,,,,,CLR,,,,,,,,VFR,,,,,,,,,,,,SPECI,72.0
KNTD 250456Z 27005KT 10SM FEW045 SCT260 15/11 A3002 RMK AO2 SLP165 T01500106 $,KNTD,2015-04-25T04:56:00Z,34.12,-119.12,15.0,10.6,270,5,,10.0,30.02067,1016.5,,,TRUE,TRUE,,,,,,FEW,4500,SCT,26000,,,,,VFR,,,,,,,,,,,,METAR,4.0
KNDZ 250456Z AUTO 14004KT 8SM BKN007 OVC026 22/20 A2988 RMK AO2 SLP102 T02220200 $,KNDZ,2015-04-25T04:56:00Z,30.7,-87.02,22.2,20.0,140,4,,8.0,29.878937,1010.2,,TRUE,TRUE,TRUE,,,,,,BKN,700,OVC,2600,,,,,IFR,,,,,,,,,,,,METAR,54.0
KNYG 250456Z AUTO 30007KT 10SM CLR 07/01 A2998 RMK AO2 SLP151 T00720006 401720056,KNYG,2015-04-25T04:56:00Z,38.5,-77.28,7.2,0.6,300,7,,10.0,29.97933,1015.1,,TRUE,TRUE,,,,,,,CLR,,,,,,,,VFR,,,,17.2,5.6,,,,,,,METAR,4.0
KNBC 250456Z AUTO 00000KT 10SM CLR 18/12 A2999 RMK AO2 SLP156 T01830117 402330139,KNBC,2015-04-25T04:56:00Z,32.47,-80.72,18.3,11.7,0,0,,10.0,29.991142,1015.6,,TRUE,TRUE,,,,,,,CLR,,,,,,,,VFR,,,,23.3,13.9,,,,,,,METAR,12.0
KOFK 250456Z AUTO 12008KT 10SM BKN019 OVC029 15/12 A2953 RMK AO2 SLP993 T01500117 TSNO,KOFK,2015-04-25T04:56:00Z,41.98,-97.43,15.0,11.7,120,8,,10.0,29.530512,999.3,,TRUE,TRUE,,,TRUE,,,,BKN,1900,OVC,2900,,,,,MVFR,,,,,,,,,,,,METAR,470.0
KD07 250456Z AUTO 05007KT 08/02 A2963 RMK AO1 SLP034 T00780022,KD07,2015-04-25T04:56:00Z,45.03,-102.02,7.8,2.2,50,7,,,29.630905,1003.4,,TRUE,TRUE,,,,,,,,,,,,,,,,,,,,,,,,,,,METAR,784.0
KMHS 250456Z AUTO VRB04KT 10SM BKN037 OVC047 05/02 A2986 RMK AO2 RAE41 SLP133 P0001 T00500022,KMHS,2015-04-25T04:56:00Z,41.32,-122.32,5.0,2.2,0,4,,10.0,29.861221,1013.3,,TRUE,TRUE,,,,,,,BKN,3700,OVC,4700,,,,,VFR,,,,,,0.01,,,,,,METAR,1078.0
KSPD 250456Z AUTO 35013KT 12/03 A2968 RMK AO1 SLP002 T01170028,KSPD,2015-04-25T04:56:00Z,37.28,-102.62,11.7,2.8,350,13,,,29.681103,1000.2,,TRUE,TRUE,,,,,,,,,,,,,,,,,,,,,,,,,,,METAR,1335.0
KNBT 250456Z AUTO 21004KT 10SM CLR A2997 RMK AO2 SLP155 $,KNBT,2015-04-25T04:56:00Z,35.02,-76.47,,,210,4,,10.0,29.970472,1015.5,,TRUE,TRUE,TRUE,,,,,,CLR,,,,,,,,VFR,,,,,,,,,,,,METAR,5.0
KNFE 250456Z AUTO 00000KT 10SM CLR 09/05 A2996 RMK AO2 SLP149 T00940050 402000061,KNFE,2015-04-25T04:56:00Z,36.7,-76.13,9.4,5.0,0,0,,10.0,29.958662,1014.9,,TRUE,TRUE,,,,,,,CLR,,,,,,,,VFR,,,,20.0,6.1,,,,,,,METAR,5.0
KNXP 250456Z AUTO 00000KT 10SM CLR 16/07 A2994 RMK AO2 SLP113 T01560067 $,KNXP,2015-04-25T04:56:00Z,34.28,-116.17,15.6,6.7,0,0,,10.0,29.940945,1011.3,,TRUE,TRUE,TRUE,,,,,,CLR,,,,,,,,VFR,,,,,,,,,,,,METAR,626.0
KNFL 250456Z 29010KT 10SM FEW050 BKN090 BKN220 11/M01 A2985 RMK AO2 SLP084 T01111011,KNFL,2015-04-25T04:56:00Z,39.42,-118.7,11.1,-1.1,290,10,,10.0,29.84941,1008.4,,,TRUE,,,,,,,FEW,5000,BKN,9000,BKN,22000,,,VFR,,,,,,,,,,,,METAR,1199.0
KSXT 250456Z AUTO 34005KT 3SM -RA BR FEW016 OVC026 02/02 A2989 RMK AO2 RAB23 SLP136 P0001 T00220022,KSXT,2015-04-25T04:56:00Z,42.6,-123.37,2.2,2.2,340,5,,3.0,29.890747,1013.6,,TRUE,TRUE,,,,,,-RA BR,FEW,1600,OVC,2600,,,,,MVFR,,,,,,0.01,,,,,,METAR,1170.0
KNUW 250456Z 30007KT 10SM FEW025 FEW065 SCT120 SCT250 09/03 A2987 RMK AO2 SLP118 T00940033 VISNO E $,KNUW,2015-04-25T04:56:00Z,48.35,-122.65,9.4,3.3,300,7,,10.0,29.870079,1011.8,,,TRUE,TRUE,,,,,,FEW,2500,FEW,6500,SCT,12000,SCT,25000,VFR,,,,,,,,,,,,METAR,14.0
KNCA 250456Z AUTO 00000KT 10SM CLR 12/07 A2997 RMK AO2 SLP151 T01170067 402060083,KNCA,2015-04-25T04:56:00Z,34.72,-77.45,11.7,6.7,0,0,,10.0,29.970472,1015.1,,TRUE,TRUE,,,,,,,CLR,,,,,,,,VFR,,,,20.6,8.3,,,,,,,METAR,8.0
KNTU 250456Z 13004KT 10SM SCT250 09/04 A2996 RMK AO2 SLP147 T00940039 401830078,KNTU,2015-04-25T04:56:00Z,36.82,-76.02,9.4,3.9,130,4,,10.0,29.958662,1014.7,,,TRUE,,,,,,,SCT,25000,,,,,,,VFR,,,,18.3,7.8,,,,,,,METAR,7.0
KNQI 250456Z AUTO 13013KT 4SM -RA BR FEW110 27/26 A2971 RMK AO2 WSHFT 0355 RAB14 SLP059 P0004 T02670261 TSNO $,KNQI,2015-04-25T04:56:00Z,27.5,-97.82,26.7,26.1,130,13,,4.0,29.71063,1005.9,,TRUE,TRUE,TRUE,,TRUE,,,-RA BR,FEW,11000,,,,,,,MVFR,,,,,,0.04,,,,,,METAR,15.0
KGNA 250456Z AUTO 05008KT 02/M07 A3003 RMK AO1 SLP177 T00221067,KGNA,2015-04-25T04:56:00Z,47.75,-90.35,2.2,-6.7,50,8,,,30.029528,1017.7,,TRUE,TRUE,,,,,,,,,,,,,,,,,,,,,,,,,,,METAR,185.0
KP60 250456Z AUTO 00000KT 01/00 A2975 RMK AO1 SLP047 T00060000 $,KP60,2015-04-25T04:56:00Z,44.55,-110.42,0.6,0.0,0,0,,,29.749016,1004.7,,TRUE,TRUE,TRUE,,,,,,,,,,,,,,,,,,,,,,,,,,METAR,2388.0
KHFF 250456Z AUTO 13001KT 10SM CLR 10/08 A2999 RMK AO2 SLP157 T01000082 402180043 TSNO $,KHFF,2015-04-25T04:56:00Z,35.02,-79.5,10.0,8.2,130,1,,10.0,29.991142,1015.7,,TRUE,TRUE,TRUE,,TRUE,,,,CLR,,,,,,,,VFR,,,,21.8,4.3,,,,,,,METAR,115.0
KQRH 250456Z AUTO 35001KT 9999 FEW019 SCT030 31/23 A2987 RMK AO2 SLP108 T03050228,KQRH,2015-04-25T04:56:00Z,100.65,-1000.65,30.5,22.8,350,1,,6.21,29.870079,1010.8,,TRUE,TRUE,,,,,,,FEW,1900,SCT,3000,,,,,VFR,,,,,,,,,,,,METAR,999.0
KQHY 250456Z AUTO 17005G11KT 10SM FEW031 FEW050 23/22 A2989 RMK AO2 SLP128 T02300219 402650181,KQHY,2015-04-25T04:56:00Z,100.65,-1000.65,23.0,21.9,170,5,11,10.0,29.890747,1012.8,,TRUE,TRUE,,,,,,,FEW,3100,FEW,5000,,,,,VFR,,,,26.5,18.1,,,,,,,METAR,999.0
KQBL 250456Z AUTO 14003KT 10SM FEW050 23/22 A2988 RMK AO2 SLPNO T02310216 402750229,KQBL,2015-04-25T04:56:00Z,100.65,-1000.65,23.1,21.6,140,3,,10.0,29.878937,,,TRUE,TRUE,,,,,,,FEW,5000,,,,,,,VFR,,,,27.5,22.9,,,,,,,METAR,999.0
K1YT 250456Z AUTO 11007KT 10SM FEW065 BKN090 08/00 A2981 RMK AO2 SLPNO T00831001,K1YT,2015-04-25T04:56:00Z,46.67,-120.45,8.3,-0.1,110,7,,10.0,29.811024,,,TRUE,TRUE,,,,,,,FEW,6500,BKN,9000,,,,,VFR,,,,,,,,,,,,METAR,438.0
KM63 250456Z AUTO 18011KT 10SM CLR 15/M03 A2995 RMK AO2 LTG DSNT SW SLP093 T01541026,KM63,2015-04-25T04:56:00Z,32.05,-106.15,15.4,-2.6,180,11,,10.0,29.949802,1009.3,,TRUE,TRUE,,,,,,,CLR,,,,,,,,VFR,,,,,,,,,,,,METAR,1283.0
KGFA 250456Z AUTO 15005KT 10SM -RA FEW028 OVC041 05/05 A2975 RMK AO2 SLP091 P0002 T00540046 TSNO $,KGFA,2015-04-25T04:56:00Z,47.5,-111.17,5.4,4.6,150,5,,10.0,29.749016,1009.1,,TRUE,TRUE,TRUE,,TRUE,,,-RA,FEW,2800,OVC,4100,,,,,VFR,,,,,,0.02,,,,,,METAR,1075.0
K4MR 250456Z AUTO 24011KT 10SM CLR 12/M01 A2984 RMK AO2 SLP069 T01161015 $,K4MR,2015-04-25T04:56:00Z,34.3,-103.8,11.6,-1.5,240,11,,10.0,29.840551,1006.9,,TRUE,TRUE,TRUE,,,,,,CLR,,,,,,,,VFR,,,,,,,,,,,,METAR,1326.0
KDUG 250456Z AUTO 22006KT 10SM SCT080 12/M01 A3001 RMK AO2 SLP121 T01221006 TSNO,KDUG,2015-04-25T04:56:00Z,31.47,-109.58,12.2,-0.6,220,6,,10.0,30.008858,1012.1,,TRUE,TRUE,,,TRUE,,,,SCT,8000,,,,,,,VFR,,,,,,,,,,,,METAR,1265.0
KRZR 250455Z AUTO 00000KT 10SM OVC080 13/09 A2992 RMK,KRZR,2015-04-25T04:55:00Z,35.22,-84.8,13.0,9.0,0,0,,10.0,29.920275,,,TRUE,,,,,,,,OVC,8000,,,,,,,VFR,,,,,,,,,,,,METAR,263.0
KQTZ 250455Z 34004KT 9999 CLR 16/02 A3021 RMK SLP231 WND/ALSTG/SLP ESTMD,KQTZ,2015-04-25T04:55:00Z,100.65,-1000.65,16.0,2.0,340,4,,6.21,30.209646,1023.1,,,,,,,,,,CLR,,,,,,,,VFR,,,,,,,,,,,,SPECI,999.0
KQAJ 250455Z 33015G23KT 9000 BLDU SCT080 19/00 A3012 RMK SLP221 T01900001,KQAJ,2015-04-25T04:55:00Z,100.65,-1000.65,19.0,0.1,330,15,23,5.59,30.121063,1022.1,,,,,,,,,BLDU,SCT,8000,,,,,,,VFR,,,,,,,,,,,,SPECI,999.0
PATL 250455Z AUTO 09007KT 10SM CLR 09/M09 A2964 RMK AO2 SLP047 T00861086 $,PATL,2015-04-25T04:55:00Z,62.9,-155.97,8.6,-8.6,90,7,,10.0,29.639763,1004.7,,TRUE,TRUE,TRUE,,,,,,CLR,,,,,,,,VFR,,,,,,,,,,,,METAR,294.0
RJOI 250455Z 17006KT 9999 SKC 21/12 A3005 RMK SLP174 T02110122,RJOI,2015-04-25T04:55:00Z,34.13,132.22,21.1,12.2,170,6,,6.21,30.050198,1017.4,,,,,,,,,,SKC,,,,,,,,VFR,,,,,,,,,,,,METAR,2.0
KQHN 250455Z VRB03KT 9999 CLR 31/M03 A2997 RMK SLP059 Q1015 DA5875,KQHN,2015-04-25T04:55:00Z,100.65,-1000.65,31.0,-3.0,0,3,,6.21,29.970472,1005.9,,,,,,,,,,CLR,,,,,,,,VFR,,,,,,,,,,,,METAR,999.0
OPMT 250455Z 00000KT 4000 HZ NSC 32/14 Q1005 NOSIG,OPMT,2015-04-25T04:55:00Z,30.18,71.42,32.0,14.0,0,0,,2.49,29.675198,,,,,,TRUE,,,,HZ,,,,,,,,,,,,,,,,,,,,,METAR,123.0
KBBD 250455Z AUTO 00000KT 10SM CLR 18/17 A2979 RMK,KBBD,2015-04-25T04:55:00Z,31.18,-99.32,18.0,17.0,0,0,,10.0,29.790354,,,TRUE,,,,,,,,CLR,,,,,,,,VFR,,,,,,,,,,,,METAR,557.0
KBGF 250455Z AUTO 00000KT 7SM SCT038 OVC047 14/09 A2994 RMK,KBGF,2015-04-25T04:55:00Z,35.18,-86.07,14.0,9.0,0,0,,7.0,29.940945,,,TRUE,,,,,,,,SCT,3800,OVC,4700,,,,,VFR,,,,,,,,,,,,METAR,299.0
KSYI 250455Z AUTO 14004KT 8SM FEW039 BKN047 OVC055 13/12 A2991 RMK,KSYI,2015-04-25T04:55:00Z,35.57,-86.45,13.0,12.0,140,4,,8.0,29.911417,,,TRUE,,,,,,,,FEW,3900,BKN,4700,OVC,5500,,,VFR,,,,,,,,,,,,METAR,245.0
PTKR 250455Z 09004KT 15SM SCT017CB BKN110 OVC280 30/25 A2975 RMK CB DSNT ALQDS SLP075 T03000247,PTKR,2015-04-25T04:55:00Z,7.33,134.48,30.0,24.7,90,4,,15.0,29.749016,1007.5,,,,,,,,,,SCT,1700,BKN,11000,OVC,28000,,,VFR,,,,,,,,,,,,METAR,30.0
KQL5 250455Z VRB01KT 9999 CLR 32/04 A2988 RMK SLP080 T03210041 $,KQL5,2015-04-25T04:55:00Z,100.65,-1000.65,32.1,4.1,0,1,,6.21,29.878937,1008.0,,,,TRUE,,,,,,CLR,,,,,,,,VFR,,,,,,,,,,,,METAR,999.0
KEGI 250455Z 15004KT 8SM FEW010 SCT210 21/20 A2987 RMK AO2A SLP122 T02100191 $,KEGI,2015-04-25T04:55:00Z,30.63,-86.52,21.0,19.1,150,4,,8.0,29.870079,1012.2,,,TRUE,TRUE,,,,,,FEW,1000,SCT,21000,,,,,VFR,,,,,,,,,,,,METAR,59.0
KBYS 250455Z AUTO 24024G34KT 10SM CLR 14/03 A2981 RMK AO2 SLP086 T01390031 $,KBYS,2015-04-25T04:55:00Z,35.28,-116.62,13.9,3.1,240,24,34,10.0,29.811024,1008.6,,TRUE,TRUE,TRUE,,,,,,CLR,,,,,,,,VFR,,,,,,,,,,,,METAR,716.0
KFCI 250455Z AUTO 00000KT 10SM CLR 06/M04 A2998 RMK AO1 40180 0020 TSNO,KFCI,2015-04-25T04:55:00Z,37.4,-77.52,6.0,-4.0,0,0,,10.0,29.97933,,,TRUE,TRUE,,,TRUE,,,,CLR,,,,,,,,VFR,,,,,,,,,,,,METAR,72.0
KQGV 250455Z 32023G32KT 9000 HZ FEW200 20/M03 A3014 RMK SLPNO QNH1020 PA +271,KQGV,2015-04-25T04:55:00Z,100.65,-1000.65,20.0,-3.0,320,23,32,5.59,30.138779,,,,,,,,,,HZ,FEW,20000,,,,,,,VFR,,,,,,,,,,,,METAR,999.0
LIVT 250455Z 00000KT CAVOK 13/12 Q1017 RMK SCT SCT080 QUK 0 QUL 0 VIS MAR 20 KM VIS MIN 9999,LIVT,2015-04-25T04:55:00Z,45.68,13.75,13.0,12.0,0,0,,6.21,30.029528,,,,,,,,,,,CAVOK,,,,,,,,VFR,,,,,,,,,,,,METAR,20.0
LIVR 250455Z 33003KT 9999 SCT030 00/M02 Q1017 RMK SCT MON CLD CIME VIS MIN 9999,LIVR,2015-04-25T04:55:00Z,46.28,11.77,0.0,-2.0,330,3,,6.21,30.029528,,,,,,,,,,,SCT,3000,,,,,,,VFR,,,,,,,,,,,,METAR,2006.0
LIPC 250455Z 26001KT 0300 R11/0700 FG NSC 10/08 Q1016 RMK SKC VIS MIN 0300 WIND THR11 26003KT RED,LIPC,2015-04-25T04:55:00Z,44.22,12.3,10.0,8.0,260,1,,0.19,30.0,,,,,,,,,,FG,,,,,,,,,,,,,,,,,,,,,METAR,10.0
LIRV 250455Z 03006KT 0100 FG BKN002 08/06 Q1017 RMK BKN MON E SE INVIS VIS MIN 0100 RED,LIRV,2015-04-25T04:55:00Z,42.42,12.07,8.0,6.0,30,6,,0.06,30.029528,,,,,,,,,,FG,BKN,200,,,,,,,LIFR,,,,,,,,,,,,METAR,300.0
LIRS 250455Z 30002KT 3000 BR SCT006 10/08 Q1016 RMK SCT VIS MIN 3000 WIND THR03 32002KT WIND THR21 36003KT YLO,LIRS,2015-04-25T04:55:00Z,42.75,11.07,10.0,8.0,300,2,,1.86,30.0,,,,,,,,,,BR,SCT,600,,,,,,,IFR,,,,,,,,,,,,METAR,7.0
LIRM 250455Z 05004KT 2500 BR SCT010 11/09 Q1015 RMK SCT VIS MIN 2500 WIND THR06 05004KT YLO,LIRM,2015-04-25T04:55:00Z,41.03,14.07,11.0,9.0,50,4,,1.55,29.970472,,,,,,,,,,BR,SCT,1000,,,,,,,IFR,,,,,,,,,,,,SPECI,10.0
LIRL 250455Z 33002KT CAVOK 12/10 Q1017 RMK FEW FEW200 MON LIB VAR RAPID VIS MIN 9999 WIND THR30 32002KT BLU,LIRL,2015-04-25T04:55:00Z,41.53,12.9,12.0,10.0,330,2,,6.21,30.029528,,,,,,,,,,,CAVOK,,,,,,,,VFR,,,,,,,,,,,,METAR,26.0
LIRH 250455Z 33002KT 3000 BR FEW010 13/10 Q1017 RMK FEW MON LIB VAR RAPID VIS MIN 3000 WIND THR16 00000KT YLO,LIRH,2015-04-25T04:55:00Z,41.65,13.3,13.0,10.0,330,2,,1.86,30.029528,,,,,,,,,,BR,FEW,1000,,,,,,,IFR,,,,,,,,,,,,METAR,181.0
LIMS 250455Z 22001KT 7000 NSC 08/08 Q1016 RMK SCT SCT180 VIS MIN 7000 WIND THR30 00000KT WHT,LIMS,2015-04-25T04:55:00Z,44.92,9.72,8.0,8.0,220,1,,4.35,30.0,,,,,,,,,,,,,,,,,,,,,,,,,,,,,,,METAR,138.0
LICT 250455Z 09003KT 9999 FEW010 11/11 Q1016 RMK SCT SCT200 VIS MIN 9999 WIND THR13 /////KT BLU,LICT,2015-04-25T04:55:00Z,37.92,12.5,11.0,11.0,90,3,,6.21,30.0,,,,,,,,,,,FEW,1000,,,,,,,VFR,,,,,,,,,,,,METAR,7.0
LICG 250455Z /////KT 6000 SCT006 15/13 Q1014 RMK BKN BKN100 VIS MIN 6000 WIND THR08 00000KT WIND THR21 00000KT RED,LICG,2015-04-25T04:55:00Z,36.82,11.97,15.0,13.0,,,,3.73,29.940945,,,,,,,,,,,SCT,600,,,,,,,MVFR,,,,,,,,,,,,METAR,191.0
KSRB 250455Z AUTO 19003KT 10SM SCT030 OVC037 13/08 A2990 RMK,KSRB,2015-04-25T04:55:00Z,36.05,-85.53,13.0,8.0,190,3,,10.0,29.899607,,,TRUE,,,,,,,,SCT,3000,OVC,3700,,,,,VFR,,,,,,,,,,,,METAR,313.0
KSNH 250455Z AUTO 14006KT 9SM FEW008 OVC050 12/00 A2987 RMK,KSNH,2015-04-25T04:55:00Z,35.17,-88.22,12.0,0.0,140,6,,9.0,29.870079,,,TRUE,,,,,,,,FEW,800,OVC,5000,,,,,VFR,,,,,,,,,,,,METAR,144.0
KPVE 250455Z AUTO 13004KT 5SM FEW009 SCT031 BKN037 12/12 A2985 RMK,KPVE,2015-04-25T04:55:00Z,35.65,-88.2,12.0,12.0,130,4,,5.0,29.84941,,,TRUE,,,,,,,,FEW,900,SCT,3100,BKN,3700,,,MVFR,,,,,,,,,,,,METAR,149.0
PASV 250455Z AUTO 13003KT 10SM SCT033 04/M03 A2961 RMK AO2 WSHFT 0350 RAB0402E0417SHRAB0405E0417 SLP040 T00401030 $,PASV,2015-04-25T04:55:00Z,61.1,-155.57,4.0,-3.0,130,3,,10.0,29.610237,1004.0,,TRUE,TRUE,TRUE,,,,,,SCT,3300,,,,,,,VFR,,,,,,,,,,,,METAR,484.0
PALU 250455Z AUTO 09007KT 010V100 10SM BKN011 M03/M04 A2992 RMK AO2 SLP131 T10261038,PALU,2015-04-25T04:55:00Z,68.88,-166.13,-2.6,-3.8,90,7,,10.0,29.920275,1013.1,,TRUE,TRUE,,,,,,,BKN,1100,,,,,,,MVFR,,,,,,,,,,,,METAR,3.0
PAFB 250455Z 00000KT 25SM FEW200 13/M11 A2965 RMK SLP044,PAFB,2015-04-25T04:55:00Z,64.83,-147.62,13.0,-11.0,0,0,,25.0,29.648623,1004.4,,,,,,,,,,FEW,20000,,,,,,,VFR,,,,,,,,,,,,METAR,137.0
MUHA 250455Z 00000KT 8000 NSC 24/21 Q1016,MUHA,2015-04-25T04:55:00Z,22.97,-82.42,24.0,21.0,0,0,,4.97,30.0,,,,,,,,,,,,,,,,,,,,,,,,,,,,,,,METAR,64.0
KNKX 250455Z 26005KT 10SM BKN025 OVC035 16/11 A3002 RMK AO2 SLP162 T01610106 $,KNKX,2015-04-25T04:55:00Z,32.87,-117.13,16.1,10.6,260,5,,10.0,30.02067,1016.2,,,TRUE,TRUE,,,,,,BKN,2500,OVC,3500,,,,,MVFR,,,,,,,,,,,,METAR,146.0
KQXT 250455Z VRB02KT 9999 CLR 34/00 A2990 RMK SLP065 WND DATA ESTMD ALSTG/SLP ESTMD Q1012,KQXT,2015-04-25T04:55:00Z,100.65,-1000.65,34.0,0.0,0,2,,6.21,29.899607,1006.5,,,,,,,,,,CLR,,,,,,,,VFR,,,,,,,,,,,,METAR,999.0
KQWM 250455Z 32016G21KT 9000 BLDU FEW250 19/M02 A3016 RMK SLP209 QNH1021,KQWM,2015-04-25T04:55:00Z,100.65,-1000.65,19.0,-2.0,320,16,21,5.59,30.159449,1020.9,,,,,,,,,BLDU,FEW,25000,,,,,,,VFR,,,,,,,,,,,,METAR,999.0
KQSN 250455Z AUTO VRB02KT 9999 CLR 23/M07 A3015 RMK AO2 SLP126 T02251069,KQSN,2015-04-25T04:55:00Z,100.65,-1000.65,22.5,-6.9,0,2,,6.21,30.15059,1012.6,,TRUE,TRUE,,,,,,,CLR,,,,,,,,VFR,,,,,,,,,,,,METAR,999.0
K9L2 250455Z AUTO 23017G25KT 10SM CLR 12/07 A2991 RMK AO2 PK WND 23026/0428 SLP122 T01220067 TSNO $,K9L2,2015-04-25T04:55:00Z,34.97,-117.87,12.2,6.7,230,17,25,10.0,29.911417,1012.2,,TRUE,TRUE,TRUE,,TRUE,,,,CLR,,,,,,,,VFR,,,,,,,,,,,,METAR,701.0
KUGN 250455Z AUTO 05011KT 10SM OVC050 04/02 A2993 RMK AO2 SLP141 T00390017 TSNO,KUGN,2015-04-25T04:55:00Z,42.42,-87.87,3.9,1.7,50,11,,10.0,29.929134,1014.1,,TRUE,TRUE,,,TRUE,,,,OVC,5000,,,,,,,VFR,,,,,,,,,,,,METAR,222.0
KSCK 250455Z AUTO 25010KT 10SM OVC070 14/06 A2998 RMK AO2 RAE0359 SLP153 P0000 T01440056 TSNO,KSCK,2015-04-25T04:55:00Z,37.88,-121.22,14.4,5.6,250,10,,10.0,29.97933,1015.3,,TRUE,TRUE,,,TRUE,,,,OVC,7000,,,,,,,VFR,,,,,,0.0050,,,,,,METAR,10.0
KRNO 250455Z 24010KT 10SM SCT055 BKN100 BKN180 09/M03 A2987 RMK AO2 SLP089 T00941028,KRNO,2015-04-25T04:55:00Z,39.5,-119.77,9.4,-2.8,240,10,,10.0,29.870079,1008.9,,,TRUE,,,,,,,SCT,5500,BKN,10000,BKN,18000,,,VFR,,,,,,,,,,,,METAR,1342.0
KPHP 250455Z AUTO 00000KT 10SM CLR 10/06 A2959 RMK AO2 SLP011 T01000061 TSNO,KPHP,2015-04-25T04:55:00Z,44.05,-101.6,10.0,6.1,0,0,,10.0,29.589567,1001.1,,TRUE,TRUE,,,TRUE,,,,CLR,,,,,,,,VFR,,,,,,,,,,,,METAR,672.0
KMKG 250455Z AUTO 00000KT 10SM -RA OVC038 06/02 A3000 RMK AO2 SLP163 P0000 T00560017 401281028 TSNO,KMKG,2015-04-25T04:55:00Z,43.17,-86.23,5.6,1.7,0,0,,10.0,30.0,1016.3,,TRUE,TRUE,,,TRUE,,,-RA,OVC,3800,,,,,,,VFR,,,,12.8,-2.8,0.0050,,,,,,METAR,191.0
KLLJ 250455Z AUTO 33004KT 10SM OVC060 05/M01 A2974 RMK AO2 SLP053 T00501006 TSNO,KLLJ,2015-04-25T04:55:00Z,44.52,-114.22,5.0,-0.6,330,4,,10.0,29.740158,1005.3,,TRUE,TRUE,,,TRUE,,,,OVC,6000,,,,,,,VFR,,,,,,,,,,,,METAR,1536.0
KLIC 250455Z AUTO 29007KT 10SM CLR 05/03 A2970 RMK AO2 SLP018 T00500033 TSNO,KLIC,2015-04-25T04:55:00Z,39.27,-103.67,5.0,3.3,290,7,,10.0,29.698818,1001.8,,TRUE,TRUE,,,TRUE,,,,CLR,,,,,,,,VFR,,,,,,,,,,,,METAR,1630.0
KIRK 250455Z AUTO 14011KT 10SM CLR 13/10 A2963 RMK AO2 SLP035 T01280100 TSNO,KIRK,2015-04-25T04:55:00Z,40.1,-92.55,12.8,10.0,140,11,,10.0,29.630905,1003.5,,TRUE,TRUE,,,TRUE,,,,CLR,,,,,,,,VFR,,,,,,,,,,,,METAR,293.0
KINL 250455Z AUTO 09006KT 10SM OVC043 04/M06 A2992 RMK AO2 SLP146 T00391061 TSNO,KINL,2015-04-25T04:55:00Z,48.57,-93.4,3.9,-6.1,90,6,,10.0,29.920275,1014.6,,TRUE,TRUE,,,TRUE,,,,OVC,4300,,,,,,,VFR,,,,,,,,,,,,METAR,360.0
KHON 250455Z AUTO 08024G31KT 8SM BKN085 OVC120 10/08 A2957 RMK AO2 PK WND 09031/0432 SLP014 T01000078 TSNO $,KHON,2015-04-25T04:55:00Z,44.38,-98.23,10.0,7.8,80,24,31,8.0,29.568897,1001.4,,TRUE,TRUE,TRUE,,TRUE,,,,BKN,8500,OVC,12000,,,,,VFR,,,,,,,,,,,,METAR,390.0
KGPI 250455Z 21004KT 10SM BKN080 02/M03 A2978 RMK AO2 SLP095 T00221028,KGPI,2015-04-25T04:55:00Z,48.32,-114.25,2.2,-2.8,210,4,,10.0,29.778543,1009.5,,,TRUE,,,,,,,BKN,8000,,,,,,,VFR,,,,,,,,,,,,METAR,908.0
KEAT 250455Z AUTO 32006KT 10SM OVC110 09/M02 A2981 RMK AO2 SLP094 T00941017 TSNO,KEAT,2015-04-25T04:55:00Z,47.4,-120.2,9.4,-1.7,320,6,,10.0,29.811024,1009.4,,TRUE,TRUE,,,TRUE,,,,OVC,11000,,,,,,,VFR,,,,,,,,,,,,METAR,377.0
KDLH 250455Z 09011G19KT 10SM OVC060 02/M04 A2991 RMK AO2 SLP144 T00221044,KDLH,2015-04-25T04:55:00Z,46.85,-92.2,2.2,-4.4,90,11,19,10.0,29.911417,1014.4,,,TRUE,,,,,,,OVC,6000,,,,,,,VFR,,,,,,,,,,,,METAR,435.0
KCNK 250455Z AUTO 00000KT 4SM RA BR OVC070 12/12 A2945 RMK AO2 PRESFR SLP967 P0016 T01220117 TSNO $,KCNK,2015-04-25T04:55:00Z,39.55,-97.65,12.2,11.7,0,0,,4.0,29.450787,996.7,,TRUE,TRUE,TRUE,,TRUE,,,RA BR,OVC,7000,,,,,,,MVFR,,,,,,0.16,,,,,,METAR,447.0
KCMA 250455Z 11006KT 10SM CLR 14/10 A3000 RMK AO2 SLP169 T01440100,KCMA,2015-04-25T04:55:00Z,34.22,-119.1,14.4,10.0,110,6,,10.0,30.0,1016.9,,,TRUE,,,,,,,CLR,,,,,,,,VFR,,,,,,,,,,,,METAR,23.0
KCAO 250455Z AUTO 26008KT 10SM CLR 10/M04 A2972 RMK AO2 SLP018 T01001039 TSNO,KCAO,2015-04-25T04:55:00Z,36.45,-103.15,10.0,-3.9,260,8,,10.0,29.719488,1001.8,,TRUE,TRUE,,,TRUE,,,,CLR,,,,,,,,VFR,,,,,,,,,,,,METAR,1514.0
KAST 250455Z AUTO 32005KT 10SM FEW027 BKN050 07/06 A2989 RMK AO2 SLP122 T00720056 TSNO,KAST,2015-04-25T04:55:00Z,46.15,-123.88,7.2,5.6,320,5,,10.0,29.890747,1012.2,,TRUE,TRUE,,,TRUE,,,,FEW,2700,BKN,5000,,,,,VFR,,,,,,,,,,,,METAR,3.0
KANJ 250455Z AUTO 24006KT 10SM CLR M04/M07 A3003 RMK AO2 SLP177 T10391072 400281050 TSNO,KANJ,2015-04-25T04:55:00Z,46.47,-84.37,-3.9,-7.2,240,6,,10.0,30.029528,1017.7,,TRUE,TRUE,,,TRUE,,,,CLR,,,,,,,,VFR,,,,2.8,-5.0,,,,,,,METAR,218.0
TXKF 250455Z 32022KT 9999 FEW033 SCT050 18/10 Q1009 ,TXKF,2015-04-25T04:55:00Z,32.37,-64.68,18.0,10.0,320,22,,6.21,29.793306,,,,,,,,,,,FEW,3300,SCT,5000,,,,,VFR,,,,,,,,,,,,METAR,6.0
KQTI 250455Z 34003KT 9999 CLR 17/04 A3021 RMK AO2A SLP229 T01650041,KQTI,2015-04-25T04:55:00Z,,,16.5,4.1,340,3,,6.21,30.209646,1022.9,,,TRUE,,,,,,,CLR,,,,,,,,VFR,,,,,,,,,,,,SPECI,
KQSF 250455Z AUTO 16003KT 9999 FEW200 24/M05 A3021 RMK AO2 SLP148 T02391051 $,KQSF,2015-04-25T04:55:00Z,100.65,-1000.65,23.9,-5.1,160,3,,6.21,30.209646,1014.8,,TRUE,TRUE,TRUE,,,,,,FEW,20000,,,,,,,VFR,,,,,,,,,,,,METAR,999.0
KQQY 250455Z AUTO 13003KT 9999 FEW034 SCT040 BKN050 BKN130 24/22 A3001 RMK AO2 SLP141 T02430223 $,KQQY,2015-04-25T04:55:00Z,100.65,-1000.65,24.3,22.3,130,3,,6.21,30.008858,1014.1,,TRUE,TRUE,TRUE,,,,,,FEW,3400,SCT,4000,BKN,5000,BKN,13000,VFR,,,,,,,,,,,,METAR,999.0
KQMH 250455Z AUTO VRB02KT 9999 FEW180 23/M04 A3018 RMK AO2 SLP138 T02301036,KQMH,2015-04-25T04:55:00Z,,,23.0,-3.6,0,2,,6.21,30.180119,1013.8,,TRUE,TRUE,,,,,,,FEW,18000,,,,,,,VFR,,,,,,,,,,,,SPECI,
KQFQ 250455Z AUTO 18008G20KT 150V230 10SM CLR 23/M02 A3008 RMK AO2 SLP184 T02261021 $,KQFQ,2015-04-25T04:55:00Z,100.65,-1000.65,22.6,-2.1,180,8,20,10.0,30.079725,1018.4,,TRUE,TRUE,TRUE,,,,,,CLR,,,,,,,,VFR,,,,,,,,,,,,METAR,999.0
KQFG 250455Z AUTO VRB01KT 9999 CLR 30/00 A2993 RMK AO2 SLP089 T02990003 $,KQFG,2015-04-25T04:55:00Z,100.65,-1000.65,29.9,0.3,0,1,,6.21,29.929134,1008.9,,TRUE,TRUE,TRUE,,,,,,CLR,,,,,,,,VFR,,,,,,,,,,,,METAR,999.0
KQFA 250455Z AUTO VRB06KT 9999 CLR 23/M02 A3008 RMK AO2 SLP184 T02261021 $,KQFA,2015-04-25T04:55:00Z,100.65,-1000.65,22.6,-2.1,0,6,,6.21,30.079725,1018.4,,TRUE,TRUE,TRUE,,,,,,CLR,,,,,,,,VFR,,,,,,,,,,,,METAR,999.0
KQCL 250455Z AUTO VRB03KT 8000 HZ CLR 29/08 A2999 RMK AO2 SLP093 T02910084 $,KQCL,2015-04-25T04:55:00Z,100.65,-1000.65,29.1,8.4,0,3,,4.97,29.991142,1009.3,,TRUE,TRUE,TRUE,,,,,HZ,CLR,,,,,,,,MVFR,,,,,,,,,,,,METAR,999.0
KGXA 250455Z AUTO 24010G19KT 10SM CLR 13/04 A2995 RMK AO2 SLP135 T01270043 PWINO TSNO $,KGXA,2015-04-25T04:55:00Z,34.57,-117.67,12.7,4.3,240,10,19,10.0,29.949802,1013.5,,TRUE,TRUE,TRUE,,TRUE,,TRUE,,CLR,,,,,,,,VFR,,,,,,,,,,,,METAR,923.0
LIQC 250455Z ///04KT CAVOK 15/13 Q1016 RMK SKC QUK 1 QUL 0 VIS MAR 15 KM VIS MIN 9999,LIQC,2015-04-25T04:55:00Z,40.55,14.2,15.0,13.0,,,,6.21,30.0,,,,,,,,,,,CAVOK,,,,,,,,VFR,,,,,,,,,,,,METAR,269.0
LIEB 250455Z 00000KT CAVOK 15/14 Q1016 RMK SKC QUK 1 QUL 0 VIS MAR 25 KM MON LIB VIS MIN 9999,LIEB,2015-04-25T04:55:00Z,39.93,9.72,15.0,14.0,0,0,,6.21,30.0,,,,,,,,,,,CAVOK,,,,,,,,VFR,,,,,,,,,,,,METAR,156.0
LICF 250455Z 00000KT CAVOK 13/13 Q1016 RMK SKC QUK 1 QUL 0 VIS MAR 16 KM MON LIB VAR RAPID VIS MIN 9999,LICF,2015-04-25T04:55:00Z,38.2,15.55,13.0,13.0,0,0,,6.21,30.0,,,,,,,,,,,CAVOK,,,,,,,,VFR,,,,,,,,,,,,METAR,51.0
LIBY 250455Z 18002KT 9999 FEW025 13/12 Q1017 RMK BKN SCT090 QUK 1 QUL 1 SW VIS MAR 12 KM VIS MIN 9999,LIBY,2015-04-25T04:55:00Z,39.82,18.35,13.0,12.0,180,2,,6.21,30.029528,,,,,,,,,,,FEW,2500,,,,,,,VFR,,,,,,,,,,,,METAR,112.0
LIBV 250455Z 18003KT 3200 BR BKN003 SCT020 11/10 Q1017 RMK BKN VIS MIN 3200 WIND THR32 16003KT WIND THR14 17004KT YLO,LIBV,2015-04-25T04:55:00Z,40.77,16.92,11.0,10.0,180,3,,1.99,30.029528,,,,,,,,,,BR,BKN,300,SCT,2000,,,,,LIFR,,,,,,,,,,,,METAR,350.0
LIBN 250455Z 00000KT 9999 BKN035 13/13 Q1018 RMK BKN VIS MIN 9999 WIND THR14 00000KT BLU,LIBN,2015-04-25T04:55:00Z,40.22,18.13,13.0,13.0,0,0,,6.21,30.059055,,,,,,,,,,,BKN,3500,,,,,,,VFR,,,,,,,,,,,,METAR,61.0
LICZ 250455Z 15001KT 2800 BR SCT004 SCT020 13/13 Q1017 RMK OVC VIS MIN 2800 WIND THR28 15002KTKT A3004 YLO,LICZ,2015-04-25T04:55:00Z,37.38,14.92,13.0,13.0,150,1,,1.74,30.029528,,,,,,,,,,BR,SCT,400,SCT,2000,,,,,IFR,,,,,,,,,,,,METAR,22.0
LIVC 250455Z 24018KT CAVOK 05/M01 Q1020 RMK SCT SCT200 MON LIB VAL NIL VIS MIN 9999,LIVC,2015-04-25T04:55:00Z,44.2,10.68,5.0,-1.0,240,18,,6.21,30.11811,,,,,,,,,,,CAVOK,,,,,,,,VFR,,,,,,,,,,,,METAR,2173.0
LIRE 250455Z 08004KT 6000 NSC 14/13 Q1017 RMK SCT SCT230 VIS MIN 6000 WIND THR31 /////KT WHT,LIRE,2015-04-25T04:55:00Z,41.63,12.42,14.0,13.0,80,4,,3.73,30.029528,,,,,,,,,,,,,,,,,,,,,,,,,,,,,,,METAR,12.0
LIPS 250455Z 04004KT 7000 NSC 10/08 Q1017 RMK SKC VIS MIN 7000 WIND THR26 03003KT WIND THR08 05004KT WHT,LIPS,2015-04-25T04:55:00Z,45.67,12.08,10.0,8.0,40,4,,4.35,30.029528,,,,,,,,,,,,,,,,,,,,,,,,,,,,,,,METAR,41.0
LIMK 250455Z 02007KT 9999 BKN030 10/10 Q1016 RMK OVC SCT066 VAL NIL VIS MIN 9999,LIMK,2015-04-25T04:55:00Z,45.02,7.72,10.0,10.0,20,7,,6.21,30.0,,,,,,,,,,,BKN,3000,,,,,,,MVFR,,,,,,,,,,,,METAR,710.0
LIED 250455Z 06001KT 2000 BR SCT002 13/11 Q1016 RMK BKN BKN200 VIS MIN 2000 WIND THR35 09003KT WIND THR17 06003KT YLO,LIED,2015-04-25T04:55:00Z,39.35,8.97,13.0,11.0,60,1,,1.24,30.0,,,,,,,,,,BR,SCT,200,,,,,,,IFR,,,,,,,,,,,,METAR,28.0
LIVP 250455Z 00000KT 0900 FG VV/// 01/M02 Q1017 RMK MON INVIS VAL INVIS VIS MIN 0900,LIVP,2015-04-25T04:55:00Z,46.15,11.03,1.0,-2.0,0,0,,0.56,30.029528,,,,,,,,,,FG,OVX,0,,,,,,,LIFR,,,,,,,,,,,,METAR,2129.0
LIVF 250455Z 00000KT CAVOK 11/08 Q1016 RMK SKC MON LIB VAL N NW MAR CLD DIM VIS MIN 9999,LIVF,2015-04-25T04:55:00Z,43.52,12.72,11.0,8.0,0,0,,6.21,30.0,,,,,,,,,,,CAVOK,,,,,,,,VFR,,,,,,,,,,,,METAR,574.0
LIVE 250455Z /////KT 9999 SCT025 03/01 Q1018 RMK SCT VIS MIN 9999,LIVE,2015-04-25T04:55:00Z,46.85,10.5,3.0,1.0,,,,6.21,30.059055,,,,,,,,,,,SCT,2500,,,,,,,VFR,,,,,,,,,,,,METAR,1800.0
LIRX 250455Z 10004KT 0800 FG VV/// 12/11 Q1015 RMK VIS MIN 0800 VIS MAR 0800M,LIRX,2015-04-25T04:55:00Z,42.73,10.38,12.0,11.0,100,4,,0.5,29.970472,,,,,,,,,,FG,OVX,0,,,,,,,LIFR,,,,,,,,,,,,METAR,297.0
LIRT 250455Z 04005KT CAVOK 09/05 Q1018 RMK FEW FEW060 MON W INVIS VAL NIL VIS MIN 9999,LIRT,2015-04-25T04:55:00Z,41.03,15.22,9.0,5.0,40,5,,6.21,30.059055,,,,,,,,,,,CAVOK,,,,,,,,VFR,,,,,,,,,,,,METAR,1093.0
LIRK 250455Z AUTO 35008KT //// 08/M02 Q1020,LIRK,2015-04-25T04:55:00Z,42.47,12.97,8.0,-2.0,350,8,,,30.11811,,,TRUE,,,,,,,,,,,,,,,,,,,,,,,,,,,,METAR,1875.0
LIMU 250455Z 02004KT CAVOK 12/08 Q1017 RMK BKN SCT070 QUK 1 QUL 1 SE VIS MAR 30 KM VIS MIN 9999,LIMU,2015-04-25T04:55:00Z,43.95,8.17,12.0,8.0,20,4,,6.21,30.029528,,,,,,,,,,,CAVOK,,,,,,,,VFR,,,,,,,,,,,,METAR,221.0
LIMT 250455Z 01004KT CAVOK 08/06 Q1016 RMK BKN BKN200 MON LIB VAL NIL VIS MIN 9999,LIMT,2015-04-25T04:55:00Z,44.47,9.92,8.0,6.0,10,4,,6.21,30.0,,,,,,,,,,,CAVOK,,,,,,,,VFR,,,,,,,,,,,,METAR,1040.0
LIMH 250455Z /////KT 0100 FZFG VV/// M05/M07 Q1018 RMK MON INVIS VAL INVIS VIS MIN 0100,LIMH,2015-04-25T04:55:00Z,45.93,7.7,-5.0,-7.0,,,,0.06,30.059055,,,,,,,,,,FZFG,OVX,0,,,,,,,LIFR,,,,,,,,,,,,METAR,3488.0
LIBQ 250455Z 27009KT CAVOK 06/06 Q1015 RMK SKC MON LIB VAL NIL VIS MIN 9999,LIBQ,2015-04-25T04:55:00Z,39.32,16.38,6.0,6.0,270,9,,6.21,29.970472,,,,,,,,,,,CAVOK,,,,,,,,VFR,,,,,,,,,,,,METAR,1720.0
FJDG 250455Z 27003KT 9999 FEW020 BKN220 30/25 A2988 RMK SLP115 T03030251,FJDG,2015-04-25T04:55:00Z,-7.32,72.42,30.3,25.1,270,3,,6.21,29.878937,1011.5,,,,,,,,,,FEW,2000,BKN,22000,,,,,VFR,,,,,,,,,,,,METAR,3.0
KNFG 250454Z AUTO 00000KT 8SM SCT030 OVC039 16/10 A3002 RMK AO2 SLP166 T01560100,KNFG,2015-04-25T04:54:00Z,33.28,-117.33,15.6,10.0,0,0,,8.0,30.02067,1016.6,,TRUE,TRUE,,,,,,,SCT,3000,OVC,3900,,,,,VFR,,,,,,,,,,,,METAR,24.0
KMTP 250454Z AUTO 30012KT 04/M06 A2987 RMK AO1 SLP113 T00441056 401060044,KMTP,2015-04-25T04:54:00Z,41.07,-71.92,4.4,-5.6,300,12,,,29.870079,1011.3,,TRUE,TRUE,,,,,,,,,,,,,,,,,,,10.6,4.4,,,,,,,METAR,2.0
KNKT 250454Z AUTO 00000KT 10SM CLR 10/07 A2999 RMK AO2 SLP150 T01000067 402060100,KNKT,2015-04-25T04:54:00Z,34.9,-76.88,10.0,6.7,0,0,,10.0,29.991142,1015.0,,TRUE,TRUE,,,,,,,CLR,,,,,,,,VFR,,,,20.6,10.0,,,,,,,METAR,9.0
KNAK 250454Z AUTO 00000KT 10SM CLR 08/M01 A2996 RMK AO2 SLP147 T00781011 401440050,KNAK,2015-04-25T04:54:00Z,38.98,-76.48,7.8,-1.1,0,0,,10.0,29.958662,1014.7,,TRUE,TRUE,,,,,,,CLR,,,,,,,,VFR,,,,14.4,5.0,,,,,,,METAR,2.0
K1V4 250454Z AUTO 01/M06 A2977 RMK AO1 SLP089 T00111056 400280006,K1V4,2015-04-25T04:54:00Z,44.42,-72.02,1.1,-5.6,,,,,29.769686,1008.9,,TRUE,TRUE,,,,,,,,,,,,,,,,,,,2.8,0.6,,,,,,,METAR,210.0
KMQE 250454Z AUTO 29010G15KT 02/M05 A2975 RMK AO1 SLP088 T00221050 401001006,KMQE,2015-04-25T04:54:00Z,42.22,-71.12,2.2,-5.0,290,10,15,,29.749016,1008.8,,TRUE,TRUE,,,,,,,,,,,,,,,,,,,10.0,-0.6,,,,,,,METAR,199.0
OAHR 250454Z 28006KT 8000 NSC 25/09 Q1014 RMK SKC VIS MIN 8000 BLU,OAHR,2015-04-25T04:54:00Z,34.22,62.22,25.0,9.0,280,6,,4.97,29.940945,,,,,,,,,,,,,,,,,,,,,,,,,,,,,,,METAR,964.0
K12N 250454Z AUTO 00000KT 01/M06 A2993 RMK AO1 SLP142 T00061056 400941006,K12N,2015-04-25T04:54:00Z,41.02,-74.73,0.6,-5.6,0,0,,,29.929134,1014.2,,TRUE,TRUE,,,,,,,,,,,,,,,,,,,9.4,-0.6,,,,,,,METAR,177.0
KACY 250454Z 04004KT 10SM CLR 02/M04 A2996 RMK AO2 SLP145 T00221044 401280017,KACY,2015-04-25T04:54:00Z,39.45,-74.57,2.2,-4.4,40,4,,10.0,29.958662,1014.5,,,TRUE,,,,,,,CLR,,,,,,,,VFR,,,,12.8,1.7,,,,,,,METAR,23.0
KUIN 250454Z AUTO 14008KT 4SM +RA FEW021 BKN050 OVC075 12/09 A2970 RMK AO2 RAB35 SLP055 P0004 T01220089 TSNO $,KUIN,2015-04-25T04:54:00Z,39.95,-91.2,12.2,8.9,140,8,,4.0,29.698818,1005.5,,TRUE,TRUE,TRUE,,TRUE,,,+RA,FEW,2100,BKN,5000,OVC,7500,,,MVFR,,,,,,0.04,,,,,,METAR,234.0
KCEU 250454Z AUTO 00000KT 10SM OVC100 16/09 A2995 RMK AO2 SLP136 T01610094 402280067 TSNO,KCEU,2015-04-25T04:54:00Z,34.67,-82.88,16.1,9.4,0,0,,10.0,29.949802,1013.6,,TRUE,TRUE,,,TRUE,,,,OVC,10000,,,,,,,VFR,,,,22.8,6.7,,,,,,,METAR,268.0
KAVL 250454Z AUTO 00000KT 10SM CLR 11/04 A2996 RMK AO2 SLP134 T01060039 402110056 TSNO,KAVL,2015-04-25T04:54:00Z,35.43,-82.53,10.6,3.9,0,0,,10.0,29.958662,1013.4,,TRUE,TRUE,,,TRUE,,,,CLR,,,,,,,,VFR,,,,21.1,5.6,,,,,,,METAR,670.0
KAKH 250454Z AUTO 23004KT 10SM CLR 11/06 A2995 RMK AO2 SLP141 T01060061 402170028 TSNO,KAKH,2015-04-25T04:54:00Z,35.2,-81.15,10.6,6.1,230,4,,10.0,29.949802,1014.1,,TRUE,TRUE,,,TRUE,,,,CLR,,,,,,,,VFR,,,,21.7,2.8,,,,,,,METAR,243.0
KUZA 250454Z AUTO 20005KT 10SM CLR 12/06 A2996 RMK AO2 SLP140 T01170061 402110022 TSNO,KUZA,2015-04-25T04:54:00Z,34.98,-81.05,11.7,6.1,200,5,,10.0,29.958662,1014.0,,TRUE,TRUE,,,TRUE,,,,CLR,,,,,,,,VFR,,,,21.1,2.2,,,,,,,METAR,202.0
KINT 250454Z AUTO 00000KT 10SM CLR 11/02 A2994 RMK AO2 SLP133 T01110022 402000028 TSNO,KINT,2015-04-25T04:54:00Z,36.13,-80.22,11.1,2.2,0,0,,10.0,29.940945,1013.3,,TRUE,TRUE,,,TRUE,,,,CLR,,,,,,,,VFR,,,,20.0,2.8,,,,,,,METAR,291.0
KEWN 250454Z AUTO 24004KT 10SM CLR 10/06 A2999 RMK AO2 SLP154 T01000061 402000083 TSNO,KEWN,2015-04-25T04:54:00Z,35.07,-77.05,10.0,6.1,240,4,,10.0,29.991142,1015.4,,TRUE,TRUE,,,TRUE,,,,CLR,,,,,,,,VFR,,,,20.0,8.3,,,,,,,METAR,3.0
KAPC 250454Z AUTO 21014KT 10SM -RA BKN014 OVC022 12/10 A2998 RMK AO2 RAB51 SLP143 P0000 T01170100 TSNO,KAPC,2015-04-25T04:54:00Z,38.2,-122.28,11.7,10.0,210,14,,10.0,29.97933,1014.3,,TRUE,TRUE,,,TRUE,,,-RA,BKN,1400,OVC,2200,,,,,MVFR,,,,,,0.0050,,,,,,METAR,13.0
KALO 250454Z AUTO 10015KT 10SM OVC041 07/05 A2974 RMK AO2 SLP075 T00720050 TSNO,KALO,2015-04-25T04:54:00Z,42.55,-92.4,7.2,5.0,100,15,,10.0,29.740158,1007.5,,TRUE,TRUE,,,TRUE,,,,OVC,4100,,,,,,,VFR,,,,,,,,,,,,METAR,264.0
KAKR 250454Z AUTO 10006KT 10SM BKN100 BKN120 06/M06 A2998 RMK AO2 SLP155 T00611061 401391028 TSNO,KAKR,2015-04-25T04:54:00Z,41.03,-81.47,6.1,-6.1,100,6,,10.0,29.97933,1015.5,,TRUE,TRUE,,,TRUE,,,,BKN,10000,BKN,12000,,,,,VFR,,,,13.9,-2.8,,,,,,,METAR,363.0
KAKQ 250454Z AUTO 00000KT 10SM CLR 04/02 A2995 RMK AO2 SLP144 T00440022 401890017 TSNO,KAKQ,2015-04-25T04:54:00Z,36.98,-77.0,4.4,2.2,0,0,,10.0,29.949802,1014.4,,TRUE,TRUE,,,TRUE,,,,CLR,,,,,,,,VFR,,,,18.9,1.7,,,,,,,METAR,34.0
KLEX 250454Z AUTO 07005KT 10SM OVC060 13/00 A2989 RMK AO2 SLP120 T01280000 401611006 TSNO,KLEX,2015-04-25T04:54:00Z,38.03,-84.6,12.8,0.0,70,5,,10.0,29.890747,1012.0,,TRUE,TRUE,,,TRUE,,,,OVC,6000,,,,,,,VFR,,,,16.1,-0.6,,,,,,,METAR,300.0
KLBT 250454Z AUTO 00000KT 10SM CLR 11/08 A2996 RMK AO2 SLP146 T01060078 402170078 TSNO,KLBT,2015-04-25T04:54:00Z,34.6,-79.07,10.6,7.8,0,0,,10.0,29.958662,1014.6,,TRUE,TRUE,,,TRUE,,,,CLR,,,,,,,,VFR,,,,21.7,7.8,,,,,,,METAR,37.0
KRKS 250454Z AUTO 17006KT 10SM FEW070 SCT090 04/01 A2977 RMK AO2 SLP044 T00390011 TSNO,KRKS,2015-04-25T04:54:00Z,41.6,-109.07,3.9,1.1,170,6,,10.0,29.769686,1004.4,,TRUE,TRUE,,,TRUE,,,,FEW,7000,SCT,9000,,,,,VFR,,,,,,,,,,,,METAR,2060.0
KRIC 250454Z 00000KT 10SM BKN250 08/01 A2997 RMK AO2 SLP152 T00830006 401890028,KRIC,2015-04-25T04:54:00Z,37.52,-77.32,8.3,0.6,0,0,,10.0,29.970472,1015.2,,,TRUE,,,,,,,BKN,25000,,,,,,,VFR,,,,18.9,2.8,,,,,,,METAR,50.0
KRFD 250454Z 08009G18KT 10SM BKN048 OVC060 06/02 A2992 RMK AO2 SLP134 T00560017,KRFD,2015-04-25T04:54:00Z,42.2,-89.1,5.6,1.7,80,9,18,10.0,29.920275,1013.4,,,TRUE,,,,,,,BKN,4800,OVC,6000,,,,,VFR,,,,,,,,,,,,METAR,221.0
KRDG 250454Z AUTO 25003KT 10SM CLR 04/M07 A2995 RMK AO2 SLP147 T00441067 401280017 TSNO,KRDG,2015-04-25T04:54:00Z,40.37,-75.97,4.4,-6.7,250,3,,10.0,29.949802,1014.7,,TRUE,TRUE,,,TRUE,,,,CLR,,,,,,,,VFR,,,,12.8,1.7,,,,,,,METAR,109.0
KRBL 250454Z AUTO 12003KT 10SM OVC080 17/05 A2984 RMK AO2 SLP101 T01670050 TSNO,KRBL,2015-04-25T04:54:00Z,40.15,-122.25,16.7,5.0,120,3,,10.0,29.840551,1010.1,,TRUE,TRUE,,,TRUE,,,,OVC,8000,,,,,,,VFR,,,,,,,,,,,,METAR,104.0
KPTW 250454Z AUTO 00000KT 10SM CLR 02/M06 A2996 RMK AO2 SLP146 T00171056 401280017 TSNO,KPTW,2015-04-25T04:54:00Z,40.23,-75.55,1.7,-5.6,0,0,,10.0,29.958662,1014.6,,TRUE,TRUE,,,TRUE,,,,CLR,,,,,,,,VFR,,,,12.8,1.7,,,,,,,METAR,92.0
KPNE 250454Z AUTO 35005KT 10SM CLR 04/M07 A2997 RMK AO2 SLP149 T00391067 401390039 TSNO,KPNE,2015-04-25T04:54:00Z,40.08,-75.02,3.9,-6.7,350,5,,10.0,29.970472,1014.9,,TRUE,TRUE,,,TRUE,,,,CLR,,,,,,,,VFR,,,,13.9,3.9,,,,,,,METAR,28.0
KPLN 250454Z AUTO 00000KT 10SM CLR M06/M08 A3004 RMK AO2 SLP183 T10561083 400781089 TSNO,KPLN,2015-04-25T04:54:00Z,45.57,-84.8,-5.6,-8.3,0,0,,10.0,30.041338,1018.3,,TRUE,TRUE,,,TRUE,,,,CLR,,,,,,,,VFR,,,,7.8,-8.9,,,,,,,METAR,217.0
KPIA 250454Z 12007KT 10SM OVC036 14/02 A2977 RMK AO2 SLP080 T01390022,KPIA,2015-04-25T04:54:00Z,40.67,-89.68,13.9,2.2,120,7,,10.0,29.769686,1008.0,,,TRUE,,,,,,,OVC,3600,,,,,,,VFR,,,,,,,,,,,,METAR,205.0
KPHL 250454Z 01010G14KT 10SM FEW250 06/M07 A2997 RMK AO2 SLP148 T00611067 401390039 $,KPHL,2015-04-25T04:54:00Z,39.87,-75.23,6.1,-6.7,10,10,14,10.0,29.970472,1014.8,,,TRUE,TRUE,,,,,,FEW,25000,,,,,,,VFR,,,,13.9,3.9,,,,,,,METAR,18.0
KPHF 250454Z 06003KT 10SM CLR 09/04 A2996 RMK AO2 SLP145 T00940044 401890044,KPHF,2015-04-25T04:54:00Z,37.13,-76.5,9.4,4.4,60,3,,10.0,29.958662,1014.5,,,TRUE,,,,,,,CLR,,,,,,,,VFR,,,,18.9,4.4,,,,,,,METAR,12.0
KORH 250454Z AUTO 28008KT 10SM CLR 01/M07 A2976 RMK AO2 SLP088 T00061072 400670006 TSNO,KORH,2015-04-25T04:54:00Z,42.27,-71.87,0.6,-7.2,280,8,,10.0,29.760826,1008.8,,TRUE,TRUE,,,TRUE,,,,CLR,,,,,,,,VFR,,,,6.7,0.6,,,,,,,METAR,304.0
KOLS 250454Z AUTO 19005KT 10SM CLR 14/04 A3001 RMK AO2 SLP120 T01390039 TSNO,KOLS,2015-04-25T04:54:00Z,31.42,-110.85,13.9,3.9,190,5,,10.0,30.008858,1012.0,,TRUE,TRUE,,,TRUE,,,,CLR,,,,,,,,VFR,,,,,,,,,,,,METAR,1184.0
KOLM 250454Z AUTO 21007KT 10SM OVC095 08/04 A2989 RMK AO2 SLP121 T00780039 TSNO,KOLM,2015-04-25T04:54:00Z,46.97,-122.9,7.8,3.9,210,7,,10.0,29.890747,1012.1,,TRUE,TRUE,,,TRUE,,,,OVC,9500,,,,,,,VFR,,,,,,,,,,,,METAR,58.0
KOFP 250454Z AUTO 00000KT 10SM CLR 04/M01 A2998 RMK AO2 SLP153 T00441006 401830011 TSNO,KOFP,2015-04-25T04:54:00Z,37.7,-77.43,4.4,-0.6,0,0,,10.0,29.97933,1015.3,,TRUE,TRUE,,,TRUE,,,,CLR,,,,,,,,VFR,,,,18.3,1.1,,,,,,,METAR,62.0
KLAF 250454Z AUTO 07006KT 10SM OVC060 11/03 A2985 RMK AO2 SLP109 T01110033 401611028 TSNO,KLAF,2015-04-25T04:54:00Z,40.42,-86.93,11.1,3.3,70,6,,10.0,29.84941,1010.9,,TRUE,TRUE,,,TRUE,,,,OVC,6000,,,,,,,VFR,,,,16.1,-2.8,,,,,,,METAR,182.0
KJST 250454Z AUTO 01005KT 10SM CLR 01/M11 A2993 RMK AO2 SLP152 T00111111 400941022 TSNO,KJST,2015-04-25T04:54:00Z,40.32,-78.83,1.1,-11.1,10,5,,10.0,29.929134,1015.2,,TRUE,TRUE,,,TRUE,,,,CLR,,,,,,,,VFR,,,,9.4,-2.2,,,,,,,METAR,694.0
KJAN 250454Z AUTO 17009KT 10SM OVC011 22/19 A2978 RMK AO2 SLP082 T02220194 TSNO,KJAN,2015-04-25T04:54:00Z,32.32,-90.08,22.2,19.4,170,9,,10.0,29.778543,1008.2,,TRUE,TRUE,,,TRUE,,,,OVC,1100,,,,,,,MVFR,,,,,,,,,,,,METAR,91.0
KIZG 250454Z AUTO 27006G16KT 10SM OVC110 02/M06 A2971 RMK AO2 SLP063 T00221061 400830017 TSNO,KIZG,2015-04-25T04:54:00Z,43.98,-70.95,2.2,-6.1,270,6,16,10.0,29.71063,1006.3,,TRUE,TRUE,,,TRUE,,,,OVC,11000,,,,,,,VFR,,,,8.3,1.7,,,,,,,METAR,135.0
KIPT 250454Z AUTO 28005KT 10SM CLR 03/M07 A2996 RMK AO2 SLP150 T00281072 401220017 TSNO,KIPT,2015-04-25T04:54:00Z,41.25,-76.92,2.8,-7.2,280,5,,10.0,29.958662,1015.0,,TRUE,TRUE,,,TRUE,,,,CLR,,,,,,,,VFR,,,,12.2,1.7,,,,,,,METAR,164.0
KIND 250454Z 16006KT 10SM -RA OVC050 12/01 A2986 RMK AO2 RAB34 SLP109 P0000 T01220006 401670000,KIND,2015-04-25T04:54:00Z,39.72,-86.3,12.2,0.6,160,6,,10.0,29.861221,1010.9,,,TRUE,,,,,,-RA,OVC,5000,,,,,,,VFR,,,,16.7,,0.0050,,,,,,METAR,241.0
KIMT 250454Z AUTO 12003KT 10SM OVC090 03/M05 A2999 RMK AO2 SLP167 T00331050 TSNO,KIMT,2015-04-25T04:54:00Z,45.82,-88.12,3.3,-5.0,120,3,,10.0,29.991142,1016.7,,TRUE,TRUE,,,TRUE,,,,OVC,9000,,,,,,,VFR,,,,,,,,,,,,METAR,349.0
KILN 250454Z AUTO 07005KT 10SM BKN075 OVC090 10/01 A2990 RMK AO2 SLP135 T01000011 401441017 TSNO,KILN,2015-04-25T04:54:00Z,39.43,-83.8,10.0,1.1,70,5,,10.0,29.899607,1013.5,,TRUE,TRUE,,,TRUE,,,,BKN,7500,OVC,9000,,,,,VFR,,,,14.4,-1.7,,,,,,,METAR,322.0
KHWD 250454Z AUTO 22005KT 10SM BKN020 BKN029 OVC035 14/08 A3002 RMK AO2 SLP174 T01390083 TSNO $,KHWD,2015-04-25T04:54:00Z,37.67,-122.12,13.9,8.3,220,5,,10.0,30.02067,1017.4,,TRUE,TRUE,TRUE,,TRUE,,,,BKN,2000,BKN,2900,OVC,3500,,,MVFR,,,,,,,,,,,,METAR,21.0
KGSO 250454Z 20006KT 10SM SCT250 10/02 A2992 RMK AO2 SLP129 T01000022 402000039,KGSO,2015-04-25T04:54:00Z,36.1,-79.95,10.0,2.2,200,6,,10.0,29.920275,1012.9,,,TRUE,,,,,,,SCT,25000,,,,,,,VFR,,,,20.0,3.9,,,,,,,METAR,275.0
KGED 250454Z AUTO 00000KT 10SM CLR 04/M01 A2995 RMK AO2 SLP141 T00441011 401330033 TSNO,KGED,2015-04-25T04:54:00Z,38.68,-75.37,4.4,-1.1,0,0,,10.0,29.949802,1014.1,,TRUE,TRUE,,,TRUE,,,,CLR,,,,,,,,VFR,,,,13.3,3.3,,,,,,,METAR,19.0
KGCN 250454Z AUTO 22011KT 10SM OVC090 07/01 A2998 RMK AO2 SLP098 T00720011 TSNO,KGCN,2015-04-25T04:54:00Z,35.95,-112.15,7.2,1.1,220,11,,10.0,29.97933,1009.8,,TRUE,TRUE,,,TRUE,,,,OVC,9000,,,,,,,VFR,,,,,,,,,,,,METAR,2016.0
KGCK 250454Z AUTO 30008KT 10SM BKN120 11/07 A2958 RMK AO2 SLP996 T01110072 TSNO,KGCK,2015-04-25T04:54:00Z,37.92,-100.72,11.1,7.2,300,8,,10.0,29.58071,999.6,,TRUE,TRUE,,,TRUE,,,,BKN,12000,,,,,,,VFR,,,,,,,,,,,,METAR,877.0
KFZY 250454Z AUTO 29007KT 10SM CLR 00/M05 A2995 RMK AO2 SLP146 T00001050 400440000 TSNO,KFZY,2015-04-25T04:54:00Z,43.35,-76.38,0.0,-5.0,290,7,,10.0,29.949802,1014.6,,TRUE,TRUE,,,TRUE,,,,CLR,,,,,,,,VFR,,,,4.4,,,,,,,,METAR,138.0
KBWI 250454Z 31004KT 10SM FEW250 04/M02 A2996 RMK AO2 SLP146 T00441017 401440033,KBWI,2015-04-25T04:54:00Z,39.17,-76.68,4.4,-1.7,310,4,,10.0,29.958662,1014.6,,,TRUE,,,,,,,FEW,25000,,,,,,,VFR,,,,14.4,3.3,,,,,,,METAR,59.0
KBUY 250454Z AUTO 00000KT 10SM CLR 09/04 A2993 RMK AO2 SLP133 T00890039 402060039 TSNO,KBUY,2015-04-25T04:54:00Z,36.05,-79.47,8.9,3.9,0,0,,10.0,29.929134,1013.3,,TRUE,TRUE,,,TRUE,,,,CLR,,,,,,,,VFR,,,,20.6,3.9,,,,,,,METAR,180.0
KBUF 250454Z 35003KT 10SM CLR M01/M05 A3000 RMK AO2 SLP167 T10061050 400441006,KBUF,2015-04-25T04:54:00Z,42.93,-78.73,-0.6,-5.0,350,3,,10.0,30.0,1016.7,,,TRUE,,,,,,,CLR,,,,,,,,VFR,,,,4.4,-0.6,,,,,,,METAR,211.0
KBTV 250454Z 31011KT 10SM BKN050 OVC060 03/M06 A2984 RMK AO2 SLP109 T00281056 400390022,KBTV,2015-04-25T04:54:00Z,44.47,-73.15,2.8,-5.6,310,11,,10.0,29.840551,1010.9,,,TRUE,,,,,,,BKN,5000,OVC,6000,,,,,VFR,,,,3.9,2.2,,,,,,,METAR,105.0
KBOS 250454Z 30010G17KT 10SM SCT055 04/M06 A2978 RMK AO2 SLP083 T00441061 401000028,KBOS,2015-04-25T04:54:00Z,42.37,-71.02,4.4,-6.1,300,10,17,10.0,29.778543,1008.3,,,TRUE,,,,,,,SCT,5500,,,,,,,VFR,,,,10.0,2.8,,,,,,,METAR,6.0
KBFL 250454Z 29006KT 10SM SCT070 18/02 A2995 RMK AO2 SLP139 T01780017,KBFL,2015-04-25T04:54:00Z,35.43,-119.05,17.8,1.7,290,6,,10.0,29.949802,1013.9,,,TRUE,,,,,,,SCT,7000,,,,,,,VFR,,,,,,,,,,,,METAR,151.0
KAVP 250454Z AUTO 19003KT 10SM OVC050 01/M05 A2992 RMK AO2 SLP138 T00111050 400940006 TSNO $,KAVP,2015-04-25T04:54:00Z,41.33,-75.72,1.1,-5.0,190,3,,10.0,29.920275,1013.8,,TRUE,TRUE,TRUE,,TRUE,,,,OVC,5000,,,,,,,VFR,,,,9.4,0.6,,,,,,,METAR,291.0
KAUW 250454Z AUTO 13008KT 10SM OVC080 05/M02 A2994 RMK AO2 SLP148 T00501017 TSNO,KAUW,2015-04-25T04:54:00Z,44.93,-89.62,5.0,-1.7,130,8,,10.0,29.940945,1014.8,,TRUE,TRUE,,,TRUE,,,,OVC,8000,,,,,,,VFR,,,,,,,,,,,,METAR,362.0
KAPN 250454Z AUTO 36003KT 10SM CLR M03/M08 A3004 RMK AO2 SLP180 T10331078 400941044 TSNO,KAPN,2015-04-25T04:54:00Z,45.07,-83.57,-3.3,-7.8,360,3,,10.0,30.041338,1018.0,,TRUE,TRUE,,,TRUE,,,,CLR,,,,,,,,VFR,,,,9.4,-4.4,,,,,,,METAR,210.0
KCOU 250454Z AUTO 11003KT 10SM OVC013 13/11 A2967 RMK AO2 SLP044 T01280106 TSNO,KCOU,2015-04-25T04:54:00Z,38.82,-92.22,12.8,10.6,110,3,,10.0,29.66929,1004.4,,TRUE,TRUE,,,TRUE,,,,OVC,1300,,,,,,,MVFR,,,,,,,,,,,,METAR,271.0
KCOS 250454Z 00000KT 10SM SCT200 05/M01 A2977 RMK AO2 SLP039 T00501006,KCOS,2015-04-25T04:54:00Z,38.82,-104.68,5.0,-0.6,0,0,,10.0,29.769686,1003.9,,,TRUE,,,,,,,SCT,20000,,,,,,,VFR,,,,,,,,,,,,METAR,1856.0
KMVL 250454Z AUTO 33006G16KT 10SM OVC031 00/M06 A2981 RMK AO2 UPB07E08 SLP105 P0000 T00001056 400170000 TSNO,KMVL,2015-04-25T04:54:00Z,44.53,-72.62,0.0,-5.6,330,6,16,10.0,29.811024,1010.5,,TRUE,TRUE,,,TRUE,,,,OVC,3100,,,,,,,VFR,,,,1.7,,0.0050,,,,,,METAR,234.0
KMRY 250454Z AUTO 18003KT 10SM FEW036 BKN070 12/08 A3008 RMK AO2 SLP197 T01220083 TSNO,KMRY,2015-04-25T04:54:00Z,36.58,-121.85,12.2,8.3,180,3,,10.0,30.079725,1019.7,,TRUE,TRUE,,,TRUE,,,,FEW,3600,BKN,7000,,,,,VFR,,,,,,,,,,,,METAR,66.0
KMOT 250454Z 09011KT 10SM CLR 07/03 A2972 RMK AO2 SLP074 T00720033,KMOT,2015-04-25T04:54:00Z,48.25,-101.27,7.2,3.3,90,11,,10.0,29.719488,1007.4,,,TRUE,,,,,,,CLR,,,,,,,,VFR,,,,,,,,,,,,METAR,519.0
KMIV 250454Z AUTO 06004KT 10SM CLR 04/M03 A2995 RMK AO2 SLP142 T00391033 401330011 TSNO,KMIV,2015-04-25T04:54:00Z,39.37,-75.08,3.9,-3.3,60,4,,10.0,29.949802,1014.2,,TRUE,TRUE,,,TRUE,,,,CLR,,,,,,,,VFR,,,,13.3,1.1,,,,,,,METAR,23.0
KMGJ 250454Z AUTO 27007KT 10SM CLR 00/M06 A2990 RMK AO2 SLPNO T00001061 TSNO,KMGJ,2015-04-25T04:54:00Z,41.52,-74.27,0.0,-6.1,270,7,,10.0,29.899607,,,TRUE,TRUE,,,TRUE,,,,CLR,,,,,,,,VFR,,,,,,,,,,,,METAR,108.0
KMFI 250454Z AUTO 11010KT 10SM -RA OVC045 04/01 A2993 RMK AO2 SLP140 P0000 T00390011 TSNO,KMFI,2015-04-25T04:54:00Z,,,3.9,1.1,110,10,,10.0,29.929134,1014.0,,TRUE,TRUE,,,TRUE,,,-RA,OVC,4500,,,,,,,VFR,,,,,,0.0050,,,,,,METAR,
KLYH 250454Z AUTO 00000KT 10SM CLR 07/M02 A2996 RMK AO2 SLP143 T00671022 401830011 TSNO,KLYH,2015-04-25T04:54:00Z,37.32,-79.2,6.7,-2.2,0,0,,10.0,29.958662,1014.3,,TRUE,TRUE,,,TRUE,,,,CLR,,,,,,,,VFR,,,,18.3,1.1,,,,,,,METAR,295.0
KLWM 250454Z AUTO 30008KT 10SM CLR 03/M06 A2979 RMK AO2 SLP087 T00281056 400940006 TSNO,KLWM,2015-04-25T04:54:00Z,42.72,-71.13,2.8,-5.6,300,8,,10.0,29.790354,1008.7,,TRUE,TRUE,,,TRUE,,,,CLR,,,,,,,,VFR,,,,9.4,0.6,,,,,,,METAR,54.0
KCRW 250454Z 00000KT 10SM SCT085 BKN120 07/00 A2993 RMK AO2 SLP136 T00670000 401610000,KCRW,2015-04-25T04:54:00Z,38.38,-81.58,6.7,0.0,0,0,,10.0,29.929134,1013.6,,,TRUE,,,,,,,SCT,8500,BKN,12000,,,,,VFR,,,,16.1,,,,,,,,METAR,309.0
KDDH 250454Z AUTO 27009KT 10SM OVC045 01/M06 A2983 RMK AO2 SLP108 T00111056 400440000 TSNO,KDDH,2015-04-25T04:54:00Z,42.9,-73.25,1.1,-5.6,270,9,,10.0,29.828741,1010.8,,TRUE,TRUE,,,TRUE,,,,OVC,4500,,,,,,,VFR,,,,4.4,,,,,,,,METAR,244.0
KDEC 250454Z AUTO 15008KT 10SM OVC033 13/03 A2978 RMK AO2 SLP083 T01330028 TSNO,KDEC,2015-04-25T04:54:00Z,39.83,-88.85,13.3,2.8,150,8,,10.0,29.778543,1008.3,,TRUE,TRUE,,,TRUE,,,,OVC,3300,,,,,,,VFR,,,,,,,,,,,,METAR,207.0
KECG 250454Z AUTO 13006KT 10SM CLR 10/07 A2995 RMK AO2 SLP143 T01000072 401830067 TSNO,KECG,2015-04-25T04:54:00Z,36.27,-76.18,10.0,7.2,130,6,,10.0,29.949802,1014.3,,TRUE,TRUE,,,TRUE,,,,CLR,,,,,,,,VFR,,,,18.3,6.7,,,,,,,METAR,11.0
KDYL 250454Z AUTO 00000KT 10SM CLR 02/M07 A2994 RMK AO2 SLP142 T00221067 401220017 TSNO,KDYL,2015-04-25T04:54:00Z,40.33,-75.12,2.2,-6.7,0,0,,10.0,29.940945,1014.2,,TRUE,TRUE,,,TRUE,,,,CLR,,,,,,,,VFR,,,,12.2,1.7,,,,,,,METAR,117.0
KDSV 250454Z AUTO 00000KT 10SM CLR 01/M04 A3000 RMK AO2 SLP173 T00061044 400670000 TSNO,KDSV,2015-04-25T04:54:00Z,42.57,-77.72,0.6,-4.4,0,0,,10.0,30.0,1017.3,,TRUE,TRUE,,,TRUE,,,,CLR,,,,,,,,VFR,,,,6.7,,,,,,,,METAR,198.0
KEUG 250454Z 26003KT 10SM -RA SCT024 BKN035 OVC045 09/07 A2996 RMK AO2 RAB0355E11B40 SLP145 P0000 T00890067,KEUG,2015-04-25T04:54:00Z,44.13,-123.22,8.9,6.7,260,3,,10.0,29.958662,1014.5,,,TRUE,,,,,,-RA,SCT,2400,BKN,3500,OVC,4500,,,VFR,,,,,,0.0050,,,,,,METAR,114.0
KEVV 250454Z AUTO 08006KT 10SM BKN028 OVC039 14/05 A2982 RMK AO2 SLP097 T01390050 TSNO,KEVV,2015-04-25T04:54:00Z,38.05,-87.52,13.9,5.0,80,6,,10.0,29.819881,1009.7,,TRUE,TRUE,,,TRUE,,,,BKN,2800,OVC,3900,,,,,MVFR,,,,,,,,,,,,METAR,117.0
PKMR 250454Z 04010KT 15SM FEW015 SCT050 BKN120 OVC300 29/26 A2973 RMK SLP069 T02890255,PKMR,2015-04-25T04:54:00Z,7.08,171.38,28.9,25.5,40,10,,15.0,29.731298,1006.9,,,,,,,,,,FEW,1500,SCT,5000,BKN,12000,OVC,30000,VFR,,,,,,,,,,,,METAR,4.0
KSBY 250454Z AUTO 00000KT 10SM CLR 02/M01 A2994 RMK AO2 SLP142 T00221006 401330022 TSNO,KSBY,2015-04-25T04:54:00Z,38.33,-75.5,2.2,-0.6,0,0,,10.0,29.940945,1014.2,,TRUE,TRUE,,,TRUE,,,,CLR,,,,,,,,VFR,,,,13.3,2.2,,,,,,,METAR,19.0
KSBN 250454Z 08012G20KT 9SM -RA FEW065 OVC080 07/04 A2991 RMK AO2 SLP130 P0007 T00720039 401611017,KSBN,2015-04-25T04:54:00Z,41.7,-86.32,7.2,3.9,80,12,20,9.0,29.911417,1013.0,,,TRUE,,,,,,-RA,FEW,6500,OVC,8000,,,,,VFR,,,,16.1,-1.7,0.07,,,,,,METAR,237.0
KROC 250454Z 30006KT 10SM CLR 00/M05 A2999 RMK AO2 SLP164 T00001050 400610000,KROC,2015-04-25T04:54:00Z,43.12,-77.68,0.0,-5.0,300,6,,10.0,29.991142,1016.4,,,TRUE,,,,,,,CLR,,,,,,,,VFR,,,,6.1,,,,,,,,METAR,178.0
KROA 250454Z 33003KT 10SM BKN250 10/M04 A2996 RMK AO2 SLP142 T01001044 401830050,KROA,2015-04-25T04:54:00Z,37.32,-79.97,10.0,-4.4,330,3,,10.0,29.958662,1014.2,,,TRUE,,,,,,,BKN,25000,,,,,,,VFR,,,,18.3,5.0,,,,,,,METAR,362.0
PGSN 250454Z 13011G21KT 10SM FEW013 SCT034 SCT065 29/24 A2978 RMK AO2 SLP105 T02890244,PGSN,2015-04-25T04:54:00Z,15.12,145.72,28.9,24.4,130,11,21,10.0,29.778543,1010.5,,,TRUE,,,,,,,FEW,1300,SCT,3400,SCT,6500,,,VFR,,,,,,,,,,,,METAR,65.0
PHOG 250454Z 27008KT 10SM FEW050 26/18 A2995 RMK AO2 SLP146 T02560183 $,PHOG,2015-04-25T04:54:00Z,20.9,-156.43,25.6,18.3,270,8,,10.0,29.949802,1014.6,,,TRUE,TRUE,,,,,,FEW,5000,,,,,,,VFR,,,,,,,,,,,,METAR,12.0
PHMK 250454Z AUTO 20004KT 10SM CLR 25/18 A2998 RMK AO2 SLP155 T02500178 TSNO,PHMK,2015-04-25T04:54:00Z,21.15,-157.1,25.0,17.8,200,4,,10.0,29.97933,1015.5,,TRUE,TRUE,,,TRUE,,,,CLR,,,,,,,,VFR,,,,,,,,,,,,METAR,141.0
PAKN 250454Z 11006KT 10SM -RA OVC036 06/01 A2953 RMK AO2 RAB31 SLP001 P0000 T00560006,PAKN,2015-04-25T04:54:00Z,58.68,-156.65,5.6,0.6,110,6,,10.0,29.530512,1000.1,,,TRUE,,,,,,-RA,OVC,3600,,,,,,,VFR,,,,,,0.0050,,,,,,METAR,17.0
PAHN 250454Z AUTO 00000KT 10SM CLR 08/00 A2983 RMK AO2 SLP105 T00780000 TSNO,PAHN,2015-04-25T04:54:00Z,59.25,-135.52,7.8,0.0,0,0,,10.0,29.828741,1010.5,,TRUE,TRUE,,,TRUE,,,,CLR,,,,,,,,VFR,,,,,,,,,,,,METAR,5.0
KFWA 250454Z 06011KT 10SM OVC080 11/00 A2994 RMK AO2 SLP139 T01060000 401561022,KFWA,2015-04-25T04:54:00Z,40.98,-85.18,10.6,0.0,60,11,,10.0,29.940945,1013.9,,,TRUE,,,,,,,OVC,8000,,,,,,,VFR,,,,15.6,-2.2,,,,,,,METAR,248.0
KFIG 250454Z AUTO 34007KT 10SM CLR 01/M09 A2997 RMK AO2 SLP159 T00061094 401001017 TSNO,KFIG,2015-04-25T04:54:00Z,41.05,-78.42,0.6,-9.4,340,7,,10.0,29.970472,1015.9,,TRUE,TRUE,,,TRUE,,,,CLR,,,,,,,,VFR,,,,10.0,-1.7,,,,,,,METAR,462.0
NSTU 250454Z 11007KT 10SM -SHRA FEW007 BKN014TCU OVC040 26/24 A2985 RMK TCU ALQDS SLP110 T02550243,NSTU,2015-04-25T04:54:00Z,-14.33,-170.72,25.5,24.3,110,7,,10.0,29.84941,1011.0,,,,,,,,,-SHRA,FEW,700,BKN,1400,OVC,4000,,,MVFR,,,,,,,,,,,,METAR,3.0
KWAL 250454Z AUTO 26004KT 10SM CLR 06/M01 A2995 RMK AO2 SLP138 T00561006 401390039 TSNO,KWAL,2015-04-25T04:54:00Z,37.93,-75.47,5.6,-0.6,260,4,,10.0,29.949802,1013.8,,TRUE,TRUE,,,TRUE,,,,CLR,,,,,,,,VFR,,,,13.9,3.9,,,,,,,METAR,14.0
KVTA 250454Z AUTO 00000KT 10SM BKN090 08/02 A2994 RMK AO2 SLP139 T00830017 401501044 TSNO,KVTA,2015-04-25T04:54:00Z,40.02,-82.47,8.3,1.7,0,0,,10.0,29.940945,1013.9,,TRUE,TRUE,,,TRUE,,,,BKN,9000,,,,,,,VFR,,,,15.0,-4.4,,,,,,,METAR,268.0
KVSF 250454Z AUTO 33005KT 10SM OVC045 02/M06 A2980 RMK AO2 SLP097 T00221061 400500006 TSNO,KVSF,2015-04-25T04:54:00Z,43.35,-72.52,2.2,-6.1,330,5,,10.0,29.799213,1009.7,,TRUE,TRUE,,,TRUE,,,,OVC,4500,,,,,,,VFR,,,,5.0,0.6,,,,,,,METAR,175.0
KVAY 250454Z AUTO 00000KT 10SM CLR 03/M06 A2996 RMK AO2 SLP144 T00331056 TSNO,KVAY,2015-04-25T04:54:00Z,39.93,-74.83,3.3,-5.6,0,0,,10.0,29.958662,1014.4,,TRUE,TRUE,,,TRUE,,,,CLR,,,,,,,,VFR,,,,,,,,,,,,METAR,15.0
KTQE 250454Z AUTO 10010KT 10SM OVC014 14/11 A2956 RMK AO2 SLP001 T01440111 TSNO,KTQE,2015-04-25T04:54:00Z,41.77,-96.18,14.4,11.1,100,10,,10.0,29.56004,1000.1,,TRUE,TRUE,,,TRUE,,,,OVC,1400,,,,,,,MVFR,,,,,,,,,,,,METAR,312.0
KTAD 250454Z AUTO 27008KT 10SM CLR 06/M04 A2977 RMK AO2 SLP031 T00611044 TSNO,KTAD,2015-04-25T04:54:00Z,37.27,-104.33,6.1,-4.4,270,8,,10.0,29.769686,1003.1,,TRUE,TRUE,,,TRUE,,,,CLR,,,,,,,,VFR,,,,,,,,,,,,METAR,1756.0
KSYR 250454Z 27006KT 10SM FEW065 00/M04 A2995 RMK AO2 SLP142 T00001044 400440000,KSYR,2015-04-25T04:54:00Z,43.12,-76.1,0.0,-4.4,270,6,,10.0,29.949802,1014.2,,,TRUE,,,,,,,FEW,6500,,,,,,,VFR,,,,4.4,,,,,,,,METAR,127.0
KSJN 250454Z AUTO 19010KT 10SM CLR 08/02 A3001 RMK AO2 SLP111 T00780017 TSNO,KSJN,2015-04-25T04:54:00Z,34.52,-109.38,7.8,1.7,190,10,,10.0,30.008858,1011.1,,TRUE,TRUE,,,TRUE,,,,CLR,,,,,,,,VFR,,,,,,,,,,,,METAR,1745.0
KDMH 250454Z AUTO 10/M05 A2997 RMK AO1 SLP148 T01001050 401440050,KDMH,2015-04-25T04:54:00Z,39.28,-76.62,10.0,-5.0,,,,,29.970472,1014.8,,TRUE,TRUE,,,,,,,,,,,,,,,,,,,14.4,5.0,,,,,,,METAR,5.0
KPSF 250454Z AUTO 31007G15KT 10SM SCT045 BKN060 M01/M07 A2982 RMK AO2 SLP103 T10061067 400391011 TSNO,KPSF,2015-04-25T04:54:00Z,42.43,-73.28,-0.6,-6.7,310,7,15,10.0,29.819881,1010.3,,TRUE,TRUE,,,TRUE,,,,SCT,4500,BKN,6000,,,,,VFR,,,,3.9,-1.1,,,,,,,METAR,355.0
KRSP 250454Z AUTO 10SM CLR 05/M10 RMK AO2 SLPNO T00501100 401111011 $,KRSP,2015-04-25T04:54:00Z,39.65,-77.47,5.0,-10.0,,,,10.0,,,,TRUE,TRUE,TRUE,,,,,,CLR,,,,,,,,VFR,,,,11.1,-1.1,,,,,,,SPECI,561.0
KIPL 250453Z AUTO 28016G25KT 10SM CLR 19/09 A2986 RMK AO2 PK WND 28027/0417 SLP111 T01890089 TSNO,KIPL,2015-04-25T04:53:00Z,32.83,-115.58,18.9,8.9,280,16,25,10.0,29.861221,1011.1,,TRUE,TRUE,,,TRUE,,,,CLR,,,,,,,,VFR,,,,,,,,,,,,METAR,-17.0
KITR 250453Z AUTO 28011KT 10SM CLR 09/05 A2963 RMK AO2 SLP000 T00940050 TSNO,KITR,2015-04-25T04:53:00Z,39.23,-102.28,9.4,5.0,280,11,,10.0,29.630905,1000.0,,TRUE,TRUE,,,TRUE,,,,CLR,,,,,,,,VFR,,,,,,,,,,,,METAR,1279.0
KIXD 250453Z AUTO 12012KT 10SM OVC023 15/12 A2955 RMK AO2 SLP001 T01500122 TSNO,KIXD,2015-04-25T04:53:00Z,38.82,-94.88,15.0,12.2,120,12,,10.0,29.551182,1000.1,,TRUE,TRUE,,,TRUE,,,,OVC,2300,,,,,,,MVFR,,,,,,,,,,,,METAR,342.0
KTCS 250453Z AUTO 26010KT 10SM CLR 13/M02 A2997 RMK AO2 SLP096 T01331022 TSNO $,KTCS,2015-04-25T04:53:00Z,33.23,-107.27,13.3,-2.2,260,10,,10.0,29.970472,1009.6,,TRUE,TRUE,TRUE,,TRUE,,,,CLR,,,,,,,,VFR,,,,,,,,,,,,METAR,1469.0
KP68 250453Z AUTO 20003KT 06/M01 A2985 RMK AO1 SLP074 T00611006,KP68,2015-04-25T04:53:00Z,39.6,-116.0,6.1,-0.6,200,3,,,29.84941,1007.4,,TRUE,TRUE,,,,,,,,,,,,,,,,,,,,,,,,,,,METAR,1809.0
KJEF 250453Z AUTO 12007KT 10SM OVC016 13/10 A2967 RMK AO2 SLP036 T01330100 TSNO,KJEF,2015-04-25T04:53:00Z,38.6,-92.15,13.3,10.0,120,7,,10.0,29.66929,1003.6,,TRUE,TRUE,,,TRUE,,,,OVC,1600,,,,,,,MVFR,,,,,,,,,,,,METAR,168.0
KJER 250453Z AUTO 19011KT 10SM OVC110 07/02 A2978 RMK AO2 SLP080 T00670017 TSNO,KJER,2015-04-25T04:53:00Z,42.72,-114.45,6.7,1.7,190,11,,10.0,29.778543,1008.0,,TRUE,TRUE,,,TRUE,,,,OVC,11000,,,,,,,VFR,,,,,,,,,,,,METAR,1222.0
KJKL 250453Z AUTO 00000KT 10SM OVC075 13/M04 A2990 RMK AO2 SLP120 T01281044 401780033 TSNO,KJKL,2015-04-25T04:53:00Z,37.6,-83.32,12.8,-4.4,0,0,,10.0,29.899607,1012.0,,TRUE,TRUE,,,TRUE,,,,OVC,7500,,,,,,,VFR,,,,17.8,3.3,,,,,,,METAR,416.0
KJLN 250453Z AUTO 16014G19KT 10SM CLR 16/13 A2956 RMK AO2 SLP002 T01610133 TSNO $,KJLN,2015-04-25T04:53:00Z,37.15,-94.5,16.1,13.3,160,14,19,10.0,29.56004,1000.2,,TRUE,TRUE,TRUE,,TRUE,,,,CLR,,,,,,,,VFR,,,,,,,,,,,,METAR,299.0
KLAA 250453Z AUTO 21010KT 10SM BKN110 10/06 A2961 RMK AO2 SLP998 T01000056 TSNO,KLAA,2015-04-25T04:53:00Z,38.07,-102.68,10.0,5.6,210,10,,10.0,29.610237,999.8,,TRUE,TRUE,,,TRUE,,,,BKN,11000,,,,,,,VFR,,,,,,,,,,,,METAR,1119.0
KLAN 250453Z 07005KT 10SM -RA OVC042 08/01 A3000 RMK AO2 RAE11B46 SLP163 P0000 T00780011 401391039,KLAN,2015-04-25T04:53:00Z,42.78,-84.58,7.8,1.1,70,5,,10.0,30.0,1016.3,,,TRUE,,,,,,-RA,OVC,4200,,,,,,,VFR,,,,13.9,-3.9,0.0050,,,,,,METAR,264.0
KLAR 250453Z AUTO 22011KT 10SM FEW110 03/00 A2976 RMK AO2 SLP014 T00330000 TSNO,KLAR,2015-04-25T04:53:00Z,41.32,-105.67,3.3,0.0,220,11,,10.0,29.760826,1001.4,,TRUE,TRUE,,,TRUE,,,,FEW,11000,,,,,,,VFR,,,,,,,,,,,,METAR,2216.0
KLAX 250453Z 26007KT 10SM BKN025 BKN055 15/12 A3003 RMK AO2 SLP167 T01500117,KLAX,2015-04-25T04:53:00Z,33.93,-118.38,15.0,11.7,260,7,,10.0,30.029528,1016.7,,,TRUE,,,,,,,BKN,2500,BKN,5500,,,,,MVFR,,,,,,,,,,,,METAR,46.0
KLBB 250453Z 25010KT 10SM CLR 15/M01 A2979 RMK AO2 SLP054 T01501011,KLBB,2015-04-25T04:53:00Z,33.67,-101.82,15.0,-1.1,250,10,,10.0,29.790354,1005.4,,,TRUE,,,,,,,CLR,,,,,,,,VFR,,,,,,,,,,,,METAR,993.0
PAIL 250453Z 08014G22KT 10SM BKN036 OVC110 04/01 A2964 RMK AO2 SLP041 T00390006,PAIL,2015-04-25T04:53:00Z,59.75,-154.92,3.9,0.6,80,14,22,10.0,29.639763,1004.1,,,TRUE,,,,,,,BKN,3600,OVC,11000,,,,,VFR,,,,,,,,,,,,METAR,49.0
PAHO 250453Z AUTO VRB03KT 10SM FEW043 BKN055 OVC120 08/01 A2971 RMK AO2 SLP062 T00780011 TSNO,PAHO,2015-04-25T04:53:00Z,59.63,-151.5,7.8,1.1,0,3,,10.0,29.71063,1006.2,,TRUE,TRUE,,,TRUE,,,,FEW,4300,BKN,5500,OVC,12000,,,VFR,,,,,,,,,,,,METAR,28.0
PAGY 250453Z AUTO 00000KT 10SM OVC080 09/01 A2984 RMK AO2 SLP105 T00940006 TSNO,PAGY,2015-04-25T04:53:00Z,59.47,-135.3,9.4,0.6,0,0,,10.0,29.840551,1010.5,,TRUE,TRUE,,,TRUE,,,,OVC,8000,,,,,,,VFR,,,,,,,,,,,,METAR,5.0
PAGK 250453Z AUTO 19007KT 10SM CLR 07/M10 A2975 RMK AO2 SLP093 T00671100 TSNO,PAGK,2015-04-25T04:53:00Z,62.15,-145.45,6.7,-10.0,190,7,,10.0,29.749016,1009.3,,TRUE,TRUE,,,TRUE,,,,CLR,,,,,,,,VFR,,,,,,,,,,,,METAR,481.0
PAFA 250453Z 05003KT 10SM FEW100 FEW200 12/M09 A2966 RMK AO2 SLP048 T01221094,PAFA,2015-04-25T04:53:00Z,64.8,-147.88,12.2,-9.4,50,3,,10.0,29.660433,1004.8,,,TRUE,,,,,,,FEW,10000,FEW,20000,,,,,VFR,,,,,,,,,,,,METAR,132.0
PAEN 250453Z AUTO 09009KT 10SM OVC070 07/M04 A2974 RMK AO2 SLP072 T00721039 TSNO,PAEN,2015-04-25T04:53:00Z,60.57,-151.25,7.2,-3.9,90,9,,10.0,29.740158,1007.2,,TRUE,TRUE,,,TRUE,,,,OVC,7000,,,,,,,VFR,,,,,,,,,,,,METAR,27.0
PAEG 250453Z AUTO 09004KT 10SM OVC085 09/M04 A2975 RMK AO2 SLP081 T00941044 TSNO,PAEG,2015-04-25T04:53:00Z,64.78,-141.15,9.4,-4.4,90,4,,10.0,29.749016,1008.1,,TRUE,TRUE,,,TRUE,,,,OVC,8500,,,,,,,VFR,,,,,,,,,,,,METAR,268.0
PADQ 250453Z 12008KT 10SM SCT015 BKN025 BKN050 04/02 A2963 RMK AO2 RAB08E36 SLP034 P0000 T00440022 $,PADQ,2015-04-25T04:53:00Z,57.75,-152.5,4.4,2.2,120,8,,10.0,29.630905,1003.4,,,TRUE,TRUE,,,,,,SCT,1500,BKN,2500,BKN,5000,,,MVFR,,,,,,0.0050,,,,,,METAR,34.0
PADE 250453Z AUTO 01003KT 10SM CLR 02/M02 A2974 RMK AO2 SLP072 T00221017 TSNO,PADE,2015-04-25T04:53:00Z,66.07,-162.77,2.2,-1.7,10,3,,10.0,29.740158,1007.2,,TRUE,TRUE,,,TRUE,,,,CLR,,,,,,,,VFR,,,,,,,,,,,,METAR,5.0
PACV 250453Z 00000KT 7SM FEW150 BKN200 04/00 A2983 RMK AO2 SLP102 T00440000,PACV,2015-04-25T04:53:00Z,60.5,-145.5,4.4,0.0,0,0,,7.0,29.828741,1010.2,,,TRUE,,,,,,,FEW,15000,BKN,20000,,,,,VFR,,,,,,,,,,,,METAR,12.0
PABT 250453Z 05008KT 10SM FEW170 07/M06 A2979 RMK AO2 SLP098 T00671061 PNO,PABT,2015-04-25T04:53:00Z,66.92,-151.52,6.7,-6.1,50,8,,10.0,29.790354,1009.8,,,TRUE,,,,,,,FEW,17000,,,,,,,VFR,,,,,,,,,,,,METAR,195.0
PABE 250453Z 00000KT 10SM BKN055 OVC070 04/02 A2957 RMK AO2 RAE0354B14E31 SLP016 P0000 T00390022,PABE,2015-04-25T04:53:00Z,60.78,-161.85,3.9,2.2,0,0,,10.0,29.568897,1001.6,,,TRUE,,,,,,,BKN,5500,OVC,7000,,,,,VFR,,,,,,0.0050,,,,,,METAR,41.0
PAAQ 250453Z AUTO 14014KT 10SM FEW120 08/M09 A2974 RMK AO2 SLP073 T00781089 TSNO,PAAQ,2015-04-25T04:53:00Z,61.6,-149.08,7.8,-8.9,140,14,,10.0,29.740158,1007.3,,TRUE,TRUE,,,TRUE,,,,FEW,12000,,,,,,,VFR,,,,,,,,,,,,METAR,73.0
KNQX 250453Z AUTO 35006KT 10SM FEW016 27/23 A2997 RMK AO2 SLP147 T02720233 403110256 $,KNQX,2015-04-25T04:53:00Z,24.57,-81.67,27.2,23.3,350,6,,10.0,29.970472,1014.7,,TRUE,TRUE,TRUE,,,,,,FEW,1600,,,,,,,VFR,,,,31.1,25.6,,,,,,,METAR,2.0
PAOM 250453Z 02006KT 10SM FEW040 SCT220 03/M01 A2970 RMK AO2 SLP056 T00331006,PAOM,2015-04-25T04:53:00Z,64.5,-165.43,3.3,-0.6,20,6,,10.0,29.698818,1005.6,,,TRUE,,,,,,,FEW,4000,SCT,22000,,,,,VFR,,,,,,,,,,,,METAR,11.0
PAMC 250453Z AUTO 08010KT 10SM CLR 10/M08 A2962 RMK AO2 SLP036 T01001083 TSNO,PAMC,2015-04-25T04:53:00Z,62.97,-155.62,10.0,-8.3,80,10,,10.0,29.619095,1003.6,,TRUE,TRUE,,,TRUE,,,,CLR,,,,,,,,VFR,,,,,,,,,,,,METAR,103.0
PALH 250453Z 19008KT 10SM BKN095 08/M08 A2975 RMK AO2 SLP077 T00781083,PALH,2015-04-25T04:53:00Z,61.18,-149.97,7.8,-8.3,190,8,,10.0,29.749016,1007.7,,,TRUE,,,,,,,BKN,9500,,,,,,,VFR,,,,,,,,,,,,METAR,22.0
PAKW 250453Z AUTO 18008KT 10SM OVC085 08/06 A2982 RMK AO2 SLP098 T00830056 TSNO,PAKW,2015-04-25T04:53:00Z,55.58,-133.07,8.3,5.6,180,8,,10.0,29.819881,1009.8,,TRUE,TRUE,,,TRUE,,,,OVC,8500,,,,,,,VFR,,,,,,,,,,,,METAR,15.0
PAKV 250453Z AUTO 04005KT 10SM CLR 06/M04 A2970 RMK AO2 SLP060 T00561039 TSNO,PAKV,2015-04-25T04:53:00Z,64.33,-158.75,5.6,-3.9,40,5,,10.0,29.698818,1006.0,,TRUE,TRUE,,,TRUE,,,,CLR,,,,,,,,VFR,,,,,,,,,,,,METAR,61.0
PAKT 250453Z 16005KT 10SM SCT080 OVC090 09/06 A2983 RMK AO2 SLP102 T00940061,PAKT,2015-04-25T04:53:00Z,55.35,-131.7,9.4,6.1,160,5,,10.0,29.828741,1010.2,,,TRUE,,,,,,,SCT,8000,OVC,9000,,,,,VFR,,,,,,,,,,,,METAR,28.0
PAJN 250453Z 00000KT 10SM FEW037 FEW110 08/02 A2982 RMK AO2 SLP099 T00780017,PAJN,2015-04-25T04:53:00Z,58.37,-134.58,7.8,1.7,0,0,,10.0,29.819881,1009.9,,,TRUE,,,,,,,FEW,3700,FEW,11000,,,,,VFR,,,,,,,,,,,,METAR,5.0
KMCN 250453Z AUTO 00000KT 10SM OVC110 18/13 A2994 RMK AO2 SLP134 T01780133 402560089 TSNO $,KMCN,2015-04-25T04:53:00Z,32.68,-83.65,17.8,13.3,0,0,,10.0,29.940945,1013.4,,TRUE,TRUE,TRUE,,TRUE,,,,OVC,11000,,,,,,,VFR,,,,25.6,8.9,,,,,,,METAR,109.0
KHKY 250453Z AUTO 19004KT 10SM BKN085 14/03 A2994 RMK AO2 SLP122 T01390028 402060044 TSNO,KHKY,2015-04-25T04:53:00Z,35.75,-81.38,13.9,2.8,190,4,,10.0,29.940945,1012.2,,TRUE,TRUE,,,TRUE,,,,BKN,8500,,,,,,,VFR,,,,20.6,4.4,,,,,,,METAR,354.0
KGVL 250453Z AUTO 00000KT 10SM OVC100 17/08 A2996 RMK AO2 SLP135 T01670078 402280061 TSNO,KGVL,2015-04-25T04:53:00Z,34.27,-83.83,16.7,7.8,0,0,,10.0,29.958662,1013.5,,TRUE,TRUE,,,TRUE,,,,OVC,10000,,,,,,,VFR,,,,22.8,6.1,,,,,,,METAR,386.0
KGSP 250453Z AUTO 00000KT 10SM BKN095 14/06 A2993 RMK AO2 SLP129 T01440056 402220100 TSNO,KGSP,2015-04-25T04:53:00Z,34.9,-82.22,14.4,5.6,0,0,,10.0,29.929134,1012.9,,TRUE,TRUE,,,TRUE,,,,BKN,9500,,,,,,,VFR,,,,22.2,10.0,,,,,,,METAR,287.0
KGMU 250453Z AUTO 26003KT 10SM OVC080 16/05 A2995 RMK AO2 SLP136 T01610050 402220100 TSNO,KGMU,2015-04-25T04:53:00Z,34.85,-82.35,16.1,5.0,260,3,,10.0,29.949802,1013.6,,TRUE,TRUE,,,TRUE,,,,OVC,8000,,,,,,,VFR,,,,22.2,10.0,,,,,,,METAR,315.0
KFTY 250453Z 00000KT 10SM FEW080 BKN110 17/13 A2992 RMK AO2 RAE0356B13E25 SLP126 P0000 T01670128 402500067,KFTY,2015-04-25T04:53:00Z,33.78,-84.52,16.7,12.8,0,0,,10.0,29.920275,1012.6,,,TRUE,,,,,,,FEW,8000,BKN,11000,,,,,VFR,,,,25.0,6.7,0.0050,,,,,,METAR,263.0
KFFC 250453Z AUTO 00000KT 10SM OVC100 17/13 A2994 RMK AO2 SLP136 T01720133 402560061 TSNO,KFFC,2015-04-25T04:53:00Z,33.35,-84.57,17.2,13.3,0,0,,10.0,29.940945,1013.6,,TRUE,TRUE,,,TRUE,,,,OVC,10000,,,,,,,VFR,,,,25.6,6.1,,,,,,,METAR,262.0
KEQY 250453Z AUTO 20003KT 10SM CLR 12/05 A2994 RMK AO2 SLP145 T01170050 402110033 TSNO,KEQY,2015-04-25T04:53:00Z,35.02,-80.62,11.7,5.0,200,3,,10.0,29.940945,1014.5,,TRUE,TRUE,,,TRUE,,,,CLR,,,,,,,,VFR,,,,21.1,3.3,,,,,,,METAR,212.0
KEET 250453Z AUTO 00000KT 10SM FEW110 19/12 A2987 RMK AO2 SLP111 T01940122 TSNO,KEET,2015-04-25T04:53:00Z,33.18,-86.78,19.4,12.2,0,0,,10.0,29.870079,1011.1,,TRUE,TRUE,,,TRUE,,,,FEW,11000,,,,,,,VFR,,,,,,,,,,,,METAR,173.0
KDNL 250453Z AUTO 15007KT 10SM CLR 18/08 A2997 RMK AO2 SLP146 T01780078 402440117 TSNO,KDNL,2015-04-25T04:53:00Z,33.47,-82.03,17.8,7.8,150,7,,10.0,29.970472,1014.6,,TRUE,TRUE,,,TRUE,,,,CLR,,,,,,,,VFR,,,,24.4,11.7,,,,,,,METAR,130.0
KCHA 250453Z AUTO 35004KT 10SM OVC100 16/08 A2991 RMK AO2 SLP124 T01560083 402170056 TSNO,KCHA,2015-04-25T04:53:00Z,35.03,-85.2,15.6,8.3,350,4,,10.0,29.911417,1012.4,,TRUE,TRUE,,,TRUE,,,,OVC,10000,,,,,,,VFR,,,,21.7,5.6,,,,,,,METAR,210.0
KBHM 250453Z 00000KT 10SM FEW080 BKN110 20/10 A2990 RMK AO2 RAE13 SLP117 P0000 T02000100,KBHM,2015-04-25T04:53:00Z,33.57,-86.75,20.0,10.0,0,0,,10.0,29.899607,1011.7,,,TRUE,,,,,,,FEW,8000,BKN,11000,,,,,VFR,,,,,,0.0050,,,,,,METAR,197.0
KANB 250453Z AUTO 04003KT 10SM FEW075 BKN110 18/11 A2989 RMK AO2 RAB23E36 SLP115 P0000 T01830106 TSNO,KANB,2015-04-25T04:53:00Z,33.58,-85.85,18.3,10.6,40,3,,10.0,29.890747,1011.5,,TRUE,TRUE,,,TRUE,,,,FEW,7500,BKN,11000,,,,,VFR,,,,,,0.0050,,,,,,METAR,183.0
KAGS 250453Z AUTO 18011KT 10SM CLR 17/09 A2997 RMK AO2 SLP147 T01720089 402330067 TSNO,KAGS,2015-04-25T04:53:00Z,33.37,-81.97,17.2,8.9,180,11,,10.0,29.970472,1014.7,,TRUE,TRUE,,,TRUE,,,,CLR,,,,,,,,VFR,,,,23.3,6.7,,,,,,,METAR,44.0
KVPC 250453Z AUTO 00000KT 10SM BKN095 BKN120 14/12 A2992 RMK AO2 SLP122 T01440117 402390044 TSNO $,KVPC,2015-04-25T04:53:00Z,34.13,-84.85,14.4,11.7,0,0,,10.0,29.920275,1012.2,,TRUE,TRUE,TRUE,,TRUE,,,,BKN,9500,BKN,12000,,,,,VFR,,,,23.9,4.4,,,,,,,METAR,222.0
KTYS 250453Z 08003KT 10SM BKN080 BKN100 OVC200 12/07 A2991 RMK AO2 SLP123 T01220067 401890028,KTYS,2015-04-25T04:53:00Z,35.82,-83.98,12.2,6.7,80,3,,10.0,29.911417,1012.3,,,TRUE,,,,,,,BKN,8000,BKN,10000,OVC,20000,,,VFR,,,,18.9,2.8,,,,,,,METAR,302.0
KTRI 250453Z 00000KT 10SM OVC085 11/05 A2993 RMK AO2 SLP120 T01060050 401890000,KTRI,2015-04-25T04:53:00Z,36.48,-82.4,10.6,5.0,0,0,,10.0,29.929134,1012.0,,,TRUE,,,,,,,OVC,8500,,,,,,,VFR,,,,18.9,,,,,,,,METAR,474.0
KTOI 250453Z AUTO 00000KT 10SM CLR 19/16 A2990 RMK AO2 SLP119 T01890156 TSNO,KTOI,2015-04-25T04:53:00Z,31.85,-86.02,18.9,15.6,0,0,,10.0,29.899607,1011.9,,TRUE,TRUE,,,TRUE,,,,CLR,,,,,,,,VFR,,,,,,,,,,,,METAR,118.0
KTCL 250453Z AUTO 09003KT 10SM FEW055 BKN120 21/12 A2987 RMK AO2 SLP112 T02060117 TSNO,KTCL,2015-04-25T04:53:00Z,33.22,-87.62,20.6,11.7,90,3,,10.0,29.870079,1011.2,,TRUE,TRUE,,,TRUE,,,,FEW,5500,BKN,12000,,,,,VFR,,,,,,,,,,,,METAR,49.0
KRWI 250453Z AUTO 00000KT 10SM CLR 08/05 A2995 RMK AO2 SLP141 T00830050 401940028 TSNO,KRWI,2015-04-25T04:53:00Z,35.85,-77.9,8.3,5.0,0,0,,10.0,29.949802,1014.1,,TRUE,TRUE,,,TRUE,,,,CLR,,,,,,,,VFR,,,,19.4,2.8,,,,,,,METAR,47.0
KP92 250453Z AUTO VRB05KT 24/23 A2977 RMK AO1 SLP082 T02390233,KP92,2015-04-25T04:53:00Z,29.57,-91.53,23.9,23.3,0,5,,,29.769686,1008.2,,TRUE,TRUE,,,,,,,,,,,,,,,,,,,,,,,,,,,METAR,1.0
KLEE 250453Z AUTO 12004KT 10SM CLR 21/18 A3000 RMK AO2 SLP157 T02110183 403060211 TSNO,KLEE,2015-04-25T04:53:00Z,28.82,-81.82,21.1,18.3,120,4,,10.0,30.0,1015.7,,TRUE,TRUE,,,TRUE,,,,CLR,,,,,,,,VFR,,,,30.6,21.1,,,,,,,METAR,23.0
KLEB 250453Z AUTO 34007G15KT 10SM BKN042 OVC100 03/M07 A2979 RMK AO2 SLP093 T00281067 400670006 TSNO,KLEB,2015-04-25T04:53:00Z,43.63,-72.3,2.8,-6.7,340,7,15,10.0,29.790354,1009.3,,TRUE,TRUE,,,TRUE,,,,BKN,4200,OVC,10000,,,,,VFR,,,,6.7,0.6,,,,,,,METAR,171.0
KLFK 250453Z AUTO 00000KT 6SM HZ BKN024 25/22 A2977 RMK AO2 SLP078 T02500222 TSNO,KLFK,2015-04-25T04:53:00Z,31.23,-94.75,25.0,22.2,0,0,,6.0,29.769686,1007.8,,TRUE,TRUE,,,TRUE,,,HZ,BKN,2400,,,,,,,MVFR,,,,,,,,,,,,METAR,88.0
KLHQ 250453Z AUTO 00000KT 10SM OVC090 09/04 A2994 RMK AO2 SLP141 T00890039 401501033 TSNO,KLHQ,2015-04-25T04:53:00Z,39.75,-82.67,8.9,3.9,0,0,,10.0,29.940945,1014.1,,TRUE,TRUE,,,TRUE,,,,OVC,9000,,,,,,,VFR,,,,15.0,-3.3,,,,,,,METAR,260.0
KOWD 250453Z AUTO 29009KT 10SM OVC055 04/M06 A2979 RMK AO2 SLP086 T00441056 401110011 TSNO,KOWD,2015-04-25T04:53:00Z,42.18,-71.17,4.4,-5.6,290,9,,10.0,29.790354,1008.6,,TRUE,TRUE,,,TRUE,,,,OVC,5500,,,,,,,VFR,,,,11.1,1.1,,,,,,,METAR,19.0
KOXB 250453Z AUTO 00000KT 10SM CLR 02/M01 A2994 RMK AO2 SLP139 T00221006 401330022 TSNO,KOXB,2015-04-25T04:53:00Z,38.32,-75.12,2.2,-0.6,0,0,,10.0,29.940945,1013.9,,TRUE,TRUE,,,TRUE,,,,CLR,,,,,,,,VFR,,,,13.3,2.2,,,,,,,METAR,3.0
KPBF 250453Z AUTO 20010KT 5SM +RA BR SCT005 BKN080 OVC100 16/15 A2983 RMK AO2 PRESRR SLP101 P0013 T01560150 TSNO,KPBF,2015-04-25T04:53:00Z,34.18,-91.93,15.6,15.0,200,10,,5.0,29.828741,1010.1,,TRUE,TRUE,,,TRUE,,,+RA BR,SCT,500,BKN,8000,OVC,10000,,,MVFR,,,,,,0.13,,,,,,METAR,62.0
KPBG 250453Z AUTO 31003KT 10SM BKN041 OVC060 02/M05 A2985 RMK AO2 SLP110 T00221050 400390017 TSNO,KPBG,2015-04-25T04:53:00Z,44.65,-73.47,2.2,-5.0,310,3,,10.0,29.84941,1011.0,,TRUE,TRUE,,,TRUE,,,,BKN,4100,OVC,6000,,,,,VFR,,,,3.9,1.7,,,,,,,METAR,72.0
KPBI 250453Z 07005KT 10SM FEW022 26/22 A2999 RMK AO2 SLP153 T02560217 403000217,KPBI,2015-04-25T04:53:00Z,26.68,-80.1,25.6,21.7,70,5,,10.0,29.991142,1015.3,,,TRUE,,,,,,,FEW,2200,,,,,,,VFR,,,,30.0,21.7,,,,,,,METAR,6.0
KBIL 250453Z 01013KT 10SM -RA SCT050 BKN085 11/03 A2958 RMK AO2 PK WND 01027/0401 RAB22 SLP005 OCNL LTG DSNT NE CB DSNT NE P0000 T01060028,KBIL,2015-04-25T04:53:00Z,45.8,-108.55,10.6,2.8,10,13,,10.0,29.58071,1000.5,,,TRUE,,,,,,-RA,SCT,5000,BKN,8500,,,,,VFR,,,,,,0.0050,,,,,,METAR,1091.0
KODX 250453Z AUTO 11006KT 10SM BKN120 13/08 A2948 RMK AO2 SLP978 T01330078 TSNO,KODX,2015-04-25T04:53:00Z,41.62,-98.95,13.3,7.8,110,6,,10.0,29.480314,997.8,,TRUE,TRUE,,,TRUE,,,,BKN,12000,,,,,,,VFR,,,,,,,,,,,,METAR,631.0
KIWI 250453Z AUTO 00000KT 10SM OVC075 02/M05 A2971 RMK AO2 SLP061 T00171050 401001006 TSNO,KIWI,2015-04-25T04:53:00Z,43.97,-69.72,1.7,-5.0,0,0,,10.0,29.71063,1006.1,,TRUE,TRUE,,,TRUE,,,,OVC,7500,,,,,,,VFR,,,,10.0,-0.6,,,,,,,METAR,20.0
KGFK 250453Z AUTO 09010KT 10SM OVC029 08/02 A2982 RMK AO2 SLP105 T00780017 TSNO,KGFK,2015-04-25T04:53:00Z,47.95,-97.18,7.8,1.7,90,10,,10.0,29.819881,1010.5,,TRUE,TRUE,,,TRUE,,,,OVC,2900,,,,,,,MVFR,,,,,,,,,,,,METAR,258.0
PTYA 250453Z 05009KT 12SM SCT016CB SCT130 OVC300 30/25 A2972 RMK CB N SLP064 T03030254,PTYA,2015-04-25T04:53:00Z,9.48,138.08,30.3,25.4,50,9,,12.0,29.719488,1006.4,,,,,,,,,,SCT,1600,SCT,13000,OVC,30000,,,VFR,,,,,,,,,,,,METAR,17.0
KOQT 250453Z AUTO 00000KT 10SM BKN060 OVC100 13/06 A2992 RMK AO2 SLP129 T01330061 402060028,KOQT,2015-04-25T04:53:00Z,36.02,-84.23,13.3,6.1,0,0,,10.0,29.920275,1012.9,,TRUE,TRUE,,,,,,,BKN,6000,OVC,10000,,,,,VFR,,,,20.6,2.8,,,,,,,METAR,277.0
KNUI 250453Z AUTO 00000KT 10SM CLR 04/01 A2995 RMK AO2 SLP141 T00440006 401560039,KNUI,2015-04-25T04:53:00Z,38.15,-76.43,4.4,0.6,0,0,,10.0,29.949802,1014.1,,TRUE,TRUE,,,,,,,CLR,,,,,,,,VFR,,,,15.6,3.9,,,,,,,METAR,7.0
TJNR 250453Z AUTO 24003KT 10SM SCT022 OVC080 26/22 A2999 RMK AO2 SLP155 T02560222 $,TJNR,2015-04-25T04:53:00Z,18.25,-65.63,25.6,22.2,240,3,,10.0,29.991142,1015.5,,TRUE,TRUE,TRUE,,,,,,SCT,2200,OVC,8000,,,,,VFR,,,,,,,,,,,,METAR,12.0
KRSL 250453Z AUTO 15005KT 10SM -RA FEW060 OVC070 13/12 A2944 RMK AO2 SLP962 P0008 T01280122 TSNO,KRSL,2015-04-25T04:53:00Z,38.87,-98.82,12.8,12.2,150,5,,10.0,29.438976,996.2,,TRUE,TRUE,,,TRUE,,,-RA,FEW,6000,OVC,7000,,,,,VFR,,,,,,0.08,,,,,,METAR,567.0
KPDT 250453Z AUTO 28014KT 10SM SCT095 08/01 A2983 RMK AO2 SLP097 T00830011 TSNO,KPDT,2015-04-25T04:53:00Z,45.7,-118.83,8.3,1.1,280,14,,10.0,29.828741,1009.7,,TRUE,TRUE,,,TRUE,,,,SCT,9500,,,,,,,VFR,,,,,,,,,,,,METAR,462.0
KPDX 250453Z 06005KT 10SM BKN034 BKN043 OVC060 11/08 A2992 RMK AO2 SLP130 T01060083 $,KPDX,2015-04-25T04:53:00Z,45.6,-122.62,10.6,8.3,60,5,,10.0,29.920275,1013.0,,,TRUE,TRUE,,,,,,BKN,3400,BKN,4300,OVC,6000,,,VFR,,,,,,,,,,,,METAR,7.0
KPEO 250453Z AUTO 28008KT 10SM CLR 01/M05 A2996 RMK AO2 SLP155 T00061050 400440000 TSNO,KPEO,2015-04-25T04:53:00Z,42.65,-77.05,0.6,-5.0,280,8,,10.0,29.958662,1015.5,,TRUE,TRUE,,,TRUE,,,,CLR,,,,,,,,VFR,,,,4.4,,,,,,,,METAR,256.0
KPGA 250453Z AUTO 23007G15KT 10SM CLR 17/01 A2982 RMK AO2 SLP053 T01670006 TSNO,KPGA,2015-04-25T04:53:00Z,36.92,-111.45,16.7,0.6,230,7,15,10.0,29.819881,1005.3,,TRUE,TRUE,,,TRUE,,,,CLR,,,,,,,,VFR,,,,,,,,,,,,METAR,1307.0
KPGD 250453Z AUTO 11006KT 10SM CLR 23/21 A2999 RMK AO2 SLP155 T02280206 403170211 TSNO,KPGD,2015-04-25T04:53:00Z,26.92,-82.0,22.8,20.6,110,6,,10.0,29.991142,1015.5,,TRUE,TRUE,,,TRUE,,,,CLR,,,,,,,,VFR,,,,31.7,21.1,,,,,,,METAR,7.0
KPHD 250453Z AUTO 12003KT 10SM BKN075 OVC095 08/M02 A2999 RMK AO2 SLP158 T00781022 401501033 TSNO,KPHD,2015-04-25T04:53:00Z,40.47,-81.42,7.8,-2.2,120,3,,10.0,29.991142,1015.8,,TRUE,TRUE,,,TRUE,,,,BKN,7500,OVC,9500,,,,,VFR,,,,15.0,-3.3,,,,,,,METAR,272.0
KPIE 250453Z AUTO 13010G20KT 10SM CLR 24/20 A2997 RMK AO2 SLP147 T02440200 403170233 TSNO,KPIE,2015-04-25T04:53:00Z,27.92,-82.68,24.4,20.0,130,10,20,10.0,29.970472,1014.7,,TRUE,TRUE,,,TRUE,,,,CLR,,,,,,,,VFR,,,,31.7,23.3,,,,,,,METAR,4.0
KPIH 250453Z AUTO 22015KT 10SM OVC060 08/03 A2976 RMK AO2 SLP060 T00780028 TSNO,KPIH,2015-04-25T04:53:00Z,42.92,-112.57,7.8,2.8,220,15,,10.0,29.760826,1006.0,,TRUE,TRUE,,,TRUE,,,,OVC,6000,,,,,,,VFR,,,,,,,,,,,,METAR,1359.0
KPIR 250453Z AUTO 04019KT 10SM CLR 11/07 A2954 RMK AO2 SLP000 T01060067 TSNO,KPIR,2015-04-25T04:53:00Z,44.38,-100.28,10.6,6.7,40,19,,10.0,29.53937,1000.0,,TRUE,TRUE,,,TRUE,,,,CLR,,,,,,,,VFR,,,,,,,,,,,,METAR,526.0
KPKB 250453Z AUTO 00000KT 10SM BKN100 06/01 A2998 RMK AO2 SLP153 T00610006 401671022 TSNO,KPKB,2015-04-25T04:53:00Z,39.35,-81.42,6.1,0.6,0,0,,10.0,29.97933,1015.3,,TRUE,TRUE,,,TRUE,,,,BKN,10000,,,,,,,VFR,,,,16.7,-2.2,,,,,,,METAR,262.0
KPKD 250453Z AUTO 10008KT 10SM OVC022 05/M01 A2982 RMK AO2 SLP110 T00501006 TSNO,KPKD,2015-04-25T04:53:00Z,46.9,-95.07,5.0,-0.6,100,8,,10.0,29.819881,1011.0,,TRUE,TRUE,,,TRUE,,,,OVC,2200,,,,,,,MVFR,,,,,,,,,,,,METAR,442.0
KPMD 250453Z AUTO 23019KT 10SM CLR 12/08 A2997 RMK AO2 SLP137 T01170078 TSNO,KPMD,2015-04-25T04:53:00Z,34.63,-118.08,11.7,7.8,230,19,,10.0,29.970472,1013.7,,TRUE,TRUE,,,TRUE,,,,CLR,,,,,,,,VFR,,,,,,,,,,,,METAR,780.0
KPMP 250453Z AUTO 09004KT 10SM FEW022 26/22 A2998 RMK AO2 SLP152 T02560217 403220228 TSNO,KPMP,2015-04-25T04:53:00Z,26.25,-80.12,25.6,21.7,90,4,,10.0,29.97933,1015.2,,TRUE,TRUE,,,TRUE,,,,FEW,2200,,,,,,,VFR,,,,32.2,22.8,,,,,,,METAR,6.0
KPOF 250453Z AUTO 00000KT 9SM OVC004 13/11 A2974 RMK AO2 SLP072 T01280111 TSNO,KPOF,2015-04-25T04:53:00Z,36.77,-90.32,12.8,11.1,0,0,,9.0,29.740158,1007.2,,TRUE,TRUE,,,TRUE,,,,OVC,400,,,,,,,LIFR,,,,,,,,,,,,METAR,99.0
KPOU 250453Z AUTO 26004KT 10SM CLR 02/M06 A2989 RMK AO2 SLP119 T00171061 400720011 TSNO,KPOU,2015-04-25T04:53:00Z,41.63,-73.88,1.7,-6.1,260,4,,10.0,29.890747,1011.9,,TRUE,TRUE,,,TRUE,,,,CLR,,,,,,,,VFR,,,,7.2,1.1,,,,,,,METAR,46.0
KPRB 250453Z AUTO 31012KT 10SM CLR 13/01 A3002 RMK AO2 SLP163 T01330011 TSNO,KPRB,2015-04-25T04:53:00Z,35.67,-120.63,13.3,1.1,310,12,,10.0,30.02067,1016.3,,TRUE,TRUE,,,TRUE,,,,CLR,,,,,,,,VFR,,,,,,,,,,,,METAR,245.0
KPRC 250453Z AUTO 19008KT 10SM BKN080 11/03 A2998 RMK AO2 SLP102 T01110028,KPRC,2015-04-25T04:53:00Z,34.65,-112.42,11.1,2.8,190,8,,10.0,29.97933,1010.2,,TRUE,TRUE,,,,,,,BKN,8000,,,,,,,VFR,,,,,,,,,,,,METAR,1524.0
KPSC 250453Z AUTO 25011KT 10SM BKN110 12/01 A2982 RMK AO2 SLP097 T01220006 TSNO,KPSC,2015-04-25T04:53:00Z,46.27,-119.12,12.2,0.6,250,11,,10.0,29.819881,1009.7,,TRUE,TRUE,,,TRUE,,,,BKN,11000,,,,,,,VFR,,,,,,,,,,,,METAR,121.0
KLHX 250453Z AUTO 23004KT 10SM CLR 11/02 A2968 RMK AO2 SLP013 T01110022 TSNO $,KLHX,2015-04-25T04:53:00Z,38.05,-103.52,11.1,2.2,230,4,,10.0,29.681103,1001.3,,TRUE,TRUE,TRUE,,TRUE,,,,CLR,,,,,,,,VFR,,,,,,,,,,,,METAR,1277.0
KLMT 250453Z 28004KT 10SM OVC060 04/M01 A2987 RMK AO2 SLP113 T00441011,KLMT,2015-04-25T04:53:00Z,42.15,-121.72,4.4,-1.1,280,4,,10.0,29.870079,1011.3,,,TRUE,,,,,,,OVC,6000,,,,,,,VFR,,,,,,,,,,,,METAR,1246.0
KLND 250453Z AUTO 23012KT 10SM FEW090 11/00 A2964 RMK AO2 SLP995 T01060000 TSNO,KLND,2015-04-25T04:53:00Z,42.82,-108.73,10.6,0.0,230,12,,10.0,29.639763,999.5,,TRUE,TRUE,,,TRUE,,,,FEW,9000,,,,,,,VFR,,,,,,,,,,,,METAR,1694.0
KLNS 250453Z AUTO 01008KT 10SM CLR 02/M06 A2995 RMK AO2 SLP144 T00171061 401220011 TSNO,KLNS,2015-04-25T04:53:00Z,40.12,-76.3,1.7,-6.1,10,8,,10.0,29.949802,1014.4,,TRUE,TRUE,,,TRUE,,,,CLR,,,,,,,,VFR,,,,12.2,1.1,,,,,,,METAR,125.0
KLOL 250453Z AUTO 31005KT 10SM BKN075 BKN100 10/02 A2985 RMK AO2 SLP095 T01000017 TSNO,KLOL,2015-04-25T04:53:00Z,40.07,-118.57,10.0,1.7,310,5,,10.0,29.84941,1009.5,,TRUE,TRUE,,,TRUE,,,,BKN,7500,BKN,10000,,,,,VFR,,,,,,,,,,,,METAR,1189.0
KLOU 250453Z AUTO VRB04KT 10SM -RA OVC042 14/01 A2988 RMK AO2 RAB32 SLP115 P0000 T01440011 401780006 TSNO $,KLOU,2015-04-25T04:53:00Z,38.22,-85.67,14.4,1.1,0,4,,10.0,29.878937,1011.5,,TRUE,TRUE,TRUE,,TRUE,,,-RA,OVC,4200,,,,,,,VFR,,,,17.8,0.6,0.0050,,,,,,METAR,164.0
KLOZ 250453Z AUTO 00000KT 10SM FEW050 BKN070 OVC080 15/00 A2990 RMK AO2 SLP120 T01500000 401940000 TSNO,KLOZ,2015-04-25T04:53:00Z,37.08,-84.07,15.0,0.0,0,0,,10.0,29.899607,1012.0,,TRUE,TRUE,,,TRUE,,,,FEW,5000,BKN,7000,OVC,8000,,,VFR,,,,19.4,,,,,,,,METAR,362.0
KLPR 250453Z AUTO 12004KT 10SM BKN085 OVC100 06/M02 A2999 RMK AO2 SLP160 T00561022 401111028 TSNO,KLPR,2015-04-25T04:53:00Z,41.35,-82.18,5.6,-2.2,120,4,,10.0,29.991142,1016.0,,TRUE,TRUE,,,TRUE,,,,BKN,8500,OVC,10000,,,,,VFR,,,,11.1,-2.8,,,,,,,METAR,241.0
KLSE 250453Z AUTO 14009KT 10SM BKN037 OVC045 07/03 A2986 RMK AO2 RAE23 SLP114 P0000 T00670033 TSNO,KLSE,2015-04-25T04:53:00Z,43.88,-91.25,6.7,3.3,140,9,,10.0,29.861221,1011.4,,TRUE,TRUE,,,TRUE,,,,BKN,3700,OVC,4500,,,,,VFR,,,,,,0.0050,,,,,,METAR,199.0
KLUK 250453Z AUTO 00000KT 10SM BKN070 OVC085 12/03 A2990 RMK AO2 RAB22E31 SLP125 P0000 T01220028 401611017 TSNO,KLUK,2015-04-25T04:53:00Z,39.1,-84.42,12.2,2.8,0,0,,10.0,29.899607,1012.5,,TRUE,TRUE,,,TRUE,,,,BKN,7000,OVC,8500,,,,,VFR,,,,16.1,-1.7,0.0050,,,,,,METAR,155.0
KLVK 250453Z 21009KT 10SM BKN023 OVC035 14/07 A3000 RMK AO2 SLP159 T01390072,KLVK,2015-04-25T04:53:00Z,37.7,-121.82,13.9,7.2,210,9,,10.0,30.0,1015.9,,,TRUE,,,,,,,BKN,2300,OVC,3500,,,,,MVFR,,,,,,,,,,,,METAR,117.0
KLVS 250453Z AUTO 27011KT 10SM CLR 07/M03 A2989 RMK AO2 SLP062 T00721033 TSNO,KLVS,2015-04-25T04:53:00Z,35.65,-105.13,7.2,-3.3,270,11,,10.0,29.890747,1006.2,,TRUE,TRUE,,,TRUE,,,,CLR,,,,,,,,VFR,,,,,,,,,,,,METAR,2091.0
KLWD 250453Z AUTO 13006KT 10SM OVC024 14/11 A2959 RMK AO2 SLP020 T01440111 TSNO,KLWD,2015-04-25T04:53:00Z,40.63,-93.9,14.4,11.1,130,6,,10.0,29.589567,1002.0,,TRUE,TRUE,,,TRUE,,,,OVC,2400,,,,,,,MVFR,,,,,,,,,,,,METAR,346.0
KLWV 250453Z AUTO 12006KT 10SM OVC034 13/05 A2983 RMK AO2 SLP099 T01330050 TSNO,KLWV,2015-04-25T04:53:00Z,38.77,-87.6,13.3,5.0,120,6,,10.0,29.828741,1009.9,,TRUE,TRUE,,,TRUE,,,,OVC,3400,,,,,,,VFR,,,,,,,,,,,,METAR,131.0
KLXV 250453Z AUTO 02006KT 10SM CLR M01/M07 A2992 RMK AO2 SLP049 T10111072 TSNO,KLXV,2015-04-25T04:53:00Z,39.23,-106.32,-1.1,-7.2,20,6,,10.0,29.920275,1004.9,,TRUE,TRUE,,,TRUE,,,,CLR,,,,,,,,VFR,,,,,,,,,,,,METAR,3028.0
KMAE 250453Z AUTO 31009KT 10SM CLR 16/M02 A2999 RMK AO2 SLP155 T01611017 TSNO,KMAE,2015-04-25T04:53:00Z,36.98,-120.12,16.1,-1.7,310,9,,10.0,29.991142,1015.5,,TRUE,TRUE,,,TRUE,,,,CLR,,,,,,,,VFR,,,,,,,,,,,,METAR,77.0
KMAF 250453Z AUTO 29013KT 10SM CLR 19/M03 A2983 RMK AO2 PK WND 29026/0434 SLP064 T01941028 TSNO,KMAF,2015-04-25T04:53:00Z,31.95,-102.2,19.4,-2.8,290,13,,10.0,29.828741,1006.4,,TRUE,TRUE,,,TRUE,,,,CLR,,,,,,,,VFR,,,,,,,,,,,,METAR,874.0
KGSH 250453Z AUTO 08008KT 10SM FEW060 OVC080 08/02 A2993 RMK AO2 SLP139 T00830022 401561033 TSNO,KGSH,2015-04-25T04:53:00Z,41.53,-85.78,8.3,2.2,80,8,,10.0,29.929134,1013.9,,TRUE,TRUE,,,TRUE,,,,FEW,6000,OVC,8000,,,,,VFR,,,,15.6,-3.3,,,,,,,METAR,252.0
KGRR 250453Z AUTO 22006KT 10SM OVC050 07/02 A2999 RMK AO2 RAE51 SLP158 P0000 T00720017 401441039 TSNO,KGRR,2015-04-25T04:53:00Z,42.88,-85.52,7.2,1.7,220,6,,10.0,29.991142,1015.8,,TRUE,TRUE,,,TRUE,,,,OVC,5000,,,,,,,VFR,,,,14.4,-3.9,0.0050,,,,,,METAR,237.0
KGRB 250453Z AUTO 14003KT 10SM FEW070 OVC090 04/M03 A3001 RMK AO2 SLP166 T00441033 TSNO,KGRB,2015-04-25T04:53:00Z,44.48,-88.13,4.4,-3.3,140,3,,10.0,30.008858,1016.6,,TRUE,TRUE,,,TRUE,,,,FEW,7000,OVC,9000,,,,,VFR,,,,,,,,,,,,METAR,208.0
KGPT 250453Z AUTO 17003KT 10SM CLR 22/19 A2981 RMK AO2 SLP095 T02220194 TSNO,KGPT,2015-04-25T04:53:00Z,30.42,-89.08,22.2,19.4,170,3,,10.0,29.811024,1009.5,,TRUE,TRUE,,,TRUE,,,,CLR,,,,,,,,VFR,,,,,,,,,,,,METAR,14.0
KHEY 250453Z AUTO 11003KT 10SM CLR 19/18 A2989 RMK AO2 SLP009 T01940178 402830156,KHEY,2015-04-25T04:53:00Z,31.35,-85.65,19.4,17.8,110,3,,10.0,29.890747,1000.9,,TRUE,TRUE,,,,,,,CLR,,,,,,,,VFR,,,,28.3,15.6,,,,,,,METAR,97.0
KCTY 250453Z AUTO 00000KT 21/15 A2997 RMK AO1 SLP147 T02060150 403170172,KCTY,2015-04-25T04:53:00Z,29.63,-83.1,20.6,15.0,0,0,,,29.970472,1014.7,,TRUE,TRUE,,,,,,,,,,,,,,,,,,,31.7,17.2,,,,,,,METAR,13.0
KNIP 250453Z 13004KT 10SM FEW180 BKN250 22/17 A3000 RMK AO2 SLP153 T02220172 402610211,KNIP,2015-04-25T04:53:00Z,30.22,-81.67,22.2,17.2,130,4,,10.0,30.0,1015.3,,,TRUE,,,,,,,FEW,18000,BKN,25000,,,,,VFR,,,,26.1,21.1,,,,,,,METAR,7.0
KCQC 250453Z AUTO 30015KT 10SM CLR 06/M02 A2994 RMK AO2 SLP109 T00611022,KCQC,2015-04-25T04:53:00Z,35.0,-105.67,6.1,-2.2,300,15,,10.0,29.940945,1010.9,,TRUE,TRUE,,,,,,,CLR,,,,,,,,VFR,,,,,,,,,,,,METAR,2160.0
K6R6 250453Z AUTO 02004KT 21/18 A2983 RMK AO1 SLP069 T02060183,K6R6,2015-04-25T04:53:00Z,30.05,-102.22,20.6,18.3,20,4,,,29.828741,1006.9,,TRUE,TRUE,,,,,,,,,,,,,,,,,,,,,,,,,,,METAR,701.0
KLOR 250453Z AUTO 00000KT 10SM CLR 19/17 A2988 RMK AO2 SLP116 T01890167 402890150,KLOR,2015-04-25T04:53:00Z,31.35,-85.75,18.9,16.7,0,0,,10.0,29.878937,1011.6,,TRUE,TRUE,,,,,,,CLR,,,,,,,,VFR,,,,28.9,15.0,,,,,,,METAR,74.0
KDVT 250453Z AUTO 21004KT 10SM CLR 19/07 A2988 RMK AO2 SLP105 T01940067 TSNO,KDVT,2015-04-25T04:53:00Z,33.68,-112.07,19.4,6.7,210,4,,10.0,29.878937,1010.5,,TRUE,TRUE,,,TRUE,,,,CLR,,,,,,,,VFR,,,,,,,,,,,,METAR,443.0
KDUJ 250453Z AUTO 36003KT 10SM CLR 01/M10 A2996 RMK AO2 SLP155 T00061100 401001022 TSNO,KDUJ,2015-04-25T04:53:00Z,41.17,-78.9,0.6,-10.0,360,3,,10.0,29.958662,1015.5,,TRUE,TRUE,,,TRUE,,,,CLR,,,,,,,,VFR,,,,10.0,-2.2,,,,,,,METAR,554.0
KDTW 250453Z 15003KT 10SM OVC060 07/M02 A3003 RMK AO2 SLP171 T00671017 401561017 $,KDTW,2015-04-25T04:53:00Z,42.23,-83.33,6.7,-1.7,150,3,,10.0,30.029528,1017.1,,,TRUE,TRUE,,,,,,OVC,6000,,,,,,,VFR,,,,15.6,-1.7,,,,,,,METAR,195.0
KDTO 250453Z AUTO 13004KT 6SM BR CLR 16/16 A2968 RMK AO2 SLPNO T01560156 TSNO,KDTO,2015-04-25T04:53:00Z,33.2,-97.2,15.6,15.6,130,4,,6.0,29.681103,,,TRUE,TRUE,,,TRUE,,,BR,CLR,,,,,,,,VFR,,,,,,,,,,,,METAR,196.0
KCOT 250453Z AUTO 07008KT 10SM CLR 23/20 A2974 RMK AO2 SLP062 T02280200 TSNO,KCOT,2015-04-25T04:53:00Z,28.45,-99.22,22.8,20.0,70,8,,10.0,29.740158,1006.2,,TRUE,TRUE,,,TRUE,,,,CLR,,,,,,,,VFR,,,,,,,,,,,,METAR,140.0
KCNY 250453Z AUTO 21005KT 10SM OVC100 13/M01 A2973 RMK AO2 SLP030 T01331011 TSNO,KCNY,2015-04-25T04:53:00Z,38.77,-109.75,13.3,-1.1,210,5,,10.0,29.731298,1003.0,,TRUE,TRUE,,,TRUE,,,,OVC,10000,,,,,,,VFR,,,,,,,,,,,,METAR,1390.0
KCNO 250453Z AUTO 27005KT 10SM CLR 14/10 A3002 RMK AO2 SLP164 T01390100 TSNO,KCNO,2015-04-25T04:53:00Z,33.98,-117.62,13.9,10.0,270,5,,10.0,30.02067,1016.4,,TRUE,TRUE,,,TRUE,,,,CLR,,,,,,,,VFR,,,,,,,,,,,,METAR,207.0
KCNM 250453Z AUTO 36003KT 10SM CLR 15/M03 A2986 RMK AO2 SLP069 T01501028 TSNO,KCNM,2015-04-25T04:53:00Z,32.33,-104.25,15.0,-2.8,360,3,,10.0,29.861221,1006.9,,TRUE,TRUE,,,TRUE,,,,CLR,,,,,,,,VFR,,,,,,,,,,,,METAR,985.0
KCMX 250453Z AUTO 09006KT 10SM OVC120 M01/M06 A3001 RMK AO2 SLP172 T10061056 400611056 TSNO,KCMX,2015-04-25T04:53:00Z,47.17,-88.48,-0.6,-5.6,90,6,,10.0,30.008858,1017.2,,TRUE,TRUE,,,TRUE,,,,OVC,12000,,,,,,,VFR,,,,6.1,-5.6,,,,,,,METAR,326.0
KCMI 250453Z AUTO 08007KT 10SM -RA OVC040 11/06 A2982 RMK AO2 RAB0357E07B34 SLP096 P0000 T01110056 TSNO,KCMI,2015-04-25T04:53:00Z,40.03,-88.27,11.1,5.6,80,7,,10.0,29.819881,1009.6,,TRUE,TRUE,,,TRUE,,,-RA,OVC,4000,,,,,,,VFR,,,,,,0.0050,,,,,,METAR,228.0
KCLM 250453Z AUTO 26009KT 10SM BKN043 OVC050 06/03 A2987 RMK AO2 RAE25 SLP115 P0001 T00610033 TSNO,KCLM,2015-04-25T04:53:00Z,48.12,-123.5,6.1,3.3,260,9,,10.0,29.870079,1011.5,,TRUE,TRUE,,,TRUE,,,,BKN,4300,OVC,5000,,,,,VFR,,,,,,0.01,,,,,,METAR,85.0
KCLL 250453Z AUTO 17009KT 8SM SCT026 24/22 A2973 RMK AO2 PRESFR SLP062 T02440222 TSNO,KCLL,2015-04-25T04:53:00Z,30.58,-96.37,24.4,22.2,170,9,,8.0,29.731298,1006.2,,TRUE,TRUE,,,TRUE,,,,SCT,2600,,,,,,,VFR,,,,,,,,,,,,METAR,96.0
KCKB 250453Z AUTO 00000KT 10SM CLR 04/M01 A2997 RMK AO2 SLP146 T00391006 401331017 TSNO,KCKB,2015-04-25T04:53:00Z,39.3,-80.22,3.9,-0.6,0,0,,10.0,29.970472,1014.6,,TRUE,TRUE,,,TRUE,,,,CLR,,,,,,,,VFR,,,,13.3,-1.7,,,,,,,METAR,360.0
KCHO 250453Z AUTO 34005KT 10SM CLR 08/M06 A2996 RMK AO2 SLP143 T00781061 401830056 TSNO,KCHO,2015-04-25T04:53:00Z,38.13,-78.45,7.8,-6.1,340,5,,10.0,29.958662,1014.3,,TRUE,TRUE,,,TRUE,,,,CLR,,,,,,,,VFR,,,,18.3,5.6,,,,,,,METAR,192.0
KCGI 250453Z AUTO 12004KT 10SM OVC012 13/11 A2977 RMK AO2 SLP079 T01330111 TSNO,KCGI,2015-04-25T04:53:00Z,37.23,-89.58,13.3,11.1,120,4,,10.0,29.769686,1007.9,,TRUE,TRUE,,,TRUE,,,,OVC,1200,,,,,,,MVFR,,,,,,,,,,,,METAR,102.0
KCEZ 250453Z AUTO 20010G19KT 10SM OVC075 11/01 A2990 RMK AO2 SLP072 T01110011 TSNO,KCEZ,2015-04-25T04:53:00Z,37.3,-108.63,11.1,1.1,200,10,19,10.0,29.899607,1007.2,,TRUE,TRUE,,,TRUE,,,,OVC,7500,,,,,,,VFR,,,,,,,,,,,,METAR,1797.0
KCDW 250453Z 33004KT 10SM CLR 03/M07 A2994 RMK AO2 SLP144 T00281067 401000028,KCDW,2015-04-25T04:53:00Z,40.88,-74.28,2.8,-6.7,330,4,,10.0,29.940945,1014.4,,,TRUE,,,,,,,CLR,,,,,,,,VFR,,,,10.0,2.8,,,,,,,METAR,64.0
KCDS 250453Z AUTO 25013KT 10SM CLR 18/03 A2967 RMK AO2 SLP027 T01780028 TSNO,KCDS,2015-04-25T04:53:00Z,34.43,-100.28,17.8,2.8,250,13,,10.0,29.66929,1002.7,,TRUE,TRUE,,,TRUE,,,,CLR,,,,,,,,VFR,,,,,,,,,,,,METAR,594.0
KCDR 250453Z AUTO 24005KT 10SM CLR 07/05 A2961 RMK AO2 SLP025 T00670050 TSNO,KCDR,2015-04-25T04:53:00Z,42.83,-103.1,6.7,5.0,240,5,,10.0,29.610237,1002.5,,TRUE,TRUE,,,TRUE,,,,CLR,,,,,,,,VFR,,,,,,,,,,,,METAR,1010.0
KCCR 250453Z 20015KT 10SM FEW038 SCT047 OVC055 14/08 A2998 RMK AO2 SLP139 T01390083,KCCR,2015-04-25T04:53:00Z,38.0,-122.05,13.9,8.3,200,15,,10.0,29.97933,1013.9,,,TRUE,,,,,,,FEW,3800,SCT,4700,OVC,5500,,,VFR,,,,,,,,,,,,METAR,11.0
KCAG 250453Z AUTO 00000KT 10SM OVC100 07/01 A2977 RMK AO2 SLP043 T00720006 TSNO,KCAG,2015-04-25T04:53:00Z,40.5,-107.52,7.2,0.6,0,0,,10.0,29.769686,1004.3,,TRUE,TRUE,,,TRUE,,,,OVC,10000,,,,,,,VFR,,,,,,,,,,,,METAR,1887.0
KBYI 250453Z AUTO 24014G18KT 10SM OVC075 07/00 A2976 RMK AO2 SLP063 T00720000 TSNO,KBYI,2015-04-25T04:53:00Z,42.55,-113.77,7.2,0.0,240,14,18,10.0,29.760826,1006.3,,TRUE,TRUE,,,TRUE,,,,OVC,7500,,,,,,,VFR,,,,,,,,,,,,METAR,1264.0
KBYG 250453Z AUTO 20009KT 10SM SCT100 10/04 A2966 RMK AO2 SLP005 T01000044 TSNO $,KBYG,2015-04-25T04:53:00Z,44.38,-106.72,10.0,4.4,200,9,,10.0,29.660433,1000.5,,TRUE,TRUE,TRUE,,TRUE,,,,SCT,10000,,,,,,,VFR,,,,,,,,,,,,METAR,1497.0
KBWG 250453Z AUTO 17007KT 10SM CLR 15/04 A2985 RMK AO2 SLP104 T01500039 TSNO,KBWG,2015-04-25T04:53:00Z,36.97,-86.42,15.0,3.9,170,7,,10.0,29.84941,1010.4,,TRUE,TRUE,,,TRUE,,,,CLR,,,,,,,,VFR,,,,,,,,,,,,METAR,168.0
KBVY 250453Z AUTO 31008G15KT 10SM CLR 04/M06 A2976 RMK AO2 SLP074 T00391061 401060017 TSNO,KBVY,2015-04-25T04:53:00Z,42.58,-70.92,3.9,-6.1,310,8,15,10.0,29.760826,1007.4,,TRUE,TRUE,,,TRUE,,,,CLR,,,,,,,,VFR,,,,10.6,1.7,,,,,,,METAR,28.0
KBUR 250453Z 18004KT 10SM FEW034 OVC046 15/10 A3001 RMK AO2 SLP152 T01500100,KBUR,2015-04-25T04:53:00Z,34.2,-118.37,15.0,10.0,180,4,,10.0,30.008858,1015.2,,,TRUE,,,,,,,FEW,3400,OVC,4600,,,,,VFR,,,,,,,,,,,,METAR,217.0
KBTR 250453Z AUTO 14008KT 6SM BR OVC008 23/22 A2980 RMK AO2 SLP090 T02330217 TSNO,KBTR,2015-04-25T04:53:00Z,30.53,-91.15,23.3,21.7,140,8,,6.0,29.799213,1009.0,,TRUE,TRUE,,,TRUE,,,BR,OVC,800,,,,,,,IFR,,,,,,,,,,,,METAR,21.0
KBTM 250453Z AUTO 00000KT 10SM BKN048 OVC055 02/00 A2976 RMK AO2 SLP082 T00170000 TSNO,KBTM,2015-04-25T04:53:00Z,45.97,-112.5,1.7,0.0,0,0,,10.0,29.760826,1008.2,,TRUE,TRUE,,,TRUE,,,,BKN,4800,OVC,5500,,,,,VFR,,,,,,,,,,,,METAR,1688.0
KBTL 250453Z 06008KT 10SM -RA SCT035 OVC044 05/03 A2998 RMK AO2 PRESFR SLP157 P0013 T00500028 401501022,KBTL,2015-04-25T04:53:00Z,42.32,-85.23,5.0,2.8,60,8,,10.0,29.97933,1015.7,,,TRUE,,,,,,-RA,SCT,3500,OVC,4400,,,,,VFR,,,,15.0,-2.2,0.13,,,,,,METAR,290.0
KBRL 250453Z AUTO 10009KT 10SM SCT035 BKN075 BKN120 13/03 A2970 RMK AO2 SLP057 T01280028 TSNO,KBRL,2015-04-25T04:53:00Z,40.77,-91.13,12.8,2.8,100,9,,10.0,29.698818,1005.7,,TRUE,TRUE,,,TRUE,,,,SCT,3500,BKN,7500,BKN,12000,,,VFR,,,,,,,,,,,,METAR,211.0
PHJR 250453Z 16009KT 10SM CLR 26/20 A2997 RMK AO2 SLP156 T02560200,PHJR,2015-04-25T04:53:00Z,21.32,-158.07,25.6,20.0,160,9,,10.0,29.970472,1015.6,,,TRUE,,,,,,,CLR,,,,,,,,VFR,,,,,,,,,,,,METAR,15.0
PAYA 250453Z AUTO 00000KT 10SM BKN090 07/02 A2984 RMK AO2 SLP106 T00670022 TSNO,PAYA,2015-04-25T04:53:00Z,59.52,-139.67,6.7,2.2,0,0,,10.0,29.840551,1010.6,,TRUE,TRUE,,,TRUE,,,,BKN,9000,,,,,,,VFR,,,,,,,,,,,,METAR,11.0
PAWD 250453Z AUTO 16008KT 10SM OVC080 06/01 A2978 RMK AO2 SLP084 T00610006 TSNO,PAWD,2015-04-25T04:53:00Z,60.12,-149.42,6.1,0.6,160,8,,10.0,29.778543,1008.4,,TRUE,TRUE,,,TRUE,,,,OVC,8000,,,,,,,VFR,,,,,,,,,,,,METAR,23.0
PAVL 250453Z AUTO 04008KT 10SM CLR 01/M02 A2980 RMK AO2 SLP093 T00111022 TSNO,PAVL,2015-04-25T04:53:00Z,67.73,-164.55,1.1,-2.2,40,8,,10.0,29.799213,1009.3,,TRUE,TRUE,,,TRUE,,,,CLR,,,,,,,,VFR,,,,,,,,,,,,METAR,3.0
PATO 250453Z AUTO 12006G14KT 10SM BKN120 06/M06 A2980 RMK AO2 SLP091 T00611061 TSNO,PATO,2015-04-25T04:53:00Z,60.78,-148.85,6.1,-6.1,120,6,14,10.0,29.799213,1009.1,,TRUE,TRUE,,,TRUE,,,,BKN,12000,,,,,,,VFR,,,,,,,,,,,,METAR,31.0
PATK 250453Z AUTO 33003KT 10SM CLR 09/M10 A2973 RMK AO2 SLP072 T00941100 TSNO,PATK,2015-04-25T04:53:00Z,62.3,-150.1,9.4,-10.0,330,3,,10.0,29.731298,1007.2,,TRUE,TRUE,,,TRUE,,,,CLR,,,,,,,,VFR,,,,,,,,,,,,METAR,109.0
PASO 250453Z AUTO 16007KT 10SM BKN043 BKN055 OVC110 05/02 A2971 RMK AO2 SLP059 T00500017 TSNO,PASO,2015-04-25T04:53:00Z,59.45,-151.7,5.0,1.7,160,7,,10.0,29.71063,1005.9,,TRUE,TRUE,,,TRUE,,,,BKN,4300,BKN,5500,OVC,11000,,,VFR,,,,,,,,,,,,METAR,9.0
PASN 250453Z AUTO 34020G26KT 8SM UP OVC004 00/M02 A2958 RMK AO2 PK WND 34027/0424 UPB38SNE38 SLP019 P0001 T00001017 TSNO $,PASN,2015-04-25T04:53:00Z,57.15,-170.22,0.0,-1.7,340,20,26,8.0,29.58071,1001.9,,TRUE,TRUE,TRUE,,TRUE,,,UP,OVC,400,,,,,,,LIFR,,,,,,0.01,,,,,,METAR,29.0
PASI 250453Z 00000KT 10SM FEW090 09/06 A2983 RMK AO2 SLP100 T00940056,PASI,2015-04-25T04:53:00Z,57.07,-135.35,9.4,5.6,0,0,,10.0,29.828741,1010.0,,,TRUE,,,,,,,FEW,9000,,,,,,,VFR,,,,,,,,,,,,METAR,5.0
PAPB 250453Z AUTO 33023KT 10SM BKN005 OVC020 01/M01 A2956 RMK AO2 PK WND 34027/0453 SNB11E20 SLP999 P0000 T00111006 TSNO,PAPB,2015-04-25T04:53:00Z,56.58,-169.67,1.1,-0.6,330,23,,10.0,29.56004,999.9,,TRUE,TRUE,,,TRUE,,,,BKN,500,OVC,2000,,,,,IFR,,,,,,0.0050,,,,,,METAR,35.0
PAOT 250453Z 01004KT 10SM CLR 04/M02 A2977 RMK AO2 SLP083 T00391022,PAOT,2015-04-25T04:53:00Z,66.87,-162.58,3.9,-2.2,10,4,,10.0,29.769686,1008.3,,,TRUE,,,,,,,CLR,,,,,,,,VFR,,,,,,,,,,,,METAR,3.0
PAOR 250453Z 11007KT 10SM SCT090 SCT180 07/M06 A2967 RMK AO2 SLP065 T00721056 PNO,PAOR,2015-04-25T04:53:00Z,62.97,-141.93,7.2,-5.6,110,7,,10.0,29.66929,1006.5,,,TRUE,,,,,,,SCT,9000,SCT,18000,,,,,VFR,,,,,,,,,,,,METAR,523.0
PANT 250453Z AUTO 14005KT 10SM BKN090 OVC110 11/03 A2982 RMK AO2 SLP098 T01060028 TSNO,PANT,2015-04-25T04:53:00Z,55.03,-131.57,10.6,2.8,140,5,,10.0,29.819881,1009.8,,TRUE,TRUE,,,TRUE,,,,BKN,9000,OVC,11000,,,,,VFR,,,,,,,,,,,,METAR,36.0
PANN 250453Z AUTO 24003KT 10SM CLR 11/M12 A2967 RMK AO2 SLP055 T01061122 TSNO,PANN,2015-04-25T04:53:00Z,64.55,-149.08,10.6,-12.2,240,3,,10.0,29.66929,1005.5,,TRUE,TRUE,,,TRUE,,,,CLR,,,,,,,,VFR,,,,,,,,,,,,METAR,110.0
PANC 250453Z 16010G18KT 10SM FEW095 BKN130 OVC200 08/M07 A2974 RMK AO2 SLP073 VIRGA W-NW T00781067,PANC,2015-04-25T04:53:00Z,61.17,-150.02,7.8,-6.7,160,10,18,10.0,29.740158,1007.3,,,TRUE,,,,,,,FEW,9500,BKN,13000,OVC,20000,,,VFR,,,,,,,,,,,,METAR,38.0
PAMR 250453Z 17006KT 10SM SCT120 09/M13 A2974 RMK AO2 SLP074 T00941128,PAMR,2015-04-25T04:53:00Z,61.22,-149.85,9.4,-12.8,170,6,,10.0,29.740158,1007.4,,,TRUE,,,,,,,SCT,12000,,,,,,,VFR,,,,,,,,,,,,METAR,41.0
KELM 250453Z AUTO 29003KT 10SM CLR 00/M05 A2996 RMK AO2 SLP152 T00001050 400781011 TSNO,KELM,2015-04-25T04:53:00Z,42.15,-76.9,0.0,-5.0,290,3,,10.0,29.958662,1015.2,,TRUE,TRUE,,,TRUE,,,,CLR,,,,,,,,VFR,,,,7.8,-1.1,,,,,,,METAR,302.0
KELD 250453Z AUTO 08006KT 10SM -RA BKN110 17/16 A2978 RMK AO2 PK WND 30035/0408 TSB0354E23 SLP083 P0054 T01670156 TSNO $,KELD,2015-04-25T04:53:00Z,33.22,-92.82,16.7,15.6,80,6,,10.0,29.778543,1008.3,,TRUE,TRUE,TRUE,,TRUE,,,-RA,BKN,11000,,,,,,,VFR,,,,,,0.54,,,,,,METAR,81.0
KEEO 250453Z AUTO 35007KT 10SM OVC090 08/M01 A2979 RMK AO2 SLP031 T00831006 TSNO,KEEO,2015-04-25T04:53:00Z,40.05,-107.88,8.3,-0.6,350,7,,10.0,29.790354,1003.1,,TRUE,TRUE,,,TRUE,,,,OVC,9000,,,,,,,VFR,,,,,,,,,,,,METAR,1930.0
KECP 250453Z AUTO 15006KT 10SM CLR 22/20 A2988 RMK AO2 SLP128 T02220200 TSNO $,KECP,2015-04-25T04:53:00Z,30.35,-85.8,22.2,20.0,150,6,,10.0,29.878937,1012.8,,TRUE,TRUE,TRUE,,TRUE,,,,CLR,,,,,,,,VFR,,,,,,,,,,,,METAR,21.0
KDXR 250453Z AUTO 25005KT 10SM CLR 01/M08 A2989 RMK AO2 SLP124 T00061078 400611017 PWINO TSNO,KDXR,2015-04-25T04:53:00Z,41.37,-73.48,0.6,-7.8,250,5,,10.0,29.890747,1012.4,,TRUE,TRUE,,,TRUE,,TRUE,,CLR,,,,,,,,VFR,,,,6.1,-1.7,,,,,,,METAR,139.0
KFAY 250453Z AUTO 21006KT 10SM CLR 12/04 A2996 RMK AO2 SLP139 T01220039 402220072 TSNO,KFAY,2015-04-25T04:53:00Z,34.98,-78.88,12.2,3.9,210,6,,10.0,29.958662,1013.9,,TRUE,TRUE,,,TRUE,,,,CLR,,,,,,,,VFR,,,,22.2,7.2,,,,,,,METAR,55.0
KFAT 250453Z 31014G21KT 10SM SCT120 18/02 A2997 RMK AO2 SLP146 T01780017,KFAT,2015-04-25T04:53:00Z,36.78,-119.72,17.8,1.7,310,14,21,10.0,29.970472,1014.6,,,TRUE,,,,,,,SCT,12000,,,,,,,VFR,,,,,,,,,,,,METAR,104.0
KMAI 250453Z AUTO 13003KT 10SM CLR 20/18 A2989 RMK AO2 SLP120 T02000178 TSNO,KMAI,2015-04-25T04:53:00Z,30.83,-85.18,20.0,17.8,130,3,,10.0,29.890747,1012.0,,TRUE,TRUE,,,TRUE,,,,CLR,,,,,,,,VFR,,,,,,,,,,,,METAR,32.0
KELY 250453Z AUTO 16007KT 10SM FEW080 02/01 A2986 RMK AO2 SLP076 T00170011 TSNO,KELY,2015-04-25T04:53:00Z,39.3,-114.85,1.7,1.1,160,7,,10.0,29.861221,1007.6,,TRUE,TRUE,,,TRUE,,,,FEW,8000,,,,,,,VFR,,,,,,,,,,,,METAR,1906.0
KELN 250453Z AUTO 30008KT 10SM FEW110 06/01 A2981 RMK AO2 SLP098 T00610011 TSNO,KELN,2015-04-25T04:53:00Z,47.03,-120.53,6.1,1.1,300,8,,10.0,29.811024,1009.8,,TRUE,TRUE,,,TRUE,,,,FEW,11000,,,,,,,VFR,,,,,,,,,,,,METAR,519.0
KDAN 250453Z AUTO 06004KT 10SM CLR 07/03 A2994 RMK AO2 SLP131 T00720028 402060022 TSNO,KDAN,2015-04-25T04:53:00Z,36.57,-79.33,7.2,2.8,60,4,,10.0,29.940945,1013.1,,TRUE,TRUE,,,TRUE,,,,CLR,,,,,,,,VFR,,,,20.6,2.2,,,,,,,METAR,175.0
KDAL 250453Z 16009KT 10SM FEW004 BKN300 18/17 A2970 RMK AO2 SLP052 T01830167,KDAL,2015-04-25T04:53:00Z,32.85,-96.85,18.3,16.7,160,9,,10.0,29.698818,1005.2,,,TRUE,,,,,,,FEW,400,BKN,30000,,,,,VFR,,,,,,,,,,,,METAR,158.0
KDAB 250453Z 00000KT 10SM BKN200 23/18 A2999 RMK AO2 SLP156 T02280183 402610206,KDAB,2015-04-25T04:53:00Z,29.18,-81.07,22.8,18.3,0,0,,10.0,29.991142,1015.6,,,TRUE,,,,,,,BKN,20000,,,,,,,VFR,,,,26.1,20.6,,,,,,,METAR,9.0
KCYS 250453Z AUTO 28016G20KT 10SM CLR 07/01 A2971 RMK AO2 SLP005 T00720011 TSNO,KCYS,2015-04-25T04:53:00Z,41.15,-104.8,7.2,1.1,280,16,20,10.0,29.71063,1000.5,,TRUE,TRUE,,,TRUE,,,,CLR,,,,,,,,VFR,,,,,,,,,,,,METAR,1868.0
KCUT 250453Z AUTO 02004KT 10SM CLR 05/02 A2968 RMK AO2 SLP019 T00500022 TSNO,KCUT,2015-04-25T04:53:00Z,43.73,-103.62,5.0,2.2,20,4,,10.0,29.681103,1001.9,,TRUE,TRUE,,,TRUE,,,,CLR,,,,,,,,VFR,,,,,,,,,,,,METAR,1725.0
KCUB 250453Z AUTO 00000KT 10SM CLR 14/07 A2998 RMK AO2 SLP150 T01440072 402330072 TSNO,KCUB,2015-04-25T04:53:00Z,33.97,-81.0,14.4,7.2,0,0,,10.0,29.97933,1015.0,,TRUE,TRUE,,,TRUE,,,,CLR,,,,,,,,VFR,,,,23.3,7.2,,,,,,,METAR,56.0
KCSM 250453Z 19011KT 10SM CLR 16/12 A2960 RMK AO2 SLP005 T01610117,KCSM,2015-04-25T04:53:00Z,35.35,-99.2,16.1,11.7,190,11,,10.0,29.601377,1000.5,,,TRUE,,,,,,,CLR,,,,,,,,VFR,,,,,,,,,,,,METAR,588.0
KCRS 250453Z AUTO 22004KT 10SM CLR 19/17 A2973 RMK AO2 SLP063 T01890172 TSNO,KCRS,2015-04-25T04:53:00Z,32.03,-96.4,18.9,17.2,220,4,,10.0,29.731298,1006.3,,TRUE,TRUE,,,TRUE,,,,CLR,,,,,,,,VFR,,,,,,,,,,,,METAR,133.0
KCRQ 250453Z 17003KT 10SM OVC033 16/11 A3001 RMK AO2 SLP162 T01560106,KCRQ,2015-04-25T04:53:00Z,33.13,-117.28,15.6,10.6,170,3,,10.0,30.008858,1016.2,,,TRUE,,,,,,,OVC,3300,,,,,,,VFR,,,,,,,,,,,,METAR,99.0
KCRG 250453Z AUTO 00000KT 10SM CLR 18/16 A2999 RMK AO2 SLP154 T01780156 402330172 TSNO,KCRG,2015-04-25T04:53:00Z,30.33,-81.52,17.8,15.6,0,0,,10.0,29.991142,1015.4,,TRUE,TRUE,,,TRUE,,,,CLR,,,,,,,,VFR,,,,23.3,17.2,,,,,,,METAR,13.0
KCRE 250453Z AUTO 24003KT 10SM CLR 14/09 A2998 RMK AO1 SLP152 T01440094 402170100 TSNO,KCRE,2015-04-25T04:53:00Z,33.82,-78.72,14.4,9.4,240,3,,10.0,29.97933,1015.2,,TRUE,TRUE,,,TRUE,,,,CLR,,,,,,,,VFR,,,,21.7,10.0,,,,,,,METAR,10.0
KCPS 250453Z AUTO 16006KT 10SM OVC021 13/08 A2974 RMK AO2 SLP068 T01280078 TSNO,KCPS,2015-04-25T04:53:00Z,38.57,-90.15,12.8,7.8,160,6,,10.0,29.740158,1006.8,,TRUE,TRUE,,,TRUE,,,,OVC,2100,,,,,,,MVFR,,,,,,,,,,,,METAR,126.0
KCPR 250453Z AUTO 23009KT 10SM FEW110 09/00 A2968 RMK AO2 SLP010 T00940000 TSNO,KCPR,2015-04-25T04:53:00Z,42.9,-106.47,9.4,0.0,230,9,,10.0,29.681103,1001.0,,TRUE,TRUE,,,TRUE,,,,FEW,11000,,,,,,,VFR,,,,,,,,,,,,METAR,1621.0
KGUY 250453Z AUTO 27004KT 10SM CLR 12/07 A2962 RMK AO2 SLP998 T01170072 TSNO,KGUY,2015-04-25T04:53:00Z,36.68,-101.5,11.7,7.2,270,4,,10.0,29.619095,999.8,,TRUE,TRUE,,,TRUE,,,,CLR,,,,,,,,VFR,,,,,,,,,,,,METAR,948.0
KGUP 250453Z AUTO 23017KT 10SM CLR 08/01 A2999 RMK AO2 PK WND 24026/0431 SLP087 T00780006 TSNO,KGUP,2015-04-25T04:53:00Z,35.52,-108.8,7.8,0.6,230,17,,10.0,29.991142,1008.7,,TRUE,TRUE,,,TRUE,,,,CLR,,,,,,,,VFR,,,,,,,,,,,,METAR,1971.0
KGTF 250453Z 20005KT 10SM -RA FEW025 OVC036 06/03 A2973 RMK AO2 SLP078 P0002 T00560028,KGTF,2015-04-25T04:53:00Z,47.47,-111.38,5.6,2.8,200,5,,10.0,29.731298,1007.8,,,TRUE,,,,,,-RA,FEW,2500,OVC,3600,,,,,VFR,,,,,,0.02,,,,,,METAR,1119.0
KMSO 250453Z 36005KT 10SM CLR 04/M04 A2980 RMK AO2 SLP101 T00441044,KMSO,2015-04-25T04:53:00Z,46.92,-114.1,4.4,-4.4,360,5,,10.0,29.799213,1010.1,,,TRUE,,,,,,,CLR,,,,,,,,VFR,,,,,,,,,,,,METAR,975.0
KHEI 250453Z AUTO 08011KT 10SM CLR 09/02 A2966 RMK AO2 SLP044 T00890017 TSNO,KHEI,2015-04-25T04:53:00Z,46.02,-102.65,8.9,1.7,80,11,,10.0,29.660433,1004.4,,TRUE,TRUE,,,TRUE,,,,CLR,,,,,,,,VFR,,,,,,,,,,,,METAR,828.0
KHBR 250453Z AUTO 20012KT 10SM CLR 16/15 A2960 RMK AO2 SLP011 T01610150 TSNO,KHBR,2015-04-25T04:53:00Z,34.98,-99.05,16.1,15.0,200,12,,10.0,29.601377,1001.1,,TRUE,TRUE,,,TRUE,,,,CLR,,,,,,,,VFR,,,,,,,,,,,,METAR,473.0
KHAO 250453Z AUTO 10005KT 10SM OVC070 12/03 A2990 RMK AO2 RAB26E35 SLP125 P0000 T01220028 401721017 TSNO,KHAO,2015-04-25T04:53:00Z,39.37,-84.52,12.2,2.8,100,5,,10.0,29.899607,1012.5,,TRUE,TRUE,,,TRUE,,,,OVC,7000,,,,,,,VFR,,,,17.2,-1.7,0.0050,,,,,,METAR,188.0
KACV 250453Z AUTO 00000KT 10SM OVC035 09/08 A2995 RMK AO2 RAE21 SLP148 P0001 T00940078 TSNO,KACV,2015-04-25T04:53:00Z,40.98,-124.1,9.4,7.8,0,0,,10.0,29.949802,1014.8,,TRUE,TRUE,,,TRUE,,,,OVC,3500,,,,,,,VFR,,,,,,0.01,,,,,,METAR,67.0
KACK 250453Z AUTO 31014G19KT 10SM CLR 06/M04 A2978 RMK AO2 SLP083 T00561039 401060033 TSNO,KACK,2015-04-25T04:53:00Z,41.25,-70.07,5.6,-3.9,310,14,19,10.0,29.778543,1008.3,,TRUE,TRUE,,,TRUE,,,,CLR,,,,,,,,VFR,,,,10.6,3.3,,,,,,,METAR,16.0
KABY 250453Z AUTO 12004KT 10SM CLR 20/15 A2994 RMK AO2 SLP137 T02000150 402780156 TSNO,KABY,2015-04-25T04:53:00Z,31.53,-84.2,20.0,15.0,120,4,,10.0,29.940945,1013.7,,TRUE,TRUE,,,TRUE,,,,CLR,,,,,,,,VFR,,,,27.8,15.6,,,,,,,METAR,58.0
KAAF 250453Z AUTO 17005KT 10SM CLR 24/21 A2990 RMK AO2 SLP124 T02440211 402830211 TSNO,KAAF,2015-04-25T04:53:00Z,29.73,-85.03,24.4,21.1,170,5,,10.0,29.899607,1012.4,,TRUE,TRUE,,,TRUE,,,,CLR,,,,,,,,VFR,,,,28.3,21.1,,,,,,,METAR,5.0
KHFD 250453Z AUTO 28008KT 10SM CLR 03/M07 A2986 RMK AO2 SLP111 T00281067 400780028 TSNO,KHFD,2015-04-25T04:53:00Z,41.73,-72.65,2.8,-6.7,280,8,,10.0,29.861221,1011.1,,TRUE,TRUE,,,TRUE,,,,CLR,,,,,,,,VFR,,,,7.8,2.8,,,,,,,METAR,4.0
KAKO 250453Z AUTO 28010KT 10SM BKN095 07/02 A2965 RMK AO2 SLP010 T00670022 TSNO,KAKO,2015-04-25T04:53:00Z,40.17,-103.22,6.7,2.2,280,10,,10.0,29.648623,1001.0,,TRUE,TRUE,,,TRUE,,,,BKN,9500,,,,,,,VFR,,,,,,,,,,,,METAR,1421.0
KAIA 250453Z AUTO 36007KT 10SM CLR 08/06 A2960 RMK AO2 SLP002 T00830056 TSNO,KAIA,2015-04-25T04:53:00Z,42.05,-102.8,8.3,5.6,360,7,,10.0,29.601377,1000.2,,TRUE,TRUE,,,TRUE,,,,CLR,,,,,,,,VFR,,,,,,,,,,,,METAR,1196.0
KAGC 250453Z 03005KT 10SM CLR 04/M09 A2998 RMK AO2 SLP163 T00391094 401281011,KAGC,2015-04-25T04:53:00Z,40.35,-79.92,3.9,-9.4,30,5,,10.0,29.97933,1016.3,,,TRUE,,,,,,,CLR,,,,,,,,VFR,,,,12.8,-1.1,,,,,,,METAR,389.0
KAFW 250453Z 15003KT 8SM BKN270 15/15 A2968 RMK AO2 SLP045 T01500150,KAFW,2015-04-25T04:53:00Z,32.97,-97.32,15.0,15.0,150,3,,8.0,29.681103,1004.5,,,TRUE,,,,,,,BKN,27000,,,,,,,VFR,,,,,,,,,,,,METAR,233.0
KADG 250453Z AUTO 06011KT 10SM -RA OVC055 07/03 A3000 RMK AO2 RAB21 SLP164 P0000 T00670033 401501039 TSNO,KADG,2015-04-25T04:53:00Z,41.87,-84.08,6.7,3.3,60,11,,10.0,30.0,1016.4,,TRUE,TRUE,,,TRUE,,,-RA,OVC,5500,,,,,,,VFR,,,,15.0,-3.9,0.0050,,,,,,METAR,241.0
KAMA 250453Z AUTO 25021G29KT 10SM CLR 17/M03 A2970 RMK AO2 PK WND 24032/0442 SLP013 T01671028 TSNO,KAMA,2015-04-25T04:53:00Z,35.22,-101.72,16.7,-2.8,250,21,29,10.0,29.698818,1001.3,,TRUE,TRUE,,,TRUE,,,,CLR,,,,,,,,VFR,,,,,,,,,,,,METAR,1093.0
KALW 250453Z AUTO 11006KT 10SM CLR 09/02 A2982 RMK AO2 SLP100 T00890017 TSNO,KALW,2015-04-25T04:53:00Z,46.1,-118.28,8.9,1.7,110,6,,10.0,29.819881,1010.0,,TRUE,TRUE,,,TRUE,,,,CLR,,,,,,,,VFR,,,,,,,,,,,,METAR,363.0
KAMG 250453Z AUTO 15005KT 10SM BKN110 18/12 A2998 RMK AO2 SLPNO T01780117 402670172 TSNO,KAMG,2015-04-25T04:53:00Z,31.53,-82.5,17.8,11.7,150,5,,10.0,29.97933,,,TRUE,TRUE,,,TRUE,,,,BKN,11000,,,,,,,VFR,,,,26.7,17.2,,,,,,,METAR,59.0
KAMW 250453Z AUTO 10010KT 10SM OVC019 09/06 A2967 RMK AO2 SLP046 T00890056 TSNO,KAMW,2015-04-25T04:53:00Z,41.98,-93.62,8.9,5.6,100,10,,10.0,29.66929,1004.6,,TRUE,TRUE,,,TRUE,,,,OVC,1900,,,,,,,MVFR,,,,,,,,,,,,METAR,279.0
KMBS 250453Z 08007KT 10SM FEW120 03/M05 A3002 RMK AO2 SLP172 T00331050 401331022,KMBS,2015-04-25T04:53:00Z,43.53,-84.08,3.3,-5.0,80,7,,10.0,30.02067,1017.2,,,TRUE,,,,,,,FEW,12000,,,,,,,VFR,,,,13.3,-2.2,,,,,,,METAR,202.0
KASE 250453Z 20005KT 10SM SCT080 01/M03 A2988 RMK AO2 SLP055 T00061033,KASE,2015-04-25T04:53:00Z,39.23,-106.87,0.6,-3.3,200,5,,10.0,29.878937,1005.5,,,TRUE,,,,,,,SCT,8000,,,,,,,VFR,,,,,,,,,,,,METAR,2354.0
KARB 250453Z 21003KT 10SM -RA BKN050 OVC065 06/01 A3001 RMK AO2 RAB0356E09B48 SLP166 P0000 T00610006 401561072,KARB,2015-04-25T04:53:00Z,42.22,-83.73,6.1,0.6,210,3,,10.0,30.008858,1016.6,,,TRUE,,,,,,-RA,BKN,5000,OVC,6500,,,,,VFR,,,,15.6,-7.2,0.0050,,,,,,METAR,251.0
KAPF 250453Z AUTO 09009KT 10SM CLR 26/22 A2996 RMK AO2 SLP143 T02610217 403060233 TSNO,KAPF,2015-04-25T04:53:00Z,26.15,-81.77,26.1,21.7,90,9,,10.0,29.958662,1014.3,,TRUE,TRUE,,,TRUE,,,,CLR,,,,,,,,VFR,,,,30.6,23.3,,,,,,,METAR,3.0
KAPA 250453Z 23004KT 10SM FEW140 SCT200 07/M01 A2972 RMK AO2 SLP031 T00671011,KAPA,2015-04-25T04:53:00Z,39.57,-104.85,6.7,-1.1,230,4,,10.0,29.719488,1003.1,,,TRUE,,,,,,,FEW,14000,SCT,20000,,,,,VFR,,,,,,,,,,,,METAR,1775.0
KAOO 250453Z AUTO 33007G15KT 10SM CLR 03/M11 A2997 RMK AO2 SLP157 T00331111 401110000 TSNO,KAOO,2015-04-25T04:53:00Z,40.3,-78.32,3.3,-11.1,330,7,15,10.0,29.970472,1015.7,,TRUE,TRUE,,,TRUE,,,,CLR,,,,,,,,VFR,,,,11.1,,,,,,,,METAR,455.0
KAOH 250453Z AUTO 09006KT 10SM OVC075 09/02 A2992 RMK AO2 SLP132 T00940017 401441028 TSNO,KAOH,2015-04-25T04:53:00Z,40.7,-84.02,9.4,1.7,90,6,,10.0,29.920275,1013.2,,TRUE,TRUE,,,TRUE,,,,OVC,7500,,,,,,,VFR,,,,14.4,-2.8,,,,,,,METAR,296.0
KMCI 250453Z 15013KT 10SM OVC048 16/13 A2954 RMK AO2 SLP998 T01610128,KMCI,2015-04-25T04:53:00Z,39.3,-94.73,16.1,12.8,150,13,,10.0,29.53937,999.8,,,TRUE,,,,,,,OVC,4800,,,,,,,VFR,,,,,,,,,,,,METAR,320.0
KMCE 250453Z AUTO 34007KT 10SM CLR 16/03 A2998 RMK AO2 SLP152 T01560028 TSNO,KMCE,2015-04-25T04:53:00Z,37.28,-120.5,15.6,2.8,340,7,,10.0,29.97933,1015.2,,TRUE,TRUE,,,TRUE,,,,CLR,,,,,,,,VFR,,,,,,,,,,,,METAR,47.0
KMCB 250453Z AUTO 17005KT 6SM BR OVC006 22/21 A2981 RMK AO2 SLP091 T02170211 TSNO,KMCB,2015-04-25T04:53:00Z,31.18,-90.47,21.7,21.1,170,5,,6.0,29.811024,1009.1,,TRUE,TRUE,,,TRUE,,,BR,OVC,600,,,,,,,IFR,,,,,,,,,,,,METAR,124.0
KMSN 250453Z 09009KT 10SM OVC040 04/01 A2993 RMK AO2 SLP140 T00440011,KMSN,2015-04-25T04:53:00Z,43.13,-89.35,4.4,1.1,90,9,,10.0,29.929134,1014.0,,,TRUE,,,,,,,OVC,4000,,,,,,,VFR,,,,,,,,,,,,METAR,261.0
KMCO 250453Z 00000KT 10SM BKN300 22/19 A2999 RMK AO2 SLP154 T02170189 403000211,KMCO,2015-04-25T04:53:00Z,28.42,-81.33,21.7,18.9,0,0,,10.0,29.991142,1015.4,,,TRUE,,,,,,,BKN,30000,,,,,,,VFR,,,,30.0,21.1,,,,,,,METAR,29.0
KRMG 250453Z AUTO 00000KT 10SM OVC090 16/12 A2989 RMK AO2 SLP115 T01610117 402280050 TSNO $,KRMG,2015-04-25T04:53:00Z,34.35,-85.17,16.1,11.7,0,0,,10.0,29.890747,1011.5,,TRUE,TRUE,TRUE,,TRUE,,,,OVC,9000,,,,,,,VFR,,,,22.8,5.0,,,,,,,METAR,193.0
KPDK 250453Z AUTO 17005KT 10SM FEW065 SCT090 BKN110 18/09 A2993 RMK AO2 SLP127 T01830089 402440061 TSNO,KPDK,2015-04-25T04:53:00Z,33.88,-84.3,18.3,8.9,170,5,,10.0,29.929134,1012.7,,TRUE,TRUE,,,TRUE,,,,FEW,6500,SCT,9000,BKN,11000,,,VFR,,,,24.4,6.1,,,,,,,METAR,302.0
KMGM 250453Z AUTO 13005KT 10SM CLR 20/14 A2987 RMK AO2 SLP114 T02000144 TSNO,KMGM,2015-04-25T04:53:00Z,32.3,-86.4,20.0,14.4,130,5,,10.0,29.870079,1011.4,,TRUE,TRUE,,,TRUE,,,,CLR,,,,,,,,VFR,,,,,,,,,,,,METAR,63.0
KENW 250453Z AUTO 07014KT 10SM OVC050 04/01 A2994 RMK AO2 SLP144 T00440011 TSNO,KENW,2015-04-25T04:53:00Z,42.6,-87.93,4.4,1.1,70,14,,10.0,29.940945,1014.4,,TRUE,TRUE,,,TRUE,,,,OVC,5000,,,,,,,VFR,,,,,,,,,,,,METAR,219.0
KMSP 250453Z 10015KT 10SM BKN015 OVC025 07/04 A2981 RMK AO2 SLP098 T00670044,KMSP,2015-04-25T04:53:00Z,44.88,-93.23,6.7,4.4,100,15,,10.0,29.811024,1009.8,,,TRUE,,,,,,,BKN,1500,OVC,2500,,,,,MVFR,,,,,,,,,,,,METAR,265.0
KMSS 250453Z AUTO 31009KT 10SM BKN095 BKN120 02/M07 A2991 RMK AO2 SLP134 T00171067 400440011 TSNO,KMSS,2015-04-25T04:53:00Z,44.93,-74.85,1.7,-6.7,310,9,,10.0,29.911417,1013.4,,TRUE,TRUE,,,TRUE,,,,BKN,9500,BKN,12000,,,,,VFR,,,,4.4,1.1,,,,,,,METAR,66.0
KMSY 250453Z 15011KT 7SM OVC007 24/22 A2980 RMK AO2 SLP093 T02390222 $,KMSY,2015-04-25T04:53:00Z,30.0,-90.25,23.9,22.2,150,11,,7.0,29.799213,1009.3,,,TRUE,TRUE,,,,,,OVC,700,,,,,,,IFR,,,,,,,,,,,,METAR,5.0
KMTJ 250453Z AUTO 08003KT 10SM CLR 07/01 A2985 RMK AO2 SLP063 T00670011 TSNO,KMTJ,2015-04-25T04:53:00Z,38.5,-107.9,6.7,1.1,80,3,,10.0,29.84941,1006.3,,TRUE,TRUE,,,TRUE,,,,CLR,,,,,,,,VFR,,,,,,,,,,,,METAR,1750.0
KMVY 250453Z AUTO 28007KT 10SM CLR 03/M04 A2979 RMK AO2 SLP089 T00331044 401060022 TSNO,KMVY,2015-04-25T04:53:00Z,41.4,-70.62,3.3,-4.4,280,7,,10.0,29.790354,1008.9,,TRUE,TRUE,,,TRUE,,,,CLR,,,,,,,,VFR,,,,10.6,2.2,,,,,,,METAR,16.0
KMWL 250453Z AUTO 22005KT 10SM CLR 17/16 A2969 RMK AO2 SLP044 T01720156 TSNO,KMWL,2015-04-25T04:53:00Z,32.78,-98.07,17.2,15.6,220,5,,10.0,29.68996,1004.4,,TRUE,TRUE,,,TRUE,,,,CLR,,,,,,,,VFR,,,,,,,,,,,,METAR,284.0
KMYF 250453Z AUTO 24005KT 10SM SCT021 BKN027 OVC033 16/11 A3003 RMK AO2 SLP166 T01560106 TSNO,KMYF,2015-04-25T04:53:00Z,32.82,-117.13,15.6,10.6,240,5,,10.0,30.029528,1016.6,,TRUE,TRUE,,,TRUE,,,,SCT,2100,BKN,2700,OVC,3300,,,MVFR,,,,,,,,,,,,METAR,136.0
KMYV 250453Z AUTO 13013G19KT 10SM -RA OVC048 12/09 A2992 RMK AO2 SLP136 P0004 T01170094 TSNO,KMYV,2015-04-25T04:53:00Z,39.1,-121.57,11.7,9.4,130,13,19,10.0,29.920275,1013.6,,TRUE,TRUE,,,TRUE,,,-RA,OVC,4800,,,,,,,VFR,,,,,,0.04,,,,,,METAR,21.0
KOAK 250453Z 19011KT 5SM -RA SCT016 OVC022 13/10 A3002 RMK AO2 RAB22 SLP164 P0000 T01280100 $,KOAK,2015-04-25T04:53:00Z,37.72,-122.23,12.8,10.0,190,11,,5.0,30.02067,1016.4,,,TRUE,TRUE,,,,,-RA,SCT,1600,OVC,2200,,,,,MVFR,,,,,,0.0050,,,,,,METAR,26.0
KODO 250453Z AUTO 29014KT 10SM CLR 19/M05 A2984 RMK AO2 SLP068 T01891050 TSNO,KODO,2015-04-25T04:53:00Z,31.92,-102.4,18.9,-5.0,290,14,,10.0,29.840551,1006.8,,TRUE,TRUE,,,TRUE,,,,CLR,,,,,,,,VFR,,,,,,,,,,,,METAR,902.0
KOGB 250453Z AUTO 19004KT 10SM CLR 14/08 A2998 RMK AO2 SLP149 T01440083 402280089 TSNO,KOGB,2015-04-25T04:53:00Z,33.47,-80.85,14.4,8.3,190,4,,10.0,29.97933,1014.9,,TRUE,TRUE,,,TRUE,,,,CLR,,,,,,,,VFR,,,,22.8,8.9,,,,,,,METAR,59.0
KOJC 250453Z AUTO 13010KT 10SM BKN025 OVC033 15/12 A2955 RMK AO2 SLP002 T01500122 TSNO,KOJC,2015-04-25T04:53:00Z,38.85,-94.73,15.0,12.2,130,10,,10.0,29.551182,1000.2,,TRUE,TRUE,,,TRUE,,,,BKN,2500,OVC,3300,,,,,MVFR,,,,,,,,,,,,METAR,326.0
KOMK 250453Z AUTO 11004KT 10SM OVC110 09/M03 A2977 RMK AO2 SLP083 T00941033 TSNO,KOMK,2015-04-25T04:53:00Z,48.47,-119.52,9.4,-3.3,110,4,,10.0,29.769686,1008.3,,TRUE,TRUE,,,TRUE,,,,OVC,11000,,,,,,,VFR,,,,,,,,,,,,METAR,395.0
KAUG 250453Z AUTO 28007KT 10SM SCT065 BKN100 01/M05 A2968 RMK AO2 SLP053 T00111050 400830006 TSNO,KAUG,2015-04-25T04:53:00Z,44.32,-69.8,1.1,-5.0,280,7,,10.0,29.681103,1005.3,,TRUE,TRUE,,,TRUE,,,,SCT,6500,BKN,10000,,,,,VFR,,,,8.3,0.6,,,,,,,METAR,109.0
KATY 250453Z AUTO 08009KT 6SM -RA BR BKN007 OVC060 08/06 A2967 RMK AO2 RAB44 SLP048 P0000 T00780061 TSNO,KATY,2015-04-25T04:53:00Z,44.9,-97.15,7.8,6.1,80,9,,6.0,29.66929,1004.8,,TRUE,TRUE,,,TRUE,,,-RA BR,BKN,700,OVC,6000,,,,,IFR,,,,,,0.0050,,,,,,METAR,532.0
KASX 250453Z AUTO 03006KT 10SM OVC065 03/01 A2995 RMK AO2 SLP151 T00280006 TSNO,KASX,2015-04-25T04:53:00Z,46.55,-90.92,2.8,0.6,30,6,,10.0,29.949802,1015.1,,TRUE,TRUE,,,TRUE,,,,OVC,6500,,,,,,,VFR,,,,,,,,,,,,METAR,251.0
KONO 250453Z AUTO 25006KT 10SM FEW050 OVC110 12/M01 A2980 RMK AO2 SLP094 T01171011 TSNO,KONO,2015-04-25T04:53:00Z,44.02,-117.02,11.7,-1.1,250,6,,10.0,29.799213,1009.4,,TRUE,TRUE,,,TRUE,,,,FEW,5000,OVC,11000,,,,,VFR,,,,,,,,,,,,METAR,667.0
KONT 250453Z 24008KT 10SM BKN019 BKN027 14/10 A3001 RMK AO2 SLP157 T01440100,KONT,2015-04-25T04:53:00Z,34.05,-117.58,14.4,10.0,240,8,,10.0,30.008858,1015.7,,,TRUE,,,,,,,BKN,1900,BKN,2700,,,,,MVFR,,,,,,,,,,,,METAR,274.0
KORL 250453Z 00000KT 10SM CLR 22/18 A2999 RMK AO2 SLP157 T02170183 402940211,KORL,2015-04-25T04:53:00Z,28.55,-81.33,21.7,18.3,0,0,,10.0,29.991142,1015.7,,,TRUE,,,,,,,CLR,,,,,,,,VFR,,,,29.4,21.1,,,,,,,METAR,37.0
KOSU 250453Z AUTO 09003KT 10SM OVC080 10/01 A2993 RMK AO2 SLP137 T01000006 401501033 TSNO,KOSU,2015-04-25T04:53:00Z,40.08,-83.08,10.0,0.6,90,3,,10.0,29.929134,1013.7,,TRUE,TRUE,,,TRUE,,,,OVC,8000,,,,,,,VFR,,,,15.0,-3.3,,,,,,,METAR,280.0
KOSH 250453Z 09010KT 10SM -RA BKN043 OVC049 04/01 A2997 RMK AO2 RAB44 SLP153 P0000 T00390011,KOSH,2015-04-25T04:53:00Z,43.97,-88.55,3.9,1.1,90,10,,10.0,29.970472,1015.3,,,TRUE,,,,,,-RA,BKN,4300,OVC,4900,,,,,VFR,,,,,,0.0050,,,,,,METAR,248.0
KOVE 250453Z AUTO 13013G20KT 10SM -RA SCT065 OVC080 13/11 A2992 RMK AO2 SLP132 P0007 T01280106 TSNO,KOVE,2015-04-25T04:53:00Z,39.5,-121.62,12.8,10.6,130,13,20,10.0,29.920275,1013.2,,TRUE,TRUE,,,TRUE,,,-RA,SCT,6500,OVC,8000,,,,,VFR,,,,,,0.07,,,,,,METAR,58.0
KPSP 250453Z 31014G20KT 10SM CLR 21/07 A2986 RMK AO2 SLP111 T02110067,KPSP,2015-04-25T04:53:00Z,33.82,-116.5,21.1,6.7,310,14,20,10.0,29.861221,1011.1,,,TRUE,,,,,,,CLR,,,,,,,,VFR,,,,,,,,,,,,METAR,135.0
KOVS 250453Z AUTO 08006KT 8SM OVC050 06/03 A2988 RMK AO2 SLP121 T00610028 TSNO,KOVS,2015-04-25T04:53:00Z,43.15,-90.68,6.1,2.8,80,6,,8.0,29.878937,1012.1,,TRUE,TRUE,,,TRUE,,,,OVC,5000,,,,,,,VFR,,,,,,,,,,,,METAR,202.0
KPUC 250453Z AUTO 31007KT 10SM BKN090 OVC110 11/00 A2977 RMK AO2 SLP042 T01110000 TSNO,KPUC,2015-04-25T04:53:00Z,39.62,-110.75,11.1,0.0,310,7,,10.0,29.769686,1004.2,,TRUE,TRUE,,,TRUE,,,,BKN,9000,OVC,11000,,,,,VFR,,,,,,,,,,,,METAR,2091.0
KPUB 250453Z 31005KT 10SM CLR 09/03 A2972 RMK AO2 SLP028 T00940028,KPUB,2015-04-25T04:53:00Z,38.28,-104.5,9.4,2.8,310,5,,10.0,29.719488,1002.8,,,TRUE,,,,,,,CLR,,,,,,,,VFR,,,,,,,,,,,,METAR,1420.0
KPTK 250453Z AUTO 07004KT 10SM OVC100 03/M04 A3000 RMK AO2 SLP164 T00331039 401281039 TSNO,KPTK,2015-04-25T04:53:00Z,42.67,-83.42,3.3,-3.9,70,4,,10.0,30.0,1016.4,,TRUE,TRUE,,,TRUE,,,,OVC,10000,,,,,,,VFR,,,,12.8,-3.9,,,,,,,METAR,299.0
KPUW 250453Z AUTO 00000KT 10SM FEW090 03/M02 A2983 RMK AO2 SLP114 T00281022 TSNO,KPUW,2015-04-25T04:53:00Z,46.75,-117.12,2.8,-2.2,0,0,,10.0,29.828741,1011.4,,TRUE,TRUE,,,TRUE,,,,FEW,9000,,,,,,,VFR,,,,,,,,,,,,METAR,773.0
KRAC 250453Z AUTO 07010KT 10SM OVC055 04/01 A2998 RMK AO2 SLP155 T00440006 TSNO,KRAC,2015-04-25T04:53:00Z,42.77,-87.82,4.4,0.6,70,10,,10.0,29.97933,1015.5,,TRUE,TRUE,,,TRUE,,,,OVC,5500,,,,,,,VFR,,,,,,,,,,,,METAR,203.0
KRAL 250453Z AUTO 28006KT 10SM SCT031 OVC045 14/11 A3001 RMK AO2 SLP151 T01440106 TSNO,KRAL,2015-04-25T04:53:00Z,33.95,-117.45,14.4,10.6,280,6,,10.0,30.008858,1015.1,,TRUE,TRUE,,,TRUE,,,,SCT,3100,OVC,4500,,,,,VFR,,,,,,,,,,,,METAR,252.0
KRBD 250453Z 13003KT 6SM BR CLR 16/16 A2971 RMK AO2 SLP053 T01610161 $,KRBD,2015-04-25T04:53:00Z,32.68,-96.87,16.1,16.1,130,3,,6.0,29.71063,1005.3,,,TRUE,TRUE,,,,,BR,CLR,,,,,,,,VFR,,,,,,,,,,,,METAR,203.0
KRBG 250453Z AUTO 01003KT 10SM BKN033 11/05 A2995 RMK AO2 SLP144 T01060050 TSNO,KRBG,2015-04-25T04:53:00Z,43.23,-123.35,10.6,5.0,10,3,,10.0,29.949802,1014.4,,TRUE,TRUE,,,TRUE,,,,BKN,3300,,,,,,,VFR,,,,,,,,,,,,METAR,154.0
KRDD 250453Z AUTO 30006KT 10SM SCT065 BKN080 OVC100 16/04 A2982 RMK AO2 SLP094 T01610044 TSNO,KRDD,2015-04-25T04:53:00Z,40.52,-122.3,16.1,4.4,300,6,,10.0,29.819881,1009.4,,TRUE,TRUE,,,TRUE,,,,SCT,6500,BKN,8000,OVC,10000,,,VFR,,,,,,,,,,,,METAR,155.0
KRIL 250453Z AUTO 00000KT 10SM CLR 06/00 A2981 RMK AO2 SLP064 T00610000 TSNO,KRIL,2015-04-25T04:53:00Z,39.53,-107.73,6.1,0.0,0,0,,10.0,29.811024,1006.4,,TRUE,TRUE,,,TRUE,,,,CLR,,,,,,,,VFR,,,,,,,,,,,,METAR,1678.0
KRIW 250453Z AUTO 26008KT 10SM CLR 11/M01 A2965 RMK AO2 SLP998 T01061006 TSNO,KRIW,2015-04-25T04:53:00Z,43.07,-108.47,10.6,-0.6,260,8,,10.0,29.648623,999.8,,TRUE,TRUE,,,TRUE,,,,CLR,,,,,,,,VFR,,,,,,,,,,,,METAR,1697.0
KRME 250453Z AUTO 27005KT 10SM SCT060 M01/M05 A2994 RMK AO2 SLP141 T10111050 400441017 TSNO,KRME,2015-04-25T04:53:00Z,43.22,-75.4,-1.1,-5.0,270,5,,10.0,29.940945,1014.1,,TRUE,TRUE,,,TRUE,,,,SCT,6000,,,,,,,VFR,,,,4.4,-1.7,,,,,,,METAR,154.0
KRNT 250453Z AUTO 16004KT 10SM BKN040 08/04 A2988 RMK AO2 SLP123 T00830039 TSNO,KRNT,2015-04-25T04:53:00Z,47.5,-122.22,8.3,3.9,160,4,,10.0,29.878937,1012.3,,TRUE,TRUE,,,TRUE,,,,BKN,4000,,,,,,,VFR,,,,,,,,,,,,METAR,21.0
KRQE 250453Z AUTO 24009KT 10SM BKN080 07/01 A3000 RMK AO2 SLP096 T00670006 TSNO,KRQE,2015-04-25T04:53:00Z,35.65,-109.07,6.7,0.6,240,9,,10.0,30.0,1009.6,,TRUE,TRUE,,,TRUE,,,,BKN,8000,,,,,,,VFR,,,,,,,,,,,,METAR,2055.0
KRSW 250453Z AUTO 11007KT 10SM CLR 24/19 A2997 RMK AO2 SLP147 T02390194 403220222 TSNO,KRSW,2015-04-25T04:53:00Z,26.53,-81.75,23.9,19.4,110,7,,10.0,29.970472,1014.7,,TRUE,TRUE,,,TRUE,,,,CLR,,,,,,,,VFR,,,,32.2,22.2,,,,,,,METAR,10.0
KRTN 250453Z AUTO 00000KT 10SM CLR 07/M06 A2981 RMK AO2 SLP037 T00671056 TSNO,KRTN,2015-04-25T04:53:00Z,36.73,-104.5,6.7,-5.6,0,0,,10.0,29.811024,1003.7,,TRUE,TRUE,,,TRUE,,,,CLR,,,,,,,,VFR,,,,,,,,,,,,METAR,1936.0
KRWF 250453Z AUTO 11009KT 10SM BKN013 OVC021 07/05 A2972 RMK AO2 SLP069 T00720050 TSNO,KRWF,2015-04-25T04:53:00Z,44.55,-95.08,7.2,5.0,110,9,,10.0,29.719488,1006.9,,TRUE,TRUE,,,TRUE,,,,BKN,1300,OVC,2100,,,,,MVFR,,,,,,,,,,,,METAR,311.0
KRWL 250453Z AUTO 26006KT 10SM CLR 04/M01 A2976 RMK AO2 SLP026 T00441011 TSNO,KRWL,2015-04-25T04:53:00Z,41.78,-107.2,4.4,-1.1,260,6,,10.0,29.760826,1002.6,,TRUE,TRUE,,,TRUE,,,,CLR,,,,,,,,VFR,,,,,,,,,,,,METAR,2077.0
KRXE 250453Z AUTO 20012G20KT 10SM OVC035 07/02 A2970 RMK AO2 SLP040 T00720022 TSNO $,KRXE,2015-04-25T04:53:00Z,43.83,-111.8,7.2,2.2,200,12,20,10.0,29.698818,1004.0,,TRUE,TRUE,TRUE,,TRUE,,,,OVC,3500,,,,,,,VFR,,,,,,,,,,,,METAR,1480.0
KSAC 250453Z AUTO 21009G14KT 10SM OVC085 13/07 A2996 RMK AO2 RAB04E31 SLP144 P0000 T01280067 TSNO,KSAC,2015-04-25T04:53:00Z,38.5,-121.5,12.8,6.7,210,9,14,10.0,29.958662,1014.4,,TRUE,TRUE,,,TRUE,,,,OVC,8500,,,,,,,VFR,,,,,,0.0050,,,,,,METAR,11.0
KSBA 250453Z 00000KT 10SM CLR 14/07 A3000 RMK AO2 SLP159 T01390067,KSBA,2015-04-25T04:53:00Z,34.43,-119.85,13.9,6.7,0,0,,10.0,30.0,1015.9,,,TRUE,,,,,,,CLR,,,,,,,,VFR,,,,,,,,,,,,METAR,3.0
KSAV 250453Z AUTO 19003KT 10SM CLR 18/09 A3000 RMK AO2 SLP159 T01780094 402390144 TSNO,KSAV,2015-04-25T04:53:00Z,32.12,-81.2,17.8,9.4,190,3,,10.0,30.0,1015.9,,TRUE,TRUE,,,TRUE,,,,CLR,,,,,,,,VFR,,,,23.9,14.4,,,,,,,METAR,14.0
KSAF 250453Z AUTO 34005KT 10SM FEW060 FEW075 06/M03 A2996 RMK AO2 RAE00 SLP104 P0000 T00611028 TSNO,KSAF,2015-04-25T04:53:00Z,35.62,-106.1,6.1,-2.8,340,5,,10.0,29.958662,1010.4,,TRUE,TRUE,,,TRUE,,,,FEW,6000,FEW,7500,,,,,VFR,,,,,,0.0050,,,,,,METAR,1930.0
KSBM 250453Z AUTO 03006KT 10SM -RA BKN039 OVC048 03/01 A2998 RMK AO2 RAB16UPB29E36 SLP159 P0001 T00280006 TSNO,KSBM,2015-04-25T04:53:00Z,43.78,-87.85,2.8,0.6,30,6,,10.0,29.97933,1015.9,,TRUE,TRUE,,,TRUE,,,-RA,BKN,3900,OVC,4800,,,,,VFR,,,,,,0.01,,,,,,METAR,232.0
KSDM 250453Z AUTO 19004KT 10SM OVC026 14/11 A3003 RMK AO2 SLP166 T01440111 TSNO,KSDM,2015-04-25T04:53:00Z,32.58,-117.0,14.4,11.1,190,4,,10.0,30.029528,1016.6,,TRUE,TRUE,,,TRUE,,,,OVC,2600,,,,,,,MVFR,,,,,,,,,,,,METAR,159.0
KSDL 250453Z AUTO 24003KT 10SM CLR 21/08 A2990 RMK AO2 SLP108 T02060078 TSNO,KSDL,2015-04-25T04:53:00Z,33.62,-111.92,20.6,7.8,240,3,,10.0,29.899607,1010.8,,TRUE,TRUE,,,TRUE,,,,CLR,,,,,,,,VFR,,,,,,,,,,,,METAR,447.0
KSEA 250453Z 15007KT 10SM FEW035 SCT150 BKN250 08/04 A2987 RMK AO2 SLP123 T00780039,KSEA,2015-04-25T04:53:00Z,47.45,-122.32,7.8,3.9,150,7,,10.0,29.870079,1012.3,,,TRUE,,,,,,,FEW,3500,SCT,15000,BKN,25000,,,VFR,,,,,,,,,,,,METAR,136.0
KSEG 250453Z AUTO 00000KT 10SM CLR M01/M04 A2998 RMK AO2 SLP153 T10061039 401281011 TSNO,KSEG,2015-04-25T04:53:00Z,40.82,-76.87,-0.6,-3.9,0,0,,10.0,29.97933,1015.3,,TRUE,TRUE,,,TRUE,,,,CLR,,,,,,,,VFR,,,,12.8,-1.1,,,,,,,METAR,134.0
KSFB 250453Z AUTO 00000KT 10SM CLR 21/18 A2999 RMK AO2 SLP153 T02060178 402890206 TSNO,KSFB,2015-04-25T04:53:00Z,28.77,-81.22,20.6,17.8,0,0,,10.0,29.991142,1015.3,,TRUE,TRUE,,,TRUE,,,,CLR,,,,,,,,VFR,,,,28.9,20.6,,,,,,,METAR,17.0
KFOK 250453Z AUTO 32010KT 10SM CLR 03/M07 A2991 RMK AO2 SLP127 T00281067 400890028 TSNO,KFOK,2015-04-25T04:53:00Z,40.85,-72.62,2.8,-6.7,320,10,,10.0,29.911417,1012.7,,TRUE,TRUE,,,TRUE,,,,CLR,,,,,,,,VFR,,,,8.9,2.8,,,,,,,METAR,33.0
KFNT 250453Z AUTO 09009KT 10SM CLR 04/M04 A3001 RMK AO2 SLP169 T00391044 401391044 TSNO $,KFNT,2015-04-25T04:53:00Z,42.97,-83.75,3.9,-4.4,90,9,,10.0,30.008858,1016.9,,TRUE,TRUE,TRUE,,TRUE,,,,CLR,,,,,,,,VFR,,,,13.9,-4.4,,,,,,,METAR,233.0
KFMY 250453Z AUTO 12008KT 10SM CLR 24/21 A2996 RMK AO2 SLP147 T02440211 403280228 TSNO,KFMY,2015-04-25T04:53:00Z,26.58,-81.87,24.4,21.1,120,8,,10.0,29.958662,1014.7,,TRUE,TRUE,,,TRUE,,,,CLR,,,,,,,,VFR,,,,32.8,22.8,,,,,,,METAR,4.0
KFMN 250453Z AUTO 08006KT 10SM BKN080 BKN100 09/02 A2991 RMK AO2 SLP097 T00890022 TSNO,KFMN,2015-04-25T04:53:00Z,36.75,-108.23,8.9,2.2,80,6,,10.0,29.911417,1009.7,,TRUE,TRUE,,,TRUE,,,,BKN,8000,BKN,10000,,,,,VFR,,,,,,,,,,,,METAR,1685.0
KFLO 250453Z 20005KT 10SM CLR 14/07 A2997 RMK AO2 SLP148 T01390072 402280078,KFLO,2015-04-25T04:53:00Z,34.18,-79.73,13.9,7.2,200,5,,10.0,29.970472,1014.8,,,TRUE,,,,,,,CLR,,,,,,,,VFR,,,,22.8,7.8,,,,,,,METAR,44.0
KFLL 250453Z 09005KT 10SM FEW021 SCT060 26/22 A2997 RMK AO2 SLP148 T02560222 403110228,KFLL,2015-04-25T04:53:00Z,26.07,-80.15,25.6,22.2,90,5,,10.0,29.970472,1014.8,,,TRUE,,,,,,,FEW,2100,SCT,6000,,,,,VFR,,,,31.1,22.8,,,,,,,METAR,3.0
KFLD 250453Z AUTO 10007KT 10SM OVC060 04/01 A2997 RMK AO2 RAE00B38E53 SLP153 P0000 T00390006 TSNO,KFLD,2015-04-25T04:53:00Z,43.77,-88.48,3.9,0.6,100,7,,10.0,29.970472,1015.3,,TRUE,TRUE,,,TRUE,,,,OVC,6000,,,,,,,VFR,,,,,,0.0050,,,,,,METAR,240.0
KFHR 250453Z AUTO 00000KT 10SM BKN100 07/03 A2986 RMK AO2 SLP112 T00670033 TSNO,KFHR,2015-04-25T04:53:00Z,48.52,-123.03,6.7,3.3,0,0,,10.0,29.861221,1011.2,,TRUE,TRUE,,,TRUE,,,,BKN,10000,,,,,,,VFR,,,,,,,,,,,,METAR,32.0
KFFT 250453Z AUTO 14006KT 10SM BKN060 OVC070 12/01 A2987 RMK AO2 SLP114 T01220011 401611011 TSNO,KFFT,2015-04-25T04:53:00Z,38.18,-84.9,12.2,1.1,140,6,,10.0,29.870079,1011.4,,TRUE,TRUE,,,TRUE,,,,BKN,6000,OVC,7000,,,,,VFR,,,,16.1,-1.1,,,,,,,METAR,236.0
KFDY 250453Z AUTO 08007KT 10SM OVC080 10/01 A2994 RMK AO2 SLP135 T01000006 401611033 TSNO,KFDY,2015-04-25T04:53:00Z,41.02,-83.67,10.0,0.6,80,7,,10.0,29.940945,1013.5,,TRUE,TRUE,,,TRUE,,,,OVC,8000,,,,,,,VFR,,,,16.1,-3.3,,,,,,,METAR,247.0
KFDR 250453Z AUTO 22008KT 10SM CLR 17/13 A2962 RMK AO2 SLP017 T01670128 TSNO,KFDR,2015-04-25T04:53:00Z,34.35,-98.98,16.7,12.8,220,8,,10.0,29.619095,1001.7,,TRUE,TRUE,,,TRUE,,,,CLR,,,,,,,,VFR,,,,,,,,,,,,METAR,386.0
KFCM 250453Z AUTO 10011G20KT 10SM OVC011 07/04 A2978 RMK AO2 SLP089 T00670044 TSNO,KFCM,2015-04-25T04:53:00Z,44.83,-93.47,6.7,4.4,100,11,20,10.0,29.778543,1008.9,,TRUE,TRUE,,,TRUE,,,,OVC,1100,,,,,,,MVFR,,,,,,,,,,,,METAR,280.0
KDRO 250453Z AUTO 32003KT 10SM -RA SCT050 BKN065 03/00 A2996 RMK AO2 RAB52 SLP121 P0000 T00330000 TSNO,KDRO,2015-04-25T04:53:00Z,37.15,-107.77,3.3,0.0,320,3,,10.0,29.958662,1012.1,,TRUE,TRUE,,,TRUE,,,-RA,SCT,5000,BKN,6500,,,,,VFR,,,,,,0.0050,,,,,,METAR,2035.0
KDMO 250453Z AUTO 11005KT 10SM SCT048 BKN080 OVC110 13/11 A2964 RMK AO2 SLP033 T01330106 TSNO,KDMO,2015-04-25T04:53:00Z,38.72,-93.17,13.3,10.6,110,5,,10.0,29.639763,1003.3,,TRUE,TRUE,,,TRUE,,,,SCT,4800,BKN,8000,OVC,11000,,,VFR,,,,,,,,,,,,METAR,274.0
KDMN 250453Z AUTO 22003KT 10SM CLR 11/M02 A2999 RMK AO2 SLP111 T01061017 TSNO,KDMN,2015-04-25T04:53:00Z,32.27,-107.72,10.6,-1.7,220,3,,10.0,29.991142,1011.1,,TRUE,TRUE,,,TRUE,,,,CLR,,,,,,,,VFR,,,,,,,,,,,,METAR,1311.0
KDHT 250453Z AUTO 28010KT 10SM CLR 12/M01 A2972 RMK AO2 SLP017 T01171011 TSNO,KDHT,2015-04-25T04:53:00Z,36.02,-102.55,11.7,-1.1,280,10,,10.0,29.719488,1001.7,,TRUE,TRUE,,,TRUE,,,,CLR,,,,,,,,VFR,,,,,,,,,,,,METAR,1217.0
KDHN 250453Z AUTO 10003KT 10SM CLR 19/17 A2993 RMK AO2 SLP130 T01890167 TSNO,KDHN,2015-04-25T04:53:00Z,31.32,-85.45,18.9,16.7,100,3,,10.0,29.929134,1013.0,,TRUE,TRUE,,,TRUE,,,,CLR,,,,,,,,VFR,,,,,,,,,,,,METAR,113.0
KDGW 250453Z AUTO 00000KT 10SM CLR 08/06 A2966 RMK AO2 SLP008 T00830056 TSNO,KDGW,2015-04-25T04:53:00Z,42.8,-105.38,8.3,5.6,0,0,,10.0,29.660433,1000.8,,TRUE,TRUE,,,TRUE,,,,CLR,,,,,,,,VFR,,,,,,,,,,,,METAR,1499.0
KDFW 250453Z 15007KT 7SM FEW004 FEW110 BKN250 16/16 A2968 RMK AO2 SLP046 T01610161,KDFW,2015-04-25T04:53:00Z,32.9,-97.02,16.1,16.1,150,7,,7.0,29.681103,1004.6,,,TRUE,,,,,,,FEW,400,FEW,11000,BKN,25000,,,VFR,,,,,,,,,,,,METAR,174.0
KDFI 250453Z AUTO 03007KT 10SM OVC080 10/01 A2996 RMK AO2 SLP146 T01000011 401611028 TSNO,KDFI,2015-04-25T04:53:00Z,41.33,-84.43,10.0,1.1,30,7,,10.0,29.958662,1014.6,,TRUE,TRUE,,,TRUE,,,,OVC,8000,,,,,,,VFR,,,,16.1,-2.8,,,,,,,METAR,219.0
KDEW 250453Z AUTO 00000KT 10SM CLR 02/M02 A2980 RMK AO2 SLP103 T00171017 TSNO,KDEW,2015-04-25T04:53:00Z,47.97,-117.43,1.7,-1.7,0,0,,10.0,29.799213,1010.3,,TRUE,TRUE,,,TRUE,,,,CLR,,,,,,,,VFR,,,,,,,,,,,,METAR,674.0
KDET 250453Z 06005KT 10SM OVC110 04/M02 A3002 RMK AO2 SLP168 T00391017 401391022,KDET,2015-04-25T04:53:00Z,42.4,-83.02,3.9,-1.7,60,5,,10.0,30.02067,1016.8,,,TRUE,,,,,,,OVC,11000,,,,,,,VFR,,,,13.9,-2.2,,,,,,,METAR,190.0
KDEQ 250453Z AUTO 00000KT 10SM OVC007 17/17 A2969 RMK AO2 SLP049 T01720167 TSNO,KDEQ,2015-04-25T04:53:00Z,34.05,-94.4,17.2,16.7,0,0,,10.0,29.68996,1004.9,,TRUE,TRUE,,,TRUE,,,,OVC,700,,,,,,,IFR,,,,,,,,,,,,METAR,106.0
KDEN 250453Z 21010KT 10SM FEW100 SCT220 09/01 A2970 RMK AO2 SLP005 T00890006,KDEN,2015-04-25T04:53:00Z,39.85,-104.65,8.9,0.6,210,10,,10.0,29.698818,1000.5,,,TRUE,,,,,,,FEW,10000,SCT,22000,,,,,VFR,,,,,,,,,,,,METAR,1640.0
KDCU 250453Z AUTO 04004KT 10SM -RA FEW055 OVC070 14/13 A2990 RMK AO2 SLP119 P0006 T01390128 TSNO,KDCU,2015-04-25T04:53:00Z,34.65,-86.95,13.9,12.8,40,4,,10.0,29.899607,1011.9,,TRUE,TRUE,,,TRUE,,,-RA,FEW,5500,OVC,7000,,,,,VFR,,,,,,0.06,,,,,,METAR,176.0
KDBQ 250453Z AUTO 08014KT 6SM HZ OVC047 06/03 A2981 RMK AO2 SLP100 T00560028 TSNO,KDBQ,2015-04-25T04:53:00Z,42.4,-90.7,5.6,2.8,80,14,,6.0,29.811024,1010.0,,TRUE,TRUE,,,TRUE,,,HZ,OVC,4700,,,,,,,VFR,,,,,,,,,,,,METAR,326.0
KSFF 250453Z AUTO 03003KT 10SM CLR 06/00 A2981 RMK AO2 SLP098 T00610000 TSNO,KSFF,2015-04-25T04:53:00Z,47.68,-117.32,6.1,0.0,30,3,,10.0,29.811024,1009.8,,TRUE,TRUE,,,TRUE,,,,CLR,,,,,,,,VFR,,,,,,,,,,,,METAR,609.0
KSHN 250453Z AUTO 21006KT 10SM CLR 07/03 A2985 RMK AO2 SLP113 T00670033 TSNO,KSHN,2015-04-25T04:53:00Z,47.23,-123.13,6.7,3.3,210,6,,10.0,29.84941,1011.3,,TRUE,TRUE,,,TRUE,,,,CLR,,,,,,,,VFR,,,,,,,,,,,,METAR,82.0
KSHR 250453Z AUTO 17003KT 10SM FEW120 09/04 A2958 RMK AO2 SLP002 T00940039 TSNO,KSHR,2015-04-25T04:53:00Z,44.77,-106.97,9.4,3.9,170,3,,10.0,29.58071,1000.2,,TRUE,TRUE,,,TRUE,,,,FEW,12000,,,,,,,VFR,,,,,,,,,,,,METAR,1202.0
KSIY 250453Z AUTO 02004KT 10SM SCT047 OVC070 06/04 A2990 RMK AO2 RAE46 SLP137 P0000 T00610039 TSNO,KSIY,2015-04-25T04:53:00Z,41.77,-122.47,6.1,3.9,20,4,,10.0,29.899607,1013.7,,TRUE,TRUE,,,TRUE,,,,SCT,4700,OVC,7000,,,,,VFR,,,,,,0.0050,,,,,,METAR,807.0
KSJC 250453Z 10003KT 10SM SCT032 BKN045 BKN180 14/06 A3003 RMK AO2 SLP169 T01440056,KSJC,2015-04-25T04:53:00Z,37.37,-121.92,14.4,5.6,100,3,,10.0,30.029528,1016.9,,,TRUE,,,,,,,SCT,3200,BKN,4500,BKN,18000,,,VFR,,,,,,,,,,,,METAR,24.0
KSLN 250453Z AUTO 15006KT 10SM SCT110 13/11 A2948 RMK AO2 SLP975 T01330111 TSNO,KSLN,2015-04-25T04:53:00Z,38.78,-97.65,13.3,11.1,150,6,,10.0,29.480314,997.5,,TRUE,TRUE,,,TRUE,,,,SCT,11000,,,,,,,VFR,,,,,,,,,,,,METAR,385.0
KEYW 250453Z AUTO 36006KT 10SM FEW015 27/24 A2998 RMK AO2 SLP150 T02670239 403170256 TSNO,KEYW,2015-04-25T04:53:00Z,24.55,-81.75,26.7,23.9,360,6,,10.0,29.97933,1015.0,,TRUE,TRUE,,,TRUE,,,,FEW,1500,,,,,,,VFR,,,,31.7,25.6,,,,,,,METAR,5.0
KEYE 250453Z AUTO 19006KT 10SM OVC050 13/M01 A2987 RMK AO2 SLP112 T01331011 401611011 TSNO,KEYE,2015-04-25T04:53:00Z,39.83,-86.3,13.3,-1.1,190,6,,10.0,29.870079,1011.2,,TRUE,TRUE,,,TRUE,,,,OVC,5000,,,,,,,VFR,,,,16.1,-1.1,,,,,,,METAR,248.0
KEWB 250453Z AUTO 28007KT 10SM CLR 03/M05 A2979 RMK AO2 SLP090 T00281050 401110017 TSNO,KEWB,2015-04-25T04:53:00Z,41.68,-70.95,2.8,-5.0,280,7,,10.0,29.790354,1009.0,,TRUE,TRUE,,,TRUE,,,,CLR,,,,,,,,VFR,,,,11.1,1.7,,,,,,,METAR,23.0
KESF 250453Z AUTO 21004KT 9SM OVC008 23/21 A2981 RMK AO2 RAE22 SLP093 P0000 T02280211 TSNO,KESF,2015-04-25T04:53:00Z,31.4,-92.28,22.8,21.1,210,4,,9.0,29.811024,1009.3,,TRUE,TRUE,,,TRUE,,,,OVC,800,,,,,,,IFR,,,,,,0.0050,,,,,,METAR,28.0
KEPH 250453Z AUTO 33008KT 10SM CLR 09/M02 A2978 RMK AO2 SLP087 T00941022 TSNO,KEPH,2015-04-25T04:53:00Z,47.3,-119.52,9.4,-2.2,330,8,,10.0,29.778543,1008.7,,TRUE,TRUE,,,TRUE,,,,CLR,,,,,,,,VFR,,,,,,,,,,,,METAR,383.0
KSMF 250453Z 18011KT 10SM -RA OVC070 13/06 A2994 RMK AO2 SLP137 P0000 T01330056,KSMF,2015-04-25T04:53:00Z,38.7,-121.6,13.3,5.6,180,11,,10.0,29.940945,1013.7,,,TRUE,,,,,,-RA,OVC,7000,,,,,,,VFR,,,,,,0.0050,,,,,,METAR,6.0
KSNA 250453Z 24003KT 10SM FEW018 BKN032 OVC040 16/11 A3002 RMK AO2 SLP166 T01610106,KSNA,2015-04-25T04:53:00Z,33.67,-117.87,16.1,10.6,240,3,,10.0,30.02067,1016.6,,,TRUE,,,,,,,FEW,1800,BKN,3200,OVC,4000,,,VFR,,,,,,,,,,,,METAR,16.0
KSMQ 250453Z AUTO 00000KT 10SM CLR 00/M05 A2993 RMK AO2 SLP137 T00001050 401220000 TSNO,KSMQ,2015-04-25T04:53:00Z,40.62,-74.67,0.0,-5.0,0,0,,10.0,29.929134,1013.7,,TRUE,TRUE,,,TRUE,,,,CLR,,,,,,,,VFR,,,,12.2,,,,,,,,METAR,30.0
KSNS 250453Z AUTO 24007KT 10SM CLR 14/08 A3007 RMK AO2 SLP191 T01390078 TSNO,KSNS,2015-04-25T04:53:00Z,36.67,-121.6,13.9,7.8,240,7,,10.0,30.070866,1019.1,,TRUE,TRUE,,,TRUE,,,,CLR,,,,,,,,VFR,,,,,,,,,,,,METAR,30.0
KSNY 250453Z AUTO 29010KT 10SM SCT120 11/03 A2962 RMK AO2 SLP997 T01110028 TSNO,KSNY,2015-04-25T04:53:00Z,41.1,-102.98,11.1,2.8,290,10,,10.0,29.619095,999.7,,TRUE,TRUE,,,TRUE,,,,SCT,12000,,,,,,,VFR,,,,,,,,,,,,METAR,1307.0
KFWN 250453Z AUTO 36003KT 10SM CLR 00/M06 A2993 RMK AO2 SLP138 T00001061 400830000 TSNO,KFWN,2015-04-25T04:53:00Z,41.2,-74.63,0.0,-6.1,360,3,,10.0,29.929134,1013.8,,TRUE,TRUE,,,TRUE,,,,CLR,,,,,,,,VFR,,,,8.3,,,,,,,,METAR,133.0
KFUL 250453Z 00000KT 10SM BKN026 OVC034 17/10 A3001 RMK AO2 SLP160 T01670100,KFUL,2015-04-25T04:53:00Z,33.87,-117.98,16.7,10.0,0,0,,10.0,30.008858,1016.0,,,TRUE,,,,,,,BKN,2600,OVC,3400,,,,,MVFR,,,,,,,,,,,,METAR,35.0
KFTW 250453Z 14005KT 10SM CLR 17/16 A2968 RMK AO2 SLP046 T01670161,KFTW,2015-04-25T04:53:00Z,32.83,-97.37,16.7,16.1,140,5,,10.0,29.681103,1004.6,,,TRUE,,,,,,,CLR,,,,,,,,VFR,,,,,,,,,,,,METAR,214.0
KFST 250453Z AUTO 27009KT 10SM CLR 17/M03 A2989 RMK AO2 SLP081 T01671028 TSNO,KFST,2015-04-25T04:53:00Z,30.92,-102.92,16.7,-2.8,270,9,,10.0,29.890747,1008.1,,TRUE,TRUE,,,TRUE,,,,CLR,,,,,,,,VFR,,,,,,,,,,,,METAR,918.0
KFRG 250453Z AUTO 32007KT 10SM CLR 03/M07 A2992 RMK AO2 SLP130 T00331067 400940028 TSNO,KFRG,2015-04-25T04:53:00Z,40.73,-73.42,3.3,-6.7,320,7,,10.0,29.920275,1013.0,,TRUE,TRUE,,,TRUE,,,,CLR,,,,,,,,VFR,,,,9.4,2.8,,,,,,,METAR,21.0
KFPR 250453Z AUTO 10006KT 10SM CLR 23/21 A2996 RMK AO2 SLP146 T02330206 403000211 TSNO,KFPR,2015-04-25T04:53:00Z,27.5,-80.38,23.3,20.6,100,6,,10.0,29.958662,1014.6,,TRUE,TRUE,,,TRUE,,,,CLR,,,,,,,,VFR,,,,30.0,21.1,,,,,,,METAR,13.0
KBOI 250453Z 34012KT 10SM BKN110 10/00 A2978 RMK AO2 SLP081 T01000000,KBOI,2015-04-25T04:53:00Z,43.57,-116.23,10.0,0.0,340,12,,10.0,29.778543,1008.1,,,TRUE,,,,,,,BKN,11000,,,,,,,VFR,,,,,,,,,,,,METAR,875.0
KBNO 250453Z AUTO 27005KT 10SM SCT070 OVC100 02/M04 A2983 RMK AO2 SLP106 T00221044 TSNO,KBNO,2015-04-25T04:53:00Z,43.6,-118.95,2.2,-4.4,270,5,,10.0,29.828741,1010.6,,TRUE,TRUE,,,TRUE,,,,SCT,7000,OVC,10000,,,,,VFR,,,,,,,,,,,,METAR,1264.0
KBNA 250453Z 16008KT 10SM -RA OVC100 12/11 A2988 RMK AO2 SLP114 P0005 T01220106,KBNA,2015-04-25T04:53:00Z,36.12,-86.68,12.2,10.6,160,8,,10.0,29.878937,1011.4,,,TRUE,,,,,,-RA,OVC,10000,,,,,,,VFR,,,,,,0.05,,,,,,METAR,210.0
KBMQ 250453Z AUTO 29004KT 6SM BR CLR 22/20 A2977 RMK AO2 SLP065 T02170200 TSNO $,KBMQ,2015-04-25T04:53:00Z,30.73,-98.23,21.7,20.0,290,4,,6.0,29.769686,1006.5,,TRUE,TRUE,TRUE,,TRUE,,,BR,CLR,,,,,,,,VFR,,,,,,,,,,,,METAR,389.0
KBMG 250453Z AUTO 17006KT 10SM OVC038 14/01 A2984 RMK AO2 SLP100 T01390011 401831017 TSNO,KBMG,2015-04-25T04:53:00Z,39.15,-86.62,13.9,1.1,170,6,,10.0,29.840551,1010.0,,TRUE,TRUE,,,TRUE,,,,OVC,3800,,,,,,,VFR,,,,18.3,-1.7,,,,,,,METAR,257.0
KBLI 250453Z 00000KT 10SM FEW035 06/04 A2985 RMK AO2 RAB00E31 SLP117 P0001 T00560044 $,KBLI,2015-04-25T04:53:00Z,48.8,-122.53,5.6,4.4,0,0,,10.0,29.84941,1011.7,,,TRUE,TRUE,,,,,,FEW,3500,,,,,,,VFR,,,,,,0.01,,,,,,METAR,50.0
KBKV 250453Z 12004KT 10SM CLR 21/17 A2999 RMK AO2 SLP151 T02110172 403110206,KBKV,2015-04-25T04:53:00Z,28.47,-82.45,21.1,17.2,120,4,,10.0,29.991142,1015.1,,,TRUE,,,,,,,CLR,,,,,,,,VFR,,,,31.1,20.6,,,,,,,METAR,20.0
KBKL 250453Z 10009KT 10SM SCT120 07/M07 A2999 RMK AO2 SLP158 T00671067 400890000,KBKL,2015-04-25T04:53:00Z,41.53,-81.67,6.7,-6.7,100,9,,10.0,29.991142,1015.8,,,TRUE,,,,,,,SCT,12000,,,,,,,VFR,,,,8.9,,,,,,,,METAR,184.0
KBKE 250453Z AUTO 26005KT 10SM FEW060 FEW120 04/M03 A2983 RMK AO2 SLP106 T00441028 TSNO,KBKE,2015-04-25T04:53:00Z,44.85,-117.82,4.4,-2.8,260,5,,10.0,29.828741,1010.6,,TRUE,TRUE,,,TRUE,,,,FEW,6000,FEW,12000,,,,,VFR,,,,,,,,,,,,METAR,1024.0
KBIV 250453Z AUTO 10007KT 10SM -RA OVC046 06/03 A2999 RMK AO2 SLP159 P0001 T00610033 401441011 TSNO,KBIV,2015-04-25T04:53:00Z,42.75,-86.1,6.1,3.3,100,7,,10.0,29.991142,1015.9,,TRUE,TRUE,,,TRUE,,,-RA,OVC,4600,,,,,,,VFR,,,,14.4,-1.1,0.01,,,,,,METAR,208.0
KBGR 250453Z 28005KT 10SM BKN055 BKN075 OVC090 01/M03 A2965 RMK AO2 SNE23 SLP042 P0000 T00111028 401000006,KBGR,2015-04-25T04:53:00Z,44.8,-68.82,1.1,-2.8,280,5,,10.0,29.648623,1004.2,,,TRUE,,,,,,,BKN,5500,BKN,7500,OVC,9000,,,VFR,,,,10.0,0.6,0.0050,,,,,,METAR,57.0
KBGM 250453Z AUTO 32008KT 10SM CLR M01/M06 A2990 RMK AO2 SLP141 T10111061 400111022 TSNO,KBGM,2015-04-25T04:53:00Z,42.22,-75.98,-1.1,-6.1,320,8,,10.0,29.899607,1014.1,,TRUE,TRUE,,,TRUE,,,,CLR,,,,,,,,VFR,,,,1.1,-2.2,,,,,,,METAR,490.0
KBFI 250453Z 14009KT 10SM SCT040 09/04 A2987 RMK AO2 SLP115 T00890044,KBFI,2015-04-25T04:53:00Z,47.55,-122.32,8.9,4.4,140,9,,10.0,29.870079,1011.5,,,TRUE,,,,,,,SCT,4000,,,,,,,VFR,,,,,,,,,,,,METAR,4.0
KBFF 250453Z AUTO 24007KT 10SM CLR 09/06 A2963 RMK AO2 SLP008 T00940056 TSNO,KBFF,2015-04-25T04:53:00Z,41.87,-103.58,9.4,5.6,240,7,,10.0,29.630905,1000.8,,TRUE,TRUE,,,TRUE,,,,CLR,,,,,,,,VFR,,,,,,,,,,,,METAR,1203.0
KBFD 250453Z AUTO 28004KT 10SM CLR M02/M08 A2994 RMK AO2 SLP155 T10171083 400501033 TSNO,KBFD,2015-04-25T04:53:00Z,41.8,-78.63,-1.7,-8.3,280,4,,10.0,29.940945,1015.5,,TRUE,TRUE,,,TRUE,,,,CLR,,,,,,,,VFR,,,,5.0,-3.3,,,,,,,METAR,647.0
KBEH 250453Z AUTO 07009KT 10SM OVC065 06/04 A2993 RMK AO2 RAB00E21 SLP138 P0000 T00610039 401281044 TSNO,KBEH,2015-04-25T04:53:00Z,42.13,-86.42,6.1,3.9,70,9,,10.0,29.929134,1013.8,,TRUE,TRUE,,,TRUE,,,,OVC,6500,,,,,,,VFR,,,,12.8,-4.4,0.0050,,,,,,METAR,191.0
KBDE 250453Z AUTO 10010KT 10SM OVC036 04/M04 A2988 RMK AO2 SLP132 T00441044 TSNO,KBDE,2015-04-25T04:53:00Z,48.73,-94.62,4.4,-4.4,100,10,,10.0,29.878937,1013.2,,TRUE,TRUE,,,TRUE,,,,OVC,3600,,,,,,,VFR,,,,,,,,,,,,METAR,329.0
KBCE 250453Z AUTO 25009KT 9SM -RA OVC024 03/02 A2993 RMK AO2 RAB16 SLP067 P0002 T00330022 TSNO,KBCE,2015-04-25T04:53:00Z,37.7,-112.15,3.3,2.2,250,9,,9.0,29.929134,1006.7,,TRUE,TRUE,,,TRUE,,,-RA,OVC,2400,,,,,,,MVFR,,,,,,0.02,,,,,,METAR,2312.0
KBBW 250453Z AUTO 08004KT 10SM SCT120 12/07 A2949 RMK AO2 SLP973 T01220072 TSNO,KBBW,2015-04-25T04:53:00Z,41.43,-99.63,12.2,7.2,80,4,,10.0,29.489174,997.3,,TRUE,TRUE,,,TRUE,,,,SCT,12000,,,,,,,VFR,,,,,,,,,,,,METAR,776.0
KBAF 250453Z AUTO 32010KT 10SM CLR 02/M07 A2984 RMK AO2 SLP109 T00221067 400780017 TSNO,KBAF,2015-04-25T04:53:00Z,42.17,-72.72,2.2,-6.7,320,10,,10.0,29.840551,1010.9,,TRUE,TRUE,,,TRUE,,,,CLR,,,,,,,,VFR,,,,7.8,1.7,,,,,,,METAR,83.0
KAZO 250453Z AUTO 06009KT 10SM FEW060 OVC075 06/03 A2996 RMK AO2 RAE36 SLP151 P0003 T00560028 401611011 TSNO,KAZO,2015-04-25T04:53:00Z,42.23,-85.55,5.6,2.8,60,9,,10.0,29.958662,1015.1,,TRUE,TRUE,,,TRUE,,,,FEW,6000,OVC,7500,,,,,VFR,,,,16.1,-1.1,0.03,,,,,,METAR,272.0
KGEY 250453Z AUTO 34011G23KT 10SM FEW060 BKN070 OVC090 16/02 A2955 RMK AO2 PK WND 31028/0439 RAB35E51 SLP982 P0000 T01560017 TSNO $,KGEY,2015-04-25T04:53:00Z,44.52,-108.08,15.6,1.7,340,11,23,10.0,29.551182,998.2,,TRUE,TRUE,TRUE,,TRUE,,,,FEW,6000,BKN,7000,OVC,9000,,,VFR,,,,,,0.0050,,,,,,METAR,1191.0
KGEG 250453Z 14003KT 10SM SCT080 SCT200 07/M01 A2979 RMK AO2 SLP096 T00671011,KGEG,2015-04-25T04:53:00Z,47.62,-117.53,6.7,-1.1,140,3,,10.0,29.790354,1009.6,,,TRUE,,,,,,,SCT,8000,SCT,20000,,,,,VFR,,,,,,,,,,,,METAR,735.0
KGCC 250453Z AUTO 17007KT 10SM FEW090 OVC110 09/04 A2964 RMK AO2 SLP012 T00940039 TSNO,KGCC,2015-04-25T04:53:00Z,44.33,-105.55,9.4,3.9,170,7,,10.0,29.639763,1001.2,,TRUE,TRUE,,,TRUE,,,,FEW,9000,OVC,11000,,,,,VFR,,,,,,,,,,,,METAR,1320.0
KGAG 250453Z AUTO 31004KT 10SM FEW120 15/08 A2957 RMK AO2 WSHFT 0340 SLP993 T01500078 TSNO,KGAG,2015-04-25T04:53:00Z,36.3,-99.77,15.0,7.8,310,4,,10.0,29.568897,999.3,,TRUE,TRUE,,,TRUE,,,,FEW,12000,,,,,,,VFR,,,,,,,,,,,,METAR,668.0
KFYV 250453Z AUTO 19008KT 10SM CLR 16/14 A2965 RMK AO2 SLP031 T01610144 TSNO,KFYV,2015-04-25T04:53:00Z,36.02,-94.17,16.1,14.4,190,8,,10.0,29.648623,1003.1,,TRUE,TRUE,,,TRUE,,,,CLR,,,,,,,,VFR,,,,,,,,,,,,METAR,379.0
KFXE 250453Z 08004KT 10SM CLR 25/25 A2998 RMK AO2 SLP153 T02500250 403170222 $,KFXE,2015-04-25T04:53:00Z,26.2,-80.18,25.0,25.0,80,4,,10.0,29.97933,1015.3,,,TRUE,TRUE,,,,,,CLR,,,,,,,,VFR,,,,31.7,22.2,,,,,,,METAR,6.0
KGNV 250453Z AUTO 00000KT 10SM CLR 17/14 A2999 RMK AO2 SLP154 T01720144 402890167 TSNO $,KGNV,2015-04-25T04:53:00Z,29.7,-82.28,17.2,14.4,0,0,,10.0,29.991142,1015.4,,TRUE,TRUE,TRUE,,TRUE,,,,CLR,,,,,,,,VFR,,,,28.9,16.7,,,,,,,METAR,45.0
KGLR 250453Z AUTO 00000KT 10SM CLR M01/M08 A3000 RMK AO2 SLP174 T10111078 400671089 TSNO,KGLR,2015-04-25T04:53:00Z,45.02,-84.68,-1.1,-7.8,0,0,,10.0,30.0,1017.4,,TRUE,TRUE,,,TRUE,,,,CLR,,,,,,,,VFR,,,,6.7,-8.9,,,,,,,METAR,407.0
KGLD 250453Z AUTO 29011KT 10SM CLR 11/06 A2960 RMK AO2 SLP000 T01060061 TSNO,KGLD,2015-04-25T04:53:00Z,39.37,-101.7,10.6,6.1,290,11,,10.0,29.601377,1000.0,,TRUE,TRUE,,,TRUE,,,,CLR,,,,,,,,VFR,,,,,,,,,,,,METAR,1113.0
KGKJ 250453Z AUTO 00000KT 10SM CLR 01/M07 A2997 RMK AO2 SLP160 T00061072 400721022 TSNO,KGKJ,2015-04-25T04:53:00Z,41.63,-80.22,0.6,-7.2,0,0,,10.0,29.970472,1016.0,,TRUE,TRUE,,,TRUE,,,,CLR,,,,,,,,VFR,,,,7.2,-2.2,,,,,,,METAR,428.0
KGJT 250453Z AUTO 15012KT 10SM BKN110 12/00 A2978 RMK AO2 SLP038 T01170000 TSNO,KGJT,2015-04-25T04:53:00Z,39.12,-108.52,11.7,0.0,150,12,,10.0,29.778543,1003.8,,TRUE,TRUE,,,TRUE,,,,BKN,11000,,,,,,,VFR,,,,,,,,,,,,METAR,1475.0
KGGW 250453Z AUTO 02008KT 10SM FEW070 BKN100 11/01 A2960 RMK AO2 SLP026 T01110006 TSNO,KGGW,2015-04-25T04:53:00Z,48.22,-106.62,11.1,0.6,20,8,,10.0,29.601377,1002.6,,TRUE,TRUE,,,TRUE,,,,FEW,7000,BKN,10000,,,,,VFR,,,,,,,,,,,,METAR,694.0
KGGG 250453Z AUTO 18010KT 10SM -RA FEW110 19/18 A2973 RMK AO2 WSHFT 0350 TSE21 SLP063 P0010 T01940178 TSNO,KGGG,2015-04-25T04:53:00Z,32.38,-94.72,19.4,17.8,180,10,,10.0,29.731298,1006.3,,TRUE,TRUE,,,TRUE,,,-RA,FEW,11000,,,,,,,VFR,,,,,,0.1,,,,,,METAR,107.0
KGFL 250453Z AUTO 28003KT 10SM SCT049 BKN080 02/M06 A2985 RMK AO2 SLP115 T00171056 400560011 TSNO,KGFL,2015-04-25T04:53:00Z,43.33,-73.62,1.7,-5.6,280,3,,10.0,29.84941,1011.5,,TRUE,TRUE,,,TRUE,,,,SCT,4900,BKN,8000,,,,,VFR,,,,5.6,1.1,,,,,,,METAR,103.0
KGEZ 250453Z AUTO 00000KT 10SM OVC060 13/02 A2987 RMK AO2 SLP112 T01330022 401720000 TSNO,KGEZ,2015-04-25T04:53:00Z,39.58,-85.8,13.3,2.2,0,0,,10.0,29.870079,1011.2,,TRUE,TRUE,,,TRUE,,,,OVC,6000,,,,,,,VFR,,,,17.2,,,,,,,,METAR,245.0
KBRD 250453Z AUTO 09004KT 10SM OVC029 04/00 A2983 RMK AO2 SLP112 T00440000 TSNO,KBRD,2015-04-25T04:53:00Z,46.4,-94.13,4.4,0.0,90,4,,10.0,29.828741,1011.2,,TRUE,TRUE,,,TRUE,,,,OVC,2900,,,,,,,MVFR,,,,,,,,,,,,METAR,372.0
KHJO 250453Z AUTO 32012KT 10SM CLR 19/02 A2997 RMK AO2 SLP148 T01890022 TSNO,KHJO,2015-04-25T04:53:00Z,36.32,-119.62,18.9,2.2,320,12,,10.0,29.970472,1014.8,,TRUE,TRUE,,,TRUE,,,,CLR,,,,,,,,VFR,,,,,,,,,,,,METAR,74.0
KHIO 250453Z AUTO 26003KT 10SM SCT042 OVC050 09/04 A2991 RMK AO2 SLP128 T00940044 TSNO,KHIO,2015-04-25T04:53:00Z,45.55,-122.95,9.4,4.4,260,3,,10.0,29.911417,1012.8,,TRUE,TRUE,,,TRUE,,,,SCT,4200,OVC,5000,,,,,VFR,,,,,,,,,,,,METAR,68.0
KHIB 250453Z AUTO 11008KT 10SM OVC050 03/M08 A2991 RMK AO2 SLP142 T00281083 TSNO,KHIB,2015-04-25T04:53:00Z,47.38,-92.83,2.8,-8.3,110,8,,10.0,29.911417,1014.2,,TRUE,TRUE,,,TRUE,,,,OVC,5000,,,,,,,VFR,,,,,,,,,,,,METAR,412.0
KHHR 250453Z AUTO 28004KT 10SM FEW034 OVC055 16/12 A3002 RMK AO2 SLP167 T01610117 TSNO,KHHR,2015-04-25T04:53:00Z,33.92,-118.33,16.1,11.7,280,4,,10.0,30.02067,1016.7,,TRUE,TRUE,,,TRUE,,,,FEW,3400,OVC,5500,,,,,VFR,,,,,,,,,,,,METAR,18.0
KHGR 250453Z AUTO 01004KT 10SM CLR 07/M08 A2997 RMK AO2 SLP160 T00721083 401440022 TSNO,KHGR,2015-04-25T04:53:00Z,39.7,-77.73,7.2,-8.3,10,4,,10.0,29.970472,1016.0,,TRUE,TRUE,,,TRUE,,,,CLR,,,,,,,,VFR,,,,14.4,2.2,,,,,,,METAR,224.0
KAUS 250453Z 18004KT 7SM FEW034 SCT110 23/22 A2972 RMK AO2 SLP056 T02280222,KAUS,2015-04-25T04:53:00Z,30.18,-97.68,22.8,22.2,180,4,,7.0,29.719488,1005.6,,,TRUE,,,,,,,FEW,3400,SCT,11000,,,,,VFR,,,,,,,,,,,,METAR,166.0
KSPB 250453Z AUTO 10SM FEW039 BKN050 OVC080 09/07 A2991 RMK AO2 SLP126 T00890072 TSNO,KSPB,2015-04-25T04:53:00Z,45.77,-122.87,8.9,7.2,,,,10.0,29.911417,1012.6,,TRUE,TRUE,,,TRUE,,,,FEW,3900,BKN,5000,OVC,8000,,,VFR,,,,,,,,,,,,METAR,14.0
KSPG 250453Z AUTO 14017KT 10SM SCT040 25/21 A2995 RMK AO2 SLP142 T02500206 403000244 TSNO,KSPG,2015-04-25T04:53:00Z,27.77,-82.63,25.0,20.6,140,17,,10.0,29.949802,1014.2,,TRUE,TRUE,,,TRUE,,,,SCT,4000,,,,,,,VFR,,,,30.0,24.4,,,,,,,METAR,2.0
KSRQ 250453Z 11009KT 10SM CLR 23/21 A2995 RMK AO2 SLP141 T02330206 403000233,KSRQ,2015-04-25T04:53:00Z,27.4,-82.57,23.3,20.6,110,9,,10.0,29.949802,1014.1,,,TRUE,,,,,,,CLR,,,,,,,,VFR,,,,30.0,23.3,,,,,,,METAR,18.0
KSTC 250453Z AUTO 10007KT 10SM OVC019 07/03 A2979 RMK AO2 SLP105 T00670033 TSNO,KSTC,2015-04-25T04:53:00Z,45.55,-94.05,6.7,3.3,100,7,,10.0,29.790354,1010.5,,TRUE,TRUE,,,TRUE,,,,OVC,1900,,,,,,,MVFR,,,,,,,,,,,,METAR,314.0
KSSI 250453Z AUTO 13005KT 10SM FEW120 20/15 A3001 RMK AO2 SLP161 T02000150 402170178 TSNO,KSSI,2015-04-25T04:53:00Z,31.15,-81.38,20.0,15.0,130,5,,10.0,30.008858,1016.1,,TRUE,TRUE,,,TRUE,,,,FEW,12000,,,,,,,VFR,,,,21.7,17.8,,,,,,,METAR,6.0
KSTJ 250453Z AUTO 14010KT 10SM FEW060 14/12 A2952 RMK AO2 RAE0355 SLP994 P0000 T01440122 TSNO,KSTJ,2015-04-25T04:53:00Z,39.77,-94.92,14.4,12.2,140,10,,10.0,29.518702,999.4,,TRUE,TRUE,,,TRUE,,,,FEW,6000,,,,,,,VFR,,,,,,0.0050,,,,,,METAR,247.0
KSTP 250453Z AUTO 12014KT 10SM SCT019 OVC029 07/04 A2983 RMK AO2 SLP103 T00720039 TSNO,KSTP,2015-04-25T04:53:00Z,44.93,-93.05,7.2,3.9,120,14,,10.0,29.828741,1010.3,,TRUE,TRUE,,,TRUE,,,,SCT,1900,OVC,2900,,,,,MVFR,,,,,,,,,,,,METAR,219.0
KUNO 250453Z AUTO 14005KT 1/4SM FG VV002 12/11 A2972 RMK AO2 SLP062 T01170111 TSNO,KUNO,2015-04-25T04:53:00Z,36.88,-91.9,11.7,11.1,140,5,,0.25,29.719488,1006.2,,TRUE,TRUE,,,TRUE,,,FG,OVX,0,,,,,,,LIFR,,,,,,,,,,,200,METAR,372.0
KUUU 250453Z AUTO 30010KT 10SM CLR 03/M06 A2981 RMK AO2 SLP094 T00281056 401000022 TSNO,KUUU,2015-04-25T04:53:00Z,41.53,-71.28,2.8,-5.6,300,10,,10.0,29.811024,1009.4,,TRUE,TRUE,,,TRUE,,,,CLR,,,,,,,,VFR,,,,10.0,2.2,,,,,,,METAR,51.0
KUTS 250453Z AUTO 16003KT 9SM OVC014 24/22 A2977 RMK AO2 SLP077 T02440222 TSNO,KUTS,2015-04-25T04:53:00Z,30.75,-95.58,24.4,22.2,160,3,,9.0,29.769686,1007.7,,TRUE,TRUE,,,TRUE,,,,OVC,1400,,,,,,,MVFR,,,,,,,,,,,,METAR,104.0
KVEL 250453Z AUTO 26008G16KT 10SM SCT060 OVC080 13/M01 A2974 RMK AO2 SLP029 T01281006 TSNO,KVEL,2015-04-25T04:53:00Z,40.45,-109.52,12.8,-0.6,260,8,16,10.0,29.740158,1002.9,,TRUE,TRUE,,,TRUE,,,,SCT,6000,OVC,8000,,,,,VFR,,,,,,,,,,,,METAR,1604.0
KTMB 250453Z 09007KT 10SM FEW024 BKN048 OVC065 26/22 A2997 RMK AO2 SLP148 T02610222 403390211,KTMB,2015-04-25T04:53:00Z,25.65,-80.43,26.1,22.2,90,7,,10.0,29.970472,1014.8,,,TRUE,,,,,,,FEW,2400,BKN,4800,OVC,6500,,,VFR,,,,33.9,21.1,,,,,,,METAR,2.0
KTKI 250453Z AUTO 16010KT 10SM OVC004 18/17 A2969 RMK AO2 SLP057 T01780172 TSNO,KTKI,2015-04-25T04:53:00Z,33.18,-96.58,17.8,17.2,160,10,,10.0,29.68996,1005.7,,TRUE,TRUE,,,TRUE,,,,OVC,400,,,,,,,LIFR,,,,,,,,,,,,METAR,179.0
KTIW 250453Z AUTO 17008KT 10SM SCT090 BKN100 08/04 A2988 RMK AO2 SLP120 T00830044 TSNO,KTIW,2015-04-25T04:53:00Z,47.27,-122.58,8.3,4.4,170,8,,10.0,29.878937,1012.0,,TRUE,TRUE,,,TRUE,,,,SCT,9000,BKN,10000,,,,,VFR,,,,,,,,,,,,METAR,89.0
KTHV 250453Z AUTO 32006KT 10SM CLR 05/M08 A2996 RMK AO2 SLP150 T00501078 401331006 TSNO,KTHV,2015-04-25T04:53:00Z,39.92,-76.88,5.0,-7.8,320,6,,10.0,29.958662,1015.0,,TRUE,TRUE,,,TRUE,,,,CLR,,,,,,,,VFR,,,,13.3,-0.6,,,,,,,METAR,144.0
KTDZ 250453Z AUTO 05008KT 10SM OVC060 08/00 A2999 RMK AO2 SLP158 T00780000 401561033 TSNO,KTDZ,2015-04-25T04:53:00Z,41.57,-83.48,7.8,0.0,50,8,,10.0,29.991142,1015.8,,TRUE,TRUE,,,TRUE,,,,OVC,6000,,,,,,,VFR,,,,15.6,-3.3,,,,,,,METAR,189.0
KTCC 250453Z AUTO 26013KT 10SM CLR 14/M03 A2977 RMK AO2 SLP040 T01441033 TSNO,KTCC,2015-04-25T04:53:00Z,35.18,-103.6,14.4,-3.3,260,13,,10.0,29.769686,1004.0,,TRUE,TRUE,,,TRUE,,,,CLR,,,,,,,,VFR,,,,,,,,,,,,METAR,1235.0
KZZV 250453Z AUTO 00000KT 10SM OVC100 06/M01 A2995 RMK AO2 SLP144 T00611006 401391044 TSNO,KZZV,2015-04-25T04:53:00Z,39.95,-81.9,6.1,-0.6,0,0,,10.0,29.949802,1014.4,,TRUE,TRUE,,,TRUE,,,,OVC,10000,,,,,,,VFR,,,,13.9,-4.4,,,,,,,METAR,268.0
KYKM 250453Z 03006KT 10SM BKN090 OVC110 11/01 A2981 RMK AO2 SLP097 T01110006,KYKM,2015-04-25T04:53:00Z,46.57,-120.53,11.1,0.6,30,6,,10.0,29.811024,1009.7,,,TRUE,,,,,,,BKN,9000,OVC,11000,,,,,VFR,,,,,,,,,,,,METAR,324.0
KYIP 250453Z AUTO 11005KT 10SM -RA SCT060 OVC070 08/M01 A3002 RMK AO2 RAB28 SLP165 P0000 T00781006 401671028 TSNO,KYIP,2015-04-25T04:53:00Z,42.23,-83.53,7.8,-0.6,110,5,,10.0,30.02067,1016.5,,TRUE,TRUE,,,TRUE,,,-RA,SCT,6000,OVC,7000,,,,,VFR,,,,16.7,-2.8,0.0050,,,,,,METAR,215.0
KXNA 250453Z AUTO 17014KT 10SM CLR 16/13 A2962 RMK AO2 SLP019 T01610133 TSNO,KXNA,2015-04-25T04:53:00Z,36.28,-94.3,16.1,13.3,170,14,,10.0,29.619095,1001.9,,TRUE,TRUE,,,TRUE,,,,CLR,,,,,,,,VFR,,,,,,,,,,,,METAR,392.0
KWVI 250453Z AUTO 36003KT 10SM BKN031 BKN040 BKN120 14/08 A3006 RMK AO2 SLP179 T01390078 TSNO,KWVI,2015-04-25T04:53:00Z,36.93,-121.78,13.9,7.8,360,3,,10.0,30.059055,1017.9,,TRUE,TRUE,,,TRUE,,,,BKN,3100,BKN,4000,BKN,12000,,,VFR,,,,,,,,,,,,METAR,43.0
KWST 250453Z AUTO 31004KT 10SM CLR 03/M07 A2985 RMK AO2 SLP107 T00281067 401000028 TSNO,KWST,2015-04-25T04:53:00Z,41.35,-71.8,2.8,-6.7,310,4,,10.0,29.84941,1010.7,,TRUE,TRUE,,,TRUE,,,,CLR,,,,,,,,VFR,,,,10.0,2.8,,,,,,,METAR,21.0
KWRL 250453Z AUTO 12013KT 10SM FEW100 14/02 A2956 RMK AO2 SLP985 T01440017 TSNO $,KWRL,2015-04-25T04:53:00Z,43.97,-107.95,14.4,1.7,120,13,,10.0,29.56004,998.5,,TRUE,TRUE,TRUE,,TRUE,,,,FEW,10000,,,,,,,VFR,,,,,,,,,,,,METAR,1271.0
KVUO 250453Z AUTO 00000KT 10SM SCT040 OVC055 10/07 A2991 RMK AO2 SLP128 T01000067 TSNO,KVUO,2015-04-25T04:53:00Z,45.62,-122.65,10.0,6.7,0,0,,10.0,29.911417,1012.8,,TRUE,TRUE,,,TRUE,,,,SCT,4000,OVC,5500,,,,,VFR,,,,,,,,,,,,METAR,8.0
KVRB 250453Z 10006KT 10SM CLR 24/20 A2996 RMK AO2 SLP146 T02390200 402940211,KVRB,2015-04-25T04:53:00Z,27.65,-80.42,23.9,20.0,100,6,,10.0,29.958662,1014.6,,,TRUE,,,,,,,CLR,,,,,,,,VFR,,,,29.4,21.1,,,,,,,METAR,10.0
KVLD 250453Z AUTO 13004KT 10SM CLR 19/14 A2996 RMK AO2 SLP152 T01890139 402890161 TSNO,KVLD,2015-04-25T04:53:00Z,30.78,-83.27,18.9,13.9,130,4,,10.0,29.958662,1015.2,,TRUE,TRUE,,,TRUE,,,,CLR,,,,,,,,VFR,,,,28.9,16.1,,,,,,,METAR,62.0
KVIH 250453Z AUTO 16016KT 10SM BKN009 11/10 A2965 RMK AO2 SLP038 T01110100 TSNO,KVIH,2015-04-25T04:53:00Z,38.13,-91.77,11.1,10.0,160,16,,10.0,29.648623,1003.8,,TRUE,TRUE,,,TRUE,,,,BKN,900,,,,,,,IFR,,,,,,,,,,,,METAR,333.0
KVGT 250453Z 18011KT 10SM FEW110 19/03 A2975 RMK AO2 SLP076 T01940028,KVGT,2015-04-25T04:53:00Z,36.22,-115.2,19.4,2.8,180,11,,10.0,29.749016,1007.6,,,TRUE,,,,,,,FEW,11000,,,,,,,VFR,,,,,,,,,,,,METAR,671.0
KTOR 250453Z AUTO 29005KT 10SM CLR 08/06 A2964 RMK AO2 SLP009 T00830056 TSNO,KTOR,2015-04-25T04:53:00Z,42.07,-104.15,8.3,5.6,290,5,,10.0,29.639763,1000.9,,TRUE,TRUE,,,TRUE,,,,CLR,,,,,,,,VFR,,,,,,,,,,,,METAR,1277.0
KTPA 250453Z 12005KT 10SM FEW050 SCT230 24/19 A2998 RMK AO2 SLP150 T02440194 403170239,KTPA,2015-04-25T04:53:00Z,27.97,-82.53,24.4,19.4,120,5,,10.0,29.97933,1015.0,,,TRUE,,,,,,,FEW,5000,SCT,23000,,,,,VFR,,,,31.7,23.9,,,,,,,METAR,11.0
KTTD 250453Z 14003KT 10SM -RA FEW033 BKN045 OVC055 09/07 A2991 RMK AO2 RAB45 SLP127 P0000 T00940072,KTTD,2015-04-25T04:53:00Z,45.55,-122.42,9.4,7.2,140,3,,10.0,29.911417,1012.7,,,TRUE,,,,,,-RA,FEW,3300,BKN,4500,OVC,5500,,,VFR,,,,,,0.0050,,,,,,METAR,14.0
KTRL 250453Z AUTO 19004KT 10SM CLR 18/17 A2972 RMK AO2 SLP058 T01830172 TSNO,KTRL,2015-04-25T04:53:00Z,32.72,-96.27,18.3,17.2,190,4,,10.0,29.719488,1005.8,,TRUE,TRUE,,,TRUE,,,,CLR,,,,,,,,VFR,,,,,,,,,,,,METAR,145.0
KTTN 250453Z AUTO 00000KT 10SM CLR 03/M07 A2994 RMK AO2 SLP134 T00331067 401280028 TSNO,KTTN,2015-04-25T04:53:00Z,40.28,-74.82,3.3,-6.7,0,0,,10.0,29.940945,1013.4,,TRUE,TRUE,,,TRUE,,,,CLR,,,,,,,,VFR,,,,12.8,2.8,,,,,,,METAR,59.0
KTUL 250453Z 18013KT 10SM FEW025 SCT250 17/15 A2957 RMK AO2 SLP006 T01670150,KTUL,2015-04-25T04:53:00Z,36.2,-95.88,16.7,15.0,180,13,,10.0,29.568897,1000.6,,,TRUE,,,,,,,FEW,2500,SCT,25000,,,,,VFR,,,,,,,,,,,,METAR,207.0
KTUS 250453Z 28005KT 10SM CLR 18/02 A2997 RMK AO2 SLP118 T01830022,KTUS,2015-04-25T04:53:00Z,32.13,-110.95,18.3,2.2,280,5,,10.0,29.970472,1011.8,,,TRUE,,,,,,,CLR,,,,,,,,VFR,,,,,,,,,,,,METAR,776.0
KTVC 250453Z AUTO 03004KT 10SM OVC100 03/M03 A3001 RMK AO2 SLP168 T00331033 400721056 TSNO,KTVC,2015-04-25T04:53:00Z,44.73,-85.57,3.3,-3.3,30,4,,10.0,30.008858,1016.8,,TRUE,TRUE,,,TRUE,,,,OVC,10000,,,,,,,VFR,,,,7.2,-5.6,,,,,,,METAR,190.0
KTVL 250453Z AUTO 17011KT 10SM BKN025 OVC032 03/M02 A2993 RMK AO2 PK WND 18026/0402 SLP111 T00331017 TSNO,KTVL,2015-04-25T04:53:00Z,38.9,-120.0,3.3,-1.7,170,11,,10.0,29.929134,1011.1,,TRUE,TRUE,,,TRUE,,,,BKN,2500,OVC,3200,,,,,MVFR,,,,,,,,,,,,METAR,1924.0
KTWF 250453Z AUTO 18011KT 10SM SCT080 OVC100 07/01 A2978 RMK AO2 SLP066 T00670011 TSNO,KTWF,2015-04-25T04:53:00Z,42.48,-114.48,6.7,1.1,180,11,,10.0,29.778543,1006.6,,TRUE,TRUE,,,TRUE,,,,SCT,8000,OVC,10000,,,,,VFR,,,,,,,,,,,,METAR,1266.0
KTVR 250453Z AUTO 21005KT 10SM OVC029 23/20 A2979 RMK AO2 SLP093 T02280200 TSNO,KTVR,2015-04-25T04:53:00Z,32.35,-91.03,22.8,20.0,210,5,,10.0,29.790354,1009.3,,TRUE,TRUE,,,TRUE,,,,OVC,2900,,,,,,,MVFR,,,,,,,,,,,,METAR,26.0
KTYR 250453Z AUTO 19008KT 10SM CLR 19/18 A2974 RMK AO2 RAB00E20 SLP064 P0000 T01940178 TSNO,KTYR,2015-04-25T04:53:00Z,32.37,-95.4,19.4,17.8,190,8,,10.0,29.740158,1006.4,,TRUE,TRUE,,,TRUE,,,,CLR,,,,,,,,VFR,,,,,,0.0050,,,,,,METAR,165.0
PHLI 250453Z 18006KT 10SM SCT020 OVC060 26/21 A2997 RMK AO2 SLP145 T02560206,PHLI,2015-04-25T04:53:00Z,21.97,-159.33,25.6,20.6,180,6,,10.0,29.970472,1014.5,,,TRUE,,,,,,,SCT,2000,OVC,6000,,,,,VFR,,,,,,,,,,,,METAR,45.0
PHTO 250453Z 14007KT 10SM SCT060 24/19 A3002 RMK AO2 SLP163 T02390189,PHTO,2015-04-25T04:53:00Z,19.72,-155.05,23.9,18.9,140,7,,10.0,30.02067,1016.3,,,TRUE,,,,,,,SCT,6000,,,,,,,VFR,,,,,,,,,,,,METAR,12.0
PHNL 250453Z 18003KT 10SM FEW026 SCT041 BKN060 BKN150 24/20 A2996 RMK AO2 SLP145 T02390200,PHNL,2015-04-25T04:53:00Z,21.33,-157.92,23.9,20.0,180,3,,10.0,29.958662,1014.5,,,TRUE,,,,,,,FEW,2600,SCT,4100,BKN,6000,BKN,15000,VFR,,,,,,,,,,,,METAR,4.0
TISX 250453Z AUTO 36003KT 10SM SCT020 22/21 A2998 RMK AO2 SLP150 T02220211 TSNO $,TISX,2015-04-25T04:53:00Z,17.7,-64.8,22.2,21.1,360,3,,10.0,29.97933,1015.0,,TRUE,TRUE,TRUE,,TRUE,,,,SCT,2000,,,,,,,VFR,,,,,,,,,,,,METAR,19.0
KUAO 250453Z AUTO 22004KT 10SM BKN039 OVC050 09/06 A2993 RMK AO2 SLP136 T00890056 TSNO,KUAO,2015-04-25T04:53:00Z,45.25,-122.77,8.9,5.6,220,4,,10.0,29.929134,1013.6,,TRUE,TRUE,,,TRUE,,,,BKN,3900,OVC,5000,,,,,VFR,,,,,,,,,,,,METAR,59.0
PABR 250453Z 03010KT 10SM CLR M06/M08 A2995 RMK SLP144 T10561078 VIA AUTODIAL,PABR,2015-04-25T04:53:00Z,71.28,-156.8,-5.6,-7.8,30,10,,10.0,29.949802,1014.4,,,,,,,,,,CLR,,,,,,,,VFR,,,,,,,,,,,,SPECI,7.0
PAQT 250453Z AUTO 04006KT 10SM CLR M08/M10 A2991 RMK SLP130 T10781100 TSNO VIA AUTODIAL,PAQT,2015-04-25T04:53:00Z,70.22,-151.0,-7.8,-10.0,40,6,,10.0,29.911417,1013.0,,TRUE,,,,TRUE,,,,CLR,,,,,,,,VFR,,,,,,,,,,,,METAR,12.0
PAWI 250453Z AUTO 01013KT 10SM CLR M05/M07 A2993 RMK SLP138 T10501072 FZRANO TSNO $ VIA AUTODIAL,PAWI,2015-04-25T04:53:00Z,70.62,-159.85,-5.0,-7.2,10,13,,10.0,29.929134,1013.8,,TRUE,,TRUE,,TRUE,TRUE,,,CLR,,,,,,,,VFR,,,,,,,,,,,,SPECI,27.0
KRHI 250453Z AUTO 12007KT 10SM FEW044 OVC070 04/M02 A2996 RMK AO2 SLP156 T00391022 TSNO,KRHI,2015-04-25T04:53:00Z,45.63,-89.48,3.9,-2.2,120,7,,10.0,29.958662,1015.6,,TRUE,TRUE,,,TRUE,,,,FEW,4400,OVC,7000,,,,,VFR,,,,,,,,,,,,METAR,485.0
KOLF 250453Z AUTO 11003KT 10SM SCT120 12/06 A2959 RMK AO2 SLP022 T01220061 TSNO,KOLF,2015-04-25T04:53:00Z,48.1,-105.58,12.2,6.1,110,3,,10.0,29.589567,1002.2,,TRUE,TRUE,,,TRUE,,,,SCT,12000,,,,,,,VFR,,,,,,,,,,,,METAR,604.0
KTLH 250453Z AUTO 10003KT 10SM CLR 20/16 A2991 RMK AO2 SLP128 T02000156 403170178 TSNO,KTLH,2015-04-25T04:53:00Z,30.4,-84.35,20.0,15.6,100,3,,10.0,29.911417,1012.8,,TRUE,TRUE,,,TRUE,,,,CLR,,,,,,,,VFR,,,,31.7,17.8,,,,,,,METAR,19.0
KHUF 250453Z 17006KT 10SM OVC040 14/02 A2983 RMK AO2 SLP099 T01390022 401671017,KHUF,2015-04-25T04:53:00Z,39.45,-87.3,13.9,2.2,170,6,,10.0,29.828741,1009.9,,,TRUE,,,,,,,OVC,4000,,,,,,,VFR,,,,16.7,-1.7,,,,,,,METAR,179.0
KHTL 250453Z AUTO 13004KT 10SM OVC110 02/M07 A3001 RMK AO2 SLP172 T00171067 401001078 TSNO,KHTL,2015-04-25T04:53:00Z,44.35,-84.67,1.7,-6.7,130,4,,10.0,30.008858,1017.2,,TRUE,TRUE,,,TRUE,,,,OVC,11000,,,,,,,VFR,,,,10.0,-7.8,,,,,,,METAR,351.0
KHSV 250453Z 07006KT 10SM -RA SCT044 BKN050 OVC090 16/12 A2989 RMK AO2 SLP118 LAST P0005 T01560122,KHSV,2015-04-25T04:53:00Z,34.65,-86.78,15.6,12.2,70,6,,10.0,29.890747,1011.8,,,TRUE,,,,,,-RA,SCT,4400,BKN,5000,OVC,9000,,,VFR,,,,,,0.05,,,,,,METAR,191.0
KHRO 250453Z AUTO 16010KT 10SM -RA CLR 16/14 A2964 RMK AO2 SLP030 P0000 T01610144 TSNO,KHRO,2015-04-25T04:53:00Z,36.27,-93.15,16.1,14.4,160,10,,10.0,29.639763,1003.0,,TRUE,TRUE,,,TRUE,,,-RA,CLR,,,,,,,,VFR,,,,,,0.0050,,,,,,METAR,417.0
KHRI 250453Z AUTO 23006KT 10SM CLR 08/02 A2984 RMK AO2 SLP106 T00830017 TSNO $,KHRI,2015-04-25T04:53:00Z,45.83,-119.27,8.3,1.7,230,6,,10.0,29.840551,1010.6,,TRUE,TRUE,TRUE,,TRUE,,,,CLR,,,,,,,,VFR,,,,,,,,,,,,METAR,195.0
KHQM 250453Z AUTO 33003KT 9SM FEW024 BKN050 OVC090 08/05 A2988 RMK AO2 RAB33E51 SLP123 P0001 T00830050 TSNO,KHQM,2015-04-25T04:53:00Z,46.97,-123.93,8.3,5.0,330,3,,9.0,29.878937,1012.3,,TRUE,TRUE,,,TRUE,,,,FEW,2400,BKN,5000,OVC,9000,,,VFR,,,,,,0.01,,,,,,METAR,7.0
KHVN 250453Z AUTO 31007KT 10SM CLR 03/M06 A2988 RMK AO2 SLP118 T00331056 400830028 TSNO,KHVN,2015-04-25T04:53:00Z,41.27,-72.87,3.3,-5.6,310,7,,10.0,29.878937,1011.8,,TRUE,TRUE,,,TRUE,,,,CLR,,,,,,,,VFR,,,,8.3,2.8,,,,,,,METAR,4.0
KHLN 250453Z AUTO 28005KT 10SM OVC050 08/M01 A2973 RMK AO2 SLP083 T00831006 TSNO,KHLN,2015-04-25T04:53:00Z,46.6,-111.98,8.3,-0.6,280,5,,10.0,29.731298,1008.3,,TRUE,TRUE,,,TRUE,,,,OVC,5000,,,,,,,VFR,,,,,,,,,,,,METAR,1182.0
KHLG 250453Z AUTO 06007KT 10SM OVC095 06/M07 A2998 RMK AO2 SLP161 T00611067 401331022 TSNO,KHLG,2015-04-25T04:53:00Z,40.17,-80.65,6.1,-6.7,60,7,,10.0,29.97933,1016.1,,TRUE,TRUE,,,TRUE,,,,OVC,9500,,,,,,,VFR,,,,13.3,-2.2,,,,,,,METAR,372.0
KHVR 250453Z AUTO 17009KT 10SM OVC080 10/04 A2967 RMK AO2 SLP049 T01000044 TSNO,KHVR,2015-04-25T04:53:00Z,48.55,-109.77,10.0,4.4,170,9,,10.0,29.66929,1004.9,,TRUE,TRUE,,,TRUE,,,,OVC,8000,,,,,,,VFR,,,,,,,,,,,,METAR,787.0
KHWO 250453Z AUTO 06003KT 10SM FEW042 BKN060 26/22 A2999 RMK AO2 SLP154 T02560217 403280228 TSNO,KHWO,2015-04-25T04:53:00Z,26.0,-80.23,25.6,21.7,60,3,,10.0,29.991142,1015.4,,TRUE,TRUE,,,TRUE,,,,FEW,4200,BKN,6000,,,,,VFR,,,,32.8,22.8,,,,,,,METAR,2.0
KMHT 250453Z 31008KT 10SM CLR 03/M07 A2976 RMK AO2 SLP092 T00331067 400830017,KMHT,2015-04-25T04:53:00Z,42.93,-71.43,3.3,-6.7,310,8,,10.0,29.760826,1009.2,,,TRUE,,,,,,,CLR,,,,,,,,VFR,,,,8.3,1.7,,,,,,,METAR,81.0
KMHE 250453Z AUTO 11018KT 10SM OVC100 16/09 A2948 RMK AO2 RAE44 SLP980 P0002 T01560094 TSNO,KMHE,2015-04-25T04:53:00Z,43.77,-98.02,15.6,9.4,110,18,,10.0,29.480314,998.0,,TRUE,TRUE,,,TRUE,,,,OVC,10000,,,,,,,VFR,,,,,,0.02,,,,,,METAR,397.0
KMGY 250453Z AUTO 08004KT 10SM OVC070 11/02 A2990 RMK AO2 SLP126 T01060017 401501011 TSNO,KMGY,2015-04-25T04:53:00Z,39.6,-84.23,10.6,1.7,80,4,,10.0,29.899607,1012.6,,TRUE,TRUE,,,TRUE,,,,OVC,7000,,,,,,,VFR,,,,15.0,-1.1,,,,,,,METAR,289.0
KMGW 250453Z AUTO 02003KT 10SM CLR 06/M06 A2998 RMK AO2 SLP157 T00561056 401390017 TSNO,KMGW,2015-04-25T04:53:00Z,39.65,-79.92,5.6,-5.6,20,3,,10.0,29.97933,1015.7,,TRUE,TRUE,,,TRUE,,,,CLR,,,,,,,,VFR,,,,13.9,1.7,,,,,,,METAR,378.0
KMFR 250453Z AUTO 02005KT 10SM FEW045 OVC060 08/06 A2993 RMK AO2 SLP135 T00830056 TSNO,KMFR,2015-04-25T04:53:00Z,42.38,-122.87,8.3,5.6,20,5,,10.0,29.929134,1013.5,,TRUE,TRUE,,,TRUE,,,,FEW,4500,OVC,6000,,,,,VFR,,,,,,,,,,,,METAR,396.0
KMDW 250453Z 06014KT 10SM SCT060 OVC090 06/04 A2990 RMK AO2 RAE21 SLP126 P0001 T00610039,KMDW,2015-04-25T04:53:00Z,41.78,-87.75,6.1,3.9,60,14,,10.0,29.899607,1012.6,,,TRUE,,,,,,,SCT,6000,OVC,9000,,,,,VFR,,,,,,0.01,,,,,,METAR,188.0
KMCW 250453Z AUTO 11016KT 10SM OVC034 07/04 A2973 RMK AO2 SLP068 T00670044 TSNO,KMCW,2015-04-25T04:53:00Z,43.15,-93.33,6.7,4.4,110,16,,10.0,29.731298,1006.8,,TRUE,TRUE,,,TRUE,,,,OVC,3400,,,,,,,VFR,,,,,,,,,,,,METAR,369.0
KICR 250453Z AUTO 28017KT 10SM -RA SCT090 BKN110 15/08 A2952 RMK AO2 PK WND 27026/0416 RAB48 SLP984 P0000 T01500083 TSNO,KICR,2015-04-25T04:53:00Z,43.38,-99.85,15.0,8.3,280,17,,10.0,29.518702,998.4,,TRUE,TRUE,,,TRUE,,,-RA,SCT,9000,BKN,11000,,,,,VFR,,,,,,0.0050,,,,,,METAR,621.0
KIAH 250453Z 23007KT 7SM BKN016 OVC250 26/23 A2980 RMK AO2 SLP092 T02610233,KIAH,2015-04-25T04:53:00Z,30.0,-95.37,26.1,23.3,230,7,,7.0,29.799213,1009.2,,,TRUE,,,,,,,BKN,1600,OVC,25000,,,,,MVFR,,,,,,,,,,,,METAR,36.0
KIAG 250453Z AUTO 32003KT 10SM CLR M01/M06 A3000 RMK AO2 SLP173 T10061056 400671017 TSNO,KIAG,2015-04-25T04:53:00Z,43.12,-78.93,-0.6,-5.6,320,3,,10.0,30.0,1017.3,,TRUE,TRUE,,,TRUE,,,,CLR,,,,,,,,VFR,,,,6.7,-1.7,,,,,,,METAR,182.0
KHZY 250453Z AUTO 12003KT 10SM FEW120 00/M04 A3000 RMK AO2 SLP167 T00001039 400721033 TSNO,KHZY,2015-04-25T04:53:00Z,41.78,-80.7,0.0,-3.9,120,3,,10.0,30.0,1016.7,,TRUE,TRUE,,,TRUE,,,,FEW,12000,,,,,,,VFR,,,,7.2,-3.3,,,,,,,METAR,276.0
KHYR 250453Z AUTO 08006KT 10SM OVC065 06/M01 A2989 RMK AO2 SLP133 T00561006 TSNO,KHYR,2015-04-25T04:53:00Z,46.02,-91.45,5.6,-0.6,80,6,,10.0,29.890747,1013.3,,TRUE,TRUE,,,TRUE,,,,OVC,6500,,,,,,,VFR,,,,,,,,,,,,METAR,370.0
KMIA 250453Z 10008KT 10SM FEW022 SCT060 SCT140 BKN250 26/22 A2997 RMK AO2 SLP150 T02610217 403330239,KMIA,2015-04-25T04:53:00Z,25.8,-80.28,26.1,21.7,100,8,,10.0,29.970472,1015.0,,,TRUE,,,,,,,FEW,2200,SCT,6000,SCT,14000,BKN,25000,VFR,,,,33.3,23.9,,,,,,,METAR,3.0
KMIC 250453Z 12011G19KT 10SM OVC018 08/04 A2980 RMK AO2 SLP094 T00780039,KMIC,2015-04-25T04:53:00Z,45.07,-93.35,7.8,3.9,120,11,19,10.0,29.799213,1009.4,,,TRUE,,,,,,,OVC,1800,,,,,,,MVFR,,,,,,,,,,,,METAR,265.0
KMIE 250453Z AUTO 11005KT 10SM OVC070 11/01 A2989 RMK AO2 RAB05E14B41E50 SLP119 P0000 T01110011 401611017 TSNO,KMIE,2015-04-25T04:53:00Z,40.23,-85.4,11.1,1.1,110,5,,10.0,29.890747,1011.9,,TRUE,TRUE,,,TRUE,,,,OVC,7000,,,,,,,VFR,,,,16.1,-1.7,0.0050,,,,,,METAR,285.0
KMLB 250453Z AUTO 09007KT 10SM CLR 24/20 A2997 RMK AO2 SLP149 T02440200 402940217 TSNO,KMLB,2015-04-25T04:53:00Z,28.1,-80.65,24.4,20.0,90,7,,10.0,29.970472,1014.9,,TRUE,TRUE,,,TRUE,,,,CLR,,,,,,,,VFR,,,,29.4,21.7,,,,,,,METAR,11.0
KMKO 250453Z AUTO 16012KT 10SM CLR 16/15 A2962 RMK AO2 SLP027 T01610150 TSNO,KMKO,2015-04-25T04:53:00Z,35.65,-95.37,16.1,15.0,160,12,,10.0,29.619095,1002.7,,TRUE,TRUE,,,TRUE,,,,CLR,,,,,,,,VFR,,,,,,,,,,,,METAR,185.0
KMKL 250453Z AUTO 16010G14KT 10SM -RA FEW075 OVC110 13/12 A2981 RMK AO2 PRESFR SLP093 P0003 T01330117 TSNO,KMKL,2015-04-25T04:53:00Z,35.6,-88.92,13.3,11.7,160,10,14,10.0,29.811024,1009.3,,TRUE,TRUE,,,TRUE,,,-RA,FEW,7500,OVC,11000,,,,,VFR,,,,,,0.03,,,,,,METAR,128.0
KMIW 250453Z AUTO 10015KT 10SM OVC041 08/06 A2969 RMK AO2 SLP055 T00830056 TSNO,KMIW,2015-04-25T04:53:00Z,42.12,-92.92,8.3,5.6,100,15,,10.0,29.68996,1005.5,,TRUE,TRUE,,,TRUE,,,,OVC,4100,,,,,,,VFR,,,,,,,,,,,,METAR,296.0
KMLP 250453Z AUTO VRB03KT 10SM CLR M02/M07 A2977 RMK AO2 SLP106 T10171067 TSNO,KMLP,2015-04-25T04:53:00Z,47.45,-115.67,-1.7,-6.7,0,3,,10.0,29.769686,1010.6,,TRUE,TRUE,,,TRUE,,,,CLR,,,,,,,,VFR,,,,,,,,,,,,METAR,1837.0
KMLS 250453Z AUTO 03007KT 10SM CLR 09/07 A2958 RMK AO2 SLP010 T00940072 TSNO,KMLS,2015-04-25T04:53:00Z,46.43,-105.88,9.4,7.2,30,7,,10.0,29.58071,1001.0,,TRUE,TRUE,,,TRUE,,,,CLR,,,,,,,,VFR,,,,,,,,,,,,METAR,801.0
KMLT 250453Z AUTO 28009G14KT 10SM OVC060 02/M02 A2961 RMK AO2 SLP033 T00171017 400720011 TSNO,KMLT,2015-04-25T04:53:00Z,45.65,-68.7,1.7,-1.7,280,9,14,10.0,29.610237,1003.3,,TRUE,TRUE,,,TRUE,,,,OVC,6000,,,,,,,VFR,,,,7.2,1.1,,,,,,,METAR,123.0
KMMK 250453Z AUTO 28003KT 10SM CLR 01/M06 A2987 RMK AO2 SLP118 T00061056 400830006 TSNO,KMMK,2015-04-25T04:53:00Z,41.52,-72.83,0.6,-5.6,280,3,,10.0,29.870079,1011.8,,TRUE,TRUE,,,TRUE,,,,CLR,,,,,,,,VFR,,,,8.3,0.6,,,,,,,METAR,31.0
KMMV 250453Z AUTO 22005KT 10SM FEW070 SCT085 08/06 A2993 RMK AO2 RAB0357E28 SLP134 P0000 T00830061 TSNO,KMMV,2015-04-25T04:53:00Z,45.2,-123.13,8.3,6.1,220,5,,10.0,29.929134,1013.4,,TRUE,TRUE,,,TRUE,,,,FEW,7000,SCT,8500,,,,,VFR,,,,,,0.0050,,,,,,METAR,48.0
KMNN 250453Z AUTO 09006KT 10SM OVC080 08/01 A2994 RMK AO2 SLP143 T00830011 401441039 TSNO,KMNN,2015-04-25T04:53:00Z,40.62,-83.07,8.3,1.1,90,6,,10.0,29.940945,1014.3,,TRUE,TRUE,,,TRUE,,,,OVC,8000,,,,,,,VFR,,,,14.4,-3.9,,,,,,,METAR,301.0
KMOD 250453Z AUTO 01005KT 10SM OVC070 16/04 A2999 RMK AO2 SLP156 T01610044 TSNO,KMOD,2015-04-25T04:53:00Z,37.62,-120.95,16.1,4.4,10,5,,10.0,29.991142,1015.6,,TRUE,TRUE,,,TRUE,,,,OVC,7000,,,,,,,VFR,,,,,,,,,,,,METAR,29.0
KMPO 250453Z AUTO 29006KT 10SM CLR M01/M07 A2987 RMK AO2 SLP131 T10061067 400671017 TSNO,KMPO,2015-04-25T04:53:00Z,41.13,-75.38,-0.6,-6.7,290,6,,10.0,29.870079,1013.1,,TRUE,TRUE,,,TRUE,,,,CLR,,,,,,,,VFR,,,,6.7,-1.7,,,,,,,METAR,577.0
KMRB 250453Z AUTO 34008KT 10SM CLR 08/M08 A2998 RMK AO2 SLP153 T00831078 401500033 TSNO,KMRB,2015-04-25T04:53:00Z,39.4,-77.98,8.3,-7.8,340,8,,10.0,29.97933,1015.3,,TRUE,TRUE,,,TRUE,,,,CLR,,,,,,,,VFR,,,,15.0,3.3,,,,,,,METAR,164.0
KMSL 250453Z AUTO 09005KT 4SM +RA BR BKN038 OVC055 14/12 A2990 RMK AO2 SLP120 P0010 T01390117 TSNO,KMSL,2015-04-25T04:53:00Z,34.75,-87.6,13.9,11.7,90,5,,4.0,29.899607,1012.0,,TRUE,TRUE,,,TRUE,,,+RA BR,BKN,3800,OVC,5500,,,,,MVFR,,,,,,0.1,,,,,,METAR,164.0
KICT 250453Z 18016KT 10SM TS BKN020CB 18/15 A2946 RMK AO2 PK WND 18027/0428 TSB52 SLP968 LGTIC VC W-N TS VC W-N MOVG NE T01780150,KICT,2015-04-25T04:53:00Z,37.65,-97.43,17.8,15.0,180,16,,10.0,29.459646,996.8,,,TRUE,,,,,,TS,BKN,2000,,,,,,,MVFR,,,,,,,,,,,,METAR,407.0
KIDA 250453Z AUTO 21016KT 10SM BKN050 BKN080 08/02 A2972 RMK AO2 SLP046 T00780022 TSNO,KIDA,2015-04-25T04:53:00Z,43.52,-112.07,7.8,2.2,210,16,,10.0,29.719488,1004.6,,TRUE,TRUE,,,TRUE,,,,BKN,5000,BKN,8000,,,,,VFR,,,,,,,,,,,,METAR,1453.0
KILM 250453Z 22005KT 10SM CLR 14/08 A2998 RMK AO2 SLP152 T01440083 402170089,KILM,2015-04-25T04:53:00Z,34.27,-77.9,14.4,8.3,220,5,,10.0,29.97933,1015.2,,,TRUE,,,,,,,CLR,,,,,,,,VFR,,,,21.7,8.9,,,,,,,METAR,9.0
KIML 250453Z AUTO 04005KT 10SM CLR 11/06 A2956 RMK AO2 SLP000 T01110056 TSNO $,KIML,2015-04-25T04:53:00Z,40.52,-101.62,11.1,5.6,40,5,,10.0,29.56004,1000.0,,TRUE,TRUE,TRUE,,TRUE,,,,CLR,,,,,,,,VFR,,,,,,,,,,,,METAR,998.0
KINK 250453Z AUTO 27009KT 10SM CLR 17/M07 A2985 RMK AO2 SLP071 T01721067 TSNO,KINK,2015-04-25T04:53:00Z,31.78,-103.2,17.2,-6.7,270,9,,10.0,29.84941,1007.1,,TRUE,TRUE,,,TRUE,,,,CLR,,,,,,,,VFR,,,,,,,,,,,,METAR,855.0
KGIF 250453Z AUTO 09004KT 10SM CLR 22/19 A2999 RMK AO2 SLP154 T02220189 403220222 TSNO,KGIF,2015-04-25T04:53:00Z,28.07,-81.75,22.2,18.9,90,4,,10.0,29.991142,1015.4,,TRUE,TRUE,,,TRUE,,,,CLR,,,,,,,,VFR,,,,32.2,22.2,,,,,,,METAR,43.0
MUHG 250453Z 03002KT 8000 FEW020 24/20 Q1015,MUHG,2015-04-25T04:53:00Z,20.77,-76.32,24.0,20.0,30,2,,4.97,29.970472,,,,,,,,,,,FEW,2000,,,,,,,MVFR,,,,,,,,,,,,METAR,106.0
KRYT 250453Z AUTO 00000KT 10SM CLR 07/M09 A2994 RMK AO2 SLP145 T00721094 401330017 $,KRYT,2015-04-25T04:53:00Z,39.73,-77.43,7.2,-9.4,0,0,,10.0,29.940945,1014.5,,TRUE,TRUE,TRUE,,,,,,CLR,,,,,,,,VFR,,,,13.3,1.7,,,,,,,METAR,274.0
KDLS 250453Z AUTO 32007KT 10SM BKN110 09/04 A2989 RMK AO2 SLP122 T00890044 TSNO,KDLS,2015-04-25T04:53:00Z,45.62,-121.17,8.9,4.4,320,7,,10.0,29.890747,1012.2,,TRUE,TRUE,,,TRUE,,,,BKN,11000,,,,,,,VFR,,,,,,,,,,,,METAR,71.0
KISN 250452Z AUTO 12008KT 10SM OVC100 14/02 A2965 RMK AO2 SLP042 T01390017,KISN,2015-04-25T04:52:00Z,48.17,-103.63,13.9,1.7,120,8,,10.0,29.648623,1004.2,,TRUE,TRUE,,,,,,,OVC,10000,,,,,,,VFR,,,,,,,,,,,,METAR,579.0
KORE 250452Z AUTO 29013G18KT 10SM SCT055 02/M07 A2980 RMK AO2 SLP096 T00171067 400670011,KORE,2015-04-25T04:52:00Z,42.57,-72.28,1.7,-6.7,290,13,18,10.0,29.799213,1009.6,,TRUE,TRUE,,,,,,,SCT,5500,,,,,,,VFR,,,,6.7,1.1,,,,,,,METAR,164.0
KMHK 250452Z AUTO 23006KT 10SM -RA FEW060 BKN080 BKN100 13/13 A2947 RMK AO2 RAE18B51 SLP976 P0004 T01330133 TSNO,KMHK,2015-04-25T04:52:00Z,39.13,-96.68,13.3,13.3,230,6,,10.0,29.471457,997.6,,TRUE,TRUE,,,TRUE,,,-RA,FEW,6000,BKN,8000,BKN,10000,,,VFR,,,,,,0.04,,,,,,METAR,317.0
KABQ 250452Z 27008KT 10SM SCT120 12/01 A2996 RMK AO2 SLP104 T01170006,KABQ,2015-04-25T04:52:00Z,35.05,-106.62,11.7,0.6,270,8,,10.0,29.958662,1010.4,,,TRUE,,,,,,,SCT,12000,,,,,,,VFR,,,,,,,,,,,,METAR,1618.0
KCFV 250452Z AUTO 18014G22KT 10SM CLR 17/14 A2954 RMK AO2 SLP000 T01670144,KCFV,2015-04-25T04:52:00Z,37.08,-95.57,16.7,14.4,180,14,22,10.0,29.53937,1000.0,,TRUE,TRUE,,,,,,,CLR,,,,,,,,VFR,,,,,,,,,,,,METAR,225.0
KNRB 250452Z AUTO 17004KT 10SM CLR 19/18 A2998 RMK AO2 SLP152 T01940178 402330189 $,KNRB,2015-04-25T04:52:00Z,30.38,-81.42,19.4,17.8,170,4,,10.0,29.97933,1015.2,,TRUE,TRUE,TRUE,,,,,,CLR,,,,,,,,VFR,,,,23.3,18.9,,,,,,,METAR,5.0
KN60 250452Z AUTO 11012KT 08/04 A2970 RMK AO1 SLP064 T00830044,KN60,2015-04-25T04:52:00Z,47.65,-101.43,8.3,4.4,110,12,,,29.698818,1006.4,,TRUE,TRUE,,,,,,,,,,,,,,,,,,,,,,,,,,,METAR,582.0
KCVG 250452Z 11006KT 10SM OVC065 13/00 A2988 RMK AO2 SLP114 T01280000 401610000,KCVG,2015-04-25T04:52:00Z,39.05,-84.67,12.8,0.0,110,6,,10.0,29.878937,1011.4,,,TRUE,,,,,,,OVC,6500,,,,,,,VFR,,,,16.1,,,,,,,,METAR,269.0
KCQX 250452Z AUTO 32005KT 10SM FEW035 SCT043 OVC055 05/M03 A2977 RMK AO2 SLP084 T00501028 401060028,KCQX,2015-04-25T04:52:00Z,41.68,-70.0,5.0,-2.8,320,5,,10.0,29.769686,1008.4,,TRUE,TRUE,,,,,,,FEW,3500,SCT,4300,OVC,5500,,,VFR,,,,10.6,2.8,,,,,,,METAR,19.0
KCNU 250452Z AUTO 17011KT 10SM CLR 16/15 A2952 RMK AO2 SLP991 T01610150,KCNU,2015-04-25T04:52:00Z,37.67,-95.48,16.1,15.0,170,11,,10.0,29.518702,999.1,,TRUE,TRUE,,,,,,,CLR,,,,,,,,VFR,,,,,,,,,,,,METAR,297.0
KCLT 250452Z 00000KT 10SM BKN200 BKN250 13/04 A2995 RMK AO2 SLP140 T01330039 402110033,KCLT,2015-04-25T04:52:00Z,35.22,-80.95,13.3,3.9,0,0,,10.0,29.949802,1014.0,,,TRUE,,,,,,,BKN,20000,BKN,25000,,,,,VFR,,,,21.1,3.3,,,,,,,METAR,220.0
KCKV 250452Z AUTO 17009KT 10SM BKN032 BKN110 13/09 A2981 RMK AO2 PRESFR SLP091 T01330094 $,KCKV,2015-04-25T04:52:00Z,36.62,-87.42,13.3,9.4,170,9,,10.0,29.811024,1009.1,,TRUE,TRUE,TRUE,,,,,,BKN,3200,BKN,11000,,,,,VFR,,,,,,,,,,,,METAR,165.0
KCID 250452Z AUTO 08011KT 6SM HZ SCT047 07/ A2973 RMK AO2 RAE12 SLP069 P0001 T0067 $,KCID,2015-04-25T04:52:00Z,41.88,-91.72,6.7,,80,11,,6.0,29.731298,1006.9,,TRUE,TRUE,TRUE,,,,,HZ,SCT,4700,,,,,,,VFR,,,,,,0.01,,,,,,METAR,264.0
KBLH 250452Z AUTO 16012KT 8SM CLR 19/11 A2984 RMK AO2 SLP099 T01890106,KBLH,2015-04-25T04:52:00Z,33.62,-114.72,18.9,10.6,160,12,,8.0,29.840551,1009.9,,TRUE,TRUE,,,,,,,CLR,,,,,,,,VFR,,,,,,,,,,,,METAR,119.0
KBLF 250452Z AUTO 00000KT 10SM CLR 11/M11 A2994 RMK AO2 SLP125 T01061111 401610017,KBLF,2015-04-25T04:52:00Z,37.3,-81.2,10.6,-11.1,0,0,,10.0,29.940945,1012.5,,TRUE,TRUE,,,,,,,CLR,,,,,,,,VFR,,,,16.1,1.7,,,,,,,METAR,873.0
KBIS 250452Z 07010KT 10SM CLR 08/06 A2971 RMK AO2 SLP065 T00830056,KBIS,2015-04-25T04:52:00Z,46.77,-100.75,8.3,5.6,70,10,,10.0,29.71063,1006.5,,,TRUE,,,,,,,CLR,,,,,,,,VFR,,,,,,,,,,,,METAR,505.0
KBDR 250452Z AUTO 27005KT 10SM CLR 02/M06 A2990 RMK AO2 SLP124 T00221056 400890022,KBDR,2015-04-25T04:52:00Z,41.17,-73.13,2.2,-5.6,270,5,,10.0,29.899607,1012.4,,TRUE,TRUE,,,,,,,CLR,,,,,,,,VFR,,,,8.9,2.2,,,,,,,METAR,7.0
KATL 250452Z 18005KT 10SM OVC100 19/09 A2993 RMK AO2 RAB02E16 SLP129 P0000 T01940094 402440089,KATL,2015-04-25T04:52:00Z,33.63,-84.45,19.4,9.4,180,5,,10.0,29.929134,1012.9,,,TRUE,,,,,,,OVC,10000,,,,,,,VFR,,,,24.4,8.9,0.0050,,,,,,METAR,296.0
KARR 250452Z AUTO 07014G21KT 5SM -RA FEW070 OVC085 06/03 A2987 RMK AO2 SLP116 P0010 T00560028,KARR,2015-04-25T04:52:00Z,41.77,-88.48,5.6,2.8,70,14,21,5.0,29.870079,1011.6,,TRUE,TRUE,,,,,,-RA,FEW,7000,OVC,8500,,,,,MVFR,,,,,,0.1,,,,,,METAR,215.0
KAQW 250452Z AUTO 27011KT 10SM BKN050 OVC075 01/M06 A2984 RMK AO2 SLP112 T00111061 400440006,KAQW,2015-04-25T04:52:00Z,42.7,-73.17,1.1,-6.1,270,11,,10.0,29.840551,1011.2,,TRUE,TRUE,,,,,,,BKN,5000,OVC,7500,,,,,VFR,,,,4.4,0.6,,,,,,,METAR,199.0
KALS 250452Z AUTO 23006KT 10SM CLR 00/M08 A2991 RMK AO2 SLP091 T00001078,KALS,2015-04-25T04:52:00Z,37.43,-105.87,0.0,-7.8,230,6,,10.0,29.911417,1009.1,,TRUE,TRUE,,,,,,,CLR,,,,,,,,VFR,,,,,,,,,,,,METAR,2299.0
KAFN 250452Z AUTO VRB03KT 10SM SCT042 01/M07 A2976 RMK AO2 SLP092 T00111067 400500000,KAFN,2015-04-25T04:52:00Z,42.8,-72.0,1.1,-6.7,0,3,,10.0,29.760826,1009.2,,TRUE,TRUE,,,,,,,SCT,4200,,,,,,,VFR,,,,5.0,,,,,,,,METAR,313.0
KABI 250452Z 21006KT 10SM CLR 17/14 A2976 RMK AO2 SLP059 T01720139,KABI,2015-04-25T04:52:00Z,32.42,-99.68,17.2,13.9,210,6,,10.0,29.760826,1005.9,,,TRUE,,,,,,,CLR,,,,,,,,VFR,,,,,,,,,,,,METAR,548.0
KRAP 250452Z AUTO 31007KT 10SM CLR 08/06 A2962 RMK AO2 SLP023 T00780056,KRAP,2015-04-25T04:52:00Z,44.05,-103.05,7.8,5.6,310,7,,10.0,29.619095,1002.3,,TRUE,TRUE,,,,,,,CLR,,,,,,,,VFR,,,,,,,,,,,,METAR,965.0
KPYM 250452Z AUTO 28007KT 10SM BKN050 03/M04 A2979 RMK AO2 SLP087 T00331044 401060006,KPYM,2015-04-25T04:52:00Z,41.92,-70.73,3.3,-4.4,280,7,,10.0,29.790354,1008.7,,TRUE,TRUE,,,,,,,BKN,5000,,,,,,,VFR,,,,10.6,0.6,,,,,,,METAR,43.0
KPWK 250452Z AUTO 06009G15KT 10SM OVC055 05/02 A2994 RMK AO2 SLP141 T00500017,KPWK,2015-04-25T04:52:00Z,42.12,-87.9,5.0,1.7,60,9,15,10.0,29.940945,1014.1,,TRUE,TRUE,,,,,,,OVC,5500,,,,,,,VFR,,,,,,,,,,,,METAR,203.0
KPPF 250452Z AUTO 18008KT 10SM CLR 17/15 A2955 RMK AO2 SLP001 T01670150,KPPF,2015-04-25T04:52:00Z,37.33,-95.5,16.7,15.0,180,8,,10.0,29.551182,1000.1,,TRUE,TRUE,,,,,,,CLR,,,,,,,,VFR,,,,,,,,,,,,METAR,274.0
KOMA 250452Z 08012KT 10SM BKN011 OVC015 14/12 A2955 RMK AO2 SLP004 T01440117,KOMA,2015-04-25T04:52:00Z,41.32,-95.9,14.4,11.7,80,12,,10.0,29.551182,1000.4,,,TRUE,,,,,,,BKN,1100,OVC,1500,,,,,MVFR,,,,,,,,,,,,METAR,312.0
KOKC 250452Z 19011KT 10SM BKN007 OVC011 17/15 A2960 RMK AO2 SLP013 SCT V BKN T01720150 $,KOKC,2015-04-25T04:52:00Z,35.38,-97.6,17.2,15.0,190,11,,10.0,29.601377,1001.3,,,TRUE,TRUE,,,,,,BKN,700,OVC,1100,,,,,IFR,,,,,,,,,,,,METAR,390.0
KOKB 250452Z AUTO 21004KT 10SM OVC037 16/11 A3001 RMK AO2 SLP163 T01610106,KOKB,2015-04-25T04:52:00Z,33.22,-117.35,16.1,10.6,210,4,,10.0,30.008858,1016.3,,TRUE,TRUE,,,,,,,OVC,3700,,,,,,,VFR,,,,,,,,,,,,METAR,8.0
KMWH 250452Z AUTO 33005KT 10SM CLR 07/M02 A2980 RMK AO2 SLP095 T00721022,KMWH,2015-04-25T04:52:00Z,47.2,-119.32,7.2,-2.2,330,5,,10.0,29.799213,1009.5,,TRUE,TRUE,,,,,,,CLR,,,,,,,,VFR,,,,,,,,,,,,METAR,362.0
KMLI 250452Z AUTO 08013KT 10SM OVC050 08/04 A2978 RMK AO2 SLP085 T00830039,KMLI,2015-04-25T04:52:00Z,41.45,-90.52,8.3,3.9,80,13,,10.0,29.778543,1008.5,,TRUE,TRUE,,,,,,,OVC,5000,,,,,,,VFR,,,,,,,,,,,,METAR,184.0
KMLF 250452Z AUTO 18012G19KT 10SM BKN060 OVC080 09/M01 A2984 RMK AO2 RAB38E47 SLP067 P0000 T00891011 TSNO,KMLF,2015-04-25T04:52:00Z,38.42,-113.02,8.9,-1.1,180,12,19,10.0,29.840551,1006.7,,TRUE,TRUE,,,TRUE,,,,BKN,6000,OVC,8000,,,,,VFR,,,,,,0.0050,,,,,,METAR,1534.0
KMKE 250452Z 06005KT 10SM OVC055 04/01 A2998 RMK AO2 SLP157 T00390006,KMKE,2015-04-25T04:52:00Z,42.95,-87.9,3.9,0.6,60,5,,10.0,29.97933,1015.7,,,TRUE,,,,,,,OVC,5500,,,,,,,VFR,,,,,,,,,,,,METAR,206.0
KMFD 250452Z 12005KT 10SM BKN060 OVC085 08/M03 A2997 RMK AO2 SLP151 T00781028 401391039,KMFD,2015-04-25T04:52:00Z,40.82,-82.52,7.8,-2.8,120,5,,10.0,29.970472,1015.1,,,TRUE,,,,,,,BKN,6000,OVC,8500,,,,,VFR,,,,13.9,-3.9,,,,,,,METAR,395.0
KMEB 250452Z AUTO 00000KT 10SM CLR 12/06 A2997 RMK AO2 SLP147 T01170061 402220044,KMEB,2015-04-25T04:52:00Z,34.78,-79.37,11.7,6.1,0,0,,10.0,29.970472,1014.7,,TRUE,TRUE,,,,,,,CLR,,,,,,,,VFR,,,,22.2,4.4,,,,,,,METAR,67.0
KMBG 250452Z AUTO 07019KT 10SM CLR 09/06 A2961 RMK AO2 PK WND 06026/0407 SLP030 T00940061,KMBG,2015-04-25T04:52:00Z,45.55,-100.42,9.4,6.1,70,19,,10.0,29.610237,1003.0,,TRUE,TRUE,,,,,,,CLR,,,,,,,,VFR,,,,,,,,,,,,METAR,510.0
KIOW 250452Z AUTO 11012G21KT 10SM SCT045 BKN090 09/06 A2972 RMK AO2 SLP065 T00890056,KIOW,2015-04-25T04:52:00Z,41.63,-91.55,8.9,5.6,110,12,21,10.0,29.719488,1006.5,,TRUE,TRUE,,,,,,,SCT,4500,BKN,9000,,,,,VFR,,,,,,,,,,,,METAR,198.0
KIJD 250452Z AUTO 31005KT 10SM CLR 02/M06 A2984 RMK AO2 SLP106 T00221061 400780022,KIJD,2015-04-25T04:52:00Z,41.75,-72.18,2.2,-6.1,310,5,,10.0,29.840551,1010.6,,TRUE,TRUE,,,,,,,CLR,,,,,,,,VFR,,,,7.8,2.2,,,,,,,METAR,75.0
KIEN 250452Z AUTO 00000KT 10SM FEW110 08/07 A2962 RMK AO2 SLP017 T00830067,KIEN,2015-04-25T04:52:00Z,43.03,-102.52,8.3,6.7,0,0,,10.0,29.619095,1001.7,,TRUE,TRUE,,,,,,,FEW,11000,,,,,,,VFR,,,,,,,,,,,,METAR,998.0
KIAD 250452Z 29003KT 10SM FEW250 04/M02 A2996 RMK AO2 SLP147 T00441017 401560033,KIAD,2015-04-25T04:52:00Z,38.93,-77.45,4.4,-1.7,290,3,,10.0,29.958662,1014.7,,,TRUE,,,,,,,FEW,25000,,,,,,,VFR,,,,15.6,3.3,,,,,,,METAR,93.0
KHUT 250452Z AUTO 03007KT 10SM FEW009 SCT036 BKN043 14/12 A2948 RMK AO2 RAE06B13E44 TSE02B14E51 SLP968 P0068 T01440122,KHUT,2015-04-25T04:52:00Z,38.07,-97.87,14.4,12.2,30,7,,10.0,29.480314,996.8,,TRUE,TRUE,,,,,,,FEW,900,SCT,3600,BKN,4300,,,VFR,,,,,,0.68,,,,,,METAR,467.0
KP69 250452Z AUTO 34004KT 06/04 A2986 RMK AO1 SLP117 T00560039,KP69,2015-04-25T04:52:00Z,46.15,-115.6,5.6,3.9,340,4,,,29.861221,1011.7,,TRUE,TRUE,,,,,,,,,,,,,,,,,,,,,,,,,,,METAR,480.0
KREO 250452Z AUTO 21005KT 06/M01 A2982 RMK AO1 SLP097 T00611006,KREO,2015-04-25T04:52:00Z,42.58,-117.87,6.1,-0.6,210,5,,,29.819881,1009.7,,TRUE,TRUE,,,,,,,,,,,,,,,,,,,,,,,,,,,METAR,1235.0
KCDJ 250452Z AUTO 13008KT 15/11 A2960 RMK AO1 SLP020 T01500106,KCDJ,2015-04-25T04:52:00Z,39.82,-93.58,15.0,10.6,130,8,,,29.601377,1002.0,,TRUE,TRUE,,,,,,,,,,,,,,,,,,,,,,,,,,,METAR,234.0
KBAN 250452Z AUTO 19014G22KT 10SM OVC036 04/M04 A2993 RMK AO2 SLP105 T00441044 $,KBAN,2015-04-25T04:52:00Z,38.35,-119.52,4.4,-4.4,190,14,22,10.0,29.929134,1010.5,,TRUE,TRUE,TRUE,,,,,,OVC,3600,,,,,,,VFR,,,,,,,,,,,,METAR,2057.0
KCZZ 250452Z AUTO 24011KT 09/08 A2999 RMK AO1 SLP140 T00940083,KCZZ,2015-04-25T04:52:00Z,32.63,-116.47,9.4,8.3,240,11,,,29.991142,1014.0,,TRUE,TRUE,,,,,,,,,,,,,,,,,,,,,,,,,,,METAR,807.0
KNHK 250452Z AUTO 30005KT 10SM CLR 04/M01 A2995 RMK AO2 SLP142 T00391006 401560028,KNHK,2015-04-25T04:52:00Z,38.27,-76.4,3.9,-0.6,300,5,,10.0,29.949802,1014.2,,TRUE,TRUE,,,,,,,CLR,,,,,,,,VFR,,,,15.6,2.8,,,,,,,METAR,12.0
PATA 250452Z 10006KT 10SM FEW180 07/M04 A2971 RMK AO2 SLP063 T00721044 PNO,PATA,2015-04-25T04:52:00Z,65.17,-152.1,7.2,-4.4,100,6,,10.0,29.71063,1006.3,,,TRUE,,,,,,,FEW,18000,,,,,,,VFR,,,,,,,,,,,,METAR,67.0
KVTN 250452Z AUTO 34019G26KT 10SM OVC095 13/08 A2952 RMK AO2 PK WND 34030/0421 SLP986 T01330078,KVTN,2015-04-25T04:52:00Z,42.87,-100.55,13.3,7.8,340,19,26,10.0,29.518702,998.6,,TRUE,TRUE,,,,,,,OVC,9500,,,,,,,VFR,,,,,,,,,,,,METAR,788.0
KTRM 250452Z AUTO 34018G25KT 10SM CLR 20/08 A2984 RMK AO2 SLP105 T02000083 TSNO,KTRM,2015-04-25T04:52:00Z,33.63,-116.17,20.0,8.3,340,18,25,10.0,29.840551,1010.5,,TRUE,TRUE,,,TRUE,,,,CLR,,,,,,,,VFR,,,,,,,,,,,,METAR,-35.0
KTOL 250452Z 06010KT 10SM SCT065 OVC085 08/00 A2996 RMK AO2 RAE05 SLP146 P0000 T00830000 401501050,KTOL,2015-04-25T04:52:00Z,41.58,-83.8,8.3,0.0,60,10,,10.0,29.958662,1014.6,,,TRUE,,,,,,,SCT,6500,OVC,8500,,,,,VFR,,,,15.0,-5.0,0.0050,,,,,,METAR,210.0
KTAN 250452Z AUTO 29004KT 10SM CLR 04/M06 A2979 RMK AO2 SLP088 T00391056 401170017,KTAN,2015-04-25T04:52:00Z,41.88,-71.02,3.9,-5.6,290,4,,10.0,29.790354,1008.8,,TRUE,TRUE,,,,,,,CLR,,,,,,,,VFR,,,,11.7,1.7,,,,,,,METAR,7.0
KSUX 250452Z 10010KT 10SM FEW022 OVC029 14/10 A2957 RMK AO2 SLP010 T01440100,KSUX,2015-04-25T04:52:00Z,42.38,-96.38,14.4,10.0,100,10,,10.0,29.568897,1001.0,,,TRUE,,,,,,,FEW,2200,OVC,2900,,,,,MVFR,,,,,,,,,,,,METAR,338.0
KSPS 250452Z AUTO 20009KT 6SM BR CLR 17/16 A2966 RMK AO2 SLP034 T01670161,KSPS,2015-04-25T04:52:00Z,33.98,-98.5,16.7,16.1,200,9,,6.0,29.660433,1003.4,,TRUE,TRUE,,,,,,BR,CLR,,,,,,,,VFR,,,,,,,,,,,,METAR,308.0
KSGF 250452Z 16016KT 10SM OVC006 14/13 A2961 RMK AO2 SLP023 T01440133,KSGF,2015-04-25T04:52:00Z,37.23,-93.38,14.4,13.3,160,16,,10.0,29.610237,1002.3,,,TRUE,,,,,,,OVC,600,,,,,,,IFR,,,,,,,,,,,,METAR,390.0
KFIT 250452Z AUTO 29007KT 10SM CLR 03/M06 A2979 RMK AO2 SLP090 T00281061 400940017,KFIT,2015-04-25T04:52:00Z,42.55,-71.75,2.8,-6.1,290,7,,10.0,29.790354,1009.0,,TRUE,TRUE,,,,,,,CLR,,,,,,,,VFR,,,,9.4,1.7,,,,,,,METAR,103.0
KDVN 250452Z AUTO 10014KT 10SM OVC049 08/04 A2978 RMK AO2 SLP086 T00780044,KDVN,2015-04-25T04:52:00Z,41.62,-90.58,7.8,4.4,100,14,,10.0,29.778543,1008.6,,TRUE,TRUE,,,,,,,OVC,4900,,,,,,,VFR,,,,,,,,,,,,METAR,230.0
KDPA 250452Z 07014KT 10SM -RA OVC046 04/02 A2988 RMK AO2 PRESFR SLP121 P0000 T00440022,KDPA,2015-04-25T04:52:00Z,41.92,-88.25,4.4,2.2,70,14,,10.0,29.878937,1012.1,,,TRUE,,,,,,-RA,OVC,4600,,,,,,,VFR,,,,,,0.0050,,,,,,METAR,231.0
KDDC 250452Z AUTO 32011KT 10SM SCT085 13/07 A2957 RMK AO2 SLP991 T01330067,KDDC,2015-04-25T04:52:00Z,37.77,-99.97,13.3,6.7,320,11,,10.0,29.568897,999.1,,TRUE,TRUE,,,,,,,SCT,8500,,,,,,,VFR,,,,,,,,,,,,METAR,789.0
KDCA 250452Z 35006KT 10SM BKN250 10/M02 A2997 RMK AO2 SLP147 T01001022 401720039,KDCA,2015-04-25T04:52:00Z,38.85,-77.03,10.0,-2.2,350,6,,10.0,29.970472,1014.7,,,TRUE,,,,,,,BKN,25000,,,,,,,VFR,,,,17.2,3.9,,,,,,,METAR,18.0
MUVR 250452Z 14004KT 9999 FEW020 22/19 Q1016,MUVR,2015-04-25T04:52:00Z,23.03,-81.43,22.0,19.0,140,4,,6.21,30.0,,,,,,,,,,,FEW,2000,,,,,,,VFR,,,,,,,,,,,,METAR,65.0
KDRA 250452Z AUTO 10012KT 10SM CLR 16/06 A2978 RMK AO2 SLP051 T01610056,KDRA,2015-04-25T04:52:00Z,36.62,-116.03,16.1,5.6,100,12,,10.0,29.778543,1005.1,,TRUE,TRUE,,,,,,,CLR,,,,,,,,VFR,,,,,,,,,,,,METAR,1006.0
KP59 250451Z AUTO 00000KT M01/M04 A3005 RMK AO1 SLP186 T10061044 400501044,KP59,2015-04-25T04:51:00Z,47.47,-87.88,-0.6,-4.4,0,0,,,30.050198,1018.6,,TRUE,TRUE,,,,,,,,,,,,,,,,,,,5.0,-4.4,,,,,,,METAR,190.0
KASH 250451Z AUTO 29009KT 10SM BKN050 04/M06 A2978 RMK AO2 T00381055 SLP337 $,KASH,2015-04-25T04:51:00Z,42.78,-71.52,3.8,-5.5,290,9,,10.0,29.778543,1033.7,,TRUE,TRUE,TRUE,,,,,,BKN,5000,,,,,,,VFR,,,,,,,,,,,,METAR,61.0
KALB 250451Z 30007KT 10SM FEW060 02/M06 A2988 RMK AO2 SLP121 T00171061 400670011,KALB,2015-04-25T04:51:00Z,42.75,-73.8,1.7,-6.1,300,7,,10.0,29.878937,1012.1,,,TRUE,,,,,,,FEW,6000,,,,,,,VFR,,,,6.7,1.1,,,,,,,METAR,92.0
KAHN 250451Z AUTO VRB03KT 10SM BKN110 18/08 A2994 RMK AO2 SLP134 T01780078 402390050,KAHN,2015-04-25T04:51:00Z,33.95,-83.33,17.8,7.8,0,3,,10.0,29.940945,1013.4,,TRUE,TRUE,,,,,,,BKN,11000,,,,,,,VFR,,,,23.9,5.0,,,,,,,METAR,244.0
KACT 250451Z 23006KT 10SM CLR 20/17 A2971 RMK AO2 SLP056 T02000167,KACT,2015-04-25T04:51:00Z,31.62,-97.23,20.0,16.7,230,6,,10.0,29.71063,1005.6,,,TRUE,,,,,,,CLR,,,,,,,,VFR,,,,,,,,,,,,METAR,151.0
KABE 250451Z 32005KT 10SM CLR 02/M06 A2994 RMK AO2 SLP142 T00221056 401280017,KABE,2015-04-25T04:51:00Z,40.65,-75.45,2.2,-5.6,320,5,,10.0,29.940945,1014.2,,,TRUE,,,,,,,CLR,,,,,,,,VFR,,,,12.8,1.7,,,,,,,METAR,114.0
KVNY 250451Z 10005KT 10SM OVC027 15/10 A3001 RMK AO2 SLP156 T01500100,KVNY,2015-04-25T04:51:00Z,34.22,-118.48,15.0,10.0,100,5,,10.0,30.008858,1015.6,,,TRUE,,,,,,,OVC,2700,,,,,,,MVFR,,,,,,,,,,,,METAR,245.0
KTEB 250451Z 34006KT 10SM CLR 03/M07 A2992 RMK AO2 SLP133 T00331067 401000033,KTEB,2015-04-25T04:51:00Z,40.87,-74.05,3.3,-6.7,340,6,,10.0,29.920275,1013.3,,,TRUE,,,,,,,CLR,,,,,,,,VFR,,,,10.0,3.3,,,,,,,METAR,7.0
KSMX 250451Z AUTO VRB04KT 8SM CLR 12/09 A3006 RMK AO2 SLP182 T01170089 TSNO,KSMX,2015-04-25T04:51:00Z,34.9,-120.45,11.7,8.9,0,4,,8.0,30.059055,1018.2,,TRUE,TRUE,,,TRUE,,,,CLR,,,,,,,,VFR,,,,,,,,,,,,METAR,74.0
KSMO 250451Z 23005KT 10SM BKN050 16/11 A3002 RMK AO2 SLP165 T01560111,KSMO,2015-04-25T04:51:00Z,34.02,-118.45,15.6,11.1,230,5,,10.0,30.02067,1016.5,,,TRUE,,,,,,,BKN,5000,,,,,,,VFR,,,,,,,,,,,,METAR,57.0
KSLK 250451Z AUTO 30006KT 10SM SCT024 OVC110 M02/M06 A2980 RMK AO2 SLP111 T10171061 400001028 $,KSLK,2015-04-25T04:51:00Z,44.4,-74.2,-1.7,-6.1,300,6,,10.0,29.799213,1011.1,,TRUE,TRUE,TRUE,,,,,,SCT,2400,OVC,11000,,,,,VFR,,,,,-2.8,,,,,,,METAR,498.0
KSJT 250451Z 19004KT 10SM CLR 16/12 A2979 RMK AO2 SLP073 T01610117,KSJT,2015-04-25T04:51:00Z,31.37,-100.5,16.1,11.7,190,4,,10.0,29.790354,1007.3,,,TRUE,,,,,,,CLR,,,,,,,,VFR,,,,,,,,,,,,METAR,576.0
KSAT 250451Z 24005KT 6SM BR SCT010 BKN250 24/23 A2977 RMK AO2 SLP063 OCNL LTG DSNT S T02440228,KSAT,2015-04-25T04:51:00Z,29.53,-98.47,24.4,22.8,240,5,,6.0,29.769686,1006.3,,,TRUE,,,,,,BR,SCT,1000,BKN,25000,,,,,VFR,,,,,,,,,,,,METAR,243.0
KSAN 250451Z 23005KT 10SM FEW026 OVC033 17/10 A3004 RMK AO2 SLP172 T01670100,KSAN,2015-04-25T04:51:00Z,32.73,-117.18,16.7,10.0,230,5,,10.0,30.041338,1017.2,,,TRUE,,,,,,,FEW,2600,OVC,3300,,,,,VFR,,,,,,,,,,,,METAR,12.0
KROW 250451Z AUTO 18006KT 10SM CLR 09/02 A2986 RMK AO2 SLP068 T00940017,KROW,2015-04-25T04:51:00Z,33.3,-104.5,9.4,1.7,180,6,,10.0,29.861221,1006.8,,TRUE,TRUE,,,,,,,CLR,,,,,,,,VFR,,,,,,,,,,,,METAR,1112.0
KRDU 250451Z 00000KT 10SM BKN230 09/04 A2995 RMK AO2 SLP141 T00940039 401940033 $,KRDU,2015-04-25T04:51:00Z,35.9,-78.78,9.4,3.9,0,0,,10.0,29.949802,1014.1,,,TRUE,TRUE,,,,,,BKN,23000,,,,,,,VFR,,,,19.4,3.3,,,,,,,METAR,130.0
KPWM 250451Z 26003KT 10SM SCT110 03/M05 A2972 RMK AO2 SLP065 T00281050 401220017,KPWM,2015-04-25T04:51:00Z,43.65,-70.3,2.8,-5.0,260,3,,10.0,29.719488,1006.5,,,TRUE,,,,,,,SCT,11000,,,,,,,VFR,,,,12.2,1.7,,,,,,,METAR,15.0
KPVD 250451Z AUTO 29009KT 10SM CLR 03/M07 A2982 RMK AO2 SLP097 T00281067 401060022,KPVD,2015-04-25T04:51:00Z,41.72,-71.43,2.8,-6.7,290,9,,10.0,29.819881,1009.7,,TRUE,TRUE,,,,,,,CLR,,,,,,,,VFR,,,,10.6,2.2,,,,,,,METAR,16.0
KPIT 250451Z 05004KT 10SM BKN130 OVC220 05/M07 A2999 RMK AO2 SLP167 T00501072 401331022,KPIT,2015-04-25T04:51:00Z,40.5,-80.27,5.0,-7.2,50,4,,10.0,29.991142,1016.7,,,TRUE,,,,,,,BKN,13000,OVC,22000,,,,,VFR,,,,13.3,-2.2,,,,,,,METAR,357.0
KPHX 250451Z 26008KT 10SM SCT085 22/05 A2987 RMK AO2 SLP102 T02220050,KPHX,2015-04-25T04:51:00Z,33.43,-112.02,22.2,5.0,260,8,,10.0,29.870079,1010.2,,,TRUE,,,,,,,SCT,8500,,,,,,,VFR,,,,,,,,,,,,METAR,336.0
KOXR 250451Z AUTO 00000KT 9SM CLR 15/11 A3000 RMK AO2 SLP158 T01500106,KOXR,2015-04-25T04:51:00Z,34.2,-119.2,15.0,10.6,0,0,,9.0,30.0,1015.8,,TRUE,TRUE,,,,,,,CLR,,,,,,,,VFR,,,,,,,,,,,,METAR,20.0
KORF 250451Z 13007KT 10SM CLR 10/04 A2996 RMK AO2 SLP144 T01000044 401720094,KORF,2015-04-25T04:51:00Z,36.9,-76.2,10.0,4.4,130,7,,10.0,29.958662,1014.4,,,TRUE,,,,,,,CLR,,,,,,,,VFR,,,,17.2,9.4,,,,,,,METAR,14.0
KORD 250451Z 05011KT 10SM SCT047 OVC060 05/02 A2991 RMK AO2 SLP130 T00500022,KORD,2015-04-25T04:51:00Z,41.98,-87.93,5.0,2.2,50,11,,10.0,29.911417,1013.0,,,TRUE,,,,,,,SCT,4700,OVC,6000,,,,,VFR,,,,,,,,,,,,METAR,200.0
KMYL 250451Z AUTO 34005KT 10SM CLR 02/M03 A2976 RMK AO2 SLP089 T00221028,KMYL,2015-04-25T04:51:00Z,44.9,-116.1,2.2,-2.8,340,5,,10.0,29.760826,1008.9,,TRUE,TRUE,,,,,,,CLR,,,,,,,,VFR,,,,,,,,,,,,METAR,1533.0
KLGA 250451Z 32014KT 10SM CLR 04/M05 A2993 RMK AO2 SLP133 T00441050 401000039,KLGA,2015-04-25T04:51:00Z,40.78,-73.88,4.4,-5.0,320,14,,10.0,29.929134,1013.3,,,TRUE,,,,,,,CLR,,,,,,,,VFR,,,,10.0,3.9,,,,,,,METAR,11.0
KJFK 250451Z 34011G20KT 10SM CLR 04/M07 A2993 RMK AO2 SLP136 T00441072 401110039 $,KJFK,2015-04-25T04:51:00Z,40.63,-73.77,4.4,-7.2,340,11,20,10.0,29.929134,1013.6,,,TRUE,TRUE,,,,,,CLR,,,,,,,,VFR,,,,11.1,3.9,,,,,,,METAR,9.0
KJCT 250451Z AUTO 00000KT 8SM CLR 19/19 A2979 RMK AO2 SLP055 T01940189,KJCT,2015-04-25T04:51:00Z,30.5,-99.77,19.4,18.9,0,0,,8.0,29.790354,1005.5,,TRUE,TRUE,,,,,,,CLR,,,,,,,,VFR,,,,,,,,,,,,METAR,522.0
KILG 250451Z AUTO 01009KT 10SM CLR 04/M06 A2997 RMK AO2 SLP147 T00391056 401330028 TSNO,KILG,2015-04-25T04:51:00Z,39.67,-75.6,3.9,-5.6,10,9,,10.0,29.970472,1014.7,,TRUE,TRUE,,,TRUE,,,,CLR,,,,,,,,VFR,,,,13.3,2.8,,,,,,,METAR,28.0
KNYC 250451Z AUTO VRB04KT 10SM CLR 04/M07 A2995 RMK AO2 SLP134 T00391067 401110039 $,KNYC,2015-04-25T04:51:00Z,40.78,-73.97,3.9,-6.7,0,4,,10.0,29.949802,1013.4,,TRUE,TRUE,TRUE,,,,,,CLR,,,,,,,,VFR,,,,11.1,3.9,,,,,,,METAR,11.0
KSAD 250451Z AUTO 27005KT 10SM CLR 14/02 A2993 RMK AO2 SLP105 T01390017,KSAD,2015-04-25T04:51:00Z,32.85,-109.63,13.9,1.7,270,5,,10.0,29.929134,1010.5,,TRUE,TRUE,,,,,,,CLR,,,,,,,,VFR,,,,,,,,,,,,METAR,962.0
KATT 250451Z AUTO 00000KT 6SM BR CLR 24/23 A2975 RMK AO2 SLP061 T02440228,KATT,2015-04-25T04:51:00Z,30.32,-97.77,24.4,22.8,0,0,,6.0,29.749016,1006.1,,TRUE,TRUE,,,,,,BR,CLR,,,,,,,,VFR,,,,,,,,,,,,METAR,201.0
KCON 250451Z AUTO 31011KT 10SM BKN100 02/M06 A2977 RMK AO2 SLP083 T00221061 400941022,KCON,2015-04-25T04:51:00Z,43.2,-71.5,2.2,-6.1,310,11,,10.0,29.769686,1008.3,,TRUE,TRUE,,,,,,,BKN,10000,,,,,,,VFR,,,,9.4,-2.2,,,,,,,METAR,103.0
KCMH 250451Z 00000KT 10SM BKN090 OVC120 10/01 A2994 RMK AO2 SLP137 T01000011 401441022,KCMH,2015-04-25T04:51:00Z,40.0,-82.88,10.0,1.1,0,0,,10.0,29.940945,1013.7,,,TRUE,,,,,,,BKN,9000,OVC,12000,,,,,VFR,,,,14.4,-2.2,,,,,,,METAR,247.0
KCLE 250451Z 11007KT 10SM BKN100 06/M06 A3001 RMK AO2 SLP166 T00611061 401001028,KCLE,2015-04-25T04:51:00Z,41.42,-81.85,6.1,-6.1,110,7,,10.0,30.008858,1016.6,,,TRUE,,,,,,,BKN,10000,,,,,,,VFR,,,,10.0,-2.8,,,,,,,METAR,233.0
KCAK 250451Z 08007KT 10SM OVC090 06/M06 A2998 RMK AO2 SLP157 T00561061 401391028,KCAK,2015-04-25T04:51:00Z,40.92,-81.45,5.6,-6.1,80,7,,10.0,29.97933,1015.7,,,TRUE,,,,,,,OVC,9000,,,,,,,VFR,,,,13.9,-2.8,,,,,,,METAR,377.0
KBKW 250451Z AUTO 00000KT 10SM CLR 07/M06 A2994 RMK AO2 SLP141 T00671056 401390006,KBKW,2015-04-25T04:51:00Z,37.8,-81.12,6.7,-5.6,0,0,,10.0,29.940945,1014.1,,TRUE,TRUE,,,,,,,CLR,,,,,,,,VFR,,,,13.9,0.6,,,,,,,METAR,764.0
KBHK 250451Z AUTO 12008KT 10SM CLR 10/02 A2963 RMK AO2 SLP022 T01000017,KBHK,2015-04-25T04:51:00Z,46.35,-104.25,10.0,1.7,120,8,,10.0,29.630905,1002.2,,TRUE,TRUE,,,,,,,CLR,,,,,,,,VFR,,,,,,,,,,,,METAR,902.0
KBGD 250451Z AUTO 25020G26KT 10SM CLR 20/M06 A2964 RMK AO2 PK WND 24031/0412 SLP998 T02001061,KBGD,2015-04-25T04:51:00Z,35.7,-101.4,20.0,-6.1,250,20,26,10.0,29.639763,999.8,,TRUE,TRUE,,,,,,,CLR,,,,,,,,VFR,,,,,,,,,,,,METAR,927.0
KBDL 250451Z 30008KT 10SM FEW055 02/M07 A2984 RMK AO2 SLP106 T00221067 400780022,KBDL,2015-04-25T04:51:00Z,41.93,-72.68,2.2,-6.7,300,8,,10.0,29.840551,1010.6,,,TRUE,,,,,,,FEW,5500,,,,,,,VFR,,,,7.8,2.2,,,,,,,METAR,60.0
KELP 250451Z 29012G18KT 10SM FEW100 19/M03 A2995 RMK AO2 PK WND 25026/0431 SLP089 T01891028 $,KELP,2015-04-25T04:51:00Z,31.82,-106.38,18.9,-2.8,290,12,18,10.0,29.949802,1008.9,,,TRUE,TRUE,,,,,,FEW,10000,,,,,,,VFR,,,,,,,,,,,,METAR,1197.0
KEKN 250451Z AUTO 00000KT 10SM CLR 01/M03 A2998 RMK AO2 SLP167 T00111028 401221017 TSNO,KEKN,2015-04-25T04:51:00Z,38.88,-79.85,1.1,-2.8,0,0,,10.0,29.97933,1016.7,,TRUE,TRUE,,,TRUE,,,,CLR,,,,,,,,VFR,,,,12.2,-1.7,,,,,,,METAR,603.0
KDAW 250451Z AUTO 31015G21KT 10SM OVC100 03/M06 A2973 RMK AO2 SLP065 T00281061 401000011,KDAW,2015-04-25T04:51:00Z,43.28,-70.92,2.8,-6.1,310,15,21,10.0,29.731298,1006.5,,TRUE,TRUE,,,,,,,OVC,10000,,,,,,,VFR,,,,10.0,1.1,,,,,,,METAR,100.0
KCSG 250451Z AUTO 00000KT 10SM CLR 19/13 A2991 RMK AO2 SLP124 T01890128 402670128,KCSG,2015-04-25T04:51:00Z,32.52,-84.95,18.9,12.8,0,0,,10.0,29.911417,1012.4,,TRUE,TRUE,,,,,,,CLR,,,,,,,,VFR,,,,26.7,12.8,,,,,,,METAR,135.0
KHDO 250451Z AUTO 16005KT 6SM BR CLR 22/21 A2978 RMK AO2 SLP071 T02170206,KHDO,2015-04-25T04:51:00Z,29.37,-99.17,21.7,20.6,160,5,,6.0,29.778543,1007.1,,TRUE,TRUE,,,,,,BR,CLR,,,,,,,,VFR,,,,,,,,,,,,METAR,282.0
KEWR 250451Z 33009KT 10SM CLR 04/M06 A2994 RMK AO2 SLP138 T00441061 401280039,KEWR,2015-04-25T04:51:00Z,40.68,-74.17,4.4,-6.1,330,9,,10.0,29.940945,1013.8,,,TRUE,,,,,,,CLR,,,,,,,,VFR,,,,12.8,3.9,,,,,,,METAR,7.0
KERI 250451Z 18003KT 10SM CLR M01/M06 A3001 RMK AO2 SLP169 T10111061 400561011,KERI,2015-04-25T04:51:00Z,42.08,-80.18,-1.1,-6.1,180,3,,10.0,30.008858,1016.9,,,TRUE,,,,,,,CLR,,,,,,,,VFR,,,,5.6,-1.1,,,,,,,METAR,222.0
KHSE 250451Z AUTO 26005KT 10SM CLR 08/04 A2997 RMK AO2 SLP148 T00780039 401500078 TSNO,KHSE,2015-04-25T04:51:00Z,35.23,-75.62,7.8,3.9,260,5,,10.0,29.970472,1014.8,,TRUE,TRUE,,,TRUE,,,,CLR,,,,,,,,VFR,,,,15.0,7.8,,,,,,,METAR,3.0
KHTS 250451Z 11004KT 10SM FEW100 10/M02 A2991 RMK AO2 SLP128 T01001017 401611006,KHTS,2015-04-25T04:51:00Z,38.37,-82.55,10.0,-1.7,110,4,,10.0,29.911417,1012.8,,,TRUE,,,,,,,FEW,10000,,,,,,,VFR,,,,16.1,-0.6,,,,,,,METAR,254.0
KIGM 250451Z AUTO 18012KT 10SM FEW070 16/03 A2988 RMK AO2 SLP065 T01560028 TSNO,KIGM,2015-04-25T04:51:00Z,35.25,-113.93,15.6,2.8,180,12,,10.0,29.878937,1006.5,,TRUE,TRUE,,,TRUE,,,,FEW,7000,,,,,,,VFR,,,,,,,,,,,,METAR,1032.0
KYNG 250451Z 10005KT 10SM SCT250 01/M06 A2999 RMK AO2 SLP163 T00061056 401061028,KYNG,2015-04-25T04:51:00Z,41.25,-80.67,0.6,-5.6,100,5,,10.0,29.991142,1016.3,,,TRUE,,,,,,,SCT,25000,,,,,,,VFR,,,,10.6,-2.8,,,,,,,METAR,360.0
KGDP 250451Z AUTO 24028G41KT 10SM CLR 14/M03 A2995 RMK AO2 PK WND 25051/0413 SLP087 T01391033,KGDP,2015-04-25T04:51:00Z,31.83,-104.82,13.9,-3.3,240,28,41,10.0,29.949802,1008.7,,TRUE,TRUE,,,,,,,CLR,,,,,,,,VFR,,,,,,,,,,,,METAR,1692.0
KP58 250451Z AUTO 11008KT 02/M04 A3002 RMK AO1 SLP173 T00171044 400560000,KP58,2015-04-25T04:51:00Z,44.02,-82.8,1.7,-4.4,110,8,,,30.02067,1017.3,,TRUE,TRUE,,,,,,,,,,,,,,,,,,,5.6,,,,,,,,METAR,179.0
KSNT 250451Z AUTO 00000KT 02/M03 A2976 RMK AO1 SLP042 T00171033,KSNT,2015-04-25T04:51:00Z,44.17,-114.93,1.7,-3.3,0,0,,,29.760826,1004.2,,TRUE,TRUE,,,,,,,,,,,,,,,,,,,,,,,,,,,METAR,1980.0
PTKK 250451Z VRB04KT 15SM FEW014CB BKN120 OVC280 29/26 A2971 RMK CB SE SLP062 T02910257,PTKK,2015-04-25T04:51:00Z,7.47,151.85,29.1,25.7,0,4,,15.0,29.71063,1006.2,,,,,,,,,,FEW,1400,BKN,12000,OVC,28000,,,VFR,,,,,,,,,,,,METAR,2.0
MUCC 250451Z 29002KT 9000 FEW020 24/23 Q1014,MUCC,2015-04-25T04:51:00Z,22.47,-78.33,24.0,23.0,290,2,,5.59,29.940945,,,,,,,,,,,FEW,2000,,,,,,,VFR,,,,,,,,,,,,METAR,4.0
KNQA 250450Z 00000KT 10SM OVC008 13/13 A2983,KNQA,2015-04-25T04:50:00Z,35.35,-89.87,13.0,13.0,0,0,,10.0,29.828741,,,,,,,,,,,OVC,800,,,,,,,IFR,,,,,,,,,,,,METAR,86.0
VGEG 250450Z 29008KT 3200 RA SCT008 FEW028CB OVC080 24/23 Q1014 TEMPO POOR VISI,VGEG,2015-04-25T04:50:00Z,22.27,91.82,24.0,23.0,290,8,,1.99,29.940945,,,,,,,,,,RA,SCT,800,FEW,2800,OVC,8000,,,IFR,,,,,,,,,,,,METAR,6.0
KRHV 250450Z 00000KT 10SM OVC030 15/06 A3005 RMK LAST,KRHV,2015-04-25T04:50:00Z,37.32,-121.82,15.0,6.0,0,0,,10.0,30.050198,,,,,,,,,,,OVC,3000,,,,,,,MVFR,,,,,,,,,,,,METAR,41.0
PADL 250450Z 02005KT 10SM BKN048 OVC055 04/04 A2955,PADL,2015-04-25T04:50:00Z,59.05,-158.52,4.0,4.0,20,5,,10.0,29.551182,,,,,,,,,,,BKN,4800,OVC,5500,,,,,VFR,,,,,,,,,,,,METAR,26.0
PGRO 250450Z 14012KT 7SM SCT022 BKN100 27/25 A2978,PGRO,2015-04-25T04:50:00Z,14.18,145.25,27.0,25.0,140,12,,7.0,29.778543,,,,,,,,,,,SCT,2200,BKN,10000,,,,,VFR,,,,,,,,,,,,METAR,185.0
PTRO 250450Z 08011KT 14SM BKN015TCU BKN120 OVC300 30/25 A2977 RMK TCU VC ALQDS,PTRO,2015-04-25T04:50:00Z,7.37,134.55,30.0,25.0,80,11,,14.0,29.769686,,,,,,,,,,,BKN,1500,BKN,12000,OVC,30000,,,MVFR,,,,,,,,,,,,METAR,54.0
LLSD 250450Z 08004KT CAVOK 15/07 Q1022,LLSD,2015-04-25T04:50:00Z,32.12,34.78,15.0,7.0,80,4,,6.21,30.177166,,,,,,,,,,,CAVOK,,,,,,,,VFR,,,,,,,,,,,,METAR,14.0
LLHA 250450Z 13006KT CAVOK 14/07 Q1023,LLHA,2015-04-25T04:50:00Z,32.78,35.02,14.0,7.0,130,6,,6.21,30.206694,,,,,,,,,,,CAVOK,,,,,,,,VFR,,,,,,,,,,,,METAR,8.0
LLET 250450Z 02020KT CAVOK 18/05 Q1021,LLET,2015-04-25T04:50:00Z,29.55,34.95,18.0,5.0,20,20,,6.21,30.147638,,,,,,,,,,,CAVOK,,,,,,,,VFR,,,,,,,,,,,,METAR,13.0
ESGP 250450Z 22006KT 5000 BR OVC009 07/06 Q1003,ESGP,2015-04-25T04:50:00Z,57.77,11.87,7.0,6.0,220,6,,3.11,29.616142,,,,,,,,,,BR,OVC,900,,,,,,,IFR,,,,,,,,,,,,METAR,53.0
ENSB 250450Z 13007KT 9999 FEW160 M06/M14 Q1026 RMK WIND 1400FT 05006KT,ENSB,2015-04-25T04:50:00Z,78.25,15.47,-6.0,-14.0,130,7,,6.21,30.295275,,,,,,,,,,,FEW,16000,,,,,,,VFR,,,,,,,,,,,,METAR,29.0
ENHF 250450Z 05002KT 9999 -SN FEW022 SCT038 BKN051 M00/M04 Q1011 RMK WIND 1254FT 08006KT,ENHF,2015-04-25T04:50:00Z,70.67,23.67,0.0,-4.0,50,2,,6.21,29.852362,,,,,,,,,,-SN,FEW,2200,SCT,3800,BKN,5100,,,VFR,,,,,,,,,,,,METAR,81.0
ENVD 250450Z 32013KT 9999 VCSH FEW024 BKN045 M01/M05 Q1009,ENVD,2015-04-25T04:50:00Z,70.07,29.85,-1.0,-5.0,320,13,,6.21,29.793306,,,,,,,,,,VCSH,FEW,2400,BKN,4500,,,,,VFR,,,,,,,,,,,,METAR,39.0
ENMS 250450Z VRB01KT 9999 FEW040 M03/M04 Q1003 RMK WIND 412FT VRB02KT,ENMS,2015-04-25T04:50:00Z,65.78,13.22,-3.0,-4.0,0,1,,6.21,29.616142,,,,,,,,,,,FEW,4000,,,,,,,VFR,,,,,,,,,,,,METAR,70.0
OAMS 250450Z 05003KT 9000 SCT200 27/11 Q1011 BLU+ BLU+,OAMS,2015-04-25T04:50:00Z,36.7,67.2,27.0,11.0,50,3,,5.59,29.852362,,,,,,,,,,,SCT,20000,,,,,,,VFR,,,,,,,,,,,,METAR,378.0
ENEV 250450Z 12015KT CAVOK 00/M08 Q1008 RMK WIND 1400FT 10019G29KT,ENEV,2015-04-25T04:50:00Z,68.52,16.67,0.0,-8.0,120,15,,6.21,29.763779,,,,,,,,,,,CAVOK,,,,,,,,VFR,,1.9,,,,,,,,,,METAR,26.0
ENAT 250450Z 22003KT 9999 -SN SCT041 BKN051 M02/M07 Q1012 RMK WIND 700FT 31002KT,ENAT,2015-04-25T04:50:00Z,69.97,23.37,-2.0,-7.0,220,3,,6.21,29.88189,,,,,,,,,,-SN,SCT,4100,BKN,5100,,,,,VFR,,,,,,,,,,,,METAR,3.0
ENNK 250450Z 04010KT CAVOK M00/M07 Q1008,ENNK,2015-04-25T04:50:00Z,68.47,17.38,0.0,-7.0,40,10,,6.21,29.763779,,,,,,,,,,,CAVOK,,,,,,,,VFR,,,,,,,,,,,,METAR,23.0
ENMH 250450Z 35009KT 9999 SCT020 BKN040 M00/M02 Q1010,ENMH,2015-04-25T04:50:00Z,71.02,27.82,0.0,-2.0,350,9,,6.21,29.822834,,,,,,,,,,,SCT,2000,BKN,4000,,,,,VFR,,,,,,,,,,,,METAR,13.0
LIEO 250450Z 20003KT 9999 FEW005 09/08 Q1018 RMK VIS MIN 9999,LIEO,2015-04-25T04:50:00Z,40.88,9.52,9.0,8.0,200,3,,6.21,30.059055,,,,,,,,,,,FEW,500,,,,,,,VFR,,,,,,,,,,,,METAR,13.0
ENGC 250450Z 11009KT 9999 SCT020 BKN050 04/00 Q0995 W06/S5,ENGC,2015-04-25T04:50:00Z,61.02,2.02,4.0,0.0,110,9,,6.21,29.379921,,,,,,,,,,,SCT,2000,BKN,5000,,,,,VFR,,,,,,,,,,,,METAR,10.0
EGYP 250450Z 34014KT CAVOK 04/M00 Q1013 BLU,EGYP,2015-04-25T04:50:00Z,-51.82,-58.45,4.0,0.0,340,14,,6.21,29.911417,,,,,,,,,,,CAVOK,,,,,,,,VFR,,,,,,,,,,,,METAR,74.0
TJBQ 250450Z 13003KT 10SM SCT060 24/22 A2997 RMK RWY08 - ATIS F,TJBQ,2015-04-25T04:50:00Z,18.5,-67.13,24.0,22.0,130,3,,10.0,29.970472,,,,,,,,,,,SCT,6000,,,,,,,VFR,,,,,,,,,,,,METAR,72.0
LTBH 250450Z VRB02KT CAVOK 10/07 Q1019,LTBH,2015-04-25T04:50:00Z,40.13,26.42,10.0,7.0,0,2,,6.21,30.088583,,,,,,,,,,,CAVOK,,,,,,,,VFR,,,,,,,,,,,,METAR,3.0
LTCK 250450Z 13004KT CAVOK 04/01 Q1023,LTCK,2015-04-25T04:50:00Z,38.75,41.67,4.0,1.0,130,4,,6.21,30.206694,,,,,,,,,,,CAVOK,,,,,,,,VFR,,,,,,,,,,,,METAR,1266.0
LTCN 250450Z 17003KT 130V200 CAVOK 09/05 Q1024,LTCN,2015-04-25T04:50:00Z,37.53,36.95,9.0,5.0,170,3,,6.21,30.236221,,,,,,,,,,,CAVOK,,,,,,,,VFR,,,,,,,,,,,,METAR,526.0
LTCR 250450Z VRB03KT CAVOK 11/06 Q1022,LTCR,2015-04-25T04:50:00Z,37.22,40.63,11.0,6.0,0,3,,6.21,30.177166,,,,,,,,,,,CAVOK,,,,,,,,VFR,,,,,,,,,,,,METAR,527.0
LTCU 250450Z 20004KT 160V290 CAVOK 05/01 Q1024,LTCU,2015-04-25T04:50:00Z,38.87,40.58,5.0,1.0,200,4,,6.21,30.236221,,,,,,,,,,,CAVOK,,,,,,,,VFR,,,,,,,,,,,,METAR,1061.0
LTFD 250450Z 07004KT 9999 SCT035 10/07 Q1020,LTFD,2015-04-25T04:50:00Z,39.55,27.02,10.0,7.0,70,4,,6.21,30.11811,,,,,,,,,,,SCT,3500,,,,,,,VFR,,,,,,,,,,,,METAR,16.0
LTFG 250450Z 09003KT 020V150 CAVOK 13/05 Q1023,LTFG,2015-04-25T04:50:00Z,36.3,32.3,13.0,5.0,90,3,,6.21,30.206694,,,,,,,,,,,CAVOK,,,,,,,,VFR,,,,,,,,,,,,METAR,95.0
LSZL 250450Z AUTO VRB02KT 9999NDV SCT044 16/08 Q1016 RMK BLU,LSZL,2015-04-25T04:50:00Z,46.17,8.88,16.0,8.0,0,2,,,30.0,,,TRUE,,,,,,,,SCT,4400,,,,,,,,,,,,,,,,,,,METAR,600.0
MSSS 250450Z 00000KT CAVOK 25/23 Q1016 A3001,MSSS,2015-04-25T04:50:00Z,13.7,-89.12,25.0,23.0,0,0,,6.21,30.0,,,,,,,,,,,CAVOK,,,,,,,,VFR,,,,,,,,,,,,METAR,616.0
MSLP 250450Z 00000KT 9999 SCT020 27/25 Q1012 A2988,MSLP,2015-04-25T04:50:00Z,13.43,-89.05,27.0,25.0,0,0,,6.21,29.88189,,,,,,,,,,,SCT,2000,,,,,,,VFR,,,,,,,,,,,,METAR,25.0
LSMS 250450Z VRB02KT 9999 SCT080 BKN100 12/03 Q1013,LSMS,2015-04-25T04:50:00Z,46.22,7.32,12.0,3.0,0,2,,6.21,29.911417,,,,,,,,,,,SCT,8000,BKN,10000,,,,,VFR,,,,,,,,,,,,METAR,481.0
LSMP 250450Z AUTO VRB02KT 9999NDV BKN075 BKN085 10/07 Q1012 RMK WHT,LSMP,2015-04-25T04:50:00Z,46.82,6.92,10.0,7.0,0,2,,,29.88189,,,TRUE,,,,,,,,BKN,7500,BKN,8500,,,,,,,,,,,,,,,,,METAR,491.0
LSMM 250450Z AUTO VRB01KT 9999NDV FEW110 SCT140 07/05 Q1013 RMK BLU,LSMM,2015-04-25T04:50:00Z,46.75,8.12,7.0,5.0,0,1,,,29.911417,,,TRUE,,,,,,,,FEW,11000,SCT,14000,,,,,,,,,,,,,,,,,METAR,577.0
LSME 250450Z AUTO VRB01KT 9999NDV SCT092 BKN130 06/05 Q1013 RMK WHT,LSME,2015-04-25T04:50:00Z,47.1,8.3,6.0,5.0,0,1,,,29.911417,,,TRUE,,,,,,,,SCT,9200,BKN,13000,,,,,,,,,,,,,,,,,METAR,427.0
LSMD 250450Z AUTO 00000KT 9999NDV BKN088 08/05 Q1013 RMK WHT,LSMD,2015-04-25T04:50:00Z,47.4,8.65,8.0,5.0,0,0,,,29.911417,,,TRUE,,,,,,,,BKN,8800,,,,,,,,,,,,,,,,,,,METAR,448.0
LSMA 250450Z AUTO VRB01KT 9999NDV FEW100 BKN130 08/06 Q1013 RMK WHT,LSMA,2015-04-25T04:50:00Z,46.95,8.28,8.0,6.0,0,1,,,29.911417,,,TRUE,,,,,,,,FEW,10000,BKN,13000,,,,,,,,,,,,,,,,,METAR,444.0
EGPK 250450Z 33005KT 9999 -RA FEW010 BKN023 06/05 Q0999,EGPK,2015-04-25T04:50:00Z,55.5,-4.57,6.0,5.0,330,5,,6.21,29.498032,,,,,,,,,,-RA,FEW,1000,BKN,2300,,,,,MVFR,,,,,,,,,,,,METAR,20.0
BGKK 250450Z AUTO 10011KT 9999NDV OVC057/// M05/M10 Q1026,BGKK,2015-04-25T04:50:00Z,65.57,-37.13,-5.0,-10.0,100,11,,,30.295275,,,TRUE,,,,,,,,,,,,,,,,,,,,,,,,,,,,METAR,34.0
BGJN 250450Z AUTO 09012KT 9999NDV NCD M12/M18 Q1028,BGJN,2015-04-25T04:50:00Z,69.25,-51.07,-12.0,-18.0,90,12,,,30.35433,,,TRUE,,,,,,,,,,,,,,,,,,,,,,,,,,,,METAR,25.0
BGGH 250450Z AUTO 15003KT 9999NDV BKN009/// M03/M05 Q1023,BGGH,2015-04-25T04:50:00Z,64.2,-51.68,-3.0,-5.0,150,3,,,30.206694,,,TRUE,,,,,,,,,,,,,,,,,,,,,,,,,,,,METAR,70.0
BGBW 250450Z AUTO 21002KT 9999NDV -SHSN OVC036/// 01/M02 Q1023,BGBW,2015-04-25T04:50:00Z,61.17,-45.42,1.0,-2.0,210,2,,,30.206694,,,TRUE,,,,,,,-SHSN,,,,,,,,,,,,,,,,,,,,,METAR,26.0
BGSF 250450Z AUTO 06004KT 9999NDV NCD M14/M18 Q1028,BGSF,2015-04-25T04:50:00Z,67.0,-50.72,-14.0,-18.0,60,4,,,30.35433,,,TRUE,,,,,,,,,,,,,,,,,,,,,,,,,,,,METAR,53.0
MMTJ 250450Z 21005KT 7SM BKN026 OVC035 15/10 A3005 RMK 8/7// HZY PRESRR,MMTJ,2015-04-25T04:50:00Z,32.53,-116.97,15.0,10.0,210,5,,7.0,30.050198,,,,,,,,,,,BKN,2600,OVC,3500,,,,,MVFR,,,,,,,,,,,,METAR,152.0
MMMZ 250450Z 25008KT 10SM SCT090 OVC230 22/18 A2989 RMK 8/077 HZY BINOVC,MMMZ,2015-04-25T04:50:00Z,23.17,-106.27,22.0,18.0,250,8,,10.0,29.890747,,,,,,,,,,,SCT,9000,OVC,23000,,,,,VFR,,,,,,,,,,,,METAR,10.0
LXGB 250450Z 26010KT 9999 FEW026 BKN250 17/13 Q1017,LXGB,2015-04-25T04:50:00Z,36.13,-5.33,17.0,13.0,260,10,,6.21,30.029528,,,,,,,,,,,FEW,2600,BKN,25000,,,,,VFR,,,,,,,,,,,,METAR,5.0
EEPU 250450Z 21004KT 170V240 9999 BKN008 06/04 Q1009,EEPU,2015-04-25T04:50:00Z,58.42,24.47,6.0,4.0,210,4,,6.21,29.793306,,,,,,,,,,,BKN,800,,,,,,,IFR,,,,,,,,,,,,METAR,14.0
EETU 250450Z AUTO 24006KT 9999 NCD 04/M03 Q1010,EETU,2015-04-25T04:50:00Z,58.32,26.68,4.0,-3.0,240,6,,6.21,29.822834,,,TRUE,,,,,,,,,,,,,,,,,,,,,,,,,,,,METAR,67.0
EEKE 250450Z AUTO 26007KT 230V290 9000NDV OVC005 06/05 Q1009,EEKE,2015-04-25T04:50:00Z,58.23,22.52,6.0,5.0,260,7,,,29.793306,,,TRUE,,,,,,,,OVC,500,,,,,,,,,,,,,,,,,,,METAR,4.0
EEKA 250450Z 20005KT 2400 BR BKN002 03/03 Q1009,EEKA,2015-04-25T04:50:00Z,58.98,22.83,3.0,3.0,200,5,,1.49,29.793306,,,,,,,,,,BR,BKN,200,,,,,,,LIFR,,,,,,,,,,,,METAR,4.0
LOXZ 250450Z VRB01KT 40KM FEW014ST 02/00 Q1017 RMK FEW,LOXZ,2015-04-25T04:50:00Z,47.2,14.75,2.0,0.0,0,1,,24.86,30.029528,,,,,,,,,,,,,,,,,,,,,,,,,,,,,,,METAR,682.0
LTAN 250450Z VRB01KT CAVOK 04/M03 Q1024 NOSIG,LTAN,2015-04-25T04:50:00Z,37.97,32.53,4.0,-3.0,0,1,,6.21,30.236221,,,,,,TRUE,,,,,CAVOK,,,,,,,,VFR,,,,,,,,,,,,METAR,1006.0
OOSA 250450Z VRB03KT CAVOK 29/21 Q1012 NOSIG,OOSA,2015-04-25T04:50:00Z,17.02,54.07,29.0,21.0,0,3,,6.21,29.88189,,,,,,TRUE,,,,,CAVOK,,,,,,,,VFR,,,,,,,,,,,,METAR,20.0
OOMS 250450Z 26007KT 220V290 8000 NSC 39/02 Q1009 NOSIG,OOMS,2015-04-25T04:50:00Z,23.57,58.27,39.0,2.0,260,7,,4.97,29.793306,,,,,,TRUE,,,,,,,,,,,,,,,,,,,,,,,,,METAR,8.0
LTBF 250450Z 00000KT CAVOK 08/06 Q1021 NOSIG,LTBF,2015-04-25T04:50:00Z,39.62,27.92,8.0,6.0,0,0,,6.21,30.147638,,,,,,TRUE,,,,,CAVOK,,,,,,,,VFR,,,,,,,,,,,,METAR,102.0
LTBQ 250450Z 00000KT CAVOK 07/07 Q1021 NOSIG,LTBQ,2015-04-25T04:50:00Z,40.72,30.07,7.0,7.0,0,0,,6.21,30.147638,,,,,,TRUE,,,,,CAVOK,,,,,,,,VFR,,,,,,,,,,,,METAR,50.0
LTAR 250450Z 16003KT 120V200 CAVOK 02/M03 Q1024,LTAR,2015-04-25T04:50:00Z,39.8,36.9,2.0,-3.0,160,3,,6.21,30.236221,,,,,,,,,,,CAVOK,,,,,,,,VFR,,,,,,,,,,,,METAR,1271.0
LTAY 250450Z 08007KT 040V110 CAVOK 08/M00 Q1022,LTAY,2015-04-25T04:50:00Z,37.77,29.68,8.0,0.0,80,7,,6.21,30.177166,,,,,,,,,,,CAVOK,,,,,,,,VFR,,,,,,,,,,,,METAR,849.0
LTBY 250450Z 10005KT CAVOK 04/M02 Q1023,LTBY,2015-04-25T04:50:00Z,39.82,30.52,4.0,-2.0,100,5,,6.21,30.206694,,,,,,,,,,,CAVOK,,,,,,,,VFR,,,,,,,,,,,,METAR,789.0
LTBZ 250450Z VRB02KT 9999 SCT040 01/M04 Q1022,LTBZ,2015-04-25T04:50:00Z,38.63,27.35,1.0,-4.0,0,2,,6.21,30.177166,,,,,,,,,,,SCT,4000,,,,,,,VFR,,,,,,,,,,,,METAR,73.0
LTCA 250450Z VRB01KT CAVOK 08/01 Q1024 NOSIG,LTCA,2015-04-25T04:50:00Z,38.6,39.27,8.0,1.0,0,1,,6.21,30.236221,,,,,,TRUE,,,,,CAVOK,,,,,,,,VFR,,,,,,,,,,,,METAR,882.0
LTCD 250450Z VRB02KT CAVOK 04/M03 Q1026 NOSIG,LTCD,2015-04-25T04:50:00Z,39.72,39.5,4.0,-3.0,0,2,,6.21,30.295275,,,,,,TRUE,,,,,CAVOK,,,,,,,,VFR,,,,,,,,,,,,METAR,1215.0
LTCF 250450Z 00000KT 9999 FEW040 M01/M06 Q1022,LTCF,2015-04-25T04:50:00Z,40.57,43.12,-1.0,-6.0,0,0,,6.21,30.177166,,,,,,,,,,,FEW,4000,,,,,,,VFR,,,,,,,,,,,,METAR,1795.0
LTCI 250450Z 00000KT 9999 SCT035 BKN080 03/M02 Q1022 NOSIG,LTCI,2015-04-25T04:50:00Z,38.45,43.32,3.0,-2.0,0,0,,6.21,30.177166,,,,,,TRUE,,,,,SCT,3500,BKN,8000,,,,,VFR,,,,,,,,,,,,METAR,1661.0
LTDA 250450Z 04005KT 020V080 CAVOK 11/07 Q1024,LTDA,2015-04-25T04:50:00Z,36.37,36.28,11.0,7.0,40,5,,6.21,30.236221,,,,,,,,,,,CAVOK,,,,,,,,VFR,,,,,,,,,,,,METAR,82.0
LTFH 250450Z 00000KT CAVOK 10/07 Q1022 NOSIG,LTFH,2015-04-25T04:50:00Z,41.27,36.55,10.0,7.0,0,0,,6.21,30.177166,,,,,,TRUE,,,,,CAVOK,,,,,,,,VFR,,,,,,,,,,,,METAR,5.0
LIPB 250450Z VRB01KT 9999 SCT050 BKN080 14/07 Q1017,LIPB,2015-04-25T04:50:00Z,46.47,11.32,14.0,7.0,0,1,,6.21,30.029528,,,,,,,,,,,SCT,5000,BKN,8000,,,,,VFR,,,,,,,,,,,,METAR,241.0
LGZA 250450Z 00000KT 9999 FEW020 SCT080 11/10 Q1018,LGZA,2015-04-25T04:50:00Z,37.75,20.87,11.0,10.0,0,0,,6.21,30.059055,,,,,,,,,,,FEW,2000,SCT,8000,,,,,VFR,,,,,,,,,,,,METAR,3.0
LGSK 250450Z /////KT 9999 FEW010 SCT025 BKN080 15/12 Q1018,LGSK,2015-04-25T04:50:00Z,39.18,23.5,15.0,12.0,,,,6.21,30.059055,,,,,,,,,,,FEW,1000,SCT,2500,BKN,8000,,,VFR,,,,,,,,,,,,METAR,15.0
LGSO 250450Z 16008KT 9999 FEW015 SCT025 BKN080 15/12 Q1019,LGSO,2015-04-25T04:50:00Z,37.42,24.95,15.0,12.0,160,8,,6.21,30.088583,,,,,,,,,,,FEW,1500,SCT,2500,BKN,8000,,,VFR,,,,,,,,,,,,METAR,72.0
LGPA 250450Z 10007KT 9999 -RA FEW016 SCT030 16/12 Q1019,LGPA,2015-04-25T04:50:00Z,37.0,25.13,16.0,12.0,100,7,,6.21,30.088583,,,,,,,,,,-RA,FEW,1600,SCT,3000,,,,,VFR,,,,,,,,,,,,METAR,36.0
LGNX 250450Z VRB03KT 9999 FEW018 BKN080 14/11 Q1019,LGNX,2015-04-25T04:50:00Z,37.08,25.37,14.0,11.0,0,3,,6.21,30.088583,,,,,,,,,,,FEW,1800,BKN,8000,,,,,VFR,,,,,,,,,,,,METAR,4.0
LGKF 250450Z 17004KT 9999 BKN020 15/13 Q1018,LGKF,2015-04-25T04:50:00Z,38.12,20.5,15.0,13.0,170,4,,6.21,30.059055,,,,,,,,,,,BKN,2000,,,,,,,MVFR,,,,,,,,,,,,METAR,18.0
LGHI 250450Z 20005KT 9999 SCT018 BKN080 15/12 Q1019,LGHI,2015-04-25T04:50:00Z,38.32,26.12,15.0,12.0,200,5,,6.21,30.088583,,,,,,,,,,,SCT,1800,BKN,8000,,,,,VFR,,,,,,,,,,,,METAR,4.0
EGXW 250450Z 22012KT 9999 FEW030 BKN180 09/08 Q1002 BLU,EGXW,2015-04-25T04:50:00Z,53.18,-0.52,9.0,8.0,220,12,,6.21,29.586615,,,,,,,,,,,FEW,3000,BKN,18000,,,,,VFR,,,,,,,,,,,,METAR,70.0
EGDY 250450Z 20006KT 7000 BR FEW003 SCT006 11/10 Q1005 YLO1 BECMG 9999 NSW FEW010 SCT020 WHT,EGDY,2015-04-25T04:50:00Z,51.0,-2.62,11.0,10.0,200,6,,4.35,29.675198,,,,,,,,,,BR,FEW,300,SCT,600,,,,,MVFR,,,,,,,,,,,,METAR,23.0
PTTP 250450Z 15003KT 15SM FEW018 BKN300 27/25 A2980 RMK SLP090 T02720246,PTTP,2015-04-25T04:50:00Z,6.97,158.22,27.2,24.6,150,3,,15.0,29.799213,1009.0,,,,,,,,,,FEW,1800,BKN,30000,,,,,VFR,,,,,,,,,,,,METAR,2.0
KDAG 250450Z AUTO 25034G43KT 10SM CLR 17/04 A2982 RMK AO2 PK WND 24043/0450 SLP083 T01670044,KDAG,2015-04-25T04:50:00Z,34.85,-116.78,16.7,4.4,250,34,43,10.0,29.819881,1008.3,,TRUE,TRUE,,,,,,,CLR,,,,,,,,VFR,,,,,,,,,,,,METAR,587.0
OIZC 250450Z 34004KT 4000 HZ NSC 34/11 Q1006 A2972,OIZC,2015-04-25T04:50:00Z,25.45,60.38,34.0,11.0,340,4,,2.49,29.704725,,,,,,,,,,HZ,,,,,,,,,,,,,,,,,,,,,METAR,6.0
LCRA 250450Z 07010KT CAVOK 16/09 Q1023 NOSIG,LCRA,2015-04-25T04:50:00Z,34.57,32.97,16.0,9.0,70,10,,6.21,30.206694,,,,,,TRUE,,,,,CAVOK,,,,,,,,VFR,,,,,,,,,,,,METAR,23.0
LTCO 250450Z 14003KT 090V180 CAVOK M01/M06 Q1023,LTCO,2015-04-25T04:50:00Z,39.65,43.03,-1.0,-6.0,140,3,,6.21,30.206694,,,,,,,,,,,CAVOK,,,,,,,,VFR,,,,,,,,,,,,METAR,1665.0
LIPY 250450Z 17004KT CAVOK 09/08 Q1017,LIPY,2015-04-25T04:50:00Z,43.62,13.37,9.0,8.0,170,4,,6.21,30.029528,,,,,,,,,,,CAVOK,,,,,,,,VFR,,,,,,,,,,,,METAR,10.0
LIPO 250450Z 08006KT CAVOK 14/07 Q1016,LIPO,2015-04-25T04:50:00Z,45.42,10.33,14.0,7.0,80,6,,6.21,30.0,,,,,,,,,,,CAVOK,,,,,,,,VFR,,,,,,,,,,,,METAR,109.0
LIMZ 250450Z 34002KT 9999 SCT060 BKN090 13/09 Q1016,LIMZ,2015-04-25T04:50:00Z,44.53,7.62,13.0,9.0,340,2,,6.21,30.0,,,,,,,,,,,SCT,6000,BKN,9000,,,,,VFR,,,,,,,,,,,,METAR,380.0
LIBP 250450Z 00000KT CAVOK 09/07 Q1018,LIBP,2015-04-25T04:50:00Z,42.42,14.18,9.0,7.0,0,0,,6.21,30.059055,,,,,,,,,,,CAVOK,,,,,,,,VFR,,,,,,,,,,,,METAR,11.0
LICR 250450Z 05006KT CAVOK 11/09 Q1017,LICR,2015-04-25T04:50:00Z,38.07,15.65,11.0,9.0,50,6,,6.21,30.029528,,,,,,,,,,,CAVOK,,,,,,,,VFR,,,,,,,,,,,,METAR,21.0
LICD 250450Z 04010KT 8000 SCT010 17/15 Q1016,LICD,2015-04-25T04:50:00Z,35.5,12.62,17.0,15.0,40,10,,4.97,30.0,,,,,,,,,,,SCT,1000,,,,,,,MVFR,,,,,,,,,,,,METAR,20.0
LICB 250450Z 03005KT CAVOK 09/08 Q1015,LICB,2015-04-25T04:50:00Z,37.0,14.62,9.0,8.0,30,5,,6.21,29.970472,,,,,,,,,,,CAVOK,,,,,,,,VFR,,,,,,,,,,,,METAR,220.0
LICA 250450Z 07004KT CAVOK 10/10 Q1017,LICA,2015-04-25T04:50:00Z,38.88,16.25,10.0,10.0,70,4,,6.21,30.029528,,,,,,,,,,,CAVOK,,,,,,,,VFR,,,,,,,,,,,,METAR,15.0
TJPS 250450Z 00000KT 10SM SKC 24/22 A2993,TJPS,2015-04-25T04:50:00Z,18.02,-66.57,24.0,22.0,0,0,,10.0,29.929134,,,,,,,,,,,SKC,,,,,,,,VFR,,,,,,,,,,,,METAR,9.0
MUCM 250450Z 09005KT 9000 SKC 24/20 Q1016,MUCM,2015-04-25T04:50:00Z,21.42,-77.85,24.0,20.0,90,5,,5.59,30.0,,,,,,,,,,,SKC,,,,,,,,VFR,,,,,,,,,,,,METAR,122.0
MUSC 250450Z VRB02KT 9000 SKC 22/19 Q1016,MUSC,2015-04-25T04:50:00Z,22.5,-79.95,22.0,19.0,0,2,,5.59,30.0,,,,,,,,,,,SKC,,,,,,,,VFR,,,,,,,,,,,,METAR,103.0
KMWN 250450Z 31038G44KT 0SM -SN FZFG BLSN VV000 M13/M13 RMK VRY LGT ICG,KMWN,2015-04-25T04:50:00Z,44.27,-71.3,-13.0,-13.0,310,38,44,0.0,,,,,,,,,,,-SN FZFG BLSN,OVX,0,,,,,,,LIFR,,,,,,,,,,,0,METAR,1910.0
EGXV 250450Z AUTO 23011KT 9999 SCT200/// 11/08 Q1000,EGXV,2015-04-25T04:50:00Z,53.87,-0.45,11.0,8.0,230,11,,6.21,29.52756,,,TRUE,,,,,,,,,,,,,,,,,,,,,,,,,,,,METAR,6.0
EGXC 250450Z 20011KT 9999 FEW030 SCT150 BKN180 09/08 Q1003 BLU,EGXC,2015-04-25T04:50:00Z,53.1,-0.17,9.0,8.0,200,11,,6.21,29.616142,,,,,,,,,,,FEW,3000,SCT,15000,BKN,18000,,,VFR,,,,,,,,,,,,METAR,7.0
EGVO 250450Z 20010KT 5000 -DZ OVC003 10/10 Q1005 YLO2,EGVO,2015-04-25T04:50:00Z,51.23,-0.95,10.0,10.0,200,10,,3.11,29.675198,,,,,,,,,,-DZ,OVC,300,,,,,,,LIFR,,,,,,,,,,,,METAR,123.0
EGVN 250450Z 21005KT 9999 BKN007 OVC015 11/10 Q1004 GRN NOSIG,EGVN,2015-04-25T04:50:00Z,51.77,-1.58,11.0,10.0,210,5,,6.21,29.64567,,,,,,TRUE,,,,,BKN,700,OVC,1500,,,,,IFR,,,,,,,,,,,,METAR,88.0
EGQS 250450Z 29014KT 9999 SCT020 BKN025 BKN080 04/00 Q0998 WHT,EGQS,2015-04-25T04:50:00Z,57.72,-3.32,4.0,0.0,290,14,,6.21,29.468504,,,,,,,,,,,SCT,2000,BKN,2500,BKN,8000,,,MVFR,,,,,,,,,,,,METAR,13.0
EGQM 250450Z AUTO 23017G28KT 9999 FEW240/// 10/10 Q0996,EGQM,2015-04-25T04:50:00Z,55.42,-1.6,10.0,10.0,230,17,28,6.21,29.409449,,,TRUE,,,,,,,,,,,,,,,,,,,,,,,,,,,,METAR,23.0
EGQL 250450Z 30004KT 9999 -RA BKN041 06/05 Q0997 BLU,EGQL,2015-04-25T04:50:00Z,56.38,-2.87,6.0,5.0,300,4,,6.21,29.438976,,,,,,,,,,-RA,BKN,4100,,,,,,,VFR,,,,,,,,,,,,METAR,12.0
EGDR 250450Z 21008KT 0050 FG BKN000 10/10 Q1005 RED,EGDR,2015-04-25T04:50:00Z,50.08,-5.25,10.0,10.0,210,8,,0.03,29.675198,,,,,,,,,,FG,BKN,0,,,,,,,LIFR,,,,,,,,,,,,METAR,82.0
PGWT 250450Z 12015KT 7SM SCT014 SCT040 SCT100 29/25 A2976,PGWT,2015-04-25T04:50:00Z,14.98,145.62,29.0,25.0,120,15,,7.0,29.760826,,,,,,,,,,,SCT,1400,SCT,4000,SCT,10000,,,VFR,,,,,,,,,,,,METAR,82.0
KEFD 250450Z 23007KT 6SM BR BKN008 BKN025 25/24 A2982,KEFD,2015-04-25T04:50:00Z,29.6,-95.17,25.0,24.0,230,7,,6.0,29.819881,,,,,,,,,,BR,BKN,800,BKN,2500,,,,,IFR,,,,,,,,,,,,METAR,10.0
VNKT 250450Z 12010KT 8000 FEW020 SCT030 BKN100 20/11 Q1019 NOSIG,VNKT,2015-04-25T04:50:00Z,27.68,85.37,20.0,11.0,120,10,,4.97,30.088583,,,,,,TRUE,,,,,FEW,2000,SCT,3000,BKN,10000,,,MVFR,,,,,,,,,,,,METAR,1337.0
VGHS 250450Z 07013KT 4000 TS BKN010 FEW025CB OVC100 21/18 Q1014 TEMPO TSRA,VGHS,2015-04-25T04:50:00Z,23.85,90.4,21.0,18.0,70,13,,2.49,29.940945,,,,,,,,,,TS,BKN,1000,FEW,2500,OVC,10000,,,IFR,,,,,,,,,,,,METAR,10.0
VEPT 250450Z 14010G20KT 4000 HZ SCT018 BKN100 26/18 Q1013 NOSIG,VEPT,2015-04-25T04:50:00Z,25.6,85.08,26.0,18.0,140,10,20,2.49,29.911417,,,,,,TRUE,,,,HZ,SCT,1800,BKN,10000,,,,,IFR,,,,,,,,,,,,METAR,60.0
LTCP 250450Z 27003KT 240V300 CAVOK 09/02 Q1023,LTCP,2015-04-25T04:50:00Z,37.73,38.47,9.0,2.0,270,3,,6.21,30.206694,,,,,,,,,,,CAVOK,,,,,,,,VFR,,,,,,,,,,,,METAR,676.0
EGOV 250450Z AUTO 21017KT 3800 BR OVC002/// 10/09 Q1001,EGOV,2015-04-25T04:50:00Z,53.25,-4.53,10.0,9.0,210,17,,2.36,29.557087,,,TRUE,,,,,,,BR,,,,,,,,,,,,,,,,,,,,,METAR,11.0
EGOS 250450Z AUTO 21005KT 9999 SCT034/// SCT043/// BKN190/// 10/06 Q1002,EGOS,2015-04-25T04:50:00Z,52.8,-2.67,10.0,6.0,210,5,,6.21,29.586615,,,TRUE,,,,,,,,,,,,,,,,,,,,,,,,,,,,METAR,76.0
EGOP 250450Z AUTO 22016KT 6000 // OVC001/// 10/10 Q1004,EGOP,2015-04-25T04:50:00Z,51.72,-4.32,10.0,10.0,220,16,,3.73,29.64567,,,TRUE,,,,,,,,,,,,,,,,,,,,,,,,,,,,METAR,6.0
EGOM 250450Z AUTO 24017KT 7000 BR OVC003/// 08/08 Q0996 RERA,EGOM,2015-04-25T04:50:00Z,55.05,-2.55,8.0,8.0,240,17,,4.35,29.409449,,,TRUE,,,,,,,BR,,,,,,,,,,,,,,,,,,,,,METAR,325.0
EGDX 250450Z AUTO 24008KT 9999 FEW028/// BKN036/// BKN044/// 10/09 Q1004,EGDX,2015-04-25T04:50:00Z,51.4,-3.43,10.0,9.0,240,8,,6.21,29.64567,,,TRUE,,,,,,,,,,,,,,,,,,,,,,,,,,,,METAR,50.0
EGDM 250450Z AUTO 20006KT 5000 RA BKN003/// 10/10 Q1005,EGDM,2015-04-25T04:50:00Z,51.17,-1.75,10.0,10.0,200,6,,3.11,29.675198,,,TRUE,,,,,,,RA,,,,,,,,,,,,,,,,,,,,,METAR,124.0
EGYM 250450Z AUTO 21009KT 9999 FEW008/// BKN031/// 11/10 Q1004,EGYM,2015-04-25T04:50:00Z,52.63,0.57,11.0,10.0,210,9,,6.21,29.64567,,,TRUE,,,,,,,,,,,,,,,,,,,,,,,,,,,,METAR,23.0
EGYD 250450Z AUTO 22011KT 9999 // FEW031/// BKN160/// 09/07 Q1003,EGYD,2015-04-25T04:50:00Z,53.03,-0.5,9.0,7.0,220,11,,6.21,29.616142,,,TRUE,,,,,,,,,,,,,,,,,,,,,,,,,,,,METAR,67.0
EGXZ 250450Z AUTO 24015KT 9999 BKN017/// 11/08 Q1000,EGXZ,2015-04-25T04:50:00Z,54.2,-1.38,11.0,8.0,240,15,,6.21,29.52756,,,TRUE,,,,,,,,,,,,,,,,,,,,,,,,,,,,METAR,28.0
EGXU 250450Z AUTO 22009KT 9999 // BKN022/// BKN060/// 11/07 Q1000,EGXU,2015-04-25T04:50:00Z,54.05,-1.25,11.0,7.0,220,9,,6.21,29.52756,,,TRUE,,,,,,,,,,,,,,,,,,,,,,,,,,,,METAR,16.0
EGXT 250450Z AUTO 23009KT 9999 OVC029/// 11/09 Q1003,EGXT,2015-04-25T04:50:00Z,52.62,-0.47,11.0,9.0,230,9,,6.21,29.616142,,,TRUE,,,,,,,,,,,,,,,,,,,,,,,,,,,,METAR,84.0
EGXS 250450Z AUTO 20011KT 9999 // FEW031/// BKN200/// 10/07 Q1002,EGXS,2015-04-25T04:50:00Z,53.48,0.15,10.0,7.0,200,11,,6.21,29.586615,,,TRUE,,,,,,,,,,,,,,,,,,,,,,,,,,,,METAR,3.0
EGXP 250450Z AUTO 22011KT 9999 // SCT170/// 10/07 Q1001,EGXP,2015-04-25T04:50:00Z,53.3,-0.55,10.0,7.0,220,11,,6.21,29.557087,,,TRUE,,,,,,,,,,,,,,,,,,,,,,,,,,,,METAR,61.0
EGXE 250450Z AUTO 24013KT 9999 SCT018/// BKN060/// BKN240/// 10/08 Q0999 RERA,EGXE,2015-04-25T04:50:00Z,54.28,-1.52,10.0,8.0,240,13,,6.21,29.498032,,,TRUE,,,,,,,,,,,,,,,,,,,,,,,,,,,,METAR,40.0
EGXD 250450Z AUTO 25012KT 9999 // OVC018/// 11/07 Q1000,EGXD,2015-04-25T04:50:00Z,54.13,-1.42,11.0,7.0,250,12,,6.21,29.52756,,,TRUE,,,,,,,,,,,,,,,,,,,,,,,,,,,,METAR,35.0
EGWU 250450Z AUTO 23006KT 9999 // OVC007/// 11/10 Q1005,EGWU,2015-04-25T04:50:00Z,51.55,-0.42,11.0,10.0,230,6,,6.21,29.675198,,,TRUE,,,,,,,,,,,,,,,,,,,,,,,,,,,,METAR,40.0
EGVP 250450Z AUTO 22007KT 4200 // BKN003/// 10/10 Q1005,EGVP,2015-04-25T04:50:00Z,51.13,-1.57,10.0,10.0,220,7,,2.61,29.675198,,,TRUE,,,,,,,,,,,,,,,,,,,,,,,,,,,,METAR,91.0
EGUW 250450Z AUTO 21008KT 4100 -DZ OVC004/// 11/10 Q1004,EGUW,2015-04-25T04:50:00Z,52.12,0.97,11.0,10.0,210,8,,2.55,29.64567,,,TRUE,,,,,,,-DZ,,,,,,,,,,,,,,,,,,,,,METAR,87.0
EGUB 250450Z AUTO 19006KT 9999 // OVC009/// 11/10 Q1005,EGUB,2015-04-25T04:50:00Z,51.62,-1.07,11.0,10.0,190,6,,6.21,29.675198,,,TRUE,,,,,,,,,,,,,,,,,,,,,,,,,,,,METAR,63.0
EGQK 250450Z AUTO 29014KT //// // SCT023/// BKN080/// 04/01 Q0998,EGQK,2015-04-25T04:50:00Z,57.65,-3.57,4.0,1.0,290,14,,,29.468504,,,TRUE,,,,,,,,,,,,,,,,,,,,,,,,,,,,METAR,7.0
KIWA 250449Z VRB05KT 20SM SCT100 20/08 A2990,KIWA,2015-04-25T04:49:00Z,33.3,-111.65,20.0,8.0,0,5,,20.0,29.899607,,,,,,,,,,,SCT,10000,,,,,,,VFR,,,,,,,,,,,,METAR,412.0
MMLO 250449Z 02005KT 8SM SCT200 17/09 A3027 RMK 8/002,MMLO,2015-04-25T04:49:00Z,21.0,-101.47,17.0,9.0,20,5,,8.0,30.268702,,,,,,,,,,,SCT,20000,,,,,,,VFR,,,,,,,,,,,,METAR,1819.0
RJOF 250449Z 28005KT 9999 FEW035 24/04 Q1016 RMK 1CU035 A3002,RJOF,2015-04-25T04:49:00Z,34.02,131.55,24.0,4.0,280,5,,6.21,30.0,,,,,,,,,,,FEW,3500,,,,,,,VFR,,,,,,,,,,,,SPECI,5.0
MMTM 250448Z 12006KT 4SM SCT015 27/26 A2978 RMK 8/100 HZY,MMTM,2015-04-25T04:48:00Z,22.27,-97.87,27.0,26.0,120,6,,4.0,29.778543,,,,,,,,,,,SCT,1500,,,,,,,MVFR,,,,,,,,,,,,METAR,24.0
KJDN 250448Z AUTO 02006KT 11/04 A2960 RMK AO1 SLP022 T01060044,KJDN,2015-04-25T04:48:00Z,47.33,-106.95,10.6,4.4,20,6,,,29.601377,1002.2,,TRUE,TRUE,,,,,,,,,,,,,,,,,,,,,,,,,,,SPECI,801.0
KCQT 250447Z AUTO VRB03KT 10SM OVC050 16/11 A3001 RMK AO2 SLP162 T01560111,KCQT,2015-04-25T04:47:00Z,34.02,-118.28,15.6,11.1,0,3,,10.0,30.008858,1016.2,,TRUE,TRUE,,,,,,,OVC,5000,,,,,,,VFR,,,,,,,,,,,,SPECI,56.0
MMUN 250447Z 13008KT 7SM FEW015 27/25 A2994 RMK 8/500,MMUN,2015-04-25T04:47:00Z,21.02,-86.85,27.0,25.0,130,8,,7.0,29.940945,,,,,,,,,,,FEW,1500,,,,,,,VFR,,,,,,,,,,,,METAR,10.0
MMTG 250447Z 00000KT 6SM SCT090 28/18 A2990 RMK 8/030 FU HZ ARND,MMTG,2015-04-25T04:47:00Z,16.57,-93.03,28.0,18.0,0,0,,6.0,29.899607,,,,,,,,,,,SCT,9000,,,,,,,VFR,,,,,,,,,,,,METAR,528.0
MMMT 250447Z 36006KT 10SM SKC 29/20 A2976,MMMT,2015-04-25T04:47:00Z,18.1,-94.57,29.0,20.0,360,6,,10.0,29.760826,,,,,,,,,,,SKC,,,,,,,,VFR,,,,,,,,,,,,METAR,40.0
KMHR 250446Z 15005KT 10SM BKN044 OVC050 11/09 A2997,KMHR,2015-04-25T04:46:00Z,38.53,-121.28,11.0,9.0,150,5,,10.0,29.970472,,,,,,,,,,,BKN,4400,OVC,5000,,,,,VFR,,,,,,,,,,,,METAR,29.0
MMCZ 250446Z 15005KT 7SM SKC 24/24 A2995 RMK SC,MMCZ,2015-04-25T04:46:00Z,20.52,-86.92,24.0,24.0,150,5,,7.0,29.949802,,,,,,,,,,,SKC,,,,,,,,VFR,,,,,,,,,,,,METAR,5.0
MMMD 250445Z 14018KT 7SM SKC 30/21 A2988,MMMD,2015-04-25T04:45:00Z,20.95,-89.65,30.0,21.0,140,18,,7.0,29.878937,,,,,,,,,,,SKC,,,,,,,,VFR,,,,,,,,,,,,METAR,10.0
MMQT 250445Z 00000KT 6SM SCT020 SCT060 20/10 A3024 RMK 8/430,MMQT,2015-04-25T04:45:00Z,20.62,-100.18,20.0,10.0,0,0,,6.0,30.239174,,,,,,,,,,,SCT,2000,SCT,6000,,,,,VFR,,,,,,,,,,,,METAR,1813.0
MMTC 250445Z 24012KT 10SM BKN110 29/03 A2996 RMK 8/070,MMTC,2015-04-25T04:45:00Z,25.57,-103.4,29.0,3.0,240,12,,10.0,29.958662,,,,,,,,,,,BKN,11000,,,,,,,VFR,,,,,,,,,,,,METAR,1124.0
LHBC 250445Z 15004KT CAVOK 08/06 Q1017,LHBC,2015-04-25T04:45:00Z,46.68,21.17,8.0,6.0,150,4,,6.21,30.029528,,,,,,,,,,,CAVOK,,,,,,,,VFR,,,,,,,,,,,,METAR,86.0
MMSP 250443Z 16005KT 10SM SKC 19/07 A3018,MMSP,2015-04-25T04:43:00Z,22.25,-100.93,19.0,7.0,160,5,,10.0,30.180119,,,,,,,,,,,SKC,,,,,,,,VFR,,,,,,,,,,,,METAR,1903.0
MMPR 250443Z 16003KT 12SM BKN090 25/22 A2989 RMK 8/070,MMPR,2015-04-25T04:43:00Z,20.67,-105.25,25.0,22.0,160,3,,12.0,29.890747,,,,,,,,,,,BKN,9000,,,,,,,VFR,,,,,,,,,,,,SPECI,6.0
MMMM 250443Z 29003KT 7SM SKC 17/07 A3022,MMMM,2015-04-25T04:43:00Z,19.85,-101.02,17.0,7.0,290,3,,7.0,30.221457,,,,,,,,,,,SKC,,,,,,,,VFR,,,,,,,,,,,,METAR,1833.0
MMTO 250443Z 34003KT 6SM SKC 14/06 A3040 RMK HZY,MMTO,2015-04-25T04:43:00Z,19.35,-99.57,14.0,6.0,340,3,,6.0,30.398623,,,,,,,,,,,SKC,,,,,,,,VFR,,,,,,,,,,,,METAR,2576.0
MMRX 250443Z 06012KT 7SM -RA SCT015 OVC070 20/18 A2968 RMK 62035 8/46/ CB LTGIC N OCNL -RA,MMRX,2015-04-25T04:43:00Z,26.02,-98.22,20.0,18.0,60,12,,7.0,29.681103,,,,,,,,,,-RA,SCT,1500,OVC,7000,,,,,VFR,,,,,,,,,,,,METAR,39.0
MMSD 250443Z 27002KT 12SM SKC 20/14 A2995,MMSD,2015-04-25T04:43:00Z,23.13,-109.7,20.0,14.0,270,2,,12.0,29.949802,,,,,,,,,,,SKC,,,,,,,,VFR,,,,,,,,,,,,METAR,109.0
MMVA 250442Z 09010KT 6SM SKC 30/22 A2978 RMK HZY,MMVA,2015-04-25T04:42:00Z,18.0,-92.82,30.0,22.0,90,10,,6.0,29.778543,,,,,,,,,,,SKC,,,,,,,,VFR,,,,,,,,,,,,METAR,13.0
MMPB 250442Z 18013KT 10SM SKC 19/10 A3030 RMK AC,MMPB,2015-04-25T04:42:00Z,19.17,-98.37,19.0,10.0,180,13,,10.0,30.301182,,,,,,,,,,,SKC,,,,,,,,VFR,,,,,,,,,,,,METAR,2244.0
MMAA 250442Z 28007KT 7SM SKC 27/25 A2988 RMK HZY,MMAA,2015-04-25T04:42:00Z,16.75,-99.75,27.0,25.0,280,7,,7.0,29.878937,,,,,,,,,,,SKC,,,,,,,,VFR,,,,,,,,,,,,METAR,5.0
MMMX 250442Z 23003KT 10SM SKC 21/07 A3030 NOSIG RMK HZY,MMMX,2015-04-25T04:42:00Z,19.42,-99.08,21.0,7.0,230,3,,10.0,30.301182,,,,,,TRUE,,,,,SKC,,,,,,,,VFR,,,,,,,,,,,,METAR,2238.0
MMMY 250442Z 00000KT 7SM SCT080 23/19 A2976 RMK 8/060,MMMY,2015-04-25T04:42:00Z,25.77,-100.08,23.0,19.0,0,0,,7.0,29.760826,,,,,,,,,,,SCT,8000,,,,,,,VFR,,,,,,,,,,,,METAR,387.0
MMTP 250441Z 00000KT 10SM FEW150 30/26 A2992 RMK 8/030,MMTP,2015-04-25T04:41:00Z,14.77,-92.37,30.0,26.0,0,0,,10.0,29.920275,,,,,,,,,,,FEW,15000,,,,,,,VFR,,,,,,,,,,,,METAR,29.0
MMGL 250441Z 27006KT 10SM BKN080 21/09 A3018 RMK 8/030,MMGL,2015-04-25T04:41:00Z,20.52,-103.32,21.0,9.0,270,6,,10.0,30.180119,,,,,,,,,,,BKN,8000,,,,,,,VFR,,,,,,,,,,,,SPECI,1528.0
MMOX 250441Z 14007KT 7SM SKC 22/14 A3020 RMK HZY,MMOX,2015-04-25T04:41:00Z,17.0,-96.72,22.0,14.0,140,7,,7.0,30.200787,,,,,,,,,,,SKC,,,,,,,,VFR,,,,,,,,,,,,METAR,1528.0
MMHO 250441Z 17004KT 10SM SKC 20/06 A2996,MMHO,2015-04-25T04:41:00Z,29.08,-111.05,20.0,6.0,170,4,,10.0,29.958662,,,,,,,,,,,SKC,,,,,,,,VFR,,,,,,,,,,,,METAR,184.0
RJFY 250440Z 25008KT 9999 FEW020 23/10 Q1017 REVA RMK 1CU020 A3004,RJFY,2015-04-25T04:40:00Z,31.37,130.82,23.0,10.0,250,8,,6.21,30.029528,,,,,,,,,,,FEW,2000,,,,,,,VFR,,,,,,,,,,,,SPECI,68.0
MMZC 250440Z 28015KT 10SM SKC 18/04 A3024,MMZC,2015-04-25T04:40:00Z,22.9,-102.68,18.0,4.0,280,15,,10.0,30.239174,,,,,,,,,,,SKC,,,,,,,,VFR,,,,,,,,,,,,METAR,2177.0
MMAS 250440Z 00000KT 10SM SKC 17/04 A3022 RMK ISOL SC CI,MMAS,2015-04-25T04:40:00Z,21.7,-102.32,17.0,4.0,0,0,,10.0,30.221457,,,,,,,,,,,SKC,,,,,,,,VFR,,,,,,,,,,,,SPECI,1863.0
MMCU 250440Z 25006KT 10SM SKC 17/M02 A3003,MMCU,2015-04-25T04:40:00Z,28.7,-105.97,17.0,-2.0,250,6,,10.0,30.029528,,,,,,,,,,,SKC,,,,,,,,VFR,,,,,,,,,,,,METAR,1372.0
MMAN 250440Z 12009KT 5SM SCT070 SCT200 24/21 A2980 RMK 8/063 HZY,MMAN,2015-04-25T04:40:00Z,25.87,-100.23,24.0,21.0,120,9,,5.0,29.799213,,,,,,,,,,,SCT,7000,SCT,20000,,,,,MVFR,,,,,,,,,,,,METAR,448.0
MMML 250440Z 31010KT 10SM SKC 19/09 A2989,MMML,2015-04-25T04:40:00Z,32.62,-115.23,19.0,9.0,310,10,,10.0,29.890747,,,,,,,,,,,SKC,,,,,,,,VFR,,,,,,,,,,,,METAR,22.0
MMLP 250440Z 00000KT 10SM SKC 20/13 A2997 RMK ISOL CI,MMLP,2015-04-25T04:40:00Z,24.07,-110.37,20.0,13.0,0,0,,10.0,29.970472,,,,,,,,,,,SKC,,,,,,,,VFR,,,,,,,,,,,,METAR,21.0
VAAH 250440Z 32004KT 4000 FU NSC 31/22 Q1009 BECMG 5000,VAAH,2015-04-25T04:40:00Z,23.07,72.62,31.0,22.0,320,4,,2.49,29.793306,,,,,,,,,,FU,,,,,,,,,,,,,,,,,,,,,SPECI,55.0
VOHY 250440Z 24008KT 6000 FEW020 32/16 Q1013 NOSIG,VOHY,2015-04-25T04:40:00Z,17.45,78.45,32.0,16.0,240,8,,3.73,29.911417,,,,,,TRUE,,,,,FEW,2000,,,,,,,MVFR,,,,,,,,,,,,METAR,545.0
