No errors
No warnings
200 ms
data source=metars
4537 results
raw_text,station_id,observation_time,latitude,longitude,temp_c,dewpoint_c,wind_dir_degrees,wind_speed_kt,wind_gust_kt,visibility_statute_mi,altim_in_hg,sea_level_pressure_mb,corrected,auto,auto_station,maintenance_indicator_on,no_signal,lightning_sensor_off,freezing_rain_sensor_off,present_weather_sensor_off,wx_string,sky_cover,cloud_base_ft_agl,sky_cover,cloud_base_ft_agl,sky_cover,cloud_base_ft_agl,sky_cover,cloud_base_ft_agl,flight_category,three_hr_pressure_tendency_mb,maxT_c,minT_c,maxT24hr_c,minT24hr_c,precip_in,pcp3hr_in,pcp6hr_in,pcp24hr_in,snow_in,vert_vis_ft,metar_type,elevation_m
KPHN 210639Z AUTO 17010G14KT 10SM -SN BKN028 OVC034 M11/M16 A3007 RMK AO2,KPHN,2015-02-21T06:39:00Z,42.92,-82.52,-11.0,-16.0,170,10,14,10.0,30.070866,,,TRUE,TRUE,,,,,,-SN,BKN,2800,OVC,3400,,,,,MVFR,,,,,,,,,,,,METAR,198.0
CYPY 210638Z AUTO 00000KT 9SM CLR M33/M37 A3057 RMK SLP387,CYPY,2015-02-21T06:38:00Z,58.77,-111.12,-33.0,-37.0,0,0,,9.0,30.569881,1038.7,,TRUE,,,,,,,,CLR,,,,,,,,VFR,,,,,,,,,,,,SPECI,232.0
CYKF 210638Z AUTO 13005KT 4SM -SN BKN030 OVC050 M17/M21 A3010 RMK SLP222,CYKF,2015-02-21T06:38:00Z,43.47,-80.38,-17.0,-21.0,130,5,,4.0,30.100393,1022.2,,TRUE,,,,,,,-SN,BKN,3000,OVC,5000,,,,,MVFR,,,,,,,,,,,,SPECI,317.0
CZVL 210638Z AUTO 07005KT 2 1/2SM -SN FEW017 BKN027 OVC037 M07/M08 A3028 RMK VIS VRB 1 3/4-3 SLP294,CZVL,2015-02-21T06:38:00Z,53.67,-113.85,-7.0,-8.0,70,5,,2.5,30.280512,1029.4,,TRUE,,,,,,,-SN,FEW,1700,BKN,2700,OVC,3700,,,IFR,,,,,,,,,,,,SPECI,686.0
EKCH 210638Z 16004KT 1600 -RA BKN002 04/04 Q0993 TEMPO 1000,EKCH,2015-02-21T06:38:00Z,55.62,12.67,4.0,4.0,160,4,,0.99,29.320866,,,,,,,,,,-RA,BKN,200,,,,,,,LIFR,,,,,,,,,,,,SPECI,5.0
KSLH 210638Z AUTO 18007KT 7SM -SN OVC039 M11/M15 A2989 RMK AO2 T11161147,KSLH,2015-02-21T06:38:00Z,45.65,-84.52,-11.6,-14.7,180,7,,7.0,29.890747,,,TRUE,TRUE,,,,,,-SN,OVC,3900,,,,,,,VFR,,,,,,,,,,,,METAR,195.0
LFMH 210637Z 35015KT 3000 RA SCT010 BKN025 04/02 Q1002 NOSIG,LFMH,2015-02-21T06:37:00Z,45.52,4.28,4.0,2.0,350,15,,1.86,29.586615,,,,,,TRUE,,,,RA,SCT,1000,BKN,2500,,,,,IFR,,,,,,,,,,,,METAR,402.0
CYUX 210637Z AUTO 34016KT 6SM HZ BKN004 M36/M40 A3041 RMK SLP300,CYUX,2015-02-21T06:37:00Z,68.77,-81.25,-36.0,-40.0,340,16,,6.0,30.410433,1030.0,,TRUE,,,,,,,HZ,BKN,400,,,,,,,LIFR,,,,,,,,,,,,SPECI,8.0
YPLM 210637Z AUTO 22018G29KT 9999 // NCD 44/11 Q1002,YPLM,2015-02-21T06:37:00Z,-22.22,114.07,44.0,11.0,220,18,29,6.21,29.586615,,,TRUE,,,,,,,,,,,,,,,,,,,,,,,,,,,,SPECI,6.0
K14Y 210637Z AUTO 32008KT 10SM SCT090 SCT110 M12/M13 A2988 RMK AO2,K14Y,2015-02-21T06:37:00Z,45.9,-94.87,-12.0,-13.0,320,8,,10.0,29.878937,,,TRUE,TRUE,,,,,,,SCT,9000,SCT,11000,,,,,VFR,,,,,,,,,,,,METAR,406.0
KSJX 210637Z AUTO 26010KT 7SM -SN SCT016 SCT023 OVC030 M08/M10 A2986 RMK AO2 T10801104,KSJX,2015-02-21T06:37:00Z,45.7,-85.57,-8.0,-10.4,260,10,,7.0,29.861221,,,TRUE,TRUE,,,,,,-SN,SCT,1600,SCT,2300,OVC,3000,,,MVFR,,,,,,,,,,,,METAR,204.0
KCOQ 210637Z AUTO 32010G17KT 10SM -SN OVC026 M08/M12 A2981 RMK AO2,KCOQ,2015-02-21T06:37:00Z,46.7,-92.5,-8.0,-12.0,320,10,17,10.0,29.811024,,,TRUE,TRUE,,,,,,-SN,OVC,2600,,,,,,,MVFR,,,,,,,,,,,,METAR,390.0
PADK 210636Z AUTO 35021G27KT 10SM SCT029 OVC035 01/M06 A2961 RMK AO1,PADK,2015-02-21T06:36:00Z,51.88,-176.65,1.0,-6.0,350,21,27,10.0,29.610237,,,TRUE,TRUE,,,,,,,SCT,2900,OVC,3500,,,,,VFR,,,,,,,,,,,,METAR,4.0
PAGM 210636Z AUTO 03028KT 1SM OVC013 M13/M16 A2981 RMK AO1,PAGM,2015-02-21T06:36:00Z,63.77,-171.73,-13.0,-16.0,30,28,,1.0,29.811024,,,TRUE,TRUE,,,,,,,OVC,1300,,,,,,,IFR,,,,,,,,,,,,METAR,8.0
PAFM 210636Z AUTO 13009G14KT 10SM OVC034 M01/M04 A3010 RMK AO1,PAFM,2015-02-21T06:36:00Z,67.1,-157.85,-1.0,-4.0,130,9,14,10.0,30.100393,,,TRUE,TRUE,,,,,,,OVC,3400,,,,,,,VFR,,,,,,,,,,,,METAR,88.0
PAFE 210636Z AUTO 08005KT 10SM CLR 01/00 A3047 RMK AO1,PAFE,2015-02-21T06:36:00Z,56.97,-133.92,1.0,0.0,80,5,,10.0,30.469488,,,TRUE,TRUE,,,,,,,CLR,,,,,,,,VFR,,,,,,,,,,,,METAR,9.0
PABV 210636Z AUTO 20004KT 10SM OVC110 01/M04 A3008 RMK AO1,PABV,2015-02-21T06:36:00Z,61.42,-149.52,1.0,-4.0,200,4,,10.0,30.079725,,,TRUE,TRUE,,,,,,,OVC,11000,,,,,,,VFR,,,,,,,,,,,,METAR,29.0
KNPA 210636Z AUTO 16020G25KT 10SM SCT027 14/09 A3021 RMK AO2 PK WND 16026/0613 T01440094 $,KNPA,2015-02-21T06:36:00Z,30.35,-87.32,14.4,9.4,160,20,25,10.0,30.209646,,,TRUE,TRUE,TRUE,,,,,,SCT,2700,,,,,,,VFR,,,,,,,,,,,,METAR,9.0
KOQT 210636Z AUTO 00000KT FZRA OVC009 M03/M05 A3025 RMK AO2 UPE19FZRAB19 P0005 I1001 T10331050 $,KOQT,2015-02-21T06:36:00Z,36.02,-84.23,-3.3,-5.0,0,0,,,30.250984,,,TRUE,TRUE,TRUE,,,,,FZRA,OVC,900,,,,,,,,,,,,,0.05,,,,,,METAR,277.0
PAHP 210636Z AUTO 04017KT 10SM SCT038 01/M02 A2961 RMK AO1,PAHP,2015-02-21T06:36:00Z,61.53,-166.15,1.0,-2.0,40,17,,10.0,29.610237,,,TRUE,TRUE,,,,,,,SCT,3800,,,,,,,VFR,,,,,,,,,,,,METAR,5.0
PAGL 210636Z AUTO 07027G47KT 10SM FEW075 02/M02 A2985 RMK AO1,PAGL,2015-02-21T06:36:00Z,64.55,-163.03,2.0,-2.0,70,27,47,10.0,29.84941,,,TRUE,TRUE,,,,,,,FEW,7500,,,,,,,VFR,,,,,,,,,,,,METAR,8.0
PAHL 210636Z AUTO 07011KT 10SM BKN080 M03/M06 A3002 RMK AO1,PAHL,2015-02-21T06:36:00Z,65.7,-156.35,-3.0,-6.0,70,11,,10.0,30.02067,,,TRUE,TRUE,,,,,,,BKN,8000,,,,,,,VFR,,,,,,,,,,,,METAR,65.0
KQVF 210636Z AUTO VRB03KT 9999 FEW030 30/21 A2992 RMK AO2 SLP131 $,KQVF,2015-02-21T06:36:00Z,100.65,-1000.65,30.0,21.0,0,3,,6.21,29.920275,1013.1,,TRUE,TRUE,TRUE,,,,,,FEW,3000,,,,,,,VFR,,,,,,,,,,,,SPECI,999.0
KQBL 210636Z AUTO 14004G14KT 10SM SCT025 BKN030 13/08 A3027 RMK AO2,KQBL,2015-02-21T06:36:00Z,100.65,-1000.65,13.0,8.0,140,4,14,10.0,30.268702,,,TRUE,TRUE,,,,,,,SCT,2500,BKN,3000,,,,,MVFR,,,,,,,,,,,,SPECI,999.0
PAGN 210636Z AUTO 00000KT 10SM SCT004 OVC010 01/01 A3044 RMK AO2 TSNO CIG 009V013 $,PAGN,2015-02-21T06:36:00Z,57.5,-134.58,1.0,1.0,0,0,,10.0,30.43996,,,TRUE,TRUE,TRUE,,TRUE,,,,SCT,400,OVC,1000,,,,,MVFR,,,,,,,,,,,,SPECI,2.0
KXNA 210636Z AUTO 33009KT 3/4SM R17/2600VP6000FT -TSRA BR BKN003 OVC012 03/02 A2972 RMK AO2 LTG DSNT E AND W AND NW UPB16E19RAB19 TSB24 P0015 T00280022,KXNA,2015-02-21T06:36:00Z,36.28,-94.3,2.8,2.2,330,9,,0.75,29.719488,,,TRUE,TRUE,,,,,,-TSRA BR,BKN,300,OVC,1200,,,,,LIFR,,,,,,0.15,,,,,,SPECI,392.0
KPAH 210636Z AUTO 14010KT 2 1/2SM FZRA BR OVC009 01/M01 A2989 RMK AO2 PRESFR P0019 I1006 T00061011,KPAH,2015-02-21T06:36:00Z,37.07,-88.77,0.6,-1.1,140,10,,2.5,29.890747,,,TRUE,TRUE,,,,,,FZRA BR,OVC,900,,,,,,,IFR,,,,,,0.19,,,,,,SPECI,119.0
KHON 210636Z AUTO 01009KT 6SM BR SCT009 BKN034 OVC110 M05/M07 A2992 RMK AO2 SNB21E30 P0000 T10501067,KHON,2015-02-21T06:36:00Z,44.38,-98.23,-5.0,-6.7,10,9,,6.0,29.920275,,,TRUE,TRUE,,,,,,BR,SCT,900,BKN,3400,OVC,11000,,,VFR,,,,,,0.0050,,,,,,SPECI,390.0
KCVG 210636Z 15012KT 10SM -FZDZ OVC016 M05/M13 A3001 RMK AO2 P0000,KCVG,2015-02-21T06:36:00Z,39.05,-84.67,-5.0,-13.0,150,12,,10.0,30.008858,,,,TRUE,,,,,,-FZDZ,OVC,1600,,,,,,,MVFR,,,,,,0.0050,,,,,,SPECI,269.0
KATL 210636Z 12008KT 10SM -SNPL OVC041 01/M12 A3033 RMK AO2 PLB00E20B36 PCPN VRY LGT P0000,KATL,2015-02-21T06:36:00Z,33.63,-84.45,1.0,-12.0,120,8,,10.0,30.33071,,,,TRUE,,,,,,-SN -PL,OVC,4100,,,,,,,VFR,,,,,,0.0050,,,,,,SPECI,296.0
PFYU 210636Z 00000KT 10SM CLR M16/M18 A3025 RMK AO1,PFYU,2015-02-21T06:36:00Z,66.57,-145.27,-16.0,-18.0,0,0,,10.0,30.250984,,,,TRUE,,,,,,,CLR,,,,,,,,VFR,,,,,,,,,,,,METAR,131.0
PAZK 210636Z AUTO 06007KT 1/2SM OVC002 M08/M08 A3010 RMK AO1,PAZK,2015-02-21T06:36:00Z,61.93,-147.17,-8.0,-8.0,60,7,,0.5,30.100393,,,TRUE,TRUE,,,,,,,OVC,200,,,,,,,LIFR,,,,,,,,,,,,METAR,1003.0
PAWS 210636Z AUTO 07006KT 10SM OVC090 03/M08 A3005 RMK AO1,PAWS,2015-02-21T06:36:00Z,61.57,-149.53,3.0,-8.0,70,6,,10.0,30.050198,,,TRUE,TRUE,,,,,,,OVC,9000,,,,,,,VFR,,,,,,,,,,,,METAR,107.0
PAWG 210636Z 14005KT 1/2SM SCT000 02/M01 A3046 RMK AO1 WEA: FG FG SCT000 (MCQ),PAWG,2015-02-21T06:36:00Z,56.48,-132.37,2.0,-1.0,140,5,,0.5,30.46063,,,,TRUE,,,,,,FG,SCT,0,,,,,,,LIFR,,,,,,,,,,,,METAR,11.0
PAUN 210636Z AUTO 09021KT 10SM CLR 01/M03 A2983 RMK AO1,PAUN,2015-02-21T06:36:00Z,63.88,-160.8,1.0,-3.0,90,21,,10.0,29.828741,,,TRUE,TRUE,,,,,,,CLR,,,,,,,,VFR,,,,,,,,,,,,METAR,6.0
PATG 210636Z AUTO 06023G30KT 10SM BKN060 OVC070 04/01 A2942 RMK AO1,PATG,2015-02-21T06:36:00Z,59.05,-160.38,4.0,1.0,60,23,30,10.0,29.421259,,,TRUE,TRUE,,,,,,,BKN,6000,OVC,7000,,,,,VFR,,,,,,,,,,,,METAR,4.0
PASX 210636Z AUTO 04009G15KT 10SM OVC085 04/M02 A2997 RMK AO1,PASX,2015-02-21T06:36:00Z,60.48,-151.03,4.0,-2.0,40,9,15,10.0,29.970472,,,TRUE,TRUE,,,,,,,OVC,8500,,,,,,,VFR,,,,,,,,,,,,METAR,32.0
PASM 210636Z AUTO 08020G25KT 10SM CLR 01/M04 A2962 RMK AO1,PASM,2015-02-21T06:36:00Z,62.07,-163.3,1.0,-4.0,80,20,25,10.0,29.619095,,,TRUE,TRUE,,,,,,,CLR,,,,,,,,VFR,,,,,,,,,,,,METAR,92.0
PASL 210636Z AUTO 00000KT 10SM BKN050 OVC065 02/M06 A2977 RMK AO1,PASL,2015-02-21T06:36:00Z,61.72,-157.15,2.0,-6.0,0,0,,10.0,29.769686,,,TRUE,TRUE,,,,,,,BKN,5000,OVC,6500,,,,,VFR,,,,,,,,,,,,METAR,55.0
PASK 210636Z AUTO 04011KT 10SM BKN030 OVC039 M03/M04 A3004 RMK AO1,PASK,2015-02-21T06:36:00Z,66.6,-160.0,-3.0,-4.0,40,11,,10.0,30.041338,,,TRUE,TRUE,,,,,,,BKN,3000,OVC,3900,,,,,MVFR,,,,,,,,,,,,METAR,8.0
PASD 210636Z AUTO 05004KT 10SM BKN013 BKN021 OVC038 06/06 A2907 RMK AO1 P0001,PASD,2015-02-21T06:36:00Z,55.33,-160.5,6.0,6.0,50,4,,10.0,29.069881,,,TRUE,TRUE,,,,,,,BKN,1300,BKN,2100,OVC,3800,,,MVFR,,,,,,0.01,,,,,,METAR,7.0
PASA 210636Z AUTO 00000KT 1 1/4SM OVC014 M12/ A2982 RMK AO1,PASA,2015-02-21T06:36:00Z,63.68,-170.5,-12.0,,0,0,,1.25,29.819881,,,TRUE,TRUE,,,,,,,OVC,1400,,,,,,,IFR,,,,,,,,,,,,METAR,16.0
PARC 210636Z AUTO 00000KT 10SM CLR M15/M16 A3012 RMK AO1,PARC,2015-02-21T06:36:00Z,68.12,-145.58,-15.0,-16.0,0,0,,10.0,30.121063,,,TRUE,TRUE,,,,,,,CLR,,,,,,,,VFR,,,,,,,,,,,,METAR,636.0
PAPO 210636Z AUTO 36007KT 6SM SCT020 BKN029 BKN120 M12/M16 A3007 RMK AO1,PAPO,2015-02-21T06:36:00Z,68.35,-166.8,-12.0,-16.0,360,7,,6.0,30.070866,,,TRUE,TRUE,,,,,,,SCT,2000,BKN,2900,BKN,12000,,,MVFR,,,,,,,,,,,,METAR,6.0
PAPH 210636Z AUTO 00000KT 10SM FEW043 09/01 A2917 RMK AO1,PAPH,2015-02-21T06:36:00Z,56.95,-158.62,9.0,1.0,0,0,,10.0,29.170275,,,TRUE,TRUE,,,,,,,FEW,4300,,,,,,,VFR,,,,,,,,,,,,METAR,29.0
PAPG 210636Z 25003KT 7SM FEW001 OVC011 00/M02 A3044 RMK AO1,PAPG,2015-02-21T06:36:00Z,56.82,-132.97,0.0,-2.0,250,3,,7.0,30.43996,,,,TRUE,,,,,,,FEW,100,OVC,1100,,,,,MVFR,,,,,,,,,,,,METAR,15.0
PANV 210636Z AUTO 04014G20KT 10SM OVC080 00/M02 A2972 RMK AO1,PANV,2015-02-21T06:36:00Z,62.65,-160.18,0.0,-2.0,40,14,20,10.0,29.719488,,,TRUE,TRUE,,,,,,,OVC,8000,,,,,,,VFR,,,,,,,,,,,,METAR,99.0
PANI 210636Z AUTO 10014G20KT 10SM FEW090 OVC110 07/M07 A2964 RMK AO1,PANI,2015-02-21T06:36:00Z,61.58,-159.53,7.0,-7.0,100,14,20,10.0,29.639763,,,TRUE,TRUE,,,,,,,FEW,9000,OVC,11000,,,,,VFR,,,,,,,,,,,,METAR,26.0
PAMY 210636Z AUTO 04011KT 10SM CLR M01/M04 A2952 RMK AO1,PAMY,2015-02-21T06:36:00Z,60.37,-166.27,-1.0,-4.0,40,11,,10.0,29.518702,,,TRUE,TRUE,,,,,,,CLR,,,,,,,,VFR,,,,,,,,,,,,METAR,13.0
PAMM 210636Z AUTO 09004KT 10SM CLR 03/01 A3044 RMK AO1,PAMM,2015-02-21T06:36:00Z,55.13,-131.58,3.0,1.0,90,4,,10.0,30.43996,,,TRUE,TRUE,,,,,,,CLR,,,,,,,,VFR,,,,,,,,,,,,METAR,1.0
PAMH 210636Z AUTO 00000KT 10SM CLR M10/M11 A3000 RMK AO1,PAMH,2015-02-21T06:36:00Z,63.9,-152.32,-10.0,-11.0,0,0,,10.0,30.0,,,TRUE,TRUE,,,,,,,CLR,,,,,,,,VFR,,,,,,,,,,,,METAR,214.0
PAMD 210636Z 09034G41KT 2SM SCT015 OVC045 05/04 A3004 RMK AO1,PAMD,2015-02-21T06:36:00Z,59.43,-146.3,5.0,4.0,90,34,41,2.0,30.041338,,,,TRUE,,,,,,,SCT,1500,OVC,4500,,,,,IFR,,,,,,,,,,,,METAR,14.0
PAKP 210636Z AUTO 18009KT 10SM OVC032 M06/M10 A3005 RMK AO1,PAKP,2015-02-21T06:36:00Z,68.13,-151.73,-6.0,-10.0,180,9,,10.0,30.050198,,,TRUE,TRUE,,,,,,,OVC,3200,,,,,,,VFR,,,,,,,,,,,,METAR,642.0
PAKK 210636Z AUTO 02008KT 10SM CLR A2984 RMK AO1,PAKK,2015-02-21T06:36:00Z,64.93,-161.15,,,20,8,,10.0,29.840551,,,TRUE,TRUE,,,,,,,CLR,,,,,,,,VFR,,,,,,,,,,,,METAR,47.0
PAJC 210636Z AUTO 12018G24KT 3SM BKN012 OVC120 06/03 A2923 RMK AO1 P0007,PAJC,2015-02-21T06:36:00Z,56.32,-158.37,6.0,3.0,120,18,24,3.0,29.22933,,,TRUE,TRUE,,,,,,,BKN,1200,OVC,12000,,,,,MVFR,,,,,,0.07,,,,,,METAR,15.0
PAIN 210636Z AUTO 24003KT 10SM CLR 01/M06 A3007 RMK AO1,PAIN,2015-02-21T06:36:00Z,63.73,-148.92,1.0,-6.0,240,3,,10.0,30.070866,,,TRUE,TRUE,,,,,,,CLR,,,,,,,,VFR,,,,,,,,,,,,METAR,524.0
PAII 210636Z AUTO 00000KT 10SM CLR 04/01 A2938 RMK AO1,PAII,2015-02-21T06:36:00Z,58.18,-157.38,4.0,1.0,0,0,,10.0,29.379921,,,TRUE,TRUE,,,,,,,CLR,,,,,,,,VFR,,,,,,,,,,,,METAR,30.0
PAHY 210636Z AUTO 3SM FEW002 01/M02 A3041 RMK AO1,PAHY,2015-02-21T06:36:00Z,55.2,-132.83,1.0,-2.0,,,,3.0,30.410433,,,TRUE,TRUE,,,,,,,FEW,200,,,,,,,MVFR,,,,,,,,,,,,METAR,1.0
KMNH 210636Z AUTO 01004KT 10SM -SN SCT007 OVC012 M02/M03 A2993 RMK AO2,KMNH,2015-02-21T06:36:00Z,39.22,-104.65,-2.0,-3.0,10,4,,10.0,29.929134,,,TRUE,TRUE,,,,,,-SN,SCT,700,OVC,1200,,,,,MVFR,,,,,,,,,,,,METAR,2152.0
KNDZ 210636Z AUTO 14011KT 10SM BKN029 12/07 A3024 RMK AO2 T01220072 $ ,KNDZ,2015-02-21T06:36:00Z,30.7,-87.02,12.2,7.2,140,11,,10.0,30.239174,,,TRUE,TRUE,TRUE,,,,,,BKN,2900,,,,,,,MVFR,,,,,,,,,,,,SPECI,54.0
K04V 210636Z AUTO 33007KT 10SM CLR M04/M07 A2991 RMK AO2,K04V,2015-02-21T06:36:00Z,38.1,-106.17,-4.0,-7.0,330,7,,10.0,29.911417,,,TRUE,TRUE,,,,,,,CLR,,,,,,,,VFR,,,,,,,,,,,,METAR,2385.0
K4BM 210636Z AUTO 30007KT 280V350 10SM BKN100 M10/M13 A2991 RMK AO2,K4BM,2015-02-21T06:36:00Z,39.05,-105.52,-10.0,-13.0,300,7,,10.0,29.911417,,,TRUE,TRUE,,,,,,,BKN,10000,,,,,,,VFR,,,,,,,,,,,,METAR,3438.0
KBDU 210636Z AUTO 29003KT 5SM -SN SCT012 BKN018 OVC022 00/00 A2996 RMK AO2,KBDU,2015-02-21T06:36:00Z,40.03,-105.23,0.0,0.0,290,3,,5.0,29.958662,,,TRUE,TRUE,,,,,,-SN,SCT,1200,BKN,1800,OVC,2200,,,MVFR,,,,,,,,,,,,METAR,1612.0
KETH 210636Z AUTO 34013G17KT 10SM OVC022 M11/M13 A2998 RMK AO2,KETH,2015-02-21T06:36:00Z,45.78,-96.55,-11.0,-13.0,340,13,17,10.0,29.97933,,,TRUE,TRUE,,,,,,,OVC,2200,,,,,,,MVFR,,,,,,,,,,,,METAR,313.0
CYPX 210636Z AUTO 10012KT 9SM BKN026 M28/M31 A2992 RMK SLP134,CYPX,2015-02-21T06:36:00Z,60.03,-77.27,-28.0,-31.0,100,12,,9.0,29.920275,1013.4,,TRUE,,,,,,,,BKN,2600,,,,,,,MVFR,,,,,,,,,,,,SPECI,23.0
CYPH 210636Z AUTO 16014G19KT 2SM -SN BKN018 BKN085 M25/M28 A2985 RMK SLP113,CYPH,2015-02-21T06:36:00Z,58.45,-78.08,-25.0,-28.0,160,14,19,2.0,29.84941,1011.3,,TRUE,,,,,,,-SN,BKN,1800,BKN,8500,,,,,IFR,,,,,,,,,,,,SPECI,3.0
KAUM 210636Z AUTO 33005KT 10SM OVC015 M04/M06 A2981 RMK AO2,KAUM,2015-02-21T06:36:00Z,43.67,-92.92,-4.0,-6.0,330,5,,10.0,29.811024,,,TRUE,TRUE,,,,,,,OVC,1500,,,,,,,MVFR,,,,,,,,,,,,METAR,375.0
KACB 210636Z AUTO 18005KT 10SM -SN OVC039 M11/M14 A2992 RMK AO2 T11071141,KACB,2015-02-21T06:36:00Z,44.98,-85.2,-10.7,-14.1,180,5,,10.0,29.920275,,,TRUE,TRUE,,,,,,-SN,OVC,3900,,,,,,,VFR,,,,,,,,,,,,METAR,190.0
K4I3 210636Z AUTO 16006KT 10SM OVC035 M10/M18 A3010 RMK AO2,K4I3,2015-02-21T06:36:00Z,40.33,-82.53,-10.0,-18.0,160,6,,10.0,30.100393,,,TRUE,TRUE,,,,,,,OVC,3500,,,,,,,VFR,,,,,,,,,,,,METAR,363.0
CYVO 210636Z AUTO 19009KT 3SM -SN OVC029 M19/M22 A2999 RMK SLP196,CYVO,2015-02-21T06:36:00Z,48.07,-77.77,-19.0,-22.0,190,9,,3.0,29.991142,1019.6,,TRUE,,,,,,,-SN,OVC,2900,,,,,,,MVFR,,,,,,,,,,,,SPECI,337.0
PABL 210636Z AUTO 00000KT 10SM SCT015 M11/M13 A2999 RMK AO1,PABL,2015-02-21T06:36:00Z,65.98,-161.15,-11.0,-13.0,0,0,,10.0,29.991142,,,TRUE,TRUE,,,,,,,SCT,1500,,,,,,,VFR,,,,,,,,,,,,METAR,7.0
PAAK 210636Z 31026G34KT 2SM SCT010 BKN018 OVC031 02/M01 A2936 RMK AO1,PAAK,2015-02-21T06:36:00Z,52.22,-174.2,2.0,-1.0,310,26,34,2.0,29.359253,,,,TRUE,,,,,,,SCT,1000,BKN,1800,OVC,3100,,,IFR,,,,,,,,,,,,METAR,17.0
KXVG 210636Z AUTO 31004KT 5SM -SN OVC020 M14/M16 A2987 RMK AO2,KXVG,2015-02-21T06:36:00Z,46.98,-94.2,-14.0,-16.0,310,4,,5.0,29.870079,,,TRUE,TRUE,,,,,,-SN,OVC,2000,,,,,,,MVFR,,,,,,,,,,,,METAR,407.0
KPOV 210636Z AUTO 16007KT 10SM OVC065 M11/M22 A3010 RMK AO2 T11061217,KPOV,2015-02-21T06:36:00Z,41.22,-81.25,-10.6,-21.7,160,7,,10.0,30.100393,,,TRUE,TRUE,,,,,,,OVC,6500,,,,,,,VFR,,,,,,,,,,,,METAR,365.0
K5A6 210635Z AUTO 17016G21KT 10SM OVC021 12/08 A2997 RMK AO2 T01180081,K5A6,2015-02-21T06:35:00Z,33.47,-89.73,11.8,8.1,170,16,21,10.0,29.970472,,,TRUE,TRUE,,,,,,,OVC,2100,,,,,,,MVFR,,,,,,,,,,,,METAR,111.0
KCFJ 210635Z AUTO 15008KT 1 1/2SM -SN OVC011 M09/M12 A2996 RMK AO2 P0001 T10921120,KCFJ,2015-02-21T06:35:00Z,,,-9.2,-12.0,150,8,,1.5,29.958662,,,TRUE,TRUE,,,,,,-SN,OVC,1100,,,,,,,IFR,,,,,,0.01,,,,,,METAR,
PAUT 210635Z AUTO 06007KT 4SM BR BKN015 OVC022 04/04 A2914 RMK AO2 T00430036,PAUT,2015-02-21T06:35:00Z,54.15,-165.6,4.3,3.6,60,7,,4.0,29.140747,,,TRUE,TRUE,,,,,,BR,BKN,1500,OVC,2200,,,,,MVFR,,,,,,,,,,,,METAR,25.0
PAAD 210635Z AUTO 05014KT 10SM OVC009 M10/M12 A3027 RMK AO2,PAAD,2015-02-21T06:35:00Z,70.13,-146.28,-10.0,-12.0,50,14,,10.0,30.268702,,,TRUE,TRUE,,,,,,,OVC,900,,,,,,,IFR,,,,,,,,,,,,METAR,8.0
KSVC 210635Z AUTO 28007KT 10SM CLR 11/M05 A3002 RMK AO2,KSVC,2015-02-21T06:35:00Z,32.63,-108.15,11.0,-5.0,280,7,,10.0,30.02067,,,TRUE,TRUE,,,,,,,CLR,,,,,,,,VFR,,,,,,,,,,,,METAR,1659.0
KRZL 210635Z AUTO 16005KT 7SM SCT004 SCT010 OVC023 M07/M07 A2997 RMK AO2,KRZL,2015-02-21T06:35:00Z,40.95,-87.18,-7.0,-7.0,160,5,,7.0,29.970472,,,TRUE,TRUE,,,,,,,SCT,400,SCT,1000,OVC,2300,,,MVFR,,,,,,,,,,,,METAR,213.0
KRNV 210635Z AUTO 18015KT 10SM OVC031 12/10 A2992 RMK AO2 T01150103,KRNV,2015-02-21T06:35:00Z,33.77,-90.75,11.5,10.3,180,15,,10.0,29.920275,,,TRUE,TRUE,,,,,,,OVC,3100,,,,,,,VFR,,,,,,,,,,,,METAR,41.0
KRNC 210635Z AUTO 18005KT 4SM BKN026 BKN033 OVC039 00/M02 A3009 RMK,KRNC,2015-02-21T06:35:00Z,35.7,-85.85,0.0,-2.0,180,5,,4.0,30.088583,,,TRUE,,,,,,,,BKN,2600,BKN,3300,OVC,3900,,,MVFR,,,,,,,,,,,,METAR,315.0
KRCE 210635Z AUTO 03008KT 1 1/4SM BR 04/04 A2977 RMK AO2,KRCE,2015-02-21T06:35:00Z,35.48,-97.82,4.0,4.0,30,8,,1.25,29.769686,,,TRUE,TRUE,,,,,,BR,,,,,,,,,,,,,,,,,,,,,METAR,413.0
KONA 210635Z AUTO 00000KT 10SM BKN023 M10/M12 A2986 RMK AO2,KONA,2015-02-21T06:35:00Z,44.07,-91.7,-10.0,-12.0,0,0,,10.0,29.861221,,,TRUE,TRUE,,,,,,,BKN,2300,,,,,,,MVFR,,,,,,,,,,,,METAR,200.0
KMOR 210635Z AUTO 10004KT 6SM SCT033 M06/M07 A3022 RMK,KMOR,2015-02-21T06:35:00Z,36.18,-83.37,-6.0,-7.0,100,4,,6.0,30.221457,,,TRUE,,,,,,,,SCT,3300,,,,,,,VFR,,,,,,,,,,,,METAR,400.0
KMER 210635Z AUTO 14005KT 4SM OVC005 11/11 A3001 RMK AO1,KMER,2015-02-21T06:35:00Z,37.38,-120.57,11.0,11.0,140,5,,4.0,30.008858,,,TRUE,TRUE,,,,,,,OVC,500,,,,,,,IFR,,,,,,,,,,,,METAR,57.0
KMAN 210635Z AUTO 28004KT 10SM 05/02 A3008 RMK AO1,KMAN,2015-02-21T06:35:00Z,43.58,-116.52,5.0,2.0,280,4,,10.0,30.079725,,,TRUE,TRUE,,,,,,,,,,,,,,,,,,,,,,,,,,,METAR,774.0
KLZZ 210635Z AUTO 19010G18KT 10SM OVC017 18/15 A2977 RMK AO2 T01760151,KLZZ,2015-02-21T06:35:00Z,31.1,-98.2,17.6,15.1,190,10,18,10.0,29.769686,,,TRUE,TRUE,,,,,,,OVC,1700,,,,,,,MVFR,,,,,,,,,,,,METAR,371.0
KHZE 210635Z AUTO 02003KT 3SM -SN BKN034 M09/M10 A3001 RMK AO2 P0009,KHZE,2015-02-21T06:35:00Z,47.28,-101.58,-9.0,-10.0,20,3,,3.0,30.008858,,,TRUE,TRUE,,,,,,-SN,BKN,3400,,,,,,,MVFR,,,,,,0.09,,,,,,METAR,553.0
KGZL 210635Z AUTO 10009G16KT 5SM BR OVC005 01/00 A2974 RMK AO2 LTG DSNT N AND NE,KGZL,2015-02-21T06:35:00Z,35.28,-95.1,1.0,0.0,100,9,16,5.0,29.740158,,,TRUE,TRUE,,,,,,BR,OVC,500,,,,,,,IFR,,,,,,,,,,,,METAR,183.0
KEQA 210635Z AUTO 01006KT 10SM OVC004 01/01 A2986 RMK AO2,KEQA,2015-02-21T06:35:00Z,37.78,-96.82,1.0,1.0,10,6,,10.0,29.861221,,,TRUE,TRUE,,,,,,,OVC,400,,,,,,,LIFR,,,,,,,,,,,,METAR,420.0
KD50 210635Z AUTO 36011KT 8SM -SN FEW012 SCT019 BKN034 M11/M13 A3008 RMK AO2,KD50,2015-02-21T06:35:00Z,48.93,-103.3,-11.0,-13.0,360,11,,8.0,30.079725,,,TRUE,TRUE,,,,,,-SN,FEW,1200,SCT,1900,BKN,3400,,,VFR,,,,,,,,,,,,METAR,595.0
KCXP 210635Z AUTO 30003KT 10SM FEW049 04/M05 A3009 RMK AO2,KCXP,2015-02-21T06:35:00Z,39.18,-119.73,4.0,-5.0,300,3,,10.0,30.088583,,,TRUE,TRUE,,,,,,,FEW,4900,,,,,,,VFR,,,,,,,,,,,,METAR,1435.0
KBAC 210635Z AUTO 01013KT 5SM -SN OVC008 M12/M13 A2998 RMK AO2 P0006,KBAC,2015-02-21T06:35:00Z,46.93,-98.02,-12.0,-13.0,10,13,,5.0,29.97933,,,TRUE,TRUE,,,,,,-SN,OVC,800,,,,,,,IFR,,,,,,0.06,,,,,,METAR,684.0
KAEJ 210635Z AUTO 00000KT 10SM CLR M07/M09 A2992 RMK AO2 T10721092,KAEJ,2015-02-21T06:35:00Z,38.82,-106.12,-7.2,-9.2,0,0,,10.0,29.920275,,,TRUE,TRUE,,,,,,,CLR,,,,,,,,VFR,,,,,,,,,,,,METAR,2422.0
PPIZ 210635Z AUTO 3SM -SN BR BKN023 OVC095 M17/M19 A3021 RMK AO2 TSNO P0000 $,PPIZ,2015-02-21T06:35:00Z,69.73,-163.0,-17.0,-19.0,,,,3.0,30.209646,,,TRUE,TRUE,TRUE,,TRUE,,,-SN BR,BKN,2300,OVC,9500,,,,,MVFR,,,,,,0.0050,,,,,,SPECI,8.0
KAIK 210635Z AUTO 10006KT 10SM SCT060 BKN090 00/M10 A3043 RMK AO2,KAIK,2015-02-21T06:35:00Z,33.65,-81.68,0.0,-10.0,100,6,,10.0,30.431103,,,TRUE,TRUE,,,,,,,SCT,6000,BKN,9000,,,,,VFR,,,,,,,,,,,,SPECI,161.0
KLUX 210635Z AUTO 16006KT 10SM OVC038 00/M08 A3040 RMK AO2,KLUX,2015-02-21T06:35:00Z,34.5,-81.95,0.0,-8.0,160,6,,10.0,30.398623,,,TRUE,TRUE,,,,,,,OVC,3800,,,,,,,VFR,,,,,,,,,,,,SPECI,213.0
KLQK 210635Z AUTO 10SM OVC031 M01/M07 A3037 RMK AO2 T10111071,KLQK,2015-02-21T06:35:00Z,34.82,-82.7,-1.1,-7.1,,,,10.0,30.369095,,,TRUE,TRUE,,,,,,,OVC,3100,,,,,,,VFR,,,,,,,,,,,,SPECI,309.0
KJFX 210635Z AUTO 14010KT 10SM OVC023 03/M07 A3014 RMK A02 P-128,KJFX,2015-02-21T06:35:00Z,33.9,-87.32,3.0,-7.0,140,10,,10.0,30.138779,,,TRUE,TRUE,,,,,,,OVC,2300,,,,,,,MVFR,,,,,,,,,,,,SPECI,148.0
KGPH 210635Z AUTO 00000KT 7SM -DZ OVC005 00/00 A2988 RMK AO2 LTG DSNT S,KGPH,2015-02-21T06:35:00Z,39.33,-94.32,0.0,0.0,0,0,,7.0,29.878937,,,TRUE,TRUE,,,,,,-DZ,OVC,500,,,,,,,IFR,,,,,,,,,,,,SPECI,235.0
KGGE 210635Z AUTO 00000KT 10SM CLR M05/M06 A3049 RMK AO2,KGGE,2015-02-21T06:35:00Z,33.32,-79.32,-5.0,-6.0,0,0,,10.0,30.490158,,,TRUE,TRUE,,,,,,,CLR,,,,,,,,VFR,,,,,,,,,,,,SPECI,12.0
KBDN 210635Z AUTO 00000KT 10SM FEW110 02/M01 A3015 RMK AO2,KBDN,2015-02-21T06:35:00Z,44.1,-121.2,2.0,-1.0,0,0,,10.0,30.15059,,,TRUE,TRUE,,,,,,,FEW,11000,,,,,,,VFR,,,,,,,,,,,,SPECI,1055.0
KGLY 210635Z AUTO 00000KT 3SM -DZ BKN005 BKN015 OVC045 00/M01 A2987 RMK AO2,KGLY,2015-02-21T06:35:00Z,38.35,-93.68,0.0,-1.0,0,0,,3.0,29.870079,,,TRUE,TRUE,,,,,,-DZ,BKN,500,BKN,1500,OVC,4500,,,IFR,,,,,,,,,,,,SPECI,251.0
KM40 210635Z AUTO 15012G18KT 10SM OVC026 08/08 A3007 RMK AO2,KM40,2015-02-21T06:35:00Z,33.87,-88.48,8.0,8.0,150,12,18,10.0,30.070866,,,TRUE,TRUE,,,,,,,OVC,2600,,,,,,,MVFR,,,,,,,,,,,,SPECI,69.0
KRZR 210635Z AUTO 00000KT 10SM OVC040 M02/M05 A3023 RMK,KRZR,2015-02-21T06:35:00Z,35.22,-84.8,-2.0,-5.0,0,0,,10.0,30.230314,,,TRUE,,,,,,,,OVC,4000,,,,,,,VFR,,,,,,,,,,,,METAR,263.0
KORS 210635Z AUTO 00000KT 7SM CLR 05/05 A3026 RMK AO2,KORS,2015-02-21T06:35:00Z,48.7,-122.92,5.0,5.0,0,0,,7.0,30.259842,,,TRUE,TRUE,,,,,,,CLR,,,,,,,,VFR,,,,,,,,,,,,METAR,9.0
KGWR 210635Z AUTO 02012KT 10SM SCT009 OVC014 M10/M11 A2998 RMK A01 P000,KGWR,2015-02-21T06:35:00Z,46.22,-97.65,-10.0,-11.0,20,12,,10.0,29.97933,,,TRUE,TRUE,,,,,,,SCT,900,OVC,1400,,,,,MVFR,,,,,,,,,,,,METAR,386.0
K1R7 210635Z AUTO 15008KT BKN028 OVC034 13/12 A3008 RMK AO2,K1R7,2015-02-21T06:35:00Z,31.6,-90.42,13.0,12.0,150,8,,,30.079725,,,TRUE,TRUE,,,,,,,BKN,2800,OVC,3400,,,,,,,,,,,,,,,,,METAR,149.0
KVDF 210635Z AUTO 07004KT 10SM CLR 06/02 A3038 RMK AO2,KVDF,2015-02-21T06:35:00Z,28.02,-82.33,6.0,2.0,70,4,,10.0,30.380905,,,TRUE,TRUE,,,,,,,CLR,,,,,,,,VFR,,,,,,,,,,,,METAR,7.0
KLDJ 210635Z AUTO 00000KT 10SM CLR M10/M19 A3054 RMK AO2 T11011187,KLDJ,2015-02-21T06:35:00Z,40.62,-74.25,-10.1,-18.7,0,0,,10.0,30.540354,,,TRUE,TRUE,,,,,,,CLR,,,,,,,,VFR,,,,,,,,,,,,METAR,7.0
KJZI 210635Z AUTO 00000KT 10SM BKN090 01/M01 A3045 RMK A02 P000,KJZI,2015-02-21T06:35:00Z,32.7,-80.0,1.0,-1.0,0,0,,10.0,30.448818,,,TRUE,TRUE,,,,,,,BKN,9000,,,,,,,VFR,,,,,,,,,,,,METAR,6.0
KFDW 210635Z AUTO 14003KT 10SM SCT009 BKN055 M01/M10 A3043 RMK AO1,KFDW,2015-02-21T06:35:00Z,34.32,-81.12,-1.0,-10.0,140,3,,10.0,30.431103,,,TRUE,TRUE,,,,,,,SCT,900,BKN,5500,,,,,VFR,,,,,,,,,,,,METAR,176.0
KSPA 210635Z AUTO 00000KT 10SM OVC037 00/M13 A3039 RMK AO2,KSPA,2015-02-21T06:35:00Z,34.92,-81.93,0.0,-13.0,0,0,,10.0,30.389763,,,TRUE,TRUE,,,,,,,OVC,3700,,,,,,,VFR,,,,,,,,,,,,SPECI,303.0
KCLS 210635Z AUTO 23004KT 10SM OVC031 09/07 A3026 RMK AO2,KCLS,2015-02-21T06:35:00Z,46.68,-122.98,9.0,7.0,230,4,,10.0,30.259842,,,TRUE,TRUE,,,,,,,OVC,3100,,,,,,,VFR,,,,,,,,,,,,SPECI,54.0
KCKI 210635Z AUTO 08005KT 10SM CLR M02/M04 A3047 RMK AO2,KCKI,2015-02-21T06:35:00Z,33.72,-79.85,-2.0,-4.0,80,5,,10.0,30.469488,,,TRUE,TRUE,,,,,,,CLR,,,,,,,,VFR,,,,,,,,,,,,SPECI,21.0
K4I7 210635Z AUTO 15008KT 2 1/2SM -SN SCT005 BKN013 OVC020 M08/M11 A2997 RMK AO2 P0001,K4I7,2015-02-21T06:35:00Z,39.63,-86.82,-8.0,-11.0,150,8,,2.5,29.970472,,,TRUE,TRUE,,,,,,-SN,SCT,500,BKN,1300,OVC,2000,,,IFR,,,,,,0.01,,,,,,SPECI,257.0
KVTI 210635Z AUTO 20008KT 10SM BKN031 OVC042 M01/M05 A2983 RMK AO2 T10101050,KVTI,2015-02-21T06:35:00Z,42.22,-92.02,-1.0,-5.0,200,8,,10.0,29.828741,,,TRUE,TRUE,,,,,,,BKN,3100,OVC,4200,,,,,VFR,,,,,,,,,,,,METAR,255.0
KVDI 210635Z AUTO 00000KT 10SM CLR 00/M02 A3042 RMK AO2,KVDI,2015-02-21T06:35:00Z,32.2,-82.37,0.0,-2.0,0,0,,10.0,30.41929,,,TRUE,TRUE,,,,,,,CLR,,,,,,,,VFR,,,,,,,,,,,,METAR,84.0
K3J7 210635Z AUTO 00000KT 10SM OVC042 03/M09 A3036 RMK AO2,K3J7,2015-02-21T06:35:00Z,33.6,-83.13,3.0,-9.0,0,0,,10.0,30.360237,,,TRUE,TRUE,,,,,,,OVC,4200,,,,,,,VFR,,,,,,,,,,,,METAR,206.0
K3D2 210635Z AUTO 24005KT 10SM OVC024 M10/M12 A2986 RMK AO2 T10971125,K3D2,2015-02-21T06:35:00Z,45.13,-87.18,-9.7,-12.5,240,5,,10.0,29.861221,,,TRUE,TRUE,,,,,,,OVC,2400,,,,,,,MVFR,,,,,,,,,,,,METAR,234.0
K2D5 210635Z AUTO 02012KT 7SM -SN M09/M10 A2996 RMK AO2 P0001,K2D5,2015-02-21T06:35:00Z,46.17,-98.08,-9.0,-10.0,20,12,,7.0,29.958662,,,TRUE,TRUE,,,,,,-SN,,,,,,,,,,,,,,,0.01,,,,,,METAR,407.0
K1K1 210635Z AUTO 01004KT 7SM OVC004 01/00 A2988 RMK AO2 T00090003,K1K1,2015-02-21T06:35:00Z,37.77,-97.12,0.9,0.3,10,4,,7.0,29.878937,,,TRUE,TRUE,,,,,,,OVC,400,,,,,,,LIFR,,,,,,,,,,,,METAR,416.0
K1A9 210635Z AUTO 10004KT 10SM SCT100 02/M10 A3026 RMK AO2 T00241101,K1A9,2015-02-21T06:35:00Z,32.43,-86.52,2.4,-10.1,100,4,,10.0,30.259842,,,TRUE,TRUE,,,,,,,SCT,10000,,,,,,,VFR,,,,,,,,,,,,METAR,69.0
KMRC 210635Z AUTO 17008KT BKN024 BKN030 OVC037 M01/M01 A3004 RMK,KMRC,2015-02-21T06:35:00Z,35.55,-87.18,-1.0,-1.0,170,8,,,30.041338,,,TRUE,,,,,,,,BKN,2400,BKN,3000,OVC,3700,,,,,,,,,,,,,,,METAR,208.0
KMQB 210635Z AUTO 16005KT 7SM OVC016 M04/M06 A2994 RMK AO2 T10421058,KMQB,2015-02-21T06:35:00Z,40.52,-90.65,-4.2,-5.8,160,5,,7.0,29.940945,,,TRUE,TRUE,,,,,,,OVC,1600,,,,,,,MVFR,,,,,,,,,,,,METAR,215.0
KMMI 210635Z AUTO 00000KT 9SM OVC041 M04/M05 A3026 RMK,KMMI,2015-02-21T06:35:00Z,35.4,-84.57,-4.0,-5.0,0,0,,9.0,30.259842,,,TRUE,,,,,,,,OVC,4100,,,,,,,VFR,,,,,,,,,,,,METAR,266.0
KMMH 210635Z AUTO 34003KT 10SM CLR 02/M07 A3007 RMK AO1,KMMH,2015-02-21T06:35:00Z,37.62,-118.82,2.0,-7.0,340,3,,10.0,30.070866,,,TRUE,TRUE,,,,,,,CLR,,,,,,,,VFR,,,,,,,,,,,,METAR,2173.0
KMKN 210635Z AUTO 19017G23KT 10SM CLR 17/15 A2972 RMK AO2 T01720149,KMKN,2015-02-21T06:35:00Z,31.92,-98.6,17.2,14.9,190,17,23,10.0,29.719488,,,TRUE,TRUE,,,,,,,CLR,,,,,,,,VFR,,,,,,,,,,,,METAR,423.0
KCZT 210635Z AUTO 13006KT 10SM CLR 17/14 A2977 RMK AO2,KCZT,2015-02-21T06:35:00Z,28.52,-99.82,17.0,14.0,130,6,,10.0,29.769686,,,TRUE,TRUE,,,,,,,CLR,,,,,,,,VFR,,,,,,,,,,,,METAR,183.0
KCWV 210635Z AUTO 00000KT 10SM CLR M01/M02 A3043 RMK AO2,KCWV,2015-02-21T06:35:00Z,32.2,-81.87,-1.0,-2.0,0,0,,10.0,30.431103,,,TRUE,TRUE,,,,,,,CLR,,,,,,,,VFR,,,,,,,,,,,,METAR,33.0
KCVC 210635Z AUTO 09006KT 10SM OVC044 02/M10 A3034 RMK AO2,KCVC,2015-02-21T06:35:00Z,33.63,-83.85,2.0,-10.0,90,6,,10.0,30.339567,,,TRUE,TRUE,,,,,,,OVC,4400,,,,,,,VFR,,,,,,,,,,,,METAR,247.0
KCUL 210635Z AUTO 17005KT 2SM UP OVC009 01/00 A2998 RMK AO2 P0016 T00050001,KCUL,2015-02-21T06:35:00Z,38.08,-88.12,0.5,0.1,170,5,,2.0,29.97933,,,TRUE,TRUE,,,,,,UP,OVC,900,,,,,,,IFR,,,,,,0.16,,,,,,METAR,118.0
KDVK 210635Z AUTO 21007KT 7SM UP SCT007 BKN026 OVC046 M01/M01 A3007 RMK AO2,KDVK,2015-02-21T06:35:00Z,37.58,-84.77,-1.0,-1.0,210,7,,7.0,30.070866,,,TRUE,TRUE,,,,,,UP,SCT,700,BKN,2600,OVC,4600,,,MVFR,,,,,,,,,,,,METAR,312.0
KDUA 210635Z AUTO 15003KT 10SM BKN024 OVC029 11/11 A2966 RMK AO2,KDUA,2015-02-21T06:35:00Z,33.95,-96.4,11.0,11.0,150,3,,10.0,29.660433,,,TRUE,TRUE,,,,,,,BKN,2400,OVC,2900,,,,,MVFR,,,,,,,,,,,,METAR,213.0
KPRX 210635Z 19016G20KT 10SM BKN026 OVC032 18/13 A2973 RMK AO1,KPRX,2015-02-21T06:35:00Z,33.62,-95.45,18.0,13.0,190,16,20,10.0,29.731298,,,,TRUE,,,,,,,BKN,2600,OVC,3200,,,,,MVFR,,,,,,,,,,,,METAR,167.0
KPIB 210635Z AUTO 15012KT 10SM FEW025 SCT065 13/09 A3012 RMK AO1,KPIB,2015-02-21T06:35:00Z,31.47,-89.32,13.0,9.0,150,12,,10.0,30.121063,,,TRUE,TRUE,,,,,,,FEW,2500,SCT,6500,,,,,VFR,,,,,,,,,,,,METAR,91.0
KOTH 210635Z 05006KT 10SM FEW095 09/09 A3024 RMK AO1,KOTH,2015-02-21T06:35:00Z,43.42,-124.25,9.0,9.0,50,6,,10.0,30.239174,,,,TRUE,,,,,,,FEW,9500,,,,,,,VFR,,,,,,,,,,,,METAR,4.0
KOTG 210635Z AUTO 36011KT 4SM OVC004 M06/M07 A2986 RMK AO1,KOTG,2015-02-21T06:35:00Z,43.63,-95.57,-6.0,-7.0,360,11,,4.0,29.861221,,,TRUE,TRUE,,,,,,,OVC,400,,,,,,,LIFR,,,,,,,,,,,,METAR,480.0
KOLU 210635Z AUTO 00000KT 10SM SCT060 BKN070 M02/M06 A2987 RMK AO1,KOLU,2015-02-21T06:35:00Z,41.45,-97.32,-2.0,-6.0,0,0,,10.0,29.870079,,,TRUE,TRUE,,,,,,,SCT,6000,BKN,7000,,,,,VFR,,,,,,,,,,,,METAR,440.0
KOKK 210635Z AUTO 19007KT 3SM FEW025 SCT034 M08/M11 A2998 RMK AO1,KOKK,2015-02-21T06:35:00Z,40.53,-86.07,-8.0,-11.0,190,7,,3.0,29.97933,,,TRUE,TRUE,,,,,,,FEW,2500,SCT,3400,,,,,MVFR,,,,,,,,,,,,METAR,253.0
KOCH 210635Z AUTO 19012G17KT 10SM BKN020 OVC028 18/14 A2987 RMK AO1,KOCH,2015-02-21T06:35:00Z,31.57,-94.72,18.0,14.0,190,12,17,10.0,29.870079,,,TRUE,TRUE,,,,,,,BKN,2000,OVC,2800,,,,,MVFR,,,,,,,,,,,,METAR,108.0
KOCF 210635Z AUTO 00000KT 10SM CLR 01/M03 A3038 RMK AO1,KOCF,2015-02-21T06:35:00Z,29.17,-82.22,1.0,-3.0,0,0,,10.0,30.380905,,,TRUE,TRUE,,,,,,,CLR,,,,,,,,VFR,,,,,,,,,,,,METAR,27.0
KOAJ 210635Z AUTO 07004KT 10SM CLR M08/M14 A3055 RMK AO1,KOAJ,2015-02-21T06:35:00Z,34.82,-77.62,-8.0,-14.0,70,4,,10.0,30.549213,,,TRUE,TRUE,,,,,,,CLR,,,,,,,,VFR,,,,,,,,,,,,METAR,29.0
KMYR 210635Z AUTO 00000KT 10SM CLR M04/M09 A3050 RMK AO1,KMYR,2015-02-21T06:35:00Z,33.67,-78.92,-4.0,-9.0,0,0,,10.0,30.499016,,,TRUE,TRUE,,,,,,,CLR,,,,,,,,VFR,,,,,,,,,,,,METAR,8.0
KMVN 210635Z AUTO 00000KT 4SM BKN006 OVC013 M01/M03 A2994 RMK AO1 P0015,KMVN,2015-02-21T06:35:00Z,38.32,-88.87,-1.0,-3.0,0,0,,4.0,29.940945,,,TRUE,TRUE,,,,,,,BKN,600,OVC,1300,,,,,IFR,,,,,,0.15,,,,,,METAR,146.0
KMSV 210635Z AUTO 00000KT 10SM CLR M22/M26 A3034 RMK AO1,KMSV,2015-02-21T06:35:00Z,41.7,-74.78,-22.0,-26.0,0,0,,10.0,30.339567,,,TRUE,TRUE,,,,,,,CLR,,,,,,,,VFR,,,,,,,,,,,,METAR,428.0
KMRF 210635Z AUTO 26007KT 10SM BKN120 12/M04 A2997 RMK AO1,KMRF,2015-02-21T06:35:00Z,30.37,-104.02,12.0,-4.0,260,7,,10.0,29.970472,,,TRUE,TRUE,,,,,,,BKN,12000,,,,,,,VFR,,,,,,,,,,,,METAR,1481.0
KMNM 210635Z AUTO 23005KT 10SM BKN027 OVC031 M10/M12 A2987 RMK AO1,KMNM,2015-02-21T06:35:00Z,45.12,-87.62,-10.0,-12.0,230,5,,10.0,29.870079,,,TRUE,TRUE,,,,,,,BKN,2700,OVC,3100,,,,,MVFR,,,,,,,,,,,,METAR,191.0
KMML 210635Z AUTO 34011KT 10SM SCT015 SCT022 M08/M12 A2991 RMK AO1,KMML,2015-02-21T06:35:00Z,44.45,-95.82,-8.0,-12.0,340,11,,10.0,29.911417,,,TRUE,TRUE,,,,,,,SCT,1500,SCT,2200,,,,,VFR,,,,,,,,,,,,METAR,359.0
KMKY 210635Z AUTO 03009KT 10SM CLR 08/04 A3032 RMK AO1,KMKY,2015-02-21T06:35:00Z,26.0,-81.67,8.0,4.0,30,9,,10.0,30.318897,,,TRUE,TRUE,,,,,,,CLR,,,,,,,,VFR,,,,,,,,,,,,METAR,2.0
KMKT 210635Z AUTO 30011KT 10SM OVC011 M06/M08 A2985 RMK AO1,KMKT,2015-02-21T06:35:00Z,44.22,-93.92,-6.0,-8.0,300,11,,10.0,29.84941,,,TRUE,TRUE,,,,,,,OVC,1100,,,,,,,MVFR,,,,,,,,,,,,METAR,311.0
KMJX 210635Z AUTO 00000KT 10SM CLR M23/M27 A3053 RMK AO1,KMJX,2015-02-21T06:35:00Z,39.93,-74.3,-23.0,-27.0,0,0,,10.0,30.528543,,,TRUE,TRUE,,,,,,,CLR,,,,,,,,VFR,,,,,,,,,,,,METAR,25.0
KMBL 210635Z AUTO 17003KT 3SM BKN021 OVC027 M11/M13 A2993 RMK AO1,KMBL,2015-02-21T06:35:00Z,44.27,-86.25,-11.0,-13.0,170,3,,3.0,29.929134,,,TRUE,TRUE,,,,,,,BKN,2100,OVC,2700,,,,,MVFR,,,,,,,,,,,,METAR,189.0
KLPC 210635Z AUTO 00000KT 6SM OVC007 13/10 A2999 RMK AO1,KLPC,2015-02-21T06:35:00Z,34.67,-120.47,13.0,10.0,0,0,,6.0,29.991142,,,TRUE,TRUE,,,,,,,OVC,700,,,,,,,IFR,,,,,,,,,,,,METAR,27.0
K7W4 210635Z AUTO 00000KT 10SM CLR M13/M23 A3047 RMK AO1 T11291229,K7W4,2015-02-21T06:35:00Z,37.97,-77.75,-12.9,-22.9,0,0,,10.0,30.469488,,,TRUE,TRUE,,,,,,,CLR,,,,,,,,VFR,,,,,,,,,,,,METAR,106.0
K6A2 210635Z AUTO 14004KT 10SM OVC041 02/M10 A3033 RMK AO2,K6A2,2015-02-21T06:35:00Z,33.23,-84.27,2.0,-10.0,140,4,,10.0,30.33071,,,TRUE,TRUE,,,,,,,OVC,4100,,,,,,,VFR,,,,,,,,,,,,METAR,292.0
K4M9 210635Z AUTO 1 3/4SM -RA SCT005 BKN013 00/00 A2988 RMK AO2 P0013,K4M9,2015-02-21T06:35:00Z,36.4,-90.65,0.0,0.0,,,,1.75,29.878937,,,TRUE,TRUE,,,,,,-RA,SCT,500,BKN,1300,,,,,IFR,,,,,,0.13,,,,,,METAR,90.0
K46D 210635Z AUTO 10SM -SN FEW011 BKN017 OVC024 M14/M14 A3001 RMK AO2,K46D,2015-02-21T06:35:00Z,47.45,-99.15,-14.0,-14.0,,,,10.0,30.008858,,,TRUE,TRUE,,,,,,-SN,FEW,1100,BKN,1700,OVC,2400,,,MVFR,,,,,,,,,,,,METAR,490.0
K42J 210635Z AUTO 11005KT 10SM CLR 03/M02 A3039 RMK AO1 TSNO,K42J,2015-02-21T06:35:00Z,29.85,-82.05,3.0,-2.0,110,5,,10.0,30.389763,,,TRUE,TRUE,,,TRUE,,,,CLR,,,,,,,,VFR,,,,,,,,,,,,METAR,60.0
KBPC 210635Z AUTO 03009KT 10SM SCT060 05/M02 A2987 RMK AO2,KBPC,2015-02-21T06:35:00Z,35.88,-101.03,5.0,-2.0,30,9,,10.0,29.870079,,,TRUE,TRUE,,,,,,,SCT,6000,,,,,,,VFR,,,,,,,,,,,,METAR,845.0
KBKS 210635Z AUTO 17016G25KT 10SM BKN018 20/17 A2987 RMK AO1 T02000166,KBKS,2015-02-21T06:35:00Z,27.2,-98.12,20.0,16.6,170,16,25,10.0,29.870079,,,TRUE,TRUE,,,,,,,BKN,1800,,,,,,,MVFR,,,,,,,,,,,,METAR,34.0
KBEA 210635Z AUTO 17016G21KT 10SM OVC017 19/17 A2986 RMK AO2 T01910172,KBEA,2015-02-21T06:35:00Z,28.37,-97.78,19.1,17.2,170,16,21,10.0,29.861221,,,TRUE,TRUE,,,,,,,OVC,1700,,,,,,,MVFR,,,,,,,,,,,,METAR,82.0
KBCK 210635Z AUTO 00000KT 10SM OVC019 M09/M12 A2984 RMK AO2 T10951120,KBCK,2015-02-21T06:35:00Z,44.25,-90.85,-9.5,-12.0,0,0,,10.0,29.840551,,,TRUE,TRUE,,,,,,,OVC,1900,,,,,,,MVFR,,,,,,,,,,,,METAR,255.0
KBCB 210635Z AUTO 10006KT 10SM CLR M12/M20 A3030 RMK AO2 T11241202,KBCB,2015-02-21T06:35:00Z,37.22,-80.42,-12.4,-20.2,100,6,,10.0,30.301182,,,TRUE,TRUE,,,,,,,CLR,,,,,,,,VFR,,,,,,,,,,,,METAR,650.0
KAXS 210635Z AUTO 03018G23KT 7SM BKN008 10/07 A2973 RMK AO2 T00950074,KAXS,2015-02-21T06:35:00Z,34.7,-99.33,9.5,7.4,30,18,23,7.0,29.731298,,,TRUE,TRUE,,,,,,,BKN,800,,,,,,,IFR,,,,,,,,,,,,METAR,437.0
KASN 210635Z AUTO 15007KT 10SM SCT065 OVC110 04/M12 A3025 RMK AO2 T00411120,KASN,2015-02-21T06:35:00Z,33.57,-86.05,4.1,-12.0,150,7,,10.0,30.250984,,,TRUE,TRUE,,,,,,,SCT,6500,OVC,11000,,,,,VFR,,,,,,,,,,,,METAR,162.0
KALN 210635Z AUTO 12005KT 1/2SM +SN OVC004 M03/M04 A2992 RMK AO2 P0001 T10321038,KALN,2015-02-21T06:35:00Z,38.88,-90.03,-3.2,-3.8,120,5,,0.5,29.920275,,,TRUE,TRUE,,,,,,+SN,OVC,400,,,,,,,LIFR,,,,,,0.01,,,,,,METAR,166.0
KAJL 210635Z AUTO 26010KT 1/2SM -SN OVC003 A2985 RMK AO2,KAJL,2015-02-21T06:35:00Z,43.67,-110.03,,,260,10,,0.5,29.84941,,,TRUE,TRUE,,,,,,-SN,OVC,300,,,,,,,LIFR,,,,,,,,,,,,METAR,3161.0
K8W2 210635Z AUTO 00000KT 10SM BKN075 M14/M19 A3033 RMK AO1 T11401191,K8W2,2015-02-21T06:35:00Z,38.65,-78.7,-14.0,-19.1,0,0,,10.0,30.33071,,,TRUE,TRUE,,,,,,,BKN,7500,,,,,,,VFR,,,,,,,,,,,,METAR,297.0
K82V 210635Z AUTO 30006KT 10SM CLR M05/M06 A2995 RMK AO2,K82V,2015-02-21T06:35:00Z,41.15,-104.13,-5.0,-6.0,300,6,,10.0,29.949802,,,TRUE,TRUE,,,,,,,CLR,,,,,,,,VFR,,,,,,,,,,,,METAR,1570.0
KBXA 210635Z AUTO 17013G19KT 10SM 17/11 A3012 RMK AO2 T01680105,KBXA,2015-02-21T06:35:00Z,30.82,-89.87,16.8,10.5,170,13,19,10.0,30.121063,,,TRUE,TRUE,,,,,,,,,,,,,,,,,,,,,,,,,,,METAR,36.0
KBVS 210635Z AUTO 00000KT 10SM BKN026 04/04 A3028 RMK A01 P000,KBVS,2015-02-21T06:35:00Z,48.47,-122.42,4.0,4.0,0,0,,10.0,30.280512,,,TRUE,TRUE,,,,,,,BKN,2600,,,,,,,MVFR,,,,,,,,,,,,METAR,43.0
KUCY 210635Z AUTO 16011KT 2 1/2SM FEW005 BKN008 OVC022 M01/M01 A2989 RMK,KUCY,2015-02-21T06:35:00Z,36.38,-88.98,-1.0,-1.0,160,11,,2.5,29.890747,,,TRUE,,,,,,,,FEW,500,BKN,800,OVC,2200,,,IFR,,,,,,,,,,,,METAR,104.0
KEDN 210635Z AUTO 12006KT 10SM CLR 02/M06 A3029 RMK AO2,KEDN,2015-02-21T06:35:00Z,31.3,-85.9,2.0,-6.0,120,6,,10.0,30.28937,,,TRUE,TRUE,,,,,,,CLR,,,,,,,,VFR,,,,,,,,,,,,METAR,110.0
KEDE 210635Z AUTO 14003KT 10SM CLR M10/M13 A3056 RMK AO2 T11011130,KEDE,2015-02-21T06:35:00Z,36.02,-76.57,-10.1,-13.0,140,3,,10.0,30.561024,,,TRUE,TRUE,,,,,,,CLR,,,,,,,,VFR,,,,,,,,,,,,METAR,6.0
KMFV 210635Z AUTO 17004KT 10SM CLR M16/M20 A3055 RMK AO2,KMFV,2015-02-21T06:35:00Z,37.63,-75.77,-16.0,-20.0,170,4,,10.0,30.549213,,,TRUE,TRUE,,,,,,,CLR,,,,,,,,VFR,,,,,,,,,,,,METAR,15.0
KMDQ 210635Z AUTO 15013G22KT 10SM UP OVC031 00/M08 A3014 RMK AO2,KMDQ,2015-02-21T06:35:00Z,34.87,-86.55,0.0,-8.0,150,13,22,10.0,30.138779,,,TRUE,TRUE,,,,,,UP,OVC,3100,,,,,,,VFR,,,,,,,,,,,,METAR,230.0
KMCX 210635Z AUTO 00000KT 10SM BKN023 OVC027 M08/M10 A2997 RMK AO2 T10791097,KMCX,2015-02-21T06:35:00Z,40.72,-86.77,-7.9,-9.7,0,0,,10.0,29.970472,,,TRUE,TRUE,,,,,,,BKN,2300,OVC,2700,,,,,MVFR,,,,,,,,,,,,METAR,206.0
KMCJ 210635Z AUTO 17007G15KT 020V030 5SM BKN015 BKN021 OVC026 19/17 A2989 RMK AO1,KMCJ,2015-02-21T06:35:00Z,29.72,-95.4,19.0,17.0,170,7,15,5.0,29.890747,,,TRUE,TRUE,,,,,,,BKN,1500,BKN,2100,OVC,2600,,,MVFR,,,,,,,,,,,,METAR,69.0
KMCD 210635Z AUTO 19007KT 10SM OVC036 M11/M14 A2986 RMK AO2 T11101142,KMCD,2015-02-21T06:35:00Z,45.85,-84.63,-11.0,-14.2,190,7,,10.0,29.861221,,,TRUE,TRUE,,,,,,,OVC,3600,,,,,,,VFR,,,,,,,,,,,,METAR,226.0
KLHM 210635Z AUTO 12004KT 7SM CLR 09/08 A2997 RMK AO1,KLHM,2015-02-21T06:35:00Z,38.92,-121.35,9.0,8.0,120,4,,7.0,29.970472,,,TRUE,TRUE,,,,,,,CLR,,,,,,,,VFR,,,,,,,,,,,,METAR,37.0
KLHB 210635Z AUTO 15014G18KT 10SM OVC024 20/16 A2983 RMK AO2 T01950155,KLHB,2015-02-21T06:35:00Z,30.87,-96.62,19.5,15.5,150,14,18,10.0,29.828741,,,TRUE,TRUE,,,,,,,OVC,2400,,,,,,,MVFR,,,,,,,,,,,,METAR,87.0
KL18 210635Z AUTO 00000KT 10SM OVC014 13/11 A2998 RMK AO2,KL18,2015-02-21T06:35:00Z,33.35,-117.25,13.0,11.0,0,0,,10.0,29.97933,,,TRUE,TRUE,,,,,,,OVC,1400,,,,,,,MVFR,,,,,,,,,,,,METAR,216.0
KJQF 210635Z AUTO 00000KT 10SM CLR M04/M13 A3045 RMK AO2,KJQF,2015-02-21T06:35:00Z,35.38,-80.72,-4.0,-13.0,0,0,,10.0,30.448818,,,TRUE,TRUE,,,,,,,CLR,,,,,,,,VFR,,,,,,,,,,,,METAR,210.0
KJKA 210635Z AUTO 14014G23KT 10SM CLR 14/10 A3018 RMK AO2 T01420096,KJKA,2015-02-21T06:35:00Z,30.28,-87.67,14.2,9.6,140,14,23,10.0,30.180119,,,TRUE,TRUE,,,,,,,CLR,,,,,,,,VFR,,,,,,,,,,,,METAR,5.0
KCLL 210635Z 18019G29KT 10SM BKN023 BKN028 OVC034 19/16 A2985 RMK AO2 PK WND 19031/0622 T01940156,KCLL,2015-02-21T06:35:00Z,30.58,-96.37,19.4,15.6,180,19,29,10.0,29.84941,,,,TRUE,,,,,,,BKN,2300,BKN,2800,OVC,3400,,,MVFR,,,,,,,,,,,,METAR,96.0
KCLK 210635Z AUTO 01018G23KT 3SM BR OVC004 05/03 A2980 RMK AO2,KCLK,2015-02-21T06:35:00Z,35.53,-98.93,5.0,3.0,10,18,23,3.0,29.799213,,,TRUE,TRUE,,,,,,BR,OVC,400,,,,,,,LIFR,,,,,,,,,,,,METAR,492.0
KCLI 210635Z AUTO 20003KT 10SM OVC026 M09/M12 A2986 RMK AO2,KCLI,2015-02-21T06:35:00Z,44.62,-88.73,-9.0,-12.0,200,3,,10.0,29.861221,,,TRUE,TRUE,,,,,,,OVC,2600,,,,,,,MVFR,,,,,,,,,,,,METAR,250.0
KCKF 210635Z AUTO 14007KT 10SM CLR 02/M08 A3037 RMK AO2 T00241077,KCKF,2015-02-21T06:35:00Z,31.98,-83.77,2.4,-7.7,140,7,,10.0,30.369095,,,TRUE,TRUE,,,,,,,CLR,,,,,,,,VFR,,,,,,,,,,,,METAR,91.0
KCGC 210635Z AUTO 10003KT 10SM CLR 03/M01 A3038 RMK AO2,KCGC,2015-02-21T06:35:00Z,28.87,-82.57,3.0,-1.0,100,3,,10.0,30.380905,,,TRUE,TRUE,,,,,,,CLR,,,,,,,,VFR,,,,,,,,,,,,METAR,3.0
KCEY 210635Z AUTO 16008G16KT 120V190 2 1/2SM OVC009 00/00 A2993 RMK AO1 P0019,KCEY,2015-02-21T06:35:00Z,36.67,-88.37,0.0,0.0,160,8,16,2.5,29.929134,,,TRUE,TRUE,,,,,,,OVC,900,,,,,,,IFR,,,,,,0.19,,,,,,METAR,176.0
KBXK 210635Z AUTO 36006KT 10SM BKN120 13/03 A2989 RMK AO1,KBXK,2015-02-21T06:35:00Z,33.42,-112.68,13.0,3.0,360,6,,10.0,29.890747,,,TRUE,TRUE,,,,,,,BKN,12000,,,,,,,VFR,,,,,,,,,,,,METAR,315.0
KDCM 210635Z AUTO 16008KT 10SM BKN075 OVC095 00/M15 A3042 RMK AO2,KDCM,2015-02-21T06:35:00Z,34.78,-81.2,0.0,-15.0,160,8,,10.0,30.41929,,,TRUE,TRUE,,,,,,,BKN,7500,OVC,9500,,,,,VFR,,,,,,,,,,,,SPECI,200.0
K2V5 210635Z AUTO 00000KT 10SM CLR 00/M01 A2994 RMK AO2 T10031010,K2V5,2015-02-21T06:35:00Z,40.1,-102.25,-0.3,-1.0,0,0,,10.0,29.940945,,,TRUE,TRUE,,,,,,,CLR,,,,,,,,VFR,,,,,,,,,,,,SPECI,1118.0
KMKS 210635Z AUTO 08003KT 7SM SCT110 M01/M07 A3047 RMK AO2,KMKS,2015-02-21T06:35:00Z,33.18,-80.03,-1.0,-7.0,80,3,,7.0,30.469488,,,TRUE,TRUE,,,,,,,SCT,11000,,,,,,,VFR,,,,,,,,,,,,SPECI,23.0
K1V6 210635Z AUTO 15004KT 10SM OVC031 02/M01 A2995 RMK AO2,K1V6,2015-02-21T06:35:00Z,38.43,-105.1,2.0,-1.0,150,4,,10.0,29.949802,,,TRUE,TRUE,,,,,,,OVC,3100,,,,,,,VFR,,,,,,,,,,,,METAR,1658.0
K20V 210635Z AUTO 00000KT 10SM SCT031 BKN060 OVC100 M05/M06 A2994 RMK AO2,K20V,2015-02-21T06:35:00Z,40.05,-106.37,-5.0,-6.0,0,0,,10.0,29.940945,,,TRUE,TRUE,,,,,,,SCT,3100,BKN,6000,OVC,10000,,,VFR,,,,,,,,,,,,METAR,2259.0
K33V 210635Z AUTO 13004KT 7SM BKN011 BKN033 OVC110 M08/M10 A2990 RMK AO2,K33V,2015-02-21T06:35:00Z,40.75,-106.28,-8.0,-10.0,130,4,,7.0,29.899607,,,TRUE,TRUE,,,,,,,BKN,1100,BKN,3300,OVC,11000,,,MVFR,,,,,,,,,,,,METAR,2484.0
K5SM 210635Z AUTO 30005KT 1 3/4SM -SN OVC002 M07/M08 RMK AO2,K5SM,2015-02-21T06:35:00Z,39.43,-107.38,-7.0,-8.0,300,5,,1.75,,,,TRUE,TRUE,,,,,,-SN,OVC,200,,,,,,,LIFR,,,,,,,,,,,,METAR,3232.0
KAFJ 210635Z AUTO 00000KT 10SM OVC100 M13/M21 A3016 RMK AO1,KAFJ,2015-02-21T06:35:00Z,40.12,-80.27,-13.0,-21.0,0,0,,10.0,30.159449,,,TRUE,TRUE,,,,,,,OVC,10000,,,,,,,VFR,,,,,,,,,,,,METAR,361.0
KAIZ 210635Z AUTO 00000KT 4SM FEW004 BKN015 OVC020 M02/M03 A2987 RMK AO1,KAIZ,2015-02-21T06:35:00Z,38.1,-92.53,-2.0,-3.0,0,0,,4.0,29.870079,,,TRUE,TRUE,,,,,,,FEW,400,BKN,1500,OVC,2000,,,MVFR,,,,,,,,,,,,METAR,265.0
KARG 210635Z AUTO 00000KT 2SM OVC005 00/M01 A2986 RMK AO1 P0008,KARG,2015-02-21T06:35:00Z,36.12,-90.92,0.0,-1.0,0,0,,2.0,29.861221,,,TRUE,TRUE,,,,,,,OVC,500,,,,,,,IFR,,,,,,0.08,,,,,,METAR,83.0
KAUO 210635Z AUTO 12009KT 10SM BKN080 01/M14 A3030 RMK AO1,KAUO,2015-02-21T06:35:00Z,32.62,-85.42,1.0,-14.0,120,9,,10.0,30.301182,,,TRUE,TRUE,,,,,,,BKN,8000,,,,,,,VFR,,,,,,,,,,,,METAR,236.0
KAWO 210635Z AUTO 01003KT 1/2SM OVC002 06/04 A3029 RMK AO1,KAWO,2015-02-21T06:35:00Z,48.17,-122.17,6.0,4.0,10,3,,0.5,30.28937,,,TRUE,TRUE,,,,,,,OVC,200,,,,,,,LIFR,,,,,,,,,,,,METAR,42.0
KBJC 210635Z AUTO 00000KT 3/4SM SN OVC002 00/00 A2995 RMK AO2,KBJC,2015-02-21T06:35:00Z,39.9,-105.1,0.0,0.0,0,0,,0.75,29.949802,,,TRUE,TRUE,,,,,,SN,OVC,200,,,,,,,LIFR,,,,,,,,,,,,METAR,1724.0
KBLM 210635Z AUTO 24005KT 10SM CLR M14/M23 A3050 RMK AO1,KBLM,2015-02-21T06:35:00Z,40.17,-74.12,-14.0,-23.0,240,5,,10.0,30.499016,,,TRUE,TRUE,,,,,,,CLR,,,,,,,,VFR,,,,,,,,,,,,METAR,48.0
KBTP 210635Z AUTO 14003KT 10SM OVC110 M13/M21 A3016 RMK AO1,KBTP,2015-02-21T06:35:00Z,40.77,-79.95,-13.0,-21.0,140,3,,10.0,30.159449,,,TRUE,TRUE,,,,,,,OVC,11000,,,,,,,VFR,,,,,,,,,,,,METAR,380.0
KBVX 210635Z AUTO 00000KT 3SM OVC006 00/M01 A2984 RMK AO1 P0002,KBVX,2015-02-21T06:35:00Z,35.73,-91.65,0.0,-1.0,0,0,,3.0,29.840551,,,TRUE,TRUE,,,,,,,OVC,600,,,,,,,IFR,,,,,,0.02,,,,,,METAR,141.0
KCCU 210635Z AUTO 26016KT SCT044 BKN050 OVC080 M10/M13 A2988 RMK AO2 PWINO,KCCU,2015-02-21T06:35:00Z,39.48,-106.15,-10.0,-13.0,260,16,,,29.878937,,,TRUE,TRUE,,,,,TRUE,,SCT,4400,BKN,5000,OVC,8000,,,,,,,,,,,,,,,METAR,3680.0
KCGZ 210635Z AUTO 00000KT 10SM CLR 14/04 A2991 RMK AO1,KCGZ,2015-02-21T06:35:00Z,32.95,-111.77,14.0,4.0,0,0,,10.0,29.911417,,,TRUE,TRUE,,,,,,,CLR,,,,,,,,VFR,,,,,,,,,,,,METAR,446.0
KCIU 210635Z AUTO 15005KT 8SM SCT022 SCT026 OVC040 M13/M14 A2986 RMK AO1,KCIU,2015-02-21T06:35:00Z,46.25,-84.47,-13.0,-14.0,150,5,,8.0,29.861221,,,TRUE,TRUE,,,,,,,SCT,2200,SCT,2600,OVC,4000,,,VFR,,,,,,,,,,,,METAR,244.0
KCOD 210635Z 00000KT 10SM BKN018 OVC033 M01/M02 A2994 RMK AO1,KCOD,2015-02-21T06:35:00Z,44.52,-109.02,-1.0,-2.0,0,0,,10.0,29.940945,,,,TRUE,,,,,,,BKN,1800,OVC,3300,,,,,MVFR,,,,,,,,,,,,METAR,1553.0
KCOE 210635Z AUTO 00000KT 7SM CLR 01/M01 A3008 RMK AO1,KCOE,2015-02-21T06:35:00Z,47.77,-116.82,1.0,-1.0,0,0,,7.0,30.079725,,,TRUE,TRUE,,,,,,,CLR,,,,,,,,VFR,,,,,,,,,,,,METAR,707.0
KCPW 210635Z AUTO 24012KT 10SM CLR M08/M22 A2996 RMK AO2,KCPW,2015-02-21T06:35:00Z,37.45,-106.8,-8.0,-22.0,240,12,,10.0,29.958662,,,TRUE,TRUE,,,,,,,CLR,,,,,,,,VFR,,,,,,,,,,,,METAR,3584.0
KCVN 210635Z AUTO 02021G28KT 10SM CLR 06/M02 A2988 RMK AO1,KCVN,2015-02-21T06:35:00Z,34.42,-103.07,6.0,-2.0,20,21,28,10.0,29.878937,,,TRUE,TRUE,,,,,,,CLR,,,,,,,,VFR,,,,,,,,,,,,METAR,1284.0
KDYR 210635Z 00000KT 5SM FEW010 BKN016 OVC021 01/M06 A2990 RMK AO1 TSE0559,KDYR,2015-02-21T06:35:00Z,36.0,-89.4,1.0,-6.0,0,0,,5.0,29.899607,,,,TRUE,,,,,,,FEW,1000,BKN,1600,OVC,2100,,,MVFR,,,,,,,,,,,,METAR,103.0
KDWU 210635Z AUTO 12003KT 10SM OVC028 M06/M13 A3012 RMK AO1,KDWU,2015-02-21T06:35:00Z,38.55,-82.73,-6.0,-13.0,120,3,,10.0,30.121063,,,TRUE,TRUE,,,,,,,OVC,2800,,,,,,,MVFR,,,,,,,,,,,,METAR,166.0
KDVL 210635Z AUTO 03009KT 10SM FEW018 SCT050 M14/M18 A3002 RMK AO1,KDVL,2015-02-21T06:35:00Z,48.12,-98.92,-14.0,-18.0,30,9,,10.0,30.02067,,,TRUE,TRUE,,,,,,,FEW,1800,SCT,5000,,,,,VFR,,,,,,,,,,,,METAR,443.0
KDIK 210635Z AUTO 34007KT 10SM SCT013 OVC050 M07/M09 A2994 RMK AO2 SNE05 P0000 T10671094,KDIK,2015-02-21T06:35:00Z,46.8,-102.8,-6.7,-9.4,340,7,,10.0,29.940945,,,TRUE,TRUE,,,,,,,SCT,1300,OVC,5000,,,,,VFR,,,,,,0.0050,,,,,,METAR,788.0
KCWI 210635Z AUTO 19006KT 10SM BKN090 M07/M10 A2991 RMK AO1,KCWI,2015-02-21T06:35:00Z,41.82,-90.32,-7.0,-10.0,190,6,,10.0,29.911417,,,TRUE,TRUE,,,,,,,BKN,9000,,,,,,,VFR,,,,,,,,,,,,METAR,216.0
KCVO 210635Z AUTO 30007KT 10SM OVC110 09/07 A3024 RMK AO1,KCVO,2015-02-21T06:35:00Z,44.5,-123.27,9.0,7.0,300,7,,10.0,30.239174,,,TRUE,TRUE,,,,,,,OVC,11000,,,,,,,VFR,,,,,,,,,,,,METAR,75.0
KEAR 210635Z 27007KT 10SM SCT060 OVC080 02/M01 A2990 RMK AO1,KEAR,2015-02-21T06:35:00Z,40.72,-99.0,2.0,-1.0,270,7,,10.0,29.899607,,,,TRUE,,,,,,,SCT,6000,OVC,8000,,,,,VFR,,,,,,,,,,,,METAR,649.0
KEEN 210635Z AUTO 00000KT 9SM CLR M22/M24 A3040 RMK AO1,KEEN,2015-02-21T06:35:00Z,42.88,-72.27,-22.0,-24.0,0,0,,9.0,30.398623,,,TRUE,TRUE,,,,,,,CLR,,,,,,,,VFR,,,,,,,,,,,,METAR,149.0
K1P1 210635Z AUTO 00000KT 10SM CLR M24/M25 A3039 RMK AO2 T12401252,K1P1,2015-02-21T06:35:00Z,43.78,-71.75,-24.0,-25.2,0,0,,10.0,30.389763,,,TRUE,TRUE,,,,,,,CLR,,,,,,,,VFR,,,,,,,,,,,,METAR,154.0
KIMM 210635Z AUTO 00000KT 9SM SCT041 A3035 RMK A01 P000,KIMM,2015-02-21T06:35:00Z,26.43,-81.4,,,0,0,,9.0,30.351377,,,TRUE,TRUE,,,,,,,SCT,4100,,,,,,,VFR,,,,,,,,,,,,SPECI,12.0
K24J 210635Z AUTO 00000KT 7SM CLR 04/M02 A3040 RMK AO1,K24J,2015-02-21T06:35:00Z,30.3,-83.03,4.0,-2.0,0,0,,7.0,30.398623,,,TRUE,TRUE,,,,,,,CLR,,,,,,,,VFR,,,,,,,,,,,,SPECI,32.0
KBBP 210635Z AUTO 13003KT 10SM CLR M02/M15 A3048 RMK AO2,KBBP,2015-02-21T06:35:00Z,34.62,-79.73,-2.0,-15.0,130,3,,10.0,30.481298,,,TRUE,TRUE,,,,,,,CLR,,,,,,,,VFR,,,,,,,,,,,,METAR,45.0
KARW 210635Z AUTO 05006KT 10SM OVC090 03/00 A3043 RMK AO2,KARW,2015-02-21T06:35:00Z,32.42,-80.63,3.0,0.0,50,6,,10.0,30.431103,,,TRUE,TRUE,,,,,,,OVC,9000,,,,,,,VFR,,,,,,,,,,,,METAR,4.0
KIGQ 210635Z AUTO 20008KT 10SM OVC015 M08/M11 A2997 RMK AO2 T10771110,KIGQ,2015-02-21T06:35:00Z,41.53,-87.53,-7.7,-11.0,200,8,,10.0,29.970472,,,TRUE,TRUE,,,,,,,OVC,1500,,,,,,,MVFR,,,,,,,,,,,,METAR,188.0
KIFA 210635Z AUTO 31004KT 10SM OVC031 M01/M03 A2982 RMK AO2 T10101035,KIFA,2015-02-21T06:35:00Z,42.47,-93.27,-1.0,-3.5,310,4,,10.0,29.819881,,,TRUE,TRUE,,,,,,,OVC,3100,,,,,,,VFR,,,,,,,,,,,,METAR,347.0
KIDI 210635Z AUTO 00000KT 10SM FEW044 BKN055 OVC075 M12/M21 A3021 RMK A01,KIDI,2015-02-21T06:35:00Z,40.62,-79.08,-12.0,-21.0,0,0,,10.0,30.209646,,,TRUE,TRUE,,,,,,,FEW,4400,BKN,5500,OVC,7500,,,VFR,,,,,,,,,,,,METAR,429.0
KICL 210635Z AUTO 19004KT 10SM CLR M02/M05 A2988 RMK AO2,KICL,2015-02-21T06:35:00Z,40.72,-95.02,-2.0,-5.0,190,4,,10.0,29.878937,,,TRUE,TRUE,,,,,,,CLR,,,,,,,,VFR,,,,,,,,,,,,METAR,303.0
KI39 210635Z AUTO 19010KT 5SM SCT011 OVC032 M01/M03 A3007 RMK AO2,KI39,2015-02-21T06:35:00Z,37.63,-84.33,-1.0,-3.0,190,10,,5.0,30.070866,,,TRUE,TRUE,,,,,,,SCT,1100,OVC,3200,,,,,MVFR,,,,,,,,,,,,METAR,306.0
KHSB 210635Z AUTO 00000KT 7SM RA OVC011 00/00 A2997 RMK AO2 T10011001,KHSB,2015-02-21T06:35:00Z,37.82,-88.55,-0.1,-0.1,0,0,,7.0,29.970472,,,TRUE,TRUE,,,,,,RA,OVC,1100,,,,,,,MVFR,,,,,,,,,,,,METAR,121.0
KHAE 210635Z AUTO 18003KT 1 3/4SM -SN OVC008 M02/M03 A2990 RMK AO2,KHAE,2015-02-21T06:35:00Z,39.73,-91.45,-2.0,-3.0,180,3,,1.75,29.899607,,,TRUE,TRUE,,,,,,-SN,OVC,800,,,,,,,IFR,,,,,,,,,,,,METAR,234.0
KGPM 210635Z AUTO 18016G29KT 10SM BKN024 19/16 A2971 RMK AO2 T01910155,KGPM,2015-02-21T06:35:00Z,32.7,-97.05,19.1,15.5,180,16,29,10.0,29.71063,,,TRUE,TRUE,,,,,,,BKN,2400,,,,,,,MVFR,,,,,,,,,,,,METAR,180.0
KGEV 210635Z AUTO 13003KT 10SM SCT038 BKN090 M08/M18 A3020 RMK AO2 T10801177,KGEV,2015-02-21T06:35:00Z,36.43,-81.42,-8.0,-17.7,130,3,,10.0,30.200787,,,TRUE,TRUE,,,,,,,SCT,3800,BKN,9000,,,,,VFR,,,,,,,,,,,,METAR,969.0
KGCM 210635Z AUTO 01006KT 2SM -VCTSDZ OVC002 02/02 A2982 RMK AO2 P0001 LTG DSNT NE THRU SE,KGCM,2015-02-21T06:35:00Z,36.3,-95.48,2.0,2.0,10,6,,2.0,29.819881,,,TRUE,TRUE,,,,,,VCTS -DZ,OVC,200,,,,,,,LIFR,,,,,,0.01,,,,,,METAR,221.0
KGAG 210635Z AUTO 02013KT 2 1/2SM BR OVC003 04/04 A2985 RMK AO2 T00390039,KGAG,2015-02-21T06:35:00Z,36.3,-99.77,3.9,3.9,20,13,,2.5,29.84941,,,TRUE,TRUE,,,,,,BR,OVC,300,,,,,,,LIFR,,,,,,,,,,,,METAR,668.0
KFWZ 210635Z AUTO 13003KT 10SM SCT024 BKN090 OVC110 M06/M07 RMK AO2,KFWZ,2015-02-21T06:35:00Z,42.52,-108.78,-6.0,-7.0,130,3,,10.0,,,,TRUE,TRUE,,,,,,,SCT,2400,BKN,9000,OVC,11000,,,VFR,,,,,,,,,,,,METAR,2588.0
KFVX 210635Z AUTO 00000KT 10SM CLR M15/M22 A3045 RMK AO2 T11501225,KFVX,2015-02-21T06:35:00Z,37.35,-78.42,-15.0,-22.5,0,0,,10.0,30.448818,,,TRUE,TRUE,,,,,,,CLR,,,,,,,,VFR,,,,,,,,,,,,METAR,125.0
KFRR 210635Z AUTO 00000KT 10SM SCT085 M12/M20 A3035 RMK AO1,KFRR,2015-02-21T06:35:00Z,38.92,-78.25,-12.0,-20.0,0,0,,10.0,30.351377,,,TRUE,TRUE,,,,,,,SCT,8500,,,,,,,VFR,,,,,,,,,,,,METAR,216.0
KFEP 210635Z AUTO 17006KT 10SM SCT048 BKN055 M08/M11 A2991 RMK AO2 T10801107,KFEP,2015-02-21T06:35:00Z,42.25,-89.58,-8.0,-10.7,170,6,,10.0,29.911417,,,TRUE,TRUE,,,,,,,SCT,4800,BKN,5500,,,,,VFR,,,,,,,,,,,,METAR,262.0
KFBR 210635Z AUTO 25011KT 10SM CLR M03/M04 A2998 RMK AO2 T10261040,KFBR,2015-02-21T06:35:00Z,41.4,-110.4,-2.6,-4.0,250,11,,10.0,29.97933,,,TRUE,TRUE,,,,,,,CLR,,,,,,,,VFR,,,,,,,,,,,,METAR,2144.0
KELK 210635Z AUTO 36019G27KT 1/2SM FG OVC001 A2982 RMK AO2,KELK,2015-02-21T06:35:00Z,35.43,-99.4,,,360,19,27,0.5,29.819881,,,TRUE,TRUE,,,,,,FG,OVC,100,,,,,,,LIFR,,,,,,,,,,,,METAR,610.0
KEHY 210635Z AUTO 2SM -SN BKN008 OVC015 M04/M05 A2990 RMK AO2,KEHY,2015-02-21T06:35:00Z,41.73,-106.47,-4.0,-5.0,,,,2.0,29.899607,,,TRUE,TRUE,,,,,,-SN,BKN,800,OVC,1500,,,,,IFR,,,,,,,,,,,,METAR,2225.0
KTVC 210635Z VRB04KT 2 1/2SM -SN FEW022 OVC038 M10/M13 A2990 RMK AO2 P0000 T11001133,KTVC,2015-02-21T06:35:00Z,44.73,-85.57,-10.0,-13.3,0,4,,2.5,29.899607,,,,TRUE,,,,,,-SN,FEW,2200,OVC,3800,,,,,IFR,,,,,,0.0050,,,,,,METAR,190.0
KTTA 210635Z AUTO 00000KT 10SM CLR M10/M12 A3049 RMK AO2 T11001117,KTTA,2015-02-21T06:35:00Z,35.58,-79.1,-10.0,-11.7,0,0,,10.0,30.490158,,,TRUE,TRUE,,,,,,,CLR,,,,,,,,VFR,,,,,,,,,,,,METAR,75.0
KTPF 210635Z AUTO 06009KT 10SM CLR 08/03 A3037 RMK AO2,KTPF,2015-02-21T06:35:00Z,27.92,-82.45,8.0,3.0,60,9,,10.0,30.369095,,,TRUE,TRUE,,,,,,,CLR,,,,,,,,VFR,,,,,,,,,,,,METAR,3.0
KTME 210635Z AUTO 19014G18KT 9SM FEW020 SCT029 BKN037 19/17 A2991 RMK AO2,KTME,2015-02-21T06:35:00Z,29.8,-95.9,19.0,17.0,190,14,18,9.0,29.911417,,,TRUE,TRUE,,,,,,,FEW,2000,SCT,2900,BKN,3700,,,VFR,,,,,,,,,,,,METAR,51.0
KSZT 210635Z AUTO 00000KT 10SM BKN090 M02/M02 A3010 RMK AO2,KSZT,2015-02-21T06:35:00Z,48.3,-116.57,-2.0,-2.0,0,0,,10.0,30.100393,,,TRUE,TRUE,,,,,,,BKN,9000,,,,,,,VFR,,,,,,,,,,,,METAR,648.0
KSTF 210635Z AUTO 16013G17KT 10SM SCT025 BKN033 OVC090 07/02 A3005 RMK AO2,KSTF,2015-02-21T06:35:00Z,33.43,-88.85,7.0,2.0,160,13,17,10.0,30.050198,,,TRUE,TRUE,,,,,,,SCT,2500,BKN,3300,OVC,9000,,,VFR,,,,,,,,,,,,METAR,102.0
KSOW 210635Z AUTO 18013G18KT 10SM CLR 05/M04 A3003 RMK AO2,KSOW,2015-02-21T06:35:00Z,34.27,-110.0,5.0,-4.0,180,13,18,10.0,30.029528,,,TRUE,TRUE,,,,,,,CLR,,,,,,,,VFR,,,,,,,,,,,,METAR,1954.0
KSNL 210635Z AUTO 01009KT 1 1/2SM -RA OVC001 03/03 A2978 RMK AO2,KSNL,2015-02-21T06:35:00Z,35.35,-96.95,3.0,3.0,10,9,,1.5,29.778543,,,TRUE,TRUE,,,,,,-RA,OVC,100,,,,,,,LIFR,,,,,,,,,,,,METAR,327.0
KSLO 210635Z AUTO 00000KT 1 1/2SM -SN BKN004 OVC010 M01/M03 A2994 RMK AO2 LTG DSNT W P0006 T10151027,KSLO,2015-02-21T06:35:00Z,38.65,-88.97,-1.5,-2.7,0,0,,1.5,29.940945,,,TRUE,TRUE,,,,,,-SN,BKN,400,OVC,1000,,,,,LIFR,,,,,,0.06,,,,,,METAR,175.0
KSGF 210635Z 07008KT 2 1/2SM -FZRA BR OVC004 M01/M02 A2983 RMK AO2 LTG DSNT S AND SW FZRAB04 P0001 I1002 T10061017,KSGF,2015-02-21T06:35:00Z,37.23,-93.38,-0.6,-1.7,70,8,,2.5,29.828741,,,,TRUE,,,,,,-FZRA BR,OVC,400,,,,,,,LIFR,,,,,,0.01,,,,,,METAR,390.0
KSET 210635Z AUTO 12003KT 1/4SM +SN FZFG BKN008 OVC023 M04/M04 A2992 RMK AO2 T10391044 PNO $,KSET,2015-02-21T06:35:00Z,38.93,-90.43,-3.9,-4.4,120,3,,0.25,29.920275,,,TRUE,TRUE,TRUE,,,,,+SN FZFG,BKN,800,OVC,2300,,,,,LIFR,,,,,,,,,,,,METAR,134.0
KSAR 210635Z AUTO 00000KT 3SM -SN OVC005 00/M01 A2993 RMK AO2 LTG DSNT SW P0018 T10051011,KSAR,2015-02-21T06:35:00Z,38.15,-89.7,-0.5,-1.1,0,0,,3.0,29.929134,,,TRUE,TRUE,,,,,,-SN,OVC,500,,,,,,,IFR,,,,,,0.18,,,,,,METAR,164.0
KRYW 210635Z AUTO 18014G23KT 150V210 10SM OVC012 18/15 A2983 RMK AO2 T01840153,KRYW,2015-02-21T06:35:00Z,30.5,-97.97,18.4,15.3,180,14,23,10.0,29.828741,,,TRUE,TRUE,,,,,,,OVC,1200,,,,,,,MVFR,,,,,,,,,,,,METAR,376.0
KRUE 210635Z AUTO 00000KT 3SM BR OVC006 01/M01 A2982 RMK AO2 T00061006,KRUE,2015-02-21T06:35:00Z,35.25,-93.1,0.6,-0.6,0,0,,3.0,29.819881,,,TRUE,TRUE,,,,,,BR,OVC,600,,,,,,,IFR,,,,,,,,,,,,METAR,115.0
KRSV 210635Z AUTO 12005KT 1 1/2SM -SN BKN007 OVC015 M06/M07 A3001 RMK AO2 T10601069,KRSV,2015-02-21T06:35:00Z,39.02,-87.65,-6.0,-6.9,120,5,,1.5,30.008858,,,TRUE,TRUE,,,,,,-SN,BKN,700,OVC,1500,,,,,IFR,,,,,,,,,,,,METAR,141.0
KRSN 210635Z AUTO 18012KT 10SM BKN021 BKN031 OVC047 14/13 A2994 RMK AO2 T01400130,KRSN,2015-02-21T06:35:00Z,32.52,-92.58,14.0,13.0,180,12,,10.0,29.940945,,,TRUE,TRUE,,,,,,,BKN,2100,BKN,3100,OVC,4700,,,MVFR,,,,,,,,,,,,METAR,95.0
KRPD 210635Z AUTO 00000KT 10SM OVC026 M08/M10 A2983 RMK AO2 T10841104,KRPD,2015-02-21T06:35:00Z,45.42,-91.77,-8.4,-10.4,0,0,,10.0,29.828741,,,TRUE,TRUE,,,,,,,OVC,2600,,,,,,,MVFR,,,,,,,,,,,,METAR,338.0
KRCX 210635Z AUTO 00000KT 10SM OVC013 M09/M11 A2983 RMK AO2 T10921109,KRCX,2015-02-21T06:35:00Z,45.5,-91.0,-9.2,-10.9,0,0,,10.0,29.828741,,,TRUE,TRUE,,,,,,,OVC,1300,,,,,,,MVFR,,,,,,,,,,,,METAR,377.0
KRBW 210635Z AUTO 05003KT 10SM SCT065 OVC075 00/M05 A3045 RMK AO2,KRBW,2015-02-21T06:35:00Z,32.92,-80.63,0.0,-5.0,50,3,,10.0,30.448818,,,TRUE,TRUE,,,,,,,SCT,6500,OVC,7500,,,,,VFR,,,,,,,,,,,,METAR,31.0
KPVJ 210635Z AUTO 35008KT 5SM BR OVC009 08/07 A2969 RMK AO2 T00760070,KPVJ,2015-02-21T06:35:00Z,34.72,-97.22,7.6,7.0,350,8,,5.0,29.68996,,,TRUE,TRUE,,,,,,BR,OVC,900,,,,,,,IFR,,,,,,,,,,,,METAR,295.0
KPVF 210635Z AUTO 00000KT 10SM CLR 11/08 A3000 RMK AO1,KPVF,2015-02-21T06:35:00Z,38.72,-120.75,11.0,8.0,0,0,,10.0,30.0,,,TRUE,TRUE,,,,,,,CLR,,,,,,,,VFR,,,,,,,,,,,,METAR,789.0
KPUJ 210635Z AUTO 15011G15KT 120V180 10SM OVC035 01/M09 A3027 RMK AO2,KPUJ,2015-02-21T06:35:00Z,33.92,-84.93,1.0,-9.0,150,11,15,10.0,30.268702,,,TRUE,TRUE,,,,,,,OVC,3500,,,,,,,VFR,,,,,,,,,,,,METAR,393.0
KPRO 210635Z AUTO 00000KT 10SM M02/M03 A2983 RMK AO2 T10181035,KPRO,2015-02-21T06:35:00Z,41.83,-94.17,-1.8,-3.5,0,0,,10.0,29.828741,,,TRUE,TRUE,,,,,,,,,,,,,,,,,,,,,,,,,,,METAR,308.0
KPKV 210635Z AUTO 17012KT 7SM SCT019 19/17 A2990 RMK AO2 T01850170,KPKV,2015-02-21T06:35:00Z,28.65,-96.68,18.5,17.0,170,12,,7.0,29.899607,,,TRUE,TRUE,,,,,,,SCT,1900,,,,,,,VFR,,,,,,,,,,,,METAR,9.0
KPEZ 210635Z AUTO 13004KT 10SM SCT018 17/15 A2984 RMK AO2 T01700150,KPEZ,2015-02-21T06:35:00Z,28.95,-98.52,17.0,15.0,130,4,,10.0,29.840551,,,TRUE,TRUE,,,,,,,SCT,1800,,,,,,,VFR,,,,,,,,,,,,METAR,132.0
KPCM 210635Z AUTO 07006KT 10SM CLR A3038 RMK AO2,KPCM,2015-02-21T06:35:00Z,28.0,-82.17,,,70,6,,10.0,30.380905,,,TRUE,TRUE,,,,,,,CLR,,,,,,,,VFR,,,,,,,,,,,,METAR,47.0
KPBH 210635Z AUTO 22003KT 10SM -SN BKN012 OVC017 M11/M12 A2978 RMK AO2 T11071121,KPBH,2015-02-21T06:35:00Z,45.7,-90.4,-10.7,-12.1,220,3,,10.0,29.778543,,,TRUE,TRUE,,,,,,-SN,BKN,1200,OVC,1700,,,,,MVFR,,,,,,,,,,,,METAR,449.0
KOWP 210635Z AUTO 35005KT 1 3/4SM -RA OVC001 04/03 A2980 RMK AO2 LTG DSNT NE AND E T00360027,KOWP,2015-02-21T06:35:00Z,36.18,-96.15,3.6,2.7,350,5,,1.75,29.799213,,,TRUE,TRUE,,,,,,-RA,OVC,100,,,,,,,LIFR,,,,,,,,,,,,METAR,272.0
KORG 210635Z AUTO 17011G18KT 7SM SCT047 SCT065 OVC075 18/15 A2998 RMK AO2 T01750154,KORG,2015-02-21T06:35:00Z,30.07,-93.8,17.5,15.4,170,11,18,7.0,29.97933,,,TRUE,TRUE,,,,,,,SCT,4700,SCT,6500,OVC,7500,,,VFR,,,,,,,,,,,,METAR,4.0
KONX 210635Z AUTO 00000KT 10SM CLR M10/M14 A3057 RMK AO2 T11041138,KONX,2015-02-21T06:35:00Z,36.4,-76.02,-10.4,-13.8,0,0,,10.0,30.569881,,,TRUE,TRUE,,,,,,,CLR,,,,,,,,VFR,,,,,,,,,,,,METAR,5.0
KOKZ 210635Z AUTO 15005KT 10SM OVC049 00/M08 A3040 RMK AO2 T00021082 PNO,KOKZ,2015-02-21T06:35:00Z,32.97,-82.83,0.2,-8.2,150,5,,10.0,30.398623,,,TRUE,TRUE,,,,,,,OVC,4900,,,,,,,VFR,,,,,,,,,,,,METAR,134.0
KOBE 210635Z AUTO 01004KT 10SM CLR 05/03 A3035 RMK AO2,KOBE,2015-02-21T06:35:00Z,27.27,-80.85,5.0,3.0,10,4,,10.0,30.351377,,,TRUE,TRUE,,,,,,,CLR,,,,,,,,VFR,,,,,,,,,,,,METAR,11.0
KRDR 210635Z AUTO 02014KT 10SM SCT008 BKN080 OVC120 M14/M19 A3004 RMK AO2 SNB0606E0625,KRDR,2015-02-21T06:35:00Z,47.97,-97.4,-14.0,-19.0,20,14,,10.0,30.041338,,,TRUE,TRUE,,,,,,,SCT,800,BKN,8000,OVC,12000,,,VFR,,,,,,,,,,,,METAR,278.0
KPQI 210635Z AUTO 26005KT 10SM CLR M16/M22 A3016 RMK AO1,KPQI,2015-02-21T06:35:00Z,46.67,-68.03,-16.0,-22.0,260,5,,10.0,30.159449,,,TRUE,TRUE,,,,,,,CLR,,,,,,,,VFR,,,,,,,,,,,,METAR,146.0
KPHT 210635Z AUTO 16015KT 3SM SCT012 BKN019 OVC036 M01/M02 A2993 RMK,KPHT,2015-02-21T06:35:00Z,36.33,-88.38,-1.0,-2.0,160,15,,3.0,29.929134,,,TRUE,,,,,,,,SCT,1200,BKN,1900,OVC,3600,,,MVFR,,,,,,,,,,,,METAR,177.0
KPAN 210635Z AUTO 00000KT 10SM CLR 07/M02 A3003 RMK AO2,KPAN,2015-02-21T06:35:00Z,34.25,-111.33,7.0,-2.0,0,0,,10.0,30.029528,,,TRUE,TRUE,,,,,,,CLR,,,,,,,,VFR,,,,,,,,,,,,METAR,1572.0
KOZW 210635Z AUTO 19009KT 10SM OVC020 M11/M16 A2999 RMK AO2 T11061161,KOZW,2015-02-21T06:35:00Z,42.62,-83.97,-10.6,-16.1,190,9,,10.0,29.991142,,,TRUE,TRUE,,,,,,,OVC,2000,,,,,,,MVFR,,,,,,,,,,,,METAR,293.0
KOXC 210635Z 22003KT 10SM CLR M16/M26 A3043 RMK AO1,KOXC,2015-02-21T06:35:00Z,41.47,-73.13,-16.0,-26.0,220,3,,10.0,30.431103,,,,TRUE,,,,,,,CLR,,,,,,,,VFR,,,,,,,,,,,,METAR,222.0
KOWA 210635Z AUTO 31004KT 7SM OVC011 M04/M06 A2982 RMK AO2,KOWA,2015-02-21T06:35:00Z,44.12,-93.25,-4.0,-6.0,310,4,,7.0,29.819881,,,TRUE,TRUE,,,,,,,OVC,1100,,,,,,,MVFR,,,,,,,,,,,,METAR,350.0
KOEB 210635Z AUTO 21008KT 10SM OVC019 M09/M14 A2998 RMK AO2 T10931142,KOEB,2015-02-21T06:35:00Z,41.92,-85.03,-9.3,-14.2,210,8,,10.0,29.97933,,,TRUE,TRUE,,,,,,,OVC,1900,,,,,,,MVFR,,,,,,,,,,,,METAR,292.0
KMNI 210635Z AUTO 00000KT 10SM CLR M02/M08 A3047 RMK AO2,KMNI,2015-02-21T06:35:00Z,33.58,-80.22,-2.0,-8.0,0,0,,10.0,30.469488,,,TRUE,TRUE,,,,,,,CLR,,,,,,,,VFR,,,,,,,,,,,,METAR,32.0
KMEZ 210635Z AUTO 20003G17KT 1 1/4SM BKN001 OVC008 13/12 A2975 RMK AO2 VIS 1/2V5 P0002,KMEZ,2015-02-21T06:35:00Z,34.55,-94.2,13.0,12.0,200,3,17,1.25,29.749016,,,TRUE,TRUE,,,,,,,BKN,100,OVC,800,,,,,LIFR,,,,,,0.02,,,,,,METAR,329.0
KM91 210635Z AUTO 19011KT 10SM OVC025 M01/M01 A3001 RMK,KM91,2015-02-21T06:35:00Z,36.53,-86.92,-1.0,-1.0,190,11,,10.0,30.008858,,,TRUE,,,,,,,,OVC,2500,,,,,,,MVFR,,,,,,,,,,,,METAR,215.0
KLWA 210635Z AUTO 20007KT 10SM OVC025 M08/M15 A2998 RMK AO2 T10781148,KLWA,2015-02-21T06:35:00Z,42.35,-86.25,-7.8,-14.8,200,7,,10.0,29.97933,,,TRUE,TRUE,,,,,,,OVC,2500,,,,,,,MVFR,,,,,,,,,,,,METAR,203.0
KLEW 210635Z AUTO 00000KT 10SM CLR M25/M30 A3034 RMK AO1,KLEW,2015-02-21T06:35:00Z,44.03,-70.27,-25.0,-30.0,0,0,,10.0,30.339567,,,TRUE,TRUE,,,,,,,CLR,,,,,,,,VFR,,,,,,,,,,,,METAR,88.0
KLBE 210635Z AUTO 00000KT 10SM SCT060 BKN100 M16/M19 A3019 RMK AO2,KLBE,2015-02-21T06:35:00Z,40.27,-79.4,-16.0,-19.0,0,0,,10.0,30.188976,,,TRUE,TRUE,,,,,,,SCT,6000,BKN,10000,,,,,VFR,,,,,,,,,,,,METAR,361.0
KJYG 210635Z AUTO 30010KT 10SM CLR M07/M09 A2988 RMK AO2,KJYG,2015-02-21T06:35:00Z,43.98,-94.55,-7.0,-9.0,300,10,,10.0,29.878937,,,TRUE,TRUE,,,,,,,CLR,,,,,,,,VFR,,,,,,,,,,,,METAR,325.0
KJHN 210635Z AUTO 35010KT 10SM CLR 02/M01 A2991 RMK AO2 T00151011,KJHN,2015-02-21T06:35:00Z,37.58,-101.73,1.5,-1.1,350,10,,10.0,29.911417,,,TRUE,TRUE,,,,,,,CLR,,,,,,,,VFR,,,,,,,,,,,,METAR,1013.0
KI67 210635Z AUTO 00000KT 7SM OVC019 M05/M12 A3003 RMK AO1,KI67,2015-02-21T06:35:00Z,39.25,-84.78,-5.0,-12.0,0,0,,7.0,30.029528,,,TRUE,TRUE,,,,,,,OVC,1900,,,,,,,MVFR,,,,,,,,,,,,METAR,178.0
KHYX 210635Z AUTO 18011KT 10SM -SN OVC050 M10/M15 A3001 RMK AO2,KHYX,2015-02-21T06:35:00Z,43.43,-83.87,-10.0,-15.0,180,11,,10.0,30.008858,,,TRUE,TRUE,,,,,,-SN,OVC,5000,,,,,,,VFR,,,,,,,,,,,,METAR,183.0
KHYW 210635Z AUTO 00000KT 10SM CLR M05/M07 A3050 RMK AO2,KHYW,2015-02-21T06:35:00Z,33.83,-79.12,-5.0,-7.0,0,0,,10.0,30.499016,,,TRUE,TRUE,,,,,,,CLR,,,,,,,,VFR,,,,,,,,,,,,METAR,11.0
KHXD 210635Z AUTO 02003KT 10SM CLR 03/02 A3043 RMK AO2 P0000,KHXD,2015-02-21T06:35:00Z,32.22,-80.7,3.0,2.0,20,3,,10.0,30.431103,,,TRUE,TRUE,,,,,,,CLR,,,,,,,,VFR,,,,,,0.0050,,,,,,METAR,6.0
KHVS 210635Z AUTO 13003KT 10SM BKN080 M03/M11 A3047 RMK AO2,KHVS,2015-02-21T06:35:00Z,34.4,-80.12,-3.0,-11.0,130,3,,10.0,30.469488,,,TRUE,TRUE,,,,,,,BKN,8000,,,,,,,VFR,,,,,,,,,,,,METAR,111.0
KHOB 210635Z AUTO 26011KT 10SM CLR 14/M06 A2979 RMK AO2,KHOB,2015-02-21T06:35:00Z,32.67,-103.22,14.0,-6.0,260,11,,10.0,29.790354,,,TRUE,TRUE,,,,,,,CLR,,,,,,,,VFR,,,,,,,,,,,,METAR,1115.0
KHAF 210635Z AUTO 32005KT 9SM SCT003 08/08 A2998 RMK AO2,KHAF,2015-02-21T06:35:00Z,37.52,-122.5,8.0,8.0,320,5,,9.0,29.97933,,,TRUE,TRUE,,,,,,,SCT,300,,,,,,,VFR,,,,,,,,,,,,METAR,21.0
KGOV 210635Z AUTO 19005KT 3SM -SN SCT024 OVC036 M13/M16 A2989 RMK AO2 T11311160,KGOV,2015-02-21T06:35:00Z,44.68,-84.73,-13.1,-16.0,190,5,,3.0,29.890747,,,TRUE,TRUE,,,,,,-SN,SCT,2400,OVC,3600,,,,,MVFR,,,,,,,,,,,,METAR,353.0
KFYM 210635Z AUTO 17016KT 10SM OVC028 M02/M06 RMK,KFYM,2015-02-21T06:35:00Z,35.07,-86.57,-2.0,-6.0,170,16,,10.0,,,,TRUE,,,,,,,,OVC,2800,,,,,,,MVFR,,,,,,,,,,,,METAR,300.0
KFSE 210635Z AUTO 32006KT 10SM CLR M19/M21 A2994 RMK AO2,KFSE,2015-02-21T06:35:00Z,47.58,-95.77,-19.0,-21.0,320,6,,10.0,29.940945,,,TRUE,TRUE,,,,,,,CLR,,,,,,,,VFR,,,,,,,,,,,,METAR,389.0
KFPK 210635Z AUTO 19008KT 5SM -SN SCT016 OVC023 M10/M13 A2998 RMK AO2 T11051132,KFPK,2015-02-21T06:35:00Z,42.57,-84.82,-10.5,-13.2,190,8,,5.0,29.97933,,,TRUE,TRUE,,,,,,-SN,SCT,1600,OVC,2300,,,,,MVFR,,,,,,,,,,,,METAR,272.0
KFMM 210635Z AUTO 32003KT 10SM OVC095 00/M03 A2996 RMK AO2 T10011034,KFMM,2015-02-21T06:35:00Z,40.33,-103.8,-0.1,-3.4,320,3,,10.0,29.958662,,,TRUE,TRUE,,,,,,,OVC,9500,,,,,,,VFR,,,,,,,,,,,,METAR,1393.0
KFMH 210635Z AUTO 29010KT 10SM FEW035 SCT047 BKN060 M13/M21 A3048 RMK AO2 FZRANO,KFMH,2015-02-21T06:35:00Z,41.63,-70.52,-13.0,-21.0,290,10,,10.0,30.481298,,,TRUE,TRUE,,,,TRUE,,,FEW,3500,SCT,4700,BKN,6000,,,VFR,,,,,,,,,,,,METAR,40.0
KFFX 210635Z AUTO 19008KT 7SM -SN OVC025 M10/M15 A2995 RMK AO2 T10971147,KFFX,2015-02-21T06:35:00Z,43.43,-86.0,-9.7,-14.7,190,8,,7.0,29.949802,,,TRUE,TRUE,,,,,,-SN,OVC,2500,,,,,,,MVFR,,,,,,,,,,,,METAR,236.0
KWVL 210635Z 25004KT CLR M15/M26 A3031 RMK AO1,KWVL,2015-02-21T06:35:00Z,44.52,-69.67,-15.0,-26.0,250,4,,,30.31004,,,,TRUE,,,,,,,CLR,,,,,,,,,,,,,,,,,,,,METAR,101.0
KUYF 210635Z AUTO 16007KT 10SM OVC021 M09/M16 A3007 RMK AO2,KUYF,2015-02-21T06:35:00Z,39.93,-83.47,-9.0,-16.0,160,7,,10.0,30.070866,,,TRUE,TRUE,,,,,,,OVC,2100,,,,,,,MVFR,,,,,,,,,,,,METAR,330.0
KUTA 210635Z AUTO 16013KT 7SM RA SCT009 BKN013 OVC019 04/02 A2989 RMK AO2 P0002,KUTA,2015-02-21T06:35:00Z,34.68,-90.35,4.0,2.0,160,13,,7.0,29.890747,,,TRUE,TRUE,,,,,,RA,SCT,900,BKN,1300,OVC,1900,,,MVFR,,,,,,0.02,,,,,,METAR,59.0
KUKT 210635Z AUTO 00000KT 10SM CLR M19/M23 A3046 RMK AO1,KUKT,2015-02-21T06:35:00Z,40.43,-75.38,-19.0,-23.0,0,0,,10.0,30.46063,,,TRUE,TRUE,,,,,,,CLR,,,,,,,,VFR,,,,,,,,,,,,METAR,160.0
KTHA 210635Z AUTO 15007KT 5SM OVC027 M02/M04 A3011 RMK,KTHA,2015-02-21T06:35:00Z,35.38,-86.25,-2.0,-4.0,150,7,,5.0,30.109253,,,TRUE,,,,,,,,OVC,2700,,,,,,,MVFR,,,,,,,,,,,,METAR,331.0
KSUA 210635Z AUTO 07008KT 10SM BKN060 15/06 A3034 RMK AO2,KSUA,2015-02-21T06:35:00Z,27.18,-80.22,15.0,6.0,70,8,,10.0,30.339567,,,TRUE,TRUE,,,,,,,BKN,6000,,,,,,,VFR,,,,,,,,,,,,METAR,6.0
KSPL 210635Z AUTO 19013G19KT 1SM SCT020 18/18 A2990 RMK AO1 VSBY 1/2V1 3/4,KSPL,2015-02-21T06:35:00Z,26.07,-97.15,18.0,18.0,190,13,19,1.0,29.899607,,,TRUE,TRUE,,,,,,,SCT,2000,,,,,,,IFR,,,,,,,,,,,,METAR,4.0
KSMS 210635Z AUTO 00000KT 10SM BKN070 OVC110 M02/M08 A3048 RMK AO2,KSMS,2015-02-21T06:35:00Z,34.0,-80.37,-2.0,-8.0,0,0,,10.0,30.481298,,,TRUE,TRUE,,,,,,,BKN,7000,OVC,11000,,,,,VFR,,,,,,,,,,,,METAR,56.0
KSFZ 210635Z 22003KT 10SM CLR M16/M25 A3042 RMK AO1,KSFZ,2015-02-21T06:35:00Z,41.92,-71.5,-16.0,-25.0,220,3,,10.0,30.41929,,,,TRUE,,,,,,,CLR,,,,,,,,VFR,,,,,,,,,,,,METAR,134.0
KSFM 210635Z AUTO 25008KT 10SM CLR M20/M26 A3038 RMK AO1,KSFM,2015-02-21T06:35:00Z,43.38,-70.72,-20.0,-26.0,250,8,,10.0,30.380905,,,TRUE,TRUE,,,,,,,CLR,,,,,,,,VFR,,,,,,,,,,,,METAR,74.0
KSEM 210635Z AUTO 10007KT 10SM 06/M07 A3023 RMK AO2,KSEM,2015-02-21T06:35:00Z,32.35,-86.98,6.0,-7.0,100,7,,10.0,30.230314,,,TRUE,TRUE,,,,,,,,,,,,,,,,,,,,,,,,,,,METAR,51.0
KRUT 210635Z 00000KT 10SM CLR M18/M18 A3037 RMK AO1,KRUT,2015-02-21T06:35:00Z,43.52,-72.95,-18.0,-18.0,0,0,,10.0,30.369095,,,,TRUE,,,,,,,CLR,,,,,,,,VFR,,,,,,,,,,,,METAR,240.0
KRQO 210635Z AUTO 01015KT OVC001 05/05 A2975 RMK AO2 PWINO,KRQO,2015-02-21T06:35:00Z,35.47,-98.0,5.0,5.0,10,15,,,29.749016,,,TRUE,TRUE,,,,,TRUE,,OVC,100,,,,,,,,,,,,,,,,,,,METAR,432.0
KRNP 210635Z AUTO 19008KT 10SM -SN OVC025 M10/M15 A3001 RMK AO2 T11031152,KRNP,2015-02-21T06:35:00Z,43.0,-84.13,-10.3,-15.2,190,8,,10.0,30.008858,,,TRUE,TRUE,,,,,,-SN,OVC,2500,,,,,,,MVFR,,,,,,,,,,,,METAR,224.0
KRKD 210635Z AUTO 28006KT 10SM CLR M16/M24 A3036 RMK AO1,KRKD,2015-02-21T06:35:00Z,44.07,-69.08,-16.0,-24.0,280,6,,10.0,30.360237,,,TRUE,TRUE,,,,,,,CLR,,,,,,,,VFR,,,,,,,,,,,,METAR,17.0
KPVC 210635Z AUTO 28013KT CLR M09/M17 A3047 RMK AO1,KPVC,2015-02-21T06:35:00Z,42.07,-70.22,-9.0,-17.0,280,13,,,30.469488,,,TRUE,TRUE,,,,,,,CLR,,,,,,,,,,,,,,,,,,,,METAR,2.0
KPSO 210635Z AUTO 00000KT 10SM CLR M01/M14 A2991 RMK AO2 T10071141,KPSO,2015-02-21T06:35:00Z,37.28,-107.05,-0.7,-14.1,0,0,,10.0,29.911417,,,TRUE,TRUE,,,,,,,CLR,,,,,,,,VFR,,,,,,,,,,,,METAR,2334.0
KEDC 210635Z AUTO 19015G22KT 10SM OVC018 19/15 A2984 RMK AO2,KEDC,2015-02-21T06:35:00Z,30.4,-97.57,19.0,15.0,190,15,22,10.0,29.840551,,,TRUE,TRUE,,,,,,,OVC,1800,,,,,,,MVFR,,,,,,,,,,,,METAR,189.0
KE80 210635Z AUTO 26013KT 10SM CLR 11/M08 A2991 RMK AO2 T01111077,KE80,2015-02-21T06:35:00Z,34.65,-106.83,11.1,-7.7,260,13,,10.0,29.911417,,,TRUE,TRUE,,,,,,,CLR,,,,,,,,VFR,,,,,,,,,,,,METAR,1582.0
KDYB 210635Z AUTO 03003KT 10SM SCT085 BKN110 M02/M05 A3046 RMK AO1,KDYB,2015-02-21T06:35:00Z,33.07,-80.28,-2.0,-5.0,30,3,,10.0,30.46063,,,TRUE,TRUE,,,,,,,SCT,8500,BKN,11000,,,,,VFR,,,,,,,,,,,,METAR,18.0
KDTL 210635Z AUTO 34010KT 10SM -SN CLR M13/M15 A2993 RMK AO2,KDTL,2015-02-21T06:35:00Z,46.82,-95.87,-13.0,-15.0,340,10,,10.0,29.929134,,,TRUE,TRUE,,,,,,-SN,CLR,,,,,,,,VFR,,,,,,,,,,,,METAR,426.0
KDRM 210635Z AUTO 20010KT 5SM -SN SCT008 BKN016 OVC028 M11/M13 A2990 RMK AO2 T11101135,KDRM,2015-02-21T06:35:00Z,46.0,-83.75,-11.0,-13.5,200,10,,5.0,29.899607,,,TRUE,TRUE,,,,,,-SN,SCT,800,BKN,1600,OVC,2800,,,MVFR,,,,,,,,,,,,METAR,204.0
KD57 210635Z AUTO 02008KT 2 1/2SM HZ FEW004 SCT017 BKN023 M07/M10 A2996 RMK AO2,KD57,2015-02-21T06:35:00Z,46.82,-101.87,-7.0,-10.0,20,8,,2.5,29.958662,,,TRUE,TRUE,,,,,,HZ,FEW,400,SCT,1700,BKN,2300,,,IFR,,,,,,,,,,,,METAR,637.0
KCQW 210635Z AUTO 12003KT 10SM CLR M05/M15 A3047 RMK AO2,KCQW,2015-02-21T06:35:00Z,34.72,-79.95,-5.0,-15.0,120,3,,10.0,30.469488,,,TRUE,TRUE,,,,,,,CLR,,,,,,,,VFR,,,,,,,,,,,,METAR,73.0
KCKN 210635Z AUTO 36013KT 10SM CLR M14/M17 A3001 RMK AO2,KCKN,2015-02-21T06:35:00Z,47.85,-96.62,-14.0,-17.0,360,13,,10.0,30.008858,,,TRUE,TRUE,,,,,,,CLR,,,,,,,,VFR,,,,,,,,,,,,METAR,273.0
KCIC 210635Z AUTO 00000KT 10SM CLR 12/05 A2998 RMK AO1,KCIC,2015-02-21T06:35:00Z,39.78,-121.83,12.0,5.0,0,0,,10.0,29.97933,,,TRUE,TRUE,,,,,,,CLR,,,,,,,,VFR,,,,,,,,,,,,METAR,73.0
KCFS 210635Z AUTO 17005KT 10SM -SN OVC036 M11/M15 A3002 RMK AO2 T11121155,KCFS,2015-02-21T06:35:00Z,43.47,-83.45,-11.2,-15.5,170,5,,10.0,30.02067,,,TRUE,TRUE,,,,,,-SN,OVC,3600,,,,,,,VFR,,,,,,,,,,,,METAR,214.0
KCDN 210635Z AUTO 13004KT 10SM FEW070 FEW080 FEW120 M03/M11 A3046 RMK AO2 TSNO,KCDN,2015-02-21T06:35:00Z,34.28,-80.57,-3.0,-11.0,130,4,,10.0,30.46063,,,TRUE,TRUE,,,TRUE,,,,FEW,7000,FEW,8000,FEW,12000,,,VFR,,,,,,,,,,,,METAR,92.0
KCBG 210635Z AUTO 34006KT 10SM OVC020 M04/M09 A2982 RMK AO2,KCBG,2015-02-21T06:35:00Z,45.57,-93.27,-4.0,-9.0,340,6,,10.0,29.819881,,,TRUE,TRUE,,,,,,,OVC,2000,,,,,,,MVFR,,,,,,,,,,,,METAR,287.0
KBVU 210635Z AUTO 00000KT 10SM CLR 14/M03 A2988 RMK AO2,KBVU,2015-02-21T06:35:00Z,35.95,-114.87,14.0,-3.0,0,0,,10.0,29.878937,,,TRUE,TRUE,,,,,,,CLR,,,,,,,,VFR,,,,,,,,,,,,METAR,671.0
KBOW 210635Z AUTO 04006KT 10SM CLR 06/02 A3038 RMK AO2,KBOW,2015-02-21T06:35:00Z,27.93,-81.77,6.0,2.0,40,6,,10.0,30.380905,,,TRUE,TRUE,,,,,,,CLR,,,,,,,,VFR,,,,,,,,,,,,METAR,39.0
KBNL 210635Z AUTO 09004KT FEW065 00/M07 A3043 RMK AO2,KBNL,2015-02-21T06:35:00Z,33.25,-81.38,0.0,-7.0,90,4,,,30.431103,,,TRUE,TRUE,,,,,,,FEW,6500,,,,,,,,,,,,,,,,,,,METAR,75.0
KBID 210635Z AUTO 29005KT 10SM CLR M08/M17 A3047 RMK AO1,KBID,2015-02-21T06:35:00Z,41.17,-71.58,-8.0,-17.0,290,5,,10.0,30.469488,,,TRUE,TRUE,,,,,,,CLR,,,,,,,,VFR,,,,,,,,,,,,METAR,33.0
KBHB 210635Z 26004KT 10SM CLR M15/M21 A3036 RMK AO1,KBHB,2015-02-21T06:35:00Z,44.45,-68.37,-15.0,-21.0,260,4,,10.0,30.360237,,,,TRUE,,,,,,,CLR,,,,,,,,VFR,,,,,,,,,,,,METAR,26.0
KBDH 210635Z AUTO 33011KT 10SM OVC100 M09/M12 A2989 RMK AO2,KBDH,2015-02-21T06:35:00Z,45.12,-95.13,-9.0,-12.0,330,11,,10.0,29.890747,,,TRUE,TRUE,,,,,,,OVC,10000,,,,,,,VFR,,,,,,,,,,,,METAR,247.0
KATS 210635Z AUTO 26015KT 10SM CLR 17/M06 A2980 RMK AO2,KATS,2015-02-21T06:35:00Z,32.85,-104.47,17.0,-6.0,260,15,,10.0,29.799213,,,TRUE,TRUE,,,,,,,CLR,,,,,,,,VFR,,,,,,,,,,,,METAR,1081.0
KAQX 210635Z AUTO 00000KT 10SM FEW070 BKN095 M00/M06 A3043 RMK AO2,KAQX,2015-02-21T06:35:00Z,32.98,-81.27,0.0,-6.0,0,0,,10.0,30.431103,,,TRUE,TRUE,,,,,,,FEW,7000,BKN,9500,,,,,VFR,,,,,,,,,,,,METAR,49.0
KALM 210635Z AUTO 23005KT 10SM CLR 15/M08 A2991 RMK AO2,KALM,2015-02-21T06:35:00Z,32.82,-105.97,15.0,-8.0,230,5,,10.0,29.911417,,,TRUE,TRUE,,,,,,,CLR,,,,,,,,VFR,,,,,,,,,,,,METAR,1279.0
KAEG 210635Z AUTO 23009KT 10SM CLR 07/M07 A2991 RMK AO2 T00691069,KAEG,2015-02-21T06:35:00Z,35.13,-106.8,6.9,-6.9,230,9,,10.0,29.911417,,,TRUE,TRUE,,,,,,,CLR,,,,,,,,VFR,,,,,,,,,,,,METAR,1779.0
K6L4 210635Z AUTO VRB05KT 10SM BKN110 BKN130 M02/M15 A3011 RMK AO2,K6L4,2015-02-21T06:35:00Z,37.85,-81.92,-2.0,-15.0,0,5,,10.0,30.109253,,,TRUE,TRUE,,,,,,,BKN,11000,BKN,13000,,,,,VFR,,,,,,,,,,,,METAR,508.0
K1S5 210635Z AUTO 26004KT 10SM BKN075 06/M02 A3015 RMK AO2 T00611017,K1S5,2015-02-21T06:35:00Z,46.33,-119.97,6.1,-1.7,260,4,,10.0,30.15059,,,TRUE,TRUE,,,,,,,BKN,7500,,,,,,,VFR,,,,,,,,,,,,METAR,234.0
K0A9 210635Z AUTO 11005KT 10SM FEW030 OVC038 M03/M12 A3022 RMK,K0A9,2015-02-21T06:35:00Z,36.37,-82.17,-3.0,-12.0,110,5,,10.0,30.221457,,,TRUE,,,,,,,,FEW,3000,OVC,3800,,,,,VFR,,,,,,,,,,,,METAR,486.0
TJNR 210635Z AUTO 11012KT 10SM -RA SCT022 SCT029 OVC037 24/22 A3007 RMK AO2 RAB27 P0000 T02390222 $,TJNR,2015-02-21T06:35:00Z,18.25,-65.63,23.9,22.2,110,12,,10.0,30.070866,,,TRUE,TRUE,TRUE,,,,,-RA,SCT,2200,SCT,2900,OVC,3700,,,VFR,,,,,,0.0050,,,,,,METAR,12.0
KSMN 210635Z AUTO 20004KT 10SM FEW050 01/M02 A3003 RMK AO1,KSMN,2015-02-21T06:35:00Z,45.12,-113.87,1.0,-2.0,200,4,,10.0,30.029528,,,TRUE,TRUE,,,,,,,FEW,5000,,,,,,,VFR,,,,,,,,,,,,METAR,1233.0
KSLG 210635Z AUTO 00000KT 3SM TS OVC005 04/01 A2974 RMK AO1 LTG DSNT ALQDS TSB00E15B18 P0016,KSLG,2015-02-21T06:35:00Z,36.2,-94.47,4.0,1.0,0,0,,3.0,29.740158,,,TRUE,TRUE,,,,,,TS,OVC,500,,,,,,,IFR,,,,,,0.16,,,,,,METAR,300.0
KSGU 210635Z AUTO 00000KT 10SM CLR 13/M07 A2993 RMK AO1,KSGU,2015-02-21T06:35:00Z,37.07,-113.52,13.0,-7.0,0,0,,10.0,29.929134,,,TRUE,TRUE,,,,,,,CLR,,,,,,,,VFR,,,,,,,,,,,,METAR,896.0
KSGT 210635Z AUTO 17015KT 10SM FEW049 BKN060 OVC080 08/07 A2983 RMK AO1 P0001,KSGT,2015-02-21T06:35:00Z,34.6,-91.57,8.0,7.0,170,15,,10.0,29.828741,,,TRUE,TRUE,,,,,,,FEW,4900,BKN,6000,OVC,8000,,,VFR,,,,,,0.01,,,,,,METAR,68.0
KSDY 210635Z AUTO 33012KT 10SM SCT060 BKN075 M07/M11 A3008 RMK AO1,KSDY,2015-02-21T06:35:00Z,47.7,-104.2,-7.0,-11.0,330,12,,10.0,30.079725,,,TRUE,TRUE,,,,,,,SCT,6000,BKN,7500,,,,,VFR,,,,,,,,,,,,METAR,605.0
KSBS 210635Z AUTO 00000KT 4SM SCT009 BKN022 OVC027 M03/M04 A2993 RMK AO1 T10331038,KSBS,2015-02-21T06:35:00Z,40.52,-106.87,-3.3,-3.8,0,0,,4.0,29.929134,,,TRUE,TRUE,,,,,,,SCT,900,BKN,2200,OVC,2700,,,MVFR,,,,,,,,,,,,METAR,2096.0
KRCV 210635Z AUTO 30009KT 10SM CLR M01/M15 A2990 RMK AO2 T10101150,KRCV,2015-02-21T06:35:00Z,37.72,-106.35,-1.0,-15.0,300,9,,10.0,29.899607,,,TRUE,TRUE,,,,,,,CLR,,,,,,,,VFR,,,,,,,,,,,,METAR,2424.0
KPWT 210635Z AUTO 00000KT 10SM FEW021 BKN027 04/04 A3027 RMK AO1,KPWT,2015-02-21T06:35:00Z,47.5,-122.75,4.0,4.0,0,0,,10.0,30.268702,,,TRUE,TRUE,,,,,,,FEW,2100,BKN,2700,,,,,MVFR,,,,,,,,,,,,METAR,147.0
KPWG 210635Z AUTO 19021G28KT 10SM 19/13 A2977 RMK AO1,KPWG,2015-02-21T06:35:00Z,31.47,-97.32,19.0,13.0,190,21,28,10.0,29.769686,,,TRUE,TRUE,,,,,,,,,,,,,,,,,,,,,,,,,,,METAR,180.0
KPVU 210635Z AUTO 00000KT 10SM OVC100 03/M04 A3001 RMK AO1,KPVU,2015-02-21T06:35:00Z,40.22,-111.72,3.0,-4.0,0,0,,10.0,30.008858,,,TRUE,TRUE,,,,,,,OVC,10000,,,,,,,VFR,,,,,,,,,,,,METAR,1369.0
KPVG 210635Z AUTO 00000KT 10SM CLR M17/M18 A3056 RMK AO1,KPVG,2015-02-21T06:35:00Z,36.78,-76.45,-17.0,-18.0,0,0,,10.0,30.561024,,,TRUE,TRUE,,,,,,,CLR,,,,,,,,VFR,,,,,,,,,,,,METAR,7.0
KPTV 210635Z AUTO 00000KT 1 3/4SM OVC004 12/09 A3002 RMK AO1,KPTV,2015-02-21T06:35:00Z,36.02,-119.07,12.0,9.0,0,0,,1.75,30.02067,,,TRUE,TRUE,,,,,,,OVC,400,,,,,,,LIFR,,,,,,,,,,,,METAR,135.0
KPTN 210635Z AUTO 16014G18KT 10SM FEW037 SCT044 BKN060 17/13 A3005 RMK AO1,KPTN,2015-02-21T06:35:00Z,29.72,-91.32,17.0,13.0,160,14,18,10.0,30.050198,,,TRUE,TRUE,,,,,,,FEW,3700,SCT,4400,BKN,6000,,,VFR,,,,,,,,,,,,METAR,3.0
KZPH 210635Z AUTO 00000KT 10SM CLR 03/01 A3039 RMK AO2,KZPH,2015-02-21T06:35:00Z,28.23,-82.15,3.0,1.0,0,0,,10.0,30.389763,,,TRUE,TRUE,,,,,,,CLR,,,,,,,,VFR,,,,,,,,,,,,METAR,26.0
KW75 210635Z AUTO 17005KT 10SM CLR M14/M20 A3052 RMK AO1 T11451199,KW75,2015-02-21T06:35:00Z,37.6,-76.45,-14.5,-19.9,170,5,,10.0,30.519686,,,TRUE,TRUE,,,,,,,CLR,,,,,,,,VFR,,,,,,,,,,,,METAR,9.0
KW63 210635Z AUTO 16005KT 10SM CLR M09/M18 A3047 RMK AO1,KW63,2015-02-21T06:35:00Z,36.6,-78.55,-9.0,-18.0,160,5,,10.0,30.469488,,,TRUE,TRUE,,,,,,,CLR,,,,,,,,VFR,,,,,,,,,,,,METAR,129.0
KW31 210635Z AUTO 16003KT 10SM CLR M11/M20 A3045 RMK AO1 T11081201,KW31,2015-02-21T06:35:00Z,36.95,-78.18,-10.8,-20.1,160,3,,10.0,30.448818,,,TRUE,TRUE,,,,,,,CLR,,,,,,,,VFR,,,,,,,,,,,,METAR,162.0
KW13 210635Z AUTO 00000KT 10SM CLR M13/M22 A3032 RMK AO1 T11331217,KW13,2015-02-21T06:35:00Z,38.08,-78.95,-13.3,-21.7,0,0,,10.0,30.318897,,,TRUE,TRUE,,,,,,,CLR,,,,,,,,VFR,,,,,,,,,,,,METAR,443.0
KVIS 210635Z AUTO 00000KT 2SM OVC006 12/08 A3002 RMK AO1,KVIS,2015-02-21T06:35:00Z,36.32,-119.4,12.0,8.0,0,0,,2.0,30.02067,,,TRUE,TRUE,,,,,,,OVC,600,,,,,,,IFR,,,,,,,,,,,,METAR,89.0
KVBT 210635Z AUTO 05005KT 1 1/2SM TS OVC004 03/01 A2974 RMK AO1 LTG DSNT SW TSB22 P0002,KVBT,2015-02-21T06:35:00Z,36.35,-94.22,3.0,1.0,50,5,,1.5,29.740158,,,TRUE,TRUE,,,,,,TS,OVC,400,,,,,,,LIFR,,,,,,0.02,,,,,,METAR,395.0
KUDG 210635Z AUTO 11003KT 10SM CLR M04/M12 A3049 RMK AO1,KUDG,2015-02-21T06:35:00Z,34.45,-79.88,-4.0,-12.0,110,3,,10.0,30.490158,,,TRUE,TRUE,,,,,,,CLR,,,,,,,,VFR,,,,,,,,,,,,METAR,59.0
KTVF 210635Z AUTO 35011KT 10SM OVC120 M15/M17 A2996 RMK AO1,KTVF,2015-02-21T06:35:00Z,48.07,-96.17,-15.0,-17.0,350,11,,10.0,29.958662,,,TRUE,TRUE,,,,,,,OVC,12000,,,,,,,VFR,,,,,,,,,,,,METAR,340.0
KTPL 210635Z AUTO 17020G35KT 10SM OVC017 18/13 A2977 RMK AO1,KTPL,2015-02-21T06:35:00Z,31.13,-97.4,18.0,13.0,170,20,35,10.0,29.769686,,,TRUE,TRUE,,,,,,,OVC,1700,,,,,,,MVFR,,,,,,,,,,,,METAR,208.0
KSUE 210635Z AUTO 22008KT 10SM OVC026 M09/M13 A2989 RMK AO1,KSUE,2015-02-21T06:35:00Z,44.85,-87.42,-9.0,-13.0,220,8,,10.0,29.890747,,,TRUE,TRUE,,,,,,,OVC,2600,,,,,,,MVFR,,,,,,,,,,,,METAR,221.0
KSQI 210635Z AUTO 19004KT 10SM OVC060 M07/M10 A2991 RMK AO1,KSQI,2015-02-21T06:35:00Z,41.75,-89.67,-7.0,-10.0,190,4,,10.0,29.911417,,,TRUE,TRUE,,,,,,,OVC,6000,,,,,,,VFR,,,,,,,,,,,,METAR,197.0
KSOP 210635Z AUTO 00000KT 10SM CLR M07/M16 A3046 RMK AO1,KSOP,2015-02-21T06:35:00Z,35.22,-79.4,-7.0,-16.0,0,0,,10.0,30.46063,,,TRUE,TRUE,,,,,,,CLR,,,,,,,,VFR,,,,,,,,,,,,METAR,141.0
KLKV 210635Z 35010KT 10SM SCT120 02/M06 A3012 RMK AO1,KLKV,2015-02-21T06:35:00Z,42.17,-120.4,2.0,-6.0,350,10,,10.0,30.121063,,,,TRUE,,,,,,,SCT,12000,,,,,,,VFR,,,,,,,,,,,,METAR,1441.0
KLGD 210635Z AUTO 29009KT 10SM FEW038 SCT110 05/M01 A3010 RMK AO1,KLGD,2015-02-21T06:35:00Z,45.27,-118.0,5.0,-1.0,290,9,,10.0,30.100393,,,TRUE,TRUE,,,,,,,FEW,3800,SCT,11000,,,,,VFR,,,,,,,,,,,,METAR,827.0
KLCI 210635Z AUTO 23007KT 10SM CLR M16/M23 A3034 RMK AO1,KLCI,2015-02-21T06:35:00Z,43.57,-71.42,-16.0,-23.0,230,7,,10.0,30.339567,,,TRUE,TRUE,,,,,,,CLR,,,,,,,,VFR,,,,,,,,,,,,METAR,166.0
KLBL 210635Z AUTO 01010KT 10SM SCT100 04/M02 A2989 RMK AO1,KLBL,2015-02-21T06:35:00Z,37.03,-100.97,4.0,-2.0,10,10,,10.0,29.890747,,,TRUE,TRUE,,,,,,,SCT,10000,,,,,,,VFR,,,,,,,,,,,,METAR,879.0
KKLS 210635Z 00000KT 10SM OVC045 08/04 A3030 RMK AO1,KKLS,2015-02-21T06:35:00Z,46.12,-122.9,8.0,4.0,0,0,,10.0,30.301182,,,,TRUE,,,,,,,OVC,4500,,,,,,,VFR,,,,,,,,,,,,METAR,5.0
KJHW 210635Z 17011KT 10SM OVC100 M14/M21 A3009 RMK AO1,KJHW,2015-02-21T06:35:00Z,42.13,-79.27,-14.0,-21.0,170,11,,10.0,30.088583,,,,TRUE,,,,,,,OVC,10000,,,,,,,VFR,,,,,,,,,,,,METAR,525.0
KJAC 210635Z 00000KT 10SM CLR M05/M08 A2994 RMK AO1,KJAC,2015-02-21T06:35:00Z,43.62,-110.73,-5.0,-8.0,0,0,,10.0,29.940945,,,,TRUE,,,,,,,CLR,,,,,,,,VFR,,,,,,,,,,,,METAR,1961.0
KIWD 210635Z AUTO 25006KT 3SM BKN016 BKN021 OVC032 M09/M10 A2976 RMK AO1,KIWD,2015-02-21T06:35:00Z,46.52,-90.12,-9.0,-10.0,250,6,,3.0,29.760826,,,TRUE,TRUE,,,,,,,BKN,1600,BKN,2100,OVC,3200,,,MVFR,,,,,,,,,,,,METAR,375.0
KILE 210635Z AUTO 18019G27KT 10SM OVC018 19/13 A2974 RMK AO1,KILE,2015-02-21T06:35:00Z,31.07,-97.67,19.0,13.0,180,19,27,10.0,29.740158,,,TRUE,TRUE,,,,,,,OVC,1800,,,,,,,MVFR,,,,,,,,,,,,METAR,258.0
KHYS 210635Z AUTO 35006KT 10SM FEW065 OVC085 01/M07 A2990 RMK AO1,KHYS,2015-02-21T06:35:00Z,38.85,-99.27,1.0,-7.0,350,6,,10.0,29.899607,,,TRUE,TRUE,,,,,,,FEW,6500,OVC,8500,,,,,VFR,,,,,,,,,,,,METAR,609.0
KHYI 210635Z 19016G23KT 10SM OVC015 18/15 A2984 RMK AO1,KHYI,2015-02-21T06:35:00Z,29.88,-97.87,18.0,15.0,190,16,23,10.0,29.840551,,,,TRUE,,,,,,,OVC,1500,,,,,,,MVFR,,,,,,,,,,,,METAR,182.0
KHNB 210635Z AUTO 00000KT 5SM BKN006 OVC018 M01/M02 A2998 RMK AO1 P0007,KHNB,2015-02-21T06:35:00Z,38.25,-86.95,-1.0,-2.0,0,0,,5.0,29.97933,,,TRUE,TRUE,,,,,,,BKN,600,OVC,1800,,,,,IFR,,,,,,0.07,,,,,,METAR,161.0
KHEZ 210635Z AUTO 17013G18KT 10SM OVC090 15/11 A3002 RMK AO1,KHEZ,2015-02-21T06:35:00Z,31.62,-91.3,15.0,11.0,170,13,18,10.0,30.02067,,,TRUE,TRUE,,,,,,,OVC,9000,,,,,,,VFR,,,,,,,,,,,,METAR,83.0
KHEF 210635Z 00000KT 10SM OVC100 M16/M21 A3046 RMK AO1,KHEF,2015-02-21T06:35:00Z,38.72,-77.52,-16.0,-21.0,0,0,,10.0,30.46063,,,,TRUE,,,,,,,OVC,10000,,,,,,,VFR,,,,,,,,,,,,METAR,59.0
KHDN 210635Z AUTO 00000KT 7SM SCT021 BKN027 BKN033 M03/M05 A2993 RMK AO1,KHDN,2015-02-21T06:35:00Z,40.47,-107.22,-3.0,-5.0,0,0,,7.0,29.929134,,,TRUE,TRUE,,,,,,,SCT,2100,BKN,2700,BKN,3300,,,MVFR,,,,,,,,,,,,METAR,2012.0
KGXY 210635Z AUTO 00000KT 10SM CLR 00/M06 A2995 RMK AO1,KGXY,2015-02-21T06:35:00Z,40.42,-104.62,0.0,-6.0,0,0,,10.0,29.949802,,,TRUE,TRUE,,,,,,,CLR,,,,,,,,VFR,,,,,,,,,,,,METAR,1420.0
KGUC 210635Z 00000KT 10SM CLR M04/M09 A2995 RMK AO1,KGUC,2015-02-21T06:35:00Z,38.52,-106.92,-4.0,-9.0,0,0,,10.0,29.949802,,,,TRUE,,,,,,,CLR,,,,,,,,VFR,,,,,,,,,,,,METAR,2339.0
KGTU 210635Z 19023G30KT 10SM OVC016 19/15 A2980 RMK AO1,KGTU,2015-02-21T06:35:00Z,30.68,-97.68,19.0,15.0,190,23,30,10.0,29.799213,,,,TRUE,,,,,,,OVC,1600,,,,,,,MVFR,,,,,,,,,,,,METAR,240.0
KGTR 210635Z 16015G21KT 10SM FEW027 SCT055 OVC100 07/00 A3006 RMK AO1,KGTR,2015-02-21T06:35:00Z,33.45,-88.57,7.0,0.0,160,15,21,10.0,30.059055,,,,TRUE,,,,,,,FEW,2700,SCT,5500,OVC,10000,,,VFR,,,,,,,,,,,,METAR,80.0
KGPZ 210635Z AUTO 33012KT 10SM OVC023 M11/M14 A2983 RMK AO1,KGPZ,2015-02-21T06:35:00Z,47.22,-93.52,-11.0,-14.0,330,12,,10.0,29.828741,,,TRUE,TRUE,,,,,,,OVC,2300,,,,,,,MVFR,,,,,,,,,,,,METAR,413.0
KGDV 210635Z AUTO 36015KT 10SM OVC013 M07/M09 A3004 RMK AO1,KGDV,2015-02-21T06:35:00Z,47.12,-104.78,-7.0,-9.0,360,15,,10.0,30.041338,,,TRUE,TRUE,,,,,,,OVC,1300,,,,,,,MVFR,,,,,,,,,,,,METAR,749.0
KGBD 210635Z AUTO 06006KT 10SM FEW120 01/M07 A2987 RMK AO1,KGBD,2015-02-21T06:35:00Z,38.35,-98.87,1.0,-7.0,60,6,,10.0,29.870079,,,TRUE,TRUE,,,,,,,FEW,12000,,,,,,,VFR,,,,,,,,,,,,METAR,575.0
KGAI 210635Z AUTO 14006KT 10SM FEW120 M12/M21 A3046 RMK AO1,KGAI,2015-02-21T06:35:00Z,39.17,-77.17,-12.0,-21.0,140,6,,10.0,30.46063,,,TRUE,TRUE,,,,,,,FEW,12000,,,,,,,VFR,,,,,,,,,,,,METAR,165.0
KGAD 210635Z 14006KT 10SM OVC035 A3023 RMK AO1,KGAD,2015-02-21T06:35:00Z,33.97,-86.07,,,140,6,,10.0,30.230314,,,,TRUE,,,,,,,OVC,3500,,,,,,,VFR,,,,,,,,,,,,METAR,173.0
KFRM 210635Z AUTO 34015KT 10SM OVC010 M04/M07 A2984 RMK AO1,KFRM,2015-02-21T06:35:00Z,43.63,-94.42,-4.0,-7.0,340,15,,10.0,29.840551,,,TRUE,TRUE,,,,,,,OVC,1000,,,,,,,MVFR,,,,,,,,,,,,METAR,354.0
KFOD 210635Z AUTO 00000KT 10SM SCT044 OVC080 M01/M04 A2982 RMK AO1,KFOD,2015-02-21T06:35:00Z,42.53,-94.17,-1.0,-4.0,0,0,,10.0,29.819881,,,TRUE,TRUE,,,,,,,SCT,4400,OVC,8000,,,,,VFR,,,,,,,,,,,,METAR,355.0
KFNL 210635Z AUTO 00000KT 10SM CLR 00/M03 A2997 RMK AO1,KFNL,2015-02-21T06:35:00Z,40.45,-105.02,0.0,-3.0,0,0,,10.0,29.970472,,,TRUE,TRUE,,,,,,,CLR,,,,,,,,VFR,,,,,,,,,,,,METAR,1529.0
KFLP 210635Z 00000KT 10SM OVC004 M01/M03 A2980 RMK AO1 P0001,KFLP,2015-02-21T06:35:00Z,36.28,-92.58,-1.0,-3.0,0,0,,10.0,29.799213,,,,TRUE,,,,,,,OVC,400,,,,,,,LIFR,,,,,,0.01,,,,,,METAR,219.0
KFKL 210635Z AUTO 15007KT 10SM FEW050 SCT070 OVC100 M13/M21 A3014 RMK AO1,KFKL,2015-02-21T06:35:00Z,41.37,-79.87,-13.0,-21.0,150,7,,10.0,30.138779,,,TRUE,TRUE,,,,,,,FEW,5000,SCT,7000,OVC,10000,,,VFR,,,,,,,,,,,,METAR,469.0
KFAM 210635Z AUTO 00000KT 3SM BKN023 OVC039 M01/M02 A2991 RMK AO1 P0012,KFAM,2015-02-21T06:35:00Z,37.77,-90.42,-1.0,-2.0,0,0,,3.0,29.911417,,,TRUE,TRUE,,,,,,,BKN,2300,OVC,3900,,,,,MVFR,,,,,,0.12,,,,,,METAR,288.0
KEWK 210635Z AUTO 01012KT 5SM SCT004 BKN011 OVC033 01/M02 A2988 RMK AO1,KEWK,2015-02-21T06:35:00Z,38.03,-97.27,1.0,-2.0,10,12,,5.0,29.878937,,,TRUE,TRUE,,,,,,,SCT,400,BKN,1100,OVC,3300,,,MVFR,,,,,,,,,,,,METAR,467.0
KEUL 210635Z AUTO 31006KT 10SM OVC100 05/M02 A3009 RMK AO1,KEUL,2015-02-21T06:35:00Z,43.62,-116.62,5.0,-2.0,310,6,,10.0,30.088583,,,TRUE,TRUE,,,,,,,OVC,10000,,,,,,,VFR,,,,,,,,,,,,METAR,740.0
KESC 210635Z AUTO 22006KT 10SM FEW025 SCT032 OVC039 M10/M12 A2984 RMK AO1,KESC,2015-02-21T06:35:00Z,45.75,-87.08,-10.0,-12.0,220,6,,10.0,29.840551,,,TRUE,TRUE,,,,,,,FEW,2500,SCT,3200,OVC,3900,,,VFR,,,,,,,,,,,,METAR,187.0
KENV 210635Z AUTO 31006KT 10SM CLR 04/M06 A3003 RMK AO1,KENV,2015-02-21T06:35:00Z,40.72,-114.02,4.0,-6.0,310,6,,10.0,30.029528,,,TRUE,TRUE,,,,,,,CLR,,,,,,,,VFR,,,,,,,,,,,,METAR,1292.0
KEIK 210635Z AUTO 00000KT 5SM BR SCT038 BKN050 OVC055 01/00 A2996 RMK AO2 T00050003,KEIK,2015-02-21T06:35:00Z,40.02,-105.05,0.5,0.3,0,0,,5.0,29.958662,,,TRUE,TRUE,,,,,,BR,SCT,3800,BKN,5000,OVC,5500,,,MVFR,,,,,,,,,,,,METAR,1564.0
KEHR 210635Z AUTO 16005KT 2 1/2SM OVC009 M01/M02 A2997 RMK AO1 P0014,KEHR,2015-02-21T06:35:00Z,37.82,-87.67,-1.0,-2.0,160,5,,2.5,29.970472,,,TRUE,TRUE,,,,,,,OVC,900,,,,,,,IFR,,,,,,0.14,,,,,,METAR,117.0
KEGE 210635Z AUTO 11003KT 10SM OVC100 M03/M04 A2997 RMK AO1,KEGE,2015-02-21T06:35:00Z,39.63,-106.92,-3.0,-4.0,110,3,,10.0,29.970472,,,TRUE,TRUE,,,,,,,OVC,10000,,,,,,,VFR,,,,,,,,,,,,METAR,1993.0
KTSP 210635Z AUTO 32007KT 5SM BR CLR 05/03 A3002 RMK AO2,KTSP,2015-02-21T06:35:00Z,35.13,-118.43,5.0,3.0,320,7,,5.0,30.02067,,,TRUE,TRUE,,,,,,BR,CLR,,,,,,,,MVFR,,,,,,,,,,,,METAR,1220.0
KRZT 210635Z AUTO 20007KT 10SM BKN029 OVC034 M09/M19 A3011 RMK AO2,KRZT,2015-02-21T06:35:00Z,39.43,-83.02,-9.0,-19.0,200,7,,10.0,30.109253,,,TRUE,TRUE,,,,,,,BKN,2900,OVC,3400,,,,,MVFR,,,,,,,,,,,,METAR,221.0
KROS 210635Z AUTO 33005KT 10SM OVC022 M06/M08 A2984 RMK AO2 T10561085,KROS,2015-02-21T06:35:00Z,45.7,-92.95,-5.6,-8.5,330,5,,10.0,29.840551,,,TRUE,TRUE,,,,,,,OVC,2200,,,,,,,MVFR,,,,,,,,,,,,METAR,281.0
KOLV 210635Z AUTO 15014G19KT 4SM SCT020 BKN027 01/01 A2989 RMK A01 P000,KOLV,2015-02-21T06:35:00Z,34.98,-89.78,1.0,1.0,150,14,19,4.0,29.890747,,,TRUE,TRUE,,,,,,,SCT,2000,BKN,2700,,,,,MVFR,,,,,,,,,,,,METAR,122.0
KN03 210635Z AUTO 00000KT 10SM CLR M24/M26 A3028 RMK AO2,KN03,2015-02-21T06:35:00Z,42.6,-76.22,-24.0,-26.0,0,0,,10.0,30.280512,,,TRUE,TRUE,,,,,,,CLR,,,,,,,,VFR,,,,,,,,,,,,METAR,366.0
KMQJ 210635Z AUTO 17005KT 1 3/4SM OVC006 M08/M13 A3000 RMK AO1,KMQJ,2015-02-21T06:35:00Z,39.85,-85.9,-8.0,-13.0,170,5,,1.75,30.0,,,TRUE,TRUE,,,,,,,OVC,600,,,,,,,IFR,,,,,,,,,,,,METAR,263.0
KMGG 210635Z AUTO 31008KT 10SM OVC013 M07/M09 A2986 RMK AO2 T10661090,KMGG,2015-02-21T06:35:00Z,45.23,-93.98,-6.6,-9.0,310,8,,10.0,29.861221,,,TRUE,TRUE,,,,,,,OVC,1300,,,,,,,MVFR,,,,,,,,,,,,METAR,313.0
KLYV 210635Z AUTO 01006KT 5SM BR OVC007 M02/M03 A2986 RMK AO2,KLYV,2015-02-21T06:35:00Z,43.62,-96.22,-2.0,-3.0,10,6,,5.0,29.861221,,,TRUE,TRUE,,,,,,BR,OVC,700,,,,,,,IFR,,,,,,,,,,,,METAR,436.0
KLKR 210635Z AUTO 15005KT 10SM BKN075 BKN095 BKN110 M02/M15 A3044 RMK AO2,KLKR,2015-02-21T06:35:00Z,34.72,-80.85,-2.0,-15.0,150,5,,10.0,30.43996,,,TRUE,TRUE,,,,,,,BKN,7500,BKN,9500,BKN,11000,,,VFR,,,,,,,,,,,,METAR,149.0
KJMR 210635Z AUTO 34008KT 10SM OVC022 M06/M10 A2985 RMK AO2,KJMR,2015-02-21T06:35:00Z,45.88,-93.27,-6.0,-10.0,340,8,,10.0,29.84941,,,TRUE,TRUE,,,,,,,OVC,2200,,,,,,,MVFR,,,,,,,,,,,,METAR,309.0
KI69 210635Z AUTO 12005KT 10SM OVC018 M04/M14 A3003 RMK AO1,KI69,2015-02-21T06:35:00Z,39.08,-84.22,-4.0,-14.0,120,5,,10.0,30.029528,,,TRUE,TRUE,,,,,,,OVC,1800,,,,,,,MVFR,,,,,,,,,,,,METAR,255.0
KHCO 210635Z AUTO 34011KT 10SM CLR M18/M22 A3004 RMK AO2,KHCO,2015-02-21T06:35:00Z,48.75,-96.93,-18.0,-22.0,340,11,,10.0,30.041338,,,TRUE,TRUE,,,,,,,CLR,,,,,,,,VFR,,,,,,,,,,,,METAR,250.0
K7N0 210635Z AUTO 16013G16KT 10SM SCT048 SCT070 BKN095 A3009 RMK AO1,K7N0,2015-02-21T06:35:00Z,29.95,-90.07,,,160,13,16,10.0,30.088583,,,TRUE,TRUE,,,,,,,SCT,4800,SCT,7000,BKN,9500,,,VFR,,,,,,,,,,,,METAR,0.0
KYKN 210635Z AUTO 32005KT 10SM FEW040 OVC070 01/M02 A2988 RMK AO1,KYKN,2015-02-21T06:35:00Z,42.92,-97.37,1.0,-2.0,320,5,,10.0,29.878937,,,TRUE,TRUE,,,,,,,FEW,4000,OVC,7000,,,,,VFR,,,,,,,,,,,,METAR,398.0
KWWD 210635Z AUTO 00000KT 10SM CLR M17/M21 A3054 RMK AO1,KWWD,2015-02-21T06:35:00Z,39.02,-74.92,-17.0,-21.0,0,0,,10.0,30.540354,,,TRUE,TRUE,,,,,,,CLR,,,,,,,,VFR,,,,,,,,,,,,METAR,7.0
KIPJ 210635Z AUTO 00000KT 10SM OVC100 M04/M13 A3040 RMK AO2 T10401134,KIPJ,2015-02-21T06:35:00Z,35.48,-81.17,-4.0,-13.4,0,0,,10.0,30.398623,,,TRUE,TRUE,,,,,,,OVC,10000,,,,,,,VFR,,,,,,,,,,,,METAR,267.0
CWOB 210634Z AUTO 05036KT M29/ A2975,CWOB,2015-02-21T06:34:00Z,63.32,-64.15,-29.0,,50,36,,,29.749016,,,TRUE,,,,,,,,,,,,,,,,,,,,,,,,,,,,SPECI,367.0
CYAH 210634Z AUTO 00000KT 9SM -SN BKN050 OVC070 M31/M35 A2990 RMK SLP168,CYAH,2015-02-21T06:34:00Z,53.75,-73.67,-31.0,-35.0,0,0,,9.0,29.899607,1016.8,,TRUE,,,,,,,-SN,BKN,5000,OVC,7000,,,,,VFR,,,,,,,,,,,,SPECI,306.0
KMZH 210634Z AUTO 00000KT 7SM -SN SCT020 BKN024 BKN030 M07/M11 A2981 RMK AO2,KMZH,2015-02-21T06:34:00Z,46.42,-92.8,-7.0,-11.0,0,0,,7.0,29.811024,,,TRUE,TRUE,,,,,,-SN,SCT,2000,BKN,2400,BKN,3000,,,MVFR,,,,,,,,,,,,METAR,328.0
KIMT 210634Z AUTO 18004KT 10SM OVC030 M12/M14 A2979 RMK AO2 T11171144,KIMT,2015-02-21T06:34:00Z,45.82,-88.12,-11.7,-14.4,180,4,,10.0,29.790354,,,TRUE,TRUE,,,,,,,OVC,3000,,,,,,,MVFR,,,,,,,,,,,,METAR,349.0
KOJC 210634Z AUTO 20007KT 3SM -FZRA BR FEW005 SCT027 OVC037 M01/M01 A2985 RMK AO2 UPB17E20FZRAE17B20 P0003 I1002 T10061006,KOJC,2015-02-21T06:34:00Z,38.85,-94.73,-0.6,-0.6,200,7,,3.0,29.84941,,,TRUE,TRUE,,,,,,-FZRA BR,FEW,500,SCT,2700,OVC,3700,,,MVFR,,,,,,0.03,,,,,,METAR,326.0
KMYP 210634Z AUTO 1/4SM -SN BKN001 OVC010 M09/M11 A2999 RMK AO2,KMYP,2015-02-21T06:34:00Z,38.48,-106.32,-9.0,-11.0,,,,0.25,29.991142,,,TRUE,TRUE,,,,,,-SN,BKN,100,OVC,1000,,,,,LIFR,,,,,,,,,,,,METAR,3667.0
KMLC 210634Z AUTO 15004KT 10SM OVC015 15/12 A2968 RMK AO2 T01500122,KMLC,2015-02-21T06:34:00Z,34.88,-95.78,15.0,12.2,150,4,,10.0,29.681103,,,TRUE,TRUE,,,,,,,OVC,1500,,,,,,,MVFR,,,,,,,,,,,,METAR,232.0
K0CO 210634Z AUTO 30012KT 1/4SM -SN BKN001 OVC007 M14/M17 A2987 RMK AO2,K0CO,2015-02-21T06:34:00Z,39.8,-105.77,-14.0,-17.0,300,12,,0.25,29.870079,,,TRUE,TRUE,,,,,,-SN,BKN,100,OVC,700,,,,,LIFR,,,,,,,,,,,,METAR,3807.0
K7BM 210634Z AUTO 00000KT 10SM SCT060 M04/M07 A2990 RMK AO2,K7BM,2015-02-21T06:34:00Z,38.78,-106.22,-4.0,-7.0,0,0,,10.0,29.899607,,,TRUE,TRUE,,,,,,,SCT,6000,,,,,,,VFR,,,,,,,,,,,,METAR,2995.0
KAQP 210634Z AUTO 35012KT 10SM OVC100 M08/M11 A2993 RMK AO2,KAQP,2015-02-21T06:34:00Z,45.22,-96.0,-8.0,-11.0,350,12,,10.0,29.929134,,,TRUE,TRUE,,,,,,,OVC,10000,,,,,,,VFR,,,,,,,,,,,,METAR,311.0
KBFW 210634Z AUTO 31005KT 7SM -SN OVC049 M08/M12 A2978 RMK AO2,KBFW,2015-02-21T06:34:00Z,47.25,-91.4,-8.0,-12.0,310,5,,7.0,29.778543,,,TRUE,TRUE,,,,,,-SN,OVC,4900,,,,,,,VFR,,,,,,,,,,,,METAR,331.0
KCHA 210634Z AUTO 23003KT 6SM -FZRA OVC040 M01/M04 A3026 RMK AO2 UPB20E26FZRAE20B26 P0001 I1001 T10111044,KCHA,2015-02-21T06:34:00Z,35.03,-85.2,-1.1,-4.4,230,3,,6.0,30.259842,,,TRUE,TRUE,,,,,,-FZRA,OVC,4000,,,,,,,VFR,,,,,,0.01,,,,,,METAR,210.0
KDIJ 210634Z AUTO 00000KT 2 1/2SM -SN SCT001 BKN016 OVC049 M02/M05 A2997 RMK AO2 CIG 010V022 SNB24 P0000,KDIJ,2015-02-21T06:34:00Z,43.75,-111.1,-2.0,-5.0,0,0,,2.5,29.970472,,,TRUE,TRUE,,,,,,-SN,SCT,100,BKN,1600,OVC,4900,,,IFR,,,,,,0.0050,,,,,,METAR,1899.0
K04W 210634Z AUTO 33006KT 10SM OVC025 M06/M08 A2983 RMK AO2,K04W,2015-02-21T06:34:00Z,46.02,-92.9,-6.0,-8.0,330,6,,10.0,29.828741,,,TRUE,TRUE,,,,,,,OVC,2500,,,,,,,MVFR,,,,,,,,,,,,METAR,311.0
KANE 210634Z AUTO 31006KT 10SM OVC020 M04/M06 A2983 RMK AO2,KANE,2015-02-21T06:34:00Z,45.15,-93.22,-4.0,-6.0,310,6,,10.0,29.828741,,,TRUE,TRUE,,,,,,,OVC,2000,,,,,,,MVFR,,,,,,,,,,,,METAR,278.0
KTTF 210634Z AUTO 19008KT 10SM OVC024 M09/M16 A3004 RMK AO2,KTTF,2015-02-21T06:34:00Z,41.93,-83.42,-9.0,-16.0,190,8,,10.0,30.041338,,,TRUE,TRUE,,,,,,,OVC,2400,,,,,,,MVFR,,,,,,,,,,,,METAR,188.0
ETEB 210634Z AUTO 20005KT 9999 UP SCT049 SCT065 BKN090 01/M03 A2954 RMK AO2,ETEB,2015-02-21T06:34:00Z,49.32,10.62,1.0,-3.0,200,5,,6.21,29.53937,,,TRUE,TRUE,,,,,,UP,SCT,4900,SCT,6500,BKN,9000,,,VFR,,,,,,,,,,,,SPECI,467.0
ETAR 210634Z AUTO 23011G18KT 200V260 9999 BKN017 OVC022 05/03 A2946 RMK AO2 BKN V OVC,ETAR,2015-02-21T06:34:00Z,49.42,7.58,5.0,3.0,230,11,18,6.21,29.459646,,,TRUE,TRUE,,,,,,,BKN,1700,OVC,2200,,,,,MVFR,,,,,,,,,,,,SPECI,238.0
KMOP 210634Z AUTO 17006KT 10SM BKN031 BKN060 OVC065 M10/M14 A2997 RMK AO2 T11021141,KMOP,2015-02-21T06:34:00Z,43.62,-84.73,-10.2,-14.1,170,6,,10.0,29.970472,,,TRUE,TRUE,,,,,,,BKN,3100,BKN,6000,OVC,6500,,,VFR,,,,,,,,,,,,METAR,230.0
KMGN 210634Z AUTO 21006KT 10SM -SN OVC038 M11/M14 A2988 RMK AO2 T11101143,KMGN,2015-02-21T06:34:00Z,45.43,-84.92,-11.0,-14.3,210,6,,10.0,29.878937,,,TRUE,TRUE,,,,,,-SN,OVC,3800,,,,,,,VFR,,,,,,,,,,,,METAR,209.0
KLDM 210634Z AUTO 14004KT 7SM -SN BKN022 OVC027 M09/M12 A2993 RMK AO2 T10911117,KLDM,2015-02-21T06:34:00Z,43.97,-86.4,-9.1,-11.7,140,4,,7.0,29.929134,,,TRUE,TRUE,,,,,,-SN,BKN,2200,OVC,2700,,,,,MVFR,,,,,,,,,,,,METAR,197.0
KJYM 210634Z AUTO 20010G15KT 10SM OVC018 M09/M15 A2997 RMK AO2 T10931155,KJYM,2015-02-21T06:34:00Z,41.92,-84.58,-9.3,-15.5,200,10,15,10.0,29.970472,,,TRUE,TRUE,,,,,,,OVC,1800,,,,,,,MVFR,,,,,,,,,,,,METAR,360.0
KISQ 210634Z AUTO 24006KT 5SM -SN SCT011 SCT032 OVC048 M10/M12 A2985 RMK AO2 T11001116,KISQ,2015-02-21T06:34:00Z,45.97,-86.17,-10.0,-11.6,240,6,,5.0,29.84941,,,TRUE,TRUE,,,,,,-SN,SCT,1100,SCT,3200,OVC,4800,,,MVFR,,,,,,,,,,,,METAR,209.0
KIRS 210634Z AUTO 19008KT 7SM OVC017 M10/M12 A2997 RMK AO2,KIRS,2015-02-21T06:34:00Z,41.8,-85.43,-10.0,-12.0,190,8,,7.0,29.970472,,,TRUE,TRUE,,,,,,,OVC,1700,,,,,,,MVFR,,,,,,,,,,,,METAR,282.0
KHAI 210634Z AUTO 20008KT 10SM OVC018 M09/M13 A2999 RMK AO2 T10901130,KHAI,2015-02-21T06:34:00Z,41.97,-85.6,-9.0,-13.0,200,8,,10.0,29.991142,,,TRUE,TRUE,,,,,,,OVC,1800,,,,,,,MVFR,,,,,,,,,,,,METAR,251.0
KERY 210634Z AUTO 21005KT 3SM -SN OVC048 M11/M13 A2982 RMK AO2 T11151126,KERY,2015-02-21T06:34:00Z,46.3,-85.45,-11.5,-12.6,210,5,,3.0,29.819881,,,TRUE,TRUE,,,,,,-SN,OVC,4800,,,,,,,MVFR,,,,,,,,,,,,METAR,265.0
KRQB 210634Z AUTO 20007KT 10SM -SN OVC022 M10/M14 A2993 RMK AO2 T11021142,KRQB,2015-02-21T06:34:00Z,43.72,-85.5,-10.2,-14.2,200,7,,10.0,29.929134,,,TRUE,TRUE,,,,,,-SN,OVC,2200,,,,,,,MVFR,,,,,,,,,,,,METAR,302.0
KPZQ 210634Z AUTO 19010KT 7SM -SN OVC040 M12/M14 A2993 RMK AO2 T11221145,KPZQ,2015-02-21T06:34:00Z,45.4,-83.82,-12.2,-14.5,190,10,,7.0,29.929134,,,TRUE,TRUE,,,,,,-SN,OVC,4000,,,,,,,VFR,,,,,,,,,,,,METAR,204.0
KDUH 210634Z AUTO 20007KT 10SM BKN021 OVC030 M07/M16 A3005 RMK AO2,KDUH,2015-02-21T06:34:00Z,41.73,-83.65,-7.0,-16.0,200,7,,10.0,30.050198,,,TRUE,TRUE,,,,,,,BKN,2100,OVC,3000,,,,,MVFR,,,,,,,,,,,,METAR,204.0
KCQM 210634Z AUTO 31005KT 7SM -SN OVC031 M13/M14 A2983 RMK AO2,KCQM,2015-02-21T06:34:00Z,47.82,-92.68,-13.0,-14.0,310,5,,7.0,29.828741,,,TRUE,TRUE,,,,,,-SN,OVC,3100,,,,,,,VFR,,,,,,,,,,,,METAR,404.0
KCNB 210634Z AUTO 33005KT 10SM CLR M08/M10 A2993 RMK AO2 T10851105,KCNB,2015-02-21T06:34:00Z,44.73,-96.27,-8.5,-10.5,330,5,,10.0,29.929134,,,TRUE,TRUE,,,,,,,CLR,,,,,,,,VFR,,,,,,,,,,,,METAR,364.0
KCKC 210634Z AUTO 32007KT 7SM -SN BKN018 OVC055 M14/M17 A2972 RMK AO2,KCKC,2015-02-21T06:34:00Z,47.83,-90.37,-14.0,-17.0,320,7,,7.0,29.719488,,,TRUE,TRUE,,,,,,-SN,BKN,1800,OVC,5500,,,,,MVFR,,,,,,,,,,,,METAR,548.0
KCAD 210634Z AUTO 18004KT 3SM -SN OVC019 M12/M15 A2987 RMK AO2 T11251150,KCAD,2015-02-21T06:34:00Z,44.27,-85.42,-12.5,-15.0,180,4,,3.0,29.870079,,,TRUE,TRUE,,,,,,-SN,OVC,1900,,,,,,,MVFR,,,,,,,,,,,,METAR,398.0
KBAX 210634Z AUTO 18009KT 10SM -SN OVC037 M12/M14 A3001 RMK AO2 T11201145,KBAX,2015-02-21T06:34:00Z,43.78,-82.98,-12.0,-14.5,180,9,,10.0,30.008858,,,TRUE,TRUE,,,,,,-SN,OVC,3700,,,,,,,VFR,,,,,,,,,,,,METAR,234.0
KADC 210634Z AUTO 34010KT 10SM -SN SCT008 SCT013 BKN075 M13/M16 A2988 RMK AO2,KADC,2015-02-21T06:34:00Z,46.45,-95.22,-13.0,-16.0,340,10,,10.0,29.878937,,,TRUE,TRUE,,,,,,-SN,SCT,800,SCT,1300,BKN,7500,,,VFR,,,,,,,,,,,,METAR,418.0
KDYT 210634Z AUTO 00000KT 10SM OVC049 M06/M10 A2986 RMK AO2,KDYT,2015-02-21T06:34:00Z,46.72,-92.03,-6.0,-10.0,0,0,,10.0,29.861221,,,TRUE,TRUE,,,,,,,OVC,4900,,,,,,,VFR,,,,,,,,,,,,METAR,186.0
KFBL 210634Z AUTO 00000KT 7SM SCT012 OVC017 M04/M05 A2983 RMK AO2,KFBL,2015-02-21T06:34:00Z,44.33,-93.32,-4.0,-5.0,0,0,,7.0,29.828741,,,TRUE,TRUE,,,,,,,SCT,1200,OVC,1700,,,,,MVFR,,,,,,,,,,,,METAR,322.0
KVTP 210634Z AUTO 1/2SM FZFG OVC002 M05/M06 A2992 RMK AO2,KVTP,2015-02-21T06:34:00Z,37.5,-105.17,-5.0,-6.0,,,,0.5,29.920275,,,TRUE,TRUE,,,,,,FZFG,OVC,200,,,,,,,LIFR,,,,,,,,,,,,METAR,3114.0
KVIH 210634Z AUTO 00000KT 4SM BR OVC003 M02/M03 A2984 RMK AO2 T10171028,KVIH,2015-02-21T06:34:00Z,38.13,-91.77,-1.7,-2.8,0,0,,4.0,29.840551,,,TRUE,TRUE,,,,,,BR,OVC,300,,,,,,,LIFR,,,,,,,,,,,,METAR,333.0
KTOP 210634Z 31005KT 3SM -RA BR SCT007 BKN015 OVC043 01/00 A2991 RMK AO2 UPB0558E01 P0002 T00060000,KTOP,2015-02-21T06:34:00Z,39.07,-95.63,0.6,0.0,310,5,,3.0,29.911417,,,,TRUE,,,,,,-RA BR,SCT,700,BKN,1500,OVC,4300,,,MVFR,,,,,,0.02,,,,,,METAR,268.0
KICR 210634Z AUTO 25005KT 10SM SCT029 OVC050 02/M03 A2988 RMK AO2 T00171028,KICR,2015-02-21T06:34:00Z,43.38,-99.85,1.7,-2.8,250,5,,10.0,29.878937,,,TRUE,TRUE,,,,,,,SCT,2900,OVC,5000,,,,,VFR,,,,,,,,,,,,METAR,621.0
KEST 210634Z AUTO 35017KT 9SM SCT009 OVC015 M04/M06 A2984 RMK AO2 T10441061,KEST,2015-02-21T06:34:00Z,43.4,-94.75,-4.4,-6.1,350,17,,9.0,29.840551,,,TRUE,TRUE,,,,,,,SCT,900,OVC,1500,,,,,MVFR,,,,,,,,,,,,METAR,401.0
KY70 210634Z AUTO 21010KT 10SM SCT030 OVC065 M09/M14 A2997 RMK AO2 T10881136,KY70,2015-02-21T06:34:00Z,42.93,-85.07,-8.8,-13.6,210,10,,10.0,29.970472,,,TRUE,TRUE,,,,,,,SCT,3000,OVC,6500,,,,,VFR,,,,,,,,,,,,METAR,250.0
KULM 210634Z AUTO 32010KT 10SM OVC012 M08/M11 A2986 RMK AO2,KULM,2015-02-21T06:34:00Z,44.32,-94.5,-8.0,-11.0,320,10,,10.0,29.861221,,,TRUE,TRUE,,,,,,,OVC,1200,,,,,,,MVFR,,,,,,,,,,,,METAR,308.0
KTWM 210634Z AUTO 32003KT 7SM -SN OVC049 M07/M11 A2978 RMK AO2,KTWM,2015-02-21T06:34:00Z,47.03,-91.75,-7.0,-11.0,320,3,,7.0,29.778543,,,TRUE,TRUE,,,,,,-SN,OVC,4900,,,,,,,VFR,,,,,,,,,,,,METAR,328.0
KTOB 210634Z AUTO 31003KT 5SM BR OVC010 M06/M06 A2981 RMK AO2,KTOB,2015-02-21T06:34:00Z,44.02,-92.82,-6.0,-6.0,310,3,,5.0,29.811024,,,TRUE,TRUE,,,,,,BR,OVC,1000,,,,,,,MVFR,,,,,,,,,,,,METAR,398.0
KTEW 210634Z AUTO 18005KT 10SM -SN OVC023 M10/M14 A2999 RMK AO2 T11031145,KTEW,2015-02-21T06:34:00Z,42.57,-84.42,-10.3,-14.5,180,5,,10.0,29.991142,,,TRUE,TRUE,,,,,,-SN,OVC,2300,,,,,,,MVFR,,,,,,,,,,,,METAR,280.0
KSYN 210634Z AUTO 00000KT 5SM BR OVC020 M06/M07 A2982 RMK AO2 T10591072,KSYN,2015-02-21T06:34:00Z,44.47,-93.02,-5.9,-7.2,0,0,,5.0,29.819881,,,TRUE,TRUE,,,,,,BR,OVC,2000,,,,,,,MVFR,,,,,,,,,,,,METAR,280.0
KSAZ 210634Z AUTO 34008KT 10SM SCT090 M13/M14 A2988 RMK AO2,KSAZ,2015-02-21T06:34:00Z,46.37,-94.8,-13.0,-14.0,340,8,,10.0,29.878937,,,TRUE,TRUE,,,,,,,SCT,9000,,,,,,,VFR,,,,,,,,,,,,METAR,392.0
KROX 210634Z AUTO 30006KT 10SM BKN030 M18/M21 A2997 RMK AO2,KROX,2015-02-21T06:34:00Z,48.85,-95.7,-18.0,-21.0,300,6,,10.0,29.970472,,,TRUE,TRUE,,,,,,,BKN,3000,,,,,,,MVFR,,,,,,,,,,,,METAR,323.0
KRMY 210634Z AUTO 21008KT 10SM OVC022 M10/M15 A2998 RMK AO2 T11001151,KRMY,2015-02-21T06:34:00Z,42.23,-84.95,-10.0,-15.1,210,8,,10.0,29.97933,,,TRUE,TRUE,,,,,,,OVC,2200,,,,,,,MVFR,,,,,,,,,,,,METAR,287.0
KPWC 210634Z AUTO 33007KT 10SM CLR M13/M14 A2991 RMK AO2,KPWC,2015-02-21T06:34:00Z,46.72,-94.37,-13.0,-14.0,330,7,,10.0,29.911417,,,TRUE,TRUE,,,,,,,CLR,,,,,,,,VFR,,,,,,,,,,,,METAR,395.0
KPQN 210634Z AUTO 03008KT 3SM BR OVC003 M06/M06 A2986 RMK AO2,KPQN,2015-02-21T06:34:00Z,43.97,-96.32,-6.0,-6.0,30,8,,3.0,29.861221,,,TRUE,TRUE,,,,,,BR,OVC,300,,,,,,,LIFR,,,,,,,,,,,,METAR,529.0
KPNM 210634Z AUTO 30007KT 10SM OVC018 M05/M08 A2984 RMK AO2,KPNM,2015-02-21T06:34:00Z,45.57,-93.6,-5.0,-8.0,300,7,,10.0,29.840551,,,TRUE,TRUE,,,,,,,OVC,1800,,,,,,,MVFR,,,,,,,,,,,,METAR,298.0
KPEX 210634Z AUTO 30009G15KT 10SM OVC110 M11/M13 A2987 RMK AO2 T11151133,KPEX,2015-02-21T06:34:00Z,45.37,-94.73,-11.5,-13.3,300,9,15,10.0,29.870079,,,TRUE,TRUE,,,,,,,OVC,11000,,,,,,,VFR,,,,,,,,,,,,METAR,360.0
KONZ 210634Z AUTO 18013KT 10SM OVC026 M09/M14 A3005 RMK AO2,KONZ,2015-02-21T06:34:00Z,42.1,-83.15,-9.0,-14.0,180,13,,10.0,30.050198,,,TRUE,TRUE,,,,,,,OVC,2600,,,,,,,MVFR,,,,,,,,,,,,METAR,180.0
KMVE 210634Z AUTO 01010KT 10SM OVC100 M09/M11 A2991 RMK AO2,KMVE,2015-02-21T06:34:00Z,44.97,-95.72,-9.0,-11.0,10,10,,10.0,29.911417,,,TRUE,TRUE,,,,,,,OVC,10000,,,,,,,VFR,,,,,,,,,,,,METAR,315.0
KLXL 210634Z AUTO 31005KT 10SM CLR M10/M13 A2988 RMK AO2,KLXL,2015-02-21T06:34:00Z,45.95,-94.33,-10.0,-13.0,310,5,,10.0,29.878937,,,TRUE,TRUE,,,,,,,CLR,,,,,,,,VFR,,,,,,,,,,,,METAR,342.0
KGYL 210634Z AUTO 30009KT 10SM OVC011 M05/M07 A2985 RMK AO2 T10551070,KGYL,2015-02-21T06:34:00Z,44.77,-94.08,-5.5,-7.0,300,9,,10.0,29.84941,,,TRUE,TRUE,,,,,,,OVC,1100,,,,,,,MVFR,,,,,,,,,,,,METAR,302.0
KFKA 210634Z AUTO 00000KT 10SM SCT017 OVC022 M05/M08 A2980 RMK AO2 T10541077,KFKA,2015-02-21T06:34:00Z,43.68,-92.17,-5.4,-7.7,0,0,,10.0,29.799213,,,TRUE,TRUE,,,,,,,SCT,1700,OVC,2200,,,,,MVFR,,,,,,,,,,,,METAR,389.0
KFGN 210634Z AUTO 32012KT 10SM CLR M19/M21 A2993 RMK AO2,KFGN,2015-02-21T06:34:00Z,49.32,-94.9,-19.0,-21.0,320,12,,10.0,29.929134,,,TRUE,TRUE,,,,,,,CLR,,,,,,,,VFR,,,,,,,,,,,,METAR,328.0
KFFM 210634Z AUTO 35011G15KT 10SM SCT006 OVC014 M13/M16 A2998 RMK AO2,KFFM,2015-02-21T06:34:00Z,46.28,-96.15,-13.0,-16.0,350,11,15,10.0,29.97933,,,TRUE,TRUE,,,,,,,SCT,600,OVC,1400,,,,,MVFR,,,,,,,,,,,,METAR,361.0
KLMO 210634Z AUTO 00000KT 10SM BKN030 OVC055 02/00 A2998 RMK AO2 T00151001,KLMO,2015-02-21T06:34:00Z,40.17,-105.17,1.5,-0.1,0,0,,10.0,29.97933,,,TRUE,TRUE,,,,,,,BKN,3000,OVC,5500,,,,,MVFR,,,,,,,,,,,,METAR,1541.0
KQGX 210633Z AUTO 16025G32KT 2800 HZ CLR 29/08 A2978 RMK AO2 $,KQGX,2015-02-21T06:33:00Z,100.65,-1000.65,29.0,8.0,160,25,32,1.74,29.778543,,,TRUE,TRUE,TRUE,,,,,HZ,CLR,,,,,,,,IFR,,,,,,,,,,,,SPECI,999.0
KDVP 210633Z AUTO 34014KT 7SM OVC005 M06/M07 A2987 RMK AO2 T10631070,KDVP,2015-02-21T06:33:00Z,43.98,-95.78,-6.3,-7.0,340,14,,7.0,29.870079,,,TRUE,TRUE,,,,,,,OVC,500,,,,,,,IFR,,,,,,,,,,,,METAR,495.0
KCGI 210633Z AUTO 14009KT 5SM -FZRA BR BKN007 BKN011 OVC019 M01/M01 A2990 RMK AO2 PRESFR P0011 I1006 T10061011 TSNO,KCGI,2015-02-21T06:33:00Z,37.23,-89.58,-0.6,-1.1,140,9,,5.0,29.899607,,,TRUE,TRUE,,,TRUE,,,-FZRA BR,BKN,700,BKN,1100,OVC,1900,,,IFR,,,,,,0.11,,,,,,METAR,102.0
KEND 210633Z AUTO 36012KT 4SM R17C/4500FT BR OVC005 03/02 A2980 RMK AO2 $,KEND,2015-02-21T06:33:00Z,36.32,-97.92,3.0,2.0,360,12,,4.0,29.799213,,,TRUE,TRUE,TRUE,,,,,BR,OVC,500,,,,,,,IFR,,,,,,,,,,,,SPECI,398.0
KMTN 210633Z AUTO 00000KT 10SM CLR M13/M18 A3052 RMK AO2,KMTN,2015-02-21T06:33:00Z,39.32,-76.42,-13.0,-18.0,0,0,,10.0,30.519686,,,TRUE,TRUE,,,,,,,CLR,,,,,,,,VFR,,,,,,,,,,,,METAR,7.0
KISN 210633Z AUTO 35011KT 3SM -SN FEW014 OVC025 M08/M11 A3005 RMK AO2 P0000 T10831111,KISN,2015-02-21T06:33:00Z,48.17,-103.63,-8.3,-11.1,350,11,,3.0,30.050198,,,TRUE,TRUE,,,,,,-SN,FEW,1400,OVC,2500,,,,,MVFR,,,,,,0.0050,,,,,,METAR,579.0
KFOZ 210633Z AUTO 32003KT 3SM -SN OVC028 M13/M16 A2986 RMK AO2,KFOZ,2015-02-21T06:33:00Z,47.77,-93.65,-13.0,-16.0,320,3,,3.0,29.861221,,,TRUE,TRUE,,,,,,-SN,OVC,2800,,,,,,,MVFR,,,,,,,,,,,,METAR,411.0
KM19 210633Z AUTO 32013KT 2SM -SN BR OVC005 00/00 A2989 RMK AO2 CIG 002V008 P0006 PRESRR,KM19,2015-02-21T06:33:00Z,35.65,-91.17,0.0,0.0,320,13,,2.0,29.890747,,,TRUE,TRUE,,,,,,-SN BR,OVC,500,,,,,,,IFR,,,,,,0.06,,,,,,METAR,73.0
KLEX 210633Z 18014KT 9SM OVC009 M02/M03 A3004 RMK AO2 FZRAE28 CIG 007V014 P0002 I1003 T10171028 $,KLEX,2015-02-21T06:33:00Z,38.03,-84.6,-1.7,-2.8,180,14,,9.0,30.041338,,,,TRUE,TRUE,,,,,,OVC,900,,,,,,,IFR,,,,,,0.02,,,,,,METAR,300.0
KLAF 210633Z AUTO 17007KT 4SM -SN BR SCT028 OVC033 M08/M09 A2998 RMK AO2 P0000 T10781094 TSNO,KLAF,2015-02-21T06:33:00Z,40.42,-86.93,-7.8,-9.4,170,7,,4.0,29.97933,,,TRUE,TRUE,,,TRUE,,,-SN BR,SCT,2800,OVC,3300,,,,,MVFR,,,,,,0.0050,,,,,,METAR,182.0
KMQY 210633Z AUTO 19009KT 10SM BKN031 BKN046 OVC070 M01/M03 A3009 RMK AO2 OVC V BKN FZRAE08 P0001,KMQY,2015-02-21T06:33:00Z,36.02,-86.52,-1.0,-3.0,190,9,,10.0,30.088583,,,TRUE,TRUE,,,,,,,BKN,3100,BKN,4600,OVC,7000,,,VFR,,,,,,0.01,,,,,,METAR,166.0
KOSU 210633Z AUTO 16009KT 10SM OVC029 M08/M19 A3010 RMK AO2 T10831189,KOSU,2015-02-21T06:33:00Z,40.08,-83.08,-8.3,-18.9,160,9,,10.0,30.100393,,,TRUE,TRUE,,,,,,,OVC,2900,,,,,,,MVFR,,,,,,,,,,,,METAR,280.0
KSPI 210633Z 15005KT 1SM R04/P6000FT -SN BR VV012 M06/M07 A2994 RMK AO2 P0005 T10561072,KSPI,2015-02-21T06:33:00Z,39.85,-89.68,-5.6,-7.2,150,5,,1.0,29.940945,,,,TRUE,,,,,,-SN BR,OVX,0,,,,,,,LIFR,,,,,,0.05,,,,,1200,METAR,181.0
PASN 210633Z AUTO 06016KT 7SM UP SCT021 BKN029 OVC055 02/00 A2931 RMK AO2 RAE29UPB29 P0000 T00170000 TSNO $,PASN,2015-02-21T06:33:00Z,57.15,-170.22,1.7,0.0,60,16,,7.0,29.309055,,,TRUE,TRUE,TRUE,,TRUE,,,UP,SCT,2100,BKN,2900,OVC,5500,,,MVFR,,,,,,0.0050,,,,,,METAR,29.0
K9MN 210633Z AUTO 30005KT 10SM OVC014 M05/M08 A2982 RMK AO1 T10511076,K9MN,2015-02-21T06:33:00Z,44.02,-92.48,-5.1,-7.6,300,5,,10.0,29.819881,,,TRUE,TRUE,,,,,,,OVC,1400,,,,,,,MVFR,,,,,,,,,,,,METAR,355.0
KAIT 210633Z AUTO 30005KT 10SM CLR M10/M13 A2984 RMK AO2,KAIT,2015-02-21T06:33:00Z,46.53,-93.67,-10.0,-13.0,300,5,,10.0,29.840551,,,TRUE,TRUE,,,,,,,CLR,,,,,,,,VFR,,,,,,,,,,,,METAR,367.0
KBBB 210633Z AUTO 01010KT 10SM OVC110 M09/M12 A2990 RMK AO2,KBBB,2015-02-21T06:33:00Z,45.32,-95.65,-9.0,-12.0,10,10,,10.0,29.899607,,,TRUE,TRUE,,,,,,,OVC,11000,,,,,,,VFR,,,,,,,,,,,,METAR,317.0
KSUU 210633Z AUTO 00000KT 1 1/2SM BR CLR 08/08 A2995 RMK AO2 VIS 1 1/4V2 1/2 $,KSUU,2015-02-21T06:33:00Z,38.27,-121.92,8.0,8.0,0,0,,1.5,29.949802,,,TRUE,TRUE,TRUE,,,,,BR,CLR,,,,,,,,IFR,,,,,,,,,,,,METAR,19.0
KLTS 210633Z AUTO 03018G24KT 8SM R35L/5500FT OVC006 09/09 A2971 RMK AO2,KLTS,2015-02-21T06:33:00Z,34.67,-99.27,9.0,9.0,30,18,24,8.0,29.71063,,,TRUE,TRUE,,,,,,,OVC,600,,,,,,,IFR,,,,,,,,,,,,SPECI,420.0
KORB 210633Z AUTO 00000KT 5SM -SN OVC030 M13/M16 A2981 RMK AO2,KORB,2015-02-21T06:33:00Z,48.02,-92.87,-13.0,-16.0,0,0,,5.0,29.811024,,,TRUE,TRUE,,,,,,-SN,OVC,3000,,,,,,,MVFR,,,,,,,,,,,,METAR,397.0
KD95 210633Z AUTO 20007KT 7SM -SN BKN024 OVC033 M11/M16 A3002 RMK AO2 T11111160,KD95,2015-02-21T06:33:00Z,43.07,-83.27,-11.1,-16.0,200,7,,7.0,30.02067,,,TRUE,TRUE,,,,,,-SN,BKN,2400,OVC,3300,,,,,MVFR,,,,,,,,,,,,METAR,255.0
KDXX 210633Z AUTO 34010KT 10SM OVC100 M07/M10 A2994 RMK AO2,KDXX,2015-02-21T06:33:00Z,44.98,-96.18,-7.0,-10.0,340,10,,10.0,29.940945,,,TRUE,TRUE,,,,,,,OVC,10000,,,,,,,VFR,,,,,,,,,,,,METAR,330.0
KELO 210633Z AUTO 33004KT 10SM SCT017 OVC030 M12/M14 A2980 RMK AO2,KELO,2015-02-21T06:33:00Z,47.82,-91.82,-12.0,-14.0,330,4,,10.0,29.799213,,,TRUE,TRUE,,,,,,,SCT,1700,OVC,3000,,,,,MVFR,,,,,,,,,,,,METAR,443.0
KY63 210633Z AUTO 33011KT 10SM OVC110 M12/M14 A2992 RMK AO2 T11171143,KY63,2015-02-21T06:33:00Z,45.98,-96.0,-11.7,-14.3,330,11,,10.0,29.920275,,,TRUE,TRUE,,,,,,,OVC,11000,,,,,,,VFR,,,,,,,,,,,,METAR,367.0
KVVV 210633Z AUTO 36012KT 10SM OVC100 M09/M12 A2993 RMK AO2,KVVV,2015-02-21T06:33:00Z,45.3,-96.42,-9.0,-12.0,360,12,,10.0,29.929134,,,TRUE,TRUE,,,,,,,OVC,10000,,,,,,,VFR,,,,,,,,,,,,METAR,335.0
KPCW 210633Z AUTO 19011KT 10SM BKN025 OVC032 M08/M17 A3005 RMK AO2,KPCW,2015-02-21T06:33:00Z,41.52,-82.87,-8.0,-17.0,190,11,,10.0,30.050198,,,TRUE,TRUE,,,,,,,BKN,2500,OVC,3200,,,,,MVFR,,,,,,,,,,,,METAR,178.0
KOVL 210633Z AUTO 32006KT 10SM CLR M11/M12 A2988 RMK AO2,KOVL,2015-02-21T06:33:00Z,44.78,-95.03,-11.0,-12.0,320,6,,10.0,29.878937,,,TRUE,TRUE,,,,,,,CLR,,,,,,,,VFR,,,,,,,,,,,,METAR,328.0
KOSC 210633Z AUTO 19010G15KT 4SM -SN SCT032 BKN070 OVC090 M11/M13 A2998 RMK AO2 T11161140,KOSC,2015-02-21T06:33:00Z,44.45,-83.4,-11.6,-14.0,190,10,15,4.0,29.97933,,,TRUE,TRUE,,,,,,-SN,SCT,3200,BKN,7000,OVC,9000,,,MVFR,,,,,,,,,,,,METAR,193.0
KMWM 210633Z AUTO 33014G18KT 10SM OVC006 M06/M07 A2986 RMK AO2,KMWM,2015-02-21T06:33:00Z,43.9,-95.1,-6.0,-7.0,330,14,18,10.0,29.861221,,,TRUE,TRUE,,,,,,,OVC,600,,,,,,,IFR,,,,,,,,,,,,METAR,430.0
KMRT 210633Z AUTO 19007KT 10SM OVC024 M09/M17 A3008 RMK AO2 T10901170,KMRT,2015-02-21T06:33:00Z,40.22,-83.35,-9.0,-17.0,190,7,,10.0,30.079725,,,TRUE,TRUE,,,,,,,OVC,2400,,,,,,,MVFR,,,,,,,,,,,,METAR,312.0
KMOX 210633Z AUTO 34017G21KT 10SM OVC110 M11/M13 A2991 RMK AO2,KMOX,2015-02-21T06:33:00Z,45.57,-95.97,-11.0,-13.0,340,17,21,10.0,29.911417,,,TRUE,TRUE,,,,,,,OVC,11000,,,,,,,VFR,,,,,,,,,,,,METAR,344.0
KMJQ 210633Z AUTO 35008KT 5SM BR OVC007 M03/M05 A2985 RMK AO2,KMJQ,2015-02-21T06:33:00Z,43.63,-94.97,-3.0,-5.0,350,8,,5.0,29.84941,,,TRUE,TRUE,,,,,,BR,OVC,700,,,,,,,IFR,,,,,,,,,,,,METAR,441.0
KLJF 210633Z AUTO 33007KT 10SM BKN100 M09/M11 A2987 RMK AO2,KLJF,2015-02-21T06:33:00Z,45.1,-94.52,-9.0,-11.0,330,7,,10.0,29.870079,,,TRUE,TRUE,,,,,,,BKN,10000,,,,,,,VFR,,,,,,,,,,,,METAR,348.0
KIMS 210633Z AUTO 15004KT 10SM OVC012 M05/M10 A3002 RMK AO1,KIMS,2015-02-21T06:33:00Z,38.75,-85.47,-5.0,-10.0,150,4,,10.0,30.02067,,,TRUE,TRUE,,,,,,,OVC,1200,,,,,,,MVFR,,,,,,,,,,,,METAR,250.0
KIKW 210633Z AUTO 18006KT 10SM SCT035 OVC055 M10/M14 A2999 RMK AO2 T11001141,KIKW,2015-02-21T06:33:00Z,43.67,-84.27,-10.0,-14.1,180,6,,10.0,29.991142,,,TRUE,TRUE,,,,,,,SCT,3500,OVC,5500,,,,,VFR,,,,,,,,,,,,METAR,194.0
KGHW 210633Z AUTO 32011KT 10SM SCT090 OVC110 M11/M13 A2988 RMK AO2,KGHW,2015-02-21T06:33:00Z,45.63,-95.32,-11.0,-13.0,320,11,,10.0,29.878937,,,TRUE,TRUE,,,,,,,SCT,9000,OVC,11000,,,,,VFR,,,,,,,,,,,,METAR,425.0
KPWA 210632Z AUTO 02008KT 2 1/2SM BR OVC002 04/04 A2976 RMK AO2 RAE11 P0000,KPWA,2015-02-21T06:32:00Z,35.53,-97.65,4.0,4.0,20,8,,2.5,29.760826,,,TRUE,TRUE,,,,,,BR,OVC,200,,,,,,,LIFR,,,,,,0.0050,,,,,,METAR,397.0
KESF 210632Z AUTO 16005KT 10SM SCT025 OVC030 17/12 A2998 RMK AO2 T01670122,KESF,2015-02-21T06:32:00Z,31.4,-92.28,16.7,12.2,160,5,,10.0,29.97933,,,TRUE,TRUE,,,,,,,SCT,2500,OVC,3000,,,,,MVFR,,,,,,,,,,,,METAR,28.0
KDLN 210632Z AUTO 07006KT 3SM -SN BR BKN022 OVC070 M01/M02 A2997 RMK AO2 P0001 T10111022,KDLN,2015-02-21T06:32:00Z,45.25,-112.55,-1.1,-2.2,70,6,,3.0,29.970472,,,TRUE,TRUE,,,,,,-SN BR,BKN,2200,OVC,7000,,,,,MVFR,,,,,,0.01,,,,,,METAR,1591.0
KBTM 210632Z AUTO 29003KT 6SM -SN BR OVC039 M03/M04 A2999 RMK AO2 P0000 T10281039,KBTM,2015-02-21T06:32:00Z,45.97,-112.5,-2.8,-3.9,290,3,,6.0,29.991142,,,TRUE,TRUE,,,,,,-SN BR,OVC,3900,,,,,,,VFR,,,,,,0.0050,,,,,,METAR,1688.0
RKJK 210632Z AUTO 08008KT 8SM -RA BKN029 OVC034 09/09 A2994 RMK AO2,RKJK,2015-02-21T06:32:00Z,35.9,126.62,9.0,9.0,80,8,,8.0,29.940945,,,TRUE,TRUE,,,,,,-RA,BKN,2900,OVC,3400,,,,,MVFR,,,,,,,,,,,,SPECI,9.0
KHIF 210632Z AUTO 23002KT 10SM SCT010 BKN045 BKN090 02/00 A3000 RMK AO2 UPB06E08SNB08E32 CIG 011 RWY32,KHIF,2015-02-21T06:32:00Z,41.12,-111.97,2.0,0.0,230,2,,10.0,30.0,,,TRUE,TRUE,,,,,,,SCT,1000,BKN,4500,BKN,9000,,,VFR,,,,,,,,,,,,SPECI,1459.0
KBLV 210632Z 09002KT 3SM -FZRA BR SCT005 OVC010 M02/M02 A2992 RMK AO2A UPB0613E0623SNB0558E0612 CIG 005V011 $,KBLV,2015-02-21T06:32:00Z,38.53,-89.83,-2.0,-2.0,90,2,,3.0,29.920275,,,,TRUE,TRUE,,,,,-FZRA BR,SCT,500,OVC,1000,,,,,MVFR,,,,,,,,,,,,SPECI,138.0
CYUY 210632Z 20009G15KT 3SM -SN OVC050 M18/M21 A2996 RMK SC8 SLP180,CYUY,2015-02-21T06:32:00Z,48.2,-78.82,-18.0,-21.0,200,9,15,3.0,29.958662,1018.0,,,,,,,,,-SN,OVC,5000,,,,,,,MVFR,,,,,,,,,,,,SPECI,301.0
CYNA 210632Z AUTO 29023G29KT 2 1/2SM -SN CLR M13/M17 A2956 RMK PRESRR SLP012,CYNA,2015-02-21T06:32:00Z,50.17,-61.82,-13.0,-17.0,290,23,29,2.5,29.56004,1001.2,,TRUE,,,,,,,-SN,CLR,,,,,,,,IFR,,,,,,,,,,,,SPECI,11.0
EKSP 210632Z 04003KT 2800 -RA BKN002 BKN012 02/02 Q0992,EKSP,2015-02-21T06:32:00Z,55.22,9.27,2.0,2.0,40,3,,1.74,29.291338,,,,,,,,,,-RA,BKN,200,BKN,1200,,,,,LIFR,,,,,,,,,,,,SPECI,40.0
KAEL 210632Z AUTO 30004KT 7SM OVC012 M02/M03 A2981 RMK AO2,KAEL,2015-02-21T06:32:00Z,43.68,-93.37,-2.0,-3.0,300,4,,7.0,29.811024,,,TRUE,TRUE,,,,,,,OVC,1200,,,,,,,MVFR,,,,,,,,,,,,METAR,383.0
KBJI 210632Z AUTO 32007KT 7SM -SN BKN018 M16/M18 A2989 RMK AO2 T11581180,KBJI,2015-02-21T06:32:00Z,47.5,-94.92,-15.8,-18.0,320,7,,7.0,29.890747,,,TRUE,TRUE,,,,,,-SN,BKN,1800,,,,,,,MVFR,,,,,,,,,,,,METAR,420.0
KFKS 210632Z AUTO 13006KT 2 1/2SM -SN OVC015 M10/M12 A2990 RMK AO2 T11031116,KFKS,2015-02-21T06:32:00Z,44.63,-86.2,-10.3,-11.6,130,6,,2.5,29.899607,,,TRUE,TRUE,,,,,,-SN,OVC,1500,,,,,,,IFR,,,,,,,,,,,,METAR,193.0
KD39 210632Z AUTO 32008KT 10SM BKN090 M12/M13 A2988 RMK AO2 T11161135,KD39,2015-02-21T06:32:00Z,45.7,-94.93,-11.6,-13.5,320,8,,10.0,29.878937,,,TRUE,TRUE,,,,,,,BKN,9000,,,,,,,VFR,,,,,,,,,,,,METAR,380.0
KEVM 210632Z AUTO 32007KT 10SM -SN CLR M11/M13 A2982 RMK AO2,KEVM,2015-02-21T06:32:00Z,47.42,-92.5,-11.0,-13.0,320,7,,10.0,29.819881,,,TRUE,TRUE,,,,,,-SN,CLR,,,,,,,,VFR,,,,,,,,,,,,METAR,421.0
KFLY 210632Z AUTO 01006KT 10SM -SN BKN017 OVC027 M01/M03 A2994 RMK AO2 T10151030,KFLY,2015-02-21T06:32:00Z,38.95,-104.57,-1.5,-3.0,10,6,,10.0,29.940945,,,TRUE,TRUE,,,,,,-SN,BKN,1700,OVC,2700,,,,,MVFR,,,,,,,,,,,,METAR,2096.0
KTKC 210632Z AUTO 34013G17KT 10SM BKN011 OVC016 M07/M09 A2989 RMK AO2 T10691094,KTKC,2015-02-21T06:32:00Z,44.25,-95.62,-6.9,-9.4,340,13,17,10.0,29.890747,,,TRUE,TRUE,,,,,,,BKN,1100,OVC,1600,,,,,MVFR,,,,,,,,,,,,METAR,408.0
KJKJ 210632Z AUTO 35014KT 10SM BKN070 OVC100 M12/M14 RMK AO2,KJKJ,2015-02-21T06:32:00Z,46.83,-96.67,-12.0,-14.0,350,14,,10.0,,,,TRUE,TRUE,,,,,,,BKN,7000,OVC,10000,,,,,VFR,,,,,,,,,,,,METAR,280.0
KHCD 210632Z AUTO 32009KT 10SM CLR M09/M11 A2986 RMK AO2 T10871112,KHCD,2015-02-21T06:32:00Z,44.87,-94.38,-8.7,-11.2,320,9,,10.0,29.861221,,,TRUE,TRUE,,,,,,,CLR,,,,,,,,VFR,,,,,,,,,,,,METAR,323.0
KGDB 210632Z AUTO 31008KT 10SM CLR M09/M12 A2991 RMK AO2 T10951116,KGDB,2015-02-21T06:32:00Z,44.75,-95.55,-9.5,-11.6,310,8,,10.0,29.911417,,,TRUE,TRUE,,,,,,,CLR,,,,,,,,VFR,,,,,,,,,,,,METAR,319.0
KFTK 210631Z AUTO 16010KT 10SM -SN SCT009 BKN013 OVC021 00/M01 A3000 RMK AO2 RAE0610SNB0610E0617B0618 CIG 010V022,KFTK,2015-02-21T06:31:00Z,37.88,-85.97,0.0,-1.0,160,10,,10.0,30.0,,,TRUE,TRUE,,,,,,-SN,SCT,900,BKN,1300,OVC,2100,,,MVFR,,,,,,,,,,,,SPECI,230.0
EHKD 210631Z AUTO 27014KT 7000 -SHRA FEW006 SCT010 BKN014 03/02 Q0995 REDZ GRN 27014KT 9999 SCT016 BKN050 TEMPO 5000 -SHRA FEW008 FEW015CB BKN020,EHKD,2015-02-21T06:31:00Z,52.92,4.77,3.0,2.0,270,14,,6.21,29.379921,,,TRUE,,,,,,,-SHRA,FEW,600,SCT,1000,BKN,1400,SCT,1600,MVFR,,,,,,,,,,,,SPECI,14.0
KRIW 210631Z AUTO 15003KT 4SM -SN BR SCT001 BKN022 OVC037 M02/M03 A2996 RMK AO2 P0001 T10221028,KRIW,2015-02-21T06:31:00Z,43.07,-108.47,-2.2,-2.8,150,3,,4.0,29.958662,,,TRUE,TRUE,,,,,,-SN BR,SCT,100,BKN,2200,OVC,3700,,,MVFR,,,,,,0.01,,,,,,METAR,1697.0
KPPF 210631Z AUTO 06006KT 9SM BKN006 OVC012 01/00 A2980 RMK AO2 PRESFR T00060000 TSNO,KPPF,2015-02-21T06:31:00Z,37.33,-95.5,0.6,0.0,60,6,,9.0,29.799213,,,TRUE,TRUE,,,TRUE,,,,BKN,600,OVC,1200,,,,,IFR,,,,,,,,,,,,METAR,274.0
KOWB 210631Z AUTO 18007KT 1 3/4SM UP BR FEW001 OVC010 00/M01 A2999 RMK AO2 TSNO CIG 006V013 UPB31FZRAE31 P0018,KOWB,2015-02-21T06:31:00Z,37.72,-87.17,0.0,-1.0,180,7,,1.75,29.991142,,,TRUE,TRUE,,,TRUE,,,BR UP,FEW,100,OVC,1000,,,,,IFR,,,,,,0.18,,,,,,METAR,124.0
KMOD 210631Z AUTO 13004KT 2SM HZ SCT011 09/08 A2998 RMK AO2 T00890078,KMOD,2015-02-21T06:31:00Z,37.62,-120.95,8.9,7.8,130,4,,2.0,29.97933,,,TRUE,TRUE,,,,,,HZ,SCT,1100,,,,,,,IFR,,,,,,,,,,,,METAR,29.0
KLWC 210631Z AUTO 33010KT 4SM -FZRA BR SCT005 OVC041 00/M01 A2990 RMK AO2 PRESRR P0003 I1001 T00001011,KLWC,2015-02-21T06:31:00Z,39.02,-95.22,0.0,-1.1,330,10,,4.0,29.899607,,,TRUE,TRUE,,,,,,-FZRA BR,SCT,500,OVC,4100,,,,,MVFR,,,,,,0.03,,,,,,METAR,253.0
KLOU 210631Z AUTO 17005KT 6SM UP BR OVC008 M03/M04 A3002 RMK AO2 UPE01B31FZRAB01E31 CIG 007V011 P0001 I1001 T10281044,KLOU,2015-02-21T06:31:00Z,38.22,-85.67,-2.8,-4.4,170,5,,6.0,30.02067,,,TRUE,TRUE,,,,,,BR UP,OVC,800,,,,,,,IFR,,,,,,0.01,,,,,,METAR,164.0
KJKL 210631Z AUTO 19007KT 160V230 6SM FZRA OVC040 M03/M06 A3008 RMK AO2 UPE26FZRAB26 P0003 I1001 T10281056,KJKL,2015-02-21T06:31:00Z,37.6,-83.32,-2.8,-5.6,190,7,,6.0,30.079725,,,TRUE,TRUE,,,,,,FZRA,OVC,4000,,,,,,,VFR,,,,,,0.03,,,,,,METAR,416.0
KHBG 210631Z AUTO 14011KT 10SM BKN029 OVC070 14/11 A3013 RMK AO2 T01390106,KHBG,2015-02-21T06:31:00Z,31.27,-89.25,13.9,10.6,140,11,,10.0,30.129921,,,TRUE,TRUE,,,,,,,BKN,2900,OVC,7000,,,,,MVFR,,,,,,,,,,,,METAR,44.0
KCFV 210631Z AUTO 06007KT 4SM BR BKN005 OVC014 01/00 A2982 RMK AO2 RAB08E22 PRESFR P0000 T00060000,KCFV,2015-02-21T06:31:00Z,37.08,-95.57,0.6,0.0,60,7,,4.0,29.819881,,,TRUE,TRUE,,,,,,BR,BKN,500,OVC,1400,,,,,IFR,,,,,,0.0050,,,,,,METAR,225.0
KBWG 210631Z AUTO 17014G19KT 10SM BKN018 BKN023 OVC028 01/M02 A3004 RMK AO2 FZRAE25 P0000 I1001 T00061022,KBWG,2015-02-21T06:31:00Z,36.97,-86.42,0.6,-2.2,170,14,19,10.0,30.041338,,,TRUE,TRUE,,,,,,,BKN,1800,BKN,2300,OVC,2800,,,MVFR,,,,,,0.0050,,,,,,METAR,168.0
PATE 210631Z AUTO 11009KT 10SM UP BKN005 M04/M05 A2986 RMK AO2 UPB26SNE16 CIG 003V008 P0000 FZRANO,PATE,2015-02-21T06:31:00Z,65.23,-166.33,-4.0,-5.0,110,9,,10.0,29.861221,,,TRUE,TRUE,,,,TRUE,,UP,BKN,500,,,,,,,IFR,,,,,,0.0050,,,,,,METAR,90.0
KGUS 210631Z AUTO 19007KT 7SM R23/5500FT -SN FEW023 OVC029 M08/M10 A2997 RMK AO2 DZE0616SNB0616,KGUS,2015-02-21T06:31:00Z,40.63,-86.15,-8.0,-10.0,190,7,,7.0,29.970472,,,TRUE,TRUE,,,,,,-SN,FEW,2300,OVC,2900,,,,,MVFR,,,,,,,,,,,,METAR,247.0
CYTL 210631Z AUTO 33006KT 9SM -SN CLR M30/M33 A2997 RMK SLP178,CYTL,2015-02-21T06:31:00Z,53.82,-89.88,-30.0,-33.0,330,6,,9.0,29.970472,1017.8,,TRUE,,,,,,,-SN,CLR,,,,,,,,VFR,,,,,,,,,,,,SPECI,224.0
K21D 210631Z AUTO 17003KT 10SM OVC020 M06/M07 A2984 RMK AO2,K21D,2015-02-21T06:31:00Z,45.0,-92.85,-6.0,-7.0,170,3,,10.0,29.840551,,,TRUE,TRUE,,,,,,,OVC,2000,,,,,,,MVFR,,,,,,,,,,,,METAR,285.0
KAXV 210631Z AUTO 16011KT 10SM OVC015 M07/M12 A3003 RMK AO2,KAXV,2015-02-21T06:31:00Z,40.5,-84.3,-7.0,-12.0,160,11,,10.0,30.029528,,,TRUE,TRUE,,,,,,,OVC,1500,,,,,,,MVFR,,,,,,,,,,,,METAR,279.0
KCWN 210631Z AUTO 32011KT 10SM SCT026 M01/M05 A2961 RMK AO2,KCWN,2015-02-21T06:31:00Z,38.75,-104.85,-1.0,-5.0,320,11,,10.0,29.610237,,,TRUE,TRUE,,,,,,,SCT,2600,,,,,,,VFR,,,,,,,,,,,,METAR,2040.0
NZCH 210630Z AUTO 21012KT 9999 FEW022/// 18/14 Q1016 NOSIG,NZCH,2015-02-21T06:30:00Z,-43.47,172.55,18.0,14.0,210,12,,6.21,30.0,,,TRUE,,,TRUE,,,,,,,,,,,,,,,,,,,,,,,,,SPECI,34.0
NZWN 210630Z AUTO 36019KT 9999 SCT020/// 19/14 Q1017 NOSIG,NZWN,2015-02-21T06:30:00Z,-41.32,174.8,19.0,14.0,360,19,,6.21,30.029528,,,TRUE,,,TRUE,,,,,,,,,,,,,,,,,,,,,,,,,SPECI,7.0
NZAA 210630Z AUTO 04004KT 9999 BKN085/// 20/18 Q1021 NOSIG,NZAA,2015-02-21T06:30:00Z,-37.02,174.8,20.0,18.0,40,4,,6.21,30.147638,,,TRUE,,,TRUE,,,,,,,,,,,,,,,,,,,,,,,,,SPECI,6.0
WMKP 210630Z 22007KT 8000 FEW020 BKN270 33/23 Q1009 NOSIG,WMKP,2015-02-21T06:30:00Z,5.28,100.27,33.0,23.0,220,7,,4.97,29.793306,,,,,,TRUE,,,,,FEW,2000,BKN,27000,,,,,MVFR,,,,,,,,,,,,METAR,4.0
WBSB 210630Z 35008KT 7000SW VCSH SCT015 FEW017CB SCT140 BKN280 31/23 Q1010 NOSIG,WBSB,2015-02-21T06:30:00Z,4.92,114.92,31.0,23.0,350,8,,4.35,29.822834,,,,,,TRUE,,,,VCSH,SCT,1500,FEW,1700,SCT,14000,BKN,28000,MVFR,,,,,,,,,,,,METAR,15.0
WBKK 210630Z 31004KT 270V350 9999 FEW015 SCT140 BKN280 31/25 Q1009 NOSIG,WBKK,2015-02-21T06:30:00Z,5.92,116.03,31.0,25.0,310,4,,6.21,29.793306,,,,,,TRUE,,,,,FEW,1500,SCT,14000,BKN,28000,,,VFR,,,,,,,,,,,,METAR,3.0
WBGG 210630Z 03008KT 330V070 9999 SCT020 BKN300 31/24 Q1010 NOSIG,WBGG,2015-02-21T06:30:00Z,1.47,110.35,31.0,24.0,30,8,,6.21,29.822834,,,,,,TRUE,,,,,SCT,2000,BKN,30000,,,,,VFR,,,,,,,,,,,,METAR,27.0
GOOY 210630Z 35012KT CAVOK 17/14 Q1014 NOSIG,GOOY,2015-02-21T06:30:00Z,14.72,-17.5,17.0,14.0,350,12,,6.21,29.940945,,,,,,TRUE,,,,,CAVOK,,,,,,,,VFR,,,,,,,,,,,,METAR,24.0
GLRB 210630Z 03004KT 8000 SCT012 24/23 Q1010 RMK BRVC,GLRB,2015-02-21T06:30:00Z,6.25,-10.33,24.0,23.0,30,4,,4.97,29.822834,,,,,,,,,,,SCT,1200,,,,,,,MVFR,,,,,,,,,,,,METAR,18.0
URFF 210630Z 08002MPS CAVOK 00/M03 Q1022 19010065 NOSIG,URFF,2015-02-21T06:30:00Z,45.03,33.98,0.0,-3.0,80,4,,6.21,30.177166,,,,,,TRUE,,,,,CAVOK,,,,,,,,VFR,,,,,,,,,,,,METAR,188.0
URWW 210630Z 24005MPS CAVOK M07/M12 Q1026 NOSIG RMK 29CLRD70,URWW,2015-02-21T06:30:00Z,48.78,44.33,-7.0,-12.0,240,10,,6.21,30.295275,,,,,,TRUE,,,,,CAVOK,,,,,,,,VFR,,,,,,,,,,,,METAR,147.0
URWA 210630Z 09002MPS 050V110 CAVOK M03/M12 Q1028 NOSIG RMK QFE773/1031 SC060,URWA,2015-02-21T06:30:00Z,46.28,48.02,-3.0,-12.0,90,4,,6.21,30.35433,,,,,,TRUE,,,,,CAVOK,,,,,,,,VFR,,,,,,,,,,,,METAR,-20.0
URSS 210630Z 06004MPS 9999 FEW030 OVC083 05/02 Q1018 NOSIG RMK R02/03003MPS MT OBSC QFE763 06190060 02//////,URSS,2015-02-21T06:30:00Z,43.45,39.95,5.0,2.0,60,8,,6.21,30.059055,,,,,,TRUE,,,,,FEW,3000,OVC,8300,,,,,VFR,,,,,,,,,,,,METAR,16.0
URRR 210630Z 09003MPS CAVOK M05/M07 Q1026 04CLRD70 NOSIG,URRR,2015-02-21T06:30:00Z,47.25,39.82,-5.0,-7.0,90,6,,6.21,30.295275,,,,,,TRUE,,,,,CAVOK,,,,,,,,VFR,,,,,,,,,,,,METAR,77.0
URMT 210630Z 12006G09MPS 5000 BR BKN006 OVC100 M05/M06 Q1021 NOSIG RMK QFE726 SC055,URMT,2015-02-21T06:30:00Z,45.12,42.12,-5.0,-6.0,120,12,17,3.11,30.147638,,,,,,TRUE,,,,BR,BKN,600,OVC,10000,,,,,IFR,,,,,,,,,,,,METAR,453.0
URMO 210630Z 00000MPS 4100 -SHSN BKN036CB OVC100 M05/M07 Q1021 NOSIG RMK QFE722/0963 SC070,URMO,2015-02-21T06:30:00Z,43.2,44.6,-5.0,-7.0,0,0,,2.55,30.147638,,,,,,TRUE,,,,-SHSN,BKN,3600,OVC,10000,,,,,IFR,,,,,,,,,,,,METAR,510.0
URMN 210630Z 00000MPS 5000 -SHSN BR BKN015CB OVC100 M04/M06 Q1022 NOSIG RMK MT OBSC QFE730 SC045,URMN,2015-02-21T06:30:00Z,43.52,43.63,-4.0,-6.0,0,0,,3.11,30.177166,,,,,,TRUE,,,,-SHSN BR,BKN,1500,OVC,10000,,,,,MVFR,,,,,,,,,,,,METAR,445.0
URMM 210630Z 11007G10MPS 9999 BKN013 OVC033 M03/M05 Q1023 R12/490150 NOSIG RMK MT OBSC QFE739/0985,URMM,2015-02-21T06:30:00Z,44.22,43.1,-3.0,-5.0,110,14,19,6.21,30.206694,,,,,,TRUE,,,,,BKN,1300,OVC,3300,,,,,MVFR,,,,,,,,,,,,METAR,314.0
URML 210630Z 36004MPS 9999 BKN100 02/M02 Q1025 NOSIG RMK QFE768/1024 SC070,URML,2015-02-21T06:30:00Z,42.82,47.65,2.0,-2.0,360,8,,6.21,30.265747,,,,,,TRUE,,,,,BKN,10000,,,,,,,VFR,,,,,,,,,,,,METAR,4.0
URKK 210630Z 06003MPS CAVOK M07/M10 Q1023 NOSIG RMK QFE764 SC050,URKK,2015-02-21T06:30:00Z,45.03,39.15,-7.0,-10.0,60,6,,6.21,30.206694,,,,,,TRUE,,,,,CAVOK,,,,,,,,VFR,,,,,,,,,,,,METAR,34.0
URKA 210630Z 08007G10MPS CAVOK M05/M08 Q1022 NOSIG RMK QFE762/1017 SC070,URKA,2015-02-21T06:30:00Z,45.0,37.35,-5.0,-8.0,80,14,19,6.21,30.177166,,,,,,TRUE,,,,,CAVOK,,,,,,,,VFR,,,,,,,,,,,,METAR,53.0
USHH 210630Z 18007G10MPS 9999 FEW033 OVC080 M12/M18 Q1003 TEMPO 3000 -SN BLSN BKN007 RMK QFE748 24////37,USHH,2015-02-21T06:30:00Z,61.03,69.08,-12.0,-18.0,180,14,19,6.21,29.616142,,,,,,,,,,,FEW,3300,OVC,8000,,,,,VFR,,,,,,,,,,,,METAR,23.0
USTR 210630Z 19004MPS 9999 SCT023 M14/M18 Q1007 NOSIG RMK QFE745/0994 21CLRD65 30CLRD65,USTR,2015-02-21T06:30:00Z,57.17,65.32,-14.0,-18.0,190,8,,6.21,29.734253,,,,,,TRUE,,,,,SCT,2300,,,,,,,VFR,,,,,,,,,,,,METAR,115.0
UNTT 210630Z 15004MPS CAVOK M09/M21 Q1022 NOSIG RMK QFE751 21450150,UNTT,2015-02-21T06:30:00Z,56.38,85.22,-9.0,-21.0,150,8,,6.21,30.177166,,,,,,TRUE,,,,,CAVOK,,,,,,,,VFR,,,-45.0,,,,,,,,,METAR,182.0
UNOO 210630Z 25003MPS 8000 -SN BKN012 OVC066 M12/M14 Q1010 25451040 NOSIG RMK QFE749,UNOO,2015-02-21T06:30:00Z,54.97,73.32,-12.0,-14.0,250,6,,4.97,29.822834,,,,,,TRUE,,,,-SN,BKN,1200,OVC,6600,,,,,MVFR,,,,,,,,,,,,METAR,95.0
UNNT 210630Z 14006MPS CAVOK M14/M20 Q1021 07810160 16810160 NOSIG RMK QFE755/1007,UNNT,2015-02-21T06:30:00Z,55.02,82.63,-14.0,-20.0,140,12,,6.21,30.147638,,,,,,TRUE,,,,,CAVOK,,,,,,,,VFR,,,,,,,,,,,,METAR,111.0
UNKL 210630Z 08002MPS 6000 SKC M15/M22 Q1029 NOSIG RMK QFE746 29////65,UNKL,2015-02-21T06:30:00Z,56.17,92.48,-15.0,-22.0,80,4,,3.73,30.383858,,,,,,TRUE,,,,,SKC,,,,,,,,MVFR,,,,,,,,,,,,METAR,276.0
UNEE 210630Z 13003MPS CAVOK M18/M23 Q1023 NOSIG RMK QFE744 23451045,UNEE,2015-02-21T06:30:00Z,55.27,86.08,-18.0,-23.0,130,6,,6.21,30.206694,,,,,,TRUE,,,,,CAVOK,,,,,,,,VFR,,,,,,,,,,,,METAR,260.0
UNBB 210630Z 15003MPS CAVOK M13/M19 Q1020 NOSIG RMK QFE742/0990 06800555,UNBB,2015-02-21T06:30:00Z,53.37,83.53,-13.0,-19.0,150,6,,6.21,30.11811,,,,,,TRUE,,,,,CAVOK,,,,,,,,VFR,,,,,,,,,,,,METAR,255.0
UNAA 210630Z 00000MPS CAVOK M12/M25 Q1029 NOSIG RMK QFE749 20090065,UNAA,2015-02-21T06:30:00Z,53.75,91.4,-12.0,-25.0,0,0,,6.21,30.383858,,,,,,TRUE,,,,,CAVOK,,,,,,,,VFR,,,9.0,,,,,,,,,METAR,245.0
USCM 210630Z 30006G11MPS 9999 SCT033 M06/M11 Q1009 TEMPO 28018MPS 0700 BLSN 19090060 RMK QFE719,USCM,2015-02-21T06:30:00Z,53.4,58.75,-6.0,-11.0,300,12,21,6.21,29.793306,,,,,,,,,,,SCT,3300,,,,,,,VFR,,,,,,,,,,,,METAR,435.0
UIUU 210630Z 32007G12MPS 9999 FEW100 M16/M23 Q1031 NOSIG RMK QFE728/0971 26820550,UIUU,2015-02-21T06:30:00Z,51.8,107.45,-16.0,-23.0,320,14,23,6.21,30.442913,,,,,,TRUE,,,,,FEW,10000,,,,,,,VFR,,,,,,,,,,,,METAR,515.0
UIII 210630Z 23001MPS CAVOK M16/M25 Q1035 NOSIG RMK QFE731/0974 30810360,UIII,2015-02-21T06:30:00Z,52.27,104.4,-16.0,-25.0,230,2,,6.21,30.561024,,,,,,TRUE,,,,,CAVOK,,,,,,,,VFR,,,,,,,,,,,,METAR,513.0
UIBB 210630Z 15003MPS 9999 FEW200 M19/M26 Q1034 NOSIG RMK QFE732/0976 30820550,UIBB,2015-02-21T06:30:00Z,56.37,101.7,-19.0,-26.0,150,6,,6.21,30.531496,,,,,,TRUE,,,,,FEW,20000,,,,,,,VFR,,,,,,,,,,,,METAR,490.0
UIAA 210630Z 34009MPS 9999 FEW050 BKN200 M06/M17 Q1016 NOSIG RMK QFE703 29CLRD70,UIAA,2015-02-21T06:30:00Z,52.02,113.32,-6.0,-17.0,340,17,,6.21,30.0,,,,,,TRUE,,,,,FEW,5000,BKN,20000,,,,,VFR,,,,,,,,,,,,METAR,685.0
UEEE 210630Z 15001MPS CAVOK M27/M31 Q1034 NOSIG RMK QFE766 23490150,UEEE,2015-02-21T06:30:00Z,62.08,129.77,-27.0,-31.0,150,2,,6.21,30.531496,,,,,,TRUE,,,,,CAVOK,,,,,,,,VFR,,,,,,,,,,,,METAR,103.0
UWWW 210630Z 23006MPS 9999 -SN BKN028 OVC100 M04/M07 Q1015 23420545 15//99// NOSIG RMK QFE750/1000,UWWW,2015-02-21T06:30:00Z,53.5,50.17,-4.0,-7.0,230,12,,6.21,29.970472,,,,,,TRUE,,,,-SN,BKN,2800,OVC,10000,,,,,MVFR,,,,,,,,,,,,METAR,146.0
UWSS 210630Z 22005MPS CAVOK M06/M09 Q1019 30800355 NOSIG RMK QFE751,UWSS,2015-02-21T06:30:00Z,51.57,46.07,-6.0,-9.0,220,10,,6.21,30.088583,,,,,,TRUE,,,,,CAVOK,,,,,,,,VFR,,,,,,,,,,,,METAR,166.0
UWOO 210630Z 22004G08MPS 170V260 5000 DRSN OVC040 M11/M15 Q1022 26420353 NOSIG RMK QFE756/1008,UWOO,2015-02-21T06:30:00Z,51.8,55.47,-11.0,-15.0,220,8,16,3.11,30.177166,,,,,,TRUE,,,,DRSN,OVC,4000,,,,,,,MVFR,,,,,,,,,,,,METAR,109.0
UWKS 210630Z 23005MPS 2600 -SNRA BR OVC005 M01/M01 Q1008 NOSIG RMK QBB150 QFE742 24490538,UWKS,2015-02-21T06:30:00Z,56.08,47.35,-1.0,-1.0,230,10,,1.62,29.763779,,,,,,TRUE,,,,-SN -RA BR,OVC,500,,,,,,,IFR,,,,,,,,,,,,METAR,170.0
UWKD 210630Z 23004MPS 5000 BR OVC006 M02/M03 Q1010 R29/3/0035 TEMPO 2000 FZRA OVC004 RMK QFE746/0995,UWKD,2015-02-21T06:30:00Z,55.62,49.28,-2.0,-3.0,230,8,,3.11,29.822834,,,,,,,,,,BR,OVC,600,,,,,,,IFR,,,,,,,,,,,,METAR,126.0
USPP 210630Z 23009MPS 9999 DRSN BKN012 OVC070 M04/M05 Q1003 21390134 NOSIG RMK QFE742/0989,USPP,2015-02-21T06:30:00Z,57.92,56.02,-4.0,-5.0,230,17,,6.21,29.616142,,,,,,TRUE,,,,DRSN,BKN,1200,OVC,7000,,,,,MVFR,,,-39.0,,,,,,,,,METAR,123.0
USSS 210630Z 25007MPS 9999 -SHSN BKN055CB OVC067 M07/M10 Q1005 76420340 NOSIG RMK QFE733,USSS,2015-02-21T06:30:00Z,56.75,60.82,-7.0,-10.0,250,14,,6.21,29.675198,,,,,,TRUE,,,,-SHSN,BKN,5500,OVC,6700,,,,,VFR,,,,,,,,,0.0,,,METAR,233.0
USRR 210630Z 19007MPS 7000 SCT170 M11/M15 Q1006 NOSIG RMK QFE749 25////60,USRR,2015-02-21T06:30:00Z,61.33,73.42,-11.0,-15.0,190,14,,4.35,29.704725,,,,,,TRUE,,,,,SCT,17000,,,,,,,MVFR,,,,,,,,,,,,METAR,44.0
USNN 210630Z 15007G10MPS CAVOK M13/M20 Q1010 NOSIG RMK QFE752 21410265,USNN,2015-02-21T06:30:00Z,60.95,76.48,-13.0,-20.0,150,14,19,6.21,29.822834,,,,,,TRUE,,,,,CAVOK,,,,,,,,VFR,,,-41.0,,,,,,,,,METAR,54.0
USCC 210630Z 26006MPS 9999 SCT040CB BKN070 M06/M12 Q1007 27490350 TEMPO 1100 SHSN RMK QFE736,USCC,2015-02-21T06:30:00Z,55.3,61.5,-6.0,-12.0,260,12,,6.21,29.734253,,,,,,,,,,,SCT,4000,BKN,7000,,,,,VFR,,,,,,,,,,,,METAR,234.0
UWUU 210630Z 20009MPS 9999 -SN DRSN OVC016 M08/M10 Q1013 14451050 NOSIG RMK QFE749/0999 MOD ICE INC,UWUU,2015-02-21T06:30:00Z,54.57,55.87,-8.0,-10.0,200,17,,6.21,29.911417,,,,,,TRUE,,,,-SN DRSN,OVC,1600,,,,,,,MVFR,,,,,,,,,,,,METAR,137.0
UUWW 210630Z 23006MPS 4700 BR OVC006 M00/M01 Q1009 19290045 24290050 NOSIG,UUWW,2015-02-21T06:30:00Z,55.6,37.27,0.0,-1.0,230,12,,2.92,29.793306,,,,,,TRUE,,,,BR,OVC,600,,,,,,,IFR,,,,,,,,,,,,METAR,203.0
UUEE 210630Z 22007MPS 4900 BR OVC006 M00/M01 Q1009 75290145 25290145 NOSIG,UUEE,2015-02-21T06:30:00Z,55.97,37.42,0.0,-1.0,220,14,,3.04,29.793306,,,,,,TRUE,,,,BR,OVC,600,,,,,,,IFR,,,,,,,,,52.9,,,METAR,190.0
UUDL 210630Z 24004MPS 9999 OVC022 01/M03 Q1006 NOSIG RMK QFE746 23290350,UUDL,2015-02-21T06:30:00Z,57.57,40.17,1.0,-3.0,240,8,,6.21,29.704725,,,,,,TRUE,,,,,OVC,2200,,,,,,,MVFR,,,,,,,,,,,,METAR,88.0
UUDD 210630Z 24006MPS 6000 BKN007 01/M01 Q1010 32290095 82290095 NOSIG,UUDD,2015-02-21T06:30:00Z,55.4,37.9,1.0,-1.0,240,12,,3.73,29.822834,,,,,,TRUE,,,,,BKN,700,,,,,,,IFR,,,,,,,,,,,,METAR,168.0
UUBW 210630Z 25004MPS 8000 SCT010 BKN200 01/M01 Q1010 NOSIG RMK SC0.50,UUBW,2015-02-21T06:30:00Z,55.55,38.15,1.0,-1.0,250,8,,4.97,29.822834,,,,,,TRUE,,,,,SCT,1000,BKN,20000,,,,,MVFR,,,,,,,,,,,,METAR,115.0
ULLI 210630Z 22006MPS 7000 OVC010 02/M00 Q1001 88290050 NOSIG,ULLI,2015-02-21T06:30:00Z,59.8,30.27,2.0,0.0,220,12,,4.35,29.557087,,,,,,TRUE,,,,,OVC,1000,,,,,,,MVFR,,,,,,,,,,,,METAR,4.0
UWGG 210630Z 24003MPS 210V280 9999 OVC015 02/M01 Q1008 NOSIG 18290037 RMK QFE749,UWGG,2015-02-21T06:30:00Z,56.23,43.78,2.0,-1.0,240,6,,6.21,29.763779,,,,,,TRUE,,,,,OVC,1500,,,,,,,MVFR,,,,,,,,,,,,METAR,73.0
UUOB 210630Z 22006MPS 9999 OVC012 M02/M04 Q1019 29690240 NOSIG,UUOB,2015-02-21T06:30:00Z,50.65,36.58,-2.0,-4.0,220,12,,6.21,30.088583,,,,,,TRUE,,,,,OVC,1200,,,,,,,MVFR,,,,,,,,,,,,METAR,224.0
ULWC 210630Z 27004G07MPS 9999 BKN020 OVC/// 01/M04 Q1002 NOSIG RMK QFE741/0989 SC045,ULWC,2015-02-21T06:30:00Z,59.28,38.02,1.0,-4.0,270,8,14,6.21,29.586615,,,,,,TRUE,,,,,BKN,2000,,,,,,,MVFR,,,,,,,,,,,,METAR,115.0
OIAW 210630Z 23006KT 4000 HZ VV025 11/07 Q1012,OIAW,2015-02-21T06:30:00Z,31.32,48.77,11.0,7.0,230,6,,2.49,29.88189,,,,,,,,,,HZ,OVX,0,,,,,,,LIFR,,,,,,,,,,,2500,METAR,22.0
CYAT 210630Z AUTO 33004KT 9SM OVC085 M23/M26 A2986 RMK SLP112,CYAT,2015-02-21T06:30:00Z,52.93,-82.43,-23.0,-26.0,330,4,,9.0,29.861221,1011.2,,TRUE,,,,,,,,OVC,8500,,,,,,,VFR,,,,,,,,,,,,SPECI,9.0
SOCA 210630Z AUTO 08006KT 9999 FEW018/// OVC052/// 25/23 Q1011,SOCA,2015-02-21T06:30:00Z,4.82,-52.37,25.0,23.0,80,6,,6.21,29.852362,,,TRUE,,,,,,,,,,,,,,,,,,,,,,,,,,,,METAR,9.0
CYBC 210630Z AUTO 28015G25KT 9SM -SN CLR M17/M24 A3005 RMK SLP179,CYBC,2015-02-21T06:30:00Z,49.12,-68.2,-17.0,-24.0,280,15,25,9.0,30.050198,1017.9,,TRUE,,,,,,,-SN,CLR,,,,,,,,VFR,,,,,,,,,,,,SPECI,22.0
KQES 210630Z AUTO 9999 /FEW006 BKN023 06/04 A3000 RMK A02 TSNO,KQES,2015-02-21T06:30:00Z,100.65,-1000.65,6.0,4.0,,,,6.21,30.0,,,TRUE,TRUE,,,TRUE,,,,FEW,600,BKN,2300,,,,,MVFR,,,,,,,,,,,,METAR,999.0
KQEQ 210630Z AUTO 04004KT 9999 OVC017 05/03 A2987 RMK A02 TSNO,KQEQ,2015-02-21T06:30:00Z,100.65,-1000.65,5.0,3.0,40,4,,6.21,29.870079,,,TRUE,TRUE,,,TRUE,,,,OVC,1700,,,,,,,MVFR,,,,,,,,,,,,METAR,999.0
KQEP 210630Z AUTO 20002KT 9999 CLR 06/03 A2998 RMK A02 TSNO,KQEP,2015-02-21T06:30:00Z,100.65,-1000.65,6.0,3.0,200,2,,6.21,29.97933,,,TRUE,TRUE,,,TRUE,,,,CLR,,,,,,,,VFR,,,,,,,,,,,,METAR,999.0
KQEN 210630Z AUTO 0800 -RASN BR BKN002 00/M11 / RMK A02 TSNO,KQEN,2015-02-21T06:30:00Z,100.65,-1000.65,0.0,-11.0,,,,0.5,,,,TRUE,TRUE,,,TRUE,,,-RA -SN BR,BKN,200,,,,,,,LIFR,,,,,,,,,,,,METAR,999.0
KQEL 210630Z AUTO 12002KT 6000 -RA FEW004 OVC020 03/01 A3011 RMK A02 TSNO,KQEL,2015-02-21T06:30:00Z,100.65,-1000.65,3.0,1.0,120,2,,3.73,30.109253,,,TRUE,TRUE,,,TRUE,,,-RA,FEW,400,OVC,2000,,,,,MVFR,,,,,,,,,,,,METAR,999.0
KQEJ 210630Z AUTO 07001KT 6000 HZ FEW008 FEW012 OVC025 04/02 A3003 RMK A02 TSNO,KQEJ,2015-02-21T06:30:00Z,100.65,-1000.65,4.0,2.0,70,1,,3.73,30.029528,,,TRUE,TRUE,,,TRUE,,,HZ,FEW,800,FEW,1200,OVC,2500,,,MVFR,,,,,,,,,,,,METAR,999.0
KQEI 210630Z AUTO 14002KT 6000 HZ OVC014 05/02 A3006 RMK A02 TSNO,KQEI,2015-02-21T06:30:00Z,100.65,-1000.65,5.0,2.0,140,2,,3.73,30.059055,,,TRUE,TRUE,,,TRUE,,,HZ,OVC,1400,,,,,,,MVFR,,,,,,,,,,,,METAR,999.0
CYED 210630Z AUTO 08008KT 1 3/4SM -SN VV013 M08/M12 A3027,CYED,2015-02-21T06:30:00Z,53.67,-113.47,-8.0,-12.0,80,8,,1.75,30.268702,,,TRUE,,,,,,,-SN,OVX,0,,,,,,,LIFR,,,,,,,,,,,1300,SPECI,688.0
TFFF 210630Z AUTO 06008KT 9999 FEW025 25/23 Q1015,TFFF,2015-02-21T06:30:00Z,14.6,-61.0,25.0,23.0,60,8,,6.21,29.970472,,,TRUE,,,,,,,,FEW,2500,,,,,,,VFR,,,,,,,,,,,,METAR,5.0
UBBG 210630Z 28005KT 5000 BR SCT003 OVC030 01/01 Q1017 R30/290355 NOSIG,UBBG,2015-02-21T06:30:00Z,40.73,46.32,1.0,1.0,280,5,,3.11,30.029528,,,,,,TRUE,,,,BR,SCT,300,OVC,3000,,,,,MVFR,,,,,,,,,,,,SPECI,330.0
KQEV 210630Z AUTO 08002KT 4800 HZ CLR 06/04 A3001 RMK A02 TSNO,KQEV,2015-02-21T06:30:00Z,100.65,-1000.65,6.0,4.0,80,2,,2.98,30.008858,,,TRUE,TRUE,,,TRUE,,,HZ,CLR,,,,,,,,IFR,,,,,,,,,,,,METAR,999.0
LDOS 210630Z 16003KT 5000 BR NSC M01/M02 Q1014,LDOS,2015-02-21T06:30:00Z,45.47,18.82,-1.0,-2.0,160,3,,3.11,29.940945,,,,,,,,,,BR,,,,,,,,,,,,,,,,,,,,,METAR,89.0
LDZD 210630Z 12007KT CAVOK 01/01 Q1015 NOSIG,LDZD,2015-02-21T06:30:00Z,44.1,15.37,1.0,1.0,120,7,,6.21,29.970472,,,,,,TRUE,,,,,CAVOK,,,,,,,,VFR,,,,,,,,,,,,METAR,84.0
LDZA 210630Z 23003KT CAVOK 00/M03 Q1012 NOSIG,LDZA,2015-02-21T06:30:00Z,45.72,16.07,0.0,-3.0,230,3,,6.21,29.88189,,,,,,TRUE,,,,,CAVOK,,,,,,,,VFR,,,,,,,,,,,,METAR,107.0
LDDU 210630Z 08009KT 9999 FEW030 07/02 Q1017 NOSIG,LDDU,2015-02-21T06:30:00Z,42.57,18.27,7.0,2.0,80,9,,6.21,30.029528,,,,,,TRUE,,,,,FEW,3000,,,,,,,VFR,,,,,,,,,,,,METAR,165.0
LDPL 210630Z 10004KT 9999 FEW055 06/03 Q1013 NOSIG,LDPL,2015-02-21T06:30:00Z,44.88,13.92,6.0,3.0,100,4,,6.21,29.911417,,,,,,TRUE,,,,,FEW,5500,,,,,,,VFR,,,,,,,,,,,,METAR,63.0
LDSP 210630Z 36004KT 340V040 9999 SCT030 04/02 Q1017 NOSIG,LDSP,2015-02-21T06:30:00Z,43.52,16.3,4.0,2.0,360,4,,6.21,30.029528,,,,,,TRUE,,,,,SCT,3000,,,,,,,VFR,,,,,,,,,,,,METAR,21.0
ORBI 210630Z 20006KT 170V230 CAVOK 06/03 Q1010,ORBI,2015-02-21T06:30:00Z,33.27,44.23,6.0,3.0,200,6,,6.21,29.822834,,,,,,,,,,,CAVOK,,,,,,,,VFR,,,,,,,,,,,,METAR,35.0
KQEX 210630Z AUTO 28001KT 6000 HZ CLR 06/03 A3009 RMK A02 TSNO,KQEX,2015-02-21T06:30:00Z,100.65,-1000.65,6.0,3.0,280,1,,3.73,30.088583,,,TRUE,TRUE,,,TRUE,,,HZ,CLR,,,,,,,,MVFR,,,,,,,,,,,,METAR,999.0
GEML 210630Z 25003KT 190V290 9999 FEW017 FEW020TCU 11/08 Q1013,GEML,2015-02-21T06:30:00Z,35.27,-2.95,11.0,8.0,250,3,,6.21,29.911417,,,,,,,,,,,FEW,1700,FEW,2000,,,,,VFR,,,,,,,,,,,,METAR,55.0
RKSI 210630Z 12009KT 4000 -RA BR FEW012 BKN030 OVC080 06/04 Q1015 NOSIG,RKSI,2015-02-21T06:30:00Z,37.47,126.45,6.0,4.0,120,9,,2.49,29.970472,,,,,,TRUE,,,,-RA BR,FEW,1200,BKN,3000,OVC,8000,,,IFR,,,,,,,,,,,,METAR,7.0
YSCB 210630Z 09016KT 9999 VCTS FEW020 SCT050 BKN060 FEW050CB 23/17 Q1016 RETS INTER 0630/0700 VRB15G25KT 3000 TSRA BKN015 SCT040CB RMK USE TAF FOR ARRIVALS AFTER 0700Z,YSCB,2015-02-21T06:30:00Z,-35.28,149.17,23.0,17.0,90,16,,6.21,30.0,,,,,,,,,,VCTS,FEW,2000,SCT,5000,BKN,6000,FEW,5000,VFR,,,,,,,,,,,,METAR,577.0
LETL 210630Z AUTO 10005KT 9999 OVC042/// 02/00 Q1006,LETL,2015-02-21T06:30:00Z,40.42,-1.22,2.0,0.0,100,5,,6.21,29.704725,,,TRUE,,,,,,,,,,,,,,,,,,,,,,,,,,,,METAR,1013.0
LEAG 210630Z AUTO VRB03KT 9999 // NCD 12/07 Q1014,LEAG,2015-02-21T06:30:00Z,,,12.0,7.0,0,3,,6.21,29.940945,,,TRUE,,,,,,,,,,,,,,,,,,,,,,,,,,,,METAR,
LEXJ 210630Z 31018G29KT 280V350 8000 -SHRA SCT026TCU BKN040 09/06 Q1011,LEXJ,2015-02-21T06:30:00Z,43.42,-3.82,9.0,6.0,310,18,29,4.97,29.852362,,,,,,,,,,-SHRA,SCT,2600,BKN,4000,,,,,MVFR,,,,,,,,,,,,METAR,6.0
LEPP 210630Z 14001KT 6000 -RA BKN010 04/04 Q1007,LEPP,2015-02-21T06:30:00Z,42.77,-1.65,4.0,4.0,140,1,,3.73,29.734253,,,,,,,,,,-RA,BKN,1000,,,,,,,MVFR,,,,,,,,,,,,METAR,459.0
LEJR 210630Z 00000KT 9999 SCT030 BKN040 09/08 Q1014,LEJR,2015-02-21T06:30:00Z,36.75,-6.07,9.0,8.0,0,0,,6.21,29.940945,,,,,,,,,,,SCT,3000,BKN,4000,,,,,VFR,,,,,,,,,,,,METAR,30.0
GCFV 210630Z 35012KT 9999 FEW030 15/10 Q1020,GCFV,2015-02-21T06:30:00Z,28.43,-13.87,15.0,10.0,350,12,,6.21,30.11811,,,,,,,,,,,FEW,3000,,,,,,,VFR,,,,,,,,,,,,METAR,23.0
GCRR 210630Z 35013KT 9999 FEW035 15/11 Q1020,GCRR,2015-02-21T06:30:00Z,28.93,-13.58,15.0,11.0,350,13,,6.21,30.11811,,,,,,,,,,,FEW,3500,,,,,,,VFR,,,,,,,,,,,,METAR,40.0
GCTS 210630Z 30006KT 270V010 9999 FEW035 15/10 Q1022 NOSIG,GCTS,2015-02-21T06:30:00Z,28.05,-16.57,15.0,10.0,300,6,,6.21,30.177166,,,,,,TRUE,,,,,FEW,3500,,,,,,,VFR,,,,,,,,,,,,METAR,72.0
GCXO 210630Z 31018G28KT 9999 FEW007 BKN012 10/09 Q1024 NOSIG,GCXO,2015-02-21T06:30:00Z,28.48,-16.35,10.0,9.0,310,18,28,6.21,30.236221,,,,,,TRUE,,,,,FEW,700,BKN,1200,,,,,MVFR,,,,,,,,,,,,METAR,632.0
GCLP 210630Z 36018KT 9999 FEW028 SCT035 16/09 Q1022 NOSIG,GCLP,2015-02-21T06:30:00Z,27.92,-15.37,16.0,9.0,360,18,,6.21,30.177166,,,,,,TRUE,,,,,FEW,2800,SCT,3500,,,,,VFR,,,,,,,,,,,,METAR,25.0
LESA 210630Z 30009KT 9999 SCT005 BKN008 07/06 Q1011,LESA,2015-02-21T06:30:00Z,40.95,-5.5,7.0,6.0,300,9,,6.21,29.852362,,,,,,,,,,,SCT,500,BKN,800,,,,,IFR,,,,,,,,,,,,METAR,795.0
LEVS 210630Z 25012KT 6000 OVC003 05/05 Q1008,LEVS,2015-02-21T06:30:00Z,40.37,-3.77,5.0,5.0,250,12,,3.73,29.763779,,,,,,,,,,,OVC,300,,,,,,,LIFR,,,,,,,,,,,,METAR,687.0
LEVD 210630Z 30011KT 7000 BKN002 05/05 Q1009,LEVD,2015-02-21T06:30:00Z,41.72,-4.83,5.0,5.0,300,11,,4.35,29.793306,,,,,,,,,,,BKN,200,,,,,,,LIFR,,,,,,,,,,,,METAR,854.0
LFRK 210630Z AUTO 26008KT 9999 FEW020/// SCT049/// ///TCU 03/02 Q1001,LFRK,2015-02-21T06:30:00Z,49.17,-0.45,3.0,2.0,260,8,,6.21,29.557087,,,TRUE,,,,,,,,,,,,,,,,,,,,,,,,,,,,SPECI,67.0
LFRG 210630Z AUTO 26006KT 9000 -RA BKN004/// BKN009/// BKN014/// ///TCU 02/02 Q1000,LFRG,2015-02-21T06:30:00Z,49.37,0.15,2.0,2.0,260,6,,5.59,29.52756,,,TRUE,,,,,,,-RA,,,,,,,,,,,,,,,,,,,,,METAR,146.0
LFRC 210630Z AUTO 30012KT 270V340 9999 -RA BKN020 BKN025 BKN032 04/02 Q1001,LFRC,2015-02-21T06:30:00Z,49.63,-1.47,4.0,2.0,300,12,,6.21,29.557087,,,TRUE,,,,,,,-RA,BKN,2000,BKN,2500,BKN,3200,,,MVFR,,,,,,,,,,,,METAR,138.0
LFPN 210630Z AUTO 21004KT 9999 NSC 01/00 Q1001,LFPN,2015-02-21T06:30:00Z,48.75,2.12,1.0,0.0,210,4,,6.21,29.557087,,,TRUE,,,,,,,,,,,,,,,,,,,,,,,,,,,,SPECI,164.0
LFOT 210630Z AUTO 23006KT 4200 -RA BR SCT003 BKN024 BKN032 03/02 Q1003,LFOT,2015-02-21T06:30:00Z,47.43,0.72,3.0,2.0,230,6,,2.61,29.616142,,,TRUE,,,,,,,-RA BR,SCT,300,BKN,2400,BKN,3200,,,IFR,,,,,,,,,,,,METAR,108.0
LFMD 210630Z AUTO VRB02KT 6000 -RA BKN025 BKN033 OVC040 07/06 Q1010,LFMD,2015-02-21T06:30:00Z,43.53,6.95,7.0,6.0,0,2,,3.73,29.822834,,,TRUE,,,,,,,-RA,BKN,2500,BKN,3300,OVC,4000,,,MVFR,,,,,,,,,,,,METAR,9.0
LFJR 210630Z AUTO 24006KT 9999 OVC016 04/03 Q1003,LFJR,2015-02-21T06:30:00Z,47.57,-0.3,4.0,3.0,240,6,,6.21,29.616142,,,TRUE,,,,,,,,OVC,1600,,,,,,,MVFR,,,,,,,,,,,,METAR,60.0
LFGJ 210630Z AUTO 23008KT 9999 -RA BKN020 OVC027 04/03 Q1002,LFGJ,2015-02-21T06:30:00Z,47.05,5.43,4.0,3.0,230,8,,6.21,29.586615,,,TRUE,,,,,,,-RA,BKN,2000,OVC,2700,,,,,MVFR,,,,,,,,,,,,METAR,196.0
LFBE 210630Z AUTO 27006KT 9999 FEW007 SCT018 BKN023 06/05 Q1005,LFBE,2015-02-21T06:30:00Z,44.82,0.52,6.0,5.0,270,6,,6.21,29.675198,,,TRUE,,,,,,,,FEW,700,SCT,1800,BKN,2300,,,MVFR,,,,,,,,,,,,METAR,52.0
LFBA 210630Z AUTO 27003KT 9999 FEW041 SCT064 BKN076 07/06 Q1005,LFBA,2015-02-21T06:30:00Z,44.17,0.6,7.0,6.0,270,3,,6.21,29.675198,,,TRUE,,,,,,,,FEW,4100,SCT,6400,BKN,7600,,,VFR,,,,,,,,,,,,METAR,60.0
LFML 210630Z 15018KT 9999 FEW023TCU BKN040 BKN066 12/07 Q1006 TEMPO -RA,LFML,2015-02-21T06:30:00Z,43.45,5.22,12.0,7.0,150,18,,6.21,29.704725,,,,,,,,,,,FEW,2300,BKN,4000,BKN,6600,,,VFR,,,,,,,,,,,,METAR,36.0
LFLX 210630Z 26005KT 8000 BKN003 03/03 Q1004 NOSIG,LFLX,2015-02-21T06:30:00Z,46.85,1.72,3.0,3.0,260,5,,4.97,29.64567,,,,,,TRUE,,,,,BKN,300,,,,,,,LIFR,,,,,,,,,,,,METAR,157.0
LFLB 210630Z VRB02KT 9999 SCT060 OVC090 06/M01 Q1002 NOSIG,LFLB,2015-02-21T06:30:00Z,45.63,5.87,6.0,-1.0,0,2,,6.21,29.586615,,,,,,TRUE,,,,,SCT,6000,OVC,9000,,,,,VFR,,,,,,,,,,,,METAR,239.0
LFCK 210630Z AUTO 00000KT 1000 R14/P2000 RA BR OVC006/// ///CB 06/05 Q1006,LFCK,2015-02-21T06:30:00Z,43.55,2.28,6.0,5.0,0,0,,0.62,29.704725,,,TRUE,,,,,,,RA BR,,,,,,,,,,,,,,,,,,,,,METAR,240.0
LFBZ 210630Z AUTO 35012KT 9999 FEW009/// BKN015/// BKN025/// ///CB 09/06 Q1008,LFBZ,2015-02-21T06:30:00Z,43.47,-1.52,9.0,6.0,350,12,,6.21,29.763779,,,TRUE,,,,,,,,,,,,,,,,,,,,,,,,,,,,METAR,71.0
LFBT 210630Z AUTO 28005KT 6000 -RA FEW009/// BKN025/// BKN031/// ///TCU 06/05 Q1006,LFBT,2015-02-21T06:30:00Z,43.17,0.0,6.0,5.0,280,5,,3.73,29.704725,,,TRUE,,,,,,,-RA,,,,,,,,,,,,,,,,,,,,,METAR,363.0
LFBP 210630Z AUTO 27010KT 9999 -RA SCT008/// SCT012/// BKN030/// ///CB 07/06 Q1006,LFBP,2015-02-21T06:30:00Z,43.37,-0.42,7.0,6.0,270,10,,6.21,29.704725,,,TRUE,,,,,,,-RA,,,,,,,,,,,,,,,,,,,,,METAR,185.0
LFBO 210630Z AUTO 29010KT 260V320 6000 RA FEW008/// BKN015/// BKN024/// ///TCU 07/06 Q1005,LFBO,2015-02-21T06:30:00Z,43.62,1.37,7.0,6.0,290,10,,3.73,29.675198,,,TRUE,,,,,,,RA,,,,,,,,,,,,,,,,,,,,,METAR,153.0
LFBL 210630Z AUTO 32003KT 300V360 9999 OVC006 01/00 Q1004,LFBL,2015-02-21T06:30:00Z,45.87,1.17,1.0,0.0,320,3,,6.21,29.64567,,,TRUE,,,,,,,,OVC,600,,,,,,,IFR,,,,,,,,,,,,METAR,402.0
LFBI 210630Z AUTO 24004KT 9000 ///CB 01/01 Q1004,LFBI,2015-02-21T06:30:00Z,46.57,0.32,1.0,1.0,240,4,,5.59,29.64567,,,TRUE,,,,,,,,,,,,,,,,,,,,,,,,,,,,METAR,120.0
LFBH 210630Z AUTO 33004KT 9999 FEW036 BKN120 OVC170 04/03 Q1005,LFBH,2015-02-21T06:30:00Z,46.18,-1.2,4.0,3.0,330,4,,6.21,29.675198,,,TRUE,,,,,,,,FEW,3600,BKN,12000,OVC,17000,,,VFR,,,,,,,,,,,,METAR,10.0
LFBD 210630Z AUTO 27005KT 9000 0800 R23/P2000 R05/P2000 R29/P2000 BCFG FEW004 05/04 Q1006,LFBD,2015-02-21T06:30:00Z,44.82,-0.7,5.0,4.0,270,5,,5.59,29.704725,,,TRUE,,,,,,,BCFG,FEW,400,,,,,,,VFR,,,,,,,,,,,,METAR,61.0
LFYR 210630Z AUTO 21001KT 0200 FZFG NSC M01/M01 Q1003,LFYR,2015-02-21T06:30:00Z,47.32,1.67,-1.0,-1.0,210,1,,0.12,29.616142,,,TRUE,,,,,,,FZFG,,,,,,,,,,,,,,,,,,,,,METAR,86.0
LFSX 210630Z AUTO 25009KT 9999 -RA BKN014 BKN019 OVC031 05/03 Q1001,LFSX,2015-02-21T06:30:00Z,47.77,6.33,5.0,3.0,250,9,,6.21,29.557087,,,TRUE,,,,,,,-RA,BKN,1400,BKN,1900,OVC,3100,,,MVFR,,,,,,,,,,,,METAR,273.0
LFSO 210630Z AUTO 24013KT 6000 OVC010 03/03 Q0999,LFSO,2015-02-21T06:30:00Z,48.57,5.97,3.0,3.0,240,13,,3.73,29.498032,,,TRUE,,,,,,,,OVC,1000,,,,,,,MVFR,,,,,,,,,,,,METAR,350.0
LFSI 210630Z AUTO 27008KT //// R29///// // FEW014 BKN023 BKN030 04/02 Q1001,LFSI,2015-02-21T06:30:00Z,48.62,4.9,4.0,2.0,270,8,,,29.557087,,,TRUE,,,,,,,,FEW,1400,BKN,2300,BKN,3000,,,,,,,,,,,,,,,METAR,140.0
LFTW 210630Z AUTO 18013KT 9999 BKN016/// BKN023/// BKN036/// ///TCU 11/08 Q1004,LFTW,2015-02-21T06:30:00Z,43.75,4.42,11.0,8.0,180,13,,6.21,29.64567,,,TRUE,,,,,,,,,,,,,,,,,,,,,,,,,,,,METAR,96.0
LFSD 210630Z AUTO 21006KT 9999 BKN020 BKN039 BKN045 04/03 Q1002,LFSD,2015-02-21T06:30:00Z,47.27,5.07,4.0,3.0,210,6,,6.21,29.586615,,,TRUE,,,,,,,,BKN,2000,BKN,3900,BKN,4500,,,MVFR,,,,,,,,,,,,METAR,227.0
LFRQ 210630Z AUTO 32010KT 9999 NSC 04/02 Q1006,LFRQ,2015-02-21T06:30:00Z,47.97,-4.17,4.0,2.0,320,10,,6.21,29.704725,,,TRUE,,,,,,,,,,,,,,,,,,,,,,,,,,,,SPECI,94.0
LFRH 210630Z AUTO 30007KT 9999 NSC 03/02 Q1005,LFRH,2015-02-21T06:30:00Z,47.77,-3.45,3.0,2.0,300,7,,6.21,29.675198,,,TRUE,,,,,,,,,,,,,,,,,,,,,,,,,,,,SPECI,44.0
LFPT 210630Z AUTO 24005KT 9999 NSC 01/00 Q1001,LFPT,2015-02-21T06:30:00Z,49.1,2.03,1.0,0.0,240,5,,6.21,29.557087,,,TRUE,,,,,,,,,,,,,,,,,,,,,,,,,,,,METAR,99.0
LFPM 210630Z AUTO 21007KT 5000 BR FEW047 01/01 Q1002,LFPM,2015-02-21T06:30:00Z,48.62,2.67,1.0,1.0,210,7,,3.11,29.586615,,,TRUE,,,,,,,BR,FEW,4700,,,,,,,MVFR,,,,,,,,,,,,METAR,92.0
LFLN 210630Z AUTO 00000KT 9999 -RA FEW010 BKN022 OVC062 03/03 Q1003,LFLN,2015-02-21T06:30:00Z,46.42,4.02,3.0,3.0,0,0,,6.21,29.616142,,,TRUE,,,,,,,-RA,FEW,1000,BKN,2200,OVC,6200,,,MVFR,,,,,,,,,,,,METAR,244.0
LFGA 210630Z AUTO 17010KT 9999 -RA BKN036 OVC045 06/04 Q1000,LFGA,2015-02-21T06:30:00Z,48.1,7.35,6.0,4.0,170,10,,6.21,29.52756,,,TRUE,,,,,,,-RA,BKN,3600,OVC,4500,,,,,VFR,,,,,,,,,,,,METAR,191.0
LFBU 210630Z AUTO 00000KT 0100 R28/0650D FG VV/// 01/00 Q1005,LFBU,2015-02-21T06:30:00Z,45.72,0.22,1.0,0.0,0,0,,0.06,29.675198,,,TRUE,,,,,,,FG,OVX,0,,,,,,,LIFR,,,,,,,,,,,,METAR,133.0
LFAT 210630Z AUTO 10003KT 7000 BKN038/// BKN110/// ///TCU 02/01 Q0999,LFAT,2015-02-21T06:30:00Z,50.52,1.62,2.0,1.0,100,3,,4.35,29.498032,,,TRUE,,,,,,,,,,,,,,,,,,,,,,,,,,,,METAR,14.0
LFAQ 210630Z AUTO 20004KT 3700 BR NSC 01/01 Q0999,LFAQ,2015-02-21T06:30:00Z,49.97,2.7,1.0,1.0,200,4,,2.3,29.498032,,,TRUE,,,,,,,BR,,,,,,,,,,,,,,,,,,,,,METAR,111.0
LFSN 210630Z AUTO 25008KT 210V300 9999 OVC014 05/02 Q1000,LFSN,2015-02-21T06:30:00Z,48.67,6.22,5.0,2.0,250,8,,6.21,29.52756,,,TRUE,,,,,,,,OVC,1400,,,,,,,MVFR,,,,,,,,,,,,METAR,217.0
LFQB 210630Z AUTO 25009KT 9000 FEW029 SCT048 BKN054 04/02 Q1002,LFQB,2015-02-21T06:30:00Z,48.32,4.02,4.0,2.0,250,9,,5.59,29.586615,,,TRUE,,,,,,,,FEW,2900,SCT,4800,BKN,5400,,,VFR,,,,,,,,,,,,METAR,118.0
LFQA 210630Z AUTO 27004KT 9999 FEW017 SCT130 03/01 Q1000,LFQA,2015-02-21T06:30:00Z,49.2,4.15,3.0,1.0,270,4,,6.21,29.52756,,,TRUE,,,,,,,,FEW,1700,SCT,13000,,,,,VFR,,,,,,,,,,,,METAR,95.0
LFPB 210630Z AUTO 24003KT 9999 NSC 02/01 Q1001,LFPB,2015-02-21T06:30:00Z,48.97,2.45,2.0,1.0,240,3,,6.21,29.557087,,,TRUE,,,,,,,,,,,,,,,,,,,,,,,,,,,,METAR,65.0
LFOP 210630Z AUTO 25006KT 220V280 9999 OVC007 02/01 Q1000,LFOP,2015-02-21T06:30:00Z,49.37,1.17,2.0,1.0,250,6,,6.21,29.52756,,,TRUE,,,,,,,,OVC,700,,,,,,,IFR,,,,,,,,,,,,METAR,157.0
LFOK 210630Z AUTO 25008KT 6000 FEW015 SCT023 02/01 Q1001,LFOK,2015-02-21T06:30:00Z,48.78,4.18,2.0,1.0,250,8,,3.73,29.557087,,,TRUE,,,,,,,,FEW,1500,SCT,2300,,,,,MVFR,,,,,,,,,,,,METAR,162.0
LFOH 210630Z AUTO 23010KT 9999 BKN007/// OVC017/// ///TCU 03/02 Q1000,LFOH,2015-02-21T06:30:00Z,49.52,0.07,3.0,2.0,230,10,,6.21,29.52756,,,TRUE,,,,,,,,,,,,,,,,,,,,,,,,,,,,METAR,103.0
LFOB 210630Z AUTO 24009KT 9999 BKN029 02/01 Q1000,LFOB,2015-02-21T06:30:00Z,49.47,2.12,2.0,1.0,240,9,,6.21,29.52756,,,TRUE,,,,,,,,BKN,2900,,,,,,,MVFR,,,,,,,,,,,,METAR,111.0
LFMU 210630Z AUTO 33006KT 9999 ///TCU 08/06 Q1003,LFMU,2015-02-21T06:30:00Z,43.32,3.35,8.0,6.0,330,6,,6.21,29.616142,,,TRUE,,,,,,,,,,,,,,,,,,,,,,,,,,,,METAR,17.0
LFMT 210630Z 19016KT 9999 OVC024 12/07 Q1003 NOSIG,LFMT,2015-02-21T06:30:00Z,43.57,3.97,12.0,7.0,190,16,,6.21,29.616142,,,,,,TRUE,,,,,OVC,2400,,,,,,,MVFR,,,,,,,,,,,,METAR,6.0
LFLY 210630Z AUTO 21011KT 9999 -RA BKN016/// BKN022/// BKN029/// ///TCU 08/05 Q1002,LFLY,2015-02-21T06:30:00Z,45.72,4.95,8.0,5.0,210,11,,6.21,29.586615,,,TRUE,,,,,,,-RA,,,,,,,,,,,,,,,,,,,,,METAR,201.0
LFLU 210630Z AUTO 18016KT 9999 -RA FEW013 BKN036 BKN050 08/05 Q1002,LFLU,2015-02-21T06:30:00Z,44.92,4.98,8.0,5.0,180,16,,6.21,29.586615,,,TRUE,,,,,,,-RA,FEW,1300,BKN,3600,BKN,5000,,,VFR,,,,,,,,,,,,METAR,160.0
LFLS 210630Z AUTO 20010KT 170V230 9999 -RA BKN042 BKN050 BKN078 07/03 Q1002,LFLS,2015-02-21T06:30:00Z,45.37,5.32,7.0,3.0,200,10,,6.21,29.586615,,,TRUE,,,,,,,-RA,BKN,4200,BKN,5000,BKN,7800,,,VFR,,,,,,,,,,,,METAR,386.0
LFLP 210630Z AUTO VRB02KT 9999 BKN060 BKN078 OVC088 06/M02 Q1002,LFLP,2015-02-21T06:30:00Z,45.92,6.08,6.0,-2.0,0,2,,6.21,29.586615,,,TRUE,,,,,,,,BKN,6000,BKN,7800,OVC,8800,,,VFR,,,,,,,,,,,,METAR,463.0
LFJL 210630Z AUTO 26014KT 9999 BKN013 BKN019 OVC028 04/02 Q0999,LFJL,2015-02-21T06:30:00Z,48.97,6.25,4.0,2.0,260,14,,6.21,29.498032,,,TRUE,,,,,,,,BKN,1300,BKN,1900,OVC,2800,,,MVFR,,,,,,,,,,,,METAR,264.0
LFCR 210630Z AUTO 26007KT 7000 RA OVC011/// ///TCU 03/02 Q1003,LFCR,2015-02-21T06:30:00Z,44.38,2.47,3.0,2.0,260,7,,4.35,29.616142,,,TRUE,,,,,,,RA,,,,,,,,,,,,,,,,,,,,,METAR,580.0
LFRB 210630Z 30008KT 9999 SCT020TCU 04/02 Q1005 TEMPO 5000 SHRA,LFRB,2015-02-21T06:30:00Z,48.45,-4.42,4.0,2.0,300,8,,6.21,29.675198,,,,,,,,,,,SCT,2000,,,,,,,VFR,,,,,,,,,,,,METAR,103.0
LFQQ 210630Z 23004KT 6000 NSC 02/02 Q0998 NOSIG,LFQQ,2015-02-21T06:30:00Z,50.57,3.1,2.0,2.0,230,4,,3.73,29.468504,,,,,,TRUE,,,,,,,,,,,,,,,,,,,,,,,,,METAR,52.0
LFPO 210630Z 24004KT 9999 FEW046 SCT130 01/01 Q1001 NOSIG,LFPO,2015-02-21T06:30:00Z,48.72,2.38,1.0,1.0,240,4,,6.21,29.557087,,,,,,TRUE,,,,,FEW,4600,SCT,13000,,,,,VFR,,,,,,,,,,,,METAR,96.0
LFPG 210630Z 22008KT 9999 FEW023 02/01 Q1001 NOSIG,LFPG,2015-02-21T06:30:00Z,49.02,2.52,2.0,1.0,220,8,,6.21,29.557087,,,,,,TRUE,,,,,FEW,2300,,,,,,,VFR,,,,,,,,,,,,METAR,109.0
LFMN 210630Z 01007KT 9999 -RA BKN030 SCT066 08/05 Q1010 TEMPO 5000 SHRA,LFMN,2015-02-21T06:30:00Z,43.63,7.2,8.0,5.0,10,7,,6.21,29.822834,,,,,,,,,,-RA,BKN,3000,SCT,6600,,,,,MVFR,,,,,,,,,,,,METAR,10.0
LFLL 210630Z 18011KT 9000 -RA BKN026 BKN046 07/05 Q1002 NOSIG,LFLL,2015-02-21T06:30:00Z,45.72,5.07,7.0,5.0,180,11,,5.59,29.586615,,,,,,TRUE,,,,-RA,BKN,2600,BKN,4600,,,,,MVFR,,,,,,,,,,,,METAR,240.0
LRTM 210630Z 00000KT 1800 R07/1900U BR SCT008 M02/M03 Q1016,LRTM,2015-02-21T06:30:00Z,46.47,24.42,-2.0,-3.0,0,0,,1.12,30.0,,,,,,,,,,BR,SCT,800,,,,,,,IFR,,,,,,,,,,,,METAR,309.0
LRSM 210630Z 11003KT 6000 NSC 00/M02 Q1014,LRSM,2015-02-21T06:30:00Z,47.7,22.88,0.0,-2.0,110,3,,3.73,29.940945,,,,,,,,,,,,,,,,,,,,,,,,,,,,,,,METAR,124.0
LROD 210630Z 11005KT CAVOK M02/M04 Q1015,LROD,2015-02-21T06:30:00Z,47.03,21.92,-2.0,-4.0,110,5,,6.21,29.970472,,,,,,,,,,,CAVOK,,,,,,,,VFR,,,,,,,,,,,,METAR,140.0
LRCL 210630Z 07006KT 030V090 CAVOK 01/M02 Q1015,LRCL,2015-02-21T06:30:00Z,46.78,23.68,1.0,-2.0,70,6,,6.21,29.970472,,,,,,,,,,,CAVOK,,,,,,,,VFR,,,,,,,,,,,,METAR,413.0
LRBM 210630Z 07007KT CAVOK 03/M02 Q1015,LRBM,2015-02-21T06:30:00Z,47.67,23.47,3.0,-2.0,70,7,,6.21,29.970472,,,,,,,,,,,CAVOK,,,,,,,,VFR,,,,,,,,,,,,METAR,185.0
LRAR 210630Z 14008KT 7000 NSC 01/M02 Q1014,LRAR,2015-02-21T06:30:00Z,46.18,21.27,1.0,-2.0,140,8,,4.35,29.940945,,,,,,,,,,,,,,,,,,,,,,,,,,,,,,,METAR,118.0
LFSL 210630Z AUTO 00000KT 9999 BKN018 BKN028 OVC034 04/03 Q1004,LFSL,2015-02-21T06:30:00Z,45.03,1.48,4.0,3.0,0,0,,6.21,29.64567,,,TRUE,,,,,,,,BKN,1800,BKN,2800,OVC,3400,,,MVFR,,,,,,,,,,,,METAR,310.0
LFMV 210630Z AUTO 14012KT 9999 BKN023/// BKN040/// BKN047/// ///CB 10/08 Q1005,LFMV,2015-02-21T06:30:00Z,43.9,4.9,10.0,8.0,140,12,,6.21,29.675198,,,TRUE,,,,,,,,,,,,,,,,,,,,,,,,,,,,METAR,38.0
LFMP 210630Z AUTO 30008KT 9000 FEW100 BKN120 OVC190 08/05 Q1004,LFMP,2015-02-21T06:30:00Z,42.72,2.87,8.0,5.0,300,8,,5.59,29.64567,,,TRUE,,,,,,,,FEW,10000,BKN,12000,OVC,19000,,,VFR,,,,,,,,,,,,METAR,48.0
LFLC 210630Z 16006KT 9999 -RA BKN026 BKN040 05/01 Q1003 NOSIG,LFLC,2015-02-21T06:30:00Z,45.77,3.17,5.0,1.0,160,6,,6.21,29.616142,,,,,,TRUE,,,,-RA,BKN,2600,BKN,4000,,,,,MVFR,,,,,,,,,,,,METAR,330.0
LFKJ 210630Z 04006KT 9999 SCT072 06/03 Q1011 NOSIG,LFKJ,2015-02-21T06:30:00Z,41.92,8.8,6.0,3.0,40,6,,6.21,29.852362,,,,,,TRUE,,,,,SCT,7200,,,,,,,VFR,,,,,,,,,,,,METAR,9.0
LFKF 210630Z AUTO 06005KT 030V100 9999 BKN070/// 08/05 Q1012,LFKF,2015-02-21T06:30:00Z,41.5,9.08,8.0,5.0,60,5,,6.21,29.88189,,,TRUE,,,,,,,,,,,,,,,,,,,,,,,,,,,,METAR,23.0
LFKC 210630Z 19006KT 9999 FEW083 05/01 Q1010 NOSIG,LFKC,2015-02-21T06:30:00Z,42.52,8.8,5.0,1.0,190,6,,6.21,29.822834,,,,,,TRUE,,,,,FEW,8300,,,,,,,VFR,,,,,,,,,,,,METAR,58.0
LFKB 210630Z 23004KT 180V270 9999 FEW030 04/01 Q1011 NOSIG,LFKB,2015-02-21T06:30:00Z,42.53,9.47,4.0,1.0,230,4,,6.21,29.852362,,,,,,TRUE,,,,,FEW,3000,,,,,,,VFR,,,,,,,,,,,,METAR,12.0
LRBS 210630Z 02003KT 350V050 5000 BR NSC 03/01 Q1019 NOSIG,LRBS,2015-02-21T06:30:00Z,44.5,26.08,3.0,1.0,20,3,,3.11,30.088583,,,,,,TRUE,,,,BR,,,,,,,,,,,,,,,,,,,,,METAR,91.0
LRTR 210630Z 10005KT 6000 NSC M00/M01 Q1014,LRTR,2015-02-21T06:30:00Z,45.82,21.33,0.0,-1.0,100,5,,3.73,29.940945,,,,,,,,,,,,,,,,,,,,,,,,,,,,,,,METAR,88.0
LRSB 210630Z 26004KT 8000 NSC M01/M02 Q1015,LRSB,2015-02-21T06:30:00Z,45.78,24.08,-1.0,-2.0,260,4,,4.97,29.970472,,,,,,,,,,,,,,,,,,,,,,,,,,,,,,,METAR,444.0
LROP 210630Z 06004KT 5000 BR NSC 02/01 Q1019 NOSIG,LROP,2015-02-21T06:30:00Z,44.57,26.1,2.0,1.0,60,4,,3.11,30.088583,,,,,,TRUE,,,,BR,,,,,,,,,,,,,,,,,,,,,METAR,95.0
LRCK 210630Z 16002KT 120V180 0600 R36/0800U FZFG SCT000 M01/M01 Q1021 BECMG 1500 BR,LRCK,2015-02-21T06:30:00Z,44.37,28.48,-1.0,-1.0,160,2,,0.37,30.147638,,,,,,,,,,FZFG,SCT,0,,,,,,,LIFR,,,,,,,,,,,,METAR,108.0
LRTC 210630Z 15005KT CAVOK 02/01 Q1021 R16/19//95,LRTC,2015-02-21T06:30:00Z,45.07,28.72,2.0,1.0,150,5,,6.21,30.147638,,,,,,,,,,,CAVOK,,,,,,,,VFR,,,,,,,,,,,,METAR,6.0
LRSV 210630Z 18007KT 0300 R34/0200N FZFG SCT002 BKN004 M00/M00 Q1014,LRSV,2015-02-21T06:30:00Z,47.68,26.35,0.0,0.0,180,7,,0.19,29.940945,,,,,,,,,,FZFG,SCT,200,BKN,400,,,,,LIFR,,,,,,,,,,,,METAR,351.0
LRIA 210630Z 16011KT 9000 BKN011 02/00 Q1017 R14/19//95,LRIA,2015-02-21T06:30:00Z,47.17,27.62,2.0,0.0,160,11,,5.59,30.029528,,,,,,,,,,,BKN,1100,,,,,,,MVFR,,,,,,,,,,,,METAR,104.0
LRCV 210630Z 02006KT 5000 BR NSC 00/M02 Q1018,LRCV,2015-02-21T06:30:00Z,44.32,23.88,0.0,-2.0,20,6,,3.11,30.059055,,,,,,,,,,BR,,,,,,,,,,,,,,,,,,,,,METAR,191.0
LRBC 210630Z AUTO 17015KT 2800NDV BR BKN003/// OVC005/// 02/02 Q1017,LRBC,2015-02-21T06:30:00Z,46.52,26.92,2.0,2.0,170,15,,,30.029528,,,TRUE,,,,,,,BR,,,,,,,,,,,,,,,,,,,,,METAR,185.0
LFTH 210630Z AUTO 17007KT 9999 FEW028/// BKN052/// BKN062/// ///TCU 12/08 Q1008,LFTH,2015-02-21T06:30:00Z,43.1,6.15,12.0,8.0,170,7,,6.21,29.763779,,,TRUE,,,,,,,,,,,,,,,,,,,,,,,,,,,,METAR,4.0
LFST 210630Z AUTO 19013G24KT 9999 -RA BKN038 BKN046 OVC060 06/04 Q1000,LFST,2015-02-21T06:30:00Z,48.53,7.62,6.0,4.0,190,13,24,6.21,29.52756,,,TRUE,,,,,,,-RA,BKN,3800,BKN,4600,OVC,6000,,,VFR,,,,,,,,,,,,METAR,154.0
LFSG 210630Z AUTO 23012KT 9999 OVC016 04/02 Q1000,LFSG,2015-02-21T06:30:00Z,48.33,6.07,4.0,2.0,230,12,,6.21,29.52756,,,TRUE,,,,,,,,OVC,1600,,,,,,,MVFR,,,,,,,,,,,,METAR,330.0
LFSB 210630Z 19005KT 150V230 9999 FEW026 SCT036 BKN053 08/00 Q1001 NOSIG,LFSB,2015-02-21T06:30:00Z,47.6,7.52,8.0,0.0,190,5,,6.21,29.557087,,,,,,TRUE,,,,,FEW,2600,SCT,3600,BKN,5300,,,VFR,,,,,,,,,,,,METAR,271.0
LFRZ 210630Z AUTO 30008KT 9999 NSC 04/02 Q1004,LFRZ,2015-02-21T06:30:00Z,47.32,-2.17,4.0,2.0,300,8,,6.21,29.64567,,,TRUE,,,,,,,,,,,,,,,,,,,,,,,,,,,,METAR,4.0
LFRV 210630Z AUTO 31006KT 9999 NSC 02/02 Q1004,LFRV,2015-02-21T06:30:00Z,47.72,-2.72,2.0,2.0,310,6,,6.21,29.64567,,,TRUE,,,,,,,,,,,,,,,,,,,,,,,,,,,,METAR,133.0
LFRO 210630Z AUTO 32014KT 9999 BKN032/// BKN041/// BKN047/// ///TCU 05/01 Q1004,LFRO,2015-02-21T06:30:00Z,48.75,-3.47,5.0,1.0,320,14,,6.21,29.64567,,,TRUE,,,,,,,,,,,,,,,,,,,,,,,,,,,,METAR,89.0
LFRN 210630Z AUTO 27007KT 9999 NSC 03/02 Q1003,LFRN,2015-02-21T06:30:00Z,48.07,-1.72,3.0,2.0,270,7,,6.21,29.616142,,,TRUE,,,,,,,,,,,,,,,,,,,,,,,,,,,,METAR,37.0
LFRM 210630Z AUTO 23003KT 200V260 9000 BKN004 OVC017 03/03 Q1002,LFRM,2015-02-21T06:30:00Z,47.95,0.2,3.0,3.0,230,3,,5.59,29.586615,,,TRUE,,,,,,,,BKN,400,OVC,1700,,,,,LIFR,,,,,,,,,,,,METAR,52.0
LFRI 210630Z AUTO 18005KT 9999 FEW017 BKN140 02/01 Q1004,LFRI,2015-02-21T06:30:00Z,46.7,-1.37,2.0,1.0,180,5,,6.21,29.64567,,,TRUE,,,,,,,,FEW,1700,BKN,14000,,,,,VFR,,,,,,,,,,,,METAR,91.0
LFRD 210630Z AUTO 31007KT 9999 FEW033 SCT049 BKN120 05/02 Q1002,LFRD,2015-02-21T06:30:00Z,48.58,-2.07,5.0,2.0,310,7,,6.21,29.586615,,,TRUE,,,,,,,,FEW,3300,SCT,4900,BKN,12000,,,VFR,,,,,,,,,,,,METAR,59.0
LFOV 210630Z AUTO 28004KT 230V320 9999 BKN006 BKN011 OVC018 04/03 Q1002,LFOV,2015-02-21T06:30:00Z,48.03,-0.75,4.0,3.0,280,4,,6.21,29.586615,,,TRUE,,,,,,,,BKN,600,BKN,1100,OVC,1800,,,IFR,,,,,,,,,,,,METAR,101.0
LFMK 210630Z AUTO 26007KT 190V300 4700 -RA BR SCT039 OVC049 07/05 Q1004,LFMK,2015-02-21T06:30:00Z,43.22,2.32,7.0,5.0,260,7,,2.92,29.64567,,,TRUE,,,,,,,-RA BR,SCT,3900,OVC,4900,,,,,IFR,,,,,,,,,,,,METAR,130.0
LFMI 210630Z AUTO 17020KT 9999 FEW020/// BKN025/// BKN030/// ///TCU 12/09 Q1005,LFMI,2015-02-21T06:30:00Z,43.52,4.92,12.0,9.0,170,20,,6.21,29.675198,,,TRUE,,,,,,,,,,,,,,,,,,,,,,,,,,,,METAR,24.0
LFMY 210630Z AUTO 16012KT 9999 FEW028/// SCT052/// BKN066/// ///CB 11/08 Q1006,LFMY,2015-02-21T06:30:00Z,43.6,5.08,11.0,8.0,160,12,,6.21,29.704725,,,TRUE,,,,,,,,,,,,,,,,,,,,,,,,,,,,METAR,60.0
LFMO 210630Z AUTO 13013KT 9999 -RA BKN015/// BKN020/// BKN027/// ///CB 08/07 Q1004,LFMO,2015-02-21T06:30:00Z,44.12,4.87,8.0,7.0,130,13,,6.21,29.64567,,,TRUE,,,,,,,-RA,,,,,,,,,,,,,,,,,,,,,METAR,55.0
LFMC 210630Z AUTO 05004KT 030V090 9999 -DZ SCT017 BKN028 BKN052 07/06 Q1009,LFMC,2015-02-21T06:30:00Z,43.37,6.37,7.0,6.0,50,4,,6.21,29.793306,,,TRUE,,,,,,,-DZ,SCT,1700,BKN,2800,BKN,5200,,,MVFR,,,,,,,,,,,,METAR,78.0
LFKS 210630Z AUTO 27005KT 9999 OVC074 07/03 Q1012,LFKS,2015-02-21T06:30:00Z,41.92,9.4,7.0,3.0,270,5,,6.21,29.88189,,,TRUE,,,,,,,,OVC,7400,,,,,,,VFR,,,,,,,,,,,,METAR,22.0
LFBM 210630Z AUTO 32004KT 9999 BKN036 BKN045 OVC058 07/06 Q1007,LFBM,2015-02-21T06:30:00Z,43.92,-0.5,7.0,6.0,320,4,,6.21,29.734253,,,TRUE,,,,,,,,BKN,3600,BKN,4500,OVC,5800,,,VFR,,,,,,,,,,,,METAR,63.0
LFBG 210630Z AUTO VRB01KT 0200 R23/0700D FG VV/// 03/02 Q1005,LFBG,2015-02-21T06:30:00Z,45.67,-0.32,3.0,2.0,0,1,,0.12,29.675198,,,TRUE,,,,,,,FG,OVX,0,,,,,,,LIFR,,,,,,,,,,,,METAR,31.0
LFBC 210630Z AUTO 24003KT 9999 FEW032 06/05 Q1007,LFBC,2015-02-21T06:30:00Z,44.52,-1.12,6.0,5.0,240,3,,6.21,29.734253,,,TRUE,,,,,,,,FEW,3200,,,,,,,VFR,,,,,,,,,,,,METAR,33.0
LJCE 210630Z 29003KT 260V330 CAVOK M02/M05 Q1011 RMK BLU,LJCE,2015-02-21T06:30:00Z,45.9,15.52,-2.0,-5.0,290,3,,6.21,29.852362,,,,,,,,,,,CAVOK,,,,,,,,VFR,,,,,,,,,,,,METAR,155.0
LJPZ 210630Z VRB01KT 5000 BR BKN070 03/01 Q1013,LJPZ,2015-02-21T06:30:00Z,45.47,13.62,3.0,1.0,0,1,,3.11,29.911417,,,,,,,,,,BR,BKN,7000,,,,,,,MVFR,,,,,,,,,,,,METAR,2.0
LJMB 210630Z 21017KT CAVOK 04/M02 Q1008,LJMB,2015-02-21T06:30:00Z,46.47,15.67,4.0,-2.0,210,17,,6.21,29.763779,,,,,,,,,,,CAVOK,,,,,,,,VFR,,,,,,,,,,,,METAR,265.0
LJLJ 210630Z VRB01KT 4000 BR SCT032 BKN040 M01/M02 Q1011 NOSIG,LJLJ,2015-02-21T06:30:00Z,46.22,14.47,-1.0,-2.0,0,1,,2.49,29.852362,,,,,,TRUE,,,,BR,SCT,3200,BKN,4000,,,,,IFR,,,,,,,,,,,,METAR,385.0
LFPV 210630Z AUTO 23004KT 9999 NSC 01/00 Q1001,LFPV,2015-02-21T06:30:00Z,48.77,2.2,1.0,0.0,230,4,,6.21,29.557087,,,TRUE,,,,,,,,,,,,,,,,,,,,,,,,,,,,METAR,179.0
LFPC 210630Z AUTO 19003KT 4400 BR ////// 01/01 Q1000,LFPC,2015-02-21T06:30:00Z,49.25,2.52,1.0,1.0,190,3,,2.73,29.52756,,,TRUE,,,,,,,BR,,,,,,,,,,,,,,,,,,,,,METAR,88.0
LFOA 210630Z AUTO 28005KT 9000 BKN012 OVC017 03/03 Q1003,LFOA,2015-02-21T06:30:00Z,47.03,2.63,3.0,3.0,280,5,,5.59,29.616142,,,TRUE,,,,,,,,BKN,1200,OVC,1700,,,,,MVFR,,,,,,,,,,,,METAR,179.0
LFRL 210630Z AUTO 31014KT 9999 ///TCU 05/02 Q1006,LFRL,2015-02-21T06:30:00Z,48.27,-4.42,5.0,2.0,310,14,,6.21,29.704725,,,TRUE,,,,,,,,,,,,,,,,,,,,,,,,,,,,METAR,82.0
LFRJ 210630Z AUTO 33013KT 9999 FEW037 SCT044 05/00 Q1005,LFRJ,2015-02-21T06:30:00Z,48.52,-4.15,5.0,0.0,330,13,,6.21,29.675198,,,TRUE,,,,,,,,FEW,3700,SCT,4400,,,,,VFR,,,,,,,,,,,,METAR,115.0
LFOJ 210630Z AUTO 23007KT 1800 BR OVC002 02/01 Q1002,LFOJ,2015-02-21T06:30:00Z,47.97,1.75,2.0,1.0,230,7,,1.12,29.586615,,,TRUE,,,,,,,BR,OVC,200,,,,,,,LIFR,,,,,,,,,,,,METAR,125.0
LFOE 210630Z AUTO 22004KT 7000 NSC 01/01 Q1001,LFOE,2015-02-21T06:30:00Z,49.02,1.22,1.0,1.0,220,4,,4.35,29.557087,,,TRUE,,,,,,,,,,,,,,,,,,,,,,,,,,,,METAR,146.0
LFOC 210630Z AUTO 22008KT 3800 BR BKN003 OVC130 01/01 Q1002,LFOC,2015-02-21T06:30:00Z,48.03,1.37,1.0,1.0,220,8,,2.36,29.586615,,,TRUE,,,,,,,BR,BKN,300,OVC,13000,,,,,LIFR,,,,,,,,,,,,METAR,127.0
LEGR 210630Z 00000KT 9999 FEW040 SCT070 03/03 Q1013,LEGR,2015-02-21T06:30:00Z,37.17,-3.77,3.0,3.0,0,0,,6.21,29.911417,,,,,,,,,,,FEW,4000,SCT,7000,,,,,VFR,,,,,,,,,,,,METAR,559.0
LEAM 210630Z 33005KT 9999 FEW020 08/05 Q1011,LEAM,2015-02-21T06:30:00Z,36.85,-2.37,8.0,5.0,330,5,,6.21,29.852362,,,,,,,,,,,FEW,2000,,,,,,,VFR,,,,,,,,,,,,METAR,21.0
LEMH 210630Z 22003KT 9999 FEW017 07/06 Q1008,LEMH,2015-02-21T06:30:00Z,39.87,4.22,7.0,6.0,220,3,,6.21,29.763779,,,,,,,,,,,FEW,1700,,,,,,,VFR,,,,,,,,,,,,METAR,82.0
LERS 210630Z 00000KT 9999 FEW030 07/06 Q1006,LERS,2015-02-21T06:30:00Z,41.13,1.17,7.0,6.0,0,0,,6.21,29.704725,,,,,,,,,,,FEW,3000,,,,,,,VFR,,,,,,,,,,,,METAR,76.0
LEVT 210630Z 32017G28KT 9999 -RA FEW015 SCT025 06/04 Q1008,LEVT,2015-02-21T06:30:00Z,42.87,-2.72,6.0,4.0,320,17,28,6.21,29.763779,,,,,,,,,,-RA,FEW,1500,SCT,2500,,,,,VFR,,,,,,,,,,,,METAR,509.0
LESO 210630Z VRB08KT 5000 RA FEW014 BKN024 BKN034 09/08 Q1008,LESO,2015-02-21T06:30:00Z,43.35,-1.8,9.0,8.0,0,8,,3.11,29.763779,,,,,,,,,,RA,FEW,1400,BKN,2400,BKN,3400,,,MVFR,,,,,,,,,,,,METAR,8.0
LEZG 210630Z 32002KT 8000 SCT035 BKN045 06/05 Q1007,LEZG,2015-02-21T06:30:00Z,41.67,-1.02,6.0,5.0,320,2,,4.97,29.734253,,,,,,,,,,,SCT,3500,BKN,4500,,,,,MVFR,,,,,,,,,,,,METAR,258.0
LEST 210630Z VRB02KT 9999 FEW014 BKN038 06/05 Q1016 NOSIG,LEST,2015-02-21T06:30:00Z,42.88,-8.42,6.0,5.0,0,2,,6.21,30.0,,,,,,TRUE,,,,,FEW,1400,BKN,3800,,,,,VFR,,,,,,,,,,,,METAR,367.0
LEGE 210630Z 21010KT 180V240 9999 FEW040 SCT090 08/06 Q1005,LEGE,2015-02-21T06:30:00Z,41.88,2.77,8.0,6.0,210,10,,6.21,29.675198,,,,,,,,,,,FEW,4000,SCT,9000,,,,,VFR,,,,,,,,,,,,METAR,129.0
LECO 210630Z 35008KT 310V020 9999 FEW022 10/06 Q1016 NOSIG,LECO,2015-02-21T06:30:00Z,43.28,-8.37,10.0,6.0,350,8,,6.21,30.0,,,,,,TRUE,,,,,FEW,2200,,,,,,,VFR,,,,,,,,,,,,METAR,103.0
LEBB 210630Z 34015G32KT 9999 -RA FEW023 SCT030 BKN045 09/05 Q1010 TEMPO RA,LEBB,2015-02-21T06:30:00Z,43.28,-2.92,9.0,5.0,340,15,32,6.21,29.822834,,,,,,,,,,-RA,FEW,2300,SCT,3000,BKN,4500,,,VFR,,,,,,,,,,,,METAR,34.0
LEAS 210630Z 31016G27KT 260V340 9999 FEW019 SCT054 09/06 Q1013 TEMPO 3000 -RA,LEAS,2015-02-21T06:30:00Z,43.53,-6.02,9.0,6.0,310,16,27,6.21,29.911417,,,,,,,,,,,FEW,1900,SCT,5400,,,,,VFR,,,,,,,,,,,,METAR,134.0
LEVX 210630Z 04004KT 350V120 9000 NSC 07/07 Q1016 NOSIG,LEVX,2015-02-21T06:30:00Z,42.22,-8.62,7.0,7.0,40,4,,5.59,30.0,,,,,,TRUE,,,,,,,,,,,,,,,,,,,,,,,,,METAR,256.0
LEIB 210630Z 23009KT 9999 FEW015 11/09 Q1008 NOSIG,LEIB,2015-02-21T06:30:00Z,38.87,1.37,11.0,9.0,230,9,,6.21,29.763779,,,,,,TRUE,,,,,FEW,1500,,,,,,,VFR,,,,,,,,,,,,METAR,12.0
LEAL 210630Z 20006KT 9999 FEW025 04/03 Q1009 NOSIG,LEAL,2015-02-21T06:30:00Z,38.27,-0.55,4.0,3.0,200,6,,6.21,29.793306,,,,,,TRUE,,,,,FEW,2500,,,,,,,VFR,,,,,,,,,,,,METAR,31.0
LEVC 210630Z VRB02KT 9999 FEW025 08/05 Q1008 NOSIG,LEVC,2015-02-21T06:30:00Z,39.5,-0.47,8.0,5.0,0,2,,6.21,29.763779,,,,,,TRUE,,,,,FEW,2500,,,,,,,VFR,,,,,,,,,,,,METAR,62.0
LEMG 210630Z 29005KT 9999 FEW025 08/07 Q1013 NOSIG,LEMG,2015-02-21T06:30:00Z,36.67,-4.5,8.0,7.0,290,5,,6.21,29.911417,,,,,,TRUE,,,,,FEW,2500,,,,,,,VFR,,,,,,,,,,,,METAR,7.0
LEZL 210630Z 23002KT 9000 BKN030 10/08 Q1013 NOSIG,LEZL,2015-02-21T06:30:00Z,37.42,-5.9,10.0,8.0,230,2,,5.59,29.911417,,,,,,TRUE,,,,,BKN,3000,,,,,,,MVFR,,,,,,,,,,,,METAR,31.0
LEPA 210630Z 10001KT 8000 FEW018 SCT033 06/05 Q1008 NOSIG,LEPA,2015-02-21T06:30:00Z,39.53,2.72,6.0,5.0,100,1,,4.97,29.763779,,,,,,TRUE,,,,,FEW,1800,SCT,3300,,,,,MVFR,,,,,,,,,,,,METAR,8.0
LEBL 210630Z 25008KT 9999 FEW015 BKN040 10/08 Q1006 NOSIG,LEBL,2015-02-21T06:30:00Z,41.27,2.07,10.0,8.0,250,8,,6.21,29.704725,,,,,,TRUE,,,,,FEW,1500,BKN,4000,,,,,VFR,,,,,,,,,,,,METAR,6.0
LEMD 210630Z 26004KT 190V300 9999 FEW007 BKN009 06/05 Q1009 NOSIG,LEMD,2015-02-21T06:30:00Z,40.48,-3.57,6.0,5.0,260,4,,6.21,29.793306,,,,,,TRUE,,,,,FEW,700,BKN,900,,,,,IFR,,,,,,,,,,,,METAR,582.0
FMCZ 210630Z 10004KT 080V170 9999 SCT022TCU BKN290 29/25 Q1011 NOSIG,FMCZ,2015-02-21T06:30:00Z,-12.8,45.27,29.0,25.0,100,4,,6.21,29.852362,,,,,,TRUE,,,,,SCT,2200,BKN,29000,,,,,VFR,,,,,,,,,,,,METAR,7.0
VOCB 210630Z 07012KT 6000 FEW015 30/11 Q1016 NOSIG,VOCB,2015-02-21T06:30:00Z,11.02,77.03,30.0,11.0,70,12,,3.73,30.0,,,,,,TRUE,,,,,FEW,1500,,,,,,,MVFR,,,,,,,,,,,,METAR,399.0
VOCL 210630Z 20006KT 8000 FEW015 33/18 Q1012 NOSIG,VOCL,2015-02-21T06:30:00Z,11.13,75.95,33.0,18.0,200,6,,4.97,29.88189,,,,,,TRUE,,,,,FEW,1500,,,,,,,MVFR,,,,,,,,,,,,METAR,104.0
CMGB 210630Z AUTO 21002KT M17/M21 RMK AO1 SOG 37 3014 SLP284 T11711212,CMGB,2015-02-21T06:30:00Z,45.37,-72.77,-17.1,-21.2,210,2,,,,1028.4,,TRUE,TRUE,,,,,,,,,,,,,,,,,,,,,,,,,,,METAR,86.0
OICS 210630Z 18004KT 9999 FEW035CB SCT040 BKN090 M01/M06 Q1006,OICS,2015-02-21T06:30:00Z,35.25,47.02,-1.0,-6.0,180,4,,6.21,29.704725,,,,,,,,,,,FEW,3500,SCT,4000,BKN,9000,,,VFR,,,,,,,,,,,,METAR,1373.0
OICK 210630Z 00000KT 6000 SCT040 BKN090 05/M09 Q1009,OICK,2015-02-21T06:30:00Z,33.43,48.28,5.0,-9.0,0,0,,3.73,29.793306,,,,,,,,,,,SCT,4000,BKN,9000,,,,,MVFR,,,,,,,,,,,,METAR,1155.0
OIBP 210630Z 31008KT 5000 HZ FEW020 FEW030CB SCT035 OVC090 20/15 Q1008 A2977,OIBP,2015-02-21T06:30:00Z,27.38,52.73,20.0,15.0,310,8,,3.11,29.763779,,,,,,,,,,HZ,FEW,2000,FEW,3000,SCT,3500,OVC,9000,MVFR,,,,,,,,,,,,METAR,9.0
OIYY 210630Z 31010KT 9000 FEW040 OVC100 11/07 Q1008,OIYY,2015-02-21T06:30:00Z,31.9,54.28,11.0,7.0,310,10,,5.59,29.763779,,,,,,,,,,,FEW,4000,OVC,10000,,,,,VFR,,,,,,,,,,,,METAR,1236.0
OITR 210630Z 07008KT 8000 SCT030 OVC070 M01/M03 Q1006,OITR,2015-02-21T06:30:00Z,37.67,45.07,-1.0,-3.0,70,8,,4.97,29.704725,,,,,,,,,,,SCT,3000,OVC,7000,,,,,MVFR,,,,,,,,,,,,METAR,1312.0
OIIE 210630Z 31013G23KT 9999 FEW025 FEW035TCU 05/01 Q1007,OIIE,2015-02-21T06:30:00Z,35.42,51.15,5.0,1.0,310,13,23,6.21,29.734253,,,,,,,,,,,FEW,2500,FEW,3500,,,,,VFR,,,,,,,,,,,,METAR,1008.0
OIGG 210630Z 30018KT 2500 +RA BKN007 FEW010CB OVC060 03/02 Q1016,OIGG,2015-02-21T06:30:00Z,37.33,49.6,3.0,2.0,300,18,,1.55,30.0,,,,,,,,,,+RA,BKN,700,FEW,1000,OVC,6000,,,IFR,,,,,,,,,,,,METAR,-13.0
OICC 210630Z 09010KT 1500 R29/1500 -SN SCT035 OVC070 M01/M04 Q1008 A2977 TEMPO 3000 SN,OICC,2015-02-21T06:30:00Z,34.33,47.17,-1.0,-4.0,90,10,,0.93,29.763779,,,,,,,,,,-SN,SCT,3500,OVC,7000,,,,,LIFR,,,,,,,,,,,,METAR,1322.0
OIBK 210630Z 27010KT 2000 HZ FEW035 SCT180 26/19 Q1005,OIBK,2015-02-21T06:30:00Z,26.53,53.98,26.0,19.0,270,10,,1.24,29.675198,,,,,,,,,,HZ,FEW,3500,SCT,18000,,,,,IFR,,,,,,,,,,,,METAR,30.0
OIAA 210630Z 28010KT 0500 DU SKC 11/05 Q1014,OIAA,2015-02-21T06:30:00Z,30.37,48.25,11.0,5.0,280,10,,0.31,29.940945,,,,,,,,,,DU,SKC,,,,,,,,LIFR,,,,,,,,,,,,METAR,11.0
OITT 210630Z 04019KT 5000 BR FEW015 SCT035 FEW040CB OVC090 M03/M05 Q1009 A2981 RESN,OITT,2015-02-21T06:30:00Z,38.13,46.23,-3.0,-5.0,40,19,,3.11,29.793306,,,,,,,,,,BR,FEW,1500,SCT,3500,FEW,4000,OVC,9000,MVFR,,,,,,,,,,,,METAR,1361.0
OISS 210630Z 18012KT 4000 HZ FEW030CB SCT035 OVC090 07/05 Q1010 A2983,OISS,2015-02-21T06:30:00Z,29.52,52.57,7.0,5.0,180,12,,2.49,29.822834,,,,,,,,,,HZ,FEW,3000,SCT,3500,OVC,9000,,,IFR,,,,,,,,,,,,METAR,1491.0
OIMM 210630Z 32008KT 4000 BR OVC004 08/08 Q1007 A2976,OIMM,2015-02-21T06:30:00Z,36.23,59.62,8.0,8.0,320,8,,2.49,29.734253,,,,,,,,,,BR,OVC,400,,,,,,,LIFR,,,,,,,,,,,,METAR,980.0
OIKB 210630Z 17019KT 3000 SA FEW030 BKN100 28/21 Q1007 A2976,OIKB,2015-02-21T06:30:00Z,27.22,56.37,28.0,21.0,170,19,,1.86,29.734253,,,,,,,,,,SA,FEW,3000,BKN,10000,,,,,IFR,,,,,,,,,,,,METAR,10.0
KW29 210630Z AUTO 16004KT 10SM M08/M19 A3050 RMK AO1,KW29,2015-02-21T06:30:00Z,38.98,-76.33,-8.0,-19.0,160,4,,10.0,30.499016,,,TRUE,TRUE,,,,,,,,,,,,,,,,,,,,,,,,,,,METAR,15.0
KFME 210630Z AUTO 00000KT 10SM CLR M18/M21 A3051 RMK AO1,KFME,2015-02-21T06:30:00Z,39.08,-76.77,-18.0,-21.0,0,0,,10.0,30.510826,,,TRUE,TRUE,,,,,,,CLR,,,,,,,,VFR,,,,,,,,,,,,METAR,46.0
KDMW 210630Z AUTO 15007KT 10SM BKN095 M11/M22 A3038 RMK AO2,KDMW,2015-02-21T06:30:00Z,39.6,-77.0,-11.0,-22.0,150,7,,10.0,30.380905,,,TRUE,TRUE,,,,,,,BKN,9500,,,,,,,VFR,,,,,,,,,,,,METAR,241.0
KCGS 210630Z AUTO 00000KT 10SM CLR M15/M17 A3048 RMK AO1,KCGS,2015-02-21T06:30:00Z,38.98,-76.92,-15.0,-17.0,0,0,,10.0,30.481298,,,TRUE,TRUE,,,,,,,CLR,,,,,,,,VFR,,,,,,,,,,,,METAR,15.0
KCGE 210630Z AUTO 11003KT 10SM CLR M15/M20 A3051 RMK AO1,KCGE,2015-02-21T06:30:00Z,38.53,-76.03,-15.0,-20.0,110,3,,10.0,30.510826,,,TRUE,TRUE,,,,,,,CLR,,,,,,,,VFR,,,,,,,,,,,,METAR,6.0
KCBE 210630Z AUTO 00000KT 10SM SCT070 M12/M18 A3036 RMK AO1,KCBE,2015-02-21T06:30:00Z,39.62,-78.77,-12.0,-18.0,0,0,,10.0,30.360237,,,TRUE,TRUE,,,,,,,SCT,7000,,,,,,,VFR,,,,,,,,,,,,METAR,236.0
K2W6 210630Z AUTO 16003KT 10SM CLR M12/M20 A3052 RMK AO1,K2W6,2015-02-21T06:30:00Z,38.32,-76.55,-12.0,-20.0,160,3,,10.0,30.519686,,,TRUE,TRUE,,,,,,,CLR,,,,,,,,VFR,,,,,,,,,,,,METAR,44.0
K2G4 210630Z AUTO 18011KT 10SM CLR M11/M28 A3007 RMK AO1,K2G4,2015-02-21T06:30:00Z,39.58,-79.33,-11.0,-28.0,180,11,,10.0,30.070866,,,TRUE,TRUE,,,,,,,CLR,,,,,,,,VFR,,,,,,,,,,,,METAR,894.0
KHFF 210630Z AUTO 15005KT 10SM CLR M06/M13 A3050 RMK AO2,KHFF,2015-02-21T06:30:00Z,35.02,-79.5,-6.0,-13.0,150,5,,10.0,30.499016,,,TRUE,TRUE,,,,,,,CLR,,,,,,,,VFR,,,,,,,,,,,,METAR,115.0
EICK 210630Z 29008KT 9999 FEW008 FEW016CB 01/01 Q1006 NOSIG,EICK,2015-02-21T06:30:00Z,51.85,-8.47,1.0,1.0,290,8,,6.21,29.704725,,,,,,TRUE,,,,,FEW,800,FEW,1600,,,,,VFR,,,,,,,,,,,,METAR,162.0
EINN 210630Z 30011KT 9999 FEW018CB 03/01 Q1006 NOSIG,EINN,2015-02-21T06:30:00Z,52.7,-8.92,3.0,1.0,300,11,,6.21,29.704725,,,,,,TRUE,,,,,FEW,1800,,,,,,,VFR,,,,,,,,,,,,METAR,20.0
EIDW 210630Z 26018KT 9999 FEW006 SCT011 BKN039 01/M00 Q1002 NOSIG,EIDW,2015-02-21T06:30:00Z,53.42,-6.25,1.0,0.0,260,18,,6.21,29.586615,,,,,,TRUE,,,,,FEW,600,SCT,1100,BKN,3900,,,VFR,,,,,,,,,,,,METAR,85.0
EPZG 210630Z 07001KT 7000 MIFG NSC M06/M06 Q1001,EPZG,2015-02-21T06:30:00Z,52.13,15.8,-6.0,-6.0,70,1,,4.35,29.557087,,,,,,,,,,MIFG,,,,,,,,,,,,,,,,,,,,,METAR,59.0
EPWR 210630Z 17007KT CAVOK 04/M04 Q1002,EPWR,2015-02-21T06:30:00Z,51.1,16.87,4.0,-4.0,170,7,,6.21,29.586615,,,,,,,,,,,CAVOK,,,,,,,,VFR,,,,,,,,,,,,METAR,121.0
EPSC 210630Z 15009KT CAVOK 03/M02 Q0997,EPSC,2015-02-21T06:30:00Z,53.58,14.9,3.0,-2.0,150,9,,6.21,29.438976,,,,,,,,,,,CAVOK,,,,,,,,VFR,,,,,,,,,,,,METAR,3.0
EPMO 210630Z 13007KT 6000 NSC M00/M04 Q1005,EPMO,2015-02-21T06:30:00Z,52.45,20.65,0.0,-4.0,130,7,,3.73,29.675198,,,,,,,,,,,,,,,,,,,,,,,,,,,,,,,METAR,104.0
EPKT 210630Z 12005KT CAVOK 01/M06 Q1005,EPKT,2015-02-21T06:30:00Z,50.47,19.08,1.0,-6.0,120,5,,6.21,29.675198,,,,,,,,,,,CAVOK,,,,,,,,VFR,,,,,,,,,,,,METAR,284.0
EPBY 210630Z 15005KT 120V190 8000 NSC 01/M02 Q1002,EPBY,2015-02-21T06:30:00Z,53.1,18.0,1.0,-2.0,150,5,,4.97,29.586615,,,,,,,,,,,,,,,,,,,,,,,,,,,,,,,METAR,71.0
LQSA 210630Z VRB01KT 3000 BR NSC M04/M05 Q1015 NOSIG,LQSA,2015-02-21T06:30:00Z,43.82,18.32,-4.0,-5.0,0,1,,1.86,29.970472,,,,,,TRUE,,,,BR,,,,,,,,,,,,,,,,,,,,,METAR,511.0
LQBK 210630Z 17004KT CAVOK M02/M05 Q1013 NOSIG,LQBK,2015-02-21T06:30:00Z,44.93,17.3,-2.0,-5.0,170,4,,6.21,29.911417,,,,,,TRUE,,,,,CAVOK,,,,,,,,VFR,,,,,,,,,,,,METAR,122.0
EPWA 210630Z 13007KT 5000 BR NSC M00/M02 Q1006 BECMG CAVOK,EPWA,2015-02-21T06:30:00Z,52.17,20.97,0.0,-2.0,130,7,,3.11,29.704725,,,,,,,,,,BR,,,,,,,,,,,,,,,,,,,,,METAR,107.0
EPRZ 210630Z 18015KT CAVOK 04/M04 Q1009,EPRZ,2015-02-21T06:30:00Z,50.1,22.05,4.0,-4.0,180,15,,6.21,29.793306,,,,,,,,,,,CAVOK,,,,,,,,VFR,,,,,,,,,,,,METAR,202.0
EPPO 210630Z 15007KT CAVOK 02/M04 Q1001,EPPO,2015-02-21T06:30:00Z,52.42,16.82,2.0,-4.0,150,7,,6.21,29.557087,,,,,,,,,,,CAVOK,,,,,,,,VFR,,,,,,,,,,,,METAR,92.0
EPLL 210630Z 10005KT 6000 NSC M02/M05 Q1005,EPLL,2015-02-21T06:30:00Z,51.72,19.4,-2.0,-5.0,100,5,,3.73,29.675198,,,,,,,,,,,,,,,,,,,,,,,,,,,,,,,METAR,184.0
EPKK 210630Z 06004KT 7000 NSC M02/M04 Q1006,EPKK,2015-02-21T06:30:00Z,50.07,19.8,-2.0,-4.0,60,4,,4.35,29.704725,,,,,,,,,,,,,,,,,,,,,,,,,,,,,,,METAR,237.0
EPGD 210630Z 19007KT 9000 NSC 01/M02 Q1000,EPGD,2015-02-21T06:30:00Z,54.37,18.47,1.0,-2.0,190,7,,5.59,29.52756,,,,,,,,,,,,,,,,,,,,,,,,,,,,,,,METAR,138.0
BIKF 210630Z 09007KT 070V140 9999 FEW020 M08/M12 Q1006,BIKF,2015-02-21T06:30:00Z,63.98,-22.6,-8.0,-12.0,90,7,,6.21,29.704725,,,,,,,,,,,FEW,2000,,,,,,,VFR,,,,,,,,,,,,METAR,54.0
LYVR 210630Z 13025KT CAVOK 08/M05 Q1013 NOSIG,LYVR,2015-02-21T06:30:00Z,45.13,21.32,8.0,-5.0,130,25,,6.21,29.911417,,,,,,TRUE,,,,,CAVOK,,,,,,,,VFR,,,,,,,,,,,,METAR,85.0
LYUZ 210630Z 24004KT 200V290 CAVOK 04/M12 Q1013 R10///////,LYUZ,2015-02-21T06:30:00Z,43.9,19.7,4.0,-12.0,240,4,,6.21,29.911417,,,,,,,,,,,CAVOK,,,,,,,,VFR,,,,,,,,,,,,METAR,904.0
LYTV 210630Z 00000KT 9999 FEW023 01/00 Q1018 NOSIG,LYTV,2015-02-21T06:30:00Z,42.38,18.72,1.0,0.0,0,0,,6.21,30.059055,,,,,,TRUE,,,,,FEW,2300,,,,,,,VFR,,,,,,,,,,,,METAR,5.0
LYPG 210630Z 33005KT CAVOK M00/M04 Q1019 NOSIG,LYPG,2015-02-21T06:30:00Z,42.37,19.25,0.0,-4.0,330,5,,6.21,30.088583,,,,,,TRUE,,,,,CAVOK,,,,,,,,VFR,,,,,,,,,,,,METAR,43.0
LYNI 210630Z 21003KT 120V260 CAVOK M01/M06 Q1018,LYNI,2015-02-21T06:30:00Z,43.32,21.88,-1.0,-6.0,210,3,,6.21,30.059055,,,,,,,,,,,CAVOK,,,,,,,,VFR,,,,,,,,,,,,METAR,202.0
LYKV 210630Z VRB01KT 4000 BR NSC M04/M04 Q1016 NOSIG,LYKV,2015-02-21T06:30:00Z,43.82,20.58,-4.0,-4.0,0,1,,2.49,30.0,,,,,,TRUE,,,,BR,,,,,,,,,,,,,,,,,,,,,METAR,209.0
LYBT 210630Z VRB02KT 3000 BR NSC M02/M05 Q1015 NOSIG,LYBT,2015-02-21T06:30:00Z,44.93,20.25,-2.0,-5.0,0,2,,1.86,29.970472,,,,,,TRUE,,,,BR,,,,,,,,,,,,,,,,,,,,,METAR,80.0
LYBE 210630Z 28004KT 3000 BR NSC M01/M04 Q1014 NOSIG,LYBE,2015-02-21T06:30:00Z,44.82,20.28,-1.0,-4.0,280,4,,1.86,29.940945,,,,,,TRUE,,,,BR,,,,,,,,,,,,,,,,,,,,,METAR,99.0
LKTB 210630Z 11011KT CAVOK 00/M03 Q1005 NOSIG,LKTB,2015-02-21T06:30:00Z,49.13,16.68,0.0,-3.0,110,11,,6.21,29.675198,,,,,,TRUE,,,,,CAVOK,,,,,,,,VFR,,,,,,,,,,,,METAR,246.0
LKPR 210630Z 12004KT 3800 BR NSC M02/M04 Q1002 NOSIG,LKPR,2015-02-21T06:30:00Z,50.1,14.27,-2.0,-4.0,120,4,,2.36,29.586615,,,,,,TRUE,,,,BR,,,,,,,,,,,,,,,,,,,,,METAR,365.0
LKMT 210630Z 24003KT 200V290 CAVOK M01/M05 Q1005 NOSIG,LKMT,2015-02-21T06:30:00Z,49.67,18.12,-1.0,-5.0,240,3,,6.21,29.675198,,,,,,TRUE,,,,,CAVOK,,,,,,,,VFR,,,,,,,,,,,,METAR,256.0
LKKV 210630Z 11005KT 9999 FEW010 M02/M05 Q1000 R29///////,LKKV,2015-02-21T06:30:00Z,50.2,12.92,-2.0,-5.0,110,5,,6.21,29.52756,,,,,,,,,,,FEW,1000,,,,,,,VFR,,,,,,,,,,,,METAR,604.0
OIZH 210630Z 22031G41KT 0100 +DS NSC 25/M04 Q1011 A2987,OIZH,2015-02-21T06:30:00Z,29.47,60.92,25.0,-4.0,220,31,41,0.06,29.852362,,,,,,,,,,+DS,,,,,,,,,,,,,,,,,,,,,METAR,1370.0
OIII 210630Z 34010KT 9999 FEW025 FEW030CB FEW035 03/01 Q1006 A2973 NOSIG,OIII,2015-02-21T06:30:00Z,35.68,51.3,3.0,1.0,340,10,,6.21,29.704725,,,,,,TRUE,,,,,FEW,2500,FEW,3000,FEW,3500,,,VFR,,,,,,,,,,,,METAR,1191.0
OIFM 210630Z 24025KT 8000 NSC 05/M03 Q1007 A2975,OIFM,2015-02-21T06:30:00Z,32.75,51.87,5.0,-3.0,240,25,,4.97,29.734253,,,,,,,,,,,,,,,,,,,,,,,,,,,,,,,METAR,1542.0
LCPH 210630Z 01005KT 340V060 9999 FEW025 12/01 Q1012,LCPH,2015-02-21T06:30:00Z,34.72,32.47,12.0,1.0,10,5,,6.21,29.88189,,,,,,,,,,,FEW,2500,,,,,,,VFR,,,,,,,,,,,,METAR,8.0
LCLK 210630Z 33011KT 9999 FEW025 11/00 Q1012 NOSIG,LCLK,2015-02-21T06:30:00Z,34.87,33.62,11.0,0.0,330,11,,6.21,29.88189,,,,,,TRUE,,,,,FEW,2500,,,,,,,VFR,,,,,,,,,,,,METAR,2.0
RCNN 210630Z 14011KT 9999 -RA FEW012 BKN025 BKN050 24/16 Q1013 NOSIG/ RMK A2994,RCNN,2015-02-21T06:30:00Z,22.93,120.2,24.0,16.0,140,11,,6.21,29.911417,,,,,,,,,,-RA,FEW,1200,BKN,2500,BKN,5000,,,MVFR,,,,,,,,,,,,SPECI,19.0
PAGK 210630Z AUTO 04004KT 10SM SCT003 OVC110 M06/M08 A3025 RMK AO2 T10611078 TSNO,PAGK,2015-02-21T06:30:00Z,62.15,-145.45,-6.1,-7.8,40,4,,10.0,30.250984,,,TRUE,TRUE,,,TRUE,,,,SCT,300,OVC,11000,,,,,VFR,,,,,,,,,,,,METAR,481.0
KSTL 210630Z 12004KT 2SM -SN BR BKN005 OVC031 M02/M04 A2991 RMK AO2 P0007,KSTL,2015-02-21T06:30:00Z,38.75,-90.37,-2.0,-4.0,120,4,,2.0,29.911417,,,,TRUE,,,,,,-SN BR,BKN,500,OVC,3100,,,,,IFR,,,,,,0.07,,,,,,METAR,171.0
KMAE 210630Z AUTO 00000KT 4SM BR OVC008 11/09 A3002 RMK AO2 T01110089,KMAE,2015-02-21T06:30:00Z,36.98,-120.12,11.1,8.9,0,0,,4.0,30.02067,,,TRUE,TRUE,,,,,,BR,OVC,800,,,,,,,IFR,,,,,,,,,,,,METAR,77.0
KIEN 210630Z AUTO 1 1/2SM BR OVC001 M01/M02 A2993 RMK AO2 T10061017 $,KIEN,2015-02-21T06:30:00Z,43.03,-102.52,-0.6,-1.7,,,,1.5,29.929134,,,TRUE,TRUE,TRUE,,,,,BR,OVC,100,,,,,,,LIFR,,,,,,,,,,,,METAR,998.0
KFWA 210630Z COR 20006KT 4SM -SN BKN022 OVC026 M08/M11 A3001 RMK AO2 P0000 T10831111,KFWA,2015-02-21T06:30:00Z,40.98,-85.18,-8.3,-11.1,200,6,,4.0,30.008858,,TRUE,,TRUE,,,,,,-SN,BKN,2200,OVC,2600,,,,,MVFR,,,,,,0.0050,,,,,,METAR,248.0
KEYE 210630Z AUTO 14007KT 1 1/4SM -SN BR OVC017 M09/M11 A2997 RMK AO2 P0002 T10891106,KEYE,2015-02-21T06:30:00Z,39.83,-86.3,-8.9,-10.6,140,7,,1.25,29.970472,,,TRUE,TRUE,,,,,,-SN BR,OVC,1700,,,,,,,IFR,,,,,,0.02,,,,,,METAR,248.0
KEMP 210630Z AUTO 35006KT 2SM UP BR FEW002 SCT007 OVC034 00/M01 A2986 RMK AO2 UPB02E03B21FZRAE02SNB03E21 P0005 I1000 T00001006,KEMP,2015-02-21T06:30:00Z,38.33,-96.2,0.0,-0.6,350,6,,2.0,29.861221,,,TRUE,TRUE,,,,,,BR UP,FEW,200,SCT,700,OVC,3400,,,IFR,,,,,,0.05,,,,,,METAR,367.0
UGSB 210630Z 14005KT 9999 FEW018 BKN050 04/02 Q1021 R13/19//60 NOSIG,UGSB,2015-02-21T06:30:00Z,41.62,41.6,4.0,2.0,140,5,,6.21,30.147638,,,,,,TRUE,,,,,FEW,1800,BKN,5000,,,,,VFR,,,,,,,,,,,,METAR,32.0
UGKO 210630Z VRB03KT 9999 -SHRA SCT012CB OVC024 04/03 Q1019 R07/29//50 NOSIG,UGKO,2015-02-21T06:30:00Z,42.18,42.48,4.0,3.0,0,3,,6.21,30.088583,,,,,,TRUE,,,,-SHRA,SCT,1200,OVC,2400,,,,,MVFR,,,,,,,,,,,,METAR,68.0
UGTB 210630Z 28005KT 6000 FEW003 SCT006 02/02 Q1018 R31L/290065 NOSIG,UGTB,2015-02-21T06:30:00Z,41.67,44.95,2.0,2.0,280,5,,3.73,30.059055,,,,,,TRUE,,,,,FEW,300,SCT,600,,,,,MVFR,,,,,,,,,,,,METAR,495.0
GMTT 210630Z VRB02KT 8000 SCT016 09/08 Q1015 NOSIG,GMTT,2015-02-21T06:30:00Z,35.72,-5.9,9.0,8.0,0,2,,4.97,29.970472,,,,,,TRUE,,,,,SCT,1600,,,,,,,MVFR,,,,,,,,,,,,METAR,21.0
GMMN 210630Z 21006KT 3800 BR SCT010 08/08 Q1018 NOSIG,GMMN,2015-02-21T06:30:00Z,33.37,-7.57,8.0,8.0,210,6,,2.36,30.059055,,,,,,TRUE,,,,BR,SCT,1000,,,,,,,IFR,,,,,,,,,,,,METAR,206.0
GMME 210630Z 21005KT 5000 SCT016 SCT100 10/08 Q1016 NOSIG,GMME,2015-02-21T06:30:00Z,34.03,-6.77,10.0,8.0,210,5,,3.11,30.0,,,,,,TRUE,,,,,SCT,1600,SCT,10000,,,,,MVFR,,,,,,,,,,,,METAR,75.0
GMAD 210630Z 16004KT 130V190 CAVOK 10/08 Q1013 NOSIG,GMAD,2015-02-21T06:30:00Z,30.32,-9.42,10.0,8.0,160,4,,6.21,29.911417,,,,,,TRUE,,,,,CAVOK,,,,,,,,VFR,,,,,,,,,,,,METAR,74.0
KQEW 210630Z AUTO 35005KT 8000 -RA BKN006 05/03 A3006 RMK A02 TSNO,KQEW,2015-02-21T06:30:00Z,100.65,-1000.65,5.0,3.0,350,5,,4.97,30.059055,,,TRUE,TRUE,,,TRUE,,,-RA,BKN,600,,,,,,,IFR,,,,,,,,,,,,METAR,999.0
KQER 210630Z AUTO 8000 /CLR M06/M11 / RMK A02 TSNO,KQER,2015-02-21T06:30:00Z,100.65,-1000.65,-6.0,-11.0,,,,4.97,,,,TRUE,TRUE,,,TRUE,,,,CLR,,,,,,,,MVFR,,,,,,,,,,,,METAR,999.0
CWPF 210630Z AUTO 35003KT 08/06 RMK AO1 T00800059,CWPF,2015-02-21T06:30:00Z,48.43,-123.43,8.0,5.9,350,3,,,,,,TRUE,TRUE,,,,,,,,,,,,,,,,,,,,,,,,,,,METAR,12.0
KNMM 210630Z AUTO 15007KT 120V180 10SM BKN022 OVC110 10/06 A3011 RMK AO2 T01000056 $,KNMM,2015-02-21T06:30:00Z,32.53,-88.57,10.0,5.6,150,7,,10.0,30.109253,,,TRUE,TRUE,TRUE,,,,,,BKN,2200,OVC,11000,,,,,MVFR,,,,,,,,,,,,METAR,97.0
WSSS 210630Z 04008KT 360V080 9999 FEW024 BKN280 31/22 Q1010 NOSIG,WSSS,2015-02-21T06:30:00Z,1.37,103.97,31.0,22.0,40,8,,6.21,29.822834,,,,,,TRUE,,,,,FEW,2400,BKN,28000,,,,,VFR,,,,,,,,,,,,METAR,16.0
VHHH 210630Z 33004KT 280V030 9999 FEW010 SCT025 24/19 Q1013 NOSIG,VHHH,2015-02-21T06:30:00Z,22.32,113.92,24.0,19.0,330,4,,6.21,29.911417,,,,,,TRUE,,,,,FEW,1000,SCT,2500,,,,,VFR,,,,,,,,,,,,METAR,9.0
LHBP 210630Z 11007KT 4000 BR NSC M01/M01 Q1012 NOSIG,LHBP,2015-02-21T06:30:00Z,47.42,19.27,-1.0,-1.0,110,7,,2.49,29.88189,,,,,,TRUE,,,,BR,,,,,,,,,,,,,,,,,,,,,METAR,185.0
LZTT 210630Z 20006KT 160V220 CAVOK M01/M07 Q1008 NOSIG,LZTT,2015-02-21T06:30:00Z,49.07,20.25,-1.0,-7.0,200,6,,6.21,29.763779,,,,,,TRUE,,,,,CAVOK,,,,,,,,VFR,,,,,,,,,,,,METAR,707.0
LZKZ 210630Z 17003KT 1300 R01/1600N BCFG FEW001 M03/M04 Q1013 TEMPO 1800 BR,LZKZ,2015-02-21T06:30:00Z,48.67,21.23,-3.0,-4.0,170,3,,0.81,29.911417,,,,,,,,,,BCFG,FEW,100,,,,,,,LIFR,,,,,,,,,,,,METAR,232.0
LZIB 210630Z 09008KT CAVOK 01/M03 Q1007 NOSIG,LZIB,2015-02-21T06:30:00Z,48.17,17.22,1.0,-3.0,90,8,,6.21,29.734253,,,,,,TRUE,,,,,CAVOK,,,,,,,,VFR,,,,,,,,,,,,METAR,134.0
LBBG 210630Z 25003KT 2500 BR BKN013 OVC030 02/01 Q1022 NOSIG,LBBG,2015-02-21T06:30:00Z,42.57,27.52,2.0,1.0,250,3,,1.55,30.177166,,,,,,TRUE,,,,BR,BKN,1300,OVC,3000,,,,,IFR,,,,,,,,,,,,METAR,28.0
LBWN 210630Z 13004KT 8000 FEW033 03/00 Q1021 NOSIG,LBWN,2015-02-21T06:30:00Z,43.22,27.82,3.0,0.0,130,4,,4.97,30.147638,,,,,,TRUE,,,,,FEW,3300,,,,,,,MVFR,,,,,,,,,,,,METAR,43.0
LBSF 210630Z VRB01KT 5000 BR NSC M01/M03 Q1019 TEMPO 3000 BR,LBSF,2015-02-21T06:30:00Z,42.65,23.38,-1.0,-3.0,0,1,,3.11,30.088583,,,,,,,,,,BR,,,,,,,,,,,,,,,,,,,,,METAR,595.0
LUKK 210630Z 17009KT 9999 FEW011 OVC019 02/M03 Q1020 R08/150058 NOSIG,LUKK,2015-02-21T06:30:00Z,46.93,28.93,2.0,-3.0,170,9,,6.21,30.11811,,,,,,TRUE,,,,,FEW,1100,OVC,1900,,,,,MVFR,,,,,,,,,,,,METAR,122.0
NWWW 210630Z AUTO 05006KT 310V090 9999 BKN046 OVC052 30/21 Q1008,NWWW,2015-02-21T06:30:00Z,-22.02,166.22,30.0,21.0,50,6,,6.21,29.763779,,,TRUE,,,,,,,,BKN,4600,OVC,5200,,,,,VFR,,,,,,,,,,,,METAR,16.0
YLIS 210630Z AUTO 19009KT 9999 RA OVC011 25/24 Q1007,YLIS,2015-02-21T06:30:00Z,-28.83,153.27,25.0,24.0,190,9,,6.21,29.734253,,,TRUE,,,,,,,RA,OVC,1100,,,,,,,MVFR,,,,,,,,,,,,SPECI,11.0
YGFN 210630Z AUTO 17017G27KT 5000 // BKN013 OVC018 23/21 Q1009,YGFN,2015-02-21T06:30:00Z,-29.77,153.03,23.0,21.0,170,17,27,3.11,29.793306,,,TRUE,,,,,,,,BKN,1300,OVC,1800,,,,,MVFR,,,,,,,,,,,,SPECI,34.0
UTAA 210630Z 29004MPS 9999 -RA OVC006 07/06 Q1009 R30/290055 NOSIG,UTAA,2015-02-21T06:30:00Z,37.98,58.37,7.0,6.0,290,8,,6.21,29.793306,,,,,,TRUE,,,,-RA,OVC,600,,,,,,,IFR,,,,,,,,,,,,METAR,210.0
LZZI 210630Z 21005KT 150V300 CAVOK M05/M06 Q1007,LZZI,2015-02-21T06:30:00Z,49.23,18.62,-5.0,-6.0,210,5,,6.21,29.734253,,,,,,,,,,,CAVOK,,,,,,,,VFR,,,,,,,,,,,,SPECI,311.0
LZSL 210630Z VRB01KT 3800 BR NSC M05/M06 Q1012,LZSL,2015-02-21T06:30:00Z,48.63,19.13,-5.0,-6.0,0,1,,2.36,29.88189,,,,,,,,,,BR,,,,,,,,,,,,,,,,,,,,,METAR,313.0
LZPP 210630Z 14016KT 8000 NSC 03/M02 Q1008,LZPP,2015-02-21T06:30:00Z,48.62,17.83,3.0,-2.0,140,16,,4.97,29.763779,,,,,,,,,,,,,,,,,,,,,,,,,,,,,,,METAR,161.0
UKOO 210630Z 16003MPS 9999 SCT021 00/M01 Q1022 16090060 NOSIG,UKOO,2015-02-21T06:30:00Z,46.42,30.68,0.0,-1.0,160,6,,6.21,30.177166,,,,,,TRUE,,,,,SCT,2100,,,,,,,VFR,,,,,,,,,,,,METAR,35.0
UKLL 210630Z 14003MPS CAVOK M00/M04 Q1011 31CLRD80 NOSIG,UKLL,2015-02-21T06:30:00Z,49.82,23.93,0.0,-4.0,140,6,,6.21,29.852362,,,,,,TRUE,,,,,CAVOK,,,,,,,,VFR,,,,,,,,,,,,METAR,325.0
UKHH 210630Z 23004MPS 9999 BKN024 M01/M05 Q1021 25710560 TEMPO 2100 -FZDZ BR OVC004,UKHH,2015-02-21T06:30:00Z,49.92,36.28,-1.0,-5.0,230,8,,6.21,30.147638,,,,,,,,,,,BKN,2400,,,,,,,MVFR,,,,,,,,,,,,METAR,155.0
UKDR 210630Z 18004MPS 140V220 CAVOK M04/M07 Q1022 1809//65 NOSIG,UKDR,2015-02-21T06:30:00Z,48.05,33.22,-4.0,-7.0,180,8,,6.21,30.177166,,,,,,TRUE,,,,,CAVOK,,,,,,,,VFR,,,,,,,,,,,,METAR,124.0
UKDE 210630Z 16003MPS 110V200 CAVOK M03/M04 Q1024 20CLRD70 NOSIG,UKDE,2015-02-21T06:30:00Z,47.87,35.32,-3.0,-4.0,160,6,,6.21,30.236221,,,,,,TRUE,,,,,CAVOK,,,,,,,,VFR,,,,,,,,,,,,METAR,113.0
UKDD 210630Z 18003MPS CAVOK M02/M05 Q1023 08090070 NOSIG,UKDD,2015-02-21T06:30:00Z,48.37,35.1,-2.0,-5.0,180,6,,6.21,30.206694,,,,,,TRUE,,,,,CAVOK,,,,,,,,VFR,,,,,,,,,,,,METAR,149.0
UKBB 210630Z 21004MPS 2700 BR OVC006 01/01 Q1017 18290050 68190055 NOSIG,UKBB,2015-02-21T06:30:00Z,50.33,30.9,1.0,1.0,210,8,,1.68,30.029528,,,,,,TRUE,,,,BR,OVC,600,,,,,,,IFR,,,,,,,,0.0,,,,METAR,119.0
NTAA 210630Z VRB03KT 9999 FEW023 28/21 Q1013 NOSIG,NTAA,2015-02-21T06:30:00Z,-17.55,-149.62,28.0,21.0,0,3,,6.21,29.911417,,,,,,TRUE,,,,,FEW,2300,,,,,,,VFR,,,,,,,,,,,,SPECI,2.0
WIII 210630Z 33012KT 300V010 9999 SCT021 31/25 Q1008 NOSIG,WIII,2015-02-21T06:30:00Z,-6.13,106.67,31.0,25.0,330,12,,6.21,29.763779,,,,,,TRUE,,,,,SCT,2100,,,,,,,VFR,,,,,,,,,,,,SPECI,8.0
YBBN 210630Z 18009KT 1400 -RA FEW010 SCT014 BKN030 23/23 Q1004 FM0630 16013KT 6000 -RA FEW008 BKN012 TEMPO 0630/0930 16014G25KT 2000 RA DZ BKN005 FM0630 MOD/SEV TURB BLW 5000FT,YBBN,2015-02-21T06:30:00Z,-27.38,153.13,23.0,23.0,180,9,,0.87,29.64567,,,,,,,,,,-RA,FEW,1000,SCT,1400,BKN,3000,,,LIFR,,,,,,,,,,,,SPECI,5.0
DIAP 210630Z VRB02KT 8000 SCT012 BKN040 27/25 Q1009 NOSIG,DIAP,2015-02-21T06:30:00Z,5.25,-3.92,27.0,25.0,0,2,,4.97,29.793306,,,,,,TRUE,,,,,SCT,1200,BKN,4000,,,,,MVFR,,,,,,,,,,,,SPECI,8.0
VOBL 210630Z 11012KT 080V150 CAVOK 31/10 Q1018 NOSIG,VOBL,2015-02-21T06:30:00Z,13.2,77.7,31.0,10.0,110,12,,6.21,30.059055,,,,,,TRUE,,,,,CAVOK,,,,,,,,VFR,,,,,,,,,,,,METAR,915.0
YCFS 210630Z AUTO 11017KT 3400 RA SCT008 BKN022 OVC028 22/22 Q1012,YCFS,2015-02-21T06:30:00Z,-30.32,153.12,22.0,22.0,110,17,,2.11,29.88189,,,TRUE,,,,,,,RA,SCT,800,BKN,2200,OVC,2800,,,IFR,,,,,,,,,,,,SPECI,5.0
YTRE 210630Z AUTO 11006KT //// // BKN006 OVC011 21/21 Q1014,YTRE,2015-02-21T06:30:00Z,-31.88,152.52,21.0,21.0,110,6,,,29.940945,,,TRUE,,,,,,,,BKN,600,OVC,1100,,,,,,,,,,,,,,,,,SPECI,12.0
TFFR 210630Z AUTO 09003KT 9999 NSC 24/20 Q1016,TFFR,2015-02-21T06:30:00Z,16.27,-61.53,24.0,20.0,90,3,,6.21,30.0,,,TRUE,,,,,,,,,,,,,,,,,,,,,,,,,,,,METAR,11.0
LUBL 210630Z AUTO 15010KT 6000 ///007 01/00 Q1017,LUBL,2015-02-21T06:30:00Z,47.83,27.78,1.0,0.0,150,10,,3.73,30.029528,,,TRUE,,,,,,,,,,,,,,,,,,,,,,,,,,,,METAR,232.0
YBCG 210630Z AUTO 18011KT 2400 // SCT008 BKN012 OVC018 23/23 Q1006,YBCG,2015-02-21T06:30:00Z,-28.17,153.5,23.0,23.0,180,11,,1.49,29.704725,,,TRUE,,,,,,,,SCT,800,BKN,1200,OVC,1800,,,IFR,,,,,,,,,,,,SPECI,6.0
UBBB 210630Z 35032G44KT CAVOK 04/M02 Q1017 88CLRD70 NOSIG,UBBB,2015-02-21T06:30:00Z,40.45,50.07,4.0,-2.0,350,32,44,6.21,30.029528,,,,,,TRUE,,,,,CAVOK,,,,,,,,VFR,,,,,,,,,,,,METAR,-6.0
KQFX 210630Z AUTO 36002KT 4800 HZ FEW010 BKN012 06/04 A3004 RMK A02 TSNO,KQFX,2015-02-21T06:30:00Z,100.65,-1000.65,6.0,4.0,360,2,,2.98,30.041338,,,TRUE,TRUE,,,TRUE,,,HZ,FEW,1000,BKN,1200,,,,,IFR,,,,,,,,,,,,METAR,999.0
KQFV 210630Z AUTO 03001KT 3200 -RA BR CLR 02/M00 A3002 RMK A02 TSNO,KQFV,2015-02-21T06:30:00Z,100.65,-1000.65,2.0,0.0,30,1,,1.99,30.02067,,,TRUE,TRUE,,,TRUE,,,-RA BR,CLR,,,,,,,,IFR,,,,,,,,,,,,METAR,999.0
KQFU 210630Z AUTO 32005KT 6000 HZ CLR 05/03 A3001 RMK A02 TSNO,KQFU,2015-02-21T06:30:00Z,100.65,-1000.65,5.0,3.0,320,5,,3.73,30.008858,,,TRUE,TRUE,,,TRUE,,,HZ,CLR,,,,,,,,MVFR,,,,,,,,,,,,METAR,999.0
KQFT 210630Z AUTO 34003KT 4800 HZ FEW006 BKN008 04/02 A3002 RMK A02 TSNO,KQFT,2015-02-21T06:30:00Z,100.65,-1000.65,4.0,2.0,340,3,,2.98,30.02067,,,TRUE,TRUE,,,TRUE,,,HZ,FEW,600,BKN,800,,,,,IFR,,,,,,,,,,,,METAR,999.0
KQFB 210630Z AUTO 27001KT 8000 HZ OVC015 06/03 A3010 RMK A02 TSNO,KQFB,2015-02-21T06:30:00Z,100.65,-1000.65,6.0,3.0,270,1,,4.97,30.100393,,,TRUE,TRUE,,,TRUE,,,HZ,OVC,1500,,,,,,,MVFR,,,,,,,,,,,,METAR,999.0
KQEY 210630Z AUTO 25002KT 8000 HZ FEW007 OVC038 07/04 A3000 RMK A02 TSNO,KQEY,2015-02-21T06:30:00Z,100.65,-1000.65,7.0,4.0,250,2,,4.97,30.0,,,TRUE,TRUE,,,TRUE,,,HZ,FEW,700,OVC,3800,,,,,MVFR,,,,,,,,,,,,METAR,999.0
KVWU 210630Z AUTO 00000KT 7SM -SN OVC028 M18/M19 A2990 RMK AO2,KVWU,2015-02-21T06:30:00Z,48.15,-94.52,-18.0,-19.0,0,0,,7.0,29.899607,,,TRUE,TRUE,,,,,,-SN,OVC,2800,,,,,,,MVFR,,,,,,,,,,,,METAR,360.0
DTMB 210630Z 13009KT 9999 -RA NSC 13/11 Q1012 NOSIG,DTMB,2015-02-21T06:30:00Z,35.77,10.75,13.0,11.0,130,9,,6.21,29.88189,,,,,,TRUE,,,,-RA,,,,,,,,,,,,,,,,,,,,,SPECI,2.0
UHWW 210630Z 16007MPS 5000 -SHSNRA SCT011 BKN030CB OVC100 02/M00 Q1019 TEMPO 18008G13MPS 2100 -SHSNRA BKN007CB RMK 530005 650303 QFE763/1018 2529//60,UHWW,2015-02-21T06:30:00Z,43.4,132.15,2.0,0.0,160,14,,3.11,30.088583,,,,,,,,,,-SHSN -SHRA,SCT,1100,BKN,3000,OVC,10000,,,MVFR,0.0,,,,,,,50.3,,,,METAR,184.0
UHSS 210630Z 17003MPS 9999 BKN044 M01/M03 Q1025 NOSIG RMK QFE767/1023 19CLRD65,UHSS,2015-02-21T06:30:00Z,46.88,142.72,-1.0,-3.0,170,6,,6.21,30.265747,,,,,,TRUE,,,,,BKN,4400,,,,,,,VFR,,,,,,,,,,,,METAR,31.0
UHMM 210630Z 33003MPS 9999 FEW100 OVC200 M20/M29 Q1019 NOSIG RMK QFE749 88950545,UHMM,2015-02-21T06:30:00Z,59.92,150.72,-20.0,-29.0,330,6,,6.21,30.088583,,,,,,TRUE,,,,,FEW,10000,OVC,20000,,,,,VFR,,,,,,,,,,,,METAR,118.0
UHMA 210630Z 33006MPS 9999 SCT080 M24/M26 Q1020 NOSIG RMK QFE761/1015,UHMA,2015-02-21T06:30:00Z,64.73,177.73,-24.0,-26.0,330,12,,6.21,30.11811,,,,,,TRUE,,,,,SCT,8000,,,,,,,VFR,,,,,,,,,,,,METAR,62.0
UHHH 210630Z 02003MPS CAVOK M07/M11 Q1019 NOSIG RMK QFE758/1011 55090060,UHHH,2015-02-21T06:30:00Z,48.52,135.18,-7.0,-11.0,20,6,,6.21,30.088583,,,,,,TRUE,,,,,CAVOK,,,,,,,,VFR,-9.0,,,,,,,,,,,METAR,72.0
UHBB 210630Z 01004MPS 1100 SHSN VV002 M08/M08 Q1010 TEMPO 0500 +SHSN VV002 RMK QBB070 QFE740/0987 36490540,UHBB,2015-02-21T06:30:00Z,50.43,127.42,-8.0,-8.0,10,8,,0.68,29.822834,,,,,,,,,,SHSN,OVX,0,,,,,,,LIFR,,,,,,,,,,,200,METAR,195.0
FMEP 210630Z AUTO 14007KT 120V190 9999 ////// 29/23 Q1012,FMEP,2015-02-21T06:30:00Z,-21.32,55.42,29.0,23.0,140,7,,6.21,29.88189,,,TRUE,,,,,,,,,,,,,,,,,,,,,,,,,,,,METAR,53.0
FMEE 210630Z 05004KT 9999 FEW026TCU 30/25 Q1013,FMEE,2015-02-21T06:30:00Z,-20.87,55.52,30.0,25.0,50,4,,6.21,29.911417,,,,,,,,,,,FEW,2600,,,,,,,VFR,,,,,,,,,,,,METAR,25.0
VOCI 210630Z 29004KT 5000 HZ FEW020 31/19 Q1012 NOSIG,VOCI,2015-02-21T06:30:00Z,10.15,76.4,31.0,19.0,290,4,,3.11,29.88189,,,,,,TRUE,,,,HZ,FEW,2000,,,,,,,MVFR,,,,,,,,,,,,METAR,8.0
BKPR 210630Z 00000KT 6000 NSC M04/M07 Q1017 NOSIG RMK 17010095,BKPR,2015-02-21T06:30:00Z,42.58,21.03,-4.0,-7.0,0,0,,3.73,30.029528,,,,,,TRUE,,,,,,,,,,,,,,,,,,,,,,,,,METAR,576.0
KQAZ 210630Z AUTO 11007KT 9999 CLR 22/M01 A2987 RMK CDP03565 CLR,KQAZ,2015-02-21T06:30:00Z,100.65,-1000.65,22.0,-1.0,110,7,,6.21,29.870079,,,TRUE,,,,,,,,CLR,,,,,,,,VFR,,,,,,,,,,,,METAR,999.0
UDYZ 210630Z 16003MPS 9999 SCT033 OVC100 02/M01 Q1011 R09/19//65 NOSIG,UDYZ,2015-02-21T06:30:00Z,40.15,44.4,2.0,-1.0,160,6,,6.21,29.852362,,,,,,TRUE,,,,,SCT,3300,OVC,10000,,,,,VFR,,,,,,,,,,,,METAR,865.0
UDSG 210630Z 06010MPS 9999 SCT040 OVC083 M03/M08 Q1008 R02/420245 NOSIG,UDSG,2015-02-21T06:30:00Z,40.75,43.87,-3.0,-8.0,60,19,,6.21,29.763779,,,,,,TRUE,,,,,SCT,4000,OVC,8300,,,,,VFR,,,,,,,,,,,,METAR,1524.0
HECA 210630Z 24010KT 9999 SCT025 OVC070 10/06 Q1016 NOSIG,HECA,2015-02-21T06:30:00Z,30.12,31.38,10.0,6.0,240,10,,6.21,30.0,,,,,,TRUE,,,,,SCT,2500,OVC,7000,,,,,VFR,,,,,,,,,,,,METAR,74.0
UAAA 210630Z VRB01MPS 3400 FU SCT100 OVC200 05/M01 Q1016 R88/65D NOSIG,UAAA,2015-02-21T06:30:00Z,43.35,77.03,5.0,-1.0,0,2,,2.11,30.0,,,,,,TRUE,,,,FU,SCT,10000,OVC,20000,,,,,IFR,,,,,,,,,,,,METAR,847.0
UAAH 210630Z 12004MPS CAVOK M07/M11 Q1018 R05/410055 NOSIG RMK QFE726/0968,UAAH,2015-02-21T06:30:00Z,46.9,75.0,-7.0,-11.0,120,8,,6.21,30.059055,,,,,,TRUE,,,,,CAVOK,,,,,,,,VFR,,,,,,,,,,,,METAR,441.0
UADD 210630Z VRB01MPS 9999 NSC 06/M00 Q1017 R31/0///65 NOSIG RMK QFE704/0939,UADD,2015-02-21T06:30:00Z,42.85,71.3,6.0,0.0,0,2,,6.21,30.029528,,,,,,TRUE,,,,,,,,,,,,,,,,,,,,,,,,,METAR,665.0
UACC 210630Z 24010MPS 5000 -SN DRSN SCT007 BKN083 M14/M17 Q1015 R22/4/0260 NOSIG RMK QFE730/0973,UACC,2015-02-21T06:30:00Z,51.02,71.47,-14.0,-17.0,240,19,,3.11,29.970472,,,,,,TRUE,,,,-SN DRSN,SCT,700,BKN,8300,,,,,MVFR,,,,,,,,,,,,METAR,355.0
UACK 210630Z 27008MPS 9999 DRSN FEW009 M17/M20 Q1011 R20/420247 NOSIG RMK QFE734/0979,UACK,2015-02-21T06:30:00Z,53.32,69.58,-17.0,-20.0,270,16,,6.21,29.852362,,,,,,TRUE,,,,DRSN,FEW,900,,,,,,,VFR,,,,,,,,,,,,METAR,2547.0
UACP 210630Z 25004MPS CAVOK M19/M21 Q1011 R23/4/2036 NOSIG RMK QFE745/0994,UACP,2015-02-21T06:30:00Z,54.78,69.18,-19.0,-21.0,250,8,,6.21,29.852362,,,,,,TRUE,,,,,CAVOK,,,,,,,,VFR,,,,,,,,,,,,METAR,142.0
UAII 210630Z 01002MPS 340V040 8000 SCT050CB OVC100 11/04 Q1014 R10/0///70 NOSIG RMK QFE725/0967,UAII,2015-02-21T06:30:00Z,42.37,69.48,11.0,4.0,10,4,,4.97,29.940945,,,,,,TRUE,,,,,SCT,5000,OVC,10000,,,,,MVFR,,,,,,,,,,,,METAR,422.0
UAKK 210630Z 26005MPS 9999 BKN022 M08/M10 Q1015 R23/451050 NOSIG RMK QFE715/0953,UAKK,2015-02-21T06:30:00Z,49.67,73.33,-8.0,-10.0,260,10,,6.21,29.970472,,,,,,TRUE,,,,,BKN,2200,,,,,,,MVFR,,,,,,,,,,,,METAR,538.0
UAOO 210630Z 04006MPS CAVOK 01/M06 Q1021 R06/CLRD70 NOSIG RMK QFE754/1006,UAOO,2015-02-21T06:30:00Z,44.7,65.6,1.0,-6.0,40,12,,6.21,30.147638,,,,,,TRUE,,,,,CAVOK,,,,,,,,VFR,,,,,,,,,,,,METAR,129.0
UASK 210630Z 30002MPS 260V320 9999 SCT100 BKN230 M05/M17 Q1021 R30/820242 NOSIG RMK QFE740/0987,UASK,2015-02-21T06:30:00Z,50.03,82.5,-5.0,-17.0,300,4,,6.21,30.147638,,,,,,TRUE,,,,,SCT,10000,BKN,23000,,,,,VFR,,,,,,,,,,,,METAR,286.0
UASP 210630Z 19005MPS 5000 -SHSN BKN028CB OVC100 M08/M11 Q1015 R21/0///60 NOSIG RMK QFE750/1000,UASP,2015-02-21T06:30:00Z,52.2,77.07,-8.0,-11.0,190,10,,3.11,29.970472,,,,,,TRUE,,,,-SHSN,BKN,2800,OVC,10000,,,,,MVFR,,,,,,,,,,,,METAR,125.0
UASS 210630Z 17009G14MPS 9999 DRSN BKN150 M09/M13 Q1019 R26/75//42 NOSIG RMK QFE746/0995,UASS,2015-02-21T06:30:00Z,50.35,80.23,-9.0,-13.0,170,17,27,6.21,30.088583,,,,,,TRUE,,,,DRSN,BKN,15000,,,,,,,VFR,,,,,,,,,,,,METAR,232.0
UARR 210630Z 21005MPS CAVOK M16/M18 Q1023 R22/820560 NOSIG RMK QFE764/1019,UARR,2015-02-21T06:30:00Z,51.15,51.53,-16.0,-18.0,210,10,,6.21,30.206694,,,,,,TRUE,,,,,CAVOK,,,,,,,,VFR,,,,,,,,,,,,METAR,38.0
UATE 210630Z 04009MPS CAVOK M02/M12 Q1024 R12/0///70 NOSIG RMK QFE766/1021,UATE,2015-02-21T06:30:00Z,43.87,51.1,-2.0,-12.0,40,17,,6.21,30.236221,,,,,,TRUE,,,,,CAVOK,,,,,,,,VFR,,,,,,,,,,,,METAR,22.0
UATG 210630Z 02001MPS 5000 BR NSC M12/M14 Q1029 R14/CLRD70 NOSIG RMK QFE774/1032,UATG,2015-02-21T06:30:00Z,47.12,51.83,-12.0,-14.0,20,2,,3.11,30.383858,,,,,,TRUE,,,,BR,,,,,,,,,,,,,,,,,,,,,METAR,-22.0
UATT 210630Z 16001MPS CAVOK M16/M20 Q1024 R13/0///60 NOSIG RMK QFE748/0998,UATT,2015-02-21T06:30:00Z,50.25,57.2,-16.0,-20.0,160,2,,6.21,30.236221,,,,,,TRUE,,,,,CAVOK,,,,,,,,VFR,,,,,,,,,,,,METAR,227.0
UAUU 210630Z 23004MPS 9999 BKN042 OVC070 M10/M14 Q1011 R15/450160 NOSIG RMK QFE742/0990,UAUU,2015-02-21T06:30:00Z,53.2,63.55,-10.0,-14.0,230,8,,6.21,29.852362,,,,,,TRUE,,,,,BKN,4200,OVC,7000,,,,,VFR,,,,,,,,,,,,METAR,182.0
ZBAA 210630Z 23003MPS 190V320 1100 R01/1000N R36R/0800N R36L/1200N BR NSC 02/M00 Q1014 BECMG TL0750 31011G18MPS 3500,ZBAA,2015-02-21T06:30:00Z,40.07,116.58,2.0,0.0,230,6,,0.68,29.940945,,,,,,,,,,BR,,,,,,,,,,,,,,,,,,,,,METAR,30.0
ZBTJ 210630Z 23003MPS 200V270 1100 R16R/1200N BR OVC010 03/01 Q1014 NOSIG,ZBTJ,2015-02-21T06:30:00Z,39.12,117.35,3.0,1.0,230,6,,0.68,29.940945,,,,,,TRUE,,,,BR,OVC,1000,,,,,,,LIFR,,,,,,,,,,,,METAR,3.0
ZBYN 210630Z 18002MPS 1800 R31/1200V1600U HZ NSC 04/M04 Q1016 BECMG TL0730 33006MPS 8000,ZBYN,2015-02-21T06:30:00Z,37.77,112.63,4.0,-4.0,180,4,,1.12,30.0,,,,,,,,,,HZ,,,,,,,,,,,,,,,,,,,,,METAR,779.0
ZGGG 210630Z 00000MPS 4500 BR OVC017 23/19 Q1013 NOSIG,ZGGG,2015-02-21T06:30:00Z,23.4,113.3,23.0,19.0,0,0,,2.8,29.911417,,,,,,TRUE,,,,BR,OVC,1700,,,,,,,IFR,,,,,,,,,,,,METAR,15.0
ZSHC 210630Z VRB01MPS 9999 FEW011 BKN023 10/05 Q1017 NOSIG,ZSHC,2015-02-21T06:30:00Z,30.22,120.43,10.0,5.0,0,2,,6.21,30.029528,,,,,,TRUE,,,,,FEW,1100,BKN,2300,,,,,MVFR,,,,,,,,,,,,METAR,43.0
ZSPD 210630Z 29004MPS 2500 BR BKN011 BKN033 11/08 Q1015 NOSIG,ZSPD,2015-02-21T06:30:00Z,31.15,121.8,11.0,8.0,290,8,,1.55,29.970472,,,,,,TRUE,,,,BR,BKN,1100,BKN,3300,,,,,IFR,,,,,,,,,,,,METAR,4.0
ZSSS 210630Z 28004MPS 5000 BR BKN013 OVC040 10/08 Q1016 NOSIG,ZSSS,2015-02-21T06:30:00Z,31.2,121.33,10.0,8.0,280,8,,3.11,30.0,,,,,,TRUE,,,,BR,BKN,1300,OVC,4000,,,,,MVFR,,,,,,,,,,,,METAR,7.0
ZWWW 210630Z 04002MPS 360V080 CAVOK M05/M12 Q1023 NOSIG,ZWWW,2015-02-21T06:30:00Z,43.88,87.47,-5.0,-12.0,40,4,,6.21,30.206694,,,,,,TRUE,,,,,CAVOK,,,,,,,,VFR,,,,,,,,,,,,METAR,654.0
ZYTL 210630Z 30003MPS 270V330 6000 FEW026 05/01 Q1013 NOSIG,ZYTL,2015-02-21T06:30:00Z,38.97,121.53,5.0,1.0,300,6,,3.73,29.911417,,,,,,TRUE,,,,,FEW,2600,,,,,,,MVFR,,,,,,,,,,,,METAR,97.0
ZYTX 210630Z 21003MPS 180V240 9999 SCT040 05/02 Q1010 NOSIG,ZYTX,2015-02-21T06:30:00Z,41.63,123.48,5.0,2.0,210,6,,6.21,29.822834,,,,,,TRUE,,,,,SCT,4000,,,,,,,VFR,,,,,,,,,,,,METAR,35.0
OIKK 210630Z 21012G25KT 5000 SA FEW035CB FEW040 BKN100 14/02 Q1011 A2988,OIKK,2015-02-21T06:30:00Z,30.25,56.97,14.0,2.0,210,12,25,3.11,29.852362,,,,,,,,,,SA,FEW,3500,FEW,4000,BKN,10000,,,MVFR,,,,,,,,,,,,METAR,1754.0
YMML 210630Z 19018G30KT 9999 -TSRA FEW025 SCT105 FEW100CB 33/08 Q1010 FM0645 15010KT 9999 -SHRA FEW025 BKN100 FM0800 03007KT CAVOK INTER 0630/0700 4000 TSRA SCT020 SCT100CB INTER 0700/0830 4000 SHRA SCT100,YMML,2015-02-21T06:30:00Z,-37.67,144.82,33.0,8.0,190,18,30,6.21,29.822834,,,,,,,,,,-TSRA,FEW,2500,SCT,10500,FEW,10000,,,VFR,,,,,,,,,,,,SPECI,141.0
RJAA 210630Z 12010KT 080V150 9999 FEW030 SCT040 07/M02 Q1027 NOSIG RMK 1CU030 4SC040 A3034,RJAA,2015-02-21T06:30:00Z,35.77,140.37,7.0,-2.0,120,10,,6.21,30.324802,,,,,,TRUE,,,,,FEW,3000,SCT,4000,,,,,VFR,,,,,,,,,,,,METAR,44.0
RJCC 210630Z 18008KT CAVOK 01/M08 Q1027 RMK A3033,RJCC,2015-02-21T06:30:00Z,42.77,141.67,1.0,-8.0,180,8,,6.21,30.324802,,,,,,,,,,,CAVOK,,,,,,,,VFR,,,,,,,,,,,,METAR,30.0
RJFF 210630Z 14006KT 9999 -RA FEW030 SCT050 BKN060 10/05 Q1019 RMK 1CU030 4SC050 6SC060 A3011,RJFF,2015-02-21T06:30:00Z,33.57,130.43,10.0,5.0,140,6,,6.21,30.088583,,,,,,,,,,-RA,FEW,3000,SCT,5000,BKN,6000,,,VFR,,,,,,,,,,,,METAR,12.0
RJTT 210630Z 08008KT 9999 FEW030 BKN/// 09/00 Q1026 NOSIG,RJTT,2015-02-21T06:30:00Z,35.53,139.77,9.0,0.0,80,8,,6.21,30.295275,,,,,,TRUE,,,,,FEW,3000,,,,,,,VFR,,,,,,,,,,,,SPECI,8.0
ROAH 210630Z 18016KT 9999 FEW035 SCT040 21/11 Q1018 RMK 1CU035 3SC040 A3007,ROAH,2015-02-21T06:30:00Z,26.17,127.65,21.0,11.0,180,16,,6.21,30.059055,,,,,,,,,,,FEW,3500,SCT,4000,,,,,VFR,,,,,,,,,,,,METAR,8.0
UTDD 210630Z VRB02MPS 9999 -SHRA SCT066CB BKN081 OVC094 10/06 Q1016 R09/29//50 NOSIG RMK QFE694/0925,UTDD,2015-02-21T06:30:00Z,38.53,68.82,10.0,6.0,0,4,,6.21,30.0,,,,,,TRUE,,,,-SHRA,SCT,6600,BKN,8100,OVC,9400,,,VFR,,,,,,,,,,,,METAR,803.0
UTDK 210630Z 19005MPS 9999 BKN040CB OVC100 14/08 Q1014 01CLRD70 RMK QFE703/0937,UTDK,2015-02-21T06:30:00Z,37.98,69.8,14.0,8.0,190,10,,6.21,29.940945,,,,,,,,,,,BKN,4000,OVC,10000,,,,,VFR,,,,,,,,,,,,METAR,699.0
UTDT 210630Z 29005MPS 9999 -RA SCT066 OVC100 14/08 Q1013 3519//60 RMK QFE720/0961,UTDT,2015-02-21T06:30:00Z,37.87,68.87,14.0,8.0,290,10,,6.21,29.911417,,,,,,,,,,-RA,SCT,6600,OVC,10000,,,,,VFR,,,,,,,,,,,,METAR,449.0
UTDL 210630Z 05003MPS 5000 BR FEW070CB SCT100 OVC200 08/02 Q1014 NOSIG RMK QFE721/0962 88CLRD70,UTDL,2015-02-21T06:30:00Z,40.22,69.7,8.0,2.0,50,6,,3.11,29.940945,,,,,,TRUE,,,,BR,FEW,7000,SCT,10000,OVC,20000,,,MVFR,,,,,,,,,,,,METAR,442.0
UCFM 210630Z 27004MPS CAVOK 05/M00 Q1017 R08/CLRD70 NOSIG,UCFM,2015-02-21T06:30:00Z,43.07,74.48,5.0,0.0,270,8,,6.21,30.029528,,,,,,TRUE,,,,,CAVOK,,,,,,,,VFR,,,,,,,,,,,,METAR,633.0
UCFO 210630Z VRB01MPS 6000 BKN100 10/04 Q1013 R12/CLRD70 NOSIG,UCFO,2015-02-21T06:30:00Z,40.6,72.8,10.0,4.0,0,2,,3.73,29.911417,,,,,,TRUE,,,,,BKN,10000,,,,,,,MVFR,,,,,,,,,,,,METAR,884.0
DTNH 210630Z AUTO 00000KT 9999NDV FEW013 SCT020 BKN025 12/10 Q1012,DTNH,2015-02-21T06:30:00Z,36.07,10.43,12.0,10.0,0,0,,,29.88189,,,TRUE,,,,,,,,FEW,1300,SCT,2000,BKN,2500,,,,,,,,,,,,,,,METAR,2.0
DAAG 210630Z 00000KT 1200 R23/P2000D R09/P2000N BR FEW026 SCT040 BKN080 10/09 Q1011,DAAG,2015-02-21T06:30:00Z,36.72,3.22,10.0,9.0,0,0,,0.75,29.852362,,,,,,,,,,BR,FEW,2600,SCT,4000,BKN,8000,,,LIFR,,,,,,,,,,,,METAR,25.0
DABB 210630Z 24005KT 9999 FEW026 BKN040 09/08 Q1009,DABB,2015-02-21T06:30:00Z,36.82,7.82,9.0,8.0,240,5,,6.21,29.793306,,,,,,,,,,,FEW,2600,BKN,4000,,,,,VFR,,,,,,,,,,,,METAR,4.0
DABC 210630Z 00000KT 8000 2000NW FEW030 BKN050 05/04 Q1010,DABC,2015-02-21T06:30:00Z,36.27,6.62,5.0,4.0,0,0,,4.97,29.822834,,,,,,,,,,,FEW,3000,BKN,5000,,,,,MVFR,,,,,,,,,,,,METAR,694.0
DAON 210630Z 00000KT 9999 FEW010 BKN026 09/08 Q1013,DAON,2015-02-21T06:30:00Z,35.02,-1.47,9.0,8.0,0,0,,6.21,29.911417,,,,,,,,,,,FEW,1000,BKN,2600,,,,,MVFR,,,,,,,,,,,,METAR,247.0
DAOO 210630Z 23009KT 9000 -RA FEW016 SCT020 BKN100 09/09 Q1013,DAOO,2015-02-21T06:30:00Z,35.62,-0.6,9.0,9.0,230,9,,5.59,29.911417,,,,,,,,,,-RA,FEW,1600,SCT,2000,BKN,10000,,,VFR,,,,,,,,,,,,METAR,90.0
DAUH 210630Z 09008KT 7000 SCT040 SCT100 10/08 Q1009,DAUH,2015-02-21T06:30:00Z,31.67,6.15,10.0,8.0,90,8,,4.35,29.793306,,,,,,,,,,,SCT,4000,SCT,10000,,,,,MVFR,,,,,,,,,,,,METAR,142.0
DTTA 210630Z 12006KT 090V160 8000 -RA SCT023 12/11 Q1012 NOSIG,DTTA,2015-02-21T06:30:00Z,36.85,10.22,12.0,11.0,120,6,,4.97,29.88189,,,,,,TRUE,,,,-RA,SCT,2300,,,,,,,MVFR,,,,,,,,,,,,METAR,4.0
DTTJ 210630Z 17009KT 8000 FEW026 14/08 Q1011 NOSIG,DTTJ,2015-02-21T06:30:00Z,33.87,10.77,14.0,8.0,170,9,,4.97,29.852362,,,,,,TRUE,,,,,FEW,2600,,,,,,,MVFR,,,,,,,,,,,,METAR,4.0
LFLW 210630Z AUTO VRB02KT 2500 -SN BR FEW006 SCT018 00/M01 Q1003,LFLW,2015-02-21T06:30:00Z,44.88,2.42,0.0,-1.0,0,2,,1.55,29.616142,,,TRUE,,,,,,,-SN BR,FEW,600,SCT,1800,,,,,IFR,,,,,,,,,,,,METAR,639.0
LFQG 210630Z AUTO 23004KT 200V260 9999 BKN009 BKN015 OVC020 04/03 Q1003,LFQG,2015-02-21T06:30:00Z,47.0,3.1,4.0,3.0,230,4,,6.21,29.616142,,,TRUE,,,,,,,,BKN,900,BKN,1500,OVC,2000,,,IFR,,,,,,,,,,,,METAR,181.0
UKLR 210630Z 16004MPS 120V190 3500 BR BKN100 00/M02 Q1012 NOSIG,UKLR,2015-02-21T06:30:00Z,50.6,26.13,0.0,-2.0,160,8,,2.17,29.88189,,,,,,TRUE,,,,BR,BKN,10000,,,,,,,IFR,,,,,,,,,,,,METAR,230.0
UKKK 210630Z 21003MPS 190V250 4500 BR OVC005 02/01 Q1016 26290250 TEMPO OVC004,UKKK,2015-02-21T06:30:00Z,50.4,30.45,2.0,1.0,210,6,,2.8,30.0,,,,,,,,,,BR,OVC,500,,,,,,,IFR,,,,,,,,,,,,SPECI,179.0
UKLN 210630Z 10004MPS 2000 BR BKN003 00/M00 Q1014 15////// NOSIG,UKLN,2015-02-21T06:30:00Z,48.27,25.98,0.0,0.0,100,8,,1.24,29.940945,,,,,,TRUE,,,,BR,BKN,300,,,,,,,LIFR,,,,,,,,,,,,SPECI,252.0
UMGG 210630Z 19005MPS 5000 BR NSC 01/M00 Q1014 R10/290050 NOSIG,UMGG,2015-02-21T06:30:00Z,52.53,31.02,1.0,0.0,190,10,,3.11,29.940945,,,,,,TRUE,,,,BR,,,,,,,,,,,,,,,,,,,,,SPECI,144.0
UMMG 210630Z 17004MPS 4100 BR NSC M01/M02 Q1009 R17/CLRD// NOSIG,UMMG,2015-02-21T06:30:00Z,53.6,24.05,-1.0,-2.0,170,8,,2.55,29.793306,,,,,,TRUE,,,,BR,,,,,,,,,,,,,,,,,,,,,SPECI,135.0
UMMM 210630Z 22001MPS 3000 BR NSC M03/M03 Q1010 R30/390030 TEMPO 2000 RMK QFE738,UMMM,2015-02-21T06:30:00Z,53.87,27.52,-3.0,-3.0,220,2,,1.86,29.822834,,,,,,,,,,BR,,,,,,,,,,,,,,,,,,,,,SPECI,234.0
HRYR 210630Z 09005KT 9999 BKN025 17/17 Q1020 NOSIG,HRYR,2015-02-21T06:30:00Z,-1.97,30.12,17.0,17.0,90,5,,6.21,30.11811,,,,,,TRUE,,,,,BKN,2500,,,,,,,MVFR,,,,,,,,,,,,SPECI,1497.0
LQMO 210630Z VRB02KT 9999 BKN039 M00/M03 Q1017,LQMO,2015-02-21T06:30:00Z,43.28,17.83,0.0,-3.0,0,2,,6.21,30.029528,,,,,,,,,,,BKN,3900,,,,,,,VFR,,,,,,,,,,,,METAR,48.0
UMMS 210630Z 00000MPS 3500 BR NSC M02/M03 Q1011 R31/CLRD// NOSIG,UMMS,2015-02-21T06:30:00Z,53.88,28.03,-2.0,-3.0,0,0,,2.17,29.852362,,,,,,TRUE,,,,BR,,,,,,,,,,,,,,,,,,,,,SPECI,205.0
LWSK 210630Z 00000KT CAVOK M03/M06 Q1020 NOSIG,LWSK,2015-02-21T06:30:00Z,41.97,21.63,-3.0,-6.0,0,0,,6.21,30.11811,,,,,,TRUE,,,,,CAVOK,,,,,,,,VFR,,,,,,,,,,,,METAR,239.0
UBBN 210630Z 21004KT 9999 OVC036 M01/M03 Q1010 R14R/190050 NOSIG RMK MT OP QFE683,UBBN,2015-02-21T06:30:00Z,39.18,45.45,-1.0,-3.0,210,4,,6.21,29.822834,,,,,,TRUE,,,,,OVC,3600,,,,,,,VFR,,,,,,,,,,,,METAR,873.0
GQNN 210630Z 03011KT 6000 NSC 14/06 Q1016 NOSIG,GQNN,2015-02-21T06:30:00Z,18.1,-15.93,14.0,6.0,30,11,,3.73,30.0,,,,,,TRUE,,,,,,,,,,,,,,,,,,,,,,,,,SPECI,3.0
WAMM 210630Z 33008KT 280V010 9000 SCT021 30/22 Q1011 NOSIG,WAMM,2015-02-21T06:30:00Z,1.55,124.92,30.0,22.0,330,8,,5.59,29.852362,,,,,,TRUE,,,,,SCT,2100,,,,,,,VFR,,,,,,,,,,,,METAR,80.0
ZMUB 210630Z 34011MPS 8000NW -SN BLSN FEW027 SCT033 SCT080 M20/M25 Q1019 NOSIG RMK QFE656.7 61 ESE CM NW MO,ZMUB,2015-02-21T06:30:00Z,47.83,106.78,-20.0,-25.0,340,21,,4.97,30.088583,,,,,,TRUE,,,,-SN BLSN,FEW,2700,SCT,3300,SCT,8000,,,MVFR,,,,,,,,,,,,SPECI,1330.0
FMMI 210630Z VRB03KT 9999 SCT020 BKN230 25/24 Q1019 NOSIG,FMMI,2015-02-21T06:30:00Z,-18.8,47.47,25.0,24.0,0,3,,6.21,30.088583,,,,,,TRUE,,,,,SCT,2000,BKN,23000,,,,,VFR,,,,,,,,,,,,METAR,1276.0
KCVH 210630Z AUTO 08003KT 8SM CLR 11/11 A2998 RMK AO1,KCVH,2015-02-21T06:30:00Z,36.9,-121.42,11.0,11.0,80,3,,8.0,29.97933,,,TRUE,TRUE,,,,,,,CLR,,,,,,,,VFR,,,,,,,,,,,,METAR,70.0
RJGG 210630Z 11013KT 9999 FEW030 SCT/// 11/04 Q1025 NOSIG,RJGG,2015-02-21T06:30:00Z,34.87,136.8,11.0,4.0,110,13,,6.21,30.265747,,,,,,TRUE,,,,,FEW,3000,,,,,,,VFR,,,,,,,,,,,,SPECI,5.0
RJBB 210630Z 29008KT 9999 FEW030 SCT140 BKN/// 10/M00 Q1024 NOSIG,RJBB,2015-02-21T06:30:00Z,34.42,135.25,10.0,0.0,290,8,,6.21,30.236221,,,,,,TRUE,,,,,FEW,3000,SCT,14000,,,,,VFR,,,,,,,,,,,,SPECI,8.0
KRGK 210630Z AUTO 00000KT 7SM OVC025 M07/M08 A2984 RMK AO2,KRGK,2015-02-21T06:30:00Z,44.58,-92.48,-7.0,-8.0,0,0,,7.0,29.840551,,,TRUE,TRUE,,,,,,,OVC,2500,,,,,,,MVFR,,,,,,,,,,,,METAR,239.0
KEDJ 210630Z AUTO 16012KT 7SM BKN015 OVC024 M09/M14 A3004 RMK AO1,KEDJ,2015-02-21T06:30:00Z,40.37,-83.82,-9.0,-14.0,160,12,,7.0,30.041338,,,TRUE,TRUE,,,,,,,BKN,1500,OVC,2400,,,,,MVFR,,,,,,,,,,,,METAR,342.0
KAMN 210630Z AUTO 19006KT 10SM OVC065 M10/M14 A2999 RMK AO2 T11001140,KAMN,2015-02-21T06:30:00Z,43.32,-84.68,-10.0,-14.0,190,6,,10.0,29.991142,,,TRUE,TRUE,,,,,,,OVC,6500,,,,,,,VFR,,,,,,,,,,,,METAR,230.0
KSTK 210630Z AUTO 34005KT 10SM SCT120 00/M02 A2994 RMK AO2,KSTK,2015-02-21T06:30:00Z,40.62,-103.27,0.0,-2.0,340,5,,10.0,29.940945,,,TRUE,TRUE,,,,,,,SCT,12000,,,,,,,VFR,,,,,,,,,,,,METAR,1231.0
DAAT 210630Z 16018KT 9999 -RA FEW040CB BKN046 12/10 Q1017,DAAT,2015-02-21T06:30:00Z,22.82,5.47,12.0,10.0,160,18,,6.21,30.029528,,,,,,,,,,-RA,FEW,4000,BKN,4600,,,,,VFR,,,,,,,,,,,,METAR,1377.0
VVPQ 210630Z 11010KT 080V150 9999 SCT017 29/21 Q1012 NOSIG,VVPQ,2015-02-21T06:30:00Z,10.23,103.97,29.0,21.0,110,10,,6.21,29.88189,,,,,,TRUE,,,,,SCT,1700,,,,,,,VFR,,,,,,,,,,,,METAR,4.0
VVCT 210630Z 13010KT 9999 BKN015 30/20 Q1012 NOSIG,VVCT,2015-02-21T06:30:00Z,10.08,105.72,30.0,20.0,130,10,,6.21,29.88189,,,,,,TRUE,,,,,BKN,1500,,,,,,,MVFR,,,,,,,,,,,,METAR,3.0
VVCR 210630Z 10008KT 9999 FEW015 29/22 Q1013 NOSIG,VVCR,2015-02-21T06:30:00Z,12.0,109.22,29.0,22.0,100,8,,6.21,29.911417,,,,,,TRUE,,,,,FEW,1500,,,,,,,VFR,,,,,,,,,,,,METAR,12.0
VVPB 210630Z 02005KT CAVOK 27/23 Q1011 NOSIG,VVPB,2015-02-21T06:30:00Z,16.38,107.7,27.0,23.0,20,5,,6.21,29.852362,,,,,,TRUE,,,,,CAVOK,,,,,,,,VFR,,,,,,,,,,,,METAR,17.0
VVDN 210630Z 11010KT 8000 FEW015 29/22 Q1011 NOSIG,VVDN,2015-02-21T06:30:00Z,16.02,108.2,29.0,22.0,110,10,,4.97,29.852362,,,,,,TRUE,,,,,FEW,1500,,,,,,,MVFR,,,,,,,,,,,,METAR,7.0
VVNB 210630Z 09010KT 9999 FEW020 BKN200 27/20 Q1011 NOSIG,VVNB,2015-02-21T06:30:00Z,21.22,105.8,27.0,20.0,90,10,,6.21,29.852362,,,,,,TRUE,,,,,FEW,2000,BKN,20000,,,,,VFR,,,,,,,,,,,,METAR,12.0
VVTS 210630Z 17010G25KT 030V200 9999 SCT020 SCT050 32/20 Q1011 NOSIG,VVTS,2015-02-21T06:30:00Z,10.82,106.67,32.0,20.0,170,10,25,6.21,29.852362,,,,,,TRUE,,,,,SCT,2000,SCT,5000,,,,,VFR,,,,,,,,,,,,METAR,19.0
KMWS 210630Z 23500G00KT MM/M02 RMK SNOW DEPTH 2.00,KMWS,2015-02-21T06:30:00Z,34.23,-118.05,,,235,0,0,,,,,,,,,,,,,,,,,,,,,,,,,,,,,,,,,METAR,1739.0
VDSR 210630Z 16006KT 100V230 9999 SCT015 BKN040 33/22 Q1009,VDSR,2015-02-21T06:30:00Z,13.42,103.83,33.0,22.0,160,6,,6.21,29.793306,,,,,,,,,,,SCT,1500,BKN,4000,,,,,VFR,,,,,,,,,,,,METAR,15.0
VDPP 210630Z 19006KT 140V250 9999 SCT017 32/21 Q1010,VDPP,2015-02-21T06:30:00Z,11.55,104.83,32.0,21.0,190,6,,6.21,29.822834,,,,,,,,,,,SCT,1700,,,,,,,VFR,,,,,,,,,,,,METAR,10.0
VYYY 210630Z 10003KT 9000 R21/2000N NSC 33/15 Q1011 NOSIG,VYYY,2015-02-21T06:30:00Z,16.9,96.13,33.0,15.0,100,3,,5.59,29.852362,,,,,,TRUE,,,,,,,,,,,,,,,,,,,,,,,,,SPECI,33.0
VLVT 210630Z 18002KT 8000 SCT020 30/23 Q1011 NOSIG,VLVT,2015-02-21T06:30:00Z,17.98,102.57,30.0,23.0,180,2,,4.97,29.852362,,,,,,TRUE,,,,,SCT,2000,,,,,,,MVFR,,,,,,,,,,,,METAR,171.0
VTSP 210630Z 07008KT 350V130 9999 FEW020 SCT300 32/21 Q1010 A2983 NOSIG,VTSP,2015-02-21T06:30:00Z,8.12,98.32,32.0,21.0,70,8,,6.21,29.822834,,,,,,TRUE,,,,,FEW,2000,SCT,30000,,,,,VFR,,,,,,,,,,,,METAR,10.0
VTSS 210630Z 07009KT 9999 FEW020 SCT120 BKN300 32/25 Q1010 A2983 NOSIG,VTSS,2015-02-21T06:30:00Z,6.92,100.38,32.0,25.0,70,9,,6.21,29.822834,,,,,,TRUE,,,,,FEW,2000,SCT,12000,BKN,30000,,,VFR,,,,,,,,,,,,METAR,35.0
VTBU 210630Z 24012KT 8000 FEW020 SCT300 30/22 Q1011 A2988,VTBU,2015-02-21T06:30:00Z,12.68,101.0,30.0,22.0,240,12,,4.97,29.852362,,,,,,,,,,,FEW,2000,SCT,30000,,,,,MVFR,,,,,,,,,,,,METAR,5.0
VTCC 210630Z 14003KT 9999 FEW040 31/09 Q1013 A2993 NOSIG,VTCC,2015-02-21T06:30:00Z,18.77,98.97,31.0,9.0,140,3,,6.21,29.911417,,,,,,TRUE,,,,,FEW,4000,,,,,,,VFR,,,,,,,,,,,,METAR,314.0
VTBD 210630Z 19006KT 120V240 9999 FEW020 SCT120 BKN300 31/23 Q1011 NOSIG,VTBD,2015-02-21T06:30:00Z,13.92,100.6,31.0,23.0,190,6,,6.21,29.852362,,,,,,TRUE,,,,,FEW,2000,SCT,12000,BKN,30000,,,VFR,,,,,,,,,,,,METAR,3.0
VTBS 210630Z 19009KT 9999 FEW020 BKN300 32/20 Q1011 NOSIG,VTBS,2015-02-21T06:30:00Z,13.68,100.75,32.0,20.0,190,9,,6.21,29.852362,,,,,,TRUE,,,,,FEW,2000,BKN,30000,,,,,VFR,,,,,,,,,,,,METAR,2.0
KSYM 210630Z AUTO VRB06KT 120V180 10SM OVC018 M04/M13 A3009 RMK AO2,KSYM,2015-02-21T06:30:00Z,38.22,-83.58,-4.0,-13.0,0,6,,10.0,30.088583,,,TRUE,TRUE,,,,,,,OVC,1800,,,,,,,MVFR,,,,,,,,,,,,METAR,313.0
KSQL 210630Z AUTO 17003KT 10SM CLR 12/09 A2999 RMK AO2,KSQL,2015-02-21T06:30:00Z,37.52,-122.25,12.0,9.0,170,3,,10.0,29.991142,,,TRUE,TRUE,,,,,,,CLR,,,,,,,,VFR,,,,,,,,,,,,METAR,1.0
KSGS 210630Z AUTO 00000KT 10SM OVC020 M05/M07 A2985 RMK AO2 T10501073,KSGS,2015-02-21T06:30:00Z,44.87,-93.03,-5.0,-7.3,0,0,,10.0,29.84941,,,TRUE,TRUE,,,,,,,OVC,2000,,,,,,,MVFR,,,,,,,,,,,,METAR,250.0
KMDS 210630Z AUTO 03008KT 5SM BR OVC004 M04/M04 A2986 RMK AO2,KMDS,2015-02-21T06:30:00Z,44.02,-97.08,-4.0,-4.0,30,8,,5.0,29.861221,,,TRUE,TRUE,,,,,,BR,OVC,400,,,,,,,LIFR,,,,,,,,,,,,METAR,524.0
EHEH 210629Z AUTO 23007KT 5000 BR FEW004 02/02 Q0997 WHT 25007KT 8000 SCT007 SCT012 BKN018 TEMPO 3000 -RADZ BR SCT004 BKN007 OVC015,EHEH,2015-02-21T06:29:00Z,51.45,5.38,2.0,2.0,230,7,,3.11,29.438976,,,TRUE,,,,,,,BR,FEW,400,SCT,700,SCT,1200,BKN,1800,MVFR,,,,,,,,,,,,METAR,22.0
CYKL 210629Z AUTO 33013G22KT 6SM HZ BKN100 BKN120 M21/M23 A2947 RMK PRESRR SLP034,CYKL,2015-02-21T06:29:00Z,54.78,-66.82,-21.0,-23.0,330,13,22,6.0,29.471457,1003.4,,TRUE,,,,,,,HZ,BKN,10000,BKN,12000,,,,,VFR,,,,,,,,,,,,SPECI,521.0
CYXD 210629Z AUTO 06009KT 2SM -SN FEW012 OVC019 M07/M10 A3028,CYXD,2015-02-21T06:29:00Z,53.57,-113.52,-7.0,-10.0,60,9,,2.0,30.280512,,,TRUE,,,,,,,-SN,FEW,1200,OVC,1900,,,,,IFR,,,,,,,,,,,,SPECI,671.0
RJFK 210629Z 12008KT 9999 VCVA -RA FEW030 SCT050 BKN090 12/05 Q1020 RMK 1CU030 3SC050 7AC090 A3013 ASH FALL VOLCANIC ASH CLOUD S-SW,RJFK,2015-02-21T06:29:00Z,31.8,130.72,12.0,5.0,120,8,,6.21,30.11811,,,,,,,,,,VCVA -RA,FEW,3000,SCT,5000,BKN,9000,,,VFR,,,,,,,,,,,,SPECI,275.0
KWRL 210629Z AUTO 21006KT 1SM -SN BR VV018 01/M01 A2996 RMK AO2 SNB15 P0001 T00061006,KWRL,2015-02-21T06:29:00Z,43.97,-107.95,0.6,-0.6,210,6,,1.0,29.958662,,,TRUE,TRUE,,,,,,-SN BR,OVX,0,,,,,,,LIFR,,,,,,0.01,,,,,1800,SPECI,1271.0
KMLS 210629Z AUTO 34012KT 10SM BKN021 OVC048 M02/M06 A3003 RMK AO2 T10221056,KMLS,2015-02-21T06:29:00Z,46.43,-105.88,-2.2,-5.6,340,12,,10.0,30.029528,,,TRUE,TRUE,,,,,,,BKN,2100,OVC,4800,,,,,MVFR,,,,,,,,,,,,SPECI,801.0
KMDH 210629Z AUTO 15006KT 4SM FZRA BR OVC012 M01/M02 A2993 RMK AO2 UPB08E17FZRAE08B17 P0011 I1003 T10061022,KMDH,2015-02-21T06:29:00Z,37.78,-89.25,-0.6,-2.2,150,6,,4.0,29.929134,,,TRUE,TRUE,,,,,,FZRA BR,OVC,1200,,,,,,,MVFR,,,,,,0.11,,,,,,SPECI,130.0
KGTF 210629Z 02012KT 4SM -SN BR FEW010 BKN017 OVC023 M04/M06 A3016 RMK AO2 P0000,KGTF,2015-02-21T06:29:00Z,47.47,-111.38,-4.0,-6.0,20,12,,4.0,30.159449,,,,TRUE,,,,,,-SN BR,FEW,1000,BKN,1700,OVC,2300,,,MVFR,,,,,,0.0050,,,,,,SPECI,1119.0
KAEX 210629Z 17009KT 10SM SCT022 BKN065 OVC085 17/14 A2995 RMK AO2 T01720139,KAEX,2015-02-21T06:29:00Z,31.33,-92.57,17.2,13.9,170,9,,10.0,29.949802,,,,TRUE,,,,,,,SCT,2200,BKN,6500,OVC,8500,,,VFR,,,,,,,,,,,,SPECI,27.0
PABI 210629Z 10017G27KT 10SM FEW100 SCT200 M03/M08 A3010 RMK AO2 PK WND 11028/0619 LAST T10281078,PABI,2015-02-21T06:29:00Z,64.0,-145.73,-2.8,-7.8,100,17,27,10.0,30.100393,,,,TRUE,,,,,,,FEW,10000,SCT,20000,,,,,VFR,,,,,,,,,,,,METAR,386.0
KCDD 210629Z AUTO 00000KT 10SM OVC038 M13/M15 A2987 RMK AO2,KCDD,2015-02-21T06:29:00Z,48.27,-92.48,-13.0,-15.0,0,0,,10.0,29.870079,,,TRUE,TRUE,,,,,,,OVC,3800,,,,,,,VFR,,,,,,,,,,,,METAR,341.0
KQAJ 210628Z 28005KT 1200 BLDU SKC 14/M03 A2995 RMK DU BKN005 SLP144,KQAJ,2015-02-21T06:28:00Z,100.65,-1000.65,14.0,-3.0,280,5,,0.75,29.949802,1014.4,,,,,,,,,BLDU,SKC,,,,,,,,LIFR,,,,,,,,,,,,SPECI,999.0
KNLC 210628Z AUTO 18003KT BKN003 OVC007 08/06 A3002 RMK AO2 T00780061 RVRNO $,KNLC,2015-02-21T06:28:00Z,36.32,-119.95,7.8,6.1,180,3,,,30.02067,,,TRUE,TRUE,TRUE,,,,,,BKN,300,OVC,700,,,,,,,,,,,,,,,,,SPECI,72.0
KDEC 210628Z AUTO 19005KT 1SM -SN BR SCT013 OVC022 M07/M08 A2995 RMK AO2 P0000 T10671083 TSNO,KDEC,2015-02-21T06:28:00Z,39.83,-88.85,-6.7,-8.3,190,5,,1.0,29.949802,,,TRUE,TRUE,,,TRUE,,,-SN BR,SCT,1300,OVC,2200,,,,,IFR,,,,,,0.0050,,,,,,SPECI,207.0
KFSD 210628Z AUTO 04008KT 2 1/2SM BR OVC004 M02/M02 A2985 RMK AO2 CIG 003V009 T10171022,KFSD,2015-02-21T06:28:00Z,43.58,-96.75,-1.7,-2.2,40,8,,2.5,29.84941,,,TRUE,TRUE,,,,,,BR,OVC,400,,,,,,,LIFR,,,,,,,,,,,,SPECI,436.0
KHRO 210628Z AUTO 12006KT 1/4SM FZFG VV002 M01/M01 A2977 RMK AO2 T10061006,KHRO,2015-02-21T06:28:00Z,36.27,-93.15,-0.6,-0.6,120,6,,0.25,29.769686,,,TRUE,TRUE,,,,,,FZFG,OVX,0,,,,,,,LIFR,,,,,,,,,,,200,SPECI,417.0
KSNS 210628Z AUTO 00000KT 2 1/2SM BR BKN004 13/12 A2997 RMK AO2 TSNO,KSNS,2015-02-21T06:28:00Z,36.67,-121.6,13.0,12.0,0,0,,2.5,29.970472,,,TRUE,TRUE,,,TRUE,,,BR,BKN,400,,,,,,,LIFR,,,,,,,,,,,,SPECI,30.0
KSTC 210628Z AUTO 32012KT 10SM SCT017 M08/M12 A2985 RMK AO2 T10831122,KSTC,2015-02-21T06:28:00Z,45.55,-94.05,-8.3,-12.2,320,12,,10.0,29.84941,,,TRUE,TRUE,,,,,,,SCT,1700,,,,,,,VFR,,,,,,,,,,,,SPECI,314.0
KUNO 210628Z AUTO 08004KT 10SM OVC006 M01/M03 A2984 RMK AO2 UPB0557E06FZRAE0557B06E22 CIG 004V010 P0002 I1001 T10111028,KUNO,2015-02-21T06:28:00Z,36.88,-91.9,-1.1,-2.8,80,4,,10.0,29.840551,,,TRUE,TRUE,,,,,,,OVC,600,,,,,,,IFR,,,,,,0.02,,,,,,SPECI,372.0
PAEH 210628Z AUTO 11013KT 10SM CLR 01/01 A2939 RMK AO2 SLP959 PWINO FZRANO TSNO $,PAEH,2015-02-21T06:28:00Z,58.65,-162.07,1.0,1.0,110,13,,10.0,29.388779,995.9,,TRUE,TRUE,TRUE,,TRUE,TRUE,TRUE,,CLR,,,,,,,,VFR,,,,,,,,,,,,METAR,161.0
KBAB 210628Z 12006KT 10SM CLR 09/09 A2996 RMK AO2A,KBAB,2015-02-21T06:28:00Z,39.12,-121.42,9.0,9.0,120,6,,10.0,29.958662,,,,TRUE,,,,,,,CLR,,,,,,,,VFR,,,,,,,,,,,,METAR,34.0
KHZX 210628Z AUTO 31005KT 10SM CLR M10/M12 A2984 RMK AO2,KHZX,2015-02-21T06:28:00Z,46.62,-93.32,-10.0,-12.0,310,5,,10.0,29.840551,,,TRUE,TRUE,,,,,,,CLR,,,,,,,,VFR,,,,,,,,,,,,METAR,374.0
KDEN 210627Z 36005KT 2 1/2SM -SN BR FEW010 SCT017 OVC023 00/M01 A2995 RMK AO2 P0000 T00001011,KDEN,2015-02-21T06:27:00Z,39.85,-104.65,0.0,-1.1,360,5,,2.5,29.949802,,,,TRUE,,,,,,-SN BR,FEW,1000,SCT,1700,OVC,2300,,,IFR,,,,,,0.0050,,,,,,SPECI,1640.0
KCKV 210627Z AUTO 18010G17KT 5SM FZRA BR OVC019 00/M02 A3001 RMK AO2 UPB21E22FZRAE0556B22 P0001 I1002 T00001017,KCKV,2015-02-21T06:27:00Z,36.62,-87.42,0.0,-1.7,180,10,17,5.0,30.008858,,,TRUE,TRUE,,,,,,FZRA BR,OVC,1900,,,,,,,MVFR,,,,,,0.01,,,,,,SPECI,165.0
KBMG 210627Z 14005KT 1 1/4SM -SN BR BKN014 OVC021 M07/M09 A2998 RMK AO2 UPE0557SNB0557 P0003 T10721094 $,KBMG,2015-02-21T06:27:00Z,39.15,-86.62,-7.2,-9.4,140,5,,1.25,29.97933,,,,TRUE,TRUE,,,,,-SN BR,BKN,1400,OVC,2100,,,,,IFR,,,,,,0.03,,,,,,SPECI,257.0
KPOF 210627Z AUTO 11004KT 2 1/2SM FZRA BR SCT004 BKN014 OVC023 M01/M02 A2988 RMK AO2 UPE0557FZRAB0557 P0011 I1004 T10061017,KPOF,2015-02-21T06:27:00Z,36.77,-90.32,-0.6,-1.7,110,4,,2.5,29.878937,,,TRUE,TRUE,,,,,,FZRA BR,SCT,400,BKN,1400,OVC,2300,,,IFR,,,,,,0.11,,,,,,SPECI,99.0
KSNA 210627Z 14005KT 9SM BKN017 BKN250 16/11 A2997 RMK AO2,KSNA,2015-02-21T06:27:00Z,33.67,-117.87,16.0,11.0,140,5,,9.0,29.970472,,,,TRUE,,,,,,,BKN,1700,BKN,25000,,,,,MVFR,,,,,,,,,,,,SPECI,16.0
KSTS 210627Z AUTO 00000KT 1 1/2SM BR CLR 08/08 A2997 RMK AO2,KSTS,2015-02-21T06:27:00Z,38.5,-122.82,8.0,8.0,0,0,,1.5,29.970472,,,TRUE,TRUE,,,,,,BR,CLR,,,,,,,,IFR,,,,,,,,,,,,SPECI,39.0
KTYS 210627Z 14003KT 4SM FZRA BR OVC008 M04/M06 A3024 RMK AO2 P0003 I1002 T10441061,KTYS,2015-02-21T06:27:00Z,35.82,-83.98,-4.4,-6.1,140,3,,4.0,30.239174,,,,TRUE,,,,,,FZRA BR,OVC,800,,,,,,,IFR,,,,,,0.03,,,,,,SPECI,302.0
KUIN 210627Z AUTO 19004KT 1SM -SN BR SCT010 OVC023 M03/M04 A2991 RMK AO2 P0003 T10331044,KUIN,2015-02-21T06:27:00Z,39.95,-91.2,-3.3,-4.4,190,4,,1.0,29.911417,,,TRUE,TRUE,,,,,,-SN BR,SCT,1000,OVC,2300,,,,,IFR,,,,,,0.03,,,,,,SPECI,234.0
PHNG 210627Z AUTO 03009KT BKN029 BKN040 OVC047 21/17 A2997 RMK AO2 T02110167 $,PHNG,2015-02-21T06:27:00Z,21.43,-157.77,21.1,16.7,30,9,,,29.970472,,,TRUE,TRUE,TRUE,,,,,,BKN,2900,BKN,4000,OVC,4700,,,,,,,,,,,,,,,METAR,3.0
KVCT 210627Z AUTO 18016G23KT 9SM OVC014 19/17 A2989 RMK AO2 T01940172 TSNO,KVCT,2015-02-21T06:27:00Z,28.87,-96.93,19.4,17.2,180,16,23,9.0,29.890747,,,TRUE,TRUE,,,TRUE,,,,OVC,1400,,,,,,,MVFR,,,,,,,,,,,,SPECI,31.0
CYXR 210627Z AUTO 17011KT 3SM -SN OVC024 M17/M19 A2998 RMK ICG SLP177,CYXR,2015-02-21T06:27:00Z,47.7,-79.83,-17.0,-19.0,170,11,,3.0,29.97933,1017.7,,TRUE,,,,,,,-SN,OVC,2400,,,,,,,MVFR,,,,,,,,,,,,SPECI,243.0
KCRP 210626Z 17016KT 9SM BKN017 18/17 A2987 RMK AO2 BKN V SCT T01780167,KCRP,2015-02-21T06:26:00Z,27.77,-97.5,17.8,16.7,170,16,,9.0,29.870079,,,,TRUE,,,,,,,BKN,1700,,,,,,,MVFR,,,,,,,,,,,,SPECI,14.0
KHOP 210626Z 17006KT 10SM FZRA OVC018 00/M02 A2999 RMK AO2A,KHOP,2015-02-21T06:26:00Z,36.67,-87.5,0.0,-2.0,170,6,,10.0,29.991142,,,,TRUE,,,,,,FZRA,OVC,1800,,,,,,,MVFR,,,,,,,,,,,,SPECI,174.0
FASB 210626Z 09007KT CAVOK 14/04 Q1019,FASB,2015-02-21T06:26:00Z,-29.68,17.93,14.0,4.0,90,7,,6.21,30.088583,,,,,,,,,,,CAVOK,,,,,,,,VFR,,,,,,,,,,,,SPECI,813.0
KMOT 210626Z AUTO 36013KT 1 3/4SM -SN BR OVC025 M11/M13 A3002 RMK AO2 P0000 T11111133,KMOT,2015-02-21T06:26:00Z,48.25,-101.27,-11.1,-13.3,360,13,,1.75,30.02067,,,TRUE,TRUE,,,,,,-SN BR,OVC,2500,,,,,,,IFR,,,,,,0.0050,,,,,,SPECI,519.0
KMFE 210626Z AUTO 16016G25KT 10SM BKN015 20/17 A2988 RMK AO2 T02000172,KMFE,2015-02-21T06:26:00Z,26.18,-98.25,20.0,17.2,160,16,25,10.0,29.878937,,,TRUE,TRUE,,,,,,,BKN,1500,,,,,,,MVFR,,,,,,,,,,,,SPECI,38.0
KMCK 210626Z AUTO 33008KT 10SM -RA BKN027 OVC036 04/01 A2993 RMK AO2 P0000 T00390011,KMCK,2015-02-21T06:26:00Z,40.2,-100.58,3.9,1.1,330,8,,10.0,29.929134,,,TRUE,TRUE,,,,,,-RA,BKN,2700,OVC,3600,,,,,MVFR,,,,,,0.0050,,,,,,SPECI,782.0
KHTS 210626Z 00000KT 10SM OVC027 M07/M16 A3012 RMK AO2 T10721161,KHTS,2015-02-21T06:26:00Z,38.37,-82.55,-7.2,-16.1,0,0,,10.0,30.121063,,,,TRUE,,,,,,,OVC,2700,,,,,,,MVFR,,,,,,,,,,,,SPECI,254.0
KAPA 210626Z 06003KT 5SM -SN BR FEW031 SCT044 OVC060 M01/M01 A2994 RMK AO2 P0000 T10061011,KAPA,2015-02-21T06:26:00Z,39.57,-104.85,-0.6,-1.1,60,3,,5.0,29.940945,,,,TRUE,,,,,,-SN BR,FEW,3100,SCT,4400,OVC,6000,,,MVFR,,,,,,0.0050,,,,,,SPECI,1775.0
CYAY 210626Z AUTO 20018G28KT 1 3/4SM -SN BKN021 BKN027 OVC032 M07/M10 A2941 RMK SLP962,CYAY,2015-02-21T06:26:00Z,51.38,-56.07,-7.0,-10.0,200,18,28,1.75,29.409449,996.2,,TRUE,,,,,,,-SN,BKN,2100,BKN,2700,OVC,3200,,,IFR,,,,,,,,,,,,SPECI,28.0
EHPG 210625Z AUTO VRB14KT 9999 FEW015/// SCT020/// BKN026/// 05/02 Q0995,EHPG,2015-02-21T06:25:00Z,52.37,3.35,5.0,2.0,0,14,,6.21,29.379921,,,TRUE,,,,,,,,,,,,,,,,,,,,,,,,,,,,METAR,50.0
EHMG 210625Z AUTO 31010KT 240V360 9999 FEW013/// 05/02 Q0993,EHMG,2015-02-21T06:25:00Z,53.62,4.97,5.0,2.0,310,10,,6.21,29.320866,,,TRUE,,,,,,,,,,,,,,,,,,,,,,,,,,,,METAR,50.0
EHMA 210625Z AUTO 31006KT 9999 DZ FEW012/// BKN015/// BKN037/// 04/01 Q0993,EHMA,2015-02-21T06:25:00Z,53.5,5.95,4.0,1.0,310,6,,6.21,29.320866,,,TRUE,,,,,,,DZ,,,,,,,,,,,,,,,,,,,,,METAR,50.0
EHKV 210625Z AUTO VRB14KT 9999 SCT012/// SCT020/// 05/02 Q0994,EHKV,2015-02-21T06:25:00Z,53.27,3.63,5.0,2.0,0,14,,6.21,29.350393,,,TRUE,,,,,,,,,,,,,,,,,,,,,,,,,,,,METAR,50.0
EHJA 210625Z AUTO 28014KT 9999 -RA FEW014/// SCT016/// BKN024/// 05/02 Q0994,EHJA,2015-02-21T06:25:00Z,53.82,2.95,5.0,2.0,280,14,,6.21,29.350393,,,TRUE,,,,,,,-RA,,,,,,,,,,,,,,,,,,,,,METAR,50.0
EHFZ 210625Z AUTO 29010KT 9999 FEW009/// SCT010/// 06/03 Q0993,EHFZ,2015-02-21T06:25:00Z,54.12,4.02,6.0,3.0,290,10,,6.21,29.320866,,,TRUE,,,,,,,,,,,,,,,,,,,,,,,,,,,,METAR,50.0
EHFD 210625Z AUTO 25012KT 9999 FEW022/// SCT032/// BKN037/// 05/01 Q0992 REDZ,EHFD,2015-02-21T06:25:00Z,54.85,4.7,5.0,1.0,250,12,,6.21,29.291338,,,TRUE,,,,,,,,,,,,,,,,,,,,,,,,,,,,METAR,50.0
EHDV 210625Z AUTO 28020KT 9999 FEW014/// SCT017/// BKN035/// 05/02 Q0994,EHDV,2015-02-21T06:25:00Z,54.32,2.93,5.0,2.0,280,20,,6.21,29.350393,,,TRUE,,,,,,,,,,,,,,,,,,,,,,,,,,,,METAR,50.0
EHAK 210625Z AUTO 26002KT 9999 FEW016/// BKN019/// BKN024/// 04/01 Q0992,EHAK,2015-02-21T06:25:00Z,55.42,3.82,4.0,1.0,260,2,,6.21,29.291338,,,TRUE,,,,,,,,,,,,,,,,,,,,,,,,,,,,METAR,50.0
OPLA 210625Z 34006KT 6000 FEW100 12/12 Q1019,OPLA,2015-02-21T06:25:00Z,31.52,74.4,12.0,12.0,340,6,,3.73,30.088583,,,,,,,,,,,FEW,10000,,,,,,,MVFR,,,,,,,,,,,,METAR,217.0
OPKC 210625Z 05012KT 3000 HZ NSC 28/14 Q1017NOSIG,OPKC,2015-02-21T06:25:00Z,24.88,67.17,28.0,14.0,50,12,,1.86,,,,,,,TRUE,,,,HZ,,,,,,,,,,,,,,,,,,,,,METAR,22.0
EHQE 210625Z AUTO 29019KT 9999 FEW014/// SCT041/// BKN047/// 05/02 Q////,EHQE,2015-02-21T06:25:00Z,52.92,4.15,5.0,2.0,290,19,,6.21,,,,TRUE,,,,,,,,,,,,,,,,,,,,,,,,,,,,METAR,50.0
EHFS 210625Z AUTO 27011KT 9999 NSC 05/02 Q0997,EHFS,2015-02-21T06:25:00Z,51.45,3.6,5.0,2.0,270,11,,6.21,29.438976,,,TRUE,,,,,,,,,,,,,,,,,,,,,,,,,,,,METAR,32.0
EBFN 210625Z 22005KT 9000 FEW013 BKN100 02/02 Q0998 BLU,EBFN,2015-02-21T06:25:00Z,51.07,2.63,2.0,2.0,220,5,,5.59,29.468504,,,,,,,,,,,FEW,1300,BKN,10000,,,,,VFR,,,,,,,,,,,,METAR,9.0
EBCV 210625Z AUTO 23006KT 2900 FEW095/// BKN110/// 02/02 Q0997 YLO,EBCV,2015-02-21T06:25:00Z,50.57,3.82,2.0,2.0,230,6,,1.8,29.438976,,,TRUE,,,,,,,,,,,,,,,,,,,,,,,,,,,,METAR,63.0
EBBL 210625Z 24007KT 9000 FEW005 SCT009 BKN017 03/02 Q0997 GRN,EBBL,2015-02-21T06:25:00Z,51.17,5.47,3.0,2.0,240,7,,5.59,29.438976,,,,,,,,,,,FEW,500,SCT,900,BKN,1700,,,MVFR,,,,,,,,,,,,METAR,64.0
KFDK 210625Z AUTO 00000KT 10SM BKN090 BKN120 M13/M19 A3046 RMK AO2 LTG DSNT W,KFDK,2015-02-21T06:25:00Z,39.42,-77.37,-13.0,-19.0,0,0,,10.0,30.46063,,,TRUE,TRUE,,,,,,,BKN,9000,BKN,12000,,,,,VFR,,,,,,,,,,,,METAR,92.0
EBLB 210625Z AUTO 30005KT 2400 FEW005/// BKN007/// OVC012/// M00/M01 Q0996 YLO,EBLB,2015-02-21T06:25:00Z,50.47,6.17,0.0,-1.0,300,5,,1.49,29.409449,,,TRUE,,,,,,,,,,,,,,,,,,,,,,,,,,,,METAR,570.0
EBFS 210625Z AUTO 24004KT 5000 FEW002/// SCT004/// BKN006/// 01/00 Q0998 YLO,EBFS,2015-02-21T06:25:00Z,50.22,4.65,1.0,0.0,240,4,,3.11,29.468504,,,TRUE,,,,,,,,,,,,,,,,,,,,,,,,,,,,METAR,299.0
EBDT 210625Z AUTO 24005KT 8000 FEW014/// SCT020/// BKN170/// 03/02 Q0998 WHT,EBDT,2015-02-21T06:25:00Z,51.02,5.07,3.0,2.0,240,5,,4.97,29.468504,,,TRUE,,,,,,,,,,,,,,,,,,,,,,,,,,,,METAR,54.0
EBBE 210625Z AUTO 24006KT 9999 FEW004/// SCT013/// BKN018/// 02/02 Q0998 GRN,EBBE,2015-02-21T06:25:00Z,50.75,4.77,2.0,2.0,240,6,,6.21,29.468504,,,TRUE,,,,,,,,,,,,,,,,,,,,,,,,,,,,METAR,127.0
KSGR 210625Z AUTO 18011KT 10SM FEW015 SCT030 OVC043 19/17 A2992 RMK AO2 T01940167,KSGR,2015-02-21T06:25:00Z,29.62,-95.65,19.4,16.7,180,11,,10.0,29.920275,,,TRUE,TRUE,,,,,,,FEW,1500,SCT,3000,OVC,4300,,,VFR,,,,,,,,,,,,SPECI,2.0
SABE 210625Z 19007KT 9000 -DZ BKN014 SCT040 19/17 Q1019 RERA,SABE,2015-02-21T06:25:00Z,-34.57,-58.42,19.0,17.0,190,7,,5.59,30.088583,,,,,,,,,,-DZ,BKN,1400,SCT,4000,,,,,MVFR,,,,,,,,,,,,SPECI,6.0
EHJR 210625Z AUTO 26014G16KT //// ///////// 05/02 Q0995 W06/H8,EHJR,2015-02-21T06:25:00Z,53.22,3.22,5.0,2.0,260,14,16,,29.379921,,,TRUE,,,,,,,,,,,,,,,,,,,,,,,,,,,,METAR,50.0
EHSC 210625Z AUTO 28013G14KT 9999 ///////// 05/02 Q0996 W06/H7,EHSC,2015-02-21T06:25:00Z,51.93,3.67,5.0,2.0,280,13,14,6.21,29.409449,,,TRUE,,,,,,,,,,,,,,,,,,,,,,,,,,,,METAR,50.0
EHSA 210625Z AUTO 27015G18KT //// ///////// 06/M80 Q0996 W///H7,EHSA,2015-02-21T06:25:00Z,52.0,3.28,6.0,-80.0,270,15,18,,29.409449,,,TRUE,,,,,,,,,,,,,,,,,,,,,,,,,,,,METAR,50.0
KMTC 210625Z AUTO 18010KT 10SM -SN OVC027 M10/M15 A3004 RMK AO2 SNB0609E0619B0625 OVC V BKN $,KMTC,2015-02-21T06:25:00Z,42.62,-82.82,-10.0,-15.0,180,10,,10.0,30.041338,,,TRUE,TRUE,TRUE,,,,,-SN,OVC,2700,,,,,,,MVFR,,,,,,,,,,,,SPECI,177.0
CYYE 210625Z 00000KT 15SM BKN018 OVC040 M03/M04 A3054 RMK SF6SC2 SLP367,CYYE,2015-02-21T06:25:00Z,58.82,-122.57,-3.0,-4.0,0,0,,15.0,30.540354,1036.7,,,,,,,,,,BKN,1800,OVC,4000,,,,,MVFR,,,,,,,,,,,,SPECI,382.0
EHWO 210625Z AUTO 23005KT 9999 FEW045 BKN093 OVC100 03/02 Q0997 BLU,EHWO,2015-02-21T06:25:00Z,51.45,4.32,3.0,2.0,230,5,,6.21,29.438976,,,TRUE,,,,,,,,FEW,4500,BKN,9300,OVC,10000,,,VFR,,,,,,,,,,,,SPECI,17.0
EHVL 210625Z AUTO 29009KT 9999 BKN044 BKN055 OVC079 04/02 Q0994 BLU,EHVL,2015-02-21T06:25:00Z,53.23,4.92,4.0,2.0,290,9,,6.21,29.350393,,,TRUE,,,,,,,,BKN,4400,BKN,5500,OVC,7900,,,VFR,,,,,,,,,,,,SPECI,5.0
EHVK 210625Z AUTO 23007KT 9999 SCT006 BKN008 OVC010 03/02 Q0996 YLO,EHVK,2015-02-21T06:25:00Z,51.63,5.7,3.0,2.0,230,7,,6.21,29.409449,,,TRUE,,,,,,,,SCT,600,BKN,800,OVC,1000,,,IFR,,,,,,,,,,,,SPECI,21.0
EHLW 210625Z AUTO 25004KT 9999 FEW013 BKN030 BKN037 02/02 Q0994 BLU,EHLW,2015-02-21T06:25:00Z,53.22,5.75,2.0,2.0,250,4,,6.21,29.350393,,,TRUE,,,,,,,,FEW,1300,BKN,3000,BKN,3700,,,MVFR,,,,,,,,,,,,SPECI,2.0
EHGR 210625Z AUTO 23005KT 6000 BR FEW093 OVC100 03/02 Q0997 WHT,EHGR,2015-02-21T06:25:00Z,51.57,4.92,3.0,2.0,230,5,,3.73,29.438976,,,TRUE,,,,,,,BR,FEW,9300,OVC,10000,,,,,MVFR,,,,,,,,,,,,SPECI,13.0
EHDL 210625Z AUTO 25005KT 8000 BR FEW033 BKN038 BKN044 02/02 Q0996 BLU,EHDL,2015-02-21T06:25:00Z,52.07,5.87,2.0,2.0,250,5,,4.97,29.409449,,,TRUE,,,,,,,BR,FEW,3300,BKN,3800,BKN,4400,,,MVFR,,,,,,,,,,,,SPECI,52.0
CYQA 210625Z AUTO 14007KT 6SM -SN OVC037 M18/M21 A3011 RMK SLP223,CYQA,2015-02-21T06:25:00Z,44.97,-79.28,-18.0,-21.0,140,7,,6.0,30.109253,1022.3,,TRUE,,,,,,,-SN,OVC,3700,,,,,,,VFR,,,,,,,,,,,,SPECI,282.0
KUTS 210625Z AUTO 18016G24KT 10SM BKN026 OVC037 19/16 A2986 RMK AO2 PK WND 17026/0602 T01890156,KUTS,2015-02-21T06:25:00Z,30.75,-95.58,18.9,15.6,180,16,24,10.0,29.861221,,,TRUE,TRUE,,,,,,,BKN,2600,OVC,3700,,,,,MVFR,,,,,,,,,,,,SPECI,104.0
KRNM 210625Z 00000KT 1/4SM FG VV006 07/07 A2998 RMK AO2 T00720072,KRNM,2015-02-21T06:25:00Z,33.03,-116.92,7.2,7.2,0,0,,0.25,29.97933,,,,TRUE,,,,,,FG,OVX,0,,,,,,,LIFR,,,,,,,,,,,600,SPECI,427.0
KPIR 210625Z AUTO 07005KT 3SM -SN BR SCT005 OVC016 00/M01 A2988 RMK AO2 SNB20 P0000 I1000 T00001006,KPIR,2015-02-21T06:25:00Z,44.38,-100.28,0.0,-0.6,70,5,,3.0,29.878937,,,TRUE,TRUE,,,,,,-SN BR,SCT,500,OVC,1600,,,,,MVFR,,,,,,0.0050,,,,,,SPECI,526.0
KHKA 210625Z AUTO 17016KT 5SM -RA BR OVC016 02/01 A2988 RMK AO2 P0002 T00170006,KHKA,2015-02-21T06:25:00Z,35.93,-89.83,1.7,0.6,170,16,,5.0,29.878937,,,TRUE,TRUE,,,,,,-RA BR,OVC,1600,,,,,,,MVFR,,,,,,0.02,,,,,,SPECI,78.0
KFHR 210625Z AUTO 00000KT 10SM SCT023 OVC032 08/04 A3028 RMK AO2 T00780044,KFHR,2015-02-21T06:25:00Z,48.52,-123.03,7.8,4.4,0,0,,10.0,30.280512,,,TRUE,TRUE,,,,,,,SCT,2300,OVC,3200,,,,,VFR,,,,,,,,,,,,SPECI,32.0
KBHK 210625Z AUTO 35012KT 10SM BKN013 OVC041 M04/M07 A2996 RMK AO2 T10441067,KBHK,2015-02-21T06:25:00Z,46.35,-104.25,-4.4,-6.7,350,12,,10.0,29.958662,,,TRUE,TRUE,,,,,,,BKN,1300,OVC,4100,,,,,MVFR,,,,,,,,,,,,SPECI,902.0
ETAD 210625Z AUTO 27006KT 9999 -RA SCT008 03/01 A2944 RMK AO2,ETAD,2015-02-21T06:25:00Z,49.98,6.7,3.0,1.0,270,6,,6.21,29.438976,,,TRUE,TRUE,,,,,,-RA,SCT,800,,,,,,,VFR,,,,,,,,,,,,METAR,365.0
EHRD 210625Z AUTO 22005KT 200V280 9999 -RA FEW013 FEW015CB SCT016 BKN027 04/02 Q0996 RERA REDZ TEMPO 6000 SHRAGS SCT020CB,EHRD,2015-02-21T06:25:00Z,51.95,4.45,4.0,2.0,220,5,,6.21,29.409449,,,TRUE,,,,,,,-RA,FEW,1300,FEW,1500,SCT,1600,BKN,2700,MVFR,,,,,,,,,,,,METAR,-5.0
EHGG 210625Z AUTO 30010KT 5000 -RA SCT005 BKN007 OVC008 02/01 Q0993 BECMG 9999 NSW BKN010,EHGG,2015-02-21T06:25:00Z,53.12,6.57,2.0,1.0,300,10,,3.11,29.320866,,,TRUE,,,,,,,-RA,SCT,500,BKN,700,OVC,800,,,IFR,,,,,,,,,,,,METAR,4.0
EHBK 210625Z AUTO 24006KT 200V270 9999 FEW005 BKN006 OVC009 03/02 Q0997 BECMG SCT012 BKN030 TEMPO 7000,EHBK,2015-02-21T06:25:00Z,50.92,5.77,3.0,2.0,240,6,,6.21,29.438976,,,TRUE,,,,,,,,FEW,500,BKN,600,OVC,900,,,IFR,,,,,,,,,,,,METAR,116.0
EHAM 210625Z 25006KT 9999 VCSH FEW017 SCT027 04/03 Q0995 TEMPO 6000 SHRAGS SCT018CB,EHAM,2015-02-21T06:25:00Z,52.32,4.78,4.0,3.0,250,6,,6.21,29.379921,,,,,,,,,,VCSH,FEW,1700,SCT,2700,,,,,VFR,,,,,,,,,,,,METAR,9.0
UTO8 M M M 205/-25/-29/0619/M/ PK WND 0624 0511Z SOG 22 3009 41MM,UTO8,2015-02-21T06:24:00Z,,,,,,,,1.87,,,,,,,,,,,,,,,,,,,,,,,,,,,,,,,,METAR,
KRHI 210624Z AUTO 23005KT 8SM SCT015 BKN030 OVC035 M11/M13 A2977 RMK AO2 T11111133,KRHI,2015-02-21T06:24:00Z,45.63,-89.48,-11.1,-13.3,230,5,,8.0,29.769686,,,TRUE,TRUE,,,,,,,SCT,1500,BKN,3000,OVC,3500,,,MVFR,,,,,,,,,,,,SPECI,485.0
KTIK 210624Z AUTO 02009KT 3SM -DZ BR OVC002 03/03 A2975 RMK AO2,KTIK,2015-02-21T06:24:00Z,35.42,-97.37,3.0,3.0,20,9,,3.0,29.749016,,,TRUE,TRUE,,,,,,-DZ BR,OVC,200,,,,,,,LIFR,,,,,,,,,,,,SPECI,394.0
KQXT 210624Z 13006KT 3200 DU HZ FEW015 BKN150 BKN200 26/M02 A2993 RMK DU FEW015 WND DATA ESTMD ALSTG ESTMD Q1013,KQXT,2015-02-21T06:24:00Z,100.65,-1000.65,26.0,-2.0,130,6,,1.99,29.929134,,,,,,,,,,DU HZ,FEW,1500,BKN,15000,BKN,20000,,,IFR,,,,,,,,,,,,METAR,999.0
KSBA 210624Z 00000KT 3SM BR BKN011 11/09 A2997 RMK AO2 T01060094 $,KSBA,2015-02-21T06:24:00Z,34.43,-119.85,10.6,9.4,0,0,,3.0,29.970472,,,,TRUE,TRUE,,,,,BR,BKN,1100,,,,,,,MVFR,,,,,,,,,,,,SPECI,3.0
KPAE 210624Z AUTO 34005KT 10SM BKN027 OVC050 08/05 A3026 RMK AO2 T00780050,KPAE,2015-02-21T06:24:00Z,47.92,-122.28,7.8,5.0,340,5,,10.0,30.259842,,,TRUE,TRUE,,,,,,,BKN,2700,OVC,5000,,,,,MVFR,,,,,,,,,,,,SPECI,180.0
KLWV 210624Z AUTO 09005KT 1 1/4SM -SN BR SCT009 OVC025 M05/M06 A3000 RMK AO2 P0000 T10501061,KLWV,2015-02-21T06:24:00Z,38.77,-87.6,-5.0,-6.1,90,5,,1.25,30.0,,,TRUE,TRUE,,,,,,-SN BR,SCT,900,OVC,2500,,,,,IFR,,,,,,0.0050,,,,,,SPECI,131.0
KFOE 210624Z AUTO 32009KT 4SM -RA BR BKN003 BKN008 OVC038 01/00 A2988 RMK AO2 P0001 T00110000,KFOE,2015-02-21T06:24:00Z,38.93,-95.65,1.1,0.0,320,9,,4.0,29.878937,,,TRUE,TRUE,,,,,,-RA BR,BKN,300,BKN,800,OVC,3800,,,LIFR,,,,,,0.01,,,,,,SPECI,320.0
PAVL 210624Z AUTO 07007KT 7SM OVC031 M03/M04 A3002 RMK AO2 T10281044 TSNO,PAVL,2015-02-21T06:24:00Z,67.73,-164.55,-2.8,-4.4,70,7,,7.0,30.02067,,,TRUE,TRUE,,,TRUE,,,,OVC,3100,,,,,,,VFR,,,,,,,,,,,,SPECI,3.0
PAKF 210624Z AUTO 36006KT 9SM -RA OVC004 03/03 A2912 RMK AO2 P0000 $,PAKF,2015-02-21T06:24:00Z,54.85,-163.42,3.0,3.0,360,6,,9.0,29.120079,,,TRUE,TRUE,TRUE,,,,,-RA,OVC,400,,,,,,,LIFR,,,,,,0.0050,,,,,,SPECI,6.0
CYSB 210624Z 18015KT 7SM -SN DRSN OVC032 M17/M20 A2996 RMK SN3SC5 SLP181,CYSB,2015-02-21T06:24:00Z,46.63,-80.8,-17.0,-20.0,180,15,,7.0,29.958662,1018.1,,,,,,,,,-SN DRSN,OVC,3200,,,,,,,VFR,,,,,,,,,,,,SPECI,348.0
KVLL 210623Z AUTO 18007KT 10SM OVC026 M09/M17 A3007 RMK AO2,KVLL,2015-02-21T06:23:00Z,42.55,-83.18,-9.0,-17.0,180,7,,10.0,30.070866,,,TRUE,TRUE,,,,,,,OVC,2600,,,,,,,MVFR,,,,,,,,,,,,SPECI,222.0
KFRI 210623Z AUTO VRB01KT 5SM -RA BR OVC031 01/01 A2991 RMK AO2,KFRI,2015-02-21T06:23:00Z,39.03,-96.77,1.0,1.0,0,1,,5.0,29.911417,,,TRUE,TRUE,,,,,,-RA BR,OVC,3100,,,,,,,MVFR,,,,,,,,,,,,SPECI,325.0
KCBM 210623Z AUTO 15009KT 10SM OVC027 07/00 A3006 RMK AO2,KCBM,2015-02-21T06:23:00Z,33.63,-88.45,7.0,0.0,150,9,,10.0,30.059055,,,TRUE,TRUE,,,,,,,OVC,2700,,,,,,,MVFR,,,,,,,,,,,,SPECI,67.0
CYJT 210623Z 24037G44KT 0SM R27/P6000FT/D -SHSN +BLSN VV001 M07/M09 A2973 RMK BLSN8 SLP068,CYJT,2015-02-21T06:23:00Z,48.55,-58.57,-7.0,-9.0,240,37,44,0.0,29.731298,1006.8,,,,,,,,,BLSN -SHSN,OVX,0,,,,,,,LIFR,,,,,,,,,,,100,SPECI,26.0
CWSA 210623Z AUTO 27018G30KT 9SM -SN SCT035 M03/M06 A3012 RMK SLP200,CWSA,2015-02-21T06:23:00Z,43.93,-60.0,-3.0,-6.0,270,18,30,9.0,30.121063,1020.0,,TRUE,,,,,,,-SN,SCT,3500,,,,,,,VFR,,,,,,,,,,,,SPECI,4.0
PAPM 210623Z AUTO 04026KT 7SM -SN FEW005 SCT020 02/01 A2938 RMK AO2 TSNO UPB0557E10SNE0557B0558E06B07E09B10 P0002 PK WND 03033/0611 PRESFR $,PAPM,2015-02-21T06:23:00Z,59.02,-161.82,2.0,1.0,40,26,,7.0,29.379921,,,TRUE,TRUE,TRUE,,TRUE,,,-SN,FEW,500,SCT,2000,,,,,VFR,,,,,,0.02,,,,,,SPECI,5.0
PABA 210623Z AUTO 04008KT 10SM SCT007 OVC085 M12/M13 A3028 RMK AO2 FZRANO,PABA,2015-02-21T06:23:00Z,70.13,-143.58,-12.0,-13.0,40,8,,10.0,30.280512,,,TRUE,TRUE,,,,TRUE,,,SCT,700,OVC,8500,,,,,VFR,,,,,,,,,,,,SPECI,2.0
KOLF 210623Z AUTO 02013KT 10SM SCT019 SCT032 OVC042 M04/M09 A3010 RMK AO2 T10441089,KOLF,2015-02-21T06:23:00Z,48.1,-105.58,-4.4,-8.9,20,13,,10.0,30.100393,,,TRUE,TRUE,,,,,,,SCT,1900,SCT,3200,OVC,4200,,,VFR,,,,,,,,,,,,SPECI,604.0
KCSM 210623Z 36021G26KT 3/4SM BR VV002 06/05 A2979 RMK AO2 PK WND 01030/0613 T00610050,KCSM,2015-02-21T06:23:00Z,35.35,-99.2,6.1,5.0,360,21,26,0.75,29.790354,,,,TRUE,,,,,,BR,OVX,0,,,,,,,LIFR,,,,,,,,,,,200,SPECI,588.0
KQFQ 210623Z AUTO VRB04KT 3SM -RA BR BKN009 OVC012 05/04 A2999 RMK AO2 SLP158 $,KQFQ,2015-02-21T06:23:00Z,100.65,-1000.65,5.0,4.0,0,4,,3.0,29.991142,1015.8,,TRUE,TRUE,TRUE,,,,,-RA BR,BKN,900,OVC,1200,,,,,IFR,,,,,,,,,,,,SPECI,999.0
KSSF 210622Z AUTO 16008KT 10SM SCT013 BKN020 18/16 A2983 RMK AO2 T01780156,KSSF,2015-02-21T06:22:00Z,29.33,-98.47,17.8,15.6,160,8,,10.0,29.828741,,,TRUE,TRUE,,,,,,,SCT,1300,BKN,2000,,,,,MVFR,,,,,,,,,,,,SPECI,176.0
KMIE 210622Z AUTO 18009KT 1 3/4SM -SN FEW015 BKN022 OVC028 M07/M11 A2999 RMK AO2 P0000 T10721106,KMIE,2015-02-21T06:22:00Z,40.23,-85.4,-7.2,-10.6,180,9,,1.75,29.991142,,,TRUE,TRUE,,,,,,-SN,FEW,1500,BKN,2200,OVC,2800,,,IFR,,,,,,0.0050,,,,,,SPECI,285.0
KHSV 210622Z AUTO 15017G21KT 10SM BKN027 OVC033 02/M08 A3014 RMK AO2 PK WND 15030/0555 FZRAB01E02 P0000 $,KHSV,2015-02-21T06:22:00Z,34.65,-86.78,2.0,-8.0,150,17,21,10.0,30.138779,,,TRUE,TRUE,TRUE,,,,,,BKN,2700,OVC,3300,,,,,MVFR,,,,,,0.0050,,,,,,SPECI,191.0
KGEZ 210622Z AUTO 13004KT 1 1/4SM -SN OVC020 M07/M11 A3001 RMK AO2 P0002 T10721106,KGEZ,2015-02-21T06:22:00Z,39.58,-85.8,-7.2,-10.6,130,4,,1.25,30.008858,,,TRUE,TRUE,,,,,,-SN,OVC,2000,,,,,,,IFR,,,,,,0.02,,,,,,SPECI,245.0
KEVV 210622Z AUTO 16008KT 3SM UP BR OVC009 00/M02 A2998 RMK AO2 UPB16FZRAE16 P0009 I1002 T00001017,KEVV,2015-02-21T06:22:00Z,38.05,-87.52,0.0,-1.7,160,8,,3.0,29.97933,,,TRUE,TRUE,,,,,,BR UP,OVC,900,,,,,,,IFR,,,,,,0.09,,,,,,SPECI,117.0
KABR 210622Z AUTO 01009KT 5SM -SN FEW020 BKN041 OVC075 M07/M10 A2995 RMK AO2 SNB14 P0000 T10671100,KABR,2015-02-21T06:22:00Z,45.45,-98.42,-6.7,-10.0,10,9,,5.0,29.949802,,,TRUE,TRUE,,,,,,-SN,FEW,2000,BKN,4100,OVC,7500,,,MVFR,,,,,,0.0050,,,,,,SPECI,397.0
KMQI 210622Z AUTO 00000KT 10SM CLR M11/M14 A3058 RMK AO2,KMQI,2015-02-21T06:22:00Z,35.92,-75.7,-11.0,-14.0,0,0,,10.0,30.578741,,,TRUE,TRUE,,,,,,,CLR,,,,,,,,VFR,,,,,,,,,,,,SPECI,4.0
EEEI 210621Z 17008KT 3000 BR FEW006 BKN017 OVC020 02/01 Q0999 TEMPO 3000,EEEI,2015-02-21T06:21:00Z,59.27,24.2,2.0,1.0,170,8,,1.86,29.498032,,,,,,,,,,BR,FEW,600,BKN,1700,OVC,2000,,,IFR,,,,,,,,,,,,SPECI,20.0
RJDT 210621Z 16016G26KT 130V190 9999 -SHRA FEW010 SCT015 BKN050 09/07 Q1018 RMK 1CU010 4CU015 6SC050 A3007,RJDT,2015-02-21T06:21:00Z,34.27,129.32,9.0,7.0,160,16,26,6.21,30.059055,,,,,,,,,,-SHRA,FEW,1000,SCT,1500,BKN,5000,,,VFR,,,,,,,,,,,,SPECI,66.0
KCPS 210621Z AUTO 10003KT 4SM UP BR BKN008 BKN020 OVC034 M02/M03 A2993 RMK AO2 UPB19SNE19 P0003 T10171028 TSNO $,KCPS,2015-02-21T06:21:00Z,38.57,-90.15,-1.7,-2.8,100,3,,4.0,29.929134,,,TRUE,TRUE,TRUE,,TRUE,,,BR UP,BKN,800,BKN,2000,OVC,3400,,,IFR,,,,,,0.03,,,,,,SPECI,126.0
KIXD 210621Z AUTO 22004KT 4SM -SN BR BKN005 OVC018 M01/M01 A2988 RMK AO2 FZRAE15SNB15 P0002 I1000 T10061011,KIXD,2015-02-21T06:21:00Z,38.82,-94.88,-0.6,-1.1,220,4,,4.0,29.878937,,,TRUE,TRUE,,,,,,-SN BR,BKN,500,OVC,1800,,,,,IFR,,,,,,0.02,,,,,,METAR,342.0
KGSH 210621Z AUTO 20009KT 9SM OVC014 M09/M12 A2998 RMK AO2 T10891117,KGSH,2015-02-21T06:21:00Z,41.53,-85.78,-8.9,-11.7,200,9,,9.0,29.97933,,,TRUE,TRUE,,,,,,,OVC,1400,,,,,,,MVFR,,,,,,,,,,,,METAR,252.0
CYQK 210621Z 34007KT 15SM FEW015 SCT029 M17/M19 A2989 RMK SC1SC2 SLP160,CYQK,2015-02-21T06:21:00Z,49.77,-94.37,-17.0,-19.0,340,7,,15.0,29.890747,1016.0,,,,,,,,,,FEW,1500,SCT,2900,,,,,VFR,,,,,,,,,,,,SPECI,411.0
KQAY 210621Z AUTO 26008KT 1200 HZ VV004 13/M03 A2997 RMK AO2 SLP147 $,KQAY,2015-02-21T06:21:00Z,100.65,-1000.65,13.0,-3.0,260,8,,0.75,29.970472,1014.7,,TRUE,TRUE,TRUE,,,,,HZ,OVX,0,,,,,,,LIFR,,,,,,,,,,,400,SPECI,999.0
CZUM 210621Z AUTO 30018G27KT 1/2SM SN VV010 M18/M20 A2928 RMK SLP958,CZUM,2015-02-21T06:21:00Z,53.53,-64.08,-18.0,-20.0,300,18,27,0.5,29.279528,995.8,,TRUE,,,,,,,SN,OVX,0,,,,,,,LIFR,,,,,,,,,,,1000,SPECI,440.0
EGLC 210620Z 28008KT 250V320 9999 -SHRA BKN010 04/02 Q0999,EGLC,2015-02-21T06:20:00Z,51.5,0.05,4.0,2.0,280,8,,6.21,29.498032,,,,,,,,,,-SHRA,BKN,1000,,,,,,,MVFR,,,,,,,,,,,,METAR,5.0
ENSL 210620Z 28021KT 9999 -SHRA FEW018 04/01 Q0989 W05/S4,ENSL,2015-02-21T06:20:00Z,58.37,1.9,4.0,1.0,280,21,,6.21,29.202755,,,,,,,,,,-SHRA,FEW,1800,,,,,,,VFR,,,,,,,,,,,,METAR,50.0
LGAD 210620Z 00000KT CAVOK 05/01 Q1020,LGAD,2015-02-21T06:20:00Z,37.92,21.27,5.0,1.0,0,0,,6.21,30.11811,,,,,,,,,,,CAVOK,,,,,,,,VFR,,,,,,,,,,,,METAR,12.0
KVKS 210620Z AUTO 17016G24KT 10SM SCT055 BKN075 OVC085 16/11 A3001 RMK A01,KVKS,2015-02-21T06:20:00Z,,,16.0,11.0,170,16,24,10.0,30.008858,,,TRUE,TRUE,,,,,,,SCT,5500,BKN,7500,OVC,8500,,,VFR,,,,,,,,,,,,METAR,
KS39 210620Z AUTO 00000KT 10SM SCT120 04/M02 A3015 RMK AO2,KS39,2015-02-21T06:20:00Z,44.28,-120.9,4.0,-2.0,0,0,,10.0,30.15059,,,TRUE,TRUE,,,,,,,SCT,12000,,,,,,,VFR,,,,,,,,,,,,METAR,991.0
EGSD 210620Z 24006KT 8000 FEW012 -DZ 02/02 Q0996,EGSD,2015-02-21T06:20:00Z,52.63,1.72,2.0,2.0,240,6,,4.97,29.409449,,,,,,,,,,-DZ,FEW,1200,,,,,,,MVFR,,,,,,,,,,,,METAR,2.0
VECC 210620Z 23007KT 3000 HZ NSC 30/20 Q1012 NOSIG,VECC,2015-02-21T06:20:00Z,22.65,88.43,30.0,20.0,230,7,,1.86,29.88189,,,,,,TRUE,,,,HZ,,,,,,,,,,,,,,,,,,,,,METAR,6.0
ETHN 210620Z 20014KT 9999 -RA FEW010 BKN040 04/M00 Q0999 BLU,ETHN,2015-02-21T06:20:00Z,49.38,9.97,4.0,0.0,200,14,,6.21,29.498032,,,,,,,,,,-RA,FEW,1000,BKN,4000,,,,,VFR,,,,,,,,,,,,METAR,473.0
LTCS 210620Z 35006KT 9999 BKN030 00/M03 Q1008,LTCS,2015-02-21T06:20:00Z,37.45,38.9,0.0,-3.0,350,6,,6.21,29.763779,,,,,,,,,,,BKN,3000,,,,,,,MVFR,,,,,,,,,,,,METAR,825.0
LTFC 210620Z 35005KT 290V080 9999 FEW035 M00/M07 Q1016,LTFC,2015-02-21T06:20:00Z,37.87,30.38,0.0,-7.0,350,5,,6.21,30.0,,,,,,,,,,,FEW,3500,,,,,,,VFR,,,,,,,,,,,,METAR,864.0
LTFE 210620Z 06012KT 030V090 CAVOK 07/M01 Q1016 BECMG TL0640 VRB02KT,LTFE,2015-02-21T06:20:00Z,37.25,27.67,7.0,-1.0,60,12,,6.21,30.0,,,,,,,,,,,CAVOK,,,,,,,,VFR,,,,,,,,,,,,METAR,6.0
LTFJ 210620Z 04004KT CAVOK 02/M00 Q1021 NOSIG,LTFJ,2015-02-21T06:20:00Z,40.9,29.3,2.0,0.0,40,4,,6.21,30.147638,,,,,,TRUE,,,,,CAVOK,,,,,,,,VFR,,,,,,,,,,,,METAR,98.0
LTAP 210620Z 10002KT 7000 -SN SCT019 BKN035 OVC080 M03/M04 Q1018 NOSIG,LTAP,2015-02-21T06:20:00Z,40.83,35.52,-3.0,-4.0,100,2,,4.35,30.059055,,,,,,TRUE,,,,-SN,SCT,1900,BKN,3500,OVC,8000,,,MVFR,,,,,,,,,,,,METAR,535.0
LTAG 210620Z 01012KT CAVOK 08/M06 Q1010 NOSIG,LTAG,2015-02-21T06:20:00Z,37.0,35.42,8.0,-6.0,10,12,,6.21,29.822834,,,,,,TRUE,,,,,CAVOK,,,,,,,,VFR,,,,,,,,,,,,METAR,66.0
LTAT 210620Z 30008KT 9999 SCT040 02/M10 Q1010 NOSIG,LTAT,2015-02-21T06:20:00Z,38.42,38.07,2.0,-10.0,300,8,,6.21,29.822834,,,,,,TRUE,,,,,SCT,4000,,,,,,,VFR,,,,,,,,,,,,METAR,849.0
LTCC 210620Z 10008KT 4000 -RA BR FEW012 BKN035 BKN090 02/01 Q1008 RESN NOSIG,LTCC,2015-02-21T06:20:00Z,37.87,40.2,2.0,1.0,100,8,,2.49,29.763779,,,,,,TRUE,,,,-RA BR,FEW,1200,BKN,3500,BKN,9000,,,IFR,,,,,,,,,,,,METAR,677.0
LTBU 210620Z 02004KT 8000 NSC 03/03 Q1022,LTBU,2015-02-21T06:20:00Z,41.12,27.92,3.0,3.0,20,4,,4.97,30.177166,,,,,,,,,,,,,,,,,,,,,,,,,,,,,,,SPECI,173.0
LTAU 210620Z 02004KT 9999 FEW035 M11/M14 Q1016 NOSIG,LTAU,2015-02-21T06:20:00Z,38.77,35.47,-11.0,-14.0,20,4,,6.21,30.0,,,,,,TRUE,,,,,FEW,3500,,,,,,,VFR,,,,,,,,,,,,METAR,1054.0
LTCE 210620Z 08011KT 9999 SCT030 BKN070 M05/M09 Q1008 NOSIG,LTCE,2015-02-21T06:20:00Z,39.95,41.17,-5.0,-9.0,80,11,,6.21,29.763779,,,,,,TRUE,,,,,SCT,3000,BKN,7000,,,,,VFR,,,,,,,,,,,,METAR,1758.0
LTCJ 210620Z 36006KT 9000 -SN FEW020 SCT035 OVC080 02/01 Q1009,LTCJ,2015-02-21T06:20:00Z,37.93,41.12,2.0,1.0,360,6,,5.59,29.793306,,,,,,,,,,-SN,FEW,2000,SCT,3500,OVC,8000,,,VFR,,,,,,,,,,,,METAR,540.0
LCEN 210620Z 34010KT 290V360 9999 FEW025 10/M02 Q1011 NOSIG,LCEN,2015-02-21T06:20:00Z,35.13,33.5,10.0,-2.0,340,10,,6.21,29.852362,,,,,,TRUE,,,,,FEW,2500,,,,,,,VFR,,,,,,,,,,,,METAR,91.0
LTCG 210620Z 21003KT 160V250 9999 SCT035 BKN100 05/M02 Q1020 NOSIG,LTCG,2015-02-21T06:20:00Z,41.0,39.8,5.0,-2.0,210,3,,6.21,30.11811,,,,,,TRUE,,,,,SCT,3500,BKN,10000,,,,,VFR,,,,,,,,,,,,METAR,30.0
LTBS 210620Z 36019KT CAVOK 09/M04 Q1014 NOSIG,LTBS,2015-02-21T06:20:00Z,36.7,28.77,9.0,-4.0,360,19,,6.21,29.940945,,,,,,TRUE,,,,,CAVOK,,,,,,,,VFR,,,,,,,,,,,,METAR,2.0
LTBR 210620Z 30002KT 1400 R25/1400U R07/1100U BCFG NSC M04/M04 Q1020 BECMG 3500 BR,LTBR,2015-02-21T06:20:00Z,40.25,29.57,-4.0,-4.0,300,2,,0.87,30.11811,,,,,,,,,,BCFG,,,,,,,,,,,,,,,,,,,,,SPECI,232.0
LTBJ 210620Z 02008KT CAVOK 06/M00 Q1017 NOSIG,LTBJ,2015-02-21T06:20:00Z,38.28,27.15,6.0,0.0,20,8,,6.21,30.029528,,,,,,TRUE,,,,,CAVOK,,,,,,,,VFR,,,,,,,,,,,,METAR,120.0
LTBA 210620Z 08006KT 030V150 CAVOK 05/M01 Q1022 NOSIG,LTBA,2015-02-21T06:20:00Z,40.97,28.82,5.0,-1.0,80,6,,6.21,30.177166,,,,,,TRUE,,,,,CAVOK,,,,,,,,VFR,,,,,,,,,,,,METAR,37.0
LTAZ 210620Z 21007KT 9999 FEW040 M08/M11 Q1017,LTAZ,2015-02-21T06:20:00Z,38.77,34.55,-8.0,-11.0,210,7,,6.21,30.029528,,,,,,,,,,,FEW,4000,,,,,,,VFR,,,,,,,,,,,,METAR,945.0
LTAJ 210620Z 34004KT 9999 SCT040 03/M06 Q1008 NOSIG,LTAJ,2015-02-21T06:20:00Z,36.95,37.48,3.0,-6.0,340,4,,6.21,29.763779,,,,,,TRUE,,,,,SCT,4000,,,,,,,VFR,,,,,,,,,,,,METAR,855.0
LTAI 210620Z 34016KT CAVOK 08/M08 Q1014 NOSIG,LTAI,2015-02-21T06:20:00Z,36.9,30.8,8.0,-8.0,340,16,,6.21,29.940945,,,,,,TRUE,,,,,CAVOK,,,,,,,,VFR,,,,,,,,,,,,METAR,54.0
LTAF 210620Z 01008KT 350V050 9999 FEW040 09/M09 Q1011 NOSIG,LTAF,2015-02-21T06:20:00Z,36.97,35.28,9.0,-9.0,10,8,,6.21,29.852362,,,,,,TRUE,,,,,FEW,4000,,,,,,,VFR,,,,,,,,,,,,METAR,20.0
LTAC 210620Z VRB02KT CAVOK M08/M11 Q1018 NOSIG,LTAC,2015-02-21T06:20:00Z,40.12,32.97,-8.0,-11.0,0,2,,6.21,30.059055,,,,,,TRUE,,,,,CAVOK,,,,,,,,VFR,,,,,,,,,,,,METAR,949.0
ENHE 210620Z 26008KT 9999 -SHRA SCT015 BKN050 04/02 Q0979 W///S6,ENHE,2015-02-21T06:20:00Z,65.33,2.33,4.0,2.0,260,8,,6.21,28.90748,,,,,,,,,,-SHRA,SCT,1500,BKN,5000,,,,,VFR,,,,,,,,,,,,SPECI,1.0
EGPU 210620Z AUTO 30010KT 9999 NCD 03/01 Q0997 RERA,EGPU,2015-02-21T06:20:00Z,56.5,-6.87,3.0,1.0,300,10,,6.21,29.438976,,,TRUE,,,,,,,,,,,,,,,,,,,,,,,,,,,,METAR,12.0
EGPI 210620Z AUTO 34019KT 320V020 9999 FEW025/// SCT032/// 02/00 Q0998 RERA,EGPI,2015-02-21T06:20:00Z,55.68,-6.25,2.0,0.0,340,19,,6.21,29.468504,,,TRUE,,,,,,,,,,,,,,,,,,,,,,,,,,,,METAR,18.0
KGRY 210620Z AUTO 20021G28KT 10SM FEW044 OVC060 21/11 A3008 RMK A01,KGRY,2015-02-21T06:20:00Z,27.63,-90.45,21.0,11.0,200,21,28,10.0,30.079725,,,TRUE,TRUE,,,,,,,FEW,4400,OVC,6000,,,,,VFR,,,,,,,,,,,,METAR,58.0
LIPQ 210620Z VRB01KT 3000 BR SCT015 SCT050 03/00 Q1013,LIPQ,2015-02-21T06:20:00Z,45.82,13.47,3.0,0.0,0,1,,1.86,29.911417,,,,,,,,,,BR,SCT,1500,SCT,5000,,,,,IFR,,,,,,,,,,,,METAR,12.0
LIPE 210620Z 25006KT 220V310 9999 FEW070 04/01 Q1011,LIPE,2015-02-21T06:20:00Z,44.52,11.3,4.0,1.0,250,6,,6.21,29.852362,,,,,,,,,,,FEW,7000,,,,,,,VFR,,,,,,,,,,,,METAR,42.0
LICJ 210620Z 07004KT 9999 -DZ BKN065 10/06 Q1016,LICJ,2015-02-21T06:20:00Z,38.17,13.08,10.0,6.0,70,4,,6.21,30.0,,,,,,,,,,-DZ,BKN,6500,,,,,,,VFR,,,,,,,,,,,,METAR,34.0
LICC 210620Z 20003KT 8000 -RA BKN090 06/05 Q1018,LICC,2015-02-21T06:20:00Z,37.47,15.05,6.0,5.0,200,3,,4.97,30.059055,,,,,,,,,,-RA,BKN,9000,,,,,,,MVFR,,,,,,,,,,,,METAR,17.0
LIBD 210620Z 22007KT 6000 NSC 01/M01 Q1017,LIBD,2015-02-21T06:20:00Z,41.12,16.77,1.0,-1.0,220,7,,3.73,30.029528,,,,,,,,,,,,,,,,,,,,,,,,,,,,,,,SPECI,44.0
ENST 210620Z 19018KT 9999 -SHSNRA FEW006 SCT010CB BKN015 XX/XX Q0981 RMK WIND 300FT 19019G31KT,ENST,2015-02-21T06:20:00Z,65.97,12.47,,,190,18,,6.21,28.966536,,,,,,,,,,-SHSN -SHRA,FEW,600,SCT,1000,BKN,1500,,,MVFR,,,,,,,,,,,,SPECI,17.0
ENRM 210620Z 20017G27KT 9999 6000S -SHRA FEW009 BKN018CB 03/01 Q0983,ENRM,2015-02-21T06:20:00Z,64.83,11.13,3.0,1.0,200,17,27,6.21,29.02559,,,,,,,,,,-SHRA,FEW,900,BKN,1800,,,,,MVFR,,,,,,,,,,,,SPECI,14.0
EFVR 210620Z AUTO 20004KT 150V260 8000 FEW011 OVC030 02/00 Q0995,EFVR,2015-02-21T06:20:00Z,62.17,27.87,2.0,0.0,200,4,,4.97,29.379921,,,TRUE,,,,,,,,FEW,1100,OVC,3000,,,,,MVFR,,,,,,,,,,,,METAR,87.0
EFUT 210620Z AUTO 21006KT 170V240 6000 OVC004 01/00 Q0997,EFUT,2015-02-21T06:20:00Z,60.88,26.92,1.0,0.0,210,6,,3.73,29.438976,,,TRUE,,,,,,,,OVC,400,,,,,,,LIFR,,,,,,,,,,,,METAR,100.0
EFSA 210620Z AUTO 19006KT 150V230 9999 BKN008 OVC034 01/00 Q0995,EFSA,2015-02-21T06:20:00Z,61.95,28.93,1.0,0.0,190,6,,6.21,29.379921,,,TRUE,,,,,,,,BKN,800,OVC,3400,,,,,IFR,,,,,,,,,,,,METAR,95.0
EFMI 210620Z AUTO 22005KT 170V260 9999 -RA OVC008 01/00 Q0996,EFMI,2015-02-21T06:20:00Z,61.68,27.2,1.0,0.0,220,5,,6.21,29.409449,,,TRUE,,,,,,,-RA,OVC,800,,,,,,,IFR,,,,,,,,,,,,METAR,138.0
EFLP 210620Z AUTO 22004KT 2900 BR BKN004 ///// Q////,EFLP,2015-02-21T06:20:00Z,61.07,28.13,,,220,4,,1.8,,,,TRUE,,,,,,,BR,BKN,400,,,,,,,LIFR,,,,,,,,,,,,METAR,106.0
EFJO 210620Z 20007KT 170V230 9999 FEW009 OVC035 01/00 Q0994,EFJO,2015-02-21T06:20:00Z,62.67,29.62,1.0,0.0,200,7,,6.21,29.350393,,,,,,,,,,,FEW,900,OVC,3500,,,,,VFR,,,,,,,,,,,,METAR,117.0
EBBR 210620Z 25005KT 9999 SCT010 BKN032 03/02 Q0998 NOSIG,EBBR,2015-02-21T06:20:00Z,50.9,4.5,3.0,2.0,250,5,,6.21,29.468504,,,,,,TRUE,,,,,SCT,1000,BKN,3200,,,,,VFR,,,,,,,,,,,,METAR,58.0
ELLX 210620Z 25008KT 8000 -SN BKN006 BKN009 01/01 Q0997 NOSIG,ELLX,2015-02-21T06:20:00Z,49.63,6.2,1.0,1.0,250,8,,4.97,29.438976,,,,,,TRUE,,,,-SN,BKN,600,BKN,900,,,,,IFR,,,,,,,,,,,,METAR,379.0
EBOS 210620Z 21006KT 9999 FEW011 02/01 Q0998 TEMPO BKN010,EBOS,2015-02-21T06:20:00Z,51.2,2.87,2.0,1.0,210,6,,6.21,29.468504,,,,,,,,,,,FEW,1100,,,,,,,VFR,,,,,,,,,,,,SPECI,5.0
EBLG 210620Z 27009KT 6000 -RA SCT004 BKN005 02/01 Q0998 TEMPO 5000,EBLG,2015-02-21T06:20:00Z,50.63,5.45,2.0,1.0,270,9,,3.73,29.468504,,,,,,,,,,-RA,SCT,400,BKN,500,,,,,IFR,,,,,,,,,,,,SPECI,178.0
EBCI 210620Z 25005KT 6000 SCT005 BKN006 03/02 Q0998 NOSIG,EBCI,2015-02-21T06:20:00Z,50.47,4.45,3.0,2.0,250,5,,3.73,29.468504,,,,,,TRUE,,,,,SCT,500,BKN,600,,,,,IFR,,,,,,,,,,,,METAR,192.0
EBAW 210620Z 24006KT 9999 FEW019 03/01 Q0998 NOSIG,EBAW,2015-02-21T06:20:00Z,51.2,4.47,3.0,1.0,240,6,,6.21,29.468504,,,,,,TRUE,,,,,FEW,1900,,,,,,,VFR,,,,,,,,,,,,METAR,14.0
LOWK 210620Z VRB02KT CAVOK M04/M05 Q1009 R10L/15//95 NOSIG,LOWK,2015-02-21T06:20:00Z,46.65,14.32,-4.0,-5.0,0,2,,6.21,29.793306,,,,,,TRUE,,,,,CAVOK,,,,,,,,VFR,,,,,,,,,,,,SPECI,441.0
LOWG 210620Z 16003KT 4000 FZBR FEW170 BKN230 M03/M04 Q1006 TEMPO TL0710 2500,LOWG,2015-02-21T06:20:00Z,47.0,15.42,-3.0,-4.0,160,3,,2.49,29.704725,,,,,,,,,,FZBR,FEW,17000,BKN,23000,,,,,IFR,,,,,,,,,,,,SPECI,347.0
LOWI 210620Z VRB06KT 9999 FEW060 SCT250 M01/M06 Q1006 WS R26 R08/1///95 NOSIG,LOWI,2015-02-21T06:20:00Z,47.27,11.33,-1.0,-6.0,0,6,,6.21,29.704725,,,,,,TRUE,,,,,FEW,6000,SCT,25000,,,,,VFR,,,,,,,,,,,,SPECI,581.0
LOWS 210620Z VRB01KT CAVOK M03/M05 Q1003 NOSIG,LOWS,2015-02-21T06:20:00Z,47.78,13.02,-3.0,-5.0,0,1,,6.21,29.616142,,,,,,TRUE,,,,,CAVOK,,,,,,,,VFR,,,,,,,,,,,,METAR,450.0
LOWL 210620Z 24003KT 2900 FZBR SCT200 BKN240 M03/M04 Q1003 TEMPO 4000 BECMG FM0730 5000,LOWL,2015-02-21T06:20:00Z,48.22,14.18,-3.0,-4.0,240,3,,1.8,29.616142,,,,,,,,,,FZBR,SCT,20000,BKN,24000,,,,,IFR,,,,,,,,,,,,SPECI,313.0
LOWW 210620Z 13012KT CAVOK 02/M04 Q1004 NOSIG,LOWW,2015-02-21T06:20:00Z,48.12,16.57,2.0,-4.0,130,12,,6.21,29.64567,,,,,,TRUE,,,,,CAVOK,,,,,,,,VFR,,,,,,,,,,,,METAR,190.0
PWAK 210620Z AUTO 35011KT 0800 -RA FG BKN006 BKN015 OVC023 24/22 A2981 RMK AO2 VIS 0800V9999 RAB15 RVRNO,PWAK,2015-02-21T06:20:00Z,19.28,166.65,24.0,22.0,350,11,,0.5,29.811024,,,TRUE,TRUE,,,,,,-RA FG,BKN,600,BKN,1500,OVC,2300,,,LIFR,,,,,,,,,,,,SPECI,4.0
OESK 210620Z 26028KT 4000 BLDU FEW040 SCT100 10/M03 Q1010 NOSIG,OESK,2015-02-21T06:20:00Z,29.77,40.1,10.0,-3.0,260,28,,2.49,29.822834,,,,,,TRUE,,,,BLDU,FEW,4000,SCT,10000,,,,,IFR,,,,,,,,,,,,SPECI,684.0
ESSL 210620Z AUTO 19005KT 9999NDV BKN029/// 01/00 Q0995 R29/09//95,ESSL,2015-02-21T06:20:00Z,58.38,15.67,1.0,0.0,190,5,,,29.379921,,,TRUE,,,,,,,,,,,,,,,,,,,,,,,,,,,,METAR,52.0
ESPE 210620Z AUTO VRB02KT 9999NDV NCD M03/M06 Q0983,ESPE,2015-02-21T06:20:00Z,65.88,20.15,-3.0,-6.0,0,2,,,29.02559,,,TRUE,,,,,,,,,,,,,,,,,,,,,,,,,,,,METAR,182.0
ESPA 210620Z 20007KT CAVOK M02/M04 Q0985,ESPA,2015-02-21T06:20:00Z,65.53,22.12,-2.0,-4.0,200,7,,6.21,29.084646,,,,,,,,,,,CAVOK,,,,,,,,VFR,,,,,,,,,,,,METAR,34.0
ESIB 210620Z AUTO 19007KT 9999NDV SCT006/// BKN008/// BKN013/// OVC016/// 02/01 Q0993,ESIB,2015-02-21T06:20:00Z,58.42,12.68,2.0,1.0,190,7,,,29.320866,,,TRUE,,,,,,,,,,,,,,,,,,,,,,,,,,,,METAR,74.0
ESDF 210620Z 18003KT 2500 -RA BR OVC006 03/03 Q0995,ESDF,2015-02-21T06:20:00Z,56.27,15.27,3.0,3.0,180,3,,1.55,29.379921,,,,,,,,,,-RA BR,OVC,600,,,,,,,IFR,,,,,,,,,,,,METAR,74.0
ESCF 210620Z AUTO 19006KT 9999NDV BKN029/// 01/01 Q0995,ESCF,2015-02-21T06:20:00Z,58.38,15.52,1.0,1.0,190,6,,,29.379921,,,TRUE,,,,,,,,,,,,,,,,,,,,,,,,,,,,METAR,117.0
ESUT 210620Z AUTO 18005KT 9999 BKN024/// OVC038/// 00/M03 Q0980,ESUT,2015-02-21T06:20:00Z,65.8,15.08,0.0,-3.0,180,5,,6.21,28.937008,,,TRUE,,,,,,,,,,,,,,,,,,,,,,,,,,,,METAR,463.0
ESNZ 210620Z AUTO 19008KT 9999 NCD M01/M06 Q0984,ESNZ,2015-02-21T06:20:00Z,63.17,14.5,-1.0,-6.0,190,8,,6.21,29.055119,,,TRUE,,,,,,,,,,,,,,,,,,,,,,,,,,,,METAR,370.0
ESNU 210620Z 17004KT CAVOK M02/M02 Q0987 R14/79//34,ESNU,2015-02-21T06:20:00Z,63.78,20.27,-2.0,-2.0,170,4,,6.21,29.143702,,,,,,,,,,,CAVOK,,,,,,,,VFR,,,,,,,,,,,,SPECI,14.0
ESNS 210620Z AUTO 19005KT 140V220 9999 NCD M03/M04 Q0986,ESNS,2015-02-21T06:20:00Z,64.62,21.07,-3.0,-4.0,190,5,,6.21,29.114174,,,TRUE,,,,,,,,,,,,,,,,,,,,,,,,,,,,SPECI,49.0
ESNQ 210620Z 22011KT CAVOK M02/M06 Q0976,ESNQ,2015-02-21T06:20:00Z,67.82,20.32,-2.0,-6.0,220,11,,6.21,28.818897,,,,,,,,,,,CAVOK,,,,,,,,VFR,,,,,,,,,,,,METAR,452.0
ESNO 210620Z AUTO 23003KT 9999 NCD M08/M09 Q0986,ESNO,2015-02-21T06:20:00Z,63.38,18.97,-8.0,-9.0,230,3,,6.21,29.114174,,,TRUE,,,,,,,,,,,,,,,,,,,,,,,,,,,,SPECI,103.0
ESNN 210620Z AUTO 31002KT 9999 NCD M09/M10 Q0989 R16/19//67,ESNN,2015-02-21T06:20:00Z,62.52,17.43,-9.0,-10.0,310,2,,6.21,29.202755,,,TRUE,,,,,,,,,,,,,,,,,,,,,,,,,,,,SPECI,10.0
ESNK 210620Z AUTO 00000KT 0600 R17/1200U R35/P2000N FZFG SCT000/// M09/M09 Q0988,ESNK,2015-02-21T06:20:00Z,63.03,17.77,-9.0,-9.0,0,0,,0.37,29.17323,,,TRUE,,,,,,,FZFG,,,,,,,,,,,,,,,,,,,,,METAR,19.0
ESNG 210620Z AUTO 22005G16KT 120V280 9999 NCD M02/M05 Q0979,ESNG,2015-02-21T06:20:00Z,67.13,20.82,-2.0,-5.0,220,5,16,6.21,28.90748,,,TRUE,,,,,,,,,,,,,,,,,,,,,,,,,,,,METAR,310.0
ESSV 210620Z AUTO 19004KT 8000 -RA ///023 02/02 Q0997 R21/29//66,ESSV,2015-02-21T06:20:00Z,57.67,18.35,2.0,2.0,190,4,,4.97,29.438976,,,TRUE,,,,,,,-RA,,,,,,,,,,,,,,,,,,,,,SPECI,47.0
ESSP 210620Z AUTO 17004KT 9999 NCD 01/00 Q0995,ESSP,2015-02-21T06:20:00Z,58.57,16.25,1.0,0.0,170,4,,6.21,29.379921,,,TRUE,,,,,,,,,,,,,,,,,,,,,,,,,,,,SPECI,8.0
ESSD 210620Z AUTO 21006KT 170V240 9999 OVC014/// 01/M01 Q0991,ESSD,2015-02-21T06:20:00Z,60.42,15.5,1.0,-1.0,210,6,,6.21,29.26181,,,TRUE,,,,,,,,,,,,,,,,,,,,,,,,,,,,SPECI,161.0
ESSB 210620Z AUTO 21005KT 9999 BKN014/// OVC018/// 02/M00 Q0995,ESSB,2015-02-21T06:20:00Z,59.35,17.93,2.0,0.0,210,5,,6.21,29.379921,,,TRUE,,,,,,,,,,,,,,,,,,,,,,,,,,,,SPECI,11.0
ESSA 210620Z 23009KT 9999 SCT011 BKN012 02/M00 Q0994 R01L/09//95 R08/09//95 R01R/09//95 NOSIG,ESSA,2015-02-21T06:20:00Z,59.63,17.93,2.0,0.0,230,9,,6.21,29.350393,,,,,,TRUE,,,,,SCT,1100,BKN,1200,,,,,MVFR,,,,,,,,,,,,SPECI,61.0
ESOW 210620Z AUTO 20009KT 9999 FEW012/// OVC017/// 01/00 Q0994,ESOW,2015-02-21T06:20:00Z,59.57,16.62,1.0,0.0,200,9,,6.21,29.350393,,,TRUE,,,,,,,,,,,,,,,,,,,,,,,,,,,,SPECI,31.0
ESOK 210620Z AUTO 19009KT 9999 OVC005/// 01/01 Q0992 RESHUP REUP,ESOK,2015-02-21T06:20:00Z,59.45,13.33,1.0,1.0,190,9,,6.21,29.291338,,,TRUE,,,,,,,UP,,,,,,,,,,,,,,,,,,,,,SPECI,107.0
ESOE 210620Z AUTO 20010KT 9999NDV FEW010/// SCT029/// 02/01 Q0994 RERA REDZ,ESOE,2015-02-21T06:20:00Z,59.22,15.05,2.0,1.0,200,10,,,29.350393,,,TRUE,,,,,,,,,,,,,,,,,,,,,,,,,,,,METAR,57.0
ESKN 210620Z 22006KT 9999 SCT023 01/M00 Q0995 R26/290195,ESKN,2015-02-21T06:20:00Z,58.78,16.9,1.0,0.0,220,6,,6.21,29.379921,,,,,,,,,,,SCT,2300,,,,,,,VFR,,,,,,,,,,,,SPECI,43.0
ESUD 210620Z AUTO 00000KT 9999 BKN066/// M06/M08 Q0984,ESUD,2015-02-21T06:20:00Z,64.97,17.7,-6.0,-8.0,0,0,,6.21,29.055119,,,TRUE,,,,,,,,,,,,,,,,,,,,,,,,,,,,METAR,279.0
ESNX 210620Z AUTO 19004KT 9999NDV NCD M01/M06 Q0982,ESNX,2015-02-21T06:20:00Z,65.58,19.28,-1.0,-6.0,190,4,,,28.996063,,,TRUE,,,,,,,,,,,,,,,,,,,,,,,,,,,,METAR,379.0
ESNL 210620Z AUTO 31003KT 170V330 9999 NCD M10/M12 Q0985,ESNL,2015-02-21T06:20:00Z,64.55,18.72,-10.0,-12.0,310,3,,6.21,29.084646,,,TRUE,,,,,,,,,,,,,,,,,,,,,,,,,,,,METAR,214.0
ESGR 210620Z AUTO 16004KT 9999 OVC010/// 01/00 Q0994,ESGR,2015-02-21T06:20:00Z,58.45,13.97,1.0,0.0,160,4,,6.21,29.350393,,,TRUE,,,,,,,,,,,,,,,,,,,,,,,,,,,,METAR,105.0
EGSH 210620Z 27007KT 9999 FEW039 SCT047 01/01 Q0996 NOSIG,EGSH,2015-02-21T06:20:00Z,52.68,1.28,1.0,1.0,270,7,,6.21,29.409449,,,,,,TRUE,,,,,FEW,3900,SCT,4700,,,,,VFR,,,,,,,,,,,,METAR,36.0
EGCN 210620Z 26007KT 9999 SCT048 02/00 Q0998,EGCN,2015-02-21T06:20:00Z,53.48,-1.0,2.0,0.0,260,7,,6.21,29.468504,,,,,,,,,,,SCT,4800,,,,,,,VFR,,,,,,,,,,,,METAR,17.0
EGPE 210620Z 25012KT 9999 FEW020 00/M02 Q0993,EGPE,2015-02-21T06:20:00Z,57.52,-4.03,0.0,-2.0,250,12,,6.21,29.320866,,,,,,,,,,,FEW,2000,,,,,,,VFR,,,,,,,,,,,,METAR,9.0
EGNJ 210620Z 25005KT 9999 SCT047 01/01 Q0996,EGNJ,2015-02-21T06:20:00Z,53.57,-0.35,1.0,1.0,250,5,,6.21,29.409449,,,,,,,,,,,SCT,4700,,,,,,,VFR,,,,,,,,,,,,METAR,31.0
EGNH 210620Z 32012G22KT 9999 -RADZ SCT014 BKN018 04/02 Q0998,EGNH,2015-02-21T06:20:00Z,53.77,-3.02,4.0,2.0,320,12,22,6.21,29.468504,,,,,,,,,,-RA -DZ,SCT,1400,BKN,1800,,,,,MVFR,,,,,,,,,,,,METAR,10.0
EGAE 210620Z 22007KT 9999 BKN016 02/01 Q1000 R26/SNOCLO,EGAE,2015-02-21T06:20:00Z,55.03,-7.15,2.0,1.0,220,7,,6.21,29.52756,,,,,,,,,,SN,BKN,1600,,,,,,,MVFR,,,,,,,,,,,,METAR,9.0
LSZC 210620Z AUTO 22006KT 9999 BKN100 01/M03 Q1002,LSZC,2015-02-21T06:20:00Z,46.97,8.38,1.0,-3.0,220,6,,6.21,29.586615,,,TRUE,,,,,,,,BKN,10000,,,,,,,VFR,,,,,,,,,,,,METAR,450.0
LSZS 210620Z 19007KT 5000 VCSH BKN030 M06/M07 Q1005,LSZS,2015-02-21T06:20:00Z,46.53,9.88,-6.0,-7.0,190,7,,3.11,29.675198,,,,,,,,,,VCSH,BKN,3000,,,,,,,MVFR,,,,,,,,,,,,METAR,1706.0
LSZR 210620Z VRB03KT CAVOK M01/M04 Q1002 NOSIG RMK A,LSZR,2015-02-21T06:20:00Z,47.48,9.57,-1.0,-4.0,0,3,,6.21,29.586615,,,,,,TRUE,,,,,CAVOK,,,,,,,,VFR,,,,,,,,,,,,METAR,398.0
LSZG 210620Z AUTO VRB02KT 9999 -SHSN BKN018 01/M00 Q1002,LSZG,2015-02-21T06:20:00Z,47.17,7.42,1.0,0.0,0,2,,6.21,29.586615,,,TRUE,,,,,,,-SHSN,BKN,1800,,,,,,,MVFR,,,,,,,,,,,,METAR,430.0
LSGS 210620Z VRB01KT 9999 SCT080 OVC100 02/M05 Q1004,LSGS,2015-02-21T06:20:00Z,46.22,7.32,2.0,-5.0,0,1,,6.21,29.64567,,,,,,,,,,,SCT,8000,OVC,10000,,,,,VFR,,,,,,,,,,,,METAR,481.0
LSGC 210620Z AUTO 22011KT 190V260 8000 -SN BKN009 SCT014 01/M01 Q1000,LSGC,2015-02-21T06:20:00Z,47.08,6.8,1.0,-1.0,220,11,,4.97,29.52756,,,TRUE,,,,,,,-SN,BKN,900,SCT,1400,,,,,IFR,,,,,,,,,,,,METAR,1027.0
EGSS 210620Z 30004KT 9999 BKN010 01/01 Q0998,EGSS,2015-02-21T06:20:00Z,51.88,0.22,1.0,1.0,300,4,,6.21,29.468504,,,,,,,,,,,BKN,1000,,,,,,,MVFR,,,,,,,,,,,,METAR,106.0
EGPK 210620Z 31007KT 9999 SCT025 03/00 Q0997,EGPK,2015-02-21T06:20:00Z,55.5,-4.57,3.0,0.0,310,7,,6.21,29.438976,,,,,,,,,,,SCT,2500,,,,,,,VFR,,,,,,,,,,,,METAR,20.0
EGPH 210620Z 26006KT CAVOK 00/M01 Q0995,EGPH,2015-02-21T06:20:00Z,55.95,-3.35,0.0,-1.0,260,6,,6.21,29.379921,,,,,,,,,,,CAVOK,,,,,,,,VFR,,,,,,,,,,,,METAR,41.0
EGPF 210620Z AUTO 20005KT 9999 BKN027 01/M01 Q0996,EGPF,2015-02-21T06:20:00Z,55.87,-4.42,1.0,-1.0,200,5,,6.21,29.409449,,,TRUE,,,,,,,,BKN,2700,,,,,,,MVFR,,,,,,,,,,,,METAR,8.0
EGKK 210620Z 25004KT 220V300 9999 -RA SCT009 BKN018 02/02 Q0999,EGKK,2015-02-21T06:20:00Z,51.13,-0.17,2.0,2.0,250,4,,6.21,29.498032,,,,,,,,,,-RA,SCT,900,BKN,1800,,,,,MVFR,,,,,,,,,,,,METAR,62.0
EGCC 210620Z 24004KT 9999 FEW015 SCT032 BKN045 01/01 Q0998,EGCC,2015-02-21T06:20:00Z,53.35,-2.27,1.0,1.0,240,4,,6.21,29.468504,,,,,,,,,,,FEW,1500,SCT,3200,BKN,4500,,,VFR,,,,,,,,,,,,METAR,78.0
EGBB 210620Z 27005KT 230V290 9999 BKN021 03/00 Q0998,EGBB,2015-02-21T06:20:00Z,52.47,-1.75,3.0,0.0,270,5,,6.21,29.468504,,,,,,,,,,,BKN,2100,,,,,,,MVFR,,,,,,,,,,,,METAR,99.0
EGMC 210620Z 26006KT 9999 FEW025 SCT040 03/00 Q0998,EGMC,2015-02-21T06:20:00Z,51.57,0.7,3.0,0.0,260,6,,6.21,29.468504,,,,,,,,,,,FEW,2500,SCT,4000,,,,,VFR,,,,,,,,,,,,METAR,15.0
EGHH 210620Z 30009KT 9999 BKN034 BKN045 03/02 Q1000,EGHH,2015-02-21T06:20:00Z,50.78,-1.83,3.0,2.0,300,9,,6.21,29.52756,,,,,,,,,,,BKN,3400,BKN,4500,,,,,VFR,,,,,,,,,,,,METAR,11.0
EGPO 210620Z 28011G24KT 9999 6000W -SHRASNGS FEW010 BKN016CB 01/M02 Q0993,EGPO,2015-02-21T06:20:00Z,58.22,-6.32,1.0,-2.0,280,11,24,6.21,29.320866,,,,,,,,,,-SHRA GS SN,FEW,1000,BKN,1600,,,,,MVFR,,,,,,,,,,,,METAR,13.0
EGPM 210620Z AUTO 34003KT 9999 FEW006/// SCT013/// BKN026/// 03/01 Q0987 RERA,EGPM,2015-02-21T06:20:00Z,60.42,-1.3,3.0,1.0,340,3,,6.21,29.143702,,,TRUE,,,,,,,,,,,,,,,,,,,,,,,,,,,,METAR,22.0
EGPL 210620Z AUTO 30015G27KT 9999 FEW036/// 04/01 Q0995,EGPL,2015-02-21T06:20:00Z,57.47,-7.37,4.0,1.0,300,15,27,6.21,29.379921,,,TRUE,,,,,,,,,,,,,,,,,,,,,,,,,,,,METAR,6.0
EGPC 210620Z AUTO 27010KT 9999 FEW011/// 00/M01 Q0990,EGPC,2015-02-21T06:20:00Z,58.45,-3.07,0.0,-1.0,270,10,,6.21,29.232283,,,TRUE,,,,,,,,,,,,,,,,,,,,,,,,,,,,METAR,39.0
EGPA 210620Z 28010KT 9999 VCSH SCT012CB SCT023 03/01 Q0989,EGPA,2015-02-21T06:20:00Z,58.95,-2.88,3.0,1.0,280,10,,6.21,29.202755,,,,,,,,,,VCSH,SCT,1200,SCT,2300,,,,,VFR,,,,,,,,,,,,METAR,21.0
EFSI 210620Z AUTO 20007KT 140V260 9999 FEW013 BKN016 02/00 Q0990,EFSI,2015-02-21T06:20:00Z,62.7,22.83,2.0,0.0,200,7,,6.21,29.232283,,,TRUE,,,,,,,,FEW,1300,BKN,1600,,,,,MVFR,,,,,,,,,,,,METAR,91.0
EFPO 210620Z AUTO 19007KT 9999 OVC011/// 02/M00 Q0993 R12/19//95,EFPO,2015-02-21T06:20:00Z,61.47,21.8,2.0,0.0,190,7,,6.21,29.320866,,,TRUE,,,,,,,,,,,,,,,,,,,,,,,,,,,,SPECI,17.0
EFMA 210620Z 21010KT 9999 OVC011 02/01 Q0994,EFMA,2015-02-21T06:20:00Z,60.12,19.88,2.0,1.0,210,10,,6.21,29.350393,,,,,,,,,,,OVC,1100,,,,,,,MVFR,,,,,,,,,,,,METAR,6.0
EFKK 210620Z AUTO 20010KT 170V240 9999 SCT009 OVC011 01/M00 Q0989,EFKK,2015-02-21T06:20:00Z,63.72,23.13,1.0,0.0,200,10,,6.21,29.202755,,,TRUE,,,,,,,,SCT,900,OVC,1100,,,,,MVFR,,,,,,,,,,,,METAR,25.0
EFHF 210620Z 20006KT 170V230 9999 BKN009 02/01 Q0997,EFHF,2015-02-21T06:20:00Z,60.25,25.05,2.0,1.0,200,6,,6.21,29.438976,,,,,,,,,,,BKN,900,,,,,,,IFR,,,,,,,,,,,,METAR,28.0
EFHA 210620Z AUTO 20006KT 150V250 9999 OVC008 01/00 Q0993,EFHA,2015-02-21T06:20:00Z,61.85,24.8,1.0,0.0,200,6,,6.21,29.320866,,,TRUE,,,,,,,,OVC,800,,,,,,,IFR,,,,,,,,,,,,METAR,145.0
EGTE 210620Z VRB03KT CAVOK 02/00 Q1002,EGTE,2015-02-21T06:20:00Z,50.72,-3.42,2.0,0.0,0,3,,6.21,29.586615,,,,,,,,,,,CAVOK,,,,,,,,VFR,,,,,,,,,,,,METAR,30.0
EGJJ 210620Z 32014KT 9999 5000SW VCSH FEW018CB SCT022 05/02 Q1002 TEMPO 5000 SHRA BKN015CB,EGJJ,2015-02-21T06:20:00Z,49.22,-2.2,5.0,2.0,320,14,,6.21,29.586615,,,,,,,,,,VCSH,FEW,1800,SCT,2200,,,,,VFR,,,,,,,,,,,,METAR,84.0
EGJB 210620Z 33012KT 9999 VCSH FEW016CB SCT020 05/02 Q1002,EGJB,2015-02-21T06:20:00Z,49.42,-2.6,5.0,2.0,330,12,,6.21,29.586615,,,,,,,,,,VCSH,FEW,1600,SCT,2000,,,,,VFR,,,,,,,,,,,,METAR,102.0
EGPD 210620Z 29011KT CAVOK 02/M02 Q0992 NOSIG,EGPD,2015-02-21T06:20:00Z,57.2,-2.22,2.0,-2.0,290,11,,6.21,29.291338,,,,,,TRUE,,,,,CAVOK,,,,,,,,VFR,,,,,,,,,,,,METAR,65.0
EGNX 210620Z 27010KT 9999 SCT005 BKN039 01/01 Q0998,EGNX,2015-02-21T06:20:00Z,52.82,-1.32,1.0,1.0,270,10,,6.21,29.468504,,,,,,,,,,,SCT,500,BKN,3900,,,,,VFR,,,,,,,,,,,,METAR,94.0
EGNM 210620Z 27010KT 9999 FEW014 01/00 Q0996,EGNM,2015-02-21T06:20:00Z,53.87,-1.63,1.0,0.0,270,10,,6.21,29.409449,,,,,,,,,,,FEW,1400,,,,,,,VFR,,,,,,,,,,,,METAR,208.0
EGGW 210620Z 27008KT 9999 SCT004 01/01 Q0998,EGGW,2015-02-21T06:20:00Z,51.87,-0.37,1.0,1.0,270,8,,6.21,29.468504,,,,,,,,,,,SCT,400,,,,,,,VFR,,,,,,,,,,,,METAR,160.0
EGFF 210620Z AUTO 29009KT 9999 FEW020 02/00 Q1001,EGFF,2015-02-21T06:20:00Z,51.38,-3.35,2.0,0.0,290,9,,6.21,29.557087,,,TRUE,,,,,,,,FEW,2000,,,,,,,VFR,,,,,,,,,,,,METAR,67.0
EGAC 210620Z 23007KT 190V280 9999 FEW010 02/M00 Q1000,EGAC,2015-02-21T06:20:00Z,54.62,-5.87,2.0,0.0,230,7,,6.21,29.52756,,,,,,,,,,,FEW,1000,,,,,,,VFR,,,,,,,,,,,,METAR,5.0
EGAA 210620Z 24009KT 9999 SCT005 BKN013 BKN045 01/01 Q1000,EGAA,2015-02-21T06:20:00Z,54.63,-6.22,1.0,1.0,240,9,,6.21,29.52756,,,,,,,,,,,SCT,500,BKN,1300,BKN,4500,,,MVFR,,,,,,,,,,,,METAR,81.0
EGPB 210620Z AUTO 29015KT 6000 -RA FEW005/// 04/02 Q0987,EGPB,2015-02-21T06:20:00Z,59.87,-1.3,4.0,2.0,290,15,,3.73,29.143702,,,TRUE,,,,,,,-RA,,,,,,,,,,,,,,,,,,,,,METAR,5.0
EGNV 210620Z 28008KT 9999 FEW025 02/M02 Q0996,EGNV,2015-02-21T06:20:00Z,54.52,-1.42,2.0,-2.0,280,8,,6.21,29.409449,,,,,,,,,,,FEW,2500,,,,,,,VFR,,,,,,,,,,,,METAR,37.0
EGNT 210620Z 26008KT CAVOK 00/M01 Q0995,EGNT,2015-02-21T06:20:00Z,55.02,-1.7,0.0,-1.0,260,8,,6.21,29.379921,,,,,,,,,,,CAVOK,,,,,,,,VFR,,,,,,,,,,,,METAR,81.0
EGHI 210620Z VRB03KT 9999 FEW040 02/01 Q1000,EGHI,2015-02-21T06:20:00Z,50.95,-1.35,2.0,1.0,0,3,,6.21,29.52756,,,,,,,,,,,FEW,4000,,,,,,,VFR,,,,,,,,,,,,METAR,14.0
EGGP 210620Z 30008KT 270V330 9999 VCSH SCT019 04/02 Q0998,EGGP,2015-02-21T06:20:00Z,53.32,-2.85,4.0,2.0,300,8,,6.21,29.468504,,,,,,,,,,VCSH,SCT,1900,,,,,,,VFR,,,,,,,,,,,,METAR,26.0
EGGD 210620Z 26009KT 9999 FEW010 SCT022 BKN037 02/00 Q1000,EGGD,2015-02-21T06:20:00Z,51.37,-2.72,2.0,0.0,260,9,,6.21,29.52756,,,,,,,,,,,FEW,1000,SCT,2200,BKN,3700,,,VFR,,,,,,,,,,,,METAR,189.0
EGLL 210620Z 30007KT 8000 -RA FEW007 BKN010 02/02 Q0999 TEMPO RA,EGLL,2015-02-21T06:20:00Z,51.48,-0.45,2.0,2.0,300,7,,4.97,29.498032,,,,,,,,,,-RA,FEW,700,BKN,1000,,,,,MVFR,,,,,,,,,,,,METAR,24.0
CWZQ 210620Z AUTO 16015G20KT M10/M13 RMK AO1 T10961130,CWZQ,2015-02-21T06:20:00Z,46.53,-61.05,-9.6,-13.0,160,15,20,,,,,TRUE,TRUE,,,,,,,,,,,,,,,,,,,,,,,,,,,METAR,17.0
PKWA 210620Z AUTO 07009KT 10SM SCT015 BKN023 29/24 A2979 RMK AO2 T02860235,PKWA,2015-02-21T06:20:00Z,8.72,167.72,28.6,23.5,70,9,,10.0,29.790354,,,TRUE,TRUE,,,,,,,SCT,1500,BKN,2300,,,,,MVFR,,,,,,,,,,,,SPECI,8.0
CWFD 210620Z AUTO 36023KT 3SM FEW057 FEW083 M31/ A2965 RMK ICG PAST HR,CWFD,2015-02-21T06:20:00Z,66.57,-61.58,-31.0,,360,23,,3.0,29.648623,,,TRUE,,,,,,,,FEW,5700,FEW,8300,,,,,MVFR,,,,,,,,,,,,SPECI,393.0
EDHL 210620Z 18005KT 4000 -RA BR BKN007 BKN020 05/05 Q0992 RMK ATIS CHA,EDHL,2015-02-21T06:20:00Z,53.8,10.72,5.0,5.0,180,5,,2.49,29.291338,,,,,,,,,,-RA BR,BKN,700,BKN,2000,,,,,IFR,,,,,,,,,,,,SPECI,16.0
EDLP 210620Z 20013KT 9999 BKN045 05/04 Q0993 RMK ATIS NOV,EDLP,2015-02-21T06:20:00Z,51.62,8.62,5.0,4.0,200,13,,6.21,29.320866,,,,,,,,,,,BKN,4500,,,,,,,VFR,,,,,,,,,,,,SPECI,213.0
EDLW 210620Z 26013G24KT 230V290 9999 -RA BKN007 03/01 Q0994 RMK ATIS E,EDLW,2015-02-21T06:20:00Z,51.52,7.62,3.0,1.0,260,13,24,6.21,29.350393,,,,,,,,,,-RA,BKN,700,,,,,,,IFR,,,,,,,,,,,,SPECI,127.0
EDMA 210620Z 15005KT CAVOK M02/M07 Q1002 RMK ATIS HOT,EDMA,2015-02-21T06:20:00Z,48.42,10.92,-2.0,-7.0,150,5,,6.21,29.586615,,,,,,,,,,,CAVOK,,,,,,,,VFR,,,,,,,,,,,,SPECI,463.0
EDOP 210620Z 16009KT 9999 FEW043 SCT053 OVC068 05/01 Q0994,EDOP,2015-02-21T06:20:00Z,53.43,11.78,5.0,1.0,160,9,,6.21,29.350393,,,,,,,,,,,FEW,4300,SCT,5300,OVC,6800,,,VFR,,,,,,,,,,,,METAR,51.0
EDSB 210620Z 21019KT 9999 -SHRA FEW036 SCT050 07/03 Q0999,EDSB,2015-02-21T06:20:00Z,48.78,8.08,7.0,3.0,210,19,,6.21,29.498032,,,,,,,,,,-SHRA,FEW,3600,SCT,5000,,,,,VFR,,,,,,,,,,,,METAR,124.0
EDVE 210620Z 19010KT CAVOK 08/02 Q0994,EDVE,2015-02-21T06:20:00Z,52.32,10.55,8.0,2.0,190,10,,6.21,29.350393,,,,,,,,,,,CAVOK,,,,,,,,VFR,,,,,,,,,,,,METAR,88.0
EDVK 210620Z 17014KT 150V210 9999 BKN017 05/03 Q0994 RMK ATIS DEL,EDVK,2015-02-21T06:20:00Z,51.38,9.37,5.0,3.0,170,14,,6.21,29.350393,,,,,,,,,,,BKN,1700,,,,,,,MVFR,,,,,,,,,,,,SPECI,285.0
EYVI 210620Z 16007KT 2600 BR NSC M01/M02 Q1008 R20/1///95 NOSIG,EYVI,2015-02-21T06:20:00Z,54.63,25.28,-1.0,-2.0,160,7,,1.62,29.763779,,,,,,TRUE,,,,BR,,,,,,,,,,,,,,,,,,,,,SPECI,197.0
EYPA 210620Z 15010KT 6000 OVC049 03/M01 Q1001 R19/1///95,EYPA,2015-02-21T06:20:00Z,55.97,21.08,3.0,-1.0,150,10,,3.73,29.557087,,,,,,,,,,,OVC,4900,,,,,,,MVFR,,,,,,,,,,,,METAR,10.0
CYMH 210620Z AUTO 21021G34KT 9SM M07/M11 A2930 RMK CLD MISG SLP923,CYMH,2015-02-21T06:20:00Z,52.28,-55.85,-7.0,-11.0,210,21,34,9.0,29.300198,992.3,,TRUE,,,,,,,,,,,,,,,,,,,,,,,,,,,,SPECI,11.0
CYVL 210620Z AUTO 23003KT 6SM M15/M17 A3034 RMK CLD MISG PCPN MISG SLP307,CYVL,2015-02-21T06:20:00Z,67.02,-126.13,-15.0,-17.0,230,3,,6.0,30.339567,1030.7,,TRUE,,,,,,,,,,,,,,,,,,,,,,,,,,,,SPECI,259.0
ENRA 210620Z 00000KT 9999 -SNRA FEW005 SCT015 BKN030 M00/M00 Q0981,ENRA,2015-02-21T06:20:00Z,66.37,14.3,0.0,0.0,0,0,,6.21,28.966536,,,,,,,,,,-SN -RA,FEW,500,SCT,1500,BKN,3000,,,MVFR,,,,,,,,,,,,METAR,70.0
ENBV 210620Z 24010KT 9999 FEW040 M06/M08 Q0978,ENBV,2015-02-21T06:20:00Z,70.87,29.02,-6.0,-8.0,240,10,,6.21,28.877953,,,,,,,,,,,FEW,4000,,,,,,,VFR,,,,,,,,,,,,METAR,13.0
EGNS 210620Z 30015KT 260V350 9999 SCT018 04/M00 Q0999 NOSIG,EGNS,2015-02-21T06:20:00Z,54.08,-4.63,4.0,0.0,300,15,,6.21,29.498032,,,,,,TRUE,,,,,SCT,1800,,,,,,,VFR,,,,,,,,,,,,METAR,17.0
ENNA 210620Z 19017KT CAVOK M07/M10 Q0978 RMK WIND 1800FT 18003KT,ENNA,2015-02-21T06:20:00Z,70.07,24.97,-7.0,-10.0,190,17,,6.21,28.877953,,,,,,,,,,,CAVOK,,,,,,,,VFR,,,,,,,,,,,,SPECI,8.0
ENML 210620Z 07007KT 9999 SCT060 00/M02 Q0984,ENML,2015-02-21T06:20:00Z,62.75,7.27,0.0,-2.0,70,7,,6.21,29.055119,,,,,,,,,,,SCT,6000,,,,,,,VFR,,,,,,,,,,,,METAR,3.0
ENKR 210620Z 20008KT 1500 BR SCT001 BKN002 M05/M05 Q0980 RMK WIND 731FT 19010KT,ENKR,2015-02-21T06:20:00Z,69.72,29.88,-5.0,-5.0,200,8,,0.93,28.937008,,,,,,,,,,BR,SCT,100,BKN,200,,,,,LIFR,,,,,,,,,,,,SPECI,91.0
ENKB 210620Z 20005KT 9999 FEW051 02/M03 Q0983,ENKB,2015-02-21T06:20:00Z,63.12,7.82,2.0,-3.0,200,5,,6.21,29.02559,,,,,,,,,,,FEW,5100,,,,,,,VFR,,,,,,,,,,,,METAR,62.0
ENFL 210620Z 16017KT 9999 -SHRA FEW007 SCT012 BKN020 03/02 Q0986,ENFL,2015-02-21T06:20:00Z,61.57,5.02,3.0,2.0,160,17,,6.21,29.114174,,,,,,,,,,-SHRA,FEW,700,SCT,1200,BKN,2000,,,MVFR,,,,,,,,,,,,METAR,9.0
ENZV 210620Z 16008KT 9999 FEW016 SCT026 BKN035 02/01 Q0990 TEMPO 4000 SHRA SCT014CB BKN020,ENZV,2015-02-21T06:20:00Z,58.87,5.62,2.0,1.0,160,8,,6.21,29.232283,,,,,,,,,,,FEW,1600,SCT,2600,BKN,3500,,,VFR,,,,,,,,,,,,SPECI,9.0
ENVA 210620Z 10004KT CAVOK M02/M04 Q0985 NOSIG RMK WIND 670FT 16010KT,ENVA,2015-02-21T06:20:00Z,63.47,10.92,-2.0,-4.0,100,4,,6.21,29.084646,,,,,,TRUE,,,,,CAVOK,,,,,,,,VFR,,,,,,,,,,,,SPECI,17.0
ENOL 210620Z 14008KT 9999 FEW020 BKN180 02/M02 Q0984 NOSIG,ENOL,2015-02-21T06:20:00Z,63.7,9.58,2.0,-2.0,140,8,,6.21,29.055119,,,,,,TRUE,,,,,FEW,2000,BKN,18000,,,,,VFR,,,,,,,,,,,,METAR,7.0
ENGM 210620Z 21002KT 9999 SCT008 M02/M03 Q0989 TEMPO BKN008,ENGM,2015-02-21T06:20:00Z,60.2,11.1,-2.0,-3.0,210,2,,6.21,29.202755,,,,,,,,,,,SCT,800,,,,,,,VFR,,,,,,,,,,,,SPECI,204.0
ENDU 210620Z 24004KT 190V280 5000 9999NW VV016 M00/M01 Q0976,ENDU,2015-02-21T06:20:00Z,69.03,18.55,0.0,-1.0,240,4,,3.11,28.818897,,,,,,,,,,,OVX,0,,,,,,,LIFR,,,,,,,,,,,1600,SPECI,79.0
ENBO 210620Z 17008KT 9999 -SHSNRA FEW008 SCT012 BKN025 01/01 Q0980,ENBO,2015-02-21T06:20:00Z,67.27,14.37,1.0,1.0,170,8,,6.21,28.937008,,,,,,,,,,-SHSN -SHRA,FEW,800,SCT,1200,BKN,2500,,,MVFR,,,,,,,,,,,,METAR,13.0
ENBR 210620Z 15009KT 9999 FEW008 SCT011 BKN022 02/01 Q0988 TEMPO 4000 SHRA SCT008 BKN012CB RMK WIND 1200FT 18011KT,ENBR,2015-02-21T06:20:00Z,60.28,5.22,2.0,1.0,150,9,,6.21,29.17323,,,,,,,,,,,FEW,800,SCT,1100,BKN,2200,,,MVFR,,,,,,,,,,,,SPECI,50.0
ENAN 210620Z 25009KT 9999 VCSH SCT012 BKN020 03/01 Q0975,ENAN,2015-02-21T06:20:00Z,69.28,16.13,3.0,1.0,250,9,,6.21,28.78937,,,,,,,,,,VCSH,SCT,1200,BKN,2000,,,,,MVFR,,,,,,,,,,,,METAR,14.0
ENFB 210620Z AUTO 25014KT 9999NDV -SHRA BKN014/// 03/02 Q0985 W///S5,ENFB,2015-02-21T06:20:00Z,61.2,1.83,3.0,2.0,250,14,,,29.084646,,,TRUE,,,,,,,-SHRA,,,,,,,,,,,,,,,,,,,,,SPECI,10.0
ENOA 210620Z 22014KT 9999 FEW015 04/01 Q0986 W///S5,ENOA,2015-02-21T06:20:00Z,60.5,2.83,4.0,1.0,220,14,,6.21,29.114174,,,,,,,,,,,FEW,1500,,,,,,,VFR,,,,,,,,,,,,SPECI,5.0
ENGC 210620Z 27017KT 9999 FEW010 FEW015CB SCT025 04/01 Q0985 W06/S5,ENGC,2015-02-21T06:20:00Z,61.02,2.02,4.0,1.0,270,17,,6.21,29.084646,,,,,,,,,,,FEW,1000,FEW,1500,SCT,2500,,,VFR,,,,,,,,,,,,SPECI,10.0
ENEK 210620Z 27010KT 9999 SCT020 05/00 Q0992 W07/S4,ENEK,2015-02-21T06:20:00Z,56.53,3.25,5.0,0.0,270,10,,6.21,29.291338,,,,,,,,,,,SCT,2000,,,,,,,VFR,,,,,,,,,,,,SPECI,3.0
ENTO 210620Z 21002KT CAVOK M01/M01 Q0991,ENTO,2015-02-21T06:20:00Z,59.2,10.27,-1.0,-1.0,210,2,,6.21,29.26181,,,,,,,,,,,CAVOK,,,,,,,,VFR,,,,,,,,,,,,METAR,88.0
ENTC 210620Z 24008KT 9999 VCSH FEW017 SCT023 BKN032 02/M00 Q0975 NOSIG RMK WIND 2600FT 16016KT,ENTC,2015-02-21T06:20:00Z,69.68,18.92,2.0,0.0,240,8,,6.21,28.78937,,,,,,TRUE,,,,VCSH,FEW,1700,SCT,2300,BKN,3200,,,VFR,,,,,,,,,,,,SPECI,10.0
ENRY 210620Z 21006KT CAVOK 01/M01 Q0991,ENRY,2015-02-21T06:20:00Z,59.37,10.77,1.0,-1.0,210,6,,6.21,29.26181,,,,,,,,,,,CAVOK,,,,,,,,VFR,,,,,,,,,,,,METAR,53.0
ENRO 210620Z AUTO 11005KT 090V150 9999NDV NCD M07/M09 Q0984,ENRO,2015-02-21T06:20:00Z,62.57,11.33,-7.0,-9.0,110,5,,,29.055119,,,TRUE,,,,,,,,,,,,,,,,,,,,,,,,,,,,SPECI,626.0
ENHD 210620Z 22011KT 9999 FEW016 SCT040 04/01 Q0989,ENHD,2015-02-21T06:20:00Z,59.35,5.22,4.0,1.0,220,11,,6.21,29.202755,,,,,,,,,,,FEW,1600,SCT,4000,,,,,VFR,,,,,,,,,,,,METAR,24.0
ENCN 210620Z 02003KT 340V050 1500 BR BKN019 M01/M01 Q0992,ENCN,2015-02-21T06:20:00Z,58.2,8.07,-1.0,-1.0,20,3,,0.93,29.291338,,,,,,,,,,BR,BKN,1900,,,,,,,LIFR,,,,,,,,,,,,METAR,17.0
ENAL 210620Z 20014KT 9999 SCT033 04/M00 Q0984,ENAL,2015-02-21T06:20:00Z,62.57,6.12,4.0,0.0,200,14,,6.21,29.055119,,,,,,,,,,,SCT,3300,,,,,,,VFR,,,,,,,,,,,,METAR,22.0
LGRP 210620Z 31008KT CAVOK 10/02 Q1014 NOSIG,LGRP,2015-02-21T06:20:00Z,36.4,28.08,10.0,2.0,310,8,,6.21,29.940945,,,,,,TRUE,,,,,CAVOK,,,,,,,,VFR,,,,,,,,,,,,METAR,5.0
LGKR 210620Z 00000KT 9999 FEW015 SCT035 04/04 Q1018 NOSIG,LGKR,2015-02-21T06:20:00Z,39.62,19.92,4.0,4.0,0,0,,6.21,30.059055,,,,,,TRUE,,,,,FEW,1500,SCT,3500,,,,,VFR,,,,,,,,,,,,METAR,2.0
LGIR 210620Z 32014KT 9999 FEW020 BKN025 12/06 Q1018 NOSIG,LGIR,2015-02-21T06:20:00Z,35.32,25.17,12.0,6.0,320,14,,6.21,30.059055,,,,,,TRUE,,,,,FEW,2000,BKN,2500,,,,,MVFR,,,,,,,,,,,,METAR,39.0
LGAV 210620Z 24001KT 9999 FEW025 05/01 Q1020 NOSIG,LGAV,2015-02-21T06:20:00Z,37.93,23.95,5.0,1.0,240,1,,6.21,30.11811,,,,,,TRUE,,,,,FEW,2500,,,,,,,VFR,,,,,,,,,,,,METAR,94.0
ENLA 210620Z AUTO 28016KT 9999NDV SCT024/// 05/00 Q0990 W///S4,ENLA,2015-02-21T06:20:00Z,59.1,2.83,5.0,0.0,280,16,,,29.232283,,,TRUE,,,,,,,,,,,,,,,,,,,,,,,,,,,,METAR,4.0
ENVH 210620Z AUTO 30013KT 9999NDV FEW025/// BKN047/// BKN180/// 04/01 Q0991 W///S4,ENVH,2015-02-21T06:20:00Z,56.27,3.38,4.0,1.0,300,13,,,29.26181,,,TRUE,,,,,,,,,,,,,,,,,,,,,,,,,,,,METAR,4.0
ENHM 210620Z 25013KT 9999 FEW020 04/01 Q0987 W07/S4,ENHM,2015-02-21T06:20:00Z,59.57,2.23,4.0,1.0,250,13,,6.21,29.143702,,,,,,,,,,,FEW,2000,,,,,,,VFR,,,,,,,,,,,,METAR,10.0
ENQA 210620Z AUTO 22019KT 9999NDV SCT022/// 04/01 Q0986 W04/S5,ENQA,2015-02-21T06:20:00Z,60.65,3.72,4.0,1.0,220,19,,,29.114174,,,TRUE,,,,,,,,,,,,,,,,,,,,,,,,,,,,METAR,20.0
ENQC 210620Z AUTO 22017KT 9999NDV FEW022/// 05/00 Q0986 W///S5,ENQC,2015-02-21T06:20:00Z,60.88,3.62,5.0,0.0,220,17,,,29.114174,,,TRUE,,,,,,,,,,,,,,,,,,,,,,,,,,,,METAR,20.0
ENSE 210620Z AUTO 27013KT 9999NDV FEW014/// BKN170/// 04/01 Q0985 W///S5,ENSE,2015-02-21T06:20:00Z,61.45,2.15,4.0,1.0,270,13,,,29.084646,,,TRUE,,,,,,,,,,,,,,,,,,,,,,,,,,,,METAR,10.0
ENQR 210620Z AUTO 25010KT 9999NDV BKN086/// BKN110/// 04/01 Q0984 W///S5,ENQR,2015-02-21T06:20:00Z,61.35,2.22,4.0,1.0,250,10,,,29.055119,,,TRUE,,,,,,,,,,,,,,,,,,,,,,,,,,,,METAR,10.0
ENNE 210620Z 36009KT 9999 -SHRA SCT013 BKN030 04/02 Q0979 W07/S6,ENNE,2015-02-21T06:20:00Z,66.03,8.08,4.0,2.0,360,9,,6.21,28.90748,,,,,,,,,,-SHRA,SCT,1300,BKN,3000,,,,,MVFR,,,,,,,,,,,,METAR,10.0
ENNM 210620Z VRB02KT CAVOK M02/M03 Q0984,ENNM,2015-02-21T06:20:00Z,64.47,11.57,-2.0,-3.0,0,2,,6.21,29.055119,,,,,,,,,,,CAVOK,,,,,,,,VFR,,,,,,,,,,,,METAR,2.0
EDJA 210620Z 18006KT CAVOK M04/M06 Q1001,EDJA,2015-02-21T06:20:00Z,47.98,10.23,-4.0,-6.0,180,6,,6.21,29.557087,,,,,,,,,,,CAVOK,,,,,,,,VFR,,,,,,,,,,,,METAR,633.0
EDLV 210620Z 28006KT 9999 -RA SCT030 BKN052 03/03 Q0996,EDLV,2015-02-21T06:20:00Z,51.6,6.15,3.0,3.0,280,6,,6.21,29.409449,,,,,,,,,,-RA,SCT,3000,BKN,5200,,,,,VFR,,,,,,,,,,,,METAR,32.0
EDFE 210620Z 19008KT 9999 -RA BKN023 06/03 Q0998,EDFE,2015-02-21T06:20:00Z,49.97,8.63,6.0,3.0,190,8,,6.21,29.468504,,,,,,,,,,-RA,BKN,2300,,,,,,,MVFR,,,,,,,,,,,,METAR,118.0
LIRQ 210620Z 00000KT 8000 FEW025 04/02 Q1013,LIRQ,2015-02-21T06:20:00Z,43.78,11.18,4.0,2.0,0,0,,4.97,29.911417,,,,,,,,,,,FEW,2500,,,,,,,MVFR,,,,,,,,,,,,METAR,38.0
LIRN 210620Z VRB02KT 9999 SCT050 08/03 Q1016,LIRN,2015-02-21T06:20:00Z,40.88,14.3,8.0,3.0,0,2,,6.21,30.0,,,,,,,,,,,SCT,5000,,,,,,,VFR,,,,,,,,,,,,METAR,72.0
LIRF 210620Z 08006KT 9999 FEW045 05/03 Q1015 NOSIG,LIRF,2015-02-21T06:20:00Z,41.78,12.22,5.0,3.0,80,6,,6.21,29.970472,,,,,,TRUE,,,,,FEW,4500,,,,,,,VFR,,,,,,,,,,,,METAR,3.0
LIML 210620Z 08004KT 050V120 2500 BR SCT030 BKN060 06/04 Q1011 NOSIG,LIML,2015-02-21T06:20:00Z,45.47,9.27,6.0,4.0,80,4,,1.55,29.852362,,,,,,TRUE,,,,BR,SCT,3000,BKN,6000,,,,,IFR,,,,,,,,,,,,METAR,103.0
LIMJ 210620Z 17008KT 6000 RA SCT018 BKN025 09/07 Q1011,LIMJ,2015-02-21T06:20:00Z,44.42,8.83,9.0,7.0,170,8,,3.73,29.852362,,,,,,,,,,RA,SCT,1800,BKN,2500,,,,,MVFR,,,,,,,,,,,,METAR,3.0
LIMF 210620Z 32005KT 3000 BR SCT050 BKN080 03/02 Q1010,LIMF,2015-02-21T06:20:00Z,45.22,7.65,3.0,2.0,320,5,,1.86,29.822834,,,,,,,,,,BR,SCT,5000,BKN,8000,,,,,IFR,,,,,,,,,,,,METAR,287.0
LIME 210620Z 02004KT 4000 BR BKN050 05/02 Q1011,LIME,2015-02-21T06:20:00Z,45.67,9.68,5.0,2.0,20,4,,2.49,29.852362,,,,,,,,,,BR,BKN,5000,,,,,,,IFR,,,,,,,,,,,,METAR,237.0
LIMC 210620Z 02003KT 310V070 3500 BR BKN025 05/03 Q1010 NOSIG,LIMC,2015-02-21T06:20:00Z,45.62,8.72,5.0,3.0,20,3,,2.17,29.822834,,,,,,TRUE,,,,BR,BKN,2500,,,,,,,IFR,,,,,,,,,,,,METAR,211.0
LIEO 210620Z 23003KT 9999 SCT045 04/03 Q1013,LIEO,2015-02-21T06:20:00Z,40.88,9.52,4.0,3.0,230,3,,6.21,29.911417,,,,,,,,,,,SCT,4500,,,,,,,VFR,,,,,,,,,,,,METAR,13.0
LIEE 210620Z 15009KT 8000 -RA FEW010 BKN025 11/11 Q1012,LIEE,2015-02-21T06:20:00Z,39.25,9.07,11.0,11.0,150,9,,4.97,29.88189,,,,,,,,,,-RA,FEW,1000,BKN,2500,,,,,MVFR,,,,,,,,,,,,METAR,4.0
LIEA 210620Z 02003KT 9999 SCT048 06/05 Q1011,LIEA,2015-02-21T06:20:00Z,40.62,8.27,6.0,5.0,20,3,,6.21,29.852362,,,,,,,,,,,SCT,4800,,,,,,,VFR,,,,,,,,,,,,METAR,23.0
LIPZ 210620Z 03006KT 1600 BR SCT015 BKN060 03/02 Q1013,LIPZ,2015-02-21T06:20:00Z,45.5,12.35,3.0,2.0,30,6,,0.99,29.911417,,,,,,,,,,BR,SCT,1500,BKN,6000,,,,,LIFR,,,,,,,,,,,,METAR,6.0
EVVA 210620Z AUTO 18007KT 3200 -RA BKN010 OVC016 03/02 Q1000,EVVA,2015-02-21T06:20:00Z,57.35,21.55,3.0,2.0,180,7,,1.99,29.52756,,,TRUE,,,,,,,-RA,BKN,1000,OVC,1600,,,,,IFR,,,,,,,,,,,,METAR,6.0
LSZA 210620Z VRB01KT 4000 BR SCT030 BKN045 04/03 Q1010 NOSIG,LSZA,2015-02-21T06:20:00Z,46.0,8.92,4.0,3.0,0,1,,2.49,29.822834,,,,,,TRUE,,,,BR,SCT,3000,BKN,4500,,,,,IFR,,,,,,,,,,,,METAR,276.0
LSZB 210620Z VRB02KT 9999 BKN080 M01/M03 Q1002 NOSIG,LSZB,2015-02-21T06:20:00Z,46.92,7.5,-1.0,-3.0,0,2,,6.21,29.586615,,,,,,TRUE,,,,,BKN,8000,,,,,,,VFR,,,,,,,,,,,,METAR,505.0
LSGG 210620Z VRB02KT 9999 -RA BKN025 BKN035 04/04 Q1002 NOSIG,LSGG,2015-02-21T06:20:00Z,46.25,6.12,4.0,4.0,0,2,,6.21,29.586615,,,,,,TRUE,,,,-RA,BKN,2500,BKN,3500,,,,,MVFR,,,,,,,,,,,,METAR,416.0
LSZH 210620Z 14003KT 100V160 9999 FEW070 BKN110 01/M03 Q1002 NOSIG,LSZH,2015-02-21T06:20:00Z,47.48,8.53,1.0,-3.0,140,3,,6.21,29.586615,,,,,,TRUE,,,,,FEW,7000,BKN,11000,,,,,VFR,,,,,,,,,,,,METAR,432.0
KATY 210620Z AUTO 36007KT 10SM SCT014 BKN080 OVC120 M08/M11 A2988 RMK AO2 T10831111,KATY,2015-02-21T06:20:00Z,44.9,-97.15,-8.3,-11.1,360,7,,10.0,29.878937,,,TRUE,TRUE,,,,,,,SCT,1400,BKN,8000,OVC,12000,,,VFR,,,,,,,,,,,,METAR,532.0
KMBG 210620Z AUTO 01007KT 9SM -SN OVC016 M03/M06 A2990 RMK AO2 SNB00 P0000 T10331061,KMBG,2015-02-21T06:20:00Z,45.55,-100.42,-3.3,-6.1,10,7,,9.0,29.899607,,,TRUE,TRUE,,,,,,-SN,OVC,1600,,,,,,,MVFR,,,,,,0.0050,,,,,,METAR,510.0
KGOK 210620Z AUTO 05004KT 3SM -RA BR BKN003 BKN009 OVC034 03/03 A2977 RMK AO2 P0000 T00330028,KGOK,2015-02-21T06:20:00Z,35.85,-97.4,3.3,2.8,50,4,,3.0,29.769686,,,TRUE,TRUE,,,,,,-RA BR,BKN,300,BKN,900,OVC,3400,,,LIFR,,,,,,0.0050,,,,,,METAR,324.0
ESGJ 210620Z AUTO 16004KT 5000 BR OVC001/// 01/00 Q0993,ESGJ,2015-02-21T06:20:00Z,57.77,14.07,1.0,0.0,160,4,,3.11,29.320866,,,TRUE,,,,,,,BR,,,,,,,,,,,,,,,,,,,,,SPECI,232.0
ESGG 210620Z 17006KT 0350 R03/0700N R21/P1500N FG VV002 01/01 Q0993 R21/29//95,ESGG,2015-02-21T06:20:00Z,57.67,12.3,1.0,1.0,170,6,,0.22,29.320866,,,,,,,,,,FG,OVX,0,,,,,,,LIFR,,,,,,,,,,,200,SPECI,169.0
EDDC 210620Z 15015KT 6000 NSC 01/M02 Q1000 TEMPO 15015G25KT,EDDC,2015-02-21T06:20:00Z,51.13,13.75,1.0,-2.0,150,15,,3.73,29.52756,,,,,,,,,,,,,,,,,,,,,,,,,,,,,,,METAR,226.0
EKBI 210620Z 07006KT 1200 R09/P1500N R27/P1500N BCFG OVC002 02/02 Q0992,EKBI,2015-02-21T06:20:00Z,55.72,9.15,2.0,2.0,70,6,,0.75,29.291338,,,,,,,,,,BCFG,OVC,200,,,,,,,LIFR,,,,,,,,,,,,SPECI,66.0
EDFH 210620Z 25009KT 210V270 8000 RA SCT003 BKN005 03/02 Q0996,EDFH,2015-02-21T06:20:00Z,49.95,7.27,3.0,2.0,250,9,,4.97,29.409449,,,,,,,,,,RA,SCT,300,BKN,500,,,,,IFR,,,,,,,,,,,,METAR,498.0
EDDW 210620Z 19007KT 7000 -RADZ SCT009 BKN013 06/05 Q0991 TEMPO BKN008,EDDW,2015-02-21T06:20:00Z,53.03,8.8,6.0,5.0,190,7,,4.35,29.26181,,,,,,,,,,-RA -DZ,SCT,900,BKN,1300,,,,,MVFR,,,,,,,,,,,,SPECI,5.0
EDDV 210620Z 20014KT 9999 -RA FEW013 SCT039 BKN045 07/03 Q0993 NOSIG,EDDV,2015-02-21T06:20:00Z,52.47,9.68,7.0,3.0,200,14,,6.21,29.320866,,,,,,TRUE,,,,-RA,FEW,1300,SCT,3900,BKN,4500,,,VFR,,,,,,,,,,,,METAR,54.0
EDDT 210620Z 18010KT CAVOK 05/M04 Q0997 NOSIG,EDDT,2015-02-21T06:20:00Z,52.57,13.32,5.0,-4.0,180,10,,6.21,29.438976,,,,,,TRUE,,,,,CAVOK,,,,,,,,VFR,,,,,,,,,,,,METAR,37.0
EDDR 210620Z 21014KT 9999 BKN011 04/03 Q0998 TEMPO 21020G30KT,EDDR,2015-02-21T06:20:00Z,49.22,7.1,4.0,3.0,210,14,,6.21,29.468504,,,,,,,,,,,BKN,1100,,,,,,,MVFR,,,-2.0,,,,,,,,,METAR,320.0
EDDP 210620Z 18012KT CAVOK 04/M03 Q0998 NOSIG,EDDP,2015-02-21T06:20:00Z,51.43,12.23,4.0,-3.0,180,12,,6.21,29.468504,,,,,,TRUE,,,,,CAVOK,,,,,,,,VFR,,,,,,,,,,,,METAR,149.0
EDDN 210620Z 10003KT CAVOK M00/M03 Q1001 TEMPO FM0700 -FZRA,EDDN,2015-02-21T06:20:00Z,49.5,11.08,0.0,-3.0,100,3,,6.21,29.557087,,,,,,,,,,,CAVOK,,,,,,,,VFR,,,,,,,,,,,,SPECI,312.0
EDDM 210620Z VRB01KT CAVOK M05/M06 Q1002 NOSIG,EDDM,2015-02-21T06:20:00Z,48.35,11.82,-5.0,-6.0,0,1,,6.21,29.586615,,,,,,TRUE,,,,,CAVOK,,,,,,,,VFR,,,,,,,,,,,,METAR,447.0
EDDL 210620Z 28008KT 9999 -RADZ SCT008 BKN012 BKN044 03/02 Q0997 BECMG SCT015,EDDL,2015-02-21T06:20:00Z,51.3,6.77,3.0,2.0,280,8,,6.21,29.438976,,,,,,,,,,-RA -DZ,SCT,800,BKN,1200,BKN,4400,,,MVFR,,,,,,,,,,,,SPECI,44.0
EDDK 210620Z 28012KT 9999 -RA BKN010 03/02 Q0997 NOSIG,EDDK,2015-02-21T06:20:00Z,50.87,7.15,3.0,2.0,280,12,,6.21,29.438976,,,,,,TRUE,,,,-RA,BKN,1000,,,,,,,MVFR,,,,,,,,,,,,METAR,99.0
EDDH 210620Z 17010KT 6000 -RA SCT007 BKN010 06/05 Q0992 TEMPO 4000 RA BKN008,EDDH,2015-02-21T06:20:00Z,53.63,10.0,6.0,5.0,170,10,,3.73,29.291338,,,,,,,,,,-RA,SCT,700,BKN,1000,,,,,MVFR,,,,,,,,,,,,SPECI,16.0
EDDG 210620Z 26017KT 9999 -RA FEW004 SCT008 BKN012 03/02 Q0993 TEMPO BKN008,EDDG,2015-02-21T06:20:00Z,52.13,7.7,3.0,2.0,260,17,,6.21,29.320866,,,,,,,,,,-RA,FEW,400,SCT,800,BKN,1200,,,MVFR,,,,,,,,,,,,METAR,52.0
EDDF 210620Z 19013KT 9999 -RA FEW016 BKN024 06/03 Q0997 TEMPO 21015G25KT,EDDF,2015-02-21T06:20:00Z,50.05,8.6,6.0,3.0,190,13,,6.21,29.438976,,,,,,,,,,-RA,FEW,1600,BKN,2400,,,,,MVFR,,,-1.5,,,,,,,,,SPECI,113.0
EDDE 210620Z 20017KT 9999 FEW030 SCT060 BKN300 04/01 Q0997 TEMPO 21015G25KT,EDDE,2015-02-21T06:20:00Z,50.98,10.97,4.0,1.0,200,17,,6.21,29.438976,,,,,,,,,,,FEW,3000,SCT,6000,BKN,30000,,,VFR,,,-1.5,,,,,,,,,METAR,323.0
EDDB 210620Z 17008KT CAVOK 02/M02 Q0998 NOSIG,EDDB,2015-02-21T06:20:00Z,52.38,13.53,2.0,-2.0,170,8,,6.21,29.468504,,,,,,TRUE,,,,,CAVOK,,,,,,,,VFR,,,,,,,,,,,,METAR,48.0
EFVA 210620Z AUTO 21012KT 9999 OVC010/// 02/00 Q0989,EFVA,2015-02-21T06:20:00Z,63.03,21.77,2.0,0.0,210,12,,6.21,29.202755,,,TRUE,,,,,,,,,,,,,,,,,,,,,,,,,,,,SPECI,4.0
EFTU 210620Z AUTO 20004KT 160V280 9999 -RA FEW007/// OVC012/// 01/00 Q0995 R08/29//95,EFTU,2015-02-21T06:20:00Z,60.52,22.27,1.0,0.0,200,4,,6.21,29.379921,,,TRUE,,,,,,,-RA,,,,,,,,,,,,,,,,,,,,,SPECI,59.0
EFTP 210620Z AUTO 20009KT 9999 BKN003 OVC005 01/00 Q0994,EFTP,2015-02-21T06:20:00Z,61.42,23.62,1.0,0.0,200,9,,6.21,29.350393,,,TRUE,,,,,,,,BKN,300,OVC,500,,,,,LIFR,,,,,,,,,,,,METAR,112.0
EFRO 210620Z AUTO 20014KT 9999 SCT004 OVC006 M02/M02 Q0983,EFRO,2015-02-21T06:20:00Z,66.57,25.82,-2.0,-2.0,200,14,,6.21,29.02559,,,TRUE,,,,,,,,SCT,400,OVC,600,,,,,IFR,,,,,,,,,,,,METAR,201.0
EFOU 210620Z AUTO 21008KT 190V250 9999 OVC008/// 00/M01 Q0988 R12/39//94,EFOU,2015-02-21T06:20:00Z,64.92,25.37,0.0,-1.0,210,8,,6.21,29.17323,,,TRUE,,,,,,,,,,,,,,,,,,,,,,,,,,,,METAR,15.0
EFKU 210620Z AUTO 18007KT 9999 OVC026 01/00 Q0993,EFKU,2015-02-21T06:20:00Z,63.02,27.8,1.0,0.0,180,7,,6.21,29.320866,,,TRUE,,,,,,,,OVC,2600,,,,,,,MVFR,,,,,,,,,,,,METAR,102.0
EFJY 210620Z AUTO 21009KT 170V260 9999 OVC013 01/00 Q0993,EFJY,2015-02-21T06:20:00Z,62.4,25.68,1.0,0.0,210,9,,6.21,29.320866,,,TRUE,,,,,,,,OVC,1300,,,,,,,MVFR,,,,,,,,,,,,METAR,145.0
EFHK 210620Z 19008KT 9999 BKN007 01/00 Q0997 TEMPO 5000 BR BKN005,EFHK,2015-02-21T06:20:00Z,60.32,24.97,1.0,0.0,190,8,,6.21,29.438976,,,,,,,,,,,BKN,700,,,,,,,IFR,,,,,,,,,,,,SPECI,56.0
EKKA 210620Z 00000KT 7000 BKN004 02/02 Q0992,EKKA,2015-02-21T06:20:00Z,56.3,9.12,2.0,2.0,0,0,,4.35,29.291338,,,,,,,,,,,BKN,400,,,,,,,LIFR,,,,,,,,,,,,METAR,52.0
LLBG 210620Z 08004KT 9999 SCT035 10/06 Q1010 NOSIG RMK BKN060,LLBG,2015-02-21T06:20:00Z,32.0,34.88,10.0,6.0,80,4,,6.21,29.822834,,,,,,TRUE,,,,,SCT,3500,,,,,,,VFR,,,,,,,,,,,,METAR,49.0
EDDS 210620Z 20004KT 160V260 9999 FEW024 SCT037 BKN055 04/M03 Q1000 NOSIG,EDDS,2015-02-21T06:20:00Z,48.67,9.22,4.0,-3.0,200,4,,6.21,29.52756,,,,,,TRUE,,,,,FEW,2400,SCT,3700,BKN,5500,,,VFR,,,,,,,,,,,,METAR,419.0
ESTL 210620Z AUTO 09003KT 3600NDV -RA BKN003/// OVC006/// 02/01 Q0994,ESTL,2015-02-21T06:20:00Z,56.07,13.2,2.0,1.0,90,3,,,29.350393,,,TRUE,,,,,,,-RA,,,,,,,,,,,,,,,,,,,,,METAR,43.0
ESTA 210620Z AUTO 08003KT 3200 -RA ///025 01/00 Q0993,ESTA,2015-02-21T06:20:00Z,56.28,12.83,1.0,0.0,80,3,,1.99,29.320866,,,TRUE,,,,,,,-RA,,,,,,,,,,,,,,,,,,,,,METAR,47.0
ESMX 210620Z AUTO 07002KT 1900 -RASN OVC001/// 01/00 Q0994 RERA,ESMX,2015-02-21T06:20:00Z,56.92,14.72,1.0,0.0,70,2,,1.18,29.350393,,,TRUE,,,,,,,-RA -SN,,,,,,,,,,,,,,,,,,,,,SPECI,186.0
ESMT 210620Z AUTO 11006KT 5000 DZ OVC012/// 02/01 Q0994 REUP,ESMT,2015-02-21T06:20:00Z,56.67,12.82,2.0,1.0,110,6,,3.11,29.350393,,,TRUE,,,,,,,DZ,,,,,,,,,,,,,,,,,,,,,METAR,30.0
ESMS 210620Z 17008KT 2000 -RA BR OVC004 04/04 Q0993 R17/29//95,ESMS,2015-02-21T06:20:00Z,55.53,13.37,4.0,4.0,170,8,,1.24,29.320866,,,,,,,,,,-RA BR,OVC,400,,,,,,,LIFR,,,,,,,,,,,,SPECI,106.0
ESMQ 210620Z AUTO 07003KT 1500 -SN FEW003/// SCT006/// BKN007/// 03/02 Q0996,ESMQ,2015-02-21T06:20:00Z,56.68,16.3,3.0,2.0,70,3,,0.93,29.409449,,,TRUE,,,,,,,-SN,,,,,,,,,,,,,,,,,,,,,METAR,16.0
ESMK 210620Z AUTO 12004KT 2400 DZ SCT012/// BKN018/// 03/03 Q0994 REDZ,ESMK,2015-02-21T06:20:00Z,55.92,14.07,3.0,3.0,120,4,,1.49,29.350393,,,TRUE,,,,,,,DZ,,,,,,,,,,,,,,,,,,,,,SPECI,23.0
ESGP 210620Z 17005KT 9000 BR BKN007 OVC009 03/01 Q0993 R19/19//95,ESGP,2015-02-21T06:20:00Z,57.77,11.87,3.0,1.0,170,5,,5.59,29.320866,,,,,,,,,,BR,BKN,700,OVC,900,,,,,IFR,,,,,,,,,,,,SPECI,53.0
ETMN 210620Z 23006KT 4500 RA BR SCT005 OVC020 04/03 Q0991 GRN,ETMN,2015-02-21T06:20:00Z,53.77,8.67,4.0,3.0,230,6,,2.8,29.26181,,,,,,,,,,RA BR,SCT,500,OVC,2000,,,,,IFR,,,,,,,,,,,,METAR,31.0
ETML 210620Z AUTO 17010KT //// // ////// 04/04 Q0992 ///,ETML,2015-02-21T06:20:00Z,,,4.0,4.0,170,10,,,29.291338,,,TRUE,,,,,,,,,,,,,,,,,,,,,,,,,,,,METAR,
ETHS 210620Z 20009KT 9999 -DZRA BKN032 06/03 Q0993 BLU,ETHS,2015-02-21T06:20:00Z,52.92,10.18,6.0,3.0,200,9,,6.21,29.320866,,,,,,,,,,-DZ -RA,BKN,3200,,,,,,,VFR,,,,,,,,,,,,METAR,88.0
ETHF 210620Z 20012KT 9999 -RA OVC016 06/03 Q0995 WHT,ETHF,2015-02-21T06:20:00Z,51.12,9.27,6.0,3.0,200,12,,6.21,29.379921,,,,,,,,,,-RA,OVC,1600,,,,,,,MVFR,,,,,,,,,,,,METAR,181.0
ETHE 210620Z AUTO 26014KT //// // ////// 02/01 Q0993 ///,ETHE,2015-02-21T06:20:00Z,52.28,7.37,2.0,1.0,260,14,,,29.320866,,,TRUE,,,,,,,,,,,,,,,,,,,,,,,,,,,,METAR,49.0
ETHC 210620Z 19008KT 9999 BKN034 07/03 Q0993 BLU,ETHC,2015-02-21T06:20:00Z,52.6,10.02,7.0,3.0,190,8,,6.21,29.320866,,,,,,,,,,,BKN,3400,,,,,,,VFR,,,,,,,,,,,,METAR,52.0
ETHB 210620Z AUTO 21012KT 6000 // ////// 07/04 Q0992 ///,ETHB,2015-02-21T06:20:00Z,52.27,9.07,7.0,4.0,210,12,,3.73,29.291338,,,TRUE,,,,,,,,,,,,,,,,,,,,,,,,,,,,METAR,78.0
ETGG 210620Z 03005KT 0300 -RA FG VV001 03/03 Q0991 RERA RED,ETGG,2015-02-21T06:20:00Z,54.83,9.5,3.0,3.0,30,5,,0.19,29.26181,,,,,,,,,,-RA FG,OVX,0,,,,,,,LIFR,,,,,,,,,,,100,METAR,33.0
ETSN 210620Z AUTO VRB01KT //// // ////// M05/M05 Q1002 ///,ETSN,2015-02-21T06:20:00Z,48.72,11.22,-5.0,-5.0,0,1,,,29.586615,,,TRUE,,,,,,,,,,,,,,,,,,,,,,,,,,,,METAR,387.0
ETSL 210620Z 18008KT 9999 SCT130 SCT220 M00/M06 Q1001 BLU+,ETSL,2015-02-21T06:20:00Z,48.17,10.87,0.0,-6.0,180,8,,6.21,29.557087,,,,,,,,,,,SCT,13000,SCT,22000,,,,,VFR,,,,,,,,,,,,METAR,562.0
ETSI 210620Z AUTO 14003KT 4500 // ////// M06/M07 Q1002 ///,ETSI,2015-02-21T06:20:00Z,48.72,11.52,-6.0,-7.0,140,3,,2.8,29.586615,,,TRUE,,,,,,,,,,,,,,,,,,,,,,,,,,,,METAR,370.0
ETSB 210620Z AUTO 29008KT 3600 // ////// 02/01 Q0996 ///,ETSB,2015-02-21T06:20:00Z,50.17,7.07,2.0,1.0,290,8,,2.24,29.409449,,,TRUE,,,,,,,,,,,,,,,,,,,,,,,,,,,,METAR,486.0
ETSA 210620Z 16009KT 9999 SCT130 BKN220 M03/M07 Q1001 BLU+,ETSA,2015-02-21T06:20:00Z,48.07,10.9,-3.0,-7.0,160,9,,6.21,29.557087,,,,,,,,,,,SCT,13000,BKN,22000,,,,,VFR,,,,,,,,,,,,METAR,628.0
ETNN 210620Z 25006KT 9999 -RA FEW007 BKN010 BKN018 03/01 Q0997 GRN,ETNN,2015-02-21T06:20:00Z,50.82,6.67,3.0,1.0,250,6,,6.21,29.438976,,,,,,,,,,-RA,FEW,700,BKN,1000,BKN,1800,,,MVFR,,,,,,,,,,,,METAR,135.0
ETHL 210620Z 31002KT 9999 BKN080 M02/M05 Q1001 BLU,ETHL,2015-02-21T06:20:00Z,48.22,9.92,-2.0,-5.0,310,2,,6.21,29.557087,,,,,,,,,,,BKN,8000,,,,,,,VFR,,,,,,,,,,,,METAR,549.0
ETHA 210620Z AUTO 24003KT //// // ////// M05/M09 Q1002 ///,ETHA,2015-02-21T06:20:00Z,47.82,10.87,-5.0,-9.0,240,3,,,29.586615,,,TRUE,,,,,,,,,,,,,,,,,,,,,,,,,,,,METAR,760.0
LGSR 210620Z 34019KT 9999 SCT025 11/05 Q1018,LGSR,2015-02-21T06:20:00Z,36.4,25.48,11.0,5.0,340,19,,6.21,30.059055,,,,,,,,,,,SCT,2500,,,,,,,VFR,,,,,,,,,,,,METAR,40.0
LGRX 210620Z 00000KT CAVOK 04/02 Q1020,LGRX,2015-02-21T06:20:00Z,38.17,21.42,4.0,2.0,0,0,,6.21,30.11811,,,,,,,,,,,CAVOK,,,,,,,,VFR,,,,,,,,,,,,METAR,15.0
LGPZ 210620Z 08006KT 9999 SCT025 BKN090 07/03 Q1020,LGPZ,2015-02-21T06:20:00Z,38.92,20.77,7.0,3.0,80,6,,6.21,30.11811,,,,,,,,,,,SCT,2500,BKN,9000,,,,,VFR,,,,,,,,,,,,METAR,4.0
LGMT 210620Z VRB03KT 9999 FEW025 06/02 Q1020,LGMT,2015-02-21T06:20:00Z,39.05,26.6,6.0,2.0,0,3,,6.21,30.11811,,,,,,,,,,,FEW,2500,,,,,,,VFR,,,,,,,,,,,,METAR,17.0
LGKV 210620Z 04004KT CAVOK 02/M01 Q1021,LGKV,2015-02-21T06:20:00Z,40.92,24.62,2.0,-1.0,40,4,,6.21,30.147638,,,,,,,,,,,CAVOK,,,,,,,,VFR,,,,,,,,,,,,METAR,5.0
LGIO 210620Z 00000KT 8000 FEW007 M02/M02 Q1019,LGIO,2015-02-21T06:20:00Z,39.7,20.82,-2.0,-2.0,0,0,,4.97,30.088583,,,,,,,,,,,FEW,700,,,,,,,MVFR,,,,,,,,,,,,METAR,476.0
LGEL 210620Z 36005KT CAVOK 06/M03 Q1020,LGEL,2015-02-21T06:20:00Z,38.07,23.55,6.0,-3.0,360,5,,6.21,30.11811,,,,,,,,,,,CAVOK,,,,,,,,VFR,,,,,,,,,,,,METAR,31.0
LGAL 210620Z 03006KT CAVOK 01/M02 Q1021,LGAL,2015-02-21T06:20:00Z,40.85,25.95,1.0,-2.0,30,6,,6.21,30.147638,,,,,,,,,,,CAVOK,,,,,,,,VFR,,,,,,,,,,,,METAR,3.0
EDNY 210620Z AUTO VRB03KT CAVOK M03/M05 Q1002,EDNY,2015-02-21T06:20:00Z,47.67,9.52,-3.0,-5.0,0,3,,6.21,29.586615,,,TRUE,,,,,,,,CAVOK,,,,,,,,VFR,,,,,,,,,,,,SPECI,424.0
EFKT 210620Z 15007KT 110V170 CAVOK M08/M08 Q0980 R16/39//95,EFKT,2015-02-21T06:20:00Z,67.7,24.85,-8.0,-8.0,150,7,,6.21,28.937008,,,,,,,,,,,CAVOK,,,,,,,,VFR,,,,,,,,,,,,METAR,643.0
EFKS 210620Z AUTO 23009KT 190V280 9999 OVC010 M01/M02 Q0985,EFKS,2015-02-21T06:20:00Z,66.0,29.23,-1.0,-2.0,230,9,,6.21,29.084646,,,TRUE,,,,,,,,OVC,1000,,,,,,,MVFR,,,,,,,,,,,,METAR,263.0
EFKI 210620Z AUTO 21009KT 160V260 9999 OVC011 01/M01 Q0990,EFKI,2015-02-21T06:20:00Z,64.27,27.67,1.0,-1.0,210,9,,6.21,29.232283,,,TRUE,,,,,,,,OVC,1100,,,,,,,MVFR,,,,,,,,,,,,METAR,136.0
EFKE 210620Z AUTO 20013KT 0900 FG OVC002 M01/M01 Q0986,EFKE,2015-02-21T06:20:00Z,65.77,24.57,-1.0,-1.0,200,13,,0.56,29.114174,,,TRUE,,,,,,,FG,OVC,200,,,,,,,LIFR,,,,,,,,,,,,METAR,15.0
EFIV 210620Z AUTO 23006KT CAVOK M09/M10 Q0980,EFIV,2015-02-21T06:20:00Z,68.62,27.42,-9.0,-10.0,230,6,,6.21,28.937008,,,TRUE,,,,,,,,CAVOK,,,,,,,,VFR,,,,,,,,,,,,METAR,148.0
EFET 210620Z AUTO 17003KT CAVOK M07/M07 Q0978,EFET,2015-02-21T06:20:00Z,68.37,23.43,-7.0,-7.0,170,3,,6.21,28.877953,,,TRUE,,,,,,,,CAVOK,,,,,,,,VFR,,,,,,,,,,,,METAR,306.0
LGSO 210620Z AUTO 34010KT 320V040 //// -RA ////// 10/04 Q1019 RE//,LGSO,2015-02-21T06:20:00Z,37.42,24.95,10.0,4.0,340,10,,,30.088583,,,TRUE,,,,,,,-RA,,,,,,,,,,,,,,,,,,,,,METAR,72.0
LGBL 210620Z 26004KT CAVOK 03/M02 Q1020,LGBL,2015-02-21T06:20:00Z,39.22,22.8,3.0,-2.0,260,4,,6.21,30.11811,,,,,,,,,,,CAVOK,,,,,,,,VFR,,,,,,,,,,,,METAR,26.0
LGTS 210620Z VRB03KT CAVOK 03/00 Q1021 NOSIG,LGTS,2015-02-21T06:20:00Z,40.52,22.97,3.0,0.0,0,3,,6.21,30.147638,,,,,,TRUE,,,,,CAVOK,,,,,,,,VFR,,,,,,,,,,,,METAR,7.0
LGSM 210620Z 04012KT 9999 FEW020 07/01 Q1017,LGSM,2015-02-21T06:20:00Z,37.68,26.92,7.0,1.0,40,12,,6.21,30.029528,,,,,,,,,,,FEW,2000,,,,,,,VFR,,,,,,,,,,,,METAR,6.0
LGSA 210620Z 00000KT 9999 SCT020 06/04 Q1018,LGSA,2015-02-21T06:20:00Z,35.53,24.13,6.0,4.0,0,0,,6.21,30.059055,,,,,,,,,,,SCT,2000,,,,,,,VFR,,,,,,,,,,,,METAR,135.0
LGLM 210620Z 00000KT 9999 FEW018 06/03 Q1021,LGLM,2015-02-21T06:20:00Z,39.92,25.23,6.0,3.0,0,0,,6.21,30.147638,,,,,,,,,,,FEW,1800,,,,,,,VFR,,,,,,,,,,,,METAR,5.0
LGKO 210620Z 35016G28KT 9999 FEW020 07/M00 Q1015,LGKO,2015-02-21T06:20:00Z,36.8,27.08,7.0,0.0,350,16,28,6.21,29.970472,,,,,,,,,,,FEW,2000,,,,,,,VFR,,,,,,,,,,,,METAR,125.0
LGKL 210620Z 00000KT 9000 4000SE BR NSC 04/00 Q1020,LGKL,2015-02-21T06:20:00Z,37.07,22.02,4.0,0.0,0,0,,5.59,30.11811,,,,,,,,,,BR,,,,,,,,,,,,,,,,,,,,,SPECI,8.0
ETWM 210620Z AUTO 28008KT 4000 // ////// 02/00 Q0992 ///,ETWM,2015-02-21T06:20:00Z,52.72,7.33,2.0,0.0,280,8,,2.49,29.291338,,,TRUE,,,,,,,,,,,,,,,,,,,,,,,,,,,,METAR,21.0
ETSH 210620Z 16008KT 9999 SCT070 SCT250 01/M03 Q0999 BLU+,ETSH,2015-02-21T06:20:00Z,51.77,13.17,1.0,-3.0,160,8,,6.21,29.498032,,,,,,,,,,,SCT,7000,SCT,25000,,,,,VFR,,,,,,,,,,,,METAR,79.0
ETNW 210620Z AUTO 19011KT 7000 // ////// 06/03 Q0992 ///,ETNW,2015-02-21T06:20:00Z,52.45,9.42,6.0,3.0,190,11,,4.35,29.291338,,,TRUE,,,,,,,,,,,,,,,,,,,,,,,,,,,,METAR,70.0
ETNT 210620Z 34010KT 9000 -RA SCT005 BKN008 02/01 Q0991 RERA GRN,ETNT,2015-02-21T06:20:00Z,53.53,7.67,2.0,1.0,340,10,,5.59,29.26181,,,,,,,,,,-RA,SCT,500,BKN,800,,,,,IFR,,,,,,,,,,,,METAR,12.0
ETNS 210620Z AUTO 11002KT 1900 // ////// 04/04 Q0991 ///,ETNS,2015-02-21T06:20:00Z,54.47,9.52,4.0,4.0,110,2,,1.18,29.26181,,,TRUE,,,,,,,,,,,,,,,,,,,,,,,,,,,,METAR,25.0
ETNL 210620Z 17005KT 9999 -RA BKN033 05/03 Q0994 BLU,ETNL,2015-02-21T06:20:00Z,53.92,12.27,5.0,3.0,170,5,,6.21,29.350393,,,,,,,,,,-RA,BKN,3300,,,,,,,VFR,,,,,,,,,,,,METAR,40.0
ETNH 210620Z 19005KT 2600 -RA BR BKN004 BKN015 05/04 Q0991 YLO,ETNH,2015-02-21T06:20:00Z,54.32,9.55,5.0,4.0,190,5,,1.62,29.26181,,,,,,,,,,-RA BR,BKN,400,BKN,1500,,,,,LIFR,,,,,,,,,,,,METAR,17.0
KCMX 210620Z AUTO 26011KT 6SM BR OVC009 M09/M12 A2974 RMK AO2 SNE01 P0000 T10941117,KCMX,2015-02-21T06:20:00Z,47.17,-88.48,-9.4,-11.7,260,11,,6.0,29.740158,,,TRUE,TRUE,,,,,,BR,OVC,900,,,,,,,IFR,,,,,,0.0050,,,,,,METAR,326.0
EKRN 210620Z AUTO 18015KT 8000NDV -RA OVC030/// 04/02 Q0996,EKRN,2015-02-21T06:20:00Z,55.07,14.75,4.0,2.0,180,15,,,29.409449,,,TRUE,,,,,,,-RA,,,,,,,,,,,,,,,,,,,,,SPECI,16.0
EKEB 210620Z AUTO 04004KT 0700NDV R08/P1500N R26/1400N FG OVC002/// 02/01 Q0992,EKEB,2015-02-21T06:20:00Z,55.52,8.55,2.0,1.0,40,4,,0.93,29.291338,,,TRUE,,,,,,,FG PO,,,,,,,,,,,,,,,,,,,,,SPECI,29.0
EKAH 210620Z AUTO 36002KT 0150NDV R10R/0400N R28L/0400N FG VV001 03/01 Q0993,EKAH,2015-02-21T06:20:00Z,56.28,10.62,3.0,1.0,360,2,,0.25,29.320866,,,TRUE,,,,,,,FG,OVX,0,,,,,,,LIFR,,,,,,,,,,,100,SPECI,25.0
EKRK 210620Z AUTO 07003KT 1800NDV -DZ BR FEW005/// SCT008/// BKN010/// 03/03 Q0993,EKRK,2015-02-21T06:20:00Z,55.57,12.12,3.0,3.0,70,3,,,29.320866,,,TRUE,,,,,,,-DZ BR,,,,,,,,,,,,,,,,,,,,,SPECI,44.0
EKYT 210620Z 19002KT 8000 FEW011 SCT017 BKN150 03/02 Q0993,EKYT,2015-02-21T06:20:00Z,57.1,9.87,3.0,2.0,190,2,,4.97,29.320866,,,,,,,,,,,FEW,1100,SCT,1700,BKN,15000,,,MVFR,,,,,,,,,,,,METAR,3.0
EKVD 210620Z AUTO 03006KT //// ///////// 02/02 Q0992,EKVD,2015-02-21T06:20:00Z,55.42,9.32,2.0,2.0,30,6,,,29.291338,,,TRUE,,,,,,,,,,,,,,,,,,,,,,,,,,,,SPECI,45.0
EKSB 210620Z 04005KT 3000 RA OVC003 03/03 Q0991,EKSB,2015-02-21T06:20:00Z,54.97,9.8,3.0,3.0,40,5,,1.86,29.26181,,,,,,,,,,RA,OVC,300,,,,,,,LIFR,,,,,,,,,,,,METAR,23.0
LATI 210620Z 20008KT CAVOK 04/M03 Q1018 NOSIG,LATI,2015-02-21T06:20:00Z,41.42,19.72,4.0,-3.0,200,8,,6.21,30.059055,,,,,,TRUE,,,,,CAVOK,,,,,,,,VFR,,,,,,,,,,,,METAR,90.0
EYKA 210620Z 16008KT 4700 BR NSC 00/M03 Q1006 R08/090095,EYKA,2015-02-21T06:20:00Z,54.97,24.08,0.0,-3.0,160,8,,2.92,29.704725,,,,,,,,,,BR,,,,,,,,,,,,,,,,,,,,,METAR,77.0
CYBW 210620Z AUTO 26004KT 6SM -SN BKN044 OVC060 M06/M07 A3019 RMK SLP277,CYBW,2015-02-21T06:20:00Z,51.1,-114.37,-6.0,-7.0,260,4,,6.0,30.188976,1027.7,,TRUE,,,,,,,-SN,BKN,4400,OVC,6000,,,,,VFR,,,,,,,,,,,,SPECI,1200.0
EETN 210620Z 19007KT 3400 BR SCT007 OVC022 02/01 Q0999 R08/290195 TEMPO 2000,EETN,2015-02-21T06:20:00Z,59.4,24.82,2.0,1.0,190,7,,2.11,29.498032,,,,,,,,,,BR,SCT,700,OVC,2200,,,,,IFR,,,,,,,,,,,,SPECI,40.0
EKVG 210620Z AUTO 36017KT 9999NDV BKN033/// M01/M07 Q0995 RMK OVC032/// WIND 850FT 35022G46KT 310V050,EKVG,2015-02-21T06:20:00Z,62.07,-7.3,-1.0,-7.0,360,17,,,29.379921,,,TRUE,,,,,,,,,,,,,,,,,,,,,,,,,,,,METAR,85.0
EVRA 210620Z 19010KT 6000 OVC030 02/M00 Q1003 R18/190095 NOSIG,EVRA,2015-02-21T06:20:00Z,56.92,23.97,2.0,0.0,190,10,,3.73,29.616142,,,,,,TRUE,,,,,OVC,3000,,,,,,,MVFR,,,,,,,,,,,,SPECI,10.0
KHBR 210619Z AUTO 03016KT 5SM BR OVC005 08/07 A2975 RMK AO2 T00780072,KHBR,2015-02-21T06:19:00Z,34.98,-99.05,7.8,7.2,30,16,,5.0,29.749016,,,TRUE,TRUE,,,,,,BR,OVC,500,,,,,,,IFR,,,,,,,,,,,,SPECI,473.0
KACQ 210619Z AUTO 30004KT 5SM BR OVC009 M03/M04 A2984 RMK AO2,KACQ,2015-02-21T06:19:00Z,44.07,-93.55,-3.0,-4.0,300,4,,5.0,29.840551,,,TRUE,TRUE,,,,,,BR,OVC,900,,,,,,,IFR,,,,,,,,,,,,SPECI,343.0
KCVX 210618Z AUTO 20008KT 3SM -SN SCT011 SCT021 OVC037 M11/M14 A2991 RMK AO2,KCVX,2015-02-21T06:18:00Z,45.3,-85.27,-11.0,-14.0,200,8,,3.0,29.911417,,,TRUE,TRUE,,,,,,-SN,SCT,1100,SCT,2100,OVC,3700,,,MVFR,,,,,,,,,,,,METAR,204.0
KRCA 210618Z AUTO 32011KT 1 1/4SM HZ OVC060 02/M02 A2990 RMK AO2 $,KRCA,2015-02-21T06:18:00Z,44.13,-103.08,2.0,-2.0,320,11,,1.25,29.899607,,,TRUE,TRUE,TRUE,,,,,HZ,OVC,6000,,,,,,,IFR,,,,,,,,,,,,SPECI,999.0
KLRF 210618Z 12001KT 3SM -RA BR OVC002 02/01 A2980 RMK AO2A,KLRF,2015-02-21T06:18:00Z,34.92,-92.15,2.0,1.0,120,1,,3.0,29.799213,,,,TRUE,,,,,,-RA BR,OVC,200,,,,,,,LIFR,,,,,,,,,,,,SPECI,95.0
KJLN 210618Z AUTO 04008KT 2 1/2SM UP BR OVC003 00/M01 A2983 RMK AO2 LTG DSNT S AND SW P0001 T00001006,KJLN,2015-02-21T06:18:00Z,37.15,-94.5,0.0,-0.6,40,8,,2.5,29.828741,,,TRUE,TRUE,,,,,,BR UP,OVC,300,,,,,,,LIFR,,,,,,0.01,,,,,,SPECI,299.0
RCMQ 210618Z 21007KT 9999 -RA FEW010 SCT025 BKN060 24/13 Q1014 NOSIG RMK A2995,RCMQ,2015-02-21T06:18:00Z,24.27,120.62,24.0,13.0,210,7,,6.21,29.940945,,,,,,TRUE,,,,-RA,FEW,1000,SCT,2500,BKN,6000,,,VFR,,,,,,,,,,,,SPECI,5.0
KMIB 210618Z AUTO 01012KT 8SM R29/5500FT BLSN SCT023 OVC065 M11/M12 A3002 RMK AO2,KMIB,2015-02-21T06:18:00Z,48.42,-101.33,-11.0,-12.0,10,12,,8.0,30.02067,,,TRUE,TRUE,,,,,,BLSN,SCT,2300,OVC,6500,,,,,VFR,,,,,,,,,,,,SPECI,508.0
KCDS 210618Z AUTO 02021G27KT 6SM BR BKN006 09/08 A2973 RMK AO2 PK WND 02027/0618 T00940078,KCDS,2015-02-21T06:18:00Z,34.43,-100.28,9.4,7.8,20,21,27,6.0,29.731298,,,TRUE,TRUE,,,,,,BR,BKN,600,,,,,,,IFR,,,,,,,,,,,,SPECI,594.0
KAAO 210618Z AUTO 36008KT 10SM OVC004 01/01 A2988 RMK AO2 PRESRR T00110011,KAAO,2015-02-21T06:18:00Z,37.75,-97.22,1.1,1.1,360,8,,10.0,29.878937,,,TRUE,TRUE,,,,,,,OVC,400,,,,,,,LIFR,,,,,,,,,,,,SPECI,434.0
KMEI 210617Z AUTO 17014KT 10SM SCT025 BKN110 10/06 A3009 RMK AO2 T01000061,KMEI,2015-02-21T06:17:00Z,32.33,-88.75,10.0,6.1,170,14,,10.0,30.088583,,,TRUE,TRUE,,,,,,,SCT,2500,BKN,11000,,,,,VFR,,,,,,,,,,,,METAR,89.0
KBVO 210617Z AUTO 36007G14KT 4SM -RA BR OVC004 02/02 A2983 RMK AO2 P0003 T00220022,KBVO,2015-02-21T06:17:00Z,36.77,-96.02,2.2,2.2,360,7,14,4.0,29.828741,,,TRUE,TRUE,,,,,,-RA BR,OVC,400,,,,,,,LIFR,,,,,,0.03,,,,,,METAR,210.0
PHOG 210617Z 11003KT 10SM BKN013 BKN018 OVC075 21/19 A2999 RMK AO2 $,PHOG,2015-02-21T06:17:00Z,20.9,-156.43,21.0,19.0,110,3,,10.0,29.991142,,,,TRUE,TRUE,,,,,,BKN,1300,BKN,1800,OVC,7500,,,MVFR,,,,,,,,,,,,METAR,12.0
PAJN 210617Z 00000KT 1/2SM R08/1600V3000FT FZFG BKN001 M01/M01 A3046 RMK AO2 T10061011,PAJN,2015-02-21T06:17:00Z,58.37,-134.58,-0.6,-1.1,0,0,,0.5,30.46063,,,,TRUE,,,,,,FZFG,BKN,100,,,,,,,LIFR,,,,,,,,,,,,METAR,5.0
CYYC 210617Z 32004KT 260V330 7SM -SN BKN039 OVC088 M05/M08 A3020 RMK SC6AC2 PCPN VRY LGT SLP277,CYYC,2015-02-21T06:17:00Z,51.12,-114.02,-5.0,-8.0,320,4,,7.0,30.200787,1027.7,,,,,,,,,-SN,BKN,3900,OVC,8800,,,,,VFR,,,,,,,,,,,,SPECI,1084.0
YMTG 210617Z AUTO 29018G28KT 9999 // NCD 37/05 Q1007,YMTG,2015-02-21T06:17:00Z,-37.75,140.78,37.0,5.0,290,18,28,6.21,29.734253,,,TRUE,,,,,,,,,,,,,,,,,,,,,,,,,,,,SPECI,65.0
KFNT 210617Z 18009KT 8SM -SN FEW026 OVC032 M10/M16 A3001 RMK AO2 P0000 T11001161 $,KFNT,2015-02-21T06:17:00Z,42.97,-83.75,-10.0,-16.1,180,9,,8.0,30.008858,,,,TRUE,TRUE,,,,,-SN,FEW,2600,OVC,3200,,,,,VFR,,,,,,0.0050,,,,,,METAR,233.0
KLBB 210616Z COR 35027G33KT 7SM CLR 12/M01 A2976 RMK AO2 PK WND 35033/0613 WSHFT 0601 FROPA BLDU T01171011,KLBB,2015-02-21T06:16:00Z,33.67,-101.82,11.7,-1.1,350,27,33,7.0,29.760826,,TRUE,,TRUE,,,,,,,CLR,,,,,,,,VFR,,,,,,,,,,,,SPECI,993.0
KFSI 210616Z AUTO 02021G26KT 3SM BR OVC002 08/08 A2966 RMK AO2,KFSI,2015-02-21T06:16:00Z,34.65,-98.4,8.0,8.0,20,21,26,3.0,29.660433,,,TRUE,TRUE,,,,,,BR,OVC,200,,,,,,,LIFR,,,,,,,,,,,,METAR,362.0
DAUZ 210616Z 17025KT 1000 BLSA NSC 20/M01 Q1011,DAUZ,2015-02-21T06:16:00Z,28.05,9.62,20.0,-1.0,170,25,,0.62,29.852362,,,,,,,,,,BLSA,,,,,,,,,,,,,,,,,,,,,SPECI,562.0
KSAW 210616Z AUTO 19005KT 7SM -SN OVC046 M12/M14 A2978 RMK AO2 T11211142,KSAW,2015-02-21T06:16:00Z,46.35,-87.4,-12.1,-14.2,190,5,,7.0,29.778543,,,TRUE,TRUE,,,,,,-SN,OVC,4600,,,,,,,VFR,,,,,,,,,,,,METAR,372.0
KAVC 210616Z AUTO 17004KT 10SM CLR M11/M17 A3054 RMK AO2 T11141171,KAVC,2015-02-21T06:16:00Z,36.68,-78.03,-11.4,-17.1,170,4,,10.0,30.540354,,,TRUE,TRUE,,,,,,,CLR,,,,,,,,VFR,,,,,,,,,,,,METAR,135.0
PAVD 210616Z 00000KT 10SM OVC120 03/M02 A3023 RMK AO1 0547Z WEA: NONE TWR WND 00000KT,PAVD,2015-02-21T06:16:00Z,61.13,-146.25,3.0,-2.0,0,0,,10.0,30.230314,,,,TRUE,,,,,,,OVC,12000,,,,,,,VFR,,,,,,,,,,,,SPECI,37.0
KTGI 210616Z AUTO 20009KT 10SM CLR M07/M18 A3053 RMK AO1,KTGI,2015-02-21T06:16:00Z,37.82,-75.98,-7.0,-18.0,200,9,,10.0,30.528543,,,TRUE,TRUE,,,,,,,CLR,,,,,,,,VFR,,,,,,,,,,,,METAR,2.0
KBYY 210615Z AUTO 18009KT 7SM SCT030 SCT037 OVC049 18/17 A2993 RMK AO2 T01870180,KBYY,2015-02-21T06:15:00Z,28.97,-95.87,18.7,18.0,180,9,,7.0,29.929134,,,TRUE,TRUE,,,,,,,SCT,3000,SCT,3700,OVC,4900,,,VFR,,,,,,,,,,,,METAR,14.0
KLUD 210615Z AUTO 19014G21KT 10SM CLR 17/14 A2966 RMK AO2 T01700135,KLUD,2015-02-21T06:15:00Z,33.25,-97.58,17.0,13.5,190,14,21,10.0,29.660433,,,TRUE,TRUE,,,,,,,CLR,,,,,,,,VFR,,,,,,,,,,,,METAR,319.0
KLUM 210615Z AUTO 00000KT 7SM SCT019 OVC031 M08/M09 A2983 RMK AO2 T10761095,KLUM,2015-02-21T06:15:00Z,44.9,-91.87,-7.6,-9.5,0,0,,7.0,29.828741,,,TRUE,TRUE,,,,,,,SCT,1900,OVC,3100,,,,,VFR,,,,,,,,,,,,METAR,273.0
KLNN 210615Z AUTO 21009G16KT 10SM SCT049 OVC075 M09/M20 A3011 RMK AO1 T10951201,KLNN,2015-02-21T06:15:00Z,41.67,-81.37,-9.5,-20.1,210,9,16,10.0,30.109253,,,TRUE,TRUE,,,,,,,SCT,4900,OVC,7500,,,,,VFR,,,,,,,,,,,,METAR,191.0
KLAL 210615Z AUTO 05008KT 10SM CLR 06/02 A3038 RMK AO2,KLAL,2015-02-21T06:15:00Z,27.97,-82.02,6.0,2.0,50,8,,10.0,30.380905,,,TRUE,TRUE,,,,,,,CLR,,,,,,,,VFR,,,,,,,,,,,,METAR,43.0
KJXI 210615Z AUTO 18013G21KT 10SM OVC023 19/15 A2979 RMK AO2 T01860145,KJXI,2015-02-21T06:15:00Z,32.7,-94.95,18.6,14.5,180,13,21,10.0,29.790354,,,TRUE,TRUE,,,,,,,OVC,2300,,,,,,,MVFR,,,,,,,,,,,,METAR,127.0
KJWY 210615Z AUTO 18023G28KT 10SM OVC021 19/16 A2972 RMK AO2 T01870155,KJWY,2015-02-21T06:15:00Z,32.45,-96.92,18.7,15.5,180,23,28,10.0,29.719488,,,TRUE,TRUE,,,,,,,OVC,2100,,,,,,,MVFR,,,,,,,,,,,,METAR,217.0
KJWG 210615Z AUTO 36019G22KT 1 3/4SM BR OVC002 04/04 A2981 RMK AO2 T00350035,KJWG,2015-02-21T06:15:00Z,35.87,-98.42,3.5,3.5,360,19,22,1.75,29.811024,,,TRUE,TRUE,,,,,,BR,OVC,200,,,,,,,LIFR,,,,,,,,,,,,METAR,472.0
KJFZ 210615Z AUTO 16006KT 10SM SCT050 OVC100 M03/M15 A3012 RMK AO2 T10301147,KJFZ,2015-02-21T06:15:00Z,37.07,-81.8,-3.0,-14.7,160,6,,10.0,30.121063,,,TRUE,TRUE,,,,,,,SCT,5000,OVC,10000,,,,,VFR,,,,,,,,,,,,METAR,809.0
KJDD 210615Z AUTO 17013G22KT 10SM OVC024 20/16 A2977 RMK AO2,KJDD,2015-02-21T06:15:00Z,32.75,-95.5,20.0,16.0,170,13,22,10.0,29.769686,,,TRUE,TRUE,,,,,,,OVC,2400,,,,,,,MVFR,,,,,,,,,,,,METAR,132.0
KJAS 210615Z AUTO 17014G22KT 10SM BKN024 BKN044 OVC060 19/15 A2995 RMK AO2 T01870145,KJAS,2015-02-21T06:15:00Z,30.88,-94.03,18.7,14.5,170,14,22,10.0,29.949802,,,TRUE,TRUE,,,,,,,BKN,2400,BKN,4400,OVC,6000,,,MVFR,,,,,,,,,,,,METAR,65.0
KDQH 210615Z AUTO 04003KT 10SM CLR 01/M01 A3043 RMK AO2,KDQH,2015-02-21T06:15:00Z,31.48,-82.87,1.0,-1.0,40,3,,10.0,30.431103,,,TRUE,TRUE,,,,,,,CLR,,,,,,,,VFR,,,,,,,,,,,,METAR,78.0
KDPL 210615Z AUTO 00000KT 10SM CLR M08/M13 A3055 RMK AO2 T10841133,KDPL,2015-02-21T06:15:00Z,35.0,-77.97,-8.4,-13.3,0,0,,10.0,30.549213,,,TRUE,TRUE,,,,,,,CLR,,,,,,,,VFR,,,,,,,,,,,,METAR,42.0
KDNV 210615Z AUTO 16008KT 2 1/2SM -SN SCT019 BKN028 OVC033 M08/M09 A2994 RMK AO2 T10811095,KDNV,2015-02-21T06:15:00Z,40.2,-87.6,-8.1,-9.5,160,8,,2.5,29.940945,,,TRUE,TRUE,,,,,,-SN,SCT,1900,BKN,2800,OVC,3300,,,IFR,,,,,,,,,,,,METAR,212.0
KDNS 210615Z AUTO 00000KT 10SM FEW044 BKN085 M03/M05 A2980 RMK AO2,KDNS,2015-02-21T06:15:00Z,41.97,-95.37,-3.0,-5.0,0,0,,10.0,29.799213,,,TRUE,TRUE,,,,,,,FEW,4400,BKN,8500,,,,,VFR,,,,,,,,,,,,METAR,388.0
KCWC 210615Z AUTO 21005KT 10SM CLR 16/11 A2960 RMK AO2 T01630105,KCWC,2015-02-21T06:15:00Z,33.85,-98.48,16.3,10.5,210,5,,10.0,29.601377,,,TRUE,TRUE,,,,,,,CLR,,,,,,,,VFR,,,,,,,,,,,,METAR,305.0
KCWA 210615Z AUTO 00000KT 10SM OVC020 M10/M11 A2982 RMK AO2,KCWA,2015-02-21T06:15:00Z,44.78,-89.67,-10.0,-11.0,0,0,,10.0,29.819881,,,TRUE,TRUE,,,,,,,OVC,2000,,,,,,,MVFR,,,,,,,,,,,,METAR,389.0
KCUH 210615Z AUTO 04003KT 1 1/2SM BR OVC003 02/02 A2980 RMK AO2,KCUH,2015-02-21T06:15:00Z,35.95,-96.77,2.0,2.0,40,3,,1.5,29.799213,,,TRUE,TRUE,,,,,,BR,OVC,300,,,,,,,LIFR,,,,,,,,,,,,METAR,279.0
KCPK 210615Z AUTO 00000KT 10SM CLR M12/M14 A3056 RMK AO2,KCPK,2015-02-21T06:15:00Z,36.67,-76.32,-12.0,-14.0,0,0,,10.0,30.561024,,,TRUE,TRUE,,,,,,,CLR,,,,,,,,VFR,,,,,,,,,,,,METAR,6.0
KCMD 210615Z AUTO 15009G16KT 10SM OVC020 00/M09 A3015 RMK AO2 T10051087,KCMD,2015-02-21T06:15:00Z,34.27,-86.85,-0.5,-8.7,150,9,16,10.0,30.15059,,,TRUE,TRUE,,,,,,,OVC,2000,,,,,,,MVFR,,,,,,,,,,,,METAR,294.0
KCIR 210615Z AUTO 00000KT 1 1/2SM -SN BKN008 OVC012 01/00 A2993 RMK AO2 T00100000,KCIR,2015-02-21T06:15:00Z,37.07,-89.22,1.0,0.0,0,0,,1.5,29.929134,,,TRUE,TRUE,,,,,,-SN,BKN,800,OVC,1200,,,,,IFR,,,,,,,,,,,,METAR,98.0
KCDA 210615Z AUTO 24003KT 10SM CLR M21/M25 A3030 RMK AO2 T12071248,KCDA,2015-02-21T06:15:00Z,44.57,-72.02,-20.7,-24.8,240,3,,10.0,30.301182,,,TRUE,TRUE,,,,,,,CLR,,,,,,,,VFR,,,,,,,,,,,,METAR,363.0
KCCO 210615Z AUTO 13008KT 10SM OVC041 02/M10 A3030 RMK AO2 T00151105,KCCO,2015-02-21T06:15:00Z,33.32,-84.77,1.5,-10.5,130,8,,10.0,30.301182,,,TRUE,TRUE,,,,,,,OVC,4100,,,,,,,VFR,,,,,,,,,,,,METAR,296.0
KBWD 210615Z AUTO 18012KT 10SM FEW032 FEW040 SCT050 18/11 A2974 RMK AO2,KBWD,2015-02-21T06:15:00Z,31.8,-98.95,18.0,11.0,180,12,,10.0,29.740158,,,TRUE,TRUE,,,,,,,FEW,3200,FEW,4000,SCT,5000,,,VFR,,,,,,,,,,,,METAR,423.0
KBMT 210615Z AUTO 17014G20KT 10SM SCT038 SCT045 OVC065 19/16 A2995 RMK AO2 T01850157,KBMT,2015-02-21T06:15:00Z,30.07,-94.22,18.5,15.7,170,14,20,10.0,29.949802,,,TRUE,TRUE,,,,,,,SCT,3800,SCT,4500,OVC,6500,,,VFR,,,,,,,,,,,,METAR,10.0
KBHC 210615Z AUTO 01003KT 10SM CLR 01/M01 A3042 RMK AO2,KBHC,2015-02-21T06:15:00Z,31.72,-82.4,1.0,-1.0,10,3,,10.0,30.41929,,,TRUE,TRUE,,,,,,,CLR,,,,,,,,VFR,,,,,,,,,,,,METAR,61.0
KBDG 210615Z AUTO 30004KT 10SM CLR 06/M16 A2999 RMK AO1 T00581164,KBDG,2015-02-21T06:15:00Z,37.58,-109.47,5.8,-16.4,300,4,,10.0,29.991142,,,TRUE,TRUE,,,,,,,CLR,,,,,,,,VFR,,,,,,,,,,,,METAR,1788.0
KAYS 210615Z AUTO 13004KT 10SM CLR 03/00 A3040 RMK AO2 T00260000,KAYS,2015-02-21T06:15:00Z,31.25,-82.4,2.6,0.0,130,4,,10.0,30.398623,,,TRUE,TRUE,,,,,,,CLR,,,,,,,,VFR,,,,,,,,,,,,METAR,46.0
KAXX 210615Z AUTO 00000KT 10SM CLR M02/M07 A2991 RMK AO2 T10171075,KAXX,2015-02-21T06:15:00Z,36.42,-105.28,-1.7,-7.5,0,0,,10.0,29.911417,,,TRUE,TRUE,,,,,,,CLR,,,,,,,,VFR,,,,,,,,,,,,METAR,2548.0
KASW 210615Z AUTO 20005KT 4SM BR OVC008 M09/M10 A2999 RMK AO2,KASW,2015-02-21T06:15:00Z,41.27,-85.83,-9.0,-10.0,200,5,,4.0,29.991142,,,TRUE,TRUE,,,,,,BR,OVC,800,,,,,,,IFR,,,,,,,,,,,,METAR,259.0
KAPY 210615Z AUTO 15012G17KT 10SM CLR 19/14 A2982 RMK AO2 T01930145,KAPY,2015-02-21T06:15:00Z,26.97,-99.25,19.3,14.5,150,12,17,10.0,29.819881,,,TRUE,TRUE,,,,,,,CLR,,,,,,,,VFR,,,,,,,,,,,,METAR,129.0
KAJZ 210615Z AUTO 04003KT 10SM CLR 02/M06 A2993 RMK AO2 T00191064,KAJZ,2015-02-21T06:15:00Z,38.78,-108.07,1.9,-6.4,40,3,,10.0,29.929134,,,TRUE,TRUE,,,,,,,CLR,,,,,,,,VFR,,,,,,,,,,,,METAR,1583.0
KAJG 210615Z AUTO 00000KT 2 1/2SM -SN OVC008 M01/M03 A3000 RMK AO2 P0002,KAJG,2015-02-21T06:15:00Z,38.62,-87.73,-1.0,-3.0,0,0,,2.5,30.0,,,TRUE,TRUE,,,,,,-SN,OVC,800,,,,,,,IFR,,,,,,0.02,,,,,,METAR,131.0
KADH 210615Z AUTO 02007KT 2 1/2SM BR OVC001 07/07 A2970 RMK AO2,KADH,2015-02-21T06:15:00Z,34.8,-96.67,7.0,7.0,20,7,,2.5,29.698818,,,TRUE,TRUE,,,,,,BR,OVC,100,,,,,,,LIFR,,,,,,,,,,,,METAR,308.0
KAAA 210615Z AUTO 16006KT 1SM SN OVC007 M06/M08 A2997 RMK AO2 T10651080,KAAA,2015-02-21T06:15:00Z,40.17,-89.33,-6.5,-8.0,160,6,,1.0,29.970472,,,TRUE,TRUE,,,,,,SN,OVC,700,,,,,,,IFR,,,,,,,,,,,,METAR,182.0
K82C 210615Z AUTO 00000KT 10SM OVC026 M08/M11 A2984 RMK AO2 T10841113,K82C,2015-02-21T06:15:00Z,43.83,-90.13,-8.4,-11.3,0,0,,10.0,29.840551,,,TRUE,TRUE,,,,,,,OVC,2600,,,,,,,MVFR,,,,,,,,,,,,METAR,276.0
K5C1 210615Z AUTO 17011G16KT 10SM OVC006 16/15 A2985 RMK AO1,K5C1,2015-02-21T06:15:00Z,29.72,-98.7,16.0,15.0,170,11,16,10.0,29.84941,,,TRUE,TRUE,,,,,,,OVC,600,,,,,,,IFR,,,,,,,,,,,,METAR,423.0
K4A9 210615Z AUTO 25003KT 10SM SCT040 SCT050 OVC075 00/M10 A3022 RMK AO2,K4A9,2015-02-21T06:15:00Z,34.47,-85.72,0.0,-10.0,250,3,,10.0,30.221457,,,TRUE,TRUE,,,,,,,SCT,4000,SCT,5000,OVC,7500,,,VFR,,,,,,,,,,,,METAR,267.0
K36U 210615Z AUTO 33005KT 10SM CLR 00/M06 A2999 RMK AO2,K36U,2015-02-21T06:15:00Z,40.48,-111.43,0.0,-6.0,330,5,,10.0,29.991142,,,TRUE,TRUE,,,,,,,CLR,,,,,,,,VFR,,,,,,,,,,,,METAR,1718.0
K2I0 210615Z AUTO 19008KT 10SM OVC010 01/M01 A2998 RMK AO2 T00051013,K2I0,2015-02-21T06:15:00Z,37.35,-87.4,0.5,-1.3,190,8,,10.0,29.97933,,,TRUE,TRUE,,,,,,,OVC,1000,,,,,,,MVFR,,,,,,,,,,,,METAR,134.0
K1A5 210615Z AUTO 00000KT 10SM M04/M07 A3031 RMK AO2 T10451073,K1A5,2015-02-21T06:15:00Z,35.22,-83.42,-4.5,-7.3,0,0,,10.0,30.31004,,,TRUE,TRUE,,,,,,,,,,,,,,,,,,,,,,,,,,,METAR,616.0
K19A 210615Z AUTO 00000KT 10SM SCT034 OVC043 00/M07 A3037 RMK AO2 TSNO,K19A,2015-02-21T06:15:00Z,34.18,-83.57,0.0,-7.0,0,0,,10.0,30.369095,,,TRUE,TRUE,,,TRUE,,,,SCT,3400,OVC,4300,,,,,VFR,,,,,,,,,,,,METAR,290.0
K11R 210615Z AUTO 18016G23KT 10SM SCT022 BKN030 21/17 A2988 RMK AO2 T02050168,K11R,2015-02-21T06:15:00Z,30.22,-96.37,20.5,16.8,180,16,23,10.0,29.878937,,,TRUE,TRUE,,,,,,,SCT,2200,BKN,3000,,,,,MVFR,,,,,,,,,,,,METAR,94.0
K0E0 210615Z AUTO 23007KT 10SM CLR 07/M11 A2992 RMK AO2 T00711106,K0E0,2015-02-21T06:15:00Z,34.98,-106.0,7.1,-10.6,230,7,,10.0,29.920275,,,TRUE,TRUE,,,,,,,CLR,,,,,,,,VFR,,,,,,,,,,,,METAR,1890.0
KINF 210615Z AUTO 00000KT 10SM CLR 03/00 A3040 RMK AO2,KINF,2015-02-21T06:15:00Z,28.8,-82.32,3.0,0.0,0,0,,10.0,30.398623,,,TRUE,TRUE,,,,,,,CLR,,,,,,,,VFR,,,,,,,,,,,,METAR,15.0
KIIY 210615Z AUTO 00000KT 10SM OVC042 02/M05 A3039 RMK AO2,KIIY,2015-02-21T06:15:00Z,33.78,-82.82,2.0,-5.0,0,0,,10.0,30.389763,,,TRUE,TRUE,,,,,,,OVC,4200,,,,,,,VFR,,,,,,,,,,,,METAR,197.0
KIER 210615Z AUTO 17009KT 10SM SCT024 BKN033 OVC050 18/15 A2994 RMK AO2 T01760145,KIER,2015-02-21T06:15:00Z,31.73,-93.1,17.6,14.5,170,9,,10.0,29.940945,,,TRUE,TRUE,,,,,,,SCT,2400,BKN,3300,OVC,5000,,,VFR,,,,,,,,,,,,METAR,37.0
KI16 210615Z AUTO 10SM CLR M09/M11 A3020 RMK AO2 T10901115,KI16,2015-02-21T06:15:00Z,37.6,-81.57,-9.0,-11.5,,,,10.0,30.200787,,,TRUE,TRUE,,,,,,,CLR,,,,,,,,VFR,,,,,,,,,,,,METAR,544.0
KHZL 210615Z AUTO 10SM SCT100 M15/M23 A3033 RMK AO2,KHZL,2015-02-21T06:15:00Z,40.98,-76.0,-15.0,-23.0,,,,10.0,30.33071,,,TRUE,TRUE,,,,,,,SCT,10000,,,,,,,VFR,,,,,,,,,,,,METAR,489.0
KHUM 210615Z AUTO 15012G16KT 7SM OVC034 17/13 A3008 RMK AO2 T01700131,KHUM,2015-02-21T06:15:00Z,29.57,-90.67,17.0,13.1,150,12,16,7.0,30.079725,,,TRUE,TRUE,,,,,,,OVC,3400,,,,,,,VFR,,,,,,,,,,,,METAR,3.0
KHRJ 210615Z AUTO 11003KT 10SM CLR M06/M15 A3051 RMK AO2 T10601151,KHRJ,2015-02-21T06:15:00Z,35.38,-78.73,-6.0,-15.1,110,3,,10.0,30.510826,,,TRUE,TRUE,,,,,,,CLR,,,,,,,,VFR,,,,,,,,,,,,METAR,60.0
KHQZ 210615Z AUTO 18021G27KT 10SM OVC023 19/15 A2972 RMK AO1 T01930146,KHQZ,2015-02-21T06:15:00Z,32.75,-96.53,19.3,14.6,180,21,27,10.0,29.719488,,,TRUE,TRUE,,,,,,,OVC,2300,,,,,,,MVFR,,,,,,,,,,,,METAR,136.0
KHQU 210615Z AUTO 00000KT 10SM BKN042 02/M09 A3044 RMK AO1 T00221086,KHQU,2015-02-21T06:15:00Z,33.53,-82.52,2.2,-8.6,0,0,,10.0,30.43996,,,TRUE,TRUE,,,,,,,BKN,4200,,,,,,,VFR,,,,,,,,,,,,METAR,152.0
KHLX 210615Z AUTO 17010KT 10SM BKN060 M09/M17 A3022 RMK AO2 T10901170,KHLX,2015-02-21T06:15:00Z,36.77,-80.82,-9.0,-17.0,170,10,,10.0,30.221457,,,TRUE,TRUE,,,,,,,BKN,6000,,,,,,,VFR,,,,,,,,,,,,METAR,834.0
KGWB 210615Z AUTO 20006KT 10SM OVC022 M07/M12 A3002 RMK AO2,KGWB,2015-02-21T06:15:00Z,41.3,-85.07,-7.0,-12.0,200,6,,10.0,30.02067,,,TRUE,TRUE,,,,,,,OVC,2200,,,,,,,MVFR,,,,,,,,,,,,METAR,269.0
KGNT 210615Z AUTO 27010G16KT 10SM CLR 07/M07 A2997 RMK AO2 T00681066,KGNT,2015-02-21T06:15:00Z,35.17,-107.9,6.8,-6.6,270,10,16,10.0,29.970472,,,TRUE,TRUE,,,,,,,CLR,,,,,,,,VFR,,,,,,,,,,,,METAR,1987.0
KGNC 210615Z AUTO 27008KT 10SM CLR 14/M04 A2978 RMK AO2 T01381044,KGNC,2015-02-21T06:15:00Z,32.68,-102.65,13.8,-4.4,270,8,,10.0,29.778543,,,TRUE,TRUE,,,,,,,CLR,,,,,,,,VFR,,,,,,,,,,,,METAR,1010.0
KGMJ 210615Z AUTO 02004KT 1 1/2SM -VCTSRA OVC002 02/02 A2980 RMK AO2 LTG DSNT ALQS P0001,KGMJ,2015-02-21T06:15:00Z,36.6,-94.73,2.0,2.0,20,4,,1.5,29.799213,,,TRUE,TRUE,,,,,,VCTS -RA,OVC,200,,,,,,,LIFR,,,,,,0.01,,,,,,METAR,254.0
KGLE 210615Z AUTO 19018G23KT 10SM CLR 17/14 A2967 RMK AO2 T01700143,KGLE,2015-02-21T06:15:00Z,33.65,-97.2,17.0,14.3,190,18,23,10.0,29.66929,,,TRUE,TRUE,,,,,,,CLR,,,,,,,,VFR,,,,,,,,,,,,METAR,256.0
KGIC 210615Z AUTO 20003KT 10SM SCT021 BKN025 OVC035 02/00 A3013 RMK AO1 T00160000,KGIC,2015-02-21T06:15:00Z,45.95,-116.12,1.6,0.0,200,3,,10.0,30.129921,,,TRUE,TRUE,,,,,,,SCT,2100,BKN,2500,OVC,3500,,,MVFR,,,,,,,,,,,,METAR,1009.0
KGDJ 210615Z AUTO 18018G25KT 10SM CLR 19/15 A2970 RMK AO2 T01910150,KGDJ,2015-02-21T06:15:00Z,32.45,-97.82,19.1,15.0,180,18,25,10.0,29.698818,,,TRUE,TRUE,,,,,,,CLR,,,,,,,,VFR,,,,,,,,,,,,METAR,237.0
KGAO 210615Z AUTO 14009G15KT 10SM BKN039 BKN046 OVC055 19/13 A3010 RMK AO2 T01870130,KGAO,2015-02-21T06:15:00Z,29.45,-90.27,18.7,13.0,140,9,15,10.0,30.100393,,,TRUE,TRUE,,,,,,,BKN,3900,BKN,4600,OVC,5500,,,VFR,,,,,,,,,,,,METAR,1.0
KFYJ 210615Z AUTO 12004KT 10SM CLR M16/M20 A3055 RMK AO2 T11621205,KFYJ,2015-02-21T06:15:00Z,37.52,-76.77,-16.2,-20.5,120,4,,10.0,30.549213,,,TRUE,TRUE,,,,,,,CLR,,,,,,,,VFR,,,,,,,,,,,,METAR,7.0
KFSO 210615Z AUTO 00000KT 10SM CLR M16/M21 A3037 RMK AO2 T11571207,KFSO,2015-02-21T06:15:00Z,44.93,-73.1,-15.7,-20.7,0,0,,10.0,30.369095,,,TRUE,TRUE,,,,,,,CLR,,,,,,,,VFR,,,,,,,,,,,,METAR,70.0
KFHB 210615Z AUTO 11005KT 10SM CLR 10/01 A3039 RMK AO1,KFHB,2015-02-21T06:15:00Z,30.62,-81.47,10.0,1.0,110,5,,10.0,30.389763,,,TRUE,TRUE,,,,,,,CLR,,,,,,,,VFR,,,,,,,,,,,,METAR,5.0
KF46 210615Z AUTO 20017G28KT 10SM OVC021 19/15 A2971 RMK AO2 T01900153,KF46,2015-02-21T06:15:00Z,32.93,-96.43,19.0,15.3,200,17,28,10.0,29.71063,,,TRUE,TRUE,,,,,,,OVC,2100,,,,,,,MVFR,,,,,,,,,,,,METAR,176.0
KF44 210615Z AUTO 19013G22KT 10SM OVC024 18/15 A2977 RMK AO2,KF44,2015-02-21T06:15:00Z,32.17,-95.83,18.0,15.0,190,13,22,10.0,29.769686,,,TRUE,TRUE,,,,,,,OVC,2400,,,,,,,MVFR,,,,,,,,,,,,METAR,135.0
KF05 210615Z AUTO 01019G25KT 5SM SCT004 SCT013 09/06 A2968 RMK AO1 T00860059,KF05,2015-02-21T06:15:00Z,34.23,-99.28,8.6,5.9,10,19,25,5.0,29.681103,,,TRUE,TRUE,,,,,,,SCT,400,SCT,1300,,,,,MVFR,,,,,,,,,,,,METAR,386.0
KEZS 210615Z AUTO 00000KT 10SM OVC025 M09/M12 A2987 RMK AO2 T10871118,KEZS,2015-02-21T06:15:00Z,44.78,-88.57,-8.7,-11.8,0,0,,10.0,29.870079,,,TRUE,TRUE,,,,,,,OVC,2500,,,,,,,MVFR,,,,,,,,,,,,METAR,248.0
KEZM 210615Z AUTO 15005KT 10SM CLR 01/M05 A3043 RMK AO2 T00051048,KEZM,2015-02-21T06:15:00Z,32.22,-83.13,0.5,-4.8,150,5,,10.0,30.431103,,,TRUE,TRUE,,,,,,,CLR,,,,,,,,VFR,,,,,,,,,,,,METAR,93.0
KEYF 210615Z AUTO 00000KT 10SM CLR M06/M14 A3052 RMK AO2 T10571143,KEYF,2015-02-21T06:15:00Z,34.6,-78.58,-5.7,-14.3,0,0,,10.0,30.519686,,,TRUE,TRUE,,,,,,,CLR,,,,,,,,VFR,,,,,,,,,,,,METAR,41.0
KETC 210615Z AUTO 00000KT 10SM CLR M11/M12 A3056 RMK AO2 T11061116,KETC,2015-02-21T06:15:00Z,35.93,-77.55,-10.6,-11.6,0,0,,10.0,30.561024,,,TRUE,TRUE,,,,,,,CLR,,,,,,,,VFR,,,,,,,,,,,,METAR,17.0
KERV 210615Z AUTO 16012KT 10SM BKN010 16/15 A2983 RMK AO2 T01610148,KERV,2015-02-21T06:15:00Z,29.98,-99.08,16.1,14.8,160,12,,10.0,29.828741,,,TRUE,TRUE,,,,,,,BKN,1000,,,,,,,MVFR,,,,,,,,,,,,METAR,510.0
KEBG 210615Z AUTO 17014G19KT 10SM SCT016 20/17 A2988 RMK AO2 T02040168,KEBG,2015-02-21T06:15:00Z,26.45,-98.13,20.4,16.8,170,14,19,10.0,29.878937,,,TRUE,TRUE,,,,,,,SCT,1600,,,,,,,VFR,,,,,,,,,,,,METAR,24.0
KDZB 210615Z AUTO 18008G19KT 10SM OVC017 18/15 A2980 RMK AO2 T01810145,KDZB,2015-02-21T06:15:00Z,30.53,-98.37,18.1,14.5,180,8,19,10.0,29.799213,,,TRUE,TRUE,,,,,,,OVC,1700,,,,,,,MVFR,,,,,,,,,,,,METAR,334.0
KDUX 210615Z AUTO 01006KT 10SM CLR 02/M02 A2987 RMK AO2 T00241022,KDUX,2015-02-21T06:15:00Z,35.85,-102.02,2.4,-2.2,10,6,,10.0,29.870079,,,TRUE,TRUE,,,,,,,CLR,,,,,,,,VFR,,,,,,,,,,,,METAR,1129.0
KDUC 210615Z AUTO 03008G16KT 7SM CLR 09/09 A2966 RMK AO2,KDUC,2015-02-21T06:15:00Z,34.47,-97.97,9.0,9.0,30,8,16,7.0,29.660433,,,TRUE,TRUE,,,,,,,CLR,,,,,,,,VFR,,,,,,,,,,,,METAR,339.0
KLUA 210615Z AUTO 00000KT 10SM BKN080 M13/M15 A3035 RMK AO2,KLUA,2015-02-21T06:15:00Z,38.67,-78.5,-13.0,-15.0,0,0,,10.0,30.351377,,,TRUE,TRUE,,,,,,,BKN,8000,,,,,,,VFR,,,,,,,,,,,,METAR,275.0
KLOM 210615Z AUTO 00000KT 10SM CLR M16/M19 A3049 RMK AO1,KLOM,2015-02-21T06:15:00Z,40.13,-75.27,-16.0,-19.0,0,0,,10.0,30.490158,,,TRUE,TRUE,,,,,,,CLR,,,,,,,,VFR,,,,,,,,,,,,METAR,92.0
KLNC 210615Z AUTO 19020G29KT 10SM BKN025 19/14 A2972 RMK AO2 T01880140,KLNC,2015-02-21T06:15:00Z,32.58,-96.72,18.8,14.0,190,20,29,10.0,29.719488,,,TRUE,TRUE,,,,,,,BKN,2500,,,,,,,MVFR,,,,,,,,,,,,METAR,153.0
KJYR 210615Z AUTO 28007KT 10SM BKN065 BKN070 OVC110 02/00 A2987 RMK AO2,KJYR,2015-02-21T06:15:00Z,40.9,-97.62,2.0,0.0,280,7,,10.0,29.870079,,,TRUE,TRUE,,,,,,,BKN,6500,BKN,7000,OVC,11000,,,VFR,,,,,,,,,,,,METAR,509.0
KJYL 210615Z AUTO 14003KT 10SM OVC085 01/M03 A3043 RMK AO2 T00051035,KJYL,2015-02-21T06:15:00Z,32.65,-81.6,0.5,-3.5,140,3,,10.0,30.431103,,,TRUE,TRUE,,,,,,,OVC,8500,,,,,,,VFR,,,,,,,,,,,,METAR,57.0
KJVL 210615Z AUTO 19008KT 10SM OVC032 M06/M11 A2990 RMK AO2,KJVL,2015-02-21T06:15:00Z,42.62,-89.05,-6.0,-11.0,190,8,,10.0,29.899607,,,TRUE,TRUE,,,,,,,OVC,3200,,,,,,,VFR,,,,,,,,,,,,METAR,246.0
KJSV 210615Z AUTO 10010KT 7SM OVC006 01/00 A2977 RMK AO2 LTG DSNT NW THRU NE,KJSV,2015-02-21T06:15:00Z,35.43,-94.8,1.0,0.0,100,10,,7.0,29.769686,,,TRUE,TRUE,,,,,,,OVC,600,,,,,,,IFR,,,,,,,,,,,,METAR,161.0
KJSO 210615Z AUTO 18015G22KT 10SM SCT017 BKN022 OVC028 18/15 A2983 RMK AO2 T01830152,KJSO,2015-02-21T06:15:00Z,31.87,-95.22,18.3,15.2,180,15,22,10.0,29.828741,,,TRUE,TRUE,,,,,,,SCT,1700,BKN,2200,OVC,2800,,,MVFR,,,,,,,,,,,,METAR,206.0
KJNX 210615Z AUTO 00000KT 10SM CLR M08/M10 A3052 RMK AO2,KJNX,2015-02-21T06:15:00Z,35.53,-78.38,-8.0,-10.0,0,0,,10.0,30.519686,,,TRUE,TRUE,,,,,,,CLR,,,,,,,,VFR,,,,,,,,,,,,METAR,50.0
KIXA 210615Z AUTO 00000KT 10SM CLR M11/M15 A3053 RMK AO2,KIXA,2015-02-21T06:15:00Z,36.33,-77.63,-11.0,-15.0,0,0,,10.0,30.528543,,,TRUE,TRUE,,,,,,,CLR,,,,,,,,VFR,,,,,,,,,,,,METAR,44.0
KHVE 210615Z AUTO 09003KT 10SM CLR 02/M13 A2999 RMK AO2,KHVE,2015-02-21T06:15:00Z,38.42,-110.7,2.0,-13.0,90,3,,10.0,29.991142,,,TRUE,TRUE,,,,,,,CLR,,,,,,,,VFR,,,,,,,,,,,,METAR,1350.0
KVJI 210615Z AUTO 08006KT 10SM BKN032 BKN039 OVC070 M04/M15 A3019 RMK AO2 T10401151,KVJI,2015-02-21T06:15:00Z,36.67,-82.02,-4.0,-15.1,80,6,,10.0,30.188976,,,TRUE,TRUE,,,,,,,BKN,3200,BKN,3900,OVC,7000,,,VFR,,,,,,,,,,,,METAR,631.0
KUVA 210615Z AUTO 12007KT 10SM CLR 17/14 A2981 RMK AO2 T01730141,KUVA,2015-02-21T06:15:00Z,29.22,-99.75,17.3,14.1,120,7,,10.0,29.811024,,,TRUE,TRUE,,,,,,,CLR,,,,,,,,VFR,,,,,,,,,,,,METAR,287.0
KSUN 210615Z AUTO 30005KT 10SM CLR M02/M06 A3000 RMK AO2,KSUN,2015-02-21T06:15:00Z,43.5,-114.28,-2.0,-6.0,300,5,,10.0,30.0,,,TRUE,TRUE,,,,,,,CLR,,,,,,,,VFR,,,,,,,,,,,,METAR,1620.0
KSDF 210615Z 16008KT 5SM -FZDZ BR BKN008 OVC010 M02/M04 A3003 RMK AO2 P0001 I1000 T10221044,KSDF,2015-02-21T06:15:00Z,38.18,-85.73,-2.2,-4.4,160,8,,5.0,30.029528,,,,TRUE,,,,,,-FZDZ BR,BKN,800,OVC,1000,,,,,IFR,,,,,,0.01,,,,,,METAR,146.0
KSCD 210615Z AUTO 15005KT 10SM CLR 03/M12 A3024 RMK AO2 T00251122,KSCD,2015-02-21T06:15:00Z,33.17,-86.3,2.5,-12.2,150,5,,10.0,30.239174,,,TRUE,TRUE,,,,,,,CLR,,,,,,,,VFR,,,,,,,,,,,,METAR,173.0
KMQS 210615Z AUTO 00000KT 10SM CLR M13/M20 A3044 RMK AO2,KMQS,2015-02-21T06:15:00Z,39.98,-75.87,-13.0,-20.0,0,0,,10.0,30.43996,,,TRUE,TRUE,,,,,,,CLR,,,,,,,,VFR,,,,,,,,,,,,METAR,201.0
KMRN 210615Z AUTO 12003KT 10SM BKN041 OVC095 M03/M15 A3040 RMK AO2 T10301152,KMRN,2015-02-21T06:15:00Z,35.82,-81.62,-3.0,-15.2,120,3,,10.0,30.398623,,,TRUE,TRUE,,,,,,,BKN,4100,OVC,9500,,,,,VFR,,,,,,,,,,,,METAR,387.0
KOCW 210615Z AUTO 10003KT 10SM CLR M09/M15 A3056 RMK AO2 T10881148,KOCW,2015-02-21T06:15:00Z,35.57,-77.05,-8.8,-14.8,100,3,,10.0,30.561024,,,TRUE,TRUE,,,,,,,CLR,,,,,,,,VFR,,,,,,,,,,,,METAR,12.0
KMWO 210615Z AUTO 12003KT 10SM OVC020 M06/M17 A3009 RMK AO2 T10561171,KMWO,2015-02-21T06:15:00Z,39.53,-84.4,-5.6,-17.1,120,3,,10.0,30.088583,,,TRUE,TRUE,,,,,,,OVC,2000,,,,,,,MVFR,,,,,,,,,,,,METAR,198.0
KOKV 210615Z AUTO 00000KT 10SM OVC090 M10/M22 A3035 RMK AO2,KOKV,2015-02-21T06:15:00Z,39.13,-78.15,-10.0,-22.0,0,0,,10.0,30.351377,,,TRUE,TRUE,,,,,,,OVC,9000,,,,,,,VFR,,,,,,,,,,,,METAR,222.0
KOLE 210615Z AUTO 19010G14KT 10SM OVC070 M16/M22 A3008 RMK AO2,KOLE,2015-02-21T06:15:00Z,42.23,-78.37,-16.0,-22.0,190,10,14,10.0,30.079725,,,TRUE,TRUE,,,,,,,OVC,7000,,,,,,,VFR,,,,,,,,,,,,METAR,651.0
KONM 210615Z AUTO 22015G19KT 10SM 15/M08 A2989 RMK AO2 T01471083,KONM,2015-02-21T06:15:00Z,34.02,-106.9,14.7,-8.3,220,15,19,10.0,29.890747,,,TRUE,TRUE,,,,,,,,,,,,,,,,,,,,,,,,,,,METAR,1410.0
KOPN 210615Z AUTO 14006KT 10SM BKN041 OVC110 02/M10 A3035 RMK AO2,KOPN,2015-02-21T06:15:00Z,32.95,-84.27,2.0,-10.0,140,6,,10.0,30.351377,,,TRUE,TRUE,,,,,,,BKN,4100,OVC,11000,,,,,VFR,,,,,,,,,,,,METAR,243.0
KONP 210615Z AUTO 00000KT 10SM SCT080 08/06 A3027 RMK AO2,KONP,2015-02-21T06:15:00Z,44.57,-124.03,8.0,6.0,0,0,,10.0,30.268702,,,TRUE,TRUE,,,,,,,SCT,8000,,,,,,,VFR,,,,,,,,,,,,METAR,48.0
KPCZ 210615Z AUTO 00000KT 10SM OVC028 M09/M12 A2986 RMK AO2 T10901120,KPCZ,2015-02-21T06:15:00Z,44.33,-89.02,-9.0,-12.0,0,0,,10.0,29.861221,,,TRUE,TRUE,,,,,,,OVC,2800,,,,,,,MVFR,,,,,,,,,,,,METAR,252.0
KOXI 210615Z AUTO 18009KT 10SM OVC018 M08/M16 A2999 RMK AO1,KOXI,2015-02-21T06:15:00Z,41.33,-86.67,-8.0,-16.0,180,9,,10.0,29.991142,,,TRUE,TRUE,,,,,,,OVC,1800,,,,,,,MVFR,,,,,,,,,,,,METAR,209.0
KPDC 210615Z AUTO 08003KT 10SM OVC034 M05/M10 A2985 RMK AO2 T10461098,KPDC,2015-02-21T06:15:00Z,43.02,-91.12,-4.6,-9.8,80,3,,10.0,29.84941,,,TRUE,TRUE,,,,,,,OVC,3400,,,,,,,VFR,,,,,,,,,,,,METAR,201.0
KPMV 210615Z AUTO 24005KT 10SM CLR 01/M05 A2984 RMK AO2 T00051047,KPMV,2015-02-21T06:15:00Z,40.95,-95.92,0.5,-4.7,240,5,,10.0,29.840551,,,TRUE,TRUE,,,,,,,CLR,,,,,,,,VFR,,,,,,,,,,,,METAR,367.0
KPEQ 210615Z AUTO 28003KT 10SM CLR 17/M04 A2982 RMK AO2 T01671037,KPEQ,2015-02-21T06:15:00Z,31.38,-103.52,16.7,-3.7,280,3,,10.0,29.819881,,,TRUE,TRUE,,,,,,,CLR,,,,,,,,VFR,,,,,,,,,,,,METAR,797.0
KRCZ 210615Z AUTO 15004KT 10SM M05/M15 A3047 RMK AO2 T10471152,KRCZ,2015-02-21T06:15:00Z,34.88,-79.77,-4.7,-15.2,150,4,,10.0,30.469488,,,TRUE,TRUE,,,,,,,,,,,,,,,,,,,,,,,,,,,METAR,109.0
KRCM 210615Z AUTO 00000KT 4SM UP OVC003 M01/M01 A2988 RMK AO2 P0001 LTG DSNT S,KRCM,2015-02-21T06:15:00Z,38.78,-93.8,-1.0,-1.0,0,0,,4.0,29.878937,,,TRUE,TRUE,,,,,,UP,OVC,300,,,,,,,LIFR,,,,,,0.01,,,,,,METAR,244.0
KPTT 210615Z AUTO 01007KT 5SM -SN BKN009 BKN013 OVC026 01/00 A2987 RMK AO2 P0001,KPTT,2015-02-21T06:15:00Z,37.7,-98.75,1.0,0.0,10,7,,5.0,29.870079,,,TRUE,TRUE,,,,,,-SN,BKN,900,BKN,1300,OVC,2600,,,IFR,,,,,,0.01,,,,,,METAR,595.0
KPTS 210615Z AUTO 05006KT 5SM RA OVC004 01/01 A2982 RMK AO2 LTG DSNT SE AND S T00060007,KPTS,2015-02-21T06:15:00Z,37.45,-94.73,0.6,0.7,50,6,,5.0,29.819881,,,TRUE,TRUE,,,,,,RA,OVC,400,,,,,,,LIFR,,,,,,,,,,,,METAR,290.0
KPSN 210615Z AUTO 18015G25KT 10SM BKN025 OVC030 20/15 A2982 RMK AO2 T01970156,KPSN,2015-02-21T06:15:00Z,31.78,-95.7,19.7,15.6,180,15,25,10.0,29.819881,,,TRUE,TRUE,,,,,,,BKN,2500,OVC,3000,,,,,MVFR,,,,,,,,,,,,METAR,129.0
KPPQ 210615Z AUTO 23003KT 1SM UP OVC004 M03/M04 A2993 RMK AO2 P0002 T10271037,KPPQ,2015-02-21T06:15:00Z,39.63,-90.78,-2.7,-3.7,230,3,,1.0,29.929134,,,TRUE,TRUE,,,,,,UP,OVC,400,,,,,,,LIFR,,,,,,0.02,,,,,,METAR,216.0
KPPO 210615Z AUTO 20006KT 10SM OVC017 M07/M11 A2998 RMK AO2 T10711107,KPPO,2015-02-21T06:15:00Z,41.57,-86.73,-7.1,-10.7,200,6,,10.0,29.97933,,,TRUE,TRUE,,,,,,,OVC,1700,,,,,,,MVFR,,,,,,,,,,,,METAR,248.0
KS25 210615Z AUTO 32009KT 7SM -SN BKN022 OVC029 M08/M09 A2999 RMK AO2 P0001,KS25,2015-02-21T06:15:00Z,47.8,-103.25,-8.0,-9.0,320,9,,7.0,29.991142,,,TRUE,TRUE,,,,,,-SN,BKN,2200,OVC,2900,,,,,MVFR,,,,,,0.01,,,,,,METAR,644.0
K66R 210615Z AUTO 18015G25KT 10SM OVC019 19/17 A2988 RMK AO2 T01870167,K66R,2015-02-21T06:15:00Z,29.65,-96.52,18.7,16.7,180,15,25,10.0,29.878937,,,TRUE,TRUE,,,,,,,OVC,1900,,,,,,,MVFR,,,,,,,,,,,,METAR,74.0
K54J 210615Z AUTO 12004KT 10SM CLR 04/M04 A3030 RMK AO2 T00401036,K54J,2015-02-21T06:15:00Z,30.73,-86.15,4.0,-3.6,120,4,,10.0,30.301182,,,TRUE,TRUE,,,,,,,CLR,,,,,,,,VFR,,,,,,,,,,,,METAR,88.0
K3R7 210615Z AUTO 17010G15KT 10SM OVC075 17/15 A2999 RMK AO2 T01700146,K3R7,2015-02-21T06:15:00Z,30.25,-92.67,17.0,14.6,170,10,15,10.0,29.991142,,,TRUE,TRUE,,,,,,,OVC,7500,,,,,,,VFR,,,,,,,,,,,,METAR,7.0
K3LF 210615Z AUTO 18007KT 1 1/4SM -SN BKN005 OVC009 M04/M05 A2993 RMK AO2 P0002 T10411053,K3LF,2015-02-21T06:15:00Z,39.17,-89.67,-4.1,-5.3,180,7,,1.25,29.929134,,,TRUE,TRUE,,,,,,-SN,BKN,500,OVC,900,,,,,IFR,,,,,,0.02,,,,,,METAR,210.0
K2G9 210615Z AUTO 16007KT 10SM OVC050 M12/M23 A3012 RMK AO2,K2G9,2015-02-21T06:15:00Z,40.03,-79.02,-12.0,-23.0,160,7,,10.0,30.121063,,,TRUE,TRUE,,,,,,,OVC,5000,,,,,,,VFR,,,,,,,,,,,,METAR,693.0
K1L0 210615Z AUTO 16010G16KT 10SM BKN040 BKN046 OVC075 18/12 A3008 RMK AO2 T01780123,K1L0,2015-02-21T06:15:00Z,30.08,-90.58,17.8,12.3,160,10,16,10.0,30.079725,,,TRUE,TRUE,,,,,,,BKN,4000,BKN,4600,OVC,7500,,,VFR,,,,,,,,,,,,METAR,2.0
K1H2 210615Z AUTO 12006KT 1 3/4SM -SN M05/M07 A2996 RMK AO2 P0003 T10491067,K1H2,2015-02-21T06:15:00Z,39.07,-88.53,-4.9,-6.7,120,6,,1.75,29.958662,,,TRUE,TRUE,,,,,,-SN,,,,,,,,,,,,,,,0.03,,,,,,METAR,179.0
K1A6 210615Z AUTO 00000KT 3/4SM -SN OVC009 M06/M06 A3021 RMK AO2 P0003 T10561065,K1A6,2015-02-21T06:15:00Z,36.62,-83.73,-5.6,-6.5,0,0,,0.75,30.209646,,,TRUE,TRUE,,,,,,-SN,OVC,900,,,,,,,LIFR,,,,,,0.03,,,,,,METAR,352.0
K0VG 210615Z AUTO 00000KT 1SM -SN OVC002 M07/M09 A3026 RMK AO2 P0020,K0VG,2015-02-21T06:15:00Z,36.65,-83.22,-7.0,-9.0,0,0,,1.0,30.259842,,,TRUE,TRUE,,,,,,-SN,OVC,200,,,,,,,LIFR,,,,,,0.2,,,,,,METAR,430.0
K0V4 210615Z AUTO 00000KT 10SM CLR M16/M20 A3044 RMK AO1 T11631196,K0V4,2015-02-21T06:15:00Z,37.15,-79.02,-16.3,-19.6,0,0,,10.0,30.43996,,,TRUE,TRUE,,,,,,,CLR,,,,,,,,VFR,,,,,,,,,,,,METAR,182.0
K0F2 210615Z AUTO 16008KT 10SM CLR 15/13 A2964 RMK AO2 T01520125,K0F2,2015-02-21T06:15:00Z,33.6,-97.78,15.2,12.5,160,8,,10.0,29.639763,,,TRUE,TRUE,,,,,,,CLR,,,,,,,,VFR,,,,,,,,,,,,METAR,336.0
KTQH 210615Z AUTO 00000KT 1 1/2SM -SN OVC004 02/02 A2975 RMK AO2,KTQH,2015-02-21T06:15:00Z,35.93,-95.0,2.0,2.0,0,0,,1.5,29.749016,,,TRUE,TRUE,,,,,,-SN,OVC,400,,,,,,,LIFR,,,,,,,,,,,,METAR,266.0
KTOC 210615Z AUTO 02003KT 10SM SCT032 OVC039 M01/M06 A3039 RMK AO2 T10151056,KTOC,2015-02-21T06:15:00Z,34.6,-83.3,-1.5,-5.6,20,3,,10.0,30.389763,,,TRUE,TRUE,,,,,,,SCT,3200,OVC,3900,,,,,VFR,,,,,,,,,,,,METAR,304.0
KTNB 210615Z AUTO 00000KT 10SM SCT040 SCT050 M07/M18 A3022 RMK AO2 T10721176,KTNB,2015-02-21T06:15:00Z,36.2,-81.65,-7.2,-17.6,0,0,,10.0,30.221457,,,TRUE,TRUE,,,,,,,SCT,4000,SCT,5000,,,,,VFR,,,,,,,,,,,,METAR,911.0
KTMK 210615Z AUTO 00000KT 10SM BKN120 07/06 A3028 RMK AO2,KTMK,2015-02-21T06:15:00Z,45.42,-123.82,7.0,6.0,0,0,,10.0,30.280512,,,TRUE,TRUE,,,,,,,BKN,12000,,,,,,,VFR,,,,,,,,,,,,METAR,11.0
KSQE 210615Z AUTO 16015G27KT 10SM BKN044 BKN050 BKN080 21/12 A3008 RMK A01,KSQE,2015-02-21T06:15:00Z,28.07,-90.82,21.0,12.0,160,15,27,10.0,30.079725,,,TRUE,TRUE,,,,,,,BKN,4400,BKN,5000,BKN,8000,,,VFR,,,,,,,,,,,,METAR,0.0
KSPR 210615Z AUTO 17033G42KT 7SM FEW055 SCT060 SCT075 21/14 A3004 RMK A01,KSPR,2015-02-21T06:15:00Z,28.6,-91.2,21.0,14.0,170,33,42,7.0,30.041338,,,TRUE,TRUE,,,,,,,FEW,5500,SCT,6000,SCT,7500,,,VFR,,,,,,,,,,,,METAR,31.0
KMZG 210615Z AUTO 17013G20KT 6SM HZ 21/18 A2991 RMK A01,KMZG,2015-02-21T06:15:00Z,27.73,-96.18,21.0,18.0,170,13,20,6.0,29.911417,,,TRUE,TRUE,,,,,,HZ,,,,,,,,,,,,,,,,,,,,,METAR,29.0
KMIS 210615Z AUTO 18023G35KT 8SM SCT034 OVC090 20/12 A3014 RMK A01,KMIS,2015-02-21T06:15:00Z,29.3,-88.85,20.0,12.0,180,23,35,8.0,30.138779,,,TRUE,TRUE,,,,,,,SCT,3400,OVC,9000,,,,,VFR,,,,,,,,,,,,METAR,32.0
KMDJ 210615Z AUTO 16037G43KT 10SM SCT037 BKN055 OVC075 21/14 A3012 RMK A01,KMDJ,2015-02-21T06:15:00Z,28.65,-89.8,21.0,14.0,160,37,43,10.0,30.121063,,,TRUE,TRUE,,,,,,,SCT,3700,BKN,5500,OVC,7500,,,VFR,,,,,,,,,,,,METAR,31.0
KLRJ 210615Z AUTO 36003KT 10SM BKN034 OVC080 01/M01 A2985 RMK AO2,KLRJ,2015-02-21T06:15:00Z,42.77,-96.2,1.0,-1.0,360,3,,10.0,29.84941,,,TRUE,TRUE,,,,,,,BKN,3400,OVC,8000,,,,,VFR,,,,,,,,,,,,METAR,365.0
KLKU 210615Z AUTO 17003KT 10SM CLR M12/M23 A3044 RMK AO2,KLKU,2015-02-21T06:15:00Z,38.02,-77.97,-12.0,-23.0,170,3,,10.0,30.43996,,,TRUE,TRUE,,,,,,,CLR,,,,,,,,VFR,,,,,,,,,,,,METAR,150.0
KLGC 210615Z AUTO 00000KT 10SM OVC100 03/M11 A3032 RMK AO2 T00301106,KLGC,2015-02-21T06:15:00Z,33.0,-85.07,3.0,-10.6,0,0,,10.0,30.318897,,,TRUE,TRUE,,,,,,,OVC,10000,,,,,,,VFR,,,,,,,,,,,,METAR,211.0
KLCQ 210615Z AUTO 13004KT 10SM CLR 00/M02 A3038 RMK AO2,KLCQ,2015-02-21T06:15:00Z,30.18,-82.58,0.0,-2.0,130,4,,10.0,30.380905,,,TRUE,TRUE,,,,,,,CLR,,,,,,,,VFR,,,,,,,,,,,,METAR,61.0
KLCK 210615Z AUTO 00000KT 10SM OVC033 M09/M17 A3011 RMK AO2 T10881168,KLCK,2015-02-21T06:15:00Z,39.82,-82.92,-8.8,-16.8,0,0,,10.0,30.109253,,,TRUE,TRUE,,,,,,,OVC,3300,,,,,,,VFR,,,,,,,,,,,,METAR,227.0
KLCG 210615Z AUTO 32008KT 10SM SCT041 SCT060 00/M02 A2987 RMK AO2 T00041017,KLCG,2015-02-21T06:15:00Z,42.25,-96.98,0.4,-1.7,320,8,,10.0,29.870079,,,TRUE,TRUE,,,,,,,SCT,4100,SCT,6000,,,,,VFR,,,,,,,,,,,,METAR,436.0
KLAM 210615Z AUTO 19003KT 10SM CLR 07/M12 A2991 RMK AO2 T00661120,KLAM,2015-02-21T06:15:00Z,35.87,-106.27,6.6,-12.0,190,3,,10.0,29.911417,,,TRUE,TRUE,,,,,,,CLR,,,,,,,,VFR,,,,,,,,,,,,METAR,2179.0
KJGG 210615Z AUTO 18004KT 10SM CLR M12/M14 A3054 RMK AO1,KJGG,2015-02-21T06:15:00Z,37.23,-76.72,-12.0,-14.0,180,4,,10.0,30.540354,,,TRUE,TRUE,,,,,,,CLR,,,,,,,,VFR,,,,,,,,,,,,METAR,15.0
KIZA 210615Z AUTO 00000KT 2 1/2SM BR OVC004 12/11 A2998 RMK AO2,KIZA,2015-02-21T06:15:00Z,34.6,-120.07,12.0,11.0,0,0,,2.5,29.97933,,,TRUE,TRUE,,,,,,BR,OVC,400,,,,,,,LIFR,,,,,,,,,,,,METAR,205.0
KISO 210615Z AUTO 14003KT 10SM CLR M07/M14 A3056 RMK AO2 T10701145,KISO,2015-02-21T06:15:00Z,35.32,-77.62,-7.0,-14.5,140,3,,10.0,30.561024,,,TRUE,TRUE,,,,,,,CLR,,,,,,,,VFR,,,,,,,,,,,,METAR,29.0
KIPN 210615Z AUTO 14025KT 10SM FEW029 FEW034 BKN039 17/09 A3022 RMK A01,KIPN,2015-02-21T06:15:00Z,28.08,-87.98,17.0,9.0,140,25,,10.0,30.221457,,,TRUE,TRUE,,,,,,,FEW,2900,FEW,3400,BKN,3900,,,VFR,,,,,,,,,,,,METAR,41.0
KIOB 210615Z AUTO 21011KT 7SM UP BKN014 OVC046 M02/M05 A3008 RMK AO2,KIOB,2015-02-21T06:15:00Z,38.05,-83.98,-2.0,-5.0,210,11,,7.0,30.079725,,,TRUE,TRUE,,,,,,UP,BKN,1400,OVC,4600,,,,,MVFR,,,,,,,,,,,,METAR,311.0
KINJ 210615Z AUTO 18024G31KT 10SM OVC021 19/15 A2974 RMK AO2 T01920145,KINJ,2015-02-21T06:15:00Z,32.08,-97.1,19.2,14.5,180,24,31,10.0,29.740158,,,TRUE,TRUE,,,,,,,OVC,2100,,,,,,,MVFR,,,,,,,,,,,,METAR,209.0
KIKV 210615Z AUTO 00000KT 10SM FEW044 BKN055 OVC080 M01/M06 A2983 RMK AO2,KIKV,2015-02-21T06:15:00Z,41.68,-93.57,-1.0,-6.0,0,0,,10.0,29.828741,,,TRUE,TRUE,,,,,,,FEW,4400,BKN,5500,OVC,8000,,,VFR,,,,,,,,,,,,METAR,275.0
KIKT 210615Z AUTO 16016G34KT 150V280 10SM CLR 18/10 A3020 RMK A01,KIKT,2015-02-21T06:15:00Z,28.52,-88.28,18.0,10.0,160,16,34,10.0,30.200787,,,TRUE,TRUE,,,,,,,CLR,,,,,,,,VFR,,,,,,,,,,,,METAR,25.0
KIKK 210615Z AUTO 16006KT 10SM OVC019 M07/M10 A2997 RMK AO2 T10731105,KIKK,2015-02-21T06:15:00Z,41.07,-87.85,-7.3,-10.5,160,6,,10.0,29.970472,,,TRUE,TRUE,,,,,,,OVC,1900,,,,,,,MVFR,,,,,,,,,,,,METAR,192.0
KIJX 210615Z AUTO 00000KT 1/2SM SN OVC007 M03/M05 A2993 RMK AO2 T10351048,KIJX,2015-02-21T06:15:00Z,39.77,-90.25,-3.5,-4.8,0,0,,0.5,29.929134,,,TRUE,TRUE,,,,,,SN,OVC,700,,,,,,,LIFR,,,,,,,,,,,,METAR,190.0
KIIB 210615Z AUTO 17006KT 10SM OVC028 M02/M05 A2982 RMK AO2,KIIB,2015-02-21T06:15:00Z,42.45,-91.95,-2.0,-5.0,170,6,,10.0,29.819881,,,TRUE,TRUE,,,,,,,OVC,2800,,,,,,,MVFR,,,,,,,,,,,,METAR,298.0
KIDP 210615Z AUTO 06008KT 4SM -RA OVC003 00/00 A2982 RMK AO2 LTG DSNT E,KIDP,2015-02-21T06:15:00Z,37.17,-95.78,0.0,0.0,60,8,,4.0,29.819881,,,TRUE,TRUE,,,,,,-RA,OVC,300,,,,,,,LIFR,,,,,,,,,,,,METAR,251.0
KIBM 210615Z AUTO 30006KT 10SM SCT028 BKN050 M01/M03 A2992 RMK AO2 T10141029,KIBM,2015-02-21T06:15:00Z,41.18,-103.68,-1.4,-2.9,300,6,,10.0,29.920275,,,TRUE,TRUE,,,,,,,SCT,2800,BKN,5000,,,,,VFR,,,,,,,,,,,,METAR,1501.0
KI75 210615Z AUTO 21005KT 10SM OVC070 M01/M05 A2983 RMK AO2 T10151048,KI75,2015-02-21T06:15:00Z,41.05,-93.68,-1.5,-4.8,210,5,,10.0,29.828741,,,TRUE,TRUE,,,,,,,OVC,7000,,,,,,,VFR,,,,,,,,,,,,METAR,339.0
KI35 210615Z AUTO 00000KT 1 1/2SM BKN011 OVC020 M05/M07 A3019 RMK AO1,KI35,2015-02-21T06:15:00Z,36.87,-83.37,-5.0,-7.0,0,0,,1.5,30.188976,,,TRUE,TRUE,,,,,,,BKN,1100,OVC,2000,,,,,IFR,,,,,,,,,,,,METAR,473.0
KHZR 210615Z AUTO 16009G14KT 10SM -RA SCT038 BKN046 OVC060 17/12 A3004 RMK AO2 T01660124,KHZR,2015-02-21T06:15:00Z,30.72,-91.48,16.6,12.4,160,9,14,10.0,30.041338,,,TRUE,TRUE,,,,,,-RA,SCT,3800,BKN,4600,OVC,6000,,,VFR,,,,,,,,,,,,METAR,12.0
KEIR 210615Z AUTO 17017G25KT 10SM SCT026 BKN045 OVC060 21/14 A3006 RMK A01,KEIR,2015-02-21T06:15:00Z,28.63,-91.48,21.0,14.0,170,17,25,10.0,30.059055,,,TRUE,TRUE,,,,,,,SCT,2600,BKN,4500,OVC,6000,,,VFR,,,,,,,,,,,,METAR,28.0
KEHC 210615Z AUTO 18028KT 10SM CLR 23/15 A3000 RMK A01,KEHC,2015-02-21T06:15:00Z,28.43,-92.88,23.0,15.0,180,28,,10.0,30.0,,,TRUE,TRUE,,,,,,,CLR,,,,,,,,VFR,,,,,,,,,,,,METAR,31.0
KEFK 210615Z AUTO 14003KT 10SM CLR M19/M23 A3030 RMK AO2 T11941234,KEFK,2015-02-21T06:15:00Z,44.88,-72.23,-19.4,-23.4,140,3,,10.0,30.301182,,,TRUE,TRUE,,,,,,,CLR,,,,,,,,VFR,,,,,,,,,,,,METAR,284.0
KEBS 210615Z AUTO 01006KT 10SM OVC035 M01/M01 A2980 RMK AO2,KEBS,2015-02-21T06:15:00Z,42.42,-93.87,-1.0,-1.0,10,6,,10.0,29.799213,,,TRUE,TRUE,,,,,,,OVC,3500,,,,,,,VFR,,,,,,,,,,,,METAR,342.0
KE38 210615Z AUTO 28013G24KT 10SM CLR 18/M06 A2997 RMK AO2 T01801059,KE38,2015-02-21T06:15:00Z,30.38,-103.68,18.0,-5.9,280,13,24,10.0,29.970472,,,TRUE,TRUE,,,,,,,CLR,,,,,,,,VFR,,,,,,,,,,,,METAR,1376.0
KDWX 210615Z AUTO 16005KT 1/2SM +SN OVC005 M02/M03 A2996 RMK AO2 T10191026,KDWX,2015-02-21T06:15:00Z,41.03,-107.5,-1.9,-2.6,160,5,,0.5,29.958662,,,TRUE,TRUE,,,,,,+SN,OVC,500,,,,,,,LIFR,,,,,,,,,,,,METAR,1996.0
KDUB 210615Z AUTO 00000KT 10SM SCT055 M07/M10 A2990 RMK AO2,KDUB,2015-02-21T06:15:00Z,43.55,-109.68,-7.0,-10.0,0,0,,10.0,29.899607,,,TRUE,TRUE,,,,,,,SCT,5500,,,,,,,VFR,,,,,,,,,,,,METAR,2224.0
KDLP 210615Z AUTO 16031G39KT 10SM FEW034 FEW050 BKN090 19/13 A3009 RMK A01,KDLP,2015-02-21T06:15:00Z,29.12,-89.55,19.0,13.0,160,31,39,10.0,30.088583,,,TRUE,TRUE,,,,,,,FEW,3400,FEW,5000,BKN,9000,,,VFR,,,,,,,,,,,,METAR,36.0
KDEH 210615Z AUTO 00000KT 10SM OVC020 M05/M08 A2981 RMK AO2,KDEH,2015-02-21T06:15:00Z,43.27,-91.72,-5.0,-8.0,0,0,,10.0,29.811024,,,TRUE,TRUE,,,,,,,OVC,2000,,,,,,,MVFR,,,,,,,,,,,,METAR,353.0
KDBN 210615Z AUTO 15004KT 10SM CLR 00/M06 A3043 RMK AO2,KDBN,2015-02-21T06:15:00Z,32.57,-82.98,0.0,-6.0,150,4,,10.0,30.431103,,,TRUE,TRUE,,,,,,,CLR,,,,,,,,VFR,,,,,,,,,,,,METAR,94.0
KCWF 210615Z AUTO 17012G16KT 10SM SCT065 OVC075 17/15 A2998 RMK AO2 T01750148,KCWF,2015-02-21T06:15:00Z,30.22,-93.15,17.5,14.8,170,12,16,10.0,29.97933,,,TRUE,TRUE,,,,,,,SCT,6500,OVC,7500,,,,,VFR,,,,,,,,,,,,METAR,4.0
KCVW 210615Z AUTO 19012KT 5SM BR 17/15 A3001 RMK A01,KCVW,2015-02-21T06:15:00Z,29.78,-93.3,17.0,15.0,190,12,,5.0,30.008858,,,TRUE,TRUE,,,,,,BR,,,,,,,,,,,,,,,,,,,,,METAR,1.0
KCVB 210615Z AUTO 13005KT 7SM CLR 17/16 A2985 RMK AO2 T01670155,KCVB,2015-02-21T06:15:00Z,29.35,-98.85,16.7,15.5,130,5,,7.0,29.84941,,,TRUE,TRUE,,,,,,,CLR,,,,,,,,VFR,,,,,,,,,,,,METAR,235.0
KCTZ 210615Z AUTO 11003KT 10SM CLR M06/M14 A3054 RMK AO2 T10651145,KCTZ,2015-02-21T06:15:00Z,34.98,-78.37,-6.5,-14.5,110,3,,10.0,30.540354,,,TRUE,TRUE,,,,,,,CLR,,,,,,,,VFR,,,,,,,,,,,,METAR,45.0
KCTJ 210615Z AUTO 14008KT 10SM OVC037 00/M10 A3031 RMK AO2,KCTJ,2015-02-21T06:15:00Z,33.63,-85.15,0.0,-10.0,140,8,,10.0,30.31004,,,TRUE,TRUE,,,,,,,OVC,3700,,,,,,,VFR,,,,,,,,,,,,METAR,354.0
KCSQ 210615Z AUTO 24003KT 10SM CLR M03/M06 A2982 RMK AO2,KCSQ,2015-02-21T06:15:00Z,41.02,-94.37,-3.0,-6.0,240,3,,10.0,29.819881,,,TRUE,TRUE,,,,,,,CLR,,,,,,,,VFR,,,,,,,,,,,,METAR,394.0
KCRH 210615Z AUTO 18023KT 6SM HZ BKN060 OVC070 20/17 A3000 RMK A01,KCRH,2015-02-21T06:15:00Z,28.92,-93.3,20.0,17.0,180,23,,6.0,30.0,,,TRUE,TRUE,,,,,,HZ,BKN,6000,OVC,7000,,,,,VFR,,,,,,,,,,,,METAR,34.0
KCQF 210615Z AUTO 15012G18KT 10SM CLR 13/09 A3019 RMK AO2,KCQF,2015-02-21T06:15:00Z,30.47,-87.88,13.0,9.0,150,12,18,10.0,30.188976,,,TRUE,TRUE,,,,,,,CLR,,,,,,,,VFR,,,,,,,,,,,,METAR,28.0
KCQB 210615Z AUTO 02007KT 1 1/2SM -DZ OVC001 03/03 A2979 RMK AO2,KCQB,2015-02-21T06:15:00Z,35.72,-96.82,3.0,3.0,20,7,,1.5,29.790354,,,TRUE,TRUE,,,,,,-DZ,OVC,100,,,,,,,LIFR,,,,,,,,,,,,METAR,300.0
KCPT 210615Z AUTO 18017G23KT 10SM VCTS BKN019 OVC023 19/17 A2972 RMK AO2 LTG DSNT E,KCPT,2015-02-21T06:15:00Z,32.35,-97.43,19.0,17.0,180,17,23,10.0,29.719488,,,TRUE,TRUE,,,,,,VCTS,BKN,1900,OVC,2300,,,,,MVFR,,,,,,,,,,,,METAR,260.0
KCOM 210615Z AUTO 21009G14KT 10SM CLR 18/12 A2973 RMK AO2 T01830115,KCOM,2015-02-21T06:15:00Z,31.83,-99.4,18.3,11.5,210,9,14,10.0,29.731298,,,TRUE,TRUE,,,,,,,CLR,,,,,,,,VFR,,,,,,,,,,,,METAR,517.0
KCNC 210615Z AUTO 21005KT 10SM OVC070 M02/M05 A2984 RMK AO2,KCNC,2015-02-21T06:15:00Z,41.02,-93.37,-2.0,-5.0,210,5,,10.0,29.840551,,,TRUE,TRUE,,,,,,,OVC,7000,,,,,,,VFR,,,,,,,,,,,,METAR,320.0
KCMY 210615Z AUTO 00000KT 10SM SCT024 OVC039 M08/M11 A2985 RMK AO2 T10771108,KCMY,2015-02-21T06:15:00Z,43.97,-90.73,-7.7,-10.8,0,0,,10.0,29.84941,,,TRUE,TRUE,,,,,,,SCT,2400,OVC,3900,,,,,VFR,,,,,,,,,,,,METAR,256.0
KCIN 210615Z AUTO 31006KT 10SM OVC049 M01/M04 A2981 RMK AO2,KCIN,2015-02-21T06:15:00Z,42.03,-94.77,-1.0,-4.0,310,6,,10.0,29.811024,,,TRUE,TRUE,,,,,,,OVC,4900,,,,,,,VFR,,,,,,,,,,,,METAR,375.0
KCHK 210615Z AUTO 03017KT 3SM BR BKN005 BKN055 OVC095 06/06 A2974 RMK AO2,KCHK,2015-02-21T06:15:00Z,35.1,-97.97,6.0,6.0,30,17,,3.0,29.740158,,,TRUE,TRUE,,,,,,BR,BKN,500,BKN,5500,OVC,9500,,,IFR,,,,,,,,,,,,METAR,351.0
KCFD 210615Z AUTO 18016G23KT 10SM SCT021 SCT045 19/16 A2985 RMK AO2 T01910162,KCFD,2015-02-21T06:15:00Z,30.72,-96.33,19.1,16.2,180,16,23,10.0,29.84941,,,TRUE,TRUE,,,,,,,SCT,2100,SCT,4500,,,,,VFR,,,,,,,,,,,,METAR,112.0
KCBF 210615Z AUTO 23007KT 10SM BKN060 M00/M04 A2983 RMK AO2,KCBF,2015-02-21T06:15:00Z,41.27,-95.77,0.0,-4.0,230,7,,10.0,29.828741,,,TRUE,TRUE,,,,,,,BKN,6000,,,,,,,VFR,,,,,,,,,,,,METAR,382.0
KCAV 210615Z AUTO 36003KT 10SM BKN025 OVC032 M01/M02 A2982 RMK AO2,KCAV,2015-02-21T06:15:00Z,42.75,-93.77,-1.0,-2.0,360,3,,10.0,29.819881,,,TRUE,TRUE,,,,,,,BKN,2500,OVC,3200,,,,,MVFR,,,,,,,,,,,,METAR,354.0
KC35 210615Z AUTO 00000KT 10SM SCT028 OVC039 M07/M11 A2985 RMK AO2 T10721115,KC35,2015-02-21T06:15:00Z,43.53,-89.98,-7.2,-11.5,0,0,,10.0,29.84941,,,TRUE,TRUE,,,,,,,SCT,2800,OVC,3900,,,,,VFR,,,,,,,,,,,,METAR,276.0
KC29 210615Z AUTO 19005KT 10SM OVC047 M05/M10 A2986 RMK AO1 T10551105,KC29,2015-02-21T06:15:00Z,43.12,-89.53,-5.5,-10.5,190,5,,10.0,29.861221,,,TRUE,TRUE,,,,,,,OVC,4700,,,,,,,VFR,,,,,,,,,,,,METAR,283.0
KC09 210615Z AUTO 17006KT 10SM OVC016 M07/M11 A2995 RMK AO2 T10741106,KC09,2015-02-21T06:15:00Z,41.43,-88.42,-7.4,-10.6,170,6,,10.0,29.949802,,,TRUE,TRUE,,,,,,,OVC,1600,,,,,,,MVFR,,,,,,,,,,,,METAR,178.0
KBVN 210615Z AUTO 34004KT 10SM SCT080 SCT100 02/M03 A2986 RMK AO2 T00211028,KBVN,2015-02-21T06:15:00Z,41.73,-98.05,2.1,-2.8,340,4,,10.0,29.861221,,,TRUE,TRUE,,,,,,,SCT,8000,SCT,10000,,,,,VFR,,,,,,,,,,,,METAR,551.0
KBTA 210615Z AUTO 25006KT 10SM OVC065 02/M02 A2984 RMK AO2 T00231024,KBTA,2015-02-21T06:15:00Z,41.42,-96.12,2.3,-2.4,250,6,,10.0,29.840551,,,TRUE,TRUE,,,,,,,OVC,6500,,,,,,,VFR,,,,,,,,,,,,METAR,396.0
KBQX 210615Z AUTO 18016KT 4SM BR CLR 20/18 A2994 RMK A01,KBQX,2015-02-21T06:15:00Z,28.5,-95.72,20.0,18.0,180,16,,4.0,29.940945,,,TRUE,TRUE,,,,,,BR,CLR,,,,,,,,MVFR,,,,,,,,,,,,METAR,34.0
KBPG 210615Z AUTO 23008KT 10SM CLR 18/M06 A2977 RMK AO2 T01781062,KBPG,2015-02-21T06:15:00Z,32.22,-101.52,17.8,-6.2,230,8,,10.0,29.769686,,,TRUE,TRUE,,,,,,,CLR,,,,,,,,VFR,,,,,,,,,,,,METAR,784.0
KUSE 210615Z AUTO 18009KT 10SM OVC022 M09/M15 A3004 RMK AO2,KUSE,2015-02-21T06:15:00Z,41.62,-84.13,-9.0,-15.0,180,9,,10.0,30.041338,,,TRUE,TRUE,,,,,,,OVC,2200,,,,,,,MVFR,,,,,,,,,,,,METAR,238.0
KTKV 210615Z AUTO 00000KT 1 3/4SM -SN BKN013 OVC024 M11/M12 A2979 RMK AO2 T11101125,KTKV,2015-02-21T06:15:00Z,45.47,-89.82,-11.0,-12.5,0,0,,1.75,29.790354,,,TRUE,TRUE,,,,,,-SN,BKN,1300,OVC,2400,,,,,IFR,,,,,,,,,,,,METAR,453.0
KTIP 210615Z AUTO 17008KT 1SM SN BKN010 OVC016 M07/M08 A2995 RMK AO2 P0001 T10691084,KTIP,2015-02-21T06:15:00Z,40.28,-88.15,-6.9,-8.4,170,8,,1.0,29.949802,,,TRUE,TRUE,,,,,,SN,BKN,1000,OVC,1600,,,,,IFR,,,,,,0.01,,,,,,METAR,225.0
KT82 210615Z AUTO 15003KT 10SM BKN015 16/14 A2982 RMK AO2 T01630138,KT82,2015-02-21T06:15:00Z,30.25,-98.92,16.3,13.8,150,3,,10.0,29.819881,,,TRUE,TRUE,,,,,,,BKN,1500,,,,,,,MVFR,,,,,,,,,,,,METAR,517.0
KT20 210615Z AUTO 17014G23KT 10SM OVC019 20/17 A2986 RMK AO2 T01990167,KT20,2015-02-21T06:15:00Z,29.52,-97.47,19.9,16.7,170,14,23,10.0,29.861221,,,TRUE,TRUE,,,,,,,OVC,1900,,,,,,,MVFR,,,,,,,,,,,,METAR,108.0
KSLR 210615Z AUTO 18015G21KT 10SM SCT027 OVC046 19/15 A2975 RMK AO2 T01890145,KSLR,2015-02-21T06:15:00Z,33.17,-95.62,18.9,14.5,180,15,21,10.0,29.749016,,,TRUE,TRUE,,,,,,,SCT,2700,OVC,4600,,,,,VFR,,,,,,,,,,,,METAR,149.0
KSIF 210615Z AUTO 00000KT 10SM CLR M12/M16 A3042 RMK AO2 T11221157,KSIF,2015-02-21T06:15:00Z,36.43,-79.85,-12.2,-15.7,0,0,,10.0,30.41929,,,TRUE,TRUE,,,,,,,CLR,,,,,,,,VFR,,,,,,,,,,,,METAR,211.0
KSHD 210615Z AUTO 24003KT 10SM CLR M11/M21 A3036 RMK AO2 T11121209,KSHD,2015-02-21T06:15:00Z,38.27,-78.9,-11.2,-20.9,240,3,,10.0,30.360237,,,TRUE,TRUE,,,,,,,CLR,,,,,,,,VFR,,,,,,,,,,,,METAR,366.0
KSFY 210615Z AUTO 16006KT 10SM OVC055 M06/M10 A2990 RMK AO2 T10621097,KSFY,2015-02-21T06:15:00Z,42.05,-90.12,-6.2,-9.7,160,6,,10.0,29.899607,,,TRUE,TRUE,,,,,,,OVC,5500,,,,,,,VFR,,,,,,,,,,,,METAR,188.0
KSEP 210615Z AUTO 19009G14KT 10SM CLR 17/14 A2974 RMK AO2 T01720142,KSEP,2015-02-21T06:15:00Z,32.22,-98.17,17.2,14.2,190,9,14,10.0,29.740158,,,TRUE,TRUE,,,,,,,CLR,,,,,,,,VFR,,,,,,,,,,,,METAR,402.0
KRTS 210615Z AUTO 35005KT 10SM CLR M01/M08 A3010 RMK AO2,KRTS,2015-02-21T06:15:00Z,39.67,-119.88,-1.0,-8.0,350,5,,10.0,30.100393,,,TRUE,TRUE,,,,,,,CLR,,,,,,,,VFR,,,,,,,,,,,,METAR,1540.0
KRPJ 210615Z AUTO 17008KT 10SM SCT060 BKN110 M09/M12 A2992 RMK AO2 T10871116,KRPJ,2015-02-21T06:15:00Z,41.88,-89.08,-8.7,-11.6,170,8,,10.0,29.920275,,,TRUE,TRUE,,,,,,,SCT,6000,BKN,11000,,,,,VFR,,,,,,,,,,,,METAR,238.0
KRPH 210615Z AUTO 19010G16KT 10SM CLR 19/12 A2963 RMK AO2 T01910118,KRPH,2015-02-21T06:15:00Z,33.12,-98.55,19.1,11.8,190,10,16,10.0,29.630905,,,TRUE,TRUE,,,,,,,CLR,,,,,,,,VFR,,,,,,,,,,,,METAR,342.0
KRKR 210615Z AUTO 01005KT 10SM OVC015 03/01 A2976 RMK AO2 LTG DSNT NE T00300012,KRKR,2015-02-21T06:15:00Z,35.02,-94.62,3.0,1.2,10,5,,10.0,29.760826,,,TRUE,TRUE,,,,,,,OVC,1500,,,,,,,MVFR,,,,,,,,,,,,METAR,138.0
KRHP 210615Z AUTO 24004KT 10SM UP OVC025 M03/M03 A3027 RMK AO2 T10301035,KRHP,2015-02-21T06:15:00Z,35.18,-83.85,-3.0,-3.5,240,4,,10.0,30.268702,,,TRUE,TRUE,,,,,,UP,OVC,2500,,,,,,,MVFR,,,,,,,,,,,,METAR,518.0
KRFI 210615Z AUTO 19011G23KT 10SM OVC021 19/15 A2984 RMK AO2 T01870145,KRFI,2015-02-21T06:15:00Z,32.15,-94.85,18.7,14.5,190,11,23,10.0,29.840551,,,TRUE,TRUE,,,,,,,OVC,2100,,,,,,,MVFR,,,,,,,,,,,,METAR,135.0
KPYX 210615Z AUTO 03009KT 10SM 03/M03 A2985 RMK AO2 T00261028,KPYX,2015-02-21T06:15:00Z,36.42,-100.75,2.6,-2.8,30,9,,10.0,29.84941,,,TRUE,TRUE,,,,,,,,,,,,,,,,,,,,,,,,,,,METAR,889.0
KO69 210615Z AUTO 00000KT M1/4SM OVC002 08/08 A3000 RMK AO1,KO69,2015-02-21T06:15:00Z,38.25,-122.6,8.0,8.0,0,0,,0.25,30.0,,,TRUE,TRUE,,,,,,,OVC,200,,,,,,,LIFR,,,,,,,,,,,,METAR,28.0
KN38 210615Z AUTO 19010KT 10SM BKN060 OVC075 M16/M24 A3020 RMK AO2,KN38,2015-02-21T06:15:00Z,41.73,-77.4,-16.0,-24.0,190,10,,10.0,30.200787,,,TRUE,TRUE,,,,,,,BKN,6000,OVC,7500,,,,,VFR,,,,,,,,,,,,METAR,577.0
KMVH 210615Z AUTO 32012G21KT 10SM BKN019 OVC036 M04/M07 A3001 RMK A01,KMVH,2015-02-21T06:15:00Z,46.83,-108.93,-4.0,-7.0,320,12,21,10.0,30.008858,,,TRUE,TRUE,,,,,,,BKN,1900,OVC,3600,,,,,MVFR,,,,,,,,,,,,METAR,1355.0
KMHV 210615Z AUTO 25015G22KT 10SM CLR 17/M05 A2992 RMK AO1,KMHV,2015-02-21T06:15:00Z,35.07,-118.15,17.0,-5.0,250,15,22,10.0,29.920275,,,TRUE,TRUE,,,,,,,CLR,,,,,,,,VFR,,,,,,,,,,,,METAR,849.0
KMEV 210615Z AUTO 00000KT 10SM CLR 00/M05 A3009 RMK AO2,KMEV,2015-02-21T06:15:00Z,38.98,-119.75,0.0,-5.0,0,0,,10.0,30.088583,,,TRUE,TRUE,,,,,,,CLR,,,,,,,,VFR,,,,,,,,,,,,METAR,1439.0
KMCC 210615Z AUTO 14008KT 1 1/4SM BR OVC002 10/10 A3000 RMK AO2,KMCC,2015-02-21T06:15:00Z,38.67,-121.4,10.0,10.0,140,8,,1.25,30.0,,,TRUE,TRUE,,,,,,BR,OVC,200,,,,,,,LIFR,,,,,,,,,,,,METAR,23.0
KJTC 210615Z AUTO 24020G31KT 10SM CLR 08/M08 A3003 RMK AO2,KJTC,2015-02-21T06:15:00Z,34.13,-109.32,8.0,-8.0,240,20,31,10.0,30.029528,,,TRUE,TRUE,,,,,,,CLR,,,,,,,,VFR,,,,,,,,,,,,METAR,2150.0
KIFP 210615Z AUTO 11004KT 10SM CLR 17/M01 A2986 RMK AO2 PWINO,KIFP,2015-02-21T06:15:00Z,35.15,-114.57,17.0,-1.0,110,4,,10.0,29.861221,,,TRUE,TRUE,,,,,TRUE,,CLR,,,,,,,,VFR,,,,,,,,,,,,METAR,212.0
KGOO 210615Z AUTO 00000KT 10SM CLR 09/04 A3001 RMK AO1,KGOO,2015-02-21T06:15:00Z,39.22,-121.0,9.0,4.0,0,0,,10.0,30.008858,,,TRUE,TRUE,,,,,,,CLR,,,,,,,,VFR,,,,,,,,,,,,METAR,962.0
KFOT 210615Z AUTO 10003KT 9SM OVC011 10/09 A3007 RMK AO1,KFOT,2015-02-21T06:15:00Z,40.55,-124.13,10.0,9.0,100,3,,9.0,30.070866,,,TRUE,TRUE,,,,,,,OVC,1100,,,,,,,MVFR,,,,,,,,,,,,METAR,120.0
KEDU 210615Z AUTO 14006KT 3SM CLR 09/09 A2998 RMK AO1,KEDU,2015-02-21T06:15:00Z,38.53,-121.78,9.0,9.0,140,6,,3.0,29.97933,,,TRUE,TRUE,,,,,,,CLR,,,,,,,,MVFR,,,,,,,,,,,,METAR,21.0
KE16 210615Z AUTO 00000KT 10SM CLR 10/09 A3000 RMK AO2,KE16,2015-02-21T06:15:00Z,37.08,-121.6,10.0,9.0,0,0,,10.0,30.0,,,TRUE,TRUE,,,,,,,CLR,,,,,,,,VFR,,,,,,,,,,,,METAR,86.0
KCRX 210615Z AUTO 14013KT 9SM -SN OVC023 01/M01 A2998 RMK AO2,KCRX,2015-02-21T06:15:00Z,34.92,-88.6,1.0,-1.0,140,13,,9.0,29.97933,,,TRUE,TRUE,,,,,,-SN,OVC,2300,,,,,,,MVFR,,,,,,,,,,,,METAR,130.0
KAVK 210615Z AUTO 01006KT 4SM BR OVC006 03/03 A2987 RMK AO2,KAVK,2015-02-21T06:15:00Z,36.77,-98.67,3.0,3.0,10,6,,4.0,29.870079,,,TRUE,TRUE,,,,,,BR,OVC,600,,,,,,,IFR,,,,,,,,,,,,METAR,449.0
K65S 210615Z AUTO 00000KT 10SM BKN090 00/M01 A3009 RMK AO2,K65S,2015-02-21T06:15:00Z,48.73,-116.3,0.0,-1.0,0,0,,10.0,30.088583,,,TRUE,TRUE,,,,,,,BKN,9000,,,,,,,VFR,,,,,,,,,,,,METAR,713.0
K5T9 210615Z AUTO 14005KT 10SM CLR 17/12 A2978 RMK A01,K5T9,2015-02-21T06:15:00Z,28.85,-100.52,17.0,12.0,140,5,,10.0,29.778543,,,TRUE,TRUE,,,,,,,CLR,,,,,,,,VFR,,,,,,,,,,,,METAR,270.0
K05U 210615Z AUTO 17004KT 10SM CLR M07/M12 A3007 RMK AO1,K05U,2015-02-21T06:15:00Z,39.6,-116.0,-7.0,-12.0,170,4,,10.0,30.070866,,,TRUE,TRUE,,,,,,,CLR,,,,,,,,VFR,,,,,,,,,,,,METAR,1816.0
KW96 210615Z AUTO 00000KT 10SM CLR M15/M19 A3051 RMK AO1 T11461190,KW96,2015-02-21T06:15:00Z,37.5,-77.12,-14.6,-19.0,0,0,,10.0,30.510826,,,TRUE,TRUE,,,,,,,CLR,,,,,,,,VFR,,,,,,,,,,,,METAR,37.0
KW81 210615Z AUTO 18004KT 10SM CLR M13/M22 A3046 RMK AO1 T11261217,KW81,2015-02-21T06:15:00Z,37.18,-78.1,-12.6,-21.7,180,4,,10.0,30.46063,,,TRUE,TRUE,,,,,,,CLR,,,,,,,,VFR,,,,,,,,,,,,METAR,129.0
KW43 210615Z AUTO 29004KT 10SM OVC012 00/M01 A2993 RMK AO2,KW43,2015-02-21T06:15:00Z,44.67,-104.57,0.0,-1.0,290,4,,10.0,29.929134,,,TRUE,TRUE,,,,,,,OVC,1200,,,,,,,MVFR,,,,,,,,,,,,METAR,1300.0
KTYQ 210615Z AUTO 16009KT 2SM -SN OVC010 M08/M11 A2999 RMK AO2 T10781115,KTYQ,2015-02-21T06:15:00Z,40.03,-86.25,-7.8,-11.5,160,9,,2.0,29.991142,,,TRUE,TRUE,,,,,,-SN,OVC,1000,,,,,,,IFR,,,,,,,,,,,,METAR,281.0
KSUT 210615Z AUTO 03003KT 10SM CLR M04/M12 A3052 RMK AO2 T10421121,KSUT,2015-02-21T06:15:00Z,33.93,-78.08,-4.2,-12.1,30,3,,10.0,30.519686,,,TRUE,TRUE,,,,,,,CLR,,,,,,,,VFR,,,,,,,,,,,,METAR,8.0
KSJS 210615Z AUTO 16003KT 10SM SCT039 OVC085 M03/M13 A3012 RMK AO2 T10291134,KSJS,2015-02-21T06:15:00Z,37.75,-82.63,-2.9,-13.4,160,3,,10.0,30.121063,,,TRUE,TRUE,,,,,,,SCT,3900,OVC,8500,,,,,VFR,,,,,,,,,,,,METAR,372.0
KSAA 210615Z AUTO 32003KT 10SM SCT020 SCT030 OVC060 M04/M06 A2994 RMK AO2,KSAA,2015-02-21T06:15:00Z,41.45,-106.83,-4.0,-6.0,320,3,,10.0,29.940945,,,TRUE,TRUE,,,,,,,SCT,2000,SCT,3000,OVC,6000,,,VFR,,,,,,,,,,,,METAR,2138.0
K6B0 210615Z AUTO 17006KT 10SM CLR M15/M20 A3038 RMK AO2 T11531204,K6B0,2015-02-21T06:15:00Z,43.98,-73.1,-15.3,-20.4,170,6,,10.0,30.380905,,,TRUE,TRUE,,,,,,,CLR,,,,,,,,VFR,,,,,,,,,,,,METAR,149.0
KADS 210615Z AUTO 20012G24KT 10SM OVC022 20/15 A2971 RMK AO2 T02000150,KADS,2015-02-21T06:15:00Z,32.97,-96.82,20.0,15.0,200,12,24,10.0,29.71063,,,TRUE,TRUE,,,,,,,OVC,2200,,,,,,,MVFR,,,,,,,,,,,,METAR,196.0
KA08 210615Z AUTO 13009G15KT 10SM OVC021 06/M06 A3018 RMK AO2 T00551061,KA08,2015-02-21T06:15:00Z,32.52,-87.38,5.5,-6.1,130,9,15,10.0,30.180119,,,TRUE,TRUE,,,,,,,OVC,2100,,,,,,,MVFR,,,,,,,,,,,,METAR,69.0
KGBK 210615Z AUTO 12029G35KT 10SM SCT035 BKN060 OVC075 21/15 A3004 RMK A01,KGBK,2015-02-21T06:15:00Z,27.2,-92.2,21.0,15.0,120,29,35,10.0,30.041338,,,TRUE,TRUE,,,,,,,SCT,3500,BKN,6000,OVC,7500,,,VFR,,,,,,,,,,,,METAR,59.0
KGBG 210615Z AUTO 16007KT 10SM OVC024 M05/M08 A2991 RMK AO2 T10541076,KGBG,2015-02-21T06:15:00Z,40.93,-90.43,-5.4,-7.6,160,7,,10.0,29.911417,,,TRUE,TRUE,,,,,,,OVC,2400,,,,,,,MVFR,,,,,,,,,,,,METAR,233.0
KFWS 210615Z AUTO 18020G25KT 10SM BKN021 BKN026 19/15 A2971 RMK AO2 T01900148,KFWS,2015-02-21T06:15:00Z,32.57,-97.3,19.0,14.8,180,20,25,10.0,29.71063,,,TRUE,TRUE,,,,,,,BKN,2100,BKN,2600,,,,,MVFR,,,,,,,,,,,,METAR,208.0
KFSW 210615Z AUTO 16005KT 7SM OVC029 M04/M05 A2990 RMK AO2,KFSW,2015-02-21T06:15:00Z,40.67,-91.32,-4.0,-5.0,160,5,,7.0,29.899607,,,TRUE,TRUE,,,,,,,OVC,2900,,,,,,,MVFR,,,,,,,,,,,,METAR,221.0
KFQD 210615Z AUTO 17004KT 10SM SCT038 BKN065 OVC080 M02/M14 A3038 RMK AO2 T10171137,KFQD,2015-02-21T06:15:00Z,35.42,-81.93,-1.7,-13.7,170,4,,10.0,30.380905,,,TRUE,TRUE,,,,,,,SCT,3800,BKN,6500,OVC,8000,,,VFR,,,,,,,,,,,,METAR,329.0
KFWB 210615Z AUTO 06009KT 4SM -TSRA OVC003 M01/M01 A2979 RMK AO2 LTG DSNT SW AND W,KFWB,2015-02-21T06:15:00Z,36.7,-93.4,-1.0,-1.0,60,9,,4.0,29.790354,,,TRUE,TRUE,,,,,,-TSRA,OVC,300,,,,,,,LIFR,,,,,,,,,,,,SPECI,406.0
KMNZ 210615Z AUTO 10SM OVC015 18/15 A2975 RMK AO2 T01810148,KMNZ,2015-02-21T06:15:00Z,31.67,-98.15,18.1,14.8,,,,10.0,29.749016,,,TRUE,TRUE,,,,,,,OVC,1500,,,,,,,MVFR,,,,,,,,,,,,METAR,396.0
KMMU 210615Z AUTO 00000KT 10SM CLR M17/M22 A3049 RMK AO2,KMMU,2015-02-21T06:15:00Z,40.78,-74.42,-17.0,-22.0,0,0,,10.0,30.490158,,,TRUE,TRUE,,,,,,,CLR,,,,,,,,VFR,,,,,,,,,,,,METAR,57.0
KMGR 210615Z AUTO 11003KT 10SM CLR 03/M06 A3038 RMK AO2,KMGR,2015-02-21T06:15:00Z,31.08,-83.8,3.0,-6.0,110,3,,10.0,30.380905,,,TRUE,TRUE,,,,,,,CLR,,,,,,,,VFR,,,,,,,,,,,,METAR,90.0
KM30 210615Z AUTO 15004KT 1 1/4SM -SN SCT006 OVC011 00/00 A2992 RMK AO2 LTG DSNT W P0009 T00000000,KM30,2015-02-21T06:15:00Z,37.18,-88.75,0.0,0.0,150,4,,1.25,29.920275,,,TRUE,TRUE,,,,,,-SN,SCT,600,OVC,1100,,,,,IFR,,,,,,0.09,,,,,,METAR,117.0
KLVL 210615Z AUTO 14003KT 4SM CLR M11/M18 A3049 RMK AO1 T11121184,KLVL,2015-02-21T06:15:00Z,36.78,-77.8,-11.2,-18.4,140,3,,4.0,30.490158,,,TRUE,TRUE,,,,,,,CLR,,,,,,,,MVFR,,,,,,,,,,,,METAR,100.0
KATP 210615Z AUTO 15024G35KT 10SM SCT046 BKN050 BKN060 21/11 A3011 RMK A01,KATP,2015-02-21T06:15:00Z,27.2,-90.03,21.0,11.0,150,24,35,10.0,30.109253,,,TRUE,TRUE,,,,,,,SCT,4600,BKN,5000,BKN,6000,,,VFR,,,,,,,,,,,,METAR,62.0
KASL 210615Z AUTO 18013KT 10SM SCT022 SCT030 SCT038 20/17 A2985 RMK AO1 T02020166,KASL,2015-02-21T06:15:00Z,32.52,-94.3,20.2,16.6,180,13,,10.0,29.84941,,,TRUE,TRUE,,,,,,,SCT,2200,SCT,3000,SCT,3800,,,VFR,,,,,,,,,,,,METAR,109.0
KARM 210615Z AUTO 17013G18KT 7SM SCT050 19/17 A2992 RMK AO2 T01850165,KARM,2015-02-21T06:15:00Z,29.25,-96.15,18.5,16.5,170,13,18,7.0,29.920275,,,TRUE,TRUE,,,,,,,SCT,5000,,,,,,,VFR,,,,,,,,,,,,METAR,31.0
KANW 210615Z AUTO 25004KT 10SM BKN046 M01/M02 A2989 RMK AO2 T10101018,KANW,2015-02-21T06:15:00Z,42.57,-100.0,-1.0,-1.8,250,4,,10.0,29.890747,,,TRUE,TRUE,,,,,,,BKN,4600,,,,,,,VFR,,,,,,,,,,,,METAR,789.0
KSPF 210615Z AUTO 28011KT 10SM SCT021 BKN026 OVC031 00/M02 A2991 RMK AO2,KSPF,2015-02-21T06:15:00Z,44.47,-103.77,0.0,-2.0,280,11,,10.0,29.911417,,,TRUE,TRUE,,,,,,,SCT,2100,BKN,2600,OVC,3100,,,MVFR,,,,,,,,,,,,SPECI,1188.0
KAZC 210615Z AUTO 00000KT 10SM CLR 02/M07 A2997 RMK AO2 T00161067,KAZC,2015-02-21T06:15:00Z,36.97,-113.02,1.6,-6.7,0,0,,10.0,29.970472,,,TRUE,TRUE,,,,,,,CLR,,,,,,,,VFR,,,,,,,,,,,,METAR,1486.0
KAUN 210615Z AUTO 00000KT 10SM CLR 08/07 A2999 RMK AO1,KAUN,2015-02-21T06:15:00Z,38.95,-121.08,8.0,7.0,0,0,,10.0,29.991142,,,TRUE,TRUE,,,,,,,CLR,,,,,,,,VFR,,,,,,,,,,,,METAR,467.0
KBIE 210615Z AUTO 22007KT 10SM SCT065 BKN110 00/M04 A2989 RMK AO2 T00011036,KBIE,2015-02-21T06:15:00Z,40.28,-96.75,0.1,-3.6,220,7,,10.0,29.890747,,,TRUE,TRUE,,,,,,,SCT,6500,BKN,11000,,,,,VFR,,,,,,,,,,,,METAR,403.0
KBBF 210615Z AUTO 20028KT 4SM HZ FEW032 FEW038 SCT044 21/17 A2990 RMK A01,KBBF,2015-02-21T06:15:00Z,27.83,-96.02,21.0,17.0,200,28,,4.0,29.899607,,,TRUE,TRUE,,,,,,HZ,FEW,3200,FEW,3800,SCT,4400,,,MVFR,,,,,,,,,,,,METAR,36.0
KAXH 210615Z AUTO 16008G17KT 130V190 7SM OVC017 22/20 A2992 RMK AO2 T02150200,KAXH,2015-02-21T06:15:00Z,29.52,-95.48,21.5,20.0,160,8,17,7.0,29.920275,,,TRUE,TRUE,,,,,,,OVC,1700,,,,,,,MVFR,,,,,,,,,,,,METAR,21.0
KAXA 210615Z AUTO 36004KT 4SM BR OVC009 M00/M01 A2983 RMK AO2,KAXA,2015-02-21T06:15:00Z,43.07,-94.27,0.0,-1.0,360,4,,4.0,29.828741,,,TRUE,TRUE,,,,,,BR,OVC,900,,,,,,,IFR,,,,,,,,,,,,METAR,372.0
KAWG 210615Z AUTO 19008KT 8SM FEW029 M03/M03 A2987 RMK AO2,KAWG,2015-02-21T06:15:00Z,41.27,-91.67,-3.0,-3.0,190,8,,8.0,29.870079,,,TRUE,TRUE,,,,,,,FEW,2900,,,,,,,VFR,,,,,,,,,,,,METAR,230.0
KAVQ 210615Z AUTO 00000KT 10SM CLR 15/06 A2994 RMK AO2 T01450055,KAVQ,2015-02-21T06:15:00Z,32.4,-111.22,14.5,5.5,0,0,,10.0,29.940945,,,TRUE,TRUE,,,,,,,CLR,,,,,,,,VFR,,,,,,,,,,,,METAR,619.0
KBGE 210615Z AUTO 12004KT 10SM CLR 02/M03 A3034 RMK AO2,KBGE,2015-02-21T06:15:00Z,30.97,-84.63,2.0,-3.0,120,4,,10.0,30.339567,,,TRUE,TRUE,,,,,,,CLR,,,,,,,,VFR,,,,,,,,,,,,METAR,43.0
KVQQ 210615Z AUTO 00000KT 10SM CLR M02/M03 A3040 RMK AO2,KVQQ,2015-02-21T06:15:00Z,30.22,-81.88,-2.0,-3.0,0,0,,10.0,30.398623,,,TRUE,TRUE,,,,,,,CLR,,,,,,,,VFR,,,,,,,,,,,,SPECI,25.0
RJFE 210615Z 15015KT 5000 SHRA BR FEW007 SCT010 BKN015 12/12 Q1017 RMK 2ST007 3CU010 5CU015 A3006,RJFE,2015-02-21T06:15:00Z,32.67,128.82,12.0,12.0,150,15,,3.11,30.029528,,,,,,,,,,SHRA BR,FEW,700,SCT,1000,BKN,1500,,,MVFR,,,,,,,,,,,,SPECI,80.0
LHUD 210615Z 15004KT 5000 BR BKN083 M01/M03 Q1014,LHUD,2015-02-21T06:15:00Z,46.25,20.1,-1.0,-3.0,150,4,,3.11,29.940945,,,,,,,,,,BR,BKN,8300,,,,,,,MVFR,,,,,,,,,,,,METAR,84.0
LHSM 210615Z 16008KT CAVOK 02/M04 Q1010,LHSM,2015-02-21T06:15:00Z,46.68,17.17,2.0,-4.0,160,8,,6.21,29.822834,,,,,,,,,,,CAVOK,,,,,,,,VFR,,,,,,,,,,,,METAR,125.0
LHPR 210615Z 13015KT 6000 BKN083 01/M02 Q1009,LHPR,2015-02-21T06:15:00Z,47.63,17.82,1.0,-2.0,130,15,,3.73,29.793306,,,,,,,,,,,BKN,8300,,,,,,,MVFR,,,,,,,,,,,,METAR,129.0
LHPP 210615Z 10002KT CAVOK M01/M03 Q1013,LHPP,2015-02-21T06:15:00Z,45.98,18.23,-1.0,-3.0,100,2,,6.21,29.911417,,,,,,,,,,,CAVOK,,,,,,,,VFR,,,,,,,,,,,,METAR,305.0
LHPA 210615Z 19010MPS CAVOK 05/M04 Q1008 NOSIG RMK BLU,LHPA,2015-02-21T06:15:00Z,47.35,17.5,5.0,-4.0,190,19,,6.21,29.763779,,,,,,TRUE,,,,,CAVOK,,,,,,,,VFR,,,,,,,,,,,,METAR,148.0
LHDC 210615Z 10003KT 4000 BR FEW083 OVC200 M03/M04 Q1015,LHDC,2015-02-21T06:15:00Z,47.47,21.62,-3.0,-4.0,100,3,,2.49,29.970472,,,,,,,,,,BR,FEW,8300,OVC,20000,,,,,IFR,,,,,,,,,,,,METAR,112.0
KALX 210615Z AUTO 13005KT 10SM BKN070 04/M16 A3027 RMK AO2 LTG DSNT NW T00401161,KALX,2015-02-21T06:15:00Z,32.92,-85.97,4.0,-16.1,130,5,,10.0,30.268702,,,TRUE,TRUE,,,,,,,BKN,7000,,,,,,,VFR,,,,,,,,,,,,METAR,209.0
KAIO 210615Z AUTO 20008KT 10SM BKN055 M03/M05 A2983 RMK AO2,KAIO,2015-02-21T06:15:00Z,41.38,-95.03,-3.0,-5.0,200,8,,10.0,29.828741,,,TRUE,TRUE,,,,,,,BKN,5500,,,,,,,VFR,,,,,,,,,,,,METAR,360.0
KAHQ 210615Z AUTO 29004KT 10SM OVC060 03/M02 A2985 RMK AO2 T00321017,KAHQ,2015-02-21T06:15:00Z,41.23,-96.6,3.2,-1.7,290,4,,10.0,29.84941,,,TRUE,TRUE,,,,,,,OVC,6000,,,,,,,VFR,,,,,,,,,,,,METAR,374.0
KAFP 210615Z AUTO 15005KT 10SM CLR M04/M16 A3047 RMK AO2 T10391157,KAFP,2015-02-21T06:15:00Z,35.02,-80.08,-3.9,-15.7,150,5,,10.0,30.469488,,,TRUE,TRUE,,,,,,,CLR,,,,,,,,VFR,,,,,,,,,,,,METAR,92.0
KAFK 210615Z AUTO 20006KT 10SM CLR 00/M07 A2986 RMK AO2 T10041067,KAFK,2015-02-21T06:15:00Z,40.6,-95.85,-0.4,-6.7,200,6,,10.0,29.861221,,,TRUE,TRUE,,,,,,,CLR,,,,,,,,VFR,,,,,,,,,,,,METAR,354.0
KADU 210615Z AUTO 17003KT 10SM SCT055 M03/M06 A2981 RMK AO2,KADU,2015-02-21T06:15:00Z,41.7,-94.92,-3.0,-6.0,170,3,,10.0,29.811024,,,TRUE,TRUE,,,,,,,SCT,5500,,,,,,,VFR,,,,,,,,,,,,METAR,392.0
KAUH 210615Z AUTO 28010KT 10SM BKN060 OVC070 03/00 A2987 RMK AO2 T00330001,KAUH,2015-02-21T06:15:00Z,40.88,-98.0,3.3,0.1,280,10,,10.0,29.870079,,,TRUE,TRUE,,,,,,,BKN,6000,OVC,7000,,,,,VFR,,,,,,,,,,,,METAR,550.0
KATW 210615Z AUTO 16004KT 10SM OVC029 M10/M12 A2987 RMK AO2,KATW,2015-02-21T06:15:00Z,44.27,-88.52,-10.0,-12.0,160,4,,10.0,29.870079,,,TRUE,TRUE,,,,,,,OVC,2900,,,,,,,MVFR,,,,,,,,,,,,METAR,280.0
KBKT 210615Z AUTO 16005KT 10SM CLR M12/M21 A3047 RMK AO1 T11161215,KBKT,2015-02-21T06:15:00Z,37.07,-77.95,-11.6,-21.5,160,5,,10.0,30.469488,,,TRUE,TRUE,,,,,,,CLR,,,,,,,,VFR,,,,,,,,,,,,METAR,134.0
KBIJ 210615Z AUTO 09003KT 10SM CLR 03/M07 A3034 RMK AO2,KBIJ,2015-02-21T06:15:00Z,31.4,-84.9,3.0,-7.0,90,3,,10.0,30.339567,,,TRUE,TRUE,,,,,,,CLR,,,,,,,,VFR,,,,,,,,,,,,METAR,65.0
KTVK 210615Z AUTO 18004KT 10SM OVC006 M02/M02 A2986 RMK AO2,KTVK,2015-02-21T06:15:00Z,40.68,-92.9,-2.0,-2.0,180,4,,10.0,29.861221,,,TRUE,TRUE,,,,,,,OVC,600,,,,,,,IFR,,,,,,,,,,,,METAR,314.0
KBNW 210615Z AUTO 29003KT 10SM SCT045 SCT050 OVC075 00/M03 A2980 RMK AO2,KBNW,2015-02-21T06:15:00Z,42.03,-93.83,0.0,-3.0,290,3,,10.0,29.799213,,,TRUE,TRUE,,,,,,,SCT,4500,SCT,5000,OVC,7500,,,VFR,,,,,,,,,,,,METAR,354.0
KXIH 210615Z AUTO 20021G27KT 7SM BKN039 OVC048 19/16 A2994 RMK A01,KXIH,2015-02-21T06:15:00Z,29.18,-94.52,19.0,16.0,200,21,27,7.0,29.940945,,,TRUE,TRUE,,,,,,,BKN,3900,OVC,4800,,,,,VFR,,,,,,,,,,,,METAR,75.0
KXBP 210615Z AUTO 20015G20KT 10SM CLR 18/14 A2967 RMK AO2 LTG DSNT NE T01820141,KXBP,2015-02-21T06:15:00Z,33.18,-97.83,18.2,14.1,200,15,20,10.0,29.66929,,,TRUE,TRUE,,,,,,,CLR,,,,,,,,VFR,,,,,,,,,,,,METAR,260.0
KWDR 210615Z AUTO 00000KT 10SM OVC044 01/M06 A3040 RMK AO1,KWDR,2015-02-21T06:15:00Z,33.98,-83.67,1.0,-6.0,0,0,,10.0,30.398623,,,TRUE,TRUE,,,,,,,OVC,4400,,,,,,,VFR,,,,,,,,,,,,METAR,287.0
KVQT 210615Z AUTO VRB03G12KT 8SM SCT035 BKN060 OVC070 22/16 A3003 RMK A01,KVQT,2015-02-21T06:15:00Z,28.27,-92.27,22.0,16.0,0,3,12,8.0,30.029528,,,TRUE,TRUE,,,,,,,SCT,3500,BKN,6000,OVC,7000,,,VFR,,,,,,,,,,,,METAR,25.0
KVOA 210615Z AUTO 15026G31KT 10SM BKN033 17/10 A3021 RMK A01,KVOA,2015-02-21T06:15:00Z,29.23,-87.78,17.0,10.0,150,26,31,10.0,30.209646,,,TRUE,TRUE,,,,,,,BKN,3300,,,,,,,VFR,,,,,,,,,,,,METAR,53.0
KVKY 210615Z AUTO VRB05G15KT 10SM CLR 17/11 A3018 RMK A01,KVKY,2015-02-21T06:15:00Z,29.25,-88.43,17.0,11.0,0,5,15,10.0,30.180119,,,TRUE,TRUE,,,,,,,CLR,,,,,,,,VFR,,,,,,,,,,,,METAR,32.0
KVCV 210615Z AUTO 17005KT 10SM CLR 11/01 A2995 RMK AO2,KVCV,2015-02-21T06:15:00Z,34.58,-117.38,11.0,1.0,170,5,,10.0,29.949802,,,TRUE,TRUE,,,,,,,CLR,,,,,,,,VFR,,,,,,,,,,,,METAR,876.0
KVBW 210615Z AUTO 17005KT 10SM SCT075 M13/M19 A3033 RMK AO2 T11291191,KVBW,2015-02-21T06:15:00Z,38.37,-78.97,-12.9,-19.1,170,5,,10.0,30.33071,,,TRUE,TRUE,,,,,,,SCT,7500,,,,,,,VFR,,,,,,,,,,,,METAR,355.0
KVBS 210615Z AUTO VRB04G14KT 10SM 18/16 A2996 RMK A01,KVBS,2015-02-21T06:15:00Z,29.48,-93.63,18.0,16.0,0,4,14,10.0,29.958662,,,TRUE,TRUE,,,,,,,,,,,,,,,,,,,,,,,,,,,METAR,31.0
KVAF 210615Z AUTO 20031G38KT 4SM HZ FEW023 BKN029 BKN043 21/17 A2997 RMK A01,KVAF,2015-02-21T06:15:00Z,27.35,-94.63,21.0,17.0,200,31,38,4.0,29.970472,,,TRUE,TRUE,,,,,,HZ,FEW,2300,BKN,2900,BKN,4300,,,MVFR,,,,,,,,,,,,METAR,46.0
KTZR 210615Z AUTO 14006KT 10SM OVC032 A3011 RMK AO2,KTZR,2015-02-21T06:15:00Z,39.9,-83.13,,,140,6,,10.0,30.109253,,,TRUE,TRUE,,,,,,,OVC,3200,,,,,,,VFR,,,,,,,,,,,,METAR,276.0
KHDE 210615Z AUTO 31006KT 10SM OVC065 03/M02 A2990 RMK AO2 T00251018,KHDE,2015-02-21T06:15:00Z,40.45,-99.32,2.5,-1.8,310,6,,10.0,29.899607,,,TRUE,TRUE,,,,,,,OVC,6500,,,,,,,VFR,,,,,,,,,,,,METAR,705.0
KGYI 210615Z AUTO 18020G24KT 10SM BKN026 BKN035 19/16 A2966 RMK AO2 T01870162,KGYI,2015-02-21T06:15:00Z,33.72,-96.67,18.7,16.2,180,20,24,10.0,29.660433,,,TRUE,TRUE,,,,,,,BKN,2600,BKN,3500,,,,,MVFR,,,,,,,,,,,,METAR,228.0
KGYB 210615Z AUTO 19015G23KT 10SM BKN023 OVC029 20/15 A2989 RMK AO2 T01950151,KGYB,2015-02-21T06:15:00Z,30.17,-96.98,19.5,15.1,190,15,23,10.0,29.890747,,,TRUE,TRUE,,,,,,,BKN,2300,OVC,2900,,,,,MVFR,,,,,,,,,,,,METAR,148.0
KGVX 210615Z AUTO 17027KT 5SM BR SCT050 OVC060 20/18 A2995 RMK A01,KGVX,2015-02-21T06:15:00Z,28.58,-94.98,20.0,18.0,170,27,,5.0,29.949802,,,TRUE,TRUE,,,,,,BR,SCT,5000,OVC,6000,,,,,MVFR,,,,,,,,,,,,METAR,39.0
KGVT 210615Z AUTO 18017G23KT 10SM OVC024 19/14 A2973 RMK AO2,KGVT,2015-02-21T06:15:00Z,33.07,-96.07,19.0,14.0,180,17,23,10.0,29.731298,,,TRUE,TRUE,,,,,,,OVC,2400,,,,,,,MVFR,,,,,,,,,,,,METAR,163.0
KGUR 210615Z AUTO 19003KT 10SM SCT013 01/00 A2996 RMK AO2 T00081004 PWINO,KGUR,2015-02-21T06:15:00Z,42.25,-104.72,0.8,-0.4,190,3,,10.0,29.958662,,,TRUE,TRUE,,,,,TRUE,,SCT,1300,,,,,,,VFR,,,,,,,,,,,,METAR,1358.0
KGUL 210615Z AUTO 10SM FEW033 FEW055 OVC070 21/15 A3002 RMK A01,KGUL,2015-02-21T06:15:00Z,27.3,-93.53,21.0,15.0,,,,10.0,30.02067,,,TRUE,TRUE,,,,,,,FEW,3300,FEW,5500,OVC,7000,,,VFR,,,,,,,,,,,,METAR,30.0
KGHG 210615Z AUTO 24004KT 10SM CLR M14/M21 A3048 RMK AO2,KGHG,2015-02-21T06:15:00Z,42.1,-70.67,-14.0,-21.0,240,4,,10.0,30.481298,,,TRUE,TRUE,,,,,,,CLR,,,,,,,,VFR,,,,,,,,,,,,METAR,4.0
KGHB 210615Z AUTO 15015G33KT 060V180 9SM SCT037 BKN070 OVC080 22/15 A3003 RMK A01,KGHB,2015-02-21T06:15:00Z,27.83,-91.98,22.0,15.0,150,15,33,9.0,30.029528,,,TRUE,TRUE,,,,,,,SCT,3700,BKN,7000,OVC,8000,,,VFR,,,,,,,,,,,,METAR,30.0
KGGI 210615Z AUTO 19004KT 10SM BKN042 OVC075 M02/M05 A2984 RMK AO2 T10231052,KGGI,2015-02-21T06:15:00Z,41.72,-92.73,-2.3,-5.2,190,4,,10.0,29.840551,,,TRUE,TRUE,,,,,,,BKN,4200,OVC,7500,,,,,VFR,,,,,,,,,,,,METAR,307.0
KGCD 210615Z AUTO 00000KT 10SM SCT029 SCT049 OVC065 05/00 A3012 RMK AO2 T00470000,KGCD,2015-02-21T06:15:00Z,44.38,-118.97,4.7,0.0,0,0,,10.0,30.121063,,,TRUE,TRUE,,,,,,,SCT,2900,SCT,4900,OVC,6500,,,VFR,,,,,,,,,,,,METAR,1127.0
LIPH 210615Z /////KT 0900 R07/P2000 FG BKN006 BKN050 03/02 Q1014,LIPH,2015-02-21T06:15:00Z,45.63,12.17,3.0,2.0,,,,0.56,29.940945,,,,,,,,,,FG,BKN,600,BKN,5000,,,,,LIFR,,,,,,,,,,,,SPECI,23.0
LIBR 210615Z 15005KT CAVOK 03/00 Q1017 NOSIG,LIBR,2015-02-21T06:15:00Z,40.65,17.95,3.0,0.0,150,5,,6.21,30.029528,,,,,,TRUE,,,,,CAVOK,,,,,,,,VFR,,,,,,,,,,,,METAR,10.0
KO54 210615Z AUTO 00000KT 10SM CLR 03/00 A3007 RMK AO1,KO54,2015-02-21T06:15:00Z,40.75,-122.92,3.0,0.0,0,0,,10.0,30.070866,,,TRUE,TRUE,,,,,,,CLR,,,,,,,,VFR,,,,,,,,,,,,SPECI,717.0
K96D 210615Z AUTO 33011KT 10SM M18/M21 A3007 RMK AO2,K96D,2015-02-21T06:15:00Z,48.93,-97.9,-18.0,-21.0,330,11,,10.0,30.070866,,,TRUE,TRUE,,,,,,,,,,,,,,,,,,,,,,,,,,,SPECI,290.0
LHSN 210615Z 11004KT 1500 BR BKN200 M03/M04 Q1014 NOSIG RMK AMB,LHSN,2015-02-21T06:15:00Z,47.12,20.23,-3.0,-4.0,110,4,,0.93,29.940945,,,,,,TRUE,,,,BR,BKN,20000,,,,,,,LIFR,,,,,,,,,,,,METAR,98.0
KUOX 210615Z AUTO 15013G19KT 7SM BKN024 BKN038 00/00 A2996 RMK AO2 PWINO PNO,KUOX,2015-02-21T06:15:00Z,34.38,-89.53,0.0,0.0,150,13,19,7.0,29.958662,,,TRUE,TRUE,,,,,TRUE,,BKN,2400,BKN,3800,,,,,MVFR,,,,,,,,,,,,METAR,137.0
KSNC 210615Z AUTO 24003KT 10SM CLR M12/M21 A3047 RMK AO2,KSNC,2015-02-21T06:15:00Z,41.38,-72.5,-12.0,-21.0,240,3,,10.0,30.469488,,,TRUE,TRUE,,,,,,,CLR,,,,,,,,VFR,,,,,,,,,,,,METAR,127.0
KRZN 210615Z AUTO 33003KT 10SM OVC018 M07/M10 A2983 RMK AO2 T10731096,KRZN,2015-02-21T06:15:00Z,45.82,-92.37,-7.3,-9.6,330,3,,10.0,29.828741,,,TRUE,TRUE,,,,,,,OVC,1800,,,,,,,MVFR,,,,,,,,,,,,METAR,301.0
KRWV 210615Z AUTO 16016G24KT 10SM OVC024 19/17 A2987 RMK AO2,KRWV,2015-02-21T06:15:00Z,30.52,-96.7,19.0,17.0,160,16,24,10.0,29.870079,,,TRUE,TRUE,,,,,,,OVC,2400,,,,,,,MVFR,,,,,,,,,,,,METAR,119.0
KRUG 210615Z AUTO 05009KT 10SM CLR M14/M17 A3003 RMK AO2,KRUG,2015-02-21T06:15:00Z,48.38,-100.02,-14.0,-17.0,50,9,,10.0,30.029528,,,TRUE,TRUE,,,,,,,CLR,,,,,,,,VFR,,,,,,,,,,,,METAR,472.0
KLRO 210615Z AUTO 00000KT 10SM CLR M01/M04 A3046 RMK AO2,KLRO,2015-02-21T06:15:00Z,32.9,-79.78,-1.0,-4.0,0,0,,10.0,30.46063,,,TRUE,TRUE,,,,,,,CLR,,,,,,,,VFR,,,,,,,,,,,,METAR,4.0
KHBV 210615Z AUTO 16013G19KT 10SM CLR A2986 RMK AO2,KHBV,2015-02-21T06:15:00Z,27.35,-98.73,,,160,13,19,10.0,29.861221,,,TRUE,TRUE,,,,,,,CLR,,,,,,,,VFR,,,,,,,,,,,,METAR,202.0
KGLW 210615Z AUTO 19008KT 5SM UP BKN009 OVC013 00/M01 A3005 RMK AO2 T10031010,KGLW,2015-02-21T06:15:00Z,37.03,-85.95,-0.3,-1.0,190,8,,5.0,30.050198,,,TRUE,TRUE,,,,,,UP,BKN,900,OVC,1300,,,,,IFR,,,,,,,,,,,,METAR,218.0
KFGX 210615Z AUTO 14006KT 10SM UP OVC018 M05/M12 A3008 RMK AO2 T10461122,KFGX,2015-02-21T06:15:00Z,38.55,-83.75,-4.6,-12.2,140,6,,10.0,30.079725,,,TRUE,TRUE,,,,,,UP,OVC,1800,,,,,,,MVFR,,,,,,,,,,,,METAR,278.0
KUNV 210615Z AUTO 00000KT 10SM OVC120 M16/M20 A3028 RMK AO2 T11571205,KUNV,2015-02-21T06:15:00Z,40.85,-77.83,-15.7,-20.5,0,0,,10.0,30.280512,,,TRUE,TRUE,,,,,,,OVC,12000,,,,,,,VFR,,,,,,,,,,,,SPECI,378.0
KUNU 210615Z AUTO 17009KT 10SM OVC043 M08/M12 A2989 RMK AO2 T10811123,KUNU,2015-02-21T06:15:00Z,43.42,-88.7,-8.1,-12.3,170,9,,10.0,29.890747,,,TRUE,TRUE,,,,,,,OVC,4300,,,,,,,VFR,,,,,,,,,,,,SPECI,285.0
KUKF 210615Z AUTO 00000KT 10SM BKN055 M07/M13 A3041 RMK AO2,KUKF,2015-02-21T06:15:00Z,36.22,-81.1,-7.0,-13.0,0,0,,10.0,30.410433,,,TRUE,TRUE,,,,,,,BKN,5500,,,,,,,VFR,,,,,,,,,,,,SPECI,396.0
KUBE 210615Z AUTO 19003KT 10SM OVC022 M08/M10 A2980 RMK AO2,KUBE,2015-02-21T06:15:00Z,45.5,-91.98,-8.0,-10.0,190,3,,10.0,29.799213,,,TRUE,TRUE,,,,,,,OVC,2200,,,,,,,MVFR,,,,,,,,,,,,SPECI,379.0
KU68 210615Z AUTO 00000KT 10SM SCT029 BKN048 OVC060 00/00 A2997 RMK AO2,KU68,2015-02-21T06:15:00Z,44.92,-108.45,0.0,0.0,0,0,,10.0,29.970472,,,TRUE,TRUE,,,,,,,SCT,2900,BKN,4800,OVC,6000,,,VFR,,,,,,,,,,,,SPECI,1247.0
KTVI 210615Z AUTO 11004KT 10SM CLR 03/M05 A3038 RMK AO2,KTVI,2015-02-21T06:15:00Z,30.9,-83.88,3.0,-5.0,110,4,,10.0,30.380905,,,TRUE,TRUE,,,,,,,CLR,,,,,,,,VFR,,,,,,,,,,,,SPECI,80.0
KUXL 210615Z AUTO 17014KT 10SM SCT075 OVC080 18/15 A2998 RMK AO2 T01830153,KUXL,2015-02-21T06:15:00Z,30.13,-93.38,18.3,15.3,170,14,,10.0,29.97933,,,TRUE,TRUE,,,,,,,SCT,7500,OVC,8000,,,,,VFR,,,,,,,,,,,,SPECI,4.0
K1F0 210615Z AUTO 00000KT 10SM SCT020 SCT028 10/09 A2963 RMK AO2,K1F0,2015-02-21T06:15:00Z,34.15,-97.12,10.0,9.0,0,0,,10.0,29.630905,,,TRUE,TRUE,,,,,,,SCT,2000,SCT,2800,,,,,VFR,,,,,,,,,,,,SPECI,257.0
K28J 210615Z AUTO 00000KT 10SM BKN050 00/00 A3041 RMK AO2,K28J,2015-02-21T06:15:00Z,29.65,-81.58,0.0,0.0,0,0,,10.0,30.410433,,,TRUE,TRUE,,,,,,,BKN,5000,,,,,,,VFR,,,,,,,,,,,,SPECI,15.0
K2C8 210615Z AUTO 34010KT 10SM CLR M17/M20 A3006 RMK AO2,K2C8,2015-02-21T06:15:00Z,48.78,-97.63,-17.0,-20.0,340,10,,10.0,30.059055,,,TRUE,TRUE,,,,,,,CLR,,,,,,,,VFR,,,,,,,,,,,,SPECI,272.0
K2J9 210615Z AUTO 11007KT 10SM CLR 01/M07 A3036 RMK AO1,K2J9,2015-02-21T06:15:00Z,30.6,-84.55,1.0,-7.0,110,7,,10.0,30.360237,,,TRUE,TRUE,,,,,,,CLR,,,,,,,,VFR,,,,,,,,,,,,SPECI,69.0
K3N8 210615Z AUTO 34008KT 10SM CLR M16/M18 A2994 RMK AO2 T11601180,K3N8,2015-02-21T06:15:00Z,47.25,-95.88,-16.0,-18.0,340,8,,10.0,29.940945,,,TRUE,TRUE,,,,,,,CLR,,,,,,,,VFR,,,,,,,,,,,,SPECI,383.0
K3T5 210615Z AUTO 19015G23KT 10SM BKN024 BKN030 21/17 A2985 RMK AO2 T02050170,K3T5,2015-02-21T06:15:00Z,29.9,-96.95,20.5,17.0,190,15,23,10.0,29.84941,,,TRUE,TRUE,,,,,,,BKN,2400,BKN,3000,,,,,MVFR,,,,,,,,,,,,SPECI,99.0
K6R3 210615Z AUTO 17010G19KT 10SM -DZ 18/17 A2993 RMK AO2 P0001 T01760165,K6R3,2015-02-21T06:15:00Z,30.35,-95.0,17.6,16.5,170,10,19,10.0,29.929134,,,TRUE,TRUE,,,,,,-DZ,,,,,,,,,,,,,,,0.01,,,,,,SPECI,46.0
KACJ 210615Z AUTO 12005KT 10SM CLR 00/M08 A3036 RMK AO2,KACJ,2015-02-21T06:15:00Z,32.12,-84.18,0.0,-8.0,120,5,,10.0,30.360237,,,TRUE,TRUE,,,,,,,CLR,,,,,,,,VFR,,,,,,,,,,,,SPECI,143.0
KASJ 210615Z AUTO 00000KT 10SM CLR M12/M16 A3055 RMK AO2 T11211160,KASJ,2015-02-21T06:15:00Z,36.28,-77.17,-12.1,-16.0,0,0,,10.0,30.549213,,,TRUE,TRUE,,,,,,,CLR,,,,,,,,VFR,,,,,,,,,,,,SPECI,21.0
KACP 210615Z AUTO 17008KT 10SM OVC085 18/15 A2998 RMK AO2 T01810145,KACP,2015-02-21T06:15:00Z,30.75,-92.68,18.1,14.5,170,8,,10.0,29.97933,,,TRUE,TRUE,,,,,,,OVC,8500,,,,,,,VFR,,,,,,,,,,,,SPECI,33.0
KAZE 210615Z AUTO 00000KT 10SM CLR 01/M01 A3041 RMK AO2 T00071014,KAZE,2015-02-21T06:15:00Z,31.88,-82.65,0.7,-1.4,0,0,,10.0,30.410433,,,TRUE,TRUE,,,,,,,CLR,,,,,,,,VFR,,,,,,,,,,,,SPECI,78.0
KBKD 210615Z AUTO 22018G24KT 7SM CLR 21/10 A2966 RMK AO2 T02070100,KBKD,2015-02-21T06:15:00Z,32.72,-98.88,20.7,10.0,220,18,24,7.0,29.660433,,,TRUE,TRUE,,,,,,,CLR,,,,,,,,VFR,,,,,,,,,,,,SPECI,392.0
KCCA 210615Z AUTO 00000KT 6SM BR OVC010 00/00 A2985 RMK AO2,KCCA,2015-02-21T06:15:00Z,35.6,-92.45,0.0,0.0,0,0,,6.0,29.84941,,,TRUE,TRUE,,,,,,BR,OVC,1000,,,,,,,MVFR,,,,,,,,,,,,SPECI,157.0
KEOK 210615Z AUTO 00000KT 10SM OVC032 M03/M04 A2990 RMK AO2,KEOK,2015-02-21T06:15:00Z,40.47,-91.42,-3.0,-4.0,0,0,,10.0,29.899607,,,TRUE,TRUE,,,,,,,OVC,3200,,,,,,,VFR,,,,,,,,,,,,METAR,205.0
KEMK 210615Z AUTO 16032G39KT 6SM HZ BKN035 BKN041 OVC047 21/17 A2999 RMK A01,KEMK,2015-02-21T06:15:00Z,27.82,-94.32,21.0,17.0,160,32,39,6.0,29.991142,,,TRUE,TRUE,,,,,,HZ,BKN,3500,BKN,4100,OVC,4700,,,VFR,,,,,,,,,,,,METAR,26.0
KXPY 210615Z AUTO 15013G25KT 7SM SCT039 BKN070 BKN090 19/14 A3012 RMK A01,KXPY,2015-02-21T06:15:00Z,29.12,-90.2,19.0,14.0,150,13,25,7.0,30.121063,,,TRUE,TRUE,,,,,,,SCT,3900,BKN,7000,BKN,9000,,,VFR,,,,,,,,,,,,METAR,2.0
KXLL 210615Z AUTO 00000KT 10SM CLR M16/M20 A3047 RMK AO2,KXLL,2015-02-21T06:15:00Z,40.57,-75.48,-16.0,-20.0,0,0,,10.0,30.469488,,,TRUE,TRUE,,,,,,,CLR,,,,,,,,VFR,,,,,,,,,,,,METAR,122.0
KW99 210615Z AUTO 30003KT 10SM CLR M15/M20 A3032 RMK AO2 T11551198,KW99,2015-02-21T06:15:00Z,39.0,-79.15,-15.5,-19.8,300,3,,10.0,30.318897,,,TRUE,TRUE,,,,,,,CLR,,,,,,,,VFR,,,,,,,,,,,,SPECI,293.0
KW78 210615Z AUTO 00000KT 10SM CLR M10/M20 A3046 RMK AO1 T11031196,KW78,2015-02-21T06:15:00Z,36.68,-78.85,-10.3,-19.6,0,0,,10.0,30.46063,,,TRUE,TRUE,,,,,,,CLR,,,,,,,,VFR,,,,,,,,,,,,SPECI,129.0
KW22 210615Z AUTO 00000KT 10SM CLR M13/M22 A3014 RMK AO2,KW22,2015-02-21T06:15:00Z,39.0,-80.27,-13.0,-22.0,0,0,,10.0,30.138779,,,TRUE,TRUE,,,,,,,CLR,,,,,,,,VFR,,,,,,,,,,,,SPECI,499.0
KVYS 210615Z AUTO 18009KT 10SM BKN060 M06/M10 A2993 RMK AO2 T10651102,KVYS,2015-02-21T06:15:00Z,41.35,-89.15,-6.5,-10.2,180,9,,10.0,29.929134,,,TRUE,TRUE,,,,,,,BKN,6000,,,,,,,VFR,,,,,,,,,,,,SPECI,199.0
KVUJ 210615Z AUTO 00000KT 10SM CLR M06/M15 A3049 RMK AO2 LTG DSNT W T10561146,KVUJ,2015-02-21T06:15:00Z,35.42,-80.15,-5.6,-14.6,0,0,,10.0,30.490158,,,TRUE,TRUE,,,,,,,CLR,,,,,,,,VFR,,,,,,,,,,,,SPECI,186.0
KVNC 210615Z AUTO 07008KT 10SM CLR 07/03 A3036 RMK AO2,KVNC,2015-02-21T06:15:00Z,27.07,-82.43,7.0,3.0,70,8,,10.0,30.360237,,,TRUE,TRUE,,,,,,,CLR,,,,,,,,VFR,,,,,,,,,,,,SPECI,6.0
KVES 210615Z AUTO 16010KT 10SM BKN016 OVC022 M08/M13 A3002 RMK AO2,KVES,2015-02-21T06:15:00Z,40.2,-84.53,-8.0,-13.0,160,10,,10.0,30.02067,,,TRUE,TRUE,,,,,,,BKN,1600,OVC,2200,,,,,MVFR,,,,,,,,,,,,SPECI,307.0
KWWR 210615Z AUTO 02011KT 3/4SM BR OVC003 05/03 A2987 RMK AO2,KWWR,2015-02-21T06:15:00Z,36.45,-99.52,5.0,3.0,20,11,,0.75,29.870079,,,TRUE,TRUE,,,,,,BR,OVC,300,,,,,,,LIFR,,,,,,,,,,,,SPECI,667.0
KXSA 210615Z AUTO 16003KT 10SM CLR M14/M22 A3051 RMK AO2 T11391225,KXSA,2015-02-21T06:15:00Z,37.87,-76.9,-13.9,-22.5,160,3,,10.0,30.510826,,,TRUE,TRUE,,,,,,,CLR,,,,,,,,VFR,,,,,,,,,,,,SPECI,42.0
KMPZ 210615Z AUTO 17008KT 7SM BKN029 OVC085 M03/M05 A2989 RMK AO2 T10351052,KMPZ,2015-02-21T06:15:00Z,40.95,-91.52,-3.5,-5.2,170,8,,7.0,29.890747,,,TRUE,TRUE,,,,,,,BKN,2900,OVC,8500,,,,,MVFR,,,,,,,,,,,,SPECI,224.0
KMLJ 210615Z AUTO 00000KT 10SM OVC048 02/M07 A3039 RMK AO2,KMLJ,2015-02-21T06:15:00Z,33.15,-83.23,2.0,-7.0,0,0,,10.0,30.389763,,,TRUE,TRUE,,,,,,,OVC,4800,,,,,,,VFR,,,,,,,,,,,,SPECI,117.0
KMLE 210615Z AUTO 00000KT 10SM BKN075 M01/M03 A2985 RMK AO2 T10081035,KMLE,2015-02-21T06:15:00Z,41.2,-96.12,-0.8,-3.5,0,0,,10.0,29.84941,,,TRUE,TRUE,,,,,,,BKN,7500,,,,,,,VFR,,,,,,,,,,,,SPECI,320.0
KMKJ 210615Z AUTO 10004KT 10SM SCT033 SCT041 BKN120 M09/M17 A3023 RMK AO2 T10901171,KMKJ,2015-02-21T06:15:00Z,36.88,-81.33,-9.0,-17.1,100,4,,10.0,30.230314,,,TRUE,TRUE,,,,,,,SCT,3300,SCT,4100,BKN,12000,,,VFR,,,,,,,,,,,,SPECI,780.0
KMDZ 210615Z AUTO 20003KT 10SM OVC015 M10/M12 A2979 RMK AO2 T11031125,KMDZ,2015-02-21T06:15:00Z,45.1,-90.3,-10.3,-12.5,200,3,,10.0,29.790354,,,TRUE,TRUE,,,,,,,OVC,1500,,,,,,,MVFR,,,,,,,,,,,,SPECI,448.0
KLXY 210615Z AUTO 18022G33KT 10SM OVC021 19/15 A2977 RMK AO2 T01900151,KLXY,2015-02-21T06:15:00Z,31.63,-96.52,19.0,15.1,180,22,33,10.0,29.769686,,,TRUE,TRUE,,,,,,,OVC,2100,,,,,,,MVFR,,,,,,,,,,,,SPECI,166.0
KLXN 210615Z AUTO 31007KT 10SM BKN060 OVC075 03/00 A2991 RMK AO2 T00301005,KLXN,2015-02-21T06:15:00Z,40.78,-99.77,3.0,-0.5,310,7,,10.0,29.911417,,,TRUE,TRUE,,,,,,,BKN,6000,OVC,7500,,,,,VFR,,,,,,,,,,,,SPECI,734.0
KLWB 210615Z AUTO 03005KT 10SM CLR M13/M20 A3021 RMK AO2 T11331204,KLWB,2015-02-21T06:15:00Z,37.87,-80.4,-13.3,-20.4,30,5,,10.0,30.209646,,,TRUE,TRUE,,,,,,,CLR,,,,,,,,VFR,,,,,,,,,,,,SPECI,702.0
KLSB 210615Z AUTO 27007KT 10SM CLR 12/00 A2999 RMK AO2,KLSB,2015-02-21T06:15:00Z,32.33,-108.7,12.0,0.0,270,7,,10.0,29.991142,,,TRUE,TRUE,,,,,,,CLR,,,,,,,,VFR,,,,,,,,,,,,SPECI,1307.0
KLRU 210615Z AUTO 25016KT 10SM CLR 14/M04 A2995 RMK AO2 T01391045,KLRU,2015-02-21T06:15:00Z,32.27,-106.92,13.9,-4.5,250,16,,10.0,29.949802,,,TRUE,TRUE,,,,,,,CLR,,,,,,,,VFR,,,,,,,,,,,,SPECI,1358.0
KLNP 210615Z AUTO 17007KT 10SM BKN048 OVC065 M02/M11 A3012 RMK AO2,KLNP,2015-02-21T06:15:00Z,36.97,-82.52,-2.0,-11.0,170,7,,10.0,30.121063,,,TRUE,TRUE,,,,,,,BKN,4800,OVC,6500,,,,,VFR,,,,,,,,,,,,SPECI,817.0
KLHZ 210615Z AUTO 15003KT 10SM CLR M10/M16 A3051 RMK AO2,KLHZ,2015-02-21T06:15:00Z,36.02,-78.33,-10.0,-16.0,150,3,,10.0,30.510826,,,TRUE,TRUE,,,,,,,CLR,,,,,,,,VFR,,,,,,,,,,,,SPECI,113.0
KF17 210615Z AUTO 17010G18KT 10SM -DZ OVC019 17/15 A2987 RMK AO2 T01680145,KF17,2015-02-21T06:15:00Z,31.83,-94.15,16.8,14.5,170,10,18,10.0,29.870079,,,TRUE,TRUE,,,,,,-DZ,OVC,1900,,,,,,,MVFR,,,,,,,,,,,,METAR,97.0
K3AU 210615Z AUTO 34008KT 7SM OVC004 00/00 A2987 RMK AO2,K3AU,2015-02-21T06:15:00Z,37.67,-97.08,0.0,0.0,340,8,,7.0,29.870079,,,TRUE,TRUE,,,,,,,OVC,400,,,,,,,LIFR,,,,,,,,,,,,METAR,405.0
KSCR 210615Z AUTO 13004KT 10SM CLR M07/M16 A3045 RMK AO2 T10731162,KSCR,2015-02-21T06:15:00Z,35.7,-79.5,-7.3,-16.2,130,4,,10.0,30.448818,,,TRUE,TRUE,,,,,,,CLR,,,,,,,,VFR,,,,,,,,,,,,SPECI,188.0
KY51 210615Z AUTO 16004KT 10SM OVC021 M06/M10 A2981 RMK AO1 T10651102,KY51,2015-02-21T06:15:00Z,43.58,-90.9,-6.5,-10.2,160,4,,10.0,29.811024,,,TRUE,TRUE,,,,,,,OVC,2100,,,,,,,MVFR,,,,,,,,,,,,SPECI,394.0
KY23 210615Z AUTO 00000KT 10SM OVC023 M09/M10 A2982 RMK AO2 T10861105,KY23,2015-02-21T06:15:00Z,45.3,-91.63,-8.6,-10.5,0,0,,10.0,29.819881,,,TRUE,TRUE,,,,,,,OVC,2300,,,,,,,MVFR,,,,,,,,,,,,SPECI,322.0
KPEA 210615Z AUTO 00000KT 10SM SCT050 BKN075 M02/M05 A2986 RMK AO2 T10251046,KPEA,2015-02-21T06:15:00Z,41.4,-92.95,-2.5,-4.6,0,0,,10.0,29.861221,,,TRUE,TRUE,,,,,,,SCT,5000,BKN,7500,,,,,VFR,,,,,,,,,,,,SPECI,270.0
KPBX 210615Z AUTO 16007KT 10SM SCT038 OVC090 M02/M13 A3010 RMK AO2 T10251131,KPBX,2015-02-21T06:15:00Z,37.57,-82.57,-2.5,-13.1,160,7,,10.0,30.100393,,,TRUE,TRUE,,,,,,,SCT,3800,OVC,9000,,,,,VFR,,,,,,,,,,,,SPECI,449.0
KOZA 210615Z AUTO 21008KT 10SM CLR 16/09 A2982 RMK AO2,KOZA,2015-02-21T06:15:00Z,30.73,-101.2,16.0,9.0,210,8,,10.0,29.819881,,,TRUE,TRUE,,,,,,,CLR,,,,,,,,VFR,,,,,,,,,,,,SPECI,726.0
KOXV 210615Z AUTO 00000KT 10SM SCT050 BKN075 BKN160 M02/M07 A2983 RMK AO2,KOXV,2015-02-21T06:15:00Z,41.28,-93.12,-2.0,-7.0,0,0,,10.0,29.828741,,,TRUE,TRUE,,,,,,,SCT,5000,BKN,7500,BKN,16000,,,VFR,,,,,,,,,,,,SPECI,283.0
KOUN 210615Z AUTO 36014KT 2 1/2SM -RA OVC002 04/04 A2976 RMK AO2 LTG DSNT E,KOUN,2015-02-21T06:15:00Z,35.25,-97.47,4.0,4.0,360,14,,2.5,29.760826,,,TRUE,TRUE,,,,,,-RA,OVC,200,,,,,,,LIFR,,,,,,,,,,,,SPECI,357.0
KOSA 210615Z AUTO 18017G23KT 10SM BKN026 BKN033 OVC039 A2978 RMK AO1,KOSA,2015-02-21T06:15:00Z,33.1,-94.97,,,180,17,23,10.0,29.778543,,,TRUE,TRUE,,,,,,,BKN,2600,BKN,3300,OVC,3900,,,MVFR,,,,,,,,,,,,SPECI,111.0
KORC 210615Z AUTO 02007KT 7SM OVC006 01/M01 A2983 RMK AO2,KORC,2015-02-21T06:15:00Z,42.97,-96.07,1.0,-1.0,20,7,,7.0,29.828741,,,TRUE,TRUE,,,,,,,OVC,600,,,,,,,IFR,,,,,,,,,,,,SPECI,431.0
KOPL 210615Z AUTO 17013G20KT 10SM SCT032 OVC085 17/14 A3000 RMK AO2 T01720137,KOPL,2015-02-21T06:15:00Z,30.55,-92.1,17.2,13.7,170,13,20,10.0,30.0,,,TRUE,TRUE,,,,,,,SCT,3200,OVC,8500,,,,,VFR,,,,,,,,,,,,SPECI,23.0
KOOA 210615Z AUTO 16007KT 5SM BR CLR M05/M06 A2985 RMK AO2 T10461057,KOOA,2015-02-21T06:15:00Z,41.23,-92.5,-4.6,-5.7,160,7,,5.0,29.84941,,,TRUE,TRUE,,,,,,BR,CLR,,,,,,,,MVFR,,,,,,,,,,,,SPECI,256.0
KONL 210615Z AUTO 00000KT 10SM CLR M01/M02 A2988 RMK AO2 T10081020,KONL,2015-02-21T06:15:00Z,42.47,-98.67,-0.8,-2.0,0,0,,10.0,29.878937,,,TRUE,TRUE,,,,,,,CLR,,,,,,,,VFR,,,,,,,,,,,,SPECI,619.0
KOMH 210615Z AUTO 00000KT 10SM SCT090 M15/M22 A3046 RMK AO2,KOMH,2015-02-21T06:15:00Z,38.25,-78.05,-15.0,-22.0,0,0,,10.0,30.46063,,,TRUE,TRUE,,,,,,,SCT,9000,,,,,,,VFR,,,,,,,,,,,,SPECI,142.0
KOLZ 210615Z AUTO 16004KT 10SM OVC024 M03/M06 A2982 RMK AO2,KOLZ,2015-02-21T06:15:00Z,42.67,-91.97,-3.0,-6.0,160,4,,10.0,29.819881,,,TRUE,TRUE,,,,,,,OVC,2400,,,,,,,MVFR,,,,,,,,,,,,SPECI,328.0
KOLY 210615Z AUTO 00000KT 2 1/2SM -SN OVC007 M03/M05 A2998 RMK AO2,KOLY,2015-02-21T06:15:00Z,38.72,-88.18,-3.0,-5.0,0,0,,2.5,29.97933,,,TRUE,TRUE,,,,,,-SN,OVC,700,,,,,,,IFR,,,,,,,,,,,,SPECI,147.0
KOLG 210615Z AUTO 24003KT 4SM OVC034 M08/M10 A2980 RMK AO1,KOLG,2015-02-21T06:15:00Z,46.3,-91.82,-8.0,-10.0,240,3,,4.0,29.799213,,,TRUE,TRUE,,,,,,,OVC,3400,,,,,,,MVFR,,,,,,,,,,,,SPECI,336.0
KOKM 210615Z AUTO 34007KT 3/4SM BR OVC002 01/01 A2978 RMK AO2 LTG DSNT NE T00130013,KOKM,2015-02-21T06:15:00Z,35.67,-95.95,1.3,1.3,340,7,,0.75,29.778543,,,TRUE,TRUE,,,,,,BR,OVC,200,,,,,,,LIFR,,,,,,,,,,,,SPECI,220.0
KOJA 210615Z AUTO 01015G20KT 3/4SM BR OVC002 05/05 A2978 RMK AO2,KOJA,2015-02-21T06:15:00Z,35.55,-98.67,5.0,5.0,10,15,20,0.75,29.778543,,,TRUE,TRUE,,,,,,BR,OVC,200,,,,,,,LIFR,,,,,,,,,,,,SPECI,490.0
KOGA 210615Z AUTO 25005KT 10SM SCT023 BKN031 OVC090 01/00 A2994 RMK AO2 T00121004,KOGA,2015-02-21T06:15:00Z,41.12,-101.77,1.2,-0.4,250,5,,10.0,29.940945,,,TRUE,TRUE,,,,,,,SCT,2300,BKN,3100,OVC,9000,,,VFR,,,,,,,,,,,,SPECI,999.0
KOEO 210615Z AUTO 00000KT 10SM OVC022 M07/M09 A2986 RMK AO2 T10691086,KOEO,2015-02-21T06:15:00Z,45.32,-92.7,-6.9,-8.6,0,0,,10.0,29.861221,,,TRUE,TRUE,,,,,,,OVC,2200,,,,,,,MVFR,,,,,,,,,,,,SPECI,275.0
KNY0 210615Z AUTO 00000KT 10SM CLR M21/M24 A3036 RMK AO2 T12081241,KNY0,2015-02-21T06:15:00Z,42.98,-74.33,-20.8,-24.1,0,0,,10.0,30.360237,,,TRUE,TRUE,,,,,,,CLR,,,,,,,,VFR,,,,,,,,,,,,SPECI,271.0
KMXO 210615Z AUTO 17007KT 10SM OVC030 M03/M05 A2985 RMK AO2,KMXO,2015-02-21T06:15:00Z,42.22,-91.17,-3.0,-5.0,170,7,,10.0,29.84941,,,TRUE,TRUE,,,,,,,OVC,3000,,,,,,,MVFR,,,,,,,,,,,,SPECI,259.0
KMWK 210615Z AUTO 00000KT 10SM SCT075 M08/M13 A3038 RMK AO2 T10781130,KMWK,2015-02-21T06:15:00Z,36.47,-80.55,-7.8,-13.0,0,0,,10.0,30.380905,,,TRUE,TRUE,,,,,,,SCT,7500,,,,,,,VFR,,,,,,,,,,,,SPECI,380.0
KMWC 210615Z AUTO 21009KT 10SM BKN047 OVC060 M07/M13 A2991 RMK AO2,KMWC,2015-02-21T06:15:00Z,43.12,-88.03,-7.0,-13.0,210,9,,10.0,29.911417,,,TRUE,TRUE,,,,,,,BKN,4700,OVC,6000,,,,,VFR,,,,,,,,,,,,SPECI,227.0
KMWA 210615Z AUTO 14004KT 3SM -SN BKN009 OVC013 00/M01 A2994 RMK AO2 P0007,KMWA,2015-02-21T06:15:00Z,37.77,-89.02,0.0,-1.0,140,4,,3.0,29.940945,,,TRUE,TRUE,,,,,,-SN,BKN,900,OVC,1300,,,,,IFR,,,,,,0.07,,,,,,SPECI,144.0
KMUT 210615Z AUTO 18008KT 10SM OVC027 M03/M06 A2990 RMK AO2,KMUT,2015-02-21T06:15:00Z,41.37,-91.15,-3.0,-6.0,180,8,,10.0,29.899607,,,TRUE,TRUE,,,,,,,OVC,2700,,,,,,,MVFR,,,,,,,,,,,,SPECI,167.0
LMML 210615Z 17014KT 9999 BKN024 12/08 Q1017 NOSIG,LMML,2015-02-21T06:15:00Z,35.85,14.47,12.0,8.0,170,14,,6.21,30.029528,,,,,,TRUE,,,,,BKN,2400,,,,,,,MVFR,,,,,,,,,,,,METAR,91.0
KCKM 210615Z AUTO 16014G19KT 10SM 08/08 A2990 RMK AO1,KCKM,2015-02-21T06:15:00Z,34.3,-90.52,8.0,8.0,160,14,19,10.0,29.899607,,,TRUE,TRUE,,,,,,,,,,,,,,,,,,,,,,,,,,,SPECI,53.0
KCDH 210615Z AUTO 10SM OVC024 14/11 A2985 RMK AO2,KCDH,2015-02-21T06:15:00Z,33.62,-92.77,14.0,11.0,,,,10.0,29.84941,,,TRUE,TRUE,,,,,,,OVC,2400,,,,,,,MVFR,,,,,,,,,,,,SPECI,35.0
KDCY 210615Z AUTO 00000KT 3SM -SN OVC008 M04/M06 A3000 RMK AO2 P0001 T10401057,KDCY,2015-02-21T06:15:00Z,38.7,-87.13,-4.0,-5.7,0,0,,3.0,30.0,,,TRUE,TRUE,,,,,,-SN,OVC,800,,,,,,,IFR,,,,,,0.01,,,,,,SPECI,144.0
KFXY 210615Z AUTO 33007KT 10SM BKN015 OVC039 00/M03 A2982 RMK AO2,KFXY,2015-02-21T06:15:00Z,43.23,-93.62,0.0,-3.0,330,7,,10.0,29.819881,,,TRUE,TRUE,,,,,,,BKN,1500,OVC,3900,,,,,MVFR,,,,,,,,,,,,SPECI,375.0
KENL 210615Z AUTO 13003KT 3SM UP BKN005 OVC009 M02/M03 A2994 RMK AO2 T10241035,KENL,2015-02-21T06:15:00Z,38.52,-89.1,-2.4,-3.5,130,3,,3.0,29.940945,,,TRUE,TRUE,,,,,,UP,BKN,500,OVC,900,,,,,IFR,,,,,,,,,,,,SPECI,163.0
KEMM 210615Z AUTO 00000KT 10SM BKN007 OVC100 M03/M05 A2995 RMK AO2,KEMM,2015-02-21T06:15:00Z,41.82,-110.55,-3.0,-5.0,0,0,,10.0,29.949802,,,TRUE,TRUE,,,,,,,BKN,700,OVC,10000,,,,,IFR,,,,,,,,,,,,SPECI,2220.0
KEFT 210615Z AUTO 19013KT 10SM SCT034 OVC049 M07/M10 A2985 RMK AO2,KEFT,2015-02-21T06:15:00Z,42.62,-89.6,-7.0,-10.0,190,13,,10.0,29.84941,,,TRUE,TRUE,,,,,,,SCT,3400,OVC,4900,,,,,VFR,,,,,,,,,,,,SPECI,331.0
KDTA 210615Z AUTO 04004KT 10SM SCT080 00/M08 A3001 RMK AO1 T00001078,KDTA,2015-02-21T06:15:00Z,39.38,-112.5,0.0,-7.8,40,4,,10.0,30.008858,,,TRUE,TRUE,,,,,,,SCT,8000,,,,,,,VFR,,,,,,,,,,,,SPECI,1402.0
KDNN 210615Z AUTO 15007KT 10SM OVC041 00/M06 A3028 RMK AO2,KDNN,2015-02-21T06:15:00Z,34.72,-84.87,0.0,-6.0,150,7,,10.0,30.280512,,,TRUE,TRUE,,,,,,,OVC,4100,,,,,,,VFR,,,,,,,,,,,,SPECI,216.0
KDED 210615Z AUTO 00000KT 10SM CLR A3040 RMK AO1,KDED,2015-02-21T06:15:00Z,29.07,-81.28,,,0,0,,10.0,30.398623,,,TRUE,TRUE,,,,,,,CLR,,,,,,,,VFR,,,,,,,,,,,,SPECI,24.0
LIRP 210615Z 11006KT 9999 FEW035 BKN060 05/05 Q1012 NOSIG,LIRP,2015-02-21T06:15:00Z,43.67,10.37,5.0,5.0,110,6,,6.21,29.88189,,,,,,TRUE,,,,,FEW,3500,BKN,6000,,,,,VFR,,,,,,,,,,,,METAR,2.0
LIRA 210615Z 11007KT 9999 FEW030 BKN090 06/01 Q1014,LIRA,2015-02-21T06:15:00Z,41.8,12.58,6.0,1.0,110,7,,6.21,29.940945,,,,,,,,,,,FEW,3000,BKN,9000,,,,,VFR,,,,,,,,,,,,METAR,101.0
LIPX 210615Z 06003KT 0600 R04/P1500N FG SCT050 SCT080 03/03 Q1013,LIPX,2015-02-21T06:15:00Z,45.38,10.87,3.0,3.0,60,3,,0.37,29.911417,,,,,,,,,,FG,SCT,5000,SCT,8000,,,,,LIFR,,,,,,,,,,,,METAR,68.0
LIPR 210615Z 18006KT 9999 SCT030 BKN060 07/04 Q1013,LIPR,2015-02-21T06:15:00Z,44.02,12.62,7.0,4.0,180,6,,6.21,29.911417,,,,,,,,,,,SCT,3000,BKN,6000,,,,,VFR,,,,,,,,,,,,METAR,13.0
LHKE 210615Z 15006KT 2000 BR BKN083 BKN200 M01/M02 Q1013 NOSIG RMK YLO,LHKE,2015-02-21T06:15:00Z,46.92,19.75,-1.0,-2.0,150,6,,1.24,29.911417,,,,,,TRUE,,,,BR,BKN,8300,BKN,20000,,,,,IFR,,,,,,,,,,,,METAR,115.0
KY49 210615Z AUTO 29003KT 7SM -SN SCT019 M15/M17 A2987 RMK AO2 T11471168,KY49,2015-02-21T06:15:00Z,47.13,-94.65,-14.7,-16.8,290,3,,7.0,29.870079,,,TRUE,TRUE,,,,,,-SN,SCT,1900,,,,,,,VFR,,,,,,,,,,,,SPECI,416.0
KY19 210615Z AUTO 01009KT 10SM FEW009 BKN017 OVC046 M08/M10 A2996 RMK AO2,KY19,2015-02-21T06:15:00Z,46.77,-100.9,-8.0,-10.0,10,9,,10.0,29.958662,,,TRUE,TRUE,,,,,,,FEW,900,BKN,1700,OVC,4600,,,MVFR,,,,,,,,,,,,SPECI,593.0
KWDG 210615Z AUTO 36013KT 4SM BR SCT003 OVC007 03/03 A2980 RMK AO2 LTG DSNT E,KWDG,2015-02-21T06:15:00Z,36.37,-97.77,3.0,3.0,360,13,,4.0,29.799213,,,TRUE,TRUE,,,,,,BR,SCT,300,OVC,700,,,,,IFR,,,,,,,,,,,,SPECI,356.0
KVVG 210615Z AUTO 07003KT 9SM 03/M01 A3030 RMK A01,KVVG,2015-02-21T06:15:00Z,28.95,-81.97,3.0,-1.0,70,3,,9.0,30.301182,,,TRUE,TRUE,,,,,,,,,,,,,,,,,,,,,,,,,,,SPECI,27.0
KVER 210615Z AUTO 16003KT 5SM UP SCT004 BKN037 OVC055 M02/M02 A2987 RMK AO2 LTG DSNT S T10201022,KVER,2015-02-21T06:15:00Z,38.95,-92.68,-2.0,-2.2,160,3,,5.0,29.870079,,,TRUE,TRUE,,,,,,UP,SCT,400,BKN,3700,OVC,5500,,,MVFR,,,,,,,,,,,,SPECI,218.0
KUES 210615Z AUTO 21005KT 10SM OVC042 M08/M13 A2990 RMK AO2,KUES,2015-02-21T06:15:00Z,43.05,-88.25,-8.0,-13.0,210,5,,10.0,29.899607,,,TRUE,TRUE,,,,,,,OVC,4200,,,,,,,VFR,,,,,,,,,,,,SPECI,278.0
KTMA 210615Z AUTO 13005KT 10SM CLR 01/M06 A3039 RMK AO2 T00121062,KTMA,2015-02-21T06:15:00Z,31.43,-83.48,1.2,-6.2,130,5,,10.0,30.389763,,,TRUE,TRUE,,,,,,,CLR,,,,,,,,VFR,,,,,,,,,,,,SPECI,109.0
KTBR 210615Z AUTO 15004KT 10SM CLR M01/M03 A3042 RMK AO2 T10091034,KTBR,2015-02-21T06:15:00Z,32.48,-81.73,-0.9,-3.4,150,4,,10.0,30.41929,,,TRUE,TRUE,,,,,,,CLR,,,,,,,,VFR,,,,,,,,,,,,SPECI,57.0
KSUW 210615Z AUTO 32005KT 10SM OVC046 M07/M10 A2985 RMK AO2 T10731097,KSUW,2015-02-21T06:15:00Z,46.68,-92.1,-7.3,-9.7,320,5,,10.0,29.84941,,,TRUE,TRUE,,,,,,,OVC,4600,,,,,,,VFR,,,,,,,,,,,,SPECI,206.0
KSTE 210615Z AUTO 00000KT 10SM OVC023 M11/M13 A2983 RMK AO2 T11101133,KSTE,2015-02-21T06:15:00Z,44.55,-89.53,-11.0,-13.3,0,0,,10.0,29.828741,,,TRUE,TRUE,,,,,,,OVC,2300,,,,,,,MVFR,,,,,,,,,,,,SPECI,338.0
KSRR 210615Z AUTO 30009G15KT 10SM CLR 09/M12 A2994 RMK AO2,KSRR,2015-02-21T06:15:00Z,33.47,-105.52,9.0,-12.0,300,9,15,10.0,29.940945,,,TRUE,TRUE,,,,,,,CLR,,,,,,,,VFR,,,,,,,,,,,,SPECI,2076.0
KSEE 210615Z AUTO 00000KT 10SM OVC018 13/11 A3000 RMK AO2,KSEE,2015-02-21T06:15:00Z,32.82,-116.97,13.0,11.0,0,0,,10.0,30.0,,,TRUE,TRUE,,,,,,,OVC,1800,,,,,,,MVFR,,,,,,,,,,,,SPECI,117.0
KSDA 210615Z AUTO 21004KT 10SM FEW120 M02/M05 A2988 RMK AO2,KSDA,2015-02-21T06:15:00Z,40.75,-95.42,-2.0,-5.0,210,4,,10.0,29.878937,,,TRUE,TRUE,,,,,,,FEW,12000,,,,,,,VFR,,,,,,,,,,,,SPECI,296.0
KRYV 210615Z AUTO 18005KT 10SM OVC039 M08/M12 A2988 RMK AO2 T10771118,KRYV,2015-02-21T06:15:00Z,43.17,-88.72,-7.7,-11.8,180,5,,10.0,29.878937,,,TRUE,TRUE,,,,,,,OVC,3900,,,,,,,VFR,,,,,,,,,,,,SPECI,254.0
KPNA 210615Z AUTO 30009KT 10SM CLR M07/M10 A2993 RMK AO2,KPNA,2015-02-21T06:15:00Z,42.8,-109.8,-7.0,-10.0,300,9,,10.0,29.929134,,,TRUE,TRUE,,,,,,,CLR,,,,,,,,VFR,,,,,,,,,,,,SPECI,2160.0
KOCQ 210615Z AUTO 22003KT 10SM OVC026 M10/M12 A2988 RMK AO1 T10961121,KOCQ,2015-02-21T06:15:00Z,44.87,-87.92,-9.6,-12.1,220,3,,10.0,29.878937,,,TRUE,TRUE,,,,,,,OVC,2600,,,,,,,MVFR,,,,,,,,,,,,SPECI,183.0
KMZZ 210615Z AUTO 19009KT 4SM -SN SCT013 BKN023 OVC030 M08/M11 A2999 RMK AO2 T10781106,KMZZ,2015-02-21T06:15:00Z,40.48,-85.68,-7.8,-10.6,190,9,,4.0,29.991142,,,TRUE,TRUE,,,,,,-SN,SCT,1300,BKN,2300,OVC,3000,,,MVFR,,,,,,,,,,,,SPECI,262.0
KMYZ 210615Z AUTO 27004KT 10SM OVC090 00/M02 A2989 RMK AO2,KMYZ,2015-02-21T06:15:00Z,39.25,-96.63,0.0,-2.0,270,4,,10.0,29.890747,,,TRUE,TRUE,,,,,,,OVC,9000,,,,,,,VFR,,,,,,,,,,,,SPECI,319.0
KMTV 210615Z AUTO 00000KT 10SM CLR M12/M16 A3042 RMK AO2 T11221158,KMTV,2015-02-21T06:15:00Z,36.63,-80.02,-12.2,-15.8,0,0,,10.0,30.41929,,,TRUE,TRUE,,,,,,,CLR,,,,,,,,VFR,,,,,,,,,,,,SPECI,287.0
KMNE 210615Z AUTO 18012G21KT 10SM OVC022 18/13 A2987 RMK AO2 LTG DSNT N T01760134,KMNE,2015-02-21T06:15:00Z,32.65,-93.3,17.6,13.4,180,12,21,10.0,29.870079,,,TRUE,TRUE,,,,,,,OVC,2200,,,,,,,MVFR,,,,,,,,,,,,SPECI,85.0
KMGC 210615Z AUTO 19007KT 10SM OVC017 M07/M14 A2999 RMK AO2,KMGC,2015-02-21T06:15:00Z,41.7,-86.82,-7.0,-14.0,190,7,,10.0,29.991142,,,TRUE,TRUE,,,,,,,OVC,1700,,,,,,,MVFR,,,,,,,,,,,,SPECI,200.0
KMDD 210615Z AUTO 25009KT 10SM CLR 19/M06 A2978 RMK AO2 T01851058,KMDD,2015-02-21T06:15:00Z,32.03,-102.1,18.5,-5.8,250,9,,10.0,29.778543,,,TRUE,TRUE,,,,,,,CLR,,,,,,,,VFR,,,,,,,,,,,,SPECI,854.0
KLOT 210615Z AUTO 20008KT 10SM OVC017 M08/M12 A2996 RMK AO2 T10761116,KLOT,2015-02-21T06:15:00Z,41.6,-88.1,-7.6,-11.6,200,8,,10.0,29.958662,,,TRUE,TRUE,,,,,,,OVC,1700,,,,,,,MVFR,,,,,,,,,,,,SPECI,205.0
KLNL 210615Z AUTO 24003KT 7SM -SN SCT023 BKN031 OVC041 M11/M13 A2976 RMK AO2 T11071126,KLNL,2015-02-21T06:15:00Z,46.15,-89.22,-10.7,-12.6,240,3,,7.0,29.760826,,,TRUE,TRUE,,,,,,-SN,SCT,2300,BKN,3100,OVC,4100,,,VFR,,,,,,,,,,,,SPECI,520.0
KJOT 210615Z AUTO 20006KT 10SM OVC016 M07/M11 A2996 RMK AO2 T10751114,KJOT,2015-02-21T06:15:00Z,41.52,-88.18,-7.5,-11.4,200,6,,10.0,29.958662,,,TRUE,TRUE,,,,,,,OVC,1600,,,,,,,MVFR,,,,,,,,,,,,SPECI,177.0
KJES 210615Z AUTO 00000KT 10SM CLR 02/00 A3041 RMK AO2,KJES,2015-02-21T06:15:00Z,31.55,-81.88,2.0,0.0,0,0,,10.0,30.410433,,,TRUE,TRUE,,,,,,,CLR,,,,,,,,VFR,,,,,,,,,,,,SPECI,33.0
KHRX 210615Z AUTO 02023G28KT 10SM CLR 07/01 A2987 RMK AO2 T00680007,KHRX,2015-02-21T06:15:00Z,34.87,-102.33,6.8,0.7,20,23,28,10.0,29.870079,,,TRUE,TRUE,,,,,,,CLR,,,,,,,,VFR,,,,,,,,,,,,SPECI,1154.0
KHOE 210615Z AUTO 00000KT 10SM CLR 01/M01 A3041 RMK AO2,KHOE,2015-02-21T06:15:00Z,31.05,-82.78,1.0,-1.0,0,0,,10.0,30.410433,,,TRUE,TRUE,,,,,,,CLR,,,,,,,,VFR,,,,,,,,,,,,SPECI,57.0
KHII 210615Z AUTO 00000KT 10SM CLR 18/M02 A2985 RMK AO2,KHII,2015-02-21T06:15:00Z,34.57,-114.37,18.0,-2.0,0,0,,10.0,29.84941,,,TRUE,TRUE,,,,,,,CLR,,,,,,,,VFR,,,,,,,,,,,,SPECI,238.0
KHHG 210615Z AUTO 20006KT 10SM OVC017 M08/M12 A3000 RMK AO2 T10801124,KHHG,2015-02-21T06:15:00Z,40.85,-85.45,-8.0,-12.4,200,6,,10.0,30.0,,,TRUE,TRUE,,,,,,,OVC,1700,,,,,,,MVFR,,,,,,,,,,,,SPECI,246.0
KHFJ 210615Z AUTO 04011G14KT 2 1/2SM VCTSRA OVC002 00/00 A2978 RMK AO2 LTG DSNT E THRU W P0002,KHFJ,2015-02-21T06:15:00Z,36.9,-94.02,0.0,0.0,40,11,14,2.5,29.778543,,,TRUE,TRUE,,,,,,VCTSRA,OVC,200,,,,,,,LIFR,,,,,,0.02,,,,,,SPECI,401.0
KGVE 210615Z AUTO 00000KT 10SM CLR M18/M22 A3045 RMK AO1 T11781225,KGVE,2015-02-21T06:15:00Z,38.15,-78.17,-17.8,-22.5,0,0,,10.0,30.448818,,,TRUE,TRUE,,,,,,,CLR,,,,,,,,VFR,,,,,,,,,,,,SPECI,138.0
KFZG 210615Z AUTO 13004KT 10SM CLR 02/M06 A3041 RMK AO2 T00151063 PWINO,KFZG,2015-02-21T06:15:00Z,31.68,-83.27,1.5,-6.3,130,4,,10.0,30.410433,,,TRUE,TRUE,,,,,TRUE,,CLR,,,,,,,,VFR,,,,,,,,,,,,SPECI,111.0
KO22 210615Z AUTO 00000KT 8SM CLR 06/06 A2998 RMK AO1,KO22,2015-02-21T06:15:00Z,38.03,-120.42,6.0,6.0,0,0,,8.0,29.97933,,,TRUE,TRUE,,,,,,,CLR,,,,,,,,VFR,,,,,,,,,,,,SPECI,646.0
KFYG 210615Z AUTO 00000KT 7SM OVC025 M02/M03 A2989 RMK AO2,KFYG,2015-02-21T06:15:00Z,38.58,-91.0,-2.0,-3.0,0,0,,7.0,29.890747,,,TRUE,TRUE,,,,,,,OVC,2500,,,,,,,MVFR,,,,,,,,,,,,SPECI,149.0
KD60 210615Z AUTO 03012KT 5SM -SN SCT015 BKN037 M10/M10 A3003 RMK AO2,KD60,2015-02-21T06:15:00Z,48.38,-102.9,-10.0,-10.0,30,12,,5.0,30.029528,,,TRUE,TRUE,,,,,,-SN,SCT,1500,BKN,3700,,,,,MVFR,,,,,,,,,,,,SPECI,693.0
KBBG 210615Z AUTO 07003KT 1/4SM FZFG OVC002 M01/M02 A2979 RMK AO2 LTG DSNT W AND NW,KBBG,2015-02-21T06:15:00Z,36.53,-93.2,-1.0,-2.0,70,3,,0.25,29.790354,,,TRUE,TRUE,,,,,,FZFG,OVC,200,,,,,,,LIFR,,,,,,,,,,,,SPECI,397.0
K9D7 210615Z AUTO 02011KT 10SM BKN007 BKN011 OVC060 M14/M17 A3003 RMK AO2,K9D7,2015-02-21T06:15:00Z,48.48,-99.23,-14.0,-17.0,20,11,,10.0,30.029528,,,TRUE,TRUE,,,,,,,BKN,700,BKN,1100,OVC,6000,,,IFR,,,,,,,,,,,,SPECI,452.0
K4A6 210615Z AUTO 19007KT 10SM OVC037 00/M08 A3022 RMK AO2,K4A6,2015-02-21T06:15:00Z,34.68,-86.0,0.0,-8.0,190,7,,10.0,30.221457,,,TRUE,TRUE,,,,,,,OVC,3700,,,,,,,VFR,,,,,,,,,,,,SPECI,198.0
KBWP 210615Z AUTO 36014G19KT 10SM BKN022 OVC095 M11/M15 A2997 RMK AO1,KBWP,2015-02-21T06:15:00Z,46.25,-96.62,-11.0,-15.0,360,14,19,10.0,29.970472,,,TRUE,TRUE,,,,,,,BKN,2200,OVC,9500,,,,,MVFR,,,,,,,,,,,,METAR,295.0
KBUU 210615Z AUTO 20010KT 10SM OVC034 M09/M13 A2991 RMK AO2 T10861126,KBUU,2015-02-21T06:15:00Z,42.68,-88.3,-8.6,-12.6,200,10,,10.0,29.911417,,,TRUE,TRUE,,,,,,,OVC,3400,,,,,,,VFR,,,,,,,,,,,,METAR,237.0
KANK 210615Z AUTO 00000KT 10SM SCT048 BKN060 OVC075 M02/M04 A3000 RMK AO1 T10171036,KANK,2015-02-21T06:15:00Z,38.53,-106.05,-1.7,-3.6,0,0,,10.0,30.0,,,TRUE,TRUE,,,,,,,SCT,4800,BKN,6000,OVC,7500,,,VFR,,,,,,,,,,,,METAR,2293.0
KAIG 210615Z AUTO 22005KT 5SM BR OVC016 M12/M13 A2979 RMK AO2 T11171127,KAIG,2015-02-21T06:15:00Z,45.15,-89.12,-11.7,-12.7,220,5,,5.0,29.790354,,,TRUE,TRUE,,,,,,BR,OVC,1600,,,,,,,MVFR,,,,,,,,,,,,METAR,464.0
K06D 210615Z AUTO 36013KT 10SM FEW016 OVC090 M17/M19 A3002 RMK AO2,K06D,2015-02-21T06:15:00Z,48.88,-99.62,-17.0,-19.0,360,13,,10.0,30.02067,,,TRUE,TRUE,,,,,,,FEW,1600,OVC,9000,,,,,VFR,,,,,,,,,,,,METAR,556.0
KEZF 210615Z AUTO 00000KT 10SM CLR M15/M21 A3049 RMK AO2 T11471208,KEZF,2015-02-21T06:15:00Z,38.27,-77.45,-14.7,-20.8,0,0,,10.0,30.490158,,,TRUE,TRUE,,,,,,,CLR,,,,,,,,VFR,,,,,,,,,,,,METAR,26.0
KF70 210615Z AUTO 00000KT 7SM SCT007 12/10 A3000 RMK AO1,KF70,2015-02-21T06:15:00Z,33.57,-117.13,12.0,10.0,0,0,,7.0,30.0,,,TRUE,TRUE,,,,,,,SCT,700,,,,,,,VFR,,,,,,,,,,,,METAR,412.0
KFET 210615Z AUTO 27006KT 10SM OVC060 02/M01 A2985 RMK AO2 T00181008,KFET,2015-02-21T06:15:00Z,41.45,-96.52,1.8,-0.8,270,6,,10.0,29.84941,,,TRUE,TRUE,,,,,,,OVC,6000,,,,,,,VFR,,,,,,,,,,,,METAR,367.0
KFFL 210615Z AUTO 19007KT 6SM BR OVC007 M02/M04 A2987 RMK AO2,KFFL,2015-02-21T06:15:00Z,41.03,-91.97,-2.0,-4.0,190,7,,6.0,29.870079,,,TRUE,TRUE,,,,,,BR,OVC,700,,,,,,,IFR,,,,,,,,,,,,METAR,244.0
KCNI 210615Z AUTO 08009G15KT 040V100 10SM OVC040 M01/M07 A3032 RMK AO2,KCNI,2015-02-21T06:15:00Z,34.32,-84.42,-1.0,-7.0,80,9,15,10.0,30.318897,,,TRUE,TRUE,,,,,,,OVC,4000,,,,,,,VFR,,,,,,,,,,,,METAR,372.0
KCLW 210615Z AUTO 09006KT 10SM CLR 07/02 A3037 RMK AO2,KCLW,2015-02-21T06:15:00Z,27.98,-82.75,7.0,2.0,90,6,,10.0,30.369095,,,TRUE,TRUE,,,,,,,CLR,,,,,,,,VFR,,,,,,,,,,,,METAR,22.0
KTUL 210615Z COR 35008KT 2SM -DZ BR OVC002 03/03 A2980 RMK AO2 SFC VIS 2 1/2 LTG DSNT E AND SE RAE15DZB15 TSE15 CB DSNT E AND SE TS MOV E P0001 T00280028,KTUL,2015-02-21T06:15:00Z,36.2,-95.88,2.8,2.8,350,8,,2.0,29.799213,,TRUE,,TRUE,,,,,,-DZ BR,OVC,200,,,,,,,LIFR,,,,,,0.01,,,,,,METAR,207.0
KDTO 210615Z AUTO 18020G30KT 10SM SCT021 18/14 A2967 RMK AO2 PK WND 18030/0607 T01830144,KDTO,2015-02-21T06:15:00Z,33.2,-97.2,18.3,14.4,180,20,30,10.0,29.66929,,,TRUE,TRUE,,,,,,,SCT,2100,,,,,,,VFR,,,,,,,,,,,,SPECI,196.0
CWZZ 210615Z AUTO ///// M15/ A2905,CWZZ,2015-02-21T06:15:00Z,58.32,-62.57,-15.0,,,,,,29.049213,,,TRUE,,,,,,,,,,,,,,,,,,,,,,,,,,,,SPECI,483.0
LKLN 210615Z AUTO 00000KT 5000 NSC M05/M06 Q1002,LKLN,2015-02-21T06:15:00Z,49.68,13.27,-5.0,-6.0,0,0,,3.11,29.586615,,,TRUE,,,,,,,,,,,,,,,,,,,,,,,,,,,,SPECI,362.0
CYQL 210615Z AUTO 32006KT 9SM SCT022 SCT028 OVC095 M05/M08 A3023 RMK SLP278,CYQL,2015-02-21T06:15:00Z,49.63,-112.8,-5.0,-8.0,320,6,,9.0,30.230314,1027.8,,TRUE,,,,,,,,SCT,2200,SCT,2800,OVC,9500,,,VFR,,,,,,,,,,,,SPECI,929.0
K4O4 210615Z AUTO 09007KT 5SM BKN022 BKN030 07/06 A2975 RMK AO2,K4O4,2015-02-21T06:15:00Z,33.92,-94.87,7.0,6.0,90,7,,5.0,29.749016,,,TRUE,TRUE,,,,,,,BKN,2200,BKN,3000,,,,,MVFR,,,,,,,,,,,,METAR,144.0
K40J 210615Z AUTO 12008KT 10SM CLR 04/M03 A3037 RMK AO2 T00401026,K40J,2015-02-21T06:15:00Z,30.07,-83.57,4.0,-2.6,120,8,,10.0,30.369095,,,TRUE,TRUE,,,,,,,CLR,,,,,,,,VFR,,,,,,,,,,,,METAR,13.0
K3I2 210615Z AUTO 00000KT 10SM BKN065 M11/M16 A3018 RMK AO2,K3I2,2015-02-21T06:15:00Z,38.92,-82.1,-11.0,-16.0,0,0,,10.0,30.180119,,,TRUE,TRUE,,,,,,,BKN,6500,,,,,,,VFR,,,,,,,,,,,,METAR,196.0
K1II 210615Z AUTO 10003KT 7SM -SN OVC017 M07/M11 A3003 RMK AO2,K1II,2015-02-21T06:15:00Z,39.33,-86.03,-7.0,-11.0,100,3,,7.0,30.029528,,,TRUE,TRUE,,,,,,-SN,OVC,1700,,,,,,,MVFR,,,,,,,,,,,,METAR,214.0
KHNZ 210615Z AUTO 00000KT 10SM CLR M09/M19 A3047 RMK AO2 T10921186,KHNZ,2015-02-21T06:15:00Z,36.37,-78.53,-9.2,-18.6,0,0,,10.0,30.469488,,,TRUE,TRUE,,,,,,,CLR,,,,,,,,VFR,,,,,,,,,,,,METAR,161.0
KHHF 210615Z AUTO 01008KT 10SM SCT050 05/01 A2985 RMK AO2 T00460005,KHHF,2015-02-21T06:15:00Z,35.9,-100.4,4.6,0.5,10,8,,10.0,29.84941,,,TRUE,TRUE,,,,,,,SCT,5000,,,,,,,VFR,,,,,,,,,,,,METAR,712.0
KHBI 210615Z AUTO 14004KT 10SM CLR M06/M16 A3046 RMK AO2 T10611163,KHBI,2015-02-21T06:15:00Z,35.65,-79.9,-6.1,-16.3,140,4,,10.0,30.46063,,,TRUE,TRUE,,,,,,,CLR,,,,,,,,VFR,,,,,,,,,,,,METAR,205.0
KGYY 210615Z AUTO 19008KT 10SM OVC016 M06/M13 A2998 RMK AO2 T10651132,KGYY,2015-02-21T06:15:00Z,41.62,-87.42,-6.5,-13.2,190,8,,10.0,29.97933,,,TRUE,TRUE,,,,,,,OVC,1600,,,,,,,MVFR,,,,,,,,,,,,METAR,180.0
KGWW 210615Z AUTO 13003KT 10SM CLR M08/M14 A3054 RMK AO2 T10801140,KGWW,2015-02-21T06:15:00Z,35.47,-77.97,-8.0,-14.0,130,3,,10.0,30.540354,,,TRUE,TRUE,,,,,,,CLR,,,,,,,,VFR,,,,,,,,,,,,METAR,41.0
KFKR 210615Z AUTO 14006KT 1SM SN OVC007 M08/M09 A2998 RMK AO2 T10781093,KFKR,2015-02-21T06:15:00Z,40.27,-86.57,-7.8,-9.3,140,6,,1.0,29.97933,,,TRUE,TRUE,,,,,,SN,OVC,700,,,,,,,IFR,,,,,,,,,,,,METAR,262.0
KEHO 210615Z AUTO 15004KT 10SM BKN075 OVC090 M02/M14 A3039 RMK AO2 T10201144,KEHO,2015-02-21T06:15:00Z,35.25,-81.6,-2.0,-14.4,150,4,,10.0,30.389763,,,TRUE,TRUE,,,,,,,BKN,7500,OVC,9000,,,,,VFR,,,,,,,,,,,,METAR,258.0
KECS 210615Z AUTO 29003KT 7SM -SN OVC007 M01/M01 A2993 RMK AO2,KECS,2015-02-21T06:15:00Z,43.88,-104.32,-1.0,-1.0,290,3,,7.0,29.929134,,,TRUE,TRUE,,,,,,-SN,OVC,700,,,,,,,IFR,,,,,,,,,,,,METAR,1273.0
KDVO 210615Z AUTO 00000KT 08/08 A2998 RMK AO2,KDVO,2015-02-21T06:15:00Z,38.15,-122.55,8.0,8.0,0,0,,,29.97933,,,TRUE,TRUE,,,,,,,,,,,,,,,,,,,,,,,,,,,METAR,1.0
KDRI 210615Z AUTO 17014G20KT 10SM SCT021 SCT028 OVC080 19/15 A2998 RMK AO2 T01850145,KDRI,2015-02-21T06:15:00Z,30.83,-93.33,18.5,14.5,170,14,20,10.0,29.97933,,,TRUE,TRUE,,,,,,,SCT,2100,SCT,2800,OVC,8000,,,VFR,,,,,,,,,,,,METAR,63.0
KDKB 210615Z AUTO 17011KT 10SM BKN039 OVC055 M09/M12 A2991 RMK AO2 T10881120,KDKB,2015-02-21T06:15:00Z,41.93,-88.7,-8.8,-12.0,170,11,,10.0,29.911417,,,TRUE,TRUE,,,,,,,BKN,3900,OVC,5500,,,,,VFR,,,,,,,,,,,,METAR,279.0
KTRK 210615Z AUTO 00000KT 10SM CLR M01/M05 A3010 RMK AO2,KTRK,2015-02-21T06:15:00Z,39.32,-120.12,-1.0,-5.0,0,0,,10.0,30.100393,,,TRUE,TRUE,,,,,,,CLR,,,,,,,,VFR,,,,,,,,,,,,SPECI,1798.0
KTNU 210615Z AUTO 19003KT 10SM BKN034 BKN044 OVC055 M02/M06 A2983 RMK AO2,KTNU,2015-02-21T06:15:00Z,41.67,-93.02,-2.0,-6.0,190,3,,10.0,29.828741,,,TRUE,TRUE,,,,,,,BKN,3400,BKN,4400,OVC,5500,,,VFR,,,,,,,,,,,,SPECI,290.0
KTIF 210615Z AUTO 30005KT 10SM BKN060 BKN120 01/01 A2992 RMK AO2 T00140007,KTIF,2015-02-21T06:15:00Z,41.97,-100.57,1.4,0.7,300,5,,10.0,29.920275,,,TRUE,TRUE,,,,,,,BKN,6000,BKN,12000,,,,,VFR,,,,,,,,,,,,SPECI,892.0
KL38 210615Z AUTO 16012G18KT 10SM SCT037 SCT046 OVC070 18/13 A3006 RMK AO2 T01770130,KL38,2015-02-21T06:15:00Z,30.17,-90.93,17.7,13.0,160,12,18,10.0,30.059055,,,TRUE,TRUE,,,,,,,SCT,3700,SCT,4600,OVC,7000,,,VFR,,,,,,,,,,,,SPECI,4.0
KL35 210615Z AUTO 00000KT 10SM CLR 00/M07 A3010 RMK AO2,KL35,2015-02-21T06:15:00Z,34.27,-116.85,0.0,-7.0,0,0,,10.0,30.100393,,,TRUE,TRUE,,,,,,,CLR,,,,,,,,VFR,,,,,,,,,,,,SPECI,2059.0
KJYO 210615Z AUTO 17007KT 10SM SCT090 M11/M20 A3044 RMK AO2,KJYO,2015-02-21T06:15:00Z,39.07,-77.57,-11.0,-20.0,170,7,,10.0,30.43996,,,TRUE,TRUE,,,,,,,SCT,9000,,,,,,,VFR,,,,,,,,,,,,SPECI,119.0
KHDC 210615Z AUTO 16007KT 10SM BKN035 OVC048 16/11 A3010 RMK AO2,KHDC,2015-02-21T06:15:00Z,30.52,-90.42,16.0,11.0,160,7,,10.0,30.100393,,,TRUE,TRUE,,,,,,,BKN,3500,OVC,4800,,,,,VFR,,,,,,,,,,,,SPECI,13.0
KGYH 210615Z AUTO 19003KT 10SM OVC030 M02/M12 A3039 RMK AO2,KGYH,2015-02-21T06:15:00Z,34.75,-82.38,-2.0,-12.0,190,3,,10.0,30.389763,,,TRUE,TRUE,,,,,,,OVC,3000,,,,,,,MVFR,,,,,,,,,,,,METAR,292.0
KGOP 210615Z AUTO 19015G28KT 10SM OVC018 19/15 A2978 RMK AO2,KGOP,2015-02-21T06:15:00Z,31.42,-97.8,19.0,15.0,190,15,28,10.0,29.778543,,,TRUE,TRUE,,,,,,,OVC,1800,,,,,,,MVFR,,,,,,,,,,,,SPECI,276.0
KGGP 210615Z AUTO 17005KT 5SM -SN SCT014 OVC028 M08/M10 A3000 RMK AO2,KGGP,2015-02-21T06:15:00Z,40.72,-86.37,-8.0,-10.0,170,5,,5.0,30.0,,,TRUE,TRUE,,,,,,-SN,SCT,1400,OVC,2800,,,,,MVFR,,,,,,,,,,,,SPECI,225.0
KFWC 210615Z AUTO 13003KT 3SM -SN OVC006 M02/M03 A2996 RMK AO1 T10201026,KFWC,2015-02-21T06:15:00Z,38.38,-88.42,-2.0,-2.6,130,3,,3.0,29.958662,,,TRUE,TRUE,,,,,,-SN,OVC,600,,,,,,,IFR,,,,,,,,,,,,SPECI,133.0
KFFA 210615Z AUTO 00000KT 10SM CLR M08/M17 A3056 RMK AO2 T10821169,KFFA,2015-02-21T06:15:00Z,36.02,-75.67,-8.2,-16.9,0,0,,10.0,30.561024,,,TRUE,TRUE,,,,,,,CLR,,,,,,,,VFR,,,,,,,,,,,,SPECI,4.0
KEOE 210615Z AUTO 00000KT 10SM OVC046 00/M12 A3044 RMK AO2,KEOE,2015-02-21T06:15:00Z,34.32,-81.63,0.0,-12.0,0,0,,10.0,30.43996,,,TRUE,TRUE,,,,,,,OVC,4600,,,,,,,VFR,,,,,,,,,,,,SPECI,174.0
KEMV 210615Z AUTO 00000KT 10SM CLR M13/M15 A3055 RMK AO2,KEMV,2015-02-21T06:15:00Z,36.68,-77.48,-13.0,-15.0,0,0,,10.0,30.549213,,,TRUE,TRUE,,,,,,,CLR,,,,,,,,VFR,,,,,,,,,,,,SPECI,39.0
KELA 210615Z AUTO 19013G20KT 10SM OVC014 19/17 A2989 RMK AO2 T01890170,KELA,2015-02-21T06:15:00Z,29.6,-96.32,18.9,17.0,190,13,20,10.0,29.890747,,,TRUE,TRUE,,,,,,,OVC,1400,,,,,,,MVFR,,,,,,,,,,,,METAR,56.0
KE11 210615Z AUTO 26011KT 10SM CLR 16/M06 A2977 RMK AO2 T01641063,KE11,2015-02-21T06:15:00Z,32.33,-102.53,16.4,-6.3,260,11,,10.0,29.769686,,,TRUE,TRUE,,,,,,,CLR,,,,,,,,VFR,,,,,,,,,,,,SPECI,967.0
KD25 210615Z AUTO 25004KT 10SM -SN OVC013 M11/M13 A2976 RMK AO2 T11141130,KD25,2015-02-21T06:15:00Z,46.12,-89.88,-11.4,-13.0,250,4,,10.0,29.760826,,,TRUE,TRUE,,,,,,-SN,OVC,1300,,,,,,,MVFR,,,,,,,,,,,,SPECI,491.0
KCXE 210615Z AUTO 14004KT 10SM CLR M10/M16 A3046 RMK AO1 T11051158,KCXE,2015-02-21T06:15:00Z,36.78,-78.5,-10.5,-15.8,140,4,,10.0,30.46063,,,TRUE,TRUE,,,,,,,CLR,,,,,,,,VFR,,,,,,,,,,,,SPECI,153.0
KCKP 210615Z AUTO 00000KT 10SM OVC036 00/M03 A2982 RMK AO2 T10051026,KCKP,2015-02-21T06:15:00Z,42.73,-95.55,-0.5,-2.6,0,0,,10.0,29.819881,,,TRUE,TRUE,,,,,,,OVC,3600,,,,,,,VFR,,,,,,,,,,,,SPECI,374.0
KCJR 210615Z AUTO 00000KT 10SM OVC095 M14/M17 A3044 RMK AO2,KCJR,2015-02-21T06:15:00Z,38.53,-77.87,-14.0,-17.0,0,0,,10.0,30.43996,,,TRUE,TRUE,,,,,,,OVC,9500,,,,,,,VFR,,,,,,,,,,,,SPECI,97.0
KCBK 210615Z AUTO 31008KT 10SM CLR 00/M03 A2992 RMK AO2,KCBK,2015-02-21T06:15:00Z,39.43,-101.05,0.0,-3.0,310,8,,10.0,29.920275,,,TRUE,TRUE,,,,,,,CLR,,,,,,,,VFR,,,,,,,,,,,,SPECI,971.0
KC75 210615Z AUTO 17007KT 10SM OVC060 M07/M11 A2993 RMK AO2 T10661113,KC75,2015-02-21T06:15:00Z,41.02,-89.38,-6.6,-11.3,170,7,,10.0,29.929134,,,TRUE,TRUE,,,,,,,OVC,6000,,,,,,,VFR,,,,,,,,,,,,SPECI,173.0
KBQP 210615Z AUTO 17016G21KT 10SM -RA BKN060 OVC085 14/11 A2992 RMK AO2 T01420111,KBQP,2015-02-21T06:15:00Z,32.75,-91.88,14.2,11.1,170,16,21,10.0,29.920275,,,TRUE,TRUE,,,,,,-RA,BKN,6000,OVC,8500,,,,,VFR,,,,,,,,,,,,SPECI,51.0
KBQK 210615Z AUTO 00000KT 10SM CLR 00/00 A3042 RMK AO1,KBQK,2015-02-21T06:15:00Z,31.25,-81.47,0.0,0.0,0,0,,10.0,30.41929,,,TRUE,TRUE,,,,,,,CLR,,,,,,,,VFR,,,,,,,,,,,,SPECI,8.0
KBMC 210615Z AUTO 31003KT 10SM SCT046 BKN050 OVC070 04/M01 A3002 RMK AO1 T00361012,KBMC,2015-02-21T06:15:00Z,41.55,-112.07,3.6,-1.2,310,3,,10.0,30.02067,,,TRUE,TRUE,,,,,,,SCT,4600,BKN,5000,OVC,7000,,,VFR,,,,,,,,,,,,SPECI,1288.0
KARV 210615Z AUTO 00000KT 10SM SCT013 BKN025 OVC031 M10/M12 A2976 RMK AO2 T11001120,KARV,2015-02-21T06:15:00Z,45.92,-89.72,-10.0,-12.0,0,0,,10.0,29.760826,,,TRUE,TRUE,,,,,,,SCT,1300,BKN,2500,OVC,3100,,,MVFR,,,,,,,,,,,,SPECI,496.0
KAQR 210615Z AUTO 14005KT 10SM BKN029 10/09 A2968 RMK AO2,KAQR,2015-02-21T06:15:00Z,34.4,-96.15,10.0,9.0,140,5,,10.0,29.681103,,,TRUE,TRUE,,,,,,,BKN,2900,,,,,,,MVFR,,,,,,,,,,,,SPECI,189.0
KAFO 210615Z AUTO 00000KT 10SM SCT038 BKN050 OVC060 M03/M06 A2997 RMK AO2,KAFO,2015-02-21T06:15:00Z,42.72,-110.95,-3.0,-6.0,0,0,,10.0,29.970472,,,TRUE,TRUE,,,,,,,SCT,3800,BKN,5000,OVC,6000,,,VFR,,,,,,,,,,,,SPECI,1897.0
K9V9 210615Z AUTO 05005KT 7SM -SN SCT016 BKN029 OVC048 M01/M02 A2989 RMK AO2 T10071020,K9V9,2015-02-21T06:15:00Z,43.77,-99.32,-0.7,-2.0,50,5,,7.0,29.890747,,,TRUE,TRUE,,,,,,-SN,SCT,1600,BKN,2900,OVC,4800,,,MVFR,,,,,,,,,,,,SPECI,519.0
K8A0 210615Z AUTO 13007G14KT 109V189 10SM OVC033 00/M06 A3017 RMK AO2,K8A0,2015-02-21T06:15:00Z,34.23,-86.25,0.0,-6.0,130,7,14,10.0,30.171259,,,TRUE,TRUE,,,,,,,OVC,3300,,,,,,,VFR,,,,,,,,,,,,SPECI,315.0
K7L2 210615Z AUTO 36006KT 10SM -SN OVC016 M07/M07 A2994 RMK AO2,K7L2,2015-02-21T06:15:00Z,46.22,-100.25,-7.0,-7.0,360,6,,10.0,29.940945,,,TRUE,TRUE,,,,,,-SN,OVC,1600,,,,,,,MVFR,,,,,,,,,,,,SPECI,543.0
K5R8 210615Z AUTO 17013KT 10SM BKN060 OVC075 18/16 A2997 RMK AO2 T01800157,K5R8,2015-02-21T06:15:00Z,30.43,-93.47,18.0,15.7,170,13,,10.0,29.970472,,,TRUE,TRUE,,,,,,,BKN,6000,OVC,7500,,,,,VFR,,,,,,,,,,,,SPECI,24.0
K5H4 210615Z AUTO 04010KT 7SM -SN SCT004 BKN011 OVC016 M13/M15 A3001 RMK AO2,K5H4,2015-02-21T06:15:00Z,47.78,-99.93,-13.0,-15.0,40,10,,7.0,30.008858,,,TRUE,TRUE,,,,,,-SN,SCT,400,BKN,1100,OVC,1600,,,MVFR,,,,,,,,,,,,SPECI,490.0
K3K3 210615Z AUTO 02006KT 10SM CLR 00/M02 A2991 RMK AO2,K3K3,2015-02-21T06:15:00Z,38.0,-101.75,0.0,-2.0,20,6,,10.0,29.911417,,,TRUE,TRUE,,,,,,,CLR,,,,,,,,VFR,,,,,,,,,,,,METAR,1013.0
K20U 210615Z AUTO 36015KT 8SM -SN BKN010 BKN014 OVC021 M07/M08 A2998 RMK AO2,K20U,2015-02-21T06:15:00Z,46.93,-103.98,-7.0,-8.0,360,15,,8.0,29.97933,,,TRUE,TRUE,,,,,,-SN,BKN,1000,BKN,1400,OVC,2100,,,MVFR,,,,,,,,,,,,SPECI,840.0
KTFP 210615Z AUTO 17015G20KT 7SM SCT007 BKN016 OVC033 18/16 A2988 RMK AO2 T01750163,KTFP,2015-02-21T06:15:00Z,27.92,-97.22,17.5,16.3,170,15,20,7.0,29.878937,,,TRUE,TRUE,,,,,,,SCT,700,BKN,1600,OVC,3300,,,MVFR,,,,,,,,,,,,SPECI,6.0
KTDF 210615Z AUTO 15003KT 10SM CLR M08/M17 A3048 RMK AO2,KTDF,2015-02-21T06:15:00Z,36.28,-78.98,-8.0,-17.0,150,3,,10.0,30.481298,,,TRUE,TRUE,,,,,,,CLR,,,,,,,,VFR,,,,,,,,,,,,SPECI,186.0
KTAZ 210615Z AUTO 16005KT 3SM -SN SCT009 OVC020 M05/M06 A2994 RMK AO2,KTAZ,2015-02-21T06:15:00Z,39.53,-89.33,-5.0,-6.0,160,5,,3.0,29.940945,,,TRUE,TRUE,,,,,,-SN,SCT,900,OVC,2000,,,,,MVFR,,,,,,,,,,,,SPECI,190.0
KT65 210615Z AUTO 17016G22KT 10SM BKN012 BKN018 OVC026 20/17 A2987 RMK AO2 T01960170,KT65,2015-02-21T06:15:00Z,26.18,-97.97,19.6,17.0,170,16,22,10.0,29.870079,,,TRUE,TRUE,,,,,,,BKN,1200,BKN,1800,OVC,2600,,,MVFR,,,,,,,,,,,,SPECI,21.0
KT35 210615Z AUTO 19023G32KT 10SM OVC023 20/16 A2980 RMK AO2 T01990156,KT35,2015-02-21T06:15:00Z,30.88,-96.97,19.9,15.6,190,23,32,10.0,29.799213,,,TRUE,TRUE,,,,,,,OVC,2300,,,,,,,MVFR,,,,,,,,,,,,SPECI,123.0
KSYF 210615Z AUTO 35004KT 10SM SCT055 BKN065 01/M03 A2993 RMK AO2 T00091028,KSYF,2015-02-21T06:15:00Z,39.77,-101.8,0.9,-2.8,350,4,,10.0,29.929134,,,TRUE,TRUE,,,,,,,SCT,5500,BKN,6500,,,,,VFR,,,,,,,,,,,,SPECI,1025.0
KSWW 210615Z AUTO 21013KT 10SM CLR 18/02 A2974 RMK AO2 T01830017,KSWW,2015-02-21T06:15:00Z,32.47,-100.47,18.3,1.7,210,13,,10.0,29.740158,,,TRUE,TRUE,,,,,,,CLR,,,,,,,,VFR,,,,,,,,,,,,SPECI,727.0
KSVH 210615Z AUTO 00000KT 10SM CLR M05/M15 A3038 RMK AO2 T10481154,KSVH,2015-02-21T06:15:00Z,35.75,-80.95,-4.8,-15.4,0,0,,10.0,30.380905,,,TRUE,TRUE,,,,,,,CLR,,,,,,,,VFR,,,,,,,,,,,,SPECI,294.0
KSOA 210615Z AUTO 19004KT 10SM CLR 17/10 A2983 RMK AO2,KSOA,2015-02-21T06:15:00Z,30.58,-100.65,17.0,10.0,190,4,,10.0,29.828741,,,TRUE,TRUE,,,,,,,CLR,,,,,,,,VFR,,,,,,,,,,,,SPECI,652.0
KSNK 210615Z AUTO 25006KT 10SM CLR 15/M02 A2972 RMK AO2 T01471023 TSNO,KSNK,2015-02-21T06:15:00Z,32.7,-100.95,14.7,-2.3,250,6,,10.0,29.719488,,,TRUE,TRUE,,,TRUE,,,,CLR,,,,,,,,VFR,,,,,,,,,,,,SPECI,741.0
KSME 210615Z AUTO 17005KT 5SM UP SCT010 BKN014 OVC028 M01/M01 A3012 RMK AO2 P0001,KSME,2015-02-21T06:15:00Z,37.05,-84.62,-1.0,-1.0,170,5,,5.0,30.121063,,,TRUE,TRUE,,,,,,UP,SCT,1000,BKN,1400,OVC,2800,,,MVFR,,,,,,0.01,,,,,,SPECI,283.0
KSLB 210615Z AUTO 36007KT 10SM OVC037 M00/M03 A2981 RMK AO2,KSLB,2015-02-21T06:15:00Z,42.6,-95.22,0.0,-3.0,360,7,,10.0,29.811024,,,TRUE,TRUE,,,,,,,OVC,3700,,,,,,,VFR,,,,,,,,,,,,SPECI,454.0
KSHL 210615Z AUTO 02011KT 7SM OVC007 M00/M00 A2983 RMK AO2,KSHL,2015-02-21T06:15:00Z,43.22,-95.82,0.0,0.0,20,11,,7.0,29.828741,,,TRUE,TRUE,,,,,,,OVC,700,,,,,,,IFR,,,,,,,,,,,,SPECI,432.0
KSFQ 210615Z AUTO 00000KT 10SM CLR M15/M17 A3055 RMK AO2 T11461172,KSFQ,2015-02-21T06:15:00Z,36.68,-76.6,-14.6,-17.2,0,0,,10.0,30.549213,,,TRUE,TRUE,,,,,,,CLR,,,,,,,,VFR,,,,,,,,,,,,SPECI,22.0
KSEZ 210615Z AUTO 00000KT 10SM CLR 11/M01 A3000 RMK AO2,KSEZ,2015-02-21T06:15:00Z,34.85,-111.78,11.0,-1.0,0,0,,10.0,30.0,,,TRUE,TRUE,,,,,,,CLR,,,,,,,,VFR,,,,,,,,,,,,SPECI,1473.0
KSBO 210615Z AUTO 00000KT 10SM CLR 00/M07 A3042 RMK AO2,KSBO,2015-02-21T06:15:00Z,32.62,-82.37,0.0,-7.0,0,0,,10.0,30.41929,,,TRUE,TRUE,,,,,,,CLR,,,,,,,,VFR,,,,,,,,,,,,SPECI,100.0
KRUQ 210615Z AUTO 16006KT 10SM CLR M05/M15 A3041 RMK AO2 T10531150,KRUQ,2015-02-21T06:15:00Z,35.65,-80.52,-5.3,-15.0,160,6,,10.0,30.410433,,,TRUE,TRUE,,,,,,,CLR,,,,,,,,VFR,,,,,,,,,,,,SPECI,236.0
KRRL 210615Z AUTO 00000KT 5SM BR OVC015 M10/M12 A2980 RMK AO2 T11051120,KRRL,2015-02-21T06:15:00Z,45.2,-89.72,-10.5,-12.0,0,0,,5.0,29.799213,,,TRUE,TRUE,,,,,,BR,OVC,1500,,,,,,,MVFR,,,,,,,,,,,,SPECI,401.0
KRNH 210615Z AUTO 00000KT 10SM OVC021 M08/M09 A2983 RMK AO2 T10761094,KRNH,2015-02-21T06:15:00Z,45.15,-92.53,-7.6,-9.4,0,0,,10.0,29.828741,,,TRUE,TRUE,,,,,,,OVC,2100,,,,,,,MVFR,,,,,,,,,,,,SPECI,304.0
KRMN 210615Z AUTO 11003KT 10SM M16/M22 A3052 RMK AO2 T11561219,KRMN,2015-02-21T06:15:00Z,38.4,-77.45,-15.6,-21.9,110,3,,10.0,30.519686,,,TRUE,TRUE,,,,,,,,,,,,,,,,,,,,,,,,,,,SPECI,65.0
KRDK 210615Z AUTO 20003KT 10SM BKN130 BKN150 OVC180 M02/M05 A2985 RMK AO2,KRDK,2015-02-21T06:15:00Z,41.02,-95.27,-2.0,-5.0,200,3,,10.0,29.84941,,,TRUE,TRUE,,,,,,,BKN,13000,BKN,15000,OVC,18000,,,VFR,,,,,,,,,,,,SPECI,318.0
KRCR 210615Z AUTO 19004KT 4SM BR BKN009 OVC013 M07/M08 A3000 RMK AO2,KRCR,2015-02-21T06:15:00Z,41.07,-86.18,-7.0,-8.0,190,4,,4.0,30.0,,,TRUE,TRUE,,,,,,BR,BKN,900,OVC,1300,,,,,IFR,,,,,,,,,,,,SPECI,241.0
KRAS 210615Z AUTO 18014G18KT 5SM BR OVC019 17/17 A2989 RMK AO2 T01720165,KRAS,2015-02-21T06:15:00Z,27.82,-97.08,17.2,16.5,180,14,18,5.0,29.890747,,,TRUE,TRUE,,,,,,BR,OVC,1900,,,,,,,MVFR,,,,,,,,,,,,SPECI,2.0
KPXE 210615Z AUTO 12005KT 10SM CLR 01/M08 A3037 RMK AO2 T00051082,KPXE,2015-02-21T06:15:00Z,32.52,-83.77,0.5,-8.2,120,5,,10.0,30.369095,,,TRUE,TRUE,,,,,,,CLR,,,,,,,,VFR,,,,,,,,,,,,SPECI,127.0
KPVW 210615Z AUTO 36028G39KT 10SM CLR 10/03 A2977 RMK AO2 T01000028,KPVW,2015-02-21T06:15:00Z,34.17,-101.72,10.0,2.8,360,28,39,10.0,29.769686,,,TRUE,TRUE,,,,,,,CLR,,,,,,,,VFR,,,,,,,,,,,,SPECI,1028.0
KPVB 210615Z AUTO 15009KT 10SM BKN030 OVC039 M05/M08 A2984 RMK AO1 T10501085,KPVB,2015-02-21T06:15:00Z,42.68,-90.43,-5.0,-8.5,150,9,,10.0,29.840551,,,TRUE,TRUE,,,,,,,BKN,3000,OVC,3900,,,,,MVFR,,,,,,,,,,,,SPECI,313.0
KPTB 210615Z AUTO 00000KT 10SM CLR M14/M19 A3051 RMK AO2 T11401194,KPTB,2015-02-21T06:15:00Z,37.17,-77.52,-14.0,-19.4,0,0,,10.0,30.510826,,,TRUE,TRUE,,,,,,,CLR,,,,,,,,VFR,,,,,,,,,,,,SPECI,59.0
KPSK 210615Z AUTO 00000KT 10SM SCT060 M13/M18 A3027 RMK AO2 T11261181,KPSK,2015-02-21T06:15:00Z,37.12,-80.67,-12.6,-18.1,0,0,,10.0,30.268702,,,TRUE,TRUE,,,,,,,SCT,6000,,,,,,,VFR,,,,,,,,,,,,SPECI,642.0
KPRS 210615Z AUTO 28009KT 10SM CLR 20/M02 A2988 RMK AO2 T02041017,KPRS,2015-02-21T06:15:00Z,29.63,-104.35,20.4,-1.7,280,9,,10.0,29.878937,,,TRUE,TRUE,,,,,,,CLR,,,,,,,,VFR,,,,,,,,,,,,SPECI,896.0
KPRG 210615Z AUTO 13006KT 2SM -SN SCT010 BKN018 OVC031 M07/M09 A2997 RMK AO2 T10751086,KPRG,2015-02-21T06:15:00Z,39.7,-87.67,-7.5,-8.6,130,6,,2.0,29.970472,,,TRUE,TRUE,,,,,,-SN,SCT,1000,BKN,1800,OVC,3100,,,IFR,,,,,,,,,,,,SPECI,199.0
KPPA 210615Z AUTO 03017G25KT 10SM OVC041 05/M01 A2985 RMK AO2 T00521010,KPPA,2015-02-21T06:15:00Z,35.62,-101.0,5.2,-1.0,30,17,25,10.0,29.84941,,,TRUE,TRUE,,,,,,,OVC,4100,,,,,,,VFR,,,,,,,,,,,,SPECI,989.0
KPOY 210615Z AUTO 32005KT 7SM -SN SCT003 SCT011 BKN065 M02/M03 A2993 RMK AO2,KPOY,2015-02-21T06:15:00Z,44.87,-108.8,-2.0,-3.0,320,5,,7.0,29.929134,,,TRUE,TRUE,,,,,,-SN,SCT,300,SCT,1100,BKN,6500,,,VFR,,,,,,,,,,,,SPECI,1552.0
KPNT 210615Z AUTO 17008KT 10SM OVC055 M07/M10 A2994 RMK AO2 T10661101,KPNT,2015-02-21T06:15:00Z,40.92,-88.62,-6.6,-10.1,170,8,,10.0,29.940945,,,TRUE,TRUE,,,,,,,OVC,5500,,,,,,,VFR,,,,,,,,,,,,SPECI,201.0
KPLU 210615Z AUTO 00000KT 3SM -DZ OVC012 08/08 A3026 RMK AO2,KPLU,2015-02-21T06:15:00Z,47.1,-122.28,8.0,8.0,0,0,,3.0,30.259842,,,TRUE,TRUE,,,,,,-DZ,OVC,1200,,,,,,,MVFR,,,,,,,,,,,,SPECI,164.0
KPGV 210615Z AUTO 00000KT 10SM CLR M07/M13 A3055 RMK AO2,KPGV,2015-02-21T06:15:00Z,35.62,-77.4,-7.0,-13.0,0,0,,10.0,30.549213,,,TRUE,TRUE,,,,,,,CLR,,,,,,,,VFR,,,,,,,,,,,,SPECI,8.0
KHSP 210615Z AUTO 18012G17KT 10SM CLR M13/M21 A3009 RMK AO2 T11281207,KHSP,2015-02-21T06:15:00Z,37.95,-79.82,-12.8,-20.7,180,12,17,10.0,30.088583,,,TRUE,TRUE,,,,,,,CLR,,,,,,,,VFR,,,,,,,,,,,,METAR,1156.0
KHQI 210615Z AUTO 15032G39KT 8SM 21/17 A3000 RMK A01,KHQI,2015-02-21T06:15:00Z,27.93,-93.67,21.0,17.0,150,32,39,8.0,30.0,,,TRUE,TRUE,,,,,,,,,,,,,,,,,,,,,,,,,,,METAR,26.0
KHNR 210615Z AUTO 21007KT 10SM CLR M02/M03 A2985 RMK AO2,KHNR,2015-02-21T06:15:00Z,41.58,-95.33,-2.0,-3.0,210,7,,10.0,29.84941,,,TRUE,TRUE,,,,,,,CLR,,,,,,,,VFR,,,,,,,,,,,,METAR,375.0
KHJH 210615Z AUTO 24006KT 10SM SCT060 BKN095 BKN120 01/M02 A2988 RMK AO2 T00111022,KHJH,2015-02-21T06:15:00Z,40.15,-97.58,1.1,-2.2,240,6,,10.0,29.878937,,,TRUE,TRUE,,,,,,,SCT,6000,BKN,9500,BKN,12000,,,VFR,,,,,,,,,,,,METAR,447.0
KHHW 210615Z AUTO 12006KT 10SM OVC021 10/08 A2971 RMK AO2 T00970078,KHHW,2015-02-21T06:15:00Z,34.03,-95.55,9.7,7.8,120,6,,10.0,29.71063,,,TRUE,TRUE,,,,,,,OVC,2100,,,,,,,MVFR,,,,,,,,,,,,METAR,144.0
KHHV 210615Z AUTO 17027G37KT 6SM HZ CLR 21/17 A2997 RMK A01,KHHV,2015-02-21T06:15:00Z,26.93,-94.68,21.0,17.0,170,27,37,6.0,29.970472,,,TRUE,TRUE,,,,,,HZ,CLR,,,,,,,,VFR,,,,,,,,,,,,METAR,25.0
KH21 210615Z AUTO 00000KT 3SM UP OVC004 M01/M01 A2987 RMK AO2 LTG DSNT SW,KH21,2015-02-21T06:15:00Z,37.97,-92.68,-1.0,-1.0,0,0,,3.0,29.870079,,,TRUE,TRUE,,,,,,UP,OVC,400,,,,,,,LIFR,,,,,,,,,,,,METAR,324.0
KADM 210615Z AUTO 00000KT 7SM SCT025 08/07 A2964 RMK AO2 T00760071,KADM,2015-02-21T06:15:00Z,34.28,-97.02,7.6,7.1,0,0,,7.0,29.639763,,,TRUE,TRUE,,,,,,,SCT,2500,,,,,,,VFR,,,,,,,,,,,,METAR,232.0
KAIB 210615Z AUTO 10008KT 10SM SCT100 00/M13 A2997 RMK AO2,KAIB,2015-02-21T06:15:00Z,38.23,-108.57,0.0,-13.0,100,8,,10.0,29.970472,,,TRUE,TRUE,,,,,,,SCT,10000,,,,,,,VFR,,,,,,,,,,,,METAR,1811.0
KEXX 210615Z AUTO 17003KT 10SM CLR M05/M16 A3041 RMK AO2 T10551157,KEXX,2015-02-21T06:15:00Z,35.78,-80.3,-5.5,-15.7,170,3,,10.0,30.410433,,,TRUE,TRUE,,,,,,,CLR,,,,,,,,VFR,,,,,,,,,,,,METAR,223.0
KFOA 210615Z AUTO 11005KT 2 1/2SM -SN BKN006 OVC010 M03/M03 A2997 RMK AO2 P0003 T10301033,KFOA,2015-02-21T06:15:00Z,38.67,-88.45,-3.0,-3.3,110,5,,2.5,29.970472,,,TRUE,TRUE,,,,,,-SN,BKN,600,OVC,1000,,,,,IFR,,,,,,0.03,,,,,,METAR,144.0
KFKN 210615Z AUTO 00000KT 10SM CLR M13/M17 A3056 RMK AO2 T11261171,KFKN,2015-02-21T06:15:00Z,36.7,-76.9,-12.6,-17.1,0,0,,10.0,30.561024,,,TRUE,TRUE,,,,,,,CLR,,,,,,,,VFR,,,,,,,,,,,,METAR,12.0
KFIN 210615Z AUTO 00000KT 10SM CLR 01/00 A3040 RMK AO2 T00071003,KFIN,2015-02-21T06:15:00Z,29.47,-81.2,0.7,-0.3,0,0,,10.0,30.398623,,,TRUE,TRUE,,,,,,,CLR,,,,,,,,VFR,,,,,,,,,,,,METAR,10.0
KLVM 210614Z AUTO 12015G19KT 3/4SM -SN BR VV007 M01/M03 A2999 RMK AO2 P0001 T10111033,KLVM,2015-02-21T06:14:00Z,45.7,-110.43,-1.1,-3.3,120,15,19,0.75,29.991142,,,TRUE,TRUE,,,,,,-SN BR,OVX,0,,,,,,,LIFR,,,,,,0.01,,,,,700,SPECI,1418.0
KLND 210614Z AUTO 13003KT 10SM BKN009 OVC014 M02/M03 A2994 RMK AO2 T10171028,KLND,2015-02-21T06:14:00Z,42.82,-108.73,-1.7,-2.8,130,3,,10.0,29.940945,,,TRUE,TRUE,,,,,,,BKN,900,OVC,1400,,,,,IFR,,,,,,,,,,,,SPECI,1694.0
KHUF 210614Z 15008KT 4SM -SN SCT023 SCT032 OVC046 M07/M10 A2998 RMK AO2 P0001 T10721100,KHUF,2015-02-21T06:14:00Z,39.45,-87.3,-7.2,-10.0,150,8,,4.0,29.97933,,,,TRUE,,,,,,-SN,SCT,2300,SCT,3200,OVC,4600,,,MVFR,,,,,,0.01,,,,,,SPECI,179.0
KHFD 210614Z AUTO 00000KT 3SM BR FEW002 M18/M21 A3050 RMK AO2 T11831206,KHFD,2015-02-21T06:14:00Z,41.73,-72.65,-18.3,-20.6,0,0,,3.0,30.499016,,,TRUE,TRUE,,,,,,BR,FEW,200,,,,,,,MVFR,,,,,,,,,,,,SPECI,4.0
KFDR 210614Z AUTO 01023G30KT 2 1/2SM BR BKN004 08/07 A2963 RMK AO2 PK WND 01030/0612 T00830072,KFDR,2015-02-21T06:14:00Z,34.35,-98.98,8.3,7.2,10,23,30,2.5,29.630905,,,TRUE,TRUE,,,,,,BR,BKN,400,,,,,,,LIFR,,,,,,,,,,,,SPECI,386.0
PACZ 210614Z AUTO 08022G26KT 10SM SCT220 04/M01 A2957 RMK AO2 PK WND 10030/0558 WSHFT 0550 SLP020,PACZ,2015-02-21T06:14:00Z,61.78,-166.03,4.0,-1.0,80,22,26,10.0,29.568897,1002.0,,TRUE,TRUE,,,,,,,SCT,22000,,,,,,,VFR,,,,,,,,,,,,SPECI,146.0
KAQV 210614Z AUTO 18010G18KT 10SM BKN022 BKN050 OVC080 18/14 A2992 RMK AO2 T01780139,KAQV,2015-02-21T06:14:00Z,31.4,-93.3,17.8,13.9,180,10,18,10.0,29.920275,,,TRUE,TRUE,,,,,,,BKN,2200,BKN,5000,OVC,8000,,,MVFR,,,,,,,,,,,,SPECI,111.0
KHUA 210613Z AUTO 15013G23KT 10SM OVC029 00/M07 A3014 RMK AO2,KHUA,2015-02-21T06:13:00Z,34.68,-86.68,0.0,-7.0,150,13,23,10.0,30.138779,,,TRUE,TRUE,,,,,,,OVC,2900,,,,,,,MVFR,,,,,,,,,,,,METAR,209.0
KCSV 210613Z AUTO 18014G22KT 5SM -FZRA OVC022 M03/M06 A3012 RMK AO2 P0003 I1001 T10281056,KCSV,2015-02-21T06:13:00Z,35.95,-85.08,-2.8,-5.6,180,14,22,5.0,30.121063,,,TRUE,TRUE,,,,,,-FZRA,OVC,2200,,,,,,,MVFR,,,,,,0.03,,,,,,SPECI,570.0
KDMO 210613Z AUTO 17006KT 5SM -FZRA BR FEW005 BKN049 OVC055 M01/M03 A2988 RMK AO2 UPB0555E0556FZRAB0556SNE0555 P0000 I1000 T10111028,KDMO,2015-02-21T06:13:00Z,38.72,-93.17,-1.1,-2.8,170,6,,5.0,29.878937,,,TRUE,TRUE,,,,,,-FZRA BR,FEW,500,BKN,4900,OVC,5500,,,MVFR,,,,,,0.0050,,,,,,SPECI,274.0
KGGG 210613Z AUTO 18021G29KT 10SM SCT026 BKN035 OVC060 19/14 A2979 RMK AO2 PK WND 19029/0611 T01890139,KGGG,2015-02-21T06:13:00Z,32.38,-94.72,18.9,13.9,180,21,29,10.0,29.790354,,,TRUE,TRUE,,,,,,,SCT,2600,BKN,3500,OVC,6000,,,VFR,,,,,,,,,,,,SPECI,107.0
CYDF 210612Z 23017G29KT 15SM -SHSN BKN025 M09/M12 A2964 RMK SC6 SLP037,CYDF,2015-02-21T06:12:00Z,49.22,-57.4,-9.0,-12.0,230,17,29,15.0,29.639763,1003.7,,,,,,,,,-SHSN,BKN,2500,,,,,,,MVFR,,,,,,,,,,,,SPECI,22.0
ETOU 210612Z AUTO 19010KT 9999 OVC019 06/04 A2946 RMK AO2,ETOU,2015-02-21T06:12:00Z,50.03,8.32,6.0,4.0,190,10,,6.21,29.459646,,,TRUE,TRUE,,,,,,,OVC,1900,,,,,,,MVFR,,,,,,,,,,,,SPECI,141.0
KMHE 210612Z AUTO 34008KT 10SM BKN018 OVC080 M01/M04 A2991 RMK AO2 T10111039,KMHE,2015-02-21T06:12:00Z,43.77,-98.02,-1.1,-3.9,340,8,,10.0,29.911417,,,TRUE,TRUE,,,,,,,BKN,1800,OVC,8000,,,,,MVFR,,,,,,,,,,,,SPECI,397.0
KIAH 210612Z 18009KT 8SM SCT018 BKN030 OVC060 18/17 A2992 RMK AO2,KIAH,2015-02-21T06:12:00Z,30.0,-95.37,18.0,17.0,180,9,,8.0,29.920275,,,,TRUE,,,,,,,SCT,1800,BKN,3000,OVC,6000,,,MVFR,,,,,,,,,,,,SPECI,36.0
KSUS 210612Z AUTO 11003KT 3SM -FZDZPL FEW012 OVC032 M03/M04 A2991 RMK AO2 P0001,KSUS,2015-02-21T06:12:00Z,38.65,-90.65,-3.0,-4.0,110,3,,3.0,29.911417,,,TRUE,TRUE,,,,,,-FZDZ PL,FEW,1200,OVC,3200,,,,,MVFR,,,,,,0.01,,,,,,SPECI,141.0
CYXC 210612Z 11003KT 10SM -SHSN FEW010 SCT020 BKN040 OVC080 01/M01 A3010 RMK SF1SC3SC3AC2 SF TR CVCTV CLD EMBD SLP223,CYXC,2015-02-21T06:12:00Z,49.6,-115.77,1.0,-1.0,110,3,,10.0,30.100393,1022.3,,,,,,,,,-SHSN,FEW,1000,SCT,2000,BKN,4000,OVC,8000,VFR,,,,,,,,,,,,SPECI,939.0
PADU 210611Z AUTO 04003KT 2 1/2SM -RA BR FEW009 OVC015 05/04 A2916 RMK AO2 RAB03 P0000,PADU,2015-02-21T06:11:00Z,53.9,-166.53,5.0,4.0,40,3,,2.5,29.161417,,,TRUE,TRUE,,,,,,-RA BR,FEW,900,OVC,1500,,,,,IFR,,,,,,0.0050,,,,,,SPECI,4.0
PAPB 210611Z AUTO 06018KT 6SM UP BR OVC006 02/02 A2928 RMK AO2 CIG 004V009 P0000 T00220017 TSNO $,PAPB,2015-02-21T06:11:00Z,56.58,-169.67,2.2,1.7,60,18,,6.0,29.279528,,,TRUE,TRUE,TRUE,,TRUE,,,BR UP,OVC,600,,,,,,,IFR,,,,,,0.0050,,,,,,SPECI,35.0
KO86 210610Z AUTO 00000KT 10SM CLR 08/00 A3009 RMK AO1,KO86,2015-02-21T06:10:00Z,40.98,-122.7,8.0,0.0,0,0,,10.0,30.088583,,,TRUE,TRUE,,,,,,,CLR,,,,,,,,VFR,,,,,,,,,,,,METAR,729.0
K6I2 210610Z AUTO 16009G15KT 1 3/4SM UP SCT005 BKN017 OVC023 00/M01 A3006 RMK AO2,K6I2,2015-02-21T06:10:00Z,37.63,-85.25,0.0,-1.0,160,9,15,1.75,30.059055,,,TRUE,TRUE,,,,,,UP,SCT,500,BKN,1700,OVC,2300,,,IFR,,,,,,,,,,,,METAR,264.0
KECU 210610Z AUTO 17011KT 10SM CLR 17/11 A2984 RMK AO2,KECU,2015-02-21T06:10:00Z,29.95,-100.17,17.0,11.0,170,11,,10.0,29.840551,,,TRUE,TRUE,,,,,,,CLR,,,,,,,,VFR,,,,,,,,,,,,SPECI,725.0
KUNI 210610Z AUTO 00000KT 10SM BKN031 BKN049 BKN060 M13/M18 A3015 RMK AO2 T11321180,KUNI,2015-02-21T06:10:00Z,39.22,-82.23,-13.2,-18.0,0,0,,10.0,30.15059,,,TRUE,TRUE,,,,,,,BKN,3100,BKN,4900,BKN,6000,,,VFR,,,,,,,,,,,,METAR,193.0
KMRJ 210610Z AUTO 16005KT 10SM -SN OVC034 M05/M09 A2983 RMK AO2,KMRJ,2015-02-21T06:10:00Z,42.88,-90.23,-5.0,-9.0,160,5,,10.0,29.828741,,,TRUE,TRUE,,,,,,-SN,OVC,3400,,,,,,,VFR,,,,,,,,,,,,METAR,359.0
FAPE 210610Z 25018KT CAVOK 19/14 Q1013 NOSIG,FAPE,2015-02-21T06:10:00Z,-33.97,25.6,19.0,14.0,250,18,,6.21,29.911417,,,,,,TRUE,,,,,CAVOK,,,,,,,,VFR,,,,,,,,,,,,METAR,60.0
ENDR 210610Z 21029KT 9999 BKN010 04/04 Q0980,ENDR,2015-02-21T06:10:00Z,64.35,7.8,4.0,4.0,210,29,,6.21,28.937008,,,,,,,,,,,BKN,1000,,,,,,,MVFR,,,,,,,,,,,,METAR,50.0
VOTV 210610Z 17005KT 8000 FEW015 32/20 Q1012 NOSIG,VOTV,2015-02-21T06:10:00Z,8.47,76.95,32.0,20.0,170,5,,4.97,29.88189,,,,,,TRUE,,,,,FEW,1500,,,,,,,MVFR,,,,,,,,,,,,METAR,8.0
VOTR 210610Z 08006KT 5000 HZ SCT018 29/19 Q1014 NOSIG,VOTR,2015-02-21T06:10:00Z,10.77,78.72,29.0,19.0,80,6,,3.11,29.940945,,,,,,TRUE,,,,HZ,SCT,1800,,,,,,,MVFR,,,,,,,,,,,,METAR,88.0
VOMM 210610Z 09008KT 8000 NSC 31/18 Q1014 NOSIG,VOMM,2015-02-21T06:10:00Z,13.0,80.17,31.0,18.0,90,8,,4.97,29.940945,,,,,,TRUE,,,,,,,,,,,,,,,,,,,,,,,,,SPECI,16.0
VOHS 210610Z 11006KT 6000 FEW020 31/07 Q1018 NOSIG,VOHS,2015-02-21T06:10:00Z,17.23,78.43,31.0,7.0,110,6,,3.73,30.059055,,,,,,TRUE,,,,,FEW,2000,,,,,,,MVFR,,,,,,,,,,,,METAR,1.0
VABB 210610Z 06009KT 4000 FU NSC 34/11 Q1013 NOSIG,VABB,2015-02-21T06:10:00Z,19.1,72.87,34.0,11.0,60,9,,2.49,29.911417,,,,,,TRUE,,,,FU,,,,,,,,,,,,,,,,,,,,,SPECI,8.0
VAAH 210610Z 08004KT 5000 FU NSC 33/14 Q1015 NOSIG,VAAH,2015-02-21T06:10:00Z,23.07,72.62,33.0,14.0,80,4,,3.11,29.970472,,,,,,TRUE,,,,FU,,,,,,,,,,,,,,,,,,,,,SPECI,55.0
K8S0 210610Z 01004KT ,K8S0,2015-02-21T06:10:00Z,48.6,-113.12,,,10,4,,,,,,,,,,,,,,,,,,,,,,,,,,,,,,,,,,METAR,1419.0
KEGV 210610Z AUTO 24004KT 10SM -SN OVC013 M11/M14 A2975 RMK AO2 T11131138,KEGV,2015-02-21T06:10:00Z,45.93,-89.27,-11.3,-13.8,240,4,,10.0,29.749016,,,TRUE,TRUE,,,,,,-SN,OVC,1300,,,,,,,MVFR,,,,,,,,,,,,METAR,500.0
KDLL 210610Z AUTO 00000KT 10SM OVC048 M07/M11 A2984 RMK AO2 T10681114,KDLL,2015-02-21T06:10:00Z,43.52,-89.77,-6.8,-11.4,0,0,,10.0,29.840551,,,TRUE,TRUE,,,,,,,OVC,4800,,,,,,,VFR,,,,,,,,,,,,METAR,299.0
KDKR 210610Z AUTO 18011G19KT 10SM BKN022 BKN030 21/17 A2988 RMK AO2,KDKR,2015-02-21T06:10:00Z,31.3,-95.4,21.0,17.0,180,11,19,10.0,29.878937,,,TRUE,TRUE,,,,,,,BKN,2200,BKN,3000,,,,,MVFR,,,,,,,,,,,,METAR,106.0
KCPC 210610Z AUTO 00000KT 10SM CLR M04/M14 A3051 RMK AO2 T10401138,KCPC,2015-02-21T06:10:00Z,34.28,-78.72,-4.0,-13.8,0,0,,10.0,30.510826,,,TRUE,TRUE,,,,,,,CLR,,,,,,,,VFR,,,,,,,,,,,,METAR,29.0
KCCY 210610Z AUTO 21003KT 10SM OVC046 M03/M06 A2982 RMK AO2,KCCY,2015-02-21T06:10:00Z,43.07,-92.62,-3.0,-6.0,210,3,,10.0,29.819881,,,TRUE,TRUE,,,,,,,OVC,4600,,,,,,,VFR,,,,,,,,,,,,METAR,343.0
KAQO 210610Z AUTO 19006KT 10SM BKN020 18/15 A2982 RMK AO2,KAQO,2015-02-21T06:10:00Z,30.78,-98.67,18.0,15.0,190,6,,10.0,29.819881,,,TRUE,TRUE,,,,,,,BKN,2000,,,,,,,MVFR,,,,,,,,,,,,METAR,336.0
KETB 210610Z AUTO 20004KT 10SM OVC044 M07/M13 A2988 RMK AO2,KETB,2015-02-21T06:10:00Z,43.42,-88.13,-7.0,-13.0,200,4,,10.0,29.878937,,,TRUE,TRUE,,,,,,,OVC,4400,,,,,,,VFR,,,,,,,,,,,,METAR,270.0
CYYN 210610Z AUTO 35010KT 2SM -SN FEW010 OVC017 M10/M11 A3012 RMK VIS VRB 1 1/2-3 SLP243,CYYN,2015-02-21T06:10:00Z,50.27,-107.67,-10.0,-11.0,350,10,,2.0,30.121063,1024.3,,TRUE,,,,,,,-SN,FEW,1000,OVC,1700,,,,,IFR,,,,,,,,,,,,SPECI,818.0
KTUP 210610Z AUTO 17008KT 10SM BKN025 OVC085 02/M03 A3002 RMK AO2 FZRAE04 P0000 I1000 T00221028,KTUP,2015-02-21T06:10:00Z,34.27,-88.77,2.2,-2.8,170,8,,10.0,30.02067,,,TRUE,TRUE,,,,,,,BKN,2500,OVC,8500,,,,,MVFR,,,,,,0.0050,,,,,,SPECI,105.0
KSCK 210610Z AUTO 13005KT 2 1/2SM BR CLR 08/08 A2998 RMK AO2,KSCK,2015-02-21T06:10:00Z,37.88,-121.22,8.0,8.0,130,5,,2.5,29.97933,,,TRUE,TRUE,,,,,,BR,CLR,,,,,,,,IFR,,,,,,,,,,,,SPECI,10.0
KPQL 210610Z AUTO 15014G21KT 10SM BKN028 OVC035 15/11 A3017 RMK AO2 T01500106 TSNO,KPQL,2015-02-21T06:10:00Z,30.47,-88.53,15.0,10.6,150,14,21,10.0,30.171259,,,TRUE,TRUE,,,TRUE,,,,BKN,2800,OVC,3500,,,,,MVFR,,,,,,,,,,,,SPECI,6.0
KMYF 210610Z AUTO 00000KT 8SM BKN018 15/11 A2998 RMK AO2 T01500106 TSNO,KMYF,2015-02-21T06:10:00Z,32.82,-117.13,15.0,10.6,0,0,,8.0,29.97933,,,TRUE,TRUE,,,TRUE,,,,BKN,1800,,,,,,,MVFR,,,,,,,,,,,,SPECI,136.0
KIND 210610Z 13005KT 1/2SM R05L/3500V5000FT SN FZFG VV011 M09/M11 A3000 RMK AO2 P0002 T10891111,KIND,2015-02-21T06:10:00Z,39.72,-86.3,-8.9,-11.1,130,5,,0.5,30.0,,,,TRUE,,,,,,SN FZFG,OVX,0,,,,,,,LIFR,,,,,,0.02,,,,,1100,SPECI,241.0
KHJO 210610Z AUTO 00000KT 1 1/2SM BR OVC004 11/10 A3003 RMK AO2 T01110100,KHJO,2015-02-21T06:10:00Z,36.32,-119.62,11.1,10.0,0,0,,1.5,30.029528,,,TRUE,TRUE,,,,,,BR,OVC,400,,,,,,,LIFR,,,,,,,,,,,,SPECI,74.0
KGFK 210610Z AUTO 35017KT 10SM FEW011 OVC090 M13/M18 A3002 RMK AO2 TSNO,KGFK,2015-02-21T06:10:00Z,47.95,-97.18,-13.0,-18.0,350,17,,10.0,30.02067,,,TRUE,TRUE,,,TRUE,,,,FEW,1100,OVC,9000,,,,,VFR,,,,,,,,,,,,SPECI,258.0
KCOU 210610Z AUTO 14005KT 4SM -SN BR SCT005 BKN013 OVC033 M03/M04 A2986 RMK AO2 UPE06SNB06 P0001 T10281039 $,KCOU,2015-02-21T06:10:00Z,38.82,-92.22,-2.8,-3.9,140,5,,4.0,29.861221,,,TRUE,TRUE,TRUE,,,,,-SN BR,SCT,500,BKN,1300,OVC,3300,,,MVFR,,,,,,0.01,,,,,,SPECI,271.0
SBRB 210610Z 29007KT 5000 TSRA BKN005 BKN015 FEW020CB OVC100 21 /20 Q1011,SBRB,2015-02-21T06:10:00Z,-10.0,-67.78,,,290,7,,3.11,29.852362,,,,,,,,,,TSRA,BKN,500,BKN,1500,FEW,2000,OVC,10000,IFR,,,,,,,,,,,,METAR,143.0
KSPW 210609Z AUTO 36008KT 8SM BKN009 OVC018 00/M02 A2983 RMK AO2 T00001022 TSNO,KSPW,2015-02-21T06:09:00Z,43.17,-95.22,0.0,-2.2,360,8,,8.0,29.828741,,,TRUE,TRUE,,,TRUE,,,,BKN,900,OVC,1800,,,,,IFR,,,,,,,,,,,,METAR,403.0
CYYT 210609Z 23013G19KT 15SM -SHSN SCT015 OVC050 M03/M04 A2984 RMK SC3SC5 SLP113,CYYT,2015-02-21T06:09:00Z,47.62,-52.72,-3.0,-4.0,230,13,19,15.0,29.840551,1011.3,,,,,,,,,-SHSN,SCT,1500,OVC,5000,,,,,VFR,,,,,,,,,,,,METAR,140.0
KBIS 210609Z AUTO 01009KT 10SM BKN021 OVC043 M07/M10 A2997 RMK AO2 T10721100,KBIS,2015-02-21T06:09:00Z,46.77,-100.75,-7.2,-10.0,10,9,,10.0,29.970472,,,TRUE,TRUE,,,,,,,BKN,2100,OVC,4300,,,,,MVFR,,,,,,,,,,,,METAR,505.0
KIAB 210608Z AUTO 01009KT 10SM OVC005 02/01 A2986 RMK AO2,KIAB,2015-02-21T06:08:00Z,37.62,-97.27,2.0,1.0,10,9,,10.0,29.861221,,,TRUE,TRUE,,,,,,,OVC,500,,,,,,,IFR,,,,,,,,,,,,SPECI,418.0
YPMQ 210608Z AUTO 10007KT 9999 // SCT009 SCT019 BKN025 22/21 Q1013,YPMQ,2015-02-21T06:08:00Z,-31.43,152.87,22.0,21.0,100,7,,6.21,29.911417,,,TRUE,,,,,,,,SCT,900,SCT,1900,BKN,2500,,,MVFR,,,,,,,,,,,,SPECI,4.0
TIST 210608Z 09006KT 3SM RA BR SCT012 BKN026 OVC031 23/23 A3006 RMK AO2 P0012 T02280228,TIST,2015-02-21T06:08:00Z,18.33,-64.98,22.8,22.8,90,6,,3.0,30.059055,,,,TRUE,,,,,,RA BR,SCT,1200,BKN,2600,OVC,3100,,,MVFR,,,,,,0.12,,,,,,SPECI,7.0
KSHN 210608Z AUTO 00000KT 10SM OVC015 08/06 A3024 RMK AO2 T00780061,KSHN,2015-02-21T06:08:00Z,47.23,-123.13,7.8,6.1,0,0,,10.0,30.239174,,,TRUE,TRUE,,,,,,,OVC,1500,,,,,,,MVFR,,,,,,,,,,,,METAR,82.0
KLVJ 210608Z AUTO 17011G25KT 9SM BKN021 BKN026 OVC032 20/17 A2994 RMK AO2 T02000167,KLVJ,2015-02-21T06:08:00Z,29.52,-95.25,20.0,16.7,170,11,25,9.0,29.940945,,,TRUE,TRUE,,,,,,,BKN,2100,BKN,2600,OVC,3200,,,MVFR,,,,,,,,,,,,METAR,12.0
KIRK 210607Z AUTO 00000KT 3SM -SN BR OVC011 M02/M03 A2987 RMK AO2 P0000 T10171028,KIRK,2015-02-21T06:07:00Z,40.1,-92.55,-1.7,-2.8,0,0,,3.0,29.870079,,,TRUE,TRUE,,,,,,-SN BR,OVC,1100,,,,,,,MVFR,,,,,,0.0050,,,,,,METAR,293.0
KNZY 210607Z AUTO 18003KT 10SM OVC023 15/12 A2996 RMK AO2 T01500117 $,KNZY,2015-02-21T06:07:00Z,32.7,-117.22,15.0,11.7,180,3,,10.0,29.958662,,,TRUE,TRUE,TRUE,,,,,,OVC,2300,,,,,,,MVFR,,,,,,,,,,,,SPECI,8.0
KHUT 210606Z AUTO 36009KT 7SM OVC005 02/01 A2988 RMK AO2 UPE0555 P0000 T00220011 $,KHUT,2015-02-21T06:06:00Z,38.07,-97.87,2.2,1.1,360,9,,7.0,29.878937,,,TRUE,TRUE,TRUE,,,,,,OVC,500,,,,,,,IFR,,,,,,0.0050,,,,,,METAR,467.0
KFFT 210606Z AUTO 17005KT 10SM OVC011 M03/M06 A3003 RMK AO2 FZRAE00 P0000 I1000 T10281056,KFFT,2015-02-21T06:06:00Z,38.18,-84.9,-2.8,-5.6,170,5,,10.0,30.029528,,,TRUE,TRUE,,,,,,,OVC,1100,,,,,,,MVFR,,,,,,0.0050,,,,,,METAR,236.0
KBMI 210606Z AUTO 18008KT 2 1/2SM -SN BR BKN002 M08/M09 A2993 RMK AO2 BKN V SCT P0000,KBMI,2015-02-21T06:06:00Z,40.47,-88.92,-8.0,-9.0,180,8,,2.5,29.929134,,,TRUE,TRUE,,,,,,-SN BR,BKN,200,,,,,,,LIFR,,,,,,0.0050,,,,,,METAR,267.0
CYKP 210606Z AUTO 01008KT 6SM -SN OVC040 M19/M21 A2980 RMK SLP109,CYKP,2015-02-21T06:06:00Z,51.67,-85.9,-19.0,-21.0,10,8,,6.0,29.799213,1010.9,,TRUE,,,,,,,-SN,OVC,4000,,,,,,,VFR,,,,,,,,,,,,SPECI,179.0
KY50 210605Z AUTO 00000KT 10SM OVC028 M11/M13 A2986 RMK AO2 TSNO,KY50,2015-02-21T06:05:00Z,44.03,-89.3,-11.0,-13.0,0,0,,10.0,29.861221,,,TRUE,TRUE,,,TRUE,,,,OVC,2800,,,,,,,MVFR,,,,,,,,,,,,SPECI,262.0
KCTB 210605Z AUTO 01010KT 10SM SCT016 OVC100 M06/M08 A3017 RMK AO2 T10561078,KCTB,2015-02-21T06:05:00Z,48.6,-112.37,-5.6,-7.8,10,10,,10.0,30.171259,,,TRUE,TRUE,,,,,,,SCT,1600,OVC,10000,,,,,VFR,,,,,,,,,,,,SPECI,1175.0
PHTO 210605Z 01004KT 10SM SCT029 BKN049 25/21 A2997 RMK AO2 T02500206 $,PHTO,2015-02-21T06:05:00Z,19.72,-155.05,25.0,20.6,10,4,,10.0,29.970472,,,,TRUE,TRUE,,,,,,SCT,2900,BKN,4900,,,,,VFR,,,,,,,,,,,,SPECI,12.0
KMEH 210605Z AUTO 00000KT 4SM -SN BR BKN009 OVC013 01/00 A3010 RMK AO2 RAB04E05 CIG 007V011 P0001 T00060000,KMEH,2015-02-21T06:05:00Z,45.52,-118.42,0.6,0.0,0,0,,4.0,30.100393,,,TRUE,TRUE,,,,,,-SN BR,BKN,900,OVC,1300,,,,,IFR,,,,,,0.01,,,,,,SPECI,1136.0
CYEK 210605Z AUTO 35018G24KT 5/8SM -SN SCT005 M34/M38 A3023 RMK SLP239,CYEK,2015-02-21T06:05:00Z,61.1,-94.07,-34.0,-38.0,350,18,24,0.63,30.230314,1023.9,,TRUE,,,,,,,-SN,SCT,500,,,,,,,LIFR,,,,,,,,,,,,SPECI,10.0
KCFE 210605Z AUTO 30011KT 10SM OVC014 M06/M09 A2985 RMK AO2,KCFE,2015-02-21T06:05:00Z,45.17,-93.85,-6.0,-9.0,300,11,,10.0,29.84941,,,TRUE,TRUE,,,,,,,OVC,1400,,,,,,,MVFR,,,,,,,,,,,,METAR,295.0
MUCL 210605Z AUTO 06016KT 19/13 Q1021,MUCL,2015-02-21T06:05:00Z,21.63,-81.55,19.0,13.0,60,16,,,30.147638,,,TRUE,,,,,,,,,,,,,,,,,,,,,,,,,,,,METAR,5.0
KADF 210604Z AUTO 01003KT 3SM BR BKN004 OVC030 04/04 A2982 RMK AO2,KADF,2015-02-21T06:04:00Z,34.1,-93.07,4.0,4.0,10,3,,3.0,29.819881,,,TRUE,TRUE,,,,,,BR,BKN,400,OVC,3000,,,,,LIFR,,,,,,,,,,,,METAR,56.0
KBRL 210604Z AUTO 19008KT 9SM OVC029 M04/M06 A2991 RMK AO2 T10391056,KBRL,2015-02-21T06:04:00Z,40.77,-91.13,-3.9,-5.6,190,8,,9.0,29.911417,,,TRUE,TRUE,,,,,,,OVC,2900,,,,,,,MVFR,,,,,,,,,,,,SPECI,211.0
PGUA 210603Z AUTO 04018KT 10SM BKN020 BKN027 BKN033 27/20 A2988 RMK AO2 CIG 020V033 $,PGUA,2015-02-21T06:03:00Z,13.57,144.92,27.0,20.0,40,18,,10.0,29.878937,,,TRUE,TRUE,TRUE,,,,,,BKN,2000,BKN,2700,BKN,3300,,,MVFR,,,,,,,,,,,,SPECI,187.0
KSHV 210603Z 18015KT 10SM BKN027 OVC037 17/14 A2985 RMK AO2 T01720139,KSHV,2015-02-21T06:03:00Z,32.45,-93.83,17.2,13.9,180,15,,10.0,29.84941,,,,TRUE,,,,,,,BKN,2700,OVC,3700,,,,,MVFR,,,,,,,,,,,,METAR,83.0
KRVS 210603Z AUTO 35006KT 2SM BR OVC003 02/02 A2980 RMK AO2 LTG DSNT E T00220017,KRVS,2015-02-21T06:03:00Z,36.05,-95.98,2.2,1.7,350,6,,2.0,29.799213,,,TRUE,TRUE,,,,,,BR,OVC,300,,,,,,,LIFR,,,,,,,,,,,,METAR,200.0
YARG 210603Z AUTO 12015KT 9999 // SCT062 BKN070 OVC105 31/19 Q1003,YARG,2015-02-21T06:03:00Z,-16.63,128.45,31.0,19.0,120,15,,6.21,29.616142,,,TRUE,,,,,,,,SCT,6200,BKN,7000,OVC,10500,,,VFR,,,,,,,,,,,,SPECI,165.0
CBBC 210603Z AUTO 00000KT 2 1/4SM BR OVC002 01/01 A3038 RMK SLP290,CBBC,2015-02-21T06:03:00Z,52.18,-128.15,1.0,1.0,0,0,,2.25,30.380905,1029.0,,TRUE,,,,,,,BR,OVC,200,,,,,,,LIFR,,,,,,,,,,,,SPECI,43.0
CYMO 210602Z AUTO 19007KT 9SM FEW034 SCT110 SCT160 M19/M22 A2988 RMK SLP118,CYMO,2015-02-21T06:02:00Z,51.28,-80.62,-19.0,-22.0,190,7,,9.0,29.878937,1011.8,,TRUE,,,,,,,,FEW,3400,SCT,11000,SCT,16000,,,VFR,,,,,,,,,,,,SPECI,10.0
CYSC 210602Z AUTO VRB02KT 9SM OVC026 M24/M26 A3030 RMK SLP285,CYSC,2015-02-21T06:02:00Z,45.43,-71.68,-24.0,-26.0,0,2,,9.0,30.301182,1028.5,,TRUE,,,,,,,,OVC,2600,,,,,,,MVFR,,,,,,,,,,,,SPECI,241.0
KQSF 210602Z AUTO 12003KT 4000 -RA BR FEW005 SCT014 BKN019 BKN027 07/05 A3032 RMK AO2 SLP302,KQSF,2015-02-21T06:02:00Z,100.65,-1000.65,7.0,5.0,120,3,,2.49,30.318897,1030.2,,TRUE,TRUE,,,,,,-RA BR,FEW,500,SCT,1400,BKN,1900,BKN,2700,IFR,,,,,,,,,,,,SPECI,999.0
KLOZ 210602Z AUTO VRB06KT 7SM -FZRA FEW009 OVC043 M01/M04 A3011 RMK AO2 P0001 I1000 T10111039,KLOZ,2015-02-21T06:02:00Z,37.08,-84.07,-1.1,-3.9,0,6,,7.0,30.109253,,,TRUE,TRUE,,,,,,-FZRA,FEW,900,OVC,4300,,,,,VFR,,,,,,0.01,,,,,,METAR,362.0
DGAA 210601Z 28006KT CAVOK 25/24 Q1009 NOSIG,DGAA,2015-02-21T06:01:00Z,5.58,-0.17,25.0,24.0,280,6,,6.21,29.793306,,,,,,TRUE,,,,,CAVOK,,,,,,,,VFR,,,,,,,,,,,,METAR,69.0
KRRT 210601Z AUTO 29007KT 10SM OVC029 M17/M19 A2994 RMK AO2,KRRT,2015-02-21T06:01:00Z,48.93,-95.33,-17.0,-19.0,290,7,,10.0,29.940945,,,TRUE,TRUE,,,,,,,OVC,2900,,,,,,,MVFR,,,,,,,,,,,,METAR,327.0
RODN 210601Z AUTO 18011KT 10SM SCT041 22/12 A3007 RMK AO2 WSHFT 0550,RODN,2015-02-21T06:01:00Z,26.35,127.77,22.0,12.0,180,11,,10.0,30.070866,,,TRUE,TRUE,,,,,,,SCT,4100,,,,,,,VFR,,,,,,,,,,,,METAR,45.0
KRST 210601Z AUTO 26006KT 7SM SCT026 SCT080 M07/M09 A2980 RMK AO2 T10671089,KRST,2015-02-21T06:01:00Z,43.9,-92.5,-6.7,-8.9,260,6,,7.0,29.799213,,,TRUE,TRUE,,,,,,,SCT,2600,SCT,8000,,,,,VFR,,,,,,,,,,,,METAR,403.0
PAIK 210601Z AUTO 07005KT 10SM FEW014 OVC020 M01/M03 A3006 RMK AO2 SLP224 60000 T10111028 11006 21011 58005 FZRANO,PAIK,2015-02-21T06:01:00Z,66.98,-160.43,-1.1,-2.8,70,5,,10.0,30.059055,1022.4,,TRUE,TRUE,,,,TRUE,,,FEW,1400,OVC,2000,,,,,MVFR,-0.5,-0.6,-1.1,,,,,0.0050,,,,METAR,51.0
KLVN 210601Z AUTO 30003KT 7SM OVC019 M06/M07 A2983 RMK AO2,KLVN,2015-02-21T06:01:00Z,44.63,-93.23,-6.0,-7.0,300,3,,7.0,29.828741,,,TRUE,TRUE,,,,,,,OVC,1900,,,,,,,MVFR,,,,,,,,,,,,METAR,293.0
CYLL 210601Z AUTO 01006KT 9SM BKN022 BKN070 BKN083 M13/M16 A3024 RMK SLP294,CYLL,2015-02-21T06:01:00Z,53.32,-110.07,-13.0,-16.0,10,6,,9.0,30.239174,1029.4,,TRUE,,,,,,,,BKN,2200,BKN,7000,BKN,8300,,,MVFR,,,,,,,,,,,,SPECI,669.0
DAAJ 210600Z 12012KT CAVOK 13/11 Q1017,DAAJ,2015-02-21T06:00:00Z,24.28,9.47,13.0,11.0,120,12,,6.21,30.029528,,,,,,,,,,,CAVOK,,,,,,,,VFR,,,,,,,,,,,,METAR,968.0
SEQM 210600Z 06002KT CAVOK 10/08 Q1026 NOSIG RMK A3032,SEQM,2015-02-21T06:00:00Z,-0.12,-78.35,10.0,8.0,60,2,,6.21,30.295275,,,,,,TRUE,,,,,CAVOK,,,,,,,,VFR,,,,,,,,,,,,METAR,2400.0
SBPA 210600Z 06004KT CAVOK 22/21 Q1017,SBPA,2015-02-21T06:00:00Z,-30.0,-51.17,22.0,21.0,60,4,,6.21,30.029528,,,,,,,,,,,CAVOK,,,,,,,,VFR,,,,,,,,,,,,METAR,3.0
CWEE 210600Z AUTO M32/M36 RMK AO1 T13201357,CWEE,2015-02-21T06:00:00Z,49.27,-73.33,-32.0,-35.7,,,,,,,,TRUE,TRUE,,,,,,,,,,,,,,,,,,,,,,,,,,,METAR,305.0
CXWB 210600Z AUTO 33010KT M30/M34 RMK AO1 PK WND 32021/0548 T12961336,CXWB,2015-02-21T06:00:00Z,65.88,-89.45,-29.6,-33.6,330,10,,,,,,TRUE,TRUE,,,,,,,,,,,,,,,,,,,,,,,,,,,METAR,18.0
CXCD 210600Z AUTO 34003KT M01/M04 RMK AO1 T10111035,CXCD,2015-02-21T06:00:00Z,56.32,-119.75,-1.1,-3.5,340,3,,,,,,TRUE,TRUE,,,,,,,,,,,,,,,,,,,,,,,,,,,METAR,630.0
SBGR 210600Z 07003KT CAVOK 21/21 Q1019,SBGR,2015-02-21T06:00:00Z,-23.42,-46.47,21.0,21.0,70,3,,6.21,30.088583,,,,,,,,,,,CAVOK,,,,,,,,VFR,,,,,,,,,,,,METAR,750.0
SBRP 210600Z 13003KT CAVOK 22/20 Q1016,SBRP,2015-02-21T06:00:00Z,-21.12,-47.77,22.0,20.0,130,3,,6.21,30.0,,,,,,,,,,,CAVOK,,,,,,,,VFR,,,,,,,,,,,,METAR,549.0
SBFI 210600Z 13005KT CAVOK 23/21 Q1013,SBFI,2015-02-21T06:00:00Z,-25.6,-54.48,23.0,21.0,130,5,,6.21,29.911417,,,,,,,,,,,CAVOK,,,,,,,,VFR,,,,,,,,,,,,METAR,243.0
MKJP 210600Z 32006KT 9999 FEW024 26/20 Q1016,MKJP,2015-02-21T06:00:00Z,17.92,-76.78,26.0,20.0,320,6,,6.21,30.0,,,,,,,,,,,FEW,2400,,,,,,,VFR,,,,,,,,,,,,METAR,3.0
LBGO 210600Z 10007KT CAVOK M03/M04 Q1018 NOSIG,LBGO,2015-02-21T06:00:00Z,43.15,25.72,-3.0,-4.0,100,7,,6.21,30.059055,,,,,,TRUE,,,,,CAVOK,,,,,,,,VFR,,,,,,,,,,,,METAR,86.0
LBPD 210600Z 29004KT 210V320 6000 NSC M03/M04 Q1021 NOSIG,LBPD,2015-02-21T06:00:00Z,42.13,24.8,-3.0,-4.0,290,4,,3.73,30.147638,,,,,,TRUE,,,,,,,,,,,,,,,,,,,,,,,,,SPECI,185.0
FDMS 210600Z 00000KT 9999 SCT030 21/19 Q1015 NOSIG,FDMS,2015-02-21T06:00:00Z,-26.52,31.3,21.0,19.0,0,0,,6.21,29.970472,,,,,,TRUE,,,,,SCT,3000,,,,,,,VFR,,,,,,,,,,,,METAR,641.0
WSSL 210600Z 04009KT 360V080 9999 SCT022 BKN300 32/20 Q1011 RMK 0530Z Q1011,WSSL,2015-02-21T06:00:00Z,1.42,103.87,32.0,20.0,40,9,,6.21,29.852362,,,,,,,,,,,SCT,2200,BKN,30000,,,,,VFR,,,,,,,,,,,,METAR,14.0
GQPP 210600Z 36019KT 6000 DRSA NSC 14/10 Q1020 NOSIG,GQPP,2015-02-21T06:00:00Z,20.92,-17.02,14.0,10.0,360,19,,3.73,30.11811,,,,,,TRUE,,,,DRSA,,,,,,,,,,,,,,,,,,,,,METAR,3.0
UBBL 210600Z 28005KT 5000 -SN OVC008 01/00 Q1019 R33/290238 RMK MT OBSC,UBBL,2015-02-21T06:00:00Z,38.75,48.82,1.0,0.0,280,5,,3.11,30.088583,,,,,,,,,,-SN,OVC,800,,,,,,,IFR,,,,,,,,,,,,METAR,10.0
OMSJ 210600Z 17026G41KT 0700 R30/0900N -SS NSC 30/05 Q1007,OMSJ,2015-02-21T06:00:00Z,25.32,55.52,30.0,5.0,170,26,41,0.43,29.734253,,,,,,,,,,-SS,,,,,,,,,,,,,,,,,,,,,METAR,33.0
OMRK 210600Z 20029G40KT 0200 R34/0225V0600D SS VV/// 33/M01 Q1007 A2975,OMRK,2015-02-21T06:00:00Z,25.62,55.92,33.0,-1.0,200,29,40,0.12,29.734253,,,,,,,,,,SS,OVX,0,,,,,,,LIFR,,,,,,,,,,,,METAR,31.0
OMFJ 210600Z 03008KT 5000 HZ BKN020 27/22 Q1009 A2980,OMFJ,2015-02-21T06:00:00Z,25.1,56.32,27.0,22.0,30,8,,3.11,29.793306,,,,,,,,,,HZ,BKN,2000,,,,,,,MVFR,,,,,,,,,,,,METAR,28.0
OMDW 210600Z 17032KT 0300 R12/0225V0450N SS NSC 27/10 Q1008 WS ALL RWY TEMPO 0150 +SS VV///,OMDW,2015-02-21T06:00:00Z,24.9,55.17,27.0,10.0,170,32,,0.19,29.763779,,,,,,,,,,SS,,,,,,,,,,,,,,,,,,,,,METAR,25.0
OMDB 210600Z 18022G32KT 0800 R12L/0750 -SS NSC 29/07 Q1007 WS ALL RWY TEMPO 0500 SS,OMDB,2015-02-21T06:00:00Z,25.25,55.37,29.0,7.0,180,22,32,0.5,29.734253,,,,,,,,,,SS,,,,,,,,,,,,,,,,,,,,,METAR,5.0
OMAL 210600Z 16028G39KT 1800 R01/1300U R19/P2000D BLSA NSC 25/10 Q1011 A2986 WS ALL RWY TEMPO 0800 SS,OMAL,2015-02-21T06:00:00Z,24.25,55.6,25.0,10.0,160,28,39,1.12,29.852362,,,,,,,,,,BLSA,,,,,,,,,,,,,,,,,,,,,METAR,262.0
OMAD 210600Z 16015KT 2500 DU NSC 26/09 Q1007 A2974 WS ALL RWY TEMPO 1000 BLDU,OMAD,2015-02-21T06:00:00Z,24.42,54.47,26.0,9.0,160,15,,1.55,29.734253,,,,,,,,,,DU,,,,,,,,,,,,,,,,,,,,,METAR,3.0
OMAA 210600Z 16019KT 1100 R13R/1700N R13L/0750V1400U BLDU NSC 27/10 Q1007 A2975 WS ALL RWY TEMPO 0500,OMAA,2015-02-21T06:00:00Z,24.42,54.63,27.0,10.0,160,19,,0.68,29.734253,,,,,,,,,,BLDU,,,,,,,,,,,,,,,,,,,,,METAR,27.0
WAJJ 210600Z 27007KT 9999 SCT014 31/23 Q1005,WAJJ,2015-02-21T06:00:00Z,-2.58,140.52,31.0,23.0,270,7,,6.21,29.675198,,,,,,,,,,,SCT,1400,,,,,,,VFR,,,,,,,,,,,,METAR,88.0
SBVT 210600Z 33002KT 9999 FEW015 23/21 Q1016,SBVT,2015-02-21T06:00:00Z,-20.27,-40.27,23.0,21.0,330,2,,6.21,30.0,,,,,,,,,,,FEW,1500,,,,,,,VFR,,,,,,,,,,,,METAR,4.0
OPPS 210600Z 00000KT 3000 HZ FEW015ST BKN100 19/10 Q1021.2,OPPS,2015-02-21T06:00:00Z,34.02,71.52,19.0,10.0,0,0,,1.86,30.153543,,,,,,,,,,HZ,BKN,10000,,,,,,,IFR,,,,,,,,,,,,METAR,360.0
SBGO 210600Z 11003KT 9999 FEW020 OVC090 20/19 Q1017,SBGO,2015-02-21T06:00:00Z,-16.62,-49.22,20.0,19.0,110,3,,6.21,30.029528,,,,,,,,,,,FEW,2000,OVC,9000,,,,,VFR,,,,,,,,,,,,METAR,747.0
OPRN 210600Z 23012KT 3500 HZ SCT040 BKN100 17/12 1021.5/30.16,OPRN,2015-02-21T06:00:00Z,33.62,73.08,17.0,12.0,230,12,,2.17,,,,,,,,,,,HZ,SCT,4000,BKN,10000,,,,,IFR,,,,,,,,,,,,METAR,508.0
SBKP 210600Z 12009KT CAVOK 22/19 Q1018,SBKP,2015-02-21T06:00:00Z,-23.0,-47.12,22.0,19.0,120,9,,6.21,30.059055,,,,,,,,,,,CAVOK,,,,,,,,VFR,,,,,,,,,,,,METAR,661.0
SBMQ 210600Z 35002KT 9999 SCT012 SCT080 24/24 Q1011,SBMQ,2015-02-21T06:00:00Z,0.05,-51.07,24.0,24.0,350,2,,6.21,29.852362,,,,,,,,,,,SCT,1200,SCT,8000,,,,,VFR,,,,,,,,,,,,METAR,15.0
SPZO 210600Z 00000KT 9999 -RA SCT036TCU BKN080 08/05 Q1031 RMK PP020,SPZO,2015-02-21T06:00:00Z,-13.55,-71.97,8.0,5.0,0,0,,6.21,30.442913,,,,,,,,,,-RA,SCT,3600,BKN,8000,,,,,VFR,,,,,,,,,,,,METAR,3249.0
SPTN 210600Z 03006KT CAVOK 23/15 Q1012 RMK PP000,SPTN,2015-02-21T06:00:00Z,-18.07,-70.28,23.0,15.0,30,6,,6.21,29.88189,,,,,,,,,,,CAVOK,,,,,,,,VFR,,,,,,,,,,,,METAR,458.0
SPSO 210600Z 22005KT 9999 BKN060 23/20 Q1011 RMK PP000,SPSO,2015-02-21T06:00:00Z,-13.73,-76.22,23.0,20.0,220,5,,6.21,29.852362,,,,,,,,,,,BKN,6000,,,,,,,VFR,,,,,,,,,,,,METAR,10.0
SPRU 210600Z 11006KT 6000 OVC070 21/19 Q1011 RMK PP000,SPRU,2015-02-21T06:00:00Z,-8.08,-79.12,21.0,19.0,110,6,,3.73,29.852362,,,,,,,,,,,OVC,7000,,,,,,,MVFR,,,,,,,,,,,,METAR,30.0
SPQU 210600Z 02002KT 7000 NSC 11/10 Q1026 RMK PP000,SPQU,2015-02-21T06:00:00Z,-16.33,-71.57,11.0,10.0,20,2,,4.35,30.295275,,,,,,,,,,,,,,,,,,,,,,,,,,,,,,,METAR,2554.0
SPQT 210600Z 00000KT CAVOK 25/24 Q1007 RMK PP000,SPQT,2015-02-21T06:00:00Z,-3.78,-73.32,25.0,24.0,0,0,,6.21,29.734253,,,,,,,,,,,CAVOK,,,,,,,,VFR,,,,,,,,,,,,METAR,126.0
SPHI 210600Z 20005KT 9999 BKN040 24/19 Q1012 RMK PP000,SPHI,2015-02-21T06:00:00Z,-6.77,-79.82,24.0,19.0,200,5,,6.21,29.88189,,,,,,,,,,,BKN,4000,,,,,,,VFR,,,,,,,,,,,,METAR,34.0
SBTE 210600Z 30002KT 9999 FEW030 SCT090 25/24 Q1011,SBTE,2015-02-21T06:00:00Z,-5.03,-42.82,25.0,24.0,300,2,,6.21,29.852362,,,,,,,,,,,FEW,3000,SCT,9000,,,,,VFR,,,,,,,,,,,,METAR,69.0
OYMB 210600Z 18005KT CAVOK 24/12 Q1013,OYMB,2015-02-21T06:00:00Z,15.47,45.32,24.0,12.0,180,5,,6.21,29.911417,,,,,,,,,,,CAVOK,,,,,,,,VFR,,,,,,,,,,,,METAR,1000.0
SELT 210600Z 03002KT 9999 FEW030 08/06 Q1030,SELT,2015-02-21T06:00:00Z,-0.92,-78.62,8.0,6.0,30,2,,6.21,30.413385,,,,,,,,,,,FEW,3000,,,,,,,VFR,,,,,,,,,,,,METAR,2785.0
SEGU 210600Z 21006KT 9999 FEW033 25/21 Q1010 NOSIG RMK A2985,SEGU,2015-02-21T06:00:00Z,-2.13,-79.87,25.0,21.0,210,6,,6.21,29.822834,,,,,,TRUE,,,,,FEW,3300,,,,,,,VFR,,,,,,,,,,,,METAR,9.0
SEMT 210600Z 19004KT 9999 FEW020 25/23 Q1011,SEMT,2015-02-21T06:00:00Z,-0.95,-80.67,25.0,23.0,190,4,,6.21,29.852362,,,,,,,,,,,FEW,2000,,,,,,,VFR,,,,,,,,,,,,METAR,14.0
GAMB 210600Z 34010KT CAVOK 22/05 Q1012,GAMB,2015-02-21T06:00:00Z,14.52,-4.08,22.0,5.0,340,10,,6.21,29.88189,,,,,,,,,,,CAVOK,,,,,,,,VFR,,,,,,,,,,,,METAR,272.0
GANR 210600Z 04004KT CAVOK 16/01 Q////,GANR,2015-02-21T06:00:00Z,15.23,-9.58,16.0,1.0,40,4,,6.21,,,,,,,,,,,,CAVOK,,,,,,,,VFR,,,,,,,,,,,,METAR,237.0
OEWD 210600Z 36020KT 1000 BLSA SKC 20/05 Q1014 NOSIG,OEWD,2015-02-21T06:00:00Z,20.5,45.2,20.0,5.0,360,20,,0.62,29.940945,,,,,,TRUE,,,,BLSA,SKC,,,,,,,,LIFR,,,,,,,,,,,,METAR,617.0
FVBU 210600Z 10009KT 070V130 CAVOK 21/16 Q1018 NOSIG,FVBU,2015-02-21T06:00:00Z,-20.02,28.62,21.0,16.0,100,9,,6.21,30.059055,,,,,,TRUE,,,,,CAVOK,,,,,,,,VFR,,,,,,,,,,,,METAR,1326.0
FPST 210600Z 24002KT 9999 FEW025CB BKN110 23/22 Q1009 NOSIG,FPST,2015-02-21T06:00:00Z,0.37,6.72,23.0,22.0,240,2,,6.21,29.793306,,,,,,TRUE,,,,,FEW,2500,BKN,11000,,,,,VFR,,,,,,,,,,,,METAR,13.0
FOON 210600Z /////KT 8000 BKN010 22/21 Q1010,FOON,2015-02-21T06:00:00Z,-1.63,13.42,22.0,21.0,,,,4.97,29.822834,,,,,,,,,,,BKN,1000,,,,,,,MVFR,,,,,,,,,,,,SPECI,441.0
FOOG 210600Z /////KT 9999 SCT010 FEW020CB BKN033 27/25 Q1009,FOOG,2015-02-21T06:00:00Z,-0.7,8.75,27.0,25.0,,,,6.21,29.793306,,,,,,,,,,,SCT,1000,FEW,2000,BKN,3300,,,VFR,,,,,,,,,,,,SPECI,4.0
FGSL 210600Z 22004KT 9999 FEW010 FEW020CB 27/25 Q1009 NOSIG,FGSL,2015-02-21T06:00:00Z,3.75,8.72,27.0,25.0,220,4,,6.21,29.793306,,,,,,TRUE,,,,,FEW,1000,FEW,2000,,,,,VFR,,,,,,,,,,,,METAR,56.0
FGBT 210600Z 13003KT 9999 FEW010 BKN100 24/23 Q1009 NOSIG,FGBT,2015-02-21T06:00:00Z,1.88,9.8,24.0,23.0,130,3,,6.21,29.793306,,,,,,TRUE,,,,,FEW,1000,BKN,10000,,,,,VFR,,,,,,,,,,,,METAR,8.0
CWAR 210600Z AUTO 23029G37KT M02/M02 RMK AO1 2004 PK WND 23037/0552 SLP104 T10161024 50006,CWAR,2015-02-21T06:00:00Z,47.28,-54.0,-1.6,-2.4,230,29,37,,,1010.4,,TRUE,TRUE,,,,,,,,,,,,,,,,0.6,,,,,,,,,,,METAR,16.0
CXTH 210600Z AUTO 35005KT M11/M12 RMK AO1 T11121115,CXTH,2015-02-21T06:00:00Z,53.63,-111.68,-11.2,-11.5,350,5,,,,,,TRUE,TRUE,,,,,,,,,,,,,,,,,,,,,,,,,,,METAR,678.0
CXHD 210600Z AUTO 01001KT M10/M11 RMK AO1 T10961108,CXHD,2015-02-21T06:00:00Z,53.18,-112.25,-9.6,-10.8,10,1,,,,,,TRUE,TRUE,,,,,,,,,,,,,,,,,,,,,,,,,,,METAR,688.0
CXFM 210600Z AUTO 34011KT M07/M10 RMK AO1 T10651097,CXFM,2015-02-21T06:00:00Z,49.48,-111.48,-6.5,-9.7,340,11,,,,,,TRUE,TRUE,,,,,,,,,,,,,,,,,,,,,,,,,,,METAR,881.0
CXDB 210600Z AUTO 29011KT M06/M07 RMK AO1 PK WND 27019/0500 T10551072 50005,CXDB,2015-02-21T06:00:00Z,49.05,-112.82,-5.5,-7.2,290,11,,,,,,TRUE,TRUE,,,,,,,,,,,,,,,,0.5,,,,,,,,,,,METAR,1310.0
CXAK 210600Z AUTO 00000KT M09/M10 RMK AO1 T10891104,CXAK,2015-02-21T06:00:00Z,52.35,-112.6,-8.9,-10.4,0,0,,,,,,TRUE,TRUE,,,,,,,,,,,,,,,,,,,,,,,,,,,METAR,795.0
DAUE 210600Z 00000KT 9999 BKN040 10/07 Q1008,DAUE,2015-02-21T06:00:00Z,30.57,2.87,10.0,7.0,0,0,,6.21,29.763779,,,,,,,,,,,BKN,4000,,,,,,,VFR,,,,,,,,,,,,METAR,397.0
RPMZ 210600Z 00000KT 9999 FEW017CB FEW018 BKN100 32/25 Q1013 RMK A2991 CB NW,RPMZ,2015-02-21T06:00:00Z,6.92,122.07,32.0,25.0,0,0,,6.21,29.911417,,,,,,,,,,,FEW,1700,FEW,1800,BKN,10000,,,VFR,,,,,,,,,,,,METAR,6.0
SBGL 210600Z 11001KT CAVOK 24/20 Q1014,SBGL,2015-02-21T06:00:00Z,-22.82,-43.25,24.0,20.0,110,1,,6.21,29.940945,,,,,,,,,,,CAVOK,,,,,,,,VFR,,,,,,,,,,,,METAR,6.0
SPIM 210600Z 16010KT 9999 BKN080 23/20 Q1012 NOSIG RMK PP000,SPIM,2015-02-21T06:00:00Z,-12.02,-77.12,23.0,20.0,160,10,,6.21,29.88189,,,,,,TRUE,,,,,BKN,8000,,,,,,,VFR,,,,,,,,,,,,METAR,13.0
NCPY 210600Z AUTO 09008KT //// ////// 29/25 Q1008,NCPY,2015-02-21T06:00:00Z,-9.02,-158.07,29.0,25.0,90,8,,,29.763779,,,TRUE,,,,,,,,,,,,,,,,,,,,,,,,,,,,METAR,2.0
NCMH 2106000 AUTO NIL,NCMH,2015-02-21T06:00:00Z,-10.38,-161.0,,,210,60,,,,,,TRUE,,,,,,,,,,,,,,,,,,,,,,,,,,,,METAR,0.0
NCAI 210600Z AUTO 05007KT //// ///// 27/24 Q1012,NCAI,2015-02-21T06:00:00Z,-18.82,-159.77,27.0,24.0,50,7,,,29.88189,,,TRUE,,,,,,,,,,,,,,,,,,,,,,,,,,,,METAR,6.0
NCRG 210600Z 05014KT 9999 SCT018 28/25 Q1013,NCRG,2015-02-21T06:00:00Z,-21.2,-159.82,28.0,25.0,50,14,,6.21,29.911417,,,,,,,,,,,SCT,1800,,,,,,,VFR,,,,,,,,,,,,METAR,7.0
FNUB 210600Z 09004KT 9999 FEW010 ///// Q////,FNUB,2015-02-21T06:00:00Z,-14.93,13.57,,,90,4,,6.21,,,,,,,,,,,,FEW,1000,,,,,,,VFR,,,,,,,,,,,,METAR,1761.0
FNUE 210600Z 27005KT 9999 SCT030 BKN058 19/// Q1016,FNUE,2015-02-21T06:00:00Z,-11.77,19.9,,,270,5,,6.21,30.0,,,,,,,,,,,SCT,3000,BKN,5800,,,,,VFR,,,,,,,,,,,,METAR,1329.0
SBCF 210600Z 10007KT CAVOK 21/15 Q1019,SBCF,2015-02-21T06:00:00Z,-19.63,-43.97,21.0,15.0,100,7,,6.21,30.088583,,,,,,,,,,,CAVOK,,,,,,,,VFR,,,,,,,,,,,,METAR,828.0
LRCT 210600Z VRB02KT 0800 FZFG FEW120 M04/M04 Q1015 AMB AMB,LRCT,2015-02-21T06:00:00Z,46.5,23.88,-4.0,-4.0,0,2,,0.5,29.970472,,,,,,,,,,FZFG,FEW,12000,,,,,,,LIFR,,,,,,,,,,,,METAR,331.0
SBAR 210600Z 24004KT 9999 SCT015 SCT070 24/23 Q1013,SBAR,2015-02-21T06:00:00Z,-10.97,-37.07,24.0,23.0,240,4,,6.21,29.911417,,,,,,,,,,,SCT,1500,SCT,7000,,,,,VFR,,,,,,,,,,,,METAR,9.0
CZPS 210600Z AUTO 29007KT M07/M10 RMK AO1 T10731096,CZPS,2015-02-21T06:00:00Z,52.43,-113.6,-7.3,-9.6,290,7,,,,,,TRUE,TRUE,,,,,,,,,,,,,,,,,,,,,,,,,,,METAR,965.0
CZOL 210600Z AUTO 08003KT M07/M09 RMK AO1 T10721089,CZOL,2015-02-21T06:00:00Z,53.65,-113.35,-7.2,-8.9,80,3,,,,,,TRUE,TRUE,,,,,,,,,,,,,,,,,,,,,,,,,,,METAR,665.0
CXVM 210600Z AUTO 33004KT M12/M14 RMK AO1 T11201143,CXVM,2015-02-21T06:00:00Z,53.35,-110.88,-12.0,-14.3,330,4,,,,,,TRUE,TRUE,,,,,,,,,,,,,,,,,,,,,,,,,,,METAR,623.0
CXSP 210600Z AUTO 36005KT M13/M15 RMK AO1 T11291150,CXSP,2015-02-21T06:00:00Z,54.02,-111.27,-12.9,-15.0,360,5,,,,,,TRUE,TRUE,,,,,,,,,,,,,,,,,,,,,,,,,,,METAR,649.0
CXPL 210600Z AUTO 01004KT M10/M11 RMK AO1 T11011114,CXPL,2015-02-21T06:00:00Z,51.13,-111.7,-10.1,-11.4,10,4,,,,,,TRUE,TRUE,,,,,,,,,,,,,,,,,,,,,,,,,,,METAR,750.0
CXOL 210600Z AUTO 32005KT M06/M06 RMK AO1 T10571064 50004,CXOL,2015-02-21T06:00:00Z,51.77,-114.08,-5.7,-6.4,320,5,,,,,,TRUE,TRUE,,,,,,,,,,,,,,,,0.4,,,,,,,,,,,METAR,1046.0
CXMO 210600Z AUTO 22003KT M11/M12 RMK AO1 T11121120,CXMO,2015-02-21T06:00:00Z,51.67,-112.68,-11.2,-12.0,220,3,,,,,,TRUE,TRUE,,,,,,,,,,,,,,,,,,,,,,,,,,,METAR,836.0
CWJX 210600Z AUTO 35009KT M11/M14 RMK AO1 SOG 02 1020 SLP277 T11091138 50002,CWJX,2015-02-21T06:00:00Z,50.88,-109.5,-10.9,-13.8,350,9,,,,1027.7,,TRUE,TRUE,,,,,,,,,,,,,,,,0.2,,,,,,,,,,,METAR,672.0
CWSS 210600Z AUTO 26005KT M15/M21 RMK AO1 SOG 59 3052 SLP247 T11511207,CWSS,2015-02-21T06:00:00Z,45.2,-67.25,-15.1,-20.7,260,5,,,,1024.7,,TRUE,TRUE,,,,,,,,,,,,,,,,,,,,,,,,,,,METAR,26.0
CXCS 210600Z AUTO 32004KT M12/M14 RMK AO1 T11181143,CXCS,2015-02-21T06:00:00Z,51.93,-110.72,-11.8,-14.3,320,4,,,,,,TRUE,TRUE,,,,,,,,,,,,,,,,,,,,,,,,,,,METAR,772.0
CXBA 210600Z AUTO 35005KT M11/M14 RMK AO1 T11131143,CXBA,2015-02-21T06:00:00Z,52.12,-110.1,-11.3,-14.3,350,5,,,,,,TRUE,TRUE,,,,,,,,,,,,,,,,,,,,,,,,,,,METAR,687.0
CXAJ 210600Z AUTO 04007KT M10/M11 RMK AO1 SOG 11 T10961110 50004,CXAJ,2015-02-21T06:00:00Z,54.77,-112.82,-9.6,-11.0,40,7,,,,,,TRUE,TRUE,,,,,,,,,,,,,,,,0.4,,,,,,,,,,,METAR,574.0
DRRT 210600Z 10008KT CAVOK 26/M02 Q1009,DRRT,2015-02-21T06:00:00Z,14.9,5.25,26.0,-2.0,100,8,,6.21,29.793306,,,,,,,,,,,CAVOK,,,,,,,,VFR,,,,,,,,,,,,METAR,391.0
DRRM 210600Z 08002KT CAVOK 20/M03 Q1010,DRRM,2015-02-21T06:00:00Z,13.5,7.12,20.0,-3.0,80,2,,6.21,29.822834,,,,,,,,,,,CAVOK,,,,,,,,VFR,,,,,,,,,,,,METAR,373.0
DRZR 210600Z 02008KT 200 DU NSC 22/M02 Q1012,DRZR,2015-02-21T06:00:00Z,13.77,8.97,22.0,-2.0,20,8,,,29.88189,,,,,,,,,,DU,,,,,,,,,,,,,,,,,,,,,METAR,453.0
HEMA 210600Z VRB01KT CAVOK 10/M02 Q1017 NOSIG,HEMA,2015-02-21T06:00:00Z,25.55,34.58,10.0,-2.0,0,1,,6.21,30.029528,,,,,,TRUE,,,,,CAVOK,,,,,,,,VFR,,,,,,,,,,,,METAR,77.0
HESG 210600Z 28006KT CAVOK 10/M01 Q1019 NOSIG,HESG,2015-02-21T06:00:00Z,26.33,31.75,10.0,-1.0,280,6,,6.21,30.088583,,,,,,TRUE,,,,,CAVOK,,,,,,,,VFR,,,,,,,,,,,,METAR,70.0
HESC 210600Z 27023KT 9999 SCT020 BKN090 02/01 Q1015 NOSIG,HESC,2015-02-21T06:00:00Z,28.68,34.07,2.0,1.0,270,23,,6.21,29.970472,,,,,,TRUE,,,,,SCT,2000,BKN,9000,,,,,VFR,,,,,,,,,,,,METAR,1332.0
HEBL 210600Z 35007KT CAVOK 12/M03 Q1020 NOSIG,HEBL,2015-02-21T06:00:00Z,22.38,31.62,12.0,-3.0,350,7,,6.21,30.11811,,,,,,TRUE,,,,,CAVOK,,,,,,,,VFR,,,,,,,,,,,,METAR,188.0
HEBA 210600Z 30018KT 9999 SCT020 SCT022 13/09 Q1015 NOSIG,HEBA,2015-02-21T06:00:00Z,30.92,29.7,13.0,9.0,300,18,,6.21,29.970472,,,,,,TRUE,,,,,SCT,2000,SCT,2200,,,,,VFR,,,,,,,,,,,,METAR,54.0
HEAT 210600Z 26007KT CAVOK 07/M00 Q1019 NOSIG,HEAT,2015-02-21T06:00:00Z,27.05,31.02,7.0,0.0,260,7,,6.21,30.088583,,,,,,TRUE,,,,,CAVOK,,,,,,,,VFR,,,,,,,,,,,,METAR,70.0
HESH 210600Z 28004KT 9999 BKN020 15/03 Q1013 NOSIG,HESH,2015-02-21T06:00:00Z,27.97,34.38,15.0,3.0,280,4,,6.21,29.911417,,,,,,TRUE,,,,,BKN,2000,,,,,,,MVFR,,,,,,,,,,,,METAR,50.0
HEPS 210600Z 28012KT 9999 SCT025 SCT030 11/09 Q1013 NOSIG,HEPS,2015-02-21T06:00:00Z,31.28,32.25,11.0,9.0,280,12,,6.21,29.911417,,,,,,TRUE,,,,,SCT,2500,SCT,3000,,,,,VFR,,,,,,,,,,,,METAR,6.0
HEGN 210600Z 29015KT CAVOK 14/01 Q1016 NOSIG,HEGN,2015-02-21T06:00:00Z,27.18,33.8,14.0,1.0,290,15,,6.21,30.0,,,,,,TRUE,,,,,CAVOK,,,,,,,,VFR,,,,,,,,,,,,METAR,14.0
HESN 210600Z 31006KT CAVOK 10/M04 Q1020 NOSIG,HESN,2015-02-21T06:00:00Z,23.97,32.82,10.0,-4.0,310,6,,6.21,30.11811,,,,,,TRUE,,,,,CAVOK,,,,,,,,VFR,,,,,,,,,,,,METAR,194.0
HELX 210600Z 25004KT 8000 NSC 11/04 Q1019 NOSIG,HELX,2015-02-21T06:00:00Z,25.67,32.7,11.0,4.0,250,4,,4.97,30.088583,,,,,,TRUE,,,,,,,,,,,,,,,,,,,,,,,,,METAR,88.0
HEAX 210600Z 31018KT 9999 SCT020 SCT022 14/08 Q1014 NOSIG,HEAX,2015-02-21T06:00:00Z,31.18,29.93,14.0,8.0,310,18,,6.21,29.940945,,,,,,TRUE,,,,,SCT,2000,SCT,2200,,,,,VFR,,,,,,,,,,,,METAR,7.0
HEMM 210600Z 33010KT 9999 SCT020 BKN022 12/08 Q1017 NOSIG,HEMM,2015-02-21T06:00:00Z,31.32,27.22,12.0,8.0,330,10,,6.21,30.029528,,,,,,TRUE,,,,,SCT,2000,BKN,2200,,,,,MVFR,,,,,,,,,,,,METAR,30.0
VTCP 210600Z 23009KT 8000 SCT025 BKN300 32/17 Q1011 A2985 INFO F RWY 19,VTCP,2015-02-21T06:00:00Z,18.13,100.17,32.0,17.0,230,9,,4.97,29.852362,,,,,,,,,,,SCT,2500,BKN,30000,,,,,MVFR,,,,,,,,,,,,METAR,162.0
SBFZ 210600Z 11002KT 9999 SCT020 26/22 Q1011,SBFZ,2015-02-21T06:00:00Z,-3.77,-38.52,26.0,22.0,110,2,,6.21,29.852362,,,,,,,,,,,SCT,2000,,,,,,,VFR,,,,,,,,,,,,METAR,25.0
OYSN 210600Z 22005KT 150V260 9999 FEW030 18/05 Q1024 NOSIG,OYSN,2015-02-21T06:00:00Z,15.48,44.22,18.0,5.0,220,5,,6.21,30.236221,,,,,,TRUE,,,,,FEW,3000,,,,,,,VFR,,,,,,,,,,,,METAR,2190.0
SBSJ 210600Z 00000KT 9999 SCT020 25/20 Q1016,SBSJ,2015-02-21T06:00:00Z,-23.22,-45.87,25.0,20.0,0,0,,6.21,30.0,,,,,,,,,,,SCT,2000,,,,,,,VFR,,,,,,,,,,,,METAR,646.0
SBBR 210600Z 00000KT 9999 FEW030 19/17 Q1019,SBBR,2015-02-21T06:00:00Z,-15.87,-47.92,19.0,17.0,0,0,,6.21,30.088583,,,,,,,,,,,FEW,3000,,,,,,,VFR,,,,,,,,,,,,METAR,1061.0
SBPV 210600Z 10003KT 9999 SCT010 BKN070 24/22 Q1009,SBPV,2015-02-21T06:00:00Z,-8.72,-63.9,24.0,22.0,100,3,,6.21,29.793306,,,,,,,,,,,SCT,1000,BKN,7000,,,,,VFR,,,,,,,,,,,,METAR,88.0
MHTG 210600Z 36004KT 9999 FEW028 BKN080 18/15 Q1021 A3015 NOSIG,MHTG,2015-02-21T06:00:00Z,14.07,-87.22,18.0,15.0,360,4,,6.21,30.147638,,,,,,TRUE,,,,,FEW,2800,BKN,8000,,,,,VFR,,,,,,,,,,,,METAR,1004.0
MHLM 210600Z 32002KT 9999 FEW025 20/19 Q1018 A3006 NOSIG,MHLM,2015-02-21T06:00:00Z,15.45,-87.93,20.0,19.0,320,2,,6.21,30.059055,,,,,,TRUE,,,,,FEW,2500,,,,,,,VFR,,,,,,,,,,,,METAR,26.0
NFTV 210600Z 04006KT 9999 -RA SCT007 OVC100 26/24 Q1008,NFTV,2015-02-21T06:00:00Z,-18.58,-173.97,26.0,24.0,40,6,,6.21,29.763779,,,,,,,,,,-RA,SCT,700,OVC,10000,,,,,VFR,,,,,,,,,,,,METAR,71.0
NFTL 210600Z 11008KT 9999 FEW008 SCT120 BKN280 28/25 Q1007,NFTL,2015-02-21T06:00:00Z,-19.78,-174.33,28.0,25.0,110,8,,6.21,29.734253,,,,,,,,,,,FEW,800,SCT,12000,BKN,28000,,,VFR,,,,,,,,,,,,METAR,3.0
NFTF 210600Z 14008KT 9999 -SHRA FEW010 BKN016 26/24 Q1008,NFTF,2015-02-21T06:00:00Z,-21.23,-175.15,26.0,24.0,140,8,,6.21,29.763779,,,,,,,,,,-SHRA,FEW,1000,BKN,1600,,,,,MVFR,,,,,,,,,,,,METAR,38.0
SBNT 210600Z 22003KT 9999 FEW020 24/21 Q1012,SBNT,2015-02-21T06:00:00Z,-5.92,-35.25,24.0,21.0,220,3,,6.21,29.88189,,,,,,,,,,,FEW,2000,,,,,,,VFR,,,,,,,,,,,,METAR,49.0
WABP 210600Z 10006KT 9999 BKN012 28/25 Q1010,WABP,2015-02-21T06:00:00Z,-4.52,136.88,28.0,25.0,100,6,,6.21,29.822834,,,,,,,,,,,BKN,1200,,,,,,,MVFR,,,,,,,,,,,,METAR,31.0
YBDV 210600Z AUTO 27006KT //// // ////// 40/08 Q1004,YBDV,2015-02-21T06:00:00Z,-25.9,139.35,40.0,8.0,270,6,,,29.64567,,,TRUE,,,,,,,,,,,,,,,,,,,,,,,,,,,,METAR,47.0
YBCV 210600Z AUTO 26008KT 9999 // NCD 37/11 Q1006,YBCV,2015-02-21T06:00:00Z,-26.38,146.27,37.0,11.0,260,8,,6.21,29.704725,,,TRUE,,,,,,,,,,,,,,,,,,,,,,,,,,,,METAR,304.0
YBCS 210600Z 01007KT 9999 FEW025 FEW030TCU 31/26 Q1006,YBCS,2015-02-21T06:00:00Z,-16.87,145.75,31.0,26.0,10,7,,6.21,29.704725,,,,,,,,,,,FEW,2500,FEW,3000,,,,,VFR,,,,,,,,,,,,METAR,7.0
YBAS 210600Z 14005KT CAVOK 35/07 Q1007,YBAS,2015-02-21T06:00:00Z,-23.8,133.9,35.0,7.0,140,5,,6.21,29.734253,,,,,,,,,,,CAVOK,,,,,,,,VFR,,,,,,,,,,,,METAR,541.0
YAYE 210600Z AUTO 34006KT 300V360 9999 // NCD 39/04 Q1006,YAYE,2015-02-21T06:00:00Z,-25.18,130.98,39.0,4.0,340,6,,6.21,29.704725,,,TRUE,,,,,,,,,,,,,,,,,,,,,,,,,,,,METAR,496.0
YAMB 210600Z AUTO 18015KT 9999 // SCT025 BKN041 OVC060 24/22 Q1005,YAMB,2015-02-21T06:00:00Z,-27.63,152.72,24.0,22.0,180,15,,6.21,29.675198,,,TRUE,,,,,,,,SCT,2500,BKN,4100,OVC,6000,,,VFR,,,,,,,,,,,,METAR,28.0
YABA 210600Z 22014KT 9999 FEW040 25/13 Q1011,YABA,2015-02-21T06:00:00Z,-34.93,117.8,25.0,13.0,220,14,,6.21,29.852362,,,,,,,,,,,FEW,4000,,,,,,,VFR,,,,,,,,,,,,METAR,69.0
NGFU 210600Z 32005KT 9999 FEW019TCU BKN310 30/24 Q1008,NGFU,2015-02-21T06:00:00Z,-8.52,179.22,30.0,24.0,320,5,,6.21,29.763779,,,,,,,,,,,FEW,1900,BKN,31000,,,,,VFR,,,,,,,,,,,,METAR,1.0
SCRM 210600Z 30010KT 9999 OVC012 01/M00 Q0991,SCRM,2015-02-21T06:00:00Z,-62.18,-58.98,1.0,0.0,300,10,,6.21,29.26181,,,,,,,,,,,OVC,1200,,,,,,,MVFR,,,,,,,,,,,,METAR,45.0
SCTN 210600Z AUTO 14004KT 100V170 9999 FEW012 SCT019 12/11 Q1015,SCTN,2015-02-21T06:00:00Z,-42.92,-72.7,12.0,11.0,140,4,,6.21,29.970472,,,TRUE,,,,,,,,FEW,1200,SCT,1900,,,,,VFR,,,,,,,,,,,,METAR,4.0
SCPQ 210600Z AUTO 22004KT CAVOK 12/09 Q1015,SCPQ,2015-02-21T06:00:00Z,-42.33,-73.72,12.0,9.0,220,4,,6.21,29.970472,,,TRUE,,,,,,,,CAVOK,,,,,,,,VFR,,,,,,,,,,,,METAR,5.0
SCIP 210600Z 09011KT 9999 BKN020 24/19 Q1027 NOSIG,SCIP,2015-02-21T06:00:00Z,-27.17,-109.43,24.0,19.0,90,11,,6.21,30.324802,,,,,,TRUE,,,,,BKN,2000,,,,,,,MVFR,,,,,,,,,,,,METAR,69.0
SCEL 210600Z 16006KT 9999 FEW180 16/10 Q1015 NOSIG,SCEL,2015-02-21T06:00:00Z,-33.37,-70.77,16.0,10.0,160,6,,6.21,29.970472,,,,,,TRUE,,,,,FEW,18000,,,,,,,VFR,,,,,,,,,,,,METAR,476.0
SCCI 210600Z 26007KT 02/M01 Q1013 NOSIG,SCCI,2015-02-21T06:00:00Z,-53.0,-70.83,2.0,-1.0,260,7,,,29.911417,,,,,,TRUE,,,,,,,,,,,,,,,,,,,,,,,,,METAR,37.0
SCVD 210600Z AUTO 00000KT CAVOK 09/09 Q1015,SCVD,2015-02-21T06:00:00Z,-39.65,-73.07,9.0,9.0,0,0,,6.21,29.970472,,,TRUE,,,,,,,,CAVOK,,,,,,,,VFR,,,,,,,,,,,,METAR,14.0
SCQP 210600Z 28003KT 250V330 9999 OVC004 11/10 Q1016,SCQP,2015-02-21T06:00:00Z,-38.92,-72.65,11.0,10.0,280,3,,6.21,30.0,,,,,,,,,,,OVC,400,,,,,,,LIFR,,,,,,,,,,,,METAR,97.0
SCSE 210600Z 29001KT CAVOK 16/14 Q1015,SCSE,2015-02-21T06:00:00Z,-29.92,-71.2,16.0,14.0,290,1,,6.21,29.970472,,,,,,,,,,,CAVOK,,,,,,,,VFR,,,,,,,,,,,,METAR,146.0
SCDA 210600Z 19017KT CAVOK 23/16 Q1013,SCDA,2015-02-21T06:00:00Z,-20.52,-70.17,23.0,16.0,190,17,,6.21,29.911417,,,,,,,,,,,CAVOK,,,,,,,,VFR,,,,,,,,,,,,METAR,52.0
SCAT 210600Z AUTO 18005KT 7000 // NCD 16/13 Q1016,SCAT,2015-02-21T06:00:00Z,-27.27,-70.77,16.0,13.0,180,5,,4.35,30.0,,,TRUE,,,,,,,,,,,,,,,,,,,,,,,,,,,,METAR,204.0
SCIE 210600Z 00000KT CAVOK 12/11 Q1014,SCIE,2015-02-21T06:00:00Z,-36.77,-73.07,12.0,11.0,0,0,,6.21,29.940945,,,,,,,,,,,CAVOK,,,,,,,,VFR,,,,,,,,,,,,METAR,16.0
SCCF 210600Z 10008KT CAVOK 07/01 Q1027,SCCF,2015-02-21T06:00:00Z,-22.5,-68.9,7.0,1.0,100,8,,6.21,30.324802,,,,,,,,,,,CAVOK,,,,,,,,VFR,,,,,,,,,,,,METAR,2312.0
SCBA 210600Z AUTO 28004KT 240V310 9999 RA VV/// 10/08 Q1012,SCBA,2015-02-21T06:00:00Z,-45.92,-71.67,10.0,8.0,280,4,,6.21,29.88189,,,TRUE,,,,,,,RA,OVX,0,,,,,,,LIFR,,,,,,,,,,,,METAR,524.0
SCFA 210600Z 20005KT 9999 FEW020 19/16 Q1014 NOSIG,SCFA,2015-02-21T06:00:00Z,-23.42,-70.42,19.0,16.0,200,5,,6.21,29.940945,,,,,,TRUE,,,,,FEW,2000,,,,,,,VFR,,,,,,,,,,,,METAR,120.0
OYAT 210600Z 14013KT CAVOK 22/07 Q1016,OYAT,2015-02-21T06:00:00Z,14.55,46.83,22.0,7.0,140,13,,6.21,30.0,,,,,,,,,,,CAVOK,,,,,,,,VFR,,,,,,,,,,,,METAR,1039.0
SBJP 210600Z 25003KT CAVOK 25/22 Q1012,SBJP,2015-02-21T06:00:00Z,-7.15,-34.95,25.0,22.0,250,3,,6.21,29.88189,,,,,,,,,,,CAVOK,,,,,,,,VFR,,,,,,,,,,,,METAR,7.0
SBSN 210600Z 12002KT 9999 SCT013 SCT100 24/24 Q1010,SBSN,2015-02-21T06:00:00Z,-2.42,-54.78,24.0,24.0,120,2,,6.21,29.822834,,,,,,,,,,,SCT,1300,SCT,10000,,,,,VFR,,,,,,,,,,,,METAR,72.0
GMTN 210600Z AUTO 19006KT 150V210 R24///// /// 08/05 Q1014,GMTN,2015-02-21T06:00:00Z,35.57,-5.32,8.0,5.0,190,6,,,29.940945,,,TRUE,,,,,,,,,,,,,,,,,,,,,,,,,,,,METAR,10.0
GMTA 210600Z VRB02KT 8000 FEW020 SCT026 08/07 Q1014 NOSIG,GMTA,2015-02-21T06:00:00Z,35.17,-3.85,8.0,7.0,0,2,,4.97,29.940945,,,,,,TRUE,,,,,FEW,2000,SCT,2600,,,,,MVFR,,,,,,,,,,,,METAR,14.0
GMMZ 210600Z 30011KT 9999 FEW030 07/M05 Q1012 NOSIG,GMMZ,2015-02-21T06:00:00Z,30.92,-6.9,7.0,-5.0,300,11,,6.21,29.88189,,,,,,TRUE,,,,,FEW,3000,,,,,,,VFR,,,,,,,,,,,,METAR,1140.0
GMMW 210600Z 22004KT 9999 FEW026 07/06 Q1013 NOSIG,GMMW,2015-02-21T06:00:00Z,34.98,-3.02,7.0,6.0,220,4,,6.21,29.911417,,,,,,TRUE,,,,,FEW,2600,,,,,,,VFR,,,,,,,,,,,,METAR,175.0
GMMI 210600Z AUTO 07006KT 9999NDV NCD 09/07 Q1017 NOSIG,GMMI,2015-02-21T06:00:00Z,31.4,-9.68,9.0,7.0,70,6,,,30.029528,,,TRUE,,,TRUE,,,,,,,,,,,,,,,,,,,,,,,,,METAR,8.0
GMMH 210600Z 35011KT 8000 NSC 14/12 Q1021 NOSIG,GMMH,2015-02-21T06:00:00Z,23.72,-15.93,14.0,12.0,350,11,,4.97,30.147638,,,,,,TRUE,,,,,,,,,,,,,,,,,,,,,,,,,METAR,11.0
GMMC 210600Z 04014KT 8000 FEW016 11/10 Q1016,GMMC,2015-02-21T06:00:00Z,33.57,-7.67,11.0,10.0,40,14,,4.97,30.0,,,,,,,,,,,FEW,1600,,,,,,,MVFR,,,,,,,,,,,,METAR,62.0
GMMB 210600Z AUTO 18005KT //// NCD 09/09 Q1018,GMMB,2015-02-21T06:00:00Z,33.65,-7.63,9.0,9.0,180,5,,,30.059055,,,TRUE,,,,,,,,,,,,,,,,,,,,,,,,,,,,METAR,191.0
GMFM 210600Z 26004KT 6000 SCT013 BKN016 07/06 Q1016 NOSIG,GMFM,2015-02-21T06:00:00Z,33.87,-5.52,7.0,6.0,260,4,,3.73,30.0,,,,,,TRUE,,,,,SCT,1300,BKN,1600,,,,,MVFR,,,,,,,,,,,,METAR,549.0
GMFK 210600Z 35015KT 9999 SCT013 FEW033CB SCT080 09/M01 Q1011 NOSIG,GMFK,2015-02-21T06:00:00Z,31.95,-4.4,9.0,-1.0,350,15,,6.21,29.852362,,,,,,TRUE,,,,,SCT,1300,FEW,3300,SCT,8000,,,VFR,,,,,,,,,,,,METAR,1045.0
GMAT 210600Z 36014KT 8000 SCT016 12/09 Q1016 NOSIG,GMAT,2015-02-21T06:00:00Z,28.43,-11.15,12.0,9.0,360,14,,4.97,30.0,,,,,,TRUE,,,,,SCT,1600,,,,,,,MVFR,,,,,,,,,,,,METAR,200.0
GMAG 210600Z ///10G21KT 9999 SCT016 12/07 Q1017 NOSIG,GMAG,2015-02-21T06:00:00Z,29.03,-10.05,12.0,7.0,,,,6.21,30.029528,,,,,,TRUE,,,,,SCT,1600,,,,,,,VFR,,,,,,,,,,,,METAR,333.0
GMFF 210600Z 24009KT 4100 SCT006 BKN030 08/08 Q1016 NOSIG,GMFF,2015-02-21T06:00:00Z,33.92,-4.97,8.0,8.0,240,9,,2.55,30.0,,,,,,TRUE,,,,,SCT,600,BKN,3000,,,,,IFR,,,,,,,,,,,,METAR,579.0
FIMP 210600Z 08004KT 9999 SCT016 30/26 Q1013,FIMP,2015-02-21T06:00:00Z,-20.42,57.67,30.0,26.0,80,4,,6.21,29.911417,,,,,,,,,,,SCT,1600,,,,,,,VFR,,,,,,,,,,,,METAR,57.0
SBLO 210600Z 00000KT 9999 FEW030 23/23 Q1017,SBLO,2015-02-21T06:00:00Z,-23.32,-51.12,23.0,23.0,0,0,,6.21,30.029528,,,,,,,,,,,FEW,3000,,,,,,,VFR,,,,,,,,,,,,METAR,570.0
OIZJ 210600Z 10027KT 3000 BR NSC 24/21 Q1008,OIZJ,2015-02-21T06:00:00Z,25.65,57.8,24.0,21.0,100,27,,1.86,29.763779,,,,,,,,,,BR,,,,,,,,,,,,,,,,,,,,,METAR,4.0
OIMB 210600Z 29012KT 2500 SA SCT035 OVC100 18/M02 Q1009,OIMB,2015-02-21T06:00:00Z,32.9,59.28,18.0,-2.0,290,12,,1.55,29.793306,,,,,,,,,,SA,SCT,3500,OVC,10000,,,,,IFR,,,,,,,,,,,,METAR,1491.0
OIFS 210600Z 26006KT 9999 FEW035 M01/M08 Q1008,OIFS,2015-02-21T06:00:00Z,32.32,50.85,-1.0,-8.0,260,6,,6.21,29.763779,,,,,,,,,,,FEW,3500,,,,,,,VFR,,,,,,,,,,,,METAR,2078.0
OIBA 210600Z 18031KT 0700 DS VV020 25/15 Q1005 REDS,OIBA,2015-02-21T06:00:00Z,25.88,55.03,25.0,15.0,180,31,,0.43,29.675198,,,,,,,,,,DS,OVX,0,,,,,,,LIFR,,,,,,,,,,,2000,METAR,7.0
OITM 210600Z 09012KT 7000 FEW020 SCT040 BKN080 M02/M03 Q1007,OITM,2015-02-21T06:00:00Z,37.35,46.15,-2.0,-3.0,90,12,,4.35,29.734253,,,,,,,,,,,FEW,2000,SCT,4000,BKN,8000,,,MVFR,,,,,,,,,,,,METAR,1340.0
OINE 210600Z 30006KT 5000 RA BKN015 OVC080 07/06 Q1010,OINE,2015-02-21T06:00:00Z,37.38,55.45,7.0,6.0,300,6,,3.11,29.822834,,,,,,,,,,RA,BKN,1500,OVC,8000,,,,,MVFR,,,,,,,,,,,,METAR,130.0
OIBQ 210600Z 31016KT 3500 SA SCT040 OVC090 16/04 Q1012,OIBQ,2015-02-21T06:00:00Z,29.27,50.32,16.0,4.0,310,16,,2.17,29.88189,,,,,,,,,,SA,SCT,4000,OVC,9000,,,,,IFR,,,,,,,,,,,,METAR,6.0
OIBL 210600Z 22014KT 0800 SA FEW030 BKN100 25/16 Q1007,OIBL,2015-02-21T06:00:00Z,26.53,54.82,25.0,16.0,220,14,,0.5,29.734253,,,,,,,,,,SA,FEW,3000,BKN,10000,,,,,LIFR,,,,,,,,,,,,METAR,14.0
SBPS 210600Z 26004KT 4000 -SHRA BKN018 24/23 Q1015 RESHRA,SBPS,2015-02-21T06:00:00Z,-16.43,-39.07,24.0,23.0,260,4,,2.49,29.970472,,,,,,,,,,-SHRA,BKN,1800,,,,,,,IFR,,,,,,,,,,,,METAR,51.0
OIZI 210600Z 17006KT 4000 HZ NSC 28/08 Q1013,OIZI,2015-02-21T06:00:00Z,27.23,60.72,28.0,8.0,170,6,,2.49,29.911417,,,,,,,,,,HZ,,,,,,,,,,,,,,,,,,,,,METAR,591.0
OIZB 210600Z 07006KT CAVOK 17/12 Q1013,OIZB,2015-02-21T06:00:00Z,31.1,61.55,17.0,12.0,70,6,,6.21,29.911417,,,,,,,,,,,CAVOK,,,,,,,,VFR,,,,,,,,,,,,METAR,489.0
OING 210600Z 00000KT 9999 SCT030 BKN100 10/05 Q1012,OING,2015-02-21T06:00:00Z,36.9,54.4,10.0,5.0,0,0,,6.21,29.88189,,,,,,,,,,,SCT,3000,BKN,10000,,,,,VFR,,,,,,,,,,,,METAR,155.0
OIKR 210600Z 23006KT 6000 -SHRA FEW025 FEW030CB SCT040 BKN080 09/06 Q1011 A2988 RESH,OIKR,2015-02-21T06:00:00Z,30.3,56.05,9.0,6.0,230,6,,3.73,29.852362,,,,,,,,,,-SHRA,FEW,2500,FEW,3000,SCT,4000,BKN,8000,MVFR,,,,,,,,,,,,METAR,1615.0
OIBS 210600Z 18022KT 1000 BR SKC 26/17 Q1006,OIBS,2015-02-21T06:00:00Z,25.9,54.55,26.0,17.0,180,22,,0.62,29.704725,,,,,,,,,,BR,SKC,,,,,,,,LIFR,,,,,,,,,,,,METAR,14.0
TNCM 210600Z 10010KT 9999 SCT018 26/21 Q1018 A3006,TNCM,2015-02-21T06:00:00Z,18.05,-63.12,26.0,21.0,100,10,,6.21,30.059055,,,,,,,,,,,SCT,1800,,,,,,,VFR,,,,,,,,,,,,METAR,4.0
UKKM 210600Z AUTO 20005MPS 3500 ///006 02/02 Q1016,UKKM,2015-02-21T06:00:00Z,50.6,30.2,2.0,2.0,200,10,,2.17,30.0,,,TRUE,,,,,,,,,,,,,,,,,,,,,,,,,,,,METAR,157.0
UKLU 210600Z 09002MPS 8000 BKN200 M03/M04 Q1014 NOSIG,UKLU,2015-02-21T06:00:00Z,48.63,22.27,-3.0,-4.0,90,4,,4.97,29.940945,,,,,,TRUE,,,,,BKN,20000,,,,,,,MVFR,,,,,,,,,,,,METAR,117.0
UKON 210600Z 13003MPS 5000 BR NSC M02/M04 Q1022 NOSIG,UKON,2015-02-21T06:00:00Z,47.05,31.92,-2.0,-4.0,130,6,,3.11,30.177166,,,,,,TRUE,,,,BR,,,,,,,,,,,,,,,,,,,,,METAR,56.0
UKLI 210600Z 00000MPS 3900 BR SCT100 M04/M04 Q1013 28090070 TEMPO 0400 FZFG BKN012,UKLI,2015-02-21T06:00:00Z,48.88,24.68,-4.0,-4.0,0,0,,2.42,29.911417,,,,,,,,,,BR,SCT,10000,,,,,,,IFR,,,,,,,,,,,,METAR,280.0
OITL 210600Z 04008KT 0700 SN FZFG BKN004 OVC070 M05/M06 Q1011,OITL,2015-02-21T06:00:00Z,38.33,48.42,-5.0,-6.0,40,8,,0.43,29.852362,,,,,,,,,,SN FZFG,BKN,400,OVC,7000,,,,,LIFR,,,,,,,,,,,,METAR,1316.0
OISR 210600Z 31012KT 4000 DU FEW030CB SCT035 OVC080 19/14 Q1008,OISR,2015-02-21T06:00:00Z,27.37,53.2,19.0,14.0,310,12,,2.49,29.763779,,,,,,,,,,DU,FEW,3000,SCT,3500,OVC,8000,,,IFR,,,,,,,,,,,,METAR,408.0
OINZ 210600Z 24010KT 5000 -DZ SCT015 FEW027CB OVC040 09/07 Q1010,OINZ,2015-02-21T06:00:00Z,36.63,53.2,9.0,7.0,240,10,,3.11,29.822834,,,,,,,,,,-DZ,SCT,1500,FEW,2700,OVC,4000,,,MVFR,,,,,,,,,,,,METAR,11.0
OIBB 210600Z 34012KT 7000 FEW040 OVC090 16/01 Q1011 A2986,OIBB,2015-02-21T06:00:00Z,28.97,50.82,16.0,1.0,340,12,,4.35,29.852362,,,,,,,,,,,FEW,4000,OVC,9000,,,,,MVFR,,,,,,,,,,,,METAR,19.0
AGGH 210600Z 23006KT 9000M TSRA FEW016 SCT017CB OVC030 25/24 Q1008,AGGH,2015-02-21T06:00:00Z,-9.42,160.05,25.0,24.0,230,6,,5.59,29.763779,,,,,,,,,,TSRA,FEW,1600,SCT,1700,OVC,3000,,,MVFR,,,,,,,,,,,,SPECI,9.0
CXAT 210600Z AUTO 00000KT M38/M42 RMK AO1 SOG 02 SLP326 T13831419,CXAT,2015-02-21T06:00:00Z,73.0,-85.03,-38.3,-41.9,0,0,,,,1032.6,,TRUE,TRUE,,,,,,,,,,,,,,,,,,,,,,,,,,,METAR,19.0
CWIX 210600Z AUTO 22007KT M21/M26 RMK AO1 T12141261,CWIX,2015-02-21T06:00:00Z,48.6,-71.72,-21.4,-26.1,220,7,,,,,,TRUE,TRUE,,,,,,,,,,,,,,,,,,,,,,,,,,,METAR,113.0
CXMG 210600Z AUTO 03007KT M09/M11 RMK AO1 T10871110,CXMG,2015-02-21T06:00:00Z,56.97,-117.45,-8.7,-11.0,30,7,,,,,,TRUE,TRUE,,,,,,,,,,,,,,,,,,,,,,,,,,,METAR,457.0
CXHP 210600Z AUTO 36010KT M04/M06 RMK AO1 PK WND 35017/0547 T10401064,CXHP,2015-02-21T06:00:00Z,55.4,-116.48,-4.0,-6.4,360,10,,,,,,TRUE,TRUE,,,,,,,,,,,,,,,,,,,,,,,,,,,METAR,602.0
CWWS 210600Z AUTO 34011KT M29/M32 RMK AO1 SOG 57 1016 SLP233 T12861322,CWWS,2015-02-21T06:00:00Z,52.82,-97.62,-28.6,-32.2,340,11,,,,1023.3,,TRUE,TRUE,,,,,,,,,,,,,,,,,,,,,,,,,,,METAR,223.0
CWKD 210600Z AUTO 27007KT M27/M31 RMK AO1 SLP180 T12701311 52033,CWKD,2015-02-21T06:00:00Z,50.73,-71.02,-27.0,-31.1,270,7,,,,1018.0,,TRUE,TRUE,,,,,,,,,,,,,,,,3.3,,,,,,,,,,,METAR,497.0
CZSM 210600Z AUTO 30005KT M26/M30 RMK AO1 SOG 42 3022 SLP385 T12601298,CZSM,2015-02-21T06:00:00Z,60.03,-111.93,-26.0,-29.8,300,5,,,,1038.5,,TRUE,TRUE,,,,,,,,,,,,,,,,,,,,,,,,,,,METAR,203.0
TAPA 210600Z 09008KT 9999 SCT018 24/20 Q1017 NOSIG,TAPA,2015-02-21T06:00:00Z,17.12,-61.78,24.0,20.0,90,8,,6.21,30.029528,,,,,,TRUE,,,,,SCT,1800,,,,,,,VFR,,,,,,,,,,,,METAR,14.0
SAZN 210600Z 32006KT CAVOK 19/09 Q1014,SAZN,2015-02-21T06:00:00Z,-38.95,-68.15,19.0,9.0,320,6,,6.21,29.940945,,,,,,,,,,,CAVOK,,,,,,,,VFR,,,,,,,,,,,,METAR,271.0
GOGK 210600Z 04006KT 8000 NSC 20/08 Q1012,GOGK,2015-02-21T06:00:00Z,12.9,-14.97,20.0,8.0,40,6,,4.97,29.88189,,,,,,,,,,,,,,,,,,,,,,,,,,,,,,,METAR,10.0
GOOD 210600Z 02004KT 8000 NSC 16/12 Q1014,GOOD,2015-02-21T06:00:00Z,14.65,-16.22,16.0,12.0,20,4,,4.97,29.940945,,,,,,,,,,,,,,,,,,,,,,,,,,,,,,,METAR,9.0
GOSM 210600Z 00000KT CAVOK 16/07 Q1014,GOSM,2015-02-21T06:00:00Z,15.6,-13.33,16.0,7.0,0,0,,6.21,29.940945,,,,,,,,,,,CAVOK,,,,,,,,VFR,,,,,,,,,,,,METAR,17.0
GOOG 210600Z 36007KT 7000 NSC 19/08 Q////,GOOG,2015-02-21T06:00:00Z,15.4,-15.08,19.0,8.0,360,7,,4.35,,,,,,,,,,,,,,,,,,,,,,,,,,,,,,,,METAR,21.0
GOSP 210600Z 02002KT CAVOK 18/07 Q1015,GOSP,2015-02-21T06:00:00Z,16.68,-14.97,18.0,7.0,20,2,,6.21,29.970472,,,,,,,,,,,CAVOK,,,,,,,,VFR,,,,,,,,,,,,METAR,7.0
GOTK 210600Z 30006KT CAVOK 20/04 Q1011,GOTK,2015-02-21T06:00:00Z,12.57,-12.22,20.0,4.0,300,6,,6.21,29.852362,,,,,,,,,,,CAVOK,,,,,,,,VFR,,,,,,,,,,,,METAR,167.0
GOTT 210600Z 36006KT CAVOK 20/11 Q1012,GOTT,2015-02-21T06:00:00Z,13.73,-13.65,20.0,11.0,360,6,,6.21,29.88189,,,,,,,,,,,CAVOK,,,,,,,,VFR,,,,,,,,,,,,METAR,50.0
GOOK 210600Z 36002KT 8000 NSC 15/12 Q1014,GOOK,2015-02-21T06:00:00Z,14.15,-16.07,15.0,12.0,360,2,,4.97,29.940945,,,,,,,,,,,,,,,,,,,,,,,,,,,,,,,METAR,7.0
FNHU 210600Z 00000KT 9999 FEW015 BKN060 17/17 Q1020,FNHU,2015-02-21T06:00:00Z,-12.82,15.77,17.0,17.0,0,0,,6.21,30.11811,,,,,,,,,,,FEW,1500,BKN,6000,,,,,VFR,,,,,,,,,,,,METAR,1701.0
CXSC 210600Z AUTO 35012KT M10/M14 RMK AO1 PK WND 00018/0512 T10991136,CXSC,2015-02-21T06:00:00Z,50.3,-110.08,-9.9,-13.6,350,12,,,,,,TRUE,TRUE,,,,,,,,,,,,,,,,,,,,,,,,,,,METAR,800.0
CXTV 210600Z AUTO 09002KT M09/M10 RMK AO1 SLP237 T10881095 58013,CXTV,2015-02-21T06:00:00Z,68.75,-133.5,-8.8,-9.5,90,2,,,,1023.7,,TRUE,TRUE,,,,,,,,,,,,,,,,-1.3,,,,,,,,,,,METAR,85.0
CWND 210600Z AUTO 12008KT M14/M16 RMK AO1 SLP200 T11391156 55007,CWND,2015-02-21T06:00:00Z,69.63,-135.43,-13.9,-15.6,120,8,,,,1020.0,,TRUE,TRUE,,,,,,,,,,,,,,,,-0.7,,,,,,,,,,,METAR,12.0
CWJU 210600Z AUTO 13003KT 04/03 RMK AO1 SLP290 T00440031 52006,CWJU,2015-02-21T06:00:00Z,54.25,-133.07,4.4,3.1,130,3,,,,1029.0,,TRUE,TRUE,,,,,,,,,,,,,,,,0.6,,,,,,,,,,,METAR,41.0
CWZV 210600Z AUTO 05006KT 06/03 RMK AO1 SLP280 T00630031 53005,CWZV,2015-02-21T06:00:00Z,51.93,-131.02,6.3,3.1,50,6,,,,1028.0,,TRUE,TRUE,,,,,,,,,,,,,,,,0.5,,,,,,,,,,,METAR,92.0
CWZL 210600Z AUTO 16001KT 07/02 RMK AO1 SLP295 T00730020 51007,CWZL,2015-02-21T06:00:00Z,53.03,-131.6,7.3,2.0,160,1,,,,1029.5,,TRUE,TRUE,,,,,,,,,,,,,,,,0.7,,,,,,,,,,,METAR,17.0
CWRU 210600Z AUTO 36021KT 07/02 RMK AO1 PK WND 01024/0529 SLP250 T00670015 50003,CWRU,2015-02-21T06:00:00Z,50.12,-127.93,6.7,1.5,360,21,,,,1025.0,,TRUE,TRUE,,,,,,,,,,,,,,,,0.3,,,,,,,,,,,METAR,98.0
CWQS 210600Z AUTO 10006KT 06/04 RMK AO1 SLP282 T00620035 52008,CWQS,2015-02-21T06:00:00Z,53.32,-132.77,6.2,3.5,100,6,,,,1028.2,,TRUE,TRUE,,,,,,,,,,,,,,,,0.8,,,,,,,,,,,METAR,14.0
CWME 210600Z AUTO 07010G15KT 05/02 RMK AO1 PK WND 05020/0533 SLP271 T00530015 51004,CWME,2015-02-21T06:00:00Z,52.18,-127.47,5.3,1.5,70,10,15,,,1027.1,,TRUE,TRUE,,,,,,,,,,,,,,,,0.4,,,,,,,,,,,METAR,32.0
CWWL 210600Z AUTO 03004KT 06/03 RMK AO1 SLP281 T00550033 51003,CWWL,2015-02-21T06:00:00Z,53.5,-130.63,5.5,3.3,30,4,,,,1028.1,,TRUE,TRUE,,,,,,,,,,,,,,,,0.3,,,,,,,,,,,METAR,17.0
CXOY 210600Z AUTO 01008KT M11/M13 RMK AO1 T11061131,CXOY,2015-02-21T06:00:00Z,51.38,-110.35,-10.6,-13.1,10,8,,,,,,TRUE,TRUE,,,,,,,,,,,,,,,,,,,,,,,,,,,METAR,767.0
CXKM 210600Z AUTO 33003KT M10/M12 RMK AO1 T10961117,CXKM,2015-02-21T06:00:00Z,52.82,-111.85,-9.6,-11.7,330,3,,,,,,TRUE,TRUE,,,,,,,,,,,,,,,,,,,,,,,,,,,METAR,675.0
CXHR 210600Z AUTO 35006KT M09/M10 RMK AO1 T10921098,CXHR,2015-02-21T06:00:00Z,51.18,-112.5,-9.2,-9.8,350,6,,,,,,TRUE,TRUE,,,,,,,,,,,,,,,,,,,,,,,,,,,METAR,971.0
CXFR 210600Z AUTO 05002KT M04/M05 RMK AO1 T10401051,CXFR,2015-02-21T06:00:00Z,56.08,-118.43,-4.0,-5.1,50,2,,,,,,TRUE,TRUE,,,,,,,,,,,,,,,,,,,,,,,,,,,METAR,655.0
CXDP 210600Z AUTO 07006KT M07/M08 RMK AO1 T10691080 50005,CXDP,2015-02-21T06:00:00Z,54.32,-113.95,-6.9,-8.0,70,6,,,,,,TRUE,TRUE,,,,,,,,,,,,,,,,0.5,,,,,,,,,,,METAR,614.0
CXBR 210600Z AUTO 05004KT M05/M06 RMK AO1 T10461061 50004,CXBR,2015-02-21T06:00:00Z,49.62,-113.82,-4.6,-6.1,50,4,,,,,,TRUE,TRUE,,,,,,,,,,,,,,,,0.4,,,,,,,,,,,METAR,1073.0
CXAF 210600Z AUTO 02005KT M10/M12 RMK AO1 T10961116 50004,CXAF,2015-02-21T06:00:00Z,54.28,-112.97,-9.6,-11.6,20,5,,,,,,TRUE,TRUE,,,,,,,,,,,,,,,,0.4,,,,,,,,,,,METAR,664.0
CWHP 210600Z AUTO 26028G36KT M11/M12 RMK AO1 PK WND 26037/0538 SLP049 T11091117 53052,CWHP,2015-02-21T06:00:00Z,49.07,-61.7,-10.9,-11.7,260,28,36,,,1004.9,,TRUE,TRUE,,,,,,,,,,,,,,,,5.2,,,,,,,,,,,METAR,4.0
CWWX 210600Z AUTO 24011G21KT M12/M13 RMK AO1 PK WND 25021/0558 SLP174 T11191129 57022,CWWX,2015-02-21T06:00:00Z,45.32,-81.73,-11.9,-12.9,240,11,21,,,1017.4,,TRUE,TRUE,,,,,,,,,,,,,,,,-2.2,,,,,,,,,,,METAR,181.0
ORNI 210600Z 28006KT 7000 FEW030 FEW100 09/03 Q1011 NOSIG,ORNI,2015-02-21T06:00:00Z,31.98,44.4,9.0,3.0,280,6,,4.35,29.852362,,,,,,TRUE,,,,,FEW,3000,FEW,10000,,,,,MVFR,,,,,,,,,,,,METAR,53.0
ORMM 210600Z 22008KT 0800 DU NSC 11/01 Q1013 NOSIG,ORMM,2015-02-21T06:00:00Z,30.57,47.67,11.0,1.0,220,8,,0.5,29.911417,,,,,,TRUE,,,,DU,,,,,,,,,,,,,,,,,,,,,METAR,2.0
UUYY 210600Z 21003MPS 2800 -SHSN SCT005 BKN013CB OVC066 01/00 Q0992 TEMPO 1000 SHSNRA 19590335 RMK QFE735/0981,UUYY,2015-02-21T06:00:00Z,61.65,50.82,1.0,0.0,210,6,,1.74,29.291338,,,,,,,,,,-SHSN,SCT,500,BKN,1300,OVC,6600,,,IFR,,,,,,,,,,,,METAR,119.0
UUOO 210600Z 23003G06MPS 9999 OVC011 M01/M04 Q1018 TEMPO FZRA RMK 30090050,UUOO,2015-02-21T06:00:00Z,51.82,39.23,-1.0,-4.0,230,6,12,6.21,30.059055,,,,,,,,,,,OVC,1100,,,,,,,MVFR,,,,,,,,,,,,METAR,157.0
ULMM 210600Z VRB01MPS 9999 BKN011 M03/M05 Q0981 NOSIG RMK QFE729 31490242,ULMM,2015-02-21T06:00:00Z,68.78,32.75,-3.0,-5.0,0,2,,6.21,28.966536,,,,,,TRUE,,,,,BKN,1100,,,,,,,MVFR,,,,,,,,,,,,METAR,51.0
ULAA 210600Z 27004MPS 8000 -SHSNRA OVC009CB 00/00 Q0990 26950545 TEMPO 0700 +SHSN BKN006CB RMK QFE741/0988,ULAA,2015-02-21T06:00:00Z,64.6,40.72,0.0,0.0,270,8,,4.97,29.232283,,,,,,,,,,-SHSN -SHRA,OVC,900,,,,,,,IFR,,,,,,,,,,,,METAR,19.0
DXNG 210600Z 17002KT 8000 NSC 22/21 Q1012 NOSIG,DXNG,2015-02-21T06:00:00Z,9.77,1.1,22.0,21.0,170,2,,4.97,29.88189,,,,,,TRUE,,,,,,,,,,,,,,,,,,,,,,,,,METAR,343.0
DXXX 210600Z VRB02KT 8000 FEW012 26/24 Q1009 NOSIG,DXXX,2015-02-21T06:00:00Z,6.17,1.25,26.0,24.0,0,2,,4.97,29.793306,,,,,,TRUE,,,,,FEW,1200,,,,,,,MVFR,,,,,,,,,,,,METAR,25.0
DNKN 210600Z 03007KT 7000 NIL NSC 19/03 Q1011 NOSIG,DNKN,2015-02-21T06:00:00Z,12.05,8.52,19.0,3.0,30,7,,4.35,29.852362,,,,,,TRUE,,,,,,,,,,,,,,,,,,,,,,,,,METAR,481.0
DRZA 210600Z 10014KT 3200 DU NSC 21/M04 Q1013,DRZA,2015-02-21T06:00:00Z,16.97,8.0,21.0,-4.0,100,14,,1.99,29.911417,,,,,,,,,,DU,,,,,,,,,,,,,,,,,,,,,METAR,502.0
DRRN 210600Z 02006KT 8000 NSC 28/03 Q1009 BECMG 4000 DU,DRRN,2015-02-21T06:00:00Z,13.47,2.17,28.0,3.0,20,6,,4.97,29.793306,,,,,,,,,,,,,,,,,,,,,,,,,,,,,,,METAR,227.0
SYCJ 210600Z 35004KT 9999 FEW016 23/23 Q1012 NOSIG,SYCJ,2015-02-21T06:00:00Z,6.5,-58.25,23.0,23.0,350,4,,6.21,29.88189,,,,,,TRUE,,,,,FEW,1600,,,,,,,VFR,,,,,,,,,,,,METAR,30.0
SVMI 210600Z 00000KT 9999 FEW016 25/20 Q1014 NOSIG,SVMI,2015-02-21T06:00:00Z,10.58,-67.0,25.0,20.0,0,0,,6.21,29.940945,,,,,,TRUE,,,,,FEW,1600,,,,,,,VFR,,,,,,,,,,,,METAR,48.0
GFLL 210600Z 23008KT 9999 BKN010 25/22 Q1008,GFLL,2015-02-21T06:00:00Z,8.62,-13.18,25.0,22.0,230,8,,6.21,29.763779,,,,,,,,,,,BKN,1000,,,,,,,MVFR,,,,,,,,,,,,METAR,27.0
GQPZ 210600Z 32006KT 8000 FEW040 10/07 Q1019,GQPZ,2015-02-21T06:00:00Z,22.75,-12.48,10.0,7.0,320,6,,4.97,30.088583,,,,,,,,,,,FEW,4000,,,,,,,MVFR,,,,,,,,,,,,METAR,344.0
YHID 210600Z AUTO 33010KT 9999 // NCD 31/25 Q1008,YHID,2015-02-21T06:00:00Z,-10.58,142.3,31.0,25.0,330,10,,6.21,29.763779,,,TRUE,,,,,,,,,,,,,,,,,,,,,,,,,,,,METAR,13.0
TNCA 210600Z 07010KT 9999 FEW08 26/22 Q1013 A2993 NOSIG,TNCA,2015-02-21T06:00:00Z,12.5,-70.0,26.0,22.0,70,10,,6.21,29.911417,,,,,,TRUE,,,,,,,,,,,,,,,,,,,,,,,,,METAR,18.0
GOGG 210600Z 36004KT CAVOK 18/09 Q1013,GOGG,2015-02-21T06:00:00Z,12.55,-16.27,18.0,9.0,360,4,,6.21,29.911417,,,,,,,,,,,CAVOK,,,,,,,,VFR,,,,,,,,,,,,METAR,23.0
GOSS 210600Z 36006KT 340V050 CAVOK 16/13 Q1015,GOSS,2015-02-21T06:00:00Z,16.05,-16.43,16.0,13.0,360,6,,6.21,29.970472,,,,,,,,,,,CAVOK,,,,,,,,VFR,,,,,,,,,,,,METAR,4.0
GOGS 210600Z 36008KT 8000 NSC 18/12 Q1012,GOGS,2015-02-21T06:00:00Z,12.4,-16.75,18.0,12.0,360,8,,4.97,29.88189,,,,,,,,,,,,,,,,,,,,,,,,,,,,,,,METAR,13.0
FNGI 210600Z 24005KT CAVOK 23/13 Q1014,FNGI,2015-02-21T06:00:00Z,-17.05,15.68,23.0,13.0,240,5,,6.21,29.940945,,,,,,,,,,,CAVOK,,,,,,,,VFR,,,,,,,,,,,,METAR,1087.0
DAUB 210600Z 00000KT 6000 BKN033 BKN100 11/10 Q1011,DAUB,2015-02-21T06:00:00Z,34.78,5.72,11.0,10.0,0,0,,3.73,29.852362,,,,,,,,,,,BKN,3300,BKN,10000,,,,,MVFR,,,,,,,,,,,,METAR,87.0
GABS 210600Z 02008KT CAVOK 22/05 Q1013 NOSIG,GABS,2015-02-21T06:00:00Z,12.52,-7.95,22.0,5.0,20,8,,6.21,29.911417,,,,,,TRUE,,,,,CAVOK,,,,,,,,VFR,,,,,,,,,,,,METAR,381.0
GGOV 210600Z 36008KT CAVOK 17/07 Q1011 NOSIG,GGOV,2015-02-21T06:00:00Z,11.87,-15.65,17.0,7.0,360,8,,6.21,29.852362,,,,,,TRUE,,,,,CAVOK,,,,,,,,VFR,,,,,,,,,,,,METAR,36.0
URWI 210600Z 11003MPS CAVOK M05/M09 Q1026 NOSIG,URWI,2015-02-21T06:00:00Z,46.37,44.33,-5.0,-9.0,110,6,,6.21,30.295275,,,,,,TRUE,,,,,CAVOK,,,,,,,,VFR,,,,,,,,,,,,METAR,150.0
VTUO 210600Z VRB04KT 7000 FEW018TCU SCT020 BKN300 31/22 Q1010 A2985 INFO G RWY 22,VTUO,2015-02-21T06:00:00Z,15.23,103.25,31.0,22.0,0,4,,4.35,29.822834,,,,,,,,,,,FEW,1800,SCT,2000,BKN,30000,,,MVFR,,,,,,,,,,,,METAR,183.0
SKCL 210600Z 1603KT 9000 FEW020 BKN100 21/18 A2998,SKCL,2015-02-21T06:00:00Z,3.53,-76.37,21.0,18.0,,,,5.59,29.97933,,,,,,,,,,,FEW,2000,BKN,10000,,,,,VFR,,,,,,,,,,,,METAR,969.0
SKBO 210600Z 32004KT 9999 FEW015 10/08 A3032,SKBO,2015-02-21T06:00:00Z,4.7,-74.12,10.0,8.0,320,4,,6.21,30.318897,,,,,,,,,,,FEW,1500,,,,,,,VFR,,,,,,,,,,,,METAR,2548.0
SKAR 210600Z 00000KT 9999 SCT022 SCT120 20/19 A3007,SKAR,2015-02-21T06:00:00Z,4.45,-75.77,20.0,19.0,0,0,,6.21,30.070866,,,,,,,,,,,SCT,2200,SCT,12000,,,,,VFR,,,,,,,,,,,,METAR,1219.0
SKRG 210600Z 00000KT 5000 BR SCT010 SCT200 15/14 A3029,SKRG,2015-02-21T06:00:00Z,6.17,-75.42,15.0,14.0,0,0,,3.11,30.28937,,,,,,,,,,BR,SCT,1000,SCT,20000,,,,,MVFR,,,,,,,,,,,,METAR,2137.0
SKBQ 210600Z 03008KT CAVOK 26/23 A2986,SKBQ,2015-02-21T06:00:00Z,10.9,-74.77,26.0,23.0,30,8,,6.21,29.861221,,,,,,,,,,,CAVOK,,,,,,,,VFR,,,,,,,,,,,,METAR,10.0
SKCG 210600Z 03015KT 9999 FEW015 27/23 A2784,SKCG,2015-02-21T06:00:00Z,10.43,-75.52,27.0,23.0,30,15,,6.21,27.838583,,,,,,,,,,,FEW,1500,,,,,,,VFR,,,,,,,,,,,,METAR,1.0
SKSP 210600Z 03010KT 9999 FEW012 BKN080 26/23 A2993,SKSP,2015-02-21T06:00:00Z,12.57,-81.72,26.0,23.0,30,10,,6.21,29.929134,,,,,,,,,,,FEW,1200,BKN,8000,,,,,VFR,,,,,,,,,,,,METAR,-2.0
SAVC 210600Z 27002KT CAVOK 20/10 Q1008,SAVC,2015-02-21T06:00:00Z,-45.77,-67.47,20.0,10.0,270,2,,6.21,29.763779,,,,,,,,,,,CAVOK,,,,,,,,VFR,,,,,,,,,,,,METAR,46.0
UWOR 210600Z 27010MPS 9999 DRSN BKN100 M13/M17 Q1020 25450245 NOSIG RMK QFE741/0989,UWOR,2015-02-21T06:00:00Z,51.07,58.6,-13.0,-17.0,270,19,,6.21,30.11811,,,,,,TRUE,,,,DRSN,BKN,10000,,,,,,,VFR,,,,,,,,,,,,METAR,277.0
UWLW 210600Z 24006MPS 8000 OVC013 M03/M04 Q1013 20390135 NOSIG RMK QFE754,UWLW,2015-02-21T06:00:00Z,54.4,48.8,-3.0,-4.0,240,12,,4.97,29.911417,,,,,,TRUE,,,,,OVC,1300,,,,,,,MVFR,,,39.0,,,,,,,,,METAR,66.0
UUOK 210600Z 23007MPS 1400 R12/1400 BR OVC002 00/00 Q1018 NOSIG RMK QBB080 12290040,UUOK,2015-02-21T06:00:00Z,51.75,36.28,0.0,0.0,230,14,,0.87,30.059055,,,,,,TRUE,,,,BR,OVC,200,,,,,,,LIFR,,,,,,,,,,,,METAR,209.0
UUBP 210600Z 20005MPS 4300 BR OVC005 01/00 Q1014 NOSIG 16190060 RMK QFE742,UUBP,2015-02-21T06:00:00Z,53.22,34.18,1.0,0.0,200,10,,2.67,29.940945,,,,,,TRUE,,,,BR,OVC,500,,,,,,,IFR,,,,,,,,,,,,METAR,202.0
UHPP 210600Z 30005MPS 9999 NSC M04/M15 Q1018 NOSIG RMK QFE760/1013 SC070,UHPP,2015-02-21T06:00:00Z,53.17,158.45,-4.0,-15.0,300,10,,6.21,30.059055,,,,,,TRUE,,,,,,,,,,,,,,,,,,,,,,,,,METAR,40.0
GUCY 210600Z VRB02KT 9999 BKN110 25/17 Q1009 NOSIG,GUCY,2015-02-21T06:00:00Z,9.57,-13.62,25.0,17.0,0,2,,6.21,29.793306,,,,,,TRUE,,,,,BKN,11000,,,,,,,VFR,,,,,,,,,,,,METAR,26.0
FKYS 210600Z 21004KT 8000 SCT003 BKN006 21/20 Q1013 NOSIG,FKYS,2015-02-21T06:00:00Z,3.82,11.52,21.0,20.0,210,4,,4.97,29.911417,,,,,,TRUE,,,,,SCT,300,BKN,600,,,,,IFR,,,,,,,,,,,,METAR,760.0
FKKR 210600Z VRB03KT 8000 NSC 27/08 Q1008,FKKR,2015-02-21T06:00:00Z,9.32,13.37,27.0,8.0,0,3,,4.97,29.763779,,,,,,,,,,,,,,,,,,,,,,,,,,,,,,,METAR,244.0
FKKN 210600Z 00000KT CAVOK 15/09 Q1015,FKKN,2015-02-21T06:00:00Z,7.33,13.57,15.0,9.0,0,0,,6.21,29.970472,,,,,,,,,,,CAVOK,,,,,,,,VFR,,,,,,,,,,,,METAR,1104.0
GVSV 210600Z 07019KT 9999 SCT018 BKN200 19/12 Q1018 NOSIG,GVSV,2015-02-21T06:00:00Z,16.83,-25.07,19.0,12.0,70,19,,6.21,30.059055,,,,,,TRUE,,,,,SCT,1800,BKN,20000,,,,,VFR,,,,,,,,,,,,METAR,20.0
GVAC 210600Z 06015KT 9999 BKN015 BKN200 18/11 Q1018 NOSIG,GVAC,2015-02-21T06:00:00Z,16.72,-22.93,18.0,11.0,60,15,,6.21,30.059055,,,,,,TRUE,,,,,BKN,1500,BKN,20000,,,,,MVFR,,,,,,,,,,,,METAR,55.0
VTPP 210600Z 22006KT 7000 SCT022 SCT300 31/20 Q1011,VTPP,2015-02-21T06:00:00Z,16.78,100.28,31.0,20.0,220,6,,4.35,29.852362,,,,,,,,,,,SCT,2200,SCT,30000,,,,,MVFR,,,,,,,,,,,,METAR,44.0
VTPH 210600Z 14012KT 9999 FEW032 31/25 Q1012 NOSIG,VTPH,2015-02-21T06:00:00Z,12.63,99.95,31.0,25.0,140,12,,6.21,29.88189,,,,,,TRUE,,,,,FEW,3200,,,,,,,VFR,,,,,,,,,,,,METAR,6.0
VTCT 210600Z 09005KT 030V130 6000 NSC 27/16 Q1013 RMK/RWY03 INFO G,VTCT,2015-02-21T06:00:00Z,19.95,99.88,27.0,16.0,90,5,,3.73,29.911417,,,,,,,,,,,,,,,,,,,,,,,,,,,,,,,METAR,390.0
VTCN 210600Z 25004KT 9999 FEW022TCU 32/11 Q1011 RWY/02 INFO/G,VTCN,2015-02-21T06:00:00Z,18.82,100.77,32.0,11.0,250,4,,6.21,29.852362,,,,,,,,,,,FEW,2200,,,,,,,VFR,,,,,,,,,,,,METAR,201.0
VTCL 210600Z VRB04KT 8000 FEW025 31/18 Q1012 A2989 NOSIG INFO: H,VTCL,2015-02-21T06:00:00Z,18.27,99.52,31.0,18.0,0,4,,4.97,29.88189,,,,,,TRUE,,,,,FEW,2500,,,,,,,MVFR,,,,,,,,,,,,METAR,242.0
VTUU 210600Z 14002KT 7000 FEW023 BKN110 25/22 Q1012 A2989 RERA NOSIG,VTUU,2015-02-21T06:00:00Z,15.25,104.87,25.0,22.0,140,2,,4.35,29.88189,,,,,,TRUE,,,,,FEW,2300,BKN,11000,,,,,MVFR,,,,,,,,,,,,METAR,127.0
VTUK 210600Z VRB04KT 9999 FEW030 SCT100 BKN300 32/20 Q1012 A2988 RWY03 INFO H,VTUK,2015-02-21T06:00:00Z,16.47,102.78,32.0,20.0,0,4,,6.21,29.88189,,,,,,,,,,,FEW,3000,SCT,10000,BKN,30000,,,VFR,,,,,,,,,,,,METAR,204.0
VTUI 210600Z 01002KT 9000 FEW030 BKN100 31/20 Q1012 A2989 INFO G RWY05,VTUI,2015-02-21T06:00:00Z,17.2,104.12,31.0,20.0,10,2,,5.59,29.88189,,,,,,,,,,,FEW,3000,BKN,10000,,,,,VFR,,,,,,,,,,,,METAR,172.0
VTUD 210600Z 30006KT 240V340 7000 SCT040 31/21 Q1012 A2988 INFO I RWY30,VTUD,2015-02-21T06:00:00Z,17.37,102.78,31.0,21.0,300,6,,4.35,29.88189,,,,,,,,,,,SCT,4000,,,,,,,MVFR,,,,,,,,,,,,METAR,182.0
VTBO 210600Z 25002KT 9999 SCT023 28/24 Q1012,VTBO,2015-02-21T06:00:00Z,12.28,102.32,28.0,24.0,250,2,,6.21,29.88189,,,,,,,,,,,SCT,2300,,,,,,,VFR,,,,,,,,,,,,METAR,32.0
VTST 210600Z 07013KT 9999 FEW020 33/22 Q1009 RWY08 INFO G,VTST,2015-02-21T06:00:00Z,7.52,99.62,33.0,22.0,70,13,,6.21,29.793306,,,,,,,,,,,FEW,2000,,,,,,,VFR,,,,,,,,,,,,METAR,16.0
VTSM 210600Z 15012KT 9999 FEW020 BKN300 31/23 Q1013 A2991,VTSM,2015-02-21T06:00:00Z,9.55,100.07,31.0,23.0,150,12,,6.21,29.911417,,,,,,,,,,,FEW,2000,BKN,30000,,,,,VFR,,,,,,,,,,,,METAR,17.0
VTSH 210600Z 09008KT 9999 FEW020 BKN300 30/23 Q1011 A2987,VTSH,2015-02-21T06:00:00Z,7.2,100.58,30.0,23.0,90,8,,6.21,29.852362,,,,,,,,,,,FEW,2000,BKN,30000,,,,,VFR,,,,,,,,,,,,METAR,5.0
VTSG 210600Z 09009KT 040V140 9999 SCT020 34/19 Q1011 A2985,VTSG,2015-02-21T06:00:00Z,8.1,98.98,34.0,19.0,90,9,,6.21,29.852362,,,,,,,,,,,SCT,2000,,,,,,,VFR,,,,,,,,,,,,METAR,25.0
VTSF 210600Z 09010KT 060V120 9999 SCT020 31/23 Q1012 A2988 INFO G / RWY 19,VTSF,2015-02-21T06:00:00Z,8.53,99.95,31.0,23.0,90,10,,6.21,29.88189,,,,,,,,,,,SCT,2000,,,,,,,VFR,,,,,,,,,,,,METAR,4.0
VTSB 210600Z 03012KT 9999 FEW020 31/25 Q1011 A2986,VTSB,2015-02-21T06:00:00Z,9.12,99.13,31.0,25.0,30,12,,6.21,29.852362,,,,,,,,,,,FEW,2000,,,,,,,VFR,,,,,,,,,,,,METAR,11.0
NGTT 210600Z VRB03KT 9999 FEW018 BKN100 30/23 Q1007,NGTT,2015-02-21T06:00:00Z,1.35,172.92,30.0,23.0,0,3,,6.21,29.734253,,,,,,,,,,,FEW,1800,BKN,10000,,,,,VFR,,,,,,,,,,,,METAR,2.0
LERI 210600Z 00000KT CAVOK 02/02 Q1011 NOSIG,LERI,2015-02-21T06:00:00Z,37.95,-1.22,2.0,2.0,0,0,,6.21,29.852362,,,,,,TRUE,,,,,CAVOK,,,,,,,,VFR,,,,,,,,,,,,METAR,75.0
CWWA 210600Z AUTO 02001KT 05/02 RMK AO1 SLP249 T00470020 51007,CWWA,2015-02-21T06:00:00Z,49.35,-123.17,4.7,2.0,20,1,,,,1024.9,,TRUE,TRUE,,,,,,,,,,,,,,,,0.7,,,,,,,,,,,METAR,178.0
CWVQ 210600Z AUTO 24006KT M17/M22 RMK AO1 SLP276 T11691217 51010,CWVQ,2015-02-21T06:00:00Z,45.42,-73.92,-16.9,-21.7,240,6,,,,1027.6,,TRUE,TRUE,,,,,,,,,,,,,,,,1.0,,,,,,,,,,,METAR,39.0
CWVN 210600Z AUTO 36013KT M08/M10 RMK AO1 PK WND 02017/0524 SLP229 T10771100 53023,CWVN,2015-02-21T06:00:00Z,49.07,-107.57,-7.7,-10.0,360,13,,,,1022.9,,TRUE,TRUE,,,,,,,,,,,,,,,,2.3,,,,,,,,,,,METAR,785.0
CWVI 210600Z AUTO 34006KT M09/M10 RMK AO1 5PAST HR 3015 SLP297 P0002 T10921102 50014,CWVI,2015-02-21T06:00:00Z,53.52,-112.1,-9.2,-10.2,340,6,,,,1029.7,,TRUE,TRUE,,,,,,,,,,,,,,,,1.4,,,,,0.02,,,,,,METAR,639.0
CWVF 210600Z AUTO 30010KT 08/04 RMK AO1 T00820041,CWVF,2015-02-21T06:00:00Z,49.1,-123.3,8.2,4.1,300,10,,,,,,TRUE,TRUE,,,,,,,,,,,,,,,,,,,,,,,,,,,METAR,1.0
CWUX 210600Z AUTO 25007KT M20/M25 RMK AO1 SLP235 T11951254 51027,CWUX,2015-02-21T06:00:00Z,48.3,-70.93,-19.5,-25.4,250,7,,,,1023.5,,TRUE,TRUE,,,,,,,,,,,,,,,,2.7,,,,,,,,,,,METAR,135.0
CWUS 210600Z AUTO 29005KT 04/M03 RMK AO1 SLP240 T00351034 51006,CWUS,2015-02-21T06:00:00Z,49.57,-119.65,3.5,-3.4,290,5,,,,1024.0,,TRUE,TRUE,,,,,,,,,,,,,,,,0.6,,,,,,,,,,,METAR,454.0
CWTY 210600Z AUTO 19011KT M16/M19 RMK AO1 SLP268 T11641189 53018,CWTY,2015-02-21T06:00:00Z,46.35,-72.52,-16.4,-18.9,190,11,,,,1026.8,,TRUE,TRUE,,,,,,,,,,,,,,,,1.8,,,,,,,,,,,METAR,6.0
CWTT 210600Z AUTO 25006KT M19/M23 RMK AO1 T11871230,CWTT,2015-02-21T06:00:00Z,45.27,-72.17,-18.7,-23.0,250,6,,,,,,TRUE,TRUE,,,,,,,,,,,,,,,,,,,,,,,,,,,METAR,209.0
CWTN 210600Z AUTO 26008G15KT M16/M23 RMK AO1 SLP251 T11551226 52034,CWTN,2015-02-21T06:00:00Z,47.07,-70.78,-15.5,-22.6,260,8,15,,,1025.1,,TRUE,TRUE,,,,,,,,,,,,,,,,3.4,,,,,,,,,,,METAR,6.0
CWTG 210600Z AUTO 27025G33KT M14/M16 RMK AO1 PK WND 28034/0502 SLP137 T11401162 53059,CWTG,2015-02-21T06:00:00Z,49.32,-67.37,-14.0,-16.2,270,25,33,,,1013.7,,TRUE,TRUE,,,,,,,,,,,,,,,,5.9,,,,,,,,,,,METAR,5.0
CWTA 210600Z AUTO 16004KT M15/M20 RMK AO1 SLP269 T11521203 53012,CWTA,2015-02-21T06:00:00Z,45.5,-73.58,-15.2,-20.3,160,4,,,,1026.9,,TRUE,TRUE,,,,,,,,,,,,,,,,1.2,,,,,,,,,,,METAR,63.0
CWGT 210600Z AUTO 32013KT 08/04 RMK AO1 SLP253 T00770035 52007,CWGT,2015-02-21T06:00:00Z,49.48,-124.43,7.7,3.5,320,13,,,,1025.3,,TRUE,TRUE,,,,,,,,,,,,,,,,0.7,,,,,,,,,,,METAR,5.0
CWGR 210600Z AUTO 26026G32KT M10/M14 RMK AO1 PK WND 25037/0500 SLP116 T11041144 53044,CWGR,2015-02-21T06:00:00Z,47.42,-61.8,-10.4,-14.4,260,26,32,,,1011.6,,TRUE,TRUE,,,,,,,,,,,,,,,,4.4,,,,,,,,,,,METAR,60.0
CWGM 210600Z AUTO 07001KT M06/M07 RMK AO1 7PAST HR M P0003 T10621074 50026,CWGM,2015-02-21T06:00:00Z,49.13,-113.78,-6.2,-7.4,70,1,,,,,,TRUE,TRUE,,,,,,,,,,,,,,,,2.6,,,,,0.03,,,,,,METAR,1296.0
CWGB 210600Z AUTO 24010KT 06/04 RMK AO1 SLP250 T00600036 53007,CWGB,2015-02-21T06:00:00Z,49.35,-124.17,6.0,3.6,240,10,,,,1025.0,,TRUE,TRUE,,,,,,,,,,,,,,,,0.7,,,,,,,,,,,METAR,5.0
CWFQ 210600Z AUTO 20003KT M17/M20 RMK AO1 SOG 44 2014 SLP275 T11651202,CWFQ,2015-02-21T06:00:00Z,45.03,-72.82,-16.5,-20.2,200,3,,,,1027.5,,TRUE,TRUE,,,,,,,,,,,,,,,,,,,,,,,,,,,METAR,152.0
CWFJ 210600Z AUTO 30003KT M07/M07 RMK AO1 T10661066 50018,CWFJ,2015-02-21T06:00:00Z,49.2,-113.27,-6.6,-6.6,300,3,,,,,,TRUE,TRUE,,,,,,,,,,,,,,,,1.8,,,,,,,,,,,METAR,1136.0
CWEZ 210600Z AUTO 34003KT 07/04 RMK AO1 SLP251 T00680035 51005,CWEZ,2015-02-21T06:00:00Z,48.78,-123.05,6.8,3.5,340,3,,,,1025.1,,TRUE,TRUE,,,,,,,,,,,,,,,,0.5,,,,,,,,,,,METAR,7.0
CWEW 210600Z AUTO 23006KT M20/M26 RMK AO1 SOG 13 3013 SLP287 T11991255,CWEW,2015-02-21T06:00:00Z,45.82,-73.43,-19.9,-25.5,230,6,,,,1028.7,,TRUE,TRUE,,,,,,,,,,,,,,,,,,,,,,,,,,,METAR,21.0
CWEL 210600Z AUTO 28007KT 07/03 RMK AO1 SLP252 T00650030 53006,CWEL,2015-02-21T06:00:00Z,49.22,-123.78,6.5,3.0,280,7,,,,1025.2,,TRUE,TRUE,,,,,,,,,,,,,,,,0.6,,,,,,,,,,,METAR,5.0
CWST 210600Z AUTO 22013KT M16/M21 RMK AO1 SOG 12 1035 SLP227 T11611214,CWST,2015-02-21T06:00:00Z,47.35,-70.02,-16.1,-21.4,220,13,,,,1022.7,,TRUE,TRUE,,,,,,,,,,,,,,,,,,,,,,,,,,,METAR,31.0
CWSR 210600Z AUTO 30007KT M21/M24 RMK AO1 SOG 20 1015 SLP277 T12071235 50002,CWSR,2015-02-21T06:00:00Z,53.37,-107.53,-20.7,-23.5,300,7,,,,1027.7,,TRUE,TRUE,,,,,,,,,,,,,,,,0.2,,,,,,,,,,,METAR,584.0
CWSP 210600Z AUTO 28001KT 07/05 RMK AO1 SLP253 T00710046 51003,CWSP,2015-02-21T06:00:00Z,48.38,-123.92,7.1,4.6,280,1,,,,1025.3,,TRUE,TRUE,,,,,,,,,,,,,,,,0.3,,,,,,,,,,,METAR,21.0
CWSL 210600Z AUTO 01001KT 01/M00 RMK AO1 SLP251 T00071004 53007,CWSL,2015-02-21T06:00:00Z,50.7,-119.27,0.7,-0.4,10,1,,,,1025.1,,TRUE,TRUE,,,,,,,,,,,,,,,,0.7,,,,,,,,,,,METAR,351.0
CWSK 210600Z AUTO 00000KT 03/03 RMK AO1 SLP251 T00340034 52009,CWSK,2015-02-21T06:00:00Z,49.78,-123.17,3.4,3.4,0,0,,,,1025.1,,TRUE,TRUE,,,,,,,,,,,,,,,,0.9,,,,,,,,,,,METAR,60.0
CWSG 210600Z AUTO 25028G36KT M14/M16 RMK AO1 0PAST HR 2058 PK WND 25037/0530 SLP136 P0004 T11351157 50010,CWSG,2015-02-21T06:00:00Z,49.12,-66.65,-13.5,-15.7,250,28,36,,,1013.6,,TRUE,TRUE,,,,,,,,,,,,,,,,1.0,,,,,0.04,,,,,,METAR,5.0
CWSD 210600Z AUTO 27018KT M11/M16 RMK AO1 SOG 79 1047 PK WND 26028/0524 SLP165 T11051164,CWSD,2015-02-21T06:00:00Z,46.42,-63.85,-10.5,-16.4,270,18,,,,1016.5,,TRUE,TRUE,,,,,,,,,,,,,,,,,,,,,,,,,,,METAR,24.0
CWRZ 210600Z AUTO 26016G25KT M11/M17 RMK AO1 PK WND 26025/0559 SLP097 T11131167 53054,CWRZ,2015-02-21T06:00:00Z,48.42,-64.32,-11.3,-16.7,260,16,25,,,1009.7,,TRUE,TRUE,,,,,,,,,,,,,,,,5.4,,,,,,,,,,,METAR,16.0
CWRT 210600Z AUTO 12009G15KT M05/M06 RMK AO1 T10471056,CWRT,2015-02-21T06:00:00Z,49.62,-114.47,-4.7,-5.6,120,9,15,,,,,TRUE,TRUE,,,,,,,,,,,,,,,,,,,,,,,,,,,METAR,1303.0
CWRK 210600Z AUTO 22003KT M17/M24 RMK AO1 SOG 38 6010 SLP232 T11711243,CWRK,2015-02-21T06:00:00Z,45.07,-77.87,-17.1,-24.3,220,3,,,,1023.2,,TRUE,TRUE,,,,,,,,,,,,,,,,,,,,,,,,,,,METAR,331.0
CWRJ 210600Z AUTO 31006KT M17/M19 RMK AO1 2PAST HR SOG 14 1025 SLP273 P0001 T11731190 50002,CWRJ,2015-02-21T06:00:00Z,51.57,-107.92,-17.3,-19.0,310,6,,,,1027.3,,TRUE,TRUE,,,,,,,,,,,,,,,,0.2,,,,,0.01,,,,,,METAR,586.0
CWQV 210600Z AUTO 28018KT M17/M24 RMK AO1 PK WND 27027/0505 T11731237,CWQV,2015-02-21T06:00:00Z,48.27,-70.12,-17.3,-23.7,280,18,,,,,,TRUE,TRUE,,,,,,,,,,,,,,,,,,,,,,,,,,,METAR,1.0
CWQR 210600Z AUTO 28028G34KT M12/ RMK AO1 PK WND 27036/0528 T1116,CWQR,2015-02-21T06:00:00Z,50.22,-64.22,-11.6,,280,28,34,,,,,TRUE,TRUE,,,,,,,,,,,,,,,,,,,,,,,,,,,METAR,9.0
CWQP 210600Z AUTO 20015KT M10/M16 RMK AO1 PK WND 20020/0504 SLP264 T11001159 57010,CWQP,2015-02-21T06:00:00Z,43.83,-77.15,-10.0,-15.9,200,15,,,,1026.4,,TRUE,TRUE,,,,,,,,,,,,,,,,-1.0,,,,,,,,,,,METAR,79.0
CWQO 210600Z AUTO 26016G22KT M15/M22 RMK AO1 PK WND 24027/0507 T11511216,CWQO,2015-02-21T06:00:00Z,48.42,-68.9,-15.1,-21.6,260,16,22,,,,,TRUE,TRUE,,,,,,,,,,,,,,,,,,,,,,,,,,,METAR,1.0
CWQK 210600Z AUTO 36006KT 08/05 RMK AO1 SLP251 T00800052 53006,CWQK,2015-02-21T06:00:00Z,48.3,-123.53,8.0,5.2,360,6,,,,1025.1,,TRUE,TRUE,,,,,,,,,,,,,,,,0.6,,,,,,,,,,,METAR,5.0
CWQH 210600Z AUTO 20003KT M22/M27 RMK AO1 SOG 27 T12211267,CWQH,2015-02-21T06:00:00Z,45.37,-71.82,-22.1,-26.7,200,3,,,,,,TRUE,TRUE,,,,,,,,,,,,,,,,,,,,,,,,,,,METAR,181.0
CAHR 210600Z AUTO 26015G21KT M12/M16 RMK AO1 PK WND 26024/0503 SLP160 T11181164 52046,CAHR,2015-02-21T06:00:00Z,46.35,-63.17,-11.8,-16.4,260,15,21,,,1016.0,,TRUE,TRUE,,,,,,,,,,,,,,,,4.6,,,,,,,,,,,METAR,53.0
CZEL 210600Z AUTO 15004KT M19/M23 RMK AO1 6017 SLP224 T11861230 50009,CZEL,2015-02-21T06:00:00Z,43.65,-80.42,-18.6,-23.0,150,4,,,,1022.4,,TRUE,TRUE,,,,,,,,,,,,,,,,0.9,,,,,,,,,,,METAR,376.0
CXBI 210600Z AUTO 17006KT M17/M22 RMK AO1 SLP229 T11721215 56019,CXBI,2015-02-21T06:00:00Z,44.48,-79.55,-17.2,-21.5,170,6,,,,1022.9,,TRUE,TRUE,,,,,,,,,,,,,,,,-1.9,,,,,,,,,,,METAR,289.0
CTRA 210600Z AUTO 35004KT M17/M19 RMK AO1 SLP158 T11741194 51022,CTRA,2015-02-21T06:00:00Z,49.67,-93.73,-17.4,-19.4,350,4,,,,1015.8,,TRUE,TRUE,,,,,,,,,,,,,,,,2.2,,,,,,,,,,,METAR,435.0
CWDZ 210600Z AUTO 00000KT M09/M11 RMK AO1 SLP276 T10921107 51009,CWDZ,2015-02-21T06:00:00Z,51.42,-112.67,-9.2,-10.7,0,0,,,,1027.6,,TRUE,TRUE,,,,,,,,,,,,,,,,0.9,,,,,,,,,,,METAR,678.0
CWDJ 210600Z AUTO 34010KT M18/M22 RMK AO1 SOG 09 2029 SLP252 T11841215 50004,CWDJ,2015-02-21T06:00:00Z,50.4,-104.58,-18.4,-21.5,340,10,,,,1025.2,,TRUE,TRUE,,,,,,,,,,,,,,,,0.4,,,,,,,,,,,METAR,573.0
CWCJ 210600Z AUTO 26006KT M11/M12 RMK AO1 6003 SLP082 T11081115 50008,CWCJ,2015-02-21T06:00:00Z,48.6,-86.28,-10.8,-11.5,260,6,,,,1008.2,,TRUE,TRUE,,,,,,,,,,,,,,,,0.8,,,,,,,,,,,METAR,206.0
CWBT 210600Z AUTO 27008G19KT M13/M14 RMK AO1 PK WND 25024/0507 SLP044 T11331144 53055,CWBT,2015-02-21T06:00:00Z,50.27,-64.23,-13.3,-14.4,270,8,19,,,1004.4,,TRUE,TRUE,,,,,,,,,,,,,,,,5.5,,,,,,,,,,,METAR,11.0
CWBS 210600Z AUTO 20013G18KT M17/M22 RMK AO1 PK WND 22019/0500 T11651215,CWBS,2015-02-21T06:00:00Z,46.18,-72.92,-16.5,-21.5,200,13,18,,,,,TRUE,TRUE,,,,,,,,,,,,,,,,,,,,,,,,,,,METAR,16.0
CWBO 210600Z AUTO 03008KT M07/M10 RMK AO1 SOG 01 2016 SLP273 T10721099,CWBO,2015-02-21T06:00:00Z,50.53,-111.83,-7.2,-9.9,30,8,,,,1027.3,,TRUE,TRUE,,,,,,,,,,,,,,,,,,,,,,,,,,,METAR,747.0
CWAV 210600Z AUTO 26002KT M05/M06 RMK AO1 SOG 08 2008 SLP267 T10521055,CWAV,2015-02-21T06:00:00Z,51.77,-114.67,-5.2,-5.5,260,2,,,,1026.7,,TRUE,TRUE,,,,,,,,,,,,,,,,,,,,,,,,,,,METAR,1114.0
CWAQ 210600Z AUTO 34018KT M12/M15 RMK AO1 SOG 00 2027 PK WND 35023/0512 SLP212 T11181147 50002,CWAQ,2015-02-21T06:00:00Z,49.05,-105.48,-11.8,-14.7,340,18,,,,1021.2,,TRUE,TRUE,,,,,,,,,,,,,,,,0.2,,,,,,,,,,,METAR,756.0
CWAF 210600Z AUTO M14/M19 RMK AO1 T11391190,CWAF,2015-02-21T06:00:00Z,48.07,-69.53,-13.9,-19.0,,,,,,,,TRUE,TRUE,,,,,,,,,,,,,,,,,,,,,,,,,,,METAR,5.0
CWWB 210600Z AUTO 31003KT M16/M21 RMK AO1 SLP238 T11561212 56026,CWWB,2015-02-21T06:00:00Z,43.3,-79.78,-15.6,-21.2,310,3,,,,1023.8,,TRUE,TRUE,,,,,,,,,,,,,,,,-2.6,,,,,,,,,,,METAR,76.0
CWDV 210600Z AUTO 29003KT M18/M19 RMK AO1 SOG 60 3016 SLP108 T11801190 50002,CWDV,2015-02-21T06:00:00Z,49.02,-90.47,-18.0,-19.0,290,3,,,,1010.8,,TRUE,TRUE,,,,,,,,,,,,,,,,0.2,,,,,,,,,,,METAR,489.0
CWDQ 210600Z AUTO 11003KT M29/M31 RMK AO1 SOG 38 2015 SLP252 T12861311,CWDQ,2015-02-21T06:00:00Z,47.42,-72.78,-28.6,-31.1,110,3,,,,1025.2,,TRUE,TRUE,,,,,,,,,,,,,,,,,,,,,,,,,,,METAR,169.0
CWWZ 210600Z AUTO 14005KT M15/M21 RMK AO1 SOG 08 6029 SLP241 T11521207,CWWZ,2015-02-21T06:00:00Z,43.25,-79.22,-15.2,-20.7,140,5,,,,1024.1,,TRUE,TRUE,,,,,,,,,,,,,,,,,,,,,,,,,,,METAR,79.0
CWPO 210600Z AUTO 35010KT M18/M20 RMK AO1 SLP213 T11811199 51021,CWPO,2015-02-21T06:00:00Z,49.2,-98.9,-18.1,-19.9,350,10,,,,1021.3,,TRUE,TRUE,,,,,,,,,,,,,,,,2.1,,,,,,,,,,,METAR,470.0
CWPC 210600Z AUTO 14008KT M17/M22 RMK AO1 SLP238 T11691221 58027,CWPC,2015-02-21T06:00:00Z,42.87,-79.25,-16.9,-22.1,140,8,,,,1023.8,,TRUE,TRUE,,,,,,,,,,,,,,,,-2.7,,,,,,,,,,,METAR,184.0
CWBE 210600Z AUTO 20019KT M12/M14 RMK AO1 PK WND 20025/0517 SLP189 T11241135 58019,CWBE,2015-02-21T06:00:00Z,45.98,-81.48,-12.4,-13.5,200,19,,,,1018.9,,TRUE,TRUE,,,,,,,,,,,,,,,,-1.9,,,,,,,,,,,METAR,196.0
CWAJ 210600Z AUTO 16012KT M10/M16 RMK AO1 PK WND 17017/0536 SLP209 T11011164 56027,CWAJ,2015-02-21T06:00:00Z,42.25,-81.9,-10.1,-16.4,160,12,,,,1020.9,,TRUE,TRUE,,,,,,,,,,,,,,,,-2.7,,,,,,,,,,,METAR,178.0
CWBK 210600Z AUTO 26012G21KT M11/M16 RMK AO1 SOG 78 2048 PK WND 25021/0555 SLP178 T11091160,CWBK,2015-02-21T06:00:00Z,45.77,-62.67,-10.9,-16.0,260,12,21,,,1017.8,,TRUE,TRUE,,,,,,,,,,,,,,,,,,,,,,,,,,,METAR,2.0
CERM 210600Z AUTO 30008G15KT M16/M23 RMK AO1 SOG 49 2051 SLP207 T11601227,CERM,2015-02-21T06:00:00Z,47.42,-68.32,-16.0,-22.7,300,8,15,,,1020.7,,TRUE,TRUE,,,,,,,,,,,,,,,,,,,,,,,,,,,METAR,154.0
CZSP 210600Z AUTO 25014G19KT M11/M16 RMK AO1 SOG 57 3048 PK WND 23024/0533 SLP163 T11111158,CZSP,2015-02-21T06:00:00Z,46.45,-62.58,-11.1,-15.8,250,14,19,,,1016.3,,TRUE,TRUE,,,,,,,,,,,,,,,,,,,,,,,,,,,METAR,30.0
CXNP 210600Z AUTO 24012KT M12/M17 RMK AO1 PK WND 25021/0535 SLP196 T11211169 53052,CXNP,2015-02-21T06:00:00Z,45.75,-64.23,-12.1,-16.9,240,12,,,,1019.6,,TRUE,TRUE,,,,,,,,,,,,,,,,5.2,,,,,,,,,,,METAR,20.0
CWXI 210600Z AUTO 22040G50KT M06/M08 RMK AO1 PK WND 22052/0532 SLP936 T10641079 56004,CWXI,2015-02-21T06:00:00Z,51.02,-57.1,-6.4,-7.9,220,40,50,,,993.6,,TRUE,TRUE,,,,,,,,,,,,,,,,-0.4,,,,,,,,,,,METAR,6.0
CWMQ 210600Z AUTO 36012KT M09/M12 RMK AO1 SOG 01 1023 PK WND 34019/0509 SLP266 T10871116,CWMQ,2015-02-21T06:00:00Z,49.9,-109.47,-8.7,-11.6,360,12,,,,1026.6,,TRUE,TRUE,,,,,,,,,,,,,,,,,,,,,,,,,,,METAR,767.0
CWMJ 210600Z AUTO 19003KT M19/M26 RMK AO1 SOG 32 1006 SLP244 T11941262,CWMJ,2015-02-21T06:00:00Z,46.27,-76.0,-19.4,-26.2,190,3,,,,1024.4,,TRUE,TRUE,,,,,,,,,,,,,,,,,,,,,,,,,,,METAR,200.0
CWLM 210600Z AUTO 01003KT 07/06 RMK AO1 SLP251 T00650060 51005,CWLM,2015-02-21T06:00:00Z,48.42,-123.32,6.5,6.0,10,3,,,,1025.1,,TRUE,TRUE,,,,,,,,,,,,,,,,0.5,,,,,,,,,,,METAR,70.0
CWLE 210600Z AUTO 01013KT M12/M14 RMK AO1 SOG 21 1022 SLP261 T11201140 50002,CWLE,2015-02-21T06:00:00Z,50.95,-107.15,-12.0,-14.0,10,13,,,,1026.1,,TRUE,TRUE,,,,,,,,,,,,,,,,0.2,,,,,,,,,,,METAR,665.0
CWLC 210600Z AUTO 09003KT 06/04 RMK AO1 T00550040,CWLC,2015-02-21T06:00:00Z,54.3,-130.62,5.5,4.0,90,3,,,,,,TRUE,TRUE,,,,,,,,,,,,,,,,,,,,,,,,,,,METAR,27.0
CWKX 210600Z AUTO 03002KT M04/M05 RMK AO1 SOG 49 1015 SLP360 T10391053,CWKX,2015-02-21T06:00:00Z,58.43,-130.02,-3.9,-5.3,30,2,,,,1036.0,,TRUE,TRUE,,,,,,,,,,,,,,,,,,,,,,,,,,,METAR,793.0
CWKH 210600Z AUTO 05/04 RMK AO1 SLP240 T00530043 53006,CWKH,2015-02-21T06:00:00Z,48.57,-123.55,5.3,4.3,,,,,,1024.0,,TRUE,TRUE,,,,,,,,,,,,,,,,0.6,,,,,,,,,,,METAR,366.0
CWKG 210600Z AUTO 24005KT M12/M14 RMK AO1 SOG 79 2047 SLP230 T11241135 50002,CWKG,2015-02-21T06:00:00Z,44.43,-65.2,-12.4,-13.5,240,5,,,,1023.0,,TRUE,TRUE,,,,,,,,,,,,,,,,0.2,,,,,,,,,,,METAR,165.0
CWJT 210600Z AUTO 00000KT M24/M27 RMK AO1 SLP277 T12411266 53012,CWJT,2015-02-21T06:00:00Z,46.07,-74.57,-24.1,-26.6,0,0,,,,1027.7,,TRUE,TRUE,,,,,,,,,,,,,,,,1.2,,,,,,,,,,,METAR,239.0
CWJO 210600Z AUTO 22005KT M21/M26 RMK AO1 SLP243 T12121258 51025,CWJO,2015-02-21T06:00:00Z,48.43,-71.15,-21.2,-25.8,220,5,,,,1024.3,,TRUE,TRUE,,,,,,,,,,,,,,,,2.5,,,,,,,,,,,METAR,133.0
CWJI 210600Z AUTO 02008KT M12/M15 RMK AO1 SOG 08 1027 PK WND 02017/0526 SLP240 T11221146 50002,CWJI,2015-02-21T06:00:00Z,49.72,-105.92,-12.2,-14.6,20,8,,,,1024.0,,TRUE,TRUE,,,,,,,,,,,,,,,,0.2,,,,,,,,,,,METAR,724.0
CXSL 210600Z AUTO 01004KT M11/M12 RMK AO1 T11051119 50006,CXSL,2015-02-21T06:00:00Z,54.28,-112.5,-10.5,-11.9,10,4,,,,,,TRUE,TRUE,,,,,,,,,,,,,,,,0.6,,,,,,,,,,,METAR,680.0
CPXL 210600Z AUTO 35010KT M07/M09 RMK AO1 PK WND 35017/0520 T10661091,CPXL,2015-02-21T06:00:00Z,49.87,-111.38,-6.6,-9.1,350,10,,,,,,TRUE,TRUE,,,,,,,,,,,,,,,,,,,,,,,,,,,METAR,799.0
CPSV 210600Z AUTO 36014KT M08/M11 RMK AO1 PK WND 00021/0522 T10791109,CPSV,2015-02-21T06:00:00Z,49.92,-110.92,-7.9,-10.9,360,14,,,,,,TRUE,TRUE,,,,,,,,,,,,,,,,,,,,,,,,,,,METAR,766.0
CPST 210600Z AUTO 35003KT M07/M09 RMK AO1 T10731086,CPST,2015-02-21T06:00:00Z,51.03,-113.28,-7.3,-8.6,350,3,,,,,,TRUE,TRUE,,,,,,,,,,,,,,,,,,,,,,,,,,,METAR,967.0
CWIK 210600Z AUTO 35006KT M15/M18 RMK AO1 SOG 19 1024 SLP225 T11501175 50002,CWIK,2015-02-21T06:00:00Z,50.37,-102.58,-15.0,-17.5,350,6,,,,1022.5,,TRUE,TRUE,,,,,,,,,,,,,,,,0.2,,,,,,,,,,,METAR,602.0
CWBU 210600Z AUTO 31004KT M24/M27 RMK AO1 SOG 25 1012 SLP270 T12351272 50002,CWBU,2015-02-21T06:00:00Z,53.33,-104.02,-23.5,-27.2,310,4,,,,1027.0,,TRUE,TRUE,,,,,,,,,,,,,,,,0.2,,,,,,,,,,,METAR,373.0
CXZU 210600Z AUTO M03/M06 RMK AO1 SLP296 T10271056 51017,CXZU,2015-02-21T06:00:00Z,54.15,-115.78,-2.7,-5.6,,,,,,1029.6,,TRUE,TRUE,,,,,,,,,,,,,,,,1.7,,,,,,,,,,,METAR,785.0
CXWN 210600Z AUTO 34006KT M19/M23 RMK AO1 SLP200 T11871233 51024,CXWN,2015-02-21T06:00:00Z,49.88,-97.13,-18.7,-23.3,340,6,,,,1020.0,,TRUE,TRUE,,,,,,,,,,,,,,,,2.4,,,,,,,,,,,METAR,230.0
CXSH 210600Z AUTO 23004KT M20/M25 RMK AO1 SLP254 T11991253 53018,CXSH,2015-02-21T06:00:00Z,46.58,-72.73,-19.9,-25.3,230,4,,,,1025.4,,TRUE,TRUE,,,,,,,,,,,,,,,,1.8,,,,,,,,,,,METAR,110.0
CXQT 210600Z AUTO 00000KT 19/M10 RMK AO1 T01881100,CXQT,2015-02-21T06:00:00Z,48.43,-89.22,18.8,-10.0,0,0,,,,,,TRUE,TRUE,,,,,,,,,,,,,,,,,,,,,,,,,,,METAR,183.0
CXOX 210600Z AUTO 32006KT M22/M26 RMK AO1 SOG 45 1014 SLP287 T12221262 50025,CXOX,2015-02-21T06:00:00Z,55.15,-105.27,-22.2,-26.2,320,6,,,,1028.7,,TRUE,TRUE,,,,,,,,,,,,,,,,2.5,,,,,,,,,,,METAR,379.0
CXNM 210600Z AUTO 28027G34KT M13/M15 RMK AO1 SOG 152 PK WND 28035/0524 T11341148,CXNM,2015-02-21T06:00:00Z,46.82,-60.67,-13.4,-14.8,280,27,34,,,,,TRUE,TRUE,,,,,,,,,,,,,,,,,,,,,,,,,,,METAR,439.0
CXMI 210600Z AUTO 28008KT M09/M12 RMK AO1 PRESRR PK WND 30017/0502 SLP216 T10861122 53048,CXMI,2015-02-21T06:00:00Z,44.6,-63.53,-8.6,-12.2,280,8,,,,1021.6,,TRUE,TRUE,,,,,,,,,,,,,,,,4.8,,,,,,,,,,,METAR,15.0
CXMD 210600Z AUTO 35008KT M17/M21 RMK AO1 SOG 11 1025 SLP207 T11741213,CXMD,2015-02-21T06:00:00Z,49.22,-98.08,-17.4,-21.3,350,8,,,,1020.7,,TRUE,TRUE,,,,,,,,,,,,,,,,,,,,,,,,,,,METAR,301.0
CXIB 210600Z AUTO 24006G15KT M09/M14 RMK AO1 3043 SLP128 T10891142 50007,CXIB,2015-02-21T06:00:00Z,46.67,-60.38,-8.9,-14.2,240,6,15,,,1012.8,,TRUE,TRUE,,,,,,,,,,,,,,,,0.7,,,,,,,,,,,METAR,8.0
CXHF 210600Z AUTO M22/M25 RMK AO1 T12211247,CXHF,2015-02-21T06:00:00Z,45.83,-75.65,-22.1,-24.7,,,,,,,,TRUE,TRUE,,,,,,,,,,,,,,,,,,,,,,,,,,,METAR,190.0
CXGH 210600Z AUTO 30010G15KT M21/M24 RMK AO1 T12091242,CXGH,2015-02-21T06:00:00Z,50.63,-97.0,-20.9,-24.2,300,10,15,,,,,TRUE,TRUE,,,,,,,,,,,,,,,,,,,,,,,,,,,METAR,217.0
CXET 210600Z AUTO 16009KT M16/M23 RMK AO1 SOG 13 6020 SLP220 T11601230,CXET,2015-02-21T06:00:00Z,44.23,-79.78,-16.0,-23.0,160,9,,,,1022.0,,TRUE,TRUE,,,,,,,,,,,,,,,,,,,,,,,,,,,METAR,251.0
CXEA 210600Z AUTO 35005KT M18/M20 RMK AO1 SOG 48 2021 SLP155 T11831202,CXEA,2015-02-21T06:00:00Z,50.63,-93.22,-18.3,-20.2,350,5,,,,1015.5,,TRUE,TRUE,,,,,,,,,,,,,,,,,,,,,,,,,,,METAR,355.0
CXDW 210600Z AUTO 34014KT M18/M22 RMK AO1 PK WND 34017/0550 T11811215,CXDW,2015-02-21T06:00:00Z,49.4,-98.32,-18.1,-21.5,340,14,,,,,,TRUE,TRUE,,,,,,,,,,,,,,,,,,,,,,,,,,,METAR,341.0
CXCK 210600Z AUTO 34001KT M14/M15 RMK AO1 SOG 29 7005 SLP325 T11381151,CXCK,2015-02-21T06:00:00Z,62.12,-136.2,-13.8,-15.1,340,1,,,,1032.5,,TRUE,TRUE,,,,,,,,,,,,,,,,,,,,,,,,,,,METAR,540.0
CXBO 210600Z AUTO 25006KT RMK AO1,CXBO,2015-02-21T06:00:00Z,46.83,-71.2,,,250,6,,,,,,TRUE,TRUE,,,,,,,,,,,,,,,,,,,,,,,,,,,METAR,100.0
CXBK 210600Z AUTO 34013KT M15/M19 RMK AO1 SOG 12 3029 SLP232 T11541193,CXBK,2015-02-21T06:00:00Z,50.2,-104.7,-15.4,-19.3,340,13,,,,1023.2,,TRUE,TRUE,,,,,,,,,,,,,,,,,,,,,,,,,,,METAR,580.0
CXKT 210600Z AUTO 20008KT M11/M16 RMK AO1 SOG 78 3048 PK WND 22020/0515 SLP210 T11071162,CXKT,2015-02-21T06:00:00Z,45.07,-64.48,-10.7,-16.2,200,8,,,,1021.0,,TRUE,TRUE,,,,,,,,,,,,,,,,,,,,,,,,,,,METAR,49.0
CWPZ 210600Z AUTO 31001KT M07/M08 RMK AO1 SOG 64 2021 SLP320 T10701077,CWPZ,2015-02-21T06:00:00Z,54.38,-125.97,-7.0,-7.7,310,1,,,,1032.0,,TRUE,TRUE,,,,,,,,,,,,,,,,,,,,,,,,,,,METAR,713.0
CWPR 210600Z AUTO 34002KT 01/M00 RMK AO1 SOG 17 3009 SLP252 T00071004,CWPR,2015-02-21T06:00:00Z,49.47,-120.52,0.7,-0.4,340,2,,,,1025.2,,TRUE,TRUE,,,,,,,,,,,,,,,,,,,,,,,,,,,METAR,700.0
CWPE 210600Z AUTO 29012G23KT M12/M18 RMK AO1 26 0502Z SOG 21 2050 SLP242 T11191177,CWPE,2015-02-21T06:00:00Z,45.07,-66.47,-11.9,-17.7,290,12,23,,,1024.2,,TRUE,TRUE,,,,,,,,,,,,,,,,,,,,,,,,,,,METAR,1.0
CWPD 210600Z AUTO 18003KT M23/M26 RMK AO1 SLP222 T12321263 51022,CWPD,2015-02-21T06:00:00Z,47.57,-71.22,-23.2,-26.3,180,3,,,,1022.2,,TRUE,TRUE,,,,,,,,,,,,,,,,2.2,,,,,,,,,,,METAR,803.0
CWOD 210600Z AUTO 20002KT M29/M32 RMK AO1 SOG 06 1018 SLP214 T12911322,CWOD,2015-02-21T06:00:00Z,48.85,-72.55,-29.1,-32.2,200,2,,,,1021.4,,TRUE,TRUE,,,,,,,,,,,,,,,,,,,,,,,,,,,METAR,137.0
CWOC 210600Z AUTO 28020G30KT M13/M17 RMK AO1 PK WND 27031/0529 SLP124 T11281168 51060,CWOC,2015-02-21T06:00:00Z,48.02,-65.32,-12.8,-16.8,280,20,30,,,1012.4,,TRUE,TRUE,,,,,,,,,,,,,,,,6.0,,,,,,,,,,,METAR,47.0
CWNQ 210600Z AUTO 21008KT M18/M23 RMK AO1 SLP264 T11761231 53017,CWNQ,2015-02-21T06:00:00Z,46.22,-72.65,-17.6,-23.1,210,8,,,,1026.4,,TRUE,TRUE,,,,,,,,,,,,,,,,1.7,,,,,,,,,,,METAR,10.0
CWNP 210600Z AUTO 35001KT 00/M00 RMK AO1 SOG 02 1010 SLP233 T00001003,CWNP,2015-02-21T06:00:00Z,50.27,-117.82,0.0,-0.3,350,1,,,,1023.3,,TRUE,TRUE,,,,,,,,,,,,,,,,,,,,,,,,,,,METAR,524.0
CWNM 210600Z AUTO 21002KT M00/M02 RMK AO1 SLP221 T10011020 52009,CWNM,2015-02-21T06:00:00Z,49.5,-117.28,-0.1,-2.0,210,2,,,,1022.1,,TRUE,TRUE,,,,,,,,,,,,,,,,0.9,,,,,,,,,,,METAR,535.0
CWNK 210600Z AUTO 32006KT M18/M22 RMK AO1 T11821218,CWNK,2015-02-21T06:00:00Z,49.5,-98.03,-18.2,-21.8,320,6,,,,,,TRUE,TRUE,,,,,,,,,,,,,,,,,,,,,,,,,,,METAR,268.0
CWNE 210600Z AUTO 26026G36KT M12/M15 RMK AO1 PK WND 27037/0521 SLP143 T11171149 51057,CWNE,2015-02-21T06:00:00Z,47.07,-64.0,-11.7,-14.9,260,26,36,,,1014.3,,TRUE,TRUE,,,,,,,,,,,,,,,,5.7,,,,,,,,,,,METAR,15.0
CXKE 210600Z AUTO 17003KT M19/M22 RMK AO1 SOG 23 5002 SLP264 T11921224,CXKE,2015-02-21T06:00:00Z,45.0,-75.63,-19.2,-22.4,170,3,,,,1026.4,,TRUE,TRUE,,,,,,,,,,,,,,,,,,,,,,,,,,,METAR,99.0
CXKA 210600Z AUTO 17009KT M15/M18 RMK AO1 SOG 74 8009 SLP118 T11501177,CXKA,2015-02-21T06:00:00Z,49.4,-82.45,-15.0,-17.7,170,9,,,,1011.8,,TRUE,TRUE,,,,,,,,,,,,,,,,,,,,,,,,,,,METAR,218.0
CXHM 210600Z AUTO 35001KT M17/M22 RMK AO1 SLP235 T11661217 56024,CXHM,2015-02-21T06:00:00Z,43.28,-79.9,-16.6,-21.7,350,1,,,,1023.5,,TRUE,TRUE,,,,,,,,,,,,,,,,-2.4,,,,,,,,,,,METAR,107.0
CWZS 210600Z AUTO 31008KT M16/M21 RMK AO1 SLP164 T11621211 53057,CWZS,2015-02-21T06:00:00Z,48.47,-67.43,-16.2,-21.1,310,8,,,,1016.4,,TRUE,TRUE,,,,,,,,,,,,,,,,5.7,,,,,,,,,,,METAR,166.0
CWZO 210600Z AUTO 05003KT RMK AO1,CWZO,2015-02-21T06:00:00Z,48.55,-123.23,,,50,3,,,,,,TRUE,TRUE,,,,,,,,,,,,,,,,,,,,,,,,,,,METAR,1.0
CWZA 210600Z AUTO 19001KT 06/06 RMK AO1 SLP252 T00640057 53004,CWZA,2015-02-21T06:00:00Z,49.25,-121.77,6.4,5.7,190,1,,,,1025.2,,TRUE,TRUE,,,,,,,,,,,,,,,,0.4,,,,,,,,,,,METAR,15.0
CWYY 210600Z AUTO 11001KT 04/M01 RMK AO1 SLP234 T00371007 53005,CWYY,2015-02-21T06:00:00Z,49.03,-119.43,3.7,-0.7,110,1,,,,1023.4,,TRUE,TRUE,,,,,,,,,,,,,,,,0.5,,,,,,,,,,,METAR,283.0
CWYJ 210600Z AUTO 36002KT 08/05 RMK AO1 SLP250 T00770054 52005,CWYJ,2015-02-21T06:00:00Z,48.45,-123.3,7.7,5.4,360,2,,,,1025.0,,TRUE,TRUE,,,,,,,,,,,,,,,,0.5,,,,,,,,,,,METAR,39.0
CWIG 210600Z AUTO 19021KT RMK AO1 PK WND 20024/0555,CWIG,2015-02-21T06:00:00Z,47.07,-70.53,,,190,21,,,,,,TRUE,TRUE,,,,,,,,,,,,,,,,,,,,,,,,,,,METAR,18.0
CWHV 210600Z AUTO 24004KT M19/M23 RMK AO1 SLP254 T11891234 51029,CWHV,2015-02-21T06:00:00Z,46.2,-70.77,-18.9,-23.4,240,4,,,,1025.4,,TRUE,TRUE,,,,,,,,,,,,,,,,2.9,,,,,,,,,,,METAR,229.0
CWHT 210600Z AUTO 26001KT M08/M09 RMK AO1 SOG 33 8003 SLP304 T10761091,CWHT,2015-02-21T06:00:00Z,60.77,-137.58,-7.6,-9.1,260,1,,,,1030.4,,TRUE,TRUE,,,,,,,,,,,,,,,,,,,,,,,,,,,METAR,599.0
CWHQ 210600Z AUTO 32002KT M23/M26 RMK AO1 T12331264,CWHQ,2015-02-21T06:00:00Z,46.68,-71.97,-23.3,-26.4,320,2,,,,,,TRUE,TRUE,,,,,,,,,,,,,,,,,,,,,,,,,,,METAR,55.0
CWHM 210600Z AUTO 22012KT M16/M22 RMK AO1 T11601215,CWHM,2015-02-21T06:00:00Z,45.72,-73.37,-16.0,-21.5,220,12,,,,,,TRUE,TRUE,,,,,,,,,,,,,,,,,,,,,,,,,,,METAR,192.0
CWHL 210600Z AUTO 07004KT 04/03 RMK AO1 SLP287 T00410027 52005,CWHL,2015-02-21T06:00:00Z,54.17,-130.35,4.1,2.7,70,4,,,,1028.7,,TRUE,TRUE,,,,,,,,,,,,,,,,0.5,,,,,,,,,,,METAR,5.0
CWGY 210600Z AUTO 01004KT M11/M14 RMK AO1 SLP287 T11071142 51015,CWGY,2015-02-21T06:00:00Z,51.67,-110.2,-10.7,-14.2,10,4,,,,1028.7,,TRUE,TRUE,,,,,,,,,,,,,,,,1.5,,,,,,,,,,,METAR,707.0
CWGX 210600Z AUTO 32008KT M34/M38 RMK AO1 SLP228 T13361382 53011,CWGX,2015-02-21T06:00:00Z,56.35,-94.7,-33.6,-38.2,320,8,,,,1022.8,,TRUE,TRUE,,,,,,,,,,,,,,,,1.1,,,,,,,,,,,METAR,145.0
CWGW 210600Z AUTO 00000KT M02/M04 RMK AO1 SOG 04 1019 SLP248 T10211041,CWGW,2015-02-21T06:00:00Z,49.75,-114.9,-2.1,-4.1,0,0,,,,1024.8,,TRUE,TRUE,,,,,,,,,,,,,,,,,,,,,,,,,,,METAR,1137.0
CWJH 210600Z AUTO 34003KT M28/M32 RMK AO1 SOG 43 1023 SLP300 T12781320,CWJH,2015-02-21T06:00:00Z,56.32,-103.27,-27.8,-32.0,340,3,,,,1030.0,,TRUE,TRUE,,,,,,,,,,,,,,,,,,,,,,,,,,,METAR,344.0
CWJB 210600Z AUTO 25006KT M18/M21 RMK AO1 SOG 43 T11781213,CWJB,2015-02-21T06:00:00Z,46.78,-71.27,-17.8,-21.3,250,6,,,,,,TRUE,TRUE,,,,,,,,,,,,,,,,,,,,,,,,,,,METAR,91.0
CWIZ 210600Z AUTO 19004KT M22/M24 RMK AO1 T12161241,CWIZ,2015-02-21T06:00:00Z,45.28,-73.33,-21.6,-24.1,190,4,,,,,,TRUE,TRUE,,,,,,,,,,,,,,,,,,,,,,,,,,,METAR,45.0
CWIW 210600Z AUTO 34009KT M18/M21 RMK AO1 SOG 05 1022 SLP267 T11761213,CWIW,2015-02-21T06:00:00Z,51.67,-105.4,-17.6,-21.3,340,9,,,,1026.7,,TRUE,TRUE,,,,,,,,,,,,,,,,,,,,,,,,,,,METAR,526.0
CWIT 210600Z AUTO 00000KT M20/M22 RMK AO1 SLP275 T11991218 53016,CWIT,2015-02-21T06:00:00Z,45.17,-73.67,-19.9,-21.8,0,0,,,,1027.5,,TRUE,TRUE,,,,,,,,,,,,,,,,1.6,,,,,,,,,,,METAR,52.0
CWIS 210600Z AUTO 27006KT M21/M26 RMK AO1 SOG 117 3034 PK WND 22021/0503 SLP195 T12091259 50005,CWIS,2015-02-21T06:00:00Z,47.28,-70.63,-20.9,-25.9,270,6,,,,1019.5,,TRUE,TRUE,,,,,,,,,,,,,,,,0.5,,,,,,,,,,,METAR,719.0
CWIP 210600Z AUTO 26011KT M13/ RMK AO1 PK WND 26019/0534 T1130,CWIP,2015-02-21T06:00:00Z,50.17,-66.43,-13.0,,260,11,,,,,,TRUE,TRUE,,,,,,,,,,,,,,,,,,,,,,,,,,,METAR,25.0
CWII 210600Z AUTO 35010KT M23/M26 RMK AO1 T12281258,CWII,2015-02-21T06:00:00Z,50.7,-96.57,-22.8,-25.8,350,10,,,,,,TRUE,TRUE,,,,,,,,,,,,,,,,,,,,,,,,,,,METAR,220.0
CWSF 210600Z AUTO 28022G32KT M13/M14 RMK AO1 PRESRR PK WND 28034/0522 SLP086 T11291144 53057,CWSF,2015-02-21T06:00:00Z,49.25,-65.32,-12.9,-14.4,280,22,32,,,1008.6,,TRUE,TRUE,,,,,,,,,,,,,,,,5.7,,,,,,,,,,,METAR,29.0
CWZG 210600Z AUTO 05006KT M04/M07 RMK AO1 2008 SLP247 T10421066 50002,CWZG,2015-02-21T06:00:00Z,51.2,-115.53,-4.2,-6.6,50,6,,,,1024.7,,TRUE,TRUE,,,,,,,,,,,,,,,,0.2,,,,,,,,,,,METAR,1397.0
CWRO 210600Z AUTO 06006KT 05/03 RMK AO1 SLP288 T00500034 51002,CWRO,2015-02-21T06:00:00Z,54.17,-131.67,5.0,3.4,60,6,,,,1028.8,,TRUE,TRUE,,,,,,,,,,,,,,,,0.2,,,,,,,,,,,METAR,7.0
CWLP 210600Z AUTO 32008KT 07/05 RMK AO1 SLP266 T00720048 50003,CWLP,2015-02-21T06:00:00Z,50.93,-127.63,7.2,4.8,320,8,,,,1026.6,,TRUE,TRUE,,,,,,,,,,,,,,,,0.3,,,,,,,,,,,METAR,17.0
CWJD 210600Z AUTO 33004KT M28/M31 RMK AO1 SOG 44 1014 SLP250 T12821308,CWJD,2015-02-21T06:00:00Z,53.17,-99.27,-28.2,-30.8,330,4,,,,1025.0,,TRUE,TRUE,,,,,,,,,,,,,,,,,,,,,,,,,,,METAR,223.0
CWEQ 210600Z AUTO 36001KT M27/M29 RMK AO1 SLP257 T12651293 51019,CWEQ,2015-02-21T06:00:00Z,52.12,-101.22,-26.5,-29.3,360,1,,,,1025.7,,TRUE,TRUE,,,,,,,,,,,,,,,,1.9,,,,,,,,,,,METAR,335.0
CWZW 210600Z AUTO 09003KT M04/M06 RMK AO1 SOG 38 0008 SLP353 T10441059,CWZW,2015-02-21T06:00:00Z,60.17,-132.73,-4.4,-5.9,90,3,,,,1035.3,,TRUE,TRUE,,,,,,,,,,,,,,,,,,,,,,,,,,,METAR,705.0
CWVT 210600Z AUTO 34008KT M21/M24 RMK AO1 SOG 36 3021 SLP329 T12061244 50015,CWVT,2015-02-21T06:00:00Z,55.82,-108.42,-20.6,-24.4,340,8,,,,1032.9,,TRUE,TRUE,,,,,,,,,,,,,,,,1.5,,,,,,,,,,,METAR,434.0
CWRM 210600Z AUTO 35006KT M04/M05 RMK AO1 9PAST HR SOG 34 3015 SLP276 P0004 T10361048 50013,CWRM,2015-02-21T06:00:00Z,52.42,-114.92,-3.6,-4.8,350,6,,,,1027.6,,TRUE,TRUE,,,,,,,,,,,,,,,,1.3,,,,,0.04,,,,,,METAR,988.0
CWOY 210600Z AUTO 32003KT M22/M25 RMK AO1 2PAST HR SOG 13 1021 SLP262 P0001 T12151246 50002,CWOY,2015-02-21T06:00:00Z,51.77,-104.2,-21.5,-24.6,320,3,,,,1026.2,,TRUE,TRUE,,,,,,,,,,,,,,,,0.2,,,,,0.01,,,,,,METAR,560.0
CWKO 210600Z AUTO 34014KT M13/M14 RMK AO1 SOG 06 1025 PK WND 33021/0514 SLP223 T11281141 50002,CWKO,2015-02-21T06:00:00Z,49.17,-105.97,-12.8,-14.1,340,14,,,,1022.3,,TRUE,TRUE,,,,,,,,,,,,,,,,0.2,,,,,,,,,,,METAR,917.0
CWEH 210600Z AUTO 34018KT M11/M13 RMK AO1 SOG 30 3022 PK WND 34034/0518 SLP231 T11141127 50002,CWEH,2015-02-21T06:00:00Z,49.42,-108.97,-11.4,-12.7,340,18,,,,1023.1,,TRUE,TRUE,,,,,,,,,,,,,,,,0.2,,,,,,,,,,,METAR,1078.0
CWDC 210600Z AUTO 03006KT M26/M30 RMK AO1 SOG 41 3019 SLP364 T12621300,CWDC,2015-02-21T06:00:00Z,59.57,-108.47,-26.2,-30.0,30,6,,,,1036.4,,TRUE,TRUE,,,,,,,,,,,,,,,,,,,,,,,,,,,METAR,318.0
CWCT 210600Z AUTO 33006KT M10/M12 RMK AO1 SOG 08 1014 SLP282 T11041123,CWCT,2015-02-21T06:00:00Z,52.07,-111.47,-10.4,-12.3,330,6,,,,1028.2,,TRUE,TRUE,,,,,,,,,,,,,,,,,,,,,,,,,,,METAR,791.0
CWRN 210600Z AUTO 24015KT M08/ RMK AO1 PK WND 22021/0513 T1081,CWRN,2015-02-21T06:00:00Z,45.35,-60.98,-8.1,,240,15,,,,,,TRUE,TRUE,,,,,,,,,,,,,,,,,,,,,,,,,,,METAR,8.0
CWHO 210600Z AUTO 32035G49KT M06/M07 RMK AO1 9PAST HR 6005 PK WND 33054/0546 SLP749 P0007 T10551070 50120,CWHO,2015-02-21T06:00:00Z,55.45,-60.22,-5.5,-7.0,320,35,49,,,974.9,,TRUE,TRUE,,,,,,,,,,,,,,,,0.0,,,,,0.07,,,,,,METAR,8.0
CWBV 210600Z AUTO 29019G24KT M08/M12 RMK AO1 PK WND 28028/0507 SLP194 T10821121 51045,CWBV,2015-02-21T06:00:00Z,44.82,-62.32,-8.2,-12.1,290,19,24,,,1019.4,,TRUE,TRUE,,,,,,,,,,,,,,,,4.5,,,,,,,,,,,METAR,10.0
CWNH 210600Z AUTO 28006KT M16/M24 RMK AO1 SOG 33 1036 SLP219 T11611237,CWNH,2015-02-21T06:00:00Z,47.78,-69.53,-16.1,-23.7,280,6,,,,1021.9,,TRUE,TRUE,,,,,,,,,,,,,,,,,,,,,,,,,,,METAR,148.0
CWBY 210600Z AUTO 28018G29KT M12/M16 RMK AO1 PRESRR PK WND 29032/0505 SLP054 T11161161 53059,CWBY,2015-02-21T06:00:00Z,49.82,-64.28,-11.6,-16.1,280,18,29,,,1005.4,,TRUE,TRUE,,,,,,,,,,,,,,,,5.9,,,,,,,,,,,METAR,53.0
CWER 210600Z AUTO 24015KT RMK AO1 PK WND 24020/0522,CWER,2015-02-21T06:00:00Z,47.0,-70.82,,,240,15,,,,,,TRUE,TRUE,,,,,,,,,,,,,,,,,,,,,,,,,,,METAR,5.0
CWEP 210600Z AUTO 26013G21KT M11/M15 RMK AO1 SOG 81 3043 PK WND 26024/0534 SLP156 T11081152,CWEP,2015-02-21T06:00:00Z,46.45,-61.97,-10.8,-15.2,260,13,21,,,1015.6,,TRUE,TRUE,,,,,,,,,,,,,,,,,,,,,,,,,,,METAR,11.0
CWDM 210600Z AUTO 24020G26KT M09/M10 RMK AO1 SOG 66 1024 PK WND 23031/0547 SLP974 T10911102,CWDM,2015-02-21T06:00:00Z,50.47,-59.62,-9.1,-10.2,240,20,26,,,997.4,,TRUE,TRUE,,,,,,,,,,,,,,,,,,,,,,,,,,,METAR,6.0
CWWE 210600Z AUTO 26008KT M11/M14 RMK AO1 SLP241 T11141137 53049,CWWE,2015-02-21T06:00:00Z,43.97,-64.67,-11.4,-13.7,260,8,,,,1024.1,,TRUE,TRUE,,,,,,,,,,,,,,,,4.9,,,,,,,,,,,METAR,9.0
CWPK 210600Z AUTO 21002KT M24/M29 RMK AO1 SOG 47 1010 SLP219 T12401287,CWPK,2015-02-21T06:00:00Z,47.92,-74.62,-24.0,-28.7,210,2,,,,1021.9,,TRUE,TRUE,,,,,,,,,,,,,,,,,,,,,,,,,,,METAR,442.0
CMFM 210600Z AUTO 29004KT M21/M25 RMK AO1 SOG 69 2023 SLP211 T12131253,CMFM,2015-02-21T06:00:00Z,47.32,-71.15,-21.3,-25.3,290,4,,,,1021.1,,TRUE,TRUE,,,,,,,,,,,,,,,,,,,,,,,,,,,METAR,672.0
CZMJ 210600Z AUTO 36005KT M13/M17 RMK AO1 SOG 10 1027 SLP263 T11281172,CZMJ,2015-02-21T06:00:00Z,50.33,-105.57,-12.8,-17.2,360,5,,,,1026.3,,TRUE,TRUE,,,,,,,,,,,,,,,,,,,,,,,,,,,METAR,577.0
CZKD 210600Z AUTO 34004KT M31/M35 RMK AO1 SOG 49 1015 SLP230 T13101353,CZKD,2015-02-21T06:00:00Z,56.03,-96.52,-31.0,-35.3,340,4,,,,1023.0,,TRUE,TRUE,,,,,,,,,,,,,,,,,,,,,,,,,,,METAR,183.0
CXZV 210600Z AUTO 27006KT M14/M19 RMK AO1 SOG 40 1049 SLP076 T11411187 50002,CXZV,2015-02-21T06:00:00Z,50.22,-66.25,-14.1,-18.7,270,6,,,,1007.6,,TRUE,TRUE,,,,,,,,,,,,,,,,0.2,,,,,,,,,,,METAR,52.0
CXTD 210600Z AUTO 25008KT M10/M15 RMK AO1 SOG 15 1046 SLP188 T11011148,CXTD,2015-02-21T06:00:00Z,45.62,-61.68,-10.1,-14.8,250,8,,,,1018.8,,TRUE,TRUE,,,,,,,,,,,,,,,,,,,,,,,,,,,METAR,68.0
CXRL 210600Z AUTO M12/M14 RMK AO1 T11241144,CXRL,2015-02-21T06:00:00Z,54.5,-111.7,-12.4,-14.4,,,,,,,,TRUE,TRUE,,,,,,,,,,,,,,,,,,,,,,,,,,,METAR,585.0
CXPC 210600Z AUTO M18/M21 RMK AO1 SOG 45 7015 SLP210 T11771214,CXPC,2015-02-21T06:00:00Z,45.35,-80.05,-17.7,-21.4,,,,,,1021.0,,TRUE,TRUE,,,,,,,,,,,,,,,,,,,,,,,,,,,METAR,176.0
CXCP 210600Z AUTO 01003KT M06/M08 RMK AO1 T10601080,CXCP,2015-02-21T06:00:00Z,50.28,-113.35,-6.0,-8.0,10,3,,,,,,TRUE,TRUE,,,,,,,,,,,,,,,,,,,,,,,,,,,METAR,1006.0
FNCA 210600Z 09004KT 9999 FEW015 BKN080 25/23 Q1009,FNCA,2015-02-21T06:00:00Z,-5.58,12.18,25.0,23.0,90,4,,6.21,29.793306,,,,,,,,,,,FEW,1500,BKN,8000,,,,,VFR,,,,,,,,,,,,METAR,20.0
WBKW 210600Z 15011KT 9999 FEW017 BKN300 31/26 Q1010,WBKW,2015-02-21T06:00:00Z,4.32,118.12,31.0,26.0,150,11,,6.21,29.822834,,,,,,,,,,,FEW,1700,BKN,30000,,,,,VFR,,,,,,,,,,,,METAR,20.0
WBKT 210600Z 07010KT 340V150 9999 FEW016 BKN280 29/24 Q1011,WBKT,2015-02-21T06:00:00Z,6.92,116.82,29.0,24.0,70,10,,6.21,29.852362,,,,,,,,,,,FEW,1600,BKN,28000,,,,,VFR,,,,,,,,,,,,METAR,5.0
WBKS 210600Z 08011KT 050V110 9999 FEW015 BKN270 30/24 Q1011,WBKS,2015-02-21T06:00:00Z,5.9,118.07,30.0,24.0,80,11,,6.21,29.852362,,,,,,,,,,,FEW,1500,BKN,27000,,,,,VFR,,,,,,,,,,,,METAR,13.0
WBKL 210600Z 28003KT 9999 FEW012 BKN290 31/25 Q1010,WBKL,2015-02-21T06:00:00Z,5.28,115.25,31.0,25.0,280,3,,6.21,29.822834,,,,,,,,,,,FEW,1200,BKN,29000,,,,,VFR,,,,,,,,,,,,METAR,30.0
WBGY 210600Z 31003KT 9999 SCT023 BKN150 32/24 Q1009,WBGY,2015-02-21T06:00:00Z,1.22,111.43,32.0,24.0,310,3,,6.21,29.793306,,,,,,,,,,,SCT,2300,BKN,15000,,,,,VFR,,,,,,,,,,,,METAR,34.0
WBGS 210600Z 11002KT 9999 SCT018 BKN150 31/24 Q1010,WBGS,2015-02-21T06:00:00Z,2.27,111.98,31.0,24.0,110,2,,6.21,29.822834,,,,,,,,,,,SCT,1800,BKN,15000,,,,,VFR,,,,,,,,,,,,METAR,8.0
WBGR 210600Z 34005KT 9999 TS SCT014 FEW015CB BKN150 29/25 Q1011,WBGR,2015-02-21T06:00:00Z,4.32,113.97,29.0,25.0,340,5,,6.21,29.852362,,,,,,,,,,TS,SCT,1400,FEW,1500,BKN,15000,,,VFR,,,,,,,,,,,,METAR,18.0
WBGB 210600Z 34003KT 9999 FEW016 BKN150 29/24 Q1010,WBGB,2015-02-21T06:00:00Z,3.12,113.02,29.0,24.0,340,3,,6.21,29.822834,,,,,,,,,,,FEW,1600,BKN,15000,,,,,VFR,,,,,,,,,,,,METAR,5.0
WMKN 210600Z 09006KT 9999 FEW018 BKN280 30/23 Q1012,WMKN,2015-02-21T06:00:00Z,5.37,103.08,30.0,23.0,90,6,,6.21,29.88189,,,,,,,,,,,FEW,1800,BKN,28000,,,,,VFR,,,,,,,,,,,,METAR,6.0
WMKM 210600Z 06008KT 340V110 9999 FEW021 BKN270 33/23 Q1010,WMKM,2015-02-21T06:00:00Z,2.27,102.25,33.0,23.0,60,8,,6.21,29.822834,,,,,,,,,,,FEW,2100,BKN,27000,,,,,VFR,,,,,,,,,,,,METAR,9.0
WMKL 210600Z 04004KT 9999 FEW022 BKN280 32/24 Q1010,WMKL,2015-02-21T06:00:00Z,6.32,99.72,32.0,24.0,40,4,,6.21,29.822834,,,,,,,,,,,FEW,2200,BKN,28000,,,,,VFR,,,,,,,,,,,,METAR,7.0
WMKI 210600Z 20003KT 9999 FEW020 SCT140 BKN280 32/23 Q1010,WMKI,2015-02-21T06:00:00Z,4.57,101.08,32.0,23.0,200,3,,6.21,29.822834,,,,,,,,,,,FEW,2000,SCT,14000,BKN,28000,,,VFR,,,,,,,,,,,,METAR,39.0
WMKE 210600Z 07005KT 9999 SCT018 SCT140 BKN270 28/23 Q1011,WMKE,2015-02-21T06:00:00Z,4.53,103.43,28.0,23.0,70,5,,6.21,29.852362,,,,,,,,,,,SCT,1800,SCT,14000,BKN,27000,,,VFR,,,,,,,,,,,,METAR,5.0
WMKD 210600Z 07004KT 9999 SCT019 BKN280 31/24 Q1011 NOSIG,WMKD,2015-02-21T06:00:00Z,3.77,103.22,31.0,24.0,70,4,,6.21,29.852362,,,,,,TRUE,,,,,SCT,1900,BKN,28000,,,,,VFR,,,,,,,,,,,,METAR,16.0
WMKC 210600Z 09011KT 060V150 9999 FEW018 SCT140 BKN280 30/25 Q1012,WMKC,2015-02-21T06:00:00Z,6.17,102.27,30.0,25.0,90,11,,6.21,29.88189,,,,,,,,,,,FEW,1800,SCT,14000,BKN,28000,,,VFR,,,,,,,,,,,,METAR,5.0
WMKB 210600Z 30008KT 250V010 9999 FEW020 BKN280 31/25 Q1009 NOSIG,WMKB,2015-02-21T06:00:00Z,5.47,100.37,31.0,25.0,300,8,,6.21,29.793306,,,,,,TRUE,,,,,FEW,2000,BKN,28000,,,,,VFR,,,,,,,,,,,,METAR,4.0
WMKA 210600Z 04002KT 9999 SCT020 BKN300 34/23 Q1009,WMKA,2015-02-21T06:00:00Z,6.2,100.4,34.0,23.0,40,2,,6.21,29.793306,,,,,,,,,,,SCT,2000,BKN,30000,,,,,VFR,,,,,,,,,,,,METAR,5.0
WMBA 210600Z 14003KT 9999 SCT020 BKN260 32/24 Q1009,WMBA,2015-02-21T06:00:00Z,4.22,100.7,32.0,24.0,140,3,,6.21,29.793306,,,,,,,,,,,SCT,2000,BKN,26000,,,,,VFR,,,,,,,,,,,,METAR,8.0
WMAU 210600Z 03007KT 9999 FEW020 SCT150 BKN280 30/25 Q//// QFF1011,WMAU,2015-02-21T06:00:00Z,2.38,103.88,30.0,25.0,30,7,,6.21,,,,,,,,,,,,FEW,2000,SCT,15000,BKN,28000,,,VFR,,,,,,,,,,,,METAR,45.0
WMSA 210600Z 13005KT 9999 FEW020 BKN270 34/20 Q1009,WMSA,2015-02-21T06:00:00Z,3.13,101.55,34.0,20.0,130,5,,6.21,29.793306,,,,,,,,,,,FEW,2000,BKN,27000,,,,,VFR,,,,,,,,,,,,METAR,27.0
WMKK 210600Z 14006KT 070V190 9999 FEW018 BKN280 35/20 Q1009 NOSIG,WMKK,2015-02-21T06:00:00Z,2.75,101.72,35.0,20.0,140,6,,6.21,29.793306,,,,,,TRUE,,,,,FEW,1800,BKN,28000,,,,,VFR,,,,,,,,,,,,METAR,22.0
WMKJ 210600Z 06003KT 9999 SCT018 SCT140 BKN300 32/24 Q1010,WMKJ,2015-02-21T06:00:00Z,1.62,103.67,32.0,24.0,60,3,,6.21,29.822834,,,,,,,,,,,SCT,1800,SCT,14000,BKN,30000,,,VFR,,,,,,,,,,,,METAR,40.0
FBSP 210600Z 09012KT CAVOK 24/16 Q1017,FBSP,2015-02-21T06:00:00Z,-22.05,27.82,24.0,16.0,90,12,,6.21,30.029528,,,,,,,,,,,CAVOK,,,,,,,,VFR,,,,,,,,,,,,METAR,892.0
LICB 210600Z 16003KT 090V210 9999 FEW025 BKN055 10/05 Q1017,LICB,2015-02-21T06:00:00Z,37.0,14.62,10.0,5.0,160,3,,6.21,30.029528,,,,,,,,,,,FEW,2500,BKN,5500,,,,,VFR,,,,,,,,,,,,SPECI,220.0
DAAP 210600Z 15004KT 8000 BKN040 18/12 Q1011 RERA,DAAP,2015-02-21T06:00:00Z,26.72,8.62,18.0,12.0,150,4,,4.97,29.852362,,,,,,,,,,,BKN,4000,,,,,,,MVFR,,,,,,,,,,,,METAR,558.0
YMOR 210600Z AUTO 12009KT 110V170 9999 // BKN065 BKN084 32/16 Q1007,YMOR,2015-02-21T06:00:00Z,-29.5,149.85,32.0,16.0,120,9,,6.21,29.734253,,,TRUE,,,,,,,,BKN,6500,BKN,8400,,,,,VFR,,,,,,,,,,,,METAR,214.0
YMIA 210600Z AUTO 03008KT 9999 // NCD 37/08 Q1008,YMIA,2015-02-21T06:00:00Z,-34.23,142.08,37.0,8.0,30,8,,6.21,29.763779,,,TRUE,,,,,,,,,,,,,,,,,,,,,,,,,,,,METAR,51.0
YMER 210600Z AUTO 09005KT 9999 // NCD 23/20 Q1015,YMER,2015-02-21T06:00:00Z,-36.92,149.9,23.0,20.0,90,5,,6.21,29.970472,,,TRUE,,,,,,,,,,,,,,,,,,,,,,,,,,,,METAR,2.0
YMEN 210600Z AUTO 09009KT 9999 // BKN115 31/16 Q1009 RESHRA,YMEN,2015-02-21T06:00:00Z,-37.72,144.9,31.0,16.0,90,9,,6.21,29.793306,,,TRUE,,,,,,,,BKN,11500,,,,,,,VFR,,,,,,,,,,,,METAR,86.0
YMEK 210600Z AUTO 23009KT 9999 // NCD 39/05 Q1007,YMEK,2015-02-21T06:00:00Z,-26.62,118.55,39.0,5.0,230,9,,6.21,29.734253,,,TRUE,,,,,,,,,,,,,,,,,,,,,,,,,,,,METAR,522.0
YMDG 210600Z AUTO 09011KT //// // SCT055 BKN120 28/15 Q1013,YMDG,2015-02-21T06:00:00Z,-32.57,149.62,28.0,15.0,90,11,,,29.911417,,,TRUE,,,,,,,,SCT,5500,BKN,12000,,,,,,,,,,,,,,,,,METAR,471.0
YMAY 210600Z AUTO 13006KT 9999 // NCD 34/11 Q1011,YMAY,2015-02-21T06:00:00Z,-36.07,146.93,34.0,11.0,130,6,,6.21,29.852362,,,TRUE,,,,,,,,,,,,,,,,,,,,,,,,,,,,METAR,171.0
YLRE 210600Z AUTO 35011KT 9999 // NCD 40/13 Q1004,YLRE,2015-02-21T06:00:00Z,-23.43,144.28,40.0,13.0,350,11,,6.21,29.64567,,,TRUE,,,,,,,,,,,,,,,,,,,,,,,,,,,,METAR,193.0
YSSY 210600Z 14009KT 9999 FEW015 BKN120 24/20 Q1015 INTER 0700/0900 5000 SHRA BKN010,YSSY,2015-02-21T06:00:00Z,-33.95,151.17,24.0,20.0,140,9,,6.21,29.970472,,,,,,,,,,,FEW,1500,BKN,12000,,,,,VFR,,,,,,,,,,,,METAR,3.0
YPXM 210600Z AUTO 20005KT 9999 // SCT022 29/23 Q1011,YPXM,2015-02-21T06:00:00Z,-10.45,105.67,29.0,23.0,200,5,,6.21,29.852362,,,TRUE,,,,,,,,SCT,2200,,,,,,,VFR,,,,,,,,,,,,METAR,259.0
YPTN 210600Z AUTO 32015KT 9999 // SCT015 BKN047 BKN058 26/23 Q1004,YPTN,2015-02-21T06:00:00Z,-14.52,132.38,26.0,23.0,320,15,,6.21,29.64567,,,TRUE,,,,,,,,SCT,1500,BKN,4700,BKN,5800,,,VFR,,,,,,,,,,,,METAR,109.0
YPPH 210600Z 23012KT CAVOK 28/12 Q1011 NOSIG,YPPH,2015-02-21T06:00:00Z,-31.93,115.98,28.0,12.0,230,12,,6.21,29.852362,,,,,,TRUE,,,,,CAVOK,,,,,,,,VFR,,,,,,,,,,,,METAR,13.0
YPKU 210600Z AUTO 36006KT 9999 // SCT079 OVC094 31/25 Q1002,YPKU,2015-02-21T06:00:00Z,-15.77,128.68,31.0,25.0,360,6,,6.21,29.586615,,,TRUE,,,,,,,,SCT,7900,OVC,9400,,,,,VFR,,,,,,,,,,,,METAR,45.0
YPDN 210600Z 33013KT 9999 FEW027 BKN300 30/23 Q1005 TEMPO 0630/0900 VRB20G40KT 1000 TSRA BKN010 SCT020CB,YPDN,2015-02-21T06:00:00Z,-12.42,130.9,30.0,23.0,330,13,,6.21,29.675198,,,,,,,,,,,FEW,2700,BKN,30000,,,,,VFR,,,,,,,,,,,,METAR,30.0
YPCC 210600Z 05007KT 9999 FEW020 30/25 Q1011,YPCC,2015-02-21T06:00:00Z,-12.17,96.82,30.0,25.0,50,7,,6.21,29.852362,,,,,,,,,,,FEW,2000,,,,,,,VFR,,,,,,,,,,,,METAR,3.0
YPAD 210600Z 24007KT CAVOK 35/10 Q1008 NOSIG,YPAD,2015-02-21T06:00:00Z,-34.95,138.52,35.0,10.0,240,7,,6.21,29.763779,,,,,,TRUE,,,,,CAVOK,,,,,,,,VFR,,,,,,,,,,,,METAR,4.0
RJNK 210600Z 34006KT 9999 FEW150 BKN220 09/M02 Q1023,RJNK,2015-02-21T06:00:00Z,36.37,136.42,9.0,-2.0,340,6,,6.21,30.206694,,,,,,,,,,,FEW,15000,BKN,22000,,,,,VFR,,,,,,,,,,,,METAR,9.0
CYYG 210600Z 25011G18KT 15SM DRSN SKC M12/M17 A3001 RMK SLP166,CYYG,2015-02-21T06:00:00Z,46.27,-63.12,-12.0,-17.0,250,11,18,15.0,30.008858,1016.6,,,,,,,,,DRSN,SKC,,,,,,,,VFR,,,,,,,,,,,,METAR,54.0
CYSJ 210600Z 29012KT 15SM SKC M15/M21 A3018 RMK SLP229,CYSJ,2015-02-21T06:00:00Z,45.32,-65.87,-15.0,-21.0,290,12,,15.0,30.180119,1022.9,,,,,,,,,,SKC,,,,,,,,VFR,,,,,,,,,,,,SPECI,109.0
CYGW 210600Z AUTO 13014KT 9SM CLR M24/M28 A2988 RMK SLP119,CYGW,2015-02-21T06:00:00Z,55.27,-77.77,-24.0,-28.0,130,14,,9.0,29.878937,1011.9,,TRUE,,,,,,,,CLR,,,,,,,,VFR,,,,,,,,,,,,METAR,12.0
CYCX 210600Z 26013G18KT 15SM SKC M14/M20 A3018 RMK DA-3800FT SLP224,CYCX,2015-02-21T06:00:00Z,45.82,-66.42,-14.0,-20.0,260,13,18,15.0,30.180119,1022.4,,,,,,,,,,SKC,,,,,,,,VFR,,,,,,,,,,,,METAR,51.0
CYZR 210600Z AUTO 18009G15KT 9SM -SN FEW037 BKN044 OVC065 M11/M16 A3008 RMK SLP200,CYZR,2015-02-21T06:00:00Z,43.0,-82.3,-11.0,-16.0,180,9,15,9.0,30.079725,1020.0,,TRUE,,,,,,,-SN,FEW,3700,BKN,4400,OVC,6500,,,VFR,,,,,,,,,,,,METAR,181.0
CYZE 210600Z AUTO 20018G25KT 1/2SM SN VV006 M11/M12 A2996 RMK ICG SLP160,CYZE,2015-02-21T06:00:00Z,45.87,-82.57,-11.0,-12.0,200,18,25,0.5,29.958662,1016.0,,TRUE,,,,,,,SN,OVX,0,,,,,,,LIFR,,,,,,,,,,,600,METAR,193.0
CYYY 210600Z 27015G28KT 30SM DRSN SKC M16/M22 A3008 RMK PRESRR SLP191,CYYY,2015-02-21T06:00:00Z,48.6,-68.22,-16.0,-22.0,270,15,28,30.0,30.079725,1019.1,,,,,,,,,DRSN,SKC,,,,,,,,VFR,,,,,,,,,,,,METAR,52.0
CYWA 210600Z AUTO 13006KT 9SM OVC065 M17/M25 A3020 RMK SLP241,CYWA,2015-02-21T06:00:00Z,45.95,-77.32,-17.0,-25.0,130,6,,9.0,30.200787,1024.1,,TRUE,,,,,,,,OVC,6500,,,,,,,VFR,,,,,,,,,,,,METAR,130.0
CYVV 210600Z 19013KT 1 1/2SM -SN DRSN OVC120 M16/M19 A3007 RMK SN5AC3 SLP201,CYVV,2015-02-21T06:00:00Z,44.75,-81.08,-16.0,-19.0,190,13,,1.5,30.070866,1020.1,,,,,,,,,-SN DRSN,OVC,12000,,,,,,,IFR,,,,,,,,,,,,METAR,222.0
CYVP 210600Z 34016KT 15SM -SN DRSN FEW052 BKN076 M18/M21 A2977 RMK SC2AC5 SLP087,CYVP,2015-02-21T06:00:00Z,58.12,-68.42,-18.0,-21.0,340,16,,15.0,29.769686,1008.7,,,,,,,,,-SN DRSN,FEW,5200,BKN,7600,,,,,VFR,,,,,,,,,,,,SPECI,60.0
CYTZ 210600Z AUTO 21014KT 9SM FEW080 OVC120 M11/M17 A3022 RMK SLP241,CYTZ,2015-02-21T06:00:00Z,43.63,-79.4,-11.0,-17.0,210,14,,9.0,30.221457,1024.1,,TRUE,,,,,,,,FEW,8000,OVC,12000,,,,,VFR,,,,,,,,,,,,METAR,77.0
CYTS 210600Z 18009KT 2SM -SN OVC040 M16/M18 A2985 RMK SN2SC6 /S01/ SLP137,CYTS,2015-02-21T06:00:00Z,48.57,-81.37,-16.0,-18.0,180,9,,2.0,29.84941,1013.7,,,,,,,,,-SN,OVC,4000,,,,,,,IFR,,,,,,,,,,,,METAR,295.0
CYRJ 210600Z 23003KT 25SM SKC M26/M30 A3015 RMK SLP232,CYRJ,2015-02-21T06:00:00Z,48.52,-72.27,-26.0,-30.0,230,3,,25.0,30.15059,1023.2,,,,,,,,,,SKC,,,,,,,,VFR,,,,,,,,,,,,METAR,179.0
CYQT 210600Z 22002KT 15SM -SN OVC070 M16/M18 A2980 RMK AC8 SLP111,CYQT,2015-02-21T06:00:00Z,48.37,-89.32,-16.0,-18.0,220,2,,15.0,29.799213,1011.1,,,,,,,,,-SN,OVC,7000,,,,,,,VFR,,,,,,,,,,,,METAR,199.0
CYPQ 210600Z AUTO 00000KT 9SM M21/M23 A3021 RMK CLD MISG SLP251,CYPQ,2015-02-21T06:00:00Z,44.22,-78.37,-21.0,-23.0,0,0,,9.0,30.209646,1025.1,,TRUE,,,,,,,,,,,,,,,,,,,,,,,,,,,,METAR,191.0
CYHU 210600Z AUTO 24015KT 9SM BKN029 M15/M20 A3035 RMK SLP280,CYHU,2015-02-21T06:00:00Z,45.52,-73.42,-15.0,-20.0,240,15,,9.0,30.351377,1028.0,,TRUE,,,,,,,,BKN,2900,,,,,,,MVFR,,,,,,,,,,,,METAR,27.0
CYHD 210600Z AUTO 35005KT 9SM CLR M17/M19 A2983 RMK SLP143,CYHD,2015-02-21T06:00:00Z,49.82,-92.75,-17.0,-19.0,350,5,,9.0,29.828741,1014.3,,TRUE,,,,,,,,CLR,,,,,,,,VFR,,,,,,,,,,,,METAR,413.0
CYGP 210600Z 27013KT 15SM SKC M12/M19 A2978 RMK SLP086,CYGP,2015-02-21T06:00:00Z,48.77,-64.47,-12.0,-19.0,270,13,,15.0,29.778543,1008.6,,,,,,,,,,SKC,,,,,,,,VFR,,,,,,,,,,,,METAR,33.0
CYWK 210600Z AUTO 31015G22KT 1 1/4SM -SN OVC033 M19/M22 A2948 RMK SLP038,CYWK,2015-02-21T06:00:00Z,52.92,-66.87,-19.0,-22.0,310,15,22,1.25,29.480314,1003.8,,TRUE,,,,,,,-SN,OVC,3300,,,,,,,IFR,,,,,,,,,,,,SPECI,551.0
CYQI 210600Z 32017G31KT 12SM DRSN BKN035 M08/M13 A3027 RMK SC6 SLP255,CYQI,2015-02-21T06:00:00Z,43.83,-66.08,-8.0,-13.0,320,17,31,12.0,30.268702,1025.5,,,,,,,,,DRSN,BKN,3500,,,,,,,VFR,,,,,,,,,,,,METAR,43.0
CYOY 210600Z AUTO 00000KT 9SM CLR M21/M25 A3024 RMK SLP256,CYOY,2015-02-21T06:00:00Z,46.88,-71.5,-21.0,-25.0,0,0,,9.0,30.239174,1025.6,,TRUE,,,,,,,,CLR,,,,,,,,VFR,,,,,,,,,,,,METAR,168.0
CYNM 210600Z AUTO 18009KT 9SM BKN090 BKN110 M20/M24 A2993 RMK SLP167,CYNM,2015-02-21T06:00:00Z,49.77,-77.82,-20.0,-24.0,180,9,,9.0,29.929134,1016.7,,TRUE,,,,,,,,BKN,9000,BKN,11000,,,,,VFR,,,,,,,,,,,,METAR,281.0
CYGV 210600Z AUTO 27021KT 8SM CLR M14/M17 A2960 RMK PRESRR SLP026,CYGV,2015-02-21T06:00:00Z,50.27,-63.62,-14.0,-17.0,270,21,,8.0,29.601377,1002.6,,TRUE,,,,,,,,CLR,,,,,,,,VFR,,,,,,,,,,,,METAR,33.0
CYBX 210600Z CCA 23035KT 1/2SM -SHSN BLSN VV002 M08/M09 A2936 RMK BLSN8 VIS VRB 1/4-6 WND ESTD SLP945,CYBX,2015-02-21T06:00:00Z,51.45,-57.17,-8.0,-9.0,230,35,,0.5,29.359253,994.5,,,,,,,,,BLSN -SHSN,OVX,0,,,,,,,LIFR,,,,,,,,,,,200,METAR,35.0
CYZX 210600Z 27018G25KT 15SM DRSN SCT032 M10/M13 A3019 RMK SC4 WNDY HILL 29018G27KT SLP227,CYZX,2015-02-21T06:00:00Z,44.98,-64.92,-10.0,-13.0,270,18,25,15.0,30.188976,1022.7,,,,,,,,,DRSN,SCT,3200,,,,,,,VFR,,,,,,,,,,,,SPECI,28.0
CYZV 210600Z 28013G19KT 15SM SKC M15/M20 A2975 RMK SLP079,CYZV,2015-02-21T06:00:00Z,50.22,-66.27,-15.0,-20.0,280,13,19,15.0,29.749016,1007.9,,,,,,,,,,SKC,,,,,,,,VFR,,,,,,,,,,,,SPECI,55.0
CYZF 210600Z 07006KT 15SM FEW210 M29/M32 A3065 RMK CI1 CI TR SLP413,CYZF,2015-02-21T06:00:00Z,62.47,-114.45,-29.0,-32.0,70,6,,15.0,30.649607,1041.3,,,,,,,,,,FEW,21000,,,,,,,VFR,,,,,,,,,,,,SPECI,206.0
CYYZ 210600Z 17004KT 140V220 15SM OVC110 M15/M20 A3019 RMK AS8 SLP238,CYYZ,2015-02-21T06:00:00Z,43.67,-79.62,-15.0,-20.0,170,4,,15.0,30.188976,1023.8,,,,,,,,,,OVC,11000,,,,,,,VFR,,,,,,,,,,,,SPECI,173.0
CYYQ 210600Z 33017KT 2SM IC BLSN BKN020 M33/M37 A3018 RMK BLSN4SC2 SLP225,CYYQ,2015-02-21T06:00:00Z,58.75,-94.07,-33.0,-37.0,330,17,,2.0,30.180119,1022.5,,,,,,,,,IC BLSN,BKN,2000,,,,,,,IFR,,,,,,,,,,,,SPECI,29.0
CYYJ 210600Z 00000KT 30SM OVC022 07/05 A3028 RMK SC8 SLP255,CYYJ,2015-02-21T06:00:00Z,48.63,-123.42,7.0,5.0,0,0,,30.0,30.280512,1025.5,,,,,,,,,,OVC,2200,,,,,,,MVFR,,,,,,,,,,,,SPECI,19.0
CYXX 210600Z 32002KT 15SM SCT070 05/04 A3028 RMK AC3 SLP255,CYXX,2015-02-21T06:00:00Z,49.03,-122.38,5.0,4.0,320,2,,15.0,30.280512,1025.5,,,,,,,,,,SCT,7000,,,,,,,VFR,,,,,,,,,,,,SPECI,58.0
CYWG 210600Z 34010KT 15SM FEW190 M21/M25 A3007 RMK CI2 SLP205,CYWG,2015-02-21T06:00:00Z,49.88,-97.22,-21.0,-25.0,340,10,,15.0,30.070866,1020.5,,,,,,,,,,FEW,19000,,,,,,,VFR,,,,,,,,,,,,SPECI,239.0
CYVR 210600Z 35003KT 30SM SKC 06/04 A3029 RMK TR AC SLP256,CYVR,2015-02-21T06:00:00Z,49.17,-123.17,6.0,4.0,350,3,,30.0,30.28937,1025.6,,,,,,,,,,SKC,,,,,,,,VFR,,,,,,,,,,,,SPECI,2.0
CYUL 210600Z 23010G16KT 15SM BKN028 BKN240 M16/M22 A3034 RMK SC5CI1 SLP279,CYUL,2015-02-21T06:00:00Z,45.47,-73.73,-16.0,-22.0,230,10,16,15.0,30.339567,1027.9,,,,,,,,,,BKN,2800,BKN,24000,,,,,MVFR,,,,,,,,,,,,SPECI,36.0
CYTR 210600Z 21010KT 15SM FEW120 M11/M19 A3026 RMK AC1 SLP256,CYTR,2015-02-21T06:00:00Z,44.12,-77.52,-11.0,-19.0,210,10,,15.0,30.259842,1025.6,,,,,,,,,,FEW,12000,,,,,,,VFR,,,,,,,,,,,,SPECI,86.0
CYQY 210600Z CCA 25020G26KT 15SM BKN028 M09/M15 A2995 RMK CU6 SLP147,CYQY,2015-02-21T06:00:00Z,46.17,-60.03,-9.0,-15.0,250,20,26,15.0,29.949802,1014.7,,,,,,,,,,BKN,2800,,,,,,,MVFR,,,,,,,,,,,,SPECI,62.0
CYQX 210600Z 23021G27KT 15SM FEW029 SCT045 SCT260 M05/M11 A2967 RMK SC1SC2CI1 SLP055,CYQX,2015-02-21T06:00:00Z,48.95,-54.58,-5.0,-11.0,230,21,27,15.0,29.66929,1005.5,,,,,,,,,,FEW,2900,SCT,4500,SCT,26000,,,VFR,,,,,,,,,,,,SPECI,151.0
CYQQ 210600Z 29004KT 20SM SKC 05/01 A3029 RMK SLP259,CYQQ,2015-02-21T06:00:00Z,49.72,-124.9,5.0,1.0,290,4,,20.0,30.28937,1025.9,,,,,,,,,,SKC,,,,,,,,VFR,,,,,,,,,,,,SPECI,24.0
CYQM 210600Z 25020G28KT 15SM DRSN SKC M14/M19 A3006 RMK PRESRR SLP184,CYQM,2015-02-21T06:00:00Z,46.12,-64.67,-14.0,-19.0,250,20,28,15.0,30.059055,1018.4,,,,,,,,,DRSN,SKC,,,,,,,,VFR,,,,,,,,,,,,SPECI,71.0
CYQG 210600Z 19012KT 12SM -SN BKN025 OVC070 M10/M16 A3006 RMK SC6AC2 SLP194,CYQG,2015-02-21T06:00:00Z,42.27,-82.97,-10.0,-16.0,190,12,,12.0,30.059055,1019.4,,,,,,,,,-SN,BKN,2500,OVC,7000,,,,,MVFR,,,,,,,,,,,,SPECI,190.0
CYQB 210600Z 24011KT 15SM SKC M19/M24 A3028 RMK SLP261,CYQB,2015-02-21T06:00:00Z,46.78,-71.37,-19.0,-24.0,240,11,,15.0,30.280512,1026.1,,,,,,,,,,SKC,,,,,,,,VFR,,,,,,,,,,,,SPECI,73.0
CYOW 210600Z 18005KT 15SM FEW025 BKN190 BKN220 M20/M26 A3029 RMK SC1AC5CI1 SLP268,CYOW,2015-02-21T06:00:00Z,45.32,-75.67,-20.0,-26.0,180,5,,15.0,30.28937,1026.8,,,,,,,,,,FEW,2500,BKN,19000,BKN,22000,,,VFR,,,,,,,,,,,,SPECI,114.0
CYMX 210600Z 24003KT 200V270 25SM FEW025 M20/M27 A3031 RMK SC1 SC TR SLP271,CYMX,2015-02-21T06:00:00Z,45.67,-74.02,-20.0,-27.0,240,3,,25.0,30.31004,1027.1,,,,,,,,,,FEW,2500,,,,,,,VFR,,,,,,,,,,,,SPECI,82.0
CYHZ 210600Z 26010KT 15SM SKC M12/M16 A3011 RMK PRESRR SLP205,CYHZ,2015-02-21T06:00:00Z,44.87,-63.5,-12.0,-16.0,260,10,,15.0,30.109253,1020.5,,,,,,,,,,SKC,,,,,,,,VFR,,,,,,,,,,,,SPECI,145.0
CYGL 210600Z 16009KT 8SM -SN OVC050 M22/M25 A2982 RMK SC8 SLP122,CYGL,2015-02-21T06:00:00Z,53.62,-77.7,-22.0,-25.0,160,9,,8.0,29.819881,1012.2,,,,,,,,,-SN,OVC,5000,,,,,,,VFR,,,,,,,,,,,,SPECI,195.0
CYFC 210600Z AUTO 25013G22KT 9SM CLR M14/M20 A3019 RMK PRESRR SLP225,CYFC,2015-02-21T06:00:00Z,45.87,-66.52,-14.0,-20.0,250,13,22,9.0,30.188976,1022.5,,TRUE,,,,,,,,CLR,,,,,,,,VFR,,,,,,,,,,,,SPECI,20.0
CYFB 210600Z 35004KT 15SM FEW200 M28/M33 A3006 RMK CI1 SLP183,CYFB,2015-02-21T06:00:00Z,63.75,-68.55,-28.0,-33.0,350,4,,15.0,30.059055,1018.3,,,,,,,,,,FEW,20000,,,,,,,VFR,,,,,,,,,,,,SPECI,34.0
CYEG 210600Z 30002KT 12SM -SN BKN031 OVC085 M08/M10 A3025 RMK SC6AC2 SLP287,CYEG,2015-02-21T06:00:00Z,53.28,-113.57,-8.0,-10.0,300,2,,12.0,30.250984,1028.7,,,,,,,,,-SN,BKN,3100,OVC,8500,,,,,VFR,,,,,,,,,,,,SPECI,723.0
CYBG 210600Z 24006KT 25SM FEW240 M21/M25 A3018 RMK CI1 SLP237,CYBG,2015-02-21T06:00:00Z,48.33,-70.98,-21.0,-25.0,240,6,,25.0,30.180119,1023.7,,,,,,,,,,FEW,24000,,,,,,,VFR,,,,,,,,,,,,SPECI,159.0
CYZY 210600Z AUTO 05004KT 9SM FEW038 BKN100 01/M03 A3038 RMK SLP326,CYZY,2015-02-21T06:00:00Z,55.28,-123.12,1.0,-3.0,50,4,,9.0,30.380905,1032.6,,TRUE,,,,,,,,FEW,3800,BKN,10000,,,,,VFR,,,,,,,,,,,,SPECI,690.0
CYYF 210600Z 35005KT 15SM BKN087 04/M03 A3021 RMK AC6 SLP242,CYYF,2015-02-21T06:00:00Z,49.47,-119.58,4.0,-3.0,350,5,,15.0,30.209646,1024.2,,,,,,,,,,BKN,8700,,,,,,,VFR,,,,,,,,,,,,METAR,344.0
CYYD 210600Z AUTO 00000KT 9SM CLR M04/M04 A3041 RMK SLP323,CYYD,2015-02-21T06:00:00Z,54.82,-127.18,-4.0,-4.0,0,0,,9.0,30.410433,1032.3,,TRUE,,,,,,,,CLR,,,,,,,,VFR,,,,,,,,,,,,METAR,523.0
CYXY 210600Z 17013KT 15SM FEW260 M03/M06 A3035 RMK CI1 SLP327,CYXY,2015-02-21T06:00:00Z,60.72,-135.07,-3.0,-6.0,170,13,,15.0,30.351377,1032.7,,,,,,,,,,FEW,26000,,,,,,,VFR,,,,,,,,,,,,SPECI,703.0
CYXT 210600Z 01014KT 15SM SKC 01/M01 A3043 RMK SLP316,CYXT,2015-02-21T06:00:00Z,54.47,-128.57,1.0,-1.0,10,14,,15.0,30.431103,1031.6,,,,,,,,,,SKC,,,,,,,,VFR,,,,,,,,,,,,METAR,217.0
CYXJ 210600Z 34004KT 15SM SCT017 OVC110 M03/M05 A3043 RMK SC3AC5 SLP346,CYXJ,2015-02-21T06:00:00Z,56.25,-120.73,-3.0,-5.0,340,4,,15.0,30.431103,1034.6,,,,,,,,,,SCT,1700,OVC,11000,,,,,VFR,,,,,,,,,,,,METAR,695.0
CYWL 210600Z 30003KT 15SM SCT070 M01/M03 A3026 RMK AC4 SLP287,CYWL,2015-02-21T06:00:00Z,52.18,-122.07,-1.0,-3.0,300,3,,15.0,30.259842,1028.7,,,,,,,,,,SCT,7000,,,,,,,VFR,,,,,,,,,,,,METAR,940.0
CYQU 210600Z CCA VRB02KT 15SM BKN037 OVC110 M05/M06 A3040 RMK SC5AC3 SLP336,CYQU,2015-02-21T06:00:00Z,55.18,-118.88,-5.0,-6.0,0,2,,15.0,30.398623,1033.6,,,,,,,,,,BKN,3700,OVC,11000,,,,,VFR,,,,,,,,,,,,METAR,669.0
CYQH 210600Z 00000KT 30SM SKC M12/M13 A3046 RMK CLIMAT 0.2/-14.0/0.0CM/0.0MM SLP368,CYQH,2015-02-21T06:00:00Z,60.12,-128.82,-12.0,-13.0,0,0,,30.0,30.46063,1036.8,,,,,,,,,,SKC,,,,,,,,VFR,,,,,,,,,,,,METAR,690.0
CYLW 210600Z AUTO 02002KT 9SM OVC085 03/M00 A3020 RMK SLP242,CYLW,2015-02-21T06:00:00Z,49.95,-119.37,3.0,0.0,20,2,,9.0,30.200787,1024.2,,TRUE,,,,,,,,OVC,8500,,,,,,,VFR,,,,,,,,,,,,METAR,430.0
CYKA 210600Z 31008KT 40SM OVC080 06/M03 A3026 RMK AC8 SLP259,CYKA,2015-02-21T06:00:00Z,50.7,-120.45,6.0,-3.0,310,8,,40.0,30.259842,1025.9,,,,,,,,,,OVC,8000,,,,,,,VFR,,,,,,,,,,,,METAR,346.0
CYIN 210600Z AUTO 31008KT 9SM OVC055 00/M04 A3023 RMK SLP270,CYIN,2015-02-21T06:00:00Z,51.27,-121.68,0.0,-4.0,310,8,,9.0,30.230314,1027.0,,TRUE,,,,,,,,OVC,5500,,,,,,,VFR,,,,,,,,,,,,METAR,1128.0
CYDL 210600Z AUTO 16009KT 9SM CLR M04/M04 A3044 RMK SLP343,CYDL,2015-02-21T06:00:00Z,58.42,-130.02,-4.0,-4.0,160,9,,9.0,30.43996,1034.3,,TRUE,,,,,,,,CLR,,,,,,,,VFR,,,,,,,,,,,,METAR,816.0
CYZS 210600Z 05021KT 12SM DRSN FEW210 M26/M30 A3008 RMK CI1 SLP199,CYZS,2015-02-21T06:00:00Z,64.2,-83.37,-26.0,-30.0,50,21,,12.0,30.079725,1019.9,,,,,,,,,DRSN,FEW,21000,,,,,,,VFR,,,,,,,,,,,,METAR,64.0
CYWE 210600Z AUTO 35003KT 340V050 9SM CLR M35/M40 A3056 RMK SLP420,CYWE,2015-02-21T06:00:00Z,64.18,-114.08,-35.0,-40.0,350,3,,9.0,30.561024,1042.0,,TRUE,,,,,,,,CLR,,,,,,,,VFR,,,,,,,,,,,,METAR,371.0
CYVM 210600Z AUTO VRB02KT 9SM CLR M33/M37 A3034 RMK SLP275,CYVM,2015-02-21T06:00:00Z,67.53,-64.02,-33.0,-37.0,0,2,,9.0,30.339567,1027.5,,TRUE,,,,,,,,CLR,,,,,,,,VFR,,,,,,,,,,,,METAR,6.0
CYTE 210600Z AUTO 05006KT 350V150 9SM BKN100 M29/M32 A3007 RMK SLP190,CYTE,2015-02-21T06:00:00Z,64.22,-76.52,-29.0,-32.0,50,6,,9.0,30.070866,1019.0,,TRUE,,,,,,,,BKN,10000,,,,,,,VFR,,,,,,,,,,,,SPECI,47.0
CYRT 210600Z 35014G20KT 10SM IC SKC M33/M38 A3025 RMK SLP250,CYRT,2015-02-21T06:00:00Z,62.82,-92.12,-33.0,-38.0,350,14,20,10.0,30.250984,1025.0,,,,,,,,,IC,SKC,,,,,,,,VFR,,,,,,,,,,,,METAR,32.0
CYHY 210600Z 00000KT 15SM FEW120 M33/M37 A3068 RMK AC1 SLP417,CYHY,2015-02-21T06:00:00Z,60.82,-115.77,-33.0,-37.0,0,0,,15.0,30.679134,1041.7,,,,,,,,,,FEW,12000,,,,,,,VFR,,,,,,,,,,,,METAR,166.0
CYHK 210600Z AUTO 31008KT 9SM CLR M34/M38 A3058 RMK SLP364,CYHK,2015-02-21T06:00:00Z,68.62,-95.83,-34.0,-38.0,310,8,,9.0,30.578741,1036.4,,TRUE,,,,,,,,CLR,,,,,,,,VFR,,,,,,,,,,,,METAR,46.0
CYGH 210600Z 08002KT 10SM FEW100 M16/M18 A3036 RMK AC1 WX CALL OUT SLP292,CYGH,2015-02-21T06:00:00Z,66.27,-128.62,-16.0,-18.0,80,2,,10.0,30.360237,1029.2,,,,,,,,,,FEW,10000,,,,,,,VFR,,,,,,,,,,,,METAR,66.0
CYFS 210600Z 13003KT 080V160 15SM OVC012 M11/M14 A3060 RMK SC8 SLP379,CYFS,2015-02-21T06:00:00Z,61.75,-121.22,-11.0,-14.0,130,3,,15.0,30.59941,1037.9,,,,,,,,,,OVC,1200,,,,,,,MVFR,,,,,,,,,,,,METAR,169.0
CYCO 210600Z 15004KT 15SM SKC M35/M38 A3054 RMK AURBO SLP347,CYCO,2015-02-21T06:00:00Z,67.82,-115.15,-35.0,-38.0,150,4,,15.0,30.540354,1034.7,,,,,,,,,,SKC,,,,,,,,VFR,,,,,,,,,,,,METAR,22.0
CYCB 210600Z CCA 25003KT 15SM IC FEW210 M36/M40 A3062 RMK CI1 CI TR SLP376,CYCB,2015-02-21T06:00:00Z,69.08,-105.12,-36.0,-40.0,250,3,,15.0,30.620079,1037.6,,,,,,,,,IC,FEW,21000,,,,,,,VFR,,,,,,,,,,,,METAR,27.0
CZPC 210600Z AUTO 11007KT 9SM -SN OVC029 M05/M06 A3019 RMK SLP276,CZPC,2015-02-21T06:00:00Z,49.52,-114.0,-5.0,-6.0,110,7,,9.0,30.188976,1027.6,,TRUE,,,,,,,-SN,OVC,2900,,,,,,,MVFR,,,,,,,,,,,,METAR,1190.0
CYPD 210600Z AUTO 26014G20KT 9SM CLR M10/M15 A3000 RMK SLP168,CYPD,2015-02-21T06:00:00Z,45.67,-61.37,-10.0,-15.0,260,14,20,9.0,30.0,1016.8,,TRUE,,,,,,,,CLR,,,,,,,,VFR,,,,,,,,,,,,METAR,114.0
CWYM 210600Z AUTO 06028G34KT M30/ A2977 RMK SLP177,CWYM,2015-02-21T06:00:00Z,64.95,-63.57,-30.0,,60,28,34,,29.769686,1017.7,,TRUE,,,,,,,,,,,,,,,,,,,,,,,,,,,,METAR,583.0
CWXR 210600Z AUTO 08004KT M17/ A3037 RMK SLP298,CWXR,2015-02-21T06:00:00Z,69.27,-119.22,-17.0,,80,4,,,30.369095,1029.8,,TRUE,,,,,,,,,,,,,,,,,,,,,,,,,,,,METAR,69.0
CWTU 210600Z AUTO ///// M12/ A2866 RMK SLP745,CWTU,2015-02-21T06:00:00Z,54.72,-58.35,-12.0,,,,,,28.659449,974.5,,TRUE,,,,,,,,,,,,,,,,,,,,,,,,,,,,METAR,683.0
CWRH 210600Z AUTO ///// M23/ A2969 RMK SLP108,CWRH,2015-02-21T06:00:00Z,61.57,-64.65,-23.0,,,,,,29.68996,1010.8,,TRUE,,,,,,,,,,,,,,,,,,,,,,,,,,,,METAR,369.0
CWKP 210600Z AUTO 21025KT M12/ A3022 RMK SLP277,CWKP,2015-02-21T06:00:00Z,69.67,-121.67,-12.0,,210,25,,,30.221457,1027.7,,TRUE,,,,,,,,,,,,,,,,,,,,,,,,,,,,METAR,330.0
CWEU 210600Z 15021KT 3SM BLSN BKN040 M27/M32 A3015 RMK BLSN2SC5 SLP211,CWEU,2015-02-21T06:00:00Z,80.0,-85.92,-27.0,-32.0,150,21,,3.0,30.15059,1021.1,,,,,,,,,BLSN,BKN,4000,,,,,,,MVFR,,,,,,,,,,,,METAR,10.0
CYZT 210600Z 22004KT 15SM SKC M00/M01 A3033 RMK SLP272,CYZT,2015-02-21T06:00:00Z,50.67,-127.37,0.0,-1.0,220,4,,15.0,30.33071,1027.2,,,,,,,,,,SKC,,,,,,,,VFR,,,,,,,,,,,,METAR,22.0
CYZP 210600Z AUTO 00000KT 9SM OVC027 07/02 A3039 RMK SLP292,CYZP,2015-02-21T06:00:00Z,53.25,-131.82,7.0,2.0,0,0,,9.0,30.389763,1029.2,,TRUE,,,,,,,,OVC,2700,,,,,,,MVFR,,,,,,,,,,,,METAR,6.0
CYXS 210600Z AUTO 35004KT 290V010 9SM FEW032 OVC100 01/M02 A3032 RMK SLP299,CYXS,2015-02-21T06:00:00Z,53.9,-122.68,1.0,-2.0,350,4,,9.0,30.318897,1029.9,,TRUE,,,,,,,,FEW,3200,OVC,10000,,,,,VFR,,,,,,,,,,,,METAR,691.0
CYXE 210600Z 36009KT 15SM FEW035 M18/M22 A3024 RMK SC2 SLP286,CYXE,2015-02-21T06:00:00Z,52.17,-106.7,-18.0,-22.0,360,9,,15.0,30.239174,1028.6,,,,,,,,,,FEW,3500,,,,,,,VFR,,,,,,,,,,,,METAR,504.0
CYUA 210600Z AUTO 27010KT 9SM CLR M08/ A3020 RMK SLP234,CYUA,2015-02-21T06:00:00Z,68.95,-137.28,-8.0,,270,10,,9.0,30.200787,1023.4,,TRUE,,,,,,,,CLR,,,,,,,,VFR,,,,,,,,,,,,METAR,38.0
CYRV 210600Z AUTO VRB03KT 9SM SCT075 SCT110 BKN150 BKN180 01/M00 A3019 RMK SLP243,CYRV,2015-02-21T06:00:00Z,50.97,-118.17,1.0,0.0,0,3,,9.0,30.188976,1024.3,,TRUE,,,,,,,,SCT,7500,SCT,11000,BKN,15000,BKN,18000,VFR,,,,,,,,,,,,METAR,443.0
CYQZ 210600Z AUTO 00000KT 9SM FEW070 03/02 A3033 RMK SLP296,CYQZ,2015-02-21T06:00:00Z,53.02,-122.52,3.0,2.0,0,0,,9.0,30.33071,1029.6,,TRUE,,,,,,,,FEW,7000,,,,,,,VFR,,,,,,,,,,,,METAR,545.0
CYQD 210600Z 30006KT 15SM SKC M24/M28 A3020 RMK SLP260,CYQD,2015-02-21T06:00:00Z,53.97,-101.08,-24.0,-28.0,300,6,,15.0,30.200787,1026.0,,,,,,,,,,SKC,,,,,,,,VFR,,,,,,,,,,,,METAR,271.0
CYPR 210600Z AUTO 08007KT 9SM CLR 03/03 A3039 RMK SLP292,CYPR,2015-02-21T06:00:00Z,54.28,-130.42,3.0,3.0,80,7,,9.0,30.389763,1029.2,,TRUE,,,,,,,,CLR,,,,,,,,VFR,,,,,,,,,,,,METAR,34.0
CYKY 210600Z 34009KT 15SM -SN OVC019 M12/M14 A3023 RMK SC8 SLP282,CYKY,2015-02-21T06:00:00Z,51.52,-109.17,-12.0,-14.0,340,9,,15.0,30.230314,1028.2,,,,,,,,,-SN,OVC,1900,,,,,,,MVFR,,,,,,,,,,,,METAR,694.0
CYIV 210600Z 33004KT 15SM SKC M29/M32 A3007 RMK SLP213,CYIV,2015-02-21T06:00:00Z,53.85,-94.65,-29.0,-32.0,330,4,,15.0,30.070866,1021.3,,,,,,,,,,SKC,,,,,,,,VFR,,,,,,,,,,,,METAR,237.0
CYHE 210600Z AUTO 00000KT 9SM OVC060 07/06 A3027 RMK SLP253,CYHE,2015-02-21T06:00:00Z,49.37,-121.5,7.0,6.0,0,0,,9.0,30.268702,1025.3,,TRUE,,,,,,,,OVC,6000,,,,,,,VFR,,,,,,,,,,,,METAR,39.0
CYDQ 210600Z AUTO 30009KT 9SM BKN036 OVC043 M01/M02 A3041 RMK SLP335,CYDQ,2015-02-21T06:00:00Z,55.75,-120.17,-1.0,-2.0,300,9,,9.0,30.410433,1033.5,,TRUE,,,,,,,,BKN,3600,OVC,4300,,,,,VFR,,,,,,,,,,,,SPECI,655.0
CYDB 210600Z AUTO 10007KT 9SM BKN230 BKN250 M02/M05 A3021 RMK SLP293,CYDB,2015-02-21T06:00:00Z,61.37,-139.05,-2.0,-5.0,100,7,,9.0,30.209646,1029.3,,TRUE,,,,,,,,BKN,23000,BKN,25000,,,,,VFR,,,,,,,,,,,,METAR,801.0
CZSJ 210600Z AUTO 33006KT 9SM CLR M28/M31 A2999 RMK SLP191,CZSJ,2015-02-21T06:00:00Z,53.07,-93.35,-28.0,-31.0,330,6,,9.0,29.991142,1019.1,,TRUE,,,,,,,,CLR,,,,,,,,VFR,,,,,,,,,,,,METAR,290.0
CZMD 210600Z AUTO 36002KT 9SM CLR M30/M33 A2998 RMK SLP187,CZMD,2015-02-21T06:00:00Z,53.43,-91.77,-30.0,-33.0,360,2,,9.0,29.97933,1018.7,,TRUE,,,,,,,,CLR,,,,,,,,VFR,,,,,,,,,,,,METAR,278.0
CYYU 210600Z 19008KT 3SM -SN DRSN OVC015 M15/M18 A2981 RMK SN6SC2 SLP119,CYYU,2015-02-21T06:00:00Z,49.42,-82.47,-15.0,-18.0,190,8,,3.0,29.811024,1011.9,,,,,,,,,-SN DRSN,OVC,1500,,,,,,,MVFR,,,,,,,,,,,,METAR,227.0
CYYH 210600Z 12003KT 15SM SKC M38/M42 A3057 RMK SLP360,CYYH,2015-02-21T06:00:00Z,69.53,-93.57,-38.0,-42.0,120,3,,15.0,30.569881,1036.0,,,,,,,,,,SKC,,,,,,,,VFR,,,,,,,,,,,,METAR,28.0
CYYB 210600Z AUTO 19008KT 1SM R08/P6000FT/N -SN OVC023 M18/M20 A3003 RMK SLP210,CYYB,2015-02-21T06:00:00Z,46.35,-79.42,-18.0,-20.0,190,8,,1.0,30.029528,1021.0,,TRUE,,,,,,,-SN,OVC,2300,,,,,,,IFR,,,,,,,,,,,,METAR,371.0
CYXU 210600Z 16007KT 10SM -SN OVC058 M15/M20 A3011 RMK SC8 SLP219,CYXU,2015-02-21T06:00:00Z,43.02,-81.15,-15.0,-20.0,160,7,,10.0,30.109253,1021.9,,,,,,,,,-SN,OVC,5800,,,,,,,VFR,,,,,,,,,,,,SPECI,278.0
CYXL 210600Z 01007KT 15SM IC SKC M18/M21 A2982 RMK SLP137,CYXL,2015-02-21T06:00:00Z,50.12,-91.9,-18.0,-21.0,10,7,,15.0,29.819881,1013.7,,,,,,,,,IC,SKC,,,,,,,,VFR,,,,,,,,,,,,METAR,390.0
CYVQ 210600Z 10006KT 30SM SCT290 M13/M15 A3039 RMK CI3 SLP301,CYVQ,2015-02-21T06:00:00Z,65.27,-126.78,-13.0,-15.0,100,6,,30.0,30.389763,1030.1,,,,,,,,,,SCT,29000,,,,,,,VFR,,,,,,,,,,,,METAR,74.0
CYRQ 210600Z AUTO 21007KT 9SM CLR M21/M25 A3030 RMK SLP266,CYRQ,2015-02-21T06:00:00Z,46.35,-72.68,-21.0,-25.0,210,7,,9.0,30.301182,1026.6,,TRUE,,,,,,,,CLR,,,,,,,,VFR,,,,,,,,,,,,METAR,61.0
CYRB 210600Z 15007KT 15SM BKN080 M31/M35 A3040 RMK AS5 SLP309,CYRB,2015-02-21T06:00:00Z,74.72,-94.97,-31.0,-35.0,150,7,,15.0,30.398623,1030.9,,,,,,,,,,BKN,8000,,,,,,,VFR,,,,,,,,,,,,SPECI,67.0
CYPO 210600Z AUTO 30005KT 9SM CLR M31/M35 A2993 RMK SLP142,CYPO,2015-02-21T06:00:00Z,54.98,-85.43,-31.0,-35.0,300,5,,9.0,29.929134,1014.2,,TRUE,,,,,,,,CLR,,,,,,,,VFR,,,,,,,,,,,,METAR,53.0
CYOO 210600Z AUTO 20006KT 140V290 9SM BKN065 OVC082 M14/M18 A3021 RMK SLP244,CYOO,2015-02-21T06:00:00Z,43.92,-78.9,-14.0,-18.0,200,6,,9.0,30.209646,1024.4,,TRUE,,,,,,,,BKN,6500,OVC,8200,,,,,VFR,,,,,,,,,,,,METAR,139.0
CYLH 210600Z AUTO 01007KT 9SM FEW007 SCT016 M22/M25 A2985 RMK SLP138,CYLH,2015-02-21T06:00:00Z,52.2,-87.93,-22.0,-25.0,10,7,,9.0,29.84941,1013.8,,TRUE,,,,,,,,FEW,700,SCT,1600,,,,,VFR,,,,,,,,,,,,METAR,254.0
CYKZ 210600Z 16002KT 15SM OVC099 M14/M20 A3018 RMK AS8 SLP239,CYKZ,2015-02-21T06:00:00Z,43.87,-79.37,-14.0,-20.0,160,2,,15.0,30.180119,1023.9,,,,,,,,,,OVC,9900,,,,,,,VFR,,,,,,,,,,,,METAR,198.0
CYHM 210600Z 18004KT 15SM BKN062 M18/M23 A3015 RMK SC7 SLP233,CYHM,2015-02-21T06:00:00Z,43.17,-79.93,-18.0,-23.0,180,4,,15.0,30.15059,1023.3,,,,,,,,,,BKN,6200,,,,,,,VFR,,,,,,,,,,,,METAR,238.0
CYGQ 210600Z 00000KT 15SM -SN BKN024 M22/M24 A2971 RMK SC5 SLP095,CYGQ,2015-02-21T06:00:00Z,49.77,-86.92,-22.0,-24.0,0,0,,15.0,29.71063,1009.5,,,,,,,,,-SN,BKN,2400,,,,,,,MVFR,,,,,,,,,,,,METAR,351.0
CYER 210600Z AUTO 30009KT 9SM CLR M30/M33 A2999 RMK SLP157,CYER,2015-02-21T06:00:00Z,56.02,-87.68,-30.0,-33.0,300,9,,9.0,29.991142,1015.7,,TRUE,,,,,,,,CLR,,,,,,,,VFR,,,,,,,,,,,,METAR,16.0
CYCK 210600Z AUTO 18015KT 9SM FEW036 OVC070 M11/M15 A3010 RMK SLP206,CYCK,2015-02-21T06:00:00Z,42.3,-82.08,-11.0,-15.0,180,15,,9.0,30.100393,1020.6,,TRUE,,,,,,,,FEW,3600,OVC,7000,,,,,VFR,,,,,,,,,,,,METAR,198.0
CYBN 210600Z AUTO 14008KT 9SM OVC061 M17/M23 A3013 RMK SLP223,CYBN,2015-02-21T06:00:00Z,44.27,-79.92,-17.0,-23.0,140,8,,9.0,30.129921,1022.3,,TRUE,,,,,,,,OVC,6100,,,,,,,VFR,,,,,,,,,,,,METAR,223.0
CZCP 210600Z AUTO 15003KT 9SM OVC007 M12/ A3033 RMK SLP282,CZCP,2015-02-21T06:00:00Z,70.17,-124.72,-12.0,,150,3,,9.0,30.33071,1028.2,,TRUE,,,,,,,,OVC,700,,,,,,,IFR,,,,,,,,,,,,METAR,93.0
CZBF 210600Z 28010G20KT 15SM DRSN SKC M14/M21 A2996 RMK SLP151,CZBF,2015-02-21T06:00:00Z,47.62,-65.75,-14.0,-21.0,280,10,20,15.0,29.958662,1015.1,,,,,,,,,DRSN,SKC,,,,,,,,VFR,,,,,,,,,,,,SPECI,59.0
CWYK 210600Z AUTO ///// M13/ A2879 RMK SLP821,CWYK,2015-02-21T06:00:00Z,57.12,-61.47,-13.0,,,,,,28.78937,982.1,,TRUE,,,,,,,,,,,,,,,,,,,,,,,,,,,,METAR,834.0
CWVH 210600Z AUTO 18020KT M06/ A3018 RMK SLP246,CWVH,2015-02-21T06:00:00Z,68.9,-133.93,-6.0,,180,20,,,30.180119,1024.6,,TRUE,,,,,,,,,,,,,,,,,,,,,,,,,,,,METAR,261.0
CWUW 210600Z AUTO 08016KT 9SM CLR M33/ A2999 RMK SLP252,CWUW,2015-02-21T06:00:00Z,68.65,-71.17,-33.0,,80,16,,9.0,29.991142,1025.2,,TRUE,,,,,,,,CLR,,,,,,,,VFR,,,,,,,,,,,,METAR,527.0
CWUP 210600Z AUTO ///// M32/ A3012 RMK SLP265,CWUP,2015-02-21T06:00:00Z,68.47,-66.82,-32.0,,,,,,30.121063,1026.5,,TRUE,,,,,,,,,,,,,,,,,,,,,,,,,,,,METAR,390.0
CWRX 210600Z AUTO 36004KT M33/ A3033,CWRX,2015-02-21T06:00:00Z,69.07,-79.02,-33.0,,360,4,,,30.33071,,,TRUE,,,,,,,,,,,,,,,,,,,,,,,,,,,,METAR,41.0
CWPX 210600Z AUTO 25009KT M35/ A3050 RMK SLP368,CWPX,2015-02-21T06:00:00Z,69.02,-107.82,-35.0,,250,9,,,30.499016,1036.8,,TRUE,,,,,,,,,,,,,,,,,,,,,,,,,,,,METAR,165.0
CWLY 210600Z AUTO VRB02KT 9SM BKN075 OVC094 05/02 A3027 RMK SLP257,CWLY,2015-02-21T06:00:00Z,50.22,-121.58,5.0,2.0,0,2,,9.0,30.268702,1025.7,,TRUE,,,,,,,,BKN,7500,OVC,9400,,,,,VFR,,,,,,,,,,,,METAR,229.0
CWLX 210600Z AUTO 06008KT M33/ A3023 RMK SLP268,CWLX,2015-02-21T06:00:00Z,68.9,-75.15,-33.0,,60,8,,,30.230314,1026.8,,TRUE,,,,,,,,,,,,,,,,,,,,,,,,,,,,METAR,162.0
CWLI 210600Z AUTO 16009KT M12/ A3026 RMK SLP264,CWLI,2015-02-21T06:00:00Z,69.58,-130.9,-12.0,,160,9,,,30.259842,1026.4,,TRUE,,,,,,,,,,,,,,,,,,,,,,,,,,,,METAR,102.0
CWKW 210600Z AUTO ///// M18/ A2940 RMK SLP018,CWKW,2015-02-21T06:00:00Z,59.97,-64.17,-18.0,,,,,,29.40059,1001.8,,TRUE,,,,,,,,,,,,,,,,,,,,,,,,,,,,METAR,551.0
CWKM 210600Z AUTO 27015KT M12/ A3025 RMK SLP248,CWKM,2015-02-21T06:00:00Z,69.6,-140.17,-12.0,,270,15,,,30.250984,1024.8,,TRUE,,,,,,,,,,,,,,,,,,,,,,,,,,,,METAR,13.0
CWIL 210600Z AUTO 26012KT M38/ A3058 RMK SLP370,CWIL,2015-02-21T06:00:00Z,68.32,-100.07,-38.0,,260,12,,,30.578741,1037.0,,TRUE,,,,,,,,,,,,,,,,,,,,,,,,,,,,METAR,36.0
CWCL 210600Z AUTO 31006KT 9SM 01/M06 A3023 RMK SLP271,CWCL,2015-02-21T06:00:00Z,51.13,-121.5,1.0,-6.0,310,6,,9.0,30.230314,1027.1,,TRUE,,,,,,,,,,,,,,,,,,,,,,,,,,,,METAR,1057.0
CWCA 210600Z 21024G36KT 10SM DRSN SKC M08/M12 A2908 RMK SLP849,CWCA,2015-02-21T06:00:00Z,53.7,-57.02,-8.0,-12.0,210,24,36,10.0,29.078741,984.9,,,,,,,,,DRSN,SKC,,,,,,,,VFR,,,,,,,,,,,,METAR,14.0
CYXH 210600Z AUTO 36010G20KT 9SM SCT026 SCT031 M08/M12 A3025 RMK SLP276,CYXH,2015-02-21T06:00:00Z,50.02,-110.72,-8.0,-12.0,360,10,20,9.0,30.250984,1027.6,,TRUE,,,,,,,,SCT,2600,SCT,3100,,,,,VFR,,,,,,,,,,,,METAR,716.0
CYUS 210600Z AUTO 12008G15KT 9SM CLR M39/ A3056 RMK SLP358,CYUS,2015-02-21T06:00:00Z,68.82,-93.42,-39.0,,120,8,15,9.0,30.561024,1035.8,,TRUE,,,,,,,,CLR,,,,,,,,VFR,,,,,,,,,,,,METAR,42.0
CYUB 210600Z 12004KT 15SM SKC M15/M18 A3025 RMK -14.8/-16.4/0/25 TRACE LOOSE LAST OBS/NEXT 211400UTC SLP245,CYUB,2015-02-21T06:00:00Z,69.45,-133.02,-15.0,-18.0,120,4,,15.0,30.250984,1024.5,,,,,,,,,,SKC,,,,,,,,VFR,,,-14.0,,,,,,,,,METAR,5.0
CYSM 210600Z 34008KT 15SM SKC M26/M30 A3059 RMK SLP391,CYSM,2015-02-21T06:00:00Z,60.03,-111.97,-26.0,-30.0,340,8,,15.0,30.590551,1039.1,,,,,,,,,,SKC,,,,,,,,VFR,,,,,,,,,,,,METAR,203.0
CYSF 210600Z AUTO VRB02KT 9SM CLR M30/M34 A3046 RMK SLP354,CYSF,2015-02-21T06:00:00Z,59.25,-105.82,-30.0,-34.0,0,2,,9.0,30.46063,1035.4,,TRUE,,,,,,,,CLR,,,,,,,,VFR,,,,,,,,,,,,METAR,250.0
CYQV 210600Z AUTO 34006KT 9SM BKN170 M20/M24 A3012 RMK SLP247,CYQV,2015-02-21T06:00:00Z,51.27,-102.47,-20.0,-24.0,340,6,,9.0,30.121063,1024.7,,TRUE,,,,,,,,BKN,17000,,,,,,,VFR,,,,,,,,,,,,METAR,498.0
CYPE 210600Z 02013G18KT 8SM -SN OVC013 M08/M11 A3043 RMK SC8 SLP347,CYPE,2015-02-21T06:00:00Z,56.22,-117.45,-8.0,-11.0,20,13,18,8.0,30.431103,1034.7,,,,,,,,,-SN,OVC,1300,,,,,,,MVFR,,,,,,,,,,,,METAR,571.0
CYOD 210600Z CCA 35008KT 15SM SKC M14/M16 A3031 RMK SLP312,CYOD,2015-02-21T06:00:00Z,54.4,-110.28,-14.0,-16.0,350,8,,15.0,30.31004,1031.2,,,,,,,,,,SKC,,,,,,,,VFR,,,,,,,,,,,,METAR,544.0
CYIO 210600Z AUTO 22003KT 160V240 9SM CLR M37/M41 A3045 RMK SLP324,CYIO,2015-02-21T06:00:00Z,72.67,-77.97,-37.0,-41.0,220,3,,9.0,30.448818,1032.4,,TRUE,,,,,,,,CLR,,,,,,,,VFR,,,,,,,,,,,,METAR,57.0
CWVD 210600Z AUTO 33014KT M33/ A2996 RMK SLP248,CWVD,2015-02-21T06:00:00Z,67.52,-63.77,-33.0,,330,14,,,29.958662,1024.8,,TRUE,,,,,,,,,,,,,,,,,,,,,,,,,,,,METAR,573.0
CWRF 210600Z AUTO ///// M36/ A3031 RMK SLP335,CWRF,2015-02-21T06:00:00Z,69.42,-89.72,-36.0,,,,,,30.31004,1033.5,,TRUE,,,,,,,,,,,,,,,,,,,,,,,,,,,,METAR,325.0
CYZH 210600Z AUTO 01011KT 9SM -SN BKN017 BKN022 OVC028 M07/M10 A3037 RMK SLP324,CYZH,2015-02-21T06:00:00Z,55.28,-114.77,-7.0,-10.0,10,11,,9.0,30.369095,1032.4,,TRUE,,,,,,,-SN,BKN,1700,BKN,2200,OVC,2800,,,MVFR,,,,,,,,,,,,METAR,581.0
CYYL 210600Z AUTO 35012KT 9SM CLR M31/M36 A3021 RMK SLP285,CYYL,2015-02-21T06:00:00Z,56.87,-101.07,-31.0,-36.0,350,12,,9.0,30.209646,1028.5,,TRUE,,,,,,,,CLR,,,,,,,,VFR,,,,,,,,,,,,METAR,357.0
CYVC 210600Z 31006KT 15SM SKC M22/M26 A3026 RMK SLP290,CYVC,2015-02-21T06:00:00Z,55.15,-105.27,-22.0,-26.0,310,6,,15.0,30.259842,1029.0,,,,,,,,,,SKC,,,,,,,,VFR,,,,,,,,,,,,METAR,379.0
CYQW 210600Z AUTO 35005KT 9SM SCT030 BKN110 BKN140 M17/M19 A3028 RMK SLP299,CYQW,2015-02-21T06:00:00Z,52.77,-108.25,-17.0,-19.0,350,5,,9.0,30.280512,1029.9,,TRUE,,,,,,,,SCT,3000,BKN,11000,BKN,14000,,,VFR,,,,,,,,,,,,METAR,548.0
CYQR 210600Z 34009KT 15SM FEW026 FEW140 M18/M22 A3015 RMK SC1AC1 SLP256,CYQR,2015-02-21T06:00:00Z,50.43,-104.67,-18.0,-22.0,340,9,,15.0,30.15059,1025.6,,,,,,,,,,FEW,2600,FEW,14000,,,,,VFR,,,,,,,,,,,,METAR,577.0
CYQF 210600Z 26005KT 5SM -SN OVC040 M06/M08 A3022 RMK SC8 SLP286,CYQF,2015-02-21T06:00:00Z,52.17,-113.9,-6.0,-8.0,260,5,,5.0,30.221457,1028.6,,,,,,,,,-SN,OVC,4000,,,,,,,MVFR,,,,,,,,,,,,METAR,905.0
CYPA 210600Z 35008KT 15SM FEW120 M18/M24 A3023 RMK AC1 SLP278,CYPA,2015-02-21T06:00:00Z,53.22,-105.67,-18.0,-24.0,350,8,,15.0,30.230314,1027.8,,,,,,,,,,FEW,12000,,,,,,,VFR,,,,,,,,,,,,METAR,428.0
CYOJ 210600Z AUTO 35005KT 9SM CLR M15/M17 A3056 RMK SLP383,CYOJ,2015-02-21T06:00:00Z,58.62,-117.17,-15.0,-17.0,350,5,,9.0,30.561024,1038.3,,TRUE,,,,,,,,CLR,,,,,,,,VFR,,,,,,,,,,,,METAR,338.0
CYNE 210600Z AUTO 35005KT 9SM CLR M27/M30 A3014 RMK SLP235,CYNE,2015-02-21T06:00:00Z,53.97,-97.82,-27.0,-30.0,350,5,,9.0,30.138779,1023.5,,TRUE,,,,,,,,CLR,,,,,,,,VFR,,,,,,,,,,,,METAR,223.0
CYMM 210600Z AUTO 33008KT 9SM BKN240 M20/M23 A3046 RMK SLP354,CYMM,2015-02-21T06:00:00Z,56.65,-111.22,-20.0,-23.0,330,8,,9.0,30.46063,1035.4,,TRUE,,,,,,,,BKN,24000,,,,,,,VFR,,,,,,,,,,,,METAR,369.0
CYKJ 210600Z AUTO 31003KT 230V320 9SM CLR M33/M36 A3026 RMK SLP320,CYKJ,2015-02-21T06:00:00Z,57.25,-105.62,-33.0,-36.0,310,3,,9.0,30.259842,1032.0,,TRUE,,,,,,,,CLR,,,,,,,,VFR,,,,,,,,,,,,METAR,509.0
CYGX 210600Z 32007KT 15SM SKC M34/M38 A3013 RMK SLP228,CYGX,2015-02-21T06:00:00Z,56.35,-94.7,-34.0,-38.0,320,7,,15.0,30.129921,1022.8,,,,,,,,,,SKC,,,,,,,,VFR,,,,,,,,,,,,METAR,145.0
CYET 210600Z AUTO 31007KT 9SM OVC075 M03/M07 A3029 RMK SLP304,CYET,2015-02-21T06:00:00Z,53.57,-116.47,-3.0,-7.0,310,7,,9.0,30.28937,1030.4,,TRUE,,,,,,,,OVC,7500,,,,,,,VFR,,,,,,,,,,,,METAR,925.0
CYEN 210600Z 02007KT 15SM OVC020 M12/M14 A3005 RMK SC8 SLP216,CYEN,2015-02-21T06:00:00Z,49.22,-102.97,-12.0,-14.0,20,7,,15.0,30.050198,1021.6,,,,,,,,,,OVC,2000,,,,,,,MVFR,,,,,,,,,,,,METAR,581.0
CYDN 210600Z AUTO 27006KT 9SM CLR M25/M28 A3017 RMK SLP248,CYDN,2015-02-21T06:00:00Z,51.1,-100.03,-25.0,-28.0,270,6,,9.0,30.171259,1024.8,,TRUE,,,,,,,,CLR,,,,,,,,VFR,,,,,,,,,,,,METAR,305.0
CYBU 210600Z AUTO 28004KT 9SM CLR M23/M27 A3022 RMK SLP272,CYBU,2015-02-21T06:00:00Z,53.32,-104.0,-23.0,-27.0,280,4,,9.0,30.221457,1027.2,,TRUE,,,,,,,,CLR,,,,,,,,VFR,,,,,,,,,,,,METAR,374.0
CYBR 210600Z 32009KT 15SM FEW170 M23/M25 A3009 RMK AC2 SLP230,CYBR,2015-02-21T06:00:00Z,49.92,-99.95,-23.0,-25.0,320,9,,15.0,30.088583,1023.0,,,,,,,,,,FEW,17000,,,,,,,VFR,,,,,,,,,,,,METAR,409.0
CYBQ 210600Z AUTO 33009G16KT 9SM CLR M37/M42 A3022 RMK SLP282,CYBQ,2015-02-21T06:00:00Z,58.7,-98.5,-37.0,-42.0,330,9,16,9.0,30.221457,1028.2,,TRUE,,,,,,,,CLR,,,,,,,,VFR,,,,,,,,,,,,METAR,262.0
CYBK 210600Z 31019KT 15SM DRSN SKC M36/M41 A3046 RMK SLP320,CYBK,2015-02-21T06:00:00Z,64.28,-96.07,-36.0,-41.0,310,19,,15.0,30.46063,1032.0,,,,,,,,,DRSN,SKC,,,,,,,,VFR,,,,,,,,,,,,METAR,18.0
CWHN 210600Z AUTO 34006KT 9SM CLR M18/M19 A3027 RMK SLP309,CWHN,2015-02-21T06:00:00Z,54.88,-109.97,-18.0,-19.0,340,6,,9.0,30.268702,1030.9,,TRUE,,,,,,,,CLR,,,,,,,,VFR,,,,,,,,,,,,METAR,636.0
SASJ 210600Z 00000KT 9999 SCT020 OVC100 18/17 Q1019,SASJ,2015-02-21T06:00:00Z,-24.37,-65.1,18.0,17.0,0,0,,6.21,30.088583,,,,,,,,,,,SCT,2000,OVC,10000,,,,,VFR,,,,,,,,,,,,METAR,1167.0
SARL 210600Z 18003KT CAVOK 18/15 Q1016,SARL,2015-02-21T06:00:00Z,-29.67,-57.13,18.0,15.0,180,3,,6.21,30.0,,,,,,,,,,,CAVOK,,,,,,,,VFR,,,,,,,,,,,,METAR,70.0
RJAW 210600Z 05015KT 9999 FEW015 SCT030 BKN100 17/07 Q1020 RMK 1CU015 3CU030 6AC100 A3015,RJAW,2015-02-21T06:00:00Z,24.77,141.32,17.0,7.0,50,15,,6.21,30.11811,,,,,,,,,,,FEW,1500,SCT,3000,BKN,10000,,,VFR,,,,,,,,,,,,SPECI,116.0
YWLM 210600Z AUTO 11010KT 9999 // BKN024 BKN030 OVC091 24/19 Q1014,YWLM,2015-02-21T06:00:00Z,-32.8,151.83,24.0,19.0,110,10,,6.21,29.940945,,,TRUE,,,,,,,,BKN,2400,BKN,3000,OVC,9100,,,MVFR,,,,,,,,,,,,METAR,9.0
YSRI 210600Z AUTO 09011KT 9999 // SCT110 27/19 Q1014,YSRI,2015-02-21T06:00:00Z,-33.6,150.77,27.0,19.0,90,11,,6.21,29.940945,,,TRUE,,,,,,,,SCT,11000,,,,,,,VFR,,,,,,,,,,,,METAR,21.0
YSNF 210600Z 08015KT 9999 SCT022 23/17 Q1017,YSNF,2015-02-21T06:00:00Z,-29.02,167.92,23.0,17.0,80,15,,6.21,30.029528,,,,,,,,,,,SCT,2200,,,,,,,VFR,,,,,,,,,,,,METAR,109.0
YSDU 210600Z AUTO 07011KT 9999 // BKN071 OVC080 32/16 Q1010,YSDU,2015-02-21T06:00:00Z,-32.22,148.57,32.0,16.0,70,11,,6.21,29.822834,,,TRUE,,,,,,,,BKN,7100,OVC,8000,,,,,VFR,,,,,,,,,,,,METAR,275.0
YPPD 210600Z AUTO 01019KT //// // NCD 37/25 Q0999,YPPD,2015-02-21T06:00:00Z,-20.37,118.62,37.0,25.0,10,19,,,29.498032,,,TRUE,,,,,,,,,,,,,,,,,,,,,,,,,,,,METAR,6.0
YPKG 210600Z AUTO 13008KT 9999 // NCD 32/09 Q1009,YPKG,2015-02-21T06:00:00Z,-30.77,121.45,32.0,9.0,130,8,,6.21,29.793306,,,TRUE,,,,,,,,,,,,,,,,,,,,,,,,,,,,METAR,360.0
YPGV 210600Z 33018KT 9999 FEW021 BKN350 31/24 Q1006,YPGV,2015-02-21T06:00:00Z,-12.27,136.82,31.0,24.0,330,18,,6.21,29.704725,,,,,,,,,,,FEW,2100,BKN,35000,,,,,VFR,,,,,,,,,,,,METAR,55.0
YPEA 210600Z AUTO 21010KT 9999 // NCD 28/13 Q1011,YPEA,2015-02-21T06:00:00Z,-31.67,116.02,28.0,13.0,210,10,,6.21,29.852362,,,TRUE,,,,,,,,,,,,,,,,,,,,,,,,,,,,METAR,49.0
YMLT 210600Z AUTO 30012KT 9999 // NCD 28/12 Q1013,YMLT,2015-02-21T06:00:00Z,-41.52,147.18,28.0,12.0,300,12,,6.21,29.911417,,,TRUE,,,,,,,,,,,,,,,,,,,,,,,,,,,,METAR,178.0
YMHB 210600Z 05012KT 9999 FEW050 28/16 Q1011,YMHB,2015-02-21T06:00:00Z,-42.82,147.52,28.0,16.0,50,12,,6.21,29.852362,,,,,,,,,,,FEW,5000,,,,,,,VFR,,,,,,,,,,,,METAR,27.0
YMAV 210600Z AUTO 09015KT 9999 // NCD 35/15 Q1008,YMAV,2015-02-21T06:00:00Z,-38.03,144.48,35.0,15.0,90,15,,6.21,29.763779,,,TRUE,,,,,,,,,,,,,,,,,,,,,,,,,,,,METAR,8.0
YFRT 210600Z AUTO 11016KT //// // ////// 35/03 Q1007,YFRT,2015-02-21T06:00:00Z,-30.83,128.12,35.0,3.0,110,16,,,29.734253,,,TRUE,,,,,,,,,,,,,,,,,,,,,,,,,,,,METAR,156.0
YCIN 210600Z AUTO 28008KT 240V300 //// // NCD 37/23 Q1001,YCIN,2015-02-21T06:00:00Z,-17.58,123.83,37.0,23.0,280,8,,,29.557087,,,TRUE,,,,,,,,,,,,,,,,,,,,,,,,,,,,METAR,91.0
YBRM 210600Z 28014KT 9999 FEW030 BKN300 34/26 Q1002,YBRM,2015-02-21T06:00:00Z,-17.93,122.22,34.0,26.0,280,14,,6.21,29.586615,,,,,,,,,,,FEW,3000,BKN,30000,,,,,VFR,,,,,,,,,,,,METAR,9.0
YBRK 210600Z 21011KT CAVOK 34/22 Q1005,YBRK,2015-02-21T06:00:00Z,-23.37,150.47,34.0,22.0,210,11,,6.21,29.675198,,,,,,,,,,,CAVOK,,,,,,,,VFR,,,,,,,,,,,,METAR,14.0
YBMA 210600Z AUTO 06011KT 9999 // SCT073 38/18 Q1006,YBMA,2015-02-21T06:00:00Z,-20.67,139.47,38.0,18.0,60,11,,6.21,29.704725,,,TRUE,,,,,,,,SCT,7300,,,,,,,VFR,,,,,,,,,,,,METAR,344.0
YBHM 210600Z AUTO 32018KT 9999 // NCD 30/26 Q1005,YBHM,2015-02-21T06:00:00Z,-20.35,148.95,30.0,26.0,320,18,,6.21,29.675198,,,TRUE,,,,,,,,,,,,,,,,,,,,,,,,,,,,METAR,5.0
DAFH 210600Z 11006KT 9999 -RA FEW026CB SCT030 08/07 Q1009,DAFH,2015-02-21T06:00:00Z,32.93,3.32,8.0,7.0,110,6,,6.21,29.793306,,,,,,,,,,-RA,FEW,2600,SCT,3000,,,,,VFR,,,,,,,,,,,,METAR,774.0
UMOO 210600Z 19002MPS 3600 NSC M01/M02 Q1012 NOSIG,UMOO,2015-02-21T06:00:00Z,53.95,30.1,-1.0,-2.0,190,4,,2.24,29.88189,,,,,,TRUE,,,,,,,,,,,,,,,,,,,,,,,,,METAR,194.0
UMII 210600Z 20002MPS 1600 BR SCT013 SCT100 M03/M04 Q1009 TEMPO 1300 BKN005,UMII,2015-02-21T06:00:00Z,55.13,30.35,-3.0,-4.0,200,4,,0.99,29.793306,,,,,,,,,,BR,SCT,1300,SCT,10000,,,,,LIFR,,,,,,,,,,,,METAR,208.0
UMBB 210600Z 14002MPS 3800 BR NSC M02/M03 Q1010 NOSIG,UMBB,2015-02-21T06:00:00Z,52.12,23.9,-2.0,-3.0,140,4,,2.36,29.822834,,,,,,TRUE,,,,BR,,,,,,,,,,,,,,,,,,,,,METAR,143.0
UTAT 210600Z 02007MPS CAVOK 01/01 Q1017 99CLRD70 TEMPO 01010G15MPS,UTAT,2015-02-21T06:00:00Z,41.77,59.83,1.0,1.0,20,14,,6.21,30.029528,,,,,,,,,,,CAVOK,,,,,,,,VFR,,,,,,,,,,,,METAR,83.0
UTAM 210600Z 23002MPS 4300 BR OVC011 12/11 Q1007 NOSIG RMK 882///55,UTAM,2015-02-21T06:00:00Z,37.62,61.9,12.0,11.0,230,4,,2.67,29.734253,,,,,,TRUE,,,,BR,OVC,1100,,,,,,,IFR,,,,,,,,,,,,METAR,222.0
UTAV 210600Z 05005MPS 9999 SCT033CB SCT033 10/09 Q1009 NOSIG,UTAV,2015-02-21T06:00:00Z,39.08,63.62,10.0,9.0,50,10,,6.21,29.793306,,,,,,TRUE,,,,,SCT,3300,SCT,3300,,,,,VFR,,,,,,,,,,,,METAR,192.0
UTAK 210600Z 06009MPS 9999 OVC048 03/01 Q1012 R34/19//60 NOSIG,UTAK,2015-02-21T06:00:00Z,40.05,53.0,3.0,1.0,60,17,,6.21,29.88189,,,,,,TRUE,,,,,OVC,4800,,,,,,,VFR,,,,,,,,,,,,METAR,85.0
EIME 210600Z 25014KT 9999 BKN008 01/00 Q1002,EIME,2015-02-21T06:00:00Z,53.3,-6.45,1.0,0.0,250,14,,6.21,29.586615,,,,,,,,,,,BKN,800,,,,,,,IFR,,,,,,,,,,,,METAR,93.0
ZYHB 210600Z 17005MPS 4000 -RASN SCT006 OVC020 01/M00 Q1005 NOSIG,ZYHB,2015-02-21T06:00:00Z,45.62,126.25,1.0,0.0,170,10,,2.49,29.675198,,,,,,TRUE,,,,-RA -SN,SCT,600,OVC,2000,,,,,IFR,,,,,,,,,,,,METAR,140.0
ZYCC 210600Z 19008MPS 6000 FEW010 OVC020 02/M01 Q1008 NOSIG,ZYCC,2015-02-21T06:00:00Z,43.98,125.68,2.0,-1.0,190,16,,3.73,29.763779,,,,,,TRUE,,,,,FEW,1000,OVC,2000,,,,,MVFR,,,,,,,,,,,,METAR,238.0
ZUCK 210600Z 06002MPS 010V090 9999 SCT025 16/09 Q1015 NOSIG,ZUCK,2015-02-21T06:00:00Z,29.72,106.63,16.0,9.0,60,4,,6.21,29.970472,,,,,,TRUE,,,,,SCT,2500,,,,,,,VFR,,,,,,,,,,,,METAR,351.0
ZSOF 210600Z 27003MPS 250V310 5000 BR SCT011 OVC046 05/02 Q1018 NOSIG,ZSOF,2015-02-21T06:00:00Z,31.78,117.3,5.0,2.0,270,6,,3.11,30.059055,,,,,,TRUE,,,,BR,SCT,1100,OVC,4600,,,,,MVFR,,,,,,,,,,,,METAR,33.0
ZSNJ 210600Z 31003MPS 4000 BR BKN013 OVC040 07/05 Q1018 NOSIG,ZSNJ,2015-02-21T06:00:00Z,31.75,118.87,7.0,5.0,310,6,,2.49,30.059055,,,,,,TRUE,,,,BR,BKN,1300,OVC,4000,,,,,IFR,,,,,,,,,,,,METAR,33.0
ZLLL 210600Z 13003MPS 070V200 9999 SCT020 01/M08 Q1019 BECMG TL0740 07005MPS,ZLLL,2015-02-21T06:00:00Z,36.52,103.62,1.0,-8.0,130,6,,6.21,30.088583,,,,,,,,,,,SCT,2000,,,,,,,VFR,,,,,,,,,,,,SPECI,1947.0
ZJSY 210600Z 16003MPS 120V190 9999 SCT020 BKN050 27/22 Q1013 NOSIG,ZJSY,2015-02-21T06:00:00Z,18.3,109.42,27.0,22.0,160,6,,6.21,29.911417,,,,,,TRUE,,,,,SCT,2000,BKN,5000,,,,,VFR,,,,,,,,,,,,METAR,27.0
ZJHK 210600Z 18003MPS 150V230 9999 FEW023TCU SCT023 BKN040 27/18 Q1012 NOSIG,ZJHK,2015-02-21T06:00:00Z,19.93,110.47,27.0,18.0,180,6,,6.21,29.88189,,,,,,TRUE,,,,,FEW,2300,SCT,2300,BKN,4000,,,VFR,,,,,,,,,,,,METAR,23.0
ZHHH 210600Z 31003MPS 260V360 5000 HZ FEW023 11/05 Q1019 NOSIG,ZHHH,2015-02-21T06:00:00Z,30.78,114.22,11.0,5.0,310,6,,3.11,30.088583,,,,,,TRUE,,,,HZ,FEW,2300,,,,,,,MVFR,,,,,,,,,,,,METAR,23.0
ZHCC 210600Z 18003MPS 120V220 5000 HZ NSC 13/02 Q1016 NOSIG,ZHCC,2015-02-21T06:00:00Z,34.52,113.83,13.0,2.0,180,6,,3.11,30.0,,,,,,TRUE,,,,HZ,,,,,,,,,,,,,,,,,,,,,METAR,111.0
ZGHA 210600Z 31003MPS 280V350 7000 BKN015 OVC050 10/05 Q1019 NOSIG,ZGHA,2015-02-21T06:00:00Z,28.18,113.22,10.0,5.0,310,6,,4.35,30.088583,,,,,,TRUE,,,,,BKN,1500,OVC,5000,,,,,MVFR,,,,,,,,,,,,METAR,66.0
ZBHH 210600Z 29010MPS 9999 FEW040 M09/M18 Q1019 NOSIG,ZBHH,2015-02-21T06:00:00Z,40.85,111.82,-9.0,-18.0,290,19,,6.21,30.088583,,,,,,TRUE,,,,,FEW,4000,,,,,,,VFR,,,,,,,,,,,,METAR,1065.0
DAER 210600Z 18004KT 6000 -RA NSC 15/13 Q1010,DAER,2015-02-21T06:00:00Z,,,15.0,13.0,180,4,,3.73,29.822834,,,,,,,,,,-RA,,,,,,,,,,,,,,,,,,,,,METAR,
DAUT 210600Z 30007KT 8000 NSC 09/M07 Q1006,DAUT,2015-02-21T06:00:00Z,29.25,0.27,9.0,-7.0,300,7,,4.97,29.704725,,,,,,,,,,,,,,,,,,,,,,,,,,,,,,,METAR,312.0
DAUL 210600Z 06004KT 2000 RA BR FEW013 OVC023 08/08 Q1010,DAUL,2015-02-21T06:00:00Z,33.77,2.92,8.0,8.0,60,4,,1.24,29.822834,,,,,,,,,,RA BR,FEW,1300,OVC,2300,,,,,IFR,,,,,,,,,,,,METAR,765.0
DAUG 210600Z 05014KT 5000 -RA BKN033 09/09 Q1010,DAUG,2015-02-21T06:00:00Z,32.37,3.82,9.0,9.0,50,14,,3.11,29.822834,,,,,,,,,,-RA,BKN,3300,,,,,,,MVFR,,,,,,,,,,,,METAR,450.0
DAUA 210600Z 31009KT 4000 HZ NSC 08/M03 Q1008,DAUA,2015-02-21T06:00:00Z,27.83,-0.18,8.0,-3.0,310,9,,2.49,29.763779,,,,,,,,,,HZ,,,,,,,,,,,,,,,,,,,,,METAR,263.0
DAOV 210600Z 00000KT 8000 BKN033 06/06 Q1012,DAOV,2015-02-21T06:00:00Z,35.2,0.15,6.0,6.0,0,0,,4.97,29.88189,,,,,,,,,,,BKN,3300,,,,,,,MVFR,,,,,,,,,,,,METAR,514.0
DAOR 210600Z 35010KT 9999 FEW033 04/02 Q1010,DAOR,2015-02-21T06:00:00Z,31.65,-2.27,4.0,2.0,350,10,,6.21,29.822834,,,,,,,,,,,FEW,3300,,,,,,,VFR,,,,,,,,,,,,METAR,773.0
DAOI 210600Z 00000KT 6000 SCT013 BKN023 09/09 Q1012,DAOI,2015-02-21T06:00:00Z,36.22,1.32,9.0,9.0,0,0,,3.73,29.88189,,,,,,,,,,,SCT,1300,BKN,2300,,,,,MVFR,,,,,,,,,,,,METAR,143.0
DAOF 210600Z 27007KT 8000 NSC 09/02 Q1012,DAOF,2015-02-21T06:00:00Z,27.7,-8.17,9.0,2.0,270,7,,4.97,29.88189,,,,,,,,,,,,,,,,,,,,,,,,,,,,,,,METAR,431.0
DAEF 210600Z 15006KT 5000 BKN040 SCT100 15/M02 Q1010,DAEF,2015-02-21T06:00:00Z,28.43,7.55,15.0,-2.0,150,6,,3.11,29.822834,,,,,,,,,,,BKN,4000,SCT,10000,,,,,MVFR,,,,,,,,,,,,METAR,472.0
DABT 210600Z 16004KT 9999 SCT020 OVC026 04/03 Q1010,DABT,2015-02-21T06:00:00Z,35.75,6.32,4.0,3.0,160,4,,6.21,29.822834,,,,,,,,,,,SCT,2000,OVC,2600,,,,,MVFR,,,,,,,,,,,,METAR,1052.0
DAAY 210600Z 36010KT 5000 SCT003 BKN026 03/03 Q1012,DAAY,2015-02-21T06:00:00Z,33.53,-0.25,3.0,3.0,360,10,,3.11,29.88189,,,,,,,,,,,SCT,300,BKN,2600,,,,,MVFR,,,,,,,,,,,,METAR,1149.0
DAAV 210600Z 00000KT 9999 FEW020 BKN033 10/10 Q1010,DAAV,2015-02-21T06:00:00Z,36.8,5.88,10.0,10.0,0,0,,6.21,29.822834,,,,,,,,,,,FEW,2000,BKN,3300,,,,,VFR,,,,,,,,,,,,METAR,11.0
DAAE 210600Z 00000KT 9999 FEW023 SCT040 BKN090 10/09 Q1010,DAAE,2015-02-21T06:00:00Z,36.72,5.07,10.0,9.0,0,0,,6.21,29.822834,,,,,,,,,,,FEW,2300,SCT,4000,BKN,9000,,,VFR,,,,,,,,,,,,METAR,2.0
DAAD 210600Z 00000KT 0300 FG SCT030 SCT100 07/07 Q1022,DAAD,2015-02-21T06:00:00Z,35.32,4.2,7.0,7.0,0,0,,0.19,30.177166,,,,,,,,,,FG,SCT,3000,SCT,10000,,,,,LIFR,,,,,,,,,,,,METAR,461.0
DABS 210600Z 20006KT 9999 SCT020 BKN033 08/05 Q1011,DABS,2015-02-21T06:00:00Z,35.43,8.12,8.0,5.0,200,6,,6.21,29.852362,,,,,,,,,,,SCT,2000,BKN,3300,,,,,VFR,,,,,,,,,,,,METAR,813.0
RPLI 210600Z 32010KT 9999 FEW019 SCT100 29/20 Q1013 NOSIG RMK A2991,RPLI,2015-02-21T06:00:00Z,18.17,120.52,29.0,20.0,320,10,,6.21,29.911417,,,,,,TRUE,,,,,FEW,1900,SCT,10000,,,,,VFR,,,,,,,,,,,,METAR,5.0
LEGT 210600Z 25012KT 9999 BKN005 05/05 Q1009,LEGT,2015-02-21T06:00:00Z,40.28,-3.72,5.0,5.0,250,12,,6.21,29.793306,,,,,,,,,,,BKN,500,,,,,,,IFR,,,,,,,,,,,,METAR,612.0
FAVV 210600Z AUTO /////KT //// // ////// 20/13 Q1021,FAVV,2015-02-21T06:00:00Z,-26.57,27.97,20.0,13.0,,,,,30.147638,,,TRUE,,,,,,,,,,,,,,,,,,,,,,,,,,,,METAR,1483.0
FASI 210600Z AUTO /////KT //// // ////// 20/12 Q1021,FASI,2015-02-21T06:00:00Z,-26.25,28.4,20.0,12.0,,,,,30.147638,,,TRUE,,,,,,,,,,,,,,,,,,,,,,,,,,,,METAR,1628.0
FAJB 210600Z AUTO 00000KT //// // ////// 19/13 Q1021,FAJB,2015-02-21T06:00:00Z,-26.15,28.0,19.0,13.0,0,0,,,30.147638,,,TRUE,,,,,,,,,,,,,,,,,,,,,,,,,,,,METAR,1626.0
FAGC 210600Z AUTO 02005KT //// // ////// 20/12 Q1021,FAGC,2015-02-21T06:00:00Z,-25.98,28.13,20.0,12.0,20,5,,,30.147638,,,TRUE,,,,,,,,,,,,,,,,,,,,,,,,,,,,METAR,1623.0
LERT 210600Z 29003G15KT 260V020 9999 -RA BKN059 12/08 Q1014 NOSIG,LERT,2015-02-21T06:00:00Z,36.63,-6.33,12.0,8.0,290,3,15,6.21,29.940945,,,,,,TRUE,,,,-RA,BKN,5900,,,,,,,VFR,,,,,,,,,,,,METAR,26.0
DTTZ 210600Z 09010KT 7000 SCT030 12/10 Q1010 NOSIG,DTTZ,2015-02-21T06:00:00Z,33.92,8.08,12.0,10.0,90,10,,4.35,29.822834,,,,,,TRUE,,,,,SCT,3000,,,,,,,MVFR,,,,,,,,,,,,METAR,93.0
DTTG 210600Z VRB02KT 5000 SCT020 SCT030 11/08 Q1011 NOSIG,DTTG,2015-02-21T06:00:00Z,33.73,9.92,11.0,8.0,0,2,,3.11,29.852362,,,,,,TRUE,,,,,SCT,2000,SCT,3000,,,,,MVFR,,,,,,,,,,,,METAR,5.0
DTTF 210600Z 35005KT 8000 FEW030 10/08 Q1011 NOSIG,DTTF,2015-02-21T06:00:00Z,34.42,8.82,10.0,8.0,350,5,,4.97,29.852362,,,,,,TRUE,,,,,FEW,3000,,,,,,,MVFR,,,,,,,,,,,,METAR,314.0
DTKA 210600Z 09004KT 060V160 9999 SCT020 SCT100 11/07 Q1010 NOSIG,DTKA,2015-02-21T06:00:00Z,36.98,8.88,11.0,7.0,90,4,,6.21,29.822834,,,,,,TRUE,,,,,SCT,2000,SCT,10000,,,,,VFR,,,,,,,,,,,,METAR,21.0
OLBA 210600Z VRB03KT 9999 BKN026 10/05 Q1010,OLBA,2015-02-21T06:00:00Z,33.82,35.47,10.0,5.0,0,3,,6.21,29.822834,,,,,,,,,,,BKN,2600,,,,,,,MVFR,,,,,,,,,,,,METAR,19.0
OJAQ 210600Z 26005KT 7000 BKN045 13/04 Q1013 NOSIG,OJAQ,2015-02-21T06:00:00Z,29.62,35.02,13.0,4.0,260,5,,4.35,29.911417,,,,,,TRUE,,,,,BKN,4500,,,,,,,MVFR,,,,,,,,,,,,METAR,51.0
OJAM 210600Z 24006KT 4000 DZ SCT015 SCT030 02/01 Q1008 NOSIG,OJAM,2015-02-21T06:00:00Z,31.97,35.97,2.0,1.0,240,6,,2.49,29.763779,,,,,,TRUE,,,,DZ,SCT,1500,SCT,3000,,,,,IFR,,,,,,,,,,,,METAR,773.0
SUMU 210600Z 10003KT CAVOK 19/14 Q1019 NOSIG,SUMU,2015-02-21T06:00:00Z,-34.82,-56.0,19.0,14.0,100,3,,6.21,30.088583,,,,,,TRUE,,,,,CAVOK,,,,,,,,VFR,,,,,,,,,,,,METAR,32.0
OJAI 210600Z 23010KT 5000 RA BKN030 SCT035 01/01 Q1009 NOSIG,OJAI,2015-02-21T06:00:00Z,31.72,36.0,1.0,1.0,230,10,,3.11,29.793306,,,,,,TRUE,,,,RA,BKN,3000,SCT,3500,,,,,MVFR,,,,,,,,,,,,METAR,730.0
SLVR 210600Z 17004KT 999,SLVR,2015-02-21T06:00:00Z,-17.63,-63.12,,,170,4,,,,,,,,,,,,,,,,,,,,,,,,,,,,,,,,,,METAR,373.0
SLLP 210600Z 08006KT 9999 FEW007 FEW017CB SCT070 BKN200 06/04 M ETAR Q1035,SLLP,2015-02-21T06:00:00Z,-16.52,-68.17,6.0,4.0,80,6,,6.21,30.561024,,,,,,,,,,,FEW,700,FEW,1700,SCT,7000,BKN,20000,VFR,,,,,,,,,,,,METAR,4014.0
SLCB 210600Z 26003KT 9999 FEW025 SCT070 12/10 Q1025,SLCB,2015-02-21T06:00:00Z,-17.42,-66.18,12.0,10.0,260,3,,6.21,30.265747,,,,,,,,,,,FEW,2500,SCT,7000,,,,,VFR,,,,,,,,,,,,METAR,2548.0
SGES 210600Z 16004KT CAVOK 22/21 Q1013,SGES,2015-02-21T06:00:00Z,-25.45,-54.85,22.0,21.0,160,4,,6.21,29.911417,,,,,,,,,,,CAVOK,,,,,,,,VFR,,,,,,,,,,,,METAR,849.0
SGAS 210600Z 16005KT 130V190 CAVOK 22/20 Q1013,SGAS,2015-02-21T06:00:00Z,-25.25,-57.52,22.0,20.0,160,5,,6.21,29.911417,,,,,,,,,,,CAVOK,,,,,,,,VFR,,,,,,,,,,,,METAR,101.0
RPVM 210600Z 04010KT 9999 FEW020 SCT300 29/21 Q1013 RMK A2991,RPVM,2015-02-21T06:00:00Z,10.32,123.98,29.0,21.0,40,10,,6.21,29.911417,,,,,,,,,,,FEW,2000,SCT,30000,,,,,VFR,,,,,,,,,,,,METAR,10.0
RPMD 210600Z 02010KT 9999 HZ FEW016 SCT290 32/21 Q1011 RMK A2988,RPMD,2015-02-21T06:00:00Z,7.12,125.65,32.0,21.0,20,10,,6.21,29.852362,,,,,,,,,,HZ,FEW,1600,SCT,29000,,,,,VFR,,,,,,,,,,,,METAR,18.0
RPLL 210600Z 12013KT 080V180 9999 FEW025 SCT300 29/19 Q1014 NOSIG RMK A2994,RPLL,2015-02-21T06:00:00Z,14.52,121.0,29.0,19.0,120,13,,6.21,29.940945,,,,,,TRUE,,,,,FEW,2500,SCT,30000,,,,,VFR,,,,,,,,,,,,METAR,21.0
RPLB 210600Z 06007KT 9999 FEW020 BKN300 31/18 Q1012 NOSIG RMK A2988,RPLB,2015-02-21T06:00:00Z,14.8,120.27,31.0,18.0,60,7,,6.21,29.88189,,,,,,TRUE,,,,,FEW,2000,BKN,30000,,,,,VFR,,,,,,,,,,,,METAR,17.0
DTTR 210600Z 12006KT CAVOK 14/09 Q1012,DTTR,2015-02-21T06:00:00Z,31.7,9.27,14.0,9.0,120,6,,6.21,29.88189,,,,,,,,,,,CAVOK,,,,,,,,VFR,,,,,,,,,,,,METAR,259.0
DTTN 210600Z 01004KT 9999 SCT020 09/09 Q1011,DTTN,2015-02-21T06:00:00Z,36.47,8.8,9.0,9.0,10,4,,6.21,29.852362,,,,,,,,,,,SCT,2000,,,,,,,VFR,,,,,,,,,,,,METAR,144.0
DTTL 210600Z VRB06KT 8000 -RA SCT020 SCT030 12/10 Q1013,DTTL,2015-02-21T06:00:00Z,36.85,11.07,12.0,10.0,0,6,,4.97,29.911417,,,,,,,,,,-RA,SCT,2000,SCT,3000,,,,,MVFR,,,,,,,,,,,,METAR,30.0
DTTK 210600Z 00000KT 6000 BKN020 SCT030 11/10 Q1012,DTTK,2015-02-21T06:00:00Z,35.67,10.08,11.0,10.0,0,0,,3.73,29.88189,,,,,,,,,,,BKN,2000,SCT,3000,,,,,MVFR,,,,,,,,,,,,METAR,68.0
DTTD 210600Z 17012KT 6000 BKN030 15/02 Q1012,DTTD,2015-02-21T06:00:00Z,32.32,10.4,15.0,2.0,170,12,,3.73,29.88189,,,,,,,,,,,BKN,3000,,,,,,,MVFR,,,,,,,,,,,,METAR,301.0
DTTB 210600Z 13008KT 8000 SCT016 BKN030 11/10 Q1012,DTTB,2015-02-21T06:00:00Z,37.25,9.8,11.0,10.0,130,8,,4.97,29.88189,,,,,,,,,,,SCT,1600,BKN,3000,,,,,MVFR,,,,,,,,,,,,METAR,3.0
SBBE 210600Z 16006KT 9999 FEW007 BKN012 BKN100 23/22 Q1011,SBBE,2015-02-21T06:00:00Z,-1.37,-48.47,23.0,22.0,160,6,,6.21,29.852362,,,,,,,,,,,FEW,700,BKN,1200,BKN,10000,,,MVFR,,,,,,,,,,,,SPECI,16.0
FAWK 210600Z AUTO 03005KT //// // ////// 22/13 Q1021,FAWK,2015-02-21T06:00:00Z,-25.82,28.22,22.0,13.0,30,5,,,30.147638,,,TRUE,,,,,,,,,,,,,,,,,,,,,,,,,,,,METAR,1500.0
FAWB 210600Z 10003KT CAVOK 23/13 Q1018,FAWB,2015-02-21T06:00:00Z,-25.63,28.22,23.0,13.0,100,3,,6.21,30.059055,,,,,,,,,,,CAVOK,,,,,,,,VFR,,,,,,,,,,,,METAR,1248.0
GMMX 210600Z 00000KT 7000 FEW033 SCT080 07/07 Q1017 NOSIG,GMMX,2015-02-21T06:00:00Z,31.62,-8.02,7.0,7.0,0,0,,4.35,30.029528,,,,,,TRUE,,,,,FEW,3300,SCT,8000,,,,,MVFR,,,,,,,,,,,,METAR,466.0
FAKM 210600Z 24011KT CAVOK 21/08 Q1017,FAKM,2015-02-21T06:00:00Z,-28.8,24.77,21.0,8.0,240,11,,6.21,30.029528,,,,,,,,,,,CAVOK,,,,,,,,VFR,,,,,,,,,,,,METAR,1192.0
SULS 210600Z 12005KT 9999 SCT040 BKN070 18/13 Q1019,SULS,2015-02-21T06:00:00Z,-34.87,-55.1,18.0,13.0,120,5,,6.21,30.088583,,,,,,,,,,,SCT,4000,BKN,7000,,,,,VFR,,,,,,,,,,,,METAR,30.0
SBMA 210600Z 36001KT 9999 FEW008 SCT080 23/23 Q1012,SBMA,2015-02-21T06:00:00Z,-5.37,-49.13,23.0,23.0,360,1,,6.21,29.88189,,,,,,,,,,,FEW,800,SCT,8000,,,,,VFR,,,,,,,,,,,,METAR,102.0
LIMP 210600Z 09006KT 6000 FEW040 BKN060 04/01 Q1011,LIMP,2015-02-21T06:00:00Z,44.82,10.3,4.0,1.0,90,6,,3.73,29.852362,,,,,,,,,,,FEW,4000,BKN,6000,,,,,MVFR,,,,,,,,,,,,SPECI,50.0
FAUT 210600Z 04004KT 9999 FEW030 SCT100 21/16 Q1014,FAUT,2015-02-21T06:00:00Z,-31.52,28.67,21.0,16.0,40,4,,6.21,29.940945,,,,,,,,,,,FEW,3000,SCT,10000,,,,,VFR,,,,,,,,,,,,METAR,732.0
FVHA 210600Z 09005KT CAVOK 21/16 Q1020 NOSIG,FVHA,2015-02-21T06:00:00Z,-17.92,31.12,21.0,16.0,90,5,,6.21,30.11811,,,,,,TRUE,,,,,CAVOK,,,,,,,,VFR,,,,,,,,,,,,METAR,1503.0
TTCP 210600Z 00000KT 9999 VCSH FEW016 24/21 Q1014 NOSIG,TTCP,2015-02-21T06:00:00Z,11.15,-60.85,24.0,21.0,0,0,,6.21,29.940945,,,,,,TRUE,,,,VCSH,FEW,1600,,,,,,,VFR,,,,,,,,,,,,METAR,8.0
TTPP 210600Z 00000KT 9999 FEW016 24/22 Q1013 NOSIG,TTPP,2015-02-21T06:00:00Z,10.58,-61.35,24.0,22.0,0,0,,6.21,29.911417,,,,,,TRUE,,,,,FEW,1600,,,,,,,VFR,,,,,,,,,,,,METAR,15.0
YCCY 210600Z AUTO 33011KT //// // ////// 38/17 Q1005,YCCY,2015-02-21T06:00:00Z,-20.67,140.5,38.0,17.0,330,11,,,29.675198,,,TRUE,,,,,,,,,,,,,,,,,,,,,,,,,,,,METAR,570.0
YCBP 210600Z AUTO 06005KT 040V120 //// // NCD 37/05 Q1007,YCBP,2015-02-21T06:00:00Z,-29.03,134.72,37.0,5.0,60,5,,,29.734253,,,TRUE,,,,,,,,,,,,,,,,,,,,,,,,,,,,METAR,226.0
YCBB 210600Z AUTO 10015KT //// // ////// 27/16 Q1013,YCBB,2015-02-21T06:00:00Z,-31.33,149.27,27.0,16.0,100,15,,,29.911417,,,TRUE,,,,,,,,,,,,,,,,,,,,,,,,,,,,METAR,645.0
YCBA 210600Z AUTO 19008KT 140V220 //// // ////// 34/13 Q1009,YCBA,2015-02-21T06:00:00Z,-31.53,145.8,34.0,13.0,190,8,,,29.793306,,,TRUE,,,,,,,,,,,,,,,,,,,,,,,,,,,,METAR,221.0
YCAS 210600Z AUTO 19012KT //// // ////// 24/21 Q1008,YCAS,2015-02-21T06:00:00Z,-28.88,153.07,24.0,21.0,190,12,,,29.763779,,,TRUE,,,,,,,,,,,,,,,,,,,,,,,,,,,,METAR,26.0
YCAR 210600Z AUTO 20018KT 9999 // NCD 30/20 Q1008,YCAR,2015-02-21T06:00:00Z,-24.88,113.67,30.0,20.0,200,18,,6.21,29.763779,,,TRUE,,,,,,,,,,,,,,,,,,,,,,,,,,,,METAR,8.0
YBWX 210600Z AUTO 24016KT //// // ////// 38/22 Q1001,YBWX,2015-02-21T06:00:00Z,-20.88,115.4,38.0,22.0,240,16,,,29.557087,,,TRUE,,,,,,,,,,,,,,,,,,,,,,,,,,,,METAR,6.0
YBWP 210600Z AUTO 28010KT 9999 // NCD 32/24 Q1007,YBWP,2015-02-21T06:00:00Z,-12.68,141.92,32.0,24.0,280,10,,6.21,29.734253,,,TRUE,,,,,,,,,,,,,,,,,,,,,,,,,,,,METAR,12.0
YBUD 210600Z AUTO 29009KT 9999 // SCT039 BKN046 OVC056 30/22 Q1004,YBUD,2015-02-21T06:00:00Z,-24.9,152.32,30.0,22.0,290,9,,6.21,29.64567,,,TRUE,,,,,,,,SCT,3900,BKN,4600,OVC,5600,,,VFR,,,,,,,,,,,,METAR,82.0
YBTL 210600Z 35008KT 9999 FEW045 SCT100 34/24 Q1004 RMK DISTANT CBS AND SHRA TO SOUTH AND WEST,YBTL,2015-02-21T06:00:00Z,-19.25,146.75,34.0,24.0,350,8,,6.21,29.64567,,,,,,,,,,,FEW,4500,SCT,10000,,,,,VFR,,,,,,,,,,,,METAR,6.0
ZUUU 210600Z 01002MPS 330V060 5000 HZ SCT050 15/08 Q1014 NOSIG,ZUUU,2015-02-21T06:00:00Z,30.58,103.95,15.0,8.0,10,4,,3.11,29.940945,,,,,,TRUE,,,,HZ,SCT,5000,,,,,,,MVFR,,,,,,,,,,,,METAR,508.0
ZSQD 210600Z 30003MPS 260V330 4000 BR SCT013 OVC026 06/02 Q1015 NOSIG,ZSQD,2015-02-21T06:00:00Z,36.27,120.38,6.0,2.0,300,6,,2.49,29.970472,,,,,,TRUE,,,,BR,SCT,1300,OVC,2600,,,,,IFR,,,,,,,,,,,,METAR,77.0
ZSNB 210600Z 33004MPS 300V360 9999 SCT007 OVC016 11/09 Q1017 NOSIG,ZSNB,2015-02-21T06:00:00Z,29.83,121.47,11.0,9.0,330,8,,6.21,30.029528,,,,,,TRUE,,,,,SCT,700,OVC,1600,,,,,MVFR,,,,,,,,,,,,METAR,4.0
ZSFZ 210600Z 23002MPS 150V310 2500 SHRA BR BKN016 FEW020CB 17/14 Q1015 BECMG TL0630 -SHRA,ZSFZ,2015-02-21T06:00:00Z,25.93,119.67,17.0,14.0,230,4,,1.55,29.970472,,,,,,,,,,SHRA BR,BKN,1600,FEW,2000,,,,,IFR,,,,,,,,,,,,METAR,85.0
ZSAM 210600Z 04002MPS 3500 BR SCT013 OVC033 17/17 Q1014 NOSIG,ZSAM,2015-02-21T06:00:00Z,24.53,118.13,17.0,17.0,40,4,,2.17,29.940945,,,,,,TRUE,,,,BR,SCT,1300,OVC,3300,,,,,IFR,,,,,,,,,,,,METAR,139.0
ZPPP 210600Z 23008G13MPS 200V260 CAVOK 18/M03 Q1018 NOSIG,ZPPP,2015-02-21T06:00:00Z,25.0,102.75,18.0,-3.0,230,16,25,6.21,30.059055,,,,,,TRUE,,,,,CAVOK,,,,,,,,VFR,,,,,,,,,,,,METAR,1892.0
ZLXY 210600Z 20003MPS 160V250 2800 HZ NSC 14/01 Q1019 BECMG TL0650 3000,ZLXY,2015-02-21T06:00:00Z,34.43,108.75,14.0,1.0,200,6,,1.74,30.088583,,,,,,,,,,HZ,,,,,,,,,,,,,,,,,,,,,METAR,479.0
ZGSZ 210600Z 23003MPS 6000 SCT050 22/18 Q1014 NOSIG,ZGSZ,2015-02-21T06:00:00Z,22.63,113.8,22.0,18.0,230,6,,3.73,29.940945,,,,,,TRUE,,,,,SCT,5000,,,,,,,MVFR,,,,,,,,,,,,METAR,18.0
ZGOW 210600Z VRB02MPS 8000 FEW025 BKN060 24/19 Q1014 NOSIG,ZGOW,2015-02-21T06:00:00Z,23.55,116.5,24.0,19.0,0,4,,4.97,29.940945,,,,,,TRUE,,,,,FEW,2500,BKN,6000,,,,,MVFR,,,,,,,,,,,,METAR,3.0
ZGNN 210600Z VRB02MPS 9999 SCT026 SCT043 27/20 Q1011 NOSIG,ZGNN,2015-02-21T06:00:00Z,22.62,108.17,27.0,20.0,0,4,,6.21,29.852362,,,,,,TRUE,,,,,SCT,2600,SCT,4300,,,,,VFR,,,,,,,,,,,,METAR,73.0
ZGKL 210600Z 06002MPS 030V100 9999 BKN026 OVC050 14/11 Q1015 NOSIG,ZGKL,2015-02-21T06:00:00Z,25.22,110.03,14.0,11.0,60,4,,6.21,29.970472,,,,,,TRUE,,,,,BKN,2600,OVC,5000,,,,,MVFR,,,,,,,,,,,,METAR,166.0
ZWSH 210600Z VRB01MPS CAVOK 09/M10 Q1019 NOSIG,ZWSH,2015-02-21T06:00:00Z,39.55,76.02,9.0,-10.0,0,2,,6.21,30.088583,,,,,,TRUE,,,,,CAVOK,,,,,,,,VFR,,,,,,,,,,,,METAR,1291.0
ZBSJ 210600Z 24003MPS 200V270 1000 R15/1000N BR NSC 08/05 Q1013 BECMG TL0720 1600,ZBSJ,2015-02-21T06:00:00Z,38.28,114.7,8.0,5.0,240,6,,0.62,29.911417,,,,,,,,,,BR,,,,,,,,,,,,,,,,,,,,,METAR,71.0
LKPD 210600Z 11002KT 8000 NSC M03/M05 Q1003 NOSIG RMK BLU BLU,LKPD,2015-02-21T06:00:00Z,50.02,15.73,-3.0,-5.0,110,2,,4.97,29.616142,,,,,,TRUE,,,,,,,,,,,,,,,,,,,,,,,,,METAR,226.0
LKNA 210600Z 11009KT 7000 NSC M02/M04 Q1003 NOSIG RMK WHT WHT,LKNA,2015-02-21T06:00:00Z,49.17,16.12,-2.0,-4.0,110,9,,4.35,29.616142,,,,,,TRUE,,,,,,,,,,,,,,,,,,,,,,,,,METAR,472.0
LKKB 210600Z 16003KT 4500 BR NSC M03/M04 Q1003 NOSIG,LKKB,2015-02-21T06:00:00Z,50.12,14.53,-3.0,-4.0,160,3,,2.8,29.616142,,,,,,TRUE,,,,BR,,,,,,,,,,,,,,,,,,,,,METAR,286.0
LKCV 210600Z 13005KT 090V160 CAVOK 01/M03 Q1003 NOSIG RMK BLU BLU,LKCV,2015-02-21T06:00:00Z,49.93,15.38,1.0,-3.0,130,5,,6.21,29.616142,,,,,,TRUE,,,,,CAVOK,,,,,,,,VFR,,,,,,,,,,,,METAR,242.0
LELO 210600Z 29003KT 3000 BR DZ BKN036 OVC045 06/05 Q1007,LELO,2015-02-21T06:00:00Z,42.45,-2.32,6.0,5.0,290,3,,1.86,29.734253,,,,,,,,,,BR DZ,BKN,3600,OVC,4500,,,,,IFR,,,,,,,,,,,,METAR,363.0
LEBT 210600Z AUTO 26001KT 7000 // NSC 07/05 Q1008,LEBT,2015-02-21T06:00:00Z,39.58,-0.45,7.0,5.0,260,1,,4.35,29.763779,,,TRUE,,,,,,,,,,,,,,,,,,,,,,,,,,,,METAR,50.0
LEAO 210600Z 24005KT 200V290 8000 -RA OVC023 05/04 Q1011,LEAO,2015-02-21T06:00:00Z,38.95,-3.73,5.0,4.0,240,5,,4.97,29.852362,,,,,,,,,,-RA,OVC,2300,,,,,,,MVFR,,,,,,,,,,,,METAR,629.0
LEBA 210600Z 25001KT 9999 -DZ FEW020 BKN048 08/06 Q1013,LEBA,2015-02-21T06:00:00Z,37.85,-4.82,8.0,6.0,250,1,,6.21,29.911417,,,,,,,,,,-DZ,FEW,2000,BKN,4800,,,,,VFR,,,,,,,,,,,,METAR,92.0
LEBG 210600Z 00000KT 9999 FEW008 SCT033 03/03 Q1008,LEBG,2015-02-21T06:00:00Z,42.37,-3.62,3.0,3.0,0,0,,6.21,29.763779,,,,,,,,,,,FEW,800,SCT,3300,,,,,VFR,,,,,,,,,,,,METAR,891.0
FBSK 210600Z 04011KT CAVOK 25/12 Q1017 NOSIG,FBSK,2015-02-21T06:00:00Z,-24.55,25.92,25.0,12.0,40,11,,6.21,30.029528,,,,,,TRUE,,,,,CAVOK,,,,,,,,VFR,,,,,,,,,,,,METAR,1005.0
FBMN 210600Z 08007KT CAVOK 22/11 Q1015,FBMN,2015-02-21T06:00:00Z,-19.97,23.42,22.0,11.0,80,7,,6.21,29.970472,,,,,,,,,,,CAVOK,,,,,,,,VFR,,,,,,,,,,,,METAR,900.0
FBKE 210600Z 12007KT CAVOK 24/16 Q1016,FBKE,2015-02-21T06:00:00Z,-17.82,25.17,24.0,16.0,120,7,,6.21,30.0,,,,,,,,,,,CAVOK,,,,,,,,VFR,,,,,,,,,,,,METAR,1000.0
FBFT 210600Z 09010KT CAVOK 24/15 Q1017,FBFT,2015-02-21T06:00:00Z,-21.17,27.48,24.0,15.0,90,10,,6.21,30.029528,,,,,,,,,,,CAVOK,,,,,,,,VFR,,,,,,,,,,,,METAR,1000.0
RJFG 210600Z 16013KT 120V190 9999 FEW030 SCT036 BKN130 16/07 Q1021,RJFG,2015-02-21T06:00:00Z,30.62,130.98,16.0,7.0,160,13,,6.21,30.147638,,,,,,,,,,,FEW,3000,SCT,3600,BKN,13000,,,VFR,,,,,,,,,,,,METAR,95.0
RJFS 210600Z 03005KT 9999 -RA FEW040 SCT050 BKN070 11/04 Q1019,RJFS,2015-02-21T06:00:00Z,33.15,130.3,11.0,4.0,30,5,,6.21,30.088583,,,,,,,,,,-RA,FEW,4000,SCT,5000,BKN,7000,,,VFR,,,,,,,,,,,,METAR,5.0
RJEC 210600Z 33004KT CAVOK M01/M07 Q1025,RJEC,2015-02-21T06:00:00Z,43.67,142.43,-1.0,-7.0,330,4,,6.21,30.265747,,,,,,,,,,,CAVOK,,,,,,,,VFR,,,,,,,,,,,,METAR,211.0
RJEB 210600Z 11004KT CAVOK M02/M08 Q1027,RJEB,2015-02-21T06:00:00Z,44.3,143.4,-2.0,-8.0,110,4,,6.21,30.324802,,,,,,,,,,,CAVOK,,,,,,,,VFR,,,,,,,,,,,,METAR,25.0
RJDC 210600Z 09013KT 9999 -RA FEW025 SCT050 BKN070 09/05 Q1021,RJDC,2015-02-21T06:00:00Z,33.92,131.27,9.0,5.0,90,13,,6.21,30.147638,,,,,,,,,,-RA,FEW,2500,SCT,5000,BKN,7000,,,VFR,,,,,,,,,,,,METAR,8.0
RJCW 210600Z 19008KT 9999 FEW030 BKN040 02/M04 Q1025,RJCW,2015-02-21T06:00:00Z,45.38,141.8,2.0,-4.0,190,8,,6.21,30.265747,,,,,,,,,,,FEW,3000,BKN,4000,,,,,VFR,,,,,,,,,,,,METAR,11.0
RJCN 210600Z VRB01KT CAVOK M02/M09 Q1027,RJCN,2015-02-21T06:00:00Z,43.57,144.97,-2.0,-9.0,0,1,,6.21,30.324802,,,,,,,,,,,CAVOK,,,,,,,,VFR,,,,,,,,,,,,METAR,70.0
RJCM 210600Z 01005KT 9999 FEW030 M02/M09 Q1027,RJCM,2015-02-21T06:00:00Z,43.88,144.17,-2.0,-9.0,10,5,,6.21,30.324802,,,,,,,,,,,FEW,3000,,,,,,,VFR,,,,,,,,,,,,METAR,36.0
RJCK 210600Z 16008KT 9999 FEW030 M02/M08 Q1027,RJCK,2015-02-21T06:00:00Z,43.02,144.18,-2.0,-8.0,160,8,,6.21,30.324802,,,,,,,,,,,FEW,3000,,,,,,,VFR,,,,,,,,,,,,METAR,98.0
RJCH 210600Z 13009KT 9999 FEW030 03/M03 Q1026,RJCH,2015-02-21T06:00:00Z,41.77,140.82,3.0,-3.0,130,9,,6.21,30.295275,,,,,,,,,,,FEW,3000,,,,,,,VFR,,,,,,,,,,,,METAR,36.0
RJCB 210600Z 18004KT 140V220 9999 FEW040 M01/M07 Q1026,RJCB,2015-02-21T06:00:00Z,42.72,143.22,-1.0,-7.0,180,4,,6.21,30.295275,,,,,,,,,,,FEW,4000,,,,,,,VFR,,,,,,,,,,,,METAR,152.0
RJBT 210600Z 19013KT 150V220 9999 FEW030 SCT130 BKN/// 12/M00 Q1021,RJBT,2015-02-21T06:00:00Z,35.5,134.8,12.0,0.0,190,13,,6.21,30.147638,,,,,,,,,,,FEW,3000,SCT,13000,,,,,VFR,,,,,,,,,,,,METAR,210.0
RJBE 210600Z VRB02KT 9999 FEW035 BKN/// 10/00 Q1024,RJBE,2015-02-21T06:00:00Z,34.63,135.23,10.0,0.0,0,2,,6.21,30.236221,,,,,,,,,,,FEW,3500,,,,,,,VFR,,,,,,,,,,,,METAR,5.0
RJBD 210600Z 15013KT 9999 FEW030 SCT045 BKN/// 14/04 Q1023,RJBD,2015-02-21T06:00:00Z,33.67,135.37,14.0,4.0,150,13,,6.21,30.206694,,,,,,,,,,,FEW,3000,SCT,4500,,,,,VFR,,,,,,,,,,,,METAR,108.0
RJAF 210600Z 16016KT CAVOK 11/M05 Q1021,RJAF,2015-02-21T06:00:00Z,36.17,137.92,11.0,-5.0,160,16,,6.21,30.147638,,,,,,,,,,,CAVOK,,,,,,,,VFR,,,,,,,,,,,,METAR,660.0
RJAH 210600Z 11008KT 070V150 9999 FEW030 BKN045 07/M03 Q1026,RJAH,2015-02-21T06:00:00Z,36.17,140.42,7.0,-3.0,110,8,,6.21,30.295275,,,,,,,,,,,FEW,3000,BKN,4500,,,,,VFR,,,,,,,,,,,,METAR,35.0
RORS 210600Z 17021KT 9999 FEW033 22/13 Q1016,RORS,2015-02-21T06:00:00Z,24.82,125.15,22.0,13.0,170,21,,6.21,30.0,,,,,,,,,,,FEW,3300,,,,,,,VFR,,,,,,,,,,,,METAR,16.0
ROMY 210600Z 18017KT 9999 FEW030 22/13 Q1016,ROMY,2015-02-21T06:00:00Z,24.77,125.27,22.0,13.0,180,17,,6.21,30.0,,,,,,,,,,,FEW,3000,,,,,,,VFR,,,,,,,,,,,,METAR,41.0
ROIG 210600Z 19016KT 9999 FEW030 23/14 Q1016,ROIG,2015-02-21T06:00:00Z,24.32,124.17,23.0,14.0,190,16,,6.21,30.0,,,,,,,,,,,FEW,3000,,,,,,,VFR,,,,,,,,,,,,METAR,7.0
RJTO 210600Z 10010KT 9999 FEW030 SCT040 BKN050 09/00 Q1026,RJTO,2015-02-21T06:00:00Z,34.77,139.37,9.0,0.0,100,10,,6.21,30.295275,,,,,,,,,,,FEW,3000,SCT,4000,BKN,5000,,,VFR,,,,,,,,,,,,METAR,41.0
RJTI 210600Z 14005KT 9999 FEW030 BKN/// 09/M03 Q1027,RJTI,2015-02-21T06:00:00Z,35.63,139.83,9.0,-3.0,140,5,,6.21,30.324802,,,,,,,,,,,FEW,3000,,,,,,,VFR,,,,,,,,,,,,METAR,8.0
RJTF 210600Z 17006KT 110V200 9999 FEW030 SCT/// 10/M05 Q1026,RJTF,2015-02-21T06:00:00Z,35.67,139.52,10.0,-5.0,170,6,,6.21,30.295275,,,,,,,,,,,FEW,3000,,,,,,,VFR,,,,,,,,,,,,METAR,44.0
RJSY 210600Z 34006KT 290V020 9999 FEW040 07/M03 Q1025,RJSY,2015-02-21T06:00:00Z,38.82,139.77,7.0,-3.0,340,6,,6.21,30.265747,,,,,,,,,,,FEW,4000,,,,,,,VFR,,,,,,,,,,,,METAR,22.0
RJSS 210600Z 14010KT 9999 FEW020 06/M04 Q1027,RJSS,2015-02-21T06:00:00Z,38.12,140.92,6.0,-4.0,140,10,,6.21,30.324802,,,,,,,,,,,FEW,2000,,,,,,,VFR,,,,,,,,,,,,METAR,5.0
RJSR 210600Z 35004KT 9999 FEW050 05/M06 Q1025,RJSR,2015-02-21T06:00:00Z,40.18,140.37,5.0,-6.0,350,4,,6.21,30.265747,,,,,,,,,,,FEW,5000,,,,,,,VFR,,,,,,,,,,,,METAR,87.0
RJSK 210600Z 22004KT 160V280 9999 FEW030 SCT/// 07/M05 Q1025,RJSK,2015-02-21T06:00:00Z,39.62,140.22,7.0,-5.0,220,4,,6.21,30.265747,,,,,,,,,,,FEW,3000,,,,,,,VFR,,,,,,,,,,,,METAR,96.0
RJSI 210600Z VRB02KT CAVOK 06/M07 Q1025,RJSI,2015-02-21T06:00:00Z,39.42,141.12,6.0,-7.0,0,2,,6.21,30.265747,,,,,,,,,,,CAVOK,,,,,,,,VFR,,,,,,,,,,,,METAR,93.0
RJSF 210600Z 19006KT 140V230 9999 FEW030 07/M03 Q1024,RJSF,2015-02-21T06:00:00Z,37.22,140.42,7.0,-3.0,190,6,,6.21,30.236221,,,,,,,,,,,FEW,3000,,,,,,,VFR,,,,,,,,,,,,METAR,375.0
RJSC 210600Z 04003KT 9999 FEW040 06/M06 Q1025,RJSC,2015-02-21T06:00:00Z,38.42,140.37,6.0,-6.0,40,3,,6.21,30.265747,,,,,,,,,,,FEW,4000,,,,,,,VFR,,,,,,,,,,,,METAR,108.0
RJSA 210600Z 32004KT 280V360 9999 FEW030 05/M07 Q1025,RJSA,2015-02-21T06:00:00Z,40.72,140.68,5.0,-7.0,320,4,,6.21,30.265747,,,,,,,,,,,FEW,3000,,,,,,,VFR,,,,,,,,,,,,METAR,201.0
RJOY 210600Z 28006KT 230V330 9999 FEW040 BKN/// 14/M03 Q1023,RJOY,2015-02-21T06:00:00Z,34.6,135.58,14.0,-3.0,280,6,,6.21,30.206694,,,,,,,,,,,FEW,4000,,,,,,,VFR,,,,,,,,,,,,METAR,13.0
RJOW 210600Z 16012KT 9999 FEW030 SCT080 BKN120 12/03 Q1020,RJOW,2015-02-21T06:00:00Z,34.67,131.8,12.0,3.0,160,12,,6.21,30.11811,,,,,,,,,,,FEW,3000,SCT,8000,BKN,12000,,,VFR,,,,,,,,,,,,METAR,54.0
RJOT 210600Z 01005KT 300V060 9999 FEW035 SCT120 BKN150 10/01 Q1023,RJOT,2015-02-21T06:00:00Z,34.22,134.02,10.0,1.0,10,5,,6.21,30.206694,,,,,,,,,,,FEW,3500,SCT,12000,BKN,15000,,,VFR,,,,,,,,,,,,METAR,188.0
RJOR 210600Z 17011KT 9999 FEW040 SCT150 BKN/// 12/M05 Q1022,RJOR,2015-02-21T06:00:00Z,35.52,134.17,12.0,-5.0,170,11,,6.21,30.177166,,,,,,,,,,,FEW,4000,SCT,15000,,,,,VFR,,,,,,,,,,,,METAR,18.0
RJOO 210600Z 24006KT 9999 FEW035 BKN/// 13/01 Q1024 RMK 1CU035 A3024,RJOO,2015-02-21T06:00:00Z,34.77,135.43,13.0,1.0,240,6,,6.21,30.236221,,,,,,,,,,,FEW,3500,,,,,,,VFR,,,,,,,,,,,,METAR,15.0
RJOM 210600Z 36010KT 9999 FEW030 BKN050 BKN120 10/01 Q1023,RJOM,2015-02-21T06:00:00Z,33.82,132.68,10.0,1.0,360,10,,6.21,30.206694,,,,,,,,,,,FEW,3000,BKN,5000,BKN,12000,,,VFR,,,,,,,,,,,,METAR,7.0
RJOK 210600Z VRB01KT 9999 FEW030 SCT035 BKN050 12/03 Q1024,RJOK,2015-02-21T06:00:00Z,33.52,133.67,12.0,3.0,0,1,,6.21,30.236221,,,,,,,,,,,FEW,3000,SCT,3500,BKN,5000,,,VFR,,,,,,,,,,,,METAR,10.0
RJOH 210600Z 19003KT 150V240 9999 FEW030 SCT100 OVC120 13/M02 Q1022,RJOH,2015-02-21T06:00:00Z,35.47,133.25,13.0,-2.0,190,3,,6.21,30.177166,,,,,,,,,,,FEW,3000,SCT,10000,OVC,12000,,,VFR,,,,,,,,,,,,METAR,9.0
RJOC 210600Z 21009KT 9999 FEW035 SCT120 BKN140 13/04 Q1021,RJOC,2015-02-21T06:00:00Z,35.42,132.87,13.0,4.0,210,9,,6.21,30.147638,,,,,,,,,,,FEW,3500,SCT,12000,BKN,14000,,,VFR,,,,,,,,,,,,METAR,5.0
RJOB 210600Z 16005KT 100V200 9999 FEW040 SCT100 BKN140 10/M03 Q1023,RJOB,2015-02-21T06:00:00Z,34.75,133.83,10.0,-3.0,160,5,,6.21,30.206694,,,,,,,,,,,FEW,4000,SCT,10000,BKN,14000,,,VFR,,,,,,,,,,,,METAR,242.0
RJOA 210600Z 11005KT 9999 FEW030 SCT050 BKN100 07/M02 Q1023,RJOA,2015-02-21T06:00:00Z,34.42,132.92,7.0,-2.0,110,5,,6.21,30.206694,,,,,,,,,,,FEW,3000,SCT,5000,BKN,10000,,,VFR,,,,,,,,,,,,METAR,6.0
RJNS 210600Z 19007KT 9999 FEW025 BKN035 BKN060 10/03 Q1025,RJNS,2015-02-21T06:00:00Z,34.8,138.18,10.0,3.0,190,7,,6.21,30.265747,,,,,,,,,,,FEW,2500,BKN,3500,BKN,6000,,,VFR,,,,,,,,,,,,METAR,135.0
RJNW 210600Z 12008KT CAVOK 07/01 Q1023,RJNW,2015-02-21T06:00:00Z,37.3,136.97,7.0,1.0,120,8,,6.21,30.206694,,,,,,,,,,,CAVOK,,,,,,,,VFR,,,,,,,,,,,,METAR,219.0
RJNT 210600Z 34006KT 310V020 CAVOK 08/00 Q1023,RJNT,2015-02-21T06:00:00Z,36.63,137.17,8.0,0.0,340,6,,6.21,30.206694,,,,,,,,,,,CAVOK,,,,,,,,VFR,,,,,,,,,,,,METAR,27.0
RJKA 210600Z 17019KT 9999 FEW030 SCT170 20/10 Q1019,RJKA,2015-02-21T06:00:00Z,28.42,129.72,20.0,10.0,170,19,,6.21,30.088583,,,,,,,,,,,FEW,3000,SCT,17000,,,,,VFR,,,,,,,,,,,,METAR,7.0
RJFU 210600Z 13017KT 9999 -RA FEW030 SCT050 BKN070 12/07 Q1018,RJFU,2015-02-21T06:00:00Z,32.92,129.92,12.0,7.0,130,17,,6.21,30.059055,,,,,,,,,,-RA,FEW,3000,SCT,5000,BKN,7000,,,VFR,,,,,,,,,,,,METAR,5.0
RJFT 210600Z VRB02KT 9999 FEW040 BKN070 14/02 Q1019,RJFT,2015-02-21T06:00:00Z,32.82,130.83,14.0,2.0,0,2,,6.21,30.088583,,,,,,,,,,,FEW,4000,BKN,7000,,,,,VFR,,,,,,,,,,,,METAR,196.0
RJFR 210600Z VRB05KT 9999 -RA FEW008 SCT040 BKN050 09/07 Q1021,RJFR,2015-02-21T06:00:00Z,33.82,131.03,9.0,7.0,0,5,,6.21,30.147638,,,,,,,,,,-RA,FEW,800,SCT,4000,BKN,5000,,,VFR,,,,,,,,,,,,METAR,6.0
RJFO 210600Z VRB02KT 9999 FEW030 BKN070 BKN090 11/07 Q1022,RJFO,2015-02-21T06:00:00Z,33.47,131.72,11.0,7.0,0,2,,6.21,30.177166,,,,,,,,,,,FEW,3000,BKN,7000,BKN,9000,,,VFR,,,,,,,,,,,,METAR,8.0
RJFM 210600Z 03006KT 360V080 9999 -RA FEW030 SCT040 BKN050 13/07 Q1022,RJFM,2015-02-21T06:00:00Z,31.87,131.43,13.0,7.0,30,6,,6.21,30.177166,,,,,,,,,,-RA,FEW,3000,SCT,4000,BKN,5000,,,VFR,,,,,,,,,,,,METAR,9.0
SAZS 210600Z 00000KT 9000 SCT040 06/02 Q1015,SAZS,2015-02-21T06:00:00Z,-41.13,-71.17,6.0,2.0,0,0,,5.59,29.970472,,,,,,,,,,,SCT,4000,,,,,,,VFR,,,,,,,,,,,,METAR,840.0
SAWG 210600Z 00000KT CAVOK 02/M01 Q1015,SAWG,2015-02-21T06:00:00Z,-51.62,-69.32,2.0,-1.0,0,0,,6.21,29.970472,,,,,,,,,,,CAVOK,,,,,,,,VFR,,,,,,,,,,,,METAR,19.0
SASA 210600Z 21064 00000KT 9999 -RA SCT007 OVC030 15/14 Q 1021//,SASA,2015-02-21T06:00:00Z,-24.85,-65.47,15.0,14.0,210,64,,6.21,,,,,,,,,,,-RA,SCT,700,OVC,3000,,,,,MVFR,,,,,,,,,,,,METAR,1216.0
SARP 210600Z 14004KT CAVOK 21/19 Q1015,SARP,2015-02-21T06:00:00Z,-27.38,-55.97,21.0,19.0,140,4,,6.21,29.970472,,,,,,,,,,,CAVOK,,,,,,,,VFR,,,,,,,,,,,,METAR,125.0
SARI 210600Z 18003KT CAVOK 21/20 Q1014,SARI,2015-02-21T06:00:00Z,-25.72,-54.47,21.0,20.0,180,3,,6.21,29.940945,,,,,,,,,,,CAVOK,,,,,,,,VFR,,,,,,,,,,,,METAR,270.0
SARF 210600Z 20004KT CAVOK 21/20 Q1014,SARF,2015-02-21T06:00:00Z,-26.22,-58.22,21.0,20.0,200,4,,6.21,29.940945,,,,,,,,,,,CAVOK,,,,,,,,VFR,,,,,,,,,,,,METAR,60.0
SARE 210600Z 18002KT CAVOK 18/17 Q1015,SARE,2015-02-21T06:00:00Z,-27.43,-59.03,18.0,17.0,180,2,,6.21,29.970472,,,,,,,,,,,CAVOK,,,,,,,,VFR,,,,,,,,,,,,METAR,52.0
SARC 210600Z 16005KT CAVOK 19/17 Q1015,SARC,2015-02-21T06:00:00Z,-27.43,-58.77,19.0,17.0,160,5,,6.21,29.970472,,,,,,,,,,,CAVOK,,,,,,,,VFR,,,,,,,,,,,,METAR,62.0
SAOC 210600Z 32006KT 9999 SCT020 BKN050 15/13 Q1019,SAOC,2015-02-21T06:00:00Z,-33.12,-64.27,15.0,13.0,320,6,,6.21,30.088583,,,,,,,,,,,SCT,2000,BKN,5000,,,,,VFR,,,,,,,,,,,,METAR,421.0
SANT 210600Z 27004KT 9999 SCT020 OVC100 17/15 Q1019,SANT,2015-02-21T06:00:00Z,-26.85,-65.08,17.0,15.0,270,4,,6.21,30.088583,,,,,,,,,,,SCT,2000,OVC,10000,,,,,VFR,,,,,,,,,,,,METAR,450.0
SAME 210600Z 00000KT 4000 BR SCT010 SCT020 13/12 Q1018,SAME,2015-02-21T06:00:00Z,-32.82,-68.77,13.0,12.0,0,0,,2.49,30.059055,,,,,,,,,,BR,SCT,1000,SCT,2000,,,,,IFR,,,,,,,,,,,,METAR,704.0
SAEZ 210600Z 16002KT CAVOK 15/14 Q1020,SAEZ,2015-02-21T06:00:00Z,-34.82,-58.52,15.0,14.0,160,2,,6.21,30.11811,,,,,,,,,,,CAVOK,,,,,,,,VFR,,,,,,,,,,,,METAR,20.0
SACO 210600Z 29003KT 9999 SCT025 BKN100 15/13 Q1022,SACO,2015-02-21T06:00:00Z,-31.32,-64.22,15.0,13.0,290,3,,6.21,30.177166,,,,,,,,,,,SCT,2500,BKN,10000,,,,,VFR,,,,,,,,,,,,METAR,474.0
SAAR 210600Z 18004KT 9999 FEW025 BKN100 16/10 Q1019,SAAR,2015-02-21T06:00:00Z,-32.92,-60.77,16.0,10.0,180,4,,6.21,30.088583,,,,,,,,,,,FEW,2500,BKN,10000,,,,,VFR,,,,,,,,,,,,METAR,25.0
FAUP 210600Z 19007KT CAVOK 22/02 Q1014 NOSIG,FAUP,2015-02-21T06:00:00Z,-28.38,21.27,22.0,2.0,190,7,,6.21,29.940945,,,,,,TRUE,,,,,CAVOK,,,,,,,,VFR,,,,,,,,,,,,METAR,836.0
FAPP 210600Z 04005KT 9999 FEW015 17/13 Q1019 NOSIG,FAPP,2015-02-21T06:00:00Z,-23.83,29.45,17.0,13.0,40,5,,6.21,30.088583,,,,,,TRUE,,,,,FEW,1500,,,,,,,VFR,,,,,,,,,,,,METAR,1242.0
FAPN 210600Z AUTO 18002KT //// // ////// 22/13 Q1017,FAPN,2015-02-21T06:00:00Z,-25.33,27.17,22.0,13.0,180,2,,,30.029528,,,TRUE,,,,,,,,,,,,,,,,,,,,,,,,,,,,METAR,1039.0
FAOR 210600Z 35011KT CAVOK 20/12 Q1022 NOSIG,FAOR,2015-02-21T06:00:00Z,-26.12,28.22,20.0,12.0,350,11,,6.21,30.177166,,,,,,TRUE,,,,,CAVOK,,,,,,,,VFR,,,,,,,,,,,,METAR,1700.0
FAOB 210600Z AUTO 29007KT //// // ////// 15/10 Q1017,FAOB,2015-02-21T06:00:00Z,-34.6,20.27,15.0,10.0,290,7,,,30.029528,,,TRUE,,,,,,,,,,,,,,,,,,,,,,,,,,,,METAR,75.0
FAMM 210600Z 34001KT 9999 FEW020 BKN080 21/16 Q1019 NOSIG,FAMM,2015-02-21T06:00:00Z,-25.8,25.52,21.0,16.0,340,1,,6.21,30.088583,,,,,,TRUE,,,,,FEW,2000,BKN,8000,,,,,VFR,,,,,,,,,,,,METAR,1277.0
FALW 210600Z AUTO 20012KT //// // ////// 16/09 Q1018,FALW,2015-02-21T06:00:00Z,-32.97,18.17,16.0,9.0,200,12,,,30.059055,,,TRUE,,,,,,,,,,,,,,,,,,,,,,,,,,,,METAR,0.0
FALE 210600Z 21010KT CAVOK 25/21 Q1007 NOSIG,FALE,2015-02-21T06:00:00Z,-29.62,31.12,25.0,21.0,210,10,,6.21,29.734253,,,,,,TRUE,,,,,CAVOK,,,,,,,,VFR,,,,,,,,,,,,METAR,109.0
FALA 210600Z 00000KT CAVOK 20/14 Q1020 NOSIG,FALA,2015-02-21T06:00:00Z,-25.92,27.92,20.0,14.0,0,0,,6.21,30.11811,,,,,,TRUE,,,,,CAVOK,,,,,,,,VFR,,,,,,,,,,,,METAR,1377.0
FAKN 210600Z 24003KT 9999 OVC015 18/15 Q1017 NOSIG,FAKN,2015-02-21T06:00:00Z,-25.38,31.1,18.0,15.0,240,3,,6.21,30.029528,,,,,,TRUE,,,,,OVC,1500,,,,,,,MVFR,,,,,,,,,,,,METAR,862.0
FAGG 210600Z 27010KT 9999 SCT015 SCT030 BKN045 17/11 Q1016,FAGG,2015-02-21T06:00:00Z,-34.0,22.37,17.0,11.0,270,10,,6.21,30.0,,,,,,,,,,,SCT,1500,SCT,3000,BKN,4500,,,VFR,,,,,,,,,,,,METAR,193.0
FAEL 210600Z 24015KT 9999 OVC029 18/16 Q1012,FAEL,2015-02-21T06:00:00Z,-33.02,27.82,18.0,16.0,240,15,,6.21,29.88189,,,,,,,,,,,OVC,2900,,,,,,,MVFR,,,,,,,,,,,,METAR,125.0
FACT 210600Z 18015KT 9999 BKN040 18/08 Q1018 NOSIG,FACT,2015-02-21T06:00:00Z,-33.97,18.6,18.0,8.0,180,15,,6.21,30.059055,,,,,,TRUE,,,,,BKN,4000,,,,,,,VFR,,,,,,,,,,,,METAR,42.0
FABL 210600Z 19006KT CAVOK 24/M01 Q1019 NOSIG,FABL,2015-02-21T06:00:00Z,-29.1,26.3,24.0,-1.0,190,6,,6.21,30.088583,,,,,,TRUE,,,,,CAVOK,,,,,,,,VFR,,,,,,,,,,,,METAR,1348.0
RKNY 210600Z 35005KT 4000 -RA BR SCT008 BKN025 OVC080 04/03 Q1018 NOSIG,RKNY,2015-02-21T06:00:00Z,38.07,128.67,4.0,3.0,350,5,,2.49,30.059055,,,,,,TRUE,,,,-RA BR,SCT,800,BKN,2500,OVC,8000,,,IFR,,,,,,,,,,,,METAR,74.0
RKJB 210600Z 12007KT 9999 -RA FEW010 BKN030 OVC080 11/10 Q1014 NOSIG,RKJB,2015-02-21T06:00:00Z,34.98,126.38,11.0,10.0,120,7,,6.21,29.940945,,,,,,TRUE,,,,-RA,FEW,1000,BKN,3000,OVC,8000,,,MVFR,,,,,,,,,,,,METAR,2.0
RKTN 210600Z 13006KT 8000 -RA BKN030 OVC040 07/05 Q1017 NOSIG,RKTN,2015-02-21T06:00:00Z,35.88,128.65,7.0,5.0,130,6,,4.97,30.029528,,,,,,TRUE,,,,-RA,BKN,3000,OVC,4000,,,,,MVFR,,,,,,,,,,,,METAR,35.0
RKTU 210600Z 04005KT 8000 -RA FEW020 OVC030 06/04 Q1016 NOSIG,RKTU,2015-02-21T06:00:00Z,36.7,127.5,6.0,4.0,40,5,,4.97,30.0,,,,,,TRUE,,,,-RA,FEW,2000,OVC,3000,,,,,MVFR,,,,,,,,,,,,METAR,66.0
RKPK 210600Z 16008KT 4800 -RA BR BKN015 OVC025 11/09 Q1019 NOSIG,RKPK,2015-02-21T06:00:00Z,35.17,128.92,11.0,9.0,160,8,,2.98,30.088583,,,,,,TRUE,,,,-RA BR,BKN,1500,OVC,2500,,,,,IFR,,,,,,,,,,,,METAR,15.0
RKPC 210600Z 02008KT 6000 -RA FEW015 BKN030 OVC080 15/10 Q1012 WS ALL RWY NOSIG,RKPC,2015-02-21T06:00:00Z,33.5,126.48,15.0,10.0,20,8,,3.73,29.88189,,,,,,TRUE,,,,-RA,FEW,1500,BKN,3000,OVC,8000,,,MVFR,,,,,,,,,,,,METAR,27.0
RKSS 210600Z 12009KT 3800 -RA BR FEW015 BKN030 OVC080 06/02 Q1016 NOSIG,RKSS,2015-02-21T06:00:00Z,37.53,126.78,6.0,2.0,120,9,,2.36,30.0,,,,,,TRUE,,,,-RA BR,FEW,1500,BKN,3000,OVC,8000,,,IFR,,,,,,,,,,,,METAR,19.0
FNBG 210600Z 20004KT 9999 FEW020 26/23 Q1010,FNBG,2015-02-21T06:00:00Z,-12.62,13.4,26.0,23.0,200,4,,6.21,29.822834,,,,,,,,,,,FEW,2000,,,,,,,VFR,,,,,,,,,,,,METAR,36.0
LETO 210600Z 20006KT 9000 SCT006 BKN009 06/05 Q1009 NOSIG,LETO,2015-02-21T06:00:00Z,40.47,-3.47,6.0,5.0,200,6,,5.59,29.793306,,,,,,TRUE,,,,,SCT,600,BKN,900,,,,,IFR,,,,,,,,,,,,METAR,608.0
LELN 210600Z 29010KT 260V320 9999 FEW028 03/00 Q1009,LELN,2015-02-21T06:00:00Z,42.57,-5.65,3.0,0.0,290,10,,6.21,29.793306,,,,,,,,,,,FEW,2800,,,,,,,VFR,,,,,,,,,,,,METAR,914.0
LELC 210600Z 25004KT CAVOK 06/04 Q1010 NOSIG,LELC,2015-02-21T06:00:00Z,37.77,-0.8,6.0,4.0,250,4,,6.21,29.822834,,,,,,TRUE,,,,,CAVOK,,,,,,,,VFR,,,,,,,,,,,,METAR,3.0
LEBZ 210600Z 26010KT 9999 BKN008 10/10 Q1012,LEBZ,2015-02-21T06:00:00Z,38.87,-6.82,10.0,10.0,260,10,,6.21,29.88189,,,,,,,,,,,BKN,800,,,,,,,IFR,,,,,,,,,,,,METAR,192.0
LEAB 210600Z 27006KT 9999 BKN027 04/02 Q1010 RERA,LEAB,2015-02-21T06:00:00Z,38.95,-1.85,4.0,2.0,270,6,,6.21,29.822834,,,,,,,,,,,BKN,2700,,,,,,,MVFR,,,,,,,,,,,,METAR,704.0
SADF 210600Z 14003KT 9999 FEW025 19/18 Q1019,SADF,2015-02-21T06:00:00Z,-34.45,-58.58,19.0,18.0,140,3,,6.21,30.088583,,,,,,,,,,,FEW,2500,,,,,,,VFR,,,,,,,,,,,,METAR,4.0
LEMO 210600Z 20004KT 9999 SCT040 09/07 Q1014 NOSIG,LEMO,2015-02-21T06:00:00Z,37.17,-5.62,9.0,7.0,200,4,,6.21,29.940945,,,,,,TRUE,,,,,SCT,4000,,,,,,,VFR,,,,,,,,,,,,METAR,88.0
FKKD 210600Z 00000KT 7000 BKN013 FEW016CB 25/25 Q1009 NOSIG,FKKD,2015-02-21T06:00:00Z,4.0,9.72,25.0,25.0,0,0,,4.35,29.793306,,,,,,TRUE,,,,,BKN,1300,FEW,1600,,,,,MVFR,,,,,,,,,,,,METAR,9.0
LFBY 210600Z AUTO 31004KT 270V340 9999 // FEW024/// BKN036/// BKN045/// 08/07 Q1007,LFBY,2015-02-21T06:00:00Z,43.67,-1.07,8.0,7.0,310,4,,6.21,29.734253,,,TRUE,,,,,,,,,,,,,,,,,,,,,,,,,,,,METAR,32.0
LFRS 210600Z 26005KT CAVOK 02/02 Q1004 NOSIG,LFRS,2015-02-21T06:00:00Z,47.17,-1.6,2.0,2.0,260,5,,6.21,29.64567,,,,,,TRUE,,,,,CAVOK,,,,,,,,VFR,,,,,,,,,,,,METAR,27.0
WADL 210600Z 19022G26KT 150V240 1000 RA FEW015CB BKN016 28/23 Q1011TEMPO FM0600 TL0800 3000 TSRA FEW015CB BKN016,WADL,2015-02-21T06:00:00Z,-8.75,116.28,28.0,23.0,190,22,26,0.62,,,,,,,,,,,RA,FEW,1500,BKN,1600,,,,,LIFR,,,,,,,,,,,,METAR,97.0
SCAR 210600Z 00000KT CAVOK 23/16 Q1013,SCAR,2015-02-21T06:00:00Z,-18.35,-70.32,23.0,16.0,0,0,,6.21,29.911417,,,,,,,,,,,CAVOK,,,,,,,,VFR,,,,,,,,,,,,METAR,59.0
SAWH 210600Z 27007KT CAVOK 04/02 Q1010,SAWH,2015-02-21T06:00:00Z,-54.85,-68.3,4.0,2.0,270,7,,6.21,29.822834,,,,,,,,,,,CAVOK,,,,,,,,VFR,,,,,,,,,,,,METAR,14.0
MHCH 210600Z 03020KT 9999 FEW030 SCT070 26/20 HZ,MHCH,2015-02-21T06:00:00Z,13.32,-87.15,26.0,20.0,30,20,,6.21,,,,,,,,,,,HZ,FEW,3000,SCT,7000,,,,,VFR,,,,,,,,,,,,METAR,48.0
MHSR 210600Z 00000KT 3000 BR SCT006 OVC020 15/15 3KM ALL CL BR HZ,MHSR,2015-02-21T06:00:00Z,14.78,-88.78,15.0,15.0,0,0,,1.86,,,,,,,,,,,HZ BR BR,SCT,600,OVC,2000,,,,,IFR,,,,,,,,,,,,METAR,1079.0
MHAM 210600Z 04004KT CAVOK 28/23,MHAM,2015-02-21T06:00:00Z,13.27,-87.65,28.0,23.0,40,4,,6.21,,,,,,,,,,,,CAVOK,,,,,,,,VFR,,,,,,,,,,,,METAR,5.0
HSSS 210600Z 01016KT 6000 17/M02 Q1015 NOSIG,HSSS,2015-02-21T06:00:00Z,15.58,32.53,17.0,-2.0,10,16,,3.73,29.970472,,,,,,TRUE,,,,,,,,,,,,,,,,,,,,,,,,,METAR,380.0
FSIA 210600Z 03006KT 9999 SCT020 30/23 Q1011 NOSIG,FSIA,2015-02-21T06:00:00Z,-4.67,55.52,30.0,23.0,30,6,,6.21,29.852362,,,,,,TRUE,,,,,SCT,2000,,,,,,,VFR,,,,,,,,,,,,METAR,3.0
FMSD 210600Z 06006KT 9999 FEW020 SCT100 27/20 Q1012,FMSD,2015-02-21T06:00:00Z,-25.02,46.95,27.0,20.0,60,6,,6.21,29.88189,,,,,,,,,,,FEW,2000,SCT,10000,,,,,VFR,,,,,,,,,,,,METAR,9.0
FMNM 210600Z 22002KT 9999 -RA FEW007 SCT016CB BKN100 27/24 Q1011 RETS NOSIG,FMNM,2015-02-21T06:00:00Z,-15.67,46.35,27.0,24.0,220,2,,6.21,29.852362,,,,,,TRUE,,,,-RA,FEW,700,SCT,1600,BKN,10000,,,VFR,,,,,,,,,,,,METAR,18.0
FMMT 210600Z 22004KT 9999 SCT017TCU SCT033 BKN233 28/25 Q1011 NOSIG,FMMT,2015-02-21T06:00:00Z,-18.12,49.38,28.0,25.0,220,4,,6.21,29.852362,,,,,,TRUE,,,,,SCT,1700,SCT,3300,BKN,23300,,,VFR,,,,,,,,,,,,METAR,6.0
FMCH 210600Z 30005KT 9999 FEW020 30/24 Q1011 NOSIG,FMCH,2015-02-21T06:00:00Z,-11.52,43.27,30.0,24.0,300,5,,6.21,29.852362,,,,,,TRUE,,,,,FEW,2000,,,,,,,VFR,,,,,,,,,,,,METAR,29.0
OIIP 210600Z 34008KT 4000 -SN FEW020 FEW030CB SCT035 BKN080 M01/M03 Q1007,OIIP,2015-02-21T06:00:00Z,35.78,50.83,-1.0,-3.0,340,8,,2.49,29.734253,,,,,,,,,,-SN,FEW,2000,FEW,3000,SCT,3500,BKN,8000,IFR,,,,,,,,,,,,METAR,1271.0
SBPL 210600Z 09005KT 9999 SCT020 BKN080 22/20 Q1013,SBPL,2015-02-21T06:00:00Z,-9.37,-40.57,22.0,20.0,90,5,,6.21,29.911417,,,,,,,,,,,SCT,2000,BKN,8000,,,,,VFR,,,,,,,,,,,,METAR,375.0
TLPL 210600Z 06015KT 9999 FEW020 25/21 Q1015,TLPL,2015-02-21T06:00:00Z,13.75,-60.95,25.0,21.0,60,15,,6.21,29.970472,,,,,,,,,,,FEW,2000,,,,,,,VFR,,,,,,,,,,,,METAR,3.0
EIKN 210600Z 29012KT 9999 -SHSN BKN012 BKN020CB 00/00 Q1003 NOSIG,EIKN,2015-02-21T06:00:00Z,53.92,-8.82,0.0,0.0,290,12,,6.21,29.616142,,,,,,TRUE,,,,-SHSN,BKN,1200,BKN,2000,,,,,MVFR,,,,,,,,,,,,METAR,64.0
LQTZ 210600Z 12004KT 7000 FEW055 M03/M03 Q1014,LQTZ,2015-02-21T06:00:00Z,44.47,18.73,-3.0,-3.0,120,4,,4.35,29.940945,,,,,,,,,,,FEW,5500,,,,,,,MVFR,,,,,,,,,,,,METAR,306.0
BIRK 210600Z 13004KT CAVOK M06/M12 Q1006,BIRK,2015-02-21T06:00:00Z,64.13,-21.93,-6.0,-12.0,130,4,,6.21,29.704725,,,,,,,,,,,CAVOK,,,,,,,,VFR,,,,,,,,,,,,METAR,61.0
BIEG 210600Z 34008KT 9999 FEW024 SCT046 OVC067 M08/M10 Q1005 R04/490195,BIEG,2015-02-21T06:00:00Z,65.27,-14.4,-8.0,-10.0,340,8,,6.21,29.675198,,,,,,,,,,,FEW,2400,SCT,4600,OVC,6700,,,VFR,,,,,,,,,,,,METAR,38.0
BIAR 210600Z 31009KT 9999 BKN030 OVC061 M07/M11 Q1008,BIAR,2015-02-21T06:00:00Z,65.67,-18.07,-7.0,-11.0,310,9,,6.21,29.763779,,,,,,,,,,,BKN,3000,OVC,6100,,,,,MVFR,,,,,,,,,,,,METAR,27.0
SBCT 210600Z 07005KT 9999 BKN007 20/19 Q1020,SBCT,2015-02-21T06:00:00Z,-25.52,-49.17,20.0,19.0,70,5,,6.21,30.11811,,,,,,,,,,,BKN,700,,,,,,,IFR,,,,,,,,,,,,METAR,908.0
SBME 210600Z 03003KT CAVOK 23/22 Q1016,SBME,2015-02-21T06:00:00Z,-22.35,-41.77,23.0,22.0,30,3,,6.21,30.0,,,,,,,,,,,CAVOK,,,,,,,,VFR,,,,,,,,,,,,METAR,2.0
SBDN 210600Z 06006KT CAVOK 23/21 Q1015,SBDN,2015-02-21T06:00:00Z,-22.18,-51.43,23.0,21.0,60,6,,6.21,29.970472,,,,,,,,,,,CAVOK,,,,,,,,VFR,,,,,,,,,,,,METAR,435.0
SBBU 210600Z 10006KT CAVOK 23/23 Q1017,SBBU,2015-02-21T06:00:00Z,-22.32,-49.07,23.0,23.0,100,6,,6.21,30.029528,,,,,,,,,,,CAVOK,,,,,,,,VFR,,,,,,,,,,,,METAR,590.0
SBBH 210600Z 00000KT CAVOK 20/16 Q1018,SBBH,2015-02-21T06:00:00Z,-19.85,-43.95,20.0,16.0,0,0,,6.21,30.059055,,,,,,,,,,,CAVOK,,,,,,,,VFR,,,,,,,,,,,,METAR,785.0
SBAF 210600Z 30002KT CAVOK 24/21 Q1015,SBAF,2015-02-21T06:00:00Z,-22.87,-43.37,24.0,21.0,300,2,,6.21,29.970472,,,,,,,,,,,CAVOK,,,,,,,,VFR,,,,,,,,,,,,METAR,34.0
WADD 210600Z 26010KT 9999 FEW017CB SCT017 29/25 Q1009 NOSIG,WADD,2015-02-21T06:00:00Z,-8.73,115.17,29.0,25.0,260,10,,6.21,29.793306,,,,,,TRUE,,,,,FEW,1700,SCT,1700,,,,,VFR,,,,,,,,,,,,METAR,216.0
WARR 210600Z 08008KT 050V110 9999 FEW018 32/21 Q1007 NOSIG,WARR,2015-02-21T06:00:00Z,-7.37,112.78,32.0,21.0,80,8,,6.21,29.734253,,,,,,TRUE,,,,,FEW,1800,,,,,,,VFR,,,,,,,,,,,,METAR,2.0
WAAA 210600Z 32011KT 290V350 9999 FEW020 30/24 Q1009 NOSIG,WAAA,2015-02-21T06:00:00Z,-5.07,119.53,30.0,24.0,320,11,,6.21,29.793306,,,,,,TRUE,,,,,FEW,2000,,,,,,,VFR,,,,,,,,,,,,METAR,14.0
WIDD 210600Z AUTO 07009KT 040V100 9999NDV NCD 30/23 Q1011,WIDD,2015-02-21T06:00:00Z,1.12,104.12,30.0,23.0,70,9,,,29.852362,,,TRUE,,,,,,,,,,,,,,,,,,,,,,,,,,,,METAR,38.0
WIMM 210600Z 10012KT 8000 SCT017 33/23 Q1009 NOSIG,WIMM,2015-02-21T06:00:00Z,3.57,98.67,33.0,23.0,100,12,,4.97,29.793306,,,,,,TRUE,,,,,SCT,1700,,,,,,,MVFR,,,,,,,,,,,,METAR,25.0
WIHH 210600Z 36005KT 5000 HZ SCT017 31/24 Q1010 NOSIG,WIHH,2015-02-21T06:00:00Z,-6.25,106.88,31.0,24.0,360,5,,3.11,29.822834,,,,,,TRUE,,,,HZ,SCT,1700,,,,,,,MVFR,,,,,,,,,,,,METAR,25.0
YPWR 210600Z AUTO 07009KT 9999 // NCD 36/03 Q1008,YPWR,2015-02-21T06:00:00Z,-31.12,136.82,36.0,3.0,70,9,,6.21,29.763779,,,TRUE,,,,,,,,,,,,,,,,,,,,,,,,,,,,METAR,167.0
YGEL 210600Z 20022KT 9999 FEW024 26/16 Q1010,YGEL,2015-02-21T06:00:00Z,-28.8,114.7,26.0,16.0,200,22,,6.21,29.822834,,,,,,,,,,,FEW,2400,,,,,,,VFR,,,,,,,,,,,,METAR,37.0
LPPD 210600Z 01010KT 340V040 9999 SCT008 BKN014 15/14 Q1034,LPPD,2015-02-21T06:00:00Z,37.72,-25.68,15.0,14.0,10,10,,6.21,30.531496,,,,,,,,,,,SCT,800,BKN,1400,,,,,MVFR,,,,,,,,,,,,METAR,72.0
LPLA 210600Z /////KT 9999 SCT008 SCT011 BKN015 14/13 Q1036,LPLA,2015-02-21T06:00:00Z,38.77,-27.1,14.0,13.0,,,,6.21,30.590551,,,,,,,,,,,SCT,800,SCT,1100,BKN,1500,,,MVFR,,,,,,,,,,,,METAR,55.0
LPAZ 210600Z 03017KT 9999 FEW009 BKN024 16/12 Q1033,LPAZ,2015-02-21T06:00:00Z,36.97,-25.17,16.0,12.0,30,17,,6.21,30.501968,,,,,,,,,,,FEW,900,BKN,2400,,,,,MVFR,,,,,,,,,,,,METAR,100.0
SBKG 210600Z 10004KT CAVOK 23/20 Q1014,SBKG,2015-02-21T06:00:00Z,-7.27,-35.87,23.0,20.0,100,4,,6.21,29.940945,,,,,,,,,,,CAVOK,,,,,,,,VFR,,,,,,,,,,,,METAR,560.0
SBJU 210600Z 15013KT 5000 -TSRA BKN020 FEW021CB 23/22 Q1016,SBJU,2015-02-21T06:00:00Z,-7.22,-39.27,23.0,22.0,150,13,,3.11,30.0,,,,,,,,,,-TSRA,BKN,2000,FEW,2100,,,,,MVFR,,,,,,,,,,,,METAR,409.0
SBIL 210600Z 27006KT 9999 SCT025 SCT070 23/21 Q1014,SBIL,2015-02-21T06:00:00Z,-14.8,-39.02,23.0,21.0,270,6,,6.21,29.940945,,,,,,,,,,,SCT,2500,SCT,7000,,,,,VFR,,,,,,,,,,,,METAR,5.0
YSTW 210600Z AUTO 12010KT 9999 // SCT047 OVC080 28/15 Q1011,YSTW,2015-02-21T06:00:00Z,-31.07,150.85,28.0,15.0,120,10,,6.21,29.852362,,,TRUE,,,,,,,,SCT,4700,OVC,8000,,,,,VFR,,,,,,,,,,,,METAR,410.0
YPJT 210600Z AUTO 24015KT 9999 // NCD 26/13 Q1012,YPJT,2015-02-21T06:00:00Z,-32.1,115.88,26.0,13.0,240,15,,6.21,29.88189,,,TRUE,,,,,,,,,,,,,,,,,,,,,,,,,,,,METAR,30.0
LPPT 210600Z 34011KT 9999 FEW010 BKN014 12/11 Q1014,LPPT,2015-02-21T06:00:00Z,38.77,-9.12,12.0,11.0,340,11,,6.21,29.940945,,,,,,,,,,,FEW,1000,BKN,1400,,,,,MVFR,,,,,,,,,,,,METAR,123.0
LPPS 210600Z 34015KT 9999 BKN015 15/13 Q1024,LPPS,2015-02-21T06:00:00Z,33.07,-16.35,15.0,13.0,340,15,,6.21,30.236221,,,,,,,,,,,BKN,1500,,,,,,,MVFR,,,,,,,,,,,,METAR,82.0
LPPR 210600Z 34008KT 9999 SCT018 10/09 Q1014,LPPR,2015-02-21T06:00:00Z,41.22,-8.67,10.0,9.0,340,8,,6.21,29.940945,,,,,,,,,,,SCT,1800,,,,,,,VFR,,,,,,,,,,,,METAR,73.0
LPMA 210600Z VRB04KT 9999 SCT016 15/10 Q1024 RS24004KT 0531006KT 2335009KT,LPMA,2015-02-21T06:00:00Z,32.7,-16.77,15.0,10.0,0,4,,6.21,30.236221,,,,,,,,,,,SCT,1600,,,,,,,VFR,,,,,,,,,,,,METAR,55.0
LPFR 210600Z 36003KT 9999 BKN004 BKN006 11/10 Q1014,LPFR,2015-02-21T06:00:00Z,37.02,-7.97,11.0,10.0,360,3,,6.21,29.940945,,,,,,,,,,,BKN,400,BKN,600,,,,,LIFR,,,,,,,,,,,,METAR,4.0
LPBJ 210600Z 28009KT 3000 -DZ BR BKN004 BKN012 11/11 Q1013,LPBJ,2015-02-21T06:00:00Z,38.08,-7.93,11.0,11.0,280,9,,1.86,29.911417,,,,,,,,,,-DZ BR,BKN,400,BKN,1200,,,,,LIFR,,,,,,,,,,,,METAR,247.0
AYWK 210600Z 36006KT 9999 FEW018 SCT300 30/25 Q1006,AYWK,2015-02-21T06:00:00Z,-3.58,143.67,30.0,25.0,360,6,,6.21,29.704725,,,,,,,,,,,FEW,1800,SCT,30000,,,,,VFR,,,,,,,,,,,,METAR,6.0
AYPY 210600Z 22010KT 9999 FEW020CB SCT020 BKN280 30/24 Q1006 RMKS/ CB TO N/E,AYPY,2015-02-21T06:00:00Z,-9.42,147.22,30.0,24.0,220,10,,6.21,29.704725,,,,,,,,,,,FEW,2000,SCT,2000,BKN,28000,,,VFR,,,,,,,,,,,,METAR,47.0
DFFD 210600Z VRB01KT 8000 NSC 26/01 Q1011 TEMPO 4000 HZ,DFFD,2015-02-21T06:00:00Z,12.33,-1.52,26.0,1.0,0,1,,4.97,29.852362,,,,,,,,,,,,,,,,,,,,,,,,,,,,,,,METAR,306.0
DFOO 210600Z 00000KT 9999 -RA BKN120 26/07 Q1011,DFOO,2015-02-21T06:00:00Z,11.17,-4.32,26.0,7.0,0,0,,6.21,29.852362,,,,,,,,,,-RA,BKN,12000,,,,,,,VFR,,,,,,,,,,,,METAR,460.0
FTTA 210600Z 36008KT 6000 NSC 26/10 Q1008,FTTA,2015-02-21T06:00:00Z,9.15,18.37,26.0,10.0,360,8,,3.73,29.763779,,,,,,,,,,,,,,,,,,,,,,,,,,,,,,,METAR,365.0
FTTJ 210600Z 02006KT 2000 HZ NSC 23/06 Q1008 TEMPO 1500,FTTJ,2015-02-21T06:00:00Z,12.12,15.02,23.0,6.0,20,6,,1.24,29.763779,,,,,,,,,,HZ,,,,,,,,,,,,,,,,,,,,,METAR,295.0
DBBB 210600Z VRB01KT 8000 SCT011 26/24 Q1008 NOSIG,DBBB,2015-02-21T06:00:00Z,6.33,2.37,26.0,24.0,0,1,,4.97,29.763779,,,,,,TRUE,,,,,SCT,1100,,,,,,,MVFR,,,,,,,,,,,,METAR,9.0
DAUO 210600Z 000//KT 0500 FG NSC 08/08 Q1011,DAUO,2015-02-21T06:00:00Z,33.5,6.78,8.0,8.0,,,,0.31,29.852362,,,,,,,,,,FG,,,,,,,,,,,,,,,,,,,,,METAR,63.0
VMMC 210600Z 15004KT 100V180 5000 BR FEW008 SCT015 19/17 Q1014 NOSIG,VMMC,2015-02-21T06:00:00Z,22.15,113.58,19.0,17.0,150,4,,3.11,29.940945,,,,,,TRUE,,,,BR,FEW,800,SCT,1500,,,,,MVFR,,,,,,,,,,,,METAR,6.0
RCSS 210600Z 24003KT 140V290 9999 FEW025 SCT060 BKN120 26/12 Q1014 NOSIG RMK A2995,RCSS,2015-02-21T06:00:00Z,25.07,121.53,26.0,12.0,240,3,,6.21,29.940945,,,,,,TRUE,,,,,FEW,2500,SCT,6000,BKN,12000,,,VFR,,,,,,,,,,,,METAR,6.0
RCKH 210600Z 16015G26KT 130V200 9999 FEW015 BKN040 OVC060 25/17 Q1014 NOSIG RMK A2996,RCKH,2015-02-21T06:00:00Z,22.57,120.33,25.0,17.0,160,15,26,6.21,29.940945,,,,,,TRUE,,,,,FEW,1500,BKN,4000,OVC,6000,,,VFR,,,,,,,,,,,,METAR,9.0
RCTP 210600Z 31007KT 9999 FEW020 SCT045 BKN120 24/14 Q1014 NOSIG RMK A2996,RCTP,2015-02-21T06:00:00Z,25.07,121.22,24.0,14.0,310,7,,6.21,29.940945,,,,,,TRUE,,,,,FEW,2000,SCT,4500,BKN,12000,,,VFR,,,,,,,,,,,,METAR,33.0
UMKK 210600Z 19006MPS 5000 BR NSC 00/M02 Q1003 R24/19//60 NOSIG RMK QFE751/1001,UMKK,2015-02-21T06:00:00Z,54.88,20.6,0.0,-2.0,190,12,,3.11,29.616142,,,,,,TRUE,,,,BR,,,,,,,,,,,,,,,,,,,,,METAR,21.0
ULOO 210600Z 22004MPS 3400 BR OVC019 01/M01 Q1005 19090065 NOSIG RMK QFE749,ULOO,2015-02-21T06:00:00Z,57.78,28.4,1.0,-1.0,220,8,,2.11,29.675198,,,,,,TRUE,,,,BR,OVC,1900,,,,,,,IFR,,,,,,,,,,,,METAR,47.0
ORER 210600Z 00000KT 9000 FEW030 BKN050 04/02 Q1011 NOSIG,ORER,2015-02-21T06:00:00Z,36.23,43.97,4.0,2.0,0,0,,5.59,29.852362,,,,,,TRUE,,,,,FEW,3000,BKN,5000,,,,,VFR,,,,,,,,,,,,METAR,409.0
SBUR 210600Z 05004KT CAVOK 21/19 Q1018,SBUR,2015-02-21T06:00:00Z,-19.77,-47.97,21.0,19.0,50,4,,6.21,30.059055,,,,,,,,,,,CAVOK,,,,,,,,VFR,,,,,,,,,,,,METAR,807.0
SBUL 210600Z 07008KT CAVOK 20/18 Q1019,SBUL,2015-02-21T06:00:00Z,-18.87,-48.22,20.0,18.0,70,8,,6.21,30.088583,,,,,,,,,,,CAVOK,,,,,,,,VFR,,,,,,,,,,,,METAR,922.0
SBSR 210600Z 10002KT 9999 FEW035 23/19 Q1016,SBSR,2015-02-21T06:00:00Z,-20.8,-49.4,23.0,19.0,100,2,,6.21,30.0,,,,,,,,,,,FEW,3500,,,,,,,VFR,,,,,,,,,,,,METAR,543.0
SBSC 210600Z 25003KT CAVOK 25/23 Q1014,SBSC,2015-02-21T06:00:00Z,-22.92,-43.72,25.0,23.0,250,3,,6.21,29.940945,,,,,,,,,,,CAVOK,,,,,,,,VFR,,,,,,,,,,,,METAR,3.0
MKJS 210600Z 09013KT 9999 -SHRA BKN022 24/20 Q1017,MKJS,2015-02-21T06:00:00Z,18.5,-77.92,24.0,20.0,90,13,,6.21,30.029528,,,,,,,,,,-SHRA,BKN,2200,,,,,,,MVFR,,,,,,,,,,,,METAR,1.0
OYRN 210600Z 05005KT 9999 FEW018 SCT030 27/19 Q1014,OYRN,2015-02-21T06:00:00Z,14.67,49.38,27.0,19.0,50,5,,6.21,29.940945,,,,,,,,,,,FEW,1800,SCT,3000,,,,,VFR,,,,,,,,,,,,METAR,17.0
FTTD 210600Z 00000KT CAVOK 24/07 Q1009,FTTD,2015-02-21T06:00:00Z,8.62,16.07,24.0,7.0,0,0,,6.21,29.793306,,,,,,,,,,,CAVOK,,,,,,,,VFR,,,,,,,,,,,,METAR,422.0
CPRY 210600Z AUTO 36008KT M05/M07 RMK AO1 T10511074,CPRY,2015-02-21T06:00:00Z,49.48,-112.68,-5.1,-7.4,360,8,,,,,,TRUE,TRUE,,,,,,,,,,,,,,,,,,,,,,,,,,,METAR,937.0
CPRO 210600Z AUTO 03004KT M08/M10 RMK AO1 T10801099,CPRO,2015-02-21T06:00:00Z,50.83,-112.05,-8.0,-9.9,30,4,,,,,,TRUE,TRUE,,,,,,,,,,,,,,,,,,,,,,,,,,,METAR,714.0
CPFI 210600Z AUTO 01005KT M05/M08 RMK AO1 T10531079,CPFI,2015-02-21T06:00:00Z,49.8,-112.03,-5.3,-7.9,10,5,,,,,,TRUE,TRUE,,,,,,,,,,,,,,,,,,,,,,,,,,,METAR,833.0
CWOE 210600Z AUTO 33015G20KT M08/M12 RMK AO1 PK WND 34023/0510 SLP258 T10821119 52026,CWOE,2015-02-21T06:00:00Z,49.12,-110.47,-8.2,-11.9,330,15,20,,,1025.8,,TRUE,TRUE,,,,,,,,,,,,,,,,2.6,,,,,,,,,,,METAR,935.0
CXMM 210600Z AUTO 33008KT M20/M23 RMK AO1 SOG 25 1024 SLP356 T11971232,CXMM,2015-02-21T06:00:00Z,56.65,-111.22,-19.7,-23.2,330,8,,,,1035.6,,TRUE,TRUE,,,,,,,,,,,,,,,,,,,,,,,,,,,METAR,369.0
CXWM 210600Z AUTO 36008KT M06/M08 RMK AO1 T10591079,CXWM,2015-02-21T06:00:00Z,49.5,-112.12,-5.9,-7.9,360,8,,,,,,TRUE,TRUE,,,,,,,,,,,,,,,,,,,,,,,,,,,METAR,944.0
DAUU 210600Z ///04KT 0500 FG VV/// 09/09 Q1009,DAUU,2015-02-21T06:00:00Z,31.92,5.4,9.0,9.0,,,,0.31,29.793306,,,,,,,,,,FG,OVX,0,,,,,,,LIFR,,,,,,,,,,,,METAR,141.0
FEFF 210600Z 00000KT 9999 -RA FEW010 OVC150 25/24 Q1011 NOSIG,FEFF,2015-02-21T06:00:00Z,4.4,18.52,25.0,24.0,0,0,,6.21,29.852362,,,,,,TRUE,,,,-RA,FEW,1000,OVC,15000,,,,,VFR,,,,,,,,,,,,METAR,366.0
FCPP 210600Z 06002KT 8000 FEW010 24/23 Q1009 NOSIG,FCPP,2015-02-21T06:00:00Z,-4.82,11.9,24.0,23.0,60,2,,4.97,29.793306,,,,,,TRUE,,,,,FEW,1000,,,,,,,MVFR,,,,,,,,,,,,METAR,17.0
FCBB 210600Z VRB02KT 6000 FEW010 20/20 Q1012 BECMG 3000 BR,FCBB,2015-02-21T06:00:00Z,-4.25,15.25,20.0,20.0,0,2,,3.73,29.88189,,,,,,,,,,,FEW,1000,,,,,,,MVFR,,,,,,,,,,,,SPECI,316.0
GBYD 210600Z 04010KT 9000 NSC 18/08 Q1012,GBYD,2015-02-21T06:00:00Z,13.33,-16.65,18.0,8.0,40,10,,5.59,29.88189,,,,,,,,,,,,,,,,,,,,,,,,,,,,,,,METAR,36.0
GVNP 210600Z 04022KT 9999 SCT027 BKN200 19/12 Q1016 NOSIG,GVNP,2015-02-21T06:00:00Z,14.95,-23.48,19.0,12.0,40,22,,6.21,30.0,,,,,,TRUE,,,,,SCT,2700,BKN,20000,,,,,VFR,,,,,,,,,,,,METAR,70.0
OPSK 210600Z 05008KT 3000 HZ FEW100 SCT200 22/17 Q1018 RH 74PC,OPSK,2015-02-21T06:00:00Z,27.72,68.8,22.0,17.0,50,8,,1.86,30.059055,,,,,,,,,,HZ,FEW,10000,SCT,20000,,,,,IFR,,,,,,,,,,,,METAR,58.0
MGSJ 210600Z 00000KT CAVOK 22/22 Q1014 A2994,MGSJ,2015-02-21T06:00:00Z,13.92,-90.83,22.0,22.0,0,0,,6.21,29.940945,,,,,,,,,,,CAVOK,,,,,,,,VFR,,,,,,,,,,,,METAR,9.0
MGPB 210600Z 00000KT CAVOK 19/18 Q1018 A3006,MGPB,2015-02-21T06:00:00Z,15.72,-88.58,19.0,18.0,0,0,,6.21,30.059055,,,,,,,,,,,CAVOK,,,,,,,,VFR,,,,,,,,,,,,METAR,10.0
MGHT 210600Z 00000KT 9999 FEW016 14/11 QFE819.8,MGHT,2015-02-21T06:00:00Z,15.32,-91.5,14.0,11.0,0,0,,6.21,,,,,,,,,,,,FEW,1600,,,,,,,VFR,,,,,,,,,,,,SPECI,1901.0
MGMM 210600Z 09004KT 9999 FEW012 19/18 Q1020 A3012,MGMM,2015-02-21T06:00:00Z,17.07,-89.15,19.0,18.0,90,4,,6.21,30.11811,,,,,,,,,,,FEW,1200,,,,,,,VFR,,,,,,,,,,,,METAR,105.0
SBSV 210600Z 09003KT 9999 SCT017 25/21 Q1014,SBSV,2015-02-21T06:00:00Z,-12.9,-38.32,25.0,21.0,90,3,,6.21,29.940945,,,,,,,,,,,SCT,1700,,,,,,,VFR,,,,,,,,,,,,METAR,6.0
SBSL 210600Z 20003KT 9999 BKN017 24/21 Q1011,SBSL,2015-02-21T06:00:00Z,-2.6,-44.22,24.0,21.0,200,3,,6.21,29.852362,,,,,,,,,,,BKN,1700,,,,,,,MVFR,,,,,,,,,,,,METAR,53.0
OSKL 210600Z 11008KT 6000 BKN026 OVC100 03/02 Q1009,OSKL,2015-02-21T06:00:00Z,37.03,41.2,3.0,2.0,110,8,,3.73,29.793306,,,,,,,,,,,BKN,2600,OVC,10000,,,,,MVFR,,,,,,,,,,,,METAR,455.0
OSLK 210600Z 06004KT CAVOK 06/03 Q1009,OSLK,2015-02-21T06:00:00Z,35.4,35.95,6.0,3.0,60,4,,6.21,29.793306,,,,,,,,,,,CAVOK,,,,,,,,VFR,,,,,,,,,,,,METAR,7.0
OSDI 210600Z 03006KT CAVOK 01/M01 Q1008,OSDI,2015-02-21T06:00:00Z,33.42,36.52,1.0,-1.0,30,6,,6.21,29.763779,,,,,,,,,,,CAVOK,,,,,,,,VFR,,,,,,,,,,,,METAR,605.0
MGGT 210600Z 01008KT 9999 FEW006 BKN014 14/12 Q1027 A3033,MGGT,2015-02-21T06:00:00Z,14.57,-90.53,14.0,12.0,10,8,,6.21,30.324802,,,,,,,,,,,FEW,600,BKN,1400,,,,,MVFR,,,,,,,,,,,,METAR,1509.0
UBEE 210600Z 04006KT 8000 -RA OVC020 03/02 Q1017 R30/290360 NOSIG,UBEE,2015-02-21T06:00:00Z,40.63,47.15,3.0,2.0,40,6,,4.97,30.029528,,,,,,TRUE,,,,-RA,OVC,2000,,,,,,,MVFR,,,,,,,,,,,,METAR,15.0
SBMO 210600Z 31003KT 9999 FEW020 20/20 Q1013,SBMO,2015-02-21T06:00:00Z,-9.52,-35.77,20.0,20.0,310,3,,6.21,29.911417,,,,,,,,,,,FEW,2000,,,,,,,VFR,,,,,,,,,,,,METAR,115.0
MDSD 210600Z 01008KT 9999 SCT014 SCT070 21/20 Q1019,MDSD,2015-02-21T06:00:00Z,18.42,-69.67,21.0,20.0,10,8,,6.21,30.088583,,,,,,,,,,,SCT,1400,SCT,7000,,,,,VFR,,,,,,,,,,,,METAR,18.0
MDPC 210600Z 10012KT 9999 FEW016 23/20 Q1018,MDPC,2015-02-21T06:00:00Z,18.57,-68.37,23.0,20.0,100,12,,6.21,30.059055,,,,,,,,,,,FEW,1600,,,,,,,VFR,,,,,,,,,,,,METAR,12.0
MDST 210600Z 00000KT 5000 RA SCT015 BKN070 20/20 Q1020,MDST,2015-02-21T06:00:00Z,19.4,-70.6,20.0,20.0,0,0,,3.11,30.11811,,,,,,,,,,RA,SCT,1500,BKN,7000,,,,,MVFR,,,,,,,,,,,,METAR,184.0
MDPP 210600Z 00000KT 5000 RA BKN014 OVC070 22/21 Q1020,MDPP,2015-02-21T06:00:00Z,19.75,-70.57,22.0,21.0,0,0,,3.11,30.11811,,,,,,,,,,RA,BKN,1400,OVC,7000,,,,,MVFR,,,,,,,,,,,,METAR,5.0
SBBV 210600Z 06004KT CAVOK 24/17 Q1010,SBBV,2015-02-21T06:00:00Z,2.85,-60.7,24.0,17.0,60,4,,6.21,29.822834,,,,,,,,,,,CAVOK,,,,,,,,VFR,,,,,,,,,,,,METAR,140.0
OYAA 210600Z 07005KT 9999 FEW018 BKN025 26/19 Q1013 NOSIG,OYAA,2015-02-21T06:00:00Z,12.83,45.02,26.0,19.0,70,5,,6.21,29.911417,,,,,,TRUE,,,,,FEW,1800,BKN,2500,,,,,MVFR,,,,,,,,,,,,METAR,3.0
SBCB 210600Z 06011KT 9999 BKN015 25/25 Q1015,SBCB,2015-02-21T06:00:00Z,-22.92,-42.08,25.0,25.0,60,11,,6.21,29.970472,,,,,,,,,,,BKN,1500,,,,,,,MVFR,,,,,,,,,,,,METAR,4.0
SBFL 210600Z 22007KT 9999 SCT030 BKN050 25/22 Q1016,SBFL,2015-02-21T06:00:00Z,-27.67,-48.53,25.0,22.0,220,7,,6.21,30.0,,,,,,,,,,,SCT,3000,BKN,5000,,,,,VFR,,,,,,,,,,,,METAR,5.0
SBCG 210600Z 06004KT 9999 SCT009 SCT040 FEW050TCU 22/21 Q1014,SBCG,2015-02-21T06:00:00Z,-20.47,-54.67,22.0,21.0,60,4,,6.21,29.940945,,,,,,,,,,,SCT,900,SCT,4000,FEW,5000,,,VFR,,,,,,,,,,,,METAR,567.0
CWJR 210600Z AUTO 01002KT 02/M01 RMK AO1 SOG 01 3009 SLP222 T00151013,CWJR,2015-02-21T06:00:00Z,49.07,-116.5,1.5,-1.3,10,2,,,,1022.2,,TRUE,TRUE,,,,,,,,,,,,,,,,,,,,,,,,,,,METAR,646.0
CWJV 210600Z AUTO 10003KT 02/M00 RMK AO1 SLP238 T00201001 51005,CWJV,2015-02-21T06:00:00Z,50.22,-119.18,2.0,-0.1,100,3,,,,1023.8,,TRUE,TRUE,,,,,,,,,,,,,,,,0.5,,,,,,,,,,,METAR,556.0
CWBZ 210600Z AUTO 24004KT M18/M20 RMK AO1 SLP281 T11801202 51008,CWBZ,2015-02-21T06:00:00Z,45.12,-74.27,-18.0,-20.2,240,4,,,,1028.1,,TRUE,TRUE,,,,,,,,,,,,,,,,0.8,,,,,,,,,,,METAR,49.0
CXLB 210600Z AUTO 28013KT M09/ RMK AO1 SLP228 T1089 53047,CXLB,2015-02-21T06:00:00Z,44.37,-64.3,-8.9,,280,13,,,,1022.8,,TRUE,TRUE,,,,,,,,,,,,,,,,4.7,,,,,,,,,,,METAR,4.0
OPNH 210600Z 31506KT 1500M FU NSC 24/17 Q1018,OPNH,2015-02-21T06:00:00Z,26.22,68.37,24.0,17.0,315,6,,0.93,30.059055,,,,,,,,,,FU,,,,,,,,,,,,,,,,,,,,,METAR,38.0
NFFN 210600Z 10005KT 9999 FEW022CB SCT025 BKN048 28/26 Q1006 NOSIG,NFFN,2015-02-21T06:00:00Z,-17.75,177.45,28.0,26.0,100,5,,6.21,29.704725,,,,,,TRUE,,,,,FEW,2200,SCT,2500,BKN,4800,,,VFR,,,,,,,,,,,,METAR,18.0
ORSU 210600Z VRB02KT 7000 FEW030 BKN040 02/01 Q1010,ORSU,2015-02-21T06:00:00Z,35.57,45.32,2.0,1.0,0,2,,4.35,29.822834,,,,,,,,,,,FEW,3000,BKN,4000,,,,,MVFR,,,,,,,,,,,,METAR,761.0
SBPK 210600Z 24002KT CAVOK 20/20 Q1018,SBPK,2015-02-21T06:00:00Z,-31.72,-52.33,20.0,20.0,240,2,,6.21,30.059055,,,,,,,,,,,CAVOK,,,,,,,,VFR,,,,,,,,,,,,METAR,13.0
OYSY 210600Z 24003KT 190V010 CAVOK 23/12 Q1014 NOSIG,OYSY,2015-02-21T06:00:00Z,15.97,48.78,23.0,12.0,240,3,,6.21,29.940945,,,,,,TRUE,,,,,CAVOK,,,,,,,,VFR,,,,,,,,,,,,METAR,701.0
SBSP 210600Z 12003KT CAVOK 23/18 Q1020,SBSP,2015-02-21T06:00:00Z,-23.62,-46.63,23.0,18.0,120,3,,6.21,30.11811,,,,,,,,,,,CAVOK,,,,,,,,VFR,,,,,,,,,,,,METAR,803.0
SBRF 210600Z 19004KT 9999 SCT023 BKN060 25/23 Q1012,SBRF,2015-02-21T06:00:00Z,-8.13,-34.92,25.0,23.0,190,4,,6.21,29.88189,,,,,,,,,,,SCT,2300,BKN,6000,,,,,VFR,,,,,,,,,,,,METAR,19.0
MNMG 210600Z 09003KT CAVOK 24/17 Q1014 A2996 NOSIG,MNMG,2015-02-21T06:00:00Z,12.15,-86.17,24.0,17.0,90,3,,6.21,29.940945,,,,,,TRUE,,,,,CAVOK,,,,,,,,VFR,,,,,,,,,,,,SPECI,59.0
CYCY 210600Z AUTO 30012KT 9SM CLR M34/M38 A3039 RMK SLP298,CYCY,2015-02-21T06:00:00Z,70.47,-68.52,-34.0,-38.0,300,12,,9.0,30.389763,1029.8,,TRUE,,,,,,,,CLR,,,,,,,,VFR,,,,,,,,,,,,METAR,26.0
SBEG 210600Z 07005KT CAVOK 26/23 Q1010,SBEG,2015-02-21T06:00:00Z,-3.02,-60.03,26.0,23.0,70,5,,6.21,29.822834,,,,,,,,,,,CAVOK,,,,,,,,VFR,,,,,,,,,,,,METAR,2.0
TBPB 210600Z 07019KT 9999 -SHRA SCT018 25/22 Q1015 NOSIG,TBPB,2015-02-21T06:00:00Z,13.07,-59.48,25.0,22.0,70,19,,6.21,29.970472,,,,,,TRUE,,,,-SHRA,SCT,1800,,,,,,,VFR,,,,,,,,,,,,METAR,52.0
HKNK 210600Z 00000KT CAVOK 19/11,HKNK,2015-02-21T06:00:00Z,-0.3,36.17,19.0,11.0,0,0,,6.21,,,,,,,,,,,,CAVOK,,,,,,,,VFR,,,,,,,,,,,,METAR,1901.0
HKMU 210600Z 12005KT 9999 BKN022 22/19,HKMU,2015-02-21T06:00:00Z,-2.27,37.82,22.0,19.0,120,5,,6.21,,,,,,,,,,,,BKN,2200,,,,,,,MVFR,,,,,,,,,,,,METAR,1000.0
HKMO 210600Z 04005KT 9999 BKN021 29/23 Q1011 NOSIG,HKMO,2015-02-21T06:00:00Z,-4.02,39.62,29.0,23.0,40,5,,6.21,29.852362,,,,,,TRUE,,,,,BKN,2100,,,,,,,MVFR,,,,,,,,,,,,METAR,55.0
HKKI 210600Z 00000KT 9999 FEW022 BKN250 25/19 Q1016,HKKI,2015-02-21T06:00:00Z,-0.1,34.75,25.0,19.0,0,0,,6.21,30.0,,,,,,,,,,,FEW,2200,BKN,25000,,,,,VFR,,,,,,,,,,,,METAR,1146.0
OEYN 210600Z 00000KT 9999 FEW040 14/06 Q1015 NOSIG,OEYN,2015-02-21T06:00:00Z,24.13,38.07,14.0,6.0,0,0,,6.21,29.970472,,,,,,TRUE,,,,,FEW,4000,,,,,,,VFR,,,,,,,,,,,,METAR,8.0
OEWJ 210600Z 28019KT 7000 BKN040 SCT100 18/10 Q1015 NOSIG,OEWJ,2015-02-21T06:00:00Z,26.18,36.47,18.0,10.0,280,19,,4.35,29.970472,,,,,,TRUE,,,,,BKN,4000,SCT,10000,,,,,MVFR,,,,,,,,,,,,METAR,16.0
OETR 210600Z 26013KT 9999 BKN030 OVC100 03/03 Q1007 NOSIG,OETR,2015-02-21T06:00:00Z,31.7,38.73,3.0,3.0,260,13,,6.21,29.734253,,,,,,TRUE,,,,,BKN,3000,OVC,10000,,,,,MVFR,,,,,,,,,,,,METAR,855.0
OETF 210600Z 31011KT CAVOK 10/03 Q1018 NOSIG,OETF,2015-02-21T06:00:00Z,21.47,40.53,10.0,3.0,310,11,,6.21,30.059055,,,,,,TRUE,,,,,CAVOK,,,,,,,,VFR,,,,,,,,,,,,METAR,1449.0
OETB 210600Z 23011KT 9999 SCT040 10/M02 Q1012 NOSIG,OETB,2015-02-21T06:00:00Z,28.37,36.62,10.0,-2.0,230,11,,6.21,29.88189,,,,,,TRUE,,,,,SCT,4000,,,,,,,VFR,,,,,,,,,,,,METAR,770.0
OESH 210600Z 27007KT CAVOK 26/04 Q1013 NOSIG,OESH,2015-02-21T06:00:00Z,17.47,47.12,26.0,4.0,270,7,,6.21,29.911417,,,,,,TRUE,,,,,CAVOK,,,,,,,,VFR,,,,,,,,,,,,METAR,722.0
OEPA 210600Z 22005KT 0700 DU SKC 11/07 Q1014 NOSIG,OEPA,2015-02-21T06:00:00Z,28.32,46.12,11.0,7.0,220,5,,0.43,29.940945,,,,,,TRUE,,,,DU,SKC,,,,,,,,LIFR,,,,,,,,,,,,METAR,355.0
OENG 210600Z 09004KT CAVOK 25/03 Q1015 NOSIG,OENG,2015-02-21T06:00:00Z,17.62,44.42,25.0,3.0,90,4,,6.21,29.970472,,,,,,TRUE,,,,,CAVOK,,,,,,,,VFR,,,,,,,,,,,,METAR,1203.0
OEMK 210600Z 33002KT CAVOK 18/07 Q1015,OEMK,2015-02-21T06:00:00Z,21.43,40.0,18.0,7.0,330,2,,6.21,29.970472,,,,,,,,,,,CAVOK,,,,,,,,VFR,,,,,,,,,,,,METAR,369.0
OEKM 210600Z 21015G30KT 9999 SCT025 14/10 Q1020 NOSIG,OEKM,2015-02-21T06:00:00Z,18.3,42.78,14.0,10.0,210,15,30,6.21,30.11811,,,,,,TRUE,,,,,SCT,2500,,,,,,,VFR,,,,,,,,,,,,METAR,2054.0
OEKK 210600Z 23010KT 1200 DU SKC 10/02 Q1015 NOSIG,OEKK,2015-02-21T06:00:00Z,27.88,45.52,10.0,2.0,230,10,,0.75,29.970472,,,,,,TRUE,,,,DU,SKC,,,,,,,,LIFR,,,,,,,,,,,,METAR,413.0
OEHL 210600Z 27018KT CAVOK 08/M06 Q1013 NOSIG,OEHL,2015-02-21T06:00:00Z,27.42,41.67,8.0,-6.0,270,18,,6.21,29.911417,,,,,,TRUE,,,,,CAVOK,,,,,,,,VFR,,,,,,,,,,,,METAR,1013.0
OEGT 210600Z 22004KT 9999 BKN030 05/01 Q1007 NOSIG,OEGT,2015-02-21T06:00:00Z,31.42,37.27,5.0,1.0,220,4,,6.21,29.734253,,,,,,TRUE,,,,,BKN,3000,,,,,,,MVFR,,,,,,,,,,,,METAR,499.0
OEGS 210600Z 00000KT 4000 DU SKC 11/M01 Q1015,OEGS,2015-02-21T06:00:00Z,26.3,43.77,11.0,-1.0,0,0,,2.49,29.970472,,,,,,,,,,DU,SKC,,,,,,,,IFR,,,,,,,,,,,,METAR,650.0
OEGN 210600Z 00000KT 9999 SCT030 BKN100 28/21 Q1014 NOSIG,OEGN,2015-02-21T06:00:00Z,16.88,42.57,28.0,21.0,0,0,,6.21,29.940945,,,,,,TRUE,,,,,SCT,3000,BKN,10000,,,,,VFR,,,,,,,,,,,,METAR,3.0
OEBH 210600Z 00000KT CAVOK 21/11 Q1015 NOSIG,OEBH,2015-02-21T06:00:00Z,19.97,42.62,21.0,11.0,0,0,,6.21,29.970472,,,,,,TRUE,,,,,CAVOK,,,,,,,,VFR,,,,,,,,,,,,METAR,1157.0
OEBA 210600Z 17004KT 9999 FEW030 17/10 Q1017 NOSIG,OEBA,2015-02-21T06:00:00Z,20.3,41.62,17.0,10.0,170,4,,6.21,30.029528,,,,,,TRUE,,,,,FEW,3000,,,,,,,VFR,,,,,,,,,,,,METAR,1656.0
OEAH 210600Z 35017KT 5000 BLDU SKC 16/M01 Q1012 NOSIG,OEAH,2015-02-21T06:00:00Z,25.27,49.47,16.0,-1.0,350,17,,3.11,29.88189,,,,,,TRUE,,,,BLDU,SKC,,,,,,,,MVFR,,,,,,,,,,,,METAR,172.0
OEAB 210600Z 18017KT 9999 SCT010 13/11 Q1021 NOSIG,OEAB,2015-02-21T06:00:00Z,18.22,42.63,13.0,11.0,180,17,,6.21,30.147638,,,,,,TRUE,,,,,SCT,1000,,,,,,,VFR,,,,,,,,,,,,METAR,2084.0
OYGD 210600Z 12008KT 9999 FEW025 25/19 Q1013,OYGD,2015-02-21T06:00:00Z,16.18,52.17,25.0,19.0,120,8,,6.21,29.911417,,,,,,,,,,,FEW,2500,,,,,,,VFR,,,,,,,,,,,,METAR,41.0
SAZM 210600Z 00000KT 9999 FEW030 08/06 Q1022,SAZM,2015-02-21T06:00:00Z,-37.92,-57.57,8.0,6.0,0,0,,6.21,30.177166,,,,,,,,,,,FEW,3000,,,,,,,VFR,,,,,,,,,,,,METAR,21.0
WIBB 210600Z 00000KT 9999 SCT015 31/22 Q1009 NOSIG,WIBB,2015-02-21T06:00:00Z,0.47,101.45,31.0,22.0,0,0,,6.21,29.793306,,,,,,TRUE,,,,,SCT,1500,,,,,,,VFR,,,,,,,,,,,,METAR,31.0
WALL 210600Z 05003KT 9999 FEW018CB FEW020 29/24 Q1009RMK CB TO N AND W,WALL,2015-02-21T06:00:00Z,-1.27,116.9,29.0,24.0,50,3,,6.21,,,,,,,,,,,,FEW,1800,FEW,2000,,,,,VFR,,,,,,,,,,,,METAR,3.0
WAOO 210600Z 36004KT 9999 SCT016 27/24 Q1009 RERA,WAOO,2015-02-21T06:00:00Z,-3.45,114.77,27.0,24.0,360,4,,6.21,29.793306,,,,,,,,,,,SCT,1600,,,,,,,VFR,,,,,,,,,,,,METAR,20.0
WIPP 210600Z 34005KT 330V030 9999 SCT013 31/22 Q1010 NOSIG,WIPP,2015-02-21T06:00:00Z,-2.88,104.7,31.0,22.0,340,5,,6.21,29.822834,,,,,,TRUE,,,,,SCT,1300,,,,,,,VFR,,,,,,,,,,,,METAR,10.0
WIPT 210600Z 21007KT 170V240 CAVOK 31/22 Q1010,WIPT,2015-02-21T06:00:00Z,-0.78,100.28,31.0,22.0,210,7,,6.21,29.822834,,,,,,,,,,,CAVOK,,,,,,,,VFR,,,,,,,,,,,,METAR,5.0
WARS 210600Z 32013KT 8000 FEW017CB FEW018 30/24 Q1008 NOSIG,WARS,2015-02-21T06:00:00Z,-6.97,110.38,30.0,24.0,320,13,,4.97,29.763779,,,,,,TRUE,,,,,FEW,1700,FEW,1800,,,,,MVFR,,,,,,,,,,,,METAR,3.0
WATT 210600Z 32006G17KT 8000 BKN015 30/25 Q1006 NOSIG,WATT,2015-02-21T06:00:00Z,-10.17,123.67,30.0,25.0,320,6,17,4.97,29.704725,,,,,,TRUE,,,,,BKN,1500,,,,,,,MVFR,,,,,,,,,,,,METAR,102.0
OTBD 210600Z 33019G31KT 1500 BLDU NSC 20/09 Q1010 BECMG 1000,OTBD,2015-02-21T06:00:00Z,25.25,51.57,20.0,9.0,330,19,31,0.93,29.822834,,,,,,,,,,BLDU,,,,,,,,,,,,,,,,,,,,,METAR,10.0
OBBI 210600Z 33021KT 6000 SCT030 18/08 Q1011 RERA TEMPO 3000,OBBI,2015-02-21T06:00:00Z,26.27,50.63,18.0,8.0,330,21,,3.73,29.852362,,,,,,,,,,,SCT,3000,,,,,,,MVFR,,,,,,,,,,,,METAR,2.0
VTSC 210600Z 09009KT 050V120 9999 FEW022 BKN200 30/24 Q1012 A2988 RWY20 INFO G,VTSC,2015-02-21T06:00:00Z,6.52,101.75,30.0,24.0,90,9,,6.21,29.88189,,,,,,,,,,,FEW,2200,BKN,20000,,,,,VFR,,,,,,,,,,,,METAR,6.0
SBPJ 210600Z 06002KT 9999 FEW012 BKN090 23/21 Q1013,SBPJ,2015-02-21T06:00:00Z,-10.28,-48.37,23.0,21.0,60,2,,6.21,29.911417,,,,,,,,,,,FEW,1200,BKN,9000,,,,,VFR,,,,,,,,,,,,METAR,236.0
SBAN 210600Z 06003KT 9999 FEW025 SCT090 18/17 Q1019,SBAN,2015-02-21T06:00:00Z,-16.22,-48.97,18.0,17.0,60,3,,6.21,30.088583,,,,,,,,,,,FEW,2500,SCT,9000,,,,,VFR,,,,,,,,,,,,METAR,1137.0
OIIK 210600Z 00000KT 5000 SN SCT035 OVC090 M01/M03 Q1006,OIIK,2015-02-21T06:00:00Z,36.25,50.05,-1.0,-3.0,0,0,,3.11,29.704725,,,,,,,,,,SN,SCT,3500,OVC,9000,,,,,MVFR,,,,,,,,,,,,METAR,1278.0
OIBJ 210600Z 30006KT 2000 -TSSHRA SCT020 FEW025CB OVC090 12/11 Q1011,OIBJ,2015-02-21T06:00:00Z,27.82,52.35,12.0,11.0,300,6,,1.24,29.852362,,,,,,,,,,SHRA TS,SCT,2000,FEW,2500,OVC,9000,,,IFR,,,,,,,,,,,,METAR,663.0
OYAR 210600Z 00000KT CAVOK 16/M01 Q////,OYAR,2015-02-21T06:00:00Z,14.58,49.25,16.0,-1.0,0,0,,6.21,,,,,,,,,,,,CAVOK,,,,,,,,VFR,,,,,,,,,,,,METAR,25.0
OYHJ 210600Z 26007KT 9999 FEW015 15/12 Q////,OYHJ,2015-02-21T06:00:00Z,15.7,43.6,15.0,12.0,260,7,,6.21,,,,,,,,,,,,FEW,1500,,,,,,,VFR,,,,,,,,,,,,METAR,1760.0
OYDM 210600Z 09003KT CAVOK 16/07 Q////,OYDM,2015-02-21T06:00:00Z,14.53,44.43,16.0,7.0,90,3,,6.21,,,,,,,,,,,,CAVOK,,,,,,,,VFR,,,,,,,,,,,,METAR,2425.0
NSFA 210600Z 13003KT 9999 FEW020 OVC280 28/26 Q1008,NSFA,2015-02-21T06:00:00Z,-13.83,-172.0,28.0,26.0,130,3,,6.21,29.763779,,,,,,,,,,,FEW,2000,OVC,28000,,,,,VFR,,,,,,,,,,,,METAR,5.0
OYIB 210600Z 04004KT CAVOK 20/12 Q1019,OYIB,2015-02-21T06:00:00Z,13.97,44.17,20.0,12.0,40,4,,6.21,30.088583,,,,,,,,,,,CAVOK,,,,,,,,VFR,,,,,,,,,,,,METAR,1920.0
OYMT 210600Z VRB02KT CAVOK 20/08 Q////,OYMT,2015-02-21T06:00:00Z,,,20.0,8.0,0,2,,6.21,,,,,,,,,,,,CAVOK,,,,,,,,VFR,,,,,,,,,,,,METAR,
OYMK 210600Z 27006KT CAVOK 26/23 Q////,OYMK,2015-02-21T06:00:00Z,13.32,43.27,26.0,23.0,270,6,,6.21,,,,,,,,,,,,CAVOK,,,,,,,,VFR,,,,,,,,,,,,METAR,3.0
OYSD 210600Z 27005KT CAVOK 19/M07 Q////,OYSD,2015-02-21T06:00:00Z,,,19.0,-7.0,270,5,,6.21,,,,,,,,,,,,CAVOK,,,,,,,,VFR,,,,,,,,,,,,METAR,
OYSH 210600Z 24008KT 9999 FEW025 18/08 Q1022,OYSH,2015-02-21T06:00:00Z,16.97,43.72,18.0,8.0,240,8,,6.21,30.177166,,,,,,,,,,,FEW,2500,,,,,,,VFR,,,,,,,,,,,,METAR,1890.0
OYSQ 210600Z 22005KT 9999 FEW018 26/21 Q1013,OYSQ,2015-02-21T06:00:00Z,12.62,53.88,26.0,21.0,220,5,,6.21,29.911417,,,,,,,,,,,FEW,1800,,,,,,,VFR,,,,,,,,,,,,METAR,45.0
OYTZ 210600Z 24003KT CAVOK 22/12 Q1019,OYTZ,2015-02-21T06:00:00Z,13.67,44.12,22.0,12.0,240,3,,6.21,30.088583,,,,,,,,,,,CAVOK,,,,,,,,VFR,,,,,,,,,,,,METAR,1385.0
UTNN 210600Z 03013KT CAVOK M02/M05 Q1019 R33/CLRD60 NOSIG,UTNN,2015-02-21T06:00:00Z,42.48,59.63,-2.0,-5.0,30,13,,6.21,30.088583,,,,,,TRUE,,,,,CAVOK,,,,,,,,VFR,,,,,,,,,,,,METAR,67.0
UTSA 210600Z 09017KT 4900 SHRA BR BKN044CB OVC100 09/05 Q1011 R07/2///60 NOSIG,UTSA,2015-02-21T06:00:00Z,40.12,65.17,9.0,5.0,90,17,,3.04,29.852362,,,,,,TRUE,,,,SHRA BR,BKN,4400,OVC,10000,,,,,MVFR,,,,,,,,,,,,METAR,346.0
UTNU 210600Z 04016KT CAVOK 02/M02 Q1015 R31/CLRD70 NOSIG,UTNU,2015-02-21T06:00:00Z,41.58,60.63,2.0,-2.0,40,16,,6.21,29.970472,,,,,,TRUE,,,,,CAVOK,,,,,,,,VFR,,,,,,,,,,,,METAR,98.0
UTSB 210600Z 05008KT 6000 -SHRA OVC054CB 09/07 Q1010 R01/220350 NOSIG,UTSB,2015-02-21T06:00:00Z,39.77,64.48,9.0,7.0,50,8,,3.73,29.822834,,,,,,TRUE,,,,-SHRA,OVC,5400,,,,,,,MVFR,,,,,,,,,,,,METAR,226.0
UTSK 210600Z 05007KT 9999 BKN043CB OVC100 13/10 Q1009 R16/290150,UTSK,2015-02-21T06:00:00Z,38.83,65.77,13.0,10.0,50,7,,6.21,29.793306,,,,,,,,,,,BKN,4300,OVC,10000,,,,,VFR,,,,,,,,,,,,METAR,1365.0
UTSS 210600Z 14006KT 110V170 5000 -SHRA BR OVC041CB 07/04 Q1012 R88/29//55 NOSIG,UTSS,2015-02-21T06:00:00Z,39.7,66.98,7.0,4.0,140,6,,3.11,29.88189,,,,,,TRUE,,,,-SHRA BR,OVC,4100,,,,,,,MVFR,,,,,,,,,,,,METAR,724.0
UTST 210600Z 03016KT 9999 BKN060CB BKN100 16/08 Q1011 R88/CLRD70 NOSIG,UTST,2015-02-21T06:00:00Z,37.28,67.32,16.0,8.0,30,16,,6.21,29.852362,,,,,,TRUE,,,,,BKN,6000,BKN,10000,,,,,VFR,,,,,,,,,,,,METAR,302.0
UTFF 210600Z 09002KT 5000 BR NSC 09/03 Q1014 R18/CLRD70,UTFF,2015-02-21T06:00:00Z,40.37,71.77,9.0,3.0,90,2,,3.11,29.940945,,,,,,,,,,BR,,,,,,,,,,,,,,,,,,,,,METAR,577.0
UTTT 210600Z 36006KT 320V060 9999 BKN066CB OVC100 12/01 Q1013 R88/19//60 NOSIG,UTTT,2015-02-21T06:00:00Z,41.27,69.27,12.0,1.0,360,6,,6.21,29.911417,,,,,,TRUE,,,,,BKN,6600,OVC,10000,,,,,VFR,,,,,,,,,,,,METAR,489.0
YSWG 210600Z 10010KT 080V170 9999 FEW075TCU 33/11 Q1011,YSWG,2015-02-21T06:00:00Z,-35.13,147.47,33.0,11.0,100,10,,6.21,29.852362,,,,,,,,,,,FEW,7500,,,,,,,VFR,,,,,,,,,,,,METAR,213.0
YTEF 210600Z AUTO 16003KT //// // ////// 44/07 Q1002,YTEF,2015-02-21T06:00:00Z,-21.72,122.23,44.0,7.0,160,3,,,29.586615,,,TRUE,,,,,,,,,,,,,,,,,,,,,,,,,,,,METAR,296.0
SAWE 210600Z 23006KT CAVOK 05/03 Q1012,SAWE,2015-02-21T06:00:00Z,-53.78,-67.75,5.0,3.0,230,6,,6.21,29.88189,,,,,,,,,,,CAVOK,,,,,,,,VFR,,,,,,,,,,,,METAR,22.0
MHLC 210600Z 00000KT 9999 FEW026 18/17 Q1018 A3006 NOSIG,MHLC,2015-02-21T06:00:00Z,15.75,-86.85,18.0,17.0,0,0,,6.21,30.059055,,,,,,TRUE,,,,,FEW,2600,,,,,,,VFR,,,,,,,,,,,,METAR,15.0
YTNK 210600Z AUTO 11010KT 9999 // SCT044 32/22 Q1004,YTNK,2015-02-21T06:00:00Z,-19.63,134.18,32.0,22.0,110,10,,6.21,29.64567,,,TRUE,,,,,,,,SCT,4400,,,,,,,VFR,,,,,,,,,,,,METAR,377.0
YWGT 210600Z AUTO 04009KT 040V100 //// // ////// 35/05 Q1010,YWGT,2015-02-21T06:00:00Z,-36.42,146.3,35.0,5.0,40,9,,,29.822834,,,TRUE,,,,,,,,,,,,,,,,,,,,,,,,,,,,METAR,153.0
YWHA 210600Z AUTO 13009KT //// // ////// 38/09 Q1006,YWHA,2015-02-21T06:00:00Z,-33.07,137.52,38.0,9.0,130,9,,,29.704725,,,TRUE,,,,,,,,,,,,,,,,,,,,,,,,,,,,METAR,13.0
CYAM 210600Z 15005KT 120V180 3SM -SN FEW022 SCT050 BKN100 OVC180 M13/M15 A2988 RMK SC1SC2AC3AC2 SLP136,CYAM,2015-02-21T06:00:00Z,46.47,-84.52,-13.0,-15.0,150,5,,3.0,29.878937,1013.6,,,,,,,,,-SN,FEW,2200,SCT,5000,BKN,10000,OVC,18000,MVFR,,,,,,,,,,,,METAR,192.0
CYMA 210600Z 01007KT 350V050 20SM OVC018 M05/M08 A3043 RMK SC8 CLIAMT -3.8/-5.6/0.0 SOG 35 SLP345,CYMA,2015-02-21T06:00:00Z,63.62,-135.87,-5.0,-8.0,10,7,,20.0,30.431103,1034.5,,,,,,,,,,OVC,1800,,,,,,,MVFR,,,,,,,,,,,,METAR,504.0
CYTH 210600Z 32004KT 15SM SKC M33/M36 A3016 RMK SLP248,CYTH,2015-02-21T06:00:00Z,55.78,-97.87,-33.0,-36.0,320,4,,15.0,30.159449,1024.8,,,,,,,,,,SKC,,,,,,,,VFR,,,,,,,,,,,,METAR,218.0
CYYR 210600Z 24022G27KT 15SM DRSN FEW029 SCT150 M13/M19 A2918 RMK SC2AC2 G35 PAST HR SLP884,CYYR,2015-02-21T06:00:00Z,53.32,-60.42,-13.0,-19.0,240,22,27,15.0,29.179134,988.4,,,,,,,,,DRSN,FEW,2900,SCT,15000,,,,,VFR,,,,,,,,,,,,SPECI,49.0
FSPP 210600Z 01006KT //// //// 29/21 Q1013,FSPP,2015-02-21T06:00:00Z,-4.32,55.7,29.0,21.0,10,6,,,29.911417,,,,,,,,,,,,,,,,,,,,,,,,,,,,,,,METAR,4.0
DAAS 210600Z 12002KT 8000 FEW010 BKN026 04/03 Q1010,DAAS,2015-02-21T06:00:00Z,36.18,5.33,4.0,3.0,120,2,,4.97,29.822834,,,,,,,,,,,FEW,1000,BKN,2600,,,,,MVFR,,,,,,,,,,,,METAR,1038.0
VTPO 210600Z 16004KT 6000 FEW022 31/22 Q1012,VTPO,2015-02-21T06:00:00Z,17.23,99.82,31.0,22.0,160,4,,3.73,29.88189,,,,,,,,,,,FEW,2200,,,,,,,MVFR,,,,,,,,,,,,METAR,54.0
OITZ 210600Z 00000KT 9999 SCT030CB BKN035 OVC080 M02/M03 Q1005,OITZ,2015-02-21T06:00:00Z,36.77,48.37,-2.0,-3.0,0,0,,6.21,29.675198,,,,,,,,,,,SCT,3000,BKN,3500,OVC,8000,,,VFR,,,,,,,,,,,,METAR,1663.0
OISY 210600Z 00000KT 2000 -SN FEW030CB SCT035 OVC070 M00/M01 Q1011,OISY,2015-02-21T06:00:00Z,30.7,51.55,0.0,-1.0,0,0,,1.24,29.852362,,,,,,,,,,-SN,FEW,3000,SCT,3500,OVC,7000,,,IFR,,,,,,,,,,,,METAR,1811.0
OISL 210600Z 29008KT 3000 DU FEW035CB FEW040 OVC100 19/08 Q1008,OISL,2015-02-21T06:00:00Z,27.67,54.37,19.0,8.0,290,8,,1.86,29.763779,,,,,,,,,,DU,FEW,3500,FEW,4000,OVC,10000,,,IFR,,,,,,,,,,,,METAR,805.0
OINR 210600Z 00000KT 9999 FEW010 FEW023CB BKN027 OVC080 07/05 Q1010,OINR,2015-02-21T06:00:00Z,36.88,50.67,7.0,5.0,0,0,,6.21,29.822834,,,,,,,,,,,FEW,1000,FEW,2300,BKN,2700,OVC,8000,MVFR,,,,,,,,,,,,METAR,-20.0
OINN 210600Z 27004KT 9999 OVC010 08/04 Q1010,OINN,2015-02-21T06:00:00Z,36.67,51.47,8.0,4.0,270,4,,6.21,29.822834,,,,,,,,,,,OVC,1000,,,,,,,MVFR,,,,,,,,,,,,METAR,-19.0
OIKQ 210600Z 00000KT 1500 DU FEW030 SCT100 27/20 Q1006,OIKQ,2015-02-21T06:00:00Z,26.75,55.9,27.0,20.0,0,0,,0.93,29.704725,,,,,,,,,,DU,FEW,3000,SCT,10000,,,,,LIFR,,,,,,,,,,,,METAR,12.0
OICI 210600Z 15006KT 1000 SN BKN010 OVC060 M01/M01 Q1008 A2977,OICI,2015-02-21T06:00:00Z,33.58,46.4,-1.0,-1.0,150,6,,0.62,29.763779,,,,,,,,,,SN,BKN,1000,OVC,6000,,,,,LIFR,,,,,,,,,,,,METAR,1343.0
OIAM 210600Z 26004KT 5000 DU NSC 12/07 Q1012,OIAM,2015-02-21T06:00:00Z,30.55,49.15,12.0,7.0,260,4,,3.11,29.88189,,,,,,,,,,DU,,,,,,,,,,,,,,,,,,,,,METAR,4.0
MYNN 210600Z 09006KT 9999 FEW020 SCT030 18/13 A3030,MYNN,2015-02-21T06:00:00Z,25.03,-77.47,18.0,13.0,90,6,,6.21,30.301182,,,,,,,,,,,FEW,2000,SCT,3000,,,,,VFR,,,,,,,,,,,,METAR,3.0
TNCE 210600Z AUTO 07010KT //// ////// ///// Q1018,TNCE,2015-02-21T06:00:00Z,17.47,-62.97,,,70,10,,,30.059055,,,TRUE,,,,,,,,,,,,,,,,,,,,,,,,,,,,SPECI,39.0
TNCB 210600Z AUTO 05011KT 020V080 //// ////// 26/22 Q1013 NOSIG,TNCB,2015-02-21T06:00:00Z,12.13,-68.28,26.0,22.0,50,11,,,29.911417,,,TRUE,,,TRUE,,,,,,,,,,,,,,,,,,,,,,,,,SPECI,6.0
TNCC 210600Z 08012KT 9999 SCT016 26/22 Q1014 NOSIG,TNCC,2015-02-21T06:00:00Z,12.2,-68.97,26.0,22.0,80,12,,6.21,29.940945,,,,,,TRUE,,,,,SCT,1600,,,,,,,VFR,,,,,,,,,,,,METAR,9.0
FNLU 210600Z VRB02KT 9999 SCT018 BKN020 26/23 Q1009 NOSIG,FNLU,2015-02-21T06:00:00Z,-8.83,13.22,26.0,23.0,0,2,,6.21,29.793306,,,,,,TRUE,,,,,SCT,1800,BKN,2000,,,,,MVFR,,,,,,,,,,,,METAR,70.0
WSAP 210600Z 06008KT 9999 FEW024 BKN300 32/22 Q1010,WSAP,2015-02-21T06:00:00Z,1.37,103.92,32.0,22.0,60,8,,6.21,29.822834,,,,,,,,,,,FEW,2400,BKN,30000,,,,,VFR,,,,,,,,,,,,METAR,32.0
TGPY 210600Z 10012KT 9999 SCT018 25/23 Q1013,TGPY,2015-02-21T06:00:00Z,12.0,-61.78,25.0,23.0,100,12,,6.21,29.911417,,,,,,,,,,,SCT,1800,,,,,,,VFR,,,,,,,,,,,,METAR,7.0
RPLC 210600Z 11005KT 9999 SCT020 BKN100 29/19 Q1014 RMK NOSIG A2996,RPLC,2015-02-21T06:00:00Z,15.17,120.58,29.0,19.0,110,5,,6.21,29.940945,,,,,,,,,,,SCT,2000,BKN,10000,,,,,VFR,,,,,,,,,,,,METAR,196.0
MROC 210600Z 09008G18KT 9999 FEW030 21/16 A3003 NOSIG,MROC,2015-02-21T06:00:00Z,10.0,-84.22,21.0,16.0,90,8,18,6.21,30.029528,,,,,,TRUE,,,,,FEW,3000,,,,,,,VFR,,,,,,,,,,,,METAR,920.0
GMML 210600Z 03010KT CAVOK 13/09 Q1019 NOSIG,GMML,2015-02-21T06:00:00Z,27.13,-13.23,13.0,9.0,30,10,,6.21,30.088583,,,,,,TRUE,,,,,CAVOK,,,,,,,,VFR,,,,,,,,,,,,METAR,6.0
CXZC 210600Z AUTO 19002KT M18/M20 RMK AO1 SOG 76 6006 SLP117 T11761195,CXZC,2015-02-21T06:00:00Z,51.3,-80.62,-17.6,-19.5,190,2,,,,1011.7,,TRUE,TRUE,,,,,,,,,,,,,,,,,,,,,,,,,,,METAR,9.0
CZCR 210600Z AUTO 25010G17KT M15/M20 RMK AO1 PRESRR PK WND 23020/0543 SLP163 T11461201 52070,CZCR,2015-02-21T06:00:00Z,47.97,-66.32,-14.6,-20.1,250,10,17,,,1016.3,,TRUE,TRUE,,,,,,,,,,,,,,,,7.0,,,,,,,,,,,METAR,38.0
CZDB 210600Z AUTO 27012KT M11/M17 RMK AO1 PK WND 28020/0527 SLP198 T11131166 52048,CZDB,2015-02-21T06:00:00Z,45.42,-63.47,-11.3,-16.6,270,12,,,,1019.8,,TRUE,TRUE,,,,,,,,,,,,,,,,4.8,,,,,,,,,,,METAR,38.0
CWDO 210600Z AUTO M06/M12 RMK AO1 36 0505Z SOG 16 1012 SLP031 T10591124,CWDO,2015-02-21T06:00:00Z,49.67,-54.78,-5.9,-12.4,,,,,,1003.1,,TRUE,TRUE,,,,,,,,,,,,,,,,,,,,,,,,,,,METAR,92.0
CWRA 210600Z AUTO 27017G22KT M00/ RMK AO1 PK WND 28025/0535 SLP129 T1001 52025,CWRA,2015-02-21T06:00:00Z,46.63,-53.07,-0.1,,270,17,22,,,1012.9,,TRUE,TRUE,,,,,,,,,,,,,,,,2.5,,,,,,,,,,,METAR,28.0
CWIY 210600Z AUTO M17/M21 RMK AO1 SLP205 T11691214 51055,CWIY,2015-02-21T06:00:00Z,47.13,-67.82,-16.9,-21.4,,,,,,1020.5,,TRUE,TRUE,,,,,,,,,,,,,,,,5.5,,,,,,,,,,,METAR,241.0
CWEB 210600Z AUTO 08004KT 05/05 RMK AO1 SLP255 T00520050 53002,CWEB,2015-02-21T06:00:00Z,49.38,-126.55,5.2,5.0,80,4,,,,1025.5,,TRUE,TRUE,,,,,,,,,,,,,,,,0.2,,,,,,,,,,,METAR,7.0
CWFF 210600Z AUTO 35002KT M21/M25 RMK AO1 SOG 18 1015 SLP273 T12081254 50002,CWFF,2015-02-21T06:00:00Z,52.82,-104.58,-20.8,-25.4,350,2,,,,1027.3,,TRUE,TRUE,,,,,,,,,,,,,,,,0.2,,,,,,,,,,,METAR,490.0
CWGD 210600Z AUTO 17011G16KT M14/M17 RMK AO1 SOG 11 8023 PK WND 18018/0528 SLP193 T11381168,CWGD,2015-02-21T06:00:00Z,43.77,-81.72,-13.8,-16.8,170,11,16,,,1019.3,,TRUE,TRUE,,,,,,,,,,,,,,,,,,,,,,,,,,,METAR,214.0
CWCF 210600Z AUTO 34002KT M27/M30 RMK AO1 SOG 17 1019 SLP219 T12661298,CWCF,2015-02-21T06:00:00Z,52.35,-97.03,-26.6,-29.8,340,2,,,,1021.9,,TRUE,TRUE,,,,,,,,,,,,,,,,,,,,,,,,,,,METAR,222.0
CWGL 210600Z AUTO 16010KT M17/M22 RMK AO1 SLP228 T11691216 58017,CWGL,2015-02-21T06:00:00Z,44.52,-79.22,-16.9,-21.6,160,10,,,,1022.8,,TRUE,TRUE,,,,,,,,,,,,,,,,-1.7,,,,,,,,,,,METAR,221.0
CWDK 210600Z AUTO 06005KT M04/M06 RMK AO1 SLP274 T10441063 51014,CWDK,2015-02-21T06:00:00Z,50.02,-113.62,-4.4,-6.3,60,5,,,,1027.4,,TRUE,TRUE,,,,,,,,,,,,,,,,1.4,,,,,,,,,,,METAR,1012.0
CWYL 210600Z AUTO 28001KT M05/M06 RMK AO1 SOG 85 1006 SLP216 T10511058 50002,CWYL,2015-02-21T06:00:00Z,51.45,-116.32,-5.1,-5.8,280,1,,,,1021.6,,TRUE,TRUE,,,,,,,,,,,,,,,,0.2,,,,,,,,,,,METAR,1615.0
CXSE 210600Z AUTO 19017KT M23/M25 RMK AO1 PK WND 20019/0510 SLP273 T12261249 58029,CXSE,2015-02-21T06:00:00Z,73.77,-105.28,-22.6,-24.9,190,17,,,,1027.3,,TRUE,TRUE,,,,,,,,,,,,,,,,-2.9,,,,,,,,,,,METAR,11.0
CZRP 210600Z AUTO 15014KT M26/M28 RMK AO1 PK WND 16023/0500 SLP255 T12581283 56023,CZRP,2015-02-21T06:00:00Z,75.37,-105.72,-25.8,-28.3,150,14,,,,1025.5,,TRUE,TRUE,,,,,,,,,,,,,,,,-2.3,,,,,,,,,,,METAR,12.0
CZTB 210600Z AUTO 23003KT M16/M18 RMK AO1 3009 SLP108 T11611179 50002,CZTB,2015-02-21T06:00:00Z,48.37,-89.32,-16.1,-17.9,230,3,,,,1010.8,,TRUE,TRUE,,,,,,,,,,,,,,,,0.2,,,,,,,,,,,METAR,199.0
CZEV 210600Z AUTO 11006KT M07/M10 RMK AO1 SOG 38 7013 SLP243 T10721101,CZEV,2015-02-21T06:00:00Z,68.32,-133.52,-7.2,-10.1,110,6,,,,1024.3,,TRUE,TRUE,,,,,,,,,,,,,,,,,,,,,,,,,,,METAR,103.0
CZFS 210600Z AUTO 12004KT M11/M13 RMK AO1 SOG 41 1010 SLP377 T11131129,CZFS,2015-02-21T06:00:00Z,61.77,-121.23,-11.3,-12.9,120,4,,,,1037.7,,TRUE,TRUE,,,,,,,,,,,,,,,,,,,,,,,,,,,METAR,168.0
CZHY 210600Z AUTO 00000KT M32/M36 RMK AO1 SOG 34 1018 SLP407 T13231361 50002,CZHY,2015-02-21T06:00:00Z,60.83,-115.78,-32.3,-36.1,0,0,,,,1040.7,,TRUE,TRUE,,,,,,,,,,,,,,,,0.2,,,,,,,,,,,METAR,164.0
CWVP 210600Z AUTO 34008KT M14/M16 RMK AO1 SOG 10 1020 PK WND 02019/0508 SLP228 T11391157 50009,CWVP,2015-02-21T06:00:00Z,49.63,-109.52,-13.9,-15.7,340,8,,,,1022.8,,TRUE,TRUE,,,,,,,,,,,,,,,,0.9,,,,,,,,,,,METAR,1271.0
CWNC 210600Z AUTO 22017G22KT M10/M16 RMK AO1 SOG 10 8013 PK WND 22022/0557 SLP240 T10961159,CWNC,2015-02-21T06:00:00Z,43.95,-78.17,-9.6,-15.9,220,17,22,,,1024.0,,TRUE,TRUE,,,,,,,,,,,,,,,,,,,,,,,,,,,METAR,78.0
CWLS 210600Z AUTO 19010G16KT M16/M21 RMK AO1 SOG 26 8019 SLP210 T11601209,CWLS,2015-02-21T06:00:00Z,43.97,-80.75,-16.0,-20.9,190,10,16,,,1021.0,,TRUE,TRUE,,,,,,,,,,,,,,,,,,,,,,,,,,,METAR,415.0
CWXA 210600Z AUTO 32001KT M06/M07 RMK AO1 2PAST HR 1010 SLP254 P0001 T10601074 50009,CWXA,2015-02-21T06:00:00Z,51.07,-115.07,-6.0,-7.4,320,1,,,,1025.4,,TRUE,TRUE,,,,,,,,,,,,,,,,0.9,,,,,0.01,,,,,,METAR,1298.0
CXCA 210600Z AUTO 01002KT M19/M20 RMK AO1 SLP108 T11851204 53003,CXCA,2015-02-21T06:00:00Z,49.15,-88.35,-18.5,-20.4,10,2,,,,1010.8,,TRUE,TRUE,,,,,,,,,,,,,,,,0.3,,,,,,,,,,,METAR,228.0
CWNZ 210600Z AUTO 14002KT M17/M19 RMK AO1 2PAST HR 6011 SLP098 P0001 T11741191 50008,CWNZ,2015-02-21T06:00:00Z,49.75,-84.17,-17.4,-19.1,140,2,,,,1009.8,,TRUE,TRUE,,,,,,,,,,,,,,,,0.8,,,,,0.01,,,,,,METAR,256.0
CXDE 210600Z AUTO 11006KT M13/M14 RMK AO1 SOG 14 8010 SLP333 T11281139,CXDE,2015-02-21T06:00:00Z,65.22,-123.43,-12.8,-13.9,110,6,,,,1033.3,,TRUE,TRUE,,,,,,,,,,,,,,,,,,,,,,,,,,,METAR,213.0
CXDI 210600Z AUTO 15002KT M15/M20 RMK AO1 SLP221 T11541202 56023,CXDI,2015-02-21T06:00:00Z,42.87,-80.55,-15.4,-20.2,150,2,,,,1022.1,,TRUE,TRUE,,,,,,,,,,,,,,,,-2.3,,,,,,,,,,,METAR,232.0
CXEG 210600Z AUTO M08/M08 RMK AO1 SOG 11 T10761084,CXEG,2015-02-21T06:00:00Z,53.3,-113.6,-7.6,-8.4,,,,,,,,TRUE,TRUE,,,,,,,,,,,,,,,,,,,,,,,,,,,METAR,715.0
CXEC 210600Z AUTO M07/ RMK AO1 T1071,CXEC,2015-02-21T06:00:00Z,53.57,-113.52,-7.1,,,,,,,,,TRUE,TRUE,,,,,,,,,,,,,,,,,,,,,,,,,,,METAR,671.0
CXMY 210600Z AUTO M10/M14 RMK AO1 T10951137,CXMY,2015-02-21T06:00:00Z,44.98,-62.48,-9.5,-13.7,,,,,,,,TRUE,TRUE,,,,,,,,,,,,,,,,,,,,,,,,,,,METAR,40.0
CXRH 210600Z AUTO 22014G23KT M08/M11 RMK AO1 28 0541Z SOG 56 T10831108,CXRH,2015-02-21T06:00:00Z,49.57,-57.88,-8.3,-10.8,220,14,23,,,,,TRUE,TRUE,,,,,,,,,,,,,,,,,,,,,,,,,,,METAR,68.0
CXTP 210600Z AUTO 23014G24KT M03/M07 RMK AO1 SOG 33 5003 PK WND 23026/0506 SLP060 T10341072,CXTP,2015-02-21T06:00:00Z,48.55,-53.97,-3.4,-7.2,230,14,24,,,1006.0,,TRUE,TRUE,,,,,,,,,,,,,,,,,,,,,,,,,,,METAR,107.0
CWJW 210600Z AUTO 01005KT M01/M03 RMK AO1 SOG 21 3023 SLP269 T10141032 50011,CWJW,2015-02-21T06:00:00Z,52.93,-118.03,-1.4,-3.2,10,5,,,,1026.9,,TRUE,TRUE,,,,,,,,,,,,,,,,1.1,,,,,,,,,,,METAR,1020.0
OEDM 210600Z 29015KT CAVOK 10/M06 Q1015,OEDM,2015-02-21T06:00:00Z,24.45,44.12,10.0,-6.0,290,15,,6.21,29.970472,,,,,,,,,,,CAVOK,,,,,,,,VFR,,,,,,,,,,,,METAR,922.0
OEKJ 210600Z 01015KT 3000 DU NSC 13/M03 Q1014,OEKJ,2015-02-21T06:00:00Z,24.07,47.58,13.0,-3.0,10,15,,1.86,29.940945,,,,,,,,,,DU,,,,,,,,,,,,,,,,,,,,,METAR,503.0
OERR 210600Z 27020KT 9999 BKN045 07/07 Q1008 RERA NOSIG,OERR,2015-02-21T06:00:00Z,30.88,41.12,7.0,7.0,270,20,,6.21,29.763779,,,,,,TRUE,,,,,BKN,4500,,,,,,,VFR,,,,,,,,,,,,METAR,552.0
RKSM 210600Z 17002KT 6000 -RA BR SCT015 OVC030 06/04 A3003,RKSM,2015-02-21T06:00:00Z,37.42,127.12,6.0,4.0,170,2,,3.73,30.029528,,,,,,,,,,-RA BR,SCT,1500,OVC,3000,,,,,MVFR,,,,,,,,,,,,METAR,20.0
VIDP 210600Z 32006KT 2000 FU NSC 25/10 Q1017 NOSIG,VIDP,2015-02-21T06:00:00Z,28.57,77.12,25.0,10.0,320,6,,1.24,30.029528,,,,,,TRUE,,,,FU,,,,,,,,,,,,,,,,,,,,,METAR,233.0
VILK 210600Z 31005KT 4500 HZ NSC 28/15 Q1014 BECMG 5000,VILK,2015-02-21T06:00:00Z,26.75,80.87,28.0,15.0,310,5,,2.8,29.940945,,,,,,,,,,HZ,,,,,,,,,,,,,,,,,,,,,METAR,128.0
VIAR 210600Z 32005KT 5000 HZ SCT100 19/11 Q1019,VIAR,2015-02-21T06:00:00Z,31.7,74.8,19.0,11.0,320,5,,3.11,30.088583,,,,,,,,,,HZ,SCT,10000,,,,,,,MVFR,,,,,,,,,,,,METAR,234.0
VIJP 210600Z VRB06KT 3000 FU NSC 29/10 Q1018 NOSIG,VIJP,2015-02-21T06:00:00Z,26.82,75.78,29.0,10.0,0,6,,1.86,30.059055,,,,,,TRUE,,,,FU,,,,,,,,,,,,,,,,,,,,,METAR,390.0
YRMD 210600Z AUTO 29006KT 270V350 //// // ////// 39/18 Q1005,YRMD,2015-02-21T06:00:00Z,-20.7,143.12,39.0,18.0,290,6,,,29.675198,,,TRUE,,,,,,,,,,,,,,,,,,,,,,,,,,,,METAR,207.0
YSNW 210600Z AUTO 10003KT 9999 // SCT061 SCT115 22/19 Q1015,YSNW,2015-02-21T06:00:00Z,-34.95,150.52,22.0,19.0,100,3,,6.21,29.970472,,,TRUE,,,,,,,,SCT,6100,SCT,11500,,,,,VFR,,,,,,,,,,,,METAR,110.0
YGLA 210600Z AUTO 23007KT 9999 // NCD 32/23 Q1005,YGLA,2015-02-21T06:00:00Z,-23.87,151.22,32.0,23.0,230,7,,6.21,29.675198,,,TRUE,,,,,,,,,,,,,,,,,,,,,,,,,,,,METAR,52.0
YGTE 210600Z AUTO 36013KT 9999 // NCD 30/24 Q1004,YGTE,2015-02-21T06:00:00Z,-13.97,136.45,30.0,24.0,360,13,,6.21,29.64567,,,TRUE,,,,,,,,,,,,,,,,,,,,,,,,,,,,METAR,14.0
YGTH 210600Z AUTO 10010KT 9999 // NCD 34/14 Q1010,YGTH,2015-02-21T06:00:00Z,-34.25,146.07,34.0,14.0,100,10,,6.21,29.822834,,,TRUE,,,,,,,,,,,,,,,,,,,,,,,,,,,,METAR,134.0
YHUG 210600Z AUTO 26011KT //// // ////// 38/15 Q1006,YHUG,2015-02-21T06:00:00Z,-20.82,144.23,38.0,15.0,260,11,,,29.704725,,,TRUE,,,,,,,,,,,,,,,,,,,,,,,,,,,,METAR,318.0
YKRY 210600Z AUTO 18013KT //// // ////// 24/23 Q1007,YKRY,2015-02-21T06:00:00Z,-26.57,151.83,24.0,23.0,180,13,,,29.734253,,,TRUE,,,,,,,,,,,,,,,,,,,,,,,,,,,,METAR,434.0
YLEC 210600Z AUTO 07009KT //// // ////// 36/11 Q1008,YLEC,2015-02-21T06:00:00Z,-30.6,138.43,36.0,11.0,70,9,,,29.763779,,,TRUE,,,,,,,,,,,,,,,,,,,,,,,,,,,,METAR,262.0
YBHI 210600Z AUTO 10008KT 020V110 9999 // SCT072 34/13 Q1010,YBHI,2015-02-21T06:00:00Z,-32.0,141.47,34.0,13.0,100,8,,6.21,29.822834,,,TRUE,,,,,,,,SCT,7200,,,,,,,VFR,,,,,,,,,,,,METAR,292.0
YBMK 210600Z AUTO 35009KT 9999 // OVC110 31/26 Q1006,YBMK,2015-02-21T06:00:00Z,-21.17,149.17,31.0,26.0,350,9,,6.21,29.704725,,,TRUE,,,,,,,,OVC,11000,,,,,,,VFR,,,,,,,,,,,,METAR,31.0
YBNA 210600Z AUTO 16010KT 9999 // SCT008 BKN019 BKN048 25/24 Q1007,YBNA,2015-02-21T06:00:00Z,-28.83,153.57,25.0,24.0,160,10,,6.21,29.734253,,,TRUE,,,,,,,,SCT,800,BKN,1900,BKN,4800,,,MVFR,,,,,,,,,,,,METAR,2.0
YBPN 210600Z AUTO 35011KT 9999 // NCD 33/27 Q1004,YBPN,2015-02-21T06:00:00Z,-20.5,148.55,33.0,27.0,350,11,,6.21,29.64567,,,TRUE,,,,,,,,,,,,,,,,,,,,,,,,,,,,METAR,25.0
YBOK 210600Z AUTO 17020KT 9999 // OVC066 27/20 Q1007,YBOK,2015-02-21T06:00:00Z,-27.42,151.72,27.0,20.0,170,20,,6.21,29.734253,,,TRUE,,,,,,,,OVC,6600,,,,,,,VFR,,,,,,,,,,,,METAR,407.0
YNAR 210600Z AUTO 08006KT 070V130 //// // ////// 35/14 Q1010,YNAR,2015-02-21T06:00:00Z,-34.7,146.52,35.0,14.0,80,6,,,29.822834,,,TRUE,,,,,,,,,,,,,,,,,,,,,,,,,,,,METAR,145.0
YNBR 210600Z AUTO 13010KT //// // ////// 32/17 Q1008,YNBR,2015-02-21T06:00:00Z,-30.32,149.83,32.0,17.0,130,10,,,29.763779,,,TRUE,,,,,,,,,,,,,,,,,,,,,,,,,,,,METAR,240.0
YNTN 210600Z AUTO 33016KT //// // ////// 34/25 Q1006,YNTN,2015-02-21T06:00:00Z,-17.68,141.07,34.0,25.0,330,16,,,29.704725,,,TRUE,,,,,,,,,,,,,,,,,,,,,,,,,,,,METAR,22.0
YNWN 210600Z AUTO 11006KT 070V160 //// // ////// 40/07 Q1006,YNWN,2015-02-21T06:00:00Z,-23.42,119.8,40.0,7.0,110,6,,,29.704725,,,TRUE,,,,,,,,,,,,,,,,,,,,,,,,,,,,METAR,525.0
YOLD 210600Z AUTO 07005KT 320V110 9999 // ////// 36/09 Q1007,YOLD,2015-02-21T06:00:00Z,-30.48,136.88,36.0,9.0,70,5,,6.21,29.734253,,,TRUE,,,,,,,,,,,,,,,,,,,,,,,,,,,,METAR,105.0
YPBO 210600Z AUTO 33009KT 270V330 9999 // NCD 43/05 Q1004,YPBO,2015-02-21T06:00:00Z,-23.2,117.75,43.0,5.0,330,9,,6.21,29.64567,,,TRUE,,,,,,,,,,,,,,,,,,,,,,,,,,,,METAR,1292.0
YCNM 210600Z AUTO 12006KT 060V150 //// // ////// 34/13 Q1008,YCNM,2015-02-21T06:00:00Z,-30.98,148.38,34.0,13.0,120,6,,,29.763779,,,TRUE,,,,,,,,,,,,,,,,,,,,,,,,,,,,METAR,184.0
YCDU 210600Z AUTO 19017KT 9999 // NCD 27/17 Q1006,YCDU,2015-02-21T06:00:00Z,-32.12,133.7,27.0,17.0,190,17,,6.21,29.704725,,,TRUE,,,,,,,,,,,,,,,,,,,,,,,,,,,,METAR,15.0
YCOM 210600Z AUTO 08010KT 050V110 //// // NCD 24/14 Q1018,YCOM,2015-02-21T06:00:00Z,-36.3,148.97,24.0,14.0,80,10,,,30.059055,,,TRUE,,,,,,,,,,,,,,,,,,,,,,,,,,,,METAR,941.0
YDBY 210600Z AUTO 35010KT //// // ////// 35/22 Q1002,YDBY,2015-02-21T06:00:00Z,-17.37,123.67,35.0,22.0,350,10,,,29.586615,,,TRUE,,,,,,,,,,,,,,,,,,,,,,,,,,,,METAR,7.0
YEML 210600Z AUTO 23012KT 9999 // NCD 38/16 Q1005,YEML,2015-02-21T06:00:00Z,-23.57,148.18,38.0,16.0,230,12,,6.21,29.675198,,,TRUE,,,,,,,,,,,,,,,,,,,,,,,,,,,,METAR,190.0
PLCH 210600Z 210600Z11006KT 9999 SCT020 26/22 Q1009,PLCH,2015-02-21T06:00:00Z,1.98,-157.35,26.0,22.0,110,6,,6.21,29.793306,,,,,,,,,,,SCT,2000,,,,,,,VFR,,,-6.0,,,,,,,,,METAR,3.0
FXMM 210600Z 00000KT 9999 BKN030 20/14 Q1021 NOSIG,FXMM,2015-02-21T06:00:00Z,-29.47,27.55,20.0,14.0,0,0,,6.21,30.147638,,,,,,TRUE,,,,,BKN,3000,,,,,,,MVFR,,,,,,,,,,,,METAR,1631.0
YESP 210600Z AUTO 15009KT 130V210 9999 // SCT043 25/13 Q1012,YESP,2015-02-21T06:00:00Z,-33.68,121.82,25.0,13.0,150,9,,6.21,29.88189,,,TRUE,,,,,,,,SCT,4300,,,,,,,VFR,,,,,,,,,,,,METAR,143.0
RJSN 210600Z 03008KT 9999 FEW020 BKN/// 08/M00 Q1025,RJSN,2015-02-21T06:00:00Z,37.95,139.12,8.0,0.0,30,8,,6.21,30.265747,,,,,,,,,,,FEW,2000,,,,,,,VFR,,,,,,,,,,,,METAR,4.0
SBMN 210600Z 12003KT 9999 FEW011 26/24 Q1010,SBMN,2015-02-21T06:00:00Z,-3.13,-59.97,26.0,24.0,120,3,,6.21,29.822834,,,,,,,,,,,FEW,1100,,,,,,,VFR,,,,,,,,,,,,METAR,84.0
OYHD 210600Z 31006KT 250V360 7000 SCT030 27/23 Q1013,OYHD,2015-02-21T06:00:00Z,14.75,42.97,27.0,23.0,310,6,,4.35,29.911417,,,,,,,,,,,SCT,3000,,,,,,,MVFR,,,,,,,,,,,,METAR,115.0
FWKI 210600Z 13004KT 9999 BKN015 BKN080 20/19 Q1017 NOSIG,FWKI,2015-02-21T06:00:00Z,-13.77,33.77,20.0,19.0,130,4,,6.21,30.029528,,,,,,TRUE,,,,,BKN,1500,BKN,8000,,,,,MVFR,,,,,,,,,,,,METAR,1229.0
ZUGY 210600Z 03004MPS 9999 FEW009 OVC040 11/09 Q1015 NOSIG,ZUGY,2015-02-21T06:00:00Z,26.53,106.8,11.0,9.0,30,8,,6.21,29.970472,,,,,,TRUE,,,,,FEW,900,OVC,4000,,,,,VFR,,,,,,,,,,,,METAR,1074.0
DTTX 210600Z 13010KT 8000 SCT020 BKN026 13/10 Q1011,DTTX,2015-02-21T06:00:00Z,34.72,10.67,13.0,10.0,130,10,,4.97,29.852362,,,,,,,,,,,SCT,2000,BKN,2600,,,,,MVFR,,,,,,,,,,,,METAR,23.0
UBBQ 210600Z 33004KT 9999 OVC003 02/00 Q1016 R16/29//60 NOSIG RMK MT OBSC,UBBQ,2015-02-21T06:00:00Z,40.82,47.72,2.0,0.0,330,4,,6.21,30.0,,,,,,TRUE,,,,,OVC,300,,,,,,,LIFR,,,,,,,,,,,,METAR,338.0
UBBY 210600Z 31003KT 2000 BR OVC006 01/01 Q1019 R33/////// NOSIG RMK MT OBSC,UBBY,2015-02-21T06:00:00Z,41.57,46.67,1.0,1.0,310,3,,1.24,30.088583,,,,,,TRUE,,,,BR,OVC,600,,,,,,,IFR,,,,,,,,,,,,METAR,390.0
SPCL 210600Z 24005KT 210V280 8000 OVC013 24/23 Q1009 RMK PP000,SPCL,2015-02-21T06:00:00Z,-8.38,-74.58,24.0,23.0,240,5,,4.97,29.793306,,,,,,,,,,,OVC,1300,,,,,,,MVFR,,,,,,,,,,,,METAR,149.0
OERY 210600Z 36008KT 5000 DU SKC 12/01 Q1015,OERY,2015-02-21T06:00:00Z,24.72,46.72,12.0,1.0,360,8,,3.11,29.970472,,,,,,,,,,DU,SKC,,,,,,,,MVFR,,,,,,,,,,,,METAR,612.0
OERK 210600Z 01010KT 7000 SKC 12/M03 Q1015 NOSIG,OERK,2015-02-21T06:00:00Z,24.95,46.72,12.0,-3.0,10,10,,4.35,29.970472,,,,,,TRUE,,,,,SKC,,,,,,,,MVFR,,,,,,,,,,,,METAR,612.0
OEMA 210600Z 30004KT 9000 SCT045 13/M01 Q1017 NOSIG,OEMA,2015-02-21T06:00:00Z,24.55,39.7,13.0,-1.0,300,4,,5.59,30.029528,,,,,,TRUE,,,,,SCT,4500,,,,,,,VFR,,,,,,,,,,,,METAR,631.0
OEJN 210600Z 03010KT 9999 SCT040 19/04 Q1016 NOSIG,OEJN,2015-02-21T06:00:00Z,21.68,39.15,19.0,4.0,30,10,,6.21,30.0,,,,,,TRUE,,,,,SCT,4000,,,,,,,VFR,,,,,,,,,,,,METAR,15.0
OEDR 210600Z 34021KT 3500 BLDU SCT040 BKN080 18/05 Q1010 NOSIG,OEDR,2015-02-21T06:00:00Z,26.27,50.17,18.0,5.0,340,21,,2.17,29.822834,,,,,,TRUE,,,,BLDU,SCT,4000,BKN,8000,,,,,IFR,,,,,,,,,,,,METAR,17.0
OEDF 210600Z 34018KT 5000 BLDU NSC 17/03 Q1012 NOSIG,OEDF,2015-02-21T06:00:00Z,26.47,49.8,17.0,3.0,340,18,,3.11,29.88189,,,,,,TRUE,,,,BLDU,,,,,,,,,,,,,,,,,,,,,METAR,22.0
CXSR 210600Z AUTO 33007KT M04/M04 RMK AO1 SOG 54 SLP312 T10401040,CXSR,2015-02-21T06:00:00Z,55.7,-119.23,-4.0,-4.0,330,7,,,,1031.2,,TRUE,TRUE,,,,,,,,,,,,,,,,,,,,,,,,,,,METAR,1015.0
CWDT 210600Z AUTO 35001KT M26/M30 RMK AO1 SLP207 T12551296 51031,CWDT,2015-02-21T06:00:00Z,49.88,-71.25,-25.5,-29.6,350,1,,,,1020.7,,TRUE,TRUE,,,,,,,,,,,,,,,,3.1,,,,,,,,,,,METAR,399.0
CWCO 210600Z AUTO 12004KT M15/M22 RMK AO1 SLP218 T11481221 56023,CWCO,2015-02-21T06:00:00Z,44.45,-80.17,-14.8,-22.1,120,4,,,,1021.8,,TRUE,TRUE,,,,,,,,,,,,,,,,-2.3,,,,,,,,,,,METAR,221.0
CWMT 210600Z AUTO 10002KT M36/M40 RMK AO1 SLP406 T13561397 53011,CWMT,2015-02-21T06:00:00Z,63.13,-117.25,-35.6,-39.7,100,2,,,,1040.6,,TRUE,TRUE,,,,,,,,,,,,,,,,1.1,,,,,,,,,,,METAR,271.0
CWRY 210600Z AUTO 02010KT M06/M08 RMK AO1 SOG 03 1019 PK WND 01017/0504 SLP261 T10641075 50004,CWRY,2015-02-21T06:00:00Z,49.12,-112.03,-6.4,-7.5,20,10,,,,1026.1,,TRUE,TRUE,,,,,,,,,,,,,,,,0.4,,,,,,,,,,,METAR,1050.0
CTNK 210600Z AUTO 23003KT M18/M26 RMK AO1 SOG 52 7007 SLP220 T11841261,CTNK,2015-02-21T06:00:00Z,45.53,-78.27,-18.4,-26.1,230,3,,,,1022.0,,TRUE,TRUE,,,,,,,,,,,,,,,,,,,,,,,,,,,METAR,410.0
CWIJ 210600Z AUTO 00000KT M33/M37 RMK AO1 SOG 71 1008 SLP400 T13341374,CWIJ,2015-02-21T06:00:00Z,65.77,-111.23,-33.4,-37.4,0,0,,,,1040.0,,TRUE,TRUE,,,,,,,,,,,,,,,,,,,,,,,,,,,METAR,500.0
CWID 210600Z AUTO 14001KT M27/M30 RMK AO1 SLP406 T12711295 51016,CWID,2015-02-21T06:00:00Z,61.32,-117.6,-27.1,-29.5,140,1,,,,1040.6,,TRUE,TRUE,,,,,,,,,,,,,,,,1.6,,,,,,,,,,,METAR,161.0
CWMM 210600Z AUTO 00000KT 04/04 RMK AO1 SLP252 T00440037 52007,CWMM,2015-02-21T06:00:00Z,49.22,-122.68,4.4,3.7,0,0,,,,1025.2,,TRUE,TRUE,,,,,,,,,,,,,,,,0.7,,,,,,,,,,,METAR,5.0
CZZJ 210600Z AUTO 32003KT M03/M07 RMK AO1 SOG 36 1022 SLP299 T10341072 50002,CZZJ,2015-02-21T06:00:00Z,53.58,-116.47,-3.4,-7.2,320,3,,,,1029.9,,TRUE,TRUE,,,,,,,,,,,,,,,,0.2,,,,,,,,,,,METAR,927.0
CXYH 210600Z AUTO 20001KT M13/M14 RMK AO1 SOG 60 2005 SLP339 T11301144,CXYH,2015-02-21T06:00:00Z,61.25,-123.75,-13.0,-14.4,200,1,,,,1033.9,,TRUE,TRUE,,,,,,,,,,,,,,,,,,,,,,,,,,,METAR,204.0
CXVN 210600Z AUTO 13004KT M17/M23 RMK AO1 SLP237 T11701231 56029,CXVN,2015-02-21T06:00:00Z,43.18,-79.4,-17.0,-23.1,130,4,,,,1023.7,,TRUE,TRUE,,,,,,,,,,,,,,,,-2.9,,,,,,,,,,,METAR,79.0
CXTO 210600Z AUTO M11/M17 RMK AO1 SLP235 T11131166 56023,CXTO,2015-02-21T06:00:00Z,43.67,-79.4,-11.3,-16.6,,,,,,1023.5,,TRUE,TRUE,,,,,,,,,,,,,,,,-2.3,,,,,,,,,,,METAR,113.0
CXRB 210600Z AUTO 14006KT M31/M35 RMK AO1 SOG 00 6013 SLP301 T13131347,CXRB,2015-02-21T06:00:00Z,74.72,-94.98,-31.3,-34.7,140,6,,,,1030.1,,TRUE,TRUE,,,,,,,,,,,,,,,,,,,,,,,,,,,METAR,68.0
CXKI 210600Z AUTO M17/M19 RMK AO1 SOG 44 6008 SLP162 T11731189,CXKI,2015-02-21T06:00:00Z,48.22,-80.0,-17.3,-18.9,,,,,,1016.2,,TRUE,TRUE,,,,,,,,,,,,,,,,,,,,,,,,,,,METAR,324.0
CXDK 210600Z AUTO 00000KT M12/M13 RMK AO1 SOG 40 1007 SLP345 T11201132,CXDK,2015-02-21T06:00:00Z,61.27,-124.47,-12.0,-13.2,0,0,,,,1034.5,,TRUE,TRUE,,,,,,,,,,,,,,,,,,,,,,,,,,,METAR,283.0
CWEK 210600Z AUTO 05012KT 06/ RMK AO1 SLP290 T0056 53004,CWEK,2015-02-21T06:00:00Z,54.58,-130.7,5.6,,50,12,,,,1029.0,,TRUE,TRUE,,,,,,,,,,,,,,,,0.4,,,,,,,,,,,METAR,8.0
CWLB 210600Z AUTO 02008KT M12/M15 RMK AO1 SOG 27 3028 SLP317 T11191150 50002,CWLB,2015-02-21T06:00:00Z,54.77,-112.02,-11.9,-15.0,20,8,,,,1031.7,,TRUE,TRUE,,,,,,,,,,,,,,,,0.2,,,,,,,,,,,METAR,567.0
CWXL 210600Z AUTO 36009KT M06/M10 RMK AO1 T10641099,CWXL,2015-02-21T06:00:00Z,49.73,-111.45,-6.4,-9.9,360,9,,,,,,TRUE,TRUE,,,,,,,,,,,,,,,,,,,,,,,,,,,METAR,817.0
CWXC 210600Z AUTO 16002KT M26/M28 RMK AO1 SLP208 T12561275 51027,CWXC,2015-02-21T06:00:00Z,48.88,-71.03,-25.6,-27.5,160,2,,,,1020.8,,TRUE,TRUE,,,,,,,,,,,,,,,,2.7,,,,,,,,,,,METAR,300.0
CWWK 210600Z AUTO 00000KT 04/03 RMK AO1 SOG 00 1006 SLP255 T00440032,CWWK,2015-02-21T06:00:00Z,49.02,-122.78,4.4,3.2,0,0,,,,1025.5,,TRUE,TRUE,,,,,,,,,,,,,,,,,,,,,,,,,,,METAR,15.0
NVVA 210600Z 13009KT 9999 BKN018 FEW024CB 29/26 Q1007 RMK NIL,NVVA,2015-02-21T06:00:00Z,-20.25,169.77,29.0,26.0,130,9,,6.21,29.734253,,,,,,,,,,,BKN,1800,FEW,2400,,,,,MVFR,,,,,,,,,,,,SPECI,3.0
NVVW 210600Z 09005KT 9999 SCT020 29/26 Q1006 RMK NIL,NVVW,2015-02-21T06:00:00Z,-19.45,169.22,29.0,26.0,90,5,,6.21,29.704725,,,,,,,,,,,SCT,2000,,,,,,,VFR,,,,,,,,,,,,SPECI,6.0
NVVV 210600Z 12007KT 9999 BKN020 FEW025CB 30/26 Q1006 RMK NIL,NVVV,2015-02-21T06:00:00Z,-17.68,168.3,30.0,26.0,120,7,,6.21,29.704725,,,,,,,,,,,BKN,2000,FEW,2500,,,,,MVFR,,,,,,,,,,,,SPECI,21.0
NVSL 210600Z 00000KT 9999 FEW025 30/26 Q1006 RMK NIL,NVSL,2015-02-21T06:00:00Z,-16.45,167.83,30.0,26.0,0,0,,6.21,29.704725,,,,,,,,,,,FEW,2500,,,,,,,VFR,,,,,,,,,,,,SPECI,26.0
NVSS 210600Z 16003KT 9999 FEW025 30/26 Q1006 RMK NIL,NVSS,2015-02-21T06:00:00Z,-15.52,167.22,30.0,26.0,160,3,,6.21,29.704725,,,,,,,,,,,FEW,2500,,,,,,,VFR,,,,,,,,,,,,SPECI,44.0
CYEV 210600Z 09007KT 15SM FEW160 M08/M11 A3023 RMK AC2 SLP244,CYEV,2015-02-21T06:00:00Z,68.32,-133.5,-8.0,-11.0,90,7,,15.0,30.230314,1024.4,,,,,,,,,,FEW,16000,,,,,,,VFR,,,,,,,,,,,,METAR,68.0
FTTY 210600Z 04012KT CAVOK 18/M04 Q1015,FTTY,2015-02-21T06:00:00Z,18.0,19.17,18.0,-4.0,40,12,,6.21,29.970472,,,,,,,,,,,CAVOK,,,,,,,,VFR,,,,,,,,,,,,METAR,234.0
FMNN 210600Z 16002KT 9999 BKN020CB 28/26 Q1011,FMNN,2015-02-21T06:00:00Z,-13.32,48.32,28.0,26.0,160,2,,6.21,29.852362,,,,,,,,,,,BKN,2000,,,,,,,MVFR,,,,,,,,,,,,METAR,9.0
FNKU 210600Z 21005KT 9999 FEW014 BKN090 18/16 Q////,FNKU,2015-02-21T06:00:00Z,-12.37,16.93,18.0,16.0,210,5,,6.21,,,,,,,,,,,,FEW,1400,BKN,9000,,,,,VFR,,,,,,,,,,,,METAR,1699.0
DXSK 210600Z 00000KT CAVOK 23/23 Q////,DXSK,2015-02-21T06:00:00Z,9.0,1.15,23.0,23.0,0,0,,6.21,,,,,,,,,,,,CAVOK,,,,,,,,VFR,,,,,,,,,,,,METAR,387.0
DAUI 210600Z 12010KT CAVOK 13/09 Q1008,DAUI,2015-02-21T06:00:00Z,27.25,2.52,13.0,9.0,120,10,,6.21,29.763779,,,,,,,,,,,CAVOK,,,,,,,,VFR,,,,,,,,,,,,METAR,269.0
HKRE 210600Z 05012KT CAVOK 20/14 Q1021,HKRE,2015-02-21T06:00:00Z,-1.28,36.87,20.0,14.0,50,12,,6.21,30.147638,,,,,,,,,,,CAVOK,,,,,,,,VFR,,,,,,,,,,,,METAR,1627.0
HKNC 210600Z 01008KT CAVOK 19/13 Q1021,HKNC,2015-02-21T06:00:00Z,-1.3,36.75,19.0,13.0,10,8,,6.21,30.147638,,,,,,,,,,,CAVOK,,,,,,,,VFR,,,,,,,,,,,,METAR,1798.0
HKMY 210600Z 09008KT CAVOK 25/14,HKMY,2015-02-21T06:00:00Z,3.47,39.1,25.0,14.0,90,8,,6.21,,,,,,,,,,,,CAVOK,,,,,,,,VFR,,,,,,,,,,,,METAR,1097.0
HKKS 210600Z 00000KT CAVOK 22/14,HKKS,2015-02-21T06:00:00Z,-0.67,34.77,22.0,14.0,0,0,,6.21,,,,,,,,,,,,CAVOK,,,,,,,,VFR,,,,,,,,,,,,METAR,1493.0
HKJK 210600Z 03008KT CAVOK 21/14 Q1020 NOSIG,HKJK,2015-02-21T06:00:00Z,-1.32,36.92,21.0,14.0,30,8,,6.21,30.11811,,,,,,TRUE,,,,,CAVOK,,,,,,,,VFR,,,,,,,,,,,,METAR,1624.0
HKEL 210600Z 06012KT 9999 CAVOK 20/07 Q1023 NOSIG,HKEL,2015-02-21T06:00:00Z,0.4,35.23,20.0,7.0,60,12,,6.21,30.206694,,,,,,TRUE,,,,,CAVOK,,,,,,,,VFR,,,,,,,,,,,,SPECI,2133.0
KNGU 210559Z 17003KT 10SM CLR M08/M18 A3057 RMK AO2 SLP350 T10831178 11067 21106 50000 PNO $,KNGU,2015-02-21T05:59:00Z,36.92,-76.27,-8.3,-17.8,170,3,,10.0,30.569881,1035.0,,,TRUE,TRUE,,,,,,CLR,,,,,,,,VFR,0.0,-6.7,-10.6,,,,,,,,,SPECI,5.0
ETIK 210559Z AUTO 20006KT 9999 FEW046 SCT060 05/M03 A2954 RMK AO2 UPB0547,ETIK,2015-02-21T05:59:00Z,49.47,10.37,5.0,-3.0,200,6,,6.21,29.53937,,,TRUE,TRUE,,,,,,,FEW,4600,SCT,6000,,,,,VFR,,,,,,,,,,,,SPECI,325.0
KBAZ 210559Z AUTO 19018G26KT 10SM OVC015 19/16 A2983 RMK AO2 PK WND 18026/0553 T01890156,KBAZ,2015-02-21T05:59:00Z,29.72,-98.05,18.9,15.6,190,18,26,10.0,29.828741,,,TRUE,TRUE,,,,,,,OVC,1500,,,,,,,MVFR,,,,,,,,,,,,METAR,195.0
KQGA 210559Z AUTO 32009G17KT 300V360 4800 CLR 20/09 A2984 RMK CDP03659 CLR,KQGA,2015-02-21T05:59:00Z,100.65,-1000.65,20.0,9.0,320,9,17,2.98,29.840551,,,TRUE,,,,,,,,CLR,,,,,,,,IFR,,,,,,,,,,,,METAR,999.0
KQTM 210559Z AUTO 32002KT 9999 CLR 18/02 A2956 RMK CDP03569 CLR,KQTM,2015-02-21T05:59:00Z,,,18.0,2.0,320,2,,6.21,29.56004,,,TRUE,,,,,,,,CLR,,,,,,,,VFR,,,,,,,,,,,,METAR,
ETIH 210558Z AUTO 28002KT 9999 CLR M06/M08 A2960 RMK AO2 SLP056 T10651076 11043 21069 56013,ETIH,2015-02-21T05:58:00Z,49.22,11.82,-6.5,-7.6,280,2,,6.21,29.601377,1005.6,,TRUE,TRUE,,,,,,,CLR,,,,,,,,VFR,-1.3,-4.3,-6.9,,,,,,,,,METAR,442.0
ETIC 210558Z AUTO 09003KT 9999 CLR M06/M07 A2957 RMK AO2 SLP043 T10601070 11043 21067 57016 $,ETIC,2015-02-21T05:58:00Z,49.7,11.93,-6.0,-7.0,90,3,,6.21,29.568897,1004.3,,TRUE,TRUE,TRUE,,,,,,CLR,,,,,,,,VFR,-1.6,-4.3,-6.7,,,,,,,,,METAR,415.0
RKSO 210558Z 09009KT 5SM -RA BKN025 OVC040 06/06 A3000 RMK AO2A SLP163 P0003 60015 T00630063 10065 20051 57024 $,RKSO,2015-02-21T05:58:00Z,37.07,127.02,6.3,6.3,90,9,,5.0,30.0,1016.3,,,TRUE,TRUE,,,,,-RA,BKN,2500,OVC,4000,,,,,MVFR,-2.4,6.5,5.1,,,0.03,,0.15,,,,METAR,12.0
KQIR 210558Z 35028G34KT 2000 BLDU SCT004 19/08 A2983 RMK AO2A RVRNO PK WND 34035/03 SLP103 52028,KQIR,2015-02-21T05:58:00Z,100.65,-1000.65,19.0,8.0,350,28,34,1.24,29.828741,1010.3,,,TRUE,,,,,,BLDU,SCT,400,,,,,,,IFR,2.8,,,,,,,,,,,METAR,999.0
KDLF 210558Z AUTO VRB02KT 10SM CLR 15/11 A2977 RMK AO2 SLP075 T01460105 10250 20146 55000 $,KDLF,2015-02-21T05:58:00Z,29.37,-100.77,14.6,10.5,0,2,,10.0,29.769686,1007.5,,TRUE,TRUE,TRUE,,,,,,CLR,,,,,,,,VFR,0.0,25.0,14.6,,,,,,,,,METAR,330.0
KPSM 210558Z 24005KT 10SM CLR M14/M22 A3040 RMK AO2A SLP300 4/025 T11401216 11100 21141 52021,KPSM,2015-02-21T05:58:00Z,43.07,-70.82,-14.0,-21.6,240,5,,10.0,30.398623,1030.0,,,TRUE,,,,,,,CLR,,,,,,,,VFR,2.1,-10.0,-14.1,,,,,,,25.0,,METAR,31.0
KSGJ 210558Z AUTO 00000KT 10SM CLR 02/M01 A3042 RMK AO2 SLP301 T00221006 10072 20022 56015 FZRANO,KSGJ,2015-02-21T05:58:00Z,29.97,-81.32,2.2,-0.6,0,0,,10.0,30.41929,1030.1,,TRUE,TRUE,,,,TRUE,,,CLR,,,,,,,,VFR,-1.5,7.2,2.2,,,,,,,,,METAR,3.0
KMRH 210558Z AUTO 05005KT 10SM CLR M06/M13 A3056 RMK AO2 SLP349 T10611133 11061 21067 58004 TSNO,KMRH,2015-02-21T05:58:00Z,34.73,-76.65,-6.1,-13.3,50,5,,10.0,30.561024,1034.9,,TRUE,TRUE,,,TRUE,,,,CLR,,,,,,,,VFR,-0.4,-6.1,-6.7,,,,,,,,,METAR,3.0
PFKT 210558Z AUTO 09013KT 8SM -SN SCT022 SCT032 OVC041 M02/M04 A2991 RMK AO2 UPE05B23E33SNB05E23B33 SLP128 P0000 60000 T10221039 11017 21083 58013 FZRANO,PFKT,2015-02-21T05:58:00Z,65.33,-166.47,-2.2,-3.9,90,13,,8.0,29.911417,1012.8,,TRUE,TRUE,,,,TRUE,,-SN,SCT,2200,SCT,3200,OVC,4100,,,VFR,-1.3,-1.7,-8.3,,,0.0050,,0.0050,,,,METAR,9.0
PAWM 210558Z AUTO 01007KT 10SM CLR 00/M01 A2986 RMK AO2 SLP124 T00001006 10017 20000 58016 FZRANO,PAWM,2015-02-21T05:58:00Z,64.68,-163.42,0.0,-0.6,10,7,,10.0,29.861221,1012.4,,TRUE,TRUE,,,,TRUE,,,CLR,,,,,,,,VFR,-1.6,1.7,0.0,,,,,,,,,METAR,82.0
PAGA 210558Z AUTO 07004KT 10SM CLR M02/M07 A3001 RMK AO2 SLP168 T10221067 10006 21028 58013 FZRANO,PAGA,2015-02-21T05:58:00Z,64.73,-156.93,-2.2,-6.7,70,4,,10.0,30.008858,1016.8,,TRUE,TRUE,,,,TRUE,,,CLR,,,,,,,,VFR,-1.3,0.6,-2.8,,,,,,,,,METAR,46.0
PFSH 210558Z AUTO 01012KT 10SM CLR M05/M06 A2989 RMK AO2 SLP135 T10501061 10033 21056 58019 FZRANO,PFSH,2015-02-21T05:58:00Z,64.37,-161.22,-5.0,-6.1,10,12,,10.0,29.890747,1013.5,,TRUE,TRUE,,,,TRUE,,,CLR,,,,,,,,VFR,-1.9,3.3,-5.6,,,,,,,,,METAR,7.0
PFNO 210558Z AUTO 07012KT 10SM OVC015 M01/M02 A3004 RMK AO2 SNE03B29E39 SLP173 P0000 60000 T10061017 10000 21011 56006 FZRANO,PFNO,2015-02-21T05:58:00Z,66.82,-161.02,-0.6,-1.7,70,12,,10.0,30.041338,1017.3,,TRUE,TRUE,,,,TRUE,,,OVC,1500,,,,,,,MVFR,-0.6,0.0,-1.1,,,0.0050,,0.0050,,,,METAR,17.0
PFEL 210558Z AUTO 34009KT 10SM CLR 01/M01 A2990 RMK AO2 SLP130 T00061011 10017 20006 58014 FZRANO,PFEL,2015-02-21T05:58:00Z,64.62,-162.27,0.6,-1.1,340,9,,10.0,29.899607,1013.0,,TRUE,TRUE,,,,TRUE,,,CLR,,,,,,,,VFR,-1.4,1.7,0.6,,,,,,,,,METAR,49.0
KWRB 210558Z AUTO 00000KT 10SM CLR M01/M07 A3039 RMK AO2 SLP297 T10151072 10032 21025 51002,KWRB,2015-02-21T05:58:00Z,32.62,-83.58,-1.5,-7.2,0,0,,10.0,30.389763,1029.7,,TRUE,TRUE,,,,,,,CLR,,,,,,,,VFR,0.2,3.2,-2.5,,,,,,,,,METAR,90.0
KVAD 210558Z AUTO 11004KT 10SM CLR 02/M05 A3037 RMK AO2 SLP288 T00181053 10065 20017 55000,KVAD,2015-02-21T05:58:00Z,30.97,-83.2,1.8,-5.3,110,4,,10.0,30.369095,1028.8,,TRUE,TRUE,,,,,,,CLR,,,,,,,,VFR,0.0,6.5,1.7,,,,,,,,,METAR,71.0
KSKF 210558Z AUTO 15010KT 10SM FEW017 SCT180 17/16 A2982 RMK AO2 SLP094 T01710159 10237 20170 402560132 50007 $,KSKF,2015-02-21T05:58:00Z,29.37,-98.57,17.1,15.9,150,10,,10.0,29.819881,1009.4,,TRUE,TRUE,TRUE,,,,,,FEW,1700,SCT,18000,,,,,VFR,0.7,23.7,17.0,25.6,13.2,,,,,,,METAR,210.0
KGRK 210558Z AUTO 18020G26KT 10SM OVC016 18/15 A2977 RMK AO2 PK WND 19031/27 SLP075 T01820153 10210 20182 402220116 58001,KGRK,2015-02-21T05:58:00Z,31.07,-97.83,18.2,15.3,180,20,26,10.0,29.769686,1007.5,,TRUE,TRUE,,,,,,,OVC,1600,,,,,,,MVFR,-0.1,21.0,18.2,22.2,11.6,,,,,,,METAR,309.0
KHLR 210558Z AUTO 19019G30KT 10SM OVC017 19/15 A2976 RMK AO2 PK WND 18031/28 SLP070 T01870153 10214 20186 402310102 58002,KHLR,2015-02-21T05:58:00Z,31.13,-97.72,18.7,15.3,190,19,30,10.0,29.760826,1007.0,,TRUE,TRUE,,,,,,,OVC,1700,,,,,,,MVFR,-0.2,21.4,18.6,23.1,10.2,,,,,,,METAR,283.0
KGTB 210558Z AUTO 14010KT 10SM CLR M19/M24 A3027 RMK AO2 SLP270 60000 T11941241 11148 21195 56006,KGTB,2015-02-21T05:58:00Z,44.07,-75.72,-19.4,-24.1,140,10,,10.0,30.268702,1027.0,,TRUE,TRUE,,,,,,,CLR,,,,,,,,VFR,-0.6,-14.8,-19.5,,,,,0.0050,,,,METAR,207.0
KRND 210558Z AUTO 18016G20KT 10SM OVC012 18/16 A2984 RMK AO2 SLP100 T01800157 10218 20170 402540144 50006,KRND,2015-02-21T05:58:00Z,29.52,-98.27,18.0,15.7,180,16,20,10.0,29.840551,1010.0,,TRUE,TRUE,,,,,,,OVC,1200,,,,,,,MVFR,0.6,21.8,17.0,25.4,14.4,,,,,,,METAR,232.0
KTTS 210558Z AUTO 31003KT 10SM CLR 05/04 A3037 RMK AO2 SLP287 T00540039 10076 20045 58010 $,KTTS,2015-02-21T05:58:00Z,28.62,-80.72,5.4,3.9,310,3,,10.0,30.369095,1028.7,,TRUE,TRUE,TRUE,,,,,,CLR,,,,,,,,VFR,-1.0,7.6,4.5,,,,,,,,,METAR,3.0
KCOF 210558Z AUTO 06011KT 10SM OVC039 14/08 A3036 RMK AO2 SLP285 T01430076 10143 20098 58011 $,KCOF,2015-02-21T05:58:00Z,28.23,-80.6,14.3,7.6,60,11,,10.0,30.360237,1028.5,,TRUE,TRUE,TRUE,,,,,,OVC,3900,,,,,,,VFR,-1.1,14.3,9.8,,,,,,,,,METAR,3.0
K0J4 210558Z AUTO 15006KT 10SM CLR 05/M04 A3029 RMK AO2 SLP258 T00501039 10083 20044 58010,K0J4,2015-02-21T05:58:00Z,31.05,-86.32,5.0,-3.9,150,6,,10.0,30.28937,1025.8,,TRUE,TRUE,,,,,,,CLR,,,,,,,,VFR,-1.0,8.3,4.4,,,,,,,,,METAR,96.0
KXMR 210558Z AUTO VRB01KT 10SM BKN044 09/05 A3036 RMK AO2 SLP284 T00850054 10095 20062 58010 $,KXMR,2015-02-21T05:58:00Z,28.47,-80.57,8.5,5.4,0,1,,10.0,30.360237,1028.4,,TRUE,TRUE,TRUE,,,,,,BKN,4400,,,,,,,VFR,-1.0,9.5,6.2,,,,,,,,,METAR,3.0
KSSC 210558Z AUTO 11004KT 10SM BKN110 M03/M10 A3045 RMK AO2 SLP316 T10281099 11005 21043 56008 $,KSSC,2015-02-21T05:58:00Z,33.97,-80.47,-2.8,-9.9,110,4,,10.0,30.448818,1031.6,,TRUE,TRUE,TRUE,,,,,,BKN,11000,,,,,,,VFR,-0.8,-0.5,-4.3,,,,,,,,,METAR,74.0
K1J0 210558Z AUTO 00000KT 10SM CLR 03/M04 A3031 RMK AO2 SLP251 T00331044 10078 20022 58014 $,K1J0,2015-02-21T05:58:00Z,30.85,-85.6,3.3,-4.4,0,0,,10.0,30.31004,1025.1,,TRUE,TRUE,TRUE,,,,,,CLR,,,,,,,,VFR,-1.4,7.8,2.2,,,,,,,,,METAR,26.0
KEUF 210558Z AUTO 15005KT 10SM CLR 03/M10 A3031 RMK AO2 SLP265 T00281100 10050 20011 400781072 58012 PWINO,KEUF,2015-02-21T05:58:00Z,31.95,-85.13,2.8,-10.0,150,5,,10.0,30.31004,1026.5,,TRUE,TRUE,,,,,TRUE,,CLR,,,,,,,,VFR,-1.2,5.0,1.1,7.8,-7.2,,,,,,,METAR,87.0
KCEF 210558Z AUTO 15002KT 10SM CLR M23/M26 A3045 RMK AO2 SLP324 T12291256 11114 21237 52014,KCEF,2015-02-21T05:58:00Z,42.2,-72.52,-22.9,-25.6,150,2,,10.0,30.448818,1032.4,,TRUE,TRUE,,,,,,,CLR,,,,,,,,VFR,1.4,-11.4,-23.7,,,,,,,,,METAR,75.0
KDAA 210558Z AUTO 00000KT 10SM CLR M16/M21 A3050 RMK AO2 SLP333 T11571215 11108 21169 58006,KDAA,2015-02-21T05:58:00Z,38.72,-77.17,-15.7,-21.5,0,0,,10.0,30.499016,1033.3,,TRUE,TRUE,,,,,,,CLR,,,,,,,,VFR,-0.6,-10.8,-16.9,,,,,,,,,METAR,21.0
KDOV 210558Z AUTO 16003KT 10SM CLR M14/M20 A3054 RMK AO2 SLP346 T11441205 11113 21144 51002,KDOV,2015-02-21T05:58:00Z,39.12,-75.47,-14.4,-20.5,160,3,,10.0,30.540354,1034.6,,TRUE,TRUE,,,,,,,CLR,,,,,,,,VFR,0.2,-11.3,-14.4,,,,,,,,,METAR,9.0
KDYS 210558Z AUTO 21018G27KT 10SM FEW180 OVC210 19/09 A2967 RMK AO2 SLP015 T01920092 10252 20192 402810119 51006 $,KDYS,2015-02-21T05:58:00Z,32.42,-99.83,19.2,9.2,210,18,27,10.0,29.66929,1001.5,,TRUE,TRUE,TRUE,,,,,,FEW,18000,OVC,21000,,,,,VFR,0.6,25.2,19.2,28.1,11.9,,,,,,,METAR,545.0
KFAF 210558Z AUTO 18004KT 10SM CLR M12/M15 A3052 RMK AO2 SLP339 T11241152 11097 21127 58002 $,KFAF,2015-02-21T05:58:00Z,37.12,-76.62,-12.4,-15.2,180,4,,10.0,30.519686,1033.9,,TRUE,TRUE,TRUE,,,,,,CLR,,,,,,,,VFR,-0.2,-9.7,-12.7,,,,,,,,,METAR,4.0
KMXF 210558Z AUTO 10008KT 10SM BKN085 03/M11 A3026 RMK AO2 SLP251 T00341110 10043 20033 400601064 58013,KMXF,2015-02-21T05:58:00Z,32.37,-86.37,3.4,-11.0,100,8,,10.0,30.259842,1025.1,,TRUE,TRUE,,,,,,,BKN,8500,,,,,,,VFR,-1.3,4.3,3.3,6.0,-6.4,,,,,,,METAR,51.0
KOFF 210558Z AUTO 12001KT 10SM CLR M01/M04 A2984 RMK AO2 SLP119 60000 T10141044 10024 21024 400451107 50008 $,KOFF,2015-02-21T05:58:00Z,41.12,-95.92,-1.4,-4.4,120,1,,10.0,29.840551,1011.9,,TRUE,TRUE,TRUE,,,,,,CLR,,,,,,,,VFR,0.8,2.4,-2.4,4.5,-10.7,,,0.0050,,,,METAR,319.0
KPAM 210558Z AUTO 10004KT 10SM CLR 06/M01 A3029 RMK AO2 SLP260 T00561008 10072 20046 58011 $,KPAM,2015-02-21T05:58:00Z,30.07,-85.57,5.6,-0.8,100,4,,10.0,30.28937,1026.0,,TRUE,TRUE,TRUE,,,,,,CLR,,,,,,,,VFR,-1.1,7.2,4.6,,,,,,,,,METAR,5.0
KADW 210558Z AUTO 16006KT 10SM CLR M14/M22 A3047 RMK AO2 SLP331 T11411217 11112 21159 57005 $,KADW,2015-02-21T05:58:00Z,38.82,-76.87,-14.1,-21.7,160,6,,10.0,30.469488,1033.1,,TRUE,TRUE,TRUE,,,,,,CLR,,,,,,,,VFR,-0.5,-11.2,-15.9,,,,,,,,,METAR,86.0
KBIX 210558Z AUTO 16013KT 10SM BKN080 15/11 A3015 RMK AO2 SLPNO T01500113 10150 20140 401501000 57011,KBIX,2015-02-21T05:58:00Z,30.42,-88.92,15.0,11.3,160,13,,10.0,30.15059,,,TRUE,TRUE,,,,,,,BKN,8000,,,,,,,VFR,-1.1,15.0,14.0,15.0,,,,,,,,METAR,10.0
KLFI 210558Z AUTO 14003KT 10SM CLR M12/M17 A3055 RMK AO2 SLP353 T11211169 11088 21124 50000 $,KLFI,2015-02-21T05:58:00Z,37.07,-76.37,-12.1,-16.9,140,3,,10.0,30.549213,1035.3,,TRUE,TRUE,TRUE,,,,,,CLR,,,,,,,,VFR,0.0,-8.8,-12.4,,,,,,,,,METAR,3.0
KHRT 210558Z AUTO 14014KT 10SM OVC027 12/06 A3025 RMK AO2 SLP246 T01240057 10124 20108 401241023 58007 $,KHRT,2015-02-21T05:58:00Z,30.42,-86.67,12.4,5.7,140,14,,10.0,30.250984,1024.6,,TRUE,TRUE,TRUE,,,,,,OVC,2700,,,,,,,MVFR,-0.7,12.4,10.8,12.4,-2.3,,,,,,,METAR,12.0
KMMT 210558Z AUTO 11004KT 10SM OVC100 M02/M10 A3046 RMK AO2 SLP320 T10221100 11006 21032 55005,KMMT,2015-02-21T05:58:00Z,33.92,-80.78,-2.2,-10.0,110,4,,10.0,30.46063,1032.0,,TRUE,TRUE,,,,,,,OVC,10000,,,,,,,VFR,-0.5,-0.6,-3.2,,,,,,,,,METAR,77.0
KLSF 210558Z AUTO 35003KT 10SM BKN110 M02/M07 A3032 RMK AO2 SLP273 T10191072 10031 21041 57012,KLSF,2015-02-21T05:58:00Z,32.32,-84.97,-1.9,-7.2,350,3,,10.0,30.318897,1027.3,,TRUE,TRUE,,,,,,,BKN,11000,,,,,,,VFR,-1.2,3.1,-4.1,,,,,,,,,METAR,71.0
KTBN 210558Z AUTO 00000KT 8SM -FZRA BKN005 OVC025 00/00 A2983 RMK AO2 SLP116 P0005 60053 T10051005 11002 21047 410021094 58007,KTBN,2015-02-21T05:58:00Z,37.72,-92.12,-0.5,-0.5,0,0,,8.0,29.828741,1011.6,,TRUE,TRUE,,,,,,-FZRA,BKN,500,OVC,2500,,,,,IFR,-0.7,-0.2,-4.7,-0.2,-9.4,0.05,,0.53,,,,METAR,353.0
KSVN 210558Z AUTO 11001KT 10SM CLR 01/M01 A3041 RMK AO2 SLP301 T00111008 10026 21004 56014,KSVN,2015-02-21T05:58:00Z,32.02,-81.15,1.1,-0.8,110,1,,10.0,30.410433,1030.1,,TRUE,TRUE,,,,,,,CLR,,,,,,,,VFR,-1.4,2.6,-0.4,,,,,,,,,METAR,13.0
KVOK 210558Z AUTO 10003KT 10SM OVC025 M09/M11 A2984 RMK AO2 SLP126 60000 T10901107 11084 21117 410841263 55003,KVOK,2015-02-21T05:58:00Z,43.92,-90.27,-9.0,-10.7,100,3,,10.0,29.840551,1012.6,,TRUE,TRUE,,,,,,,OVC,2500,,,,,,,MVFR,-0.3,-8.4,-11.7,-8.4,-26.3,,,0.0050,,,,METAR,277.0
KMUI 210558Z AUTO 05004KT 10SM OVC130 M18/M22 A3043 RMK AO2 SLP320 T11831225 11142 21191 50000,KMUI,2015-02-21T05:58:00Z,40.42,-76.57,-18.3,-22.5,50,4,,10.0,30.431103,1032.0,,TRUE,TRUE,,,,,,,OVC,13000,,,,,,,VFR,0.0,-14.2,-19.1,,,,,,,,,METAR,149.0
ROTM 210558Z 17012G19KT 9999 BKN040 21/11 A3008 RMK SLP173 XWND ADV T02100110 10213 20194 56017,ROTM,2015-02-21T05:58:00Z,26.27,127.75,21.0,11.0,170,12,19,6.21,30.079725,1017.3,,,,,,,,,,BKN,4000,,,,,,,VFR,-1.7,21.3,19.4,,,,,,,,,METAR,75.0
KSXT 210558Z AUTO 36009KT 4SM BR FEW001 BKN090 03/02 A3017 RMK AO2 T00280017,KSXT,2015-02-21T05:58:00Z,42.6,-123.37,2.8,1.7,360,9,,4.0,30.171259,,,TRUE,TRUE,,,,,,BR,FEW,100,BKN,9000,,,,,MVFR,,,,,,,,,,,,METAR,1170.0
KBAD 210558Z AUTO 18016KT 10SM BKN029 BKN035 17/14 A2986 RMK AO2 PK WND 18027/27 SLP114 T01680138 10170 20164 401700027 55008,KBAD,2015-02-21T05:58:00Z,32.5,-93.67,16.8,13.8,180,16,,10.0,29.861221,1011.4,,TRUE,TRUE,,,,,,,BKN,2900,BKN,3500,,,,,MVFR,-0.8,17.0,16.4,17.0,2.7,,,,,,,SPECI,51.0
EGVA 210558Z AUTO 26006KT 9999 SCT055 M01/M01 A2950 RMK AO2 SLP997 60000 T10071008 10019 21009 55003 $,EGVA,2015-02-21T05:58:00Z,51.67,-1.77,-0.7,-0.8,260,6,,6.21,29.500984,999.7,,TRUE,TRUE,TRUE,,,,,,SCT,5500,,,,,,,VFR,-0.3,1.9,-0.9,,,,,0.0050,,,,METAR,87.0
EGUN 210558Z AUTO 25005KT 9999 SCT038 BKN060 OVC090 02/01 A2945 RMK AO2 UPB0526E0535 SLP976 P0000 60000 T00170007 10017 21001 55005,EGUN,2015-02-21T05:58:00Z,52.37,0.47,1.7,0.7,250,5,,6.21,29.450787,997.6,,TRUE,TRUE,,,,,,,SCT,3800,BKN,6000,OVC,9000,,,VFR,-0.5,1.7,-0.1,,,0.0050,,0.0050,,,,METAR,10.0
EGUL 210558Z AUTO 22004KT 9999 FEW031 SCT039 BKN065 BKN095 01/00 A2944 RMK AO2 RAB0520E0529 SLP973 P0000 60000 T00110000 10012 21004 55004,EGUL,2015-02-21T05:58:00Z,52.42,0.57,1.1,0.0,220,4,,6.21,29.438976,997.3,,TRUE,TRUE,,,,,,,FEW,3100,SCT,3900,BKN,6500,BKN,9500,VFR,-0.4,1.2,-0.4,,,0.0050,,0.0050,,,,METAR,10.0
PAIW 210558Z AUTO 06019KT 3SM -SN BR OVC018 M14/M16 A2999 RMK AO2 SLP156 P0000 60000 T11441161 11144 21156 56011 FZRANO,PAIW,2015-02-21T05:58:00Z,65.62,-168.1,-14.4,-16.1,60,19,,3.0,29.991142,1015.6,,TRUE,TRUE,,,,TRUE,,-SN BR,OVC,1800,,,,,,,MVFR,-1.1,-14.4,-15.6,,,0.0050,,0.0050,,,,METAR,7.0
KCVS 210558Z 02018G24KT 9SM BKN210 07/M03 A2987 RMK AO2A PK WND 02031/0503 SLP110 T00701026 10204 20070 53041,KCVS,2015-02-21T05:58:00Z,34.37,-103.32,7.0,-2.6,20,18,24,9.0,29.870079,1011.0,,,TRUE,,,,,,,BKN,21000,,,,,,,VFR,4.1,20.4,7.0,,,,,,,,,METAR,1309.0
KPOE 210558Z AUTO 17011KT 10SM OVC022 17/15 A2995 RMK AO2 SLP143 T01720146 10172 20161 401790047 50003,KPOE,2015-02-21T05:58:00Z,31.05,-93.2,17.2,14.6,170,11,,10.0,29.949802,1014.3,,TRUE,TRUE,,,,,,,OVC,2200,,,,,,,MVFR,0.3,17.2,16.1,17.9,4.7,,,,,,,METAR,101.0
KMCF 210558Z AUTO 09012KT 10SM CLR 07/04 A3037 RMK AO2 SLP287 T00690037 10099 20069 57005,KMCF,2015-02-21T05:58:00Z,27.85,-82.52,6.9,3.7,90,12,,10.0,30.369095,1028.7,,TRUE,TRUE,,,,,,,CLR,,,,,,,,VFR,-0.5,9.9,6.9,,,,,,,,,METAR,4.0
KFBG 210558Z AUTO 14004KT 10SM CLR M06/M17 A3049 RMK AO2 SLP331 T10601166 11032 21062 56005,KFBG,2015-02-21T05:58:00Z,35.12,-78.92,-6.0,-16.6,140,4,,10.0,30.490158,1033.1,,TRUE,TRUE,,,,,,,CLR,,,,,,,,VFR,-0.5,-3.2,-6.2,,,,,,,,,METAR,74.0
RJTY 210558Z AUTO 14007KT 10SM CLR 09/M02 A3033 RMK AO2 SLP281 T00921022 10101 20051 56012,RJTY,2015-02-21T05:58:00Z,35.75,139.33,9.2,-2.2,140,7,,10.0,30.33071,1028.1,,TRUE,TRUE,,,,,,,CLR,,,,,,,,VFR,-1.2,10.1,5.1,,,,,,,,,METAR,139.0
PHHI 210558Z AUTO 32005KT 10SM CLR 18/17 A2998 RMK AO2 SLP147 60002 T01830168 10209 20181 52013 $,PHHI,2015-02-21T05:58:00Z,21.48,-158.05,18.3,16.8,320,5,,10.0,29.97933,1014.7,,TRUE,TRUE,TRUE,,,,,,CLR,,,,,,,,VFR,1.3,20.9,18.1,,,,,0.02,,,,METAR,255.0
PAEI 210558Z AUTO 00000KT 10SM CLR M13/M15 A3009 RMK AO2 SLP207 T11341153 11079 21154 57014 CHINO RWY14 $,PAEI,2015-02-21T05:58:00Z,64.67,-147.1,-13.4,-15.3,0,0,,10.0,30.088583,1020.7,,TRUE,TRUE,TRUE,,,,,,CLR,,,,,,,,VFR,-1.4,-7.9,-15.4,,,,,,,,,METAR,167.0
PAED 210558Z AUTO 00000KT 10SM BKN080 OVC100 M02/M04 A3008 RMK AO2 SLP184 T10161041 11005 21016 57020,PAED,2015-02-21T05:58:00Z,61.25,-149.8,-1.6,-4.1,0,0,,10.0,30.079725,1018.4,,TRUE,TRUE,,,,,,,BKN,8000,OVC,10000,,,,,VFR,-2.0,-0.5,-1.6,,,,,,,,,METAR,59.0
BGTL 210558Z AUTO 08005KT 9999 CLR M32/M34 A3031 RMK AO2 SLP260 57013,BGTL,2015-02-21T05:58:00Z,76.53,-68.7,-32.0,-34.0,80,5,,6.21,30.31004,1026.0,,TRUE,TRUE,,,,,,,CLR,,,,,,,,VFR,-1.3,,,,,,,,,,,METAR,77.0
KLSV 210558Z AUTO VRB01KT 10SM CLR 12/M04 A2985 RMK AO2 SLP099 T01181042 10227 20118 53009,KLSV,2015-02-21T05:58:00Z,36.22,-115.02,11.8,-4.2,0,1,,10.0,29.84941,1009.9,,TRUE,TRUE,,,,,,,CLR,,,,,,,,VFR,0.9,22.7,11.8,,,,,,,,,SPECI,570.0
KRIV 210558Z AUTO 17003KT 10SM CLR 12/11 A2998 RMK AO2 SLP149 T01170114 10191 20113 52011,KRIV,2015-02-21T05:58:00Z,33.87,-117.27,11.7,11.4,170,3,,10.0,29.97933,1014.9,,TRUE,TRUE,,,,,,,CLR,,,,,,,,VFR,1.1,19.1,11.3,,,,,,,,,SPECI,469.0
KMUO 210558Z AUTO 27008KT 10SM FEW085 SCT110 03/00 A3005 RMK AO2 SLP184 T00291003 10111 20029 53001,KMUO,2015-02-21T05:58:00Z,43.03,-115.87,2.9,-0.3,270,8,,10.0,30.050198,1018.4,,TRUE,TRUE,,,,,,,FEW,8500,SCT,11000,,,,,VFR,0.1,11.1,2.9,,,,,,,,,SPECI,913.0
KLUF 210558Z AUTO 33005KT 10SM CLR 14/05 A2987 RMK AO2 SLP110 T01420048 10240 20142 $,KLUF,2015-02-21T05:58:00Z,33.52,-112.37,14.2,4.8,330,5,,10.0,29.870079,1011.0,,TRUE,TRUE,TRUE,,,,,,CLR,,,,,,,,VFR,,24.0,14.2,,,,,,,,,SPECI,332.0
KINS 210558Z AUTO 28002KT 10SM CLR 13/M11 A2991 RMK AO2 SLP104 T01321108 10236 20119 52013 $,KINS,2015-02-21T05:58:00Z,36.58,-115.67,13.2,-10.8,280,2,,10.0,29.911417,1010.4,,TRUE,TRUE,TRUE,,,,,,CLR,,,,,,,,VFR,1.3,23.6,11.9,,,,,,,,,SPECI,955.0
KFCS 210558Z AUTO 34010KT 10SM BKN043 00/M03 A2992 RMK AO2 SLP138 60001 T00041030 10033 21011 52015,KFCS,2015-02-21T05:58:00Z,38.67,-104.77,0.4,-3.0,340,10,,10.0,29.920275,1013.8,,TRUE,TRUE,,,,,,,BKN,4300,,,,,,,VFR,1.5,3.3,-1.1,,,,,,,,,SPECI,1789.0
KAFF 210558Z AUTO 34003KT 10SM FEW018 OVC037 00/M04 A2993 RMK AO2 UPE02UPB33E52 SLP110 P0000 60000 T10051036 10018 21009 52013,KAFF,2015-02-21T05:58:00Z,38.97,-104.82,-0.5,-3.6,340,3,,10.0,29.929134,1011.0,,TRUE,TRUE,,,,,,,FEW,1800,OVC,3700,,,,,VFR,1.3,1.8,-0.9,,,0.0050,,,,,,SPECI,2003.0
KSKA 210558Z AUTO 26006KT 10SM CLR 02/00 A3009 RMK AO2 UPB47 SLP211 P0000 60000 T00161004 10073 20013 58001,KSKA,2015-02-21T05:58:00Z,47.62,-117.65,1.6,-0.4,260,6,,10.0,30.088583,1021.1,,TRUE,TRUE,,,,,,,CLR,,,,,,,,VFR,-0.1,7.3,1.3,,,0.0050,,,,,,SPECI,750.0
KTCM 210558Z AUTO 00000KT 10SM OVC055 07/07 A3026 RMK AO2 SLP252 T00690069 10102 20052 54000 $,KTCM,2015-02-21T05:58:00Z,47.12,-122.47,6.9,6.9,0,0,,10.0,30.259842,1025.2,,TRUE,TRUE,TRUE,,,,,,OVC,5500,,,,,,,VFR,,10.2,5.2,,,,,,,,,SPECI,98.0
KWRI 210558Z AUTO 21002KT 10SM CLR M18/M23 A3050 RMK AO2 SLP335 T11851231 11115 21185 52006,KWRI,2015-02-21T05:58:00Z,40.02,-74.58,-18.5,-23.1,210,2,,10.0,30.499016,1033.5,,TRUE,TRUE,,,,,,,CLR,,,,,,,,VFR,0.6,-11.5,-18.5,,,,,,,,,METAR,41.0
RKSG 210558Z 10009KT 4SM -RA BR OVC030 06/05 A3000 RMK AO2A SLP163 P0005 60016 T00610051 10072 20055 57024 $,RKSG,2015-02-21T05:58:00Z,36.97,127.02,6.1,5.1,100,9,,4.0,30.0,1016.3,,,TRUE,TRUE,,,,,-RA BR,OVC,3000,,,,,,,MVFR,-2.4,7.2,5.5,,,0.05,,0.16,,,,METAR,16.0
KPOB 210558Z AUTO VRB01KT 10SM CLR M07/M13 A3050 RMK AO2 SLP335 T10731134 11032 21078 55004 $,KPOB,2015-02-21T05:58:00Z,35.17,-79.02,-7.3,-13.4,0,1,,10.0,30.499016,1033.5,,TRUE,TRUE,TRUE,,,,,,CLR,,,,,,,,VFR,-0.4,-3.2,-7.8,,,,,,,,,METAR,66.0
KOZR 210558Z AUTO 11004KT 10SM CLR 03/M08 A3030 RMK AO2 SLP265 T00291078 10068 20022 401021062 57007,KOZR,2015-02-21T05:58:00Z,31.28,-85.72,2.9,-7.8,110,4,,10.0,30.301182,1026.5,,TRUE,TRUE,,,,,,,CLR,,,,,,,,VFR,-0.7,6.8,2.2,10.2,-6.2,,,,,,,METAR,93.0
KLHW 210558Z AUTO 00000KT 10SM CLR M01/M03 A3041 RMK AO2 SLP301 T10121033 10017 21014 56012,KLHW,2015-02-21T05:58:00Z,31.87,-81.57,-1.2,-3.3,0,0,,10.0,30.410433,1030.1,,TRUE,TRUE,,,,,,,CLR,,,,,,,,VFR,-1.2,1.7,-1.4,,,,,,,,,METAR,14.0
KHST 210558Z AUTO 05011KT 10SM OVC060 17/10 A3029 RMK AO2 SLP260 60000 T01650098 10169 20162 58008,KHST,2015-02-21T05:58:00Z,25.47,-80.37,16.5,9.8,50,11,,10.0,30.28937,1026.0,,TRUE,TRUE,,,,,,,OVC,6000,,,,,,,VFR,-0.8,16.9,16.2,,,,,0.0050,,,,METAR,2.0
KGSB 210558Z AUTO 12003KT 10SM CLR M08/M15 A3052 RMK AO2 SLP340 T10771147 11056 21093 50000 $,KGSB,2015-02-21T05:58:00Z,35.32,-77.97,-7.7,-14.7,120,3,,10.0,30.519686,1034.0,,TRUE,TRUE,TRUE,,,,,,CLR,,,,,,,,VFR,0.0,-5.6,-9.3,,,,,,,,,METAR,33.0
MUCF 210558Z AUTO 05007KT 16/11 Q1022,MUCF,2015-02-21T05:58:00Z,22.13,-80.4,16.0,11.0,50,7,,,30.177166,,,TRUE,,,,,,,,,,,,,,,,,,,,,,,,,,,,METAR,39.0
KFFO 210558Z 13002KT 10SM OVC017 M08/M17 A3008 RMK AO2A SLP204 4/001 T10791168 11079 21103 57022,KFFO,2015-02-21T05:58:00Z,39.82,-84.03,-7.9,-16.8,130,2,,10.0,30.079725,1020.4,,,TRUE,,,,,,,OVC,1700,,,,,,,MVFR,-2.2,-7.9,-10.3,,,,,,,1.0,,METAR,251.0
MHSC 210558Z AUTO 34006KT 9999 OVC080 19/16 A3011 RMK AO2 SLP166 T01850162 10208 20182 402580172 50001 $,MHSC,2015-02-21T05:58:00Z,14.37,-87.62,18.5,16.2,340,6,,6.21,30.109253,1016.6,,TRUE,TRUE,TRUE,,,,,,OVC,8000,,,,,,,VFR,0.1,20.8,18.2,25.8,17.2,,,,,,,SPECI,626.0
KBKF 210558Z 00000KT 6SM -SN BR BKN020 OVC038 00/00 A2996 RMK AO2A SLP136 P0000 60000 T10031004 10046 21006 51008,KBKF,2015-02-21T05:58:00Z,39.72,-104.75,-0.3,-0.4,0,0,,6.0,29.958662,1013.6,,,TRUE,,,,,,-SN BR,BKN,2000,OVC,3800,,,,,MVFR,0.8,4.6,-0.6,,,0.0050,,,,,,SPECI,1726.0
KBIF 210558Z AUTO 28020G28KT 10SM OVC160 18/M01 A2994 RMK AO2 PK WND 27031/29 SLP090 T01751015 10206 20175 51010 $,KBIF,2015-02-21T05:58:00Z,31.85,-106.38,17.5,-1.5,280,20,28,10.0,29.940945,1009.0,,TRUE,TRUE,TRUE,,,,,,OVC,16000,,,,,,,VFR,1.0,20.6,17.5,,,,,,,,,METAR,1203.0
KSLI 210558Z 13002KT 10SM BKN250 12/11 A2997 RMK AO2A SLP152 T01230110 10180 20122 51005,KSLI,2015-02-21T05:58:00Z,33.77,-118.03,12.3,11.0,130,2,,10.0,29.970472,1015.2,,,TRUE,,,,,,,BKN,25000,,,,,,,VFR,0.5,18.0,12.2,,,,,,,,,SPECI,11.0
KHMN 210558Z AUTO 25009KT 10SM CLR 15/M06 A2988 RMK AO2 SLP067 T01511064 10201 20146 52010 $,KHMN,2015-02-21T05:58:00Z,32.85,-106.08,15.1,-6.4,250,9,,10.0,29.878937,1006.7,,TRUE,TRUE,TRUE,,,,,,CLR,,,,,,,,VFR,1.0,20.1,14.6,,,,,,,,,SPECI,1248.0
KGRF 210558Z AUTO 20003KT 10SM OVC033 08/07 A3025 RMK AO2 SLP249 T00750074 10099 20071 55002 $,KGRF,2015-02-21T05:58:00Z,47.07,-122.57,7.5,7.4,200,3,,10.0,30.250984,1024.9,,TRUE,TRUE,TRUE,,,,,,OVC,3300,,,,,,,VFR,-0.2,9.9,7.1,,,,,,,,,SPECI,92.0
KEDW 210558Z 21011KT 30SM FEW260 BKN310 12/05 A2991 RMK AO2A SLP122 T01150047 10241 20115 52007 $,KEDW,2015-02-21T05:58:00Z,34.88,-117.87,11.5,4.7,210,11,,30.0,29.911417,1012.2,,,TRUE,TRUE,,,,,,FEW,26000,BKN,31000,,,,,VFR,0.7,24.1,11.5,,,,,,,,,SPECI,702.0
KDMA 210558Z AUTO 13005KT 10SM CLR 15/05 A2996 RMK AO2 SLP119 T01450051 10215 20145 50007 $,KDMA,2015-02-21T05:58:00Z,32.17,-110.87,14.5,5.1,130,5,,10.0,29.958662,1011.9,,TRUE,TRUE,TRUE,,,,,,CLR,,,,,,,,VFR,0.7,21.5,14.5,,,,,,,,,SPECI,824.0
KSZL 210557Z 18005KT 6SM -FZRA BKN005 OVC010 M01/M02 A2985 RMK AO2A BKN V OVC SLP119 P0001 60011 T10151023 11013 21017 58006 $,KSZL,2015-02-21T05:57:00Z,38.72,-93.53,-1.5,-2.3,180,5,,6.0,29.84941,1011.9,,,TRUE,TRUE,,,,,-FZRA,BKN,500,OVC,1000,,,,,IFR,-0.6,-1.3,-1.7,,,0.01,,0.11,,,,METAR,265.0
KFLG 210557Z AUTO 00000KT 10SM CLR 00/M05 A3003 RMK AO2 SLP125 T00001050 10111 20000 53006 TSNO,KFLG,2015-02-21T05:57:00Z,35.13,-111.67,0.0,-5.0,0,0,,10.0,30.029528,1012.5,,TRUE,TRUE,,,TRUE,,,,CLR,,,,,,,,VFR,0.6,11.1,0.0,,,,,,,,,METAR,2134.0
KROG 210557Z AUTO 07004KT 2 1/2SM -RA BR OVC003 03/02 A2974 RMK AO2 RAB04 SLP078 P0000 60007 T00280022 10028 20017 58014 TSNO,KROG,2015-02-21T05:57:00Z,36.37,-94.08,2.8,2.2,70,4,,2.5,29.740158,1007.8,,TRUE,TRUE,,,TRUE,,,-RA BR,OVC,300,,,,,,,LIFR,-1.4,2.8,1.7,,,0.0050,,0.07,,,,METAR,415.0
PAGH 210557Z AUTO 11019G27KT 10SM SCT032 BKN065 M01/M03 A3010 RMK AO2 PK WND 11029/0509 SLP224 60000 T10111028 11011 21011 58008 FZRANO,PAGH,2015-02-21T05:57:00Z,66.88,-157.17,-1.1,-2.8,110,19,27,10.0,30.100393,1022.4,,TRUE,TRUE,,,,TRUE,,,SCT,3200,BKN,6500,,,,,VFR,-0.8,-1.1,-1.1,,,,,0.0050,,,,METAR,60.0
PAVA 210557Z AUTO 05018KT 10SM CLR 02/00 A2967 RMK AO2 SLP048 T00170000 10017 20011 58031 FZRANO,PAVA,2015-02-21T05:57:00Z,61.53,-165.6,1.7,0.0,50,18,,10.0,29.66929,1004.8,,TRUE,TRUE,,,,TRUE,,,CLR,,,,,,,,VFR,-3.1,1.7,1.1,,,,,,,,,METAR,23.0
KNJM 210557Z AUTO 04004KT 10SM CLR M06/M16 A3056 RMK AO2 SLP352 T10611156 11044 21078 58003 $,KNJM,2015-02-21T05:57:00Z,34.67,-77.02,-6.1,-15.6,40,4,,10.0,30.561024,1035.2,,TRUE,TRUE,TRUE,,,,,,CLR,,,,,,,,VFR,-0.3,-4.4,-7.8,,,,,,,,,METAR,7.0
KNSI 210557Z AUTO 30003KT 8SM OVC017 00/00 A2998 RMK AO2 SLP149 T00000000 51012 $,KNSI,2015-02-21T05:57:00Z,33.22,-119.45,0.0,0.0,300,3,,8.0,29.97933,1014.9,,TRUE,TRUE,TRUE,,,,,,OVC,1700,,,,,,,MVFR,1.2,,,,,,,,,,,METAR,154.0
OIHH 210557Z 21008KT 8000 FEW040 SCT100 M00/M11 Q1005,OIHH,2015-02-21T05:57:00Z,34.87,48.55,0.0,-11.0,210,8,,4.97,29.675198,,,,,,,,,,,FEW,4000,SCT,10000,,,,,MVFR,,,,,,,,,,,,METAR,1757.0
KNYL 210557Z 16005KT 7SM SCT150 BKN200 19/06 A2986 RMK SLP110 T01890061 10261 20189 51010,KNYL,2015-02-21T05:57:00Z,32.63,-114.62,18.9,6.1,160,5,,7.0,29.861221,1011.0,,,,,,,,,,SCT,15000,BKN,20000,,,,,VFR,1.0,26.1,18.9,,,,,,,,,METAR,65.0
PAVC 210556Z AUTO 31009KT 10SM -RA FEW025 BKN032 OVC042 04/03 A2911 RMK AO2 TSNO 56025 60004 T00440027 10061 20044 P0002 SLP858 $,PAVC,2015-02-21T05:56:00Z,55.12,-162.27,4.4,2.7,310,9,,10.0,29.111221,985.8,,TRUE,TRUE,TRUE,,TRUE,,,-RA,FEW,2500,BKN,3200,OVC,4200,,,VFR,-2.5,6.1,4.4,,,0.02,,0.04,,,,METAR,47.0
PANW 210556Z AUTO 09023G35KT 10SM SCT016 OVC070 04/00 A2959 RMK AO2 TSNO 56033 60000 T00380000 10055 20033 PK WND 09041/0530 SLP998 $,PANW,2015-02-21T05:56:00Z,59.45,-157.37,3.8,0.0,90,23,35,10.0,29.589567,999.8,,TRUE,TRUE,TRUE,,TRUE,,,,SCT,1600,OVC,7000,,,,,VFR,-3.3,5.5,3.3,,,,,0.0050,,,,METAR,92.0
KELZ 210556Z AUTO 21010G15KT 10SM FEW060 SCT090 OVC110 M14/M24 A3012 RMK AO2 SLP252 T11441239 11144 21172 58012,KELZ,2015-02-21T05:56:00Z,42.1,-77.98,-14.4,-23.9,210,10,15,10.0,30.121063,1025.2,,TRUE,TRUE,,,,,,,FEW,6000,SCT,9000,OVC,11000,,,VFR,-1.2,-14.4,-17.2,,,,,,,,,METAR,646.0
KMHS 210556Z AUTO 05003KT 10SM CLR 06/M03 A3013 RMK AO2 SLP220 T00611028 10133 20056 51011,KMHS,2015-02-21T05:56:00Z,41.32,-122.32,6.1,-2.8,50,3,,10.0,30.129921,1022.0,,TRUE,TRUE,,,,,,,CLR,,,,,,,,VFR,1.1,13.3,5.6,,,,,,,,,METAR,1078.0
PFKW 210556Z AUTO 05012KT 10SM FEW120 05/M03 A2954 RMK AO2 SLP003 T00501028 10083 20039 56034 $,PFKW,2015-02-21T05:56:00Z,60.8,-161.43,5.0,-2.8,50,12,,10.0,29.53937,1000.3,,TRUE,TRUE,TRUE,,,,,,FEW,12000,,,,,,,VFR,-3.4,8.3,3.9,,,,,,,,,METAR,8.0
PFCL 210556Z AUTO 06020G31KT 10SM OVC048 04/01 A2947 RMK AO2 PK WND 08034/0506 SLP982 60006 T00390006 10050 20028 56021,PFCL,2015-02-21T05:56:00Z,58.83,-158.53,3.9,0.6,60,20,31,10.0,29.471457,998.2,,TRUE,TRUE,,,,,,,OVC,4800,,,,,,,VFR,-2.1,5.0,2.8,,,,,0.06,,,,METAR,24.0
KSBP 210556Z AUTO 02003KT 5SM BR OVC005 13/12 A2998 RMK AO2 SLP150 T01280117 10172 20117 51007,KSBP,2015-02-21T05:56:00Z,35.23,-120.63,12.8,11.7,20,3,,5.0,29.97933,1015.0,,TRUE,TRUE,,,,,,BR,OVC,500,,,,,,,IFR,0.7,17.2,11.7,,,,,,,,,METAR,59.0
KART 210556Z AUTO 00000KT 10SM CLR M18/M24 A3031 RMK AO2 SLP277 60000 T11831239 11122 21183 58008,KART,2015-02-21T05:56:00Z,43.98,-76.03,-18.3,-23.9,0,0,,10.0,30.31004,1027.7,,TRUE,TRUE,,,,,,,CLR,,,,,,,,VFR,-0.8,-12.2,-18.3,,,,,0.0050,,,,METAR,100.0
KAND 210556Z AUTO 00000KT 10SM OVC035 M01/M07 A3039 RMK AO2 SLP298 60000 T10061072 10006 21006 58006,KAND,2015-02-21T05:56:00Z,34.5,-82.72,-0.6,-7.2,0,0,,10.0,30.389763,1029.8,,TRUE,TRUE,,,,,,,OVC,3500,,,,,,,VFR,-0.6,0.6,-0.6,,,,,0.0050,,,,METAR,239.0
KAJO 210556Z AUTO 00000KT 10SM CLR 13/11 A2998 RMK AO2 51012 T01330111 10205 20133 SLP149 $,KAJO,2015-02-21T05:56:00Z,33.9,-117.6,13.3,11.1,0,0,,10.0,29.97933,1014.9,,TRUE,TRUE,TRUE,,,,,,CLR,,,,,,,,VFR,1.2,20.5,13.3,,,,,,,,,METAR,163.0
K1M4 210556Z AUTO 14011G18KT 10SM M01/M08 A3010 RMK AO2 57022 60003 T10111077 11011 21033 SLP204 $,K1M4,2015-02-21T05:56:00Z,34.28,-87.6,-1.1,-7.7,140,11,18,10.0,30.100393,1020.4,,TRUE,TRUE,TRUE,,,,,,,,,,,,,,,-2.2,-1.1,-3.3,,,,,0.03,,,,METAR,284.0
PATQ 210556Z AUTO 07012KT 10SM -SN OVC022 M17/M19 A3027 RMK AO2 TSNO 58003 60000 T11721188 11172 21177 P0000 SLP259 $,PATQ,2015-02-21T05:56:00Z,70.47,-157.43,-17.2,-18.8,70,12,,10.0,30.268702,1025.9,,TRUE,TRUE,TRUE,,TRUE,,,-SN,OVC,2200,,,,,,,MVFR,-0.3,-17.2,-17.7,,,0.0050,,0.0050,,,,METAR,29.0
PARY 210556Z AUTO 08011KT 10SM CLR M04/M09 A3000 RMK AO2 TSNO 56017 T10441088 11011 21044 SLP171 $,PARY,2015-02-21T05:56:00Z,64.73,-155.47,-4.4,-8.8,80,11,,10.0,30.0,1017.1,,TRUE,TRUE,TRUE,,TRUE,,,,CLR,,,,,,,,VFR,-1.7,-1.1,-4.4,,,,,,,,,METAR,199.0
PARS 210556Z AUTO 05010G14KT 10SM CLR 03/M03 A2966 RMK AO2 TSNO 58032 T00271033 10050 20027 SLP049 $,PARS,2015-02-21T05:56:00Z,61.77,-161.32,2.7,-3.3,50,10,14,10.0,29.660433,1004.9,,TRUE,TRUE,TRUE,,TRUE,,,,CLR,,,,,,,,VFR,-3.2,5.0,2.7,,,,,,,,,METAR,16.0
PAQH 210556Z AUTO 13006KT 10SM -RA BKN049 OVC060 04/02 A2947 RMK AO2 SLP982 P0002 60002 T00390017 10072 20039 56025,PAQH,2015-02-21T05:56:00Z,59.75,-161.85,3.9,1.7,130,6,,10.0,29.471457,998.2,,TRUE,TRUE,,,,,,-RA,BKN,4900,OVC,6000,,,,,VFR,-2.5,7.2,3.9,,,0.02,,0.02,,,,METAR,13.0
PAOU 210556Z AUTO 05006KT 1 1/2SM BR FEW009 BKN044 OVC065 02/02 A2910 RMK AO2 TSNO 56036 60000 T00220022 10033 20016 RAB00E37SNE10 P0000 SLP856 $,PAOU,2015-02-21T05:56:00Z,56.0,-161.17,2.2,2.2,50,6,,1.5,29.09941,985.6,,TRUE,TRUE,TRUE,,TRUE,,,BR,FEW,900,BKN,4400,OVC,6500,,,IFR,-3.6,3.3,1.6,,,0.0050,,0.0050,,,,METAR,4.0
PAOO 210556Z AUTO 04021KT 10SM CLR 03/M02 A2953 RMK AO2 TSNO 58036 T00271016 10033 20022 PK WND 05028/0550 SLP001 $,PAOO,2015-02-21T05:56:00Z,60.53,-165.12,2.7,-1.6,40,21,,10.0,29.530512,1000.1,,TRUE,TRUE,TRUE,,TRUE,,,,CLR,,,,,,,,VFR,-3.6,3.3,2.2,,,,,,,,,METAR,18.0
PAOH 210556Z AUTO 00000KT 10SM FEW023 M01/M01 A3045 RMK AO2 TSNO 53006 T10051005 10055 21005 SLP313 $,PAOH,2015-02-21T05:56:00Z,58.1,-135.45,-0.5,-0.5,0,0,,10.0,30.448818,1031.3,,TRUE,TRUE,TRUE,,TRUE,,,,FEW,2300,,,,,,,VFR,0.6,5.5,-0.5,,,,,,,,,METAR,9.0
PANA 210556Z AUTO 05010KT 10SM CLR 03/M02 A2952 RMK AO2 SLP997 T00331022 10072 20033 56034,PANA,2015-02-21T05:56:00Z,60.68,-161.98,3.3,-2.2,50,10,,10.0,29.518702,999.7,,TRUE,TRUE,,,,,,,CLR,,,,,,,,VFR,-3.4,7.2,3.3,,,,,,,,,METAR,5.0
PAMO 210556Z AUTO 06021KT 10SM CLR 01/M02 A2968 RMK AO2 TSNO 58031 T00051022 10016 20005 SLP936 $,PAMO,2015-02-21T05:56:00Z,62.1,-163.68,0.5,-2.2,60,21,,10.0,29.681103,993.6,,TRUE,TRUE,TRUE,,TRUE,,,,CLR,,,,,,,,VFR,-3.1,1.6,0.5,,,,,,,,,METAR,103.0
PAMK 210556Z AUTO 06009KT 10SM CLR M03/M05 A2980 RMK AO2 TSNO 57021 T10271050 10016 21027 SLP096 $,PAMK,2015-02-21T05:56:00Z,63.48,-162.12,-2.7,-5.0,60,9,,10.0,29.799213,1009.6,,TRUE,TRUE,TRUE,,TRUE,,,,CLR,,,,,,,,VFR,-2.1,1.6,-2.7,,,,,,,,,METAR,28.0
PAMB 210556Z AUTO 06027G38KT SCT034 OVC045 03/01 A2945 RMK AO2 TSNO 56026 60000 T00330005 10038 20016 PK WND 05038/0547 SLP975 $,PAMB,2015-02-21T05:56:00Z,58.98,-159.05,3.3,0.5,60,27,38,,29.450787,997.5,,TRUE,TRUE,TRUE,,TRUE,,,,SCT,3400,OVC,4500,,,,,,-2.6,3.8,1.6,,,,,0.0050,,,,METAR,16.0
PALG 210556Z AUTO 06012G18KT CLR 05/M06 RMK AO2 PWINO TSNO 5//// T00501055 10072 20044 SLPNO $,PALG,2015-02-21T05:56:00Z,61.53,-160.33,5.0,-5.5,60,12,18,,,,,TRUE,TRUE,TRUE,,TRUE,,TRUE,,CLR,,,,,,,,,,7.2,4.4,,,,,,,,,METAR,17.0
PAKI 210556Z AUTO 01010KT 10SM FEW120 01/M01 A2948 RMK AO2 TSNO 56035 T00051011 10016 20005 SLP984 $,PAKI,2015-02-21T05:56:00Z,59.93,-164.03,0.5,-1.1,10,10,,10.0,29.480314,998.4,,TRUE,TRUE,TRUE,,TRUE,,,,FEW,12000,,,,,,,VFR,-3.5,1.6,0.5,,,,,,,,,METAR,4.0
PAKH 210556Z AUTO 09022G27KT 07/04 RMK AO2 PWINO TSNO 5//// 60002 T00660044 10072 20066 PK WND 09036/0526 SLPNO $,PAKH,2015-02-21T05:56:00Z,56.93,-154.18,6.6,4.4,90,22,27,,,,,TRUE,TRUE,TRUE,,TRUE,,TRUE,,,,,,,,,,,,7.2,6.6,,,,,0.02,,,,METAR,14.0
PAIG 210556Z AUTO 08030G42KT BKN090 03/M01 A2958 RMK AO2 TSNO 58037 60000 T00271005 10055 20022 PK WND 07045/0540 SLP022 $,PAIG,2015-02-21T05:56:00Z,59.32,-155.9,2.7,-0.5,80,30,42,,29.58071,1002.2,,TRUE,TRUE,TRUE,,TRUE,,,,BKN,9000,,,,,,,,-3.7,5.5,2.2,,,,,0.0050,,,,METAR,28.0
PAHC 210556Z AUTO 02005KT 10SM OVC090 03/M04 A2973 RMK AO2 TSNO 58031 60000 T00271044 10055 20027 RAE08 P0000 SLP071 $,PAHC,2015-02-21T05:56:00Z,62.18,-159.78,2.7,-4.4,20,5,,10.0,29.731298,1007.1,,TRUE,TRUE,TRUE,,TRUE,,,,OVC,9000,,,,,,,VFR,-3.1,5.5,2.7,,,0.0050,,0.0050,,,,METAR,21.0
PAFS 210556Z AUTO 05016KT 10SM SCT100 M03/M09 A2990 RMK AO2 TSNO 58020 T10271094 10011 21027 SLP139 $,PAFS,2015-02-21T05:56:00Z,63.02,-154.35,-2.7,-9.4,50,16,,10.0,29.899607,1013.9,,TRUE,TRUE,TRUE,,TRUE,,,,SCT,10000,,,,,,,VFR,-2.0,1.1,-2.7,,,,,,,,,METAR,126.0
PADM 210556Z AUTO 06011KT 10SM BKN085 02/M03 A2969 RMK AO2 TSNO 58029 T00221027 10050 20022 BKN V SCT SLP042 $,PADM,2015-02-21T05:56:00Z,61.87,-162.03,2.2,-2.7,60,11,,10.0,29.68996,1004.2,,TRUE,TRUE,TRUE,,TRUE,,,,BKN,8500,,,,,,,VFR,-2.9,5.0,2.2,,,,,,,,,METAR,31.0
PACM 210556Z AUTO 00000KT 10SM FEW008 01/00 A2969 RMK AO2 FZRANO TSNO 58031 T00110000 10022 20005 SLP049 $,PACM,2015-02-21T05:56:00Z,61.85,-165.57,1.1,0.0,0,0,,10.0,29.68996,1004.9,,TRUE,TRUE,TRUE,,TRUE,TRUE,,,FEW,800,,,,,,,VFR,-3.1,2.2,0.5,,,,,,,,,METAR,4.0
PMDY 210556Z AUTO 18017KT 6SM BR CLR 19/17 A2979 RMK AO2 TSNO 55008 T01880166 10216 20188 SLP396 $,PMDY,2015-02-21T05:56:00Z,28.22,-177.37,18.8,16.6,180,17,,6.0,29.790354,1039.6,,TRUE,TRUE,TRUE,,TRUE,,,BR,CLR,,,,,,,,VFR,-0.8,21.6,18.8,,,,,,,,,METAR,4.0
PHNY 210556Z AUTO 10004KT 10SM FEW040 SCT047 OVC055 20/20 A3002 RMK AO2 TSNO 51014 60000 T02000200 10272 20194 SLP150 $,PHNY,2015-02-21T05:56:00Z,20.77,-156.93,20.0,20.0,100,4,,10.0,30.02067,1015.0,,TRUE,TRUE,TRUE,,TRUE,,,,FEW,4000,SCT,4700,OVC,5500,,,VFR,1.4,27.2,19.4,,,,,0.0050,,,,METAR,399.0
K8D3 210556Z AUTO 03014KT M08/M11 A2993 RMK AO1 SLP159 T10831106 11044 21094 400171094 51013,K8D3,2015-02-21T05:56:00Z,45.67,-96.98,-8.3,-10.6,30,14,,,29.929134,1015.9,,TRUE,TRUE,,,,,,,,,,,,,,,,1.3,-4.4,-9.4,1.7,-9.4,,,,,,,METAR,354.0
KNID 210556Z 18005KT 10SM FEW270 13/00 A2987 RMK AO2 SLP112 T01280000 10244 20128 53001 $,KNID,2015-02-21T05:56:00Z,35.67,-117.67,12.8,0.0,180,5,,10.0,29.870079,1011.2,,,TRUE,TRUE,,,,,,FEW,27000,,,,,,,VFR,0.1,24.4,12.8,,,,,,,,,METAR,696.0
PHSF 210556Z AUTO 01003KT 10SM CLR 11/09 A3028 RMK AO2 SLP144 T01070089 10198 20107 52013 $,PHSF,2015-02-21T05:56:00Z,19.77,-155.55,10.7,8.9,10,3,,10.0,30.280512,1014.4,,TRUE,TRUE,TRUE,,,,,,CLR,,,,,,,,VFR,1.3,19.8,10.7,,,,,,,,,METAR,1887.0
KTDR 210556Z AUTO 09005KT 10SM CLR 05/00 A3030 RMK AO2 SLPNO T00491001 10066 20043 401060043 58005,KTDR,2015-02-21T05:56:00Z,30.05,-85.52,4.9,-0.1,90,5,,10.0,30.301182,,,TRUE,TRUE,,,,,,,CLR,,,,,,,,VFR,-0.5,6.6,4.3,10.6,4.3,,,,,,,METAR,5.0
KSXS 210556Z AUTO 14006KT 10SM SCT230 03/M07 A3030 RMK AO2 SLP265 T00251072 10068 20024 400981060 58008,KSXS,2015-02-21T05:56:00Z,31.37,-85.85,2.5,-7.2,140,6,,10.0,30.301182,1026.5,,TRUE,TRUE,,,,,,,SCT,23000,,,,,,,VFR,-0.8,6.8,2.4,9.8,-6.0,,,,,,,METAR,122.0
K2DP 210556Z AUTO 00000KT 10SM CLR M10/M11 A3058 RMK AO2 SLPNO T11021109 11086 21117 50003,K2DP,2015-02-21T05:56:00Z,35.68,-75.9,-10.2,-10.9,0,0,,10.0,30.578741,,,TRUE,TRUE,,,,,,,CLR,,,,,,,,VFR,0.3,-8.6,-11.7,,,,,,,,,METAR,3.0
KNCA 210556Z AUTO 09007KT 10SM CLR M06/M14 A3055 RMK AO2 SLP346 T10561139 11039 21061 58005,KNCA,2015-02-21T05:56:00Z,34.72,-77.45,-5.6,-13.9,90,7,,10.0,30.549213,1034.6,,TRUE,TRUE,,,,,,,CLR,,,,,,,,VFR,-0.5,-3.9,-6.1,,,,,,,,,METAR,8.0
PASY 210556Z AUTO 34014KT 10SM CLR M02/M16 A2985 RMK AO2 SLP109 T10171161 10006 21017 51004 TSNO $,PASY,2015-02-21T05:56:00Z,52.72,174.12,-1.7,-16.1,340,14,,10.0,29.84941,1010.9,,TRUE,TRUE,TRUE,,TRUE,,,,CLR,,,,,,,,VFR,0.4,0.6,-1.7,,,,,,,,,METAR,31.0
KNTU 210556Z 00000KT 10SM CLR M12/M18 A3056 RMK AO2 SLP349 T11171178 11072 21128 50000,KNTU,2015-02-21T05:56:00Z,36.82,-76.02,-11.7,-17.8,0,0,,10.0,30.561024,1034.9,,,TRUE,,,,,,,CLR,,,,,,,,VFR,0.0,-7.2,-12.8,,,,,,,,,METAR,7.0
MUGM 210556Z 01010KT 9999 FEW070 23/18 A3012 RMK SLP200 T02280178 10233 20228 58010,MUGM,2015-02-21T05:56:00Z,19.9,-75.2,22.8,17.8,10,10,,6.21,30.121063,1020.0,,,,,,,,,,FEW,7000,,,,,,,VFR,-1.0,23.3,22.8,,,,,,,,,SPECI,17.0
KNGP 210556Z AUTO 17016G21KT 6SM BR OVC018 17/17 A2988 RMK AO2 SLP118 T01720172 10200 20172 402170167 50001,KNGP,2015-02-21T05:56:00Z,27.68,-97.27,17.2,17.2,170,16,21,6.0,29.878937,1011.8,,TRUE,TRUE,,,,,,BR,OVC,1800,,,,,,,MVFR,0.1,20.0,17.2,21.7,16.7,,,,,,,METAR,6.0
KPRN 210556Z AUTO 16007KT 10SM CLR 04/M07 A3024 RMK AO2 SLP242 T00441067 10072 20039 401001067 56011,KPRN,2015-02-21T05:56:00Z,31.85,-86.62,4.4,-6.7,160,7,,10.0,30.239174,1024.2,,TRUE,TRUE,,,,,,,CLR,,,,,,,,VFR,-1.1,7.2,3.9,10.0,-6.7,,,,,,,METAR,138.0
KNBC 210556Z AUTO 06004KT 10SM SCT075 OVC095 03/M02 A3044 RMK AO2 SLP309 T00281022 10028 20000 56017,KNBC,2015-02-21T05:56:00Z,32.47,-80.72,2.8,-2.2,60,4,,10.0,30.43996,1030.9,,TRUE,TRUE,,,,,,,SCT,7500,OVC,9500,,,,,VFR,-1.7,2.8,0.0,,,,,,,,,METAR,12.0
KSPD 210556Z AUTO 33010KT 01/00 A2989 RMK AO1 SLP095 T00060000 10128 20006 53006,KSPD,2015-02-21T05:56:00Z,37.28,-102.62,0.6,0.0,330,10,,,29.890747,1009.5,,TRUE,TRUE,,,,,,,,,,,,,,,,0.6,12.8,0.6,,,,,,,,,METAR,1335.0
KNXP 210556Z AUTO VRB05KT 10SM CLR 18/M02 A2997 RMK AO2 SLP122 T01781022 10250 20156 53010,KNXP,2015-02-21T05:56:00Z,34.28,-116.17,17.8,-2.2,0,5,,10.0,29.970472,1012.2,,TRUE,TRUE,,,,,,,CLR,,,,,,,,VFR,1.0,25.0,15.6,,,,,,,,,METAR,626.0
KP28 210556Z AUTO 36006KT 03/03 A2986 RMK AO1 SLP121 60001 T00280028 10039 20028 400611044 53016,KP28,2015-02-21T05:56:00Z,37.28,-98.55,2.8,2.8,360,6,,,29.861221,1012.1,,TRUE,TRUE,,,,,,,,,,,,,,,,1.6,3.9,2.8,6.1,-4.4,,,0.01,,,,METAR,469.0
K2WX 210556Z AUTO 31013KT 00/M02 A2982 RMK AO1 SLP120 T00001022 10028 21011 51007,K2WX,2015-02-21T05:56:00Z,45.6,-103.55,0.0,-2.2,310,13,,,29.819881,1012.0,,TRUE,TRUE,,,,,,,,,,,,,,,,0.7,2.8,-1.1,,,,,,,,,METAR,915.0
KNUW 210556Z 00000KT 10SM BKN032 BKN050 OVC220 08/06 A3028 RMK AO2 SLP257 T00780056 10117 20067 53004 VISNO E $,KNUW,2015-02-21T05:56:00Z,48.35,-122.65,7.8,5.6,0,0,,10.0,30.280512,1025.7,,,TRUE,TRUE,,,,,,BKN,3200,BKN,5000,OVC,22000,,,VFR,0.4,11.7,6.7,,,,,,,,,METAR,14.0
KNFL 210556Z 25003KT 10SM FEW150 FEW250 02/M08 A3007 RMK AO2 SLP151 T00171078 10144 20006 53011,KNFL,2015-02-21T05:56:00Z,39.42,-118.7,1.7,-7.8,250,3,,10.0,30.070866,1015.1,,,TRUE,,,,,,,FEW,15000,FEW,25000,,,,,VFR,1.1,14.4,0.6,,,,,,,,,METAR,1199.0
PAJZ 210556Z AUTO 10022G29KT 10SM OVC023 04/01 A2965 RMK AO2 TSNO 56036 T00440005 10061 20038 PK WND 10029/0550 SLP031 $,PAJZ,2015-02-21T05:56:00Z,59.73,-157.27,4.4,0.5,100,22,29,10.0,29.648623,1003.1,,TRUE,TRUE,TRUE,,TRUE,,,,OVC,2300,,,,,,,MVFR,-3.6,6.1,3.8,,,,,,,,,METAR,82.0
KNYG 210556Z AUTO 22006KT 10SM CLR M09/M21 A3051 RMK AO2 SLP334 6//// T10941211 11067 21100 58006 $,KNYG,2015-02-21T05:56:00Z,38.5,-77.28,-9.4,-21.1,220,6,,10.0,30.510826,1033.4,,TRUE,TRUE,TRUE,,,,,,CLR,,,,,,,,VFR,-0.6,-6.7,-10.0,,,,,,,,,METAR,4.0
K79J 210556Z AUTO VRB06KT 10SM CLR 06/M03 A3027 RMK AO2 SLP251 T00611033 10106 20061 58008,K79J,2015-02-21T05:56:00Z,31.32,-86.4,6.1,-3.3,0,6,,10.0,30.268702,1025.1,,TRUE,TRUE,,,,,,,CLR,,,,,,,,VFR,-0.8,10.6,6.1,,,,,,,,,METAR,94.0
KNSE 210556Z AUTO 13010KT 10SM BKN028 11/07 A3024 RMK AO2 SLP229 T01060072 10106 20067 401221056 56008 $,KNSE,2015-02-21T05:56:00Z,30.73,-87.02,10.6,7.2,130,10,,10.0,30.239174,1022.9,,TRUE,TRUE,TRUE,,,,,,BKN,2800,,,,,,,MVFR,-0.8,10.6,6.7,12.2,-5.6,,,,,,,METAR,61.0
KNRS 210556Z AUTO 18003KT OVC023 16/12 A2998 RMK AO2 SLP152 T01560117 10172 20150 53002 $,KNRS,2015-02-21T05:56:00Z,32.57,-117.12,15.6,11.7,180,3,,,29.97933,1015.2,,TRUE,TRUE,TRUE,,,,,,OVC,2300,,,,,,,,0.2,17.2,15.0,,,,,,,,,METAR,7.0
KALK 210556Z AUTO 21016KT 10SM CLR 14/00 A3005 RMK AO2 SLP102 T01440000 10150 20128 55000,KALK,2015-02-21T05:56:00Z,31.6,-110.43,14.4,0.0,210,16,,10.0,30.050198,1010.2,,TRUE,TRUE,,,,,,,CLR,,,,,,,,VFR,0.0,15.0,12.8,,,,,,,,,METAR,1453.0
PHBK 210556Z AUTO 01014G18KT 10SM BKN032 22/15 A2997 RMK AO2 SLP150 T02170150 10256 20217 53014,PHBK,2015-02-21T05:56:00Z,22.03,-159.78,21.7,15.0,10,14,18,10.0,29.970472,1015.0,,TRUE,TRUE,,,,,,,BKN,3200,,,,,,,VFR,1.4,25.6,21.7,,,,,,,,,METAR,8.0
KP60 210556Z AUTO 00000KT M06/M09 A2993 RMK AO1 SLP159 T10611094 11022 21067 56004 $,KP60,2015-02-21T05:56:00Z,44.55,-110.42,-6.1,-9.4,0,0,,,29.929134,1015.9,,TRUE,TRUE,TRUE,,,,,,,,,,,,,,,-0.4,-2.2,-6.7,,,,,,,,,METAR,2388.0
KSLE 210556Z AUTO 00000KT 10SM CLR 09/06 A3024 RMK AO2 SLP240 T00940056 10144 20089 50002,KSLE,2015-02-21T05:56:00Z,44.9,-123.0,9.4,5.6,0,0,,10.0,30.239174,1024.0,,TRUE,TRUE,,,,,,,CLR,,,,,,,,VFR,0.2,14.4,8.9,,,,,,,,,METAR,59.0
KSGH 210556Z AUTO 13009KT 9SM OVC023 M09/M16 A3008 RMK AO2 56023 T10881161 11088 21111 SLP206,KSGH,2015-02-21T05:56:00Z,39.83,-83.83,-8.8,-16.1,130,9,,9.0,30.079725,1020.6,,TRUE,TRUE,,,,,,,OVC,2300,,,,,,,MVFR,-2.3,-8.8,-11.1,,,,,,,,,METAR,321.0
KSFO 210556Z 00000KT 10SM FEW200 14/12 A2998 RMK AO2 SLP150 T01390122 10194 20128 53008,KSFO,2015-02-21T05:56:00Z,37.62,-122.37,13.9,12.2,0,0,,10.0,29.97933,1015.0,,,TRUE,,,,,,,FEW,20000,,,,,,,VFR,0.8,19.4,12.8,,,,,,,,,METAR,3.0
KNJK 210556Z AUTO 24006KT 10SM CLR 21/03 A2984 RMK AO2 SLP119 T02060033 10267 20178 51008 $,KNJK,2015-02-21T05:56:00Z,32.82,-115.67,20.6,3.3,240,6,,10.0,29.840551,1011.9,,TRUE,TRUE,TRUE,,,,,,CLR,,,,,,,,VFR,0.8,26.7,17.8,,,,,,,,,METAR,-13.0
KNXF 210556Z AUTO 10003KT 8SM OVC020 16/11 A2998 RMK AO2 SLP237 T01610111 10172 20150 53006 $,KNXF,2015-02-21T05:56:00Z,33.28,-117.45,16.1,11.1,100,3,,8.0,29.97933,1023.7,,TRUE,TRUE,TRUE,,,,,,OVC,2000,,,,,,,MVFR,0.6,17.2,15.0,,,,,,,,,METAR,27.0
PAPN 210556Z AUTO 13023G33KT 10SM BKN025 OVC031 A2932 RMK AO2 PWINO TSNO 57030 PK WND 14037/0457 SLPNO $,PAPN,2015-02-21T05:56:00Z,57.58,-157.57,,,130,23,33,10.0,29.320866,,,TRUE,TRUE,TRUE,,TRUE,,TRUE,,BKN,2500,OVC,3100,,,,,MVFR,-3.0,,,,,,,,,,,METAR,18.0
KDAY 210556Z 16009KT 10SM OVC018 M07/M16 A3006 RMK AO2 SLP198 4/002 T10721161 11072 21100 56021,KDAY,2015-02-21T05:56:00Z,39.9,-84.22,-7.2,-16.1,160,9,,10.0,30.059055,1019.8,,,TRUE,,,,,,,OVC,1800,,,,,,,MVFR,-2.1,-7.2,-10.0,,,,,,,2.0,,METAR,305.0
KCXY 210556Z AUTO 10005KT 10SM CLR M12/M21 A3044 RMK AO2 SLP315 T11221206 11111 21144 58003,KCXY,2015-02-21T05:56:00Z,40.22,-76.85,-12.2,-20.6,100,5,,10.0,30.43996,1031.5,,TRUE,TRUE,,,,,,,CLR,,,,,,,,VFR,-0.3,-11.1,-14.4,,,,,,,,,METAR,106.0
KQRB 210556Z 04003KT 9999 FEW015 SCT018 BKN022 BKN095 24/23 A2984 RMK AO2A LTG DSNT S SLP103,KQRB,2015-02-21T05:56:00Z,100.65,-1000.65,24.0,23.0,40,3,,6.21,29.840551,1010.3,,,TRUE,,,,,,,FEW,1500,SCT,1800,BKN,2200,BKN,9500,MVFR,,,,,,,,,,,,SPECI,999.0
KP53 210556Z AUTO 20007KT M10/M14 A2983 RMK AO1 SLP114 60001 T11001139 11100 21100 56006,KP53,2015-02-21T05:56:00Z,46.42,-86.65,-10.0,-13.9,200,7,,,29.828741,1011.4,,TRUE,TRUE,,,,,,,,,,,,,,,,-0.6,-10.0,-10.0,,,,,0.01,,,,METAR,187.0
KNTD 210556Z 05003KT 6SM HZ FEW014 BKN250 14/11 A2998 RMK AO2 SLP153 T01390106 10178 20139 51010 $,KNTD,2015-02-21T05:56:00Z,34.12,-119.12,13.9,10.6,50,3,,6.0,29.97933,1015.3,,,TRUE,TRUE,,,,,HZ,FEW,1400,BKN,25000,,,,,VFR,1.0,17.8,13.9,,,,,,,,,METAR,4.0
KQSA 210556Z VRB02KT 9000 -RA BR FEW007 BKN017 OVC023 08/07 A3025 RMK AO2A SLP196 P0001 60003 T00820073 10087 20077 51017 VISNO RWY21 CHINO RWY21 $,KQSA,2015-02-21T05:56:00Z,100.65,-1000.65,8.2,7.3,0,2,,5.59,30.250984,1019.6,,,TRUE,TRUE,,,,,-RA BR,FEW,700,BKN,1700,OVC,2300,,,MVFR,1.7,8.7,7.7,,,0.01,,0.03,,,,METAR,999.0
KQFS 210556Z AUTO 06003KT 8000 -RA M 07/05 A3006 RMK AO2 SHRAE12RAB12 SLPNO T00700051 10076 20058 57026 $,KQFS,2015-02-21T05:56:00Z,100.65,-1000.65,7.0,5.1,60,3,,4.97,30.059055,,,TRUE,TRUE,TRUE,,,,,-RA,,,,,,,,,,-2.6,7.6,5.8,,,,,,,,,METAR,999.0
KQRH 210556Z AUTO 01005G13KT 9999 FEW016 SCT025 BKN038 27/20 A2997 RMK AO2 SLP142 T02710204 10278 20248,KQRH,2015-02-21T05:56:00Z,100.65,-1000.65,27.1,20.4,10,5,13,6.21,29.970472,1014.2,,TRUE,TRUE,,,,,,,FEW,1600,SCT,2500,BKN,3800,,,VFR,,27.8,24.8,,,,,,,,,METAR,999.0
KQHY 210556Z AUTO 15005G16KT 10SM BKN024 12/08 A3028 RMK AO2 SLP261 T01230077 10123 20107 58007,KQHY,2015-02-21T05:56:00Z,100.65,-1000.65,12.3,7.7,150,5,16,10.0,30.280512,1026.1,,TRUE,TRUE,,,,,,,BKN,2400,,,,,,,MVFR,-0.7,12.3,10.7,,,,,,,,,METAR,999.0
KMOB 210556Z AUTO 15011KT 10SM CLR 12/09 A3019 RMK AO2 SLP222 T01220089 10128 20111 401391033 56012,KMOB,2015-02-21T05:56:00Z,30.68,-88.25,12.2,8.9,150,11,,10.0,30.188976,1022.2,,TRUE,TRUE,,,,,,,CLR,,,,,,,,VFR,-1.2,12.8,11.1,13.9,-3.3,,,,,,,METAR,63.0
KMDT 210556Z 16006KT 10SM FEW130 BKN250 M14/M20 A3044 RMK AO2 SLP315 T11391200 11117 21167 58003,KMDT,2015-02-21T05:56:00Z,40.2,-76.77,-13.9,-20.0,160,6,,10.0,30.43996,1031.5,,,TRUE,,,,,,,FEW,13000,BKN,25000,,,,,VFR,-0.3,-11.7,-16.7,,,,,,,,,METAR,95.0
KLWS 210556Z AUTO 17005KT 10SM BKN065 OVC080 06/03 A3012 RMK AO2 SLP206 60001 T00610028 10106 20061 50004,KLWS,2015-02-21T05:56:00Z,46.37,-117.02,6.1,2.8,170,5,,10.0,30.121063,1020.6,,TRUE,TRUE,,,,,,,BKN,6500,OVC,8000,,,,,VFR,0.4,10.6,6.1,,,,,0.01,,,,METAR,438.0
KLRD 210556Z AUTO 15015KT 10SM CLR 19/15 A2983 RMK AO2 52003 T01940150 10272 20194 402830127 SLP090,KLRD,2015-02-21T05:56:00Z,27.55,-99.47,19.4,15.0,150,15,,10.0,29.828741,1009.0,,TRUE,TRUE,,,,,,,CLR,,,,,,,,VFR,0.3,27.2,19.4,28.3,12.7,,,,,,,METAR,155.0
KLNR 210556Z AUTO 08005KT 10SM SCT035 OVC046 M06/M11 A2986 RMK AO2 SLP119 T10611106 11061 21072 410611244 56008,KLNR,2015-02-21T05:56:00Z,43.22,-90.18,-6.1,-10.6,80,5,,10.0,29.861221,1011.9,,TRUE,TRUE,,,,,,,SCT,3500,OVC,4600,,,,,VFR,-0.8,-6.1,-7.2,-6.1,-24.4,,,,,,,METAR,217.0
KLAS 210556Z 25006KT 10SM CLR 17/M04 A2983 RMK AO2 SLP089 T01671039 10233 20156 53010,KLAS,2015-02-21T05:56:00Z,36.07,-115.17,16.7,-3.9,250,6,,10.0,29.828741,1008.9,,,TRUE,,,,,,,CLR,,,,,,,,VFR,1.0,23.3,15.6,,,,,,,,,METAR,636.0
KJXN 210556Z 19009KT 9SM OVC020 M11/M16 A3000 RMK AO2 SLP180 60000 T11061156 11100 21117 57012,KJXN,2015-02-21T05:56:00Z,42.27,-84.47,-10.6,-15.6,190,9,,9.0,30.0,1018.0,,,TRUE,,,,,,,OVC,2000,,,,,,,MVFR,-1.2,-10.0,-11.7,,,,,0.0050,,,,METAR,305.0
KJMS 210556Z AUTO 02014KT 1 1/2SM -SN OVC016 M10/M13 A2996 RMK AO2 SLP170 P0000 60000 T11001128 11061 21100 410111100 51016,KJMS,2015-02-21T05:56:00Z,46.93,-98.67,-10.0,-12.8,20,14,,1.5,29.958662,1017.0,,TRUE,TRUE,,,,,,-SN,OVC,1600,,,,,,,IFR,1.6,-6.1,-10.0,-1.1,-10.0,0.0050,,0.0050,,,,METAR,455.0
KRDM 210556Z AUTO 00000KT 10SM SCT110 03/M01 A3015 RMK AO2 SLP218 T00331006 10117 20022 58002,KRDM,2015-02-21T05:56:00Z,44.25,-121.15,3.3,-0.6,0,0,,10.0,30.15059,1021.8,,TRUE,TRUE,,,,,,,SCT,11000,,,,,,,VFR,-0.2,11.7,2.2,,,,,,,,,METAR,938.0
KBOK 210556Z AUTO 00000KT 10SM CLR 14/M06 A3013 RMK AO2 53000 T01441055 10200 20144 SLP203,KBOK,2015-02-21T05:56:00Z,42.07,-124.28,14.4,-5.5,0,0,,10.0,30.129921,1020.3,,TRUE,TRUE,,,,,,,CLR,,,,,,,,VFR,0.0,20.0,14.4,,,,,,,,,METAR,140.0
PPIT 210556Z AUTO 06024KT 10SM CLR 02/M02 A2955 RMK AO2 PK WND 06027/0556 SLP006 T00221017 10039 20017 56034 FZRANO,PPIT,2015-02-21T05:56:00Z,60.9,-162.43,2.2,-1.7,60,24,,10.0,29.551182,1000.6,,TRUE,TRUE,,,,TRUE,,,CLR,,,,,,,,VFR,-3.4,3.9,1.7,,,,,,,,,METAR,4.0
K1YT 210556Z AUTO 07006KT 10SM FEW070 05/M03 A3016 RMK AO2 SLPNO T00511029 10119 20049 51004,K1YT,2015-02-21T05:56:00Z,46.67,-120.45,5.1,-2.9,70,6,,10.0,30.159449,,,TRUE,TRUE,,,,,,,FEW,7000,,,,,,,VFR,0.4,11.9,4.9,,,,,,,,,METAR,438.0
KM63 210556Z AUTO 17008G24KT 10SM BKN160 17/M04 A2992 RMK AO2 PK WND 21043/09 PRESRR SLP077 T01661042 10193 20166 50018,KM63,2015-02-21T05:56:00Z,32.05,-106.15,16.6,-4.2,170,8,24,10.0,29.920275,1007.7,,TRUE,TRUE,,,,,,,BKN,16000,,,,,,,VFR,1.8,19.3,16.6,,,,,,,,,METAR,1283.0
KSHM 210556Z AUTO 01008KT 10SM FEW040 FEW050 M01/M03 A2995 RMK AO2 SLP135 60002 T10091035 10032 21009 50019,KSHM,2015-02-21T05:56:00Z,38.8,-104.52,-0.9,-3.5,10,8,,10.0,29.949802,1013.5,,TRUE,TRUE,,,,,,,FEW,4000,FEW,5000,,,,,VFR,1.9,3.2,-0.9,,,,,,,,,SPECI,1900.0
KTPH 210556Z AUTO 32010KT 10SM CLR 06/M12 A3002 RMK AO2 SLP143 T00561117 10150 20056 51010,KTPH,2015-02-21T05:56:00Z,38.05,-117.08,5.6,-11.7,320,10,,10.0,30.02067,1014.3,,TRUE,TRUE,,,,,,,CLR,,,,,,,,VFR,1.0,15.0,5.6,,,,,,,,,METAR,1652.0
KUCP 210556Z AUTO 00000KT 10SM FEW055 M12/M21 A3017 RMK AO2 58026 T11221205 11122 21138 SLP257,KUCP,2015-02-21T05:56:00Z,41.03,-80.42,-12.2,-20.5,0,0,,10.0,30.171259,1025.7,,TRUE,TRUE,,,,,,,FEW,5500,,,,,,,VFR,-2.6,-12.2,-13.8,,,,,,,,,METAR,327.0
KUKI 210556Z AUTO 00000KT 10SM CLR 11/08 A2999 RMK AO2 SLP152 T01110078 10239 20111 53009,KUKI,2015-02-21T05:56:00Z,39.12,-123.2,11.1,7.8,0,0,,10.0,29.991142,1015.2,,TRUE,TRUE,,,,,,,CLR,,,,,,,,VFR,0.9,23.9,11.1,,,,,,,,,METAR,187.0
KVPZ 210556Z AUTO 18006KT 10SM OVC017 M08/M12 A2998 RMK AO2 SLP167 T10831122 11078 21094 410781256 58010 TSNO,KVPZ,2015-02-21T05:56:00Z,41.45,-87.0,-8.3,-12.2,180,6,,10.0,29.97933,1016.7,,TRUE,TRUE,,,TRUE,,,,OVC,1700,,,,,,,MVFR,-1.0,-7.8,-9.4,-7.8,-25.6,,,,,,,METAR,231.0
KWJF 210556Z AUTO 26010KT 7SM CLR 12/07 A2994 RMK AO2 SLP133 T01220067 10239 20117 53007,KWJF,2015-02-21T05:56:00Z,34.72,-118.22,12.2,6.7,260,10,,7.0,29.940945,1013.3,,TRUE,TRUE,,,,,,,CLR,,,,,,,,VFR,0.7,23.9,11.7,,,,,,,,,METAR,715.0
KWMC 210556Z AUTO 21004KT 10SM CLR M04/M08 A3010 RMK AO2 SLP201 T10391083 10094 21050 53005,KWMC,2015-02-21T05:56:00Z,40.9,-117.8,-3.9,-8.3,210,4,,10.0,30.100393,1020.1,,TRUE,TRUE,,,,,,,CLR,,,,,,,,VFR,0.5,9.4,-5.0,,,,,,,,,METAR,1310.0
PAHX 210556Z AUTO 03012KT 10SM OVC080 01/M03 A2977 RMK AO2 SLP085 T00061028 10050 20000 58033 FZRANO,PAHX,2015-02-21T05:56:00Z,62.7,-159.57,0.6,-2.8,30,12,,10.0,29.769686,1008.5,,TRUE,TRUE,,,,TRUE,,,OVC,8000,,,,,,,VFR,-3.3,5.0,0.0,,,,,,,,,METAR,24.0
PFWS 210556Z AUTO 10035G50KT 10SM OVC055 06/01 A2943 RMK AO2 PK WND 09050/0549 SLP970 60001 T00560011 10061 20033 56034,PFWS,2015-02-21T05:56:00Z,58.7,-157.0,5.6,1.1,100,35,50,10.0,29.430119,997.0,,TRUE,TRUE,,,,,,,OVC,5500,,,,,,,VFR,-3.4,6.1,3.3,,,,,0.01,,,,METAR,49.0
TJSJ 210556Z 00000KT 10SM -RA SCT035 BKN055 BKN070 24/23 A3005 RMK AO2 RAE22B52 SLP174 P0004 60005 T02390233 10261 20239 58012,TJSJ,2015-02-21T05:56:00Z,18.43,-66.02,23.9,23.3,0,0,,10.0,30.050198,1017.4,,,TRUE,,,,,,-RA,SCT,3500,BKN,5500,BKN,7000,,,VFR,-1.2,26.1,23.9,,,0.04,,,,,,SPECI,21.0
KGON 210556Z AUTO 26006KT 10SM CLR M13/M20 A3050 RMK AO2 SLP326 T11281200 11094 21133 53022,KGON,2015-02-21T05:56:00Z,41.33,-72.05,-12.8,-20.0,260,6,,10.0,30.499016,1032.6,,TRUE,TRUE,,,,,,,CLR,,,,,,,,VFR,2.2,-9.4,-13.3,,,,,,,,,METAR,3.0
KGRD 210556Z AUTO 14005KT 10SM OVC041 00/M13 A3041 RMK AO2 SLP304 T00001128 10017 20000 58005,KGRD,2015-02-21T05:56:00Z,34.25,-82.15,0.0,-12.8,140,5,,10.0,30.410433,1030.4,,TRUE,TRUE,,,,,,,OVC,4100,,,,,,,VFR,-0.5,1.7,0.0,,,,,,,,,METAR,185.0
KBJJ 210556Z AUTO 18010KT 10SM SCT040 OVC070 M11/M19 A3011 RMK AO2 SLP220 T11111189 11111 21133 58022 TSNO $,KBJJ,2015-02-21T05:56:00Z,40.87,-81.88,-11.1,-18.9,180,10,,10.0,30.109253,1022.0,,TRUE,TRUE,TRUE,,TRUE,,,,SCT,4000,OVC,7000,,,,,VFR,-2.2,-11.1,-13.3,,,,,,,,,METAR,343.0
KBIH 210556Z AUTO 34007G20KT 10SM CLR 13/M09 A2996 RMK AO2 SLP112 T01331089 10233 20106 51016,KBIH,2015-02-21T05:56:00Z,37.37,-118.35,13.3,-8.9,340,7,20,10.0,29.958662,1011.2,,TRUE,TRUE,,,,,,,CLR,,,,,,,,VFR,1.6,23.3,10.6,,,,,,,,,METAR,1253.0
KBED 210556Z AUTO 23004KT 10SM CLR M15/M22 A3043 RMK AO2 SLP325 T11501217 11106 21178 53017 TSNO,KBED,2015-02-21T05:56:00Z,42.47,-71.3,-15.0,-21.7,230,4,,10.0,30.431103,1032.5,,TRUE,TRUE,,,TRUE,,,,CLR,,,,,,,,VFR,1.7,-10.6,-17.8,,,,,,,,,METAR,50.0
KDUG 210556Z AUTO 00000KT 10SM CLR 12/04 A3002 RMK AO2 SLP122 T01220044 10172 20122 53002,KDUG,2015-02-21T05:56:00Z,31.47,-109.58,12.2,4.4,0,0,,10.0,30.02067,1012.2,,TRUE,TRUE,,,,,,,CLR,,,,,,,,VFR,0.2,17.2,12.2,,,,,,,,,METAR,1265.0
KGXF 210556Z 18005KT 10SM BKN220 17/02 A2990 RMK AO2A SLP118 T01660022 10254 20166 52012 LAST,KGXF,2015-02-21T05:56:00Z,32.87,-112.72,16.6,2.2,180,5,,10.0,29.899607,1011.8,,,TRUE,,,,,,,BKN,22000,,,,,,,VFR,1.2,25.4,16.6,,,,,,,,,SPECI,262.0
K1QW 210556Z AUTO 27022G29KT M /// /// M 02/M01 A3008 RMK AO2 PK WND 28032/0456 SLP205 T00211015 10066 20020 51002 $,K1QW,2015-02-21T05:56:00Z,46.8,-120.17,2.1,-1.5,270,22,29,,30.079725,1020.5,,TRUE,TRUE,TRUE,,,,,,,,,,,,,,,0.2,6.6,2.0,,,,,,,,,METAR,928.0
KHYA 210556Z AUTO 00000KT 10SM CLR M15/M22 A3046 RMK AO2 SLP316 T11501217 11089 21150 53025,KHYA,2015-02-21T05:56:00Z,41.67,-70.27,-15.0,-21.7,0,0,,10.0,30.46063,1031.6,,TRUE,TRUE,,,,,,,CLR,,,,,,,,VFR,2.5,-8.9,-15.0,,,,,,,,,METAR,22.0
KHWV 210556Z AUTO 25003KT 10SM CLR M16/M21 A3052 RMK AO2 SLP336 T11561211 11094 21161 51017 TSNO,KHWV,2015-02-21T05:56:00Z,40.82,-72.87,-15.6,-21.1,250,3,,10.0,30.519686,1033.6,,TRUE,TRUE,,,TRUE,,,,CLR,,,,,,,,VFR,1.7,-9.4,-16.1,,,,,,,,,METAR,21.0
KHPN 210556Z 26003KT 10SM CLR M13/M22 A3045 RMK AO2 SLP329 T11331222 11100 21133 53010,KHPN,2015-02-21T05:56:00Z,41.07,-73.7,-13.3,-22.2,260,3,,10.0,30.448818,1032.9,,,TRUE,,,,,,,CLR,,,,,,,,VFR,1.0,-10.0,-13.3,,,,,,,,,METAR,121.0
KHND 210556Z AUTO 23010KT 10SM CLR 16/M04 A2989 RMK AO2 SLP111 T01561039 10228 20150 53009,KHND,2015-02-21T05:56:00Z,35.98,-115.13,15.6,-3.9,230,10,,10.0,29.890747,1011.1,,TRUE,TRUE,,,,,,,CLR,,,,,,,,VFR,0.9,22.8,15.0,,,,,,,,,METAR,749.0
KHEI 210556Z AUTO 02011KT 6SM -SN BR BKN008 OVC013 M02/M04 A2990 RMK AO2 CIG 006V010 P0000 T10221039,KHEI,2015-02-21T05:56:00Z,46.02,-102.65,-2.2,-3.9,20,11,,6.0,29.899607,,,TRUE,TRUE,,,,,,-SN BR,BKN,800,OVC,1300,,,,,IFR,,,,,,0.0050,,,,,,METAR,828.0
KBZN 210556Z 29007KT 3SM BR SCT044 BKN060 M01/M03 A2998 RMK AO2 SNE47 SLP174 P0001 60003 T10111028 10039 21011 50003,KBZN,2015-02-21T05:56:00Z,45.78,-111.17,-1.1,-2.8,290,7,,3.0,29.97933,1017.4,,,TRUE,,,,,,BR,SCT,4400,BKN,6000,,,,,MVFR,0.3,3.9,-1.1,,,0.01,,0.03,,,,METAR,1361.0
KEKQ 210556Z AUTO 17011KT 3SM -SN BR BKN017 BKN022 OVC026 M01/M02 A3012 RMK AO2 58025 60005 T10051022 11005 21027 P0001 SLP212,KEKQ,2015-02-21T05:56:00Z,36.85,-84.85,-0.5,-2.2,170,11,,3.0,30.121063,1021.2,,TRUE,TRUE,,,,,,-SN BR,BKN,1700,BKN,2200,OVC,2600,,,MVFR,-2.5,-0.5,-2.7,,,0.01,,0.05,,,,METAR,294.0
KEKO 210556Z AUTO 23003KT 10SM BKN060 01/M07 A3006 RMK AO2 SLP178 T00111067 10094 20011 52001,KEKO,2015-02-21T05:56:00Z,40.82,-115.78,1.1,-6.7,230,3,,10.0,30.059055,1017.8,,TRUE,TRUE,,,,,,,BKN,6000,,,,,,,VFR,0.1,9.4,1.1,,,,,,,,,METAR,1547.0
KEED 210556Z AUTO 00000KT 10SM CLR 19/M02 A2985 RMK AO2 SLP089 T01941017 10278 20189 52010,KEED,2015-02-21T05:56:00Z,34.77,-114.62,19.4,-1.7,0,0,,10.0,29.84941,1008.9,,TRUE,TRUE,,,,,,,CLR,,,,,,,,VFR,1.0,27.8,18.9,,,,,,,,,METAR,302.0
KEAU 210556Z AUTO 00000KT 10SM OVC020 M08/M11 A2983 RMK AO2 SLP118 60000 T10831111 11078 21083 410781233 53002,KEAU,2015-02-21T05:56:00Z,44.87,-91.47,-8.3,-11.1,0,0,,10.0,29.828741,1011.8,,TRUE,TRUE,,,,,,,OVC,2000,,,,,,,MVFR,0.2,-7.8,-8.3,-7.8,-23.3,,,0.0050,,,,METAR,276.0
KINW 210556Z AUTO 22008KT 10SM CLR 09/M03 A2996 RMK AO2 SLP106 T00891033 10178 20089 51017,KINW,2015-02-21T05:56:00Z,35.03,-110.72,8.9,-3.3,220,8,,10.0,29.958662,1010.6,,TRUE,TRUE,,,,,,,CLR,,,,,,,,VFR,1.7,17.8,8.9,,,,,,,,,METAR,1490.0
KIGX 210556Z AUTO 00000KT 10SM CLR M08/M16 A3048 RMK AO2 SLP328 T10781161 11067 21094 58002,KIGX,2015-02-21T05:56:00Z,35.93,-79.07,-7.8,-16.1,0,0,,10.0,30.481298,1032.8,,TRUE,TRUE,,,,,,,CLR,,,,,,,,VFR,-0.2,-6.7,-9.4,,,,,,,,,METAR,155.0
KMTW 210556Z AUTO 20004KT 10SM UP OVC075 M09/M11 A2990 RMK AO2 UPB0457SNE0457 SLP151 P0000 60000 T10891106 11089 21094 410891239 FZRANO,KMTW,2015-02-21T05:56:00Z,44.12,-87.67,-8.9,-10.6,200,4,,10.0,29.899607,1015.1,,TRUE,TRUE,,,,TRUE,,UP,OVC,7500,,,,,,,VFR,,-8.9,-9.4,-8.9,-23.9,0.0050,,0.0050,,,,METAR,198.0
KJAX 210556Z 00000KT 10SM SCT250 00/M02 A3041 RMK AO2 SLP296 T00001017 10022 21006 56017,KJAX,2015-02-21T05:56:00Z,30.5,-81.68,0.0,-1.7,0,0,,10.0,30.410433,1029.6,,,TRUE,,,,,,,SCT,25000,,,,,,,VFR,-1.7,2.2,-0.6,,,,,,,,,METAR,10.0
KITH 210556Z AUTO 15007KT 10SM CLR M16/M26 A3028 RMK AO2 56008 T11611255 11161 21250 SLP282,KITH,2015-02-21T05:56:00Z,42.47,-76.45,-16.1,-25.5,150,7,,10.0,30.280512,1028.2,,TRUE,TRUE,,,,,,,CLR,,,,,,,,VFR,-0.8,-16.1,-25.0,,,,,,,,,METAR,335.0
KISP 210556Z AUTO 00000KT 10SM CLR M15/M21 A3049 RMK AO2 SLP327 T11501206 11094 21150 52015,KISP,2015-02-21T05:56:00Z,40.8,-73.1,-15.0,-20.6,0,0,,10.0,30.490158,1032.7,,TRUE,TRUE,,,,,,,CLR,,,,,,,,VFR,1.5,-9.4,-15.0,,,,,,,,,METAR,43.0
KOFK 210556Z AUTO 34009KT 10SM SCT065 03/M02 A2984 RMK AO2 SLP115 T00281017 10056 21006 401171100 53016,KOFK,2015-02-21T05:56:00Z,41.98,-97.43,2.8,-1.7,340,9,,10.0,29.840551,1011.5,,TRUE,TRUE,,,,,,,SCT,6500,,,,,,,VFR,1.6,5.6,-0.6,11.7,-10.0,,,,,,,METAR,470.0
KNUQ 210556Z AUTO 00000KT 10SM CLR 13/09 A2998 RMK AO2 SLP155 T01330089 10211 20133 53009 TSNO,KNUQ,2015-02-21T05:56:00Z,37.4,-122.05,13.3,8.9,0,0,,10.0,29.97933,1015.5,,TRUE,TRUE,,,TRUE,,,,CLR,,,,,,,,VFR,0.9,21.1,13.3,,,,,,,,,METAR,12.0
KSRC 210556Z AUTO 07004KT 2 1/2SM -RA BR OVC004 01/M01 A2985 RMK AO2 UPE26RAB0459E07B26SNB42E53 CIG 002V008 SLP114 P0007 60016 T00061006 10006 21011 56024 FZRANO TSNO,KSRC,2015-02-21T05:56:00Z,35.22,-91.73,0.6,-0.6,70,4,,2.5,29.84941,1011.4,,TRUE,TRUE,,,TRUE,TRUE,,-RA BR,OVC,400,,,,,,,LIFR,-2.4,0.6,-1.1,,,0.07,,0.16,,,,METAR,80.0
KNQI 210556Z AUTO 17019G24KT 10SM OVC021 21/18 A2987 RMK AO2 PK WND 17028/0501 SLP112 T02060178 10228 20194 402720156 50005 TSNO $,KNQI,2015-02-21T05:56:00Z,27.5,-97.82,20.6,17.8,170,19,24,10.0,29.870079,1011.2,,TRUE,TRUE,TRUE,,TRUE,,,,OVC,2100,,,,,,,MVFR,0.5,22.8,19.4,27.2,15.6,,,,,,,METAR,15.0
KNOG 210556Z AUTO 19020G27KT 10SM OVC019 20/17 A2986 RMK AO2 PK WND 19027/0552 SLP091 T02000167 10244 20194 402830128 58001 $,KNOG,2015-02-21T05:56:00Z,27.9,-98.05,20.0,16.7,190,20,27,10.0,29.861221,1009.1,,TRUE,TRUE,TRUE,,,,,,OVC,1900,,,,,,,MVFR,-0.1,24.4,19.4,28.3,12.8,,,,,,,METAR,78.0
KD07 210556Z AUTO 31008KT 00/M03 A2986 RMK AO1 SLP132 T00001028 10033 21006 50005,KD07,2015-02-21T05:56:00Z,45.03,-102.02,0.0,-2.8,310,8,,,29.861221,1013.2,,TRUE,TRUE,,,,,,,,,,,,,,,,0.5,3.3,-0.6,,,,,,,,,METAR,784.0
KNBT 210556Z AUTO A3057 RMK AO2 SLP358 6//// 52003 PWINO PNO $,KNBT,2015-02-21T05:56:00Z,35.02,-76.47,,,,,,,30.569881,1035.8,,TRUE,TRUE,TRUE,,,,TRUE,,,,,,,,,,,0.3,,,,,,,,,,,METAR,5.0
KNFE 210556Z AUTO 00000KT 10SM CLR M11/M17 A3057 RMK AO2 SLP352 T11111167 11072 21117 50000,KNFE,2015-02-21T05:56:00Z,36.7,-76.13,-11.1,-16.7,0,0,,10.0,30.569881,1035.2,,TRUE,TRUE,,,,,,,CLR,,,,,,,,VFR,0.0,-7.2,-11.7,,,,,,,,,METAR,5.0
KGNR 210556Z AUTO 31008G15KT M18/M24 A3013 RMK AO1 SLP242 T11831239 11161 21183 51040,KGNR,2015-02-21T05:56:00Z,45.47,-69.55,-18.3,-23.9,310,8,15,,30.129921,1024.2,,TRUE,TRUE,,,,,,,,,,,,,,,,4.0,-16.1,-18.3,,,,,,,,,METAR,427.0
KGNA 210556Z AUTO 00000KT M12/M14 A2980 RMK AO1 SLP115 T11171139 11111 21150 411111200 53005,KGNA,2015-02-21T05:56:00Z,47.75,-90.35,-11.7,-13.9,0,0,,,29.799213,1011.5,,TRUE,TRUE,,,,,,,,,,,,,,,,0.5,-11.1,-15.0,-11.1,-20.0,,,,,,,METAR,185.0
KGFA 210556Z AUTO 03016KT 10SM -SHSN OVC012 M04/M05 A3015 RMK AO2 SNE23SHSNB23 SLP248 60002 T10361046 10009 21036 52028 TSNO $,KGFA,2015-02-21T05:56:00Z,47.5,-111.17,-3.6,-4.6,30,16,,10.0,30.15059,1024.8,,TRUE,TRUE,TRUE,,TRUE,,,-SHSN,OVC,1200,,,,,,,MVFR,2.8,0.9,-3.6,,,,,,,,,SPECI,1075.0
KFEW 210556Z AUTO 35005KT 10SM SCT010 SCT023 BKN130 M05/M07 A2989 RMK AO2 SLP135 T10521068 10000 21059 51010 $,KFEW,2015-02-21T05:56:00Z,41.13,-104.87,-5.2,-6.8,350,5,,10.0,29.890747,1013.5,,TRUE,TRUE,TRUE,,,,,,SCT,1000,SCT,2300,BKN,13000,,,VFR,1.0,0.0,-5.9,,,,,,,,,METAR,1878.0
KCHS 210556Z 05005KT 10SM FEW100 SCT250 M02/M06 A3046 RMK AO2 SLP315 T10171061 10000 21022 58015,KCHS,2015-02-21T05:56:00Z,32.9,-80.03,-1.7,-6.1,50,5,,10.0,30.46063,1031.5,,,TRUE,,,,,,,FEW,10000,SCT,25000,,,,,VFR,-1.5,0.0,-2.2,,,,,,,,,METAR,13.0
KCEC 210556Z AUTO 36013G22KT 8SM CLR 12/10 A3011 RMK AO2 SLP198 T01170100 10139 20117 53003,KCEC,2015-02-21T05:56:00Z,41.77,-124.22,11.7,10.0,360,13,22,8.0,30.109253,1019.8,,TRUE,TRUE,,,,,,,CLR,,,,,,,,VFR,0.3,13.9,11.7,,,,,,,,,METAR,17.0
KCAE 210556Z COR 10004KT 10SM BKN070 OVC090 M01/M12 A3046 RMK AO2 SNB56 SLP315 P0000 60000 T10061117 10017 21011 55003,KCAE,2015-02-21T05:56:00Z,33.93,-81.12,-0.6,-11.7,100,4,,10.0,30.46063,1031.5,TRUE,,TRUE,,,,,,,BKN,7000,OVC,9000,,,,,VFR,-0.3,1.7,-1.1,,,0.0050,,0.0050,,,,METAR,70.0
KQTH 210555Z AUTO 16026G33KT 110V180 6000 HZ CLR 26/08 A2996 RMK AO2 PK WND 12034/0516 SLP126 T02620077 52014 $,KQTH,2015-02-21T05:55:00Z,100.65,-1000.65,26.2,7.7,160,26,33,3.73,29.958662,1012.6,,TRUE,TRUE,TRUE,,,,,HZ,CLR,,,,,,,,MVFR,1.4,,,,,,,,,,,METAR,999.0
KGXA 210555Z AUTO 15005KT 10SM CLR 09/M07 A2995 RMK AO2 SLP136 T00881067 10243 20097 51007 PWINO TSNO $,KGXA,2015-02-21T05:55:00Z,34.57,-117.67,8.8,-6.7,150,5,,10.0,29.949802,1013.6,,TRUE,TRUE,TRUE,,TRUE,,TRUE,,CLR,,,,,,,,VFR,0.7,24.3,9.7,,,,,,,,,METAR,923.0
KEGI 210555Z 12006KT 10SM FEW023 FEW250 06/M03 A3026 RMK AO2A SLP250 T00571031 10081 20053 401501070 58006 $,KEGI,2015-02-21T05:55:00Z,30.63,-86.52,5.7,-3.1,120,6,,10.0,30.259842,1025.0,,,TRUE,TRUE,,,,,,FEW,2300,FEW,25000,,,,,VFR,-0.6,8.1,5.3,15.0,-7.0,,,,,,,METAR,59.0
KIWA 210555Z 13004KT 20SM BKN200 14/05 A2991,KIWA,2015-02-21T05:55:00Z,33.3,-111.65,14.0,5.0,130,4,,20.0,29.911417,,,,,,,,,,,BKN,20000,,,,,,,VFR,,,,,,,,,,,,METAR,412.0
PATC 210555Z AUTO 03031KT 3/4SM -SN BR OVC010 M16/M17 A2989 RMK AO2 PK WND 03033/0500 SNB0354 SLP131 P0000 60000 T11571169 11169 21182 57010,PATC,2015-02-21T05:55:00Z,65.57,-167.92,-15.7,-16.9,30,31,,0.75,29.890747,1013.1,,TRUE,TRUE,,,,,,-SN BR,OVC,1000,,,,,,,LIFR,-1.0,-16.9,-18.2,,,0.0050,,0.0050,,,,METAR,83.0
KVPS 210555Z 08005KT 10SM FEW020 08/02 A3026 RMK AO2A SLP257 T00770027 10103 20074 401071024 58007 $,KVPS,2015-02-21T05:55:00Z,30.47,-86.52,7.7,2.7,80,5,,10.0,30.259842,1025.7,,,TRUE,TRUE,,,,,,FEW,2000,,,,,,,VFR,-0.7,10.3,7.4,10.7,-2.4,,,,,,,METAR,26.0
HLLM 210555Z 11006KT 8000 FEW040 OVC090 12/05 Q1015,HLLM,2015-02-21T05:55:00Z,32.9,13.28,12.0,5.0,110,6,,4.97,29.970472,,,,,,,,,,,FEW,4000,OVC,9000,,,,,MVFR,,,,,,,,,,,,METAR,11.0
K9L2 210555Z AUTO 19008KT 10SM CLR 11/03 A2991 RMK AO2 SLP128 T01110033 10233 20111 51006 TSNO $,K9L2,2015-02-21T05:55:00Z,34.97,-117.87,11.1,3.3,190,8,,10.0,29.911417,1012.8,,TRUE,TRUE,TRUE,,TRUE,,,,CLR,,,,,,,,VFR,0.6,23.3,11.1,,,,,,,,,METAR,701.0
KFCI 210555Z AUTO 00000KT 10SM CLR M16/M25 A3049 RMK AO1 11090 21160 57014,KFCI,2015-02-21T05:55:00Z,37.4,-77.52,-16.0,-25.0,0,0,,10.0,30.490158,,,TRUE,TRUE,,,,,,,CLR,,,,,,,,VFR,-1.4,-9.0,-16.0,,,,,,,,,METAR,72.0
KVBG 210555Z AUTO 00000KT 6SM BR OVC007 13/12 A2999 RMK AO2 SLP147 T01330122 10150 20128 50008 TSNO $,KVBG,2015-02-21T05:55:00Z,34.73,-120.58,13.3,12.2,0,0,,6.0,29.991142,1014.7,,TRUE,TRUE,TRUE,,TRUE,,,BR,OVC,700,,,,,,,IFR,0.8,15.0,12.8,,,,,,,,,METAR,112.0
NZCM 210555Z 04008KT 9999 BKN030 M04/M12 A2862 RMK SLP696,NZCM,2015-02-21T05:55:00Z,-77.87,166.97,-4.0,-12.0,40,8,,6.21,28.621063,969.6,,,,,,,,,,BKN,3000,,,,,,,MVFR,,,,,,,,,,,,METAR,8.0
MMGL 210555Z 00000KT 10SM SKC 15/03 A3015 RMK SLP115 52013 960,MMGL,2015-02-21T05:55:00Z,20.52,-103.32,15.0,3.0,0,0,,10.0,30.15059,1011.5,,,,,,,,,,SKC,,,,,,,,VFR,1.3,,,,,,,,,,,METAR,1528.0
KNKX 210555Z 00000KT 9SM BKN018 12/09 A2998 RMK AO2 SLP147 T01220089 10172 20122 53004 $,KNKX,2015-02-21T05:55:00Z,32.87,-117.13,12.2,8.9,0,0,,9.0,29.97933,1014.7,,,TRUE,TRUE,,,,,,BKN,1800,,,,,,,MVFR,0.4,17.2,12.2,,,,,,,,,METAR,146.0
KNBG 210555Z AUTO 15014G24KT 10SM FEW065 BKN100 17/11 A3010 RMK AO2 SLP190 60000 T01720106 10172 20150 401781011 56013 $,KNBG,2015-02-21T05:55:00Z,29.82,-90.02,17.2,10.6,150,14,24,10.0,30.100393,1019.0,,TRUE,TRUE,TRUE,,,,,,FEW,6500,BKN,10000,,,,,VFR,-1.3,17.2,15.0,17.8,-1.1,,,0.0050,,,,METAR,1.0
KQFG 210555Z AUTO 29002KT 9999 BKN034 OVC039 15/10 A3027 RMK AO2 RAB0507E0536DZB0509E0514SHRAB0536E0547 SLP250 60001 T01460102 10141 20135 51015,KQFG,2015-02-21T05:55:00Z,100.65,-1000.65,14.6,10.2,290,2,,6.21,30.268702,1025.0,,TRUE,TRUE,,,,,,,BKN,3400,OVC,3900,,,,,VFR,1.5,14.1,13.5,,,,,0.01,,,,METAR,999.0
KQEA 210555Z AUTO 22003KT 10SM FEW033 SCT042 BKN085 31/20 A2989 RMK AO2 SLP119 T03060199 10289 20236 57017,KQEA,2015-02-21T05:55:00Z,100.65,-1000.65,30.6,19.9,220,3,,10.0,29.890747,1011.9,,TRUE,TRUE,,,,,,,FEW,3300,SCT,4200,BKN,8500,,,VFR,-1.7,28.9,23.6,,,,,,,,,METAR,999.0
KBYS 210555Z AUTO VRB01KT 10SM CLR 17/M05 A2990 RMK AO2 SLP107 T01681054 10245 20169 52006 $,KBYS,2015-02-21T05:55:00Z,35.28,-116.62,16.8,-5.4,0,1,,10.0,29.899607,1010.7,,TRUE,TRUE,TRUE,,,,,,CLR,,,,,,,,VFR,0.6,24.5,16.9,,,,,,,,,METAR,716.0
FJDG 210555Z 35006KT 9999 FEW020 SCT080 BKN220 30/26 A2984 RMK SLP102 60004 8/272 T02970257 10297 20264 50000,FJDG,2015-02-21T05:55:00Z,-7.32,72.42,29.7,25.7,350,6,,6.21,29.840551,1010.2,,,,,,,,,,FEW,2000,SCT,8000,BKN,22000,,,VFR,0.0,29.7,26.4,,,,,0.04,,,,METAR,3.0
KQGV 210555Z 27008KT 1000 DU CLR 11/M03 A2995 RMK SLPNO QNH1015 PA +438 51016,KQGV,2015-02-21T05:55:00Z,100.65,-1000.65,11.0,-3.0,270,8,,0.62,29.949802,,,,,,,,,,DU,CLR,,,,,,,,LIFR,1.6,,,,,,,,,,,METAR,999.0
KQQY 210555Z AUTO 00000KT 9999 BKN065 26/19 A2992 RMK AO2 SLP105 T02570189 10287 20254 58010,KQQY,2015-02-21T05:55:00Z,100.65,-1000.65,25.7,18.9,0,0,,6.21,29.920275,1010.5,,TRUE,TRUE,,,,,,,BKN,6500,,,,,,,VFR,-1.0,28.7,25.4,,,,,,,,,METAR,999.0
LICG 210555Z /////KT 9999 -DZ BKN016 12/09 Q1013 RMK OVC OVC070 VIS MIN 8000 WIND THR08 12009KT WIND THR21 11007KT WHT,LICG,2015-02-21T05:55:00Z,36.82,11.97,12.0,9.0,,,,6.21,29.911417,,,,,,,,,,-DZ,BKN,1600,,,,,,,MVFR,,-0.7,,,,,,,,,,SPECI,191.0
LIED 210555Z 12006G16KT 6000 RA SCT010 BKN030 10/08 Q1011 RMK OVC VIS MIN 6000 WIND THR35 11008KT WIND THR17 12008KT WHT,LIED,2015-02-21T05:55:00Z,39.35,8.97,10.0,8.0,120,6,16,3.73,29.852362,,,,,,,,,,RA,SCT,1000,BKN,3000,,,,,MVFR,,-0.8,,,,,,,,,,METAR,28.0
LIEB 210555Z 02007KT 9999 -RA SCT025 SCT030 07/03 Q1012 RMK OVC BKN070 QUK 2 QUL 0 VIS MAR 20 KM MON LIB VIS MIN 9999,LIEB,2015-02-21T05:55:00Z,39.93,9.72,7.0,3.0,20,7,,6.21,29.88189,,,,,,,,,,-RA,SCT,2500,SCT,3000,,,,,VFR,,,,,,,,,,,,METAR,156.0
LICF 210555Z 26005KT 9999 FEW025 10/07 Q1017 RMK BKN SCT080 QUK 1 QUL 0 VIS MAR 16 KM MON E LIB VAR RAPID MON W CIME INC VAR RAPID VIS MIN 9999,LICF,2015-02-21T05:55:00Z,38.2,15.55,10.0,7.0,260,5,,6.21,30.029528,,,,,,,,,,,FEW,2500,,,,,,,VFR,,,,,,,,,,,,METAR,51.0
LIBY 210555Z 16003KT 9999 FEW015 09/06 Q1017 RMK SCT QUK 1 QUL 0 VIS MAR 20 KM VIS MAX 20 KM VIS MIN 9999,LIBY,2015-02-21T05:55:00Z,39.82,18.35,9.0,6.0,160,3,,6.21,30.029528,,,,,,,,,,,FEW,1500,,,,,,,VFR,,,,,,,,,,,,METAR,112.0
LIRE 210555Z 10009KT 9999 FEW050 07/03 Q1015 RMK BKN BKN180 VIS MIN 9999 WIND THR31 /////KT BLU,LIRE,2015-02-21T05:55:00Z,41.63,12.42,7.0,3.0,100,9,,6.21,29.970472,,,,,,,,,,,FEW,5000,,,,,,,VFR,,,,,,,,,,,,METAR,12.0
LIQC 210555Z ///00KT 9999 SCT026 09/03 Q1017 RMK SCT QUK 1 QUL 0 VIS MAR 20 KM VIS MIN 9999,LIQC,2015-02-21T05:55:00Z,40.55,14.2,9.0,3.0,,,,6.21,30.029528,,,,,,,,,,,SCT,2600,,,,,,,VFR,,,,,,,,,,,,METAR,269.0
LIMT 210555Z 01005KT 0000 -SN FG VV/// 02/01 Q1008 RMK MON INVIS VAL INVIS VIS MIN 0000,LIMT,2015-02-21T05:55:00Z,44.47,9.92,2.0,1.0,10,5,,0.0,29.763779,,,,,,,,,,-SN FG,OVX,0,,,,,,,LIFR,,,,,,,,,,,,METAR,1040.0
KDYA 210555Z AUTO 13010KT 10SM CLR 08/03 A3015 RMK AO2 T00800030 10097 20060 400971070,KDYA,2015-02-21T05:55:00Z,32.47,-87.95,8.0,3.0,130,10,,10.0,30.15059,,,TRUE,TRUE,,,,,,,CLR,,,,,,,,VFR,,9.7,6.0,9.7,-7.0,,,,,,,METAR,34.0
LIVT 210555Z 07002KT 8000 BKN013 06/01 Q1013 RMK BKN QUK 0 QUL 0 VIS MAR 8 KM VIS MIN 8000,LIVT,2015-02-21T05:55:00Z,45.68,13.75,6.0,1.0,70,2,,4.97,29.911417,,,,,,,,,,,BKN,1300,,,,,,,MVFR,,,,,,,,,,,,METAR,20.0
LIVR 210555Z 16007KT 9999 OVC025 M07/M10 Q1003 RMK OVC MON CLD SCT VIS MIN 9999,LIVR,2015-02-21T05:55:00Z,46.28,11.77,-7.0,-10.0,160,7,,6.21,29.616142,,,,,,,,,,,OVC,2500,,,,,,,MVFR,,,,,,,,,,,,METAR,2006.0
LIVO 210555Z 34004KT 6000 BKN028 02/M02 Q1008 RMK BKN VIS MIN 6000,LIVO,2015-02-21T05:55:00Z,46.5,13.57,2.0,-2.0,340,4,,3.73,29.763779,,,,,,,,,,,BKN,2800,,,,,,,MVFR,,,,,,,,,,,,METAR,778.0
LIVF 210555Z 13005G18KT 9999 SCT027 05/M01 Q1013 RMK BKN SCT080 MON S CIME INC VAL NIL VIS MIN 9999,LIVF,2015-02-21T05:55:00Z,43.52,12.72,5.0,-1.0,130,5,18,6.21,29.911417,,,,,,,,,,,SCT,2700,,,,,,,VFR,,,,,,,,,,,,METAR,574.0
LIVE 210555Z /////KT 8000 SCT015 BKN050 M03/M03 Q1010 RMK BKN VIS MIN 8000,LIVE,2015-02-21T05:55:00Z,46.85,10.5,-3.0,-3.0,,,,4.97,29.822834,,,,,,,,,,,SCT,1500,BKN,5000,,,,,MVFR,,,,,,,,,,,,METAR,1800.0
LIVD 210555Z 27004KT 9999 SCT030 M02/M06 Q1009 RMK SCT VIS MIN 9999,LIVD,2015-02-21T05:55:00Z,46.72,12.22,-2.0,-6.0,270,4,,6.21,29.793306,,,,,,,,,,,SCT,3000,,,,,,,VFR,,,,,,,,,,,,METAR,1226.0
LIRX 210555Z 18008KT 9999 SCT005 07/06 Q1010 RMK BKN SCT060 VIS MIN 9999 VIS MAR 15 KM,LIRX,2015-02-21T05:55:00Z,42.73,10.38,7.0,6.0,180,8,,6.21,29.822834,,,,,,,,,,,SCT,500,,,,,,,VFR,,,,,,,,,,,,METAR,297.0
LIRT 210555Z 27010KT CAVOK 00/M03 Q1012 RMK SCT SCT070 MON LIB VAL NIL VIS MIN 9999,LIRT,2015-02-21T05:55:00Z,41.03,15.22,0.0,-3.0,270,10,,6.21,29.88189,,,,,,,,,,,CAVOK,,,,,,,,VFR,,,,,,,,,,,,METAR,1093.0
LIRK 210555Z AUTO /////KT //// ///// Q////,LIRK,2015-02-21T05:55:00Z,42.47,12.97,,,,,,,,,,TRUE,,,,,,,,,,,,,,,,,,,,,,,,,,,,METAR,1875.0
LIQO 210555Z 21020KT 0000 FG VV/// 07/07 Q1012 RERA RMK VAL INVIS NC VIS MIN 0000,LIQO,2015-02-21T05:55:00Z,42.37,11.17,7.0,7.0,210,20,,0.0,29.88189,,,,,,,,,,FG,OVX,0,,,,,,,LIFR,,,,,,,,,,,,METAR,632.0
LIMY 210555Z VRB03KT 6000 OVC050 02/00 Q1010 RMK OVC VAL FOSCHIA VIS MIN 6000,LIMY,2015-02-21T05:55:00Z,44.25,7.78,2.0,0.0,0,3,,3.73,29.822834,,,,,,,,,,,OVC,5000,,,,,,,MVFR,,,,,,,,,,,,METAR,1742.0
LIMU 210555Z 24005KT 9999 BKN030 07/03 Q1010 RMK OVC QUK / QUL / VIS MAR 25 KM VIS MIN 9999,LIMU,2015-02-21T05:55:00Z,43.95,8.17,7.0,3.0,240,5,,6.21,29.822834,,,,,,,,,,,BKN,3000,,,,,,,MVFR,,,,,,,,,,,,METAR,221.0
LIMH 210555Z /////KT 0800 FZFG VV/// M13/M15 Q0999 RMK MON INVIS VAL INVIS VIS MIN 0800,LIMH,2015-02-21T05:55:00Z,45.93,7.7,-13.0,-15.0,,,,0.5,29.498032,,,,,,,,,,FZFG,OVX,0,,,,,,,LIFR,,,,,,,,,,,,METAR,3488.0
LICZ 210555Z 00000KT 8000 -RA SCT025 BKN090 07/07 Q1018 RMK BKN VIS MIN 8000 WIND THR28 16002KT A3009 BLU,LICZ,2015-02-21T05:55:00Z,37.38,14.92,7.0,7.0,0,0,,4.97,30.059055,,,,,,,,,,-RA,SCT,2500,BKN,9000,,,,,MVFR,,,,,,,,,,,,METAR,22.0
LIBV 210555Z 18005KT 7000 NSC 03/03 Q1016 RMK SCT SCT200 VIS MIN 7000 WIND THR32 18005KT WIND THR14 18003KT WHT,LIBV,2015-02-21T05:55:00Z,40.77,16.92,3.0,3.0,180,5,,4.35,30.0,,,,,,,,,,,,,,,,,,,,,,,,,,,,,,,METAR,350.0
LIBQ 210555Z 24004KT CAVOK 02/M26 Q1012 RMK SCT SCT080 MON LIB VAL NIL VIS MIN 9999,LIBQ,2015-02-21T05:55:00Z,39.32,16.38,2.0,-26.0,240,4,,6.21,29.88189,,,,,,,,,,,CAVOK,,,,,,,,VFR,,,,,,,,,,,,METAR,1720.0
LIVP 210555Z 20021KT 0000 FZFG VV/// M07/M07 Q1004 RMK MON INVIS VAL INVIS VIS MIN 0000,LIVP,2015-02-21T05:55:00Z,46.15,11.03,-7.0,-7.0,200,21,,0.0,29.64567,,,,,,,,,,FZFG,OVX,0,,,,,,,LIFR,,,,,,,,,,,,METAR,2129.0
LIVC 210555Z 24024KT 0000 FZFG VV000 M03/M05 Q1007 RMK MON INVIS VAL INVIS VIS MIN 0000,LIVC,2015-02-21T05:55:00Z,44.2,10.68,-3.0,-5.0,240,24,,0.0,29.734253,,,,,,,,,,FZFG,OVX,0,,,,,,,LIFR,,,,,,,,,,,0,METAR,2173.0
LIPS 210555Z 05005KT 0800 R26//// FG BKN060 02/01 Q1013 RMK BKN VIS MIN 0800 WIND THR26 /////KT WIND THR08 04006KT AMB,LIPS,2015-02-21T05:55:00Z,45.67,12.08,2.0,1.0,50,5,,0.5,29.911417,,,,,,,,,,FG,BKN,6000,,,,,,,LIFR,,,,,,,,,,,,METAR,41.0
LIPI 210555Z 07003KT 1600 BR SCT010 BKN015 04/03 Q1014 RMK OVC VIS MIN 1600 WIND THR06 04002KT YLO,LIPI,2015-02-21T05:55:00Z,45.97,13.05,4.0,3.0,70,3,,0.99,29.940945,,,,,,,,,,BR,SCT,1000,BKN,1500,,,,,LIFR,,,,,,,,,,,,METAR,53.0
LIPA 210555Z 08005KT 1300 R05/1300 BR BKN015 04/03 Q1013 RMK BKN VIS MIN 1300 A2994 AMB,LIPA,2015-02-21T05:55:00Z,46.02,12.58,4.0,3.0,80,5,,0.81,29.911417,,,,,,,,,,BR,BKN,1500,,,,,,,LIFR,,,,,,,,,,,,METAR,126.0
LIMK 210555Z 36003KT 2000 BR NSC 01/01 Q1009 RMK BKN BKN053 VAL FOSCHIA VIS MIN 2000,LIMK,2015-02-21T05:55:00Z,45.02,7.72,1.0,1.0,360,3,,1.24,29.793306,,,,,,,,,,BR,,,,,,,,,,,,,,,,,,,,,METAR,710.0
LICT 210555Z 12007KT 9999 -RA SCT018 BKN040 10/09 Q1015 RMK OVC BKN070 VIS MIN 9999 WIND THR13 /////KT BLU,LICT,2015-02-21T05:55:00Z,37.92,12.5,10.0,9.0,120,7,,6.21,29.970472,,,,,,,,,,-RA,SCT,1800,BKN,4000,,,,,VFR,,,,,,,,,,,,METAR,7.0
LIPF 210555Z 06002KT 9999 FEW060 01/01 Q1013 RMK FEW VIS MIN 9999,LIPF,2015-02-21T05:55:00Z,44.82,11.62,1.0,1.0,60,2,,6.21,29.911417,,,,,,,,,,,FEW,6000,,,,,,,VFR,,,,,,,,,,,,METAR,10.0
LIPC 210555Z 00000KT 8000 FEW060 02/00 Q1013 RMK FEW VIS MIN 8000 WIND THR11 00000KT BLU,LIPC,2015-02-21T05:55:00Z,44.22,12.3,2.0,0.0,0,0,,4.97,29.911417,,,,,,,,,,,FEW,6000,,,,,,,MVFR,,,,,,,,,,,,METAR,10.0
LIRV 210555Z 01005KT 9999 FEW020 03/01 Q1014 RMK BKN BKN060 MON E SE LIB NC VIS MIN 9999 BLU,LIRV,2015-02-21T05:55:00Z,42.42,12.07,3.0,1.0,10,5,,6.21,29.940945,,,,,,,,,,,FEW,2000,,,,,,,VFR,,,,,,,,,,,,METAR,300.0
LIRS 210555Z /////KT 5000 BR FEW025 06/05 Q1013,LIRS,2015-02-21T05:55:00Z,42.75,11.07,6.0,5.0,,,,3.11,29.911417,,,,,,,,,,BR,FEW,2500,,,,,,,MVFR,,,,,,,,,,,,METAR,7.0
LIRM 210555Z 02003KT 7000 SCT025 SCT035 05/04 Q1016 RMK BKN VIS MIN 7000 WIND THR06 01004KT WHT,LIRM,2015-02-21T05:55:00Z,41.03,14.07,5.0,4.0,20,3,,4.35,30.0,,,,,,,,,,,SCT,2500,SCT,3500,,,,,MVFR,,,,,,,,,,,,METAR,10.0
LIRL 210555Z 05004KT 9999 FEW040 06/04 Q1015 RMK BKN SCT200 MON LIB VAR RAPID VIS MIN 9999 WIND THR30 03003KT BLU,LIRL,2015-02-21T05:55:00Z,41.53,12.9,6.0,4.0,50,4,,6.21,29.970472,,,,,,,,,,,FEW,4000,,,,,,,VFR,,,,,,,,,,,,METAR,26.0
LIRH 210555Z 36003KT 9999 SCT035 03/01 Q1016 RMK SCT MON LIB VAR RAPID VIS MIN 9999 WIND THR16 00000KT BLU,LIRH,2015-02-21T05:55:00Z,41.65,13.3,3.0,1.0,360,3,,6.21,30.0,,,,,,,,,,,SCT,3500,,,,,,,VFR,,,,,,,,,,,,METAR,181.0
LIMS 210555Z 07003KT 9999 SCT045 BKN070 04/04 Q1010 RMK OVC VIS MIN 9999 WIND THR30 05001KT BLU,LIMS,2015-02-21T05:55:00Z,44.92,9.72,4.0,4.0,70,3,,6.21,29.822834,,,,,,,,,,,SCT,4500,BKN,7000,,,,,VFR,,,,,,,,,,,,METAR,138.0
KQL5 210555Z 33004KT 9999 FEW020 SCT040 OVC050 16/10 A3024 RMK SLP234 T01620096 10161 20141 51014,KQL5,2015-02-21T05:55:00Z,100.65,-1000.65,16.2,9.6,330,4,,6.21,30.239174,1023.4,,,,,,,,,,FEW,2000,SCT,4000,OVC,5000,,,VFR,1.4,16.1,14.1,,,,,,,,,METAR,999.0
KFHU 210555Z COR 00000KT 10SM SCT150 OVC220 12/02 A3003 RMK SLP129 55000 COR 0600,KFHU,2015-02-21T05:55:00Z,31.58,-110.35,12.0,2.0,0,0,,10.0,30.029528,1012.9,TRUE,,,,,,,,,SCT,15000,OVC,22000,,,,,VFR,0.0,,,,,,,,,,,SPECI,1438.0
OAHR 210555Z 19027G45KT 3000 DRDU SCT080 BKN140 23/M02 Q1009 RMK BKN VIS MIN 3000 YLO,OAHR,2015-02-21T05:55:00Z,34.22,62.22,23.0,-2.0,190,27,45,1.86,29.793306,,,,,,,,,,DRDU,SCT,8000,BKN,14000,,,,,IFR,,,,,,,,,,,,METAR,964.0
KQTZ 210555Z 22006KT 9999 FEW025 FEW250 06/02 A2983 RMK SLP102 WND DATA ESTMD ALSTG/SLP ESTMD 60003 51025,KQTZ,2015-02-21T05:55:00Z,100.65,-1000.65,6.0,2.0,220,6,,6.21,29.828741,1010.2,,,,,,,,,,FEW,2500,FEW,25000,,,,,VFR,2.5,,,,,,,0.03,,,,METAR,999.0
KQWM 210555Z 26007KT 1200 DU BKN010 11/M01 A2997 RMK DU BKN010 SLP149 QNH1014,KQWM,2015-02-21T05:55:00Z,100.65,-1000.65,11.0,-1.0,260,7,,0.75,29.970472,1014.9,,,,,,,,,DU,BKN,1000,,,,,,,LIFR,,,,,,,,,,,,METAR,999.0
KAAT 210555Z AUTO 00000KT 10SM CLR M01/M07 A3012 RMK AO2 SLP211 T10061067 10128 21017 $,KAAT,2015-02-21T05:55:00Z,41.48,-120.57,-0.6,-6.7,0,0,,10.0,30.121063,1021.1,,TRUE,TRUE,TRUE,,,,,,CLR,,,,,,,,VFR,,12.8,-1.7,,,,,,,,,METAR,1331.0
KQTI 210555Z 18007KT 9000 BR FEW030 BKN200 06/03 A2982 RMK SLP099 WND DATA ESTMD ALSTG/SLP ESTMD,KQTI,2015-02-21T05:55:00Z,100.65,-1000.65,6.0,3.0,180,7,,5.59,29.819881,1009.9,,,,,,,,,BR,FEW,3000,BKN,20000,,,,,VFR,,,,,,,,,,,,METAR,999.0
KQTC 210555Z AUTO 08010G17KT 9SM CLR RMK AO2 SLPNO 10302 20257 52010 $,KQTC,2015-02-21T05:55:00Z,100.65,-1000.65,,,80,10,17,9.0,,,,TRUE,TRUE,TRUE,,,,,,CLR,,,,,,,,VFR,1.0,30.2,25.7,,,,,,,,,METAR,999.0
KQHN 210555Z 06011KT 8000 HZ BKN130 OVC150 20/11 A3006 RMK SLP125 Q1018 DA4675,KQHN,2015-02-21T05:55:00Z,100.65,-1000.65,20.0,11.0,60,11,,4.97,30.059055,1012.5,,,,,,,,,HZ,BKN,13000,OVC,15000,,,,,MVFR,,,,,,,,,,,,METAR,999.0
KQBF 210555Z AUTO 35003KT 5SM HZ FEW100 OVC120 26/M03 A3003 RMK AO2 SLP149 T02621031 10312 20273 53008,KQBF,2015-02-21T05:55:00Z,100.65,-1000.65,26.2,-3.1,350,3,,5.0,30.029528,1014.9,,TRUE,TRUE,,,,,,HZ,FEW,10000,OVC,12000,,,,,MVFR,0.8,31.2,27.3,,,,,,,,,METAR,999.0
KSNH 210555Z AUTO 16005KT 7SM OVC025 00/M02 A3003 RMK,KSNH,2015-02-21T05:55:00Z,35.17,-88.22,0.0,-2.0,160,5,,7.0,30.029528,,,TRUE,,,,,,,,OVC,2500,,,,,,,MVFR,,,,,,,,,,,,METAR,144.0
KTEX 210555Z AUTO 26003KT 10SM SCT075 SCT085 M02/M15 A2999 RMK AO2 6//// T10161154,KTEX,2015-02-21T05:55:00Z,37.95,-107.9,-1.6,-15.4,260,3,,10.0,29.991142,,,TRUE,TRUE,,,,,,,SCT,7500,SCT,8500,,,,,VFR,,,,,,,,,,,,METAR,2769.0
KBGF 210555Z AUTO 14021KT 10SM OVC031 M02/M06 A3014 RMK,KBGF,2015-02-21T05:55:00Z,35.18,-86.07,-2.0,-6.0,140,21,,10.0,30.138779,,,TRUE,,,,,,,,OVC,3100,,,,,,,VFR,,,,,,,,,,,,METAR,299.0
KEAT 210555Z AUTO 36006KT 10SM FEW060 07/M02 A3017 RMK AO2 SLP221 T00671022 10150 20067 51013,KEAT,2015-02-21T05:55:00Z,47.4,-120.2,6.7,-2.2,360,6,,10.0,30.171259,1022.1,,TRUE,TRUE,,,,,,,FEW,6000,,,,,,,VFR,1.3,15.0,6.7,,,,,,,,,METAR,377.0
KDLH 210555Z 33009KT 5SM -SN OVC040 M08/M12 A2977 RMK AO2 SLP113 P0000 60000 T10831117 11078 21089 410781194 53011,KDLH,2015-02-21T05:55:00Z,46.85,-92.2,-8.3,-11.7,330,9,,5.0,29.769686,1011.3,,,TRUE,,,,,,-SN,OVC,4000,,,,,,,MVFR,1.1,-7.8,-8.9,-7.8,-19.4,0.0050,,0.0050,,,,METAR,435.0
KCNK 210555Z AUTO 30006KT 10SM OVC060 01/M03 A2990 RMK AO2 SLP135 T00061028 10006 21006 400281094 51017,KCNK,2015-02-21T05:55:00Z,39.55,-97.65,0.6,-2.8,300,6,,10.0,29.899607,1013.5,,TRUE,TRUE,,,,,,,OVC,6000,,,,,,,VFR,1.7,0.6,-0.6,2.8,-9.4,,,,,,,METAR,447.0
KCMA 210555Z 05004KT 4SM HZ CLR 12/09 A2997 RMK AO2 SLP157 T01170089 10183 20117 51007,KCMA,2015-02-21T05:55:00Z,34.22,-119.1,11.7,8.9,50,4,,4.0,29.970472,1015.7,,,TRUE,,,,,,HZ,CLR,,,,,,,,MVFR,0.7,18.3,11.7,,,,,,,,,METAR,23.0
KCAO 210555Z AUTO 34013KT 10SM CLR 02/M01 A2988 RMK AO2 SLP086 T00221006 10189 20022 51017,KCAO,2015-02-21T05:55:00Z,36.45,-103.15,2.2,-0.6,340,13,,10.0,29.878937,1008.6,,TRUE,TRUE,,,,,,,CLR,,,,,,,,VFR,1.7,18.9,2.2,,,,,,,,,METAR,1514.0
KAST 210555Z AUTO 00000KT 6SM HZ FEW023 OVC035 09/06 A3027 RMK AO2 SLP251 T00890061 10106 20089 56005,KAST,2015-02-21T05:55:00Z,46.15,-123.88,8.9,6.1,0,0,,6.0,30.268702,1025.1,,TRUE,TRUE,,,,,,HZ,FEW,2300,OVC,3500,,,,,VFR,-0.5,10.6,8.9,,,,,,,,,METAR,3.0
KGPI 210555Z 36007KT 10SM FEW050 BKN060 OVC085 01/M01 A3008 RMK AO2 SLP208 60004 T00061011 10033 21006 50008,KGPI,2015-02-21T05:55:00Z,48.32,-114.25,0.6,-1.1,360,7,,10.0,30.079725,1020.8,,,TRUE,,,,,,,FEW,5000,BKN,6000,OVC,8500,,,VFR,0.8,3.3,-0.6,,,,,0.04,,,,METAR,908.0
KINL 210555Z AUTO 33008KT 7SM OVC032 M13/M16 A2985 RMK AO2 SLP136 60000 T11331161 11083 21144 410781189 51019,KINL,2015-02-21T05:55:00Z,48.57,-93.4,-13.3,-16.1,330,8,,7.0,29.84941,1013.6,,TRUE,TRUE,,,,,,,OVC,3200,,,,,,,VFR,1.9,-8.3,-14.4,-7.8,-18.9,,,0.0050,,,,METAR,360.0
KLIC 210555Z AUTO 05004KT 10SM CLR M04/M06 A2994 RMK AO2 SLP129 60000 T10391056 10033 21039 51015,KLIC,2015-02-21T05:55:00Z,39.27,-103.67,-3.9,-5.6,50,4,,10.0,29.940945,1012.9,,TRUE,TRUE,,,,,,,CLR,,,,,,,,VFR,1.5,3.3,-3.9,,,,,0.0050,,,,METAR,1630.0
KLLJ 210555Z AUTO 18004KT 10SM FEW065 OVC095 00/M03 A3000 RMK AO2 SLP166 T00001028 10044 21006 50000 $,KLLJ,2015-02-21T05:55:00Z,44.52,-114.22,0.0,-2.8,180,4,,10.0,30.0,1016.6,,TRUE,TRUE,TRUE,,,,,,FEW,6500,OVC,9500,,,,,VFR,0.0,4.4,-0.6,,,,,,,,,METAR,1536.0
KMKG 210555Z AUTO 15009KT 10SM OVC024 M09/M13 A2995 RMK AO2 SLP157 60000 T10891133 11089 21111 58018,KMKG,2015-02-21T05:55:00Z,43.17,-86.23,-8.9,-13.3,150,9,,10.0,29.949802,1015.7,,TRUE,TRUE,,,,,,,OVC,2400,,,,,,,MVFR,-1.8,-8.9,-11.1,,,,,0.0050,,,,METAR,191.0
PATL 210555Z AUTO 08013G20KT 050V140 10SM BKN120 02/M07 A2986 RMK AO2 SLP127 T00241072 10033 20022 57025 $,PATL,2015-02-21T05:55:00Z,62.9,-155.97,2.4,-7.2,80,13,20,10.0,29.861221,1012.7,,TRUE,TRUE,TRUE,,,,,,BKN,12000,,,,,,,VFR,-2.5,3.3,2.2,,,,,,,,,METAR,294.0
PASV 210555Z AUTO 08011G17KT 10SM OVC070 06/M04 A2969 RMK AO2 SLP065 T00631039 10067 20040 57032,PASV,2015-02-21T05:55:00Z,61.1,-155.57,6.3,-3.9,80,11,17,10.0,29.68996,1006.5,,TRUE,TRUE,,,,,,,OVC,7000,,,,,,,VFR,-3.2,6.7,4.0,,,,,,,,,METAR,484.0
PALU 210555Z AUTO 11011KT 020V130 6SM -SN OVC044 M16/M18 A3019 RMK AO2 SHSNB0312E0511 SLP223 P0000 60000 T11601179 11160 21182 55003,PALU,2015-02-21T05:55:00Z,68.88,-166.13,-16.0,-17.9,110,11,,6.0,30.188976,1022.3,,TRUE,TRUE,,,,,,-SN,OVC,4400,,,,,,,VFR,-0.3,-16.0,-18.2,,,0.0050,,0.0050,,,,METAR,3.0
PAIM 210555Z AUTO 21003KT 10SM SCT085 BKN240 M06/M08 A3006 RMK AO2 SLP209 T10631079 11034 21073 58009,PAIM,2015-02-21T05:55:00Z,66.0,-153.7,-6.3,-7.9,210,3,,10.0,30.059055,1020.9,,TRUE,TRUE,,,,,,,SCT,8500,BKN,24000,,,,,VFR,-0.9,-3.4,-7.3,,,,,,,,,METAR,389.0
PAFB 210555Z 00000KT 7SM BKN120 BKN200 M16/M17 A3010 RMK SLPNO 4/012 56010 LAST,PAFB,2015-02-21T05:55:00Z,64.83,-147.62,-16.0,-17.0,0,0,,7.0,30.100393,,,,,,,,,,,BKN,12000,BKN,20000,,,,,VFR,-1.0,,,,,,,,,12.0,,METAR,137.0
KPVE 210555Z AUTO 17005KT 6SM BKN011 BKN020 OVC026 M01/M02 A2999 RMK,KPVE,2015-02-21T05:55:00Z,35.65,-88.2,-1.0,-2.0,170,5,,6.0,29.991142,,,TRUE,,,,,,,,BKN,1100,BKN,2000,OVC,2600,,,MVFR,,,,,,,,,,,,METAR,149.0
KPHP 210555Z AUTO 26006KT 10SM CLR M04/M06 A2990 RMK AO2 SLP139 T10391061 10072 21044 51009,KPHP,2015-02-21T05:55:00Z,44.05,-101.6,-3.9,-6.1,260,6,,10.0,29.899607,1013.9,,TRUE,TRUE,,,,,,,CLR,,,,,,,,VFR,0.9,7.2,-4.4,,,,,,,,,METAR,672.0
KRNO 210555Z 29004KT 10SM FEW200 07/M07 A3009 RMK AO2 SLP175 T00721072 10161 20067 53012,KRNO,2015-02-21T05:55:00Z,39.5,-119.77,7.2,-7.2,290,4,,10.0,30.088583,1017.5,,,TRUE,,,,,,,FEW,20000,,,,,,,VFR,1.2,16.1,6.7,,,,,,,,,METAR,1342.0
KSRB 210555Z AUTO 18010KT 10SM OVC029 M02/M03 A3011 RMK,KSRB,2015-02-21T05:55:00Z,36.05,-85.53,-2.0,-3.0,180,10,,10.0,30.109253,,,TRUE,,,,,,,,OVC,2900,,,,,,,MVFR,,,,,,,,,,,,METAR,313.0
KSYI 210555Z AUTO 16010KT 6SM FEW031 SCT040 BKN049 M01/M03 A3011 RMK,KSYI,2015-02-21T05:55:00Z,35.57,-86.45,-1.0,-3.0,160,10,,6.0,30.109253,,,TRUE,,,,,,,,FEW,3100,SCT,4000,BKN,4900,,,VFR,,,,,,,,,,,,METAR,245.0
KANJ 210555Z AUTO 15006KT 6SM HZ FEW019 BKN095 M13/M16 A2988 RMK AO2 SNE10 SLP133 P0000 60004 T11281156 11111 21128 58013,KANJ,2015-02-21T05:55:00Z,46.47,-84.37,-12.8,-15.6,150,6,,6.0,29.878937,1013.3,,TRUE,TRUE,,,,,,HZ,FEW,1900,BKN,9500,,,,,VFR,-1.3,-11.1,-12.8,,,0.0050,,0.04,,,,METAR,218.0
KUGN 210555Z AUTO 20012KT 9SM OVC037 M08/M12 A2994 RMK AO2 SLP161 T10781122 11078 21089 410781250 55005,KUGN,2015-02-21T05:55:00Z,42.42,-87.87,-7.8,-12.2,200,12,,9.0,29.940945,1016.1,,TRUE,TRUE,,,,,,,OVC,3700,,,,,,,VFR,-0.5,-7.8,-8.9,-7.8,-25.0,,,,,,,METAR,222.0
MUHA 210555Z 11009KT 080V140 9000 SKC 16/08 Q1023,MUHA,2015-02-21T05:55:00Z,22.97,-82.42,16.0,8.0,110,9,,5.59,30.206694,,,,,,,,,,,SKC,,,,,,,,VFR,,,,,,,,,,,,METAR,64.0
TXKF 210555Z 34012KT 9999 SCT036 13/05 Q1027 ,TXKF,2015-02-21T05:55:00Z,32.37,-64.68,13.0,5.0,340,12,,6.21,30.324802,,,,,,,,,,,SCT,3600,,,,,,,VFR,,,,,,,,,,,,METAR,6.0
KBBD 210555Z AUTO 16006KT 10SM CLR 18/11 A2976 RMK,KBBD,2015-02-21T05:55:00Z,31.18,-99.32,18.0,11.0,160,6,,10.0,29.760826,,,TRUE,,,,,,,,CLR,,,,,,,,VFR,,,,,,,,,,,,METAR,557.0
KLNK 210554Z AUTO 24004KT 10SM BKN070 02/M03 A2987 RMK AO2 SLP123 T00221028 10044 20000 400611117 53009,KLNK,2015-02-21T05:54:00Z,40.85,-96.77,2.2,-2.8,240,4,,10.0,29.870079,1012.3,,TRUE,TRUE,,,,,,,BKN,7000,,,,,,,VFR,0.9,4.4,0.0,6.1,-11.7,,,,,,,METAR,364.0
PAKN 210554Z 09027G43KT 10SM FEW040 BKN080 BKN130 06/01 A2941 RMK PK WND 09052/0529 SLP959 60000 T00560006 10061 20050 56036 VIA AUTODIAL,PAKN,2015-02-21T05:54:00Z,58.68,-156.65,5.6,0.6,90,27,43,10.0,29.409449,995.9,,,,,,,,,,FEW,4000,BKN,8000,BKN,13000,,,VFR,-3.6,6.1,5.0,,,,,0.0050,,,,METAR,17.0
KACY 210554Z 00000KT 10SM CLR M19/M24 A3054 RMK AO2 SLP344 T11941244 11106 21200 51007,KACY,2015-02-21T05:54:00Z,39.45,-74.57,-19.4,-24.4,0,0,,10.0,30.540354,1034.4,,,TRUE,,,,,,,CLR,,,,,,,,VFR,0.7,-10.6,-20.0,,,,,,,,,METAR,23.0
KEUG 210554Z 00000KT 10SM SCT110 07/05 A3024 RMK AO2 SLP242 T00720050 10139 20067 51002,KEUG,2015-02-21T05:54:00Z,44.13,-123.22,7.2,5.0,0,0,,10.0,30.239174,1024.2,,,TRUE,,,,,,,SCT,11000,,,,,,,VFR,0.2,13.9,6.7,,,,,,,,,METAR,114.0
KEWN 210554Z AUTO 00000KT 10SM CLR M09/M13 A3057 RMK AO2 SLP351 T10941133 11061 21100 58001,KEWN,2015-02-21T05:54:00Z,35.07,-77.05,-9.4,-13.3,0,0,,10.0,30.569881,1035.1,,TRUE,TRUE,,,,,,,CLR,,,,,,,,VFR,-0.1,-6.1,-10.0,,,,,,,,,METAR,3.0
KFIG 210554Z AUTO 00000KT 10SM OVC110 M18/M23 A3023 RMK AO2 SLPNO T11781233 11144 21206 58012,KFIG,2015-02-21T05:54:00Z,41.05,-78.42,-17.8,-23.3,0,0,,10.0,30.230314,,,TRUE,TRUE,,,,,,,OVC,11000,,,,,,,VFR,-1.2,-14.4,-20.6,,,,,,,,,METAR,462.0
KFZY 210554Z AUTO 13004KT 10SM CLR M20/M24 A3032 RMK AO2 SLP278 I6000 T12001244 11178 21233 56010,KFZY,2015-02-21T05:54:00Z,43.35,-76.38,-20.0,-24.4,130,4,,10.0,30.318897,1027.8,,TRUE,TRUE,,,,,,,CLR,,,,,,,,VFR,-1.0,-17.8,-23.3,,,,,,,,,METAR,138.0
PGSN 210554Z 04018G26KT 10SM SCT043 26/17 A2989 RMK AO2 PK WND 06032/0521 SLP144 T02610172 10289 20256 56014,PGSN,2015-02-21T05:54:00Z,15.12,145.72,26.1,17.2,40,18,26,10.0,29.890747,1014.4,,,TRUE,,,,,,,SCT,4300,,,,,,,VFR,-1.4,28.9,25.6,,,,,,,,,METAR,65.0
KMTP 210554Z AUTO 28008KT M08/M17 A3050 RMK AO1 SLP328 T10781167 11061 21078 53022,KMTP,2015-02-21T05:54:00Z,41.07,-71.92,-7.8,-16.7,280,8,,,30.499016,1032.8,,TRUE,TRUE,,,,,,,,,,,,,,,,2.2,-6.1,-7.8,,,,,,,,,METAR,2.0
K12N 210554Z AUTO 00000KT M22/M24 A3044 RMK AO1 SLP335 T12171244 11144 21222 51007,K12N,2015-02-21T05:54:00Z,41.02,-74.73,-21.7,-24.4,0,0,,,30.43996,1033.5,,TRUE,TRUE,,,,,,,,,,,,,,,,0.7,-14.4,-22.2,,,,,,,,,METAR,177.0
KRKS 210554Z AUTO 24008KT 10SM FEW055 M04/M06 A2995 RMK AO2 SNE05 SLP157 P0000 60000 T10391061 10022 21039 58002,KRKS,2015-02-21T05:54:00Z,41.6,-109.07,-3.9,-6.1,240,8,,10.0,29.949802,1015.7,,TRUE,TRUE,,,,,,,FEW,5500,,,,,,,VFR,-0.2,2.2,-3.9,,,0.0050,,0.0050,,,,METAR,2060.0
KOFP 210554Z AUTO 13003KT 9SM CLR M17/M21 A3050 RMK AO2 SLP334 T11671211 11117 21172 58010,KOFP,2015-02-21T05:54:00Z,37.7,-77.43,-16.7,-21.1,130,3,,9.0,30.499016,1033.4,,TRUE,TRUE,,,,,,,CLR,,,,,,,,VFR,-1.0,-11.7,-17.2,,,,,,,,,METAR,62.0
KRSP 210554Z AUTO 10SM FEW090 M12/M24 RMK AO2 SLPNO T11221239 11122 21139 $,KRSP,2015-02-21T05:54:00Z,39.65,-77.47,-12.2,-23.9,,,,10.0,,,,TRUE,TRUE,TRUE,,,,,,FEW,9000,,,,,,,VFR,,-12.2,-13.9,,,,,,,,,METAR,561.0
KMQE 210554Z AUTO 27011KT M15/M22 A3038 RMK AO1 SLP311 T11501222 11122 21150 53018,KMQE,2015-02-21T05:54:00Z,42.22,-71.12,-15.0,-22.2,270,11,,,30.380905,1031.1,,TRUE,TRUE,,,,,,,,,,,,,,,,1.8,-12.2,-15.0,,,,,,,,,METAR,199.0
K1V4 210554Z AUTO M24/M27 A3033 RMK AO1 SLP302 T12391267 11150 21244 51023,K1V4,2015-02-21T05:54:00Z,44.42,-72.02,-23.9,-26.7,,,,,30.33071,1030.2,,TRUE,TRUE,,,,,,,,,,,,,,,,2.3,-15.0,-24.4,,,,,,,,,METAR,210.0
KNKT 210554Z 09004KT 10SM CLR M09/M13 A3057 RMK AO2 SLP348 T10891128 11056 21094 58003 $,KNKT,2015-02-21T05:54:00Z,34.9,-76.88,-8.9,-12.8,90,4,,10.0,30.569881,1034.8,,,TRUE,TRUE,,,,,,CLR,,,,,,,,VFR,-0.3,-5.6,-9.4,,,,,,,,,METAR,9.0
KBKB 210554Z AUTO VRB05KT 10SM OVC017 18/14 A2995 RMK AO2 SLP168 T01830139 10183 20178 401940056 51003,KBKB,2015-02-21T05:54:00Z,31.0,-92.92,18.3,13.9,0,5,,10.0,29.949802,1016.8,,TRUE,TRUE,,,,,,,OVC,1700,,,,,,,MVFR,0.3,18.3,17.8,19.4,5.6,,,,,,,METAR,94.0
KNAK 210554Z AUTO VRB03KT 10SM CLR M09/M20 A3051 RMK AO2 SLP332 T10941200 11089 21106 58002,KNAK,2015-02-21T05:54:00Z,38.98,-76.48,-9.4,-20.0,0,3,,10.0,30.510826,1033.2,,TRUE,TRUE,,,,,,,CLR,,,,,,,,VFR,-0.2,-8.9,-10.6,,,,,,,,,METAR,2.0
KNFG 210554Z AUTO 03003KT 7SM OVC020 15/11 A2998 RMK AO2 SLP151 T01500106 10172 20144 53007 $,KNFG,2015-02-21T05:54:00Z,33.28,-117.33,15.0,10.6,30,3,,7.0,29.97933,1015.1,,TRUE,TRUE,TRUE,,,,,,OVC,2000,,,,,,,MVFR,0.7,17.2,14.4,,,,,,,,,METAR,24.0
OPMT 210554Z 05006KT 7000 FEW040 SCT120 20/14 Q1020 NOSIG,OPMT,2015-02-21T05:54:00Z,30.18,71.42,20.0,14.0,50,6,,4.35,30.11811,,,,,,TRUE,,,,,FEW,4000,SCT,12000,,,,,MVFR,,,,,,,,,,,,METAR,123.0
KJAN 210554Z AUTO 17024G32KT 10SM OVC100 14/09 A3003 RMK AO2 PK WND 17033/0523 SLP168 T01390094 10139 20122 401391033 58004,KJAN,2015-02-21T05:54:00Z,32.32,-90.08,13.9,9.4,170,24,32,10.0,30.029528,1016.8,,TRUE,TRUE,,,,,,,OVC,10000,,,,,,,VFR,-0.4,13.9,12.2,13.9,-3.3,,,,,,,METAR,91.0
KIZG 210554Z AUTO 27008KT 240V300 10SM CLR M13/M23 A3032 RMK AO2 SLP277 60000 T11331233 11106 21172 51021,KIZG,2015-02-21T05:54:00Z,43.98,-70.95,-13.3,-23.3,270,8,,10.0,30.318897,1027.7,,TRUE,TRUE,,,,,,,CLR,,,,,,,,VFR,2.1,-10.6,-17.2,,,,,0.0050,,,,METAR,135.0
KISW 210554Z AUTO 00000KT 10SM OVC027 M10/M13 A2985 RMK AO2 SLP128 60000 T11001133 11094 21106 410941267 58003,KISW,2015-02-21T05:54:00Z,44.37,-89.83,-10.0,-13.3,0,0,,10.0,29.84941,1012.8,,TRUE,TRUE,,,,,,,OVC,2700,,,,,,,MVFR,-0.3,-9.4,-10.6,-9.4,-26.7,,,0.0050,,,,METAR,307.0
KIPT 210554Z AUTO 00000KT 10SM CLR M18/M23 A3039 RMK AO2 SLP305 T11781233 11117 21183 58003,KIPT,2015-02-21T05:54:00Z,41.25,-76.92,-17.8,-23.3,0,0,,10.0,30.389763,1030.5,,TRUE,TRUE,,,,,,,CLR,,,,,,,,VFR,-0.3,-11.7,-18.3,,,,,,,,,METAR,164.0
KINT 210554Z 17005KT 10SM FEW075 M06/M18 A3041 RMK AO2 SLP308 T10561183 11039 21056 58005,KINT,2015-02-21T05:54:00Z,36.13,-80.22,-5.6,-18.3,170,5,,10.0,30.410433,1030.8,,,TRUE,,,,,,,FEW,7500,,,,,,,VFR,-0.5,-3.9,-5.6,,,,,,,,,METAR,291.0
KJST 210554Z AUTO 19005KT 10SM SCT060 OVC100 M13/M22 A3012 RMK AO2 SLP253 T11331222 11133 21167 58014,KJST,2015-02-21T05:54:00Z,40.32,-78.83,-13.3,-22.2,190,5,,10.0,30.121063,1025.3,,TRUE,TRUE,,,,,,,SCT,6000,OVC,10000,,,,,VFR,-1.4,-13.3,-16.7,,,,,,,,,METAR,694.0
PKMR 210554Z 09009KT 15SM FEW015 SCT050 BKN300 29/24 A2975 RMK SLP076 8/801 T02920240 10305 20292 55008,PKMR,2015-02-21T05:54:00Z,7.08,171.38,29.2,24.0,90,9,,15.0,29.749016,1007.6,,,,,,,,,,FEW,1500,SCT,5000,BKN,30000,,,VFR,-0.8,30.5,29.2,,,,,,,,,METAR,4.0
KDMH 210554Z AUTO M11/M21 A3054 RMK AO1 SLP342 T11061211 11083 21106 53004 $,KDMH,2015-02-21T05:54:00Z,39.28,-76.62,-10.6,-21.1,,,,,30.540354,1034.2,,TRUE,TRUE,TRUE,,,,,,,,,,,,,,,0.4,-8.3,-10.6,,,,,,,,,METAR,5.0
PGUM 210554Z 03018KT 10SM FEW033 28/19 A2988 RMK AO2 SLP110 T02830194 10311 20278 56015,PGUM,2015-02-21T05:54:00Z,13.48,144.8,28.3,19.4,30,18,,10.0,29.878937,1011.0,,,TRUE,,,,,,,FEW,3300,,,,,,,VFR,-1.5,31.1,27.8,,,,,,,,,METAR,91.0
KOLM 210554Z AUTO 00000KT 10SM BKN036 05/04 A3026 RMK AO2 SLP248 T00500039 10106 20044 55001,KOLM,2015-02-21T05:54:00Z,46.97,-122.9,5.0,3.9,0,0,,10.0,30.259842,1024.8,,TRUE,TRUE,,,,,,,BKN,3600,,,,,,,VFR,-0.1,10.6,4.4,,,,,,,,,METAR,58.0
KOLS 210554Z AUTO 00000KT 10SM CLR 12/02 A3002 RMK AO2 SLP121 60000 T01220017 10172 20122 53004,KOLS,2015-02-21T05:54:00Z,31.42,-110.85,12.2,1.7,0,0,,10.0,30.02067,1012.1,,TRUE,TRUE,,,,,,,CLR,,,,,,,,VFR,0.4,17.2,12.2,,,,,0.0050,,,,METAR,1184.0
KORH 210554Z AUTO 26007KT 10SM CLR M16/M23 A3035 RMK AO2 SLP304 T11561228 11122 21156 53022,KORH,2015-02-21T05:54:00Z,42.27,-71.87,-15.6,-22.8,260,7,,10.0,30.351377,1030.4,,TRUE,TRUE,,,,,,,CLR,,,,,,,,VFR,2.2,-12.2,-15.6,,,,,,,,,METAR,304.0
KDDH 210554Z AUTO 00000KT 10SM CLR M22/M24 A3038 RMK AO2 SLP310 T12221244 11139 21233 51009,KDDH,2015-02-21T05:54:00Z,42.9,-73.25,-22.2,-24.4,0,0,,10.0,30.380905,1031.0,,TRUE,TRUE,,,,,,,CLR,,,,,,,,VFR,0.9,-13.9,-23.3,,,,,,,,,METAR,244.0
KCOS 210554Z 01013KT 10SM FEW020 SCT050 SCT110 00/M04 A2994 RMK AO2 SLP123 60000 T00001039 10039 21011 51012,KCOS,2015-02-21T05:54:00Z,38.82,-104.68,0.0,-3.9,10,13,,10.0,29.940945,1012.3,,,TRUE,,,,,,,FEW,2000,SCT,5000,SCT,11000,,,VFR,1.2,3.9,-1.1,,,,,0.0050,,,,METAR,1856.0
KDSV 210554Z AUTO 17006KT 10SM SCT080 OVC100 M11/M24 A3024 RMK AO2 SLP261 T11061239 11083 21161 58019,KDSV,2015-02-21T05:54:00Z,42.57,-77.72,-10.6,-23.9,170,6,,10.0,30.239174,1026.1,,TRUE,TRUE,,,,,,,SCT,8000,OVC,10000,,,,,VFR,-1.9,-8.3,-16.1,,,,,,,,,METAR,198.0
KDSM 210554Z 21004KT 10SM BKN070 BKN160 OVC200 M01/M07 A2983 RMK AO2 SLP111 T10061067 10033 21011 400391089 58002,KDSM,2015-02-21T05:54:00Z,41.53,-93.67,-0.6,-6.7,210,4,,10.0,29.828741,1011.1,,,TRUE,,,,,,,BKN,7000,BKN,16000,OVC,20000,,,VFR,-0.2,3.3,-1.1,3.9,-8.9,,,,,,,METAR,295.0
KPHF 210554Z 10003KT 10SM UP CLR M14/M19 A3054 RMK AO2 UPB12E22B45 SLP342 P0000 60000 T11441189 11089 21144 58001,KPHF,2015-02-21T05:54:00Z,37.13,-76.5,-14.4,-18.9,100,3,,10.0,30.540354,1034.2,,,TRUE,,,,,,UP,CLR,,,,,,,,VFR,-0.1,-8.9,-14.4,,,0.0050,,0.0050,,,,METAR,12.0
KPHL 210554Z 18005KT 10SM FEW250 M12/M18 A3054 RMK AO2 SLP340 T11221183 11089 21128 53005,KPHL,2015-02-21T05:54:00Z,39.87,-75.23,-12.2,-18.3,180,5,,10.0,30.540354,1034.0,,,TRUE,,,,,,,FEW,25000,,,,,,,VFR,0.5,-8.9,-12.8,,,,,,,,,METAR,18.0
KPIA 210554Z 17008KT 10SM BKN110 M06/M09 A2993 RMK AO2 SLP144 T10561094 11050 21061 410331150 58012,KPIA,2015-02-21T05:54:00Z,40.67,-89.68,-5.6,-9.4,170,8,,10.0,29.929134,1014.4,,,TRUE,,,,,,,BKN,11000,,,,,,,VFR,-1.2,-5.0,-6.1,-3.3,-15.0,,,,,,,METAR,205.0
KPLN 210554Z AUTO VRB06KT 10SM OVC040 M11/M15 A2990 RMK AO2 SLP140 60001 T11061150 11106 21122 57013,KPLN,2015-02-21T05:54:00Z,45.57,-84.8,-10.6,-15.0,0,6,,10.0,29.899607,1014.0,,TRUE,TRUE,,,,,,,OVC,4000,,,,,,,VFR,-1.3,-10.6,-12.2,,,,,0.01,,,,METAR,217.0
KPNE 210554Z 00000KT 10SM CLR M13/M21 A3054 RMK AO2 SLP343 T11281206 11094 21139 51007,KPNE,2015-02-21T05:54:00Z,40.08,-75.02,-12.8,-20.6,0,0,,10.0,30.540354,1034.3,,,TRUE,,,,,,,CLR,,,,,,,,VFR,0.7,-9.4,-13.9,,,,,,,,,METAR,28.0
KPSF 210554Z AUTO 00000KT 10SM CLR M22/M24 A3033 RMK AO2 SLP312 T12171244 11150 21222 51007,KPSF,2015-02-21T05:54:00Z,42.43,-73.28,-21.7,-24.4,0,0,,10.0,30.33071,1031.2,,TRUE,TRUE,,,,,,,CLR,,,,,,,,VFR,0.7,-15.0,-22.2,,,,,,,,,METAR,355.0
KSJN 210554Z AUTO 22018G25KT 10SM CLR 09/M04 A2995 RMK AO2 PK WND 22028/0509 SLP086 T00941039 10150 20094 53006,KSJN,2015-02-21T05:54:00Z,34.52,-109.38,9.4,-3.9,220,18,25,10.0,29.949802,1008.6,,TRUE,TRUE,,,,,,,CLR,,,,,,,,VFR,0.6,15.0,9.4,,,,,,,,,METAR,1745.0
KSYR 210554Z 08004KT 10SM SCT230 M26/M26 A3032 RMK AO2 SLP279 SCT V BKN 4/028 T12561256 11178 21267 56009 PNO $,KSYR,2015-02-21T05:54:00Z,43.12,-76.1,-25.6,-25.6,80,4,,10.0,30.318897,1027.9,,,TRUE,TRUE,,,,,,SCT,23000,,,,,,,VFR,-0.9,-17.8,-26.7,,,,,,,28.0,,METAR,127.0
KTAD 210554Z AUTO 27005KT 10SM CLR 01/M01 A2993 RMK AO2 SLP106 60001 T00061006 10078 20006 53009,KTAD,2015-02-21T05:54:00Z,37.27,-104.33,0.6,-0.6,270,5,,10.0,29.929134,1010.6,,TRUE,TRUE,,,,,,,CLR,,,,,,,,VFR,0.9,7.8,0.6,,,,,0.01,,,,METAR,1756.0
KDYL 210554Z AUTO 00000KT 10SM CLR M17/M21 A3047 RMK AO2 SLP335 T11721211 11122 21172 51005,KDYL,2015-02-21T05:54:00Z,40.33,-75.12,-17.2,-21.1,0,0,,10.0,30.469488,1033.5,,TRUE,TRUE,,,,,,,CLR,,,,,,,,VFR,0.5,-12.2,-17.2,,,,,,,,,METAR,117.0
KBFL 210554Z 31005KT 1/4SM R30R/0800FT FG VV001 09/08 A3001 RMK AO2 TWR VIS 1/4 SLP161 T00940083 10156 20083 53011,KBFL,2015-02-21T05:54:00Z,35.43,-119.05,9.4,8.3,310,5,,0.25,30.008858,1016.1,,,TRUE,,,,,,FG,OVX,0,,,,,,,LIFR,1.1,15.6,8.3,,,,,,,,100,METAR,151.0
KECG 210554Z AUTO 12003KT 10SM CLR M09/M14 A3057 RMK AO2 SLP352 T10891144 11072 21100 50002 FZRANO TSNO,KECG,2015-02-21T05:54:00Z,36.27,-76.18,-8.9,-14.4,120,3,,10.0,30.569881,1035.2,,TRUE,TRUE,,,TRUE,TRUE,,,CLR,,,,,,,,VFR,0.2,-7.2,-10.0,,,,,,,,,METAR,11.0
KTQE 210554Z AUTO 27005KT 10SM BKN065 02/M02 A2982 RMK AO2 SLP102 T00171022 10033 20000 400671100 52003,KTQE,2015-02-21T05:54:00Z,41.77,-96.18,1.7,-2.2,270,5,,10.0,29.819881,1010.2,,TRUE,TRUE,,,,,,,BKN,6500,,,,,,,VFR,0.3,3.3,0.0,6.7,-10.0,,,,,,,METAR,312.0
KUZA 210554Z AUTO VRB03KT 10SM OVC075 M02/M16 A3042 RMK AO2 SLP314 T10221156 11011 21028 58007,KUZA,2015-02-21T05:54:00Z,34.98,-81.05,-2.2,-15.6,0,3,,10.0,30.41929,1031.4,,TRUE,TRUE,,,,,,,OVC,7500,,,,,,,VFR,-0.7,-1.1,-2.8,,,,,,,,,METAR,202.0
KVAY 210554Z AUTO 00000KT 10SM CLR M18/M22 A3053 RMK AO2 SLP339 T11781217 11106 21178 51009,KVAY,2015-02-21T05:54:00Z,39.93,-74.83,-17.8,-21.7,0,0,,10.0,30.528543,1033.9,,TRUE,TRUE,,,,,,,CLR,,,,,,,,VFR,0.9,-10.6,-17.8,,,,,,,,,METAR,15.0
KVSF 210554Z AUTO 00000KT 10SM CLR M22/M24 A3039 RMK AO2 SLP310 T12221244 11128 21228 53021 TSNO,KVSF,2015-02-21T05:54:00Z,43.35,-72.52,-22.2,-24.4,0,0,,10.0,30.389763,1031.0,,TRUE,TRUE,,,TRUE,,,,CLR,,,,,,,,VFR,2.1,-12.8,-22.8,,,,,,,,,METAR,175.0
KVTA 210554Z AUTO 15006KT 10SM BKN043 OVC050 M09/M19 A3012 RMK AO2 SLP216 T10941189 11094 21117 58028,KVTA,2015-02-21T05:54:00Z,40.02,-82.47,-9.4,-18.9,150,6,,10.0,30.121063,1021.6,,TRUE,TRUE,,,,,,,BKN,4300,OVC,5000,,,,,VFR,-2.8,-9.4,-11.7,,,,,,,,,METAR,268.0
KWAL 210554Z AUTO 23004KT 10SM CLR M16/M19 A3057 RMK AO2 SLP348 T11561194 11111 21183 50004,KWAL,2015-02-21T05:54:00Z,37.93,-75.47,-15.6,-19.4,230,4,,10.0,30.569881,1034.8,,TRUE,TRUE,,,,,,,CLR,,,,,,,,VFR,0.4,-11.1,-18.3,,,,,,,,,METAR,14.0
KWLD 210554Z AUTO 35007KT 7SM BKN005 OVC025 02/02 A2983 RMK AO2 SLP106 60000 T00170017 10050 20017 400831039 50016,KWLD,2015-02-21T05:54:00Z,37.17,-97.03,1.7,1.7,350,7,,7.0,29.828741,1010.6,,TRUE,TRUE,,,,,,,BKN,500,OVC,2500,,,,,IFR,1.6,5.0,1.7,8.3,-3.9,,,0.0050,,,,METAR,350.0
KGCK 210554Z AUTO 01013KT 10SM CLR 02/M02 A2987 RMK AO2 SLP121 60002 T00171017 10083 20011 401171050 53008,KGCK,2015-02-21T05:54:00Z,37.92,-100.72,1.7,-1.7,10,13,,10.0,29.870079,1012.1,,TRUE,TRUE,,,,,,,CLR,,,,,,,,VFR,0.8,8.3,1.1,11.7,-5.0,,,0.02,,,,METAR,877.0
KGCN 210554Z AUTO 22006KT 10SM CLR 01/M08 A3001 RMK AO2 SLP129 T00061078 10128 21006 53008,KGCN,2015-02-21T05:54:00Z,35.95,-112.15,0.6,-7.8,220,6,,10.0,30.008858,1012.9,,TRUE,TRUE,,,,,,,CLR,,,,,,,,VFR,0.8,12.8,-0.6,,,,,,,,,METAR,2016.0
KGED 210554Z AUTO 00000KT 10SM CLR M18/M22 A3055 RMK AO2 SLP346 T11781217 11106 21194 51003,KGED,2015-02-21T05:54:00Z,38.68,-75.37,-17.8,-21.7,0,0,,10.0,30.549213,1034.6,,TRUE,TRUE,,,,,,,CLR,,,,,,,,VFR,0.3,-10.6,-19.4,,,,,,,,,METAR,19.0
KCAR 210554Z AUTO VRB05KT 10SM CLR M16/M23 A3010 RMK AO2 SLP211 T11611228 11111 21161 51052,KCAR,2015-02-21T05:54:00Z,46.87,-68.02,-16.1,-22.8,0,5,,10.0,30.100393,1021.1,,TRUE,TRUE,,,,,,,CLR,,,,,,,,VFR,5.2,-11.1,-16.1,,,,,,,,,METAR,191.0
KBWI 210554Z 00000KT 10SM CLR M16/M22 A3049 RMK AO2 SLP327 4/003 T11561217 11117 21156 58002,KBWI,2015-02-21T05:54:00Z,39.17,-76.68,-15.6,-21.7,0,0,,10.0,30.490158,1032.7,,,TRUE,,,,,,,CLR,,,,,,,,VFR,-0.2,-11.7,-15.6,,,,,,,3.0,,METAR,59.0
KBUY 210554Z AUTO 12003KT 10SM CLR M07/M18 A3044 RMK AO2 SLP318 T10721178 11050 21089 58004,KBUY,2015-02-21T05:54:00Z,36.05,-79.47,-7.2,-17.8,120,3,,10.0,30.43996,1031.8,,TRUE,TRUE,,,,,,,CLR,,,,,,,,VFR,-0.4,-5.0,-8.9,,,,,,,,,METAR,180.0
KBUF 210554Z 14006KT 10SM FEW070 FEW085 BKN130 M17/M23 A3019 RMK AO2 SLP245 4/022 T11671228 11167 21206 58024,KBUF,2015-02-21T05:54:00Z,42.93,-78.73,-16.7,-22.8,140,6,,10.0,30.188976,1024.5,,,TRUE,,,,,,,FEW,7000,FEW,8500,BKN,13000,,,VFR,-2.4,-16.7,-20.6,,,,,,,22.0,,METAR,211.0
KBTV 210554Z 18007KT 10SM CLR M16/M22 A3037 RMK AO2 SLP292 T11561222 11122 21178 53015,KBTV,2015-02-21T05:54:00Z,44.47,-73.15,-15.6,-22.2,180,7,,10.0,30.369095,1029.2,,,TRUE,,,,,,,CLR,,,,,,,,VFR,1.5,-12.2,-17.8,,,,,,,,,METAR,105.0
KBOS 210554Z 26011KT 10SM CLR M11/M20 A3045 RMK AO2 SLP309 T11111200 11089 21117 51020,KBOS,2015-02-21T05:54:00Z,42.37,-71.02,-11.1,-20.0,260,11,,10.0,30.448818,1030.9,,,TRUE,,,,,,,CLR,,,,,,,,VFR,2.0,-8.9,-11.7,,,,,,,,,METAR,6.0
KCEU 210554Z AUTO 00000KT 10SM OVC031 00/M09 A3039 RMK AO2 SLP299 60000 T00001094 10011 20000 58006,KCEU,2015-02-21T05:54:00Z,34.67,-82.88,0.0,-9.4,0,0,,10.0,30.389763,1029.9,,TRUE,TRUE,,,,,,,OVC,3100,,,,,,,VFR,-0.6,1.1,0.0,,,,,0.0050,,,,METAR,268.0
KAKR 210554Z AUTO 18010KT 10SM OVC070 M10/M20 A3011 RMK AO2 SLP219 T11001200 11100 21122 56026,KAKR,2015-02-21T05:54:00Z,41.03,-81.47,-10.0,-20.0,180,10,,10.0,30.109253,1021.9,,TRUE,TRUE,,,,,,,OVC,7000,,,,,,,VFR,-2.6,-10.0,-12.2,,,,,,,,,METAR,363.0
KAKQ 210554Z AUTO 00000KT 10SM CLR M15/M19 A3054 RMK AO2 SLP345 T11501189 11111 21161 58005 TSNO,KAKQ,2015-02-21T05:54:00Z,36.98,-77.0,-15.0,-18.9,0,0,,10.0,30.540354,1034.5,,TRUE,TRUE,,,TRUE,,,,CLR,,,,,,,,VFR,-0.5,-11.1,-16.1,,,,,,,,,METAR,34.0
KAKH 210554Z AUTO 18003KT 10SM OVC070 M02/M16 A3040 RMK AO2 SLP306 T10221161 11011 21022 56007,KAKH,2015-02-21T05:54:00Z,35.2,-81.15,-2.2,-16.1,180,3,,10.0,30.398623,1030.6,,TRUE,TRUE,,,,,,,OVC,7000,,,,,,,VFR,-0.7,-1.1,-2.2,,,,,,,,,METAR,243.0
KGSO 210554Z 15005KT 10SM SCT250 M07/M17 A3039 RMK AO2 SLP306 T10671167 11050 21067 58008,KGSO,2015-02-21T05:54:00Z,36.1,-79.95,-6.7,-16.7,150,5,,10.0,30.389763,1030.6,,,TRUE,,,,,,,SCT,25000,,,,,,,VFR,-0.8,-5.0,-6.7,,,,,,,,,METAR,275.0
KCRW 210554Z 00000KT 10SM FEW065 SCT100 BKN220 M10/M16 A3015 RMK AO2 SLP226 4/005 T11001161 11083 21100 56024,KCRW,2015-02-21T05:54:00Z,38.38,-81.58,-10.0,-16.1,0,0,,10.0,30.15059,1022.6,,,TRUE,,,,,,,FEW,6500,SCT,10000,BKN,22000,,,VFR,-2.4,-8.3,-10.0,,,,,,,5.0,,METAR,309.0
PAHN 210554Z AUTO 31013KT 10SM CLR 02/M01 A3044 RMK AO2 SLP309 T00221006 10067 20017 58002 TSNO,PAHN,2015-02-21T05:54:00Z,59.25,-135.52,2.2,-0.6,310,13,,10.0,30.43996,1030.9,,TRUE,TRUE,,,TRUE,,,,CLR,,,,,,,,VFR,-0.2,6.7,1.7,,,,,,,,,METAR,5.0
KAPN 210554Z AUTO 19009KT 9SM BKN060 OVC080 M13/M16 A2997 RMK AO2 SNE50 SLP166 P0000 60002 T11281161 11128 21139 56016,KAPN,2015-02-21T05:54:00Z,45.07,-83.57,-12.8,-16.1,190,9,,9.0,29.970472,1016.6,,TRUE,TRUE,,,,,,,BKN,6000,OVC,8000,,,,,VFR,-1.6,-12.8,-13.9,,,0.0050,,0.02,,,,METAR,210.0
KAVP 210554Z AUTO 11003KT 10SM CLR M17/M24 A3036 RMK AO2 SLP300 T11721244 11128 21183 55000,KAVP,2015-02-21T05:54:00Z,41.33,-75.72,-17.2,-24.4,110,3,,10.0,30.360237,1030.0,,TRUE,TRUE,,,,,,,CLR,,,,,,,,VFR,0.0,-12.8,-18.3,,,,,,,,,METAR,291.0
KAVL 210554Z AUTO 17009KT 10SM OVC027 M04/M12 A3029 RMK AO2 SLP276 T10391117 11028 21039 58009,KAVL,2015-02-21T05:54:00Z,35.43,-82.53,-3.9,-11.7,170,9,,10.0,30.28937,1027.6,,TRUE,TRUE,,,,,,,OVC,2700,,,,,,,MVFR,-0.9,-2.8,-3.9,,,,,,,,,METAR,670.0
KAUW 210554Z AUTO 00000KT 9SM OVC021 M10/M12 A2981 RMK AO2 SLP123 60000 T11001122 11100 21111 411001272 55001,KAUW,2015-02-21T05:54:00Z,44.93,-89.62,-10.0,-12.2,0,0,,9.0,29.811024,1012.3,,TRUE,TRUE,,,,,,,OVC,2100,,,,,,,MVFR,-0.1,-10.0,-11.1,-10.0,-27.2,,,0.0050,,,,METAR,362.0
KAPC 210554Z AUTO 12004KT 10SM CLR 08/07 A2996 RMK AO2 SLP138 T00780072 10183 20078 51004,KAPC,2015-02-21T05:54:00Z,38.2,-122.28,7.8,7.2,120,4,,10.0,29.958662,1013.8,,TRUE,TRUE,,,,,,,CLR,,,,,,,,VFR,0.4,18.3,7.8,,,,,,,,,METAR,13.0
KALO 210554Z AUTO 00000KT 10SM OVC030 M02/M05 A2982 RMK AO2 SLP108 T10221050 11017 21028 410171144 50001,KALO,2015-02-21T05:54:00Z,42.55,-92.4,-2.2,-5.0,0,0,,10.0,29.819881,1010.8,,TRUE,TRUE,,,,,,,OVC,3000,,,,,,,MVFR,0.1,-1.7,-2.8,-1.7,-14.4,,,,,,,METAR,264.0
KHWD 210554Z AUTO 06005KT 10SM CLR 14/09 A2998 RMK AO2 SLP160 T01440094 10200 20144 53009,KHWD,2015-02-21T05:54:00Z,37.67,-122.12,14.4,9.4,60,5,,10.0,29.97933,1016.0,,TRUE,TRUE,,,,,,,CLR,,,,,,,,VFR,0.9,20.0,14.4,,,,,,,,,METAR,21.0
KILN 210554Z AUTO 16010KT 10SM OVC023 M07/M17 A3006 RMK AO2 SLP220 T10721172 11072 21106 58023,KILN,2015-02-21T05:54:00Z,39.43,-83.8,-7.2,-17.2,160,10,,10.0,30.059055,1022.0,,TRUE,TRUE,,,,,,,OVC,2300,,,,,,,MVFR,-2.3,-7.2,-10.6,,,,,,,,,METAR,322.0
KLYH 210554Z AUTO 00000KT 10SM CLR M16/M21 A3042 RMK AO2 SLP320 T11561206 11111 21167 56010,KLYH,2015-02-21T05:54:00Z,37.32,-79.2,-15.6,-20.6,0,0,,10.0,30.41929,1032.0,,TRUE,TRUE,,,,,,,CLR,,,,,,,,VFR,-1.0,-11.1,-16.7,,,,,,,,,METAR,295.0
KLWT 210554Z AUTO 34010G15KT 10SM OVC017 M03/M06 A3005 RMK AO2 SLP208 60001 T10281061 10017 21028 51018,KLWT,2015-02-21T05:54:00Z,47.03,-109.47,-2.8,-6.1,340,10,15,10.0,30.050198,1020.8,,TRUE,TRUE,,,,,,,OVC,1700,,,,,,,MVFR,1.8,1.7,-2.8,,,,,0.01,,,,METAR,1270.0
KLWM 210554Z 24007KT 10SM CLR M14/M21 A3044 RMK AO2 SLP310 T11441206 11100 21144 51018,KLWM,2015-02-21T05:54:00Z,42.72,-71.13,-14.4,-20.6,240,7,,10.0,30.43996,1031.0,,,TRUE,,,,,,,CLR,,,,,,,,VFR,1.8,-10.0,-14.4,,,,,,,,,METAR,54.0
KMEM 210554Z 16013G20KT 5SM -RA BR BKN024 BKN031 OVC047 03/01 A2989 RMK AO2 SLP123 P0009 60038 T00280011 10028 21006 400281050 58029,KMEM,2015-02-21T05:54:00Z,35.07,-89.98,2.8,1.1,160,13,20,5.0,29.890747,1012.3,,,TRUE,,,,,,-RA BR,BKN,2400,BKN,3100,OVC,4700,,,MVFR,-2.9,2.8,-0.6,2.8,-5.0,0.09,,0.38,,,,METAR,86.0
KMKC 210554Z 19008KT 3SM -RA FEW007 OVC045 01/M01 A2985 RMK AO2 UPB26E28B50E53 SLP114 P0000 60000 T00061006 10028 20006 400331106 56008,KMKC,2015-02-21T05:54:00Z,39.12,-94.6,0.6,-0.6,190,8,,3.0,29.84941,1011.4,,,TRUE,,,,,,-RA,FEW,700,OVC,4500,,,,,MVFR,-0.8,2.8,0.6,3.3,-10.6,0.0050,,0.0050,,,,METAR,227.0
KMIV 210554Z AUTO 00000KT 10SM CLR A3053 RMK AO2 SLPNO 53003 $,KMIV,2015-02-21T05:54:00Z,39.37,-75.08,,,0,0,,10.0,30.528543,,,TRUE,TRUE,TRUE,,,,,,CLR,,,,,,,,VFR,0.3,,,,,,,,,,,METAR,23.0
KMGJ 210554Z AUTO 00000KT 10SM CLR M23/M26 A3044 RMK AO2 SLP319 T12281261 11117 21228 51011 TSNO,KMGJ,2015-02-21T05:54:00Z,41.52,-74.27,-22.8,-26.1,0,0,,10.0,30.43996,1031.9,,TRUE,TRUE,,,TRUE,,,,CLR,,,,,,,,VFR,1.1,-11.7,-22.8,,,,,,,,,METAR,108.0
KMFI 210554Z AUTO 18005KT 9SM OVC019 M09/M12 A2981 RMK AO2 SLP121 60000 T10941122 11094 21100 410941239 50000,KMFI,2015-02-21T05:54:00Z,,,-9.4,-12.2,180,5,,9.0,29.811024,1012.1,,TRUE,TRUE,,,,,,,OVC,1900,,,,,,,MVFR,0.0,-9.4,-10.0,-9.4,-23.9,,,0.0050,,,,METAR,
KROC 210554Z 00000KT 10SM BKN085 M22/M26 A3026 RMK AO2 SLP265 4/019 T12171256 11178 21239 58018,KROC,2015-02-21T05:54:00Z,43.12,-77.68,-21.7,-25.6,0,0,,10.0,30.259842,1026.5,,,TRUE,,,,,,,BKN,8500,,,,,,,VFR,-1.8,-17.8,-23.9,,,,,,,19.0,,METAR,178.0
KROA 210554Z 00000KT 10SM SCT250 M11/M20 A3038 RMK AO2 SLP311 4/006 T11111200 11072 21111 58011,KROA,2015-02-21T05:54:00Z,37.32,-79.97,-11.1,-20.0,0,0,,10.0,30.380905,1031.1,,,TRUE,,,,,,,SCT,25000,,,,,,,VFR,-1.1,-7.2,-11.1,,,,,,,6.0,,METAR,362.0
KRIC 210554Z COR 13006KT 10SM CLR M15/M22 A3050 RMK AO2 SLP336 4/003 T11501217 11106 21156 58013,KRIC,2015-02-21T05:54:00Z,37.52,-77.32,-15.0,-21.7,130,6,,10.0,30.499016,1033.6,TRUE,,TRUE,,,,,,,CLR,,,,,,,,VFR,-1.3,-10.6,-15.6,,,,,,,3.0,,SPECI,50.0
KRFD 210554Z 18011KT 10SM OVC037 M07/M12 A2992 RMK AO2 SLP147 4/004 T10721117 11072 21094 410721233 56007,KRFD,2015-02-21T05:54:00Z,42.2,-89.1,-7.2,-11.7,180,11,,10.0,29.920275,1014.7,,,TRUE,,,,,,,OVC,3700,,,,,,,VFR,-0.7,-7.2,-9.4,-7.2,-23.3,,,,,4.0,,METAR,221.0
KRDG 210554Z 20003KT 10SM CLR M14/M21 A3046 RMK AO2 SLP328 T11441211 11111 21156 50002,KRDG,2015-02-21T05:54:00Z,40.37,-75.97,-14.4,-21.1,200,3,,10.0,30.46063,1032.8,,,TRUE,,,,,,,CLR,,,,,,,,VFR,0.2,-11.1,-15.6,,,,,,,,,METAR,109.0
KRBL 210554Z AUTO 34009KT 10SM CLR 17/M01 A2998 RMK AO2 SLP149 T01671006 10239 20156 53015,KRBL,2015-02-21T05:54:00Z,40.15,-122.25,16.7,-0.6,340,9,,10.0,29.97933,1014.9,,TRUE,TRUE,,,,,,,CLR,,,,,,,,VFR,1.5,23.9,15.6,,,,,,,,,METAR,104.0
KPTW 210554Z AUTO 00000KT 10SM CLR M17/M21 A3049 RMK AO2 SLP329 T11671211 11122 21167 50002,KPTW,2015-02-21T05:54:00Z,40.23,-75.55,-16.7,-21.1,0,0,,10.0,30.490158,1032.9,,TRUE,TRUE,,,,,,,CLR,,,,,,,,VFR,0.2,-12.2,-16.7,,,,,,,,,METAR,92.0
KMVL 210554Z AUTO 00000KT 9SM CLR M24/M27 A3033 RMK AO2 SLP295 T12441272 11156 21244 53017 TSNO,KMVL,2015-02-21T05:54:00Z,44.53,-72.62,-24.4,-27.2,0,0,,9.0,30.33071,1029.5,,TRUE,TRUE,,,TRUE,,,,CLR,,,,,,,,VFR,1.7,-15.6,-24.4,,,,,,,,,METAR,234.0
KMRY 210554Z AUTO 00000KT 8SM CLR 11/09 A2998 RMK AO2 SLP163 T01110094 10161 20111 51007,KMRY,2015-02-21T05:54:00Z,36.58,-121.85,11.1,9.4,0,0,,8.0,29.97933,1016.3,,TRUE,TRUE,,,,,,,CLR,,,,,,,,VFR,0.7,16.1,11.1,,,,,,,,,METAR,66.0
KSBY 210554Z AUTO 11003KT 10SM CLR M19/M24 A3055 RMK AO2 SLP348 T11941244 11089 21200 50002,KSBY,2015-02-21T05:54:00Z,38.33,-75.5,-19.4,-24.4,110,3,,10.0,30.549213,1034.8,,TRUE,TRUE,,,,,,,CLR,,,,,,,,VFR,0.2,-8.9,-20.0,,,,,,,,,METAR,19.0
KSBN 210554Z 20010KT 10SM OVC019 M08/M13 A2999 RMK AO2 SLP173 T10831128 11083 21100 58013,KSBN,2015-02-21T05:54:00Z,41.7,-86.32,-8.3,-12.8,200,10,,10.0,29.991142,1017.3,,,TRUE,,,,,,,OVC,1900,,,,,,,MVFR,-1.3,-8.3,-10.0,,,,,,,,,METAR,237.0
KLBT 210554Z AUTO 12006KT 10SM CLR M04/M13 A3051 RMK AO2 SLP331 T10441133 11028 21056 58004,KLBT,2015-02-21T05:54:00Z,34.6,-79.07,-4.4,-13.3,120,6,,10.0,30.510826,1033.1,,TRUE,TRUE,,,,,,,CLR,,,,,,,,VFR,-0.4,-2.8,-5.6,,,,,,,,,METAR,37.0
PHMK 210554Z AUTO 02005KT 10SM -RA BR FEW010 SCT031 OVC095 19/19 A2999 RMK AO2 SLP160 P0000 60022 T01940194 10211 20194 51012 TSNO,PHMK,2015-02-21T05:54:00Z,21.15,-157.1,19.4,19.4,20,5,,10.0,29.991142,1016.0,,TRUE,TRUE,,,TRUE,,,-RA BR,FEW,1000,SCT,3100,OVC,9500,,,VFR,1.2,21.1,19.4,,,0.0050,,0.22,,,,METAR,141.0
KASX 210553Z AUTO 23005KT 7SM OVC046 M08/M11 A2982 RMK AO2 SLP114 60000 T10831111 11083 21089 410831228 51003,KASX,2015-02-21T05:53:00Z,46.55,-90.92,-8.3,-11.1,230,5,,7.0,29.819881,1011.4,,TRUE,TRUE,,,,,,,OVC,4600,,,,,,,VFR,0.3,-8.3,-8.9,-8.3,-22.8,,,0.0050,,,,METAR,251.0
KAUG 210553Z AUTO 27003KT 10SM CLR M15/M25 A3033 RMK AO2 SLP280 T11501250 11117 21161 51033,KAUG,2015-02-21T05:53:00Z,44.32,-69.8,-15.0,-25.0,270,3,,10.0,30.33071,1028.0,,TRUE,TRUE,,,,,,,CLR,,,,,,,,VFR,3.3,-11.7,-16.1,,,,,,,,,METAR,109.0
KAUS 210553Z 19016G31KT 10SM OVC020 19/16 A2982 RMK AO2 PK WND 18031/0545 SLP094 T01890156 10206 20183 402280111 58001,KAUS,2015-02-21T05:53:00Z,30.18,-97.68,18.9,15.6,190,16,31,10.0,29.819881,1009.4,,,TRUE,,,,,,,OVC,2000,,,,,,,MVFR,-0.1,20.6,18.3,22.8,11.1,,,,,,,METAR,166.0
KAWM 210553Z AUTO 16020G27KT 4SM -RA BR BKN023 OVC029 04/03 A2987 RMK AO2 PK WND 16027/0545 SLP116 P0013 60040 I6004 T00390033 10039 21006 400391056 56036,KAWM,2015-02-21T05:53:00Z,35.13,-90.23,3.9,3.3,160,20,27,4.0,29.870079,1011.6,,TRUE,TRUE,,,,,,-RA BR,BKN,2300,OVC,2900,,,,,MVFR,-3.6,3.9,-0.6,3.9,-5.6,0.13,,0.4,,,,METAR,65.0
KLHX 210553Z AUTO 28009KT 10SM FEW090 01/00 A2992 RMK AO2 SLP115 60003 T00110000 10067 20011 51016,KLHX,2015-02-21T05:53:00Z,38.05,-103.52,1.1,0.0,280,9,,10.0,29.920275,1011.5,,TRUE,TRUE,,,,,,,FEW,9000,,,,,,,VFR,1.6,6.7,1.1,,,,,0.03,,,,METAR,1277.0
KLMT 210553Z 00000KT 10SM FEW120 03/M01 A3013 RMK AO2 SLP207 T00331006 10117 20006 53008,KLMT,2015-02-21T05:53:00Z,42.15,-121.72,3.3,-0.6,0,0,,10.0,30.129921,1020.7,,,TRUE,,,,,,,FEW,12000,,,,,,,VFR,0.8,11.7,0.6,,,,,,,,,METAR,1246.0
KLLQ 210553Z AUTO 19015G23KT 10SM OVC018 13/11 A2988 RMK AO2 SLP117 6//// T01330106 10133 20033 401331028 56011 PNO $,KLLQ,2015-02-21T05:53:00Z,33.63,-91.75,13.3,10.6,190,15,23,10.0,29.878937,1011.7,,TRUE,TRUE,TRUE,,,,,,OVC,1800,,,,,,,MVFR,-1.1,13.3,3.3,13.3,-2.8,,,,,,,METAR,83.0
KLIT 210553Z 00000KT 2SM -RA BR OVC004 03/01 A2983 RMK AO2 SLP106 P0002 60016 T00280011 10028 20011 400281039 58030,KLIT,2015-02-21T05:53:00Z,34.73,-92.23,2.8,1.1,0,0,,2.0,29.828741,1010.6,,,TRUE,,,,,,-RA BR,OVC,400,,,,,,,LIFR,-3.0,2.8,1.1,2.8,-3.9,0.02,,0.16,,,,METAR,79.0
KLOL 210553Z AUTO 07005KT 10SM CLR 01/M08 A3008 RMK AO2 SLP191 T00061083 10139 20006 53005,KLOL,2015-02-21T05:53:00Z,40.07,-118.57,0.6,-8.3,70,5,,10.0,30.079725,1019.1,,TRUE,TRUE,,,,,,,CLR,,,,,,,,VFR,0.5,13.9,0.6,,,,,,,,,METAR,1189.0
KLSE 210553Z AUTO 18007KT 10SM BKN026 OVC041 M04/M10 A2985 RMK AO2 SLP125 T10441100 11044 21056 410441194 53001,KLSE,2015-02-21T05:53:00Z,43.88,-91.25,-4.4,-10.0,180,7,,10.0,29.84941,1012.5,,TRUE,TRUE,,,,,,,BKN,2600,OVC,4100,,,,,MVFR,0.1,-4.4,-5.6,-4.4,-19.4,,,,,,,METAR,199.0
KMMK 210553Z AUTO 00000KT 10SM CLR M19/M23 A3049 RMK AO2 SLP327 T11891228 11117 21200 51015 TSNO,KMMK,2015-02-21T05:53:00Z,41.52,-72.83,-18.9,-22.8,0,0,,10.0,30.490158,1032.7,,TRUE,TRUE,,,TRUE,,,,CLR,,,,,,,,VFR,1.5,-11.7,-20.0,,,,,,,,,METAR,31.0
KMMV 210553Z AUTO 00000KT 10SM CLR 09/05 A3026 RMK AO2 SLP246 T00940050 10150 20094 51004 $,KMMV,2015-02-21T05:53:00Z,45.2,-123.13,9.4,5.0,0,0,,10.0,30.259842,1024.6,,TRUE,TRUE,TRUE,,,,,,CLR,,,,,,,,VFR,0.4,15.0,9.4,,,,,,,,,METAR,48.0
PAWI 210553Z AUTO 04009KT 10SM OVC027 M18/M21 A3027 RMK SLP252 60000 T11781211 11178 21206 55001 TSNO $ VIA AUTODIAL,PAWI,2015-02-21T05:53:00Z,70.62,-159.85,-17.8,-21.1,40,9,,10.0,30.268702,1025.2,,TRUE,,TRUE,,TRUE,,,,OVC,2700,,,,,,,MVFR,-0.1,-17.8,-20.6,,,,,0.0050,,,,METAR,27.0
KRYT 210553Z AUTO 00000KT 10SM SCT100 M14/M21 A3036 RMK AO2 SLP315 T11391211 11122 21156 58007 $,KRYT,2015-02-21T05:53:00Z,39.73,-77.43,-13.9,-21.1,0,0,,10.0,30.360237,1031.5,,TRUE,TRUE,TRUE,,,,,,SCT,10000,,,,,,,VFR,-0.7,-12.2,-15.6,,,,,,,,,METAR,274.0
KALI 210553Z AUTO 18017G30KT 10SM OVC020 21/17 A2985 RMK AO2 PK WND 17030/0545 SLP106 T02060167 10250 20194 402890133 58004,KALI,2015-02-21T05:53:00Z,27.73,-98.02,20.6,16.7,180,17,30,10.0,29.84941,1010.6,,TRUE,TRUE,,,,,,,OVC,2000,,,,,,,MVFR,-0.4,25.0,19.4,28.9,13.3,,,,,,,METAR,53.0
KAMG 210553Z AUTO 13003KT 10SM CLR 01/M03 A3040 RMK AO2 SLP293 T00111028 10050 20006 57009,KAMG,2015-02-21T05:53:00Z,31.53,-82.5,1.1,-2.8,130,3,,10.0,30.398623,1029.3,,TRUE,TRUE,,,,,,,CLR,,,,,,,,VFR,-0.9,5.0,0.6,,,,,,,,,METAR,59.0
KALW 210553Z AUTO 08011KT 10SM -RA SCT032 BKN055 OVC095 08/03 A3013 RMK AO2 RAB52 SLP208 P0000 60000 T00830028 10128 20083 53006,KALW,2015-02-21T05:53:00Z,46.1,-118.28,8.3,2.8,80,11,,10.0,30.129921,1020.8,,TRUE,TRUE,,,,,,-RA,SCT,3200,BKN,5500,OVC,9500,,,VFR,0.6,12.8,8.3,,,0.0050,,0.0050,,,,METAR,363.0
KAMW 210553Z AUTO 00000KT 10SM BKN049 OVC060 M01/M04 A2981 RMK AO2 SLP104 T10111044 10011 21039 400111117 58001,KAMW,2015-02-21T05:53:00Z,41.98,-93.62,-1.1,-4.4,0,0,,10.0,29.811024,1010.4,,TRUE,TRUE,,,,,,,BKN,4900,OVC,6000,,,,,VFR,-0.1,1.1,-3.9,1.1,-11.7,,,,,,,METAR,279.0
KANB 210553Z AUTO 08011KT 10SM OVC042 02/M13 A3026 RMK AO2 SLP259 T00221133 10022 21011 400221072 58014,KANB,2015-02-21T05:53:00Z,33.58,-85.85,2.2,-13.3,80,11,,10.0,30.259842,1025.9,,TRUE,TRUE,,,,,,,OVC,4200,,,,,,,VFR,-1.4,2.2,-1.1,2.2,-7.2,,,,,,,METAR,183.0
KOAK 210553Z 00000KT 10SM CLR 12/10 A2998 RMK AO2 SLP152 T01220100 10183 20117 53009,KOAK,2015-02-21T05:53:00Z,37.72,-122.23,12.2,10.0,0,0,,10.0,29.97933,1015.2,,,TRUE,,,,,,,CLR,,,,,,,,VFR,0.9,18.3,11.7,,,,,,,,,METAR,26.0
KNEW 210553Z 15015G22KT 10SM SCT060 BKN095 17/11 A3011 RMK AO2 SLP189 T01720106 10172 20161 401830056 56009,KNEW,2015-02-21T05:53:00Z,30.05,-90.03,17.2,10.6,150,15,22,10.0,30.109253,1018.9,,,TRUE,,,,,,,SCT,6000,BKN,9500,,,,,VFR,-0.9,17.2,16.1,18.3,5.6,,,,,,,METAR,3.0
KFVE 210553Z AUTO 29013KT 10SM CLR M17/M24 A3005 RMK AO2 SLP197 T11671244 11128 21167 51051,KFVE,2015-02-21T05:53:00Z,47.28,-68.3,-16.7,-24.4,290,13,,10.0,30.050198,1019.7,,TRUE,TRUE,,,,,,,CLR,,,,,,,,VFR,5.1,-12.8,-16.7,,,,,,,,,METAR,301.0
KOPF 210553Z AUTO 06010KT 10SM BKN060 17/07 A3031 RMK AO2 SLP265 T01670072 10172 20144 58007,KOPF,2015-02-21T05:53:00Z,25.92,-80.28,16.7,7.2,60,10,,10.0,30.31004,1026.5,,TRUE,TRUE,,,,,,,BKN,6000,,,,,,,VFR,-0.7,17.2,14.4,,,,,,,,,METAR,16.0
KONO 210553Z AUTO VRB03KT 10SM BKN100 06/M01 A3011 RMK AO2 SLP205 T00611011 10128 20061 51007,KONO,2015-02-21T05:53:00Z,44.02,-117.02,6.1,-1.1,0,3,,10.0,30.109253,1020.5,,TRUE,TRUE,,,,,,,BKN,10000,,,,,,,VFR,0.7,12.8,6.1,,,,,,,,,METAR,667.0
KOMK 210553Z AUTO 36004KT 10SM OVC085 05/00 A3017 RMK AO2 SLP225 T00500000 10106 20050 50002,KOMK,2015-02-21T05:53:00Z,48.47,-119.52,5.0,0.0,360,4,,10.0,30.171259,1022.5,,TRUE,TRUE,,,,,,,OVC,8500,,,,,,,VFR,0.2,10.6,5.0,,,,,,,,,METAR,395.0
KOGD 210553Z AUTO 00000KT 10SM BKN055 OVC080 02/M01 A3001 RMK AO2 SLP157 T00221011 10072 20017 55002 TSNO,KOGD,2015-02-21T05:53:00Z,41.2,-112.02,2.2,-1.1,0,0,,10.0,30.008858,1015.7,,TRUE,TRUE,,,TRUE,,,,BKN,5500,OVC,8000,,,,,VFR,-0.2,7.2,1.7,,,,,,,,,METAR,1353.0
KOGB 210553Z AUTO 04003KT 10SM OVC110 M02/M09 A3047 RMK AO2 SLP318 T10171094 10006 21022 55003,KOGB,2015-02-21T05:53:00Z,33.47,-80.85,-1.7,-9.4,40,3,,10.0,30.469488,1031.8,,TRUE,TRUE,,,,,,,OVC,11000,,,,,,,VFR,-0.3,0.6,-2.2,,,,,,,,,METAR,59.0
KODX 210553Z AUTO 32008KT 10SM CLR 02/M01 A2987 RMK AO2 SLP127 T00221011 10061 20000 401061083 53014,KODX,2015-02-21T05:53:00Z,41.62,-98.95,2.2,-1.1,320,8,,10.0,29.870079,1012.7,,TRUE,TRUE,,,,,,,CLR,,,,,,,,VFR,1.4,6.1,0.0,10.6,-8.3,,,,,,,METAR,631.0
KOWD 210553Z AUTO 00000KT 10SM CLR M24/M26 A3046 RMK AO2 SLP315 T12391261 11106 21244 53020,KOWD,2015-02-21T05:53:00Z,42.18,-71.17,-23.9,-26.1,0,0,,10.0,30.46063,1031.5,,TRUE,TRUE,,,,,,,CLR,,,,,,,,VFR,2.0,-10.6,-24.4,,,,,,,,,METAR,19.0
KOVE 210553Z AUTO 15010KT 10SM CLR 13/09 A2998 RMK AO2 SLP154 T01280094 10222 20128 53012,KOVE,2015-02-21T05:53:00Z,39.5,-121.62,12.8,9.4,150,10,,10.0,29.97933,1015.4,,TRUE,TRUE,,,,,,,CLR,,,,,,,,VFR,1.2,22.2,12.8,,,,,,,,,METAR,58.0
KOTM 210553Z AUTO 18006KT 7SM CLR M03/M04 A2986 RMK AO2 SLP119 T10281044 10011 21028 400391106 51001,KOTM,2015-02-21T05:53:00Z,41.1,-92.45,-2.8,-4.4,180,6,,7.0,29.861221,1011.9,,TRUE,TRUE,,,,,,,CLR,,,,,,,,VFR,0.1,1.1,-2.8,3.9,-10.6,,,,,,,METAR,256.0
KORL 210553Z AUTO 02005KT 10SM CLR 07/02 A3039 RMK AO2 SLP297 T00720022 10089 20067 58009,KORL,2015-02-21T05:53:00Z,28.55,-81.33,7.2,2.2,20,5,,10.0,30.389763,1029.7,,TRUE,TRUE,,,,,,,CLR,,,,,,,,VFR,-0.9,8.9,6.7,,,,,,,,,METAR,37.0
KJBR 210553Z AUTO 14006KT 5SM -RA BR BKN007 OVC012 01/01 A2986 RMK AO2 UPE16RAB16 CIG 005V010 SLP114 P0008 60033 T00060006 10006 21022 400061067 58029,KJBR,2015-02-21T05:53:00Z,35.83,-90.65,0.6,0.6,140,6,,5.0,29.861221,1011.4,,TRUE,TRUE,,,,,,-RA BR,BKN,700,OVC,1200,,,,,IFR,-2.9,0.6,-2.2,0.6,-6.7,0.08,,0.33,,,,METAR,79.0
KIWI 210553Z AUTO 00000KT 10SM CLR M21/M24 A3039 RMK AO2 SLP290 T12111239 11100 21211 51034,KIWI,2015-02-21T05:53:00Z,43.97,-69.72,-21.1,-23.9,0,0,,10.0,30.389763,1029.0,,TRUE,TRUE,,,,,,,CLR,,,,,,,,VFR,3.4,-10.0,-21.1,,,,,,,,,METAR,20.0
KITR 210553Z AUTO 32007KT 10SM SCT055 M01/M04 A2993 RMK AO2 SLP139 60000 T10061044 10056 21011 51018,KITR,2015-02-21T05:53:00Z,39.23,-102.28,-0.6,-4.4,320,7,,10.0,29.929134,1013.9,,TRUE,TRUE,,,,,,,SCT,5500,,,,,,,VFR,1.8,5.6,-1.1,,,,,0.0050,,,,METAR,1279.0
KMYV 210553Z AUTO 13006KT 9SM CLR 11/09 A2998 RMK AO2 SLP155 T01110094 10183 20111 53014,KMYV,2015-02-21T05:53:00Z,39.1,-121.57,11.1,9.4,130,6,,9.0,29.97933,1015.5,,TRUE,TRUE,,,,,,,CLR,,,,,,,,VFR,1.4,18.3,11.1,,,,,,,,,METAR,21.0
KMVY 210553Z AUTO 28004KT 10SM CLR M11/M22 A3047 RMK AO2 SLP319 T11061217 11078 21106 51023,KMVY,2015-02-21T05:53:00Z,41.4,-70.62,-10.6,-21.7,280,4,,10.0,30.469488,1031.9,,TRUE,TRUE,,,,,,,CLR,,,,,,,,VFR,2.3,-7.8,-10.6,,,,,,,,,METAR,16.0
KMTO 210553Z AUTO 14006KT 6SM UP BR BKN020 OVC029 M07/M09 A2993 RMK AO2 UPB17SNE17 SLP147 P0002 60002 T10671089 11067 21083 410671217 58026,KMTO,2015-02-21T05:53:00Z,39.47,-88.27,-6.7,-8.9,140,6,,6.0,29.929134,1014.7,,TRUE,TRUE,,,,,,BR UP,BKN,2000,OVC,2900,,,,,MVFR,-2.6,-6.7,-8.3,-6.7,-21.7,0.02,,0.02,,,,METAR,214.0
KMTJ 210553Z AUTO 14007KT 10SM CLR M01/M12 A2996 RMK AO2 SLP123 T10111117 10106 21022 53016,KMTJ,2015-02-21T05:53:00Z,38.5,-107.9,-1.1,-11.7,140,7,,10.0,29.958662,1012.3,,TRUE,TRUE,,,,,,,CLR,,,,,,,,VFR,1.6,10.6,-2.2,,,,,,,,,METAR,1750.0
KMTH 210553Z AUTO 02011KT 10SM OVC065 16/12 A3026 RMK AO2 SLP246 T01560117 10172 20150 58009,KMTH,2015-02-21T05:53:00Z,24.73,-81.05,15.6,11.7,20,11,,10.0,30.259842,1024.6,,TRUE,TRUE,,,,,,,OVC,6500,,,,,,,VFR,-0.9,17.2,15.0,,,,,,,,,METAR,2.0
KMSY 210553Z 15017KT 10SM OVC055 17/11 A3009 RMK AO2 PK WND 16028/0505 SLP193 T01720111 10172 20150 401830028 56009,KMSY,2015-02-21T05:53:00Z,30.0,-90.25,17.2,11.1,150,17,,10.0,30.088583,1019.3,,,TRUE,,,,,,,OVC,5500,,,,,,,VFR,-0.9,17.2,15.0,18.3,2.8,,,,,,,METAR,5.0
KMSS 210553Z AUTO 18004KT 10SM CLR M18/M23 A3034 RMK AO2 SLP285 T11831228 11161 21189 53000,KMSS,2015-02-21T05:53:00Z,44.93,-74.85,-18.3,-22.8,180,4,,10.0,30.339567,1028.5,,TRUE,TRUE,,,,,,,CLR,,,,,,,,VFR,0.0,-16.1,-18.9,,,,,,,,,METAR,66.0
KMSP 210553Z 00000KT 7SM OVC020 M06/M08 A2983 RMK AO2 SLP115 4/001 60000 T10561083 11044 21056 410391150 52005,KMSP,2015-02-21T05:53:00Z,44.88,-93.23,-5.6,-8.3,0,0,,7.0,29.828741,1011.5,,,TRUE,,,,,,,OVC,2000,,,,,,,MVFR,0.5,-4.4,-5.6,-3.9,-15.0,,,0.0050,,1.0,,METAR,265.0
KMSO 210553Z 00000KT 10SM BKN044 OVC060 01/M01 A3007 RMK AO2 SLP207 60000 T00061006 10022 20006 51008,KMSO,2015-02-21T05:53:00Z,46.92,-114.1,0.6,-0.6,0,0,,10.0,30.070866,1020.7,,,TRUE,,,,,,,BKN,4400,OVC,6000,,,,,VFR,0.8,2.2,0.6,,,,,0.0050,,,,METAR,975.0
KMSL 210553Z AUTO 14013G19KT 10SM OVC026 02/M06 A3009 RMK AO2 RAE0458UPB0458E24B46E50FZRAB24E46 SLP194 P0001 60002 T00171056 10017 21022 400171061 56021,KMSL,2015-02-21T05:53:00Z,34.75,-87.6,1.7,-5.6,140,13,19,10.0,30.088583,1019.4,,TRUE,TRUE,,,,,,,OVC,2600,,,,,,,MVFR,-2.1,1.7,-2.2,1.7,-6.1,0.01,,0.02,,,,METAR,164.0
KPBF 210553Z AUTO 15008KT 6SM -RA BR SCT042 BKN055 OVC080 06/05 A2985 RMK AO2 RAB32 SLP107 P0001 60009 T00610050 10061 20017 400611033 58021,KPBF,2015-02-21T05:53:00Z,34.18,-91.93,6.1,5.0,150,8,,6.0,29.84941,1010.7,,TRUE,TRUE,,,,,,-RA BR,SCT,4200,BKN,5500,OVC,8000,,,VFR,-2.1,6.1,1.7,6.1,-3.3,0.01,,0.09,,,,METAR,62.0
KPBI 210553Z 08012KT 10SM FEW034 SCT048 BKN060 17/07 A3032 RMK AO2 SLP266 60000 T01720072 10172 20133 58005,KPBI,2015-02-21T05:53:00Z,26.68,-80.1,17.2,7.2,80,12,,10.0,30.318897,1026.6,,,TRUE,,,,,,,FEW,3400,SCT,4800,BKN,6000,,,VFR,-0.5,17.2,13.3,,,,,0.0050,,,,METAR,6.0
KPDT 210553Z AUTO 22007KT 10SM FEW031 07/02 A3013 RMK AO2 SLP200 60000 T00720022 10111 20067 50001,KPDT,2015-02-21T05:53:00Z,45.7,-118.83,7.2,2.2,220,7,,10.0,30.129921,1020.0,,TRUE,TRUE,,,,,,,FEW,3100,,,,,,,VFR,0.1,11.1,6.7,,,,,0.0050,,,,METAR,462.0
KPDK 210553Z VRB05KT 10SM OVC042 01/M13 A3034 RMK AO2 SLP292 T00061128 10006 20000 58005,KPDK,2015-02-21T05:53:00Z,33.88,-84.3,0.6,-12.8,0,5,,10.0,30.339567,1029.2,,,TRUE,,,,,,,OVC,4200,,,,,,,VFR,-0.5,0.6,0.0,,,,,,,,,METAR,302.0
PHJR 210553Z VRB04KT 10SM FEW120 21/17 A2998 RMK AO2 SLP157 60000 T02060167 10233 20206 52012,PHJR,2015-02-21T05:53:00Z,21.32,-158.07,20.6,16.7,0,4,,10.0,29.97933,1015.7,,,TRUE,,,,,,,FEW,12000,,,,,,,VFR,1.2,23.3,20.6,,,,,0.0050,,,,METAR,15.0
PAYA 210553Z AUTO 00000KT 10SM CLR 02/00 A3035 RMK AO2 SLP277 T00170000 10078 20017 56001 TSNO,PAYA,2015-02-21T05:53:00Z,59.52,-139.67,1.7,0.0,0,0,,10.0,30.351377,1027.7,,TRUE,TRUE,,,TRUE,,,,CLR,,,,,,,,VFR,-0.1,7.8,1.7,,,,,,,,,METAR,11.0
PAWD 210553Z AUTO VRB06KT 10SM OVC050 08/M01 A3002 RMK AO2 SLP167 T00781006 10078 20033 58023 TSNO,PAWD,2015-02-21T05:53:00Z,60.12,-149.42,7.8,-0.6,0,6,,10.0,30.02067,1016.7,,TRUE,TRUE,,,TRUE,,,,OVC,5000,,,,,,,VFR,-2.3,7.8,3.3,,,,,,,,,METAR,23.0
KPGD 210553Z AUTO 05006KT 10SM CLR 05/03 A3037 RMK AO2 SLP285 T00500028 10089 20044 58007,KPGD,2015-02-21T05:53:00Z,26.92,-82.0,5.0,2.8,50,6,,10.0,30.369095,1028.5,,TRUE,TRUE,,,,,,,CLR,,,,,,,,VFR,-0.7,8.9,4.4,,,,,,,,,METAR,7.0
KPDX 210553Z 31006KT 10SM BKN035 OVC150 09/05 A3027 RMK AO2 SLP251 T00890050 10144 20089 53004,KPDX,2015-02-21T05:53:00Z,45.6,-122.62,8.9,5.0,310,6,,10.0,30.268702,1025.1,,,TRUE,,,,,,,BKN,3500,OVC,15000,,,,,VFR,0.4,14.4,8.9,,,,,,,,,METAR,7.0
KPIE 210553Z AUTO 09007KT 10SM CLR 08/03 A3038 RMK AO2 SLP286 T00830028 10122 20083 58004,KPIE,2015-02-21T05:53:00Z,27.92,-82.68,8.3,2.8,90,7,,10.0,30.380905,1028.6,,TRUE,TRUE,,,,,,,CLR,,,,,,,,VFR,-0.4,12.2,8.3,,,,,,,,,METAR,4.0
KJEF 210553Z AUTO 11003KT 4SM -SN BR BKN006 OVC020 M02/M03 A2990 RMK AO2 UPB24E26FZRAB0456E24B26E43SNB43 CIG 004V009 SLP122 P0000 60000 I1003 I6010 T10221033 11022 21033 410111089 56003,KJEF,2015-02-21T05:53:00Z,38.6,-92.15,-2.2,-3.3,110,3,,4.0,29.899607,1012.2,,TRUE,TRUE,,,,,,-SN BR,BKN,600,OVC,2000,,,,,IFR,-0.3,-2.2,-3.3,-1.1,-8.9,0.0050,,0.0050,,,,METAR,168.0
KPIL 210553Z AUTO 17014G21KT 6SM BR OVC021 20/18 A2990 RMK AO2 SLP124 T02000178 10217 20194 402390172 58003,KPIL,2015-02-21T05:53:00Z,26.17,-97.33,20.0,17.8,170,14,21,6.0,29.899607,1012.4,,TRUE,TRUE,,,,,,BR,OVC,2100,,,,,,,MVFR,-0.3,21.7,19.4,23.9,17.2,,,,,,,METAR,5.0
KPIH 210553Z AUTO 21010KT 10SM CLR 01/M02 A3000 RMK AO2 SLP167 T00111017 10044 21006 58003,KPIH,2015-02-21T05:53:00Z,42.92,-112.57,1.1,-1.7,210,10,,10.0,30.0,1016.7,,TRUE,TRUE,,,,,,,CLR,,,,,,,,VFR,-0.3,4.4,-0.6,,,,,,,,,METAR,1359.0
KPNS 210553Z AUTO 15015KT 10SM OVC029 13/08 A3023 RMK AO2 SLP240 T01330083 10133 20106 401331011 58009,KPNS,2015-02-21T05:53:00Z,30.48,-87.18,13.3,8.3,150,15,,10.0,30.230314,1024.0,,TRUE,TRUE,,,,,,,OVC,2900,,,,,,,MVFR,-0.9,13.3,10.6,13.3,-1.1,,,,,,,METAR,38.0
KPMP 210553Z AUTO 07015G19KT 10SM FEW042 OVC060 17/08 A3031 RMK AO2 SLP266 T01670078 10167 20139 58005,KPMP,2015-02-21T05:53:00Z,26.25,-80.12,16.7,7.8,70,15,19,10.0,30.31004,1026.6,,TRUE,TRUE,,,,,,,FEW,4200,OVC,6000,,,,,VFR,-0.5,16.7,13.9,,,,,,,,,METAR,6.0
KPKD 210553Z AUTO 33007KT 10SM CLR M14/M17 A2986 RMK AO2 SLP144 60000 T11441167 11072 21144 410441144 53009,KPKD,2015-02-21T05:53:00Z,46.9,-95.07,-14.4,-16.7,330,7,,10.0,29.861221,1014.4,,TRUE,TRUE,,,,,,,CLR,,,,,,,,VFR,0.9,-7.2,-14.4,-4.4,-14.4,,,0.0050,,,,METAR,442.0
KPRB 210553Z AUTO 12005KT 7SM CLR 12/08 A2998 RMK AO2 SLP152 T01170078 10206 20111 51013 TSNO $,KPRB,2015-02-21T05:53:00Z,35.67,-120.63,11.7,7.8,120,5,,7.0,29.97933,1015.2,,TRUE,TRUE,TRUE,,TRUE,,,,CLR,,,,,,,,VFR,1.3,20.6,11.1,,,,,,,,,METAR,245.0
KPSC 210553Z AUTO VRB04KT 10SM OVC080 06/02 A3014 RMK AO2 SLP208 T00610022 10150 20044 53005,KPSC,2015-02-21T05:53:00Z,46.27,-119.12,6.1,2.2,0,4,,10.0,30.138779,1020.8,,TRUE,TRUE,,,,,,,OVC,8000,,,,,,,VFR,0.5,15.0,4.4,,,,,,,,,METAR,121.0
KPSX 210553Z AUTO 17013KT 8SM OVC038 19/17 A2992 RMK AO2 SLP131 T01890167 10194 20183 402220167 50000,KPSX,2015-02-21T05:53:00Z,28.72,-96.25,18.9,16.7,170,13,,8.0,29.920275,1013.1,,TRUE,TRUE,,,,,,,OVC,3800,,,,,,,VFR,0.0,19.4,18.3,22.2,16.7,,,,,,,METAR,5.0
KPUB 210553Z AUTO 02008KT 10SM SCT060 BKN075 OVC110 03/M02 A2994 RMK AO2 SLP123 T00281022 10083 20028 51017,KPUB,2015-02-21T05:53:00Z,38.28,-104.5,2.8,-2.2,20,8,,10.0,29.940945,1012.3,,TRUE,TRUE,,,,,,,SCT,6000,BKN,7500,OVC,11000,,,VFR,1.7,8.3,2.8,,,,,,,,,METAR,1420.0
KPUC 210553Z AUTO 31007KT 10SM CLR 02/M12 A2995 RMK AO2 SLP150 T00171117 10083 20011 53001,KPUC,2015-02-21T05:53:00Z,39.62,-110.75,1.7,-11.7,310,7,,10.0,29.949802,1015.0,,TRUE,TRUE,,,,,,,CLR,,,,,,,,VFR,0.1,8.3,1.1,,,,,,,,,METAR,2091.0
KPUW 210553Z AUTO 00000KT 10SM FEW045 BKN070 OVC110 A3011 RMK AO2 SLPNO 60013 50002 $,KPUW,2015-02-21T05:53:00Z,46.75,-117.12,,,0,0,,10.0,30.109253,,,TRUE,TRUE,TRUE,,,,,,FEW,4500,BKN,7000,OVC,11000,,,VFR,0.2,,,,,,,0.13,,,,METAR,773.0
KWVI 210553Z AUTO 00000KT 1/4SM FG VV002 13/12 A2998 RMK AO2 SLP152 T01330122 10211 20128 51013,KWVI,2015-02-21T05:53:00Z,36.93,-121.78,13.3,12.2,0,0,,0.25,29.97933,1015.2,,TRUE,TRUE,,,,,,FG,OVX,0,,,,,,,LIFR,1.3,21.1,12.8,,,,,,,,200,METAR,43.0
KYKM 210553Z 22003KT 10SM CLR 06/M02 A3016 RMK AO2 SLP218 T00561022 10144 20050 51007,KYKM,2015-02-21T05:53:00Z,46.57,-120.53,5.6,-2.2,220,3,,10.0,30.159449,1021.8,,,TRUE,,,,,,,CLR,,,,,,,,VFR,0.7,14.4,5.0,,,,,,,,,METAR,324.0
KTTD 210553Z 27005KT 10SM CLR 09/04 A3025 RMK AO2 SLP244 T00890044 10139 20089 53002,KTTD,2015-02-21T05:53:00Z,45.55,-122.42,8.9,4.4,270,5,,10.0,30.250984,1024.4,,,TRUE,,,,,,,CLR,,,,,,,,VFR,0.2,13.9,8.9,,,,,,,,,METAR,14.0
KTVL 210553Z AUTO 00000KT 10SM CLR M01/M06 A3007 RMK AO2 SLP168 T10061061 10128 21006 50004,KTVL,2015-02-21T05:53:00Z,38.9,-120.0,-0.6,-6.1,0,0,,10.0,30.070866,1016.8,,TRUE,TRUE,,,,,,,CLR,,,,,,,,VFR,0.4,12.8,-0.6,,,,,,,,,METAR,1924.0
KTVR 210553Z AUTO 17016G24KT 10SM OVC080 14/10 A3002 RMK AO2 PK WND 17027/0513 SLP172 T01440100 10144 20133 401441039 53001,KTVR,2015-02-21T05:53:00Z,32.35,-91.03,14.4,10.0,170,16,24,10.0,30.02067,1017.2,,TRUE,TRUE,,,,,,,OVC,8000,,,,,,,VFR,0.1,14.4,13.3,14.4,-3.9,,,,,,,METAR,26.0
KTWF 210553Z AUTO 21012KT 10SM CLR 02/M04 A3002 RMK AO2 SLP156 T00221039 10089 20022 58002,KTWF,2015-02-21T05:53:00Z,42.48,-114.48,2.2,-3.9,210,12,,10.0,30.02067,1015.6,,TRUE,TRUE,,,,,,,CLR,,,,,,,,VFR,-0.2,8.9,2.2,,,,,,,,,METAR,1266.0
KUAO 210553Z AUTO 36007KT 10SM BKN035 09/05 A3027 RMK AO2 SLP249 T00940050 10139 20089 52005,KUAO,2015-02-21T05:53:00Z,45.25,-122.77,9.4,5.0,360,7,,10.0,30.268702,1024.9,,TRUE,TRUE,,,,,,,BKN,3500,,,,,,,VFR,0.5,13.9,8.9,,,,,,,,,METAR,59.0
KUIL 210553Z AUTO 00000KT 7SM OVC028 08/07 A3027 RMK AO2 SLP252 T00780072 10100 20072 56003,KUIL,2015-02-21T05:53:00Z,47.93,-124.55,7.8,7.2,0,0,,7.0,30.268702,1025.2,,TRUE,TRUE,,,,,,,OVC,2800,,,,,,,MVFR,-0.3,10.0,7.2,,,,,,,,,METAR,54.0
KUUU 210553Z AUTO 28003KT 10SM CLR M11/M21 A3047 RMK AO2 SLP320 T11111206 11089 21122 51023,KUUU,2015-02-21T05:53:00Z,41.53,-71.28,-11.1,-20.6,280,3,,10.0,30.469488,1032.0,,TRUE,TRUE,,,,,,,CLR,,,,,,,,VFR,2.3,-8.9,-12.2,,,,,,,,,METAR,51.0
KVCB 210553Z AUTO 14003KT 7SM CLR 11/09 A2997 RMK AO2 SLP149 T01110094 10211 20100 51006,KVCB,2015-02-21T05:53:00Z,38.38,-121.95,11.1,9.4,140,3,,7.0,29.970472,1014.9,,TRUE,TRUE,,,,,,,CLR,,,,,,,,VFR,0.6,21.1,10.0,,,,,,,,,METAR,33.0
KVEL 210553Z AUTO 00000KT 10SM BKN085 OVC110 02/M08 A2995 RMK AO2 SLP143 T00171083 10083 20011 50003,KVEL,2015-02-21T05:53:00Z,40.45,-109.52,1.7,-8.3,0,0,,10.0,29.949802,1014.3,,TRUE,TRUE,,,,,,,BKN,8500,OVC,11000,,,,,VFR,0.3,8.3,1.1,,,,,,,,,METAR,1604.0
KVLD 210553Z AUTO 14006KT 10SM CLR 02/M04 A3038 RMK AO2 SLP298 T00221044 10061 20022 55003 TSNO,KVLD,2015-02-21T05:53:00Z,30.78,-83.27,2.2,-4.4,140,6,,10.0,30.380905,1029.8,,TRUE,TRUE,,,TRUE,,,,CLR,,,,,,,,VFR,-0.3,6.1,2.2,,,,,,,,,METAR,62.0
KVPC 210553Z AUTO 10005KT 10SM UP OVC044 00/M08 A3031 RMK AO2 UPB44 SLP266 P0000 60000 T00001083 10006 21017 58013,KVPC,2015-02-21T05:53:00Z,34.13,-84.85,0.0,-8.3,100,5,,10.0,30.31004,1026.6,,TRUE,TRUE,,,,,,UP,OVC,4400,,,,,,,VFR,-1.3,0.6,-1.7,,,0.0050,,0.0050,,,,METAR,222.0
KVRB 210553Z AUTO 08009KT 10SM BKN060 15/06 A3035 RMK AO2 SLP276 T01500061 10156 20083 58005,KVRB,2015-02-21T05:53:00Z,27.65,-80.42,15.0,6.1,80,9,,10.0,30.351377,1027.6,,TRUE,TRUE,,,,,,,BKN,6000,,,,,,,VFR,-0.5,15.6,8.3,,,,,,,,,METAR,10.0
KVUO 210553Z AUTO 32005KT 10SM CLR 09/04 A3027 RMK AO2 SLP249 T00940044 10139 20094 53004,KVUO,2015-02-21T05:53:00Z,45.62,-122.65,9.4,4.4,320,5,,10.0,30.268702,1024.9,,TRUE,TRUE,,,,,,,CLR,,,,,,,,VFR,0.4,13.9,9.4,,,,,,,,,METAR,8.0
KWST 210553Z AUTO 27003KT 10SM CLR M17/M23 A3049 RMK AO2 SLP328 T11671228 11083 21183 53021,KWST,2015-02-21T05:53:00Z,41.35,-71.8,-16.7,-22.8,270,3,,10.0,30.490158,1032.8,,TRUE,TRUE,,,,,,,CLR,,,,,,,,VFR,2.1,-8.3,-18.3,,,,,,,,,METAR,21.0
KSLN 210553Z AUTO 30006KT 10SM OVC050 01/M02 A2991 RMK AO2 UPB34E46SNE07 SLP136 P0000 60000 T00111022 10039 20011 400831078 51017,KSLN,2015-02-21T05:53:00Z,38.78,-97.65,1.1,-2.2,300,6,,10.0,29.911417,1013.6,,TRUE,TRUE,,,,,,,OVC,5000,,,,,,,VFR,1.7,3.9,1.1,8.3,-7.8,0.0050,,0.0050,,,,METAR,385.0
KSMF 210553Z 14006KT 9SM CLR 11/09 A2996 RMK AO2 SLP146 T01060089 10189 20106 53007,KSMF,2015-02-21T05:53:00Z,38.7,-121.6,10.6,8.9,140,6,,9.0,29.958662,1014.6,,,TRUE,,,,,,,CLR,,,,,,,,VFR,0.7,18.9,10.6,,,,,,,,,METAR,6.0
KSNY 210553Z AUTO 32010KT 10SM BKN060 00/M02 A2994 RMK AO2 SLP144 T00001022 10044 21033 51012,KSNY,2015-02-21T05:53:00Z,41.1,-102.98,0.0,-2.2,320,10,,10.0,29.940945,1014.4,,TRUE,TRUE,,,,,,,BKN,6000,,,,,,,VFR,1.2,4.4,-3.3,,,,,,,,,METAR,1307.0
KSPB 210553Z AUTO 35005KT 10SM CLR 08/04 A3026 RMK AO2 SLP248 T00830044 10139 20083 53001 $,KSPB,2015-02-21T05:53:00Z,45.77,-122.87,8.3,4.4,350,5,,10.0,30.259842,1024.8,,TRUE,TRUE,TRUE,,,,,,CLR,,,,,,,,VFR,0.1,13.9,8.3,,,,,,,,,METAR,14.0
KSPG 210553Z AUTO 09016KT 10SM CLR 09/04 A3037 RMK AO2 SLP285 T00940044 10133 20094 58004,KSPG,2015-02-21T05:53:00Z,27.77,-82.63,9.4,4.4,90,16,,10.0,30.369095,1028.5,,TRUE,TRUE,,,,,,,CLR,,,,,,,,VFR,-0.4,13.3,9.4,,,,,,,,,METAR,2.0
KSRQ 210553Z AUTO 08010KT 10SM CLR 07/03 A3036 RMK AO2 SLP278 T00670028 10111 20067 58005,KSRQ,2015-02-21T05:53:00Z,27.4,-82.57,6.7,2.8,80,10,,10.0,30.360237,1027.8,,TRUE,TRUE,,,,,,,CLR,,,,,,,,VFR,-0.5,11.1,6.7,,,,,,,,,METAR,18.0
KSSI 210553Z AUTO 09006KT 10SM CLR 06/01 A3042 RMK AO2 SLP300 T00610011 10061 20022 58014,KSSI,2015-02-21T05:53:00Z,31.15,-81.38,6.1,1.1,90,6,,10.0,30.41929,1030.0,,TRUE,TRUE,,,,,,,CLR,,,,,,,,VFR,-1.4,6.1,2.2,,,,,,,,,METAR,6.0
KSTJ 210553Z AUTO 00000KT 3SM BR OVC007 01/00 A2988 RMK AO2 SLP126 60012 I6005 T00060000 10006 20000 400061111 53008,KSTJ,2015-02-21T05:53:00Z,39.77,-94.92,0.6,0.0,0,0,,3.0,29.878937,1012.6,,TRUE,TRUE,,,,,,BR,OVC,700,,,,,,,IFR,0.8,0.6,0.0,0.6,-11.1,,,0.12,,,,METAR,247.0
KSTP 210553Z AUTO 00000KT 9SM OVC021 M06/M08 A2984 RMK AO2 SLP116 60000 T10561078 11044 21067 410441156 53005,KSTP,2015-02-21T05:53:00Z,44.93,-93.05,-5.6,-7.8,0,0,,9.0,29.840551,1011.6,,TRUE,TRUE,,,,,,,OVC,2100,,,,,,,MVFR,0.5,-4.4,-6.7,-4.4,-15.6,,,0.0050,,,,METAR,219.0
KSWO 210553Z AUTO 06008KT 3SM -RA BR OVC003 03/02 A2977 RMK AO2 RAB35 SLP082 P0000 60000 T00280022 10083 20028 401061017 50010 TSNO,KSWO,2015-02-21T05:53:00Z,36.17,-97.08,2.8,2.2,60,8,,3.0,29.769686,1008.2,,TRUE,TRUE,,,TRUE,,,-RA BR,OVC,300,,,,,,,LIFR,1.0,8.3,2.8,10.6,-1.7,0.0050,,0.0050,,,,METAR,290.0
KTCL 210553Z AUTO 14011G19KT 10SM OVC022 06/M08 A3017 RMK AO2 SLP216 T00561078 10056 20039 400561044 58014,KTCL,2015-02-21T05:53:00Z,33.22,-87.62,5.6,-7.8,140,11,19,10.0,30.171259,1021.6,,TRUE,TRUE,,,,,,,OVC,2200,,,,,,,MVFR,-1.4,5.6,3.9,5.6,-4.4,,,,,,,METAR,49.0
KTIW 210553Z AUTO 29003KT 10SM SCT015 BKN032 OVC050 08/06 A3026 RMK AO2 SLP250 T00830061 10106 20078 53001,KTIW,2015-02-21T05:53:00Z,47.27,-122.58,8.3,6.1,290,3,,10.0,30.259842,1025.0,,TRUE,TRUE,,,,,,,SCT,1500,BKN,3200,OVC,5000,,,VFR,0.1,10.6,7.8,,,,,,,,,METAR,89.0
KTLH 210553Z AUTO 10005KT 10SM CLR 01/M04 A3036 RMK AO2 SLP279 T00111039 10078 20006 57002 $,KTLH,2015-02-21T05:53:00Z,30.4,-84.35,1.1,-3.9,100,5,,10.0,30.360237,1027.9,,TRUE,TRUE,TRUE,,,,,,CLR,,,,,,,,VFR,-0.2,7.8,0.6,,,,,,,,,METAR,19.0
KTMB 210553Z 06007KT 10SM OVC060 17/08 A3030 RMK AO2 SLP261 T01670078 10172 20150 58008,KTMB,2015-02-21T05:53:00Z,25.65,-80.43,16.7,7.8,60,7,,10.0,30.301182,1026.1,,,TRUE,,,,,,,OVC,6000,,,,,,,VFR,-0.8,17.2,15.0,,,,,,,,,METAR,2.0
KTOI 210553Z AUTO 12005KT 10SM CLR 03/M09 A3029 RMK AO2 SLP257 T00281094 10061 20028 400941078 58010,KTOI,2015-02-21T05:53:00Z,31.85,-86.02,2.8,-9.4,120,5,,10.0,30.28937,1025.7,,TRUE,TRUE,,,,,,,CLR,,,,,,,,VFR,-1.0,6.1,2.8,9.4,-7.8,,,,,,,METAR,118.0
KTOR 210553Z AUTO 29006KT 10SM FEW120 M03/M05 A2995 RMK AO2 SLP155 T10331050 10050 21033 50010,KTOR,2015-02-21T05:53:00Z,42.07,-104.15,-3.3,-5.0,290,6,,10.0,29.949802,1015.5,,TRUE,TRUE,,,,,,,FEW,12000,,,,,,,VFR,1.0,5.0,-3.3,,,,,,,,,METAR,1277.0
KTPA 210553Z 07008KT 10SM CLR 07/01 A3039 RMK AO2 SLP290 T00720011 10122 20072 58004,KTPA,2015-02-21T05:53:00Z,27.97,-82.53,7.2,1.1,70,8,,10.0,30.389763,1029.0,,,TRUE,,,,,,,CLR,,,,,,,,VFR,-0.4,12.2,7.2,,,,,,,,,METAR,11.0
KTRI 210553Z 00000KT 10SM BKN035 OVC095 M07/M13 A3022 RMK AO2 SLP246 4/003 T10671128 11050 21094 56010,KTRI,2015-02-21T05:53:00Z,36.48,-82.4,-6.7,-12.8,0,0,,10.0,30.221457,1024.6,,,TRUE,,,,,,,BKN,3500,OVC,9500,,,,,VFR,-1.0,-5.0,-9.4,,,,,,,3.0,,METAR,474.0
KRBG 210553Z AUTO 00000KT 10SM BKN100 08/06 A3023 RMK AO2 SLP237 T00830061 10133 20078 56002,KRBG,2015-02-21T05:53:00Z,43.23,-123.35,8.3,6.1,0,0,,10.0,30.230314,1023.7,,TRUE,TRUE,,,,,,,BKN,10000,,,,,,,VFR,-0.2,13.3,7.8,,,,,,,,,METAR,154.0
KRDD 210553Z AUTO 35007KT 10SM CLR 17/M01 A2999 RMK AO2 SLP153 T01671011 10239 20167 51016,KRDD,2015-02-21T05:53:00Z,40.52,-122.3,16.7,-1.1,350,7,,10.0,29.991142,1015.3,,TRUE,TRUE,,,,,,,CLR,,,,,,,,VFR,1.6,23.9,16.7,,,,,,,,,METAR,155.0
KRIL 210553Z AUTO 24005KT 10SM BKN060 OVC070 00/M04 A2996 RMK AO2 SLP142 T00001044 10050 21006 50007,KRIL,2015-02-21T05:53:00Z,39.53,-107.73,0.0,-4.4,240,5,,10.0,29.958662,1014.2,,TRUE,TRUE,,,,,,,BKN,6000,OVC,7000,,,,,VFR,0.7,5.0,-0.6,,,,,,,,,METAR,1678.0
KRKP 210553Z AUTO 17009G18KT 6SM BR OVC022 18/17 A2989 RMK AO2 SLP122 T01830167 10194 20183 402170167 58002,KRKP,2015-02-21T05:53:00Z,28.08,-97.05,18.3,16.7,170,9,18,6.0,29.890747,1012.2,,TRUE,TRUE,,,,,,BR,OVC,2200,,,,,,,MVFR,-0.2,19.4,18.3,21.7,16.7,,,,,,,METAR,6.0
KRME 210553Z AUTO 13007KT 10SM CLR M24/M27 A3037 RMK AO2 SLP298 I6000 T12391267 11167 21256 58003,KRME,2015-02-21T05:53:00Z,43.22,-75.4,-23.9,-26.7,130,7,,10.0,30.369095,1029.8,,TRUE,TRUE,,,,,,,CLR,,,,,,,,VFR,-0.3,-16.7,-25.6,,,,,,,,,METAR,154.0
KRMG 210553Z AUTO 13005KT 10SM OVC043 00/M07 A3028 RMK AO2 RAB0458E10UPB10E22 SLP257 P0000 60000 T00001072 10006 21028 58017,KRMG,2015-02-21T05:53:00Z,34.35,-85.17,0.0,-7.2,130,5,,10.0,30.280512,1025.7,,TRUE,TRUE,,,,,,,OVC,4300,,,,,,,VFR,-1.7,0.6,-2.8,,,0.0050,,0.0050,,,,METAR,193.0
KLAR 210553Z AUTO 33004KT 10SM CLR M07/M08 A2991 RMK AO2 SLP133 60000 T10671083 10000 21072 50004,KLAR,2015-02-21T05:53:00Z,41.32,-105.67,-6.7,-8.3,330,4,,10.0,29.911417,1013.3,,TRUE,TRUE,,,,,,,CLR,,,,,,,,VFR,0.4,0.0,-7.2,,,,,0.0050,,,,METAR,2216.0
KLAA 210553Z AUTO 00000KT 6SM BR BKN021 BKN030 01/01 A2991 RMK AO2 SLP120 60005 T00060006 10083 20000 51031,KLAA,2015-02-21T05:53:00Z,38.07,-102.68,0.6,0.6,0,0,,6.0,29.911417,1012.0,,TRUE,TRUE,,,,,,BR,BKN,2100,BKN,3000,,,,,MVFR,3.1,8.3,0.0,,,,,0.05,,,,METAR,1119.0
KJER 210553Z AUTO 23009KT 10SM CLR 01/M03 A3002 RMK AO2 SLP173 T00111033 10083 20011 51002,KJER,2015-02-21T05:53:00Z,42.72,-114.45,1.1,-3.3,230,9,,10.0,30.02067,1017.3,,TRUE,TRUE,,,,,,,CLR,,,,,,,,VFR,0.2,8.3,1.1,,,,,,,,,METAR,1222.0
KRNT 210553Z AUTO 00000KT 10SM FEW032 BKN047 OVC060 08/07 A3026 RMK AO2 SLP252 T00830072 10106 20078 53000,KRNT,2015-02-21T05:53:00Z,47.5,-122.22,8.3,7.2,0,0,,10.0,30.259842,1025.2,,TRUE,TRUE,,,,,,,FEW,3200,BKN,4700,OVC,6000,,,VFR,0.0,10.6,7.8,,,,,,,,,METAR,21.0
KRSW 210553Z 05008KT 10SM CLR 08/03 A3035 RMK AO2 SLP273 T00780028 10133 20078 58007,KRSW,2015-02-21T05:53:00Z,26.53,-81.75,7.8,2.8,50,8,,10.0,30.351377,1027.3,,,TRUE,,,,,,,CLR,,,,,,,,VFR,-0.7,13.3,7.8,,,,,,,,,METAR,10.0
KRWF 210553Z AUTO 33009KT 10SM CLR M08/M11 A2987 RMK AO2 SLP133 60000 T10831111 10000 21083 400061106 51014,KRWF,2015-02-21T05:53:00Z,44.55,-95.08,-8.3,-11.1,330,9,,10.0,29.870079,1013.3,,TRUE,TRUE,,,,,,,CLR,,,,,,,,VFR,1.4,0.0,-8.3,0.6,-10.6,,,0.0050,,,,METAR,311.0
KRWI 210553Z AUTO 00000KT 10SM CLR M10/M14 A3054 RMK AO2 SLP343 T11001139 11067 21106 55002,KRWI,2015-02-21T05:53:00Z,35.85,-77.9,-10.0,-13.9,0,0,,10.0,30.540354,1034.3,,TRUE,TRUE,,,,,,,CLR,,,,,,,,VFR,-0.2,-6.7,-10.6,,,,,,,,,METAR,47.0
KRWL 210553Z AUTO 00000KT 10SM BKN050 OVC075 M04/M06 A2994 RMK AO2 SNE15 SLP144 P0000 60000 T10391061 10011 21050 50005,KRWL,2015-02-21T05:53:00Z,41.78,-107.2,-3.9,-6.1,0,0,,10.0,29.940945,1014.4,,TRUE,TRUE,,,,,,,BKN,5000,OVC,7500,,,,,VFR,0.5,1.1,-5.0,,,0.0050,,0.0050,,,,METAR,2077.0
KRXE 210553Z AUTO 19007KT 10SM SCT060 OVC085 01/M02 A2998 RMK AO2 SLP168 T00061022 10067 20006 50003,KRXE,2015-02-21T05:53:00Z,43.83,-111.8,0.6,-2.2,190,7,,10.0,29.97933,1016.8,,TRUE,TRUE,,,,,,,SCT,6000,OVC,8500,,,,,VFR,0.3,6.7,0.6,,,,,,,,,METAR,1480.0
KSAC 210553Z AUTO 14006KT 6SM BR CLR 11/09 A2998 RMK AO2 SLP152 T01060089 10183 20106 52008,KSAC,2015-02-21T05:53:00Z,38.5,-121.5,10.6,8.9,140,6,,6.0,29.97933,1015.2,,TRUE,TRUE,,,,,,BR,CLR,,,,,,,,VFR,0.8,18.3,10.6,,,,,,,,,METAR,11.0
KSAV 210553Z AUTO 10004KT 10SM CLR 01/M02 A3044 RMK AO2 SLP308 T00061022 10022 21006 56014 FZRANO TSNO,KSAV,2015-02-21T05:53:00Z,32.12,-81.2,0.6,-2.2,100,4,,10.0,30.43996,1030.8,,TRUE,TRUE,,,TRUE,TRUE,,,CLR,,,,,,,,VFR,-1.4,2.2,-0.6,,,,,,,,,METAR,14.0
KSEA 210553Z 36005KT 10SM FEW027 OVC035 08/06 A3026 RMK AO2 SLP255 60001 T00830061 10106 20083 55000,KSEA,2015-02-21T05:53:00Z,47.45,-122.32,8.3,6.1,360,5,,10.0,30.259842,1025.5,,,TRUE,,,,,,,FEW,2700,OVC,3500,,,,,VFR,0.0,10.6,8.3,,,,,0.01,,,,METAR,136.0
KSFB 210553Z 36005KT 10SM CLR 06/02 A3040 RMK AO2 SLP294 T00560017 10072 20050 58011,KSFB,2015-02-21T05:53:00Z,28.77,-81.22,5.6,1.7,360,5,,10.0,30.398623,1029.4,,,TRUE,,,,,,,CLR,,,,,,,,VFR,-1.1,7.2,5.0,,,,,,,,,METAR,17.0
KSFF 210553Z AUTO 36003KT 10SM CLR 02/00 A3010 RMK AO2 SLP206 T00170000 10083 20017 50001,KSFF,2015-02-21T05:53:00Z,47.68,-117.32,1.7,0.0,360,3,,10.0,30.100393,1020.6,,TRUE,TRUE,,,,,,,CLR,,,,,,,,VFR,0.1,8.3,1.7,,,,,,,,,METAR,609.0
KSHR 210553Z AUTO 29008KT 6SM -SN BR FEW009 BKN023 OVC045 00/M02 A2998 RMK AO2 SLP177 P0000 60003 T00001017 10011 21017 53008,KSHR,2015-02-21T05:53:00Z,44.77,-106.97,0.0,-1.7,290,8,,6.0,29.97933,1017.7,,TRUE,TRUE,,,,,,-SN BR,FEW,900,BKN,2300,OVC,4500,,,MVFR,0.8,1.1,-1.7,,,0.0050,,0.03,,,,METAR,1202.0
KSIY 210553Z AUTO 12005KT 10SM CLR 04/M01 A3014 RMK AO2 SLP225 T00391006 10150 20033 51006,KSIY,2015-02-21T05:53:00Z,41.77,-122.47,3.9,-0.6,120,5,,10.0,30.138779,1022.5,,TRUE,TRUE,,,,,,,CLR,,,,,,,,VFR,0.6,15.0,3.3,,,,,,,,,METAR,807.0
KSJC 210553Z 00000KT 10SM CLR 14/10 A2998 RMK AO2 SLP150 T01390100 10206 20128 52012,KSJC,2015-02-21T05:53:00Z,37.37,-121.92,13.9,10.0,0,0,,10.0,29.97933,1015.0,,,TRUE,,,,,,,CLR,,,,,,,,VFR,1.2,20.6,12.8,,,,,,,,,METAR,24.0
KSLC 210553Z 25005KT 10SM SCT065 BKN075 03/M01 A3001 RMK AO2 SLP155 SH DSNT NW T00331011 10089 20028 55002,KSLC,2015-02-21T05:53:00Z,40.77,-111.97,3.3,-1.1,250,5,,10.0,30.008858,1015.5,,,TRUE,,,,,,,SCT,6500,BKN,7500,,,,,VFR,-0.2,8.9,2.8,,,,,,,,,METAR,1286.0
KLVK 210553Z AUTO 00000KT 10SM CLR 11/07 A2998 RMK AO2 SLP151 T01110072 10211 20111 53012,KLVK,2015-02-21T05:53:00Z,37.7,-121.82,11.1,7.2,0,0,,10.0,29.97933,1015.1,,TRUE,TRUE,,,,,,,CLR,,,,,,,,VFR,1.2,21.1,11.1,,,,,,,,,METAR,117.0
KLWD 210553Z AUTO 20004KT 9SM CLR M02/M05 A2983 RMK AO2 SLP114 T10221050 11006 21022 400281106 58005,KLWD,2015-02-21T05:53:00Z,40.63,-93.9,-2.2,-5.0,200,4,,9.0,29.828741,1011.4,,TRUE,TRUE,,,,,,,CLR,,,,,,,,VFR,-0.5,-0.6,-2.2,2.8,-10.6,,,,,,,METAR,346.0
KLXT 210553Z AUTO 00000KT 5SM -FZRA BR SCT005 SCT026 OVC032 M01/M01 A2987 RMK AO2 UPE05FZRAB05 SLP123 P0005 60013 I1002 I6004 T10061011 10000 21006 400221117 55002,KLXT,2015-02-21T05:53:00Z,38.97,-94.37,-0.6,-1.1,0,0,,5.0,29.870079,1012.3,,TRUE,TRUE,,,,,,-FZRA BR,SCT,500,SCT,2600,OVC,3200,,,MVFR,-0.2,0.0,-0.6,2.2,-11.7,0.05,,0.13,,,,METAR,306.0
KLXV 210553Z AUTO 05003KT 10SM BKN055 OVC070 M09/M12 A2990 RMK AO2 SLP097 60006 T10941122 11061 21122 50001,KLXV,2015-02-21T05:53:00Z,39.23,-106.32,-9.4,-12.2,50,3,,10.0,29.899607,1009.7,,TRUE,TRUE,,,,,,,BKN,5500,OVC,7000,,,,,VFR,0.1,-6.1,-12.2,,,,,0.06,,,,METAR,3028.0
KMAI 210553Z AUTO 11004KT 10SM CLR 04/M05 A3031 RMK AO2 SLP263 T00391050 10072 20028 401111044 58014,KMAI,2015-02-21T05:53:00Z,30.83,-85.18,3.9,-5.0,110,4,,10.0,30.31004,1026.3,,TRUE,TRUE,,,,,,,CLR,,,,,,,,VFR,-1.4,7.2,2.8,11.1,-4.4,,,,,,,METAR,32.0
KMCB 210553Z AUTO 14008KT 10SM BKN033 OVC041 13/11 A3007 RMK AO2 RAB0459E09B40E51 SLP182 P0000 60001 T01280106 10133 20106 401671006 58005,KMCB,2015-02-21T05:53:00Z,31.18,-90.47,12.8,10.6,140,8,,10.0,30.070866,1018.2,,TRUE,TRUE,,,,,,,BKN,3300,OVC,4100,,,,,VFR,-0.5,13.3,10.6,16.7,-0.6,0.0050,,0.01,,,,METAR,124.0
KMCE 210553Z AUTO 10005KT 4SM BR OVC007 11/09 A3001 RMK AO2 SLP161 T01110094 10133 20083 53008,KMCE,2015-02-21T05:53:00Z,37.28,-120.5,11.1,9.4,100,5,,4.0,30.008858,1016.1,,TRUE,TRUE,,,,,,BR,OVC,700,,,,,,,IFR,0.8,13.3,8.3,,,,,,,,,METAR,47.0
KMCI 210553Z 23005KT 1SM R19R/P6000FT -FZRA BR BKN003 OVC055 00/M01 A2985 RMK AO2 SFC VIS 4 FZDZE12FZRAB28 SLP117 4/001 931000 24/931000 P0000 60013 I1000 I6001 T00001006 10006 21006 400221106 58000 $,KMCI,2015-02-21T05:53:00Z,39.3,-94.73,0.0,-0.6,230,5,,1.0,29.84941,1011.7,,,TRUE,TRUE,,,,,-FZRA BR,BKN,300,OVC,5500,,,,,LIFR,0.0,0.6,-0.6,2.2,-10.6,0.0050,,0.13,,1.0,,METAR,320.0
KMCN 210553Z AUTO 08003KT 10SM SCT050 M02/M08 A3039 RMK AO2 SLP292 T10221078 10022 21033 58001 TSNO $,KMCN,2015-02-21T05:53:00Z,32.68,-83.65,-2.2,-7.8,80,3,,10.0,30.389763,1029.2,,TRUE,TRUE,TRUE,,TRUE,,,,SCT,5000,,,,,,,VFR,-0.1,2.2,-3.3,,,,,,,,,METAR,109.0
KMCO 210553Z 36006KT 10SM CLR 07/03 A3040 RMK AO2 SLP293 T00670033 10089 20061 58009,KMCO,2015-02-21T05:53:00Z,28.42,-81.33,6.7,3.3,360,6,,10.0,30.398623,1029.3,,,TRUE,,,,,,,CLR,,,,,,,,VFR,-0.9,8.9,6.1,,,,,,,,,METAR,29.0
KMCW 210553Z AUTO 28006KT 10SM OVC040 M02/M04 A2982 RMK AO2 SLP110 T10171044 11017 21028 410171139 51006,KMCW,2015-02-21T05:53:00Z,43.15,-93.33,-1.7,-4.4,280,6,,10.0,29.819881,1011.0,,TRUE,TRUE,,,,,,,OVC,4000,,,,,,,VFR,0.6,-1.7,-2.8,-1.7,-13.9,,,,,,,METAR,369.0
KMFR 210553Z AUTO 00000KT 10SM CLR 07/02 A3018 RMK AO2 SLP226 T00720022 10167 20072 51012,KMFR,2015-02-21T05:53:00Z,42.38,-122.87,7.2,2.2,0,0,,10.0,30.180119,1022.6,,TRUE,TRUE,,,,,,,CLR,,,,,,,,VFR,1.2,16.7,7.2,,,,,,,,,METAR,396.0
KMGM 210553Z 10009KT 10SM CLR 03/M10 A3027 RMK AO2 SLP249 T00281100 10050 20028 400831067 58013,KMGM,2015-02-21T05:53:00Z,32.3,-86.4,2.8,-10.0,100,9,,10.0,30.268702,1024.9,,,TRUE,,,,,,,CLR,,,,,,,,VFR,-1.3,5.0,2.8,8.3,-6.7,,,,,,,METAR,63.0
KMHT 210553Z 23004KT 10SM CLR M14/M21 A3039 RMK AO2 SLP315 4/020 T11441206 11100 21150 51015,KMHT,2015-02-21T05:53:00Z,42.93,-71.43,-14.4,-20.6,230,4,,10.0,30.389763,1031.5,,,TRUE,,,,,,,CLR,,,,,,,,VFR,1.5,-10.0,-15.0,,,,,,,20.0,,METAR,81.0
KMIA 210553Z 06008G17KT 10SM SCT042 BKN060 17/07 A3031 RMK AO2 SLP263 T01670072 10172 20150 58007,KMIA,2015-02-21T05:53:00Z,25.8,-80.28,16.7,7.2,60,8,17,10.0,30.31004,1026.3,,,TRUE,,,,,,,SCT,4200,BKN,6000,,,,,VFR,-0.7,17.2,15.0,,,,,,,,,METAR,3.0
KMKL 210553Z AUTO 16013G26KT 150V210 8SM -RA BKN021 OVC029 01/M01 A2994 RMK AO2 PK WND 17026/0548 LTG DSNT NW RAB30UPB43E46FZRAE30 SLP142 P0014 60024 T00111011 10011 21022 400111078 58040,KMKL,2015-02-21T05:53:00Z,35.6,-88.92,1.1,-1.1,160,13,26,8.0,29.940945,1014.2,,TRUE,TRUE,,,,,,-RA,BKN,2100,OVC,2900,,,,,MVFR,-4.0,1.1,-2.2,1.1,-7.8,0.14,,0.24,,,,METAR,128.0
KMLB 210553Z AUTO 32006KT 10SM BKN042 OVC049 10/06 A3037 RMK AO2 SLP282 T01000061 10106 20061 58010,KMLB,2015-02-21T05:53:00Z,28.1,-80.65,10.0,6.1,320,6,,10.0,30.369095,1028.2,,TRUE,TRUE,,,,,,,BKN,4200,OVC,4900,,,,,VFR,-1.0,10.6,6.1,,,,,,,,,METAR,11.0
KMLP 210553Z AUTO 31004KT 1/2SM FZFG VV001 M02/M04 A3000 RMK AO2 SNE06 SLP137 P0000 60014 T10221044 11011 21033 50001,KMLP,2015-02-21T05:53:00Z,47.45,-115.67,-2.2,-4.4,310,4,,0.5,30.0,1013.7,,TRUE,TRUE,,,,,,FZFG,OVX,0,,,,,,,LIFR,0.1,-1.1,-3.3,,,0.0050,,0.14,,,100,METAR,1837.0
KMLT 210553Z AUTO 29008KT 10SM CLR M16/M23 A3026 RMK AO2 SLP263 60001 T11561228 11122 21156 51048,KMLT,2015-02-21T05:53:00Z,45.65,-68.7,-15.6,-22.8,290,8,,10.0,30.259842,1026.3,,TRUE,TRUE,,,,,,,CLR,,,,,,,,VFR,4.8,-12.2,-15.6,,,,,0.01,,,,METAR,123.0
PAAQ 210553Z AUTO 34014KT 10SM OVC100 02/M07 A3005 RMK AO2 SLP182 T00221067 10039 20022 58026 TSNO,PAAQ,2015-02-21T05:53:00Z,61.6,-149.08,2.2,-6.7,340,14,,10.0,30.050198,1018.2,,TRUE,TRUE,,,TRUE,,,,OVC,10000,,,,,,,VFR,-2.6,3.9,2.2,,,,,,,,,METAR,73.0
PABE 210553Z 03011KT 10SM CLR 02/M02 A2955 RMK AO2 SLP007 T00221022 10067 20022 56034,PABE,2015-02-21T05:53:00Z,60.78,-161.85,2.2,-2.2,30,11,,10.0,29.551182,1000.7,,,TRUE,,,,,,,CLR,,,,,,,,VFR,-3.4,6.7,2.2,,,,,,,,,METAR,41.0
PABR 210553Z 04008KT 10SM OVC048 M20/M22 A3031 RMK AO2 SLP267 T12001217 11183 21211 51002,PABR,2015-02-21T05:53:00Z,71.28,-156.8,-20.0,-21.7,40,8,,10.0,30.31004,1026.7,,,TRUE,,,,,,,OVC,4800,,,,,,,VFR,0.2,-18.3,-21.1,,,,,,,,,METAR,7.0
PABT 210553Z 04008KT 10SM FEW050 M04/M09 A3015 RMK AO2 SLP226 4/019 T10441094 11022 21050 58008 PNO,PABT,2015-02-21T05:53:00Z,66.92,-151.52,-4.4,-9.4,40,8,,10.0,30.15059,1022.6,,,TRUE,,,,,,,FEW,5000,,,,,,,VFR,-0.8,-2.2,-5.0,,,,,,,19.0,,METAR,195.0
PACD 210553Z AUTO 30003KT 10SM -RA OVC032 03/03 A2911 RMK AO2 SLP858 P0008 60011 T00330033 10061 20028 56023 TSNO,PACD,2015-02-21T05:53:00Z,55.2,-162.72,3.3,3.3,300,3,,10.0,29.111221,985.8,,TRUE,TRUE,,,TRUE,,,-RA,OVC,3200,,,,,,,VFR,-2.3,6.1,2.8,,,0.08,,0.11,,,,METAR,30.0
PACV 210553Z 05004KT 10SM BKN200 04/00 A3022 RMK AO2 SLP234 T00440000 10067 20022 58018,PACV,2015-02-21T05:53:00Z,60.5,-145.5,4.4,0.0,50,4,,10.0,30.221457,1023.4,,,TRUE,,,,,,,BKN,20000,,,,,,,VFR,-1.8,6.7,2.2,,,,,,,,,METAR,12.0
PADE 210553Z AUTO 11005KT 10SM FEW070 BKN100 M01/M13 A2997 RMK AO2 SLP150 60000 T10061128 11006 21089 56011 FZRANO TSNO $,PADE,2015-02-21T05:53:00Z,66.07,-162.77,-0.6,-12.8,110,5,,10.0,29.970472,1015.0,,TRUE,TRUE,TRUE,,TRUE,TRUE,,,FEW,7000,BKN,10000,,,,,VFR,-1.1,-0.6,-8.9,,,,,0.0050,,,,METAR,5.0
PADQ 210553Z 05014KT 2 1/2SM RA BR OVC005 06/06 A2964 RMK AO2 SLP039 P0014 60126 T00560056 10061 20050 58023,PADQ,2015-02-21T05:53:00Z,57.75,-152.5,5.6,5.6,50,14,,2.5,29.639763,1003.9,,,TRUE,,,,,,RA BR,OVC,500,,,,,,,IFR,-2.3,6.1,5.0,,,0.14,,1.26,,,,METAR,34.0
PAEG 210553Z AUTO 15007KT 120V200 10SM OVC024 M03/M08 A3029 RMK AO2 SLP274 T10281078 11017 21033 58006 TSNO $,PAEG,2015-02-21T05:53:00Z,64.78,-141.15,-2.8,-7.8,150,7,,10.0,30.28937,1027.4,,TRUE,TRUE,TRUE,,TRUE,,,,OVC,2400,,,,,,,MVFR,-0.6,-1.7,-3.3,,,,,,,,,METAR,268.0
PAEN 210553Z AUTO 02017KT 10SM OVC085 02/M03 A3001 RMK AO2 SLP163 T00221033 10022 20017 56018 TSNO,PAEN,2015-02-21T05:53:00Z,60.57,-151.25,2.2,-3.3,20,17,,10.0,30.008858,1016.3,,TRUE,TRUE,,,TRUE,,,,OVC,8500,,,,,,,VFR,-1.8,2.2,1.7,,,,,,,,,METAR,27.0
PAFA 210553Z 00000KT 10SM SCT200 M14/M17 A3010 RMK AO2 SLP208 T11391167 11083 21150 56013,PAFA,2015-02-21T05:53:00Z,64.8,-147.88,-13.9,-16.7,0,0,,10.0,30.100393,1020.8,,,TRUE,,,,,,,SCT,20000,,,,,,,VFR,-1.3,-8.3,-15.0,,,,,,,,,METAR,132.0
PAGY 210553Z AUTO 04003KT 10SM CLR 00/M01 A3045 RMK AO2 SLP312 T00001011 10061 21006 58003 TSNO,PAGY,2015-02-21T05:53:00Z,59.47,-135.3,0.0,-1.1,40,3,,10.0,30.448818,1031.2,,TRUE,TRUE,,,TRUE,,,,CLR,,,,,,,,VFR,-0.3,6.1,-0.6,,,,,,,,,METAR,5.0
PAHO 210553Z AUTO 06010G17KT 8SM -RA BKN030 OVC035 06/03 A2987 RMK AO2 SLP117 P0003 60005 T00610028 10094 20061 56016 TSNO,PAHO,2015-02-21T05:53:00Z,59.63,-151.5,6.1,2.8,60,10,17,8.0,29.870079,1011.7,,TRUE,TRUE,,,TRUE,,,-RA,BKN,3000,OVC,3500,,,,,MVFR,-1.6,9.4,6.1,,,0.03,,0.05,,,,METAR,28.0
PAIL 210553Z 09022G34KT 10SM FEW031 FEW070 04/01 A2972 RMK AO2 PK WND 10035/0512 RAE37 SLP066 P0000 60000 T00440006 10072 20044 58010,PAIL,2015-02-21T05:53:00Z,59.75,-154.92,4.4,0.6,90,22,34,10.0,29.719488,1006.6,,,TRUE,,,,,,,FEW,3100,FEW,7000,,,,,VFR,-1.0,7.2,4.4,,,0.0050,,0.0050,,,,METAR,49.0
PAKT 210553Z 26003KT 10SM CLR 02/01 A3042 RMK AO2 SLP304 T00170006 10067 20017 53006,PAKT,2015-02-21T05:53:00Z,55.35,-131.7,1.7,0.6,260,3,,10.0,30.41929,1030.4,,,TRUE,,,,,,,CLR,,,,,,,,VFR,0.6,6.7,1.7,,,,,,,,,METAR,28.0
KFMN 210553Z AUTO 00000KT 10SM CLR 04/M12 A2989 RMK AO2 SLP109 T00391122 10144 20039 53015,KFMN,2015-02-21T05:53:00Z,36.75,-108.23,3.9,-12.2,0,0,,10.0,29.890747,1010.9,,TRUE,TRUE,,,,,,,CLR,,,,,,,,VFR,1.5,14.4,3.9,,,,,,,,,METAR,1685.0
KFLD 210553Z AUTO 20009KT 10SM OVC047 M08/M13 A2987 RMK AO2 SLP132 60000 T10781133 11078 21094 410781222 55009,KFLD,2015-02-21T05:53:00Z,43.77,-88.48,-7.8,-13.3,200,9,,10.0,29.870079,1013.2,,TRUE,TRUE,,,,,,,OVC,4700,,,,,,,VFR,-0.9,-7.8,-9.4,-7.8,-22.2,,,0.0050,,,,METAR,240.0
KFDY 210553Z AUTO 17015KT 10SM OVC025 M08/M16 A3005 RMK AO2 SLP189 T10831156 11083 21111 56021,KFDY,2015-02-21T05:53:00Z,41.02,-83.67,-8.3,-15.6,170,15,,10.0,30.050198,1018.9,,TRUE,TRUE,,,,,,,OVC,2500,,,,,,,MVFR,-2.1,-8.3,-11.1,,,,,,,,,METAR,247.0
KFAY 210553Z AUTO 00000KT 10SM CLR M07/M14 A3051 RMK AO2 SLP329 T10671144 11028 21072 55003,KFAY,2015-02-21T05:53:00Z,34.98,-78.88,-6.7,-14.4,0,0,,10.0,30.510826,1032.9,,TRUE,TRUE,,,,,,,CLR,,,,,,,,VFR,-0.3,-2.8,-7.2,,,,,,,,,METAR,55.0
KENW 210553Z AUTO 21011KT 10SM OVC041 M08/M13 A2992 RMK AO2 SLP147 T10781128 11078 21083 410781239 55008,KENW,2015-02-21T05:53:00Z,42.6,-87.93,-7.8,-12.8,210,11,,10.0,29.920275,1014.7,,TRUE,TRUE,,,,,,,OVC,4100,,,,,,,VFR,-0.8,-7.8,-8.3,-7.8,-23.9,,,,,,,METAR,219.0
KELM 210553Z AUTO 00000KT 10SM FEW110 M23/M26 A3029 RMK AO2 SLP284 T12331261 11172 21256 56009,KELM,2015-02-21T05:53:00Z,42.15,-76.9,-23.3,-26.1,0,0,,10.0,30.28937,1028.4,,TRUE,TRUE,,,,,,,FEW,11000,,,,,,,VFR,-0.9,-17.2,-25.6,,,,,,,,,METAR,302.0
KELD 210553Z AUTO 16013G19KT 10SM OVC021 14/12 A2985 RMK AO2 SLP108 T01440117 10144 20089 401441006 55010,KELD,2015-02-21T05:53:00Z,33.22,-92.82,14.4,11.7,160,13,19,10.0,29.84941,1010.8,,TRUE,TRUE,,,,,,,OVC,2100,,,,,,,MVFR,-1.0,14.4,8.9,14.4,-0.6,,,,,,,METAR,81.0
KDXR 210553Z AUTO 00000KT 10SM CLR M21/M25 A3046 RMK AO2 SLP327 T12061250 11106 21206 51016,KDXR,2015-02-21T05:53:00Z,41.37,-73.48,-20.6,-25.0,0,0,,10.0,30.46063,1032.7,,TRUE,TRUE,,,,,,,CLR,,,,,,,,VFR,1.6,-10.6,-20.6,,,,,,,,,METAR,139.0
KDVT 210553Z 00000KT 10SM CLR 16/01 A2988 RMK AO2 SLP106 T01560006 10233 20156 51006,KDVT,2015-02-21T05:53:00Z,33.68,-112.07,15.6,0.6,0,0,,10.0,29.878937,1010.6,,,TRUE,,,,,,,CLR,,,,,,,,VFR,0.6,23.3,15.6,,,,,,,,,METAR,443.0
KDUJ 210553Z AUTO 13008KT 10SM OVC100 M15/M23 A3014 RMK AO2 SLP252 T11501228 11150 21167 58018,KDUJ,2015-02-21T05:53:00Z,41.17,-78.9,-15.0,-22.8,130,8,,10.0,30.138779,1025.2,,TRUE,TRUE,,,,,,,OVC,10000,,,,,,,VFR,-1.8,-15.0,-16.7,,,,,,,,,METAR,554.0
KDTW 210553Z 16011KT 9SM -SN OVC026 M09/M17 A3006 RMK AO2 SNB08 SLP192 P0000 60000 T10941167 11094 21117 56030,KDTW,2015-02-21T05:53:00Z,42.23,-83.33,-9.4,-16.7,160,11,,9.0,30.059055,1019.2,,,TRUE,,,,,,-SN,OVC,2600,,,,,,,MVFR,-3.0,-9.4,-11.7,,,0.0050,,0.0050,,,,METAR,195.0
KLVS 210553Z AUTO 08013KT 10SM CLR M01/M04 A2988 RMK AO2 WSHFT 0448 SLP063 T10061039 10133 21006 51017,KLVS,2015-02-21T05:53:00Z,35.65,-105.13,-0.6,-3.9,80,13,,10.0,29.878937,1006.3,,TRUE,TRUE,,,,,,,CLR,,,,,,,,VFR,1.7,13.3,-0.6,,,,,,,,,METAR,2091.0
KLUK 210553Z AUTO 00000KT 10SM OVC021 M06/M16 A3010 RMK AO2 SLP201 T10561156 11056 21089 56020,KLUK,2015-02-21T05:53:00Z,39.1,-84.42,-5.6,-15.6,0,0,,10.0,30.100393,1020.1,,TRUE,TRUE,,,,,,,OVC,2100,,,,,,,MVFR,-2.0,-5.6,-8.9,,,,,,,,,METAR,155.0
KLPR 210553Z AUTO 19011KT 10SM FEW042 SCT050 OVC070 M10/M19 A3010 RMK AO2 SLP209 T11001189 11100 21128 56028 TSNO,KLPR,2015-02-21T05:53:00Z,41.35,-82.18,-10.0,-18.9,190,11,,10.0,30.100393,1020.9,,TRUE,TRUE,,,TRUE,,,,FEW,4200,SCT,5000,OVC,7000,,,VFR,-2.8,-10.0,-12.8,,,,,,,,,METAR,241.0
KLNS 210553Z AUTO 06004KT 8SM CLR M15/M20 A3045 RMK AO2 SLP319 T11501200 11111 21156 50000,KLNS,2015-02-21T05:53:00Z,40.12,-76.3,-15.0,-20.0,60,4,,8.0,30.448818,1031.9,,TRUE,TRUE,,,,,,,CLR,,,,,,,,VFR,0.0,-11.1,-15.6,,,,,,,,,METAR,125.0
KLHQ 210553Z AUTO 15008KT 10SM OVC041 M09/M19 A3013 RMK AO2 SLP218 T10941189 11094 21106 58027,KLHQ,2015-02-21T05:53:00Z,39.75,-82.67,-9.4,-18.9,150,8,,10.0,30.129921,1021.8,,TRUE,TRUE,,,,,,,OVC,4100,,,,,,,VFR,-2.7,-9.4,-10.6,,,,,,,,,METAR,260.0
KLGB 210553Z 00000KT 9SM CLR 14/11 A2997 RMK AO2 SLP148 T01440111 10183 20144 51007,KLGB,2015-02-21T05:53:00Z,33.82,-118.15,14.4,11.1,0,0,,9.0,29.970472,1014.8,,,TRUE,,,,,,,CLR,,,,,,,,VFR,0.7,18.3,14.4,,,,,,,,,METAR,10.0
KLAX 210553Z 00000KT 5SM HZ FEW023 14/12 A2997 RMK AO2 SLP148 T01440117 10167 20144 51006 $,KLAX,2015-02-21T05:53:00Z,33.93,-118.38,14.4,11.7,0,0,,5.0,29.970472,1014.8,,,TRUE,TRUE,,,,,HZ,FEW,2300,,,,,,,MVFR,0.6,16.7,14.4,,,,,,,,,METAR,46.0
KLAW 210553Z AUTO 01024G29KT 4SM BR BKN004 08/07 A2967 RMK AO2 PK WND 01029/0530 SLP044 T00830072 10122 20072 401670044 53012,KLAW,2015-02-21T05:53:00Z,34.55,-98.42,8.3,7.2,10,24,29,4.0,29.66929,1004.4,,TRUE,TRUE,,,,,,BR,BKN,400,,,,,,,LIFR,1.2,12.2,7.2,16.7,4.4,,,,,,,METAR,337.0
KLAN 210553Z 19008KT 10SM OVC023 M10/M16 A3000 RMK AO2 SNB21E45 SLP175 P0000 60000 T11001156 11100 21117 58010,KLAN,2015-02-21T05:53:00Z,42.78,-84.58,-10.0,-15.6,190,8,,10.0,30.0,1017.5,,,TRUE,,,,,,,OVC,2300,,,,,,,MVFR,-1.0,-10.0,-11.7,,,0.0050,,0.0050,,,,METAR,264.0
KIPL 210553Z AUTO 00000KT 10SM CLR 18/07 A2983 RMK AO2 SLP102 T01780072 10267 20172 51008,KIPL,2015-02-21T05:53:00Z,32.83,-115.58,17.8,7.2,0,0,,10.0,29.828741,1010.2,,TRUE,TRUE,,,,,,,CLR,,,,,,,,VFR,0.8,26.7,17.2,,,,,,,,,METAR,-17.0
KINK 210553Z AUTO 25011KT 10SM CLR 18/M07 A2977 RMK AO2 SLP044 T01831072 10239 20183 402670017 53006,KINK,2015-02-21T05:53:00Z,31.78,-103.2,18.3,-7.2,250,11,,10.0,29.769686,1004.4,,TRUE,TRUE,,,,,,,CLR,,,,,,,,VFR,0.6,23.9,18.3,26.7,1.7,,,,,,,METAR,855.0
KILM 210553Z 02004KT 10SM CLR M07/M14 A3053 RMK AO2 SLP336 T10671139 11039 21067 58005,KILM,2015-02-21T05:53:00Z,34.27,-77.9,-6.7,-13.9,20,4,,10.0,30.528543,1033.6,,,TRUE,,,,,,,CLR,,,,,,,,VFR,-0.5,-3.9,-6.7,,,,,,,,,METAR,9.0
KIAG 210553Z AUTO 13006KT 10SM FEW070 OVC090 M18/M23 A3020 RMK AO2 SLP257 T11831233 11183 21206 58024,KIAG,2015-02-21T05:53:00Z,43.12,-78.93,-18.3,-23.3,130,6,,10.0,30.200787,1025.7,,TRUE,TRUE,,,,,,,FEW,7000,OVC,9000,,,,,VFR,-2.4,-18.3,-20.6,,,,,,,,,METAR,182.0
KHZY 210553Z AUTO 17012G18KT 10SM OVC050 M12/M21 A3014 RMK AO2 SLP229 T11171206 11117 21150 56024,KHZY,2015-02-21T05:53:00Z,41.78,-80.7,-11.7,-20.6,170,12,18,10.0,30.138779,1022.9,,TRUE,TRUE,,,,,,,OVC,5000,,,,,,,VFR,-2.4,-11.7,-15.0,,,,,,,,,METAR,276.0
KDTN 210553Z AUTO 18014KT 10SM FEW028 OVC035 17/13 A2986 RMK AO2 SLP109 60000 T01670133 10172 20167 401720028 55006,KDTN,2015-02-21T05:53:00Z,32.55,-93.75,16.7,13.3,180,14,,10.0,29.861221,1010.9,,TRUE,TRUE,,,,,,,FEW,2800,OVC,3500,,,,,VFR,-0.6,17.2,16.7,17.2,2.8,,,0.0050,,,,METAR,53.0
KDMN 210553Z AUTO 10SM CLR 14/M02 A2997 RMK AO2 SLP094 T01441022 10189 20139 51012 PWINO,KDMN,2015-02-21T05:53:00Z,32.27,-107.72,14.4,-2.2,,,,10.0,29.970472,1009.4,,TRUE,TRUE,,,,,TRUE,,CLR,,,,,,,,VFR,1.2,18.9,13.9,,,,,,,,,METAR,1311.0
KDKK 210553Z AUTO 19013G26KT 10SM OVC120 M12/M21 A3017 RMK AO2 PK WND 19026/0546 SLP234 T11221211 11122 21261 58027,KDKK,2015-02-21T05:53:00Z,42.5,-79.28,-12.2,-21.1,190,13,26,10.0,30.171259,1023.4,,TRUE,TRUE,,,,,,,OVC,12000,,,,,,,VFR,-2.7,-12.2,-26.1,,,,,,,,,METAR,202.0
KDHT 210553Z AUTO 02009KT 10SM CLR 05/M01 A2989 RMK AO2 PK WND 01027/0455 SLP090 T00501006 10206 20050 402331028 51035,KDHT,2015-02-21T05:53:00Z,36.02,-102.55,5.0,-0.6,20,9,,10.0,29.890747,1009.0,,TRUE,TRUE,,,,,,,CLR,,,,,,,,VFR,3.5,20.6,5.0,23.3,-2.8,,,,,,,METAR,1217.0
KDFW 210553Z 19026G33KT 10SM BKN022 OVC240 19/15 A2968 RMK AO2 PK WND 19034/0512 SLP043 T01890150 10206 20189 402110078 53001,KDFW,2015-02-21T05:53:00Z,32.9,-97.02,18.9,15.0,190,26,33,10.0,29.681103,1004.3,,,TRUE,,,,,,,BKN,2200,OVC,24000,,,,,MVFR,0.1,20.6,18.9,21.1,7.8,,,,,,,METAR,174.0
KDFI 210553Z AUTO 19010KT 10SM OVC022 M08/M16 A3005 RMK AO2 SLP190 T10781161 11078 21100 56023,KDFI,2015-02-21T05:53:00Z,41.33,-84.43,-7.8,-16.1,190,10,,10.0,30.050198,1019.0,,TRUE,TRUE,,,,,,,OVC,2200,,,,,,,MVFR,-2.3,-7.8,-10.0,,,,,,,,,METAR,219.0
KDET 210553Z 19008KT 10SM BKN029 OVC035 M09/M17 A3006 RMK AO2 SLP193 60000 T10941167 11094 21117 56020,KDET,2015-02-21T05:53:00Z,42.4,-83.02,-9.4,-16.7,190,8,,10.0,30.059055,1019.3,,,TRUE,,,,,,,BKN,2900,OVC,3500,,,,,MVFR,-2.0,-9.4,-11.7,,,,,0.0050,,,,METAR,190.0
KDEQ 210553Z AUTO 06004KT 4SM BR SCT005 OVC024 07/06 A2978 RMK AO2 SLP084 T00720061 10072 20033 400720000 58008,KDEQ,2015-02-21T05:53:00Z,34.05,-94.4,7.2,6.1,60,4,,4.0,29.778543,1008.4,,TRUE,TRUE,,,,,,BR,SCT,500,OVC,2400,,,,,MVFR,-0.8,7.2,3.3,7.2,,,,,,,,METAR,106.0
KDBQ 210553Z AUTO 18012KT 9SM OVC042 M05/M08 A2983 RMK AO2 SLP121 T10501083 11044 21061 410441194 58005,KDBQ,2015-02-21T05:53:00Z,42.4,-90.7,-5.0,-8.3,180,12,,9.0,29.828741,1012.1,,TRUE,TRUE,,,,,,,OVC,4200,,,,,,,VFR,-0.5,-4.4,-6.1,-4.4,-19.4,,,,,,,METAR,326.0
KDAN 210553Z AUTO 00000KT 10SM CLR M11/M16 A3045 RMK AO2 SLP315 T11061161 11067 21106 58007,KDAN,2015-02-21T05:53:00Z,36.57,-79.33,-10.6,-16.1,0,0,,10.0,30.448818,1031.5,,TRUE,TRUE,,,,,,,CLR,,,,,,,,VFR,-0.7,-6.7,-10.6,,,,,,,,,METAR,175.0
KDAL 210553Z 19013G25KT 10SM OVC024 20/15 A2970 RMK AO2 PK WND 18028/0532 SLP051 OVC V BKN T02000150 10211 20194 402170083 50001,KDAL,2015-02-21T05:53:00Z,32.85,-96.85,20.0,15.0,190,13,25,10.0,29.698818,1005.1,,,TRUE,,,,,,,OVC,2400,,,,,,,MVFR,0.1,21.1,19.4,21.7,8.3,,,,,,,METAR,158.0
KCRS 210553Z AUTO 19020G28KT 10SM OVC025 20/14 A2977 RMK AO2 PK WND 19034/0524 SLP077 T02000144 10217 20194 402220106 56005,KCRS,2015-02-21T05:53:00Z,32.03,-96.4,20.0,14.4,190,20,28,10.0,29.769686,1007.7,,TRUE,TRUE,,,,,,,OVC,2500,,,,,,,MVFR,-0.5,21.7,19.4,22.2,10.6,,,,,,,METAR,133.0
KCRQ 210553Z AUTO 23003KT 9SM OVC018 16/11 A2997 RMK AO2 SLP147 T01560106 10167 20156 53006 TSNO,KCRQ,2015-02-21T05:53:00Z,33.13,-117.28,15.6,10.6,230,3,,9.0,29.970472,1014.7,,TRUE,TRUE,,,TRUE,,,,OVC,1800,,,,,,,MVFR,0.6,16.7,15.6,,,,,,,,,METAR,99.0
KCNO 210553Z AUTO 00000KT 5SM HZ CLR 13/11 A2999 RMK AO2 SLP152 T01330106 10217 20122 51010,KCNO,2015-02-21T05:53:00Z,33.98,-117.62,13.3,10.6,0,0,,5.0,29.991142,1015.2,,TRUE,TRUE,,,,,,HZ,CLR,,,,,,,,MVFR,1.0,21.7,12.2,,,,,,,,,METAR,207.0
KCNM 210553Z AUTO 27029G38KT 10SM CLR 21/M10 A2976 RMK AO2 PK WND 27038/0545 SLP029 T02061100 10228 20200 50000 $,KCNM,2015-02-21T05:53:00Z,32.33,-104.25,20.6,-10.0,270,29,38,10.0,29.760826,1002.9,,TRUE,TRUE,TRUE,,,,,,CLR,,,,,,,,VFR,0.0,22.8,20.0,,,,,,,,,METAR,985.0
KCMI 210553Z AUTO 15008KT 1/2SM R32R/3000V5000FT SN FZFG VV009 M08/M09 A2994 RMK AO2 SLP152 P0006 60008 T10781094 11072 21078 410611194 56022,KCMI,2015-02-21T05:53:00Z,40.03,-88.27,-7.8,-9.4,150,8,,0.5,29.940945,1015.2,,TRUE,TRUE,,,,,,SN FZFG,OVX,0,,,,,,,LIFR,-2.2,-7.2,-7.8,-6.1,-19.4,0.06,,0.08,,,900,METAR,228.0
KCKB 210553Z AUTO 00000KT 10SM CLR M16/M21 A3017 RMK AO2 UPE0456 SLP238 P0000 60000 T11561206 11128 21161 58029,KCKB,2015-02-21T05:53:00Z,39.3,-80.22,-15.6,-20.6,0,0,,10.0,30.171259,1023.8,,TRUE,TRUE,,,,,,,CLR,,,,,,,,VFR,-2.9,-12.8,-16.1,,,0.0050,,0.0050,,,,METAR,360.0
KCHO 210553Z AUTO 19005KT 10SM CLR M11/M22 A3042 RMK AO2 SLP311 T11111217 11089 21128 55012,KCHO,2015-02-21T05:53:00Z,38.13,-78.45,-11.1,-21.7,190,5,,10.0,30.41929,1031.1,,TRUE,TRUE,,,,,,,CLR,,,,,,,,VFR,-1.2,-8.9,-12.8,,,,,,,,,METAR,192.0
KCDW 210553Z AUTO 00000KT 10SM CLR M16/M23 A3050 RMK AO2 SLP338 T11611228 11100 21161 51008 TSNO,KCDW,2015-02-21T05:53:00Z,40.88,-74.28,-16.1,-22.8,0,0,,10.0,30.499016,1033.8,,TRUE,TRUE,,,TRUE,,,,CLR,,,,,,,,VFR,0.8,-10.0,-16.1,,,,,,,,,METAR,64.0
KHVN 210553Z AUTO 00000KT 10SM CLR M11/M19 A3049 RMK AO2 SLP325 T11111194 11078 21117 53016,KHVN,2015-02-21T05:53:00Z,41.27,-72.87,-11.1,-19.4,0,0,,10.0,30.490158,1032.5,,TRUE,TRUE,,,,,,,CLR,,,,,,,,VFR,1.6,-7.8,-11.7,,,,,,,,,METAR,4.0
KHLG 210553Z AUTO 13005KT 10SM OVC100 M12/M21 A3015 RMK AO2 SLP238 T11221206 11122 21139 56027,KHLG,2015-02-21T05:53:00Z,40.17,-80.65,-12.2,-20.6,130,5,,10.0,30.15059,1023.8,,TRUE,TRUE,,,,,,,OVC,10000,,,,,,,VFR,-2.7,-12.2,-13.9,,,,,,,,,METAR,372.0
KHHR 210553Z AUTO 00000KT 6SM HZ CLR 16/12 A2997 RMK AO2 SLP148 T01610117 10183 20161 51006,KHHR,2015-02-21T05:53:00Z,33.92,-118.33,16.1,11.7,0,0,,6.0,29.970472,1014.8,,TRUE,TRUE,,,,,,HZ,CLR,,,,,,,,VFR,0.6,18.3,16.1,,,,,,,,,METAR,18.0
KHGR 210553Z 15010KT 10SM BKN100 M09/M22 A3037 RMK AO2 SLP308 T10941222 11094 21106 56013,KHGR,2015-02-21T05:53:00Z,39.7,-77.73,-9.4,-22.2,150,10,,10.0,30.369095,1030.8,,,TRUE,,,,,,,BKN,10000,,,,,,,VFR,-1.3,-9.4,-10.6,,,,,,,,,METAR,224.0
KHAO 210553Z AUTO 10004KT 10SM OVC020 M07/M14 A3008 RMK AO2 SLP198 T10671144 11067 21083 58019,KHAO,2015-02-21T05:53:00Z,39.37,-84.52,-6.7,-14.4,100,4,,10.0,30.079725,1019.8,,TRUE,TRUE,,,,,,,OVC,2000,,,,,,,MVFR,-1.9,-6.7,-8.3,,,,,,,,,METAR,188.0
KGUP 210553Z AUTO 22012KT 10SM CLR 06/M06 A2996 RMK AO2 SLP078 T00611061 10144 20061 53013,KGUP,2015-02-21T05:53:00Z,35.52,-108.8,6.1,-6.1,220,12,,10.0,29.958662,1007.8,,TRUE,TRUE,,,,,,,CLR,,,,,,,,VFR,1.3,14.4,6.1,,,,,,,,,METAR,1971.0
KGRR 210553Z AUTO 19008KT 10SM FEW030 OVC065 M09/M15 A2998 RMK AO2 SNE01 SLP168 P0000 60000 T10941150 11094 21111 56015,KGRR,2015-02-21T05:53:00Z,42.88,-85.52,-9.4,-15.0,190,8,,10.0,29.97933,1016.8,,TRUE,TRUE,,,,,,,FEW,3000,OVC,6500,,,,,VFR,-1.5,-9.4,-11.1,,,0.0050,,0.0050,,,,METAR,237.0
KGKY 210553Z AUTO 17018G28KT 10SM BKN023 20/14 A2968 RMK AO2 PK WND 17030/0540 SLP045 T02000144 10217 20194 402220100 55000,KGKY,2015-02-21T05:53:00Z,32.67,-97.1,20.0,14.4,170,18,28,10.0,29.681103,1004.5,,TRUE,TRUE,,,,,,,BKN,2300,,,,,,,MVFR,0.0,21.7,19.4,22.2,10.0,,,,,,,METAR,192.0
KGKJ 210553Z AUTO VRB04KT 10SM SCT070 OVC100 M12/M21 A3011 RMK AO2 SLP228 T11221211 11122 21150 58024 TSNO $,KGKJ,2015-02-21T05:53:00Z,41.63,-80.22,-12.2,-21.1,0,4,,10.0,30.109253,1022.8,,TRUE,TRUE,TRUE,,TRUE,,,,SCT,7000,OVC,10000,,,,,VFR,-2.4,-12.2,-15.0,,,,,,,,,METAR,428.0
KFWN 210553Z AUTO 00000KT 10SM CLR M23/M27 A3043 RMK AO2 SLP317 T12281267 11128 21239 51006 PWINO FZRANO $,KFWN,2015-02-21T05:53:00Z,41.2,-74.63,-22.8,-26.7,0,0,,10.0,30.431103,1031.7,,TRUE,TRUE,TRUE,,,TRUE,TRUE,,CLR,,,,,,,,VFR,0.6,-12.8,-23.9,,,,,,,,,METAR,133.0
KFUL 210553Z 00000KT 9SM CLR 15/11 A2996 RMK AO2 SLP145 T01500111 10194 20150 50005,KFUL,2015-02-21T05:53:00Z,33.87,-117.98,15.0,11.1,0,0,,9.0,29.958662,1014.5,,,TRUE,,,,,,,CLR,,,,,,,,VFR,0.5,19.4,15.0,,,,,,,,,METAR,35.0
KFTW 210553Z 19018G26KT 8SM BKN020 19/15 A2968 RMK AO2 PK WND 19030/0454 SLP044 T01890150 10211 20189 402170100 53001,KFTW,2015-02-21T05:53:00Z,32.83,-97.37,18.9,15.0,190,18,26,8.0,29.681103,1004.4,,,TRUE,,,,,,,BKN,2000,,,,,,,MVFR,0.1,21.1,18.9,21.7,10.0,,,,,,,METAR,214.0
KFST 210553Z AUTO 21011KT 10SM CLR 18/M01 A2983 RMK AO2 SLP058 T01831006 10228 20178 402670111 53004,KFST,2015-02-21T05:53:00Z,30.92,-102.92,18.3,-0.6,210,11,,10.0,29.828741,1005.8,,TRUE,TRUE,,,,,,,CLR,,,,,,,,VFR,0.4,22.8,17.8,26.7,11.1,,,,,,,METAR,918.0
KP92 210553Z AUTO 15007KT 14/12 A3005 RMK AO1 SLP175 60001 T01440122 10161 20139 401670061 56006,KP92,2015-02-21T05:53:00Z,29.57,-91.53,14.4,12.2,150,7,,,30.050198,1017.5,,TRUE,TRUE,,,,,,,,,,,,,,,,-0.6,16.1,13.9,16.7,6.1,,,0.01,,,,METAR,1.0
PANN 210553Z AUTO 07014G21KT 10SM CLR M01/M08 A3006 RMK AO2 SLPNO T10061078 10000 21011 58012 TSNO,PANN,2015-02-21T05:53:00Z,64.55,-149.08,-0.6,-7.8,70,14,21,10.0,30.059055,,,TRUE,TRUE,,,TRUE,,,,CLR,,,,,,,,VFR,-1.2,0.0,-1.1,,,,,,,,,METAR,110.0
PANC 210553Z 35004KT 10SM FEW035 BKN100 OVC200 02/M05 A3008 RMK AO2 SLP189 4/004 T00171050 10017 20000 56020,PANC,2015-02-21T05:53:00Z,61.17,-150.02,1.7,-5.0,350,4,,10.0,30.079725,1018.9,,,TRUE,,,,,,,FEW,3500,BKN,10000,OVC,20000,,,VFR,-2.0,1.7,0.0,,,,,,,4.0,,METAR,38.0
PAMR 210553Z 00000KT 7SM OVC100 M01/M04 A3008 RMK AO2 SLP189 T10111044 10006 21011 56021 $,PAMR,2015-02-21T05:53:00Z,61.22,-149.85,-1.1,-4.4,0,0,,7.0,30.079725,1018.9,,,TRUE,TRUE,,,,,,OVC,10000,,,,,,,VFR,-2.1,0.6,-1.1,,,,,,,,,METAR,41.0
PAMC 210553Z AUTO 36004KT 10SM FEW100 OVC120 02/M08 A2987 RMK AO2 SLP121 T00221078 10044 20022 58024 TSNO,PAMC,2015-02-21T05:53:00Z,62.97,-155.62,2.2,-7.8,360,4,,10.0,29.870079,1012.1,,TRUE,TRUE,,,TRUE,,,,FEW,10000,OVC,12000,,,,,VFR,-2.4,4.4,2.2,,,,,,,,,METAR,103.0
PALH 210553Z 00000KT 10SM OVC100 01/M05 A3010 RMK AO2 SLP192 T00061050 10006 21011 56020,PALH,2015-02-21T05:53:00Z,61.18,-149.97,0.6,-5.0,0,0,,10.0,30.100393,1019.2,,,TRUE,,,,,,,OVC,10000,,,,,,,VFR,-2.0,0.6,-1.1,,,,,,,,,METAR,22.0
PAKW 210553Z AUTO 00000KT 10SM CLR 00/M01 A3040 RMK AO2 SLP294 T00001006 10072 21006 53006 TSNO,PAKW,2015-02-21T05:53:00Z,55.58,-133.07,0.0,-0.6,0,0,,10.0,30.398623,1029.4,,TRUE,TRUE,,,TRUE,,,,CLR,,,,,,,,VFR,0.6,7.2,-0.6,,,,,,,,,METAR,15.0
PAKV 210553Z AUTO 03011KT 10SM CLR M01/M04 A2998 RMK AO1 SLP157 60005 T10061039 10006 21039 58017 FZRANO TSNO,PAKV,2015-02-21T05:53:00Z,64.33,-158.75,-0.6,-3.9,30,11,,10.0,29.97933,1015.7,,TRUE,TRUE,,,TRUE,TRUE,,,CLR,,,,,,,,VFR,-1.7,0.6,-3.9,,,,,0.05,,,,METAR,61.0
KMIC 210553Z AUTO 00000KT 7SM OVC018 M04/M07 A2982 RMK AO2 SLP113 60000 T10441072 11039 21061 410391133 52006 TSNO,KMIC,2015-02-21T05:53:00Z,45.07,-93.35,-4.4,-7.2,0,0,,7.0,29.819881,1011.3,,TRUE,TRUE,,,TRUE,,,,OVC,1800,,,,,,,MVFR,0.6,-3.9,-6.1,-3.9,-13.3,,,,,,,SPECI,265.0
KGLR 210553Z AUTO 19013KT 3SM -SN BR BKN024 OVC034 M14/M16 A2986 RMK AO2 SLP141 P0000 60000 T11391161 11139 21150 56017,KGLR,2015-02-21T05:53:00Z,45.02,-84.68,-13.9,-16.1,190,13,,3.0,29.861221,1014.1,,TRUE,TRUE,,,,,,-SN BR,BKN,2400,OVC,3400,,,,,MVFR,-1.7,-13.9,-15.0,,,0.0050,,0.0050,,,,METAR,407.0
KGFL 210553Z AUTO 00000KT 10SM CLR M22/M24 A3043 RMK AO2 SLP321 T12171239 11111 21217 53014,KGFL,2015-02-21T05:53:00Z,43.33,-73.62,-21.7,-23.9,0,0,,10.0,30.431103,1032.1,,TRUE,TRUE,,,,,,,CLR,,,,,,,,VFR,1.4,-11.1,-21.7,,,,,,,,,METAR,103.0
KCNY 210553Z AUTO 29011KT 10SM CLR 03/M11 A2993 RMK AO2 SLP127 T00331111 10133 20011 53011,KCNY,2015-02-21T05:53:00Z,38.77,-109.75,3.3,-11.1,290,11,,10.0,29.929134,1012.7,,TRUE,TRUE,,,,,,,CLR,,,,,,,,VFR,1.1,13.3,1.1,,,,,,,,,METAR,1390.0
KBAF 210553Z AUTO 00000KT 10SM CLR M22/M25 A3046 RMK AO2 SLP327 T12171250 11106 21222 53016,KBAF,2015-02-21T05:53:00Z,42.17,-72.72,-21.7,-25.0,0,0,,10.0,30.46063,1032.7,,TRUE,TRUE,,,,,,,CLR,,,,,,,,VFR,1.6,-10.6,-22.2,,,,,,,,,METAR,83.0
PTKR 210553Z 06010KT 15SM SCT018 SCT120 OVC300 31/24 A2983 RMK SLP101 60002 8/278 T03060237 10306 20267 57012,PTKR,2015-02-21T05:53:00Z,7.33,134.48,30.6,23.7,60,10,,15.0,29.828741,1010.1,,,,,,,,,,SCT,1800,SCT,12000,OVC,30000,,,VFR,-1.2,30.6,26.7,,,,,0.02,,,,METAR,30.0
KMDW 210553Z 20011KT 10SM OVC019 M07/M13 A2997 RMK AO2 SLP167 4/003 T10721133 11067 21072 410671183 56012 $,KMDW,2015-02-21T05:53:00Z,41.78,-87.75,-7.2,-13.3,200,11,,10.0,29.970472,1016.7,,,TRUE,TRUE,,,,,,OVC,1900,,,,,,,MVFR,-1.2,-6.7,-7.2,-6.7,-18.3,,,,,3.0,,METAR,188.0
KMBS 210553Z 19008KT 9SM OVC060 M10/M16 A3000 RMK AO2 SNB00E15B37E48 SLP173 P0000 60000 T11001156 11100 21117 58021,KMBS,2015-02-21T05:53:00Z,43.53,-84.08,-10.0,-15.6,190,8,,9.0,30.0,1017.3,,,TRUE,,,,,,,OVC,6000,,,,,,,VFR,-2.1,-10.0,-11.7,,,0.0050,,0.0050,,,,METAR,202.0
KMAF 210553Z AUTO 26006KT 10SM CLR 16/M03 A2977 RMK AO2 SLP044 T01561033 10228 20156 402610072 53006 TSNO,KMAF,2015-02-21T05:53:00Z,31.95,-102.2,15.6,-3.3,260,6,,10.0,29.769686,1004.4,,TRUE,TRUE,,,TRUE,,,,CLR,,,,,,,,VFR,0.6,22.8,15.6,26.1,7.2,,,,,,,METAR,874.0
KFRG 210553Z AUTO 00000KT 10SM CLR M14/M20 A3050 RMK AO2 SLP331 T11391200 11083 21139 51013,KFRG,2015-02-21T05:53:00Z,40.73,-73.42,-13.9,-20.0,0,0,,10.0,30.499016,1033.1,,TRUE,TRUE,,,,,,,CLR,,,,,,,,VFR,1.3,-8.3,-13.9,,,,,,,,,METAR,21.0
KFOK 210553Z 00000KT 10SM CLR M23/M27 A3052 RMK AO2 SLP337 T12331272 11106 21233 51019,KFOK,2015-02-21T05:53:00Z,40.85,-72.62,-23.3,-27.2,0,0,,10.0,30.519686,1033.7,,,TRUE,,,,,,,CLR,,,,,,,,VFR,1.9,-10.6,-23.3,,,,,,,,,METAR,33.0
KPNC 210553Z AUTO 02011KT 1 3/4SM BR OVC003 03/03 A2981 RMK AO2 SLP097 60001 T00330028 10061 20033 400941033 51013,KPNC,2015-02-21T05:53:00Z,36.73,-97.1,3.3,2.8,20,11,,1.75,29.811024,1009.7,,TRUE,TRUE,,,,,,BR,OVC,300,,,,,,,LIFR,1.3,6.1,3.3,9.4,-3.3,,,,,,,SPECI,308.0
PAQT 210553Z AUTO 04011KT 9SM UP OVC017 M14/M17 A3029 RMK AO2 UPE18B42 SLP260 P0000 60000 T11441167 11139 21167 50005 TSNO,PAQT,2015-02-21T05:53:00Z,70.22,-151.0,-14.4,-16.7,40,11,,9.0,30.28937,1026.0,,TRUE,TRUE,,,TRUE,,,UP,OVC,1700,,,,,,,MVFR,0.5,-13.9,-16.7,,,0.0050,,0.0050,,,,METAR,12.0
PAOT 210553Z 09011KT 10SM BKN100 M02/M04 A3000 RMK AO2 SLP159 60000 T10221044 11022 21078 58010,PAOT,2015-02-21T05:53:00Z,66.87,-162.58,-2.2,-4.4,90,11,,10.0,30.0,1015.9,,,TRUE,,,,,,,BKN,10000,,,,,,,VFR,-1.0,-2.2,-7.8,,,,,0.0050,,,,METAR,3.0
PAOR 210553Z 14007KT 10SM SCT150 SCT190 BKN230 M08/M11 A3023 RMK AO2 SLP284 4/010 T10781106 11050 21078 58007,PAOR,2015-02-21T05:53:00Z,62.97,-141.93,-7.8,-10.6,140,7,,10.0,30.230314,1028.4,,,TRUE,,,,,,,SCT,15000,SCT,19000,BKN,23000,,,VFR,-0.7,-5.0,-7.8,,,,,,,10.0,,METAR,523.0
PAOM 210553Z 07010KT 10SM SCT080 OVC130 01/00 A2986 RMK AO2 SLP110 4/014 60001 T00110000 10011 20000 58009,PAOM,2015-02-21T05:53:00Z,64.5,-165.43,1.1,0.0,70,10,,10.0,29.861221,1011.0,,,TRUE,,,,,,,SCT,8000,OVC,13000,,,,,VFR,-0.9,1.1,0.0,,,,,0.01,,14.0,,METAR,11.0
PANT 210553Z AUTO 33005KT 10SM CLR 02/01 A3041 RMK AO2 SLP299 T00220011 10072 20006 53005 TSNO,PANT,2015-02-21T05:53:00Z,55.03,-131.57,2.2,1.1,330,5,,10.0,30.410433,1029.9,,TRUE,TRUE,,,TRUE,,,,CLR,,,,,,,,VFR,0.5,7.2,0.6,,,,,,,,,METAR,36.0
KRSL 210553Z AUTO 35005KT 10SM OVC070 01/M03 A2988 RMK AO2 UPB00E28RAB09E19 SLP130 P0000 60000 T00111033 10050 20006 400671078 50009,KRSL,2015-02-21T05:53:00Z,38.87,-98.82,1.1,-3.3,350,5,,10.0,29.878937,1013.0,,TRUE,TRUE,,,,,,,OVC,7000,,,,,,,VFR,0.9,5.0,0.6,6.7,-7.8,0.0050,,,,,,SPECI,567.0
KCQC 210553Z AUTO 27010KT 10SM CLR 06/M10 A2990 RMK AO2 SLP074 T00561100 10133 20050 53016,KCQC,2015-02-21T05:53:00Z,35.0,-105.67,5.6,-10.0,270,10,,10.0,29.899607,1007.4,,TRUE,TRUE,,,,,,,CLR,,,,,,,,VFR,1.6,13.3,5.0,,,,,,,,,METAR,2160.0
PATO 210553Z AUTO 09020G41KT 10SM OVC027 06/02 A3015 RMK AO2 PK WND 08041/0544 SLP210 60006 T00560017 10056 20050 56011 TSNO,PATO,2015-02-21T05:53:00Z,60.78,-148.85,5.6,1.7,90,20,41,10.0,30.15059,1021.0,,TRUE,TRUE,,,TRUE,,,,OVC,2700,,,,,,,MVFR,-1.1,5.6,5.0,,,,,0.06,,,,METAR,31.0
PATK 210553Z AUTO 01007KT 10SM OVC100 03/M06 A3011 RMK AO2 SLP202 T00281061 10044 20022 58023 TSNO,PATK,2015-02-21T05:53:00Z,62.3,-150.1,2.8,-6.1,10,7,,10.0,30.109253,1020.2,,TRUE,TRUE,,,TRUE,,,,OVC,10000,,,,,,,VFR,-2.3,4.4,2.2,,,,,,,,,METAR,109.0
PASO 210553Z AUTO 02007KT 360V060 6SM -RA BR FEW027 OVC032 06/04 A2984 RMK AO2 SLP104 P0014 60033 T00560039 10078 20050 56017 TSNO,PASO,2015-02-21T05:53:00Z,59.45,-151.7,5.6,3.9,20,7,,6.0,29.840551,1010.4,,TRUE,TRUE,,,TRUE,,,-RA BR,FEW,2700,OVC,3200,,,,,VFR,-1.7,7.8,5.0,,,0.14,,0.33,,,,METAR,9.0
PASI 210553Z 00000KT 10SM SCT250 02/01 A3036 RMK AO2 SLP280 T00220011 10067 20017 58002,PASI,2015-02-21T05:53:00Z,57.07,-135.35,2.2,1.1,0,0,,10.0,30.360237,1028.0,,,TRUE,,,,,,,SCT,25000,,,,,,,VFR,-0.2,6.7,1.7,,,,,,,,,METAR,5.0
PASC 210553Z 04013KT 10SM OVC012 M13/M16 A3028 RMK AO2 SLP254 T11331161 11128 21139 53009,PASC,2015-02-21T05:53:00Z,70.2,-148.47,-13.3,-16.1,40,13,,10.0,30.280512,1025.4,,,TRUE,,,,,,,OVC,1200,,,,,,,MVFR,0.9,-12.8,-13.9,,,,,,,,,METAR,15.0
KHEY 210553Z AUTO 12003KT 10SM CLR 02/M08 A3030 RMK AO2 SLP255 T00171083 10061 20017 400941061 58008,KHEY,2015-02-21T05:53:00Z,31.35,-85.65,1.7,-8.3,120,3,,10.0,30.301182,1025.5,,TRUE,TRUE,,,,,,,CLR,,,,,,,,VFR,-0.8,6.1,1.7,9.4,-6.1,,,,,,,METAR,97.0
KMWT 210553Z AUTO VRB03KT 4SM BR OVC004 02/01 A2977 RMK AO2 RAE35 SLP092 P0002 60024 T00220011 10022 20011 400221022 58023,KMWT,2015-02-21T05:53:00Z,34.55,-93.58,2.2,1.1,0,3,,4.0,29.769686,1009.2,,TRUE,TRUE,,,,,,BR,OVC,400,,,,,,,LIFR,-2.3,2.2,1.1,2.2,-2.2,0.02,,0.24,,,,METAR,214.0
KTCS 210553Z AUTO 28006KT 10SM CLR 14/M08 A2992 RMK AO2 SLP077 T01391078 10217 20133 51011 TSNO,KTCS,2015-02-21T05:53:00Z,33.23,-107.27,13.9,-7.8,280,6,,10.0,29.920275,1007.7,,TRUE,TRUE,,,TRUE,,,,CLR,,,,,,,,VFR,1.1,21.7,13.3,,,,,,,,,METAR,1469.0
K6R6 210553Z AUTO 00000KT 18/11 A2978 RMK AO1 SLP062 T01780106 10283 20172 403060078,K6R6,2015-02-21T05:53:00Z,30.05,-102.22,17.8,10.6,0,0,,,29.778543,1006.2,,TRUE,TRUE,,,,,,,,,,,,,,,,,28.3,17.2,30.6,7.8,,,,,,,METAR,701.0
KCEZ 210553Z AUTO 06004KT 10SM CLR M02/M12 A2993 RMK AO2 SLP111 T10171117 10122 21028 51008,KCEZ,2015-02-21T05:53:00Z,37.3,-108.63,-1.7,-11.7,60,4,,10.0,29.929134,1011.1,,TRUE,TRUE,,,,,,,CLR,,,,,,,,VFR,0.8,12.2,-2.8,,,,,,,,,METAR,1797.0
KCEW 210553Z AUTO 11005KT 10SM CLR 05/M03 A3030 RMK AO2 SLP260 T00501028 10078 20044 401221072 58005,KCEW,2015-02-21T05:53:00Z,30.78,-86.52,5.0,-2.8,110,5,,10.0,30.301182,1026.0,,TRUE,TRUE,,,,,,,CLR,,,,,,,,VFR,-0.5,7.8,4.4,12.2,-7.2,,,,,,,METAR,55.0
KCDR 210553Z AUTO 00000KT 10SM FEW022 SCT041 OVC110 00/M01 A2994 RMK AO2 SLP171 60007 T00001011 10033 20000 51012,KCDR,2015-02-21T05:53:00Z,42.83,-103.1,0.0,-1.1,0,0,,10.0,29.940945,1017.1,,TRUE,TRUE,,,,,,,FEW,2200,SCT,4100,OVC,11000,,,VFR,1.2,3.3,0.0,,,,,0.07,,,,METAR,1010.0
KCDC 210553Z AUTO 00000KT 10SM CLR M01/M09 A3000 RMK AO2 SLP138 T10111094 10144 21017 51011,KCDC,2015-02-21T05:53:00Z,37.7,-113.1,-1.1,-9.4,0,0,,10.0,30.0,1013.8,,TRUE,TRUE,,,,,,,CLR,,,,,,,,VFR,1.1,14.4,-1.7,,,,,,,,,METAR,1714.0
KCCR 210553Z 15005KT 10SM CLR 12/08 A2997 RMK AO2 SLP136 T01220083 10217 20122 51007,KCCR,2015-02-21T05:53:00Z,38.0,-122.05,12.2,8.3,150,5,,10.0,29.970472,1013.6,,,TRUE,,,,,,,CLR,,,,,,,,VFR,0.7,21.7,12.2,,,,,,,,,METAR,11.0
KCAG 210553Z AUTO 00000KT 10SM OVC025 M01/M03 A2995 RMK AO2 SLP158 60000 T10111028 10006 21017 50003,KCAG,2015-02-21T05:53:00Z,40.5,-107.52,-1.1,-2.8,0,0,,10.0,29.949802,1015.8,,TRUE,TRUE,,,,,,,OVC,2500,,,,,,,MVFR,0.3,0.6,-1.7,,,,,0.0050,,,,METAR,1887.0
KBYI 210553Z AUTO 26013G22KT 10SM CLR 03/M03 A2999 RMK AO2 SLP156 T00281033 10072 20022 58000,KBYI,2015-02-21T05:53:00Z,42.55,-113.77,2.8,-3.3,260,13,22,10.0,29.991142,1015.6,,TRUE,TRUE,,,,,,,CLR,,,,,,,,VFR,0.0,7.2,2.2,,,,,,,,,METAR,1264.0
KBYG 210553Z AUTO 34011G19KT 4SM -SN BR SCT005 BKN050 OVC065 M02/M03 A2994 RMK AO2 SNB41 SLP163 P0000 60001 T10171028 11006 21033 50004 $,KBYG,2015-02-21T05:53:00Z,44.38,-106.72,-1.7,-2.8,340,11,19,4.0,29.940945,1016.3,,TRUE,TRUE,TRUE,,,,,-SN BR,SCT,500,BKN,5000,OVC,6500,,,MVFR,0.4,-0.6,-3.3,,,0.0050,,0.01,,,,METAR,1497.0
KBVY 210553Z AUTO 27007KT 10SM CLR M13/M22 A3042 RMK AO2 SLP301 T11331217 11094 21139 51016,KBVY,2015-02-21T05:53:00Z,42.58,-70.92,-13.3,-21.7,270,7,,10.0,30.41929,1030.1,,TRUE,TRUE,,,,,,,CLR,,,,,,,,VFR,1.6,-9.4,-13.9,,,,,,,,,METAR,28.0
KBTR 210553Z 13007KT 10SM FEW031 BKN042 OVC055 15/12 A3006 RMK AO2 RAE22 SLP178 P0000 60000 T01500122 10156 20122 401890011 56005,KBTR,2015-02-21T05:53:00Z,30.53,-91.15,15.0,12.2,130,7,,10.0,30.059055,1017.8,,,TRUE,,,,,,,FEW,3100,BKN,4200,OVC,5500,,,VFR,-0.5,15.6,12.2,18.9,1.1,0.0050,,0.0050,,,,METAR,21.0
KBRO 210553Z 17016KT 7SM OVC024 20/18 A2991 RMK AO2 SLP128 T02000178 10217 20189 402500172 58002 $,KBRO,2015-02-21T05:53:00Z,25.92,-97.42,20.0,17.8,170,16,,7.0,29.911417,1012.8,,,TRUE,TRUE,,,,,,OVC,2400,,,,,,,MVFR,-0.2,21.7,18.9,25.0,17.2,,,,,,,METAR,7.0
KBRD 210553Z AUTO 34008KT 8SM FEW100 M11/M14 A2985 RMK AO2 SLP133 T11061139 11044 21106 410441144 51019,KBRD,2015-02-21T05:53:00Z,46.4,-94.13,-10.6,-13.9,340,8,,8.0,29.84941,1013.3,,TRUE,TRUE,,,,,,,FEW,10000,,,,,,,VFR,1.9,-4.4,-10.6,-4.4,-14.4,,,,,,,METAR,372.0
KBPT 210553Z AUTO 17018G24KT 10SM OVC070 19/16 A2996 RMK AO2 PK WND 17028/0525 SLP143 T01890156 10189 20178 402110111 58002,KBPT,2015-02-21T05:53:00Z,29.95,-94.03,18.9,15.6,170,18,24,10.0,29.958662,1014.3,,TRUE,TRUE,,,,,,,OVC,7000,,,,,,,VFR,-0.2,18.9,17.8,21.1,11.1,,,,,,,METAR,5.0
KBPK 210553Z AUTO 09005KT 8SM OVC005 M01/M02 A2983 RMK AO2 FZRAE46 CIG 004V009 SLP108 6//// T10111017 11011 21033 410111072 56013 $,KBPK,2015-02-21T05:53:00Z,36.37,-92.47,-1.1,-1.7,90,5,,8.0,29.828741,1010.8,,TRUE,TRUE,TRUE,,,,,,OVC,500,,,,,,,IFR,-1.3,-1.1,-3.3,-1.1,-7.2,,,,,,,METAR,280.0
KBPI 210553Z AUTO 36007KT 10SM CLR M06/M10 A2995 RMK AO2 SLP146 T10611100 10017 21067 50001,KBPI,2015-02-21T05:53:00Z,42.58,-110.1,-6.1,-10.0,360,7,,10.0,29.949802,1014.6,,TRUE,TRUE,,,,,,,CLR,,,,,,,,VFR,0.1,1.7,-6.7,,,,,,,,,METAR,2117.0
KBOI 210553Z 30004KT 10SM OVC085 04/01 A3007 RMK AO2 SLP188 T00440006 10111 20044 51002,KBOI,2015-02-21T05:53:00Z,43.57,-116.23,4.4,0.6,300,4,,10.0,30.070866,1018.8,,,TRUE,,,,,,,OVC,8500,,,,,,,VFR,0.2,11.1,4.4,,,,,,,,,METAR,875.0
KBNO 210553Z AUTO 28004KT 10SM CLR 00/M03 A3010 RMK AO2 SLP204 T00001033 10089 20000 58001,KBNO,2015-02-21T05:53:00Z,43.6,-118.95,0.0,-3.3,280,4,,10.0,30.100393,1020.4,,TRUE,TRUE,,,,,,,CLR,,,,,,,,VFR,-0.1,8.9,0.0,,,,,,,,,METAR,1264.0
KBNA 210553Z 16014G21KT 9SM -FZRA OVC028 M01/M02 A3008 RMK AO2 SLP191 P0001 60026 T10061022 11006 21039 410061122 58025,KBNA,2015-02-21T05:53:00Z,36.12,-86.68,-0.6,-2.2,160,14,21,9.0,30.079725,1019.1,,,TRUE,,,,,,-FZRA,OVC,2800,,,,,,,MVFR,-2.5,-0.6,-3.9,-0.6,-12.2,0.01,,0.26,,,,METAR,210.0
KBMQ 210553Z AUTO A2982 RMK AO2 SLPNO 51003 PWINO FZRANO,KBMQ,2015-02-21T05:53:00Z,30.73,-98.23,,,,,,,29.819881,,,TRUE,TRUE,,,,TRUE,TRUE,,,,,,,,,,,0.3,,,,,,,,,,,METAR,389.0
KBLI 210553Z 00000KT 9SM CLR 04/02 A3027 RMK AO2 SLP259 T00390022 10100 20039 53005,KBLI,2015-02-21T05:53:00Z,48.8,-122.53,3.9,2.2,0,0,,9.0,30.268702,1025.9,,,TRUE,,,,,,,CLR,,,,,,,,VFR,0.5,10.0,3.9,,,,,,,,,METAR,50.0
KBKV 210553Z AUTO 08005KT 10SM CLR 04/00 A3040 RMK AO2 SLP294 T00390000 10094 20039 58005,KBKV,2015-02-21T05:53:00Z,28.47,-82.45,3.9,0.0,80,5,,10.0,30.398623,1029.4,,TRUE,TRUE,,,,,,,CLR,,,,,,,,VFR,-0.5,9.4,3.9,,,,,,,,,METAR,20.0
KBKE 210553Z AUTO 28011KT 10SM BKN055 OVC070 02/01 A3011 RMK AO2 RAB0458E37 SLP212 P0000 60000 T00220006 10072 20006 50003 TSNO,KBKE,2015-02-21T05:53:00Z,44.85,-117.82,2.2,0.6,280,11,,10.0,30.109253,1021.2,,TRUE,TRUE,,,TRUE,,,,BKN,5500,OVC,7000,,,,,VFR,0.3,7.2,0.6,,,0.0050,,0.0050,,,,METAR,1024.0
KBIL 210553Z 05008KT 8SM -SN FEW025 OVC034 01/M03 A3001 RMK AO2 SNB09 SLP181 P0000 60000 T00061028 10044 20006 51011,KBIL,2015-02-21T05:53:00Z,45.8,-108.55,0.6,-2.8,50,8,,8.0,30.008858,1018.1,,,TRUE,,,,,,-SN,FEW,2500,OVC,3400,,,,,VFR,1.1,4.4,0.6,,,0.0050,,0.0050,,,,METAR,1091.0
KBHM 210553Z 16012G20KT 10SM OVC024 03/M13 A3021 RMK AO2 SLP235 T00331133 10033 20000 400331067 58012,KBHM,2015-02-21T05:53:00Z,33.57,-86.75,3.3,-13.3,160,12,20,10.0,30.209646,1023.5,,,TRUE,,,,,,,OVC,2400,,,,,,,MVFR,-1.2,3.3,0.0,3.3,-6.7,,,,,,,METAR,197.0
KBGR 210553Z 25005KT 10SM CLR M17/M24 A3032 RMK AO2 SLP275 4/047 60000 T11721239 11117 21189 51042,KBGR,2015-02-21T05:53:00Z,44.8,-68.82,-17.2,-23.9,250,5,,10.0,30.318897,1027.5,,,TRUE,,,,,,,CLR,,,,,,,,VFR,4.2,-11.7,-18.9,,,,,0.0050,,47.0,,METAR,57.0
KBFM 210553Z AUTO 15012G20KT 10SM CLR 13/09 A3021 RMK AO2 SLP228 T01280094 10128 20117 401390006 58013,KBFM,2015-02-21T05:53:00Z,30.62,-88.07,12.8,9.4,150,12,20,10.0,30.209646,1022.8,,TRUE,TRUE,,,,,,,CLR,,,,,,,,VFR,-1.3,12.8,11.7,13.9,0.6,,,,,,,METAR,20.0
KBFI 210553Z AUTO VRB05KT 10SM SCT032 SCT041 BKN048 11/06 A3026 RMK AO2 SLP248 60001 T01060056 10122 20106 53001 TSNO,KBFI,2015-02-21T05:53:00Z,47.55,-122.32,10.6,5.6,0,5,,10.0,30.259842,1024.8,,TRUE,TRUE,,,TRUE,,,,SCT,3200,SCT,4100,BKN,4800,,,VFR,0.1,12.2,10.6,,,,,0.01,,,,METAR,4.0
KBFF 210553Z AUTO 31006KT 10SM SCT090 M02/M03 A2995 RMK AO2 SLP152 T10171033 10044 21017 50010,KBFF,2015-02-21T05:53:00Z,41.87,-103.58,-1.7,-3.3,310,6,,10.0,29.949802,1015.2,,TRUE,TRUE,,,,,,,SCT,9000,,,,,,,VFR,1.0,4.4,-1.7,,,,,,,,,METAR,1203.0
KBDE 210553Z AUTO 33008KT 9SM BKN030 M16/M18 A2988 RMK AO2 SLP146 60000 T11561183 11094 21156 410721161 51019 TSNO,KBDE,2015-02-21T05:53:00Z,48.73,-94.62,-15.6,-18.3,330,8,,9.0,29.878937,1014.6,,TRUE,TRUE,,,TRUE,,,,BKN,3000,,,,,,,MVFR,1.9,-9.4,-15.6,-7.2,-16.1,,,0.0050,,,,METAR,329.0
KBCE 210553Z AUTO 32005KT 10SM CLR M03/M09 A3000 RMK AO2 SLP107 T10281094 10083 21033 51006,KBCE,2015-02-21T05:53:00Z,37.7,-112.15,-2.8,-9.4,320,5,,10.0,30.0,1010.7,,TRUE,TRUE,,,,,,,CLR,,,,,,,,VFR,0.6,8.3,-3.3,,,,,,,,,METAR,2312.0
KBBW 210553Z AUTO 31013KT 10SM -RA SCT055 OVC090 04/01 A2989 RMK AO2 RAE11B46 SLP126 P0000 60000 T00390011 10061 20033 401171056 51016,KBBW,2015-02-21T05:53:00Z,41.43,-99.63,3.9,1.1,310,13,,10.0,29.890747,1012.6,,TRUE,TRUE,,,,,,-RA,SCT,5500,OVC,9000,,,,,VFR,1.6,6.1,3.3,11.7,-5.6,0.0050,,0.0050,,,,METAR,776.0
KAXN 210553Z AUTO 34010KT 10SM BKN085 OVC120 M12/M14 A2986 RMK AO2 SLP141 T11171139 11039 21117 410281122 51011,KAXN,2015-02-21T05:53:00Z,45.87,-95.4,-11.7,-13.9,340,10,,10.0,29.861221,1014.1,,TRUE,TRUE,,,,,,,BKN,8500,OVC,12000,,,,,VFR,1.1,-3.9,-11.7,-2.8,-12.2,,,,,,,METAR,433.0
KIML 210553Z AUTO 26003KT 10SM 02/M01 A2993 RMK AO2 RAE19 SLP146 P0001 60001 T00171006 10078 20017 50011 $,KIML,2015-02-21T05:53:00Z,40.52,-101.62,1.7,-0.6,260,3,,10.0,29.929134,1014.6,,TRUE,TRUE,TRUE,,,,,,,,,,,,,,,1.1,7.8,1.7,,,0.01,,0.01,,,,METAR,998.0
KIDA 210553Z AUTO 23009KT 10SM OVC070 00/M02 A2999 RMK AO2 SLP169 T00001017 10067 20000 51003,KIDA,2015-02-21T05:53:00Z,43.52,-112.07,0.0,-1.7,230,9,,10.0,29.991142,1016.9,,TRUE,TRUE,,,,,,,OVC,7000,,,,,,,VFR,0.3,6.7,0.0,,,,,,,,,METAR,1453.0
KICT 210553Z 01010KT 6SM BR OVC006 02/02 A2985 RMK AO2 SLP115 60004 T00220022 10050 20022 400721050 50015 $,KICT,2015-02-21T05:53:00Z,37.65,-97.43,2.2,2.2,10,10,,6.0,29.84941,1011.5,,,TRUE,TRUE,,,,,BR,OVC,600,,,,,,,IFR,1.5,5.0,2.2,7.2,-5.0,,,0.04,,,,METAR,407.0
KHYR 210553Z AUTO 00000KT 3SM -SN BR BKN017 OVC026 M09/M11 A2980 RMK AO2 SNB12 SLP116 P0000 60000 T10941111 11094 21094 410941222 53001,KHYR,2015-02-21T05:53:00Z,46.02,-91.45,-9.4,-11.1,0,0,,3.0,29.799213,1011.6,,TRUE,TRUE,,,,,,-SN BR,BKN,1700,OVC,2600,,,,,MVFR,0.1,-9.4,-9.4,-9.4,-22.2,0.0050,,0.0050,,,,METAR,370.0
KHWO 210553Z AUTO 07009KT 10SM OVC060 16/07 A3032 RMK AO2 SLP268 60000 T01610072 10167 20139 58006,KHWO,2015-02-21T05:53:00Z,26.0,-80.23,16.1,7.2,70,9,,10.0,30.318897,1026.8,,TRUE,TRUE,,,,,,,OVC,6000,,,,,,,VFR,-0.6,16.7,13.9,,,,,0.0050,,,,METAR,2.0
KHVR 210553Z AUTO 34013G22KT 10SM CLR M06/M11 A3019 RMK AO2 SLP252 T10561111 10022 21056 53033,KHVR,2015-02-21T05:53:00Z,48.55,-109.77,-5.6,-11.1,340,13,22,10.0,30.188976,1025.2,,TRUE,TRUE,,,,,,,CLR,,,,,,,,VFR,3.3,2.2,-5.6,,,,,,,,,METAR,787.0
KHTL 210553Z AUTO 19009KT 10SM FEW026 SCT042 OVC090 M13/M16 A2992 RMK AO2 SNE24 SLP158 P0000 60002 T11331161 11128 21144 58009,KHTL,2015-02-21T05:53:00Z,44.35,-84.67,-13.3,-16.1,190,9,,10.0,29.920275,1015.8,,TRUE,TRUE,,,,,,,FEW,2600,SCT,4200,OVC,9000,,,VFR,-0.9,-12.8,-14.4,,,0.0050,,0.02,,,,METAR,351.0
KHSI 210553Z AUTO 26004KT 10SM BKN070 OVC120 02/M02 A2987 RMK AO2 SLP128 T00171022 10061 20006 400891083 53017,KHSI,2015-02-21T05:53:00Z,40.6,-98.43,1.7,-2.2,260,4,,10.0,29.870079,1012.8,,TRUE,TRUE,,,,,,,BKN,7000,OVC,12000,,,,,VFR,1.7,6.1,0.6,8.9,-8.3,,,,,,,METAR,591.0
KHRI 210553Z AUTO 25007KT 10SM CLR 06/02 A3013 RMK AO2 SLP205 T00610022 10139 20061 52004,KHRI,2015-02-21T05:53:00Z,45.83,-119.27,6.1,2.2,250,7,,10.0,30.129921,1020.5,,TRUE,TRUE,,,,,,,CLR,,,,,,,,VFR,0.4,13.9,6.1,,,,,,,,,METAR,195.0
KHQM 210553Z AUTO 00000KT 8SM BKN031 07/06 A3027 RMK AO2 SLP253 T00670056 10100 20067 51000,KHQM,2015-02-21T05:53:00Z,46.97,-123.93,6.7,5.6,0,0,,8.0,30.268702,1025.3,,TRUE,TRUE,,,,,,,BKN,3100,,,,,,,VFR,0.0,10.0,6.7,,,,,,,,,METAR,7.0
KHOU 210553Z 19010KT 10SM -RA SCT017 BKN023 OVC035 19/17 A2993 RMK AO2 RAB43 SLP138 P0000 60000 T01890167 10200 20189 402110139 56000,KHOU,2015-02-21T05:53:00Z,29.63,-95.28,18.9,16.7,190,10,,10.0,29.929134,1013.8,,,TRUE,,,,,,-RA,SCT,1700,BKN,2300,OVC,3500,,,MVFR,0.0,20.0,18.9,21.1,13.9,0.0050,,0.0050,,,,METAR,36.0
KHOT 210553Z AUTO 08005KT 6SM -RA BR OVC004 04/03 A2981 RMK AO2 SLP098 P0001 60006 T00390033 10039 20006 400391028 58021,KHOT,2015-02-21T05:53:00Z,34.48,-93.1,3.9,3.3,80,5,,6.0,29.811024,1009.8,,TRUE,TRUE,,,,,,-RA BR,OVC,400,,,,,,,LIFR,-2.1,3.9,0.6,3.9,-2.8,0.01,,,,,,SPECI,162.0
KHLN 210553Z AUTO 27003KT 10SM OVC048 00/M02 A3005 RMK AO2 SLP214 60009 T00001017 10061 20000 51010,KHLN,2015-02-21T05:53:00Z,46.6,-111.98,0.0,-1.7,270,3,,10.0,30.050198,1021.4,,TRUE,TRUE,,,,,,,OVC,4800,,,,,,,VFR,1.0,6.1,0.0,,,,,,,,,SPECI,1182.0
KHLC 210553Z AUTO 32005KT 10SM BKN070 OVC100 02/M05 A2991 RMK AO2 SLP145 T00171050 10061 20011 400831089 50018,KHLC,2015-02-21T05:53:00Z,39.37,-99.83,1.7,-5.0,320,5,,10.0,29.911417,1014.5,,TRUE,TRUE,,,,,,,BKN,7000,OVC,10000,,,,,VFR,1.8,6.1,1.1,8.3,-8.9,,,,,,,METAR,669.0
KHKY 210553Z AUTO 00000KT 10SM FEW100 M04/M14 A3037 RMK AO2 SLP287 T10391144 11028 21044 58005,KHKY,2015-02-21T05:53:00Z,35.75,-81.38,-3.9,-14.4,0,0,,10.0,30.369095,1028.7,,TRUE,TRUE,,,,,,,FEW,10000,,,,,,,VFR,-0.5,-2.8,-4.4,,,,,,,,,SPECI,354.0
KHKS 210553Z AUTO 17019G25KT 10SM OVC095 14/09 A3003 RMK AO2 PK WND 17030/0535 SLP165 60000 T01390094 10139 20122 401391011 58006,KHKS,2015-02-21T05:53:00Z,32.33,-90.22,13.9,9.4,170,19,25,10.0,30.029528,1016.5,,TRUE,TRUE,,,,,,,OVC,9500,,,,,,,VFR,-0.6,13.9,12.2,13.9,-1.1,,,,,,,SPECI,108.0
KHIO 210553Z 00000KT 10SM OVC041 09/05 A3026 RMK AO2 SLP248 T00890050 10139 20083 53004,KHIO,2015-02-21T05:53:00Z,45.55,-122.95,8.9,5.0,0,0,,10.0,30.259842,1024.8,,,TRUE,,,,,,,OVC,4100,,,,,,,VFR,0.4,13.9,8.3,,,,,,,,,SPECI,68.0
KGCC 210553Z AUTO 28010KT 10SM FEW028 BKN055 M01/M03 A2993 RMK AO2 SLP159 T10111033 10006 21028 50006 TSNO,KGCC,2015-02-21T05:53:00Z,44.33,-105.55,-1.1,-3.3,280,10,,10.0,29.929134,1015.9,,TRUE,TRUE,,,TRUE,,,,FEW,2800,BKN,5500,,,,,VFR,0.6,0.6,-2.8,,,,,,,,,METAR,1320.0
KFYV 210553Z AUTO 23008KT 10SM OVC006 06/05 A2973 RMK AO2 SLP071 60001 T00560050 10056 20028 400561033 58016,KFYV,2015-02-21T05:53:00Z,36.02,-94.17,5.6,5.0,230,8,,10.0,29.731298,1007.1,,TRUE,TRUE,,,,,,,OVC,600,,,,,,,IFR,-1.6,5.6,2.8,5.6,-3.3,,,0.01,,,,METAR,379.0
KFXE 210553Z AUTO 07010KT 10SM FEW042 FEW049 OVC060 17/08 A3031 RMK AO2 SLP267 60000 T01670078 10167 20133 58007 TSNO,KFXE,2015-02-21T05:53:00Z,26.2,-80.18,16.7,7.8,70,10,,10.0,30.31004,1026.7,,TRUE,TRUE,,,TRUE,,,,FEW,4200,FEW,4900,OVC,6000,,,VFR,-0.7,16.7,13.3,,,,,0.0050,,,,METAR,6.0
KFTY 210553Z 09007KT 10SM -RA OVC043 01/M13 A3033 RMK AO2 RAB53 SLP277 P0000 60000 T00111128 10017 20011 56008,KFTY,2015-02-21T05:53:00Z,33.78,-84.52,1.1,-12.8,90,7,,10.0,30.33071,1027.7,,,TRUE,,,,,,-RA,OVC,4300,,,,,,,VFR,-0.8,1.7,1.1,,,0.0050,,0.0050,,,,METAR,263.0
KFSM 210553Z AUTO 08011KT 6SM BR OVC005 00/M01 A2979 RMK AO2 SLP092 60000 I6001 T00001011 10006 20000 400111033 58020,KFSM,2015-02-21T05:53:00Z,35.33,-94.37,0.0,-1.1,80,11,,6.0,29.790354,1009.2,,TRUE,TRUE,,,,,,BR,OVC,500,,,,,,,IFR,-2.0,0.6,0.0,1.1,-3.3,,,0.0050,,,,METAR,140.0
KFPR 210553Z AUTO 27003KT 10SM OVC040 09/07 A3035 RMK AO2 SLP276 T00890072 10094 20061 58003,KFPR,2015-02-21T05:53:00Z,27.5,-80.38,8.9,7.2,270,3,,10.0,30.351377,1027.6,,TRUE,TRUE,,,,,,,OVC,4000,,,,,,,VFR,-0.3,9.4,6.1,,,,,,,,,METAR,13.0
KFNB 210553Z AUTO 22003KT 10SM CLR M01/M03 A2987 RMK AO2 SLP124 60001 I6000 T10061033 10006 21011 400171122 53006,KFNB,2015-02-21T05:53:00Z,40.07,-95.58,-0.6,-3.3,220,3,,10.0,29.870079,1012.4,,TRUE,TRUE,,,,,,,CLR,,,,,,,,VFR,0.6,0.6,-1.1,1.7,-12.2,,,0.01,,,,METAR,300.0
KFMY 210553Z AUTO 07006KT 10SM CLR 08/03 A3035 RMK AO2 SLP278 T00780033 10133 20078 58007,KFMY,2015-02-21T05:53:00Z,26.58,-81.87,7.8,3.3,70,6,,10.0,30.351377,1027.8,,TRUE,TRUE,,,,,,,CLR,,,,,,,,VFR,-0.7,13.3,7.8,,,,,,,,,METAR,4.0
KFLO 210553Z 09004KT 10SM CLR M04/M12 A3049 RMK AO2 SLP325 T10441117 11011 21050 55010,KFLO,2015-02-21T05:53:00Z,34.18,-79.73,-4.4,-11.7,90,4,,10.0,30.490158,1032.5,,,TRUE,,,,,,,CLR,,,,,,,,VFR,-1.0,-1.1,-5.0,,,,,,,,,METAR,44.0
KFLL 210553Z 08012KT 10SM OVC060 17/07 A3030 RMK AO2 SLP261 T01670072 10167 20139 58005,KFLL,2015-02-21T05:53:00Z,26.07,-80.15,16.7,7.2,80,12,,10.0,30.301182,1026.1,,,TRUE,,,,,,,OVC,6000,,,,,,,VFR,-0.5,16.7,13.9,,,,,,,,,METAR,3.0
KFFC 210553Z AUTO 12008KT 10SM OVC043 02/M13 A3034 RMK AO2 SLP281 60000 T00171128 10017 20006 56008,KFFC,2015-02-21T05:53:00Z,33.35,-84.57,1.7,-12.8,120,8,,10.0,30.339567,1028.1,,TRUE,TRUE,,,,,,,OVC,4300,,,,,,,VFR,-0.8,1.7,0.6,,,,,0.0050,,,,METAR,262.0
KFCM 210553Z AUTO 26003KT 6SM BR OVC018 M06/M08 A2982 RMK AO2 SLP112 60000 T10561078 11039 21072 410391133 51006,KFCM,2015-02-21T05:53:00Z,44.83,-93.47,-5.6,-7.8,260,3,,6.0,29.819881,1011.2,,TRUE,TRUE,,,,,,BR,OVC,1800,,,,,,,MVFR,0.6,-3.9,-7.2,-3.9,-13.3,,,0.0050,,,,METAR,280.0
KFAT 210553Z 00000KT 4SM HZ OVC011 12/09 A3002 RMK AO2 SLP166 T01220094 10150 20111 53009,KFAT,2015-02-21T05:53:00Z,36.78,-119.72,12.2,9.4,0,0,,4.0,30.02067,1016.6,,,TRUE,,,,,,HZ,OVC,1100,,,,,,,MVFR,0.9,15.0,11.1,,,,,,,,,METAR,104.0
KFAR 210553Z 34014KT 10SM FEW070 OVC100 M12/M16 A2999 RMK AO2 SLP172 T11221156 11072 21122 410281122 51022,KFAR,2015-02-21T05:53:00Z,46.93,-96.82,-12.2,-15.6,340,14,,10.0,29.991142,1017.2,,,TRUE,,,,,,,FEW,7000,OVC,10000,,,,,VFR,2.2,-7.2,-12.2,-2.8,-12.2,,,,,,,METAR,277.0
KEYW 210553Z AUTO 04012G19KT 10SM FEW049 OVC070 15/11 A3026 RMK AO2 SLP245 T01500111 10167 20150 58011 $,KEYW,2015-02-21T05:53:00Z,24.55,-81.75,15.0,11.1,40,12,19,10.0,30.259842,1024.5,,TRUE,TRUE,TRUE,,,,,,FEW,4900,OVC,7000,,,,,VFR,-1.1,16.7,15.0,,,,,,,,,METAR,5.0
KEWB 210553Z AUTO 00000KT 10SM CLR M16/M22 A3047 RMK AO2 SLP319 T11611222 11094 21161 53022,KEWB,2015-02-21T05:53:00Z,41.68,-70.95,-16.1,-22.2,0,0,,10.0,30.469488,1031.9,,TRUE,TRUE,,,,,,,CLR,,,,,,,,VFR,2.2,-9.4,-16.1,,,,,,,,,METAR,23.0
KEVW 210553Z AUTO 25009KT 10SM FEW060 OVC080 M03/M06 A2997 RMK AO2 SLP155 60000 T10331056 10006 21033 58002,KEVW,2015-02-21T05:53:00Z,41.27,-111.03,-3.3,-5.6,250,9,,10.0,29.970472,1015.5,,TRUE,TRUE,,,,,,,FEW,6000,OVC,8000,,,,,VFR,-0.2,0.6,-3.3,,,,,0.0050,,,,METAR,2177.0
KEQY 210553Z AUTO 00000KT 10SM FEW100 M05/M13 A3042 RMK AO2 SLP330 T10501133 11028 21056 56007,KEQY,2015-02-21T05:53:00Z,35.02,-80.62,-5.0,-13.3,0,0,,10.0,30.41929,1033.0,,TRUE,TRUE,,,,,,,FEW,10000,,,,,,,VFR,-0.7,-2.8,-5.6,,,,,,,,,METAR,212.0
KEPH 210553Z AUTO 34008KT 10SM FEW060 07/01 A3013 RMK AO2 SLP212 T00670006 10122 20056 51008,KEPH,2015-02-21T05:53:00Z,47.3,-119.52,6.7,0.6,340,8,,10.0,30.129921,1021.2,,TRUE,TRUE,,,,,,,FEW,6000,,,,,,,VFR,0.8,12.2,5.6,,,,,,,,,METAR,383.0
KP68 210553Z AUTO 17003KT M04/M11 A3007 RMK AO1 SLP174 T10441111 10094 21056 51002,KP68,2015-02-21T05:53:00Z,39.6,-116.0,-4.4,-11.1,170,3,,,30.070866,1017.4,,TRUE,TRUE,,,,,,,,,,,,,,,,0.2,9.4,-5.6,,,,,,,,,METAR,1809.0
KNUI 210553Z AUTO 17005KT 10SM CLR M08/M20 A3052 RMK AO2 SLP334 T10831200 11083 21167 58003 $,KNUI,2015-02-21T05:53:00Z,38.15,-76.43,-8.3,-20.0,170,5,,10.0,30.519686,1033.4,,TRUE,TRUE,TRUE,,,,,,CLR,,,,,,,,VFR,-0.3,-8.3,-16.7,,,,,,,,,METAR,7.0
KLOR 210553Z AUTO 12003KT 10SM CLR 03/M09 A3030 RMK AO2 SLP259 T00281089 10072 20022 401001072 58007,KLOR,2015-02-21T05:53:00Z,31.35,-85.75,2.8,-8.9,120,3,,10.0,30.301182,1025.9,,TRUE,TRUE,,,,,,,CLR,,,,,,,,VFR,-0.7,7.2,2.2,10.0,-7.2,,,,,,,METAR,74.0
KCTY 210553Z AUTO 12005KT 04/M02 A3039 RMK AO1 SLP289 T00391022 10061 20011 58005,KCTY,2015-02-21T05:53:00Z,29.63,-83.1,3.9,-2.2,120,5,,,30.389763,1028.9,,TRUE,TRUE,,,,,,,,,,,,,,,,-0.5,6.1,1.1,,,,,,,,,METAR,13.0
KNIP 210553Z 10005KT 10SM FEW250 07/M01 A3042 RMK AO2 SLP295 T00671011 10067 20056 56014,KNIP,2015-02-21T05:53:00Z,30.22,-81.67,6.7,-1.1,100,5,,10.0,30.41929,1029.5,,,TRUE,,,,,,,FEW,25000,,,,,,,VFR,-1.4,6.7,5.6,,,,,,,,,METAR,7.0
KNQX 210553Z AUTO 04012G22KT 10SM FEW048 OVC065 15/11 A3026 RMK AO2 SLP244 T01500111 10167 20150 58011 $,KNQX,2015-02-21T05:53:00Z,24.57,-81.67,15.0,11.1,40,12,22,10.0,30.259842,1024.4,,TRUE,TRUE,TRUE,,,,,,FEW,4800,OVC,6500,,,,,VFR,-1.1,16.7,15.0,,,,,,,,,METAR,2.0
KMGW 210553Z AUTO 00000KT 10SM FEW055 M13/M20 A3017 RMK AO2 SLP244 T11331200 11117 21144 58031 TSNO,KMGW,2015-02-21T05:53:00Z,39.65,-79.92,-13.3,-20.0,0,0,,10.0,30.171259,1024.4,,TRUE,TRUE,,,TRUE,,,,FEW,5500,,,,,,,VFR,-3.1,-11.7,-14.4,,,,,,,,,METAR,378.0
KMGY 210553Z AUTO 15007KT 10SM OVC019 M07/M16 A3005 RMK AO2 SLP194 T10721161 11072 21100 56023,KMGY,2015-02-21T05:53:00Z,39.6,-84.23,-7.2,-16.1,150,7,,10.0,30.050198,1019.4,,TRUE,TRUE,,,,,,,OVC,1900,,,,,,,MVFR,-2.3,-7.2,-10.0,,,,,,,,,METAR,289.0
KMIW 210553Z AUTO 23003KT 10SM BKN043 OVC075 M02/M06 A2981 RMK AO2 SLP106 T10221056 10000 21022 400001133 51003,KMIW,2015-02-21T05:53:00Z,42.12,-92.92,-2.2,-5.6,230,3,,10.0,29.811024,1010.6,,TRUE,TRUE,,,,,,,BKN,4300,OVC,7500,,,,,VFR,0.3,0.0,-2.2,,-13.3,,,,,,,METAR,296.0
KMKO 210553Z AUTO 11008KT 6SM BR OVC005 02/01 A2976 RMK AO2 LTG DSNT N SLP079 60000 T00220006 10022 20000 400331022 58007,KMKO,2015-02-21T05:53:00Z,35.65,-95.37,2.2,0.6,110,8,,6.0,29.760826,1007.9,,TRUE,TRUE,,,,,,BR,OVC,500,,,,,,,IFR,-0.7,2.2,0.0,3.3,-2.2,,,0.0050,,,,METAR,185.0
KLEB 210553Z 00000KT 10SM CLR M23/M27 A3036 RMK AO2 SLP308 T12331267 11156 21239 53021,KLEB,2015-02-21T05:53:00Z,43.63,-72.3,-23.3,-26.7,0,0,,10.0,30.360237,1030.8,,,TRUE,,,,,,,CLR,,,,,,,,VFR,2.1,-15.6,-23.9,,,,,,,,,METAR,171.0
KLCH 210553Z 19012G20KT 10SM OVC075 18/15 A2997 RMK AO2 SLP158 T01830150 10183 20167 401940078 58005,KLCH,2015-02-21T05:53:00Z,30.13,-93.22,18.3,15.0,190,12,20,10.0,29.970472,1015.8,,,TRUE,,,,,,,OVC,7500,,,,,,,VFR,-0.5,18.3,16.7,19.4,7.8,,,,,,,METAR,4.0
KLBX 210553Z AUTO 18014KT 10SM -RA SCT021 BKN029 OVC037 18/17 A2992 RMK AO2 RAB02E15B40 SLP132 P0000 60000 T01830172 10189 20178 402110156 58004,KLBX,2015-02-21T05:53:00Z,29.12,-95.47,18.3,17.2,180,14,,10.0,29.920275,1013.2,,TRUE,TRUE,,,,,,-RA,SCT,2100,BKN,2900,OVC,3700,,,MVFR,-0.4,18.9,17.8,21.1,15.6,0.0050,,0.0050,,,,METAR,6.0
KLBF 210553Z AUTO 29006KT 10SM BKN040 OVC046 03/00 A2992 RMK AO2 RAE0457B32E42UPB30E32 SLP138 P0000 60000 T00280000 10067 20017 401221067 51018 $,KLBF,2015-02-21T05:53:00Z,41.12,-100.67,2.8,0.0,290,6,,10.0,29.920275,1013.8,,TRUE,TRUE,TRUE,,,,,,BKN,4000,OVC,4600,,,,,VFR,1.8,6.7,1.7,12.2,-6.7,0.0050,,0.0050,,,,METAR,847.0
KLFT 210553Z AUTO 17013G20KT 10SM FEW031 FEW040 18/14 A3001 RMK AO2 SLP162 T01780139 10178 20167 401940044 58010,KLFT,2015-02-21T05:53:00Z,30.2,-92.0,17.8,13.9,170,13,20,10.0,30.008858,1016.2,,TRUE,TRUE,,,,,,,FEW,3100,FEW,4000,,,,,VFR,-1.0,17.8,16.7,19.4,4.4,,,,,,,METAR,11.0
KLFK 210553Z AUTO 18015G24KT 10SM OVC021 20/15 A2987 RMK AO2 PK WND 19026/0456 SLP112 T02000150 10206 20183 402060094 58004,KLFK,2015-02-21T05:53:00Z,31.23,-94.75,20.0,15.0,180,15,24,10.0,29.870079,1011.2,,TRUE,TRUE,,,,,,,OVC,2100,,,,,,,MVFR,-0.4,20.6,18.3,20.6,9.4,,,,,,,METAR,88.0
KLEE 210553Z AUTO 04004KT 10SM CLR 04/00 A3042 RMK AO2 SLP300 T00440000 10094 20044 56008,KLEE,2015-02-21T05:53:00Z,28.82,-81.82,4.4,0.0,40,4,,10.0,30.41929,1030.0,,TRUE,TRUE,,,,,,,CLR,,,,,,,,VFR,-0.8,9.4,4.4,,,,,,,,,METAR,23.0
KMNN 210553Z AUTO 17010KT 10SM OVC029 M09/M18 A3008 RMK AO2 SLP209 T10941178 11094 21117 58023 TSNO,KMNN,2015-02-21T05:53:00Z,40.62,-83.07,-9.4,-17.8,170,10,,10.0,30.079725,1020.9,,TRUE,TRUE,,,TRUE,,,,OVC,2900,,,,,,,MVFR,-2.3,-9.4,-11.7,,,,,,,,,METAR,301.0
KMLU 210553Z AUTO 17012G21KT 10SM -RA BKN070 OVC100 14/11 A2994 RMK AO2 SLP138 P0000 60000 T01440111 10150 20128 401501022 58007,KMLU,2015-02-21T05:53:00Z,32.52,-92.03,14.4,11.1,170,12,21,10.0,29.940945,1013.8,,TRUE,TRUE,,,,,,-RA,BKN,7000,OVC,10000,,,,,VFR,-0.7,15.0,12.8,15.0,-2.2,0.0050,,0.0050,,,,METAR,29.0
KSBM 210553Z AUTO 19006KT 10SM OVC050 M08/M12 A2990 RMK AO2 SLP140 60000 T10831122 11083 21094 410831250 55007,KSBM,2015-02-21T05:53:00Z,43.78,-87.85,-8.3,-12.2,190,6,,10.0,29.899607,1014.0,,TRUE,TRUE,,,,,,,OVC,5000,,,,,,,VFR,-0.7,-8.3,-9.4,-8.3,-25.0,,,0.0050,,,,METAR,232.0
KSAF 210553Z AUTO 00000KT 10SM CLR 05/M12 A2988 RMK AO2 SLP071 T00501117 10161 20044 51015,KSAF,2015-02-21T05:53:00Z,35.62,-106.1,5.0,-11.7,0,0,,10.0,29.878937,1007.1,,TRUE,TRUE,,,,,,,CLR,,,,,,,,VFR,1.5,16.1,4.4,,,,,,,,,METAR,1930.0
KRTN 210553Z AUTO 35014KT 10SM CLR 01/M03 A2988 RMK AO2 SLP086 60000 T00111028 10144 20011 51012,KRTN,2015-02-21T05:53:00Z,36.73,-104.5,1.1,-2.8,350,14,,10.0,29.878937,1008.6,,TRUE,TRUE,,,,,,,CLR,,,,,,,,VFR,1.2,14.4,1.1,,,,,0.0050,,,,METAR,1936.0
KRQE 210553Z AUTO 00000KT 10SM CLR 06/M06 A2996 RMK AO2 SLP075 T00611056 10144 20050 53011 TSNO,KRQE,2015-02-21T05:53:00Z,35.65,-109.07,6.1,-5.6,0,0,,10.0,29.958662,1007.5,,TRUE,TRUE,,,TRUE,,,,CLR,,,,,,,,VFR,1.1,14.4,5.0,,,,,,,,,METAR,2055.0
KRBD 210553Z 18011G24KT 10SM BKN023 19/15 A2969 RMK AO2 PK WND 18028/0516 SLP049 T01890150 10211 20189 402170072 58001,KRBD,2015-02-21T05:53:00Z,32.68,-96.87,18.9,15.0,180,11,24,10.0,29.68996,1004.9,,,TRUE,,,,,,,BKN,2300,,,,,,,MVFR,-0.1,21.1,18.9,21.7,7.2,,,,,,,METAR,203.0
KODO 210553Z AUTO 26006KT 10SM CLR 17/M06 A2978 RMK AO2 SLP047 T01671056 10233 20156 402560072 53005,KODO,2015-02-21T05:53:00Z,31.92,-102.4,16.7,-5.6,260,6,,10.0,29.778543,1004.7,,TRUE,TRUE,,,,,,,CLR,,,,,,,,VFR,0.5,23.3,15.6,25.6,7.2,,,,,,,METAR,902.0
KMWL 210553Z AUTO 18014G21KT 10SM CLR 18/12 A2965 RMK AO2 SLP032 T01830122 10217 20178 402440089 53005,KMWL,2015-02-21T05:53:00Z,32.78,-98.07,18.3,12.2,180,14,21,10.0,29.648623,1003.2,,TRUE,TRUE,,,,,,,CLR,,,,,,,,VFR,0.5,21.7,17.8,24.4,8.9,,,,,,,METAR,284.0
KMSN 210553Z AUTO 19006KT 10SM SCT039 BKN050 OVC060 M07/M12 A2987 RMK AO2 SLP131 60000 T10671117 11067 21089 410671217 56006,KMSN,2015-02-21T05:53:00Z,43.13,-89.35,-6.7,-11.7,190,6,,10.0,29.870079,1013.1,,TRUE,TRUE,,,,,,,SCT,3900,BKN,5000,OVC,6000,,,VFR,-0.6,-6.7,-8.9,-6.7,-21.7,,,0.0050,,,,METAR,261.0
KMRB 210553Z AUTO 00000KT 10SM OVC095 M13/M18 A3038 RMK AO2 SLP297 T11331183 11100 21144 58013 TSNO,KMRB,2015-02-21T05:53:00Z,39.4,-77.98,-13.3,-18.3,0,0,,10.0,30.380905,1029.7,,TRUE,TRUE,,,TRUE,,,,OVC,9500,,,,,,,VFR,-1.3,-10.0,-14.4,,,,,,,,,METAR,164.0
KMPO 210553Z AUTO 00000KT 10SM CLR M20/M27 A3027 RMK AO2 SLP301 T12001267 11161 21233 52002,KMPO,2015-02-21T05:53:00Z,41.13,-75.38,-20.0,-26.7,0,0,,10.0,30.268702,1030.1,,TRUE,TRUE,,,,,,,CLR,,,,,,,,VFR,0.2,-16.1,-23.3,,,,,,,,,METAR,577.0
KTKI 210553Z AUTO 19024G33KT 10SM BKN025 BKN030 19/15 A2969 RMK AO2 PK WND 19037/0503 SLP054 T01940150 10200 20189 402060061 55000,KTKI,2015-02-21T05:53:00Z,33.18,-96.58,19.4,15.0,190,24,33,10.0,29.68996,1005.4,,TRUE,TRUE,,,,,,,BKN,2500,BKN,3000,,,,,MVFR,0.0,20.0,18.9,20.6,6.1,,,,,,,METAR,179.0
KTHV 210553Z AUTO 00000KT 10SM FEW120 M14/M21 A3042 RMK AO2 SLP315 T11391206 11117 21161 58004,KTHV,2015-02-21T05:53:00Z,39.92,-76.88,-13.9,-20.6,0,0,,10.0,30.41929,1031.5,,TRUE,TRUE,,,,,,,FEW,12000,,,,,,,VFR,-0.4,-11.7,-16.1,,,,,,,,,METAR,144.0
KTDZ 210553Z AUTO 19011KT 10SM OVC024 M09/M17 A3008 RMK AO2 SLP196 T10891167 11089 21111 56025 TSNO,KTDZ,2015-02-21T05:53:00Z,41.57,-83.48,-8.9,-16.7,190,11,,10.0,30.079725,1019.6,,TRUE,TRUE,,,TRUE,,,,OVC,2400,,,,,,,MVFR,-2.5,-8.9,-11.1,,,,,,,,,METAR,189.0
KTCC 210553Z AUTO 06010KT 10SM CLR 07/M01 A2990 RMK AO2 PK WND 04026/0508 SLP099 T00671006 10211 20067 51069,KTCC,2015-02-21T05:53:00Z,35.18,-103.6,6.7,-0.6,60,10,,10.0,29.899607,1009.9,,TRUE,TRUE,,,,,,,CLR,,,,,,,,VFR,6.9,21.1,6.7,,,,,,,,,METAR,1235.0
KSMQ 210553Z AUTO 00000KT 8SM CLR M19/M23 A3050 RMK AO2 SLP331 T11891228 11106 21189 51009 TSNO,KSMQ,2015-02-21T05:53:00Z,40.62,-74.67,-18.9,-22.8,0,0,,8.0,30.499016,1033.1,,TRUE,TRUE,,,TRUE,,,,CLR,,,,,,,,VFR,0.9,-10.6,-18.9,,,,,,,,,METAR,30.0
KSEG 210553Z AUTO 00000KT 9SM FEW110 M18/M22 A3041 RMK AO2 SLP308 T11781217 11122 21200 58004,KSEG,2015-02-21T05:53:00Z,40.82,-76.87,-17.8,-21.7,0,0,,9.0,30.410433,1030.8,,TRUE,TRUE,,,,,,,FEW,11000,,,,,,,VFR,-0.4,-12.2,-20.0,,,,,,,,,METAR,134.0
KSDM 210553Z AUTO 00000KT 10SM OVC018 15/11 A2998 RMK AO2 SLP148 T01500111 10161 20139 53003,KSDM,2015-02-21T05:53:00Z,32.58,-117.0,15.0,11.1,0,0,,10.0,29.97933,1014.8,,TRUE,TRUE,,,,,,,OVC,1800,,,,,,,MVFR,0.3,16.1,13.9,,,,,,,,,METAR,159.0
KSDL 210553Z 00000KT 10SM CLR 17/01 A2990 RMK AO2 SLP109 T01720006 10233 20172 51004,KSDL,2015-02-21T05:53:00Z,33.62,-111.92,17.2,0.6,0,0,,10.0,29.899607,1010.9,,,TRUE,,,,,,,CLR,,,,,,,,VFR,0.4,23.3,17.2,,,,,,,,,METAR,447.0
PHKO 210553Z 36014KT 10SM FEW019 SCT045 25/21 A2995 RMK AO2 SLP142 T02500211 10283 20250 53017,PHKO,2015-02-21T05:53:00Z,19.73,-156.05,25.0,21.1,360,14,,10.0,29.949802,1014.2,,,TRUE,,,,,,,FEW,1900,SCT,4500,,,,,VFR,1.7,28.3,25.0,,,,,,,,,METAR,27.0
PHNL 210553Z 01003KT 10SM FEW038 SCT110 22/17 A2997 RMK AO2 SLP147 60000 T02170172 10250 20217 53012,PHNL,2015-02-21T05:53:00Z,21.33,-157.92,21.7,17.2,10,3,,10.0,29.970472,1014.7,,,TRUE,,,,,,,FEW,3800,SCT,11000,,,,,VFR,1.2,25.0,21.7,,,,,0.0050,,,,METAR,4.0
KOVS 210553Z AUTO 00000KT 10SM OVC031 M06/M10 A2986 RMK AO2 SLP125 T10561100 11050 21061 410501244 58004,KOVS,2015-02-21T05:53:00Z,43.15,-90.68,-5.6,-10.0,0,0,,10.0,29.861221,1012.5,,TRUE,TRUE,,,,,,,OVC,3100,,,,,,,VFR,-0.4,-5.0,-6.1,-5.0,-24.4,,,,,,,METAR,202.0
KOSH 210553Z 20005KT 10SM OVC035 M08/M13 A2987 RMK AO2 SLP142 60000 T10831128 11083 21100 410831239 55008,KOSH,2015-02-21T05:53:00Z,43.97,-88.55,-8.3,-12.8,200,5,,10.0,29.870079,1014.2,,,TRUE,,,,,,,OVC,3500,,,,,,,VFR,-0.8,-8.3,-10.0,-8.3,-23.9,,,0.0050,,,,METAR,248.0
KONT 210553Z 22003KT 8SM FEW210 BKN250 14/10 A2997 RMK AO2 SLP145 T01390100 10217 20139 51008,KONT,2015-02-21T05:53:00Z,34.05,-117.58,13.9,10.0,220,3,,8.0,29.970472,1014.5,,,TRUE,,,,,,,FEW,21000,BKN,25000,,,,,VFR,0.8,21.7,13.9,,,,,,,,,METAR,274.0
PHLI 210553Z 36009KT 10SM BKN032 OVC044 22/14 A3000 RMK AO2 SLP155 T02170144 10256 20206 53015,PHLI,2015-02-21T05:53:00Z,21.97,-159.33,21.7,14.4,360,9,,10.0,30.0,1015.5,,,TRUE,,,,,,,BKN,3200,OVC,4400,,,,,VFR,1.5,25.6,20.6,,,,,,,,,METAR,45.0
KBUR 210553Z 00000KT 6SM HZ CLR 14/10 A2996 RMK AO2 SLP137 T01440100 10206 20144 50005,KBUR,2015-02-21T05:53:00Z,34.2,-118.37,14.4,10.0,0,0,,6.0,29.958662,1013.7,,,TRUE,,,,,,HZ,CLR,,,,,,,,VFR,0.5,20.6,14.4,,,,,,,,,METAR,217.0
KBTL 210553Z 20011KT 10SM OVC022 M08/M14 A2999 RMK AO2 SLP172 60000 T10831144 11083 21100 58012,KBTL,2015-02-21T05:53:00Z,42.32,-85.23,-8.3,-14.4,200,11,,10.0,29.991142,1017.2,,,TRUE,,,,,,,OVC,2200,,,,,,,MVFR,-1.2,-8.3,-10.0,,,,,0.0050,,,,METAR,290.0
KBKL 210553Z AUTO 16014G22KT 10SM FEW060 OVC080 M09/M19 A3011 RMK AO2 SLP209 T10941194 11094 21117 57026,KBKL,2015-02-21T05:53:00Z,41.53,-81.67,-9.4,-19.4,160,14,22,10.0,30.109253,1020.9,,TRUE,TRUE,,,,,,,FEW,6000,OVC,8000,,,,,VFR,-2.6,-9.4,-11.7,,,,,,,,,METAR,184.0
KBIV 210553Z AUTO 18010KT 10SM OVC070 M08/M14 A2998 RMK AO2 SLP166 60000 T10831144 11083 21106 56018,KBIV,2015-02-21T05:53:00Z,42.75,-86.1,-8.3,-14.4,180,10,,10.0,29.97933,1016.6,,TRUE,TRUE,,,,,,,OVC,7000,,,,,,,VFR,-1.8,-8.3,-10.6,,,,,0.0050,,,,METAR,208.0
KBGM 210553Z AUTO 18006KT 10SM CLR M17/M25 A3024 RMK AO2 SLP280 T11671250 11150 21172 55004,KBGM,2015-02-21T05:53:00Z,42.22,-75.98,-16.7,-25.0,180,6,,10.0,30.239174,1028.0,,TRUE,TRUE,,,,,,,CLR,,,,,,,,VFR,-0.4,-15.0,-17.2,,,,,,,,,METAR,490.0
KBFD 210553Z AUTO 15007KT 10SM OVC100 M16/M24 A3012 RMK AO2 SLP247 T11561239 11156 21200 58012,KBFD,2015-02-21T05:53:00Z,41.8,-78.63,-15.6,-23.9,150,7,,10.0,30.121063,1024.7,,TRUE,TRUE,,,,,,,OVC,10000,,,,,,,VFR,-1.2,-15.6,-20.0,,,,,,,,,METAR,647.0
KBEH 210553Z AUTO 19007KT 10SM OVC024 M09/M15 A2999 RMK AO2 SLP169 T10891150 11089 21106 55010,KBEH,2015-02-21T05:53:00Z,42.13,-86.42,-8.9,-15.0,190,7,,10.0,29.991142,1016.9,,TRUE,TRUE,,,,,,,OVC,2400,,,,,,,MVFR,-1.0,-8.9,-10.6,,,,,,,,,METAR,191.0
KAZO 210553Z AUTO 18010KT 10SM OVC023 M09/M14 A2998 RMK AO2 SLP172 60000 T10941144 11094 21106 56014,KAZO,2015-02-21T05:53:00Z,42.23,-85.55,-9.4,-14.4,180,10,,10.0,29.97933,1017.2,,TRUE,TRUE,,,,,,,OVC,2300,,,,,,,MVFR,-1.4,-9.4,-10.6,,,,,0.0050,,,,METAR,272.0
KARB 210553Z AUTO 20008KT 10SM OVC023 M11/M16 A3003 RMK AO2 SLP187 T11061161 11106 21122 57014 PWINO FZRANO,KARB,2015-02-21T05:53:00Z,42.22,-83.73,-10.6,-16.1,200,8,,10.0,30.029528,1018.7,,TRUE,TRUE,,,,TRUE,TRUE,,OVC,2300,,,,,,,MVFR,-1.4,-10.6,-12.2,,,,,,,,,METAR,251.0
KAOO 210553Z AUTO VRB04KT 10SM BKN075 OVC090 M13/M22 A3025 RMK AO2 SLP279 T11331217 11128 21161 58011,KAOO,2015-02-21T05:53:00Z,40.3,-78.32,-13.3,-21.7,0,4,,10.0,30.250984,1027.9,,TRUE,TRUE,,,,,,,BKN,7500,OVC,9000,,,,,VFR,-1.1,-12.8,-16.1,,,,,,,,,METAR,455.0
KAOH 210553Z AUTO 18013KT 10SM OVC023 M08/M16 A3005 RMK AO2 SLP195 T10781161 11078 21106 55018,KAOH,2015-02-21T05:53:00Z,40.7,-84.02,-7.8,-16.1,180,13,,10.0,30.050198,1019.5,,TRUE,TRUE,,,,,,,OVC,2300,,,,,,,MVFR,-1.8,-7.8,-10.6,,,,,,,,,METAR,296.0
KAMA 210553Z AUTO 36021G29KT 10SM CLR 06/M01 A2986 RMK AO2 PK WND 01039/0458 SLP087 T00611006 10200 20061 402391011 53072,KAMA,2015-02-21T05:53:00Z,35.22,-101.72,6.1,-0.6,360,21,29,10.0,29.861221,1008.7,,TRUE,TRUE,,,,,,,CLR,,,,,,,,VFR,7.2,20.0,6.1,23.9,-1.1,,,,,,,METAR,1093.0
KAGC 210553Z 14004KT 10SM SCT055 OVC100 M13/M21 A3016 RMK AO2 SLP247 T11281211 11128 21150 58027,KAGC,2015-02-21T05:53:00Z,40.35,-79.92,-12.8,-21.1,140,4,,10.0,30.159449,1024.7,,,TRUE,,,,,,,SCT,5500,OVC,10000,,,,,VFR,-2.7,-12.8,-15.0,,,,,,,,,METAR,389.0
KAFW 210553Z 19021G30KT 10SM OVC020 18/15 A2967 RMK AO2 PK WND 19030/0552 SLP040 T01830150 10200 20172 402170083 53003,KAFW,2015-02-21T05:53:00Z,32.97,-97.32,18.3,15.0,190,21,30,10.0,29.66929,1004.0,,,TRUE,,,,,,,OVC,2000,,,,,,,MVFR,0.3,20.0,17.2,21.7,8.3,,,,,,,METAR,233.0
KADG 210553Z AUTO 21009KT 10SM OVC021 M10/M16 A3004 RMK AO2 SLP190 60000 T11001161 11100 21117 56026 TSNO,KADG,2015-02-21T05:53:00Z,41.87,-84.08,-10.0,-16.1,210,9,,10.0,30.041338,1019.0,,TRUE,TRUE,,,TRUE,,,,OVC,2100,,,,,,,MVFR,-2.6,-10.0,-11.7,,,,,0.0050,,,,METAR,241.0
KARA 210553Z AUTO 17016G23KT 10SM FEW034 SCT041 BKN080 17/13 A3004 RMK AO2 SLP171 60000 T01720133 10178 20161 402000028 58004,KARA,2015-02-21T05:53:00Z,30.03,-91.88,17.2,13.3,170,16,23,10.0,30.041338,1017.1,,TRUE,TRUE,,,,,,,FEW,3400,SCT,4100,BKN,8000,,,VFR,-0.4,17.8,16.1,20.0,2.8,,,0.0050,,,,METAR,18.0
KAPF 210553Z 05009KT 10SM CLR 09/04 A3033 RMK AO2 SLP269 T00890044 10139 20089 58006,KAPF,2015-02-21T05:53:00Z,26.15,-81.77,8.9,4.4,50,9,,10.0,30.33071,1026.9,,,TRUE,,,,,,,CLR,,,,,,,,VFR,-0.6,13.9,8.9,,,,,,,,,METAR,3.0
KCRE 210553Z AUTO 02004KT 10SM CLR M03/M08 A3050 RMK AO1 SLP328 T10331083 11022 21056 58010,KCRE,2015-02-21T05:53:00Z,33.82,-78.72,-3.3,-8.3,20,4,,10.0,30.499016,1032.8,,TRUE,TRUE,,,,,,,CLR,,,,,,,,VFR,-1.0,-2.2,-5.6,,,,,,,,,METAR,10.0
KCPR 210553Z AUTO 00000KT 10SM BKN050 OVC065 M03/M05 A2996 RMK AO2 SLP167 60006 T10331050 10011 21044 50007,KCPR,2015-02-21T05:53:00Z,42.9,-106.47,-3.3,-5.0,0,0,,10.0,29.958662,1016.7,,TRUE,TRUE,,,,,,,BKN,5000,OVC,6500,,,,,VFR,0.7,1.1,-4.4,,,,,0.06,,,,METAR,1621.0
KCOT 210553Z AUTO 16012G17KT 10SM CLR 19/15 A2980 RMK AO2 SLP086 T01940150 10283 20194 402940128 50002,KCOT,2015-02-21T05:53:00Z,28.45,-99.22,19.4,15.0,160,12,17,10.0,29.799213,1008.6,,TRUE,TRUE,,,,,,,CLR,,,,,,,,VFR,0.2,28.3,19.4,29.4,12.8,,,,,,,METAR,140.0
KCLM 210553Z AUTO 00000KT 10SM CLR 06/04 A3027 RMK AO2 SLP252 T00610039 10100 20061 53002,KCLM,2015-02-21T05:53:00Z,48.12,-123.5,6.1,3.9,0,0,,10.0,30.268702,1025.2,,TRUE,TRUE,,,,,,,CLR,,,,,,,,VFR,0.2,10.0,6.1,,,,,,,,,METAR,85.0
KZZV 210553Z AUTO 14004KT 10SM BKN050 OVC095 M12/M21 A3015 RMK AO2 SLP227 T11171206 11117 21133 56028 TSNO,KZZV,2015-02-21T05:53:00Z,39.95,-81.9,-11.7,-20.6,140,4,,10.0,30.15059,1022.7,,TRUE,TRUE,,,TRUE,,,,BKN,5000,OVC,9500,,,,,VFR,-2.8,-11.7,-13.3,,,,,,,,,METAR,268.0
KYIP 210553Z AUTO 18010KT 10SM OVC025 M09/M16 A3004 RMK AO2 SLP185 T10891161 11089 21111 56029 TSNO,KYIP,2015-02-21T05:53:00Z,42.23,-83.53,-8.9,-16.1,180,10,,10.0,30.041338,1018.5,,TRUE,TRUE,,,TRUE,,,,OVC,2500,,,,,,,MVFR,-2.9,-8.9,-11.1,,,,,,,,,METAR,215.0
KVGT 210553Z 31006KT 10SM CLR 14/M04 A2986 RMK AO2 SLP120 T01441044 10228 20139 53009,KVGT,2015-02-21T05:53:00Z,36.22,-115.2,14.4,-4.4,310,6,,10.0,29.861221,1012.0,,,TRUE,,,,,,,CLR,,,,,,,,VFR,0.9,22.8,13.9,,,,,,,,,METAR,671.0
KTYR 210553Z AUTO 19018KT 10SM OVC024 19/14 A2978 RMK AO2 PK WND 19030/0540 SLP080 T01890144 10189 20183 401890089 56004,KTYR,2015-02-21T05:53:00Z,32.37,-95.4,18.9,14.4,190,18,,10.0,29.778543,1008.0,,TRUE,TRUE,,,,,,,OVC,2400,,,,,,,MVFR,-0.4,18.9,18.3,18.9,8.9,,,,,,,METAR,165.0
KTXK 210553Z AUTO 18016G21KT 10SM OVC020 17/13 A2979 RMK AO2 SLP086 60000 T01670133 10167 20094 401670011 58001,KTXK,2015-02-21T05:53:00Z,33.45,-93.98,16.7,13.3,180,16,21,10.0,29.790354,1008.6,,TRUE,TRUE,,,,,,,OVC,2000,,,,,,,MVFR,-0.1,16.7,9.4,16.7,1.1,,,0.0050,,,,METAR,111.0
KTUS 210553Z 12004KT 10SM CLR 17/04 A2998 RMK AO2 SLP119 T01670039 10228 20156 53007,KTUS,2015-02-21T05:53:00Z,32.13,-110.95,16.7,3.9,120,4,,10.0,29.97933,1011.9,,,TRUE,,,,,,,CLR,,,,,,,,VFR,0.7,22.8,15.6,,,,,,,,,METAR,776.0
KTTN 210553Z AUTO 00000KT 10SM CLR M15/M22 A3050 RMK AO2 SLP326 T11501222 11106 21156 51007,KTTN,2015-02-21T05:53:00Z,40.28,-74.82,-15.0,-22.2,0,0,,10.0,30.499016,1032.6,,TRUE,TRUE,,,,,,,CLR,,,,,,,,VFR,0.7,-10.6,-15.6,,,,,,,,,METAR,59.0
KTRL 210553Z AUTO 19017G25KT 10SM OVC024 20/15 A2974 RMK AO2 PK WND 18027/0505 SLP065 T02000150 10211 20194 402110089 50004,KTRL,2015-02-21T05:53:00Z,32.72,-96.27,20.0,15.0,190,17,25,10.0,29.740158,1006.5,,TRUE,TRUE,,,,,,,OVC,2400,,,,,,,MVFR,0.4,21.1,19.4,21.1,8.9,,,,,,,METAR,145.0
KRAL 210553Z AUTO 00000KT 8SM CLR 14/11 A2998 RMK AO2 SLP141 T01390106 10217 20139 51009,KRAL,2015-02-21T05:53:00Z,33.95,-117.45,13.9,10.6,0,0,,8.0,29.97933,1014.1,,TRUE,TRUE,,,,,,,CLR,,,,,,,,VFR,0.9,21.7,13.9,,,,,,,,,METAR,252.0
KRAC 210553Z AUTO 21012KT 10SM SCT035 OVC045 M07/M13 A2994 RMK AO2 SLP152 T10721133 11072 21089 410721211 55008,KRAC,2015-02-21T05:53:00Z,42.77,-87.82,-7.2,-13.3,210,12,,10.0,29.940945,1015.2,,TRUE,TRUE,,,,,,,SCT,3500,OVC,4500,,,,,VFR,-0.8,-7.2,-8.9,-7.2,-21.1,,,,,,,METAR,203.0
KPTK 210553Z AUTO 18007KT 9SM -SN OVC023 M11/M17 A3001 RMK AO2 SNB0456 SLP183 P0000 60000 T11111172 11111 21133 58021 TSNO,KPTK,2015-02-21T05:53:00Z,42.67,-83.42,-11.1,-17.2,180,7,,9.0,30.008858,1018.3,,TRUE,TRUE,,,TRUE,,,-SN,OVC,2300,,,,,,,MVFR,-2.1,-11.1,-13.3,,,0.0050,,0.0050,,,,METAR,299.0
KPSP 210553Z 31008KT 10SM CLR 22/06 A2989 RMK AO2 SLP121 T02170061 10294 20217 51014,KPSP,2015-02-21T05:53:00Z,33.82,-116.5,21.7,6.1,310,8,,10.0,29.890747,1012.1,,,TRUE,,,,,,,CLR,,,,,,,,VFR,1.4,29.4,21.7,,,,,,,,,METAR,135.0
KPRC 210553Z 07004KT 10SM CLR 10/M03 A3000 RMK AO2 SLP108 T01001028 10161 20100 51008,KPRC,2015-02-21T05:53:00Z,34.65,-112.42,10.0,-2.8,70,4,,10.0,30.0,1010.8,,,TRUE,,,,,,,CLR,,,,,,,,VFR,0.8,16.1,10.0,,,,,,,,,METAR,1524.0
KPOU 210553Z AUTO 00000KT 9SM CLR M19/M23 A3047 RMK AO2 SLP320 T11891233 11089 21189 51012,KPOU,2015-02-21T05:53:00Z,41.63,-73.88,-18.9,-23.3,0,0,,9.0,30.469488,1032.0,,TRUE,TRUE,,,,,,,CLR,,,,,,,,VFR,1.2,-8.9,-18.9,,,,,,,,,METAR,46.0
KPMD 210553Z AUTO 21010KT 8SM CLR 14/05 A2994 RMK AO2 SLP125 T01390050 10233 20133 50006,KPMD,2015-02-21T05:53:00Z,34.63,-118.08,13.9,5.0,210,10,,8.0,29.940945,1012.5,,TRUE,TRUE,,,,,,,CLR,,,,,,,,VFR,0.6,23.3,13.3,,,,,,,,,METAR,780.0
KPKB 210553Z AUTO 09003KT 10SM SCT060 M12/M20 A3020 RMK AO2 SLP241 T11221200 11100 21139 56029,KPKB,2015-02-21T05:53:00Z,39.35,-81.42,-12.2,-20.0,90,3,,10.0,30.200787,1024.1,,TRUE,TRUE,,,,,,,SCT,6000,,,,,,,VFR,-2.9,-10.0,-13.9,,,,,,,,,METAR,262.0
KPHD 210553Z AUTO 14005KT 10SM OVC075 M10/M19 A3016 RMK AO2 SLP233 T11001194 11100 21117 56030,KPHD,2015-02-21T05:53:00Z,40.47,-81.42,-10.0,-19.4,140,5,,10.0,30.159449,1023.3,,TRUE,TRUE,,,,,,,OVC,7500,,,,,,,VFR,-3.0,-10.0,-11.7,,,,,,,,,METAR,272.0
KPGA 210553Z AUTO 30007KT 10SM CLR 13/M09 A2989 RMK AO2 SLP088 T01331094 10200 20128 53013 TSNO,KPGA,2015-02-21T05:53:00Z,36.92,-111.45,13.3,-9.4,300,7,,10.0,29.890747,1008.8,,TRUE,TRUE,,,TRUE,,,,CLR,,,,,,,,VFR,1.3,20.0,12.8,,,,,,,,,METAR,1307.0
KPEO 210553Z AUTO 00000KT 10SM FEW090 BKN100 M19/M25 A3025 RMK AO2 SLP269 T11941250 11183 21244 56012,KPEO,2015-02-21T05:53:00Z,42.65,-77.05,-19.4,-25.0,0,0,,10.0,30.250984,1026.9,,TRUE,TRUE,,,,,,,FEW,9000,BKN,10000,,,,,VFR,-1.2,-18.3,-24.4,,,,,,,,,METAR,256.0
KPBG 210553Z AUTO 15004KT 10SM CLR M17/M21 A3037 RMK AO2 SLP289 T11721211 11128 21178 53017,KPBG,2015-02-21T05:53:00Z,44.65,-73.47,-17.2,-21.1,150,4,,10.0,30.369095,1028.9,,TRUE,TRUE,,,,,,,CLR,,,,,,,,VFR,1.7,-12.8,-17.8,,,,,,,,,METAR,72.0
KOXB 210553Z AUTO 00000KT 10SM CLR M21/M23 A3057 RMK AO2 SLP350 T12061233 11117 21211 51005 TSNO,KOXB,2015-02-21T05:53:00Z,38.32,-75.12,-20.6,-23.3,0,0,,10.0,30.569881,1035.0,,TRUE,TRUE,,,TRUE,,,,CLR,,,,,,,,VFR,0.5,-11.7,-21.1,,,,,,,,,METAR,3.0
KCRG 210553Z AUTO 00000KT 10SM CLR 02/M02 A3041 RMK AO2 SLP298 T00171022 10033 20006 56015,KCRG,2015-02-21T05:53:00Z,30.33,-81.52,1.7,-2.2,0,0,,10.0,30.410433,1029.8,,TRUE,TRUE,,,,,,,CLR,,,,,,,,VFR,-1.5,3.3,0.6,,,,,,,,,METAR,13.0
KCUT 210553Z AUTO 24003KT 10SM CLR M04/M08 A2986 RMK AO2 SLP139 T10441078 10011 21044 51005,KCUT,2015-02-21T05:53:00Z,43.73,-103.62,-4.4,-7.8,240,3,,10.0,29.861221,1013.9,,TRUE,TRUE,,,,,,,CLR,,,,,,,,VFR,0.5,1.1,-4.4,,,,,,,,,METAR,1725.0
KCUB 210553Z AUTO 13005KT 10SM OVC075 M01/M12 A3047 RMK AO2 SLP321 T10111122 10017 21011 55002 $,KCUB,2015-02-21T05:53:00Z,33.97,-81.0,-1.1,-12.2,130,5,,10.0,30.469488,1032.1,,TRUE,TRUE,TRUE,,,,,,OVC,7500,,,,,,,VFR,-0.2,1.7,-1.1,,,,,,,,,METAR,56.0
KDCU 210553Z AUTO 13012KT 10SM UP OVC027 00/M07 A3015 RMK AO2 UPE13B45 SLP215 P0000 60000 T00001067 10000 21028 400001072 56019,KDCU,2015-02-21T05:53:00Z,34.65,-86.95,0.0,-6.7,130,12,,10.0,30.15059,1021.5,,TRUE,TRUE,,,,,,UP,OVC,2700,,,,,,,MVFR,-1.9,0.0,-2.8,,-7.2,0.0050,,0.0050,,,,METAR,176.0
KDAB 210553Z 00000KT 10SM CLR 03/01 A3040 RMK AO2 SLP294 T00330011 10072 20028 58012,KDAB,2015-02-21T05:53:00Z,29.18,-81.07,3.3,1.1,0,0,,10.0,30.398623,1029.4,,,TRUE,,,,,,,CLR,,,,,,,,VFR,-1.2,7.2,2.8,,,,,,,,,METAR,9.0
KCYS 210553Z AUTO 35011KT 10SM SCT010 M04/M06 A2992 RMK AO2 SLP139 60001 T10391061 10000 21061 50008,KCYS,2015-02-21T05:53:00Z,41.15,-104.8,-3.9,-6.1,350,11,,10.0,29.920275,1013.9,,TRUE,TRUE,,,,,,,SCT,1000,,,,,,,VFR,0.8,0.0,-6.1,,,,,0.01,,,,METAR,1868.0
KCXO 210553Z 17014KT 10SM BKN018 OVC023 19/16 A2991 RMK AO2 RAB31E51 SLP126 P0000 60000 T01890156 10194 20183 402000100 50004,KCXO,2015-02-21T05:53:00Z,30.35,-95.42,18.9,15.6,170,14,,10.0,29.911417,1012.6,,,TRUE,,,,,,,BKN,1800,OVC,2300,,,,,MVFR,0.4,19.4,18.3,20.0,10.0,0.0050,,0.0050,,,,METAR,75.0
KDGW 210553Z AUTO 31006KT 9SM -SN OVC047 M01/M03 A2997 RMK AO2 SNB52 SLP166 P0000 60000 T10111028 10022 21028 50008,KDGW,2015-02-21T05:53:00Z,42.8,-105.38,-1.1,-2.8,310,6,,9.0,29.970472,1016.6,,TRUE,TRUE,,,,,,-SN,OVC,4700,,,,,,,VFR,0.8,2.2,-2.8,,,0.0050,,0.0050,,,,METAR,1499.0
KDEW 210553Z AUTO 00000KT 10SM CLR M03/M04 A3009 RMK AO2 SLP212 T10281044 10083 21028 50000,KDEW,2015-02-21T05:53:00Z,47.97,-117.43,-2.8,-4.4,0,0,,10.0,30.088583,1021.2,,TRUE,TRUE,,,,,,,CLR,,,,,,,,VFR,0.0,8.3,-2.8,,,,,,,,,METAR,674.0
KDHN 210553Z AUTO A3033 RMK AO2 SLPNO 6//// 58010 PWINO FZRANO $,KDHN,2015-02-21T05:53:00Z,31.32,-85.45,,,,,,,30.33071,,,TRUE,TRUE,TRUE,,,TRUE,TRUE,,,,,,,,,,,-1.0,,,,,,,,,,,METAR,113.0
KHUL 210553Z AUTO 26012G16KT 10SM CLR M16/M23 A3016 RMK AO2 SLP226 T11561228 11117 21156 51051,KHUL,2015-02-21T05:53:00Z,46.12,-67.8,-15.6,-22.8,260,12,16,10.0,30.159449,1022.6,,TRUE,TRUE,,,,,,,CLR,,,,,,,,VFR,5.1,-11.7,-15.6,,,,,,,,,METAR,150.0
KDLS 210553Z AUTO 29011KT 10SM CLR 11/04 A3018 RMK AO2 SLP219 T01060039 10139 20106 50004,KDLS,2015-02-21T05:53:00Z,45.62,-121.17,10.6,3.9,290,11,,10.0,30.180119,1021.9,,TRUE,TRUE,,,,,,,CLR,,,,,,,,VFR,0.4,13.9,10.6,,,,,,,,,METAR,71.0
KELN 210553Z AUTO 33014KT 10SM CLR 06/M01 A3014 RMK AO2 SLP213 T00561011 10100 20056 50002,KELN,2015-02-21T05:53:00Z,47.03,-120.53,5.6,-1.1,330,14,,10.0,30.138779,1021.3,,TRUE,TRUE,,,,,,,CLR,,,,,,,,VFR,0.2,10.0,5.6,,,,,,,,,METAR,519.0
KEET 210553Z AUTO 14008KT 10SM OVC025 03/M12 A3022 RMK AO2 SLP236 T00331117 10033 20017 400331061 58013,KEET,2015-02-21T05:53:00Z,33.18,-86.78,3.3,-11.7,140,8,,10.0,30.221457,1023.6,,TRUE,TRUE,,,,,,,OVC,2500,,,,,,,MVFR,-1.3,3.3,1.7,3.3,-6.1,,,,,,,METAR,173.0
KEEO 210553Z AUTO 01006KT 10SM FEW032 FEW090 M04/M06 A2996 RMK AO2 SLP152 60000 T10391056 10011 21044 50002,KEEO,2015-02-21T05:53:00Z,40.05,-107.88,-3.9,-5.6,10,6,,10.0,29.958662,1015.2,,TRUE,TRUE,,,,,,,FEW,3200,FEW,9000,,,,,VFR,0.2,1.1,-4.4,,,,,0.0050,,,,METAR,1930.0
KECP 210553Z AUTO 09004KT 10SM CLR 03/M03 A3030 RMK AO2 SLP272 T00281033 10078 20028 401061044 57011 $,KECP,2015-02-21T05:53:00Z,30.35,-85.8,2.8,-3.3,90,4,,10.0,30.301182,1027.2,,TRUE,TRUE,TRUE,,,,,,CLR,,,,,,,,VFR,-1.1,7.8,2.8,10.6,-4.4,,,,,,,METAR,21.0
KDWH 210553Z 18011G18KT 10SM -RA OVC019 20/16 A2991 RMK AO2 RAB51 SLP125 P0000 60000 T02000161 10206 20189 402170111 50002,KDWH,2015-02-21T05:53:00Z,30.07,-95.55,20.0,16.1,180,11,18,10.0,29.911417,1012.5,,,TRUE,,,,,,-RA,OVC,1900,,,,,,,MVFR,0.2,20.6,18.9,21.7,11.1,0.0050,,0.0050,,,,METAR,46.0
KDTS 210553Z AUTO 15016G22KT 10SM CLR 12/06 A3028 RMK AO2 SLP253 T01220061 10122 20106 401220000 56006 TSNO,KDTS,2015-02-21T05:53:00Z,30.4,-86.47,12.2,6.1,150,16,22,10.0,30.280512,1025.3,,TRUE,TRUE,,,TRUE,,,,CLR,,,,,,,,VFR,-0.6,12.2,10.6,12.2,,,,,,,,METAR,5.0
KDRT 210553Z AUTO 13006KT 10SM CLR 18/11 A2977 RMK AO2 SLP070 T01830111 10250 20183 402560133 53000,KDRT,2015-02-21T05:53:00Z,29.37,-100.92,18.3,11.1,130,6,,10.0,29.769686,1007.0,,TRUE,TRUE,,,,,,,CLR,,,,,,,,VFR,0.0,25.0,18.3,25.6,13.3,,,,,,,METAR,313.0
KDRO 210553Z AUTO 00000KT 10SM SCT085 00/M13 A2989 RMK AO2 SLP115 T00001128 10106 20000 53006,KDRO,2015-02-21T05:53:00Z,37.15,-107.77,0.0,-12.8,0,0,,10.0,29.890747,1011.5,,TRUE,TRUE,,,,,,,SCT,8500,,,,,,,VFR,0.6,10.6,0.0,,,,,,,,,METAR,2035.0
KDNL 210553Z AUTO 12006KT 10SM OVC060 02/M10 A3042 RMK AO2 SLP303 T00171100 10039 20017 55005,KDNL,2015-02-21T05:53:00Z,33.47,-82.03,1.7,-10.0,120,6,,10.0,30.41929,1030.3,,TRUE,TRUE,,,,,,,OVC,6000,,,,,,,VFR,-0.5,3.9,1.7,,,,,,,,,METAR,130.0
KGEY 210553Z AUTO 31007KT 10SM BKN110 01/M01 A2996 RMK AO2 SLP164 T00061011 10039 20006 51005,KGEY,2015-02-21T05:53:00Z,44.52,-108.08,0.6,-1.1,310,7,,10.0,29.958662,1016.4,,TRUE,TRUE,,,,,,,BKN,11000,,,,,,,VFR,0.5,3.9,0.6,,,,,,,,,METAR,1191.0
KGEG 210553Z 24007KT 10SM FEW200 02/M01 A3009 RMK AO2 SLP206 T00171011 10072 20006 58001,KGEG,2015-02-21T05:53:00Z,47.62,-117.53,1.7,-1.1,240,7,,10.0,30.088583,1020.6,,,TRUE,,,,,,,FEW,20000,,,,,,,VFR,-0.1,7.2,0.6,,,,,,,,,METAR,735.0
KELY 210553Z AUTO 33005KT 10SM CLR M02/M14 A3004 RMK AO2 SLP153 T10171144 10094 21017 50003,KELY,2015-02-21T05:53:00Z,39.3,-114.85,-1.7,-14.4,330,5,,10.0,30.041338,1015.3,,TRUE,TRUE,,,,,,,CLR,,,,,,,,VFR,0.3,9.4,-1.7,,,,,,,,,METAR,1906.0
KGJT 210553Z AUTO 01008KT 10SM SCT070 04/M06 A2993 RMK AO2 SLP119 T00391061 10106 20039 50008,KGJT,2015-02-21T05:53:00Z,39.12,-108.52,3.9,-6.1,10,8,,10.0,29.929134,1011.9,,TRUE,TRUE,,,,,,,SCT,7000,,,,,,,VFR,0.8,10.6,3.9,,,,,,,,,METAR,1475.0
KGIF 210553Z AUTO 03007KT 10SM CLR 06/02 A3040 RMK AO2 SLP292 T00610022 10106 20061 58009,KGIF,2015-02-21T05:53:00Z,28.07,-81.75,6.1,2.2,30,7,,10.0,30.398623,1029.2,,TRUE,TRUE,,,,,,,CLR,,,,,,,,VFR,-0.9,10.6,6.1,,,,,,,,,METAR,43.0
KGGW 210553Z AUTO 35011KT 10SM SCT019 OVC025 M05/M09 A3009 RMK AO2 SLP218 60000 T10501089 10017 21050 53027,KGGW,2015-02-21T05:53:00Z,48.22,-106.62,-5.0,-8.9,350,11,,10.0,30.088583,1021.8,,TRUE,TRUE,,,,,,,SCT,1900,OVC,2500,,,,,MVFR,2.7,1.7,-5.0,,,,,0.0050,,,,METAR,694.0
KGLD 210553Z AUTO 30005KT 10SM FEW065 M02/M06 A2992 RMK AO2 SLP144 T10221061 10061 21028 50013,KGLD,2015-02-21T05:53:00Z,39.37,-101.7,-2.2,-6.1,300,5,,10.0,29.920275,1014.4,,TRUE,TRUE,,,,,,,FEW,6500,,,,,,,VFR,1.3,6.1,-2.8,,,,,,,,,METAR,1113.0
KGLH 210553Z AUTO 18020G29KT 10SM SCT030 BKN037 13/09 A2989 RMK AO2 PK WND 18031/0529 SLP131 60000 T01280094 10133 20050 401331033 58017,KGLH,2015-02-21T05:53:00Z,33.5,-90.98,12.8,9.4,180,20,29,10.0,29.890747,1013.1,,TRUE,TRUE,,,,,,,SCT,3000,BKN,3700,,,,,VFR,-1.7,13.3,5.0,13.3,-3.3,,,0.0050,,,,METAR,45.0
KGMU 210553Z AUTO 21004KT 10SM OVC033 M01/M13 A3038 RMK AO2 SLP299 T10061128 10000 21006 58006,KGMU,2015-02-21T05:53:00Z,34.85,-82.35,-0.6,-12.8,210,4,,10.0,30.380905,1029.9,,TRUE,TRUE,,,,,,,OVC,3300,,,,,,,VFR,-0.6,0.0,-0.6,,,,,,,,,METAR,315.0
KASD 210553Z AUTO 16014G21KT 10SM OVC070 16/11 A3011 RMK AO2 PK WND 14028/0522 SLP197 T01610106 10161 20139 401611017 56010,KASD,2015-02-21T05:53:00Z,30.35,-89.82,16.1,10.6,160,14,21,10.0,30.109253,1019.7,,TRUE,TRUE,,,,,,,OVC,7000,,,,,,,VFR,-1.0,16.1,13.9,16.1,-1.7,,,,,,,METAR,9.0
KASE 210553Z AUTO 00000KT 10SM OVC065 M03/M06 A2992 RMK AO2 SLP096 60001 T10331056 10000 21039 58001,KASE,2015-02-21T05:53:00Z,39.23,-106.87,-3.3,-5.6,0,0,,10.0,29.920275,1009.6,,TRUE,TRUE,,,,,,,OVC,6500,,,,,,,VFR,-0.1,0.0,-3.9,,,,,0.01,,,,METAR,2354.0
KGRB 210553Z AUTO 19005KT 7SM OVC029 M09/M12 A2989 RMK AO2 SLP136 60004 T10941122 11094 21100 410891244 55006 $,KGRB,2015-02-21T05:53:00Z,44.48,-88.13,-9.4,-12.2,190,5,,7.0,29.890747,1013.6,,TRUE,TRUE,TRUE,,,,,,OVC,2900,,,,,,,MVFR,-0.6,-9.4,-10.0,-8.9,-24.4,,,0.04,,,,METAR,208.0
KGPT 210553Z AUTO 14014G22KT 10SM OVC080 14/11 A3015 RMK AO2 SLP207 60000 T01440106 10150 20133 401501006 56012,KGPT,2015-02-21T05:53:00Z,30.42,-89.08,14.4,10.6,140,14,22,10.0,30.15059,1020.7,,TRUE,TRUE,,,,,,,OVC,8000,,,,,,,VFR,-1.2,15.0,13.3,15.0,-0.6,,,0.0050,,,,METAR,14.0
KGNV 210553Z AUTO 00000KT 10SM CLR 01/M03 A3040 RMK AO2 SLP297 T00111028 10056 20011 58012,KGNV,2015-02-21T05:53:00Z,29.7,-82.28,1.1,-2.8,0,0,,10.0,30.398623,1029.7,,TRUE,TRUE,,,,,,,CLR,,,,,,,,VFR,-1.2,5.6,1.1,,,,,,,,,METAR,45.0
KGRI 210553Z AUTO 27008KT 10SM OVC065 02/M01 A2988 RMK AO2 SLP136 6//// T00221006 10050 20006 400781117 53015 $,KGRI,2015-02-21T05:53:00Z,40.97,-98.32,2.2,-0.6,270,8,,10.0,29.878937,1013.6,,TRUE,TRUE,TRUE,,,,,,OVC,6500,,,,,,,VFR,1.5,5.0,0.6,7.8,-11.7,,,,,,,METAR,561.0
KGSP 210553Z AUTO 16005KT 10SM OVC035 M01/M13 A3037 RMK AO2 SLP291 T10111128 10000 21011 58006,KGSP,2015-02-21T05:53:00Z,34.9,-82.22,-1.1,-12.8,160,5,,10.0,30.369095,1029.1,,TRUE,TRUE,,,,,,,OVC,3500,,,,,,,VFR,-0.6,0.0,-1.1,,,,,,,,,METAR,287.0
KGUY 210553Z AUTO 05004KT 10SM OVC100 05/M01 A2984 RMK AO2 SLP089 T00501006 10178 20050 402171056 51023,KGUY,2015-02-21T05:53:00Z,36.68,-101.5,5.0,-0.6,50,4,,10.0,29.840551,1008.9,,TRUE,TRUE,,,,,,,OVC,10000,,,,,,,VFR,2.3,17.8,5.0,21.7,-5.6,,,,,,,METAR,948.0
KGVL 210553Z AUTO 09006KT 10SM OVC039 M02/M09 A3035 RMK AO2 SLP289 60000 I6000 T10171089 11011 21028 58007,KGVL,2015-02-21T05:53:00Z,34.27,-83.83,-1.7,-8.9,90,6,,10.0,30.351377,1028.9,,TRUE,TRUE,,,,,,,OVC,3900,,,,,,,VFR,-0.7,-1.1,-2.8,,,,,0.0050,,,,METAR,386.0
KGWO 210553Z AUTO 17021G30KT 10SM BKN025 BKN029 OVC080 13/09 A2996 RMK AO2 PK WND 17030/0544 RAB01E25 SLP144 P0000 60000 T01280089 10128 20050 401281039 58017,KGWO,2015-02-21T05:53:00Z,33.5,-90.08,12.8,8.9,170,21,30,10.0,29.958662,1014.4,,TRUE,TRUE,,,,,,,BKN,2500,BKN,2900,OVC,8000,,,MVFR,-1.7,12.8,5.0,12.8,-3.9,0.0050,,0.0050,,,,METAR,44.0
KGZH 210553Z AUTO 15009G20KT 10SM OVC019 09/04 A3024 RMK AO2 SLP239 T00890039 10089 20078 401281067 56012,KGZH,2015-02-21T05:53:00Z,31.42,-87.05,8.9,3.9,150,9,20,10.0,30.239174,1023.9,,TRUE,TRUE,,,,,,,OVC,1900,,,,,,,MVFR,-1.2,8.9,7.8,12.8,-6.7,,,,,,,METAR,78.0
KHIB 210553Z AUTO 34007KT 5SM -SN OVC027 M10/M14 A2981 RMK AO2 UPB0459E02SNB34 SLP124 P0000 60000 T11001139 11072 21106 410721206 51022,KHIB,2015-02-21T05:53:00Z,47.38,-92.83,-10.0,-13.9,340,7,,5.0,29.811024,1012.4,,TRUE,TRUE,,,,,,-SN,OVC,2700,,,,,,,MVFR,2.2,-7.2,-10.6,-7.2,-20.6,0.0050,,0.0050,,,,METAR,412.0
KAAF 210553Z AUTO 14011KT 10SM CLR 13/01 A3032 RMK AO2 SLP267 T01280011 10128 20083 56009,KAAF,2015-02-21T05:53:00Z,29.73,-85.03,12.8,1.1,140,11,,10.0,30.318897,1026.7,,TRUE,TRUE,,,,,,,CLR,,,,,,,,VFR,-0.9,12.8,8.3,,,,,,,,,METAR,5.0
KABY 210553Z AUTO 08005KT 10SM CLR M01/M07 A3038 RMK AO2 SLP289 T10061067 10039 21006 58005 FZRANO,KABY,2015-02-21T05:53:00Z,31.53,-84.2,-0.6,-6.7,80,5,,10.0,30.380905,1028.9,,TRUE,TRUE,,,,TRUE,,,CLR,,,,,,,,VFR,-0.5,3.9,-0.6,,,,,,,,,METAR,58.0
KACK 210553Z AUTO 30006KT 10SM CLR M09/M17 A3047 RMK AO2 SLP319 T10941172 11072 21094 53023,KACK,2015-02-21T05:53:00Z,41.25,-70.07,-9.4,-17.2,300,6,,10.0,30.469488,1031.9,,TRUE,TRUE,,,,,,,CLR,,,,,,,,VFR,2.3,-7.2,-9.4,,,,,,,,,METAR,16.0
KACV 210553Z AUTO 00000KT 7SM CLR 07/07 A3007 RMK AO2 SLP189 T00720067 10156 20067 53002,KACV,2015-02-21T05:53:00Z,40.98,-124.1,7.2,6.7,0,0,,7.0,30.070866,1018.9,,TRUE,TRUE,,,,,,,CLR,,,,,,,,VFR,0.2,15.6,6.7,,,,,,,,,METAR,67.0
KAKO 210553Z AUTO 33003KT 10SM OVC042 01/M02 A2993 RMK AO2 SLP142 T00061022 10056 21006 51012,KAKO,2015-02-21T05:53:00Z,40.17,-103.22,0.6,-2.2,330,3,,10.0,29.929134,1014.2,,TRUE,TRUE,,,,,,,OVC,4200,,,,,,,VFR,1.2,5.6,-0.6,,,,,,,,,METAR,1421.0
KAIA 210553Z AUTO 29005KT 10SM BKN021 OVC034 M01/M02 A2992 RMK AO2 SLP147 60000 T10111022 10033 21017 51011,KAIA,2015-02-21T05:53:00Z,42.05,-102.8,-1.1,-2.2,290,5,,10.0,29.920275,1014.7,,TRUE,TRUE,,,,,,,BKN,2100,OVC,3400,,,,,MVFR,1.1,3.3,-1.7,,,,,0.0050,,,,METAR,1196.0
KAGS 210553Z AUTO 12004KT 10SM SCT065 M01/M10 A3044 RMK AO2 SLP308 T10061100 10028 21006 56005,KAGS,2015-02-21T05:53:00Z,33.37,-81.97,-0.6,-10.0,120,4,,10.0,30.43996,1030.8,,TRUE,TRUE,,,,,,,SCT,6500,,,,,,,VFR,-0.5,2.8,-0.6,,,,,,,,,METAR,44.0
KDRA 210552Z AUTO VRB04KT 10SM CLR 10/M11 A2992 RMK AO2 SLP108 T01001106 10233 20089 53012,KDRA,2015-02-21T05:52:00Z,36.62,-116.03,10.0,-10.6,0,4,,10.0,29.920275,1010.8,,TRUE,TRUE,,,,,,,CLR,,,,,,,,VFR,1.2,23.3,8.9,,,,,,,,,METAR,1006.0
KTAN 210552Z AUTO 00000KT 10SM CLR M21/M24 A3046 RMK AO2 SLP316 T12111239 11100 21211 53020,KTAN,2015-02-21T05:52:00Z,41.88,-71.02,-21.1,-23.9,0,0,,10.0,30.46063,1031.6,,TRUE,TRUE,,,,,,,CLR,,,,,,,,VFR,2.0,-10.0,-21.1,,,,,,,,,METAR,7.0
KMWH 210552Z AUTO 36009KT 10SM BKN065 OVC100 07/02 A3014 RMK AO2 SLP214 T00670022 10122 20067 51009,KMWH,2015-02-21T05:52:00Z,47.2,-119.32,6.7,2.2,360,9,,10.0,30.138779,1021.4,,TRUE,TRUE,,,,,,,BKN,6500,OVC,10000,,,,,VFR,0.9,12.2,6.7,,,,,,,,,SPECI,362.0
KMLI 210552Z 19004KT 10SM FEW060 BKN100 M05/M10 A2989 RMK AO2 SLP129 T10501100 11039 21050 410221167 58004,KMLI,2015-02-21T05:52:00Z,41.45,-90.52,-5.0,-10.0,190,4,,10.0,29.890747,1012.9,,,TRUE,,,,,,,FEW,6000,BKN,10000,,,,,VFR,-0.4,-3.9,-5.0,-2.2,-16.7,,,,,,,SPECI,184.0
KMLF 210552Z AUTO 34010KT 10SM CLR 01/M10 A2999 RMK AO2 SLP142 T00111100 10122 20011 50004 TSNO,KMLF,2015-02-21T05:52:00Z,38.42,-113.02,1.1,-10.0,340,10,,10.0,29.991142,1014.2,,TRUE,TRUE,,,TRUE,,,,CLR,,,,,,,,VFR,0.4,12.2,1.1,,,,,,,,,METAR,1534.0
KMKE 210552Z 21011KT 9SM FEW032 SCT040 OVC060 M07/M14 A2992 RMK AO2 SLP146 4/006 60000 T10721139 11072 21089 410721211 55008,KMKE,2015-02-21T05:52:00Z,42.95,-87.9,-7.2,-13.9,210,11,,9.0,29.920275,1014.6,,,TRUE,,,,,,,FEW,3200,SCT,4000,OVC,6000,,,VFR,-0.8,-7.2,-8.9,-7.2,-21.1,,,,,6.0,,SPECI,206.0
KMFD 210552Z AUTO 17009KT 10SM OVC038 M11/M19 A3007 RMK AO2 SLP209 T11061189 11106 21128 58019,KMFD,2015-02-21T05:52:00Z,40.82,-82.52,-10.6,-18.9,170,9,,10.0,30.070866,1020.9,,TRUE,TRUE,,,,,,,OVC,3800,,,,,,,VFR,-1.9,-10.6,-12.8,,,,,,,,,METAR,395.0
KMEB 210552Z AUTO 13005KT 10SM CLR M04/M12 A3051 RMK AO2 SLP332 T10441122 11033 21056 55003,KMEB,2015-02-21T05:52:00Z,34.78,-79.37,-4.4,-12.2,130,5,,10.0,30.510826,1033.2,,TRUE,TRUE,,,,,,,CLR,,,,,,,,VFR,-0.3,-3.3,-5.6,,,,,,,,,SPECI,67.0
KIOW 210552Z AUTO 17007KT 10SM OVC029 M03/M06 A2988 RMK AO2 SLP129 T10331061 11017 21033 410061150 58000,KIOW,2015-02-21T05:52:00Z,41.63,-91.55,-3.3,-6.1,170,7,,10.0,29.878937,1012.9,,TRUE,TRUE,,,,,,,OVC,2900,,,,,,,MVFR,0.0,-1.7,-3.3,-0.6,-15.0,,,,,,,METAR,198.0
KIJD 210552Z AUTO 00000KT 7SM CLR M21/M25 A3048 RMK AO2 SLP327 T12111250 11100 21222 53019,KIJD,2015-02-21T05:52:00Z,41.75,-72.18,-21.1,-25.0,0,0,,7.0,30.481298,1032.7,,TRUE,TRUE,,,,,,,CLR,,,,,,,,VFR,1.9,-10.0,-22.2,,,,,,,,,METAR,75.0
KIAD 210552Z 18003KT 10SM CLR M12/M23 A3045 RMK AO2 SLP319 T11171228 11094 21122 58008,KIAD,2015-02-21T05:52:00Z,38.93,-77.45,-11.7,-22.8,180,3,,10.0,30.448818,1031.9,,,TRUE,,,,,,,CLR,,,,,,,,VFR,-0.8,-9.4,-12.2,,,,,,,,,METAR,93.0
KHIE 210552Z AUTO 00000KT 10SM CLR M30/M32 A3029 RMK AO2 SLP295 I6000 T13001322 11156 21300 51020,KHIE,2015-02-21T05:52:00Z,44.37,-71.55,-30.0,-32.2,0,0,,10.0,30.28937,1029.5,,TRUE,TRUE,,,,,,,CLR,,,,,,,,VFR,2.0,-15.6,-30.0,,,,,,,,,METAR,318.0
KGLS 210552Z AUTO 17018KT 10SM BKN034 BKN044 OVC060 18/17 A2995 RMK AO2 PK WND 16026/0457 SLP142 T01830167 10183 20172 402060150 56004,KGLS,2015-02-21T05:52:00Z,29.27,-94.87,18.3,16.7,170,18,,10.0,29.949802,1014.2,,TRUE,TRUE,,,,,,,BKN,3400,BKN,4400,OVC,6000,,,VFR,-0.4,18.3,17.2,20.6,15.0,,,,,,,METAR,6.0
KFIT 210552Z AUTO 00000KT 10SM CLR M19/M24 A3042 RMK AO2 SLP309 T11891239 11106 21194 51016,KFIT,2015-02-21T05:52:00Z,42.55,-71.75,-18.9,-23.9,0,0,,10.0,30.41929,1030.9,,TRUE,TRUE,,,,,,,CLR,,,,,,,,VFR,1.6,-10.6,-19.4,,,,,,,,,METAR,103.0
KDVN 210552Z AUTO 18011KT 10SM FEW029 BKN055 M06/M11 A2988 RMK AO2 SLP130 T10561106 11033 21056 410281167 58004,KDVN,2015-02-21T05:52:00Z,41.62,-90.58,-5.6,-10.6,180,11,,10.0,29.878937,1013.0,,TRUE,TRUE,,,,,,,FEW,2900,BKN,5500,,,,,VFR,-0.4,-3.3,-5.6,-2.8,-16.7,,,,,,,METAR,230.0
KDPA 210552Z 19010KT 10SM OVC018 M08/M13 A2994 RMK AO2 SLP152 T10831128 11083 21089 410831228 56008,KDPA,2015-02-21T05:52:00Z,41.92,-88.25,-8.3,-12.8,190,10,,10.0,29.940945,1015.2,,,TRUE,,,,,,,OVC,1800,,,,,,,MVFR,-0.8,-8.3,-8.9,-8.3,-22.8,,,,,,,METAR,231.0
KDDC 210552Z AUTO 06010KT 10SM BKN120 01/M02 A2981 RMK AO2 RAE0457 PRESFR SLP102 P0000 60000 T00111022 10106 20011 401391050 50000,KDDC,2015-02-21T05:52:00Z,37.77,-99.97,1.1,-2.2,60,10,,10.0,29.811024,1010.2,,TRUE,TRUE,,,,,,,BKN,12000,,,,,,,VFR,0.0,10.6,1.1,13.9,-5.0,0.0050,,0.0050,,,,METAR,789.0
KDCA 210552Z 19008KT 10SM CLR M09/M19 A3050 RMK AO2 SLP328 4/003 T10891189 11072 21094 58006,KDCA,2015-02-21T05:52:00Z,38.85,-77.03,-8.9,-18.9,190,8,,10.0,30.499016,1032.8,,,TRUE,,,,,,,CLR,,,,,,,,VFR,-0.6,-7.2,-9.4,,,,,,,3.0,,METAR,18.0
KCQX 210552Z AUTO 26004KT 10SM CLR M12/M20 A3046 RMK AO2 SLP318 T11221200 11089 21122 52026,KCQX,2015-02-21T05:52:00Z,41.68,-70.0,-12.2,-20.0,260,4,,10.0,30.46063,1031.8,,TRUE,TRUE,,,,,,,CLR,,,,,,,,VFR,2.6,-8.9,-12.2,,,,,,,,,METAR,19.0
KCNU 210552Z AUTO 02005KT 6SM BR OVC004 00/M01 A2985 RMK AO2 UPB01E41 SLP112 P0000 60003 T00001006 10017 20000 400331072 50003,KCNU,2015-02-21T05:52:00Z,37.67,-95.48,0.0,-0.6,20,5,,6.0,29.84941,1011.2,,TRUE,TRUE,,,,,,BR,OVC,400,,,,,,,LIFR,0.3,1.7,0.0,3.3,-7.2,0.0050,,0.03,,,,METAR,297.0
KCLT 210552Z 16007KT 10SM FEW080 SCT100 BKN250 M03/M16 A3042 RMK AO2 SLP309 T10331161 11011 21039 56007,KCLT,2015-02-21T05:52:00Z,35.22,-80.95,-3.3,-16.1,160,7,,10.0,30.41929,1030.9,,,TRUE,,,,,,,FEW,8000,SCT,10000,BKN,25000,,,VFR,-0.7,-1.1,-3.9,,,,,,,,,METAR,220.0
KCID 210552Z AUTO 19008KT 8SM OVC031 M03/M05 A2984 RMK AO2 SLP116 T10281050 11011 21028 410111150 55002,KCID,2015-02-21T05:52:00Z,41.88,-91.72,-2.8,-5.0,190,8,,8.0,29.840551,1011.6,,TRUE,TRUE,,,,,,,OVC,3100,,,,,,,VFR,-0.2,-1.1,-2.8,-1.1,-15.0,,,,,,,METAR,264.0
KBML 210552Z AUTO 00000KT 10SM CLR M26/M29 A3026 RMK AO2 SLP283 T12611294 11144 21261 52025,KBML,2015-02-21T05:52:00Z,44.58,-71.18,-26.1,-29.4,0,0,,10.0,30.259842,1028.3,,TRUE,TRUE,,,,,,,CLR,,,,,,,,VFR,2.5,-14.4,-26.1,,,,,,,,,METAR,345.0
KBLH 210552Z AUTO 19004KT 10SM CLR 18/02 A2985 RMK AO2 SLP103 T01830022 10261 20178 51010,KBLH,2015-02-21T05:52:00Z,33.62,-114.72,18.3,2.2,190,4,,10.0,29.84941,1010.3,,TRUE,TRUE,,,,,,,CLR,,,,,,,,VFR,1.0,26.1,17.8,,,,,,,,,METAR,119.0
KBLF 210552Z AUTO 14007KT 10SM FEW050 M06/M18 A3013 RMK AO2 SLP243 T10611178 11056 21061 58016,KBLF,2015-02-21T05:52:00Z,37.3,-81.2,-6.1,-17.8,140,7,,10.0,30.129921,1024.3,,TRUE,TRUE,,,,,,,FEW,5000,,,,,,,VFR,-1.6,-5.6,-6.1,,,,,,,,,METAR,873.0
KBDR 210552Z AUTO 00000KT 10SM CLR M12/M20 A3050 RMK AO2 SLP329 T11221200 11083 21128 51018,KBDR,2015-02-21T05:52:00Z,41.17,-73.13,-12.2,-20.0,0,0,,10.0,30.499016,1032.9,,TRUE,TRUE,,,,,,,CLR,,,,,,,,VFR,1.8,-8.3,-12.8,,,,,,,,,METAR,7.0
KARR 210552Z 18011KT 8SM OVC016 M08/M13 A2995 RMK AO2 SLP156 T10781128 11072 21083 410721244 56007,KARR,2015-02-21T05:52:00Z,41.77,-88.48,-7.8,-12.8,180,11,,8.0,29.949802,1015.6,,,TRUE,,,,,,,OVC,1600,,,,,,,MVFR,-0.7,-7.2,-8.3,-7.2,-24.4,,,,,,,METAR,215.0
KAQW 210552Z AUTO 00000KT 10SM CLR M24/M27 A3041 RMK AO2 SLP318 T12391272 11139 21244 51012,KAQW,2015-02-21T05:52:00Z,42.7,-73.17,-23.9,-27.2,0,0,,10.0,30.410433,1031.8,,TRUE,TRUE,,,,,,,CLR,,,,,,,,VFR,1.2,-13.9,-24.4,,,,,,,,,METAR,199.0
KALS 210552Z AUTO 00000KT 10SM CLR M07/M11 A2989 RMK AO2 SLP108 T10671111 10083 21072 51010,KALS,2015-02-21T05:52:00Z,37.43,-105.87,-6.7,-11.1,0,0,,10.0,29.890747,1010.8,,TRUE,TRUE,,,,,,,CLR,,,,,,,,VFR,1.0,8.3,-7.2,,,,,,,,,METAR,2299.0
KAFN 210552Z AUTO 00000KT 10SM CLR M22/M25 A3033 RMK AO2 SLP305 T12171250 11128 21233 51015,KAFN,2015-02-21T05:52:00Z,42.8,-72.0,-21.7,-25.0,0,0,,10.0,30.33071,1030.5,,TRUE,TRUE,,,,,,,CLR,,,,,,,,VFR,1.5,-12.8,-23.3,,,,,,,,,METAR,313.0
KABI 210552Z 21015KT 10SM CLR 18/08 A2969 RMK AO2 PK WND 21026/0523 SLP036 T01830083 10239 20183 402670117 53007,KABI,2015-02-21T05:52:00Z,32.42,-99.68,18.3,8.3,210,15,,10.0,29.68996,1003.6,,,TRUE,,,,,,,CLR,,,,,,,,VFR,0.7,23.9,18.3,26.7,11.7,,,,,,,METAR,548.0
KP69 210552Z AUTO 32004KT 03/03 A3016 RMK AO1 SLP229 60006 T00330028 10056 20033 50000,KP69,2015-02-21T05:52:00Z,46.15,-115.6,3.3,2.8,320,4,,,30.159449,1022.9,,TRUE,TRUE,,,,,,,,,,,,,,,,0.0,5.6,3.3,,,,,0.06,,,,METAR,480.0
KN60 210552Z AUTO 36003KT M09/M11 A2997 RMK AO1 SLP181 T10891106 11050 21094 400171094 51024,KN60,2015-02-21T05:52:00Z,47.65,-101.43,-8.9,-10.6,360,3,,,29.970472,1018.1,,TRUE,TRUE,,,,,,,,,,,,,,,,2.4,-5.0,-9.4,1.7,-9.4,,,,,,,METAR,582.0
KREO 210552Z AUTO 00000KT 03/M06 A3008 RMK AO1 SLP191 T00281056 10100 20028 51001,KREO,2015-02-21T05:52:00Z,42.58,-117.87,2.8,-5.6,0,0,,,30.079725,1019.1,,TRUE,TRUE,,,,,,,,,,,,,,,,0.1,10.0,2.8,,,,,,,,,METAR,1235.0
KNRB 210552Z AUTO 12006KT 10SM CLR 07/01 A3041 RMK AO2 SLP296 T00720006 10072 20039 58017 $,KNRB,2015-02-21T05:52:00Z,30.38,-81.42,7.2,0.6,120,6,,10.0,30.410433,1029.6,,TRUE,TRUE,TRUE,,,,,,CLR,,,,,,,,VFR,-1.7,7.2,3.9,,,,,,,,,METAR,5.0
KBLU 210552Z AUTO 06003KT 10SM CLR 09/02 A3006 RMK AO2 SLP132 T00940022 10139 20089 53003,KBLU,2015-02-21T05:52:00Z,39.28,-120.7,9.4,2.2,60,3,,10.0,30.059055,1013.2,,TRUE,TRUE,,,,,,,CLR,,,,,,,,VFR,0.3,13.9,8.9,,,,,,,,,METAR,1609.0
KNHK 210552Z AUTO 17004KT 10SM CLR M12/M20 A3052 RMK AO2 SLP334 T11221200 11106 21189 58004,KNHK,2015-02-21T05:52:00Z,38.27,-76.4,-12.2,-20.0,170,4,,10.0,30.519686,1033.4,,TRUE,TRUE,,,,,,,CLR,,,,,,,,VFR,-0.4,-10.6,-18.9,,,,,,,,,METAR,12.0
KMHK 210552Z AUTO 00000KT 4SM -RA BR FEW010 OVC048 02/01 A2990 RMK AO2 UPB21E31RAB31 SLP134 P0000 60000 T00170006 10028 20011 400281111 51020 TSNO,KMHK,2015-02-21T05:52:00Z,39.13,-96.68,1.7,0.6,0,0,,4.0,29.899607,1013.4,,TRUE,TRUE,,,TRUE,,,-RA BR,FEW,1000,OVC,4800,,,,,MVFR,2.0,2.8,1.1,2.8,-11.1,0.0050,,0.0050,,,,METAR,317.0
KHRL 210552Z 17019G26KT 9SM BKN014 OVC024 20/18 A2988 RMK AO2 PK WND 17026/0550 SLP118 T02000178 10222 20194 402670150 58004,KHRL,2015-02-21T05:52:00Z,26.23,-97.65,20.0,17.8,170,19,26,9.0,29.878937,1011.8,,,TRUE,,,,,,,BKN,1400,OVC,2400,,,,,MVFR,-0.4,22.2,19.4,26.7,15.0,,,,,,,METAR,10.0
KVTN 210552Z AUTO 29005KT 10SM OVC050 01/M02 A2989 RMK AO2 SLP138 60000 T00061017 10061 21017 401001050 50008,KVTN,2015-02-21T05:52:00Z,42.87,-100.55,0.6,-1.7,290,5,,10.0,29.890747,1013.8,,TRUE,TRUE,,,,,,,OVC,5000,,,,,,,VFR,0.8,6.1,-1.7,10.0,-5.0,,,0.0050,,,,METAR,788.0
KSUX 210552Z 33008KT 10SM BKN085 02/M02 A2984 RMK AO2 SLP112 T00221022 10050 21039 400941094 53013,KSUX,2015-02-21T05:52:00Z,42.38,-96.38,2.2,-2.2,330,8,,10.0,29.840551,1011.2,,,TRUE,,,,,,,BKN,8500,,,,,,,VFR,1.3,5.0,-3.9,9.4,-9.4,,,,,,,METAR,338.0
KBAN 210552Z AUTO 00000KT 10SM CLR M01/M07 A3007 RMK AO2 SLP171 T10061067 10150 21006 50005 $,KBAN,2015-02-21T05:52:00Z,38.35,-119.52,-0.6,-6.7,0,0,,10.0,30.070866,1017.1,,TRUE,TRUE,TRUE,,,,,,CLR,,,,,,,,VFR,0.5,15.0,-0.6,,,,,,,,,METAR,2057.0
KCDJ 210552Z AUTO 00000KT 00/M01 A2988 RMK AO1 SLP132 60016 T00001011 10011 21006 400111100 55002,KCDJ,2015-02-21T05:52:00Z,39.82,-93.58,0.0,-1.1,0,0,,,29.878937,1013.2,,TRUE,TRUE,,,,,,,,,,,,,,,,-0.2,1.1,-0.6,1.1,-10.0,,,0.16,,,,METAR,234.0
KCZZ 210552Z AUTO 02005KT 04/02 A2996 RMK AO1 SLP130 T00390022 10178 20039 53008,KCZZ,2015-02-21T05:52:00Z,32.63,-116.47,3.9,2.2,20,5,,,29.958662,1013.0,,TRUE,TRUE,,,,,,,,,,,,,,,,0.8,17.8,3.9,,,,,,,,,METAR,807.0
KNFW 210552Z AUTO 19020G26KT 10SM CLR 19/16 A2972 RMK AO2 PK WND 19028/0522 SLP049 T01890156 10217 20189 402330100 51002 $,KNFW,2015-02-21T05:52:00Z,32.78,-97.43,18.9,15.6,190,20,26,10.0,29.719488,1004.9,,TRUE,TRUE,TRUE,,,,,,CLR,,,,,,,,VFR,0.2,21.7,18.9,23.3,10.0,,,,,,,METAR,198.0
KABQ 210552Z 21005KT 10SM BKN220 11/M08 A2990 RMK AO2 WSHFT 0451 SLP081 T01111078 10183 20094 51017,KABQ,2015-02-21T05:52:00Z,35.05,-106.62,11.1,-7.8,210,5,,10.0,29.899607,1008.1,,,TRUE,,,,,,,BKN,22000,,,,,,,VFR,1.7,18.3,9.4,,,,,,,,,METAR,1618.0
KOKB 210552Z AUTO 00000KT 10SM OVC021 16/11 A2997 RMK AO2 SLP148 T01610111 10172 20156 53007,KOKB,2015-02-21T05:52:00Z,33.22,-117.35,16.1,11.1,0,0,,10.0,29.970472,1014.8,,TRUE,TRUE,,,,,,,OVC,2100,,,,,,,MVFR,0.7,17.2,15.6,,,,,,,,,SPECI,8.0
KORE 210552Z AUTO 00000KT 9SM CLR M24/M26 A3041 RMK AO2 SLP316 T12391256 11117 21244 51014,KORE,2015-02-21T05:52:00Z,42.57,-72.28,-23.9,-25.6,0,0,,9.0,30.410433,1031.6,,TRUE,TRUE,,,,,,,CLR,,,,,,,,VFR,1.4,-11.7,-24.4,,,,,,,,,SPECI,164.0
KOMA 210552Z 14005KT 10SM FEW140 OVC170 M01/M05 A2984 RMK AO2 SLP115 T10111050 10033 21017 400501100 53006,KOMA,2015-02-21T05:52:00Z,41.32,-95.9,-1.1,-5.0,140,5,,10.0,29.840551,1011.5,,,TRUE,,,,,,,FEW,14000,OVC,17000,,,,,VFR,0.6,3.3,-1.7,5.0,-10.0,,,,,,,SPECI,312.0
KOKC 210552Z 36016G20KT 1/2SM -DZ BR OVC002 06/04 A2975 RMK AO2 SFC VIS 2 1/2 SLP074 P0000 60000 T00560039 10089 20056 401000028 53023,KOKC,2015-02-21T05:52:00Z,35.38,-97.6,5.6,3.9,360,16,20,0.5,29.749016,1007.4,,,TRUE,,,,,,-DZ BR,OVC,200,,,,,,,LIFR,2.3,8.9,5.6,10.0,2.8,0.0050,,,,,,SPECI,390.0
KPWK 210552Z AUTO 20010KT 10SM FEW019 OVC038 M08/M13 A2997 RMK AO2 SLP161 T10781133 11078 21083 410781228 56008,KPWK,2015-02-21T05:52:00Z,42.12,-87.9,-7.8,-13.3,200,10,,10.0,29.970472,1016.1,,TRUE,TRUE,,,,,,,FEW,1900,OVC,3800,,,,,VFR,-0.8,-7.8,-8.3,-7.8,-22.8,,,,,,,SPECI,203.0
KRAP 210552Z AUTO 32010KT 10SM FEW047 BKN060 OVC090 01/M02 A2990 RMK AO2 SLP142 T00111022 10056 21017 53008,KRAP,2015-02-21T05:52:00Z,44.05,-103.05,1.1,-2.2,320,10,,10.0,29.899607,1014.2,,TRUE,TRUE,,,,,,,FEW,4700,BKN,6000,OVC,9000,,,VFR,0.8,5.6,-1.7,,,,,,,,,SPECI,965.0
KPYM 210552Z AUTO 22004KT 10SM CLR M17/M23 A3046 RMK AO2 SLP318 T11721228 11100 21183 53021,KPYM,2015-02-21T05:52:00Z,41.92,-70.73,-17.2,-22.8,220,4,,10.0,30.46063,1031.8,,TRUE,TRUE,,,,,,,CLR,,,,,,,,VFR,2.1,-10.0,-18.3,,,,,,,,,SPECI,43.0
KTRM 210552Z AUTO 30004KT 10SM CLR 14/05 A2984 RMK AO2 SLP107 T01390050 10267 20139 51012 TSNO,KTRM,2015-02-21T05:52:00Z,33.63,-116.17,13.9,5.0,300,4,,10.0,29.840551,1010.7,,TRUE,TRUE,,,TRUE,,,,CLR,,,,,,,,VFR,1.2,26.7,13.9,,,,,,,,,SPECI,-35.0
KTOL 210552Z 18007G14KT 10SM OVC023 M09/M17 A3005 RMK AO2 SLP189 T10941167 11094 21117 56027,KTOL,2015-02-21T05:52:00Z,41.58,-83.8,-9.4,-16.7,180,7,14,10.0,30.050198,1018.9,,,TRUE,,,,,,,OVC,2300,,,,,,,MVFR,-2.7,-9.4,-11.7,,,,,,,,,METAR,210.0
KSPS 210552Z AUTO 18007KT 8SM CLR 09/08 A2958 RMK AO2 SLP011 T00890078 10211 20083 402390044 58004,KSPS,2015-02-21T05:52:00Z,33.98,-98.5,8.9,7.8,180,7,,8.0,29.58071,1001.1,,TRUE,TRUE,,,,,,,CLR,,,,,,,,VFR,-0.4,21.1,8.3,23.9,4.4,,,,,,,METAR,308.0
PTTP 210552Z 04008KT 15SM FEW018 31/25 A2978 RMK SLP085 8/100 T03060253 10322 20293 55008,PTTP,2015-02-21T05:52:00Z,6.97,158.22,30.6,25.3,40,8,,15.0,29.778543,1008.5,,,,,,,,,,FEW,1800,,,,,,,VFR,-0.8,32.2,29.3,,,,,,,,,METAR,2.0
MMTJ 210552Z 00000KT 4SM OVC018 15/10 A2999 RMK SLP163 54004 978 8/6// HZY,MMTJ,2015-02-21T05:52:00Z,32.53,-116.97,15.0,10.0,0,0,,4.0,29.991142,1016.3,,,,,,,,,,OVC,1800,,,,,,,MVFR,,,,,,,,,,,,METAR,152.0
PATA 210552Z 00000KT 10SM SCT130 M08/M12 A3012 RMK AO2 SLP205 T10831117 11056 21083 58012,PATA,2015-02-21T05:52:00Z,65.17,-152.1,-8.3,-11.7,0,0,,10.0,30.121063,1020.5,,,TRUE,,,,,,,SCT,13000,,,,,,,VFR,-1.2,-5.6,-8.3,,,,,,,,,METAR,67.0
MUCC 210552Z 07017KT 9000 SCT020 20/12 Q1022,MUCC,2015-02-21T05:52:00Z,22.47,-78.33,20.0,12.0,70,17,,5.59,30.177166,,,,,,,,,,,SCT,2000,,,,,,,VFR,,,,,,,,,,,,METAR,4.0
MUSC 210552Z 06011KT 9000 BKN040 17/11 Q1023,MUSC,2015-02-21T05:52:00Z,22.5,-79.95,17.0,11.0,60,11,,5.59,30.206694,,,,,,,,,,,BKN,4000,,,,,,,VFR,,,,,,,,,,,,METAR,103.0
KGDP 210551Z AUTO 26025G41KT 10SM CLR 13/M08 A2995 RMK AO2 PK WND 27046/0513 SLP081 T01331078 10161 20133 53010,KGDP,2015-02-21T05:51:00Z,31.83,-104.82,13.3,-7.8,260,25,41,10.0,29.949802,1008.1,,TRUE,TRUE,,,,,,,CLR,,,,,,,,VFR,1.0,16.1,13.3,,,,,,,,,METAR,1692.0
KP58 210551Z AUTO 18004KT M13/M16 A3003 RMK AO1 SLP191 P0001 60003 T11281156 11128 21144 58021,KP58,2015-02-21T05:51:00Z,44.02,-82.8,-12.8,-15.6,180,4,,,30.029528,1019.1,,TRUE,TRUE,,,,,,,,,,,,,,,,-2.1,-12.8,-14.4,,,0.01,,0.03,,,,METAR,179.0
PTYA 210551Z 05014G22KT 12SM SCT016TCU BKN300 29/22 A2982 RMK TCU S-W SLP100 60002 8/201 T02870221 10293 20278 57007,PTYA,2015-02-21T05:51:00Z,9.48,138.08,28.7,22.1,50,14,22,12.0,29.819881,1010.0,,,,,,,,,,SCT,1600,BKN,30000,,,,,VFR,-0.7,29.3,27.8,,,,,0.02,,,,METAR,17.0
KEKN 210551Z AUTO 00000KT 9SM CLR M21/M23 A3018 RMK AO2 SLP551 T12111228 11156 21211 58010 TSNO,KEKN,2015-02-21T05:51:00Z,38.88,-79.85,-21.1,-22.8,0,0,,9.0,30.180119,955.1,,TRUE,TRUE,,,TRUE,,,,CLR,,,,,,,,VFR,-1.0,-15.6,-21.1,,,,,,,,,METAR,603.0
KDAW 210551Z AUTO VRB03KT 10SM CLR M15/M22 A3037 RMK AO2 SLP290 T11501217 11106 21156 51021,KDAW,2015-02-21T05:51:00Z,43.28,-70.92,-15.0,-21.7,0,3,,10.0,30.369095,1029.0,,TRUE,TRUE,,,,,,,CLR,,,,,,,,VFR,2.1,-10.6,-15.6,,,,,,,,,METAR,100.0
KCSG 210551Z AUTO 10005KT 10SM SCT110 00/M12 A3033 RMK AO2 SLP273 T00001122 10017 20000 56009,KCSG,2015-02-21T05:51:00Z,32.52,-84.95,0.0,-12.2,100,5,,10.0,30.33071,1027.3,,TRUE,TRUE,,,,,,,SCT,11000,,,,,,,VFR,-0.9,1.7,0.0,,,,,,,,,METAR,135.0
KCON 210551Z AUTO 27011KT 10SM CLR M14/M21 A3039 RMK AO2 SLP299 T11441211 11111 21161 51021,KCON,2015-02-21T05:51:00Z,43.2,-71.5,-14.4,-21.1,270,11,,10.0,30.389763,1029.9,,TRUE,TRUE,,,,,,,CLR,,,,,,,,VFR,2.1,-11.1,-16.1,,,,,,,,,METAR,103.0
KCMH 210551Z 15007KT 10SM OVC041 M09/M19 A3012 RMK AO2 SLP217 4/002 T10941194 11094 21106 58026,KCMH,2015-02-21T05:51:00Z,40.0,-82.88,-9.4,-19.4,150,7,,10.0,30.121063,1021.7,,,TRUE,,,,,,,OVC,4100,,,,,,,VFR,-2.6,-9.4,-10.6,,,,,,,2.0,,METAR,247.0
KCLE 210551Z 18014KT 10SM OVC075 M09/M19 A3013 RMK AO2 SLP220 4/006;6;7;8;9C[3[3V06 T10941194 11094 21128 58025,KCLE,2015-02-21T05:51:00Z,41.42,-81.85,-9.4,-19.4,180,14,,10.0,30.129921,1022.0,,,TRUE,,,,,,,OVC,7500,,,,,,,VFR,-2.5,-9.4,-12.8,,,,,,,6.0,,METAR,233.0
KCAK 210551Z 16008KT 10SM FEW055 OVC070 M11/M20 A3011 RMK AO2 SLP224 4/007 T11061200 11106 21128 56025 $,KCAK,2015-02-21T05:51:00Z,40.92,-81.45,-10.6,-20.0,160,8,,10.0,30.109253,1022.4,,,TRUE,TRUE,,,,,,FEW,5500,OVC,7000,,,,,VFR,-2.5,-10.6,-12.8,,,,,,,7.0,,METAR,377.0
KBKW 210551Z AUTO 14013G19KT 10SM FEW050 M08/M18 A3013 RMK AO2 SLP260 T10781183 11078 21100 58017,KBKW,2015-02-21T05:51:00Z,37.8,-81.12,-7.8,-18.3,140,13,19,10.0,30.129921,1026.0,,TRUE,TRUE,,,,,,,FEW,5000,,,,,,,VFR,-1.7,-7.8,-10.0,,,,,,,,,METAR,764.0
KBGD 210551Z AUTO 03014G25KT 10SM BKN050 07/M02 A2986 RMK AO2 PK WND 02033/0458 SLP098 T00671022 10211 20067 402331017 51082,KBGD,2015-02-21T05:51:00Z,35.7,-101.4,6.7,-2.2,30,14,25,10.0,29.861221,1009.8,,TRUE,TRUE,,,,,,,BKN,5000,,,,,,,VFR,8.2,21.1,6.7,23.3,-1.7,,,,,,,METAR,927.0
KBDL 210551Z 00000KT 10SM CLR M17/M23 A3046 RMK AO2 SLP319 4/020 T11671228 11100 21200 53016,KBDL,2015-02-21T05:51:00Z,41.93,-72.68,-16.7,-22.8,0,0,,10.0,30.46063,1031.9,,,TRUE,,,,,,,CLR,,,,,,,,VFR,1.6,-10.0,-20.0,,,,,,,20.0,,METAR,60.0
KAVX 210551Z AUTO 11004KT 8SM OVC006 11/09 A2999 RMK AO2 SLP150 T01110094 10128 20106 53010,KAVX,2015-02-21T05:51:00Z,33.4,-118.42,11.1,9.4,110,4,,8.0,29.991142,1015.0,,TRUE,TRUE,,,,,,,OVC,600,,,,,,,IFR,1.0,12.8,10.6,,,,,,,,,METAR,482.0
KASH 210551Z AUTO 00000KT 10SM CLR M18/M23 A3043 RMK AO2 FZRANO 51019 T11831227 11100 21183 SLP578 $,KASH,2015-02-21T05:51:00Z,42.78,-71.52,-18.3,-22.7,0,0,,10.0,30.431103,957.8,,TRUE,TRUE,TRUE,,,TRUE,,,CLR,,,,,,,,VFR,1.9,-10.0,-18.3,,,,,,,,,METAR,61.0
KALB 210551Z 00000KT 10SM FEW270 M21/M24 A3044 RMK AO2 SLP316 4/013 T12061239 11122 21217 51007,KALB,2015-02-21T05:51:00Z,42.75,-73.8,-20.6,-23.9,0,0,,10.0,30.43996,1031.6,,,TRUE,,,,,,,FEW,27000,,,,,,,VFR,0.7,-12.2,-21.7,,,,,,,13.0,,METAR,92.0
KAHN 210551Z AUTO 10005KT 10SM OVC041 00/M08 A3037 RMK AO2 SLP292 60000 T00001083 10011 20000 58008,KAHN,2015-02-21T05:51:00Z,33.95,-83.33,0.0,-8.3,100,5,,10.0,30.369095,1029.2,,TRUE,TRUE,,,,,,,OVC,4100,,,,,,,VFR,-0.8,1.1,0.0,,,,,0.0050,,,,METAR,244.0
KACT 210551Z 19020G31KT 10SM OVC021 19/14 A2976 RMK AO2 PK WND 19033/0533 SLP073 T01890144 10211 20183 402280106 58002,KACT,2015-02-21T05:51:00Z,31.62,-97.23,18.9,14.4,190,20,31,10.0,29.760826,1007.3,,,TRUE,,,,,,,OVC,2100,,,,,,,MVFR,-0.2,21.1,18.3,22.8,10.6,,,,,,,METAR,151.0
KABE 210551Z AUTO 00000KT 10SM CLR M18/M24 A3046 RMK AO2 SLP326 T11781239 11122 21189 53005 TSNO,KABE,2015-02-21T05:51:00Z,40.65,-75.45,-17.8,-23.9,0,0,,10.0,30.46063,1032.6,,TRUE,TRUE,,,TRUE,,,,CLR,,,,,,,,VFR,0.5,-12.2,-18.9,,,,,,,,,METAR,114.0
KORD 210551Z 20008KT 10SM OVC020 M08/M13 A2995 RMK AO2 SLP154 4/005 T10831133 11078 21089 410781217 56008 $,KORD,2015-02-21T05:51:00Z,41.98,-87.93,-8.3,-13.3,200,8,,10.0,29.949802,1015.4,,,TRUE,TRUE,,,,,,OVC,2000,,,,,,,MVFR,-0.8,-7.8,-8.9,-7.8,-21.7,,,,,5.0,,METAR,200.0
KMYL 210551Z AUTO 00000KT 10SM OVC060 M02/M04 A3003 RMK AO2 SLP191 T10171039 10033 21022 50002,KMYL,2015-02-21T05:51:00Z,44.9,-116.1,-1.7,-3.9,0,0,,10.0,30.029528,1019.1,,TRUE,TRUE,,,,,,,OVC,6000,,,,,,,VFR,0.2,3.3,-2.2,,,,,,,,,METAR,1533.0
KMPV 210551Z AUTO 18003KT 10SM CLR M21/M24 A3032 RMK AO2 SLP303 T12061244 11139 21206 53017 $,KMPV,2015-02-21T05:51:00Z,44.2,-72.57,-20.6,-24.4,180,3,,10.0,30.318897,1030.3,,TRUE,TRUE,TRUE,,,,,,CLR,,,,,,,,VFR,1.7,-13.9,-20.6,,,,,,,,,METAR,343.0
KLGU 210551Z AUTO 22005KT 10SM OVC048 02/M01 A3002 RMK AO2 SLP155 T00171011 10067 20017 52001,KLGU,2015-02-21T05:51:00Z,41.78,-111.85,1.7,-1.1,220,5,,10.0,30.02067,1015.5,,TRUE,TRUE,,,,,,,OVC,4800,,,,,,,VFR,0.1,6.7,1.7,,,,,,,,,METAR,1355.0
KLGA 210551Z 27008KT 10SM CLR M09/M21 A3051 RMK AO2 SLP331 4/005 60001 T10941211 11067 21094 51014,KLGA,2015-02-21T05:51:00Z,40.78,-73.88,-9.4,-21.1,270,8,,10.0,30.510826,1033.1,,,TRUE,,,,,,,CLR,,,,,,,,VFR,1.4,-6.7,-9.4,,,,,0.01,,5.0,,METAR,11.0
KJFK 210551Z 26007KT 10SM FEW250 M10/M19 A3053 RMK AO2 SLP337 4/001 T11001189 11083 21100 51012,KJFK,2015-02-21T05:51:00Z,40.63,-73.77,-10.0,-18.9,260,7,,10.0,30.528543,1033.7,,,TRUE,,,,,,,FEW,25000,,,,,,,VFR,1.2,-8.3,-10.0,,,,,,,1.0,,METAR,9.0
KJCT 210551Z AUTO 19011G18KT 10SM CLR 20/11 A2976 RMK AO2 SLP050 T02000106 10233 20189 402440122 58007,KJCT,2015-02-21T05:51:00Z,30.5,-99.77,20.0,10.6,190,11,18,10.0,29.760826,1005.0,,TRUE,TRUE,,,,,,,CLR,,,,,,,,VFR,-0.7,23.3,18.9,24.4,12.2,,,,,,,METAR,522.0
KILG 210551Z 21003KT 10SM CLR M12/M21 A3052 RMK AO2 SLP338 T11221211 11094 21133 53003,KILG,2015-02-21T05:51:00Z,39.67,-75.6,-12.2,-21.1,210,3,,10.0,30.519686,1033.8,,,TRUE,,,,,,,CLR,,,,,,,,VFR,0.3,-9.4,-13.3,,,,,,,,,METAR,28.0
KIGM 210551Z AUTO 20008KT 10SM CLR 08/M04 A2994 RMK AO2 SLP093 T00831044 10206 20072 51008 $,KIGM,2015-02-21T05:51:00Z,35.25,-113.93,8.3,-4.4,200,8,,10.0,29.940945,1009.3,,TRUE,TRUE,TRUE,,,,,,CLR,,,,,,,,VFR,0.8,20.6,7.2,,,,,,,,,METAR,1032.0
KHSE 210551Z AUTO 06004KT 10SM CLR M09/M14 A3058 RMK AO2 SLP356 T10891139 11089 21111 53002 TSNO,KHSE,2015-02-21T05:51:00Z,35.23,-75.62,-8.9,-13.9,60,4,,10.0,30.578741,1035.6,,TRUE,TRUE,,,TRUE,,,,CLR,,,,,,,,VFR,0.2,-8.9,-11.1,,,,,,,,,METAR,3.0
KHDO 210551Z AUTO 16008KT 10SM CLR 17/14 A2985 RMK AO2 SLP097 T01720139 10250 20172 402610106 51010 $,KHDO,2015-02-21T05:51:00Z,29.37,-99.17,17.2,13.9,160,8,,10.0,29.84941,1009.7,,TRUE,TRUE,TRUE,,,,,,CLR,,,,,,,,VFR,1.0,25.0,17.2,26.1,10.6,,,,,,,METAR,282.0
KEWR 210551Z 23003KT 10SM FEW250 M13/M21 A3051 RMK AO2 SLP331 4/005 T11281206 11089 21139 51008,KEWR,2015-02-21T05:51:00Z,40.68,-74.17,-12.8,-20.6,230,3,,10.0,30.510826,1033.1,,,TRUE,,,,,,,FEW,25000,,,,,,,VFR,0.8,-8.9,-13.9,,,,,,,5.0,,METAR,7.0
KERI 210551Z 18015G24KT 10SM SCT085 OVC110 M11/M21 A3015 RMK AO2 PK WND 18030/0524 SLP226 T11111206 11111 21189 56030,KERI,2015-02-21T05:51:00Z,42.08,-80.18,-11.1,-20.6,180,15,24,10.0,30.15059,1022.6,,,TRUE,,,,,,,SCT,8500,OVC,11000,,,,,VFR,-3.0,-11.1,-18.9,,,,,,,,,METAR,222.0
KELP 210551Z 28015G24KT 10SM FEW100 BKN140 BKN200 18/M01 A2992 RMK AO2 PK WND 28032/0536 SLP074 OCNL BLDU SW-W T01831011 10211 20183 51008,KELP,2015-02-21T05:51:00Z,31.82,-106.38,18.3,-1.1,280,15,24,10.0,29.920275,1007.4,,,TRUE,,,,,,,FEW,10000,BKN,14000,BKN,20000,,,VFR,0.8,21.1,18.3,,,,,,,,,METAR,1197.0
KSMX 210551Z AUTO 32004KT 4SM BR OVC006 14/12 A2999 RMK AO2 SLPNO T01390117 10172 20139 51013 TSNO,KSMX,2015-02-21T05:51:00Z,34.9,-120.45,13.9,11.7,320,4,,4.0,29.991142,,,TRUE,TRUE,,,TRUE,,,BR,OVC,600,,,,,,,IFR,1.3,17.2,13.9,,,,,,,,,METAR,74.0
KYNG 210551Z 15009KT 10SM SCT050 OVC100 M12/M21 A3013 RMK AO2 SLP230 4/010 T11171206 11117 21133 56029,KYNG,2015-02-21T05:51:00Z,41.25,-80.67,-11.7,-20.6,150,9,,10.0,30.129921,1023.0,,,TRUE,,,,,,,SCT,5000,OVC,10000,,,,,VFR,-2.9,-11.7,-13.3,,,,,,,10.0,,METAR,360.0
KVNY 210551Z 00000KT 5SM HZ CLR 14/11 A2996 RMK AO2 SLP142 T01440106 10222 20139 51008,KVNY,2015-02-21T05:51:00Z,34.22,-118.48,14.4,10.6,0,0,,5.0,29.958662,1014.2,,,TRUE,,,,,,HZ,CLR,,,,,,,,MVFR,0.8,22.2,13.9,,,,,,,,,METAR,245.0
KTEB 210551Z 00000KT 10SM CLR M13/M21 A3051 RMK AO2 SLP331 T11281211 11089 21133 51013,KTEB,2015-02-21T05:51:00Z,40.87,-74.05,-12.8,-21.1,0,0,,10.0,30.510826,1033.1,,,TRUE,,,,,,,CLR,,,,,,,,VFR,1.3,-8.9,-13.3,,,,,,,,,METAR,7.0
KSMO 210551Z 00000KT 5SM HZ CLR 15/11 A2997 RMK AO2 SLP148 T01500106 10178 20150 $,KSMO,2015-02-21T05:51:00Z,34.02,-118.45,15.0,10.6,0,0,,5.0,29.970472,1014.8,,,TRUE,TRUE,,,,,HZ,CLR,,,,,,,,MVFR,,17.8,15.0,,,,,,,,,METAR,57.0
KSJT 210551Z AUTO 23007KT 10SM CLR 18/10 A2975 RMK AO2 SLP059 T01830100 10233 20183 402670122 51010,KSJT,2015-02-21T05:51:00Z,31.37,-100.5,18.3,10.0,230,7,,10.0,29.749016,1005.9,,TRUE,TRUE,,,,,,,CLR,,,,,,,,VFR,1.0,23.3,18.3,26.7,12.2,,,,,,,METAR,576.0
KSAT 210551Z 16010KT 10SM OVC012 18/16 A2985 RMK AO2 SLP093 T01830156 10244 20178 402610144 50008,KSAT,2015-02-21T05:51:00Z,29.53,-98.47,18.3,15.6,160,10,,10.0,29.84941,1009.3,,,TRUE,,,,,,,OVC,1200,,,,,,,MVFR,0.8,24.4,17.8,26.1,14.4,,,,,,,METAR,243.0
KSAN 210551Z 23004KT 10SM OVC022 16/11 A2999 RMK AO2 SLP154 T01610111 10172 20161 53002,KSAN,2015-02-21T05:51:00Z,32.73,-117.18,16.1,11.1,230,4,,10.0,29.991142,1015.4,,,TRUE,,,,,,,OVC,2200,,,,,,,MVFR,0.2,17.2,16.1,,,,,,,,,METAR,12.0
KROW 210551Z AUTO 25010KT 10SM CLR 13/M03 A2978 RMK AO2 SLP035 T01331028 10211 20122 51006,KROW,2015-02-21T05:51:00Z,33.3,-104.5,13.3,-2.8,250,10,,10.0,29.778543,1003.5,,TRUE,TRUE,,,,,,,CLR,,,,,,,,VFR,0.6,21.1,12.2,,,,,,,,,METAR,1112.0
KRDU 210551Z 14004KT 10SM SCT250 M07/M17 A3049 RMK AO2 SLP330 T10721172 11056 21078 56003,KRDU,2015-02-21T05:51:00Z,35.9,-78.78,-7.2,-17.2,140,4,,10.0,30.490158,1033.0,,,TRUE,,,,,,,SCT,25000,,,,,,,VFR,-0.3,-5.6,-7.8,,,,,,,,,METAR,130.0
KPWM 210551Z AUTO 26004KT 10SM CLR M12/M22 A3038 RMK AO2 SLP287 T11221222 11094 21133 51027,KPWM,2015-02-21T05:51:00Z,43.65,-70.3,-12.2,-22.2,260,4,,10.0,30.380905,1028.7,,TRUE,TRUE,,,,,,,CLR,,,,,,,,VFR,2.7,-9.4,-13.3,,,,,,,,,METAR,15.0
KPVD 210551Z 18004KT 10SM CLR M16/M23 A3048 RMK AO2 SLP324 T11561228 11094 21183 53024 $,KPVD,2015-02-21T05:51:00Z,41.72,-71.43,-15.6,-22.8,180,4,,10.0,30.481298,1032.4,,,TRUE,TRUE,,,,,,CLR,,,,,,,,VFR,2.4,-9.4,-18.3,,,,,,,,,METAR,16.0
KPIT 210551Z 14007KT 10SM OVC100 M12/M21 A3016 RMK AO2 SLP247 BINOVC T11171211 11117 21139 58029,KPIT,2015-02-21T05:51:00Z,40.5,-80.27,-11.7,-21.1,140,7,,10.0,30.159449,1024.7,,,TRUE,,,,,,,OVC,10000,,,,,,,VFR,-2.9,-11.7,-13.9,,,,,,,,,METAR,357.0
KPHX 210551Z 09006KT 10SM FEW220 BKN250 18/03 A2987 RMK AO2 SLP104 T01830028 10250 20183 53007 $,KPHX,2015-02-21T05:51:00Z,33.43,-112.02,18.3,2.8,90,6,,10.0,29.870079,1010.4,,,TRUE,TRUE,,,,,,FEW,22000,BKN,25000,,,,,VFR,0.7,25.0,18.3,,,,,,,,,METAR,336.0
KOXR 210551Z AUTO 07004KT 4SM HZ CLR 13/11 A2997 RMK AO2 SLP147 T01330106 10178 20133 51009,KOXR,2015-02-21T05:51:00Z,34.2,-119.2,13.3,10.6,70,4,,4.0,29.970472,1014.7,,TRUE,TRUE,,,,,,HZ,CLR,,,,,,,,MVFR,0.9,17.8,13.3,,,,,,,,,METAR,20.0
KORF 210551Z AUTO 00000KT 10SM CLR M11/M18 A3056 RMK AO2 SLP346 T11111183 11083 21111 58000 TSNO,KORF,2015-02-21T05:51:00Z,36.9,-76.2,-11.1,-18.3,0,0,,10.0,30.561024,1034.6,,TRUE,TRUE,,,TRUE,,,,CLR,,,,,,,,VFR,0.0,-8.3,-11.1,,,,,,,,,METAR,14.0
KNYC 210551Z AUTO 26008KT 10SM CLR M10/M22 A3052 RMK AO2 SLP328 T11001217 11083 21106 51013 $,KNYC,2015-02-21T05:51:00Z,40.78,-73.97,-10.0,-21.7,260,8,,10.0,30.519686,1032.8,,TRUE,TRUE,TRUE,,,,,,CLR,,,,,,,,VFR,1.3,-8.3,-10.6,,,,,,,,,METAR,11.0
KSAD 210551Z AUTO 34012KT 10SM CLR 18/M04 A2992 RMK AO2 SLP102 T01781039 10217 20178 53007,KSAD,2015-02-21T05:51:00Z,32.85,-109.63,17.8,-3.9,340,12,,10.0,29.920275,1010.2,,TRUE,TRUE,,,,,,,CLR,,,,,,,,VFR,0.7,21.7,17.8,,,,,,,,,METAR,962.0
KP59 210551Z AUTO 27005KT M09/M12 A2977 RMK AO1 SLP101 60001 T10891122 11089 21100 56002,KP59,2015-02-21T05:51:00Z,47.47,-87.88,-8.9,-12.2,270,5,,,29.769686,1010.1,,TRUE,TRUE,,,,,,,,,,,,,,,,-0.2,-8.9,-10.0,,,,,0.01,,,,METAR,190.0
KBVE 210551Z AUTO 14013G21KT 10SM CLR 17/12 A3013 RMK AO2 SLP203 T01670117 10167 20150 401670039 58016,KBVE,2015-02-21T05:51:00Z,29.32,-89.4,16.7,11.7,140,13,21,10.0,30.129921,1020.3,,TRUE,TRUE,,,,,,,CLR,,,,,,,,VFR,-1.6,16.7,15.0,16.7,3.9,,,,,,,METAR,1.0
KATT 210551Z AUTO VRB06G16KT 10SM OVC015 19/16 A2984 RMK AO2 SLP098 T01890156 10211 20183 402390122 50001,KATT,2015-02-21T05:51:00Z,30.32,-97.77,18.9,15.6,0,6,16,10.0,29.840551,1009.8,,TRUE,TRUE,,,,,,,OVC,1500,,,,,,,MVFR,0.1,21.1,18.3,23.9,12.2,,,,,,,METAR,201.0
KSNT 210551Z AUTO 00000KT M04/M09 A3001 RMK AO1 SLP151 T10441089 10017 21056 56003,KSNT,2015-02-21T05:51:00Z,44.17,-114.93,-4.4,-8.9,0,0,,,30.008858,1015.1,,TRUE,TRUE,,,,,,,,,,,,,,,,-0.3,1.7,-5.6,,,,,,,,,METAR,1980.0
KSLK 210551Z AUTO 24003KT 10SM CLR M22/M23 A3019 RMK AO2 SLP271 I1000 I6000 T12171233 11172 21228 53004,KSLK,2015-02-21T05:51:00Z,44.4,-74.2,-21.7,-23.3,240,3,,10.0,30.188976,1027.1,,TRUE,TRUE,,,,,,,CLR,,,,,,,,VFR,0.4,-17.2,-22.8,,,,,,,,,METAR,498.0
MUCU 210551Z 01011KT 9000 FEW020 20/15 Q1020,MUCU,2015-02-21T05:51:00Z,19.97,-75.83,20.0,15.0,10,11,,5.59,30.11811,,,,,,,,,,,FEW,2000,,,,,,,VFR,,,,,,,,,,,,METAR,76.0
MUHG 210551Z 07006KT 9000 FEW030 20/15 Q1021,MUHG,2015-02-21T05:51:00Z,20.77,-76.32,20.0,15.0,70,6,,5.59,30.147638,,,,,,,,,,,FEW,3000,,,,,,,VFR,,,,,,,,,,,,METAR,106.0
MUCM 210551Z 06012KT 9000 BKN020 19/13 Q1022,MUCM,2015-02-21T05:51:00Z,21.42,-77.85,19.0,13.0,60,12,,5.59,30.177166,,,,,,,,,,,BKN,2000,,,,,,,MVFR,,,,,,,,,,,,METAR,122.0
ENBN 210550Z 19016KT 9999 BKN014 03/01 Q0982,ENBN,2015-02-21T05:50:00Z,65.47,12.22,3.0,1.0,190,16,,6.21,28.996063,,,,,,,,,,,BKN,1400,,,,,,,MVFR,,,,,,,,,,,,METAR,9.0
OOSA 210550Z 20007KT 160V240 9999 FEW025 26/18 Q1014 NOSIG RMK01 RH60,OOSA,2015-02-21T05:50:00Z,17.02,54.07,26.0,18.0,200,7,,6.21,29.940945,,,,,,TRUE,,,,,FEW,2500,,,,,,,VFR,,,,,,,,,,,,METAR,20.0
OOMS 210550Z 21020G37KT 180V250 4000 BLDU NSC 32/03 Q1009 NOSIG,OOMS,2015-02-21T05:50:00Z,23.57,58.27,32.0,3.0,210,20,37,2.49,29.793306,,,,,,TRUE,,,,BLDU,,,,,,,,,,,,,,,,,,,,,METAR,8.0
NZSP 210550Z 34016KT 1600 -SG BLSN SCT000 BKN008 OVC030 M35/ A2850 RMK BLSN SCT000 CLN AIR 33016KT ALL WNDS GRID,NZSP,2015-02-21T05:50:00Z,-89.98,179.98,-35.0,,340,16,,0.99,28.5,,,,,,,,,,-SG BLSN,SCT,0,BKN,800,OVC,3000,,,LIFR,,,,,,,,,,,,METAR,2830.0
VNKT 210550Z 22004KT 3500 HZ FEW020 SCT030 18/10 Q1018 NOSIG,VNKT,2015-02-21T05:50:00Z,27.68,85.37,18.0,10.0,220,4,,2.17,30.059055,,,,,,TRUE,,,,HZ,FEW,2000,SCT,3000,,,,,IFR,,,,,,,,,,,,METAR,1337.0
VGHS 210550Z 16005KT 4000 HZ SCT015 BKN100 27/18 Q1013 NOSIG,VGHS,2015-02-21T05:50:00Z,23.85,90.4,27.0,18.0,160,5,,2.49,29.911417,,,,,,TRUE,,,,HZ,SCT,1500,BKN,10000,,,,,IFR,,,,,,,,,,,,METAR,10.0
LTFG 210550Z 05019G31KT 020V080 CAVOK 09/M11 Q1011,LTFG,2015-02-21T05:50:00Z,36.3,32.3,9.0,-11.0,50,19,31,6.21,29.852362,,,,,,,,,,,CAVOK,,,,,,,,VFR,,,,,,,,,,,,METAR,95.0
LTFD 210550Z 10010KT 9999 SCT035 05/M01 Q1020,LTFD,2015-02-21T05:50:00Z,39.55,27.02,5.0,-1.0,100,10,,6.21,30.11811,,,,,,,,,,,SCT,3500,,,,,,,VFR,,,,,,,,,,,,METAR,16.0
LTCU 210550Z 07005KT 9999 SCT035 BKN100 02/M02 Q1007,LTCU,2015-02-21T05:50:00Z,38.87,40.58,2.0,-2.0,70,5,,6.21,29.734253,,,,,,,,,,,SCT,3500,BKN,10000,,,,,VFR,,,,,,,,,,,,METAR,1061.0
LTCR 210550Z 13009KT 7000 FEW008 BKN035 BKN090 03/02 Q1009,LTCR,2015-02-21T05:50:00Z,37.22,40.63,3.0,2.0,130,9,,4.35,29.793306,,,,,,,,,,,FEW,800,BKN,3500,BKN,9000,,,MVFR,,,,,,,,,,,,METAR,527.0
LTCP 210550Z 31004KT 260V340 9999 FEW040 SCT100 BKN180 02/M03 Q1007,LTCP,2015-02-21T05:50:00Z,37.73,38.47,2.0,-3.0,310,4,,6.21,29.734253,,,,,,,,,,,FEW,4000,SCT,10000,BKN,18000,,,VFR,,,,,,,,,,,,METAR,676.0
LTCN 210550Z 10008KT CAVOK 03/M04 Q1008,LTCN,2015-02-21T05:50:00Z,37.53,36.95,3.0,-4.0,100,8,,6.21,29.763779,,,,,,,,,,,CAVOK,,,,,,,,VFR,,,,,,,,,,,,METAR,526.0
LTCK 210550Z VRB04KT 9999 BKN030 OVC070 00/M04 Q1006,LTCK,2015-02-21T05:50:00Z,38.75,41.67,0.0,-4.0,0,4,,6.21,29.704725,,,,,,,,,,,BKN,3000,OVC,7000,,,,,MVFR,,,,,,,,,,,,METAR,1266.0
LTBH 210550Z 02003KT 7000 FEW035 02/01 Q1020,LTBH,2015-02-21T05:50:00Z,40.13,26.42,2.0,1.0,20,3,,4.35,30.11811,,,,,,,,,,,FEW,3500,,,,,,,MVFR,,,,,,,,,,,,METAR,3.0
LTBQ 210550Z 08003KT 050V120 2000 BR SCT006 BKN070 01/01 Q1022 BECMG TL0630 4500,LTBQ,2015-02-21T05:50:00Z,40.72,30.07,1.0,1.0,80,3,,1.24,30.177166,,,,,,,,,,BR,SCT,600,BKN,7000,,,,,IFR,,,,,,,,,,,,METAR,50.0
LTBF 210550Z 00000KT 9999 SCT035 SCT100 02/00 Q1021 NOSIG,LTBF,2015-02-21T05:50:00Z,39.62,27.92,2.0,0.0,0,0,,6.21,30.147638,,,,,,TRUE,,,,,SCT,3500,SCT,10000,,,,,VFR,,,,,,,,,,,,METAR,102.0
LTAN 210550Z 33007KT 9999 FEW040 M06/M10 Q1017 NOSIG,LTAN,2015-02-21T05:50:00Z,37.97,32.53,-6.0,-10.0,330,7,,6.21,30.029528,,,,,,TRUE,,,,,FEW,4000,,,,,,,VFR,,,,,,,,,,,,METAR,1006.0
KMWN 210550Z 31032KT 100SM FEW180 M26/M32 RMK 4/019 11261 21282,KMWN,2015-02-21T05:50:00Z,44.27,-71.3,-26.0,-32.0,310,32,,99.0,,,,,,,,,,,,FEW,18000,,,,,,,VFR,,-26.1,-28.2,,,,,,,19.0,,METAR,1910.0
KEFD 210550Z 17014G19KT 10SM BKN020 OVC035 19/17 A2994,KEFD,2015-02-21T05:50:00Z,29.6,-95.17,19.0,17.0,170,14,19,10.0,29.940945,,,,,,,,,,,BKN,2000,OVC,3500,,,,,MVFR,,,,,,,,,,,,METAR,10.0
KNQA 210550Z 14016KT 5SM -RA BR BKN015 OVC021 02/01 A2990,KNQA,2015-02-21T05:50:00Z,35.35,-89.87,2.0,1.0,140,16,,5.0,29.899607,,,,,,,,,,-RA BR,BKN,1500,OVC,2100,,,,,MVFR,,,,,,,,,,,,METAR,86.0
EGXW 210550Z 24006KT CAVOK 01/00 Q0996 BLU,EGXW,2015-02-21T05:50:00Z,53.18,-0.52,1.0,0.0,240,6,,6.21,29.409449,,,,,,,,,,,CAVOK,,,,,,,,VFR,,,,,,,,,,,,METAR,70.0
EGXV 210550Z AUTO 27007KT 9999 SCT120/// 01/00 Q0996,EGXV,2015-02-21T05:50:00Z,53.87,-0.45,1.0,0.0,270,7,,6.21,29.409449,,,TRUE,,,,,,,,,,,,,,,,,,,,,,,,,,,,METAR,6.0
EGXC 210550Z 27009KT CAVOK 02/00 Q0997 BLU,EGXC,2015-02-21T05:50:00Z,53.1,-0.17,2.0,0.0,270,9,,6.21,29.438976,,,,,,,,,,,CAVOK,,,,,,,,VFR,,,,,,,,,,,,METAR,7.0
EGQS 210550Z 25011KT 9999 FEW031 00/M02 Q0992 BLU,EGQS,2015-02-21T05:50:00Z,57.72,-3.32,0.0,-2.0,250,11,,6.21,29.291338,,,,,,,,,,,FEW,3100,,,,,,,VFR,,,,,,,,,,,,METAR,13.0
EGQM 210550Z AUTO 27010KT 9999 NCD 01/M01 Q0994,EGQM,2015-02-21T05:50:00Z,55.42,-1.6,1.0,-1.0,270,10,,6.21,29.350393,,,TRUE,,,,,,,,,,,,,,,,,,,,,,,,,,,,METAR,23.0
EGQL 210550Z 24007KT CAVOK M03/M03 Q0994 BLU,EGQL,2015-02-21T05:50:00Z,56.38,-2.87,-3.0,-3.0,240,7,,6.21,29.350393,,,,,,,,,,,CAVOK,,,,,,,,VFR,,,,,,,,,,,,METAR,12.0
EGDR 210550Z 32014G25KT 9999 HZ SCT020 05/M01 Q1004 WHT,EGDR,2015-02-21T05:50:00Z,50.08,-5.25,5.0,-1.0,320,14,25,6.21,29.64567,,,,,,,,,,HZ,SCT,2000,,,,,,,VFR,,,,,,,,,,,,METAR,82.0
VGEG 210550Z 24006KT 3200 HZ NSC 28/19 Q1013 NOSIG,VGEG,2015-02-21T05:50:00Z,22.27,91.82,28.0,19.0,240,6,,1.99,29.911417,,,,,,TRUE,,,,HZ,,,,,,,,,,,,,,,,,,,,,METAR,6.0
LCRA 210550Z 02003KT 9999 FEW030 09/00 Q1011,LCRA,2015-02-21T05:50:00Z,34.57,32.97,9.0,0.0,20,3,,6.21,29.852362,,,,,,,,,,,FEW,3000,,,,,,,VFR,,,,,,,,,,,,METAR,23.0
EGYP 210550Z 22009KT 9999 BKN022 06/03 Q1013 WHT,EGYP,2015-02-21T05:50:00Z,-51.82,-58.45,6.0,3.0,220,9,,6.21,29.911417,,,,,,,,,,,BKN,2200,,,,,,,MVFR,,,,,,,,,,,,METAR,74.0
MMMM 210550Z 24007KT 7SM SKC 14/10 A3020 RMK SLP095 52026 961 ISOL CI,MMMM,2015-02-21T05:50:00Z,19.85,-101.02,14.0,10.0,240,7,,7.0,30.200787,1009.5,,,,,,,,,,SKC,,,,,,,,VFR,2.6,,,,,,,,,,,METAR,1833.0
EGVN 210550Z 27006KT CAVOK 01/01 Q0999 NOSIG,EGVN,2015-02-21T05:50:00Z,51.77,-1.58,1.0,1.0,270,6,,6.21,29.498032,,,,,,TRUE,,,,,CAVOK,,,,,,,,VFR,,,,,,,,,,,,METAR,88.0
KQBC 210550Z AUTO 07002KT 9999 FEW015 BKN095 BKN160 25/22 A2984 RMK AO2 SLP103 T02510222 10262 20252 53006,KQBC,2015-02-21T05:50:00Z,,,25.1,22.2,70,2,,6.21,29.840551,1010.3,,TRUE,TRUE,,,,,,,FEW,1500,BKN,9500,BKN,16000,,,VFR,0.6,26.2,25.2,,,,,,,,,METAR,
ENHF 210550Z 04003KT 360V120 CAVOK M02/M05 Q0975 RMK WIND 1254FT 20006KT,ENHF,2015-02-21T05:50:00Z,70.67,23.67,-2.0,-5.0,40,3,,6.21,28.78937,,,,,,,,,,,CAVOK,,,,,,,,VFR,,,0.6,,,,,,,,,METAR,81.0
EGYM 210550Z AUTO 25004KT 9000 HZ FEW039/// BKN045/// 01/00 Q0997 RERA,EGYM,2015-02-21T05:50:00Z,52.63,0.57,1.0,0.0,250,4,,5.59,29.438976,,,TRUE,,,,,,,HZ,,,,,,,,,,,,,,,,,,,,,METAR,23.0
EGYD 210550Z AUTO 25008KT 9000 // SCT100/// 01/00 Q0997,EGYD,2015-02-21T05:50:00Z,53.03,-0.5,1.0,0.0,250,8,,5.59,29.438976,,,TRUE,,,,,,,,,,,,,,,,,,,,,,,,,,,,METAR,67.0
EGXZ 210550Z AUTO 06004KT 9999 FEW023/// SCT080/// M01/M03 Q0996,EGXZ,2015-02-21T05:50:00Z,54.2,-1.38,-1.0,-3.0,60,4,,6.21,29.409449,,,TRUE,,,,,,,,,,,,,,,,,,,,,,,,,,,,METAR,28.0
EGXU 210550Z AUTO 25005KT 9999 // SCT070/// 01/M01 Q0996,EGXU,2015-02-21T05:50:00Z,54.05,-1.25,1.0,-1.0,250,5,,6.21,29.409449,,,TRUE,,,,,,,,,,,,,,,,,,,,,,,,,,,,METAR,16.0
EGXT 210550Z AUTO 27009KT 9999 -SHRA BKN050/// 02/01 Q0997,EGXT,2015-02-21T05:50:00Z,52.62,-0.47,2.0,1.0,270,9,,6.21,29.438976,,,TRUE,,,,,,,-SHRA,,,,,,,,,,,,,,,,,,,,,METAR,84.0
EGXS 210550Z AUTO 24007KT 9999 // BKN041/// 01/00 Q0996,EGXS,2015-02-21T05:50:00Z,53.48,0.15,1.0,0.0,240,7,,6.21,29.409449,,,TRUE,,,,,,,,,,,,,,,,,,,,,,,,,,,,METAR,3.0
EGXP 210550Z AUTO 26007KT 6000 // FEW100/// M01/M01 Q0996,EGXP,2015-02-21T05:50:00Z,53.3,-0.55,-1.0,-1.0,260,7,,3.73,29.409449,,,TRUE,,,,,,,,,,,,,,,,,,,,,,,,,,,,METAR,61.0
EGXE 210550Z AUTO 29006KT 9999 FEW021/// SCT100/// 02/M01 Q0996,EGXE,2015-02-21T05:50:00Z,54.28,-1.52,2.0,-1.0,290,6,,6.21,29.409449,,,TRUE,,,,,,,,,,,,,,,,,,,,,,,,,,,,METAR,40.0
EGXD 210550Z AUTO 31004KT 9999 // FEW023/// SCT090/// 00/M02 Q0996,EGXD,2015-02-21T05:50:00Z,54.13,-1.42,0.0,-2.0,310,4,,6.21,29.409449,,,TRUE,,,,,,,,,,,,,,,,,,,,,,,,,,,,METAR,35.0
EGVP 210550Z AUTO 26002KT 9999 // BKN050/// BKN120/// 02/01 Q0999,EGVP,2015-02-21T05:50:00Z,51.13,-1.57,2.0,1.0,260,2,,6.21,29.498032,,,TRUE,,,,,,,,,,,,,,,,,,,,,,,,,,,,METAR,91.0
EGUW 210550Z AUTO 25007KT 9000 BR OVC050/// 01/00 Q0997,EGUW,2015-02-21T05:50:00Z,52.12,0.97,1.0,0.0,250,7,,5.59,29.438976,,,TRUE,,,,,,,BR,,,,,,,,,,,,,,,,,,,,,METAR,87.0
EGUB 210550Z AUTO 28002KT 9999 // FEW017/// BKN043/// 02/02 Q0999,EGUB,2015-02-21T05:50:00Z,51.62,-1.07,2.0,2.0,280,2,,6.21,29.498032,,,TRUE,,,,,,,,,,,,,,,,,,,,,,,,,,,,METAR,63.0
EGQK 210550Z AUTO 24010KT 9999 FEW050/// 01/M02 Q0993,EGQK,2015-02-21T05:50:00Z,57.65,-3.57,1.0,-2.0,240,10,,6.21,29.320866,,,TRUE,,,,,,,,,,,,,,,,,,,,,,,,,,,,METAR,7.0
EGOV 210550Z AUTO 30013G23KT 9999 FEW015/// BKN020/// 04/02 Q1000,EGOV,2015-02-21T05:50:00Z,53.25,-4.53,4.0,2.0,300,13,23,6.21,29.52756,,,TRUE,,,,,,,,,,,,,,,,,,,,,,,,,,,,METAR,11.0
EGOS 210550Z AUTO 28008KT 9999 SCT028/// SCT070/// 02/M00 Q0998,EGOS,2015-02-21T05:50:00Z,52.8,-2.67,2.0,0.0,280,8,,6.21,29.468504,,,TRUE,,,,,,,,,,,,,,,,,,,,,,,,,,,,METAR,76.0
EGOP 210550Z AUTO 30011KT 9999 // SCT050/// 04/01 Q1002,EGOP,2015-02-21T05:50:00Z,51.72,-4.32,4.0,1.0,300,11,,6.21,29.586615,,,TRUE,,,,,,,,,,,,,,,,,,,,,,,,,,,,METAR,6.0
EGOM 210550Z AUTO 27012KT 9999 SG BKN002/// M00/M01 Q0994,EGOM,2015-02-21T05:50:00Z,55.05,-2.55,0.0,-1.0,270,12,,6.21,29.350393,,,TRUE,,,,,,,SG,,,,,,,,,,,,,,,,,,,,,METAR,325.0
EGDY 210550Z AUTO 30009KT 9999 BKN050/// 03/01 Q1001,EGDY,2015-02-21T05:50:00Z,51.0,-2.62,3.0,1.0,300,9,,6.21,29.557087,,,TRUE,,,,,,,,,,,,,,,,,,,,,,,,,,,,METAR,23.0
EGDX 210550Z AUTO 30007KT 9999 FEW020/// 03/00 Q1001,EGDX,2015-02-21T05:50:00Z,51.4,-3.43,3.0,0.0,300,7,,6.21,29.557087,,,TRUE,,,,,,,,,,,,,,,,,,,,,,,,,,,,METAR,50.0
EGDM 210550Z AUTO 29009KT 9999 BKN050/// 02/01 Q0999 RERA,EGDM,2015-02-21T05:50:00Z,51.17,-1.75,2.0,1.0,290,9,,6.21,29.498032,,,TRUE,,,,,,,,,,,,,,,,,,,,,,,,,,,,METAR,124.0
EGWU 210550Z AUTO 31008KT 9999 // BKN011/// 03/01 Q0998,EGWU,2015-02-21T05:50:00Z,51.55,-0.42,3.0,1.0,310,8,,6.21,29.468504,,,TRUE,,,,,,,,,,,,,,,,,,,,,,,,,,,,METAR,40.0
LICR 210550Z 12007KT 9999 BKN025 09/05 Q1018,LICR,2015-02-21T05:50:00Z,38.07,15.65,9.0,5.0,120,7,,6.21,30.059055,,,,,,,,,,,BKN,2500,,,,,,,MVFR,,,,,,,,,,,,METAR,21.0
LICD 210550Z 15021KT 9999 SCT016 BKN027 14/11 Q1015,LICD,2015-02-21T05:50:00Z,35.5,12.62,14.0,11.0,150,21,,6.21,29.970472,,,,,,,,,,,SCT,1600,BKN,2700,,,,,MVFR,,,,,,,,,,,,METAR,20.0
LICA 210550Z 09006KT CAVOK 02/01 Q1018,LICA,2015-02-21T05:50:00Z,38.88,16.25,2.0,1.0,90,6,,6.21,30.059055,,,,,,,,,,,CAVOK,,,,,,,,VFR,,,,,,,,,,,,METAR,15.0
LIPY 210550Z 08003KT 050V200 9999 SCT070 07/00 Q1015,LIPY,2015-02-21T05:50:00Z,43.62,13.37,7.0,0.0,80,3,,6.21,29.970472,,,,,,,,,,,SCT,7000,,,,,,,VFR,,,,,,,,,,,,METAR,10.0
LIPO 210550Z 08006KT 2000 BR SCT050 04/03 Q1012,LIPO,2015-02-21T05:50:00Z,45.42,10.33,4.0,3.0,80,6,,1.24,29.88189,,,,,,,,,,BR,SCT,5000,,,,,,,IFR,,,,,,,,,,,,METAR,109.0
LIRZ 210550Z 00000KT 9999 BKN055 05/02 Q1014,LIRZ,2015-02-21T05:50:00Z,43.1,12.5,5.0,2.0,0,0,,6.21,29.940945,,,,,,,,,,,BKN,5500,,,,,,,VFR,,,,,,,,,,,,METAR,205.0
LIBP 210550Z VRB03KT CAVOK M01/M05 Q1016,LIBP,2015-02-21T05:50:00Z,42.42,14.18,-1.0,-5.0,0,3,,6.21,30.0,,,,,,,,,,,CAVOK,,,,,,,,VFR,,,,,,,,,,,,METAR,11.0
LIMZ 210550Z VRB02KT 6000 -RA BKN035 01/M00 Q1010,LIMZ,2015-02-21T05:50:00Z,44.53,7.62,1.0,0.0,0,2,,3.73,29.822834,,,,,,,,,,-RA,BKN,3500,,,,,,,MVFR,,,,,,,,,,,,METAR,380.0
EGVO 210550Z 26006KT 9999 -RA FEW007 SCT014 02/01 Q0999 GRN,EGVO,2015-02-21T05:50:00Z,51.23,-0.95,2.0,1.0,260,6,,6.21,29.498032,,,,,,,,,,-RA,FEW,700,SCT,1400,,,,,VFR,,,,,,,,,,,,METAR,123.0
PGWT 210550Z 06018G26KT 7SM SCT016 SCT035 26/18 A2989,PGWT,2015-02-21T05:50:00Z,14.98,145.62,26.0,18.0,60,18,26,7.0,29.890747,,,,,,,,,,,SCT,1600,SCT,3500,,,,,VFR,,,,,,,,,,,,METAR,82.0
LSZL 210550Z AUTO VRB01KT 4400NDV -SHRA BR BKN047 OVC053 04/03 Q1011 RMK GRN,LSZL,2015-02-21T05:50:00Z,46.17,8.88,4.0,3.0,0,1,,,29.852362,,,TRUE,,,,,,,-SHRA BR,BKN,4700,OVC,5300,,,,,,,,,,,,,,,,,METAR,600.0
LSMS 210550Z AUTO 07003KT 9999NDV BKN083 BKN094 03/M06 Q1005 RMK WHT,LSMS,2015-02-21T05:50:00Z,46.22,7.32,3.0,-6.0,70,3,,,29.675198,,,TRUE,,,,,,,,BKN,8300,BKN,9400,,,,,,,,,,,,,,,,,METAR,481.0
LSMP 210550Z AUTO 23007KT 190V250 9999NDV -DZ SCT021 BKN041 OVC048 05/02 Q1002 RMK WHT,LSMP,2015-02-21T05:50:00Z,46.82,6.92,5.0,2.0,230,7,,,29.586615,,,TRUE,,,,,,,-DZ,SCT,2100,BKN,4100,OVC,4800,,,,,,,,,,,,,,,METAR,491.0
LSMM 210550Z AUTO 28004KT 240V330 9999NDV BKN100 00/M04 Q1001 RMK WHT,LSMM,2015-02-21T05:50:00Z,46.75,8.12,0.0,-4.0,280,4,,,29.557087,,,TRUE,,,,,,,,BKN,10000,,,,,,,,,,,,,,,,,,,METAR,577.0
LSME 210550Z AUTO 00000KT 9999NDV OVC100 M01/M03 Q1002 RMK WHT,LSME,2015-02-21T05:50:00Z,47.1,8.3,-1.0,-3.0,0,0,,,29.586615,,,TRUE,,,,,,,,OVC,10000,,,,,,,,,,,,,,,,,,,METAR,427.0
LSMD 210550Z AUTO 13004KT 9999NDV BKN088 OVC100 00/M03 Q1002 RMK WHT,LSMD,2015-02-21T05:50:00Z,47.4,8.65,0.0,-3.0,130,4,,,29.586615,,,TRUE,,,,,,,,BKN,8800,OVC,10000,,,,,,,,,,,,,,,,,METAR,448.0
LSMA 210550Z AUTO 19004KT 160V230 9999NDV OVC099 M01/M03 Q1002 RMK WHT,LSMA,2015-02-21T05:50:00Z,46.95,8.28,-1.0,-3.0,190,4,,,29.586615,,,TRUE,,,,,,,,OVC,9900,,,,,,,,,,,,,,,,,,,METAR,444.0
TJBQ 210550Z 11005KT 10SM SKC 22/21 A3007 RMK RWY 08 ATIS Q,TJBQ,2015-02-21T05:50:00Z,18.5,-67.13,22.0,21.0,110,5,,10.0,30.070866,,,,,,,,,,,SKC,,,,,,,,VFR,,,,,,,,,,,,SPECI,72.0
BGKK 210550Z AUTO 09013KT //// FEW044/// BKN073/// M13/M16 Q1009,BGKK,2015-02-21T05:50:00Z,65.57,-37.13,-13.0,-16.0,90,13,,,29.793306,,,TRUE,,,,,,,,,,,,,,,,,,,,,,,,,,,,METAR,34.0
BGJN 210550Z AUTO 03003KT 9999NDV NCD M20/M27 Q1018,BGJN,2015-02-21T05:50:00Z,69.25,-51.07,-20.0,-27.0,30,3,,,30.059055,,,TRUE,,,,,,,,,,,,,,,,,,,,,,,,,,,,METAR,25.0
BGGH 210550Z AUTO 03021KT 0750NDV -SHSN BKN190/// M13/M15 Q1002,BGGH,2015-02-21T05:50:00Z,64.2,-51.68,-13.0,-15.0,30,21,,,29.586615,,,TRUE,,,,,,,-SHSN,,,,,,,,,,,,,,,,,,,,,METAR,70.0
BGBW 210550Z 07005KT 9999 FEW040 BKN060 BKN078 M09/M16 Q1000,BGBW,2015-02-21T05:50:00Z,61.17,-45.42,-9.0,-16.0,70,5,,6.21,29.52756,,,,,,,,,,,FEW,4000,BKN,6000,BKN,7800,,,VFR,,,,,,,,,,,,METAR,26.0
BGSF 210550Z AUTO 06008KT 9999NDV NCD M33/M37 Q1016,BGSF,2015-02-21T05:50:00Z,67.0,-50.72,-33.0,-37.0,60,8,,,30.0,,,TRUE,,,,,,,,,,,,,,,,,,,,,,,,,,,,METAR,53.0
LLSD 210550Z 29015KT 9999 FEW030 SCT050 13/06 Q1008 RMK RERA,LLSD,2015-02-21T05:50:00Z,32.12,34.78,13.0,6.0,290,15,,6.21,29.763779,,,,,,,,,,,FEW,3000,SCT,5000,,,,,VFR,,,,,,,,,,,,METAR,14.0
LLHA 210550Z 12005KT 090V150 9999 SCT035 08/07 Q1009 RMK RERA,LLHA,2015-02-21T05:50:00Z,32.78,35.02,8.0,7.0,120,5,,6.21,29.793306,,,,,,,,,,,SCT,3500,,,,,,,VFR,,,,,,,,,,,,METAR,8.0
LLET 210550Z 19006KT 150V270 9999 SCT050 15/05 Q1014 RMK BKN080,LLET,2015-02-21T05:50:00Z,29.55,34.95,15.0,5.0,190,6,,6.21,29.940945,,,,,,,,,,,SCT,5000,,,,,,,VFR,,,,,,,,,,,,METAR,13.0
KDAG 210550Z AUTO 30007KT 10SM CLR 17/M04 A2990 RMK AO2 SLP108 T01671039 10250 20156 53009,KDAG,2015-02-21T05:50:00Z,34.85,-116.78,16.7,-3.9,300,7,,10.0,29.899607,1010.8,,TRUE,TRUE,,,,,,,CLR,,,,,,,,VFR,0.9,25.0,15.6,,,,,,,,,METAR,587.0
EYSA 210550Z 16010KT 6000 OVC031 01/M00 Q1004 R14L/19//95 R14R/19//95,EYSA,2015-02-21T05:50:00Z,55.9,23.4,1.0,0.0,160,10,,3.73,29.64567,,,,,,,,,,,OVC,3100,,,,,,,MVFR,,,,,,,,,,,,METAR,135.0
VQPR 210550Z 15005KT 6000 FEW015 SCT050 16/M04 Q1018 NOSIG,VQPR,2015-02-21T05:50:00Z,27.4,89.43,16.0,-4.0,150,5,,3.73,30.059055,,,,,,TRUE,,,,,FEW,1500,SCT,5000,,,,,MVFR,,,,,,,,,,,,SPECI,2235.0
PTKK 210550Z 05007KT 15SM FEW014 BKN280 30/25 A2975 RMK SLP078 8/101 T02970250 10300 20278 56008,PTKK,2015-02-21T05:50:00Z,7.47,151.85,29.7,25.0,50,7,,15.0,29.749016,1007.8,,,,,,,,,,FEW,1400,BKN,28000,,,,,VFR,-0.8,30.0,27.8,,,,,,,,,METAR,2.0
PGRO 210550Z 04018KT 7SM SCT032 26/20 A2989,PGRO,2015-02-21T05:50:00Z,14.18,145.25,26.0,20.0,40,18,,7.0,29.890747,,,,,,,,,,,SCT,3200,,,,,,,VFR,,,,,,,,,,,,METAR,185.0
KRHV 210550Z 00000KT 10SM SKC 13/10 A2998 RMK LAST,KRHV,2015-02-21T05:50:00Z,37.32,-121.82,13.0,10.0,0,0,,10.0,29.97933,,,,,,,,,,,SKC,,,,,,,,VFR,,,,,,,,,,,,SPECI,41.0
FHAW 210550Z 13014KT 9999 FEW024 25/21 Q1012 BLU NOSIG,FHAW,2015-02-21T05:50:00Z,-7.97,-14.4,25.0,21.0,130,14,,6.21,29.88189,,,,,,TRUE,,,,,FEW,2400,,,,,,,VFR,,,,,,,,,,,,METAR,79.0
MSSS 210550Z 36004KT CAVOK 20/16 Q1017 A3006,MSSS,2015-02-21T05:50:00Z,13.7,-89.12,20.0,16.0,360,4,,6.21,30.029528,,,,,,,,,,,CAVOK,,,,,,,,VFR,,,,,,,,,,,,METAR,616.0
OAKB 210550Z 07004KT 6000 -SHRA FEW011 BKN020 OVC050 07/06 Q1025 NOSIG RMK WHT WHT,OAKB,2015-02-21T05:50:00Z,34.55,69.22,7.0,6.0,70,4,,3.73,30.265747,,,,,,TRUE,,,,-SHRA,FEW,1100,BKN,2000,OVC,5000,,,MVFR,,,,,,,,,,,,SPECI,1791.0
PTRO 210550Z 04015G21KT 14SM BKN015TCU BKN120 BKN300 29/24 A2984 RMK TCU VC ALQDS,PTRO,2015-02-21T05:50:00Z,7.37,134.55,29.0,24.0,40,15,21,14.0,29.840551,,,,,,,,,,,BKN,1500,BKN,12000,BKN,30000,,,MVFR,,,,,,,,,,,,METAR,54.0
LGKZ 210550Z 00000KT CAVOK M02/M16 Q1023,LGKZ,2015-02-21T05:50:00Z,40.28,21.83,-2.0,-16.0,0,0,,6.21,30.206694,,,,,,,,,,,CAVOK,,,,,,,,VFR,,,,,,,,,,,,METAR,628.0
OAMS 210550Z 23004KT 8000 FEW080 SCT100 BKN200 14/11 Q1012 BLU+ BLU+ TEMPO WHT,OAMS,2015-02-21T05:50:00Z,36.7,67.2,14.0,11.0,230,4,,4.97,29.88189,,,,,,,,,,,FEW,8000,SCT,10000,BKN,20000,,,MVFR,,,,,,,,,,,,METAR,378.0
ENEV 210550Z 25015KT 9999 -SHRA FEW010 SCT015 BKN020 03/01 Q0976 RMK WIND 1400FT 24024KT,ENEV,2015-02-21T05:50:00Z,68.52,16.67,3.0,1.0,250,15,,6.21,28.818897,,,,,,,,,,-SHRA,FEW,1000,SCT,1500,BKN,2000,,,MVFR,,,,,,,,,,,,METAR,26.0
ENAT 210550Z 17009KT CAVOK M05/M09 Q0977 RMK WIND 700FT 16013KT,ENAT,2015-02-21T05:50:00Z,69.97,23.37,-5.0,-9.0,170,9,,6.21,28.848425,,,,,,,,,,,CAVOK,,,,,,,,VFR,,,,,,,,,,,,METAR,3.0
ENSB 210550Z 32007KT 9999 FEW020 M20/M26 Q0991 RMK WIND 1400FT 28003KT,ENSB,2015-02-21T05:50:00Z,78.25,15.47,-20.0,-26.0,320,7,,6.21,29.26181,,,,,,,,,,,FEW,2000,,,,,,,VFR,,,,,,,,,,,,METAR,29.0
LIPB 210550Z VRB03KT 6000 FEW040 SCT060 01/M01 Q1011,LIPB,2015-02-21T05:50:00Z,46.47,11.32,1.0,-1.0,0,3,,3.73,29.852362,,,,,,,,,,,FEW,4000,SCT,6000,,,,,MVFR,,,,,,,,,,,,METAR,241.0
EETU 210550Z AUTO 21010KT 3600 BR OVC008/// 02/M01 Q1002,EETU,2015-02-21T05:50:00Z,58.32,26.68,2.0,-1.0,210,10,,2.24,29.586615,,,TRUE,,,,,,,BR,,,,,,,,,,,,,,,,,,,,,METAR,67.0
EEKA 210550Z 19005KT 140V240 4900 -DZ BR SCT009 BKN015 OVC032 03/02 Q0998,EEKA,2015-02-21T05:50:00Z,58.98,22.83,3.0,2.0,190,5,,3.04,29.468504,,,,,,,,,,-DZ BR,SCT,900,BKN,1500,OVC,3200,,,MVFR,,,,,,,,,,,,METAR,4.0
ENVD 210550Z 23004KT 9999 BKN007 M03/M05 Q0979,ENVD,2015-02-21T05:50:00Z,70.07,29.85,-3.0,-5.0,230,4,,6.21,28.90748,,,,,,,,,,,BKN,700,,,,,,,IFR,,,,,,,,,,,,METAR,39.0
ENRS 210550Z 22004KT 9999 SCT018 01/M00 Q0978,ENRS,2015-02-21T05:50:00Z,67.52,12.08,1.0,0.0,220,4,,6.21,28.877953,,,,,,,,,,,SCT,1800,,,,,,,VFR,,,,,,,,,,,,METAR,4.0
ENMS 210550Z 15008KT 9000 -SNRA SCT006 BKN008 02/00 Q0981 RMK WIND 412FT 15005KT,ENMS,2015-02-21T05:50:00Z,65.78,13.22,2.0,0.0,150,8,,5.59,28.966536,,,,,,,,,,-SN -RA,SCT,600,BKN,800,,,,,IFR,,,,,,,,,,,,METAR,70.0
ENNK 210550Z 21012KT 9999 -SHRA VV018 04/01 Q0976,ENNK,2015-02-21T05:50:00Z,68.47,17.38,4.0,1.0,210,12,,6.21,28.818897,,,,,,,,,,-SHRA,OVX,0,,,,,,,LIFR,,,,,,,,,,,1800,METAR,23.0
ENMH 210550Z 17008KT CAVOK M04/M06 Q0977,ENMH,2015-02-21T05:50:00Z,71.02,27.82,-4.0,-6.0,170,8,,6.21,28.848425,,,,,,,,,,,CAVOK,,,,,,,,VFR,,,,,,,,,,,,METAR,13.0
LOXZ 210550Z 22007KT 15KM BKN200CI 00/M07 Q1005 RMK BKN,LOXZ,2015-02-21T05:50:00Z,47.2,14.75,0.0,-7.0,220,7,,9.32,29.675198,,,,,,,,,,,,,,,,,,,,,,,,,,,,,,,METAR,682.0
NSTU 210550Z VRB03KT 11SM FEW016 SCT040 BKN120 OVC220 28/24 A2978 RMK SLP086 60038 8/828 T02820243 10309 20282 51005,NSTU,2015-02-21T05:50:00Z,-14.33,-170.72,28.2,24.3,0,3,,11.0,29.778543,1008.6,,,,,,,,,,FEW,1600,SCT,4000,BKN,12000,OVC,22000,VFR,0.5,30.9,28.2,,,,,0.38,,,,METAR,3.0
LGPA 210550Z 01011KT 9999 SCT030 10/04 Q1018,LGPA,2015-02-21T05:50:00Z,37.0,25.13,10.0,4.0,10,11,,6.21,30.059055,,,,,,,,,,,SCT,3000,,,,,,,VFR,,,,,,,,,,,,METAR,36.0
LGMK 210550Z 01008KT 9999 BKN025 08/03 Q1018,LGMK,2015-02-21T05:50:00Z,37.43,25.35,8.0,3.0,10,8,,6.21,30.059055,,,,,,,,,,,BKN,2500,,,,,,,MVFR,,,,,,,,,,,,METAR,123.0
LGKP 210550Z 31025G37KT 9999 SCT025 11/05 Q1013,LGKP,2015-02-21T05:50:00Z,35.42,27.15,11.0,5.0,310,25,37,6.21,29.911417,,,,,,,,,,,SCT,2500,,,,,,,VFR,,,,,,,,,,,,METAR,20.0
LGKF 210550Z 05003KT 9999 SCT020 08/05 Q1019,LGKF,2015-02-21T05:50:00Z,38.12,20.5,8.0,5.0,50,3,,6.21,30.088583,,,,,,,,,,,SCT,2000,,,,,,,VFR,,,,,,,,,,,,METAR,18.0
LGKC 210550Z /////KT CAVOK 03/01 Q1019,LGKC,2015-02-21T05:50:00Z,36.28,23.02,3.0,1.0,,,,6.21,30.088583,,,,,,,,,,,CAVOK,,,,,,,,VFR,,,,,,,,,,,,METAR,319.0
LGHI 210550Z 03012KT 9999 FEW020 BKN040 08/01 Q1018,LGHI,2015-02-21T05:50:00Z,38.32,26.12,8.0,1.0,30,12,,6.21,30.059055,,,,,,,,,,,FEW,2000,BKN,4000,,,,,VFR,,,,,,,,,,,,METAR,4.0
LXGB 210550Z 27005KT 9999 FEW020 BKN110 12/09 Q1014,LXGB,2015-02-21T05:50:00Z,36.13,-5.33,12.0,9.0,270,5,,6.21,29.940945,,,,,,,,,,,FEW,2000,BKN,11000,,,,,VFR,,,,,,,,,,,,METAR,5.0
TJPS 210550Z 00000KT 8SM FEW025 BKN050 22/19 A3001,TJPS,2015-02-21T05:50:00Z,18.02,-66.57,22.0,19.0,0,0,,8.0,30.008858,,,,,,,,,,,FEW,2500,BKN,5000,,,,,VFR,,,,,,,,,,,,METAR,9.0
LTCV 210550Z VRB02KT 6000 FEW003 SCT035 BKN090 02/01 Q1009,LTCV,2015-02-21T05:50:00Z,37.37,42.07,2.0,1.0,0,2,,3.73,29.793306,,,,,,,,,,,FEW,300,SCT,3500,BKN,9000,,,MVFR,,,,,,,,,,,,METAR,621.0
LGZA 210550Z 00000KT 9999 SCT018 04/04 Q1019,LGZA,2015-02-21T05:50:00Z,37.75,20.87,4.0,4.0,0,0,,6.21,30.088583,,,,,,,,,,,SCT,1800,,,,,,,VFR,,,,,,,,,,,,METAR,3.0
LTFH 210550Z 27015KT 9999 -RASN BKN028 OVC080 04/M00 Q1020 NOSIG,LTFH,2015-02-21T05:50:00Z,41.27,36.55,4.0,0.0,270,15,,6.21,30.11811,,,,,,TRUE,,,,-RA -SN,BKN,2800,OVC,8000,,,,,MVFR,,,,,,,,,,,,METAR,5.0
LTDA 210550Z 06004KT 9999 FEW035 03/02 Q1011,LTDA,2015-02-21T05:50:00Z,36.37,36.28,3.0,2.0,60,4,,6.21,29.852362,,,,,,,,,,,FEW,3500,,,,,,,VFR,,,,,,,,,,,,METAR,82.0
LTCI 210550Z 07008KT 7000 SCT035 BKN070 M01/M09 Q1003 TEMPO 2900 BR,LTCI,2015-02-21T05:50:00Z,38.45,43.32,-1.0,-9.0,70,8,,4.35,29.616142,,,,,,,,,,,SCT,3500,BKN,7000,,,,,MVFR,,,,,,,,,,,,METAR,1661.0
LTCF 210550Z 04008KT 320V090 9999 BKN030 BKN070 M05/M10 Q1009,LTCF,2015-02-21T05:50:00Z,40.57,43.12,-5.0,-10.0,40,8,,6.21,29.793306,,,,,,,,,,,BKN,3000,BKN,7000,,,,,MVFR,,,,,,,,,,,,METAR,1795.0
LTCD 210550Z 00000KT 9999 SCT040 BKN090 M02/M07 Q1010 NOSIG,LTCD,2015-02-21T05:50:00Z,39.72,39.5,-2.0,-7.0,0,0,,6.21,29.822834,,,,,,TRUE,,,,,SCT,4000,BKN,9000,,,,,VFR,,,,,,,,,,,,METAR,1215.0
LTCA 210550Z 21009KT 9999 SCT035 BKN100 M00/M05 Q1009 NOSIG,LTCA,2015-02-21T05:50:00Z,38.6,39.27,0.0,-5.0,210,9,,6.21,29.793306,,,,,,TRUE,,,,,SCT,3500,BKN,10000,,,,,VFR,,,,,,,,,,,,METAR,882.0
LTBZ 210550Z 11006KT CAVOK M07/M09 Q1017,LTBZ,2015-02-21T05:50:00Z,38.63,27.35,-7.0,-9.0,110,6,,6.21,30.029528,,,,,,,,,,,CAVOK,,,,,,,,VFR,,,,,,,,,,,,METAR,73.0
LTBY 210550Z 25006KT CAVOK M04/M06 Q1018,LTBY,2015-02-21T05:50:00Z,39.82,30.52,-4.0,-6.0,250,6,,6.21,30.059055,,,,,,,,,,,CAVOK,,,,,,,,VFR,,,,,,,,,,,,METAR,789.0
LTAY 210550Z VRB02KT CAVOK M02/M06 Q1016,LTAY,2015-02-21T05:50:00Z,37.77,29.68,-2.0,-6.0,0,2,,6.21,30.0,,,,,,,,,,,CAVOK,,,,,,,,VFR,,,,,,,,,,,,METAR,849.0
LTAR 210550Z VRB02KT 9999 SCT040 M13/M14 Q1011,LTAR,2015-02-21T05:50:00Z,39.8,36.9,-13.0,-14.0,0,2,,6.21,29.852362,,,,,,,,,,,SCT,4000,,,,,,,VFR,,,,,,,,,,,,METAR,1271.0
EEKE 210550Z AUTO 21012KT 4500NDV BR FEW010 OVC029 02/02 Q1000,EEKE,2015-02-21T05:50:00Z,58.23,22.52,2.0,2.0,210,12,,,29.52756,,,TRUE,,,,,,,BR,FEW,1000,OVC,2900,,,,,,,,,,,,,,,,,METAR,4.0
MUVR 210550Z 10004KT 9000 FEW040 12/09 Q1023,MUVR,2015-02-21T05:50:00Z,23.03,-81.43,12.0,9.0,100,4,,5.59,30.206694,,,,,,,,,,,FEW,4000,,,,,,,VFR,,,,,,,,,,,,METAR,65.0
MMSP 210548Z 17008KT 10SM SKC 12/02 A3013 RMK SLP070 52014 990,MMSP,2015-02-21T05:48:00Z,22.25,-100.93,12.0,2.0,170,8,,10.0,30.129921,1007.0,,,,,,,,,,SKC,,,,,,,,VFR,1.4,,,,,,,,,,,METAR,1903.0
KMHR 210548Z 13009KT 1/4SM FG OVC002 09/09 A2998 RMK TOPS REPORTED AT FIVE HUNDRED FEET,KMHR,2015-02-21T05:48:00Z,38.53,-121.28,9.0,9.0,130,9,,0.25,29.97933,,,,,,,,,,FG,OVC,200,,,,,,,LIFR,,,,,,,,,,,,SPECI,29.0
KJDN 210548Z AUTO 36015G21KT M02/M06 A3004 RMK AO1 SLP199 T10221061 10033 21022 53016,KJDN,2015-02-21T05:48:00Z,47.33,-106.95,-2.2,-6.1,360,15,21,,30.041338,1019.9,,TRUE,TRUE,,,,,,,,,,,,,,,,1.6,3.3,-2.2,,,,,,,,,METAR,801.0
MMLO 210547Z 01004KT 8SM SKC 14/02 A3024 RMK SLP118 52007 960,MMLO,2015-02-21T05:47:00Z,21.0,-101.47,14.0,2.0,10,4,,8.0,30.239174,1011.8,,,,,,,,,,SKC,,,,,,,,VFR,0.7,,,,,,,,,,,METAR,1819.0
MMPR 210547Z 03005KT 10SM BKN020 23/21 A2994 RMK SLP138 52007 972 8/500 HZY,MMPR,2015-02-21T05:47:00Z,20.67,-105.25,23.0,21.0,30,5,,10.0,29.940945,1013.8,,,,,,,,,,BKN,2000,,,,,,,MVFR,0.7,,,,,,,,,,,METAR,6.0
MMMY 210547Z 08005KT 15SM SKC 16/12 A2986 RMK SLP117 52008 993,MMMY,2015-02-21T05:47:00Z,25.77,-100.08,16.0,12.0,80,5,,15.0,29.861221,1011.7,,,,,,,,,,SKC,,,,,,,,VFR,0.8,,,,,,,,,,,SPECI,387.0
PADL 210547Z 06025G36KT 10SM OVC050 04/01 A2952,PADL,2015-02-21T05:47:00Z,59.05,-158.52,4.0,1.0,60,25,36,10.0,29.518702,,,,,,,,,,,OVC,5000,,,,,,,VFR,,,,,,,,,,,,METAR,26.0
KCQT 210547Z AUTO 00000KT 5SM HZ CLR 14/11 A2997 RMK AO2 SLP147 T01440111 10194 20144 51006,KCQT,2015-02-21T05:47:00Z,34.02,-118.28,14.4,11.1,0,0,,5.0,29.970472,1014.7,,TRUE,TRUE,,,,,,HZ,CLR,,,,,,,,MVFR,0.6,19.4,14.4,,,,,,,,,METAR,56.0
MMCZ 210547Z 00000KT 7SM FEW015 14/12 A3014 RMK SLP201 57024 970 8/500 RTS,MMCZ,2015-02-21T05:47:00Z,20.52,-86.92,14.0,12.0,0,0,,7.0,30.138779,1020.1,,,,,,,,,,FEW,1500,,,,,,,VFR,-2.4,,,,,,,,,,,METAR,5.0
MMOX 210546Z 00000KT 7SM SKC 17/10 A3019 RMK SLP111 54009 992 CI,MMOX,2015-02-21T05:46:00Z,17.0,-96.72,17.0,10.0,0,0,,7.0,30.188976,1011.1,,,,,,,,,,SKC,,,,,,,,VFR,,,,,,,,,,,,METAR,1528.0
MMMD 210546Z 10012KT 7SM SKC 18/11 A3012 RMK SLP197 58010 990,MMMD,2015-02-21T05:46:00Z,20.95,-89.65,18.0,11.0,100,12,,7.0,30.121063,1019.7,,,,,,,,,,SKC,,,,,,,,VFR,-1.0,,,,,,,,,,,METAR,10.0
MMTC 210546Z 00000KT 10SM SKC 18/06 A2995 RMK SLP066 51007 9//,MMTC,2015-02-21T05:46:00Z,25.57,-103.4,18.0,6.0,0,0,,10.0,29.949802,1006.6,,,,,,,,,,SKC,,,,,,,,VFR,0.7,,,,,,,,,,,SPECI,1124.0
MMTO 210546Z 34004KT 5SM SCT015 10/06 A3036 RMK SLP096 52001 968 8/400 HZ RTS,MMTO,2015-02-21T05:46:00Z,19.35,-99.57,10.0,6.0,340,4,,5.0,30.360237,1009.6,,,,,,,,,,SCT,1500,,,,,,,MVFR,0.1,,,,,,,,,,,METAR,2576.0
MMMX 210545Z 18004KT 10SM SKC 17/08 A3027 NOSIG RMK SLP073 52011 968 HZY,MMMX,2015-02-21T05:45:00Z,19.42,-99.08,17.0,8.0,180,4,,10.0,30.268702,1007.3,,,,,TRUE,,,,,SKC,,,,,,,,VFR,1.1,,,,,,,,,,,METAR,2238.0
MMQT 210545Z 33006KT 10SM SKC 15/05 A3022,MMQT,2015-02-21T05:45:00Z,20.62,-100.18,15.0,5.0,330,6,,10.0,30.221457,,,,,,,,,,,SKC,,,,,,,,VFR,,,,,,,,,,,,METAR,1813.0
LHBC 210545Z 12004KT 3200 BR BKN200 M03/M05 Q1015,LHBC,2015-02-21T05:45:00Z,46.68,21.17,-3.0,-5.0,120,4,,1.99,29.970472,,,,,,,,,,BR,BKN,20000,,,,,,,IFR,,,,,,,,,,,,METAR,86.0
MMUN 210545Z 10008KT 7SM FEW018 19/12 A3015 RMK SLP199 56006 973 8/500,MMUN,2015-02-21T05:45:00Z,21.02,-86.85,19.0,12.0,100,8,,7.0,30.15059,1019.9,,,,,,,,,,FEW,1800,,,,,,,VFR,-0.6,,,,,,,,,,,METAR,10.0
MMRX 210545Z 16012G24KT 6SM SKC 18/15 A2988 RMK SLP115 56003 994 HZY FU,MMRX,2015-02-21T05:45:00Z,26.02,-98.22,18.0,15.0,160,12,24,6.0,29.878937,1011.5,,,,,,,,,,SKC,,,,,,,,VFR,-0.3,,,,,,,,,,,SPECI,39.0
MMZC 210544Z 19010KT 10SM SKC 11/M02 A3021,MMZC,2015-02-21T05:44:00Z,22.9,-102.68,11.0,-2.0,190,10,,10.0,30.209646,,,,,,,,,,,SKC,,,,,,,,VFR,,,,,,,,,,,,METAR,2177.0
MMCU 210544Z 00000KT 10SM BKN090 BKN200 16/M04 A3003 RMK SLP093 52017 960 8/072,MMCU,2015-02-21T05:44:00Z,28.7,-105.97,16.0,-4.0,0,0,,10.0,30.029528,1009.3,,,,,,,,,,BKN,9000,BKN,20000,,,,,VFR,1.7,,,,,,,,,,,SPECI,1372.0
MMHO 210543Z 33003KT 10SM OVC080 22/09 A2996 RMK SLP137 52021 970 8/07/ HZY,MMHO,2015-02-21T05:43:00Z,29.08,-111.05,22.0,9.0,330,3,,10.0,29.958662,1013.7,,,,,,,,,,OVC,8000,,,,,,,VFR,2.1,,,,,,,,,,,METAR,184.0
MMAA 210542Z 27006KT 8SM SKC 26/23 A2990 RMK SLP129 57022 953 HZY,MMAA,2015-02-21T05:42:00Z,16.75,-99.75,26.0,23.0,270,6,,8.0,29.899607,1012.9,,,,,,,,,,SKC,,,,,,,,VFR,-2.2,,,,,,,,,,,METAR,5.0
MMCP 210542Z 12012KT 7SM FEW100 21/15 A3004 RMK 8/030,MMCP,2015-02-21T05:42:00Z,19.82,-90.5,21.0,15.0,120,12,,7.0,30.041338,,,,,,,,,,,FEW,10000,,,,,,,VFR,,,,,,,,,,,,METAR,5.0
MMMA 210542Z 15015KT 5SM SKC 19/18 A2994 RMK SLP132 54003 994 HZ,MMMA,2015-02-21T05:42:00Z,25.77,-97.52,19.0,18.0,150,15,,5.0,29.940945,1013.2,,,,,,,,,,SKC,,,,,,,,MVFR,,,,,,,,,,,,SPECI,8.0
MMLP 210542Z 16010KT 10SM SKC 21/17 A2997 RMK SLP151 52014 976 ISOL CI,MMLP,2015-02-21T05:42:00Z,24.07,-110.37,21.0,17.0,160,10,,10.0,29.970472,1015.1,,,,,,,,,,SKC,,,,,,,,VFR,1.4,,,,,,,,,,,METAR,21.0
MMVR 210541Z 24003KT 7SM SKC 18/17 A2998 RMK SLP125 52005 993,MMVR,2015-02-21T05:41:00Z,19.15,-96.18,18.0,17.0,240,3,,7.0,29.97933,1012.5,,,,,,,,,,SKC,,,,,,,,VFR,0.5,,,,,,,,,,,METAR,16.0
MMAS 210541Z 16006KT 10SM SKC 12/M05 A3019 RMK SLP120,MMAS,2015-02-21T05:41:00Z,21.7,-102.32,12.0,-5.0,160,6,,10.0,30.188976,1012.0,,,,,,,,,,SKC,,,,,,,,VFR,,,,,,,,,,,,METAR,1863.0
MMAN 210541Z 09006KT 12SM SKC 16/12 A2990 RMK SLP098 52003 993,MMAN,2015-02-21T05:41:00Z,25.87,-100.23,16.0,12.0,90,6,,12.0,29.899607,1009.8,,,,,,,,,,SKC,,,,,,,,VFR,0.3,,,,,,,,,,,SPECI,448.0
MMMZ 210541Z 05007KT 10SM SKC 16/14 A2994 RMK SLP143 52003 961 HZY,MMMZ,2015-02-21T05:41:00Z,23.17,-106.27,16.0,14.0,50,7,,10.0,29.940945,1014.3,,,,,,,,,,SKC,,,,,,,,VFR,0.3,,,,,,,,,,,METAR,10.0
VANP 210540Z 09004KT 5000 HZ NSC 29/14 Q1017 NOSIG,VANP,2015-02-21T05:40:00Z,21.08,79.05,29.0,14.0,90,4,,3.11,30.029528,,,,,,TRUE,,,,HZ,,,,,,,,,,,,,,,,,,,,,METAR,310.0
MMDO 210540Z 20008KT 10SM SKC 15/05 A3016 RMK SLP090 52002 9// ISOL AC-CI RTS,MMDO,2015-02-21T05:40:00Z,24.12,-104.52,15.0,5.0,200,8,,10.0,30.159449,1009.0,,,,,,,,,,SKC,,,,,,,,VFR,0.2,,,,,,,,,,,METAR,1857.0
MMCM 210540Z 00000KT 7SM SKC 22/17 A3009 RMK SLP191 5//// 9// RTS,MMCM,2015-02-21T05:40:00Z,18.5,-88.33,22.0,17.0,0,0,,7.0,30.088583,1019.1,,,,,,,,,,SKC,,,,,,,,VFR,,,,,,,,,,,,METAR,12.0
MMTP 210540Z 00000KT 10SM SKC 26/23 A2993 RMK SLP125 57001 958,MMTP,2015-02-21T05:40:00Z,14.77,-92.37,26.0,23.0,0,0,,10.0,29.929134,1012.5,,,,,,,,,,SKC,,,,,,,,VFR,-0.1,,,,,,,,,,,METAR,29.0
MMCV 210540Z 15012G22KT 10SM SKC 18/14 A2992 RMK SLP130 52007 992,MMCV,2015-02-21T05:40:00Z,23.72,-98.97,18.0,14.0,150,12,22,10.0,29.920275,1013.0,,,,,,,,,,SKC,,,,,,,,VFR,0.7,,,,,,,,,,,SPECI,238.0
MMIO 210540Z 00000KT 10SM SKC 15/08 A3002,MMIO,2015-02-21T05:40:00Z,25.55,-100.93,15.0,8.0,0,0,,10.0,30.02067,,,,,,,,,,,SKC,,,,,,,,VFR,,,,,,,,,,,,METAR,1790.0
PAEM 210536Z 04011KT 10SM CLR 01/M03 A2973 RMK VIA PHONE,PAEM,2015-02-21T05:36:00Z,62.77,-164.52,1.0,-3.0,40,11,,10.0,29.731298,,,,,,,,,,,CLR,,,,,,,,VFR,,,,,,,,,,,,SPECI,3.0
PASH 210534Z 35004KT 8SM FEW012 SCT017 OVC026 M12/M13 A3003 RMK VIA PHONE,PASH,2015-02-21T05:34:00Z,66.27,-166.08,-12.0,-13.0,350,4,,8.0,30.029528,,,,,,,,,,,FEW,1200,SCT,1700,OVC,2600,,,MVFR,,,,,,,,,,,,SPECI,2.0
UUMO 210530Z 23003MPS 4000 BR SCT100 M01/M01 Q1010 NOSIG RMK QFE742/0989 26390245,UUMO,2015-02-21T05:30:00Z,55.52,37.5,-1.0,-1.0,230,6,,2.49,29.822834,,,,,,TRUE,,,,BR,SCT,10000,,,,,,,IFR,,,,,,,,,,,,METAR,174.0
VIBN 210530Z 25005KT 3000 HZ NSC 26/16 Q1015,VIBN,2015-02-21T05:30:00Z,25.43,82.87,26.0,16.0,250,5,,1.86,29.970472,,,,,,,,,,HZ,,,,,,,,,,,,,,,,,,,,,SPECI,85.0
RJCT 210527Z 26003KT 9999 FEW050 00/M07 Q1027 RMK 1CU050 A3032 W/E,RJCT,2015-02-21T05:27:00Z,42.88,143.17,0.0,-7.0,260,3,,6.21,30.324802,,,,,,,,,,,FEW,5000,,,,,,,VFR,,,,,,,,,,,,SPECI,84.0
