No errors
No warnings
286 ms
data source=metars
4723 results
raw_text,station_id,observation_time,latitude,longitude,temp_c,dewpoint_c,wind_dir_degrees,wind_speed_kt,wind_gust_kt,visibility_statute_mi,altim_in_hg,sea_level_pressure_mb,corrected,auto,auto_station,maintenance_indicator_on,no_signal,lightning_sensor_off,freezing_rain_sensor_off,present_weather_sensor_off,wx_string,sky_cover,cloud_base_ft_agl,sky_cover,cloud_base_ft_agl,sky_cover,cloud_base_ft_agl,sky_cover,cloud_base_ft_agl,flight_category,three_hr_pressure_tendency_mb,maxT_c,minT_c,maxT24hr_c,minT24hr_c,precip_in,pcp3hr_in,pcp6hr_in,pcp24hr_in,snow_in,vert_vis_ft,metar_type,elevation_m
UTO8 M M M 105/-24/-26/1920/M/ PK WND 1924 1652Z SOG 22 8011 79MM,UTO8,2015-02-21T17:08:09Z,,,,,,,,4.98,,,,,,,,,,,,,,,,,,,,,,,,,,,,,,,,METAR,
CZSJ 211708Z AUTO 35009G15KT 300V360 5SM HZ FEW019 SCT030 M30/M35 A3018 RMK SLP265,CZSJ,2015-02-21T17:08:00Z,53.07,-93.35,-30.0,-35.0,350,9,15,5.0,30.180119,1026.5,,TRUE,,,,,,,HZ,FEW,1900,SCT,3000,,,,,MVFR,,,,,,,,,,,,SPECI,290.0
KDLZ 211707Z AUTO 17004KT 1 3/4SM -SN OVC010 M04/M05 A2992 RMK AO2,KDLZ,2015-02-21T17:07:00Z,40.28,-83.12,-4.0,-5.0,170,4,,1.75,29.920275,,,TRUE,TRUE,,,,,,-SN,OVC,1000,,,,,,,IFR,,,,,,,,,,,,METAR,289.0
YCFS 211707Z AUTO 10010KT 6000 -SHRA SCT015 BKN036 OVC060 23/22 Q1012,YCFS,2015-02-21T17:07:00Z,-30.32,153.12,23.0,22.0,100,10,,3.73,29.88189,,,TRUE,,,,,,,-SHRA,SCT,1500,BKN,3600,OVC,6000,,,MVFR,,,,,,,,,,,,SPECI,5.0
KCRP 211706Z 17014KT 10SM SCT023 BKN032 OVC040 22/17 A2992 RMK AO2 T02220172,KCRP,2015-02-21T17:06:00Z,27.77,-97.5,22.2,17.2,170,14,,10.0,29.920275,,,,TRUE,,,,,,,SCT,2300,BKN,3200,OVC,4000,,,VFR,,,,,,,,,,,,SPECI,14.0
KBZN 211706Z 31006KT 1 3/4SM -SN BKN022 OVC031 M06/M09 A3019 RMK AO2 P0000 T10561089,KBZN,2015-02-21T17:06:00Z,45.78,-111.17,-5.6,-8.9,310,6,,1.75,30.188976,,,,TRUE,,,,,,-SN,BKN,2200,OVC,3100,,,,,IFR,,,,,,0.0050,,,,,,SPECI,1361.0
KCVG 211706Z 20009KT 1 3/4SM R18C/5000VP6000FT -SN BR OVC006 01/00 A2990 RMK AO2 TWR VIS 2 1/2 UPE1654SNB1656 P0000,KCVG,2015-02-21T17:06:00Z,39.05,-84.67,1.0,0.0,200,9,,1.75,29.899607,,,,TRUE,,,,,,-SN BR,OVC,600,,,,,,,IFR,,,,,,0.0050,,,,,,SPECI,269.0
KONT 211706Z 00000KT 4SM HZ SCT022 OVC030 13/10 A3001 RMK AO2 VIS S 2 1/2 T01330100,KONT,2015-02-21T17:06:00Z,34.05,-117.58,13.3,10.0,0,0,,4.0,30.008858,,,,TRUE,,,,,,HZ,SCT,2200,OVC,3000,,,,,MVFR,,,,,,,,,,,,SPECI,274.0
KOVS 211706Z AUTO 02005KT 10SM SCT027 BKN110 M01/M08 A2995 RMK AO2 T10061078,KOVS,2015-02-21T17:06:00Z,43.15,-90.68,-0.6,-7.8,20,5,,10.0,29.949802,,,TRUE,TRUE,,,,,,,SCT,2700,BKN,11000,,,,,VFR,,,,,,,,,,,,SPECI,202.0
KTDZ 211706Z AUTO 22003KT 1SM -SN BR VV016 M07/M09 A2996 RMK AO2 P0000 T10671089 TSNO,KTDZ,2015-02-21T17:06:00Z,41.57,-83.48,-6.7,-8.9,220,3,,1.0,29.958662,,,TRUE,TRUE,,,TRUE,,,-SN BR,OVX,0,,,,,,,LIFR,,,,,,0.0050,,,,,1600,SPECI,189.0
KUAO 211706Z AUTO 01004KT 10SM BKN020 OVC043 08/03 A3027 RMK AO2 T00780033,KUAO,2015-02-21T17:06:00Z,45.25,-122.77,7.8,3.3,10,4,,10.0,30.268702,,,TRUE,TRUE,,,,,,,BKN,2000,OVC,4300,,,,,MVFR,,,,,,,,,,,,SPECI,59.0
CYDQ 211706Z AUTO 35003KT 290V010 9SM OVC015 M02/M04 A3055 RMK SLP384,CYDQ,2015-02-21T17:06:00Z,55.75,-120.17,-2.0,-4.0,350,3,,9.0,30.549213,1038.4,,TRUE,,,,,,,,OVC,1500,,,,,,,MVFR,,,,,,,,,,,,METAR,655.0
CYMO 211706Z AUTO 32007KT 9SM SCT019 M14/M18 A2993 RMK SLP137,CYMO,2015-02-21T17:06:00Z,51.28,-80.62,-14.0,-18.0,320,7,,9.0,29.929134,1013.7,,TRUE,,,,,,,,SCT,1900,,,,,,,VFR,,,,,,,,,,,,SPECI,10.0
CYBC 211706Z AUTO 24008KT 4SM -SN OVC028 M14/M18 A3028 RMK SLP257,CYBC,2015-02-21T17:06:00Z,49.12,-68.2,-14.0,-18.0,240,8,,4.0,30.280512,1025.7,,TRUE,,,,,,,-SN,OVC,2800,,,,,,,MVFR,,,,,,,,,,,,SPECI,22.0
CYCK 211706Z AUTO 24003KT 1 1/2SM -SN OVC020 M07/M09 A2995 RMK SLP155,CYCK,2015-02-21T17:06:00Z,42.3,-82.08,-7.0,-9.0,240,3,,1.5,29.949802,1015.5,,TRUE,,,,,,,-SN,OVC,2000,,,,,,,IFR,,,,,,,,,,,,SPECI,198.0
KNGP 211706Z AUTO 18013KT 7SM FEW025 OVC036 21/18 A2994 RMK AO2 T02060178,KNGP,2015-02-21T17:06:00Z,27.68,-97.27,20.6,17.8,180,13,,7.0,29.940945,,,TRUE,TRUE,,,,,,,FEW,2500,OVC,3600,,,,,VFR,,,,,,,,,,,,METAR,6.0
CYWA 211706Z AUTO 13008KT 9SM SCT025 OVC032 M12/M17 A3006,CYWA,2015-02-21T17:06:00Z,45.95,-77.32,-12.0,-17.0,130,8,,9.0,30.059055,,,TRUE,,,,,,,,SCT,2500,OVC,3200,,,,,VFR,,,,,,,,,,,,SPECI,130.0
KSYR 211705Z 20013G19KT 1SM R28/P6000FT -SN BKN029 OVC037 M08/M14 A3012 RMK AO2 SNB1659 CIG 024 NW T10831139 PNO $,KSYR,2015-02-21T17:05:00Z,43.12,-76.1,-8.3,-13.9,200,13,19,1.0,30.121063,,,,TRUE,TRUE,,,,,-SN,BKN,2900,OVC,3700,,,,,IFR,,,,,,,,,,,,METAR,127.0
CYTE 211705Z AUTO 01007KT 350V050 9SM -SN CLR M27/M31 A3009 RMK SLP198,CYTE,2015-02-21T17:05:00Z,64.22,-76.52,-27.0,-31.0,10,7,,9.0,30.088583,1019.8,,TRUE,,,,,,,-SN,CLR,,,,,,,,VFR,,,,,,,,,,,,METAR,47.0
KZZV 211705Z AUTO 18006KT 3SM -SN BR OVC010 M02/M04 A2995 RMK AO2 P0000 T10171039 TSNO,KZZV,2015-02-21T17:05:00Z,39.95,-81.9,-1.7,-3.9,180,6,,3.0,29.949802,,,TRUE,TRUE,,,TRUE,,,-SN BR,OVC,1000,,,,,,,MVFR,,,,,,0.0050,,,,,,METAR,268.0
KM19 211705Z AUTO 33012KT 4SM -SN BR BKN008 BKN014 OVC040 01/01 A2993 RMK AO2 CIG 004V013 P0001,KM19,2015-02-21T17:05:00Z,35.65,-91.17,1.0,1.0,330,12,,4.0,29.929134,,,TRUE,TRUE,,,,,,-SN BR,BKN,800,BKN,1400,OVC,4000,,,IFR,,,,,,0.01,,,,,,METAR,73.0
KLAF 211705Z 00000KT 1 3/4SM -SN BR FEW029 BKN035 OVC047 M04/M06 A2993 RMK AO2 P0000 T10441056,KLAF,2015-02-21T17:05:00Z,40.42,-86.93,-4.4,-5.6,0,0,,1.75,29.929134,,,,TRUE,,,,,,-SN BR,FEW,2900,BKN,3500,OVC,4700,,,IFR,,,,,,0.0050,,,,,,METAR,182.0
KEKQ 211705Z AUTO 18009KT 1SM -SN BR SCT001 BKN023 OVC037 02/01 A3000 RMK AO2 P0003,KEKQ,2015-02-21T17:05:00Z,36.85,-84.85,2.0,1.0,180,9,,1.0,30.0,,,TRUE,TRUE,,,,,,-SN BR,SCT,100,BKN,2300,OVC,3700,,,IFR,,,,,,0.03,,,,,,METAR,294.0
KDKK 211705Z AUTO 21010G18KT 1 1/4SM -SN BR SCT021 OVC029 M06/M08 A2997 RMK AO2 P0000 T10561078,KDKK,2015-02-21T17:05:00Z,42.5,-79.28,-5.6,-7.8,210,10,18,1.25,29.970472,,,TRUE,TRUE,,,,,,-SN BR,SCT,2100,OVC,2900,,,,,IFR,,,,,,0.0050,,,,,,METAR,202.0
KBGM 211705Z 18011G21KT 2SM -SN BKN023 OVC034 M10/M14 A3009 RMK AO2 P0000 T11001144,KBGM,2015-02-21T17:05:00Z,42.22,-75.98,-10.0,-14.4,180,11,21,2.0,30.088583,,,,TRUE,,,,,,-SN,BKN,2300,OVC,3400,,,,,IFR,,,,,,0.0050,,,,,,METAR,490.0
PAKV 211705Z AUTO 03011KT 10SM OVC030 M01/M07 A2976 RMK AO1 T10111067 FZRANO TSNO,PAKV,2015-02-21T17:05:00Z,64.33,-158.75,-1.1,-6.7,30,11,,10.0,29.760826,,,TRUE,TRUE,,,TRUE,TRUE,,,OVC,3000,,,,,,,MVFR,,,,,,,,,,,,METAR,61.0
PACD 211705Z 15026G34KT 4SM -RA BR FEW003 OVC011 04/04 A2922 RMK AO2 PK WND 16034/1705 P0000 T00440044,PACD,2015-02-21T17:05:00Z,55.2,-162.72,4.4,4.4,150,26,34,4.0,29.220472,,,,TRUE,,,,,,-RA BR,FEW,300,OVC,1100,,,,,MVFR,,,,,,0.0050,,,,,,METAR,30.0
KMQI 211704Z AUTO 22004KT 10SM CLR 01/M06 A3047 RMK AO2,KMQI,2015-02-21T17:04:00Z,35.92,-75.7,1.0,-6.0,220,4,,10.0,30.469488,,,TRUE,TRUE,,,,,,,CLR,,,,,,,,VFR,,,,,,,,,,,,METAR,4.0
PACZ 211704Z AUTO 10022G33KT 9SM -RA FEW019 BKN039 BKN080 03/01 A2932 RMK AO2 SLP934,PACZ,2015-02-21T17:04:00Z,61.78,-166.03,3.0,1.0,100,22,33,9.0,29.320866,993.4,,TRUE,TRUE,,,,,,-RA,FEW,1900,BKN,3900,BKN,8000,,,VFR,,,,,,,,,,,,METAR,146.0
CYTZ 211704Z AUTO 30005KT 3/4SM R26/5000FT/D -SN VV014 M07/M09 A3003 RMK SLP174,CYTZ,2015-02-21T17:04:00Z,43.63,-79.4,-7.0,-9.0,300,5,,0.75,30.029528,1017.4,,TRUE,,,,,,,-SN,OVX,0,,,,,,,LIFR,,,,,,,,,,,1400,SPECI,77.0
CYBU 211704Z AUTO 34013G18KT 9SM -SN CLR M25/M30 A3048 RMK SLP369,CYBU,2015-02-21T17:04:00Z,53.32,-104.0,-25.0,-30.0,340,13,18,9.0,30.481298,1036.9,,TRUE,,,,,,,-SN,CLR,,,,,,,,VFR,,,,,,,,,,,,SPECI,374.0
CYVL 211704Z AUTO VRB02KT 5SM -SN M20/M22 A3017 RMK CLD MISG SLP253,CYVL,2015-02-21T17:04:00Z,67.02,-126.13,-20.0,-22.0,0,2,,5.0,30.171259,1025.3,,TRUE,,,,,,,-SN,,,,,,,,,,,,,,,,,,,,,SPECI,259.0
KSGH 211704Z AUTO 00000KT 1 1/4SM -SN BR BKN006 BKN049 OVC090 M02/M03 A2991 RMK AO2 BKN V SCT UPB1658E1659SNE1658B1659 P0000,KSGH,2015-02-21T17:04:00Z,39.83,-83.83,-2.0,-3.0,0,0,,1.25,29.911417,,,TRUE,TRUE,,,,,,-SN BR,BKN,600,BKN,4900,OVC,9000,,,IFR,,,,,,0.0050,,,,,,METAR,321.0
KSDF 211704Z 18005KT 2 1/2SM -DZ BR OVC015 03/01 A2989 RMK AO2 RAE1659DZB1659 P0000 T00280011,KSDF,2015-02-21T17:04:00Z,38.18,-85.73,2.8,1.1,180,5,,2.5,29.890747,,,,TRUE,,,,,,-DZ BR,OVC,1500,,,,,,,IFR,,,,,,0.0050,,,,,,METAR,146.0
KHRO 211704Z AUTO 32006KT 8SM SCT007 02/01 A2993 RMK AO2 T00170011,KHRO,2015-02-21T17:04:00Z,36.27,-93.15,1.7,1.1,320,6,,8.0,29.929134,,,TRUE,TRUE,,,,,,,SCT,700,,,,,,,VFR,,,,,,,,,,,,METAR,417.0
KCHO 211704Z 19012KT 1 3/4SM -SN BR OVC043 M08/M11 A3033 RMK AO2 P0000 T10781106,KCHO,2015-02-21T17:04:00Z,38.13,-78.45,-7.8,-10.6,190,12,,1.75,30.33071,,,,TRUE,,,,,,-SN BR,OVC,4300,,,,,,,IFR,,,,,,0.0050,,,,,,METAR,192.0
KBNA 211704Z 00000KT 2SM R02L/2000VP6000FT RA BR OVC012 04/03 A2995 RMK AO2 P0003,KBNA,2015-02-21T17:04:00Z,36.12,-86.68,4.0,3.0,0,0,,2.0,29.949802,,,,TRUE,,,,,,RA BR,OVC,1200,,,,,,,IFR,,,,,,0.03,,,,,,METAR,210.0
KAOO 211704Z AUTO 19007G16KT 1 1/2SM -SN SCT018 SCT023 OVC029 M09/M12 A3011 RMK AO2 P0000 T10891122,KAOO,2015-02-21T17:04:00Z,40.3,-78.32,-8.9,-12.2,190,7,16,1.5,30.109253,,,TRUE,TRUE,,,,,,-SN,SCT,1800,SCT,2300,OVC,2900,,,IFR,,,,,,0.0050,,,,,,METAR,455.0
EFMI 211704Z 19006KT 150V250 9999 OVC009 02/00 Q0996,EFMI,2015-02-21T17:04:00Z,61.68,27.2,2.0,0.0,190,6,,6.21,29.409449,,,,,,,,,,,OVC,900,,,,,,,IFR,,,,,,,,,,,,METAR,138.0
CYOO 211703Z AUTO 18005KT 130V190 3/4SM -SN FEW007 OVC011 M07/M08 A3000 RMK SLP170,CYOO,2015-02-21T17:03:00Z,43.92,-78.9,-7.0,-8.0,180,5,,0.75,30.0,1017.0,,TRUE,,,,,,,-SN,FEW,700,OVC,1100,,,,,LIFR,,,,,,,,,,,,SPECI,139.0
CYNM 211703Z AUTO 18010G15KT 2 1/2SM -SN FEW019 BKN037 OVC044 M14/M18 A2988 RMK SLP148,CYNM,2015-02-21T17:03:00Z,49.77,-77.82,-14.0,-18.0,180,10,15,2.5,29.878937,1014.8,,TRUE,,,,,,,-SN,FEW,1900,BKN,3700,OVC,4400,,,IFR,,,,,,,,,,,,SPECI,281.0
KFCS 211703Z AUTO 16011KT 10SM OVC014 00/M02 A2992 RMK AO2,KFCS,2015-02-21T17:03:00Z,38.67,-104.77,0.0,-2.0,160,11,,10.0,29.920275,,,TRUE,TRUE,,,,,,,OVC,1400,,,,,,,MVFR,,,,,,,,,,,,SPECI,1789.0
KLRF 211703Z AUTO 01004KT 10SM -RA VCTS OVC008 04/03 A2990 RMK AO2 LTG DSNT SE,KLRF,2015-02-21T17:03:00Z,34.92,-92.15,4.0,3.0,10,4,,10.0,29.899607,,,TRUE,TRUE,,,,,,-RA VCTS,OVC,800,,,,,,,IFR,,,,,,,,,,,,SPECI,95.0
KPHL 211703Z 18012KT 6SM -SN FEW020 OVC040 M03/M13 A3044 RMK AO2 SNB03 P0000 T10331133,KPHL,2015-02-21T17:03:00Z,39.87,-75.23,-3.3,-13.3,180,12,,6.0,30.43996,,,,TRUE,,,,,,-SN,FEW,2000,OVC,4000,,,,,VFR,,,,,,0.0050,,,,,,SPECI,18.0
KPAH 211703Z 03006KT 2 1/2SM -RA BR BKN005 OVC032 01/00 A2987 RMK AO2 P0002 T00110000,KPAH,2015-02-21T17:03:00Z,37.07,-88.77,1.1,0.0,30,6,,2.5,29.870079,,,,TRUE,,,,,,-RA BR,BKN,500,OVC,3200,,,,,IFR,,,,,,0.02,,,,,,METAR,119.0
KMGY 211703Z AUTO 20007KT 1SM -SN BR OVC004 01/00 A2989 RMK AO2 P0000 T00060000,KMGY,2015-02-21T17:03:00Z,39.6,-84.23,0.6,0.0,200,7,,1.0,29.890747,,,TRUE,TRUE,,,,,,-SN BR,OVC,400,,,,,,,LIFR,,,,,,0.0050,,,,,,METAR,289.0
KHLG 211703Z 21011KT 2SM -SN BR OVC009 00/M02 A2995 RMK AO2 P0000 T00001017,KHLG,2015-02-21T17:03:00Z,40.17,-80.65,0.0,-1.7,210,11,,2.0,29.949802,,,,TRUE,,,,,,-SN BR,OVC,900,,,,,,,IFR,,,,,,0.0050,,,,,,METAR,372.0
KHEI 211703Z AUTO 34013G21KT 7SM -SN FEW012 SCT021 OVC065 M09/M14 A3020 RMK AO2 P0000 T10941144,KHEI,2015-02-21T17:03:00Z,46.02,-102.65,-9.4,-14.4,340,13,21,7.0,30.200787,,,TRUE,TRUE,,,,,,-SN,FEW,1200,SCT,2100,OVC,6500,,,VFR,,,,,,0.0050,,,,,,METAR,828.0
KFSD 211703Z 01012G18KT 10SM BKN020 BKN055 BKN080 M07/M13 A3011 RMK AO2 T10721128,KFSD,2015-02-21T17:03:00Z,43.58,-96.75,-7.2,-12.8,10,12,18,10.0,30.109253,,,,TRUE,,,,,,,BKN,2000,BKN,5500,BKN,8000,,,MVFR,,,,,,,,,,,,METAR,436.0
KFIG 211703Z AUTO VRB04KT 3/4SM -SN SCT013 OVC025 M09/M13 A3005 RMK AO2 P0000 T10941128,KFIG,2015-02-21T17:03:00Z,41.05,-78.42,-9.4,-12.8,0,4,,0.75,30.050198,,,TRUE,TRUE,,,,,,-SN,SCT,1300,OVC,2500,,,,,LIFR,,,,,,0.0050,,,,,,METAR,462.0
KEST 211703Z AUTO 35014KT 10SM BKN015 M07/M12 A3004 RMK AO2 T10721117,KEST,2015-02-21T17:03:00Z,43.4,-94.75,-7.2,-11.7,350,14,,10.0,30.041338,,,TRUE,TRUE,,,,,,,BKN,1500,,,,,,,MVFR,,,,,,,,,,,,METAR,401.0
KELZ 211703Z AUTO 17012G23KT 150V210 2SM -SN BKN017 BKN023 OVC034 M09/M13 A2993 RMK AO2 P0000 T10941128,KELZ,2015-02-21T17:03:00Z,42.1,-77.98,-9.4,-12.8,170,12,23,2.0,29.929134,,,TRUE,TRUE,,,,,,-SN,BKN,1700,BKN,2300,OVC,3400,,,IFR,,,,,,0.0050,,,,,,METAR,646.0
KCPS 211703Z 36007KT 10SM BKN013 BKN110 01/M02 A2995 RMK AO2 T00111022 $,KCPS,2015-02-21T17:03:00Z,38.57,-90.15,1.1,-2.2,360,7,,10.0,29.949802,,,,TRUE,TRUE,,,,,,BKN,1300,BKN,11000,,,,,MVFR,,,,,,,,,,,,METAR,126.0
PAWM 211703Z AUTO 35005KT 1 1/2SM -SN BR OVC018 M01/M02 A2961 RMK AO2 P0000 FZRANO,PAWM,2015-02-21T17:03:00Z,64.68,-163.42,-1.0,-2.0,350,5,,1.5,29.610237,,,TRUE,TRUE,,,,TRUE,,-SN BR,OVC,1800,,,,,,,IFR,,,,,,0.0050,,,,,,SPECI,82.0
PAQT 211703Z AUTO 04015KT 2SM -SN BR OVC006 M13/M15 A3016 RMK AO2 SNB1656 P0000 T11281150 TSNO,PAQT,2015-02-21T17:03:00Z,70.22,-151.0,-12.8,-15.0,40,15,,2.0,30.159449,,,TRUE,TRUE,,,TRUE,,,-SN BR,OVC,600,,,,,,,IFR,,,,,,0.0050,,,,,,METAR,12.0
KINL 211703Z AUTO 32009KT 2SM HZ OVC016 M18/M22 A3009 RMK AO2 VIS 1 1/4 RWY 31 SNE1656 P0000 T11781217,KINL,2015-02-21T17:03:00Z,48.57,-93.4,-17.8,-21.7,320,9,,2.0,30.088583,,,TRUE,TRUE,,,,,,HZ,OVC,1600,,,,,,,IFR,,,,,,0.0050,,,,,,METAR,360.0
KDAA 211703Z AUTO 15006KT 1 1/2SM -SN OVC008 M07/M09 A3040 RMK AO2 VIS 1 1/2V2,KDAA,2015-02-21T17:03:00Z,38.72,-77.17,-7.0,-9.0,150,6,,1.5,30.398623,,,TRUE,TRUE,,,,,,-SN,OVC,800,,,,,,,IFR,,,,,,,,,,,,SPECI,21.0
KTBN 211703Z AUTO 00000KT 2SM BR OVC002 00/00 A2993 RMK AO2 VIS 3/4V2,KTBN,2015-02-21T17:03:00Z,37.72,-92.12,0.0,0.0,0,0,,2.0,29.929134,,,TRUE,TRUE,,,,,,BR,OVC,200,,,,,,,LIFR,,,,,,,,,,,,SPECI,353.0
KBRO 211702Z 17022G28KT 9SM FEW020 BKN028 BKN041 24/19 A2992 RMK AO2 PK WND 17028/1700 T02440189 $,KBRO,2015-02-21T17:02:00Z,25.92,-97.42,24.4,18.9,170,22,28,9.0,29.920275,,,,TRUE,TRUE,,,,,,FEW,2000,BKN,2800,BKN,4100,,,MVFR,,,,,,,,,,,,SPECI,7.0
PAJN 211702Z 00000KT M1/4SM R08/1400V2200FT FZFG VV001 M01/M02 A3047 RMK AO2 T10111017 $,PAJN,2015-02-21T17:02:00Z,58.37,-134.58,-1.1,-1.7,0,0,,0.25,30.469488,,,,TRUE,TRUE,,,,,FZFG,OVX,0,,,,,,,LIFR,,,,,,,,,,,100,METAR,5.0
PASN 211702Z 01006KT 3SM -SN BR SCT004 OVC018 01/M01 A2907 RMK AO2 P0000 T00061006 $,PASN,2015-02-21T17:02:00Z,57.15,-170.22,0.6,-0.6,10,6,,3.0,29.069881,,,,TRUE,TRUE,,,,,-SN BR,SCT,400,OVC,1800,,,,,MVFR,,,,,,0.0050,,,,,,METAR,29.0
KBFF 211702Z AUTO 05012KT 1 1/4SM -SN BR FEW008 BKN012 OVC020 00/M02 A3002 RMK AO2 P0000 T00001022,KBFF,2015-02-21T17:02:00Z,41.87,-103.58,0.0,-2.2,50,12,,1.25,30.02067,,,TRUE,TRUE,,,,,,-SN BR,FEW,800,BKN,1200,OVC,2000,,,IFR,,,,,,0.0050,,,,,,METAR,1203.0
KBMG 211702Z 00000KT 1 1/4SM -SN BR FEW013 BKN019 OVC035 M01/M02 A2990 RMK AO2 P0000 T10111022 $,KBMG,2015-02-21T17:02:00Z,39.15,-86.62,-1.1,-2.2,0,0,,1.25,29.899607,,,,TRUE,TRUE,,,,,-SN BR,FEW,1300,BKN,1900,OVC,3500,,,IFR,,,,,,0.0050,,,,,,METAR,257.0
KBWG 211702Z AUTO 17014G22KT 3SM RA BR OVC060 03/01 A2991 RMK AO2 P0002 T00280011,KBWG,2015-02-21T17:02:00Z,36.97,-86.42,2.8,1.1,170,14,22,3.0,29.911417,,,TRUE,TRUE,,,,,,RA BR,OVC,6000,,,,,,,MVFR,,,,,,0.02,,,,,,METAR,168.0
KDCA 211702Z 18010KT 1/2SM R01/2600V2800FT SN OVC010 M06/M09 A3041 RMK AO2 P0002,KDCA,2015-02-21T17:02:00Z,38.85,-77.03,-6.0,-9.0,180,10,,0.5,30.410433,,,,TRUE,,,,,,SN,OVC,1000,,,,,,,LIFR,,,,,,0.02,,,,,,METAR,18.0
KGLD 211702Z AUTO 03006KT 10SM SCT014 BKN040 05/00 A3000 RMK AO2 T00500000,KGLD,2015-02-21T17:02:00Z,39.37,-101.7,5.0,0.0,30,6,,10.0,30.0,,,TRUE,TRUE,,,,,,,SCT,1400,BKN,4000,,,,,VFR,,,,,,,,,,,,METAR,1113.0
KLHQ 211702Z AUTO 15006KT 1 3/4SM -SN BR OVC010 M01/M02 A2993 RMK AO2 CIG 009V014 P0000 T10061022,KLHQ,2015-02-21T17:02:00Z,39.75,-82.67,-0.6,-2.2,150,6,,1.75,29.929134,,,TRUE,TRUE,,,,,,-SN BR,OVC,1000,,,,,,,IFR,,,,,,0.0050,,,,,,METAR,260.0
KMKL 211702Z 12007KT 2 1/2SM RA BR FEW032 BKN045 OVC065 07/06 A2984 RMK AO2 P0004 T00670056,KMKL,2015-02-21T17:02:00Z,35.6,-88.92,6.7,5.6,120,7,,2.5,29.840551,,,,TRUE,,,,,,RA BR,FEW,3200,BKN,4500,OVC,6500,,,IFR,,,,,,0.04,,,,,,METAR,128.0
KMNN 211702Z AUTO 00000KT 1/4SM -SN FZFG VV014 M04/M06 A2992 RMK AO2 P0000 T10441061 TSNO,KMNN,2015-02-21T17:02:00Z,40.62,-83.07,-4.4,-6.1,0,0,,0.25,29.920275,,,TRUE,TRUE,,,TRUE,,,-SN FZFG,OVX,0,,,,,,,LIFR,,,,,,0.0050,,,,,1400,METAR,301.0
KODX 211702Z AUTO 02016KT 4SM BR OVC007 M03/M05 A3007 RMK AO2 CIG 004V011 T10281050,KODX,2015-02-21T17:02:00Z,41.62,-98.95,-2.8,-5.0,20,16,,4.0,30.070866,,,TRUE,TRUE,,,,,,BR,OVC,700,,,,,,,IFR,,,,,,,,,,,,METAR,631.0
KOSU 211702Z 16004KT 1SM -SN BR OVC010 M03/M05 A2992 RMK AO2 P0000 T10331050,KOSU,2015-02-21T17:02:00Z,40.08,-83.08,-3.3,-5.0,160,4,,1.0,29.920275,,,,TRUE,,,,,,-SN BR,OVC,1000,,,,,,,IFR,,,,,,0.0050,,,,,,METAR,280.0
KPTW 211702Z AUTO VRB05KT 1/2SM SN VV014 M07/M10 A3041 RMK AO2 P0000 T10721100,KPTW,2015-02-21T17:02:00Z,40.23,-75.55,-7.2,-10.0,0,5,,0.5,30.410433,,,TRUE,TRUE,,,,,,SN,OVX,0,,,,,,,LIFR,,,,,,0.0050,,,,,1400,METAR,92.0
KSUX 211702Z 35014KT 2 1/2SM R31/4000VP6000FT -SN SCT020 BKN025 OVC044 M04/M09 A3009 RMK AO2 P0000 T10441089,KSUX,2015-02-21T17:02:00Z,42.38,-96.38,-4.4,-8.9,350,14,,2.5,30.088583,,,,TRUE,,,,,,-SN,SCT,2000,BKN,2500,OVC,4400,,,IFR,,,,,,0.0050,,,,,,METAR,338.0
CYQA 211701Z AUTO 17005KT 2SM -SN BKN016 OVC030 M10/M13 A2995 RMK VIS VRB 1-3 SLP167,CYQA,2015-02-21T17:01:00Z,44.97,-79.28,-10.0,-13.0,170,5,,2.0,29.949802,1016.7,,TRUE,,,,,,,-SN,BKN,1600,OVC,3000,,,,,IFR,,,,,,,,,,,,SPECI,282.0
KMWT 211701Z AUTO 33006KT 3SM -RA BR OVC004 07/06 A2987 RMK AO2 PRESRR P0000 T00720061,KMWT,2015-02-21T17:01:00Z,34.55,-93.58,7.2,6.1,330,6,,3.0,29.870079,,,TRUE,TRUE,,,,,,-RA BR,OVC,400,,,,,,,LIFR,,,,,,0.0050,,,,,,METAR,214.0
KNFL 211701Z 19003KT 10SM FEW250 04/M07 A3004 RMK AO2 T00441067,KNFL,2015-02-21T17:01:00Z,39.42,-118.7,4.4,-6.7,190,3,,10.0,30.041338,,,,TRUE,,,,,,,FEW,25000,,,,,,,VFR,,,,,,,,,,,,SPECI,1199.0
KSDM 211701Z 18004KT 10SM OVC029 16/08 A2999 RMK AO2 T01560083,KSDM,2015-02-21T17:01:00Z,32.58,-117.0,15.6,8.3,180,4,,10.0,29.991142,,,,TRUE,,,,,,,OVC,2900,,,,,,,MVFR,,,,,,,,,,,,METAR,159.0
KRWI 211701Z AUTO VRB03KT 10SM BKN028 OVC042 02/M05 A3040 RMK AO2 T00221050,KRWI,2015-02-21T17:01:00Z,35.85,-77.9,2.2,-5.0,0,3,,10.0,30.398623,,,TRUE,TRUE,,,,,,,BKN,2800,OVC,4200,,,,,MVFR,,,,,,,,,,,,METAR,47.0
KMQY 211701Z VRB05KT 2 1/2SM RA BR OVC018 04/03 A2995 RMK AO2 P0001,KMQY,2015-02-21T17:01:00Z,36.02,-86.52,4.0,3.0,0,5,,2.5,29.949802,,,,TRUE,,,,,,RA BR,OVC,1800,,,,,,,IFR,,,,,,0.01,,,,,,METAR,166.0
KMFD 211701Z 00000KT 1 3/4SM -SN BR BKN009 OVC019 M05/M07 A2990 RMK AO2 SNB1657 P0000 T10501067,KMFD,2015-02-21T17:01:00Z,40.82,-82.52,-5.0,-6.7,0,0,,1.75,29.899607,,,,TRUE,,,,,,-SN BR,BKN,900,OVC,1900,,,,,IFR,,,,,,0.0050,,,,,,METAR,395.0
KLOZ 211701Z AUTO 20006KT 2 1/2SM RA BKN010 BKN014 OVC030 02/M01 A3001 RMK AO2 CIG 008V012 P0003 T00221006,KLOZ,2015-02-21T17:01:00Z,37.08,-84.07,2.2,-0.6,200,6,,2.5,30.008858,,,TRUE,TRUE,,,,,,RA,BKN,1000,BKN,1400,OVC,3000,,,IFR,,,,,,0.03,,,,,,METAR,362.0
KERI 211701Z 22005KT 3SM -SN OVC021 M03/M07 A2996 RMK AO2 P0000 T10331067,KERI,2015-02-21T17:01:00Z,42.08,-80.18,-3.3,-6.7,220,5,,3.0,29.958662,,,,TRUE,,,,,,-SN,OVC,2100,,,,,,,MVFR,,,,,,0.0050,,,,,,METAR,222.0
KDET 211701Z 31004KT 1 1/4SM -SN FEW012 BKN027 OVC036 M06/M09 A2996 RMK AO2 P0000 T10561094,KDET,2015-02-21T17:01:00Z,42.4,-83.02,-5.6,-9.4,310,4,,1.25,29.958662,,,,TRUE,,,,,,-SN,FEW,1200,BKN,2700,OVC,3600,,,IFR,,,,,,0.0050,,,,,,METAR,190.0
KCRE 211701Z 10007KT 3SM RA OVC025 10/07 A3037 RMK AO1 P0001 T01000072,KCRE,2015-02-21T17:01:00Z,33.82,-78.72,10.0,7.2,100,7,,3.0,30.369095,,,,TRUE,,,,,,RA,OVC,2500,,,,,,,MVFR,,,,,,0.01,,,,,,METAR,10.0
KAOH 211701Z AUTO 00000KT 1/2SM -SN FZFG BKN016 OVC025 M04/M06 A2992 RMK AO2 P0001 T10391061,KAOH,2015-02-21T17:01:00Z,40.7,-84.02,-3.9,-6.1,0,0,,0.5,29.920275,,,TRUE,TRUE,,,,,,-SN FZFG,BKN,1600,OVC,2500,,,,,LIFR,,,,,,0.01,,,,,,METAR,296.0
PAKF 211701Z AUTO 17013G18KT 4SM -RA BR BKN007 OVC011 05/04 A2925 RMK AO2 CIG 006V009 SLP996 P0002 T00500039 $,PAKF,2015-02-21T17:01:00Z,54.85,-163.42,5.0,3.9,170,13,18,4.0,29.25,999.6,,TRUE,TRUE,TRUE,,,,,-RA BR,BKN,700,OVC,1100,,,,,IFR,,,,,,0.02,,,,,,METAR,6.0
PAIK 211701Z AUTO VRB05KT 10SM CLR M02/M04 A2985 RMK AO2 SLP152 T10171039 FZRANO,PAIK,2015-02-21T17:01:00Z,66.98,-160.43,-1.7,-3.9,0,5,,10.0,29.84941,1015.2,,TRUE,TRUE,,,,TRUE,,,CLR,,,,,,,,VFR,,,,,,,,,,,,METAR,51.0
PABA 211701Z AUTO 09012KT 1SM BR OVC004 M11/M12 A3017 RMK AO2 PRESFR SLP214 T11111117 FZRANO,PABA,2015-02-21T17:01:00Z,70.13,-143.58,-11.1,-11.7,90,12,,1.0,30.171259,1021.4,,TRUE,TRUE,,,,TRUE,,BR,OVC,400,,,,,,,LIFR,,,,,,,,,,,,METAR,2.0
KOFF 211701Z AUTO 34009KT 10SM BKN027 BKN038 OVC049 02/M02 A3003 RMK AO2 CIG 027V038 BKN027 V SCT,KOFF,2015-02-21T17:01:00Z,41.12,-95.92,2.0,-2.0,340,9,,10.0,30.029528,,,TRUE,TRUE,,,,,,,BKN,2700,BKN,3800,OVC,4900,,,MVFR,,,,,,,,,,,,SPECI,319.0
RKJK 211701Z AUTO 26008KT 3/4SM R36/2600FT UP BR VV002 07/07 A2997 RMK AO2 UPB01 $,RKJK,2015-02-21T17:01:00Z,35.9,126.62,7.0,7.0,260,8,,0.75,29.970472,,,TRUE,TRUE,TRUE,,,,,BR UP,OVX,0,,,,,,,LIFR,,,,,,,,,,,200,METAR,9.0
SBBV 211700Z 06016KT 9999 SCT040 SCT100 32/18 Q1011,SBBV,2015-02-21T17:00:00Z,2.85,-60.7,32.0,18.0,60,16,,6.21,29.852362,,,,,,,,,,,SCT,4000,SCT,10000,,,,,VFR,,,,,,,,,,,,METAR,140.0
TUPJ 211700Z 10009KT 9999 SCT019 30/24 Q1019 RMK A3010,TUPJ,2015-02-21T17:00:00Z,18.43,-64.52,30.0,24.0,100,9,,6.21,30.088583,,,,,,,,,,,SCT,1900,,,,,,,VFR,,,,,,,,,,,,METAR,4.0
OEJN 211700Z 30010KT 9999 FEW040 21/07 Q1015 NOSIG,OEJN,2015-02-21T17:00:00Z,21.68,39.15,21.0,7.0,300,10,,6.21,29.970472,,,,,,TRUE,,,,,FEW,4000,,,,,,,VFR,,,,,,,,,,,,METAR,15.0
OEMA 211700Z 27014KT CAVOK 18/00 Q1016 NOSIG,OEMA,2015-02-21T17:00:00Z,24.55,39.7,18.0,0.0,270,14,,6.21,30.0,,,,,,TRUE,,,,,CAVOK,,,,,,,,VFR,,,,,,,,,,,,METAR,631.0
OERK 211700Z 27003KT CAVOK 16/M07 Q1014 NOSIG,OERK,2015-02-21T17:00:00Z,24.95,46.72,16.0,-7.0,270,3,,6.21,29.940945,,,,,,TRUE,,,,,CAVOK,,,,,,,,VFR,,,,,,,,,,,,METAR,612.0
MGGT 211700Z 03004KT 9999 FEW018 22/13 Q1026 A3030,MGGT,2015-02-21T17:00:00Z,14.57,-90.53,22.0,13.0,30,4,,6.21,30.295275,,,,,,,,,,,FEW,1800,,,,,,,VFR,,,,,,,,,,,,METAR,1509.0
CWRF 211700Z AUTO ///// M35/ A3024 RMK SLP311,CWRF,2015-02-21T17:00:00Z,69.42,-89.72,-35.0,,,,,,30.239174,1031.1,,TRUE,,,,,,,,,,,,,,,,,,,,,,,,,,,,METAR,325.0
CWFQ 211700Z AUTO 17008KT M07/M23 RMK AO1 SOG 44 8037 PK WND 16017/1638 SLP211 T10681227,CWFQ,2015-02-21T17:00:00Z,45.03,-72.82,-6.8,-22.7,170,8,,,,1021.1,,TRUE,TRUE,,,,,,,,,,,,,,,,,,,,,,,,,,,METAR,152.0
CWGB 211700Z AUTO 26015KT 07/03 RMK AO1 PK WND 26018/1659 SLP290 T00670033 53013,CWGB,2015-02-21T17:00:00Z,49.35,-124.17,6.7,3.3,260,15,,,,1029.0,,TRUE,TRUE,,,,,,,,,,,,,,,,1.3,,,,,,,,,,,METAR,5.0
CWGD 211700Z AUTO 20008KT M09/M12 RMK AO1 SOG 10 8005 SLP151 T10901115 50002,CWGD,2015-02-21T17:00:00Z,43.77,-81.72,-9.0,-11.5,200,8,,,,1015.1,,TRUE,TRUE,,,,,,,,,,,,,,,,0.2,,,,,,,,,,,METAR,214.0
CWGL 211700Z AUTO 20004KT M10/M11 RMK AO1 SLP167 T10961112 57002,CWGL,2015-02-21T17:00:00Z,44.52,-79.22,-9.6,-11.2,200,4,,,,1016.7,,TRUE,TRUE,,,,,,,,,,,,,,,,-0.2,,,,,,,,,,,METAR,221.0
CWDM 211700Z AUTO 25020KT M10/M15 RMK AO1 SOG 65 1039 PK WND 27025/1638 SLP145 T11031149,CWDM,2015-02-21T17:00:00Z,50.47,-59.62,-10.3,-14.9,250,20,,,,1014.5,,TRUE,TRUE,,,,,,,,,,,,,,,,,,,,,,,,,,,METAR,6.0
CWBY 211700Z AUTO 27022G29KT M13/M17 RMK AO1 SOG 11 1025 PK WND 27033/1606 SLP219 T11311169,CWBY,2015-02-21T17:00:00Z,49.82,-64.28,-13.1,-16.9,270,22,29,,,1021.9,,TRUE,TRUE,,,,,,,,,,,,,,,,,,,,,,,,,,,METAR,53.0
CWNH 211700Z AUTO 20009G17KT M14/M17 RMK AO1 SOG 32 8005 PK WND 18018/1612 SLP260 T11381167,CWNH,2015-02-21T17:00:00Z,47.78,-69.53,-13.8,-16.7,200,9,17,,,1026.0,,TRUE,TRUE,,,,,,,,,,,,,,,,,,,,,,,,,,,METAR,148.0
CWGR 211700Z AUTO 25023G28KT M12/M16 RMK AO1 PK WND 24030/1604 SLP273 T11151160 51033,CWGR,2015-02-21T17:00:00Z,47.42,-61.8,-11.5,-16.0,250,23,28,,,1027.3,,TRUE,TRUE,,,,,,,,,,,,,,,,3.3,,,,,,,,,,,METAR,60.0
CWGT 211700Z AUTO 33011KT 07/04 RMK AO1 PK WND 32017/1620 SLP296 T00720044 53015,CWGT,2015-02-21T17:00:00Z,49.48,-124.43,7.2,4.4,330,11,,,,1029.6,,TRUE,TRUE,,,,,,,,,,,,,,,,1.5,,,,,,,,,,,METAR,5.0
CWGW 211700Z AUTO 00000KT M06/M08 RMK AO1 SOG 05 1015 SLP320 T10571084,CWGW,2015-02-21T17:00:00Z,49.75,-114.9,-5.7,-8.4,0,0,,,,1032.0,,TRUE,TRUE,,,,,,,,,,,,,,,,,,,,,,,,,,,METAR,1137.0
CWGX 211700Z AUTO 31008KT M32/M37 RMK AO1 SLP299 T13231374 52020,CWGX,2015-02-21T17:00:00Z,56.35,-94.7,-32.3,-37.4,310,8,,,,1029.9,,TRUE,TRUE,,,,,,,,,,,,,,,,2.0,,,,,,,,,,,METAR,145.0
CWGY 211700Z AUTO 31013KT M16/M20 RMK AO1 PK WND 31018/1645 SLP380 T11621201 51025,CWGY,2015-02-21T17:00:00Z,51.67,-110.2,-16.2,-20.1,310,13,,,,1038.0,,TRUE,TRUE,,,,,,,,,,,,,,,,2.5,,,,,,,,,,,METAR,707.0
SYGO 211700Z 08010KT 9999 SHRA BKN010 BKN080 25/23 Q1014,SYGO,2015-02-21T17:00:00Z,6.8,-58.1,25.0,23.0,80,10,,6.21,29.940945,,,,,,,,,,SHRA,BKN,1000,BKN,8000,,,,,MVFR,,,,,,,,,,,,METAR,10.0
OSLK 211700Z 04003KT 9999 FEW030 09/04 Q1017,OSLK,2015-02-21T17:00:00Z,35.4,35.95,9.0,4.0,40,3,,6.21,30.029528,,,,,,,,,,,FEW,3000,,,,,,,VFR,,,,,,,,,,,,METAR,7.0
OSDI 211700Z 25008KT CAVOK 06/M02 Q1015,OSDI,2015-02-21T17:00:00Z,33.42,36.52,6.0,-2.0,250,8,,6.21,29.970472,,,,,,,,,,,CAVOK,,,,,,,,VFR,,,,,,,,,,,,METAR,605.0
MBGT 211700Z 05023KT 9999 SCT010 BKN045 26/19 Q1022,MBGT,2015-02-21T17:00:00Z,21.43,-71.15,26.0,19.0,50,23,,6.21,30.177166,,,,,,,,,,,SCT,1000,BKN,4500,,,,,VFR,,,,,,,,,,,,METAR,4.0
SBSJ 211700Z 00000KT 9999 SCT020 FEW030TCU 33/17 Q1019,SBSJ,2015-02-21T17:00:00Z,-23.22,-45.87,33.0,17.0,0,0,,6.21,30.088583,,,,,,,,,,,SCT,2000,FEW,3000,,,,,VFR,,,,,,,,,,,,METAR,646.0
LQMO 211700Z 19005KT 150V210 9999 FEW040 BKN050 12/02 Q1011,LQMO,2015-02-21T17:00:00Z,43.28,17.83,12.0,2.0,190,5,,6.21,29.852362,,,,,,,,,,,FEW,4000,BKN,5000,,,,,VFR,,,,,,,,,,,,METAR,48.0
KQEL 211700Z AUTO 14002KT 0800 -SHRA BR BKN004 03/02 A3000 RMK A02 TSNO,KQEL,2015-02-21T17:00:00Z,100.65,-1000.65,3.0,2.0,140,2,,0.5,30.0,,,TRUE,TRUE,,,TRUE,,,-SHRA BR,BKN,400,,,,,,,LIFR,,,,,,,,,,,,METAR,999.0
KQFV 211700Z AUTO 10001KT 0800 -SHRA FG CLR 02/00 A2993 RMK A02 TSNO,KQFV,2015-02-21T17:00:00Z,100.65,-1000.65,2.0,0.0,100,1,,0.5,29.929134,,,TRUE,TRUE,,,TRUE,,,-SHRA FG,CLR,,,,,,,,LIFR,,,,,,,,,,,,METAR,999.0
MRLM 211700Z 04007KT 9999 FEW030 SCT130 28/23 A2997,MRLM,2015-02-21T17:00:00Z,9.97,-83.03,28.0,23.0,40,7,,6.21,29.970472,,,,,,,,,,,FEW,3000,SCT,13000,,,,,VFR,,,,,,,,,,,,METAR,2.0
SBEG 211700Z 17004KT 9999 SCT015 FEW025TCU BKN100 28/25 Q1011,SBEG,2015-02-21T17:00:00Z,-3.02,-60.03,28.0,25.0,170,4,,6.21,29.852362,,,,,,,,,,,SCT,1500,FEW,2500,BKN,10000,,,VFR,,,,,,,,,,,,METAR,2.0
ZMUB 211700Z 31002MPS CAVOK M24/M28 Q1022 NOSIG RMK QFE658.9 67,ZMUB,2015-02-21T17:00:00Z,47.83,106.78,-24.0,-28.0,310,4,,6.21,30.177166,,,,,,TRUE,,,,,CAVOK,,,,,,,,VFR,,,,,,,,,,,,METAR,1330.0
MNMG 211700Z 08014KT 9999 FEW024 31/18 Q1013 A2992 45% NOSIG,MNMG,2015-02-21T17:00:00Z,12.15,-86.17,31.0,18.0,80,14,,6.21,29.911417,,,,,,TRUE,,,,,FEW,2400,,,,,,,VFR,,,,,,,,,,,,METAR,59.0
MPTO 211700Z 03010KT 9999 SCT018 31/21 Q1012 NOSIG,MPTO,2015-02-21T17:00:00Z,9.05,-79.37,31.0,21.0,30,10,,6.21,29.88189,,,,,,TRUE,,,,,SCT,1800,,,,,,,VFR,,,,,,,,,,,,SPECI,45.0
MPMG 211700Z 36006KT 9999 FEW020 SCT090 31/21 Q1012 NOSIG,MPMG,2015-02-21T17:00:00Z,8.98,-79.57,31.0,21.0,360,6,,6.21,29.88189,,,,,,TRUE,,,,,FEW,2000,SCT,9000,,,,,VFR,,,,,,,,,,,,SPECI,13.0
MPPA 211700Z 01005KT 9000 SCT020 Q1013,MPPA,2015-02-21T17:00:00Z,8.92,-79.6,,,10,5,,5.59,29.911417,,,,,,,,,,,SCT,2000,,,,,,,VFR,,,,,,,,,,,,SPECI,13.0
MPDA 211700Z 17006KT 9999 FEW020 33/21 Q1010,MPDA,2015-02-21T17:00:00Z,8.4,-82.43,33.0,21.0,170,6,,6.21,29.822834,,,,,,,,,,,FEW,2000,,,,,,,VFR,,,,,,,,,,,,SPECI,27.0
SPIM 211700Z 18009KT CAVOK 28/20 Q1012 NOSIG RMK PP000,SPIM,2015-02-21T17:00:00Z,-12.02,-77.12,28.0,20.0,180,9,,6.21,29.88189,,,,,,TRUE,,,,,CAVOK,,,,,,,,VFR,,,,,,,,,,,,SPECI,13.0
SBLO 211700Z 08006KT 9999 SCT040 31/25 Q1017,SBLO,2015-02-21T17:00:00Z,-23.32,-51.12,31.0,25.0,80,6,,6.21,30.029528,,,,,,,,,,,SCT,4000,,,,,,,VFR,,,,,,,,,,,,METAR,570.0
LFVP 211700Z 26026KT 5000 -SN BKN020 M05/M07 Q1023 NOSIG,LFVP,2015-02-21T17:00:00Z,46.77,-56.18,-5.0,-7.0,260,26,,3.11,30.206694,,,,,,TRUE,,,,-SN,BKN,2000,,,,,,,MVFR,,,,,,,,,,,,METAR,8.0
UBBN 211700Z 01002KT 9999 BKN020 OVC056 00/M01 Q1015 R14R/190050 NOSIG RMK MT OP QFE686,UBBN,2015-02-21T17:00:00Z,39.18,45.45,0.0,-1.0,10,2,,6.21,29.970472,,,,,,TRUE,,,,,BKN,2000,OVC,5600,,,,,MVFR,,,,,,,,,,,,METAR,873.0
OYSN 211700Z 22006KT CAVOK 19/08 Q1024 NOSIG,OYSN,2015-02-21T17:00:00Z,15.48,44.22,19.0,8.0,220,6,,6.21,30.236221,,,,,,TRUE,,,,,CAVOK,,,,,,,,VFR,,,,,,,,,,,,METAR,2190.0
WAMM 211700Z VRB01KT 8000 FEW021 24/23 Q1013 NOSIG,WAMM,2015-02-21T17:00:00Z,1.55,124.92,24.0,23.0,0,1,,4.97,29.911417,,,,,,TRUE,,,,,FEW,2100,,,,,,,MVFR,,,,,,,,,,,,METAR,80.0
SBPV 211700Z 36005KT 9999 SCT006 OVC080 23/21 Q1013,SBPV,2015-02-21T17:00:00Z,-8.72,-63.9,23.0,21.0,360,5,,6.21,29.911417,,,,,,,,,,,SCT,600,OVC,8000,,,,,VFR,,,,,,,,,,,,METAR,88.0
SBCG 211700Z 01003KT 9999 BKN040 FEW045TCU 30/20 Q1016,SBCG,2015-02-21T17:00:00Z,-20.47,-54.67,30.0,20.0,10,3,,6.21,30.0,,,,,,,,,,,BKN,4000,FEW,4500,,,,,VFR,,,,,,,,,,,,METAR,567.0
MPBO 211700Z VRB02KT 9999 SCT018 Q1016,MPBO,2015-02-21T17:00:00Z,9.35,-82.25,,,0,2,,6.21,30.0,,,,,,,,,,,SCT,1800,,,,,,,VFR,,,,,,,,,,,,SPECI,3.0
ORMM 211700Z 12006KT 9999 FEW040 SCT100 15/01 Q1012 NOSIG,ORMM,2015-02-21T17:00:00Z,30.57,47.67,15.0,1.0,120,6,,6.21,29.88189,,,,,,TRUE,,,,,FEW,4000,SCT,10000,,,,,VFR,,,,,,,,,,,,METAR,2.0
GGOV 211700Z 02010KT CAVOK 32/05 Q1008 NOSIG,GGOV,2015-02-21T17:00:00Z,11.87,-15.65,32.0,5.0,20,10,,6.21,29.763779,,,,,,TRUE,,,,,CAVOK,,,,,,,,VFR,,,,,,,,,,,,METAR,36.0
TBPB 211700Z 07020KT 9999 SCT018 BKN300 29/22 Q1016 NOSIG,TBPB,2015-02-21T17:00:00Z,13.07,-59.48,29.0,22.0,70,20,,6.21,30.0,,,,,,TRUE,,,,,SCT,1800,BKN,30000,,,,,VFR,,,,,,,,,,,,METAR,52.0
HRYR 211700Z 04003KT 9999 FEW025 22/18 Q1016 NOSIG,HRYR,2015-02-21T17:00:00Z,-1.97,30.12,22.0,18.0,40,3,,6.21,30.0,,,,,,TRUE,,,,,FEW,2500,,,,,,,VFR,,,,,,,,,,,,METAR,1497.0
NFTF 211700Z 14007KT 9999 SCT016 BKN030 25/23 Q1008 RESH,NFTF,2015-02-21T17:00:00Z,-21.23,-175.15,25.0,23.0,140,7,,6.21,29.763779,,,,,,,,,,,SCT,1600,BKN,3000,,,,,MVFR,,,,,,,,,,,,METAR,38.0
NFTV 211700Z 27009KT 9999 FEW007 BKN100 27/24 Q1008,NFTV,2015-02-21T17:00:00Z,-18.58,-173.97,27.0,24.0,270,9,,6.21,29.763779,,,,,,,,,,,FEW,700,BKN,10000,,,,,VFR,,,,,,,,,,,,METAR,71.0
BIIS 211700Z 09014G24KT 050V160 9999 FEW025 BKN045 M06/M12 Q1002 R88/790335,BIIS,2015-02-21T17:00:00Z,66.05,-23.13,-6.0,-12.0,90,14,24,6.21,29.586615,,,,,,,,,,,FEW,2500,BKN,4500,,,,,VFR,,,,,,,,,,,,METAR,3.0
TVSV 211700Z 09015KT 9999 BKN020 28/23 Q1017,TVSV,2015-02-21T17:00:00Z,13.13,-61.2,28.0,23.0,90,15,,6.21,30.029528,,,,,,,,,,,BKN,2000,,,,,,,MVFR,,,,,,,,,,,,METAR,9.0
ORSU 211700Z VRB02KT 8000 NSC 01/00 Q1015,ORSU,2015-02-21T17:00:00Z,35.57,45.32,1.0,0.0,0,2,,4.97,29.970472,,,,,,,,,,,,,,,,,,,,,,,,,,,,,,,METAR,761.0
MHTG 211700Z 35007KT 9999 FEW032 25/14 Q1021 A3015 NOSIG,MHTG,2015-02-21T17:00:00Z,14.07,-87.22,25.0,14.0,350,7,,6.21,30.147638,,,,,,TRUE,,,,,FEW,3200,,,,,,,VFR,,,,,,,,,,,,METAR,1004.0
MHRO 211700Z 09008KT 9999 FEW025 27/18 Q1018 A3006 NOSIG,MHRO,2015-02-21T17:00:00Z,16.32,-86.53,27.0,18.0,90,8,,6.21,30.059055,,,,,,TRUE,,,,,FEW,2500,,,,,,,VFR,,,,,,,,,,,,METAR,5.0
MHLM 211700Z 00000KT 9999 SCT026 26/20 Q1017 A3003 NOSIG,MHLM,2015-02-21T17:00:00Z,15.45,-87.93,26.0,20.0,0,0,,6.21,30.029528,,,,,,TRUE,,,,,SCT,2600,,,,,,,VFR,,,,,,,,,,,,METAR,26.0
MHLC 211700Z 26003KT 9999 FEW024 26/21 Q1017 A3003 NOSIG,MHLC,2015-02-21T17:00:00Z,15.75,-86.85,26.0,21.0,260,3,,6.21,30.029528,,,,,,TRUE,,,,,FEW,2400,,,,,,,VFR,,,,,,,,,,,,METAR,15.0
OYTZ 211700Z 25007KT 9999 FEW030 21/16 Q1018,OYTZ,2015-02-21T17:00:00Z,13.67,44.12,21.0,16.0,250,7,,6.21,30.059055,,,,,,,,,,,FEW,3000,,,,,,,VFR,,,,,,,,,,,,METAR,1385.0
OYRN 211700Z 05003KT CAVOK 25/20 Q1013,OYRN,2015-02-21T17:00:00Z,14.67,49.38,25.0,20.0,50,3,,6.21,29.911417,,,,,,,,,,,CAVOK,,,,,,,,VFR,,,,,,,,,,,,METAR,17.0
OYDM 211700Z 25003KT CAVOK 16/09 Q////,OYDM,2015-02-21T17:00:00Z,14.53,44.43,16.0,9.0,250,3,,6.21,,,,,,,,,,,,CAVOK,,,,,,,,VFR,,,,,,,,,,,,METAR,2425.0
OYHD 211700Z 30004KT 280V340 8000 FEW030 27/23 Q1010,OYHD,2015-02-21T17:00:00Z,14.75,42.97,27.0,23.0,300,4,,4.97,29.822834,,,,,,,,,,,FEW,3000,,,,,,,MVFR,,,,,,,,,,,,METAR,115.0
MRLB 211700Z 10019G31KT 9999 FEW035 32/17 A2985,MRLB,2015-02-21T17:00:00Z,10.6,-85.55,32.0,17.0,100,19,31,6.21,29.84941,,,,,,,,,,,FEW,3500,,,,,,,VFR,,,,,,,,,,,,METAR,82.0
FMMI 211700Z 00000KT 8000 -RA VCTS FEW017CB BKN020 19/19 Q1020 TEMPO 4000 RA,FMMI,2015-02-21T17:00:00Z,-18.8,47.47,19.0,19.0,0,0,,4.97,30.11811,,,,,,,,,,-RA VCTS,FEW,1700,BKN,2000,,,,,MVFR,,,,,,,,,,,,METAR,1276.0
SBMN 211700Z 06005KT 9999 SCT025 FEW030TCU BKN100 29/23 Q10 11,SBMN,2015-02-21T17:00:00Z,-3.13,-59.97,29.0,23.0,60,5,,6.21,,,,,,,,,,,,SCT,2500,FEW,3000,BKN,10000,,,VFR,,,,,,,,,,,,METAR,84.0
NFFN 211700Z 06002KT 9999 FEW030 25/24 Q1006 NOSIG,NFFN,2015-02-21T17:00:00Z,-17.75,177.45,25.0,24.0,60,2,,6.21,29.704725,,,,,,TRUE,,,,,FEW,3000,,,,,,,VFR,,,,,,,,,,,,METAR,18.0
MHCH 211700Z 03016KT 9999 FEW034 32/17 HZ,MHCH,2015-02-21T17:00:00Z,13.32,-87.15,32.0,17.0,30,16,,6.21,,,,,,,,,,,HZ,FEW,3400,,,,,,,VFR,,,,,,,,,,,,METAR,48.0
MHLE 211700Z 10002KT 9999 SCT024 23/12,MHLE,2015-02-21T17:00:00Z,14.32,-88.15,23.0,12.0,100,2,,6.21,,,,,,,,,,,,SCT,2400,,,,,,,VFR,,,,,,,,,,,,METAR,1100.0
MHNO 211700Z 01005KT 9999 FEW040 26/15 Q1019 HZ,MHNO,2015-02-21T17:00:00Z,14.43,-89.18,26.0,15.0,10,5,,6.21,30.088583,,,,,,,,,,HZ,FEW,4000,,,,,,,VFR,,,,,,,,,,,,METAR,2.0
MHSR 211700Z 00000KT 9999 SCT020 20/14 HZ,MHSR,2015-02-21T17:00:00Z,14.78,-88.78,20.0,14.0,0,0,,6.21,,,,,,,,,,,HZ,SCT,2000,,,,,,,VFR,,,,,,,,,,,,METAR,1079.0
MHCA 211700Z 10004KT 9999 SCT028TCU 28/17 Q1019,MHCA,2015-02-21T17:00:00Z,14.9,-85.78,28.0,17.0,100,4,,6.21,30.088583,,,,,,,,,,,SCT,2800,,,,,,,VFR,,,,,,,,,,,,METAR,442.0
MHPL 211700Z 36005KT 9999 BKN016 OVC080 25/22 Q1018 REDZ VCSH ALL HZ,MHPL,2015-02-21T17:00:00Z,15.27,-83.78,25.0,22.0,360,5,,6.21,30.059055,,,,,,,,,,VCSH HZ,BKN,1600,OVC,8000,,,,,MVFR,,,,,,,,,,,,METAR,13.0
MHYR 211700Z 27004KT 9999 SCT025 24/17 HZ,MHYR,2015-02-21T17:00:00Z,15.13,-87.12,24.0,17.0,270,4,,6.21,,,,,,,,,,,HZ,SCT,2500,,,,,,,VFR,,,,,,,,,,,,METAR,670.0
MHTE 211700Z 36006KT 9999 SKC 26/18 Q1018 HZ,MHTE,2015-02-21T17:00:00Z,15.78,-87.48,26.0,18.0,360,6,,6.21,30.059055,,,,,,,,,,HZ,SKC,,,,,,,,VFR,,,,,,,,,,,,METAR,3.0
MHTR 211700Z 09005KT 9999 FEW028 26/18 HZ,MHTR,2015-02-21T17:00:00Z,15.93,-85.93,26.0,18.0,90,5,,6.21,,,,,,,,,,,HZ,FEW,2800,,,,,,,VFR,,,,,,,,,,,,METAR,3.0
MHAM 211700Z 04006KT 9999 FEW028 33/22,MHAM,2015-02-21T17:00:00Z,13.27,-87.65,33.0,22.0,40,6,,6.21,,,,,,,,,,,,FEW,2800,,,,,,,VFR,,,,,,,,,,,,METAR,5.0
CYAH 211700Z AUTO 18006KT 040V210 4SM -SN OVC037 M20/M24 A2992 RMK SLP172,CYAH,2015-02-21T17:00:00Z,53.75,-73.67,-20.0,-24.0,180,6,,4.0,29.920275,1017.2,,TRUE,,,,,,,-SN,OVC,3700,,,,,,,MVFR,,,,,,,,,,,,METAR,306.0
CWHL 211700Z AUTO 05007KT 05/01 RMK AO1 SLP314 T00450008 53006,CWHL,2015-02-21T17:00:00Z,54.17,-130.35,4.5,0.8,50,7,,,,1031.4,,TRUE,TRUE,,,,,,,,,,,,,,,,0.6,,,,,,,,,,,METAR,5.0
CWHM 211700Z AUTO 18007KT M09/M17 RMK AO1 T10891167,CWHM,2015-02-21T17:00:00Z,45.72,-73.37,-8.9,-16.7,180,7,,,,,,TRUE,TRUE,,,,,,,,,,,,,,,,,,,,,,,,,,,METAR,192.0
CWHQ 211700Z AUTO 12005KT M11/M19 RMK AO1 T11141192,CWHQ,2015-02-21T17:00:00Z,46.68,-71.97,-11.4,-19.2,120,5,,,,,,TRUE,TRUE,,,,,,,,,,,,,,,,,,,,,,,,,,,METAR,55.0
CWHV 211700Z AUTO 17007KT M09/M21 RMK AO1 SLP241 T10931208 58037,CWHV,2015-02-21T17:00:00Z,46.2,-70.77,-9.3,-20.8,170,7,,,,1024.1,,TRUE,TRUE,,,,,,,,,,,,,,,,-3.7,,,,,,,,,,,METAR,229.0
CWIP 211700Z AUTO 25012KT M13/ RMK AO1 PK WND 26017/1619 T1128,CWIP,2015-02-21T17:00:00Z,50.17,-66.43,-12.8,,250,12,,,,,,TRUE,TRUE,,,,,,,,,,,,,,,,,,,,,,,,,,,METAR,25.0
CWII 211700Z AUTO 33007KT M26/M30 RMK AO1 T12611298,CWII,2015-02-21T17:00:00Z,50.7,-96.57,-26.1,-29.8,330,7,,,,,,TRUE,TRUE,,,,,,,,,,,,,,,,,,,,,,,,,,,METAR,220.0
CWIZ 211700Z AUTO 18017G25KT M10/M17 RMK AO1 PK WND 18025/1650 T11021166,CWIZ,2015-02-21T17:00:00Z,45.28,-73.33,-10.2,-16.6,180,17,25,,,,,TRUE,TRUE,,,,,,,,,,,,,,,,,,,,,,,,,,,METAR,45.0
CWIT 211700Z AUTO 14007KT M09/M18 RMK AO1 SLP207 T10911178 57038,CWIT,2015-02-21T17:00:00Z,45.17,-73.67,-9.1,-17.8,140,7,,,,1020.7,,TRUE,TRUE,,,,,,,,,,,,,,,,-3.8,,,,,,,,,,,METAR,52.0
CWIS 211700Z AUTO 23007KT M15/M20 RMK AO1 SOG 115 8007 SLP218 T11511197,CWIS,2015-02-21T17:00:00Z,47.28,-70.63,-15.1,-19.7,230,7,,,,1021.8,,TRUE,TRUE,,,,,,,,,,,,,,,,,,,,,,,,,,,METAR,719.0
CWJB 211700Z AUTO 03003KT M13/M18 RMK AO1 SOG 43 T11281175,CWJB,2015-02-21T17:00:00Z,46.78,-71.27,-12.8,-17.5,30,3,,,,,,TRUE,TRUE,,,,,,,,,,,,,,,,,,,,,,,,,,,METAR,91.0
FMEE 211700Z AUTO 16005KT 130V190 9999 NSC 25/22 Q1013,FMEE,2015-02-21T17:00:00Z,-20.87,55.52,25.0,22.0,160,5,,6.21,29.911417,,,TRUE,,,,,,,,,,,,,,,,,,,,,,,,,,,,METAR,25.0
CWJH 211700Z AUTO 35004KT M32/M37 RMK AO1 SOG 43 1023 SLP400 T13161369,CWJH,2015-02-21T17:00:00Z,56.32,-103.27,-31.6,-36.9,350,4,,,,1040.0,,TRUE,TRUE,,,,,,,,,,,,,,,,,,,,,,,,,,,METAR,344.0
CYCD 211700Z 32006KT 280V350 20SM SKC 07/02 A3040 RMK SLP294,CYCD,2015-02-21T17:00:00Z,49.05,-123.87,7.0,2.0,320,6,,20.0,30.398623,1029.4,,,,,,,,,,SKC,,,,,,,,VFR,,,,,,,,,,,,METAR,30.0
CYBD 211700Z 06003KT 360V130 15SM FEW250 M02/M02 A3054 RMK CI2 TR AC SLP342,CYBD,2015-02-21T17:00:00Z,52.37,-126.57,-2.0,-2.0,60,3,,15.0,30.540354,1034.2,,,,,,,,,,FEW,25000,,,,,,,VFR,,,,,,,,,,,,METAR,35.0
CBBC 211700Z AUTO 00000KT 9SM CLR 01/01 A3050 RMK PRESRR SLP330,CBBC,2015-02-21T17:00:00Z,52.18,-128.15,1.0,1.0,0,0,,9.0,30.499016,1033.0,,TRUE,,,,,,,,CLR,,,,,,,,VFR,,,,,,,,,,,,METAR,43.0
CYZG 211700Z 00000KT 15SM FEW011 BKN060 M25/M26 A2996 RMK ST2SC3 SLP182,CYZG,2015-02-21T17:00:00Z,62.17,-75.67,-25.0,-26.0,0,0,,15.0,29.958662,1018.2,,,,,,,,,,FEW,1100,BKN,6000,,,,,VFR,,,,,,,,,,,,METAR,226.0
CYWK 211700Z 25009KT 15SM SKC M18/M24 A2989 RMK SLP180,CYWK,2015-02-21T17:00:00Z,52.92,-66.87,-18.0,-24.0,250,9,,15.0,29.890747,1018.0,,,,,,,,,,SKC,,,,,,,,VFR,,,,,,,,,,,,METAR,551.0
CYUY 211700Z 19008KT 2SM -SN SCT017 OVC030 M14/M18 A2990 RMK SN2SC2SC4 VIS VRB 11/2-21/2 SLP156,CYUY,2015-02-21T17:00:00Z,48.2,-78.82,-14.0,-18.0,190,8,,2.0,29.899607,1015.6,,,,,,,,,-SN,SCT,1700,OVC,3000,,,,,IFR,,,,,,,,,,,,METAR,301.0
CYQI 211700Z 20008KT 180V240 15SM FEW030 SCT250 M04/M10 A3051 RMK SC1CI2 SLP334,CYQI,2015-02-21T17:00:00Z,43.83,-66.08,-4.0,-10.0,200,8,,15.0,30.510826,1033.4,,,,,,,,,,FEW,3000,SCT,25000,,,,,VFR,,,,,,,,,,,,METAR,43.0
CYPX 211700Z AUTO 08011KT 9SM BKN029 M27/M30 A3000 RMK SLP164,CYPX,2015-02-21T17:00:00Z,60.03,-77.27,-27.0,-30.0,80,11,,9.0,30.0,1016.4,,TRUE,,,,,,,,BKN,2900,,,,,,,MVFR,,,,,,,,,,,,METAR,23.0
CYPH 211700Z AUTO 13008KT 9SM BKN070 M25/M27 A2994 RMK SLP144,CYPH,2015-02-21T17:00:00Z,58.45,-78.08,-25.0,-27.0,130,8,,9.0,29.940945,1014.4,,TRUE,,,,,,,,BKN,7000,,,,,,,VFR,,,,,,,,,,,,METAR,3.0
CYOY 211700Z AUTO 00000KT 9SM OVC045 M12/M19 A3021 RMK SLP247,CYOY,2015-02-21T17:00:00Z,46.88,-71.5,-12.0,-19.0,0,0,,9.0,30.209646,1024.7,,TRUE,,,,,,,,OVC,4500,,,,,,,VFR,,,,,,,,,,,,METAR,168.0
CYMU 211700Z 12011KT 12SM DRSN FEW006 SCT110 OVC260 M23/M27 A2993 RMK ST0AC3CI2 SLP147,CYMU,2015-02-21T17:00:00Z,56.52,-76.52,-23.0,-27.0,120,11,,12.0,29.929134,1014.7,,,,,,,,,DRSN,FEW,600,SCT,11000,OVC,26000,,,VFR,,,,,,,,,,,,METAR,71.0
CYLA 211700Z 32007KT 7SM -SN SCT010 BKN080 OVC230 M22/M25 A3000 RMK SC3AC2CI0 SLP164,CYLA,2015-02-21T17:00:00Z,59.28,-69.58,-22.0,-25.0,320,7,,7.0,30.0,1016.4,,,,,,,,,-SN,SCT,1000,BKN,8000,OVC,23000,,,VFR,,,,,,,,,,,,METAR,35.0
CYIK 211700Z 00000KT 10SM -SN FEW013 BKN250 M22/M24 A3006 RMK ST2CS4 SLP186,CYIK,2015-02-21T17:00:00Z,62.42,-77.93,-22.0,-24.0,0,0,,10.0,30.059055,1018.6,,,,,,,,,-SN,FEW,1300,BKN,25000,,,,,VFR,,,,,,,,,,,,METAR,42.0
CYHA 211700Z 32013KT 15SM DRSN FEW006 FEW100 OVC250 M21/M23 A2998 RMK SF1AS1CS1 TR SF SLP158,CYHA,2015-02-21T17:00:00Z,61.03,-69.62,-21.0,-23.0,320,13,,15.0,29.97933,1015.8,,,,,,,,,DRSN,FEW,600,FEW,10000,OVC,25000,,,VFR,,,,,,,,,,,,METAR,30.0
CYGV 211700Z AUTO 27019G26KT 9SM CLR M11/M14 A3011 RMK SLP198,CYGV,2015-02-21T17:00:00Z,50.27,-63.62,-11.0,-14.0,270,19,26,9.0,30.109253,1019.8,,TRUE,,,,,,,,CLR,,,,,,,,VFR,,,,,,,,,,,,METAR,33.0
CYBX 211700Z 27035KT 7SM DRSN SCT120 M11/M13 A2977 RMK AC3 WND ESTD SLP084,CYBX,2015-02-21T17:00:00Z,51.45,-57.17,-11.0,-13.0,270,35,,7.0,29.769686,1008.4,,,,,,,,,DRSN,SCT,12000,,,,,,,VFR,,,,,,,,,,,,METAR,35.0
CYAS 211700Z 28003KT 15SM FEW040 BKN070 BKN260 M26/M31 A2997 RMK SC1AS5CS0 SLP167,CYAS,2015-02-21T17:00:00Z,60.02,-70.0,-26.0,-31.0,280,3,,15.0,29.970472,1016.7,,,,,,,,,,FEW,4000,BKN,7000,BKN,26000,,,VFR,,,,,,,,,,,,METAR,117.0
CYQH 211700Z 25003KT 8SM BR FEW050 SCT080 BKN130 M21/M24 A3044 RMK SC1AC3AC2 SLP377,CYQH,2015-02-21T17:00:00Z,60.12,-128.82,-21.0,-24.0,250,3,,8.0,30.43996,1037.7,,,,,,,,,BR,FEW,5000,SCT,8000,BKN,13000,,,VFR,,,,,,,,,,,,METAR,690.0
CYPW 211700Z 27003KT 250V310 20SM MIFG SCT001 SCT230 03/03 A3041 RMK ST3CI1 CI TR VIS N-E 1 IN FG SLP302,CYPW,2015-02-21T17:00:00Z,49.82,-124.5,3.0,3.0,270,3,,20.0,30.410433,1030.2,,,,,,,,,MIFG,SCT,100,SCT,23000,,,,,VFR,,,,,,,,,,,,METAR,130.0
CYOC 211700Z 00000KT 3/8SM FZFG BKN035 BKN085 M23/M26 A3015 RMK FG2SC3AC1 AC TR FROIN/VIS N-E 8 SLP243,CYOC,2015-02-21T17:00:00Z,67.57,-139.82,-23.0,-26.0,0,0,,0.38,30.15059,1024.3,,,,,,,,,FZFG,BKN,3500,BKN,8500,,,,,LIFR,,,,,,,,,,,,METAR,251.0
CYMA 211700Z 05004KT 20SM FEW045 BKN090 M10/M12 A3030 RMK SC1AS4 SLP304,CYMA,2015-02-21T17:00:00Z,63.62,-135.87,-10.0,-12.0,50,4,,20.0,30.301182,1030.4,,,,,,,,,,FEW,4500,BKN,9000,,,,,VFR,,,,,,,,,,,,METAR,504.0
CYLW 211700Z AUTO VRB02KT 9SM CLR 02/M01 A3037 RMK SLP301,CYLW,2015-02-21T17:00:00Z,49.95,-119.37,2.0,-1.0,0,2,,9.0,30.369095,1030.1,,TRUE,,,,,,,,CLR,,,,,,,,VFR,,,,,,,,,,,,METAR,430.0
CYKA 211700Z 06003KT 050V120 40SM FEW045 FEW100 04/M02 A3046 RMK SC1AC1 SC TR AC TR SLP329,CYKA,2015-02-21T17:00:00Z,50.7,-120.45,4.0,-2.0,60,3,,40.0,30.46063,1032.9,,,,,,,,,,FEW,4500,FEW,10000,,,,,VFR,,,,,,,,,,,,METAR,346.0
CYIN 211700Z AUTO 31012G17KT 9SM BKN020 M00/M04 A3040 RMK SLP332,CYIN,2015-02-21T17:00:00Z,51.27,-121.68,0.0,-4.0,310,12,17,9.0,30.398623,1033.2,,TRUE,,,,,,,,BKN,2000,,,,,,,MVFR,,,,,,,,,,,,METAR,1128.0
CYGE 211700Z 32009KT 20SM SCT075 01/M11 A3039 RMK CU4 SLP324,CYGE,2015-02-21T17:00:00Z,51.3,-116.98,1.0,-11.0,320,9,,20.0,30.389763,1032.4,,,,,,,,,,SCT,7500,,,,,,,VFR,,,,,,,,,,,,METAR,785.0
CYDL 211700Z AUTO 13011KT 9SM CLR M15/M15 A3049 RMK SLP373,CYDL,2015-02-21T17:00:00Z,58.42,-130.02,-15.0,-15.0,130,11,,9.0,30.490158,1037.3,,TRUE,,,,,,,,CLR,,,,,,,,VFR,,,,,,,,,,,,METAR,816.0
CYDA 211700Z VRB03KT 20SM FEW015 BKN025 BKN090 M05/M06 A3022 RMK ST2SC3AS2 SLP262,CYDA,2015-02-21T17:00:00Z,64.03,-139.12,-5.0,-6.0,0,3,,20.0,30.221457,1026.2,,,,,,,,,,FEW,1500,BKN,2500,BKN,9000,,,MVFR,,,,,,,,,,,,METAR,369.0
CYCG 211700Z VRB03KT 15SM FEW050 SCT110 01/M02 A3031 RMK SC2AC1 SLP280,CYCG,2015-02-21T17:00:00Z,49.28,-117.62,1.0,-2.0,0,3,,15.0,30.31004,1028.0,,,,,,,,,,FEW,5000,SCT,11000,,,,,VFR,,,,,,,,,,,,METAR,495.0
CMFM 211700Z AUTO 24005KT M16/M19 RMK AO1 SOG 69 8021 SLP220 T11571193 50017,CMFM,2015-02-21T17:00:00Z,47.32,-71.15,-15.7,-19.3,240,5,,,,1022.0,,TRUE,TRUE,,,,,,,,,,,,,,,,1.7,,,,,,,,,,,METAR,672.0
FMEP 211700Z AUTO 00000KT 9999 ////// 27/24 Q1013,FMEP,2015-02-21T17:00:00Z,-21.32,55.42,27.0,24.0,0,0,,6.21,29.911417,,,TRUE,,,,,,,,,,,,,,,,,,,,,,,,,,,,METAR,53.0
VOCI 211700Z 27004KT 5000 HZ NSC 26/20 Q1012 NOSIG,VOCI,2015-02-21T17:00:00Z,10.15,76.4,26.0,20.0,270,4,,3.11,29.88189,,,,,,TRUE,,,,HZ,,,,,,,,,,,,,,,,,,,,,METAR,8.0
CMGB 211700Z AUTO 22005KT M06/M19 RMK AO1 SOG 36 8041 SLP221 T10591191,CMGB,2015-02-21T17:00:00Z,45.37,-72.77,-5.9,-19.1,220,5,,,,1022.1,,TRUE,TRUE,,,,,,,,,,,,,,,,,,,,,,,,,,,METAR,86.0
SVCR 211700Z /////KT 9999 SCT013 TC 32/23 Q1015,SVCR,2015-02-21T17:00:00Z,11.42,-69.67,32.0,23.0,,,,6.21,29.970472,,,,,,,,,,,SCT,1300,,,,,,,VFR,,,,,,,,,,,,METAR,17.0
SVBM 211700Z 07012KT 9999 BKN016 27/19 Q1018,SVBM,2015-02-21T17:00:00Z,10.05,-69.37,27.0,19.0,70,12,,6.21,30.059055,,,,,,,,,,,BKN,1600,,,,,,,MVFR,,,,,,,,,,,,METAR,614.0
YCCY 211700Z AUTO 34010KT //// // ////// 30/20 Q1008,YCCY,2015-02-21T17:00:00Z,-20.67,140.5,30.0,20.0,340,10,,,29.763779,,,TRUE,,,,,,,,,,,,,,,,,,,,,,,,,,,,METAR,570.0
YCBP 211700Z AUTO 05005KT //// // NCD 27/11 Q1008,YCBP,2015-02-21T17:00:00Z,-29.03,134.72,27.0,11.0,50,5,,,29.763779,,,TRUE,,,,,,,,,,,,,,,,,,,,,,,,,,,,METAR,226.0
YCBB 211700Z AUTO 19006KT //// // ////// 17/17 Q1015,YCBB,2015-02-21T17:00:00Z,-31.33,149.27,17.0,17.0,190,6,,,29.970472,,,TRUE,,,,,,,,,,,,,,,,,,,,,,,,,,,,METAR,645.0
YCBA 211700Z AUTO 08008KT //// // ////// 26/17 Q1011,YCBA,2015-02-21T17:00:00Z,-31.53,145.8,26.0,17.0,80,8,,,29.852362,,,TRUE,,,,,,,,,,,,,,,,,,,,,,,,,,,,METAR,221.0
YCAS 211700Z AUTO 19011KT //// // ////// 21/20 Q1009,YCAS,2015-02-21T17:00:00Z,-28.88,153.07,21.0,20.0,190,11,,,29.793306,,,TRUE,,,,,,,,,,,,,,,,,,,,,,,,,,,,METAR,26.0
YCAR 211700Z AUTO 17020KT 9999 // SCT018 23/19 Q1008,YCAR,2015-02-21T17:00:00Z,-24.88,113.67,23.0,19.0,170,20,,6.21,29.763779,,,TRUE,,,,,,,,SCT,1800,,,,,,,VFR,,,,,,,,,,,,METAR,8.0
YBWX 211700Z AUTO 21020KT //// // ////// 30/24 Q1002,YBWX,2015-02-21T17:00:00Z,-20.88,115.4,30.0,24.0,210,20,,,29.586615,,,TRUE,,,,,,,,,,,,,,,,,,,,,,,,,,,,METAR,6.0
YBWP 211700Z AUTO 36001KT 9999 // NCD 26/25 Q1010,YBWP,2015-02-21T17:00:00Z,-12.68,141.92,26.0,25.0,360,1,,6.21,29.822834,,,TRUE,,,,,,,,,,,,,,,,,,,,,,,,,,,,METAR,12.0
YBUD 211700Z AUTO 00000KT 9999 // NCD 24/23 Q1008,YBUD,2015-02-21T17:00:00Z,-24.9,152.32,24.0,23.0,0,0,,6.21,29.763779,,,TRUE,,,,,,,,,,,,,,,,,,,,,,,,,,,,METAR,82.0
YBTL 211700Z AUTO 02005KT 9999 // NCD 29/26 Q1007,YBTL,2015-02-21T17:00:00Z,-19.25,146.75,29.0,26.0,20,5,,6.21,29.734253,,,TRUE,,,,,,,,,,,,,,,,,,,,,,,,,,,,METAR,6.0
LEMO 211700Z 23005KT 200V280 9999 FEW030 17/11 Q1011 NOSIG,LEMO,2015-02-21T17:00:00Z,37.17,-5.62,17.0,11.0,230,5,,6.21,29.852362,,,,,,TRUE,,,,,FEW,3000,,,,,,,VFR,,,,,,,,,,,,METAR,88.0
DAOY 211700Z 34006KT 8000 OVC010 04/03 Q1007,DAOY,2015-02-21T17:00:00Z,33.72,1.08,4.0,3.0,340,6,,4.97,29.734253,,,,,,,,,,,OVC,1000,,,,,,,MVFR,,,,,,,,,,,,METAR,1347.0
UHBB 211700Z 09004MPS 9999 -SHSN BKN033CB OVC100 M06/M06 Q1005 NOSIG RMK QFE736/0982 36491030,UHBB,2015-02-21T17:00:00Z,50.43,127.42,-6.0,-6.0,90,8,,6.21,29.675198,,,,,,TRUE,,,,-SHSN,BKN,3300,OVC,10000,,,,,VFR,,,,,,,,,,,,METAR,195.0
OPNH 211700Z 00000KT 1500M FU NSC 22/16 Q1017,OPNH,2015-02-21T17:00:00Z,26.22,68.37,22.0,16.0,0,0,,0.93,30.029528,,,,,,,,,,FU,,,,,,,,,,,,,,,,,,,,,METAR,38.0
UHMA 211700Z 36007G10MPS 9999 SCT036 BKN200 M24/M26 Q1015 RMK QFE757/1010,UHMA,2015-02-21T17:00:00Z,64.73,177.73,-24.0,-26.0,360,14,19,6.21,29.970472,,,,,,,,,,,SCT,3600,BKN,20000,,,,,VFR,,,,,,,,,,,,METAR,62.0
UHPP 211700Z 01004MPS 9999 SCT033 M15/M19 Q1017 NOSIG RMK QFE759/1013 SC070,UHPP,2015-02-21T17:00:00Z,53.17,158.45,-15.0,-19.0,10,8,,6.21,30.029528,,,,,,TRUE,,,,,SCT,3300,,,,,,,VFR,,,,,,,,,,,,METAR,40.0
UHMM 211700Z 08001MPS 9999 SKC M36/M39 Q1020 RMK QFE750,UHMM,2015-02-21T17:00:00Z,59.92,150.72,-36.0,-39.0,80,2,,6.21,30.11811,,,,,,,,,,,SKC,,,,,,,,VFR,,,,,,,,,,,,METAR,118.0
UHSS 211700Z 15003MPS 9999 BKN036CB M02/M04 Q1024 NOSIG RMK QFE767/1022 19CLRD65,UHSS,2015-02-21T17:00:00Z,46.88,142.72,-2.0,-4.0,150,6,,6.21,30.236221,,,,,,TRUE,,,,,BKN,3600,,,,,,,VFR,,,,,,,,,,,,METAR,31.0
USPP 211700Z 24007MPS 9999 -SN BKN030 OVC070 M00/M02 Q1006 21320140 NOSIG RMK QFE744/0992,USPP,2015-02-21T17:00:00Z,57.92,56.02,0.0,-2.0,240,14,,6.21,29.704725,,,,,,TRUE,,,,-SN,BKN,3000,OVC,7000,,,,,MVFR,,,-32.0,,,,,,,,,METAR,123.0
USCM 211700Z 25007MPS 8000 SCT033 M08/M11 Q1012 NOSIG 19090060 RMK QFE721,USCM,2015-02-21T17:00:00Z,53.4,58.75,-8.0,-11.0,250,14,,4.97,29.88189,,,,,,TRUE,,,,,SCT,3300,,,,,,,MVFR,,,,,,,,,,,,METAR,435.0
UHWW 211700Z 12004MPS 9999 -SHSNRA SCT010 BKN023CB OVC100 02/01 Q1014 NOSIG RMK 530005 640000 QFE759/1013 2529//60,UHWW,2015-02-21T17:00:00Z,43.4,132.15,2.0,1.0,120,8,,6.21,29.940945,,,,,,TRUE,,,,-SHSN -SHRA,SCT,1000,BKN,2300,OVC,10000,,,MVFR,0.0,,,,,,,,,,,METAR,184.0
UWKD 211700Z 24005MPS 9999 OVC017 01/M01 Q1013 R29/8/0045 NOSIG RMK QFE748/0998,UWKD,2015-02-21T17:00:00Z,55.62,49.28,1.0,-1.0,240,10,,6.21,29.911417,,,,,,TRUE,,,,,OVC,1700,,,,,,,MVFR,,,,,,,,,,,,METAR,126.0
UWKE 211700Z 22006MPS 7000 -FZDZ OVC006 M02/M03 Q1012 NOSIG RMK QBB200 QFE742/0990 21520541,UWKE,2015-02-21T17:00:00Z,55.57,52.08,-2.0,-3.0,220,12,,4.35,29.88189,,,,,,TRUE,,,,-FZDZ,OVC,600,,,,,,,IFR,,,-52.0,,,,,,,,,METAR,196.0
UWLW 211700Z 24004MPS P5000 OVC016 M02/M03 Q1016 20800250 NOSIG RMK QFE756,UWLW,2015-02-21T17:00:00Z,54.4,48.8,-2.0,-3.0,240,8,,3.11,30.0,,,,,,TRUE,,,,,OVC,1600,,,,,,,MVFR,,,,,,20.8,,,,,,METAR,66.0
UWKS 211700Z 24006MPS 8000 SKC M01/M03 Q1012 NOSIG RMK QFE745 24550337,UWKS,2015-02-21T17:00:00Z,56.08,47.35,-1.0,-3.0,240,12,,4.97,29.88189,,,,,,TRUE,,,,,SKC,,,,,,,,MVFR,,,,,,,,,,,,METAR,170.0
UWOR 211700Z 28006MPS CAVOK M09/M15 Q1018 25850250 NOSIG RMK QFE740/0987,UWOR,2015-02-21T17:00:00Z,51.07,58.6,-9.0,-15.0,280,12,,6.21,30.059055,,,,,,TRUE,,,,,CAVOK,,,,,,,,VFR,,,,,,,,,,,,METAR,277.0
UWOO 211700Z 23004MPS P5000 BKN040 OVC070 M09/M16 Q1021 26420353 NOSIG RMK QFE755/1007,UWOO,2015-02-21T17:00:00Z,51.8,55.47,-9.0,-16.0,230,8,,3.11,30.147638,,,,,,TRUE,,,,,BKN,4000,OVC,7000,,,,,MVFR,,,,,,26.42,,,,,,METAR,109.0
UWUU 211700Z 20006MPS 2500 -SN OVC012 M06/M07 Q1015 14491044 TEMPO 1500 SN OVC005 RMK QFE750/1001,UWUU,2015-02-21T17:00:00Z,54.57,55.87,-6.0,-7.0,200,12,,1.55,29.970472,,,,,,,,,,-SN,OVC,1200,,,,,,,IFR,,,,,,,,,,,,METAR,137.0
UWWW 211700Z 21004MPS CAVOK M05/M07 Q1016 23420545 15//99// NOSIG RMK QFE751/1001,UWWW,2015-02-21T17:00:00Z,53.5,50.17,-5.0,-7.0,210,8,,6.21,30.0,,,,,,TRUE,,,,,CAVOK,,,,,,,,VFR,,,,,,,,,,,,METAR,146.0
UWSS 211700Z 23005MPS 9999 BKN033 M01/M04 Q1020 30800355 NOSIG RMK QFE752,UWSS,2015-02-21T17:00:00Z,51.57,46.07,-1.0,-4.0,230,10,,6.21,30.11811,,,,,,TRUE,,,,,BKN,3300,,,,,,,VFR,,,,,,,,,,,,METAR,166.0
USNN 211700Z 17004MPS 9999 SCT020 M13/M19 Q1008 NOSIG RMK QFE751 21410265,USNN,2015-02-21T17:00:00Z,60.95,76.48,-13.0,-19.0,170,8,,6.21,29.763779,,,,,,TRUE,,,,,SCT,2000,,,,,,,VFR,,,-41.0,,,,,,,,,METAR,54.0
UIII 211700Z 11002MPS 080V160 CAVOK M25/M28 Q1028 NOSIG RMK QFE728/0971 12810360,UIII,2015-02-21T17:00:00Z,52.27,104.4,-25.0,-28.0,110,4,,6.21,30.35433,,,,,,TRUE,,,,,CAVOK,,,,,,,,VFR,,,,,,,,,,,,METAR,513.0
UIBB 211700Z 07003MPS P5000 SKC M23/M26 Q1028 NOSIG RMK QFE728/0970 30820550,UIBB,2015-02-21T17:00:00Z,56.37,101.7,-23.0,-26.0,70,6,,3.11,30.35433,,,,,,TRUE,,,,,SKC,,,,,,,,MVFR,,,,,,,,,,,,METAR,490.0
UIAA 211700Z 31006MPS 9999 SKC M15/M24 Q1020 NOSIG RMK QFE706 29CLRD70,UIAA,2015-02-21T17:00:00Z,52.02,113.32,-15.0,-24.0,310,12,,6.21,30.11811,,,,,,TRUE,,,,,SKC,,,,,,,,VFR,,,,,,,,,,,,METAR,685.0
USSS 211700Z 23006MPS 9999 OVC014 M05/M07 Q1007 76420350 NOSIG RMK QFE735,USSS,2015-02-21T17:00:00Z,56.75,60.82,-5.0,-7.0,230,12,,6.21,29.734253,,,,,,TRUE,,,,,OVC,1400,,,,,,,MVFR,,,,,,,,,0.0,,,METAR,233.0
USRR 211700Z 18004MPS 150V210 7000 SKC M14/M17 Q1005 NOSIG RMK QFE749 07////60,USRR,2015-02-21T17:00:00Z,61.33,73.42,-14.0,-17.0,180,8,,4.35,29.675198,,,,,,TRUE,,,,,SKC,,,,,,,,MVFR,,,,,,,,,,,,METAR,44.0
UIUU 211700Z 00000MPS 9999 SKC M27/M31 Q1030 NOSIG RMK QFE727/0970 26820550,UIUU,2015-02-21T17:00:00Z,51.8,107.45,-27.0,-31.0,0,0,,6.21,30.413385,,,,,,TRUE,,,,,SKC,,,,,,,,VFR,,,,,,,,,,,,METAR,515.0
UWGG 211700Z 00000MPS 9000 FEW100 M02/M04 Q1013 NOSIG 18190050 RMK QFE752,UWGG,2015-02-21T17:00:00Z,56.23,43.78,-2.0,-4.0,0,0,,5.59,29.911417,,,,,,TRUE,,,,,FEW,10000,,,,,,,VFR,,,,,,,,,,,,METAR,73.0
UUOB 211700Z 19004MPS CAVOK 01/M04 Q1020 29290050 NOSIG,UUOB,2015-02-21T17:00:00Z,50.65,36.58,1.0,-4.0,190,8,,6.21,30.11811,,,,,,TRUE,,,,,CAVOK,,,,,,,,VFR,,,,,,,,,,,,METAR,224.0
ULWC 211700Z 25003G06MPS 9999 BKN023 OVC/// 02/M02 Q1007 NOSIG RMK QFE745/0994 SC045,ULWC,2015-02-21T17:00:00Z,59.28,38.02,2.0,-2.0,250,6,12,6.21,29.734253,,,,,,TRUE,,,,,BKN,2300,,,,,,,MVFR,,,,,,,,,,,,METAR,115.0
UEEE 211700Z 30001MPS CAVOK M36/M40 Q1034 NOSIG RMK QFE767 23490150,UEEE,2015-02-21T17:00:00Z,62.08,129.77,-36.0,-40.0,300,2,,6.21,30.531496,,,,,,TRUE,,,,,CAVOK,,,,,,,,VFR,,,,,,,,,,,,METAR,103.0
UNBB 211700Z 17004MPS 9999 -SN FEW011 BKN026 M10/M19 Q1014 NOSIG RMK QFE738/0984 24800555,UNBB,2015-02-21T17:00:00Z,53.37,83.53,-10.0,-19.0,170,8,,6.21,29.940945,,,,,,TRUE,,,,-SN,FEW,1100,BKN,2600,,,,,MVFR,,,,,,,,,,,,METAR,255.0
UNEE 211700Z 15003MPS CAVOK M15/M23 Q1015 NOSIG RMK QFE738 23451045,UNEE,2015-02-21T17:00:00Z,55.27,86.08,-15.0,-23.0,150,6,,6.21,29.970472,,,,,,TRUE,,,,,CAVOK,,,,,,,,VFR,,,,,,,,,,,,METAR,260.0
UNKL 211700Z 00000MPS CAVOK M23/M27 Q1023 NOSIG RMK QFE741 29////65,UNKL,2015-02-21T17:00:00Z,56.17,92.48,-23.0,-27.0,0,0,,6.21,30.206694,,,,,,TRUE,,,,,CAVOK,,,,,,,,VFR,,,,,,,,,,,,METAR,276.0
UNNT 211700Z 15005MPS 8000 -SN BKN033 OVC100 M11/M14 Q1014 25810160 16810160 NOSIG RMK QFE750/1000,UNNT,2015-02-21T17:00:00Z,55.02,82.63,-11.0,-14.0,150,10,,4.97,29.940945,,,,,,TRUE,,,,-SN,BKN,3300,OVC,10000,,,,,MVFR,,,,,,,,,,,,METAR,111.0
UNTT 211700Z VRB02MPS CAVOK M16/M23 Q1014 NOSIG RMK QFE746,UNTT,2015-02-21T17:00:00Z,56.38,85.22,-16.0,-23.0,0,4,,6.21,29.940945,,,,,,TRUE,,,,,CAVOK,,,,,,,,VFR,,,,,,,,,,,,METAR,182.0
UNOO 211700Z 24001MPS CAVOK M22/M24 Q1013 25810545 NOSIG RMK QFE752,UNOO,2015-02-21T17:00:00Z,54.97,73.32,-22.0,-24.0,240,2,,6.21,29.911417,,,,,,TRUE,,,,,CAVOK,,,,,,,,VFR,,,,,,,,,,,,METAR,95.0
USTR 211700Z 20005MPS 9999 OVC026CB M07/M11 Q1006 NOSIG RMK QFE745/0993 21CLRD65 30CLRD65,USTR,2015-02-21T17:00:00Z,57.17,65.32,-7.0,-11.0,200,10,,6.21,29.704725,,,,,,TRUE,,,,,OVC,2600,,,,,,,MVFR,,,,,,,,,,,,METAR,115.0
USHH 211700Z 19005G08MPS 9999 SCT030 OVC080 M11/M15 Q1001 TEMPO 1000 SN BKN004 RMK QFE747 24////60,USHH,2015-02-21T17:00:00Z,61.03,69.08,-11.0,-15.0,190,10,16,6.21,29.557087,,,,,,,,,,,SCT,3000,OVC,8000,,,,,VFR,,,,,,,,,,,,METAR,23.0
USCC 211700Z 25004MPS 9999 BKN023CB OVC070 M03/M08 Q1010 27402 60 NOSIG RMK QFE737,USCC,2015-02-21T17:00:00Z,55.3,61.5,-3.0,-8.0,250,8,,6.21,29.822834,,,,,,TRUE,,,,,BKN,2300,OVC,7000,,,,,MVFR,,,,,,,,,,,,METAR,234.0
ULLI 211700Z 16004MPS 110V210 CAVOK 02/M00 Q1001 60290050 10////// NOSIG,ULLI,2015-02-21T17:00:00Z,59.8,30.27,2.0,0.0,160,8,,6.21,29.557087,,,,,,TRUE,,,,,CAVOK,,,,,,,,VFR,,,,,,,,,,,,METAR,4.0
UUDD 211700Z 22003MPS 180V310 6000 BKN200 01/M01 Q1012 32010095 82010095 NOSIG,UUDD,2015-02-21T17:00:00Z,55.4,37.9,1.0,-1.0,220,6,,3.73,29.88189,,,,,,TRUE,,,,,BKN,20000,,,,,,,MVFR,,,,,,,,,,,,METAR,168.0
UUBW 211700Z VRB02MPS 5000 BR BKN200 01/M02 Q1013 NOSIG RMK SC0.50,UUBW,2015-02-21T17:00:00Z,55.55,38.15,1.0,-2.0,0,4,,3.11,29.911417,,,,,,TRUE,,,,BR,BKN,20000,,,,,,,MVFR,,,,,,,,,,,,METAR,115.0
UUEE 211700Z 19004MPS 5000 BR BKN200 02/M01 Q1011 75190057 25190057 NOSIG,UUEE,2015-02-21T17:00:00Z,55.97,37.42,2.0,-1.0,190,8,,3.11,29.852362,,,,,,TRUE,,,,BR,BKN,20000,,,,,,,MVFR,,,,,,,,,51.9,,,METAR,190.0
UUWW 211700Z 18002MPS 6000 BKN200 01/M02 Q1012 24190060 NOSIG,UUWW,2015-02-21T17:00:00Z,55.6,37.27,1.0,-2.0,180,4,,3.73,29.88189,,,,,,TRUE,,,,,BKN,20000,,,,,,,MVFR,,,,,,,,,,,,METAR,203.0
YTRE 211700Z AUTO 12005KT //// // BKN004 BKN007 OVC013 21/21 Q1013,YTRE,2015-02-21T17:00:00Z,-31.88,152.52,21.0,21.0,120,5,,,29.911417,,,TRUE,,,,,,,,BKN,400,BKN,700,OVC,1300,,,,,,,,,,,,,,,METAR,12.0
YWGT 211700Z AUTO 00000KT //// // ////// 21/14 Q1014,YWGT,2015-02-21T17:00:00Z,-36.42,146.3,21.0,14.0,0,0,,,29.940945,,,TRUE,,,,,,,,,,,,,,,,,,,,,,,,,,,,METAR,153.0
YTNK 211700Z AUTO 07005KT 9999 // SCT065 BKN110 25/21 Q1008,YTNK,2015-02-21T17:00:00Z,-19.63,134.18,25.0,21.0,70,5,,6.21,29.763779,,,TRUE,,,,,,,,SCT,6500,BKN,11000,,,,,VFR,,,,,,,,,,,,METAR,377.0
YTEF 211700Z AUTO 30010KT //// // ////// 31/16 Q1003,YTEF,2015-02-21T17:00:00Z,-21.72,122.23,31.0,16.0,300,10,,,29.616142,,,TRUE,,,,,,,,,,,,,,,,,,,,,,,,,,,,METAR,296.0
YSWG 211700Z AUTO 08011KT 9999 // NCD 22/16 Q1014,YSWG,2015-02-21T17:00:00Z,-35.13,147.47,22.0,16.0,80,11,,6.21,29.940945,,,TRUE,,,,,,,,,,,,,,,,,,,,,,,,,,,,METAR,213.0
YSTW 211700Z AUTO 00000KT 9999 // NCD 19/16 Q1013,YSTW,2015-02-21T17:00:00Z,-31.07,150.85,19.0,16.0,0,0,,6.21,29.911417,,,TRUE,,,,,,,,,,,,,,,,,,,,,,,,,,,,METAR,410.0
YMER 211700Z AUTO 00000KT 6000 // NCD 17/16 Q1015,YMER,2015-02-21T17:00:00Z,-36.92,149.9,17.0,16.0,0,0,,3.73,29.970472,,,TRUE,,,,,,,,,,,,,,,,,,,,,,,,,,,,METAR,2.0
YBCG 211700Z AUTO 20015KT 3400 // OVC009 OVC012 23/22 Q1006,YBCG,2015-02-21T17:00:00Z,-28.17,153.5,23.0,22.0,200,15,,2.11,29.704725,,,TRUE,,,,,,,,OVC,900,OVC,1200,,,,,IFR,,,,,,,,,,,,METAR,6.0
SOCA 211700Z AUTO 05015KT 9999 BKN025/// BKN030/// BKN038/// 29/24 Q1012,SOCA,2015-02-21T17:00:00Z,4.82,-52.37,29.0,24.0,50,15,,6.21,29.88189,,,TRUE,,,,,,,,,,,,,,,,,,,,,,,,,,,,SPECI,9.0
UHHH 211700Z 04006MPS 1500 R05R/P1500 SHSN SCT021CB OVC100 M06/M06 Q1014 TEMPO 1000 SHSN RMK QFE754/1006 55492040,UHHH,2015-02-21T17:00:00Z,48.52,135.18,-6.0,-6.0,40,12,,0.93,29.940945,,,,,,,,,,SHSN,SCT,2100,OVC,10000,,,,,LIFR,0.0,,,,,,,,,,,METAR,72.0
SBCF 211700Z 10012KT 9999 BKN040 28/14 Q1021,SBCF,2015-02-21T17:00:00Z,-19.63,-43.97,28.0,14.0,100,12,,6.21,30.147638,,,,,,,,,,,BKN,4000,,,,,,,VFR,,,,,,,,,,,,METAR,828.0
VOCB 211700Z 07006KT 6000 NSC 26/11 Q1015 NOSIG,VOCB,2015-02-21T17:00:00Z,11.02,77.03,26.0,11.0,70,6,,3.73,29.970472,,,,,,TRUE,,,,,,,,,,,,,,,,,,,,,,,,,METAR,399.0
OIYY 211700Z 32004KT 9999 FEW035 SCT100 07/07 Q1009 RERA,OIYY,2015-02-21T17:00:00Z,31.9,54.28,7.0,7.0,320,4,,6.21,29.793306,,,,,,,,,,,FEW,3500,SCT,10000,,,,,VFR,,,,,,,,,,,,METAR,1236.0
OITR 211700Z 27004KT 9999 FEW035CB SCT040 BKN090 M01/M06 Q1012,OITR,2015-02-21T17:00:00Z,37.67,45.07,-1.0,-6.0,270,4,,6.21,29.88189,,,,,,,,,,,FEW,3500,SCT,4000,BKN,9000,,,VFR,,,,,,,,,,,,METAR,1312.0
OIIE 211700Z 31013G23KT CAVOK 00/M06 Q1010,OIIE,2015-02-21T17:00:00Z,35.42,51.15,0.0,-6.0,310,13,23,6.21,29.822834,,,,,,,,,,,CAVOK,,,,,,,,VFR,,,,,,,,,,,,METAR,1008.0
OIGG 211700Z 17004KT 2000 -SN BKN008 FEW012CB OVC060 02/01 Q1021,OIGG,2015-02-21T17:00:00Z,37.33,49.6,2.0,1.0,170,4,,1.24,30.147638,,,,,,,,,,-SN,BKN,800,FEW,1200,OVC,6000,,,IFR,,,,,,,,,,,,METAR,-13.0
OICC 211700Z 15004KT 7000 FEW030CB SCT035 BKN070 M00/M01 Q1011 A2986,OICC,2015-02-21T17:00:00Z,34.33,47.17,0.0,-1.0,150,4,,4.35,29.852362,,,,,,,,,,,FEW,3000,SCT,3500,BKN,7000,,,MVFR,,,,,,,,,,,,METAR,1322.0
OIBK 211700Z 31020KT 3500 SA FEW035 SCT100 21/10 Q1008,OIBK,2015-02-21T17:00:00Z,26.53,53.98,21.0,10.0,310,20,,2.17,29.763779,,,,,,,,,,SA,FEW,3500,SCT,10000,,,,,IFR,,,,,,,,,,,,METAR,30.0
OIAA 211700Z 10006KT 8000 SKC 13/04 Q1012,OIAA,2015-02-21T17:00:00Z,30.37,48.25,13.0,4.0,100,6,,4.97,29.88189,,,,,,,,,,,SKC,,,,,,,,MVFR,,,,,,,,,,,,METAR,11.0
OINZ 211700Z 21014KT 9999 FEW027CB SCT030 OVC080 06/05 Q1018,OINZ,2015-02-21T17:00:00Z,36.63,53.2,6.0,5.0,210,14,,6.21,30.059055,,,,,,,,,,,FEW,2700,SCT,3000,OVC,8000,,,VFR,,,,,,,,,,,,METAR,11.0
OIBP 211700Z 29019KT CAVOK 19/03 Q1010 A2985,OIBP,2015-02-21T17:00:00Z,27.38,52.73,19.0,3.0,290,19,,6.21,29.822834,,,,,,,,,,,CAVOK,,,,,,,,VFR,,,,,,,,,,,,METAR,9.0
OIBB 211700Z 31016KT 4000 SA SKC 15/03 Q1013 A2992,OIBB,2015-02-21T17:00:00Z,28.97,50.82,15.0,3.0,310,16,,2.49,29.911417,,,,,,,,,,SA,SKC,,,,,,,,IFR,,,,,,,,,,,,METAR,19.0
SBJP 211700Z 13012KT 9999 BKN025 31/20 Q1011,SBJP,2015-02-21T17:00:00Z,-7.15,-34.95,31.0,20.0,130,12,,6.21,29.852362,,,,,,,,,,,BKN,2500,,,,,,,MVFR,,,,,,,,,,,,METAR,7.0
OIZH 211700Z 22024KT 4000 SA NSC 21/00 Q1011 A2987 TEMPO SA 5000,OIZH,2015-02-21T17:00:00Z,29.47,60.92,21.0,0.0,220,24,,2.49,29.852362,,,,,,,,,,SA,,,,,,,,,,,,,,,,,,,,,METAR,1370.0
OITT 211700Z 06008KT 9999 FEW035 FEW040CB OVC090 M02/M07 Q1013 A2994,OITT,2015-02-21T17:00:00Z,38.13,46.23,-2.0,-7.0,60,8,,6.21,29.911417,,,,,,,,,,,FEW,3500,FEW,4000,OVC,9000,,,VFR,,,,,,,,,,,,METAR,1361.0
OISS 211700Z 27004KT 8000 FEW040 06/M07 Q1011 A2987,OISS,2015-02-21T17:00:00Z,29.52,52.57,6.0,-7.0,270,4,,4.97,29.852362,,,,,,,,,,,FEW,4000,,,,,,,MVFR,,,,,,,,,,,,METAR,1491.0
OIMM 211700Z 15006KT 3000 -RA BR BKN004 OVC070 09/09 Q1008 A2977,OIMM,2015-02-21T17:00:00Z,36.23,59.62,9.0,9.0,150,6,,1.86,29.763779,,,,,,,,,,-RA BR,BKN,400,OVC,7000,,,,,LIFR,,,,,,,,,,,,METAR,980.0
OIKK 211700Z 25014KT 8000 -RA FEW030CB SCT035 OVC090 06/02 Q1012 A2989,OIKK,2015-02-21T17:00:00Z,30.25,56.97,6.0,2.0,250,14,,4.97,29.88189,,,,,,,,,,-RA,FEW,3000,SCT,3500,OVC,9000,,,MVFR,,,,,,,,,,,,METAR,1754.0
OIKB 211700Z 21016KT 2000 SA FEW030 BKN090 24/19 Q1007 A2974,OIKB,2015-02-21T17:00:00Z,27.22,56.37,24.0,19.0,210,16,,1.24,29.734253,,,,,,,,,,SA,FEW,3000,BKN,9000,,,,,IFR,,,,,,,,,,,,METAR,10.0
OIFM 211700Z 32008KT CAVOK 01/M09 Q1008 A2979,OIFM,2015-02-21T17:00:00Z,32.75,51.87,1.0,-9.0,320,8,,6.21,29.763779,,,,,,,,,,,CAVOK,,,,,,,,VFR,,,,,,,,,,,,METAR,1542.0
SBSN 211700Z 08015KT 9999 SCT017 SCT100 29/24 Q1011,SBSN,2015-02-21T17:00:00Z,-2.42,-54.78,29.0,24.0,80,15,,6.21,29.852362,,,,,,,,,,,SCT,1700,SCT,10000,,,,,VFR,,,,,,,,,,,,METAR,72.0
WSSS 211700Z 05005KT 9000 FEW018 BKN300 25/23 Q1012 NOSIG,WSSS,2015-02-21T17:00:00Z,1.37,103.97,25.0,23.0,50,5,,5.59,29.88189,,,,,,TRUE,,,,,FEW,1800,BKN,30000,,,,,VFR,,,,,,,,,,,,METAR,16.0
KPPF 211700Z AUTO 35006KT 10SM SCT008 07/04 A3001 RMK AO2 T00720039 TSNO,KPPF,2015-02-21T17:00:00Z,37.33,-95.5,7.2,3.9,350,6,,10.0,30.008858,,,TRUE,TRUE,,,TRUE,,,,SCT,800,,,,,,,VFR,,,,,,,,,,,,METAR,274.0
SBGR 211700Z 11007KT 9999 SCT045 31/19 Q1020,SBGR,2015-02-21T17:00:00Z,-23.42,-46.47,31.0,19.0,110,7,,6.21,30.11811,,,,,,,,,,,SCT,4500,,,,,,,VFR,,,,,,,,,,,,METAR,750.0
SBPL 211700Z 08008KT 9999 BKN040 33/20 Q1013,SBPL,2015-02-21T17:00:00Z,-9.37,-40.57,33.0,20.0,80,8,,6.21,29.911417,,,,,,,,,,,BKN,4000,,,,,,,VFR,,,,,,,,,,,,METAR,375.0
NIUE 211700Z 32004KT 9999 FEW018 SCT110 25/24 Q1008 RMKS: DEW,NIUE,2015-02-21T17:00:00Z,-19.07,-169.92,25.0,24.0,320,4,,6.21,29.763779,,,,,,,,,,,FEW,1800,SCT,11000,,,,,VFR,,,,,,,,,,,,METAR,20.0
SBRJ 211700Z 17013KT 9999 FEW025 32/24 Q1015,SBRJ,2015-02-21T17:00:00Z,-22.88,-43.17,32.0,24.0,170,13,,6.21,29.970472,,,,,,,,,,,FEW,2500,,,,,,,VFR,,,,,,,,,,,,METAR,3.0
TGPY 211700Z 08015KT 9999 BKN018 29/23 Q1015 NOSIG,TGPY,2015-02-21T17:00:00Z,12.0,-61.78,29.0,23.0,80,15,,6.21,29.970472,,,,,,TRUE,,,,,BKN,1800,,,,,,,MVFR,,,,,,,,,,,,METAR,7.0
SBVT 211700Z 09012KT 9999 FEW030 31/20 Q1016,SBVT,2015-02-21T17:00:00Z,-20.27,-40.27,31.0,20.0,90,12,,6.21,30.0,,,,,,,,,,,FEW,3000,,,,,,,VFR,,,,,,,,,,,,METAR,4.0
UBBB 211700Z 34029G39KT 0700 R34/P2000 R36/1800 +SN BKN006 OVC022 01/01 Q1019 88690350 NOSIG,UBBB,2015-02-21T17:00:00Z,40.45,50.07,1.0,1.0,340,29,39,0.43,30.088583,,,,,,TRUE,,,,+SN,BKN,600,OVC,2200,,,,,LIFR,,,,,,,,,,,,METAR,-6.0
SBCP 211700Z 04014KT 9999 FEW020 33/21 Q1016,SBCP,2015-02-21T17:00:00Z,-21.7,-41.3,33.0,21.0,40,14,,6.21,30.0,,,,,,,,,,,FEW,2000,,,,,,,VFR,,,,,,,,,,,,METAR,11.0
SCRM 211700Z 30021KT 8000 BKN006 SCT070 03/02 Q0984,SCRM,2015-02-21T17:00:00Z,-62.18,-58.98,3.0,2.0,300,21,,4.97,29.055119,,,,,,,,,,,BKN,600,SCT,7000,,,,,IFR,,,,,,,,,,,,METAR,45.0
SCCH 211700Z 03004KT CAVOK 26/14 Q1016,SCCH,2015-02-21T17:00:00Z,-36.57,-72.02,26.0,14.0,30,4,,6.21,30.0,,,,,,,,,,,CAVOK,,,,,,,,VFR,,,,,,,,,,,,METAR,148.0
SCTN 211700Z AUTO 21007KT 170V240 9999 OVC015 14/11 Q1017,SCTN,2015-02-21T17:00:00Z,-42.92,-72.7,14.0,11.0,210,7,,6.21,30.029528,,,TRUE,,,,,,,,OVC,1500,,,,,,,MVFR,,,,,,,,,,,,METAR,4.0
SCPQ 211700Z 15008KT 090V180 9999 FEW023 19/11 Q1017,SCPQ,2015-02-21T17:00:00Z,-42.33,-73.72,19.0,11.0,150,8,,6.21,30.029528,,,,,,,,,,,FEW,2300,,,,,,,VFR,,,,,,,,,,,,METAR,5.0
SCIP 211700Z 07016KT 9999 SCT020 27/18 Q1026 NOSIG,SCIP,2015-02-21T17:00:00Z,-27.17,-109.43,27.0,18.0,70,16,,6.21,30.295275,,,,,,TRUE,,,,,SCT,2000,,,,,,,VFR,,,,,,,,,,,,METAR,69.0
SCEL 211700Z 14011KT 110V180 CAVOK 25/10 Q1016 NOSIG,SCEL,2015-02-21T17:00:00Z,-33.37,-70.77,25.0,10.0,140,11,,6.21,30.0,,,,,,TRUE,,,,,CAVOK,,,,,,,,VFR,,,,,,,,,,,,METAR,476.0
SCCI 211700Z 26020KT 9999 FEW040 SCT200 12/01 Q1010 NOSIG,SCCI,2015-02-21T17:00:00Z,-53.0,-70.83,12.0,1.0,260,20,,6.21,29.822834,,,,,,TRUE,,,,,FEW,4000,SCT,20000,,,,,VFR,,,,,,,,,,,,METAR,37.0
SCVD 211700Z VRB04KT CAVOK 22/11 Q1016,SCVD,2015-02-21T17:00:00Z,-39.65,-73.07,22.0,11.0,0,4,,6.21,30.0,,,,,,,,,,,CAVOK,,,,,,,,VFR,,,,,,,,,,,,METAR,14.0
SCTE 211700Z 13007KT 9999 SCT023 19/12 Q1017 NOSIG,SCTE,2015-02-21T17:00:00Z,-41.42,-73.07,19.0,12.0,130,7,,6.21,30.029528,,,,,,TRUE,,,,,SCT,2300,,,,,,,VFR,,,,,,,,,,,,METAR,86.0
SCQP 211700Z VRB04KT CAVOK 21/13 Q1016,SCQP,2015-02-21T17:00:00Z,-38.92,-72.65,21.0,13.0,0,4,,6.21,30.0,,,,,,,,,,,CAVOK,,,,,,,,VFR,,,,,,,,,,,,METAR,97.0
SCJO 211700Z 14004KT 9999 FEW020 21/11 Q1016,SCJO,2015-02-21T17:00:00Z,-40.6,-73.03,21.0,11.0,140,4,,6.21,30.0,,,,,,,,,,,FEW,2000,,,,,,,VFR,,,,,,,,,,,,METAR,65.0
SCSE 211700Z 29011KT CAVOK 21/13 Q1016,SCSE,2015-02-21T17:00:00Z,-29.92,-71.2,21.0,13.0,290,11,,6.21,30.0,,,,,,,,,,,CAVOK,,,,,,,,VFR,,,,,,,,,,,,METAR,146.0
SCDA 211700Z 20017KT CAVOK 27/17 Q1013,SCDA,2015-02-21T17:00:00Z,-20.52,-70.17,27.0,17.0,200,17,,6.21,29.911417,,,,,,,,,,,CAVOK,,,,,,,,VFR,,,,,,,,,,,,METAR,52.0
SCAT 211700Z 22011KT 180V260 CAVOK 23/14 Q1016,SCAT,2015-02-21T17:00:00Z,-27.27,-70.77,23.0,14.0,220,11,,6.21,30.0,,,,,,,,,,,CAVOK,,,,,,,,VFR,,,,,,,,,,,,METAR,204.0
SCIE 211700Z 01004KT 330V060 8000 NSC 17/11 Q1017,SCIE,2015-02-21T17:00:00Z,-36.77,-73.07,17.0,11.0,10,4,,4.97,30.029528,,,,,,,,,,,,,,,,,,,,,,,,,,,,,,,SPECI,16.0
SCCF 211700Z 26014KT CAVOK 21/00 Q1025,SCCF,2015-02-21T17:00:00Z,-22.5,-68.9,21.0,0.0,260,14,,6.21,30.265747,,,,,,,,,,,CAVOK,,,,,,,,VFR,,,,,,,,,,,,METAR,2312.0
SCBA 211700Z 30013KT 9999 BKN036 OVC100 13/08 Q1013,SCBA,2015-02-21T17:00:00Z,-45.92,-71.67,13.0,8.0,300,13,,6.21,29.911417,,,,,,,,,,,BKN,3600,OVC,10000,,,,,VFR,,,,,,,,,,,,METAR,524.0
SCAR 211700Z 21011KT CAVOK 27/15 Q1012,SCAR,2015-02-21T17:00:00Z,-18.35,-70.32,27.0,15.0,210,11,,6.21,29.88189,,,,,,,,,,,CAVOK,,,,,,,,VFR,,,,,,,,,,,,METAR,59.0
SBNF 211700Z 15006KT 9999 SCT025 SCT045 28/25 Q1018,SBNF,2015-02-21T17:00:00Z,-26.88,-48.65,28.0,25.0,150,6,,6.21,30.059055,,,,,,,,,,,SCT,2500,SCT,4500,,,,,VFR,,,,,,,,,,,,METAR,5.0
LBBG 211700Z VRB06KT CAVOK 04/01 Q1018 NOSIG,LBBG,2015-02-21T17:00:00Z,42.57,27.52,4.0,1.0,0,6,,6.21,30.059055,,,,,,TRUE,,,,,CAVOK,,,,,,,,VFR,,,,,,,,,,,,METAR,28.0
LBWN 211700Z 15011KT CAVOK 04/02 Q1018 NOSIG,LBWN,2015-02-21T17:00:00Z,43.22,27.82,4.0,2.0,150,11,,6.21,30.059055,,,,,,TRUE,,,,,CAVOK,,,,,,,,VFR,,,,,,,,,,,,METAR,43.0
LBSF 211700Z 09014KT CAVOK 05/M02 Q1014 NOSIG,LBSF,2015-02-21T17:00:00Z,42.65,23.38,5.0,-2.0,90,14,,6.21,29.940945,,,,,,TRUE,,,,,CAVOK,,,,,,,,VFR,,,,,,,,,,,,METAR,595.0
MZBZ 211700Z 13007KT 9999 BKN021 SCT045 26/20 A3007 Q1018 NOSIG,MZBZ,2015-02-21T17:00:00Z,17.52,-88.3,26.0,20.0,130,7,,6.21,30.059055,,,,,,TRUE,,,,,BKN,2100,SCT,4500,,,,,MVFR,,,,,,,,,,,,METAR,5.0
LBGO 211700Z 15007KT 110V180 CAVOK 10/M01 Q1014 NOSIG,LBGO,2015-02-21T17:00:00Z,43.15,25.72,10.0,-1.0,150,7,,6.21,29.940945,,,,,,TRUE,,,,,CAVOK,,,,,,,,VFR,,,,,,,,,,,,METAR,86.0
LBPD 211700Z 23002KT CAVOK 04/M02 Q1016 NOSIG,LBPD,2015-02-21T17:00:00Z,42.13,24.8,4.0,-2.0,230,2,,6.21,30.0,,,,,,TRUE,,,,,CAVOK,,,,,,,,VFR,,,,,,,,,,,,METAR,185.0
PKWA 211700Z AUTO 10014KT 10SM SCT016 27/23 A2978 RMK AO2 T02720231,PKWA,2015-02-21T17:00:00Z,8.72,167.72,27.2,23.1,100,14,,10.0,29.778543,,,TRUE,TRUE,,,,,,,SCT,1600,,,,,,,VFR,,,,,,,,,,,,METAR,8.0
VOBL 211700Z 11005KT 8000 FEW015 24/13 Q1018 NOSIG,VOBL,2015-02-21T17:00:00Z,13.2,77.7,24.0,13.0,110,5,,4.97,30.059055,,,,,,TRUE,,,,,FEW,1500,,,,,,,MVFR,,,,,,,,,,,,METAR,915.0
NWWW 211700Z AUTO 00000KT 9999 NSC 24/20 Q1009,NWWW,2015-02-21T17:00:00Z,-22.02,166.22,24.0,20.0,0,0,,6.21,29.793306,,,TRUE,,,,,,,,,,,,,,,,,,,,,,,,,,,,METAR,16.0
SBCT 211700Z 10009KT 9999 SCT027 SCT030 27/20 Q1022,SBCT,2015-02-21T17:00:00Z,-25.52,-49.17,27.0,20.0,100,9,,6.21,30.177166,,,,,,,,,,,SCT,2700,SCT,3000,,,,,VFR,,,,,,,,,,,,METAR,908.0
LZTT 211700Z 24010KT 9999 BKN043 04/M03 Q1005 NOSIG,LZTT,2015-02-21T17:00:00Z,49.07,20.25,4.0,-3.0,240,10,,6.21,29.675198,,,,,,TRUE,,,,,BKN,4300,,,,,,,VFR,,,,,,,,,,,,METAR,707.0
LZKZ 211700Z 17006KT CAVOK 02/M02 Q1008 NOSIG,LZKZ,2015-02-21T17:00:00Z,48.67,21.23,2.0,-2.0,170,6,,6.21,29.763779,,,,,,TRUE,,,,,CAVOK,,,,,,,,VFR,,,,,,,,,,,,METAR,232.0
LZIB 211700Z 17008KT CAVOK 08/M00 Q1003 NOSIG,LZIB,2015-02-21T17:00:00Z,48.17,17.22,8.0,0.0,170,8,,6.21,29.616142,,,,,,TRUE,,,,,CAVOK,,,,,,,,VFR,,,,,,,,,,,,METAR,134.0
UKDR 211700Z 16005MPS CAVOK 01/M10 Q1021 1809//65 NOSIG,UKDR,2015-02-21T17:00:00Z,48.05,33.22,1.0,-10.0,160,10,,6.21,30.147638,,,,,,TRUE,,,,,CAVOK,,,,,,,,VFR,,,,,,,,,,,,METAR,124.0
UKLL 211700Z 16003MPS 7000 NSC 02/M01 Q1006 13CLRD80 NOSIG,UKLL,2015-02-21T17:00:00Z,49.82,23.93,2.0,-1.0,160,6,,4.35,29.704725,,,,,,TRUE,,,,,,,,,,,,,,,,,,,,,,,,,METAR,325.0
UKDD 211700Z 18002MPS CAVOK M00/M08 Q1022 08090070 NOSIG,UKDD,2015-02-21T17:00:00Z,48.37,35.1,0.0,-8.0,180,4,,6.21,30.177166,,,,,,TRUE,,,,,CAVOK,,,,,,,,VFR,,,,,,,,,,,,METAR,149.0
UKDE 211700Z 14002MPS CAVOK M01/M10 Q1023 20CLRD70 NOSIG,UKDE,2015-02-21T17:00:00Z,47.87,35.32,-1.0,-10.0,140,4,,6.21,30.206694,,,,,,TRUE,,,,,CAVOK,,,,,,,,VFR,,,,,,,,,,,,METAR,113.0
UKOO 211700Z 16004MPS CAVOK 01/M01 Q1020 16090060 NOSIG,UKOO,2015-02-21T17:00:00Z,46.42,30.68,1.0,-1.0,160,8,,6.21,30.11811,,,,,,TRUE,,,,,CAVOK,,,,,,,,VFR,,,,,,,,,,,,METAR,35.0
UKHH 211700Z 17003MPS CAVOK M01/M04 Q1022 25710560 NOSIG,UKHH,2015-02-21T17:00:00Z,49.92,36.28,-1.0,-4.0,170,6,,6.21,30.177166,,,,,,TRUE,,,,,CAVOK,,,,,,,,VFR,,,,,,,,,,,,METAR,155.0
UKBB 211700Z 17005MPS CAVOK 02/M02 Q1015 18190055 68CLRD95 NOSIG,UKBB,2015-02-21T17:00:00Z,50.33,30.9,2.0,-2.0,170,10,,6.21,29.970472,,,,,,TRUE,,,,,CAVOK,,,,,,,,VFR,,,,,,,,,,,,METAR,119.0
SBTE 211700Z 19006KT 9999 BKN030 BKN100 29/23 Q1011,SBTE,2015-02-21T17:00:00Z,-5.03,-42.82,29.0,23.0,190,6,,6.21,29.852362,,,,,,,,,,,BKN,3000,BKN,10000,,,,,MVFR,,,,,,,,,,,,METAR,69.0
LZZI 211700Z 13004KT 100V170 9999 BKN061 04/M02 Q1004,LZZI,2015-02-21T17:00:00Z,49.23,18.62,4.0,-2.0,130,4,,6.21,29.64567,,,,,,,,,,,BKN,6100,,,,,,,VFR,,,,,,,,,,,,METAR,311.0
LZSL 211700Z VRB01KT 9999 OVC057 04/M01 Q1006,LZSL,2015-02-21T17:00:00Z,48.63,19.13,4.0,-1.0,0,1,,6.21,29.704725,,,,,,,,,,,OVC,5700,,,,,,,VFR,,,,,,,,,,,,METAR,313.0
LZPP 211700Z 14010KT CAVOK 08/01 Q1004,LZPP,2015-02-21T17:00:00Z,48.62,17.83,8.0,1.0,140,10,,6.21,29.64567,,,,,,,,,,,CAVOK,,,,,,,,VFR,,,,,,,,,,,,METAR,161.0
LHBP 211700Z 19010KT CAVOK 10/M01 Q1008 NOSIG,LHBP,2015-02-21T17:00:00Z,47.42,19.27,10.0,-1.0,190,10,,6.21,29.763779,,,,,,TRUE,,,,,CAVOK,,,,,,,,VFR,,,,,,,,,,,,METAR,185.0
KQFX 211700Z AUTO 03002KT 1600 BR FEW000 BKN008 06/04 A2995 RMK A02 TSNO,KQFX,2015-02-21T17:00:00Z,100.65,-1000.65,6.0,4.0,30,2,,0.99,29.949802,,,TRUE,TRUE,,,TRUE,,,BR,FEW,0,BKN,800,,,,,LIFR,,,,,,,,,,,,METAR,999.0
KQFU 211700Z AUTO 28002KT 1200 -DZ BR CLR 07/05 A2995 RMK A02 TSNO,KQFU,2015-02-21T17:00:00Z,100.65,-1000.65,7.0,5.0,280,2,,0.75,29.949802,,,TRUE,TRUE,,,TRUE,,,-DZ BR,CLR,,,,,,,,LIFR,,,,,,,,,,,,METAR,999.0
KQFB 211700Z AUTO 12001KT 1600 -RA BR OVC005 09/07 A3000 RMK A02 TSNO,KQFB,2015-02-21T17:00:00Z,100.65,-1000.65,9.0,7.0,120,1,,0.99,30.0,,,TRUE,TRUE,,,TRUE,,,-RA BR,OVC,500,,,,,,,LIFR,,,,,,,,,,,,METAR,999.0
KQEY 211700Z AUTO 25001KT 4800 BR BKN026 OVC037 07/05 A2995 RMK A02 TSNO,KQEY,2015-02-21T17:00:00Z,100.65,-1000.65,7.0,5.0,250,1,,2.98,29.949802,,,TRUE,TRUE,,,TRUE,,,BR,BKN,2600,OVC,3700,,,,,IFR,,,,,,,,,,,,METAR,999.0
KQEX 211700Z AUTO 04001KT 1200 BR CLR 06/05 A2999 RMK A02 TSNO,KQEX,2015-02-21T17:00:00Z,100.65,-1000.65,6.0,5.0,40,1,,0.75,29.991142,,,TRUE,TRUE,,,TRUE,,,BR,CLR,,,,,,,,LIFR,,,,,,,,,,,,METAR,999.0
KQEW 211700Z AUTO 03002KT 4800 BKN004 06/04 A2995 RMK A02 TSNO,KQEW,2015-02-21T17:00:00Z,100.65,-1000.65,6.0,4.0,30,2,,2.98,29.949802,,,TRUE,TRUE,,,TRUE,,,,BKN,400,,,,,,,LIFR,,,,,,,,,,,,METAR,999.0
KQES 211700Z AUTO 9999 // CLR 07/06 A2998 RMK A02 TSNO,KQES,2015-02-21T17:00:00Z,100.65,-1000.65,7.0,6.0,,,,6.21,29.97933,,,TRUE,TRUE,,,TRUE,,,,CLR,,,,,,,,VFR,,,,,,,,,,,,METAR,999.0
KQEN 211700Z AUTO M0400 FG CLR 00/M11 / RMK A02 TSNO,KQEN,2015-02-21T17:00:00Z,100.65,-1000.65,0.0,-11.0,,,,0.25,,,,TRUE,TRUE,,,TRUE,,,FG,CLR,,,,,,,,LIFR,,,,,,,,,,,,METAR,999.0
KQEJ 211700Z AUTO 08001KT 0800 FG BKN003 OVC015 03/01 A2991 RMK A02 TSNO,KQEJ,2015-02-21T17:00:00Z,100.65,-1000.65,3.0,1.0,80,1,,0.5,29.911417,,,TRUE,TRUE,,,TRUE,,,FG,BKN,300,OVC,1500,,,,,LIFR,,,,,,,,,,,,METAR,999.0
SBGO 211700Z 10008KT 9999 SCT040 30/15 Q1017,SBGO,2015-02-21T17:00:00Z,-16.62,-49.22,30.0,15.0,100,8,,6.21,30.029528,,,,,,,,,,,SCT,4000,,,,,,,VFR,,,,,,,,,,,,METAR,747.0
UBBG 211700Z 15004KT 9999 OVC060 04/03 Q1017 R30/290060 NOSIG,UBBG,2015-02-21T17:00:00Z,40.73,46.32,4.0,3.0,150,4,,6.21,30.029528,,,,,,TRUE,,,,,OVC,6000,,,,,,,VFR,,,,,,,,,,,,METAR,330.0
TFFF 211700Z AUTO 06015KT 9999 BKN030 BKN037 BKN049 28/21 Q1016,TFFF,2015-02-21T17:00:00Z,14.6,-61.0,28.0,21.0,60,15,,6.21,30.0,,,TRUE,,,,,,,,BKN,3000,BKN,3700,BKN,4900,,,MVFR,,,,,,,,,,,,METAR,5.0
UTAA 211700Z 30006MPS 7000 -SHRA OVC007 SCT013CB 06/05 Q1012 R30/290060 NOSIG,UTAA,2015-02-21T17:00:00Z,37.98,58.37,6.0,5.0,300,12,,4.35,29.88189,,,,,,TRUE,,,,-SHRA,OVC,700,SCT,1300,,,,,IFR,,,,,,,,,,,,METAR,210.0
LDOS 211700Z 16009KT CAVOK 09/02 Q1010,LDOS,2015-02-21T17:00:00Z,45.47,18.82,9.0,2.0,160,9,,6.21,29.822834,,,,,,,,,,,CAVOK,,,,,,,,VFR,,,,,,,,,,,,METAR,89.0
LDZD 211700Z 15009KT 9999 FEW030 09/04 Q1009 NOSIG,LDZD,2015-02-21T17:00:00Z,44.1,15.37,9.0,4.0,150,9,,6.21,29.793306,,,,,,TRUE,,,,,FEW,3000,,,,,,,VFR,,,,,,,,,,,,METAR,84.0
LDZA 211700Z 22003KT CAVOK 08/00 Q1007 NOSIG,LDZA,2015-02-21T17:00:00Z,45.72,16.07,8.0,0.0,220,3,,6.21,29.734253,,,,,,TRUE,,,,,CAVOK,,,,,,,,VFR,,,,,,,,,,,,METAR,107.0
LDDU 211700Z 12020KT 9999 SCT060 11/05 Q1012 NOSIG,LDDU,2015-02-21T17:00:00Z,42.57,18.27,11.0,5.0,120,20,,6.21,29.88189,,,,,,TRUE,,,,,SCT,6000,,,,,,,VFR,,,,,,,,,,,,METAR,165.0
LDPL 211700Z 12004KT 070V190 9999 FEW020 BKN050 09/06 Q1008 NOSIG,LDPL,2015-02-21T17:00:00Z,44.88,13.92,9.0,6.0,120,4,,6.21,29.763779,,,,,,TRUE,,,,,FEW,2000,BKN,5000,,,,,VFR,,,,,,,,,,,,METAR,63.0
LDSP 211700Z 11010KT 060V170 9999 SCT038 BKN048 12/06 Q1010 NOSIG,LDSP,2015-02-21T17:00:00Z,43.52,16.3,12.0,6.0,110,10,,6.21,29.822834,,,,,,TRUE,,,,,SCT,3800,BKN,4800,,,,,VFR,,,,,,,,,,,,METAR,21.0
LUKK 211700Z 17011KT CAVOK 04/M03 Q1017 R08/110060 NOSIG,LUKK,2015-02-21T17:00:00Z,46.93,28.93,4.0,-3.0,170,11,,6.21,30.029528,,,,,,TRUE,,,,,CAVOK,,,,,,,,VFR,,,,,,,,,,,,METAR,122.0
MGTU 211700Z 27010KT 8000 FEW018 31/23 HZ,MGTU,2015-02-21T17:00:00Z,,,31.0,23.0,270,10,,4.97,,,,,,,,,,,HZ,FEW,1800,,,,,,,MVFR,,,,,,,,,,,,METAR,
MGMT 211700Z 18004KT CAVOK 34/20 Q1008,MGMT,2015-02-21T17:00:00Z,,,34.0,20.0,180,4,,6.21,29.763779,,,,,,,,,,,CAVOK,,,,,,,,VFR,,,,,,,,,,,,METAR,
MGES 211700Z 09004KT 9999 FEW018 24/15 QFE 912.6,MGES,2015-02-21T17:00:00Z,14.57,-89.32,24.0,15.0,90,4,,6.21,,,,,,,,,,,,FEW,1800,,,,,,,VFR,,,,,,,,,,,,METAR,965.0
MGZA 211700Z 00000KT CAVOK 28/19 QFE 991/3,MGZA,2015-02-21T17:00:00Z,14.97,-89.52,28.0,19.0,0,0,,6.21,,,,,,,,,,,,CAVOK,,,,,,,,VFR,,,,,,,,,,,,METAR,490.0
MGCB 211700Z 05004KT CAVOK 24/15 QFE 871.8,MGCB,2015-02-21T17:00:00Z,15.48,-90.42,24.0,15.0,50,4,,6.21,,,,,,,,,,,,CAVOK,,,,,,,,VFR,,,,,,,,,,,,METAR,1316.0
MGQZ 211700Z 14004KT 9999 FEW016 20/08 QFE 771/3,MGQZ,2015-02-21T17:00:00Z,14.87,-91.5,20.0,8.0,140,4,,6.21,,,,,,,,,,,,FEW,1600,,,,,,,VFR,,,,,,,,,,,,METAR,2371.0
MGRT 211700Z 22004KT 9999 FEW020 31/17 Q1016 A3000 VOL. STA. MARIA Y SANTIAGUITO EN ACTIVIDAD,MGRT,2015-02-21T17:00:00Z,14.53,-91.7,31.0,17.0,220,4,,6.21,30.0,,,,,,,,,,SA,FEW,2000,,,,,,,VFR,,,,,,,,,,,,METAR,200.0
MGSJ 211700Z 16006KT CAVOK 32/19 Q1014 A2994,MGSJ,2015-02-21T17:00:00Z,13.92,-90.83,32.0,19.0,160,6,,6.21,29.940945,,,,,,,,,,,CAVOK,,,,,,,,VFR,,,,,,,,,,,,METAR,9.0
MGPB 211700Z 30006KT 9999 FEW018 26/19 Q1017 A3003,MGPB,2015-02-21T17:00:00Z,15.72,-88.58,26.0,19.0,300,6,,6.21,30.029528,,,,,,,,,,,FEW,1800,,,,,,,VFR,,,,,,,,,,,,METAR,10.0
MGHT 211700Z 00000KT CAVOK 23/07 QFE 819.1,MGHT,2015-02-21T17:00:00Z,15.32,-91.5,23.0,7.0,0,0,,6.21,,,,,,,,,,,,CAVOK,,,,,,,,VFR,,,,,,,,,,,,METAR,1901.0
MGMM 211700Z 03004KT 9999 SCT016 SCT090 25/19 Q1018 A3006,MGMM,2015-02-21T17:00:00Z,17.07,-89.15,25.0,19.0,30,4,,6.21,30.059055,,,,,,,,,,,SCT,1600,SCT,9000,,,,,VFR,,,,,,,,,,,,METAR,105.0
LUBL 211700Z AUTO 16017KT 9999 ///240 05/00 Q1013,LUBL,2015-02-21T17:00:00Z,47.83,27.78,5.0,0.0,160,17,,6.21,29.911417,,,TRUE,,,,,,,,,,,,,,,,,,,,,,,,,,,,METAR,232.0
UBBQ 211700Z 27005KT 0500 R16/0500 FG OVC001 03/02 Q1017 R16/////// NOSIG RMK MT OBSC,UBBQ,2015-02-21T17:00:00Z,40.82,47.72,3.0,2.0,270,5,,0.31,30.029528,,,,,,TRUE,,,,FG,OVC,100,,,,,,,LIFR,,,,,,,,,,,,METAR,338.0
TDCF 211700Z 02002KT 9999 BKN019 29/19 Q1016,TDCF,2015-02-21T17:00:00Z,15.33,-61.4,29.0,19.0,20,2,,6.21,30.0,,,,,,,,,,,BKN,1900,,,,,,,MVFR,,,,,,,,,,,,METAR,5.0
YGLA 211700Z AUTO 19005KT 0700 // BKN001 25/24 Q1008,YGLA,2015-02-21T17:00:00Z,-23.87,151.22,25.0,24.0,190,5,,0.43,29.763779,,,TRUE,,,,,,,,BKN,100,,,,,,,LIFR,,,,,,,,,,,,SPECI,52.0
YCOM 211700Z AUTO 03007KT //// // OVC001 15/15 Q1019,YCOM,2015-02-21T17:00:00Z,-36.3,148.97,15.0,15.0,30,7,,,30.088583,,,TRUE,,,,,,,,OVC,100,,,,,,,,,,,,,,,,,,,SPECI,941.0
YLIS 211700Z AUTO 17017KT 5000 +DZ OVC007 22/22 Q1009,YLIS,2015-02-21T17:00:00Z,-28.83,153.27,22.0,22.0,170,17,,3.11,29.793306,,,TRUE,,,,,,,+DZ,OVC,700,,,,,,,IFR,,,,,,,,,,,,SPECI,11.0
YWLM 211700Z AUTO 13005KT 9999 // SCT031 OVC086 20/19 Q1015,YWLM,2015-02-21T17:00:00Z,-32.8,151.83,20.0,19.0,130,5,,6.21,29.970472,,,TRUE,,,,,,,,SCT,3100,OVC,8600,,,,,VFR,,,,,,,,,,,,METAR,9.0
YWHA 211700Z AUTO 20007KT //// // ////// 24/16 Q1008,YWHA,2015-02-21T17:00:00Z,-33.07,137.52,24.0,16.0,200,7,,,29.763779,,,TRUE,,,,,,,,,,,,,,,,,,,,,,,,,,,,METAR,13.0
LKTB 211700Z 08006KT CAVOK 06/M01 Q1002 NOSIG,LKTB,2015-02-21T17:00:00Z,49.13,16.68,6.0,-1.0,80,6,,6.21,29.586615,,,,,,TRUE,,,,,CAVOK,,,,,,,,VFR,,,,,,,,,,,,METAR,246.0
LKPR 211700Z 13005KT CAVOK 06/M03 Q1000 NOSIG,LKPR,2015-02-21T17:00:00Z,50.1,14.27,6.0,-3.0,130,5,,6.21,29.52756,,,,,,TRUE,,,,,CAVOK,,,,,,,,VFR,,,,,,,,,,,,METAR,365.0
LKMT 211700Z 21009KT 180V250 CAVOK 06/M01 Q1003 NOSIG,LKMT,2015-02-21T17:00:00Z,49.67,18.12,6.0,-1.0,210,9,,6.21,29.616142,,,,,,TRUE,,,,,CAVOK,,,,,,,,VFR,,,,,,,,,,,,METAR,256.0
LKKV 211700Z VRB01KT CAVOK 04/M02 Q0999 R29///////,LKKV,2015-02-21T17:00:00Z,50.2,12.92,4.0,-2.0,0,1,,6.21,29.498032,,,,,,,,,,,CAVOK,,,,,,,,VFR,,,,,,,,,,,,METAR,604.0
LQTZ 211700Z 09003KT CAVOK 07/M01 Q1009,LQTZ,2015-02-21T17:00:00Z,44.47,18.73,7.0,-1.0,90,3,,6.21,29.793306,,,,,,,,,,,CAVOK,,,,,,,,VFR,,,,,,,,,,,,METAR,306.0
LQSA 211700Z 13007KT 070V210 9999 FEW050 08/M02 Q1010 NOSIG,LQSA,2015-02-21T17:00:00Z,43.82,18.32,8.0,-2.0,130,7,,6.21,29.822834,,,,,,TRUE,,,,,FEW,5000,,,,,,,VFR,,,,,,,,,,,,METAR,511.0
LQBK 211700Z 18004KT CAVOK 09/0M0 Q1009 NOSIG,LQBK,2015-02-21T17:00:00Z,44.93,17.3,,,180,4,,6.21,29.793306,,,,,,TRUE,,,,,CAVOK,,,,,,,,VFR,,,,,,,,,,,,METAR,122.0
SPLO 211700Z 16011KT CAVOK 26/20 Q1010 RMK PP000,SPLO,2015-02-21T17:00:00Z,-17.7,-71.35,26.0,20.0,160,11,,6.21,29.822834,,,,,,,,,,,CAVOK,,,,,,,,VFR,,,,,,,,,,,,METAR,9.0
OMSJ 211700Z 28013KT 7000 NSC 23/15 Q1010,OMSJ,2015-02-21T17:00:00Z,25.32,55.52,23.0,15.0,280,13,,4.35,29.822834,,,,,,,,,,,,,,,,,,,,,,,,,,,,,,,METAR,33.0
OMRK 211700Z 26008KT 6000 NSC 23/18 Q1010 A2983,OMRK,2015-02-21T17:00:00Z,25.62,55.92,23.0,18.0,260,8,,3.73,29.822834,,,,,,,,,,,,,,,,,,,,,,,,,,,,,,,METAR,31.0
OMFJ 211700Z 29010KT 6000 FEW025 27/11 Q1008 A2977,OMFJ,2015-02-21T17:00:00Z,25.1,56.32,27.0,11.0,290,10,,3.73,29.763779,,,,,,,,,,,FEW,2500,,,,,,,MVFR,,,,,,,,,,,,METAR,28.0
OMDW 211700Z 30012KT 8000 NSC 22/15 Q1012 NOSIG,OMDW,2015-02-21T17:00:00Z,24.9,55.17,22.0,15.0,300,12,,4.97,29.88189,,,,,,TRUE,,,,,,,,,,,,,,,,,,,,,,,,,METAR,25.0
OMDB 211700Z 29010KT 9999 SCT023 23/16 Q1011 NOSIG,OMDB,2015-02-21T17:00:00Z,25.25,55.37,23.0,16.0,290,10,,6.21,29.852362,,,,,,TRUE,,,,,SCT,2300,,,,,,,VFR,,,,,,,,,,,,METAR,5.0
OMAL 211700Z 34004KT 6000 NSC 21/17 Q1011 A2987 NOSIG,OMAL,2015-02-21T17:00:00Z,24.25,55.6,21.0,17.0,340,4,,3.73,29.852362,,,,,,TRUE,,,,,,,,,,,,,,,,,,,,,,,,,METAR,262.0
OMAD 211700Z 32012KT 7000 NSC 22/14 Q1011 A2986 NOSIG,OMAD,2015-02-21T17:00:00Z,24.42,54.47,22.0,14.0,320,12,,4.35,29.852362,,,,,,TRUE,,,,,,,,,,,,,,,,,,,,,,,,,METAR,3.0
OMAA 211700Z 30014KT 8000 NSC 21/14 Q1010 A2984 NOSIG,OMAA,2015-02-21T17:00:00Z,24.42,54.63,21.0,14.0,300,14,,4.97,29.822834,,,,,,TRUE,,,,,,,,,,,,,,,,,,,,,,,,,METAR,27.0
TNCE 211700Z AUTO 07013KT //// ////// ///// Q1019,TNCE,2015-02-21T17:00:00Z,17.47,-62.97,,,70,13,,,30.088583,,,TRUE,,,,,,,,,,,,,,,,,,,,,,,,,,,,METAR,39.0
TNCB 211700Z 05018KT 020V080 9999 SCT020 30/23 Q1015 NOSIG,TNCB,2015-02-21T17:00:00Z,12.13,-68.28,30.0,23.0,50,18,,6.21,29.970472,,,,,,TRUE,,,,,SCT,2000,,,,,,,VFR,,,,,,,,,,,,METAR,6.0
TNCC 211700Z 08011KT 9999 SCT024 30/23 Q1016 NOSIG,TNCC,2015-02-21T17:00:00Z,12.2,-68.97,30.0,23.0,80,11,,6.21,30.0,,,,,,TRUE,,,,,SCT,2400,,,,,,,VFR,,,,,,,,,,,,METAR,9.0
AGGH 211700Z 00000KT 9999 FEW015 SCT100 BKN300 24/24 Q1008,AGGH,2015-02-21T17:00:00Z,-9.42,160.05,24.0,24.0,0,0,,6.21,29.763779,,,,,,,,,,,FEW,1500,SCT,10000,BKN,30000,,,VFR,,,,,,,,,,,,METAR,9.0
SBPB 211700Z 07016KT 9999 SCT017 SCT090 29/24 Q1011,SBPB,2015-02-21T17:00:00Z,-2.92,-41.75,29.0,24.0,70,16,,6.21,29.852362,,,,,,,,,,,SCT,1700,SCT,9000,,,,,VFR,,,,,,,,,,,,METAR,5.0
SBGL 211700Z 14013KT 9999 FEW025 32/22 Q1015,SBGL,2015-02-21T17:00:00Z,-22.82,-43.25,32.0,22.0,140,13,,6.21,29.970472,,,,,,,,,,,FEW,2500,,,,,,,VFR,,,,,,,,,,,,METAR,6.0
KRWL 211700Z AUTO 00000KT 1 3/4SM -SN BKN010 OVC014 M02/M05 A2990 RMK AO2 P0000 T10221050,KRWL,2015-02-21T17:00:00Z,41.78,-107.2,-2.2,-5.0,0,0,,1.75,29.899607,,,TRUE,TRUE,,,,,,-SN,BKN,1000,OVC,1400,,,,,IFR,,,,,,0.0050,,,,,,METAR,2077.0
KPIR 211700Z AUTO 05011KT 2 1/2SM -SN SCT015 OVC024 M07/M10 A3018 RMK AO2 P0000 T10721100,KPIR,2015-02-21T17:00:00Z,44.38,-100.28,-7.2,-10.0,50,11,,2.5,30.180119,,,TRUE,TRUE,,,,,,-SN,SCT,1500,OVC,2400,,,,,IFR,,,,,,0.0050,,,,,,METAR,526.0
KPHD 211700Z AUTO 13004KT 1 1/4SM -SN BR BKN011 OVC017 M02/M04 A2995 RMK AO2 P0000 T10171039,KPHD,2015-02-21T17:00:00Z,40.47,-81.42,-1.7,-3.9,130,4,,1.25,29.949802,,,TRUE,TRUE,,,,,,-SN BR,BKN,1100,OVC,1700,,,,,IFR,,,,,,0.0050,,,,,,METAR,272.0
KMIC 211700Z 35010G17KT 7SM BKN016 BKN022 BKN100 M08/M13 A3004 RMK AO2 SNE1658 P0000 T10831133,KMIC,2015-02-21T17:00:00Z,45.07,-93.35,-8.3,-13.3,350,10,17,7.0,30.041338,,,,TRUE,,,,,,,BKN,1600,BKN,2200,BKN,10000,,,MVFR,,,,,,0.0050,,,,,,METAR,265.0
KLAR 211700Z AUTO 14003KT 1 1/4SM -SN BR FEW007 BKN020 OVC034 M04/M06 A2987 RMK AO2 P0000 T10391056,KLAR,2015-02-21T17:00:00Z,41.32,-105.67,-3.9,-5.6,140,3,,1.25,29.870079,,,TRUE,TRUE,,,,,,-SN BR,FEW,700,BKN,2000,OVC,3400,,,IFR,,,,,,0.0050,,,,,,METAR,2216.0
KITR 211700Z AUTO 34005KT 10SM BKN011 02/M02 A3000 RMK AO2 T00221017,KITR,2015-02-21T17:00:00Z,39.23,-102.28,2.2,-1.7,340,5,,10.0,30.0,,,TRUE,TRUE,,,,,,,BKN,1100,,,,,,,MVFR,,,,,,,,,,,,METAR,1279.0
KHAO 211700Z AUTO 00000KT 2SM -SN BR OVC006 01/00 A2993 RMK AO2 P0000 T00110000,KHAO,2015-02-21T17:00:00Z,39.37,-84.52,1.1,0.0,0,0,,2.0,29.929134,,,TRUE,TRUE,,,,,,-SN BR,OVC,600,,,,,,,IFR,,,,,,0.0050,,,,,,METAR,188.0
KEZS 211700Z AUTO 00000KT 10SM SCT120 M02/M10 A2993 RMK AO2 T10241100,KEZS,2015-02-21T17:00:00Z,44.78,-88.57,-2.4,-10.0,0,0,,10.0,29.929134,,,TRUE,TRUE,,,,,,,SCT,12000,,,,,,,VFR,,,,,,,,,,,,METAR,248.0
KCYS 211700Z 04007KT 3SM -SN SCT008 BKN034 OVC055 M03/M06 A2993 RMK AO2 SFC VIS 4 P0000 T10281056,KCYS,2015-02-21T17:00:00Z,41.15,-104.8,-2.8,-5.6,40,7,,3.0,29.929134,,,,TRUE,,,,,,-SN,SCT,800,BKN,3400,OVC,5500,,,MVFR,,,,,,0.0050,,,,,,METAR,1868.0
KCUT 211700Z AUTO VRB04KT 10SM FEW026 SCT033 OVC080 M07/M13 A2996 RMK AO2 T10671128,KCUT,2015-02-21T17:00:00Z,43.73,-103.62,-6.7,-12.8,0,4,,10.0,29.958662,,,TRUE,TRUE,,,,,,,FEW,2600,SCT,3300,OVC,8000,,,VFR,,,,,,,,,,,,METAR,1725.0
KCGI 211700Z 36007KT 5SM -RA BR BKN009 OVC080 01/00 A2992 RMK AO2 UPE1656RAB1656 P0000 T00110000,KCGI,2015-02-21T17:00:00Z,37.23,-89.58,1.1,0.0,360,7,,5.0,29.920275,,,,TRUE,,,,,,-RA BR,BKN,900,OVC,8000,,,,,IFR,,,,,,0.0050,,,,,,METAR,102.0
KCDR 211700Z AUTO 04016KT 2 1/2SM -SN BKN020 OVC025 M04/M07 A3011 RMK AO2 P0000 T10391072,KCDR,2015-02-21T17:00:00Z,42.83,-103.1,-3.9,-7.2,40,16,,2.5,30.109253,,,TRUE,TRUE,,,,,,-SN,BKN,2000,OVC,2500,,,,,IFR,,,,,,0.0050,,,,,,METAR,1010.0
KABE 211700Z 18010G17KT 3/4SM -SN BKN021 OVC047 M07/M12 A3037 RMK AO2 P0000,KABE,2015-02-21T17:00:00Z,40.65,-75.45,-7.0,-12.0,180,10,17,0.75,30.369095,,,,TRUE,,,,,,-SN,BKN,2100,OVC,4700,,,,,LIFR,,,,,,0.0050,,,,,,METAR,114.0
KYIP 211700Z 00000KT 4SM -SN FEW033 BKN041 OVC050 M06/M09 A2996 RMK AO2 SNB1658 P0000 T10561089,KYIP,2015-02-21T17:00:00Z,42.23,-83.53,-5.6,-8.9,0,0,,4.0,29.958662,,,,TRUE,,,,,,-SN,FEW,3300,BKN,4100,OVC,5000,,,MVFR,,,,,,0.0050,,,,,,METAR,215.0
LCPH 211700Z 02006KT 9999 FEW025 08/02 Q1017,LCPH,2015-02-21T17:00:00Z,34.72,32.47,8.0,2.0,20,6,,6.21,30.029528,,,,,,,,,,,FEW,2500,,,,,,,VFR,,,,,,,,,,,,METAR,8.0
LCLK 211700Z 29005KT 250V330 CAVOK 10/01 Q1018 NOSIG,LCLK,2015-02-21T17:00:00Z,34.87,33.62,10.0,1.0,290,5,,6.21,30.059055,,,,,,TRUE,,,,,CAVOK,,,,,,,,VFR,,,,,,,,,,,,METAR,2.0
PHTO 211700Z 20003KT 10SM BKN029 OVC047 21/19 A2997 RMK AO2 T02110194 $,PHTO,2015-02-21T17:00:00Z,19.72,-155.05,21.1,19.4,200,3,,10.0,29.970472,,,,TRUE,TRUE,,,,,,BKN,2900,OVC,4700,,,,,MVFR,,,,,,,,,,,,METAR,12.0
PAVA 211700Z AUTO 08019KT 10SM -RA BKN033 OVC043 02/00 A2938 RMK AO2 RAB1623 P0001 FZRANO,PAVA,2015-02-21T17:00:00Z,61.53,-165.6,2.0,0.0,80,19,,10.0,29.379921,,,TRUE,TRUE,,,,TRUE,,-RA,BKN,3300,OVC,4300,,,,,VFR,,,,,,0.01,,,,,,SPECI,23.0
KQEV 211700Z AUTO 00000KT 2800 BR CLR 07/05 A2995 RMK A02 TSNO,KQEV,2015-02-21T17:00:00Z,100.65,-1000.65,7.0,5.0,0,0,,1.74,29.949802,,,TRUE,TRUE,,,TRUE,,,BR,CLR,,,,,,,,IFR,,,,,,,,,,,,METAR,999.0
KQER 211700Z AUTO 8000 /CLR M06/M11 / RMK A02 TSNO,KQER,2015-02-21T17:00:00Z,100.65,-1000.65,-6.0,-11.0,,,,4.97,,,,TRUE,TRUE,,,TRUE,,,,CLR,,,,,,,,MVFR,,,,,,,,,,,,METAR,999.0
KQEQ 211700Z AUTO 13001KT 9999 OVC003 05/04 A2981 RMK A02 TSNO,KQEQ,2015-02-21T17:00:00Z,100.65,-1000.65,5.0,4.0,130,1,,6.21,29.811024,,,TRUE,TRUE,,,TRUE,,,,OVC,300,,,,,,,LIFR,,,,,,,,,,,,METAR,999.0
KQEP 211700Z AUTO 06008G13KT 2000 -DZ BR CLR 05/03 A2990 RMK A02 TSNO,KQEP,2015-02-21T17:00:00Z,100.65,-1000.65,5.0,3.0,60,8,13,1.24,29.899607,,,TRUE,TRUE,,,TRUE,,,-DZ BR,CLR,,,,,,,,IFR,,,,,,,,,,,,METAR,999.0
KQEI 211700Z AUTO 19002KT 6000 BKN002 03/02 A2995 RMK A02 TSNO,KQEI,2015-02-21T17:00:00Z,100.65,-1000.65,3.0,2.0,190,2,,3.73,29.949802,,,TRUE,TRUE,,,TRUE,,,,BKN,200,,,,,,,LIFR,,,,,,,,,,,,METAR,999.0
SBRP 211700Z 06007KT 9999 SCT040 33/15 Q1017,SBRP,2015-02-21T17:00:00Z,-21.12,-47.77,33.0,15.0,60,7,,6.21,30.029528,,,,,,,,,,,SCT,4000,,,,,,,VFR,,,,,,,,,,,,METAR,549.0
GMTT 211700Z 20010KT 5000 -RA SCT008 BKN016 12/11 Q1012 NOSIG,GMTT,2015-02-21T17:00:00Z,35.72,-5.9,12.0,11.0,200,10,,3.11,29.88189,,,,,,TRUE,,,,-RA,SCT,800,BKN,1600,,,,,MVFR,,,,,,,,,,,,METAR,21.0
GMMN 211700Z 22015KT 4100 -RADZ SCT016 BKN100 12/10 Q1016 NOSIG,GMMN,2015-02-21T17:00:00Z,33.37,-7.57,12.0,10.0,220,15,,2.55,30.0,,,,,,TRUE,,,,-RA -DZ,SCT,1600,BKN,10000,,,,,IFR,,,,,,,,,,,,METAR,206.0
GMME 211700Z 23012KT 5000 SCT008 BKN020 12/10 Q1014 RERA TEMPO RA,GMME,2015-02-21T17:00:00Z,34.03,-6.77,12.0,10.0,230,12,,3.11,29.940945,,,,,,,,,,,SCT,800,BKN,2000,,,,,MVFR,,,,,,,,,,,,METAR,75.0
GMAD 211700Z 26012KT CAVOK 20/09 Q1012 NOSIG,GMAD,2015-02-21T17:00:00Z,30.32,-9.42,20.0,9.0,260,12,,6.21,29.88189,,,,,,TRUE,,,,,CAVOK,,,,,,,,VFR,,,,,,,,,,,,METAR,74.0
GMTN 211700Z 25019G33KT 210V280 1000 SCT033 16/08 Q1010 NOSIG,GMTN,2015-02-21T17:00:00Z,35.57,-5.32,16.0,8.0,250,19,33,0.62,29.822834,,,,,,TRUE,,,,,SCT,3300,,,,,,,LIFR,,,,,,,,,,,,METAR,10.0
GMTA 211700Z 34010KT 9999 FEW020 BKN040 17/10 Q1009 NOSIG,GMTA,2015-02-21T17:00:00Z,35.17,-3.85,17.0,10.0,340,10,,6.21,29.793306,,,,,,TRUE,,,,,FEW,2000,BKN,4000,,,,,VFR,,,,,,,,,,,,METAR,14.0
GMMZ 211700Z 28017G31KT 240V310 9999 FEW030 15/M01 Q1012 NOSIG,GMMZ,2015-02-21T17:00:00Z,30.92,-6.9,15.0,-1.0,280,17,31,6.21,29.88189,,,,,,TRUE,,,,,FEW,3000,,,,,,,VFR,,,,,,,,,,,,METAR,1140.0
GMMW 211700Z 21004KT 8000 FEW026 BKN036 13/10 Q1009 NOSIG,GMMW,2015-02-21T17:00:00Z,34.98,-3.02,13.0,10.0,210,4,,4.97,29.793306,,,,,,TRUE,,,,,FEW,2600,BKN,3600,,,,,MVFR,,,,,,,,,,,,METAR,175.0
GMML 211700Z 01016KT 9999 BKN033 18/11 Q1019 NOSIG,GMML,2015-02-21T17:00:00Z,27.13,-13.23,18.0,11.0,10,16,,6.21,30.088583,,,,,,TRUE,,,,,BKN,3300,,,,,,,VFR,,,,,,,,,,,,METAR,6.0
GMMI 211700Z AUTO 34008KT 9999NDV BKN070/// 17/09 Q1016 NOSIG,GMMI,2015-02-21T17:00:00Z,31.4,-9.68,17.0,9.0,340,8,,,30.0,,,TRUE,,,TRUE,,,,,,,,,,,,,,,,,,,,,,,,,METAR,8.0
GMMB 211700Z 21012KT 180V240 3000 -RA SCT010 SCT016 OVC080 12/11 Q1016 NOSIG,GMMB,2015-02-21T17:00:00Z,33.65,-7.63,12.0,11.0,210,12,,1.86,30.0,,,,,,TRUE,,,,-RA,SCT,1000,SCT,1600,OVC,8000,,,IFR,,,,,,,,,,,,METAR,191.0
GMFO 211700Z 26019KT 8000 -RA SCT013 SCT020 BKN030 10/09 Q1008 NOSIG,GMFO,2015-02-21T17:00:00Z,34.77,-1.92,10.0,9.0,260,19,,4.97,29.763779,,,,,,TRUE,,,,-RA,SCT,1300,SCT,2000,BKN,3000,,,MVFR,,,,,,,,,,,,METAR,470.0
GMFK 211700Z 31011KT 9999 BKN020 15/M01 Q1010 NOSIG,GMFK,2015-02-21T17:00:00Z,31.95,-4.4,15.0,-1.0,310,11,,6.21,29.822834,,,,,,TRUE,,,,,BKN,2000,,,,,,,MVFR,,,,,,,,,,,,METAR,1045.0
GMFF 211700Z 27010KT 9999 SCT020 BKN030 09/07 Q1014 NOSIG,GMFF,2015-02-21T17:00:00Z,33.92,-4.97,9.0,7.0,270,10,,6.21,29.940945,,,,,,TRUE,,,,,SCT,2000,BKN,3000,,,,,MVFR,,,,,,,,,,,,METAR,579.0
GMAT 211700Z 34024KT 8000 FEW016 16/13 Q1017 NOSIG,GMAT,2015-02-21T17:00:00Z,28.43,-11.15,16.0,13.0,340,24,,4.97,30.029528,,,,,,TRUE,,,,,FEW,1600,,,,,,,MVFR,,,,,,,,,,,,METAR,200.0
GMAG 211700Z ///14KT 9999 SCT016 15/08 Q1017 NOSIG,GMAG,2015-02-21T17:00:00Z,29.03,-10.05,15.0,8.0,,,,6.21,30.029528,,,,,,TRUE,,,,,SCT,1600,,,,,,,VFR,,,,,,,,,,,,METAR,333.0
VHHH 211700Z 07006KT 5000 FEW010 SCT040 22/19 Q1015 NOSIG,VHHH,2015-02-21T17:00:00Z,22.32,113.92,22.0,19.0,70,6,,3.11,29.970472,,,,,,TRUE,,,,,FEW,1000,SCT,4000,,,,,MVFR,,,,,,,,,,,,METAR,9.0
KVLL 211700Z AUTO 00000KT 10SM OVC050 M05/M09 A2997 RMK AO2,KVLL,2015-02-21T17:00:00Z,42.55,-83.18,-5.0,-9.0,0,0,,10.0,29.970472,,,TRUE,TRUE,,,,,,,OVC,5000,,,,,,,VFR,,,,,,,,,,,,METAR,222.0
SBMA 211700Z 07006KT 9999 SCT025 OVC100 30/22 Q1011,SBMA,2015-02-21T17:00:00Z,-5.37,-49.13,30.0,22.0,70,6,,6.21,29.852362,,,,,,,,,,,SCT,2500,OVC,10000,,,,,VFR,,,,,,,,,,,,METAR,102.0
FMCZ 211700Z AUTO 00000KT 9999 BKN022/// BKN029/// 27/25 Q1010,FMCZ,2015-02-21T17:00:00Z,-12.8,45.27,27.0,25.0,0,0,,6.21,29.822834,,,TRUE,,,,,,,,,,,,,,,,,,,,,,,,,,,,METAR,7.0
UGKO 211700Z 24005KT 9999 SCT038CB OVC048 05/02 Q1023 R07/19//60 NOSIG,UGKO,2015-02-21T17:00:00Z,42.18,42.48,5.0,2.0,240,5,,6.21,30.206694,,,,,,TRUE,,,,,SCT,3800,OVC,4800,,,,,VFR,,,,,,,,,,,,METAR,68.0
UGSB 211700Z 23007KT 9999 SCT021 BKN047 06/02 Q1026 R13/70D NOSIG,UGSB,2015-02-21T17:00:00Z,41.62,41.6,6.0,2.0,230,7,,6.21,30.295275,,,,,,TRUE,,,,,SCT,2100,BKN,4700,,,,,VFR,,,,,,,,,,,,METAR,32.0
UGTB 211700Z 31020KT CAVOK 03/M02 Q1020 R31L/CLRD80 NOSIG,UGTB,2015-02-21T17:00:00Z,41.67,44.95,3.0,-2.0,310,20,,6.21,30.11811,,,,,,TRUE,,,,,CAVOK,,,,,,,,VFR,,,,,,,,,,,,METAR,495.0
SYCJ 211700Z 09014KT 9999 BKN014 SCT036 BKN080 28/22 Q1013 NOSIG,SYCJ,2015-02-21T17:00:00Z,6.5,-58.25,28.0,22.0,90,14,,6.21,29.911417,,,,,,TRUE,,,,,BKN,1400,SCT,3600,BKN,8000,,,MVFR,,,,,,,,,,,,METAR,30.0
SBFL 211700Z 20005KT 9999 SCT025 BKN060 29/23 Q1018,SBFL,2015-02-21T17:00:00Z,-27.67,-48.53,29.0,23.0,200,5,,6.21,30.059055,,,,,,,,,,,SCT,2500,BKN,6000,,,,,VFR,,,,,,,,,,,,METAR,5.0
SBCJ 211700Z 09005KT 9999 SCT025 BKN080 25/20 Q1015,SBCJ,2015-02-21T17:00:00Z,-6.12,-50.0,25.0,20.0,90,5,,6.21,29.970472,,,,,,,,,,,SCT,2500,BKN,8000,,,,,VFR,,,,,,,,,,,,METAR,621.0
RPLC 211700Z 02001KT 9999 FEW020 BKN300 21/20 Q1016 RMK NOSIG A3001,RPLC,2015-02-21T17:00:00Z,15.17,120.58,21.0,20.0,20,1,,6.21,30.0,,,,,,,,,,,FEW,2000,BKN,30000,,,,,VFR,,,,,,,,,,,,METAR,196.0
TFFR 211700Z 08014KT 050V110 9999 FEW030 29/18 Q1017,TFFR,2015-02-21T17:00:00Z,16.27,-61.53,29.0,18.0,80,14,,6.21,30.029528,,,,,,,,,,,FEW,3000,,,,,,,VFR,,,,,,,,,,,,METAR,11.0
MYNN 211700Z 09013KT 9999 FEW020 22/13 A3027,MYNN,2015-02-21T17:00:00Z,25.03,-77.47,22.0,13.0,90,13,,6.21,30.268702,,,,,,,,,,,FEW,2000,,,,,,,VFR,,,,,,,,,,,,METAR,3.0
SBRB 211700Z 18003KT 9999 BKN010 OVC100 23/20 Q1013,SBRB,2015-02-21T17:00:00Z,-10.0,-67.78,23.0,20.0,180,3,,6.21,29.911417,,,,,,,,,,,BKN,1000,OVC,10000,,,,,MVFR,,,,,,,,,,,,METAR,143.0
SBCY 211700Z 01011KT 9999 BKN018 BKN100 27/23 Q1013,SBCY,2015-02-21T17:00:00Z,-15.65,-56.12,27.0,23.0,10,11,,6.21,29.911417,,,,,,,,,,,BKN,1800,BKN,10000,,,,,MVFR,,,,,,,,,,,,METAR,182.0
MMCB 211700Z 06003KT 10SM SKC 26/09 A3016,MMCB,2015-02-21T17:00:00Z,18.83,-99.27,26.0,9.0,60,3,,10.0,30.159449,,,,,,,,,,,SKC,,,,,,,,VFR,,,,,,,,,,,,METAR,1560.0
OPRN 211700Z 31004KT 4000 HZ FEW040 SCT100 16/12 Q1018.6/30.08,OPRN,2015-02-21T17:00:00Z,33.62,73.08,16.0,12.0,310,4,,2.49,,,,,,,,,,,HZ,FEW,4000,SCT,10000,,,,,IFR,,,,,,,,,,,,METAR,508.0
GVSV 211700Z 06026KT 9999 SCT020 23/11 Q1017 NOSIG,GVSV,2015-02-21T17:00:00Z,16.83,-25.07,23.0,11.0,60,26,,6.21,30.029528,,,,,,TRUE,,,,,SCT,2000,,,,,,,VFR,,,,,,,,,,,,METAR,20.0
HSSS 211700Z 36009KT CAVOK 24/M08 Q1013NOSIG,HSSS,2015-02-21T17:00:00Z,15.58,32.53,24.0,-8.0,360,9,,6.21,,,,,,,TRUE,,,,,CAVOK,,,,,,,,VFR,,,,,,,,,,,,METAR,380.0
GVBA 211700Z 06020KT 9999 SCT015 22/12 Q1016 NOSIG,GVBA,2015-02-21T17:00:00Z,16.13,-22.88,22.0,12.0,60,20,,6.21,30.0,,,,,,TRUE,,,,,SCT,1500,,,,,,,VFR,,,,,,,,,,,,METAR,22.0
KVKS 211700Z AUTO 19016G23KT 10SM SCT036 SCT041 BKN049 20/13 A2997 RMK A01,KVKS,2015-02-21T17:00:00Z,,,20.0,13.0,190,16,23,10.0,29.970472,,,TRUE,TRUE,,,,,,,SCT,3600,SCT,4100,BKN,4900,,,VFR,,,,,,,,,,,,METAR,
KS39 211700Z AUTO 00000KT 10SM BKN050 M00/M02 A3017 RMK AO2,KS39,2015-02-21T17:00:00Z,44.28,-120.9,0.0,-2.0,0,0,,10.0,30.171259,,,TRUE,TRUE,,,,,,,BKN,5000,,,,,,,VFR,,,,,,,,,,,,METAR,991.0
GOOY 211700Z 35016KT 9000 NSC 20/13 Q1012 NOSIG,GOOY,2015-02-21T17:00:00Z,14.72,-17.5,20.0,13.0,350,16,,5.59,29.88189,,,,,,TRUE,,,,,,,,,,,,,,,,,,,,,,,,,METAR,24.0
SBKP 211700Z 30004KT 9999 SCT040 32/16 Q1019,SBKP,2015-02-21T17:00:00Z,-23.0,-47.12,32.0,16.0,300,4,,6.21,30.088583,,,,,,,,,,,SCT,4000,,,,,,,VFR,,,,,,,,,,,,METAR,661.0
LWSK 211700Z 16005KT CAVOK 10/02 Q1014 NOSIG,LWSK,2015-02-21T17:00:00Z,41.97,21.63,10.0,2.0,160,5,,6.21,29.940945,,,,,,TRUE,,,,,CAVOK,,,,,,,,VFR,,,,,,,,,,,,METAR,239.0
ORBI 211700Z 33004KT 9999 BKN030 08/05 Q1013 NOSIG,ORBI,2015-02-21T17:00:00Z,33.27,44.23,8.0,5.0,330,4,,6.21,29.911417,,,,,,TRUE,,,,,BKN,3000,,,,,,,MVFR,,,,,,,,,,,,METAR,35.0
GVNP 211700Z 02015KT 9999 FEW020 23/13 Q1015 NOSIG,GVNP,2015-02-21T17:00:00Z,14.95,-23.48,23.0,13.0,20,15,,6.21,29.970472,,,,,,TRUE,,,,,FEW,2000,,,,,,,VFR,,,,,,,,,,,,METAR,70.0
MTPP 211700Z 09010KT 9999 FEW028 30/// Q1018 A3006,MTPP,2015-02-21T17:00:00Z,18.57,-72.28,,,90,10,,6.21,30.059055,,,,,,,,,,,FEW,2800,,,,,,,VFR,,,,,,,,,,,,METAR,37.0
TKPK 211700Z 08018KT 9999 FEW022 30/22 Q1018,TKPK,2015-02-21T17:00:00Z,17.3,-62.72,30.0,22.0,80,18,,6.21,30.059055,,,,,,,,,,,FEW,2200,,,,,,,VFR,,,,,,,,,,,,METAR,48.0
KGOO 211700Z AUTO 17003KT 10SM CLR 11/03 A2996 RMK AO1,KGOO,2015-02-21T17:00:00Z,39.22,-121.0,11.0,3.0,170,3,,10.0,29.958662,,,TRUE,TRUE,,,,,,,CLR,,,,,,,,VFR,,,,,,,,,,,,METAR,962.0
LYUZ 211700Z 00000KT CAVOK 04/M10 Q1010 R10///////,LYUZ,2015-02-21T17:00:00Z,43.9,19.7,4.0,-10.0,0,0,,6.21,29.822834,,,,,,,,,,,CAVOK,,,,,,,,VFR,,,,,,,,,,,,METAR,904.0
LYTV 211700Z 19003KT 110V240 9999 FEW033 BKN040 12/05 Q1013 NOSIG,LYTV,2015-02-21T17:00:00Z,42.38,18.72,12.0,5.0,190,3,,6.21,29.911417,,,,,,TRUE,,,,,FEW,3300,BKN,4000,,,,,VFR,,,,,,,,,,,,METAR,5.0
LYPG 211700Z VRB02KT 9999 SCT040 BKN090 10/03 Q1013 NOSIG,LYPG,2015-02-21T17:00:00Z,42.37,19.25,10.0,3.0,0,2,,6.21,29.911417,,,,,,TRUE,,,,,SCT,4000,BKN,9000,,,,,VFR,,,,,,,,,,,,METAR,43.0
LYNI 211700Z 18006KT 130V220 CAVOK 10/M03 Q1012,LYNI,2015-02-21T17:00:00Z,43.32,21.88,10.0,-3.0,180,6,,6.21,29.88189,,,,,,,,,,,CAVOK,,,,,,,,VFR,,,,,,,,,,,,METAR,202.0
LYKV 211700Z VRB01KT CAVOK 07/00 Q1011 NOSIG,LYKV,2015-02-21T17:00:00Z,43.82,20.58,7.0,0.0,0,1,,6.21,29.852362,,,,,,TRUE,,,,,CAVOK,,,,,,,,VFR,,,,,,,,,,,,METAR,209.0
HECA 211700Z 31003KT 9999 SCT025 BKN070 14/08 Q1018 NOSIG,HECA,2015-02-21T17:00:00Z,30.12,31.38,14.0,8.0,310,3,,6.21,30.059055,,,,,,TRUE,,,,,SCT,2500,BKN,7000,,,,,VFR,,,,,,,,,,,,METAR,74.0
LYVR 211700Z 13022G33KT CAVOK 11/M04 Q1011 NOSIG,LYVR,2015-02-21T17:00:00Z,45.13,21.32,11.0,-4.0,130,22,33,6.21,29.852362,,,,,,TRUE,,,,,CAVOK,,,,,,,,VFR,,,,,,,,,,,,METAR,85.0
GQPP 211700Z 34018KT 4000 DRSA NSC 20/12 Q1017 NOSIG,GQPP,2015-02-21T17:00:00Z,20.92,-17.02,20.0,12.0,340,18,,2.49,30.029528,,,,,,TRUE,,,,DRSA,,,,,,,,,,,,,,,,,,,,,METAR,3.0
TDPD 211700Z 10014KT 9999 BKN017 29/22 Q1017,TDPD,2015-02-21T17:00:00Z,15.55,-61.3,29.0,22.0,100,14,,6.21,30.029528,,,,,,,,,,,BKN,1700,,,,,,,MVFR,,,,,,,,,,,,METAR,14.0
SBMQ 211700Z 12006KT 9999 BKN025 33/23 Q1010,SBMQ,2015-02-21T17:00:00Z,0.05,-51.07,33.0,23.0,120,6,,6.21,29.822834,,,,,,,,,,,BKN,2500,,,,,,,MVFR,,,,,,,,,,,,METAR,15.0
CYQU 211700Z 08007KT 10SM OVC012 M07/M09 A3059 RMK SC8 SLP403,CYQU,2015-02-21T17:00:00Z,55.18,-118.88,-7.0,-9.0,80,7,,10.0,30.590551,1040.3,,,,,,,,,,OVC,1200,,,,,,,MVFR,,,,,,,,,,,,METAR,669.0
TAPA 211700Z 09013KT 9999 SCT018 28/21 Q1018 NOSIG,TAPA,2015-02-21T17:00:00Z,17.12,-61.78,28.0,21.0,90,13,,6.21,30.059055,,,,,,TRUE,,,,,SCT,1800,,,,,,,VFR,,,,,,,,,,,,METAR,14.0
YBDV 211700Z AUTO 11008KT //// // ////// 32/12 Q1005,YBDV,2015-02-21T17:00:00Z,-25.9,139.35,32.0,12.0,110,8,,,29.675198,,,TRUE,,,,,,,,,,,,,,,,,,,,,,,,,,,,METAR,47.0
YBCV 211700Z AUTO 00000KT 9999 // NCD 24/16 Q1009,YBCV,2015-02-21T17:00:00Z,-26.38,146.27,24.0,16.0,0,0,,6.21,29.793306,,,TRUE,,,,,,,,,,,,,,,,,,,,,,,,,,,,METAR,304.0
YBCS 211700Z 00000KT 9999 FEW025 BKN120 27/25 Q1008 NOSIG,YBCS,2015-02-21T17:00:00Z,-16.87,145.75,27.0,25.0,0,0,,6.21,29.763779,,,,,,TRUE,,,,,FEW,2500,BKN,12000,,,,,VFR,,,,,,,,,,,,METAR,7.0
YBBN 211700Z 23007KT 9999 FEW030 22/21 Q1006 FM1700 MOD TURB BLW 5000FT,YBBN,2015-02-21T17:00:00Z,-27.38,153.13,22.0,21.0,230,7,,6.21,29.704725,,,,,,,,,,,FEW,3000,,,,,,,VFR,,,,,,,,,,,,METAR,5.0
YBAS 211700Z AUTO 36005KT 9999 // NCD 27/12 Q1009,YBAS,2015-02-21T17:00:00Z,-23.8,133.9,27.0,12.0,360,5,,6.21,29.793306,,,TRUE,,,,,,,,,,,,,,,,,,,,,,,,,,,,METAR,541.0
YAYE 211700Z AUTO 09002KT 9999 // NCD 29/06 Q1007,YAYE,2015-02-21T17:00:00Z,-25.18,130.98,29.0,6.0,90,2,,6.21,29.734253,,,TRUE,,,,,,,,,,,,,,,,,,,,,,,,,,,,METAR,496.0
YARG 211700Z AUTO 24003KT 9999 // OVC096 26/21 Q1006,YARG,2015-02-21T17:00:00Z,-16.63,128.45,26.0,21.0,240,3,,6.21,29.704725,,,TRUE,,,,,,,,OVC,9600,,,,,,,VFR,,,,,,,,,,,,METAR,165.0
YAMB 211700Z AUTO 24007KT 9999 // NCD 23/19 Q1007,YAMB,2015-02-21T17:00:00Z,-27.63,152.72,23.0,19.0,240,7,,6.21,29.734253,,,TRUE,,,,,,,,,,,,,,,,,,,,,,,,,,,,METAR,28.0
YABA 211700Z AUTO 31009KT 9999 // SCT012 SCT020 OVC028 17/15 Q1011,YABA,2015-02-21T17:00:00Z,-34.93,117.8,17.0,15.0,310,9,,6.21,29.852362,,,TRUE,,,,,,,,SCT,1200,SCT,2000,OVC,2800,,,MVFR,,,,,,,,,,,,METAR,69.0
WIII 211700Z 29004KT 4000 BR FEW020 24/20 Q1011 NOSIG,WIII,2015-02-21T17:00:00Z,-6.13,106.67,24.0,20.0,290,4,,2.49,29.852362,,,,,,TRUE,,,,BR,FEW,2000,,,,,,,IFR,,,,,,,,,,,,METAR,8.0
EIKN 211700Z 30013KT 9999 FEW020CB SCT040 BKN250 03/00 Q1006 NOSIG,EIKN,2015-02-21T17:00:00Z,53.92,-8.82,3.0,0.0,300,13,,6.21,29.704725,,,,,,TRUE,,,,,FEW,2000,SCT,4000,BKN,25000,,,VFR,,,,,,,,,,,,METAR,64.0
EICK 211700Z 31011KT 9999 FEW017 SCT050 BKN180 06/01 Q1009 NOSIG,EICK,2015-02-21T17:00:00Z,51.85,-8.47,6.0,1.0,310,11,,6.21,29.793306,,,,,,TRUE,,,,,FEW,1700,SCT,5000,BKN,18000,,,VFR,,,,,,,,,,,,METAR,162.0
EINN 211700Z 28012KT 9999 FEW014 FEW018CB SCT035 BKN050 05/01 Q1008 NOSIG,EINN,2015-02-21T17:00:00Z,52.7,-8.92,5.0,1.0,280,12,,6.21,29.763779,,,,,,TRUE,,,,,FEW,1400,FEW,1800,SCT,3500,BKN,5000,VFR,,,,,,,,,,,,METAR,20.0
EIDW 211700Z 27009KT 9999 FEW017CB BKN200 03/01 Q1005 NOSIG,EIDW,2015-02-21T17:00:00Z,53.42,-6.25,3.0,1.0,270,9,,6.21,29.675198,,,,,,TRUE,,,,,FEW,1700,BKN,20000,,,,,VFR,,,,,,,,,,,,METAR,85.0
EPZG 211700Z 17007KT CAVOK 07/M00 Q0998,EPZG,2015-02-21T17:00:00Z,52.13,15.8,7.0,0.0,170,7,,6.21,29.468504,,,,,,,,,,,CAVOK,,,,,,,,VFR,,,,,,,,,,,,METAR,59.0
EPWR 211700Z 22004KT 180V260 CAVOK 05/M01 Q1000,EPWR,2015-02-21T17:00:00Z,51.1,16.87,5.0,-1.0,220,4,,6.21,29.52756,,,,,,,,,,,CAVOK,,,,,,,,VFR,,,,,,,,,,,,METAR,121.0
EPSC 211700Z 24015KT 9999 SCT036 08/00 Q0995,EPSC,2015-02-21T17:00:00Z,53.58,14.9,8.0,0.0,240,15,,6.21,29.379921,,,,,,,,,,,SCT,3600,,,,,,,VFR,,,,,,,,,,,,METAR,3.0
EPMO 211700Z 17007KT CAVOK 04/M02 Q1000,EPMO,2015-02-21T17:00:00Z,52.45,20.65,4.0,-2.0,170,7,,6.21,29.52756,,,,,,,,,,,CAVOK,,,,,,,,VFR,,,,,,,,,,,,METAR,104.0
EPLB 211700Z 18005KT CAVOK 05/M05 Q1003,EPLB,2015-02-21T17:00:00Z,51.23,22.72,5.0,-5.0,180,5,,6.21,29.616142,,,,,,,,,,,CAVOK,,,,,,,,VFR,,,,,,,,,,,,METAR,206.0
EPKT 211700Z 18005KT 140V220 7000 NSC 05/M03 Q1002,EPKT,2015-02-21T17:00:00Z,50.47,19.08,5.0,-3.0,180,5,,4.35,29.586615,,,,,,,,,,,,,,,,,,,,,,,,,,,,,,,METAR,284.0
EPBY 211700Z 16004KT 130V190 CAVOK 05/M01 Q0997,EPBY,2015-02-21T17:00:00Z,53.1,18.0,5.0,-1.0,160,4,,6.21,29.438976,,,,,,,,,,,CAVOK,,,,,,,,VFR,,,,,,,,,,,,METAR,71.0
EPWA 211700Z 17005KT CAVOK 02/M03 Q1001 NOSIG,EPWA,2015-02-21T17:00:00Z,52.17,20.97,2.0,-3.0,170,5,,6.21,29.557087,,,,,,TRUE,,,,,CAVOK,,,,,,,,VFR,,,,,,,,,,,,METAR,107.0
EPRZ 211700Z 20017KT CAVOK 06/M03 Q1004,EPRZ,2015-02-21T17:00:00Z,50.1,22.05,6.0,-3.0,200,17,,6.21,29.64567,,,,,,,,,,,CAVOK,,,,,,,,VFR,,,,,,,,,,,,METAR,202.0
EPPO 211700Z 21004KT CAVOK 07/M01 Q0998,EPPO,2015-02-21T17:00:00Z,52.42,16.82,7.0,-1.0,210,4,,6.21,29.468504,,,,,,,,,,,CAVOK,,,,,,,,VFR,,,,,,,,,,,,METAR,92.0
EPLL 211700Z 18004KT CAVOK 05/M04 Q1001,EPLL,2015-02-21T17:00:00Z,51.72,19.4,5.0,-4.0,180,4,,6.21,29.557087,,,,,,,,,,,CAVOK,,,,,,,,VFR,,,,,,,,,,,,METAR,184.0
EPKK 211700Z 23007KT CAVOK 06/M03 Q1004,EPKK,2015-02-21T17:00:00Z,50.07,19.8,6.0,-3.0,230,7,,6.21,29.64567,,,,,,,,,,,CAVOK,,,,,,,,VFR,,,,,,,,,,,,METAR,237.0
EPGD 211700Z 19007KT 150V220 CAVOK 05/M02 Q0995,EPGD,2015-02-21T17:00:00Z,54.37,18.47,5.0,-2.0,190,7,,6.21,29.379921,,,,,,,,,,,CAVOK,,,,,,,,VFR,,,,,,,,,,,,METAR,138.0
TNCM 211700Z 09014KT 060V120 9999 BKN019 28/21 Q1019 A3009 NOSIG,TNCM,2015-02-21T17:00:00Z,18.05,-63.12,28.0,21.0,90,14,,6.21,30.088583,,,,,,TRUE,,,,,BKN,1900,,,,,,,MVFR,,,,,,,,,,,,METAR,4.0
FIMP 211700Z 34003KT 9999 FEW016 26/25 Q1014,FIMP,2015-02-21T17:00:00Z,-20.42,57.67,26.0,25.0,340,3,,6.21,29.940945,,,,,,,,,,,FEW,1600,,,,,,,VFR,,,,,,,,,,,,METAR,57.0
TRPG 211700Z 10014KT 9999 HZ BKN024 27/21 Q1018,TRPG,2015-02-21T17:00:00Z,16.78,-62.2,27.0,21.0,100,14,,6.21,30.059055,,,,,,,,,,HZ,BKN,2400,,,,,,,MVFR,,,,,,,,,,,,METAR,168.0
SPZO 211700Z 07005KT 360V120 9999 BKN046 16/05 Q1030 NOSIG RMK PP000,SPZO,2015-02-21T17:00:00Z,-13.55,-71.97,16.0,5.0,70,5,,6.21,30.413385,,,,,,TRUE,,,,,BKN,4600,,,,,,,VFR,,,,,,,,,,,,SPECI,3249.0
SPTN 211700Z 22014KT CAVOK 29/16 Q1011 RMK PP000,SPTN,2015-02-21T17:00:00Z,-18.07,-70.28,29.0,16.0,220,14,,6.21,29.852362,,,,,,,,,,,CAVOK,,,,,,,,VFR,,,,,,,,,,,,SPECI,458.0
SPSO 211700Z 28008KT 9999 FEW025 SCT230 26/20 Q1011 RMK BIRD HAZARD RWY 22/04 PP000,SPSO,2015-02-21T17:00:00Z,-13.73,-76.22,26.0,20.0,280,8,,6.21,29.852362,,,,,,,,,,,FEW,2500,SCT,23000,,,,,VFR,,,,,,,,,,,,SPECI,10.0
SPRU 211700Z 14010KT 9999 FEW040 24/19 Q1011 RMK PP000,SPRU,2015-02-21T17:00:00Z,-8.08,-79.12,24.0,19.0,140,10,,6.21,29.852362,,,,,,,,,,,FEW,4000,,,,,,,VFR,,,,,,,,,,,,METAR,30.0
SPQU 211700Z VRB05KT 9999 SCT020 SCT030 16/08 Q1026 NOSIG RMK PP000,SPQU,2015-02-21T17:00:00Z,-16.33,-71.57,16.0,8.0,0,5,,6.21,30.295275,,,,,,TRUE,,,,,SCT,2000,SCT,3000,,,,,VFR,,,,,,,,,,,,SPECI,2554.0
SPQT 211700Z 03008KT 360V070 9999 FEW020 SCT100 33/23 Q1009 NOSIG RMK PP000,SPQT,2015-02-21T17:00:00Z,-3.78,-73.32,33.0,23.0,30,8,,6.21,29.793306,,,,,,TRUE,,,,,FEW,2000,SCT,10000,,,,,VFR,,,,,,,,,,,,SPECI,126.0
SPHI 211700Z 22007KT 140V270 CAVOK 31/20 Q1011 RMK PP000,SPHI,2015-02-21T17:00:00Z,-6.77,-79.82,31.0,20.0,220,7,,6.21,29.852362,,,,,,,,,,,CAVOK,,,,,,,,VFR,,,,,,,,,,,,METAR,34.0
MRPV 211700Z 07016KT 9999 FEW040 24/15 A3005 NOSIG,MRPV,2015-02-21T17:00:00Z,9.95,-84.15,24.0,15.0,70,16,,6.21,30.050198,,,,,,TRUE,,,,,FEW,4000,,,,,,,VFR,,,,,,,,,,,,METAR,994.0
CYWL 211700Z 31008KT 15SM FEW020 M03/M03 A3045 RMK SC2 SLP355,CYWL,2015-02-21T17:00:00Z,52.18,-122.07,-3.0,-3.0,310,8,,15.0,30.448818,1035.5,,,,,,,,,,FEW,2000,,,,,,,VFR,,,,,,,,,,,,METAR,940.0
SBCB 211700Z 10021KT CAVOK 31/29 Q1016,SBCB,2015-02-21T17:00:00Z,-22.92,-42.08,31.0,29.0,100,21,,6.21,30.0,,,,,,,,,,,CAVOK,,,,,,,,VFR,,,,,,,,,,,,METAR,4.0
LFSI 211700Z AUTO 23010KT //// R29///// RA // BKN008/// OVC024/// ///CB 03/02 Q1002,LFSI,2015-02-21T17:00:00Z,48.62,4.9,3.0,2.0,230,10,,,29.586615,,,TRUE,,,,,,,RA,,,,,,,,,,,,,,,,,,,,,METAR,140.0
GCLA 211700Z 02020G30KT 350V050 9999 FEW060 18/14 Q1022,GCLA,2015-02-21T17:00:00Z,28.62,-17.75,18.0,14.0,20,20,30,6.21,30.177166,,,,,,,,,,,FEW,6000,,,,,,,VFR,,,,,,,,,,,,METAR,31.0
GCFV 211700Z 35020KT 9999 FEW028 20/12 Q1020,GCFV,2015-02-21T17:00:00Z,28.43,-13.87,20.0,12.0,350,20,,6.21,30.11811,,,,,,,,,,,FEW,2800,,,,,,,VFR,,,,,,,,,,,,METAR,23.0
GCRR 211700Z 33025KT 300V360 9999 FEW025 20/14 Q1019,GCRR,2015-02-21T17:00:00Z,28.93,-13.58,20.0,14.0,330,25,,6.21,30.088583,,,,,,,,,,,FEW,2500,,,,,,,VFR,,,,,,,,,,,,METAR,40.0
GCTS 211700Z 22008KT 190V250 9999 FEW040 20/12 Q1022 NOSIG,GCTS,2015-02-21T17:00:00Z,28.05,-16.57,20.0,12.0,220,8,,6.21,30.177166,,,,,,TRUE,,,,,FEW,4000,,,,,,,VFR,,,,,,,,,,,,METAR,72.0
GCXO 211700Z 30022KT 8000 1000NW -DZ PRFG FEW000 BKN004 12/12 Q1023 NOSIG,GCXO,2015-02-21T17:00:00Z,28.48,-16.35,12.0,12.0,300,22,,4.97,30.206694,,,,,,TRUE,,,,PRFG -DZ,FEW,0,BKN,400,,,,,LIFR,,,,,,,,,,,,METAR,632.0
GCLP 211700Z 35021KT 320V020 9999 FEW010 SCT035 19/13 Q1021 NOSIG,GCLP,2015-02-21T17:00:00Z,27.92,-15.37,19.0,13.0,350,21,,6.21,30.147638,,,,,,TRUE,,,,,FEW,1000,SCT,3500,,,,,VFR,,,,,,,,,,,,METAR,25.0
LEGR 211700Z 29004KT 9999 FEW040 09/07 Q1010,LEGR,2015-02-21T17:00:00Z,37.17,-3.77,9.0,7.0,290,4,,6.21,29.822834,,,,,,,,,,,FEW,4000,,,,,,,VFR,,,,,,,,,,,,METAR,559.0
LEAM 211700Z 31017G27KT 280V340 9999 FEW020 SCT100 19/03 Q1006,LEAM,2015-02-21T17:00:00Z,36.85,-2.37,19.0,3.0,310,17,27,6.21,29.704725,,,,,,,,,,,FEW,2000,SCT,10000,,,,,VFR,,,,,,,,,,,,METAR,21.0
LEMH 211700Z 29003KT 230V330 5000 -RA SCT007 FEW020TCU BKN040 09/08 Q1001,LEMH,2015-02-21T17:00:00Z,39.87,4.22,9.0,8.0,290,3,,3.11,29.557087,,,,,,,,,,-RA,SCT,700,FEW,2000,BKN,4000,,,MVFR,,,,,,,,,,,,METAR,82.0
LERS 211700Z 29018G29KT 250V320 9999 FEW030 14/01 Q1001,LERS,2015-02-21T17:00:00Z,41.13,1.17,14.0,1.0,290,18,29,6.21,29.557087,,,,,,,,,,,FEW,3000,,,,,,,VFR,,,,,,,,,,,,METAR,76.0
LEVT 211700Z 31010KT 280V340 9999 -RA SCT013 BKN030 04/02 Q1011,LEVT,2015-02-21T17:00:00Z,42.87,-2.72,4.0,2.0,310,10,,6.21,29.852362,,,,,,,,,,-RA,SCT,1300,BKN,3000,,,,,MVFR,,,,,,,,,,,,METAR,509.0
LESO 211700Z 31008G18KT 230V040 9999 SCT034 BKN050 10/04 Q1011,LESO,2015-02-21T17:00:00Z,43.35,-1.8,10.0,4.0,310,8,18,6.21,29.852362,,,,,,,,,,,SCT,3400,BKN,5000,,,,,VFR,,,,,,,,,,,,METAR,8.0
LEZG 211700Z 32020KT 9999 SCT030 08/02 Q1009,LEZG,2015-02-21T17:00:00Z,41.67,-1.02,8.0,2.0,320,20,,6.21,29.793306,,,,,,,,,,,SCT,3000,,,,,,,VFR,,,,,,,,,,,,METAR,258.0
LEST 211700Z 34007KT 300V010 9999 FEW028 BKN045 08/04 Q1018 NOSIG,LEST,2015-02-21T17:00:00Z,42.88,-8.42,8.0,4.0,340,7,,6.21,30.059055,,,,,,TRUE,,,,,FEW,2800,BKN,4500,,,,,VFR,,,,,,,,,,,,METAR,367.0
LEGE 211700Z 00000KT 9999 FEW020 FEW040TCU BKN055 09/06 Q1001,LEGE,2015-02-21T17:00:00Z,41.88,2.77,9.0,6.0,0,0,,6.21,29.557087,,,,,,,,,,,FEW,2000,FEW,4000,BKN,5500,,,VFR,,,,,,,,,,,,METAR,129.0
LECO 211700Z 33009KT 290V010 9999 FEW022 SCT024 11/06 Q1018 NOSIG,LECO,2015-02-21T17:00:00Z,43.28,-8.37,11.0,6.0,330,9,,6.21,30.059055,,,,,,TRUE,,,,,FEW,2200,SCT,2400,,,,,VFR,,,,,,,,,,,,METAR,103.0
LEBB 211700Z 30016G28KT 9999 FEW018 SCT030 BKN045 09/06 Q1012 TEMPO 3000 SHRA SCT025TCU,LEBB,2015-02-21T17:00:00Z,43.28,-2.92,9.0,6.0,300,16,28,6.21,29.88189,,,,,,,,,,,FEW,1800,SCT,3000,BKN,4500,,,VFR,,,,,,,,,,,,METAR,34.0
LEAS 211700Z 30014KT 270V340 9999 FEW023 SCT030TCU BKN043 09/06 Q1016 TEMPO SHRA,LEAS,2015-02-21T17:00:00Z,43.53,-6.02,9.0,6.0,300,14,,6.21,30.0,,,,,,,,,,,FEW,2300,SCT,3000,BKN,4300,,,VFR,,,,,,,,,,,,METAR,134.0
LFCR 211700Z AUTO 31019KT 0550 R31/1600D +SN FG SCT005 BKN012 BKN017 00/M00 Q1003,LFCR,2015-02-21T17:00:00Z,44.38,2.47,0.0,0.0,310,19,,0.34,29.616142,,,TRUE,,,,,,,+SN FG,SCT,500,BKN,1200,BKN,1700,,,LIFR,,,,,,,,,,,,METAR,580.0
LFTW 211700Z AUTO 02009KT 360V070 9999 FEW014 SCT038 BKN046 07/03 Q1001,LFTW,2015-02-21T17:00:00Z,43.75,4.42,7.0,3.0,20,9,,6.21,29.557087,,,TRUE,,,,,,,,FEW,1400,SCT,3800,BKN,4600,,,VFR,,,,,,,,,,,,METAR,96.0
LFSD 211700Z AUTO 16007KT 9999 NSC 05/02 Q1002,LFSD,2015-02-21T17:00:00Z,47.27,5.07,5.0,2.0,160,7,,6.21,29.586615,,,TRUE,,,,,,,,,,,,,,,,,,,,,,,,,,,,METAR,227.0
LFRT 211700Z AUTO 34007KT 300V010 9999 -RA FEW006 SCT026 BKN033 03/01 Q1007,LFRT,2015-02-21T17:00:00Z,48.52,-2.85,3.0,1.0,340,7,,6.21,29.734253,,,TRUE,,,,,,,-RA,FEW,600,SCT,2600,BKN,3300,,,VFR,,,,,,,,,,,,METAR,136.0
LFRQ 211700Z AUTO 32013KT 9999 FEW039 07/01 Q1009,LFRQ,2015-02-21T17:00:00Z,47.97,-4.17,7.0,1.0,320,13,,6.21,29.793306,,,TRUE,,,,,,,,FEW,3900,,,,,,,VFR,,,,,,,,,,,,METAR,94.0
LFRH 211700Z AUTO 32009KT 9999 FEW017 SCT052 BKN090 05/01 Q1008,LFRH,2015-02-21T17:00:00Z,47.77,-3.45,5.0,1.0,320,9,,6.21,29.763779,,,TRUE,,,,,,,,FEW,1700,SCT,5200,BKN,9000,,,VFR,,,,,,,,,,,,METAR,44.0
LFPT 211700Z AUTO 29006KT 9999 FEW026 SCT045 05/02 Q1003,LFPT,2015-02-21T17:00:00Z,49.1,2.03,5.0,2.0,290,6,,6.21,29.616142,,,TRUE,,,,,,,,FEW,2600,SCT,4500,,,,,VFR,,,,,,,,,,,,METAR,99.0
LFPM 211700Z AUTO 29004KT 9999 BKN018 BKN024 BKN029 05/03 Q1003,LFPM,2015-02-21T17:00:00Z,48.62,2.67,5.0,3.0,290,4,,6.21,29.616142,,,TRUE,,,,,,,,BKN,1800,BKN,2400,BKN,2900,,,MVFR,,,,,,,,,,,,METAR,92.0
LFLN 211700Z AUTO VRB02KT 9999 BKN028 BKN033 BKN042 03/02 Q1003,LFLN,2015-02-21T17:00:00Z,46.42,4.02,3.0,2.0,0,2,,6.21,29.616142,,,TRUE,,,,,,,,BKN,2800,BKN,3300,BKN,4200,,,MVFR,,,,,,,,,,,,METAR,244.0
LFGA 211700Z AUTO 12003KT 9999 NSC 05/03 Q1002,LFGA,2015-02-21T17:00:00Z,48.1,7.35,5.0,3.0,120,3,,6.21,29.586615,,,TRUE,,,,,,,,,,,,,,,,,,,,,,,,,,,,METAR,191.0
LFBU 211700Z AUTO 31011KT 9999 SCT037 BKN044 BKN052 07/01 Q1006,LFBU,2015-02-21T17:00:00Z,45.72,0.22,7.0,1.0,310,11,,6.21,29.704725,,,TRUE,,,,,,,,SCT,3700,BKN,4400,BKN,5200,,,VFR,,,,,,,,,,,,METAR,133.0
LFAT 211700Z AUTO 28004KT 9999 SCT023/// BKN029/// BKN062/// ///TCU 05/01 Q1002,LFAT,2015-02-21T17:00:00Z,50.52,1.62,5.0,1.0,280,4,,6.21,29.586615,,,TRUE,,,,,,,,,,,,,,,,,,,,,,,,,,,,METAR,14.0
LFAQ 211700Z AUTO 31009KT 9999 FEW032 BKN040 BKN060 04/02 Q1002,LFAQ,2015-02-21T17:00:00Z,49.97,2.7,4.0,2.0,310,9,,6.21,29.586615,,,TRUE,,,,,,,,FEW,3200,BKN,4000,BKN,6000,,,VFR,,,,,,,,,,,,METAR,111.0
OPSK 211700Z 05006KT 3000 HZ NSC 21/18 Q1014 RH82 PC,OPSK,2015-02-21T17:00:00Z,27.72,68.8,21.0,18.0,50,6,,1.86,29.940945,,,,,,,,,,HZ,,,,,,,,,,,,,,,,,,,,,METAR,58.0
OIAW 211700Z 00000KT 6000 SKC 11/04 Q1013,OIAW,2015-02-21T17:00:00Z,31.32,48.77,11.0,4.0,0,0,,3.73,29.911417,,,,,,,,,,,SKC,,,,,,,,MVFR,,,,,,,,,,,,METAR,22.0
LJPZ 211700Z 14004KT 110V170 9999 SCT050 BKN070 10/04 Q1008,LJPZ,2015-02-21T17:00:00Z,45.47,13.62,10.0,4.0,140,4,,6.21,29.763779,,,,,,,,,,,SCT,5000,BKN,7000,,,,,VFR,,,,,,,,,,,,METAR,2.0
LJMB 211700Z 21009KT 150V250 9999 FEW033 BKN043 08/01 Q1006,LJMB,2015-02-21T17:00:00Z,46.47,15.67,8.0,1.0,210,9,,6.21,29.704725,,,,,,,,,,,FEW,3300,BKN,4300,,,,,VFR,,,,,,,,,,,,METAR,265.0
LJLJ 211700Z 27003KT 210V330 9999 FEW038 BKN050 BKN085 05/01 Q1007 NOSIG,LJLJ,2015-02-21T17:00:00Z,46.22,14.47,5.0,1.0,270,3,,6.21,29.734253,,,,,,TRUE,,,,,FEW,3800,BKN,5000,BKN,8500,,,VFR,,,,,,,,,,,,METAR,385.0
LJCE 211700Z AUTO 00000KT 9999 NSC 08/01 Q1008,LJCE,2015-02-21T17:00:00Z,45.9,15.52,8.0,1.0,0,0,,6.21,29.763779,,,TRUE,,,,,,,,,,,,,,,,,,,,,,,,,,,,METAR,155.0
LFMY 211700Z AUTO 34004KT 9999 NSC 07/05 Q1001,LFMY,2015-02-21T17:00:00Z,43.6,5.08,7.0,5.0,340,4,,6.21,29.557087,,,TRUE,,,,,,,,,,,,,,,,,,,,,,,,,,,,METAR,60.0
LFMO 211700Z AUTO 01010KT 9999 NSC 06/03 Q1002,LFMO,2015-02-21T17:00:00Z,44.12,4.87,6.0,3.0,10,10,,6.21,29.586615,,,TRUE,,,,,,,,,,,,,,,,,,,,,,,,,,,,METAR,55.0
LFMC 211700Z AUTO VRB02KT 9999 BKN039/// ///TCU 06/06 Q1000,LFMC,2015-02-21T17:00:00Z,43.37,6.37,6.0,6.0,0,2,,6.21,29.52756,,,TRUE,,,,,,,,,,,,,,,,,,,,,,,,,,,,METAR,78.0
LFKS 211700Z AUTO VRB03KT 8000 RA SCT010/// SCT016/// OVC023/// ///CB 09/08 Q1001,LFKS,2015-02-21T17:00:00Z,41.92,9.4,9.0,8.0,0,3,,4.97,29.557087,,,TRUE,,,,,,,RA,,,,,,,,,,,,,,,,,,,,,METAR,22.0
LFBY 211700Z AUTO 31005KT 270V340 9999 // ////// 08/04 Q1009,LFBY,2015-02-21T17:00:00Z,43.67,-1.07,8.0,4.0,310,5,,6.21,29.793306,,,TRUE,,,,,,,,,,,,,,,,,,,,,,,,,,,,METAR,32.0
LFBM 211700Z AUTO 32005KT 290V350 9999 SCT043/// SCT060/// BKN100/// ///TCU 07/03 Q1009,LFBM,2015-02-21T17:00:00Z,43.92,-0.5,7.0,3.0,320,5,,6.21,29.793306,,,TRUE,,,,,,,,,,,,,,,,,,,,,,,,,,,,METAR,63.0
LFBG 211700Z AUTO 30012KT 9999 NSC 08/00 Q1007,LFBG,2015-02-21T17:00:00Z,45.67,-0.32,8.0,0.0,300,12,,6.21,29.734253,,,TRUE,,,,,,,,,,,,,,,,,,,,,,,,,,,,METAR,31.0
LFBC 211700Z AUTO 31006KT 270V340 9999 FEW041 06/03 Q1009,LFBC,2015-02-21T17:00:00Z,44.52,-1.12,6.0,3.0,310,6,,6.21,29.793306,,,TRUE,,,,,,,,FEW,4100,,,,,,,VFR,,,,,,,,,,,,METAR,33.0
LFRL 211700Z AUTO 32017KT 9999 FEW038 SCT230 07/01 Q1009,LFRL,2015-02-21T17:00:00Z,48.27,-4.42,7.0,1.0,320,17,,6.21,29.793306,,,TRUE,,,,,,,,FEW,3800,SCT,23000,,,,,VFR,,,,,,,,,,,,METAR,82.0
LFRJ 211700Z AUTO 33013KT 9999 FEW033/// SCT084/// BKN230/// ///TCU 06/01 Q1008,LFRJ,2015-02-21T17:00:00Z,48.52,-4.15,6.0,1.0,330,13,,6.21,29.763779,,,TRUE,,,,,,,,,,,,,,,,,,,,,,,,,,,,METAR,115.0
LFOJ 211700Z AUTO 31010KT 9999 FEW023 04/01 Q1004,LFOJ,2015-02-21T17:00:00Z,47.97,1.75,4.0,1.0,310,10,,6.21,29.64567,,,TRUE,,,,,,,,FEW,2300,,,,,,,VFR,,,,,,,,,,,,METAR,125.0
LFOE 211700Z AUTO 30011KT 9999 ///TCU 04/01 Q1003,LFOE,2015-02-21T17:00:00Z,49.02,1.22,4.0,1.0,300,11,,6.21,29.616142,,,TRUE,,,,,,,,,,,,,,,,,,,,,,,,,,,,METAR,146.0
LFOC 211700Z AUTO 30009KT 9999 NSC 04/01 Q1004,LFOC,2015-02-21T17:00:00Z,48.03,1.37,4.0,1.0,300,9,,6.21,29.64567,,,TRUE,,,,,,,,,,,,,,,,,,,,,,,,,,,,METAR,127.0
LFPV 211700Z AUTO 30010KT 9999 NSC 04/01 Q1002,LFPV,2015-02-21T17:00:00Z,48.77,2.2,4.0,1.0,300,10,,6.21,29.586615,,,TRUE,,,,,,,,,,,,,,,,,,,,,,,,,,,,METAR,179.0
LFPC 211700Z AUTO 31006KT 9999 ////// 04/01 Q1002,LFPC,2015-02-21T17:00:00Z,49.25,2.52,4.0,1.0,310,6,,6.21,29.586615,,,TRUE,,,,,,,,,,,,,,,,,,,,,,,,,,,,METAR,88.0
LFOA 211700Z AUTO 33004KT 9999 BKN018/// BKN023/// BKN032/// ///TCU 03/02 Q1004,LFOA,2015-02-21T17:00:00Z,47.03,2.63,3.0,2.0,330,4,,6.21,29.64567,,,TRUE,,,,,,,,,,,,,,,,,,,,,,,,,,,,METAR,179.0
LFYR 211700Z AUTO 33009KT 280V010 7000 -RA FEW028 BKN035 BKN042 05/01 Q1004,LFYR,2015-02-21T17:00:00Z,47.32,1.67,5.0,1.0,330,9,,4.35,29.64567,,,TRUE,,,,,,,-RA,FEW,2800,BKN,3500,BKN,4200,,,MVFR,,,,,,,,,,,,METAR,86.0
LFSX 211700Z AUTO 15002KT 6000 FEW015 BKN023 OVC130 03/02 Q1002,LFSX,2015-02-21T17:00:00Z,47.77,6.33,3.0,2.0,150,2,,3.73,29.586615,,,TRUE,,,,,,,,FEW,1500,BKN,2300,OVC,13000,,,MVFR,,,,,,,,,,,,METAR,273.0
LFSO 211700Z AUTO 18004KT 9999 NSC 04/M01 Q1001,LFSO,2015-02-21T17:00:00Z,48.57,5.97,4.0,-1.0,180,4,,6.21,29.557087,,,TRUE,,,,,,,,,,,,,,,,,,,,,,,,,,,,METAR,350.0
LFMK 211700Z AUTO 28014KT 220V030 9999 BKN018 OVC026 06/04 Q1005,LFMK,2015-02-21T17:00:00Z,43.22,2.32,6.0,4.0,280,14,,6.21,29.675198,,,TRUE,,,,,,,,BKN,1800,OVC,2600,,,,,MVFR,,,,,,,,,,,,METAR,130.0
LFMI 211700Z AUTO 02005KT 9999 NSC 07/05 Q1001,LFMI,2015-02-21T17:00:00Z,43.52,4.92,7.0,5.0,20,5,,6.21,29.557087,,,TRUE,,,,,,,,,,,,,,,,,,,,,,,,,,,,METAR,24.0
LFSN 211700Z AUTO 21004KT 170V240 9999 NSC 05/M02 Q1001,LFSN,2015-02-21T17:00:00Z,48.67,6.22,5.0,-2.0,210,4,,6.21,29.557087,,,TRUE,,,,,,,,,,,,,,,,,,,,,,,,,,,,METAR,217.0
LFQB 211700Z AUTO 25006KT 9999 FEW019 OVC027 04/02 Q1002,LFQB,2015-02-21T17:00:00Z,48.32,4.02,4.0,2.0,250,6,,6.21,29.586615,,,TRUE,,,,,,,,FEW,1900,OVC,2700,,,,,MVFR,,,,,,,,,,,,METAR,118.0
LFQA 211700Z AUTO 26004KT 9999 BKN017 OVC022 04/02 Q1002,LFQA,2015-02-21T17:00:00Z,49.2,4.15,4.0,2.0,260,4,,6.21,29.586615,,,TRUE,,,,,,,,BKN,1700,OVC,2200,,,,,MVFR,,,,,,,,,,,,METAR,95.0
LFPB 211700Z AUTO 30007KT 9999 FEW024 OVC110 05/01 Q1003,LFPB,2015-02-21T17:00:00Z,48.97,2.45,5.0,1.0,300,7,,6.21,29.616142,,,TRUE,,,,,,,,FEW,2400,OVC,11000,,,,,VFR,,,,,,,,,,,,METAR,65.0
LFOP 211700Z AUTO 31012G24KT 270V350 4900 -RA BR SCT023 BKN029 BKN037 03/01 Q1003,LFOP,2015-02-21T17:00:00Z,49.37,1.17,3.0,1.0,310,12,24,3.04,29.616142,,,TRUE,,,,,,,-RA BR,SCT,2300,BKN,2900,BKN,3700,,,MVFR,,,,,,,,,,,,METAR,157.0
LFOK 211700Z AUTO 28008KT 9999 SCT011 BKN025 OVC034 04/02 Q1002,LFOK,2015-02-21T17:00:00Z,48.78,4.18,4.0,2.0,280,8,,6.21,29.586615,,,TRUE,,,,,,,,SCT,1100,BKN,2500,OVC,3400,,,MVFR,,,,,,,,,,,,METAR,162.0
LFOH 211700Z AUTO 32012KT 9999 NSC 05/00 Q1004,LFOH,2015-02-21T17:00:00Z,49.52,0.07,5.0,0.0,320,12,,6.21,29.64567,,,TRUE,,,,,,,,,,,,,,,,,,,,,,,,,,,,METAR,103.0
LFOB 211700Z AUTO 30007KT 9999 NSC 04/01 Q1003,LFOB,2015-02-21T17:00:00Z,49.47,2.12,4.0,1.0,300,7,,6.21,29.616142,,,TRUE,,,,,,,,,,,,,,,,,,,,,,,,,,,,METAR,111.0
LFMU 211700Z AUTO 31010KT 9999 NSC 11/01 Q1002,LFMU,2015-02-21T17:00:00Z,43.32,3.35,11.0,1.0,310,10,,6.21,29.586615,,,TRUE,,,,,,,,,,,,,,,,,,,,,,,,,,,,METAR,17.0
LFMT 211700Z 32009KT 9999 SCT046 BKN200 10/M00 Q1002 NOSIG,LFMT,2015-02-21T17:00:00Z,43.57,3.97,10.0,0.0,320,9,,6.21,29.586615,,,,,,TRUE,,,,,SCT,4600,BKN,20000,,,,,VFR,,,,,,,,,,,,METAR,6.0
LFLY 211700Z AUTO 00000KT 9999 FEW009 BKN150 03/01 Q1003,LFLY,2015-02-21T17:00:00Z,45.72,4.95,3.0,1.0,0,0,,6.21,29.616142,,,TRUE,,,,,,,,FEW,900,BKN,15000,,,,,VFR,,,,,,,,,,,,METAR,201.0
LFLU 211700Z AUTO 02010KT 9999 NSC 03/02 Q1002,LFLU,2015-02-21T17:00:00Z,44.92,4.98,3.0,2.0,20,10,,6.21,29.586615,,,TRUE,,,,,,,,,,,,,,,,,,,,,,,,,,,,METAR,160.0
LFLS 211700Z AUTO 07003KT 9999 NSC 01/M00 Q1003,LFLS,2015-02-21T17:00:00Z,45.37,5.32,1.0,0.0,70,3,,6.21,29.616142,,,TRUE,,,,,,,,,,,,,,,,,,,,,,,,,,,,METAR,386.0
LFLP 211700Z AUTO 08004KT 020V140 9999 BKN054 OVC064 01/M00 Q1003,LFLP,2015-02-21T17:00:00Z,45.92,6.08,1.0,0.0,80,4,,6.21,29.616142,,,TRUE,,,,,,,,BKN,5400,OVC,6400,,,,,VFR,,,,,,,,,,,,METAR,463.0
LFJL 211700Z AUTO 19004KT 9999 NSC 03/M01 Q1001,LFJL,2015-02-21T17:00:00Z,48.97,6.25,3.0,-1.0,190,4,,6.21,29.557087,,,TRUE,,,,,,,,,,,,,,,,,,,,,,,,,,,,METAR,264.0
LRTC 211700Z 14008KT CAVOK 01/01 Q1019,LRTC,2015-02-21T17:00:00Z,45.07,28.72,1.0,1.0,140,8,,6.21,30.088583,,,,,,,,,,,CAVOK,,,,,,,,VFR,,,,,,,,,,,,METAR,6.0
LRSV 211700Z 18011KT CAVOK 04/02 Q1010,LRSV,2015-02-21T17:00:00Z,47.68,26.35,4.0,2.0,180,11,,6.21,29.822834,,,,,,,,,,,CAVOK,,,,,,,,VFR,,,,,,,,,,,,METAR,351.0
LRIA 211700Z 16015KT CAVOK 06/01 Q1013 WS RWY14 R14/19//95,LRIA,2015-02-21T17:00:00Z,47.17,27.62,6.0,1.0,160,15,,6.21,29.911417,,,,,,,,,,,CAVOK,,,,,,,,VFR,,,,,,,,,,,,METAR,104.0
LRCV 211700Z 06006KT CAVOK 04/01 Q1014,LRCV,2015-02-21T17:00:00Z,44.32,23.88,4.0,1.0,60,6,,6.21,29.940945,,,,,,,,,,,CAVOK,,,,,,,,VFR,,,,,,,,,,,,METAR,191.0
LRBC 211700Z 15015KT CAVOK 05/02 Q1013 R16/09//95,LRBC,2015-02-21T17:00:00Z,46.52,26.92,5.0,2.0,150,15,,6.21,29.911417,,,,,,,,,,,CAVOK,,,,,,,,VFR,,,,,,,,,,,,METAR,185.0
OIII 211700Z 28008KT 9999 FEW040 02/M03 Q1009 A2980,OIII,2015-02-21T17:00:00Z,35.68,51.3,2.0,-3.0,280,8,,6.21,29.793306,,,,,,,,,,,FEW,4000,,,,,,,VFR,,,,,,,,,,,,METAR,1191.0
LFTH 211700Z AUTO 31004KT 9999 -RA OVC029 09/07 Q1000,LFTH,2015-02-21T17:00:00Z,43.1,6.15,9.0,7.0,310,4,,6.21,29.52756,,,TRUE,,,,,,,-RA,OVC,2900,,,,,,,MVFR,,,,,,,,,,,,METAR,4.0
LFST 211700Z AUTO VRB02KT 9999 NSC 05/00 Q1002,LFST,2015-02-21T17:00:00Z,48.53,7.62,5.0,0.0,0,2,,6.21,29.586615,,,TRUE,,,,,,,,,,,,,,,,,,,,,,,,,,,,METAR,154.0
LFSG 211700Z AUTO 20004KT 9999 NSC 03/M01 Q1001,LFSG,2015-02-21T17:00:00Z,48.33,6.07,3.0,-1.0,200,4,,6.21,29.557087,,,TRUE,,,,,,,,,,,,,,,,,,,,,,,,,,,,METAR,330.0
LFSB 211700Z 22004KT 9999 FEW015 BKN070 BKN100 04/01 Q1002 NOSIG,LFSB,2015-02-21T17:00:00Z,47.6,7.52,4.0,1.0,220,4,,6.21,29.586615,,,,,,TRUE,,,,,FEW,1500,BKN,7000,BKN,10000,,,VFR,,,,,,,,,,,,METAR,271.0
LFRZ 211700Z AUTO 30004KT 270V330 9999 FEW020/// SCT029/// BKN058/// ///TCU 05/03 Q1008,LFRZ,2015-02-21T17:00:00Z,47.32,-2.17,5.0,3.0,300,4,,6.21,29.763779,,,TRUE,,,,,,,,,,,,,,,,,,,,,,,,,,,,METAR,4.0
LFRV 211700Z AUTO 32007KT 290V350 9999 FEW010 SCT047 BKN070 04/02 Q1007,LFRV,2015-02-21T17:00:00Z,47.72,-2.72,4.0,2.0,320,7,,6.21,29.734253,,,TRUE,,,,,,,,FEW,1000,SCT,4700,BKN,7000,,,VFR,,,,,,,,,,,,METAR,133.0
LFRO 211700Z AUTO 31014KT 9999 BKN033 BKN039 BKN045 07/01 Q1007,LFRO,2015-02-21T17:00:00Z,48.75,-3.47,7.0,1.0,310,14,,6.21,29.734253,,,TRUE,,,,,,,,BKN,3300,BKN,3900,BKN,4500,,,VFR,,,,,,,,,,,,METAR,89.0
LFRN 211700Z AUTO 26004KT 9999 FEW008 03/01 Q1007,LFRN,2015-02-21T17:00:00Z,48.07,-1.72,3.0,1.0,260,4,,6.21,29.734253,,,TRUE,,,,,,,,FEW,800,,,,,,,VFR,,,,,,,,,,,,METAR,37.0
LFRM 211700Z AUTO 30005KT 250V360 9999 FEW034 SCT048 BKN068 07/00 Q1005,LFRM,2015-02-21T17:00:00Z,47.95,0.2,7.0,0.0,300,5,,6.21,29.675198,,,TRUE,,,,,,,,FEW,3400,SCT,4800,BKN,6800,,,VFR,,,,,,,,,,,,METAR,52.0
LFRI 211700Z AUTO 31015KT 9999 BKN027 BKN048 BKN078 05/01 Q1007,LFRI,2015-02-21T17:00:00Z,46.7,-1.37,5.0,1.0,310,15,,6.21,29.734253,,,TRUE,,,,,,,,BKN,2700,BKN,4800,BKN,7800,,,MVFR,,,,,,,,,,,,METAR,91.0
LFRD 211700Z AUTO 30011KT 9999 FEW024/// SCT032/// BKN040/// ///TCU 06/02 Q1006,LFRD,2015-02-21T17:00:00Z,48.58,-2.07,6.0,2.0,300,11,,6.21,29.704725,,,TRUE,,,,,,,,,,,,,,,,,,,,,,,,,,,,METAR,59.0
LFOV 211700Z AUTO 32012KT 280V350 9999 BKN036 BKN044 07/M02 Q1005,LFOV,2015-02-21T17:00:00Z,48.03,-0.75,7.0,-2.0,320,12,,6.21,29.675198,,,TRUE,,,,,,,,BKN,3600,BKN,4400,,,,,VFR,,,,,,,,,,,,METAR,101.0
SBUG 211700Z 09005KT 9999 BKN030 29/18 Q1016,SBUG,2015-02-21T17:00:00Z,-29.77,-57.02,29.0,18.0,90,5,,6.21,30.0,,,,,,,,,,,BKN,3000,,,,,,,MVFR,,,,,,,,,,,,METAR,74.0
SBSV 211700Z 17010KT 9999 SCT017 29/22 Q1013,SBSV,2015-02-21T17:00:00Z,-12.9,-38.32,29.0,22.0,170,10,,6.21,29.911417,,,,,,,,,,,SCT,1700,,,,,,,VFR,,,,,,,,,,,,METAR,6.0
SBMO 211700Z 15007KT 9999 SCT020 SCT090 26/19 Q1013,SBMO,2015-02-21T17:00:00Z,-9.52,-35.77,26.0,19.0,150,7,,6.21,29.911417,,,,,,,,,,,SCT,2000,SCT,9000,,,,,VFR,,,,,,,,,,,,METAR,115.0
MMCP 211700Z 211642Z10012G22KT 7SM SKC 26/17 A3001,MMCP,2015-02-21T17:00:00Z,19.82,-90.5,26.0,17.0,100,12,22,7.0,30.008858,,,,,,,,,,,SKC,,,,,,,,VFR,,,-16.4,,,,,,,,,METAR,5.0
GVAC 211700Z 05020KT 9999 BKN015 21/13 Q1017 NOSIG,GVAC,2015-02-21T17:00:00Z,16.72,-22.93,21.0,13.0,50,20,,6.21,30.029528,,,,,,TRUE,,,,,BKN,1500,,,,,,,MVFR,,,,,,,,,,,,METAR,55.0
ORER 211700Z VRB03KT CAVOK 05/00 Q1015 NOSIG,ORER,2015-02-21T17:00:00Z,36.23,43.97,5.0,0.0,0,3,,6.21,29.970472,,,,,,TRUE,,,,,CAVOK,,,,,,,,VFR,,,,,,,,,,,,METAR,409.0
SBPA 211700Z 11015KT 9999 BKN030 28/22 Q1018,SBPA,2015-02-21T17:00:00Z,-30.0,-51.17,28.0,22.0,110,15,,6.21,30.059055,,,,,,,,,,,BKN,3000,,,,,,,MVFR,,,,,,,,,,,,METAR,3.0
SBRF 211700Z 16011KT 9999 SCT023 29/24 Q1011,SBRF,2015-02-21T17:00:00Z,-8.13,-34.92,29.0,24.0,160,11,,6.21,29.852362,,,,,,,,,,,SCT,2300,,,,,,,VFR,,,,,,,,,,,,METAR,19.0
GBYD 211700Z 09012KT 9000 NSC 30/MS02 Q1010,GBYD,2015-02-21T17:00:00Z,13.33,-16.65,,,90,12,,5.59,29.822834,,,,,,,,,,,,,,,,,,,,,,,,,,,,,,,METAR,36.0
LFBT 211700Z AUTO 33016KT 290V360 3700 RA BR BKN018/// OVC026/// ///TCU 04/02 Q1008,LFBT,2015-02-21T17:00:00Z,43.17,0.0,4.0,2.0,330,16,,2.3,29.763779,,,TRUE,,,,,,,RA BR,,,,,,,,,,,,,,,,,,,,,METAR,363.0
LFBZ 211700Z AUTO 35008KT 320V020 9999 FEW027/// SCT041/// BKN110/// ///TCU 08/03 Q1010,LFBZ,2015-02-21T17:00:00Z,43.47,-1.52,8.0,3.0,350,8,,6.21,29.822834,,,TRUE,,,,,,,,,,,,,,,,,,,,,,,,,,,,METAR,71.0
LFCK 211700Z AUTO 27014KT 9999 BKN016/// OVC022/// ///TCU 06/03 Q1005,LFCK,2015-02-21T17:00:00Z,43.55,2.28,6.0,3.0,270,14,,6.21,29.675198,,,TRUE,,,,,,,,,,,,,,,,,,,,,,,,,,,,METAR,240.0
LFLB 211700Z 00000KT 9000 -RA FEW003 SCT010 OVC043 01/00 Q1004 NOSIG,LFLB,2015-02-21T17:00:00Z,45.63,5.87,1.0,0.0,0,0,,5.59,29.64567,,,,,,TRUE,,,,-RA,FEW,300,SCT,1000,OVC,4300,,,VFR,,,,,,,,,,,,METAR,239.0
LFLX 211700Z AUTO 34012KT 9999 FEW026 BKN034 BKN045 05/01 Q1004,LFLX,2015-02-21T17:00:00Z,46.85,1.72,5.0,1.0,340,12,,6.21,29.64567,,,TRUE,,,,,,,,FEW,2600,BKN,3400,BKN,4500,,,VFR,,,,,,,,,,,,METAR,157.0
LFML 211700Z 35009KT 9999 FEW006 BKN043 BKN120 09/05 Q1000 NOSIG,LFML,2015-02-21T17:00:00Z,43.45,5.22,9.0,5.0,350,9,,6.21,29.52756,,,,,,TRUE,,,,,FEW,600,BKN,4300,BKN,12000,,,VFR,,,,,,,,,,,,METAR,36.0
LFKB 211700Z 13017KT 9999 -RA SCT014 BKN020 BKN053 10/09 Q1002 NOSIG,LFKB,2015-02-21T17:00:00Z,42.53,9.47,10.0,9.0,130,17,,6.21,29.586615,,,,,,TRUE,,,,-RA,SCT,1400,BKN,2000,BKN,5300,,,MVFR,,,,,,,,,,,,METAR,12.0
LFKF 211700Z AUTO 00000KT 9999 SCT022/// BKN031/// OVC072/// ///TCU 11/09 Q1001,LFKF,2015-02-21T17:00:00Z,41.5,9.08,11.0,9.0,0,0,,6.21,29.557087,,,TRUE,,,,,,,,,,,,,,,,,,,,,,,,,,,,METAR,23.0
LFLC 211700Z 32007KT 280V340 9999 FEW025 SCT030 04/00 Q1003 NOSIG,LFLC,2015-02-21T17:00:00Z,45.77,3.17,4.0,0.0,320,7,,6.21,29.616142,,,,,,TRUE,,,,,FEW,2500,SCT,3000,,,,,VFR,,,,,,,,,,,,METAR,330.0
LFMP 211700Z AUTO 33016KT 300V360 9999 OVC035 09/02 Q1003,LFMP,2015-02-21T17:00:00Z,42.72,2.87,9.0,2.0,330,16,,6.21,29.616142,,,TRUE,,,,,,,,OVC,3500,,,,,,,VFR,,,,,,,,,,,,METAR,48.0
LFMV 211700Z AUTO 35009KT 9999 FEW012 OVC140 06/04 Q1001,LFMV,2015-02-21T17:00:00Z,43.9,4.9,6.0,4.0,350,9,,6.21,29.557087,,,TRUE,,,,,,,,FEW,1200,OVC,14000,,,,,VFR,,,,,,,,,,,,METAR,38.0
LFSL 211700Z AUTO 34005KT 9999 FEW018/// SCT072/// OVC092/// ///TCU 03/01 Q1005,LFSL,2015-02-21T17:00:00Z,45.03,1.48,3.0,1.0,340,5,,6.21,29.675198,,,TRUE,,,,,,,,,,,,,,,,,,,,,,,,,,,,METAR,310.0
LFBA 211700Z AUTO 29012KT 9999 FEW035/// ///TCU 08/02 Q1007,LFBA,2015-02-21T17:00:00Z,44.17,0.6,8.0,2.0,290,12,,6.21,29.734253,,,TRUE,,,,,,,,,,,,,,,,,,,,,,,,,,,,METAR,60.0
LFBE 211700Z AUTO 28008KT 9999 SCT039 BKN047 BKN054 07/03 Q////,LFBE,2015-02-21T17:00:00Z,44.82,0.52,7.0,3.0,280,8,,6.21,,,,TRUE,,,,,,,,SCT,3900,BKN,4700,BKN,5400,,,VFR,,,,,,,,,,,,METAR,52.0
LFGJ 211700Z AUTO 16007KT 9999 NSC 04/03 Q1003,LFGJ,2015-02-21T17:00:00Z,47.05,5.43,4.0,3.0,160,7,,6.21,29.616142,,,TRUE,,,,,,,,,,,,,,,,,,,,,,,,,,,,METAR,196.0
LFJR 211700Z AUTO 30005KT 270V340 9999 FEW043/// ///TCU 07/M00 Q1005,LFJR,2015-02-21T17:00:00Z,47.57,-0.3,7.0,0.0,300,5,,6.21,29.675198,,,TRUE,,,,,,,,,,,,,,,,,,,,,,,,,,,,METAR,60.0
LFMD 211700Z AUTO VRB01KT 9999 -RA SCT046/// BKN062/// BKN078/// ///TCU 07/05 Q1000,LFMD,2015-02-21T17:00:00Z,43.53,6.95,7.0,5.0,0,1,,6.21,29.52756,,,TRUE,,,,,,,-RA,,,,,,,,,,,,,,,,,,,,,METAR,9.0
LFMH 211700Z 09003KT 9999 SCT029 BKN043 06/00 Q1002 NOSIG,LFMH,2015-02-21T17:00:00Z,45.52,4.28,6.0,0.0,90,3,,6.21,29.586615,,,,,,TRUE,,,,,SCT,2900,BKN,4300,,,,,VFR,,,,,,,,,,,,METAR,402.0
LFOT 211700Z AUTO 31005KT 9999 NSC 05/00 Q1005,LFOT,2015-02-21T17:00:00Z,47.43,0.72,5.0,0.0,310,5,,6.21,29.675198,,,TRUE,,,,,,,,,,,,,,,,,,,,,,,,,,,,METAR,108.0
LFPN 211700Z AUTO 30010KT 9999 NSC 04/01 Q1003,LFPN,2015-02-21T17:00:00Z,48.75,2.12,4.0,1.0,300,10,,6.21,29.616142,,,TRUE,,,,,,,,,,,,,,,,,,,,,,,,,,,,METAR,164.0
LFRC 211700Z AUTO 31010G21KT 280V350 9999 SCT035 BKN044 06/M01 Q1005,LFRC,2015-02-21T17:00:00Z,49.63,-1.47,6.0,-1.0,310,10,21,6.21,29.675198,,,TRUE,,,,,,,,SCT,3500,BKN,4400,,,,,VFR,,,,,,,,,,,,METAR,138.0
LFRG 211700Z AUTO 34004KT 310V010 9999 NSC 04/M00 Q1004,LFRG,2015-02-21T17:00:00Z,49.37,0.15,4.0,0.0,340,4,,6.21,29.64567,,,TRUE,,,,,,,,,,,,,,,,,,,,,,,,,,,,METAR,146.0
LFRK 211700Z AUTO 33010KT 9999 SCT030/// SCT036/// BKN064/// ///CB 05/01 Q1005,LFRK,2015-02-21T17:00:00Z,49.17,-0.45,5.0,1.0,330,10,,6.21,29.675198,,,TRUE,,,,,,,,,,,,,,,,,,,,,,,,,,,,METAR,67.0
LFBP 211700Z AUTO 29009KT 9999 FEW029 SCT035 BKN100 06/03 Q1009,LFBP,2015-02-21T17:00:00Z,43.37,-0.42,6.0,3.0,290,9,,6.21,29.793306,,,TRUE,,,,,,,,FEW,2900,SCT,3500,BKN,10000,,,VFR,,,,,,,,,,,,METAR,185.0
LFBO 211700Z AUTO 28009KT 9999 FEW018/// BKN033/// BKN052/// ///CB 05/04 Q1006,LFBO,2015-02-21T17:00:00Z,43.62,1.37,5.0,4.0,280,9,,6.21,29.704725,,,TRUE,,,,,,,,,,,,,,,,,,,,,,,,,,,,METAR,153.0
LFBL 211700Z AUTO 31004KT 280V350 9999 FEW029 SCT039 BKN046 03/00 Q1004,LFBL,2015-02-21T17:00:00Z,45.87,1.17,3.0,0.0,310,4,,6.21,29.64567,,,TRUE,,,,,,,,FEW,2900,SCT,3900,BKN,4600,,,VFR,,,,,,,,,,,,METAR,402.0
LFBI 211700Z AUTO 02008KT 9999 FEW022/// BKN042/// BKN054/// ///CB 05/01 Q1006,LFBI,2015-02-21T17:00:00Z,46.57,0.32,5.0,1.0,20,8,,6.21,29.704725,,,TRUE,,,,,,,,,,,,,,,,,,,,,,,,,,,,METAR,120.0
LFBH 211700Z AUTO 30013KT 9999 FEW035 06/02 Q1007,LFBH,2015-02-21T17:00:00Z,46.18,-1.2,6.0,2.0,300,13,,6.21,29.734253,,,TRUE,,,,,,,,FEW,3500,,,,,,,VFR,,,,,,,,,,,,METAR,10.0
LFBD 211700Z AUTO 30016KT 9999 -RA FEW032 SCT045 BKN064 06/02 Q1009,LFBD,2015-02-21T17:00:00Z,44.82,-0.7,6.0,2.0,300,16,,6.21,29.793306,,,TRUE,,,,,,,-RA,FEW,3200,SCT,4500,BKN,6400,,,VFR,,,,,,,,,,,,METAR,61.0
LRTM 211700Z 07002KT 6000 NSC 04/01 Q1011,LRTM,2015-02-21T17:00:00Z,46.47,24.42,4.0,1.0,70,2,,3.73,29.852362,,,,,,,,,,,,,,,,,,,,,,,,,,,,,,,METAR,309.0
LRSM 211700Z 11001KT CAVOK 05/02 Q1010,LRSM,2015-02-21T17:00:00Z,47.7,22.88,5.0,2.0,110,1,,6.21,29.822834,,,,,,,,,,,CAVOK,,,,,,,,VFR,,,,,,,,,,,,METAR,124.0
LROD 211700Z 18007KT CAVOK 05/M02 Q1010,LROD,2015-02-21T17:00:00Z,47.03,21.92,5.0,-2.0,180,7,,6.21,29.822834,,,,,,,,,,,CAVOK,,,,,,,,VFR,,,,,,,,,,,,METAR,140.0
LRCL 211700Z VRB02KT CAVOK 04/01 Q1011,LRCL,2015-02-21T17:00:00Z,46.78,23.68,4.0,1.0,0,2,,6.21,29.852362,,,,,,,,,,,CAVOK,,,,,,,,VFR,,,,,,,,,,,,METAR,413.0
LRBM 211700Z 05003KT 360V110 CAVOK 05/M00 Q1011,LRBM,2015-02-21T17:00:00Z,47.67,23.47,5.0,0.0,50,3,,6.21,29.852362,,,,,,,,,,,CAVOK,,,,,,,,VFR,,,,,,,,,,,,METAR,185.0
LRAR 211700Z 20005KT CAVOK 07/M04 Q1010,LRAR,2015-02-21T17:00:00Z,46.18,21.27,7.0,-4.0,200,5,,6.21,29.822834,,,,,,,,,,,CAVOK,,,,,,,,VFR,,,,,,,,,,,,METAR,118.0
LFRU 211700Z AUTO 31016KT 280V340 9999 FEW030 SCT037 BKN220 07/02 Q1008,LFRU,2015-02-21T17:00:00Z,48.6,-3.82,7.0,2.0,310,16,,6.21,29.763779,,,TRUE,,,,,,,,FEW,3000,SCT,3700,BKN,22000,,,VFR,,,,,,,,,,,,METAR,86.0
LRBS 211700Z 04003KT CAVOK 06/03 Q1015 NOSIG,LRBS,2015-02-21T17:00:00Z,44.5,26.08,6.0,3.0,40,3,,6.21,29.970472,,,,,,TRUE,,,,,CAVOK,,,,,,,,VFR,,,,,,,,,,,,METAR,91.0
LRCK 211700Z 16008KT CAVOK 01/01 Q1018 NOSIG,LRCK,2015-02-21T17:00:00Z,44.37,28.48,1.0,1.0,160,8,,6.21,30.059055,,,,,,TRUE,,,,,CAVOK,,,,,,,,VFR,,,,,,,,,,,,METAR,108.0
LROP 211700Z 10004KT CAVOK 05/03 Q1015 R08L/19//95 NOSIG,LROP,2015-02-21T17:00:00Z,44.57,26.1,5.0,3.0,100,4,,6.21,29.970472,,,,,,TRUE,,,,,CAVOK,,,,,,,,VFR,,,,,,,,,,,,METAR,95.0
LRTR 211700Z 17007KT CAVOK 08/M02 Q1011 NOSIG,LRTR,2015-02-21T17:00:00Z,45.82,21.33,8.0,-2.0,170,7,,6.21,29.852362,,,,,,TRUE,,,,,CAVOK,,,,,,,,VFR,,,,,,,,,,,,METAR,88.0
LRSB 211700Z VRB02KT CAVOK 04/01 Q1011,LRSB,2015-02-21T17:00:00Z,45.78,24.08,4.0,1.0,0,2,,6.21,29.852362,,,,,,,,,,,CAVOK,,,,,,,,VFR,,,,,,,,,,,,METAR,444.0
LFLL 211700Z 13007KT 100V190 4000 BR FEW001 BKN130 02/00 Q1003 NOSIG,LFLL,2015-02-21T17:00:00Z,45.72,5.07,2.0,0.0,130,7,,2.49,29.616142,,,,,,TRUE,,,,BR,FEW,100,BKN,13000,,,,,IFR,,,,,,,,,,,,METAR,240.0
LFMN 211700Z 34008KT 9999 -RA FEW023TCU OVC046 06/04 Q1001 TEMPO 3000 TSRA,LFMN,2015-02-21T17:00:00Z,43.63,7.2,6.0,4.0,340,8,,6.21,29.557087,,,,,,,,,,-RA,FEW,2300,OVC,4600,,,,,VFR,,,,,,,,,,,,METAR,10.0
LFPG 211700Z 32011KT 9999 FEW020 SCT046 BKN100 05/01 Q1002 NOSIG,LFPG,2015-02-21T17:00:00Z,49.02,2.52,5.0,1.0,320,11,,6.21,29.586615,,,,,,TRUE,,,,,FEW,2000,SCT,4600,BKN,10000,,,VFR,,,,,,,,,,,,METAR,109.0
LFPO 211700Z 31009KT 9999 FEW026 SCT046 BKN100 05/01 Q1003 NOSIG,LFPO,2015-02-21T17:00:00Z,48.72,2.38,5.0,1.0,310,9,,6.21,29.616142,,,,,,TRUE,,,,,FEW,2600,SCT,4600,BKN,10000,,,VFR,,,,,,,,,,,,METAR,96.0
LFQQ 211700Z 27008KT 9999 SCT012 SCT030 BKN060 04/03 Q1002 TEMPO 4000 SHRA BKN007 BKN015CB,LFQQ,2015-02-21T17:00:00Z,50.57,3.1,4.0,3.0,270,8,,6.21,29.586615,,,,,,,,,,,SCT,1200,SCT,3000,BKN,6000,,,VFR,,,,,,,,,,,,METAR,52.0
LFRB 211700Z 31013KT 9999 SCT034TCU SCT070 BKN230 07/01 Q1008 NOSIG,LFRB,2015-02-21T17:00:00Z,48.45,-4.42,7.0,1.0,310,13,,6.21,29.763779,,,,,,TRUE,,,,,SCT,3400,SCT,7000,BKN,23000,,,VFR,,,,,,,,,,,,METAR,103.0
LFRS 211700Z 29009KT 270V330 9999 SCT020 FEW036CB SCT063 06/01 Q1007 NOSIG,LFRS,2015-02-21T17:00:00Z,47.17,-1.6,6.0,1.0,290,9,,6.21,29.734253,,,,,,TRUE,,,,,SCT,2000,FEW,3600,SCT,6300,,,VFR,,,,,,,,,,,,METAR,27.0
LEAG 211700Z AUTO 28009KT 210V330 9999 // SCT035 BKN042 16/09 Q1011,LEAG,2015-02-21T17:00:00Z,,,16.0,9.0,280,9,,6.21,29.852362,,,TRUE,,,,,,,,SCT,3500,BKN,4200,,,,,VFR,,,,,,,,,,,,METAR,
SBBR 211700Z 12014KT 9999 BKN040 27/13 Q1019,SBBR,2015-02-21T17:00:00Z,-15.87,-47.92,27.0,13.0,120,14,,6.21,30.088583,,,,,,,,,,,BKN,4000,,,,,,,VFR,,,,,,,,,,,,METAR,1061.0
BKPR 211700Z 18005KT 9999 FEW090 SCT120 08/M04 Q1012 NOSIG RMK 17010095,BKPR,2015-02-21T17:00:00Z,42.58,21.03,8.0,-4.0,180,5,,6.21,29.88189,,,,,,TRUE,,,,,FEW,9000,SCT,12000,,,,,VFR,,,,,,,,,,,,METAR,576.0
EHLW 211700Z AUTO 27009G19KT 9999 DZ SCT016 SCT021 BKN048 03/01 Q0998 WHT,EHLW,2015-02-21T17:00:00Z,53.22,5.75,3.0,1.0,270,9,19,6.21,29.468504,,,TRUE,,,,,,,DZ,SCT,1600,SCT,2100,BKN,4800,,,VFR,,,,,,,,,,,,SPECI,2.0
LETL 211700Z AUTO 33032G42KT CAVOK 05/M02 Q1005,LETL,2015-02-21T17:00:00Z,40.42,-1.22,5.0,-2.0,330,32,42,6.21,29.675198,,,TRUE,,,,,,,,CAVOK,,,,,,,,VFR,,,,,,,,,,,,METAR,1013.0
ETEB 211700Z AUTO 20004KT 9999 OVC016 03/03 A2955 RMK AO2 RAB1554E1604B1646DZE1636 OVC V BKN $,ETEB,2015-02-21T17:00:00Z,49.32,10.62,3.0,3.0,200,4,,6.21,29.551182,,,TRUE,TRUE,TRUE,,,,,,OVC,1600,,,,,,,MVFR,,,,,,,,,,,,SPECI,467.0
PATL 211700Z AUTO 08007KT 10SM FEW038 BKN055 01/M04 A2969 RMK AO2 SLP064 $,PATL,2015-02-21T17:00:00Z,62.9,-155.97,1.0,-4.0,80,7,,10.0,29.68996,1006.4,,TRUE,TRUE,TRUE,,,,,,FEW,3800,BKN,5500,,,,,VFR,,,,,,,,,,,,METAR,294.0
KQFQ 211700Z AUTO VRB02KT 1SM -DZ BR BKN001 OVC005 06/06 A2992 RMK AO2 SLP133 $,KQFQ,2015-02-21T17:00:00Z,100.65,-1000.65,6.0,6.0,0,2,,1.0,29.920275,1013.3,,TRUE,TRUE,TRUE,,,,,-DZ BR,BKN,100,OVC,500,,,,,LIFR,,,,,,,,,,,,SPECI,999.0
RPLL 211700Z 11007KT 080V160 9999 FEW025 24/20 Q1015 NOSIG RMK A2997,RPLL,2015-02-21T17:00:00Z,14.52,121.0,24.0,20.0,110,7,,6.21,29.970472,,,,,,TRUE,,,,,FEW,2500,,,,,,,VFR,,,,,,,,,,,,METAR,21.0
FQQL 211700Z 06002KT 9999 FEW010 BKN020 BKN090 26/26 Q1007,FQQL,2015-02-21T17:00:00Z,-17.87,36.87,26.0,26.0,60,2,,6.21,29.734253,,,,,,,,,,,FEW,1000,BKN,2000,BKN,9000,,,MVFR,,,,,,,,,,,,METAR,16.0
FQMA 211700Z 06013KT CAVOK 26/21 Q1009 NOSIG,FQMA,2015-02-21T17:00:00Z,-25.92,32.57,26.0,21.0,60,13,,6.21,29.793306,,,,,,TRUE,,,,,CAVOK,,,,,,,,VFR,,,,,,,,,,,,METAR,44.0
UBBL 211700Z 00000KT 1200 SHSN BKN008CB OVC011 00/M00 Q1021 R33/////// RMK MT OBSC,UBBL,2015-02-21T17:00:00Z,38.75,48.82,0.0,0.0,0,0,,0.75,30.147638,,,,,,,,,,SHSN,BKN,800,OVC,1100,,,,,LIFR,,,,,,,,,,,,METAR,10.0
BIVM 211700Z 10016KT 9999 FEW030 SCT060 M01/M06 Q1001,BIVM,2015-02-21T17:00:00Z,63.42,-20.27,-1.0,-6.0,100,16,,6.21,29.557087,,,,,,,,,,,FEW,3000,SCT,6000,,,,,VFR,,,,,,,,,,,,METAR,124.0
MWCR 211700Z 06014KT 9999 BKN018 26/22 Q1018 NOSIG,MWCR,2015-02-21T17:00:00Z,19.3,-81.37,26.0,22.0,60,14,,6.21,30.059055,,,,,,TRUE,,,,,BKN,1800,,,,,,,MVFR,,,,,,,,,,,,METAR,3.0
MWCB 211700Z 09016G27KT 9999 FEW016 BKN030 27/21 Q1019,MWCB,2015-02-21T17:00:00Z,19.68,-79.88,27.0,21.0,90,16,27,6.21,30.088583,,,,,,,,,,,FEW,1600,BKN,3000,,,,,MVFR,,,,,,,,,,,,METAR,2.0
OPPS 211700Z 00000KT 4000 HZ FEW100 SCT210 17/11 Q1018.9,OPPS,2015-02-21T17:00:00Z,34.02,71.52,17.0,11.0,0,0,,2.49,30.08563,,,,,,,,,,HZ,FEW,10000,SCT,21000,,,,,IFR,,,,,,,,,,,,METAR,360.0
SBFI 211700Z 36007KT 9999 BKN030 FEW040TCU 30/23 Q1015,SBFI,2015-02-21T17:00:00Z,-25.6,-54.48,30.0,23.0,360,7,,6.21,29.970472,,,,,,,,,,,BKN,3000,FEW,4000,,,,,MVFR,,,,,,,,,,,,METAR,243.0
KQAZ 211700Z AUTO 36001KT 9999 CLR 31/M01 A2981 RMK CDP03565 CLR,KQAZ,2015-02-21T17:00:00Z,100.65,-1000.65,31.0,-1.0,360,1,,6.21,29.811024,,,TRUE,,,,,,,,CLR,,,,,,,,VFR,,,,,,,,,,,,METAR,999.0
KGRY 211700Z AUTO 21012G19KT 10SM BKN075 22/14 A3010 RMK A01,KGRY,2015-02-21T17:00:00Z,27.63,-90.45,22.0,14.0,210,12,19,10.0,30.100393,,,TRUE,TRUE,,,,,,,BKN,7500,,,,,,,VFR,,,,,,,,,,,,METAR,58.0
KQFT 211700Z AUTO 30004KT 2400 -DZ BR FEW001 SCT003 BKN005 BKN005 05/03 A2994 RMK A02 TSNO,KQFT,2015-02-21T17:00:00Z,100.65,-1000.65,5.0,3.0,300,4,,1.49,29.940945,,,TRUE,TRUE,,,TRUE,,,-DZ BR,FEW,100,SCT,300,BKN,500,BKN,500,IFR,,,,,,,,,,,,METAR,999.0
GCHI 211700Z 35018KT 9999 FEW017 19/14 Q1023,GCHI,2015-02-21T17:00:00Z,27.82,-17.87,19.0,14.0,350,18,,6.21,30.206694,,,,,,,,,,,FEW,1700,,,,,,,VFR,,,,,,,,,,,,METAR,30.0
GCGM 211700Z VRB15G28KT 9999 FEW030 20/11 Q1022 RMK CAB09 VRB08KT,GCGM,2015-02-21T17:00:00Z,28.03,-17.22,20.0,11.0,0,15,28,6.21,30.177166,,,,,,,,,,,FEW,3000,,,,,,,VFR,,,,,,,,,,,,METAR,219.0
LEMD 211700Z 34019G34KT 310V010 9999 SCT065 11/M04 Q1009 NOSIG,LEMD,2015-02-21T17:00:00Z,40.48,-3.57,11.0,-4.0,340,19,34,6.21,29.793306,,,,,,TRUE,,,,,SCT,6500,,,,,,,VFR,,,,,,,,,,,,METAR,582.0
LEBL 211700Z 10006KT 9999 FEW020CB SCT050 11/06 Q1002 NOSIG,LEBL,2015-02-21T17:00:00Z,41.27,2.07,11.0,6.0,100,6,,6.21,29.586615,,,,,,TRUE,,,,,FEW,2000,SCT,5000,,,,,VFR,,,,,,,,,,,,METAR,6.0
LEPA 211700Z 31009KT 9999 FEW026 SCT040 12/07 Q1001 NOSIG,LEPA,2015-02-21T17:00:00Z,39.53,2.72,12.0,7.0,310,9,,6.21,29.557087,,,,,,TRUE,,,,,FEW,2600,SCT,4000,,,,,VFR,,,,,,,,,,,,METAR,8.0
LEZL 211700Z 19004KT 140V240 9999 FEW045 18/10 Q1010 NOSIG,LEZL,2015-02-21T17:00:00Z,37.42,-5.9,18.0,10.0,190,4,,6.21,29.822834,,,,,,TRUE,,,,,FEW,4500,,,,,,,VFR,,,,,,,,,,,,METAR,31.0
LEMG 211700Z 28012KT 240V310 9999 SCT035 SCT060 15/08 Q1009 NOSIG,LEMG,2015-02-21T17:00:00Z,36.67,-4.5,15.0,8.0,280,12,,6.21,29.793306,,,,,,TRUE,,,,,SCT,3500,SCT,6000,,,,,VFR,,,,,,,,,,,,METAR,7.0
LEVC 211700Z 33015KT CAVOK 15/M00 Q1005 NOSIG,LEVC,2015-02-21T17:00:00Z,39.5,-0.47,15.0,0.0,330,15,,6.21,29.675198,,,,,,TRUE,,,,,CAVOK,,,,,,,,VFR,,,,,,,,,,,,METAR,62.0
LEAL 211700Z 30010KT CAVOK 17/03 Q1004 NOSIG,LEAL,2015-02-21T17:00:00Z,38.27,-0.55,17.0,3.0,300,10,,6.21,29.64567,,,,,,TRUE,,,,,CAVOK,,,,,,,,VFR,,,,,,,,,,,,METAR,31.0
GQNN 211700Z 04015KT 4000 BLDU NSC 26/01 Q1014 NOSIG,GQNN,2015-02-21T17:00:00Z,18.1,-15.93,26.0,1.0,40,15,,2.49,29.940945,,,,,,TRUE,,,,BLDU,,,,,,,,,,,,,,,,,,,,,METAR,3.0
LRCT 211700Z 00000KT 1000 BR FEW150 03/02 Q1010 AMB AMB,LRCT,2015-02-21T17:00:00Z,46.5,23.88,3.0,2.0,0,0,,0.62,29.822834,,,,,,,,,,BR,FEW,15000,,,,,,,LIFR,,,,,,,,,,,,METAR,331.0
SBSL 211700Z 01011KT 9999 FEW012 BKN017 FEW020TCU BKN100 28/22 Q1011,SBSL,2015-02-21T17:00:00Z,-2.6,-44.22,28.0,22.0,10,11,,6.21,29.852362,,,,,,,,,,,FEW,1200,BKN,1700,FEW,2000,BKN,10000,MVFR,,,,,,,,,,,,METAR,53.0
SBCR 211700Z 33003KT 9999 SCT006 SCT020 FEW025TCU 28/26 Q1012,SBCR,2015-02-21T17:00:00Z,-19.0,-57.67,28.0,26.0,330,3,,6.21,29.88189,,,,,,,,,,,SCT,600,SCT,2000,FEW,2500,,,VFR,,,,,,,,,,,,METAR,141.0
SBFZ 211700Z 10009KT 9999 BKN017 27/22 Q1011,SBFZ,2015-02-21T17:00:00Z,-3.77,-38.52,27.0,22.0,100,9,,6.21,29.852362,,,,,,,,,,,BKN,1700,,,,,,,MVFR,,,,,,,,,,,,METAR,25.0
ORNI 211700Z 24003KT 8000 FEW025 BKN050 09/07 Q1012 NOSIG,ORNI,2015-02-21T17:00:00Z,31.98,44.4,9.0,7.0,240,3,,4.97,29.88189,,,,,,TRUE,,,,,FEW,2500,BKN,5000,,,,,MVFR,,,,,,,,,,,,METAR,53.0
SBAR 211700Z 15008KT 9999 SCT015 BKN100 28/23 Q1012,SBAR,2015-02-21T17:00:00Z,-10.97,-37.07,28.0,23.0,150,8,,6.21,29.88189,,,,,,,,,,,SCT,1500,BKN,10000,,,,,VFR,,,,,,,,,,,,METAR,9.0
SBCZ 211700Z 11005KT 9999 BKN006 OVC100 24/24 Q1012,SBCZ,2015-02-21T17:00:00Z,-7.62,-72.77,24.0,24.0,110,5,,6.21,29.88189,,,,,,,,,,,BKN,600,OVC,10000,,,,,IFR,,,,,,,,,,,,METAR,170.0
RJAA 211700Z 05004KT 9999 BKN030 05/M00 Q1027 NOSIG RMK 7SC030 A3034,RJAA,2015-02-21T17:00:00Z,35.77,140.37,5.0,0.0,50,4,,6.21,30.324802,,,,,,TRUE,,,,,BKN,3000,,,,,,,MVFR,,,,,,,,,,,,METAR,44.0
CYXJ 211700Z 14003KT 15SM OVC019 M04/M06 A3054 RMK SC8 SLP386,CYXJ,2015-02-21T17:00:00Z,56.25,-120.73,-4.0,-6.0,140,3,,15.0,30.540354,1038.6,,,,,,,,,,OVC,1900,,,,,,,MVFR,,,,,,,,,,,,METAR,695.0
FNLU 211700Z 21008KT 9999 SCT023 28/23 Q1007 NOSIG,FNLU,2015-02-21T17:00:00Z,-8.83,13.22,28.0,23.0,210,8,,6.21,29.734253,,,,,,TRUE,,,,,SCT,2300,,,,,,,VFR,,,,,,,,,,,,METAR,70.0
SBFN 211700Z 18008KT 9999 FEW023 30/22 Q1010,SBFN,2015-02-21T17:00:00Z,-3.85,-32.42,30.0,22.0,180,8,,6.21,29.822834,,,,,,,,,,,FEW,2300,,,,,,,VFR,,,,,,,,,,,,METAR,56.0
SBPS 211700Z VRB05KT 9999 VCSH BKN020 FEW025TCU BKN050 27/23 Q1 015,SBPS,2015-02-21T17:00:00Z,-16.43,-39.07,27.0,23.0,0,5,,6.21,,,,,,,,,,,VCSH,BKN,2000,FEW,2500,BKN,5000,,,MVFR,,,,,,,,,,,,METAR,51.0
SBSP 211700Z 17010KT 140V210 9999 SCT040 30/19 Q1021,SBSP,2015-02-21T17:00:00Z,-23.62,-46.63,30.0,19.0,170,10,,6.21,30.147638,,,,,,,,,,,SCT,4000,,,,,,,VFR,,,,,,,,,,,,METAR,803.0
LELN 211700Z 30012KT 270V340 9999 FEW038 06/M02 Q1011,LELN,2015-02-21T17:00:00Z,42.57,-5.65,6.0,-2.0,300,12,,6.21,29.852362,,,,,,,,,,,FEW,3800,,,,,,,VFR,,,,,,,,,,,,METAR,914.0
LELC 211700Z 30016KT CAVOK 16/05 Q1005 NOSIG,LELC,2015-02-21T17:00:00Z,37.77,-0.8,16.0,5.0,300,16,,6.21,29.675198,,,,,,TRUE,,,,,CAVOK,,,,,,,,VFR,,,,,,,,,,,,METAR,3.0
LEBZ 211700Z 35018G28KT 310V010 CAVOK 18/M02 Q1012,LEBZ,2015-02-21T17:00:00Z,38.87,-6.82,18.0,-2.0,350,18,28,6.21,29.88189,,,,,,,,,,,CAVOK,,,,,,,,VFR,,,,,,,,,,,,METAR,192.0
LEAB 211700Z 34008KT 9999 FEW020 BKN040 10/02 Q1007 NOSIG,LEAB,2015-02-21T17:00:00Z,38.95,-1.85,10.0,2.0,340,8,,6.21,29.734253,,,,,,TRUE,,,,,FEW,2000,BKN,4000,,,,,VFR,,,,,,,,,,,,METAR,704.0
LESA 211700Z 01011KT CAVOK 09/M02 Q1012,LESA,2015-02-21T17:00:00Z,40.95,-5.5,9.0,-2.0,10,11,,6.21,29.88189,,,,,,,,,,,CAVOK,,,,,,,,VFR,,,,,,,,,,,,METAR,795.0
LEVS 211700Z 31016G26KT 270V350 9999 FEW050 11/M02 Q1009 WS ALL RWY,LEVS,2015-02-21T17:00:00Z,40.37,-3.77,11.0,-2.0,310,16,26,6.21,29.793306,,,,,,,,,,,FEW,5000,,,,,,,VFR,,,,,,,,,,,,METAR,687.0
LEVD 211700Z 34019KT CAVOK 07/M03 Q1011,LEVD,2015-02-21T17:00:00Z,41.72,-4.83,7.0,-3.0,340,19,,6.21,29.852362,,,,,,,,,,,CAVOK,,,,,,,,VFR,,,,,,,,,,,,METAR,854.0
LEVX 211700Z 36010KT 320V040 9999 SCT045 11/05 Q1018 NOSIG,LEVX,2015-02-21T17:00:00Z,42.22,-8.62,11.0,5.0,360,10,,6.21,30.059055,,,,,,TRUE,,,,,SCT,4500,,,,,,,VFR,,,,,,,,,,,,METAR,256.0
LEIB 211700Z 28010KT 9999 FEW030 14/06 Q1003 NOSIG,LEIB,2015-02-21T17:00:00Z,38.87,1.37,14.0,6.0,280,10,,6.21,29.616142,,,,,,TRUE,,,,,FEW,3000,,,,,,,VFR,,,,,,,,,,,,METAR,12.0
LETO 211700Z 33014KT 300V020 9999 SCT065 12/M01 Q1009 NOSIG,LETO,2015-02-21T17:00:00Z,40.47,-3.47,12.0,-1.0,330,14,,6.21,29.793306,,,,,,TRUE,,,,,SCT,6500,,,,,,,VFR,,,,,,,,,,,,METAR,608.0
LELL 211700Z 13006KT 090V160 9000 -RA SCT055 SCT077 11/04 Q1002,LELL,2015-02-21T17:00:00Z,41.52,2.1,11.0,4.0,130,6,,5.59,29.586615,,,,,,,,,,-RA,SCT,5500,SCT,7700,,,,,VFR,,,,,,,,,,,,METAR,250.0
LEJR 211700Z 26008KT 9999 FEW056 17/11 Q1011,LEJR,2015-02-21T17:00:00Z,36.75,-6.07,17.0,11.0,260,8,,6.21,29.852362,,,,,,,,,,,FEW,5600,,,,,,,VFR,,,,,,,,,,,,METAR,30.0
LEPP 211700Z 31006KT 5000 RA FEW014 BKN022 04/03 Q1009,LEPP,2015-02-21T17:00:00Z,42.77,-1.65,4.0,3.0,310,6,,3.11,29.793306,,,,,,,,,,RA,FEW,1400,BKN,2200,,,,,MVFR,,,,,,,,,,,,METAR,459.0
MNPC 211700Z 06012KT 6000 VCRA BKN016TCU 29/26 Q1014 TCURA NE NW SW,MNPC,2015-02-21T17:00:00Z,14.05,-83.38,29.0,26.0,60,12,,3.73,29.940945,,,,,,,,,,VCRA RA,BKN,1600,,,,,,,MVFR,,,,,,,,,,,,METAR,16.0
LEXJ 211700Z 31009KT 280V350 9999 SCT032TCU SCT068 08/04 Q1014,LEXJ,2015-02-21T17:00:00Z,43.42,-3.82,8.0,4.0,310,9,,6.21,29.940945,,,,,,,,,,,SCT,3200,SCT,6800,,,,,VFR,,,,,,,,,,,,METAR,6.0
MNJU 211700Z 09010KT 9999 FEW025 SCT080 27/20 Q1015,MNJU,2015-02-21T17:00:00Z,12.08,-85.37,27.0,20.0,90,10,,6.21,29.970472,,,,,,,,,,,FEW,2500,SCT,8000,,,,,VFR,,,,,,,,,,,,METAR,90.0
MNJG 211700Z 00000KT 9999 SCT018 22/16 Q1016,MNJG,2015-02-21T17:00:00Z,13.08,-86.02,22.0,16.0,0,0,,6.21,30.0,,,,,,,,,,,SCT,1800,,,,,,,VFR,,,,,,,,,,,,METAR,985.0
MNRS 211700Z 06012KT 9999 SCT018 SCT060 28/19 Q1014,MNRS,2015-02-21T17:00:00Z,11.42,-85.82,28.0,19.0,60,12,,6.21,29.940945,,,,,,,,,,,SCT,1800,SCT,6000,,,,,VFR,,,,,,,,,,,,METAR,53.0
NVVV 211700Z VRB02KT 9999 FEW025 24/24 Q1007 RMK NIL,NVVV,2015-02-21T17:00:00Z,-17.68,168.3,24.0,24.0,0,2,,6.21,29.734253,,,,,,,,,,,FEW,2500,,,,,,,VFR,,,,,,,,,,,,SPECI,21.0
FBSK 211700Z 15011KT 9999 FEW030 FEW035CB SCT075 29/11 Q1014 NOSIG,FBSK,2015-02-21T17:00:00Z,-24.55,25.92,29.0,11.0,150,11,,6.21,29.940945,,,,,,TRUE,,,,,FEW,3000,FEW,3500,SCT,7500,,,VFR,,,,,,,,,,,,METAR,1005.0
MNBL 211700Z 04004KT 8000 VCRA BKN016 24/22 Q1016 RA S SW,MNBL,2015-02-21T17:00:00Z,12.0,-83.77,24.0,22.0,40,4,,4.97,30.0,,,,,,,,,,VCRA RA,BKN,1600,,,,,,,MVFR,,,,,,,,,,,,METAR,5.0
MNCH 211700Z 19004KT CAVOK 32/19 Q1012,MNCH,2015-02-21T17:00:00Z,12.62,-87.12,32.0,19.0,190,4,,6.21,29.88189,,,,,,,,,,,CAVOK,,,,,,,,VFR,,,,,,,,,,,,METAR,53.0
CYYE 211700Z 14003KT 110V190 10SM SCT004 OVC012 M04/M05 A3050 RMK SC4SC4 SLP355,CYYE,2015-02-21T17:00:00Z,58.82,-122.57,-4.0,-5.0,140,3,,10.0,30.499016,1035.5,,,,,,,,,,SCT,400,OVC,1200,,,,,MVFR,,,,,,,,,,,,METAR,382.0
CYYD 211700Z 13005KT 25SM FEW080 FEW230 M06/M06 A3057 RMK AC1CI1 CI TR SLP382,CYYD,2015-02-21T17:00:00Z,54.82,-127.18,-6.0,-6.0,130,5,,25.0,30.569881,1038.2,,,,,,,,,,FEW,8000,FEW,23000,,,,,VFR,,,,,,,,,,,,METAR,523.0
CYXY 211700Z 17027KT 40SM BKN150 M04/M06 A3027 RMK AC7 SLP295,CYXY,2015-02-21T17:00:00Z,60.72,-135.07,-4.0,-6.0,170,27,,40.0,30.268702,1029.5,,,,,,,,,,BKN,15000,,,,,,,VFR,,,,,,,,,,,,METAR,703.0
CYXT 211700Z 36013G18KT 20SM SCT220 00/M03 A3055 RMK CI4 SLP357,CYXT,2015-02-21T17:00:00Z,54.47,-128.57,0.0,-3.0,360,13,18,20.0,30.549213,1035.7,,,,,,,,,,SCT,22000,,,,,,,VFR,,,,,,,,,,,,METAR,217.0
OYSQ 211700Z VRB02KT 9999 FEW018 26/20 Q1012,OYSQ,2015-02-21T17:00:00Z,12.62,53.88,26.0,20.0,0,2,,6.21,29.88189,,,,,,,,,,,FEW,1800,,,,,,,VFR,,,,,,,,,,,,METAR,45.0
OYAA 211700Z 12006KT CAVOK 26/20 Q1012,OYAA,2015-02-21T17:00:00Z,12.83,45.02,26.0,20.0,120,6,,6.21,29.88189,,,,,,,,,,,CAVOK,,,,,,,,VFR,,,,,,,,,,,,METAR,3.0
RKJB 211700Z 26007KT 0900 0450N R01/P2000D DZ FG SCT002 BKN020 OVC100 07/07 Q1016 NOSIG,RKJB,2015-02-21T17:00:00Z,34.98,126.38,7.0,7.0,260,7,,0.56,30.0,,,,,,TRUE,,,,DZ FG,SCT,200,BKN,2000,OVC,10000,,,LIFR,,,,,,,,,,,,METAR,2.0
RKTU 211700Z 23003KT 2400 BR FEW000 FEW015 OVC025 06/05 Q1014 NOSIG,RKTU,2015-02-21T17:00:00Z,36.7,127.5,6.0,5.0,230,3,,1.49,29.940945,,,,,,TRUE,,,,BR,FEW,0,FEW,1500,OVC,2500,,,IFR,,,,,,,,,,,,METAR,66.0
RKPC 211700Z 26010KT 7000 FEW007 BKN020 10/08 Q1016 NOSIG,RKPC,2015-02-21T17:00:00Z,33.5,126.48,10.0,8.0,260,10,,4.35,30.0,,,,,,TRUE,,,,,FEW,700,BKN,2000,,,,,MVFR,,,,,,,,,,,,METAR,27.0
RKSS 211700Z 33004KT 0800 0300NW R32L/1000U R32R/0900D -DZ FG SCT002 BKN025 OVC080 06/04 Q1014 NOSIG,RKSS,2015-02-21T17:00:00Z,37.53,126.78,6.0,4.0,330,4,,0.5,29.940945,,,,,,TRUE,,,,-DZ FG,SCT,200,BKN,2500,OVC,8000,,,LIFR,,,,,,,,,,,,METAR,19.0
RKSI 211700Z 14002KT 0800 0400S R15L/0900U R15R/0550N R16/0800U -DZ FG BKN003 06/05 Q1014 NOSIG,RKSI,2015-02-21T17:00:00Z,37.47,126.45,6.0,5.0,140,2,,0.5,29.940945,,,,,,TRUE,,,,-DZ FG,BKN,300,,,,,,,LIFR,,,,,,,,,,,,METAR,7.0
RKNY 211700Z AUTO 36001KT 1400 ///003 03/03 Q1013,RKNY,2015-02-21T17:00:00Z,38.07,128.67,3.0,3.0,360,1,,0.87,29.911417,,,TRUE,,,,,,,,,,,,,,,,,,,,,,,,,,,,METAR,74.0
FAGG 211700Z 23004KT 200V260 9999 BKN030 15/11 Q1022,FAGG,2015-02-21T17:00:00Z,-34.0,22.37,15.0,11.0,230,4,,6.21,30.177166,,,,,,,,,,,BKN,3000,,,,,,,MVFR,,,,,,,,,,,,METAR,193.0
FAEL 211700Z 23014KT 9999 FEW029 BKN037 18/14 Q1018,FAEL,2015-02-21T17:00:00Z,-33.02,27.82,18.0,14.0,230,14,,6.21,30.059055,,,,,,,,,,,FEW,2900,BKN,3700,,,,,VFR,,,,,,,,,,,,METAR,125.0
FACT 211700Z 15024KT 9999 FEW030 17/08 Q1021 NOSIG,FACT,2015-02-21T17:00:00Z,-33.97,18.6,17.0,8.0,150,24,,6.21,30.147638,,,,,,TRUE,,,,,FEW,3000,,,,,,,VFR,,,,,,,,,,,,METAR,42.0
FABL 211700Z 33008KT CAVOK 19/13 Q1018 NOSIG,FABL,2015-02-21T17:00:00Z,-29.1,26.3,19.0,13.0,330,8,,6.21,30.059055,,,,,,TRUE,,,,,CAVOK,,,,,,,,VFR,,,,,,,,,,,,METAR,1348.0
SAZS 211700Z 32018KT 9000 SCT030 22/04 Q1015,SAZS,2015-02-21T17:00:00Z,-41.13,-71.17,22.0,4.0,320,18,,5.59,29.970472,,,,,,,,,,,SCT,3000,,,,,,,VFR,,,,,,,,,,,,METAR,840.0
SAZN 211700Z 36004KT CAVOK 27/12 Q1013,SAZN,2015-02-21T17:00:00Z,-38.95,-68.15,27.0,12.0,360,4,,6.21,29.911417,,,,,,,,,,,CAVOK,,,,,,,,VFR,,,,,,,,,,,,METAR,271.0
SAZM 211700Z 11012KT 9999 FEW023TCU SCT025 23/15 Q1021,SAZM,2015-02-21T17:00:00Z,-37.92,-57.57,23.0,15.0,110,12,,6.21,30.147638,,,,,,,,,,,FEW,2300,SCT,2500,,,,,VFR,,,,,,,,,,,,METAR,21.0
SAWG 211700Z 27017KT CAVOK 17/M06 Q1011,SAWG,2015-02-21T17:00:00Z,-51.62,-69.32,17.0,-6.0,270,17,,6.21,29.852362,,,,,,,,,,,CAVOK,,,,,,,,VFR,,,,,,,,,,,,METAR,19.0
SAWE 211700Z 25023G34KT CAVOK 16/05 Q1006,SAWE,2015-02-21T17:00:00Z,-53.78,-67.75,16.0,5.0,250,23,34,6.21,29.704725,,,,,,,,,,,CAVOK,,,,,,,,VFR,,,,,,,,,,,,METAR,22.0
SAVC 211700Z 23013KT 9999 FEW040 BKN100 18/10 Q1011,SAVC,2015-02-21T17:00:00Z,-45.77,-67.47,18.0,10.0,230,13,,6.21,29.852362,,,,,,,,,,,FEW,4000,BKN,10000,,,,,VFR,,,,,,,,,,,,METAR,46.0
SASJ 211700Z 18007KT 9999 FEW008 SCT020 OVC080 20/15 Q1019,SASJ,2015-02-21T17:00:00Z,-24.37,-65.1,20.0,15.0,180,7,,6.21,30.088583,,,,,,,,,,,FEW,800,SCT,2000,OVC,8000,,,VFR,,,,,,,,,,,,METAR,1167.0
SARP 211700Z 18005KT 9999 SCT030 32/21 Q1014,SARP,2015-02-21T17:00:00Z,-27.38,-55.97,32.0,21.0,180,5,,6.21,29.940945,,,,,,,,,,,SCT,3000,,,,,,,VFR,,,,,,,,,,,,METAR,125.0
SARL 211700Z 09012KT 9999 SCT018 SCT200 30/21 Q1016,SARL,2015-02-21T17:00:00Z,-29.67,-57.13,30.0,21.0,90,12,,6.21,30.0,,,,,,,,,,,SCT,1800,SCT,20000,,,,,VFR,,,,,,,,,,,,METAR,70.0
SARI 211700Z 00000KT 9999 SCT030 BKN100 29/25 Q1016,SARI,2015-02-21T17:00:00Z,-25.72,-54.47,29.0,25.0,0,0,,6.21,30.0,,,,,,,,,,,SCT,3000,BKN,10000,,,,,VFR,,,,,,,,,,,,METAR,270.0
SARF 211700Z 09006KT 9999 FEW020 BKN025 31/24 Q1014,SARF,2015-02-21T17:00:00Z,-26.22,-58.22,31.0,24.0,90,6,,6.21,29.940945,,,,,,,,,,,FEW,2000,BKN,2500,,,,,MVFR,,,,,,,,,,,,METAR,60.0
SARE 211700Z 14004KT 9999 SCT020 SCT100 30/21 Q1014,SARE,2015-02-21T17:00:00Z,-27.43,-59.03,30.0,21.0,140,4,,6.21,29.940945,,,,,,,,,,,SCT,2000,SCT,10000,,,,,VFR,,,,,,,,,,,,METAR,52.0
SAOC 211700Z 36017KT 9999 SCT025 SCT100 21/14 Q1018,SAOC,2015-02-21T17:00:00Z,-33.12,-64.27,21.0,14.0,360,17,,6.21,30.059055,,,,,,,,,,,SCT,2500,SCT,10000,,,,,VFR,,,,,,,,,,,,METAR,421.0
SANT 211700Z 09004KT 9999 BKN030 SCT100 23/17 Q1018,SANT,2015-02-21T17:00:00Z,-26.85,-65.08,23.0,17.0,90,4,,6.21,30.059055,,,,,,,,,,,BKN,3000,SCT,10000,,,,,MVFR,,,,,,,,,,,,METAR,450.0
SAME 211700Z 36005KT 9999 SCT040 NSC 21/12 Q1017,SAME,2015-02-21T17:00:00Z,-32.82,-68.77,21.0,12.0,360,5,,6.21,30.029528,,,,,,,,,,,SCT,4000,,,,,,,VFR,,,,,,,,,,,,METAR,704.0
SACO 211700Z 02008KT 9999 SCT020 SCT100 20/15 Q1022,SACO,2015-02-21T17:00:00Z,-31.32,-64.22,20.0,15.0,20,8,,6.21,30.177166,,,,,,,,,,,SCT,2000,SCT,10000,,,,,VFR,,,,,,,,,,,,METAR,474.0
SABE 211700Z VRB03KT 9999 SCT025 FEW040TCU 24/19 Q1019,SABE,2015-02-21T17:00:00Z,-34.57,-58.42,24.0,19.0,0,3,,6.21,30.088583,,,,,,,,,,,SCT,2500,FEW,4000,,,,,VFR,,,,,,,,,,,,METAR,6.0
SAAR 211700Z 18005KT 9999 SCT030 SCT100 BKN200 25/13 Q1019,SAAR,2015-02-21T17:00:00Z,-32.92,-60.77,25.0,13.0,180,5,,6.21,30.088583,,,,,,,,,,,SCT,3000,SCT,10000,BKN,20000,,,VFR,,,,,,,,,,,,METAR,25.0
YMAV 211700Z AUTO 01009KT 9999 // SCT090 SCT100 25/15 Q1010,YMAV,2015-02-21T17:00:00Z,-38.03,144.48,25.0,15.0,10,9,,6.21,29.822834,,,TRUE,,,,,,,,SCT,9000,SCT,10000,,,,,VFR,,,,,,,,,,,,METAR,8.0
YLRE 211700Z AUTO 07006KT 9999 // NCD 30/15 Q1006,YLRE,2015-02-21T17:00:00Z,-23.43,144.28,30.0,15.0,70,6,,6.21,29.704725,,,TRUE,,,,,,,,,,,,,,,,,,,,,,,,,,,,METAR,193.0
SUMU 211700Z 12012KT CAVOK 24/18 Q1020 NOSIG,SUMU,2015-02-21T17:00:00Z,-34.82,-56.0,24.0,18.0,120,12,,6.21,30.11811,,,,,,TRUE,,,,,CAVOK,,,,,,,,VFR,,,,,,,,,,,,SPECI,32.0
SLVR 211700Z 17012G22KT 8000 FEW022 SCT027 BKN070 29/19 Q1013,SLVR,2015-02-21T17:00:00Z,-17.63,-63.12,29.0,19.0,170,12,22,4.97,29.911417,,,,,,,,,,,FEW,2200,SCT,2700,BKN,7000,,,MVFR,,,,,,,,,,,,SPECI,373.0
SLTR 211700Z 14008KT 9999 SCT017 FEW020CB 28/22 Q1012,SLTR,2015-02-21T17:00:00Z,-14.83,-64.92,28.0,22.0,140,8,,6.21,29.88189,,,,,,,,,,,SCT,1700,FEW,2000,,,,,VFR,,,,,,,,,,,,SPECI,157.0
SLTJ 211700Z 21004KT 9999 BKN030 BKN070 22/15 Q1021,SLTJ,2015-02-21T17:00:00Z,-21.55,-64.72,22.0,15.0,210,4,,6.21,30.147638,,,,,,,,,,,BKN,3000,BKN,7000,,,,,MVFR,,,,,,,,,,,,SPECI,1858.0
SLLP 211700Z 12011KT 090V170 9999 SCT015 SCT200 14/04 Q1036,SLLP,2015-02-21T17:00:00Z,-16.52,-68.17,14.0,4.0,120,11,,6.21,30.590551,,,,,,,,,,,SCT,1500,SCT,20000,,,,,VFR,,,,,,,,,,,,SPECI,4014.0
SLCB 211700Z 00000KT 9999 SCT025 FEW027CB SCT070 22/10 Q1025,SLCB,2015-02-21T17:00:00Z,-17.42,-66.18,22.0,10.0,0,0,,6.21,30.265747,,,,,,,,,,,SCT,2500,FEW,2700,SCT,7000,,,VFR,,,,,,,,,,,,SPECI,2548.0
SGES 211700Z 09004KT 9999 TS BKN025 FEW040CB BKN070 31/25 Q1014,SGES,2015-02-21T17:00:00Z,-25.45,-54.85,31.0,25.0,90,4,,6.21,29.940945,,,,,,,,,,TS,BKN,2500,FEW,4000,BKN,7000,,,MVFR,,,,,,,,,,,,SPECI,849.0
SGAS 211700Z VRB/02KT 9999 SCT033 BKN083 32/23 Q1013,SGAS,2015-02-21T17:00:00Z,-25.25,-57.52,32.0,23.0,,,,6.21,29.911417,,,,,,,,,,,SCT,3300,BKN,8300,,,,,VFR,,,,,,,,,,,,SPECI,101.0
RPVM 211700Z 34003KT 9999 FEW020 BKN100 25/22 Q1015 RMK A2997,RPVM,2015-02-21T17:00:00Z,10.32,123.98,25.0,22.0,340,3,,6.21,29.970472,,,,,,,,,,,FEW,2000,BKN,10000,,,,,VFR,,,,,,,,,,,,METAR,10.0
LEBA 211700Z 25004KT 210V270 9999 FEW024 SCT049 14/10 Q1010,LEBA,2015-02-21T17:00:00Z,37.85,-4.82,14.0,10.0,250,4,,6.21,29.822834,,,,,,,,,,,FEW,2400,SCT,4900,,,,,VFR,,,,,,,,,,,,METAR,92.0
LEBG 211700Z 33012KT 290V010 9999 SCT018 SCT024 03/00 Q1011,LEBG,2015-02-21T17:00:00Z,42.37,-3.62,3.0,0.0,330,12,,6.21,29.852362,,,,,,,,,,,SCT,1800,SCT,2400,,,,,VFR,,,,,,,,,,,,METAR,891.0
SBTF 211700Z 09012KT 9999 BKN020 SCT100 32/25 Q1010,SBTF,2015-02-21T17:00:00Z,-3.37,-64.72,32.0,25.0,90,12,,6.21,29.822834,,,,,,,,,,,BKN,2000,SCT,10000,,,,,MVFR,,,,,,,,,,,,METAR,47.0
SBPP 211700Z 01009KT 9999 BKN020 29/20 Q1016,SBPP,2015-02-21T17:00:00Z,-22.55,-55.7,29.0,20.0,10,9,,6.21,30.0,,,,,,,,,,,BKN,2000,,,,,,,MVFR,,,,,,,,,,,,METAR,660.0
SBTT 211700Z 13005KT 9999 FEW019 SCT020 32/26 Q1010,SBTT,2015-02-21T17:00:00Z,-4.25,-69.93,32.0,26.0,130,5,,6.21,29.822834,,,,,,,,,,,FEW,1900,SCT,2000,,,,,VFR,,,,,,,,,,,,METAR,85.0
SBBE 211700Z 11007KT 9999 FEW030 BKN100 28/21 Q1011,SBBE,2015-02-21T17:00:00Z,-1.37,-48.47,28.0,21.0,110,7,,6.21,29.852362,,,,,,,,,,,FEW,3000,BKN,10000,,,,,VFR,,,,,,,,,,,,METAR,16.0
SLYA 211700Z 18005KT 9999 BKN023 BKN070 25/21 Q1018,SLYA,2015-02-21T17:00:00Z,-21.97,-63.65,25.0,21.0,180,5,,6.21,30.059055,,,,,,,,,,,BKN,2300,BKN,7000,,,,,MVFR,,,,,,,,,,,,METAR,645.0
SLVM 211700Z 18004KT 9999 BKN023 FEW025TCU SCT070 28/21 Q1015,SLVM,2015-02-21T17:00:00Z,-21.25,-63.4,28.0,21.0,180,4,,6.21,29.970472,,,,,,,,,,,BKN,2300,FEW,2500,SCT,7000,,,MVFR,,,,,,,,,,,,METAR,400.0
SLSU 211700Z 03009KT 9999 BKN020 18/11 Q1030,SLSU,2015-02-21T17:00:00Z,-19.02,-65.27,18.0,11.0,30,9,,6.21,30.413385,,,,,,,,,,,BKN,2000,,,,,,,MVFR,,,,,,,,,,,,METAR,2903.0
SLSI 211700Z 00000KT 9999 SCT017 BKN070 26/23 Q1013,SLSI,2015-02-21T17:00:00Z,-16.37,-60.95,26.0,23.0,0,0,,6.21,29.911417,,,,,,,,,,,SCT,1700,BKN,7000,,,,,VFR,,,,,,,,,,,,METAR,413.0
SLSA 211700Z 13007KT 9999 SCT017 BKN080 27/22 Q1011,SLSA,2015-02-21T17:00:00Z,-13.77,-65.43,27.0,22.0,130,7,,6.21,29.852362,,,,,,,,,,,SCT,1700,BKN,8000,,,,,VFR,,,,,,,,,,,,METAR,144.0
SLRY 211700Z 16004KT 9999 FEW016 BKN080 29/22 Q1014,SLRY,2015-02-21T17:00:00Z,-14.3,-67.37,29.0,22.0,160,4,,6.21,29.940945,,,,,,,,,,,FEW,1600,BKN,8000,,,,,VFR,,,,,,,,,,,,METAR,280.0
SLRQ 211700Z 14012KT 9999 SCT020 SCT080 BKN200 28/23 Q1013,SLRQ,2015-02-21T17:00:00Z,-14.42,-67.5,28.0,23.0,140,12,,6.21,29.911417,,,,,,,,,,,SCT,2000,SCT,8000,BKN,20000,,,VFR,,,,,,,,,,,,METAR,203.0
SLRI 211700Z 00000KT 8000 VCSH BKN013 FEW020CB OVC200 27/23 Q1012,SLRI,2015-02-21T17:00:00Z,-11.02,-66.08,27.0,23.0,0,0,,4.97,29.88189,,,,,,,,,,VCSH,BKN,1300,FEW,2000,OVC,20000,,,MVFR,,,,,,,,,,,,METAR,135.0
SLRB 211700Z 00000KT 9999 BKN015 BKN070 28/24 Q1014,SLRB,2015-02-21T17:00:00Z,-18.32,-59.75,28.0,24.0,0,0,,6.21,29.940945,,,,,,,,,,,BKN,1500,BKN,7000,,,,,MVFR,,,,,,,,,,,,METAR,284.0
SLPS 211700Z 00000KT 9999 BKN012 FEW025CB BKN070 26/25 Q1011,SLPS,2015-02-21T17:00:00Z,-18.98,-57.82,26.0,25.0,0,0,,6.21,29.852362,,,,,,,,,,,BKN,1200,FEW,2500,BKN,7000,,,MVFR,,,,,,,,,,,,METAR,135.0
SLPO 211700Z 06006KT 9999 SCT020 BKN200 15/04 Q1037,SLPO,2015-02-21T17:00:00Z,-19.52,-65.72,15.0,4.0,60,6,,6.21,30.620079,,,,,,,,,,,SCT,2000,BKN,20000,,,,,VFR,,,,,,,,,,,,METAR,3934.0
SLOR 211700Z 10006KT 9999 SCT017 FEW020CB BKN070 14/06 Q1033,SLOR,2015-02-21T17:00:00Z,-17.97,-67.08,14.0,6.0,100,6,,6.21,30.501968,,,,,,,,,,,SCT,1700,FEW,2000,BKN,7000,,,VFR,,,,,,,,,,,,METAR,3702.0
SLMG 211700Z 00000KT 9999 BKN015 FEW023CB BKN080 27/24 Q1011,SLMG,2015-02-21T17:00:00Z,-13.27,-64.07,27.0,24.0,0,0,,6.21,29.852362,,,,,,,,,,,BKN,1500,FEW,2300,BKN,8000,,,MVFR,,,,,,,,,,,,METAR,141.0
SLJO 211700Z 18006KT 8000 VCSH BKN015 BKN080 26/23 Q1011,SLJO,2015-02-21T17:00:00Z,-13.07,-64.67,26.0,23.0,180,6,,4.97,29.852362,,,,,,,,,,VCSH,BKN,1500,BKN,8000,,,,,MVFR,,,,,,,,,,,,METAR,140.0
SLJE 211700Z 20008KT 9999 SCT015 BKN070 30/23 Q1014,SLJE,2015-02-21T17:00:00Z,-17.82,-60.75,30.0,23.0,200,8,,6.21,29.940945,,,,,,,,,,,SCT,1500,BKN,7000,,,,,VFR,,,,,,,,,,,,METAR,284.0
SLCP 211700Z 18010KT 9999 OVC015 24/21 Q1015,SLCP,2015-02-21T17:00:00Z,-16.15,-62.02,24.0,21.0,180,10,,6.21,29.970472,,,,,,,,,,,OVC,1500,,,,,,,MVFR,,,,,,,,,,,,METAR,497.0
SLCO 211700Z 18004KT 9999 BKN006 OVC070 25/22 Q1013,SLCO,2015-02-21T17:00:00Z,-11.03,-68.78,25.0,22.0,180,4,,6.21,29.911417,,,,,,,,,,,BKN,600,OVC,7000,,,,,IFR,,,,,,,,,,,,METAR,272.0
SLCA 211700Z 00000KT 9999 BKN033 OVC070 25/18 Q1019,SLCA,2015-02-21T17:00:00Z,-20.0,-63.53,25.0,18.0,0,0,,6.21,30.088583,,,,,,,,,,,BKN,3300,OVC,7000,,,,,VFR,,,,,,,,,,,,METAR,798.0
DIAP 211700Z 24009KT 9999 FEW012 29/25 Q1008 NOSIG,DIAP,2015-02-21T17:00:00Z,5.25,-3.92,29.0,25.0,240,9,,6.21,29.763779,,,,,,TRUE,,,,,FEW,1200,,,,,,,VFR,,,,,,,,,,,,METAR,8.0
LECH 211700Z 33022G35KT 290V360 9999 FEW025 11/M01 Q1003,LECH,2015-02-21T17:00:00Z,40.87,-1.3,11.0,-1.0,330,22,35,6.21,29.616142,,,,,,,,,,,FEW,2500,,,,,,,VFR,,,,,,,,,,,,METAR,899.0
LELO 211700Z 28019KT 250V310 9999 SCT030 BKN040 06/03 Q1010,LELO,2015-02-21T17:00:00Z,42.45,-2.32,6.0,3.0,280,19,,6.21,29.822834,,,,,,,,,,,SCT,3000,BKN,4000,,,,,VFR,,,,,,,,,,,,METAR,363.0
LECV 211700Z 35020G33KT 300V030 9999 FEW040 08/M03 Q1009,LECV,2015-02-21T17:00:00Z,40.63,-3.72,8.0,-3.0,350,20,33,6.21,29.793306,,,,,,,,,,,FEW,4000,,,,,,,VFR,,,,,,,,,,,,METAR,710.0
LEBT 211700Z AUTO 33003KT CAVOK 15/M01 Q1005,LEBT,2015-02-21T17:00:00Z,39.58,-0.45,15.0,-1.0,330,3,,6.21,29.675198,,,TRUE,,,,,,,,CAVOK,,,,,,,,VFR,,,,,,,,,,,,METAR,50.0
LEAO 211700Z 34014KT 300V020 CAVOK 13/M02 Q1009,LEAO,2015-02-21T17:00:00Z,38.95,-3.73,13.0,-2.0,340,14,,6.21,29.793306,,,,,,,,,,,CAVOK,,,,,,,,VFR,,,,,,,,,,,,METAR,629.0
OYSY 211700Z AUTO 16006KT 110V200 //// ////// 27/11 Q1012,OYSY,2015-02-21T17:00:00Z,15.97,48.78,27.0,11.0,160,6,,,29.88189,,,TRUE,,,,,,,,,,,,,,,,,,,,,,,,,,,,METAR,701.0
UTDL 211700Z 08006MPS 8000 SCT110 OVC200 09/00 Q1014 NOSIG RMK QFE721/0962 88CLRD70,UTDL,2015-02-21T17:00:00Z,40.22,69.7,9.0,0.0,80,12,,4.97,29.940945,,,,,,TRUE,,,,,SCT,11000,OVC,20000,,,,,MVFR,,,,,,,,,,,,METAR,442.0
UTDT 211700Z 02003MPS 310V040 9999 SCT073 OVC110 14/08 Q1012 35CLRD70 RMK QFE719/0959,UTDT,2015-02-21T17:00:00Z,37.87,68.87,14.0,8.0,20,6,,6.21,29.88189,,,,,,,,,,,SCT,7300,OVC,11000,,,,,VFR,,,,,,,,,,,,METAR,449.0
UTDK 211700Z 02004MPS 9999 -SHRA SCT060CB OVC090 14/10 Q1014 01CLRD70 RMK QFE703/0938,UTDK,2015-02-21T17:00:00Z,37.98,69.8,14.0,10.0,20,8,,6.21,29.940945,,,,,,,,,,-SHRA,SCT,6000,OVC,9000,,,,,VFR,,,,,,,,,,,,METAR,699.0
UTDD 211700Z VRB01MPS 9999 -SHRA SCT066CB OVC080 11/07 Q1016 R09/29//50 NOSIG RMK QFE693/0924,UTDD,2015-02-21T17:00:00Z,38.53,68.82,11.0,7.0,0,2,,6.21,30.0,,,,,,TRUE,,,,-SHRA,SCT,6600,OVC,8000,,,,,VFR,,,,,,,,,,,,METAR,803.0
FVHA 211700Z 06006KT 9999 FEW030CB BKN300 21/18 Q1017 NOSIG RMK QFE 850.3,FVHA,2015-02-21T17:00:00Z,-17.92,31.12,21.0,18.0,60,6,,6.21,30.029528,,,,,,TRUE,,,,,FEW,3000,BKN,30000,,,,,VFR,,,,,,,,,,,,METAR,1503.0
FVBU 211700Z 14007KT CAVOK 26/11 Q1014 NOSIG,FVBU,2015-02-21T17:00:00Z,-20.02,28.62,26.0,11.0,140,7,,6.21,29.940945,,,,,,TRUE,,,,,CAVOK,,,,,,,,VFR,,,,,,,,,,,,METAR,1326.0
ZUUU 211700Z VRB01MPS 9999 BKN050 13/05 Q1018 NOSIG,ZUUU,2015-02-21T17:00:00Z,30.58,103.95,13.0,5.0,0,2,,6.21,30.059055,,,,,,TRUE,,,,,BKN,5000,,,,,,,VFR,,,,,,,,,,,,METAR,508.0
ZUGY 211700Z 01003MPS 6000 FEW007 SCT015 OVC030 09/08 Q1015 NOSIG,ZUGY,2015-02-21T17:00:00Z,26.53,106.8,9.0,8.0,10,6,,3.73,29.970472,,,,,,TRUE,,,,,FEW,700,SCT,1500,OVC,3000,,,MVFR,,,,,,,,,,,,METAR,1074.0
ZSQD 211700Z 33003MPS 3000 BR BKN016 04/02 Q1021 NOSIG,ZSQD,2015-02-21T17:00:00Z,36.27,120.38,4.0,2.0,330,6,,1.86,30.147638,,,,,,TRUE,,,,BR,BKN,1600,,,,,,,IFR,,,,,,,,,,,,METAR,77.0
ZSNB 211700Z 36002MPS 330V030 3000 -RA BR FEW007 BKN016 OVC040 09/08 Q1020 BECMG TL1800 2500,ZSNB,2015-02-21T17:00:00Z,29.83,121.47,9.0,8.0,360,4,,1.86,30.11811,,,,,,,,,,-RA BR,FEW,700,BKN,1600,OVC,4000,,,IFR,,,,,,,,,,,,METAR,4.0
ZSFZ 211700Z VRB01MPS 0600 R03/0900V1500D FG SCT002 OVC003 15/14 Q1017 BECMG TL1800 0500 FG,ZSFZ,2015-02-21T17:00:00Z,25.93,119.67,15.0,14.0,0,2,,0.37,30.029528,,,,,,,,,,FG,SCT,200,OVC,300,,,,,LIFR,,,,,,,,,,,,METAR,85.0
ZSAM 211700Z 34001MPS 2500 BR BKN008 OVC030 18/18 Q1016 NOSIG,ZSAM,2015-02-21T17:00:00Z,24.53,118.13,18.0,18.0,340,2,,1.55,30.0,,,,,,TRUE,,,,BR,BKN,800,OVC,3000,,,,,IFR,,,,,,,,,,,,METAR,139.0
ZPPP 211700Z 22005MPS CAVOK 08/01 Q1019 NOSIG,ZPPP,2015-02-21T17:00:00Z,25.0,102.75,8.0,1.0,220,10,,6.21,30.088583,,,,,,TRUE,,,,,CAVOK,,,,,,,,VFR,,,,,,,,,,,,METAR,1892.0
ZLXY 211700Z 07007MPS 3000 HZ NSC 06/01 Q1024 BECMG TL1750 2800 BR,ZLXY,2015-02-21T17:00:00Z,34.43,108.75,6.0,1.0,70,14,,1.86,30.236221,,,,,,,,,,HZ,,,,,,,,,,,,,,,,,,,,,METAR,479.0
ZGSZ 211700Z VRB01MPS 4500 BR FEW020 19/18 Q1015 NOSIG,ZGSZ,2015-02-21T17:00:00Z,22.63,113.8,19.0,18.0,0,2,,2.8,29.970472,,,,,,TRUE,,,,BR,FEW,2000,,,,,,,IFR,,,,,,,,,,,,METAR,18.0
ZGOW 211700Z 09002MPS 9000 NSC 18/17 Q1016 NOSIG,ZGOW,2015-02-21T17:00:00Z,23.55,116.5,18.0,17.0,90,4,,5.59,30.0,,,,,,TRUE,,,,,,,,,,,,,,,,,,,,,,,,,METAR,3.0
ZGNN 211700Z 00000MPS 6000 SCT006 20/20 Q1013 NOSIG,ZGNN,2015-02-21T17:00:00Z,22.62,108.17,20.0,20.0,0,0,,3.73,29.911417,,,,,,TRUE,,,,,SCT,600,,,,,,,MVFR,,,,,,,,,,,,METAR,73.0
ZGKL 211700Z 05003MPS 9999 SCT030 OVC046 13/09 Q1018 NOSIG,ZGKL,2015-02-21T17:00:00Z,25.22,110.03,13.0,9.0,50,6,,6.21,30.059055,,,,,,TRUE,,,,,SCT,3000,OVC,4600,,,,,VFR,,,,,,,,,,,,METAR,166.0
UCFO 211700Z 24001MPS 3100 BR SCT050CB OVC166 05/03 Q1013 R12/19//65 TEMPO 1000 BR FU BKN020CB,UCFO,2015-02-21T17:00:00Z,40.6,72.8,5.0,3.0,240,2,,1.93,29.911417,,,,,,,,,,BR,SCT,5000,OVC,16600,,,,,IFR,,,,,,,,,,,,METAR,884.0
UCFM 211700Z 26003MPS CAVOK 04/01 Q1016 R26/CLRD70 NOSIG,UCFM,2015-02-21T17:00:00Z,43.07,74.48,4.0,1.0,260,6,,6.21,30.0,,,,,,TRUE,,,,,CAVOK,,,,,,,,VFR,,,,,,,,,,,,METAR,633.0
FMSD 211700Z 06010KT 9999 FEW016 SCT040 26/22 Q1012,FMSD,2015-02-21T17:00:00Z,-25.02,46.95,26.0,22.0,60,10,,6.21,29.88189,,,,,,,,,,,FEW,1600,SCT,4000,,,,,VFR,,,,,,,,,,,,METAR,9.0
FMNM 211700Z 00000KT 9999 VCTS FEW016CB SCT100 BKN230 27/25 Q1010 TEMPO TS,FMNM,2015-02-21T17:00:00Z,-15.67,46.35,27.0,25.0,0,0,,6.21,29.822834,,,,,,,,,,VCTS,FEW,1600,SCT,10000,BKN,23000,,,VFR,,,,,,,,,,,,METAR,18.0
FMMT 211700Z 26002KT 9999 VCTS FEW017CB SCT033 BKN100 27/25 Q1011 TEMPO TSRA,FMMT,2015-02-21T17:00:00Z,-18.12,49.38,27.0,25.0,260,2,,6.21,29.852362,,,,,,,,,,VCTS,FEW,1700,SCT,3300,BKN,10000,,,VFR,,,,,,,,,,,,METAR,6.0
UDSG 211700Z 00000MPS 9999 FEW050 SCT100 M05/M08 Q1014 R02/CLRD70 NOSIG,UDSG,2015-02-21T17:00:00Z,40.75,43.87,-5.0,-8.0,0,0,,6.21,29.940945,,,,,,TRUE,,,,,FEW,5000,SCT,10000,,,,,VFR,,,,,,,,,,,,METAR,1524.0
UDYZ 211700Z 00000MPS 9999 SCT033 OVC100 03/M01 Q1016 R09/0///70 NOSIG,UDYZ,2015-02-21T17:00:00Z,40.15,44.4,3.0,-1.0,0,0,,6.21,30.0,,,,,,TRUE,,,,,SCT,3300,OVC,10000,,,,,VFR,,,,,,,,,,,,METAR,865.0
MKJP 211700Z 19010KT 9999 FEW022 SCT034 30/// Q1017,MKJP,2015-02-21T17:00:00Z,17.92,-76.78,,,190,10,,6.21,30.029528,,,,,,,,,,,FEW,2200,SCT,3400,,,,,VFR,,,,,,,,,,,,METAR,3.0
MKJS 211700Z 09014KT 9999 -SHRA BKN020 25/23 Q1017,MKJS,2015-02-21T17:00:00Z,18.5,-77.92,25.0,23.0,90,14,,6.21,30.029528,,,,,,,,,,-SHRA,BKN,2000,,,,,,,MVFR,,,,,,,,,,,,METAR,1.0
UAUU 211700Z 20004MPS 9999 SCT036 BKN100 M11/M13 Q1014 R15/820160 NOSIG RMK QFE744/0992,UAUU,2015-02-21T17:00:00Z,53.2,63.55,-11.0,-13.0,200,8,,6.21,29.940945,,,,,,TRUE,,,,,SCT,3600,BKN,10000,,,,,VFR,,,,,,,,,,,,METAR,182.0
UATT 211700Z 09003MPS CAVOK M14/M17 Q1023 R31/0///60 NOSIG RMK QFE747/0996,UATT,2015-02-21T17:00:00Z,50.25,57.2,-14.0,-17.0,90,6,,6.21,30.206694,,,,,,TRUE,,,,,CAVOK,,,,,,,,VFR,,,,,,,,,,,,METAR,227.0
UATG 211700Z 21002MPS 5000 BR NSC M16/M17 Q1030 R32/CLRD70 NOSIG RMK QFE774/1033,UATG,2015-02-21T17:00:00Z,47.12,51.83,-16.0,-17.0,210,4,,3.11,30.413385,,,,,,TRUE,,,,BR,,,,,,,,,,,,,,,,,,,,,METAR,-22.0
UATE 211700Z 03009G14MPS CAVOK M04/M12 Q1025 R12/0///70 NOSIG RMK QFE767/1023,UATE,2015-02-21T17:00:00Z,43.87,51.1,-4.0,-12.0,30,17,27,6.21,30.265747,,,,,,TRUE,,,,,CAVOK,,,,,,,,VFR,,,,,,,,,,,,METAR,22.0
UARR 211700Z 23008MPS 9999 DRSN SCT050 BKN100 M07/M09 Q1023 R22/820560 NOSIG RMK QFE764/1018,UARR,2015-02-21T17:00:00Z,51.15,51.53,-7.0,-9.0,230,16,,6.21,30.206694,,,,,,TRUE,,,,DRSN,SCT,5000,BKN,10000,,,,,VFR,,,,,,,,,,,,METAR,38.0
UASP 211700Z 27006MPS 9999 -SHSN BKN030CB BKN100 M15/M19 Q1015 R21/450150 NOSIG RMK QFE750/1000,UASP,2015-02-21T17:00:00Z,52.2,77.07,-15.0,-19.0,270,12,,6.21,29.970472,,,,,,TRUE,,,,-SHSN,BKN,3000,BKN,10000,,,,,MVFR,,,,,,,,,,,,METAR,125.0
UASK 211700Z 14005MPS 9999 BKN027CB OVC073 M05/M13 Q1018 R12/820242 NOSIG RMK QFE738/0984,UASK,2015-02-21T17:00:00Z,50.03,82.5,-5.0,-13.0,140,10,,6.21,30.059055,,,,,,TRUE,,,,,BKN,2700,OVC,7300,,,,,MVFR,,,,,,,,,,,,METAR,286.0
UAOO 211700Z 01006MPS CAVOK M01/M06 Q1021 NOSIG RMK QFE754/1005,UAOO,2015-02-21T17:00:00Z,44.7,65.6,-1.0,-6.0,10,12,,6.21,30.147638,,,,,,TRUE,,,,,CAVOK,,,,,,,,VFR,,,,,,,,,,,,METAR,129.0
UAKK 211700Z 24008MPS CAVOK M11/M16 Q1016 R23/920555 NOSIG RMK QFE715/0954,UAKK,2015-02-21T17:00:00Z,49.67,73.33,-11.0,-16.0,240,16,,6.21,30.0,,,,,,TRUE,,,,,CAVOK,,,,,,,,VFR,,,,,,,,,,,,METAR,538.0
UAII 211700Z VRB01MPS 6000 SCT050CB OVC100 09/06 Q1013 R10/0///70 NOSIG RMK QFE725/0966,UAII,2015-02-21T17:00:00Z,42.37,69.48,9.0,6.0,0,2,,3.73,29.911417,,,,,,TRUE,,,,,SCT,5000,OVC,10000,,,,,MVFR,,,,,,,,,,,,METAR,422.0
UACC 211700Z 26006MPS 9999 -SN DRSN SCT007 OVC030 M13/M16 Q1016 R22/4/0260 NOSIG RMK QFE730/0974,UACC,2015-02-21T17:00:00Z,51.02,71.47,-13.0,-16.0,260,12,,6.21,30.0,,,,,,TRUE,,,,-SN DRSN,SCT,700,OVC,3000,,,,,MVFR,,,,,,,,,,,,METAR,355.0
UADD 211700Z 00000MPS 9999 NSC 04/01 Q1015 NOSIG RMK QFE704/0939,UADD,2015-02-21T17:00:00Z,42.85,71.3,4.0,1.0,0,0,,6.21,29.970472,,,,,,TRUE,,,,,,,,,,,,,,,,,,,,,,,,,METAR,665.0
UAAA 211700Z 12002MPS 0900 R23R/P2000U R23L/P2000N BR FU OVC100 02/M01 Q1017 R88/65D TEMPO 0400 FU,UAAA,2015-02-21T17:00:00Z,43.35,77.03,2.0,-1.0,120,4,,0.56,30.029528,,,,,,,,,,FU BR,OVC,10000,,,,,,,LIFR,,,,,,,,,,,,METAR,847.0
ZYTX 211700Z 30005MPS 2000 -SN BR OVC030 M04/M05 Q1013 NOSIG,ZYTX,2015-02-21T17:00:00Z,41.63,123.48,-4.0,-5.0,300,10,,1.24,29.911417,,,,,,TRUE,,,,-SN BR,OVC,3000,,,,,,,IFR,,,,,,,,,,,,METAR,35.0
ZYTL 211700Z 29008MPS 1700 BR SCT020 01/M00 Q1017 NOSIG,ZYTL,2015-02-21T17:00:00Z,38.97,121.53,1.0,0.0,290,16,,1.06,30.029528,,,,,,TRUE,,,,BR,SCT,2000,,,,,,,IFR,,,,,,,,,,,,METAR,97.0
ZWWW 211700Z 25003MPS 9999 BKN040 M10/M13 Q1023 NOSIG,ZWWW,2015-02-21T17:00:00Z,43.88,87.47,-10.0,-13.0,250,6,,6.21,30.206694,,,,,,TRUE,,,,,BKN,4000,,,,,,,VFR,,,,,,,,,,,,METAR,654.0
ZWSH 211700Z AUTO 31004MPS CAVOK 05/M10 Q1016,ZWSH,2015-02-21T17:00:00Z,39.55,76.02,5.0,-10.0,310,8,,6.21,30.0,,,TRUE,,,,,,,,CAVOK,,,,,,,,VFR,,,,,,,,,,,,METAR,1291.0
ZSSS 211700Z 29002MPS 5000 BR FEW013 09/06 Q1020 NOSIG,ZSSS,2015-02-21T17:00:00Z,31.2,121.33,9.0,6.0,290,4,,3.11,30.11811,,,,,,TRUE,,,,BR,FEW,1300,,,,,,,MVFR,,,,,,,,,,,,METAR,7.0
ZSPD 211700Z 31002MPS 4000 BR BKN015 09/07 Q1020 NOSIG,ZSPD,2015-02-21T17:00:00Z,31.15,121.8,9.0,7.0,310,4,,2.49,30.11811,,,,,,TRUE,,,,BR,BKN,1500,,,,,,,IFR,,,,,,,,,,,,METAR,4.0
ZSHC 211700Z VRB01MPS 5000 BR SCT009 BKN020 09/06 Q1020 NOSIG,ZSHC,2015-02-21T17:00:00Z,30.22,120.43,9.0,6.0,0,2,,3.11,30.11811,,,,,,TRUE,,,,BR,SCT,900,BKN,2000,,,,,MVFR,,,,,,,,,,,,METAR,43.0
ZGGG 211700Z 06002MPS 030V110 3500 BR SCT015 BKN030 20/20 Q1015 NOSIG,ZGGG,2015-02-21T17:00:00Z,23.4,113.3,20.0,20.0,60,4,,2.17,29.970472,,,,,,TRUE,,,,BR,SCT,1500,BKN,3000,,,,,IFR,,,,,,,,,,,,METAR,15.0
ZBYN 211700Z 30007MPS CAVOK M06/M23 Q1024 NOSIG,ZBYN,2015-02-21T17:00:00Z,37.77,112.63,-6.0,-23.0,300,14,,6.21,30.236221,,,,,,TRUE,,,,,CAVOK,,,,,,,,VFR,,,,,,,,,,,,METAR,779.0
ZBTJ 211700Z 34011G16MPS 7000 BLDU NSC M02/M19 Q1023 NOSIG,ZBTJ,2015-02-21T17:00:00Z,39.12,117.35,-2.0,-19.0,340,21,31,4.35,30.206694,,,,,,TRUE,,,,BLDU,,,,,,,,,,,,,,,,,,,,,METAR,3.0
ZBSJ 211700Z 35006G11MPS CAVOK M02/M18 Q1025 NOSIG,ZBSJ,2015-02-21T17:00:00Z,38.28,114.7,-2.0,-18.0,350,12,21,6.21,30.265747,,,,,,TRUE,,,,,CAVOK,,,,,,,,VFR,,,,,,,,,,,,METAR,71.0
ZBAA 211700Z 31009MPS 6000 BLDU NSC M03/M21 Q1024 NOSIG,ZBAA,2015-02-21T17:00:00Z,40.07,116.58,-3.0,-21.0,310,17,,3.73,30.236221,,,,,,TRUE,,,,BLDU,,,,,,,,,,,,,,,,,,,,,METAR,30.0
LKPD 211700Z 10005KT CAVOK 03/M02 Q1001 NOSIG RMK BLU BLU,LKPD,2015-02-21T17:00:00Z,50.02,15.73,3.0,-2.0,100,5,,6.21,29.557087,,,,,,TRUE,,,,,CAVOK,,,,,,,,VFR,,,,,,,,,,,,METAR,226.0
LKNA 211700Z 14004KT 9000 NSC 03/M02 Q1001 NOSIG RMK BLU BLU,LKNA,2015-02-21T17:00:00Z,49.17,16.12,3.0,-2.0,140,4,,5.59,29.557087,,,,,,TRUE,,,,,,,,,,,,,,,,,,,,,,,,,METAR,472.0
LKLN 211700Z AUTO 18002KT CAVOK 06/00 Q1000,LKLN,2015-02-21T17:00:00Z,49.68,13.27,6.0,0.0,180,2,,6.21,29.52756,,,TRUE,,,,,,,,CAVOK,,,,,,,,VFR,,,,,,,,,,,,METAR,362.0
LKKB 211700Z 16002KT CAVOK 05/M02 Q1000 NOSIG,LKKB,2015-02-21T17:00:00Z,50.12,14.53,5.0,-2.0,160,2,,6.21,29.52756,,,,,,TRUE,,,,,CAVOK,,,,,,,,VFR,,,,,,,,,,,,METAR,286.0
LKCV 211700Z 15007KT CAVOK 05/M01 Q1001 NOSIG RMK BLU BLU,LKCV,2015-02-21T17:00:00Z,49.93,15.38,5.0,-1.0,150,7,,6.21,29.557087,,,,,,TRUE,,,,,CAVOK,,,,,,,,VFR,,,,,,,,,,,,METAR,242.0
FBKE 211700Z 03004KT CAVOK 28/19 Q1012,FBKE,2015-02-21T17:00:00Z,-17.82,25.17,28.0,19.0,30,4,,6.21,29.88189,,,,,,,,,,,CAVOK,,,,,,,,VFR,,,,,,,,,,,,METAR,1000.0
FBFT 211700Z 12006KT CAVOK 29/07 Q1012,FBFT,2015-02-21T17:00:00Z,-21.17,27.48,29.0,7.0,120,6,,6.21,29.88189,,,,,,,,,,,CAVOK,,,,,,,,VFR,,,,,,,,,,,,METAR,1000.0
FSIA 211700Z 00000KT 9999 SCT017 27/23 Q1012 NOSIG,FSIA,2015-02-21T17:00:00Z,-4.67,55.52,27.0,23.0,0,0,,6.21,29.88189,,,,,,TRUE,,,,,SCT,1700,,,,,,,VFR,,,,,,,,,,,,METAR,3.0
RJAH 211700Z 02002KT 9999 FEW025 BKN035 BKN150 00/M02 Q1027,RJAH,2015-02-21T17:00:00Z,36.17,140.42,0.0,-2.0,20,2,,6.21,30.324802,,,,,,,,,,,FEW,2500,BKN,3500,BKN,15000,,,VFR,,,,,,,,,,,,METAR,35.0
ROAH 211700Z 16008KT 9999 FEW025 SCT030 BKN150 20/13 Q1018 RMK 1CU025 3CU030 6AC150 A3008,ROAH,2015-02-21T17:00:00Z,26.17,127.65,20.0,13.0,160,8,,6.21,30.059055,,,,,,,,,,,FEW,2500,SCT,3000,BKN,15000,,,VFR,,,,,,,,,,,,METAR,8.0
RJTT 211700Z 04008KT 9999 BKN030 06/01 Q1027 NOSIG RMK 7SC030 A3034,RJTT,2015-02-21T17:00:00Z,35.53,139.77,6.0,1.0,40,8,,6.21,30.324802,,,,,,TRUE,,,,,BKN,3000,,,,,,,MVFR,,,,,,,,,,,,METAR,8.0
RJOH 211700Z 17003KT 140V200 9999 -RA FEW040 OVC050 09/05 Q1019,RJOH,2015-02-21T17:00:00Z,35.47,133.25,9.0,5.0,170,3,,6.21,30.088583,,,,,,,,,,-RA,FEW,4000,OVC,5000,,,,,VFR,,,,,,,,,,,,METAR,9.0
RJGG 211700Z 09003KT 9999 FEW015 BKN090 09/05 Q1024 BECMG 05006KT,RJGG,2015-02-21T17:00:00Z,34.87,136.8,9.0,5.0,90,3,,6.21,30.236221,,,,,,,,,,,FEW,1500,BKN,9000,,,,,VFR,,,,,,,,,,,,METAR,5.0
RJFR 211700Z 08013KT 020V170 7000 -SHRA FEW004 SCT015 BKN040 09/09 Q1017,RJFR,2015-02-21T17:00:00Z,33.82,131.03,9.0,9.0,80,13,,4.35,30.029528,,,,,,,,,,-SHRA,FEW,400,SCT,1500,BKN,4000,,,MVFR,,,,,,,,,,,,METAR,6.0
RJFF 211700Z 15008KT 100V170 9999 FEW020 SCT035 BKN060 11/09 Q1016,RJFF,2015-02-21T17:00:00Z,33.57,130.43,11.0,9.0,150,8,,6.21,30.0,,,,,,,,,,,FEW,2000,SCT,3500,BKN,6000,,,VFR,,,,,,,,,,,,METAR,12.0
RJFS 211700Z 05006KT 9999 BKN030 10/08 Q1017,RJFS,2015-02-21T17:00:00Z,33.15,130.3,10.0,8.0,50,6,,6.21,30.029528,,,,,,,,,,,BKN,3000,,,,,,,MVFR,,,,,,,,,,,,METAR,5.0
RJCC 211700Z 15008KT 9999 FEW015 BKN025 M02/M05 Q1026 RMK 1ST015 7SC025 A3032,RJCC,2015-02-21T17:00:00Z,42.77,141.67,-2.0,-5.0,150,8,,6.21,30.295275,,,,,,,,,,,FEW,1500,BKN,2500,,,,,MVFR,,,,,,,,,,,,METAR,30.0
RJBB 211700Z 04005KT 9999 -RA FEW015 SCT040 BKN050 09/06 Q1023 NOSIG,RJBB,2015-02-21T17:00:00Z,34.42,135.25,9.0,6.0,40,5,,6.21,30.206694,,,,,,TRUE,,,,-RA,FEW,1500,SCT,4000,BKN,5000,,,VFR,,,,,,,,,,,,METAR,8.0
GEML 211700Z 27011KT 240V320 9999 FEW017 BKN039 15/10 Q1009,GEML,2015-02-21T17:00:00Z,35.27,-2.95,15.0,10.0,270,11,,6.21,29.793306,,,,,,,,,,,FEW,1700,BKN,3900,,,,,VFR,,,,,,,,,,,,METAR,55.0
FAUP 211700Z 20009KT 9999 FEW060TCU 30/M03 Q1014 NOSIG,FAUP,2015-02-21T17:00:00Z,-28.38,21.27,30.0,-3.0,200,9,,6.21,29.940945,,,,,,TRUE,,,,,FEW,6000,,,,,,,VFR,,,,,,,,,,,,METAR,836.0
FAPP 211700Z 05004KT CAVOK 27/03 Q1016 NOSIG,FAPP,2015-02-21T17:00:00Z,-23.83,29.45,27.0,3.0,50,4,,6.21,30.0,,,,,,TRUE,,,,,CAVOK,,,,,,,,VFR,,,,,,,,,,,,METAR,1242.0
FAPN 211700Z AUTO 19005KT //// // ////// 25/13 Q1015,FAPN,2015-02-21T17:00:00Z,-25.33,27.17,25.0,13.0,190,5,,,29.970472,,,TRUE,,,,,,,,,,,,,,,,,,,,,,,,,,,,METAR,1039.0
FAPE 211700Z 21008KT 150V250 9999 SCT016 SCT045 16/12 Q1020 TEMPO BKN015,FAPE,2015-02-21T17:00:00Z,-33.97,25.6,16.0,12.0,210,8,,6.21,30.11811,,,,,,,,,,,SCT,1600,SCT,4500,,,,,VFR,,,,,,,,,,,,METAR,60.0
FAOR 211700Z 20012KT 9999 FEW030TCU BKN080 18/12 Q1022 BECMG FEW030CB,FAOR,2015-02-21T17:00:00Z,-26.12,28.22,18.0,12.0,200,12,,6.21,30.177166,,,,,,,,,,,FEW,3000,BKN,8000,,,,,VFR,,,,,,,,,,,,METAR,1700.0
FAOB 211700Z AUTO 23010KT //// // ////// 16/06 Q1022,FAOB,2015-02-21T17:00:00Z,-34.6,20.27,16.0,6.0,230,10,,,30.177166,,,TRUE,,,,,,,,,,,,,,,,,,,,,,,,,,,,METAR,75.0
FAMM 211700Z 10004KT 9999 OVC050 23/15 Q1017 NOSIG,FAMM,2015-02-21T17:00:00Z,-25.8,25.52,23.0,15.0,100,4,,6.21,30.029528,,,,,,TRUE,,,,,OVC,5000,,,,,,,VFR,,,,,,,,,,,,METAR,1277.0
FALE 211700Z 21012KT 9999 -RA BKN008 OVC018 22/20 Q1014 NOSIG,FALE,2015-02-21T17:00:00Z,-29.62,31.12,22.0,20.0,210,12,,6.21,29.940945,,,,,,TRUE,,,,-RA,BKN,800,OVC,1800,,,,,IFR,,,,,,,,,,,,METAR,109.0
FALA 211700Z 14006KT CAVOK 22/12 Q1020 NOSIG,FALA,2015-02-21T17:00:00Z,-25.92,27.92,22.0,12.0,140,6,,6.21,30.11811,,,,,,TRUE,,,,,CAVOK,,,,,,,,VFR,,,,,,,,,,,,METAR,1377.0
FAKN 211700Z 04006KT 9999 FEW040 27/08 Q1013 NOSIG,FAKN,2015-02-21T17:00:00Z,-25.38,31.1,27.0,8.0,40,6,,6.21,29.911417,,,,,,TRUE,,,,,FEW,4000,,,,,,,VFR,,,,,,,,,,,,METAR,862.0
YBRM 211700Z AUTO 31008KT 9999 // NCD 31/25 Q1001,YBRM,2015-02-21T17:00:00Z,-17.93,122.22,31.0,25.0,310,8,,6.21,29.557087,,,TRUE,,,,,,,,,,,,,,,,,,,,,,,,,,,,METAR,9.0
YBRK 211700Z AUTO 00000KT 9999 // NCD 26/25 Q1008,YBRK,2015-02-21T17:00:00Z,-23.37,150.47,26.0,25.0,0,0,,6.21,29.763779,,,TRUE,,,,,,,,,,,,,,,,,,,,,,,,,,,,METAR,14.0
YBMA 211700Z AUTO 36007KT 9999 // NCD 29/21 Q1009,YBMA,2015-02-21T17:00:00Z,-20.67,139.47,29.0,21.0,360,7,,6.21,29.793306,,,TRUE,,,,,,,,,,,,,,,,,,,,,,,,,,,,METAR,344.0
YBHM 211700Z AUTO 33016KT 9999 // NCD 28/28 Q1008,YBHM,2015-02-21T17:00:00Z,-20.35,148.95,28.0,28.0,330,16,,6.21,29.763779,,,TRUE,,,,,,,,,,,,,,,,,,,,,,,,,,,,METAR,5.0
EIME 211700Z 28011KT 9999 FEW015 FEW020CB BKN250 04/00 Q1005 RESHRA,EIME,2015-02-21T17:00:00Z,53.3,-6.45,4.0,0.0,280,11,,6.21,29.675198,,,,,,,,,,,FEW,1500,FEW,2000,BKN,25000,,,VFR,,,,,,,,,,,,METAR,93.0
EIKY 211700Z 27006KT 9999 SCT024 BKN034 06/02 Q1010,EIKY,2015-02-21T17:00:00Z,52.18,-9.52,6.0,2.0,270,6,,6.21,29.822834,,,,,,,,,,,SCT,2400,BKN,3400,,,,,VFR,,,,,,,,,,,,METAR,34.0
UTAT 211700Z 03006MPS CAVOK 04/M01 Q1017 99CLRD70 NOSIG,UTAT,2015-02-21T17:00:00Z,41.77,59.83,4.0,-1.0,30,12,,6.21,30.029528,,,,,,TRUE,,,,,CAVOK,,,,,,,,VFR,,,,,,,,,,,,METAR,83.0
UTAM 211700Z 00000MPS 6000 -RA OVC010 10/10 Q1011 NOSIG RMK 882///55,UTAM,2015-02-21T17:00:00Z,37.62,61.9,10.0,10.0,0,0,,3.73,29.852362,,,,,,TRUE,,,,-RA,OVC,1000,,,,,,,MVFR,,,,,,,,,,,,METAR,222.0
UTAV 211700Z 36001MPS 7000 OVC033 10/08 Q1010 NOSIG,UTAV,2015-02-21T17:00:00Z,39.08,63.62,10.0,8.0,360,2,,4.35,29.822834,,,,,,TRUE,,,,,OVC,3300,,,,,,,MVFR,,,,,,,,,,,,METAR,192.0
UTAK 211700Z 04008MPS 9999 -RA OVC008 02/02 Q1014 R34/29//50 NOSIG,UTAK,2015-02-21T17:00:00Z,40.05,53.0,2.0,2.0,40,16,,6.21,29.940945,,,,,,TRUE,,,,-RA,OVC,800,,,,,,,IFR,,,,,,,,,,,,METAR,85.0
UKKM 211700Z AUTO 18002MPS 6000 NCD 01/00 Q1014,UKKM,2015-02-21T17:00:00Z,50.6,30.2,1.0,0.0,180,4,,3.73,29.940945,,,TRUE,,,,,,,,,,,,,,,,,,,,,,,,,,,,METAR,157.0
UKKK 211700Z 15003MPS 100V190 CAVOK 03/M01 Q1014 08190060 NOSIG,UKKK,2015-02-21T17:00:00Z,50.4,30.45,3.0,-1.0,150,6,,6.21,29.940945,,,,,,TRUE,,,,,CAVOK,,,,,,,,VFR,,,,,,,,,,,,METAR,179.0
UKLU 211700Z 12004MPS 9999 SCT200 07/M03 Q1009 NOSIG,UKLU,2015-02-21T17:00:00Z,48.63,22.27,7.0,-3.0,120,8,,6.21,29.793306,,,,,,TRUE,,,,,SCT,20000,,,,,,,VFR,,,,,,,,,,,,METAR,117.0
UKON 211700Z 15005MPS CAVOK 01/M09 Q1020 NOSIG,UKON,2015-02-21T17:00:00Z,47.05,31.92,1.0,-9.0,150,10,,6.21,30.11811,,,,,,TRUE,,,,,CAVOK,,,,,,,,VFR,,,,,,,,,,,,METAR,56.0
UKLI 211700Z 06002MPS 030V090 5000 BR BKN100 05/01 Q1009 NOSIG,UKLI,2015-02-21T17:00:00Z,48.88,24.68,5.0,1.0,60,4,,3.11,29.793306,,,,,,TRUE,,,,BR,BKN,10000,,,,,,,MVFR,,,,,,,,,,,,METAR,280.0
DAAD 211700Z 30010KT 8000 SCT030 SCT200 12/06 Q1002,DAAD,2015-02-21T17:00:00Z,35.32,4.2,12.0,6.0,300,10,,4.97,29.586615,,,,,,,,,,,SCT,3000,SCT,20000,,,,,MVFR,,,,,,,,,,,,METAR,461.0
DAER 211700Z 18014KT 7000 NSC 18/11 Q1005,DAER,2015-02-21T17:00:00Z,,,18.0,11.0,180,14,,4.35,29.675198,,,,,,,,,,,,,,,,,,,,,,,,,,,,,,,METAR,
DAUT 211700Z 35020KT 2000 DRSA SCT046 19/M05 Q1006,DAUT,2015-02-21T17:00:00Z,29.25,0.27,19.0,-5.0,350,20,,1.24,29.704725,,,,,,,,,,DRSA,SCT,4600,,,,,,,IFR,,,,,,,,,,,,METAR,312.0
DAUL 211700Z 30016KT 9999 FEW023TCU SCT026 11/05 Q1005,DAUL,2015-02-21T17:00:00Z,33.77,2.92,11.0,5.0,300,16,,6.21,29.675198,,,,,,,,,,,FEW,2300,SCT,2600,,,,,VFR,,,,,,,,,,,,METAR,765.0
DAUG 211700Z /////KT 7000 -RA BKN030 BKN090 09/09 Q1005,DAUG,2015-02-21T17:00:00Z,32.37,3.82,9.0,9.0,,,,4.35,29.675198,,,,,,,,,,-RA,BKN,3000,BKN,9000,,,,,MVFR,,,,,,,,,,,,METAR,450.0
DAUE 211700Z 34014KT CAVOK 15/06 Q1005,DAUE,2015-02-21T17:00:00Z,30.57,2.87,15.0,6.0,340,14,,6.21,29.675198,,,,,,,,,,,CAVOK,,,,,,,,VFR,,,,,,,,,,,,METAR,397.0
DAUB 211700Z 18008KT 6000 OVC030 14/10 Q1003,DAUB,2015-02-21T17:00:00Z,34.78,5.72,14.0,10.0,180,8,,3.73,29.616142,,,,,,,,,,,OVC,3000,,,,,,,MVFR,,,,,,,,,,,,METAR,87.0
DAUA 211700Z 29018KT 5000 DRSA FEW046 18/05 Q1008,DAUA,2015-02-21T17:00:00Z,27.83,-0.18,18.0,5.0,290,18,,3.11,29.763779,,,,,,,,,,DRSA,FEW,4600,,,,,,,MVFR,,,,,,,,,,,,METAR,263.0
DAOV 211700Z 27016KT 9999 OVC030 10/06 Q1007,DAOV,2015-02-21T17:00:00Z,35.2,0.15,10.0,6.0,270,16,,6.21,29.734253,,,,,,,,,,,OVC,3000,,,,,,,MVFR,,,,,,,,,,,,METAR,514.0
DAOR 211700Z 35016KT 8000 SCT033 13/00 Q1010,DAOR,2015-02-21T17:00:00Z,31.65,-2.27,13.0,0.0,350,16,,4.97,29.822834,,,,,,,,,,,SCT,3300,,,,,,,MVFR,,,,,,,,,,,,METAR,773.0
DAOI 211700Z 24010KT 9999 BKN026 SCT100 11/10 Q1006,DAOI,2015-02-21T17:00:00Z,36.22,1.32,11.0,10.0,240,10,,6.21,29.704725,,,,,,,,,,,BKN,2600,SCT,10000,,,,,MVFR,,,,,,,,,,,,METAR,143.0
DAOF 211700Z 33014KT CAVOK 21/M10 Q1012,DAOF,2015-02-21T17:00:00Z,27.7,-8.17,21.0,-10.0,330,14,,6.21,29.88189,,,,,,,,,,,CAVOK,,,,,,,,VFR,,,,,,,,,,,,METAR,431.0
DAOB 211700Z 27018KT 8000 BKN020 06/05 Q1005,DAOB,2015-02-21T17:00:00Z,35.33,1.47,6.0,5.0,270,18,,4.97,29.675198,,,,,,,,,,,BKN,2000,,,,,,,MVFR,,,,,,,,,,,,METAR,989.0
DAEF 211700Z 33006KT 9999 BKN033 14/11 Q1007,DAEF,2015-02-21T17:00:00Z,28.43,7.55,14.0,11.0,330,6,,6.21,29.734253,,,,,,,,,,,BKN,3300,,,,,,,VFR,,,,,,,,,,,,METAR,472.0
DABT 211700Z 27014KT 8000 SCT020TCU BKN200 11/03 Q1002,DABT,2015-02-21T17:00:00Z,35.75,6.32,11.0,3.0,270,14,,4.97,29.586615,,,,,,,,,,,SCT,2000,BKN,20000,,,,,MVFR,,,,,,,,,,,,METAR,1052.0
DAAY 211700Z 30016KT 6000 SCT013 BKN026 08/03 Q1010,DAAY,2015-02-21T17:00:00Z,33.53,-0.25,8.0,3.0,300,16,,3.73,29.822834,,,,,,,,,,,SCT,1300,BKN,2600,,,,,MVFR,,,,,,,,,,,,METAR,1149.0
DAAV 211700Z 24003KT 9999 SCT020 FEW023CB BKN030 13/11 Q1003,DAAV,2015-02-21T17:00:00Z,36.8,5.88,13.0,11.0,240,3,,6.21,29.616142,,,,,,,,,,,SCT,2000,FEW,2300,BKN,3000,,,MVFR,,,,,,,,,,,,METAR,11.0
DAAS 211700Z 28004KT 8000 SCT010 BKN026 07/05 Q1004,DAAS,2015-02-21T17:00:00Z,36.18,5.33,7.0,5.0,280,4,,4.97,29.64567,,,,,,,,,,,SCT,1000,BKN,2600,,,,,MVFR,,,,,,,,,,,,METAR,1038.0
DTTZ 211700Z 10017KT 5000 -RA BKN030 12/11 Q1002 NOSIG,DTTZ,2015-02-21T17:00:00Z,33.92,8.08,12.0,11.0,100,17,,3.11,29.586615,,,,,,TRUE,,,,-RA,BKN,3000,,,,,,,MVFR,,,,,,,,,,,,METAR,93.0
DTTX 211700Z 17003KT 6000 -RA SCT020 BKN030 12/12 Q1005 NOSIG,DTTX,2015-02-21T17:00:00Z,34.72,10.67,12.0,12.0,170,3,,3.73,29.675198,,,,,,TRUE,,,,-RA,SCT,2000,BKN,3000,,,,,MVFR,,,,,,,,,,,,METAR,23.0
DTTJ 211700Z 00000KT 6000 RA SCT026 13/12 Q1005 NOSIG,DTTJ,2015-02-21T17:00:00Z,33.87,10.77,13.0,12.0,0,0,,3.73,29.675198,,,,,,TRUE,,,,RA,SCT,2600,,,,,,,MVFR,,,,,,,,,,,,METAR,4.0
DTTF 211700Z 16015KT 8000 RA BKN026 SCT030 12/08 Q1003,DTTF,2015-02-21T17:00:00Z,34.42,8.82,12.0,8.0,160,15,,4.97,29.616142,,,,,,,,,,RA,BKN,2600,SCT,3000,,,,,MVFR,,,,,,,,,,,,METAR,314.0
DTTA 211700Z 16004KT 8000 SCT026 14/10 Q1003 NOSIG,DTTA,2015-02-21T17:00:00Z,36.85,10.22,14.0,10.0,160,4,,4.97,29.616142,,,,,,TRUE,,,,,SCT,2600,,,,,,,MVFR,,,,,,,,,,,,METAR,4.0
DTNH 211700Z AUTO 17004KT CAVOK 14/11 Q1003,DTNH,2015-02-21T17:00:00Z,36.07,10.43,14.0,11.0,170,4,,6.21,29.616142,,,TRUE,,,,,,,,CAVOK,,,,,,,,VFR,,,,,,,,,,,,METAR,2.0
DTMB 211700Z 16007KT 6000 -RA SCT023 BKN033 14/12 Q1005 NOSIG,DTMB,2015-02-21T17:00:00Z,35.77,10.75,14.0,12.0,160,7,,3.73,29.675198,,,,,,TRUE,,,,-RA,SCT,2300,BKN,3300,,,,,MVFR,,,,,,,,,,,,METAR,2.0
DTKA 211700Z 00000KT 9999 SCT020 SCT030 13/10 Q1003 NOSIG,DTKA,2015-02-21T17:00:00Z,36.98,8.88,13.0,10.0,0,0,,6.21,29.616142,,,,,,TRUE,,,,,SCT,2000,SCT,3000,,,,,VFR,,,,,,,,,,,,METAR,21.0
DAUZ 211700Z 26013KT 1000 HZ FEW033TCU SCT040 BKN080 16/12 Q1006,DAUZ,2015-02-21T17:00:00Z,28.05,9.62,16.0,12.0,260,13,,0.62,29.704725,,,,,,,,,,HZ,FEW,3300,SCT,4000,BKN,8000,,,LIFR,,,,,,,,,,,,METAR,562.0
DAOO 211700Z 26015KT 9999 SCT013 FEW026CB BKN030 13/10 Q1007,DAOO,2015-02-21T17:00:00Z,35.62,-0.6,13.0,10.0,260,15,,6.21,29.734253,,,,,,,,,,,SCT,1300,FEW,2600,BKN,3000,,,MVFR,,,,,,,,,,,,METAR,90.0
DAON 211700Z 24012KT 9999 SCT010 BKN026 11/09 Q1009,DAON,2015-02-21T17:00:00Z,35.02,-1.47,11.0,9.0,240,12,,6.21,29.793306,,,,,,,,,,,SCT,1000,BKN,2600,,,,,MVFR,,,,,,,,,,,,METAR,247.0
DABC 211700Z 32013KT 9999 FEW023CB SCT026 BKN030 08/06 Q1003,DABC,2015-02-21T17:00:00Z,36.27,6.62,8.0,6.0,320,13,,6.21,29.616142,,,,,,,,,,,FEW,2300,SCT,2600,BKN,3000,,,MVFR,,,,,,,,,,,,METAR,694.0
DAAG 211700Z 00000KT 5000 -TSRA FEW020TCU SCT030CB BKN080 11/10 Q1005,DAAG,2015-02-21T17:00:00Z,36.72,3.22,11.0,10.0,0,0,,3.11,29.675198,,,,,,,,,,-TSRA,FEW,2000,SCT,3000,BKN,8000,,,MVFR,,,,,,,,,,,,METAR,25.0
OJAQ 211700Z 36009KT 9999 BKN045 12/04 Q1017 NOSIG,OJAQ,2015-02-21T17:00:00Z,29.62,35.02,12.0,4.0,360,9,,6.21,30.029528,,,,,,TRUE,,,,,BKN,4500,,,,,,,VFR,,,,,,,,,,,,METAR,51.0
OJAM 211700Z 28004KT 5000 HZ SCT030 05/03 Q1016 NOSIG,OJAM,2015-02-21T17:00:00Z,31.97,35.97,5.0,3.0,280,4,,3.11,30.0,,,,,,TRUE,,,,HZ,SCT,3000,,,,,,,MVFR,,,,,,,,,,,,METAR,773.0
OJAI 211700Z 25005KT 9999 SCT030 05/04 Q1017 NOSIG,OJAI,2015-02-21T17:00:00Z,31.72,36.0,5.0,4.0,250,5,,6.21,30.029528,,,,,,TRUE,,,,,SCT,3000,,,,,,,VFR,,,,,,,,,,,,METAR,730.0
OLBA 211700Z 02005KT 9999 SCT026 13/03 Q1019,OLBA,2015-02-21T17:00:00Z,33.82,35.47,13.0,3.0,20,5,,6.21,30.088583,,,,,,,,,,,SCT,2600,,,,,,,VFR,,,,,,,,,,,,METAR,19.0
ZYHB 211700Z 18005MPS 6000 OVC020 02/M01 Q1003 NOSIG,ZYHB,2015-02-21T17:00:00Z,45.62,126.25,2.0,-1.0,180,10,,3.73,29.616142,,,,,,TRUE,,,,,OVC,2000,,,,,,,MVFR,,,,,,,,,,,,METAR,140.0
ZYCC 211700Z 23008MPS 5000 BR BKN023 00/M03 Q1007 NOSIG,ZYCC,2015-02-21T17:00:00Z,43.98,125.68,0.0,-3.0,230,16,,3.11,29.734253,,,,,,TRUE,,,,BR,BKN,2300,,,,,,,MVFR,,,,,,,,,,,,METAR,238.0
ZUCK 211700Z 03003MPS 9999 -RA NSC 14/09 Q1016 NOSIG,ZUCK,2015-02-21T17:00:00Z,29.72,106.63,14.0,9.0,30,6,,6.21,30.0,,,,,,TRUE,,,,-RA,,,,,,,,,,,,,,,,,,,,,METAR,351.0
ZSOF 211700Z 21002MPS 2500 BR NSC 03/02 Q1021 BECMG TL1830 1400,ZSOF,2015-02-21T17:00:00Z,31.78,117.3,3.0,2.0,210,4,,1.55,30.147638,,,,,,,,,,BR,,,,,,,,,,,,,,,,,,,,,METAR,33.0
ZSNJ 211700Z 32003MPS 280V340 5000 BR OVC030 06/04 Q1021 NOSIG,ZSNJ,2015-02-21T17:00:00Z,31.75,118.87,6.0,4.0,320,6,,3.11,30.147638,,,,,,TRUE,,,,BR,OVC,3000,,,,,,,MVFR,,,,,,,,,,,,METAR,33.0
ZLLL 211700Z VRB01MPS 9999 BKN046 M03/M13 Q1021 NOSIG,ZLLL,2015-02-21T17:00:00Z,36.52,103.62,-3.0,-13.0,0,2,,6.21,30.147638,,,,,,TRUE,,,,,BKN,4600,,,,,,,VFR,,,,,,,,,,,,METAR,1947.0
ZJSY 211700Z 10003MPS 9999 -RA SCT020 25/22 Q1014 NOSIG,ZJSY,2015-02-21T17:00:00Z,18.3,109.42,25.0,22.0,100,6,,6.21,29.940945,,,,,,TRUE,,,,-RA,SCT,2000,,,,,,,VFR,,,,,,,,,,,,METAR,27.0
ZJHK 211700Z 13002MPS 7000 NSC 22/19 Q1013 NOSIG,ZJHK,2015-02-21T17:00:00Z,19.93,110.47,22.0,19.0,130,4,,4.35,29.911417,,,,,,TRUE,,,,,,,,,,,,,,,,,,,,,,,,,METAR,23.0
ZHHH 211700Z 00000MPS 2500 BR NSC 07/06 Q1021 NOSIG,ZHHH,2015-02-21T17:00:00Z,30.78,114.22,7.0,6.0,0,0,,1.55,30.147638,,,,,,TRUE,,,,BR,,,,,,,,,,,,,,,,,,,,,METAR,23.0
ZHCC 211700Z 34005MPS 8000 NSC 10/M09 Q1021 NOSIG,ZHCC,2015-02-21T17:00:00Z,34.52,113.83,10.0,-9.0,340,10,,4.97,30.147638,,,,,,TRUE,,,,,,,,,,,,,,,,,,,,,,,,,METAR,111.0
ZGHA 211700Z 29001MPS 4000 BR SCT050 10/06 Q1021 NOSIG,ZGHA,2015-02-21T17:00:00Z,28.18,113.22,10.0,6.0,290,2,,2.49,30.147638,,,,,,TRUE,,,,BR,SCT,5000,,,,,,,IFR,,,,,,,,,,,,METAR,66.0
ZBHH 211700Z 28007MPS 7000 FEW040 M14/M24 Q1025 NOSIG,ZBHH,2015-02-21T17:00:00Z,40.85,111.82,-14.0,-24.0,280,14,,4.35,30.265747,,,,,,TRUE,,,,,FEW,4000,,,,,,,MVFR,,,,,,,,,,,,METAR,1065.0
TTCP 211700Z 05014KT 7000 -SHRA SCT018 30/21 Q1015 NOSIG RMK ADJ SHWRS W/NW/N/NE,TTCP,2015-02-21T17:00:00Z,11.15,-60.85,30.0,21.0,50,14,,4.35,29.970472,,,,,,TRUE,,,,-SHRA,SCT,1800,,,,,,,MVFR,,,,,,,,,,,,METAR,8.0
TTPP 211700Z 12014KT 9999 SCT022 32/21 Q1014 NOSIG,TTPP,2015-02-21T17:00:00Z,10.58,-61.35,32.0,21.0,120,14,,6.21,29.940945,,,,,,TRUE,,,,,SCT,2200,,,,,,,VFR,,,,,,,,,,,,METAR,15.0
DTTN 211700Z 00000KT 9999 SCT020 15/11 Q1002,DTTN,2015-02-21T17:00:00Z,36.47,8.8,15.0,11.0,0,0,,6.21,29.586615,,,,,,,,,,,SCT,2000,,,,,,,VFR,,,,,,,,,,,,METAR,144.0
DTTK 211700Z 00000KT 8000 BKN023 SCT030 15/12 Q1004,DTTK,2015-02-21T17:00:00Z,35.67,10.08,15.0,12.0,0,0,,4.97,29.64567,,,,,,,,,,,BKN,2300,SCT,3000,,,,,MVFR,,,,,,,,,,,,METAR,68.0
DTTD 211700Z 31006KT 6000 -RA FEW026 BKN030 14/11 Q1006,DTTD,2015-02-21T17:00:00Z,32.32,10.4,14.0,11.0,310,6,,3.73,29.704725,,,,,,,,,,-RA,FEW,2600,BKN,3000,,,,,MVFR,,,,,,,,,,,,METAR,301.0
DTTB 211700Z 31005KT 9999 SCT016TCU BKN030 14/10 Q1003,DTTB,2015-02-21T17:00:00Z,37.25,9.8,14.0,10.0,310,5,,6.21,29.616142,,,,,,,,,,,SCT,1600,BKN,3000,,,,,MVFR,,,,,,,,,,,,METAR,3.0
SLET 211700Z 15015G25KT 9999 FEW020 BKN070 BKN200 29/20 Q1013,SLET,2015-02-21T17:00:00Z,-17.8,-63.17,29.0,20.0,150,15,25,6.21,29.911417,,,,,,,,,,,FEW,2000,BKN,7000,BKN,20000,,,VFR,,,,,,,,,,,,METAR,414.0
NGTT 211700Z VRB02KT 9999 FEW020 27/22 Q1008,NGTT,2015-02-21T17:00:00Z,1.35,172.92,27.0,22.0,0,2,,6.21,29.763779,,,,,,,,,,,FEW,2000,,,,,,,VFR,,,,,,,,,,,,METAR,2.0
LERI 211700Z 30007KT 9999 FEW050 14/05 Q1005 NOSIG,LERI,2015-02-21T17:00:00Z,37.95,-1.22,14.0,5.0,300,7,,6.21,29.675198,,,,,,TRUE,,,,,FEW,5000,,,,,,,VFR,,,,,,,,,,,,METAR,75.0
FAVV 211700Z AUTO /////KT //// // ////// 18/15 Q1021,FAVV,2015-02-21T17:00:00Z,-26.57,27.97,18.0,15.0,,,,,30.147638,,,TRUE,,,,,,,,,,,,,,,,,,,,,,,,,,,,METAR,1483.0
FASI 211700Z AUTO /////KT //// // ////// 19/12 Q1022,FASI,2015-02-21T17:00:00Z,-26.25,28.4,19.0,12.0,,,,,30.177166,,,TRUE,,,,,,,,,,,,,,,,,,,,,,,,,,,,METAR,1628.0
FAJB 211700Z AUTO 00000KT //// // ////// 18/13 Q1021,FAJB,2015-02-21T17:00:00Z,-26.15,28.0,18.0,13.0,0,0,,,30.147638,,,TRUE,,,,,,,,,,,,,,,,,,,,,,,,,,,,METAR,1626.0
FAGC 211700Z AUTO 18010KT //// // ////// 19/10 Q1021,FAGC,2015-02-21T17:00:00Z,-25.98,28.13,19.0,10.0,180,10,,,30.147638,,,TRUE,,,,,,,,,,,,,,,,,,,,,,,,,,,,METAR,1623.0
GMMX 211700Z 27009KT 9999 SCT033 SCT080 16/05 Q1016 NOSIG,GMMX,2015-02-21T17:00:00Z,31.62,-8.02,16.0,5.0,270,9,,6.21,30.0,,,,,,TRUE,,,,,SCT,3300,SCT,8000,,,,,VFR,,,,,,,,,,,,METAR,466.0
FAKM 211700Z 02012KT 9999 FEW060CB SCT100 19/14 Q1016,FAKM,2015-02-21T17:00:00Z,-28.8,24.77,19.0,14.0,20,12,,6.21,30.0,,,,,,,,,,,FEW,6000,SCT,10000,,,,,VFR,,,,,,,,,,,,METAR,1192.0
YSSY 211700Z 11007KT 9999 VCSH FEW020 SCT038 22/20 Q1016 INTER 1700/1800 5000 SHRA BKN010 INTER 1900/2000 5000 SHRA BKN010,YSSY,2015-02-21T17:00:00Z,-33.95,151.17,22.0,20.0,110,7,,6.21,30.0,,,,,,,,,,VCSH,FEW,2000,SCT,3800,,,,,VFR,,,,,,,,,,,,METAR,3.0
YPXM 211700Z AUTO 00000KT 9999 // SCT031 25/24 Q1012,YPXM,2015-02-21T17:00:00Z,-10.45,105.67,25.0,24.0,0,0,,6.21,29.88189,,,TRUE,,,,,,,,SCT,3100,,,,,,,VFR,,,,,,,,,,,,METAR,259.0
YPTN 211700Z AUTO 35006KT 9999 // NCD 24/22 Q1007,YPTN,2015-02-21T17:00:00Z,-14.52,132.38,24.0,22.0,350,6,,6.21,29.734253,,,TRUE,,,,,,,,,,,,,,,,,,,,,,,,,,,,METAR,109.0
YPPH 211700Z 19015KT 9999 FEW018 19/15 Q1012 NOSIG,YPPH,2015-02-21T17:00:00Z,-31.93,115.98,19.0,15.0,190,15,,6.21,29.88189,,,,,,TRUE,,,,,FEW,1800,,,,,,,VFR,,,,,,,,,,,,METAR,13.0
YPLM 211700Z AUTO 22019KT 9999 // NCD 24/19 Q1005,YPLM,2015-02-21T17:00:00Z,-22.22,114.07,24.0,19.0,220,19,,6.21,29.675198,,,TRUE,,,,,,,,,,,,,,,,,,,,,,,,,,,,METAR,6.0
YPKU 211700Z AUTO 35001KT 9999 // OVC046 25/24 Q1006,YPKU,2015-02-21T17:00:00Z,-15.77,128.68,25.0,24.0,350,1,,6.21,29.704725,,,TRUE,,,,,,,,OVC,4600,,,,,,,VFR,,,,,,,,,,,,METAR,45.0
YPDN 211700Z 33010KT 9999 FEW020 BKN300 28/24 Q1007,YPDN,2015-02-21T17:00:00Z,-12.42,130.9,28.0,24.0,330,10,,6.21,29.734253,,,,,,,,,,,FEW,2000,BKN,30000,,,,,VFR,,,,,,,,,,,,METAR,30.0
YPCC 211700Z AUTO 15008KT 9999 // SCT073 BKN099 28/25 Q1013,YPCC,2015-02-21T17:00:00Z,-12.17,96.82,28.0,25.0,150,8,,6.21,29.911417,,,TRUE,,,,,,,,SCT,7300,BKN,9900,,,,,VFR,,,,,,,,,,,,METAR,3.0
YPAD 211700Z 05005KT CAVOK 24/17 Q1008 NOSIG,YPAD,2015-02-21T17:00:00Z,-34.95,138.52,24.0,17.0,50,5,,6.21,29.763779,,,,,,TRUE,,,,,CAVOK,,,,,,,,VFR,,,,,,,,,,,,METAR,4.0
FAWK 211700Z AUTO 19008KT //// // ////// 22/10 Q1020,FAWK,2015-02-21T17:00:00Z,-25.82,28.22,22.0,10.0,190,8,,,30.11811,,,TRUE,,,,,,,,,,,,,,,,,,,,,,,,,,,,METAR,1500.0
FAWB 211700Z AUTO 20009KT //// // ////// 24/10 Q1017,FAWB,2015-02-21T17:00:00Z,-25.63,28.22,24.0,10.0,200,9,,,30.029528,,,TRUE,,,,,,,,,,,,,,,,,,,,,,,,,,,,METAR,1248.0
YMOR 211700Z AUTO 00000KT 9999 // OVC082 24/17 Q1011,YMOR,2015-02-21T17:00:00Z,-29.5,149.85,24.0,17.0,0,0,,6.21,29.852362,,,TRUE,,,,,,,,OVC,8200,,,,,,,VFR,,,,,,,,,,,,METAR,214.0
YMML 211700Z 01010KT CAVOK 24/12 Q1012 FM1930 36018G30KT CAVOK FM1900 MOD TURB BLW 5000FT,YMML,2015-02-21T17:00:00Z,-37.67,144.82,24.0,12.0,10,10,,6.21,29.88189,,,,,,,,,,,CAVOK,,,,,,,,VFR,,,,,,,,,,,,METAR,141.0
YMIA 211700Z AUTO 05004KT 9999 // NCD 24/12 Q1009,YMIA,2015-02-21T17:00:00Z,-34.23,142.08,24.0,12.0,50,4,,6.21,29.793306,,,TRUE,,,,,,,,,,,,,,,,,,,,,,,,,,,,METAR,51.0
YMEN 211700Z AUTO 01009KT 9999 // BKN105 26/14 Q1011,YMEN,2015-02-21T17:00:00Z,-37.72,144.9,26.0,14.0,10,9,,6.21,29.852362,,,TRUE,,,,,,,,BKN,10500,,,,,,,VFR,,,,,,,,,,,,METAR,86.0
YMEK 211700Z AUTO 18008KT 9999 // NCD 30/08 Q1007,YMEK,2015-02-21T17:00:00Z,-26.62,118.55,30.0,8.0,180,8,,6.21,29.734253,,,TRUE,,,,,,,,,,,,,,,,,,,,,,,,,,,,METAR,522.0
YMDG 211700Z AUTO 14006KT //// // SCT020 20/16 Q1016,YMDG,2015-02-21T17:00:00Z,-32.57,149.62,20.0,16.0,140,6,,,30.0,,,TRUE,,,,,,,,SCT,2000,,,,,,,,,,,,,,,,,,,METAR,471.0
YMAY 211700Z AUTO 12003KT 9999 // NCD 22/17 Q1014,YMAY,2015-02-21T17:00:00Z,-36.07,146.93,22.0,17.0,120,3,,6.21,29.940945,,,TRUE,,,,,,,,,,,,,,,,,,,,,,,,,,,,METAR,171.0
CZMT 211700Z 00000KT 15SM FEW005 FEW040 OVC200 M02/M02 A3046 RMK CF1SC1CS7 RIME ON INDICATOR CF TR N SLP315,CZMT,2015-02-21T17:00:00Z,54.03,-132.13,-2.0,-2.0,0,0,,15.0,30.46063,1031.5,,,,,,,,,,FEW,500,FEW,4000,OVC,20000,,,VFR,,,,,,,,,,,,METAR,8.0
CZFA 211700Z 00000KT 30SM FEW016 FEW180 FEW200 SCT240 M13/M14 A3032 RMK SC1AC1CI1CI2 SC TR FROIN SLP325,CZFA,2015-02-21T17:00:00Z,62.2,-133.37,-13.0,-14.0,0,0,,30.0,30.318897,1032.5,,,,,,,,,,FEW,1600,FEW,18000,FEW,20000,SCT,24000,VFR,,,,,,,,,,,,METAR,717.0
CYZY 211700Z AUTO 13002KT 9SM CLR M04/M04 A3054 RMK SLP381,CYZY,2015-02-21T17:00:00Z,55.28,-123.12,-4.0,-4.0,130,2,,9.0,30.540354,1038.1,,TRUE,,,,,,,,CLR,,,,,,,,VFR,,,,,,,,,,,,METAR,690.0
CYZW 211700Z 08004KT 20SM BKN045 M13/M14 A3041 RMK SC5 CLIMAT -8.1/-13.0/0.0CM/0.0MM MWE/44049 SLP352,CYZW,2015-02-21T17:00:00Z,60.17,-132.75,-13.0,-14.0,80,4,,20.0,30.410433,1035.2,,,,,,,,,,BKN,4500,,,,,,,VFR,,,,,,,,,,,,METAR,705.0
CYYF 211700Z 34012KT 15SM SCT061 06/M03 A3036 RMK SC4 SLP292,CYYF,2015-02-21T17:00:00Z,49.47,-119.58,6.0,-3.0,340,12,,15.0,30.360237,1029.2,,,,,,,,,,SCT,6100,,,,,,,VFR,,,,,,,,,,,,METAR,344.0
VTCC 211700Z 32001KT CAVOK 19/10 Q1014 A2995 NOSIG,VTCC,2015-02-21T17:00:00Z,18.77,98.97,19.0,10.0,320,1,,6.21,29.940945,,,,,,TRUE,,,,,CAVOK,,,,,,,,VFR,,,,,,,,,,,,METAR,314.0
VTBD 211700Z 19005KT 9999 FEW020 SCT300 27/24 Q1012 NOSIG,VTBD,2015-02-21T17:00:00Z,13.92,100.6,27.0,24.0,190,5,,6.21,29.88189,,,,,,TRUE,,,,,FEW,2000,SCT,30000,,,,,VFR,,,,,,,,,,,,METAR,3.0
VTBS 211700Z 19005KT 9999 FEW020 SCT300 27/23 Q1013 NOSIG,VTBS,2015-02-21T17:00:00Z,13.68,100.75,27.0,23.0,190,5,,6.21,29.911417,,,,,,TRUE,,,,,FEW,2000,SCT,30000,,,,,VFR,,,,,,,,,,,,METAR,2.0
DAUH 211700Z 19015KT 9999 SCT040 12/10 Q1004,DAUH,2015-02-21T17:00:00Z,31.67,6.15,12.0,10.0,190,15,,6.21,29.64567,,,,,,,,,,,SCT,4000,,,,,,,VFR,,,,,,,,,,,,METAR,142.0
DAAT 211700Z 22011KT 1500 HZ SCT020 SCT033 BKN100 13/10 Q1015,DAAT,2015-02-21T17:00:00Z,22.82,5.47,13.0,10.0,220,11,,0.93,29.970472,,,,,,,,,,HZ,SCT,2000,SCT,3300,BKN,10000,,,LIFR,,,,,,,,,,,,METAR,1377.0
UMMS 211700Z 14004G07MPS 9000 NSC 04/M01 Q1006 R13/CLRD// NOSIG,UMMS,2015-02-21T17:00:00Z,53.88,28.03,4.0,-1.0,140,8,14,5.59,29.704725,,,,,,TRUE,,,,,,,,,,,,,,,,,,,,,,,,,METAR,205.0
UMMM 211700Z 15003MPS CAVOK 03/M02 Q1006 R12/610245 NOSIG RMK QFE734,UMMM,2015-02-21T17:00:00Z,53.87,27.52,3.0,-2.0,150,6,,6.21,29.704725,,,,,,TRUE,,,,,CAVOK,,,,,,,,VFR,,,,,,,,,,,,METAR,234.0
UMII 211700Z 14003G06MPS 3500 BR FEW030 SCT100 02/M01 Q1007 R23/390135 TEMPO 2000 SCT005,UMII,2015-02-21T17:00:00Z,55.13,30.35,2.0,-1.0,140,6,12,2.17,29.734253,,,,,,,,,,BR,FEW,3000,SCT,10000,,,,,IFR,,,,,,,,,,,,METAR,208.0
UMGG 211700Z 17006G09MPS 9999 OVC011 03/01 Q1013 R10/290050 NOSIG,UMGG,2015-02-21T17:00:00Z,52.53,31.02,3.0,1.0,170,12,17,6.21,29.911417,,,,,,TRUE,,,,,OVC,1100,,,,,,,MVFR,,,,,,,,,,,,METAR,144.0
YSRI 211700Z AUTO 19004KT 9999 // SCT014 BKN043 20/20 Q1016,YSRI,2015-02-21T17:00:00Z,-33.6,150.77,20.0,20.0,190,4,,6.21,30.0,,,TRUE,,,,,,,,SCT,1400,BKN,4300,,,,,VFR,,,,,,,,,,,,METAR,21.0
YSNF 211700Z AUTO 08013KT 9999 // OVC058 21/17 Q1017,YSNF,2015-02-21T17:00:00Z,-29.02,167.92,21.0,17.0,80,13,,6.21,30.029528,,,TRUE,,,,,,,,OVC,5800,,,,,,,VFR,,,,,,,,,,,,METAR,109.0
YSDU 211700Z AUTO 11012KT 9999 // NCD 21/17 Q1014,YSDU,2015-02-21T17:00:00Z,-32.22,148.57,21.0,17.0,110,12,,6.21,29.940945,,,TRUE,,,,,,,,,,,,,,,,,,,,,,,,,,,,METAR,275.0
YSCB 211700Z AUTO 00000KT 9999 // NCD 16/15 Q1018,YSCB,2015-02-21T17:00:00Z,-35.28,149.17,16.0,15.0,0,0,,6.21,30.059055,,,TRUE,,,,,,,,,,,,,,,,,,,,,,,,,,,,METAR,577.0
YPPD 211700Z AUTO 02013KT 9999 // NCD 31/27 Q1002,YPPD,2015-02-21T17:00:00Z,-20.37,118.62,31.0,27.0,20,13,,6.21,29.586615,,,TRUE,,,,,,,,,,,,,,,,,,,,,,,,,,,,METAR,6.0
YPKG 211700Z AUTO 14009KT 9999 // NCD 24/08 Q1009,YPKG,2015-02-21T17:00:00Z,-30.77,121.45,24.0,8.0,140,9,,6.21,29.793306,,,TRUE,,,,,,,,,,,,,,,,,,,,,,,,,,,,METAR,360.0
YPGV 211700Z AUTO 31006KT 9999 // BKN019 BKN022 27/25 Q1008,YPGV,2015-02-21T17:00:00Z,-12.27,136.82,27.0,25.0,310,6,,6.21,29.763779,,,TRUE,,,,,,,,BKN,1900,BKN,2200,,,,,MVFR,,,,,,,,,,,,METAR,55.0
YPEA 211700Z AUTO 19006KT 9999 // NCD 17/15 Q1012,YPEA,2015-02-21T17:00:00Z,-31.67,116.02,17.0,15.0,190,6,,6.21,29.88189,,,TRUE,,,,,,,,,,,,,,,,,,,,,,,,,,,,METAR,49.0
YMLT 211700Z AUTO 02003KT 9999 // NCD 17/16 Q1015,YMLT,2015-02-21T17:00:00Z,-41.52,147.18,17.0,16.0,20,3,,6.21,29.970472,,,TRUE,,,,,,,,,,,,,,,,,,,,,,,,,,,,METAR,178.0
YMHB 211700Z 01010KT CAVOK 21/14 Q1010,YMHB,2015-02-21T17:00:00Z,-42.82,147.52,21.0,14.0,10,10,,6.21,29.822834,,,,,,,,,,,CAVOK,,,,,,,,VFR,,,,,,,,,,,,METAR,27.0
YFRT 211700Z AUTO 14008KT //// // ////// 18/16 Q1010,YFRT,2015-02-21T17:00:00Z,-30.83,128.12,18.0,16.0,140,8,,,29.822834,,,TRUE,,,,,,,,,,,,,,,,,,,,,,,,,,,,METAR,156.0
YCIN 211700Z AUTO 02009KT //// // NCD 22/20 Q1004,YCIN,2015-02-21T17:00:00Z,-17.58,123.83,22.0,20.0,20,9,,,29.64567,,,TRUE,,,,,,,,,,,,,,,,,,,,,,,,,,,,METAR,91.0
NZCH 211700Z AUTO 25005KT 210V290 9999 -RA BKN007/// BKN013/// OVC021/// 15/15 Q1021 TEMPO 6000 SHRA,NZCH,2015-02-21T17:00:00Z,-43.47,172.55,15.0,15.0,250,5,,6.21,30.147638,,,TRUE,,,,,,,-RA,,,,,,,,,,,,,,,,,,,,,METAR,34.0
NZWN 211700Z AUTO 02012KT 9999 BKN019/// OVC026/// 18/14 Q1021 NOSIG,NZWN,2015-02-21T17:00:00Z,-41.32,174.8,18.0,14.0,20,12,,6.21,30.147638,,,TRUE,,,TRUE,,,,,,,,,,,,,,,,,,,,,,,,,METAR,7.0
NZAA 211700Z AUTO 36003KT 9999 FEW049/// SCT055/// BKN075/// 19/17 Q1022 NOSIG,NZAA,2015-02-21T17:00:00Z,-37.02,174.8,19.0,17.0,360,3,,6.21,30.177166,,,TRUE,,,TRUE,,,,,,,,,,,,,,,,,,,,,,,,,METAR,6.0
VVCR 211700Z 28002KT 8000 NSC 23/21 Q1014 NOSIG,VVCR,2015-02-21T17:00:00Z,12.0,109.22,23.0,21.0,280,2,,4.97,29.940945,,,,,,TRUE,,,,,,,,,,,,,,,,,,,,,,,,,METAR,12.0
VVPB 211700Z VRB02KT 5000 NSC 23/23 Q1012 NOSIG,VVPB,2015-02-21T17:00:00Z,16.38,107.7,23.0,23.0,0,2,,3.11,29.88189,,,,,,TRUE,,,,,,,,,,,,,,,,,,,,,,,,,METAR,17.0
VVDN 211700Z VRB02KT 6000 FEW015 SCT060 25/24 Q1013 NOSIG,VVDN,2015-02-21T17:00:00Z,16.02,108.2,25.0,24.0,0,2,,3.73,29.911417,,,,,,TRUE,,,,,FEW,1500,SCT,6000,,,,,MVFR,,,,,,,,,,,,METAR,7.0
VVNB 211700Z 11010KT 6000 SCT010 BKN100 23/21 Q1013 NOSIG,VVNB,2015-02-21T17:00:00Z,21.22,105.8,23.0,21.0,110,10,,3.73,29.911417,,,,,,TRUE,,,,,SCT,1000,BKN,10000,,,,,MVFR,,,,,,,,,,,,METAR,12.0
VVTS 211700Z 12005KT 090V150 9999 FEW023 25/21 Q1012 NOSIG,VVTS,2015-02-21T17:00:00Z,10.82,106.67,25.0,21.0,120,5,,6.21,29.88189,,,,,,TRUE,,,,,FEW,2300,,,,,,,VFR,,,,,,,,,,,,METAR,19.0
SAEZ 211700Z 03007KT 9999 FEW040 FEW050TCU BKN200 26/17 Q1020,SAEZ,2015-02-21T17:00:00Z,-34.82,-58.52,26.0,17.0,30,7,,6.21,30.11811,,,,,,,,,,,FEW,4000,FEW,5000,BKN,20000,,,VFR,,,,,,,,,,,,METAR,20.0
SADF 211700Z 05004KT 9999 SCT030 BKN100 25/18 Q1019,SADF,2015-02-21T17:00:00Z,-34.45,-58.58,25.0,18.0,50,4,,6.21,30.088583,,,,,,,,,,,SCT,3000,BKN,10000,,,,,VFR,,,,,,,,,,,,METAR,4.0
RJNK 211700Z 18006KT 9999 BKN080 BKN120 BKN150 10/03 Q1021,RJNK,2015-02-21T17:00:00Z,36.37,136.42,10.0,3.0,180,6,,6.21,30.147638,,,,,,,,,,,BKN,8000,BKN,12000,BKN,15000,,,VFR,,,,,,,,,,,,METAR,9.0
VDSR 211700Z 33005KT 9000 NSC 27/24 Q1011,VDSR,2015-02-21T17:00:00Z,13.42,103.83,27.0,24.0,330,5,,5.59,29.852362,,,,,,,,,,,,,,,,,,,,,,,,,,,,,,,METAR,15.0
VDPP 211700Z 19004KT 9000 NSC 26/23 Q1011,VDPP,2015-02-21T17:00:00Z,11.55,104.83,26.0,23.0,190,4,,5.59,29.852362,,,,,,,,,,,,,,,,,,,,,,,,,,,,,,,METAR,10.0
VYYY 211700Z 23005KT 7000 R21/2000N NSC 25/19 Q1012 NOSIG,VYYY,2015-02-21T17:00:00Z,16.9,96.13,25.0,19.0,230,5,,4.35,29.88189,,,,,,TRUE,,,,,,,,,,,,,,,,,,,,,,,,,METAR,33.0
VTSP 211700Z 10002KT 9000 FEW020 SCT300 25/22 Q1012 A2990 NOSIG,VTSP,2015-02-21T17:00:00Z,8.12,98.32,25.0,22.0,100,2,,5.59,29.88189,,,,,,TRUE,,,,,FEW,2000,SCT,30000,,,,,VFR,,,,,,,,,,,,METAR,10.0
VTSS 211700Z 00000KT 9999 FEW020 BKN300 26/23 Q1012 A2990 NOSIG,VTSS,2015-02-21T17:00:00Z,6.92,100.38,26.0,23.0,0,0,,6.21,29.88189,,,,,,TRUE,,,,,FEW,2000,BKN,30000,,,,,VFR,,,,,,,,,,,,METAR,35.0
VTBU 211700Z 22006KT 5000 BR FEW020 SCT300 27/22 Q1012 A2991,VTBU,2015-02-21T17:00:00Z,12.68,101.0,27.0,22.0,220,6,,3.11,29.88189,,,,,,,,,,BR,FEW,2000,SCT,30000,,,,,MVFR,,,,,,,,,,,,METAR,5.0
CWLI 211700Z AUTO 20008KT M13/ A3015 RMK SLP225,CWLI,2015-02-21T17:00:00Z,69.58,-130.9,-13.0,,200,8,,,30.15059,1022.5,,TRUE,,,,,,,,,,,,,,,,,,,,,,,,,,,,METAR,102.0
CWKW 211700Z AUTO ///// M24/ A2959 RMK SLP084,CWKW,2015-02-21T17:00:00Z,59.97,-64.17,-24.0,,,,,,29.589567,1008.4,,TRUE,,,,,,,,,,,,,,,,,,,,,,,,,,,,METAR,551.0
CWKM 211700Z AUTO 11010KT M11/ A3015 RMK SLP217,CWKM,2015-02-21T17:00:00Z,69.6,-140.17,-11.0,,110,10,,,30.15059,1021.7,,TRUE,,,,,,,,,,,,,,,,,,,,,,,,,,,,METAR,13.0
CWIL 211700Z AUTO 19010KT M36/ A3042 RMK SLP316,CWIL,2015-02-21T17:00:00Z,68.32,-100.07,-36.0,,190,10,,,30.41929,1031.6,,TRUE,,,,,,,,,,,,,,,,,,,,,,,,,,,,METAR,36.0
CWCL 211700Z AUTO 33009G16KT 9SM 00/M06 A3040 RMK SLP332,CWCL,2015-02-21T17:00:00Z,51.13,-121.5,0.0,-6.0,330,9,16,9.0,30.398623,1033.2,,TRUE,,,,,,,,,,,,,,,,,,,,,,,,,,,,METAR,1057.0
CWCA 211700Z 30024G32KT 12SM DRSN FEW016 BKN070 BKN200 M06/M11 A2947 RMK ST2AC3CI1 PRESRR TRCI SLP980,CWCA,2015-02-21T17:00:00Z,53.7,-57.02,-6.0,-11.0,300,24,32,12.0,29.471457,998.0,,,,,,,,,DRSN,FEW,1600,BKN,7000,BKN,20000,,,VFR,,,,,,,,,,,,METAR,14.0
CWAE 211700Z 00000KT 15SM SCT064 M02/M02 A3039 RMK CU3 SLP312,CWAE,2015-02-21T17:00:00Z,50.13,-122.95,-2.0,-2.0,0,0,,15.0,30.389763,1031.2,,,,,,,,,,SCT,6400,,,,,,,VFR,,,,,,,,,,,,METAR,658.0
CYYG 211700Z 24010G17KT 15SM DRSN FEW310 M10/M19 A3042 RMK CI1 CI TR SLP307,CYYG,2015-02-21T17:00:00Z,46.27,-63.12,-10.0,-19.0,240,10,17,15.0,30.41929,1030.7,,,,,,,,,DRSN,FEW,31000,,,,,,,VFR,,,,,,,,,,,,METAR,54.0
CYTQ 211700Z 28015KT 6SM -SN DRSN BKN100 OVC220 M23/M27 A3002 RMK AC4CI0 SLP171,CYTQ,2015-02-21T17:00:00Z,58.67,-69.95,-23.0,-27.0,280,15,,6.0,30.02067,1017.1,,,,,,,,,-SN DRSN,BKN,10000,OVC,22000,,,,,VFR,,,,,,,,,,,,METAR,31.0
CYSJ 211700Z 23010KT 15SM FEW020 FEW110 SCT260 M08/M21 A3047 RMK SC1AC1CI1 SLP327,CYSJ,2015-02-21T17:00:00Z,45.32,-65.87,-8.0,-21.0,230,10,,15.0,30.469488,1032.7,,,,,,,,,,FEW,2000,FEW,11000,SCT,26000,,,VFR,,,,,,,,,,,,METAR,109.0
CYGW 211700Z AUTO 24005KT 190V260 9SM -SN BKN035 M19/M23 A2993 RMK SLP138,CYGW,2015-02-21T17:00:00Z,55.27,-77.77,-19.0,-23.0,240,5,,9.0,29.929134,1013.8,,TRUE,,,,,,,-SN,BKN,3500,,,,,,,VFR,,,,,,,,,,,,METAR,12.0
CYDP 211700Z 30024KT 15SM -SHSN DRSN BKN020 BKN080 M09/M15 A2964 RMK SC3AS2 SLP038,CYDP,2015-02-21T17:00:00Z,56.53,-61.67,-9.0,-15.0,300,24,,15.0,29.639763,1003.8,,,,,,,,,-SHSN DRSN,BKN,2000,BKN,8000,,,,,MVFR,,,,,,,,,,,,METAR,7.0
CYDF 211700Z 24022G32KT 1SM -SHSN BLSN BKN012 OVC021 M08/M11 A3001 RMK SF5SC3 VIS VRB 1/2 - 11/2 SLP164,CYDF,2015-02-21T17:00:00Z,49.22,-57.4,-8.0,-11.0,240,22,32,1.0,30.008858,1016.4,,,,,,,,,-SHSN BLSN,BKN,1200,OVC,2100,,,,,IFR,,,,,,,,,,,,METAR,22.0
CYCX 211700Z 21006KT 180V250 15SM BKN220 M10/M21 A3045 RMK CS2 DA-3470FT HALO SLP314,CYCX,2015-02-21T17:00:00Z,45.82,-66.42,-10.0,-21.0,210,6,,15.0,30.448818,1031.4,,,,,,,,,,BKN,22000,,,,,,,VFR,,,,,,,,,,,,METAR,51.0
CYAY 211700Z AUTO 24035G48KT 1/4SM +SN VV014 M10/M12 A2973 RMK PRESRR SLP072,CYAY,2015-02-21T17:00:00Z,51.38,-56.07,-10.0,-12.0,240,35,48,0.25,29.731298,1007.2,,TRUE,,,,,,,+SN,OVX,0,,,,,,,LIFR,,,,,,,,,,,1400,METAR,28.0
CYZR 211700Z AUTO 26003KT 190V290 9SM OVC060 M07/M11 A2995 RMK SLP156,CYZR,2015-02-21T17:00:00Z,43.0,-82.3,-7.0,-11.0,260,3,,9.0,29.949802,1015.6,,TRUE,,,,,,,,OVC,6000,,,,,,,VFR,,,,,,,,,,,,METAR,181.0
CYZE 211700Z AUTO 28003KT 270V330 5SM -SN BKN019 OVC029 M08/M10 A2991 RMK ICG SLP142,CYZE,2015-02-21T17:00:00Z,45.87,-82.57,-8.0,-10.0,280,3,,5.0,29.911417,1014.2,,TRUE,,,,,,,-SN,BKN,1900,OVC,2900,,,,,MVFR,,,,,,,,,,,,METAR,193.0
CYYY 211700Z 21009KT 15SM -SHSN OVC035 M13/M20 A3028 RMK SC8 SLP260,CYYY,2015-02-21T17:00:00Z,48.6,-68.22,-13.0,-20.0,210,9,,15.0,30.280512,1026.0,,,,,,,,,-SHSN,OVC,3500,,,,,,,VFR,,,,,,,,,,,,METAR,52.0
CYXR 211700Z AUTO 12007KT 9SM -SN BKN030 BKN040 OVC060 M14/M16 A2991 RMK ICG INTMT SLP151,CYXR,2015-02-21T17:00:00Z,47.7,-79.83,-14.0,-16.0,120,7,,9.0,29.911417,1015.1,,TRUE,,,,,,,-SN,BKN,3000,BKN,4000,OVC,6000,,,MVFR,,,,,,,,,,,,METAR,243.0
CYVV 211700Z 20005KT 8SM OVC060 M09/M13 A2996 RMK SC8 SLP164,CYVV,2015-02-21T17:00:00Z,44.75,-81.08,-9.0,-13.0,200,5,,8.0,29.958662,1016.4,,,,,,,,,,OVC,6000,,,,,,,VFR,,,,,,,,,,,,METAR,222.0
CYVP 211700Z 31011G16KT 2 1/2SM -SN DRSN BKN025 OVC050 M18/M22 A2997 RMK SN2SC4SC2 SLP155,CYVP,2015-02-21T17:00:00Z,58.12,-68.42,-18.0,-22.0,310,11,16,2.5,29.970472,1015.5,,,,,,,,,-SN DRSN,BKN,2500,OVC,5000,,,,,IFR,,,,,,,,,,,,METAR,60.0
CYTS 211700Z 17009KT 15SM SCT031 BKN080 M10/M15 A2981 RMK SC4AC3 INTMT -SN SLP122,CYTS,2015-02-21T17:00:00Z,48.57,-81.37,-10.0,-15.0,170,9,,15.0,29.811024,1012.2,,,,,,,,,,SCT,3100,BKN,8000,,,,,VFR,,,,,,,,,,,,METAR,295.0
CYTL 211700Z AUTO 30010KT 9SM SCT065 SCT080 M32/M37 A3012 RMK SLP236,CYTL,2015-02-21T17:00:00Z,53.82,-89.88,-32.0,-37.0,300,10,,9.0,30.121063,1023.6,,TRUE,,,,,,,,SCT,6500,SCT,8000,,,,,VFR,,,,,,,,,,,,METAR,224.0
CYRL 211700Z 32008KT 10SM IC FEW019 SCT240 M25/M29 A3011 RMK CF2CI2 SLP243,CYRL,2015-02-21T17:00:00Z,51.07,-93.78,-25.0,-29.0,320,8,,10.0,30.109253,1024.3,,,,,,,,,IC,FEW,1900,SCT,24000,,,,,VFR,,,,,,,,,,,,METAR,383.0
CYRJ 211700Z 19006KT 8SM -SN FEW030 OVC130 M13/M19 A3014 RMK CU1AC8 CU TR SLP227,CYRJ,2015-02-21T17:00:00Z,48.52,-72.27,-13.0,-19.0,190,6,,8.0,30.138779,1022.7,,,,,,,,,-SN,FEW,3000,OVC,13000,,,,,VFR,,,,,,,,,,,,METAR,179.0
CYQT 211700Z 29010KT 270V340 20SM FEW020 FEW250 M14/M19 A3002 RMK CF1CI1 CI TR SLP185,CYQT,2015-02-21T17:00:00Z,48.37,-89.32,-14.0,-19.0,290,10,,20.0,30.02067,1018.5,,,,,,,,,,FEW,2000,FEW,25000,,,,,VFR,,,,,,,,,,,,METAR,199.0
CYPQ 211700Z AUTO 10004KT 060V120 1SM -SN OVC019 M08/M09 A3000 RMK PRESFR SLP174,CYPQ,2015-02-21T17:00:00Z,44.22,-78.37,-8.0,-9.0,100,4,,1.0,30.0,1017.4,,TRUE,,,,,,,-SN,OVC,1900,,,,,,,IFR,,,,,,,,,,,,METAR,191.0
CYND 211700Z 09008KT 1SM -SN VV009 M14/M17 A3016 RMK SN8 /S04/ SLP218,CYND,2015-02-21T17:00:00Z,45.52,-75.57,-14.0,-17.0,90,8,,1.0,30.159449,1021.8,,,,,,,,,-SN,OVX,0,,,,,,,LIFR,,,,,,,,,,,900,METAR,64.0
CYNA 211700Z AUTO 28023G32KT 4SM -SN CLR M09/M13 A3006 RMK PRESRR SLP179,CYNA,2015-02-21T17:00:00Z,50.17,-61.82,-9.0,-13.0,280,23,32,4.0,30.059055,1017.9,,TRUE,,,,,,,-SN,CLR,,,,,,,,MVFR,,,,,,,,,,,,METAR,11.0
CYHU 211700Z AUTO 17013G18KT 9SM SCT046 BKN055 BKN120 BKN200 M09/M18 A3018 RMK SLP223,CYHU,2015-02-21T17:00:00Z,45.52,-73.42,-9.0,-18.0,170,13,18,9.0,30.180119,1022.3,,TRUE,,,,,,,,SCT,4600,BKN,5500,BKN,12000,BKN,20000,VFR,,,,,,,,,,,,METAR,27.0
CYHD 211700Z AUTO 33007KT 290V350 9SM CLR M22/M25 A3006 RMK SLP223,CYHD,2015-02-21T17:00:00Z,49.82,-92.75,-22.0,-25.0,330,7,,9.0,30.059055,1022.3,,TRUE,,,,,,,,CLR,,,,,,,,VFR,,,,,,,,,,,,METAR,413.0
CYGR 211700Z 25023G28KT 20SM FEW020 M11/M16 A3033 RMK SC1 SC TR SLP271,CYGR,2015-02-21T17:00:00Z,47.42,-61.77,-11.0,-16.0,250,23,28,20.0,30.33071,1027.1,,,,,,,,,,FEW,2000,,,,,,,VFR,,,,,,,,,,,,METAR,10.0
CYGP 211700Z 25013KT 15SM DRSN BKN120 BKN220 M09/M19 A3021 RMK AC5CI2 SLP232,CYGP,2015-02-21T17:00:00Z,48.77,-64.47,-9.0,-19.0,250,13,,15.0,30.209646,1023.2,,,,,,,,,DRSN,BKN,12000,BKN,22000,,,,,VFR,,,,,,,,,,,,METAR,33.0
CYFT 211700Z 27030KT 4SM -SN BLSN BKN020 M08/M10 A2951 RMK NS7 WND SPD DCTN ESTD PRESRR SLP998,CYFT,2015-02-21T17:00:00Z,55.07,-59.17,-8.0,-10.0,270,30,,4.0,29.509842,999.8,,,,,,,,,-SN BLSN,BKN,2000,,,,,,,MVFR,,,,,,,,,,,,METAR,71.0
CYAM 211700Z VRB02KT 12SM FEW050 FEW170 M08/M12 A2991 RMK SC1AC1 CF TR SLP142,CYAM,2015-02-21T17:00:00Z,46.47,-84.52,-8.0,-12.0,0,2,,12.0,29.911417,1014.2,,,,,,,,,,FEW,5000,FEW,17000,,,,,VFR,,,,,,,,,,,,METAR,192.0
CYWH 211700Z 00000KT 15SM FEW020 08/03 A3038 RMK CF1 SLP287,CYWH,2015-02-21T17:00:00Z,48.42,-123.38,8.0,3.0,0,0,,15.0,30.380905,1028.7,,,,,,,,,,FEW,2000,,,,,,,VFR,,,,,,,,,,,,METAR,10.0
SBNT 211700Z 10014KT 9999 SCT030 SCT070 30/21 Q1010,SBNT,2015-02-21T17:00:00Z,-5.92,-35.25,30.0,21.0,100,14,,6.21,29.822834,,,,,,,,,,,SCT,3000,SCT,7000,,,,,VFR,,,,,,,,,,,,METAR,49.0
SBPK 211700Z 11011KT 9999 SCT030 BKN070 28/20 Q1019,SBPK,2015-02-21T17:00:00Z,-31.72,-52.33,28.0,20.0,110,11,,6.21,30.088583,,,,,,,,,,,SCT,3000,BKN,7000,,,,,VFR,,,,,,,,,,,,METAR,13.0
CYFB 211700Z 34015KT 25SM DRSN FEW200 M30/M35 A2998 RMK CI1 CI TR SEASMOKE OVR BAY SLP158,CYFB,2015-02-21T17:00:00Z,63.75,-68.55,-30.0,-35.0,340,15,,25.0,29.97933,1015.8,,,,,,,,,DRSN,FEW,20000,,,,,,,VFR,,,,,,,,,,,,METAR,34.0
CYEG 211700Z 02004KT 12SM -SHSN BKN018 M14/M17 A3056 RMK SC7 SLP407,CYEG,2015-02-21T17:00:00Z,53.28,-113.57,-14.0,-17.0,20,4,,12.0,30.561024,1040.7,,,,,,,,,-SHSN,BKN,1800,,,,,,,MVFR,,,,,,,,,,,,METAR,723.0
CYBG 211700Z 08005KT 15SM SCT040 OVC085 M14/M17 A3020 RMK SC4AS3 SLP245,CYBG,2015-02-21T17:00:00Z,48.33,-70.98,-14.0,-17.0,80,5,,15.0,30.200787,1024.5,,,,,,,,,,SCT,4000,OVC,8500,,,,,VFR,,,,,,,,,,,,METAR,159.0
CYFC 211700Z AUTO 20009KT 9SM CLR M09/M19 A3045 RMK SLP312,CYFC,2015-02-21T17:00:00Z,45.87,-66.52,-9.0,-19.0,200,9,,9.0,30.448818,1031.2,,TRUE,,,,,,,,CLR,,,,,,,,VFR,,,,,,,,,,,,METAR,20.0
CYGL 211700Z 17008KT 6SM -SN FEW040 BKN240 M19/M23 A2986 RMK SC1CI5 SLP137,CYGL,2015-02-21T17:00:00Z,53.62,-77.7,-19.0,-23.0,170,8,,6.0,29.861221,1013.7,,,,,,,,,-SN,FEW,4000,BKN,24000,,,,,VFR,,,,,,,,,,,,METAR,195.0
CYMX 211700Z 36005KT 20SM BKN029 OVC080 M13/M20 A3018 RMK SC5AS3 SLP228,CYMX,2015-02-21T17:00:00Z,45.67,-74.02,-13.0,-20.0,360,5,,20.0,30.180119,1022.8,,,,,,,,,,BKN,2900,OVC,8000,,,,,MVFR,,,,,,,,,,,,METAR,82.0
CYJT 211700Z 27027G35KT 5SM -SHSN BLSN BKN024 M07/M12 A3014 RMK SC7 PRESRR SLP207,CYJT,2015-02-21T17:00:00Z,48.55,-58.57,-7.0,-12.0,270,27,35,5.0,30.138779,1020.7,,,,,,,,,-SHSN BLSN,BKN,2400,,,,,,,MVFR,,,,,,,,,,,,METAR,26.0
CYHZ 211700Z 31008KT 260V320 15SM FEW250 M07/M18 A3044 RMK CI1 SLP318,CYHZ,2015-02-21T17:00:00Z,44.87,-63.5,-7.0,-18.0,310,8,,15.0,30.43996,1031.8,,,,,,,,,,FEW,25000,,,,,,,VFR,,,,,,,,,,,,METAR,145.0
CYOW 211700Z 10006KT 2SM -SN OVC013 M13/M15 A3013 RMK SN3SC5 SLP213,CYOW,2015-02-21T17:00:00Z,45.32,-75.67,-13.0,-15.0,100,6,,2.0,30.129921,1021.3,,,,,,,,,-SN,OVC,1300,,,,,,,IFR,,,,,,,,,,,,METAR,114.0
CYQG 211700Z 21003KT 1 1/4SM -SN BR OVC011 M07/M09 A2995 RMK SC8 SLP154,CYQG,2015-02-21T17:00:00Z,42.27,-82.97,-7.0,-9.0,210,3,,1.25,29.949802,1015.4,,,,,,,,,-SN BR,OVC,1100,,,,,,,IFR,,,,,,,,,,,,METAR,190.0
CYQB 211700Z 09006KT 25SM OVC050 M12/M19 A3026 RMK SC8 SLP253,CYQB,2015-02-21T17:00:00Z,46.78,-71.37,-12.0,-19.0,90,6,,25.0,30.259842,1025.3,,,,,,,,,,OVC,5000,,,,,,,VFR,,,,,,,,,,,,METAR,73.0
CYQM 211700Z 23016KT 15SM FEW240 M10/M20 A3042 RMK CI2 SLP306,CYQM,2015-02-21T17:00:00Z,46.12,-64.67,-10.0,-20.0,230,16,,15.0,30.41929,1030.6,,,,,,,,,,FEW,24000,,,,,,,VFR,,,,,,,,,,,,METAR,71.0
CYQX 211700Z 26030G41KT 20SM SCT038 M05/M13 A2992 RMK SC3 SLP141,CYQX,2015-02-21T17:00:00Z,48.95,-54.58,-5.0,-13.0,260,30,41,20.0,29.920275,1014.1,,,,,,,,,,SCT,3800,,,,,,,VFR,,,,,,,,,,,,METAR,151.0
CYQQ 211700Z 33008KT 20SM FEW010 FEW250 05/02 A3042 RMK SF1CI0 SLP303,CYQQ,2015-02-21T17:00:00Z,49.72,-124.9,5.0,2.0,330,8,,20.0,30.41929,1030.3,,,,,,,,,,FEW,1000,FEW,25000,,,,,VFR,,,,,,,,,,,,METAR,24.0
CYTR 211700Z 18005KT 3/4SM -SN VV008 M07/M08 A3005 RMK SN8 SLP183,CYTR,2015-02-21T17:00:00Z,44.12,-77.52,-7.0,-8.0,180,5,,0.75,30.050198,1018.3,,,,,,,,,-SN,OVX,0,,,,,,,LIFR,,,,,,,,,,,800,METAR,86.0
CYQY 211700Z 25020G28KT 15SM SKC M08/M17 A3034 RMK SLP277,CYQY,2015-02-21T17:00:00Z,46.17,-60.03,-8.0,-17.0,250,20,28,15.0,30.339567,1027.7,,,,,,,,,,SKC,,,,,,,,VFR,,,,,,,,,,,,METAR,62.0
CYUL 211700Z 12004KT 080V170 15SM OVC040 M10/M18 A3018 RMK SC8 SLP224,CYUL,2015-02-21T17:00:00Z,45.47,-73.73,-10.0,-18.0,120,4,,15.0,30.180119,1022.4,,,,,,,,,,OVC,4000,,,,,,,VFR,,,,,,,,,,,,METAR,36.0
CYVR 211700Z 30012KT 30SM FEW009 07/05 A3039 RMK SF1 SLP291,CYVR,2015-02-21T17:00:00Z,49.17,-123.17,7.0,5.0,300,12,,30.0,30.389763,1029.1,,,,,,,,,,FEW,900,,,,,,,VFR,,,,,,,,,,,,METAR,2.0
CYWG 211700Z 30013KT 15SM SKC M23/M28 A3030 RMK SLP288,CYWG,2015-02-21T17:00:00Z,49.88,-97.22,-23.0,-28.0,300,13,,15.0,30.301182,1028.8,,,,,,,,,,SKC,,,,,,,,VFR,,,,,,,,,,,,METAR,239.0
CYXX 211700Z 33003KT 30SM FEW060 05/05 A3038 RMK CF1 THK FG SE SLP289,CYXX,2015-02-21T17:00:00Z,49.03,-122.38,5.0,5.0,330,3,,30.0,30.380905,1028.9,,,,,,,,,,FEW,6000,,,,,,,VFR,,,,,,,,,,,,METAR,58.0
CYYQ 211700Z 33016G22KT 4SM IC DRSN SKC M31/M35 A3038 RMK SLP293,CYYQ,2015-02-21T17:00:00Z,58.75,-94.07,-31.0,-35.0,330,16,22,4.0,30.380905,1029.3,,,,,,,,,IC DRSN,SKC,,,,,,,,MVFR,,,,,,,,,,,,METAR,29.0
CYYJ 211700Z 27008KT 30SM FEW025 07/04 A3038 RMK SC1 SC TR SLP286,CYYJ,2015-02-21T17:00:00Z,48.63,-123.42,7.0,4.0,270,8,,30.0,30.380905,1028.6,,,,,,,,,,FEW,2500,,,,,,,VFR,,,,,,,,,,,,METAR,19.0
CYYC 211700Z 01009KT 2 1/2SM -SN SCT010 BKN030 BKN040 M10/M13 A3043 RMK SC3SC2SC2 S01 SLP379,CYYC,2015-02-21T17:00:00Z,51.12,-114.02,-10.0,-13.0,10,9,,2.5,30.431103,1037.9,,,,,,,,,-SN,SCT,1000,BKN,3000,BKN,4000,,,IFR,,,,,,,,,,,,METAR,1084.0
CYYR 211700Z 26024KT 15SM DRSN FEW032 SCT070 M11/M18 A2977 RMK SC1AC1 SLP087,CYYR,2015-02-21T17:00:00Z,53.32,-60.42,-11.0,-18.0,260,24,,15.0,29.769686,1008.7,,,,,,,,,DRSN,FEW,3200,SCT,7000,,,,,VFR,,,,,,,,,,,,METAR,49.0
CYYZ 211700Z 26004KT 250V310 1/2SM R24L/4000VP6000FT/D R23/1600V2200FT/N SN VV005 M09/M11 A3000 RMK SN8 /S05/ SLP174,CYYZ,2015-02-21T17:00:00Z,43.67,-79.62,-9.0,-11.0,260,4,,0.5,30.0,1017.4,,,,,,,,,SN,OVX,0,,,,,,,LIFR,,,,,,,,,,,500,METAR,173.0
CYYT 211700Z 26027G39KT 15SM SCT025 M04/M09 A3003 RMK SC4 SLP178,CYYT,2015-02-21T17:00:00Z,47.62,-52.72,-4.0,-9.0,260,27,39,15.0,30.029528,1017.8,,,,,,,,,,SCT,2500,,,,,,,VFR,,,,,,,,,,,,METAR,140.0
CYZF 211700Z 17009KT 15SM FEW090 FEW240 M31/M35 A3064 RMK AC1CI1 AC TR SLP412,CYZF,2015-02-21T17:00:00Z,62.47,-114.45,-31.0,-35.0,170,9,,15.0,30.640747,1041.2,,,,,,,,,,FEW,9000,FEW,24000,,,,,VFR,,,,,,,,,,,,METAR,206.0
CYZV 211700Z 26013KT 30SM DRSN SCT120 OVC200 M14/M22 A3019 RMK AC4CI4 SLP229,CYZV,2015-02-21T17:00:00Z,50.22,-66.27,-14.0,-22.0,260,13,,30.0,30.188976,1022.9,,,,,,,,,DRSN,SCT,12000,OVC,20000,,,,,VFR,,,,,,,,,,,,METAR,55.0
CYIV 211700Z CCA 32008KT 10SM -SN DRSN BKN020 OVC250 M32/M36 A3027 RMK SC5CI3 SLP288,CYIV,2015-02-21T17:00:00Z,53.85,-94.65,-32.0,-36.0,320,8,,10.0,30.268702,1028.8,,,,,,,,,DRSN -SN,BKN,2000,OVC,25000,,,,,MVFR,,,,,,,,,,,,METAR,237.0
CYQF 211700Z CCA 36011G16KT 12SM -SN BKN020 M11/M15 A3048 RMK SC7 SLP388,CYQF,2015-02-21T17:00:00Z,52.17,-113.9,-11.0,-15.0,360,11,16,12.0,30.481298,1038.8,,,,,,,,,-SN,BKN,2000,,,,,,,MVFR,,,,,,,,,,,,METAR,905.0
CYZX 211700Z 25012G18KT 15SM FEW040 FEW250 M07/M12 A3050 RMK SC1CI0 WNDY HILL 27013G18KT SLP331,CYZX,2015-02-21T17:00:00Z,44.98,-64.92,-7.0,-12.0,250,12,18,15.0,30.499016,1033.1,,,,,,,,,,FEW,4000,FEW,25000,,,,,VFR,,,,,,,,,,,,METAR,28.0
CYBW 211700Z AUTO 02011G16KT 9SM -SN SCT020 OVC037 M10/M13 A3041 RMK SLP372,CYBW,2015-02-21T17:00:00Z,51.1,-114.37,-10.0,-13.0,20,11,16,9.0,30.410433,1037.2,,TRUE,,,,,,,-SN,SCT,2000,OVC,3700,,,,,VFR,,,,,,,,,,,,METAR,1200.0
CWVD 211700Z AUTO 32022KT M31/ A2970 RMK SLP156,CWVD,2015-02-21T17:00:00Z,67.52,-63.77,-31.0,,320,22,,,29.698818,1015.6,,TRUE,,,,,,,,,,,,,,,,,,,,,,,,,,,,METAR,573.0
CYCY 211700Z 32018KT 10SM IC DRSN VCBLSN SCT250 M30/M34 A3012 RMK CI3 OCNL BLSN SLP206,CYCY,2015-02-21T17:00:00Z,70.47,-68.52,-30.0,-34.0,320,18,,10.0,30.121063,1020.6,,,,,,,,,IC DRSN VCBLSN,SCT,25000,,,,,,,VFR,,,,,,,,,,,,METAR,26.0
CYED 211700Z AUTO 05003KT 6SM OVC015 M15/M19 A3057 RMK SLP405,CYED,2015-02-21T17:00:00Z,53.67,-113.47,-15.0,-19.0,50,3,,6.0,30.569881,1040.5,,TRUE,,,,,,,,OVC,1500,,,,,,,MVFR,,,,,,,,,,,,METAR,688.0
MDPC 211700Z 11012KT 9999 BKN020 28/22 Q1019 NOSIG,MDPC,2015-02-21T17:00:00Z,18.57,-68.37,28.0,22.0,110,12,,6.21,30.088583,,,,,,TRUE,,,,,BKN,2000,,,,,,,MVFR,,,,,,,,,,,,METAR,12.0
MDAB 211700Z 04005KT 9999 BKN020 27/24 Q1020,MDAB,2015-02-21T17:00:00Z,19.2,-69.43,27.0,24.0,40,5,,6.21,30.11811,,,,,,,,,,,BKN,2000,,,,,,,MVFR,,,,,,,,,,,,METAR,35.0
MDCY 211700Z 09012KT 9999 BKN017 27/23 Q1018,MDCY,2015-02-21T17:00:00Z,19.27,-69.73,27.0,23.0,90,12,,6.21,30.059055,,,,,,,,,,,BKN,1700,,,,,,,MVFR,,,,,,,,,,,,METAR,10.0
MDLR 211700Z 09012KT 9999 SCT022 28/23 Q1018,MDLR,2015-02-21T17:00:00Z,18.45,-68.92,28.0,23.0,90,12,,6.21,30.059055,,,,,,,,,,,SCT,2200,,,,,,,VFR,,,,,,,,,,,,METAR,8.0
MDSD 211700Z 06010KT 8000 VCSH BKN020 28/22 Q1018 TEMPO 6000 RA,MDSD,2015-02-21T17:00:00Z,18.42,-69.67,28.0,22.0,60,10,,4.97,30.059055,,,,,,,,,,VCSH,BKN,2000,,,,,,,MVFR,,,,,,,,,,,,METAR,18.0
MDJB 211700Z 03010KT 9999 BKN020 29/20 Q1019,MDJB,2015-02-21T17:00:00Z,18.57,-69.98,29.0,20.0,30,10,,6.21,30.088583,,,,,,,,,,,BKN,2000,,,,,,,MVFR,,,,,,,,,,,,METAR,30.0
MDBH 211700Z 13014KT 9999 FEW023 29/22 Q1019,MDBH,2015-02-21T17:00:00Z,18.25,-71.12,29.0,22.0,130,14,,6.21,30.088583,,,,,,,,,,,FEW,2300,,,,,,,VFR,,,,,,,,,,,,METAR,3.0
MDST 211700Z 07004KT 7000 VCRA BKN017 OVC070 23/22 Q1020 RERA METAR ,MDST,2015-02-21T17:00:00Z,19.4,-70.6,23.0,22.0,70,4,,4.35,30.11811,,,,,,,,,,VCRA,BKN,1700,OVC,7000,,,,,MVFR,,,,,,,,,,,,METAR,184.0
MDPP 211700Z 07006KT 9999 BKN018 27/22 Q1020,MDPP,2015-02-21T17:00:00Z,19.75,-70.57,27.0,22.0,70,6,,6.21,30.11811,,,,,,,,,,,BKN,1800,,,,,,,MVFR,,,,,,,,,,,,METAR,5.0
SPGM 211700Z /////KT 9999 FEW030 BKN090 26/22 Q1014 RMK BIRD HAZARD RWY 19 PP000,SPGM,2015-02-21T17:00:00Z,-9.28,-76.0,26.0,22.0,,,,6.21,29.940945,,,,,,,,,,,FEW,3000,BKN,9000,,,,,VFR,,,,,,,,,,,,METAR,665.0
SPCL 211700Z 18006KT 8000 BKN011 OVC070 24/24 Q1012 RMK PP010,SPCL,2015-02-21T17:00:00Z,-8.38,-74.58,24.0,24.0,180,6,,4.97,29.88189,,,,,,,,,,,BKN,1100,OVC,7000,,,,,MVFR,,,,,,,,,,,,METAR,149.0
SPME 211700Z 27006KT 9999 SCT013 30/22 Q1010 RMK BIRD HAZARD RWY 32/14 PP000,SPME,2015-02-21T17:00:00Z,-3.53,-80.4,30.0,22.0,270,6,,6.21,29.822834,,,,,,,,,,,SCT,1300,,,,,,,VFR,,,,,,,,,,,,METAR,27.0
SPJR 211700Z VRB03KT CAVOK 20/05 Q1027 RMK BIRD HAZARD RWY 16/34 PP000,SPJR,2015-02-21T17:00:00Z,-7.12,-78.47,20.0,5.0,0,3,,6.21,30.324802,,,,,,,,,,,CAVOK,,,,,,,,VFR,,,,,,,,,,,,METAR,2622.0
SPJL 211700Z 06004KT 9999 SCT030 16/03 Q1036 RMK PP000,SPJL,2015-02-21T17:00:00Z,-15.47,-70.15,16.0,3.0,60,4,,6.21,30.590551,,,,,,,,,,,SCT,3000,,,,,,,VFR,,,,,,,,,,,,METAR,3827.0
SPJI 211700Z 00000KT 9999 OVC030 27/24 Q1019 RMK PP000,SPJI,2015-02-21T17:00:00Z,-7.17,-76.72,27.0,24.0,0,0,,6.21,30.088583,,,,,,,,,,,OVC,3000,,,,,,,MVFR,,,,,,,,,,,,METAR,363.0
SPHY 211700Z /////KT 9000 SCT012 SCT050 BKN070 12/10 Q1035 RMK PP000,SPHY,2015-02-21T17:00:00Z,-13.7,-73.35,12.0,10.0,,,,5.59,30.561024,,,,,,,,,,,SCT,1200,SCT,5000,BKN,7000,,,VFR,,,,,,,,,,,,METAR,3548.0
SPHO 211700Z 30005KT 9999 FEW046 BKN140 23/13 Q1025 RMK PP000,SPHO,2015-02-21T17:00:00Z,-13.17,-74.22,23.0,13.0,300,5,,6.21,30.265747,,,,,,,,,,,FEW,4600,BKN,14000,,,,,VFR,,,,,,,,,,,,METAR,2749.0
OEDR 211700Z 32010KT 2500 BLDU SKC 15/M04 Q1013 NOSIG,OEDR,2015-02-21T17:00:00Z,26.27,50.17,15.0,-4.0,320,10,,1.55,29.911417,,,,,,TRUE,,,,BLDU,SKC,,,,,,,,IFR,,,,,,,,,,,,METAR,17.0
OEDF 211700Z 35004KT 6000 SKC 15/M03 Q1014 NOSIG,OEDF,2015-02-21T17:00:00Z,26.47,49.8,15.0,-3.0,350,4,,3.73,29.940945,,,,,,TRUE,,,,,SKC,,,,,,,,MVFR,,,,,,,,,,,,METAR,22.0
NTAA 211700Z 18004KT 9999 FEW023 SCT300 27/22 Q1014 NOSIG,NTAA,2015-02-21T17:00:00Z,-17.55,-149.62,27.0,22.0,180,4,,6.21,29.940945,,,,,,TRUE,,,,,FEW,2300,SCT,30000,,,,,VFR,,,,,,,,,,,,METAR,2.0
UBBY 211700Z 11004KT 9999 OVC025 04/01 Q1020 R33/////// NOSIG RMK MT OBSC,UBBY,2015-02-21T17:00:00Z,41.57,46.67,4.0,1.0,110,4,,6.21,30.11811,,,,,,TRUE,,,,,OVC,2500,,,,,,,MVFR,,,,,,,,,,,,METAR,390.0
MROC 211700Z 07014G24KT 9999 FEW030 27/15 A3002 NOSIG,MROC,2015-02-21T17:00:00Z,10.0,-84.22,27.0,15.0,70,14,24,6.21,30.02067,,,,,,TRUE,,,,,FEW,3000,,,,,,,VFR,,,,,,,,,,,,METAR,920.0
SPYL 211700Z 24013KT 9999 SCT050 30/20 Q1011 RMK BIRD HAZARD RWY 17/35 PP000,SPYL,2015-02-21T17:00:00Z,-4.57,-81.25,30.0,20.0,240,13,,6.21,29.852362,,,,,,,,,,,SCT,5000,,,,,,,VFR,,,,,,,,,,,,SPECI,90.0
SPTU 211700Z VRB02KT 9999 BKN007 OVC030 29/23 Q1012 RMK BIRD HAZARD RWY 01/19 PP000,SPTU,2015-02-21T17:00:00Z,-12.62,-69.2,29.0,23.0,0,2,,6.21,29.88189,,,,,,,,,,,BKN,700,OVC,3000,,,,,IFR,,,,,,,,,,,,METAR,266.0
SPST 211700Z 00000KT 4000 -RA BR BKN012 OVC050 24/22 Q1012 RMK BIRD HAZARD RWY 17/35 PP010,SPST,2015-02-21T17:00:00Z,-6.52,-76.37,24.0,22.0,0,0,,2.49,29.88189,,,,,,,,,,-RA BR,BKN,1200,OVC,5000,,,,,IFR,,,,,,,,,,,,METAR,282.0
SPMS 211700Z 00000KT 6000 SCT025 OVC080 24/24 Q1014 RMK BIRD HAZARD RWY 09/27 PP000,SPMS,2015-02-21T17:00:00Z,-5.9,-76.12,24.0,24.0,0,0,,3.73,29.940945,,,,,,,,,,,SCT,2500,OVC,8000,,,,,MVFR,,,,,,,,,,,,METAR,179.0
CWLY 211700Z AUTO 02011G17KT 9SM OVC075 08/M01 A3043 RMK SLP310,CWLY,2015-02-21T17:00:00Z,50.22,-121.58,8.0,-1.0,20,11,17,9.0,30.431103,1031.0,,TRUE,,,,,,,,OVC,7500,,,,,,,VFR,,,,,,,,,,,,METAR,229.0
CWLX 211700Z AUTO 35007KT M31/ A3004 RMK SLP205,CWLX,2015-02-21T17:00:00Z,68.9,-75.15,-31.0,,350,7,,,30.041338,1020.5,,TRUE,,,,,,,,,,,,,,,,,,,,,,,,,,,,METAR,162.0
CWOB 211700Z AUTO 04018KT M25/ A2966 RMK SLP115,CWOB,2015-02-21T17:00:00Z,63.32,-64.15,-25.0,,40,18,,,29.660433,1011.5,,TRUE,,,,,,,,,,,,,,,,,,,,,,,,,,,,METAR,367.0
CWSW 211700Z 36003KT 20SM FEW025 FEW040 FEW210 M06/M09 A3032 RMK CF1SC1CI1 CF TR SLP320,CWSW,2015-02-21T17:00:00Z,49.75,-114.87,-6.0,-9.0,360,3,,20.0,30.318897,1032.0,,,,,,,,,,FEW,2500,FEW,4000,FEW,21000,,,VFR,,,,,,,,,,,,METAR,1138.0
CWRX 211700Z AUTO 31012KT M33/ A3017,CWRX,2015-02-21T17:00:00Z,69.07,-79.02,-33.0,,310,12,,,30.171259,,,TRUE,,,,,,,,,,,,,,,,,,,,,,,,,,,,METAR,41.0
CWPX 211700Z AUTO 26011KT M32/ A3026 RMK SLP287,CWPX,2015-02-21T17:00:00Z,69.02,-107.82,-32.0,,260,11,,,30.259842,1028.7,,TRUE,,,,,,,,,,,,,,,,,,,,,,,,,,,,METAR,165.0
CWUP 211700Z AUTO ///// M31/ A2989 RMK SLP188,CWUP,2015-02-21T17:00:00Z,68.47,-66.82,-31.0,,,,,,29.890747,1018.8,,TRUE,,,,,,,,,,,,,,,,,,,,,,,,,,,,METAR,390.0
LYBT 211700Z VRB01KT CAVOK 09/M02 Q1010 NOSIG,LYBT,2015-02-21T17:00:00Z,44.93,20.25,9.0,-2.0,0,1,,6.21,29.822834,,,,,,TRUE,,,,,CAVOK,,,,,,,,VFR,,,,,,,,,,,,METAR,80.0
LYBE 211700Z 09007KT CAVOK 10/M02 Q1010 NOSIG,LYBE,2015-02-21T17:00:00Z,44.82,20.28,10.0,-2.0,90,7,,6.21,29.822834,,,,,,TRUE,,,,,CAVOK,,,,,,,,VFR,,,,,,,,,,,,METAR,99.0
BIRK 211700Z 07008KT 9999 FEW035 SCT080 BKN200 M04/M12 Q1001,BIRK,2015-02-21T17:00:00Z,64.13,-21.93,-4.0,-12.0,70,8,,6.21,29.557087,,,,,,,,,,,FEW,3500,SCT,8000,BKN,20000,,,VFR,,,,,,,,,,,,METAR,61.0
BIKF 211700Z 12010KT 9999 FEW028 BKN170 BKN210 M03/M08 Q0999,BIKF,2015-02-21T17:00:00Z,63.98,-22.6,-3.0,-8.0,120,10,,6.21,29.498032,,,,,,,,,,,FEW,2800,BKN,17000,BKN,21000,,,VFR,,,,,,,,,,,,METAR,54.0
BIEG 211700Z 20007KT 9999 FEW040 M10/M15 Q1006 R04/910195,BIEG,2015-02-21T17:00:00Z,65.27,-14.4,-10.0,-15.0,200,7,,6.21,29.704725,,,,,,,,,,,FEW,4000,,,,,,,VFR,,,,,,,,,,,,METAR,38.0
BIAR 211700Z 17006KT CAVOK M14/M17 Q1007 R01/420266,BIAR,2015-02-21T17:00:00Z,65.67,-18.07,-14.0,-17.0,170,6,,6.21,29.734253,,,,,,,,,,,CAVOK,,,,,,,,VFR,,,,,,,,,,,,METAR,27.0
CYPD 211700Z AUTO 29017G23KT 9SM CLR M09/M16 A3039 RMK SLP300,CYPD,2015-02-21T17:00:00Z,45.67,-61.37,-9.0,-16.0,290,17,23,9.0,30.389763,1030.0,,TRUE,,,,,,,,CLR,,,,,,,,VFR,,,,,,,,,,,,METAR,114.0
CWYM 211700Z AUTO 28012KT M25/ A2956 RMK SLP099,CWYM,2015-02-21T17:00:00Z,64.95,-63.57,-25.0,,280,12,,,29.56004,1009.9,,TRUE,,,,,,,,,,,,,,,,,,,,,,,,,,,,METAR,583.0
CWXR 211700Z AUTO 00000KT M14/ A3024 RMK SLP253,CWXR,2015-02-21T17:00:00Z,69.27,-119.22,-14.0,,0,0,,,30.239174,1025.3,,TRUE,,,,,,,,,,,,,,,,,,,,,,,,,,,,METAR,69.0
CWTU 211700Z AUTO ///// M12/ A2917 RMK PRESRR SLP927,CWTU,2015-02-21T17:00:00Z,54.72,-58.35,-12.0,,,,,,29.170275,992.7,,TRUE,,,,,,,,,,,,,,,,,,,,,,,,,,,,METAR,683.0
CWSA 211700Z AUTO 28020G28KT 9SM FEW033 M02/M10 A3049 RMK SLP325,CWSA,2015-02-21T17:00:00Z,43.93,-60.0,-2.0,-10.0,280,20,28,9.0,30.490158,1032.5,,TRUE,,,,,,,,FEW,3300,,,,,,,VFR,,,,,,,,,,,,METAR,4.0
CWRH 211700Z AUTO ///// M25/ A2968 RMK SLP108,CWRH,2015-02-21T17:00:00Z,61.57,-64.65,-25.0,,,,,,29.681103,1010.8,,TRUE,,,,,,,,,,,,,,,,,,,,,,,,,,,,METAR,369.0
CWKP 211700Z AUTO 22011KT M09/ A3013 RMK SLP243,CWKP,2015-02-21T17:00:00Z,69.67,-121.67,-9.0,,220,11,,,30.129921,1024.3,,TRUE,,,,,,,,,,,,,,,,,,,,,,,,,,,,METAR,330.0
CWGZ 211700Z VRB02KT 15SM BKN240 M31/M35 A3009 RMK CS6 SLP198,CWGZ,2015-02-21T17:00:00Z,76.42,-82.9,-31.0,-35.0,0,2,,15.0,30.088583,1019.8,,,,,,,,,,BKN,24000,,,,,,,VFR,,,,,,,,,,,,METAR,45.0
CWFD 211700Z AUTO 36029KT 1 5/8SM CLR M29/ A2936 RMK SLP058,CWFD,2015-02-21T17:00:00Z,66.57,-61.58,-29.0,,360,29,,1.63,29.359253,1005.8,,TRUE,,,,,,,,CLR,,,,,,,,IFR,,,,,,,,,,,,METAR,393.0
CWEU 211700Z 14018G24KT 2SM BLSN BKN040 M23/M27 A2988 RMK SC7 SLP120,CWEU,2015-02-21T17:00:00Z,80.0,-85.92,-23.0,-27.0,140,18,24,2.0,29.878937,1012.0,,,,,,,,,BLSN,BKN,4000,,,,,,,IFR,,,,,,,,,,,,METAR,10.0
CYZU 211700Z 14004KT 15SM BKN018 M09/M13 A3054 RMK SC6 SLP392,CYZU,2015-02-21T17:00:00Z,54.15,-115.78,-9.0,-13.0,140,4,,15.0,30.540354,1039.2,,,,,,,,,,BKN,1800,,,,,,,MVFR,,,,,,,,,,,,METAR,785.0
CYXH 211700Z 36015KT 30SM -SN BKN018 M10/M12 A3044 RMK SC7 SLP353,CYXH,2015-02-21T17:00:00Z,50.02,-110.72,-10.0,-12.0,360,15,,30.0,30.43996,1035.3,,,,,,,,,-SN,BKN,1800,,,,,,,MVFR,,,,,,,,,,,,METAR,716.0
CYVT 211700Z 36008KT 15SM SKC M26/M30 A3060 RMK SLP417,CYVT,2015-02-21T17:00:00Z,55.82,-108.42,-26.0,-30.0,360,8,,15.0,30.59941,1041.7,,,,,,,,,,SKC,,,,,,,,VFR,,,,,,,,,,,,METAR,434.0
CYUX 211700Z 31012KT 12SM IC DRSN SKC M37/M40 A3029 RMK BR OVR BASIN SLP260,CYUX,2015-02-21T17:00:00Z,68.77,-81.25,-37.0,-40.0,310,12,,12.0,30.28937,1026.0,,,,,,,,,IC DRSN,SKC,,,,,,,,VFR,,,,,,,,,,,,METAR,8.0
CYUS 211700Z AUTO 16008KT 9SM CLR M44/ A3047 RMK SLP328,CYUS,2015-02-21T17:00:00Z,68.82,-93.42,-44.0,,160,8,,9.0,30.469488,1032.8,,TRUE,,,,,,,,CLR,,,,,,,,VFR,,,,,,,,,,,,METAR,42.0
CYUB 211700Z 23003KT 15SM FEW070 M17/M21 A3017 RMK AC1 SLP216,CYUB,2015-02-21T17:00:00Z,69.45,-133.02,-17.0,-21.0,230,3,,15.0,30.171259,1021.6,,,,,,,,,,FEW,7000,,,,,,,VFR,,,,,,,,,,,,METAR,5.0
CYTH 211700Z 34011KT 15SM IC DRSN FEW120 M32/M38 A3041 RMK AC1 SLP335,CYTH,2015-02-21T17:00:00Z,55.78,-97.87,-32.0,-38.0,340,11,,15.0,30.410433,1033.5,,,,,,,,,IC DRSN,FEW,12000,,,,,,,VFR,,,,,,,,,,,,METAR,218.0
CYSM 211700Z 14006KT 15SM FEW160 M29/M32 A3072 RMK AS1 AS TR SLP435,CYSM,2015-02-21T17:00:00Z,60.03,-111.97,-29.0,-32.0,140,6,,15.0,30.720472,1043.5,,,,,,,,,,FEW,16000,,,,,,,VFR,,,,,,,,,,,,METAR,203.0
CYSF 211700Z AUTO 29004KT 260V330 9SM CLR M34/M40 A3072 RMK SLP445,CYSF,2015-02-21T17:00:00Z,59.25,-105.82,-34.0,-40.0,290,4,,9.0,30.720472,1044.5,,TRUE,,,,,,,,CLR,,,,,,,,VFR,,,,,,,,,,,,METAR,250.0
CYQV 211700Z AUTO 34012KT 9SM CLR M23/M27 A3032 RMK SLP323,CYQV,2015-02-21T17:00:00Z,51.27,-102.47,-23.0,-27.0,340,12,,9.0,30.318897,1032.3,,TRUE,,,,,,,,CLR,,,,,,,,VFR,,,,,,,,,,,,METAR,498.0
CYPE 211700Z 13002KT 15SM -SN BKN009 OVC015 M11/M13 A3061 RMK SC7SC1 VIS W-N 4 SLP409,CYPE,2015-02-21T17:00:00Z,56.22,-117.45,-11.0,-13.0,130,2,,15.0,30.611221,1040.9,,,,,,,,,-SN,BKN,900,OVC,1500,,,,,IFR,,,,,,,,,,,,METAR,571.0
CYOD 211700Z 33007KT 15SM FEW250 M20/M26 A3057 RMK CI0 SLP406,CYOD,2015-02-21T17:00:00Z,54.4,-110.28,-20.0,-26.0,330,7,,15.0,30.569881,1040.6,,,,,,,,,,FEW,25000,,,,,,,VFR,,,,,,,,,,,,METAR,544.0
CYIO 211700Z AUTO 18005KT 9SM CLR M37/M41 A3021 RMK SLP243,CYIO,2015-02-21T17:00:00Z,72.67,-77.97,-37.0,-41.0,180,5,,9.0,30.209646,1024.3,,TRUE,,,,,,,,CLR,,,,,,,,VFR,,,,,,,,,,,,METAR,57.0
CYEK 211700Z 35020KT 3/8SM IC BLSN SKC M34/M38 A3044 RMK BLSN4 SLP310,CYEK,2015-02-21T17:00:00Z,61.1,-94.07,-34.0,-38.0,350,20,,0.38,30.43996,1031.0,,,,,,,,,IC BLSN,SKC,,,,,,,,LIFR,,,,,,,,,,,,METAR,10.0
CYPL 211700Z 35005KT 230V040 15SM FEW015 FEW230 M26/M32 A3003 RMK CU1CI1 SLP218,CYPL,2015-02-21T17:00:00Z,51.47,-90.2,-26.0,-32.0,350,5,,15.0,30.029528,1021.8,,,,,,,,,,FEW,1500,FEW,23000,,,,,VFR,,,,,,,,,,,,METAR,373.0
CYLH 211700Z AUTO 25008KT 9SM CLR M27/M31 A3005 RMK SLP210,CYLH,2015-02-21T17:00:00Z,52.2,-87.93,-27.0,-31.0,250,8,,9.0,30.050198,1021.0,,TRUE,,,,,,,,CLR,,,,,,,,VFR,,,,,,,,,,,,METAR,254.0
CYLD 211700Z 23003KT 15SM -SN OVC025 M10/M15 A2979 RMK SC8 SLP125,CYLD,2015-02-21T17:00:00Z,47.82,-83.33,-10.0,-15.0,230,3,,15.0,29.790354,1012.5,,,,,,,,,-SN,OVC,2500,,,,,,,MVFR,,,,,,,,,,,,METAR,447.0
CYKZ 211700Z 35002KT 1SM -SN OVC004 M08/M10 A3000 RMK SN6SC2 /S01/ SLP174,CYKZ,2015-02-21T17:00:00Z,43.87,-79.37,-8.0,-10.0,350,2,,1.0,30.0,1017.4,,,,,,,,,-SN,OVC,400,,,,,,,LIFR,,,,,,,,,,,,METAR,198.0
CYKP 211700Z AUTO 33014KT 9SM CLR M25/M30 A3004 RMK SLP194,CYKP,2015-02-21T17:00:00Z,51.67,-85.9,-25.0,-30.0,330,14,,9.0,30.041338,1019.4,,TRUE,,,,,,,,CLR,,,,,,,,VFR,,,,,,,,,,,,METAR,179.0
CYKL 211700Z AUTO 29011KT 9SM CLR M19/M24 A2983 RMK SLP159,CYKL,2015-02-21T17:00:00Z,54.78,-66.82,-19.0,-24.0,290,11,,9.0,29.828741,1015.9,,TRUE,,,,,,,,CLR,,,,,,,,VFR,,,,,,,,,,,,METAR,521.0
CYKF 211700Z AUTO 17002KT 3/4SM -SN BKN021 OVC033 M10/M12 A2994 RMK PRESFR SLP165,CYKF,2015-02-21T17:00:00Z,43.47,-80.38,-10.0,-12.0,170,2,,0.75,29.940945,1016.5,,TRUE,,,,,,,-SN,BKN,2100,OVC,3300,,,,,LIFR,,,,,,,,,,,,METAR,317.0
CYHM 211700Z 22002KT 5/8SM -SN VV006 M08/M10 A2996 RMK SN8 SLP165,CYHM,2015-02-21T17:00:00Z,43.17,-79.93,-8.0,-10.0,220,2,,0.63,29.958662,1016.5,,,,,,,,,-SN,OVX,0,,,,,,,LIFR,,,,,,,,,,,600,METAR,238.0
CYGQ 211700Z 34007KT 290V360 10SM -SN FEW018 SCT020 SCT085 M19/M24 A2994 RMK CF1SC2AC1 SLP178,CYGQ,2015-02-21T17:00:00Z,49.77,-86.92,-19.0,-24.0,340,7,,10.0,29.940945,1017.8,,,,,,,,,-SN,FEW,1800,SCT,2000,SCT,8500,,,VFR,,,,,,,,,,,,METAR,351.0
CYGK 211700Z 16014KT 2SM -SN DRSN VV018 M09/M14 A3010 RMK SN8 SLP202,CYGK,2015-02-21T17:00:00Z,44.22,-76.58,-9.0,-14.0,160,14,,2.0,30.100393,1020.2,,,,,,,,,-SN DRSN,OVX,0,,,,,,,LIFR,,,,,,,,,,,1800,METAR,93.0
CYER 211700Z AUTO 30010G15KT 9SM CLR M27/M32 A3009 RMK SLP192,CYER,2015-02-21T17:00:00Z,56.02,-87.68,-27.0,-32.0,300,10,15,9.0,30.088583,1019.2,,TRUE,,,,,,,,CLR,,,,,,,,VFR,,,,,,,,,,,,METAR,16.0
CYBN 211700Z AUTO 14004KT 9SM -SN OVC032 M11/M13 A2998 RMK SLP170,CYBN,2015-02-21T17:00:00Z,44.27,-79.92,-11.0,-13.0,140,4,,9.0,29.97933,1017.0,,TRUE,,,,,,,-SN,OVC,3200,,,,,,,VFR,,,,,,,,,,,,METAR,223.0
CYAT 211700Z AUTO 33010KT 310V010 9SM CLR M25/M30 A3003 RMK SLP172,CYAT,2015-02-21T17:00:00Z,52.93,-82.43,-25.0,-30.0,330,10,,9.0,30.029528,1017.2,,TRUE,,,,,,,,CLR,,,,,,,,VFR,,,,,,,,,,,,METAR,9.0
CZUM 211700Z AUTO 28010G16KT 9SM SCT022 M15/M20 A2983 RMK SLP145,CZUM,2015-02-21T17:00:00Z,53.53,-64.08,-15.0,-20.0,280,10,16,9.0,29.828741,1014.5,,TRUE,,,,,,,,SCT,2200,,,,,,,VFR,,,,,,,,,,,,METAR,440.0
CZPC 211700Z AUTO 05017G23KT 8SM -SN FEW023 SCT047 SCT060 SCT083 M08/M10 A3037 RMK PRESRR SLP350,CZPC,2015-02-21T17:00:00Z,49.52,-114.0,-8.0,-10.0,50,17,23,8.0,30.369095,1035.0,,TRUE,,,,,,,-SN,FEW,2300,SCT,4700,SCT,6000,SCT,8300,VFR,,,,,,,,,,,,METAR,1190.0
CZFM 211700Z 00000KT 35SM FEW200 FEW210 M15/M17 A3019 RMK CS1CC1 SLP226,CZFM,2015-02-21T17:00:00Z,67.4,-134.87,-15.0,-17.0,0,0,,35.0,30.188976,1022.6,,,,,,,,,,FEW,20000,FEW,21000,,,,,VFR,,,,,,,,,,,,METAR,43.0
CZMD 211700Z AUTO 31008KT 290V010 9SM FEW037 M31/M37 A3015 RMK SLP253,CZMD,2015-02-21T17:00:00Z,53.43,-91.77,-31.0,-37.0,310,8,,9.0,30.15059,1025.3,,TRUE,,,,,,,,FEW,3700,,,,,,,VFR,,,,,,,,,,,,METAR,278.0
CYYU 211700Z 36010KT 320V020 5SM -SN BKN017 M12/M16 A2984 RMK SC7 SLP127,CYYU,2015-02-21T17:00:00Z,49.42,-82.47,-12.0,-16.0,360,10,,5.0,29.840551,1012.7,,,,,,,,,-SN,BKN,1700,,,,,,,MVFR,,,,,,,,,,,,METAR,227.0
CYYH 211700Z 16013KT 6SM IC BR DRSN SCT090 M39/M43 A3046 RMK FG1AC2 FROIN PARHELIA SLP320,CYYH,2015-02-21T17:00:00Z,69.53,-93.57,-39.0,-43.0,160,13,,6.0,30.46063,1032.0,,,,,,,,,IC BR DRSN,SCT,9000,,,,,,,VFR,,,,,,,,,,,,METAR,28.0
CYYB 211700Z 19009KT 10SM -SN BKN028 OVC090 M11/M14 A2992 RMK SC5AC3 SLP163,CYYB,2015-02-21T17:00:00Z,46.35,-79.42,-11.0,-14.0,190,9,,10.0,29.920275,1016.3,,,,,,,,,-SN,BKN,2800,OVC,9000,,,,,MVFR,,,,,,,,,,,,METAR,371.0
CYXZ 211700Z 22002KT 5SM -SN BKN015 M11/M14 A2986 RMK SC7 SLP134,CYXZ,2015-02-21T17:00:00Z,47.97,-84.77,-11.0,-14.0,220,2,,5.0,29.861221,1013.4,,,,,,,,,-SN,BKN,1500,,,,,,,MVFR,,,,,,,,,,,,METAR,287.0
CYXU 211700Z VRB02KT 2SM -SN OVC040 M08/M10 A2994 RMK SN2SC6 SLP159,CYXU,2015-02-21T17:00:00Z,43.02,-81.15,-8.0,-10.0,0,2,,2.0,29.940945,1015.9,,,,,,,,,-SN,OVC,4000,,,,,,,IFR,,,,,,,,,,,,METAR,278.0
CYXL 211700Z 35004KT 320V030 15SM IC FEW012 SCT240 M23/M27 A3006 RMK SF1CI2 SLP223,CYXL,2015-02-21T17:00:00Z,50.12,-91.9,-23.0,-27.0,350,4,,15.0,30.059055,1022.3,,,,,,,,,IC,FEW,1200,SCT,24000,,,,,VFR,,,,,,,,,,,,METAR,390.0
CYVQ 211700Z 07003KT 350V070 30SM SCT100 BKN240 M15/M17 A3023 RMK AC3CI3 SLP246,CYVQ,2015-02-21T17:00:00Z,65.27,-126.78,-15.0,-17.0,70,3,,30.0,30.230314,1024.6,,,,,,,,,,SCT,10000,BKN,24000,,,,,VFR,,,,,,,,,,,,METAR,74.0
CYVO 211700Z 17010KT 5SM -SN FEW019 BKN035 OVC070 M13/M17 A2991 RMK SC2SC3AC3 SLP163,CYVO,2015-02-21T17:00:00Z,48.07,-77.77,-13.0,-17.0,170,10,,5.0,29.911417,1016.3,,,,,,,,,-SN,FEW,1900,BKN,3500,OVC,7000,,,MVFR,,,,,,,,,,,,METAR,337.0
CYSP 211700Z 01009G16KT 15SM FEW022 SCT040 M16/M20 A2990 RMK SC2SC1 HZ E VIS LWR E SLP154,CYSP,2015-02-21T17:00:00Z,48.75,-86.35,-16.0,-20.0,10,9,16,15.0,29.899607,1015.4,,,,,,,,,,FEW,2200,SCT,4000,,,,,VFR,,,,,,,,,,,,METAR,315.0
CYSN 211700Z 18004KT 2SM -SN OVC018 M06/M08 A3001 RMK SN2SC6 /S01/ SLP168,CYSN,2015-02-21T17:00:00Z,43.2,-79.17,-6.0,-8.0,180,4,,2.0,30.008858,1016.8,,,,,,,,,-SN,OVC,1800,,,,,,,IFR,,,,,,,,,,,,METAR,98.0
CYSC 211700Z AUTO 19007KT 140V240 9SM BKN070 M08/M21 A3016 RMK SLP234,CYSC,2015-02-21T17:00:00Z,45.43,-71.68,-8.0,-21.0,190,7,,9.0,30.159449,1023.4,,TRUE,,,,,,,,BKN,7000,,,,,,,VFR,,,,,,,,,,,,METAR,241.0
CYSB 211700Z 20010KT 2SM -SN DRSN VV010 M12/M14 A2989 RMK SN8 VIS VRB 1-3 CIG VRB 008-012 SLP152,CYSB,2015-02-21T17:00:00Z,46.63,-80.8,-12.0,-14.0,200,10,,2.0,29.890747,1015.2,,,,,,,,,-SN DRSN,OVX,0,,,,,,,LIFR,,,,,,,,,,,1000,METAR,348.0
CYRQ 211700Z AUTO 15006KT 100V180 9SM BKN060 BKN091 BKN130 M11/M20 A3020 RMK PRESFR SLP231,CYRQ,2015-02-21T17:00:00Z,46.35,-72.68,-11.0,-20.0,150,6,,9.0,30.200787,1023.1,,TRUE,,,,,,,,BKN,6000,BKN,9100,BKN,13000,,,VFR,,,,,,,,,,,,METAR,61.0
CYRB 211700Z 15018G23KT 4SM -SN DRSN FEW070 OVC120 M29/M32 A3010 RMK AC2AS6 PRESFR SLP205,CYRB,2015-02-21T17:00:00Z,74.72,-94.97,-29.0,-32.0,150,18,23,4.0,30.100393,1020.5,,,,,,,,,-SN DRSN,FEW,7000,OVC,12000,,,,,MVFR,,,,,,,,,,,,METAR,67.0
CYQK 211700Z 34010KT 10SM IC DRSN SCT017 M22/M26 A3011 RMK SC3 SLP240,CYQK,2015-02-21T17:00:00Z,49.77,-94.37,-22.0,-26.0,340,10,,10.0,30.109253,1024.0,,,,,,,,,IC DRSN,SCT,1700,,,,,,,VFR,,,,,,,,,,,,METAR,411.0
CYPO 211700Z AUTO 29008KT 250V310 9SM CLR M28/M32 A3005 RMK SLP184,CYPO,2015-02-21T17:00:00Z,54.98,-85.43,-28.0,-32.0,290,8,,9.0,30.050198,1018.4,,TRUE,,,,,,,,CLR,,,,,,,,VFR,,,,,,,,,,,,METAR,53.0
TNCA 211700Z 07019KT 050V110 9999 SCT023 Q1014 A2997 NOSIG,TNCA,2015-02-21T17:00:00Z,12.5,-70.0,,,70,19,,6.21,29.940945,,,,,,TRUE,,,,,SCT,2300,,,,,,,VFR,,,,,,,,,,,,METAR,18.0
TKPN 211700Z 08016KT 9999 SCT018 29/22 Q1018,TKPN,2015-02-21T17:00:00Z,17.18,-62.57,29.0,22.0,80,16,,6.21,30.059055,,,,,,,,,,,SCT,1800,,,,,,,VFR,,,,,,,,,,,,METAR,17.0
DAUI 211700Z 24015KT 4000 HZ NSC 21/00 Q1007,DAUI,2015-02-21T17:00:00Z,27.25,2.52,21.0,0.0,240,15,,2.49,29.734253,,,,,,,,,,HZ,,,,,,,,,,,,,,,,,,,,,METAR,269.0
SVMD 211700Z 20011KT CAVOK 24/16 Q1021,SVMD,2015-02-21T17:00:00Z,8.58,-71.17,24.0,16.0,200,11,,6.21,30.147638,,,,,,,,,,,CAVOK,,,,,,,,VFR,,,,,,,,,,,,METAR,1498.0
SVVG 211700Z 29004KT 9999 SCT013 31/21 Q1012,SVVG,2015-02-21T17:00:00Z,8.62,-71.67,31.0,21.0,290,4,,6.21,29.88189,,,,,,,,,,,SCT,1300,,,,,,,VFR,,,,,,,,,,,,METAR,100.0
SVJM 211700Z /////KT 9999 SCT020 32/16 Q1015,SVJM,2015-02-21T17:00:00Z,9.92,-67.38,32.0,16.0,,,,6.21,29.970472,,,,,,,,,,,SCT,2000,,,,,,,VFR,,,,,,,,,,,,METAR,429.0
SVMN 211700Z 25002KT 9999 FEW013 35/// Q1013,SVMN,2015-02-21T17:00:00Z,9.82,-70.92,,,250,2,,6.21,29.911417,,,,,,,,,,,FEW,1300,,,,,,,VFR,,,,,,,,,,,,METAR,28.0
SVAC 211700Z 020//KT 9999 SCT020 ///// Q1015,SVAC,2015-02-21T17:00:00Z,9.55,-69.22,,,,,,6.21,29.970472,,,,,,,,,,,SCT,2000,,,,,,,VFR,,,,,,,,,,,,METAR,225.0
SVCU 211700Z 05011KT 9999 FEW013 32/20 Q1013,SVCU,2015-02-21T17:00:00Z,10.45,-64.13,32.0,20.0,50,11,,6.21,29.911417,,,,,,,,,,,FEW,1300,,,,,,,VFR,,,,,,,,,,,,METAR,4.0
SVMI 211700Z 05004KT 9999 SCT016 29/23 Q1015,SVMI,2015-02-21T17:00:00Z,10.58,-67.0,29.0,23.0,50,4,,6.21,29.970472,,,,,,,,,,,SCT,1600,,,,,,,VFR,,,,,,,,,,,,METAR,48.0
CWPZ 211700Z AUTO 00000KT M11/M13 RMK AO1 SOG 64 3013 SLP391 T11131127,CWPZ,2015-02-21T17:00:00Z,54.38,-125.97,-11.3,-12.7,0,0,,,,1039.1,,TRUE,TRUE,,,,,,,,,,,,,,,,,,,,,,,,,,,METAR,713.0
CWPR 211700Z AUTO 20001KT M00/M00 RMK AO1 SOG 17 3017 SLP300 T10041004,CWPR,2015-02-21T17:00:00Z,49.47,-120.52,-0.4,-0.4,200,1,,,,1030.0,,TRUE,TRUE,,,,,,,,,,,,,,,,,,,,,,,,,,,METAR,700.0
CWPF 211700Z AUTO 18005KT 07/05 RMK AO1 SLP283 T00720046 53018,CWPF,2015-02-21T17:00:00Z,48.43,-123.43,7.2,4.6,180,5,,,,1028.3,,TRUE,TRUE,,,,,,,,,,,,,,,,1.8,,,,,,,,,,,METAR,12.0
CWPD 211700Z AUTO 19007KT M17/M20 RMK AO1 SLP228 T11691201 58015,CWPD,2015-02-21T17:00:00Z,47.57,-71.22,-16.9,-20.1,190,7,,,,1022.8,,TRUE,TRUE,,,,,,,,,,,,,,,,-1.5,,,,,,,,,,,METAR,803.0
CWOE 211700Z AUTO 34013KT M09/M12 RMK AO1 3014 PK WND 33018/1649 SLP320 T10851119 50002,CWOE,2015-02-21T17:00:00Z,49.12,-110.47,-8.5,-11.9,340,13,,,,1032.0,,TRUE,TRUE,,,,,,,,,,,,,,,,0.2,,,,,,,,,,,METAR,935.0
CWOD 211700Z AUTO 11010KT M16/M19 RMK AO1 SOG 06 8011 SLP208 T11561189 50029,CWOD,2015-02-21T17:00:00Z,48.85,-72.55,-15.6,-18.9,110,10,,,,1020.8,,TRUE,TRUE,,,,,,,,,,,,,,,,2.9,,,,,,,,,,,METAR,137.0
CWOC 211700Z AUTO 26013G20KT M11/M20 RMK AO1 PK WND 26020/1656 SLP267 T11141197 51016,CWOC,2015-02-21T17:00:00Z,48.02,-65.32,-11.4,-19.7,260,13,20,,,1026.7,,TRUE,TRUE,,,,,,,,,,,,,,,,1.6,,,,,,,,,,,METAR,47.0
CWNQ 211700Z AUTO 11004KT M10/M19 RMK AO1 SLP227 T10971192 58036,CWNQ,2015-02-21T17:00:00Z,46.22,-72.65,-9.7,-19.2,110,4,,,,1022.7,,TRUE,TRUE,,,,,,,,,,,,,,,,-3.6,,,,,,,,,,,METAR,10.0
CWNP 211700Z AUTO 14002KT 01/01 RMK AO1 SOG 02 1021 SLP293 T00100005,CWNP,2015-02-21T17:00:00Z,50.27,-117.82,1.0,0.5,140,2,,,,1029.3,,TRUE,TRUE,,,,,,,,,,,,,,,,,,,,,,,,,,,METAR,524.0
CWNM 211700Z AUTO 12001KT 01/M01 RMK AO1 SLP284 T00081011 51026,CWNM,2015-02-21T17:00:00Z,49.5,-117.28,0.8,-1.1,120,1,,,,1028.4,,TRUE,TRUE,,,,,,,,,,,,,,,,2.6,,,,,,,,,,,METAR,535.0
CWNK 211700Z AUTO 31012G17KT M21/M26 RMK AO1 PK WND 32017/1613 T12101258,CWNK,2015-02-21T17:00:00Z,49.5,-98.03,-21.0,-25.8,310,12,17,,,,,TRUE,TRUE,,,,,,,,,,,,,,,,,,,,,,,,,,,METAR,268.0
CWNE 211700Z AUTO 24019G24KT M12/M16 RMK AO1 PK WND 26025/1614 SLP286 T11161163 51016,CWNE,2015-02-21T17:00:00Z,47.07,-64.0,-11.6,-16.3,240,19,24,,,1028.6,,TRUE,TRUE,,,,,,,,,,,,,,,,1.6,,,,,,,,,,,METAR,15.0
CZTB 211700Z AUTO 30008KT M15/M19 RMK AO1 SLP184 T11481193 52013,CZTB,2015-02-21T17:00:00Z,48.37,-89.32,-14.8,-19.3,300,8,,,,1018.4,,TRUE,TRUE,,,,,,,,,,,,,,,,1.3,,,,,,,,,,,METAR,199.0
CZMJ 211700Z AUTO 32010KT M22/M26 RMK AO1 SOG 10 3023 SLP351 T12201258,CZMJ,2015-02-21T17:00:00Z,50.33,-105.57,-22.0,-25.8,320,10,,,,1035.1,,TRUE,TRUE,,,,,,,,,,,,,,,,,,,,,,,,,,,METAR,577.0
CZKD 211700Z AUTO 33008KT M32/M38 RMK AO1 SOG 49 3022 SLP313 T13231377,CZKD,2015-02-21T17:00:00Z,56.03,-96.52,-32.3,-37.7,330,8,,,,1031.3,,TRUE,TRUE,,,,,,,,,,,,,,,,,,,,,,,,,,,METAR,183.0
CXZV 211700Z AUTO 25008KT M13/M20 RMK AO1 SOG 40 0009 SLP226 T11331203,CXZV,2015-02-21T17:00:00Z,50.22,-66.25,-13.3,-20.3,250,8,,,,1022.6,,TRUE,TRUE,,,,,,,,,,,,,,,,,,,,,,,,,,,METAR,52.0
CXTD 211700Z AUTO 28012G17KT M07/M21 RMK AO1 SOG 15 1015 PK WND 26019/1645 SLP314 T10731210 50002,CXTD,2015-02-21T17:00:00Z,45.62,-61.68,-7.3,-21.0,280,12,17,,,1031.4,,TRUE,TRUE,,,,,,,,,,,,,,,,0.2,,,,,,,,,,,METAR,68.0
CXRL 211700Z AUTO M21/M23 RMK AO1 T12061227,CXRL,2015-02-21T17:00:00Z,54.5,-111.7,-20.6,-22.7,,,,,,,,TRUE,TRUE,,,,,,,,,,,,,,,,,,,,,,,,,,,METAR,585.0
CXPC 211700Z AUTO M09/M14 RMK AO1 SOG 45 7007 SLP156 T10941138,CXPC,2015-02-21T17:00:00Z,45.35,-80.05,-9.4,-13.8,,,,,,1015.6,,TRUE,TRUE,,,,,,,,,,,,,,,,,,,,,,,,,,,METAR,176.0
CXLB 211700Z AUTO 28012KT M05/ RMK AO1 SLP333 T1052 50007,CXLB,2015-02-21T17:00:00Z,44.37,-64.3,-5.2,,280,12,,,,1033.3,,TRUE,TRUE,,,,,,,,,,,,,,,,0.7,,,,,,,,,,,METAR,4.0
CXCP 211700Z AUTO 01015KT M10/M13 RMK AO1 PK WND 02020/1655 T11041127 50006,CXCP,2015-02-21T17:00:00Z,50.28,-113.35,-10.4,-12.7,10,15,,,,,,TRUE,TRUE,,,,,,,,,,,,,,,,0.6,,,,,,,,,,,METAR,1006.0
CWSF 211700Z AUTO 28014G19KT M13/M18 RMK AO1 2PAST HR 1022 PK WND 27019/1643 SLP241 P0001 T11341180 50007,CWSF,2015-02-21T17:00:00Z,49.25,-65.32,-13.4,-18.0,280,14,19,,,1024.1,,TRUE,TRUE,,,,,,,,,,,,,,,,0.7,,,,,0.01,,,,,,METAR,29.0
CWER 211700Z AUTO 24005KT RMK AO1,CWER,2015-02-21T17:00:00Z,47.0,-70.82,,,240,5,,,,,,TRUE,TRUE,,,,,,,,,,,,,,,,,,,,,,,,,,,METAR,5.0
CWEP 211700Z AUTO 29010KT M09/M16 RMK AO1 SOG 80 1023 PK WND 28017/1611 SLP295 T10921163,CWEP,2015-02-21T17:00:00Z,46.45,-61.97,-9.2,-16.3,290,10,,,,1029.5,,TRUE,TRUE,,,,,,,,,,,,,,,,,,,,,,,,,,,METAR,11.0
CWWE 211700Z AUTO 24015G20KT M05/M10 RMK AO1 PK WND 24020/1658 SLP338 T10461103 50005,CWWE,2015-02-21T17:00:00Z,43.97,-64.67,-4.6,-10.3,240,15,20,,,1033.8,,TRUE,TRUE,,,,,,,,,,,,,,,,0.5,,,,,,,,,,,METAR,9.0
CWPK 211700Z AUTO 20005KT M13/M19 RMK AO1 SOG 47 8019 SLP188 T11321193,CWPK,2015-02-21T17:00:00Z,47.92,-74.62,-13.2,-19.3,200,5,,,,1018.8,,TRUE,TRUE,,,,,,,,,,,,,,,,,,,,,,,,,,,METAR,442.0
CWRN 211700Z AUTO 27015G20KT M05/ RMK AO1 PK WND 26021/1602 T1053,CWRN,2015-02-21T17:00:00Z,45.35,-60.98,-5.3,,270,15,20,,,,,TRUE,TRUE,,,,,,,,,,,,,,,,,,,,,,,,,,,METAR,8.0
CWHO 211700Z AUTO 30021G31KT M07/M10 RMK AO1 7PAST HR 1067 PK WND 29031/1651 SLP020 P0003 T10731104 50053,CWHO,2015-02-21T17:00:00Z,55.45,-60.22,-7.3,-10.4,300,21,31,,,1002.0,,TRUE,TRUE,,,,,,,,,,,,,,,,5.3,,,,,0.03,,,,,,METAR,8.0
CWBV 211700Z AUTO 29014G19KT M05/M17 RMK AO1 PK WND 30021/1603 SLP315 T10481166 51010,CWBV,2015-02-21T17:00:00Z,44.82,-62.32,-4.8,-16.6,290,14,19,,,1031.5,,TRUE,TRUE,,,,,,,,,,,,,,,,1.0,,,,,,,,,,,METAR,10.0
CXKE 211700Z AUTO 11002KT M11/M16 RMK AO1 SOG 23 6020 SLP206 T11121156,CXKE,2015-02-21T17:00:00Z,45.0,-75.63,-11.2,-15.6,110,2,,,,1020.6,,TRUE,TRUE,,,,,,,,,,,,,,,,,,,,,,,,,,,METAR,99.0
CXKA 211700Z AUTO 33007KT M12/M15 RMK AO1 SOG 76 3011 SLP126 T11201152 50005,CXKA,2015-02-21T17:00:00Z,49.4,-82.45,-12.0,-15.2,330,7,,,,1012.6,,TRUE,TRUE,,,,,,,,,,,,,,,,0.5,,,,,,,,,,,METAR,218.0
CXHM 211700Z AUTO 00000KT M08/M11 RMK AO1 5PAST HR 8010 SLP166 P0002 T10811108 50034,CXHM,2015-02-21T17:00:00Z,43.28,-79.9,-8.1,-10.8,0,0,,,,1016.6,,TRUE,TRUE,,,,,,,,,,,,,,,,3.4,,,,,0.02,,,,,,METAR,107.0
CWZS 211700Z AUTO 18005KT M13/M20 RMK AO1 SLP254 T11271201 57006,CWZS,2015-02-21T17:00:00Z,48.47,-67.43,-12.7,-20.1,180,5,,,,1025.4,,TRUE,TRUE,,,,,,,,,,,,,,,,-0.6,,,,,,,,,,,METAR,166.0
CWZO 211700Z AUTO 36009KT RMK AO1 PK WND 03019/1629,CWZO,2015-02-21T17:00:00Z,48.55,-123.23,,,360,9,,,,,,TRUE,TRUE,,,,,,,,,,,,,,,,,,,,,,,,,,,METAR,1.0
CWZA 211700Z AUTO 01005KT 08/03 RMK AO1 SLP288 T00770034 53017,CWZA,2015-02-21T17:00:00Z,49.25,-121.77,7.7,3.4,10,5,,,,1028.8,,TRUE,TRUE,,,,,,,,,,,,,,,,1.7,,,,,,,,,,,METAR,15.0
CWYY 211700Z AUTO 32010G17KT 08/M02 RMK AO1 PK WND 33018/1627 SLP274 T00791023 51022,CWYY,2015-02-21T17:00:00Z,49.03,-119.43,7.9,-2.3,320,10,17,,,1027.4,,TRUE,TRUE,,,,,,,,,,,,,,,,2.2,,,,,,,,,,,METAR,283.0
CWYJ 211700Z AUTO 31002KT 08/04 RMK AO1 SLP284 T00770037 53018,CWYJ,2015-02-21T17:00:00Z,48.45,-123.3,7.7,3.7,310,2,,,,1028.4,,TRUE,TRUE,,,,,,,,,,,,,,,,1.8,,,,,,,,,,,METAR,39.0
CWDZ 211700Z AUTO 02011KT M11/M16 RMK AO1 SLP380 T11121156 51030,CWDZ,2015-02-21T17:00:00Z,51.42,-112.67,-11.2,-15.6,20,11,,,,1038.0,,TRUE,TRUE,,,,,,,,,,,,,,,,3.0,,,,,,,,,,,METAR,678.0
CWDJ 211700Z AUTO 33012KT M23/M26 RMK AO1 SOG 09 1020 SLP334 T12281263 50002,CWDJ,2015-02-21T17:00:00Z,50.4,-104.58,-22.8,-26.3,330,12,,,,1033.4,,TRUE,TRUE,,,,,,,,,,,,,,,,0.2,,,,,,,,,,,METAR,573.0
CWBZ 211700Z AUTO 06008KT M11/M18 RMK AO1 SLP217 T11071179 56036,CWBZ,2015-02-21T17:00:00Z,45.12,-74.27,-10.7,-17.9,60,8,,,,1021.7,,TRUE,TRUE,,,,,,,,,,,,,,,,-3.6,,,,,,,,,,,METAR,49.0
CWBT 211700Z AUTO 26009G17KT M09/M12 RMK AO1 PK WND 25021/1649 SLP211 T10921122 51028,CWBT,2015-02-21T17:00:00Z,50.27,-64.23,-9.2,-12.2,260,9,17,,,1021.1,,TRUE,TRUE,,,,,,,,,,,,,,,,2.8,,,,,,,,,,,METAR,11.0
CWBS 211700Z AUTO 36004KT M12/M19 RMK AO1 T11171193,CWBS,2015-02-21T17:00:00Z,46.18,-72.92,-11.7,-19.3,360,4,,,,,,TRUE,TRUE,,,,,,,,,,,,,,,,,,,,,,,,,,,METAR,16.0
CWAV 211700Z AUTO 01006KT M10/M12 RMK AO1 SOG 08 1021 SLP368 T10971122,CWAV,2015-02-21T17:00:00Z,51.77,-114.67,-9.7,-12.2,10,6,,,,1036.8,,TRUE,TRUE,,,,,,,,,,,,,,,,,,,,,,,,,,,METAR,1114.0
CWAQ 211700Z AUTO 32012KT M16/M20 RMK AO1 SOG 01 1025 SLP310 T11591198,CWAQ,2015-02-21T17:00:00Z,49.05,-105.48,-15.9,-19.8,320,12,,,,1031.0,,TRUE,TRUE,,,,,,,,,,,,,,,,,,,,,,,,,,,METAR,756.0
CWAF 211700Z AUTO M12/M14 RMK AO1 T11201140,CWAF,2015-02-21T17:00:00Z,48.07,-69.53,-12.0,-14.0,,,,,,,,TRUE,TRUE,,,,,,,,,,,,,,,,,,,,,,,,,,,METAR,5.0
CWZG 211700Z AUTO 23003KT M06/M10 RMK AO1 SLP322 T10611098 51010,CWZG,2015-02-21T17:00:00Z,51.2,-115.53,-6.1,-9.8,230,3,,,,1032.2,,TRUE,TRUE,,,,,,,,,,,,,,,,1.0,,,,,,,,,,,METAR,1397.0
CWRO 211700Z AUTO 09010KT 06/04 RMK AO1 SLP312 T00630037 53007,CWRO,2015-02-21T17:00:00Z,54.17,-131.67,6.3,3.7,90,10,,,,1031.2,,TRUE,TRUE,,,,,,,,,,,,,,,,0.7,,,,,,,,,,,METAR,7.0
CWLP 211700Z AUTO 13011KT 06/04 RMK AO1 SLP301 T00590043 53014,CWLP,2015-02-21T17:00:00Z,50.93,-127.63,5.9,4.3,130,11,,,,1030.1,,TRUE,TRUE,,,,,,,,,,,,,,,,1.4,,,,,,,,,,,METAR,17.0
CWEQ 211700Z AUTO 05006KT M27/M31 RMK AO1 SLP336 T12741310 52030,CWEQ,2015-02-21T17:00:00Z,52.12,-101.22,-27.4,-31.0,50,6,,,,1033.6,,TRUE,TRUE,,,,,,,,,,,,,,,,3.0,,,,,,,,,,,METAR,335.0
CWVT 211700Z AUTO 36006KT M26/M30 RMK AO1 SOG 36 3023 SLP428 T12611299 50003,CWVT,2015-02-21T17:00:00Z,55.82,-108.42,-26.1,-29.9,360,6,,,,1042.8,,TRUE,TRUE,,,,,,,,,,,,,,,,0.3,,,,,,,,,,,METAR,434.0
CWLB 211700Z AUTO 32006KT M19/M23 RMK AO1 SOG 27 3012 SLP410 T11921230,CWLB,2015-02-21T17:00:00Z,54.77,-112.02,-19.2,-23.0,320,6,,,,1041.0,,TRUE,TRUE,,,,,,,,,,,,,,,,,,,,,,,,,,,METAR,567.0
CWCT 211700Z AUTO 35014KT M18/M24 RMK AO1 SOG 08 1025 PK WND 35018/1658 SLP384 T11751244,CWCT,2015-02-21T17:00:00Z,52.07,-111.47,-17.5,-24.4,350,14,,,,1038.4,,TRUE,TRUE,,,,,,,,,,,,,,,,,,,,,,,,,,,METAR,791.0
CWRM 211700Z AUTO 36004KT M08/M11 RMK AO1 SOG 35 2021 SLP371 T10751106 50006,CWRM,2015-02-21T17:00:00Z,52.42,-114.92,-7.5,-10.6,360,4,,,,1037.1,,TRUE,TRUE,,,,,,,,,,,,,,,,0.6,,,,,,,,,,,METAR,988.0
CWOY 211700Z AUTO 27003KT M25/M29 RMK AO1 SOG 13 1026 SLP343 T12491290,CWOY,2015-02-21T17:00:00Z,51.77,-104.2,-24.9,-29.0,270,3,,,,1034.3,,TRUE,TRUE,,,,,,,,,,,,,,,,,,,,,,,,,,,METAR,560.0
CWKO 211700Z AUTO 32015G20KT M18/M20 RMK AO1 SOG 06 1020 PK WND 31020/1604 SLP319 T11811203,CWKO,2015-02-21T17:00:00Z,49.17,-105.97,-18.1,-20.3,320,15,20,,,1031.9,,TRUE,TRUE,,,,,,,,,,,,,,,,,,,,,,,,,,,METAR,917.0
CWEH 211700Z AUTO 36014KT M13/M15 RMK AO1 SOG 30 2018 PK WND 01018/1659 SLP315 T11291154 50002,CWEH,2015-02-21T17:00:00Z,49.42,-108.97,-12.9,-15.4,360,14,,,,1031.5,,TRUE,TRUE,,,,,,,,,,,,,,,,0.2,,,,,,,,,,,METAR,1078.0
CWDC 211700Z AUTO 07003KT M32/M37 RMK AO1 SOG 41 2008 SLP447 T13231373,CWDC,2015-02-21T17:00:00Z,59.57,-108.47,-32.3,-37.3,70,3,,,,1044.7,,TRUE,TRUE,,,,,,,,,,,,,,,,,,,,,,,,,,,METAR,318.0
CXZU 211700Z AUTO M08/M12 RMK AO1 SLP389 T10831115 53016,CXZU,2015-02-21T17:00:00Z,54.15,-115.78,-8.3,-11.5,,,,,,1038.9,,TRUE,TRUE,,,,,,,,,,,,,,,,1.6,,,,,,,,,,,METAR,785.0
CXWN 211700Z AUTO 33005KT M22/M27 RMK AO1 SLP280 T12181266 53017,CXWN,2015-02-21T17:00:00Z,49.88,-97.13,-21.8,-26.6,330,5,,,,1028.0,,TRUE,TRUE,,,,,,,,,,,,,,,,1.7,,,,,,,,,,,METAR,230.0
CXSH 211700Z AUTO 17003KT M11/M21 RMK AO1 SLP228 T11101208 58035,CXSH,2015-02-21T17:00:00Z,46.58,-72.73,-11.0,-20.8,170,3,,,,1022.8,,TRUE,TRUE,,,,,,,,,,,,,,,,-3.5,,,,,,,,,,,METAR,110.0
CXQT 211700Z AUTO 00000KT 21/M09 RMK AO1 T02101091,CXQT,2015-02-21T17:00:00Z,48.43,-89.22,21.0,-9.1,0,0,,,,,,TRUE,TRUE,,,,,,,,,,,,,,,,,,,,,,,,,,,METAR,183.0
CXOX 211700Z AUTO 34004KT M27/M33 RMK AO1 2PAST HR SOG 45 1027 SLP395 P0001 T12651329 50012,CXOX,2015-02-21T17:00:00Z,55.15,-105.27,-26.5,-32.9,340,4,,,,1039.5,,TRUE,TRUE,,,,,,,,,,,,,,,,1.2,,,,,0.01,,,,,,METAR,379.0
CXNM 211700Z AUTO 28024G34KT M14/M17 RMK AO1 SOG 150 PK WND 27037/1645 T11351169,CXNM,2015-02-21T17:00:00Z,46.82,-60.67,-13.5,-16.9,280,24,34,,,,,TRUE,TRUE,,,,,,,,,,,,,,,,,,,,,,,,,,,METAR,439.0
CXMI 211700Z AUTO 27008KT M03/M16 RMK AO1 SLP327 T10321155 50010,CXMI,2015-02-21T17:00:00Z,44.6,-63.53,-3.2,-15.5,270,8,,,,1032.7,,TRUE,TRUE,,,,,,,,,,,,,,,,1.0,,,,,,,,,,,METAR,15.0
CXMD 211700Z AUTO 35010G18KT M20/M25 RMK AO1 SOG 11 1019 PK WND 34018/1700 SLP288 T11981253,CXMD,2015-02-21T17:00:00Z,49.22,-98.08,-19.8,-25.3,350,10,18,,,1028.8,,TRUE,TRUE,,,,,,,,,,,,,,,,,,,,,,,,,,,METAR,301.0
CXIB 211700Z AUTO 24010G24KT M08/M18 RMK AO1 PK WND 24025/1608 SLP268 T10801178 51023,CXIB,2015-02-21T17:00:00Z,46.67,-60.38,-8.0,-17.8,240,10,24,,,1026.8,,TRUE,TRUE,,,,,,,,,,,,,,,,2.3,,,,,,,,,,,METAR,8.0
CXHF 211700Z AUTO M13/M16 RMK AO1 T11311160,CXHF,2015-02-21T17:00:00Z,45.83,-75.65,-13.1,-16.0,,,,,,,,TRUE,TRUE,,,,,,,,,,,,,,,,,,,,,,,,,,,METAR,190.0
CXGH 211700Z AUTO 03006KT M22/M28 RMK AO1 T12231276,CXGH,2015-02-21T17:00:00Z,50.63,-97.0,-22.3,-27.6,30,6,,,,,,TRUE,TRUE,,,,,,,,,,,,,,,,,,,,,,,,,,,METAR,217.0
CXDW 211700Z AUTO 34019G24KT M21/M25 RMK AO1 PK WND 34024/1659 T12071246,CXDW,2015-02-21T17:00:00Z,49.4,-98.32,-20.7,-24.6,340,19,24,,,,,TRUE,TRUE,,,,,,,,,,,,,,,,,,,,,,,,,,,METAR,341.0
CXCK 211700Z AUTO 00000KT M16/M17 RMK AO1 SOG 30 7012 SLP286 T11571174,CXCK,2015-02-21T17:00:00Z,62.12,-136.2,-15.7,-17.4,0,0,,,,1028.6,,TRUE,TRUE,,,,,,,,,,,,,,,,,,,,,,,,,,,METAR,540.0
CXCA 211700Z AUTO 35011KT M19/M21 RMK AO1 1014 SLP194 T11881212 50002,CXCA,2015-02-21T17:00:00Z,49.15,-88.35,-18.8,-21.2,350,11,,,,1019.4,,TRUE,TRUE,,,,,,,,,,,,,,,,0.2,,,,,,,,,,,METAR,228.0
CXBO 211700Z AUTO 07003KT RMK AO1,CXBO,2015-02-21T17:00:00Z,46.83,-71.2,,,70,3,,,,,,TRUE,TRUE,,,,,,,,,,,,,,,,,,,,,,,,,,,METAR,100.0
CXKT 211700Z AUTO 22011G21KT M07/M16 RMK AO1 SOG 78 0003 PK WND 21021/1657 SLP321 T10661159,CXKT,2015-02-21T17:00:00Z,45.07,-64.48,-6.6,-15.9,220,11,21,,,1032.1,,TRUE,TRUE,,,,,,,,,,,,,,,,,,,,,,,,,,,METAR,49.0
CXBK 211700Z AUTO 31015KT M22/M26 RMK AO1 SOG 12 1019 PK WND 31017/1654 SLP313 T12231260,CXBK,2015-02-21T17:00:00Z,50.2,-104.7,-22.3,-26.0,310,15,,,,1031.3,,TRUE,TRUE,,,,,,,,,,,,,,,,,,,,,,,,,,,METAR,580.0
CXSL 211700Z AUTO 36006KT M18/M21 RMK AO1 T11811210,CXSL,2015-02-21T17:00:00Z,54.28,-112.5,-18.1,-21.0,360,6,,,,,,TRUE,TRUE,,,,,,,,,,,,,,,,,,,,,,,,,,,METAR,680.0
CPXL 211700Z AUTO 01011KT M10/M12 RMK AO1 PK WND 00017/1628 T10971120 50005,CPXL,2015-02-21T17:00:00Z,49.87,-111.38,-9.7,-12.0,10,11,,,,,,TRUE,TRUE,,,,,,,,,,,,,,,,0.5,,,,,,,,,,,METAR,799.0
CPSV 211700Z AUTO 36014KT M10/M12 RMK AO1 PK WND 00018/1659 T10971118 50004,CPSV,2015-02-21T17:00:00Z,49.92,-110.92,-9.7,-11.8,360,14,,,,,,TRUE,TRUE,,,,,,,,,,,,,,,,0.4,,,,,,,,,,,METAR,766.0
CPST 211700Z AUTO 02014KT M11/M15 RMK AO1 PK WND 02020/1640 T11141146,CPST,2015-02-21T17:00:00Z,51.03,-113.28,-11.4,-14.6,20,14,,,,,,TRUE,TRUE,,,,,,,,,,,,,,,,,,,,,,,,,,,METAR,967.0
CAHR 211700Z AUTO 24010KT M10/M20 RMK AO1 SLP299 T11031197 50015,CAHR,2015-02-21T17:00:00Z,46.35,-63.17,-10.3,-19.7,240,10,,,,1029.9,,TRUE,TRUE,,,,,,,,,,,,,,,,1.5,,,,,,,,,,,METAR,53.0
CWAR 211700Z AUTO 24030G36KT M03/M07 RMK AO1 1022 PK WND 23037/1618 SLP206 T10251070 50014,CWAR,2015-02-21T17:00:00Z,47.28,-54.0,-2.5,-7.0,240,30,36,,,1020.6,,TRUE,TRUE,,,,,,,,,,,,,,,,1.4,,,,,,,,,,,METAR,16.0
CERM 211700Z AUTO 16007KT M13/M21 RMK AO1 SOG 48 8003 SLP278 T11321213,CERM,2015-02-21T17:00:00Z,47.42,-68.32,-13.2,-21.3,160,7,,,,1027.8,,TRUE,TRUE,,,,,,,,,,,,,,,,,,,,,,,,,,,METAR,154.0
CZEL 211700Z AUTO 23002KT M11/M13 RMK AO1 8008 SLP160 T11111133 50006,CZEL,2015-02-21T17:00:00Z,43.65,-80.42,-11.1,-13.3,230,2,,,,1016.0,,TRUE,TRUE,,,,,,,,,,,,,,,,0.6,,,,,,,,,,,METAR,376.0
CXBI 211700Z AUTO 22005KT M11/M13 RMK AO1 8006 SLP172 T11091132 50015,CXBI,2015-02-21T17:00:00Z,44.48,-79.55,-10.9,-13.2,220,5,,,,1017.2,,TRUE,TRUE,,,,,,,,,,,,,,,,1.5,,,,,,,,,,,METAR,289.0
CWST 211700Z AUTO 23011KT M13/M18 RMK AO1 SOG 10 8018 SLP252 T11311180,CWST,2015-02-21T17:00:00Z,47.35,-70.02,-13.1,-18.0,230,11,,,,1025.2,,TRUE,TRUE,,,,,,,,,,,,,,,,,,,,,,,,,,,METAR,31.0
CWSR 211700Z AUTO 33013KT M24/M28 RMK AO1 SOG 20 1021 PK WND 33018/1622 SLP368 T12411277 50002,CWSR,2015-02-21T17:00:00Z,53.37,-107.53,-24.1,-27.7,330,13,,,,1036.8,,TRUE,TRUE,,,,,,,,,,,,,,,,0.2,,,,,,,,,,,METAR,584.0
CWSP 211700Z AUTO 08005KT 08/04 RMK AO1 SLP286 T00810043 53017,CWSP,2015-02-21T17:00:00Z,48.38,-123.92,8.1,4.3,80,5,,,,1028.6,,TRUE,TRUE,,,,,,,,,,,,,,,,1.7,,,,,,,,,,,METAR,21.0
CWSL 211700Z AUTO 18002KT M01/M01 RMK AO1 SOG 00 3025 SLP318 T10061008,CWSL,2015-02-21T17:00:00Z,50.7,-119.27,-0.6,-0.8,180,2,,,,1031.8,,TRUE,TRUE,,,,,,,,,,,,,,,,,,,,,,,,,,,METAR,351.0
CWSK 211700Z AUTO 28002KT 05/01 RMK AO1 SLP288 T00450013 53013,CWSK,2015-02-21T17:00:00Z,49.78,-123.17,4.5,1.3,280,2,,,,1028.8,,TRUE,TRUE,,,,,,,,,,,,,,,,1.3,,,,,,,,,,,METAR,60.0
CWSG 211700Z AUTO 25015KT M14/M16 RMK AO1 PK WND 26022/1624 SLP258 T11401160 58002,CWSG,2015-02-21T17:00:00Z,49.12,-66.65,-14.0,-16.0,250,15,,,,1025.8,,TRUE,TRUE,,,,,,,,,,,,,,,,-0.2,,,,,,,,,,,METAR,5.0
CWSD 211700Z AUTO 24018KT M11/M18 RMK AO1 SOG 79 1011 PK WND 24025/1613 SLP300 T11061178,CWSD,2015-02-21T17:00:00Z,46.42,-63.85,-10.6,-17.8,240,18,,,,1030.0,,TRUE,TRUE,,,,,,,,,,,,,,,,,,,,,,,,,,,METAR,24.0
CWRZ 211700Z AUTO 25010KT M09/M19 RMK AO1 SLP239 T10901187 51019,CWRZ,2015-02-21T17:00:00Z,48.42,-64.32,-9.0,-18.7,250,10,,,,1023.9,,TRUE,TRUE,,,,,,,,,,,,,,,,1.9,,,,,,,,,,,METAR,16.0
CWRT 211700Z AUTO 13006KT M06/M07 RMK AO1 T10591074,CWRT,2015-02-21T17:00:00Z,49.62,-114.47,-5.9,-7.4,130,6,,,,,,TRUE,TRUE,,,,,,,,,,,,,,,,,,,,,,,,,,,METAR,1303.0
CWRK 211700Z AUTO 21005KT M10/M13 RMK AO1 SOG 41 6011 SLP174 T10961127 50008,CWRK,2015-02-21T17:00:00Z,45.07,-77.87,-9.6,-12.7,210,5,,,,1017.4,,TRUE,TRUE,,,,,,,,,,,,,,,,0.8,,,,,,,,,,,METAR,331.0
CWRJ 211700Z AUTO 32008KT M20/M23 RMK AO1 SOG 14 3025 SLP360 T12021234,CWRJ,2015-02-21T17:00:00Z,51.57,-107.92,-20.2,-23.4,320,8,,,,1036.0,,TRUE,TRUE,,,,,,,,,,,,,,,,,,,,,,,,,,,METAR,586.0
CWQV 211700Z AUTO 10001KT M14/M22 RMK AO1 T11411216,CWQV,2015-02-21T17:00:00Z,48.27,-70.12,-14.1,-21.6,100,1,,,,,,TRUE,TRUE,,,,,,,,,,,,,,,,,,,,,,,,,,,METAR,1.0
CWQR 211700Z AUTO 26026G33KT M10/ RMK AO1 PK WND 25034/1607 T1100,CWQR,2015-02-21T17:00:00Z,50.22,-64.22,-10.0,,260,26,33,,,,,TRUE,TRUE,,,,,,,,,,,,,,,,,,,,,,,,,,,METAR,9.0
CWQO 211700Z AUTO 22012G17KT M13/M18 RMK AO1 PK WND 21017/1656 T11301176,CWQO,2015-02-21T17:00:00Z,48.42,-68.9,-13.0,-17.6,220,12,17,,,,,TRUE,TRUE,,,,,,,,,,,,,,,,,,,,,,,,,,,METAR,1.0
CWQK 211700Z AUTO 12011KT 08/04 RMK AO1 SLP285 T00790041 53016,CWQK,2015-02-21T17:00:00Z,48.3,-123.53,7.9,4.1,120,11,,,,1028.5,,TRUE,TRUE,,,,,,,,,,,,,,,,1.6,,,,,,,,,,,METAR,5.0
CWQH 211700Z AUTO 18005KT M08/M21 RMK AO1 SOG 28 T10821206,CWQH,2015-02-21T17:00:00Z,45.37,-71.82,-8.2,-20.6,180,5,,,,,,TRUE,TRUE,,,,,,,,,,,,,,,,,,,,,,,,,,,METAR,181.0
CWNZ 211700Z AUTO 34008KT M18/M21 RMK AO1 SLP152 T11771211 53023,CWNZ,2015-02-21T17:00:00Z,49.75,-84.17,-17.7,-21.1,340,8,,,,1015.2,,TRUE,TRUE,,,,,,,,,,,,,,,,2.3,,,,,,,,,,,METAR,256.0
CWWB 211700Z AUTO 02002KT M09/M10 RMK AO1 SLP169 T10871103 58009,CWWB,2015-02-21T17:00:00Z,43.3,-79.78,-8.7,-10.3,20,2,,,,1016.9,,TRUE,TRUE,,,,,,,,,,,,,,,,-0.9,,,,,,,,,,,METAR,76.0
CWDQ 211700Z AUTO 17007KT M14/M18 RMK AO1 SOG 38 8023 SLP236 T11441179,CWDQ,2015-02-21T17:00:00Z,47.42,-72.78,-14.4,-17.9,170,7,,,,1023.6,,TRUE,TRUE,,,,,,,,,,,,,,,,,,,,,,,,,,,METAR,169.0
CWPC 211700Z AUTO 13004KT M07/M08 RMK AO1 SLP165 T10661084 58010,CWPC,2015-02-21T17:00:00Z,42.87,-79.25,-6.6,-8.4,130,4,,,,1016.5,,TRUE,TRUE,,,,,,,,,,,,,,,,-1.0,,,,,,,,,,,METAR,184.0
CWLS 211700Z AUTO 21006KT M11/M13 RMK AO1 SOG 28 8002 SLP162 T11121129 50005,CWLS,2015-02-21T17:00:00Z,43.97,-80.75,-11.2,-12.9,210,6,,,,1016.2,,TRUE,TRUE,,,,,,,,,,,,,,,,0.5,,,,,,,,,,,METAR,415.0
CWBE 211700Z AUTO 20009KT M07/M10 RMK AO1 SLP151 T10731100 55001,CWBE,2015-02-21T17:00:00Z,45.98,-81.48,-7.3,-10.0,200,9,,,,1015.1,,TRUE,TRUE,,,,,,,,,,,,,,,,-0.1,,,,,,,,,,,METAR,196.0
CWWZ 211700Z AUTO 11001KT M06/M08 RMK AO1 9PAST HR SOG 10 8012 SLP167 P0004 T10581075 50019,CWWZ,2015-02-21T17:00:00Z,43.25,-79.22,-5.8,-7.5,110,1,,,,1016.7,,TRUE,TRUE,,,,,,,,,,,,,,,,1.9,,,,,0.04,,,,,,METAR,79.0
CWPO 211700Z AUTO 34008KT M22/M26 RMK AO1 SLP294 T12191257 51016,CWPO,2015-02-21T17:00:00Z,49.2,-98.9,-21.9,-25.7,340,8,,,,1029.4,,TRUE,TRUE,,,,,,,,,,,,,,,,1.6,,,,,,,,,,,METAR,470.0
CWWF 211700Z AUTO 33014KT M23/M26 RMK AO1 SOG 18 1020 PK WND 33017/1652 SLP319 T12291255,CWWF,2015-02-21T17:00:00Z,49.7,-103.8,-22.9,-25.5,330,14,,,,1031.9,,TRUE,TRUE,,,,,,,,,,,,,,,,,,,,,,,,,,,METAR,589.0
CWWA 211700Z AUTO 21001KT 05/02 RMK AO1 SLP285 T00520015 53018,CWWA,2015-02-21T17:00:00Z,49.35,-123.17,5.2,1.5,210,1,,,,1028.5,,TRUE,TRUE,,,,,,,,,,,,,,,,1.8,,,,,,,,,,,METAR,178.0
CWVQ 211700Z AUTO 08003KT M10/M19 RMK AO1 SLP220 T11001188 56034,CWVQ,2015-02-21T17:00:00Z,45.42,-73.92,-10.0,-18.8,80,3,,,,1022.0,,TRUE,TRUE,,,,,,,,,,,,,,,,-3.4,,,,,,,,,,,METAR,39.0
CWVP 211700Z AUTO 34008KT M15/M17 RMK AO1 2PAST HR SOG 10 3015 SLP303 P0001 T11461166 50005,CWVP,2015-02-21T17:00:00Z,49.63,-109.52,-14.6,-16.6,340,8,,,,1030.3,,TRUE,TRUE,,,,,,,,,,,,,,,,0.5,,,,,0.01,,,,,,METAR,1271.0
CWVN 211700Z AUTO 35016G21KT M12/M16 RMK AO1 PK WND 34022/1632 SLP325 T11241164 51022,CWVN,2015-02-21T17:00:00Z,49.07,-107.57,-12.4,-16.4,350,16,21,,,1032.5,,TRUE,TRUE,,,,,,,,,,,,,,,,2.2,,,,,,,,,,,METAR,785.0
CWVI 211700Z AUTO 31006KT M20/M23 RMK AO1 5PAST HR 3019 SLP411 P0010 T11981226 50053,CWVI,2015-02-21T17:00:00Z,53.52,-112.1,-19.8,-22.6,310,6,,,,1041.1,,TRUE,TRUE,,,,,,,,,,,,,,,,5.3,,,,,0.1,,,,,,METAR,639.0
CWVF 211700Z AUTO 33018KT 07/06 RMK AO1 PK WND 33021/1647 T00680058,CWVF,2015-02-21T17:00:00Z,49.1,-123.3,6.8,5.8,330,18,,,,,,TRUE,TRUE,,,,,,,,,,,,,,,,,,,,,,,,,,,METAR,1.0
CWUX 211700Z AUTO 06003KT M16/M20 RMK AO1 SLP240 T11581204 58011,CWUX,2015-02-21T17:00:00Z,48.3,-70.93,-15.8,-20.4,60,3,,,,1024.0,,TRUE,TRUE,,,,,,,,,,,,,,,,-1.1,,,,,,,,,,,METAR,135.0
CWUS 211700Z AUTO 33006KT 06/M04 RMK AO1 SLP292 T00631040 53019,CWUS,2015-02-21T17:00:00Z,49.57,-119.65,6.3,-4.0,330,6,,,,1029.2,,TRUE,TRUE,,,,,,,,,,,,,,,,1.9,,,,,,,,,,,METAR,454.0
CWTY 211700Z AUTO 15003KT M09/M17 RMK AO1 SLP235 T10931170 58039,CWTY,2015-02-21T17:00:00Z,46.35,-72.52,-9.3,-17.0,150,3,,,,1023.5,,TRUE,TRUE,,,,,,,,,,,,,,,,-3.9,,,,,,,,,,,METAR,6.0
CWTT 211700Z AUTO 18006KT M09/M21 RMK AO1 T10881210,CWTT,2015-02-21T17:00:00Z,45.27,-72.17,-8.8,-21.0,180,6,,,,,,TRUE,TRUE,,,,,,,,,,,,,,,,,,,,,,,,,,,METAR,209.0
CWTN 211700Z AUTO 24003KT M11/M18 RMK AO1 SLP258 T11131178 58028,CWTN,2015-02-21T17:00:00Z,47.07,-70.78,-11.3,-17.8,240,3,,,,1025.8,,TRUE,TRUE,,,,,,,,,,,,,,,,-2.8,,,,,,,,,,,METAR,6.0
CWTG 211700Z AUTO 25020KT M13/M19 RMK AO1 PK WND 25026/1608 SLP255 T11251187 51002,CWTG,2015-02-21T17:00:00Z,49.32,-67.37,-12.5,-18.7,250,20,,,,1025.5,,TRUE,TRUE,,,,,,,,,,,,,,,,0.2,,,,,,,,,,,METAR,5.0
CWTA 211700Z AUTO 16003KT M10/M17 RMK AO1 SLP217 T10971173 56034,CWTA,2015-02-21T17:00:00Z,45.5,-73.58,-9.7,-17.3,160,3,,,,1021.7,,TRUE,TRUE,,,,,,,,,,,,,,,,-3.4,,,,,,,,,,,METAR,63.0
CZSP 211700Z AUTO 24012KT M10/M19 RMK AO1 SOG 57 1020 PK WND 25018/1601 SLP305 T10991193,CZSP,2015-02-21T17:00:00Z,46.45,-62.58,-9.9,-19.3,240,12,,,,1030.5,,TRUE,TRUE,,,,,,,,,,,,,,,,,,,,,,,,,,,METAR,30.0
CZCR 211700Z AUTO 26009KT M10/M21 RMK AO1 8001 PK WND 23018/1642 SLP270 T11021213 50002,CZCR,2015-02-21T17:00:00Z,47.97,-66.32,-10.2,-21.3,260,9,,,,1027.0,,TRUE,TRUE,,,,,,,,,,,,,,,,0.2,,,,,,,,,,,METAR,38.0
CXNP 211700Z AUTO 22010G15KT M09/M17 RMK AO1 PK WND 22018/1627 SLP315 T10871172 50001,CXNP,2015-02-21T17:00:00Z,45.75,-64.23,-8.7,-17.2,220,10,15,,,1031.5,,TRUE,TRUE,,,,,,,,,,,,,,,,0.1,,,,,,,,,,,METAR,20.0
CWXI 211700Z AUTO 24026G35KT M09/M12 RMK AO1 PK WND 22035/1655 SLP093 T10931118 53048,CWXI,2015-02-21T17:00:00Z,51.02,-57.1,-9.3,-11.8,240,26,35,,,1009.3,,TRUE,TRUE,,,,,,,,,,,,,,,,4.8,,,,,,,,,,,METAR,6.0
CWBK 211700Z AUTO 30014KT M08/M17 RMK AO1 SOG 77 1012 PK WND 30017/1631 SLP307 T10771171,CWBK,2015-02-21T17:00:00Z,45.77,-62.67,-7.7,-17.1,300,14,,,,1030.7,,TRUE,TRUE,,,,,,,,,,,,,,,,,,,,,,,,,,,METAR,2.0
CWMQ 211700Z AUTO 34010KT M11/M13 RMK AO1 SOG 01 1020 PK WND 34017/1636 SLP344 T11061134 50002,CWMQ,2015-02-21T17:00:00Z,49.9,-109.47,-10.6,-13.4,340,10,,,,1034.4,,TRUE,TRUE,,,,,,,,,,,,,,,,0.2,,,,,,,,,,,METAR,767.0
CWMJ 211700Z AUTO 15009KT M13/M16 RMK AO1 SOG 33 6023 SLP198 T11301155 50020,CWMJ,2015-02-21T17:00:00Z,46.27,-76.0,-13.0,-15.5,150,9,,,,1019.8,,TRUE,TRUE,,,,,,,,,,,,,,,,2.0,,,,,,,,,,,METAR,200.0
CWLM 211700Z AUTO 01002KT 08/04 RMK AO1 SLP286 T00750037 53019,CWLM,2015-02-21T17:00:00Z,48.42,-123.32,7.5,3.7,10,2,,,,1028.6,,TRUE,TRUE,,,,,,,,,,,,,,,,1.9,,,,,,,,,,,METAR,70.0
CWLE 211700Z AUTO 32011KT M19/M22 RMK AO1 SOG 22 3023 SLP349 T11901215,CWLE,2015-02-21T17:00:00Z,50.95,-107.15,-19.0,-21.5,320,11,,,,1034.9,,TRUE,TRUE,,,,,,,,,,,,,,,,,,,,,,,,,,,METAR,665.0
CWLC 211700Z AUTO 08002KT 06/04 RMK AO1 T00610043,CWLC,2015-02-21T17:00:00Z,54.3,-130.62,6.1,4.3,80,2,,,,,,TRUE,TRUE,,,,,,,,,,,,,,,,,,,,,,,,,,,METAR,27.0
CWKX 211700Z AUTO 07006KT M15/M16 RMK AO1 SOG 49 7005 SLP389 T11461160,CWKX,2015-02-21T17:00:00Z,58.43,-130.02,-14.6,-16.0,70,6,,,,1038.9,,TRUE,TRUE,,,,,,,,,,,,,,,,,,,,,,,,,,,METAR,793.0
CWKH 211700Z AUTO 06/02 RMK AO1 SLP272 T00600017 53019,CWKH,2015-02-21T17:00:00Z,48.57,-123.55,6.0,1.7,,,,,,1027.2,,TRUE,TRUE,,,,,,,,,,,,,,,,1.9,,,,,,,,,,,METAR,366.0
CWKG 211700Z AUTO 22005KT M05/M06 RMK AO1 0002 SLP327 T10521058 50002,CWKG,2015-02-21T17:00:00Z,44.43,-65.2,-5.2,-5.8,220,5,,,,1032.7,,TRUE,TRUE,,,,,,,,,,,,,,,,0.2,,,,,,,,,,,METAR,165.0
CWJX 211700Z AUTO 35015KT M14/M18 RMK AO1 SOG 01 2026 PK WND 35020/1600 SLP362 T11391180 50002,CWJX,2015-02-21T17:00:00Z,50.88,-109.5,-13.9,-18.0,350,15,,,,1036.2,,TRUE,TRUE,,,,,,,,,,,,,,,,0.2,,,,,,,,,,,METAR,672.0
CWJW 211700Z AUTO 33001KT M03/M07 RMK AO1 SOG 21 1011 SLP350 T10301066,CWJW,2015-02-21T17:00:00Z,52.93,-118.03,-3.0,-6.6,330,1,,,,1035.0,,TRUE,TRUE,,,,,,,,,,,,,,,,,,,,,,,,,,,METAR,1020.0
CWJV 211700Z AUTO 10004KT M01/M01 RMK AO1 SLP301 T10061006 52020,CWJV,2015-02-21T17:00:00Z,50.22,-119.18,-0.6,-0.6,100,4,,,,1030.1,,TRUE,TRUE,,,,,,,,,,,,,,,,2.0,,,,,,,,,,,METAR,556.0
CWJT 211700Z AUTO 18002KT M11/M17 RMK AO1 6023 SLP231 T11141167 50020,CWJT,2015-02-21T17:00:00Z,46.07,-74.57,-11.4,-16.7,180,2,,,,1023.1,,TRUE,TRUE,,,,,,,,,,,,,,,,2.0,,,,,,,,,,,METAR,239.0
CWJR 211700Z AUTO 21002KT 02/M02 RMK AO1 SOG 01 1038 SLP301 T00171015,CWJR,2015-02-21T17:00:00Z,49.07,-116.5,1.7,-1.5,210,2,,,,1030.1,,TRUE,TRUE,,,,,,,,,,,,,,,,,,,,,,,,,,,METAR,646.0
CWJO 211700Z AUTO 09004KT M14/M20 RMK AO1 SLP250 T11391196 58009,CWJO,2015-02-21T17:00:00Z,48.43,-71.15,-13.9,-19.6,90,4,,,,1025.0,,TRUE,TRUE,,,,,,,,,,,,,,,,-0.9,,,,,,,,,,,METAR,133.0
CWJI 211700Z AUTO 33015KT M20/M24 RMK AO1 SOG 09 1024 PK WND 32018/1649 SLP329 T11951236 50002,CWJI,2015-02-21T17:00:00Z,49.72,-105.92,-19.5,-23.6,330,15,,,,1032.9,,TRUE,TRUE,,,,,,,,,,,,,,,,0.2,,,,,,,,,,,METAR,724.0
CWMT 211700Z AUTO 13006KT M23/M26 RMK AO1 SLP357 T12261256 58021,CWMT,2015-02-21T17:00:00Z,63.13,-117.25,-22.6,-25.6,130,6,,,,1035.7,,TRUE,TRUE,,,,,,,,,,,,,,,,-2.1,,,,,,,,,,,METAR,271.0
LERT 211700Z 27012KT 9999 FEW050 15/10 Q1011 NOSIG,LERT,2015-02-21T17:00:00Z,36.63,-6.33,15.0,10.0,270,12,,6.21,29.852362,,,,,,TRUE,,,,,FEW,5000,,,,,,,VFR,,,,,,,,,,,,METAR,26.0
CYLU 211700Z CCA 36013KT 15SM SCT020 BKN030 OVC085 M17/M20 A2986 RMK SC3SC3AS2 SLP119,CYLU,2015-02-21T17:00:00Z,58.72,-65.97,-17.0,-20.0,360,13,,15.0,29.861221,1011.9,,,,,,,,,,SCT,2000,BKN,3000,OVC,8500,,,MVFR,,,,,,,,,,,,METAR,60.0
GOTK 211700Z 04008KT CAVOK 33/08 Q1010,GOTK,2015-02-21T17:00:00Z,12.57,-12.22,33.0,8.0,40,8,,6.21,29.822834,,,,,,,,,,,CAVOK,,,,,,,,VFR,,,,,,,,,,,,METAR,167.0
GOGK 211700Z 02006KT CAVOK 33/07 Q1010,GOGK,2015-02-21T17:00:00Z,12.9,-14.97,33.0,7.0,20,6,,6.21,29.822834,,,,,,,,,,,CAVOK,,,,,,,,VFR,,,,,,,,,,,,METAR,10.0
GOGS 211700Z 32010KT CAVOK 30/15 Q1010,GOGS,2015-02-21T17:00:00Z,12.4,-16.75,30.0,15.0,320,10,,6.21,29.822834,,,,,,,,,,,CAVOK,,,,,,,,VFR,,,,,,,,,,,,METAR,13.0
GOGG 211700Z 03008KT CAVOK 32/06 Q1012,GOGG,2015-02-21T17:00:00Z,12.55,-16.27,32.0,6.0,30,8,,6.21,29.88189,,,,,,,,,,,CAVOK,,,,,,,,VFR,,,,,,,,,,,,METAR,23.0
GOTT 211700Z 01010KT CAVOK 31/17 Q1010,GOTT,2015-02-21T17:00:00Z,13.73,-13.65,31.0,17.0,10,10,,6.21,29.822834,,,,,,,,,,,CAVOK,,,,,,,,VFR,,,,,,,,,,,,METAR,50.0
GOOK 211700Z 08010KT CAVOK 30/18 Q1012,GOOK,2015-02-21T17:00:00Z,14.15,-16.07,30.0,18.0,80,10,,6.21,29.88189,,,,,,,,,,,CAVOK,,,,,,,,VFR,,,,,,,,,,,,METAR,7.0
GOOD 211700Z 08006KT 6000 NSC 30/07 Q1012,GOOD,2015-02-21T17:00:00Z,14.65,-16.22,30.0,7.0,80,6,,3.73,29.88189,,,,,,,,,,,,,,,,,,,,,,,,,,,,,,,METAR,9.0
GOSM 211700Z 08002KT CAVOK 31/06 Q1012,GOSM,2015-02-21T17:00:00Z,15.6,-13.33,31.0,6.0,80,2,,6.21,29.88189,,,,,,,,,,,CAVOK,,,,,,,,VFR,,,,,,,,,,,,METAR,17.0
GOOG 211700Z 04008KT 4800 DU NSC 29/13 Q////,GOOG,2015-02-21T17:00:00Z,15.4,-15.08,29.0,13.0,40,8,,2.98,,,,,,,,,,,DU,,,,,,,,,,,,,,,,,,,,,METAR,21.0
GOSP 211700Z 04006KT CAVOK 27/05 Q1013,GOSP,2015-02-21T17:00:00Z,16.68,-14.97,27.0,5.0,40,6,,6.21,29.911417,,,,,,,,,,,CAVOK,,,,,,,,VFR,,,,,,,,,,,,METAR,7.0
GOSS 211700Z 36008KT 320V050 CAVOK 26/14 Q1012,GOSS,2015-02-21T17:00:00Z,16.05,-16.43,26.0,14.0,360,8,,6.21,29.88189,,,,,,,,,,,CAVOK,,,,,,,,VFR,,,,,,,,,,,,METAR,4.0
GMMH 211700Z 34021KT 9999 SCT026 18/13 Q1020 NOSIG,GMMH,2015-02-21T17:00:00Z,23.72,-15.93,18.0,13.0,340,21,,6.21,30.11811,,,,,,TRUE,,,,,SCT,2600,,,,,,,VFR,,,,,,,,,,,,METAR,11.0
GMMC 211700Z /////KT 5000 -RA FEW016TCU SCT026 BKN100 13/11 Q1015,GMMC,2015-02-21T17:00:00Z,33.57,-7.67,13.0,11.0,,,,3.11,29.970472,,,,,,,,,,-RA,FEW,1600,SCT,2600,BKN,10000,,,MVFR,,,,,,,,,,,,METAR,62.0
WBKW 211700Z 36002KT 9999 FEW017 SCT140 BKN300 24/22 Q1012,WBKW,2015-02-21T17:00:00Z,4.32,118.12,24.0,22.0,360,2,,6.21,29.88189,,,,,,,,,,,FEW,1700,SCT,14000,BKN,30000,,,VFR,,,,,,,,,,,,METAR,20.0
WBKT 211700Z 10006KT 050V150 9999 FEW015 BKN270 26/24 Q1013,WBKT,2015-02-21T17:00:00Z,6.92,116.82,26.0,24.0,100,6,,6.21,29.911417,,,,,,,,,,,FEW,1500,BKN,27000,,,,,VFR,,,,,,,,,,,,METAR,5.0
WBKS 211700Z 08008KT 9999 FEW016 BKN300 27/24 Q1013,WBKS,2015-02-21T17:00:00Z,5.9,118.07,27.0,24.0,80,8,,6.21,29.911417,,,,,,,,,,,FEW,1600,BKN,30000,,,,,VFR,,,,,,,,,,,,METAR,13.0
WBKL 211700Z 32001KT 9999 FEW012 BKN290 26/24 Q1012,WBKL,2015-02-21T17:00:00Z,5.28,115.25,26.0,24.0,320,1,,6.21,29.88189,,,,,,,,,,,FEW,1200,BKN,29000,,,,,VFR,,,,,,,,,,,,METAR,30.0
WBGY 211700Z 28001KT 9999 FEW022 SCT150 BKN300 25/24 Q1011,WBGY,2015-02-21T17:00:00Z,1.22,111.43,25.0,24.0,280,1,,6.21,29.852362,,,,,,,,,,,FEW,2200,SCT,15000,BKN,30000,,,VFR,,,,,,,,,,,,METAR,34.0
WBGS 211700Z 00000KT 9999 SCT018 BKN150 25/23 Q1012,WBGS,2015-02-21T17:00:00Z,2.27,111.98,25.0,23.0,0,0,,6.21,29.88189,,,,,,,,,,,SCT,1800,BKN,15000,,,,,VFR,,,,,,,,,,,,METAR,8.0
WBGR 211700Z 08002KT 9999 FEW014 BKN150 25/24 Q1012,WBGR,2015-02-21T17:00:00Z,4.32,113.97,25.0,24.0,80,2,,6.21,29.88189,,,,,,,,,,,FEW,1400,BKN,15000,,,,,VFR,,,,,,,,,,,,METAR,18.0
WBGB 211700Z 15001KT 6000 FEW001 BKN150 24/24 Q1012,WBGB,2015-02-21T17:00:00Z,3.12,113.02,24.0,24.0,150,1,,3.73,29.88189,,,,,,,,,,,FEW,100,BKN,15000,,,,,MVFR,,,,,,,,,,,,METAR,5.0
WMKN 211700Z 10002KT 9999 SCT024 BKN280 26/23 Q1012,WMKN,2015-02-21T17:00:00Z,5.37,103.08,26.0,23.0,100,2,,6.21,29.88189,,,,,,,,,,,SCT,2400,BKN,28000,,,,,VFR,,,,,,,,,,,,METAR,6.0
WMKM 211700Z 03005KT 330V070 9999 FEW028 BKN280 25/23 Q1012,WMKM,2015-02-21T17:00:00Z,2.27,102.25,25.0,23.0,30,5,,6.21,29.88189,,,,,,,,,,,FEW,2800,BKN,28000,,,,,VFR,,,,,,,,,,,,METAR,9.0
WMKL 211700Z 02004KT 9999 FEW026 BKN280 27/23 Q1011,WMKL,2015-02-21T17:00:00Z,6.32,99.72,27.0,23.0,20,4,,6.21,29.852362,,,,,,,,,,,FEW,2600,BKN,28000,,,,,VFR,,,,,,,,,,,,METAR,7.0
WMKI 211700Z 07003KT 9999 FEW030 SCT150 BKN280 27/24 Q1011,WMKI,2015-02-21T17:00:00Z,4.57,101.08,27.0,24.0,70,3,,6.21,29.852362,,,,,,,,,,,FEW,3000,SCT,15000,BKN,28000,,,VFR,,,,,,,,,,,,METAR,39.0
WMKC 211700Z 10005KT 050V150 9999 SCT020 BKN280 26/23 Q1012,WMKC,2015-02-21T17:00:00Z,6.17,102.27,26.0,23.0,100,5,,6.21,29.88189,,,,,,,,,,,SCT,2000,BKN,28000,,,,,VFR,,,,,,,,,,,,METAR,5.0
WMKB 211700Z 34005KT 8000 FEW025 SCT140 BKN280 28/25 Q1011 NOSIG,WMKB,2015-02-21T17:00:00Z,5.47,100.37,28.0,25.0,340,5,,4.97,29.852362,,,,,,TRUE,,,,,FEW,2500,SCT,14000,BKN,28000,,,MVFR,,,,,,,,,,,,METAR,4.0
WMKA 211700Z 01004KT 9999 FEW030 BKN280 26/23 Q1011,WMKA,2015-02-21T17:00:00Z,6.2,100.4,26.0,23.0,10,4,,6.21,29.852362,,,,,,,,,,,FEW,3000,BKN,28000,,,,,VFR,,,,,,,,,,,,METAR,5.0
WMBA 211700Z 00000KT 9000 FEW032 BKN280 26/25 Q1011,WMBA,2015-02-21T17:00:00Z,4.22,100.7,26.0,25.0,0,0,,5.59,29.852362,,,,,,,,,,,FEW,3200,BKN,28000,,,,,VFR,,,,,,,,,,,,METAR,8.0
WMAU 211700Z 03004KT 9999 FEW024 SCT140 BKN270 26/23 Q//// QFF1012,WMAU,2015-02-21T17:00:00Z,2.38,103.88,26.0,23.0,30,4,,6.21,,,,,,,,,,,,FEW,2400,SCT,14000,BKN,27000,,,VFR,,,,,,,,,,,,METAR,45.0
WBSB 211700Z 23001KT 9000 FEW014 BKN280 26/24 Q1012 NOSIG,WBSB,2015-02-21T17:00:00Z,4.92,114.92,26.0,24.0,230,1,,5.59,29.88189,,,,,,TRUE,,,,,FEW,1400,BKN,28000,,,,,VFR,,,,,,,,,,,,METAR,15.0
WMSA 211700Z 15002KT 9000 FEW026 BKN280 28/23 Q1011,WMSA,2015-02-21T17:00:00Z,3.13,101.55,28.0,23.0,150,2,,5.59,29.852362,,,,,,,,,,,FEW,2600,BKN,28000,,,,,VFR,,,,,,,,,,,,METAR,27.0
WMKK 211700Z 09006KT 060V130 9999 FEW030 BKN280 27/22 Q1011 NOSIG,WMKK,2015-02-21T17:00:00Z,2.75,101.72,27.0,22.0,90,6,,6.21,29.852362,,,,,,TRUE,,,,,FEW,3000,BKN,28000,,,,,VFR,,,,,,,,,,,,METAR,22.0
WMKJ 211700Z 34001KT 9999 FEW023 BKN300 24/23 Q1012,WMKJ,2015-02-21T17:00:00Z,1.62,103.67,24.0,23.0,340,1,,6.21,29.88189,,,,,,,,,,,FEW,2300,BKN,30000,,,,,VFR,,,,,,,,,,,,METAR,40.0
WBKK 211700Z 11004KT 9999 FEW014 SCT140 BKN270 26/24 Q1012 NOSIG,WBKK,2015-02-21T17:00:00Z,5.92,116.03,26.0,24.0,110,4,,6.21,29.88189,,,,,,TRUE,,,,,FEW,1400,SCT,14000,BKN,27000,,,VFR,,,,,,,,,,,,METAR,3.0
WBGG 211700Z 07001KT 9999 FEW020 SCT150 BKN300 25/24 Q1012 NOSIG,WBGG,2015-02-21T17:00:00Z,1.47,110.35,25.0,24.0,70,1,,6.21,29.88189,,,,,,TRUE,,,,,FEW,2000,SCT,15000,BKN,30000,,,VFR,,,,,,,,,,,,METAR,27.0
DAFH 211700Z 29008KT 9999 SCT020TCU BKN030 11/05 Q1005,DAFH,2015-02-21T17:00:00Z,32.93,3.32,11.0,5.0,290,8,,6.21,29.675198,,,,,,,,,,,SCT,2000,BKN,3000,,,,,MVFR,,,,,,,,,,,,METAR,774.0
UNAA 211700Z VRB01MPS 2700 FU SKC M19/M25 Q1022 NOSIG RMK QFE744 52090065,UNAA,2015-02-21T17:00:00Z,53.75,91.4,-19.0,-25.0,0,2,,1.68,30.177166,,,,,,TRUE,,,,FU,SKC,,,,,,,,IFR,9.0,,,,,,,,,,,METAR,245.0
NCPY 211700Z AUTO 09007KT //// ///// 28/24 Q1009,NCPY,2015-02-21T17:00:00Z,-9.02,-158.07,28.0,24.0,90,7,,,29.793306,,,TRUE,,,,,,,,,,,,,,,,,,,,,,,,,,,,METAR,2.0
NCMH 211700Z AUTO NIL,NCMH,2015-02-21T17:00:00Z,-10.38,-161.0,,,,,,,,,,TRUE,,,,,,,,,,,,,,,,,,,,,,,,,,,,METAR,0.0
NCAI 211700Z AUTO 05006KT //// ///// 26/24 Q1014,NCAI,2015-02-21T17:00:00Z,-18.82,-159.77,26.0,24.0,50,6,,,29.940945,,,TRUE,,,,,,,,,,,,,,,,,,,,,,,,,,,,METAR,6.0
NCRG 211700Z 05009KT 9999 SCT016 BKN290 28/25 Q1015,NCRG,2015-02-21T17:00:00Z,-21.2,-159.82,28.0,25.0,50,9,,6.21,29.970472,,,,,,,,,,,SCT,1600,BKN,29000,,,,,VFR,,,,,,,,,,,,METAR,7.0
CYZT 211700Z 16002KT 20SM FEW012 SCT220 03/03 A3044 RMK SC1CI2 SLP310,CYZT,2015-02-21T17:00:00Z,50.67,-127.37,3.0,3.0,160,2,,20.0,30.43996,1031.0,,,,,,,,,,FEW,1200,SCT,22000,,,,,VFR,,,,,,,,,,,,METAR,22.0
CYZP 211700Z AUTO 24004KT 9SM SCT240 04/03 A3046 RMK SLP315,CYZP,2015-02-21T17:00:00Z,53.25,-131.82,4.0,3.0,240,4,,9.0,30.46063,1031.5,,TRUE,,,,,,,,SCT,24000,,,,,,,VFR,,,,,,,,,,,,METAR,6.0
CYXS 211700Z AUTO 01007KT 9SM CLR M03/M06 A3052 RMK SLP372,CYXS,2015-02-21T17:00:00Z,53.9,-122.68,-3.0,-6.0,10,7,,9.0,30.519686,1037.2,,TRUE,,,,,,,,CLR,,,,,,,,VFR,,,,,,,,,,,,METAR,691.0
CYXQ 211700Z 28003KT 30SM SCT075 BKN100 OVC210 M10/M12 A3006 RMK AC3AC2CI3 CLIMATE -5.5/-16.5/0.0/47036 SLP233,CYXQ,2015-02-21T17:00:00Z,62.42,-140.87,-10.0,-12.0,280,3,,30.0,30.059055,1023.3,,,,,,,,,,SCT,7500,BKN,10000,OVC,21000,,,VFR,,,,,,,,,,,,METAR,649.0
CYXE 211700Z 33006KT 15SM SKC M25/M28 A3048 RMK SLP382,CYXE,2015-02-21T17:00:00Z,52.17,-106.7,-25.0,-28.0,330,6,,15.0,30.481298,1038.2,,,,,,,,,,SKC,,,,,,,,VFR,,,,,,,,,,,,METAR,504.0
CYXC 211700Z 31005KT 220V320 20SM FEW010 SCT020 BKN040 M03/M05 A3033 RMK SC2SC2SC2 SLP308,CYXC,2015-02-21T17:00:00Z,49.6,-115.77,-3.0,-5.0,310,5,,20.0,30.33071,1030.8,,,,,,,,,,FEW,1000,SCT,2000,BKN,4000,,,VFR,,,,,,,,,,,,METAR,939.0
CYUA 211700Z AUTO 28009KT 1/4SM OVC001 M13/ A3015 RMK SLP217,CYUA,2015-02-21T17:00:00Z,68.95,-137.28,-13.0,,280,9,,0.25,30.15059,1021.7,,TRUE,,,,,,,,OVC,100,,,,,,,LIFR,,,,,,,,,,,,METAR,38.0
CYRV 211700Z AUTO 33013KT 9SM CLR 03/M04 A3038 RMK SLP307,CYRV,2015-02-21T17:00:00Z,50.97,-118.17,3.0,-4.0,330,13,,9.0,30.380905,1030.7,,TRUE,,,,,,,,CLR,,,,,,,,VFR,,,,,,,,,,,,METAR,443.0
CYQZ 211700Z AUTO VRB02KT 9SM CLR 02/01 A3054 RMK SLP366,CYQZ,2015-02-21T17:00:00Z,53.02,-122.52,2.0,1.0,0,2,,9.0,30.540354,1036.6,,TRUE,,,,,,,,CLR,,,,,,,,VFR,,,,,,,,,,,,METAR,545.0
CYQD 211700Z 35008KT 15SM SKC M30/M35 A3046 RMK SLP355,CYQD,2015-02-21T17:00:00Z,53.97,-101.08,-30.0,-35.0,350,8,,15.0,30.46063,1035.5,,,,,,,,,,SKC,,,,,,,,VFR,,,,,,,,,,,,METAR,271.0
CYPR 211700Z AUTO 06003KT 9SM CLR 01/01 A3047 RMK SLP320,CYPR,2015-02-21T17:00:00Z,54.28,-130.42,1.0,1.0,60,3,,9.0,30.469488,1032.0,,TRUE,,,,,,,,CLR,,,,,,,,VFR,,,,,,,,,,,,METAR,34.0
CYKY 211700Z 35014KT 12SM IC DRSN FEW090 FEW240 M18/M21 A3044 RMK AC1CI2 AC TR SLP370,CYKY,2015-02-21T17:00:00Z,51.52,-109.17,-18.0,-21.0,350,14,,12.0,30.43996,1037.0,,,,,,,,,IC DRSN,FEW,9000,FEW,24000,,,,,VFR,,,,,,,,,,,,METAR,694.0
CYHE 211700Z AUTO 11009KT 9SM OVC075 05/04 A3041 RMK SLP300,CYHE,2015-02-21T17:00:00Z,49.37,-121.5,5.0,4.0,110,9,,9.0,30.410433,1030.0,,TRUE,,,,,,,,OVC,7500,,,,,,,VFR,,,,,,,,,,,,METAR,39.0
CYFO 211700Z 35009KT 15SM DRSN SKC M30/M36 A3048 RMK SLP366,CYFO,2015-02-21T17:00:00Z,54.67,-101.67,-30.0,-36.0,350,9,,15.0,30.481298,1036.6,,,,,,,,,DRSN,SKC,,,,,,,,VFR,,,,,,,,,,,,METAR,304.0
CYEV 211700Z 31002KT 1SM BR BKN100 M15/M16 A3016 RMK FG4AC1 VIS N 6 SLP220,CYEV,2015-02-21T17:00:00Z,68.32,-133.5,-15.0,-16.0,310,2,,1.0,30.159449,1022.0,,,,,,,,,BR,BKN,10000,,,,,,,IFR,,,,,,,,,,,,METAR,68.0
CYDC 211700Z 00000KT 15SM FEW015 FEW020 BKN040 01/M00 A3037 RMK ST1CF1SC4 SLP307,CYDC,2015-02-21T17:00:00Z,49.47,-120.52,1.0,0.0,0,0,,15.0,30.369095,1030.7,,,,,,,,,,FEW,1500,FEW,2000,BKN,4000,,,VFR,,,,,,,,,,,,METAR,700.0
CYDB 211700Z VRB02KT 25SM FEW090 SCT110 BKN150 BKN250 M05/M08 A3004 RMK AC1AC2AC2CI1 ACSL SLP222,CYDB,2015-02-21T17:00:00Z,61.37,-139.05,-5.0,-8.0,0,2,,25.0,30.041338,1022.2,,,,,,,,,,FEW,9000,SCT,11000,BKN,15000,BKN,25000,VFR,,,,,,,,,,,,METAR,801.0
CYCQ 211700Z 00000KT 35SM BKN045 M01/M03 A3055 RMK SC7 SLP381,CYCQ,2015-02-21T17:00:00Z,55.7,-121.62,-1.0,-3.0,0,0,,35.0,30.549213,1038.1,,,,,,,,,,BKN,4500,,,,,,,VFR,,,,,,,,,,,,METAR,609.0
CYCP 211700Z VRB03KT 15SM FEW060 FEW300 M00/M03 A3044 RMK CU1CI1 CI TR FROIN SLP342,CYCP,2015-02-21T17:00:00Z,52.13,-119.28,0.0,-3.0,0,3,,15.0,30.43996,1034.2,,,,,,,,,,FEW,6000,FEW,30000,,,,,VFR,,,,,,,,,,,,METAR,683.0
CYBL 211700Z 31005KT 30SM FEW240 04/01 A3041 RMK CI2 SLP302,CYBL,2015-02-21T17:00:00Z,49.95,-125.27,4.0,1.0,310,5,,30.0,30.410433,1030.2,,,,,,,,,,FEW,24000,,,,,,,VFR,,,,,,,,,,,,METAR,106.0
CYAZ 211700Z 02003KT 360V150 15SM FEW220 05/05 A3038 RMK CI1 CI TR SLP287,CYAZ,2015-02-21T17:00:00Z,49.08,-125.77,5.0,5.0,20,3,,15.0,30.380905,1028.7,,,,,,,,,,FEW,22000,,,,,,,VFR,,,,,,,,,,,,METAR,24.0
CZVL 211700Z AUTO 33007KT 9SM SCT012 M16/M18 A3058 RMK SLP407,CZVL,2015-02-21T17:00:00Z,53.67,-113.85,-16.0,-18.0,330,7,,9.0,30.578741,1040.7,,TRUE,,,,,,,,SCT,1200,,,,,,,VFR,,,,,,,,,,,,METAR,686.0
CYZH 211700Z AUTO VRB02KT 9SM CLR M16/M18 A3063 RMK SLP420,CYZH,2015-02-21T17:00:00Z,55.28,-114.77,-16.0,-18.0,0,2,,9.0,30.628937,1042.0,,TRUE,,,,,,,,CLR,,,,,,,,VFR,,,,,,,,,,,,METAR,581.0
CYYN 211700Z AUTO 32012KT 6SM HZ OVC028 M16/M19 A3033 RMK SLP333,CYYN,2015-02-21T17:00:00Z,50.27,-107.67,-16.0,-19.0,320,12,,6.0,30.33071,1033.3,,TRUE,,,,,,,HZ,OVC,2800,,,,,,,MVFR,,,,,,,,,,,,METAR,818.0
CYYL 211700Z AUTO 33010KT 9SM CLR M32/M37 A3047 RMK SLP376,CYYL,2015-02-21T17:00:00Z,56.87,-101.07,-32.0,-37.0,330,10,,9.0,30.469488,1037.6,,TRUE,,,,,,,,CLR,,,,,,,,VFR,,,,,,,,,,,,METAR,357.0
CYXD 211700Z AUTO 04003KT 8SM OVC016 M14/M18 A3058 RMK SLP406,CYXD,2015-02-21T17:00:00Z,53.57,-113.52,-14.0,-18.0,40,3,,8.0,30.578741,1040.6,,TRUE,,,,,,,,OVC,1600,,,,,,,MVFR,,,,,,,,,,,,METAR,671.0
CYVC 211700Z 32006KT 15SM SKC M27/M33 A3056 RMK SLP398,CYVC,2015-02-21T17:00:00Z,55.15,-105.27,-27.0,-33.0,320,6,,15.0,30.561024,1039.8,,,,,,,,,,SKC,,,,,,,,VFR,,,,,,,,,,,,METAR,379.0
CYQW 211700Z AUTO 32012KT 9SM -SN CLR M22/M25 A3052 RMK SLP392,CYQW,2015-02-21T17:00:00Z,52.77,-108.25,-22.0,-25.0,320,12,,9.0,30.519686,1039.2,,TRUE,,,,,,,-SN,CLR,,,,,,,,VFR,,,,,,,,,,,,METAR,548.0
CYQR 211700Z 33015KT 15SM SKC M23/M25 A3035 RMK SLP336,CYQR,2015-02-21T17:00:00Z,50.43,-104.67,-23.0,-25.0,330,15,,15.0,30.351377,1033.6,,,,,,,,,,SKC,,,,,,,,VFR,,,,,,,,,,,,METAR,577.0
CYQL 211700Z 02010G18KT 10SM -SN DRSN OVC010 M08/M10 A3040 RMK SC8 SLP352,CYQL,2015-02-21T17:00:00Z,49.63,-112.8,-8.0,-10.0,20,10,18,10.0,30.398623,1035.2,,,,,,,,,-SN DRSN,OVC,1000,,,,,,,MVFR,,,,,,,,,,,,METAR,929.0
CYPY 211700Z AUTO 11004KT 050V130 9SM CLR M29/M32 A3074 RMK SLP449,CYPY,2015-02-21T17:00:00Z,58.77,-111.12,-29.0,-32.0,110,4,,9.0,30.741142,1044.9,,TRUE,,,,,,,,CLR,,,,,,,,VFR,,,,,,,,,,,,METAR,232.0
CYPA 211700Z 35014KT 15SM DRSN SKC M24/M28 A3048 RMK SLP371,CYPA,2015-02-21T17:00:00Z,53.22,-105.67,-24.0,-28.0,350,14,,15.0,30.481298,1037.1,,,,,,,,,DRSN,SKC,,,,,,,,VFR,,,,,,,,,,,,METAR,428.0
CYOJ 211700Z VRB02KT 4SM BR OVC004 M18/M20 A3065 RMK ST8 SLP416,CYOJ,2015-02-21T17:00:00Z,58.62,-117.17,-18.0,-20.0,0,2,,4.0,30.649607,1041.6,,,,,,,,,BR,OVC,400,,,,,,,LIFR,,,,,,,,,,,,METAR,338.0
CYNE 211700Z AUTO 33009KT 9SM CLR,CYNE,2015-02-21T17:00:00Z,53.97,-97.82,,,330,9,,9.0,,,,TRUE,,,,,,,,CLR,,,,,,,,VFR,,,,,,,,,,,,METAR,223.0
CYMM 211700Z AUTO 28006KT 9SM CLR M23/M26 A3069 RMK SLP439,CYMM,2015-02-21T17:00:00Z,56.65,-111.22,-23.0,-26.0,280,6,,9.0,30.690945,1043.9,,TRUE,,,,,,,,CLR,,,,,,,,VFR,,,,,,,,,,,,METAR,369.0
CYLL 211700Z 34009KT 15SM SKC M21/M25 A3050 RMK SLP393,CYLL,2015-02-21T17:00:00Z,53.32,-110.07,-21.0,-25.0,340,9,,15.0,30.499016,1039.3,,,,,,,,,,SKC,,,,,,,,VFR,,,,,,,,,,,,METAR,669.0
CYKJ 211700Z AUTO 31004KT 290V360 9SM CLR M32/M36 A3051 RMK SLP409,CYKJ,2015-02-21T17:00:00Z,57.25,-105.62,-32.0,-36.0,310,4,,9.0,30.510826,1040.9,,TRUE,,,,,,,,CLR,,,,,,,,VFR,,,,,,,,,,,,METAR,509.0
CYGX 211700Z 32009KT 15SM SKC M32/M37 A3034 RMK SLP299,CYGX,2015-02-21T17:00:00Z,56.35,-94.7,-32.0,-37.0,320,9,,15.0,30.339567,1029.9,,,,,,,,,,SKC,,,,,,,,VFR,,,,,,,,,,,,METAR,145.0
CYET 211700Z AUTO 34004KT 300V040 9SM OVC017 M06/M10 A3050 RMK SLP383,CYET,2015-02-21T17:00:00Z,53.57,-116.47,-6.0,-10.0,340,4,,9.0,30.499016,1038.3,,TRUE,,,,,,,,OVC,1700,,,,,,,MVFR,,,,,,,,,,,,METAR,925.0
CYEN 211700Z 30010KT 15SM FEW030 FEW140 M21/M26 A3029 RMK SC1AC1 SC TR AC TR SLP313,CYEN,2015-02-21T17:00:00Z,49.22,-102.97,-21.0,-26.0,300,10,,15.0,30.28937,1031.3,,,,,,,,,,FEW,3000,FEW,14000,,,,,VFR,,,,,,,,,,,,METAR,581.0
CYDN 211700Z AUTO 04010KT 9SM CLR M25/M29 A3036 RMK SLP320,CYDN,2015-02-21T17:00:00Z,51.1,-100.03,-25.0,-29.0,40,10,,9.0,30.360237,1032.0,,TRUE,,,,,,,,CLR,,,,,,,,VFR,,,,,,,,,,,,METAR,305.0
CYBR 211700Z 25006KT 15SM SKC M23/M27 A3028 RMK SLP304,CYBR,2015-02-21T17:00:00Z,49.92,-99.95,-23.0,-27.0,250,6,,15.0,30.280512,1030.4,,,,,,,,,,SKC,,,,,,,,VFR,,,,,,,,,,,,METAR,409.0
CYBQ 211700Z AUTO 33010G19KT 9SM CLR M35/M40 A3044 RMK SLP359,CYBQ,2015-02-21T17:00:00Z,58.7,-98.5,-35.0,-40.0,330,10,19,9.0,30.43996,1035.9,,TRUE,,,,,,,,CLR,,,,,,,,VFR,,,,,,,,,,,,METAR,262.0
CYBK 211700Z 30016KT 15SM DRSN SKC M34/M39 A3056 RMK SLP354,CYBK,2015-02-21T17:00:00Z,64.28,-96.07,-34.0,-39.0,300,16,,15.0,30.561024,1035.4,,,,,,,,,DRSN,SKC,,,,,,,,VFR,,,,,,,,,,,,METAR,18.0
CWHN 211700Z AUTO 33007KT 310V030 9SM CLR M21/M26 A3051 RMK SLP398,CWHN,2015-02-21T17:00:00Z,54.88,-109.97,-21.0,-26.0,330,7,,9.0,30.510826,1039.8,,TRUE,,,,,,,,CLR,,,,,,,,VFR,,,,,,,,,,,,METAR,636.0
CYXP 211700Z 10003KT 100V160 15SM SKC M29/M34 A2996 RMK SLP148,CYXP,2015-02-21T17:00:00Z,66.15,-65.72,-29.0,-34.0,100,3,,15.0,29.958662,1014.8,,,,,,,,,,SKC,,,,,,,,VFR,,,,,,,,,,,,METAR,23.0
CYWJ 211700Z 10007KT 30SM FEW080 SCT120 BKN250 M15/M16 A3024 RMK AC2AC2CI3 SLP265,CYWJ,2015-02-21T17:00:00Z,65.22,-123.43,-15.0,-16.0,100,7,,30.0,30.239174,1026.5,,,,,,,,,,FEW,8000,SCT,12000,BKN,25000,,,VFR,,,,,,,,,,,,METAR,176.0
CYWE 211700Z AUTO 16003KT 9SM CLR M33/M37 A3049 RMK SLP393,CYWE,2015-02-21T17:00:00Z,64.18,-114.08,-33.0,-37.0,160,3,,9.0,30.490158,1039.3,,TRUE,,,,,,,,CLR,,,,,,,,VFR,,,,,,,,,,,,METAR,371.0
CYVM 211700Z 25002KT 3SM IC BKN033 BKN055 OVC080 M30/M34 A3008 RMK SC5SC1AC2 SLP185,CYVM,2015-02-21T17:00:00Z,67.53,-64.02,-30.0,-34.0,250,2,,3.0,30.079725,1018.5,,,,,,,,,IC,BKN,3300,BKN,5500,OVC,8000,,,MVFR,,,,,,,,,,,,METAR,6.0
CYRT 211700Z 35021KT 5SM IC BLSN SKC M34/M38 A3039 RMK SLP296,CYRT,2015-02-21T17:00:00Z,62.82,-92.12,-34.0,-38.0,350,21,,5.0,30.389763,1029.6,,,,,,,,,IC BLSN,SKC,,,,,,,,MVFR,,,,,,,,,,,,METAR,32.0
CYOA 211700Z 24005KT 15SM SKC M33/M37 A3044 RMK SLP396,CYOA,2015-02-21T17:00:00Z,64.7,-110.62,-33.0,-37.0,240,5,,15.0,30.43996,1039.6,,,,,,,,,,SKC,,,,,,,,VFR,,,,,,,,,,,,METAR,469.0
CYKD 211700Z 00000KT 15SM FEW025 M20/M23 A3019 RMK SC1 SLP224,CYKD,2015-02-21T17:00:00Z,68.22,-135.0,-20.0,-23.0,0,0,,15.0,30.188976,1022.4,,,,,,,,,,FEW,2500,,,,,,,VFR,,,,,,,,,,,,METAR,7.0
CYHY 211700Z 15008KT 15SM FEW230 M24/M27 A3062 RMK CI2 SLP396,CYHY,2015-02-21T17:00:00Z,60.82,-115.77,-24.0,-27.0,150,8,,15.0,30.620079,1039.6,,,,,,,,,,FEW,23000,,,,,,,VFR,,,,,,,,,,,,METAR,166.0
CYHK 211700Z AUTO 25013KT 9SM CLR M38/M42 A3046 RMK SLP326,CYHK,2015-02-21T17:00:00Z,68.62,-95.83,-38.0,-42.0,250,13,,9.0,30.46063,1032.6,,TRUE,,,,,,,,CLR,,,,,,,,VFR,,,,,,,,,,,,METAR,46.0
CYHI 211700Z 06003KT 1SM -SN OVC016 M20/M23 A3029 RMK SN6SC2 SLP264,CYHI,2015-02-21T17:00:00Z,70.77,-117.78,-20.0,-23.0,60,3,,1.0,30.28937,1026.4,,,,,,,,,-SN,OVC,1600,,,,,,,IFR,,,,,,,,,,,,METAR,36.0
CYGT 211700Z 30012KT 15SM SKC M34/M38 A3024 RMK SLP253,CYGT,2015-02-21T17:00:00Z,69.37,-81.82,-34.0,-38.0,300,12,,15.0,30.239174,1025.3,,,,,,,,,,SKC,,,,,,,,VFR,,,,,,,,,,,,METAR,51.0
CYGH 211700Z 11002KT 25SM FEW160 FEW220 M19/M21 A3020 RMK AC2CI0 SLP239,CYGH,2015-02-21T17:00:00Z,66.27,-128.62,-19.0,-21.0,110,2,,25.0,30.200787,1023.9,,,,,,,,,,FEW,16000,FEW,22000,,,,,VFR,,,,,,,,,,,,METAR,66.0
CYFS 211700Z 12008KT 090V160 5SM -SG BR OVC008 M16/M18 A3043 RMK ST8 FROIN OCNL DRSN SLP325,CYFS,2015-02-21T17:00:00Z,61.75,-121.22,-16.0,-18.0,120,8,,5.0,30.431103,1032.5,,,,,,,,,-SG BR,OVC,800,,,,,,,IFR,,,,,,,,,,,,METAR,169.0
CYCS 211700Z 34013KT 15SM SKC M31/M35 A3040 RMK SLP297,CYCS,2015-02-21T17:00:00Z,63.35,-90.72,-31.0,-35.0,340,13,,15.0,30.398623,1029.7,,,,,,,,,,SKC,,,,,,,,VFR,,,,,,,,,,,,METAR,11.0
CYCO 211700Z 22013KT 15SM FEW030 SCT060 BKN150 BKN180 M16/M19 A3034 RMK SC2SC2AS2AC1 SLP279,CYCO,2015-02-21T17:00:00Z,67.82,-115.15,-16.0,-19.0,220,13,,15.0,30.339567,1027.9,,,,,,,,,,FEW,3000,SCT,6000,BKN,15000,BKN,18000,VFR,,,,,,,,,,,,METAR,22.0
CYCB 211700Z 16003KT 10SM IC FEW012 BKN160 BKN190 M35/M39 A3039 RMK SC1AC4AC2 SLP297,CYCB,2015-02-21T17:00:00Z,69.08,-105.12,-35.0,-39.0,160,3,,10.0,30.389763,1029.7,,,,,,,,,IC,FEW,1200,BKN,16000,BKN,19000,,,VFR,,,,,,,,,,,,METAR,27.0
CZST 211700Z 00000KT 15SM FEW300 M03/M03 A3058 RMK CI2 FROIN WND ESTD SLP357,CZST,2015-02-21T17:00:00Z,55.93,-129.98,-3.0,-3.0,0,0,,15.0,30.578741,1035.7,,,,,,,,,,FEW,30000,,,,,,,VFR,,,,,,,,,,,,METAR,7.0
CZCP 211700Z AUTO 16006KT 9SM CLR M14/ A3019 RMK SLP237,CZCP,2015-02-21T17:00:00Z,70.17,-124.72,-14.0,,160,6,,9.0,30.188976,1023.7,,TRUE,,,,,,,,CLR,,,,,,,,VFR,,,,,,,,,,,,METAR,93.0
CZBF 211700Z 25011KT 15SM BKN220 M09/M22 A3030 RMK CS7 SLP266,CZBF,2015-02-21T17:00:00Z,47.62,-65.75,-9.0,-22.0,250,11,,15.0,30.301182,1026.6,,,,,,,,,,BKN,22000,,,,,,,VFR,,,,,,,,,,,,METAR,59.0
CWZZ 211700Z AUTO 02036G41KT M18/ A2946 RMK SLP029,CWZZ,2015-02-21T17:00:00Z,58.32,-62.57,-18.0,,20,36,41,,29.459646,1002.9,,TRUE,,,,,,,,,,,,,,,,,,,,,,,,,,,,METAR,483.0
CWYK 211700Z AUTO ///// M19/ A2928 RMK SLP990,CWYK,2015-02-21T17:00:00Z,57.12,-61.47,-19.0,,,,,,29.279528,999.0,,TRUE,,,,,,,,,,,,,,,,,,,,,,,,,,,,METAR,834.0
CWVH 211700Z AUTO 24006KT M09/ A3010 RMK SLP219,CWVH,2015-02-21T17:00:00Z,68.9,-133.93,-9.0,,240,6,,,30.100393,1021.9,,TRUE,,,,,,,,,,,,,,,,,,,,,,,,,,,,METAR,261.0
CWUW 211700Z AUTO 07007KT 9SM CLR M30/ A2981 RMK SLP185,CWUW,2015-02-21T17:00:00Z,68.65,-71.17,-30.0,,70,7,,9.0,29.811024,1018.5,,TRUE,,,,,,,,CLR,,,,,,,,VFR,,,,,,,,,,,,METAR,527.0
CWFJ 211700Z AUTO 01015G23KT M06/M08 RMK AO1 PK WND 35026/1640 T10621077,CWFJ,2015-02-21T17:00:00Z,49.2,-113.27,-6.2,-7.7,10,15,23,,,,,TRUE,TRUE,,,,,,,,,,,,,,,,,,,,,,,,,,,METAR,1136.0
CWEZ 211700Z AUTO 29005KT 07/05 RMK AO1 PK WND 34017/1615 SLP284 T00740050 53018,CWEZ,2015-02-21T17:00:00Z,48.78,-123.05,7.4,5.0,290,5,,,,1028.4,,TRUE,TRUE,,,,,,,,,,,,,,,,1.8,,,,,,,,,,,METAR,7.0
CWEW 211700Z AUTO 17006KT M11/M18 RMK AO1 SOG 13 8030 SLP240 T11081175,CWEW,2015-02-21T17:00:00Z,45.82,-73.43,-10.8,-17.5,170,6,,,,1024.0,,TRUE,TRUE,,,,,,,,,,,,,,,,,,,,,,,,,,,METAR,21.0
CWEL 211700Z AUTO 32018KT 07/03 RMK AO1 PK WND 31024/1616 SLP292 T00700034 53014,CWEL,2015-02-21T17:00:00Z,49.22,-123.78,7.0,3.4,320,18,,,,1029.2,,TRUE,TRUE,,,,,,,,,,,,,,,,1.4,,,,,,,,,,,METAR,5.0
CWEB 211700Z AUTO 03005KT 03/03 RMK AO1 SLP293 T00340034 51016,CWEB,2015-02-21T17:00:00Z,49.38,-126.55,3.4,3.4,30,5,,,,1029.3,,TRUE,TRUE,,,,,,,,,,,,,,,,1.6,,,,,,,,,,,METAR,7.0
KNGU 211659Z VRB04KT 10SM OVC050 02/M12 A3044 RMK AO2 SLP307 T00221122 PNO $,KNGU,2015-02-21T16:59:00Z,36.92,-76.27,2.2,-12.2,0,4,,10.0,30.43996,1030.7,,,TRUE,TRUE,,,,,,OVC,5000,,,,,,,VFR,,,,,,,,,,,,METAR,5.0
KHGR 211659Z 16012KT 1/2SM SN VV010 M08/M11 A3024 RMK AO2 P0000 T10831111,KHGR,2015-02-21T16:59:00Z,39.7,-77.73,-8.3,-11.1,160,12,,0.5,30.239174,,,,TRUE,,,,,,SN,OVX,0,,,,,,,LIFR,,,,,,0.0050,,,,,1000,METAR,224.0
KBWI 211659Z 17005KT 1/4SM R10/2800V3500FT SN FZFG VV009 M07/M09 A3039 RMK AO2 P0000,KBWI,2015-02-21T16:59:00Z,39.17,-76.68,-7.0,-9.0,170,5,,0.25,30.389763,,,,TRUE,,,,,,SN FZFG,OVX,0,,,,,,,LIFR,,,,,,0.0050,,,,,900,METAR,59.0
KABI 211659Z 35017KT 10SM OVC016 09/03 A3000 RMK AO2 T00890033,KABI,2015-02-21T16:59:00Z,32.42,-99.68,8.9,3.3,350,17,,10.0,30.0,,,,TRUE,,,,,,,OVC,1600,,,,,,,MVFR,,,,,,,,,,,,METAR,548.0
KPIT 211659Z 14007KT 3/4SM R28R/3500VP6000FT -SN BR BKN012 BKN017 OVC026 M03/M04 A2996 RMK AO2 P0000 T10331044,KPIT,2015-02-21T16:59:00Z,40.5,-80.27,-3.3,-4.4,140,7,,0.75,29.958662,,,,TRUE,,,,,,-SN BR,BKN,1200,BKN,1700,OVC,2600,,,LIFR,,,,,,0.0050,,,,,,METAR,357.0
KOWB 211659Z 03005KT 1/2SM RA FG BKN008 BKN014 OVC018 02/01 A2988 RMK AO2 CIG 007V011 P0001,KOWB,2015-02-21T16:59:00Z,37.72,-87.17,2.0,1.0,30,5,,0.5,29.878937,,,,TRUE,,,,,,RA FG,BKN,800,BKN,1400,OVC,1800,,,LIFR,,,,,,0.01,,,,,,METAR,124.0
KMIE 211659Z 11004KT 2 1/2SM -SN BR SCT017 SCT028 OVC085 M05/M07 A2990 RMK AO2 P0000 T10501067,KMIE,2015-02-21T16:59:00Z,40.23,-85.4,-5.0,-6.7,110,4,,2.5,29.899607,,,,TRUE,,,,,,-SN BR,SCT,1700,SCT,2800,OVC,8500,,,IFR,,,,,,0.0050,,,,,,METAR,285.0
KLIT 211659Z 01006KT 3SM -TSRA BR BKN007 OVC023CB 04/03 A2990 RMK AO2 TWR VIS 4 OCNL LTGIC E TS E MOV E P0001,KLIT,2015-02-21T16:59:00Z,34.73,-92.23,4.0,3.0,10,6,,3.0,29.899607,,,,TRUE,,,,,,-TSRA BR,BKN,700,OVC,2300,,,,,IFR,,,,,,0.01,,,,,,METAR,79.0
EHVL 211659Z AUTO 31007KT 9999 FEW010 SCT047 BKN100 03/01 Q0998 REDZ BLU,EHVL,2015-02-21T16:59:00Z,53.23,4.92,3.0,1.0,310,7,,6.21,29.468504,,,TRUE,,,,,,,,FEW,1000,SCT,4700,BKN,10000,,,VFR,,,,,,,,,,,,METAR,5.0
PWAK 211659Z AUTO 32013KT 9999 -RA BKN021 BKN029 OVC040 23/20 A2983 RMK AO2 RAB58,PWAK,2015-02-21T16:59:00Z,19.28,166.65,23.0,20.0,320,13,,6.21,29.828741,,,TRUE,TRUE,,,,,,-RA,BKN,2100,BKN,2900,OVC,4000,,,MVFR,,,,,,,,,,,,METAR,4.0
KROG 211659Z 01007KT 10SM BKN009 04/02 A2995 RMK AO2 CIG 008V011 SLP148 T00390017,KROG,2015-02-21T16:59:00Z,36.37,-94.08,3.9,1.7,10,7,,10.0,29.949802,1014.8,,,TRUE,,,,,,,BKN,900,,,,,,,IFR,,,,,,,,,,,,METAR,415.0
KQGA 211659Z AUTO 33008G15KT 6000 HZ CLR 25/03 A2987 RMK CDP03659 CLR,KQGA,2015-02-21T16:59:00Z,100.65,-1000.65,25.0,3.0,330,8,15,3.73,29.870079,,,TRUE,,,,,,,HZ,CLR,,,,,,,,MVFR,,,,,,,,,,,,METAR,999.0
KCMH 211658Z 17004KT 2SM -SN BR OVC008 M03/M04 A2993 RMK AO2 P0000,KCMH,2015-02-21T16:58:00Z,40.0,-82.88,-3.0,-4.0,170,4,,2.0,29.929134,,,,TRUE,,,,,,-SN BR,OVC,800,,,,,,,IFR,,,,,,0.0050,,,,,,METAR,247.0
MMAS 211658Z RTD 27005KT 13SM SKC 18/M01 A3029 RMK ISOL CI,MMAS,2015-02-21T16:58:00Z,21.7,-102.32,18.0,-1.0,270,5,,13.0,30.28937,,,,,,,,,,,SKC,,,,,,,,VFR,,,,,,,,,,,,METAR,1863.0
KTOR 211658Z AUTO 01023G28KT 1 3/4SM -SN BKN021 OVC037 M03/M06 A3001 RMK AO2 PK WND 01028/1657 P0000 T10281061,KTOR,2015-02-21T16:58:00Z,42.07,-104.15,-2.8,-6.1,10,23,28,1.75,30.008858,,,TRUE,TRUE,,,,,,-SN,BKN,2100,OVC,3700,,,,,IFR,,,,,,0.0050,,,,,,METAR,1277.0
PFEL 211658Z AUTO 35013KT 6SM -SN BR OVC014 M01/M02 A2964 RMK AO2 SLP044 P0000 T10061017 FZRANO,PFEL,2015-02-21T16:58:00Z,64.62,-162.27,-0.6,-1.7,350,13,,6.0,29.639763,1004.4,,TRUE,TRUE,,,,TRUE,,-SN BR,OVC,1400,,,,,,,MVFR,,,,,,0.0050,,,,,,METAR,49.0
PFNO 211658Z AUTO 05024G32KT 9SM CLR M01/M03 A2981 RMK AO2 PK WND 07034/1637 SNB32E51 SLP095 P0000 T10061028 FZRANO,PFNO,2015-02-21T16:58:00Z,66.82,-161.02,-0.6,-2.8,50,24,32,9.0,29.811024,1009.5,,TRUE,TRUE,,,,TRUE,,,CLR,,,,,,,,VFR,,,,,,0.0050,,,,,,METAR,17.0
PFSH 211658Z AUTO 04010KT 10SM RA OVC039 01/M01 A2964 RMK AO2 SLP051 P0004 T00111006 FZRANO,PFSH,2015-02-21T16:58:00Z,64.37,-161.22,1.1,-0.6,40,10,,10.0,29.639763,1005.1,,TRUE,TRUE,,,,TRUE,,RA,OVC,3900,,,,,,,VFR,,,,,,0.04,,,,,,METAR,7.0
KMEI 211658Z 19018G24KT 10SM OVC060 17/09 A3005 RMK AO2 PK WND 16030/1607 SLP175 T01720089,KMEI,2015-02-21T16:58:00Z,32.33,-88.75,17.2,8.9,190,18,24,10.0,30.050198,1017.5,,,TRUE,,,,,,,OVC,6000,,,,,,,VFR,,,,,,,,,,,,METAR,89.0
KMRH 211658Z AUTO 10009KT 10SM CLR 10/03 A3044 RMK AO2 SLP309 T01000028 TSNO,KMRH,2015-02-21T16:58:00Z,34.73,-76.65,10.0,2.8,100,9,,10.0,30.43996,1030.9,,TRUE,TRUE,,,TRUE,,,,CLR,,,,,,,,VFR,,,,,,,,,,,,METAR,3.0
PAGA 211658Z AUTO 07008KT 10SM OVC090 M01/M07 A2977 RMK AO2 SLP087 T10061067 FZRANO,PAGA,2015-02-21T16:58:00Z,64.73,-156.93,-0.6,-6.7,70,8,,10.0,29.769686,1008.7,,TRUE,TRUE,,,,TRUE,,,OVC,9000,,,,,,,VFR,,,,,,,,,,,,METAR,46.0
PAIW 211658Z AUTO 07016KT 1/2SM -SN FZFG OVC003 M09/M11 A2972 RMK AO2 SLP066 P0000 T10941106 FZRANO,PAIW,2015-02-21T16:58:00Z,65.62,-168.1,-9.4,-10.6,70,16,,0.5,29.719488,1006.6,,TRUE,TRUE,,,,TRUE,,-SN FZFG,OVC,300,,,,,,,LIFR,,,,,,0.0050,,,,,,METAR,7.0
PATE 211658Z AUTO 12011KT 10SM BKN070 BKN085 OVC100 M05/M06 A2963 RMK AO2 SLP046 T10501061 FZRANO,PATE,2015-02-21T16:58:00Z,65.23,-166.33,-5.0,-6.1,120,11,,10.0,29.630905,1004.6,,TRUE,TRUE,,,,TRUE,,,BKN,7000,BKN,8500,OVC,10000,,,VFR,,,,,,,,,,,,METAR,90.0
PFKT 211658Z AUTO 06012G22KT 9SM OVC100 M03/M06 A2965 RMK AO2 PK WND 02029/1644 WSHFT 1637 SNE14B42E58 SLP041 P0000 T10331056 FZRANO,PFKT,2015-02-21T16:58:00Z,65.33,-166.47,-3.3,-5.6,60,12,22,9.0,29.648623,1004.1,,TRUE,TRUE,,,,TRUE,,,OVC,10000,,,,,,,VFR,,,,,,0.0050,,,,,,METAR,9.0
KLEX 211658Z 18016G23KT 4SM -SN BR BKN006 BKN009 OVC041 01/00 A2991 RMK AO2 P0000 T00110000 $,KLEX,2015-02-21T16:58:00Z,38.03,-84.6,1.1,0.0,180,16,23,4.0,29.911417,,,,TRUE,TRUE,,,,,-SN BR,BKN,600,BKN,900,OVC,4100,,,IFR,,,,,,0.0050,,,,,,METAR,300.0
KMMT 211658Z 13010KT 10SM FEW100 BKN250 12/01 A3031 RMK AO2A PRESFR SLP268 T01160008,KMMT,2015-02-21T16:58:00Z,33.92,-80.78,11.6,0.8,130,10,,10.0,30.31004,1026.8,,,TRUE,,,,,,,FEW,10000,BKN,25000,,,,,VFR,,,,,,,,,,,,METAR,77.0
KBAD 211658Z 19012KT 10SM BKN024 OVC030 20/16 A2986 RMK AO2A PK WND 21026/23 SLP113 T01990156,KBAD,2015-02-21T16:58:00Z,32.5,-93.67,19.9,15.6,190,12,,10.0,29.861221,1011.3,,,TRUE,,,,,,,BKN,2400,OVC,3000,,,,,MVFR,,,,,,,,,,,,METAR,51.0
KPOB 211658Z AUTO 14003KT 10SM OVC021 02/M05 A3036 RMK AO2 SLP286 T00171051,KPOB,2015-02-21T16:58:00Z,35.17,-79.02,1.7,-5.1,140,3,,10.0,30.360237,1028.6,,TRUE,TRUE,,,,,,,OVC,2100,,,,,,,MVFR,,,,,,,,,,,,METAR,66.0
KBIX 211658Z AUTO 17010G17KT 10SM BKN080 18/12 A3012 RMK AO2 SLP203 T01750121,KBIX,2015-02-21T16:58:00Z,30.42,-88.92,17.5,12.1,170,10,17,10.0,30.121063,1020.3,,TRUE,TRUE,,,,,,,BKN,8000,,,,,,,VFR,,,,,,,,,,,,METAR,10.0
KCBM 211658Z AUTO 18021G28KT 10SM CLR 16/10 A2996 RMK AO2 PK WND 18029/18 UPB53 SLP148 P0000 T01600095 $,KCBM,2015-02-21T16:58:00Z,33.63,-88.45,16.0,9.5,180,21,28,10.0,29.958662,1014.8,,TRUE,TRUE,TRUE,,,,,,CLR,,,,,,,,VFR,,,,,,0.0050,,,,,,METAR,67.0
KDLF 211658Z AUTO 14005KT 10SM CLR 20/15 A2990 RMK AO2 SLP116 T02010151 $,KDLF,2015-02-21T16:58:00Z,29.37,-100.77,20.1,15.1,140,5,,10.0,29.899607,1011.6,,TRUE,TRUE,TRUE,,,,,,CLR,,,,,,,,VFR,,,,,,,,,,,,METAR,330.0
KHRT 211658Z AUTO 15021KT 10SM FEW037 19/09 A3019 RMK AO2 SLP225 T01930091 $,KHRT,2015-02-21T16:58:00Z,30.42,-86.67,19.3,9.1,150,21,,10.0,30.188976,1022.5,,TRUE,TRUE,TRUE,,,,,,FEW,3700,,,,,,,VFR,,,,,,,,,,,,METAR,12.0
KFSI 211658Z AUTO 04014KT 10SM OVC018 08/03 A3001 RMK AO2 SLP164 T00800029 $,KFSI,2015-02-21T16:58:00Z,34.65,-98.4,8.0,2.9,40,14,,10.0,30.008858,1016.4,,TRUE,TRUE,TRUE,,,,,,OVC,1800,,,,,,,MVFR,,,,,,,,,,,,METAR,362.0
KSZL 211658Z AUTO 31007KT 10SM CLR 04/02 A2996 RMK AO2 SLP156 T00410017 $,KSZL,2015-02-21T16:58:00Z,38.72,-93.53,4.1,1.7,310,7,,10.0,29.958662,1015.6,,TRUE,TRUE,TRUE,,,,,,CLR,,,,,,,,VFR,,,,,,,,,,,,METAR,265.0
KSVN 211658Z AUTO 17007KT 140V210 10SM CLR 16/06 A3032 RMK AO2 SLP271 T01630064,KSVN,2015-02-21T16:58:00Z,32.02,-81.15,16.3,6.4,170,7,,10.0,30.318897,1027.1,,TRUE,TRUE,,,,,,,CLR,,,,,,,,VFR,,,,,,,,,,,,METAR,13.0
KOZR 211658Z AUTO 17013G26KT 10SM FEW030 17/08 A3021 RMK AO2 PK WND 17028/48 SLP233 T01730076,KOZR,2015-02-21T16:58:00Z,31.28,-85.72,17.3,7.6,170,13,26,10.0,30.209646,1023.3,,TRUE,TRUE,,,,,,,FEW,3000,,,,,,,VFR,,,,,,,,,,,,METAR,93.0
KLHW 211658Z AUTO 18009G18KT 10SM FEW055 17/05 A3031 RMK AO2 SLP267 T01740052,KLHW,2015-02-21T16:58:00Z,31.87,-81.57,17.4,5.2,180,9,18,10.0,30.31004,1026.7,,TRUE,TRUE,,,,,,,FEW,5500,,,,,,,VFR,,,,,,,,,,,,METAR,14.0
KHST 211658Z AUTO 08015G22KT 10SM CLR 22/14 A3025 RMK AO2 DZB10E12RAB12E22 CIG 085 RWY23 SLP247 P0000 T02200141,KHST,2015-02-21T16:58:00Z,25.47,-80.37,22.0,14.1,80,15,22,10.0,30.250984,1024.7,,TRUE,TRUE,,,,,,,CLR,,,,,,,,VFR,,,,,,0.0050,,,,,,METAR,2.0
KGUS 211658Z 00000KT 1 1/4SM -SN BR OVC014 M05/M07 A2992 RMK AO2A SLP148 P0001 T10551070,KGUS,2015-02-21T16:58:00Z,40.63,-86.15,-5.5,-7.0,0,0,,1.25,29.920275,1014.8,,,TRUE,,,,,,-SN BR,OVC,1400,,,,,,,IFR,,,,,,0.01,,,,,,METAR,247.0
KBKF 211658Z 08005KT 4SM -SN BR SCT007 SCT012 OVC020 M01/M01 A2995 RMK AO2A SLP151 P0000 T10141015,KBKF,2015-02-21T16:58:00Z,39.72,-104.75,-1.4,-1.5,80,5,,4.0,29.949802,1015.1,,,TRUE,,,,,,-SN BR,SCT,700,SCT,1200,OVC,2000,,,MVFR,,,,,,0.0050,,,,,,METAR,1726.0
RKSO 211658Z 00000KT 1SM -DZ BR FEW005 OVC013 07/07 A2994 RMK AO2A DZB39 SLP142 T00650065 $,RKSO,2015-02-21T16:58:00Z,37.07,127.02,6.5,6.5,0,0,,1.0,29.940945,1014.2,,,TRUE,TRUE,,,,,-DZ BR,FEW,500,OVC,1300,,,,,IFR,,,,,,,,,,,,METAR,12.0
KQSA 211658Z 24001KT 9999 SCT055 BKN120 BKN160 09/08 A3019 RMK AO2A SLP176 T00930077 VISNO RWY21 CHINO RWY21 $,KQSA,2015-02-21T16:58:00Z,100.65,-1000.65,9.3,7.7,240,1,,6.21,30.188976,1017.6,,,TRUE,TRUE,,,,,,SCT,5500,BKN,12000,BKN,16000,,,VFR,,,,,,,,,,,,METAR,999.0
KIAB 211658Z AUTO 35004KT 10SM CLR 07/02 A3000 RMK AO2 SLP168 T00720019,KIAB,2015-02-21T16:58:00Z,37.62,-97.27,7.2,1.9,350,4,,10.0,30.0,1016.8,,TRUE,TRUE,,,,,,,CLR,,,,,,,,VFR,,,,,,,,,,,,METAR,418.0
KGTB 211658Z AUTO 14009KT 10SM SCT043 M08/M18 A3007 RMK AO2 SLP199 T10791182,KGTB,2015-02-21T16:58:00Z,44.07,-75.72,-7.9,-18.2,140,9,,10.0,30.070866,1019.9,,TRUE,TRUE,,,,,,,SCT,4300,,,,,,,VFR,,,,,,,,,,,,METAR,207.0
KFRI 211658Z AUTO 05010KT 10SM CLR 07/03 A3001 RMK AO2 SLP168 T00670029,KFRI,2015-02-21T16:58:00Z,39.03,-96.77,6.7,2.9,50,10,,10.0,30.008858,1016.8,,TRUE,TRUE,,,,,,,CLR,,,,,,,,VFR,,,,,,,,,,,,METAR,325.0
KEGI 211658Z AUTO 18022G33KT 10SM CLR 19/10 A3018 RMK AO2 PK WND 18036/38 SLP223 T01910103 $,KEGI,2015-02-21T16:58:00Z,30.63,-86.52,19.1,10.3,180,22,33,10.0,30.180119,1022.3,,TRUE,TRUE,TRUE,,,,,,CLR,,,,,,,,VFR,,,,,,,,,,,,METAR,59.0
KDOV 211658Z AUTO 18007KT 10SM FEW048 M03/M12 A3044 RMK AO2 SLP312 T10351116,KDOV,2015-02-21T16:58:00Z,39.12,-75.47,-3.5,-11.6,180,7,,10.0,30.43996,1031.2,,TRUE,TRUE,,,,,,,FEW,4800,,,,,,,VFR,,,,,,,,,,,,METAR,9.0
KCEF 211658Z AUTO 19016G24KT 10SM BKN110 M06/M15 A3038 RMK AO2 SLP300 T10591151,KCEF,2015-02-21T16:58:00Z,42.2,-72.52,-5.9,-15.1,190,16,24,10.0,30.380905,1030.0,,TRUE,TRUE,,,,,,,BKN,11000,,,,,,,VFR,,,,,,,,,,,,METAR,75.0
KQGX 211658Z AUTO 31010KT 9999 CLR 21/14 A2989 RMK AO2 SLP124 T02100143 $,KQGX,2015-02-21T16:58:00Z,100.65,-1000.65,21.0,14.3,310,10,,6.21,29.890747,1012.4,,TRUE,TRUE,TRUE,,,,,,CLR,,,,,,,,VFR,,,,,,,,,,,,METAR,999.0
PGUA 211658Z AUTO 05017KT 10SM BKN021 BKN028 OVC035 23/19 A2996 RMK AO2 PK WND 05029/27 DZE05 SLP136 P0001 T02310194 $,PGUA,2015-02-21T16:58:00Z,13.57,144.92,23.1,19.4,50,17,,10.0,29.958662,1013.6,,TRUE,TRUE,TRUE,,,,,,BKN,2100,BKN,2800,OVC,3500,,,MVFR,,,,,,0.01,,,,,,METAR,187.0
KSKF 211658Z AUTO 17012KT 10SM BKN024 21/16 A2989 RMK AO2 SLP118 T02140155 $,KSKF,2015-02-21T16:58:00Z,29.37,-98.57,21.4,15.5,170,12,,10.0,29.890747,1011.8,,TRUE,TRUE,TRUE,,,,,,BKN,2400,,,,,,,MVFR,,,,,,,,,,,,METAR,210.0
KHMN 211658Z AUTO 19005KT 10SM CLR 18/M04 A2995 RMK AO2 SLP091 T01751036 $,KHMN,2015-02-21T16:58:00Z,32.85,-106.08,17.5,-3.6,190,5,,10.0,29.949802,1009.1,,TRUE,TRUE,TRUE,,,,,,CLR,,,,,,,,VFR,,,,,,,,,,,,METAR,1248.0
BGTL 211658Z AUTO 10005KT 9999 CLR M31/M34 A2995 RMK AO2 SLP138,BGTL,2015-02-21T16:58:00Z,76.53,-68.7,-31.0,-34.0,100,5,,6.21,29.949802,1013.8,,TRUE,TRUE,,,,,,,CLR,,,,,,,,VFR,,,,,,,,,,,,METAR,77.0
ETOU 211658Z AUTO 26005KT 9999 OVC049 05/00 A2957 RMK AO2 SLP019 T00540002 $,ETOU,2015-02-21T16:58:00Z,50.03,8.32,5.4,0.2,260,5,,6.21,29.568897,1001.9,,TRUE,TRUE,TRUE,,,,,,OVC,4900,,,,,,,VFR,,,,,,,,,,,,METAR,141.0
ETIK 211658Z AUTO 11002KT 9999 BKN021 OVC039 04/04 A2956 RMK AO2 SLP021 T00440043,ETIK,2015-02-21T16:58:00Z,49.47,10.37,4.4,4.3,110,2,,6.21,29.56004,1002.1,,TRUE,TRUE,,,,,,,BKN,2100,OVC,3900,,,,,MVFR,,,,,,,,,,,,METAR,325.0
ETIC 211658Z AUTO 27005KT 9999 FEW021 SCT080 05/01 A2952 RMK AO2 SLP019 T00460014 $,ETIC,2015-02-21T16:58:00Z,49.7,11.93,4.6,1.4,270,5,,6.21,29.518702,1001.9,,TRUE,TRUE,TRUE,,,,,,FEW,2100,SCT,8000,,,,,VFR,,,,,,,,,,,,METAR,415.0
ETAR 211658Z AUTO 00000KT 9999 CLR 04/M01 A2957 RMK AO2 SLP024 T00381006 $,ETAR,2015-02-21T16:58:00Z,49.42,7.58,3.8,-0.6,0,0,,6.21,29.568897,1002.4,,TRUE,TRUE,TRUE,,,,,,CLR,,,,,,,,VFR,,,,,,,,,,,,METAR,238.0
ETAD 211658Z AUTO 21006KT 9999 OVC060 03/00 A2954 RMK AO2 SLP006 T00291001,ETAD,2015-02-21T16:58:00Z,49.98,6.7,2.9,-0.1,210,6,,6.21,29.53937,1000.6,,TRUE,TRUE,,,,,,,OVC,6000,,,,,,,VFR,,,,,,,,,,,,METAR,365.0
KSLI 211658Z 09004KT 10SM OVC039 16/12 A3000 RMK AO2A SLP162 T01630117,KSLI,2015-02-21T16:58:00Z,33.77,-118.03,16.3,11.7,90,4,,10.0,30.0,1016.2,,,TRUE,,,,,,,OVC,3900,,,,,,,VFR,,,,,,,,,,,,METAR,11.0
RODN 211658Z AUTO 15004KT 10SM FEW045 SCT150 17/13 A3009 RMK AO2 SLP196 T01740132,RODN,2015-02-21T16:58:00Z,26.35,127.77,17.4,13.2,150,4,,10.0,30.088583,1019.6,,TRUE,TRUE,,,,,,,FEW,4500,SCT,15000,,,,,VFR,,,,,,,,,,,,METAR,45.0
RJTY 211658Z AUTO 02007KT 10SM OVC024 04/00 A3038 RMK AO2 SLP296 T00420001,RJTY,2015-02-21T16:58:00Z,35.75,139.33,4.2,0.1,20,7,,10.0,30.380905,1029.6,,TRUE,TRUE,,,,,,,OVC,2400,,,,,,,MVFR,,,,,,,,,,,,METAR,139.0
PHHI 211658Z AUTO 30005KT 10SM CLR 14/13 A2999 RMK AO2 SLP153 T01440128 $,PHHI,2015-02-21T16:58:00Z,21.48,-158.05,14.4,12.8,300,5,,10.0,29.991142,1015.3,,TRUE,TRUE,TRUE,,,,,,CLR,,,,,,,,VFR,,,,,,,,,,,,METAR,255.0
PAEI 211658Z AUTO 00000KT 10SM CLR M11/M13 A2983 RMK AO2 SLP117 T11101131 CHINO RWY14 $,PAEI,2015-02-21T16:58:00Z,64.67,-147.1,-11.0,-13.1,0,0,,10.0,29.828741,1011.7,,TRUE,TRUE,TRUE,,,,,,CLR,,,,,,,,VFR,,,,,,,,,,,,METAR,167.0
RKSG 211658Z AUTO 18002KT 3SM R32/4000FT -DZ BR FEW007 OVC013 08/07 A2995 RMK AO2 DZB44 SLP146 P0001 T00760070 $,RKSG,2015-02-21T16:58:00Z,36.97,127.02,7.6,7.0,180,2,,3.0,29.949802,1014.6,,TRUE,TRUE,TRUE,,,,,-DZ BR,FEW,700,OVC,1300,,,,,MVFR,,,,,,0.01,,,,,,METAR,16.0
MHSC 211658Z AUTO 31010G15KT 9999 FEW090 28/15 A3006 RMK AO2 SLP145 T02750154 $,MHSC,2015-02-21T16:58:00Z,14.37,-87.62,27.5,15.4,310,10,15,6.21,30.059055,1014.5,,TRUE,TRUE,TRUE,,,,,,FEW,9000,,,,,,,VFR,,,,,,,,,,,,METAR,626.0
KTCM 211658Z AUTO 00000KT 10SM OVC017 07/06 A3031 RMK AO2 SLP270 T00680056 $,KTCM,2015-02-21T16:58:00Z,47.12,-122.47,6.8,5.6,0,0,,10.0,30.31004,1027.0,,TRUE,TRUE,TRUE,,,,,,OVC,1700,,,,,,,MVFR,,,,,,,,,,,,METAR,98.0
KSUU 211658Z AUTO 00000KT 5SM BR OVC007 10/09 A2998 RMK AO2 SLP159 T00980092 $,KSUU,2015-02-21T16:58:00Z,38.27,-121.92,9.8,9.2,0,0,,5.0,29.97933,1015.9,,TRUE,TRUE,TRUE,,,,,BR,OVC,700,,,,,,,IFR,,,,,,,,,,,,METAR,19.0
KSKA 211658Z AUTO 03013KT 10SM OVC055 02/00 A3019 RMK AO2 SNE03 SLP244 P0000 T00231004,KSKA,2015-02-21T16:58:00Z,47.62,-117.65,2.3,-0.4,30,13,,10.0,30.188976,1024.4,,TRUE,TRUE,,,,,,,OVC,5500,,,,,,,VFR,,,,,,0.0050,,,,,,METAR,750.0
KHIF 211658Z AUTO 16006KT 10SM SCT035 SCT044 OVC060 03/00 A2997 RMK AO2 UPB26E40 SLP148 P0000 T00301004,KHIF,2015-02-21T16:58:00Z,41.12,-111.97,3.0,-0.4,160,6,,10.0,29.970472,1014.8,,TRUE,TRUE,,,,,,,SCT,3500,SCT,4400,OVC,6000,,,VFR,,,,,,0.0050,,,,,,METAR,1459.0
KGRF 211658Z AUTO 01008KT 10SM BKN017 OVC025 07/06 A3031 RMK AO2 CIG 015V024 SLP269 T00680063 $,KGRF,2015-02-21T16:58:00Z,47.07,-122.57,6.8,6.3,10,8,,10.0,30.31004,1026.9,,TRUE,TRUE,TRUE,,,,,,BKN,1700,OVC,2500,,,,,MVFR,,,,,,,,,,,,METAR,92.0
KDMA 211658Z AUTO 10005KT 10SM CLR 18/02 A2996 RMK AO2 SLP119 T01830020 $,KDMA,2015-02-21T16:58:00Z,32.17,-110.87,18.3,2.0,100,5,,10.0,29.958662,1011.9,,TRUE,TRUE,TRUE,,,,,,CLR,,,,,,,,VFR,,,,,,,,,,,,METAR,824.0
KBAB 211658Z AUTO 00000KT 1 3/4SM BR OVC003 09/09 A2997 RMK AO2 VIS 1/2V1 3/4 VIS 3/4 RWY33 SLP226 $,KBAB,2015-02-21T16:58:00Z,39.12,-121.42,9.0,9.0,0,0,,1.75,29.970472,1022.6,,TRUE,TRUE,TRUE,,,,,BR,OVC,300,,,,,,,LIFR,,,,,,,,,,,,METAR,34.0
KINS 211658Z AUTO 00000KT 10SM CLR 11/M09 A2994 RMK AO2 SLP116 T01111086 $,KINS,2015-02-21T16:58:00Z,36.58,-115.67,11.1,-8.6,0,0,,10.0,29.940945,1011.6,,TRUE,TRUE,TRUE,,,,,,CLR,,,,,,,,VFR,,,,,,,,,,,,METAR,955.0
KRDR 211658Z AUTO 34013KT 10SM CLR M18/M25 A3028 RMK AO2 SLP283 T11821246,KRDR,2015-02-21T16:58:00Z,47.97,-97.4,-18.2,-24.6,340,13,,10.0,30.280512,1028.3,,TRUE,TRUE,,,,,,,CLR,,,,,,,,VFR,,,,,,,,,,,,METAR,278.0
KRCA 211658Z AUTO 35017G23KT 10SM UP BKN012 OVC021 M06/M12 A3012 RMK AO2 PK WND 36029/20 CIG 012V021 BKN V SCT SLP239 P0000 $,KRCA,2015-02-21T16:58:00Z,44.13,-103.08,-6.0,-12.0,350,17,23,10.0,30.121063,1023.9,,TRUE,TRUE,TRUE,,,,,UP,BKN,1200,OVC,2100,,,,,MVFR,,,,,,0.0050,,,,,,METAR,999.0
KMUI 211658Z AUTO 14008KT 2SM -SN BR OVC016 M09/M11 A3033 RMK AO2 SLP285 P0000,KMUI,2015-02-21T16:58:00Z,40.42,-76.57,-9.0,-11.0,140,8,,2.0,30.33071,1028.5,,TRUE,TRUE,,,,,,-SN BR,OVC,1600,,,,,,,IFR,,,,,,0.0050,,,,,,METAR,149.0
KMCF 211658Z AUTO 15011KT 10SM CLR 20/09 A3029 RMK AO2 SLP260 T02030093,KMCF,2015-02-21T16:58:00Z,27.85,-82.52,20.3,9.3,150,11,,10.0,30.28937,1026.0,,TRUE,TRUE,,,,,,,CLR,,,,,,,,VFR,,,,,,,,,,,,METAR,4.0
ETIH 211658Z AUTO 29005KT 9999 BKN100 01/M02 A2954 RMK AO2 SLP032 T00121017,ETIH,2015-02-21T16:58:00Z,49.22,11.82,1.2,-1.7,290,5,,6.21,29.53937,1003.2,,TRUE,TRUE,,,,,,,BKN,10000,,,,,,,VFR,,,,,,,,,,,,METAR,442.0
KVOK 211658Z 36005KT 10SM SCT025 OVC075 M03/M07 A2993 RMK AO2A SLP153,KVOK,2015-02-21T16:58:00Z,43.92,-90.27,-3.0,-7.0,360,5,,10.0,29.929134,1015.3,,,TRUE,,,,,,,SCT,2500,OVC,7500,,,,,VFR,,,,,,,,,,,,METAR,277.0
KLFI 211658Z AUTO 18009KT 10SM OVC050 00/M13 A3043 RMK AO2 UPE1629 SLP312 P0000 T10051130 $,KLFI,2015-02-21T16:58:00Z,37.07,-76.37,-0.5,-13.0,180,9,,10.0,30.431103,1031.2,,TRUE,TRUE,TRUE,,,,,,OVC,5000,,,,,,,VFR,,,,,,0.0050,,,,,,METAR,3.0
KEDW 211658Z 17003KT 90SM FEW020 FEW250 12/04 A2991 RMK AO2A VIS LWR NE-SE SLP122 T01150039,KEDW,2015-02-21T16:58:00Z,34.88,-117.87,11.5,3.9,170,3,,90.0,29.911417,1012.2,,,TRUE,,,,,,,FEW,2000,FEW,25000,,,,,VFR,,,,,,,,,,,,METAR,702.0
KSSC 211658Z AUTO 14008KT 10SM CLR 11/01 A3032 RMK AO2 SLP271 T01100013 $,KSSC,2015-02-21T16:58:00Z,33.97,-80.47,11.0,1.3,140,8,,10.0,30.318897,1027.1,,TRUE,TRUE,TRUE,,,,,,CLR,,,,,,,,VFR,,,,,,,,,,,,METAR,74.0
KPAM 211658Z AUTO 15019G26KT 10SM CLR 17/11 A3026 RMK AO2 PK WND 16027/22 SLP250 T01730107 $,KPAM,2015-02-21T16:58:00Z,30.07,-85.57,17.3,10.7,150,19,26,10.0,30.259842,1025.0,,TRUE,TRUE,TRUE,,,,,,CLR,,,,,,,,VFR,,,,,,,,,,,,METAR,5.0
KMXF 211658Z AUTO 15011KT 10SM OVC090 13/06 A3017 RMK AO2 SLP220 T01280064,KMXF,2015-02-21T16:58:00Z,32.37,-86.37,12.8,6.4,150,11,,10.0,30.171259,1022.0,,TRUE,TRUE,,,,,,,OVC,9000,,,,,,,VFR,,,,,,,,,,,,METAR,51.0
KLTS 211658Z AUTO 02014KT 10SM BKN020 09/03 A3003 RMK AO2 BKN V OVC SLP170 $,KLTS,2015-02-21T16:58:00Z,34.67,-99.27,9.0,3.0,20,14,,10.0,30.029528,1017.0,,TRUE,TRUE,TRUE,,,,,,BKN,2000,,,,,,,MVFR,,,,,,,,,,,,METAR,420.0
KDYS 211658Z AUTO 36015KT 10SM OVC016 09/04 A2999 RMK AO2 SLP138 T00880037 $,KDYS,2015-02-21T16:58:00Z,32.42,-99.83,8.8,3.7,360,15,,10.0,29.991142,1013.8,,TRUE,TRUE,TRUE,,,,,,OVC,1600,,,,,,,MVFR,,,,,,,,,,,,METAR,545.0
KLSF 211658Z AUTO 16012G21KT 10SM BKN100 BKN120 14/02 A3021 RMK AO2 SLP234 T01410022,KLSF,2015-02-21T16:58:00Z,32.32,-84.97,14.1,2.2,160,12,21,10.0,30.209646,1023.4,,TRUE,TRUE,,,,,,,BKN,10000,BKN,12000,,,,,VFR,,,,,,,,,,,,METAR,71.0
KGSB 211658Z AUTO 11006KT 10SM OVC035 04/01 A3039 RMK AO2 SLP295 T00430005 $,KGSB,2015-02-21T16:58:00Z,35.32,-77.97,4.3,0.5,110,6,,10.0,30.389763,1029.5,,TRUE,TRUE,TRUE,,,,,,OVC,3500,,,,,,,VFR,,,,,,,,,,,,METAR,33.0
KEND 211658Z AUTO 02008KT 10SM CLR 08/02 A3002 RMK AO2 SLP173 T00830021 $,KEND,2015-02-21T16:58:00Z,36.32,-97.92,8.3,2.1,20,8,,10.0,30.02067,1017.3,,TRUE,TRUE,TRUE,,,,,,CLR,,,,,,,,VFR,,,,,,,,,,,,METAR,398.0
KCOF 211658Z AUTO 14011KT 10SM SCT070 20/12 A3031 RMK AO2 SLP268 T01970123 $,KCOF,2015-02-21T16:58:00Z,28.23,-80.6,19.7,12.3,140,11,,10.0,30.31004,1026.8,,TRUE,TRUE,TRUE,,,,,,SCT,7000,,,,,,,VFR,,,,,,,,,,,,METAR,3.0
K14Y 211658Z AUTO 32012KT 10SM SCT020 OVC100 M13/M17 A3008 RMK AO2,K14Y,2015-02-21T16:58:00Z,45.9,-94.87,-13.0,-17.0,320,12,,10.0,30.079725,,,TRUE,TRUE,,,,,,,SCT,2000,OVC,10000,,,,,VFR,,,,,,,,,,,,SPECI,406.0
ROTM 211658Z 18007KT 9999 SCT030 BKN040 18/14 A3010 RMK SLP179 T01840140,ROTM,2015-02-21T16:58:00Z,26.27,127.75,18.4,14.0,180,7,,6.21,30.100393,1017.9,,,,,,,,,,SCT,3000,BKN,4000,,,,,VFR,,,,,,,,,,,,METAR,75.0
KAFF 211658Z AUTO 15011KT 2 1/2SM -SN BR SCT003 OVC008 M02/M03 A2991 RMK AO2 VIS 2 1/2V3 UPB27E53SNB53 SLP152 P0000 T10201031,KAFF,2015-02-21T16:58:00Z,38.97,-104.82,-2.0,-3.1,150,11,,2.5,29.911417,1015.2,,TRUE,TRUE,,,,,,-SN BR,SCT,300,OVC,800,,,,,IFR,,,,,,0.0050,,,,,,METAR,2003.0
KSLH 211658Z AUTO 36003KT 10SM OVC021 M06/M10 A2991 RMK AO2 T10651101,KSLH,2015-02-21T16:58:00Z,45.65,-84.52,-6.5,-10.1,360,3,,10.0,29.911417,,,TRUE,TRUE,,,,,,,OVC,2100,,,,,,,MVFR,,,,,,,,,,,,METAR,195.0
KSGJ 211658Z 04005KT 10SM CLR 16/09 A3034 RMK AO2 SLP275 T01610089,KSGJ,2015-02-21T16:58:00Z,29.97,-81.32,16.1,8.9,40,5,,10.0,30.339567,1027.5,,,TRUE,,,,,,,CLR,,,,,,,,VFR,,,,,,,,,,,,METAR,3.0
KMUO 211658Z AUTO 31016KT 10SM SCT120 05/00 A3002 RMK AO2 SLP176 T00471000,KMUO,2015-02-21T16:58:00Z,43.03,-115.87,4.7,0.0,310,16,,10.0,30.02067,1017.6,,TRUE,TRUE,,,,,,,SCT,12000,,,,,,,VFR,,,,,,,,,,,,METAR,913.0
KLUF 211658Z AUTO 01004KT 10SM CLR 17/05 A2990 RMK AO2 SLP120 T01710046 $,KLUF,2015-02-21T16:58:00Z,33.52,-112.37,17.1,4.6,10,4,,10.0,29.899607,1012.0,,TRUE,TRUE,TRUE,,,,,,CLR,,,,,,,,VFR,,,,,,,,,,,,METAR,332.0
KLSV 211658Z AUTO 08006KT 10SM CLR 16/M08 A2992 RMK AO2 SLP122 T01561084,KLSV,2015-02-21T16:58:00Z,36.22,-115.02,15.6,-8.4,80,6,,10.0,29.920275,1012.2,,TRUE,TRUE,,,,,,,CLR,,,,,,,,VFR,,,,,,,,,,,,METAR,570.0
K0J4 211658Z AUTO 19018G29KT 10SM BKN033 18/09 A3021 RMK AO2 PK WND 18030/1613 SLP227 T01830094 $,K0J4,2015-02-21T16:58:00Z,31.05,-86.32,18.3,9.4,190,18,29,10.0,30.209646,1022.7,,TRUE,TRUE,TRUE,,,,,,BKN,3300,,,,,,,VFR,,,,,,,,,,,,METAR,96.0
KEUF 211658Z AUTO 17012G23KT 10SM SCT100 16/04 A3022 RMK AO2 PRESFR SLP233 T01610044 PWINO $,KEUF,2015-02-21T16:58:00Z,31.95,-85.13,16.1,4.4,170,12,23,10.0,30.221457,1023.3,,TRUE,TRUE,TRUE,,,,TRUE,,SCT,10000,,,,,,,VFR,,,,,,,,,,,,METAR,87.0
K1J0 211658Z AUTO 17017G24KT 10SM FEW033 18/09 A3024 RMK AO2 PK WND 16027/1620 SLP225 T01780089 $,K1J0,2015-02-21T16:58:00Z,30.85,-85.6,17.8,8.9,170,17,24,10.0,30.239174,1022.5,,TRUE,TRUE,TRUE,,,,,,FEW,3300,,,,,,,VFR,,,,,,,,,,,,METAR,26.0
KPOE 211658Z AUTO 19013G20KT 10SM SCT017 BKN027 OVC035 19/16 A2998 RMK AO2 RAB1558E30 SLP153 P0001 T01850160,KPOE,2015-02-21T16:58:00Z,31.05,-93.2,18.5,16.0,190,13,20,10.0,29.97933,1015.3,,TRUE,TRUE,,,,,,,SCT,1700,BKN,2700,OVC,3500,,,MVFR,,,,,,0.01,,,,,,METAR,101.0
KPSM 211658Z 20010KT 10SM FEW090 BKN120 OVC250 M05/M18 A3041 RMK AO2A SLP303 T10551185,KPSM,2015-02-21T16:58:00Z,43.07,-70.82,-5.5,-18.5,200,10,,10.0,30.410433,1030.3,,,TRUE,,,,,,,FEW,9000,BKN,12000,OVC,25000,,,VFR,,,,,,,,,,,,METAR,31.0
KRIV 211658Z 15007KT 4SM BR SCT012 OVC025 12/12 A3001 RMK AO2A SLP160 T01210119,KRIV,2015-02-21T16:58:00Z,33.87,-117.27,12.1,11.9,150,7,,4.0,30.008858,1016.0,,,TRUE,,,,,,BR,SCT,1200,OVC,2500,,,,,MVFR,,,,,,,,,,,,METAR,469.0
KRND 211658Z AUTO 19014KT 10SM OVC024 22/15 A2989 RMK AO2 SLP116 T02170152,KRND,2015-02-21T16:58:00Z,29.52,-98.27,21.7,15.2,190,14,,10.0,29.890747,1011.6,,TRUE,TRUE,,,,,,,OVC,2400,,,,,,,MVFR,,,,,,,,,,,,METAR,232.0
KTIK 211658Z AUTO 01013G17KT 10SM OVC010 05/03 A3000 RMK AO2 SLP171 $,KTIK,2015-02-21T16:58:00Z,35.42,-97.37,5.0,3.0,10,13,17,10.0,30.0,1017.1,,TRUE,TRUE,TRUE,,,,,,OVC,1000,,,,,,,MVFR,,,,,,,,,,,,METAR,394.0
KCVS 211658Z 09008KT 10SM CLR 07/M02 A3003 RMK AO2A SLP189 T00671016 $,KCVS,2015-02-21T16:58:00Z,34.37,-103.32,6.7,-1.6,90,8,,10.0,30.029528,1018.9,,,TRUE,TRUE,,,,,,CLR,,,,,,,,VFR,,,,,,,,,,,,METAR,1309.0
KBLV 211658Z AUTO 36003KT 10SM BKN008 BKN012 00/M01 A2993 RMK AO2 SLP143 P0001 T10041011 $,KBLV,2015-02-21T16:58:00Z,38.53,-89.83,-0.4,-1.1,360,3,,10.0,29.929134,1014.3,,TRUE,TRUE,TRUE,,,,,,BKN,800,BKN,1200,,,,,IFR,,,,,,0.01,,,,,,METAR,138.0
KADW 211658Z AUTO 19014KT 2 1/2SM UP OVC017 M06/M12 A3038 RMK AO2 VIS 2 1/2V3 UPB1611 SLP300 P0000 T10571119 $,KADW,2015-02-21T16:58:00Z,38.82,-76.87,-5.7,-11.9,190,14,,2.5,30.380905,1030.0,,TRUE,TRUE,TRUE,,,,,UP,OVC,1700,,,,,,,IFR,,,,,,0.0050,,,,,,METAR,86.0
KWRB 211658Z AUTO 18012KT 10SM OVC100 13/01 A3029 RMK AO2 SLP261 T01320007,KWRB,2015-02-21T16:58:00Z,32.62,-83.58,13.2,0.7,180,12,,10.0,30.28937,1026.1,,TRUE,TRUE,,,,,,,OVC,10000,,,,,,,VFR,,,,,,,,,,,,METAR,90.0
KTTS 211658Z AUTO VRB06KT 10SM BKN047 OVC060 19/12 A3032 RMK AO2 DZB1558E07 SLP270 P0000 T01880115 $,KTTS,2015-02-21T16:58:00Z,28.62,-80.72,18.8,11.5,0,6,,10.0,30.318897,1027.0,,TRUE,TRUE,TRUE,,,,,,BKN,4700,OVC,6000,,,,,VFR,,,,,,0.0050,,,,,,METAR,3.0
KHLR 211658Z AUTO 32012KT 9SM BKN022 BKN029 OVC035 16/11 A2990 RMK AO2 SLP119 T01570108,KHLR,2015-02-21T16:58:00Z,31.13,-97.72,15.7,10.8,320,12,,9.0,29.899607,1011.9,,TRUE,TRUE,,,,,,,BKN,2200,BKN,2900,OVC,3500,,,MVFR,,,,,,,,,,,,METAR,283.0
KGRK 211658Z AUTO 34014KT 10SM OVC021 15/10 A2990 RMK AO2 SLP120 T01480104 $,KGRK,2015-02-21T16:58:00Z,31.07,-97.83,14.8,10.4,340,14,,10.0,29.899607,1012.0,,TRUE,TRUE,TRUE,,,,,,OVC,2100,,,,,,,MVFR,,,,,,,,,,,,METAR,309.0
KFTK 211658Z AUTO 18015G22KT 10SM -SN FEW010 BKN016 OVC036 03/01 A2985 RMK AO2 SNE1631B1649 BKN V OVC SLP118 P0004 T00280010,KFTK,2015-02-21T16:58:00Z,37.88,-85.97,2.8,1.0,180,15,22,10.0,29.84941,1011.8,,TRUE,TRUE,,,,,,-SN,FEW,1000,BKN,1600,OVC,3600,,,MVFR,,,,,,0.04,,,,,,METAR,230.0
KFBG 211658Z AUTO 14005KT 10SM OVC024 02/M05 A3036 RMK AO2 SLP287 T00151053,KFBG,2015-02-21T16:58:00Z,35.12,-78.92,1.5,-5.3,140,5,,10.0,30.360237,1028.7,,TRUE,TRUE,,,,,,,OVC,2400,,,,,,,MVFR,,,,,,,,,,,,METAR,74.0
KFAF 211658Z AUTO 19005KT 10SM OVC049 00/M11 A3041 RMK AO2 SLP301 T10051106 $,KFAF,2015-02-21T16:58:00Z,37.12,-76.62,-0.5,-10.6,190,5,,10.0,30.410433,1030.1,,TRUE,TRUE,TRUE,,,,,,OVC,4900,,,,,,,VFR,,,,,,,,,,,,METAR,4.0
KPHN 211658Z AUTO 28005KT 10SM OVC060 M07/M11 A2996 RMK AO2,KPHN,2015-02-21T16:58:00Z,42.92,-82.52,-7.0,-11.0,280,5,,10.0,29.958662,,,TRUE,TRUE,,,,,,,OVC,6000,,,,,,,VFR,,,,,,,,,,,,SPECI,198.0
PAED 211658Z 33014KT 10SM FEW048 OVC065 01/M03 A2991 RMK AO2A SLP126 T00091026,PAED,2015-02-21T16:58:00Z,61.25,-149.8,0.9,-2.6,330,14,,10.0,29.911417,1012.6,,,TRUE,,,,,,,FEW,4800,OVC,6500,,,,,VFR,,,,,,,,,,,,METAR,59.0
KMIB 211658Z AUTO 33013KT 10SM FEW023 M17/M21 A3027 RMK AO2 SNB1557E1637 SLP296 P0000 T11711208 $,KMIB,2015-02-21T16:58:00Z,48.42,-101.33,-17.1,-20.8,330,13,,10.0,30.268702,1029.6,,TRUE,TRUE,TRUE,,,,,,FEW,2300,,,,,,,VFR,,,,,,0.0050,,,,,,METAR,508.0
KFFO 211658Z 00000KT 1SM R23R/P6000FT -SN BR OVC009 M02/M04 A2991 RMK AO2A SLP143 P0002 T10231038,KFFO,2015-02-21T16:58:00Z,39.82,-84.03,-2.3,-3.8,0,0,,1.0,29.911417,1014.3,,,TRUE,,,,,,-SN BR,OVC,900,,,,,,,IFR,,,,,,0.02,,,,,,METAR,251.0
KQIR 211658Z 01009KT 4000 HZ CLR 17/06 A2995 RMK AO2A SLP144 T01690057,KQIR,2015-02-21T16:58:00Z,100.65,-1000.65,16.9,5.7,10,9,,2.49,29.949802,1014.4,,,TRUE,,,,,,HZ,CLR,,,,,,,,IFR,,,,,,,,,,,,METAR,999.0
LIYW 211658Z AUTO 04005KT 6000 R05/1300 BR CLR 04/04 A2995 RMK AO2 SLPNO,LIYW,2015-02-21T16:58:00Z,46.02,12.62,4.0,4.0,40,5,,3.73,29.949802,,,TRUE,TRUE,,,,,,BR,CLR,,,,,,,,MVFR,,,,,,,,,,,,METAR,126.0
EGVA 211658Z AUTO 28007KT 9999 SCT065 04/00 A2962 RMK AO2 SLP038 T00361004 $,EGVA,2015-02-21T16:58:00Z,51.67,-1.77,3.6,-0.4,280,7,,6.21,29.619095,1003.8,,TRUE,TRUE,TRUE,,,,,,SCT,6500,,,,,,,VFR,,,,,,,,,,,,METAR,87.0
EGUN 211658Z AUTO 29007KT 9999 CLR 05/01 A2956 RMK AO2 SLP014 T00480007,EGUN,2015-02-21T16:58:00Z,52.37,0.47,4.8,0.7,290,7,,6.21,29.56004,1001.4,,TRUE,TRUE,,,,,,,CLR,,,,,,,,VFR,,,,,,,,,,,,METAR,10.0
EGUL 211658Z AUTO 29006KT 9999 CLR 05/01 A2955 RMK AO2 RAE1606 SLP010 P0000 T00480008,EGUL,2015-02-21T16:58:00Z,52.42,0.57,4.8,0.8,290,6,,6.21,29.551182,1001.0,,TRUE,TRUE,,,,,,,CLR,,,,,,,,VFR,,,,,,0.0050,,,,,,METAR,10.0
KHUA 211658Z AUTO 18022G28KT 8SM -RA SCT027 OVC039 09/05 A3000 RMK AO2 PK WND 19036/23 RAB52 SLP164 P0000,KHUA,2015-02-21T16:58:00Z,34.68,-86.68,9.0,5.0,180,22,28,8.0,30.0,1016.4,,TRUE,TRUE,,,,,,-RA,SCT,2700,OVC,3900,,,,,VFR,,,,,,0.0050,,,,,,METAR,209.0
KHOP 211658Z 16015G23KT 8SM RA OVC060 05/04 A2984 RMK AO2A SLP110 P0019 T00470038,KHOP,2015-02-21T16:58:00Z,36.67,-87.5,4.7,3.8,160,15,23,8.0,29.840551,1011.0,,,TRUE,,,,,,RA,OVC,6000,,,,,,,VFR,,,,,,0.19,,,,,,METAR,174.0
KXMR 211658Z AUTO 16013KT 10SM CLR 21/11 A3031 RMK AO2 CIG 070 RWY31 SLP267 T02120113 $,KXMR,2015-02-21T16:58:00Z,28.47,-80.57,21.2,11.3,160,13,,10.0,30.31004,1026.7,,TRUE,TRUE,TRUE,,,,,,CLR,,,,,,,,VFR,,,,,,,,,,,,METAR,3.0
KVAD 211658Z AUTO 19017G23KT 10SM CLR 18/05 A3029 RMK AO2 PK WND 18028/57 SLP260 T01840048,KVAD,2015-02-21T16:58:00Z,30.97,-83.2,18.4,4.8,190,17,23,10.0,30.28937,1026.0,,TRUE,TRUE,,,,,,,CLR,,,,,,,,VFR,,,,,,,,,,,,METAR,71.0
KNYL 211657Z 18005KT 10SM BKN120 BKN180 19/06 A2987 RMK AO2 SLP114 T01940061,KNYL,2015-02-21T16:57:00Z,32.63,-114.62,19.4,6.1,180,5,,10.0,29.870079,1011.4,,,TRUE,,,,,,,BKN,12000,BKN,18000,,,,,VFR,,,,,,,,,,,,METAR,65.0
KLWT 211657Z AUTO 32006KT 3SM -SN SCT022 SCT028 OVC037 M08/M11 A3025 RMK AO2 P0000 T10781111,KLWT,2015-02-21T16:57:00Z,47.03,-109.47,-7.8,-11.1,320,6,,3.0,30.250984,,,TRUE,TRUE,,,,,,-SN,SCT,2200,SCT,2800,OVC,3700,,,MVFR,,,,,,0.0050,,,,,,METAR,1270.0
KMLP 211657Z AUTO 3/4SM -SN BKN007 BKN011 OVC017 M06/M08 A3009 RMK AO2 P0000 T10561083,KMLP,2015-02-21T16:57:00Z,47.45,-115.67,-5.6,-8.3,,,,0.75,30.088583,,,TRUE,TRUE,,,,,,-SN,BKN,700,BKN,1100,OVC,1700,,,LIFR,,,,,,0.0050,,,,,,METAR,1837.0
PAGH 211657Z AUTO 10020G24KT 10SM CLR M01/M06 A2989 RMK AO2 PK WND 10026/1645 SLP152 T10111056 FZRANO,PAGH,2015-02-21T16:57:00Z,66.88,-157.17,-1.1,-5.6,100,20,24,10.0,29.890747,1015.2,,TRUE,TRUE,,,,TRUE,,,CLR,,,,,,,,VFR,,,,,,,,,,,,METAR,60.0
KNJM 211657Z AUTO 11009KT 10SM BKN048 09/02 A3045 RMK AO2 SLP313 T00940017 $,KNJM,2015-02-21T16:57:00Z,34.67,-77.02,9.4,1.7,110,9,,10.0,30.448818,1031.3,,TRUE,TRUE,TRUE,,,,,,BKN,4800,,,,,,,VFR,,,,,,,,,,,,METAR,7.0
KCVX 211657Z AUTO 28005KT 4SM -SN SCT015 OVC050 M06/M09 A2994 RMK AO2,KCVX,2015-02-21T16:57:00Z,45.3,-85.27,-6.0,-9.0,280,5,,4.0,29.940945,,,TRUE,TRUE,,,,,,-SN,SCT,1500,OVC,5000,,,,,MVFR,,,,,,,,,,,,METAR,204.0
EHVK 211657Z AUTO 25006KT 9999 FEW015TCU SCT024 04/01 Q1000 WHT,EHVK,2015-02-21T16:57:00Z,51.63,5.7,4.0,1.0,250,6,,6.21,29.52756,,,TRUE,,,,,,,,FEW,1500,SCT,2400,,,,,VFR,,,,,,,,,,,,SPECI,21.0
KNSI 211657Z AUTO 24004KT 10SM OVC023 M01/M01 A2999 RMK AO2 SLP157 T10061006 $,KNSI,2015-02-21T16:57:00Z,33.22,-119.45,-0.6,-0.6,240,4,,10.0,29.991142,1015.7,,TRUE,TRUE,TRUE,,,,,,OVC,2300,,,,,,,MVFR,,,,,,,,,,,,METAR,154.0
KFLG 211657Z 21015KT 10SM CLR 08/M03 A2999 RMK AO2 SLP114 T00781028,KFLG,2015-02-21T16:57:00Z,35.13,-111.67,7.8,-2.8,210,15,,10.0,29.991142,1011.4,,,TRUE,,,,,,,CLR,,,,,,,,VFR,,,,,,,,,,,,METAR,2134.0
KELM 211657Z 21013G21KT 1/2SM SN VV014 M08/M11 A3012 RMK AO2 P0000 T10781111 RVRNO,KELM,2015-02-21T16:57:00Z,42.15,-76.9,-7.8,-11.1,210,13,21,0.5,30.121063,,,,TRUE,,,,,,SN,OVX,0,,,,,,,LIFR,,,,,,0.0050,,,,,1400,METAR,302.0
MMEP 211657Z RTD 00000KT 12SM SKC 24/10 A3011 RMK CI,MMEP,2015-02-21T16:57:00Z,21.42,-104.85,24.0,10.0,0,0,,12.0,30.109253,,,,,,,,,,,SKC,,,,,,,,VFR,,,,,,,,,,,,METAR,922.0
PHNG 211657Z AUTO 02007KT SCT039 20/14 A2998 RMK AO2 SLP148 T02000144 $,PHNG,2015-02-21T16:57:00Z,21.43,-157.77,20.0,14.4,20,7,,,29.97933,1014.8,,TRUE,TRUE,TRUE,,,,,,SCT,3900,,,,,,,,,,,,,,,,,,,METAR,3.0
KADF 211656Z AUTO 20015KT 10SM VCTS BKN020 19/17 A2980 RMK AO2 T01880166 LTG DSNT W-N TSB46 SLP107,KADF,2015-02-21T16:56:00Z,34.1,-93.07,18.8,16.6,200,15,,10.0,29.799213,1010.7,,TRUE,TRUE,,,,,,VCTS,BKN,2000,,,,,,,MVFR,,,,,,,,,,,,METAR,56.0
KSBP 211656Z 12003KT 7SM OVC014 11/09 A3001 RMK AO2 SLP161 T01110089,KSBP,2015-02-21T16:56:00Z,35.23,-120.63,11.1,8.9,120,3,,7.0,30.008858,1016.1,,,TRUE,,,,,,,OVC,1400,,,,,,,MVFR,,,,,,,,,,,,METAR,59.0
KRDM 211656Z 19003KT 10SM FEW028 SCT049 M01/M02 A3017 RMK AO2 SLP233 T10111022,KRDM,2015-02-21T16:56:00Z,44.25,-121.15,-1.1,-2.2,190,3,,10.0,30.171259,1023.3,,,TRUE,,,,,,,FEW,2800,SCT,4900,,,,,VFR,,,,,,,,,,,,METAR,938.0
PPIT 211656Z AUTO 07015KT 10SM -RA OVC050 03/00 A2934 RMK AO2 RAB26 SLP936 P0000 T00280000,PPIT,2015-02-21T16:56:00Z,60.9,-162.43,2.8,0.0,70,15,,10.0,29.338583,993.6,,TRUE,TRUE,,,,,,-RA,OVC,5000,,,,,,,VFR,,,,,,0.0050,,,,,,METAR,4.0
PPIZ 211656Z AUTO FEW006 OVC021 M16/M18 A3010 RMK AO2 TSNO T11611183 UPB17E34SNE17 P0000 SLP197 $,PPIZ,2015-02-21T16:56:00Z,69.73,-163.0,-16.1,-18.3,,,,,30.100393,1019.7,,TRUE,TRUE,TRUE,,TRUE,,,,FEW,600,OVC,2100,,,,,,,,,,,0.0050,,,,,,METAR,8.0
PANW 211656Z AUTO 10018G30KT 10SM BKN049 OVC060 04/00 A2955 RMK AO2 TSNO T00380000 PK WND 10035/1608 SLP984 $,PANW,2015-02-21T16:56:00Z,59.45,-157.37,3.8,0.0,100,18,30,10.0,29.551182,998.4,,TRUE,TRUE,TRUE,,TRUE,,,,BKN,4900,OVC,6000,,,,,VFR,,,,,,,,,,,,METAR,92.0
PAFB 211656Z AUTO 07008KT 10SM CLR M04/M10 A2983 RMK SLP111 T10441100 $ VIA AUTODIAL,PAFB,2015-02-21T16:56:00Z,64.83,-147.62,-4.4,-10.0,70,8,,10.0,29.828741,1011.1,,TRUE,,TRUE,,,,,,CLR,,,,,,,,VFR,,,,,,,,,,,,METAR,137.0
KMGG 211656Z AUTO 34009KT 10SM SCT060 SCT075 OVC100 M09/M14 A3007 RMK AO2 T10941136,KMGG,2015-02-21T16:56:00Z,45.23,-93.98,-9.4,-13.6,340,9,,10.0,30.070866,,,TRUE,TRUE,,,,,,,SCT,6000,SCT,7500,OVC,10000,,,VFR,,,,,,,,,,,,SPECI,313.0
KCJR 211656Z AUTO 18007KT 3/4SM -SN OVC004 M07/M09 A3036 RMK AO2,KCJR,2015-02-21T16:56:00Z,38.53,-77.87,-7.0,-9.0,180,7,,0.75,30.360237,,,TRUE,TRUE,,,,,,-SN,OVC,400,,,,,,,LIFR,,,,,,,,,,,,METAR,97.0
KNXF 211656Z AUTO 00000KT 8SM BKN028 OVC037 17/09 A3000 RMK AO2 SLP245 T01670094 $,KNXF,2015-02-21T16:56:00Z,33.28,-117.45,16.7,9.4,0,0,,8.0,30.0,1024.5,,TRUE,TRUE,TRUE,,,,,,BKN,2800,OVC,3700,,,,,MVFR,,,,,,,,,,,,METAR,27.0
KQHY 211656Z AUTO 16010G20KT 10SM FEW036 18/11 A3021 RMK AO2 SLP237 T01840112,KQHY,2015-02-21T16:56:00Z,100.65,-1000.65,18.4,11.2,160,10,20,10.0,30.209646,1023.7,,TRUE,TRUE,,,,,,,FEW,3600,,,,,,,VFR,,,,,,,,,,,,METAR,999.0
KQFS 211656Z AUTO 02002KT 2600 BR M 08/08 A2995 RMK AO2 SLPNO T00760078 $,KQFS,2015-02-21T16:56:00Z,100.65,-1000.65,7.6,7.8,20,2,,1.62,29.949802,,,TRUE,TRUE,TRUE,,,,,BR,,,,,,,,,,,,,,,,,,,,,METAR,999.0
KQBL 211656Z AUTO 14006G13KT 10SM FEW035 SCT200 19/12 A3022 RMK AO2 SLP239 T01920115,KQBL,2015-02-21T16:56:00Z,100.65,-1000.65,19.2,11.5,140,6,13,10.0,30.221457,1023.9,,TRUE,TRUE,,,,,,,FEW,3500,SCT,20000,,,,,VFR,,,,,,,,,,,,METAR,999.0
PFWS 211656Z AUTO 13014KT 10SM FEW043 OVC090 07/03 A2952 RMK AO2 RAB28E40 SLP002 P0000 T00670033,PFWS,2015-02-21T16:56:00Z,58.7,-157.0,6.7,3.3,130,14,,10.0,29.518702,1000.2,,TRUE,TRUE,,,,,,,FEW,4300,OVC,9000,,,,,VFR,,,,,,0.0050,,,,,,METAR,49.0
PAHX 211656Z AUTO 03012KT 10SM BKN065 OVC095 01/M02 A2958 RMK AO2 SLP021 T00061017 FZRANO,PAHX,2015-02-21T16:56:00Z,62.7,-159.57,0.6,-1.7,30,12,,10.0,29.58071,1002.1,,TRUE,TRUE,,,,TRUE,,,BKN,6500,OVC,9500,,,,,VFR,,,,,,,,,,,,METAR,24.0
KSHM 211656Z AUTO 14011KT 10SM -SHSN BKN014 M01/M03 A2994 RMK AO2 SNB05E21SHSNB21E32SHSNB36 SLP173 T10131034,KSHM,2015-02-21T16:56:00Z,38.8,-104.52,-1.3,-3.4,140,11,,10.0,29.940945,1017.3,,TRUE,TRUE,,,,,,-SHSN,BKN,1400,,,,,,,MVFR,,,,,,,,,,,,METAR,1900.0
K1QW 211656Z AUTO 35016G20KT M /// /// M 04/M05 A3016 RMK AO2 PK WND 32026/29 SLP235 T00431054 $,K1QW,2015-02-21T16:56:00Z,46.8,-120.17,4.3,-5.4,350,16,20,,30.159449,1023.5,,TRUE,TRUE,TRUE,,,,,,,,,,,,,,,,,,,,,,,,,,METAR,928.0
PMDY 211656Z AUTO 22010KT 5SM BR FEW045 18/18 A2968 RMK AO2 TSNO T01830183 RAE51 P0010 SLP357 $,PMDY,2015-02-21T16:56:00Z,28.22,-177.37,18.3,18.3,220,10,,5.0,29.681103,1035.7,,TRUE,TRUE,TRUE,,TRUE,,,BR,FEW,4500,,,,,,,MVFR,,,,,,0.1,,,,,,METAR,4.0
PHNY 211656Z AUTO 04015KT 10SM CLR 18/18 A3003 RMK AO2 TSNO T01830183 SLP154 $,PHNY,2015-02-21T16:56:00Z,20.77,-156.93,18.3,18.3,40,15,,10.0,30.029528,1015.4,,TRUE,TRUE,TRUE,,TRUE,,,,CLR,,,,,,,,VFR,,,,,,,,,,,,METAR,399.0
PFKW 211656Z AUTO 09014KT 10SM FEW090 BKN110 06/00 A2935 RMK AO2 SLP941 T00560000 $,PFKW,2015-02-21T16:56:00Z,60.8,-161.43,5.6,0.0,90,14,,10.0,29.350393,994.1,,TRUE,TRUE,TRUE,,,,,,FEW,9000,BKN,11000,,,,,VFR,,,,,,,,,,,,METAR,8.0
PFCL 211656Z AUTO 13023G31KT 10SM BKN043 BKN120 05/03 A2945 RMK AO2 PK WND 13031/1651 SLP974 T00500033,PFCL,2015-02-21T16:56:00Z,58.83,-158.53,5.0,3.3,130,23,31,10.0,29.450787,997.4,,TRUE,TRUE,,,,,,,BKN,4300,BKN,12000,,,,,VFR,,,,,,,,,,,,METAR,24.0
PAVC 211656Z AUTO 16007G20KT 10SM -RA FEW011 BKN016 OVC023 06/03 A2931 RMK AO2 TSNO T00550033 OVC V BKN RAB1559 P0000 SLP926 $,PAVC,2015-02-21T16:56:00Z,55.12,-162.27,5.5,3.3,160,7,20,10.0,29.309055,992.6,,TRUE,TRUE,TRUE,,TRUE,,,-RA,FEW,1100,BKN,1600,OVC,2300,,,MVFR,,,,,,0.0050,,,,,,METAR,47.0
PATQ 211656Z AUTO 05020KT 1 1/4SM -SN BR OVC010 M16/M18 A3014 RMK AO2 TSNO T11611183 P0000 SLP215 $,PATQ,2015-02-21T16:56:00Z,70.47,-157.43,-16.1,-18.3,50,20,,1.25,30.138779,1021.5,,TRUE,TRUE,TRUE,,TRUE,,,-SN BR,OVC,1000,,,,,,,IFR,,,,,,0.0050,,,,,,METAR,29.0
PARY 211656Z AUTO 08019KT 10SM CLR M03/M09 A2975 RMK AO2 TSNO T10271094 PK WND 09028/1558 SLP086 $,PARY,2015-02-21T16:56:00Z,64.73,-155.47,-2.7,-9.4,80,19,,10.0,29.749016,1008.6,,TRUE,TRUE,TRUE,,TRUE,,,,CLR,,,,,,,,VFR,,,,,,,,,,,,METAR,199.0
PARS 211656Z AUTO 09009G18KT 10SM SCT090 BKN110 04/01 A2946 RMK AO2 TSNO T00440005 BKN V SCT SLP981 $,PARS,2015-02-21T16:56:00Z,61.77,-161.32,4.4,0.5,90,9,18,10.0,29.459646,998.1,,TRUE,TRUE,TRUE,,TRUE,,,,SCT,9000,BKN,11000,,,,,VFR,,,,,,,,,,,,METAR,16.0
PAQH 211656Z AUTO 09011G14KT 10SM -RA BKN031 OVC038 04/02 A2932 RMK AO2 SLP929 P0000 T00440017,PAQH,2015-02-21T16:56:00Z,59.75,-161.85,4.4,1.7,90,11,14,10.0,29.320866,992.9,,TRUE,TRUE,,,,,,-RA,BKN,3100,OVC,3800,,,,,VFR,,,,,,0.0050,,,,,,METAR,13.0
PAPM 211656Z AUTO 11020G31KT 5SM -RA BR OVC015 04/03 A2930 RMK AO2 TSNO T00380027 P0004 PK WND 10033/1642 SLP923 $,PAPM,2015-02-21T16:56:00Z,59.02,-161.82,3.8,2.7,110,20,31,5.0,29.300198,992.3,,TRUE,TRUE,TRUE,,TRUE,,,-RA BR,OVC,1500,,,,,,,MVFR,,,,,,0.04,,,,,,METAR,5.0
PAOU 211656Z AUTO 15020KT 10SM SCT038 BKN046 04/03 A2930 RMK AO2 TSNO T00440033 BKN V SCT SLP926 $,PAOU,2015-02-21T16:56:00Z,56.0,-161.17,4.4,3.3,150,20,,10.0,29.300198,992.6,,TRUE,TRUE,TRUE,,TRUE,,,,SCT,3800,BKN,4600,,,,,VFR,,,,,,,,,,,,METAR,4.0
PAOO 211656Z AUTO 07019KT 9SM UP FEW016 BKN028 02/00 A2926 RMK AO2 TSNO T00160000 UPE10B49 P0001 SLP910 $,PAOO,2015-02-21T16:56:00Z,60.53,-165.12,1.6,0.0,70,19,,9.0,29.258858,991.0,,TRUE,TRUE,TRUE,,TRUE,,,UP,FEW,1600,BKN,2800,,,,,MVFR,,,,,,0.01,,,,,,METAR,18.0
PAOH 211656Z AUTO 00000KT 10SM CLR M01/M01 A3046 RMK AO2 TSNO T10051005 SLP316 $,PAOH,2015-02-21T16:56:00Z,58.1,-135.45,-0.5,-0.5,0,0,,10.0,30.46063,1031.6,,TRUE,TRUE,TRUE,,TRUE,,,,CLR,,,,,,,,VFR,,,,,,,,,,,,METAR,9.0
PANA 211656Z AUTO 09010KT 10SM OVC048 04/00 A2934 RMK AO2 SLP937 T00440000,PANA,2015-02-21T16:56:00Z,60.68,-161.98,4.4,0.0,90,10,,10.0,29.338583,993.7,,TRUE,TRUE,,,,,,,OVC,4800,,,,,,,VFR,,,,,,,,,,,,METAR,5.0
PAMO 211656Z AUTO 09019G25KT 6SM -RA BR OVC033 01/01 A2942 RMK AO2 TSNO T00110005 UPB24E47RAB47 P0000 SLP850 $,PAMO,2015-02-21T16:56:00Z,62.1,-163.68,1.1,0.5,90,19,25,6.0,29.421259,985.0,,TRUE,TRUE,TRUE,,TRUE,,,-RA BR,OVC,3300,,,,,,,VFR,,,,,,0.0050,,,,,,METAR,103.0
PAMK 211656Z AUTO 06014KT 10SM SCT050 BKN070 00/M03 A2954 RMK AO2 TSNO T00001027 BKN V SCT UPE07 P0000 SLP007 $,PAMK,2015-02-21T16:56:00Z,63.48,-162.12,0.0,-2.7,60,14,,10.0,29.53937,1000.7,,TRUE,TRUE,TRUE,,TRUE,,,,SCT,5000,BKN,7000,,,,,VFR,,,,,,0.0050,,,,,,METAR,28.0
PAMB 211656Z AUTO 12017G23KT OVC040 04/03 A2941 RMK AO2 TSNO T00380027 RAB03E24 P0000 SLP964 $,PAMB,2015-02-21T16:56:00Z,58.98,-159.05,3.8,2.7,120,17,23,,29.409449,996.4,,TRUE,TRUE,TRUE,,TRUE,,,,OVC,4000,,,,,,,,,,,,,0.0050,,,,,,METAR,16.0
PALG 211656Z AUTO 10011G19KT BKN100 06/01 RMK AO2 PWINO TSNO T00550005 PK WND 12028/1624 SLPNO $,PALG,2015-02-21T16:56:00Z,61.53,-160.33,5.5,0.5,100,11,19,,,,,TRUE,TRUE,TRUE,,TRUE,,TRUE,,BKN,10000,,,,,,,,,,,,,,,,,,,METAR,17.0
PAKI 211656Z AUTO 07019G25KT 6SM UP BR OVC020 02/00 A2924 RMK AO2 TSNO T00220000 SNB10E11 P0001 SLP902 $,PAKI,2015-02-21T16:56:00Z,59.93,-164.03,2.2,0.0,70,19,25,6.0,29.241142,990.2,,TRUE,TRUE,TRUE,,TRUE,,,BR UP,OVC,2000,,,,,,,MVFR,,,,,,0.01,,,,,,METAR,4.0
PAKH 211656Z AUTO 08011KT 05/04 RMK AO2 PWINO TSNO T00500038 SLPNO $,PAKH,2015-02-21T16:56:00Z,56.93,-154.18,5.0,3.8,80,11,,,,,,TRUE,TRUE,TRUE,,TRUE,,TRUE,,,,,,,,,,,,,,,,,,,,,,METAR,14.0
PAIG 211656Z AUTO 08018G23KT BKN090 03/00 A2961 RMK AO2 TSNO T00270000 PK WND 08026/1606 SLP032 $,PAIG,2015-02-21T16:56:00Z,59.32,-155.9,2.7,0.0,80,18,23,,29.610237,1003.2,,TRUE,TRUE,TRUE,,TRUE,,,,BKN,9000,,,,,,,,,,,,,,,,,,,METAR,28.0
PAHC 211656Z AUTO 06008KT 10SM SCT050 03/M01 A2953 RMK AO2 TSNO T00271011 RAE09 P0000 SLP002 $,PAHC,2015-02-21T16:56:00Z,62.18,-159.78,2.7,-1.1,60,8,,10.0,29.530512,1000.2,,TRUE,TRUE,TRUE,,TRUE,,,,SCT,5000,,,,,,,VFR,,,,,,0.0050,,,,,,METAR,21.0
PAGN 211656Z AUTO VRB04KT 10SM CLR 00/00 A3045 RMK AO2 TSNO T00000000 SLP315 $,PAGN,2015-02-21T16:56:00Z,57.5,-134.58,0.0,0.0,0,4,,10.0,30.448818,1031.5,,TRUE,TRUE,TRUE,,TRUE,,,,CLR,,,,,,,,VFR,,,,,,,,,,,,METAR,2.0
PAFS 211656Z AUTO 03011KT 10SM SCT060 M02/M07 A2970 RMK AO2 TSNO T10161066 UPB07E19 P0000 SLP068 $,PAFS,2015-02-21T16:56:00Z,63.02,-154.35,-1.6,-6.6,30,11,,10.0,29.698818,1006.8,,TRUE,TRUE,TRUE,,TRUE,,,,SCT,6000,,,,,,,VFR,,,,,,0.0050,,,,,,METAR,126.0
PADU 211656Z 00000KT 10SM FEW018 SCT037 OVC070 04/02 A2915 RMK AO2 SLP876 CS T00390022,PADU,2015-02-21T16:56:00Z,53.9,-166.53,3.9,2.2,0,0,,10.0,29.149607,987.6,,,TRUE,,,,,,,FEW,1800,SCT,3700,OVC,7000,,,VFR,,,,,,,,,,,,METAR,4.0
PADM 211656Z AUTO 10029G38KT 10SM BKN095 05/01 A2943 RMK AO2 TSNO T00500005 RAE20 P0000 PK WND 09039/1607 SLP954 $,PADM,2015-02-21T16:56:00Z,61.87,-162.03,5.0,0.5,100,29,38,10.0,29.430119,995.4,,TRUE,TRUE,TRUE,,TRUE,,,,BKN,9500,,,,,,,VFR,,,,,,0.0050,,,,,,METAR,31.0
PACM 211656Z AUTO 10009KT 10SM BKN034 OVC045 01/00 A2940 RMK AO2 FZRANO TSNO T00110000 OVC V BKN SLP952 $,PACM,2015-02-21T16:56:00Z,61.85,-165.57,1.1,0.0,100,9,,10.0,29.40059,995.2,,TRUE,TRUE,TRUE,,TRUE,TRUE,,,BKN,3400,OVC,4500,,,,,VFR,,,,,,,,,,,,METAR,4.0
KAVC 211656Z AUTO 17006KT 10SM OVC026 M01/M08 A3044 RMK AO2 T10151080,KAVC,2015-02-21T16:56:00Z,36.68,-78.03,-1.5,-8.0,170,6,,10.0,30.43996,,,TRUE,TRUE,,,,,,,OVC,2600,,,,,,,MVFR,,,,,,,,,,,,METAR,135.0
KONA 211656Z AUTO 33010KT 10SM SCT070 BKN090 OVC120 M02/M08 A2999 RMK AO2,KONA,2015-02-21T16:56:00Z,44.07,-91.7,-2.0,-8.0,330,10,,10.0,29.991142,,,TRUE,TRUE,,,,,,,SCT,7000,BKN,9000,OVC,12000,,,VFR,,,,,,,,,,,,SPECI,200.0
KP53 211656Z AUTO 35013G20KT M08/M15 A2994 RMK AO1 SLP152 T10781150,KP53,2015-02-21T16:56:00Z,46.42,-86.65,-7.8,-15.0,350,13,20,,29.940945,1015.2,,TRUE,TRUE,,,,,,,,,,,,,,,,,,,,,,,,,,,METAR,187.0
KXVG 211656Z AUTO 29009KT 10SM CLR M17/M21 A3008 RMK AO2,KXVG,2015-02-21T16:56:00Z,46.98,-94.2,-17.0,-21.0,290,9,,10.0,30.079725,,,TRUE,TRUE,,,,,,,CLR,,,,,,,,VFR,,,,,,,,,,,,METAR,407.0
KPOV 211656Z AUTO 21003KT 2 1/2SM -RA M03/M06 A2993 RMK AO2 T10301060,KPOV,2015-02-21T16:56:00Z,41.22,-81.25,-3.0,-6.0,210,3,,2.5,29.929134,,,TRUE,TRUE,,,,,,-RA,,,,,,,,,,,,,,,,,,,,,METAR,365.0
KROS 211656Z AUTO 32007KT 10SM CLR M09/M15 A3005 RMK AO2 T10941151,KROS,2015-02-21T16:56:00Z,45.7,-92.95,-9.4,-15.1,320,7,,10.0,30.050198,,,TRUE,TRUE,,,,,,,CLR,,,,,,,,VFR,,,,,,,,,,,,METAR,281.0
KMNH 211656Z AUTO 16009KT 10SM OVC012 M02/M03 A2989 RMK AO2,KMNH,2015-02-21T16:56:00Z,39.22,-104.65,-2.0,-3.0,160,9,,10.0,29.890747,,,TRUE,TRUE,,,,,,,OVC,1200,,,,,,,MVFR,,,,,,,,,,,,SPECI,2152.0
KBDU 211656Z AUTO 04003KT 4SM -SN BKN006 OVC009 M01/M01 A2995 RMK AO2,KBDU,2015-02-21T16:56:00Z,40.03,-105.23,-1.0,-1.0,40,3,,4.0,29.949802,,,TRUE,TRUE,,,,,,-SN,BKN,600,OVC,900,,,,,IFR,,,,,,,,,,,,SPECI,1612.0
K4BM 211656Z AUTO 21005KT 5SM -SN OVC001 M08/M10 A2986 RMK AO2,K4BM,2015-02-21T16:56:00Z,39.05,-105.52,-8.0,-10.0,210,5,,5.0,29.861221,,,TRUE,TRUE,,,,,,-SN,OVC,100,,,,,,,LIFR,,,,,,,,,,,,METAR,3438.0
K4I3 211656Z AUTO 15003KT 1 1/4SM -SN OVC011 M04/M05 A2991 RMK AO2,K4I3,2015-02-21T16:56:00Z,40.33,-82.53,-4.0,-5.0,150,3,,1.25,29.911417,,,TRUE,TRUE,,,,,,-SN,OVC,1100,,,,,,,IFR,,,,,,,,,,,,METAR,363.0
KACB 211656Z AUTO 00000KT 7SM -SN BKN013 OVC050 M06/M09 A2992 RMK AO2 T10601094,KACB,2015-02-21T16:56:00Z,44.98,-85.2,-6.0,-9.4,0,0,,7.0,29.920275,,,TRUE,TRUE,,,,,,-SN,BKN,1300,OVC,5000,,,,,MVFR,,,,,,,,,,,,METAR,190.0
KCOQ 211656Z AUTO 33011G15KT 10SM BKN024 M12/M18 A3001 RMK AO2,KCOQ,2015-02-21T16:56:00Z,46.7,-92.5,-12.0,-18.0,330,11,15,10.0,30.008858,,,TRUE,TRUE,,,,,,,BKN,2400,,,,,,,MVFR,,,,,,,,,,,,SPECI,390.0
KETH 211656Z AUTO 34016KT 10SM CLR M16/M19 A3023 RMK AO2,KETH,2015-02-21T16:56:00Z,45.78,-96.55,-16.0,-19.0,340,16,,10.0,30.230314,,,TRUE,TRUE,,,,,,,CLR,,,,,,,,VFR,,,,,,,,,,,,SPECI,313.0
K1YT 211656Z AUTO 03003KT 10SM BKN075 06/00 A3023 RMK AO2 SLPNO T00561002,K1YT,2015-02-21T16:56:00Z,46.67,-120.45,5.6,-0.2,30,3,,10.0,30.230314,,,TRUE,TRUE,,,,,,,BKN,7500,,,,,,,VFR,,,,,,,,,,,,METAR,438.0
KM63 211656Z AUTO 21017G23KT 10SM CLR 17/M02 A2997 RMK AO2 LTG DSNT SW SLP097 T01741023,KM63,2015-02-21T16:56:00Z,32.05,-106.15,17.4,-2.3,210,17,23,10.0,29.970472,1009.7,,TRUE,TRUE,,,,,,,CLR,,,,,,,,VFR,,,,,,,,,,,,METAR,1283.0
PHSF 211656Z AUTO 12004KT 8SM CLR 08/02 A3026 RMK AO2 SLP154 T00790023 $,PHSF,2015-02-21T16:56:00Z,19.77,-155.55,7.9,2.3,120,4,,8.0,30.259842,1015.4,,TRUE,TRUE,TRUE,,,,,,CLR,,,,,,,,VFR,,,,,,,,,,,,METAR,1887.0
KSXT 211656Z AUTO 02007KT 10SM CLR 03/00 A3009 RMK AO2 SLP202 T00280000,KSXT,2015-02-21T16:56:00Z,42.6,-123.37,2.8,0.0,20,7,,10.0,30.088583,1020.2,,TRUE,TRUE,,,,,,,CLR,,,,,,,,VFR,,,,,,,,,,,,METAR,1170.0
KFEW 211656Z AUTO 08007KT 7SM -SN BKN009 BKN035 M03/M04 A2988 RMK AO2 CIG 009V011 SLP162 T10331045 $,KFEW,2015-02-21T16:56:00Z,41.13,-104.87,-3.3,-4.5,80,7,,7.0,29.878937,1016.2,,TRUE,TRUE,TRUE,,,,,-SN,BKN,900,BKN,3500,,,,,IFR,,,,,,,,,,,,METAR,1878.0
PAPN 211656Z AUTO 14021G28KT CLR A2946 RMK AO2 PWINO TSNO PK WND 12028/1652 SLPNO $,PAPN,2015-02-21T16:56:00Z,57.58,-157.57,,,140,21,28,,29.459646,,,TRUE,TRUE,TRUE,,TRUE,,TRUE,,CLR,,,,,,,,,,,,,,,,,,,,METAR,18.0
KQRH 211656Z AUTO 14003KT 9999 CLR 27/20 A2990 RMK AO2 SLP118 T02650202,KQRH,2015-02-21T16:56:00Z,100.65,-1000.65,26.5,20.2,140,3,,6.21,29.899607,1011.8,,TRUE,TRUE,,,,,,,CLR,,,,,,,,VFR,,,,,,,,,,,,METAR,999.0
KTDR 211656Z AUTO 15020G26KT 10SM CLR 18/11 A3026 RMK AO2 SLP251 T01780113,KTDR,2015-02-21T16:56:00Z,30.05,-85.52,17.8,11.3,150,20,26,10.0,30.259842,1025.1,,TRUE,TRUE,,,,,,,CLR,,,,,,,,VFR,,,,,,,,,,,,METAR,5.0
KSXS 211656Z AUTO 19019G39KT 10SM FEW031 16/09 A3021 RMK AO2 PK WND 16028/30 SLP233 T01610086,KSXS,2015-02-21T16:56:00Z,31.37,-85.85,16.1,8.6,190,19,39,10.0,30.209646,1023.3,,TRUE,TRUE,,,,,,,FEW,3100,,,,,,,VFR,,,,,,,,,,,,METAR,122.0
KCWN 211656Z AUTO 15013G19KT 3/4SM -SHSN BKN002 M03/M03 A2959 RMK AO2 SHSNB16 SLP047 T10341034,KCWN,2015-02-21T16:56:00Z,38.75,-104.85,-3.4,-3.4,150,13,19,0.75,29.589567,1004.7,,TRUE,TRUE,,,,,,-SHSN,BKN,200,,,,,,,LIFR,,,,,,,,,,,,METAR,2040.0
K2DP 211656Z AUTO 13007KT 10SM CLR 06/M02 A3046 RMK AO2 SLPNO T00591018,K2DP,2015-02-21T16:56:00Z,35.68,-75.9,5.9,-1.8,130,7,,10.0,30.46063,,,TRUE,TRUE,,,,,,,CLR,,,,,,,,VFR,,,,,,,,,,,,METAR,3.0
KNJK 211656Z 18003KT 10SM FEW040 BKN200 BKN250 19/03 A2987 RMK AO2 SLP129 T01890028 $,KNJK,2015-02-21T16:56:00Z,32.82,-115.67,18.9,2.8,180,3,,10.0,29.870079,1012.9,,,TRUE,TRUE,,,,,,FEW,4000,BKN,20000,BKN,25000,,,VFR,,,,,,,,,,,,METAR,-13.0
KSJX 211656Z AUTO 31003KT 7SM OVC055 M07/M10 A2991 RMK AO2 T10661098,KSJX,2015-02-21T16:56:00Z,45.7,-85.57,-6.6,-9.8,310,3,,7.0,29.911417,,,TRUE,TRUE,,,,,,,OVC,5500,,,,,,,VFR,,,,,,,,,,,,METAR,204.0
K2WX 211656Z AUTO 34021G28KT M09/M14 A3010 RMK AO1 PK WND 34028/1652 SLP233 T10891144,K2WX,2015-02-21T16:56:00Z,45.6,-103.55,-8.9,-14.4,340,21,28,,30.100393,1023.3,,TRUE,TRUE,,,,,,,,,,,,,,,,,,,,,,,,,,,METAR,915.0
KNTU 211656Z 16007KT 10SM BKN055 OVC065 03/M10 A3044 RMK AO2 SLP309 T00281100,KNTU,2015-02-21T16:56:00Z,36.82,-76.02,2.8,-10.0,160,7,,10.0,30.43996,1030.9,,,TRUE,,,,,,,BKN,5500,OVC,6500,,,,,VFR,,,,,,,,,,,,METAR,7.0
KP28 211656Z AUTO 33007KT 10/02 A3002 RMK AO1 SLP171 T01000022,KP28,2015-02-21T16:56:00Z,37.28,-98.55,10.0,2.2,330,7,,,30.02067,1017.1,,TRUE,TRUE,,,,,,,,,,,,,,,,,,,,,,,,,,,METAR,469.0
KFHU 211656Z AUTO 20007KT 10SM CLR 18/M05 A3003 RMK AO2 SLP125 T01831050 $,KFHU,2015-02-21T16:56:00Z,31.58,-110.35,18.3,-5.0,200,7,,10.0,30.029528,1012.5,,TRUE,TRUE,TRUE,,,,,,CLR,,,,,,,,VFR,,,,,,,,,,,,METAR,1438.0
PHBK 211656Z AUTO 04004KT 10SM CLR 17/13 A3000 RMK AO2 SLP162 T01670133,PHBK,2015-02-21T16:56:00Z,22.03,-159.78,16.7,13.3,40,4,,10.0,30.0,1016.2,,TRUE,TRUE,,,,,,,CLR,,,,,,,,VFR,,,,,,,,,,,,METAR,8.0
KNRS 211656Z AUTO 00000KT OVC033 17/10 A3000 RMK AO2 SLP157 T01720100 $,KNRS,2015-02-21T16:56:00Z,32.57,-117.12,17.2,10.0,0,0,,,30.0,1015.7,,TRUE,TRUE,TRUE,,,,,,OVC,3300,,,,,,,,,,,,,,,,,,,METAR,7.0
KGNR 211656Z AUTO VRB06KT M12/M21 A3022 RMK AO1 SLP270 T11171211,KGNR,2015-02-21T16:56:00Z,45.47,-69.55,-11.7,-21.1,0,6,,,30.221457,1027.0,,TRUE,TRUE,,,,,,,,,,,,,,,,,,,,,,,,,,,METAR,427.0
KNFE 211656Z AUTO 17005KT 10SM OVC055 05/M08 A3044 RMK AO2 SLP311 T00501083,KNFE,2015-02-21T16:56:00Z,36.7,-76.13,5.0,-8.3,170,5,,10.0,30.43996,1031.1,,TRUE,TRUE,,,,,,,OVC,5500,,,,,,,VFR,,,,,,,,,,,,METAR,5.0
KNBT 211656Z AUTO A3046 RMK AO2 SLP320 PWINO PNO $,KNBT,2015-02-21T16:56:00Z,35.02,-76.47,,,,,,,30.46063,1032.0,,TRUE,TRUE,TRUE,,,,TRUE,,,,,,,,,,,,,,,,,,,,,,METAR,5.0
KNXP 211656Z AUTO 00000KT 10SM CLR 14/M03 A2997 RMK AO2 SLP126 T01391033,KNXP,2015-02-21T16:56:00Z,34.28,-116.17,13.9,-3.3,0,0,,10.0,29.970472,1012.6,,TRUE,TRUE,,,,,,,CLR,,,,,,,,VFR,,,,,,,,,,,,METAR,626.0
KNUW 211656Z 35013KT 10SM SCT011 BKN018 09/05 A3036 RMK AO2 SLP286 T00940050 VISNO E $,KNUW,2015-02-21T16:56:00Z,48.35,-122.65,9.4,5.0,350,13,,10.0,30.360237,1028.6,,,TRUE,TRUE,,,,,,SCT,1100,BKN,1800,,,,,MVFR,,,,,,,,,,,,METAR,14.0
KMEH 211656Z AUTO VRB03KT 1 1/2SM -SN BR BKN005 BKN009 OVC014 00/M01 A3012 RMK AO2 SNE05B07 CIG 004V008 SLP221 P0000 T00001011,KMEH,2015-02-21T16:56:00Z,45.52,-118.42,0.0,-1.1,0,3,,1.5,30.121063,1022.1,,TRUE,TRUE,,,,,,-SN BR,BKN,500,BKN,900,OVC,1400,,,IFR,,,,,,0.0050,,,,,,METAR,1136.0
KMHS 211656Z AUTO VRB04KT 10SM CLR 08/M01 A3006 RMK AO2 SLP197 T00781006,KMHS,2015-02-21T16:56:00Z,41.32,-122.32,7.8,-0.6,0,4,,10.0,30.059055,1019.7,,TRUE,TRUE,,,,,,,CLR,,,,,,,,VFR,,,,,,,,,,,,METAR,1078.0
PAAK 211656Z 29025G34KT 8SM FEW011 SCT021 BKN030 02/M02 A2935 RMK AO1,PAAK,2015-02-21T16:56:00Z,52.22,-174.2,2.0,-2.0,290,25,34,8.0,29.350393,,,,TRUE,,,,,,,FEW,1100,SCT,2100,BKN,3000,,,MVFR,,,,,,,,,,,,METAR,17.0
PABL 211656Z AUTO 12007KT 10SM FEW031 BKN070 OVC080 M02/M07 A2977 RMK AO1,PABL,2015-02-21T16:56:00Z,65.98,-161.15,-2.0,-7.0,120,7,,10.0,29.769686,,,TRUE,TRUE,,,,,,,FEW,3100,BKN,7000,OVC,8000,,,VFR,,,,,,,,,,,,METAR,7.0
PABV 211656Z AUTO 00000KT 10SM OVC080 01/M03 A2995 RMK AO1,PABV,2015-02-21T16:56:00Z,61.42,-149.52,1.0,-3.0,0,0,,10.0,29.949802,,,TRUE,TRUE,,,,,,,OVC,8000,,,,,,,VFR,,,,,,,,,,,,METAR,29.0
PADK 211656Z AUTO 32012G22KT 10SM FEW033 SCT046 OVC060 01/M07 A2956 RMK AO1,PADK,2015-02-21T16:56:00Z,51.88,-176.65,1.0,-7.0,320,12,22,10.0,29.56004,,,TRUE,TRUE,,,,,,,FEW,3300,SCT,4600,OVC,6000,,,VFR,,,,,,,,,,,,METAR,4.0
PAFE 211656Z AUTO 07004KT 10SM CLR M02/M02 A3051 RMK AO1,PAFE,2015-02-21T16:56:00Z,56.97,-133.92,-2.0,-2.0,70,4,,10.0,30.510826,,,TRUE,TRUE,,,,,,,CLR,,,,,,,,VFR,,,,,,,,,,,,METAR,9.0
PAFM 211656Z AUTO 10004KT 10SM CLR M03/M05 A2990 RMK AO1,PAFM,2015-02-21T16:56:00Z,67.1,-157.85,-3.0,-5.0,100,4,,10.0,29.899607,,,TRUE,TRUE,,,,,,,CLR,,,,,,,,VFR,,,,,,,,,,,,METAR,88.0
PAGL 211656Z AUTO 07021G26KT 10SM BKN035 OVC048 00/M02 A2960 RMK AO1 P0001,PAGL,2015-02-21T16:56:00Z,64.55,-163.03,0.0,-2.0,70,21,26,10.0,29.601377,,,TRUE,TRUE,,,,,,,BKN,3500,OVC,4800,,,,,VFR,,,,,,0.01,,,,,,METAR,8.0
PAGM 211656Z AUTO 04029G34KT 1 3/4SM OVC009 M11/M12 A2959 RMK AO1,PAGM,2015-02-21T16:56:00Z,63.77,-171.73,-11.0,-12.0,40,29,34,1.75,29.589567,,,TRUE,TRUE,,,,,,,OVC,900,,,,,,,IFR,,,,,,,,,,,,METAR,8.0
PAHL 211656Z AUTO 08018G24KT 10SM OVC095 M03/M08 A2980 RMK AO1,PAHL,2015-02-21T16:56:00Z,65.7,-156.35,-3.0,-8.0,80,18,24,10.0,29.799213,,,TRUE,TRUE,,,,,,,OVC,9500,,,,,,,VFR,,,,,,,,,,,,METAR,65.0
PAHP 211656Z AUTO 09019KT 10SM SCT040 BKN048 OVC060 01/M01 A2934 RMK AO1,PAHP,2015-02-21T16:56:00Z,61.53,-166.15,1.0,-1.0,90,19,,10.0,29.338583,,,TRUE,TRUE,,,,,,,SCT,4000,BKN,4800,OVC,6000,,,VFR,,,,,,,,,,,,METAR,5.0
KHFF 211656Z AUTO 16009KT 10SM BKN014 03/M02 A3039 RMK AO2 SLP298 T00321023,KHFF,2015-02-21T16:56:00Z,35.02,-79.5,3.2,-2.3,160,9,,10.0,30.389763,1029.8,,TRUE,TRUE,,,,,,,BKN,1400,,,,,,,MVFR,,,,,,,,,,,,METAR,115.0
KGXF 211656Z 03001KT 10SM CLR 20/02 A2990 RMK AO2A SLP121 T02040023,KGXF,2015-02-21T16:56:00Z,32.87,-112.72,20.4,2.3,30,1,,10.0,29.899607,1012.1,,,TRUE,,,,,,,CLR,,,,,,,,VFR,,,,,,,,,,,,METAR,262.0
PASM 211656Z AUTO 09017G23KT 10SM FEW022 SCT038 OVC048 02/M01 A2940 RMK AO1 P0007,PASM,2015-02-21T16:56:00Z,62.07,-163.3,2.0,-1.0,90,17,23,10.0,29.40059,,,TRUE,TRUE,,,,,,,FEW,2200,SCT,3800,OVC,4800,,,VFR,,,,,,0.07,,,,,,SPECI,92.0
PASL 211656Z AUTO 17004KT 10SM CLR M01/M07 A2964 RMK AO1,PASL,2015-02-21T16:56:00Z,61.72,-157.15,-1.0,-7.0,170,4,,10.0,29.639763,,,TRUE,TRUE,,,,,,,CLR,,,,,,,,VFR,,,,,,,,,,,,SPECI,55.0
PASK 211656Z AUTO 06016KT 10SM CLR M02/M04 A2983 RMK AO1,PASK,2015-02-21T16:56:00Z,66.6,-160.0,-2.0,-4.0,60,16,,10.0,29.828741,,,TRUE,TRUE,,,,,,,CLR,,,,,,,,VFR,,,,,,,,,,,,METAR,8.0
PASD 211656Z 16022KT 3SM OVC006 05/05 A2938 RMK AO1 WEA: -DZ BR PK WND 17029/40 (DA) P0001,PASD,2015-02-21T16:56:00Z,55.33,-160.5,5.0,5.0,160,22,,3.0,29.379921,,,,TRUE,,,,,,-DZ,OVC,600,,,,,,,IFR,,,,,,0.01,,,,,,METAR,7.0
PASA 211656Z AUTO 1SM OVC009 M11/M22 A2963 RMK AO1,PASA,2015-02-21T16:56:00Z,63.68,-170.5,-11.0,-22.0,,,,1.0,29.630905,,,TRUE,TRUE,,,,,,,OVC,900,,,,,,,IFR,,,,,,,,,,,,METAR,16.0
PARC 211656Z AUTO 00000KT 10SM CLR M21/M24 A3001 RMK AO1,PARC,2015-02-21T16:56:00Z,68.12,-145.58,-21.0,-24.0,0,0,,10.0,30.008858,,,TRUE,TRUE,,,,,,,CLR,,,,,,,,VFR,,,,,,,,,,,,METAR,636.0
PAPO 211656Z AUTO 02014KT 10SM SCT035 BKN046 OVC060 M09/M11 A2992 RMK AO1,PAPO,2015-02-21T16:56:00Z,68.35,-166.8,-9.0,-11.0,20,14,,10.0,29.920275,,,TRUE,TRUE,,,,,,,SCT,3500,BKN,4600,OVC,6000,,,VFR,,,,,,,,,,,,METAR,6.0
PAPH 211656Z AUTO 00000KT 10SM CLR 07/02 A2937 RMK AO1,PAPH,2015-02-21T16:56:00Z,56.95,-158.62,7.0,2.0,0,0,,10.0,29.371063,,,TRUE,TRUE,,,,,,,CLR,,,,,,,,VFR,,,,,,,,,,,,METAR,29.0
PANI 211656Z AUTO 14004KT 10SM SCT049 OVC060 06/M01 A2951 RMK AO1,PANI,2015-02-21T16:56:00Z,61.58,-159.53,6.0,-1.0,140,4,,10.0,29.509842,,,TRUE,TRUE,,,,,,,SCT,4900,OVC,6000,,,,,VFR,,,,,,,,,,,,METAR,26.0
PAMM 211656Z AUTO 00000KT 10SM CLR 03/01 A3051 RMK AO1,PAMM,2015-02-21T16:56:00Z,55.13,-131.58,3.0,1.0,0,0,,10.0,30.510826,,,TRUE,TRUE,,,,,,,CLR,,,,,,,,VFR,,,,,,,,,,,,METAR,1.0
PAMH 211656Z AUTO 00000KT 10SM OVC100 M08/M11 A2977 RMK AO1,PAMH,2015-02-21T16:56:00Z,63.9,-152.32,-8.0,-11.0,0,0,,10.0,29.769686,,,TRUE,TRUE,,,,,,,OVC,10000,,,,,,,VFR,,,,,,,,,,,,METAR,214.0
PAMD 211656Z 10025G33KT 2SM OVC004 06/05 A2992 RMK AO1,PAMD,2015-02-21T16:56:00Z,59.43,-146.3,6.0,5.0,100,25,33,2.0,29.920275,,,,TRUE,,,,,,,OVC,400,,,,,,,LIFR,,,,,,,,,,,,METAR,14.0
PAKP 211656Z AUTO 17008KT 10SM CLR M09/M13 A2988 RMK AO1,PAKP,2015-02-21T16:56:00Z,68.13,-151.73,-9.0,-13.0,170,8,,10.0,29.878937,,,TRUE,TRUE,,,,,,,CLR,,,,,,,,VFR,,,,,,,,,,,,METAR,642.0
PAKK 211656Z AUTO 04010KT 9SM FEW014 BKN023 OVC032 A2962 RMK AO1,PAKK,2015-02-21T16:56:00Z,64.93,-161.15,,,40,10,,9.0,29.619095,,,TRUE,TRUE,,,,,,,FEW,1400,BKN,2300,OVC,3200,,,MVFR,,,,,,,,,,,,METAR,47.0
PAJZ 211656Z AUTO 12030G41KT 10SM BKN055 OVC075 04/01 A2958 RMK AO2 TSNO T00440005 OVC V BKN PK WND 12044/1623 SLP008 $,PAJZ,2015-02-21T16:56:00Z,59.73,-157.27,4.4,0.5,120,30,41,10.0,29.58071,1000.8,,TRUE,TRUE,TRUE,,TRUE,,,,BKN,5500,OVC,7500,,,,,VFR,,,,,,,,,,,,METAR,82.0
PAJC 211656Z AUTO 13006KT 10SM SCT022 OVC032 06/03 A2945 RMK AO1,PAJC,2015-02-21T16:56:00Z,56.32,-158.37,6.0,3.0,130,6,,10.0,29.450787,,,TRUE,TRUE,,,,,,,SCT,2200,OVC,3200,,,,,VFR,,,,,,,,,,,,METAR,15.0
PAIN 211656Z AUTO 20009G18KT 10SM FEW042 BKN055 04/M01 A2988 RMK AO1,PAIN,2015-02-21T16:56:00Z,63.73,-148.92,4.0,-1.0,200,9,18,10.0,29.878937,,,TRUE,TRUE,,,,,,,FEW,4200,BKN,5500,,,,,VFR,,,,,,,,,,,,METAR,524.0
PAII 211656Z AUTO 12025G32KT 10SM CLR 06/03 A2948 RMK AO1,PAII,2015-02-21T16:56:00Z,58.18,-157.38,6.0,3.0,120,25,32,10.0,29.480314,,,TRUE,TRUE,,,,,,,CLR,,,,,,,,VFR,,,,,,,,,,,,METAR,30.0
PAHY 211656Z AUTO 10SM CLR 01/M02 A3046 RMK AO1,PAHY,2015-02-21T16:56:00Z,55.2,-132.83,1.0,-2.0,,,,10.0,30.46063,,,TRUE,TRUE,,,,,,,CLR,,,,,,,,VFR,,,,,,,,,,,,METAR,1.0
PAWG 211656Z 13005KT 10SM FEW006 SCT120 01/M01 A3052 RMK AO1 WEA:NONE (KB) P0001,PAWG,2015-02-21T16:56:00Z,56.48,-132.37,1.0,-1.0,130,5,,10.0,30.519686,,,,TRUE,,,,,,,FEW,600,SCT,12000,,,,,VFR,,,,,,0.01,,,,,,SPECI,11.0
PAVD 211656Z 00000KT 4SM FEW001 BKN025 OVC040 01/M01 A3013 RMK AO1 1647Z WEA: -SN BR TWR WND 00000KT P0010,PAVD,2015-02-21T16:56:00Z,61.13,-146.25,1.0,-1.0,0,0,,4.0,30.129921,,,,TRUE,,,,,,-SN,FEW,100,BKN,2500,OVC,4000,,,MVFR,,,,,,0.1,,,,,,SPECI,37.0
PAUN 211656Z AUTO 09022G27KT 10SM BKN040 OVC048 00/M04 A2960 RMK AO1 P0001,PAUN,2015-02-21T16:56:00Z,63.88,-160.8,0.0,-4.0,90,22,27,10.0,29.601377,,,TRUE,TRUE,,,,,,,BKN,4000,OVC,4800,,,,,VFR,,,,,,0.01,,,,,,SPECI,6.0
PATG 211656Z AUTO 12022G28KT 7SM OVC018 04/03 A2938 RMK AO1 P0006,PATG,2015-02-21T16:56:00Z,59.05,-160.38,4.0,3.0,120,22,28,7.0,29.379921,,,TRUE,TRUE,,,,,,,OVC,1800,,,,,,,MVFR,,,,,,0.06,,,,,,SPECI,4.0
PASX 211656Z AUTO 01004KT 10SM FEW060 OVC075 02/00 A2986 RMK AO1,PASX,2015-02-21T16:56:00Z,60.48,-151.03,2.0,0.0,10,4,,10.0,29.861221,,,TRUE,TRUE,,,,,,,FEW,6000,OVC,7500,,,,,VFR,,,,,,,,,,,,SPECI,32.0
PFYU 211656Z 00000KT 10SM CLR M20/M23 A3007 RMK AO1,PFYU,2015-02-21T16:56:00Z,66.57,-145.27,-20.0,-23.0,0,0,,10.0,30.070866,,,,TRUE,,,,,,,CLR,,,,,,,,VFR,,,,,,,,,,,,SPECI,131.0
PAZK 211656Z AUTO 00000KT 10SM OVC008 M08/M09 A2993 RMK AO1,PAZK,2015-02-21T16:56:00Z,61.93,-147.17,-8.0,-9.0,0,0,,10.0,29.929134,,,TRUE,TRUE,,,,,,,OVC,800,,,,,,,IFR,,,,,,,,,,,,SPECI,1003.0
PAWS 211656Z AUTO 00000KT 10SM OVC080 02/M07 A2993 RMK AO1,PAWS,2015-02-21T16:56:00Z,61.57,-149.53,2.0,-7.0,0,0,,10.0,29.929134,,,TRUE,TRUE,,,,,,,OVC,8000,,,,,,,VFR,,,,,,,,,,,,SPECI,107.0
KMCD 211656Z AUTO 27007KT 10SM OVC050 M07/M11 A2989 RMK AO2 T10731110,KMCD,2015-02-21T16:56:00Z,45.85,-84.63,-7.3,-11.0,270,7,,10.0,29.890747,,,TRUE,TRUE,,,,,,,OVC,5000,,,,,,,VFR,,,,,,,,,,,,SPECI,226.0
KSRC 211656Z AUTO 01009KT 10SM RA BKN011 OVC024 03/02 A2993 RMK AO2 SLP141 P0004 T00280017 TSNO,KSRC,2015-02-21T16:56:00Z,35.22,-91.73,2.8,1.7,10,9,,10.0,29.929134,1014.1,,TRUE,TRUE,,,TRUE,,,RA,BKN,1100,OVC,2400,,,,,MVFR,,,,,,0.04,,,,,,METAR,80.0
KWMC 211656Z AUTO 25003KT 10SM CLR 04/M05 A3004 RMK AO2 SLP186 T00391050,KWMC,2015-02-21T16:56:00Z,40.9,-117.8,3.9,-5.0,250,3,,10.0,30.041338,1018.6,,TRUE,TRUE,,,,,,,CLR,,,,,,,,VFR,,,,,,,,,,,,METAR,1310.0
KAQV 211656Z AUTO 20008G19KT 140V280 10SM SCT015 BKN035 OVC050 19/16 A2995 RMK AO2 RAE04 SLP140 P0000 T01940161,KAQV,2015-02-21T16:56:00Z,31.4,-93.3,19.4,16.1,200,8,19,10.0,29.949802,1014.0,,TRUE,TRUE,,,,,,,SCT,1500,BKN,3500,OVC,5000,,,VFR,,,,,,0.0050,,,,,,METAR,111.0
KNMM 211656Z AUTO 18012G22KT 10SM FEW060 BKN110 17/09 A3006 RMK AO2 SLP188 T01720089 $,KNMM,2015-02-21T16:56:00Z,32.53,-88.57,17.2,8.9,180,12,22,10.0,30.059055,1018.8,,TRUE,TRUE,TRUE,,,,,,FEW,6000,BKN,11000,,,,,VFR,,,,,,,,,,,,METAR,97.0
KNOG 211656Z AUTO 20021G26KT 10SM BKN030 24/17 A2990 RMK AO2 PK WND 20026/1652 SLP104 T02440172 $,KNOG,2015-02-21T16:56:00Z,27.9,-98.05,24.4,17.2,200,21,26,10.0,29.899607,1010.4,,TRUE,TRUE,TRUE,,,,,,BKN,3000,,,,,,,MVFR,,,,,,,,,,,,METAR,78.0
MUGM 211656Z 11017KT 9999 SCT041 BKN080 30/21 A3012 RMK SLP197 T03000206,MUGM,2015-02-21T16:56:00Z,19.9,-75.2,30.0,20.6,110,17,,6.21,30.121063,1019.7,,,,,,,,,,SCT,4100,BKN,8000,,,,,VFR,,,,,,,,,,,,METAR,17.0
KNPA 211656Z 16016G22KT 10SM FEW035 SCT100 BKN250 20/12 A3018 RMK AO2 PK WND 16028/1558 SLP221 T02000117,KNPA,2015-02-21T16:56:00Z,30.35,-87.32,20.0,11.7,160,16,22,10.0,30.180119,1022.1,,,TRUE,,,,,,,FEW,3500,SCT,10000,BKN,25000,,,VFR,,,,,,,,,,,,METAR,9.0
KNSE 211656Z AUTO 17029G39KT 10SM FEW038 19/09 A3018 RMK AO2 PK WND 18039/1655 SLP207 T01940094 $,KNSE,2015-02-21T16:56:00Z,30.73,-87.02,19.4,9.4,170,29,39,10.0,30.180119,1020.7,,TRUE,TRUE,TRUE,,,,,,FEW,3800,,,,,,,VFR,,,,,,,,,,,,METAR,61.0
KNBC 211656Z AUTO 15008KT 10SM CLR 13/06 A3035 RMK AO2 SLP279 T01280061,KNBC,2015-02-21T16:56:00Z,32.47,-80.72,12.8,6.1,150,8,,10.0,30.351377,1027.9,,TRUE,TRUE,,,,,,,CLR,,,,,,,,VFR,,,,,,,,,,,,METAR,12.0
KNCA 211656Z AUTO 16012KT 10SM BKN043 13/03 A3042 RMK AO2 SLP304 T01280028,KNCA,2015-02-21T16:56:00Z,34.72,-77.45,12.8,2.8,160,12,,10.0,30.41929,1030.4,,TRUE,TRUE,,,,,,,BKN,4300,,,,,,,VFR,,,,,,,,,,,,METAR,8.0
KP60 211656Z AUTO 33010G17KT 290V010 M09/M13 A2993 RMK AO1 SLP175 T10891133 $,KP60,2015-02-21T16:56:00Z,44.55,-110.42,-8.9,-13.3,330,10,17,,29.929134,1017.5,,TRUE,TRUE,TRUE,,,,,,,,,,,,,,,,,,,,,,,,,,METAR,2388.0
KGNA 211656Z AUTO 35005KT M11/M19 A3003 RMK AO1 SLP192 T11111189,KGNA,2015-02-21T16:56:00Z,47.75,-90.35,-11.1,-18.9,350,5,,,30.029528,1019.2,,TRUE,TRUE,,,,,,,,,,,,,,,,,,,,,,,,,,,METAR,185.0
KPRN 211656Z AUTO 17008G15KT 10SM BKN100 OVC110 14/07 A3016 RMK AO2 SLP211 T01440072,KPRN,2015-02-21T16:56:00Z,31.85,-86.62,14.4,7.2,170,8,15,10.0,30.159449,1021.1,,TRUE,TRUE,,,,,,,BKN,10000,OVC,11000,,,,,VFR,,,,,,,,,,,,METAR,138.0
KNQI 211656Z AUTO 19012KT 10SM BKN029 OVC035 23/18 A2992 RMK AO2 PK WND 19028/1613 SLP129 T02330183 TSNO $,KNQI,2015-02-21T16:56:00Z,27.5,-97.82,23.3,18.3,190,12,,10.0,29.920275,1012.9,,TRUE,TRUE,TRUE,,TRUE,,,,BKN,2900,OVC,3500,,,,,MVFR,,,,,,,,,,,,METAR,15.0
KALK 211656Z AUTO 24013G20KT 10SM CLR 17/M06 A3005 RMK AO2 SLP102 T01671061,KALK,2015-02-21T16:56:00Z,31.6,-110.43,16.7,-6.1,240,13,20,10.0,30.050198,1010.2,,TRUE,TRUE,,,,,,,CLR,,,,,,,,VFR,,,,,,,,,,,,METAR,1453.0
KD07 211656Z AUTO 35022KT M08/M13 A3015 RMK AO1 PK WND 35027/1655 SLP251 T10781128,KD07,2015-02-21T16:56:00Z,45.03,-102.02,-7.8,-12.8,350,22,,,30.15059,1025.1,,TRUE,TRUE,,,,,,,,,,,,,,,,,,,,,,,,,,,METAR,784.0
KSPD 211656Z AUTO 17005KT 03/M03 A3000 RMK AO1 SLP154 T00331033,KSPD,2015-02-21T16:56:00Z,37.28,-102.62,3.3,-3.3,170,5,,,30.0,1015.4,,TRUE,TRUE,,,,,,,,,,,,,,,,,,,,,,,,,,,METAR,1335.0
KNDZ 211656Z AUTO 18018G35KT 10SM FEW037 21/09 A3018 RMK AO2 PK WND 18036/1631 SLP208 T02060094 $,KNDZ,2015-02-21T16:56:00Z,30.7,-87.02,20.6,9.4,180,18,35,10.0,30.180119,1020.8,,TRUE,TRUE,TRUE,,,,,,FEW,3700,,,,,,,VFR,,,,,,,,,,,,METAR,54.0
KNTD 211656Z 04005KT 6SM HZ SCT025 OVC036 17/12 A3000 RMK AO2 SLP161 T01720117 $,KNTD,2015-02-21T16:56:00Z,34.12,-119.12,17.2,11.7,40,5,,6.0,30.0,1016.1,,,TRUE,TRUE,,,,,HZ,SCT,2500,OVC,3600,,,,,VFR,,,,,,,,,,,,METAR,4.0
KNID 211656Z AUTO 00000KT CLR 12/00 A2991 RMK AO2 SLP126 T01170000 $,KNID,2015-02-21T16:56:00Z,35.67,-117.67,11.7,0.0,0,0,,,29.911417,1012.6,,TRUE,TRUE,TRUE,,,,,,CLR,,,,,,,,,,,,,,,,,,,,METAR,696.0
K79J 211656Z AUTO 20009G21KT 160V240 10SM BKN034 OVC110 21/09 A3019 RMK AO2 SLP220 T02060089,K79J,2015-02-21T16:56:00Z,31.32,-86.4,20.6,8.9,200,9,21,10.0,30.188976,1022.0,,TRUE,TRUE,,,,,,,BKN,3400,OVC,11000,,,,,VFR,,,,,,,,,,,,METAR,94.0
KEKO 211656Z AUTO 00000KT 10SM OVC065 03/M05 A3000 RMK AO2 SLP165 T00331050,KEKO,2015-02-21T16:56:00Z,40.82,-115.78,3.3,-5.0,0,0,,10.0,30.0,1016.5,,TRUE,TRUE,,,,,,,OVC,6500,,,,,,,VFR,,,,,,,,,,,,METAR,1547.0
KEED 211656Z AUTO 04004KT 10SM CLR 17/M02 A2989 RMK AO2 SLP103 T01721017,KEED,2015-02-21T16:56:00Z,34.77,-114.62,17.2,-1.7,40,4,,10.0,29.890747,1010.3,,TRUE,TRUE,,,,,,,CLR,,,,,,,,VFR,,,,,,,,,,,,METAR,302.0
KEAU 211656Z 32008KT 7SM -SN SCT043 OVC055 M07/M12 A2999 RMK AO2 SNB47 SLP171 P0000 T10721122,KEAU,2015-02-21T16:56:00Z,44.87,-91.47,-7.2,-12.2,320,8,,7.0,29.991142,1017.1,,,TRUE,,,,,,-SN,SCT,4300,OVC,5500,,,,,VFR,,,,,,0.0050,,,,,,METAR,276.0
KDUG 211656Z AUTO 21010KT 10SM CLR 18/00 A3003 RMK AO2 SLP122 T01830000,KDUG,2015-02-21T16:56:00Z,31.47,-109.58,18.3,0.0,210,10,,10.0,30.029528,1012.2,,TRUE,TRUE,,,,,,,CLR,,,,,,,,VFR,,,,,,,,,,,,METAR,1265.0
KDIK 211656Z AUTO 34014KT 10SM FEW016 SCT029 BKN042 M12/M18 A3020 RMK AO2 SNE47 SLP272 P0000 T11221178,KDIK,2015-02-21T16:56:00Z,46.8,-102.8,-12.2,-17.8,340,14,,10.0,30.200787,1027.2,,TRUE,TRUE,,,,,,,FEW,1600,SCT,2900,BKN,4200,,,VFR,,,,,,0.0050,,,,,,METAR,788.0
KDIJ 211656Z AUTO 35004KT 5SM -SN FEW002 SCT012 BKN019 M05/M08 A2995 RMK AO2 T10501077 UPB02E17SNB17 P0000 SLP149,KDIJ,2015-02-21T16:56:00Z,43.75,-111.1,-5.0,-7.7,350,4,,5.0,29.949802,1014.9,,TRUE,TRUE,,,,,,-SN,FEW,200,SCT,1200,BKN,1900,,,MVFR,,,,,,0.0050,,,,,,METAR,1899.0
KDAY 211656Z 00000KT 1/2SM R06L/2800V3500FT SN FZFG BKN007 OVC011 M02/M03 A2991 RMK AO2 SLP142 P0003 T10171033,KDAY,2015-02-21T16:56:00Z,39.9,-84.22,-1.7,-3.3,0,0,,0.5,29.911417,1014.2,,,TRUE,,,,,,SN FZFG,BKN,700,OVC,1100,,,,,LIFR,,,,,,0.03,,,,,,METAR,305.0
KCXY 211656Z 16009G14KT 1/2SM R08/4000V5000FT SN FZFG VV016 M08/M10 A3032 RMK AO2 SLP276 P0000 T10781100,KCXY,2015-02-21T16:56:00Z,40.22,-76.85,-7.8,-10.0,160,9,14,0.5,30.318897,1027.6,,,TRUE,,,,,,SN FZFG,OVX,0,,,,,,,LIFR,,,,,,0.0050,,,,,1600,METAR,106.0
KCTB 211656Z AUTO 34013KT 9SM SCT016 BKN024 OVC038 M06/M08 A3029 RMK AO2 SNB17E38 SLP304 P0000 T10561083,KCTB,2015-02-21T16:56:00Z,48.6,-112.37,-5.6,-8.3,340,13,,9.0,30.28937,1030.4,,TRUE,TRUE,,,,,,,SCT,1600,BKN,2400,OVC,3800,,,MVFR,,,,,,0.0050,,,,,,METAR,1175.0
KCHS 211656Z 21011KT 10SM FEW032 BKN047 BKN055 16/06 A3036 RMK AO2 SLP278 T01610061,KCHS,2015-02-21T16:56:00Z,32.9,-80.03,16.1,6.1,210,11,,10.0,30.360237,1027.8,,,TRUE,,,,,,,FEW,3200,BKN,4700,BKN,5500,,,VFR,,,,,,,,,,,,METAR,13.0
KCEC 211656Z AUTO 36011G18KT 10SM CLR 13/07 A3007 RMK AO2 SLP184 T01280067,KCEC,2015-02-21T16:56:00Z,41.77,-124.22,12.8,6.7,360,11,18,10.0,30.070866,1018.4,,TRUE,TRUE,,,,,,,CLR,,,,,,,,VFR,,,,,,,,,,,,METAR,17.0
KCAE 211656Z 17013G20KT 10SM BKN180 14/03 A3033 RMK AO2 SLP270 T01390028,KCAE,2015-02-21T16:56:00Z,33.93,-81.12,13.9,2.8,170,13,20,10.0,30.33071,1027.0,,,TRUE,,,,,,,BKN,18000,,,,,,,VFR,,,,,,,,,,,,METAR,70.0
KBOK 211656Z AUTO VRB04KT 10SM CLR 15/M03 A3009 RMK AO2 T01501027 SLP189,KBOK,2015-02-21T16:56:00Z,42.07,-124.28,15.0,-2.7,0,4,,10.0,30.088583,1018.9,,TRUE,TRUE,,,,,,,CLR,,,,,,,,VFR,,,,,,,,,,,,METAR,140.0
KBMI 211656Z VRB03KT 9SM FEW080 M01/M04 A2993 RMK AO2 T10111038 SLP157,KBMI,2015-02-21T16:56:00Z,40.47,-88.92,-1.1,-3.8,0,3,,9.0,29.929134,1015.7,,,TRUE,,,,,,,FEW,8000,,,,,,,VFR,,,,,,,,,,,,METAR,267.0
KBJJ 211656Z AUTO 21005KT 8SM BKN011 OVC022 M05/M07 A2993 RMK AO2 SNE10 SLP155 P0000 T10501067 TSNO $,KBJJ,2015-02-21T16:56:00Z,40.87,-81.88,-5.0,-6.7,210,5,,8.0,29.929134,1015.5,,TRUE,TRUE,TRUE,,TRUE,,,,BKN,1100,OVC,2200,,,,,MVFR,,,,,,0.0050,,,,,,METAR,343.0
KBIH 211656Z AUTO 29005KT 10SM CLR 12/M08 A2993 RMK AO2 SLP108 T01221078,KBIH,2015-02-21T16:56:00Z,37.37,-118.35,12.2,-7.8,290,5,,10.0,29.929134,1010.8,,TRUE,TRUE,,,,,,,CLR,,,,,,,,VFR,,,,,,,,,,,,METAR,1253.0
KBED 211656Z 20016G23KT 10SM CLR M05/M14 A3040 RMK AO2 UPB42E51 SLP313 P0000 T10501144,KBED,2015-02-21T16:56:00Z,42.47,-71.3,-5.0,-14.4,200,16,23,10.0,30.398623,1031.3,,,TRUE,,,,,,,CLR,,,,,,,,VFR,,,,,,0.0050,,,,,,METAR,50.0
KART 211656Z AUTO 19015G23KT 8SM OVC049 M04/M17 A3010 RMK AO2 SLP204 T10441167,KART,2015-02-21T16:56:00Z,43.98,-76.03,-4.4,-16.7,190,15,23,8.0,30.100393,1020.4,,TRUE,TRUE,,,,,,,OVC,4900,,,,,,,VFR,,,,,,,,,,,,METAR,100.0
KAND 211656Z AUTO 10SM BKN100 OVC120 05/M07 A3032 RMK AO2 SLP272 T00501067,KAND,2015-02-21T16:56:00Z,34.5,-82.72,5.0,-6.7,,,,10.0,30.318897,1027.2,,TRUE,TRUE,,,,,,,BKN,10000,OVC,12000,,,,,VFR,,,,,,,,,,,,METAR,239.0
KAJO 211656Z AUTO 00000KT 7SM OVC033 14/11 A3002 RMK AO2 T01380105 SLP163 $,KAJO,2015-02-21T16:56:00Z,33.9,-117.6,13.8,10.5,0,0,,7.0,30.02067,1016.3,,TRUE,TRUE,TRUE,,,,,,OVC,3300,,,,,,,VFR,,,,,,,,,,,,METAR,163.0
K1M4 211656Z AUTO 18016G24KT 10SM 09/08 A2999 RMK AO2 T00940083 RAE24 P0000 SLP169 $,K1M4,2015-02-21T16:56:00Z,34.28,-87.6,9.4,8.3,180,16,24,10.0,29.991142,1016.9,,TRUE,TRUE,TRUE,,,,,,,,,,,,,,,,,,,,0.0050,,,,,,METAR,284.0
TJSJ 211656Z 08012G23KT 10SM FEW028 SCT040 SCT070 28/23 A3008 RMK AO2 SLP185 VCSH N T02780233,TJSJ,2015-02-21T16:56:00Z,18.43,-66.02,27.8,23.3,80,12,23,10.0,30.079725,1018.5,,,TRUE,,,,,,,FEW,2800,SCT,4000,SCT,7000,,,VFR,,,,,,,,,,,,METAR,21.0
KY50 211656Z AUTO 00000KT 10SM OVC070 M03/M11 A2993 RMK AO2 TSNO T10271105 SLP149,KY50,2015-02-21T16:56:00Z,44.03,-89.3,-2.7,-10.5,0,0,,10.0,29.929134,1014.9,,TRUE,TRUE,,,TRUE,,,,OVC,7000,,,,,,,VFR,,,,,,,,,,,,METAR,262.0
KWJF 211656Z 24016KT 10SM CLR 13/04 A2993 RMK AO2 SLP134 T01330044,KWJF,2015-02-21T16:56:00Z,34.72,-118.22,13.3,4.4,240,16,,10.0,29.929134,1013.4,,,TRUE,,,,,,,CLR,,,,,,,,VFR,,,,,,,,,,,,METAR,715.0
KVPZ 211656Z AUTO 00000KT 8SM OVC035 M05/M08 A2995 RMK AO2 SLP154 T10501083 TSNO $,KVPZ,2015-02-21T16:56:00Z,41.45,-87.0,-5.0,-8.3,0,0,,8.0,29.949802,1015.4,,TRUE,TRUE,TRUE,,TRUE,,,,OVC,3500,,,,,,,VFR,,,,,,,,,,,,METAR,231.0
KUKI 211656Z AUTO 00000KT 10SM CLR 10/07 A2998 RMK AO2 SLP150 T01000067,KUKI,2015-02-21T16:56:00Z,39.12,-123.2,10.0,6.7,0,0,,10.0,29.97933,1015.0,,TRUE,TRUE,,,,,,,CLR,,,,,,,,VFR,,,,,,,,,,,,METAR,187.0
KUCP 211656Z AUTO 16004KT 3SM -SN BR FEW002 BKN015 OVC029 M04/M06 A2997 RMK AO2 T10441061 BKN V SCT P0001 SLP181,KUCP,2015-02-21T16:56:00Z,41.03,-80.42,-4.4,-6.1,160,4,,3.0,29.970472,1018.1,,TRUE,TRUE,,,,,,-SN BR,FEW,200,BKN,1500,OVC,2900,,,MVFR,,,,,,0.01,,,,,,METAR,327.0
KTPH 211656Z AUTO 02007KT 10SM CLR 06/M12 A3000 RMK AO2 SLP142 T00561122,KTPH,2015-02-21T16:56:00Z,38.05,-117.08,5.6,-12.2,20,7,,10.0,30.0,1014.2,,TRUE,TRUE,,,,,,,CLR,,,,,,,,VFR,,,,,,,,,,,,METAR,1652.0
KSLE 211656Z 03004KT 10SM OVC039 08/04 A3025 RMK AO2 SLP244 T00830044,KSLE,2015-02-21T16:56:00Z,44.9,-123.0,8.3,4.4,30,4,,10.0,30.250984,1024.4,,,TRUE,,,,,,,OVC,3900,,,,,,,VFR,,,,,,,,,,,,METAR,59.0
KSHV 211656Z 21015G22KT 6SM -RA SCT023 OVC031 21/16 A2987 RMK AO2 RAE01B53 SLP112 P0000 T02060161,KSHV,2015-02-21T16:56:00Z,32.45,-93.83,20.6,16.1,210,15,22,6.0,29.870079,1011.2,,,TRUE,,,,,,-RA,SCT,2300,OVC,3100,,,,,VFR,,,,,,0.0050,,,,,,METAR,83.0
KSFO 211656Z 00000KT 5SM R28R/4000VP6000FT BR FEW002 SCT180 14/13 A2996 RMK AO2 SLP146 T01390133,KSFO,2015-02-21T16:56:00Z,37.62,-122.37,13.9,13.3,0,0,,5.0,29.958662,1014.6,,,TRUE,,,,,,BR,FEW,200,SCT,18000,,,,,MVFR,,,,,,,,,,,,METAR,3.0
KNLC 211656Z AUTO 00000KT OVC006 11/09 A3000 RMK AO2 CIG 004V009 SLP160 T01110094 RVRNO $,KNLC,2015-02-21T16:56:00Z,36.32,-119.95,11.1,9.4,0,0,,,30.0,1016.0,,TRUE,TRUE,TRUE,,,,,,OVC,600,,,,,,,,,,,,,,,,,,,METAR,72.0
PASY 211656Z AUTO 33024G31KT 10SM FEW040 BKN065 M01/M07 A2980 RMK AO2 PK WND 32031/1654 SLP093 T10111072 TSNO $,PASY,2015-02-21T16:56:00Z,52.72,174.12,-1.1,-7.2,330,24,31,10.0,29.799213,1009.3,,TRUE,TRUE,TRUE,,TRUE,,,,FEW,4000,BKN,6500,,,,,VFR,,,,,,,,,,,,METAR,31.0
K8D3 211656Z AUTO 36016KT M13/M17 A3020 RMK AO1 SLP265 T11331167,K8D3,2015-02-21T16:56:00Z,45.67,-96.98,-13.3,-16.7,360,16,,,30.200787,1026.5,,TRUE,TRUE,,,,,,,,,,,,,,,,,,,,,,,,,,,METAR,354.0
KISP 211656Z 20013G20KT 10SM SCT026 BKN140 OVC200 M02/M09 A3043 RMK AO2 SLP307 T10171089,KISP,2015-02-21T16:56:00Z,40.8,-73.1,-1.7,-8.9,200,13,20,10.0,30.431103,1030.7,,,TRUE,,,,,,,SCT,2600,BKN,14000,OVC,20000,,,VFR,,,,,,,,,,,,METAR,43.0
KISO 211656Z 15005KT 10SM BKN037 BKN045 07/M01 A3043 RMK AO2,KISO,2015-02-21T16:56:00Z,35.32,-77.62,7.0,-1.0,150,5,,10.0,30.431103,,,,TRUE,,,,,,,BKN,3700,BKN,4500,,,,,VFR,,,,,,,,,,,,METAR,29.0
KINW 211656Z AUTO 23021G29KT 10SM CLR 16/M03 A2994 RMK AO2 PK WND 23029/1640 SLP096 T01561033,KINW,2015-02-21T16:56:00Z,35.03,-110.72,15.6,-3.3,230,21,29,10.0,29.940945,1009.6,,TRUE,TRUE,,,,,,,CLR,,,,,,,,VFR,,,,,,,,,,,,METAR,1490.0
KIGX 211656Z AUTO VRB03KT 10SM OVC021 M01/M08 A3037 RMK AO2 PRESFR SLP288 T10061078 $,KIGX,2015-02-21T16:56:00Z,35.93,-79.07,-0.6,-7.8,0,3,,10.0,30.369095,1028.8,,TRUE,TRUE,TRUE,,,,,,OVC,2100,,,,,,,MVFR,,,,,,,,,,,,METAR,155.0
KHYA 211656Z 20012KT 10SM CLR M01/M08 A3046 RMK AO2 SLP315 T10111078,KHYA,2015-02-21T16:56:00Z,41.67,-70.27,-1.1,-7.8,200,12,,10.0,30.46063,1031.5,,,TRUE,,,,,,,CLR,,,,,,,,VFR,,,,,,,,,,,,METAR,22.0
KHWV 211656Z AUTO 20015G24KT 10SM FEW028 M01/M08 A3046 RMK AO2 SLP316 T10111078 TSNO,KHWV,2015-02-21T16:56:00Z,40.82,-72.87,-1.1,-7.8,200,15,24,10.0,30.46063,1031.6,,TRUE,TRUE,,,TRUE,,,,FEW,2800,,,,,,,VFR,,,,,,,,,,,,METAR,21.0
KHPN 211656Z 18010G14KT 10SM BKN090 M05/M13 A3040 RMK AO2 SLP310 T10501128,KHPN,2015-02-21T16:56:00Z,41.07,-73.7,-5.0,-12.8,180,10,14,10.0,30.398623,1031.0,,,TRUE,,,,,,,BKN,9000,,,,,,,VFR,,,,,,,,,,,,METAR,121.0
KHND 211656Z VRB03KT 10SM CLR 15/M08 A2995 RMK AO2 SLP132 T01501083,KHND,2015-02-21T16:56:00Z,35.98,-115.13,15.0,-8.3,0,3,,10.0,29.949802,1013.2,,,TRUE,,,,,,,CLR,,,,,,,,VFR,,,,,,,,,,,,METAR,749.0
KGRD 211656Z AUTO 21009KT 10SM FEW120 09/M02 A3033 RMK AO2 SLP272 T00941017,KGRD,2015-02-21T16:56:00Z,34.25,-82.15,9.4,-1.7,210,9,,10.0,30.33071,1027.2,,TRUE,TRUE,,,,,,,FEW,12000,,,,,,,VFR,,,,,,,,,,,,METAR,185.0
KGON 211656Z 19006KT 10SM CLR M04/M09 A3047 RMK AO2 SLP316 T10391089 $,KGON,2015-02-21T16:56:00Z,41.33,-72.05,-3.9,-8.9,190,6,,10.0,30.469488,1031.6,,,TRUE,TRUE,,,,,,CLR,,,,,,,,VFR,,,,,,,,,,,,METAR,3.0
KITH 211656Z 19013G21KT 1SM R32/3000V6000FT -SN BKN016 OVC031 M08/M12 A3009 RMK AO2 T10831122 SNB23 P0000 PK WND 16027/1602 SLP214,KITH,2015-02-21T16:56:00Z,42.47,-76.45,-8.3,-12.2,190,13,21,1.0,30.088583,1021.4,,,TRUE,,,,,,-SN,BKN,1600,OVC,3100,,,,,IFR,,,,,,0.0050,,,,,,METAR,335.0
KJAX 211656Z 14009KT 10SM FEW040 BKN055 BKN250 17/07 A3034 RMK AO2 SLP275 T01720067,KJAX,2015-02-21T16:56:00Z,30.5,-81.68,17.2,6.7,140,9,,10.0,30.339567,1027.5,,,TRUE,,,,,,,FEW,4000,BKN,5500,BKN,25000,,,VFR,,,,,,,,,,,,METAR,10.0
KJMS 211656Z AUTO 35013KT 10SM BKN013 M17/M21 A3023 RMK AO2 SLP274 T11671206,KJMS,2015-02-21T16:56:00Z,46.93,-98.67,-16.7,-20.6,350,13,,10.0,30.230314,1027.4,,TRUE,TRUE,,,,,,,BKN,1300,,,,,,,MVFR,,,,,,,,,,,,METAR,455.0
KLRD 211656Z 16009KT 10SM FEW110 23/16 A2989 RMK AO2 T02330155 SLP113,KLRD,2015-02-21T16:56:00Z,27.55,-99.47,23.3,15.5,160,9,,10.0,29.890747,1011.3,,,TRUE,,,,,,,FEW,11000,,,,,,,VFR,,,,,,,,,,,,METAR,155.0
KLNR 211656Z AUTO 22003KT 9SM FEW026 M03/M08 A2994 RMK AO2 SLP144 T10281078,KLNR,2015-02-21T16:56:00Z,43.22,-90.18,-2.8,-7.8,220,3,,9.0,29.940945,1014.4,,TRUE,TRUE,,,,,,,FEW,2600,,,,,,,VFR,,,,,,,,,,,,METAR,217.0
KLAS 211656Z 00000KT 10SM CLR 16/M10 A2989 RMK AO2 SLP111 T01561100,KLAS,2015-02-21T16:56:00Z,36.07,-115.17,15.6,-10.0,0,0,,10.0,29.890747,1011.1,,,TRUE,,,,,,,CLR,,,,,,,,VFR,,,,,,,,,,,,METAR,636.0
KJXN 211656Z 00000KT 8SM BKN034 OVC055 M06/M09 A2994 RMK AO2 SLP154 T10561094,KJXN,2015-02-21T16:56:00Z,42.27,-84.47,-5.6,-9.4,0,0,,8.0,29.940945,1015.4,,,TRUE,,,,,,,BKN,3400,OVC,5500,,,,,VFR,,,,,,,,,,,,METAR,305.0
KMOB 211656Z 15020G27KT 10SM FEW040 SCT100 BKN200 19/09 A3015 RMK AO2 PK WND 16035/1603 SLP207 T01940094,KMOB,2015-02-21T16:56:00Z,30.68,-88.25,19.4,9.4,150,20,27,10.0,30.15059,1020.7,,,TRUE,,,,,,,FEW,4000,SCT,10000,BKN,20000,,,VFR,,,,,,,,,,,,METAR,63.0
KMDT 211656Z 16012KT 3/4SM R13/5000V6000FT -SN BR VV017 M07/M10 A3033 RMK AO2 SLP277 SNINCR1/1 P0004 T10721100,KMDT,2015-02-21T16:56:00Z,40.2,-76.77,-7.2,-10.0,160,12,,0.75,30.33071,1027.7,,,TRUE,,,,,,-SN BR,OVX,0,,,,,,,LIFR,,,,,,0.04,,,,,1700,METAR,95.0
KLWS 211656Z 08005KT 10SM OVC036 06/03 A3016 RMK AO2 SLP222 T00560028,KLWS,2015-02-21T16:56:00Z,46.37,-117.02,5.6,2.8,80,5,,10.0,30.159449,1022.2,,,TRUE,,,,,,,OVC,3600,,,,,,,VFR,,,,,,,,,,,,METAR,438.0
KMTW 211656Z AUTO 35004KT 9SM CLR M02/M09 A2994 RMK AO2 SLP164 T10221094 FZRANO,KMTW,2015-02-21T16:56:00Z,44.12,-87.67,-2.2,-9.4,350,4,,9.0,29.940945,1016.4,,TRUE,TRUE,,,,TRUE,,,CLR,,,,,,,,VFR,,,,,,,,,,,,METAR,198.0
KNUQ 211656Z 00000KT 10SM CLR 13/09 A2998 RMK AO2 SLP153 T01330094,KNUQ,2015-02-21T16:56:00Z,37.4,-122.05,13.3,9.4,0,0,,10.0,29.97933,1015.3,,,TRUE,,,,,,,CLR,,,,,,,,VFR,,,,,,,,,,,,METAR,12.0
KOFK 211656Z AUTO 36013KT 10SM OVC012 M02/M05 A3007 RMK AO2 SNB22E33 SLP198 P0000 T10221050,KOFK,2015-02-21T16:56:00Z,41.98,-97.43,-2.2,-5.0,360,13,,10.0,30.070866,1019.8,,TRUE,TRUE,,,,,,,OVC,1200,,,,,,,MVFR,,,,,,0.0050,,,,,,METAR,470.0
EBCV 211655Z AUTO 30007KT 9999 FEW009/// SCT034/// BKN039/// 03/02 Q1002 BLU,EBCV,2015-02-21T16:55:00Z,50.57,3.82,3.0,2.0,300,7,,6.21,29.586615,,,TRUE,,,,,,,,,,,,,,,,,,,,,,,,,,,,METAR,63.0
K7L2 211655Z AUTO 36014KT 10SM FEW011 BKN019 BKN080 M13/M15 A3023 RMK AO2,K7L2,2015-02-21T16:55:00Z,46.22,-100.25,-13.0,-15.0,360,14,,10.0,30.230314,,,TRUE,TRUE,,,,,,,FEW,1100,BKN,1900,BKN,8000,,,MVFR,,,,,,,,,,,,METAR,543.0
KBWD 211655Z AUTO 01010G18KT 9SM OVC016 12/07 A2998 RMK AO2,KBWD,2015-02-21T16:55:00Z,31.8,-98.95,12.0,7.0,10,10,18,9.0,29.97933,,,TRUE,TRUE,,,,,,,OVC,1600,,,,,,,MVFR,,,,,,,,,,,,METAR,423.0
KEOE 211655Z AUTO 21007KT 10SM CLR 08/01 A3035 RMK AO2,KEOE,2015-02-21T16:55:00Z,34.32,-81.63,8.0,1.0,210,7,,10.0,30.351377,,,TRUE,TRUE,,,,,,,CLR,,,,,,,,VFR,,,,,,,,,,,,METAR,174.0
KGVT 211655Z AUTO 32010KT 10SM SCT015 11/05 A2992 RMK AO2,KGVT,2015-02-21T16:55:00Z,33.07,-96.07,11.0,5.0,320,10,,10.0,29.920275,,,TRUE,TRUE,,,,,,,SCT,1500,,,,,,,VFR,,,,,,,,,,,,METAR,163.0
KGYI 211655Z AUTO 33012KT 10SM OVC012 08/06 A2997 RMK AO2 T00830060,KGYI,2015-02-21T16:55:00Z,33.72,-96.67,8.3,6.0,330,12,,10.0,29.970472,,,TRUE,TRUE,,,,,,,OVC,1200,,,,,,,MVFR,,,,,,,,,,,,METAR,228.0
KH21 211655Z AUTO 00000KT 3SM BR OVC004 00/00 A2997 RMK AO2,KH21,2015-02-21T16:55:00Z,37.97,-92.68,0.0,0.0,0,0,,3.0,29.970472,,,TRUE,TRUE,,,,,,BR,OVC,400,,,,,,,LIFR,,,,,,,,,,,,METAR,324.0
KHDE 211655Z AUTO 01012KT 10SM SCT036 SCT049 OVC075 05/M01 A3003 RMK AO2 T00481015,KHDE,2015-02-21T16:55:00Z,40.45,-99.32,4.8,-1.5,10,12,,10.0,30.029528,,,TRUE,TRUE,,,,,,,SCT,3600,SCT,4900,OVC,7500,,,VFR,,,,,,,,,,,,METAR,705.0
KHHW 211655Z AUTO 35012G18KT 10SM OVC010 08/05 A2990 RMK AO2 T00780050,KHHW,2015-02-21T16:55:00Z,34.03,-95.55,7.8,5.0,350,12,18,10.0,29.899607,,,TRUE,TRUE,,,,,,,OVC,1000,,,,,,,MVFR,,,,,,,,,,,,METAR,144.0
KHNR 211655Z AUTO 34016KT 10SM OVC014 M03/M03 A3007 RMK AO2,KHNR,2015-02-21T16:55:00Z,41.58,-95.33,-3.0,-3.0,340,16,,10.0,30.070866,,,TRUE,TRUE,,,,,,,OVC,1400,,,,,,,MVFR,,,,,,,,,,,,METAR,375.0
KHSP 211655Z AUTO 20018G33KT 1/2SM -SN OVC009 M05/M07 A3002 RMK AO2 P0001 T10541073,KHSP,2015-02-21T16:55:00Z,37.95,-79.82,-5.4,-7.3,200,18,33,0.5,30.02067,,,TRUE,TRUE,,,,,,-SN,OVC,900,,,,,,,LIFR,,,,,,0.01,,,,,,METAR,1156.0
KHZR 211655Z AUTO 18019G27KT 10SM BKN038 OVC065 21/13 A3002 RMK AO2 T02110133,KHZR,2015-02-21T16:55:00Z,30.72,-91.48,21.1,13.3,180,19,27,10.0,30.02067,,,TRUE,TRUE,,,,,,,BKN,3800,OVC,6500,,,,,VFR,,,,,,,,,,,,METAR,12.0
KI35 211655Z AUTO 15005KT 2SM SCT014 OVC023 00/00 A3005 RMK AO1,KI35,2015-02-21T16:55:00Z,36.87,-83.37,0.0,0.0,150,5,,2.0,30.050198,,,TRUE,TRUE,,,,,,,SCT,1400,OVC,2300,,,,,IFR,,,,,,,,,,,,METAR,473.0
KI75 211655Z AUTO 33011G15KT 10SM SCT013 SCT017 OVC023 00/M04 A2998 RMK AO2 T10031036,KI75,2015-02-21T16:55:00Z,41.05,-93.68,-0.3,-3.6,330,11,15,10.0,29.97933,,,TRUE,TRUE,,,,,,,SCT,1300,SCT,1700,OVC,2300,,,MVFR,,,,,,,,,,,,METAR,339.0
KIBM 211655Z AUTO 03007KT 1SM -SN OVC007 M01/M02 A2997 RMK AO2 T10071025,KIBM,2015-02-21T16:55:00Z,41.18,-103.68,-0.7,-2.5,30,7,,1.0,29.970472,,,TRUE,TRUE,,,,,,-SN,OVC,700,,,,,,,IFR,,,,,,,,,,,,METAR,1501.0
KIDP 211655Z AUTO 36007KT 10SM BKN012 06/03 A3000 RMK AO2,KIDP,2015-02-21T16:55:00Z,37.17,-95.78,6.0,3.0,360,7,,10.0,30.0,,,TRUE,TRUE,,,,,,,BKN,1200,,,,,,,MVFR,,,,,,,,,,,,METAR,251.0
KIIB 211655Z AUTO 36008KT 5SM BR BKN014 OVC028 M02/M04 A2994 RMK AO2,KIIB,2015-02-21T16:55:00Z,42.45,-91.95,-2.0,-4.0,360,8,,5.0,29.940945,,,TRUE,TRUE,,,,,,BR,BKN,1400,OVC,2800,,,,,MVFR,,,,,,,,,,,,METAR,298.0
KIJX 211655Z AUTO 00000KT 10SM BKN075 M01/M03 A2995 RMK AO2 P0008 T10061033,KIJX,2015-02-21T16:55:00Z,39.77,-90.25,-0.6,-3.3,0,0,,10.0,29.949802,,,TRUE,TRUE,,,,,,,BKN,7500,,,,,,,VFR,,,,,,0.08,,,,,,METAR,190.0
KIKK 211655Z AUTO 00000KT 10SM SCT048 OVC055 M04/M07 A2995 RMK AO2 T10371070,KIKK,2015-02-21T16:55:00Z,41.07,-87.85,-3.7,-7.0,0,0,,10.0,29.949802,,,TRUE,TRUE,,,,,,,SCT,4800,OVC,5500,,,,,VFR,,,,,,,,,,,,METAR,192.0
KIKV 211655Z AUTO 32012KT 10SM OVC018 M02/M07 A3000 RMK AO2,KIKV,2015-02-21T16:55:00Z,41.68,-93.57,-2.0,-7.0,320,12,,10.0,30.0,,,TRUE,TRUE,,,,,,,OVC,1800,,,,,,,MVFR,,,,,,,,,,,,METAR,275.0
KIZA 211655Z AUTO 07003KT 7SM SCT002 10/09 A2999 RMK AO2,KIZA,2015-02-21T16:55:00Z,34.6,-120.07,10.0,9.0,70,3,,7.0,29.991142,,,TRUE,TRUE,,,,,,,SCT,200,,,,,,,VFR,,,,,,,,,,,,METAR,205.0
KIOB 211655Z AUTO 23015G22KT 7SM RA BKN009 BKN014 OVC020 01/01 A2996 RMK AO2 P0010,KIOB,2015-02-21T16:55:00Z,38.05,-83.98,1.0,1.0,230,15,22,7.0,29.958662,,,TRUE,TRUE,,,,,,RA,BKN,900,BKN,1400,OVC,2000,,,IFR,,,,,,0.1,,,,,,METAR,311.0
KINJ 211655Z AUTO 32013KT 10SM OVC027 13/08 A2994 RMK AO2 T01300084,KINJ,2015-02-21T16:55:00Z,32.08,-97.1,13.0,8.4,320,13,,10.0,29.940945,,,TRUE,TRUE,,,,,,,OVC,2700,,,,,,,MVFR,,,,,,,,,,,,METAR,209.0
KINF 211655Z AUTO 14007KT 7SM CLR 21/06 A3032 RMK AO2,KINF,2015-02-21T16:55:00Z,28.8,-82.32,21.0,6.0,140,7,,7.0,30.318897,,,TRUE,TRUE,,,,,,,CLR,,,,,,,,VFR,,,,,,,,,,,,METAR,15.0
KSPA 211655Z AUTO 26004KT 10SM CLR 06/M07 A3033 RMK AO2,KSPA,2015-02-21T16:55:00Z,34.92,-81.93,6.0,-7.0,260,4,,10.0,30.33071,,,TRUE,TRUE,,,,,,,CLR,,,,,,,,VFR,,,,,,,,,,,,SPECI,303.0
KLQK 211655Z AUTO 10SM SCT080 BKN110 04/M08 A3032 RMK AO2 T00441077,KLQK,2015-02-21T16:55:00Z,34.82,-82.7,4.4,-7.7,,,,10.0,30.318897,,,TRUE,TRUE,,,,,,,SCT,8000,BKN,11000,,,,,VFR,,,,,,,,,,,,SPECI,309.0
KJFX 211655Z AUTO 18010G18KT 10SM BKN043 13/07 A3004 RMK A02 P-128,KJFX,2015-02-21T16:55:00Z,33.9,-87.32,13.0,7.0,180,10,18,10.0,30.041338,,,TRUE,TRUE,,,,,,,BKN,4300,,,,,,,VFR,,,,,,,,,,,,SPECI,148.0
KGGE 211655Z AUTO 00000KT 10SM OVC033 10/06 A3038 RMK AO2,KGGE,2015-02-21T16:55:00Z,33.32,-79.32,10.0,6.0,0,0,,10.0,30.380905,,,TRUE,TRUE,,,,,,,OVC,3300,,,,,,,VFR,,,,,,,,,,,,SPECI,12.0
KCLS 211655Z AUTO 01006KT 10SM BKN023 BKN040 07/06 A3030 RMK AO2,KCLS,2015-02-21T16:55:00Z,46.68,-122.98,7.0,6.0,10,6,,10.0,30.301182,,,TRUE,TRUE,,,,,,,BKN,2300,BKN,4000,,,,,MVFR,,,,,,,,,,,,SPECI,54.0
KCKI 211655Z AUTO 10005KT 10SM CLR 12/07 A3036 RMK AO2,KCKI,2015-02-21T16:55:00Z,33.72,-79.85,12.0,7.0,100,5,,10.0,30.360237,,,TRUE,TRUE,,,,,,,CLR,,,,,,,,VFR,,,,,,,,,,,,SPECI,21.0
K4I7 211655Z AUTO 00000KT 5SM HZ OVC005 M04/M07 A2990 RMK AO2,K4I7,2015-02-21T16:55:00Z,39.63,-86.82,-4.0,-7.0,0,0,,5.0,29.899607,,,TRUE,TRUE,,,,,,HZ,OVC,500,,,,,,,IFR,,,,,,,,,,,,SPECI,257.0
KRHV 211655Z 00000KT 10SM SKC 12/08 A2997,KRHV,2015-02-21T16:55:00Z,37.32,-121.82,12.0,8.0,0,0,,10.0,29.970472,,,,,,,,,,,SKC,,,,,,,,VFR,,,,,,,,,,,,METAR,41.0
KAIK 211655Z AUTO 18012G21KT 10SM CLR 13/03 A3035 RMK AO2,KAIK,2015-02-21T16:55:00Z,33.65,-81.68,13.0,3.0,180,12,21,10.0,30.351377,,,TRUE,TRUE,,,,,,,CLR,,,,,,,,VFR,,,,,,,,,,,,METAR,161.0
KBDN 211655Z AUTO 00000KT 10SM BKN040 00/M02 A3017 RMK AO2,KBDN,2015-02-21T16:55:00Z,44.1,-121.2,0.0,-2.0,0,0,,10.0,30.171259,,,TRUE,TRUE,,,,,,,BKN,4000,,,,,,,VFR,,,,,,,,,,,,METAR,1055.0
KGPH 211655Z AUTO 31005KT 10SM BKN060 04/00 A2998 RMK AO2,KGPH,2015-02-21T16:55:00Z,39.33,-94.32,4.0,0.0,310,5,,10.0,29.97933,,,TRUE,TRUE,,,,,,,BKN,6000,,,,,,,VFR,,,,,,,,,,,,METAR,235.0
KLUX 211655Z AUTO 23004KT 10SM SCT120 06/00 A3033 RMK AO2,KLUX,2015-02-21T16:55:00Z,34.5,-81.95,6.0,0.0,230,4,,10.0,30.33071,,,TRUE,TRUE,,,,,,,SCT,12000,,,,,,,VFR,,,,,,,,,,,,METAR,213.0
KFDW 211655Z AUTO 21009G14KT 10SM CLR 10/02 A3034 RMK AO1,KFDW,2015-02-21T16:55:00Z,34.32,-81.12,10.0,2.0,210,9,14,10.0,30.339567,,,TRUE,TRUE,,,,,,,CLR,,,,,,,,VFR,,,,,,,,,,,,METAR,176.0
KJZI 211655Z AUTO 17007KT 10SM BKN034 OVC046 14/07 A3037 RMK A02 P000,KJZI,2015-02-21T16:55:00Z,32.7,-80.0,14.0,7.0,170,7,,10.0,30.369095,,,TRUE,TRUE,,,,,,,BKN,3400,OVC,4600,,,,,VFR,,,,,,,,,,,,METAR,6.0
KLDJ 211655Z AUTO 21003KT 10SM BKN070 BKN080 OVC090 M02/M11 A3046 RMK AO2 T10161115,KLDJ,2015-02-21T16:55:00Z,40.62,-74.25,-1.6,-11.5,210,3,,10.0,30.46063,,,TRUE,TRUE,,,,,,,BKN,7000,BKN,8000,OVC,9000,,,VFR,,,,,,,,,,,,METAR,7.0
KVDF 211655Z AUTO 14006KT 10SM CLR 22/07 A3031 RMK AO2,KVDF,2015-02-21T16:55:00Z,28.02,-82.33,22.0,7.0,140,6,,10.0,30.31004,,,TRUE,TRUE,,,,,,,CLR,,,,,,,,VFR,,,,,,,,,,,,METAR,7.0
KPTB 211655Z AUTO 17006KT 10SM BKN035 OVC044 00/M10 A3040 RMK AO2 T00011105,KPTB,2015-02-21T16:55:00Z,37.17,-77.52,0.1,-10.5,170,6,,10.0,30.398623,,,TRUE,TRUE,,,,,,,BKN,3500,OVC,4400,,,,,VFR,,,,,,,,,,,,METAR,59.0
KGWR 211655Z AUTO 35016KT 10SM CLR M15/M20 A3024 RMK A01 P000,KGWR,2015-02-21T16:55:00Z,46.22,-97.65,-15.0,-20.0,350,16,,10.0,30.239174,,,TRUE,TRUE,,,,,,,CLR,,,,,,,,VFR,,,,,,,,,,,,METAR,386.0
KORS 211655Z AUTO 35012KT 10SM OVC009 07/06 A3036 RMK AO2,KORS,2015-02-21T16:55:00Z,48.7,-122.92,7.0,6.0,350,12,,10.0,30.360237,,,TRUE,TRUE,,,,,,,OVC,900,,,,,,,IFR,,,,,,,,,,,,METAR,9.0
K1R7 211655Z AUTO 17016G23KT FEW026 FEW047 BKN060 18/13 A3003 RMK AO2,K1R7,2015-02-21T16:55:00Z,31.6,-90.42,18.0,13.0,170,16,23,,30.029528,,,TRUE,TRUE,,,,,,,FEW,2600,FEW,4700,BKN,6000,,,,,,,,,,,,,,,METAR,149.0
KMIS 211655Z AUTO 17014G25KT 4SM HZ CLR 23/14 A3013 RMK A01,KMIS,2015-02-21T16:55:00Z,29.3,-88.85,23.0,14.0,170,14,25,4.0,30.129921,,,TRUE,TRUE,,,,,,HZ,CLR,,,,,,,,MVFR,,,,,,,,,,,,METAR,32.0
KMGR 211655Z AUTO 18011G19KT 10SM CLR 17/06 A3030 RMK AO2,KMGR,2015-02-21T16:55:00Z,31.08,-83.8,17.0,6.0,180,11,19,10.0,30.301182,,,TRUE,TRUE,,,,,,,CLR,,,,,,,,VFR,,,,,,,,,,,,METAR,90.0
KMDJ 211655Z AUTO 19022KT 9SM FEW042 FEW048 SCT065 23/15 A3014 RMK A01,KMDJ,2015-02-21T16:55:00Z,28.65,-89.8,23.0,15.0,190,22,,9.0,30.138779,,,TRUE,TRUE,,,,,,,FEW,4200,FEW,4800,SCT,6500,,,VFR,,,,,,,,,,,,METAR,31.0
KM30 211655Z AUTO 02004KT 2 1/2SM RA BKN005 BKN020 OVC034 01/01 A2988 RMK AO2 P0004 T00100010,KM30,2015-02-21T16:55:00Z,37.18,-88.75,1.0,1.0,20,4,,2.5,29.878937,,,TRUE,TRUE,,,,,,RA,BKN,500,BKN,2000,OVC,3400,,,IFR,,,,,,0.04,,,,,,METAR,117.0
KLUD 211655Z AUTO 34007G17KT 5SM BR OVC009 06/05 A2999 RMK AO2 T00640046,KLUD,2015-02-21T16:55:00Z,33.25,-97.58,6.4,4.6,340,7,17,5.0,29.991142,,,TRUE,TRUE,,,,,,BR,OVC,900,,,,,,,IFR,,,,,,,,,,,,METAR,319.0
KLNN 211655Z AUTO 31003KT 10SM BKN016 OVC023 M04/M06 A2995 RMK AO1 T10401065,KLNN,2015-02-21T16:55:00Z,41.67,-81.37,-4.0,-6.5,310,3,,10.0,29.949802,,,TRUE,TRUE,,,,,,,BKN,1600,OVC,2300,,,,,MVFR,,,,,,,,,,,,METAR,191.0
K0E0 211655Z AUTO 18007KT 10SM CLR 10/M04 A2996 RMK AO2 T00971045,K0E0,2015-02-21T16:55:00Z,34.98,-106.0,9.7,-4.5,180,7,,10.0,29.958662,,,TRUE,TRUE,,,,,,,CLR,,,,,,,,VFR,,,,,,,,,,,,METAR,1890.0
K0F2 211655Z AUTO 34006KT 5SM BR OVC009 06/05 A3000 RMK AO2 T00640045,K0F2,2015-02-21T16:55:00Z,33.6,-97.78,6.4,4.5,340,6,,5.0,30.0,,,TRUE,TRUE,,,,,,BR,OVC,900,,,,,,,IFR,,,,,,,,,,,,METAR,336.0
K0V4 211655Z AUTO 00000KT 5SM BKN030 BKN039 OVC065 M03/M09 A3036 RMK AO1 T10351090,K0V4,2015-02-21T16:55:00Z,37.15,-79.02,-3.5,-9.0,0,0,,5.0,30.360237,,,TRUE,TRUE,,,,,,,BKN,3000,BKN,3900,OVC,6500,,,MVFR,,,,,,,,,,,,METAR,182.0
K0VG 211655Z AUTO 05003KT 6SM -RA BKN013 OVC018 00/00 A3012 RMK AO2 P0024,K0VG,2015-02-21T16:55:00Z,36.65,-83.22,0.0,0.0,50,3,,6.0,30.121063,,,TRUE,TRUE,,,,,,-RA,BKN,1300,OVC,1800,,,,,MVFR,,,,,,0.24,,,,,,METAR,430.0
K1A6 211655Z AUTO 17006KT 7SM UP SCT014 OVC050 00/M02 A3007 RMK AO2 P0017 T00001019,K1A6,2015-02-21T16:55:00Z,36.62,-83.73,0.0,-1.9,170,6,,7.0,30.070866,,,TRUE,TRUE,,,,,,UP,SCT,1400,OVC,5000,,,,,VFR,,,,,,0.17,,,,,,METAR,352.0
KBBP 211655Z AUTO 11005KT 10SM OVC019 05/M04 A3037 RMK AO2,KBBP,2015-02-21T16:55:00Z,34.62,-79.73,5.0,-4.0,110,5,,10.0,30.369095,,,TRUE,TRUE,,,,,,,OVC,1900,,,,,,,MVFR,,,,,,,,,,,,METAR,45.0
K1P1 211655Z AUTO 07006KT 10SM CLR M08/M18 A3032 RMK AO2 T10841179,K1P1,2015-02-21T16:55:00Z,43.78,-71.75,-8.4,-17.9,70,6,,10.0,30.318897,,,TRUE,TRUE,,,,,,,CLR,,,,,,,,VFR,,,,,,,,,,,,METAR,154.0
KN03 211655Z AUTO 18013G23KT 2 1/2SM -SN SCT014 BKN029 OVC043 M07/M12 A3010 RMK AO2 VIS 1 1/2V4,KN03,2015-02-21T16:55:00Z,42.6,-76.22,-7.0,-12.0,180,13,23,2.5,30.100393,,,TRUE,TRUE,,,,,,-SN,SCT,1400,BKN,2900,OVC,4300,,,IFR,,,,,,,,,,,,METAR,366.0
FJDG 211655Z 31008KT 9999 FEW020 SCT080 BKN220 28/25 A2986 RMK SLP108 T02770258,FJDG,2015-02-21T16:55:00Z,-7.32,72.42,27.7,25.8,310,8,,6.21,29.861221,1010.8,,,,,,,,,,FEW,2000,SCT,8000,BKN,22000,,,VFR,,,,,,,,,,,,METAR,3.0
KBHC 211655Z AUTO 19016G22KT 10SM CLR 17/05 A3030 RMK AO2,KBHC,2015-02-21T16:55:00Z,31.72,-82.4,17.0,5.0,190,16,22,10.0,30.301182,,,TRUE,TRUE,,,,,,,CLR,,,,,,,,VFR,,,,,,,,,,,,METAR,61.0
KBGE 211655Z AUTO 16012G22KT 10SM CLR 19/07 A3027 RMK AO2,KBGE,2015-02-21T16:55:00Z,30.97,-84.63,19.0,7.0,160,12,22,10.0,30.268702,,,TRUE,TRUE,,,,,,,CLR,,,,,,,,VFR,,,,,,,,,,,,METAR,43.0
KBDG 211655Z AUTO 26004KT 10SM BKN110 06/M11 A3000 RMK AO1 T00551112,KBDG,2015-02-21T16:55:00Z,37.58,-109.47,5.5,-11.2,260,4,,10.0,30.0,,,TRUE,TRUE,,,,,,,BKN,11000,,,,,,,VFR,,,,,,,,,,,,METAR,1788.0
KBAC 211655Z AUTO 01017KT 8SM -SN FEW015 M18/M22 A3023 RMK AO2,KBAC,2015-02-21T16:55:00Z,46.93,-98.02,-18.0,-22.0,10,17,,8.0,30.230314,,,TRUE,TRUE,,,,,,-SN,FEW,1500,,,,,,,VFR,,,,,,,,,,,,METAR,684.0
KAZC 211655Z AUTO 00000KT 10SM SCT110 08/M07 A2998 RMK AO2 T00811070,KAZC,2015-02-21T16:55:00Z,36.97,-113.02,8.1,-7.0,0,0,,10.0,29.97933,,,TRUE,TRUE,,,,,,,SCT,11000,,,,,,,VFR,,,,,,,,,,,,METAR,1486.0
KAYS 211655Z AUTO 18012G22KT 10SM CLR 20/08 A3032 RMK AO2 T01970076,KAYS,2015-02-21T16:55:00Z,31.25,-82.4,19.7,7.6,180,12,22,10.0,30.318897,,,TRUE,TRUE,,,,,,,CLR,,,,,,,,VFR,,,,,,,,,,,,METAR,46.0
KAXX 211655Z AUTO 25013KT 10SM OVC075 01/M13 A2992 RMK AO2 T00131131,KAXX,2015-02-21T16:55:00Z,36.42,-105.28,1.3,-13.1,250,13,,10.0,29.920275,,,TRUE,TRUE,,,,,,,OVC,7500,,,,,,,VFR,,,,,,,,,,,,METAR,2548.0
KAVK 211655Z AUTO 06004KT 10SM CLR 07/02 A3006 RMK AO2,KAVK,2015-02-21T16:55:00Z,36.77,-98.67,7.0,2.0,60,4,,10.0,30.059055,,,TRUE,TRUE,,,,,,,CLR,,,,,,,,VFR,,,,,,,,,,,,METAR,449.0
KAUN 211655Z AUTO 00000KT 10SM CLR 11/08 A2996 RMK AO1,KAUN,2015-02-21T16:55:00Z,38.95,-121.08,11.0,8.0,0,0,,10.0,29.958662,,,TRUE,TRUE,,,,,,,CLR,,,,,,,,VFR,,,,,,,,,,,,METAR,467.0
KAPY 211655Z AUTO 16009G15KT 10SM CLR 22/15 A2989 RMK AO2 T02290152,KAPY,2015-02-21T16:55:00Z,26.97,-99.25,22.9,15.2,160,9,15,10.0,29.890747,,,TRUE,TRUE,,,,,,,CLR,,,,,,,,VFR,,,,,,,,,,,,METAR,129.0
KAJZ 211655Z AUTO 00000KT 10SM CLR 04/M06 A2994 RMK AO2 T00411064,KAJZ,2015-02-21T16:55:00Z,38.78,-108.07,4.1,-6.4,0,0,,10.0,29.940945,,,TRUE,TRUE,,,,,,,CLR,,,,,,,,VFR,,,,,,,,,,,,METAR,1583.0
KAJG 211655Z AUTO 00000KT 1 3/4SM UP BKN003 BKN014 OVC044 01/00 A2991 RMK AO2 P0002,KAJG,2015-02-21T16:55:00Z,38.62,-87.73,1.0,0.0,0,0,,1.75,29.911417,,,TRUE,TRUE,,,,,,UP,BKN,300,BKN,1400,OVC,4400,,,LIFR,,,,,,0.02,,,,,,METAR,131.0
KAEJ 211655Z AUTO 00000KT 10SM CLR M03/M07 A2987 RMK AO2 T10301069,KAEJ,2015-02-21T16:55:00Z,38.82,-106.12,-3.0,-6.9,0,0,,10.0,29.870079,,,TRUE,TRUE,,,,,,,CLR,,,,,,,,VFR,,,,,,,,,,,,METAR,2422.0
KADH 211655Z AUTO 34008KT 320V020 10SM OVC011 06/04 A2998 RMK AO2,KADH,2015-02-21T16:55:00Z,34.8,-96.67,6.0,4.0,340,8,,10.0,29.97933,,,TRUE,TRUE,,,,,,,OVC,1100,,,,,,,MVFR,,,,,,,,,,,,METAR,308.0
KAAA 211655Z AUTO 00000KT 7SM SCT080 M01/M05 A2996 RMK AO2 P0002 T10151050,KAAA,2015-02-21T16:55:00Z,40.17,-89.33,-1.5,-5.0,0,0,,7.0,29.958662,,,TRUE,TRUE,,,,,,,SCT,8000,,,,,,,VFR,,,,,,0.02,,,,,,METAR,182.0
K82C 211655Z AUTO 34005KT 10SM CLR M03/M08 A2992 RMK AO2 T10291084,K82C,2015-02-21T16:55:00Z,43.83,-90.13,-2.9,-8.4,340,5,,10.0,29.920275,,,TRUE,TRUE,,,,,,,CLR,,,,,,,,VFR,,,,,,,,,,,,METAR,276.0
K65S 211655Z AUTO 00000KT 10SM SCT050 SCT070 BKN085 01/M03 A3031 RMK AO2,K65S,2015-02-21T16:55:00Z,48.73,-116.3,1.0,-3.0,0,0,,10.0,30.31004,,,TRUE,TRUE,,,,,,,SCT,5000,SCT,7000,BKN,8500,,,VFR,,,,,,,,,,,,METAR,713.0
K5T9 211655Z AUTO 00000KT 10SM CLR 20/14 A2990 RMK A01,K5T9,2015-02-21T16:55:00Z,28.85,-100.52,20.0,14.0,0,0,,10.0,29.899607,,,TRUE,TRUE,,,,,,,CLR,,,,,,,,VFR,,,,,,,,,,,,METAR,270.0
K5C1 211655Z AUTO 20008KT 10SM BKN019 20/13 A2992 RMK AO1,K5C1,2015-02-21T16:55:00Z,29.72,-98.7,20.0,13.0,200,8,,10.0,29.920275,,,TRUE,TRUE,,,,,,,BKN,1900,,,,,,,MVFR,,,,,,,,,,,,METAR,423.0
K4O4 211655Z AUTO 32005KT 10SM SCT008 BKN028 BKN035 11/08 A2985 RMK AO2,K4O4,2015-02-21T16:55:00Z,33.92,-94.87,11.0,8.0,320,5,,10.0,29.84941,,,TRUE,TRUE,,,,,,,SCT,800,BKN,2800,BKN,3500,,,MVFR,,,,,,,,,,,,METAR,144.0
K4A9 211655Z AUTO 14003KT 10SM OVC024 02/M03 A3011 RMK AO2,K4A9,2015-02-21T16:55:00Z,34.47,-85.72,2.0,-3.0,140,3,,10.0,30.109253,,,TRUE,TRUE,,,,,,,OVC,2400,,,,,,,MVFR,,,,,,,,,,,,METAR,267.0
K40J 211655Z AUTO 15015G18KT 10SM CLR 19/07 A3031 RMK AO2 T01890067,K40J,2015-02-21T16:55:00Z,30.07,-83.57,18.9,6.7,150,15,18,10.0,30.31004,,,TRUE,TRUE,,,,,,,CLR,,,,,,,,VFR,,,,,,,,,,,,METAR,13.0
K3LF 211655Z AUTO 33004KT 7SM SCT037 M02/M05 A2993 RMK AO2 T10241046,K3LF,2015-02-21T16:55:00Z,39.17,-89.67,-2.4,-4.6,330,4,,7.0,29.929134,,,TRUE,TRUE,,,,,,,SCT,3700,,,,,,,VFR,,,,,,,,,,,,METAR,210.0
K3I2 211655Z AUTO 00000KT 1 1/2SM -SN SCT005 OVC011 02/01 A3002 RMK AO2,K3I2,2015-02-21T16:55:00Z,38.92,-82.1,2.0,1.0,0,0,,1.5,30.02067,,,TRUE,TRUE,,,,,,-SN,SCT,500,OVC,1100,,,,,IFR,,,,,,,,,,,,METAR,196.0
K36U 211655Z AUTO 00000KT 10SM -SN BKN007 BKN011 00/M02 A2996 RMK AO2,K36U,2015-02-21T16:55:00Z,40.48,-111.43,0.0,-2.0,0,0,,10.0,29.958662,,,TRUE,TRUE,,,,,,-SN,BKN,700,BKN,1100,,,,,IFR,,,,,,,,,,,,METAR,1718.0
K2I0 211655Z AUTO 36007KT 1 3/4SM RA OVC003 03/02 A2988 RMK AO2 P0010 T00250018,K2I0,2015-02-21T16:55:00Z,37.35,-87.4,2.5,1.8,360,7,,1.75,29.878937,,,TRUE,TRUE,,,,,,RA,OVC,300,,,,,,,LIFR,,,,,,0.1,,,,,,METAR,134.0
K2D5 211655Z AUTO 34017KT 10SM M16/M20 A3022 RMK AO2,K2D5,2015-02-21T16:55:00Z,46.17,-98.08,-16.0,-20.0,340,17,,10.0,30.221457,,,TRUE,TRUE,,,,,,,,,,,,,,,,,,,,,,,,,,,METAR,407.0
K1II 211655Z AUTO 33003KT 2SM -SN SCT005 OVC013 M01/M02 A2991 RMK AO2,K1II,2015-02-21T16:55:00Z,39.33,-86.03,-1.0,-2.0,330,3,,2.0,29.911417,,,TRUE,TRUE,,,,,,-SN,SCT,500,OVC,1300,,,,,IFR,,,,,,,,,,,,METAR,214.0
K1A5 211655Z AUTO 00000KT 3SM -SN 00/M05 A3026 RMK AO2 T10021054,K1A5,2015-02-21T16:55:00Z,35.22,-83.42,-0.2,-5.4,0,0,,3.0,30.259842,,,TRUE,TRUE,,,,,,-SN,,,,,,,,,,,,,,,,,,,,,METAR,616.0
K19A 211655Z AUTO 13004KT 10SM OVC080 05/M02 A3029 RMK AO2 TSNO,K19A,2015-02-21T16:55:00Z,34.18,-83.57,5.0,-2.0,130,4,,10.0,30.28937,,,TRUE,TRUE,,,TRUE,,,,OVC,8000,,,,,,,VFR,,,,,,,,,,,,METAR,290.0
K11R 211655Z AUTO 19014G19KT 10SM BKN021 22/18 A2992 RMK AO2 T02160175,K11R,2015-02-21T16:55:00Z,30.22,-96.37,21.6,17.5,190,14,19,10.0,29.920275,,,TRUE,TRUE,,,,,,,BKN,2100,,,,,,,MVFR,,,,,,,,,,,,METAR,94.0
K05U 211655Z AUTO 04005KT 10SM FEW065 04/M08 A3001 RMK AO1,K05U,2015-02-21T16:55:00Z,39.6,-116.0,4.0,-8.0,40,5,,10.0,30.008858,,,TRUE,TRUE,,,,,,,FEW,6500,,,,,,,VFR,,,,,,,,,,,,METAR,1816.0
KWDG 211655Z 36008G15KT 10SM BKN200 09/03 A3002,KWDG,2015-02-21T16:55:00Z,36.37,-97.77,9.0,3.0,360,8,15,10.0,30.02067,,,,,,,,,,,BKN,20000,,,,,,,VFR,,,,,,,,,,,,METAR,356.0
K1H2 211655Z AUTO 34004KT 10SM M01/M04 A2996 RMK AO2 T10081044,K1H2,2015-02-21T16:55:00Z,39.07,-88.53,-0.8,-4.4,340,4,,10.0,29.958662,,,TRUE,TRUE,,,,,,,,,,,,,,,,,,,,,,,,,,,METAR,179.0
KLGC 211655Z AUTO 18012G17KT 10SM OVC080 10/00 A3023 RMK AO2 T00951004,KLGC,2015-02-21T16:55:00Z,33.0,-85.07,9.5,-0.4,180,12,17,10.0,30.230314,,,TRUE,TRUE,,,,,,,OVC,8000,,,,,,,VFR,,,,,,,,,,,,METAR,211.0
KLKU 211655Z AUTO 19004KT 5SM -SN M07/M09 A3034 RMK AO2,KLKU,2015-02-21T16:55:00Z,38.02,-77.97,-7.0,-9.0,190,4,,5.0,30.339567,,,TRUE,TRUE,,,,,,-SN,,,,,,,,,,,,,,,,,,,,,METAR,150.0
KLRJ 211655Z AUTO 35014KT 10SM BKN060 OVC070 M06/M09 A3010 RMK AO2,KLRJ,2015-02-21T16:55:00Z,42.77,-96.2,-6.0,-9.0,350,14,,10.0,30.100393,,,TRUE,TRUE,,,,,,,BKN,6000,OVC,7000,,,,,VFR,,,,,,,,,,,,METAR,365.0
KLRU 211655Z AUTO 24010G14KT 10SM CLR 16/M02 A3001 RMK AO2 T01621021,KLRU,2015-02-21T16:55:00Z,32.27,-106.92,16.2,-2.1,240,10,14,10.0,30.008858,,,TRUE,TRUE,,,,,,,CLR,,,,,,,,VFR,,,,,,,,,,,,METAR,1358.0
KLXN 211655Z AUTO 36014KT 10SM BKN045 OVC070 05/M01 A3003 RMK AO2 T00521012,KLXN,2015-02-21T16:55:00Z,40.78,-99.77,5.2,-1.2,360,14,,10.0,30.029528,,,TRUE,TRUE,,,,,,,BKN,4500,OVC,7000,,,,,VFR,,,,,,,,,,,,METAR,734.0
KLSB 211655Z AUTO 35005KT 10SM CLR 15/00 A3000 RMK AO2,KLSB,2015-02-21T16:55:00Z,32.33,-108.7,15.0,0.0,350,5,,10.0,30.0,,,TRUE,TRUE,,,,,,,CLR,,,,,,,,VFR,,,,,,,,,,,,METAR,1307.0
KLXY 211655Z AUTO 21012G18KT 10SM BKN020 BKN024 OVC055 20/16 A2988 RMK AO2 T02000160,KLXY,2015-02-21T16:55:00Z,31.63,-96.52,20.0,16.0,210,12,18,10.0,29.878937,,,TRUE,TRUE,,,,,,,BKN,2000,BKN,2400,OVC,5500,,,MVFR,,,,,,,,,,,,METAR,166.0
KMLJ 211655Z AUTO 00000KT 10SM OVC100 12/02 A3030 RMK AO2,KMLJ,2015-02-21T16:55:00Z,33.15,-83.23,12.0,2.0,0,0,,10.0,30.301182,,,TRUE,TRUE,,,,,,,OVC,10000,,,,,,,VFR,,,,,,,,,,,,METAR,117.0
KMLE 211655Z AUTO 33006KT 10SM BKN014 BKN019 OVC025 02/M01 A3003 RMK AO2 T00231012,KMLE,2015-02-21T16:55:00Z,41.2,-96.12,2.3,-1.2,330,6,,10.0,30.029528,,,TRUE,TRUE,,,,,,,BKN,1400,BKN,1900,OVC,2500,,,MVFR,,,,,,,,,,,,METAR,320.0
KMXO 211655Z AUTO 02006KT 7SM BKN016 OVC049 M01/M04 A2994 RMK AO2,KMXO,2015-02-21T16:55:00Z,42.22,-91.17,-1.0,-4.0,20,6,,7.0,29.940945,,,TRUE,TRUE,,,,,,,BKN,1600,OVC,4900,,,,,MVFR,,,,,,,,,,,,METAR,259.0
KMUT 211655Z AUTO 00000KT 5SM BR OVC031 M01/M03 A2996 RMK AO2,KMUT,2015-02-21T16:55:00Z,41.37,-91.15,-1.0,-3.0,0,0,,5.0,29.958662,,,TRUE,TRUE,,,,,,BR,OVC,3100,,,,,,,MVFR,,,,,,,,,,,,METAR,167.0
KOEO 211655Z AUTO 32007KT 10SM BKN018 M08/M13 A3006 RMK AO2 T10851126,KOEO,2015-02-21T16:55:00Z,45.32,-92.7,-8.5,-12.6,320,7,,10.0,30.059055,,,TRUE,TRUE,,,,,,,BKN,1800,,,,,,,MVFR,,,,,,,,,,,,METAR,275.0
KOGA 211655Z AUTO 01007KT 10SM BKN018 OVC024 00/M01 A3004 RMK AO2 T00031008,KOGA,2015-02-21T16:55:00Z,41.12,-101.77,0.3,-0.8,10,7,,10.0,30.041338,,,TRUE,TRUE,,,,,,,BKN,1800,OVC,2400,,,,,MVFR,,,,,,,,,,,,METAR,999.0
KOKM 211655Z AUTO 34011G19KT 10SM OVC008 04/02 A3000 RMK AO2 T00380020,KOKM,2015-02-21T16:55:00Z,35.67,-95.95,3.8,2.0,340,11,19,10.0,30.0,,,TRUE,TRUE,,,,,,,OVC,800,,,,,,,IFR,,,,,,,,,,,,METAR,220.0
KOLG 211655Z AUTO 36005KT 10SM BKN023 OVC034 M11/M16 A3000 RMK AO1,KOLG,2015-02-21T16:55:00Z,46.3,-91.82,-11.0,-16.0,360,5,,10.0,30.0,,,TRUE,TRUE,,,,,,,BKN,2300,OVC,3400,,,,,MVFR,,,,,,,,,,,,METAR,336.0
KOLZ 211655Z AUTO 35008KT 7SM -UP OVC016 M03/M06 A2995 RMK AO2,KOLZ,2015-02-21T16:55:00Z,42.67,-91.97,-3.0,-6.0,350,8,,7.0,29.949802,,,TRUE,TRUE,,,,,,UP,OVC,1600,,,,,,,MVFR,,,,,,,,,,,,METAR,328.0
KOMH 211655Z AUTO 17008KT 2 1/2SM -SN SCT006 BKN018 OVC049 M07/M09 A3036 RMK AO2,KOMH,2015-02-21T16:55:00Z,38.25,-78.05,-7.0,-9.0,170,8,,2.5,30.360237,,,TRUE,TRUE,,,,,,-SN,SCT,600,BKN,1800,OVC,4900,,,IFR,,,,,,,,,,,,METAR,142.0
KONL 211655Z AUTO 35013KT 10SM OVC011 M04/M06 A3010 RMK AO2 T10431065,KONL,2015-02-21T16:55:00Z,42.47,-98.67,-4.3,-6.5,350,13,,10.0,30.100393,,,TRUE,TRUE,,,,,,,OVC,1100,,,,,,,MVFR,,,,,,,,,,,,METAR,619.0
KOSA 211655Z AUTO 29007KT 10SM SCT021 BKN026 OVC036 A2987 RMK AO1,KOSA,2015-02-21T16:55:00Z,33.1,-94.97,,,290,7,,10.0,29.870079,,,TRUE,TRUE,,,,,,,SCT,2100,BKN,2600,OVC,3600,,,MVFR,,,,,,,,,,,,METAR,111.0
KOUN 211655Z AUTO 01011G16KT 10SM OVC012 06/03 A3002 RMK AO2,KOUN,2015-02-21T16:55:00Z,35.25,-97.47,6.0,3.0,10,11,16,10.0,30.02067,,,TRUE,TRUE,,,,,,,OVC,1200,,,,,,,MVFR,,,,,,,,,,,,METAR,357.0
KORC 211655Z AUTO 34011G16KT 10SM BKN065 M07/M12 A3007 RMK AO2,KORC,2015-02-21T16:55:00Z,42.97,-96.07,-7.0,-12.0,340,11,16,10.0,30.070866,,,TRUE,TRUE,,,,,,,BKN,6500,,,,,,,VFR,,,,,,,,,,,,METAR,431.0
KOPL 211655Z AUTO 19017G24KT 10SM BKN055 OVC065 20/15 A3002 RMK AO2 T01970145,KOPL,2015-02-21T16:55:00Z,30.55,-92.1,19.7,14.5,190,17,24,10.0,30.02067,,,TRUE,TRUE,,,,,,,BKN,5500,OVC,6500,,,,,VFR,,,,,,,,,,,,METAR,23.0
KOXV 211655Z AUTO 34009G15KT 10SM OVC014 M01/M05 A2997 RMK AO2,KOXV,2015-02-21T16:55:00Z,41.28,-93.12,-1.0,-5.0,340,9,15,10.0,29.970472,,,TRUE,TRUE,,,,,,,OVC,1400,,,,,,,MVFR,,,,,,,,,,,,METAR,283.0
KPBX 211655Z AUTO 14008KT 3SM UP BKN002 OVC016 01/00 A2999 RMK AO2 T00060003,KPBX,2015-02-21T16:55:00Z,37.57,-82.57,0.6,0.3,140,8,,3.0,29.991142,,,TRUE,TRUE,,,,,,UP,BKN,200,OVC,1600,,,,,LIFR,,,,,,,,,,,,METAR,449.0
KPLU 211655Z AUTO 00000KT 10SM FEW017 06/06 A3031 RMK AO2,KPLU,2015-02-21T16:55:00Z,47.1,-122.28,6.0,6.0,0,0,,10.0,30.31004,,,TRUE,TRUE,,,,,,,FEW,1700,,,,,,,VFR,,,,,,,,,,,,METAR,164.0
KPEA 211655Z AUTO 34008KT 7SM SCT008 BKN013 00/M02 A2999 RMK AO2 T10051018,KPEA,2015-02-21T16:55:00Z,41.4,-92.95,-0.5,-1.8,340,8,,7.0,29.991142,,,TRUE,TRUE,,,,,,,SCT,800,BKN,1300,,,,,MVFR,,,,,,,,,,,,METAR,270.0
KPPA 211655Z AUTO 09008KT 10SM CLR 06/00 A3003 RMK AO2 T00641004,KPPA,2015-02-21T16:55:00Z,35.62,-101.0,6.4,-0.4,90,8,,10.0,30.029528,,,TRUE,TRUE,,,,,,,CLR,,,,,,,,VFR,,,,,,,,,,,,METAR,989.0
KPOY 211655Z AUTO 33022G27KT 3SM -SN SCT008 BKN012 OVC070 M08/M10 A3009 RMK AO2,KPOY,2015-02-21T16:55:00Z,44.87,-108.8,-8.0,-10.0,330,22,27,3.0,30.088583,,,TRUE,TRUE,,,,,,-SN,SCT,800,BKN,1200,OVC,7000,,,MVFR,,,,,,,,,,,,METAR,1552.0
KPNT 211655Z AUTO 00000KT 10SM OVC085 M02/M05 A2995 RMK AO2 T10251055,KPNT,2015-02-21T16:55:00Z,40.92,-88.62,-2.5,-5.5,0,0,,10.0,29.949802,,,TRUE,TRUE,,,,,,,OVC,8500,,,,,,,VFR,,,,,,,,,,,,METAR,201.0
KPRG 211655Z AUTO 01004KT 7SM -SN SCT019 BKN027 OVC039 M03/M05 A2993 RMK AO2 T10271047,KPRG,2015-02-21T16:55:00Z,39.7,-87.67,-2.7,-4.7,10,4,,7.0,29.929134,,,TRUE,TRUE,,,,,,-SN,SCT,1900,BKN,2700,OVC,3900,,,MVFR,,,,,,,,,,,,METAR,199.0
KRZR 211655Z AUTO 22011KT 10SM OVC060 03/M04 A3011 RMK,KRZR,2015-02-21T16:55:00Z,35.22,-84.8,3.0,-4.0,220,11,,10.0,30.109253,,,TRUE,,,,,,,,OVC,6000,,,,,,,VFR,,,,,,,,,,,,METAR,263.0
K1L0 211655Z AUTO 18016G23KT 7SM SCT065 OVC095 22/13 A3008 RMK AO2 T02160127,K1L0,2015-02-21T16:55:00Z,30.08,-90.58,21.6,12.7,180,16,23,7.0,30.079725,,,TRUE,TRUE,,,,,,,SCT,6500,OVC,9500,,,,,VFR,,,,,,,,,,,,METAR,2.0
KTEW 211655Z AUTO 28003KT 7SM OVC036 M06/M09 A2994 RMK AO2 T10621095,KTEW,2015-02-21T16:55:00Z,42.57,-84.42,-6.2,-9.5,280,3,,7.0,29.940945,,,TRUE,TRUE,,,,,,,OVC,3600,,,,,,,VFR,,,,,,,,,,,,SPECI,280.0
KLCK 211655Z AUTO 18006KT 3SM -SN OVC008 M01/M03 A2993 RMK AO2 T10131028,KLCK,2015-02-21T16:55:00Z,39.82,-82.92,-1.3,-2.8,180,6,,3.0,29.929134,,,TRUE,TRUE,,,,,,-SN,OVC,800,,,,,,,IFR,,,,,,,,,,,,METAR,227.0
KLCG 211655Z AUTO 35010G16KT 10SM OVC010 M04/M06 A3009 RMK AO2 T10361058,KLCG,2015-02-21T16:55:00Z,42.25,-96.98,-3.6,-5.8,350,10,16,10.0,30.088583,,,TRUE,TRUE,,,,,,,OVC,1000,,,,,,,MVFR,,,,,,,,,,,,METAR,436.0
KLAM 211655Z AUTO 17008KT 10SM CLR 04/M09 A2994 RMK AO2 T00431095,KLAM,2015-02-21T16:55:00Z,35.87,-106.27,4.3,-9.5,170,8,,10.0,29.940945,,,TRUE,TRUE,,,,,,,CLR,,,,,,,,VFR,,,,,,,,,,,,METAR,2179.0
KJGG 211655Z AUTO 16007KT 10SM BKN048 01/M09 A3043 RMK AO1,KJGG,2015-02-21T16:55:00Z,37.23,-76.72,1.0,-9.0,160,7,,10.0,30.431103,,,TRUE,TRUE,,,,,,,BKN,4800,,,,,,,VFR,,,,,,,,,,,,METAR,15.0
K54J 211655Z AUTO 16017G24KT 10SM BKN030 BKN037 17/10 A3022 RMK AO2 T01710095,K54J,2015-02-21T16:55:00Z,30.73,-86.15,17.1,9.5,160,17,24,10.0,30.221457,,,TRUE,TRUE,,,,,,,BKN,3000,BKN,3700,,,,,MVFR,,,,,,,,,,,,METAR,88.0
K3R7 211655Z AUTO 18012G19KT 10SM SCT050 BKN070 OVC080 20/15 A3002 RMK AO2 T01970150,K3R7,2015-02-21T16:55:00Z,30.25,-92.67,19.7,15.0,180,12,19,10.0,30.02067,,,TRUE,TRUE,,,,,,,SCT,5000,BKN,7000,OVC,8000,,,VFR,,,,,,,,,,,,METAR,7.0
K2G9 211655Z AUTO 16008KT 3SM -SN OVC014 M07/M10 A2999 RMK AO2 P0001,K2G9,2015-02-21T16:55:00Z,40.03,-79.02,-7.0,-10.0,160,8,,3.0,29.991142,,,TRUE,TRUE,,,,,,-SN,OVC,1400,,,,,,,MVFR,,,,,,0.01,,,,,,METAR,693.0
KLYV 211655Z AUTO 01012G17KT 10SM BKN085 M07/M12 A3010 RMK AO2,KLYV,2015-02-21T16:55:00Z,43.62,-96.22,-7.0,-12.0,10,12,17,10.0,30.100393,,,TRUE,TRUE,,,,,,,BKN,8500,,,,,,,VFR,,,,,,,,,,,,METAR,436.0
KCGC 211655Z AUTO 14009G15KT 10SM CLR 20/06 A3030 RMK AO2,KCGC,2015-02-21T16:55:00Z,28.87,-82.57,20.0,6.0,140,9,15,10.0,30.301182,,,TRUE,TRUE,,,,,,,CLR,,,,,,,,VFR,,,,,,,,,,,,METAR,3.0
EBFS 211655Z AUTO VRB02KT 5000 FEW011/// SCT014/// BKN044/// 01/01 Q1000 GRN,EBFS,2015-02-21T16:55:00Z,50.22,4.65,1.0,1.0,0,2,,3.11,29.52756,,,TRUE,,,,,,,,,,,,,,,,,,,,,,,,,,,,METAR,299.0
EBFN 211655Z 30009KT 9999 FEW015 SCT140 BKN160 05/01 Q1002 BLU,EBFN,2015-02-21T16:55:00Z,51.07,2.63,5.0,1.0,300,9,,6.21,29.586615,,,,,,,,,,,FEW,1500,SCT,14000,BKN,16000,,,VFR,,,,,,,,,,,,METAR,9.0
EBBL 211655Z 22005KT 9999 -RA SCT040 BKN100 04/01 Q1001 BLU,EBBL,2015-02-21T16:55:00Z,51.17,5.47,4.0,1.0,220,5,,6.21,29.557087,,,,,,,,,,-RA,SCT,4000,BKN,10000,,,,,VFR,,,,,,,,,,,,METAR,64.0
KY49 211655Z AUTO 31007KT 10SM SCT017 M16/M21 A3010 RMK AO2 T11651210,KY49,2015-02-21T16:55:00Z,47.13,-94.65,-16.5,-21.0,310,7,,10.0,30.100393,,,TRUE,TRUE,,,,,,,SCT,1700,,,,,,,VFR,,,,,,,,,,,,METAR,416.0
KY19 211655Z AUTO 35011KT 10SM FEW020 BKN026 BKN065 M13/M17 A3024 RMK AO2,KY19,2015-02-21T16:55:00Z,46.77,-100.9,-13.0,-17.0,350,11,,10.0,30.239174,,,TRUE,TRUE,,,,,,,FEW,2000,BKN,2600,BKN,6500,,,MVFR,,,,,,,,,,,,METAR,593.0
KWWR 211655Z AUTO 09004KT 10SM CLR 08/00 A3007 RMK AO2,KWWR,2015-02-21T16:55:00Z,36.45,-99.52,8.0,0.0,90,4,,10.0,30.070866,,,TRUE,TRUE,,,,,,,CLR,,,,,,,,VFR,,,,,,,,,,,,METAR,667.0
KW78 211655Z AUTO 19007KT 150V210 10SM OVC026 M01/M09 A3037 RMK AO1 T10101091,KW78,2015-02-21T16:55:00Z,36.68,-78.85,-1.0,-9.1,190,7,,10.0,30.369095,,,TRUE,TRUE,,,,,,,OVC,2600,,,,,,,MVFR,,,,,,,,,,,,METAR,129.0
KVYS 211655Z AUTO 00000KT 7SM BKN010 BKN037 OVC055 M03/M06 A2995 RMK AO2 T10311065,KVYS,2015-02-21T16:55:00Z,41.35,-89.15,-3.1,-6.5,0,0,,7.0,29.949802,,,TRUE,TRUE,,,,,,,BKN,1000,BKN,3700,OVC,5500,,,MVFR,,,,,,,,,,,,METAR,199.0
KVVG 211655Z AUTO 11011G16KT 6SM HZ 20/08 A3022 RMK A01,KVVG,2015-02-21T16:55:00Z,28.95,-81.97,20.0,8.0,110,11,16,6.0,30.221457,,,TRUE,TRUE,,,,,,HZ,,,,,,,,,,,,,,,,,,,,,METAR,27.0
KVNC 211655Z AUTO 12013G19KT 10SM CLR 22/10 A3028 RMK AO2,KVNC,2015-02-21T16:55:00Z,27.07,-82.43,22.0,10.0,120,13,19,10.0,30.280512,,,TRUE,TRUE,,,,,,,CLR,,,,,,,,VFR,,,,,,,,,,,,METAR,6.0
KVER 211655Z AUTO 24003KT 2 1/2SM BR OVC003 01/00 A2996 RMK AO2 T00080004,KVER,2015-02-21T16:55:00Z,38.95,-92.68,0.8,0.4,240,3,,2.5,29.958662,,,TRUE,TRUE,,,,,,BR,OVC,300,,,,,,,LIFR,,,,,,,,,,,,METAR,218.0
KUNU 211655Z AUTO 02004KT 10SM SCT026 M04/M09 A2992 RMK AO2 T10411091,KUNU,2015-02-21T16:55:00Z,43.42,-88.7,-4.1,-9.1,20,4,,10.0,29.920275,,,TRUE,TRUE,,,,,,,SCT,2600,,,,,,,VFR,,,,,,,,,,,,METAR,285.0
KUKF 211655Z AUTO 21003KT 10SM OVC042 M03/M06 A3036 RMK AO2,KUKF,2015-02-21T16:55:00Z,36.22,-81.1,-3.0,-6.0,210,3,,10.0,30.360237,,,TRUE,TRUE,,,,,,,OVC,4200,,,,,,,VFR,,,,,,,,,,,,METAR,396.0
KTMA 211655Z AUTO 19013G20KT 10SM CLR 17/02 A3028 RMK AO2 T01670022,KTMA,2015-02-21T16:55:00Z,31.43,-83.48,16.7,2.2,190,13,20,10.0,30.280512,,,TRUE,TRUE,,,,,,,CLR,,,,,,,,VFR,,,,,,,,,,,,METAR,109.0
KTFP 211655Z AUTO 20012G19KT 7SM BKN010 BKN015 OVC033 19/16 A2994 RMK AO2 T01940161,KTFP,2015-02-21T16:55:00Z,27.92,-97.22,19.4,16.1,200,12,19,7.0,29.940945,,,TRUE,TRUE,,,,,,,BKN,1000,BKN,1500,OVC,3300,,,MVFR,,,,,,,,,,,,METAR,6.0
KTBR 211655Z AUTO 18011G14KT 140V200 10SM CLR 16/06 A3032 RMK AO2 T01640058,KTBR,2015-02-21T16:55:00Z,32.48,-81.73,16.4,5.8,180,11,14,10.0,30.318897,,,TRUE,TRUE,,,,,,,CLR,,,,,,,,VFR,,,,,,,,,,,,METAR,57.0
KT35 211655Z AUTO 22009KT 10SM SCT023 OVC029 21/17 A2989 RMK AO2 T02090165,KT35,2015-02-21T16:55:00Z,30.88,-96.97,20.9,16.5,220,9,,10.0,29.890747,,,TRUE,TRUE,,,,,,,SCT,2300,OVC,2900,,,,,MVFR,,,,,,,,,,,,METAR,123.0
KSYF 211655Z AUTO 00000KT 10SM SCT018 BKN025 05/M01 A3000 RMK AO2 T00491013,KSYF,2015-02-21T16:55:00Z,39.77,-101.8,4.9,-1.3,0,0,,10.0,30.0,,,TRUE,TRUE,,,,,,,SCT,1800,BKN,2500,,,,,MVFR,,,,,,,,,,,,METAR,1025.0
KSWW 211655Z AUTO 01011KT 10SM OVC016 09/04 A3004 RMK AO2 T00900040,KSWW,2015-02-21T16:55:00Z,32.47,-100.47,9.0,4.0,10,11,,10.0,30.041338,,,TRUE,TRUE,,,,,,,OVC,1600,,,,,,,MVFR,,,,,,,,,,,,METAR,727.0
KSUW 211655Z AUTO 35007KT 10SM SCT028 SCT037 M10/M17 A3007 RMK AO2 T11031169,KSUW,2015-02-21T16:55:00Z,46.68,-92.1,-10.3,-16.9,350,7,,10.0,30.070866,,,TRUE,TRUE,,,,,,,SCT,2800,SCT,3700,,,,,VFR,,,,,,,,,,,,METAR,206.0
KSTE 211655Z AUTO 00000KT 10SM CLR M06/M11 A2992 RMK AO2 T10611112,KSTE,2015-02-21T16:55:00Z,44.55,-89.53,-6.1,-11.2,0,0,,10.0,29.920275,,,TRUE,TRUE,,,,,,,CLR,,,,,,,,VFR,,,,,,,,,,,,METAR,338.0
KSRR 211655Z AUTO 18004KT 10SM CLR 08/M04 A3004 RMK AO2,KSRR,2015-02-21T16:55:00Z,33.47,-105.52,8.0,-4.0,180,4,,10.0,30.041338,,,TRUE,TRUE,,,,,,,CLR,,,,,,,,VFR,,,,,,,,,,,,METAR,2076.0
KSFQ 211655Z AUTO 17008KT 10SM SCT037 OVC050 01/M09 A3044 RMK AO2 T00071093,KSFQ,2015-02-21T16:55:00Z,36.68,-76.6,0.7,-9.3,170,8,,10.0,30.43996,,,TRUE,TRUE,,,,,,,SCT,3700,OVC,5000,,,,,VFR,,,,,,,,,,,,METAR,22.0
KSEE 211655Z AUTO 06004KT 9SM OVC032 17/07 A3001 RMK AO2,KSEE,2015-02-21T16:55:00Z,32.82,-116.97,17.0,7.0,60,4,,9.0,30.008858,,,TRUE,TRUE,,,,,,,OVC,3200,,,,,,,VFR,,,,,,,,,,,,METAR,117.0
KSBO 211655Z AUTO 20014G20KT 10SM CLR 15/M05 A3033 RMK AO2,KSBO,2015-02-21T16:55:00Z,32.62,-82.37,15.0,-5.0,200,14,20,10.0,30.33071,,,TRUE,TRUE,,,,,,,CLR,,,,,,,,VFR,,,,,,,,,,,,METAR,100.0
KRYV 211655Z AUTO 00000KT 10SM BKN018 OVC024 M04/M09 A2992 RMK AO2 T10451086,KRYV,2015-02-21T16:55:00Z,43.17,-88.72,-4.5,-8.6,0,0,,10.0,29.920275,,,TRUE,TRUE,,,,,,,BKN,1800,OVC,2400,,,,,MVFR,,,,,,,,,,,,METAR,254.0
KRCR 211655Z AUTO 00000KT 1SM -SN OVC007 M03/M05 A2994 RMK AO2,KRCR,2015-02-21T16:55:00Z,41.07,-86.18,-3.0,-5.0,0,0,,1.0,29.940945,,,TRUE,TRUE,,,,,,-SN,OVC,700,,,,,,,IFR,,,,,,,,,,,,METAR,241.0
KRBO 211655Z AUTO 19013KT 10SM SCT027 BKN033 OVC038 23/18 A2993 RMK AO2 T02320175,KRBO,2015-02-21T16:55:00Z,27.78,-97.68,23.2,17.5,190,13,,10.0,29.929134,,,TRUE,TRUE,,,,,,,SCT,2700,BKN,3300,OVC,3800,,,VFR,,,,,,,,,,,,METAR,24.0
KRAS 211655Z AUTO 18007KT 5SM HZ SCT022 BKN028 OVC039 19/17 A2994 RMK AO2 T01920169,KRAS,2015-02-21T16:55:00Z,27.82,-97.08,19.2,16.9,180,7,,5.0,29.940945,,,TRUE,TRUE,,,,,,HZ,SCT,2200,BKN,2800,OVC,3900,,,MVFR,,,,,,,,,,,,METAR,2.0
KPSK 211655Z AUTO 19009KT 1/4SM SN OVC005 M03/M03 A3020 RMK AO2 P0001 T10271035,KPSK,2015-02-21T16:55:00Z,37.12,-80.67,-2.7,-3.5,190,9,,0.25,30.200787,,,TRUE,TRUE,,,,,,SN,OVC,500,,,,,,,LIFR,,,,,,0.01,,,,,,METAR,642.0
KPRS 211655Z AUTO 24003KT 10SM CLR 23/04 A2997 RMK AO2 T02260041,KPRS,2015-02-21T16:55:00Z,29.63,-104.35,22.6,4.1,240,3,,10.0,29.970472,,,TRUE,TRUE,,,,,,,CLR,,,,,,,,VFR,,,,,,,,,,,,METAR,896.0
KPNA 211655Z AUTO 00000KT 10SM SCT040 SCT095 SCT110 M05/M07 A2991 RMK AO2,KPNA,2015-02-21T16:55:00Z,42.8,-109.8,-5.0,-7.0,0,0,,10.0,29.911417,,,TRUE,TRUE,,,,,,,SCT,4000,SCT,9500,SCT,11000,,,VFR,,,,,,,,,,,,METAR,2160.0
KHRX 211655Z AUTO 11006KT 10SM CLR 08/00 A3004 RMK AO2 T00780001,KHRX,2015-02-21T16:55:00Z,34.87,-102.33,7.8,0.1,110,6,,10.0,30.041338,,,TRUE,TRUE,,,,,,,CLR,,,,,,,,VFR,,,,,,,,,,,,METAR,1154.0
KHOE 211655Z AUTO 17012G23KT 10SM CLR 19/07 A3031 RMK AO2,KHOE,2015-02-21T16:55:00Z,31.05,-82.78,19.0,7.0,170,12,23,10.0,30.31004,,,TRUE,TRUE,,,,,,,CLR,,,,,,,,VFR,,,,,,,,,,,,METAR,57.0
KHII 211655Z AUTO 30005KT 10SM CLR 16/01 A2988 RMK AO2,KHII,2015-02-21T16:55:00Z,34.57,-114.37,16.0,1.0,300,5,,10.0,29.878937,,,TRUE,TRUE,,,,,,,CLR,,,,,,,,VFR,,,,,,,,,,,,METAR,238.0
KHHG 211655Z AUTO 00000KT 1SM -SN OVC014 M05/M09 A2993 RMK AO2 P0001 T10551086,KHHG,2015-02-21T16:55:00Z,40.85,-85.45,-5.5,-8.6,0,0,,1.0,29.929134,,,TRUE,TRUE,,,,,,-SN,OVC,1400,,,,,,,IFR,,,,,,0.01,,,,,,METAR,246.0
KHFJ 211655Z AUTO 35009KT 1 1/4SM BR OVC002 00/00 A2996 RMK AO2,KHFJ,2015-02-21T16:55:00Z,36.9,-94.02,0.0,0.0,350,9,,1.25,29.958662,,,TRUE,TRUE,,,,,,BR,OVC,200,,,,,,,LIFR,,,,,,,,,,,,METAR,401.0
KGVE 211655Z AUTO 20004KT 2 1/2SM BR SCT014 OVC034 M09/M11 A3035 RMK AO1 T10861110,KGVE,2015-02-21T16:55:00Z,38.15,-78.17,-8.6,-11.0,200,4,,2.5,30.351377,,,TRUE,TRUE,,,,,,BR,SCT,1400,OVC,3400,,,,,IFR,,,,,,,,,,,,METAR,138.0
KFZG 211655Z AUTO 19014G21KT 10SM CLR 18/00 A3031 RMK AO2 T01760000 PWINO,KFZG,2015-02-21T16:55:00Z,31.68,-83.27,17.6,0.0,190,14,21,10.0,30.31004,,,TRUE,TRUE,,,,,TRUE,,CLR,,,,,,,,VFR,,,,,,,,,,,,METAR,111.0
KFXY 211655Z AUTO 34014KT 5SM BR OVC005 M07/M08 A2999 RMK AO2,KFXY,2015-02-21T16:55:00Z,43.23,-93.62,-7.0,-8.0,340,14,,5.0,29.991142,,,TRUE,TRUE,,,,,,BR,OVC,500,,,,,,,IFR,,,,,,,,,,,,METAR,375.0
KENL 211655Z AUTO 34005KT 5SM BR BKN004 OVC009 M01/M02 A2993 RMK AO2 P0002 T10091022,KENL,2015-02-21T16:55:00Z,38.52,-89.1,-0.9,-2.2,340,5,,5.0,29.929134,,,TRUE,TRUE,,,,,,BR,BKN,400,OVC,900,,,,,LIFR,,,,,,0.02,,,,,,METAR,163.0
KEMM 211655Z AUTO 25007KT 10SM BKN009 BKN015 BKN022 M02/M05 A2990 RMK AO2,KEMM,2015-02-21T16:55:00Z,41.82,-110.55,-2.0,-5.0,250,7,,10.0,29.899607,,,TRUE,TRUE,,,,,,,BKN,900,BKN,1500,BKN,2200,,,IFR,,,,,,,,,,,,METAR,2220.0
KEFT 211655Z AUTO 01005KT 10SM OVC018 M03/M07 A2991 RMK AO2,KEFT,2015-02-21T16:55:00Z,42.62,-89.6,-3.0,-7.0,10,5,,10.0,29.911417,,,TRUE,TRUE,,,,,,,OVC,1800,,,,,,,MVFR,,,,,,,,,,,,METAR,331.0
KDTA 211655Z AUTO 21006KT 10SM CLR 05/M05 A2999 RMK AO1 T00461050,KDTA,2015-02-21T16:55:00Z,39.38,-112.5,4.6,-5.0,210,6,,10.0,29.991142,,,TRUE,TRUE,,,,,,,CLR,,,,,,,,VFR,,,,,,,,,,,,METAR,1402.0
KDNN 211655Z AUTO 15012G20KT 10SM OVC070 03/M03 A3017 RMK AO2,KDNN,2015-02-21T16:55:00Z,34.72,-84.87,3.0,-3.0,150,12,20,10.0,30.171259,,,TRUE,TRUE,,,,,,,OVC,7000,,,,,,,VFR,,,,,,,,,,,,METAR,216.0
KDCY 211655Z AUTO 00000KT 1/2SM -SN BKN003 OVC009 00/M02 A2991 RMK AO2 P0003 T00001016,KDCY,2015-02-21T16:55:00Z,38.7,-87.13,0.0,-1.6,0,0,,0.5,29.911417,,,TRUE,TRUE,,,,,,-SN,BKN,300,OVC,900,,,,,LIFR,,,,,,0.03,,,,,,METAR,144.0
KCKM 211655Z AUTO 19015G23KT 5SM BKN018 OVC026 15/15 A2984 RMK AO1 P0007,KCKM,2015-02-21T16:55:00Z,34.3,-90.52,15.0,15.0,190,15,23,5.0,29.840551,,,TRUE,TRUE,,,,,,,BKN,1800,OVC,2600,,,,,MVFR,,,,,,0.07,,,,,,METAR,53.0
KCDH 211655Z AUTO 8SM BKN021 OVC026 18/15 A2982 RMK AO2 P0001,KCDH,2015-02-21T16:55:00Z,33.62,-92.77,18.0,15.0,,,,8.0,29.819881,,,TRUE,TRUE,,,,,,,BKN,2100,OVC,2600,,,,,MVFR,,,,,,0.01,,,,,,METAR,35.0
KBKD 211655Z AUTO 34014G18KT 5SM HZ OVC016 09/04 A3000 RMK AO2 T00930035,KBKD,2015-02-21T16:55:00Z,32.72,-98.88,9.3,3.5,340,14,18,5.0,30.0,,,TRUE,TRUE,,,,,,HZ,OVC,1600,,,,,,,MVFR,,,,,,,,,,,,METAR,392.0
KAZE 211655Z AUTO 19009G14KT 10SM CLR 17/04 A3030 RMK AO2 T01730035,KAZE,2015-02-21T16:55:00Z,31.88,-82.65,17.3,3.5,190,9,14,10.0,30.301182,,,TRUE,TRUE,,,,,,,CLR,,,,,,,,VFR,,,,,,,,,,,,METAR,78.0
KASJ 211655Z AUTO 15006KT 10SM BKN036 02/M06 A3043 RMK AO2 T00191057,KASJ,2015-02-21T16:55:00Z,36.28,-77.17,1.9,-5.7,150,6,,10.0,30.431103,,,TRUE,TRUE,,,,,,,BKN,3600,,,,,,,VFR,,,,,,,,,,,,METAR,21.0
KACP 211655Z AUTO 17010G17KT 10SM OVC044 20/15 A3000 RMK AO2 T02000150,KACP,2015-02-21T16:55:00Z,30.75,-92.68,20.0,15.0,170,10,17,10.0,30.0,,,TRUE,TRUE,,,,,,,OVC,4400,,,,,,,VFR,,,,,,,,,,,,METAR,33.0
KACJ 211655Z AUTO 17011G17KT 150V230 10SM CLR 15/02 A3029 RMK AO2,KACJ,2015-02-21T16:55:00Z,32.12,-84.18,15.0,2.0,170,11,17,10.0,30.28937,,,TRUE,TRUE,,,,,,,CLR,,,,,,,,VFR,,,,,,,,,,,,METAR,143.0
K5H4 211655Z AUTO 32010KT 10SM BKN020 M18/M22 A3026 RMK AO2,K5H4,2015-02-21T16:55:00Z,47.78,-99.93,-18.0,-22.0,320,10,,10.0,30.259842,,,TRUE,TRUE,,,,,,,BKN,2000,,,,,,,MVFR,,,,,,,,,,,,METAR,490.0
K3T5 211655Z AUTO 20013G19KT 10SM BKN020 BKN025 BKN042 22/18 A2990 RMK AO2 T02170180,K3T5,2015-02-21T16:55:00Z,29.9,-96.95,21.7,18.0,200,13,19,10.0,29.899607,,,TRUE,TRUE,,,,,,,BKN,2000,BKN,2500,BKN,4200,,,MVFR,,,,,,,,,,,,METAR,99.0
K3N8 211655Z AUTO 32010KT 10SM BKN017 OVC022 M20/M23 A3018 RMK AO2 T12011229,K3N8,2015-02-21T16:55:00Z,47.25,-95.88,-20.1,-22.9,320,10,,10.0,30.180119,,,TRUE,TRUE,,,,,,,BKN,1700,OVC,2200,,,,,MVFR,,,,,,,,,,,,METAR,383.0
K2C8 211655Z AUTO 33012G17KT 10SM CLR M19/M23 A3029 RMK AO2,K2C8,2015-02-21T16:55:00Z,48.78,-97.63,-19.0,-23.0,330,12,17,10.0,30.28937,,,TRUE,TRUE,,,,,,,CLR,,,,,,,,VFR,,,,,,,,,,,,METAR,272.0
K20U 211655Z AUTO 36015G19KT 10SM SCT023 M12/M16 A3025 RMK AO2,K20U,2015-02-21T16:55:00Z,46.93,-103.98,-12.0,-16.0,360,15,19,10.0,30.250984,,,TRUE,TRUE,,,,,,,SCT,2300,,,,,,,VFR,,,,,,,,,,,,METAR,840.0
K1F0 211655Z AUTO 36006KT 10SM OVC013 06/03 A2999 RMK AO2,K1F0,2015-02-21T16:55:00Z,34.15,-97.12,6.0,3.0,360,6,,10.0,29.991142,,,TRUE,TRUE,,,,,,,OVC,1300,,,,,,,MVFR,,,,,,,,,,,,METAR,257.0
KPGV 211655Z AUTO 00000KT 10SM BKN037 OVC044 05/M03 A3042 RMK AO2,KPGV,2015-02-21T16:55:00Z,35.62,-77.4,5.0,-3.0,0,0,,10.0,30.41929,,,TRUE,TRUE,,,,,,,BKN,3700,OVC,4400,,,,,VFR,,,,,,,,,,,,METAR,8.0
KOZA 211655Z AUTO 02007KT 10SM CLR 15/06 A3000 RMK AO2,KOZA,2015-02-21T16:55:00Z,30.73,-101.2,15.0,6.0,20,7,,10.0,30.0,,,TRUE,TRUE,,,,,,,CLR,,,,,,,,VFR,,,,,,,,,,,,METAR,726.0
KOOA 211655Z AUTO 35011KT 5SM HZ BKN015 OVC027 00/M03 A2997 RMK AO2 T00001031,KOOA,2015-02-21T16:55:00Z,41.23,-92.5,0.0,-3.1,350,11,,5.0,29.970472,,,TRUE,TRUE,,,,,,HZ,BKN,1500,OVC,2700,,,,,MVFR,,,,,,,,,,,,METAR,256.0
KOLY 211655Z AUTO 00000KT 4SM BR OVC003 M01/M01 A2993 RMK AO2 P0001,KOLY,2015-02-21T16:55:00Z,38.72,-88.18,-1.0,-1.0,0,0,,4.0,29.929134,,,TRUE,TRUE,,,,,,BR,OVC,300,,,,,,,LIFR,,,,,,0.01,,,,,,METAR,147.0
KOCQ 211655Z AUTO 36004KT 10SM OVC120 M05/M11 A2993 RMK AO1 T10501113,KOCQ,2015-02-21T16:55:00Z,44.87,-87.92,-5.0,-11.3,360,4,,10.0,29.929134,,,TRUE,TRUE,,,,,,,OVC,12000,,,,,,,VFR,,,,,,,,,,,,METAR,183.0
KNY0 211655Z AUTO 10008KT 10SM BKN046 BKN050 OVC090 M11/M20 A3020 RMK AO2 T11131203,KNY0,2015-02-21T16:55:00Z,42.98,-74.33,-11.3,-20.3,100,8,,10.0,30.200787,,,TRUE,TRUE,,,,,,,BKN,4600,BKN,5000,OVC,9000,,,VFR,,,,,,,,,,,,METAR,271.0
KMZZ 211655Z AUTO 00000KT 2SM -SN OVC036 M05/M06 A2992 RMK AO2 P0001 T10471065,KMZZ,2015-02-21T16:55:00Z,40.48,-85.68,-4.7,-6.5,0,0,,2.0,29.920275,,,TRUE,TRUE,,,,,,-SN,OVC,3600,,,,,,,IFR,,,,,,0.01,,,,,,METAR,262.0
KMYZ 211655Z AUTO 02005KT 10SM CLR 04/00 A3001 RMK AO2,KMYZ,2015-02-21T16:55:00Z,39.25,-96.63,4.0,0.0,20,5,,10.0,30.008858,,,TRUE,TRUE,,,,,,,CLR,,,,,,,,VFR,,,,,,,,,,,,METAR,319.0
KMWK 211655Z AUTO 00000KT 10SM OVC043 M03/M06 A3033 RMK AO2 T10291063,KMWK,2015-02-21T16:55:00Z,36.47,-80.55,-2.9,-6.3,0,0,,10.0,30.33071,,,TRUE,TRUE,,,,,,,OVC,4300,,,,,,,VFR,,,,,,,,,,,,METAR,380.0
KMTV 211655Z AUTO 22005KT 10SM BKN023 OVC043 M02/M09 A3036 RMK AO2 T10201089,KMTV,2015-02-21T16:55:00Z,36.63,-80.02,-2.0,-8.9,220,5,,10.0,30.360237,,,TRUE,TRUE,,,,,,,BKN,2300,OVC,4300,,,,,MVFR,,,,,,,,,,,,METAR,287.0
KMPZ 211655Z AUTO 31004KT 5SM HZ OVC034 00/M03 A2995 RMK AO2 T10031031,KMPZ,2015-02-21T16:55:00Z,40.95,-91.52,-0.3,-3.1,310,4,,5.0,29.949802,,,TRUE,TRUE,,,,,,HZ,OVC,3400,,,,,,,MVFR,,,,,,,,,,,,METAR,224.0
KMNE 211655Z AUTO 18011G20KT 10SM BKN020 OVC028 20/16 A2989 RMK AO2 T01980157,KMNE,2015-02-21T16:55:00Z,32.65,-93.3,19.8,15.7,180,11,20,10.0,29.890747,,,TRUE,TRUE,,,,,,,BKN,2000,OVC,2800,,,,,MVFR,,,,,,,,,,,,METAR,85.0
KMKJ 211655Z AUTO 18007KT 3/4SM -SN OVC012 00/M02 A3014 RMK AO2 P0003 T00021022,KMKJ,2015-02-21T16:55:00Z,36.88,-81.33,0.2,-2.2,180,7,,0.75,30.138779,,,TRUE,TRUE,,,,,,-SN,OVC,1200,,,,,,,LIFR,,,,,,0.03,,,,,,METAR,780.0
KMGC 211655Z AUTO 00000KT 10SM OVC034 M05/M10 A2996 RMK AO2,KMGC,2015-02-21T16:55:00Z,41.7,-86.82,-5.0,-10.0,0,0,,10.0,29.958662,,,TRUE,TRUE,,,,,,,OVC,3400,,,,,,,VFR,,,,,,,,,,,,METAR,200.0
KMDZ 211655Z AUTO 35006KT 10SM BKN014 OVC065 M08/M12 A2990 RMK AO2 T10811120,KMDZ,2015-02-21T16:55:00Z,45.1,-90.3,-8.1,-12.0,350,6,,10.0,29.899607,,,TRUE,TRUE,,,,,,,BKN,1400,OVC,6500,,,,,MVFR,,,,,,,,,,,,METAR,448.0
KMDD 211655Z AUTO 07010G14KT 10SM CLR 12/04 A3002 RMK AO2 T01230040,KMDD,2015-02-21T16:55:00Z,32.03,-102.1,12.3,4.0,70,10,14,10.0,30.02067,,,TRUE,TRUE,,,,,,,CLR,,,,,,,,VFR,,,,,,,,,,,,METAR,854.0
KLWB 211655Z AUTO 03007KT 1/2SM -SN VV005 M08/M10 A3013 RMK AO2 P0003 T10781098,KLWB,2015-02-21T16:55:00Z,37.87,-80.4,-7.8,-9.8,30,7,,0.5,30.129921,,,TRUE,TRUE,,,,,,-SN,OVX,0,,,,,,,LIFR,,,,,,0.03,,,,,500,METAR,702.0
KLOT 211655Z AUTO 00000KT 7SM OVC031 M04/M08 A2994 RMK AO2 T10451079,KLOT,2015-02-21T16:55:00Z,41.6,-88.1,-4.5,-7.9,0,0,,7.0,29.940945,,,TRUE,TRUE,,,,,,,OVC,3100,,,,,,,VFR,,,,,,,,,,,,METAR,205.0
KLNP 211655Z AUTO 16016G23KT OVC003 00/00 A3002 RMK AO2 P0013 PWINO,KLNP,2015-02-21T16:55:00Z,36.97,-82.52,0.0,0.0,160,16,23,,30.02067,,,TRUE,TRUE,,,,,TRUE,,OVC,300,,,,,,,,,,,,,0.13,,,,,,METAR,817.0
KLNL 211655Z AUTO 33006KT 4SM -SN OVC019 M10/M15 A2990 RMK AO2 T11051149,KLNL,2015-02-21T16:55:00Z,46.15,-89.22,-10.5,-14.9,330,6,,4.0,29.899607,,,TRUE,TRUE,,,,,,-SN,OVC,1900,,,,,,,MVFR,,,,,,,,,,,,METAR,520.0
KJOT 211655Z AUTO 00000KT 7SM OVC032 M04/M07 A2994 RMK AO2 T10431075,KJOT,2015-02-21T16:55:00Z,41.52,-88.18,-4.3,-7.5,0,0,,7.0,29.940945,,,TRUE,TRUE,,,,,,,OVC,3200,,,,,,,VFR,,,,,,,,,,,,METAR,177.0
KJES 211655Z AUTO 21008G18KT 180V240 10SM CLR 19/08 A3032 RMK AO2,KJES,2015-02-21T16:55:00Z,31.55,-81.88,19.0,8.0,210,8,18,10.0,30.318897,,,TRUE,TRUE,,,,,,,CLR,,,,,,,,VFR,,,,,,,,,,,,METAR,33.0
KQTZ 211655Z 03006KT 9999 BKN055 09/03 A2992 RMK SLP132 WND DATA ESTMD ALSTG/SLP ESTMD,KQTZ,2015-02-21T16:55:00Z,100.65,-1000.65,9.0,3.0,30,6,,6.21,29.920275,1013.2,,,,,,,,,,BKN,5500,,,,,,,VFR,,,,,,,,,,,,METAR,999.0
KQTH 211655Z AUTO 15012KT 100V180 9999 CLR 22/12 A2999 RMK AO2 SLP140 T02150123,KQTH,2015-02-21T16:55:00Z,100.65,-1000.65,21.5,12.3,150,12,,6.21,29.991142,1014.0,,TRUE,TRUE,,,,,,,CLR,,,,,,,,VFR,,,,,,,,,,,,METAR,999.0
KF17 211655Z AUTO 17009G15KT 10SM -DZ BKN022 OVC030 18/17 A2990 RMK AO2 P0001 T01830165,KF17,2015-02-21T16:55:00Z,31.83,-94.15,18.3,16.5,170,9,15,10.0,29.899607,,,TRUE,TRUE,,,,,,-DZ,BKN,2200,OVC,3000,,,,,MVFR,,,,,,0.01,,,,,,METAR,97.0
K3AU 211655Z AUTO 31004KT 10SM CLR 07/02 A3000 RMK AO2,K3AU,2015-02-21T16:55:00Z,37.67,-97.08,7.0,2.0,310,4,,10.0,30.0,,,TRUE,TRUE,,,,,,,CLR,,,,,,,,VFR,,,,,,,,,,,,METAR,405.0
KSCR 211655Z AUTO 00000KT 10SM OVC018 00/M07 A3035 RMK AO2 T10011070,KSCR,2015-02-21T16:55:00Z,35.7,-79.5,-0.1,-7.0,0,0,,10.0,30.351377,,,TRUE,TRUE,,,,,,,OVC,1800,,,,,,,MVFR,,,,,,,,,,,,METAR,188.0
KY51 211655Z AUTO 36006KT 7SM CLR M03/M07 A2991 RMK AO1 T10331075,KY51,2015-02-21T16:55:00Z,43.58,-90.9,-3.3,-7.5,360,6,,7.0,29.911417,,,TRUE,TRUE,,,,,,,CLR,,,,,,,,VFR,,,,,,,,,,,,METAR,394.0
KY23 211655Z AUTO 32003KT 10SM SCT095 M09/M14 A2999 RMK AO2 T10861140,KY23,2015-02-21T16:55:00Z,45.3,-91.63,-8.6,-14.0,320,3,,10.0,29.991142,,,TRUE,TRUE,,,,,,,SCT,9500,,,,,,,VFR,,,,,,,,,,,,METAR,322.0
KXSA 211655Z AUTO 19007KT 10SM OVC046 00/M16 A3041 RMK AO2 T10051165,KXSA,2015-02-21T16:55:00Z,37.87,-76.9,-0.5,-16.5,190,7,,10.0,30.410433,,,TRUE,TRUE,,,,,,,OVC,4600,,,,,,,VFR,,,,,,,,,,,,METAR,42.0
KW22 211655Z AUTO 22013KT 4SM -RA FEW001 BKN019 OVC025 03/02 A2999 RMK AO2,KW22,2015-02-21T16:55:00Z,39.0,-80.27,3.0,2.0,220,13,,4.0,29.991142,,,TRUE,TRUE,,,,,,-RA,FEW,100,BKN,1900,OVC,2500,,,MVFR,,,,,,,,,,,,METAR,499.0
KVUJ 211655Z AUTO 18003KT 10SM OVC015 01/M06 A3040 RMK AO2 T00081056,KVUJ,2015-02-21T16:55:00Z,35.42,-80.15,0.8,-5.6,180,3,,10.0,30.398623,,,TRUE,TRUE,,,,,,,OVC,1500,,,,,,,MVFR,,,,,,,,,,,,METAR,186.0
KVES 211655Z AUTO 04004KT 3/4SM -SN OVC012 M05/M06 A2992 RMK AO2 P0002,KVES,2015-02-21T16:55:00Z,40.2,-84.53,-5.0,-6.0,40,4,,0.75,29.920275,,,TRUE,TRUE,,,,,,-SN,OVC,1200,,,,,,,LIFR,,,,,,0.02,,,,,,METAR,307.0
KUXL 211655Z AUTO 18016G22KT 10SM BKN046 BKN060 OVC075 21/16 A3002 RMK AO2 T02050155,KUXL,2015-02-21T16:55:00Z,30.13,-93.38,20.5,15.5,180,16,22,10.0,30.02067,,,TRUE,TRUE,,,,,,,BKN,4600,BKN,6000,OVC,7500,,,VFR,,,,,,,,,,,,METAR,4.0
KUBE 211655Z AUTO 35010KT 10SM BKN025 BKN110 M09/M15 A2998 RMK AO2,KUBE,2015-02-21T16:55:00Z,45.5,-91.98,-9.0,-15.0,350,10,,10.0,29.97933,,,TRUE,TRUE,,,,,,,BKN,2500,BKN,11000,,,,,MVFR,,,,,,,,,,,,METAR,379.0
KU68 211655Z AUTO 00000KT 10SM OVC025 M03/M08 A3015 RMK AO2,KU68,2015-02-21T16:55:00Z,44.92,-108.45,-3.0,-8.0,0,0,,10.0,30.15059,,,TRUE,TRUE,,,,,,,OVC,2500,,,,,,,MVFR,,,,,,,,,,,,METAR,1247.0
KTVI 211655Z AUTO 17015G22KT 140V200 10SM CLR 18/06 A3028 RMK AO2,KTVI,2015-02-21T16:55:00Z,30.9,-83.88,18.0,6.0,170,15,22,10.0,30.280512,,,TRUE,TRUE,,,,,,,CLR,,,,,,,,VFR,,,,,,,,,,,,METAR,80.0
KTNU 211655Z AUTO 32009KT 7SM OVC008 M03/M04 A2998 RMK AO2,KTNU,2015-02-21T16:55:00Z,41.67,-93.02,-3.0,-4.0,320,9,,7.0,29.97933,,,TRUE,TRUE,,,,,,,OVC,800,,,,,,,IFR,,,,,,,,,,,,METAR,290.0
KTNB 211655Z AUTO 25012G25KT 200V270 7SM -SN SCT019 SCT030 BKN080 M03/M14 A3016 RMK AO2 T10301141,KTNB,2015-02-21T16:55:00Z,36.2,-81.65,-3.0,-14.1,250,12,25,7.0,30.159449,,,TRUE,TRUE,,,,,,-SN,SCT,1900,SCT,3000,BKN,8000,,,VFR,,,,,,,,,,,,METAR,911.0
KTIF 211655Z AUTO 01012KT 5SM BR OVC006 M03/M04 A3009 RMK AO2 T10301037,KTIF,2015-02-21T16:55:00Z,41.97,-100.57,-3.0,-3.7,10,12,,5.0,30.088583,,,TRUE,TRUE,,,,,,BR,OVC,600,,,,,,,IFR,,,,,,,,,,,,METAR,892.0
KTDF 211655Z AUTO 19004KT 10SM OVC020 M01/M07 A3037 RMK AO2,KTDF,2015-02-21T16:55:00Z,36.28,-78.98,-1.0,-7.0,190,4,,10.0,30.369095,,,TRUE,TRUE,,,,,,,OVC,2000,,,,,,,MVFR,,,,,,,,,,,,METAR,186.0
KTAZ 211655Z AUTO 36004KT 10SM SCT050 M02/M05 A2994 RMK AO2,KTAZ,2015-02-21T16:55:00Z,39.53,-89.33,-2.0,-5.0,360,4,,10.0,29.940945,,,TRUE,TRUE,,,,,,,SCT,5000,,,,,,,VFR,,,,,,,,,,,,METAR,190.0
KT65 211655Z AUTO 19020G30KT 7SM BKN027 BKN032 25/17 A2991 RMK AO2 T02460173,KT65,2015-02-21T16:55:00Z,26.18,-97.97,24.6,17.3,190,20,30,7.0,29.911417,,,TRUE,TRUE,,,,,,,BKN,2700,BKN,3200,,,,,MVFR,,,,,,,,,,,,METAR,21.0
KSVH 211655Z AUTO 22005KT 10SM OVC019 00/M09 A3032 RMK AO2 T00001086,KSVH,2015-02-21T16:55:00Z,35.75,-80.95,0.0,-8.6,220,5,,10.0,30.318897,,,TRUE,TRUE,,,,,,,OVC,1900,,,,,,,MVFR,,,,,,,,,,,,METAR,294.0
KSOA 211655Z AUTO 02010KT 10SM CLR 15/07 A3001 RMK AO2,KSOA,2015-02-21T16:55:00Z,30.58,-100.65,15.0,7.0,20,10,,10.0,30.008858,,,TRUE,TRUE,,,,,,,CLR,,,,,,,,VFR,,,,,,,,,,,,METAR,652.0
KSNK 211655Z AUTO 03008G15KT 10SM CLR 10/01 A3002 RMK AO2 T00960013 TSNO,KSNK,2015-02-21T16:55:00Z,32.7,-100.95,9.6,1.3,30,8,15,10.0,30.02067,,,TRUE,TRUE,,,TRUE,,,,CLR,,,,,,,,VFR,,,,,,,,,,,,METAR,741.0
KSME 211655Z AUTO 18006KT 2SM RA SCT024 BKN042 OVC060 00/00 A3002 RMK AO2 P0019,KSME,2015-02-21T16:55:00Z,37.05,-84.62,0.0,0.0,180,6,,2.0,30.02067,,,TRUE,TRUE,,,,,,RA,SCT,2400,BKN,4200,OVC,6000,,,IFR,,,,,,0.19,,,,,,METAR,283.0
KSLB 211655Z AUTO 33015KT 10SM FEW013 SCT070 M07/M11 A3004 RMK AO2,KSLB,2015-02-21T16:55:00Z,42.6,-95.22,-7.0,-11.0,330,15,,10.0,30.041338,,,TRUE,TRUE,,,,,,,FEW,1300,SCT,7000,,,,,VFR,,,,,,,,,,,,METAR,454.0
KSHL 211655Z AUTO 35012G18KT 10SM OVC070 M06/M11 A3006 RMK AO2,KSHL,2015-02-21T16:55:00Z,43.22,-95.82,-6.0,-11.0,350,12,18,10.0,30.059055,,,TRUE,TRUE,,,,,,,OVC,7000,,,,,,,VFR,,,,,,,,,,,,METAR,432.0
KSEZ 211655Z AUTO 19005KT 10SM CLR 13/00 A2999 RMK AO2,KSEZ,2015-02-21T16:55:00Z,34.85,-111.78,13.0,0.0,190,5,,10.0,29.991142,,,TRUE,TRUE,,,,,,,CLR,,,,,,,,VFR,,,,,,,,,,,,METAR,1473.0
KSDA 211655Z AUTO 01013KT 10SM BKN018 04/M01 A3002 RMK AO2,KSDA,2015-02-21T16:55:00Z,40.75,-95.42,4.0,-1.0,10,13,,10.0,30.02067,,,TRUE,TRUE,,,,,,,BKN,1800,,,,,,,MVFR,,,,,,,,,,,,METAR,296.0
KRUQ 211655Z AUTO 00000KT 10SM OVC019 00/M08 A3034 RMK AO2 T00001082,KRUQ,2015-02-21T16:55:00Z,35.65,-80.52,0.0,-8.2,0,0,,10.0,30.339567,,,TRUE,TRUE,,,,,,,OVC,1900,,,,,,,MVFR,,,,,,,,,,,,METAR,236.0
KRRL 211655Z AUTO 01005KT 10SM SCT020 BKN120 M07/M12 A2990 RMK AO2 T10731120,KRRL,2015-02-21T16:55:00Z,45.2,-89.72,-7.3,-12.0,10,5,,10.0,29.899607,,,TRUE,TRUE,,,,,,,SCT,2000,BKN,12000,,,,,VFR,,,,,,,,,,,,METAR,401.0
KRNH 211655Z AUTO 33009KT 7SM SCT015 SCT029 BKN090 M08/M12 A3002 RMK AO2 T10821124,KRNH,2015-02-21T16:55:00Z,45.15,-92.53,-8.2,-12.4,330,9,,7.0,30.02067,,,TRUE,TRUE,,,,,,,SCT,1500,SCT,2900,BKN,9000,,,VFR,,,,,,,,,,,,METAR,304.0
KRMN 211655Z AUTO 16005KT 1SM -SN M06/M09 A3043 RMK AO2 T10561087,KRMN,2015-02-21T16:55:00Z,38.4,-77.45,-5.6,-8.7,160,5,,1.0,30.431103,,,TRUE,TRUE,,,,,,-SN,,,,,,,,,,,,,,,,,,,,,METAR,65.0
KRDK 211655Z AUTO 34011KT 10SM SCT017 BKN031 BKN065 02/M03 A3002 RMK AO2,KRDK,2015-02-21T16:55:00Z,41.02,-95.27,2.0,-3.0,340,11,,10.0,30.02067,,,TRUE,TRUE,,,,,,,SCT,1700,BKN,3100,BKN,6500,,,VFR,,,,,,,,,,,,METAR,318.0
KPXE 211655Z AUTO 21010G18KT 10SM BKN100 15/00 A3030 RMK AO2 T01460002,KPXE,2015-02-21T16:55:00Z,32.52,-83.77,14.6,0.2,210,10,18,10.0,30.301182,,,TRUE,TRUE,,,,,,,BKN,10000,,,,,,,VFR,,,,,,,,,,,,METAR,127.0
KPVW 211655Z AUTO 07008KT 10SM CLR 07/00 A3001 RMK AO2 T00710002,KPVW,2015-02-21T16:55:00Z,34.17,-101.72,7.1,0.2,70,8,,10.0,30.008858,,,TRUE,TRUE,,,,,,,CLR,,,,,,,,VFR,,,,,,,,,,,,METAR,1028.0
KPVB 211655Z AUTO 36005KT 10SM OVC015 M02/M06 A2992 RMK AO1 T10251058,KPVB,2015-02-21T16:55:00Z,42.68,-90.43,-2.5,-5.8,360,5,,10.0,29.920275,,,TRUE,TRUE,,,,,,,OVC,1500,,,,,,,MVFR,,,,,,,,,,,,METAR,313.0
KLHZ 211655Z AUTO 14003KT 10SM OVC023 00/M05 A3038 RMK AO2,KLHZ,2015-02-21T16:55:00Z,36.02,-78.33,0.0,-5.0,140,3,,10.0,30.380905,,,TRUE,TRUE,,,,,,,OVC,2300,,,,,,,MVFR,,,,,,,,,,,,METAR,113.0
KL38 211655Z AUTO 17019G25KT 10SM OVC090 22/13 A3005 RMK AO2 T02170131,KL38,2015-02-21T16:55:00Z,30.17,-90.93,21.7,13.1,170,19,25,10.0,30.050198,,,TRUE,TRUE,,,,,,,OVC,9000,,,,,,,VFR,,,,,,,,,,,,METAR,4.0
KL35 211655Z AUTO 27004KT 10SM CLR 05/M05 A3005 RMK AO2,KL35,2015-02-21T16:55:00Z,34.27,-116.85,5.0,-5.0,270,4,,10.0,30.050198,,,TRUE,TRUE,,,,,,,CLR,,,,,,,,VFR,,,,,,,,,,,,METAR,2059.0
KJYO 211655Z AUTO 18014G19KT 3/4SM -SN OVC009 M07/M08 A3033 RMK AO2,KJYO,2015-02-21T16:55:00Z,39.07,-77.57,-7.0,-8.0,180,14,19,0.75,30.33071,,,TRUE,TRUE,,,,,,-SN,OVC,900,,,,,,,LIFR,,,,,,,,,,,,METAR,119.0
KHDC 211655Z AUTO 18012KT 10SM OVC060 21/12 A3008 RMK AO2,KHDC,2015-02-21T16:55:00Z,30.52,-90.42,21.0,12.0,180,12,,10.0,30.079725,,,TRUE,TRUE,,,,,,,OVC,6000,,,,,,,VFR,,,,,,,,,,,,METAR,13.0
KGOP 211655Z AUTO 34008KT 8SM OVC020 13/09 A2995 RMK AO2,KGOP,2015-02-21T16:55:00Z,31.42,-97.8,13.0,9.0,340,8,,8.0,29.949802,,,TRUE,TRUE,,,,,,,OVC,2000,,,,,,,MVFR,,,,,,,,,,,,METAR,276.0
KGGP 211655Z AUTO 00000KT 1 1/4SM -SN OVC025 M05/M06 A2994 RMK AO2,KGGP,2015-02-21T16:55:00Z,40.72,-86.37,-5.0,-6.0,0,0,,1.25,29.940945,,,TRUE,TRUE,,,,,,-SN,OVC,2500,,,,,,,IFR,,,,,,,,,,,,METAR,225.0
KFWC 211655Z AUTO 00000KT 1SM -SN OVC004 00/00 A2991 RMK AO1 T00001002,KFWC,2015-02-21T16:55:00Z,38.38,-88.42,0.0,-0.2,0,0,,1.0,29.911417,,,TRUE,TRUE,,,,,,-SN,OVC,400,,,,,,,LIFR,,,,,,,,,,,,METAR,133.0
KFFA 211655Z AUTO 11007KT 10SM CLR 03/M05 A3045 RMK AO2 T00291055,KFFA,2015-02-21T16:55:00Z,36.02,-75.67,2.9,-5.5,110,7,,10.0,30.448818,,,TRUE,TRUE,,,,,,,CLR,,,,,,,,VFR,,,,,,,,,,,,METAR,4.0
KEZF 211655Z AUTO 19009KT 2 1/2SM -SN OVC016 M04/M09 A3040 RMK AO2 VIS 1 1/2V3 T10421094,KEZF,2015-02-21T16:55:00Z,38.27,-77.45,-4.2,-9.4,190,9,,2.5,30.398623,,,TRUE,TRUE,,,,,,-SN,OVC,1600,,,,,,,IFR,,,,,,,,,,,,METAR,26.0
KEMV 211655Z AUTO 13004KT 10SM OVC030 00/M07 A3042 RMK AO2,KEMV,2015-02-21T16:55:00Z,36.68,-77.48,0.0,-7.0,130,4,,10.0,30.41929,,,TRUE,TRUE,,,,,,,OVC,3000,,,,,,,MVFR,,,,,,,,,,,,METAR,39.0
KELA 211655Z AUTO 21010G20KT 7SM BKN019 OVC024 21/18 A2994 RMK AO2 T02070177,KELA,2015-02-21T16:55:00Z,29.6,-96.32,20.7,17.7,210,10,20,7.0,29.940945,,,TRUE,TRUE,,,,,,,BKN,1900,OVC,2400,,,,,MVFR,,,,,,,,,,,,METAR,56.0
KE11 211655Z AUTO 08008KT 10SM CLR 11/02 A3003 RMK AO2 T01110015,KE11,2015-02-21T16:55:00Z,32.33,-102.53,11.1,1.5,80,8,,10.0,30.029528,,,TRUE,TRUE,,,,,,,CLR,,,,,,,,VFR,,,,,,,,,,,,METAR,967.0
KD25 211655Z AUTO 31009KT 10SM OVC025 M11/M16 A2991 RMK AO2 T11131164,KD25,2015-02-21T16:55:00Z,46.12,-89.88,-11.3,-16.4,310,9,,10.0,29.911417,,,TRUE,TRUE,,,,,,,OVC,2500,,,,,,,MVFR,,,,,,,,,,,,METAR,491.0
KCXE 211655Z AUTO 16005KT 10SM OVC025 00/M06 A3036 RMK AO1 T10051057,KCXE,2015-02-21T16:55:00Z,36.78,-78.5,-0.5,-5.7,160,5,,10.0,30.360237,,,TRUE,TRUE,,,,,,,OVC,2500,,,,,,,MVFR,,,,,,,,,,,,METAR,153.0
KCMY 211655Z AUTO 30004KT 10SM OVC030 M03/M09 A2996 RMK AO2 T10341088,KCMY,2015-02-21T16:55:00Z,43.97,-90.73,-3.4,-8.8,300,4,,10.0,29.958662,,,TRUE,TRUE,,,,,,,OVC,3000,,,,,,,MVFR,,,,,,,,,,,,METAR,256.0
KCKP 211655Z AUTO 32010G16KT 10SM SCT018 SCT050 OVC060 M07/M10 A3007 RMK AO2 T10661104,KCKP,2015-02-21T16:55:00Z,42.73,-95.55,-6.6,-10.4,320,10,16,10.0,30.070866,,,TRUE,TRUE,,,,,,,SCT,1800,SCT,5000,OVC,6000,,,VFR,,,,,,,,,,,,METAR,374.0
KCBK 211655Z AUTO 01006KT 10SM BKN026 06/00 A3002 RMK AO2,KCBK,2015-02-21T16:55:00Z,39.43,-101.05,6.0,0.0,10,6,,10.0,30.02067,,,TRUE,TRUE,,,,,,,BKN,2600,,,,,,,MVFR,,,,,,,,,,,,METAR,971.0
KC75 211655Z AUTO 00000KT 7SM BKN036 BKN065 M03/M07 A2994 RMK AO2 T10281068,KC75,2015-02-21T16:55:00Z,41.02,-89.38,-2.8,-6.8,0,0,,7.0,29.940945,,,TRUE,TRUE,,,,,,,BKN,3600,BKN,6500,,,,,VFR,,,,,,,,,,,,METAR,173.0
KBQP 211655Z AUTO 18011G19KT 10SM SCT013 BKN039 OVC045 18/16 A2992 RMK AO2 T01760155,KBQP,2015-02-21T16:55:00Z,32.75,-91.88,17.6,15.5,180,11,19,10.0,29.920275,,,TRUE,TRUE,,,,,,,SCT,1300,BKN,3900,OVC,4500,,,VFR,,,,,,,,,,,,METAR,51.0
KBQK 211655Z AUTO 16007KT 10SM SCT050 OVC065 17/06 A3036 RMK AO1,KBQK,2015-02-21T16:55:00Z,31.25,-81.47,17.0,6.0,160,7,,10.0,30.360237,,,TRUE,TRUE,,,,,,,SCT,5000,OVC,6500,,,,,VFR,,,,,,,,,,,,METAR,8.0
KBMC 211655Z AUTO 00000KT 10SM SCT020 SCT070 OVC080 02/00 A2999 RMK AO1 T00220001,KBMC,2015-02-21T16:55:00Z,41.55,-112.07,2.2,0.1,0,0,,10.0,29.991142,,,TRUE,TRUE,,,,,,,SCT,2000,SCT,7000,OVC,8000,,,VFR,,,,,,,,,,,,METAR,1288.0
KARV 211655Z AUTO 34005KT 5SM -SN OVC021 M09/M13 A2991 RMK AO2 T10901135,KARV,2015-02-21T16:55:00Z,45.92,-89.72,-9.0,-13.5,340,5,,5.0,29.911417,,,TRUE,TRUE,,,,,,-SN,OVC,2100,,,,,,,MVFR,,,,,,,,,,,,METAR,496.0
KAQR 211655Z AUTO 01012G17KT 10SM OVC012 06/02 A2997 RMK AO2,KAQR,2015-02-21T16:55:00Z,34.4,-96.15,6.0,2.0,10,12,17,10.0,29.970472,,,TRUE,TRUE,,,,,,,OVC,1200,,,,,,,MVFR,,,,,,,,,,,,METAR,189.0
KAFO 211655Z AUTO 00000KT 10SM SCT007 OVC040 M03/M05 A2992 RMK AO2,KAFO,2015-02-21T16:55:00Z,42.72,-110.95,-3.0,-5.0,0,0,,10.0,29.920275,,,TRUE,TRUE,,,,,,,SCT,700,OVC,4000,,,,,VFR,,,,,,,,,,,,METAR,1897.0
KA08 211655Z AUTO 16013G21KT 10SM OVC080 14/08 A3009 RMK AO2 T01380081,KA08,2015-02-21T16:55:00Z,32.52,-87.38,13.8,8.1,160,13,21,10.0,30.088583,,,TRUE,TRUE,,,,,,,OVC,8000,,,,,,,VFR,,,,,,,,,,,,METAR,69.0
K9V9 211655Z AUTO 03007KT 010V070 4SM -SN OVC012 M08/M10 A3017 RMK AO2 T10761104,K9V9,2015-02-21T16:55:00Z,43.77,-99.32,-7.6,-10.4,30,7,,4.0,30.171259,,,TRUE,TRUE,,,,,,-SN,OVC,1200,,,,,,,MVFR,,,,,,,,,,,,METAR,519.0
K8A0 211655Z AUTO 15010G20KT 10SM BKN023 OVC044 06/03 A3006 RMK AO2,K8A0,2015-02-21T16:55:00Z,34.23,-86.25,6.0,3.0,150,10,20,10.0,30.059055,,,TRUE,TRUE,,,,,,,BKN,2300,OVC,4400,,,,,MVFR,,,,,,,,,,,,METAR,315.0
K5R8 211655Z AUTO 19011G20KT 10SM BKN023 OVC035 20/16 A3001 RMK AO2 T01980163,K5R8,2015-02-21T16:55:00Z,30.43,-93.47,19.8,16.3,190,11,20,10.0,30.008858,,,TRUE,TRUE,,,,,,,BKN,2300,OVC,3500,,,,,MVFR,,,,,,,,,,,,METAR,24.0
K3K3 211655Z AUTO 28005KT 10SM SCT040 SCT100 04/00 A3002 RMK AO2,K3K3,2015-02-21T16:55:00Z,38.0,-101.75,4.0,0.0,280,5,,10.0,30.02067,,,TRUE,TRUE,,,,,,,SCT,4000,SCT,10000,,,,,VFR,,,,,,,,,,,,METAR,1013.0
KRZN 211655Z AUTO 32006KT 4SM -SN SCT012 BKN019 OVC033 M10/M14 A3003 RMK AO2 T10961139,KRZN,2015-02-21T16:55:00Z,45.82,-92.37,-9.6,-13.9,320,6,,4.0,30.029528,,,TRUE,TRUE,,,,,,-SN,SCT,1200,BKN,1900,OVC,3300,,,MVFR,,,,,,,,,,,,METAR,301.0
KRWV 211655Z AUTO 19012KT 10SM BKN022 OVC030 21/17 A2993 RMK AO2,KRWV,2015-02-21T16:55:00Z,30.52,-96.7,21.0,17.0,190,12,,10.0,29.929134,,,TRUE,TRUE,,,,,,,BKN,2200,OVC,3000,,,,,MVFR,,,,,,,,,,,,METAR,119.0
KLRO 211655Z AUTO 00000KT 6SM HZ FEW021 BKN030 BKN035 13/09 A3036 RMK AO2,KLRO,2015-02-21T16:55:00Z,32.9,-79.78,13.0,9.0,0,0,,6.0,30.360237,,,TRUE,TRUE,,,,,,HZ,FEW,2100,BKN,3000,BKN,3500,,,MVFR,,,,,,,,,,,,METAR,4.0
KHBV 211655Z AUTO 18009KT 10SM SCT022 A2990 RMK AO2 PWINO,KHBV,2015-02-21T16:55:00Z,27.35,-98.73,,,180,9,,10.0,29.899607,,,TRUE,TRUE,,,,,TRUE,,SCT,2200,,,,,,,VFR,,,,,,,,,,,,METAR,202.0
KGLW 211655Z AUTO 18012G16KT 2SM UP SCT007 BKN034 OVC050 02/02 A2995 RMK AO2 P0013 T00210021,KGLW,2015-02-21T16:55:00Z,37.03,-85.95,2.1,2.1,180,12,16,2.0,29.949802,,,TRUE,TRUE,,,,,,UP,SCT,700,BKN,3400,OVC,5000,,,IFR,,,,,,0.13,,,,,,METAR,218.0
KDED 211655Z AUTO 16011G14KT 10SM FEW035 BKN042 OVC048 19/10 A3034 RMK AO1,KDED,2015-02-21T16:55:00Z,29.07,-81.28,19.0,10.0,160,11,14,10.0,30.339567,,,TRUE,TRUE,,,,,,,FEW,3500,BKN,4200,OVC,4800,,,VFR,,,,,,,,,,,,METAR,24.0
KCCA 211655Z AUTO 01006KT 4SM -RA BKN017 OVC035 03/01 A2995 RMK AO2,KCCA,2015-02-21T16:55:00Z,35.6,-92.45,3.0,1.0,10,6,,4.0,29.949802,,,TRUE,TRUE,,,,,,-RA,BKN,1700,OVC,3500,,,,,MVFR,,,,,,,,,,,,METAR,157.0
KBWP 211655Z AUTO 34013KT 7SM SCT013 M16/M20 A3023 RMK AO1,KBWP,2015-02-21T16:55:00Z,46.25,-96.62,-16.0,-20.0,340,13,,7.0,30.230314,,,TRUE,TRUE,,,,,,,SCT,1300,,,,,,,VFR,,,,,,,,,,,,METAR,295.0
KBUU 211655Z AUTO 00000KT 10SM OVC024 M04/M09 A2993 RMK AO2 T10431094,KBUU,2015-02-21T16:55:00Z,42.68,-88.3,-4.3,-9.4,0,0,,10.0,29.929134,,,TRUE,TRUE,,,,,,,OVC,2400,,,,,,,MVFR,,,,,,,,,,,,METAR,237.0
KAIG 211655Z AUTO 35005KT 10SM BKN120 M08/M11 A2988 RMK AO2 T10841115,KAIG,2015-02-21T16:55:00Z,45.15,-89.12,-8.4,-11.5,350,5,,10.0,29.878937,,,TRUE,TRUE,,,,,,,BKN,12000,,,,,,,VFR,,,,,,,,,,,,METAR,464.0
K2J9 211655Z AUTO 18015G26KT 8SM CLR 18/07 A3029 RMK AO1 P0043,K2J9,2015-02-21T16:55:00Z,30.6,-84.55,18.0,7.0,180,15,26,8.0,30.28937,,,TRUE,TRUE,,,,,,,CLR,,,,,,,,VFR,,,,,,0.43,,,,,,METAR,69.0
K28J 211655Z AUTO 19010G17KT 10SM BKN044 BKN049 19/09 A3033 RMK AO2,K28J,2015-02-21T16:55:00Z,29.65,-81.58,19.0,9.0,190,10,17,10.0,30.33071,,,TRUE,TRUE,,,,,,,BKN,4400,BKN,4900,,,,,VFR,,,,,,,,,,,,METAR,15.0
K06D 211655Z AUTO 33018KT 10SM CLR M19/M24 A3021 RMK AO2,K06D,2015-02-21T16:55:00Z,48.88,-99.62,-19.0,-24.0,330,18,,10.0,30.209646,,,TRUE,TRUE,,,,,,,CLR,,,,,,,,VFR,,,,,,,,,,,,METAR,556.0
KCNW 211655Z 35009KT 10SM OVC021 15/10 A2992,KCNW,2015-02-21T16:55:00Z,31.63,-97.07,15.0,10.0,350,9,,10.0,29.920275,,,,,,,,,,,OVC,2100,,,,,,,MVFR,,,,,,,,,,,,METAR,156.0
KJMR 211655Z AUTO 32010KT 300V010 10SM CLR M10/M16 A3007 RMK AO2,KJMR,2015-02-21T16:55:00Z,45.88,-93.27,-10.0,-16.0,320,10,,10.0,30.070866,,,TRUE,TRUE,,,,,,,CLR,,,,,,,,VFR,,,,,,,,,,,,SPECI,309.0
EHWO 211655Z AUTO 28006KT 9999 FEW046 04/02 Q1000 BLU,EHWO,2015-02-21T16:55:00Z,51.45,4.32,4.0,2.0,280,6,,6.21,29.52756,,,TRUE,,,,,,,,FEW,4600,,,,,,,VFR,,,,,,,,,,,,METAR,17.0
EHGR 211655Z AUTO 22003KT 9999 SCT022 BKN026 BKN029 04/02 Q1000 WHT,EHGR,2015-02-21T16:55:00Z,51.57,4.92,4.0,2.0,220,3,,6.21,29.52756,,,TRUE,,,,,,,,SCT,2200,BKN,2600,BKN,2900,,,MVFR,,,,,,,,,,,,METAR,13.0
EHDL 211655Z AUTO 18004KT 6000 BR FEW034 SCT055 BKN071 02/02 Q1000 WHT,EHDL,2015-02-21T16:55:00Z,52.07,5.87,2.0,2.0,180,4,,3.73,29.52756,,,TRUE,,,,,,,BR,FEW,3400,SCT,5500,BKN,7100,,,MVFR,,,,,,,,,,,,METAR,52.0
KQL5 211655Z 32003KT 9999 FEW160 15/10 A3019 RMK SLP219 T01480100,KQL5,2015-02-21T16:55:00Z,100.65,-1000.65,14.8,10.0,320,3,,6.21,30.188976,1021.9,,,,,,,,,,FEW,16000,,,,,,,VFR,,,,,,,,,,,,METAR,999.0
KQHN 211655Z 11005KT 2400 DU BKN027 OVC100 22/M02 A2991 RMK DU BKN027 SLP080 Q1013 DA4960,KQHN,2015-02-21T16:55:00Z,100.65,-1000.65,22.0,-2.0,110,5,,1.49,29.911417,1008.0,,,,,,,,,DU,BKN,2700,OVC,10000,,,,,IFR,,,,,,,,,,,,METAR,999.0
KQEA 211655Z AUTO 04002KT 10SM CLR 24/19 A2993 RMK AO2 SLP134 T02410187,KQEA,2015-02-21T16:55:00Z,100.65,-1000.65,24.1,18.7,40,2,,10.0,29.929134,1013.4,,TRUE,TRUE,,,,,,,CLR,,,,,,,,VFR,,,,,,,,,,,,METAR,999.0
KQBF 211655Z AUTO 04004KT 9SM FEW032 BKN130 26/07 A3004 RMK AO2 SHRAB1528E1622 SLP157 T02550068,KQBF,2015-02-21T16:55:00Z,100.65,-1000.65,25.5,6.8,40,4,,9.0,30.041338,1015.7,,TRUE,TRUE,,,,,,,FEW,3200,BKN,13000,,,,,VFR,,,,,,,,,,,,METAR,999.0
KVPS 211655Z 17016KT 10SM FEW040 SCT110 BKN220 19/11 A3021 RMK AO2A SLP237 T01880110 $,KVPS,2015-02-21T16:55:00Z,30.47,-86.52,18.8,11.0,170,16,,10.0,30.209646,1023.7,,,TRUE,TRUE,,,,,,FEW,4000,SCT,11000,BKN,22000,,,VFR,,,,,,,,,,,,METAR,26.0
EHQE 211655Z AUTO 31015KT 9999 FEW010/// SCT024/// BKN043/// 05/01 Q////,EHQE,2015-02-21T16:55:00Z,52.92,4.15,5.0,1.0,310,15,,6.21,,,,TRUE,,,,,,,,,,,,,,,,,,,,,,,,,,,,METAR,50.0
EHPG 211655Z AUTO 28011KT 230V320 9999 FEW018/// SCT022/// BKN026/// 05/00 Q1000,EHPG,2015-02-21T16:55:00Z,52.37,3.35,5.0,0.0,280,11,,6.21,29.52756,,,TRUE,,,,,,,,,,,,,,,,,,,,,,,,,,,,METAR,50.0
EHMG 211655Z AUTO 27011KT 9999 FEW013/// SCT015/// BKN021/// 05/01 Q0997,EHMG,2015-02-21T16:55:00Z,53.62,4.97,5.0,1.0,270,11,,6.21,29.438976,,,TRUE,,,,,,,,,,,,,,,,,,,,,,,,,,,,METAR,50.0
EHMA 211655Z AUTO 26007KT 9999 NSC 04/02 Q0997,EHMA,2015-02-21T16:55:00Z,53.5,5.95,4.0,2.0,260,7,,6.21,29.438976,,,TRUE,,,,,,,,,,,,,,,,,,,,,,,,,,,,METAR,50.0
EHKV 211655Z AUTO VRB15KT 9999 FEW014/// SCT044/// 05/01 Q0998,EHKV,2015-02-21T16:55:00Z,53.27,3.63,5.0,1.0,0,15,,6.21,29.468504,,,TRUE,,,,,,,,,,,,,,,,,,,,,,,,,,,,METAR,50.0
EHJA 211655Z AUTO 29015KT 9999 FEW020/// 05/01 Q0998,EHJA,2015-02-21T16:55:00Z,53.82,2.95,5.0,1.0,290,15,,6.21,29.468504,,,TRUE,,,,,,,,,,,,,,,,,,,,,,,,,,,,METAR,50.0
EHFZ 211655Z AUTO 30019KT 9999 FEW014/// 05/01 Q0997,EHFZ,2015-02-21T16:55:00Z,54.12,4.02,5.0,1.0,300,19,,6.21,29.438976,,,TRUE,,,,,,,,,,,,,,,,,,,,,,,,,,,,METAR,50.0
EHFD 211655Z AUTO 27010KT 250V310 9999 -SHRA FEW011/// 04/01 Q0996,EHFD,2015-02-21T16:55:00Z,54.85,4.7,4.0,1.0,270,10,,6.21,29.409449,,,TRUE,,,,,,,-SHRA,,,,,,,,,,,,,,,,,,,,,METAR,50.0
EHDV 211655Z AUTO 30011KT //// // ///////// 05/02 Q0997 RE//,EHDV,2015-02-21T16:55:00Z,54.32,2.93,5.0,2.0,300,11,,,29.438976,,,TRUE,,,,,,,,,,,,,,,,,,,,,,,,,,,,METAR,50.0
EHAK 211655Z AUTO 32016KT 9999 FEW021/// 05/00 Q0995,EHAK,2015-02-21T16:55:00Z,55.42,3.82,5.0,0.0,320,16,,6.21,29.379921,,,TRUE,,,,,,,,,,,,,,,,,,,,,,,,,,,,METAR,50.0
RJOI 211655Z 32003KT 4800 -RA BR SCT005 BKN015 OVC040 08/07 A3017 RMK SLP217 P0004 T00780067,RJOI,2015-02-21T16:55:00Z,34.13,132.22,7.8,6.7,320,3,,2.98,30.171259,1021.7,,,,,,,,,-RA BR,SCT,500,BKN,1500,OVC,4000,,,IFR,,,,,,0.04,,,,,,METAR,2.0
PATC 211655Z AUTO 04030KT M1/4SM -SN VV002 M10/M11 A2962 RMK AO2 PK WND 03037/1609 SNB1555 SLP041 P0000 T11051111,PATC,2015-02-21T16:55:00Z,65.57,-167.92,-10.5,-11.1,40,30,,0.25,29.619095,1004.1,,TRUE,TRUE,,,,,,-SN,OVX,0,,,,,,,LIFR,,,,,,0.0050,,,,,200,METAR,83.0
PAIM 211655Z AUTO 13019G25KT 10SM BKN090 BKN160 M04/M09 A2982 RMK AO2 SHSNB1607E1623 SLP126 T10381088,PAIM,2015-02-21T16:55:00Z,66.0,-153.7,-3.8,-8.8,130,19,25,10.0,29.819881,1012.6,,TRUE,TRUE,,,,,,,BKN,9000,BKN,16000,,,,,VFR,,,,,,,,,,,,METAR,389.0
PAEH 211655Z AUTO 17027G39KT 150V210 5SM -RA CLR 04/04 A2923 RMK AO2 PK WND 21045/1627 RAB1559 SLP906 P0002 T00440038 TSNO $,PAEH,2015-02-21T16:55:00Z,58.65,-162.07,4.4,3.8,170,27,39,5.0,29.22933,990.6,,TRUE,TRUE,TRUE,,TRUE,,,-RA,CLR,,,,,,,,MVFR,,,,,,0.02,,,,,,METAR,161.0
OPLA 211655Z 29008KT 4000 FU NSC 18/12 Q1017/A30.01 NOSIG,OPLA,2015-02-21T16:55:00Z,31.52,74.4,18.0,12.0,290,8,,2.49,,,,,,,TRUE,,,,FU,,,,,,,,,,,,,,,,,,,,,METAR,217.0
OPKC 211655Z 07004 KT 6000 NSC 26/15 Q1015 NOSIG,OPKC,2015-02-21T16:55:00Z,24.88,67.17,26.0,15.0,70,4,,3.73,29.970472,,,,,,TRUE,,,,,,,,,,,,,,,,,,,,,,,,,METAR,22.0
KXBP 211655Z AUTO 34009KT 7SM OVC011 07/05 A3002 RMK AO2 T00700054,KXBP,2015-02-21T16:55:00Z,33.18,-97.83,7.0,5.4,340,9,,7.0,30.02067,,,TRUE,TRUE,,,,,,,OVC,1100,,,,,,,MVFR,,,,,,,,,,,,METAR,260.0
KW96 211655Z AUTO 00000KT 10SM BKN046 OVC075 M01/M12 A3041 RMK AO1 T10111122,KW96,2015-02-21T16:55:00Z,37.5,-77.12,-1.1,-12.2,0,0,,10.0,30.410433,,,TRUE,TRUE,,,,,,,BKN,4600,OVC,7500,,,,,VFR,,,,,,,,,,,,METAR,37.0
KW81 211655Z AUTO 17006KT 10SM BKN030 BKN034 OVC043 M01/M10 A3036 RMK AO1 T10101097,KW81,2015-02-21T16:55:00Z,37.18,-78.1,-1.0,-9.7,170,6,,10.0,30.360237,,,TRUE,TRUE,,,,,,,BKN,3000,BKN,3400,OVC,4300,,,MVFR,,,,,,,,,,,,METAR,129.0
KW43 211655Z AUTO 35014G17KT 3/4SM -SN BKN004 OVC011 M07/M10 A3012 RMK AO2,KW43,2015-02-21T16:55:00Z,44.67,-104.57,-7.0,-10.0,350,14,17,0.75,30.121063,,,TRUE,TRUE,,,,,,-SN,BKN,400,OVC,1100,,,,,LIFR,,,,,,,,,,,,METAR,1300.0
KVJI 211655Z AUTO 11007KT 1 1/4SM -SN OVC006 M01/M01 A3010 RMK AO2 P0009 T10061015,KVJI,2015-02-21T16:55:00Z,36.67,-82.02,-0.6,-1.5,110,7,,1.25,30.100393,,,TRUE,TRUE,,,,,,-SN,OVC,600,,,,,,,IFR,,,,,,0.09,,,,,,METAR,631.0
KUVA 211655Z AUTO 17003KT 10SM CLR 19/15 A2991 RMK AO2 T01930146,KUVA,2015-02-21T16:55:00Z,29.22,-99.75,19.3,14.6,170,3,,10.0,29.911417,,,TRUE,TRUE,,,,,,,CLR,,,,,,,,VFR,,,,,,,,,,,,METAR,287.0
KUSE 211655Z AUTO 00000KT 3/4SM -SN VV005 M06/M08 A2994 RMK AO2,KUSE,2015-02-21T16:55:00Z,41.62,-84.13,-6.0,-8.0,0,0,,0.75,29.940945,,,TRUE,TRUE,,,,,,-SN,OVX,0,,,,,,,LIFR,,,,,,,,,,,500,METAR,238.0
KTYQ 211655Z AUTO 03003KT 7SM UP SCT010 BKN014 OVC070 M04/M07 A2992 RMK AO2 T10451072,KTYQ,2015-02-21T16:55:00Z,40.03,-86.25,-4.5,-7.2,30,3,,7.0,29.920275,,,TRUE,TRUE,,,,,,UP,SCT,1000,BKN,1400,OVC,7000,,,MVFR,,,,,,,,,,,,METAR,281.0
KSVC 211655Z AUTO 27011G17KT 10SM CLR 14/M02 A3005 RMK AO2,KSVC,2015-02-21T16:55:00Z,32.63,-108.15,14.0,-2.0,270,11,17,10.0,30.050198,,,TRUE,TRUE,,,,,,,CLR,,,,,,,,VFR,,,,,,,,,,,,METAR,1659.0
KSJS 211655Z AUTO 15004KT 7SM RA SCT004 BKN013 OVC029 02/02 A3000 RMK AO2 T00200016,KSJS,2015-02-21T16:55:00Z,37.75,-82.63,2.0,1.6,150,4,,7.0,30.0,,,TRUE,TRUE,,,,,,RA,SCT,400,BKN,1300,OVC,2900,,,MVFR,,,,,,,,,,,,METAR,372.0
KSIF 211655Z AUTO 21006KT 10SM OVC021 M01/M09 A3035 RMK AO2 T10061093,KSIF,2015-02-21T16:55:00Z,36.43,-79.85,-0.6,-9.3,210,6,,10.0,30.351377,,,TRUE,TRUE,,,,,,,OVC,2100,,,,,,,MVFR,,,,,,,,,,,,METAR,211.0
KSCD 211655Z AUTO 19008G18KT 10SM SCT027 BKN065 OVC085 11/05 A3015 RMK AO2 T01070047,KSCD,2015-02-21T16:55:00Z,33.17,-86.3,10.7,4.7,190,8,18,10.0,30.15059,,,TRUE,TRUE,,,,,,,SCT,2700,BKN,6500,OVC,8500,,,VFR,,,,,,,,,,,,METAR,173.0
KSAA 211655Z AUTO 15005KT 5SM BR BKN027 OVC032 M02/M04 A2990 RMK AO2,KSAA,2015-02-21T16:55:00Z,41.45,-106.83,-2.0,-4.0,150,5,,5.0,29.899607,,,TRUE,TRUE,,,,,,BR,BKN,2700,OVC,3200,,,,,MVFR,,,,,,,,,,,,METAR,2138.0
KRZL 211655Z AUTO 00000KT 10SM BKN044 BKN050 M03/M05 A2994 RMK AO2,KRZL,2015-02-21T16:55:00Z,40.95,-87.18,-3.0,-5.0,0,0,,10.0,29.940945,,,TRUE,TRUE,,,,,,,BKN,4400,BKN,5000,,,,,VFR,,,,,,,,,,,,METAR,213.0
KGXA 211655Z AUTO VRB03KT 10SM CLR 14/00 A2993 RMK AO2 SLP140 T01361002 TSNO $,KGXA,2015-02-21T16:55:00Z,34.57,-117.67,13.6,-0.2,0,3,,10.0,29.929134,1014.0,,TRUE,TRUE,TRUE,,TRUE,,,,CLR,,,,,,,,VFR,,,,,,,,,,,,METAR,923.0
KRTS 211655Z AUTO 14003KT 10SM CLR 03/M05 A3004 RMK AO2,KRTS,2015-02-21T16:55:00Z,39.67,-119.88,3.0,-5.0,140,3,,10.0,30.041338,,,TRUE,TRUE,,,,,,,CLR,,,,,,,,VFR,,,,,,,,,,,,METAR,1540.0
KRNV 211655Z AUTO 20016G26KT 2 1/2SM RA BKN024 BKN030 OVC035 16/15 A2987 RMK AO2 LTG DSNT W AND NW P0009 T01550150,KRNV,2015-02-21T16:55:00Z,33.77,-90.75,15.5,15.0,200,16,26,2.5,29.870079,,,TRUE,TRUE,,,,,,RA,BKN,2400,BKN,3000,OVC,3500,,,IFR,,,,,,0.09,,,,,,METAR,41.0
KRNC 211655Z AUTO 19013G29KT 9SM OVC034 06/03 A2993 RMK,KRNC,2015-02-21T16:55:00Z,35.7,-85.85,6.0,3.0,190,13,29,9.0,29.929134,,,TRUE,,,,,,,,OVC,3400,,,,,,,VFR,,,,,,,,,,,,METAR,315.0
KRCZ 211655Z AUTO 14007KT 10SM 04/M02 A3036 RMK AO2 T00401019,KRCZ,2015-02-21T16:55:00Z,34.88,-79.77,4.0,-1.9,140,7,,10.0,30.360237,,,TRUE,TRUE,,,,,,,,,,,,,,,,,,,,,,,,,,,METAR,109.0
KRCE 211655Z AUTO 03011KT 10SM OVC013 06/05 A3004 RMK AO2,KRCE,2015-02-21T16:55:00Z,35.48,-97.82,6.0,5.0,30,11,,10.0,30.041338,,,TRUE,TRUE,,,,,,,OVC,1300,,,,,,,MVFR,,,,,,,,,,,,METAR,413.0
KPSN 211655Z AUTO 20012G17KT 10SM SCT025 BKN030 BKN043 21/16 A2990 RMK AO2 T02120166,KPSN,2015-02-21T16:55:00Z,31.78,-95.7,21.2,16.6,200,12,17,10.0,29.899607,,,TRUE,TRUE,,,,,,,SCT,2500,BKN,3000,BKN,4300,,,MVFR,,,,,,,,,,,,METAR,129.0
KPCZ 211655Z AUTO 00000KT 10SM SCT120 M02/M11 A2993 RMK AO2 T10201106,KPCZ,2015-02-21T16:55:00Z,44.33,-89.02,-2.0,-10.6,0,0,,10.0,29.929134,,,TRUE,TRUE,,,,,,,SCT,12000,,,,,,,VFR,,,,,,,,,,,,METAR,252.0
KP08 211655Z AUTO 21005KT 10SM CLR 21/02 A2993 RMK AO2,KP08,2015-02-21T16:55:00Z,32.93,-111.43,21.0,2.0,210,5,,10.0,29.929134,,,TRUE,TRUE,,,,,,,CLR,,,,,,,,VFR,,,,,,,,,,,,METAR,481.0
KOXI 211655Z AUTO 00000KT 7SM OVC038 M04/M13 A2993 RMK AO1,KOXI,2015-02-21T16:55:00Z,41.33,-86.67,-4.0,-13.0,0,0,,7.0,29.929134,,,TRUE,TRUE,,,,,,,OVC,3800,,,,,,,VFR,,,,,,,,,,,,METAR,209.0
KOLE 211655Z AUTO 19007KT 3/4SM -SN OVC008 M10/M10 A2990 RMK AO2,KOLE,2015-02-21T16:55:00Z,42.23,-78.37,-10.0,-10.0,190,7,,0.75,29.899607,,,TRUE,TRUE,,,,,,-SN,OVC,800,,,,,,,LIFR,,,,,,,,,,,,METAR,651.0
KOKV 211655Z AUTO 16007KT 1/4SM +SN OVC007 M07/M11 A3023 RMK AO2,KOKV,2015-02-21T16:55:00Z,39.13,-78.15,-7.0,-11.0,160,7,,0.25,30.230314,,,TRUE,TRUE,,,,,,+SN,OVC,700,,,,,,,LIFR,,,,,,,,,,,,METAR,222.0
KO69 211655Z AUTO 11005KT M1/4SM OVC002 09/09 A3000 RMK AO1,KO69,2015-02-21T16:55:00Z,38.25,-122.6,9.0,9.0,110,5,,0.25,30.0,,,TRUE,TRUE,,,,,,,OVC,200,,,,,,,LIFR,,,,,,,,,,,,METAR,28.0
KN38 211655Z AUTO 17018G23KT 1/2SM -DZ OVC003 M12/M14 A3002 RMK AO2,KN38,2015-02-21T16:55:00Z,41.73,-77.4,-12.0,-14.0,170,18,23,0.5,30.02067,,,TRUE,TRUE,,,,,,-DZ,OVC,300,,,,,,,LIFR,,,,,,,,,,,,METAR,577.0
KMVH 211655Z AUTO 32017KT 3SM HZ SCT025 M09/M13 A3021 RMK A01,KMVH,2015-02-21T16:55:00Z,46.83,-108.93,-9.0,-13.0,320,17,,3.0,30.209646,,,TRUE,TRUE,,,,,,HZ,SCT,2500,,,,,,,MVFR,,,,,,,,,,,,METAR,1355.0
KMQS 211655Z AUTO 17007KT 1/2SM SN BKN001 M07/M09 A3037 RMK AO2,KMQS,2015-02-21T16:55:00Z,39.98,-75.87,-7.0,-9.0,170,7,,0.5,30.369095,,,TRUE,TRUE,,,,,,SN,BKN,100,,,,,,,LIFR,,,,,,,,,,,,METAR,201.0
KMOR 211655Z AUTO 06003KT 7SM BKN055 M01/M02 A3009 RMK,KMOR,2015-02-21T16:55:00Z,36.18,-83.37,-1.0,-2.0,60,3,,7.0,30.088583,,,TRUE,,,,,,,,BKN,5500,,,,,,,VFR,,,,,,,,,,,,METAR,400.0
KMHV 211655Z AUTO 15005KT 10SM CLR 13/01 A2993 RMK AO1,KMHV,2015-02-21T16:55:00Z,35.07,-118.15,13.0,1.0,150,5,,10.0,29.929134,,,TRUE,TRUE,,,,,,,CLR,,,,,,,,VFR,,,,,,,,,,,,METAR,849.0
KMCC 211655Z AUTO 00000KT 1SM BR OVC002 09/09 A3001 RMK AO2,KMCC,2015-02-21T16:55:00Z,38.67,-121.4,9.0,9.0,0,0,,1.0,30.008858,,,TRUE,TRUE,,,,,,BR,OVC,200,,,,,,,LIFR,,,,,,,,,,,,METAR,23.0
KMAN 211655Z AUTO 32005KT 10SM BKN120 03/03 A3007 RMK AO1,KMAN,2015-02-21T16:55:00Z,43.58,-116.52,3.0,3.0,320,5,,10.0,30.070866,,,TRUE,TRUE,,,,,,,BKN,12000,,,,,,,VFR,,,,,,,,,,,,METAR,774.0
KLZZ 211655Z AUTO 35009KT 10SM SCT032 SCT039 15/11 A2991 RMK AO2 T01450109,KLZZ,2015-02-21T16:55:00Z,31.1,-98.2,14.5,10.9,350,9,,10.0,29.911417,,,TRUE,TRUE,,,,,,,SCT,3200,SCT,3900,,,,,VFR,,,,,,,,,,,,METAR,371.0
KLVL 211655Z AUTO 18006KT 10SM OVC030 M01/M07 A3038 RMK AO1 T10071073,KLVL,2015-02-21T16:55:00Z,36.78,-77.8,-0.7,-7.3,180,6,,10.0,30.380905,,,TRUE,TRUE,,,,,,,OVC,3000,,,,,,,MVFR,,,,,,,,,,,,METAR,100.0
KLUM 211655Z AUTO 31009KT 7SM OVC025 M07/M12 A3000 RMK AO2 T10671125,KLUM,2015-02-21T16:55:00Z,44.9,-91.87,-6.7,-12.5,310,9,,7.0,30.0,,,TRUE,TRUE,,,,,,,OVC,2500,,,,,,,MVFR,,,,,,,,,,,,METAR,273.0
KLUA 211655Z AUTO 24010KT 1/2SM SN OVC009 M05/M06 A3023 RMK AO2 P0001,KLUA,2015-02-21T16:55:00Z,38.67,-78.5,-5.0,-6.0,240,10,,0.5,30.230314,,,TRUE,TRUE,,,,,,SN,OVC,900,,,,,,,LIFR,,,,,,0.01,,,,,,METAR,275.0
KLOM 211655Z AUTO 19008KT 10SM BKN021 BKN028 OVC037 M03/M13 A3039 RMK AO1,KLOM,2015-02-21T16:55:00Z,40.13,-75.27,-3.0,-13.0,190,8,,10.0,30.389763,,,TRUE,TRUE,,,,,,,BKN,2100,BKN,2800,OVC,3700,,,MVFR,,,,,,,,,,,,METAR,92.0
KLNC 211655Z AUTO 35013KT 10SM BKN015 11/06 A2995 RMK AO2 T01110059,KLNC,2015-02-21T16:55:00Z,32.58,-96.72,11.1,5.9,350,13,,10.0,29.949802,,,TRUE,TRUE,,,,,,,BKN,1500,,,,,,,MVFR,,,,,,,,,,,,METAR,153.0
KJYR 211655Z AUTO 01008KT 9SM BKN012 OVC022 02/00 A3004 RMK AO2,KJYR,2015-02-21T16:55:00Z,40.9,-97.62,2.0,0.0,10,8,,9.0,30.041338,,,TRUE,TRUE,,,,,,,BKN,1200,OVC,2200,,,,,MVFR,,,,,,,,,,,,METAR,509.0
KJYL 211655Z AUTO 19008G17KT 10SM CLR 15/06 A3033 RMK AO2 T01510058,KJYL,2015-02-21T16:55:00Z,32.65,-81.6,15.1,5.8,190,8,17,10.0,30.33071,,,TRUE,TRUE,,,,,,,CLR,,,,,,,,VFR,,,,,,,,,,,,METAR,57.0
KJXI 211655Z AUTO 20011G18KT 10SM BKN020 OVC080 20/16 A2985 RMK AO2 P0001 T01990161,KJXI,2015-02-21T16:55:00Z,32.7,-94.95,19.9,16.1,200,11,18,10.0,29.84941,,,TRUE,TRUE,,,,,,,BKN,2000,OVC,8000,,,,,MVFR,,,,,,0.01,,,,,,METAR,127.0
KJWY 211655Z AUTO 32013G17KT 10SM SCT013 11/07 A2995 RMK AO2 T01140073,KJWY,2015-02-21T16:55:00Z,32.45,-96.92,11.4,7.3,320,13,17,10.0,29.949802,,,TRUE,TRUE,,,,,,,SCT,1300,,,,,,,VFR,,,,,,,,,,,,METAR,217.0
KJWG 211655Z AUTO 03012G17KT 10SM CLR 08/03 A3004 RMK AO2 T00800034,KJWG,2015-02-21T16:55:00Z,35.87,-98.42,8.0,3.4,30,12,17,10.0,30.041338,,,TRUE,TRUE,,,,,,,CLR,,,,,,,,VFR,,,,,,,,,,,,METAR,472.0
KJTC 211655Z AUTO 24017G25KT 10SM CLR 12/M13 A3003 RMK AO2,KJTC,2015-02-21T16:55:00Z,34.13,-109.32,12.0,-13.0,240,17,25,10.0,30.029528,,,TRUE,TRUE,,,,,,,CLR,,,,,,,,VFR,,,,,,,,,,,,METAR,2150.0
KJSV 211655Z AUTO 04004KT 10SM CLR 07/02 A2995 RMK AO2,KJSV,2015-02-21T16:55:00Z,35.43,-94.8,7.0,2.0,40,4,,10.0,29.949802,,,TRUE,TRUE,,,,,,,CLR,,,,,,,,VFR,,,,,,,,,,,,METAR,161.0
KJSO 211655Z AUTO 21012G16KT 7SM SCT016 SCT023 BKN085 19/17 A2992 RMK AO2 T01960172,KJSO,2015-02-21T16:55:00Z,31.87,-95.22,19.6,17.2,210,12,16,7.0,29.920275,,,TRUE,TRUE,,,,,,,SCT,1600,SCT,2300,BKN,8500,,,VFR,,,,,,,,,,,,METAR,206.0
KJNX 211655Z AUTO 14003KT 10SM OVC025 02/M03 A3038 RMK AO2,KJNX,2015-02-21T16:55:00Z,35.53,-78.38,2.0,-3.0,140,3,,10.0,30.380905,,,TRUE,TRUE,,,,,,,OVC,2500,,,,,,,MVFR,,,,,,,,,,,,METAR,50.0
KJFZ 211655Z AUTO 20011G19KT 3SM -SN SCT009 BKN014 OVC021 01/00 A3003 RMK AO2 P0001 T00131004,KJFZ,2015-02-21T16:55:00Z,37.07,-81.8,1.3,-0.4,200,11,19,3.0,30.029528,,,TRUE,TRUE,,,,,,-SN,SCT,900,BKN,1400,OVC,2100,,,MVFR,,,,,,0.01,,,,,,METAR,809.0
KF44 211655Z AUTO 20008G17KT 10SM BKN024 BKN036 OVC070 20/15 A2987 RMK AO2,KF44,2015-02-21T16:55:00Z,32.17,-95.83,20.0,15.0,200,8,17,10.0,29.870079,,,TRUE,TRUE,,,,,,,BKN,2400,BKN,3600,OVC,7000,,,MVFR,,,,,,,,,,,,METAR,135.0
KF05 211655Z AUTO 02007KT 10SM OVC020 09/01 A3005 RMK AO1 T00860007,KF05,2015-02-21T16:55:00Z,34.23,-99.28,8.6,0.7,20,7,,10.0,30.050198,,,TRUE,TRUE,,,,,,,OVC,2000,,,,,,,MVFR,,,,,,,,,,,,METAR,386.0
KEZM 211655Z AUTO 18014G20KT 10SM SCT110 17/03 A3032 RMK AO2 T01670032,KEZM,2015-02-21T16:55:00Z,32.22,-83.13,16.7,3.2,180,14,20,10.0,30.318897,,,TRUE,TRUE,,,,,,,SCT,11000,,,,,,,VFR,,,,,,,,,,,,METAR,93.0
KEYF 211655Z AUTO 15005KT 10SM OVC039 10/01 A3038 RMK AO2 T00970010,KEYF,2015-02-21T16:55:00Z,34.6,-78.58,9.7,1.0,150,5,,10.0,30.380905,,,TRUE,TRUE,,,,,,,OVC,3900,,,,,,,VFR,,,,,,,,,,,,METAR,41.0
KETC 211655Z AUTO 13005KT 10SM OVC032 02/M05 A3043 RMK AO2 T00191049,KETC,2015-02-21T16:55:00Z,35.93,-77.55,1.9,-4.9,130,5,,10.0,30.431103,,,TRUE,TRUE,,,,,,,OVC,3200,,,,,,,VFR,,,,,,,,,,,,METAR,17.0
KERV 211655Z AUTO 15003KT 10SM CLR 19/15 A2992 RMK AO2 T01890149,KERV,2015-02-21T16:55:00Z,29.98,-99.08,18.9,14.9,150,3,,10.0,29.920275,,,TRUE,TRUE,,,,,,,CLR,,,,,,,,VFR,,,,,,,,,,,,METAR,510.0
KEQA 211655Z AUTO 33005KT 10SM CLR 08/03 A2999 RMK AO2,KEQA,2015-02-21T16:55:00Z,37.78,-96.82,8.0,3.0,330,5,,10.0,29.991142,,,TRUE,TRUE,,,,,,,CLR,,,,,,,,VFR,,,,,,,,,,,,METAR,420.0
KEHO 211655Z AUTO 17006KT 10SM SCT048 BKN110 03/M07 A3034 RMK AO2 T00291066,KEHO,2015-02-21T16:55:00Z,35.25,-81.6,2.9,-6.6,170,6,,10.0,30.339567,,,TRUE,TRUE,,,,,,,SCT,4800,BKN,11000,,,,,VFR,,,,,,,,,,,,METAR,258.0
KEDU 211655Z AUTO 05004KT 3SM OVC006 10/09 A3000 RMK AO1,KEDU,2015-02-21T16:55:00Z,38.53,-121.78,10.0,9.0,50,4,,3.0,30.0,,,TRUE,TRUE,,,,,,,OVC,600,,,,,,,IFR,,,,,,,,,,,,METAR,21.0
KEDN 211655Z AUTO 19014G28KT 10SM BKN030 BKN038 16/08 A3021 RMK AO2,KEDN,2015-02-21T16:55:00Z,31.3,-85.9,16.0,8.0,190,14,28,10.0,30.209646,,,TRUE,TRUE,,,,,,,BKN,3000,BKN,3800,,,,,MVFR,,,,,,,,,,,,METAR,110.0
KECS 211655Z AUTO 33015G24KT 10SM BKN031 M05/M11 A3007 RMK AO2,KECS,2015-02-21T16:55:00Z,43.88,-104.32,-5.0,-11.0,330,15,24,10.0,30.070866,,,TRUE,TRUE,,,,,,,BKN,3100,,,,,,,VFR,,,,,,,,,,,,METAR,1273.0
KEBG 211655Z AUTO 19019G27KT 10SM SCT025 26/17 A2990 RMK AO2 T02560167,KEBG,2015-02-21T16:55:00Z,26.45,-98.13,25.6,16.7,190,19,27,10.0,29.899607,,,TRUE,TRUE,,,,,,,SCT,2500,,,,,,,VFR,,,,,,,,,,,,METAR,24.0
KE16 211655Z AUTO 00000KT 10SM CLR 09/08 A3000 RMK AO2,KE16,2015-02-21T16:55:00Z,37.08,-121.6,9.0,8.0,0,0,,10.0,30.0,,,TRUE,TRUE,,,,,,,CLR,,,,,,,,VFR,,,,,,,,,,,,METAR,86.0
KDZB 211655Z AUTO 30004KT 10SM CLR 21/14 A2991 RMK AO2 T02060136,KDZB,2015-02-21T16:55:00Z,30.53,-98.37,20.6,13.6,300,4,,10.0,29.911417,,,TRUE,TRUE,,,,,,,CLR,,,,,,,,VFR,,,,,,,,,,,,METAR,334.0
KDVO 211655Z AUTO 21004KT OVC004 10/10 A2998 RMK AO2,KDVO,2015-02-21T16:55:00Z,38.15,-122.55,10.0,10.0,210,4,,,29.97933,,,TRUE,TRUE,,,,,,,OVC,400,,,,,,,,,,,,,,,,,,,METAR,1.0
KDUX 211655Z AUTO 06003KT 10SM CLR 05/M02 A3003 RMK AO2 T00481017,KDUX,2015-02-21T16:55:00Z,35.85,-102.02,4.8,-1.7,60,3,,10.0,30.029528,,,TRUE,TRUE,,,,,,,CLR,,,,,,,,VFR,,,,,,,,,,,,METAR,1129.0
KDUC 211655Z AUTO 03011G14KT 10SM OVC016 07/03 A3001 RMK AO2,KDUC,2015-02-21T16:55:00Z,34.47,-97.97,7.0,3.0,30,11,14,10.0,30.008858,,,TRUE,TRUE,,,,,,,OVC,1600,,,,,,,MVFR,,,,,,,,,,,,METAR,339.0
KDUA 211655Z AUTO 34010G17KT 250V010 10SM BKN014 08/05 A2995 RMK AO2,KDUA,2015-02-21T16:55:00Z,33.95,-96.4,8.0,5.0,340,10,17,10.0,29.949802,,,TRUE,TRUE,,,,,,,BKN,1400,,,,,,,MVFR,,,,,,,,,,,,METAR,213.0
KDRI 211655Z AUTO 00000KT 4SM DZ SCT024 BKN033 OVC046 18/17 A3002 RMK AO2 T01770167,KDRI,2015-02-21T16:55:00Z,30.83,-93.33,17.7,16.7,0,0,,4.0,30.02067,,,TRUE,TRUE,,,,,,DZ,SCT,2400,BKN,3300,OVC,4600,,,MVFR,,,,,,,,,,,,METAR,63.0
KDQH 211655Z AUTO 18009G16KT 150V210 10SM CLR 18/03 A3031 RMK AO2,KDQH,2015-02-21T16:55:00Z,31.48,-82.87,18.0,3.0,180,9,16,10.0,30.31004,,,TRUE,TRUE,,,,,,,CLR,,,,,,,,VFR,,,,,,,,,,,,METAR,78.0
KDPL 211655Z AUTO 14005KT 10SM OVC040 08/00 A3042 RMK AO2 T00811003,KDPL,2015-02-21T16:55:00Z,35.0,-77.97,8.1,-0.3,140,5,,10.0,30.41929,,,TRUE,TRUE,,,,,,,OVC,4000,,,,,,,VFR,,,,,,,,,,,,METAR,42.0
KDNV 211655Z AUTO 07003KT 10SM SCT110 M05/M07 A2990 RMK AO2 T10471066,KDNV,2015-02-21T16:55:00Z,40.2,-87.6,-4.7,-6.6,70,3,,10.0,29.899607,,,TRUE,TRUE,,,,,,,SCT,11000,,,,,,,VFR,,,,,,,,,,,,METAR,212.0
KDNS 211655Z AUTO 32013KT 10SM SCT019 OVC050 M04/M09 A3003 RMK AO2,KDNS,2015-02-21T16:55:00Z,41.97,-95.37,-4.0,-9.0,320,13,,10.0,30.029528,,,TRUE,TRUE,,,,,,,SCT,1900,OVC,5000,,,,,VFR,,,,,,,,,,,,METAR,388.0
KDKB 211655Z AUTO 00000KT 7SM OVC025 M06/M09 A2994 RMK AO2 T10611089,KDKB,2015-02-21T16:55:00Z,41.93,-88.7,-6.1,-8.9,0,0,,7.0,29.940945,,,TRUE,TRUE,,,,,,,OVC,2500,,,,,,,MVFR,,,,,,,,,,,,METAR,279.0
KD50 211655Z AUTO 31012KT 10SM FEW020 M18/M22 A3032 RMK AO2,KD50,2015-02-21T16:55:00Z,48.93,-103.3,-18.0,-22.0,310,12,,10.0,30.318897,,,TRUE,TRUE,,,,,,,FEW,2000,,,,,,,VFR,,,,,,,,,,,,METAR,595.0
KCXP 211655Z AUTO 12003KT 10SM CLR 04/M05 A3004 RMK AO2,KCXP,2015-02-21T16:55:00Z,39.18,-119.73,4.0,-5.0,120,3,,10.0,30.041338,,,TRUE,TRUE,,,,,,,CLR,,,,,,,,VFR,,,,,,,,,,,,METAR,1435.0
KCWC 211655Z AUTO 33007KT 10SM OVC015 08/03 A3004 RMK AO2 T00750033,KCWC,2015-02-21T16:55:00Z,33.85,-98.48,7.5,3.3,330,7,,10.0,30.041338,,,TRUE,TRUE,,,,,,,OVC,1500,,,,,,,MVFR,,,,,,,,,,,,METAR,305.0
KCUL 211655Z AUTO 00000KT 4SM -RA SCT002 SCT015 BKN035 01/01 A2991 RMK AO2 P0002 T00100010,KCUL,2015-02-21T16:55:00Z,38.08,-88.12,1.0,1.0,0,0,,4.0,29.911417,,,TRUE,TRUE,,,,,,-RA,SCT,200,SCT,1500,BKN,3500,,,MVFR,,,,,,0.02,,,,,,METAR,118.0
KCUH 211655Z AUTO 03006KT 10SM OVC009 05/05 A3002 RMK AO2,KCUH,2015-02-21T16:55:00Z,35.95,-96.77,5.0,5.0,30,6,,10.0,30.02067,,,TRUE,TRUE,,,,,,,OVC,900,,,,,,,IFR,,,,,,,,,,,,METAR,279.0
KCRX 211655Z AUTO 18015G24KT 4SM -RA OVC013 12/10 A2985 RMK AO2,KCRX,2015-02-21T16:55:00Z,34.92,-88.6,12.0,10.0,180,15,24,4.0,29.84941,,,TRUE,TRUE,,,,,,-RA,OVC,1300,,,,,,,MVFR,,,,,,,,,,,,METAR,130.0
KCPK 211655Z AUTO 16008KT 10SM OVC050 04/M07 A3044 RMK AO2,KCPK,2015-02-21T16:55:00Z,36.67,-76.32,4.0,-7.0,160,8,,10.0,30.43996,,,TRUE,TRUE,,,,,,,OVC,5000,,,,,,,VFR,,,,,,,,,,,,METAR,6.0
KCNI 211655Z AUTO 09008G14KT 10SM OVC070 01/M07 A3024 RMK AO2,KCNI,2015-02-21T16:55:00Z,34.32,-84.42,1.0,-7.0,90,8,14,10.0,30.239174,,,TRUE,TRUE,,,,,,,OVC,7000,,,,,,,VFR,,,,,,,,,,,,METAR,372.0
KCMD 211655Z AUTO 17018G30KT 10SM BKN040 09/04 A3005 RMK AO2 T00860041,KCMD,2015-02-21T16:55:00Z,34.27,-86.85,8.6,4.1,170,18,30,10.0,30.050198,,,TRUE,TRUE,,,,,,,BKN,4000,,,,,,,VFR,,,,,,,,,,,,METAR,294.0
KCLW 211655Z AUTO 13008KT 10SM CLR 18/08 A3029 RMK AO2,KCLW,2015-02-21T16:55:00Z,27.98,-82.75,18.0,8.0,130,8,,10.0,30.28937,,,TRUE,TRUE,,,,,,,CLR,,,,,,,,VFR,,,,,,,,,,,,METAR,22.0
KCIR 211655Z AUTO 35007KT 7SM SCT005 BKN032 OVC046 A2990 RMK AO2 P0008,KCIR,2015-02-21T16:55:00Z,37.07,-89.22,,,350,7,,7.0,29.899607,,,TRUE,TRUE,,,,,,,SCT,500,BKN,3200,OVC,4600,,,VFR,,,,,,0.08,,,,,,METAR,98.0
KCDA 211655Z AUTO 13008KT 10SM SCT060 OVC070 M11/M22 A3021 RMK AO2 T11111221,KCDA,2015-02-21T16:55:00Z,44.57,-72.02,-11.1,-22.1,130,8,,10.0,30.209646,,,TRUE,TRUE,,,,,,,SCT,6000,OVC,7000,,,,,VFR,,,,,,,,,,,,METAR,363.0
KJDD 211655Z AUTO 32008KT 4SM BR BKN024 BKN040 BKN065 12/11 A2989 RMK AO2,KJDD,2015-02-21T16:55:00Z,32.75,-95.5,12.0,11.0,320,8,,4.0,29.890747,,,TRUE,TRUE,,,,,,BR,BKN,2400,BKN,4000,BKN,6500,,,MVFR,,,,,,,,,,,,METAR,132.0
KJAS 211655Z AUTO 19008G17KT 7SM OVC018 19/16 A2999 RMK AO2 T01930164,KJAS,2015-02-21T16:55:00Z,30.88,-94.03,19.3,16.4,190,8,17,7.0,29.991142,,,TRUE,TRUE,,,,,,,OVC,1800,,,,,,,MVFR,,,,,,,,,,,,METAR,65.0
KIXA 211655Z AUTO 13003KT 10SM BKN030 OVC036 00/M06 A3040 RMK AO2,KIXA,2015-02-21T16:55:00Z,36.33,-77.63,0.0,-6.0,130,3,,10.0,30.398623,,,TRUE,TRUE,,,,,,,BKN,3000,OVC,3600,,,,,MVFR,,,,,,,,,,,,METAR,44.0
KIIY 211655Z AUTO 21006KT 10SM CLR 12/02 A3031 RMK AO2,KIIY,2015-02-21T16:55:00Z,33.78,-82.82,12.0,2.0,210,6,,10.0,30.31004,,,TRUE,TRUE,,,,,,,CLR,,,,,,,,VFR,,,,,,,,,,,,METAR,197.0
KIFP 211655Z AUTO 00000KT 10SM CLR 17/00 A2990 RMK AO2 PWINO,KIFP,2015-02-21T16:55:00Z,35.15,-114.57,17.0,0.0,0,0,,10.0,29.899607,,,TRUE,TRUE,,,,,TRUE,,CLR,,,,,,,,VFR,,,,,,,,,,,,METAR,212.0
KIER 211655Z AUTO 19012G19KT 10SM SCT020 BKN026 OVC100 19/17 A2995 RMK AO2 P0002 T01860173,KIER,2015-02-21T16:55:00Z,31.73,-93.1,18.6,17.3,190,12,19,10.0,29.949802,,,TRUE,TRUE,,,,,,,SCT,2000,BKN,2600,OVC,10000,,,MVFR,,,,,,0.02,,,,,,METAR,37.0
KI16 211655Z AUTO 1/2SM SN OVC006 02/02 A3009 RMK AO2 T00160016,KI16,2015-02-21T16:55:00Z,37.6,-81.57,1.6,1.6,,,,0.5,30.088583,,,TRUE,TRUE,,,,,,SN,OVC,600,,,,,,,LIFR,,,,,,,,,,,,METAR,544.0
KHZL 211655Z AUTO 14008G14KT 120V180 1 1/2SM -SN BKN018 OVC024 M10/M14 A3023 RMK AO2,KHZL,2015-02-21T16:55:00Z,40.98,-76.0,-10.0,-14.0,140,8,14,1.5,30.230314,,,TRUE,TRUE,,,,,,-SN,BKN,1800,OVC,2400,,,,,IFR,,,,,,,,,,,,METAR,489.0
KHZE 211655Z AUTO 31012KT 10SM SCT018 BKN027 M13/M18 A3028 RMK AO2 P0001,KHZE,2015-02-21T16:55:00Z,47.28,-101.58,-13.0,-18.0,310,12,,10.0,30.280512,,,TRUE,TRUE,,,,,,,SCT,1800,BKN,2700,,,,,MVFR,,,,,,0.01,,,,,,METAR,553.0
KHVE 211655Z AUTO 00000KT 10SM OVC080 05/M08 A2997 RMK AO2,KHVE,2015-02-21T16:55:00Z,38.42,-110.7,5.0,-8.0,0,0,,10.0,29.970472,,,TRUE,TRUE,,,,,,,OVC,8000,,,,,,,VFR,,,,,,,,,,,,METAR,1350.0
KHRJ 211655Z AUTO 15004KT 10SM OVC023 03/M04 A3038 RMK AO2 T00261037,KHRJ,2015-02-21T16:55:00Z,35.38,-78.73,2.6,-3.7,150,4,,10.0,30.380905,,,TRUE,TRUE,,,,,,,OVC,2300,,,,,,,MVFR,,,,,,,,,,,,METAR,60.0
KHQU 211655Z AUTO 17007G15KT 150V210 10SM CLR 13/03 A3035 RMK AO1 T01320030,KHQU,2015-02-21T16:55:00Z,33.53,-82.52,13.2,3.0,170,7,15,10.0,30.351377,,,TRUE,TRUE,,,,,,,CLR,,,,,,,,VFR,,,,,,,,,,,,METAR,152.0
KHNZ 211655Z AUTO 00000KT 10SM OVC022 M01/M08 A3037 RMK AO2 T10121077,KHNZ,2015-02-21T16:55:00Z,36.37,-78.53,-1.2,-7.7,0,0,,10.0,30.369095,,,TRUE,TRUE,,,,,,,OVC,2200,,,,,,,MVFR,,,,,,,,,,,,METAR,161.0
KHLX 211655Z AUTO 18011G15KT 10SM OVC023 M05/M09 A3017 RMK AO2 T10521091,KHLX,2015-02-21T16:55:00Z,36.77,-80.82,-5.2,-9.1,180,11,15,10.0,30.171259,,,TRUE,TRUE,,,,,,,OVC,2300,,,,,,,MVFR,,,,,,,,,,,,METAR,834.0
KHJH 211655Z AUTO 35005KT 10SM SCT016 05/00 A3003 RMK AO2 T00491005,KHJH,2015-02-21T16:55:00Z,40.15,-97.58,4.9,-0.5,350,5,,10.0,30.029528,,,TRUE,TRUE,,,,,,,SCT,1600,,,,,,,VFR,,,,,,,,,,,,METAR,447.0
KHHF 211655Z AUTO 06005KT 10SM SCT027 SCT034 09/01 A3005 RMK AO2 T00850011,KHHF,2015-02-21T16:55:00Z,35.9,-100.4,8.5,1.1,60,5,,10.0,30.050198,,,TRUE,TRUE,,,,,,,SCT,2700,SCT,3400,,,,,VFR,,,,,,,,,,,,METAR,712.0
KHBI 211655Z AUTO 17006KT 10SM OVC016 00/M06 A3037 RMK AO2 T00021060,KHBI,2015-02-21T16:55:00Z,35.65,-79.9,0.2,-6.0,170,6,,10.0,30.369095,,,TRUE,TRUE,,,,,,,OVC,1600,,,,,,,MVFR,,,,,,,,,,,,METAR,205.0
KGZL 211655Z AUTO 35010KT 10SM OVC012 05/02 A2996 RMK AO2,KGZL,2015-02-21T16:55:00Z,35.28,-95.1,5.0,2.0,350,10,,10.0,29.958662,,,TRUE,TRUE,,,,,,,OVC,1200,,,,,,,MVFR,,,,,,,,,,,,METAR,183.0
KGYB 211655Z AUTO 20013G21KT 7SM SCT022 BKN032 21/16 A2993 RMK AO2 T02100160,KGYB,2015-02-21T16:55:00Z,30.17,-96.98,21.0,16.0,200,13,21,7.0,29.929134,,,TRUE,TRUE,,,,,,,SCT,2200,BKN,3200,,,,,VFR,,,,,,,,,,,,METAR,148.0
KGWW 211655Z AUTO 13006KT 10SM BKN031 OVC037 03/M03 A3041 RMK AO2 T00281030,KGWW,2015-02-21T16:55:00Z,35.47,-77.97,2.8,-3.0,130,6,,10.0,30.410433,,,TRUE,TRUE,,,,,,,BKN,3100,OVC,3700,,,,,VFR,,,,,,,,,,,,METAR,41.0
KGWB 211655Z AUTO 00000KT 3/4SM -SN OVC006 M05/M07 A2994 RMK AO2 P0002,KGWB,2015-02-21T16:55:00Z,41.3,-85.07,-5.0,-7.0,0,0,,0.75,29.940945,,,TRUE,TRUE,,,,,,-SN,OVC,600,,,,,,,LIFR,,,,,,0.02,,,,,,METAR,269.0
KGNC 211655Z AUTO 07005KT 10SM CLR 10/01 A3005 RMK AO2 T00990012,KGNC,2015-02-21T16:55:00Z,32.68,-102.65,9.9,1.2,70,5,,10.0,30.050198,,,TRUE,TRUE,,,,,,,CLR,,,,,,,,VFR,,,,,,,,,,,,METAR,1010.0
KGMJ 211655Z AUTO 36004KT 10SM OVC008 03/03 A3000 RMK AO2,KGMJ,2015-02-21T16:55:00Z,36.6,-94.73,3.0,3.0,360,4,,10.0,30.0,,,TRUE,TRUE,,,,,,,OVC,800,,,,,,,IFR,,,,,,,,,,,,METAR,254.0
KGIC 211655Z AUTO 25004KT 10SM SCT009 SCT016 OVC025 01/00 A3014 RMK AO1 T00110000,KGIC,2015-02-21T16:55:00Z,45.95,-116.12,1.1,0.0,250,4,,10.0,30.138779,,,TRUE,TRUE,,,,,,,SCT,900,SCT,1600,OVC,2500,,,MVFR,,,,,,,,,,,,METAR,1009.0
KGGI 211655Z AUTO 33008KT 3SM BR OVC006 M02/M03 A2996 RMK AO2 T10191031,KGGI,2015-02-21T16:55:00Z,41.72,-92.73,-1.9,-3.1,330,8,,3.0,29.958662,,,TRUE,TRUE,,,,,,BR,OVC,600,,,,,,,IFR,,,,,,,,,,,,METAR,307.0
KGDJ 211655Z AUTO 31012KT 10SM OVC017 11/06 A2998 RMK AO2 T01100063,KGDJ,2015-02-21T16:55:00Z,32.45,-97.82,11.0,6.3,310,12,,10.0,29.97933,,,TRUE,TRUE,,,,,,,OVC,1700,,,,,,,MVFR,,,,,,,,,,,,METAR,237.0
KGAO 211655Z AUTO 15013G19KT 110V170 10SM OVC085 22/13 A3010 RMK AO2 T02240134,KGAO,2015-02-21T16:55:00Z,29.45,-90.27,22.4,13.4,150,13,19,10.0,30.100393,,,TRUE,TRUE,,,,,,,OVC,8500,,,,,,,VFR,,,,,,,,,,,,METAR,1.0
KFYJ 211655Z AUTO 15006KT 10SM OVC046 01/M15 A3043 RMK AO2 T00111146,KFYJ,2015-02-21T16:55:00Z,37.52,-76.77,1.1,-14.6,150,6,,10.0,30.431103,,,TRUE,TRUE,,,,,,,OVC,4600,,,,,,,VFR,,,,,,,,,,,,METAR,7.0
KFSO 211655Z AUTO 19009G19KT 160V220 10SM BKN070 OVC095 M07/M21 A3017 RMK AO2 T10721211,KFSO,2015-02-21T16:55:00Z,44.93,-73.1,-7.2,-21.1,190,9,19,10.0,30.171259,,,TRUE,TRUE,,,,,,,BKN,7000,OVC,9500,,,,,VFR,,,,,,,,,,,,METAR,70.0
KFOT 211655Z AUTO 17003KT 10SM CLR 08/08 A3005 RMK AO1,KFOT,2015-02-21T16:55:00Z,40.55,-124.13,8.0,8.0,170,3,,10.0,30.050198,,,TRUE,TRUE,,,,,,,CLR,,,,,,,,VFR,,,,,,,,,,,,METAR,120.0
KFKR 211655Z AUTO 00000KT 1 3/4SM -SN OVC007 M04/M06 A2993 RMK AO2 T10431057,KFKR,2015-02-21T16:55:00Z,40.27,-86.57,-4.3,-5.7,0,0,,1.75,29.929134,,,TRUE,TRUE,,,,,,-SN,OVC,700,,,,,,,IFR,,,,,,,,,,,,METAR,262.0
KFHB 211655Z AUTO 12003KT 10SM SCT039 BKN047 OVC060 18/08 A3034 RMK AO1,KFHB,2015-02-21T16:55:00Z,30.62,-81.47,18.0,8.0,120,3,,10.0,30.339567,,,TRUE,TRUE,,,,,,,SCT,3900,BKN,4700,OVC,6000,,,VFR,,,,,,,,,,,,METAR,5.0
KF46 211655Z AUTO 31009KT 10SM OVC017 10/06 A2993 RMK AO2 T01010056,KF46,2015-02-21T16:55:00Z,32.93,-96.43,10.1,5.6,310,9,,10.0,29.929134,,,TRUE,TRUE,,,,,,,OVC,1700,,,,,,,MVFR,,,,,,,,,,,,METAR,176.0
PAAD 211655Z AUTO 08017KT 1 3/4SM BR OVC002 M10/M12 A3015 RMK AO2,PAAD,2015-02-21T16:55:00Z,70.13,-146.28,-10.0,-12.0,80,17,,1.75,30.15059,,,TRUE,TRUE,,,,,,BR,OVC,200,,,,,,,LIFR,,,,,,,,,,,,METAR,8.0
KCCO 211655Z AUTO 16008KT 10SM OVC080 07/M03 A3021 RMK AO2 T00701030,KCCO,2015-02-21T16:55:00Z,33.32,-84.77,7.0,-3.0,160,8,,10.0,30.209646,,,TRUE,TRUE,,,,,,,OVC,8000,,,,,,,VFR,,,,,,,,,,,,METAR,296.0
KBYY 211655Z AUTO 19014G18KT 7SM SCT046 OVC050 22/19 A2996 RMK AO2 T02270194,KBYY,2015-02-21T16:55:00Z,28.97,-95.87,22.7,19.4,190,14,18,7.0,29.958662,,,TRUE,TRUE,,,,,,,SCT,4600,OVC,5000,,,,,VFR,,,,,,,,,,,,METAR,14.0
KBXK 211655Z AUTO 00000KT 10SM CLR 17/04 A2992 RMK AO1,KBXK,2015-02-21T16:55:00Z,33.42,-112.68,17.0,4.0,0,0,,10.0,29.920275,,,TRUE,TRUE,,,,,,,CLR,,,,,,,,VFR,,,,,,,,,,,,METAR,315.0
KBMT 211655Z AUTO 18012G21KT 7SM BKN019 BKN024 OVC060 20/17 A3000 RMK AO2 T02000169,KBMT,2015-02-21T16:55:00Z,30.07,-94.22,20.0,16.9,180,12,21,7.0,30.0,,,TRUE,TRUE,,,,,,,BKN,1900,BKN,2400,OVC,6000,,,MVFR,,,,,,,,,,,,METAR,10.0
KCQB 211655Z AUTO 04007KT 360V060 10SM OVC009 05/05 A3002 RMK AO2,KCQB,2015-02-21T16:55:00Z,35.72,-96.82,5.0,5.0,40,7,,10.0,30.02067,,,TRUE,TRUE,,,,,,,OVC,900,,,,,,,IFR,,,,,,,,,,,,METAR,300.0
KCPT 211655Z AUTO 35013KT 10SM BKN017 BKN041 BKN048 12/08 A2996 RMK AO2,KCPT,2015-02-21T16:55:00Z,32.35,-97.43,12.0,8.0,350,13,,10.0,29.958662,,,TRUE,TRUE,,,,,,,BKN,1700,BKN,4100,BKN,4800,,,MVFR,,,,,,,,,,,,METAR,260.0
KCPC 211655Z AUTO 00000KT 10SM SCT029 BKN048 OVC050 11/02 A3038 RMK AO2 T01070018,KCPC,2015-02-21T16:55:00Z,34.28,-78.72,10.7,1.8,0,0,,10.0,30.380905,,,TRUE,TRUE,,,,,,,SCT,2900,BKN,4800,OVC,5000,,,VFR,,,,,,,,,,,,METAR,29.0
KCOM 211655Z AUTO 35012KT 10SM OVC015 11/07 A2999 RMK AO2 T01070068,KCOM,2015-02-21T16:55:00Z,31.83,-99.4,10.7,6.8,350,12,,10.0,29.991142,,,TRUE,TRUE,,,,,,,OVC,1500,,,,,,,MVFR,,,,,,,,,,,,METAR,517.0
KCNC 211655Z AUTO 34010KT 10SM OVC014 M00/M03 A2998 RMK AO2,KCNC,2015-02-21T16:55:00Z,41.02,-93.37,0.0,-3.0,340,10,,10.0,29.97933,,,TRUE,TRUE,,,,,,,OVC,1400,,,,,,,MVFR,,,,,,,,,,,,METAR,320.0
KCIN 211655Z AUTO 34015G20KT 10SM FEW075 OVC090 M04/M09 A3003 RMK AO2,KCIN,2015-02-21T16:55:00Z,42.03,-94.77,-4.0,-9.0,340,15,20,10.0,30.029528,,,TRUE,TRUE,,,,,,,FEW,7500,OVC,9000,,,,,VFR,,,,,,,,,,,,METAR,375.0
KCHK 211655Z AUTO 04014KT 10SM CLR 07/03 A3003 RMK AO2,KCHK,2015-02-21T16:55:00Z,35.1,-97.97,7.0,3.0,40,14,,10.0,30.029528,,,TRUE,TRUE,,,,,,,CLR,,,,,,,,VFR,,,,,,,,,,,,METAR,351.0
KCFD 211655Z AUTO 20012G19KT 10SM BKN021 OVC026 21/17 A2991 RMK AO2 T02080167,KCFD,2015-02-21T16:55:00Z,30.72,-96.33,20.8,16.7,200,12,19,10.0,29.911417,,,TRUE,TRUE,,,,,,,BKN,2100,OVC,2600,,,,,MVFR,,,,,,,,,,,,METAR,112.0
KCCY 211655Z AUTO 33013KT 8SM SCT011 OVC017 M05/M06 A2997 RMK AO2,KCCY,2015-02-21T16:55:00Z,43.07,-92.62,-5.0,-6.0,330,13,,8.0,29.970472,,,TRUE,TRUE,,,,,,,SCT,1100,OVC,1700,,,,,MVFR,,,,,,,,,,,,METAR,343.0
KCBF 211655Z AUTO 36012KT 9SM FEW015 BKN027 OVC046 01/M01 A3001 RMK AO2,KCBF,2015-02-21T16:55:00Z,41.27,-95.77,1.0,-1.0,360,12,,9.0,30.008858,,,TRUE,TRUE,,,,,,,FEW,1500,BKN,2700,OVC,4600,,,MVFR,,,,,,,,,,,,METAR,382.0
KCAV 211655Z AUTO 34013G18KT 10SM OVC011 M06/M08 A3000 RMK AO2,KCAV,2015-02-21T16:55:00Z,42.75,-93.77,-6.0,-8.0,340,13,18,10.0,30.0,,,TRUE,TRUE,,,,,,,OVC,1100,,,,,,,MVFR,,,,,,,,,,,,METAR,354.0
KC35 211655Z AUTO 34004KT 10SM SCT023 M03/M09 A2993 RMK AO2 T10351087,KC35,2015-02-21T16:55:00Z,43.53,-89.98,-3.5,-8.7,340,4,,10.0,29.929134,,,TRUE,TRUE,,,,,,,SCT,2300,,,,,,,VFR,,,,,,,,,,,,METAR,276.0
KC29 211655Z AUTO 03003KT 10SM OVC018 M03/M08 A2993 RMK AO1 T10281082,KC29,2015-02-21T16:55:00Z,43.12,-89.53,-2.8,-8.2,30,3,,10.0,29.929134,,,TRUE,TRUE,,,,,,,OVC,1800,,,,,,,MVFR,,,,,,,,,,,,METAR,283.0
KC09 211655Z AUTO 00000KT 7SM BKN032 OVC090 M04/M07 A2994 RMK AO2 T10451066,KC09,2015-02-21T16:55:00Z,41.43,-88.42,-4.5,-6.6,0,0,,7.0,29.940945,,,TRUE,TRUE,,,,,,,BKN,3200,OVC,9000,,,,,VFR,,,,,,,,,,,,METAR,178.0
KBVN 211655Z AUTO 36010G16KT 5SM -SN OVC009 M02/M04 A3006 RMK AO2 T10201043,KBVN,2015-02-21T16:55:00Z,41.73,-98.05,-2.0,-4.3,360,10,16,5.0,30.059055,,,TRUE,TRUE,,,,,,-SN,OVC,900,,,,,,,IFR,,,,,,,,,,,,METAR,551.0
KBTA 211655Z AUTO 35014G17KT 7SM OVC010 M01/M03 A3003 RMK AO2 T10061035,KBTA,2015-02-21T16:55:00Z,41.42,-96.12,-0.6,-3.5,350,14,17,7.0,30.029528,,,TRUE,TRUE,,,,,,,OVC,1000,,,,,,,MVFR,,,,,,,,,,,,METAR,396.0
KBQX 211655Z AUTO 16010KT 4SM BR FEW021 FEW026 BKN046 20/18 A2998 RMK A01,KBQX,2015-02-21T16:55:00Z,28.5,-95.72,20.0,18.0,160,10,,4.0,29.97933,,,TRUE,TRUE,,,,,,BR,FEW,2100,FEW,2600,BKN,4600,,,MVFR,,,,,,,,,,,,METAR,34.0
EHEH 211655Z AUTO 18003KT 9999 FEW027 SCT087 BKN100 02/02 Q1000 BLU 23005KT 9999 SCT030 TEMPO 4000 -SHRA SCT008 SCT014CB BKN018,EHEH,2015-02-21T16:55:00Z,51.45,5.38,2.0,2.0,180,3,,6.21,29.52756,,,TRUE,,,,,,,,FEW,2700,SCT,8700,BKN,10000,SCT,3000,VFR,,,,,,,,,,,,METAR,22.0
KUOX 211655Z AUTO 19014G30KT 1 1/4SM BR BKN001 OVC013 13/12 A2987 RMK AO2 PWINO PNO,KUOX,2015-02-21T16:55:00Z,34.38,-89.53,13.0,12.0,190,14,30,1.25,29.870079,,,TRUE,TRUE,,,,,TRUE,BR,BKN,100,OVC,1300,,,,,LIFR,,,,,,,,,,,,METAR,137.0
KSNC 211655Z AUTO 20009KT 10SM CLR M03/M10 A3043 RMK AO2,KSNC,2015-02-21T16:55:00Z,41.38,-72.5,-3.0,-10.0,200,9,,10.0,30.431103,,,TRUE,TRUE,,,,,,,CLR,,,,,,,,VFR,,,,,,,,,,,,METAR,127.0
KRUG 211655Z AUTO 31006KT 10SM CLR M19/M24 A3026 RMK AO2,KRUG,2015-02-21T16:55:00Z,48.38,-100.02,-19.0,-24.0,310,6,,10.0,30.259842,,,TRUE,TRUE,,,,,,,CLR,,,,,,,,VFR,,,,,,,,,,,,METAR,472.0
KO54 211655Z AUTO 00000KT 10SM CLR 03/00 A3005 RMK AO1,KO54,2015-02-21T16:55:00Z,40.75,-122.92,3.0,0.0,0,0,,10.0,30.050198,,,TRUE,TRUE,,,,,,,CLR,,,,,,,,VFR,,,,,,,,,,,,METAR,717.0
KFGX 211655Z AUTO 20011G16KT 4SM -RA OVC007 01/00 A2995 RMK AO2 T00070001,KFGX,2015-02-21T16:55:00Z,38.55,-83.75,0.7,0.1,200,11,16,4.0,29.949802,,,TRUE,TRUE,,,,,,-RA,OVC,700,,,,,,,IFR,,,,,,,,,,,,METAR,278.0
KANK 211655Z AUTO 24005KT 10SM SCT050 02/M07 A2995 RMK AO1 T00161069,KANK,2015-02-21T16:55:00Z,38.53,-106.05,1.6,-6.9,240,5,,10.0,29.949802,,,TRUE,TRUE,,,,,,,SCT,5000,,,,,,,VFR,,,,,,,,,,,,METAR,2293.0
KAXH 211655Z AUTO 18013G20KT 10SM SCT026 BKN033 OVC050 24/19 A2996 RMK AO2 T02360194,KAXH,2015-02-21T16:55:00Z,29.52,-95.48,23.6,19.4,180,13,20,10.0,29.958662,,,TRUE,TRUE,,,,,,,SCT,2600,BKN,3300,OVC,5000,,,VFR,,,,,,,,,,,,METAR,21.0
KAXA 211655Z AUTO 35012G18KT 9SM -SN OVC016 M07/M10 A3003 RMK AO2,KAXA,2015-02-21T16:55:00Z,43.07,-94.27,-7.0,-10.0,350,12,18,9.0,30.029528,,,TRUE,TRUE,,,,,,-SN,OVC,1600,,,,,,,MVFR,,,,,,,,,,,,METAR,372.0
KAWG 211655Z AUTO 33011KT 8SM OVC028 01/M00 A2995 RMK AO2,KAWG,2015-02-21T16:55:00Z,41.27,-91.67,1.0,0.0,330,11,,8.0,29.949802,,,TRUE,TRUE,,,,,,,OVC,2800,,,,,,,MVFR,,,,,,,,,,,,METAR,230.0
KAVQ 211655Z AUTO 11006KT 10SM CLR 19/02 A2995 RMK AO2 T01890017,KAVQ,2015-02-21T16:55:00Z,32.4,-111.22,18.9,1.7,110,6,,10.0,29.949802,,,TRUE,TRUE,,,,,,,CLR,,,,,,,,VFR,,,,,,,,,,,,METAR,619.0
KAUH 211655Z AUTO 01010KT 10SM SCT028 04/00 A3001 RMK AO2 T00421004,KAUH,2015-02-21T16:55:00Z,40.88,-98.0,4.2,-0.4,10,10,,10.0,30.008858,,,TRUE,TRUE,,,,,,,SCT,2800,,,,,,,VFR,,,,,,,,,,,,METAR,550.0
KATP 211655Z AUTO 17018G26KT 150V210 10SM FEW038 FEW065 23/14 A3012 RMK A01,KATP,2015-02-21T16:55:00Z,27.2,-90.03,23.0,14.0,170,18,26,10.0,30.121063,,,TRUE,TRUE,,,,,,,FEW,3800,FEW,6500,,,,,VFR,,,,,,,,,,,,METAR,62.0
KASW 211655Z AUTO 00000KT 1SM -SN BKN010 OVC017 M05/M07 A2993 RMK AO2,KASW,2015-02-21T16:55:00Z,41.27,-85.83,-5.0,-7.0,0,0,,1.0,29.929134,,,TRUE,TRUE,,,,,,-SN,BKN,1000,OVC,1700,,,,,IFR,,,,,,,,,,,,METAR,259.0
KASL 211655Z AUTO 22009KT 10SM SCT019 SCT026 SCT037 22/18 A2990 RMK AO1 T02160177,KASL,2015-02-21T16:55:00Z,32.52,-94.3,21.6,17.7,220,9,,10.0,29.899607,,,TRUE,TRUE,,,,,,,SCT,1900,SCT,2600,SCT,3700,,,VFR,,,,,,,,,,,,METAR,109.0
KARM 211655Z AUTO 19017G22KT 7SM SCT021 OVC048 22/18 A2995 RMK AO2 T02170176,KARM,2015-02-21T16:55:00Z,29.25,-96.15,21.7,17.6,190,17,22,7.0,29.949802,,,TRUE,TRUE,,,,,,,SCT,2100,OVC,4800,,,,,VFR,,,,,,,,,,,,METAR,31.0
KAQO 211655Z AUTO 36011KT 10SM FEW021 BKN032 16/11 A2996 RMK AO2,KAQO,2015-02-21T16:55:00Z,30.78,-98.67,16.0,11.0,360,11,,10.0,29.958662,,,TRUE,TRUE,,,,,,,FEW,2100,BKN,3200,,,,,VFR,,,,,,,,,,,,METAR,336.0
KANW 211655Z AUTO 01014KT 7SM OVC015 M04/M06 A3010 RMK AO2 T10411064,KANW,2015-02-21T16:55:00Z,42.57,-100.0,-4.1,-6.4,10,14,,7.0,30.100393,,,TRUE,TRUE,,,,,,,OVC,1500,,,,,,,MVFR,,,,,,,,,,,,METAR,789.0
KALX 211655Z AUTO 15006KT 10SM SCT080 10/01 A3018 RMK AO2 T00950006,KALX,2015-02-21T16:55:00Z,32.92,-85.97,9.5,0.6,150,6,,10.0,30.180119,,,TRUE,TRUE,,,,,,,SCT,8000,,,,,,,VFR,,,,,,,,,,,,METAR,209.0
KAIO 211655Z AUTO 34014KT 10SM OVC012 M01/M04 A3002 RMK AO2,KAIO,2015-02-21T16:55:00Z,41.38,-95.03,-1.0,-4.0,340,14,,10.0,30.02067,,,TRUE,TRUE,,,,,,,OVC,1200,,,,,,,MVFR,,,,,,,,,,,,METAR,360.0
KAHQ 211655Z AUTO 36011G14KT 7SM OVC013 02/M02 A3004 RMK AO2 T00171017,KAHQ,2015-02-21T16:55:00Z,41.23,-96.6,1.7,-1.7,360,11,14,7.0,30.041338,,,TRUE,TRUE,,,,,,,OVC,1300,,,,,,,MVFR,,,,,,,,,,,,METAR,374.0
KAFP 211655Z AUTO 00000KT 10SM OVC016 04/M04 A3036 RMK AO2 T00381039,KAFP,2015-02-21T16:55:00Z,35.02,-80.08,3.8,-3.9,0,0,,10.0,30.360237,,,TRUE,TRUE,,,,,,,OVC,1600,,,,,,,MVFR,,,,,,,,,,,,METAR,92.0
KAFK 211655Z AUTO 03011G14KT 10SM SCT018 SCT039 04/M03 A3001 RMK AO2 T00401030,KAFK,2015-02-21T16:55:00Z,40.6,-95.85,4.0,-3.0,30,11,14,10.0,30.008858,,,TRUE,TRUE,,,,,,,SCT,1800,SCT,3900,,,,,VFR,,,,,,,,,,,,METAR,354.0
KADU 211655Z AUTO 35011G15KT 10SM SCT085 M03/M07 A3001 RMK AO2,KADU,2015-02-21T16:55:00Z,41.7,-94.92,-3.0,-7.0,350,11,15,10.0,30.008858,,,TRUE,TRUE,,,,,,,SCT,8500,,,,,,,VFR,,,,,,,,,,,,METAR,392.0
K6B0 211655Z AUTO 24006KT 10SM SCT095 BKN120 M07/M21 A3019 RMK AO2 T10681214,K6B0,2015-02-21T16:55:00Z,43.98,-73.1,-6.8,-21.4,240,6,,10.0,30.188976,,,TRUE,TRUE,,,,,,,SCT,9500,BKN,12000,,,,,VFR,,,,,,,,,,,,METAR,149.0
K66R 211655Z AUTO 19006KT 7SM OVC017 20/17 A2993 RMK AO2 T02000173,K66R,2015-02-21T16:55:00Z,29.65,-96.52,20.0,17.3,190,6,,7.0,29.929134,,,TRUE,TRUE,,,,,,,OVC,1700,,,,,,,MVFR,,,,,,,,,,,,METAR,74.0
EHFS 211655Z AUTO 29009KT 9999 SCT044/// 05/02 Q1001,EHFS,2015-02-21T16:55:00Z,51.45,3.6,5.0,2.0,290,9,,6.21,29.557087,,,TRUE,,,,,,,,,,,,,,,,,,,,,,,,,,,,METAR,32.0
KBNW 211655Z AUTO 35014KT 10SM SCT017 M04/M08 A2998 RMK AO2,KBNW,2015-02-21T16:55:00Z,42.03,-93.83,-4.0,-8.0,350,14,,10.0,29.97933,,,TRUE,TRUE,,,,,,,SCT,1700,,,,,,,VFR,,,,,,,,,,,,METAR,354.0
KBKT 211655Z AUTO 10SM OVC030 M01/M09 A3037 RMK AO1 T10111093,KBKT,2015-02-21T16:55:00Z,37.07,-77.95,-1.1,-9.3,,,,10.0,30.369095,,,TRUE,TRUE,,,,,,,OVC,3000,,,,,,,MVFR,,,,,,,,,,,,METAR,134.0
KBIE 211655Z AUTO 00000KT 4SM BR OVC008 01/M01 A3003 RMK AO2 T00121007,KBIE,2015-02-21T16:55:00Z,40.28,-96.75,1.2,-0.7,0,0,,4.0,30.029528,,,TRUE,TRUE,,,,,,BR,OVC,800,,,,,,,IFR,,,,,,,,,,,,METAR,403.0
KFKA 211655Z AUTO 01010KT 7SM SCT015 BKN021 OVC085 M06/M09 A2994 RMK AO2 T10561088,KFKA,2015-02-21T16:55:00Z,43.68,-92.17,-5.6,-8.8,10,10,,7.0,29.940945,,,TRUE,TRUE,,,,,,,SCT,1500,BKN,2100,OVC,8500,,,MVFR,,,,,,,,,,,,SPECI,389.0
TXKF 211655Z 04007KT 350V090 9999 FEW038 BKN300 15/06 Q1031 ,TXKF,2015-02-21T16:55:00Z,32.37,-64.68,15.0,6.0,40,7,,6.21,30.442913,,,,,,,,,,,FEW,3800,BKN,30000,,,,,VFR,,,,,,,,,,,,METAR,6.0
EHKD 211655Z AUTO 29012KT 9999 SCT017 BKN021 BKN026 05/01 Q0998 WHT 29011KT 9999 SCT015 BKN050,EHKD,2015-02-21T16:55:00Z,52.92,4.77,5.0,1.0,290,12,,6.21,29.468504,,,TRUE,,,,,,,,SCT,1700,BKN,2100,BKN,2600,SCT,1500,MVFR,,,,,,,,,,,,METAR,14.0
RCKH 211655Z 36006KT 310V030 3500 -RA FEW010 BKN020 BKN035 21/21 Q1016 RERA TEMPO 5000 -RA RMK A3002,RCKH,2015-02-21T16:55:00Z,22.57,120.33,21.0,21.0,360,6,,2.17,30.0,,,,,,,,,,-RA,FEW,1000,BKN,2000,BKN,3500,,,IFR,,,,,,,,,,,,METAR,9.0
KQAJ 211655Z 09008KT 9000 HZ 13/03 A2992 RMK SLP131 T01310030,KQAJ,2015-02-21T16:55:00Z,100.65,-1000.65,13.1,3.0,90,8,,5.59,29.920275,1013.1,,,,,,,,,HZ,,,,,,,,,,,,,,,,,,,,,METAR,999.0
KGYL 211655Z AUTO 34013KT 7SM -SN BKN012 BKN019 OVC090 M09/M12 A3006 RMK AO2 T10861116,KGYL,2015-02-21T16:55:00Z,44.77,-94.08,-8.6,-11.6,340,13,,7.0,30.059055,,,TRUE,TRUE,,,,,,-SN,BKN,1200,BKN,1900,OVC,9000,,,MVFR,,,,,,,,,,,,SPECI,302.0
KHCO 211655Z AUTO 33009KT 10SM CLR M22/M26 A3027 RMK AO2,KHCO,2015-02-21T16:55:00Z,48.75,-96.93,-22.0,-26.0,330,9,,10.0,30.268702,,,TRUE,TRUE,,,,,,,CLR,,,,,,,,VFR,,,,,,,,,,,,SPECI,250.0
KBYS 211655Z AUTO 11006KT 10SM CLR 16/M03 A2989 RMK AO2 SLP105 T01631032 $,KBYS,2015-02-21T16:55:00Z,35.28,-116.62,16.3,-3.2,110,6,,10.0,29.890747,1010.5,,TRUE,TRUE,TRUE,,,,,,CLR,,,,,,,,VFR,,,,,,,,,,,,METAR,716.0
KFKL 211655Z AUTO 14009KT 1 3/4SM OVC017 M07/M09 A2994 RMK AO1 P0001,KFKL,2015-02-21T16:55:00Z,41.37,-79.87,-7.0,-9.0,140,9,,1.75,29.940945,,,TRUE,TRUE,,,,,,,OVC,1700,,,,,,,IFR,,,,,,0.01,,,,,,METAR,469.0
KFCI 211655Z AUTO 19011G15KT 10SM FEW038 BKN046 OVC075 M02/M13 A3039 RMK AO1,KFCI,2015-02-21T16:55:00Z,37.4,-77.52,-2.0,-13.0,190,11,15,10.0,30.389763,,,TRUE,TRUE,,,,,,,FEW,3800,BKN,4600,OVC,7500,,,VFR,,,,,,,,,,,,METAR,72.0
KFAM 211655Z AUTO 00000KT 9SM OVC005 M01/M02 A2994 RMK AO1,KFAM,2015-02-21T16:55:00Z,37.77,-90.42,-1.0,-2.0,0,0,,9.0,29.940945,,,TRUE,TRUE,,,,,,,OVC,500,,,,,,,IFR,,,,,,,,,,,,METAR,288.0
KEWK 211655Z AUTO 36012KT 10SM CLR 07/02 A3002 RMK AO1,KEWK,2015-02-21T16:55:00Z,38.03,-97.27,7.0,2.0,360,12,,10.0,30.02067,,,TRUE,TRUE,,,,,,,CLR,,,,,,,,VFR,,,,,,,,,,,,METAR,467.0
KEUL 211655Z AUTO 30004KT 10SM SCT120 04/M02 A3008 RMK AO1,KEUL,2015-02-21T16:55:00Z,43.62,-116.62,4.0,-2.0,300,4,,10.0,30.079725,,,TRUE,TRUE,,,,,,,SCT,12000,,,,,,,VFR,,,,,,,,,,,,METAR,740.0
KESN 211655Z 20010G17KT 10SM OVC055 M01/M09 A3045,KESN,2015-02-21T16:55:00Z,38.8,-76.07,-1.0,-9.0,200,10,17,10.0,30.448818,,,,,,,,,,,OVC,5500,,,,,,,VFR,,,,,,,,,,,,METAR,22.0
KESC 211655Z AUTO 35009KT 10SM BKN028 M06/M13 A2990 RMK AO1,KESC,2015-02-21T16:55:00Z,45.75,-87.08,-6.0,-13.0,350,9,,10.0,29.899607,,,TRUE,TRUE,,,,,,,BKN,2800,,,,,,,MVFR,,,,,,,,,,,,METAR,187.0
KENV 211655Z AUTO 32006KT 10SM CLR 06/M05 A3000 RMK AO1,KENV,2015-02-21T16:55:00Z,40.72,-114.02,6.0,-5.0,320,6,,10.0,30.0,,,TRUE,TRUE,,,,,,,CLR,,,,,,,,VFR,,,,,,,,,,,,METAR,1292.0
KEIK 211655Z AUTO 08005KT 4SM -SN BKN008 OVC023 00/M01 A2995 RMK AO2 T00001011,KEIK,2015-02-21T16:55:00Z,40.02,-105.05,0.0,-1.1,80,5,,4.0,29.949802,,,TRUE,TRUE,,,,,,-SN,BKN,800,OVC,2300,,,,,IFR,,,,,,,,,,,,METAR,1564.0
KEHR 211655Z AUTO 00000KT 1SM OVC004 01/M01 A2990 RMK AO1 P0002,KEHR,2015-02-21T16:55:00Z,37.82,-87.67,1.0,-1.0,0,0,,1.0,29.899607,,,TRUE,TRUE,,,,,,,OVC,400,,,,,,,LIFR,,,,,,0.02,,,,,,METAR,117.0
KFLP 211655Z 00000KT 10SM SCT043 SCT049 OVC080 01/M01 A2993 RMK AO1 P0005,KFLP,2015-02-21T16:55:00Z,36.28,-92.58,1.0,-1.0,0,0,,10.0,29.929134,,,,TRUE,,,,,,,SCT,4300,SCT,4900,OVC,8000,,,VFR,,,,,,0.05,,,,,,METAR,219.0
KFRM 211655Z AUTO 32013KT 10SM OVC015 M07/M12 A3003 RMK AO1,KFRM,2015-02-21T16:55:00Z,43.63,-94.42,-7.0,-12.0,320,13,,10.0,30.029528,,,TRUE,TRUE,,,,,,,OVC,1500,,,,,,,MVFR,,,,,,,,,,,,METAR,354.0
KFOD 211655Z AUTO 34010G14KT 10SM BKN015 OVC100 M06/M10 A3002 RMK AO1,KFOD,2015-02-21T16:55:00Z,42.53,-94.17,-6.0,-10.0,340,10,14,10.0,30.02067,,,TRUE,TRUE,,,,,,,BKN,1500,OVC,10000,,,,,MVFR,,,,,,,,,,,,METAR,355.0
KFNL 211655Z AUTO 11005KT 1SM BKN009 BKN016 BKN024 M01/M02 A2998 RMK AO1,KFNL,2015-02-21T16:55:00Z,40.45,-105.02,-1.0,-2.0,110,5,,1.0,29.97933,,,TRUE,TRUE,,,,,,,BKN,900,BKN,1600,BKN,2400,,,IFR,,,,,,,,,,,,METAR,1529.0
KFMM 211655Z AUTO 00000KT 10SM SCT032 BKN042 OVC060 00/M03 A3000 RMK AO2 T00021031,KFMM,2015-02-21T16:55:00Z,40.33,-103.8,0.2,-3.1,0,0,,10.0,30.0,,,TRUE,TRUE,,,,,,,SCT,3200,BKN,4200,OVC,6000,,,VFR,,,,,,,,,,,,METAR,1393.0
KGAD 211655Z 18007G15KT 10SM OVC026 A3012 RMK AO1,KGAD,2015-02-21T16:55:00Z,33.97,-86.07,,,180,7,15,10.0,30.121063,,,,TRUE,,,,,,,OVC,2600,,,,,,,MVFR,,,,,,,,,,,,METAR,173.0
KFMH 211655Z AUTO 22019KT 10SM CLR M01/M08 A3046 RMK AO2 FZRANO,KFMH,2015-02-21T16:55:00Z,41.63,-70.52,-1.0,-8.0,220,19,,10.0,30.46063,,,TRUE,TRUE,,,,TRUE,,,CLR,,,,,,,,VFR,,,,,,,,,,,,METAR,40.0
KGAI 211655Z AUTO 16006G14KT 1/2SM OVC006 M08/M11 A3037 RMK AO1,KGAI,2015-02-21T16:55:00Z,39.17,-77.17,-8.0,-11.0,160,6,14,0.5,30.369095,,,TRUE,TRUE,,,,,,,OVC,600,,,,,,,LIFR,,,,,,,,,,,,METAR,165.0
KGBD 211655Z AUTO 02008KT 10SM OVC080 08/M01 A3003 RMK AO1,KGBD,2015-02-21T16:55:00Z,38.35,-98.87,8.0,-1.0,20,8,,10.0,30.029528,,,TRUE,TRUE,,,,,,,OVC,8000,,,,,,,VFR,,,,,,,,,,,,METAR,575.0
KGDV 211655Z AUTO 34008KT 280V350 10SM BKN020 OVC070 M11/M14 A3029 RMK AO1,KGDV,2015-02-21T16:55:00Z,47.12,-104.78,-11.0,-14.0,340,8,,10.0,30.28937,,,TRUE,TRUE,,,,,,,BKN,2000,OVC,7000,,,,,MVFR,,,,,,,,,,,,METAR,749.0
KGPZ 211655Z AUTO 32011KT 10SM SCT017 M16/M19 A3004 RMK AO1,KGPZ,2015-02-21T16:55:00Z,47.22,-93.52,-16.0,-19.0,320,11,,10.0,30.041338,,,TRUE,TRUE,,,,,,,SCT,1700,,,,,,,VFR,,,,,,,,,,,,METAR,413.0
KGUC 211655Z 14003KT 10SM CLR M07/M12 A2993 RMK AO1,KGUC,2015-02-21T16:55:00Z,38.52,-106.92,-7.0,-12.0,140,3,,10.0,29.929134,,,,TRUE,,,,,,,CLR,,,,,,,,VFR,,,,,,,,,,,,METAR,2339.0
KGXY 211655Z AUTO 10006KT 5SM FEW010 M01/M03 A2997 RMK AO1,KGXY,2015-02-21T16:55:00Z,40.42,-104.62,-1.0,-3.0,100,6,,5.0,29.970472,,,TRUE,TRUE,,,,,,,FEW,1000,,,,,,,MVFR,,,,,,,,,,,,METAR,1420.0
KHDN 211655Z AUTO 00000KT 5SM FEW020 FEW027 SCT038 M03/M06 A2991 RMK AO1,KHDN,2015-02-21T16:55:00Z,40.47,-107.22,-3.0,-6.0,0,0,,5.0,29.911417,,,TRUE,TRUE,,,,,,,FEW,2000,FEW,2700,SCT,3800,,,MVFR,,,,,,,,,,,,METAR,2012.0
KHEZ 211655Z AUTO 19014G23KT 10SM OVC036 19/12 A3000 RMK AO1,KHEZ,2015-02-21T16:55:00Z,31.62,-91.3,19.0,12.0,190,14,23,10.0,30.0,,,TRUE,TRUE,,,,,,,OVC,3600,,,,,,,VFR,,,,,,,,,,,,METAR,83.0
KHNB 211655Z AUTO 00000KT 3/4SM VV005 01/M01 A2990 RMK AO1 P0001,KHNB,2015-02-21T16:55:00Z,38.25,-86.95,1.0,-1.0,0,0,,0.75,29.899607,,,TRUE,TRUE,,,,,,,OVX,0,,,,,,,LIFR,,,,,,0.01,,,,,500,METAR,161.0
KBNL 211655Z AUTO 19013G20KT CLR 14/04 A3034 RMK AO2,KBNL,2015-02-21T16:55:00Z,33.25,-81.38,14.0,4.0,190,13,20,,30.339567,,,TRUE,TRUE,,,,,,,CLR,,,,,,,,,,,,,,,,,,,,SPECI,75.0
KHVS 211655Z AUTO 11006KT 10SM OVC014 06/M01 A3035 RMK AO2,KHVS,2015-02-21T16:55:00Z,34.4,-80.12,6.0,-1.0,110,6,,10.0,30.351377,,,TRUE,TRUE,,,,,,,OVC,1400,,,,,,,MVFR,,,,,,,,,,,,METAR,111.0
KBTP 211655Z AUTO 17006KT 1 1/4SM OVC010 M04/M05 A2997 RMK AO1,KBTP,2015-02-21T16:55:00Z,40.77,-79.95,-4.0,-5.0,170,6,,1.25,29.970472,,,TRUE,TRUE,,,,,,,OVC,1000,,,,,,,IFR,,,,,,,,,,,,SPECI,380.0
KBVX 211655Z AUTO 00000KT 4SM SCT008 BKN014 OVC045 01/00 A2994 RMK AO1 P0012,KBVX,2015-02-21T16:55:00Z,35.73,-91.65,1.0,0.0,0,0,,4.0,29.940945,,,TRUE,TRUE,,,,,,,SCT,800,BKN,1400,OVC,4500,,,MVFR,,,,,,0.12,,,,,,SPECI,141.0
KCCU 211655Z AUTO 17007KT BKN004 OVC012 M09/M12 A2981 RMK AO2 PWINO,KCCU,2015-02-21T16:55:00Z,39.48,-106.15,-9.0,-12.0,170,7,,,29.811024,,,TRUE,TRUE,,,,,TRUE,,BKN,400,OVC,1200,,,,,,,,,,,,,,,,,SPECI,3680.0
KCDN 211655Z AUTO 13007KT 9SM CLR 10/01 A3033 RMK AO2 TSNO,KCDN,2015-02-21T16:55:00Z,34.28,-80.57,10.0,1.0,130,7,,9.0,30.33071,,,TRUE,TRUE,,,TRUE,,,,CLR,,,,,,,,VFR,,,,,,,,,,,,SPECI,92.0
KCGZ 211655Z AUTO 00000KT 10SM CLR 17/05 A2993 RMK AO1,KCGZ,2015-02-21T16:55:00Z,32.95,-111.77,17.0,5.0,0,0,,10.0,29.929134,,,TRUE,TRUE,,,,,,,CLR,,,,,,,,VFR,,,,,,,,,,,,SPECI,446.0
KCIU 211655Z AUTO 26008KT 10SM FEW016 OVC060 M06/M10 A2988 RMK AO1,KCIU,2015-02-21T16:55:00Z,46.25,-84.47,-6.0,-10.0,260,8,,10.0,29.878937,,,TRUE,TRUE,,,,,,,FEW,1600,OVC,6000,,,,,VFR,,,,,,,,,,,,SPECI,244.0
KCOD 211655Z 34012G21KT 7SM FEW042 BKN050 OVC065 M07/M11 A3011 RMK AO1,KCOD,2015-02-21T16:55:00Z,44.52,-109.02,-7.0,-11.0,340,12,21,7.0,30.109253,,,,TRUE,,,,,,,FEW,4200,BKN,5000,OVC,6500,,,VFR,,,,,,,,,,,,SPECI,1553.0
KCOE 211655Z AUTO 03011KT 10SM CLR 02/01 A3021 RMK AO1,KCOE,2015-02-21T16:55:00Z,47.77,-116.82,2.0,1.0,30,11,,10.0,30.209646,,,TRUE,TRUE,,,,,,,CLR,,,,,,,,VFR,,,,,,,,,,,,SPECI,707.0
KCQW 211655Z AUTO 13009KT 10SM OVC015 04/M05 A3035 RMK AO2,KCQW,2015-02-21T16:55:00Z,34.72,-79.95,4.0,-5.0,130,9,,10.0,30.351377,,,TRUE,TRUE,,,,,,,OVC,1500,,,,,,,MVFR,,,,,,,,,,,,SPECI,73.0
KCVO 211655Z AUTO 03005KT 10SM OVC038 08/04 A3026 RMK AO1,KCVO,2015-02-21T16:55:00Z,44.5,-123.27,8.0,4.0,30,5,,10.0,30.259842,,,TRUE,TRUE,,,,,,,OVC,3800,,,,,,,VFR,,,,,,,,,,,,SPECI,75.0
KCVN 211655Z AUTO 08006KT 10SM CLR 07/M01 A3003 RMK AO1,KCVN,2015-02-21T16:55:00Z,34.42,-103.07,7.0,-1.0,80,6,,10.0,30.029528,,,TRUE,TRUE,,,,,,,CLR,,,,,,,,VFR,,,,,,,,,,,,SPECI,1284.0
KCWI 211655Z AUTO 00000KT 5SM BKN026 BKN034 M03/M06 A2997 RMK AO1,KCWI,2015-02-21T16:55:00Z,41.82,-90.32,-3.0,-6.0,0,0,,5.0,29.970472,,,TRUE,TRUE,,,,,,,BKN,2600,BKN,3400,,,,,MVFR,,,,,,,,,,,,SPECI,216.0
KD57 211655Z AUTO 33015KT 10SM SCT019 BKN050 M12/M17 A3023 RMK AO2,KD57,2015-02-21T16:55:00Z,46.82,-101.87,-12.0,-17.0,330,15,,10.0,30.230314,,,TRUE,TRUE,,,,,,,SCT,1900,BKN,5000,,,,,VFR,,,,,,,,,,,,SPECI,637.0
KMQJ 211655Z AUTO 04003KT 5SM BKN004 BKN013 BKN070 M03/M08 A2991 RMK AO1,KMQJ,2015-02-21T16:55:00Z,39.85,-85.9,-3.0,-8.0,40,3,,5.0,29.911417,,,TRUE,TRUE,,,,,,,BKN,400,BKN,1300,BKN,7000,,,LIFR,,,,,,,,,,,,SPECI,263.0
KMNM 211655Z AUTO 05005KT 10SM CLR M06/M11 A2992 RMK AO1,KMNM,2015-02-21T16:55:00Z,45.12,-87.62,-6.0,-11.0,50,5,,10.0,29.920275,,,TRUE,TRUE,,,,,,,CLR,,,,,,,,VFR,,,,,,,,,,,,SPECI,191.0
KMML 211655Z AUTO 35017G22KT 10SM FEW018 BKN100 M11/M17 A3014 RMK AO1,KMML,2015-02-21T16:55:00Z,44.45,-95.82,-11.0,-17.0,350,17,22,10.0,30.138779,,,TRUE,TRUE,,,,,,,FEW,1800,BKN,10000,,,,,VFR,,,,,,,,,,,,SPECI,359.0
KMKY 211655Z AUTO 13013G18KT 10SM FEW075 23/10 A3025 RMK AO1,KMKY,2015-02-21T16:55:00Z,26.0,-81.67,23.0,10.0,130,13,18,10.0,30.250984,,,TRUE,TRUE,,,,,,,FEW,7500,,,,,,,VFR,,,,,,,,,,,,SPECI,2.0
KMKT 211655Z AUTO 34014KT 9SM BKN014 M08/M12 A3004 RMK AO1,KMKT,2015-02-21T16:55:00Z,44.22,-93.92,-8.0,-12.0,340,14,,9.0,30.041338,,,TRUE,TRUE,,,,,,,BKN,1400,,,,,,,MVFR,,,,,,,,,,,,SPECI,311.0
KMJX 211655Z AUTO 20011G19KT 10SM FEW085 M01/M09 A3043 RMK AO1,KMJX,2015-02-21T16:55:00Z,39.93,-74.3,-1.0,-9.0,200,11,19,10.0,30.431103,,,TRUE,TRUE,,,,,,,FEW,8500,,,,,,,VFR,,,,,,,,,,,,SPECI,25.0
KMEZ 211655Z AUTO 36008KT 10SM OVC010 08/07 A2988 RMK AO2 LTG DSNT SE,KMEZ,2015-02-21T16:55:00Z,34.55,-94.2,8.0,7.0,360,8,,10.0,29.878937,,,TRUE,TRUE,,,,,,,OVC,1000,,,,,,,MVFR,,,,,,,,,,,,SPECI,329.0
KMBL 211655Z AUTO 00000KT 4SM BKN025 M06/M09 A2993 RMK AO1,KMBL,2015-02-21T16:55:00Z,44.27,-86.25,-6.0,-9.0,0,0,,4.0,29.929134,,,TRUE,TRUE,,,,,,,BKN,2500,,,,,,,MVFR,,,,,,,,,,,,SPECI,189.0
KSNH 211655Z AUTO 18015G27KT 5SM OVC013 11/11 A2984 RMK,KSNH,2015-02-21T16:55:00Z,35.17,-88.22,11.0,11.0,180,15,27,5.0,29.840551,,,TRUE,,,,,,,,OVC,1300,,,,,,,MVFR,,,,,,,,,,,,METAR,144.0
KSMN 211655Z AUTO 00000KT 5SM FEW020 BKN026 BKN031 M01/M02 A3003 RMK AO1,KSMN,2015-02-21T16:55:00Z,45.12,-113.87,-1.0,-2.0,0,0,,5.0,30.029528,,,TRUE,TRUE,,,,,,,FEW,2000,BKN,2600,BKN,3100,,,MVFR,,,,,,,,,,,,METAR,1233.0
KSLG 211655Z AUTO 02010G14KT 10SM BKN013 04/01 A2996 RMK AO1,KSLG,2015-02-21T16:55:00Z,36.2,-94.47,4.0,1.0,20,10,14,10.0,29.958662,,,TRUE,TRUE,,,,,,,BKN,1300,,,,,,,MVFR,,,,,,,,,,,,METAR,300.0
KSGU 211655Z AUTO 00000KT 10SM CLR 10/M07 A2997 RMK AO1,KSGU,2015-02-21T16:55:00Z,37.07,-113.52,10.0,-7.0,0,0,,10.0,29.970472,,,TRUE,TRUE,,,,,,,CLR,,,,,,,,VFR,,,,,,,,,,,,METAR,896.0
KSGT 211655Z AUTO 01020G24KT 10SM OVC010 04/02 A2987 RMK AO1 LTG DSNT W P0006,KSGT,2015-02-21T16:55:00Z,34.6,-91.57,4.0,2.0,10,20,24,10.0,29.870079,,,TRUE,TRUE,,,,,,,OVC,1000,,,,,,,MVFR,,,,,,0.06,,,,,,METAR,68.0
KSDY 211655Z AUTO 33011G14KT 10SM SCT036 BKN085 M11/M16 A3034 RMK AO1,KSDY,2015-02-21T16:55:00Z,47.7,-104.2,-11.0,-16.0,330,11,14,10.0,30.339567,,,TRUE,TRUE,,,,,,,SCT,3600,BKN,8500,,,,,VFR,,,,,,,,,,,,METAR,605.0
KSBS 211655Z AUTO 12003KT 7SM SCT023 BKN030 OVC037 M02/M05 A2990 RMK AO1 T10181048,KSBS,2015-02-21T16:55:00Z,40.52,-106.87,-1.8,-4.8,120,3,,7.0,29.899607,,,TRUE,TRUE,,,,,,,SCT,2300,BKN,3000,OVC,3700,,,MVFR,,,,,,,,,,,,METAR,2096.0
KRZT 211655Z AUTO 20005KT 2 1/2SM -SN BKN014 BKN021 OVC035 00/M01 A2995 RMK AO2,KRZT,2015-02-21T16:55:00Z,39.43,-83.02,0.0,-1.0,200,5,,2.5,29.949802,,,TRUE,TRUE,,,,,,-SN,BKN,1400,BKN,2100,OVC,3500,,,IFR,,,,,,,,,,,,METAR,221.0
KRQO 211655Z AUTO 01014G17KT BKN011 06/03 A3002 RMK AO2 PWINO,KRQO,2015-02-21T16:55:00Z,35.47,-98.0,6.0,3.0,10,14,17,,30.02067,,,TRUE,TRUE,,,,,TRUE,,BKN,1100,,,,,,,,,,,,,,,,,,,METAR,432.0
KRCV 211655Z AUTO 07005KT 10SM SCT080 OVC085 00/M11 A2988 RMK AO2 T00001113,KRCV,2015-02-21T16:55:00Z,37.72,-106.35,0.0,-11.3,70,5,,10.0,29.878937,,,TRUE,TRUE,,,,,,,SCT,8000,OVC,8500,,,,,VFR,,,,,,,,,,,,METAR,2424.0
KPWT 211655Z AUTO 03012G17KT 10SM CLR 07/05 A3033 RMK AO1,KPWT,2015-02-21T16:55:00Z,47.5,-122.75,7.0,5.0,30,12,17,10.0,30.33071,,,TRUE,TRUE,,,,,,,CLR,,,,,,,,VFR,,,,,,,,,,,,METAR,147.0
KPWG 211655Z AUTO 35009G14KT 10SM 14/08 A2993 RMK AO1,KPWG,2015-02-21T16:55:00Z,31.47,-97.32,14.0,8.0,350,9,14,10.0,29.929134,,,TRUE,TRUE,,,,,,,,,,,,,,,,,,,,,,,,,,,METAR,180.0
KPVG 211655Z AUTO 16007KT 10SM OVC048 02/M11 A3045 RMK AO1,KPVG,2015-02-21T16:55:00Z,36.78,-76.45,2.0,-11.0,160,7,,10.0,30.448818,,,TRUE,TRUE,,,,,,,OVC,4800,,,,,,,VFR,,,,,,,,,,,,METAR,7.0
KPTV 211655Z AUTO 00000KT 1 1/4SM OVC004 11/09 A2999 RMK AO1,KPTV,2015-02-21T16:55:00Z,36.02,-119.07,11.0,9.0,0,0,,1.25,29.991142,,,TRUE,TRUE,,,,,,,OVC,400,,,,,,,LIFR,,,,,,,,,,,,METAR,135.0
KPTN 211655Z AUTO 18013G21KT 10SM SCT060 OVC075 21/13 A3007 RMK AO1,KPTN,2015-02-21T16:55:00Z,29.72,-91.32,21.0,13.0,180,13,21,10.0,30.070866,,,TRUE,TRUE,,,,,,,SCT,6000,OVC,7500,,,,,VFR,,,,,,,,,,,,METAR,3.0
KPSO 211655Z AUTO 17006KT 10SM BKN100 01/M14 A2991 RMK AO2 T00051143,KPSO,2015-02-21T16:55:00Z,37.28,-107.05,0.5,-14.3,170,6,,10.0,29.911417,,,TRUE,TRUE,,,,,,,BKN,10000,,,,,,,VFR,,,,,,,,,,,,METAR,2334.0
KPRX 211655Z 32011KT 10SM BKN028 OVC036 10/04 A2990 RMK AO1,KPRX,2015-02-21T16:55:00Z,33.62,-95.45,10.0,4.0,320,11,,10.0,29.899607,,,,TRUE,,,,,,,BKN,2800,OVC,3600,,,,,MVFR,,,,,,,,,,,,METAR,167.0
KBLM 211655Z AUTO 20012G17KT 10SM BKN080 OVC090 M02/M11 A3041 RMK AO1,KBLM,2015-02-21T16:55:00Z,40.17,-74.12,-2.0,-11.0,200,12,17,10.0,30.410433,,,TRUE,TRUE,,,,,,,BKN,8000,OVC,9000,,,,,VFR,,,,,,,,,,,,SPECI,48.0
KBGF 211655Z AUTO 16017G27KT 10SM OVC042 04/02 A3000 RMK,KBGF,2015-02-21T16:55:00Z,35.18,-86.07,4.0,2.0,160,17,27,10.0,30.0,,,TRUE,,,,,,,,OVC,4200,,,,,,,VFR,,,,,,,,,,,,METAR,299.0
KAWO 211655Z AUTO 34003KT 1/4SM OVC001 02/00 A3035 RMK AO1,KAWO,2015-02-21T16:55:00Z,48.17,-122.17,2.0,0.0,340,3,,0.25,30.351377,,,TRUE,TRUE,,,,,,,OVC,100,,,,,,,LIFR,,,,,,,,,,,,SPECI,42.0
KAUO 211655Z AUTO 17014KT 10SM OVC095 08/M02 A3024 RMK AO1,KAUO,2015-02-21T16:55:00Z,32.62,-85.42,8.0,-2.0,170,14,,10.0,30.239174,,,TRUE,TRUE,,,,,,,OVC,9500,,,,,,,VFR,,,,,,,,,,,,SPECI,236.0
KATS 211655Z AUTO 05004KT 10SM CLR 10/00 A3004 RMK AO2,KATS,2015-02-21T16:55:00Z,32.85,-104.47,10.0,0.0,50,4,,10.0,30.041338,,,TRUE,TRUE,,,,,,,CLR,,,,,,,,VFR,,,,,,,,,,,,SPECI,1081.0
KARG 211655Z AUTO 35009KT 10SM SCT027 BKN035 OVC055 01/M01 A2991 RMK AO1 P0004,KARG,2015-02-21T16:55:00Z,36.12,-90.92,1.0,-1.0,350,9,,10.0,29.911417,,,TRUE,TRUE,,,,,,,SCT,2700,BKN,3500,OVC,5500,,,VFR,,,,,,0.04,,,,,,SPECI,83.0
KAQP 211655Z AUTO 34017KT 3SM HZ SCT011 SCT075 M12/M16 A3018 RMK AO2,KAQP,2015-02-21T16:55:00Z,45.22,-96.0,-12.0,-16.0,340,17,,3.0,30.180119,,,TRUE,TRUE,,,,,,HZ,SCT,1100,SCT,7500,,,,,MVFR,,,,,,,,,,,,SPECI,311.0
KALM 211655Z AUTO 14005KT 10SM CLR 17/M03 A2997 RMK AO2,KALM,2015-02-21T16:55:00Z,32.82,-105.97,17.0,-3.0,140,5,,10.0,29.970472,,,TRUE,TRUE,,,,,,,CLR,,,,,,,,VFR,,,,,,,,,,,,SPECI,1279.0
KAIZ 211655Z AUTO 00000KT 3SM OVC004 01/M01 A2997 RMK AO1,KAIZ,2015-02-21T16:55:00Z,38.1,-92.53,1.0,-1.0,0,0,,3.0,29.970472,,,TRUE,TRUE,,,,,,,OVC,400,,,,,,,LIFR,,,,,,,,,,,,SPECI,265.0
KAFJ 211655Z AUTO 17004KT 7SM OVC011 M01/M02 A2998 RMK AO1 P0005,KAFJ,2015-02-21T16:55:00Z,40.12,-80.27,-1.0,-2.0,170,4,,7.0,29.97933,,,TRUE,TRUE,,,,,,,OVC,1100,,,,,,,MVFR,,,,,,0.05,,,,,,SPECI,361.0
K5SM 211655Z AUTO 00000KT 1/2SM -SN OVC005 RMK AO2,K5SM,2015-02-21T16:55:00Z,39.43,-107.38,,,0,0,,0.5,,,,TRUE,TRUE,,,,,,-SN,OVC,500,,,,,,,LIFR,,,,,,,,,,,,SPECI,3232.0
K33V 211655Z AUTO 00000KT 5SM OVC080 M07/M08 A2987 RMK AO2,K33V,2015-02-21T16:55:00Z,40.75,-106.28,-7.0,-8.0,0,0,,5.0,29.870079,,,TRUE,TRUE,,,,,,,OVC,8000,,,,,,,MVFR,,,,,,,,,,,,SPECI,2484.0
K20V 211655Z AUTO 00000KT 10SM OVC005 M04/M06 A2991 RMK AO2,K20V,2015-02-21T16:55:00Z,40.05,-106.37,-4.0,-6.0,0,0,,10.0,29.911417,,,TRUE,TRUE,,,,,,,OVC,500,,,,,,,IFR,,,,,,,,,,,,SPECI,2259.0
K1S5 211655Z AUTO 27003KT 10SM SCT090 06/01 A3024 RMK AO2 T00580006,K1S5,2015-02-21T16:55:00Z,46.33,-119.97,5.8,0.6,270,3,,10.0,30.239174,,,TRUE,TRUE,,,,,,,SCT,9000,,,,,,,VFR,,,,,,,,,,,,SPECI,234.0
K0CO 211655Z AUTO 30005KT 1 1/2SM -SN BKN007 OVC014 M14/M18 A2982 RMK AO2,K0CO,2015-02-21T16:55:00Z,39.8,-105.77,-14.0,-18.0,300,5,,1.5,29.819881,,,TRUE,TRUE,,,,,,-SN,BKN,700,OVC,1400,,,,,IFR,,,,,,,,,,,,SPECI,3807.0
K0A9 211655Z AUTO VRB04KT 10SM -RA FEW050 OVC065 02/M02 A3011 RMK,K0A9,2015-02-21T16:55:00Z,36.37,-82.17,2.0,-2.0,0,4,,10.0,30.109253,,,TRUE,,,,,,,-RA,FEW,5000,OVC,6500,,,,,VFR,,,,,,,,,,,,METAR,486.0
KEDC 211655Z AUTO 20014G21KT 10SM BKN021 20/16 A2989 RMK AO2,KEDC,2015-02-21T16:55:00Z,30.4,-97.57,20.0,16.0,200,14,21,10.0,29.890747,,,TRUE,TRUE,,,,,,,BKN,2100,,,,,,,MVFR,,,,,,,,,,,,SPECI,189.0
KEAR 211655Z 35010KT 10SM SCT027 BKN049 05/M02 A3003 RMK AO1,KEAR,2015-02-21T16:55:00Z,40.72,-99.0,5.0,-2.0,350,10,,10.0,30.029528,,,,TRUE,,,,,,,SCT,2700,BKN,4900,,,,,VFR,,,,,,,,,,,,METAR,649.0
KDYR 211655Z 35003KT 6SM SCT004 OVC012 02/M04 A2989 RMK AO1,KDYR,2015-02-21T16:55:00Z,36.0,-89.4,2.0,-4.0,350,3,,6.0,29.890747,,,,TRUE,,,,,,,SCT,400,OVC,1200,,,,,MVFR,,,,,,,,,,,,SPECI,103.0
KDYB 211655Z AUTO 20005KT 10SM SCT040 17/07 A3035 RMK AO1,KDYB,2015-02-21T16:55:00Z,33.07,-80.28,17.0,7.0,200,5,,10.0,30.351377,,,TRUE,TRUE,,,,,,,SCT,4000,,,,,,,VFR,,,,,,,,,,,,SPECI,18.0
KDWU 211655Z AUTO 00000KT 3SM FEW005 FEW010 OVC018 01/01 A2999 RMK AO1,KDWU,2015-02-21T16:55:00Z,38.55,-82.73,1.0,1.0,0,0,,3.0,29.991142,,,TRUE,TRUE,,,,,,,FEW,500,FEW,1000,OVC,1800,,,MVFR,,,,,,,,,,,,METAR,166.0
KDVL 211655Z AUTO 34009KT 10SM CLR M19/M24 A3024 RMK AO1,KDVL,2015-02-21T16:55:00Z,48.12,-98.92,-19.0,-24.0,340,9,,10.0,30.239174,,,TRUE,TRUE,,,,,,,CLR,,,,,,,,VFR,,,,,,,,,,,,METAR,443.0
KMRF 211655Z AUTO 29011G15KT 10SM CLR 18/M01 A3004 RMK AO1,KMRF,2015-02-21T16:55:00Z,30.37,-104.02,18.0,-1.0,290,11,15,10.0,30.041338,,,TRUE,TRUE,,,,,,,CLR,,,,,,,,VFR,,,,,,,,,,,,SPECI,1481.0
KMSV 211655Z AUTO 16010G20KT 1 1/4SM OVC012 M11/M14 A3027 RMK AO1,KMSV,2015-02-21T16:55:00Z,41.7,-74.78,-11.0,-14.0,160,10,20,1.25,30.268702,,,TRUE,TRUE,,,,,,,OVC,1200,,,,,,,IFR,,,,,,,,,,,,SPECI,428.0
KILE 211655Z AUTO 31009KT 10SM SCT022 OVC034 17/10 A2988 RMK AO1,KILE,2015-02-21T16:55:00Z,31.07,-97.67,17.0,10.0,310,9,,10.0,29.878937,,,TRUE,TRUE,,,,,,,SCT,2200,OVC,3400,,,,,VFR,,,,,,,,,,,,METAR,258.0
KI69 211655Z AUTO 18006KT 5SM BR OVC006 02/02 A2991 RMK AO1,KI69,2015-02-21T16:55:00Z,39.08,-84.22,2.0,2.0,180,6,,5.0,29.911417,,,TRUE,TRUE,,,,,,BR,OVC,600,,,,,,,IFR,,,,,,,,,,,,METAR,255.0
KI67 211655Z AUTO 00000KT 2 1/2SM M01/M02 A2992 RMK AO1 P0001,KI67,2015-02-21T16:55:00Z,39.25,-84.78,-1.0,-2.0,0,0,,2.5,29.920275,,,TRUE,TRUE,,,,,,,,,,,,,,,,,,,,,0.01,,,,,,METAR,178.0
KHYW 211655Z AUTO 00000KT 10SM SCT020 BKN043 OVC050 10/05 A3038 RMK AO2,KHYW,2015-02-21T16:55:00Z,33.83,-79.12,10.0,5.0,0,0,,10.0,30.380905,,,TRUE,TRUE,,,,,,,SCT,2000,BKN,4300,OVC,5000,,,VFR,,,,,,,,,,,,METAR,11.0
KHYS 211655Z AUTO 03008KT 10SM CLR 08/M04 A3003 RMK AO1,KHYS,2015-02-21T16:55:00Z,38.85,-99.27,8.0,-4.0,30,8,,10.0,30.029528,,,TRUE,TRUE,,,,,,,CLR,,,,,,,,VFR,,,,,,,,,,,,METAR,609.0
KPIB 211655Z AUTO 17015G23KT 10SM BKN060 OVC070 18/10 A3009 RMK AO1,KPIB,2015-02-21T16:55:00Z,31.47,-89.32,18.0,10.0,170,15,23,10.0,30.088583,,,TRUE,TRUE,,,,,,,BKN,6000,OVC,7000,,,,,VFR,,,,,,,,,,,,METAR,91.0
KPHT 211655Z AUTO 13011KT 2 1/2SM FEW016 BKN022 OVC031 03/03 A2981 RMK,KPHT,2015-02-21T16:55:00Z,36.33,-88.38,3.0,3.0,130,11,,2.5,29.811024,,,TRUE,,,,,,,,FEW,1600,BKN,2200,OVC,3100,,,IFR,,,,,,,,,,,,METAR,177.0
KPAN 211655Z AUTO 13004KT 10SM CLR 12/M01 A3004 RMK AO2,KPAN,2015-02-21T16:55:00Z,34.25,-111.33,12.0,-1.0,130,4,,10.0,30.041338,,,TRUE,TRUE,,,,,,,CLR,,,,,,,,VFR,,,,,,,,,,,,METAR,1572.0
KOWA 211655Z AUTO 33011KT 5SM HZ BKN017 OVC021 M08/M11 A3000 RMK AO2,KOWA,2015-02-21T16:55:00Z,44.12,-93.25,-8.0,-11.0,330,11,,5.0,30.0,,,TRUE,TRUE,,,,,,HZ,BKN,1700,OVC,2100,,,,,MVFR,,,,,,,,,,,,METAR,350.0
KOTH 211655Z 01006KT 10SM CLR 09/08 A3023 RMK AO1,KOTH,2015-02-21T16:55:00Z,43.42,-124.25,9.0,8.0,10,6,,10.0,30.230314,,,,TRUE,,,,,,,CLR,,,,,,,,VFR,,,,,,,,,,,,METAR,4.0
KOTG 211655Z AUTO 34018KT 10SM SCT013 SCT085 M09/M13 A3006 RMK AO1,KOTG,2015-02-21T16:55:00Z,43.63,-95.57,-9.0,-13.0,340,18,,10.0,30.059055,,,TRUE,TRUE,,,,,,,SCT,1300,SCT,8500,,,,,VFR,,,,,,,,,,,,METAR,480.0
KOLU 211655Z AUTO 01012KT 10SM OVC012 01/M04 A3006 RMK AO1,KOLU,2015-02-21T16:55:00Z,41.45,-97.32,1.0,-4.0,10,12,,10.0,30.059055,,,TRUE,TRUE,,,,,,,OVC,1200,,,,,,,MVFR,,,,,,,,,,,,METAR,440.0
KOKK 211655Z AUTO 00000KT 1SM VV007 M05/M07 A2993 RMK AO1 P0004,KOKK,2015-02-21T16:55:00Z,40.53,-86.07,-5.0,-7.0,0,0,,1.0,29.929134,,,TRUE,TRUE,,,,,,,OVX,0,,,,,,,LIFR,,,,,,0.04,,,,,700,METAR,253.0
KOCH 211655Z AUTO 21010G15KT 9SM FEW016 SCT023 BKN030 19/16 A2993 RMK AO1 P0001,KOCH,2015-02-21T16:55:00Z,31.57,-94.72,19.0,16.0,210,10,15,9.0,29.929134,,,TRUE,TRUE,,,,,,,FEW,1600,SCT,2300,BKN,3000,,,MVFR,,,,,,0.01,,,,,,SPECI,108.0
KOAJ 211655Z AUTO 13007KT 10SM OVC041 12/01 A3042 RMK AO1,KOAJ,2015-02-21T16:55:00Z,34.82,-77.62,12.0,1.0,130,7,,10.0,30.41929,,,TRUE,TRUE,,,,,,,OVC,4100,,,,,,,VFR,,,,,,,,,,,,SPECI,29.0
KNQA 211655Z 04003KT 3SM -RA BR OVC006 06/06 A2985,KNQA,2015-02-21T16:55:00Z,35.35,-89.87,6.0,6.0,40,3,,3.0,29.84941,,,,,,,,,,-RA BR,OVC,600,,,,,,,IFR,,,,,,,,,,,,METAR,86.0
KMVN 211655Z AUTO 00000KT 10SM BKN006 OVC070 00/M02 A2993 RMK AO1 P0004,KMVN,2015-02-21T16:55:00Z,38.32,-88.87,0.0,-2.0,0,0,,10.0,29.929134,,,TRUE,TRUE,,,,,,,BKN,600,OVC,7000,,,,,IFR,,,,,,0.04,,,,,,SPECI,146.0
KLKR 211655Z AUTO 30004KT 10SM OVC018 05/M03 A3036 RMK AO2,KLKR,2015-02-21T16:55:00Z,34.72,-80.85,5.0,-3.0,300,4,,10.0,30.360237,,,TRUE,TRUE,,,,,,,OVC,1800,,,,,,,MVFR,,,,,,,,,,,,METAR,149.0
KLGD 211655Z AUTO 31010KT 10SM FEW032 SCT044 BKN055 04/M02 A3012 RMK AO1,KLGD,2015-02-21T16:55:00Z,45.27,-118.0,4.0,-2.0,310,10,,10.0,30.121063,,,TRUE,TRUE,,,,,,,FEW,3200,SCT,4400,BKN,5500,,,VFR,,,,,,,,,,,,METAR,827.0
KLBL 211655Z AUTO 10005KT 10SM CLR 06/M01 RMK AO1,KLBL,2015-02-21T16:55:00Z,37.03,-100.97,6.0,-1.0,100,5,,10.0,,,,TRUE,TRUE,,,,,,,CLR,,,,,,,,VFR,,,,,,,,,,,,METAR,879.0
KKLS 211655Z 35007KT 10SM OVC018 08/04 A3031 RMK AO1,KKLS,2015-02-21T16:55:00Z,46.12,-122.9,8.0,4.0,350,7,,10.0,30.31004,,,,TRUE,,,,,,,OVC,1800,,,,,,,MVFR,,,,,,,,,,,,METAR,5.0
KJHW 211655Z 18012G16KT 1 1/2SM SCT013 SCT019 OVC028 M08/M11 A2991 RMK AO1,KJHW,2015-02-21T16:55:00Z,42.13,-79.27,-8.0,-11.0,180,12,16,1.5,29.911417,,,,TRUE,,,,,,,SCT,1300,SCT,1900,OVC,2800,,,IFR,,,,,,,,,,,,METAR,525.0
KJHN 211655Z AUTO 28003KT 10SM BKN090 BKN120 05/00 A3002 RMK AO2 T00490000,KJHN,2015-02-21T16:55:00Z,37.58,-101.73,4.9,0.0,280,3,,10.0,30.02067,,,TRUE,TRUE,,,,,,,BKN,9000,BKN,12000,,,,,VFR,,,,,,,,,,,,METAR,1013.0
KIWD 211655Z AUTO 36008KT 3/4SM OVC013 M12/M16 A2995 RMK AO1,KIWD,2015-02-21T16:55:00Z,46.52,-90.12,-12.0,-16.0,360,8,,0.75,29.949802,,,TRUE,TRUE,,,,,,,OVC,1300,,,,,,,LIFR,,,,,,,,,,,,METAR,375.0
KLLJ 211655Z AUTO 00000KT 10SM FEW049 OVC060 M01/M03 A3000 RMK AO2 SLP178 T10111033 $,KLLJ,2015-02-21T16:55:00Z,44.52,-114.22,-1.1,-3.3,0,0,,10.0,30.0,1017.8,,TRUE,TRUE,TRUE,,,,,,FEW,4900,OVC,6000,,,,,VFR,,,,,,,,,,,,METAR,1536.0
KLKV 211655Z 36011KT 10SM CLR 03/M04 A3008 RMK AO1,KLKV,2015-02-21T16:55:00Z,42.17,-120.4,3.0,-4.0,360,11,,10.0,30.079725,,,,TRUE,,,,,,,CLR,,,,,,,,VFR,,,,,,,,,,,,METAR,1441.0
KM91 211655Z AUTO 16009KT 1 3/4SM SCT025 BKN033 OVC041 02/02 A2994 RMK,KM91,2015-02-21T16:55:00Z,36.53,-86.92,2.0,2.0,160,9,,1.75,29.940945,,,TRUE,,,,,,,,SCT,2500,BKN,3300,OVC,4100,,,IFR,,,,,,,,,,,,METAR,215.0
KLPC 211655Z AUTO 07005KT 7SM CLR 15/10 A3000 RMK AO1,KLPC,2015-02-21T16:55:00Z,34.67,-120.47,15.0,10.0,70,5,,7.0,30.0,,,TRUE,TRUE,,,,,,,CLR,,,,,,,,VFR,,,,,,,,,,,,METAR,27.0
KSOP 211655Z AUTO 16007KT 10SM OVC019 04/M04 A3035 RMK AO1,KSOP,2015-02-21T16:55:00Z,35.22,-79.4,4.0,-4.0,160,7,,10.0,30.351377,,,TRUE,TRUE,,,,,,,OVC,1900,,,,,,,MVFR,,,,,,,,,,,,METAR,141.0
KSQI 211655Z AUTO 00000KT 7SM OVC030 M03/M07 A2995 RMK AO1,KSQI,2015-02-21T16:55:00Z,41.75,-89.67,-3.0,-7.0,0,0,,7.0,29.949802,,,TRUE,TRUE,,,,,,,OVC,3000,,,,,,,MVFR,,,,,,,,,,,,METAR,197.0
KVIS 211655Z AUTO 21004KT 1SM OVC004 11/08 A2999 RMK AO1,KVIS,2015-02-21T16:55:00Z,36.32,-119.4,11.0,8.0,210,4,,1.0,29.991142,,,TRUE,TRUE,,,,,,,OVC,400,,,,,,,LIFR,,,,,,,,,,,,METAR,89.0
KVBT 211655Z AUTO 04011KT 10SM BKN010 04/01 A2995 RMK AO1,KVBT,2015-02-21T16:55:00Z,36.35,-94.22,4.0,1.0,40,11,,10.0,29.949802,,,TRUE,TRUE,,,,,,,BKN,1000,,,,,,,MVFR,,,,,,,,,,,,METAR,395.0
KUYF 211655Z AUTO 17004KT 3SM -SN BKN008 OVC016 M03/M05 A2990 RMK AO2,KUYF,2015-02-21T16:55:00Z,39.93,-83.47,-3.0,-5.0,170,4,,3.0,29.899607,,,TRUE,TRUE,,,,,,-SN,BKN,800,OVC,1600,,,,,IFR,,,,,,,,,,,,METAR,330.0
KUTA 211655Z AUTO 20020G30KT 3SM -RA SCT005 BKN010 OVC013 14/13 A2982 RMK AO2 P0003 LTG DSNT W,KUTA,2015-02-21T16:55:00Z,34.68,-90.35,14.0,13.0,200,20,30,3.0,29.819881,,,TRUE,TRUE,,,,,,-RA,SCT,500,BKN,1000,OVC,1300,,,MVFR,,,,,,0.03,,,,,,METAR,59.0
KUDG 211655Z AUTO 11008KT 10SM OVC018 04/M03 A3037 RMK AO1,KUDG,2015-02-21T16:55:00Z,34.45,-79.88,4.0,-3.0,110,8,,10.0,30.369095,,,TRUE,TRUE,,,,,,,OVC,1800,,,,,,,MVFR,,,,,,,,,,,,METAR,59.0
KTVF 211655Z AUTO 33012KT 10SM CLR M20/M33 A3020 RMK AO1,KTVF,2015-02-21T16:55:00Z,48.07,-96.17,-20.0,-33.0,330,12,,10.0,30.200787,,,TRUE,TRUE,,,,,,,CLR,,,,,,,,VFR,,,,,,,,,,,,METAR,340.0
KTSP 211655Z AUTO 31010KT 10SM CLR 12/03 A2998 RMK AO2,KTSP,2015-02-21T16:55:00Z,35.13,-118.43,12.0,3.0,310,10,,10.0,29.97933,,,TRUE,TRUE,,,,,,,CLR,,,,,,,,VFR,,,,,,,,,,,,METAR,1220.0
KTPL 211655Z AUTO 22011KT 10SM FEW025 SCT032 BKN040 20/13 A2988 RMK AO1,KTPL,2015-02-21T16:55:00Z,31.13,-97.4,20.0,13.0,220,11,,10.0,29.878937,,,TRUE,TRUE,,,,,,,FEW,2500,SCT,3200,BKN,4000,,,VFR,,,,,,,,,,,,METAR,208.0
KVTP 211655Z AUTO 19007KT 150V210 10SM SCT070 BKN090 BKN120 M03/M08 A2987 RMK AO2,KVTP,2015-02-21T16:55:00Z,37.5,-105.17,-3.0,-8.0,190,7,,10.0,29.870079,,,TRUE,TRUE,,,,,,,SCT,7000,BKN,9000,BKN,12000,,,VFR,,,,,,,,,,,,METAR,3114.0
KWWD 211655Z AUTO 20014G18KT 10SM OVC065 M01/M08 A3045 RMK AO1,KWWD,2015-02-21T16:55:00Z,39.02,-74.92,-1.0,-8.0,200,14,18,10.0,30.448818,,,TRUE,TRUE,,,,,,,OVC,6500,,,,,,,VFR,,,,,,,,,,,,METAR,7.0
KYKN 211655Z AUTO 34013KT 10SM BKN016 BKN023 M04/M09 A3014 RMK AO1,KYKN,2015-02-21T16:55:00Z,42.92,-97.37,-4.0,-9.0,340,13,,10.0,30.138779,,,TRUE,TRUE,,,,,,,BKN,1600,BKN,2300,,,,,MVFR,,,,,,,,,,,,METAR,398.0
K7N0 211655Z AUTO 18010G19KT 10SM OVC090 A3010 RMK AO1,K7N0,2015-02-21T16:55:00Z,29.95,-90.07,,,180,10,19,10.0,30.100393,,,TRUE,TRUE,,,,,,,OVC,9000,,,,,,,VFR,,,,,,,,,,,,METAR,0.0
KNKX 211655Z VRB03KT 10SM BKN032 17/07 A2999 RMK AO2 SLP151 T01670067 $,KNKX,2015-02-21T16:55:00Z,32.87,-117.13,16.7,6.7,0,3,,10.0,29.991142,1015.1,,,TRUE,TRUE,,,,,,BKN,3200,,,,,,,VFR,,,,,,,,,,,,METAR,146.0
KNBG 211655Z 17015G21KT 10SM SCT055 BKN075 BKN250 21/12 A3009 RMK AO2 SLP189 T02060122 $,KNBG,2015-02-21T16:55:00Z,29.82,-90.02,20.6,12.2,170,15,21,10.0,30.088583,1018.9,,,TRUE,TRUE,,,,,,SCT,5500,BKN,7500,BKN,25000,,,VFR,,,,,,,,,,,,METAR,1.0
KVBG 211655Z AUTO 00000KT 8SM OVC015 14/12 A3000 RMK AO2 SLP151 T01440117 TSNO $,KVBG,2015-02-21T16:55:00Z,34.73,-120.58,14.4,11.7,0,0,,8.0,30.0,1015.1,,TRUE,TRUE,TRUE,,TRUE,,,,OVC,1500,,,,,,,MVFR,,,,,,,,,,,,METAR,112.0
KCAD 211655Z AUTO 17003KT 7SM -SN OVC011 M07/M11 A2986 RMK AO2 T10771108,KCAD,2015-02-21T16:55:00Z,44.27,-85.42,-7.7,-10.8,170,3,,7.0,29.861221,,,TRUE,TRUE,,,,,,-SN,OVC,1100,,,,,,,MVFR,,,,,,,,,,,,SPECI,398.0
KCBG 211655Z AUTO 34006KT 10SM CLR M09/M16 A3004 RMK AO2,KCBG,2015-02-21T16:55:00Z,45.57,-93.27,-9.0,-16.0,340,6,,10.0,30.041338,,,TRUE,TRUE,,,,,,,CLR,,,,,,,,VFR,,,,,,,,,,,,SPECI,287.0
KDRM 211655Z AUTO 00000KT 4SM -SN BKN012 BKN020 OVC049 M07/M10 A2990 RMK AO2 T10751105,KDRM,2015-02-21T16:55:00Z,46.0,-83.75,-7.5,-10.5,0,0,,4.0,29.899607,,,TRUE,TRUE,,,,,,-SN,BKN,1200,BKN,2000,OVC,4900,,,MVFR,,,,,,,,,,,,SPECI,204.0
KDTL 211655Z AUTO 32009KT 5SM HZ SCT004 M18/M21 A3016 RMK AO2,KDTL,2015-02-21T16:55:00Z,46.82,-95.87,-18.0,-21.0,320,9,,5.0,30.159449,,,TRUE,TRUE,,,,,,HZ,SCT,400,,,,,,,MVFR,,,,,,,,,,,,SPECI,426.0
KDUH 211655Z AUTO 00000KT 3/4SM -SN OVC007 M03/M06 A2996 RMK AO2,KDUH,2015-02-21T16:55:00Z,41.73,-83.65,-3.0,-6.0,0,0,,0.75,29.958662,,,TRUE,TRUE,,,,,,-SN,OVC,700,,,,,,,LIFR,,,,,,,,,,,,SPECI,204.0
KEEN 211655Z AUTO 20009G14KT 10SM CLR M06/M18 A3032 RMK AO1,KEEN,2015-02-21T16:55:00Z,42.88,-72.27,-6.0,-18.0,200,9,14,10.0,30.318897,,,TRUE,TRUE,,,,,,,CLR,,,,,,,,VFR,,,,,,,,,,,,SPECI,149.0
KERY 211655Z AUTO 27007KT 7SM BKN016 M07/M10 A2988 RMK AO2 T10701105,KERY,2015-02-21T16:55:00Z,46.3,-85.45,-7.0,-10.5,270,7,,7.0,29.878937,,,TRUE,TRUE,,,,,,,BKN,1600,,,,,,,MVFR,,,,,,,,,,,,SPECI,265.0
KFPK 211655Z AUTO 00000KT 5SM BR OVC033 M07/M09 A2994 RMK AO2 T10711095,KFPK,2015-02-21T16:55:00Z,42.57,-84.82,-7.1,-9.5,0,0,,5.0,29.940945,,,TRUE,TRUE,,,,,,BR,OVC,3300,,,,,,,MVFR,,,,,,,,,,,,SPECI,272.0
KGOV 211655Z AUTO 24003KT 10SM SCT013 OVC046 M06/M11 A2988 RMK AO2 T10631108,KGOV,2015-02-21T16:55:00Z,44.68,-84.73,-6.3,-10.8,240,3,,10.0,29.878937,,,TRUE,TRUE,,,,,,,SCT,1300,OVC,4600,,,,,VFR,,,,,,,,,,,,SPECI,353.0
KUKT 211655Z AUTO 20008KT 180V240 3SM SCT009 BKN015 BKN022 M07/M14 A3038 RMK AO1 VSBY 1 1/4V5,KUKT,2015-02-21T16:55:00Z,40.43,-75.38,-7.0,-14.0,200,8,,3.0,30.380905,,,TRUE,TRUE,,,,,,,SCT,900,BKN,1500,BKN,2200,,,MVFR,,,,,,,,,,,,METAR,160.0
KWVL 211655Z 20007G14KT 10SM SCT100 M08/M21 A3035 RMK AO1,KWVL,2015-02-21T16:55:00Z,44.52,-69.67,-8.0,-21.0,200,7,14,10.0,30.351377,,,,TRUE,,,,,,,SCT,10000,,,,,,,VFR,,,,,,,,,,,,METAR,101.0
KHAF 211655Z AUTO 00000KT M1/4SM FG OVC002 10/10 A2997 RMK AO2,KHAF,2015-02-21T16:55:00Z,37.52,-122.5,10.0,10.0,0,0,,0.25,29.970472,,,TRUE,TRUE,,,,,,FG,OVC,200,,,,,,,LIFR,,,,,,,,,,,,SPECI,21.0
KHYX 211655Z AUTO 20008KT 3SM -SN OVC025 M07/M10 A2995 RMK AO2,KHYX,2015-02-21T16:55:00Z,43.43,-83.87,-7.0,-10.0,200,8,,3.0,29.949802,,,TRUE,TRUE,,,,,,-SN,OVC,2500,,,,,,,MVFR,,,,,,,,,,,,SPECI,183.0
KIRS 211655Z AUTO 00000KT 10SM OVC039 M06/M09 A2994 RMK AO2,KIRS,2015-02-21T16:55:00Z,41.8,-85.43,-6.0,-9.0,0,0,,10.0,29.940945,,,TRUE,TRUE,,,,,,,OVC,3900,,,,,,,VFR,,,,,,,,,,,,SPECI,282.0
KLCI 211655Z AUTO 19011G14KT 10SM CLR M08/M20 A3032 RMK AO1,KLCI,2015-02-21T16:55:00Z,43.57,-71.42,-8.0,-20.0,190,11,14,10.0,30.318897,,,TRUE,TRUE,,,,,,,CLR,,,,,,,,VFR,,,,,,,,,,,,SPECI,166.0
KLDM 211655Z AUTO 00000KT 3SM -SN OVC017 M05/M07 A2992 RMK AO2 T10501075,KLDM,2015-02-21T16:55:00Z,43.97,-86.4,-5.0,-7.5,0,0,,3.0,29.920275,,,TRUE,TRUE,,,,,,-SN,OVC,1700,,,,,,,MVFR,,,,,,,,,,,,SPECI,197.0
KLEW 211655Z AUTO 19010G17KT 10SM CLR M07/M22 A3036 RMK AO1,KLEW,2015-02-21T16:55:00Z,44.03,-70.27,-7.0,-22.0,190,10,17,10.0,30.360237,,,TRUE,TRUE,,,,,,,CLR,,,,,,,,VFR,,,,,,,,,,,,SPECI,88.0
KLWA 211655Z AUTO 17005KT 7SM OVC012 M05/M08 A2995 RMK AO2 T10541085,KLWA,2015-02-21T16:55:00Z,42.35,-86.25,-5.4,-8.5,170,5,,7.0,29.949802,,,TRUE,TRUE,,,,,,,OVC,1200,,,,,,,MVFR,,,,,,,,,,,,SPECI,203.0
KMOP 211655Z AUTO 17004KT 5SM -SN BKN024 OVC050 M07/M10 A2993 RMK AO2 T10681103,KMOP,2015-02-21T16:55:00Z,43.62,-84.73,-6.8,-10.3,170,4,,5.0,29.929134,,,TRUE,TRUE,,,,,,-SN,BKN,2400,OVC,5000,,,,,MVFR,,,,,,,,,,,,SPECI,230.0
KBID 211655Z AUTO 21016KT 10SM SCT030 M01/M07 A3045 RMK AO1,KBID,2015-02-21T16:55:00Z,41.17,-71.58,-1.0,-7.0,210,16,,10.0,30.448818,,,TRUE,TRUE,,,,,,,SCT,3000,,,,,,,VFR,,,,,,,,,,,,METAR,33.0
KBHB 211655Z 20011KT 10SM CLR M04/M10 A3044 RMK AO1,KBHB,2015-02-21T16:55:00Z,44.45,-68.37,-4.0,-10.0,200,11,,10.0,30.43996,,,,TRUE,,,,,,,CLR,,,,,,,,VFR,,,,,,,,,,,,METAR,26.0
KBDH 211655Z AUTO 35013KT 10SM SCT020 M10/M14 A3011 RMK AO2,KBDH,2015-02-21T16:55:00Z,45.12,-95.13,-10.0,-14.0,350,13,,10.0,30.109253,,,TRUE,TRUE,,,,,,,SCT,2000,,,,,,,VFR,,,,,,,,,,,,METAR,247.0
KAUM 211655Z AUTO 34010KT 10SM OVC012 M07/M09 A2997 RMK AO2,KAUM,2015-02-21T16:55:00Z,43.67,-92.92,-7.0,-9.0,340,10,,10.0,29.970472,,,TRUE,TRUE,,,,,,,OVC,1200,,,,,,,MVFR,,,,,,,,,,,,METAR,375.0
KMZH 211655Z AUTO 31007KT 10SM SCT025 M11/M17 A3002 RMK AO2,KMZH,2015-02-21T16:55:00Z,46.42,-92.8,-11.0,-17.0,310,7,,10.0,30.02067,,,TRUE,TRUE,,,,,,,SCT,2500,,,,,,,VFR,,,,,,,,,,,,SPECI,328.0
KMGE 211655Z 13012KT 10SM OVC075 05/M05 A3022 RMK AO2A SLP242 T00481054 $,KMGE,2015-02-21T16:55:00Z,33.92,-84.52,4.8,-5.4,130,12,,10.0,30.221457,1024.2,,,TRUE,TRUE,,,,,,OVC,7500,,,,,,,VFR,,,,,,,,,,,,METAR,326.0
KMTC 211655Z 00000KT 7SM SCT018 BKN032 OVC060 M06/M10 A2993 RMK SLP156 T10611101,KMTC,2015-02-21T16:55:00Z,42.62,-82.82,-6.1,-10.1,0,0,,7.0,29.929134,1015.6,,,,,,,,,,SCT,1800,BKN,3200,OVC,6000,,,VFR,,,,,,,,,,,,METAR,177.0
KFOA 211655Z AUTO 35005KT 4SM BR BKN003 BKN013 BKN075 M01/M02 A2993 RMK AO2 T10111017,KFOA,2015-02-21T16:55:00Z,38.67,-88.45,-1.1,-1.7,350,5,,4.0,29.929134,,,TRUE,TRUE,,,,,,BR,BKN,300,BKN,1300,BKN,7500,,,LIFR,,,,,,,,,,,,METAR,144.0
KFKN 211655Z AUTO 14007KT 10SM BKN038 OVC050 00/M09 A3043 RMK AO2 T00001088,KFKN,2015-02-21T16:55:00Z,36.7,-76.9,0.0,-8.8,140,7,,10.0,30.431103,,,TRUE,TRUE,,,,,,,BKN,3800,OVC,5000,,,,,VFR,,,,,,,,,,,,METAR,12.0
KFFL 211655Z AUTO 33010KT 9SM FEW016 SCT023 OVC032 01/M03 A2996 RMK AO2,KFFL,2015-02-21T16:55:00Z,41.03,-91.97,1.0,-3.0,330,10,,9.0,29.958662,,,TRUE,TRUE,,,,,,,FEW,1600,SCT,2300,OVC,3200,,,VFR,,,,,,,,,,,,METAR,244.0
KFET 211655Z AUTO 02007KT 5SM BR OVC008 M01/M02 A3006 RMK AO2 T10061024,KFET,2015-02-21T16:55:00Z,41.45,-96.52,-0.6,-2.4,20,7,,5.0,30.059055,,,TRUE,TRUE,,,,,,BR,OVC,800,,,,,,,IFR,,,,,,,,,,,,METAR,367.0
KF70 211655Z AUTO 18004KT 10SM OVC027 12/08 A3002 RMK AO1,KF70,2015-02-21T16:55:00Z,33.57,-117.13,12.0,8.0,180,4,,10.0,30.02067,,,TRUE,TRUE,,,,,,,OVC,2700,,,,,,,MVFR,,,,,,,,,,,,METAR,412.0
KEXX 211655Z AUTO 00000KT 10SM OVC018 00/M08 A3034 RMK AO2 T10021080,KEXX,2015-02-21T16:55:00Z,35.78,-80.3,-0.2,-8.0,0,0,,10.0,30.339567,,,TRUE,TRUE,,,,,,,OVC,1800,,,,,,,MVFR,,,,,,,,,,,,METAR,223.0
KEOK 211655Z AUTO 02006KT 9SM OVC040 02/M02 A2993 RMK AO2,KEOK,2015-02-21T16:55:00Z,40.47,-91.42,2.0,-2.0,20,6,,9.0,29.929134,,,TRUE,TRUE,,,,,,,OVC,4000,,,,,,,VFR,,,,,,,,,,,,METAR,205.0
KEMK 211655Z AUTO 15023KT 4SM HZ SCT036 SCT043 SCT050 21/18 A3000 RMK A01,KEMK,2015-02-21T16:55:00Z,27.82,-94.32,21.0,18.0,150,23,,4.0,30.0,,,TRUE,TRUE,,,,,,HZ,SCT,3600,SCT,4300,SCT,5000,,,MVFR,,,,,,,,,,,,METAR,26.0
KEIR 211655Z AUTO 17011G17KT 9SM SCT075 22/16 A3008 RMK A01,KEIR,2015-02-21T16:55:00Z,28.63,-91.48,22.0,16.0,170,11,17,9.0,30.079725,,,TRUE,TRUE,,,,,,,SCT,7500,,,,,,,VFR,,,,,,,,,,,,METAR,28.0
KEHC 211655Z AUTO 17022KT 9SM CLR 23/16 A3003 RMK A01,KEHC,2015-02-21T16:55:00Z,28.43,-92.88,23.0,16.0,170,22,,9.0,30.029528,,,TRUE,TRUE,,,,,,,CLR,,,,,,,,VFR,,,,,,,,,,,,METAR,31.0
KEFK 211655Z AUTO 17010G17KT 10SM SCT055 OVC065 M10/M20 A3016 RMK AO2 T11011205,KEFK,2015-02-21T16:55:00Z,44.88,-72.23,-10.1,-20.5,170,10,17,10.0,30.159449,,,TRUE,TRUE,,,,,,,SCT,5500,OVC,6500,,,,,VFR,,,,,,,,,,,,METAR,284.0
KEBS 211655Z AUTO 33014KT 10SM OVC013 M06/M06 A2999 RMK AO2,KEBS,2015-02-21T16:55:00Z,42.42,-93.87,-6.0,-6.0,330,14,,10.0,29.991142,,,TRUE,TRUE,,,,,,,OVC,1300,,,,,,,MVFR,,,,,,,,,,,,METAR,342.0
KE38 211655Z AUTO 08014KT 10SM CLR 18/01 A3006 RMK AO2 T01810012,KE38,2015-02-21T16:55:00Z,30.38,-103.68,18.1,1.2,80,14,,10.0,30.059055,,,TRUE,TRUE,,,,,,,CLR,,,,,,,,VFR,,,,,,,,,,,,METAR,1376.0
KDWX 211655Z AUTO 26004KT 1 1/2SM -SN BKN007 BKN016 OVC021 M01/M03 A2994 RMK AO2 T10151034,KDWX,2015-02-21T16:55:00Z,41.03,-107.5,-1.5,-3.4,260,4,,1.5,29.940945,,,TRUE,TRUE,,,,,,-SN,BKN,700,BKN,1600,OVC,2100,,,IFR,,,,,,,,,,,,METAR,1996.0
KDUB 211655Z AUTO 11007KT 2SM -SN OVC010 M06/M08 A2988 RMK AO2,KDUB,2015-02-21T16:55:00Z,43.55,-109.68,-6.0,-8.0,110,7,,2.0,29.878937,,,TRUE,TRUE,,,,,,-SN,OVC,1000,,,,,,,IFR,,,,,,,,,,,,METAR,2224.0
KDLP 211655Z AUTO 16021G26KT 6SM HZ FEW085 19/16 A3010 RMK A01,KDLP,2015-02-21T16:55:00Z,29.12,-89.55,19.0,16.0,160,21,26,6.0,30.100393,,,TRUE,TRUE,,,,,,HZ,FEW,8500,,,,,,,VFR,,,,,,,,,,,,METAR,36.0
KDEH 211655Z AUTO 33011KT 9SM OVC022 M03/M08 A2993 RMK AO2,KDEH,2015-02-21T16:55:00Z,43.27,-91.72,-3.0,-8.0,330,11,,9.0,29.929134,,,TRUE,TRUE,,,,,,,OVC,2200,,,,,,,MVFR,,,,,,,,,,,,METAR,353.0
KDBN 211655Z AUTO 20013G20KT 10SM BKN110 14/01 A3033 RMK AO2,KDBN,2015-02-21T16:55:00Z,32.57,-82.98,14.0,1.0,200,13,20,10.0,30.33071,,,TRUE,TRUE,,,,,,,BKN,11000,,,,,,,VFR,,,,,,,,,,,,METAR,94.0
KCVW 211655Z AUTO 19011KT 2 1/2SM BR CLR 17/15 A3005 RMK A01,KCVW,2015-02-21T16:55:00Z,29.78,-93.3,17.0,15.0,190,11,,2.5,30.050198,,,TRUE,TRUE,,,,,,BR,CLR,,,,,,,,IFR,,,,,,,,,,,,METAR,1.0
KCVB 211655Z AUTO 19007KT 7SM OVC021 21/15 A2992 RMK AO2 T02130149,KCVB,2015-02-21T16:55:00Z,29.35,-98.85,21.3,14.9,190,7,,7.0,29.920275,,,TRUE,TRUE,,,,,,,OVC,2100,,,,,,,MVFR,,,,,,,,,,,,METAR,235.0
KCTZ 211655Z AUTO 11005KT 10SM OVC038 07/01 A3040 RMK AO2 T00690005,KCTZ,2015-02-21T16:55:00Z,34.98,-78.37,6.9,0.5,110,5,,10.0,30.398623,,,TRUE,TRUE,,,,,,,OVC,3800,,,,,,,VFR,,,,,,,,,,,,METAR,45.0
KCTJ 211655Z AUTO 17006G14KT 140V200 10SM OVC070 06/M01 A3022 RMK AO2,KCTJ,2015-02-21T16:55:00Z,33.63,-85.15,6.0,-1.0,170,6,14,10.0,30.221457,,,TRUE,TRUE,,,,,,,OVC,7000,,,,,,,VFR,,,,,,,,,,,,METAR,354.0
KCSQ 211655Z AUTO 32012KT 10SM OVC013 M01/M03 A3000 RMK AO2,KCSQ,2015-02-21T16:55:00Z,41.02,-94.37,-1.0,-3.0,320,12,,10.0,30.0,,,TRUE,TRUE,,,,,,,OVC,1300,,,,,,,MVFR,,,,,,,,,,,,METAR,394.0
KCQF 211655Z AUTO 15019G28KT 10SM SCT100 19/10 A3016 RMK AO2,KCQF,2015-02-21T16:55:00Z,30.47,-87.88,19.0,10.0,150,19,28,10.0,30.159449,,,TRUE,TRUE,,,,,,,SCT,10000,,,,,,,VFR,,,,,,,,,,,,METAR,28.0
KADM 211655Z 02010G16KT 10SM OVC014 07/04 A2999 RMK RWY 31 - ATIS I,KADM,2015-02-21T16:55:00Z,34.28,-97.02,7.0,4.0,20,10,16,10.0,29.991142,,,,,,,,,,,OVC,1400,,,,,,,MVFR,,,,,,,,,,,,METAR,232.0
KQGV 211655Z 13006KT 9999 CLR 14/M03 A2991 RMK SLPNO QNH1012 PA +475,KQGV,2015-02-21T16:55:00Z,100.65,-1000.65,14.0,-3.0,130,6,,6.21,29.911417,,,,,,,,,,,CLR,,,,,,,,VFR,,,,,,,,,,,,METAR,999.0
KIKT 211655Z AUTO 15017G31KT 10SM FEW030 BKN041 BKN049 21/14 A3014 RMK A01,KIKT,2015-02-21T16:55:00Z,28.52,-88.28,21.0,14.0,150,17,31,10.0,30.138779,,,TRUE,TRUE,,,,,,,FEW,3000,BKN,4100,BKN,4900,,,VFR,,,,,,,,,,,,METAR,25.0
KHQI 211655Z AUTO 14016G27KT 7SM BKN040 BKN045 OVC055 21/17 A3003 RMK A01,KHQI,2015-02-21T16:55:00Z,27.93,-93.67,21.0,17.0,140,16,27,7.0,30.029528,,,TRUE,TRUE,,,,,,,BKN,4000,BKN,4500,OVC,5500,,,VFR,,,,,,,,,,,,METAR,26.0
KHHV 211655Z AUTO 17022G30KT 4SM HZ CLR 22/18 A2998 RMK A01,KHHV,2015-02-21T16:55:00Z,26.93,-94.68,22.0,18.0,170,22,30,4.0,29.97933,,,TRUE,TRUE,,,,,,HZ,CLR,,,,,,,,MVFR,,,,,,,,,,,,METAR,25.0
KGVX 211655Z AUTO 17022KT 4SM BR SCT031 BKN041 BKN048 20/18 A2999 RMK A01,KGVX,2015-02-21T16:55:00Z,28.58,-94.98,20.0,18.0,170,22,,4.0,29.991142,,,TRUE,TRUE,,,,,,BR,SCT,3100,BKN,4100,BKN,4800,,,MVFR,,,,,,,,,,,,METAR,39.0
KGUR 211655Z AUTO 01010G15KT 10SM -SN BKN027 OVC035 02/M03 A3004 RMK AO2 T00151035,KGUR,2015-02-21T16:55:00Z,42.25,-104.72,1.5,-3.5,10,10,15,10.0,30.041338,,,TRUE,TRUE,,,,,,-SN,BKN,2700,OVC,3500,,,,,MVFR,,,,,,,,,,,,METAR,1358.0
KGUL 211655Z AUTO 7SM FEW028 21/16 A3003 RMK A01,KGUL,2015-02-21T16:55:00Z,27.3,-93.53,21.0,16.0,,,,7.0,30.029528,,,TRUE,TRUE,,,,,,,FEW,2800,,,,,,,VFR,,,,,,,,,,,,METAR,30.0
KGNT 211655Z AUTO 00000KT 10SM CLR 10/M05 A2996 RMK AO2 T00971046,KGNT,2015-02-21T16:55:00Z,35.17,-107.9,9.7,-4.6,0,0,,10.0,29.958662,,,TRUE,TRUE,,,,,,,CLR,,,,,,,,VFR,,,,,,,,,,,,METAR,1987.0
KGLE 211655Z AUTO 35011KT 10SM BKN015 OVC025 08/04 A2999 RMK AO2 T00770038,KGLE,2015-02-21T16:55:00Z,33.65,-97.2,7.7,3.8,350,11,,10.0,29.991142,,,TRUE,TRUE,,,,,,,BKN,1500,OVC,2500,,,,,MVFR,,,,,,,,,,,,METAR,256.0
KGHG 211655Z AUTO 22010G17KT 10SM CLR 00/M09 A3045 RMK AO2,KGHG,2015-02-21T16:55:00Z,42.1,-70.67,0.0,-9.0,220,10,17,10.0,30.448818,,,TRUE,TRUE,,,,,,,CLR,,,,,,,,VFR,,,,,,,,,,,,METAR,4.0
KGHB 211655Z AUTO 16014G20KT 8SM OVC070 22/16 A3007 RMK A01,KGHB,2015-02-21T16:55:00Z,27.83,-91.98,22.0,16.0,160,14,20,8.0,30.070866,,,TRUE,TRUE,,,,,,,OVC,7000,,,,,,,VFR,,,,,,,,,,,,METAR,30.0
KGCD 211655Z AUTO 00000KT 1 1/4SM -SN BKN006 BKN013 OVC026 01/00 A3012 RMK AO2 T00130000,KGCD,2015-02-21T16:55:00Z,44.38,-118.97,1.3,0.0,0,0,,1.25,30.121063,,,TRUE,TRUE,,,,,,-SN,BKN,600,BKN,1300,OVC,2600,,,IFR,,,,,,,,,,,,METAR,1127.0
KGBK 211655Z AUTO 14019G27KT 10SM OVC070 22/16 A3006 RMK A01,KGBK,2015-02-21T16:55:00Z,27.2,-92.2,22.0,16.0,140,19,27,10.0,30.059055,,,TRUE,TRUE,,,,,,,OVC,7000,,,,,,,VFR,,,,,,,,,,,,METAR,59.0
KGBG 211655Z AUTO 00000KT 5SM BR SCT010 BKN031 OVC046 M02/M04 A2994 RMK AO2 T10241040,KGBG,2015-02-21T16:55:00Z,40.93,-90.43,-2.4,-4.0,0,0,,5.0,29.940945,,,TRUE,TRUE,,,,,,BR,SCT,1000,BKN,3100,OVC,4600,,,MVFR,,,,,,,,,,,,METAR,233.0
KFSW 211655Z AUTO 32003KT 7SM OVC040 01/M02 A2995 RMK AO2,KFSW,2015-02-21T16:55:00Z,40.67,-91.32,1.0,-2.0,320,3,,7.0,29.949802,,,TRUE,TRUE,,,,,,,OVC,4000,,,,,,,VFR,,,,,,,,,,,,METAR,221.0
KFQD 211655Z AUTO 19006KT 10SM SCT049 OVC060 01/M10 A3034 RMK AO2 T00081103,KFQD,2015-02-21T16:55:00Z,35.42,-81.93,0.8,-10.3,190,6,,10.0,30.339567,,,TRUE,TRUE,,,,,,,SCT,4900,OVC,6000,,,,,VFR,,,,,,,,,,,,METAR,329.0
KIPN 211655Z AUTO 13031KT 10SM FEW030 SCT039 BKN075 21/14 A3014 RMK A01,KIPN,2015-02-21T16:55:00Z,28.08,-87.98,21.0,14.0,130,31,,10.0,30.138779,,,TRUE,TRUE,,,,,,,FEW,3000,SCT,3900,BKN,7500,,,VFR,,,,,,,,,,,,METAR,41.0
PALU 211655Z AUTO 06013KT 010V100 10SM -SN OVC012 M15/M16 A3006 RMK AO2 WSHFT 1546 SHSNB1548E1652 SLP180 P0000 T11471161,PALU,2015-02-21T16:55:00Z,68.88,-166.13,-14.7,-16.1,60,13,,10.0,30.059055,1018.0,,TRUE,TRUE,,,,,,-SN,OVC,1200,,,,,,,MVFR,,,,,,0.0050,,,,,,METAR,3.0
KQXT 211655Z 18020G25KT 1600 BLDU BKN000 BKN025 OVC030 26/M02 A2983 RMK PK WND 17026/35 DU BKN000 BKN025 OVC030 SLP069 WND DATA ESTMD ALSTG ESTMD Q1010,KQXT,2015-02-21T16:55:00Z,100.65,-1000.65,26.0,-2.0,180,20,25,0.99,29.828741,1006.9,,,,,,,,,BLDU,BKN,0,BKN,2500,OVC,3000,,,LIFR,,,,,,,,,,,,METAR,999.0
KQWM 211655Z 15005KT 9999 FEW100 13/M01 A2992 RMK SLP131 QNH1013,KQWM,2015-02-21T16:55:00Z,100.65,-1000.65,13.0,-1.0,150,5,,6.21,29.920275,1013.1,,,,,,,,,,FEW,10000,,,,,,,VFR,,,,,,,,,,,,METAR,999.0
KQVF 211655Z AUTO VRB02KT 9999 FEW016 27/23 A2984 RMK AO2 SLP102 T02690226 $,KQVF,2015-02-21T16:55:00Z,100.65,-1000.65,26.9,22.6,0,2,,6.21,29.840551,1010.2,,TRUE,TRUE,TRUE,,,,,,FEW,1600,,,,,,,VFR,,,,,,,,,,,,METAR,999.0
KQSF 211655Z AUTO 13002KT 6000 FEW031 08/05 A3027 RMK AO2 SLP281 T00770046,KQSF,2015-02-21T16:55:00Z,100.65,-1000.65,7.7,4.6,130,2,,3.73,30.268702,1028.1,,TRUE,TRUE,,,,,,,FEW,3100,,,,,,,MVFR,,,,,,,,,,,,METAR,999.0
KQQY 211655Z AUTO VRB05KT 9999 FEW060 33/16 A2995 RMK AO2 SLP114 T03290158,KQQY,2015-02-21T16:55:00Z,100.65,-1000.65,32.9,15.8,0,5,,6.21,29.949802,1011.4,,TRUE,TRUE,,,,,,,FEW,6000,,,,,,,VFR,,,,,,,,,,,,METAR,999.0
KQFG 211655Z AUTO 00000KT 9999 SCT160 BKN240 13/10 A3022 RMK AO2 SLP233 T01330104,KQFG,2015-02-21T16:55:00Z,100.65,-1000.65,13.3,10.4,0,0,,6.21,30.221457,1023.3,,TRUE,TRUE,,,,,,,SCT,16000,BKN,24000,,,,,VFR,,,,,,,,,,,,METAR,999.0
KQAY 211655Z AUTO 06002KT 3200 HZ SCT010 OVC013 14/03 A2993 RMK AO2 SLP136 T01390032 $,KQAY,2015-02-21T16:55:00Z,100.65,-1000.65,13.9,3.2,60,2,,1.99,29.929134,1013.6,,TRUE,TRUE,TRUE,,,,,HZ,SCT,1000,OVC,1300,,,,,IFR,,,,,,,,,,,,METAR,999.0
EHRD 211655Z AUTO 27006KT 240V300 9999 FEW015CB 04/02 Q1000 TEMPO 30017KT 7000 -SHRAGS SCT018CB,EHRD,2015-02-21T16:55:00Z,51.95,4.45,4.0,2.0,270,6,,6.21,29.52756,,,TRUE,,,,,,,,FEW,1500,,,,,,,VFR,,,,,,,,,,,,METAR,-5.0
EHGG 211655Z AUTO 24007KT 9999 FEW015CB 04/02 Q0998 TEMPO 6000 -SHRAGS FEW015CB,EHGG,2015-02-21T16:55:00Z,53.12,6.57,4.0,2.0,240,7,,6.21,29.468504,,,TRUE,,,,,,,,FEW,1500,,,,,,,VFR,,,,,,,,,,,,METAR,4.0
EHBK 211655Z AUTO 17003KT 130V230 9999 -SHRA FEW009 SCT011 BKN025 01/01 Q1001 TEMPO 5000 SHRAGS SCT014CB BKN020,EHBK,2015-02-21T16:55:00Z,50.92,5.77,1.0,1.0,170,3,,6.21,29.557087,,,TRUE,,,,,,,-SHRA,FEW,900,SCT,1100,BKN,2500,,,MVFR,,,,,,,,,,,,METAR,116.0
EHAM 211655Z 28008KT 9999 FEW010 FEW017CB BKN048 04/01 Q1000 TEMPO 7000,EHAM,2015-02-21T16:55:00Z,52.32,4.78,4.0,1.0,280,8,,6.21,29.52756,,,,,,,,,,,FEW,1000,FEW,1700,BKN,4800,,,VFR,,,,,,,,,,,,METAR,9.0
KSFZ 211655Z 19008G16KT 150V300 10SM CLR M02/M12 A3039 RMK AO1,KSFZ,2015-02-21T16:55:00Z,41.92,-71.5,-2.0,-12.0,190,8,16,10.0,30.389763,,,,TRUE,,,,,,,CLR,,,,,,,,VFR,,,,,,,,,,,,METAR,134.0
KSFM 211655Z AUTO 19006KT 10SM CLR M07/M19 A3040 RMK AO1,KSFM,2015-02-21T16:55:00Z,43.38,-70.72,-7.0,-19.0,190,6,,10.0,30.398623,,,TRUE,TRUE,,,,,,,CLR,,,,,,,,VFR,,,,,,,,,,,,METAR,74.0
KSEM 211655Z AUTO 16013G20KT 10SM 15/08 A3014 RMK AO2,KSEM,2015-02-21T16:55:00Z,32.35,-86.98,15.0,8.0,160,13,20,10.0,30.138779,,,TRUE,TRUE,,,,,,,,,,,,,,,,,,,,,,,,,,,METAR,51.0
KRUT 211655Z 12013KT 10SM OVC110 M07/M23 A3018 RMK AO1,KRUT,2015-02-21T16:55:00Z,43.52,-72.95,-7.0,-23.0,120,13,,10.0,30.180119,,,,TRUE,,,,,,,OVC,11000,,,,,,,VFR,,,,,,,,,,,,SPECI,240.0
KRNP 211655Z AUTO 20004KT 5SM -SN BKN013 OVC038 M07/M10 A2996 RMK AO2 T10701097,KRNP,2015-02-21T16:55:00Z,43.0,-84.13,-7.0,-9.7,200,4,,5.0,29.958662,,,TRUE,TRUE,,,,,,-SN,BKN,1300,OVC,3800,,,,,MVFR,,,,,,,,,,,,SPECI,224.0
KRKD 211655Z AUTO 20013G18KT 10SM CLR M04/M13 A3043 RMK AO1,KRKD,2015-02-21T16:55:00Z,44.07,-69.08,-4.0,-13.0,200,13,18,10.0,30.431103,,,TRUE,TRUE,,,,,,,CLR,,,,,,,,VFR,,,,,,,,,,,,SPECI,17.0
KPVU 211655Z 00000KT 10SM FEW040 SCT060 04/M03 A2999,KPVU,2015-02-21T16:55:00Z,40.22,-111.72,4.0,-3.0,0,0,,10.0,29.991142,,,,,,,,,,,FEW,4000,SCT,6000,,,,,VFR,,,,,,,,,,,,METAR,1369.0
KPVC 211655Z AUTO 19012G18KT 10SM CLR M02/M09 A3046 RMK AO1,KPVC,2015-02-21T16:55:00Z,42.07,-70.22,-2.0,-9.0,190,12,18,10.0,30.46063,,,TRUE,TRUE,,,,,,,CLR,,,,,,,,VFR,,,,,,,,,,,,SPECI,2.0
KPQI 211655Z AUTO 16007KT 10SM FEW070 SCT085 M12/M20 A3033 RMK AO1,KPQI,2015-02-21T16:55:00Z,46.67,-68.03,-12.0,-20.0,160,7,,10.0,30.33071,,,TRUE,TRUE,,,,,,,FEW,7000,SCT,8500,,,,,VFR,,,,,,,,,,,,SPECI,146.0
KOZW 211655Z AUTO 00000KT 7SM OVC034 M06/M09 A2993 RMK AO2 T10651093,KOZW,2015-02-21T16:55:00Z,42.62,-83.97,-6.5,-9.3,0,0,,7.0,29.929134,,,TRUE,TRUE,,,,,,,OVC,3400,,,,,,,VFR,,,,,,,,,,,,SPECI,293.0
PASV 211655Z AUTO 14024G33KT 10SM BKN240 07/M03 A2958 RMK AO2 PK WND 14034/1624 SLP024 T00731032,PASV,2015-02-21T16:55:00Z,61.1,-155.57,7.3,-3.2,140,24,33,10.0,29.58071,1002.4,,TRUE,TRUE,,,,,,,BKN,24000,,,,,,,VFR,,,,,,,,,,,,METAR,484.0
KTEX 211655Z AUTO 25005KT 10SM SCT048 SCT065 BKN080 M02/M14 A2992 RMK AO2 T10171143,KTEX,2015-02-21T16:55:00Z,37.95,-107.9,-1.7,-14.3,250,5,,10.0,29.920275,,,TRUE,TRUE,,,,,,,SCT,4800,SCT,6500,BKN,8000,,,VFR,,,,,,,,,,,,METAR,2769.0
KSUE 211655Z AUTO 36007KT 10SM BKN120 M07/M12 A2994 RMK AO1,KSUE,2015-02-21T16:55:00Z,44.85,-87.42,-7.0,-12.0,360,7,,10.0,29.940945,,,TRUE,TRUE,,,,,,,BKN,12000,,,,,,,VFR,,,,,,,,,,,,METAR,221.0
KCFJ 211655Z AUTO 00000KT 4SM -SN SCT023 OVC032 M05/M08 A2992 RMK AO2 T10531085,KCFJ,2015-02-21T16:55:00Z,,,-5.3,-8.5,0,0,,4.0,29.920275,,,TRUE,TRUE,,,,,,-SN,SCT,2300,OVC,3200,,,,,MVFR,,,,,,,,,,,,METAR,
KS25 211655Z AUTO 32010KT 10SM BKN021 BKN034 M15/M20 A3028 RMK AO2,KS25,2015-02-21T16:55:00Z,47.8,-103.25,-15.0,-20.0,320,10,,10.0,30.280512,,,TRUE,TRUE,,,,,,,BKN,2100,BKN,3400,,,,,MVFR,,,,,,,,,,,,METAR,644.0
KMWO 211655Z AUTO 00000KT 1SM -SN OVC006 00/M02 A2993 RMK AO2 T10031025,KMWO,2015-02-21T16:55:00Z,39.53,-84.4,-0.3,-2.5,0,0,,1.0,29.929134,,,TRUE,TRUE,,,,,,-SN,OVC,600,,,,,,,IFR,,,,,,,,,,,,METAR,198.0
KMRN 211655Z AUTO 00000KT 10SM OVC044 00/M11 A3035 RMK AO2 T10041106,KMRN,2015-02-21T16:55:00Z,35.82,-81.62,-0.4,-10.6,0,0,,10.0,30.351377,,,TRUE,TRUE,,,,,,,OVC,4400,,,,,,,VFR,,,,,,,,,,,,METAR,387.0
KMNZ 211655Z AUTO 35008G14KT 10SM SCT014 BKN029 OVC037 13/09 A2995 RMK AO2 T01330085,KMNZ,2015-02-21T16:55:00Z,31.67,-98.15,13.3,8.5,350,8,14,10.0,29.949802,,,TRUE,TRUE,,,,,,,SCT,1400,BKN,2900,OVC,3700,,,MVFR,,,,,,,,,,,,METAR,396.0
KBPG 211655Z AUTO 36008KT 10SM CLR 12/03 A3004 RMK AO2 T01200031,KBPG,2015-02-21T16:55:00Z,32.22,-101.52,12.0,3.1,360,8,,10.0,30.041338,,,TRUE,TRUE,,,,,,,CLR,,,,,,,,VFR,,,,,,,,,,,,METAR,784.0
KMZG 211655Z AUTO 16009G15KT 4SM HZ FEW019 SCT023 BKN029 21/19 A2995 RMK A01,KMZG,2015-02-21T16:55:00Z,27.73,-96.18,21.0,19.0,160,9,15,4.0,29.949802,,,TRUE,TRUE,,,,,,HZ,FEW,1900,SCT,2300,BKN,2900,,,MVFR,,,,,,,,,,,,METAR,29.0
KOJA 211655Z AUTO 04011G14KT 10SM CLR 08/02 A3003 RMK AO2,KOJA,2015-02-21T16:55:00Z,35.55,-98.67,8.0,2.0,40,11,14,10.0,30.029528,,,TRUE,TRUE,,,,,,,CLR,,,,,,,,VFR,,,,,,,,,,,,METAR,490.0
KOCW 211655Z AUTO 14008KT 10SM CLR 06/M02 A3043 RMK AO2 T00631019,KOCW,2015-02-21T16:55:00Z,35.57,-77.05,6.3,-1.9,140,8,,10.0,30.431103,,,TRUE,TRUE,,,,,,,CLR,,,,,,,,VFR,,,,,,,,,,,,METAR,12.0
KONM 211655Z AUTO 17005KT 10SM 15/M07 A2996 RMK AO2 T01461069,KONM,2015-02-21T16:55:00Z,34.02,-106.9,14.6,-6.9,170,5,,10.0,29.958662,,,TRUE,TRUE,,,,,,,,,,,,,,,,,,,,,,,,,,,METAR,1410.0
KOPN 211655Z AUTO 17008KT 10SM OVC090 08/M01 A3028 RMK AO2,KOPN,2015-02-21T16:55:00Z,32.95,-84.27,8.0,-1.0,170,8,,10.0,30.280512,,,TRUE,TRUE,,,,,,,OVC,9000,,,,,,,VFR,,,,,,,,,,,,METAR,243.0
KONP 211655Z AUTO 08005KT 10SM CLR 07/05 A3028 RMK AO2,KONP,2015-02-21T16:55:00Z,44.57,-124.03,7.0,5.0,80,5,,10.0,30.280512,,,TRUE,TRUE,,,,,,,CLR,,,,,,,,VFR,,,,,,,,,,,,METAR,48.0
KPDC 211655Z AUTO 30007KT 7SM OVC023 M02/M07 A2995 RMK AO2 T10171072,KPDC,2015-02-21T16:55:00Z,43.02,-91.12,-1.7,-7.2,300,7,,7.0,29.949802,,,TRUE,TRUE,,,,,,,OVC,2300,,,,,,,MVFR,,,,,,,,,,,,METAR,201.0
KPEQ 211655Z AUTO 00000KT 10SM CLR 13/02 A3004 RMK AO2 T01260020,KPEQ,2015-02-21T16:55:00Z,31.38,-103.52,12.6,2.0,0,0,,10.0,30.041338,,,TRUE,TRUE,,,,,,,CLR,,,,,,,,VFR,,,,,,,,,,,,METAR,797.0
KPMV 211655Z AUTO 36007KT 10SM OVC015 02/M02 A3002 RMK AO2 T00231022,KPMV,2015-02-21T16:55:00Z,40.95,-95.92,2.3,-2.2,360,7,,10.0,30.02067,,,TRUE,TRUE,,,,,,,OVC,1500,,,,,,,MVFR,,,,,,,,,,,,METAR,367.0
KPPQ 211655Z AUTO 00000KT 7SM OVC055 00/M02 A2995 RMK AO2 T00001021,KPPQ,2015-02-21T16:55:00Z,39.63,-90.78,0.0,-2.1,0,0,,7.0,29.949802,,,TRUE,TRUE,,,,,,,OVC,5500,,,,,,,VFR,,,,,,,,,,,,METAR,216.0
KPPO 211655Z AUTO 00000KT 7SM OVC032 M04/M08 A2995 RMK AO2 T10411078,KPPO,2015-02-21T16:55:00Z,41.57,-86.73,-4.1,-7.8,0,0,,7.0,29.949802,,,TRUE,TRUE,,,,,,,OVC,3200,,,,,,,VFR,,,,,,,,,,,,METAR,248.0
KPTS 211655Z AUTO 35004KT 3SM BR OVC003 04/04 A2999 RMK AO2 T00350036,KPTS,2015-02-21T16:55:00Z,37.45,-94.73,3.5,3.6,350,4,,3.0,29.991142,,,TRUE,TRUE,,,,,,BR,OVC,300,,,,,,,LIFR,,,,,,,,,,,,METAR,290.0
KPTT 211655Z AUTO 35010KT 10SM CLR 08/01 A3002 RMK AO2,KPTT,2015-02-21T16:55:00Z,37.7,-98.75,8.0,1.0,350,10,,10.0,30.02067,,,TRUE,TRUE,,,,,,,CLR,,,,,,,,VFR,,,,,,,,,,,,METAR,595.0
KRFI 211655Z AUTO 20006KT 10SM SCT013 BKN030 OVC055 20/17 A2990 RMK AO2 T01950167,KRFI,2015-02-21T16:55:00Z,32.15,-94.85,19.5,16.7,200,6,,10.0,29.899607,,,TRUE,TRUE,,,,,,,SCT,1300,BKN,3000,OVC,5500,,,MVFR,,,,,,,,,,,,METAR,135.0
KPYX 211655Z AUTO 09007KT 10SM 07/00 A3003 RMK AO2 T00691002,KPYX,2015-02-21T16:55:00Z,36.42,-100.75,6.9,-0.2,90,7,,10.0,30.029528,,,TRUE,TRUE,,,,,,,,,,,,,,,,,,,,,,,,,,,METAR,889.0
KRHP 211655Z AUTO 26003G17KT 10SM SCT040 OVC049 03/M03 A3020 RMK AO2 T00321032,KRHP,2015-02-21T16:55:00Z,35.18,-83.85,3.2,-3.2,260,3,17,10.0,30.200787,,,TRUE,TRUE,,,,,,,SCT,4000,OVC,4900,,,,,VFR,,,,,,,,,,,,METAR,518.0
KRKR 211655Z AUTO 04005KT 10SM OVC015 06/03 A2994 RMK AO2 T00600032,KRKR,2015-02-21T16:55:00Z,35.02,-94.62,6.0,3.2,40,5,,10.0,29.940945,,,TRUE,TRUE,,,,,,,OVC,1500,,,,,,,MVFR,,,,,,,,,,,,METAR,138.0
KXPY 211655Z AUTO 18011KT 6SM HZ OVC080 21/15 A3014 RMK A01,KXPY,2015-02-21T16:55:00Z,29.12,-90.2,21.0,15.0,180,11,,6.0,30.138779,,,TRUE,TRUE,,,,,,HZ,OVC,8000,,,,,,,VFR,,,,,,,,,,,,METAR,2.0
KXLL 211655Z AUTO 17011G20KT 1 1/4SM -SN BKN010 BKN016 OVC027 M06/M12 A3039 RMK AO2,KXLL,2015-02-21T16:55:00Z,40.57,-75.48,-6.0,-12.0,170,11,20,1.25,30.389763,,,TRUE,TRUE,,,,,,-SN,BKN,1000,BKN,1600,OVC,2700,,,IFR,,,,,,,,,,,,METAR,122.0
KXIH 211655Z AUTO 20010G17KT 5SM HZ BKN037 BKN065 19/16 A2999 RMK A01,KXIH,2015-02-21T16:55:00Z,29.18,-94.52,19.0,16.0,200,10,17,5.0,29.991142,,,TRUE,TRUE,,,,,,HZ,BKN,3700,BKN,6500,,,,,MVFR,,,,,,,,,,,,METAR,75.0
KWDR 211655Z AUTO 00000KT 10SM OVC080 06/M01 A3032 RMK AO1,KWDR,2015-02-21T16:55:00Z,33.98,-83.67,6.0,-1.0,0,0,,10.0,30.318897,,,TRUE,TRUE,,,,,,,OVC,8000,,,,,,,VFR,,,,,,,,,,,,METAR,287.0
KVQT 211655Z AUTO 00000KT 7SM OVC070 22/16 A3005 RMK A01,KVQT,2015-02-21T16:55:00Z,28.27,-92.27,22.0,16.0,0,0,,7.0,30.050198,,,TRUE,TRUE,,,,,,,OVC,7000,,,,,,,VFR,,,,,,,,,,,,METAR,25.0
KVOA 211655Z AUTO 15029KT 10SM CLR 20/12 A3014 RMK A01,KVOA,2015-02-21T16:55:00Z,29.23,-87.78,20.0,12.0,150,29,,10.0,30.138779,,,TRUE,TRUE,,,,,,,CLR,,,,,,,,VFR,,,,,,,,,,,,METAR,53.0
KVKY 211655Z AUTO VRB03G12KT 10SM CLR 21/13 A3014 RMK A01,KVKY,2015-02-21T16:55:00Z,29.25,-88.43,21.0,13.0,0,3,12,10.0,30.138779,,,TRUE,TRUE,,,,,,,CLR,,,,,,,,VFR,,,,,,,,,,,,METAR,32.0
KVCV 211655Z AUTO 16005KT 10SM CLR 13/03 A2993 RMK AO2,KVCV,2015-02-21T16:55:00Z,34.58,-117.38,13.0,3.0,160,5,,10.0,29.929134,,,TRUE,TRUE,,,,,,,CLR,,,,,,,,VFR,,,,,,,,,,,,METAR,876.0
KVBW 211655Z AUTO 21014G20KT 1/2SM OVC010 M07/M09 A3023 RMK AO2 T10661087,KVBW,2015-02-21T16:55:00Z,38.37,-78.97,-6.6,-8.7,210,14,20,0.5,30.230314,,,TRUE,TRUE,,,,,,,OVC,1000,,,,,,,LIFR,,,,,,,,,,,,METAR,355.0
KVAF 211655Z AUTO 19024KT 4SM HZ FEW018 FEW023 SCT055 22/18 A2999 RMK A01,KVAF,2015-02-21T16:55:00Z,27.35,-94.63,22.0,18.0,190,24,,4.0,29.991142,,,TRUE,TRUE,,,,,,HZ,FEW,1800,FEW,2300,SCT,5500,,,MVFR,,,,,,,,,,,,METAR,46.0
KTVK 211655Z AUTO 33012KT 10SM FEW018 FEW031 01/M02 A2997 RMK AO2,KTVK,2015-02-21T16:55:00Z,40.68,-92.9,1.0,-2.0,330,12,,10.0,29.970472,,,TRUE,TRUE,,,,,,,FEW,1800,FEW,3100,,,,,VFR,,,,,,,,,,,,METAR,314.0
KTQH 211655Z AUTO 35012KT 10SM SCT015 05/02 A2997 RMK AO2,KTQH,2015-02-21T16:55:00Z,35.93,-95.0,5.0,2.0,350,12,,10.0,29.970472,,,TRUE,TRUE,,,,,,,SCT,1500,,,,,,,VFR,,,,,,,,,,,,METAR,266.0
KTOC 211655Z AUTO 06003KT 10SM SCT049 SCT060 OVC070 02/M06 A3031 RMK AO2 T00211064,KTOC,2015-02-21T16:55:00Z,34.6,-83.3,2.1,-6.4,60,3,,10.0,30.31004,,,TRUE,TRUE,,,,,,,SCT,4900,SCT,6000,OVC,7000,,,VFR,,,,,,,,,,,,METAR,304.0
KTMK 211655Z AUTO 00000KT 7SM CLR 05/04 A3029 RMK AO2,KTMK,2015-02-21T16:55:00Z,45.42,-123.82,5.0,4.0,0,0,,7.0,30.28937,,,TRUE,TRUE,,,,,,,CLR,,,,,,,,VFR,,,,,,,,,,,,METAR,11.0
KTKV 211655Z AUTO 00000KT 4SM -SN OVC020 M08/M13 A2991 RMK AO2 T10841130,KTKV,2015-02-21T16:55:00Z,45.47,-89.82,-8.4,-13.0,0,0,,4.0,29.911417,,,TRUE,TRUE,,,,,,-SN,OVC,2000,,,,,,,MVFR,,,,,,,,,,,,METAR,453.0
KTIP 211655Z AUTO 00000KT 10SM SCT110 M03/M06 A2993 RMK AO2 T10321057,KTIP,2015-02-21T16:55:00Z,40.28,-88.15,-3.2,-5.7,0,0,,10.0,29.929134,,,TRUE,TRUE,,,,,,,SCT,11000,,,,,,,VFR,,,,,,,,,,,,METAR,225.0
KT82 211655Z AUTO 21006KT 10SM SCT018 SCT120 18/14 A2992 RMK AO2 T01800140,KT82,2015-02-21T16:55:00Z,30.25,-98.92,18.0,14.0,210,6,,10.0,29.920275,,,TRUE,TRUE,,,,,,,SCT,1800,SCT,12000,,,,,VFR,,,,,,,,,,,,METAR,517.0
KT20 211655Z AUTO 19010G17KT 10SM BKN018 OVC026 21/18 A2991 RMK AO2 T02100175,KT20,2015-02-21T16:55:00Z,29.52,-97.47,21.0,17.5,190,10,17,10.0,29.911417,,,TRUE,TRUE,,,,,,,BKN,1800,OVC,2600,,,,,MVFR,,,,,,,,,,,,METAR,108.0
KSUT 211655Z AUTO 13007KT 100V160 10SM OVC031 11/06 A3040 RMK AO2 T01130062,KSUT,2015-02-21T16:55:00Z,33.93,-78.08,11.3,6.2,130,7,,10.0,30.398623,,,TRUE,TRUE,,,,,,,OVC,3100,,,,,,,VFR,,,,,,,,,,,,METAR,8.0
KSQE 211655Z AUTO 16011G21KT 110V190 10SM SCT036 BKN080 23/15 A3009 RMK A01,KSQE,2015-02-21T16:55:00Z,28.07,-90.82,23.0,15.0,160,11,21,10.0,30.088583,,,TRUE,TRUE,,,,,,,SCT,3600,BKN,8000,,,,,VFR,,,,,,,,,,,,METAR,0.0
KSPR 211655Z AUTO 17025G30KT 6SM HZ BKN075 22/15 A3006 RMK A01,KSPR,2015-02-21T16:55:00Z,28.6,-91.2,22.0,15.0,170,25,30,6.0,30.059055,,,TRUE,TRUE,,,,,,HZ,BKN,7500,,,,,,,VFR,,,,,,,,,,,,METAR,31.0
KSLR 211655Z AUTO 32010KT 10SM OVC017 10/06 A2991 RMK AO2 T00980064,KSLR,2015-02-21T16:55:00Z,33.17,-95.62,9.8,6.4,320,10,,10.0,29.911417,,,TRUE,TRUE,,,,,,,OVC,1700,,,,,,,MVFR,,,,,,,,,,,,METAR,149.0
KSHD 211655Z AUTO 21005KT 1/2SM SN OVC013 M06/M08 A3025 RMK AO2 T10651085,KSHD,2015-02-21T16:55:00Z,38.27,-78.9,-6.5,-8.5,210,5,,0.5,30.250984,,,TRUE,TRUE,,,,,,SN,OVC,1300,,,,,,,LIFR,,,,,,,,,,,,METAR,366.0
KSFY 211655Z AUTO 25003KT 5SM HZ OVC029 M02/M06 A2995 RMK AO2 T10221065,KSFY,2015-02-21T16:55:00Z,42.05,-90.12,-2.2,-6.5,250,3,,5.0,29.949802,,,TRUE,TRUE,,,,,,HZ,OVC,2900,,,,,,,MVFR,,,,,,,,,,,,METAR,188.0
KSEP 211655Z AUTO 34009KT 10SM OVC014 11/06 A2998 RMK AO2 T01090061,KSEP,2015-02-21T16:55:00Z,32.22,-98.17,10.9,6.1,340,9,,10.0,29.97933,,,TRUE,TRUE,,,,,,,OVC,1400,,,,,,,MVFR,,,,,,,,,,,,METAR,402.0
KRPJ 211655Z AUTO 00000KT 7SM OVC026 M04/M07 A2994 RMK AO2 T10441074,KRPJ,2015-02-21T16:55:00Z,41.88,-89.08,-4.4,-7.4,0,0,,7.0,29.940945,,,TRUE,TRUE,,,,,,,OVC,2600,,,,,,,MVFR,,,,,,,,,,,,METAR,238.0
KRPH 211655Z AUTO 33012G16KT 10SM OVC015 08/04 A3000 RMK AO2 T00830044,KRPH,2015-02-21T16:55:00Z,33.12,-98.55,8.3,4.4,330,12,16,10.0,30.0,,,TRUE,TRUE,,,,,,,OVC,1500,,,,,,,MVFR,,,,,,,,,,,,METAR,342.0
PAUT 211655Z AUTO 10SM BKN005 OVC013 04/04 A2916 RMK AO2 T00380038,PAUT,2015-02-21T16:55:00Z,54.15,-165.6,3.8,3.8,,,,10.0,29.161417,,,TRUE,TRUE,,,,,,,BKN,500,OVC,1300,,,,,IFR,,,,,,,,,,,,METAR,25.0
K1K1 211655Z AUTO 34004KT 10SM CLR 07/03 A3000 RMK AO2 T00700026,K1K1,2015-02-21T16:55:00Z,37.77,-97.12,7.0,2.6,340,4,,10.0,30.0,,,TRUE,TRUE,,,,,,,CLR,,,,,,,,VFR,,,,,,,,,,,,METAR,416.0
K1A9 211655Z AUTO 15008KT 10SM OVC090 12/06 A3017 RMK AO2 T01200060,K1A9,2015-02-21T16:55:00Z,32.43,-86.52,12.0,6.0,150,8,,10.0,30.171259,,,TRUE,TRUE,,,,,,,OVC,9000,,,,,,,VFR,,,,,,,,,,,,METAR,69.0
KBVS 211655Z AUTO 00000KT 10SM SCT009 05/04 A3036 RMK A01 P000,KBVS,2015-02-21T16:55:00Z,48.47,-122.42,5.0,4.0,0,0,,10.0,30.360237,,,TRUE,TRUE,,,,,,,SCT,900,,,,,,,VFR,,,,,,,,,,,,METAR,43.0
KBPC 211655Z AUTO 06004KT 10SM CLR 06/00 A3005 RMK AO2,KBPC,2015-02-21T16:55:00Z,35.88,-101.03,6.0,0.0,60,4,,10.0,30.050198,,,TRUE,TRUE,,,,,,,CLR,,,,,,,,VFR,,,,,,,,,,,,METAR,845.0
KBKS 211655Z AUTO 19014G19KT 10SM OVC027 23/17 A2993 RMK AO1 T02300165,KBKS,2015-02-21T16:55:00Z,27.2,-98.12,23.0,16.5,190,14,19,10.0,29.929134,,,TRUE,TRUE,,,,,,,OVC,2700,,,,,,,MVFR,,,,,,,,,,,,METAR,34.0
KBEA 211655Z AUTO 17009G17KT 10SM SCT018 OVC031 22/18 A2991 RMK AO2 T02160175,KBEA,2015-02-21T16:55:00Z,28.37,-97.78,21.6,17.5,170,9,17,10.0,29.911417,,,TRUE,TRUE,,,,,,,SCT,1800,OVC,3100,,,,,VFR,,,,,,,,,,,,METAR,82.0
KBCK 211655Z AUTO 33007KT 10SM SCT060 SCT070 M05/M10 A2996 RMK AO2 T10491103,KBCK,2015-02-21T16:55:00Z,44.25,-90.85,-4.9,-10.3,330,7,,10.0,29.958662,,,TRUE,TRUE,,,,,,,SCT,6000,SCT,7000,,,,,VFR,,,,,,,,,,,,METAR,255.0
KBCB 211655Z AUTO 17007KT 1/2SM SN OVC009 M04/M06 A3024 RMK AO2 T10451058,KBCB,2015-02-21T16:55:00Z,37.22,-80.42,-4.5,-5.8,170,7,,0.5,30.239174,,,TRUE,TRUE,,,,,,SN,OVC,900,,,,,,,LIFR,,,,,,,,,,,,METAR,650.0
KAXS 211655Z AUTO 01009G14KT 10SM OVC020 09/03 A3006 RMK AO2 T00900025,KAXS,2015-02-21T16:55:00Z,34.7,-99.33,9.0,2.5,10,9,14,10.0,30.059055,,,TRUE,TRUE,,,,,,,OVC,2000,,,,,,,MVFR,,,,,,,,,,,,METAR,437.0
KAST 211655Z AUTO 00000KT 6SM HZ CLR 08/05 A3028 RMK AO2 SLP253 T00780050,KAST,2015-02-21T16:55:00Z,46.15,-123.88,7.8,5.0,0,0,,6.0,30.280512,1025.3,,TRUE,TRUE,,,,,,HZ,CLR,,,,,,,,VFR,,,,,,,,,,,,METAR,3.0
KASN 211655Z AUTO 18011G18KT 10SM SCT029 OVC065 11/04 A3015 RMK AO2 T01070041,KASN,2015-02-21T16:55:00Z,33.57,-86.05,10.7,4.1,180,11,18,10.0,30.15059,,,TRUE,TRUE,,,,,,,SCT,2900,OVC,6500,,,,,VFR,,,,,,,,,,,,METAR,162.0
KAQX 211655Z AUTO 17009G15KT 10SM CLR 15/05 A3032 RMK AO2,KAQX,2015-02-21T16:55:00Z,32.98,-81.27,15.0,5.0,170,9,15,10.0,30.318897,,,TRUE,TRUE,,,,,,,CLR,,,,,,,,VFR,,,,,,,,,,,,METAR,49.0
KANJ 211655Z AUTO 00000KT 7SM SCT030 BKN060 M07/M12 A2989 RMK AO2 SLP135 T10721122,KANJ,2015-02-21T16:55:00Z,46.47,-84.37,-7.2,-12.2,0,0,,7.0,29.890747,1013.5,,TRUE,TRUE,,,,,,,SCT,3000,BKN,6000,,,,,VFR,,,,,,,,,,,,METAR,218.0
KAJL 211655Z AUTO 09003KT 1/4SM SN OVC004 A2979 RMK AO2,KAJL,2015-02-21T16:55:00Z,43.67,-110.03,,,90,3,,0.25,29.790354,,,TRUE,TRUE,,,,,,SN,OVC,400,,,,,,,LIFR,,,,,,,,,,,,METAR,3161.0
KAIB 211655Z AUTO 33003KT 10SM SCT038 OVC046 02/M07 A2998 RMK AO2,KAIB,2015-02-21T16:55:00Z,38.23,-108.57,2.0,-7.0,330,3,,10.0,29.97933,,,TRUE,TRUE,,,,,,,SCT,3800,OVC,4600,,,,,VFR,,,,,,,,,,,,METAR,1811.0
KAAT 211655Z AUTO 00000KT 10SM CLR 00/M04 A3008 RMK AO2 SLP201 T00001039 $,KAAT,2015-02-21T16:55:00Z,41.48,-120.57,0.0,-3.9,0,0,,10.0,30.079725,1020.1,,TRUE,TRUE,TRUE,,,,,,CLR,,,,,,,,VFR,,,,,,,,,,,,METAR,1331.0
K8W2 211655Z AUTO 21009G14KT 1/4SM OVC008 M07/M08 A3023 RMK AO1 P0002 T10671081,K8W2,2015-02-21T16:55:00Z,38.65,-78.7,-6.7,-8.1,210,9,14,0.25,30.230314,,,TRUE,TRUE,,,,,,,OVC,800,,,,,,,LIFR,,,,,,0.02,,,,,,METAR,297.0
K82V 211655Z AUTO 03005KT 2 1/2SM -SN OVC012 M01/M02 A2998 RMK AO2,K82V,2015-02-21T16:55:00Z,41.15,-104.13,-1.0,-2.0,30,5,,2.5,29.97933,,,TRUE,TRUE,,,,,,-SN,OVC,1200,,,,,,,IFR,,,,,,,,,,,,METAR,1570.0
K7W4 211655Z AUTO 19004KT 7SM SCT024 BKN046 OVC050 M06/M11 A3037 RMK AO1 T10561113,K7W4,2015-02-21T16:55:00Z,37.97,-77.75,-5.6,-11.3,190,4,,7.0,30.369095,,,TRUE,TRUE,,,,,,,SCT,2400,BKN,4600,OVC,5000,,,VFR,,,,,,,,,,,,METAR,106.0
K6L4 211655Z AUTO 19007KT 3/4SM -SN OVC022 01/01 A3002 RMK AO2 VIS 1/4V1 3/4,K6L4,2015-02-21T16:55:00Z,37.85,-81.92,1.0,1.0,190,7,,0.75,30.02067,,,TRUE,TRUE,,,,,,-SN,OVC,2200,,,,,,,LIFR,,,,,,,,,,,,METAR,508.0
K6A2 211655Z AUTO 16010KT 10SM SCT070 OVC080 07/M02 A3026 RMK AO2,K6A2,2015-02-21T16:55:00Z,33.23,-84.27,7.0,-2.0,160,10,,10.0,30.259842,,,TRUE,TRUE,,,,,,,SCT,7000,OVC,8000,,,,,VFR,,,,,,,,,,,,METAR,292.0
K4M9 211655Z AUTO 9SM -RA FEW030 00/00 A2993 RMK AO2 P0002,K4M9,2015-02-21T16:55:00Z,36.4,-90.65,0.0,0.0,,,,9.0,29.929134,,,TRUE,TRUE,,,,,,-RA,FEW,3000,,,,,,,VFR,,,,,,0.02,,,,,,METAR,90.0
K46D 211655Z AUTO 10SM CLR M18/M20 A3025 RMK AO2,K46D,2015-02-21T16:55:00Z,47.45,-99.15,-18.0,-20.0,,,,10.0,30.250984,,,TRUE,TRUE,,,,,,,CLR,,,,,,,,VFR,,,,,,,,,,,,METAR,490.0
K42J 211655Z AUTO 19009KT 10SM BKN042 18/07 A3033 RMK AO1 TSNO,K42J,2015-02-21T16:55:00Z,29.85,-82.05,18.0,7.0,190,9,,10.0,30.33071,,,TRUE,TRUE,,,TRUE,,,,BKN,4200,,,,,,,VFR,,,,,,,,,,,,METAR,60.0
K3J7 211655Z AUTO 17007KT 10SM OVC090 12/00 A3027 RMK AO2,K3J7,2015-02-21T16:55:00Z,33.6,-83.13,12.0,0.0,170,7,,10.0,30.268702,,,TRUE,TRUE,,,,,,,OVC,9000,,,,,,,VFR,,,,,,,,,,,,METAR,206.0
K3D2 211655Z AUTO 34006KT 10SM CLR M07/M12 A2991 RMK AO2 T10681117,K3D2,2015-02-21T16:55:00Z,45.13,-87.18,-6.8,-11.7,340,6,,10.0,29.911417,,,TRUE,TRUE,,,,,,,CLR,,,,,,,,VFR,,,,,,,,,,,,METAR,234.0
KBVU 211655Z AUTO 00000KT 10SM CLR 15/M06 A2994 RMK AO2,KBVU,2015-02-21T16:55:00Z,35.95,-114.87,15.0,-6.0,0,0,,10.0,29.940945,,,TRUE,TRUE,,,,,,,CLR,,,,,,,,VFR,,,,,,,,,,,,METAR,671.0
KBXA 211655Z AUTO 19017G24KT 10SM 21/11 A3010 RMK AO2 T02120110,KBXA,2015-02-21T16:55:00Z,30.82,-89.87,21.2,11.0,190,17,24,10.0,30.100393,,,TRUE,TRUE,,,,,,,,,,,,,,,,,,,,,,,,,,,METAR,36.0
KCAO 211655Z AUTO 15009KT 10SM FEW024 OVC070 05/M02 A3000 RMK AO2 SLP155 T00501022,KCAO,2015-02-21T16:55:00Z,36.45,-103.15,5.0,-2.2,150,9,,10.0,30.0,1015.5,,TRUE,TRUE,,,,,,,FEW,2400,OVC,7000,,,,,VFR,,,,,,,,,,,,METAR,1514.0
KCEY 211655Z AUTO 34009KT 10SM OVC003 02/02 A2986 RMK AO1 P0019,KCEY,2015-02-21T16:55:00Z,36.67,-88.37,2.0,2.0,340,9,,10.0,29.861221,,,TRUE,TRUE,,,,,,,OVC,300,,,,,,,LIFR,,,,,,0.19,,,,,,METAR,176.0
KCKF 211655Z AUTO 19014G21KT 10SM CLR 16/01 A3030 RMK AO2 T01610009,KCKF,2015-02-21T16:55:00Z,31.98,-83.77,16.1,0.9,190,14,21,10.0,30.301182,,,TRUE,TRUE,,,,,,,CLR,,,,,,,,VFR,,,,,,,,,,,,METAR,91.0
KCLI 211655Z AUTO 00000KT 10SM OVC120 M05/M11 A2992 RMK AO2,KCLI,2015-02-21T16:55:00Z,44.62,-88.73,-5.0,-11.0,0,0,,10.0,29.920275,,,TRUE,TRUE,,,,,,,OVC,12000,,,,,,,VFR,,,,,,,,,,,,METAR,250.0
KCLK 211655Z AUTO 04012KT 10SM SCT018 08/01 A3004 RMK AO2,KCLK,2015-02-21T16:55:00Z,35.53,-98.93,8.0,1.0,40,12,,10.0,30.041338,,,TRUE,TRUE,,,,,,,SCT,1800,,,,,,,VFR,,,,,,,,,,,,METAR,492.0
KCMA 211655Z 08004KT 5SM HZ OVC035 16/10 A3000 RMK AO2 SLP166 T01610100,KCMA,2015-02-21T16:55:00Z,34.22,-119.1,16.1,10.0,80,4,,5.0,30.0,1016.6,,,TRUE,,,,,,HZ,OVC,3500,,,,,,,MVFR,,,,,,,,,,,,METAR,23.0
KCNK 211655Z AUTO 04005KT 10SM OVC080 07/00 A3002 RMK AO2 SLP172 T00670000,KCNK,2015-02-21T16:55:00Z,39.55,-97.65,6.7,0.0,40,5,,10.0,30.02067,1017.2,,TRUE,TRUE,,,,,,,OVC,8000,,,,,,,VFR,,,,,,,,,,,,METAR,447.0
KCVC 211655Z AUTO 17003KT 10SM OVC085 07/M02 A3027 RMK AO2,KCVC,2015-02-21T16:55:00Z,33.63,-83.85,7.0,-2.0,170,3,,10.0,30.268702,,,TRUE,TRUE,,,,,,,OVC,8500,,,,,,,VFR,,,,,,,,,,,,METAR,247.0
K5A6 211655Z AUTO 19014G23KT 10SM OVC024 15/12 A2993 RMK AO2 P0001 T01470120,K5A6,2015-02-21T16:55:00Z,33.47,-89.73,14.7,12.0,190,14,23,10.0,29.929134,,,TRUE,TRUE,,,,,,,OVC,2400,,,,,,,MVFR,,,,,,0.01,,,,,,METAR,111.0
KCWV 211655Z AUTO 16010G19KT 10SM CLR 16/06 A3032 RMK AO2,KCWV,2015-02-21T16:55:00Z,32.2,-81.87,16.0,6.0,160,10,19,10.0,30.318897,,,TRUE,TRUE,,,,,,,CLR,,,,,,,,VFR,,,,,,,,,,,,METAR,33.0
KCZT 211655Z AUTO 00000KT 10SM CLR 21/15 A2989 RMK AO2,KCZT,2015-02-21T16:55:00Z,28.52,-99.82,21.0,15.0,0,0,,10.0,29.890747,,,TRUE,TRUE,,,,,,,CLR,,,,,,,,VFR,,,,,,,,,,,,METAR,183.0
KDLH 211655Z 31009KT 9SM OVC022 M12/M18 A2998 RMK AO2 SLP186 T11221183 $,KDLH,2015-02-21T16:55:00Z,46.85,-92.2,-12.2,-18.3,310,9,,9.0,29.97933,1018.6,,,TRUE,TRUE,,,,,,OVC,2200,,,,,,,MVFR,,,,,,,,,,,,METAR,435.0
KDVK 211655Z AUTO 18009G14KT 5SM -RA OVC006 01/00 A2995 RMK AO2,KDVK,2015-02-21T16:55:00Z,37.58,-84.77,1.0,0.0,180,9,14,5.0,29.949802,,,TRUE,TRUE,,,,,,-RA,OVC,600,,,,,,,IFR,,,,,,,,,,,,METAR,312.0
KE80 211655Z AUTO 22004KT 10SM CLR 13/M06 A2995 RMK AO2 T01341063,KE80,2015-02-21T16:55:00Z,34.65,-106.83,13.4,-6.3,220,4,,10.0,29.949802,,,TRUE,TRUE,,,,,,,CLR,,,,,,,,VFR,,,,,,,,,,,,METAR,1582.0
KEAT 211655Z AUTO 00000KT 10SM CLR 04/M01 A3026 RMK AO2 SLP253 T00441011,KEAT,2015-02-21T16:55:00Z,47.4,-120.2,4.4,-1.1,0,0,,10.0,30.259842,1025.3,,TRUE,TRUE,,,,,,,CLR,,,,,,,,VFR,,,,,,,,,,,,METAR,377.0
KEDE 211655Z AUTO 14005KT 10SM BKN060 BKN085 05/M05 A3044 RMK AO2 T00451053,KEDE,2015-02-21T16:55:00Z,36.02,-76.57,4.5,-5.3,140,5,,10.0,30.43996,,,TRUE,TRUE,,,,,,,BKN,6000,BKN,8500,,,,,VFR,,,,,,,,,,,,METAR,6.0
KEHY 211655Z AUTO 00000KT 4SM UP BKN016 BKN025 OVC050 M03/M05 A2985 RMK AO2,KEHY,2015-02-21T16:55:00Z,41.73,-106.47,-3.0,-5.0,0,0,,4.0,29.84941,,,TRUE,TRUE,,,,,,UP,BKN,1600,BKN,2500,OVC,5000,,,MVFR,,,,,,,,,,,,METAR,2225.0
KELK 211655Z AUTO 04011KT 10SM SCT017 SCT023 A3008 RMK AO2,KELK,2015-02-21T16:55:00Z,35.43,-99.4,,,40,11,,10.0,30.079725,,,TRUE,TRUE,,,,,,,SCT,1700,SCT,2300,,,,,VFR,,,,,,,,,,,,METAR,610.0
KFBR 211655Z AUTO 28009KT 10SM SCT065 OVC070 00/M03 A2993 RMK AO2 T10051035,KFBR,2015-02-21T16:55:00Z,41.4,-110.4,-0.5,-3.5,280,9,,10.0,29.929134,,,TRUE,TRUE,,,,,,,SCT,6500,OVC,7000,,,,,VFR,,,,,,,,,,,,METAR,2144.0
KFEP 211655Z AUTO 01003KT 7SM OVC024 M03/M07 A2995 RMK AO2 T10301070,KFEP,2015-02-21T16:55:00Z,42.25,-89.58,-3.0,-7.0,10,3,,7.0,29.949802,,,TRUE,TRUE,,,,,,,OVC,2400,,,,,,,MVFR,,,,,,,,,,,,METAR,262.0
KFKS 211655Z AUTO 31003KT 1SM -SN BKN015 BKN020 OVC026 M05/M07 A2992 RMK AO2 T10461070,KFKS,2015-02-21T16:55:00Z,44.63,-86.2,-4.6,-7.0,310,3,,1.0,29.920275,,,TRUE,TRUE,,,,,,-SN,BKN,1500,BKN,2000,OVC,2600,,,IFR,,,,,,,,,,,,METAR,193.0
KFRR 211655Z AUTO 16004KT 1/4SM OVC006 M07/M08 A3023 RMK AO1,KFRR,2015-02-21T16:55:00Z,38.92,-78.25,-7.0,-8.0,160,4,,0.25,30.230314,,,TRUE,TRUE,,,,,,,OVC,600,,,,,,,LIFR,,,,,,,,,,,,METAR,216.0
KFVX 211655Z AUTO 00000KT 10SM -SN SCT044 BKN060 OVC080 M01/M10 A3036 RMK AO2 T10061102,KFVX,2015-02-21T16:55:00Z,37.35,-78.42,-0.6,-10.2,0,0,,10.0,30.360237,,,TRUE,TRUE,,,,,,-SN,SCT,4400,BKN,6000,OVC,8000,,,VFR,,,,,,,,,,,,METAR,125.0
KFWZ 211655Z AUTO 01014G17KT 1SM -SN OVC007 M07/M09 RMK AO2,KFWZ,2015-02-21T16:55:00Z,42.52,-108.78,-7.0,-9.0,10,14,17,1.0,,,,TRUE,TRUE,,,,,,-SN,OVC,700,,,,,,,IFR,,,,,,,,,,,,METAR,2588.0
KFYM 211655Z AUTO 18015KT 9SM OVC035 03/01 RMK,KFYM,2015-02-21T16:55:00Z,35.07,-86.57,3.0,1.0,180,15,,9.0,,,,TRUE,,,,,,,,OVC,3500,,,,,,,VFR,,,,,,,,,,,,METAR,300.0
KGCM 211655Z AUTO 36007KT 10SM OVC008 03/02 A3002 RMK AO2,KGCM,2015-02-21T16:55:00Z,36.3,-95.48,3.0,2.0,360,7,,10.0,30.02067,,,TRUE,TRUE,,,,,,,OVC,800,,,,,,,IFR,,,,,,,,,,,,METAR,221.0
KGEV 211655Z AUTO 16011G18KT 110V210 10SM BKN021 BKN027 OVC039 M02/M15 A3012 RMK AO2 T10251147,KGEV,2015-02-21T16:55:00Z,36.43,-81.42,-2.5,-14.7,160,11,18,10.0,30.121063,,,TRUE,TRUE,,,,,,,BKN,2100,BKN,2700,OVC,3900,,,MVFR,,,,,,,,,,,,METAR,969.0
KGPI 211655Z 06009KT 10SM BKN110 00/M09 A3030 RMK AO2 SLP289 T00001094,KGPI,2015-02-21T16:55:00Z,48.32,-114.25,0.0,-9.4,60,9,,10.0,30.301182,1028.9,,,TRUE,,,,,,,BKN,11000,,,,,,,VFR,,,,,,,,,,,,METAR,908.0
KHAE 211655Z AUTO 00000KT 7SM CLR 03/M01 A2995 RMK AO2 P0005,KHAE,2015-02-21T16:55:00Z,39.73,-91.45,3.0,-1.0,0,0,,7.0,29.949802,,,TRUE,TRUE,,,,,,,CLR,,,,,,,,VFR,,,,,,0.05,,,,,,METAR,234.0
KHON 211655Z AUTO 36014KT 9SM SCT020 OVC026 M09/M15 A3020 RMK AO2 SLP247 T10891150,KHON,2015-02-21T16:55:00Z,44.38,-98.23,-8.9,-15.0,360,14,,9.0,30.200787,1024.7,,TRUE,TRUE,,,,,,,SCT,2000,OVC,2600,,,,,MVFR,,,,,,,,,,,,METAR,390.0
KHSB 211655Z AUTO 00000KT 7SM RA SCT004 BKN038 OVC045 00/00 A2991 RMK AO2 P0008 T00020002,KHSB,2015-02-21T16:55:00Z,37.82,-88.55,0.2,0.2,0,0,,7.0,29.911417,,,TRUE,TRUE,,,,,,RA,SCT,400,BKN,3800,OVC,4500,,,VFR,,,,,,0.08,,,,,,METAR,121.0
KI39 211655Z AUTO 19013G22KT 7SM BKN014 OVC035 01/00 A2997 RMK AO2,KI39,2015-02-21T16:55:00Z,37.63,-84.33,1.0,0.0,190,13,22,7.0,29.970472,,,TRUE,TRUE,,,,,,,BKN,1400,OVC,3500,,,,,MVFR,,,,,,,,,,,,METAR,306.0
KICL 211655Z AUTO 36012G18KT 10SM OVC020 03/M02 A3002 RMK AO2,KICL,2015-02-21T16:55:00Z,40.72,-95.02,3.0,-2.0,360,12,18,10.0,30.02067,,,TRUE,TRUE,,,,,,,OVC,2000,,,,,,,MVFR,,,,,,,,,,,,METAR,303.0
KIDI 211655Z AUTO 16008G13KT 3SM BR OVC012 M06/M08 A3002 RMK A01,KIDI,2015-02-21T16:55:00Z,40.62,-79.08,-6.0,-8.0,160,8,13,3.0,30.02067,,,TRUE,TRUE,,,,,,BR,OVC,1200,,,,,,,MVFR,,,,,,,,,,,,METAR,429.0
KIFA 211655Z AUTO 31013KT 5SM BR OVC006 M06/M07 A2999 RMK AO2 T10581071,KIFA,2015-02-21T16:55:00Z,42.47,-93.27,-5.8,-7.1,310,13,,5.0,29.991142,,,TRUE,TRUE,,,,,,BR,OVC,600,,,,,,,IFR,,,,,,,,,,,,METAR,347.0
KIGQ 211655Z AUTO 00000KT 10SM OVC036 M05/M08 A2995 RMK AO2 T10481079,KIGQ,2015-02-21T16:55:00Z,41.53,-87.53,-4.8,-7.9,0,0,,10.0,29.949802,,,TRUE,TRUE,,,,,,,OVC,3600,,,,,,,VFR,,,,,,,,,,,,METAR,188.0
KIPJ 211655Z AUTO 21006KT 10SM OVC019 02/M07 A3034 RMK AO2 T00211066,KIPJ,2015-02-21T16:55:00Z,35.48,-81.17,2.1,-6.6,210,6,,10.0,30.339567,,,TRUE,TRUE,,,,,,,OVC,1900,,,,,,,MVFR,,,,,,,,,,,,METAR,267.0
KIRK 211655Z AUTO 34006KT 5SM BR BKN010 BKN044 02/01 A2994 RMK AO2 SLP152 T00170006,KIRK,2015-02-21T16:55:00Z,40.1,-92.55,1.7,0.6,340,6,,5.0,29.940945,1015.2,,TRUE,TRUE,,,,,,BR,BKN,1000,BKN,4400,,,,,MVFR,,,,,,,,,,,,METAR,293.0
KJKA 211655Z AUTO 15013G20KT 10SM CLR 20/11 A3018 RMK AO2 T01950114,KJKA,2015-02-21T16:55:00Z,30.28,-87.67,19.5,11.4,150,13,20,10.0,30.180119,,,TRUE,TRUE,,,,,,,CLR,,,,,,,,VFR,,,,,,,,,,,,METAR,5.0
KL18 211655Z AUTO 00000KT 10SM OVC030 14/09 A3001 RMK AO2,KL18,2015-02-21T16:55:00Z,33.35,-117.25,14.0,9.0,0,0,,10.0,30.008858,,,TRUE,TRUE,,,,,,,OVC,3000,,,,,,,MVFR,,,,,,,,,,,,METAR,216.0
KLHB 211655Z AUTO 19015KT 10SM OVC024 21/16 A2991 RMK AO2 T02060161,KLHB,2015-02-21T16:55:00Z,30.87,-96.62,20.6,16.1,190,15,,10.0,29.911417,,,TRUE,TRUE,,,,,,,OVC,2400,,,,,,,MVFR,,,,,,,,,,,,METAR,87.0
KLHM 211655Z AUTO 00000KT 3/4SM OVC003 06/05 A2998 RMK AO1,KLHM,2015-02-21T16:55:00Z,38.92,-121.35,6.0,5.0,0,0,,0.75,29.97933,,,TRUE,TRUE,,,,,,,OVC,300,,,,,,,LIFR,,,,,,,,,,,,SPECI,37.0
KLIC 211655Z AUTO 00000KT 9SM OVC012 M02/M03 A2997 RMK AO2 SNE17B39E51 SLP166 P0000 T10171028,KLIC,2015-02-21T16:55:00Z,39.27,-103.67,-1.7,-2.8,0,0,,9.0,29.970472,1016.6,,TRUE,TRUE,,,,,,,OVC,1200,,,,,,,MVFR,,,,,,0.0050,,,,,,METAR,1630.0
KMCJ 211655Z AUTO 19007G15KT 020V030 7SM SCT048 BKN055 22/17 A2992 RMK AO1,KMCJ,2015-02-21T16:55:00Z,29.72,-95.4,22.0,17.0,190,7,15,7.0,29.920275,,,TRUE,TRUE,,,,,,,SCT,4800,BKN,5500,,,,,VFR,,,,,,,,,,,,SPECI,69.0
KMCX 211655Z AUTO 00000KT 2SM -SN OVC026 M05/M07 A2993 RMK AO2 T10551070,KMCX,2015-02-21T16:55:00Z,40.72,-86.77,-5.5,-7.0,0,0,,2.0,29.929134,,,TRUE,TRUE,,,,,,-SN,OVC,2600,,,,,,,IFR,,,,,,,,,,,,SPECI,206.0
KMDQ 211655Z AUTO 15015G23KT 10SM -RA OVC039 06/00 A3000 RMK AO2,KMDQ,2015-02-21T16:55:00Z,34.87,-86.55,6.0,0.0,150,15,23,10.0,30.0,,,TRUE,TRUE,,,,,,-RA,OVC,3900,,,,,,,VFR,,,,,,,,,,,,SPECI,230.0
KMFV 211655Z AUTO 17007KT 10SM OVC060 00/M16 A3044 RMK AO2,KMFV,2015-02-21T16:55:00Z,37.63,-75.77,0.0,-16.0,170,7,,10.0,30.43996,,,TRUE,TRUE,,,,,,,OVC,6000,,,,,,,VFR,,,,,,,,,,,,SPECI,15.0
KMKG 211655Z 16007KT 3SM -SN OVC020 M06/M09 A2995 RMK AO2 SFC VIS 4 SLP153 P0000 T10611089,KMKG,2015-02-21T16:55:00Z,43.17,-86.23,-6.1,-8.9,160,7,,3.0,29.949802,1015.3,,,TRUE,,,,,,-SN,OVC,2000,,,,,,,MVFR,,,,,,0.0050,,,,,,METAR,191.0
KMKN 211655Z AUTO 35011KT 10SM OVC014 11/08 A2997 RMK AO2 T01100081,KMKN,2015-02-21T16:55:00Z,31.92,-98.6,11.0,8.1,350,11,,10.0,29.970472,,,TRUE,TRUE,,,,,,,OVC,1400,,,,,,,MVFR,,,,,,,,,,,,METAR,423.0
KMMH 211655Z AUTO 13005KT 7SM CLR 05/M06 A3000 RMK AO1,KMMH,2015-02-21T16:55:00Z,37.62,-118.82,5.0,-6.0,130,5,,7.0,30.0,,,TRUE,TRUE,,,,,,,CLR,,,,,,,,VFR,,,,,,,,,,,,SPECI,2173.0
KMMI 211655Z AUTO VRB03KT 10SM OVC060 02/M01 A3012 RMK,KMMI,2015-02-21T16:55:00Z,35.4,-84.57,2.0,-1.0,0,3,,10.0,30.121063,,,TRUE,,,,,,,,OVC,6000,,,,,,,VFR,,,,,,,,,,,,METAR,266.0
KMNI 211655Z AUTO 21006KT 10SM CLR 14/04 A3035 RMK AO2,KMNI,2015-02-21T16:55:00Z,33.58,-80.22,14.0,4.0,210,6,,10.0,30.351377,,,TRUE,TRUE,,,,,,,CLR,,,,,,,,VFR,,,,,,,,,,,,SPECI,32.0
KMQB 211655Z AUTO 00000KT 5SM BR OVC042 M01/M03 A2996 RMK AO2 T10061028,KMQB,2015-02-21T16:55:00Z,40.52,-90.65,-0.6,-2.8,0,0,,5.0,29.958662,,,TRUE,TRUE,,,,,,BR,OVC,4200,,,,,,,MVFR,,,,,,,,,,,,SPECI,215.0
KOBE 211655Z AUTO 11009KT 10SM SCT048 OVC060 A3030 RMK AO2,KOBE,2015-02-21T16:55:00Z,27.27,-80.85,,,110,9,,10.0,30.301182,,,TRUE,TRUE,,,,,,,SCT,4800,OVC,6000,,,,,VFR,,,,,,,,,,,,SPECI,11.0
KMRC 211655Z AUTO 18016KT OVC017 A2987 RMK,KMRC,2015-02-21T16:55:00Z,35.55,-87.18,,,180,16,,,29.870079,,,TRUE,,,,,,,,OVC,1700,,,,,,,,,,,,,,,,,,,METAR,208.0
KOKZ 211655Z AUTO 20009G16KT 170V230 10SM BKN110 13/02 A3030 RMK AO2 T01300017 PNO,KOKZ,2015-02-21T16:55:00Z,32.97,-82.83,13.0,1.7,200,9,16,10.0,30.301182,,,TRUE,TRUE,,,,,,,BKN,11000,,,,,,,VFR,,,,,,,,,,,,SPECI,134.0
KONX 211655Z AUTO 18004KT 10SM OVC055 05/M06 A3046 RMK AO2 T00501061,KONX,2015-02-21T16:55:00Z,36.4,-76.02,5.0,-6.1,180,4,,10.0,30.46063,,,TRUE,TRUE,,,,,,,OVC,5500,,,,,,,VFR,,,,,,,,,,,,SPECI,5.0
KORG 211655Z AUTO 17012G20KT 7SM SCT039 SCT047 OVC070 20/16 A3002 RMK AO2 T02000163,KORG,2015-02-21T16:55:00Z,30.07,-93.8,20.0,16.3,170,12,20,7.0,30.02067,,,TRUE,TRUE,,,,,,,SCT,3900,SCT,4700,OVC,7000,,,VFR,,,,,,,,,,,,SPECI,4.0
KOWP 211655Z AUTO 35004KT 10SM BKN011 07/03 A3000 RMK AO2 T00660033,KOWP,2015-02-21T16:55:00Z,36.18,-96.15,6.6,3.3,350,4,,10.0,30.0,,,TRUE,TRUE,,,,,,,BKN,1100,,,,,,,MVFR,,,,,,,,,,,,SPECI,272.0
KPBH 211655Z AUTO 34008KT 320V020 10SM BKN022 M09/M14 A2992 RMK AO2 T10941145,KPBH,2015-02-21T16:55:00Z,45.7,-90.4,-9.4,-14.5,340,8,,10.0,29.920275,,,TRUE,TRUE,,,,,,,BKN,2200,,,,,,,MVFR,,,,,,,,,,,,SPECI,449.0
KPCM 211655Z AUTO 14006KT 10SM CLR A3032 RMK AO2,KPCM,2015-02-21T16:55:00Z,28.0,-82.17,,,140,6,,10.0,30.318897,,,TRUE,TRUE,,,,,,,CLR,,,,,,,,VFR,,,,,,,,,,,,SPECI,47.0
KPEZ 211655Z AUTO 17009G16KT 10SM OVC021 22/15 A2991 RMK AO2 T02150152,KPEZ,2015-02-21T16:55:00Z,28.95,-98.52,21.5,15.2,170,9,16,10.0,29.911417,,,TRUE,TRUE,,,,,,,OVC,2100,,,,,,,MVFR,,,,,,,,,,,,SPECI,132.0
KPHP 211655Z AUTO 35014KT 10SM UP FEW023 BKN029 OVC038 M03/M10 A3015 RMK AO2 UPB49SNE17 SLP234 P0000 T10331100,KPHP,2015-02-21T16:55:00Z,44.05,-101.6,-3.3,-10.0,350,14,,10.0,30.15059,1023.4,,TRUE,TRUE,,,,,,UP,FEW,2300,BKN,2900,OVC,3800,,,MVFR,,,,,,0.0050,,,,,,METAR,672.0
KPKV 211655Z AUTO 18014G18KT 7SM SCT022 SCT033 OVC049 21/18 A2995 RMK AO2 T02140181,KPKV,2015-02-21T16:55:00Z,28.65,-96.68,21.4,18.1,180,14,18,7.0,29.949802,,,TRUE,TRUE,,,,,,,SCT,2200,SCT,3300,OVC,4900,,,VFR,,,,,,,,,,,,SPECI,9.0
KPRO 211655Z AUTO 35014KT 10SM M04/M08 A3002 RMK AO2 T10391076,KPRO,2015-02-21T16:55:00Z,41.83,-94.17,-3.9,-7.6,350,14,,10.0,30.02067,,,TRUE,TRUE,,,,,,,,,,,,,,,,,,,,,,,,,,,SPECI,308.0
KPUJ 211655Z AUTO 16009KT 10SM OVC065 06/M02 A3018 RMK AO2,KPUJ,2015-02-21T16:55:00Z,33.92,-84.93,6.0,-2.0,160,9,,10.0,30.180119,,,TRUE,TRUE,,,,,,,OVC,6500,,,,,,,VFR,,,,,,,,,,,,SPECI,393.0
KPVE 211655Z AUTO 06004KT 1 3/4SM BKN006 BKN009 OVC017 06/06 A2989 RMK,KPVE,2015-02-21T16:55:00Z,35.65,-88.2,6.0,6.0,60,4,,1.75,29.890747,,,TRUE,,,,,,,,BKN,600,BKN,900,OVC,1700,,,IFR,,,,,,,,,,,,METAR,149.0
KPVF 211655Z AUTO 00000KT 10SM CLR 11/07 A2998 RMK AO1,KPVF,2015-02-21T16:55:00Z,38.72,-120.75,11.0,7.0,0,0,,10.0,29.97933,,,TRUE,TRUE,,,,,,,CLR,,,,,,,,VFR,,,,,,,,,,,,SPECI,789.0
KPVJ 211655Z AUTO 02009G15KT 10SM OVC012 06/03 A2999 RMK AO2 T00560026,KPVJ,2015-02-21T16:55:00Z,34.72,-97.22,5.6,2.6,20,9,15,10.0,29.991142,,,TRUE,TRUE,,,,,,,OVC,1200,,,,,,,MVFR,,,,,,,,,,,,SPECI,295.0
KRBW 211655Z AUTO 19012G16KT 10SM CLR 16/06 A3034 RMK AO2,KRBW,2015-02-21T16:55:00Z,32.92,-80.63,16.0,6.0,190,12,16,10.0,30.339567,,,TRUE,TRUE,,,,,,,CLR,,,,,,,,VFR,,,,,,,,,,,,SPECI,31.0
KRCX 211655Z AUTO 35007G10KT 5SM -SN SCT015 BKN020 M08/M12 A2997 RMK AO2 T10801125,KRCX,2015-02-21T16:55:00Z,45.5,-91.0,-8.0,-12.5,350,7,10,5.0,29.970472,,,TRUE,TRUE,,,,,,-SN,SCT,1500,BKN,2000,,,,,MVFR,,,,,,,,,,,,SPECI,377.0
KRNO 211655Z 00000KT 10SM FEW250 04/M05 A3005 RMK AO2 SLP170 T00391050,KRNO,2015-02-21T16:55:00Z,39.5,-119.77,3.9,-5.0,0,0,,10.0,30.050198,1017.0,,,TRUE,,,,,,,FEW,25000,,,,,,,VFR,,,,,,,,,,,,METAR,1342.0
KRPD 211655Z AUTO 33008KT 300V360 10SM SCT110 M08/M15 A3001 RMK AO2 T10851150,KRPD,2015-02-21T16:55:00Z,45.42,-91.77,-8.5,-15.0,330,8,,10.0,30.008858,,,TRUE,TRUE,,,,,,,SCT,11000,,,,,,,VFR,,,,,,,,,,,,SPECI,338.0
KRSN 211655Z AUTO 20012G20KT 10SM SCT014 BKN023 OVC049 19/17 A2994 RMK AO2 T01850168,KRSN,2015-02-21T16:55:00Z,32.52,-92.58,18.5,16.8,200,12,20,10.0,29.940945,,,TRUE,TRUE,,,,,,,SCT,1400,BKN,2300,OVC,4900,,,MVFR,,,,,,,,,,,,SPECI,95.0
KRSV 211655Z AUTO 36003KT 5SM BR OVC004 M03/M04 A2994 RMK AO2 P0002 T10271038,KRSV,2015-02-21T16:55:00Z,39.02,-87.65,-2.7,-3.8,360,3,,5.0,29.940945,,,TRUE,TRUE,,,,,,BR,OVC,400,,,,,,,LIFR,,,,,,0.02,,,,,,SPECI,141.0
KRYW 211655Z AUTO 20008G14KT 10SM SCT020 21/15 A2990 RMK AO2 T02050146,KRYW,2015-02-21T16:55:00Z,30.5,-97.97,20.5,14.6,200,8,14,10.0,29.899607,,,TRUE,TRUE,,,,,,,SCT,2000,,,,,,,VFR,,,,,,,,,,,,SPECI,376.0
KSAR 211655Z AUTO 33003KT 2 1/2SM BR OVC004 M01/M02 A2994 RMK AO2 T10111016,KSAR,2015-02-21T16:55:00Z,38.15,-89.7,-1.1,-1.6,330,3,,2.5,29.940945,,,TRUE,TRUE,,,,,,BR,OVC,400,,,,,,,LIFR,,,,,,,,,,,,SPECI,164.0
KSCK 211655Z 24005KT 1 3/4SM BR OVC005 11/10 A2998 RMK AO2 SLP152 T01060100,KSCK,2015-02-21T16:55:00Z,37.88,-121.22,10.6,10.0,240,5,,1.75,29.97933,1015.2,,,TRUE,,,,,,BR,OVC,500,,,,,,,IFR,,,,,,,,,,,,METAR,10.0
KSLO 211655Z AUTO 36005KT 5SM BR BKN006 OVC080 00/M01 A2993 RMK AO2 T00001015,KSLO,2015-02-21T16:55:00Z,38.65,-88.97,0.0,-1.5,360,5,,5.0,29.929134,,,TRUE,TRUE,,,,,,BR,BKN,600,OVC,8000,,,,,IFR,,,,,,,,,,,,SPECI,175.0
KSMS 211655Z AUTO 14007KT 10SM CLR 12/03 A3034 RMK AO2,KSMS,2015-02-21T16:55:00Z,34.0,-80.37,12.0,3.0,140,7,,10.0,30.339567,,,TRUE,TRUE,,,,,,,CLR,,,,,,,,VFR,,,,,,,,,,,,METAR,56.0
KSNL 211655Z AUTO 02008KT 10SM OVC008 06/05 A3002 RMK AO2,KSNL,2015-02-21T16:55:00Z,35.35,-96.95,6.0,5.0,20,8,,10.0,30.02067,,,TRUE,TRUE,,,,,,,OVC,800,,,,,,,IFR,,,,,,,,,,,,SPECI,327.0
KSOW 211655Z AUTO 21019G26KT 10SM CLR 09/M03 A3003 RMK AO2,KSOW,2015-02-21T16:55:00Z,34.27,-110.0,9.0,-3.0,210,19,26,10.0,30.029528,,,TRUE,TRUE,,,,,,,CLR,,,,,,,,VFR,,,,,,,,,,,,METAR,1954.0
KSPL 211655Z AUTO 19010G16KT 1 3/4SM SCT016 20/18 A2993 RMK AO1,KSPL,2015-02-21T16:55:00Z,26.07,-97.15,20.0,18.0,190,10,16,1.75,29.929134,,,TRUE,TRUE,,,,,,,SCT,1600,,,,,,,IFR,,,,,,,,,,,,SPECI,4.0
KSTF 211655Z AUTO 19013G24KT 10SM SCT032 OVC037 16/10 A2996 RMK AO2,KSTF,2015-02-21T16:55:00Z,33.43,-88.85,16.0,10.0,190,13,24,10.0,29.958662,,,TRUE,TRUE,,,,,,,SCT,3200,OVC,3700,,,,,VFR,,,,,,,,,,,,METAR,102.0
KSYI 211655Z AUTO 17024KT 10SM BKN034 BKN044 OVC050 06/03 A2994 RMK,KSYI,2015-02-21T16:55:00Z,35.57,-86.45,6.0,3.0,170,24,,10.0,29.940945,,,TRUE,,,,,,,,BKN,3400,BKN,4400,OVC,5000,,,VFR,,,,,,,,,,,,METAR,245.0
KSZT 211655Z AUTO 03013G22KT 10SM BKN070 OVC085 03/M03 A3027 RMK AO2,KSZT,2015-02-21T16:55:00Z,48.3,-116.57,3.0,-3.0,30,13,22,10.0,30.268702,,,TRUE,TRUE,,,,,,,BKN,7000,OVC,8500,,,,,VFR,,,,,,,,,,,,METAR,648.0
KTHA 211655Z AUTO 17015G26KT 5SM FEW022 OVC034 04/02 A2996 RMK,KTHA,2015-02-21T16:55:00Z,35.38,-86.25,4.0,2.0,170,15,26,5.0,29.958662,,,TRUE,,,,,,,,FEW,2200,OVC,3400,,,,,MVFR,,,,,,,,,,,,METAR,331.0
KTME 211655Z AUTO 21015G21KT 8SM SCT022 BKN027 OVC050 22/17 A2996 RMK AO2,KTME,2015-02-21T16:55:00Z,29.8,-95.9,22.0,17.0,210,15,21,8.0,29.958662,,,TRUE,TRUE,,,,,,,SCT,2200,BKN,2700,OVC,5000,,,MVFR,,,,,,,,,,,,METAR,51.0
KTPF 211655Z AUTO 16010G15KT 10SM CLR 22/09 A3030 RMK AO2,KTPF,2015-02-21T16:55:00Z,27.92,-82.45,22.0,9.0,160,10,15,10.0,30.301182,,,TRUE,TRUE,,,,,,,CLR,,,,,,,,VFR,,,,,,,,,,,,METAR,3.0
KTTA 211655Z AUTO 00000KT 10SM BKN022 01/M06 A3038 RMK AO2 T00051064,KTTA,2015-02-21T16:55:00Z,35.58,-79.1,0.5,-6.4,0,0,,10.0,30.380905,,,TRUE,TRUE,,,,,,,BKN,2200,,,,,,,MVFR,,,,,,,,,,,,METAR,75.0
KUCY 211655Z AUTO 33008KT 6SM BKN004 OVC008 00/00 A2987 RMK,KUCY,2015-02-21T16:55:00Z,36.38,-88.98,0.0,0.0,330,8,,6.0,29.870079,,,TRUE,,,,,,,,BKN,400,OVC,800,,,,,LIFR,,,,,,,,,,,,METAR,104.0
KUGN 211655Z 00000KT 7SM OVC031 M04/M09 A2993 RMK AO2 SLP155 T10391094,KUGN,2015-02-21T16:55:00Z,42.42,-87.87,-3.9,-9.4,0,0,,7.0,29.929134,1015.5,,,TRUE,,,,,,,OVC,3100,,,,,,,VFR,,,,,,,,,,,,METAR,222.0
KVDI 211655Z AUTO 20011G17KT 10SM CLR 16/05 A3032 RMK AO2,KVDI,2015-02-21T16:55:00Z,32.2,-82.37,16.0,5.0,200,11,17,10.0,30.318897,,,TRUE,TRUE,,,,,,,CLR,,,,,,,,VFR,,,,,,,,,,,,METAR,84.0
KVTI 211655Z AUTO 36006KT 3SM -SN BKN005 OVC011 M01/M04 A2996 RMK AO2 T10101037,KVTI,2015-02-21T16:55:00Z,42.22,-92.02,-1.0,-3.7,360,6,,3.0,29.958662,,,TRUE,TRUE,,,,,,-SN,BKN,500,OVC,1100,,,,,IFR,,,,,,,,,,,,METAR,255.0
KW13 211655Z AUTO 00000KT 1 1/2SM SCT013 OVC026 M07/M09 A3023 RMK AO1 T10751091,KW13,2015-02-21T16:55:00Z,38.08,-78.95,-7.5,-9.1,0,0,,1.5,30.230314,,,TRUE,TRUE,,,,,,,SCT,1300,OVC,2600,,,,,IFR,,,,,,,,,,,,METAR,443.0
KW31 211655Z AUTO 18005KT 10SM OVC024 M01/M08 A3036 RMK AO1 T10091083,KW31,2015-02-21T16:55:00Z,36.95,-78.18,-0.9,-8.3,180,5,,10.0,30.360237,,,TRUE,TRUE,,,,,,,OVC,2400,,,,,,,MVFR,,,,,,,,,,,,METAR,162.0
KW63 211655Z AUTO 00000KT 10SM OVC024 M01/M07 A3037 RMK AO1,KW63,2015-02-21T16:55:00Z,36.6,-78.55,-1.0,-7.0,0,0,,10.0,30.369095,,,TRUE,TRUE,,,,,,,OVC,2400,,,,,,,MVFR,,,,,,,,,,,,METAR,129.0
KW75 211655Z AUTO 19006KT 10SM OVC048 M01/M14 A3043 RMK AO1 T10111138,KW75,2015-02-21T16:55:00Z,37.6,-76.45,-1.1,-13.8,190,6,,10.0,30.431103,,,TRUE,TRUE,,,,,,,OVC,4800,,,,,,,VFR,,,,,,,,,,,,METAR,9.0
KZPH 211655Z AUTO 17012KT 10SM CLR 21/04 A3031 RMK AO2,KZPH,2015-02-21T16:55:00Z,28.23,-82.15,21.0,4.0,170,12,,10.0,30.31004,,,TRUE,TRUE,,,,,,,CLR,,,,,,,,VFR,,,,,,,,,,,,METAR,26.0
NSTU 211655Z 00000KT 10SM SCT019 BKN040 BKN100 28/25 A2977 RMK SHRAE20 SLP081 T02750249,NSTU,2015-02-21T16:55:00Z,-14.33,-170.72,27.5,24.9,0,0,,10.0,29.769686,1008.1,,,,,,,,,,SCT,1900,BKN,4000,BKN,10000,,,VFR,,,,,,,,,,,,METAR,3.0
K9D7 211655Z AUTO 33011KT 10SM CLR M18/M23 A3026 RMK AO2,K9D7,2015-02-21T16:55:00Z,48.48,-99.23,-18.0,-23.0,330,11,,10.0,30.259842,,,TRUE,TRUE,,,,,,,CLR,,,,,,,,VFR,,,,,,,,,,,,METAR,452.0
K96D 211655Z AUTO 32011KT 10SM M19/M24 A3029 RMK AO2,K96D,2015-02-21T16:55:00Z,48.93,-97.9,-19.0,-24.0,320,11,,10.0,30.28937,,,TRUE,TRUE,,,,,,,,,,,,,,,,,,,,,,,,,,,METAR,290.0
K4A6 211655Z AUTO 21012G19KT 10SM OVC026 05/00 A3009 RMK AO2 P0002,K4A6,2015-02-21T16:55:00Z,34.68,-86.0,5.0,0.0,210,12,19,10.0,30.088583,,,TRUE,TRUE,,,,,,,OVC,2600,,,,,,,MVFR,,,,,,0.02,,,,,,METAR,198.0
KO22 211655Z AUTO 00000KT 10SM CLR 12/09 A2995 RMK AO1,KO22,2015-02-21T16:55:00Z,38.03,-120.42,12.0,9.0,0,0,,10.0,29.949802,,,TRUE,TRUE,,,,,,,CLR,,,,,,,,VFR,,,,,,,,,,,,METAR,646.0
KFYG 211655Z AUTO 00000KT 8SM SCT012 OVC023 00/M02 A2996 RMK AO2,KFYG,2015-02-21T16:55:00Z,38.58,-91.0,0.0,-2.0,0,0,,8.0,29.958662,,,TRUE,TRUE,,,,,,,SCT,1200,OVC,2300,,,,,MVFR,,,,,,,,,,,,METAR,149.0
KD60 211655Z AUTO 31012KT 10SM CLR M18/M22 A3029 RMK AO2,KD60,2015-02-21T16:55:00Z,48.38,-102.9,-18.0,-22.0,310,12,,10.0,30.28937,,,TRUE,TRUE,,,,,,,CLR,,,,,,,,VFR,,,,,,,,,,,,METAR,693.0
LIRV 211655Z 07008KT 9999 -RA BKN020 07/03 Q1005 RMK OVC SCT060 MON E SE CLD CIME NC VIS MIN 9999 WHT,LIRV,2015-02-21T16:55:00Z,42.42,12.07,7.0,3.0,70,8,,6.21,29.675198,,,,,,,,,,-RA,BKN,2000,,,,,,,MVFR,,,,,,,,,,,,METAR,300.0
LIRM 211655Z 08007KT 5000 -RA BR SCT030 BKN050 09/08 Q1008,LIRM,2015-02-21T16:55:00Z,41.03,14.07,9.0,8.0,80,7,,3.11,29.763779,,,,,,,,,,-RA BR,SCT,3000,BKN,5000,,,,,MVFR,,,,,,,,,,,,METAR,10.0
LIRL 211655Z 12010KT 9999 SCT035 SCT070 10/07 Q1006 RMK OVC MON LIB NC VIS MIN 9999 WIND THR30 13010KT BLU,LIRL,2015-02-21T16:55:00Z,41.53,12.9,10.0,7.0,120,10,,6.21,29.704725,,,,,,,,,,,SCT,3500,SCT,7000,,,,,VFR,,,,,,,,,,,,METAR,26.0
LIRH 211655Z 10007KT 9999 BKN030 07/00 Q1007 RMK BKN MON CIME INC NC VIS MIN 9999 WIND THR16 12008KT BLU,LIRH,2015-02-21T16:55:00Z,41.65,13.3,7.0,0.0,100,7,,6.21,29.734253,,,,,,,,,,,BKN,3000,,,,,,,MVFR,,,,,,,,,,,,METAR,181.0
LIPF 211655Z 00000KT 9999 FEW030 SCT060 10/05 Q1005 RMK OVC BKN170 VIS MIN 9999,LIPF,2015-02-21T16:55:00Z,44.82,11.62,10.0,5.0,0,0,,6.21,29.675198,,,,,,,,,,,FEW,3000,SCT,6000,,,,,VFR,,,,,,,,,,,,METAR,10.0
LIPC 211655Z 13009KT CAVOK 09/07 Q1006 RMK OVC SCT080 BKN090 VIS MIN 9999 WIND THR11 12007KT BLU,LIPC,2015-02-21T16:55:00Z,44.22,12.3,9.0,7.0,130,9,,6.21,29.704725,,,,,,,,,,,CAVOK,,,,,,,,VFR,,,,,,,,,,,,METAR,10.0
LIMS 211655Z 12009KT 1000 R30/P1500 R12/P1500 -RA BR FEW004 SCT010 BKN020 05/05 Q1003,LIMS,2015-02-21T16:55:00Z,44.92,9.72,5.0,5.0,120,9,,0.62,29.616142,,,,,,,,,,-RA BR,FEW,400,SCT,1000,BKN,2000,,,LIFR,,,,,,,,,,,,METAR,138.0
EHSC 211655Z AUTO 35010G12KT 9999 ///////// 05/02 Q1000 W06/H8,EHSC,2015-02-21T16:55:00Z,51.93,3.67,5.0,2.0,350,10,12,6.21,29.52756,,,TRUE,,,,,,,,,,,,,,,,,,,,,,,,,,,,METAR,50.0
EHSA 211655Z AUTO 31010G15KT //// ///////// 05/M80 Q1000 W///H9,EHSA,2015-02-21T16:55:00Z,52.0,3.28,5.0,-80.0,310,10,15,,29.52756,,,TRUE,,,,,,,,,,,,,,,,,,,,,,,,,,,,METAR,50.0
EHJR 211655Z AUTO 27020G21KT //// ///////// 05/01 Q0999 W06/H13,EHJR,2015-02-21T16:55:00Z,53.22,3.22,5.0,1.0,270,20,21,,29.498032,,,TRUE,,,,,,,,,,,,,,,,,,,,,,,,,,,,METAR,50.0
K9L2 211655Z AUTO 00000KT 8SM CLR 10/02 A2992 RMK AO2 SLP131 T01000017 TSNO $,K9L2,2015-02-21T16:55:00Z,34.97,-117.87,10.0,1.7,0,0,,8.0,29.920275,1013.1,,TRUE,TRUE,TRUE,,TRUE,,,,CLR,,,,,,,,VFR,,,,,,,,,,,,METAR,701.0
MUHA 211655Z 10010KT 070V140 9000 FEW020 SCT036 25/13 Q1022,MUHA,2015-02-21T16:55:00Z,22.97,-82.42,25.0,13.0,100,10,,5.59,30.177166,,,,,,,,,,,FEW,2000,SCT,3600,,,,,VFR,,,,,,,,,,,,METAR,64.0
LIVT 211655Z 00000KT 9999 FEW025 09/05 Q1008 RMK OVC BKN080 QUK 0 QUL 0 VIS MAR 15 KM VIS MIN 9999,LIVT,2015-02-21T16:55:00Z,45.68,13.75,9.0,5.0,0,0,,6.21,29.763779,,,,,,,,,,,FEW,2500,,,,,,,VFR,,,,,,,,,,,,METAR,20.0
LIVR 211655Z 16015KT 0000 FZFG VV/// M06/M07 Q0999 RMK MON INVIS VIS MIN 0000,LIVR,2015-02-21T16:55:00Z,46.28,11.77,-6.0,-7.0,160,15,,0.0,29.498032,,,,,,,,,,FZFG,OVX,0,,,,,,,LIFR,,,,,,,,,,,,METAR,2006.0
LIVO 211655Z 32003KT 6000 OVC020 03/02 Q1005 RMK OVC VIS MIN 6000,LIVO,2015-02-21T16:55:00Z,46.5,13.57,3.0,2.0,320,3,,3.73,29.675198,,,,,,,,,,,OVC,2000,,,,,,,MVFR,,,,,,,,,,,,METAR,778.0
LIVF 211655Z 17006KT 9999 FEW030 07/M03 Q1005 RMK OVC BKN080 MON LIB VAL NIL VIS MIN 9999,LIVF,2015-02-21T16:55:00Z,43.52,12.72,7.0,-3.0,170,6,,6.21,29.675198,,,,,,,,,,,FEW,3000,,,,,,,VFR,,,,,,,,,,,,METAR,574.0
LIVE 211655Z /////KT 6000 -SN OVC012 M03/M03 Q1002 RMK OVC VIS MIN 6000,LIVE,2015-02-21T16:55:00Z,46.85,10.5,-3.0,-3.0,,,,3.73,29.586615,,,,,,,,,,-SN,OVC,1200,,,,,,,MVFR,,,,,,,,,,,,METAR,1800.0
LIRX 211655Z 18022KT 7000 RA BKN004 SCT050 07/07 Q1001 RMK OVC VIS MIN 7000 VIS MAR 7 KM,LIRX,2015-02-21T16:55:00Z,42.73,10.38,7.0,7.0,180,22,,4.35,29.557087,,,,,,,,,,RA,BKN,400,SCT,5000,,,,,LIFR,,,,,,,,,,,,METAR,297.0
LIRT 211655Z 15011KT 9999 -RA SCT015 02/M01 Q1005 RMK OVC SCT060 OVC070 MON INVIS VAL NIL VIS MIN 9999,LIRT,2015-02-21T16:55:00Z,41.03,15.22,2.0,-1.0,150,11,,6.21,29.675198,,,,,,,,,,-RA,SCT,1500,,,,,,,VFR,,,,,,,,,,,,METAR,1093.0
LIRK 211655Z AUTO /////KT //// ///// Q////,LIRK,2015-02-21T16:55:00Z,42.47,12.97,,,,,,,,,,TRUE,,,,,,,,,,,,,,,,,,,,,,,,,,,,METAR,1875.0
LIQO 211655Z 15024KT 0000 -RA FG VV/// 06/06 Q1002 RMK VAL INVIS NC VIS MIN 0000,LIQO,2015-02-21T16:55:00Z,42.37,11.17,6.0,6.0,150,24,,0.0,29.586615,,,,,,,,,,-RA FG,OVX,0,,,,,,,LIFR,,,,,,,,,,,,METAR,632.0
LIMY 211655Z 24009KT 1200 -SN BR OVC013 00/M00 Q1003 RMK OVC VAL NEBBIA SCT VIS MIN 1200,LIMY,2015-02-21T16:55:00Z,44.25,7.78,0.0,0.0,240,9,,0.75,29.616142,,,,,,,,,,-SN BR,OVC,1300,,,,,,,LIFR,,,,,,,,,,,,METAR,1742.0
LIVP 211655Z 15015KT 0000 -SN FZFG VV/// M06/M06 Q0999 RESN RMK MON INVIS VAL INVIS VIS MIN 0000,LIVP,2015-02-21T16:55:00Z,46.15,11.03,-6.0,-6.0,150,15,,0.0,29.498032,,,,,,,,,,-SN FZFG,OVX,0,,,,,,,LIFR,,,,,,,,,,,,METAR,2129.0
LICZ 211655Z 09006KT 3500 -RA BR BKN020 OVC070 12/12 Q1009 RMK OVC VIS MIN 3500 WIND THR28 08007KT A2981 YLO,LICZ,2015-02-21T16:55:00Z,37.38,14.92,12.0,12.0,90,6,,2.17,29.793306,,,,,,,,,,-RA BR,BKN,2000,OVC,7000,,,,,IFR,,,,,,,,,,,,METAR,22.0
LICT 211655Z 17014KT 6000 -RA SCT009 BKN024 14/12 Q1004 RMK BKN BKN060 VIS MIN 3000SE WIND THR13 /////KT YLO,LICT,2015-02-21T16:55:00Z,37.92,12.5,14.0,12.0,170,14,,3.73,29.64567,,,,,,,,,,-RA,SCT,900,BKN,2400,,,,,MVFR,,,,,,,,,,,,METAR,7.0
LICG 211655Z /////KT 6000 SCT007 SCT020 13/10 Q1003,LICG,2015-02-21T16:55:00Z,36.82,11.97,13.0,10.0,,,,3.73,29.616142,,,,,,,,,,,SCT,700,SCT,2000,,,,,MVFR,,,,,,,,,,,,METAR,191.0
LIBV 211655Z 16019KT 8000 FEW015 SCT022 09/06 Q1009 RMK OVC BKN070 VIS MIN 8000 WIND THR32 16018KT WIND THR14 16017KT BLU,LIBV,2015-02-21T16:55:00Z,40.77,16.92,9.0,6.0,160,19,,4.97,29.793306,,,,,,,,,,,FEW,1500,SCT,2200,,,,,MVFR,,,,,,,,,,,,METAR,350.0
LIVC 211655Z 24040KT 0000 FZFG VV000 M05/M05 Q0998 RMK MON INVIS VAL INVIS VIS MIN 0000,LIVC,2015-02-21T16:55:00Z,44.2,10.68,-5.0,-5.0,240,40,,0.0,29.468504,,,,,,,,,,FZFG,OVX,0,,,,,,,LIFR,,,,,,,,,,,0,METAR,2173.0
LIPS 211655Z 06010KT 2500 BR SCT030 BKN060 06/02 Q1007 RMK OVC VIS MIN 2500 WIND THR26 /////KT WIND THR08 05012KT YLO,LIPS,2015-02-21T16:55:00Z,45.67,12.08,6.0,2.0,60,10,,1.55,29.734253,,,,,,,,,,BR,SCT,3000,BKN,6000,,,,,IFR,,,,,,,,,,,,METAR,41.0
LIPI 211655Z 08005KT 4000 BR SCT025 BKN040 07/05 Q1008 RMK OVC VIS MIN 4000 WIND THR06 04005KT GRN,LIPI,2015-02-21T16:55:00Z,45.97,13.05,7.0,5.0,80,5,,2.49,29.763779,,,,,,,,,,BR,SCT,2500,BKN,4000,,,,,IFR,,,,,,,,,,,,METAR,53.0
LIPA 211655Z 06008KT 9000 SCT025 BKN035 07/03 Q1008 RMK OVC VIS MIN 6000NE A2978 WHT,LIPA,2015-02-21T16:55:00Z,46.02,12.58,7.0,3.0,60,8,,5.59,29.763779,,,,,,,,,,,SCT,2500,BKN,3500,,,,,VFR,,,,,,,,,,,,METAR,126.0
LIMT 211655Z 22016KT 0000 -RA FG VV/// 01/M00 Q1002 RMK MON INVIS VAL INVIS VIS MIN 0000,LIMT,2015-02-21T16:55:00Z,44.47,9.92,1.0,0.0,220,16,,0.0,29.586615,,,,,,,,,,-RA FG,OVX,0,,,,,,,LIFR,,,,,,,,,,,,METAR,1040.0
LIMK 211655Z 01005KT 0050 -SN FZFG VV000 M01/M01 Q1002 RMK VAL INVIS VIS MIN 0050,LIMK,2015-02-21T16:55:00Z,45.02,7.72,-1.0,-1.0,10,5,,0.03,29.586615,,,,,,,,,,-SN FZFG,OVX,0,,,,,,,LIFR,,,,,,,,,,,0,METAR,710.0
KCQM 211654Z AUTO 32005KT 10SM SCT019 M15/M20 A3003 RMK AO2,KCQM,2015-02-21T16:54:00Z,47.82,-92.68,-15.0,-20.0,320,5,,10.0,30.029528,,,TRUE,TRUE,,,,,,,SCT,1900,,,,,,,VFR,,,,,,,,,,,,SPECI,404.0
OAHR 211654Z 17035G50KT 0100 SS VV000 22/M01 Q1006 RMK VIS MIN 0100 RED,OAHR,2015-02-21T16:54:00Z,34.22,62.22,22.0,-1.0,170,35,50,0.06,29.704725,,,,,,,,,,SS,OVX,0,,,,,,,LIFR,,,,,,,,,,,0,METAR,964.0
PTKR 211654Z 03007KT 15SM BKN017CB BKN110 OVC280 25/23 A2986 RMK SHRAE17 CB DSNT ALQDS SLP111 T02500230,PTKR,2015-02-21T16:54:00Z,7.33,134.48,25.0,23.0,30,7,,15.0,29.861221,1011.1,,,,,,,,,,BKN,1700,BKN,11000,OVC,28000,,,MVFR,,,,,,,,,,,,METAR,30.0
KMWA 211654Z 31004KT 2SM DZ OVC003 00/00 A2995,KMWA,2015-02-21T16:54:00Z,37.77,-89.02,0.0,0.0,310,4,,2.0,29.949802,,,,,,,,,,DZ,OVC,300,,,,,,,LIFR,,,,,,,,,,,,METAR,144.0
PGUM 211654Z 02010KT 10SM OVC055 24/20 A2996 RMK AO2 SLP136 T02390200,PGUM,2015-02-21T16:54:00Z,13.48,144.8,23.9,20.0,20,10,,10.0,29.958662,1013.6,,,TRUE,,,,,,,OVC,5500,,,,,,,VFR,,,,,,,,,,,,METAR,91.0
KSYN 211654Z AUTO 33011KT 4SM -SN BKN015 BKN021 M07/M11 A3001 RMK AO2 T10711107,KSYN,2015-02-21T16:54:00Z,44.47,-93.02,-7.1,-10.7,330,11,,4.0,30.008858,,,TRUE,TRUE,,,,,,-SN,BKN,1500,BKN,2100,,,,,MVFR,,,,,,,,,,,,METAR,280.0
KVVV 211654Z AUTO 34012KT 10SM CLR M13/M18 A3018 RMK AO2,KVVV,2015-02-21T16:54:00Z,45.3,-96.42,-13.0,-18.0,340,12,,10.0,30.180119,,,TRUE,TRUE,,,,,,,CLR,,,,,,,,VFR,,,,,,,,,,,,SPECI,335.0
KULM 211654Z AUTO 33015G20KT 7SM -SN SCT017 BKN027 OVC060 M08/M13 A3006 RMK AO2,KULM,2015-02-21T16:54:00Z,44.32,-94.5,-8.0,-13.0,330,15,20,7.0,30.059055,,,TRUE,TRUE,,,,,,-SN,SCT,1700,BKN,2700,OVC,6000,,,MVFR,,,,,,,,,,,,SPECI,308.0
KTWM 211654Z AUTO 33005KT 10SM BKN025 M09/M16 A2999 RMK AO2,KTWM,2015-02-21T16:54:00Z,47.03,-91.75,-9.0,-16.0,330,5,,10.0,29.991142,,,TRUE,TRUE,,,,,,,BKN,2500,,,,,,,MVFR,,,,,,,,,,,,SPECI,328.0
KTOB 211654Z AUTO 33011KT 7SM OVC011 M07/M09 A2997 RMK AO2,KTOB,2015-02-21T16:54:00Z,44.02,-92.82,-7.0,-9.0,330,11,,7.0,29.970472,,,TRUE,TRUE,,,,,,,OVC,1100,,,,,,,MVFR,,,,,,,,,,,,SPECI,398.0
PAKN 211654Z 10013KT 10SM SCT080 BKN150 07/02 A2949 RMK RAB12E25 SLP987 P0000 T00670017 VIA AUTODIAL,PAKN,2015-02-21T16:54:00Z,58.68,-156.65,6.7,1.7,100,13,,10.0,29.489174,998.7,,,,,,,,,,SCT,8000,BKN,15000,,,,,VFR,,,,,,0.0050,,,,,,METAR,17.0
KLXL 211654Z AUTO 33007KT 10SM BKN024 M11/M18 A3009 RMK AO2,KLXL,2015-02-21T16:54:00Z,45.95,-94.33,-11.0,-18.0,330,7,,10.0,30.088583,,,TRUE,TRUE,,,,,,,BKN,2400,,,,,,,MVFR,,,,,,,,,,,,SPECI,342.0
KRSP 211654Z AUTO 1/4SM SN FZFG VV007 M11/M13 RMK AO2 SLPNO P0008 T11111133 $,KRSP,2015-02-21T16:54:00Z,39.65,-77.47,-11.1,-13.3,,,,0.25,,,,TRUE,TRUE,TRUE,,,,,SN FZFG,OVX,0,,,,,,,LIFR,,,,,,0.08,,,,,700,METAR,561.0
MMPB 211654Z 14004KT 6SM FEW020 17/10 A3034 RMK 8/500 HZY,MMPB,2015-02-21T16:54:00Z,19.17,-98.37,17.0,10.0,140,4,,6.0,30.339567,,,,,,,,,,,FEW,2000,,,,,,,VFR,,,,,,,,,,,,METAR,2244.0
KDMH 211654Z AUTO M07/M09 A3037 RMK AO1 SLP284 P0001 T10671089 $,KDMH,2015-02-21T16:54:00Z,39.28,-76.62,-6.7,-8.9,,,,,30.369095,1028.4,,TRUE,TRUE,TRUE,,,,,,,,,,,,,,,,,,,,0.01,,,,,,METAR,5.0
KACY 211654Z 20016G23KT 10SM OVC060 M01/M08 A3045 RMK AO2 SLP312 T10111083,KACY,2015-02-21T16:54:00Z,39.45,-74.57,-1.1,-8.3,200,16,23,10.0,30.448818,1031.2,,,TRUE,,,,,,,OVC,6000,,,,,,,VFR,,,,,,,,,,,,METAR,23.0
KONZ 211654Z AUTO 17003KT 1 3/4SM -SN BKN009 OVC015 M07/M09 A2994 RMK AO2 P0001,KONZ,2015-02-21T16:54:00Z,42.1,-83.15,-7.0,-9.0,170,3,,1.75,29.940945,,,TRUE,TRUE,,,,,,-SN,BKN,900,OVC,1500,,,,,IFR,,,,,,0.01,,,,,,SPECI,180.0
KAIT 211654Z AUTO 34009KT 10SM SCT023 M11/M18 A3004 RMK AO2,KAIT,2015-02-21T16:54:00Z,46.53,-93.67,-11.0,-18.0,340,9,,10.0,30.041338,,,TRUE,TRUE,,,,,,,SCT,2300,,,,,,,VFR,,,,,,,,,,,,SPECI,367.0
KFGN 211654Z AUTO 34012KT 10SM CLR M22/M24 A3016 RMK AO2,KFGN,2015-02-21T16:54:00Z,49.32,-94.9,-22.0,-24.0,340,12,,10.0,30.159449,,,TRUE,TRUE,,,,,,,CLR,,,,,,,,VFR,,,,,,,,,,,,SPECI,328.0
KFFM 211654Z AUTO 34014KT 10SM CLR M18/M22 RMK AO2,KFFM,2015-02-21T16:54:00Z,46.28,-96.15,-18.0,-22.0,340,14,,10.0,,,,TRUE,TRUE,,,,,,,CLR,,,,,,,,VFR,,,,,,,,,,,,SPECI,361.0
KFBL 211654Z AUTO 31009KT 4SM -SN SCT016 SCT023 OVC050 M08/M11 A3002 RMK AO2,KFBL,2015-02-21T16:54:00Z,44.33,-93.32,-8.0,-11.0,310,9,,4.0,30.02067,,,TRUE,TRUE,,,,,,-SN,SCT,1600,SCT,2300,OVC,5000,,,MVFR,,,,,,,,,,,,SPECI,322.0
KDYT 211654Z AUTO 00000KT 10SM SCT029 M10/M16 A3007 RMK AO2,KDYT,2015-02-21T16:54:00Z,46.72,-92.03,-10.0,-16.0,0,0,,10.0,30.070866,,,TRUE,TRUE,,,,,,,SCT,2900,,,,,,,VFR,,,,,,,,,,,,METAR,186.0
MMTG 211654Z 19004KT 10SM SKC 26/15 A3002 RMK FU HZ,MMTG,2015-02-21T16:54:00Z,16.57,-93.03,26.0,15.0,190,4,,10.0,30.02067,,,,,,,,,,,SKC,,,,,,,,VFR,,,,,,,,,,,,METAR,528.0
KNAK 211654Z AUTO 18012KT 6SM -SN BKN036 OVC046 M04/M14 A3041 RMK AO2 SNB54 SLP301 P0000 T10391144,KNAK,2015-02-21T16:54:00Z,38.98,-76.48,-3.9,-14.4,180,12,,6.0,30.410433,1030.1,,TRUE,TRUE,,,,,,-SN,BKN,3600,OVC,4600,,,,,VFR,,,,,,0.0050,,,,,,METAR,2.0
K1V4 211654Z AUTO M11/M21 A3023 RMK AO1 SLP266 T11061206,K1V4,2015-02-21T16:54:00Z,44.42,-72.02,-10.6,-20.6,,,,,30.230314,1026.6,,TRUE,TRUE,,,,,,,,,,,,,,,,,,,,,,,,,,,METAR,210.0
KNKT 211654Z 14012KT 10SM SCT055 12/02 A3044 RMK AO2 SLP305 T01220017 $,KNKT,2015-02-21T16:54:00Z,34.9,-76.88,12.2,1.7,140,12,,10.0,30.43996,1030.5,,,TRUE,TRUE,,,,,,SCT,5500,,,,,,,VFR,,,,,,,,,,,,METAR,9.0
KMTP 211654Z AUTO 19008KT 00/M06 A3048 RMK AO1 SLP319 T00001061,KMTP,2015-02-21T16:54:00Z,41.07,-71.92,0.0,-6.1,190,8,,,30.481298,1031.9,,TRUE,TRUE,,,,,,,,,,,,,,,,,,,,,,,,,,,METAR,2.0
KBKB 211654Z AUTO 5SM -RA SCT022 OVC031 19/16 A2997 RMK AO2 RAB28 SLP174 P0001 T01890161,KBKB,2015-02-21T16:54:00Z,31.0,-92.92,18.9,16.1,,,,5.0,29.970472,1017.4,,TRUE,TRUE,,,,,,-RA,SCT,2200,OVC,3100,,,,,MVFR,,,,,,0.01,,,,,,METAR,94.0
KAPN 211654Z AUTO 25006KT 10SM OVC050 M07/M12 A2992 RMK AO2 SNE33 SLP147 P0000 T10721117,KAPN,2015-02-21T16:54:00Z,45.07,-83.57,-7.2,-11.7,250,6,,10.0,29.920275,1014.7,,TRUE,TRUE,,,,,,,OVC,5000,,,,,,,VFR,,,,,,0.0050,,,,,,METAR,210.0
KMQE 211654Z AUTO 19023G31KT M04/M11 A3036 RMK AO1 PK WND 18031/1654 SLP304 T10391111,KMQE,2015-02-21T16:54:00Z,42.22,-71.12,-3.9,-11.1,190,23,31,,30.360237,1030.4,,TRUE,TRUE,,,,,,,,,,,,,,,,,,,,,,,,,,,METAR,199.0
KNFG 211654Z AUTO 00000KT 4SM OVC036 16/11 A3000 RMK AO2 SLP159 T01610106 $,KNFG,2015-02-21T16:54:00Z,33.28,-117.33,16.1,10.6,0,0,,4.0,30.0,1015.9,,TRUE,TRUE,TRUE,,,,,,OVC,3600,,,,,,,MVFR,,,,,,,,,,,,METAR,24.0
KCRW 211654Z 00000KT 4SM -RA BR SCT014 OVC020 01/01 A3002 RMK AO2 SLP176 VLY FG P0005 T00110006,KCRW,2015-02-21T16:54:00Z,38.38,-81.58,1.1,0.6,0,0,,4.0,30.02067,1017.6,,,TRUE,,,,,,-RA BR,SCT,1400,OVC,2000,,,,,MVFR,,,,,,0.05,,,,,,METAR,309.0
K12N 211654Z AUTO 20007KT 150V240 M07/M18 A3036 RMK AO1 SLP306 T10721178,K12N,2015-02-21T16:54:00Z,41.02,-74.73,-7.2,-17.8,200,7,,,30.360237,1030.6,,TRUE,TRUE,,,,,,,,,,,,,,,,,,,,,,,,,,,METAR,177.0
KY63 211654Z AUTO 33013KT 10SM CLR M17/M20 A3015 RMK AO2 T11661198,KY63,2015-02-21T16:54:00Z,45.98,-96.0,-16.6,-19.8,330,13,,10.0,30.15059,,,TRUE,TRUE,,,,,,,CLR,,,,,,,,VFR,,,,,,,,,,,,SPECI,367.0
KPEX 211654Z AUTO 29009G16KT 10SM OVC110 M13/M17 A3009 RMK AO2 T11281166,KPEX,2015-02-21T16:54:00Z,45.37,-94.73,-12.8,-16.6,290,9,16,10.0,30.088583,,,TRUE,TRUE,,,,,,,OVC,11000,,,,,,,VFR,,,,,,,,,,,,SPECI,360.0
KPNM 211654Z AUTO 32006KT 10SM SCT110 M10/M16 A3006 RMK AO2,KPNM,2015-02-21T16:54:00Z,45.57,-93.6,-10.0,-16.0,320,6,,10.0,30.059055,,,TRUE,TRUE,,,,,,,SCT,11000,,,,,,,VFR,,,,,,,,,,,,SPECI,298.0
KPQN 211654Z AUTO 36009G18KT 10SM SCT015 SCT045 M10/M14 A3007 RMK AO2,KPQN,2015-02-21T16:54:00Z,43.97,-96.32,-10.0,-14.0,360,9,18,10.0,30.070866,,,TRUE,TRUE,,,,,,,SCT,1500,SCT,4500,,,,,VFR,,,,,,,,,,,,SPECI,529.0
KPWC 211654Z AUTO 34008KT 10SM BKN021 M15/M19 A3011 RMK AO2,KPWC,2015-02-21T16:54:00Z,46.72,-94.37,-15.0,-19.0,340,8,,10.0,30.109253,,,TRUE,TRUE,,,,,,,BKN,2100,,,,,,,MVFR,,,,,,,,,,,,SPECI,395.0
KRMY 211654Z AUTO 00000KT 10SM SCT013 OVC035 M06/M10 A2994 RMK AO2 T10621097,KRMY,2015-02-21T16:54:00Z,42.23,-84.95,-6.2,-9.7,0,0,,10.0,29.940945,,,TRUE,TRUE,,,,,,,SCT,1300,OVC,3500,,,,,VFR,,,,,,,,,,,,SPECI,287.0
KROX 211654Z AUTO 28007KT 10SM CLR M21/M24 A3019 RMK AO2,KROX,2015-02-21T16:54:00Z,48.85,-95.7,-21.0,-24.0,280,7,,10.0,30.188976,,,TRUE,TRUE,,,,,,,CLR,,,,,,,,VFR,,,,,,,,,,,,SPECI,323.0
KEWN 211654Z 15009KT 10SM CLR 08/M01 A3044 RMK AO2 SLP307 T00831011,KEWN,2015-02-21T16:54:00Z,35.07,-77.05,8.3,-1.1,150,9,,10.0,30.43996,1030.7,,,TRUE,,,,,,,CLR,,,,,,,,VFR,,,,,,,,,,,,METAR,3.0
KEVV 211654Z 31005KT 1SM R22/P6000FT -RA BR OVC005 01/M01 A2992 RMK AO2 RAE14B43 SLP134 P0001 T00111006,KEVV,2015-02-21T16:54:00Z,38.05,-87.52,1.1,-0.6,310,5,,1.0,29.920275,1013.4,,,TRUE,,,,,,-RA BR,OVC,500,,,,,,,IFR,,,,,,0.01,,,,,,METAR,117.0
KEUG 211654Z 01009KT 10SM FEW015 FEW035 FEW100 08/05 A3024 RMK AO2 SLP242 T00830050 $,KEUG,2015-02-21T16:54:00Z,44.13,-123.22,8.3,5.0,10,9,,10.0,30.239174,1024.2,,,TRUE,TRUE,,,,,,FEW,1500,FEW,3500,FEW,10000,,,VFR,,,,,,,,,,,,METAR,114.0
KFWA 211654Z 00000KT 3/4SM -SN BR VV013 M04/M07 A2994 RMK AO2 SLP152 SNINCR 1/3 P0003 T10441067,KFWA,2015-02-21T16:54:00Z,40.98,-85.18,-4.4,-6.7,0,0,,0.75,29.940945,1015.2,,,TRUE,,,,,,-SN BR,OVX,0,,,,,,,LIFR,,,,,,0.03,,,,3.0,1300,METAR,248.0
KGCK 211654Z 30005KT 10SM CLR 06/M01 A3003 RMK AO2 SLP176 T00561011,KGCK,2015-02-21T16:54:00Z,37.92,-100.72,5.6,-1.1,300,5,,10.0,30.029528,1017.6,,,TRUE,,,,,,,CLR,,,,,,,,VFR,,,,,,,,,,,,METAR,877.0
KGCN 211654Z 23012KT 10SM FU CLR 08/M06 A2998 RMK AO2 SLP119 T00781056 $,KGCN,2015-02-21T16:54:00Z,35.95,-112.15,7.8,-5.6,230,12,,10.0,29.97933,1011.9,,,TRUE,TRUE,,,,,FU,CLR,,,,,,,,VFR,,,,,,,,,,,,METAR,2016.0
KGED 211654Z AUTO 20012KT 10SM OVC060 M01/M12 A3045 RMK AO2 SLP311 T10111122,KGED,2015-02-21T16:54:00Z,38.68,-75.37,-1.1,-12.2,200,12,,10.0,30.448818,1031.1,,TRUE,TRUE,,,,,,,OVC,6000,,,,,,,VFR,,,,,,,,,,,,METAR,19.0
KGSO 211654Z 22006KT 10SM OVC014 M01/M07 A3032 RMK AO2 SLP277 T10061067,KGSO,2015-02-21T16:54:00Z,36.1,-79.95,-0.6,-6.7,220,6,,10.0,30.318897,1027.7,,,TRUE,,,,,,,OVC,1400,,,,,,,MVFR,,,,,,,,,,,,METAR,275.0
KBUF 211654Z 21004KT 2 1/2SM -SN BR FEW020 OVC028 M06/M08 A2999 RMK AO2 SLP172 P0003 T10611083,KBUF,2015-02-21T16:54:00Z,42.93,-78.73,-6.1,-8.3,210,4,,2.5,29.991142,1017.2,,,TRUE,,,,,,-SN BR,FEW,2000,OVC,2800,,,,,IFR,,,,,,0.03,,,,,,METAR,211.0
KBUY 211654Z AUTO 13004KT 10SM OVC019 M01/M09 A3034 RMK AO2 SLP281 T10061089,KBUY,2015-02-21T16:54:00Z,36.05,-79.47,-0.6,-8.9,130,4,,10.0,30.339567,1028.1,,TRUE,TRUE,,,,,,,OVC,1900,,,,,,,MVFR,,,,,,,,,,,,SPECI,180.0
KCEU 211654Z AUTO 04003KT 10SM OVC090 04/M09 A3033 RMK AO2 SLP276 T00441089,KCEU,2015-02-21T16:54:00Z,34.67,-82.88,4.4,-8.9,40,3,,10.0,30.33071,1027.6,,TRUE,TRUE,,,,,,,OVC,9000,,,,,,,VFR,,,,,,,,,,,,SPECI,268.0
KCOS 211654Z 16008KT 5SM -SN BR OVC014 M01/M03 A2994 RMK AO2 SNE25B51 SLP167 PCPN VRY LGT P0000 T10111028,KCOS,2015-02-21T16:54:00Z,38.82,-104.68,-1.1,-2.8,160,8,,5.0,29.940945,1016.7,,,TRUE,,,,,,-SN BR,OVC,1400,,,,,,,MVFR,,,,,,0.0050,,,,,,METAR,1856.0
KCOU 211654Z 18003KT 7SM BKN012 02/01 A2995 RMK AO2 SLP149 T00170006 $,KCOU,2015-02-21T16:54:00Z,38.82,-92.22,1.7,0.6,180,3,,7.0,29.949802,1014.9,,,TRUE,TRUE,,,,,,BKN,1200,,,,,,,MVFR,,,,,,,,,,,,METAR,271.0
KCPW 211654Z AUTO 21016G24KT 10SM SCT020 BKN035 OVC055 M08/M15 A2990 RMK AO2,KCPW,2015-02-21T16:54:00Z,37.45,-106.8,-8.0,-15.0,210,16,24,10.0,29.899607,,,TRUE,TRUE,,,,,,,SCT,2000,BKN,3500,OVC,5500,,,VFR,,,,,,,,,,,,SPECI,3584.0
KDEC 211654Z 00000KT 7SM FEW055 SCT120 M03/M06 A2994 RMK AO2 SLP148 P0001 T10281056,KDEC,2015-02-21T16:54:00Z,39.83,-88.85,-2.8,-5.6,0,0,,7.0,29.940945,1014.8,,,TRUE,,,,,,,FEW,5500,SCT,12000,,,,,VFR,,,,,,0.01,,,,,,SPECI,207.0
KMKC 211654Z 33005KT 6SM HZ OVC060 06/01 A2998 RMK AO2 SLP157 T00610011,KMKC,2015-02-21T16:54:00Z,39.12,-94.6,6.1,1.1,330,5,,6.0,29.97933,1015.7,,,TRUE,,,,,,HZ,OVC,6000,,,,,,,VFR,,,,,,,,,,,,SPECI,227.0
KMIV 211654Z AUTO VRB05KT 10SM OVC065 M03/M11 A3045 RMK AO2 SLPNO T10281106,KMIV,2015-02-21T16:54:00Z,39.37,-75.08,-2.8,-10.6,0,5,,10.0,30.448818,,,TRUE,TRUE,,,,,,,OVC,6500,,,,,,,VFR,,,,,,,,,,,,SPECI,23.0
KMGJ 211654Z AUTO 18010KT 10SM OVC060 M07/M18 A3037 RMK AO2 SLP294 T10721183 TSNO,KMGJ,2015-02-21T16:54:00Z,41.52,-74.27,-7.2,-18.3,180,10,,10.0,30.369095,1029.4,,TRUE,TRUE,,,TRUE,,,,OVC,6000,,,,,,,VFR,,,,,,,,,,,,SPECI,108.0
KMFI 211654Z AUTO 34009KT 7SM FEW060 OVC075 M07/M11 A2991 RMK AO2 SLP154 T10671106,KMFI,2015-02-21T16:54:00Z,,,-6.7,-10.6,340,9,,7.0,29.911417,1015.4,,TRUE,TRUE,,,,,,,FEW,6000,OVC,7500,,,,,VFR,,,,,,,,,,,,SPECI,
KMEM 211654Z 06005KT 2 1/2SM R36L/5500VP6000FT -RA BR BKN006 BKN021 OVC045 08/07 A2985 RMK AO2 SLP107 P0031 T00830072,KMEM,2015-02-21T16:54:00Z,35.07,-89.98,8.3,7.2,60,5,,2.5,29.84941,1010.7,,,TRUE,,,,,,-RA BR,BKN,600,BKN,2100,OVC,4500,,,IFR,,,,,,0.31,,,,,,SPECI,86.0
KSJN 211654Z AUTO 24018G25KT 10SM CLR 14/M06 A2995 RMK AO2 SLP084 T01441061,KSJN,2015-02-21T16:54:00Z,34.52,-109.38,14.4,-6.1,240,18,25,10.0,29.949802,1008.4,,TRUE,TRUE,,,,,,,CLR,,,,,,,,VFR,,,,,,,,,,,,METAR,1745.0
KSET 211654Z AUTO 25004KT 9SM SCT013 M01/M02 A2996 RMK AO2 SLP149 T10061022 $,KSET,2015-02-21T16:54:00Z,38.93,-90.43,-0.6,-2.2,250,4,,9.0,29.958662,1014.9,,TRUE,TRUE,TRUE,,,,,,SCT,1300,,,,,,,VFR,,,,,,,,,,,,METAR,134.0
KSBY 211654Z 20010KT 10SM OVC060 01/M12 A3044 RMK AO2 SLP311 T00061117,KSBY,2015-02-21T16:54:00Z,38.33,-75.5,0.6,-11.7,200,10,,10.0,30.43996,1031.1,,,TRUE,,,,,,,OVC,6000,,,,,,,VFR,,,,,,,,,,,,METAR,19.0
KSBN 211654Z 11003KT 10SM OVC034 M05/M09 A2995 RMK AO2 SLP154 T10501089,KSBN,2015-02-21T16:54:00Z,41.7,-86.32,-5.0,-8.9,110,3,,10.0,29.949802,1015.4,,,TRUE,,,,,,,OVC,3400,,,,,,,VFR,,,,,,,,,,,,METAR,237.0
KRST 211654Z 36010KT 6SM HZ OVC016 M06/M09 A2996 RMK AO2 SLP168 T10611094,KRST,2015-02-21T16:54:00Z,43.9,-92.5,-6.1,-9.4,360,10,,6.0,29.958662,1016.8,,,TRUE,,,,,,HZ,OVC,1600,,,,,,,MVFR,,,,,,,,,,,,METAR,403.0
KROC 211654Z 18011KT 3/4SM R04/3000V4500FT -SN BLSN VV014 M07/M09 A3003 RMK AO2 TWR VIS 2 SLP186 P0002 T10671094,KROC,2015-02-21T16:54:00Z,43.12,-77.68,-6.7,-9.4,180,11,,0.75,30.029528,1018.6,,,TRUE,,,,,,-SN BLSN,OVX,0,,,,,,,LIFR,,,,,,0.02,,,,,1400,METAR,178.0
KROA 211654Z 26003KT 1/4SM +SN FZFG VV011 M09/M11 A3031 RMK AO2 TWR VIS 3/4 PLE29SNB29 SLP284 P0008 T10891106,KROA,2015-02-21T16:54:00Z,37.32,-79.97,-8.9,-10.6,260,3,,0.25,30.31004,1028.4,,,TRUE,,,,,,+SN FZFG,OVX,0,,,,,,,LIFR,,,,,,0.08,,,,,1100,METAR,362.0
KRKS 211654Z AUTO 26008KT 10SM FEW014 OVC060 M02/M06 A2991 RMK AO2 SLP152 T10171056,KRKS,2015-02-21T16:54:00Z,41.6,-109.07,-1.7,-5.6,260,8,,10.0,29.911417,1015.2,,TRUE,TRUE,,,,,,,FEW,1400,OVC,6000,,,,,VFR,,,,,,,,,,,,METAR,2060.0
KRIC 211654Z 18007KT 10SM BKN046 OVC065 M01/M10 A3039 RMK AO2 SLP299 T10061100,KRIC,2015-02-21T16:54:00Z,37.52,-77.32,-0.6,-10.0,180,7,,10.0,30.389763,1029.9,,,TRUE,,,,,,,BKN,4600,OVC,6500,,,,,VFR,,,,,,,,,,,,METAR,50.0
KRFD 211654Z 00000KT 8SM OVC029 M03/M08 A2995 RMK AO2 SLP152 T10281083,KRFD,2015-02-21T16:54:00Z,42.2,-89.1,-2.8,-8.3,0,0,,8.0,29.949802,1015.2,,,TRUE,,,,,,,OVC,2900,,,,,,,MVFR,,,,,,,,,,,,METAR,221.0
KRDG 211654Z 18011KT 1/2SM R36/3500V4500FT -SN VV010 M07/M11 A3037 RMK AO2 SFC VIS 3/4 SNB18 SLP296 P0000 T10721106,KRDG,2015-02-21T16:54:00Z,40.37,-75.97,-7.2,-10.6,180,11,,0.5,30.369095,1029.6,,,TRUE,,,,,,-SN,OVX,0,,,,,,,LIFR,,,,,,0.0050,,,,,1000,METAR,109.0
KRBL 211654Z AUTO 35011KT 10SM CLR 17/M01 A2998 RMK AO2 SLP149 T01671006,KRBL,2015-02-21T16:54:00Z,40.15,-122.25,16.7,-0.6,350,11,,10.0,29.97933,1014.9,,TRUE,TRUE,,,,,,,CLR,,,,,,,,VFR,,,,,,,,,,,,METAR,104.0
KPNE 211654Z 18008KT 10SM FEW040 BKN047 OVC070 M02/M14 A3044 RMK AO2 SLP309 T10221139,KPNE,2015-02-21T16:54:00Z,40.08,-75.02,-2.2,-13.9,180,8,,10.0,30.43996,1030.9,,,TRUE,,,,,,,FEW,4000,BKN,4700,OVC,7000,,,VFR,,,,,,,,,,,,METAR,28.0
KPLN 211654Z AUTO 29009KT 10SM BKN020 OVC055 M07/M11 A2991 RMK AO2 SLP143 T10671106,KPLN,2015-02-21T16:54:00Z,45.57,-84.8,-6.7,-10.6,290,9,,10.0,29.911417,1014.3,,TRUE,TRUE,,,,,,,BKN,2000,OVC,5500,,,,,MVFR,,,,,,,,,,,,METAR,217.0
KBFW 211654Z AUTO 31004G14KT 10SM SCT027 M11/M18 A2999 RMK AO2,KBFW,2015-02-21T16:54:00Z,47.25,-91.4,-11.0,-18.0,310,4,14,10.0,29.991142,,,TRUE,TRUE,,,,,,,SCT,2700,,,,,,,VFR,,,,,,,,,,,,SPECI,331.0
KBFL 211654Z 00000KT 3/4SM R30R/6000VP6000FT BR OVC005 12/10 A2998 RMK AO2 SFC VIS 1 1/4 SLP150 T01220100,KBFL,2015-02-21T16:54:00Z,35.43,-119.05,12.2,10.0,0,0,,0.75,29.97933,1015.0,,,TRUE,,,,,,BR,OVC,500,,,,,,,LIFR,,,,,,,,,,,,SPECI,151.0
KAVP 211654Z 20010G22KT 1/2SM R04/4000VP6000FT SN BKN019 OVC043 M09/M14 A3026 RMK AO2 SNB14 SLP265 P0000 T10891139 $,KAVP,2015-02-21T16:54:00Z,41.33,-75.72,-8.9,-13.9,200,10,22,0.5,30.259842,1026.5,,,TRUE,TRUE,,,,,SN,BKN,1900,OVC,4300,,,,,LIFR,,,,,,0.0050,,,,,,METAR,291.0
KAVL 211654Z 18013KT 10SM FEW037 OVC045 01/M10 A3024 RMK AO2 SLP255 T00111100,KAVL,2015-02-21T16:54:00Z,35.43,-82.53,1.1,-10.0,180,13,,10.0,30.239174,1025.5,,,TRUE,,,,,,,FEW,3700,OVC,4500,,,,,VFR,,,,,,,,,,,,SPECI,670.0
KAUW 211654Z AUTO 35005KT 8SM FEW016 M06/M11 A2989 RMK AO2 SLP148 T10611111,KAUW,2015-02-21T16:54:00Z,44.93,-89.62,-6.1,-11.1,350,5,,8.0,29.890747,1014.8,,TRUE,TRUE,,,,,,,FEW,1600,,,,,,,VFR,,,,,,,,,,,,SPECI,362.0
KAPC 211654Z 07004KT 5SM BR FEW007 11/08 A2998 RMK AO2 SLP143 T01060083,KAPC,2015-02-21T16:54:00Z,38.2,-122.28,10.6,8.3,70,4,,5.0,29.97933,1014.3,,,TRUE,,,,,,BR,FEW,700,,,,,,,MVFR,,,,,,,,,,,,SPECI,13.0
KALO 211654Z AUTO 32009KT 4SM HZ OVC016 M02/M05 A2996 RMK AO2 SNB15E54 SLP157 P0000 T10221050,KALO,2015-02-21T16:54:00Z,42.55,-92.4,-2.2,-5.0,320,9,,4.0,29.958662,1015.7,,TRUE,TRUE,,,,,,HZ,OVC,1600,,,,,,,MVFR,,,,,,0.0050,,,,,,SPECI,264.0
KAKR 211654Z AUTO 20006KT 10SM OVC011 M03/M06 A2992 RMK AO2 SNE45 SLP148 P0000 T10281061 $,KAKR,2015-02-21T16:54:00Z,41.03,-81.47,-2.8,-6.1,200,6,,10.0,29.920275,1014.8,,TRUE,TRUE,TRUE,,,,,,OVC,1100,,,,,,,MVFR,,,,,,0.0050,,,,,,SPECI,363.0
KAKQ 211654Z AUTO VRB03KT 10SM OVC048 00/M11 A3041 RMK AO2 SLP303 T00001106 TSNO,KAKQ,2015-02-21T16:54:00Z,36.98,-77.0,0.0,-10.6,0,3,,10.0,30.410433,1030.3,,TRUE,TRUE,,,TRUE,,,,OVC,4800,,,,,,,VFR,,,,,,,,,,,,METAR,34.0
KAKH 211654Z AUTO 00000KT 10SM OVC021 02/M08 A3034 RMK AO2 SLP283 T00171078,KAKH,2015-02-21T16:54:00Z,35.2,-81.15,1.7,-7.8,0,0,,10.0,30.339567,1028.3,,TRUE,TRUE,,,,,,,OVC,2100,,,,,,,MVFR,,,,,,,,,,,,SPECI,243.0
KAAO 211654Z AUTO 32008KT 10SM CLR 08/02 A3000 RMK AO2 SLP169 T00780022,KAAO,2015-02-21T16:54:00Z,37.75,-97.22,7.8,2.2,320,8,,10.0,30.0,1016.9,,TRUE,TRUE,,,,,,,CLR,,,,,,,,VFR,,,,,,,,,,,,SPECI,434.0
K7BM 211654Z AUTO 13005KT 1 1/4SM BR BKN001 BKN010 M04/M06 A2984 RMK AO2 VIS 1/2V5,K7BM,2015-02-21T16:54:00Z,38.78,-106.22,-4.0,-6.0,130,5,,1.25,29.840551,,,TRUE,TRUE,,,,,,BR,BKN,100,BKN,1000,,,,,LIFR,,,,,,,,,,,,SPECI,2995.0
KECG 211654Z 11007KT 10SM OVC060 02/M06 A3046 RMK AO2 SLP314 T00221061,KECG,2015-02-21T16:54:00Z,36.27,-76.18,2.2,-6.1,110,7,,10.0,30.46063,1031.4,,,TRUE,,,,,,,OVC,6000,,,,,,,VFR,,,,,,,,,,,,SPECI,11.0
KDYL 211654Z AUTO 18006KT 10SM FEW031 BKN038 OVC060 M06/M14 A3038 RMK AO2 SLP303 T10561139,KDYL,2015-02-21T16:54:00Z,40.33,-75.12,-5.6,-13.9,180,6,,10.0,30.380905,1030.3,,TRUE,TRUE,,,,,,,FEW,3100,BKN,3800,OVC,6000,,,VFR,,,,,,,,,,,,SPECI,117.0
KDSV 211654Z AUTO 15010KT 1 3/4SM -SN BKN023 OVC032 M01/M11 A3002 RMK AO2 SNB1557 SLP186 P0000 T10111111,KDSV,2015-02-21T16:54:00Z,42.57,-77.72,-1.1,-11.1,150,10,,1.75,30.02067,1018.6,,TRUE,TRUE,,,,,,-SN,BKN,2300,OVC,3200,,,,,IFR,,,,,,0.0050,,,,,,SPECI,198.0
KDSM 211654Z 32013KT 10SM FEW016 BKN022 M02/M07 A3000 RMK AO2 SLP169 T10171072,KDSM,2015-02-21T16:54:00Z,41.53,-93.67,-1.7,-7.2,320,13,,10.0,30.0,1016.9,,,TRUE,,,,,,,FEW,1600,BKN,2200,,,,,MVFR,,,,,,,,,,,,METAR,295.0
KMRY 211654Z 00000KT 1/4SM FG VV002 09/09 A2998 RMK AO2 SLP166 P0001 T00940094,KMRY,2015-02-21T16:54:00Z,36.58,-121.85,9.4,9.4,0,0,,0.25,29.97933,1016.6,,,TRUE,,,,,,FG,OVX,0,,,,,,,LIFR,,,,,,0.01,,,,,200,SPECI,66.0
KILN 211654Z AUTO 19011KT 1SM -SN BR OVC006 01/M01 A2989 RMK AO2 UPB20E33SNE20B33 CIG 004V008 SLP152 P0001 T00061006,KILN,2015-02-21T16:54:00Z,39.43,-83.8,0.6,-0.6,190,11,,1.0,29.890747,1015.2,,TRUE,TRUE,,,,,,-SN BR,OVC,600,,,,,,,IFR,,,,,,0.01,,,,,,METAR,322.0
KHWD 211654Z AUTO 00000KT 10SM CLR 14/08 A2996 RMK AO2 SLP156 T01390083,KHWD,2015-02-21T16:54:00Z,37.67,-122.12,13.9,8.3,0,0,,10.0,29.958662,1015.6,,TRUE,TRUE,,,,,,,CLR,,,,,,,,VFR,,,,,,,,,,,,METAR,21.0
KPIA 211654Z 00000KT 7SM OVC060 M02/M06 A2995 RMK AO2 SLP149 T10171056,KPIA,2015-02-21T16:54:00Z,40.67,-89.68,-1.7,-5.6,0,0,,7.0,29.949802,1014.9,,,TRUE,,,,,,,OVC,6000,,,,,,,VFR,,,,,,,,,,,,METAR,205.0
KPHF 211654Z 19009KT 10SM OVC050 01/M13 A3043 RMK AO2 SLP304 T00111128,KPHF,2015-02-21T16:54:00Z,37.13,-76.5,1.1,-12.8,190,9,,10.0,30.431103,1030.4,,,TRUE,,,,,,,OVC,5000,,,,,,,VFR,,,,,,,,,,,,METAR,12.0
KOLS 211654Z AUTO 17010KT 10SM CLR 18/M02 A3002 RMK AO2 SLP123 T01781017,KOLS,2015-02-21T16:54:00Z,31.42,-110.85,17.8,-1.7,170,10,,10.0,30.02067,1012.3,,TRUE,TRUE,,,,,,,CLR,,,,,,,,VFR,,,,,,,,,,,,METAR,1184.0
KOLM 211654Z 06007KT 10SM BKN015 BKN020 08/05 A3031 RMK AO2 SLP266 T00830050,KOLM,2015-02-21T16:54:00Z,46.97,-122.9,8.3,5.0,60,7,,10.0,30.31004,1026.6,,,TRUE,,,,,,,BKN,1500,BKN,2000,,,,,MVFR,,,,,,,,,,,,METAR,58.0
KOFP 211654Z AUTO 18009KT 10SM SCT047 BKN055 OVC070 M02/M11 A3040 RMK AO2 SLP298 T10221106,KOFP,2015-02-21T16:54:00Z,37.7,-77.43,-2.2,-10.6,180,9,,10.0,30.398623,1029.8,,TRUE,TRUE,,,,,,,SCT,4700,BKN,5500,OVC,7000,,,VFR,,,,,,,,,,,,METAR,62.0
KIMT 211654Z AUTO 36009KT 10SM OVC025 M08/M14 A2989 RMK AO2 UPB08E25 SLP146 P0000 T10781139,KIMT,2015-02-21T16:54:00Z,45.82,-88.12,-7.8,-13.9,360,9,,10.0,29.890747,1014.6,,TRUE,TRUE,,,,,,,OVC,2500,,,,,,,MVFR,,,,,,0.0050,,,,,,METAR,349.0
KIND 211654Z 02003KT 2 1/2SM BR BKN009 OVC075 M04/M06 A2991 RMK AO2 SFC VIS 3 SNE47 SLP140 P0001 T10391061,KIND,2015-02-21T16:54:00Z,39.72,-86.3,-3.9,-6.1,20,3,,2.5,29.911417,1014.0,,,TRUE,,,,,,BR,BKN,900,OVC,7500,,,,,IFR,,,,,,0.01,,,,,,METAR,241.0
KLBT 211654Z AUTO 11004KT 10SM OVC030 06/M02 A3038 RMK AO2 SLP288 T00561022,KLBT,2015-02-21T16:54:00Z,34.6,-79.07,5.6,-2.2,110,4,,10.0,30.380905,1028.8,,TRUE,TRUE,,,,,,,OVC,3000,,,,,,,MVFR,,,,,,,,,,,,METAR,37.0
KJST 211654Z AUTO 17014G19KT 1 1/4SM -SN OVC021 M09/M12 A2997 RMK AO2 SLP199 P0000 T10941122,KJST,2015-02-21T16:54:00Z,40.32,-78.83,-9.4,-12.2,170,14,19,1.25,29.970472,1019.9,,TRUE,TRUE,,,,,,-SN,OVC,2100,,,,,,,IFR,,,,,,0.0050,,,,,,METAR,694.0
KJAN 211654Z 18025G33KT 10SM FEW031 BKN060 18/12 A2999 RMK AO2 PK WND 17036/1627 SLP152 T01830117,KJAN,2015-02-21T16:54:00Z,32.32,-90.08,18.3,11.7,180,25,33,10.0,29.991142,1015.2,,,TRUE,,,,,,,FEW,3100,BKN,6000,,,,,VFR,,,,,,,,,,,,METAR,91.0
KISW 211654Z AUTO 36005KT 10SM BKN100 M04/M11 A2994 RMK AO2 SLP158 T10441111,KISW,2015-02-21T16:54:00Z,44.37,-89.83,-4.4,-11.1,360,5,,10.0,29.940945,1015.8,,TRUE,TRUE,,,,,,,BKN,10000,,,,,,,VFR,,,,,,,,,,,,METAR,307.0
KIPT 211654Z 08008KT 3/4SM -SN VV014 M09/M13 A3024 RMK AO2 SLP253 P0003 T10891128,KIPT,2015-02-21T16:54:00Z,41.25,-76.92,-8.9,-12.8,80,8,,0.75,30.239174,1025.3,,,TRUE,,,,,,-SN,OVX,0,,,,,,,LIFR,,,,,,0.03,,,,,1400,METAR,164.0
KINT 211654Z 21005KT 10SM OVC016 M01/M11 A3034 RMK AO2 SLP284 T10111106,KINT,2015-02-21T16:54:00Z,36.13,-80.22,-1.1,-10.6,210,5,,10.0,30.339567,1028.4,,,TRUE,,,,,,,OVC,1600,,,,,,,MVFR,,,,,,,,,,,,METAR,291.0
KLMO 211654Z AUTO 08003KT 3SM -SN OVC009 01/M01 A2998 RMK AO2 T00051010,KLMO,2015-02-21T16:54:00Z,40.17,-105.17,0.5,-1.0,80,3,,3.0,29.97933,,,TRUE,TRUE,,,,,,-SN,OVC,900,,,,,,,IFR,,,,,,,,,,,,METAR,1541.0
KLNK 211654Z 35010KT 8SM SCT015 BKN026 OVC044 04/M01 A3004 RMK AO2 SLP181 T00391011,KLNK,2015-02-21T16:54:00Z,40.85,-96.77,3.9,-1.1,350,10,,8.0,30.041338,1018.1,,,TRUE,,,,,,,SCT,1500,BKN,2600,OVC,4400,,,MVFR,,,,,,,,,,,,METAR,364.0
PHOG 211654Z COR 05004KT 10SMRA BKN025 OVC040 21/18 A3001 RMK AO2 RAB54 SLP166 P0000 T02060183 $,PHOG,2015-02-21T16:54:00Z,20.9,-156.43,20.6,18.3,50,4,,,30.008858,1016.6,TRUE,,TRUE,TRUE,,,,,RA,BKN,2500,OVC,4000,,,,,,,,,,,0.0050,,,,,,METAR,12.0
PHMK 211654Z 01005KT 10SM SCT017 BKN046 18/17 A3000 RMK AO2 SLP164 T01830167 $,PHMK,2015-02-21T16:54:00Z,21.15,-157.1,18.3,16.7,10,5,,10.0,30.0,1016.4,,,TRUE,TRUE,,,,,,SCT,1700,BKN,4600,,,,,VFR,,,,,,,,,,,,METAR,141.0
PAHN 211654Z AUTO 00000KT 10SM BKN005 M01/M01 A3046 RMK AO2 SLP317 T10111011 TSNO,PAHN,2015-02-21T16:54:00Z,59.25,-135.52,-1.1,-1.1,0,0,,10.0,30.46063,1031.7,,TRUE,TRUE,,,TRUE,,,,BKN,500,,,,,,,IFR,,,,,,,,,,,,METAR,5.0
KLYH 211654Z 19007KT 9SM -SN OVC039 M07/M11 A3035 RMK AO2 UPB42E50SNB1555E42B50 SLP291 P0000 T10721106,KLYH,2015-02-21T16:54:00Z,37.32,-79.2,-7.2,-10.6,190,7,,9.0,30.351377,1029.1,,,TRUE,,,,,,-SN,OVC,3900,,,,,,,VFR,,,,,,0.0050,,,,,,METAR,295.0
PGSN 211654Z 02010G19KT 10SM SCT060 23/16 A2996 RMK AO2 SLP167 T02330156,PGSN,2015-02-21T16:54:00Z,15.12,145.72,23.3,15.6,20,10,19,10.0,29.958662,1016.7,,,TRUE,,,,,,,SCT,6000,,,,,,,VFR,,,,,,,,,,,,METAR,65.0
KVAY 211654Z AUTO 20009G16KT 10SM BKN065 M02/M12 A3044 RMK AO2 SLP309 T10221117,KVAY,2015-02-21T16:54:00Z,39.93,-74.83,-2.2,-11.7,200,9,16,10.0,30.43996,1030.9,,TRUE,TRUE,,,,,,,BKN,6500,,,,,,,VFR,,,,,,,,,,,,METAR,15.0
KUZA 211654Z AUTO 21008KT 10SM OVC021 04/M05 A3035 RMK AO2 SLP285 T00391050,KUZA,2015-02-21T16:54:00Z,34.98,-81.05,3.9,-5.0,210,8,,10.0,30.351377,1028.5,,TRUE,TRUE,,,,,,,OVC,2100,,,,,,,MVFR,,,,,,,,,,,,METAR,202.0
KUIN 211654Z AUTO 21003KT 5SM BR BKN050 M01/M02 A2994 RMK AO2 SLP146 T10061022,KUIN,2015-02-21T16:54:00Z,39.95,-91.2,-0.6,-2.2,210,3,,5.0,29.940945,1014.6,,TRUE,TRUE,,,,,,BR,BKN,5000,,,,,,,MVFR,,,,,,,,,,,,METAR,234.0
KTQE 211654Z AUTO 35016KT 10SM BKN012 OVC030 M02/M06 A3007 RMK AO2 SLP190 T10171056,KTQE,2015-02-21T16:54:00Z,41.77,-96.18,-1.7,-5.6,350,16,,10.0,30.070866,1019.0,,TRUE,TRUE,,,,,,,BKN,1200,OVC,3000,,,,,MVFR,,,,,,,,,,,,METAR,312.0
KVTA 211654Z AUTO 19004KT 1 1/2SM -SN BR FEW009 BKN016 OVC031 M02/M04 A2993 RMK AO2 SLP149 P0000 T10221044,KVTA,2015-02-21T16:54:00Z,40.02,-82.47,-2.2,-4.4,190,4,,1.5,29.929134,1014.9,,TRUE,TRUE,,,,,,-SN BR,FEW,900,BKN,1600,OVC,3100,,,IFR,,,,,,0.0050,,,,,,METAR,268.0
KWAL 211654Z AUTO 22010KT 10SM OVC060 M02/M12 A3046 RMK AO2 SLP311 T10171117,KWAL,2015-02-21T16:54:00Z,37.93,-75.47,-1.7,-11.7,220,10,,10.0,30.46063,1031.1,,TRUE,TRUE,,,,,,,OVC,6000,,,,,,,VFR,,,,,,,,,,,,METAR,14.0
KWLD 211654Z AUTO 36006KT 10SM CLR 09/03 A3003 RMK AO2 SLP174 T00890028,KWLD,2015-02-21T16:54:00Z,37.17,-97.03,8.9,2.8,360,6,,10.0,30.029528,1017.4,,TRUE,TRUE,,,,,,,CLR,,,,,,,,VFR,,,,,,,,,,,,METAR,350.0
KBOS 211654Z 20016KT 10SM SCT120 BKN200 OVC300 M03/M11 A3043 RMK AO2 SLP302 T10331111,KBOS,2015-02-21T16:54:00Z,42.37,-71.02,-3.3,-11.1,200,16,,10.0,30.431103,1030.2,,,TRUE,,,,,,,SCT,12000,BKN,20000,OVC,30000,,,VFR,,,,,,,,,,,,METAR,6.0
KBTV 211654Z 18019G26KT 9SM BKN075 M08/M20 A3018 RMK AO2 PK WND 19032/1605 SLP228 BLSN T10781200,KBTV,2015-02-21T16:54:00Z,44.47,-73.15,-7.8,-20.0,180,19,26,9.0,30.180119,1022.8,,,TRUE,,,,,,,BKN,7500,,,,,,,VFR,,,,,,,,,,,,METAR,105.0
KCAR 211654Z AUTO 19008KT 10SM BKN075 BKN090 M13/M20 A3032 RMK AO2 SLP287 T11281200,KCAR,2015-02-21T16:54:00Z,46.87,-68.02,-12.8,-20.0,190,8,,10.0,30.318897,1028.7,,TRUE,TRUE,,,,,,,BKN,7500,BKN,9000,,,,,VFR,,,,,,,,,,,,METAR,191.0
KCFS 211654Z AUTO 22003KT 7SM OVC012 M07/M11 A2995 RMK AO2 T10711108,KCFS,2015-02-21T16:54:00Z,43.47,-83.45,-7.1,-10.8,220,3,,7.0,29.949802,,,TRUE,TRUE,,,,,,,OVC,1200,,,,,,,MVFR,,,,,,,,,,,,SPECI,214.0
KCKN 211654Z AUTO 35015KT 10SM SCT007 M20/M23 A3027 RMK AO2,KCKN,2015-02-21T16:54:00Z,47.85,-96.62,-20.0,-23.0,350,15,,10.0,30.268702,,,TRUE,TRUE,,,,,,,SCT,700,,,,,,,VFR,,,,,,,,,,,,SPECI,273.0
KCNB 211654Z AUTO 34016G21KT 10SM BKN080 OVC100 M11/M15 A3016 RMK AO2 T11061146,KCNB,2015-02-21T16:54:00Z,44.73,-96.27,-10.6,-14.6,340,16,21,10.0,30.159449,,,TRUE,TRUE,,,,,,,BKN,8000,OVC,10000,,,,,VFR,,,,,,,,,,,,SPECI,364.0
KDDH 211654Z AUTO 21009G14KT 10SM FEW075 BKN110 M07/M22 A3023 RMK AO2 SLP257 T10671217,KDDH,2015-02-21T16:54:00Z,42.9,-73.25,-6.7,-21.7,210,9,14,10.0,30.230314,1025.7,,TRUE,TRUE,,,,,,,FEW,7500,BKN,11000,,,,,VFR,,,,,,,,,,,,SPECI,244.0
KFSE 211654Z AUTO 32010KT 2 1/2SM -SN CLR M19/M23 A3017 RMK AO2,KFSE,2015-02-21T16:54:00Z,47.58,-95.77,-19.0,-23.0,320,10,,2.5,30.171259,,,TRUE,TRUE,,,,,,-SN,CLR,,,,,,,,IFR,,,,,,,,,,,,SPECI,389.0
KFZY 211654Z AUTO 15011G17KT 110V200 9SM BKN038 OVC048 M06/M16 A3010 RMK AO2 SLP205 T10611156,KFZY,2015-02-21T16:54:00Z,43.35,-76.38,-6.1,-15.6,150,11,17,9.0,30.100393,1020.5,,TRUE,TRUE,,,,,,,BKN,3800,OVC,4800,,,,,VFR,,,,,,,,,,,,METAR,138.0
KVSF 211654Z AUTO 15007KT 10SM OVC110 M10/M21 A3030 RMK AO2 SLP276 T11001211 TSNO,KVSF,2015-02-21T16:54:00Z,43.35,-72.52,-10.0,-21.1,150,7,,10.0,30.301182,1027.6,,TRUE,TRUE,,,TRUE,,,,OVC,11000,,,,,,,VFR,,,,,,,,,,,,METAR,175.0
KHAI 211654Z AUTO 00000KT 7SM OVC037 M06/M09 A2995 RMK AO2 T10611093,KHAI,2015-02-21T16:54:00Z,41.97,-85.6,-6.1,-9.3,0,0,,7.0,29.949802,,,TRUE,TRUE,,,,,,,OVC,3700,,,,,,,VFR,,,,,,,,,,,,SPECI,251.0
KISQ 211654Z AUTO 32007G10KT 10SM BKN022 OVC029 M07/M11 A2991 RMK AO2 T10691111,KISQ,2015-02-21T16:54:00Z,45.97,-86.17,-6.9,-11.1,320,7,10,10.0,29.911417,,,TRUE,TRUE,,,,,,,BKN,2200,OVC,2900,,,,,MVFR,,,,,,,,,,,,SPECI,209.0
KIZG 211654Z AUTO 23011G18KT 10SM CLR M06/M23 A3033 RMK AO2 SLP282 T10561228,KIZG,2015-02-21T16:54:00Z,43.98,-70.95,-5.6,-22.8,230,11,18,10.0,30.33071,1028.2,,TRUE,TRUE,,,,,,,CLR,,,,,,,,VFR,,,,,,,,,,,,SPECI,135.0
KJYG 211654Z AUTO 31016G19KT 10SM SCT017 M06/M11 A3006 RMK AO2,KJYG,2015-02-21T16:54:00Z,43.98,-94.55,-6.0,-11.0,310,16,19,10.0,30.059055,,,TRUE,TRUE,,,,,,,SCT,1700,,,,,,,VFR,,,,,,,,,,,,SPECI,325.0
KJYM 211654Z AUTO 00000KT 5SM -SN SCT025 SCT050 M06/M07 A2992 RMK AO2 T10631073,KJYM,2015-02-21T16:54:00Z,41.92,-84.58,-6.3,-7.3,0,0,,5.0,29.920275,,,TRUE,TRUE,,,,,,-SN,SCT,2500,SCT,5000,,,,,MVFR,,,,,,,,,,,,SPECI,360.0
KLWM 211654Z 19007KT 10SM BKN120 M05/M15 A3042 RMK AO2 SLP304 T10501150,KLWM,2015-02-21T16:54:00Z,42.72,-71.13,-5.0,-15.0,190,7,,10.0,30.41929,1030.4,,,TRUE,,,,,,,BKN,12000,,,,,,,VFR,,,,,,,,,,,,SPECI,54.0
KMGN 211654Z AUTO 25005KT 7SM -SN OVC050 M06/M10 A2991 RMK AO2 T10681100,KMGN,2015-02-21T16:54:00Z,45.43,-84.92,-6.8,-10.0,250,5,,7.0,29.911417,,,TRUE,TRUE,,,,,,-SN,OVC,5000,,,,,,,VFR,,,,,,,,,,,,SPECI,209.0
KBAX 211654Z AUTO 21004KT 10SM OVC042 M08/M11 A2995 RMK AO2 T10821109,KBAX,2015-02-21T16:54:00Z,43.78,-82.98,-8.2,-10.9,210,4,,10.0,29.949802,,,TRUE,TRUE,,,,,,,OVC,4200,,,,,,,VFR,,,,,,,,,,,,METAR,234.0
KAMN 211654Z AUTO 21005KT 5SM BR SCT021 OVC036 M07/M10 A2995 RMK AO2 T10751099,KAMN,2015-02-21T16:54:00Z,43.32,-84.68,-7.5,-9.9,210,5,,5.0,29.949802,,,TRUE,TRUE,,,,,,BR,SCT,2100,OVC,3600,,,,,MVFR,,,,,,,,,,,,METAR,230.0
KMVL 211654Z AUTO VRB03KT 10SM BKN080 M08/M20 A3018 RMK AO2 PRESFR SLP241 T10831200 TSNO,KMVL,2015-02-21T16:54:00Z,44.53,-72.62,-8.3,-20.0,0,3,,10.0,30.180119,1024.1,,TRUE,TRUE,,,TRUE,,,,BKN,8000,,,,,,,VFR,,,,,,,,,,,,METAR,234.0
KOEB 211654Z AUTO 32003KT 7SM BKN044 OVC050 M06/M09 A2994 RMK AO2 T10581091,KOEB,2015-02-21T16:54:00Z,41.92,-85.03,-5.8,-9.1,320,3,,7.0,29.940945,,,TRUE,TRUE,,,,,,,BKN,4400,OVC,5000,,,,,VFR,,,,,,,,,,,,SPECI,292.0
KORH 211654Z 19012G22KT 10SM CLR M06/M16 A3033 RMK AO2 SLP292 T10611161,KORH,2015-02-21T16:54:00Z,42.27,-71.87,-6.1,-16.1,190,12,22,10.0,30.33071,1029.2,,,TRUE,,,,,,,CLR,,,,,,,,VFR,,,,,,,,,,,,METAR,304.0
KMWN 211654Z 25044G53KT 100SM SCT040 BKN080 BKN100 BKN140 M14/M27 RMK SH DSNT NW-N BLSN BLO STA ALQDS,KMWN,2015-02-21T16:54:00Z,44.27,-71.3,-14.0,-27.0,250,44,53,99.0,,,,,,,,,,,,SCT,4000,BKN,8000,BKN,10000,BKN,14000,VFR,,,,,,,,,,,,METAR,1910.0
KRQB 211654Z AUTO 17005KT 4SM -SN BKN026 OVC042 M07/M09 A2990 RMK AO2 T10671095,KRQB,2015-02-21T16:54:00Z,43.72,-85.5,-6.7,-9.5,170,5,,4.0,29.899607,,,TRUE,TRUE,,,,,,-SN,BKN,2600,OVC,4200,,,,,MVFR,,,,,,,,,,,,SPECI,302.0
KPZQ 211654Z AUTO 25004KT 7SM -SN OVC050 M07/M10 A2992 RMK AO2 T10691100,KPZQ,2015-02-21T16:54:00Z,45.4,-83.82,-6.9,-10.0,250,4,,7.0,29.920275,,,TRUE,TRUE,,,,,,-SN,OVC,5000,,,,,,,VFR,,,,,,,,,,,,METAR,204.0
KPSF 211654Z AUTO 18012G24KT 10SM CLR M08/M21 A3025 RMK AO2 PK WND 21027/1629 SLP280 T10831206,KPSF,2015-02-21T16:54:00Z,42.43,-73.28,-8.3,-20.6,180,12,24,10.0,30.250984,1028.0,,TRUE,TRUE,,,,,,,CLR,,,,,,,,VFR,,,,,,,,,,,,SPECI,355.0
KTAD 211654Z AUTO 10008KT 10SM BKN007 01/M01 A2992 RMK AO2 CIG 005V011 SLP133 T00111006,KTAD,2015-02-21T16:54:00Z,37.27,-104.33,1.1,-0.6,100,8,,10.0,29.920275,1013.3,,TRUE,TRUE,,,,,,,BKN,700,,,,,,,IFR,,,,,,,,,,,,METAR,1756.0
KSUS 211654Z 31003KT 10SM BKN010 OVC026 01/M02 A2996 RMK AO2 SLP153 T00111022,KSUS,2015-02-21T16:54:00Z,38.65,-90.65,1.1,-2.2,310,3,,10.0,29.958662,1015.3,,,TRUE,,,,,,,BKN,1000,OVC,2600,,,,,MVFR,,,,,,,,,,,,METAR,141.0
KMOT 211654Z 29010KT 10SM FEW024 M17/M21 A3026 RMK AO2 SLP289 T11671211,KMOT,2015-02-21T16:54:00Z,48.25,-101.27,-16.7,-21.1,290,10,,10.0,30.259842,1028.9,,,TRUE,,,,,,,FEW,2400,,,,,,,VFR,,,,,,,,,,,,SPECI,519.0
KHSA 211654Z 17016G24KT 10SM FEW070 SCT100 19/10 A3012,KHSA,2015-02-21T16:54:00Z,30.37,-89.45,19.0,10.0,170,16,24,10.0,30.121063,,,,,,,,,,,FEW,7000,SCT,10000,,,,,VFR,,,,,,,,,,,,METAR,7.0
PAOM 211653Z 09019G24KT 10SM SCT033 SCT048 OVC070 02/M04 A2959 RMK AO2 SLP022 T00221039,PAOM,2015-02-21T16:53:00Z,64.5,-165.43,2.2,-3.9,90,19,24,10.0,29.589567,1002.2,,,TRUE,,,,,,,SCT,3300,SCT,4800,OVC,7000,,,VFR,,,,,,,,,,,,METAR,11.0
KBIL 211653Z 04009KT 10SM FEW025 BKN070 OVC100 M05/M12 A3024 RMK AO2 SLP280 T10501122,KBIL,2015-02-21T16:53:00Z,45.8,-108.55,-5.0,-12.2,40,9,,10.0,30.239174,1028.0,,,TRUE,,,,,,,FEW,2500,BKN,7000,OVC,10000,,,VFR,,,,,,,,,,,,METAR,1091.0
KLXT 211653Z AUTO 34007KT 9SM CLR 06/02 A2998 RMK AO2 SLP159 T00560017,KLXT,2015-02-21T16:53:00Z,38.97,-94.37,5.6,1.7,340,7,,9.0,29.97933,1015.9,,TRUE,TRUE,,,,,,,CLR,,,,,,,,VFR,,,,,,,,,,,,METAR,306.0
KJLN 211653Z 35006KT 3SM BR OVC004 02/01 A2999 RMK AO2 SLP162 T00170011,KJLN,2015-02-21T16:53:00Z,37.15,-94.5,1.7,1.1,350,6,,3.0,29.991142,1016.2,,,TRUE,,,,,,BR,OVC,400,,,,,,,LIFR,,,,,,,,,,,,METAR,299.0
KGGW 211653Z AUTO 34015KT 10SM OVC030 M10/M17 A3033 RMK AO2 SNE1558 SLP316 P0000 T11001167,KGGW,2015-02-21T16:53:00Z,48.22,-106.62,-10.0,-16.7,340,15,,10.0,30.33071,1031.6,,TRUE,TRUE,,,,,,,OVC,3000,,,,,,,MVFR,,,,,,0.0050,,,,,,METAR,694.0
KCNY 211653Z AUTO 23005KT 10SM OVC100 07/M07 A2991 RMK AO2 SLP124 T00721072,KCNY,2015-02-21T16:53:00Z,38.77,-109.75,7.2,-7.2,230,5,,10.0,29.911417,1012.4,,TRUE,TRUE,,,,,,,OVC,10000,,,,,,,VFR,,,,,,,,,,,,METAR,1390.0
KCMX 211653Z AUTO 33009KT 4SM HZ OVC011 M13/M17 A2994 RMK AO2 UPB06E16 SLP162 P0000 T11331167,KCMX,2015-02-21T16:53:00Z,47.17,-88.48,-13.3,-16.7,330,9,,4.0,29.940945,1016.2,,TRUE,TRUE,,,,,,HZ,OVC,1100,,,,,,,MVFR,,,,,,0.0050,,,,,,METAR,326.0
KBVO 211653Z AUTO 04005KT 10SM BKN011 06/03 A3003 RMK AO2 SLP167 T00610033,KBVO,2015-02-21T16:53:00Z,36.77,-96.02,6.1,3.3,40,5,,10.0,30.029528,1016.7,,TRUE,TRUE,,,,,,,BKN,1100,,,,,,,MVFR,,,,,,,,,,,,METAR,210.0
KBRL 211653Z AUTO 31003KT 5SM BR OVC041 M01/M03 A2994 RMK AO2 SLP145 T10111033,KBRL,2015-02-21T16:53:00Z,40.77,-91.13,-1.1,-3.3,310,3,,5.0,29.940945,1014.5,,TRUE,TRUE,,,,,,BR,OVC,4100,,,,,,,MVFR,,,,,,,,,,,,METAR,211.0
KSPW 211653Z AUTO 34014KT 8SM -SN BKN014 OVC038 M06/M11 A3005 RMK AO2 SNE1559B19 SLP194 P0000 T10611106 TSNO,KSPW,2015-02-21T16:53:00Z,43.17,-95.22,-6.1,-10.6,340,14,,8.0,30.050198,1019.4,,TRUE,TRUE,,,TRUE,,,-SN,BKN,1400,OVC,3800,,,,,MVFR,,,,,,0.0050,,,,,,METAR,403.0
KOQT 211653Z AUTO 26006KT UP OVC065 01/M01 A3011 RMK AO2 RAE20B43E44UPB44 SLP213 P0001 T00061011 $,KOQT,2015-02-21T16:53:00Z,36.02,-84.23,0.6,-1.1,260,6,,,30.109253,1021.3,,TRUE,TRUE,TRUE,,,,,UP,OVC,6500,,,,,,,,,,,,,0.01,,,,,,METAR,277.0
KCTY 211653Z AUTO 15010G16KT 19/07 A3031 RMK AO1 SLP262 T01890072,KCTY,2015-02-21T16:53:00Z,29.63,-83.1,18.9,7.2,150,10,16,,30.31004,1026.2,,TRUE,TRUE,,,,,,,,,,,,,,,,,,,,,,,,,,,METAR,13.0
PKMR 211653Z 07008KT 15SM FEW015 SCT050 BKN300 27/22 A2979 RMK SLP090 T02720220,PKMR,2015-02-21T16:53:00Z,7.08,171.38,27.2,22.0,70,8,,15.0,29.790354,1009.0,,,,,,,,,,FEW,1500,SCT,5000,BKN,30000,,,VFR,,,,,,,,,,,,METAR,4.0
KADC 211653Z AUTO 34010G16KT 10SM CLR M15/M20 A3010 RMK AO2,KADC,2015-02-21T16:53:00Z,46.45,-95.22,-15.0,-20.0,340,10,16,10.0,30.100393,,,TRUE,TRUE,,,,,,,CLR,,,,,,,,VFR,,,,,,,,,,,,METAR,418.0
KP68 211653Z AUTO 04004KT 04/M08 A2999 RMK AO1 SLP153 T00391078,KP68,2015-02-21T16:53:00Z,39.6,-116.0,3.9,-7.8,40,4,,,29.991142,1015.3,,TRUE,TRUE,,,,,,,,,,,,,,,,,,,,,,,,,,,METAR,1809.0
KNUI 211653Z AUTO 18010KT 10SM OVC050 M02/M14 A3042 RMK AO2 SLP299 T10221144 $,KNUI,2015-02-21T16:53:00Z,38.15,-76.43,-2.2,-14.4,180,10,,10.0,30.41929,1029.9,,TRUE,TRUE,TRUE,,,,,,OVC,5000,,,,,,,VFR,,,,,,,,,,,,METAR,7.0
KLOR 211653Z AUTO 18013G24KT 10SM SCT033 BKN110 18/08 A3020 RMK AO2 SLP227 T01780083,KLOR,2015-02-21T16:53:00Z,31.35,-85.75,17.8,8.3,180,13,24,10.0,30.200787,1022.7,,TRUE,TRUE,,,,,,,SCT,3300,BKN,11000,,,,,VFR,,,,,,,,,,,,METAR,74.0
KTUP 211653Z 20013G19KT 4SM -RA BR OVC022 12/10 A2991 RMK AO2 RAE1558B17 SLP130 P0007 T01220100,KTUP,2015-02-21T16:53:00Z,34.27,-88.77,12.2,10.0,200,13,19,4.0,29.911417,1013.0,,,TRUE,,,,,,-RA BR,OVC,2200,,,,,,,MVFR,,,,,,0.07,,,,,,METAR,105.0
KHEY 211653Z AUTO 17012G20KT 10SM SCT032 BKN100 17/08 A3021 RMK AO2 SLP219 T01670078,KHEY,2015-02-21T16:53:00Z,31.35,-85.65,16.7,7.8,170,12,20,10.0,30.209646,1021.9,,TRUE,TRUE,,,,,,,SCT,3200,BKN,10000,,,,,VFR,,,,,,,,,,,,METAR,97.0
KP92 211653Z AUTO 16008G15KT 18/14 A3004 RMK AO1 SLP173 T01830139,KP92,2015-02-21T16:53:00Z,29.57,-91.53,18.3,13.9,160,8,15,,30.041338,1017.3,,TRUE,TRUE,,,,,,,,,,,,,,,,,,,,,,,,,,,METAR,1.0
K6R6 211653Z AUTO 02013KT 24/02 A2992 RMK AO1 SLP104 T02390022 $,K6R6,2015-02-21T16:53:00Z,30.05,-102.22,23.9,2.2,20,13,,,29.920275,1010.4,,TRUE,TRUE,TRUE,,,,,,,,,,,,,,,,,,,,,,,,,,METAR,701.0
KNIP 211653Z VRB03KT 10SM FEW030 SCT055 BKN250 18/07 A3034 RMK AO2 SLP270 T01830067,KNIP,2015-02-21T16:53:00Z,30.22,-81.67,18.3,6.7,0,3,,10.0,30.339567,1027.0,,,TRUE,,,,,,,FEW,3000,SCT,5500,BKN,25000,,,VFR,,,,,,,,,,,,METAR,7.0
KCQC 211653Z AUTO 22009G14KT 10SM CLR 08/M04 A2995 RMK AO2 SLP099 T00781039,KCQC,2015-02-21T16:53:00Z,35.0,-105.67,7.8,-3.9,220,9,14,10.0,29.949802,1009.9,,TRUE,TRUE,,,,,,,CLR,,,,,,,,VFR,,,,,,,,,,,,METAR,2160.0
KARB 211653Z 27004KT 10SM OVC050 M07/M09 A2995 RMK AO2 SLP155 T10671094 $,KARB,2015-02-21T16:53:00Z,42.22,-83.73,-6.7,-9.4,270,4,,10.0,29.949802,1015.5,,,TRUE,TRUE,,,,,,OVC,5000,,,,,,,VFR,,,,,,,,,,,,SPECI,251.0
KASE 211653Z 35004KT 6SM HZ SCT029 BKN055 M03/M06 A2987 RMK AO2 SLP110 T10331061,KASE,2015-02-21T16:53:00Z,39.23,-106.87,-3.3,-6.1,350,4,,6.0,29.870079,1011.0,,,TRUE,,,,,,HZ,SCT,2900,BKN,5500,,,,,VFR,,,,,,,,,,,,SPECI,2354.0
KASX 211653Z AUTO 02006KT 10SM FEW025 SCT035 OVC042 M10/M16 A3003 RMK AO2 SLP187 T11001156,KASX,2015-02-21T16:53:00Z,46.55,-90.92,-10.0,-15.6,20,6,,10.0,30.029528,1018.7,,TRUE,TRUE,,,,,,,FEW,2500,SCT,3500,OVC,4200,,,VFR,,,,,,,,,,,,SPECI,251.0
KAXN 211653Z AUTO 33010G19KT 10SM SCT019 OVC100 M14/M18 A3011 RMK AO2 SLP231 T11391183,KAXN,2015-02-21T16:53:00Z,45.87,-95.4,-13.9,-18.3,330,10,19,10.0,30.109253,1023.1,,TRUE,TRUE,,,,,,,SCT,1900,OVC,10000,,,,,VFR,,,,,,,,,,,,SPECI,433.0
KAWM 211653Z AUTO 35007KT 5SM -RA BR BKN004 BKN008 OVC034 06/06 A2985 RMK AO2 SLP110 P0017 T00610061,KAWM,2015-02-21T16:53:00Z,35.13,-90.23,6.1,6.1,350,7,,5.0,29.84941,1011.0,,TRUE,TRUE,,,,,,-RA BR,BKN,400,BKN,800,OVC,3400,,,LIFR,,,,,,0.17,,,,,,SPECI,65.0
KATY 211653Z AUTO 01014KT 10SM FEW015 OVC070 M12/M17 A3012 RMK AO2 SLP234 T11221167,KATY,2015-02-21T16:53:00Z,44.9,-97.15,-12.2,-16.7,10,14,,10.0,30.121063,1023.4,,TRUE,TRUE,,,,,,,FEW,1500,OVC,7000,,,,,VFR,,,,,,,,,,,,SPECI,532.0
KAZO 211653Z 19003KT 8SM OVC013 M06/M09 A2995 RMK AO2 SLP156 T10611094,KAZO,2015-02-21T16:53:00Z,42.23,-85.55,-6.1,-9.4,190,3,,8.0,29.949802,1015.6,,,TRUE,,,,,,,OVC,1300,,,,,,,MVFR,,,,,,,,,,,,SPECI,272.0
KBBB 211653Z AUTO 36015G19KT 10SM OVC010 M13/M16 A3014 RMK AO2,KBBB,2015-02-21T16:53:00Z,45.32,-95.65,-13.0,-16.0,360,15,19,10.0,30.138779,,,TRUE,TRUE,,,,,,,OVC,1000,,,,,,,MVFR,,,,,,,,,,,,SPECI,317.0
KBBW 211653Z AUTO 35021KT 10SM FEW018 BKN027 OVC032 02/M01 A3003 RMK AO2 PK WND 34026/1642 SLP182 T00221011,KBBW,2015-02-21T16:53:00Z,41.43,-99.63,2.2,-1.1,350,21,,10.0,30.029528,1018.2,,TRUE,TRUE,,,,,,,FEW,1800,BKN,2700,OVC,3200,,,MVFR,,,,,,,,,,,,SPECI,776.0
KBCE 211653Z AUTO 33009G15KT 300V030 10SM OVC080 02/M09 A2995 RMK AO2 SLP107 T00171094,KBCE,2015-02-21T16:53:00Z,37.7,-112.15,1.7,-9.4,330,9,15,10.0,29.949802,1010.7,,TRUE,TRUE,,,,,,,OVC,8000,,,,,,,VFR,,,,,,,,,,,,SPECI,2312.0
KBDE 211653Z AUTO 33010KT 10SM UP CLR M22/M26 A3013 RMK AO2 UPB04 SLP239 P0000 T12221256 TSNO,KBDE,2015-02-21T16:53:00Z,48.73,-94.62,-22.2,-25.6,330,10,,10.0,30.129921,1023.9,,TRUE,TRUE,,,TRUE,,,UP,CLR,,,,,,,,VFR,,,,,,0.0050,,,,,,SPECI,329.0
KBEH 211653Z AUTO 15004KT 8SM BKN014 OVC034 M07/M09 A2994 RMK AO2 SLP150 T10671089,KBEH,2015-02-21T16:53:00Z,42.13,-86.42,-6.7,-8.9,150,4,,8.0,29.940945,1015.0,,TRUE,TRUE,,,,,,,BKN,1400,OVC,3400,,,,,MVFR,,,,,,,,,,,,SPECI,191.0
KBFD 211653Z AUTO 15011G18KT 1SM -SN BKN021 BKN025 OVC031 M09/M13 A2992 RMK AO2 SLP173 P0000 T10941133,KBFD,2015-02-21T16:53:00Z,41.8,-78.63,-9.4,-13.3,150,11,18,1.0,29.920275,1017.3,,TRUE,TRUE,,,,,,-SN,BKN,2100,BKN,2500,OVC,3100,,,IFR,,,,,,0.0050,,,,,,SPECI,647.0
KSTP 211653Z 33010KT 6SM HZ SCT018 OVC025 M08/M12 A3006 RMK AO2 SNE1556B03E38 SLP190 P0000 T10831122,KSTP,2015-02-21T16:53:00Z,44.93,-93.05,-8.3,-12.2,330,10,,6.0,30.059055,1019.0,,,TRUE,,,,,,HZ,SCT,1800,OVC,2500,,,,,MVFR,,,,,,0.0050,,,,,,SPECI,219.0
KSTC 211653Z 35011KT 10SM OVC100 M12/M17 A3007 RMK AO2 SLP212 T11171167,KSTC,2015-02-21T16:53:00Z,45.55,-94.05,-11.7,-16.7,350,11,,10.0,30.070866,1021.2,,,TRUE,,,,,,,OVC,10000,,,,,,,VFR,,,,,,,,,,,,METAR,314.0
KSRQ 211653Z 13015G20KT 10SM CLR 21/09 A3027 RMK AO2 SLP248 T02110089,KSRQ,2015-02-21T16:53:00Z,27.4,-82.57,21.1,8.9,130,15,20,10.0,30.268702,1024.8,,,TRUE,,,,,,,CLR,,,,,,,,VFR,,,,,,,,,,,,SPECI,18.0
KSPG 211653Z 07004KT 10SM CLR 17/11 A3029 RMK AO2 SLP255 T01720106,KSPG,2015-02-21T16:53:00Z,27.77,-82.63,17.2,10.6,70,4,,10.0,30.28937,1025.5,,,TRUE,,,,,,,CLR,,,,,,,,VFR,,,,,,,,,,,,SPECI,2.0
KSNY 211653Z AUTO 03010KT 6SM HZ BKN018 BKN025 OVC035 01/M03 A3000 RMK AO2 SNB39E52 SLP179 P0000 T00111033,KSNY,2015-02-21T16:53:00Z,41.1,-102.98,1.1,-3.3,30,10,,6.0,30.0,1017.9,,TRUE,TRUE,,,,,,HZ,BKN,1800,BKN,2500,OVC,3500,,,MVFR,,,,,,0.0050,,,,,,SPECI,1307.0
KSLC 211653Z 14005KT 10SM FEW035 BKN060 BKN100 03/00 A2998 RMK AO2 SLP151 VCSH NW-NE T00330000 $,KSLC,2015-02-21T16:53:00Z,40.77,-111.97,3.3,0.0,140,5,,10.0,29.97933,1015.1,,,TRUE,TRUE,,,,,,FEW,3500,BKN,6000,BKN,10000,,,VFR,,,,,,,,,,,,SPECI,1286.0
KSHR 211653Z AUTO 35016KT 10SM OVC021 M06/M10 A3018 RMK AO2 SNB16E44 SLP261 P0000 T10611100,KSHR,2015-02-21T16:53:00Z,44.77,-106.97,-6.1,-10.0,350,16,,10.0,30.180119,1026.1,,TRUE,TRUE,,,,,,,OVC,2100,,,,,,,MVFR,,,,,,0.0050,,,,,,SPECI,1202.0
KSBM 211653Z AUTO 36003KT 9SM SCT036 M04/M10 A2993 RMK AO2 SLP146 T10391100,KSBM,2015-02-21T16:53:00Z,43.78,-87.85,-3.9,-10.0,360,3,,9.0,29.929134,1014.6,,TRUE,TRUE,,,,,,,SCT,3600,,,,,,,VFR,,,,,,,,,,,,SPECI,232.0
KSAZ 211653Z AUTO 34011KT 10SM SCT021 M14/M19 A3009 RMK AO2,KSAZ,2015-02-21T16:53:00Z,46.37,-94.8,-14.0,-19.0,340,11,,10.0,30.088583,,,TRUE,TRUE,,,,,,,SCT,2100,,,,,,,VFR,,,,,,,,,,,,SPECI,392.0
KRXE 211653Z AUTO 04007KT 10SM CLR 01/M07 A2997 RMK AO2 SLP167 T00111067,KRXE,2015-02-21T16:53:00Z,43.83,-111.8,1.1,-6.7,40,7,,10.0,29.970472,1016.7,,TRUE,TRUE,,,,,,,CLR,,,,,,,,VFR,,,,,,,,,,,,SPECI,1480.0
KRWF 211653Z AUTO 34010G19KT 4SM -SN OVC018 M09/M14 A3011 RMK AO2 SNB1557E08B30 SLP215 P0000 T10941144,KRWF,2015-02-21T16:53:00Z,44.55,-95.08,-9.4,-14.4,340,10,19,4.0,30.109253,1021.5,,TRUE,TRUE,,,,,,-SN,OVC,1800,,,,,,,MVFR,,,,,,0.0050,,,,,,SPECI,311.0
PTYA 211653Z 03009G17KT 12SM SCT016 BKN300 26/21 A2987 RMK SLP117 T02600211,PTYA,2015-02-21T16:53:00Z,9.48,138.08,26.0,21.1,30,9,17,12.0,29.870079,1011.7,,,,,,,,,,SCT,1600,BKN,30000,,,,,VFR,,,,,,,,,,,,METAR,17.0
KBIV 211653Z AUTO 15005KT 4SM HZ OVC023 M06/M09 A2996 RMK AO2 SLP156 T10611089,KBIV,2015-02-21T16:53:00Z,42.75,-86.1,-6.1,-8.9,150,5,,4.0,29.958662,1015.6,,TRUE,TRUE,,,,,,HZ,OVC,2300,,,,,,,MVFR,,,,,,,,,,,,SPECI,208.0
KLOU 211653Z 19005KT 9SM -RA OVC013 03/01 A2990 RMK AO2 SLP131 P0001 T00280011,KLOU,2015-02-21T16:53:00Z,38.22,-85.67,2.8,1.1,190,5,,9.0,29.899607,1013.1,,,TRUE,,,,,,-RA,OVC,1300,,,,,,,MVFR,,,,,,0.01,,,,,,SPECI,164.0
KLND 211653Z AUTO 09013KT 1SM -SN BR SCT006 OVC016 M05/M07 A2999 RMK AO2 SLP191 P0001 T10501067,KLND,2015-02-21T16:53:00Z,42.82,-108.73,-5.0,-6.7,90,13,,1.0,29.991142,1019.1,,TRUE,TRUE,,,,,,-SN BR,SCT,600,OVC,1600,,,,,IFR,,,,,,0.01,,,,,,METAR,1694.0
KLLQ 211653Z AUTO 21010KT 9SM -RA BKN012 OVC018 17/15 A2985 RMK AO2 LTG DSNT E RAE32B51 SLP106 P0001 T01670150 $,KLLQ,2015-02-21T16:53:00Z,33.63,-91.75,16.7,15.0,210,10,,9.0,29.84941,1010.6,,TRUE,TRUE,TRUE,,,,,-RA,BKN,1200,OVC,1800,,,,,MVFR,,,,,,0.01,,,,,,SPECI,83.0
KLHX 211653Z AUTO 00000KT 10SM OVC014 02/01 A2999 RMK AO2 SLP157 T00220006,KLHX,2015-02-21T16:53:00Z,38.05,-103.52,2.2,0.6,0,0,,10.0,29.991142,1015.7,,TRUE,TRUE,,,,,,,OVC,1400,,,,,,,MVFR,,,,,,,,,,,,SPECI,1277.0
KLEE 211653Z 16011KT 10SM CLR 19/08 A3033 RMK AO2 SLP269 T01890078,KLEE,2015-02-21T16:53:00Z,28.82,-81.82,18.9,7.8,160,11,,10.0,30.33071,1026.9,,,TRUE,,,,,,,CLR,,,,,,,,VFR,,,,,,,,,,,,SPECI,23.0
KVRB 211653Z 12017G22KT 10SM FEW055 22/11 A3030 RMK AO2 SLP259 T02170106,KVRB,2015-02-21T16:53:00Z,27.65,-80.42,21.7,10.6,120,17,22,10.0,30.301182,1025.9,,,TRUE,,,,,,,FEW,5500,,,,,,,VFR,,,,,,,,,,,,SPECI,10.0
KVEL 211653Z AUTO 05008KT 10SM BKN042 03/M03 A2993 RMK AO2 SLP138 T00281033,KVEL,2015-02-21T16:53:00Z,40.45,-109.52,2.8,-3.3,50,8,,10.0,29.929134,1013.8,,TRUE,TRUE,,,,,,,BKN,4200,,,,,,,VFR,,,,,,,,,,,,SPECI,1604.0
KUNV 211653Z 00000KT 1SM -SN OVC010 M10/M13 A3013,KUNV,2015-02-21T16:53:00Z,40.85,-77.83,-10.0,-13.0,0,0,,1.0,30.129921,,,,,,,,,,-SN,OVC,1000,,,,,,,IFR,,,,,,,,,,,,METAR,378.0
KTVR 211653Z AUTO 19012G23KT 10SM BKN039 OVC055 19/12 A2997 RMK AO2 PK WND 18027/1615 RAB1555E24 SLP154 P0000 T01940122,KTVR,2015-02-21T16:53:00Z,32.35,-91.03,19.4,12.2,190,12,23,10.0,29.970472,1015.4,,TRUE,TRUE,,,,,,,BKN,3900,OVC,5500,,,,,VFR,,,,,,0.0050,,,,,,SPECI,26.0
KTVC 211653Z 00000KT 7SM FEW032 OVC055 M06/M09 A2991 RMK AO2 SLP138 T10561089,KTVC,2015-02-21T16:53:00Z,44.73,-85.57,-5.6,-8.9,0,0,,7.0,29.911417,1013.8,,,TRUE,,,,,,,FEW,3200,OVC,5500,,,,,VFR,,,,,,,,,,,,SPECI,190.0
KTPA 211653Z 12007KT 080V150 10SM FEW060 BKN320 21/08 A3031 RMK AO2 SLP262 T02060078,KTPA,2015-02-21T16:53:00Z,27.97,-82.53,20.6,7.8,120,7,,10.0,30.31004,1026.2,,,TRUE,,,,,,,FEW,6000,BKN,32000,,,,,VFR,,,,,,,,,,,,SPECI,11.0
KTMB 211653Z 11016G23KT 10SM FEW060 24/14 A3025 RMK AO2 SLP244 T02390139,KTMB,2015-02-21T16:53:00Z,25.65,-80.43,23.9,13.9,110,16,23,10.0,30.250984,1024.4,,,TRUE,,,,,,,FEW,6000,,,,,,,VFR,,,,,,,,,,,,SPECI,2.0
KLSE 211653Z 32010KT 10SM OVC029 M03/M08 A2997 RMK AO2 SLP164 T10281083,KLSE,2015-02-21T16:53:00Z,43.88,-91.25,-2.8,-8.3,320,10,,10.0,29.970472,1016.4,,,TRUE,,,,,,,OVC,2900,,,,,,,MVFR,,,,,,,,,,,,SPECI,199.0
KLPR 211653Z AUTO 20003KT 9SM OVC028 M05/M07 A2995 RMK AO2 SLP157 T10501072 TSNO,KLPR,2015-02-21T16:53:00Z,41.35,-82.18,-5.0,-7.2,200,3,,9.0,29.949802,1015.7,,TRUE,TRUE,,,TRUE,,,,OVC,2800,,,,,,,MVFR,,,,,,,,,,,,SPECI,241.0
KLUK 211653Z 19009KT 4SM -RA BR BKN009 OVC015 01/00 A2993 RMK AO2 RAB19SNB16E36 CIG 007V013 SLP139 P0002 T00110000 $,KLUK,2015-02-21T16:53:00Z,39.1,-84.42,1.1,0.0,190,9,,4.0,29.929134,1013.9,,,TRUE,TRUE,,,,,-RA BR,BKN,900,OVC,1500,,,,,IFR,,,,,,0.02,,,,,,SPECI,155.0
KLVM 211653Z AUTO 07009KT 2 1/2SM -SN BKN029 OVC038 M07/M11 A3018 RMK AO2 SLP262 P0000 T10721106,KLVM,2015-02-21T16:53:00Z,45.7,-110.43,-7.2,-10.6,70,9,,2.5,30.180119,1026.2,,TRUE,TRUE,,,,,,-SN,BKN,2900,OVC,3800,,,,,IFR,,,,,,0.0050,,,,,,SPECI,1418.0
KLXV 211653Z AUTO 36003KT 10SM SCT038 BKN050 OVC060 M07/M12 A2983 RMK AO2 SLP095 T10671122,KLXV,2015-02-21T16:53:00Z,39.23,-106.32,-6.7,-12.2,360,3,,10.0,29.828741,1009.5,,TRUE,TRUE,,,,,,,SCT,3800,BKN,5000,OVC,6000,,,VFR,,,,,,,,,,,,METAR,3028.0
KMBS 211653Z 22007KT 7SM BKN019 OVC024 M07/M11 A2995 RMK AO2 SLP155 T10721106,KMBS,2015-02-21T16:53:00Z,43.53,-84.08,-7.2,-10.6,220,7,,7.0,29.949802,1015.5,,,TRUE,,,,,,,BKN,1900,OVC,2400,,,,,MVFR,,,,,,,,,,,,SPECI,202.0
KMCK 211653Z AUTO 36010KT 10SM BKN055 OVC075 07/01 A3003 RMK AO2 SLP179 T00670006,KMCK,2015-02-21T16:53:00Z,40.2,-100.58,6.7,0.6,360,10,,10.0,30.029528,1017.9,,TRUE,TRUE,,,,,,,BKN,5500,OVC,7500,,,,,VFR,,,,,,,,,,,,SPECI,782.0
KMCO 211653Z 10007KT 10SM FEW035 SCT065 BKN250 21/10 A3033 RMK AO2 SLP268 T02110100,KMCO,2015-02-21T16:53:00Z,28.42,-81.33,21.1,10.0,100,7,,10.0,30.33071,1026.8,,,TRUE,,,,,,,FEW,3500,SCT,6500,BKN,25000,,,VFR,,,,,,,,,,,,METAR,29.0
KMDW 211653Z 00000KT 10SM OVC032 M03/M08 A2994 RMK AO2 SLP156 T10331078 $,KMDW,2015-02-21T16:53:00Z,41.78,-87.75,-3.3,-7.8,0,0,,10.0,29.940945,1015.6,,,TRUE,TRUE,,,,,,OVC,3200,,,,,,,VFR,,,,,,,,,,,,SPECI,188.0
KMGW 211653Z 20003KT 7SM UP FEW013 BKN021 OVC027 02/00 A2999 RMK AO2 RAB03E44UPB14E16B44SNE03 SLP173 P0003 T00220000,KMGW,2015-02-21T16:53:00Z,39.65,-79.92,2.2,0.0,200,3,,7.0,29.991142,1017.3,,,TRUE,,,,,,UP,FEW,1300,BKN,2100,OVC,2700,,,MVFR,,,,,,0.03,,,,,,SPECI,378.0
KMHE 211653Z AUTO 36013KT 10SM FEW020 BKN049 OVC070 M08/M12 A3018 RMK AO2 SNE02 SLP240 P0000 T10781122,KMHE,2015-02-21T16:53:00Z,43.77,-98.02,-7.8,-12.2,360,13,,10.0,30.180119,1024.0,,TRUE,TRUE,,,,,,,FEW,2000,BKN,4900,OVC,7000,,,VFR,,,,,,0.0050,,,,,,SPECI,397.0
KMIA 211653Z 10017KT 10SM FEW035 SCT075 BKN250 23/13 A3026 RMK AO2 SLP247 T02280128,KMIA,2015-02-21T16:53:00Z,25.8,-80.28,22.8,12.8,100,17,,10.0,30.259842,1024.7,,,TRUE,,,,,,,FEW,3500,SCT,7500,BKN,25000,,,VFR,,,,,,,,,,,,SPECI,3.0
KHKA 211653Z AUTO 02012KT 5SM -RA BR OVC004 01/01 A2988 RMK AO2 SLP121 P0006 T00110006,KHKA,2015-02-21T16:53:00Z,35.93,-89.83,1.1,0.6,20,12,,5.0,29.878937,1012.1,,TRUE,TRUE,,,,,,-RA BR,OVC,400,,,,,,,LIFR,,,,,,0.06,,,,,,SPECI,78.0
KHKS 211653Z 18022G32KT 10SM FEW028 BKN055 OVC070 18/12 A2999 RMK AO2 PK WND 18032/1652 SLP147 T01830122,KHKS,2015-02-21T16:53:00Z,32.33,-90.22,18.3,12.2,180,22,32,10.0,29.991142,1014.7,,,TRUE,,,,,,,FEW,2800,BKN,5500,OVC,7000,,,VFR,,,,,,,,,,,,SPECI,108.0
KHLN 211653Z 34008KT 10SM SCT060 BKN075 OVC090 M05/M09 A3027 RMK AO2 SLP309 T10501089,KHLN,2015-02-21T16:53:00Z,46.6,-111.98,-5.0,-8.9,340,8,,10.0,30.268702,1030.9,,,TRUE,,,,,,,SCT,6000,BKN,7500,OVC,9000,,,VFR,,,,,,,,,,,,SPECI,1182.0
PAWI 211653Z AUTO 03018KT 4SM -SN FEW020 OVC030 M16/M18 A3017 RMK SLP216 P0000 T11561183 TSNO $ VIA AUTODIAL,PAWI,2015-02-21T16:53:00Z,70.62,-159.85,-15.6,-18.3,30,18,,4.0,30.171259,1021.6,,TRUE,,TRUE,,TRUE,,,-SN,FEW,2000,OVC,3000,,,,,MVFR,,,,,,0.0050,,,,,,METAR,27.0
KIML 211653Z AUTO 00000KT 10SM 03/01 A3002 RMK AO2 SLP182 T00330006 $,KIML,2015-02-21T16:53:00Z,40.52,-101.62,3.3,0.6,0,0,,10.0,30.02067,1018.2,,TRUE,TRUE,TRUE,,,,,,,,,,,,,,,,,,,,,,,,,,SPECI,998.0
KILM 211653Z 12008KT 10SM OVC040 10/04 A3041 RMK AO2 SLP298 T01000044,KILM,2015-02-21T16:53:00Z,34.27,-77.9,10.0,4.4,120,8,,10.0,30.410433,1029.8,,,TRUE,,,,,,,OVC,4000,,,,,,,VFR,,,,,,,,,,,,SPECI,9.0
KIKW 211653Z AUTO 23005KT 7SM -SN OVC023 M07/M10 A2994 RMK AO2 T10691105,KIKW,2015-02-21T16:53:00Z,43.67,-84.27,-6.9,-10.5,230,5,,7.0,29.940945,,,TRUE,TRUE,,,,,,-SN,OVC,2300,,,,,,,MVFR,,,,,,,,,,,,METAR,194.0
KIDA 211653Z VRB04KT 10SM BKN007 BKN013 01/M02 A2998 RMK AO2 SLP171 VIS E-S 3SM FG T00111022,KIDA,2015-02-21T16:53:00Z,43.52,-112.07,1.1,-2.2,0,4,,10.0,29.97933,1017.1,,,TRUE,,,,,,,BKN,700,BKN,1300,,,,,IFR,,,,,,,,,,,,SPECI,1453.0
KICR 211653Z AUTO 35011KT 7SM BKN013 BKN035 OVC055 M04/M08 A3013 RMK AO2 SNE31 SLP228 P0000 T10441083,KICR,2015-02-21T16:53:00Z,43.38,-99.85,-4.4,-8.3,350,11,,7.0,30.129921,1022.8,,TRUE,TRUE,,,,,,,BKN,1300,BKN,3500,OVC,5500,,,MVFR,,,,,,0.0050,,,,,,SPECI,621.0
KIAG 211653Z 20003KT 1SM R28R/6000VP6000FT -SN BR BKN018 OVC029 M07/M08 A2999 RMK AO2 SLP181 P0002 T10671083 $,KIAG,2015-02-21T16:53:00Z,43.12,-78.93,-6.7,-8.3,200,3,,1.0,29.991142,1018.1,,,TRUE,TRUE,,,,,-SN BR,BKN,1800,OVC,2900,,,,,IFR,,,,,,0.02,,,,,,METAR,182.0
KHZY 211653Z AUTO 21010KT 7SM FEW035 OVC065 M04/M08 A2995 RMK AO2 SNE31 SLP155 P0000 T10441078,KHZY,2015-02-21T16:53:00Z,41.78,-80.7,-4.4,-7.8,210,10,,7.0,29.949802,1015.5,,TRUE,TRUE,,,,,,,FEW,3500,OVC,6500,,,,,VFR,,,,,,0.0050,,,,,,SPECI,276.0
KHYR 211653Z AUTO 30005KT 2 1/2SM -SN SCT019 OVC034 M10/M14 A2998 RMK AO2 SNB39 SLP180 P0000 T11001144,KHYR,2015-02-21T16:53:00Z,46.02,-91.45,-10.0,-14.4,300,5,,2.5,29.97933,1018.0,,TRUE,TRUE,,,,,,-SN,SCT,1900,OVC,3400,,,,,IFR,,,,,,0.0050,,,,,,SPECI,370.0
KHWO 211653Z 11016G24KT 10SM SCT036 BKN045 OVC075 22/13 A3028 RMK AO2 SLP252 T02220133,KHWO,2015-02-21T16:53:00Z,26.0,-80.23,22.2,13.3,110,16,24,10.0,30.280512,1025.2,,,TRUE,,,,,,,SCT,3600,BKN,4500,OVC,7500,,,VFR,,,,,,,,,,,,SPECI,2.0
KHVR 211653Z AUTO 33005KT 10SM BKN037 BKN050 OVC065 M06/M12 A3035 RMK AO2 SLP317 T10611117,KHVR,2015-02-21T16:53:00Z,48.55,-109.77,-6.1,-11.7,330,5,,10.0,30.351377,1031.7,,TRUE,TRUE,,,,,,,BKN,3700,BKN,5000,OVC,6500,,,VFR,,,,,,,,,,,,METAR,787.0
KHUF 211653Z 36003KT 8SM FEW038 FEW065 OVC085 M03/M06 A2992 RMK AO2 SLP141 T10331061,KHUF,2015-02-21T16:53:00Z,39.45,-87.3,-3.3,-6.1,360,3,,8.0,29.920275,1014.1,,,TRUE,,,,,,,FEW,3800,FEW,6500,OVC,8500,,,VFR,,,,,,,,,,,,SPECI,179.0
KHTL 211653Z AUTO 23005KT 7SM OVC049 M08/M11 A2989 RMK AO2 SLP145 T10781111,KHTL,2015-02-21T16:53:00Z,44.35,-84.67,-7.8,-11.1,230,5,,7.0,29.890747,1014.5,,TRUE,TRUE,,,,,,,OVC,4900,,,,,,,VFR,,,,,,,,,,,,METAR,351.0
KHSV 211653Z 18017G27KT 10SM -RA FEW027 BKN039 OVC075 09/M01 A3000 RMK AO2 PK WND 16031/1643 RAB43 SLP160 P0000 T00941006 $,KHSV,2015-02-21T16:53:00Z,34.65,-86.78,9.4,-0.6,180,17,27,10.0,30.0,1016.0,,,TRUE,TRUE,,,,,-RA,FEW,2700,BKN,3900,OVC,7500,,,VFR,,,,,,0.0050,,,,,,METAR,191.0
KHSI 211653Z AUTO 01013KT 10SM FEW024 FEW080 06/M01 A3002 RMK AO2 SLP178 T00611011,KHSI,2015-02-21T16:53:00Z,40.6,-98.43,6.1,-1.1,10,13,,10.0,30.02067,1017.8,,TRUE,TRUE,,,,,,,FEW,2400,FEW,8000,,,,,VFR,,,,,,,,,,,,METAR,591.0
KHOT 211653Z AUTO VRB03KT 8SM VCTS -RA SCT007 BKN013 OVC028 08/07 A2986 RMK AO2 LTG DSNT E-SW TSE25B26E41 SLP113 P0027 T00830072,KHOT,2015-02-21T16:53:00Z,34.48,-93.1,8.3,7.2,0,3,,8.0,29.861221,1011.3,,TRUE,TRUE,,,,,,VCTS -RA,SCT,700,BKN,1300,OVC,2800,,,MVFR,,,,,,0.27,,,,,,SPECI,162.0
KJBR 211653Z AUTO 03009KT 4SM RA BR SCT007 OVC037 01/01 A2989 RMK AO2 SLP121 P0007 T00110011,KJBR,2015-02-21T16:53:00Z,35.83,-90.65,1.1,1.1,30,9,,4.0,29.890747,1012.1,,TRUE,TRUE,,,,,,RA BR,SCT,700,OVC,3700,,,,,MVFR,,,,,,0.07,,,,,,METAR,79.0
KLAN 211653Z 21005KT 6SM HZ OVC014 M07/M10 A2996 RMK AO2 SLP160 T10671100 $,KLAN,2015-02-21T16:53:00Z,42.78,-84.58,-6.7,-10.0,210,5,,6.0,29.958662,1016.0,,,TRUE,TRUE,,,,,HZ,OVC,1400,,,,,,,MVFR,,,,,,,,,,,,METAR,264.0
KLAA 211653Z AUTO 00000KT 8SM SCT044 02/00 A3000 RMK AO2 SLP167 T00220000,KLAA,2015-02-21T16:53:00Z,38.07,-102.68,2.2,0.0,0,0,,8.0,30.0,1016.7,,TRUE,TRUE,,,,,,,SCT,4400,,,,,,,VFR,,,,,,,,,,,,SPECI,1119.0
KJKL 211653Z AUTO VRB06KT 3SM -RA BR BKN013 BKN019 OVC042 02/01 A2998 RMK AO2 SLP163 P0008 T00220006,KJKL,2015-02-21T16:53:00Z,37.6,-83.32,2.2,0.6,0,6,,3.0,29.97933,1016.3,,TRUE,TRUE,,,,,,-RA BR,BKN,1300,BKN,1900,OVC,4200,,,MVFR,,,,,,0.08,,,,,,SPECI,416.0
KJER 211653Z AUTO 27009KT 10SM OVC005 M01/M02 A3001 RMK AO2 SLP181 T10061022,KJER,2015-02-21T16:53:00Z,42.72,-114.45,-0.6,-2.2,270,9,,10.0,30.008858,1018.1,,TRUE,TRUE,,,,,,,OVC,500,,,,,,,IFR,,,,,,,,,,,,SPECI,1222.0
KMRT 211653Z AUTO 00000KT 1SM OVC012 M04/M06 A2991 RMK AO2 T10441065,KMRT,2015-02-21T16:53:00Z,40.22,-83.35,-4.4,-6.5,0,0,,1.0,29.911417,,,TRUE,TRUE,,,,,,,OVC,1200,,,,,,,IFR,,,,,,,,,,,,METAR,312.0
KMRB 211653Z 16010KT 1/4SM +SN VV009 M07/M11 A3025 RMK AO2 SLP254 P0000 T10721106,KMRB,2015-02-21T16:53:00Z,39.4,-77.98,-7.2,-10.6,160,10,,0.25,30.250984,1025.4,,,TRUE,,,,,,+SN,OVX,0,,,,,,,LIFR,,,,,,0.0050,,,,,900,SPECI,164.0
KMOX 211653Z AUTO 33018KT 5SM HZ SCT009 M14/M18 A3015 RMK AO2,KMOX,2015-02-21T16:53:00Z,45.57,-95.97,-14.0,-18.0,330,18,,5.0,30.15059,,,TRUE,TRUE,,,,,,HZ,SCT,900,,,,,,,MVFR,,,,,,,,,,,,SPECI,344.0
KMLS 211653Z AUTO 01006KT 8SM FEW017 BKN023 OVC034 M09/M13 A3028 RMK AO2 SLP291 T10891133,KMLS,2015-02-21T16:53:00Z,46.43,-105.88,-8.9,-13.3,10,6,,8.0,30.280512,1029.1,,TRUE,TRUE,,,,,,,FEW,1700,BKN,2300,OVC,3400,,,MVFR,,,,,,,,,,,,SPECI,801.0
KMJQ 211653Z AUTO 32020G23KT 10SM BKN010 M07/M12 A3003 RMK AO2,KMJQ,2015-02-21T16:53:00Z,43.63,-94.97,-7.0,-12.0,320,20,23,10.0,30.029528,,,TRUE,TRUE,,,,,,,BKN,1000,,,,,,,MVFR,,,,,,,,,,,,SPECI,441.0
KMIW 211653Z AUTO 32010KT 8SM OVC010 M03/M06 A2997 RMK AO2 SLP160 T10281056,KMIW,2015-02-21T16:53:00Z,42.12,-92.92,-2.8,-5.6,320,10,,8.0,29.970472,1016.0,,TRUE,TRUE,,,,,,,OVC,1000,,,,,,,MVFR,,,,,,,,,,,,SPECI,296.0
KMSN 211653Z 03004KT 8SM SCT020 BKN150 BKN250 M04/M09 A2993 RMK AO2 SLP148 T10391089,KMSN,2015-02-21T16:53:00Z,43.13,-89.35,-3.9,-8.9,30,4,,8.0,29.929134,1014.8,,,TRUE,,,,,,,SCT,2000,BKN,15000,BKN,25000,,,VFR,,,,,,,,,,,,METAR,261.0
KMSL 211653Z AUTO 19016G24KT 9SM -RA BKN030 BKN037 OVC060 10/07 A2994 RMK AO2 PK WND 18031/1632 RAE02B44 SLP140 P0000 T01000067,KMSL,2015-02-21T16:53:00Z,34.75,-87.6,10.0,6.7,190,16,24,9.0,29.940945,1014.0,,TRUE,TRUE,,,,,,-RA,BKN,3000,BKN,3700,OVC,6000,,,MVFR,,,,,,0.0050,,,,,,SPECI,164.0
TJNR 211653Z AUTO 07011G18KT 10SM -RA SCT027 BKN065 26/22 A3012 RMK AO2 RAB09E24B47 SLP200 P0000 T02610217 $,TJNR,2015-02-21T16:53:00Z,18.25,-65.63,26.1,21.7,70,11,18,10.0,30.121063,1020.0,,TRUE,TRUE,TRUE,,,,,-RA,SCT,2700,BKN,6500,,,,,VFR,,,,,,0.0050,,,,,,METAR,12.0
K6R3 211653Z AUTO 19013G20KT 4SM HZ 22/18 A2997 RMK AO2,K6R3,2015-02-21T16:53:00Z,30.35,-95.0,22.0,18.0,190,13,20,4.0,29.970472,,,TRUE,TRUE,,,,,,HZ,,,,,,,,,,,,,,,,,,,,,METAR,46.0
KRYT 211653Z AUTO VRB04KT 1/4SM +SN VV012 M09/M12 A3025 RMK AO2 SLP274 P0004 T10891122 $,KRYT,2015-02-21T16:53:00Z,39.73,-77.43,-8.9,-12.2,0,4,,0.25,30.250984,1027.4,,TRUE,TRUE,TRUE,,,,,+SN,OVX,0,,,,,,,LIFR,,,,,,0.04,,,,,1200,METAR,274.0
KONO 211653Z AUTO 04004KT 10SM OVC100 06/01 A3010 RMK AO2 SLP203 T00560006 $,KONO,2015-02-21T16:53:00Z,44.02,-117.02,5.6,0.6,40,4,,10.0,30.100393,1020.3,,TRUE,TRUE,TRUE,,,,,,OVC,10000,,,,,,,VFR,,,,,,,,,,,,SPECI,667.0
KOLF 211653Z AUTO 34015KT 8SM BKN034 OVC080 M09/M16 A3035 RMK AO2 SNB12E25 SLP313 P0000 T10891161,KOLF,2015-02-21T16:53:00Z,48.1,-105.58,-8.9,-16.1,340,15,,8.0,30.351377,1031.3,,TRUE,TRUE,,,,,,,BKN,3400,OVC,8000,,,,,VFR,,,,,,0.0050,,,,,,SPECI,604.0
KOGD 211653Z AUTO 00000KT 10SM SCT037 OVC060 03/M01 A2997 RMK AO2 SLP149 T00331006 TSNO,KOGD,2015-02-21T16:53:00Z,41.2,-112.02,3.3,-0.6,0,0,,10.0,29.970472,1014.9,,TRUE,TRUE,,,TRUE,,,,SCT,3700,OVC,6000,,,,,VFR,,,,,,,,,,,,SPECI,1353.0
KMWM 211653Z AUTO 31017G24KT 5SM -SN OVC013 M09/M12 A3005 RMK AO2,KMWM,2015-02-21T16:53:00Z,43.9,-95.1,-9.0,-12.0,310,17,24,5.0,30.050198,,,TRUE,TRUE,,,,,,-SN,OVC,1300,,,,,,,MVFR,,,,,,,,,,,,SPECI,430.0
KMVE 211653Z AUTO 01015G23KT 7SM OVC013 M11/M14 A3016 RMK AO2,KMVE,2015-02-21T16:53:00Z,44.97,-95.72,-11.0,-14.0,10,15,23,7.0,30.159449,,,TRUE,TRUE,,,,,,,OVC,1300,,,,,,,MVFR,,,,,,,,,,,,SPECI,315.0
KMTJ 211653Z AUTO 00000KT 10SM BKN110 02/M08 A2994 RMK AO2 SLP130 T00221083,KMTJ,2015-02-21T16:53:00Z,38.5,-107.9,2.2,-8.3,0,0,,10.0,29.940945,1013.0,,TRUE,TRUE,,,,,,,BKN,11000,,,,,,,VFR,,,,,,,,,,,,SPECI,1750.0
KMTH 211653Z AUTO 10012G22KT 10SM SCT036 BKN047 OVC060 22/14 A3023 RMK AO2 SLP235 T02170144,KMTH,2015-02-21T16:53:00Z,24.73,-81.05,21.7,14.4,100,12,22,10.0,30.230314,1023.5,,TRUE,TRUE,,,,,,,SCT,3600,BKN,4700,OVC,6000,,,VFR,,,,,,,,,,,,SPECI,2.0
KMSP 211653Z 32011KT 3SM -SN BKN016 OVC023 M08/M12 A3004 RMK AO2 SFC VIS 4 SLP189 P0001 T10831122,KMSP,2015-02-21T16:53:00Z,44.88,-93.23,-8.3,-12.2,320,11,,3.0,30.041338,1018.9,,,TRUE,,,,,,-SN,BKN,1600,OVC,2300,,,,,MVFR,,,,,,0.01,,,,,,SPECI,265.0
KMSO 211653Z 13017KT 10SM FEW050 BKN080 OVC100 M03/M07 A3027 RMK AO2 SLP281 T10281067,KMSO,2015-02-21T16:53:00Z,46.92,-114.1,-2.8,-6.7,130,17,,10.0,30.268702,1028.1,,,TRUE,,,,,,,FEW,5000,BKN,8000,OVC,10000,,,VFR,,,,,,,,,,,,METAR,975.0
KOPF 211653Z 12013G22KT 10SM SCT035 BKN044 BKN080 23/13 A3026 RMK AO2 SLP249 T02330133,KOPF,2015-02-21T16:53:00Z,25.92,-80.28,23.3,13.3,120,13,22,10.0,30.259842,1024.9,,,TRUE,,,,,,,SCT,3500,BKN,4400,BKN,8000,,,VFR,,,,,,,,,,,,SPECI,16.0
KORL 211653Z 15010G14KT 10SM OVC070 21/09 A3032 RMK AO2 SLP273 T02060094,KORL,2015-02-21T16:53:00Z,28.55,-81.33,20.6,9.4,150,10,14,10.0,30.318897,1027.3,,,TRUE,,,,,,,OVC,7000,,,,,,,VFR,,,,,,,,,,,,SPECI,37.0
KAPF 211653Z 10013KT 10SM FEW070 23/10 A3025 RMK AO2 SLP242 T02330100,KAPF,2015-02-21T16:53:00Z,26.15,-81.77,23.3,10.0,100,13,,10.0,30.250984,1024.2,,,TRUE,,,,,,,FEW,7000,,,,,,,VFR,,,,,,,,,,,,SPECI,3.0
KAPA 211653Z 08006KT 6SM -SN BR BKN016 BKN040 OVC047 M02/M03 A2993 RMK AO2 SNB15 SLP161 P0000 T10171028,KAPA,2015-02-21T16:53:00Z,39.57,-104.85,-1.7,-2.8,80,6,,6.0,29.929134,1016.1,,,TRUE,,,,,,-SN BR,BKN,1600,BKN,4000,OVC,4700,,,MVFR,,,,,,0.0050,,,,,,SPECI,1775.0
KAMW 211653Z AUTO 34012KT 10SM OVC014 M04/M08 A3001 RMK AO2 SLP172 T10441083,KAMW,2015-02-21T16:53:00Z,41.98,-93.62,-4.4,-8.3,340,12,,10.0,30.008858,1017.2,,TRUE,TRUE,,,,,,,OVC,1400,,,,,,,MVFR,,,,,,,,,,,,SPECI,279.0
KAKO 211653Z AUTO 03007KT 10SM FEW014 BKN055 OVC070 00/M02 A2998 RMK AO2 SLP172 T00001022,KAKO,2015-02-21T16:53:00Z,40.17,-103.22,0.0,-2.2,30,7,,10.0,29.97933,1017.2,,TRUE,TRUE,,,,,,,FEW,1400,BKN,5500,OVC,7000,,,VFR,,,,,,,,,,,,SPECI,1421.0
KAIA 211653Z AUTO 04015KT 10SM OVC011 M03/M06 A3002 RMK AO2 SLP193 T10331056,KAIA,2015-02-21T16:53:00Z,42.05,-102.8,-3.3,-5.6,40,15,,10.0,30.02067,1019.3,,TRUE,TRUE,,,,,,,OVC,1100,,,,,,,MVFR,,,,,,,,,,,,SPECI,1196.0
KAGC 211653Z 16007KT 1SM R28/4000VP6000FT SN FEW008 BKN015 OVC020 M03/M06 A2996 RMK AO2 SNE16B33 SLP173 P0000 T10331061,KAGC,2015-02-21T16:53:00Z,40.35,-79.92,-3.3,-6.1,160,7,,1.0,29.958662,1017.3,,,TRUE,,,,,,SN,FEW,800,BKN,1500,OVC,2000,,,IFR,,,,,,0.0050,,,,,,SPECI,389.0
KADG 211653Z AUTO 00000KT 1 1/4SM -SN BR BKN022 OVC034 M07/M09 A2996 RMK AO2 SLP161 P0000 T10671089 TSNO,KADG,2015-02-21T16:53:00Z,41.87,-84.08,-6.7,-8.9,0,0,,1.25,29.958662,1016.1,,TRUE,TRUE,,,TRUE,,,-SN BR,BKN,2200,OVC,3400,,,,,IFR,,,,,,0.0050,,,,,,SPECI,241.0
KABR 211653Z AUTO 01014KT 10SM SCT044 BKN060 OVC100 M12/M17 A3024 RMK AO2 SNE15 SLP264 P0000 T11221172,KABR,2015-02-21T16:53:00Z,45.45,-98.42,-12.2,-17.2,10,14,,10.0,30.239174,1026.4,,TRUE,TRUE,,,,,,,SCT,4400,BKN,6000,OVC,10000,,,VFR,,,,,,0.0050,,,,,,SPECI,397.0
K9MN 211653Z AUTO 31008KT 270V360 10SM OVC016 M06/M10 A2997 RMK AO1 T10571098,K9MN,2015-02-21T16:53:00Z,44.02,-92.48,-5.7,-9.8,310,8,,10.0,29.970472,,,TRUE,TRUE,,,,,,,OVC,1600,,,,,,,MVFR,,,,,,,,,,,,METAR,355.0
K04W 211653Z AUTO 35008KT 10SM CLR M10/M15 A3005 RMK AO2,K04W,2015-02-21T16:53:00Z,46.02,-92.9,-10.0,-15.0,350,8,,10.0,30.050198,,,TRUE,TRUE,,,,,,,CLR,,,,,,,,VFR,,,,,,,,,,,,SPECI,311.0
KFMY 211653Z 15011KT 10SM CLR 22/09 A3026 RMK AO2 SLP247 T02220089,KFMY,2015-02-21T16:53:00Z,26.58,-81.87,22.2,8.9,150,11,,10.0,30.259842,1024.7,,,TRUE,,,,,,,CLR,,,,,,,,VFR,,,,,,,,,,,,SPECI,4.0
KFLL 211653Z 12017G23KT 10SM SCT035 BKN045 BKN060 BKN250 22/14 A3026 RMK AO2 SLP246 T02170139,KFLL,2015-02-21T16:53:00Z,26.07,-80.15,21.7,13.9,120,17,23,10.0,30.259842,1024.6,,,TRUE,,,,,,,SCT,3500,BKN,4500,BKN,6000,BKN,25000,VFR,,,,,,,,,,,,METAR,3.0
KFLD 211653Z AUTO 04009KT 10SM CLR M06/M11 A2993 RMK AO2 SLP148 T10561111,KFLD,2015-02-21T16:53:00Z,43.77,-88.48,-5.6,-11.1,40,9,,10.0,29.929134,1014.8,,TRUE,TRUE,,,,,,,CLR,,,,,,,,VFR,,,,,,,,,,,,SPECI,240.0
KFFT 211653Z AUTO 18010G15KT 8SM UP OVC009 01/00 A2991 RMK AO2 UPB09E20B50RAB20E27SNE09B27E50 CIG 005V011 SLP134 P0005 T00110000,KFFT,2015-02-21T16:53:00Z,38.18,-84.9,1.1,0.0,180,10,15,8.0,29.911417,1013.4,,TRUE,TRUE,,,,,,UP,OVC,900,,,,,,,IFR,,,,,,0.05,,,,,,SPECI,236.0
KFCM 211653Z 34009KT 4SM HZ BKN022 OVC049 M08/M13 A3003 RMK AO2 SNE25B42E52 SLP185 P0000 T10781128,KFCM,2015-02-21T16:53:00Z,44.83,-93.47,-7.8,-12.8,340,9,,4.0,30.029528,1018.5,,,TRUE,,,,,,HZ,BKN,2200,OVC,4900,,,,,MVFR,,,,,,0.0050,,,,,,SPECI,280.0
KFAY 211653Z AUTO 11004KT 10SM OVC028 02/M04 A3038 RMK AO2 SLP286 T00221044,KFAY,2015-02-21T16:53:00Z,34.98,-78.88,2.2,-4.4,110,4,,10.0,30.380905,1028.6,,TRUE,TRUE,,,,,,,OVC,2800,,,,,,,MVFR,,,,,,,,,,,,SPECI,55.0
KFAR 211653Z 34019KT 8SM SCT010 OVC022 M18/M22 A3026 RMK AO2 SLP272 T11781217,KFAR,2015-02-21T16:53:00Z,46.93,-96.82,-17.8,-21.7,340,19,,8.0,30.259842,1027.2,,,TRUE,,,,,,,SCT,1000,OVC,2200,,,,,MVFR,,,,,,,,,,,,METAR,277.0
KEYW 211653Z 11015KT 10SM -RA FEW035 BKN060 OVC080 21/16 A3023 RMK AO2 RAE03B53 SLP235 P0000 T02110156 $,KEYW,2015-02-21T16:53:00Z,24.55,-81.75,21.1,15.6,110,15,,10.0,30.230314,1023.5,,,TRUE,TRUE,,,,,-RA,FEW,3500,BKN,6000,OVC,8000,,,VFR,,,,,,0.0050,,,,,,SPECI,5.0
KEYE 211653Z AUTO 00000KT 6SM BR BKN010 OVC075 M04/M06 A2991 RMK AO2 SNE26 SLP140 P0000 T10391056,KEYE,2015-02-21T16:53:00Z,39.83,-86.3,-3.9,-5.6,0,0,,6.0,29.911417,1014.0,,TRUE,TRUE,,,,,,BR,BKN,1000,OVC,7500,,,,,MVFR,,,,,,0.0050,,,,,,SPECI,248.0
KEVW 211653Z AUTO 23008KT 10SM SCT015 SCT048 OVC060 M02/M05 A2992 RMK AO2 SLP141 T10171050 $,KEVW,2015-02-21T16:53:00Z,41.27,-111.03,-1.7,-5.0,230,8,,10.0,29.920275,1014.1,,TRUE,TRUE,TRUE,,,,,,SCT,1500,SCT,4800,OVC,6000,,,VFR,,,,,,,,,,,,SPECI,2177.0
KENW 211653Z 33005KT 8SM OVC030 M04/M08 A2994 RMK AO2 SLP149 T10391083,KENW,2015-02-21T16:53:00Z,42.6,-87.93,-3.9,-8.3,330,5,,8.0,29.940945,1014.9,,,TRUE,,,,,,,OVC,3000,,,,,,,MVFR,,,,,,,,,,,,SPECI,219.0
KELY 211653Z AUTO VRB03KT 10SM CLR 03/M09 A2998 RMK AO2 SLP141 T00331089,KELY,2015-02-21T16:53:00Z,39.3,-114.85,3.3,-8.9,0,3,,10.0,29.97933,1014.1,,TRUE,TRUE,,,,,,,CLR,,,,,,,,VFR,,,,,,,,,,,,METAR,1906.0
KELO 211653Z AUTO 34007KT 10SM SCT020 M15/M20 A2999 RMK AO2,KELO,2015-02-21T16:53:00Z,47.82,-91.82,-15.0,-20.0,340,7,,10.0,29.991142,,,TRUE,TRUE,,,,,,,SCT,2000,,,,,,,VFR,,,,,,,,,,,,METAR,443.0
KEEO 211653Z AUTO 00000KT 10SM FEW036 SCT090 SCT120 M01/M03 A2991 RMK AO2 SNE1554 SLP143 P0000 T10061033 $,KEEO,2015-02-21T16:53:00Z,40.05,-107.88,-0.6,-3.3,0,0,,10.0,29.911417,1014.3,,TRUE,TRUE,TRUE,,,,,,FEW,3600,SCT,9000,SCT,12000,,,VFR,,,,,,0.0050,,,,,,METAR,1930.0
KDXX 211653Z AUTO 33017KT 10SM CLR M11/M15 A3017 RMK AO2,KDXX,2015-02-21T16:53:00Z,44.98,-96.18,-11.0,-15.0,330,17,,10.0,30.171259,,,TRUE,TRUE,,,,,,,CLR,,,,,,,,VFR,,,,,,,,,,,,METAR,330.0
KDVP 211653Z AUTO 33015KT 7SM SCT008 SCT013 M10/M13 A3007 RMK AO2 T11011135,KDVP,2015-02-21T16:53:00Z,43.98,-95.78,-10.1,-13.5,330,15,,7.0,30.070866,,,TRUE,TRUE,,,,,,,SCT,800,SCT,1300,,,,,VFR,,,,,,,,,,,,METAR,495.0
KDUJ 211653Z AUTO 13010KT 3/4SM -SN BR OVC016 M09/M12 A2996 RMK AO2 SLP184 P0000 T10941117,KDUJ,2015-02-21T16:53:00Z,41.17,-78.9,-9.4,-11.7,130,10,,0.75,29.958662,1018.4,,TRUE,TRUE,,,,,,-SN BR,OVC,1600,,,,,,,LIFR,,,,,,0.0050,,,,,,METAR,554.0
KDTW 211653Z 00000KT 1SM -SN BR VV017 M06/M08 A2997 RMK AO2 TWR VIS 2 SLP158 P0002 T10611083 RVRNO,KDTW,2015-02-21T16:53:00Z,42.23,-83.33,-6.1,-8.3,0,0,,1.0,29.970472,1015.8,,,TRUE,,,,,,-SN BR,OVX,0,,,,,,,LIFR,,,,,,0.02,,,,,1700,METAR,195.0
KDRO 211653Z AUTO 15004KT 10SM SCT100 01/M11 A2991 RMK AO2 SLP135 T00061106,KDRO,2015-02-21T16:53:00Z,37.15,-107.77,0.6,-10.6,150,4,,10.0,29.911417,1013.5,,TRUE,TRUE,,,,,,,SCT,10000,,,,,,,VFR,,,,,,,,,,,,METAR,2035.0
KDGW 211653Z AUTO 01010KT 10SM BKN018 BKN023 OVC055 M04/M08 A3005 RMK AO2 SNE47 SLP213 P0000 T10441083,KDGW,2015-02-21T16:53:00Z,42.8,-105.38,-4.4,-8.3,10,10,,10.0,30.050198,1021.3,,TRUE,TRUE,,,,,,,BKN,1800,BKN,2300,OVC,5500,,,MVFR,,,,,,0.0050,,,,,,METAR,1499.0
KDFI 211653Z AUTO 00000KT 1/2SM SN VV014 M05/M08 A2995 RMK AO2 SLP154 P0000 T10501078,KDFI,2015-02-21T16:53:00Z,41.33,-84.43,-5.0,-7.8,0,0,,0.5,29.949802,1015.4,,TRUE,TRUE,,,,,,SN,OVX,0,,,,,,,LIFR,,,,,,0.0050,,,,,1400,METAR,219.0
KDEN 211653Z 06007KT 10SM BKN007 OVC050 M01/M02 A2995 RMK AO2 SLP153 T10111022,KDEN,2015-02-21T16:53:00Z,39.85,-104.65,-1.1,-2.2,60,7,,10.0,29.949802,1015.3,,,TRUE,,,,,,,BKN,700,OVC,5000,,,,,IFR,,,,,,,,,,,,METAR,1640.0
KDCU 211653Z AUTO 18020G35KT 10SM -RA FEW038 BKN060 OVC080 09/05 A2999 RMK AO2 PK WND 17036/1637 RAB44 SLP159 P0000 T00890050,KDCU,2015-02-21T16:53:00Z,34.65,-86.95,8.9,5.0,180,20,35,10.0,29.991142,1015.9,,TRUE,TRUE,,,,,,-RA,FEW,3800,BKN,6000,OVC,8000,,,VFR,,,,,,0.0050,,,,,,METAR,176.0
KDBQ 211653Z 01009KT 6SM HZ FEW014 SCT021 OVC065 M03/M07 A2992 RMK AO2 SLP145 T10281067,KDBQ,2015-02-21T16:53:00Z,42.4,-90.7,-2.8,-6.7,10,9,,6.0,29.920275,1014.5,,,TRUE,,,,,,HZ,FEW,1400,SCT,2100,OVC,6500,,,VFR,,,,,,,,,,,,METAR,326.0
KDAN 211653Z AUTO 20004KT 10SM OVC022 M01/M10 A3036 RMK AO2 SLP283 T10111100,KDAN,2015-02-21T16:53:00Z,36.57,-79.33,-1.1,-10.0,200,4,,10.0,30.360237,1028.3,,TRUE,TRUE,,,,,,,OVC,2200,,,,,,,MVFR,,,,,,,,,,,,METAR,175.0
KD95 211653Z AUTO 28005KT 10SM OVC014 M07/M11 A2995 RMK AO2 T10731107,KD95,2015-02-21T16:53:00Z,43.07,-83.27,-7.3,-10.7,280,5,,10.0,29.949802,,,TRUE,TRUE,,,,,,,OVC,1400,,,,,,,MVFR,,,,,,,,,,,,METAR,255.0
KCPR 211653Z 1 1/2SM R03/5500VP6000FT -SN OVC020 M06/M08 A3003 RMK AO2 SLP206 P0000 T10561083,KCPR,2015-02-21T16:53:00Z,42.9,-106.47,-5.6,-8.3,,,,1.5,30.029528,1020.6,,,TRUE,,,,,,-SN,OVC,2000,,,,,,,IFR,,,,,,0.0050,,,,,,METAR,1621.0
KCMI 211653Z 00000KT 9SM CLR M04/M07 A2993 RMK AO2 SNE23 SLP145 P0000 T10441067,KCMI,2015-02-21T16:53:00Z,40.03,-88.27,-4.4,-6.7,0,0,,9.0,29.929134,1014.5,,,TRUE,,,,,,,CLR,,,,,,,,VFR,,,,,,0.0050,,,,,,METAR,228.0
KCKB 211653Z 20005KT 6SM -RA BR OVC017 02/01 A3000 RMK AO2 SLP172 P0003 T00220011,KCKB,2015-02-21T16:53:00Z,39.3,-80.22,2.2,1.1,200,5,,6.0,30.0,1017.2,,,TRUE,,,,,,-RA BR,OVC,1700,,,,,,,MVFR,,,,,,0.03,,,,,,METAR,360.0
KCEZ 211653Z AUTO 00000KT 10SM BKN110 02/M11 A2993 RMK AO2 SLP135 T00171111,KCEZ,2015-02-21T16:53:00Z,37.3,-108.63,1.7,-11.1,0,0,,10.0,29.929134,1013.5,,TRUE,TRUE,,,,,,,BKN,11000,,,,,,,VFR,,,,,,,,,,,,METAR,1797.0
KCDC 211653Z AUTO 05004KT 10SM SCT095 BKN110 03/M09 A2997 RMK AO2 SLP144 T00281089,KCDC,2015-02-21T16:53:00Z,37.7,-113.1,2.8,-8.9,50,4,,10.0,29.970472,1014.4,,TRUE,TRUE,,,,,,,SCT,9500,BKN,11000,,,,,VFR,,,,,,,,,,,,METAR,1714.0
KCAG 211653Z AUTO 00000KT 10SM FEW008 BKN036 OVC046 M01/M03 A2992 RMK AO2 SNE42 SLP156 P0000 T10111033 $,KCAG,2015-02-21T16:53:00Z,40.5,-107.52,-1.1,-3.3,0,0,,10.0,29.920275,1015.6,,TRUE,TRUE,TRUE,,,,,,FEW,800,BKN,3600,OVC,4600,,,VFR,,,,,,0.0050,,,,,,METAR,1887.0
KBYI 211653Z AUTO VRB06KT 10SM OVC014 01/M03 A3000 RMK AO2 SLP168 T00111028,KBYI,2015-02-21T16:53:00Z,42.55,-113.77,1.1,-2.8,0,6,,10.0,30.0,1016.8,,TRUE,TRUE,,,,,,,OVC,1400,,,,,,,MVFR,,,,,,,,,,,,METAR,1264.0
KBYG 211653Z AUTO 35027G33KT 1/2SM SN FZFG VV009 M08/M09 A3008 RMK AO2 PK WND 36034/1609 UPB1554E1556SNB1556 SLP228 P0000 T10781094 $,KBYG,2015-02-21T16:53:00Z,44.38,-106.72,-7.8,-9.4,350,27,33,0.5,30.079725,1022.8,,TRUE,TRUE,TRUE,,,,,SN FZFG,OVX,0,,,,,,,LIFR,,,,,,0.0050,,,,,900,METAR,1497.0
KBTM 211653Z AUTO 01007KT 4SM -SN OVC036 M08/M12 A3014 RMK AO2 SLP259 P0000 T10781117,KBTM,2015-02-21T16:53:00Z,45.97,-112.5,-7.8,-11.7,10,7,,4.0,30.138779,1025.9,,TRUE,TRUE,,,,,,-SN,OVC,3600,,,,,,,MVFR,,,,,,0.0050,,,,,,METAR,1688.0
KBTL 211653Z 00000KT 10SM OVC035 M06/M09 A2995 RMK AO2 SLP157 T10561094,KBTL,2015-02-21T16:53:00Z,42.32,-85.23,-5.6,-9.4,0,0,,10.0,29.949802,1015.7,,,TRUE,,,,,,,OVC,3500,,,,,,,VFR,,,,,,,,,,,,METAR,290.0
KBRD 211653Z AUTO 36013KT 10SM CLR M13/M18 A3008 RMK AO2 SLP213 T11331183 $,KBRD,2015-02-21T16:53:00Z,46.4,-94.13,-13.3,-18.3,360,13,,10.0,30.079725,1021.3,,TRUE,TRUE,TRUE,,,,,,CLR,,,,,,,,VFR,,,,,,,,,,,,METAR,372.0
KBPK 211653Z AUTO 00000KT 8SM BKN042 OVC075 00/ A2992 RMK AO2 SLP139 T0000 $,KBPK,2015-02-21T16:53:00Z,36.37,-92.47,0.0,,0,0,,8.0,29.920275,1013.9,,TRUE,TRUE,TRUE,,,,,,BKN,4200,OVC,7500,,,,,VFR,,,,,,,,,,,,METAR,280.0
KBPI 211653Z AUTO 17005KT 10SM FEW047 M03/M09 A2990 RMK AO2 SLP145 T10331089,KBPI,2015-02-21T16:53:00Z,42.58,-110.1,-3.3,-8.9,170,5,,10.0,29.899607,1014.5,,TRUE,TRUE,,,,,,,FEW,4700,,,,,,,VFR,,,,,,,,,,,,METAR,2117.0
KBOI 211653Z 00000KT 10SM SCT120 02/M01 A3006 RMK AO2 SLP187 T00221011,KBOI,2015-02-21T16:53:00Z,43.57,-116.23,2.2,-1.1,0,0,,10.0,30.059055,1018.7,,,TRUE,,,,,,,SCT,12000,,,,,,,VFR,,,,,,,,,,,,METAR,875.0
KBKV 211653Z 13011G19KT 10SM CLR 22/07 A3031 RMK AO2 SLP261 T02170067,KBKV,2015-02-21T16:53:00Z,28.47,-82.45,21.7,6.7,130,11,19,10.0,30.31004,1026.1,,,TRUE,,,,,,,CLR,,,,,,,,VFR,,,,,,,,,,,,METAR,20.0
KBKL 211653Z 18005KT 10SM BKN018 OVC034 M03/M07 A2995 RMK AO2 SNE00 SLP152 P0005 T10331067,KBKL,2015-02-21T16:53:00Z,41.53,-81.67,-3.3,-6.7,180,5,,10.0,29.949802,1015.2,,,TRUE,,,,,,,BKN,1800,OVC,3400,,,,,MVFR,,,,,,0.05,,,,,,METAR,184.0
KYKM 211653Z 28005KT 10SM BKN075 06/M01 A3024 RMK AO2 SLP247 T00611006,KYKM,2015-02-21T16:53:00Z,46.57,-120.53,6.1,-0.6,280,5,,10.0,30.239174,1024.7,,,TRUE,,,,,,,BKN,7500,,,,,,,VFR,,,,,,,,,,,,METAR,324.0
KWVI 211653Z AUTO 08003KT 10SM CLR 12/08 A2998 RMK AO2 SLP152 T01170083,KWVI,2015-02-21T16:53:00Z,36.93,-121.78,11.7,8.3,80,3,,10.0,29.97933,1015.2,,TRUE,TRUE,,,,,,,CLR,,,,,,,,VFR,,,,,,,,,,,,METAR,43.0
KWST 211653Z AUTO 20008KT 10SM CLR M03/M09 A3048 RMK AO2 SLP322 T10331094,KWST,2015-02-21T16:53:00Z,41.35,-71.8,-3.3,-9.4,200,8,,10.0,30.481298,1032.2,,TRUE,TRUE,,,,,,,CLR,,,,,,,,VFR,,,,,,,,,,,,METAR,21.0
KVUO 211653Z AUTO 13004KT 10SM BKN017 06/04 A3026 RMK AO2 SLP249 T00610044,KVUO,2015-02-21T16:53:00Z,45.62,-122.65,6.1,4.4,130,4,,10.0,30.259842,1024.9,,TRUE,TRUE,,,,,,,BKN,1700,,,,,,,MVFR,,,,,,,,,,,,METAR,8.0
KVPC 211653Z AUTO 10006KT 10SM OVC080 04/M06 A3022 RMK AO2 SLP233 T00441061,KVPC,2015-02-21T16:53:00Z,34.13,-84.85,4.4,-6.1,100,6,,10.0,30.221457,1023.3,,TRUE,TRUE,,,,,,,OVC,8000,,,,,,,VFR,,,,,,,,,,,,METAR,222.0
KVLD 211653Z 18013G24KT 10SM CLR 17/06 A3031 RMK AO2 SLP273 T01720056,KVLD,2015-02-21T16:53:00Z,30.78,-83.27,17.2,5.6,180,13,24,10.0,30.31004,1027.3,,,TRUE,,,,,,,CLR,,,,,,,,VFR,,,,,,,,,,,,METAR,62.0
KVIH 211653Z AUTO 33005KT 4SM BR OVC003 M01/M02 A2993 RMK AO2 SLP146 T10061017,KVIH,2015-02-21T16:53:00Z,38.13,-91.77,-0.6,-1.7,330,5,,4.0,29.929134,1014.6,,TRUE,TRUE,,,,,,BR,OVC,300,,,,,,,LIFR,,,,,,,,,,,,METAR,333.0
KVGT 211653Z 32005KT 10SM CLR 16/M10 A2993 RMK AO2 SLP142 T01561100,KVGT,2015-02-21T16:53:00Z,36.22,-115.2,15.6,-10.0,320,5,,10.0,29.929134,1014.2,,,TRUE,,,,,,,CLR,,,,,,,,VFR,,,,,,,,,,,,METAR,671.0
KVCB 211653Z AUTO 05003KT 3SM BR OVC004 09/08 A3000 RMK AO2 SLP158 T00940078,KVCB,2015-02-21T16:53:00Z,38.38,-121.95,9.4,7.8,50,3,,3.0,30.0,1015.8,,TRUE,TRUE,,,,,,BR,OVC,400,,,,,,,LIFR,,,,,,,,,,,,METAR,33.0
KUUU 211653Z AUTO 21009G18KT 10SM CLR M03/M09 A3045 RMK AO2 SLP311 T10281089,KUUU,2015-02-21T16:53:00Z,41.53,-71.28,-2.8,-8.9,210,9,18,10.0,30.448818,1031.1,,TRUE,TRUE,,,,,,,CLR,,,,,,,,VFR,,,,,,,,,,,,METAR,51.0
KUTS 211653Z AUTO 19014G22KT 10SM BKN020 OVC027 21/17 A2992 RMK AO2 SLP128 T02110167,KUTS,2015-02-21T16:53:00Z,30.75,-95.58,21.1,16.7,190,14,22,10.0,29.920275,1012.8,,TRUE,TRUE,,,,,,,BKN,2000,OVC,2700,,,,,MVFR,,,,,,,,,,,,METAR,104.0
KUNO 211653Z AUTO 01004KT 10SM OVC008 01/M01 A2992 RMK AO2 UPE11RAB11E12 SLP140 P0000 T00061011,KUNO,2015-02-21T16:53:00Z,36.88,-91.9,0.6,-1.1,10,4,,10.0,29.920275,1014.0,,TRUE,TRUE,,,,,,,OVC,800,,,,,,,IFR,,,,,,0.0050,,,,,,METAR,372.0
KUIL 211653Z AUTO 05003KT 7SM CLR 06/04 A3033 RMK AO2 SLP271 T00610044 $,KUIL,2015-02-21T16:53:00Z,47.93,-124.55,6.1,4.4,50,3,,7.0,30.33071,1027.1,,TRUE,TRUE,TRUE,,,,,,CLR,,,,,,,,VFR,,,,,,,,,,,,METAR,54.0
KTYS 211653Z 04005KT 3SM -SN OVC060 00/M02 A3008 RMK AO2 SLP195 P0000 T00001017 $,KTYS,2015-02-21T16:53:00Z,35.82,-83.98,0.0,-1.7,40,5,,3.0,30.079725,1019.5,,,TRUE,TRUE,,,,,-SN,OVC,6000,,,,,,,MVFR,,,,,,0.0050,,,,,,METAR,302.0
KTYR 211653Z 21016KT 10SM SCT023 BKN036 BKN045 21/16 A2986 RMK AO2 SLP107 T02060156,KTYR,2015-02-21T16:53:00Z,32.37,-95.4,20.6,15.6,210,16,,10.0,29.861221,1010.7,,,TRUE,,,,,,,SCT,2300,BKN,3600,BKN,4500,,,VFR,,,,,,,,,,,,METAR,165.0
KTXK 211653Z 22018G25KT 10SM OVC023 20/16 A2981 RMK AO2 PK WND 23029/1637 SLP092 T02000156,KTXK,2015-02-21T16:53:00Z,33.45,-93.98,20.0,15.6,220,18,25,10.0,29.811024,1009.2,,,TRUE,,,,,,,OVC,2300,,,,,,,MVFR,,,,,,,,,,,,METAR,111.0
KTVL 211653Z AUTO 16003KT 10SM CLR 03/M04 A3002 RMK AO2 SLP157 T00281039,KTVL,2015-02-21T16:53:00Z,38.9,-120.0,2.8,-3.9,160,3,,10.0,30.02067,1015.7,,TRUE,TRUE,,,,,,,CLR,,,,,,,,VFR,,,,,,,,,,,,METAR,1924.0
KTUS 211653Z 13006KT 10SM CLR 18/02 A2998 RMK AO2 SLP122 T01830022,KTUS,2015-02-21T16:53:00Z,32.13,-110.95,18.3,2.2,130,6,,10.0,29.97933,1012.2,,,TRUE,,,,,,,CLR,,,,,,,,VFR,,,,,,,,,,,,METAR,776.0
KTUL 211653Z 36009KT 10SM BKN011 05/03 A3000 RMK AO2 SLP160 T00500033,KTUL,2015-02-21T16:53:00Z,36.2,-95.88,5.0,3.3,360,9,,10.0,30.0,1016.0,,,TRUE,,,,,,,BKN,1100,,,,,,,MVFR,,,,,,,,,,,,METAR,207.0
KTTN 211653Z 21011KT 10SM OVC065 M04/M13 A3042 RMK AO2 SLP300 T10391128,KTTN,2015-02-21T16:53:00Z,40.28,-74.82,-3.9,-12.8,210,11,,10.0,30.41929,1030.0,,,TRUE,,,,,,,OVC,6500,,,,,,,VFR,,,,,,,,,,,,METAR,59.0
KTTD 211653Z 06003KT 10SM OVC007 06/04 A3026 RMK AO2 SLP247 T00610039,KTTD,2015-02-21T16:53:00Z,45.55,-122.42,6.1,3.9,60,3,,10.0,30.259842,1024.7,,,TRUE,,,,,,,OVC,700,,,,,,,IFR,,,,,,,,,,,,METAR,14.0
KTRL 211653Z AUTO 32011KT 10SM FEW014 12/07 A2992 RMK AO2 SLP129 T01170067,KTRL,2015-02-21T16:53:00Z,32.72,-96.27,11.7,6.7,320,11,,10.0,29.920275,1012.9,,TRUE,TRUE,,,,,,,FEW,1400,,,,,,,VFR,,,,,,,,,,,,METAR,145.0
KTRI 211653Z 01003KT 10SM OVC055 02/M02 A3009 RMK AO2 SLP195 T00221022,KTRI,2015-02-21T16:53:00Z,36.48,-82.4,2.2,-2.2,10,3,,10.0,30.088583,1019.5,,,TRUE,,,,,,,OVC,5500,,,,,,,VFR,,,,,,,,,,,,METAR,474.0
KTOP 211653Z AUTO 03009KT 10SM CLR 07/02 A3001 RMK AO2 SLP165 T00720017,KTOP,2015-02-21T16:53:00Z,39.07,-95.63,7.2,1.7,30,9,,10.0,30.008858,1016.5,,TRUE,TRUE,,,,,,,CLR,,,,,,,,VFR,,,,,,,,,,,,METAR,268.0
KTOI 211653Z AUTO 19009G21KT 160V220 10SM OVC110 16/07 A3020 RMK AO2 SLP224 T01560072,KTOI,2015-02-21T16:53:00Z,31.85,-86.02,15.6,7.2,190,9,21,10.0,30.200787,1022.4,,TRUE,TRUE,,,,,,,OVC,11000,,,,,,,VFR,,,,,,,,,,,,SPECI,118.0
KTLH 211653Z 17016G22KT 10SM FEW200 18/07 A3029 RMK AO2 PK WND 17026/1625 SLP256 T01830067 $,KTLH,2015-02-21T16:53:00Z,30.4,-84.35,18.3,6.7,170,16,22,10.0,30.28937,1025.6,,,TRUE,TRUE,,,,,,FEW,20000,,,,,,,VFR,,,,,,,,,,,,METAR,19.0
PAYA 211653Z 10006KT 7SM -RA OVC040 05/02 A3033 RMK AO2 SLP269 P0005 T00500017,PAYA,2015-02-21T16:53:00Z,59.52,-139.67,5.0,1.7,100,6,,7.0,30.33071,1026.9,,,TRUE,,,,,,-RA,OVC,4000,,,,,,,VFR,,,,,,0.05,,,,,,METAR,11.0
PAWD 211653Z AUTO 32004KT 10SM -RA FEW050 OVC060 03/02 A2995 RMK AO2 RAB42 SLP142 P0000 T00280022 TSNO $,PAWD,2015-02-21T16:53:00Z,60.12,-149.42,2.8,2.2,320,4,,10.0,29.949802,1014.2,,TRUE,TRUE,TRUE,,TRUE,,,-RA,FEW,5000,OVC,6000,,,,,VFR,,,,,,0.0050,,,,,,METAR,23.0
PAVL 211653Z AUTO 02017KT 10SM OVC060 M03/M06 A2983 RMK AO2 SLP100 T10331056 TSNO,PAVL,2015-02-21T16:53:00Z,67.73,-164.55,-3.3,-5.6,20,17,,10.0,29.828741,1010.0,,TRUE,TRUE,,,TRUE,,,,OVC,6000,,,,,,,VFR,,,,,,,,,,,,METAR,3.0
PATO 211653Z AUTO 13013G25KT 3SM -RA BR OVC024 02/01 RMK AO2 PK WND 12028/1640 SLPNO P0008 T00220011 TSNO $,PATO,2015-02-21T16:53:00Z,60.78,-148.85,2.2,1.1,130,13,25,3.0,,,,TRUE,TRUE,TRUE,,TRUE,,,-RA BR,OVC,2400,,,,,,,MVFR,,,,,,0.08,,,,,,METAR,31.0
PATK 211653Z AUTO 02007G15KT 10SM -RA BKN049 OVC080 02/M02 A2998 RMK AO2 UPB11E16RAB16 SLP159 P0000 T00171022 TSNO,PATK,2015-02-21T16:53:00Z,62.3,-150.1,1.7,-2.2,20,7,15,10.0,29.97933,1015.9,,TRUE,TRUE,,,TRUE,,,-RA,BKN,4900,OVC,8000,,,,,VFR,,,,,,0.0050,,,,,,METAR,109.0
PASO 211653Z AUTO 00000KT 10SM BKN050 OVC070 04/04 A2979 RMK AO2 SLP087 T00390039 TSNO,PASO,2015-02-21T16:53:00Z,59.45,-151.7,3.9,3.9,0,0,,10.0,29.790354,1008.7,,TRUE,TRUE,,,TRUE,,,,BKN,5000,OVC,7000,,,,,VFR,,,,,,,,,,,,METAR,9.0
PASI 211653Z 33008KT 10SM BKN180 03/02 A3038 RMK AO2 SLP286 T00280017,PASI,2015-02-21T16:53:00Z,57.07,-135.35,2.8,1.7,330,8,,10.0,30.380905,1028.6,,,TRUE,,,,,,,BKN,18000,,,,,,,VFR,,,,,,,,,,,,METAR,5.0
PASC 211653Z 06016KT 1 1/4SM R05/3500V5500FT -SN BR OVC004 M13/M15 A3014 RMK AO2 SLP207 P0000 T11281150,PASC,2015-02-21T16:53:00Z,70.2,-148.47,-12.8,-15.0,60,16,,1.25,30.138779,1020.7,,,TRUE,,,,,,-SN BR,OVC,400,,,,,,,LIFR,,,,,,0.0050,,,,,,SPECI,15.0
PAPB 211653Z AUTO 00000KT 9SM BKN046 OVC065 00/00 A2907 RMK AO2 UPB1554E1556SNE1554 SLP832 P0001 T00000000 TSNO,PAPB,2015-02-21T16:53:00Z,56.58,-169.67,0.0,0.0,0,0,,9.0,29.069881,983.2,,TRUE,TRUE,,,TRUE,,,,BKN,4600,OVC,6500,,,,,VFR,,,,,,0.01,,,,,,METAR,35.0
PAOT 211653Z 08017KT 10SM SCT100 BKN150 M01/M04 A2978 RMK AO2 SLP085 T10111044,PAOT,2015-02-21T16:53:00Z,66.87,-162.58,-1.1,-4.4,80,17,,10.0,29.778543,1008.5,,,TRUE,,,,,,,SCT,10000,BKN,15000,,,,,VFR,,,,,,,,,,,,METAR,3.0
PAOR 211653Z 00000KT 10SM FEW070 BKN110 M08/M10 A3009 RMK AO2 SLP234 T10781100,PAOR,2015-02-21T16:53:00Z,62.97,-141.93,-7.8,-10.0,0,0,,10.0,30.088583,1023.4,,,TRUE,,,,,,,FEW,7000,BKN,11000,,,,,VFR,,,,,,,,,,,,METAR,523.0
PANT 211653Z 00000KT 10SM SCT150 BKN200 01/01 A3048 RMK AO2 SLP325 T00060006,PANT,2015-02-21T16:53:00Z,55.03,-131.57,0.6,0.6,0,0,,10.0,30.481298,1032.5,,,TRUE,,,,,,,SCT,15000,BKN,20000,,,,,VFR,,,,,,,,,,,,METAR,36.0
PANN 211653Z AUTO 08015KT 10SM OVC110 01/M07 A2980 RMK AO2 SLP100 T00111072 TSNO $,PANN,2015-02-21T16:53:00Z,64.55,-149.08,1.1,-7.2,80,15,,10.0,29.799213,1010.0,,TRUE,TRUE,TRUE,,TRUE,,,,OVC,11000,,,,,,,VFR,,,,,,,,,,,,METAR,110.0
PANC 211653Z VRB03KT 10SM -RA SCT035 OVC060 02/M02 A2993 RMK AO2 RAE27B52SNE01 SLP137 P0000 T00171022,PANC,2015-02-21T16:53:00Z,61.17,-150.02,1.7,-2.2,0,3,,10.0,29.929134,1013.7,,,TRUE,,,,,,-RA,SCT,3500,OVC,6000,,,,,VFR,,,,,,0.0050,,,,,,METAR,38.0
PAMR 211653Z 01006KT 10SM -RA OVC070 02/M03 A2993 RMK AO2 SLP138 P0000 T00171028,PAMR,2015-02-21T16:53:00Z,61.22,-149.85,1.7,-2.8,10,6,,10.0,29.929134,1013.8,,,TRUE,,,,,,-RA,OVC,7000,,,,,,,VFR,,,,,,0.0050,,,,,,METAR,41.0
PAMC 211653Z 00000KT 10SM FEW050 BKN080 BKN110 01/M04 A2969 RMK AO2 RAE01 SLP060 P0000 T00061044,PAMC,2015-02-21T16:53:00Z,62.97,-155.62,0.6,-4.4,0,0,,10.0,29.68996,1006.0,,,TRUE,,,,,,,FEW,5000,BKN,8000,BKN,11000,,,VFR,,,,,,0.0050,,,,,,METAR,103.0
PALH 211653Z VRB03KT 10SM OVC070 02/M03 A2995 RMK AO2 RAE12 SLP141 P0000 T00171028,PALH,2015-02-21T16:53:00Z,61.18,-149.97,1.7,-2.8,0,3,,10.0,29.949802,1014.1,,,TRUE,,,,,,,OVC,7000,,,,,,,VFR,,,,,,0.0050,,,,,,METAR,22.0
PAKW 211653Z AUTO 03004KT 10SM CLR 00/M01 A3044 RMK AO2 SLP309 T00001011 TSNO,PAKW,2015-02-21T16:53:00Z,55.58,-133.07,0.0,-1.1,30,4,,10.0,30.43996,1030.9,,TRUE,TRUE,,,TRUE,,,,CLR,,,,,,,,VFR,,,,,,,,,,,,METAR,15.0
PAKT 211653Z 00000KT 10SM FEW004 01/M01 A3050 RMK AO2 SLP329 T00061006,PAKT,2015-02-21T16:53:00Z,55.35,-131.7,0.6,-0.6,0,0,,10.0,30.499016,1032.9,,,TRUE,,,,,,,FEW,400,,,,,,,VFR,,,,,,,,,,,,METAR,28.0
PAIL 211653Z VRB04KT 10SM OVC043 06/01 A2970 RMK AO2 PRESRR SLP058 T00610011,PAIL,2015-02-21T16:53:00Z,59.75,-154.92,6.1,1.1,0,4,,10.0,29.698818,1005.8,,,TRUE,,,,,,,OVC,4300,,,,,,,VFR,,,,,,,,,,,,METAR,49.0
PAHO 211653Z AUTO 15003KT 10SM OVC060 09/02 A2980 RMK AO2 SLP091 T00890017 TSNO,PAHO,2015-02-21T16:53:00Z,59.63,-151.5,8.9,1.7,150,3,,10.0,29.799213,1009.1,,TRUE,TRUE,,,TRUE,,,,OVC,6000,,,,,,,VFR,,,,,,,,,,,,METAR,28.0
PAGY 211653Z AUTO 00000KT 7SM CLR M01/M03 A3047 RMK AO2 SLP317 T10111028 TSNO,PAGY,2015-02-21T16:53:00Z,59.47,-135.3,-1.1,-2.8,0,0,,7.0,30.469488,1031.7,,TRUE,TRUE,,,TRUE,,,,CLR,,,,,,,,VFR,,,,,,,,,,,,METAR,5.0
PAGK 211653Z AUTO 04003KT 10SM OVC065 M06/M09 A3006 RMK AO2 SLP217 T10611089 TSNO,PAGK,2015-02-21T16:53:00Z,62.15,-145.45,-6.1,-8.9,40,3,,10.0,30.059055,1021.7,,TRUE,TRUE,,,TRUE,,,,OVC,6500,,,,,,,VFR,,,,,,,,,,,,METAR,481.0
PAFA 211653Z 02004KT 10SM FEW120 SCT200 M09/M12 A2984 RMK AO2 SLP118 T10891122,PAFA,2015-02-21T16:53:00Z,64.8,-147.88,-8.9,-12.2,20,4,,10.0,29.840551,1011.8,,,TRUE,,,,,,,FEW,12000,SCT,20000,,,,,VFR,,,,,,,,,,,,METAR,132.0
PAEN 211653Z 01018KT 10SM OVC070 01/M01 A2989 RMK AO2 SLP122 T00111006,PAEN,2015-02-21T16:53:00Z,60.57,-151.25,1.1,-0.6,10,18,,10.0,29.890747,1012.2,,,TRUE,,,,,,,OVC,7000,,,,,,,VFR,,,,,,,,,,,,METAR,27.0
PAEG 211653Z AUTO 14006KT 10SM BKN080 00/M06 A3012 RMK AO2 SLP211 T00001061 TSNO,PAEG,2015-02-21T16:53:00Z,64.78,-141.15,0.0,-6.1,140,6,,10.0,30.121063,1021.1,,TRUE,TRUE,,,TRUE,,,,BKN,8000,,,,,,,VFR,,,,,,,,,,,,METAR,268.0
PADQ 211653Z 03006KT 5SM BR FEW007 BKN019 BKN044 05/04 A2971 RMK AO2 SLP062 T00500044,PADQ,2015-02-21T16:53:00Z,57.75,-152.5,5.0,4.4,30,6,,5.0,29.71063,1006.2,,,TRUE,,,,,,BR,FEW,700,BKN,1900,BKN,4400,,,MVFR,,,,,,,,,,,,METAR,34.0
PADE 211653Z AUTO 06015KT 10SM BKN095 OVC120 00/M07 A2972 RMK AO2 SLP063 T00001072 FZRANO TSNO $,PADE,2015-02-21T16:53:00Z,66.07,-162.77,0.0,-7.2,60,15,,10.0,29.719488,1006.3,,TRUE,TRUE,TRUE,,TRUE,TRUE,,,BKN,9500,OVC,12000,,,,,VFR,,,,,,,,,,,,METAR,5.0
PACV 211653Z 10009G22KT 9SM -RA OVC033 06/03 A3010 RMK AO2 SLP192 P0007 T00610033,PACV,2015-02-21T16:53:00Z,60.5,-145.5,6.1,3.3,100,9,22,9.0,30.100393,1019.2,,,TRUE,,,,,,-RA,OVC,3300,,,,,,,VFR,,,,,,0.07,,,,,,METAR,12.0
PABT 211653Z 01009KT 10SM FEW080 SCT120 BKN200 M07/M11 A2996 RMK AO2 SLP162 T10671111 PNO,PABT,2015-02-21T16:53:00Z,66.92,-151.52,-6.7,-11.1,10,9,,10.0,29.958662,1016.2,,,TRUE,,,,,,,FEW,8000,SCT,12000,BKN,20000,,,VFR,,,,,,,,,,,,METAR,195.0
PABR 211653Z 03011KT 4SM -SN BR OVC024 M18/M20 A3023 RMK AO2 SLP240 P0000 T11781200,PABR,2015-02-21T16:53:00Z,71.28,-156.8,-17.8,-20.0,30,11,,4.0,30.230314,1024.0,,,TRUE,,,,,,-SN BR,OVC,2400,,,,,,,MVFR,,,,,,0.0050,,,,,,METAR,7.0
PABI 211653Z 11024G32KT 10SM BKN130 OVC180 M02/M08 A2988 RMK AO2 PK WND 12036/1626 SLP146 BLSN VC ALQDS T10221078,PABI,2015-02-21T16:53:00Z,64.0,-145.73,-2.2,-7.8,110,24,32,10.0,29.878937,1014.6,,,TRUE,,,,,,,BKN,13000,OVC,18000,,,,,VFR,,,,,,,,,,,,METAR,386.0
PABE 211653Z 10014KT 10SM BKN055 BKN095 05/M01 A2937 RMK AO2 SLP946 T00501006,PABE,2015-02-21T16:53:00Z,60.78,-161.85,5.0,-0.6,100,14,,10.0,29.371063,994.6,,,TRUE,,,,,,,BKN,5500,BKN,9500,,,,,VFR,,,,,,,,,,,,METAR,41.0
PAAQ 211653Z VRB05KT 10SM OVC085 03/M05 A2993 RMK AO2 SLP138 T00281050,PAAQ,2015-02-21T16:53:00Z,61.6,-149.08,2.8,-5.0,0,5,,10.0,29.929134,1013.8,,,TRUE,,,,,,,OVC,8500,,,,,,,VFR,,,,,,,,,,,,METAR,73.0
PHJR 211653Z VRB04KT 10SM CLR 19/14 A3000 RMK AO2 SLP165 T01890139,PHJR,2015-02-21T16:53:00Z,21.32,-158.07,18.9,13.9,0,4,,10.0,30.0,1016.5,,,TRUE,,,,,,,CLR,,,,,,,,VFR,,,,,,,,,,,,METAR,15.0
PHLI 211653Z AUTO 31006KT 10SM FEW038 16/12 A3002 RMK AO2 SLP162 T01610117 TSNO,PHLI,2015-02-21T16:53:00Z,21.97,-159.33,16.1,11.7,310,6,,10.0,30.02067,1016.2,,TRUE,TRUE,,,TRUE,,,,FEW,3800,,,,,,,VFR,,,,,,,,,,,,METAR,45.0
PHKO 211653Z 00000KT 10SM CLR 22/17 A2995 RMK AO2 SLP143 T02170167,PHKO,2015-02-21T16:53:00Z,19.73,-156.05,21.7,16.7,0,0,,10.0,29.949802,1014.3,,,TRUE,,,,,,,CLR,,,,,,,,VFR,,,,,,,,,,,,METAR,27.0
PHNL 211653Z 32005KT 10SM FEW034 18/15 A2999 RMK AO2 SLP155 T01830150,PHNL,2015-02-21T16:53:00Z,21.33,-157.92,18.3,15.0,320,5,,10.0,29.991142,1015.5,,,TRUE,,,,,,,FEW,3400,,,,,,,VFR,,,,,,,,,,,,METAR,4.0
KTKI 211653Z 33015KT 10SM OVC016 09/04 A2995 RMK AO2 SLP147 T00890044,KTKI,2015-02-21T16:53:00Z,33.18,-96.58,8.9,4.4,330,15,,10.0,29.949802,1014.7,,,TRUE,,,,,,,OVC,1600,,,,,,,MVFR,,,,,,,,,,,,METAR,179.0
KTIW 211653Z 05005KT 10SM BKN017 07/04 A3031 RMK AO2 SLP267 T00720039,KTIW,2015-02-21T16:53:00Z,47.27,-122.58,7.2,3.9,50,5,,10.0,30.31004,1026.7,,,TRUE,,,,,,,BKN,1700,,,,,,,MVFR,,,,,,,,,,,,METAR,89.0
KTCS 211653Z AUTO 18004KT 10SM CLR 14/M06 A2996 RMK AO2 SLP091 T01441056 TSNO,KTCS,2015-02-21T16:53:00Z,33.23,-107.27,14.4,-5.6,180,4,,10.0,29.958662,1009.1,,TRUE,TRUE,,,TRUE,,,,CLR,,,,,,,,VFR,,,,,,,,,,,,METAR,1469.0
KTCL 211653Z 18012G22KT 10SM CLR 15/08 A3006 RMK AO2 PK WND 17026/1634 RAE1559 SLP177 P0000 T01500078,KTCL,2015-02-21T16:53:00Z,33.22,-87.62,15.0,7.8,180,12,22,10.0,30.059055,1017.7,,,TRUE,,,,,,,CLR,,,,,,,,VFR,,,,,,0.0050,,,,,,METAR,49.0
KTCC 211653Z AUTO 11004KT 10SM CLR 07/M01 A3002 RMK AO2 SLP155 T00671011,KTCC,2015-02-21T16:53:00Z,35.18,-103.6,6.7,-1.1,110,4,,10.0,30.02067,1015.5,,TRUE,TRUE,,,,,,,CLR,,,,,,,,VFR,,,,,,,,,,,,METAR,1235.0
KSWO 211653Z 03012KT 10SM FEW017 09/03 A3002 RMK AO2 SLP165 T00890028 $,KSWO,2015-02-21T16:53:00Z,36.17,-97.08,8.9,2.8,30,12,,10.0,30.02067,1016.5,,,TRUE,TRUE,,,,,,FEW,1700,,,,,,,VFR,,,,,,,,,,,,METAR,290.0
KSTS 211653Z 00000KT 1/4SM FG VV002 07/07 A2996 RMK AO2 SLP140 T00670067,KSTS,2015-02-21T16:53:00Z,38.5,-122.82,6.7,6.7,0,0,,0.25,29.958662,1014.0,,,TRUE,,,,,,FG,OVX,0,,,,,,,LIFR,,,,,,,,,,,200,METAR,39.0
KSTJ 211653Z 36008KT 7SM FEW070 03/M01 A3000 RMK AO2 SLP165 T00331006,KSTJ,2015-02-21T16:53:00Z,39.77,-94.92,3.3,-0.6,360,8,,7.0,30.0,1016.5,,,TRUE,,,,,,,FEW,7000,,,,,,,VFR,,,,,,,,,,,,METAR,247.0
KSSI 211653Z AUTO 18007KT 10SM BKN065 16/06 A3035 RMK AO2 SLP278 T01560056,KSSI,2015-02-21T16:53:00Z,31.15,-81.38,15.6,5.6,180,7,,10.0,30.351377,1027.8,,TRUE,TRUE,,,,,,,BKN,6500,,,,,,,VFR,,,,,,,,,,,,METAR,6.0
KSSF 211653Z 19010KT 10SM OVC026 22/15 A2990 RMK AO2 SLP117 T02170150,KSSF,2015-02-21T16:53:00Z,29.33,-98.47,21.7,15.0,190,10,,10.0,29.899607,1011.7,,,TRUE,,,,,,,OVC,2600,,,,,,,MVFR,,,,,,,,,,,,METAR,176.0
KSPB 211653Z AUTO 34008KT 10SM CLR 09/04 A3025 RMK AO2 SLP244 T00890039 $,KSPB,2015-02-21T16:53:00Z,45.77,-122.87,8.9,3.9,340,8,,10.0,30.250984,1024.4,,TRUE,TRUE,TRUE,,,,,,CLR,,,,,,,,VFR,,,,,,,,,,,,METAR,14.0
KSNS 211653Z 00000KT 6SM BR SCT002 11/09 A2998 RMK AO2 SLP161 T01060089,KSNS,2015-02-21T16:53:00Z,36.67,-121.6,10.6,8.9,0,0,,6.0,29.97933,1016.1,,,TRUE,,,,,,BR,SCT,200,,,,,,,VFR,,,,,,,,,,,,METAR,30.0
KSNA 211653Z 13004KT 10SM OVC039 18/10 A3000 RMK AO2 SLP159 T01780100,KSNA,2015-02-21T16:53:00Z,33.67,-117.87,17.8,10.0,130,4,,10.0,30.0,1015.9,,,TRUE,,,,,,,OVC,3900,,,,,,,VFR,,,,,,,,,,,,METAR,16.0
KSMQ 211653Z AUTO 18008KT 10SM SCT060 OVC070 M05/M16 A3041 RMK AO2 SLP302 T10501156 TSNO,KSMQ,2015-02-21T16:53:00Z,40.62,-74.67,-5.0,-15.6,180,8,,10.0,30.410433,1030.2,,TRUE,TRUE,,,TRUE,,,,SCT,6000,OVC,7000,,,,,VFR,,,,,,,,,,,,METAR,30.0
KSMF 211653Z 00000KT 1/2SM R16R/5500FT BCFG BR OVC002 09/09 A2999 RMK AO2 SFC VIS 3/4 SLP154 T00940089,KSMF,2015-02-21T16:53:00Z,38.7,-121.6,9.4,8.9,0,0,,0.5,29.991142,1015.4,,,TRUE,,,,,,BCFG BR,OVC,200,,,,,,,LIFR,,,,,,,,,,,,METAR,6.0
KSLN 211653Z 35006KT 10SM CLR 08/01 A3002 RMK AO2 SLP172 T00830011,KSLN,2015-02-21T16:53:00Z,38.78,-97.65,8.3,1.1,350,6,,10.0,30.02067,1017.2,,,TRUE,,,,,,,CLR,,,,,,,,VFR,,,,,,,,,,,,METAR,385.0
KSJC 211653Z 00000KT 10SM SCT200 12/07 A2997 RMK AO2 SLP148 T01220072,KSJC,2015-02-21T16:53:00Z,37.37,-121.92,12.2,7.2,0,0,,10.0,29.970472,1014.8,,,TRUE,,,,,,,SCT,20000,,,,,,,VFR,,,,,,,,,,,,METAR,24.0
KSIY 211653Z AUTO 00000KT 10SM CLR 02/M01 A3011 RMK AO2 SLP217 T00221006,KSIY,2015-02-21T16:53:00Z,41.77,-122.47,2.2,-0.6,0,0,,10.0,30.109253,1021.7,,TRUE,TRUE,,,,,,,CLR,,,,,,,,VFR,,,,,,,,,,,,METAR,807.0
KSHN 211653Z AUTO 00000KT 10SM OVC015 06/04 A3030 RMK AO2 SLP263 T00560044,KSHN,2015-02-21T16:53:00Z,47.23,-123.13,5.6,4.4,0,0,,10.0,30.301182,1026.3,,TRUE,TRUE,,,,,,,OVC,1500,,,,,,,MVFR,,,,,,,,,,,,METAR,82.0
KSGR 211653Z 20019G24KT 10SM FEW027 SCT035 OVC060 23/17 A2994 RMK AO2 PK WND 20027/1623 SLP141 T02330167,KSGR,2015-02-21T16:53:00Z,29.62,-95.65,23.3,16.7,200,19,24,10.0,29.940945,1014.1,,,TRUE,,,,,,,FEW,2700,SCT,3500,OVC,6000,,,VFR,,,,,,,,,,,,METAR,2.0
KSFF 211653Z 00000KT 10SM FEW025 SCT070 BKN100 01/00 A3023 RMK AO2 SLP249 T00110000,KSFF,2015-02-21T16:53:00Z,47.68,-117.32,1.1,0.0,0,0,,10.0,30.230314,1024.9,,,TRUE,,,,,,,FEW,2500,SCT,7000,BKN,10000,,,VFR,,,,,,,,,,,,METAR,609.0
KSFB 211653Z 16008KT 10SM BKN055 OVC070 18/10 A3033 RMK AO2 SLP270 T01780100,KSFB,2015-02-21T16:53:00Z,28.77,-81.22,17.8,10.0,160,8,,10.0,30.33071,1027.0,,,TRUE,,,,,,,BKN,5500,OVC,7000,,,,,VFR,,,,,,,,,,,,METAR,17.0
KSEG 211653Z AUTO 18007G15KT 1/2SM -SN FZFG VV014 M08/M11 A3027 RMK AO2 SNB1555 SLP261 P0000 T10831106,KSEG,2015-02-21T16:53:00Z,40.82,-76.87,-8.3,-10.6,180,7,15,0.5,30.268702,1026.1,,TRUE,TRUE,,,,,,-SN FZFG,OVX,0,,,,,,,LIFR,,,,,,0.0050,,,,,1400,METAR,134.0
KSEA 211653Z 04007KT 10SM FEW008 SCT017 OVC022 07/04 A3032 RMK AO2 SLP275 T00670044,KSEA,2015-02-21T16:53:00Z,47.45,-122.32,6.7,4.4,40,7,,10.0,30.318897,1027.5,,,TRUE,,,,,,,FEW,800,SCT,1700,OVC,2200,,,MVFR,,,,,,,,,,,,METAR,136.0
KSDL 211653Z 00000KT 10SM CLR 18/03 A2993 RMK AO2 SLP120 T01830033,KSDL,2015-02-21T16:53:00Z,33.62,-111.92,18.3,3.3,0,0,,10.0,29.929134,1012.0,,,TRUE,,,,,,,CLR,,,,,,,,VFR,,,,,,,,,,,,METAR,447.0
KSBA 211653Z 10006KT 5SM BR BKN017 OVC033 16/11 A2999 RMK AO2 SLP154 T01610111,KSBA,2015-02-21T16:53:00Z,34.43,-119.85,16.1,11.1,100,6,,5.0,29.991142,1015.4,,,TRUE,,,,,,BR,BKN,1700,OVC,3300,,,,,MVFR,,,,,,,,,,,,METAR,3.0
KSAV 211653Z 17014G21KT 10SM FEW040 BKN250 17/04 A3034 RMK AO2 SLP274 T01720044,KSAV,2015-02-21T16:53:00Z,32.12,-81.2,17.2,4.4,170,14,21,10.0,30.339567,1027.4,,,TRUE,,,,,,,FEW,4000,BKN,25000,,,,,VFR,,,,,,,,,,,,METAR,14.0
KSAF 211653Z 17008KT 10SM CLR 06/M08 A2995 RMK AO2 SLP107 T00611083,KSAF,2015-02-21T16:53:00Z,35.62,-106.1,6.1,-8.3,170,8,,10.0,29.949802,1010.7,,,TRUE,,,,,,,CLR,,,,,,,,VFR,,,,,,,,,,,,METAR,1930.0
KSAC 211653Z 00000KT 1 1/2SM BR OVC002 10/09 A3000 RMK AO2 SLP158 T01000094,KSAC,2015-02-21T16:53:00Z,38.5,-121.5,10.0,9.4,0,0,,1.5,30.0,1015.8,,,TRUE,,,,,,BR,OVC,200,,,,,,,LIFR,,,,,,,,,,,,METAR,11.0
KRVS 211653Z 03011KT 10SM BKN010 06/02 A3001 RMK AO2 SLP170 T00560022,KRVS,2015-02-21T16:53:00Z,36.05,-95.98,5.6,2.2,30,11,,10.0,30.008858,1017.0,,,TRUE,,,,,,,BKN,1000,,,,,,,MVFR,,,,,,,,,,,,METAR,200.0
KRTN 211653Z AUTO 00000KT 10SM OVC020 00/M03 A2993 RMK AO2 SLP134 T00001028,KRTN,2015-02-21T16:53:00Z,36.73,-104.5,0.0,-2.8,0,0,,10.0,29.929134,1013.4,,TRUE,TRUE,,,,,,,OVC,2000,,,,,,,MVFR,,,,,,,,,,,,METAR,1936.0
KRSL 211653Z AUTO 05005KT 10SM SCT080 08/M01 A3001 RMK AO2 SLP172 T00781006,KRSL,2015-02-21T16:53:00Z,38.87,-98.82,7.8,-0.6,50,5,,10.0,30.008858,1017.2,,TRUE,TRUE,,,,,,,SCT,8000,,,,,,,VFR,,,,,,,,,,,,METAR,567.0
KRQE 211653Z AUTO 26016G22KT 10SM CLR 10/M05 A2994 RMK AO2 SLP077 T01001050 TSNO,KRQE,2015-02-21T16:53:00Z,35.65,-109.07,10.0,-5.0,260,16,22,10.0,29.940945,1007.7,,TRUE,TRUE,,,TRUE,,,,CLR,,,,,,,,VFR,,,,,,,,,,,,METAR,2055.0
KRNT 211653Z 36005KT 10SM OVC019 07/05 A3033 RMK AO2 SLP274 T00720050,KRNT,2015-02-21T16:53:00Z,47.5,-122.22,7.2,5.0,360,5,,10.0,30.33071,1027.4,,,TRUE,,,,,,,OVC,1900,,,,,,,MVFR,,,,,,,,,,,,METAR,21.0
KRNM 211653Z 11006KT 9SM OVC024 13/07 A3001 RMK AO2 SLP157 T01280067,KRNM,2015-02-21T16:53:00Z,33.03,-116.92,12.8,6.7,110,6,,9.0,30.008858,1015.7,,,TRUE,,,,,,,OVC,2400,,,,,,,MVFR,,,,,,,,,,,,METAR,427.0
KRMG 211653Z AUTO 14007KT 10SM OVC070 04/M03 A3017 RMK AO2 SLP218 T00391033,KRMG,2015-02-21T16:53:00Z,34.35,-85.17,3.9,-3.3,140,7,,10.0,30.171259,1021.8,,TRUE,TRUE,,,,,,,OVC,7000,,,,,,,VFR,,,,,,,,,,,,METAR,193.0
KRME 211653Z 12009KT 10SM BKN038 OVC046 M08/M18 A3019 RMK AO2 SLP234 T10831178,KRME,2015-02-21T16:53:00Z,43.22,-75.4,-8.3,-17.8,120,9,,10.0,30.188976,1023.4,,,TRUE,,,,,,,BKN,3800,OVC,4600,,,,,VFR,,,,,,,,,,,,METAR,154.0
KRKP 211653Z AUTO 19010G16KT 7SM SCT020 BKN026 OVC035 21/17 A2994 RMK AO2 SLP140 T02060172,KRKP,2015-02-21T16:53:00Z,28.08,-97.05,20.6,17.2,190,10,16,7.0,29.940945,1014.0,,TRUE,TRUE,,,,,,,SCT,2000,BKN,2600,OVC,3500,,,MVFR,,,,,,,,,,,,METAR,6.0
KRDD 211653Z 36013KT 10SM CLR 17/M02 A2997 RMK AO2 SLP146 T01671022,KRDD,2015-02-21T16:53:00Z,40.52,-122.3,16.7,-2.2,360,13,,10.0,29.970472,1014.6,,,TRUE,,,,,,,CLR,,,,,,,,VFR,,,,,,,,,,,,METAR,155.0
KRBG 211653Z AUTO 00000KT 9SM OVC013 08/05 A3021 RMK AO2 SLP231 T00780050,KRBG,2015-02-21T16:53:00Z,43.23,-123.35,7.8,5.0,0,0,,9.0,30.209646,1023.1,,TRUE,TRUE,,,,,,,OVC,1300,,,,,,,MVFR,,,,,,,,,,,,METAR,154.0
KRBD 211653Z 35013KT 10SM OVC017 11/06 A2994 RMK AO2 SLP134 T01060056,KRBD,2015-02-21T16:53:00Z,32.68,-96.87,10.6,5.6,350,13,,10.0,29.940945,1013.4,,,TRUE,,,,,,,OVC,1700,,,,,,,MVFR,,,,,,,,,,,,METAR,203.0
KRAL 211653Z 00000KT 3SM BR BKN009 OVC030 13/11 A3002 RMK AO2 CIG 007V011 SLP155 T01330111,KRAL,2015-02-21T16:53:00Z,33.95,-117.45,13.3,11.1,0,0,,3.0,30.02067,1015.5,,,TRUE,,,,,,BR,BKN,900,OVC,3000,,,,,IFR,,,,,,,,,,,,METAR,252.0
KPWA 211653Z 03010KT 8SM BKN012 07/03 A3003 RMK AO2 SLP170 T00670033,KPWA,2015-02-21T16:53:00Z,35.53,-97.65,6.7,3.3,30,10,,8.0,30.029528,1017.0,,,TRUE,,,,,,,BKN,1200,,,,,,,MVFR,,,,,,,,,,,,METAR,397.0
KPUW 211653Z AUTO 33004KT 4SM BR FEW002 BKN007 OVC040 01/01 A3016 RMK AO2 CIG 006V011 SLPNO T00110006 $,KPUW,2015-02-21T16:53:00Z,46.75,-117.12,1.1,0.6,330,4,,4.0,30.159449,,,TRUE,TRUE,TRUE,,,,,BR,FEW,200,BKN,700,OVC,4000,,,IFR,,,,,,,,,,,,METAR,773.0
KPSX 211653Z AUTO 18010KT 8SM FEW030 BKN042 OVC050 21/18 A2995 RMK AO2 SLP142 T02110178,KPSX,2015-02-21T16:53:00Z,28.72,-96.25,21.1,17.8,180,10,,8.0,29.949802,1014.2,,TRUE,TRUE,,,,,,,FEW,3000,BKN,4200,OVC,5000,,,VFR,,,,,,,,,,,,METAR,5.0
KPSP 211653Z 15004KT 10SM CLR 17/07 A2990 RMK AO2 SLP122 T01720067,KPSP,2015-02-21T16:53:00Z,33.82,-116.5,17.2,6.7,150,4,,10.0,29.899607,1012.2,,,TRUE,,,,,,,CLR,,,,,,,,VFR,,,,,,,,,,,,METAR,135.0
KPSC 211653Z VRB03KT 10SM CLR 09/00 A3023 RMK AO2 SLP239 T00890000,KPSC,2015-02-21T16:53:00Z,46.27,-119.12,8.9,0.0,0,3,,10.0,30.230314,1023.9,,,TRUE,,,,,,,CLR,,,,,,,,VFR,,,,,,,,,,,,METAR,121.0
KPRC 211653Z 21009KT 10SM CLR 14/M04 A2998 RMK AO2 SLP102 T01391039,KPRC,2015-02-21T16:53:00Z,34.65,-112.42,13.9,-3.9,210,9,,10.0,29.97933,1010.2,,,TRUE,,,,,,,CLR,,,,,,,,VFR,,,,,,,,,,,,METAR,1524.0
KPRB 211653Z AUTO 18004KT 7SM CLR 09/06 A2998 RMK AO2 SLP152 T00890061 TSNO $,KPRB,2015-02-21T16:53:00Z,35.67,-120.63,8.9,6.1,180,4,,7.0,29.97933,1015.2,,TRUE,TRUE,TRUE,,TRUE,,,,CLR,,,,,,,,VFR,,,,,,,,,,,,METAR,245.0
KPQL 211653Z 16014G21KT 10SM OVC090 20/11 A3014 RMK AO2 PK WND 16031/1602 SLP208 T02000111,KPQL,2015-02-21T16:53:00Z,30.47,-88.53,20.0,11.1,160,14,21,10.0,30.138779,1020.8,,,TRUE,,,,,,,OVC,9000,,,,,,,VFR,,,,,,,,,,,,METAR,6.0
KPOU 211653Z 19009G20KT 10SM SCT075 M05/M17 A3041 RMK AO2 SLP299 T10501172,KPOU,2015-02-21T16:53:00Z,41.63,-73.88,-5.0,-17.2,190,9,20,10.0,30.410433,1029.9,,,TRUE,,,,,,,SCT,7500,,,,,,,VFR,,,,,,,,,,,,METAR,46.0
KPOF 211653Z AUTO 36005KT 10SM -RA FEW040 BKN075 OVC090 01/M01 A2990 RMK AO2 RAB07E31B47 SLP130 P0001 T00111011,KPOF,2015-02-21T16:53:00Z,36.77,-90.32,1.1,-1.1,360,5,,10.0,29.899607,1013.0,,TRUE,TRUE,,,,,,-RA,FEW,4000,BKN,7500,OVC,9000,,,VFR,,,,,,0.01,,,,,,METAR,99.0
KPNS 211653Z 16021G25KT 10SM CLR 19/10 A3018 RMK AO2 PK WND 16028/1559 SLP223 T01940100,KPNS,2015-02-21T16:53:00Z,30.48,-87.18,19.4,10.0,160,21,25,10.0,30.180119,1022.3,,,TRUE,,,,,,,CLR,,,,,,,,VFR,,,,,,,,,,,,METAR,38.0
KPNC 211653Z AUTO 05008KT 10SM SCT012 08/03 A3003 RMK AO2 SLP169 T00830033,KPNC,2015-02-21T16:53:00Z,36.73,-97.1,8.3,3.3,50,8,,10.0,30.029528,1016.9,,TRUE,TRUE,,,,,,,SCT,1200,,,,,,,VFR,,,,,,,,,,,,METAR,308.0
KPMD 211653Z AUTO 23014KT 9SM CLR 14/04 A2993 RMK AO2 SLP125 T01390044,KPMD,2015-02-21T16:53:00Z,34.63,-118.08,13.9,4.4,230,14,,9.0,29.929134,1012.5,,TRUE,TRUE,,,,,,,CLR,,,,,,,,VFR,,,,,,,,,,,,METAR,780.0
KPIL 211653Z AUTO 17018G26KT 5SM HZ SCT021 BKN026 OVC039 23/19 A2991 RMK AO2 PK WND 17029/1632 SLP127 T02330189,KPIL,2015-02-21T16:53:00Z,26.17,-97.33,23.3,18.9,170,18,26,5.0,29.911417,1012.7,,TRUE,TRUE,,,,,,HZ,SCT,2100,BKN,2600,OVC,3900,,,MVFR,,,,,,,,,,,,METAR,5.0
KPGA 211653Z AUTO 33003KT 10SM BKN120 09/M08 A2993 RMK AO2 SLP102 T00891083 TSNO,KPGA,2015-02-21T16:53:00Z,36.92,-111.45,8.9,-8.3,330,3,,10.0,29.929134,1010.2,,TRUE,TRUE,,,TRUE,,,,BKN,12000,,,,,,,VFR,,,,,,,,,,,,METAR,1307.0
KPDX 211653Z 11003KT 6SM BR BKN006 BKN022 06/05 A3027 RMK AO2 SLP250 T00560050,KPDX,2015-02-21T16:53:00Z,45.6,-122.62,5.6,5.0,110,3,,6.0,30.268702,1025.0,,,TRUE,,,,,,BR,BKN,600,BKN,2200,,,,,IFR,,,,,,,,,,,,METAR,7.0
KPDT 211653Z 30005KT 10SM OVC090 05/01 A3019 RMK AO2 SLP225 T00500011,KPDT,2015-02-21T16:53:00Z,45.7,-118.83,5.0,1.1,300,5,,10.0,30.188976,1022.5,,,TRUE,,,,,,,OVC,9000,,,,,,,VFR,,,,,,,,,,,,METAR,462.0
KPDK 211653Z VRB03KT 10SM OVC075 04/M06 A3024 RMK AO2 SLP255 T00391056,KPDK,2015-02-21T16:53:00Z,33.88,-84.3,3.9,-5.6,0,3,,10.0,30.239174,1025.5,,,TRUE,,,,,,,OVC,7500,,,,,,,VFR,,,,,,,,,,,,METAR,302.0
KPBG 211653Z AUTO 18018G23KT 10SM CLR M08/M21 A3017 RMK AO2 SLP221 T10831206,KPBG,2015-02-21T16:53:00Z,44.65,-73.47,-8.3,-20.6,180,18,23,10.0,30.171259,1022.1,,TRUE,TRUE,,,,,,,CLR,,,,,,,,VFR,,,,,,,,,,,,METAR,72.0
KPAE 211653Z 01008G18KT 4SM BR OVC003 06/04 A3032 RMK AO2 SLP271 T00560039,KPAE,2015-02-21T16:53:00Z,47.92,-122.28,5.6,3.9,10,8,18,4.0,30.318897,1027.1,,,TRUE,,,,,,BR,OVC,300,,,,,,,LIFR,,,,,,,,,,,,METAR,180.0
KMCN 211653Z 19010G17KT 10SM OVC100 11/01 A3029 RMK AO2 SLP258 T01110006 $,KMCN,2015-02-21T16:53:00Z,32.68,-83.65,11.1,0.6,190,10,17,10.0,30.28937,1025.8,,,TRUE,TRUE,,,,,,OVC,10000,,,,,,,VFR,,,,,,,,,,,,METAR,109.0
KMCI 211653Z 01007KT 9SM SCT160 05/01 A2998 RMK AO2 SLP156 T00500011,KMCI,2015-02-21T16:53:00Z,39.3,-94.73,5.0,1.1,10,7,,9.0,29.97933,1015.6,,,TRUE,,,,,,,SCT,16000,,,,,,,VFR,,,,,,,,,,,,METAR,320.0
KMCE 211653Z AUTO 28004KT 1 1/2SM BR OVC004 11/09 A2999 RMK AO2 SLP155 T01060094,KMCE,2015-02-21T16:53:00Z,37.28,-120.5,10.6,9.4,280,4,,1.5,29.991142,1015.5,,TRUE,TRUE,,,,,,BR,OVC,400,,,,,,,LIFR,,,,,,,,,,,,METAR,47.0
KMCB 211653Z AUTO 18016G26KT 10SM FEW031 BKN043 OVC070 19/13 A3003 RMK AO2 PK WND 17026/1648 SLP166 T01940133,KMCB,2015-02-21T16:53:00Z,31.18,-90.47,19.4,13.3,180,16,26,10.0,30.029528,1016.6,,TRUE,TRUE,,,,,,,FEW,3100,BKN,4300,OVC,7000,,,VFR,,,,,,,,,,,,METAR,124.0
KMAI 211653Z AUTO 17017G25KT 10SM CLR 17/08 A3024 RMK AO2 PK WND 18027/1616 SLP241 T01670083,KMAI,2015-02-21T16:53:00Z,30.83,-85.18,16.7,8.3,170,17,25,10.0,30.239174,1024.1,,TRUE,TRUE,,,,,,,CLR,,,,,,,,VFR,,,,,,,,,,,,METAR,32.0
KMAF 211653Z 06012KT 10SM CLR 12/04 A3001 RMK AO2 SLP136 T01220039,KMAF,2015-02-21T16:53:00Z,31.95,-102.2,12.2,3.9,60,12,,10.0,30.008858,1013.6,,,TRUE,,,,,,,CLR,,,,,,,,VFR,,,,,,,,,,,,METAR,874.0
KMAE 211653Z AUTO 00000KT 1 3/4SM BR OVC005 11/08 A3000 RMK AO2 SLP158 T01060083,KMAE,2015-02-21T16:53:00Z,36.98,-120.12,10.6,8.3,0,0,,1.75,30.0,1015.8,,TRUE,TRUE,,,,,,BR,OVC,500,,,,,,,IFR,,,,,,,,,,,,METAR,77.0
KLWD 211653Z AUTO 34011KT 10SM OVC020 00/M03 A2998 RMK AO2 SLP163 T00001033,KLWD,2015-02-21T16:53:00Z,40.63,-93.9,0.0,-3.3,340,11,,10.0,29.97933,1016.3,,TRUE,TRUE,,,,,,,OVC,2000,,,,,,,MVFR,,,,,,,,,,,,METAR,346.0
KLVS 211653Z AUTO 16019KT 10SM OVC014 02/M02 A2996 RMK AO2 SLP113 T00171022,KLVS,2015-02-21T16:53:00Z,35.65,-105.13,1.7,-2.2,160,19,,10.0,29.958662,1011.3,,TRUE,TRUE,,,,,,,OVC,1400,,,,,,,MVFR,,,,,,,,,,,,METAR,2091.0
KLVK 211653Z 00000KT 7SM CLR 11/08 A2997 RMK AO2 SLP149 T01110078,KLVK,2015-02-21T16:53:00Z,37.7,-121.82,11.1,7.8,0,0,,7.0,29.970472,1014.9,,,TRUE,,,,,,,CLR,,,,,,,,VFR,,,,,,,,,,,,METAR,117.0
KLVJ 211653Z AUTO 17013G25KT 6SM HZ SCT017 BKN024 OVC049 21/18 A2998 RMK AO2 SLP151 T02110183,KLVJ,2015-02-21T16:53:00Z,29.52,-95.25,21.1,18.3,170,13,25,6.0,29.97933,1015.1,,TRUE,TRUE,,,,,,HZ,SCT,1700,BKN,2400,OVC,4900,,,MVFR,,,,,,,,,,,,METAR,12.0
KLOL 211653Z AUTO 00000KT 10SM CLR 05/M04 A3004 RMK AO2 SLP181 T00501044,KLOL,2015-02-21T16:53:00Z,40.07,-118.57,5.0,-4.4,0,0,,10.0,30.041338,1018.1,,TRUE,TRUE,,,,,,,CLR,,,,,,,,VFR,,,,,,,,,,,,METAR,1189.0
KLNS 211653Z 16007KT 1SM -SN BKN019 OVC035 M08/M11 A3035 RMK AO2 SNB1555 SLP287 P0000 T10781106,KLNS,2015-02-21T16:53:00Z,40.12,-76.3,-7.8,-10.6,160,7,,1.0,30.351377,1028.7,,,TRUE,,,,,,-SN,BKN,1900,OVC,3500,,,,,IFR,,,,,,0.0050,,,,,,METAR,125.0
KLMT 211653Z 00000KT 10SM CLR 03/M02 A3008 RMK AO2 SLP194 T00281022,KLMT,2015-02-21T16:53:00Z,42.15,-121.72,2.8,-2.2,0,0,,10.0,30.079725,1019.4,,,TRUE,,,,,,,CLR,,,,,,,,VFR,,,,,,,,,,,,METAR,1246.0
KLGB 211653Z 09003KT 8SM FEW023 OVC034 16/11 A3000 RMK AO2 SLP160 T01610111,KLGB,2015-02-21T16:53:00Z,33.82,-118.15,16.1,11.1,90,3,,8.0,30.0,1016.0,,,TRUE,,,,,,,FEW,2300,OVC,3400,,,,,VFR,,,,,,,,,,,,METAR,10.0
KLFT 211653Z 17013G22KT 10SM FEW065 OVC090 21/14 A3003 RMK AO2 SLP169 T02060144,KLFT,2015-02-21T16:53:00Z,30.2,-92.0,20.6,14.4,170,13,22,10.0,30.029528,1016.9,,,TRUE,,,,,,,FEW,6500,OVC,9000,,,,,VFR,,,,,,,,,,,,METAR,11.0
KLFK 211653Z AUTO 20011KT 10SM BKN023 BKN028 OVC034 22/16 A2993 RMK AO2 RAB33E42 SLP131 P0000 T02170161,KLFK,2015-02-21T16:53:00Z,31.23,-94.75,21.7,16.1,200,11,,10.0,29.929134,1013.1,,TRUE,TRUE,,,,,,,BKN,2300,BKN,2800,OVC,3400,,,MVFR,,,,,,0.0050,,,,,,METAR,88.0
KLEB 211653Z 21004KT 10SM OVC120 M08/M19 A3028 RMK AO2 SLP275 T10831194,KLEB,2015-02-21T16:53:00Z,43.63,-72.3,-8.3,-19.4,210,4,,10.0,30.280512,1027.5,,,TRUE,,,,,,,OVC,12000,,,,,,,VFR,,,,,,,,,,,,METAR,171.0
KLCH 211653Z 19013G24KT 10SM SCT048 OVC070 21/16 A3000 RMK AO2 PK WND 20027/1600 SLP167 T02060156,KLCH,2015-02-21T16:53:00Z,30.13,-93.22,20.6,15.6,190,13,24,10.0,30.0,1016.7,,,TRUE,,,,,,,SCT,4800,OVC,7000,,,,,VFR,,,,,,,,,,,,METAR,4.0
KLBX 211653Z AUTO 18015KT 9SM FEW020 BKN045 OVC060 21/18 A2996 RMK AO2 RAB36E45 SLP146 P0000 T02110183,KLBX,2015-02-21T16:53:00Z,29.12,-95.47,21.1,18.3,180,15,,9.0,29.958662,1014.6,,TRUE,TRUE,,,,,,,FEW,2000,BKN,4500,OVC,6000,,,VFR,,,,,,0.0050,,,,,,METAR,6.0
KLBF 211653Z AUTO 01012G19KT 10SM OVC032 02/M02 A3003 RMK AO2 SLP186 T00221022 $,KLBF,2015-02-21T16:53:00Z,41.12,-100.67,2.2,-2.2,10,12,19,10.0,30.029528,1018.6,,TRUE,TRUE,TRUE,,,,,,OVC,3200,,,,,,,VFR,,,,,,,,,,,,METAR,847.0
KLBB 211653Z 03007KT 10SM SCT250 SCT300 09/01 A3001 RMK AO2 SLP140 T00940006,KLBB,2015-02-21T16:53:00Z,33.67,-101.82,9.4,0.6,30,7,,10.0,30.008858,1014.0,,,TRUE,,,,,,,SCT,25000,SCT,30000,,,,,VFR,,,,,,,,,,,,METAR,993.0
KLAX 211653Z 16005KT 8SM SCT022 BKN028 OVC033 16/11 A3000 RMK AO2 SLP159 T01560106 $,KLAX,2015-02-21T16:53:00Z,33.93,-118.38,15.6,10.6,160,5,,8.0,30.0,1015.9,,,TRUE,TRUE,,,,,,SCT,2200,BKN,2800,OVC,3300,,,MVFR,,,,,,,,,,,,METAR,46.0
KLAW 211653Z AUTO 02012KT 10SM OVC017 08/02 A3003 RMK AO2 SLP169 T00780022,KLAW,2015-02-21T16:53:00Z,34.55,-98.42,7.8,2.2,20,12,,10.0,30.029528,1016.9,,TRUE,TRUE,,,,,,,OVC,1700,,,,,,,MVFR,,,,,,,,,,,,METAR,337.0
KJEF 211653Z 00000KT 7SM OVC008 01/M01 A2998 RMK AO2 SLP148 T00061011,KJEF,2015-02-21T16:53:00Z,38.6,-92.15,0.6,-1.1,0,0,,7.0,29.97933,1014.8,,,TRUE,,,,,,,OVC,800,,,,,,,IFR,,,,,,,,,,,,METAR,168.0
KIXD 211653Z 33006KT 7SM SCT060 06/03 A2999 RMK AO2 SLP161 T00560028,KIXD,2015-02-21T16:53:00Z,38.82,-94.88,5.6,2.8,330,6,,7.0,29.991142,1016.1,,,TRUE,,,,,,,SCT,6000,,,,,,,VFR,,,,,,,,,,,,METAR,342.0
KIWI 211653Z AUTO 21009G17KT 10SM SCT085 M05/M16 A3043 RMK AO2 SLP305 T10501156,KIWI,2015-02-21T16:53:00Z,43.97,-69.72,-5.0,-15.6,210,9,17,10.0,30.431103,1030.5,,TRUE,TRUE,,,,,,,SCT,8500,,,,,,,VFR,,,,,,,,,,,,METAR,20.0
KIPL 211653Z AUTO 20004KT 8SM CLR 18/08 A2987 RMK AO2 SLP114 T01830083,KIPL,2015-02-21T16:53:00Z,32.83,-115.58,18.3,8.3,200,4,,8.0,29.870079,1011.4,,TRUE,TRUE,,,,,,,CLR,,,,,,,,VFR,,,,,,,,,,,,METAR,-17.0
KINK 211653Z AUTO 02003KT 10SM CLR 13/01 A3002 RMK AO2 SLP136 T01330011,KINK,2015-02-21T16:53:00Z,31.78,-103.2,13.3,1.1,20,3,,10.0,30.02067,1013.6,,TRUE,TRUE,,,,,,,CLR,,,,,,,,VFR,,,,,,,,,,,,METAR,855.0
KICT 211653Z 32006KT 10SM FEW120 SCT200 08/02 A3001 RMK AO2 SLP167 T00780017 $,KICT,2015-02-21T16:53:00Z,37.65,-97.43,7.8,1.7,320,6,,10.0,30.008858,1016.7,,,TRUE,TRUE,,,,,,FEW,12000,SCT,20000,,,,,VFR,,,,,,,,,,,,METAR,407.0
KIAH 211653Z COR 18010G15KT 9SM SCT027 OVC055 22/17 A2996 RMK AO2 RAB53 SLP146 P0000 T02170172,KIAH,2015-02-21T16:53:00Z,30.0,-95.37,21.7,17.2,180,10,15,9.0,29.958662,1014.6,TRUE,,TRUE,,,,,,,SCT,2700,OVC,5500,,,,,VFR,,,,,,0.0050,,,,,,METAR,36.0
KOWD 211653Z 18013G20KT 10SM CLR M03/M11 A3042 RMK AO2 PRESFR SLP303 T10331111,KOWD,2015-02-21T16:53:00Z,42.18,-71.17,-3.3,-11.1,180,13,20,10.0,30.41929,1030.3,,,TRUE,,,,,,,CLR,,,,,,,,VFR,,,,,,,,,,,,METAR,19.0
KOVE 211653Z AUTO 07003KT 1/2SM FG VV002 09/08 A3000 RMK AO2 SLP160 T00890078,KOVE,2015-02-21T16:53:00Z,39.5,-121.62,8.9,7.8,70,3,,0.5,30.0,1016.0,,TRUE,TRUE,,,,,,FG,OVX,0,,,,,,,LIFR,,,,,,,,,,,200,METAR,58.0
KOTM 211653Z AUTO 34014KT 8SM OVC024 01/M04 A2996 RMK AO2 SLP153 T00111039,KOTM,2015-02-21T16:53:00Z,41.1,-92.45,1.1,-3.9,340,14,,8.0,29.958662,1015.3,,TRUE,TRUE,,,,,,,OVC,2400,,,,,,,MVFR,,,,,,,,,,,,METAR,256.0
KORB 211653Z AUTO 30008KT 10SM CLR M16/M21 A3001 RMK AO2,KORB,2015-02-21T16:53:00Z,48.02,-92.87,-16.0,-21.0,300,8,,10.0,30.008858,,,TRUE,TRUE,,,,,,,CLR,,,,,,,,VFR,,,,,,,,,,,,METAR,397.0
KOMK 211653Z AUTO 35010G17KT 10SM CLR 07/M03 A3029 RMK AO2 SLP264 T00721033,KOMK,2015-02-21T16:53:00Z,48.47,-119.52,7.2,-3.3,350,10,17,10.0,30.28937,1026.4,,TRUE,TRUE,,,,,,,CLR,,,,,,,,VFR,,,,,,,,,,,,METAR,395.0
KOJC 211653Z 34006KT 7SM FEW060 06/00 A2998 RMK AO2 SLP157 T00560000,KOJC,2015-02-21T16:53:00Z,38.85,-94.73,5.6,0.0,340,6,,7.0,29.97933,1015.7,,,TRUE,,,,,,,FEW,6000,,,,,,,VFR,,,,,,,,,,,,METAR,326.0
KOGB 211653Z AUTO 18010KT 10SM CLR 14/03 A3032 RMK AO2 PRESFR SLP267 T01390028,KOGB,2015-02-21T16:53:00Z,33.47,-80.85,13.9,2.8,180,10,,10.0,30.318897,1026.7,,TRUE,TRUE,,,,,,,CLR,,,,,,,,VFR,,,,,,,,,,,,METAR,59.0
KODO 211653Z AUTO 06009KT 10SM CLR 12/03 A3002 RMK AO2 SLP139 T01170033,KODO,2015-02-21T16:53:00Z,31.92,-102.4,11.7,3.3,60,9,,10.0,30.02067,1013.9,,TRUE,TRUE,,,,,,,CLR,,,,,,,,VFR,,,,,,,,,,,,METAR,902.0
KOAK 211653Z 00000KT 10SM FEW008 SCT200 15/08 A2997 RMK AO2 SLP147 T01500083,KOAK,2015-02-21T16:53:00Z,37.72,-122.23,15.0,8.3,0,0,,10.0,29.970472,1014.7,,,TRUE,,,,,,,FEW,800,SCT,20000,,,,,VFR,,,,,,,,,,,,METAR,26.0
KNEW 211653Z 18020G28KT 10SM OVC090 22/12 A3009 RMK AO2 PK WND 17028/1617 SLP183 T02220117,KNEW,2015-02-21T16:53:00Z,30.05,-90.03,22.2,11.7,180,20,28,10.0,30.088583,1018.3,,,TRUE,,,,,,,OVC,9000,,,,,,,VFR,,,,,,,,,,,,METAR,3.0
KMYV 211653Z AUTO 00000KT 1SM BR OVC002 10/09 A2999 RMK AO2 SLP159 T01000094,KMYV,2015-02-21T16:53:00Z,39.1,-121.57,10.0,9.4,0,0,,1.0,29.991142,1015.9,,TRUE,TRUE,,,,,,BR,OVC,200,,,,,,,LIFR,,,,,,,,,,,,METAR,21.0
KMYF 211653Z 11003KT 10SM BKN032 16/08 A2999 RMK AO2 SLP153 T01610078,KMYF,2015-02-21T16:53:00Z,32.82,-117.13,16.1,7.8,110,3,,10.0,29.991142,1015.3,,,TRUE,,,,,,,BKN,3200,,,,,,,VFR,,,,,,,,,,,,METAR,136.0
KMWL 211653Z AUTO 33014KT 6SM HZ OVC014 08/04 A2997 RMK AO2 SLP144 T00780039,KMWL,2015-02-21T16:53:00Z,32.78,-98.07,7.8,3.9,330,14,,6.0,29.970472,1014.4,,TRUE,TRUE,,,,,,HZ,OVC,1400,,,,,,,MVFR,,,,,,,,,,,,METAR,284.0
KMVY 211653Z 22014KT 10SM CLR M01/M08 A3047 RMK AO2 SLP319 T10061083,KMVY,2015-02-21T16:53:00Z,41.4,-70.62,-0.6,-8.3,220,14,,10.0,30.469488,1031.9,,,TRUE,,,,,,,CLR,,,,,,,,VFR,,,,,,,,,,,,METAR,16.0
KMTO 211653Z AUTO 01006KT 8SM FEW025 M03/M06 A2992 RMK AO2 SLP141 T10331061,KMTO,2015-02-21T16:53:00Z,39.47,-88.27,-3.3,-6.1,10,6,,8.0,29.920275,1014.1,,TRUE,TRUE,,,,,,,FEW,2500,,,,,,,VFR,,,,,,,,,,,,METAR,214.0
KMSY 211653Z 17016G21KT 10SM OVC090 20/13 A3009 RMK AO2 SLP193 T02000128,KMSY,2015-02-21T16:53:00Z,30.0,-90.25,20.0,12.8,170,16,21,10.0,30.088583,1019.3,,,TRUE,,,,,,,OVC,9000,,,,,,,VFR,,,,,,,,,,,,METAR,5.0
KMSS 211653Z AUTO 03009KT 10SM OVC055 M09/M18 A3014 RMK AO2 SLP217 T10941178,KMSS,2015-02-21T16:53:00Z,44.93,-74.85,-9.4,-17.8,30,9,,10.0,30.138779,1021.7,,TRUE,TRUE,,,,,,,OVC,5500,,,,,,,VFR,,,,,,,,,,,,METAR,66.0
KMPO 211653Z AUTO 17012G19KT 1 1/4SM -SN BKN022 OVC031 M11/M17 A3020 RMK AO2 SNB24 SLP275 P0000 T11111172,KMPO,2015-02-21T16:53:00Z,41.13,-75.38,-11.1,-17.2,170,12,19,1.25,30.200787,1027.5,,TRUE,TRUE,,,,,,-SN,BKN,2200,OVC,3100,,,,,IFR,,,,,,0.0050,,,,,,METAR,577.0
KMOD 211653Z 21003KT 3SM BR OVC007 11/09 A2998 RMK AO2 SLP154 T01110089,KMOD,2015-02-21T16:53:00Z,37.62,-120.95,11.1,8.9,210,3,,3.0,29.97933,1015.4,,,TRUE,,,,,,BR,OVC,700,,,,,,,IFR,,,,,,,,,,,,METAR,29.0
KMMV 211653Z AUTO 35003KT 10SM BKN046 07/03 A3026 RMK AO2 SLP248 T00720033 $,KMMV,2015-02-21T16:53:00Z,45.2,-123.13,7.2,3.3,350,3,,10.0,30.259842,1024.8,,TRUE,TRUE,TRUE,,,,,,BKN,4600,,,,,,,VFR,,,,,,,,,,,,METAR,48.0
KMMK 211653Z AUTO 18011G20KT 10SM CLR M04/M12 A3044 RMK AO2 SLP313 T10391122 TSNO,KMMK,2015-02-21T16:53:00Z,41.52,-72.83,-3.9,-12.2,180,11,20,10.0,30.43996,1031.3,,TRUE,TRUE,,,TRUE,,,,CLR,,,,,,,,VFR,,,,,,,,,,,,METAR,31.0
KMLU 211653Z 19017G22KT 10SM FEW014 BKN048 OVC120 18/16 A2993 RMK AO2 RAE29 SLP133 P0004 T01830161,KMLU,2015-02-21T16:53:00Z,32.52,-92.03,18.3,16.1,190,17,22,10.0,29.929134,1013.3,,,TRUE,,,,,,,FEW,1400,BKN,4800,OVC,12000,,,VFR,,,,,,0.04,,,,,,METAR,29.0
KMLT 211653Z AUTO 18007KT 140V270 10SM SCT110 M08/M23 A3037 RMK AO2 SLP298 T10831228,KMLT,2015-02-21T16:53:00Z,45.65,-68.7,-8.3,-22.8,180,7,,10.0,30.369095,1029.8,,TRUE,TRUE,,,,,,,SCT,11000,,,,,,,VFR,,,,,,,,,,,,METAR,123.0
KMLC 211653Z AUTO 01014KT 10SM OVC009 05/02 A2996 RMK AO2 SLP146 T00500022,KMLC,2015-02-21T16:53:00Z,34.88,-95.78,5.0,2.2,10,14,,10.0,29.958662,1014.6,,TRUE,TRUE,,,,,,,OVC,900,,,,,,,IFR,,,,,,,,,,,,METAR,232.0
KMLB 211653Z 13013G18KT 10SM SCT045 21/11 A3031 RMK AO2 SLP263 T02110106,KMLB,2015-02-21T16:53:00Z,28.1,-80.65,21.1,10.6,130,13,18,10.0,30.31004,1026.3,,,TRUE,,,,,,,SCT,4500,,,,,,,VFR,,,,,,,,,,,,METAR,11.0
KMKO 211653Z AUTO 36012KT 10SM OVC011 04/02 A2999 RMK AO2 SLP158 T00440017,KMKO,2015-02-21T16:53:00Z,35.65,-95.37,4.4,1.7,360,12,,10.0,29.991142,1015.8,,TRUE,TRUE,,,,,,,OVC,1100,,,,,,,MVFR,,,,,,,,,,,,METAR,185.0
KMHT 211653Z 18013G22KT 10SM SCT120 OVC200 M06/M19 A3037 RMK AO2 SLP306 T10611189,KMHT,2015-02-21T16:53:00Z,42.93,-71.43,-6.1,-18.9,180,13,22,10.0,30.369095,1030.6,,,TRUE,,,,,,,SCT,12000,OVC,20000,,,,,VFR,,,,,,,,,,,,METAR,81.0
KMGM 211653Z 14009KT 10SM OVC090 13/06 A3018 RMK AO2 SLP220 T01330061,KMGM,2015-02-21T16:53:00Z,32.3,-86.4,13.3,6.1,140,9,,10.0,30.180119,1022.0,,,TRUE,,,,,,,OVC,9000,,,,,,,VFR,,,,,,,,,,,,METAR,63.0
KMFR 211653Z 00000KT 10SM CLR 04/02 A3016 RMK AO2 SLP218 T00440017,KMFR,2015-02-21T16:53:00Z,42.38,-122.87,4.4,1.7,0,0,,10.0,30.159449,1021.8,,,TRUE,,,,,,,CLR,,,,,,,,VFR,,,,,,,,,,,,METAR,396.0
KMFE 211653Z 17019G27KT 10SM FEW027 25/17 A2991 RMK AO2 PK WND 17032/1622 SLP125 T02500172,KMFE,2015-02-21T16:53:00Z,26.18,-98.25,25.0,17.2,170,19,27,10.0,29.911417,1012.5,,,TRUE,,,,,,,FEW,2700,,,,,,,VFR,,,,,,,,,,,,METAR,38.0
KHVN 211653Z 20004KT 10SM FEW032 OVC200 M04/M12 A3045 RMK AO2 SLP310 T10441117,KHVN,2015-02-21T16:53:00Z,41.27,-72.87,-4.4,-11.7,200,4,,10.0,30.448818,1031.0,,,TRUE,,,,,,,FEW,3200,OVC,20000,,,,,VFR,,,,,,,,,,,,METAR,4.0
KHUL 211653Z AUTO 19009KT 10SM BKN095 M10/M21 A3035 RMK AO2 SLP290 T11001206,KHUL,2015-02-21T16:53:00Z,46.12,-67.8,-10.0,-20.6,190,9,,10.0,30.351377,1029.0,,TRUE,TRUE,,,,,,,BKN,9500,,,,,,,VFR,,,,,,,,,,,,METAR,150.0
KHRI 211653Z AUTO 00000KT 5SM HZ OVC085 08/01 A3022 RMK AO2 SLP235 T00830011,KHRI,2015-02-21T16:53:00Z,45.83,-119.27,8.3,1.1,0,0,,5.0,30.221457,1023.5,,TRUE,TRUE,,,,,,HZ,OVC,8500,,,,,,,MVFR,,,,,,,,,,,,METAR,195.0
KHQM 211653Z AUTO 00000KT 7SM CLR 07/06 A3031 RMK AO2 SLP266 T00670056,KHQM,2015-02-21T16:53:00Z,46.97,-123.93,6.7,5.6,0,0,,7.0,30.31004,1026.6,,TRUE,TRUE,,,,,,,CLR,,,,,,,,VFR,,,,,,,,,,,,METAR,7.0
KHOU 211653Z 19014G19KT 9SM SCT024 BKN036 BKN060 BKN200 23/18 A2995 RMK AO2 SLP147 T02280178,KHOU,2015-02-21T16:53:00Z,29.63,-95.28,22.8,17.8,190,14,19,9.0,29.949802,1014.7,,,TRUE,,,,,,,SCT,2400,BKN,3600,BKN,6000,BKN,20000,VFR,,,,,,,,,,,,METAR,36.0
KHLC 211653Z AUTO 03008KT 10SM BKN050 BKN065 OVC085 08/M02 A3003 RMK AO2 SLP177 T00781017,KHLC,2015-02-21T16:53:00Z,39.37,-99.83,7.8,-1.7,30,8,,10.0,30.029528,1017.7,,TRUE,TRUE,,,,,,,BKN,5000,BKN,6500,OVC,8500,,,VFR,,,,,,,,,,,,METAR,669.0
KHKY 211653Z 19006KT 10SM FEW020 OVC047 00/M12 A3031 RMK AO2 SLP266 T00001117,KHKY,2015-02-21T16:53:00Z,35.75,-81.38,0.0,-11.7,190,6,,10.0,30.31004,1026.6,,,TRUE,,,,,,,FEW,2000,OVC,4700,,,,,VFR,,,,,,,,,,,,METAR,354.0
KHJO 211653Z AUTO 00000KT 1SM BR OVC003 11/10 A3000 RMK AO2 SLP160 T01060100,KHJO,2015-02-21T16:53:00Z,36.32,-119.62,10.6,10.0,0,0,,1.0,30.0,1016.0,,TRUE,TRUE,,,,,,BR,OVC,300,,,,,,,LIFR,,,,,,,,,,,,METAR,74.0
KHIO 211653Z 00000KT 10SM SCT040 SCT050 06/04 A3026 RMK AO2 SLP248 T00610039,KHIO,2015-02-21T16:53:00Z,45.55,-122.95,6.1,3.9,0,0,,10.0,30.259842,1024.8,,,TRUE,,,,,,,SCT,4000,SCT,5000,,,,,VFR,,,,,,,,,,,,METAR,68.0
KHHR 211653Z 10005KT 10SM OVC032 17/11 A3001 RMK AO2 SLP160 T01670106,KHHR,2015-02-21T16:53:00Z,33.92,-118.33,16.7,10.6,100,5,,10.0,30.008858,1016.0,,,TRUE,,,,,,,OVC,3200,,,,,,,VFR,,,,,,,,,,,,METAR,18.0
KHFD 211653Z 21015G24KT 10SM CLR M04/M13 A3044 RMK AO2 SLP306 T10391128,KHFD,2015-02-21T16:53:00Z,41.73,-72.65,-3.9,-12.8,210,15,24,10.0,30.43996,1030.6,,,TRUE,,,,,,,CLR,,,,,,,,VFR,,,,,,,,,,,,METAR,4.0
KHBR 211653Z AUTO 06010KT BKN018 08/03 A3004 RMK AO2 SLP173 T00780028 $,KHBR,2015-02-21T16:53:00Z,34.98,-99.05,7.8,2.8,60,10,,,30.041338,1017.3,,TRUE,TRUE,TRUE,,,,,,BKN,1800,,,,,,,,,,,,,,,,,,,METAR,473.0
KHBG 211653Z AUTO 18016G25KT 10SM OVC060 19/11 A3010 RMK AO2 PK WND 18030/1558 SLP191 T01890111,KHBG,2015-02-21T16:53:00Z,31.27,-89.25,18.9,11.1,180,16,25,10.0,30.100393,1019.1,,TRUE,TRUE,,,,,,,OVC,6000,,,,,,,VFR,,,,,,,,,,,,METAR,44.0
KGZH 211653Z AUTO 19017G30KT 10SM FEW045 19/08 A3017 RMK AO2 PK WND 18033/1636 RAB05E08 SLP216 P0000 T01890083,KGZH,2015-02-21T16:53:00Z,31.42,-87.05,18.9,8.3,190,17,30,10.0,30.171259,1021.6,,TRUE,TRUE,,,,,,,FEW,4500,,,,,,,VFR,,,,,,0.0050,,,,,,METAR,78.0
KGVL 211653Z AUTO 07004KT 10SM OVC075 01/M06 A3029 RMK AO2 SLP265 T00111061,KGVL,2015-02-21T16:53:00Z,34.27,-83.83,1.1,-6.1,70,4,,10.0,30.28937,1026.5,,TRUE,TRUE,,,,,,,OVC,7500,,,,,,,VFR,,,,,,,,,,,,METAR,386.0
KGUY 211653Z AUTO 09005KT 10SM BKN100 07/M01 A3003 RMK AO2 SLP165 T00671006,KGUY,2015-02-21T16:53:00Z,36.68,-101.5,6.7,-0.6,90,5,,10.0,30.029528,1016.5,,TRUE,TRUE,,,,,,,BKN,10000,,,,,,,VFR,,,,,,,,,,,,METAR,948.0
KGUP 211653Z AUTO 24022G27KT 10SM CLR 08/M04 A2995 RMK AO2 PK WND 23027/1644 SLP080 T00831039,KGUP,2015-02-21T16:53:00Z,35.52,-108.8,8.3,-3.9,240,22,27,10.0,29.949802,1008.0,,TRUE,TRUE,,,,,,,CLR,,,,,,,,VFR,,,,,,,,,,,,METAR,1971.0
KGSP 211653Z 22008G15KT 170V260 10SM BKN110 06/M09 A3031 RMK AO2 SLP270 T00561089,KGSP,2015-02-21T16:53:00Z,34.9,-82.22,5.6,-8.9,220,8,15,10.0,30.31004,1027.0,,,TRUE,,,,,,,BKN,11000,,,,,,,VFR,,,,,,,,,,,,METAR,287.0
KGPT 211653Z 15013G22KT 9SM BKN030 OVC075 17/12 A3012 RMK AO2 SLP199 T01720117,KGPT,2015-02-21T16:53:00Z,30.42,-89.08,17.2,11.7,150,13,22,9.0,30.121063,1019.9,,,TRUE,,,,,,,BKN,3000,OVC,7500,,,,,MVFR,,,,,,,,,,,,METAR,14.0
KGOK 211653Z AUTO 05011KT 10SM FEW017 08/03 A3002 RMK AO2 SLP171 T00830028,KGOK,2015-02-21T16:53:00Z,35.85,-97.4,8.3,2.8,50,11,,10.0,30.02067,1017.1,,TRUE,TRUE,,,,,,,FEW,1700,,,,,,,VFR,,,,,,,,,,,,METAR,324.0
KGNV 211653Z 17011G19KT 10SM CLR 19/08 A3033 RMK AO2 SLP271 T01890078,KGNV,2015-02-21T16:53:00Z,29.7,-82.28,18.9,7.8,170,11,19,10.0,30.33071,1027.1,,,TRUE,,,,,,,CLR,,,,,,,,VFR,,,,,,,,,,,,METAR,45.0
KGMU 211653Z 21005KT 10SM BKN110 06/M08 A3033 RMK AO2 SLP276 T00561083,KGMU,2015-02-21T16:53:00Z,34.85,-82.35,5.6,-8.3,210,5,,10.0,30.33071,1027.6,,,TRUE,,,,,,,BKN,11000,,,,,,,VFR,,,,,,,,,,,,METAR,315.0
KGKY 211653Z 32013KT 10SM OVC017 11/04 A2995 RMK AO2 SLP138 T01060044,KGKY,2015-02-21T16:53:00Z,32.67,-97.1,10.6,4.4,320,13,,10.0,29.949802,1013.8,,,TRUE,,,,,,,OVC,1700,,,,,,,MVFR,,,,,,,,,,,,METAR,192.0
KGGG 211653Z 20014G22KT 10SM BKN020 OVC028 21/16 A2986 RMK AO2 SLP108 T02060156,KGGG,2015-02-21T16:53:00Z,32.38,-94.72,20.6,15.6,200,14,22,10.0,29.861221,1010.8,,,TRUE,,,,,,,BKN,2000,OVC,2800,,,,,MVFR,,,,,,,,,,,,METAR,107.0
KGFL 211653Z AUTO 20008KT 10SM BKN075 OVC090 M10/M20 A3026 RMK AO2 SLP264 T11001200,KGFL,2015-02-21T16:53:00Z,43.33,-73.62,-10.0,-20.0,200,8,,10.0,30.259842,1026.4,,TRUE,TRUE,,,,,,,BKN,7500,OVC,9000,,,,,VFR,,,,,,,,,,,,METAR,103.0
KGEG 211653Z 05009KT 10SM FEW015 FEW050 SCT075 BKN130 02/M01 A3020 RMK AO2 SNE01 SLP244 P0000 T00171006,KGEG,2015-02-21T16:53:00Z,47.62,-117.53,1.7,-0.6,50,9,,10.0,30.200787,1024.4,,,TRUE,,,,,,,FEW,1500,FEW,5000,SCT,7500,BKN,13000,VFR,,,,,,0.0050,,,,,,METAR,735.0
KGAG 211653Z AUTO 08009KT 10SM CLR 08/01 A3003 RMK AO2 SLP170 T00830006,KGAG,2015-02-21T16:53:00Z,36.3,-99.77,8.3,0.6,80,9,,10.0,30.029528,1017.0,,TRUE,TRUE,,,,,,,CLR,,,,,,,,VFR,,,,,,,,,,,,METAR,668.0
KFWN 211653Z AUTO 20008KT 10SM BKN060 OVC075 M07/M18 A3036 RMK AO2 SLP290 T10721178 PWINO FZRANO $,KFWN,2015-02-21T16:53:00Z,41.2,-74.63,-7.2,-17.8,200,8,,10.0,30.360237,1029.0,,TRUE,TRUE,TRUE,,,TRUE,TRUE,,BKN,6000,OVC,7500,,,,,VFR,,,,,,,,,,,,METAR,133.0
KFVE 211653Z AUTO 18009KT 10SM OVC060 M15/M22 A3026 RMK AO2 SLP271 T11501217,KFVE,2015-02-21T16:53:00Z,47.28,-68.3,-15.0,-21.7,180,9,,10.0,30.259842,1027.1,,TRUE,TRUE,,,,,,,OVC,6000,,,,,,,VFR,,,,,,,,,,,,METAR,301.0
KFUL 211653Z 08004KT 6SM HZ OVC042 17/10 A3000 RMK AO2 SLP158 T01670100,KFUL,2015-02-21T16:53:00Z,33.87,-117.98,16.7,10.0,80,4,,6.0,30.0,1015.8,,,TRUE,,,,,,HZ,OVC,4200,,,,,,,VFR,,,,,,,,,,,,METAR,35.0
KDNL 211653Z AUTO 18013KT 140V200 10SM CLR 13/02 A3032 RMK AO2 SLP266 T01330022,KDNL,2015-02-21T16:53:00Z,33.47,-82.03,13.3,2.2,180,13,,10.0,30.318897,1026.6,,TRUE,TRUE,,,,,,,CLR,,,,,,,,VFR,,,,,,,,,,,,METAR,130.0
KDMO 211653Z AUTO 29006KT 4SM BR CLR 03/01 A2998 RMK AO2 SLP160 T00280006,KDMO,2015-02-21T16:53:00Z,38.72,-93.17,2.8,0.6,290,6,,4.0,29.97933,1016.0,,TRUE,TRUE,,,,,,BR,CLR,,,,,,,,MVFR,,,,,,,,,,,,METAR,274.0
KDMN 211653Z AUTO 25009KT 10SM CLR 16/M01 A3000 RMK AO2 SLP111 T01561011 PWINO,KDMN,2015-02-21T16:53:00Z,32.27,-107.72,15.6,-1.1,250,9,,10.0,30.0,1011.1,,TRUE,TRUE,,,,,TRUE,,CLR,,,,,,,,VFR,,,,,,,,,,,,METAR,1311.0
KDLS 211653Z AUTO 01005KT 10SM OVC080 06/02 A3027 RMK AO2 SLP251 T00610022,KDLS,2015-02-21T16:53:00Z,45.62,-121.17,6.1,2.2,10,5,,10.0,30.268702,1025.1,,TRUE,TRUE,,,,,,,OVC,8000,,,,,,,VFR,,,,,,,,,,,,METAR,71.0
KDHT 211653Z AUTO 11008KT 10SM SCT120 06/M03 A3004 RMK AO2 SLP163 T00611028,KDHT,2015-02-21T16:53:00Z,36.02,-102.55,6.1,-2.8,110,8,,10.0,30.041338,1016.3,,TRUE,TRUE,,,,,,,SCT,12000,,,,,,,VFR,,,,,,,,,,,,METAR,1217.0
KDHN 211653Z AUTO A3026 RMK AO2 SLPNO PWINO FZRANO $,KDHN,2015-02-21T16:53:00Z,31.32,-85.45,,,,,,,30.259842,,,TRUE,TRUE,TRUE,,,TRUE,TRUE,,,,,,,,,,,,,,,,,,,,,,METAR,113.0
KDFW 211653Z 33015KT 10SM OVC018 09/04 A2995 RMK AO2 SLP138 T00940044,KDFW,2015-02-21T16:53:00Z,32.9,-97.02,9.4,4.4,330,15,,10.0,29.949802,1013.8,,,TRUE,,,,,,,OVC,1800,,,,,,,MVFR,,,,,,,,,,,,METAR,174.0
KDEW 211653Z AUTO 04009KT 10SM FEW120 04/M02 A3023 RMK AO2 SLP257 T00441017,KDEW,2015-02-21T16:53:00Z,47.97,-117.43,4.4,-1.7,40,9,,10.0,30.230314,1025.7,,TRUE,TRUE,,,,,,,FEW,12000,,,,,,,VFR,,,,,,,,,,,,METAR,674.0
KDEQ 211653Z AUTO 33004KT 10SM OVC025 13/11 A2983 RMK AO2 SLP098 T01330106,KDEQ,2015-02-21T16:53:00Z,34.05,-94.4,13.3,10.6,330,4,,10.0,29.828741,1009.8,,TRUE,TRUE,,,,,,,OVC,2500,,,,,,,MVFR,,,,,,,,,,,,METAR,106.0
KDAL 211653Z 32013G20KT 10SM OVC020 10/05 A2996 RMK AO2 SLP141 T01000050,KDAL,2015-02-21T16:53:00Z,32.85,-96.85,10.0,5.0,320,13,20,10.0,29.958662,1014.1,,,TRUE,,,,,,,OVC,2000,,,,,,,MVFR,,,,,,,,,,,,METAR,158.0
KDAB 211653Z 17007KT 10SM FEW041 SCT055 BKN070 BKN250 19/09 A3033 RMK AO2 SLP269 T01940094,KDAB,2015-02-21T16:53:00Z,29.18,-81.07,19.4,9.4,170,7,,10.0,30.33071,1026.9,,,TRUE,,,,,,,FEW,4100,SCT,5500,BKN,7000,BKN,25000,VFR,,,,,,,,,,,,METAR,9.0
KCXO 211653Z 21015G21KT 10SM -RA FEW025 BKN039 OVC055 21/16 A2995 RMK AO2 RAB51 SLP139 P0000 T02110161,KCXO,2015-02-21T16:53:00Z,30.35,-95.42,21.1,16.1,210,15,21,10.0,29.949802,1013.9,,,TRUE,,,,,,-RA,FEW,2500,BKN,3900,OVC,5500,,,VFR,,,,,,0.0050,,,,,,METAR,75.0
KCUB 211653Z AUTO 20006KT 10SM CLR 11/M01 A3034 RMK AO2 SLP275 T01061006 $,KCUB,2015-02-21T16:53:00Z,33.97,-81.0,10.6,-0.6,200,6,,10.0,30.339567,1027.5,,TRUE,TRUE,TRUE,,,,,,CLR,,,,,,,,VFR,,,,,,,,,,,,METAR,56.0
KCSM 211653Z AUTO 01008KT 10SM SCT016 07/02 A3005 RMK AO2 SLP178 T00720017,KCSM,2015-02-21T16:53:00Z,35.35,-99.2,7.2,1.7,10,8,,10.0,30.050198,1017.8,,TRUE,TRUE,,,,,,,SCT,1600,,,,,,,VFR,,,,,,,,,,,,METAR,588.0
KCRS 211653Z AUTO 31011KT 10SM OVC065 15/11 A2991 RMK AO2 WSHFT 1547 RAB08E32 SLP126 P0000 T01500111,KCRS,2015-02-21T16:53:00Z,32.03,-96.4,15.0,11.1,310,11,,10.0,29.911417,1012.6,,TRUE,TRUE,,,,,,,OVC,6500,,,,,,,VFR,,,,,,0.0050,,,,,,METAR,133.0
KCRQ 211653Z AUTO 16005KT 10SM OVC033 16/09 A2999 RMK AO2 SLP154 T01610089 TSNO $,KCRQ,2015-02-21T16:53:00Z,33.13,-117.28,16.1,8.9,160,5,,10.0,29.991142,1015.4,,TRUE,TRUE,TRUE,,TRUE,,,,OVC,3300,,,,,,,VFR,,,,,,,,,,,,METAR,99.0
KCRG 211653Z VRB06KT 10SM SCT055 18/07 A3034 RMK AO2 SLP273 T01780067,KCRG,2015-02-21T16:53:00Z,30.33,-81.52,17.8,6.7,0,6,,10.0,30.339567,1027.3,,,TRUE,,,,,,,SCT,5500,,,,,,,VFR,,,,,,,,,,,,METAR,13.0
KCOT 211653Z AUTO VRB05KT 10SM CLR 23/14 A2990 RMK AO2 SLP119 T02280144,KCOT,2015-02-21T16:53:00Z,28.45,-99.22,22.8,14.4,0,5,,10.0,29.899607,1011.9,,TRUE,TRUE,,,,,,,CLR,,,,,,,,VFR,,,,,,,,,,,,METAR,140.0
KCNO 211653Z 00000KT 3SM HZ OVC032 14/11 A3003 RMK AO2 SLP166 T01390106,KCNO,2015-02-21T16:53:00Z,33.98,-117.62,13.9,10.6,0,0,,3.0,30.029528,1016.6,,,TRUE,,,,,,HZ,OVC,3200,,,,,,,MVFR,,,,,,,,,,,,METAR,207.0
KCNM 211653Z AUTO 03003KT 10SM CLR 13/00 A3003 RMK AO2 SLP132 T01280000 $,KCNM,2015-02-21T16:53:00Z,32.33,-104.25,12.8,0.0,30,3,,10.0,30.029528,1013.2,,TRUE,TRUE,TRUE,,,,,,CLR,,,,,,,,VFR,,,,,,,,,,,,METAR,985.0
KCLM 211653Z AUTO 13007KT 10SM CLR 08/04 A3036 RMK AO2 SLP283 T00830044,KCLM,2015-02-21T16:53:00Z,48.12,-123.5,8.3,4.4,130,7,,10.0,30.360237,1028.3,,TRUE,TRUE,,,,,,,CLR,,,,,,,,VFR,,,,,,,,,,,,METAR,85.0
KCLL 211653Z 20015G22KT 10SM BKN023 OVC028 21/16 A2990 RMK AO2 SLP121 T02110161,KCLL,2015-02-21T16:53:00Z,30.58,-96.37,21.1,16.1,200,15,22,10.0,29.899607,1012.1,,,TRUE,,,,,,,BKN,2300,OVC,2800,,,,,MVFR,,,,,,,,,,,,METAR,96.0
KCHA 211653Z 18003KT 10SM -RA FEW030 BKN060 OVC070 02/M02 A3015 RMK AO2 SLP216 P0001 T00171017 $,KCHA,2015-02-21T16:53:00Z,35.03,-85.2,1.7,-1.7,180,3,,10.0,30.15059,1021.6,,,TRUE,TRUE,,,,,-RA,FEW,3000,BKN,6000,OVC,7000,,,VFR,,,,,,0.01,,,,,,METAR,210.0
KCEW 211653Z AUTO 17016G26KT 10SM BKN033 19/10 A3022 RMK AO2 PK WND 19033/1621 SLP231 T01940100,KCEW,2015-02-21T16:53:00Z,30.78,-86.52,19.4,10.0,170,16,26,10.0,30.221457,1023.1,,TRUE,TRUE,,,,,,,BKN,3300,,,,,,,VFR,,,,,,,,,,,,METAR,55.0
KCDW 211653Z 22008G17KT 10SM OVC080 M05/M14 A3043 RMK AO2 SLP315 T10501144,KCDW,2015-02-21T16:53:00Z,40.88,-74.28,-5.0,-14.4,220,8,17,10.0,30.431103,1031.5,,,TRUE,,,,,,,OVC,8000,,,,,,,VFR,,,,,,,,,,,,METAR,64.0
KCDS 211653Z AUTO 04007KT 10SM OVC017 07/01 A3007 RMK AO2 SLP181 T00670011,KCDS,2015-02-21T16:53:00Z,34.43,-100.28,6.7,1.1,40,7,,10.0,30.070866,1018.1,,TRUE,TRUE,,,,,,,OVC,1700,,,,,,,MVFR,,,,,,,,,,,,METAR,594.0
KCCR 211653Z 33003KT 5SM HZ FEW008 12/08 A2999 RMK AO2 SLP140 T01170083,KCCR,2015-02-21T16:53:00Z,38.0,-122.05,11.7,8.3,330,3,,5.0,29.991142,1014.0,,,TRUE,,,,,,HZ,FEW,800,,,,,,,MVFR,,,,,,,,,,,,METAR,11.0
KBVY 211653Z 19014G20KT 10SM BKN120 M04/M13 A3042 RMK AO2 SLP299 T10441133,KBVY,2015-02-21T16:53:00Z,42.58,-70.92,-4.4,-13.3,190,14,20,10.0,30.41929,1029.9,,,TRUE,,,,,,,BKN,12000,,,,,,,VFR,,,,,,,,,,,,METAR,28.0
KBUR 211653Z 11005KT 10SM OVC031 15/08 A3000 RMK AO2 SLP151 T01500078,KBUR,2015-02-21T16:53:00Z,34.2,-118.37,15.0,7.8,110,5,,10.0,30.0,1015.1,,,TRUE,,,,,,,OVC,3100,,,,,,,VFR,,,,,,,,,,,,SPECI,217.0
KFTY 211653Z 12006KT 10SM OVC075 06/M06 A3023 RMK AO2 SLP242 T00561061,KFTY,2015-02-21T16:53:00Z,33.78,-84.52,5.6,-6.1,120,6,,10.0,30.230314,1024.2,,,TRUE,,,,,,,OVC,7500,,,,,,,VFR,,,,,,,,,,,,METAR,263.0
KFTW 211653Z 34013KT 8SM OVC016 10/05 A2996 RMK AO2 SLP142 T01000050,KFTW,2015-02-21T16:53:00Z,32.83,-97.37,10.0,5.0,340,13,,8.0,29.958662,1014.2,,,TRUE,,,,,,,OVC,1600,,,,,,,MVFR,,,,,,,,,,,,METAR,214.0
KFST 211653Z AUTO 33006KT 10SM CLR 14/04 A3001 RMK AO2 SLP131 T01390039,KFST,2015-02-21T16:53:00Z,30.92,-102.92,13.9,3.9,330,6,,10.0,30.008858,1013.1,,TRUE,TRUE,,,,,,,CLR,,,,,,,,VFR,,,,,,,,,,,,METAR,918.0
KFRG 211653Z 20014G23KT 10SM CLR M02/M08 A3045 RMK AO2 SLP313 T10171083,KFRG,2015-02-21T16:53:00Z,40.73,-73.42,-1.7,-8.3,200,14,23,10.0,30.448818,1031.3,,,TRUE,,,,,,,CLR,,,,,,,,VFR,,,,,,,,,,,,METAR,21.0
KFOK 211653Z 21011G21KT 10SM FEW029 M01/M08 A3046 RMK AO2 SLP317 T10061078,KFOK,2015-02-21T16:53:00Z,40.85,-72.62,-0.6,-7.8,210,11,21,10.0,30.46063,1031.7,,,TRUE,,,,,,,FEW,2900,,,,,,,VFR,,,,,,,,,,,,METAR,33.0
KFOE 211653Z 36009KT 9SM CLR 07/02 A2999 RMK AO2 SLP161 T00670017,KFOE,2015-02-21T16:53:00Z,38.93,-95.65,6.7,1.7,360,9,,9.0,29.991142,1016.1,,,TRUE,,,,,,,CLR,,,,,,,,VFR,,,,,,,,,,,,METAR,320.0
KFNB 211653Z AUTO 36010KT 10SM CLR 06/M01 A3000 RMK AO2 SLP165 T00611011,KFNB,2015-02-21T16:53:00Z,40.07,-95.58,6.1,-1.1,360,10,,10.0,30.0,1016.5,,TRUE,TRUE,,,,,,,CLR,,,,,,,,VFR,,,,,,,,,,,,METAR,300.0
KFMN 211653Z 35003KT 10SM OVC090 03/M11 A2993 RMK AO2 SLP132 T00331106,KFMN,2015-02-21T16:53:00Z,36.75,-108.23,3.3,-10.6,350,3,,10.0,29.929134,1013.2,,,TRUE,,,,,,,OVC,9000,,,,,,,VFR,,,,,,,,,,,,METAR,1685.0
KFLO 211653Z 11005KT 10SM SCT024 BKN031 06/M02 A3037 RMK AO2 SLP285 T00611022,KFLO,2015-02-21T16:53:00Z,34.18,-79.73,6.1,-2.2,110,5,,10.0,30.369095,1028.5,,,TRUE,,,,,,,SCT,2400,BKN,3100,,,,,VFR,,,,,,,,,,,,METAR,44.0
KFHR 211653Z AUTO VRB06KT 10SM CLR 08/05 A3037 RMK AO2 SLP283 T00780050,KFHR,2015-02-21T16:53:00Z,48.52,-123.03,7.8,5.0,0,6,,10.0,30.369095,1028.3,,TRUE,TRUE,,,,,,,CLR,,,,,,,,VFR,,,,,,,,,,,,METAR,32.0
KFFC 211653Z AUTO 15007KT 10SM OVC080 06/M05 A3024 RMK AO2 SLP248 T00611050,KFFC,2015-02-21T16:53:00Z,33.35,-84.57,6.1,-5.0,150,7,,10.0,30.239174,1024.8,,TRUE,TRUE,,,,,,,OVC,8000,,,,,,,VFR,,,,,,,,,,,,METAR,262.0
KFDR 211653Z AUTO 01009KT 10SM OVC020 08/02 A3001 RMK AO2 SLP162 T00780022 $,KFDR,2015-02-21T16:53:00Z,34.35,-98.98,7.8,2.2,10,9,,10.0,30.008858,1016.2,,TRUE,TRUE,TRUE,,,,,,OVC,2000,,,,,,,MVFR,,,,,,,,,,,,METAR,386.0
KFAT 211653Z 19003KT 2SM BR OVC005 11/09 A2999 RMK AO2 SLP155 T01060094,KFAT,2015-02-21T16:53:00Z,36.78,-119.72,10.6,9.4,190,3,,2.0,29.991142,1015.5,,,TRUE,,,,,,BR,OVC,500,,,,,,,IFR,,,,,,,,,,,,METAR,104.0
KEWB 211653Z 19017G25KT 10SM CLR M01/M08 A3045 RMK AO2 SLP310 T10111078,KEWB,2015-02-21T16:53:00Z,41.68,-70.95,-1.1,-7.8,190,17,25,10.0,30.448818,1031.0,,,TRUE,,,,,,,CLR,,,,,,,,VFR,,,,,,,,,,,,METAR,23.0
KESF 211653Z AUTO 20010G21KT 10SM -RA FEW032 OVC046 21/14 A2999 RMK AO2 RAB41 SLP153 P0000 T02060144,KESF,2015-02-21T16:53:00Z,31.4,-92.28,20.6,14.4,200,10,21,10.0,29.991142,1015.3,,TRUE,TRUE,,,,,,-RA,FEW,3200,OVC,4600,,,,,VFR,,,,,,0.0050,,,,,,METAR,28.0
KEQY 211653Z AUTO 16005KT 10SM OVC015 03/M06 A3034 RMK AO2 SLP298 T00281056,KEQY,2015-02-21T16:53:00Z,35.02,-80.62,2.8,-5.6,160,5,,10.0,30.339567,1029.8,,TRUE,TRUE,,,,,,,OVC,1500,,,,,,,MVFR,,,,,,,,,,,,METAR,212.0
KEPH 211653Z AUTO 36019G25KT 10SM CLR 08/M03 A3022 RMK AO2 PK WND 36027/1601 SLP238 T00831028,KEPH,2015-02-21T16:53:00Z,47.3,-119.52,8.3,-2.8,360,19,25,10.0,30.221457,1023.8,,TRUE,TRUE,,,,,,,CLR,,,,,,,,VFR,,,,,,,,,,,,METAR,383.0
KEMP 211653Z AUTO 36006KT 10SM CLR 06/03 A2998 RMK AO2 SLP164 T00610028,KEMP,2015-02-21T16:53:00Z,38.33,-96.2,6.1,2.8,360,6,,10.0,29.97933,1016.4,,TRUE,TRUE,,,,,,,CLR,,,,,,,,VFR,,,,,,,,,,,,METAR,367.0
KELN 211653Z AUTO 33006KT 10SM FEW070 FEW085 08/M01 A3023 RMK AO2 SLP245 T00781006,KELN,2015-02-21T16:53:00Z,47.03,-120.53,7.8,-0.6,330,6,,10.0,30.230314,1024.5,,TRUE,TRUE,,,,,,,FEW,7000,FEW,8500,,,,,VFR,,,,,,,,,,,,METAR,519.0
KELD 211653Z AUTO 20015G21KT 8SM -RA BKN022 OVC029 19/16 A2985 RMK AO2 RAB30 SLP105 P0001 T01890156,KELD,2015-02-21T16:53:00Z,33.22,-92.82,18.9,15.6,200,15,21,8.0,29.84941,1010.5,,TRUE,TRUE,,,,,,-RA,BKN,2200,OVC,2900,,,,,MVFR,,,,,,0.01,,,,,,METAR,81.0
KEET 211653Z AUTO 16011G18KT 10SM FEW028 OVC090 12/04 A3011 RMK AO2 SLP197 T01170044,KEET,2015-02-21T16:53:00Z,33.18,-86.78,11.7,4.4,160,11,18,10.0,30.109253,1019.7,,TRUE,TRUE,,,,,,,FEW,2800,OVC,9000,,,,,VFR,,,,,,,,,,,,METAR,173.0
KECP 211653Z 15016G25KT 10SM SCT021 17/11 A3027 RMK AO2 PK WND 14027/1629 SLP262 T01720106 $,KECP,2015-02-21T16:53:00Z,30.35,-85.8,17.2,10.6,150,16,25,10.0,30.268702,1026.2,,,TRUE,TRUE,,,,,,SCT,2100,,,,,,,VFR,,,,,,,,,,,,METAR,21.0
KDXR 211653Z 22012G20KT 10SM CLR M05/M18 A3042 RMK AO2 SLP309 T10501178,KDXR,2015-02-21T16:53:00Z,41.37,-73.48,-5.0,-17.8,220,12,20,10.0,30.41929,1030.9,,,TRUE,,,,,,,CLR,,,,,,,,VFR,,,,,,,,,,,,METAR,139.0
KDWH 211653Z 19014G24KT 10SM FEW024 BKN049 OVC060 22/16 A2995 RMK AO2 SLP140 T02220161,KDWH,2015-02-21T16:53:00Z,30.07,-95.55,22.2,16.1,190,14,24,10.0,29.949802,1014.0,,,TRUE,,,,,,,FEW,2400,BKN,4900,OVC,6000,,,VFR,,,,,,,,,,,,METAR,46.0
KDVT 211653Z 10006KT 10SM CLR 18/02 A2991 RMK AO2 SLP116 T01780022,KDVT,2015-02-21T16:53:00Z,33.68,-112.07,17.8,2.2,100,6,,10.0,29.911417,1011.6,,,TRUE,,,,,,,CLR,,,,,,,,VFR,,,,,,,,,,,,METAR,443.0
KDTS 211653Z AUTO 15016G23KT 10SM OVC030 18/12 A3023 RMK AO2 SLP235 T01830117 TSNO,KDTS,2015-02-21T16:53:00Z,30.4,-86.47,18.3,11.7,150,16,23,10.0,30.230314,1023.5,,TRUE,TRUE,,,TRUE,,,,OVC,3000,,,,,,,MVFR,,,,,,,,,,,,METAR,5.0
KDTO 211653Z 33014KT 10SM OVC015 08/04 A2998 RMK AO2 SLP150 T00780039,KDTO,2015-02-21T16:53:00Z,33.2,-97.2,7.8,3.9,330,14,,10.0,29.97933,1015.0,,,TRUE,,,,,,,OVC,1500,,,,,,,MVFR,,,,,,,,,,,,METAR,196.0
KDTN 211653Z AUTO 20017G24KT 10SM BKN026 OVC033 20/15 A2987 RMK AO2 PK WND 20026/1643 RAE1559 SLP112 P0000 T02000150 $,KDTN,2015-02-21T16:53:00Z,32.55,-93.75,20.0,15.0,200,17,24,10.0,29.870079,1011.2,,TRUE,TRUE,TRUE,,,,,,BKN,2600,OVC,3300,,,,,MVFR,,,,,,0.0050,,,,,,METAR,53.0
KDRT 211653Z AUTO VRB03KT 10SM CLR 21/14 A2989 RMK AO2 SLP112 T02060144,KDRT,2015-02-21T16:53:00Z,29.37,-100.92,20.6,14.4,0,3,,10.0,29.890747,1011.2,,TRUE,TRUE,,,,,,,CLR,,,,,,,,VFR,,,,,,,,,,,,METAR,313.0
KBTR 211653Z 17021G31KT 10SM SCT047 BKN100 23/13 A3003 RMK AO2 PK WND 16032/1633 SLP168 T02280128,KBTR,2015-02-21T16:53:00Z,30.53,-91.15,22.8,12.8,170,21,31,10.0,30.029528,1016.8,,,TRUE,,,,,,,SCT,4700,BKN,10000,,,,,VFR,,,,,,,,,,,,METAR,21.0
KBPT 211653Z 18015G24KT 9SM FEW028 BKN037 OVC050 21/16 A3000 RMK AO2 PK WND 18027/1559 SLP157 T02110161,KBPT,2015-02-21T16:53:00Z,29.95,-94.03,21.1,16.1,180,15,24,9.0,30.0,1015.7,,,TRUE,,,,,,,FEW,2800,BKN,3700,OVC,5000,,,VFR,,,,,,,,,,,,METAR,5.0
KBNO 211653Z AUTO 30009KT 10SM CLR 04/M03 A3007 RMK AO2 SLP196 T00391033,KBNO,2015-02-21T16:53:00Z,43.6,-118.95,3.9,-3.3,300,9,,10.0,30.070866,1019.6,,TRUE,TRUE,,,,,,,CLR,,,,,,,,VFR,,,,,,,,,,,,METAR,1264.0
KBMQ 211653Z AUTO A2991 RMK AO2 SLPNO PWINO FZRANO $,KBMQ,2015-02-21T16:53:00Z,30.73,-98.23,,,,,,,29.911417,,,TRUE,TRUE,TRUE,,,TRUE,TRUE,,,,,,,,,,,,,,,,,,,,,,METAR,389.0
KBLI 211653Z 32007KT 10SM CLR 06/04 A3036 RMK AO2 SLP289 T00560044 $,KBLI,2015-02-21T16:53:00Z,48.8,-122.53,5.6,4.4,320,7,,10.0,30.360237,1028.9,,,TRUE,TRUE,,,,,,CLR,,,,,,,,VFR,,,,,,,,,,,,METAR,50.0
KBKE 211653Z AUTO 29016G21KT 10SM FEW050 OVC060 02/00 A3010 RMK AO2 SNE1559 SLP210 P0000 T00220000 TSNO,KBKE,2015-02-21T16:53:00Z,44.85,-117.82,2.2,0.0,290,16,21,10.0,30.100393,1021.0,,TRUE,TRUE,,,TRUE,,,,FEW,5000,OVC,6000,,,,,VFR,,,,,,0.0050,,,,,,METAR,1024.0
KBHM 211653Z 17018G26KT 10SM SCT060 OVC090 12/04 A3010 RMK AO2 PK WND 17028/1634 SLP193 T01170039,KBHM,2015-02-21T16:53:00Z,33.57,-86.75,11.7,3.9,170,18,26,10.0,30.100393,1019.3,,,TRUE,,,,,,,SCT,6000,OVC,9000,,,,,VFR,,,,,,,,,,,,METAR,197.0
KBGR 211653Z 19010G14KT 10SM OVC100 M06/M16 A3040 RMK AO2 SLP302 T10611156,KBGR,2015-02-21T16:53:00Z,44.8,-68.82,-6.1,-15.6,190,10,14,10.0,30.398623,1030.2,,,TRUE,,,,,,,OVC,10000,,,,,,,VFR,,,,,,,,,,,,METAR,57.0
KBFM 211653Z 16014G19KT 10SM CLR 17/11 A3017 RMK AO2 SLP215 T01720106,KBFM,2015-02-21T16:53:00Z,30.62,-88.07,17.2,10.6,160,14,19,10.0,30.171259,1021.5,,,TRUE,,,,,,,CLR,,,,,,,,VFR,,,,,,,,,,,,METAR,20.0
KBFI 211653Z 36004KT 10SM OVC018 09/04 A3033 RMK AO2 SLP268 T00890044,KBFI,2015-02-21T16:53:00Z,47.55,-122.32,8.9,4.4,360,4,,10.0,30.33071,1026.8,,,TRUE,,,,,,,OVC,1800,,,,,,,MVFR,,,,,,,,,,,,METAR,4.0
KBAF 211653Z 18011KT 10SM BKN110 M06/M17 A3039 RMK AO2 SLP303 T10611172,KBAF,2015-02-21T16:53:00Z,42.17,-72.72,-6.1,-17.2,180,11,,10.0,30.389763,1030.3,,,TRUE,,,,,,,BKN,11000,,,,,,,VFR,,,,,,,,,,,,SPECI,83.0
KAUS 211653Z 19015G23KT 9SM BKN023 OVC030 22/16 A2990 RMK AO2 SLP117 T02170161,KAUS,2015-02-21T16:53:00Z,30.18,-97.68,21.7,16.1,190,15,23,9.0,29.899607,1011.7,,,TRUE,,,,,,,BKN,2300,OVC,3000,,,,,MVFR,,,,,,,,,,,,METAR,166.0
KAUG 211653Z AUTO 14009KT 10SM BKN095 BKN110 M09/M20 A3038 RMK AO2 SLP296 T10891200,KAUG,2015-02-21T16:53:00Z,44.32,-69.8,-8.9,-20.0,140,9,,10.0,30.380905,1029.6,,TRUE,TRUE,,,,,,,BKN,9500,BKN,11000,,,,,VFR,,,,,,,,,,,,METAR,109.0
KASD 211653Z AUTO 17013G24KT 10SM FEW070 OVC100 21/12 A3010 RMK AO2 PK WND 17028/1555 SLP193 T02060122,KASD,2015-02-21T16:53:00Z,30.35,-89.82,20.6,12.2,170,13,24,10.0,30.100393,1019.3,,TRUE,TRUE,,,,,,,FEW,7000,OVC,10000,,,,,VFR,,,,,,,,,,,,METAR,9.0
KARA 211653Z 18021G29KT 10SM -RA OVC090 21/14 A3004 RMK AO2 PK WND 18029/1649 RAB51 SLP171 P0000 T02060144,KARA,2015-02-21T16:53:00Z,30.03,-91.88,20.6,14.4,180,21,29,10.0,30.041338,1017.1,,,TRUE,,,,,,-RA,OVC,9000,,,,,,,VFR,,,,,,0.0050,,,,,,METAR,18.0
KANB 211653Z AUTO VRB06KT 10SM SCT027 OVC065 09/03 A3016 RMK AO2 SLP220 T00940028,KANB,2015-02-21T16:53:00Z,33.58,-85.85,9.4,2.8,0,6,,10.0,30.159449,1022.0,,TRUE,TRUE,,,,,,,SCT,2700,OVC,6500,,,,,VFR,,,,,,,,,,,,METAR,183.0
KAMG 211653Z AUTO 16015G23KT 10SM CLR 18/04 A3030 RMK AO2 SLP260 T01780039,KAMG,2015-02-21T16:53:00Z,31.53,-82.5,17.8,3.9,160,15,23,10.0,30.301182,1026.0,,TRUE,TRUE,,,,,,,CLR,,,,,,,,VFR,,,,,,,,,,,,METAR,59.0
KAMA 211653Z 08009KT 10SM CLR 07/M01 A3004 RMK AO2 SLP162 T00671011,KAMA,2015-02-21T16:53:00Z,35.22,-101.72,6.7,-1.1,80,9,,10.0,30.041338,1016.2,,,TRUE,,,,,,,CLR,,,,,,,,VFR,,,,,,,,,,,,METAR,1093.0
KALW 211653Z 20007KT 10SM BKN100 06/02 A3019 RMK AO2 SLP228 T00560022,KALW,2015-02-21T16:53:00Z,46.1,-118.28,5.6,2.2,200,7,,10.0,30.188976,1022.8,,,TRUE,,,,,,,BKN,10000,,,,,,,VFR,,,,,,,,,,,,METAR,363.0
KALI 211653Z AUTO 19016G23KT 10SM OVC029 23/17 A2990 RMK AO2 SLP123 T02330167,KALI,2015-02-21T16:53:00Z,27.73,-98.02,23.3,16.7,190,16,23,10.0,29.899607,1012.3,,TRUE,TRUE,,,,,,,OVC,2900,,,,,,,MVFR,,,,,,,,,,,,METAR,53.0
KAGS 211653Z 19010KT 10SM CLR 14/02 A3032 RMK AO2 SLP267 T01390017,KAGS,2015-02-21T16:53:00Z,33.37,-81.97,13.9,1.7,190,10,,10.0,30.318897,1026.7,,,TRUE,,,,,,,CLR,,,,,,,,VFR,,,,,,,,,,,,METAR,44.0
KAFW 211653Z 33012KT 10SM OVC016 08/04 A2998 RMK AO2 SLP149 T00830044,KAFW,2015-02-21T16:53:00Z,32.97,-97.32,8.3,4.4,330,12,,10.0,29.97933,1014.9,,,TRUE,,,,,,,OVC,1600,,,,,,,MVFR,,,,,,,,,,,,METAR,233.0
KAEX 211653Z AUTO 19016G24KT 10SM OVC048 19/15 A2997 RMK AO2 PK WND 18028/1605 RAB17E49 SLP152 P0000 T01940150,KAEX,2015-02-21T16:53:00Z,31.33,-92.57,19.4,15.0,190,16,24,10.0,29.970472,1015.2,,TRUE,TRUE,,,,,,,OVC,4800,,,,,,,VFR,,,,,,0.0050,,,,,,METAR,27.0
KACV 211653Z AUTO 00000KT 10SM CLR 10/08 A3004 RMK AO2 SLP178 T01000083,KACV,2015-02-21T16:53:00Z,40.98,-124.1,10.0,8.3,0,0,,10.0,30.041338,1017.8,,TRUE,TRUE,,,,,,,CLR,,,,,,,,VFR,,,,,,,,,,,,METAR,67.0
KACK 211653Z 17011KT 10SM OVC029 M01/M06 A3050 RMK AO2 SLP327 T10111061,KACK,2015-02-21T16:53:00Z,41.25,-70.07,-1.1,-6.1,170,11,,10.0,30.499016,1032.7,,,TRUE,,,,,,,OVC,2900,,,,,,,MVFR,,,,,,,,,,,,METAR,16.0
KABY 211653Z 19015G22KT 10SM CLR 17/03 A3029 RMK AO2 PK WND 18027/1619 SLP258 T01670028,KABY,2015-02-21T16:53:00Z,31.53,-84.2,16.7,2.8,190,15,22,10.0,30.28937,1025.8,,,TRUE,,,,,,,CLR,,,,,,,,VFR,,,,,,,,,,,,METAR,58.0
KAAF 211653Z AUTO 15014KT 10SM CLR 18/11 A3029 RMK AO2 SLP257 T01830106,KAAF,2015-02-21T16:53:00Z,29.73,-85.03,18.3,10.6,150,14,,10.0,30.28937,1025.7,,TRUE,TRUE,,,,,,,CLR,,,,,,,,VFR,,,,,,,,,,,,METAR,5.0
KNQX 211653Z 10013KT 10SM SCT035 BKN050 22/14 A3023 RMK AO2 SLP234 T02170144 $,KNQX,2015-02-21T16:53:00Z,24.57,-81.67,21.7,14.4,100,13,,10.0,30.230314,1023.4,,,TRUE,TRUE,,,,,,SCT,3500,BKN,5000,,,,,VFR,,,,,,,,,,,,METAR,2.0
KFNT 211653Z 22006KT 8SM OVC013 M07/M11 A2995 RMK AO2 SLP156 T10671106 $,KFNT,2015-02-21T16:53:00Z,42.97,-83.75,-6.7,-10.6,220,6,,8.0,29.949802,1015.6,,,TRUE,TRUE,,,,,,OVC,1300,,,,,,,MVFR,,,,,,,,,,,,METAR,233.0
KOXB 211653Z AUTO 21011KT 10SM OVC060 M01/M07 A3046 RMK AO2 SLP314 T10061067 TSNO,KOXB,2015-02-21T16:53:00Z,38.32,-75.12,-0.6,-6.7,210,11,,10.0,30.46063,1031.4,,TRUE,TRUE,,,TRUE,,,,OVC,6000,,,,,,,VFR,,,,,,,,,,,,SPECI,3.0
KOVL 211653Z AUTO 33014KT 10SM SCT009 SCT016 M10/M13 A3010 RMK AO2,KOVL,2015-02-21T16:53:00Z,44.78,-95.03,-10.0,-13.0,330,14,,10.0,30.100393,,,TRUE,TRUE,,,,,,,SCT,900,SCT,1600,,,,,VFR,,,,,,,,,,,,SPECI,328.0
KOSH 211653Z 34005KT 7SM CLR M05/M11 A2993 RMK AO2 SLP157 T10501106,KOSH,2015-02-21T16:53:00Z,43.97,-88.55,-5.0,-10.6,340,5,,7.0,29.929134,1015.7,,,TRUE,,,,,,,CLR,,,,,,,,VFR,,,,,,,,,,,,SPECI,248.0
KOSC 211653Z AUTO 22006KT 5SM -SN BKN030 OVC038 M06/M10 A2993 RMK AO2 T10661102,KOSC,2015-02-21T16:53:00Z,44.45,-83.4,-6.6,-10.2,220,6,,5.0,29.929134,,,TRUE,TRUE,,,,,,-SN,BKN,3000,OVC,3800,,,,,MVFR,,,,,,,,,,,,METAR,193.0
KGCC 211653Z AUTO 34018G25KT 5SM HZ BKN019 OVC027 M07/M12 A3011 RMK AO2 SNE21 SLP240 P0000 T10721117 TSNO,KGCC,2015-02-21T16:53:00Z,44.33,-105.55,-7.2,-11.7,340,18,25,5.0,30.109253,1024.0,,TRUE,TRUE,,,TRUE,,,HZ,BKN,1900,OVC,2700,,,,,MVFR,,,,,,0.0050,,,,,,METAR,1320.0
KFYV 211653Z 06008KT 10SM BKN009 04/ A2993 RMK AO2 CIG 008V012 SLP139 T0039 $,KFYV,2015-02-21T16:53:00Z,36.02,-94.17,3.9,,60,8,,10.0,29.929134,1013.9,,,TRUE,TRUE,,,,,,BKN,900,,,,,,,IFR,,,,,,,,,,,,SPECI,379.0
KFXE 211653Z 11013G22KT 10SM SCT037 SCT046 BKN055 22/13 A3026 RMK AO2 SLP249 T02220128,KFXE,2015-02-21T16:53:00Z,26.2,-80.18,22.2,12.8,110,13,22,10.0,30.259842,1024.9,,,TRUE,,,,,,,SCT,3700,SCT,4600,BKN,5500,,,VFR,,,,,,,,,,,,SPECI,6.0
KFSM 211653Z 06009KT 10SM FEW019 SCT024 BKN045 07/03 A2993 RMK AO2 SLP136 T00670028,KFSM,2015-02-21T16:53:00Z,35.33,-94.37,6.7,2.8,60,9,,10.0,29.929134,1013.6,,,TRUE,,,,,,,FEW,1900,SCT,2400,BKN,4500,,,VFR,,,,,,,,,,,,SPECI,140.0
KFPR 211653Z 12017KT 10SM CLR 22/11 A3030 RMK AO2 SLP258 T02170111,KFPR,2015-02-21T16:53:00Z,27.5,-80.38,21.7,11.1,120,17,,10.0,30.301182,1025.8,,,TRUE,,,,,,,CLR,,,,,,,,VFR,,,,,,,,,,,,SPECI,13.0
KFOZ 211653Z AUTO 33004KT 10SM SCT017 M15/M20 A3006 RMK AO2,KFOZ,2015-02-21T16:53:00Z,47.77,-93.65,-15.0,-20.0,330,4,,10.0,30.059055,,,TRUE,TRUE,,,,,,,SCT,1700,,,,,,,VFR,,,,,,,,,,,,SPECI,411.0
KGEY 211653Z AUTO 33026G34KT 10SM OVC090 M03/M09 A3006 RMK AO2 PK WND 32036/1622 SLP215 T10331094,KGEY,2015-02-21T16:53:00Z,44.52,-108.08,-3.3,-9.4,330,26,34,10.0,30.059055,1021.5,,TRUE,TRUE,,,,,,,OVC,9000,,,,,,,VFR,,,,,,,,,,,,SPECI,1191.0
KGKJ 211653Z AUTO 18006KT 1/2SM SN OVC010 M04/M07 A2992 RMK AO2 SLP154 P0000 T10441072 TSNO,KGKJ,2015-02-21T16:53:00Z,41.63,-80.22,-4.4,-7.2,180,6,,0.5,29.920275,1015.4,,TRUE,TRUE,,,TRUE,,,SN,OVC,1000,,,,,,,LIFR,,,,,,0.0050,,,,,,SPECI,428.0
KGJT 211653Z 16005KT 10SM SCT070 04/M04 A2992 RMK AO2 SLP122 T00441044,KGJT,2015-02-21T16:53:00Z,39.12,-108.52,4.4,-4.4,160,5,,10.0,29.920275,1012.2,,,TRUE,,,,,,,SCT,7000,,,,,,,VFR,,,,,,,,,,,,SPECI,1475.0
KGIF 211653Z AUTO 14009KT 10SM CLR 21/07 A3032 RMK AO2 SLP266 T02060072,KGIF,2015-02-21T16:53:00Z,28.07,-81.75,20.6,7.2,140,9,,10.0,30.318897,1026.6,,TRUE,TRUE,,,,,,,CLR,,,,,,,,VFR,,,,,,,,,,,,SPECI,43.0
KGHW 211653Z AUTO 31011KT 10SM CLR M12/M16 A3011 RMK AO2,KGHW,2015-02-21T16:53:00Z,45.63,-95.32,-12.0,-16.0,310,11,,10.0,30.109253,,,TRUE,TRUE,,,,,,,CLR,,,,,,,,VFR,,,,,,,,,,,,SPECI,425.0
KGFK 211653Z 35015KT 10SM FEW200 M19/M24 A3028 RMK AO2 SLP280 T11891239,KGFK,2015-02-21T16:53:00Z,47.95,-97.18,-18.9,-23.9,350,15,,10.0,30.280512,1028.0,,,TRUE,,,,,,,FEW,20000,,,,,,,VFR,,,,,,,,,,,,SPECI,258.0
KGEZ 211653Z AUTO 01004KT 1 1/4SM -SN BKN022 OVC030 M01/M04 A2990 RMK AO2 SLP136 P0002 T10111039,KGEZ,2015-02-21T16:53:00Z,39.58,-85.8,-1.1,-3.9,10,4,,1.25,29.899607,1013.6,,TRUE,TRUE,,,,,,-SN,BKN,2200,OVC,3000,,,,,IFR,,,,,,0.02,,,,,,SPECI,245.0
KGLH 211653Z AUTO 19026G31KT 7SM BKN025 OVC034 17/13 A2986 RMK AO2 PK WND 19033/1557 LTG DSNT NW RAE32 TSB1559E14 SLP120 P0001 T01720133,KGLH,2015-02-21T16:53:00Z,33.5,-90.98,17.2,13.3,190,26,31,7.0,29.861221,1012.0,,TRUE,TRUE,,,,,,,BKN,2500,OVC,3400,,,,,MVFR,,,,,,0.01,,,,,,SPECI,45.0
KGLR 211653Z AUTO 26005KT 8SM FEW014 OVC044 M08/M10 A2985 RMK AO2 SLP137 T10781100,KGLR,2015-02-21T16:53:00Z,45.02,-84.68,-7.8,-10.0,260,5,,8.0,29.84941,1013.7,,TRUE,TRUE,,,,,,,FEW,1400,OVC,4400,,,,,VFR,,,,,,,,,,,,SPECI,407.0
KGRB 211653Z 00000KT 6SM HZ BKN120 M05/M11 A2993 RMK AO2 SLP147 T10501111 $,KGRB,2015-02-21T16:53:00Z,44.48,-88.13,-5.0,-11.1,0,0,,6.0,29.929134,1014.7,,,TRUE,TRUE,,,,,HZ,BKN,12000,,,,,,,VFR,,,,,,,,,,,,SPECI,208.0
KGRI 211653Z A3003 RMK AO2 SLPNO $,KGRI,2015-02-21T16:53:00Z,40.97,-98.32,,,,,,,30.029528,,,,TRUE,TRUE,,,,,,,,,,,,,,,,,,,,,,,,,,SPECI,561.0
KGRR 211653Z 19007KT 4SM -SN SCT014 OVC025 M07/M09 A2994 RMK AO2 SLP155 P0000 T10671094,KGRR,2015-02-21T16:53:00Z,42.88,-85.52,-6.7,-9.4,190,7,,4.0,29.940945,1015.5,,,TRUE,,,,,,-SN,SCT,1400,OVC,2500,,,,,MVFR,,,,,,0.0050,,,,,,METAR,237.0
KGSH 211653Z AUTO 00000KT 1 1/4SM -SN BR BKN031 OVC046 M06/M08 A2994 RMK AO2 SNB27 SLP153 P0000 T10561078,KGSH,2015-02-21T16:53:00Z,41.53,-85.78,-5.6,-7.8,0,0,,1.25,29.940945,1015.3,,TRUE,TRUE,,,,,,-SN BR,BKN,3100,OVC,4600,,,,,IFR,,,,,,0.0050,,,,,,SPECI,252.0
KGTF 211653Z 28006KT 3/4SM -SN BR BKN018 OVC027 M06/M08 A3030 RMK AO2 SFC VIS 1 1/2 SLP317 P0001 T10611078,KGTF,2015-02-21T16:53:00Z,47.47,-111.38,-6.1,-7.8,280,6,,0.75,30.301182,1031.7,,,TRUE,,,,,,-SN BR,BKN,1800,OVC,2700,,,,,LIFR,,,,,,0.01,,,,,,SPECI,1119.0
KGWO 211653Z AUTO 19021G32KT 10SM -RA BKN031 OVC038 17/13 A2990 RMK AO2 PK WND 18033/1636 RAE09B42 SLP125 P0000 T01670128,KGWO,2015-02-21T16:53:00Z,33.5,-90.08,16.7,12.8,190,21,32,10.0,29.899607,1012.5,,TRUE,TRUE,,,,,,-RA,BKN,3100,OVC,3800,,,,,VFR,,,,,,0.0050,,,,,,SPECI,44.0
KHIB 211653Z AUTO 32010KT 10SM BKN019 M14/M19 A3002 RMK AO2 UPB21E30 SLP200 P0000 T11441194,KHIB,2015-02-21T16:53:00Z,47.38,-92.83,-14.4,-19.4,320,10,,10.0,30.02067,1020.0,,TRUE,TRUE,,,,,,,BKN,1900,,,,,,,MVFR,,,,,,0.0050,,,,,,SPECI,412.0
KWRL 211653Z AUTO 32021G29KT 4SM UP BKN050 BKN110 M04/M08 A3006 RMK AO2 PK WND 32029/1649 UPB50 SLP215 P0000 T10441078,KWRL,2015-02-21T16:53:00Z,43.97,-107.95,-4.4,-7.8,320,21,29,4.0,30.059055,1021.5,,TRUE,TRUE,,,,,,UP,BKN,5000,BKN,11000,,,,,MVFR,,,,,,0.0050,,,,,,SPECI,1271.0
KXNA 211653Z 02012KT 10SM FEW012 05/03 A2994 RMK AO2 SLP142 T00500028,KXNA,2015-02-21T16:53:00Z,36.28,-94.3,5.0,2.8,20,12,,10.0,29.940945,1014.2,,,TRUE,,,,,,,FEW,1200,,,,,,,VFR,,,,,,,,,,,,SPECI,392.0
KY70 211653Z AUTO 20007KT 7SM OVC018 M06/M09 A2994 RMK AO2 T10601088,KY70,2015-02-21T16:53:00Z,42.93,-85.07,-6.0,-8.8,200,7,,7.0,29.940945,,,TRUE,TRUE,,,,,,,OVC,1800,,,,,,,MVFR,,,,,,,,,,,,SPECI,250.0
KPBF 211653Z AUTO 21016G23KT 10SM -RA BKN018 OVC023 17/15 A2980 RMK AO2 PK WND 20027/1633 LTG DSNT NW RAB39 SLP091 P0000 T01720150,KPBF,2015-02-21T16:53:00Z,34.18,-91.93,17.2,15.0,210,16,23,10.0,29.799213,1009.1,,TRUE,TRUE,,,,,,-RA,BKN,1800,OVC,2300,,,,,MVFR,,,,,,0.0050,,,,,,SPECI,62.0
KPBI 211653Z 10015KT 10SM SCT032 BKN039 BKN065 23/14 A3027 RMK AO2 SLP248 T02280139,KPBI,2015-02-21T16:53:00Z,26.68,-80.1,22.8,13.9,100,15,,10.0,30.268702,1024.8,,,TRUE,,,,,,,SCT,3200,BKN,3900,BKN,6500,,,VFR,,,,,,,,,,,,METAR,6.0
KPEO 211653Z AUTO 19015G27KT 1 1/4SM -SN BKN029 BKN035 OVC046 M08/M12 A3006 RMK AO2 PK WND 20027/1646 SNB41 SLP201 P0000 T10781122,KPEO,2015-02-21T16:53:00Z,42.65,-77.05,-7.8,-12.2,190,15,27,1.25,30.059055,1020.1,,TRUE,TRUE,,,,,,-SN,BKN,2900,BKN,3500,OVC,4600,,,IFR,,,,,,0.0050,,,,,,SPECI,256.0
KPCW 211653Z AUTO 00000KT 2SM -SN OVC015 M04/M07 A2994 RMK AO2 T10381066,KPCW,2015-02-21T16:53:00Z,41.52,-82.87,-3.8,-6.6,0,0,,2.0,29.940945,,,TRUE,TRUE,,,,,,-SN,OVC,1500,,,,,,,IFR,,,,,,,,,,,,SPECI,178.0
KPGD 211653Z 10012KT 10SM SCT055 22/10 A3029 RMK AO2 SLP257 T02170100,KPGD,2015-02-21T16:53:00Z,26.92,-82.0,21.7,10.0,100,12,,10.0,30.28937,1025.7,,,TRUE,,,,,,,SCT,5500,,,,,,,VFR,,,,,,,,,,,,SPECI,7.0
KPIE 211653Z 10009KT 10SM CLR 19/09 A3030 RMK AO2 SLP259 T01940089,KPIE,2015-02-21T16:53:00Z,27.92,-82.68,19.4,8.9,100,9,,10.0,30.301182,1025.9,,,TRUE,,,,,,,CLR,,,,,,,,VFR,,,,,,,,,,,,SPECI,4.0
KPIH 211653Z 23011KT 10SM SCT040 BKN050 BKN085 00/M01 A3000 RMK AO2 SNE1556B17E39 SLP177 P0000 T00001006,KPIH,2015-02-21T16:53:00Z,42.92,-112.57,0.0,-0.6,230,11,,10.0,30.0,1017.7,,,TRUE,,,,,,,SCT,4000,BKN,5000,BKN,8500,,,VFR,,,,,,0.0050,,,,,,SPECI,1359.0
KPKB 211653Z 18007KT 2 1/2SM -SN BR BKN005 BKN012 OVC020 01/M01 A3002 RMK AO2 SLP177 P0002 T00111006,KPKB,2015-02-21T16:53:00Z,39.35,-81.42,1.1,-0.6,180,7,,2.5,30.02067,1017.7,,,TRUE,,,,,,-SN BR,BKN,500,BKN,1200,OVC,2000,,,IFR,,,,,,0.02,,,,,,SPECI,262.0
KPKD 211653Z AUTO 34014KT 10SM CLR M16/M21 A3009 RMK AO2 SLP225 T11561206,KPKD,2015-02-21T16:53:00Z,46.9,-95.07,-15.6,-20.6,340,14,,10.0,30.088583,1022.5,,TRUE,TRUE,,,,,,,CLR,,,,,,,,VFR,,,,,,,,,,,,SPECI,442.0
KPMP 211653Z 11015KT 10SM FEW034 SCT045 23/13 A3026 RMK AO2 SLP249 T02330133,KPMP,2015-02-21T16:53:00Z,26.25,-80.12,23.3,13.3,110,15,,10.0,30.259842,1024.9,,,TRUE,,,,,,,FEW,3400,SCT,4500,,,,,VFR,,,,,,,,,,,,SPECI,6.0
KPTK 211653Z 29005KT 7SM SCT010 BKN035 OVC050 M08/M10 A2992 RMK AO2 SLP152 T10781100 $,KPTK,2015-02-21T16:53:00Z,42.67,-83.42,-7.8,-10.0,290,5,,7.0,29.920275,1015.2,,,TRUE,TRUE,,,,,,SCT,1000,BKN,3500,OVC,5000,,,VFR,,,,,,,,,,,,SPECI,299.0
KPUB 211653Z AUTO 10009KT 10SM OVC021 02/M03 A2995 RMK AO2 SLP145 T00221028,KPUB,2015-02-21T16:53:00Z,38.28,-104.5,2.2,-2.8,100,9,,10.0,29.949802,1014.5,,TRUE,TRUE,,,,,,,OVC,2100,,,,,,,MVFR,,,,,,,,,,,,SPECI,1420.0
KPUC 211653Z AUTO VRB04KT 10SM CLR 04/M11 A2991 RMK AO2 SLP138 T00441106,KPUC,2015-02-21T16:53:00Z,39.62,-110.75,4.4,-10.6,0,4,,10.0,29.911417,1013.8,,TRUE,TRUE,,,,,,,CLR,,,,,,,,VFR,,,,,,,,,,,,SPECI,2091.0
KRAC 211653Z AUTO 04006KT 8SM OVC028 M03/M09 A2995 RMK AO2 SLP154 T10331089,KRAC,2015-02-21T16:53:00Z,42.77,-87.82,-3.3,-8.9,40,6,,8.0,29.949802,1015.4,,TRUE,TRUE,,,,,,,OVC,2800,,,,,,,MVFR,,,,,,,,,,,,SPECI,203.0
KRHI 211653Z AUTO 31007KT 6SM HZ OVC022 M08/M14 A2989 RMK AO2 SLP154 T10831139,KRHI,2015-02-21T16:53:00Z,45.63,-89.48,-8.3,-13.9,310,7,,6.0,29.890747,1015.4,,TRUE,TRUE,,,,,,HZ,OVC,2200,,,,,,,MVFR,,,,,,,,,,,,SPECI,485.0
KRIL 211653Z AUTO 00000KT 10SM FEW035 FEW044 BKN085 01/M03 A2993 RMK AO2 SLP146 T00111033,KRIL,2015-02-21T16:53:00Z,39.53,-107.73,1.1,-3.3,0,0,,10.0,29.929134,1014.6,,TRUE,TRUE,,,,,,,FEW,3500,FEW,4400,BKN,8500,,,VFR,,,,,,,,,,,,SPECI,1678.0
KRIW 211653Z AUTO 02020G24KT 6SM -SN BKN026 OVC034 M06/M09 A3000 RMK AO2 PK WND 02028/1609 SNB01 SLP195 P0000 T10561094,KRIW,2015-02-21T16:53:00Z,43.07,-108.47,-5.6,-9.4,20,20,24,6.0,30.0,1019.5,,TRUE,TRUE,,,,,,-SN,BKN,2600,OVC,3400,,,,,MVFR,,,,,,0.0050,,,,,,METAR,1697.0
KRSW 211653Z 11011KT 10SM FEW047 23/10 A3026 RMK AO2 SLP244 T02280100,KRSW,2015-02-21T16:53:00Z,26.53,-81.75,22.8,10.0,110,11,,10.0,30.259842,1024.4,,,TRUE,,,,,,,FEW,4700,,,,,,,VFR,,,,,,,,,,,,SPECI,10.0
KRUE 211653Z AUTO 34008KT 10SM -RA OVC023 04/03 A2992 RMK AO2 SLP131 P0000 T00440028,KRUE,2015-02-21T16:53:00Z,35.25,-93.1,4.4,2.8,340,8,,10.0,29.920275,1013.1,,TRUE,TRUE,,,,,,-RA,OVC,2300,,,,,,,MVFR,,,,,,0.0050,,,,,,SPECI,115.0
KDLN 211653Z AUTO 02019G27KT 4SM -SN BKN024 OVC029 M06/M11 A3008 RMK AO2 PK WND 02029/1617 SNB25 SLP228 P0000 T10611106,KDLN,2015-02-21T16:53:00Z,45.25,-112.55,-6.1,-10.6,20,19,27,4.0,30.079725,1022.8,,TRUE,TRUE,,,,,,-SN,BKN,2400,OVC,2900,,,,,MVFR,,,,,,0.0050,,,,,,SPECI,1591.0
KTWF 211653Z 27015KT 10SM CLR 04/M02 A3001 RMK AO2 SLP156 T00391017,KTWF,2015-02-21T16:53:00Z,42.48,-114.48,3.9,-1.7,270,15,,10.0,30.008858,1015.6,,,TRUE,,,,,,,CLR,,,,,,,,VFR,,,,,,,,,,,,METAR,1266.0
KCKC 211653Z AUTO 33010G14KT 10SM CLR M15/M22 A2990 RMK AO2,KCKC,2015-02-21T16:53:00Z,47.83,-90.37,-15.0,-22.0,330,10,14,10.0,29.899607,,,TRUE,TRUE,,,,,,,CLR,,,,,,,,VFR,,,,,,,,,,,,SPECI,548.0
KABQ 211652Z 22005KT 10SM SCT200 SCT250 11/M04 A2995 RMK AO2 SLP103 T01061039,KABQ,2015-02-21T16:52:00Z,35.05,-106.62,10.6,-3.9,220,5,,10.0,29.949802,1010.3,,,TRUE,,,,,,,SCT,20000,SCT,25000,,,,,VFR,,,,,,,,,,,,METAR,1618.0
KNHK 211652Z 16006KT 10SM OVC050 M03/M14 A3042 RMK AO2 SLP301 T10281139,KNHK,2015-02-21T16:52:00Z,38.27,-76.4,-2.8,-13.9,160,6,,10.0,30.41929,1030.1,,,TRUE,,,,,,,OVC,5000,,,,,,,VFR,,,,,,,,,,,,METAR,12.0
KCZZ 211652Z AUTO 01009KT 09/06 A2996 RMK AO1 SLP133 T00940056,KCZZ,2015-02-21T16:52:00Z,32.63,-116.47,9.4,5.6,10,9,,,29.958662,1013.3,,TRUE,TRUE,,,,,,,,,,,,,,,,,,,,,,,,,,,METAR,807.0
KBAN 211652Z AUTO 00000KT 10SM CLR 00/M06 A2998 RMK AO2 SLP152 T00001056 $,KBAN,2015-02-21T16:52:00Z,38.35,-119.52,0.0,-5.6,0,0,,10.0,29.97933,1015.2,,TRUE,TRUE,TRUE,,,,,,CLR,,,,,,,,VFR,,,,,,,,,,,,METAR,2057.0
KBLU 211652Z AUTO 00000KT 10SM CLR 11/M14 A2999 RMK AO2 SLP113 T01111144,KBLU,2015-02-21T16:52:00Z,39.28,-120.7,11.1,-14.4,0,0,,10.0,29.991142,1011.3,,TRUE,TRUE,,,,,,,CLR,,,,,,,,VFR,,,,,,,,,,,,METAR,1609.0
KCDJ 211652Z AUTO 36008KT 04/M01 A2998 RMK AO1 SLP164 T00391011,KCDJ,2015-02-21T16:52:00Z,39.82,-93.58,3.9,-1.1,360,8,,,29.97933,1016.4,,TRUE,TRUE,,,,,,,,,,,,,,,,,,,,,,,,,,,METAR,234.0
KHRL 211652Z 17025G34KT 10SM BKN025 BKN034 24/18 A2990 RMK AO2 PK WND 17034/1615 SLP124 T02440183,KHRL,2015-02-21T16:52:00Z,26.23,-97.65,24.4,18.3,170,25,34,10.0,29.899607,1012.4,,,TRUE,,,,,,,BKN,2500,BKN,3400,,,,,MVFR,,,,,,,,,,,,METAR,10.0
KMHK 211652Z 04007KT 10SM CLR 07/01 A3001 RMK AO2 SLP168 T00670011,KMHK,2015-02-21T16:52:00Z,39.13,-96.68,6.7,1.1,40,7,,10.0,30.008858,1016.8,,,TRUE,,,,,,,CLR,,,,,,,,VFR,,,,,,,,,,,,METAR,317.0
KPYM 211652Z AUTO 20011G22KT 10SM UP CLR M02/M09 A3044 RMK AO2 UPB03 SLP311 P0000 T10171089,KPYM,2015-02-21T16:52:00Z,41.92,-70.73,-1.7,-8.9,200,11,22,10.0,30.43996,1031.1,,TRUE,TRUE,,,,,,UP,CLR,,,,,,,,VFR,,,,,,0.0050,,,,,,METAR,43.0
KCFV 211652Z AUTO 02007KT 10SM OVC010 06/03 A3001 RMK AO2 SLP166 T00560028,KCFV,2015-02-21T16:52:00Z,37.08,-95.57,5.6,2.8,20,7,,10.0,30.008858,1016.6,,TRUE,TRUE,,,,,,,OVC,1000,,,,,,,MVFR,,,,,,,,,,,,METAR,225.0
KREO 211652Z AUTO 00000KT 03/M04 A3005 RMK AO1 SLP185 T00281044,KREO,2015-02-21T16:52:00Z,42.58,-117.87,2.8,-4.4,0,0,,,30.050198,1018.5,,TRUE,TRUE,,,,,,,,,,,,,,,,,,,,,,,,,,,METAR,1235.0
KP69 211652Z AUTO VRB06KT 03/02 A3017 RMK AO1 SLP232 T00330017,KP69,2015-02-21T16:52:00Z,46.15,-115.6,3.3,1.7,0,6,,,30.171259,1023.2,,TRUE,TRUE,,,,,,,,,,,,,,,,,,,,,,,,,,,METAR,480.0
KN60 211652Z AUTO 33007KT M17/M21 A3025 RMK AO1 SLP291 T11721206,KN60,2015-02-21T16:52:00Z,47.65,-101.43,-17.2,-20.6,330,7,,,30.250984,1029.1,,TRUE,TRUE,,,,,,,,,,,,,,,,,,,,,,,,,,,METAR,582.0
KNFW 211652Z 34012KT 10SM OVC018 11/06 A3001 RMK AO2 SLP147 T01060056 $,KNFW,2015-02-21T16:52:00Z,32.78,-97.43,10.6,5.6,340,12,,10.0,30.008858,1014.7,,,TRUE,TRUE,,,,,,OVC,1800,,,,,,,MVFR,,,,,,,,,,,,METAR,198.0
KBIS 211652Z 36009KT 10SM FEW034 BKN070 M13/M17 A3027 RMK AO2 SLP284 T11281172,KBIS,2015-02-21T16:52:00Z,46.77,-100.75,-12.8,-17.2,360,9,,10.0,30.268702,1028.4,,,TRUE,,,,,,,FEW,3400,BKN,7000,,,,,VFR,,,,,,,,,,,,METAR,505.0
KBDR 211652Z 24003KT 10SM CLR M04/M12 A3045 RMK AO2 SLP311 T10441117,KBDR,2015-02-21T16:52:00Z,41.17,-73.13,-4.4,-11.7,240,3,,10.0,30.448818,1031.1,,,TRUE,,,,,,,CLR,,,,,,,,VFR,,,,,,,,,,,,METAR,7.0
KATL 211652Z 17008KT 10SM OVC080 07/M06 A3024 RMK AO2 SLP248 T00671056,KATL,2015-02-21T16:52:00Z,33.63,-84.45,6.7,-5.6,170,8,,10.0,30.239174,1024.8,,,TRUE,,,,,,,OVC,8000,,,,,,,VFR,,,,,,,,,,,,METAR,296.0
KARR 211652Z 00000KT 5SM HZ OVC028 M04/M08 A2994 RMK AO2 SLP150 T10441083,KARR,2015-02-21T16:52:00Z,41.77,-88.48,-4.4,-8.3,0,0,,5.0,29.940945,1015.0,,,TRUE,,,,,,HZ,OVC,2800,,,,,,,MVFR,,,,,,,,,,,,METAR,215.0
KAQW 211652Z AUTO VRB06KT 10SM OVC110 M06/M22 A3027 RMK AO2 SLP268 T10561222,KAQW,2015-02-21T16:52:00Z,42.7,-73.17,-5.6,-22.2,0,6,,10.0,30.268702,1026.8,,TRUE,TRUE,,,,,,,OVC,11000,,,,,,,VFR,,,,,,,,,,,,METAR,199.0
KALS 211652Z AUTO 07004KT 10SM FEW120 02/M08 A2987 RMK AO2 SLP113 T00171083,KALS,2015-02-21T16:52:00Z,37.43,-105.87,1.7,-8.3,70,4,,10.0,29.870079,1011.3,,TRUE,TRUE,,,,,,,FEW,12000,,,,,,,VFR,,,,,,,,,,,,METAR,2299.0
KAFN 211652Z AUTO 20011G16KT 10SM CLR M07/M19 A3030 RMK AO2 SLP290 T10721194,KAFN,2015-02-21T16:52:00Z,42.8,-72.0,-7.2,-19.4,200,11,16,10.0,30.301182,1029.0,,TRUE,TRUE,,,,,,,CLR,,,,,,,,VFR,,,,,,,,,,,,METAR,313.0
KRAP 211652Z 36018G25KT 10SM SCT026 BKN037 OVC050 M06/M11 A3013 RMK AO2 PK WND 35029/1617 SNE34 SLP244 P0000 T10561106,KRAP,2015-02-21T16:52:00Z,44.05,-103.05,-5.6,-10.6,360,18,25,10.0,30.129921,1024.4,,,TRUE,,,,,,,SCT,2600,BKN,3700,OVC,5000,,,VFR,,,,,,0.0050,,,,,,METAR,965.0
KPWK 211652Z 00000KT 7SM OVC032 M03/M09 A2995 RMK AO2 SLP151 T10331089,KPWK,2015-02-21T16:52:00Z,42.12,-87.9,-3.3,-8.9,0,0,,7.0,29.949802,1015.1,,,TRUE,,,,,,,OVC,3200,,,,,,,VFR,,,,,,,,,,,,METAR,203.0
KORE 211652Z AUTO 18012G20KT 10SM CLR M07/M17 A3036 RMK AO2 SLP294 T10721167,KORE,2015-02-21T16:52:00Z,42.57,-72.28,-7.2,-16.7,180,12,20,10.0,30.360237,1029.4,,TRUE,TRUE,,,,,,,CLR,,,,,,,,VFR,,,,,,,,,,,,METAR,164.0
KOMA 211652Z 36014KT 10SM BKN015 OVC029 01/M03 A3004 RMK AO2 SLP181 T00111028,KOMA,2015-02-21T16:52:00Z,41.32,-95.9,1.1,-2.8,360,14,,10.0,30.041338,1018.1,,,TRUE,,,,,,,BKN,1500,OVC,2900,,,,,MVFR,,,,,,,,,,,,METAR,312.0
KOKC 211652Z 02011KT 10SM OVC014 07/02 A3002 RMK AO2 SLP166 T00720017,KOKC,2015-02-21T16:52:00Z,35.38,-97.6,7.2,1.7,20,11,,10.0,30.02067,1016.6,,,TRUE,,,,,,,OVC,1400,,,,,,,MVFR,,,,,,,,,,,,METAR,390.0
KOKB 211652Z AUTO VRB03KT 10SM OVC037 17/09 A2999 RMK AO2 SLP156 T01670089,KOKB,2015-02-21T16:52:00Z,33.22,-117.35,16.7,8.9,0,3,,10.0,29.991142,1015.6,,TRUE,TRUE,,,,,,,OVC,3700,,,,,,,VFR,,,,,,,,,,,,METAR,8.0
KMWH 211652Z 01013KT 10SM CLR 08/M02 A3023 RMK AO2 SLP290 T00781017,KMWH,2015-02-21T16:52:00Z,47.2,-119.32,7.8,-1.7,10,13,,10.0,30.230314,1029.0,,,TRUE,,,,,,,CLR,,,,,,,,VFR,,,,,,,,,,,,METAR,362.0
KMLI 211652Z 00000KT 3SM -SN BKN029 OVC034 M02/M05 A2993 RMK AO2 SNB1558 SLP145 P0000 T10221050,KMLI,2015-02-21T16:52:00Z,41.45,-90.52,-2.2,-5.0,0,0,,3.0,29.929134,1014.5,,,TRUE,,,,,,-SN,BKN,2900,OVC,3400,,,,,MVFR,,,,,,0.0050,,,,,,METAR,184.0
KMLF 211652Z AUTO 36011KT 10SM FEW120 04/M07 A2998 RMK AO2 SLP150 T00391067 TSNO,KMLF,2015-02-21T16:52:00Z,38.42,-113.02,3.9,-6.7,360,11,,10.0,29.97933,1015.0,,TRUE,TRUE,,,TRUE,,,,FEW,12000,,,,,,,VFR,,,,,,,,,,,,METAR,1534.0
KMKE 211652Z 35007KT 7SM OVC027 M03/M09 A2994 RMK AO2 SLP150 T10331094,KMKE,2015-02-21T16:52:00Z,42.95,-87.9,-3.3,-9.4,350,7,,7.0,29.940945,1015.0,,,TRUE,,,,,,,OVC,2700,,,,,,,MVFR,,,,,,,,,,,,METAR,206.0
KMEB 211652Z AUTO 13005KT 10SM OVC022 03/M03 A3038 RMK AO2 SLP291 T00331033 $,KMEB,2015-02-21T16:52:00Z,34.78,-79.37,3.3,-3.3,130,5,,10.0,30.380905,1029.1,,TRUE,TRUE,TRUE,,,,,,OVC,2200,,,,,,,MVFR,,,,,,,,,,,,METAR,67.0
KMDH 211652Z AUTO 34005KT 8SM BKN006 OVC065 00/M01 A2994 RMK AO2 UPE52 PRESRR SLP141 P0002 T00001011,KMDH,2015-02-21T16:52:00Z,37.78,-89.25,0.0,-1.1,340,5,,8.0,29.940945,1014.1,,TRUE,TRUE,,,,,,,BKN,600,OVC,6500,,,,,IFR,,,,,,0.02,,,,,,METAR,130.0
KMBG 211652Z AUTO 36014KT 7SM FEW016 BKN039 OVC046 M11/M16 A3019 RMK AO2 SNE29 SLP255 P0000 T11061156,KMBG,2015-02-21T16:52:00Z,45.55,-100.42,-10.6,-15.6,360,14,,7.0,30.188976,1025.5,,TRUE,TRUE,,,,,,,FEW,1600,BKN,3900,OVC,4600,,,VFR,,,,,,0.0050,,,,,,METAR,510.0
KLWC 211652Z AUTO 36010KT 10SM CLR 07/02 A3000 RMK AO2 SLP162 T00720017,KLWC,2015-02-21T16:52:00Z,39.02,-95.22,7.2,1.7,360,10,,10.0,30.0,1016.2,,TRUE,TRUE,,,,,,,CLR,,,,,,,,VFR,,,,,,,,,,,,METAR,253.0
KJQF 211652Z 00000KT 10SM OVC019 01/M08 A3038,KJQF,2015-02-21T16:52:00Z,35.38,-80.72,1.0,-8.0,0,0,,10.0,30.380905,,,,,,,,,,,OVC,1900,,,,,,,MVFR,,,,,,,,,,,,METAR,210.0
KISN 211652Z AUTO 33009KT 10SM BKN033 M14/M21 A3031 RMK AO2 SLP310 T11391211,KISN,2015-02-21T16:52:00Z,48.17,-103.63,-13.9,-21.1,330,9,,10.0,30.31004,1031.0,,TRUE,TRUE,,,,,,,BKN,3300,,,,,,,VFR,,,,,,,,,,,,METAR,579.0
KIOW 211652Z AUTO 34006KT 8SM OVC034 00/M04 A2997 RMK AO2 SLP155 T00001039,KIOW,2015-02-21T16:52:00Z,41.63,-91.55,0.0,-3.9,340,6,,8.0,29.970472,1015.5,,TRUE,TRUE,,,,,,,OVC,3400,,,,,,,VFR,,,,,,,,,,,,METAR,198.0
KIJD 211652Z AUTO 21015G22KT 10SM CLR M03/M12 A3043 RMK AO2 SLP309 T10331122,KIJD,2015-02-21T16:52:00Z,41.75,-72.18,-3.3,-12.2,210,15,22,10.0,30.431103,1030.9,,TRUE,TRUE,,,,,,,CLR,,,,,,,,VFR,,,,,,,,,,,,METAR,75.0
KIEN 211652Z AUTO 10SM OVC042 M04/M09 A3008 RMK AO2 SLP219 T10391089 $,KIEN,2015-02-21T16:52:00Z,43.03,-102.52,-3.9,-8.9,,,,10.0,30.079725,1021.9,,TRUE,TRUE,TRUE,,,,,,OVC,4200,,,,,,,VFR,,,,,,,,,,,,METAR,998.0
KIAD 211652Z 17010G17KT 1/4SM R01R/2000V2400FT +SN VV008 M08/M11 A3035 RMK AO2 SLP283 P0008 T10831106,KIAD,2015-02-21T16:52:00Z,38.93,-77.45,-8.3,-10.6,170,10,17,0.25,30.351377,1028.3,,,TRUE,,,,,,+SN,OVX,0,,,,,,,LIFR,,,,,,0.08,,,,,800,METAR,93.0
KHUT 211652Z 36009KT 10SM CLR 09/02 A3001 RMK AO2 SLP162 T00890017 $,KHUT,2015-02-21T16:52:00Z,38.07,-97.87,8.9,1.7,360,9,,10.0,30.008858,1016.2,,,TRUE,TRUE,,,,,,CLR,,,,,,,,VFR,,,,,,,,,,,,METAR,467.0
KHIE 211652Z AUTO 28004KT 10SM BKN080 M08/M20 A3019 RMK AO2 SLP256 T10831200,KHIE,2015-02-21T16:52:00Z,44.37,-71.55,-8.3,-20.0,280,4,,10.0,30.188976,1025.6,,TRUE,TRUE,,,,,,,BKN,8000,,,,,,,VFR,,,,,,,,,,,,METAR,318.0
KGLS 211652Z 18013KT 3SM BR BKN033 OVC041 18/17 A2999 RMK AO2 SLP156 T01830172,KGLS,2015-02-21T16:52:00Z,29.27,-94.87,18.3,17.2,180,13,,3.0,29.991142,1015.6,,,TRUE,,,,,,BR,BKN,3300,OVC,4100,,,,,MVFR,,,,,,,,,,,,METAR,6.0
KNRB 211652Z AUTO 03007KT 10SM BKN049 16/09 A3035 RMK AO2 SLP275 T01560089 $,KNRB,2015-02-21T16:52:00Z,30.38,-81.42,15.6,8.9,30,7,,10.0,30.351377,1027.5,,TRUE,TRUE,TRUE,,,,,,BKN,4900,,,,,,,VFR,,,,,,,,,,,,METAR,5.0
KDVN 211652Z AUTO 34004KT 4SM -SN BKN026 OVC033 M02/M06 A2994 RMK AO2 SLP149 P0000 T10221056,KDVN,2015-02-21T16:52:00Z,41.62,-90.58,-2.2,-5.6,340,4,,4.0,29.940945,1014.9,,TRUE,TRUE,,,,,,-SN,BKN,2600,OVC,3300,,,,,MVFR,,,,,,0.0050,,,,,,METAR,230.0
KDPA 211652Z 00000KT 7SM OVC028 M04/M08 A2993 RMK AO2 SLP147 T10391083,KDPA,2015-02-21T16:52:00Z,41.92,-88.25,-3.9,-8.3,0,0,,7.0,29.929134,1014.7,,,TRUE,,,,,,,OVC,2800,,,,,,,MVFR,,,,,,,,,,,,METAR,231.0
KDDC 211652Z AUTO 34009KT 10SM CLR 08/M01 A3004 RMK AO2 SLP178 T00781006,KDDC,2015-02-21T16:52:00Z,37.77,-99.97,7.8,-0.6,340,9,,10.0,30.041338,1017.8,,TRUE,TRUE,,,,,,,CLR,,,,,,,,VFR,,,,,,,,,,,,METAR,789.0
KCQX 211652Z AUTO 20007G16KT 170V230 10SM SCT036 M01/M07 A3050 RMK AO2 SLP331 T10111067,KCQX,2015-02-21T16:52:00Z,41.68,-70.0,-1.1,-6.7,200,7,16,10.0,30.499016,1033.1,,TRUE,TRUE,,,,,,,SCT,3600,,,,,,,VFR,,,,,,,,,,,,METAR,19.0
KCNU 211652Z AUTO VRB03KT 3SM BR OVC002 03/03 A3000 RMK AO2 SLP165 T00330033,KCNU,2015-02-21T16:52:00Z,37.67,-95.48,3.3,3.3,0,3,,3.0,30.0,1016.5,,TRUE,TRUE,,,,,,BR,OVC,200,,,,,,,LIFR,,,,,,,,,,,,METAR,297.0
KCLT 211652Z 21005KT 10SM OVC018 02/M08 A3035 RMK AO2 SLP283 T00221078,KCLT,2015-02-21T16:52:00Z,35.22,-80.95,2.2,-7.8,210,5,,10.0,30.351377,1028.3,,,TRUE,,,,,,,OVC,1800,,,,,,,MVFR,,,,,,,,,,,,METAR,220.0
KCKV 211652Z AUTO 16016KT 5SM -RA BR OVC065 04/03 A2986 RMK AO2 SLP115 P0020 T00440033,KCKV,2015-02-21T16:52:00Z,36.62,-87.42,4.4,3.3,160,16,,5.0,29.861221,1011.5,,TRUE,TRUE,,,,,,-RA BR,OVC,6500,,,,,,,MVFR,,,,,,0.2,,,,,,METAR,165.0
KCID 211652Z 34010KT 5SM -SN OVC031 M01/M04 A2994 RMK AO2 SLP149 P0000 T10111044,KCID,2015-02-21T16:52:00Z,41.88,-91.72,-1.1,-4.4,340,10,,5.0,29.940945,1014.9,,,TRUE,,,,,,-SN,OVC,3100,,,,,,,MVFR,,,,,,0.0050,,,,,,METAR,264.0
KBML 211652Z AUTO 20004KT 10SM BKN080 OVC110 M07/M19 A3018 RMK AO2 PRESFR SLP252 T10721189,KBML,2015-02-21T16:52:00Z,44.58,-71.18,-7.2,-18.9,200,4,,10.0,30.180119,1025.2,,TRUE,TRUE,,,,,,,BKN,8000,OVC,11000,,,,,VFR,,,,,,,,,,,,METAR,345.0
KBLH 211652Z AUTO 00000KT 10SM CLR 17/05 A2987 RMK AO2 SLP110 T01720050,KBLH,2015-02-21T16:52:00Z,33.62,-114.72,17.2,5.0,0,0,,10.0,29.870079,1011.0,,TRUE,TRUE,,,,,,,CLR,,,,,,,,VFR,,,,,,,,,,,,METAR,119.0
KBLF 211652Z AUTO 18014G26KT 150V220 1/2SM SN FEW004 BKN010 OVC018 01/M02 A3004 RMK AO2 PK WND 19026/1647 SLP195 P0008 T00061022,KBLF,2015-02-21T16:52:00Z,37.3,-81.2,0.6,-2.2,180,14,26,0.5,30.041338,1019.5,,TRUE,TRUE,,,,,,SN,FEW,400,BKN,1000,OVC,1800,,,LIFR,,,,,,0.08,,,,,,METAR,873.0
KSPS 211652Z 34011KT 7SM OVC015 07/02 A3002 RMK AO2 SLP165 T00720022,KSPS,2015-02-21T16:52:00Z,33.98,-98.5,7.2,2.2,340,11,,7.0,30.02067,1016.5,,,TRUE,,,,,,,OVC,1500,,,,,,,MVFR,,,,,,,,,,,,METAR,308.0
KSPI 211652Z 00000KT 10SM CLR M02/M04 A2995 RMK AO2 SLP150 T10221044,KSPI,2015-02-21T16:52:00Z,39.85,-89.68,-2.2,-4.4,0,0,,10.0,29.949802,1015.0,,,TRUE,,,,,,,CLR,,,,,,,,VFR,,,,,,,,,,,,METAR,181.0
KSGF 211652Z 36012KT 1/2SM FG VV002 00/M01 A2995 RMK AO2 SLP153 T00001006,KSGF,2015-02-21T16:52:00Z,37.23,-93.38,0.0,-0.6,360,12,,0.5,29.949802,1015.3,,,TRUE,,,,,,FG,OVX,0,,,,,,,LIFR,,,,,,,,,,,200,METAR,390.0
KVTN 211652Z AUTO 35011KT 8SM BKN019 OVC025 M03/M07 A3010 RMK AO2 SLP223 T10331072,KVTN,2015-02-21T16:52:00Z,42.87,-100.55,-3.3,-7.2,350,11,,8.0,30.100393,1022.3,,TRUE,TRUE,,,,,,,BKN,1900,OVC,2500,,,,,MVFR,,,,,,,,,,,,METAR,788.0
KTRM 211652Z AUTO 33007KT 7SM CLR 18/09 A2987 RMK AO2 SLP115 T01830089 TSNO,KTRM,2015-02-21T16:52:00Z,33.63,-116.17,18.3,8.9,330,7,,7.0,29.870079,1011.5,,TRUE,TRUE,,,TRUE,,,,CLR,,,,,,,,VFR,,,,,,,,,,,,METAR,-35.0
KTOL 211652Z 00000KT 3/4SM -SN BR VV015 M07/M08 A2995 RMK AO2 SLP155 P0003 T10671083 RVRNO,KTOL,2015-02-21T16:52:00Z,41.58,-83.8,-6.7,-8.3,0,0,,0.75,29.949802,1015.5,,,TRUE,,,,,,-SN BR,OVX,0,,,,,,,LIFR,,,,,,0.03,,,,,1500,METAR,210.0
KTAN 211652Z AUTO 21012G23KT 10SM CLR M01/M09 A3044 RMK AO2 SLP308 T10111094,KTAN,2015-02-21T16:52:00Z,41.88,-71.02,-1.1,-9.4,210,12,23,10.0,30.43996,1030.8,,TRUE,TRUE,,,,,,,CLR,,,,,,,,VFR,,,,,,,,,,,,METAR,7.0
KBJI 211652Z AUTO 32008KT 5SM HZ SCT015 M18/M21 A3011 RMK AO2 T11781209,KBJI,2015-02-21T16:52:00Z,47.5,-94.92,-17.8,-20.9,320,8,,5.0,30.109253,,,TRUE,TRUE,,,,,,HZ,SCT,1500,,,,,,,MVFR,,,,,,,,,,,,SPECI,420.0
KLJF 211652Z AUTO 34012KT 10SM SCT011 SCT110 M10/M13 A3008 RMK AO2,KLJF,2015-02-21T16:52:00Z,45.1,-94.52,-10.0,-13.0,340,12,,10.0,30.079725,,,TRUE,TRUE,,,,,,,SCT,1100,SCT,11000,,,,,VFR,,,,,,,,,,,,SPECI,348.0
KTKC 211652Z AUTO 33016G20KT 5SM -SN SCT014 BKN090 BKN120 M09/M13 A3011 RMK AO2 T10951129,KTKC,2015-02-21T16:52:00Z,44.25,-95.62,-9.5,-12.9,330,16,20,5.0,30.109253,,,TRUE,TRUE,,,,,,-SN,SCT,1400,BKN,9000,BKN,12000,,,MVFR,,,,,,,,,,,,METAR,408.0
KAEL 211652Z AUTO 33007KT 7SM OVC010 M07/M09 A2999 RMK AO2,KAEL,2015-02-21T16:52:00Z,43.68,-93.37,-7.0,-9.0,330,7,,7.0,29.991142,,,TRUE,TRUE,,,,,,,OVC,1000,,,,,,,MVFR,,,,,,,,,,,,SPECI,383.0
KD39 211652Z AUTO 36013G16KT 10SM SCT023 BKN100 M12/M17 A3009 RMK AO2 T11211175,KD39,2015-02-21T16:52:00Z,45.7,-94.93,-12.1,-17.5,360,13,16,10.0,30.088583,,,TRUE,TRUE,,,,,,,SCT,2300,BKN,10000,,,,,VFR,,,,,,,,,,,,METAR,380.0
KNZY 211652Z COR 14003KT 10SM BKN032 17/10 A2998 RMK AO2 SLP151 T01670100 $,KNZY,2015-02-21T16:52:00Z,32.7,-117.22,16.7,10.0,140,3,,10.0,29.97933,1015.1,TRUE,,TRUE,TRUE,,,,,,BKN,3200,,,,,,,VFR,,,,,,,,,,,,METAR,8.0
KFIT 211652Z AUTO 17009KT 10SM BKN120 M05/M17 A3038 RMK AO2 SLP296 T10501167,KFIT,2015-02-21T16:52:00Z,42.55,-71.75,-5.0,-16.7,170,9,,10.0,30.380905,1029.6,,TRUE,TRUE,,,,,,,BKN,12000,,,,,,,VFR,,,,,,,,,,,,METAR,103.0
KFDK 211652Z 19010G17KT 1/4SM SN OVC005 M07/M10 A3036,KFDK,2015-02-21T16:52:00Z,39.42,-77.37,-7.0,-10.0,190,10,17,0.25,30.360237,,,,,,,,,,SN,OVC,500,,,,,,,LIFR,,,,,,,,,,,,METAR,92.0
KGDB 211652Z AUTO 30016KT 7SM SCT015 BKN110 M10/M14 A3015 RMK AO2 T11051140,KGDB,2015-02-21T16:52:00Z,44.75,-95.55,-10.5,-14.0,300,16,,7.0,30.15059,,,TRUE,TRUE,,,,,,,SCT,1500,BKN,11000,,,,,VFR,,,,,,,,,,,,SPECI,319.0
KHCD 211652Z AUTO 33013KT 10SM SCT090 M09/M13 A3007 RMK AO2 T10891130,KHCD,2015-02-21T16:52:00Z,44.87,-94.38,-8.9,-13.0,330,13,,10.0,30.070866,,,TRUE,TRUE,,,,,,,SCT,9000,,,,,,,VFR,,,,,,,,,,,,SPECI,323.0
KFLY 211652Z AUTO 16007KT 3SM -SN BKN008 OVC013 M02/M03 A2993 RMK AO2 T10251032,KFLY,2015-02-21T16:52:00Z,38.95,-104.57,-2.5,-3.2,160,7,,3.0,29.929134,,,TRUE,TRUE,,,,,,-SN,BKN,800,OVC,1300,,,,,IFR,,,,,,,,,,,,METAR,2096.0
K04V 211652Z AUTO 30009KT 10SM OVC100 01/M10 A2988 RMK AO2,K04V,2015-02-21T16:52:00Z,38.1,-106.17,1.0,-10.0,300,9,,10.0,29.878937,,,TRUE,TRUE,,,,,,,OVC,10000,,,,,,,VFR,,,,,,,,,,,,SPECI,2385.0
KIMS 211652Z AUTO 19008KT 2 1/2SM BKN008 OVC013 01/00 A2991 RMK AO1,KIMS,2015-02-21T16:52:00Z,38.75,-85.47,1.0,0.0,190,8,,2.5,29.911417,,,TRUE,TRUE,,,,,,,BKN,800,OVC,1300,,,,,IFR,,,,,,,,,,,,METAR,250.0
PATA 211652Z 08009KT 10SM CLR M07/M11 A2987 RMK AO2 SLP120 T10721111,PATA,2015-02-21T16:52:00Z,65.17,-152.1,-7.2,-11.1,80,9,,10.0,29.870079,1012.0,,,TRUE,,,,,,,CLR,,,,,,,,VFR,,,,,,,,,,,,METAR,67.0
KFFX 211652Z AUTO 19004KT 5SM HZ OVC025 M06/M09 A2992 RMK AO2 T10651095,KFFX,2015-02-21T16:52:00Z,43.43,-86.0,-6.5,-9.5,190,4,,5.0,29.920275,,,TRUE,TRUE,,,,,,HZ,OVC,2500,,,,,,,MVFR,,,,,,,,,,,,SPECI,236.0
KDRA 211652Z AUTO 03014KT 10SM CLR 14/M09 A2993 RMK AO2 SLP113 T01391094,KDRA,2015-02-21T16:52:00Z,36.62,-116.03,13.9,-9.4,30,14,,10.0,29.929134,1011.3,,TRUE,TRUE,,,,,,,CLR,,,,,,,,VFR,,,,,,,,,,,,METAR,1006.0
KEKM 211652Z 00000KT 7SM OVC037 M06/M10 A2995 RMK AO2,KEKM,2015-02-21T16:52:00Z,41.72,-86.0,-6.0,-10.0,0,0,,7.0,29.949802,,,,TRUE,,,,,,,OVC,3700,,,,,,,VFR,,,,,,,,,,,,METAR,237.0
KTTF 211652Z AUTO 00000KT 3/4SM -SN OVC006 M07/M08 A2994 RMK AO2,KTTF,2015-02-21T16:52:00Z,41.93,-83.42,-7.0,-8.0,0,0,,0.75,29.940945,,,TRUE,TRUE,,,,,,-SN,OVC,600,,,,,,,LIFR,,,,,,,,,,,,METAR,188.0
EBBE 211652Z AUTO 29005KT 9000 FEW005/// SCT010/// OVC042/// 02/01 Q1001 GRN,EBBE,2015-02-21T16:52:00Z,50.75,4.77,2.0,1.0,290,5,,5.59,29.557087,,,TRUE,,,,,,,,,,,,,,,,,,,,,,,,,,,,METAR,127.0
MUHG 211652Z 07015KT 9000 BKN025 BKN080 25/18 Q1021,MUHG,2015-02-21T16:52:00Z,20.77,-76.32,25.0,18.0,70,15,,5.59,30.147638,,,,,,,,,,,BKN,2500,BKN,8000,,,,,MVFR,,,,,,,,,,,,METAR,106.0
MMDO 211651Z 00000KT 14SM FEW080 19/00 A3024 RMK 8/060 ISOL CI RTS,MMDO,2015-02-21T16:51:00Z,24.12,-104.52,19.0,0.0,0,0,,14.0,30.239174,,,,,,,,,,,FEW,8000,,,,,,,VFR,,,,,,,,,,,,METAR,1857.0
KJAC 211651Z 36012KT 4SM BR BKN019 OVC031 M05/M06 A2991,KJAC,2015-02-21T16:51:00Z,43.62,-110.73,-5.0,-6.0,360,12,,4.0,29.911417,,,,,,,,,,BR,BKN,1900,OVC,3100,,,,,MVFR,,,,,,,,,,,,METAR,1961.0
KSNT 211651Z AUTO 11005KT M06/M10 A2999 RMK AO1 SLP165 T10611100,KSNT,2015-02-21T16:51:00Z,44.17,-114.93,-6.1,-10.0,110,5,,,29.991142,1016.5,,TRUE,TRUE,,,,,,,,,,,,,,,,,,,,,,,,,,,METAR,1980.0
KP58 211651Z AUTO VRB04KT M08/M12 A2995 RMK AO1 SLP163 T10781122,KP58,2015-02-21T16:51:00Z,44.02,-82.8,-7.8,-12.2,0,4,,,29.949802,1016.3,,TRUE,TRUE,,,,,,,,,,,,,,,,,,,,,,,,,,,METAR,179.0
KATT 211651Z AUTO VRB05KT 10SM BKN023 OVC028 21/16 A2990 RMK AO2 SLP116 T02110161,KATT,2015-02-21T16:51:00Z,30.32,-97.77,21.1,16.1,0,5,,10.0,29.899607,1011.6,,TRUE,TRUE,,,,,,,BKN,2300,OVC,2800,,,,,MVFR,,,,,,,,,,,,METAR,201.0
KVCT 211651Z 19014G21KT 9SM BKN018 OVC025 22/18 A2993 RMK AO2 SLP135 T02170178 $,KVCT,2015-02-21T16:51:00Z,28.87,-96.93,21.7,17.8,190,14,21,9.0,29.929134,1013.5,,,TRUE,TRUE,,,,,,BKN,1800,OVC,2500,,,,,MVFR,,,,,,,,,,,,METAR,31.0
KBVE 211651Z AUTO 16015G21KT 10SM FEW037 FEW049 21/14 A3011 RMK AO2 SLP196 T02110144,KBVE,2015-02-21T16:51:00Z,29.32,-89.4,21.1,14.4,160,15,21,10.0,30.109253,1019.6,,TRUE,TRUE,,,,,,,FEW,3700,FEW,4900,,,,,VFR,,,,,,,,,,,,METAR,1.0
KNYC 211651Z AUTO 19005KT 10SM BKN090 M03/M13 A3045 RMK AO2 SLP305 T10331133 $,KNYC,2015-02-21T16:51:00Z,40.78,-73.97,-3.3,-13.3,190,5,,10.0,30.448818,1030.5,,TRUE,TRUE,TRUE,,,,,,BKN,9000,,,,,,,VFR,,,,,,,,,,,,METAR,11.0
KHDO 211651Z AUTO 20008KT 10SM SCT019 21/14 A2992 RMK AO2 SLP120 T02060144,KHDO,2015-02-21T16:51:00Z,29.37,-99.17,20.6,14.4,200,8,,10.0,29.920275,1012.0,,TRUE,TRUE,,,,,,,SCT,1900,,,,,,,VFR,,,,,,,,,,,,METAR,282.0
KHSE 211651Z AUTO 03005KT 10SM OVC041 05/M01 A3047 RMK AO2 SLP319 T00501006 TSNO,KHSE,2015-02-21T16:51:00Z,35.23,-75.62,5.0,-0.6,30,5,,10.0,30.469488,1031.9,,TRUE,TRUE,,,TRUE,,,,OVC,4100,,,,,,,VFR,,,,,,,,,,,,METAR,3.0
KHTS 211651Z 14004KT 3SM RA BR SCT006 OVC012 00/00 A3000 RMK AO2 UPE48RAB48 SLP167 P0006 T00000000,KHTS,2015-02-21T16:51:00Z,38.37,-82.55,0.0,0.0,140,4,,3.0,30.0,1016.7,,,TRUE,,,,,,RA BR,SCT,600,OVC,1200,,,,,MVFR,,,,,,0.06,,,,,,METAR,254.0
KIGM 211651Z AUTO 00000KT 10SM CLR 16/M03 A2993 RMK AO2 SLP091 T01611033 $,KIGM,2015-02-21T16:51:00Z,35.25,-113.93,16.1,-3.3,0,0,,10.0,29.929134,1009.1,,TRUE,TRUE,TRUE,,,,,,CLR,,,,,,,,VFR,,,,,,,,,,,,METAR,1032.0
KILG 211651Z 17013KT 10SM OVC034 M04/M14 A3042 RMK AO2 SLP303 T10441144,KILG,2015-02-21T16:51:00Z,39.67,-75.6,-4.4,-14.4,170,13,,10.0,30.41929,1030.3,,,TRUE,,,,,,,OVC,3400,,,,,,,VFR,,,,,,,,,,,,METAR,28.0
KJCT 211651Z AUTO 35009KT 10SM OVC019 17/09 A2993 RMK AO2 WSHFT 1553 SLP108 T01670089,KJCT,2015-02-21T16:51:00Z,30.5,-99.77,16.7,8.9,350,9,,10.0,29.929134,1010.8,,TRUE,TRUE,,,,,,,OVC,1900,,,,,,,MVFR,,,,,,,,,,,,METAR,522.0
KJFK 211651Z 19015KT 10SM SCT045 SCT100 OVC200 M02/M09 A3046 RMK AO2 SLP314 T10171089,KJFK,2015-02-21T16:51:00Z,40.63,-73.77,-1.7,-8.9,190,15,,10.0,30.46063,1031.4,,,TRUE,,,,,,,SCT,4500,SCT,10000,OVC,20000,,,VFR,,,,,,,,,,,,METAR,9.0
KLGA 211651Z 20012KT 10SM FEW060 BKN100 BKN250 M03/M12 A3044 RMK AO2 SLP306 T10331122,KLGA,2015-02-21T16:51:00Z,40.78,-73.88,-3.3,-12.2,200,12,,10.0,30.43996,1030.6,,,TRUE,,,,,,,FEW,6000,BKN,10000,BKN,25000,,,VFR,,,,,,,,,,,,METAR,11.0
KLGU 211651Z AUTO 10005KT 10SM FEW007 OVC037 02/M01 A2998 RMK AO2 SNB19E33 SLP155 P0000 T00171006,KLGU,2015-02-21T16:51:00Z,41.78,-111.85,1.7,-0.6,100,5,,10.0,29.97933,1015.5,,TRUE,TRUE,,,,,,,FEW,700,OVC,3700,,,,,VFR,,,,,,0.0050,,,,,,METAR,1355.0
KPHX 211651Z 09007KT 10SM FEW150 BKN200 BKN250 18/04 A2990 RMK AO2 SLP114 T01830039 $,KPHX,2015-02-21T16:51:00Z,33.43,-112.02,18.3,3.9,90,7,,10.0,29.899607,1011.4,,,TRUE,TRUE,,,,,,FEW,15000,BKN,20000,BKN,25000,,,VFR,,,,,,,,,,,,METAR,336.0
KOXR 211651Z 04007KT 5SM HZ SCT028 OVC041 15/09 A3000 RMK AO2 SLP157 T01500089,KOXR,2015-02-21T16:51:00Z,34.2,-119.2,15.0,8.9,40,7,,5.0,30.0,1015.7,,,TRUE,,,,,,HZ,SCT,2800,OVC,4100,,,,,MVFR,,,,,,,,,,,,METAR,20.0
KORF 211651Z AUTO 18009KT 10SM OVC055 01/M12 A3043 RMK AO2 SLP304 T00061122 TSNO,KORF,2015-02-21T16:51:00Z,36.9,-76.2,0.6,-12.2,180,9,,10.0,30.431103,1030.4,,TRUE,TRUE,,,TRUE,,,,OVC,5500,,,,,,,VFR,,,,,,,,,,,,METAR,14.0
KORD 211651Z 00000KT 7SM OVC031 M03/M08 A2993 RMK AO2 SLP145 T10331083,KORD,2015-02-21T16:51:00Z,41.98,-87.93,-3.3,-8.3,0,0,,7.0,29.929134,1014.5,,,TRUE,,,,,,,OVC,3100,,,,,,,VFR,,,,,,,,,,,,METAR,200.0
KMYL 211651Z AUTO 00000KT 10SM FEW006 BKN055 OVC090 M01/M03 A3000 RMK AO2 SNB06E24 SLP184 P0001 T10061028,KMYL,2015-02-21T16:51:00Z,44.9,-116.1,-0.6,-2.8,0,0,,10.0,30.0,1018.4,,TRUE,TRUE,,,,,,,FEW,600,BKN,5500,OVC,9000,,,VFR,,,,,,0.01,,,,,,METAR,1533.0
KMPV 211651Z AUTO 17012KT 10SM SCT120 M10/M21 A3021 RMK AO2 SLP258 T11001211,KMPV,2015-02-21T16:51:00Z,44.2,-72.57,-10.0,-21.1,170,12,,10.0,30.209646,1025.8,,TRUE,TRUE,,,,,,,SCT,12000,,,,,,,VFR,,,,,,,,,,,,METAR,343.0
KPVD 211651Z 20016KT 10SM FEW120 OVC250 M02/M10 A3045 RMK AO2 SLP311 T10221100,KPVD,2015-02-21T16:51:00Z,41.72,-71.43,-2.2,-10.0,200,16,,10.0,30.448818,1031.1,,,TRUE,,,,,,,FEW,12000,OVC,25000,,,,,VFR,,,,,,,,,,,,METAR,16.0
KPWM 211651Z 18009G19KT 10SM CLR M06/M19 A3041 RMK AO2 SLP300 T10561189,KPWM,2015-02-21T16:51:00Z,43.65,-70.3,-5.6,-18.9,180,9,19,10.0,30.410433,1030.0,,,TRUE,,,,,,,CLR,,,,,,,,VFR,,,,,,,,,,,,METAR,15.0
KRDU 211651Z 16004KT 10SM OVC021 00/M06 A3038 RMK AO2 SLP291 T00001061,KRDU,2015-02-21T16:51:00Z,35.9,-78.78,0.0,-6.1,160,4,,10.0,30.380905,1029.1,,,TRUE,,,,,,,OVC,2100,,,,,,,MVFR,,,,,,,,,,,,METAR,130.0
KROW 211651Z VRB03KT 10SM CLR 10/01 A3003 RMK AO2 SLP137 T01000006,KROW,2015-02-21T16:51:00Z,33.3,-104.5,10.0,0.6,0,3,,10.0,30.029528,1013.7,,,TRUE,,,,,,,CLR,,,,,,,,VFR,,,,,,,,,,,,METAR,1112.0
KSAD 211651Z AUTO 14006KT 10SM CLR 17/00 A2997 RMK AO2 SLP113 T01720000,KSAD,2015-02-21T16:51:00Z,32.85,-109.63,17.2,0.0,140,6,,10.0,29.970472,1011.3,,TRUE,TRUE,,,,,,,CLR,,,,,,,,VFR,,,,,,,,,,,,METAR,962.0
K2W6 211651Z AUTO 15005KT 10SM OVC050 M02/M13 A3042 RMK AO1,K2W6,2015-02-21T16:51:00Z,38.32,-76.55,-2.0,-13.0,150,5,,10.0,30.41929,,,TRUE,TRUE,,,,,,,OVC,5000,,,,,,,VFR,,,,,,,,,,,,METAR,44.0
KACT 211651Z 34012KT 10SM OVC021 13/09 A2992 RMK AO2 SLP129 T01330094,KACT,2015-02-21T16:51:00Z,31.62,-97.23,13.3,9.4,340,12,,10.0,29.920275,1012.9,,,TRUE,,,,,,,OVC,2100,,,,,,,MVFR,,,,,,,,,,,,METAR,151.0
KAHN 211651Z VRB05KT 10SM OVC090 08/M04 A3029 RMK AO2 PRESFR SLP263 T00781044,KAHN,2015-02-21T16:51:00Z,33.95,-83.33,7.8,-4.4,0,5,,10.0,30.28937,1026.3,,,TRUE,,,,,,,OVC,9000,,,,,,,VFR,,,,,,,,,,,,METAR,244.0
KALB 211651Z 17019G31KT 10SM OVC090 M08/M19 A3028 RMK AO2 PK WND 16032/1633 SLP260 DRSN T10781194,KALB,2015-02-21T16:51:00Z,42.75,-73.8,-7.8,-19.4,170,19,31,10.0,30.280512,1026.0,,,TRUE,,,,,,,OVC,9000,,,,,,,VFR,,,,,,,,,,,,METAR,92.0
KASH 211651Z 20008KT 170V240 10SM BKN120 M05/M18 A3040 RMK AO2 T10501183 SLP562 $,KASH,2015-02-21T16:51:00Z,42.78,-71.52,-5.0,-18.3,200,8,,10.0,30.398623,956.2,,,TRUE,TRUE,,,,,,BKN,12000,,,,,,,VFR,,,,,,,,,,,,METAR,61.0
KAVX 211651Z AUTO VRB03KT 10SM OVC015 12/08 A3001 RMK AO2 SLP159 T01170078,KAVX,2015-02-21T16:51:00Z,33.4,-118.42,11.7,7.8,0,3,,10.0,30.008858,1015.9,,TRUE,TRUE,,,,,,,OVC,1500,,,,,,,MVFR,,,,,,,,,,,,METAR,482.0
KBAZ 211651Z 22014KT 10SM 22/16 A2989 RMK AO2 SLP116 T02220156,KBAZ,2015-02-21T16:51:00Z,29.72,-98.05,22.2,15.6,220,14,,10.0,29.890747,1011.6,,,TRUE,,,,,,,,,,,,,,,,,,,,,,,,,,,METAR,195.0
KBDL 211651Z 19018G23KT 10SM SCT110 OVC200 M04/M14 A3040 RMK AO2 SLP299 T10391144,KBDL,2015-02-21T16:51:00Z,41.93,-72.68,-3.9,-14.4,190,18,23,10.0,30.398623,1029.9,,,TRUE,,,,,,,SCT,11000,OVC,20000,,,,,VFR,,,,,,,,,,,,METAR,60.0
KBGD 211651Z AUTO 06006KT 10SM CLR 07/M01 A3005 RMK AO2 SLP169 T00671011,KBGD,2015-02-21T16:51:00Z,35.7,-101.4,6.7,-1.1,60,6,,10.0,30.050198,1016.9,,TRUE,TRUE,,,,,,,CLR,,,,,,,,VFR,,,,,,,,,,,,METAR,927.0
KBHK 211651Z AUTO 35019G23KT 10SM FEW035 M12/M17 A3023 RMK AO2 PK WND 35026/1625 SLP280 T11171172,KBHK,2015-02-21T16:51:00Z,46.35,-104.25,-11.7,-17.2,350,19,23,10.0,30.230314,1028.0,,TRUE,TRUE,,,,,,,FEW,3500,,,,,,,VFR,,,,,,,,,,,,METAR,902.0
KCAK 211651Z 20006KT 6SM HZ OVC010 M03/M06 A2992 RMK AO2 SNE47 SLP152 P0000 T10331061 $,KCAK,2015-02-21T16:51:00Z,40.92,-81.45,-3.3,-6.1,200,6,,6.0,29.920275,1015.2,,,TRUE,TRUE,,,,,HZ,OVC,1000,,,,,,,MVFR,,,,,,0.0050,,,,,,METAR,377.0
KBKW 211651Z AUTO 15013G19KT 3/4SM -SN BR VV019 M04/M07 A3004 RMK AO2 SNB16 SLP216 P0003 T10441067,KBKW,2015-02-21T16:51:00Z,37.8,-81.12,-4.4,-6.7,150,13,19,0.75,30.041338,1021.6,,TRUE,TRUE,,,,,,-SN BR,OVX,0,,,,,,,LIFR,,,,,,0.03,,,,,1900,METAR,764.0
KCBE 211651Z AUTO 00000KT 1 1/2SM OVC004 M08/M11 A3024 RMK AO1,KCBE,2015-02-21T16:51:00Z,39.62,-78.77,-8.0,-11.0,0,0,,1.5,30.239174,,,TRUE,TRUE,,,,,,,OVC,400,,,,,,,LIFR,,,,,,,,,,,,METAR,236.0
KCGE 211651Z AUTO 16010G16KT 10SM SCT050 00/M08 A3043 RMK AO1,KCGE,2015-02-21T16:51:00Z,38.53,-76.03,0.0,-8.0,160,10,16,10.0,30.431103,,,TRUE,TRUE,,,,,,,SCT,5000,,,,,,,VFR,,,,,,,,,,,,METAR,6.0
KEKN 211651Z AUTO 14009KT 3/4SM -SN BR VV015 M03/M03 A3004 RMK AO2 SLP214 P0008 T10281033 TSNO,KEKN,2015-02-21T16:51:00Z,38.88,-79.85,-2.8,-3.3,140,9,,0.75,30.041338,1021.4,,TRUE,TRUE,,,TRUE,,,-SN BR,OVX,0,,,,,,,LIFR,,,,,,0.08,,,,,1500,METAR,603.0
KELP 211651Z VRB03KT 10SM FEW250 19/00 A2999 RMK AO2 SLP100 T01890000,KELP,2015-02-21T16:51:00Z,31.82,-106.38,18.9,0.0,0,3,,10.0,29.991142,1010.0,,,TRUE,,,,,,,FEW,25000,,,,,,,VFR,,,,,,,,,,,,METAR,1197.0
KEWR 211651Z 19007KT 10SM FEW070 BKN085 OVC200 M04/M13 A3044 RMK AO2 SLP308 T10441128,KEWR,2015-02-21T16:51:00Z,40.68,-74.17,-4.4,-12.8,190,7,,10.0,30.43996,1030.8,,,TRUE,,,,,,,FEW,7000,BKN,8500,OVC,20000,,,VFR,,,,,,,,,,,,METAR,7.0
KFME 211651Z AUTO 18005KT 1/2SM OVC005 M06/M08 A3042 RMK AO1,KFME,2015-02-21T16:51:00Z,39.08,-76.77,-6.0,-8.0,180,5,,0.5,30.41929,,,TRUE,TRUE,,,,,,,OVC,500,,,,,,,LIFR,,,,,,,,,,,,METAR,46.0
KP59 211651Z AUTO 35013KT M13/M17 A2997 RMK AO1 SLP170 T11281167 $,KP59,2015-02-21T16:51:00Z,47.47,-87.88,-12.8,-16.7,350,13,,,29.970472,1017.0,,TRUE,TRUE,TRUE,,,,,,,,,,,,,,,,,,,,,,,,,,METAR,190.0
KSMX 211651Z 09006KT 6SM HZ OVC013 13/09 A3001 RMK AO2 SLP163 T01330094,KSMX,2015-02-21T16:51:00Z,34.9,-120.45,13.3,9.4,90,6,,6.0,30.008858,1016.3,,,TRUE,,,,,,HZ,OVC,1300,,,,,,,MVFR,,,,,,,,,,,,METAR,74.0
KYNG 211651Z 18006KT 3/4SM -SN BR SCT013 BKN020 OVC030 M04/M06 A2994 RMK AO2 SLP158 T10391061,KYNG,2015-02-21T16:51:00Z,41.25,-80.67,-3.9,-6.1,180,6,,0.75,29.940945,1015.8,,,TRUE,,,,,,-SN BR,SCT,1300,BKN,2000,OVC,3000,,,LIFR,,,,,,,,,,,,METAR,360.0
KW29 211651Z AUTO 18009G19KT 10SM M03/M12 A3042 RMK AO1,KW29,2015-02-21T16:51:00Z,38.98,-76.33,-3.0,-12.0,180,9,19,10.0,30.41929,,,TRUE,TRUE,,,,,,,,,,,,,,,,,,,,,,,,,,,METAR,15.0
KVNY 211651Z 13003KT 10SM OVC029 14/09 A3000 RMK AO2 SLP156 T01440089,KVNY,2015-02-21T16:51:00Z,34.22,-118.48,14.4,8.9,130,3,,10.0,30.0,1015.6,,,TRUE,,,,,,,OVC,2900,,,,,,,MVFR,,,,,,,,,,,,METAR,245.0
KTEB 211651Z 19011KT 10SM BKN080 OVC100 M04/M13 A3044 RMK AO2 SLP306 T10441133,KTEB,2015-02-21T16:51:00Z,40.87,-74.05,-4.4,-13.3,190,11,,10.0,30.43996,1030.6,,,TRUE,,,,,,,BKN,8000,OVC,10000,,,,,VFR,,,,,,,,,,,,METAR,7.0
KSTL 211651Z 32005KT 7SM SCT008 BKN120 01/M02 A2995 RMK AO2 SLP154 T00111022,KSTL,2015-02-21T16:51:00Z,38.75,-90.37,1.1,-2.2,320,5,,7.0,29.949802,1015.4,,,TRUE,,,,,,,SCT,800,BKN,12000,,,,,VFR,,,,,,,,,,,,METAR,171.0
KSMO 211651Z 13003KT 10SM OVC031 17/09 A3001 RMK AO2 SLP160 T01670094 $,KSMO,2015-02-21T16:51:00Z,34.02,-118.45,16.7,9.4,130,3,,10.0,30.008858,1016.0,,,TRUE,TRUE,,,,,,OVC,3100,,,,,,,VFR,,,,,,,,,,,,METAR,57.0
KSLK 211651Z AUTO 26006KT 10SM BKN055 OVC120 M07/M17 A2998 RMK AO2 SLP189 T10721172,KSLK,2015-02-21T16:51:00Z,44.4,-74.2,-7.2,-17.2,260,6,,10.0,29.97933,1018.9,,TRUE,TRUE,,,,,,,BKN,5500,OVC,12000,,,,,VFR,,,,,,,,,,,,METAR,498.0
KSJT 211651Z 03009KT 10SM FEW023 15/07 A2998 RMK AO2 SLP139 T01500072,KSJT,2015-02-21T16:51:00Z,31.37,-100.5,15.0,7.2,30,9,,10.0,29.97933,1013.9,,,TRUE,,,,,,,FEW,2300,,,,,,,VFR,,,,,,,,,,,,METAR,576.0
KSAT 211651Z 19010KT 10SM BKN023 BKN250 21/15 A2990 RMK AO2 SLP109 BKN023 V SCT T02110150,KSAT,2015-02-21T16:51:00Z,29.53,-98.47,21.1,15.0,190,10,,10.0,29.899607,1010.9,,,TRUE,,,,,,,BKN,2300,BKN,25000,,,,,MVFR,,,,,,,,,,,,METAR,243.0
KSAN 211651Z 18004KT 10SM BKN033 BKN200 17/09 A3000 RMK AO2 SLP158 T01670089 $,KSAN,2015-02-21T16:51:00Z,32.73,-117.18,16.7,8.9,180,4,,10.0,30.0,1015.8,,,TRUE,TRUE,,,,,,BKN,3300,BKN,20000,,,,,VFR,,,,,,,,,,,,METAR,12.0
KDAW 211651Z AUTO VRB04KT 10SM SCT120 M06/M19 A3039 RMK AO2 SLP294 T10611189,KDAW,2015-02-21T16:51:00Z,43.28,-70.92,-6.1,-18.9,0,4,,10.0,30.389763,1029.4,,TRUE,TRUE,,,,,,,SCT,12000,,,,,,,VFR,,,,,,,,,,,,METAR,100.0
KSGS 211651Z AUTO 34008KT 7SM SCT015 SCT044 BKN060 M08/M12 A3004 RMK AO2 T10791120,KSGS,2015-02-21T16:51:00Z,44.87,-93.03,-7.9,-12.0,340,8,,7.0,30.041338,,,TRUE,TRUE,,,,,,,SCT,1500,SCT,4400,BKN,6000,,,VFR,,,,,,,,,,,,SPECI,250.0
KJKJ 211651Z AUTO 35015KT 5SM BR SCT004 BKN009 OVC016 M18/M20 A3025 RMK AO2,KJKJ,2015-02-21T16:51:00Z,46.83,-96.67,-18.0,-20.0,350,15,,5.0,30.250984,,,TRUE,TRUE,,,,,,BR,SCT,400,BKN,900,OVC,1600,,,IFR,,,,,,,,,,,,SPECI,280.0
KEVM 211651Z AUTO 29009KT 10SM SCT018 M14/M19 A3002 RMK AO2,KEVM,2015-02-21T16:51:00Z,47.42,-92.5,-14.0,-19.0,290,9,,10.0,30.02067,,,TRUE,TRUE,,,,,,,SCT,1800,,,,,,,VFR,,,,,,,,,,,,SPECI,421.0
KGFA 211651Z AUTO 27004KT 2 3/4SM -SN OVC022 M06/M07 A3032 RMK AO2 VIS 1 3/4V2 3/4 TSNO $,KGFA,2015-02-21T16:51:00Z,47.5,-111.17,-6.0,-7.0,270,4,,2.75,30.318897,,,TRUE,TRUE,TRUE,,TRUE,,,-SN,OVC,2200,,,,,,,IFR,,,,,,,,,,,,METAR,1075.0
KAXV 211651Z AUTO 00000KT 3/4SM -SN OVC012 M04/M05 A2993 RMK AO2,KAXV,2015-02-21T16:51:00Z,40.5,-84.3,-4.0,-5.0,0,0,,0.75,29.929134,,,TRUE,TRUE,,,,,,-SN,OVC,1200,,,,,,,LIFR,,,,,,,,,,,,SPECI,279.0
K21D 211651Z AUTO 33008KT 7SM BKN017 BKN023 OVC030 M08/M11 A3004 RMK AO2,K21D,2015-02-21T16:51:00Z,45.0,-92.85,-8.0,-11.0,330,8,,7.0,30.041338,,,TRUE,TRUE,,,,,,,BKN,1700,BKN,2300,OVC,3000,,,MVFR,,,,,,,,,,,,SPECI,285.0
KCON 211651Z AUTO 16006KT 10SM FEW120 M08/M20 A3037 RMK AO2 SLP292 T10831200,KCON,2015-02-21T16:51:00Z,43.2,-71.5,-8.3,-20.0,160,6,,10.0,30.369095,1029.2,,TRUE,TRUE,,,,,,,FEW,12000,,,,,,,VFR,,,,,,,,,,,,METAR,103.0
KCLE 211651Z 20006KT 9SM -SN OVC031 M04/M07 A2997 RMK AO2 SLP163 P0000 T10441072,KCLE,2015-02-21T16:51:00Z,41.42,-81.85,-4.4,-7.2,200,6,,9.0,29.970472,1016.3,,,TRUE,,,,,,-SN,OVC,3100,,,,,,,VFR,,,,,,0.0050,,,,,,METAR,233.0
KAID 211651Z 00000KT 2SM -SN SCT012 OVC025 M04/M07 A2991,KAID,2015-02-21T16:51:00Z,40.12,-85.62,-4.0,-7.0,0,0,,2.0,29.911417,,,,,,,,,,-SN,SCT,1200,OVC,2500,,,,,IFR,,,,,,,,,,,,METAR,280.0
KGDP 211651Z AUTO 07019KT 10SM CLR 09/M01 A3004 RMK AO2 SLP131 T00941011,KGDP,2015-02-21T16:51:00Z,31.83,-104.82,9.4,-1.1,70,19,,10.0,30.041338,1013.1,,TRUE,TRUE,,,,,,,CLR,,,,,,,,VFR,,,,,,,,,,,,METAR,1692.0
KRGK 211651Z AUTO 34005KT 2SM -SN SCT017 OVC029 M06/M11 A3001 RMK AO2,KRGK,2015-02-21T16:51:00Z,44.58,-92.48,-6.0,-11.0,340,5,,2.0,30.008858,,,TRUE,TRUE,,,,,,-SN,SCT,1700,OVC,2900,,,,,IFR,,,,,,,,,,,,SPECI,239.0
KCSG 211651Z 19012G18KT 10SM OVC100 12/00 A3023 RMK AO2 SLP236 T01170000,KCSG,2015-02-21T16:51:00Z,32.52,-84.95,11.7,0.0,190,12,18,10.0,30.230314,1023.6,,,TRUE,,,,,,,OVC,10000,,,,,,,VFR,,,,,,,,,,,,METAR,135.0
MUCL 211651Z 06010KT 9000 BKN020 OVC060 21/16 Q1021,MUCL,2015-02-21T16:51:00Z,21.63,-81.55,21.0,16.0,60,10,,5.59,30.147638,,,,,,,,,,,BKN,2000,OVC,6000,,,,,MVFR,,,,,,,,,,,,METAR,5.0
MUCM 211651Z 09016KT 060V120 9000 SCT020 25/15 Q1022,MUCM,2015-02-21T16:51:00Z,21.42,-77.85,25.0,15.0,90,16,,5.59,30.177166,,,,,,,,,,,SCT,2000,,,,,,,VFR,,,,,,,,,,,,METAR,122.0
MUCC 211651Z 08019KT 9000 BKN020 25/16 Q1022,MUCC,2015-02-21T16:51:00Z,22.47,-78.33,25.0,16.0,80,19,,5.59,30.177166,,,,,,,,,,,BKN,2000,,,,,,,MVFR,,,,,,,,,,,,METAR,4.0
MUVR 211651Z 07015KT 9999 FEW020 SCT070 22/15 Q1022,MUVR,2015-02-21T16:51:00Z,23.03,-81.43,22.0,15.0,70,15,,6.21,30.177166,,,,,,,,,,,FEW,2000,SCT,7000,,,,,VFR,,,,,,,,,,,,METAR,65.0
ETNH 211650Z 24006KT 9000 -RA BKN005 BKN012 02/02 Q0995 YLO,ETNH,2015-02-21T16:50:00Z,54.32,9.55,2.0,2.0,240,6,,5.59,29.379921,,,,,,,,,,-RA,BKN,500,BKN,1200,,,,,IFR,,,,,,,,,,,,SPECI,17.0
LTAC 211650Z 15007KT CAVOK M03/M08 Q1019 NOSIG,LTAC,2015-02-21T16:50:00Z,40.12,32.97,-3.0,-8.0,150,7,,6.21,30.088583,,,,,,TRUE,,,,,CAVOK,,,,,,,,VFR,,,,,,,,,,,,METAR,949.0
LTAF 211650Z 34009KT 9999 FEW040 09/M10 Q1017 BECMG TL1800 5000 BR,LTAF,2015-02-21T16:50:00Z,36.97,35.28,9.0,-10.0,340,9,,6.21,30.029528,,,,,,,,,,,FEW,4000,,,,,,,VFR,,,,,,,,,,,,METAR,20.0
LTAI 211650Z 35002KT CAVOK 09/M01 Q1017 NOSIG,LTAI,2015-02-21T16:50:00Z,36.9,30.8,9.0,-1.0,350,2,,6.21,30.029528,,,,,,TRUE,,,,,CAVOK,,,,,,,,VFR,,,,,,,,,,,,METAR,54.0
LTAJ 211650Z 00000KT 9999 SCT040 02/M01 Q1016 NOSIG,LTAJ,2015-02-21T16:50:00Z,36.95,37.48,2.0,-1.0,0,0,,6.21,30.0,,,,,,TRUE,,,,,SCT,4000,,,,,,,VFR,,,,,,,,,,,,METAR,855.0
LTAZ 211650Z 21006KT 9999 FEW040 M07/M09 Q1021,LTAZ,2015-02-21T16:50:00Z,38.77,34.55,-7.0,-9.0,210,6,,6.21,30.147638,,,,,,,,,,,FEW,4000,,,,,,,VFR,,,,,,,,,,,,METAR,945.0
LTBA 211650Z 10004KT 070V150 CAVOK 07/M01 Q1020 NOSIG,LTBA,2015-02-21T16:50:00Z,40.97,28.82,7.0,-1.0,100,4,,6.21,30.11811,,,,,,TRUE,,,,,CAVOK,,,,,,,,VFR,,,,,,,,,,,,METAR,37.0
LTBJ 211650Z 02008KT CAVOK 09/M03 Q1015 NOSIG,LTBJ,2015-02-21T16:50:00Z,38.28,27.15,9.0,-3.0,20,8,,6.21,29.970472,,,,,,TRUE,,,,,CAVOK,,,,,,,,VFR,,,,,,,,,,,,METAR,120.0
LTBR 211650Z 06004KT CAVOK 04/M02 Q1019 NOSIG,LTBR,2015-02-21T16:50:00Z,40.25,29.57,4.0,-2.0,60,4,,6.21,30.088583,,,,,,TRUE,,,,,CAVOK,,,,,,,,VFR,,,,,,,,,,,,METAR,232.0
LTBS 211650Z 22003KT CAVOK 11/02 Q1015 NOSIG,LTBS,2015-02-21T16:50:00Z,36.7,28.77,11.0,2.0,220,3,,6.21,29.970472,,,,,,TRUE,,,,,CAVOK,,,,,,,,VFR,,,,,,,,,,,,METAR,2.0
LTCG 211650Z 31004KT 270V010 9999 -SHRA FEW021 SCT028 BKN100 06/02 Q1024 NOSIG,LTCG,2015-02-21T16:50:00Z,41.0,39.8,6.0,2.0,310,4,,6.21,30.236221,,,,,,TRUE,,,,-SHRA,FEW,2100,SCT,2800,BKN,10000,,,VFR,,,,,,,,,,,,METAR,30.0
LTCS 211650Z 32002KT CAVOK 02/M01 Q1016,LTCS,2015-02-21T16:50:00Z,37.45,38.9,2.0,-1.0,320,2,,6.21,30.0,,,,,,,,,,,CAVOK,,,,,,,,VFR,,,,,,,,,,,,METAR,825.0
LTFC 211650Z 35011KT CAVOK 01/M06 Q1018,LTFC,2015-02-21T16:50:00Z,37.87,30.38,1.0,-6.0,350,11,,6.21,30.059055,,,,,,,,,,,CAVOK,,,,,,,,VFR,,,,,,,,,,,,METAR,864.0
LTFE 211650Z 14004KT 100V170 CAVOK 09/01 Q1015 NOSIG,LTFE,2015-02-21T16:50:00Z,37.25,27.67,9.0,1.0,140,4,,6.21,29.970472,,,,,,TRUE,,,,,CAVOK,,,,,,,,VFR,,,,,,,,,,,,METAR,6.0
LTFJ 211650Z 06006KT CAVOK 04/M02 Q1020 NOSIG,LTFJ,2015-02-21T16:50:00Z,40.9,29.3,4.0,-2.0,60,6,,6.21,30.11811,,,,,,TRUE,,,,,CAVOK,,,,,,,,VFR,,,,,,,,,,,,METAR,98.0
KBCT 211650Z 12012G18KT 10SM BKN037 22/13 A3027,KBCT,2015-02-21T16:50:00Z,26.38,-80.1,22.0,13.0,120,12,18,10.0,30.268702,,,,,,,,,,,BKN,3700,,,,,,,VFR,,,,,,,,,,,,METAR,4.0
KLAL 211650Z 14012G17KT 12SM SKC 21/07 A3031,KLAL,2015-02-21T16:50:00Z,27.97,-82.02,21.0,7.0,140,12,17,12.0,30.31004,,,,,,,,,,,SKC,,,,,,,,VFR,,,,,,,,,,,,METAR,43.0
LSZA 211650Z VRB01KT 0800 DZ FG SCT002 BKN010 OVC028 01/00 Q1004 NOSIG,LSZA,2015-02-21T16:50:00Z,46.0,8.92,1.0,0.0,0,1,,0.5,29.64567,,,,,,TRUE,,,,DZ FG,SCT,200,BKN,1000,OVC,2800,,,LIFR,,,,,,,,,,,,METAR,276.0
LSZB 211650Z VRB01KT 1500 SN BKN010 00/M00 Q1002 NOSIG,LSZB,2015-02-21T16:50:00Z,46.92,7.5,0.0,0.0,0,1,,0.93,29.586615,,,,,,TRUE,,,,SN,BKN,1000,,,,,,,LIFR,,,,,,,,,,,,METAR,505.0
LSGG 211650Z 29001KT 9999 FEW003 SCT006 BKN040 02/02 Q1003 R05/29//// NOSIG,LSGG,2015-02-21T16:50:00Z,46.25,6.12,2.0,2.0,290,1,,6.21,29.616142,,,,,,TRUE,,,,,FEW,300,SCT,600,BKN,4000,,,VFR,,,,,,,,,,,,METAR,416.0
LSZH 211650Z 22005KT 150V250 6000 -RA SCT008 BKN011 OVC020 02/01 Q1002 TEMPO 4000 RA BKN008,LSZH,2015-02-21T16:50:00Z,47.48,8.53,2.0,1.0,220,5,,3.73,29.586615,,,,,,,,,,-RA,SCT,800,BKN,1100,OVC,2000,,,MVFR,,,,,,,,,,,,METAR,432.0
LLSD 211650Z 31005KT 9999 FEW040 14/05 Q1017,LLSD,2015-02-21T16:50:00Z,32.12,34.78,14.0,5.0,310,5,,6.21,30.029528,,,,,,,,,,,FEW,4000,,,,,,,VFR,,,,,,,,,,,,METAR,14.0
LLHA 211650Z 35009KT 9999 FEW040 14/05 Q1017,LLHA,2015-02-21T16:50:00Z,32.78,35.02,14.0,5.0,350,9,,6.21,30.029528,,,,,,,,,,,FEW,4000,,,,,,,VFR,,,,,,,,,,,,METAR,8.0
LLET 211650Z 03009KT CAVOK 14/05 Q1019,LLET,2015-02-21T16:50:00Z,29.55,34.95,14.0,5.0,30,9,,6.21,30.088583,,,,,,,,,,,CAVOK,,,,,,,,VFR,,,,,,,,,,,,METAR,13.0
KOCF 211650Z 16008KT 10SM CLR 19/07 A3033,KOCF,2015-02-21T16:50:00Z,29.17,-82.22,19.0,7.0,160,8,,10.0,30.33071,,,,,,,,,,,CLR,,,,,,,,VFR,,,,,,,,,,,,METAR,27.0
KHQZ 211650Z 30011KT 10SM OVC017 11/06 A2994,KHQZ,2015-02-21T16:50:00Z,32.75,-96.53,11.0,6.0,300,11,,10.0,29.940945,,,,,,,,,,,OVC,1700,,,,,,,MVFR,,,,,,,,,,,,METAR,136.0
KGPM 211650Z 32007G15KT 10SM OVC017 10/06 A2997,KGPM,2015-02-21T16:50:00Z,32.7,-97.05,10.0,6.0,320,7,15,10.0,29.970472,,,,,,,,,,,OVC,1700,,,,,,,MVFR,,,,,,,,,,,,METAR,180.0
LLBG 211650Z VRB01KT CAVOK 12/07 Q1018 NOSIG,LLBG,2015-02-21T16:50:00Z,32.0,34.88,12.0,7.0,0,1,,6.21,30.059055,,,,,,TRUE,,,,,CAVOK,,,,,,,,VFR,,,,,,,,,,,,METAR,49.0
OAKB 211650Z 15004KT 9999 FEW027 SCT070 07/05 Q1024 NOSIG RMK BLU BLU,OAKB,2015-02-21T16:50:00Z,34.55,69.22,7.0,5.0,150,4,,6.21,30.236221,,,,,,TRUE,,,,,FEW,2700,SCT,7000,,,,,VFR,,,,,,,,,,,,METAR,1791.0
EDXW 211650Z 24007KT 9999 SCT020 02/02 Q0994 RMK ATIS QUE,EDXW,2015-02-21T16:50:00Z,54.92,8.33,2.0,2.0,240,7,,6.21,29.350393,,,,,,,,,,,SCT,2000,,,,,,,VFR,,,,,,,,,,,,SPECI,20.0
EDVK 211650Z 21007KT 9999 FEW035 SCT049 04/M01 Q0999 RMK ATIS A,EDVK,2015-02-21T16:50:00Z,51.38,9.37,4.0,-1.0,210,7,,6.21,29.498032,,,,,,,,,,,FEW,3500,SCT,4900,,,,,VFR,,,,,,,,,,,,SPECI,285.0
EDSB 211650Z 20005KT 9999 BKN043 05/02 Q1002,EDSB,2015-02-21T16:50:00Z,48.78,8.08,5.0,2.0,200,5,,6.21,29.586615,,,,,,,,,,,BKN,4300,,,,,,,VFR,,,,,,,,,,,,METAR,124.0
EDQM 211650Z 26007KT 240V300 9999 -RA BKN011 OVC023 02/M00 Q0999,EDQM,2015-02-21T16:50:00Z,50.3,11.85,2.0,0.0,260,7,,6.21,29.498032,,,,,,,,,,-RA,BKN,1100,OVC,2300,,,,,MVFR,,,,,,,,,,,,METAR,568.0
EDOP 211650Z 23012KT 9999 SCT018 BKN025 04/01 Q0997,EDOP,2015-02-21T16:50:00Z,53.43,11.78,4.0,1.0,230,12,,6.21,29.438976,,,,,,,,,,,SCT,1800,BKN,2500,,,,,MVFR,,,,,,,,,,,,METAR,51.0
EDNY 211650Z 25006KT 9999 BKN023 04/M01 Q1001 RMK T,EDNY,2015-02-21T16:50:00Z,47.67,9.52,4.0,-1.0,250,6,,6.21,29.557087,,,,,,,,,,,BKN,2300,,,,,,,MVFR,,,,,,,,,,,,METAR,424.0
EDMA 211650Z VRB01KT CAVOK 03/M02 Q1001 RMK ATIS CHA,EDMA,2015-02-21T16:50:00Z,48.42,10.92,3.0,-2.0,0,1,,6.21,29.557087,,,,,,,,,,,CAVOK,,,,,,,,VFR,,,,,,,,,,,,METAR,463.0
EDLP 211650Z 19006KT 9999 VCSH SCT035 BKN075 01/01 Q1000 RMK ATIS JUL,EDLP,2015-02-21T16:50:00Z,51.62,8.62,1.0,1.0,190,6,,6.21,29.52756,,,,,,,,,,VCSH,SCT,3500,BKN,7500,,,,,VFR,,,,,,,,,,,,METAR,213.0
EDLN 211650Z 21004KT 160V240 CAVOK 04/03 Q1000 RMK ATIS U,EDLN,2015-02-21T16:50:00Z,51.23,6.5,4.0,3.0,210,4,,6.21,29.52756,,,,,,,,,,,CAVOK,,,,,,,,VFR,,,,,,,,,,,,METAR,38.0
EDHL 211650Z 25008KT 9999 SCT010 BKN020 03/02 Q0996 RMK ATIS YAN,EDHL,2015-02-21T16:50:00Z,53.8,10.72,3.0,2.0,250,8,,6.21,29.409449,,,,,,,,,,,SCT,1000,BKN,2000,,,,,MVFR,,,,,,,,,,,,METAR,16.0
EDFH 211650Z 26005KT 9999 FEW006 SCT045 01/M00 Q1000,EDFH,2015-02-21T16:50:00Z,49.95,7.27,1.0,0.0,260,5,,6.21,29.52756,,,,,,,,,,,FEW,600,SCT,4500,,,,,VFR,,,,,,,,,,,,METAR,498.0
PTKK 211650Z 05008KT 15SM FEW014 SCT290 28/25 A2980 RMK SLP093 T02760245,PTKK,2015-02-21T16:50:00Z,7.47,151.85,27.6,24.5,50,8,,15.0,29.799213,1009.3,,,,,,,,,,FEW,1400,SCT,29000,,,,,VFR,,,,,,,,,,,,METAR,2.0
EYPA 211650Z AUTO 16015KT 9999 BKN210/// 05/M03 Q0996,EYPA,2015-02-21T16:50:00Z,55.97,21.08,5.0,-3.0,160,15,,6.21,29.409449,,,TRUE,,,,,,,,,,,,,,,,,,,,,,,,,,,,METAR,10.0
KTZR 211650Z 15006KT 1 1/2SM -SN OVC009 M03/M04 A2993,KTZR,2015-02-21T16:50:00Z,39.9,-83.13,-3.0,-4.0,150,6,,1.5,29.929134,,,,,,,,,,-SN,OVC,900,,,,,,,IFR,,,,,,,,,,,,METAR,276.0
KOLV 211650Z 08006KT 1SM +RA BR BKN002 OVC010 08/08 A2984,KOLV,2015-02-21T16:50:00Z,34.98,-89.78,8.0,8.0,80,6,,1.0,29.840551,,,,,,,,,,+RA BR,BKN,200,OVC,1000,,,,,LIFR,,,,,,,,,,,,METAR,122.0
KHOB 211650Z 04006KT 10SM SKC 10/01 A3005,KHOB,2015-02-21T16:50:00Z,32.67,-103.22,10.0,1.0,40,6,,10.0,30.050198,,,,,,,,,,,SKC,,,,,,,,VFR,,,,,,,,,,,,METAR,1115.0
KAEG 211650Z 22010KT 10SM SCT150 10/M04 A2995,KAEG,2015-02-21T16:50:00Z,35.13,-106.8,10.0,-4.0,220,10,,10.0,29.949802,,,,,,,,,,,SCT,15000,,,,,,,VFR,,,,,,,,,,,,METAR,1779.0
FDSK 211650Z 05012KT 9999 FEW045TCU 30/20 Q1009 NOSIG,FDSK,2015-02-21T16:50:00Z,-26.35,31.72,30.0,20.0,50,12,,6.21,29.793306,,,,,,TRUE,,,,,FEW,4500,,,,,,,VFR,,,,,,,,,,,,METAR,324.0
KHXD 211650Z 16005KT 10SM BKN250 15/07 A3037,KHXD,2015-02-21T16:50:00Z,32.22,-80.7,15.0,7.0,160,5,,10.0,30.369095,,,,,,,,,,,BKN,25000,,,,,,,VFR,,,,,,,,,,,,METAR,6.0
KCWF 211650Z 18017G25KT 10SM OVC046 20/16 A3001,KCWF,2015-02-21T16:50:00Z,30.22,-93.15,20.0,16.0,180,17,25,10.0,30.008858,,,,,,,,,,,OVC,4600,,,,,,,VFR,,,,,,,,,,,,METAR,4.0
EETN 211650Z 17006KT 140V210 6000 OVC023 02/02 Q0996 R08/290195 NOSIG,EETN,2015-02-21T16:50:00Z,59.4,24.82,2.0,2.0,170,6,,3.73,29.409449,,,,,,TRUE,,,,,OVC,2300,,,,,,,MVFR,,,,,,,,,,,,METAR,40.0
EVRA 211650Z 16012KT CAVOK 05/00 Q0998 R18/190095 NOSIG,EVRA,2015-02-21T16:50:00Z,56.92,23.97,5.0,0.0,160,12,,6.21,29.468504,,,,,,TRUE,,,,,CAVOK,,,,,,,,VFR,,,,,,,,,,,,METAR,10.0
EKVG 211650Z AUTO 33015KT 9999NDV BKN034/// M01/M07 Q1000 RMK SCT039/// BKN044/// WIND 850FT 33020G34KT,EKVG,2015-02-21T16:50:00Z,62.07,-7.3,-1.0,-7.0,330,15,,,29.52756,,,TRUE,,,,,,,,,,,,,,,,,,,,,,,,,,,,METAR,85.0
LATI 211650Z 00000KT 9999 BKN036 BKN110 12/05 Q1014 NOSIG,LATI,2015-02-21T16:50:00Z,41.42,19.72,12.0,5.0,0,0,,6.21,29.940945,,,,,,TRUE,,,,,BKN,3600,BKN,11000,,,,,VFR,,,,,,,,,,,,METAR,90.0
EGSD 211650Z 31006KT 9999 FEW040 05/01 Q1000,EGSD,2015-02-21T16:50:00Z,52.63,1.72,5.0,1.0,310,6,,6.21,29.52756,,,,,,,,,,,FEW,4000,,,,,,,VFR,,,,,,,,,,,,METAR,2.0
KLBE 211650Z 21012KT 7SM OVC014 00/M02 A3001,KLBE,2015-02-21T16:50:00Z,40.27,-79.4,0.0,-2.0,210,12,,7.0,30.008858,,,,,,,,,,,OVC,1400,,,,,,,MVFR,,,,,,,,,,,,METAR,361.0
EYKA 211650Z 16007KT CAVOK 04/M04 Q1001 R08/090095,EYKA,2015-02-21T16:50:00Z,54.97,24.08,4.0,-4.0,160,7,,6.21,29.557087,,,,,,,,,,,CAVOK,,,,,,,,VFR,,,,,,,,,,,,METAR,77.0
VECC 211650Z 12004KT 2500 HZ NSC 25/19 Q1012 NOSIG,VECC,2015-02-21T16:50:00Z,22.65,88.43,25.0,19.0,120,4,,1.55,29.88189,,,,,,TRUE,,,,HZ,,,,,,,,,,,,,,,,,,,,,METAR,6.0
EYVI 211650Z 16014KT 4000 BR NSC 03/M01 Q1002 R20/1///95 NOSIG,EYVI,2015-02-21T16:50:00Z,54.63,25.28,3.0,-1.0,160,14,,2.49,29.586615,,,,,,TRUE,,,,BR,,,,,,,,,,,,,,,,,,,,,METAR,197.0
EYSA 211650Z 16013KT CAVOK 03/M01 Q0999 R14L/19//95 R14R/19//95,EYSA,2015-02-21T16:50:00Z,55.9,23.4,3.0,-1.0,160,13,,6.21,29.498032,,,,,,,,,,,CAVOK,,,,,,,,VFR,,,,,,,,,,,,METAR,135.0
EVVA 211650Z AUTO 16007KT CAVOK 05/M00 Q0995,EVVA,2015-02-21T16:50:00Z,57.35,21.55,5.0,0.0,160,7,,6.21,29.379921,,,TRUE,,,,,,,,CAVOK,,,,,,,,VFR,,,,,,,,,,,,METAR,6.0
KDAG 211650Z AUTO 29012KT 10SM CLR 15/01 A2991 RMK AO2 SLP114 T01500011,KDAG,2015-02-21T16:50:00Z,34.85,-116.78,15.0,1.1,290,12,,10.0,29.911417,1011.4,,TRUE,TRUE,,,,,,,CLR,,,,,,,,VFR,,,,,,,,,,,,METAR,587.0
KGEU 211650Z 00000KT 20SM BKN200 17/04 A2993,KGEU,2015-02-21T16:50:00Z,33.53,-112.3,17.0,4.0,0,0,,20.0,29.929134,,,,,,,,,,,BKN,20000,,,,,,,VFR,,,,,,,,,,,,METAR,325.0
KOMN 211650Z 14008KT 10SM SCT055 19/09 A3033,KOMN,2015-02-21T16:50:00Z,29.3,-81.12,19.0,9.0,140,8,,10.0,30.33071,,,,,,,,,,,SCT,5500,,,,,,,VFR,,,,,,,,,,,,METAR,9.0
KLWV 211650Z AUTO 03007KT 1 1/4SM -SN BR OVC004 00/M01 A2991 RMK AO2 SLP133 P0004 T00001011,KLWV,2015-02-21T16:50:00Z,38.77,-87.6,0.0,-1.1,30,7,,1.25,29.911417,1013.3,,TRUE,TRUE,,,,,,-SN BR,OVC,400,,,,,,,LIFR,,,,,,0.04,,,,,,METAR,131.0
MSLP 211650Z 07004KT 020V130 CAVOK 32/16 Q1012 A2991,MSLP,2015-02-21T16:50:00Z,13.43,-89.05,32.0,16.0,70,4,,6.21,29.88189,,,,,,,,,,,CAVOK,,,,,,,,VFR,,,,,,,,,,,,METAR,25.0
MSSS 211650Z 34009KT CAVOK 28/18 Q1017 A3006,MSSS,2015-02-21T16:50:00Z,13.7,-89.12,28.0,18.0,340,9,,6.21,30.029528,,,,,,,,,,,CAVOK,,,,,,,,VFR,,,,,,,,,,,,METAR,616.0
ESGG 211650Z 35006KT 1400 R03/P1500N R21/P1500N -SN BR VV007 M00/M01 Q0989 R03/19//95,ESGG,2015-02-21T16:50:00Z,57.67,12.3,0.0,-1.0,350,6,,0.87,29.202755,,,,,,,,,,-SN BR,OVX,0,,,,,,,LIFR,,,,,,,,,,,700,METAR,169.0
MSLU 211650Z 02004KT CAVOK 32/16 Q1012 A2991,MSLU,2015-02-21T16:50:00Z,13.33,-87.88,32.0,16.0,20,4,,6.21,29.88189,,,,,,,,,,,CAVOK,,,,,,,,VFR,,,,,,,,,,,,METAR,5.0
MSSM 211650Z 05002KT CAVOK 33/14 Q1012 A2989,MSSM,2015-02-21T16:50:00Z,13.43,-88.12,33.0,14.0,50,2,,6.21,29.88189,,,,,,,,,,,CAVOK,,,,,,,,VFR,,,,,,,,,,,,METAR,80.0
MSSA 211650Z 09006KT 9999 FEW037 27/15 Q1021 A3016,MSSA,2015-02-21T16:50:00Z,13.97,-89.57,27.0,15.0,90,6,,6.21,30.147638,,,,,,,,,,,FEW,3700,,,,,,,VFR,,,,,,,,,,,,METAR,725.0
MSAC 211650Z 20007KT CAVOK 32/20 Q1011 A2988,MSAC,2015-02-21T16:50:00Z,13.57,-89.83,32.0,20.0,200,7,,6.21,29.852362,,,,,,,,,,,CAVOK,,,,,,,,VFR,,,,,,,,,,,,METAR,15.0
EKSP 211650Z 26006KT 9999 -SHRA BKN005 FEW014CB 01/01 Q0994 R28R/290095,EKSP,2015-02-21T16:50:00Z,55.22,9.27,1.0,1.0,260,6,,6.21,29.350393,,,,,,,,,,-SHRA,BKN,500,FEW,1400,,,,,IFR,,,,,,,,,,,,METAR,40.0
EKKA 211650Z 25005KT 9999 FEW007 SCT010 BKN016 03/03 Q0992,EKKA,2015-02-21T16:50:00Z,56.3,9.12,3.0,3.0,250,5,,6.21,29.291338,,,,,,,,,,,FEW,700,SCT,1000,BKN,1600,,,MVFR,,,,,,,,,,,,METAR,52.0
ESGJ 211650Z AUTO 02007KT 1900 -SN VV002 00/00 Q0988,ESGJ,2015-02-21T16:50:00Z,57.77,14.07,0.0,0.0,20,7,,1.18,29.17323,,,TRUE,,,,,,,-SN,OVX,0,,,,,,,LIFR,,,,,,,,,,,200,METAR,232.0
ESGP 211650Z 34004KT 4800 DZ OVC006 03/02 Q0990 R19/29//95,ESGP,2015-02-21T16:50:00Z,57.77,11.87,3.0,2.0,340,4,,2.98,29.232283,,,,,,,,,,DZ,OVC,600,,,,,,,IFR,,,,,,,,,,,,METAR,53.0
ESMK 211650Z AUTO 14006KT 9999 -DZ FEW028/// SCT036/// BKN043/// 04/04 Q0988 RERA,ESMK,2015-02-21T16:50:00Z,55.92,14.07,4.0,4.0,140,6,,6.21,29.17323,,,TRUE,,,,,,,-DZ,,,,,,,,,,,,,,,,,,,,,METAR,23.0
ESMQ 211650Z AUTO 17008KT 2700 BR BKN002/// OVC005/// 03/03 Q0990 REDZ,ESMQ,2015-02-21T16:50:00Z,56.68,16.3,3.0,3.0,170,8,,1.68,29.232283,,,TRUE,,,,,,,BR,,,,,,,,,,,,,,,,,,,,,METAR,16.0
ESMS 211650Z 21019KT 8000 SHRA BKN006 04/03 Q0988 R17/29//95,ESMS,2015-02-21T16:50:00Z,55.53,13.37,4.0,3.0,210,19,,4.97,29.17323,,,,,,,,,,SHRA,BKN,600,,,,,,,IFR,,,,,,,,,,,,METAR,106.0
ESMT 211650Z AUTO 01006KT 6000 -RA FEW006/// OVC008/// 01/00 Q0987 RERA,ESMT,2015-02-21T16:50:00Z,56.67,12.82,1.0,0.0,10,6,,3.73,29.143702,,,TRUE,,,,,,,-RA,,,,,,,,,,,,,,,,,,,,,METAR,30.0
ESMX 211650Z AUTO 15007KT 3300 -RA OVC002/// 02/02 Q0988,ESMX,2015-02-21T16:50:00Z,56.92,14.72,2.0,2.0,150,7,,2.05,29.17323,,,TRUE,,,,,,,-RA,,,,,,,,,,,,,,,,,,,,,METAR,186.0
ESTA 211650Z 24003KT 190V260 2700 RA SCT005 BKN009 OVC014 04/03 Q0987,ESTA,2015-02-21T16:50:00Z,56.28,12.83,4.0,3.0,240,3,,1.68,29.143702,,,,,,,,,,RA,SCT,500,BKN,900,OVC,1400,,,IFR,,,,,,,,,,,,METAR,47.0
ESTL 211650Z AUTO 17008KT 120V200 9000NDV -DZ OVC010/// 05/04 Q0987,ESTL,2015-02-21T16:50:00Z,56.07,13.2,5.0,4.0,170,8,,,29.143702,,,TRUE,,,,,,,-DZ,,,,,,,,,,,,,,,,,,,,,METAR,43.0
KEFD 211650Z 17015KT 6SM -RA BKN015 OVC040 21/18 A2998,KEFD,2015-02-21T16:50:00Z,29.6,-95.17,21.0,18.0,170,15,,6.0,29.97933,,,,,,,,,,-RA,BKN,1500,OVC,4000,,,,,MVFR,,,,,,,,,,,,METAR,10.0
EDDF 211650Z 23006KT 9999 FEW026 BKN048 06/M00 Q1001 NOSIG,EDDF,2015-02-21T16:50:00Z,50.05,8.6,6.0,0.0,230,6,,6.21,29.557087,,,,,,TRUE,,,,,FEW,2600,BKN,4800,,,,,VFR,,,,,,,,,,,,METAR,113.0
EDDH 211650Z 25007KT 9999 SCT007 BKN042 02/01 Q0997 NOSIG,EDDH,2015-02-21T16:50:00Z,53.63,10.0,2.0,1.0,250,7,,6.21,29.438976,,,,,,TRUE,,,,,SCT,700,BKN,4200,,,,,VFR,,,,,,,,,,,,METAR,16.0
EDDK 211650Z 28010KT 9999 -SHRA FEW020CB SCT040 BKN060 05/M01 Q1001 TEMPO SHRA,EDDK,2015-02-21T16:50:00Z,50.87,7.15,5.0,-1.0,280,10,,6.21,29.557087,,,,,,,,,,-SHRA,FEW,2000,SCT,4000,BKN,6000,,,VFR,,,,,,,,,,,,METAR,99.0
EDDL 211650Z 22005KT 9999 FEW020CB SCT075 03/02 Q1000 NOSIG,EDDL,2015-02-21T16:50:00Z,51.3,6.77,3.0,2.0,220,5,,6.21,29.52756,,,,,,TRUE,,,,,FEW,2000,SCT,7500,,,,,VFR,,,,,,,,,,,,METAR,44.0
EDDM 211650Z 32005KT CAVOK 04/M01 Q1000 NOSIG,EDDM,2015-02-21T16:50:00Z,48.35,11.82,4.0,-1.0,320,5,,6.21,29.52756,,,,,,TRUE,,,,,CAVOK,,,,,,,,VFR,,,,,,,,,,,,METAR,447.0
EDDN 211650Z 28007KT 9999 -RA FEW017 BKN023 05/02 Q1001 NOSIG,EDDN,2015-02-21T16:50:00Z,49.5,11.08,5.0,2.0,280,7,,6.21,29.557087,,,,,,TRUE,,,,-RA,FEW,1700,BKN,2300,,,,,MVFR,,,,,,,,,,,,METAR,312.0
EDDS 211650Z 29008KT 260V320 9999 -RA FEW011 SCT021 BKN036 04/01 Q1001 NOSIG,EDDS,2015-02-21T16:50:00Z,48.67,9.22,4.0,1.0,290,8,,6.21,29.557087,,,,,,TRUE,,,,-RA,FEW,1100,SCT,2100,BKN,3600,,,VFR,,,,,,,,,,,,METAR,419.0
EDDT 211650Z 27010KT 9999 SCT030 BKN110 05/01 Q0998 NOSIG,EDDT,2015-02-21T16:50:00Z,52.57,13.32,5.0,1.0,270,10,,6.21,29.468504,,,,,,TRUE,,,,,SCT,3000,BKN,11000,,,,,VFR,,,,,,,,,,,,METAR,37.0
EDDV 211650Z 23006KT 190V250 9999 FEW020 03/01 Q0999 TEMPO 25015G25KT SHRA BKN012TCU,EDDV,2015-02-21T16:50:00Z,52.47,9.68,3.0,1.0,230,6,,6.21,29.498032,,,,,,,,,,,FEW,2000,,,,,,,VFR,,,,,,,,,,,,METAR,54.0
EDDB 211650Z 27016KT 9999 -RA FEW025 BKN048 06/00 Q0998 NOSIG,EDDB,2015-02-21T16:50:00Z,52.38,13.53,6.0,0.0,270,16,,6.21,29.468504,,,,,,TRUE,,,,-RA,FEW,2500,BKN,4800,,,,,VFR,,,,,,,,,,,,METAR,48.0
EDDC 211650Z 19007KT 9999 SCT044 SCT066 06/M00 Q0999 NOSIG,EDDC,2015-02-21T16:50:00Z,51.13,13.75,6.0,0.0,190,7,,6.21,29.498032,,,,,,TRUE,,,,,SCT,4400,SCT,6600,,,,,VFR,,,,,,,,,,,,METAR,226.0
EDDG 211650Z 24007KT 9999 FEW015 SCT250 04/02 Q0999 NOSIG,EDDG,2015-02-21T16:50:00Z,52.13,7.7,4.0,2.0,240,7,,6.21,29.498032,,,,,,TRUE,,,,,FEW,1500,SCT,25000,,,,,VFR,,,,,,,,,,,,METAR,52.0
EDDE 211650Z 26007KT 9999 FEW023 BKN120 03/00 Q0999 NOSIG,EDDE,2015-02-21T16:50:00Z,50.98,10.97,3.0,0.0,260,7,,6.21,29.498032,,,,,,TRUE,,,,,FEW,2300,BKN,12000,,,,,VFR,,,,,,,,,,,,METAR,323.0
EDDP 211650Z 24008KT CAVOK 04/02 Q1000 NOSIG,EDDP,2015-02-21T16:50:00Z,51.43,12.23,4.0,2.0,240,8,,6.21,29.52756,,,,,,TRUE,,,,,CAVOK,,,,,,,,VFR,,,,,,,,,,,,METAR,149.0
EDDW 211650Z 24007KT 9999 FEW017 BKN040 04/02 Q0997 NOSIG,EDDW,2015-02-21T16:50:00Z,53.03,8.8,4.0,2.0,240,7,,6.21,29.438976,,,,,,TRUE,,,,,FEW,1700,BKN,4000,,,,,VFR,,,,,,,,,,,,METAR,5.0
EDDR 211650Z 23005KT 9999 FEW030 BKN130 03/M01 Q1001 NOSIG,EDDR,2015-02-21T16:50:00Z,49.22,7.1,3.0,-1.0,230,5,,6.21,29.557087,,,,,,TRUE,,,,,FEW,3000,BKN,13000,,,,,VFR,,,,,,,,,,,,METAR,320.0
EFHK 211650Z 17008KT 3500 -SNRA BKN003 01/M00 Q0996 TEMPO 2000,EFHK,2015-02-21T16:50:00Z,60.32,24.97,1.0,0.0,170,8,,2.17,29.409449,,,,,,,,,,-SN -RA,BKN,300,,,,,,,LIFR,,,,,,,,,,,,METAR,56.0
EFJY 211650Z AUTO 17007KT 9999 -RA OVC016 01/00 Q0993,EFJY,2015-02-21T16:50:00Z,62.4,25.68,1.0,0.0,170,7,,6.21,29.320866,,,TRUE,,,,,,,-RA,OVC,1600,,,,,,,MVFR,,,,,,,,,,,,METAR,145.0
EFOU 211650Z AUTO 20010KT 9999 SCT019/// SCT028/// OVC032/// 02/M01 Q0989 R12/19//95,EFOU,2015-02-21T16:50:00Z,64.92,25.37,2.0,-1.0,200,10,,6.21,29.202755,,,TRUE,,,,,,,,,,,,,,,,,,,,,,,,,,,,METAR,15.0
EFKU 211650Z AUTO 17012KT 9999 OVC018 01/00 Q0993,EFKU,2015-02-21T16:50:00Z,63.02,27.8,1.0,0.0,170,12,,6.21,29.320866,,,TRUE,,,,,,,,OVC,1800,,,,,,,MVFR,,,,,,,,,,,,METAR,102.0
EFRO 211650Z AUTO 20019KT 9999 -SN SCT007 OVC009 M01/M02 Q0985,EFRO,2015-02-21T16:50:00Z,66.57,25.82,-1.0,-2.0,200,19,,6.21,29.084646,,,TRUE,,,,,,,-SN,SCT,700,OVC,900,,,,,IFR,,,,,,,,,,,,METAR,201.0
EFTP 211650Z AUTO 19004KT 9999 FEW014 BKN018 01/00 Q0994,EFTP,2015-02-21T16:50:00Z,61.42,23.62,1.0,0.0,190,4,,6.21,29.350393,,,TRUE,,,,,,,,FEW,1400,BKN,1800,,,,,MVFR,,,,,,,,,,,,METAR,112.0
EFTU 211650Z AUTO 18005KT 150V220 9999 OVC004/// 02/01 Q0993 R08/29//95,EFTU,2015-02-21T16:50:00Z,60.52,22.27,2.0,1.0,180,5,,6.21,29.320866,,,TRUE,,,,,,,,,,,,,,,,,,,,,,,,,,,,METAR,59.0
EFVA 211650Z AUTO 22012KT 190V250 9999 OVC016/// 02/M01 Q0990 R16/19//91,EFVA,2015-02-21T16:50:00Z,63.03,21.77,2.0,-1.0,220,12,,6.21,29.232283,,,TRUE,,,,,,,,,,,,,,,,,,,,,,,,,,,,METAR,4.0
BGKK 211650Z 21005G51KT 170V240 9000 -SN FEW005 BKN024 BKN032 M13/M15 Q1000,BGKK,2015-02-21T16:50:00Z,65.57,-37.13,-13.0,-15.0,210,5,51,5.59,29.52756,,,,,,,,,,-SN,FEW,500,BKN,2400,BKN,3200,,,MVFR,,,,,,,,,,,,METAR,34.0
BGBW 211650Z 08026KT 9999 DRSN BKN030 OVC050 M03/M12 Q0984,BGBW,2015-02-21T16:50:00Z,61.17,-45.42,-3.0,-12.0,80,26,,6.21,29.055119,,,,,,,,,,DRSN,BKN,3000,OVC,5000,,,,,MVFR,,,,,,,,,,,,METAR,26.0
BGSF 211650Z AUTO 06007KT 9999NDV NCD M31/M35 Q1000,BGSF,2015-02-21T16:50:00Z,67.0,-50.72,-31.0,-35.0,60,7,,,29.52756,,,TRUE,,,,,,,,,,,,,,,,,,,,,,,,,,,,METAR,53.0
EDLW 211650Z 21007KT 9999 VCSH BKN045 02/00 Q1000 RMK ATIS Z,EDLW,2015-02-21T16:50:00Z,51.52,7.62,2.0,0.0,210,7,,6.21,29.52756,,,,,,,,,,VCSH,BKN,4500,,,,,,,VFR,,,,,,,,,,,,METAR,127.0
KGTR 211650Z 18018G28KT 10SM BKN035 OVC040 16/10 A2998,KGTR,2015-02-21T16:50:00Z,33.45,-88.57,16.0,10.0,180,18,28,10.0,29.97933,,,,,,,,,,,BKN,3500,OVC,4000,,,,,VFR,,,,,,,,,,,,METAR,80.0
K2G4 211650Z AUTO 18010KT 1SM BR OVC006 M04/ A2995 RMK AO1,K2G4,2015-02-21T16:50:00Z,39.58,-79.33,-4.0,,180,10,,1.0,29.949802,,,TRUE,TRUE,,,,,,BR,OVC,600,,,,,,,IFR,,,,,,,,,,,,METAR,894.0
KALN 211650Z 09005KT 10SM SCT110 00/M02 A2995,KALN,2015-02-21T16:50:00Z,38.88,-90.03,0.0,-2.0,90,5,,10.0,29.949802,,,,,,,,,,,SCT,11000,,,,,,,VFR,,,,,,,,,,,,METAR,166.0
KEGE 211650Z 00000KT 8SM FEW006 BKN065 01/M01 A2993,KEGE,2015-02-21T16:50:00Z,39.63,-106.92,1.0,-1.0,0,0,,8.0,29.929134,,,,,,,,,,,FEW,600,BKN,6500,,,,,VFR,,,,,,,,,,,,METAR,1993.0
KDMW 211650Z AUTO 17013G18KT 1/4SM SN OVC002 M08/M11 A3029 RMK AO2,KDMW,2015-02-21T16:50:00Z,39.6,-77.0,-8.0,-11.0,170,13,18,0.25,30.28937,,,TRUE,TRUE,,,,,,SN,OVC,200,,,,,,,LIFR,,,,,,,,,,,,METAR,241.0
EKRK 211650Z 29013KT 1600 -SHRASN FEW002 BKN004 OVC007 00/00 Q0989,EKRK,2015-02-21T16:50:00Z,55.57,12.12,0.0,0.0,290,13,,0.99,29.202755,,,,,,,,,,-SHRA -SHSN,FEW,200,BKN,400,OVC,700,,,LIFR,,,,,,,,,,,,METAR,44.0
EKYT 211650Z 29006KT 7000 FEW003 SCT010 BKN014 04/03 Q0991,EKYT,2015-02-21T16:50:00Z,57.1,9.87,4.0,3.0,290,6,,4.35,29.26181,,,,,,,,,,,FEW,300,SCT,1000,BKN,1400,,,MVFR,,,,,,,,,,,,METAR,3.0
EKBI 211650Z 26008KT 9999 -RA BKN007 02/02 Q0993,EKBI,2015-02-21T16:50:00Z,55.72,9.15,2.0,2.0,260,8,,6.21,29.320866,,,,,,,,,,-RA,BKN,700,,,,,,,IFR,,,,,,,,,,,,METAR,66.0
EKCH 211650Z 25014KT 220V280 9999 -RA OVC009 04/03 Q0988 TEMPO 2500/ -RASN/ BKN004,EKCH,2015-02-21T16:50:00Z,55.62,12.67,4.0,3.0,250,14,,6.21,29.17323,,,,,,,,,,-RA,OVC,900,,,,,,,IFR,,,,,,,,,,,,METAR,5.0
EKAH 211650Z AUTO 29007KT 4500NDV -RA BR BKN003/// BKN034/// 02/01 Q0991,EKAH,2015-02-21T16:50:00Z,56.28,10.62,2.0,1.0,290,7,,,29.26181,,,TRUE,,,,,,,-RA BR,,,,,,,,,,,,,,,,,,,,,METAR,25.0
EKEB 211650Z AUTO 23004KT 9999NDV FEW026/// FEW035/// BKN120/// 02/01 Q0993,EKEB,2015-02-21T16:50:00Z,55.52,8.55,2.0,1.0,230,4,,,29.320866,,,TRUE,,,,,,,,,,,,,,,,,,,,,,,,,,,,METAR,29.0
EKVD 211650Z AUTO 25008KT //// ///////// 02/02 Q0993,EKVD,2015-02-21T16:50:00Z,55.42,9.32,2.0,2.0,250,8,,,29.320866,,,TRUE,,,,,,,,,,,,,,,,,,,,,,,,,,,,METAR,45.0
EKRN 211650Z AUTO 21022G35KT 180V240 9999NDV BKN034/// 05/02 Q0991,EKRN,2015-02-21T16:50:00Z,55.07,14.75,5.0,2.0,210,22,35,,29.26181,,,TRUE,,,,,,,,,,,,,,,,,,,,,,,,,,,,METAR,16.0
KFIN 211650Z 17010G16KT 7SM SCT040 BKN060 20/09 A3033,KFIN,2015-02-21T16:50:00Z,29.47,-81.2,20.0,9.0,170,10,16,7.0,30.33071,,,,,,,,,,,SCT,4000,BKN,6000,,,,,VFR,,,,,,,,,,,,METAR,10.0
ESSV 211650Z 17009KT 5000 -DZ BKN008 03/03 Q0991 R21/29//70,ESSV,2015-02-21T16:50:00Z,57.67,18.35,3.0,3.0,170,9,,3.11,29.26181,,,,,,,,,,-DZ,BKN,800,,,,,,,IFR,,,,,,,,,,,,METAR,47.0
ESSP 211650Z 06004KT 6000 -RA SCT005 BKN020 01/01 Q0990 R27/29//73,ESSP,2015-02-21T16:50:00Z,58.57,16.25,1.0,1.0,60,4,,3.73,29.232283,,,,,,,,,,-RA,SCT,500,BKN,2000,,,,,MVFR,,,,,,,,,,,,METAR,8.0
ESSD 211650Z AUTO VRB02KT 9999 OVC027/// 01/M02 Q0989,ESSD,2015-02-21T16:50:00Z,60.42,15.5,1.0,-2.0,0,2,,6.21,29.202755,,,TRUE,,,,,,,,,,,,,,,,,,,,,,,,,,,,METAR,161.0
ESSB 211650Z AUTO 14004KT 9999 DZ SCT010/// BKN015/// OVC055/// 02/01 Q0991 R30/19//71,ESSB,2015-02-21T16:50:00Z,59.35,17.93,2.0,1.0,140,4,,6.21,29.26181,,,TRUE,,,,,,,DZ,,,,,,,,,,,,,,,,,,,,,METAR,11.0
ESSA 211650Z 18004KT 9999 FEW028 03/M00 Q0991 R01L/19//95 R08/19//95 R01R/19//95 BECMG 4000 -RA BKN008,ESSA,2015-02-21T16:50:00Z,59.63,17.93,3.0,0.0,180,4,,6.21,29.26181,,,,,,,,,,,FEW,2800,,,,,,,VFR,,,,,,,,,,,,METAR,61.0
ESOW 211650Z AUTO 14002KT 9999 OVC031/// 02/M00 Q0991,ESOW,2015-02-21T16:50:00Z,59.57,16.62,2.0,0.0,140,2,,6.21,29.26181,,,TRUE,,,,,,,,,,,,,,,,,,,,,,,,,,,,METAR,31.0
ESOK 211650Z AUTO 15003KT 9999 OVC025/// 02/00 Q0990,ESOK,2015-02-21T16:50:00Z,59.45,13.33,2.0,0.0,150,3,,6.21,29.232283,,,TRUE,,,,,,,,,,,,,,,,,,,,,,,,,,,,METAR,107.0
ESOE 211650Z AUTO 33005KT 9999NDV OVC032/// 02/01 Q0990,ESOE,2015-02-21T16:50:00Z,59.22,15.05,2.0,1.0,330,5,,,29.232283,,,TRUE,,,,,,,,,,,,,,,,,,,,,,,,,,,,METAR,57.0
ESKN 211650Z 08003KT 6000 -RASN BKN008 01/00 Q0990 R26/290195,ESKN,2015-02-21T16:50:00Z,58.78,16.9,1.0,0.0,80,3,,3.73,29.232283,,,,,,,,,,-RA -SN,BKN,800,,,,,,,IFR,,,,,,,,,,,,METAR,43.0
ESDF 211650Z 18009KT 6000 -RA FEW008 OVC025 04/03 Q0990,ESDF,2015-02-21T16:50:00Z,56.27,15.27,4.0,3.0,180,9,,3.73,29.232283,,,,,,,,,,-RA,FEW,800,OVC,2500,,,,,MVFR,,,,,,,,,,,,METAR,74.0
ESSL 211650Z AUTO 08005KT 7000NDV -RA SCT003/// BKN005/// 01/01 Q0990 SN R29/29//95,ESSL,2015-02-21T16:50:00Z,58.38,15.67,1.0,1.0,80,5,,,29.232283,,,TRUE,,,,,,,SN -RA,,,,,,,,,,,,,,,,,,,,,METAR,52.0
ESPE 211650Z AUTO VRB01KT 9999NDV NCD M03/M06 Q0984,ESPE,2015-02-21T16:50:00Z,65.88,20.15,-3.0,-6.0,0,1,,,29.055119,,,TRUE,,,,,,,,,,,,,,,,,,,,,,,,,,,,METAR,182.0
ESPA 211650Z 20004KT 160V250 CAVOK M01/M03 Q0986,ESPA,2015-02-21T16:50:00Z,65.53,22.12,-1.0,-3.0,200,4,,6.21,29.114174,,,,,,,,,,,CAVOK,,,,,,,,VFR,,,,,,,,,,,,METAR,34.0
ESIB 211650Z AUTO 01005KT 9999NDV FEW035/// BKN072/// OVC086/// 01/01 Q0990,ESIB,2015-02-21T16:50:00Z,58.42,12.68,1.0,1.0,10,5,,,29.232283,,,TRUE,,,,,,,,,,,,,,,,,,,,,,,,,,,,METAR,74.0
ESCF 211650Z AUTO 05005KT 7000NDV -RASN OVC004/// 01/01 Q0990,ESCF,2015-02-21T16:50:00Z,58.38,15.52,1.0,1.0,50,5,,,29.232283,,,TRUE,,,,,,,SN -RA,,,,,,,,,,,,,,,,,,,,,METAR,117.0
ESUD 211650Z AUTO 18002KT 9999 FEW051/// M04/M06 Q0984,ESUD,2015-02-21T16:50:00Z,64.97,17.7,-4.0,-6.0,180,2,,6.21,29.055119,,,TRUE,,,,,,,,,,,,,,,,,,,,,,,,,,,,METAR,279.0
ESNX 211650Z AUTO 19008KT 9999NDV NCD M02/M07 Q0983,ESNX,2015-02-21T16:50:00Z,65.58,19.28,-2.0,-7.0,190,8,,,29.02559,,,TRUE,,,,,,,,,,,,,,,,,,,,,,,,,,,,METAR,379.0
ESNL 211650Z AUTO 10003KT 9999 NCD M06/M09 Q0985,ESNL,2015-02-21T16:50:00Z,64.55,18.72,-6.0,-9.0,100,3,,6.21,29.084646,,,TRUE,,,,,,,,,,,,,,,,,,,,,,,,,,,,METAR,214.0
ESGR 211650Z AUTO 01003KT 4600 -RA BKN007/// OVC009/// 01/00 Q0989,ESGR,2015-02-21T16:50:00Z,58.45,13.97,1.0,0.0,10,3,,2.86,29.202755,,,TRUE,,,,,,,-RA,,,,,,,,,,,,,,,,,,,,,METAR,105.0
LSMS 211650Z 26009KT 7000 -RA SCT015 OVC030 02/00 Q1001,LSMS,2015-02-21T16:50:00Z,46.22,7.32,2.0,0.0,260,9,,4.35,29.557087,,,,,,,,,,-RA,SCT,1500,OVC,3000,,,,,MVFR,,,,,,,,,,,,METAR,481.0
LSMP 211650Z AUTO 20004KT 170V230 9999NDV -RA FEW032 01/01 Q1002 RMK BLU,LSMP,2015-02-21T16:50:00Z,46.82,6.92,1.0,1.0,200,4,,,29.586615,,,TRUE,,,,,,,-RA,FEW,3200,,,,,,,,,,,,,,,,,,,METAR,491.0
LSME 211650Z AUTO 00000KT 9999NDV -RA FEW014 SCT020 02/01 Q1002 RMK BLU,LSME,2015-02-21T16:50:00Z,47.1,8.3,2.0,1.0,0,0,,,29.586615,,,TRUE,,,,,,,-RA,FEW,1400,SCT,2000,,,,,,,,,,,,,,,,,METAR,427.0
LSMD 211650Z AUTO 31004KT 260V350 9999NDV -RA FEW011 SCT016 BKN022 02/00 Q1002 RMK WHT,LSMD,2015-02-21T16:50:00Z,47.4,8.65,2.0,0.0,310,4,,,29.586615,,,TRUE,,,,,,,-RA,FEW,1100,SCT,1600,BKN,2200,,,,,,,,,,,,,,,METAR,448.0
LSMA 211650Z AUTO 07010KT 040V100 9999NDV -RA BKN014 BKN021 OVC035 02/00 Q1002 RMK GRN,LSMA,2015-02-21T16:50:00Z,46.95,8.28,2.0,0.0,70,10,,,29.586615,,,TRUE,,,,,,,-RA,BKN,1400,BKN,2100,OVC,3500,,,,,,,,,,,,,,,METAR,444.0
ESUT 211650Z AUTO 15007KT 9999 BKN053/// M01/M05 Q0981,ESUT,2015-02-21T16:50:00Z,65.8,15.08,-1.0,-5.0,150,7,,6.21,28.966536,,,TRUE,,,,,,,,,,,,,,,,,,,,,,,,,,,,METAR,463.0
ESNZ 211650Z 20007KT CAVOK 00/M07 Q0984,ESNZ,2015-02-21T16:50:00Z,63.17,14.5,0.0,-7.0,200,7,,6.21,29.055119,,,,,,,,,,,CAVOK,,,,,,,,VFR,,,,,,,,,,,,METAR,370.0
ESNU 211650Z 17006KT 9999 SCT006 M01/M01 Q0988 R14/79//50,ESNU,2015-02-21T16:50:00Z,63.78,20.27,-1.0,-1.0,170,6,,6.21,29.17323,,,,,,,,,,,SCT,600,,,,,,,VFR,,,,,,,,,,,,METAR,14.0
ESNS 211650Z AUTO 20006KT 9999 NCD M01/M03 Q0987,ESNS,2015-02-21T16:50:00Z,64.62,21.07,-1.0,-3.0,200,6,,6.21,29.143702,,,TRUE,,,,,,,,,,,,,,,,,,,,,,,,,,,,METAR,49.0
ESNQ 211650Z 21010KT CAVOK M03/M06 Q0979,ESNQ,2015-02-21T16:50:00Z,67.82,20.32,-3.0,-6.0,210,10,,6.21,28.90748,,,,,,,,,,,CAVOK,,,,,,,,VFR,,,,,,,,,,,,METAR,452.0
ESNO 211650Z AUTO 18001KT 9999 NCD M04/M04 Q0987,ESNO,2015-02-21T16:50:00Z,63.38,18.97,-4.0,-4.0,180,1,,6.21,29.143702,,,TRUE,,,,,,,,,,,,,,,,,,,,,,,,,,,,METAR,103.0
ESNN 211650Z AUTO VRB03KT 9999 NCD M03/M05 Q0988 R16/19//67,ESNN,2015-02-21T16:50:00Z,62.52,17.43,-3.0,-5.0,0,3,,6.21,29.17323,,,TRUE,,,,,,,,,,,,,,,,,,,,,,,,,,,,METAR,10.0
ESNK 211650Z AUTO 17005KT 9999 NCD M01/M03 Q0988,ESNK,2015-02-21T16:50:00Z,63.03,17.77,-1.0,-3.0,170,5,,6.21,29.17323,,,TRUE,,,,,,,,,,,,,,,,,,,,,,,,,,,,METAR,19.0
ESNG 211650Z AUTO 23005KT 9999 NCD M02/M06 Q0981,ESNG,2015-02-21T16:50:00Z,67.13,20.82,-2.0,-6.0,230,5,,6.21,28.966536,,,TRUE,,,,,,,,,,,,,,,,,,,,,,,,,,,,METAR,310.0
VGEG 211650Z 00000KT 3200 HZ NSC 22/20 Q1012 NOSIG,VGEG,2015-02-21T16:50:00Z,22.27,91.82,22.0,20.0,0,0,,1.99,29.88189,,,,,,TRUE,,,,HZ,,,,,,,,,,,,,,,,,,,,,METAR,6.0
EGPB 211650Z 34011KT 9999 FEW034 BKN042 02/M04 Q0996 NOSIG,EGPB,2015-02-21T16:50:00Z,59.87,-1.3,2.0,-4.0,340,11,,6.21,29.409449,,,,,,TRUE,,,,,FEW,3400,BKN,4200,,,,,VFR,,,,,,,,,,,,METAR,5.0
EGPD 211650Z 32014KT 9999 SCT014 SCT027 04/02 Q0996 TEMPO SHRA,EGPD,2015-02-21T16:50:00Z,57.2,-2.22,4.0,2.0,320,14,,6.21,29.409449,,,,,,,,,,,SCT,1400,SCT,2700,,,,,VFR,,,,,,,,,,,,METAR,65.0
EGNX 211650Z 28011KT 9999 -RADZ FEW026CB SCT040 03/00 Q1002,EGNX,2015-02-21T16:50:00Z,52.82,-1.32,3.0,0.0,280,11,,6.21,29.586615,,,,,,,,,,-RA -DZ,FEW,2600,SCT,4000,,,,,VFR,,,,,,,,,,,,METAR,94.0
EGNM 211650Z 28011KT 9999 FEW013CB SCT029TCU 03/00 Q1000,EGNM,2015-02-21T16:50:00Z,53.87,-1.63,3.0,0.0,280,11,,6.21,29.52756,,,,,,,,,,,FEW,1300,SCT,2900,,,,,VFR,,,,,,,,,,,,METAR,208.0
EGLC 211650Z AUTO 34012G22KT 9999 -DZ FEW030/// BKN045/// 06/M01 Q1003 RERA,EGLC,2015-02-21T16:50:00Z,51.5,0.05,6.0,-1.0,340,12,22,6.21,29.616142,,,TRUE,,,,,,,-DZ,,,,,,,,,,,,,,,,,,,,,METAR,5.0
EGGW 211650Z 31014KT 9999 VCSH SCT031CB 05/M01 Q1002,EGGW,2015-02-21T16:50:00Z,51.87,-0.37,5.0,-1.0,310,14,,6.21,29.586615,,,,,,,,,,VCSH,SCT,3100,,,,,,,VFR,,,,,,,,,,,,METAR,160.0
EGAC 211650Z 26010KT 190V010 9999 VCSH FEW025 SCT035 04/00 Q1003,EGAC,2015-02-21T16:50:00Z,54.62,-5.87,4.0,0.0,260,10,,6.21,29.616142,,,,,,,,,,VCSH,FEW,2500,SCT,3500,,,,,VFR,,,,,,,,,,,,METAR,5.0
EGAA 211650Z 26011KT 9999 FEW025 SCT031 05/02 Q1003,EGAA,2015-02-21T16:50:00Z,54.63,-6.22,5.0,2.0,260,11,,6.21,29.616142,,,,,,,,,,,FEW,2500,SCT,3100,,,,,VFR,,,,,,,,,,,,METAR,81.0
EGNV 211650Z 27010KT 9999 FEW020CB FEW025 03/M01 Q1000,EGNV,2015-02-21T16:50:00Z,54.52,-1.42,3.0,-1.0,270,10,,6.21,29.52756,,,,,,,,,,,FEW,2000,FEW,2500,,,,,VFR,,,,,,,,,,,,METAR,37.0
EGNT 211650Z 28011KT 9999 FEW040 04/M02 Q0998,EGNT,2015-02-21T16:50:00Z,55.02,-1.7,4.0,-2.0,280,11,,6.21,29.468504,,,,,,,,,,,FEW,4000,,,,,,,VFR,,,,,,,,,,,,METAR,81.0
EGHI 211650Z 33008KT 270V010 9999 SHRA SCT013CB BKN026 04/00 Q1004,EGHI,2015-02-21T16:50:00Z,50.95,-1.35,4.0,0.0,330,8,,6.21,29.64567,,,,,,,,,,SHRA,SCT,1300,BKN,2600,,,,,MVFR,,,,,,,,,,,,METAR,14.0
EGGP 211650Z 29014KT 9999 VCSH FEW024CB SCT027 05/02 Q1003,EGGP,2015-02-21T16:50:00Z,53.32,-2.85,5.0,2.0,290,14,,6.21,29.616142,,,,,,,,,,VCSH,FEW,2400,SCT,2700,,,,,VFR,,,,,,,,,,,,METAR,26.0
EGGD 211650Z 31009KT 9999 -SHRA FEW015 FEW018CB SCT033 04/01 Q1004,EGGD,2015-02-21T16:50:00Z,51.37,-2.72,4.0,1.0,310,9,,6.21,29.64567,,,,,,,,,,-SHRA,FEW,1500,FEW,1800,SCT,3300,,,VFR,,,,,,,,,,,,METAR,189.0
EGPM 211650Z 34015KT 9999 BKN038 02/M04 Q0996 NOSIG,EGPM,2015-02-21T16:50:00Z,60.42,-1.3,2.0,-4.0,340,15,,6.21,29.409449,,,,,,TRUE,,,,,BKN,3800,,,,,,,VFR,,,,,,,,,,,,METAR,22.0
EGPO 211650Z AUTO 01009KT 9999 BKN044/// 04/00 Q1001,EGPO,2015-02-21T16:50:00Z,58.22,-6.32,4.0,0.0,10,9,,6.21,29.557087,,,TRUE,,,,,,,,,,,,,,,,,,,,,,,,,,,,METAR,13.0
EGPL 211650Z 01012KT 9999 FEW014TCU FEW019 05/02 Q1001,EGPL,2015-02-21T16:50:00Z,57.47,-7.37,5.0,2.0,10,12,,6.21,29.557087,,,,,,,,,,,FEW,1400,FEW,1900,,,,,VFR,,,,,,,,,,,,METAR,6.0
EGPC 211650Z AUTO 01019KT 9999 BKN043/// 03/M01 Q0997,EGPC,2015-02-21T16:50:00Z,58.45,-3.07,3.0,-1.0,10,19,,6.21,29.438976,,,TRUE,,,,,,,,,,,,,,,,,,,,,,,,,,,,METAR,39.0
EGPA 211650Z 36021KT 9999 FEW029 BKN047 04/M02 Q0997,EGPA,2015-02-21T16:50:00Z,58.95,-2.88,4.0,-2.0,360,21,,6.21,29.438976,,,,,,,,,,,FEW,2900,BKN,4700,,,,,VFR,,,,,,,,,,,,METAR,21.0
EGTE 211650Z 31012KT 9999 FEW030 06/01 Q1005,EGTE,2015-02-21T16:50:00Z,50.72,-3.42,6.0,1.0,310,12,,6.21,29.675198,,,,,,,,,,,FEW,3000,,,,,,,VFR,,,,,,,,,,,,METAR,30.0
EGJJ 211650Z 31013G27KT 9999 -SHRASN FEW010 BKN015CB 05/01 Q1006 BECMG NSW FEW018CB,EGJJ,2015-02-21T16:50:00Z,49.22,-2.2,5.0,1.0,310,13,27,6.21,29.704725,,,,,,,,,,-SHRA -SHSN,FEW,1000,BKN,1500,,,,,MVFR,,,,,,,,,,,,METAR,84.0
EGJB 211650Z 31014KT 9999 FEW018CB 06/02 Q1006,EGJB,2015-02-21T16:50:00Z,49.42,-2.6,6.0,2.0,310,14,,6.21,29.704725,,,,,,,,,,,FEW,1800,,,,,,,VFR,,,,,,,,,,,,METAR,102.0
EGJA 211650Z 31014KT 9999 FEW018CB SCT024 06/01 Q1005,EGJA,2015-02-21T16:50:00Z,49.72,-2.2,6.0,1.0,310,14,,6.21,29.675198,,,,,,,,,,,FEW,1800,SCT,2400,,,,,VFR,,,,,,,,,,,,METAR,71.0
EGHQ 211650Z 31018KT 9999 SCT028 05/00 Q1007,EGHQ,2015-02-21T16:50:00Z,50.43,-5.0,5.0,0.0,310,18,,6.21,29.734253,,,,,,,,,,,SCT,2800,,,,,,,VFR,,,,,,,,,,,,METAR,119.0
EGHE 211650Z 30017KT 9999 VCSH FEW018 07/02 Q1009,EGHE,2015-02-21T16:50:00Z,49.92,-6.28,7.0,2.0,300,17,,6.21,29.793306,,,,,,,,,,VCSH,FEW,1800,,,,,,,VFR,,,,,,,,,,,,METAR,31.0
EGPE 211650Z 34008KT 9999 VCSH FEW008 FEW015CB BKN022 04/02 Q0999,EGPE,2015-02-21T16:50:00Z,57.52,-4.03,4.0,2.0,340,8,,6.21,29.498032,,,,,,,,,,VCSH,FEW,800,FEW,1500,BKN,2200,,,MVFR,,,,,,,,,,,,METAR,9.0
EGNJ 211650Z 28007KT 9999 VCSH FEW025TCU SCT028 05/M01 Q1000,EGNJ,2015-02-21T16:50:00Z,53.57,-0.35,5.0,-1.0,280,7,,6.21,29.52756,,,,,,,,,,VCSH,FEW,2500,SCT,2800,,,,,VFR,,,,,,,,,,,,METAR,31.0
EGNH 211650Z 29015KT 9999 VCSH FEW023 06/01 Q1002,EGNH,2015-02-21T16:50:00Z,53.77,-3.02,6.0,1.0,290,15,,6.21,29.586615,,,,,,,,,,VCSH,FEW,2300,,,,,,,VFR,,,,,,,,,,,,METAR,10.0
EGLL 211650Z 31008KT 270V330 9999 VCSH FEW042 07/M02 Q1003 NOSIG,EGLL,2015-02-21T16:50:00Z,51.48,-0.45,7.0,-2.0,310,8,,6.21,29.616142,,,,,,TRUE,,,,VCSH,FEW,4200,,,,,,,VFR,,,,,,,,,,,,METAR,24.0
EGCC 211650Z 29010KT 9999 VCSH FEW020CB FEW024TCU 04/01 Q1002 NOSIG,EGCC,2015-02-21T16:50:00Z,53.35,-2.27,4.0,1.0,290,10,,6.21,29.586615,,,,,,TRUE,,,,VCSH,FEW,2000,FEW,2400,,,,,VFR,,,,,,,,,,,,METAR,78.0
EGSS 211650Z 29008KT 9999 -SHRA FEW032 SCT040CB 04/00 Q1002,EGSS,2015-02-21T16:50:00Z,51.88,0.22,4.0,0.0,290,8,,6.21,29.586615,,,,,,,,,,-SHRA,FEW,3200,SCT,4000,,,,,VFR,,,,,,,,,,,,METAR,106.0
EGPK 211650Z 25012KT 9999 FEW016CB BKN035 04/01 Q1000,EGPK,2015-02-21T16:50:00Z,55.5,-4.57,4.0,1.0,250,12,,6.21,29.52756,,,,,,,,,,,FEW,1600,BKN,3500,,,,,VFR,,,,,,,,,,,,METAR,20.0
EGPH 211650Z 26010KT 9999 FEW026 05/M00 Q0998,EGPH,2015-02-21T16:50:00Z,55.95,-3.35,5.0,0.0,260,10,,6.21,29.468504,,,,,,,,,,,FEW,2600,,,,,,,VFR,,,,,,,,,,,,METAR,41.0
EGPF 211650Z 24008KT 9999 SCT017 BKN032 04/02 Q0999,EGPF,2015-02-21T16:50:00Z,55.87,-4.42,4.0,2.0,240,8,,6.21,29.498032,,,,,,,,,,,SCT,1700,BKN,3200,,,,,VFR,,,,,,,,,,,,METAR,8.0
EGKK 211650Z 29008KT 9999 VCSH FEW035CB 06/M01 Q1003,EGKK,2015-02-21T16:50:00Z,51.13,-0.17,6.0,-1.0,290,8,,6.21,29.616142,,,,,,,,,,VCSH,FEW,3500,,,,,,,VFR,,,,,,,,,,,,METAR,62.0
EGBB 211650Z 30006KT 2200 -SHRA VCSH BKN025CB 04/00 Q1003,EGBB,2015-02-21T16:50:00Z,52.47,-1.75,4.0,0.0,300,6,,1.37,29.616142,,,,,,,,,,-SHRA VCSH,BKN,2500,,,,,,,IFR,,,,,,,,,,,,METAR,99.0
LSZC 211650Z AUTO 13005KT 9999 -RASN OVC012 02/01 Q1002,LSZC,2015-02-21T16:50:00Z,46.97,8.38,2.0,1.0,130,5,,6.21,29.586615,,,TRUE,,,,,,,-RA -SN,OVC,1200,,,,,,,MVFR,,,,,,,,,,,,METAR,450.0
LSZS 211650Z 21006KT 170V250 1200 -SN BKN025 M02/M02 Q0999 R03/5901//,LSZS,2015-02-21T16:50:00Z,46.53,9.88,-2.0,-2.0,210,6,,0.75,29.498032,,,,,,,,,,-SN,BKN,2500,,,,,,,LIFR,,,,,,,,,,,,METAR,1706.0
LSZR 211650Z 29009KT 9999 FEW034 SCT040 BKN048 05/00 Q1001 NOSIG RMK L,LSZR,2015-02-21T16:50:00Z,47.48,9.57,5.0,0.0,290,9,,6.21,29.557087,,,,,,TRUE,,,,,FEW,3400,SCT,4000,BKN,4800,,,VFR,,,,,,,,,,,,METAR,398.0
LSZG 211650Z AUTO VRB02KT 9999 -SN OVC007 01/01 Q1003,LSZG,2015-02-21T16:50:00Z,47.17,7.42,1.0,1.0,0,2,,6.21,29.616142,,,TRUE,,,,,,,-SN,OVC,700,,,,,,,IFR,,,,,,,,,,,,METAR,430.0
LSGS 211650Z 26009KT 7000 -RA SCT015 OVC030 02/00 Q1001,LSGS,2015-02-21T16:50:00Z,46.22,7.32,2.0,0.0,260,9,,4.35,29.557087,,,,,,,,,,-RA,SCT,1500,OVC,3000,,,,,MVFR,,,,,,,,,,,,METAR,481.0
LSGC 211650Z AUTO 21003KT 9999 FEW008 OVC060 M02/M03 Q1000 RESHSN,LSGC,2015-02-21T16:50:00Z,47.08,6.8,-2.0,-3.0,210,3,,6.21,29.52756,,,TRUE,,,,,,,,FEW,800,OVC,6000,,,,,VFR,,,,,,,,,,,,METAR,1027.0
EGTC 211650Z 30009KT 9999 SCT040 04/M00 Q1002,EGTC,2015-02-21T16:50:00Z,52.07,-0.62,4.0,0.0,300,9,,6.21,29.586615,,,,,,,,,,,SCT,4000,,,,,,,VFR,,,,,,,,,,,,METAR,111.0
EGSH 211650Z 29008KT 9999 FEW032 06/00 Q1000 NOSIG,EGSH,2015-02-21T16:50:00Z,52.68,1.28,6.0,0.0,290,8,,6.21,29.52756,,,,,,TRUE,,,,,FEW,3200,,,,,,,VFR,,,,,,,,,,,,METAR,36.0
EGTK 211650Z 28004KT 9999 VCSH FEW025CB SCT056TCU 04/02 Q1003,EGTK,2015-02-21T16:50:00Z,51.83,-1.32,4.0,2.0,280,4,,6.21,29.616142,,,,,,,,,,VCSH,FEW,2500,SCT,5600,,,,,VFR,,,,,,,,,,,,METAR,82.0
EGMD 211650Z 30010KT 9999 FEW020 SCT045 06/03 Q1002,EGMD,2015-02-21T16:50:00Z,50.95,0.92,6.0,3.0,300,10,,6.21,29.586615,,,,,,,,,,,FEW,2000,SCT,4500,,,,,VFR,,,,,,,,,,,,METAR,3.0
EGLF 211650Z 31007KT 270V330 9999 FEW038 FEW040CB 05/M02 Q1003,EGLF,2015-02-21T16:50:00Z,51.28,-0.77,5.0,-2.0,310,7,,6.21,29.616142,,,,,,,,,,,FEW,3800,FEW,4000,,,,,VFR,,,,,,,,,,,,METAR,65.0
EGKB 211650Z 30009KT 280V340 9999 VCSH SCT035 05/M02 Q1002,EGKB,2015-02-21T16:50:00Z,51.32,0.02,5.0,-2.0,300,9,,6.21,29.586615,,,,,,,,,,VCSH,SCT,3500,,,,,,,VFR,,,,,,,,,,,,METAR,183.0
EGKA 211650Z 31006KT 9999 VCSH FEW030TCU SCT042 06/M01 Q1003,EGKA,2015-02-21T16:50:00Z,50.83,-0.3,6.0,-1.0,310,6,,6.21,29.616142,,,,,,,,,,VCSH,FEW,3000,SCT,4200,,,,,VFR,,,,,,,,,,,,METAR,2.0
EGHH 211650Z 31012G24KT 280V350 9999 -SHRA SCT023CB SCT035 05/01 Q1005,EGHH,2015-02-21T16:50:00Z,50.78,-1.83,5.0,1.0,310,12,24,6.21,29.675198,,,,,,,,,,-SHRA,SCT,2300,SCT,3500,,,,,VFR,,,,,,,,,,,,METAR,11.0
EGSC 211650Z 26004KT 230V290 9999 FEW030CB 04/01 Q1002,EGSC,2015-02-21T16:50:00Z,52.2,0.17,4.0,1.0,260,4,,6.21,29.586615,,,,,,,,,,,FEW,3000,,,,,,,VFR,,,,,,,,,,,,METAR,15.0
EGCN 211650Z 27013KT 9999 SCT038 06/M00 Q1001,EGCN,2015-02-21T16:50:00Z,53.48,-1.0,6.0,0.0,270,13,,6.21,29.557087,,,,,,,,,,,SCT,3800,,,,,,,VFR,,,,,,,,,,,,METAR,17.0
EGBJ 211650Z 27003KT 9999 FEW030CB 06/01 Q1003,EGBJ,2015-02-21T16:50:00Z,51.9,-2.17,6.0,1.0,270,3,,6.21,29.616142,,,,,,,,,,,FEW,3000,,,,,,,VFR,,,,,,,,,,,,METAR,29.0
K6I2 211650Z AUTO 17018G28KT 5SM UP FEW019 BKN044 OVC055 02/00 A2993 RMK AO2 P0004,K6I2,2015-02-21T16:50:00Z,37.63,-85.25,2.0,0.0,170,18,28,5.0,29.929134,,,TRUE,TRUE,,,,,,UP,FEW,1900,BKN,4400,OVC,5500,,,MVFR,,,,,,0.04,,,,,,METAR,264.0
EFHA 211650Z AUTO 17005KT 130V230 9999 OVC012 01/00 Q0993,EFHA,2015-02-21T16:50:00Z,61.85,24.8,1.0,0.0,170,5,,6.21,29.320866,,,TRUE,,,,,,,,OVC,1200,,,,,,,MVFR,,,,,,,,,,,,METAR,145.0
EGNS 211650Z 28016KT 9999 FEW023 05/01 Q1002 NOSIG,EGNS,2015-02-21T16:50:00Z,54.08,-4.63,5.0,1.0,280,16,,6.21,29.586615,,,,,,TRUE,,,,,FEW,2300,,,,,,,VFR,,,,,,,,,,,,METAR,17.0
EGFF 211650Z AUTO 32013KT 9999 FEW028 05/01 Q1005,EGFF,2015-02-21T16:50:00Z,51.38,-3.35,5.0,1.0,320,13,,6.21,29.675198,,,TRUE,,,,,,,,FEW,2800,,,,,,,VFR,,,,,,,,,,,,METAR,67.0
EGYP 211650Z 21008KT 9999 SCT038 12/04 Q1011 BLU NOSIG,EGYP,2015-02-21T16:50:00Z,-51.82,-58.45,12.0,4.0,210,8,,6.21,29.852362,,,,,,TRUE,,,,,SCT,3800,,,,,,,VFR,,,,,,,,,,,,METAR,74.0
EFSI 211650Z AUTO 18006KT 130V230 9999 -RASN FEW010 BKN026 00/M00 Q0991,EFSI,2015-02-21T16:50:00Z,62.7,22.83,0.0,0.0,180,6,,6.21,29.26181,,,TRUE,,,,,,,-RA -SN,FEW,1000,BKN,2600,,,,,MVFR,,,,,,,,,,,,METAR,91.0
EFPO 211650Z AUTO 17005KT 9999 OVC020/// 02/M01 Q0993 R12/19//95,EFPO,2015-02-21T16:50:00Z,61.47,21.8,2.0,-1.0,170,5,,6.21,29.320866,,,TRUE,,,,,,,,,,,,,,,,,,,,,,,,,,,,METAR,17.0
EFMA 211650Z AUTO 17007KT 9999 BKN009 BKN109 03/02 Q0992,EFMA,2015-02-21T16:50:00Z,60.12,19.88,3.0,2.0,170,7,,6.21,29.291338,,,TRUE,,,,,,,,BKN,900,BKN,10900,,,,,IFR,,,,,,,,,,,,METAR,6.0
EFKK 211650Z AUTO 19007KT 9999 FEW017 OVC022 01/M01 Q0990,EFKK,2015-02-21T16:50:00Z,63.72,23.13,1.0,-1.0,190,7,,6.21,29.232283,,,TRUE,,,,,,,,FEW,1700,OVC,2200,,,,,MVFR,,,,,,,,,,,,METAR,25.0
EFHF 211650Z 17004KT 2700 -RASN BR OVC003 01/00 Q0996,EFHF,2015-02-21T16:50:00Z,60.25,25.05,1.0,0.0,170,4,,1.68,29.409449,,,,,,,,,,-RA -SN BR,OVC,300,,,,,,,LIFR,,,,,,,,,,,,METAR,28.0
KVQQ 211650Z 15012KT 10SM SCT055 18/08 A3034,KVQQ,2015-02-21T16:50:00Z,30.22,-81.88,18.0,8.0,150,12,,10.0,30.339567,,,,,,,,,,,SCT,5500,,,,,,,VFR,,,,,,,,,,,,METAR,25.0
LGKR 211650Z 18004KT 9999 SCT030 13/08 Q1015 NOSIG,LGKR,2015-02-21T16:50:00Z,39.62,19.92,13.0,8.0,180,4,,6.21,29.970472,,,,,,TRUE,,,,,SCT,3000,,,,,,,VFR,,,,,,,,,,,,METAR,2.0
LGIR 211650Z 32004KT 9999 FEW025 11/08 Q1017 NOSIG,LGIR,2015-02-21T16:50:00Z,35.32,25.17,11.0,8.0,320,4,,6.21,30.029528,,,,,,TRUE,,,,,FEW,2500,,,,,,,VFR,,,,,,,,,,,,METAR,39.0
LGAV 211650Z 03002KT 9999 FEW030 09/04 Q1017 NOSIG SCT180,LGAV,2015-02-21T16:50:00Z,37.93,23.95,9.0,4.0,30,2,,6.21,30.029528,,,,,,TRUE,,,,,FEW,3000,SCT,18000,,,,,VFR,,,,,,,,,,,,METAR,94.0
EDLV 211650Z 00000KT 9000 SCT010 03/03 Q1000,EDLV,2015-02-21T16:50:00Z,51.6,6.15,3.0,3.0,0,0,,5.59,29.52756,,,,,,,,,,,SCT,1000,,,,,,,VFR,,,,,,,,,,,,METAR,32.0
EDFM 211650Z 29007KT 9999 FEW047 05/01 Q1002,EDFM,2015-02-21T16:50:00Z,49.47,8.52,5.0,1.0,290,7,,6.21,29.586615,,,,,,,,,,,FEW,4700,,,,,,,VFR,,,,,,,,,,,,METAR,100.0
EDFE 211650Z 23005KT 9999 FEW026 SCT045 06/00 Q1001,EDFE,2015-02-21T16:50:00Z,49.97,8.63,6.0,0.0,230,5,,6.21,29.557087,,,,,,,,,,,FEW,2600,SCT,4500,,,,,VFR,,,,,,,,,,,,METAR,118.0
EETU 211650Z AUTO 17014KT 9999 NCD 03/M01 Q0999,EETU,2015-02-21T16:50:00Z,58.32,26.68,3.0,-1.0,170,14,,6.21,29.498032,,,TRUE,,,,,,,,,,,,,,,,,,,,,,,,,,,,METAR,67.0
EEKE 211650Z AUTO 30003KT 1700NDV R17/2000D R35/P2000N FZFG NSC M00/M00 Q0995,EEKE,2015-02-21T16:50:00Z,58.23,22.52,0.0,0.0,300,3,,1.24,29.379921,,,TRUE,,,,,,,FZFG,,,,,,,,,,,,,,,,,,,,,METAR,4.0
ENMS 211650Z 20008KT 9999 -SHSN FEW015 BKN028 02/M01 Q0982 RMK WIND 412FT 19007KT,ENMS,2015-02-21T16:50:00Z,65.78,13.22,2.0,-1.0,200,8,,6.21,28.996063,,,,,,,,,,-SHSN,FEW,1500,BKN,2800,,,,,MVFR,,,,,,,,,,,,METAR,70.0
EDBC 211650Z 25005KT CAVOK 02/M02 Q0999,EDBC,2015-02-21T16:50:00Z,51.85,11.42,2.0,-2.0,250,5,,6.21,29.498032,,,,,,,,,,,CAVOK,,,,,,,,VFR,,,,,,,,,,,,METAR,181.0
ENFB 211650Z AUTO 32026KT 9999NDV BKN029/// BKN052/// 03/M03 Q0991 W///S6,ENFB,2015-02-21T16:50:00Z,61.2,1.83,3.0,-3.0,320,26,,,29.26181,,,TRUE,,,,,,,,,,,,,,,,,,,,,,,,,,,,METAR,10.0
ENSL 211650Z 34026KT 9999 VCSH SCT015CB BKN030 05/02 Q0991 W///S/,ENSL,2015-02-21T16:50:00Z,58.37,1.9,5.0,2.0,340,26,,6.21,29.26181,,,,,,,,,,VCSH,SCT,1500,BKN,3000,,,,,MVFR,,,,,,,,,,,,METAR,50.0
ENOA 211650Z 36026KT 9999 FEW015 SCT020 BKN045 04/00 Q0990 W///S5,ENOA,2015-02-21T16:50:00Z,60.5,2.83,4.0,0.0,360,26,,6.21,29.232283,,,,,,,,,,,FEW,1500,SCT,2000,BKN,4500,,,VFR,,,,,,,,,,,,METAR,5.0
ENHE 211650Z 32015KT 9999 -SHRA BKN020 02/00 Q0983 W///S6,ENHE,2015-02-21T16:50:00Z,65.33,2.33,2.0,0.0,320,15,,6.21,29.02559,,,,,,,,,,-SHRA,BKN,2000,,,,,,,MVFR,,,,,,,,,,,,METAR,1.0
ENGC 211650Z 35026KT 9999 -SHRA BKN030 03/M04 Q0991 W06/S5,ENGC,2015-02-21T16:50:00Z,61.02,2.02,3.0,-4.0,350,26,,6.21,29.26181,,,,,,,,,,-SHRA,BKN,3000,,,,,,,MVFR,,,,,,,,,,,,METAR,10.0
ENEK 211650Z 27025KT 9999 SCT020CB 05/M00 Q0994 W07/S4,ENEK,2015-02-21T16:50:00Z,56.53,3.25,5.0,0.0,270,25,,6.21,29.350393,,,,,,,,,,,SCT,2000,,,,,,,VFR,,,,,,,,,,,,METAR,3.0
ENDR 211650Z AUTO 28020KT 04/M02 Q0984,ENDR,2015-02-21T16:50:00Z,64.35,7.8,4.0,-2.0,280,20,,,29.055119,,,TRUE,,,,,,,,,,,,,,,,,,,,,,,,,,,,METAR,50.0
ENHF 211650Z 21009KT 9999 VCSH FEW015 BKN021 01/M02 Q0978 RMK WIND 1254FT 21013KT,ENHF,2015-02-21T16:50:00Z,70.67,23.67,1.0,-2.0,210,9,,6.21,28.877953,,,,,,,,,,VCSH,FEW,1500,BKN,2100,,,,,MVFR,,,-1.3,,,,,,,,,METAR,81.0
ENBN 211650Z 18013KT 9999 VCSH BKN046 04/M03 Q0982,ENBN,2015-02-21T16:50:00Z,65.47,12.22,4.0,-3.0,180,13,,6.21,28.996063,,,,,,,,,,VCSH,BKN,4600,,,,,,,VFR,,,,,,,,,,,,METAR,9.0
LOXZ 211650Z 22009KT 30KM FEW050SC SCT170AC BKN250CI 05/M03 Q1003 RMK BKN,LOXZ,2015-02-21T16:50:00Z,47.2,14.75,5.0,-3.0,220,9,,18.64,29.616142,,,,,,,,,,,,,,,,,,,,,,,,,,,,,,,METAR,682.0
ELLX 211650Z 21005KT 180V240 CAVOK 03/00 Q1000 NOSIG,ELLX,2015-02-21T16:50:00Z,49.63,6.2,3.0,0.0,210,5,,6.21,29.52756,,,,,,TRUE,,,,,CAVOK,,,,,,,,VFR,,,,,,,,,,,,METAR,379.0
EBOS 211650Z 30010KT 9999 FEW012 SCT040 05/01 Q1001 NOSIG,EBOS,2015-02-21T16:50:00Z,51.2,2.87,5.0,1.0,300,10,,6.21,29.557087,,,,,,TRUE,,,,,FEW,1200,SCT,4000,,,,,VFR,,,,,,,,,,,,METAR,5.0
EBLG 211650Z VRB02KT 9999 -RADZ FEW008 BKN018 02/01 Q1001 TEMPO 4000 SHRA BKN008,EBLG,2015-02-21T16:50:00Z,50.63,5.45,2.0,1.0,0,2,,6.21,29.557087,,,,,,,,,,-RA -DZ,FEW,800,BKN,1800,,,,,MVFR,,,,,,,,,,,,METAR,178.0
EBCI 211650Z 31006KT 280V350 9999 -SHRA FEW006 SCT016 BKN028 02/01 Q1001 NOSIG,EBCI,2015-02-21T16:50:00Z,50.47,4.45,2.0,1.0,310,6,,6.21,29.557087,,,,,,TRUE,,,,-SHRA,FEW,600,SCT,1600,BKN,2800,,,MVFR,,,,,,,,,,,,METAR,192.0
EBBR 211650Z 20005KT 9999 -SHRA FEW010 SCT016 03/02 Q1001 TEMPO 4500 SHRA,EBBR,2015-02-21T16:50:00Z,50.9,4.5,3.0,2.0,200,5,,6.21,29.557087,,,,,,,,,,-SHRA,FEW,1000,SCT,1600,,,,,VFR,,,,,,,,,,,,METAR,58.0
EBAW 211650Z 26005KT 9999 SCT022 05/02 Q1001 TEMPO 4000 SHRA,EBAW,2015-02-21T16:50:00Z,51.2,4.47,5.0,2.0,260,5,,6.21,29.557087,,,,,,,,,,,SCT,2200,,,,,,,VFR,,,,,,,,,,,,METAR,14.0
LOWK 211650Z 24004KT 180V290 9999 BKN055 07/M01 Q1006 R10L/15//95 NOSIG,LOWK,2015-02-21T16:50:00Z,46.65,14.32,7.0,-1.0,240,4,,6.21,29.704725,,,,,,TRUE,,,,,BKN,5500,,,,,,,VFR,,,,,,,,,,,,METAR,441.0
LOWG 211650Z 21005KT 180V240 9999 FEW050 SCT300 08/M02 Q1004 NOSIG,LOWG,2015-02-21T16:50:00Z,47.0,15.42,8.0,-2.0,210,5,,6.21,29.64567,,,,,,TRUE,,,,,FEW,5000,SCT,30000,,,,,VFR,,,,,,,,,,,,METAR,347.0
LOWI 211650Z VRB09KT 9999 FEW060 SCT100 BKN300 08/M03 Q0999 WS R08 R08/1///95 NOSIG,LOWI,2015-02-21T16:50:00Z,47.27,11.33,8.0,-3.0,0,9,,6.21,29.498032,,,,,,TRUE,,,,,FEW,6000,SCT,10000,BKN,30000,,,VFR,,,,,,,,,,,,METAR,581.0
LOWS 211650Z 18003KT 110V260 CAVOK 05/M02 Q0998 NOSIG,LOWS,2015-02-21T16:50:00Z,47.78,13.02,5.0,-2.0,180,3,,6.21,29.468504,,,,,,TRUE,,,,,CAVOK,,,,,,,,VFR,,,,,,,,,,,,METAR,450.0
LOWL 211650Z 09003KT CAVOK 05/M02 Q0999 NOSIG,LOWL,2015-02-21T16:50:00Z,48.22,14.18,5.0,-2.0,90,3,,6.21,29.498032,,,,,,TRUE,,,,,CAVOK,,,,,,,,VFR,,,,,,,,,,,,METAR,313.0
LOWW 211650Z 12005KT CAVOK 07/M02 Q1002 NOSIG,LOWW,2015-02-21T16:50:00Z,48.12,16.57,7.0,-2.0,120,5,,6.21,29.586615,,,,,,TRUE,,,,,CAVOK,,,,,,,,VFR,,,,,,,,,,,,METAR,190.0
LCRA 211650Z 28003KT 9999 FEW050 11/03 Q1016 NOSIG,LCRA,2015-02-21T16:50:00Z,34.57,32.97,11.0,3.0,280,3,,6.21,30.0,,,,,,TRUE,,,,,FEW,5000,,,,,,,VFR,,,,,,,,,,,,METAR,23.0
LGZA 211650Z 19004KT 9999 FEW020 10/07 Q1016,LGZA,2015-02-21T16:50:00Z,37.75,20.87,10.0,7.0,190,4,,6.21,30.0,,,,,,,,,,,FEW,2000,,,,,,,VFR,,,,,,,,,,,,METAR,3.0
LGSR 211650Z 34010KT 9999 SCT025 BKN180 12/06 Q1016,LGSR,2015-02-21T16:50:00Z,36.4,25.48,12.0,6.0,340,10,,6.21,30.0,,,,,,,,,,,SCT,2500,BKN,18000,,,,,VFR,,,,,,,,,,,,METAR,40.0
LGRX 211650Z 00000KT 9999 FEW025 12/09 Q1016 RMK FEW080 SCT180 BLU,LGRX,2015-02-21T16:50:00Z,38.17,21.42,12.0,9.0,0,0,,6.21,30.0,,,,,,,,,,,FEW,2500,,,,,,,VFR,,,,,,,,,,,,METAR,15.0
LGPZ 211650Z 00000KT CAVOK 11/07 Q1017,LGPZ,2015-02-21T16:50:00Z,38.92,20.77,11.0,7.0,0,0,,6.21,30.029528,,,,,,,,,,,CAVOK,,,,,,,,VFR,,,,,,,,,,,,METAR,4.0
LGMT 211650Z VRB03KT CAVOK 07/01 Q1018,LGMT,2015-02-21T16:50:00Z,39.05,26.6,7.0,1.0,0,3,,6.21,30.059055,,,,,,,,,,,CAVOK,,,,,,,,VFR,,,,,,,,,,,,METAR,17.0
LGKV 211650Z 07004KT CAVOK 07/02 Q1017,LGKV,2015-02-21T16:50:00Z,40.92,24.62,7.0,2.0,70,4,,6.21,30.029528,,,,,,,,,,,CAVOK,,,,,,,,VFR,,,,,,,,,,,,METAR,5.0
LGIO 211650Z AUTO 14004KT 090V170 //// // ////// 08/04 Q1015 RE//,LGIO,2015-02-21T16:50:00Z,39.7,20.82,8.0,4.0,140,4,,,29.970472,,,TRUE,,,,,,,,,,,,,,,,,,,,,,,,,,,,METAR,476.0
LGEL 211650Z 00000KT CAVOK 10/04 Q1017,LGEL,2015-02-21T16:50:00Z,38.07,23.55,10.0,4.0,0,0,,6.21,30.029528,,,,,,,,,,,CAVOK,,,,,,,,VFR,,,,,,,,,,,,METAR,31.0
LGAL 211650Z VRB02KT CAVOK 06/00 Q1017,LGAL,2015-02-21T16:50:00Z,40.85,25.95,6.0,0.0,0,2,,6.21,30.029528,,,,,,,,,,,CAVOK,,,,,,,,VFR,,,,,,,,,,,,METAR,3.0
LGSO 211650Z AUTO 34007KT 320V040 //// -RA ////// 11/06 Q1016 RE//,LGSO,2015-02-21T16:50:00Z,37.42,24.95,11.0,6.0,340,7,,,30.0,,,TRUE,,,,,,,-RA,,,,,,,,,,,,,,,,,,,,,METAR,72.0
LGPA 211650Z AUTO 36005KT 330V040 //// -RA ////// 10/06 Q1016 RE//,LGPA,2015-02-21T16:50:00Z,37.0,25.13,10.0,6.0,360,5,,,30.0,,,TRUE,,,,,,,-RA,,,,,,,,,,,,,,,,,,,,,METAR,36.0
LGMK 211650Z 35012KT 9999 SCT030 10/06 Q1016,LGMK,2015-02-21T16:50:00Z,37.43,25.35,10.0,6.0,350,12,,6.21,30.0,,,,,,,,,,,SCT,3000,,,,,,,VFR,,,,,,,,,,,,METAR,123.0
LGKP 211650Z AUTO 29007KT //// // ////// 12/05 Q1016 RE//,LGKP,2015-02-21T16:50:00Z,35.42,27.15,12.0,5.0,290,7,,,30.0,,,TRUE,,,,,,,,,,,,,,,,,,,,,,,,,,,,METAR,20.0
LGKF 211650Z 17005KT 9999 SCT020 11/06 Q1016,LGKF,2015-02-21T16:50:00Z,38.12,20.5,11.0,6.0,170,5,,6.21,30.0,,,,,,,,,,,SCT,2000,,,,,,,VFR,,,,,,,,,,,,METAR,18.0
LGHI 211650Z 01005KT CAVOK 11/02 Q1016,LGHI,2015-02-21T16:50:00Z,38.32,26.12,11.0,2.0,10,5,,6.21,30.0,,,,,,,,,,,CAVOK,,,,,,,,VFR,,,,,,,,,,,,METAR,4.0
LGBL 211650Z 11009KT 9999 FEW030 09/06 Q1016,LGBL,2015-02-21T16:50:00Z,39.22,22.8,9.0,6.0,110,9,,6.21,30.0,,,,,,,,,,,FEW,3000,,,,,,,VFR,,,,,,,,,,,,METAR,26.0
LIMF 211650Z 34004KT 6000 -RA SCT012 BKN040 03/02 Q1003,LIMF,2015-02-21T16:50:00Z,45.22,7.65,3.0,2.0,340,4,,3.73,29.616142,,,,,,,,,,-RA,SCT,1200,BKN,4000,,,,,MVFR,,,,,,,,,,,,METAR,287.0
KTOA 211650Z VRB05KT 9SM OVC030 17/11 A3001,KTOA,2015-02-21T16:50:00Z,33.78,-118.32,17.0,11.0,0,5,,9.0,30.008858,,,,,,,,,,,OVC,3000,,,,,,,MVFR,,,,,,,,,,,,METAR,31.0
LTAR 211650Z 33005KT 9999 SCT040 M10/M11 Q1016,LTAR,2015-02-21T16:50:00Z,39.8,36.9,-10.0,-11.0,330,5,,6.21,30.0,,,,,,,,,,,SCT,4000,,,,,,,VFR,,,,,,,,,,,,METAR,1271.0
LTBY 211650Z 10006KT 060V140 CAVOK M02/M08 Q1020,LTBY,2015-02-21T16:50:00Z,39.82,30.52,-2.0,-8.0,100,6,,6.21,30.11811,,,,,,,,,,,CAVOK,,,,,,,,VFR,,,,,,,,,,,,METAR,789.0
LTAY 211650Z 29001KT CAVOK M01/M05 Q1018,LTAY,2015-02-21T16:50:00Z,37.77,29.68,-1.0,-5.0,290,1,,6.21,30.059055,,,,,,,,,,,CAVOK,,,,,,,,VFR,,,,,,,,,,,,METAR,849.0
LTCF 211650Z 00000KT 9999 FEW040 M12/M14 Q1015,LTCF,2015-02-21T16:50:00Z,40.57,43.12,-12.0,-14.0,0,0,,6.21,29.970472,,,,,,,,,,,FEW,4000,,,,,,,VFR,,,,,,,,,,,,METAR,1795.0
LTCD 211650Z 32005KT 9999 SCT045 M00/M07 Q1016 NOSIG,LTCD,2015-02-21T16:50:00Z,39.72,39.5,0.0,-7.0,320,5,,6.21,30.0,,,,,,TRUE,,,,,SCT,4500,,,,,,,VFR,,,,,,,,,,,,METAR,1215.0
LTCA 211650Z 25008KT 9999 FEW035 SCT100 01/M04 Q1016 NOSIG,LTCA,2015-02-21T16:50:00Z,38.6,39.27,1.0,-4.0,250,8,,6.21,30.0,,,,,,TRUE,,,,,FEW,3500,SCT,10000,,,,,VFR,,,,,,,,,,,,METAR,882.0
LTBZ 211650Z 14007KT CAVOK M03/M06 Q1019,LTBZ,2015-02-21T16:50:00Z,38.63,27.35,-3.0,-6.0,140,7,,6.21,30.088583,,,,,,,,,,,CAVOK,,,,,,,,VFR,,,,,,,,,,,,METAR,73.0
LTDA 211650Z 29005KT 9999 SCT030 07/05 Q1017,LTDA,2015-02-21T16:50:00Z,36.37,36.28,7.0,5.0,290,5,,6.21,30.029528,,,,,,,,,,,SCT,3000,,,,,,,VFR,,,,,,,,,,,,METAR,82.0
LTCI 211650Z VRB06KT 6000 FEW035 SCT080 M01/M09 Q1011 TEMPO TL1800 4000 BR,LTCI,2015-02-21T16:50:00Z,38.45,43.32,-1.0,-9.0,0,6,,3.73,29.852362,,,,,,,,,,,FEW,3500,SCT,8000,,,,,MVFR,,,,,,,,,,,,METAR,1661.0
EGDX 211650Z AUTO 29010KT 9999 FEW037/// 05/00 Q1004,EGDX,2015-02-21T16:50:00Z,51.4,-3.43,5.0,0.0,290,10,,6.21,29.64567,,,TRUE,,,,,,,,,,,,,,,,,,,,,,,,,,,,METAR,50.0
EGDY 211650Z AUTO 30014KT 9999 SCT044/// SCT050/// 06/00 Q1005,EGDY,2015-02-21T16:50:00Z,51.0,-2.62,6.0,0.0,300,14,,6.21,29.675198,,,TRUE,,,,,,,,,,,,,,,,,,,,,,,,,,,,METAR,23.0
EGOS 211650Z AUTO 32010KT 9999 BKN027/// 05/00 Q1003,EGOS,2015-02-21T16:50:00Z,52.8,-2.67,5.0,0.0,320,10,,6.21,29.616142,,,TRUE,,,,,,,,,,,,,,,,,,,,,,,,,,,,METAR,76.0
EGOP 211650Z AUTO 32024KT 9999 // NCD 06/00 Q1005,EGOP,2015-02-21T16:50:00Z,51.72,-4.32,6.0,0.0,320,24,,6.21,29.675198,,,TRUE,,,,,,,,,,,,,,,,,,,,,,,,,,,,METAR,6.0
EGOM 211650Z AUTO 26012KT 9999 SCT039/// BKN046/// 02/M02 Q0998,EGOM,2015-02-21T16:50:00Z,55.05,-2.55,2.0,-2.0,260,12,,6.21,29.468504,,,TRUE,,,,,,,,,,,,,,,,,,,,,,,,,,,,METAR,325.0
EGQK 211650Z AUTO 02013KT 9999 BKN028/// SCT044/// 04/02 Q0998 RERA,EGQK,2015-02-21T16:50:00Z,57.65,-3.57,4.0,2.0,20,13,,6.21,29.468504,,,TRUE,,,,,,,,,,,,,,,,,,,,,,,,,,,,METAR,7.0
EGOV 211650Z AUTO 30012KT 9999 FEW060/// 05/01 Q1004,EGOV,2015-02-21T16:50:00Z,53.25,-4.53,5.0,1.0,300,12,,6.21,29.64567,,,TRUE,,,,,,,,,,,,,,,,,,,,,,,,,,,,METAR,11.0
EGUW 211650Z AUTO 29011KT 9999 FEW029/// BKN050/// 04/00 Q1001,EGUW,2015-02-21T16:50:00Z,52.12,0.97,4.0,0.0,290,11,,6.21,29.557087,,,TRUE,,,,,,,,,,,,,,,,,,,,,,,,,,,,METAR,87.0
EGVP 211650Z AUTO 30013KT 9999 // FEW027/// BKN060/// 03/00 Q1004,EGVP,2015-02-21T16:50:00Z,51.13,-1.57,3.0,0.0,300,13,,6.21,29.64567,,,TRUE,,,,,,,,,,,,,,,,,,,,,,,,,,,,METAR,91.0
EGVO 211650Z AUTO 29011KT //// // ///////// 05/M03 Q////,EGVO,2015-02-21T16:50:00Z,51.23,-0.95,5.0,-3.0,290,11,,,,,,TRUE,,,,,,,,,,,,,,,,,,,,,,,,,,,,METAR,123.0
EGXD 211650Z AUTO 30009KT 9999 // BKN050/// 06/M01 Q1000,EGXD,2015-02-21T16:50:00Z,54.13,-1.42,6.0,-1.0,300,9,,6.21,29.52756,,,TRUE,,,,,,,,,,,,,,,,,,,,,,,,,,,,METAR,35.0
EGXT 211650Z AUTO 31008KT 9999 SCT050/// 04/00 Q1001 RERA,EGXT,2015-02-21T16:50:00Z,52.62,-0.47,4.0,0.0,310,8,,6.21,29.557087,,,TRUE,,,,,,,,,,,,,,,,,,,,,,,,,,,,METAR,84.0
EGXS 211650Z AUTO 27009KT 9999 // NCD 05/M01 Q1000,EGXS,2015-02-21T16:50:00Z,53.48,0.15,5.0,-1.0,270,9,,6.21,29.52756,,,TRUE,,,,,,,,,,,,,,,,,,,,,,,,,,,,METAR,3.0
EGXP 211650Z AUTO 29015KT 9999 // FEW036/// SCT050/// 05/M01 Q1000,EGXP,2015-02-21T16:50:00Z,53.3,-0.55,5.0,-1.0,290,15,,6.21,29.52756,,,TRUE,,,,,,,,,,,,,,,,,,,,,,,,,,,,METAR,61.0
EGXU 211650Z AUTO 28007KT 9999 // FEW060/// SCT110/// 06/M05 Q1000,EGXU,2015-02-21T16:50:00Z,54.05,-1.25,6.0,-5.0,280,7,,6.21,29.52756,,,TRUE,,,,,,,,,,,,,,,,,,,,,,,,,,,,METAR,16.0
EGXZ 211650Z AUTO 29014KT 9999 SCT042/// BKN050/// 06/M03 Q1000,EGXZ,2015-02-21T16:50:00Z,54.2,-1.38,6.0,-3.0,290,14,,6.21,29.52756,,,TRUE,,,,,,,,,,,,,,,,,,,,,,,,,,,,METAR,28.0
EGYM 211650Z AUTO 28006KT 9999 FEW028/// 04/01 Q1000 RERA,EGYM,2015-02-21T16:50:00Z,52.63,0.57,4.0,1.0,280,6,,6.21,29.52756,,,TRUE,,,,,,,,,,,,,,,,,,,,,,,,,,,,METAR,23.0
EGYD 211650Z AUTO 29011KT 9999 // FEW050/// 05/M01 Q1001,EGYD,2015-02-21T16:50:00Z,53.03,-0.5,5.0,-1.0,290,11,,6.21,29.557087,,,TRUE,,,,,,,,,,,,,,,,,,,,,,,,,,,,METAR,67.0
LTFH 211650Z 20004KT 9999 SCT033 BKN100 03/M01 Q1024 NOSIG,LTFH,2015-02-21T16:50:00Z,41.27,36.55,3.0,-1.0,200,4,,6.21,30.236221,,,,,,TRUE,,,,,SCT,3300,BKN,10000,,,,,VFR,,,,,,,,,,,,METAR,5.0
LTAG 211650Z 33007KT CAVOK 08/M04 Q1017 NOSIG,LTAG,2015-02-21T16:50:00Z,37.0,35.42,8.0,-4.0,330,7,,6.21,30.029528,,,,,,TRUE,,,,,CAVOK,,,,,,,,VFR,,,,,,,,,,,,METAR,66.0
LTFG 211650Z 07005KT CAVOK 07/02 Q1017,LTFG,2015-02-21T16:50:00Z,36.3,32.3,7.0,2.0,70,5,,6.21,30.029528,,,,,,,,,,,CAVOK,,,,,,,,VFR,,,,,,,,,,,,METAR,95.0
LTFD 211650Z 07014KT CAVOK 09/M02 Q1017,LTFD,2015-02-21T16:50:00Z,39.55,27.02,9.0,-2.0,70,14,,6.21,30.029528,,,,,,,,,,,CAVOK,,,,,,,,VFR,,,,,,,,,,,,METAR,16.0
LTCN 211650Z 22010KT 9999 SCT040 06/M04 Q1016,LTCN,2015-02-21T16:50:00Z,37.53,36.95,6.0,-4.0,220,10,,6.21,30.0,,,,,,,,,,,SCT,4000,,,,,,,VFR,,,,,,,,,,,,METAR,526.0
LTBH 211650Z 08006KT CAVOK 06/02 Q1018,LTBH,2015-02-21T16:50:00Z,40.13,26.42,6.0,2.0,80,6,,6.21,30.059055,,,,,,,,,,,CAVOK,,,,,,,,VFR,,,,,,,,,,,,METAR,3.0
LCEN 211650Z 00000KT 9999 FEW030 09/M01 Q1017 NOSIG,LCEN,2015-02-21T16:50:00Z,35.13,33.5,9.0,-1.0,0,0,,6.21,30.029528,,,,,,TRUE,,,,,FEW,3000,,,,,,,VFR,,,,,,,,,,,,METAR,91.0
LTCJ 211650Z VRB01KT CAVOK 02/00 Q1015,LTCJ,2015-02-21T16:50:00Z,37.93,41.12,2.0,0.0,0,1,,6.21,29.970472,,,,,,,,,,,CAVOK,,,,,,,,VFR,,,,,,,,,,,,METAR,540.0
LTCE 211650Z 04004KT CAVOK M08/M10 Q1015 NOSIG,LTCE,2015-02-21T16:50:00Z,39.95,41.17,-8.0,-10.0,40,4,,6.21,29.970472,,,,,,TRUE,,,,,CAVOK,,,,,,,,VFR,,,,,,,,,,,,METAR,1758.0
LTCC 211650Z 30006KT CAVOK 02/M00 Q1015 NOSIG,LTCC,2015-02-21T16:50:00Z,37.87,40.2,2.0,0.0,300,6,,6.21,29.970472,,,,,,TRUE,,,,,CAVOK,,,,,,,,VFR,,,,,,,,,,,,METAR,677.0
LTBU 211650Z 08005KT CAVOK 03/01 Q1019,LTBU,2015-02-21T16:50:00Z,41.12,27.92,3.0,1.0,80,5,,6.21,30.088583,,,,,,,,,,,CAVOK,,,,,,,,VFR,,,,,,,,,,,,METAR,173.0
LTBQ 211650Z VRB02KT CAVOK 00/M01 Q1021 NOSIG,LTBQ,2015-02-21T16:50:00Z,40.72,30.07,0.0,-1.0,0,2,,6.21,30.147638,,,,,,TRUE,,,,,CAVOK,,,,,,,,VFR,,,,,,,,,,,,METAR,50.0
LTBF 211650Z VRB02KT 9999 FEW035 03/M01 Q1019 NOSIG,LTBF,2015-02-21T16:50:00Z,39.62,27.92,3.0,-1.0,0,2,,6.21,30.088583,,,,,,TRUE,,,,,FEW,3500,,,,,,,VFR,,,,,,,,,,,,METAR,102.0
LTAU 211650Z 26003KT 9999 FEW035 SCT200 M08/M10 Q1020 NOSIG,LTAU,2015-02-21T16:50:00Z,38.77,35.47,-8.0,-10.0,260,3,,6.21,30.11811,,,,,,TRUE,,,,,FEW,3500,SCT,20000,,,,,VFR,,,,,,,,,,,,METAR,1054.0
LTAT 211650Z 12004KT CAVOK 01/M06 Q1016 NOSIG,LTAT,2015-02-21T16:50:00Z,38.42,38.07,1.0,-6.0,120,4,,6.21,30.0,,,,,,TRUE,,,,,CAVOK,,,,,,,,VFR,,,,,,,,,,,,METAR,849.0
LTAP 211650Z 01002KT 9999 SCT040 BKN100 M02/M04 Q1021 NOSIG,LTAP,2015-02-21T16:50:00Z,40.83,35.52,-2.0,-4.0,10,2,,6.21,30.147638,,,,,,TRUE,,,,,SCT,4000,BKN,10000,,,,,VFR,,,,,,,,,,,,METAR,535.0
LTAN 211650Z 29004KT CAVOK M05/M09 Q1020 NOSIG,LTAN,2015-02-21T16:50:00Z,37.97,32.53,-5.0,-9.0,290,4,,6.21,30.11811,,,,,,TRUE,,,,,CAVOK,,,,,,,,VFR,,,,,,,,,,,,METAR,1006.0
KECU 211650Z AUTO 30009KT 030V040 10SM CLR 22/10 A2995 RMK AO2,KECU,2015-02-21T16:50:00Z,29.95,-100.17,22.0,10.0,300,9,,10.0,29.949802,,,TRUE,TRUE,,,,,,,CLR,,,,,,,,VFR,,,,,,,,,,,,METAR,725.0
KMDS 211650Z AUTO 02014KT 10SM SCT044 BKN050 BKN080 M09/M13 A3010 RMK AO2,KMDS,2015-02-21T16:50:00Z,44.02,-97.08,-9.0,-13.0,20,14,,10.0,30.100393,,,TRUE,TRUE,,,,,,,SCT,4400,BKN,5000,BKN,8000,,,VFR,,,,,,,,,,,,SPECI,524.0
TJBQ 211650Z 09019G24KT 10SM SCT080 BKN100 27/21 A3011 RMK RWY 08 ATIS B,TJBQ,2015-02-21T16:50:00Z,18.5,-67.13,27.0,21.0,90,19,24,10.0,30.109253,,,,,,,,,,,SCT,8000,BKN,10000,,,,,VFR,,,,,,,,,,,,METAR,72.0
OOMS 211650Z 19015KT 150V210 6000 NSC 33/06 Q1008 NOSIG,OOMS,2015-02-21T16:50:00Z,23.57,58.27,33.0,6.0,190,15,,3.73,29.763779,,,,,,TRUE,,,,,,,,,,,,,,,,,,,,,,,,,METAR,8.0
VGHS 211650Z 15006KT 3500 HZ FEW100 23/18 Q1011 NOSIG,VGHS,2015-02-21T16:50:00Z,23.85,90.4,23.0,18.0,150,6,,2.17,29.852362,,,,,,TRUE,,,,HZ,FEW,10000,,,,,,,IFR,,,,,,,,,,,,METAR,10.0
KUNI 211650Z AUTO 18007KT 3SM -SN OVC006 01/00 A2998 RMK AO2 T00061005,KUNI,2015-02-21T16:50:00Z,39.22,-82.23,0.6,-0.5,180,7,,3.0,29.97933,,,TRUE,TRUE,,,,,,-SN,OVC,600,,,,,,,IFR,,,,,,,,,,,,METAR,193.0
KMRJ 211650Z AUTO 00000KT 7SM OVC013 M02/M06 A2992 RMK AO2,KMRJ,2015-02-21T16:50:00Z,42.88,-90.23,-2.0,-6.0,0,0,,7.0,29.920275,,,TRUE,TRUE,,,,,,,OVC,1300,,,,,,,MVFR,,,,,,,,,,,,METAR,359.0
KETB 211650Z AUTO 00000KT 10SM OVC027 M04/M10 A2991 RMK AO2,KETB,2015-02-21T16:50:00Z,43.42,-88.13,-4.0,-10.0,0,0,,10.0,29.911417,,,TRUE,TRUE,,,,,,,OVC,2700,,,,,,,MVFR,,,,,,,,,,,,METAR,270.0
KEGV 211650Z AUTO 34007KT 5SM -SN OVC020 M10/M15 A2989 RMK AO2 T11011154,KEGV,2015-02-21T16:50:00Z,45.93,-89.27,-10.1,-15.4,340,7,,5.0,29.890747,,,TRUE,TRUE,,,,,,-SN,OVC,2000,,,,,,,MVFR,,,,,,,,,,,,METAR,500.0
KDLL 211650Z AUTO 01004KT 10SM CLR M03/M10 A2992 RMK AO2 T10341096,KDLL,2015-02-21T16:50:00Z,43.52,-89.77,-3.4,-9.6,10,4,,10.0,29.920275,,,TRUE,TRUE,,,,,,,CLR,,,,,,,,VFR,,,,,,,,,,,,METAR,299.0
KDKR 211650Z AUTO 22012G18KT 10SM BKN022 OVC027 22/18 A2994 RMK AO2,KDKR,2015-02-21T16:50:00Z,31.3,-95.4,22.0,18.0,220,12,18,10.0,29.940945,,,TRUE,TRUE,,,,,,,BKN,2200,OVC,2700,,,,,MVFR,,,,,,,,,,,,METAR,106.0
KBIJ 211650Z AUTO 18010G20KT 10SM CLR 17/06 A3027 RMK AO2,KBIJ,2015-02-21T16:50:00Z,31.4,-84.9,17.0,6.0,180,10,20,10.0,30.268702,,,TRUE,TRUE,,,,,,,CLR,,,,,,,,VFR,,,,,,,,,,,,METAR,65.0
BGJN 211650Z 04006KT 310V080 9999 FEW010 M21/M28 Q1000,BGJN,2015-02-21T16:50:00Z,69.25,-51.07,-21.0,-28.0,40,6,,6.21,29.52756,,,,,,,,,,,FEW,1000,,,,,,,VFR,,,,,,,,,,,,METAR,25.0
EGQM 211650Z AUTO 28012KT 9999 NCD 05/M02 Q0998,EGQM,2015-02-21T16:50:00Z,55.42,-1.6,5.0,-2.0,280,12,,6.21,29.468504,,,TRUE,,,,,,,,,,,,,,,,,,,,,,,,,,,,METAR,23.0
EGQL 211650Z 27011KT 9999 FEW045 06/M02 Q0997 BLU,EGQL,2015-02-21T16:50:00Z,56.38,-2.87,6.0,-2.0,270,11,,6.21,29.438976,,,,,,,,,,,FEW,4500,,,,,,,VFR,,,,,,,,,,,,METAR,12.0
EGDR 211650Z 32013KT 9999 SCT022 BKN200 07/M00 Q1007 WHT,EGDR,2015-02-21T16:50:00Z,50.08,-5.25,7.0,0.0,320,13,,6.21,29.734253,,,,,,,,,,,SCT,2200,BKN,20000,,,,,VFR,,,,,,,,,,,,METAR,82.0
EGDM 211650Z 30008KT 9999 FEW018CB 03/01 Q1003 RESHGS BLU,EGDM,2015-02-21T16:50:00Z,51.17,-1.75,3.0,1.0,300,8,,6.21,29.616142,,,,,,,,,,,FEW,1800,,,,,,,VFR,,,,,,,,,,,,METAR,124.0
EDVE 211650Z 24008KT 9999 SCT037 BKN044 OVC054 05/M00 Q0998,EDVE,2015-02-21T16:50:00Z,52.32,10.55,5.0,0.0,240,8,,6.21,29.468504,,,,,,,,,,,SCT,3700,BKN,4400,OVC,5400,,,VFR,,,,,,,,,,,,METAR,88.0
LSMM 211650Z AUTO 25007KT 210V280 5000NDV -RASN SCT005 BKN009 OVC013 01/00 Q1001 RMK YLO,LSMM,2015-02-21T16:50:00Z,46.75,8.12,1.0,0.0,250,7,,,29.557087,,,TRUE,,,,,,,SN -RA,SCT,500,BKN,900,OVC,1300,,,,,,,,,,,,,,,METAR,577.0
HLLM 211650Z 16013KT 6000 -RA BKN025 OVC070 19/04 Q1007,HLLM,2015-02-21T16:50:00Z,32.9,13.28,19.0,4.0,160,13,,3.73,29.734253,,,,,,,,,,-RA,BKN,2500,OVC,7000,,,,,MVFR,,,,,,,,,,,,METAR,11.0
KO86 211650Z AUTO 17003KT 10SM CLR 05/02 A3005 RMK AO1,KO86,2015-02-21T16:50:00Z,40.98,-122.7,5.0,2.0,170,3,,10.0,30.050198,,,TRUE,TRUE,,,,,,,CLR,,,,,,,,VFR,,,,,,,,,,,,METAR,729.0
EGPI 211650Z AUTO 29021KT 9999 FEW027/// SCT034/// 06/03 Q0999,EGPI,2015-02-21T16:50:00Z,55.68,-6.25,6.0,3.0,290,21,,6.21,29.498032,,,TRUE,,,,,,,,,,,,,,,,,,,,,,,,,,,,METAR,18.0
EGPU 211650Z AUTO 01017KT 320V030 9999 FEW016/// 05/02 Q0999,EGPU,2015-02-21T16:50:00Z,56.5,-6.87,5.0,2.0,10,17,,6.21,29.498032,,,TRUE,,,,,,,,,,,,,,,,,,,,,,,,,,,,METAR,12.0
KCVH 211650Z AUTO 00000KT 10SM CLR 09/08 A2999 RMK AO1,KCVH,2015-02-21T16:50:00Z,36.9,-121.42,9.0,8.0,0,0,,10.0,29.991142,,,TRUE,TRUE,,,,,,,CLR,,,,,,,,VFR,,,,,,,,,,,,METAR,70.0
LGTS 211650Z 15005KT 9999 FEW030 10/04 Q1017 NOSIG,LGTS,2015-02-21T16:50:00Z,40.52,22.97,10.0,4.0,150,5,,6.21,30.029528,,,,,,TRUE,,,,,FEW,3000,,,,,,,VFR,,,,,,,,,,,,METAR,7.0
LGSA 211650Z 11003KT 9999 FEW020 BKN180 11/06 Q1017,LGSA,2015-02-21T16:50:00Z,35.53,24.13,11.0,6.0,110,3,,6.21,30.029528,,,,,,,,,,,FEW,2000,BKN,18000,,,,,VFR,,,,,,,,,,,,METAR,135.0
LGLM 211650Z 03004KT 9999 FEW025 07/03 Q1017,LGLM,2015-02-21T16:50:00Z,39.92,25.23,7.0,3.0,30,4,,6.21,30.029528,,,,,,,,,,,FEW,2500,,,,,,,VFR,,,,,,,,,,,,METAR,5.0
LGKO 211650Z 34003KT CAVOK 10/03 Q1015,LGKO,2015-02-21T16:50:00Z,36.8,27.08,10.0,3.0,340,3,,6.21,29.970472,,,,,,,,,,,CAVOK,,,,,,,,VFR,,,,,,,,,,,,METAR,125.0
LGKL 211650Z 00000KT 9999 SCT080 11/06 Q1016,LGKL,2015-02-21T16:50:00Z,37.07,22.02,11.0,6.0,0,0,,6.21,30.0,,,,,,,,,,,SCT,8000,,,,,,,VFR,,,,,,,,,,,,METAR,8.0
LGAD 211650Z 00000KT 9999 FEW020 10/06 Q1016,LGAD,2015-02-21T16:50:00Z,37.92,21.27,10.0,6.0,0,0,,6.21,30.0,,,,,,,,,,,FEW,2000,,,,,,,VFR,,,,,,,,,,,,METAR,12.0
MMPQ 211650Z 10012KT 8SM SKC 25/19 A2986 RMK HZY MSGTX MMMD,MMPQ,2015-02-21T16:50:00Z,17.53,-91.98,25.0,19.0,100,12,,8.0,29.861221,,,,,,,,,,,SKC,,,,,,,,VFR,,,,,,,,,,,,METAR,61.0
MMSD 211650Z 00000KT 15SM SKC 28/07 A2997,MMSD,2015-02-21T16:50:00Z,23.13,-109.7,28.0,7.0,0,0,,15.0,29.970472,,,,,,,,,,,SKC,,,,,,,,VFR,,,,,,,,,,,,METAR,109.0
EFVR 211650Z AUTO 18006KT 150V230 9000 -SHRA FEW008 BKN010 02/01 Q0995,EFVR,2015-02-21T16:50:00Z,62.17,27.87,2.0,1.0,180,6,,5.59,29.379921,,,TRUE,,,,,,,-SHRA,FEW,800,BKN,1000,,,,,MVFR,,,,,,,,,,,,METAR,87.0
EFUT 211650Z AUTO 18006KT 140V210 2300 -RASN OVC002 00/00 Q0996,EFUT,2015-02-21T16:50:00Z,60.88,26.92,0.0,0.0,180,6,,1.43,29.409449,,,TRUE,,,,,,,-RA -SN,OVC,200,,,,,,,LIFR,,,,,,,,,,,,METAR,100.0
EFSA 211650Z AUTO 16007KT 130V210 9999 OVC006 01/00 Q0996,EFSA,2015-02-21T16:50:00Z,61.95,28.93,1.0,0.0,160,7,,6.21,29.409449,,,TRUE,,,,,,,,OVC,600,,,,,,,IFR,,,,,,,,,,,,METAR,95.0
EFLP 211650Z AUTO 18005KT 110V250 2300 -RASN BKN002 OVC005 ///// Q////,EFLP,2015-02-21T16:50:00Z,61.07,28.13,,,180,5,,1.43,,,,TRUE,,,,,,,-RA -SN,BKN,200,OVC,500,,,,,LIFR,,,,,,,,,,,,METAR,106.0
EFJO 211650Z AUTO 18008KT 9999 OVC010 01/00 Q0995,EFJO,2015-02-21T16:50:00Z,62.67,29.62,1.0,0.0,180,8,,6.21,29.379921,,,TRUE,,,,,,,,OVC,1000,,,,,,,MVFR,,,,,,,,,,,,METAR,117.0
ENNA 211650Z 18011KT 9999 FEW043 SCT058 M05/M08 Q0980 RMK WIND 1800FT 27013KT,ENNA,2015-02-21T16:50:00Z,70.07,24.97,-5.0,-8.0,180,11,,6.21,28.937008,,,,,,,,,,,FEW,4300,SCT,5800,,,,,VFR,,,,,,,,,,,,METAR,8.0
ENML 211650Z 23009KT 9999 -SHRASN SCT010 BKN015 02/00 Q0988,ENML,2015-02-21T16:50:00Z,62.75,7.27,2.0,0.0,230,9,,6.21,29.17323,,,,,,,,,,-SHRA -SHSN,SCT,1000,BKN,1500,,,,,MVFR,,,,,,,,,,,,METAR,3.0
ENKR 211650Z AUTO 20016KT 9999NDV OVC012/// M02/M04 Q0981 RMK WIND 731FT 21020KT,ENKR,2015-02-21T16:50:00Z,69.72,29.88,-2.0,-4.0,200,16,,,28.966536,,,TRUE,,,,,,,,,,,,,,,,,,,-2.0,,,,,,,,,METAR,91.0
ENKB 211650Z 27004KT 230V300 9999 SCT029 BKN036 02/M01 Q0987,ENKB,2015-02-21T16:50:00Z,63.12,7.82,2.0,-1.0,270,4,,6.21,29.143702,,,,,,,,,,,SCT,2900,BKN,3600,,,,,VFR,,,,,,,,,,,,METAR,62.0
ENFL 211650Z AUTO 03007KT //// R07///// R25///// -SHRASN ///////// 01/00 Q0989,ENFL,2015-02-21T16:50:00Z,61.57,5.02,1.0,0.0,30,7,,,29.202755,,,TRUE,,,,,,,-SHRA SN,,,,,,,,,,,,,,,,,,,,,METAR,9.0
ENEV 211650Z AUTO 15006KT 9999NDV BKN046/// 01/00 Q0979 RMK WIND 1400FT 16011KT,ENEV,2015-02-21T16:50:00Z,68.52,16.67,1.0,0.0,150,6,,,28.90748,,,TRUE,,,,,,,,,,,,,,,,,,,,,,,,,,,,METAR,26.0
ENAT 211650Z AUTO 13002KT 9999NDV FEW100/// M05/M08 Q0980 RMK WIND 700FT 15012KT,ENAT,2015-02-21T16:50:00Z,69.97,23.37,-5.0,-8.0,130,2,,,28.937008,,,TRUE,,,,,,,,,,,,,,,,,,,,,,,,,,,,METAR,3.0
EGMC 211650Z 31011KT 280V020 9999 FEW009CB SCT022 04/M01 Q1002,EGMC,2015-02-21T16:50:00Z,51.57,0.7,4.0,-1.0,310,11,,6.21,29.586615,,,,,,,,,,,FEW,900,SCT,2200,,,,,VFR,,,,,,,,,,,,METAR,15.0
EGBE 211650Z 32008KT 290V350 9999 VCSH FEW022 SCT031CB 05/01 Q1003,EGBE,2015-02-21T16:50:00Z,52.37,-1.47,5.0,1.0,320,8,,6.21,29.616142,,,,,,,,,,VCSH,FEW,2200,SCT,3100,,,,,VFR,,,,,,,,,,,,METAR,82.0
ENTO 211650Z 21006KT CAVOK 01/M00 Q0990,ENTO,2015-02-21T16:50:00Z,59.2,10.27,1.0,0.0,210,6,,6.21,29.232283,,,,,,,,,,,CAVOK,,,,,,,,VFR,,,,,,,,,,,,METAR,88.0
ENSB 211650Z 12003KT 9999 FEW023 M21/M26 Q0989 RMK WIND 1400FT VRB01KT,ENSB,2015-02-21T16:50:00Z,78.25,15.47,-21.0,-26.0,120,3,,6.21,29.202755,,,,,,,,,,,FEW,2300,,,,,,,VFR,,,,,,,,,,,,METAR,29.0
ENRY 211650Z 18005KT 130V200 9999 BKN007 02/01 Q0990,ENRY,2015-02-21T16:50:00Z,59.37,10.77,2.0,1.0,180,5,,6.21,29.232283,,,,,,,,,,,BKN,700,,,,,,,IFR,,,,,,,,,,,,METAR,53.0
ENRO 211650Z AUTO 11004KT 080V150 9999NDV NCD M04/M09 Q0984,ENRO,2015-02-21T16:50:00Z,62.57,11.33,-4.0,-9.0,110,4,,,29.055119,,,TRUE,,,,,,,,,,,,,,,,,,,,,,,,,,,,METAR,626.0
ENHD 211650Z 17003KT 9999 -SHRA FEW010 SCT016 BKN024 03/01 Q0990 RERA,ENHD,2015-02-21T16:50:00Z,59.35,5.22,3.0,1.0,170,3,,6.21,29.232283,,,,,,,,,,-SHRA,FEW,1000,SCT,1600,BKN,2400,,,MVFR,,,,,,,,,,,,METAR,24.0
ENCN 211650Z 17003KT 9999 FEW015 02/01 Q0991,ENCN,2015-02-21T16:50:00Z,58.2,8.07,2.0,1.0,170,3,,6.21,29.26181,,,,,,,,,,,FEW,1500,,,,,,,VFR,,,,,,,,,,,,METAR,17.0
ENAL 211650Z 29002KT 9999 VCSH FEW025 BKN032 02/M01 Q0988,ENAL,2015-02-21T16:50:00Z,62.57,6.12,2.0,-1.0,290,2,,6.21,29.17323,,,,,,,,,,VCSH,FEW,2500,BKN,3200,,,,,VFR,,,,,,,,,,,,METAR,22.0
BGGH 211650Z 05014KT 9999 SCT080 BKN200 M11/M16 Q0988,BGGH,2015-02-21T16:50:00Z,64.2,-51.68,-11.0,-16.0,50,14,,6.21,29.17323,,,,,,,,,,,SCT,8000,BKN,20000,,,,,VFR,,,,,,,,,,,,METAR,70.0
EDJA 211650Z 26008KT 9999 BKN021 02/M00 Q1000,EDJA,2015-02-21T16:50:00Z,47.98,10.23,2.0,0.0,260,8,,6.21,29.52756,,,,,,,,,,,BKN,2100,,,,,,,MVFR,,,,,,,,,,,,METAR,633.0
LIPZ 211650Z 05008KT 9999 BKN040 09/05 Q1007,LIPZ,2015-02-21T16:50:00Z,45.5,12.35,9.0,5.0,50,8,,6.21,29.734253,,,,,,,,,,,BKN,4000,,,,,,,VFR,,,,,,,,,,,,METAR,6.0
LIPQ 211650Z 00000KT 9999 SCT040 BKN070 10/03 Q1008,LIPQ,2015-02-21T16:50:00Z,45.82,13.47,10.0,3.0,0,0,,6.21,29.763779,,,,,,,,,,,SCT,4000,BKN,7000,,,,,VFR,,,,,,,,,,,,METAR,12.0
LIPE 211650Z 11009KT 9999 FEW040 10/03 Q1005,LIPE,2015-02-21T16:50:00Z,44.52,11.3,10.0,3.0,110,9,,6.21,29.675198,,,,,,,,,,,FEW,4000,,,,,,,VFR,,,,,,,,,,,,METAR,42.0
LIPB 211650Z VRB02KT 3000 DZ BR OVC030 05/04 Q1006,LIPB,2015-02-21T16:50:00Z,46.47,11.32,5.0,4.0,0,2,,1.86,29.704725,,,,,,,,,,DZ BR,OVC,3000,,,,,,,IFR,,,,,,,,,,,,METAR,241.0
LICC 211650Z 14006KT 100V190 4000 -DZ FEW008 SCT010 BKN025 12/11 Q1009 RERA RMK VIS MIN 4000,LICC,2015-02-21T16:50:00Z,37.47,15.05,12.0,11.0,140,6,,2.49,29.793306,,,,,,,,,,-DZ,FEW,800,SCT,1000,BKN,2500,,,IFR,,,,,,,,,,,,METAR,17.0
LIBD 211650Z 18006KT 150V220 9999 FEW040 12/07 Q1009,LIBD,2015-02-21T16:50:00Z,41.12,16.77,12.0,7.0,180,6,,6.21,29.793306,,,,,,,,,,,FEW,4000,,,,,,,VFR,,,,,,,,,,,,METAR,44.0
LIRQ 211650Z 11006KT 9999 SCT050 10/03 Q1005,LIRQ,2015-02-21T16:50:00Z,43.78,11.18,10.0,3.0,110,6,,6.21,29.675198,,,,,,,,,,,SCT,5000,,,,,,,VFR,,,,,,,,,,,,METAR,38.0
LIRN 211650Z 08004KT 050V160 8000 -RA SCT030 BKN050 09/06 Q1008,LIRN,2015-02-21T16:50:00Z,40.88,14.3,9.0,6.0,80,4,,4.97,29.763779,,,,,,,,,,-RA,SCT,3000,BKN,5000,,,,,MVFR,,,,,,,,,,,,METAR,72.0
LIRF 211650Z 11014KT 9999 -DZ SCT035 11/05 Q1005 NOSIG,LIRF,2015-02-21T16:50:00Z,41.78,12.22,11.0,5.0,110,14,,6.21,29.675198,,,,,,TRUE,,,,-DZ,SCT,3500,,,,,,,VFR,,,,,,,,,,,,METAR,3.0
LIML 211650Z 05005KT 3500 BR BKN025 06/06 Q1004 NOSIG,LIML,2015-02-21T16:50:00Z,45.47,9.27,6.0,6.0,50,5,,2.17,29.64567,,,,,,TRUE,,,,BR,BKN,2500,,,,,,,IFR,,,,,,,,,,,,METAR,103.0
LIMJ 211650Z 14021KT 4500 -RA BR FEW012TCU SCT022 BKN035 11/09 Q1002,LIMJ,2015-02-21T16:50:00Z,44.42,8.83,11.0,9.0,140,21,,2.8,29.586615,,,,,,,,,,-RA BR,FEW,1200,SCT,2200,BKN,3500,,,IFR,,,,,,,,,,,,METAR,3.0
LIME 211650Z 03005KT 9999 -RA FEW025 BKN045 05/04 Q1004,LIME,2015-02-21T16:50:00Z,45.67,9.68,5.0,4.0,30,5,,6.21,29.64567,,,,,,,,,,-RA,FEW,2500,BKN,4500,,,,,VFR,,,,,,,,,,,,METAR,237.0
LIMC 211650Z 34010KT 320V020 1800 RA BR BKN006 OVC025 02/02 Q1004 NOSIG,LIMC,2015-02-21T16:50:00Z,45.62,8.72,2.0,2.0,340,10,,1.12,29.64567,,,,,,TRUE,,,,RA BR,BKN,600,OVC,2500,,,,,IFR,,,,,,,,,,,,METAR,211.0
LIEO 211650Z 19006KT 150V220 9999 FEW012 SCT025 11/11 Q1001,LIEO,2015-02-21T16:50:00Z,40.88,9.52,11.0,11.0,190,6,,6.21,29.557087,,,,,,,,,,,FEW,1200,SCT,2500,,,,,VFR,,,,,,,,,,,,METAR,13.0
LIEE 211650Z 31005KT 260V330 9999 FEW010 12/11 Q1002,LIEE,2015-02-21T16:50:00Z,39.25,9.07,12.0,11.0,310,5,,6.21,29.586615,,,,,,,,,,,FEW,1000,,,,,,,VFR,,,,,,,,,,,,METAR,4.0
LIEA 211650Z 20006KT 7000 -RA FEW010 BKN020 10/09 Q1001,LIEA,2015-02-21T16:50:00Z,40.62,8.27,10.0,9.0,200,6,,4.35,29.557087,,,,,,,,,,-RA,FEW,1000,BKN,2000,,,,,MVFR,,,,,,,,,,,,METAR,23.0
KQRB 211650Z 15002KT 9999 FEW010 BKN130 27/24 A2983 RMK AO2A SLP100 T02690239,KQRB,2015-02-21T16:50:00Z,100.65,-1000.65,26.9,23.9,150,2,,6.21,29.828741,1010.0,,,TRUE,,,,,,,FEW,1000,BKN,13000,,,,,VFR,,,,,,,,,,,,METAR,999.0
ENZV 211650Z 13006KT 9999 VCSH SCT014CB BKN028 03/02 Q0991 TEMPO 4000 SHRASN BKN012CB,ENZV,2015-02-21T16:50:00Z,58.87,5.62,3.0,2.0,130,6,,6.21,29.26181,,,,,,,,,,VCSH,SCT,1400,BKN,2800,,,,,MVFR,,,,,,,,,,,,METAR,9.0
ENVA 211650Z 22021KT 8000 SHRA FEW017 BKN050 03/00 Q0986 RMK WIND 670FT 22020G30KT,ENVA,2015-02-21T16:50:00Z,63.47,10.92,3.0,0.0,220,21,,4.97,29.114174,,,,,,,,,,SHRA,FEW,1700,BKN,5000,,,,,MVFR,,,,,,,,,,,,METAR,17.0
ENOL 211650Z 29014KT 9999 -SHRA SCT012CB BKN020 04/01 Q0985 TEMPO 3000 SHSNRAGS VV012,ENOL,2015-02-21T16:50:00Z,63.7,9.58,4.0,1.0,290,14,,6.21,29.084646,,,,,,,,,,-SHRA,SCT,1200,BKN,2000,,,,,MVFR,,,,,,,,,,,,METAR,7.0
ENGM 211650Z 00000KT CAVOK M00/M02 Q0989 NOSIG,ENGM,2015-02-21T16:50:00Z,60.2,11.1,0.0,-2.0,0,0,,6.21,29.202755,,,,,,TRUE,,,,,CAVOK,,,,,,,,VFR,,,,,,,,,,,,METAR,204.0
ENDU 211650Z VRB02KT 9999 FEW030 SCT050 BKN200 M02/M04 Q0979,ENDU,2015-02-21T16:50:00Z,69.03,18.55,-2.0,-4.0,0,2,,6.21,28.90748,,,,,,,,,,,FEW,3000,SCT,5000,BKN,20000,,,VFR,,,,,,,,,,,,METAR,79.0
ENBO 211650Z 14003KT 9999 -SHRA FEW008 BKN018 02/01 Q0980,ENBO,2015-02-21T16:50:00Z,67.27,14.37,2.0,1.0,140,3,,6.21,28.937008,,,,,,,,,,-SHRA,FEW,800,BKN,1800,,,,,MVFR,,,,,,,,,,,,METAR,13.0
ENBR 211650Z 15008KT 9999 -SHRA FEW006 SCT010CB BKN013 03/01 Q0989 TEMPO 3000 SHRASN BKN009CB RMK WIND 1200FT 17012KT,ENBR,2015-02-21T16:50:00Z,60.28,5.22,3.0,1.0,150,8,,6.21,29.202755,,,,,,,,,,-SHRA,FEW,600,SCT,1000,BKN,1300,,,MVFR,,,,,,,,,,,,METAR,50.0
ENAN 211650Z 19010KT 9999 FEW015 BKN040 02/M00 Q0977,ENAN,2015-02-21T16:50:00Z,69.28,16.13,2.0,0.0,190,10,,6.21,28.848425,,,,,,,,,,,FEW,1500,BKN,4000,,,,,VFR,,,,,,,,,,,,METAR,14.0
ENLA 211650Z AUTO 28023KT 9999NDV FEW023/// 05/01 Q0992 W///S4,ENLA,2015-02-21T16:50:00Z,59.1,2.83,5.0,1.0,280,23,,,29.291338,,,TRUE,,,,,,,,,,,,,,,,,,,,,,,,,,,,METAR,4.0
ENVH 211650Z AUTO 28022KT 9999NDV FEW029/// 05/M02 Q0993 W///S4,ENVH,2015-02-21T16:50:00Z,56.27,3.38,5.0,-2.0,280,22,,,29.320866,,,TRUE,,,,,,,,,,,,,,,,,,,,,,,,,,,,METAR,4.0
ENHM 211650Z 01020KT 9999 -SHRA FEW010 SCT020 BKN050 03/02 Q0990 RESHRA W07/S5,ENHM,2015-02-21T16:50:00Z,59.57,2.23,3.0,2.0,10,20,,6.21,29.232283,,,,,,,,,,-SHRA,FEW,1000,SCT,2000,BKN,5000,,,VFR,,,,,,,,,,,,METAR,10.0
ENQA 211650Z AUTO 01026KT 9999NDV -RA BKN011/// BKN065/// OVC080/// 03/01 Q0989 RERA W04/S5,ENQA,2015-02-21T16:50:00Z,60.65,3.72,3.0,1.0,10,26,,,29.202755,,,TRUE,,,,,,,-RA,,,,,,,,,,,,,,,,,,,,,METAR,20.0
ENQC 211650Z AUTO 34024KT 9999NDV -SHRA BKN012/// 03/01 Q0989 W///S5,ENQC,2015-02-21T16:50:00Z,60.88,3.62,3.0,1.0,340,24,,,29.202755,,,TRUE,,,,,,,-SHRA,,,,,,,,,,,,,,,,,,,,,METAR,20.0
ENSE 211650Z AUTO 34027KT 9999NDV FEW040/// SCT050/// 03/M04 Q0991 W///S6,ENSE,2015-02-21T16:50:00Z,61.45,2.15,3.0,-4.0,340,27,,,29.26181,,,TRUE,,,,,,,,,,,,,,,,,,,,,,,,,,,,METAR,10.0
ENQR 211650Z AUTO 32027KT 9999NDV FEW028/// BKN048/// 03/M03 Q0991 W///S6,ENQR,2015-02-21T16:50:00Z,61.35,2.22,3.0,-3.0,320,27,,,29.26181,,,TRUE,,,,,,,,,,,,,,,,,,,,,,,,,,,,METAR,10.0
ENNE 211650Z 32025KT 9999 VCSH FEW014TCU SCT025 04/M01 Q0981 W07/S6,ENNE,2015-02-21T16:50:00Z,66.03,8.08,4.0,-1.0,320,25,,6.21,28.966536,,,,,,,,,,VCSH,FEW,1400,SCT,2500,,,,,VFR,,,,,,,,,,,,METAR,10.0
LGRP 211650Z VRB02KT CAVOK 11/03 Q1014 NOSIG,LGRP,2015-02-21T16:50:00Z,36.4,28.08,11.0,3.0,0,2,,6.21,29.940945,,,,,,TRUE,,,,,CAVOK,,,,,,,,VFR,,,,,,,,,,,,METAR,5.0
EEEI 211650Z 14005KT 7000 FEW026 BKN034 02/01 Q0996 R24/190095 NOSIG,EEEI,2015-02-21T16:50:00Z,59.27,24.2,2.0,1.0,140,5,,4.35,29.409449,,,,,,TRUE,,,,,FEW,2600,BKN,3400,,,,,MVFR,,,,,,,,,,,,METAR,20.0
EFKT 211650Z 19011KT 9999 OVC009 M02/M03 Q0983 R16/71//95,EFKT,2015-02-21T16:50:00Z,67.7,24.85,-2.0,-3.0,190,11,,6.21,29.02559,,,,,,,,,,,OVC,900,,,,,,,IFR,,,,,,,,,,,,METAR,643.0
EFKS 211650Z AUTO 20010KT 170V230 9999 OVC015 M00/M01 Q0988,EFKS,2015-02-21T16:50:00Z,66.0,29.23,0.0,-1.0,200,10,,6.21,29.17323,,,TRUE,,,,,,,,OVC,1500,,,,,,,MVFR,,,,,,,,,,,,METAR,263.0
EFKI 211650Z AUTO 20006KT 130V250 9999 OVC033 01/M01 Q0991,EFKI,2015-02-21T16:50:00Z,64.27,27.67,1.0,-1.0,200,6,,6.21,29.26181,,,TRUE,,,,,,,,OVC,3300,,,,,,,VFR,,,,,,,,,,,,METAR,136.0
EFKE 211650Z AUTO 20013KT 9999 OVC011 00/M01 Q0987,EFKE,2015-02-21T16:50:00Z,65.77,24.57,0.0,-1.0,200,13,,6.21,29.143702,,,TRUE,,,,,,,,OVC,1100,,,,,,,MVFR,,,,,,,,,,,,METAR,15.0
EFIV 211650Z 19012KT 160V220 9999 BKN014 M01/M04 Q0982,EFIV,2015-02-21T16:50:00Z,68.62,27.42,-1.0,-4.0,190,12,,6.21,28.996063,,,,,,,,,,,BKN,1400,,,,,,,MVFR,,,,,,,,,,,,METAR,148.0
EFET 211650Z AUTO 19004KT 150V220 CAVOK M06/M07 Q0981,EFET,2015-02-21T16:50:00Z,68.37,23.43,-6.0,-7.0,190,4,,6.21,28.966536,,,TRUE,,,,,,,,CAVOK,,,,,,,,VFR,,,,,,,,,,,,METAR,306.0
KSTK 211650Z AUTO 15003KT 10SM SCT100 BKN120 01/M02 A3000 RMK AO2,KSTK,2015-02-21T16:50:00Z,40.62,-103.27,1.0,-2.0,150,3,,10.0,30.0,,,TRUE,TRUE,,,,,,,SCT,10000,BKN,12000,,,,,VFR,,,,,,,,,,,,METAR,1231.0
KCGS 211650Z AUTO 18005KT 1/2SM OVC004 M06/M07 A3040 RMK AO1,KCGS,2015-02-21T16:50:00Z,38.98,-76.92,-6.0,-7.0,180,5,,0.5,30.398623,,,TRUE,TRUE,,,,,,,OVC,400,,,,,,,LIFR,,,,,,,,,,,,METAR,15.0
KEDJ 211650Z AUTO 34005KT 1SM BKN002 OVC008 M05/M06 A2991 RMK AO1 P0001,KEDJ,2015-02-21T16:50:00Z,40.37,-83.82,-5.0,-6.0,340,5,,1.0,29.911417,,,TRUE,TRUE,,,,,,,BKN,200,OVC,800,,,,,LIFR,,,,,,0.01,,,,,,SPECI,342.0
KFTG 211650Z 07007KT 10SM OVC011 00/M01 A2996,KFTG,2015-02-21T16:50:00Z,39.78,-104.55,0.0,-1.0,70,7,,10.0,29.958662,,,,,,,,,,,OVC,1100,,,,,,,MVFR,,,,,,,,,,,,METAR,1675.0
KTRK 211650Z 00000KT 10SM SKC M01/M04 A3005 RMK NOSPECI,KTRK,2015-02-21T16:50:00Z,39.32,-120.12,-1.0,-4.0,0,0,,10.0,30.050198,,,,,,,,,,,SKC,,,,,,,,VFR,,,,,,,,,,,,METAR,1798.0
OAMS 211650Z 08013KT 9999 SCT060 OVC100 17/08 Q1010 BLU BLU,OAMS,2015-02-21T16:50:00Z,36.7,67.2,17.0,8.0,80,13,,6.21,29.822834,,,,,,,,,,,SCT,6000,OVC,10000,,,,,VFR,,,,,,,,,,,,METAR,378.0
KQBC 211650Z AUTO VRB02KT 9999 BKN085 BKN150 25/22 A2984 RMK AO2 SLP104 T02510222,KQBC,2015-02-21T16:50:00Z,,,25.1,22.2,0,2,,6.21,29.840551,1010.4,,TRUE,TRUE,,,,,,,BKN,8500,BKN,15000,,,,,VFR,,,,,,,,,,,,METAR,
KSYM 211650Z AUTO 18006KT 3SM -SN SCT007 BKN013 01/00 A2999 RMK AO2 P0007,KSYM,2015-02-21T16:50:00Z,38.22,-83.58,1.0,0.0,180,6,,3.0,29.991142,,,TRUE,TRUE,,,,,,-SN,SCT,700,BKN,1300,,,,,MVFR,,,,,,0.07,,,,,,METAR,313.0
KSCH 211650Z 16009G16KT 10SM OVC095 M08/M21 A3026,KSCH,2015-02-21T16:50:00Z,42.85,-73.92,-8.0,-21.0,160,9,16,10.0,30.259842,,,,,,,,,,,OVC,9500,,,,,,,VFR,,,,,,,,,,,,METAR,115.0
KISM 211650Z 16008KT 10SM SCT060 20/09 A3032,KISM,2015-02-21T16:50:00Z,28.28,-81.43,20.0,9.0,160,8,,10.0,30.318897,,,,,,,,,,,SCT,6000,,,,,,,VFR,,,,,,,,,,,,METAR,25.0
KVWU 211650Z AUTO 25003KT 10SM CLR M18/M21 A3013 RMK AO2,KVWU,2015-02-21T16:50:00Z,48.15,-94.52,-18.0,-21.0,250,3,,10.0,30.129921,,,TRUE,TRUE,,,,,,,CLR,,,,,,,,VFR,,,,,,,,,,,,METAR,360.0
LIQN 211650Z 00000KT 9999 SCT048 08/00 Q1005,LIQN,2015-02-21T16:50:00Z,42.42,12.83,8.0,0.0,0,0,,6.21,29.675198,,,,,,,,,,,SCT,4800,,,,,,,VFR,,,,,,,,,,,,METAR,389.0
LIPY 211650Z 13005KT 090V190 9999 SCT050 10/05 Q1007,LIPY,2015-02-21T16:50:00Z,43.62,13.37,10.0,5.0,130,5,,6.21,29.734253,,,,,,,,,,,SCT,5000,,,,,,,VFR,,,,,,,,,,,,METAR,10.0
LIPO 211650Z 07010KT 8000 FEW030 BKN060 07/05 Q1005,LIPO,2015-02-21T16:50:00Z,45.42,10.33,7.0,5.0,70,10,,4.97,29.675198,,,,,,,,,,,FEW,3000,BKN,6000,,,,,MVFR,,,,,,,,,,,,METAR,109.0
LIMZ 211650Z 34008KT 2000 -RA BR SCT004 OVC007 03/02 Q1003,LIMZ,2015-02-21T16:50:00Z,44.53,7.62,3.0,2.0,340,8,,1.24,29.616142,,,,,,,,,,-RA BR,SCT,400,OVC,700,,,,,IFR,,,,,,,,,,,,METAR,380.0
LIMP 211650Z 05005KT 360V090 2500 BR BKN010 OVC025 07/05 Q1004,LIMP,2015-02-21T16:50:00Z,44.82,10.3,7.0,5.0,50,5,,1.55,29.64567,,,,,,,,,,BR,BKN,1000,OVC,2500,,,,,IFR,,,,,,,,,,,,METAR,50.0
LIMG 211650Z 34010KT 9999 RA SCT020 OVC040 07/06 Q1002,LIMG,2015-02-21T16:50:00Z,44.03,8.12,7.0,6.0,340,10,,6.21,29.586615,,,,,,,,,,RA,SCT,2000,OVC,4000,,,,,VFR,,,,,,,,,,,,METAR,49.0
LIRZ 211650Z 19005KT 9999 BKN060 09/01 Q1006,LIRZ,2015-02-21T16:50:00Z,43.1,12.5,9.0,1.0,190,5,,6.21,29.704725,,,,,,,,,,,BKN,6000,,,,,,,VFR,,,,,,,,,,,,METAR,205.0
LIBG 211650Z 16010KT 9999 -RA SCT020 BKN028 11/09 Q1009,LIBG,2015-02-21T16:50:00Z,40.52,17.38,11.0,9.0,160,10,,6.21,29.793306,,,,,,,,,,-RA,SCT,2000,BKN,2800,,,,,MVFR,,,,,,,,,,,,METAR,69.0
LIBC 211650Z 19012KT 8000 -RA SCT020 SCT040 11/10 Q1012,LIBC,2015-02-21T16:50:00Z,39.0,17.07,11.0,10.0,190,12,,4.97,29.88189,,,,,,,,,,-RA,SCT,2000,SCT,4000,,,,,MVFR,,,,,,,,,,,,METAR,161.0
KBOW 211650Z 13010G20KT 10SM SCT020 BKN200 20/07 A3031,KBOW,2015-02-21T16:50:00Z,27.93,-81.77,20.0,7.0,130,10,20,10.0,30.31004,,,,,,,,,,,SCT,2000,BKN,20000,,,,,VFR,,,,,,,,,,,,METAR,39.0
EDGS 211650Z 22004KT 190V250 9999 FEW021 00/M00 Q0999,EDGS,2015-02-21T16:50:00Z,50.7,8.08,0.0,0.0,220,4,,6.21,29.498032,,,,,,,,,,,FEW,2100,,,,,,,VFR,,,,,,,,,,,,METAR,602.0
MMPR 211650Z 00000KT 15SM FEW300 26/16 A2997 RMK 8/004,MMPR,2015-02-21T16:50:00Z,20.67,-105.25,26.0,16.0,0,0,,15.0,29.970472,,,,,,,,,,,FEW,30000,,,,,,,VFR,,,,,,,,,,,,METAR,6.0
MMGL 211650Z 36003KT 10SM SKC 21/07 A3023,MMGL,2015-02-21T16:50:00Z,20.52,-103.32,21.0,7.0,360,3,,10.0,30.230314,,,,,,,,,,,SKC,,,,,,,,VFR,,,,,,,,,,,,METAR,1528.0
EGXW 211650Z 30009KT 9999 FEW040 06/M02 Q1000 BLU NOSIG,EGXW,2015-02-21T16:50:00Z,53.18,-0.52,6.0,-2.0,300,9,,6.21,29.52756,,,,,,TRUE,,,,,FEW,4000,,,,,,,VFR,,,,,,,,,,,,METAR,70.0
EGXV 211650Z AUTO 30010KT 9999 NCD 06/M03 Q0999,EGXV,2015-02-21T16:50:00Z,53.87,-0.45,6.0,-3.0,300,10,,6.21,29.498032,,,TRUE,,,,,,,,,,,,,,,,,,,,,,,,,,,,METAR,6.0
EGXE 211650Z 33011KT 9999 FEW040 SCT060 04/M00 Q1000 BLU NOSIG,EGXE,2015-02-21T16:50:00Z,54.28,-1.52,4.0,0.0,330,11,,6.21,29.52756,,,,,,TRUE,,,,,FEW,4000,SCT,6000,,,,,VFR,,,,,,,,,,,,METAR,40.0
EGXC 211650Z 29009KT 9999 FEW032 06/M02 Q1000 BLU,EGXC,2015-02-21T16:50:00Z,53.1,-0.17,6.0,-2.0,290,9,,6.21,29.52756,,,,,,,,,,,FEW,3200,,,,,,,VFR,,,,,,,,,,,,METAR,7.0
EGWU 211650Z 32011KT 9999 FEW025CB 06/M02 Q1003 BLU TEMPO -SHRA SCT022 WHT,EGWU,2015-02-21T16:50:00Z,51.55,-0.42,6.0,-2.0,320,11,,6.21,29.616142,,,,,,,,,,,FEW,2500,,,,,,,VFR,,,,,,,,,,,,METAR,40.0
EGVN 211650Z 33003KT 9999 -SHRA FEW020CB SCT038 05/01 Q1003 BLU NOSIG,EGVN,2015-02-21T16:50:00Z,51.77,-1.58,5.0,1.0,330,3,,6.21,29.616142,,,,,,TRUE,,,,-SHRA,FEW,2000,SCT,3800,,,,,VFR,,,,,,,,,,,,METAR,88.0
EGUB 211650Z 36004KT 9999 FEW012CB BKN070 04/01 Q1003 BLU TEMPO 7000 -SHRA SCT014 GRN,EGUB,2015-02-21T16:50:00Z,51.62,-1.07,4.0,1.0,360,4,,6.21,29.616142,,,,,,,,,,,FEW,1200,BKN,7000,,,,,VFR,,,,,,,,,,,,METAR,63.0
EGQS 211650Z 01012KT 9999 FEW025 BKN050 04/02 Q0998 BLU,EGQS,2015-02-21T16:50:00Z,57.72,-3.32,4.0,2.0,10,12,,6.21,29.468504,,,,,,,,,,,FEW,2500,BKN,5000,,,,,VFR,,,,,,,,,,,,METAR,13.0
MUCF 211650Z 10012KT 060V130 9000 FEW025 BKN070 25/16 Q1021,MUCF,2015-02-21T16:50:00Z,22.13,-80.4,25.0,16.0,100,12,,5.59,30.147638,,,,,,,,,,,FEW,2500,BKN,7000,,,,,VFR,,,,,,,,,,,,METAR,39.0
MUCU 211650Z 20006KT 160V230 9999 SCT020 27/16 Q1020,MUCU,2015-02-21T16:50:00Z,19.97,-75.83,27.0,16.0,200,6,,6.21,30.11811,,,,,,,,,,,SCT,2000,,,,,,,VFR,,,,,,,,,,,,METAR,76.0
MUSC 211650Z 08019KT 9000 BKN025 23/14 Q1023,MUSC,2015-02-21T16:50:00Z,22.5,-79.95,23.0,14.0,80,19,,5.59,30.206694,,,,,,,,,,,BKN,2500,,,,,,,MVFR,,,,,,,,,,,,METAR,103.0
LXGB 211650Z 22010KT 9000 HZ FEW012 SCT024 14/12 Q1011 BECMG SCT025,LXGB,2015-02-21T16:50:00Z,36.13,-5.33,14.0,12.0,220,10,,5.59,29.852362,,,,,,,,,,HZ,FEW,1200,SCT,2400,,,,,VFR,,,,,,,,,,,,METAR,5.0
KOQU 211650Z 23019KT 10SM OVC250 M02/M09 A3044,KOQU,2015-02-21T16:50:00Z,41.6,-71.42,-2.0,-9.0,230,19,,10.0,30.43996,,,,,,,,,,,OVC,25000,,,,,,,VFR,,,,,,,,,,,,METAR,6.0
LICR 211650Z 12017G32KT 9999 -DZ BKN030 13/09 Q1009,LICR,2015-02-21T16:50:00Z,38.07,15.65,13.0,9.0,120,17,32,6.21,29.793306,,,,,,,,,,-DZ,BKN,3000,,,,,,,MVFR,,,,,,,,,,,,METAR,21.0
LICD 211650Z 15019KT 7000 -DZ SCT035 14/12 Q1006,LICD,2015-02-21T16:50:00Z,35.5,12.62,14.0,12.0,150,19,,4.35,29.704725,,,,,,,,,,-DZ,SCT,3500,,,,,,,MVFR,,,,,,,,,,,,METAR,20.0
LICB 211650Z 15014G34KT 8000 -RA FEW015 BKN040 12/10 Q1008,LICB,2015-02-21T16:50:00Z,37.0,14.62,12.0,10.0,150,14,34,4.97,29.763779,,,,,,,,,,-RA,FEW,1500,BKN,4000,,,,,MVFR,,,,,,,,,,,,METAR,220.0
LICA 211650Z 07015KT 9000 FEW020 BKN045 11/09 Q1012,LICA,2015-02-21T16:50:00Z,38.88,16.25,11.0,9.0,70,15,,5.59,29.88189,,,,,,,,,,,FEW,2000,BKN,4500,,,,,VFR,,,,,,,,,,,,METAR,15.0
TJIG 211649Z 09012KT 10SM SCT025 BKN070 28/22 A3012 RMK RY09 IN USE ATIS G,TJIG,2015-02-21T16:49:00Z,18.45,-66.1,28.0,22.0,90,12,,10.0,30.121063,,,,,,,,,,,SCT,2500,BKN,7000,,,,,VFR,,,,,,,,,,,,SPECI,3.0
LSZL 211649Z AUTO 00000KT 1900NDV SN SCT002 00/M00 Q1005 RMK AMB,LSZL,2015-02-21T16:49:00Z,46.17,8.88,0.0,0.0,0,0,,,29.675198,,,TRUE,,,,,,,SN,SCT,200,,,,,,,,,,,,,,,,,,,METAR,600.0
MMMX 211649Z 08004KT 6SM SKC 21/08 A3032 NOSIG RMK HZY DSNT CU E SSW,MMMX,2015-02-21T16:49:00Z,19.42,-99.08,21.0,8.0,80,4,,6.0,30.318897,,,,,,TRUE,,,,,SKC,,,,,,,,VFR,,,,,,,,,,,,METAR,2238.0
MMSL 211649Z 30010KT 10SM FEW120 26/08 A3003 RMK 8/030 HZY DUS MSGTX MMSD,MMSL,2015-02-21T16:49:00Z,22.95,-109.93,26.0,8.0,300,10,,10.0,30.029528,,,,,,,,,,,FEW,12000,,,,,,,VFR,,,,,,,,,,,,METAR,140.0
MMCN 211649Z 13009KT 10SM FEW200 25/08 A2992 RMK 8/001 DSNT AC W,MMCN,2015-02-21T16:49:00Z,27.4,-109.83,25.0,8.0,130,9,,10.0,29.920275,,,,,,,,,,,FEW,20000,,,,,,,VFR,,,,,,,,,,,,METAR,43.0
KCDD 211649Z AUTO 34004KT 10SM BKN018 M17/M21 A3008 RMK AO2,KCDD,2015-02-21T16:49:00Z,48.27,-92.48,-17.0,-21.0,340,4,,10.0,30.079725,,,TRUE,TRUE,,,,,,,BKN,1800,,,,,,,MVFR,,,,,,,,,,,,SPECI,341.0
MMMM 211649Z 00000KT 6SM SKC 21/12 A3026 RMK HZY SC,MMMM,2015-02-21T16:49:00Z,19.85,-101.02,21.0,12.0,0,0,,6.0,30.259842,,,,,,,,,,,SKC,,,,,,,,VFR,,,,,,,,,,,,METAR,1833.0
MMIA 211649Z 05006KT 8SM FEW220 25/17 A3008 RMK 6//// 8/001 VA N AND OVR STN,MMIA,2015-02-21T16:49:00Z,19.27,-103.57,25.0,17.0,50,6,,8.0,30.079725,,,,,,,,,,,FEW,22000,,,,,,,VFR,,,,,,,,,,,,METAR,723.0
MMCZ 211648Z 110011KT 8SM SCT015 23/17 A3011 RMK 8/100 RTS,MMCZ,2015-02-21T16:48:00Z,20.52,-86.92,23.0,17.0,110,11,,8.0,30.109253,,,,,,,,,,,SCT,1500,,,,,,,VFR,,,,,,,,,,,,METAR,5.0
KASG 211648Z 07009KT 10SM BKN011 05/03 A2995,KASG,2015-02-21T16:48:00Z,36.17,-94.12,5.0,3.0,70,9,,10.0,29.949802,,,,,,,,,,,BKN,1100,,,,,,,MVFR,,,,,,,,,,,,METAR,412.0
KGTU 211648Z 21010G16KT 10SM BKN024 22/15 A2987,KGTU,2015-02-21T16:48:00Z,30.68,-97.68,22.0,15.0,210,10,16,10.0,29.870079,,,,,,,,,,,BKN,2400,,,,,,,MVFR,,,,,,,,,,,,METAR,240.0
KJDN 211648Z AUTO 34013KT M09/M13 A3031 RMK AO1 SLP306 T10891128,KJDN,2015-02-21T16:48:00Z,47.33,-106.95,-8.9,-12.8,340,13,,,30.31004,1030.6,,TRUE,TRUE,,,,,,,,,,,,,,,,,,,,,,,,,,,METAR,801.0
KHZX 211648Z AUTO 32008KT 10SM BKN022 M12/M16 A3005 RMK AO2,KHZX,2015-02-21T16:48:00Z,46.62,-93.32,-12.0,-16.0,320,8,,10.0,30.050198,,,TRUE,TRUE,,,,,,,BKN,2200,,,,,,,MVFR,,,,,,,,,,,,SPECI,374.0
KIWA 211647Z 12007KT 45SM BKN250 18/05 A2993,KIWA,2015-02-21T16:47:00Z,33.3,-111.65,18.0,5.0,120,7,,45.0,29.929134,,,,,,,,,,,BKN,25000,,,,,,,VFR,,,,,,,,,,,,METAR,412.0
KGYH 211647Z 25005KT 10SM SCT110 03/M11 A3033,KGYH,2015-02-21T16:47:00Z,34.75,-82.38,3.0,-11.0,250,5,,10.0,30.33071,,,,,,,,,,,SCT,11000,,,,,,,VFR,,,,,,,,,,,,METAR,292.0
KCHD 211647Z VRB04KT 40SM BKN200 17/05 A2992,KCHD,2015-02-21T16:47:00Z,33.27,-111.82,17.0,5.0,0,4,,40.0,29.920275,,,,,,,,,,,BKN,20000,,,,,,,VFR,,,,,,,,,,,,METAR,379.0
KGYR 211647Z 02006KT 10SM BKN250 17/03 A2993,KGYR,2015-02-21T16:47:00Z,33.42,-112.37,17.0,3.0,20,6,,10.0,29.929134,,,,,,,,,,,BKN,25000,,,,,,,VFR,,,,,,,,,,,,METAR,295.0
KHUM 211647Z 17012G20KT 7SM OVC080 19/13 A3010 RMK ATIS T VA/RY18...MS,KHUM,2015-02-21T16:47:00Z,29.57,-90.67,19.0,13.0,170,12,20,7.0,30.100393,,,,,,,,,,,OVC,8000,,,,,,,VFR,,,,,,,,,,,,METAR,3.0
KHYI 211647Z 19016G20KT 7SM BKN025 BKN033 22/16 A2990,KHYI,2015-02-21T16:47:00Z,29.88,-97.87,22.0,16.0,190,16,20,7.0,29.899607,,,,,,,,,,,BKN,2500,BKN,3300,,,,,MVFR,,,,,,,,,,,,METAR,182.0
KCQT 211647Z AUTO VRB03KT 6SM HZ OVC037 16/10 A3000 RMK AO2 SLP157 T01610100,KCQT,2015-02-21T16:47:00Z,34.02,-118.28,16.1,10.0,0,3,,6.0,30.0,1015.7,,TRUE,TRUE,,,,,,HZ,OVC,3700,,,,,,,VFR,,,,,,,,,,,,METAR,56.0
KBBG 211647Z 33004KT 10SM BKN004 01/00 A2994,KBBG,2015-02-21T16:47:00Z,36.53,-93.2,1.0,0.0,330,4,,10.0,29.940945,,,,,,,,,,,BKN,400,,,,,,,LIFR,,,,,,,,,,,,METAR,397.0
KTIX 211647Z 12010KT 7SM BKN046 19/12 A3034,KTIX,2015-02-21T16:47:00Z,28.5,-80.8,19.0,12.0,120,10,,7.0,30.339567,,,,,,,,,,,BKN,4600,,,,,,,VFR,,,,,,,,,,,,METAR,11.0
KCIC 211647Z 10005KT 1/4 SM FG VV002 07/07 A2999,KCIC,2015-02-21T16:47:00Z,39.78,-121.83,7.0,7.0,100,5,,,29.991142,,,,,,,,,,FG,OVX,0,,,,,,,LIFR,,,,,,,,,,,200,METAR,73.0
KFWS 211647Z 34012KT 10SM OVC018 11/07 A2996,KFWS,2015-02-21T16:47:00Z,32.57,-97.3,11.0,7.0,340,12,,10.0,29.958662,,,,,,,,,,,OVC,1800,,,,,,,MVFR,,,,,,,,,,,,METAR,208.0
KPAO 211647Z VRB04KT 30SM SKC 14/12 A2997 RMK CRANE APX 1/2SM SOUTH SOUTH WEST OF PAO @ 100 AGL,KPAO,2015-02-21T16:47:00Z,37.47,-122.12,14.0,12.0,0,4,,30.0,29.970472,,,,,,,,,,,SKC,,,,,,,,VFR,,,,,,,,,,,,METAR,2.0
MMMA 211647Z 15018KT 6SM BKN010TCU 23/19 A2993 RMK 8/200 HZ BLDU,MMMA,2015-02-21T16:47:00Z,25.77,-97.52,23.0,19.0,150,18,,6.0,29.929134,,,,,,,,,,,BKN,1000,,,,,,,MVFR,,,,,,,,,,,,METAR,8.0
EBDT 211647Z AUTO VRB02KT 9999 FEW012/// BKN060/// 03/02 Q1001 BLU,EBDT,2015-02-21T16:47:00Z,51.02,5.07,3.0,2.0,0,2,,6.21,29.557087,,,TRUE,,,,,,,,,,,,,,,,,,,,,,,,,,,,SPECI,54.0
KSQL 211647Z 00000KT 10SM FEW007 SCT200 14/12 A2998,KSQL,2015-02-21T16:47:00Z,37.52,-122.25,14.0,12.0,0,0,,10.0,29.97933,,,,,,,,,,,FEW,700,SCT,20000,,,,,VFR,,,,,,,,,,,,METAR,1.0
KEVB 211647Z 08006KT 10SM BKN065 20/10 A3034,KEVB,2015-02-21T16:47:00Z,29.05,-80.95,20.0,10.0,80,6,,10.0,30.339567,,,,,,,,,,,BKN,6500,,,,,,,VFR,,,,,,,,,,,,METAR,3.0
MMVR 211647Z 12005KT 5SM FEW010 25/16 A2996 RMK 8/100 HZY,MMVR,2015-02-21T16:47:00Z,19.15,-96.18,25.0,16.0,120,5,,5.0,29.958662,,,,,,,,,,,FEW,1000,,,,,,,MVFR,,,,,,,,,,,,METAR,16.0
MMMD 211647Z 11016KT 7SM SKC 27/15 A3007,MMMD,2015-02-21T16:47:00Z,20.95,-89.65,27.0,15.0,110,16,,7.0,30.070866,,,,,,,,,,,SKC,,,,,,,,VFR,,,,,,,,,,,,METAR,10.0
KRYY 211647Z 14008G15KT 10SM OVC075 04/M05 A3024,KRYY,2015-02-21T16:47:00Z,34.02,-84.6,4.0,-5.0,140,8,15,10.0,30.239174,,,,,,,,,,,OVC,7500,,,,,,,VFR,,,,,,,,,,,,METAR,317.0
KADS 211647Z 33012G18KT 12SM OVC016 10/04 A2996,KADS,2015-02-21T16:47:00Z,32.97,-96.82,10.0,4.0,330,12,18,12.0,29.958662,,,,,,,,,,,OVC,1600,,,,,,,MVFR,,,,,,,,,,,,METAR,196.0
KBVI 211647Z 15005KT 1 1/2SM -SN OVC012 M04/M06 A2995,KBVI,2015-02-21T16:47:00Z,40.77,-80.4,-4.0,-6.0,150,5,,1.5,29.949802,,,,,,,,,,-SN,OVC,1200,,,,,,,IFR,,,,,,,,,,,,METAR,382.0
KSUN 211647Z 32006KT 10SM BKN110 M01/M08 A2999,KSUN,2015-02-21T16:47:00Z,43.5,-114.28,-1.0,-8.0,320,6,,10.0,29.991142,,,,,,,,,,,BKN,11000,,,,,,,VFR,,,,,,,,,,,,METAR,1620.0
KEMT 211646Z VRB03KT 8SM SCT036 OVC045 15/09 A3003,KEMT,2015-02-21T16:46:00Z,34.07,-118.02,15.0,9.0,0,3,,8.0,30.029528,,,,,,,,,,,SCT,3600,OVC,4500,,,,,VFR,,,,,,,,,,,,METAR,90.0
MMRX 211646Z 16014KT 6SM SCT015 SCT120 24/15 A2989 RMK 8/550 BLDU,MMRX,2015-02-21T16:46:00Z,26.02,-98.22,24.0,15.0,160,14,,6.0,29.890747,,,,,,,,,,,SCT,1500,SCT,12000,,,,,VFR,,,,,,,,,,,,METAR,39.0
KSBD 211646Z 00000KT 1SM BR OVC015 12/10 A3002,KSBD,2015-02-21T16:46:00Z,34.08,-117.25,12.0,10.0,0,0,,1.0,30.02067,,,,,,,,,,BR,OVC,1500,,,,,,,IFR,,,,,,,,,,,,METAR,353.0
MMZC 211646Z 00000KT 10SM SKC 21/00 A3028,MMZC,2015-02-21T16:46:00Z,22.9,-102.68,21.0,0.0,0,0,,10.0,30.280512,,,,,,,,,,,SKC,,,,,,,,VFR,,,,,,,,,,,,METAR,2177.0
KRYN 211645Z 10004KT 10SM CLR 19/06 A2997,KRYN,2015-02-21T16:45:00Z,32.15,-111.17,19.0,6.0,100,4,,10.0,29.970472,,,,,,,,,,,CLR,,,,,,,,VFR,,,,,,,,,,,,METAR,737.0
KUES 211645Z 31007KT 7SM OVC022 M05/M09 A2993,KUES,2015-02-21T16:45:00Z,43.05,-88.25,-5.0,-9.0,310,7,,7.0,29.929134,,,,,,,,,,,OVC,2200,,,,,,,MVFR,,,,,,,,,,,,METAR,278.0
LHKE 211645Z 21006KT CAVOK 08/M03 Q1009 NOSIG RMK BLU,LHKE,2015-02-21T16:45:00Z,46.92,19.75,8.0,-3.0,210,6,,6.21,29.793306,,,,,,TRUE,,,,,CAVOK,,,,,,,,VFR,,,,,,,,,,,,METAR,115.0
KMTN 211645Z COR 18010G18KT 2SM -SN BKN011 OVC015 M04/M10 A3043,KMTN,2015-02-21T16:45:00Z,39.32,-76.42,-4.0,-10.0,180,10,18,2.0,30.431103,,TRUE,,,,,,,,-SN,BKN,1100,OVC,1500,,,,,IFR,,,,,,,,,,,,METAR,7.0
LMML 211645Z 17016KT 8000 -RA SCT015 14/12 Q1009 NOSIG,LMML,2015-02-21T16:45:00Z,35.85,14.47,14.0,12.0,170,16,,4.97,29.793306,,,,,,TRUE,,,,-RA,SCT,1500,,,,,,,MVFR,,,,,,,,,,,,METAR,91.0
PADL 211645Z 10011G17KT 10SM OVC015 04/03 A2947,PADL,2015-02-21T16:45:00Z,59.05,-158.52,4.0,3.0,100,11,17,10.0,29.471457,,,,,,,,,,,OVC,1500,,,,,,,MVFR,,,,,,,,,,,,METAR,26.0
KATW 211645Z 36005KT 10SM SCT100 M06/M12 A2992,KATW,2015-02-21T16:45:00Z,44.27,-88.52,-6.0,-12.0,360,5,,10.0,29.920275,,,,,,,,,,,SCT,10000,,,,,,,VFR,,,,,,,,,,,,METAR,280.0
KMHR 211645Z 00000KT 1 1/2SM OVC003 09/09 A3000,KMHR,2015-02-21T16:45:00Z,38.53,-121.28,9.0,9.0,0,0,,1.5,30.0,,,,,,,,,,,OVC,300,,,,,,,LIFR,,,,,,,,,,,,METAR,29.0
KMYR 211645Z 03005KT 5SM BR SCT 010 BKN022 OVC04320 09/07 A3040,KMYR,2015-02-21T16:45:00Z,33.67,-78.92,9.0,7.0,30,5,,5.0,30.398623,,,,,,,,,,BR,SCT,1000,BKN,2200,,,,,MVFR,,,,,,,,,,,,METAR,8.0
KCWA 211645Z 32005KT 10SM SKC M07/M09 A2991,KCWA,2015-02-21T16:45:00Z,44.78,-89.67,-7.0,-9.0,320,5,,10.0,29.911417,,,,,,,,,,,SKC,,,,,,,,VFR,,,,,,,,,,,,METAR,389.0
KBAK 211645Z 00000KT 11/4SM SNBR OVC008 M01/M02 A2991,KBAK,2015-02-21T16:45:00Z,39.27,-85.9,-1.0,-2.0,0,0,,0.25,29.911417,,,,,,,,,,SN BR,OVC,800,,,,,,,LIFR,,,,,,,,,,,,METAR,200.0
KGYY 211645Z 00000KT 7SM OVC035 M04/M09 A2996,KGYY,2015-02-21T16:45:00Z,41.62,-87.42,-4.0,-9.0,0,0,,7.0,29.958662,,,,,,,,,,,OVC,3500,,,,,,,VFR,,,,,,,,,,,,METAR,180.0
KMWC 211645Z AUTO 35007KT 7SM OVC025 M04/M09 A2994,KMWC,2015-02-21T16:45:00Z,43.12,-88.03,-4.0,-9.0,350,7,,7.0,29.940945,,,TRUE,,,,,,,,OVC,2500,,,,,,,MVFR,,,,,,,,,,,,METAR,227.0
KSAW 211645Z 36009KT 10SM BKN025 M10/M15 A2989,KSAW,2015-02-21T16:45:00Z,46.35,-87.4,-10.0,-15.0,360,9,,10.0,29.890747,,,,,,,,,,,BKN,2500,,,,,,,MVFR,,,,,,,,,,,,METAR,372.0
KLZU 211645Z 06005KT 10SM OVC080 05/M06 A3027 RMK ATIS J RWY 7 LL,KLZU,2015-02-21T16:45:00Z,33.98,-83.97,5.0,-6.0,60,5,,10.0,30.268702,,,,,,,,,,,OVC,8000,,,,,,,VFR,,,,,,,,,,,,SPECI,323.0
LHSN 211645Z 21008KT CAVOK 08/M03 Q1009 NOSIG RMK BLU,LHSN,2015-02-21T16:45:00Z,47.12,20.23,8.0,-3.0,210,8,,6.21,29.793306,,,,,,TRUE,,,,,CAVOK,,,,,,,,VFR,,,,,,,,,,,,METAR,98.0
KSWF 211645Z 21016G26KT 20SM SCT060 OVC150 M07/M17 A3040,KSWF,2015-02-21T16:45:00Z,41.5,-74.08,-7.0,-17.0,210,16,26,20.0,30.398623,,,,,,,,,,,SCT,6000,OVC,15000,,,,,VFR,,,,,,,,,,,,METAR,150.0
KMWS 211645Z 07001G02KT 13/M04 RMK SNOW DEPTH 2.00,KMWS,2015-02-21T16:45:00Z,34.23,-118.05,13.0,-4.0,70,1,2,,,,,,,,,,,,,,,,,,,,,,,,,,,,,,,,,METAR,1739.0
KCFE 211645Z AUTO 34010G14KT 10SM OVC100 M10/M14 A3008 RMK AO2,KCFE,2015-02-21T16:45:00Z,45.17,-93.85,-10.0,-14.0,340,10,14,10.0,30.079725,,,TRUE,TRUE,,,,,,,OVC,10000,,,,,,,VFR,,,,,,,,,,,,METAR,295.0
KANE 211645Z 34010KT 10SM SCT016 OVC040 M08M12 A3004,KANE,2015-02-21T16:45:00Z,45.15,-93.22,,,340,10,,10.0,30.041338,,,,,,,,,,,SCT,1600,OVC,4000,,,,,VFR,,,,,,,,,,,,METAR,278.0
LHUD 211645Z 16010KT 7000 SCT083 BKN200 07/M01 Q1010,LHUD,2015-02-21T16:45:00Z,46.25,20.1,7.0,-1.0,160,10,,4.35,29.822834,,,,,,,,,,,SCT,8300,BKN,20000,,,,,MVFR,,,,,,,,,,,,METAR,84.0
LHPP 211645Z 19005KT CAVOK 08/M02 Q1009,LHPP,2015-02-21T16:45:00Z,45.98,18.23,8.0,-2.0,190,5,,6.21,29.793306,,,,,,,,,,,CAVOK,,,,,,,,VFR,,,,,,,,,,,,METAR,305.0
LHPA 211645Z 20007MPS CAVOK 09/02 Q1005 NOSIG RMK BLU,LHPA,2015-02-21T16:45:00Z,47.35,17.5,9.0,2.0,200,14,,6.21,29.675198,,,,,,TRUE,,,,,CAVOK,,,,,,,,VFR,,,,,,,,,,,,METAR,148.0
MMTO 211645Z 03003KT 3SM HZ FU SKC 17/06 A3041 RMK CU,MMTO,2015-02-21T16:45:00Z,19.35,-99.57,17.0,6.0,30,3,,3.0,30.410433,,,,,,,,,,HZ FU,SKC,,,,,,,,MVFR,,,,,,,,,,,,METAR,2576.0
MMQT 211645Z 26010KT 7SM SCT025 SCT250 20/10 A3030 RMK 8/101 HZY,MMQT,2015-02-21T16:45:00Z,20.62,-100.18,20.0,10.0,260,10,,7.0,30.301182,,,,,,,,,,,SCT,2500,SCT,25000,,,,,VFR,,,,,,,,,,,,METAR,1813.0
MMPA 211645Z 00000KT 5SM SCT020 BKN280 23/18 A2997 RMK 8/108 HZY,MMPA,2015-02-21T16:45:00Z,20.5,-97.47,23.0,18.0,0,0,,5.0,29.970472,,,,,,,,,,,SCT,2000,BKN,28000,,,,,MVFR,,,,,,,,,,,,METAR,142.0
MMOX 211645Z 00000KT 7SM FEW025 SCT240 22/12 A3023 RMK 8/108 HZY,MMOX,2015-02-21T16:45:00Z,17.0,-96.72,22.0,12.0,0,0,,7.0,30.230314,,,,,,,,,,,FEW,2500,SCT,24000,,,,,VFR,,,,,,,,,,,,METAR,1528.0
KMMU 211645Z 21010KT 10SM BKN075 OVC085 M05/M14 A3044,KMMU,2015-02-21T16:45:00Z,40.78,-74.42,-5.0,-14.0,210,10,,10.0,30.43996,,,,,,,,,,,BKN,7500,OVC,8500,,,,,VFR,,,,,,,,,,,,METAR,57.0
LIPX 211645Z 08015KT 4000 BR SCT030 BKN050 07/01 Q1006 RMK OVC VIS MIN 4000 GRN,LIPX,2015-02-21T16:45:00Z,45.38,10.87,7.0,1.0,80,15,,2.49,29.704725,,,,,,,,,,BR,SCT,3000,BKN,5000,,,,,IFR,,,,,,,,,,,,METAR,68.0
LIPR 211645Z 11006KT 9999 SCT040 BKN070 10/04 Q1006 RMK OVC VIS MIN 9999 WIND THR31 10005KT BLU,LIPR,2015-02-21T16:45:00Z,44.02,12.62,10.0,4.0,110,6,,6.21,29.704725,,,,,,,,,,,SCT,4000,BKN,7000,,,,,VFR,,0.5,,,,,,,,,,METAR,13.0
LIPH 211645Z /////KT 3200 BR FEW030 BKN045 08/05 Q1008 RMK BKN VIS MIN 3200 WIND THR07 06008KT YLO,LIPH,2015-02-21T16:45:00Z,45.63,12.17,8.0,5.0,,,,1.99,29.763779,,,,,,,,,,BR,FEW,3000,BKN,4500,,,,,IFR,,,,,,,,,,,,METAR,23.0
LIBR 211645Z 16017KT 9999 SCT025 BKN030 13/09 Q1012 NOSIG RMK BKN BKN070 VIS MIN 9999 WIND THR13 /////KT WIND THR31 18018KT BLU,LIBR,2015-02-21T16:45:00Z,40.65,17.95,13.0,9.0,160,17,,6.21,29.88189,,,,,,TRUE,,,,,SCT,2500,BKN,3000,,,,,MVFR,,,,,,,,,,,,METAR,10.0
LIRA 211645Z 14008KT 9999 FEW020 SCT030 BKN070 10/03 Q1004,LIRA,2015-02-21T16:45:00Z,41.8,12.58,10.0,3.0,140,8,,6.21,29.64567,,,,,,,,,,,FEW,2000,SCT,3000,BKN,7000,,,VFR,,,,,,,,,,,,METAR,101.0
KOXC 211645Z 21010G17KT 10SM CLR M06/M17 A3040,KOXC,2015-02-21T16:45:00Z,41.47,-73.13,-6.0,-17.0,210,10,17,10.0,30.398623,,,,,,,,,,,CLR,,,,,,,,VFR,,,,,,,,,,,,METAR,222.0
PAKU 211645Z 06016KT 2SM R06/P6000FT IC BLSN OVC005 M13/M17 A3018,PAKU,2015-02-21T16:45:00Z,70.32,-149.58,-13.0,-17.0,60,16,,2.0,30.180119,,,,,,,,,,IC BLSN,OVC,500,,,,,,,IFR,,,,,,,,,,,,METAR,2.0
KCGF 211645Z 24007KT 7SM SCT015 BKN030 OVC070 M02/M05 A2994,KCGF,2015-02-21T16:45:00Z,41.57,-81.47,-2.0,-5.0,240,7,,7.0,29.940945,,,,,,,,,,,SCT,1500,BKN,3000,OVC,7000,,,MVFR,,,,,,,,,,,,METAR,268.0
PHJH 211645Z 04013KT 15SM SCT025 SCT050 19/17 A3000,PHJH,2015-02-21T16:45:00Z,20.97,-156.67,19.0,17.0,40,13,,15.0,30.0,,,,,,,,,,,SCT,2500,SCT,5000,,,,,VFR,,,,,,,,,,,,METAR,78.0
LIRP 211645Z 12009KT 9999 -RA SCT020 BKN060 09/07 Q1004 NOSIG,LIRP,2015-02-21T16:45:00Z,43.67,10.37,9.0,7.0,120,9,,6.21,29.64567,,,,,,TRUE,,,,-RA,SCT,2000,BKN,6000,,,,,VFR,,,,,,,,,,,,METAR,2.0
KJVL 211645Z 00000KT 10SM OVC028 M03/M08 A2993,KJVL,2015-02-21T16:45:00Z,42.62,-89.05,-3.0,-8.0,0,0,,10.0,29.929134,,,,,,,,,,,OVC,2800,,,,,,,MVFR,,,,,,,,,,,,METAR,246.0
KBJC 211645Z 00000KT 1SM OVC005 M01/M01 A2994,KBJC,2015-02-21T16:45:00Z,39.9,-105.1,-1.0,-1.0,0,0,,1.0,29.940945,,,,,,,,,,,OVC,500,,,,,,,IFR,,,,,,,,,,,,METAR,1724.0
MMZO 211645Z 22005KT 6SM SKC 28/21 A2993 RMK HZY,MMZO,2015-02-21T16:45:00Z,19.13,-104.57,28.0,21.0,220,5,,6.0,29.929134,,,,,,,,,,,SKC,,,,,,,,VFR,,,,,,,,,,,,METAR,8.0
MMMY 211644Z 31003KT 7SM SCT120 BKN160 20/14 A2990 RMK 8/070 HZY,MMMY,2015-02-21T16:44:00Z,25.77,-100.08,20.0,14.0,310,3,,7.0,29.899607,,,,,,,,,,,SCT,12000,BKN,16000,,,,,VFR,,,,,,,,,,,,METAR,387.0
MMUN 211644Z 13013KT 7SM SCT018 26/16 A3012 RMK 8/100 AC,MMUN,2015-02-21T16:44:00Z,21.02,-86.85,26.0,16.0,130,13,,7.0,30.121063,,,,,,,,,,,SCT,1800,,,,,,,VFR,,,,,,,,,,,,METAR,10.0
MMMT 211644Z 00000KT 3SM HZ BKN016 25/21 A2992 RMK 8/100 VARBS CONDS,MMMT,2015-02-21T16:44:00Z,18.1,-94.57,25.0,21.0,0,0,,3.0,29.920275,,,,,,,,,,HZ,BKN,1600,,,,,,,MVFR,,,,,,,,,,,,METAR,40.0
MMCE 211644Z 12019KT 7SM SKC 26/19 A2999,MMCE,2015-02-21T16:44:00Z,18.65,-91.8,26.0,19.0,120,19,,7.0,29.991142,,,,,,,,,,,SKC,,,,,,,,VFR,,,,,,,,,,,,METAR,2.0
MMPN 211644Z 00000KT 15SM SKC 21/13 A3022 RMK SC,MMPN,2015-02-21T16:44:00Z,19.38,-102.02,21.0,13.0,0,0,,15.0,30.221457,,,,,,,,,,,SKC,,,,,,,,VFR,,,,,,,,,,,,METAR,1593.0
MMAA 211643Z 00000KT 7SM SKC 29/23 A2996 RMK HZY,MMAA,2015-02-21T16:43:00Z,16.75,-99.75,29.0,23.0,0,0,,7.0,29.958662,,,,,,,,,,,SKC,,,,,,,,VFR,,,,,,,,,,,,METAR,5.0
MMMZ 211643Z 23006KT 15SM FEW012 23/16 A2998 RMK 8/100,MMMZ,2015-02-21T16:43:00Z,23.17,-106.27,23.0,16.0,230,6,,15.0,29.97933,,,,,,,,,,,FEW,1200,,,,,,,VFR,,,,,,,,,,,,METAR,10.0
MMCM 211642Z 09014KT 7SM BKN030 OVC100 25/19 A3008 RMK 8/53/ RTS,MMCM,2015-02-21T16:42:00Z,18.5,-88.33,25.0,19.0,90,14,,7.0,30.079725,,,,,,,,,,,BKN,3000,OVC,10000,,,,,MVFR,,,,,,,,,,,,METAR,12.0
PAGS 211642Z AUTO 00000KT 5SM OVC003 02/00 A3044 RMK VIA PHONE,PAGS,2015-02-21T16:42:00Z,58.42,-135.73,2.0,0.0,0,0,,5.0,30.43996,,,TRUE,,,,,,,,OVC,300,,,,,,,LIFR,,,,,,,,,,,,SPECI,9.0
MMCS 211642Z 33010KT 10SM SKC 19/02 A2995 RMK ISOL AC/CI,MMCS,2015-02-21T16:42:00Z,31.62,-106.42,19.0,2.0,330,10,,10.0,29.949802,,,,,,,,,,,SKC,,,,,,,,VFR,,,,,,,,,,,,METAR,1171.0
KRRT 211641Z AUTO 31010KT 10SM CLR M21/M24 A3017 RMK AO2,KRRT,2015-02-21T16:41:00Z,48.93,-95.33,-21.0,-24.0,310,10,,10.0,30.171259,,,TRUE,TRUE,,,,,,,CLR,,,,,,,,VFR,,,,,,,,,,,,SPECI,327.0
MMTC 211641Z 00000KT 10SM FEW100 SCT200 22/02 A3008 RMK 8/072 HZY,MMTC,2015-02-21T16:41:00Z,25.57,-103.4,22.0,2.0,0,0,,10.0,30.079725,,,,,,,,,,,FEW,10000,SCT,20000,,,,,VFR,,,,,,,,,,,,METAR,1124.0
MMPS 211641Z 00000KT 7SM FEW090 27/22 A3007 RMK 8/010 HZY,MMPS,2015-02-21T16:41:00Z,15.87,-97.07,27.0,22.0,0,0,,7.0,30.070866,,,,,,,,,,,FEW,9000,,,,,,,VFR,,,,,,,,,,,,METAR,88.0
MMSP 211641Z 30007KT 12SM SKC 23/M04 A3022 RMK HZY,MMSP,2015-02-21T16:41:00Z,22.25,-100.93,23.0,-4.0,300,7,,12.0,30.221457,,,,,,,,,,,SKC,,,,,,,,VFR,,,,,,,,,,,,METAR,1903.0
MMLO 211641Z 00000KT 8SM SKC 21/08 A3033 RMK HZY,MMLO,2015-02-21T16:41:00Z,21.0,-101.47,21.0,8.0,0,0,,8.0,30.33071,,,,,,,,,,,SKC,,,,,,,,VFR,,,,,,,,,,,,METAR,1819.0
CWZQ 211640Z AUTO 16014KT M08/M14 RMK AO1 T10831142,CWZQ,2015-02-21T16:40:00Z,46.53,-61.05,-8.3,-14.2,160,14,,,,,,TRUE,TRUE,,,,,,,,,,,,,,,,,,,,,,,,,,,METAR,17.0
MMPG 211640Z 00000KT 8SM BKN100 21/15 A2991 RMK 8/070 HZY,MMPG,2015-02-21T16:40:00Z,28.65,-100.52,21.0,15.0,0,0,,8.0,29.911417,,,,,,,,,,,BKN,10000,,,,,,,VFR,,,,,,,,,,,,METAR,250.0
MMCU 211640Z 23005KT 10SM SCT200 19/02 A3007 RMK 8/008,MMCU,2015-02-21T16:40:00Z,28.7,-105.97,19.0,2.0,230,5,,10.0,30.070866,,,,,,,,,,,SCT,20000,,,,,,,VFR,,,,,,,,,,,,METAR,1372.0
MMMV 211640Z 00000KT 8SM HZ SCT200 23/05 A2993 RMK 8/020,MMMV,2015-02-21T16:40:00Z,26.95,-101.47,23.0,5.0,0,0,,8.0,29.929134,,,,,,,,,,HZ,SCT,20000,,,,,,,VFR,,,,,,,,,,,,METAR,615.0
MMCV 211640Z 14013KT 8SM SKC 24/14 A2991 RMK HZY,MMCV,2015-02-21T16:40:00Z,23.72,-98.97,24.0,14.0,140,13,,8.0,29.911417,,,,,,,,,,,SKC,,,,,,,,VFR,,,,,,,,,,,,METAR,238.0
MMNL 211640Z 16010KT 8SM SCT080 22/15 A2989 RMK 8/070,MMNL,2015-02-21T16:40:00Z,27.42,-99.57,22.0,15.0,160,10,,8.0,29.890747,,,,,,,,,,,SCT,8000,,,,,,,VFR,,,,,,,,,,,,METAR,148.0
MMAN 211640Z 14002KT 15SM SCT080 21/12 A2994 RMK 8/070 ISOL CI,MMAN,2015-02-21T16:40:00Z,25.87,-100.23,21.0,12.0,140,2,,15.0,29.940945,,,,,,,,,,,SCT,8000,,,,,,,VFR,,,,,,,,,,,,METAR,448.0
MMZH 211640Z 22005KT 7SM SKC 27/22 A2998 RMK,MMZH,2015-02-21T16:40:00Z,17.6,-101.47,27.0,22.0,220,5,,7.0,29.97933,,,,,,,,,,,SKC,,,,,,,,VFR,,,,,,,,,,,,METAR,6.0
MMTM 211640Z 11006KT 6SM SCT010 23/17 A2993 RMK 8/100 HZY,MMTM,2015-02-21T16:40:00Z,22.27,-97.87,23.0,17.0,110,6,,6.0,29.929134,,,,,,,,,,,SCT,1000,,,,,,,VFR,,,,,,,,,,,,METAR,24.0
MMBT 211640Z 00000KT 7SM BKN020 29/24 A2999 RMK 8/100 HZY,MMBT,2015-02-21T16:40:00Z,15.77,-96.27,29.0,24.0,0,0,,7.0,29.991142,,,,,,,,,,,BKN,2000,,,,,,,MVFR,,,,,,,,,,,,METAR,143.0
VOTV 211640Z 30004KT 4000 HZ FEW018 27/22 Q1010 NOSIG,VOTV,2015-02-21T16:40:00Z,8.47,76.95,27.0,22.0,300,4,,2.49,29.822834,,,,,,TRUE,,,,HZ,FEW,1800,,,,,,,IFR,,,,,,,,,,,,METAR,8.0
VOTR 211640Z 09008KT 6000 NSC 25/19 Q1013 NOSIG,VOTR,2015-02-21T16:40:00Z,10.77,78.72,25.0,19.0,90,8,,3.73,29.911417,,,,,,TRUE,,,,,,,,,,,,,,,,,,,,,,,,,METAR,88.0
VOMM 211640Z 04003KT 6000 FEW020 25/21 Q1014 NOSIG,VOMM,2015-02-21T16:40:00Z,13.0,80.17,25.0,21.0,40,3,,3.73,29.940945,,,,,,TRUE,,,,,FEW,2000,,,,,,,MVFR,,,,,,,,,,,,METAR,16.0
VOHS 211640Z 11005KT 6000 NSC 23/10 Q1017 NOSIG,VOHS,2015-02-21T16:40:00Z,17.23,78.43,23.0,10.0,110,5,,3.73,30.029528,,,,,,TRUE,,,,,,,,,,,,,,,,,,,,,,,,,METAR,1.0
VABB 211640Z 00000KT 2500 FU NSC 30/17 Q1011 NOSIG,VABB,2015-02-21T16:40:00Z,19.1,72.87,30.0,17.0,0,0,,1.55,29.852362,,,,,,TRUE,,,,FU,,,,,,,,,,,,,,,,,,,,,METAR,8.0
MMVA 211640Z 04005KT 7SM FEW020 25/20 A2999 RMK 8/100,MMVA,2015-02-21T16:40:00Z,18.0,-92.82,25.0,20.0,40,5,,7.0,29.991142,,,,,,,,,,,FEW,2000,,,,,,,VFR,,,,,,,,,,,,METAR,13.0
MMTP 211640Z 00000KT 10SM FEW015 30/23 A2997 RMK 8/100 HZY,MMTP,2015-02-21T16:40:00Z,14.77,-92.37,30.0,23.0,0,0,,10.0,29.970472,,,,,,,,,,,FEW,1500,,,,,,,VFR,,,,,,,,,,,,METAR,29.0
MMCT 211640Z 11010KT 8SM SKC 26/14 A3011 RMK MSGTX MMMD,MMCT,2015-02-21T16:40:00Z,20.63,-88.45,26.0,14.0,110,10,,8.0,30.109253,,,,,,,,,,,SKC,,,,,,,,VFR,,,,,,,,,,,,METAR,28.0
MMTJ 211640Z 03003KT 7SM SCT028 OVC040 16/07 A3002 RMK 8/5//,MMTJ,2015-02-21T16:40:00Z,32.53,-116.97,16.0,7.0,30,3,,7.0,30.02067,,,,,,,,,,,SCT,2800,OVC,4000,,,,,VFR,,,,,,,,,,,,METAR,152.0
MMML 211640Z 15005KT 10SM FEW140 BKN200 15/09 A2988 RMK 8/038,MMML,2015-02-21T16:40:00Z,32.62,-115.23,15.0,9.0,150,5,,10.0,29.878937,,,,,,,,,,,FEW,14000,BKN,20000,,,,,VFR,,,,,,,,,,,,METAR,22.0
MMLT 211640Z 27012KT 8SM FEW080 SCT200 25/17 A2992 RMK 8/035,MMLT,2015-02-21T16:40:00Z,26.02,-111.33,25.0,17.0,270,12,,8.0,29.920275,,,,,,,,,,,FEW,8000,SCT,20000,,,,,VFR,,,,,,,,,,,,METAR,15.0
MMLP 211640Z 20006KT 10SM FEW140 24/09 A3001 RMK 8/030 ISOL CI,MMLP,2015-02-21T16:40:00Z,24.07,-110.37,24.0,9.0,200,6,,10.0,30.008858,,,,,,,,,,,FEW,14000,,,,,,,VFR,,,,,,,,,,,,METAR,21.0
MMLM 211640Z 13008KT 10SM BKN220 23/16 A2998 RMK 8/004 HZY,MMLM,2015-02-21T16:40:00Z,25.67,-109.07,23.0,16.0,130,8,,10.0,29.97933,,,,,,,,,,,BKN,22000,,,,,,,VFR,,,,,,,,,,,,METAR,4.0
MMGM 211640Z 00000KT 10SM SCT010 23/18 A2991 RMK 8/100,MMGM,2015-02-21T16:40:00Z,27.95,-110.92,23.0,18.0,0,0,,10.0,29.911417,,,,,,,,,,,SCT,1000,,,,,,,VFR,,,,,,,,,,,,METAR,20.0
MMCL 211640Z 00000KT 10SM SKC 25/18 A2998 RMK ISOL CU CI,MMCL,2015-02-21T16:40:00Z,24.77,-107.47,25.0,18.0,0,0,,10.0,29.97933,,,,,,,,,,,SKC,,,,,,,,VFR,,,,,,,,,,,,METAR,39.0
K8S0 211640Z 34008KT ,K8S0,2015-02-21T16:40:00Z,48.6,-113.12,,,340,8,,,,,,,,,,,,,,,,,,,,,,,,,,,,,,,,,,METAR,1419.0
MMIO 211640Z 26007KT 10SM FEW120 25/07 A3013 RMK 8/030 CI,MMIO,2015-02-21T16:40:00Z,25.55,-100.93,25.0,7.0,260,7,,10.0,30.129921,,,,,,,,,,,FEW,12000,,,,,,,VFR,,,,,,,,,,,,METAR,1790.0
KACQ 211639Z AUTO 33013KT 7SM OVC017 M08/M11 A3003 RMK AO2,KACQ,2015-02-21T16:39:00Z,44.07,-93.55,-8.0,-11.0,330,13,,7.0,30.029528,,,TRUE,TRUE,,,,,,,OVC,1700,,,,,,,MVFR,,,,,,,,,,,,METAR,343.0
PANV 211636Z AUTO 05012G19KT 10SM BKN046 BKN065 OVC095 M01/M03 A2954 RMK AO1,PANV,2015-02-21T16:36:00Z,62.65,-160.18,-1.0,-3.0,50,12,19,10.0,29.53937,,,TRUE,TRUE,,,,,,,BKN,4600,BKN,6500,OVC,9500,,,VFR,,,,,,,,,,,,SPECI,99.0
PAMY 211636Z AUTO 09017KT 3SM BKN012 OVC020 01/M03 A2923 RMK AO1,PAMY,2015-02-21T16:36:00Z,60.37,-166.27,1.0,-3.0,90,17,,3.0,29.22933,,,TRUE,TRUE,,,,,,,BKN,1200,OVC,2000,,,,,MVFR,,,,,,,,,,,,SPECI,13.0
KDYA 211635Z AUTO 17012G25KT 140V200 10SM SCT075 SCT090 17/08 A3009 RMK AO2 T01670080,KDYA,2015-02-21T16:35:00Z,32.47,-87.95,16.7,8.0,170,12,25,10.0,30.088583,,,TRUE,TRUE,,,,,,,SCT,7500,SCT,9000,,,,,VFR,,,,,,,,,,,,METAR,34.0
KFWB 211635Z AUTO 01006KT 7SM OVC005 00/00 A2994 RMK AO2,KFWB,2015-02-21T16:35:00Z,36.7,-93.4,0.0,0.0,10,6,,7.0,29.940945,,,TRUE,TRUE,,,,,,,OVC,500,,,,,,,IFR,,,,,,,,,,,,METAR,406.0
KSPF 211635Z AUTO 9SM -SN FEW021 FEW027 BKN039 M07/M12 A3011 RMK AO2,KSPF,2015-02-21T16:35:00Z,44.47,-103.77,-7.0,-12.0,,,,9.0,30.109253,,,TRUE,TRUE,,,,,,-SN,FEW,2100,FEW,2700,BKN,3900,,,VFR,,,,,,,,,,,,METAR,1188.0
KQTC 211635Z AUTO 14001KT 10SM CLR 35/M02 A2981 RMK AO2 SLP048 $,KQTC,2015-02-21T16:35:00Z,100.65,-1000.65,35.0,-2.0,140,1,,10.0,29.811024,1004.8,,TRUE,TRUE,TRUE,,,,,,CLR,,,,,,,,VFR,,,,,,,,,,,,SPECI,999.0
SBVH 211635Z 02004KT 2500 RA BKN005 BKN010 22/22 Q1015,SBVH,2015-02-21T16:35:00Z,-12.72,-60.12,22.0,22.0,20,4,,1.55,29.970472,,,,,,,,,,RA,BKN,500,BKN,1000,,,,,IFR,,,,,,,,,,,,SPECI,652.0
KBBD 211635Z AUTO 33009KT 10SM SCT016 14/08 A2995 RMK,KBBD,2015-02-21T16:35:00Z,31.18,-99.32,14.0,8.0,330,9,,10.0,29.949802,,,TRUE,,,,,,,,SCT,1600,,,,,,,VFR,,,,,,,,,,,,METAR,557.0
KTGI 211635Z AUTO 18011G17KT 10SM OVC050 M02/M08 A3046 RMK AO1,KTGI,2015-02-21T16:35:00Z,37.82,-75.98,-2.0,-8.0,180,11,17,10.0,30.46063,,,TRUE,TRUE,,,,,,,OVC,5000,,,,,,,VFR,,,,,,,,,,,,METAR,2.0
KLCQ 211635Z AUTO 18010G18KT 10SM SCT055 18/07 A3033 RMK AO2,KLCQ,2015-02-21T16:35:00Z,30.18,-82.58,18.0,7.0,180,10,18,10.0,30.33071,,,TRUE,TRUE,,,,,,,SCT,5500,,,,,,,VFR,,,,,,,,,,,,SPECI,61.0
CYMH 211633Z AUTO 26019G35KT 9SM M07/M13 A2952 RMK CLD MISG SLP997,CYMH,2015-02-21T16:33:00Z,52.28,-55.85,-7.0,-13.0,260,19,35,9.0,29.518702,999.7,,TRUE,,,,,,,,,,,,,,,,,,,,,,,,,,,,METAR,11.0
VIBN 211630Z 24003KT 3000 NSC 23/18 Q1011,VIBN,2015-02-21T16:30:00Z,25.43,82.87,23.0,18.0,240,3,,1.86,29.852362,,,,,,,,,,,,,,,,,,,,,,,,,,,,,,,METAR,85.0
VILK 211630Z 00000KT 3000 HZ NSC 22/17 Q1012,VILK,2015-02-21T16:30:00Z,26.75,80.87,22.0,17.0,0,0,,1.86,29.88189,,,,,,,,,,HZ,,,,,,,,,,,,,,,,,,,,,SPECI,128.0
VIJP 211630Z VRB03KT 3500 HZ NSC 25/09 Q1016 BECMG 3000,VIJP,2015-02-21T16:30:00Z,26.82,75.78,25.0,9.0,0,3,,2.17,30.0,,,,,,,,,,HZ,,,,,,,,,,,,,,,,,,,,,METAR,390.0
DAUO 211630Z 340//KT 8000 RA FEW020 FEW026CB BKN033 12/10 Q1003,DAUO,2015-02-21T16:30:00Z,33.5,6.78,12.0,10.0,,,,4.97,29.616142,,,,,,,,,,RA,FEW,2000,FEW,2600,BKN,3300,,,MVFR,,,,,,,,,,,,SPECI,63.0
EISG 211630Z 30017KT 9999 FEW020 SCT060 06/01 Q1006,EISG,2015-02-21T16:30:00Z,54.28,-8.6,6.0,1.0,300,17,,6.21,29.704725,,,,,,,,,,,FEW,2000,SCT,6000,,,,,VFR,,,,,,,,,,,,METAR,3.0
WMKP 211630Z 26003KT 8000 FEW025 BKN270 29/25 Q1011 NOSIG,WMKP,2015-02-21T16:30:00Z,5.28,100.27,29.0,25.0,260,3,,4.97,29.852362,,,,,,TRUE,,,,,FEW,2500,BKN,27000,,,,,MVFR,,,,,,,,,,,,METAR,4.0
EIWF 211630Z 33009KT 300V010 9999 FEW039 06/M00 Q1007,EIWF,2015-02-21T16:30:00Z,52.18,-7.08,6.0,0.0,330,9,,6.21,29.734253,,,,,,,,,,,FEW,3900,,,,,,,VFR,,,,,,,,,,,,METAR,36.0
DABB 211630Z 05010KT 9999 SCT023 BKN040 13/12 Q1002,DABB,2015-02-21T16:30:00Z,36.82,7.82,13.0,12.0,50,10,,6.21,29.586615,,,,,,,,,,,SCT,2300,BKN,4000,,,,,VFR,,,,,,,,,,,,METAR,4.0
LFKJ 211630Z VRB02KT 9999 -RA FEW033 BKN050 12/08 Q1001 NOSIG,LFKJ,2015-02-21T16:30:00Z,41.92,8.8,12.0,8.0,0,2,,6.21,29.557087,,,,,,TRUE,,,,-RA,FEW,3300,BKN,5000,,,,,VFR,,,,,,,,,,,,METAR,9.0
LFKC 211630Z 01002KT 9999 -RA SCT036 BKN053 BKN080 12/05 Q1000 NOSIG,LFKC,2015-02-21T16:30:00Z,42.52,8.8,12.0,5.0,10,2,,6.21,29.52756,,,,,,TRUE,,,,-RA,SCT,3600,BKN,5300,BKN,8000,,,VFR,,,,,,,,,,,,METAR,58.0
VOCL 211630Z 00000KT 6000 NSC 27/21 Q1012 NOSIG,VOCL,2015-02-21T16:30:00Z,11.13,75.95,27.0,21.0,0,0,,3.73,29.88189,,,,,,TRUE,,,,,,,,,,,,,,,,,,,,,,,,,METAR,104.0
YPMQ 211630Z AUTO 11007KT 5000 // SCT013 BKN019 BKN030 21/21 Q1013,YPMQ,2015-02-21T16:30:00Z,-31.43,152.87,21.0,21.0,110,7,,3.11,29.911417,,,TRUE,,,,,,,,SCT,1300,BKN,1900,BKN,3000,,,MVFR,,,,,,,,,,,,SPECI,4.0
GLRB 211630Z 25003KT 9999 BKN013 FEW024 CB 27/24 Q1010 RMK CB-NW,GLRB,2015-02-21T16:30:00Z,6.25,-10.33,27.0,24.0,250,3,,6.21,29.822834,,,,,,,,,,,BKN,1300,FEW,2400,,,,,MVFR,,,,,,,,,,,,METAR,18.0
SPZA 211630Z 33003KT 9999 BKN070 31/18 Q1014,SPZA,2015-02-21T16:30:00Z,-14.87,-74.95,31.0,18.0,330,3,,6.21,29.940945,,,,,,,,,,,BKN,7000,,,,,,,VFR,,,,,,,,,,,,SPECI,765.0
EIDL 211630Z 31017KT 9999 FEW009 SCT031 06/01 Q1005 RERA,EIDL,2015-02-21T16:30:00Z,55.05,-8.33,6.0,1.0,310,17,,6.21,29.675198,,,,,,,,,,,FEW,900,SCT,3100,,,,,VFR,,,,,,,,,,,,METAR,9.0
LPAZ 211630Z 02017KT 9999 SCT012 BKN017 17/13 Q1033,LPAZ,2015-02-21T16:30:00Z,36.97,-25.17,17.0,13.0,20,17,,6.21,30.501968,,,,,,,,,,,SCT,1200,BKN,1700,,,,,MVFR,,,,,,,,,,,,METAR,100.0
URFF 211630Z 00000MPS CAVOK M00/M04 Q1022 01010065 NOSIG,URFF,2015-02-21T16:30:00Z,45.03,33.98,0.0,-4.0,0,0,,6.21,30.177166,,,,,,TRUE,,,,,CAVOK,,,,,,,,VFR,,,,,,,,,,,,METAR,188.0
URWW 211630Z 24004MPS CAVOK M08/M11 Q1027 NOSIG RMK 29CLRD70,URWW,2015-02-21T16:30:00Z,48.78,44.33,-8.0,-11.0,240,8,,6.21,30.324802,,,,,,TRUE,,,,,CAVOK,,,,,,,,VFR,,,,,,,,,,,,METAR,147.0
URWA 211630Z 07003MPS CAVOK M03/M10 Q1029 NOSIG RMK QFE774/1032 SC060,URWA,2015-02-21T16:30:00Z,46.28,48.02,-3.0,-10.0,70,6,,6.21,30.383858,,,,,,TRUE,,,,,CAVOK,,,,,,,,VFR,,,,,,,,,,,,METAR,-20.0
URSS 211630Z 16002MPS 9999 OVC028 08/01 Q1023 NOSIG RMK R02/00000MPS MT OBSC QFE766 06000070 02//////,URSS,2015-02-21T16:30:00Z,43.45,39.95,8.0,1.0,160,4,,6.21,30.206694,,,,,,TRUE,,,,,OVC,2800,,,,,,,MVFR,,,,,,,,,,,,METAR,16.0
URRR 211630Z 11003MPS P8000 NSC M02/M05 Q1026 04CLRD70 NOSIG,URRR,2015-02-21T16:30:00Z,47.25,39.82,-2.0,-5.0,110,6,,4.97,30.295275,,,,,,TRUE,,,,,,,,,,,,,,,,,,,,,,,,,METAR,77.0
URMT 211630Z 13005MPS 9999 SCT016 BKN100 M05/M06 Q1023 NOSIG RMK QFE727 SC060,URMT,2015-02-21T16:30:00Z,45.12,42.12,-5.0,-6.0,130,10,,6.21,30.206694,,,,,,TRUE,,,,,SCT,1600,BKN,10000,,,,,VFR,,,,,,,,,,,,METAR,453.0
URMM 211630Z 12008G12MPS 9999 BKN023 M02/M05 Q1024 R12/70D NOSIG RMK QFE740/0987,URMM,2015-02-21T16:30:00Z,44.22,43.1,-2.0,-5.0,120,16,23,6.21,30.236221,,,,,,TRUE,,,,,BKN,2300,,,,,,,MVFR,,,,,,,,,,,,METAR,314.0
URKK 211630Z 05003MPS CAVOK M03/M05 Q1024 NOSIG RMK QFE764 SC050,URKK,2015-02-21T16:30:00Z,45.03,39.15,-3.0,-5.0,50,6,,6.21,30.236221,,,,,,TRUE,,,,,CAVOK,,,,,,,,VFR,,,,,,,,,,,,METAR,34.0
URKA 211630Z 07004MPS CAVOK M02/M06 Q1023 NOSIG RMK QFE763/1017 SC070,URKA,2015-02-21T16:30:00Z,45.0,37.35,-2.0,-6.0,70,8,,6.21,30.206694,,,,,,TRUE,,,,,CAVOK,,,,,,,,VFR,,,,,,,,,,,,METAR,53.0
UUDL 211630Z 24003MPS 9999 OVC022 01/M03 Q1011 NOSIG RMK QFE750 23150255,UUDL,2015-02-21T16:30:00Z,57.57,40.17,1.0,-3.0,240,6,,6.21,29.852362,,,,,,TRUE,,,,,OVC,2200,,,,,,,MVFR,,,,,,,,,,,,METAR,88.0
WADD 211630Z 04004KT 270V050 9999 FEW018 27/24 Q1009 NOSIG,WADD,2015-02-21T16:30:00Z,-8.73,115.17,27.0,24.0,40,4,,6.21,29.793306,,,,,,TRUE,,,,,FEW,1800,,,,,,,VFR,,,,,,,,,,,,METAR,216.0
WARR 211630Z 29007KT 6000 FEW020 24/22 Q1009,WARR,2015-02-21T16:30:00Z,-7.37,112.78,24.0,22.0,290,7,,3.73,29.793306,,,,,,,,,,,FEW,2000,,,,,,,MVFR,,,,,,,,,,,,METAR,2.0
WAAA 211630Z VRB01KT 7000 -TSRA FEW018CB SCT019 26/24 Q1011 NOSIG,WAAA,2015-02-21T16:30:00Z,-5.07,119.53,26.0,24.0,0,1,,4.35,29.852362,,,,,,TRUE,,,,-TSRA,FEW,1800,SCT,1900,,,,,MVFR,,,,,,,,,,,,METAR,14.0
WIDD 211630Z AUTO 05009KT 9999NDV SCT016 BKN020 OVC036 26/23 Q1012,WIDD,2015-02-21T16:30:00Z,1.12,104.12,26.0,23.0,50,9,,,29.88189,,,TRUE,,,,,,,,SCT,1600,BKN,2000,OVC,3600,,,,,,,,,,,,,,,METAR,38.0
WIMM 211630Z 23003KT 5000 HZ SCT018 26/25 Q1010 NOSIG,WIMM,2015-02-21T16:30:00Z,3.57,98.67,26.0,25.0,230,3,,3.11,29.822834,,,,,,TRUE,,,,HZ,SCT,1800,,,,,,,MVFR,,,,,,,,,,,,METAR,25.0
LPPT 211630Z 35029G40KT 9999 FEW033 13/06 Q1015 WS R03,LPPT,2015-02-21T16:30:00Z,38.77,-9.12,13.0,6.0,350,29,40,6.21,29.970472,,,,,,,,,,,FEW,3300,,,,,,,VFR,,,,,,,,,,,,SPECI,123.0
LPPS 211630Z 02015KT 9999 SCT008 BKN012 16/14 Q1023,LPPS,2015-02-21T16:30:00Z,33.07,-16.35,16.0,14.0,20,15,,6.21,30.206694,,,,,,,,,,,SCT,800,BKN,1200,,,,,MVFR,,,,,,,,,,,,METAR,82.0
LPPR 211630Z 34016G26KT 9999 FEW025 12/07 Q1017,LPPR,2015-02-21T16:30:00Z,41.22,-8.67,12.0,7.0,340,16,26,6.21,30.029528,,,,,,,,,,,FEW,2500,,,,,,,VFR,,,,,,,,,,,,METAR,73.0
LPMA 211630Z 02014G24KT 340V060 3000 -DZ BR SCT015 BKN030 16/13 Q1023 RS04008KT 0503010KT 2302018G36KT,LPMA,2015-02-21T16:30:00Z,32.7,-16.77,16.0,13.0,20,14,24,1.86,30.206694,,,,,,,,,,-DZ BR,SCT,1500,BKN,3000,,,,,IFR,,,,,,,,,,,,SPECI,55.0
LPFR 211630Z 34013KT 9999 FEW040 20/05 Q1012,LPFR,2015-02-21T16:30:00Z,37.02,-7.97,20.0,5.0,340,13,,6.21,29.88189,,,,,,,,,,,FEW,4000,,,,,,,VFR,,,,,,,,,,,,METAR,4.0
LPPD 211630Z 02020KT 9999 SCT016 16/12 Q1034,LPPD,2015-02-21T16:30:00Z,37.72,-25.68,16.0,12.0,20,20,,6.21,30.531496,,,,,,,,,,,SCT,1600,,,,,,,VFR,,,,,,,,,,,,METAR,72.0
LPHR 211630Z 27008KT 230V290 9999 FEW014 19/14 Q1035,LPHR,2015-02-21T16:30:00Z,38.52,-28.72,19.0,14.0,270,8,,6.21,30.561024,,,,,,,,,,,FEW,1400,,,,,,,VFR,,,,,,,,,,,,METAR,41.0
LPFL 211630Z VRB02KT 9999 FEW018 BKN034 18/12 Q1036,LPFL,2015-02-21T16:30:00Z,39.45,-31.12,18.0,12.0,0,2,,6.21,30.590551,,,,,,,,,,,FEW,1800,BKN,3400,,,,,VFR,,,,,,,,,,,,METAR,29.0
UTTT 211630Z 30006KT 4000 BR BKN066CB OVC100 09/07 Q1013 R88/290050 NOSIG,UTTT,2015-02-21T16:30:00Z,41.27,69.27,9.0,7.0,300,6,,2.49,29.911417,,,,,,TRUE,,,,BR,BKN,6600,OVC,10000,,,,,IFR,,,,,,,,,,,,METAR,489.0
UTST 211630Z 01013KT 9999 BKN060CB OVC100 16/09 Q1010 R88/CLRD70 TEMPO VRB16G26KT 3000 -TSRA SQ,UTST,2015-02-21T16:30:00Z,37.28,67.32,16.0,9.0,10,13,,6.21,29.822834,,,,,,,,,,,BKN,6000,OVC,10000,,,,,VFR,,,,,,,,,,,,SPECI,302.0
UTSS 211630Z 12012KT 100V160 6000 FEW066CB BKN100 07/03 Q1011 R88/70D NOSIG,UTSS,2015-02-21T16:30:00Z,39.7,66.98,7.0,3.0,120,12,,3.73,29.852362,,,,,,TRUE,,,,,FEW,6600,BKN,10000,,,,,MVFR,,,,,,,,,,,,METAR,724.0
UTSK 211630Z 03002KT 010V070 6000 FEW050CB OVC100 13/10 Q1009 R16/CLRD70,UTSK,2015-02-21T16:30:00Z,38.83,65.77,13.0,10.0,30,2,,3.73,29.793306,,,,,,,,,,,FEW,5000,OVC,10000,,,,,MVFR,,,,,,,,,,,,SPECI,1365.0
UTSB 211630Z 36007KT 6000 OVC042 09/07 Q1009 R01/190060 NOSIG,UTSB,2015-02-21T16:30:00Z,39.77,64.48,9.0,7.0,360,7,,3.73,29.793306,,,,,,TRUE,,,,,OVC,4200,,,,,,,MVFR,,,,,,,,,,,,SPECI,226.0
UTSA 211630Z 08016KT 5000 BR BKN046 OVC100 10/03 Q1010 R07/2///65 NOSIG,UTSA,2015-02-21T16:30:00Z,40.12,65.17,10.0,3.0,80,16,,3.11,29.822834,,,,,,TRUE,,,,BR,BKN,4600,OVC,10000,,,,,MVFR,,,,,,,,,,,,SPECI,346.0
UTNU 211630Z 04015KT CAVOK 04/M00 Q1015 R31/290150 NOSIG,UTNU,2015-02-21T16:30:00Z,41.58,60.63,4.0,0.0,40,15,,6.21,29.970472,,,,,,TRUE,,,,,CAVOK,,,,,,,,VFR,,,,,,,,,,,,SPECI,98.0
UTNN 211630Z 02014KT CAVOK 02/M11 Q1018 R33/CLRD60 NOSIG,UTNN,2015-02-21T16:30:00Z,42.48,59.63,2.0,-11.0,20,14,,6.21,30.059055,,,,,,TRUE,,,,,CAVOK,,,,,,,,VFR,,,,,,,,,,,,SPECI,67.0
VMMC 211630Z 15004KT 4500 BR FEW003 SCT010 19/18 Q1015 NOSIG,VMMC,2015-02-21T16:30:00Z,22.15,113.58,19.0,18.0,150,4,,2.8,29.970472,,,,,,TRUE,,,,BR,FEW,300,SCT,1000,,,,,IFR,,,,,,,,,,,,METAR,6.0
RCTP 211630Z 03006KT 2200 -RA BR SCT010 BKN016 BKN030 17/16 Q1017 NOSIG RMK A3004,RCTP,2015-02-21T16:30:00Z,25.07,121.22,17.0,16.0,30,6,,1.37,30.029528,,,,,,TRUE,,,,-RA BR,SCT,1000,BKN,1600,BKN,3000,,,IFR,,,,,,,,,,,,METAR,33.0
UMKK 211630Z 19006MPS CAVOK 06/M03 Q0997 R24/19//60 NOSIG RMK QFE746/0995,UMKK,2015-02-21T16:30:00Z,54.88,20.6,6.0,-3.0,190,12,,6.21,29.438976,,,,,,TRUE,,,,,CAVOK,,,,,,,,VFR,,,,,,,,,,,,METAR,21.0
ULOO 211630Z 16004MPS 5000 BR NSC 02/M01 Q1003 19090065 NOSIG RMK QFE748,ULOO,2015-02-21T16:30:00Z,57.78,28.4,2.0,-1.0,160,8,,3.11,29.616142,,,,,,TRUE,,,,BR,,,,,,,,,,,,,,,,,,,,,METAR,47.0
ULMM 211630Z VRB02MPS 9999 BKN023 M01/M03 Q0984 NOSIG RMK QFE732 13490143,ULMM,2015-02-21T16:30:00Z,68.78,32.75,-1.0,-3.0,0,4,,6.21,29.055119,,,,,,TRUE,,,,,BKN,2300,,,,,,,MVFR,,,,,,,,,,,,METAR,51.0
UUYY 211630Z 26004MPS 230V290 9999 BKN009 OVC066 01/M00 Q1000 NOSIG 19290140 RMK QFE741/0988,UUYY,2015-02-21T16:30:00Z,61.65,50.82,1.0,0.0,260,8,,6.21,29.52756,,,,,,TRUE,,,,,BKN,900,OVC,6600,,,,,IFR,,,,,,,,,,,,METAR,119.0
UUOO 211630Z 23003G06MPS 9999 FEW016 BKN100 01/M02 Q1020 NOSIG RMK 30090050,UUOO,2015-02-21T16:30:00Z,51.82,39.23,1.0,-2.0,230,6,12,6.21,30.11811,,,,,,TRUE,,,,,FEW,1600,BKN,10000,,,,,VFR,,,,,,,,,,,,METAR,157.0
ULAA 211630Z 23003MPS 190V260 9999 OVC030CB 01/M00 Q0996 26920560 NOSIG RMK QFE746/0995,ULAA,2015-02-21T16:30:00Z,64.6,40.72,1.0,0.0,230,6,,6.21,29.409449,,,,,,TRUE,,,,,OVC,3000,,,,,,,MVFR,,,,,,,,,,,,METAR,19.0
KVBS 211630Z AUTO VRB04G13KT 10SM CLR 19/16 A3000 RMK A01,KVBS,2015-02-21T16:30:00Z,29.48,-93.63,19.0,16.0,0,4,13,10.0,30.0,,,TRUE,TRUE,,,,,,,CLR,,,,,,,,VFR,,,,,,,,,,,,METAR,31.0
KBBF 211630Z AUTO 19018KT 3SM HZ CLR 22/18 A2994 RMK A01,KBBF,2015-02-21T16:30:00Z,27.83,-96.02,22.0,18.0,190,18,,3.0,29.940945,,,TRUE,TRUE,,,,,,HZ,CLR,,,,,,,,MVFR,,,,,,,,,,,,METAR,36.0
GABS 211630Z VRB03KT CAVOK 32/02 Q1011 NOSIG,GABS,2015-02-21T16:30:00Z,12.52,-7.95,32.0,2.0,0,3,,6.21,29.852362,,,,,,TRUE,,,,,CAVOK,,,,,,,,VFR,,,,,,,,,,,,METAR,381.0
WIPT 211630Z 36003KT 7000 R33/M0050N SCT020 23/20 Q1011,WIPT,2015-02-21T16:30:00Z,-0.78,100.28,23.0,20.0,360,3,,4.35,29.852362,,,,,,,,,,,SCT,2000,,,,,,,MVFR,,,,,,,,,,,,METAR,5.0
LFQG 211630Z AUTO 27006KT 9999 SCT026 BKN031 BKN041 05/02 Q1003,LFQG,2015-02-21T16:30:00Z,47.0,3.1,5.0,2.0,270,6,,6.21,29.616142,,,TRUE,,,,,,,,SCT,2600,BKN,3100,BKN,4100,,,VFR,,,,,,,,,,,,METAR,181.0
LFLW 211630Z AUTO 30008KT 9999 BKN008/// BKN017/// BKN028/// ///TCU 02/01 Q1003,LFLW,2015-02-21T16:30:00Z,44.88,2.42,2.0,1.0,300,8,,6.21,29.616142,,,TRUE,,,,,,,,,,,,,,,,,,,,,,,,,,,,METAR,639.0
YPWR 211630Z AUTO 11007KT 9999 // NCD 27/08 Q1008,YPWR,2015-02-21T16:30:00Z,-31.12,136.82,27.0,8.0,110,7,,6.21,29.763779,,,TRUE,,,,,,,,,,,,,,,,,,,,,,,,,,,,METAR,167.0
YGEL 211630Z AUTO 17018KT 9999 // SCT021 21/16 Q1010,YGEL,2015-02-21T16:30:00Z,-28.8,114.7,21.0,16.0,170,18,,6.21,29.822834,,,TRUE,,,,,,,,SCT,2100,,,,,,,VFR,,,,,,,,,,,,METAR,37.0
YPJT 211630Z AUTO 19008KT 9999 // NCD 18/15 Q1012,YPJT,2015-02-21T16:30:00Z,-32.1,115.88,18.0,15.0,190,8,,6.21,29.88189,,,TRUE,,,,,,,,,,,,,,,,,,,,,,,,,,,,METAR,30.0
YHID 211630Z AUTO 28007KT 9999 // SCT020 28/24 Q1010,YHID,2015-02-21T16:30:00Z,-10.58,142.3,28.0,24.0,280,7,,6.21,29.822834,,,TRUE,,,,,,,,SCT,2000,,,,,,,VFR,,,,,,,,,,,,METAR,13.0
VIAR 211630Z 27008KT 3000 BR SCT040 SCT100 17/14 Q1016,VIAR,2015-02-21T16:30:00Z,31.7,74.8,17.0,14.0,270,8,,1.86,30.0,,,,,,,,,,BR,SCT,4000,SCT,10000,,,,,IFR,,,,,,,,,,,,METAR,234.0
VIDP 211630Z 28009KT 2800 HZ NSC 21/15 Q1014 NOSIG,VIDP,2015-02-21T16:30:00Z,28.57,77.12,21.0,15.0,280,9,,1.74,29.940945,,,,,,TRUE,,,,HZ,,,,,,,,,,,,,,,,,,,,,SPECI,233.0
KW99 211630Z AUTO 17011G16KT 3/4SM -SN OVC004 M04/M06 A3017 RMK AO2 T10451065,KW99,2015-02-21T16:30:00Z,39.0,-79.15,-4.5,-6.5,170,11,16,0.75,30.171259,,,TRUE,TRUE,,,,,,-SN,OVC,400,,,,,,,LIFR,,,,,,,,,,,,SPECI,293.0
YNWN 211627Z AUTO 23015KT 230V290 //// // ////// 36/05 Q1006,YNWN,2015-02-21T16:27:00Z,-23.42,119.8,36.0,5.0,230,15,,,29.704725,,,TRUE,,,,,,,,,,,,,,,,,,,,,,,,,,,,SPECI,525.0
EBLB 211625Z AUTO 21005KT 9999 FEW039/// OVC055/// 01/M01 Q0999 BLU,EBLB,2015-02-21T16:25:00Z,50.47,6.17,1.0,-1.0,210,5,,6.21,29.498032,,,TRUE,,,,,,,,,,,,,,,,,,,,,,,,,,,,METAR,570.0
KCRH 211625Z AUTO 18023KT 6SM HZ BKN060 20/17 A3002 RMK A01,KCRH,2015-02-21T16:25:00Z,28.92,-93.3,20.0,17.0,180,23,,6.0,30.02067,,,TRUE,TRUE,,,,,,HZ,BKN,6000,,,,,,,VFR,,,,,,,,,,,,METAR,34.0
CYZS 211622Z 01025KT 2SM IC BLSN SCT020 RMK SC3,CYZS,2015-02-21T16:22:00Z,64.2,-83.37,,,10,25,,2.0,,,,,,,,,,,IC BLSN,SCT,2000,,,,,,,IFR,,,,,,,,,,,,SPECI,64.0
KLVN 211621Z AUTO 34011KT 7SM SCT015 SCT085 M09/M12 A3002 RMK AO2,KLVN,2015-02-21T16:21:00Z,44.63,-93.23,-9.0,-12.0,340,11,,7.0,30.02067,,,TRUE,TRUE,,,,,,,SCT,1500,SCT,8500,,,,,VFR,,,,,,,,,,,,METAR,293.0
ETNN 211620Z 27003KT 9999 -SHRA FEW015 SCT020TCU BKN040 04/02 Q1000 RERA BLU,ETNN,2015-02-21T16:20:00Z,50.82,6.67,4.0,2.0,270,3,,6.21,29.52756,,,,,,,,,,-SHRA,FEW,1500,SCT,2000,BKN,4000,,,VFR,,,,,,,,,,,,SPECI,135.0
ETHN 211620Z 23007KT 9999 BKN018 BKN090 BKN220 04/02 Q1000 WHT,ETHN,2015-02-21T16:20:00Z,49.38,9.97,4.0,2.0,230,7,,6.21,29.52756,,,,,,,,,,,BKN,1800,BKN,9000,BKN,22000,,,MVFR,,,,,,,,,,,,SPECI,473.0
ETHL 211620Z 31003KT 9999 -DZ BKN029 03/00 Q1000 BLU,ETHL,2015-02-21T16:20:00Z,48.22,9.92,3.0,0.0,310,3,,6.21,29.52756,,,,,,,,,,-DZ,BKN,2900,,,,,,,MVFR,,,,,,,,,,,,SPECI,549.0
ETSB 211620Z AUTO 22006KT 9999 // ////// 02/M01 Q1000 ///,ETSB,2015-02-21T16:20:00Z,50.17,7.07,2.0,-1.0,220,6,,6.21,29.52756,,,TRUE,,,,,,,,,,,,,,,,,,,,,,,,,,,,METAR,486.0
ETSI 211620Z AUTO 32002KT 5000 // ////// 05/M01 Q1000 ///,ETSI,2015-02-21T16:20:00Z,48.72,11.52,5.0,-1.0,320,2,,3.11,29.52756,,,TRUE,,,,,,,,,,,,,,,,,,,,,,,,,,,,METAR,370.0
ETSL 211620Z 29003KT 9999 FEW060 BKN080 OVC110 04/M02 Q1000 BLU,ETSL,2015-02-21T16:20:00Z,48.17,10.87,4.0,-2.0,290,3,,6.21,29.52756,,,,,,,,,,,FEW,6000,BKN,8000,OVC,11000,,,VFR,,,,,,,,,,,,SPECI,562.0
ETSN 211620Z AUTO 22004KT //// // ////// 04/M00 Q1000 ///,ETSN,2015-02-21T16:20:00Z,48.72,11.22,4.0,0.0,220,4,,,29.52756,,,TRUE,,,,,,,,,,,,,,,,,,,,,,,,,,,,METAR,387.0
ETGG 211620Z 26014KT 6000 BKN011 02/02 Q0994 GRN,ETGG,2015-02-21T16:20:00Z,54.83,9.5,2.0,2.0,260,14,,3.73,29.350393,,,,,,,,,,,BKN,1100,,,,,,,MVFR,,,,,,,,,,,,SPECI,33.0
ETHB 211620Z AUTO 24008KT 9000 // ////// 04/01 Q0999 ///,ETHB,2015-02-21T16:20:00Z,52.27,9.07,4.0,1.0,240,8,,5.59,29.498032,,,TRUE,,,,,,,,,,,,,,,,,,,,,,,,,,,,SPECI,78.0
ETHC 211620Z 25013KT 9999 SCT025 BKN058 05/M00 Q0998 BLU,ETHC,2015-02-21T16:20:00Z,52.6,10.02,5.0,0.0,250,13,,6.21,29.468504,,,,,,,,,,,SCT,2500,BKN,5800,,,,,VFR,,,,,,,,,,,,SPECI,52.0
ETHE 211620Z AUTO 23006KT //// // ////// 03/02 Q0999 ///,ETHE,2015-02-21T16:20:00Z,52.28,7.37,3.0,2.0,230,6,,,29.498032,,,TRUE,,,,,,,,,,,,,,,,,,,,,,,,,,,,SPECI,49.0
ETHF 211620Z 25004KT 9999 FEW032 BKN170 05/M01 Q0999 BLU,ETHF,2015-02-21T16:20:00Z,51.12,9.27,5.0,-1.0,250,4,,6.21,29.498032,,,,,,,,,,,FEW,3200,BKN,17000,,,,,VFR,,,,,,,,,,,,SPECI,181.0
ETHS 211620Z 23008KT 9999 MIFG FEW015TCU SCT040 BKN300 04/01 Q0997 BLU+,ETHS,2015-02-21T16:20:00Z,52.92,10.18,4.0,1.0,230,8,,6.21,29.438976,,,,,,,,,,MIFG,FEW,1500,SCT,4000,BKN,30000,,,VFR,,,,,,,,,,,,SPECI,88.0
ETML 211620Z AUTO 27019KT //// // ////// 02/01 Q0993 ///,ETML,2015-02-21T16:20:00Z,,,2.0,1.0,270,19,,,29.320866,,,TRUE,,,,,,,,,,,,,,,,,,,,,,,,,,,,SPECI,
ETMN 211620Z 25010KT 9999 SCT008 BKN031 03/02 Q0996 BLU,ETMN,2015-02-21T16:20:00Z,53.77,8.67,3.0,2.0,250,10,,6.21,29.409449,,,,,,,,,,,SCT,800,BKN,3100,,,,,VFR,,,,,,,,,,,,SPECI,31.0
ENTC 211620Z 21009KT 9999 BKN036 02/M01 Q0978 TEMPO 4000 -SHSNRA VV010,ENTC,2015-02-21T16:20:00Z,69.68,18.92,2.0,-1.0,210,9,,6.21,28.877953,,,,,,,,,,,BKN,3600,,,,,,,VFR,,,,,,,,,,,,SPECI,10.0
EGPN 211620Z 29012KT 9999 FEW040 06/M01 Q0997,EGPN,2015-02-21T16:20:00Z,56.45,-3.02,6.0,-1.0,290,12,,6.21,29.438976,,,,,,,,,,,FEW,4000,,,,,,,VFR,,,,,,,,,,,,METAR,4.0
ETNL 211620Z 26018KT 9999 BKN023 BKN039 04/M00 Q0995 WHT,ETNL,2015-02-21T16:20:00Z,53.92,12.27,4.0,0.0,260,18,,6.21,29.379921,,,,,,,,,,,BKN,2300,BKN,3900,,,,,MVFR,,,,,,,,,,,,SPECI,40.0
ETNS 211620Z AUTO 25007KT 5000 // ////// 02/01 Q0995 ///,ETNS,2015-02-21T16:20:00Z,54.47,9.52,2.0,1.0,250,7,,3.11,29.379921,,,TRUE,,,,,,,,,,,,,,,,,,,,,,,,,,,,METAR,25.0
ETNT 211620Z 26012KT 9999 SCT015 BKN021 04/02 Q0997 WHT,ETNT,2015-02-21T16:20:00Z,53.53,7.67,4.0,2.0,260,12,,6.21,29.438976,,,,,,,,,,,SCT,1500,BKN,2100,,,,,MVFR,,,,,,,,,,,,SPECI,12.0
ETNW 211620Z AUTO 23010KT 9000 // ////// 04/01 Q0998 ///,ETNW,2015-02-21T16:20:00Z,52.45,9.42,4.0,1.0,230,10,,5.59,29.468504,,,TRUE,,,,,,,,,,,,,,,,,,,,,,,,,,,,METAR,70.0
ETSH 211620Z 28007KT 9999 FEW020 BKN032 05/02 Q0999 BLU,ETSH,2015-02-21T16:20:00Z,51.77,13.17,5.0,2.0,280,7,,6.21,29.498032,,,,,,,,,,,FEW,2000,BKN,3200,,,,,VFR,,,,,,,,,,,,SPECI,79.0
ETWM 211620Z AUTO 24006KT 9999 // ////// 04/02 Q0998 ///,ETWM,2015-02-21T16:20:00Z,52.72,7.33,4.0,2.0,240,6,,6.21,29.468504,,,TRUE,,,,,,,,,,,,,,,,,,,,,,,,,,,,SPECI,21.0
ETSA 211620Z 26008KT 9999 SCT090 BKN130 04/M03 Q1000 BLU,ETSA,2015-02-21T16:20:00Z,48.07,10.9,4.0,-3.0,260,8,,6.21,29.52756,,,,,,,,,,,SCT,9000,BKN,13000,,,,,VFR,,,,,,,,,,,,METAR,628.0
ETHA 211620Z AUTO 27007KT //// // ////// 02/M03 Q1000 ///,ETHA,2015-02-21T16:20:00Z,47.82,10.87,2.0,-3.0,270,7,,,29.52756,,,TRUE,,,,,,,,,,,,,,,,,,,,,,,,,,,,SPECI,760.0
PADG 211615Z 09018KT 7SM -SN BKN040 00/M03 A2985,PADG,2015-02-21T16:15:00Z,68.03,-162.9,0.0,-3.0,90,18,,7.0,29.84941,,,,,,,,,,-SN,BKN,4000,,,,,,,VFR,,,,,,,,,,,,SPECI,297.0
K5M9 211615Z AUTO 35005KT 2SM RA OVC002 00/00 A2987 RMK AO2 T00010001,K5M9,2015-02-21T16:15:00Z,37.33,-88.12,0.1,0.1,350,5,,2.0,29.870079,,,TRUE,TRUE,,,,,,RA,OVC,200,,,,,,,LIFR,,,,,,,,,,,,METAR,199.0
KRCM 211615Z AUTO 23003KT 2 1/2SM BR CLR 02/01 A2997 RMK AO2,KRCM,2015-02-21T16:15:00Z,38.78,-93.8,2.0,1.0,230,3,,2.5,29.970472,,,TRUE,TRUE,,,,,,BR,CLR,,,,,,,,IFR,,,,,,,,,,,,METAR,244.0
LHPR 211615Z 18011KT CAVOK 10/01 Q1005,LHPR,2015-02-21T16:15:00Z,47.63,17.82,10.0,1.0,180,11,,6.21,29.675198,,,,,,,,,,,CAVOK,,,,,,,,VFR,,,,,,,,,,,,METAR,129.0
VAAH 211610Z VRB03KT 4000 FU NSC 27/13 Q1013 NOSIG,VAAH,2015-02-21T16:10:00Z,23.07,72.62,27.0,13.0,0,3,,2.49,29.911417,,,,,,TRUE,,,,FU,,,,,,,,,,,,,,,,,,,,,SPECI,55.0
OENG 211605Z 06012KT 1200 BLDU SKC 27/04 Q1013 NOSIG,OENG,2015-02-21T16:05:00Z,17.62,44.42,27.0,4.0,60,12,,0.75,29.911417,,,,,,TRUE,,,,BLDU,SKC,,,,,,,,LIFR,,,,,,,,,,,,SPECI,1203.0
DGAA 211601Z 18012KT 9999 FEW030CB 30/24 Q1007 NOSIG,DGAA,2015-02-21T16:01:00Z,5.58,-0.17,30.0,24.0,180,12,,6.21,29.734253,,,,,,TRUE,,,,,FEW,3000,,,,,,,VFR,,,,,,,,,,,,METAR,69.0
FNUE 211600Z 11006KT 9999 SCT030 FEW032TCU 28/18 Q1013,FNUE,2015-02-21T16:00:00Z,-11.77,19.9,28.0,18.0,110,6,,6.21,29.911417,,,,,,,,,,,SCT,3000,FEW,3200,,,,,VFR,,,,,,,,,,,,METAR,1329.0
CWWS 211600Z AUTO 35016KT M30/M35 RMK AO1 SOG 56 2022 PK WND 35018/1556 SLP303 T13041346,CWWS,2015-02-21T16:00:00Z,52.82,-97.62,-30.4,-34.6,350,16,,,,1030.3,,TRUE,TRUE,,,,,,,,,,,,,,,,,,,,,,,,,,,METAR,223.0
NFNA 211600Z 00000KT 40KM BKN020 BKN045 26/25 Q1006 RMK NIL ,NFNA,2015-02-21T16:00:00Z,-18.05,178.57,26.0,25.0,0,0,,24.86,29.704725,,,,,,,,,,,BKN,2000,BKN,4500,,,,,MVFR,,,,,,,,,,,,METAR,5.0
OIAD 211600Z 00000KT 1000M DU SCT040 BKN090 11/05 Q1012 A2990,OIAD,2015-02-21T16:00:00Z,32.43,48.4,11.0,5.0,0,0,,0.62,29.88189,,,,,,,,,,DU,SCT,4000,BKN,9000,,,,,LIFR,,,,,,,,,,,,METAR,143.0
MYGF 211600Z 10015KT 9999 SCT020 BKN250 21/14 A3029 ,MYGF,2015-02-21T16:00:00Z,26.55,-78.7,21.0,14.0,100,15,,6.21,30.28937,,,,,,,,,,,SCT,2000,BKN,25000,,,,,VFR,,,,,,,,,,,,METAR,2.0
UTFF 211600Z 01002KT 010V080 5000 BR NSC 08/03 Q1014 R18/CLRD70,UTFF,2015-02-21T16:00:00Z,40.37,71.77,8.0,3.0,10,2,,3.11,29.940945,,,,,,,,,,BR,,,,,,,,,,,,,,,,,,,,,METAR,577.0
WMKD 211600Z 35002KT 9999 FEW024 SCT160 BKN280 24/22 Q1012 NOSIG,WMKD,2015-02-21T16:00:00Z,3.77,103.22,24.0,22.0,350,2,,6.21,29.88189,,,,,,TRUE,,,,,FEW,2400,SCT,16000,BKN,28000,,,VFR,,,,,,,,,,,,METAR,16.0
CWXA 211600Z AUTO 03003KT M09/M11 RMK AO1 2PAST HR 3023 SLP337 P0001 T10931109 50002,CWXA,2015-02-21T16:00:00Z,51.07,-115.07,-9.3,-10.9,30,3,,,,1033.7,,TRUE,TRUE,,,,,,,,,,,,,,,,0.2,,,,,0.01,,,,,,METAR,1298.0
UKLN 211600Z 10002MPS CAVOK 04/01 Q1010 1509//70 NOSIG,UKLN,2015-02-21T16:00:00Z,48.27,25.98,4.0,1.0,100,4,,6.21,29.822834,,,,,,TRUE,,,,,CAVOK,,,,,,,,VFR,,,,,,,,,,,,METAR,252.0
CWRY 211600Z AUTO 34013KT M06/M07 RMK AO1 SOG 03 3008 PK WND 34017/1553 SLP305 T10551067 50003,CWRY,2015-02-21T16:00:00Z,49.12,-112.03,-5.5,-6.7,340,13,,,,1030.5,,TRUE,TRUE,,,,,,,,,,,,,,,,0.3,,,,,,,,,,,METAR,1050.0
FBSP 211600Z 14009KT CAVOK 35/17 Q1012,FBSP,2015-02-21T16:00:00Z,-22.05,27.82,35.0,17.0,140,9,,6.21,29.88189,,,,,,,,,,,CAVOK,,,,,,,,VFR,,,,,,,,,,,,METAR,892.0
FBMN 211600Z VRB01KT 9999 FEW030 36/11 Q1010,FBMN,2015-02-21T16:00:00Z,-19.97,23.42,36.0,11.0,0,1,,6.21,29.822834,,,,,,,,,,,FEW,3000,,,,,,,VFR,,,,,,,,,,,,METAR,900.0
FALW 211600Z AUTO 21017KT //// // ////// 19/06 Q1019,FALW,2015-02-21T16:00:00Z,-32.97,18.17,19.0,6.0,210,17,,,30.088583,,,TRUE,,,,,,,,,,,,,,,,,,,,,,,,,,,,METAR,0.0
LESU 211600Z 31011KT CAVOK 07/M04 Q1001,LESU,2015-02-21T16:00:00Z,42.33,1.4,7.0,-4.0,310,11,,6.21,29.557087,,,,,,,,,,,CAVOK,,,,,,,,VFR,,,,,,,,,,,,METAR,800.0
GUCY 211600Z 18010KT 9999 FEW015 30/25 Q1008 NOSIG,GUCY,2015-02-21T16:00:00Z,9.57,-13.62,30.0,25.0,180,10,,6.21,29.763779,,,,,,TRUE,,,,,FEW,1500,,,,,,,VFR,,,,,,,,,,,,METAR,26.0
FKKD 211600Z 22007KT 9999 SCT020 FEW023CB 31/25 Q1006 NOSIG,FKKD,2015-02-21T16:00:00Z,4.0,9.72,31.0,25.0,220,7,,6.21,29.704725,,,,,,TRUE,,,,,SCT,2000,FEW,2300,,,,,VFR,,,,,,,,,,,,METAR,9.0
CWYL 211600Z AUTO 08005KT M07/M12 RMK AO1 SOG 84 3008 SLP300 T10711121,CWYL,2015-02-21T16:00:00Z,51.45,-116.32,-7.1,-12.1,80,5,,,,1030.0,,TRUE,TRUE,,,,,,,,,,,,,,,,,,,,,,,,,,,METAR,1615.0
CWDK 211600Z AUTO 03010KT M08/M10 RMK AO1 SOG 00 3029 PK WND 03022/1520 SLP348 T10831102 50002,CWDK,2015-02-21T16:00:00Z,50.02,-113.62,-8.3,-10.2,30,10,,,,1034.8,,TRUE,TRUE,,,,,,,,,,,,,,,,0.2,,,,,,,,,,,METAR,1012.0
CWCJ 211600Z AUTO 02006KT M15/M18 RMK AO1 SOG 65 3018 SLP142 T11461184 50002,CWCJ,2015-02-21T16:00:00Z,48.6,-86.28,-14.6,-18.4,20,6,,,,1014.2,,TRUE,TRUE,,,,,,,,,,,,,,,,0.2,,,,,,,,,,,METAR,206.0
CWJD 211600Z AUTO 34007KT M28/M34 RMK AO1 2PAST HR SOG 44 1029 SLP328 P0001 T12831336 50002,CWJD,2015-02-21T16:00:00Z,53.17,-99.27,-28.3,-33.6,340,7,,,,1032.8,,TRUE,TRUE,,,,,,,,,,,,,,,,0.2,,,,,0.01,,,,,,METAR,223.0
CWIW 211600Z AUTO 31008KT M25/M28 RMK AO1 SOG 05 3019 SLP342 T12461275,CWIW,2015-02-21T16:00:00Z,51.67,-105.4,-24.6,-27.5,310,8,,,,1034.2,,TRUE,TRUE,,,,,,,,,,,,,,,,,,,,,,,,,,,METAR,526.0
CWIG 211600Z AUTO 24008KT RMK AO1,CWIG,2015-02-21T16:00:00Z,47.07,-70.53,,,240,8,,,,,,TRUE,TRUE,,,,,,,,,,,,,,,,,,,,,,,,,,,METAR,18.0
CWHT 211600Z AUTO 07002KT M06/M07 RMK AO1 SOG 33 8017 SLP259 T10571071,CWHT,2015-02-21T16:00:00Z,60.77,-137.58,-5.7,-7.1,70,2,,,,1025.9,,TRUE,TRUE,,,,,,,,,,,,,,,,,,,,,,,,,,,METAR,599.0
CWMM 211600Z AUTO 11002KT M00/M00 RMK AO1 SLP283 T10041004 53015,CWMM,2015-02-21T16:00:00Z,49.22,-122.68,-0.4,-0.4,110,2,,,,1028.3,,TRUE,TRUE,,,,,,,,,,,,,,,,1.5,,,,,,,,,,,METAR,5.0
CWSS 211600Z AUTO 21007KT M08/M19 RMK AO1 SOG 59 8003 SLP320 T10771186,CWSS,2015-02-21T16:00:00Z,45.2,-67.25,-7.7,-18.6,210,7,,,,1032.0,,TRUE,TRUE,,,,,,,,,,,,,,,,,,,,,,,,,,,METAR,26.0
CZHY 211600Z AUTO 18007KT M27/M31 RMK AO1 2PAST HR SOG 34 8020 SLP395 P0001 T12651309 50007,CZHY,2015-02-21T16:00:00Z,60.83,-115.78,-26.5,-30.9,180,7,,,,1039.5,,TRUE,TRUE,,,,,,,,,,,,,,,,0.7,,,,,0.01,,,,,,METAR,164.0
CTRA 211600Z AUTO 36004KT M22/M25 RMK AO1 SLP239 T12221252 51024,CTRA,2015-02-21T16:00:00Z,49.67,-93.73,-22.2,-25.2,360,4,,,,1023.9,,TRUE,TRUE,,,,,,,,,,,,,,,,2.4,,,,,,,,,,,METAR,435.0
CWIK 211600Z AUTO 30006KT M23/M27 RMK AO1 SOG 15 2013 SLP297 T12251273 50002,CWIK,2015-02-21T16:00:00Z,50.37,-102.58,-22.5,-27.3,300,6,,,,1029.7,,TRUE,TRUE,,,,,,,,,,,,,,,,0.2,,,,,,,,,,,METAR,602.0
FLKK 211600Z 13007KT 9999 FEW045CB 24/18 Q1014,FLKK,2015-02-21T16:00:00Z,-15.32,28.45,24.0,18.0,130,7,,6.21,29.940945,,,,,,,,,,,FEW,4500,,,,,,,VFR,,,,,,,,,,,,METAR,1154.0
DTTG 211600Z 20004KT 160V220 5000 SCT020 BKN030 14/12 Q1006 NOSIG,DTTG,2015-02-21T16:00:00Z,33.73,9.92,14.0,12.0,200,4,,3.11,29.704725,,,,,,TRUE,,,,,SCT,2000,BKN,3000,,,,,MVFR,,,,,,,,,,,,METAR,5.0
LEGT 211600Z 35016KT 9999 FEW040 12/M02 Q1009,LEGT,2015-02-21T16:00:00Z,40.28,-3.72,12.0,-2.0,350,16,,6.21,29.793306,,,,,,,,,,,FEW,4000,,,,,,,VFR,,,,,,,,,,,,METAR,612.0
RPLB 211600Z 00000KT 9999 FEW020 BKN300 24/19 Q1015 NOSIG RMK A2997,RPLB,2015-02-21T16:00:00Z,14.8,120.27,24.0,19.0,0,0,,6.21,29.970472,,,,,,TRUE,,,,,FEW,2000,BKN,30000,,,,,VFR,,,,,,,,,,,,METAR,17.0
PLCH 211600Z 14004KT 9999 FEW020 25/22 Q1009,PLCH,2015-02-21T16:00:00Z,1.98,-157.35,25.0,22.0,140,4,,6.21,29.793306,,,,,,,,,,,FEW,2000,,,,,,,VFR,,,,,,,,,,,,METAR,3.0
FAUT 211600Z AUTO /////KT //// // ////// ///// Q////,FAUT,2015-02-21T16:00:00Z,-31.52,28.67,,,,,,,,,,TRUE,,,,,,,,,,,,,,,,,,,,,,,,,,,,METAR,732.0
CWPE 211600Z AUTO 24004KT M07/M15 RMK AO1 SOG 21 0006 SLP331 T10681151,CWPE,2015-02-21T16:00:00Z,45.07,-66.47,-6.8,-15.1,240,4,,,,1033.1,,TRUE,TRUE,,,,,,,,,,,,,,,,,,,,,,,,,,,METAR,1.0
KHEF 211600Z 18010KT 1/2SM SN OVC009 M08/M09 A3040,KHEF,2015-02-21T16:00:00Z,38.72,-77.52,-8.0,-9.0,180,10,,0.5,30.398623,,,,,,,,,,SN,OVC,900,,,,,,,LIFR,,,,,,,,,,,,SPECI,59.0
ORRE 211600Z 14007KT 9000 NSC 05/01 Q1015 NOSIG,ORRE,2015-02-21T16:00:00Z,,,5.0,1.0,140,7,,5.59,29.970472,,,,,,TRUE,,,,,,,,,,,,,,,,,,,,,,,,,METAR,
SAWH 211600Z 23015KT 9999 SCT040 12/03 Q1005,SAWH,2015-02-21T16:00:00Z,-54.85,-68.3,12.0,3.0,230,15,,6.21,29.675198,,,,,,,,,,,SCT,4000,,,,,,,VFR,,,,,,,,,,,,METAR,14.0
OERY 211600Z 23006KT 6000 SKC 17/M03 Q1013,OERY,2015-02-21T16:00:00Z,24.72,46.72,17.0,-3.0,230,6,,3.73,29.911417,,,,,,,,,,,SKC,,,,,,,,MVFR,,,,,,,,,,,,METAR,612.0
CYLJ 211600Z 30007KT 15SM SKC M28/M31 A3054 RMK SLP401,CYLJ,2015-02-21T16:00:00Z,54.12,-108.52,-28.0,-31.0,300,7,,15.0,30.540354,1040.1,,,,,,,,,,SKC,,,,,,,,VFR,,,,,,,,,,,,METAR,480.0
VTSG 211600Z 07002KT 9999 FEW020 23/20 Q1012 A2990,VTSG,2015-02-21T16:00:00Z,8.1,98.98,23.0,20.0,70,2,,6.21,29.88189,,,,,,,,,,,FEW,2000,,,,,,,VFR,,,,,,,,,,,,METAR,25.0
UUBP 211600Z 18004MPS 4000 BR OVC012 02/01 Q1014 NOSIG 16190060 RMK QFE742,UUBP,2015-02-21T16:00:00Z,53.22,34.18,2.0,1.0,180,8,,2.49,29.940945,,,,,,TRUE,,,,BR,OVC,1200,,,,,,,IFR,,,,,,,,,,,,METAR,202.0
SVVA 211600Z 14003KT 9999 SCT016 31/21 Q1016,SVVA,2015-02-21T16:00:00Z,10.15,-67.92,31.0,21.0,140,3,,6.21,30.0,,,,,,,,,,,SCT,1600,,,,,,,VFR,,,,,,,,,,,,METAR,431.0
SVMG 211600Z /////KT 9999 SCT010 31/23 Q1013 NOSIG,SVMG,2015-02-21T16:00:00Z,10.92,-63.97,31.0,23.0,,,,6.21,29.911417,,,,,,TRUE,,,,,SCT,1000,,,,,,,VFR,,,,,,,,,,,,METAR,23.0
SVBC 211600Z 00000KT 9000 HZ FEW010 34/27 Q1016,SVBC,2015-02-21T16:00:00Z,10.12,-64.67,34.0,27.0,0,0,,5.59,30.0,,,,,,,,,,HZ,FEW,1000,,,,,,,VFR,,,,,,,,,,,,METAR,7.0
FKKN 211600Z 02002KT CAVOK 30/10 Q1012,FKKN,2015-02-21T16:00:00Z,7.33,13.57,30.0,10.0,20,2,,6.21,29.88189,,,,,,,,,,,CAVOK,,,,,,,,VFR,,,,,,,,,,,,METAR,1104.0
FKYS 211600Z 21005KT 170V270 9999 BKN023 FEW026CB 30/20 Q1010 BECMG TS,FKYS,2015-02-21T16:00:00Z,3.82,11.52,30.0,20.0,210,5,,6.21,29.822834,,,,,,,,,,,BKN,2300,FEW,2600,,,,,MVFR,,,,,,,,,,,,METAR,760.0
FKKR 211600Z 22004KT 8000 NSC 38/06 Q1004 NOSIG,FKKR,2015-02-21T16:00:00Z,9.32,13.37,38.0,6.0,220,4,,4.97,29.64567,,,,,,TRUE,,,,,,,,,,,,,,,,,,,,,,,,,METAR,244.0
URMN 211600Z 07002MPS 9999 OVC013 M03/M04 Q1024 NOSIG RMK MT OBSC QFE731 SC045,URMN,2015-02-21T16:00:00Z,43.52,43.63,-3.0,-4.0,70,4,,6.21,30.236221,,,,,,TRUE,,,,,OVC,1300,,,,,,,MVFR,,,,,,,,,,,,METAR,445.0
URML 211600Z 36004MPS 9999 SCT100 00/M04 Q1027 NOSIG RMK QFE770/1027 SC070,URML,2015-02-21T16:00:00Z,42.82,47.65,0.0,-4.0,360,8,,6.21,30.324802,,,,,,TRUE,,,,,SCT,10000,,,,,,,VFR,,,,,,,,,,,,METAR,4.0
URWI 211600Z 12003MPS 9999 SKC M02/M07 Q1027 NOSIG,URWI,2015-02-21T16:00:00Z,46.37,44.33,-2.0,-7.0,120,6,,6.21,30.324802,,,,,,TRUE,,,,,SKC,,,,,,,,VFR,,,,,,,,,,,,METAR,150.0
SARC 211600Z 14006KT 030V190 9999 SCT025 29/21 Q1015,SARC,2015-02-21T16:00:00Z,-27.43,-58.77,29.0,21.0,140,6,,6.21,29.970472,,,,,,,,,,,SCT,2500,,,,,,,VFR,,,,,,,,,,,,METAR,62.0
SKPV 211600Z 08008KT 9999 FEW018 29/23 A////,SKPV,2015-02-21T16:00:00Z,13.37,-81.33,29.0,23.0,80,8,,6.21,,,,,,,,,,,,FEW,1800,,,,,,,VFR,,,,,,,,,,,,METAR,6.0
SKSP 211600Z 08009KT 9999 SCT016 28/24 A2997,SKSP,2015-02-21T16:00:00Z,12.57,-81.72,28.0,24.0,80,9,,6.21,29.970472,,,,,,,,,,,SCT,1600,,,,,,,VFR,,,,,,,,,,,,METAR,-2.0
SKCG 211600Z 35010KT 9999 FEW020 31/24 A2989 METAR ,SKCG,2015-02-21T16:00:00Z,10.43,-75.52,31.0,24.0,350,10,,6.21,29.890747,,,,,,,,,,,FEW,2000,,,,,,,VFR,,,,,,,,,,,,METAR,1.0
SKSM 211600Z 23006KT 9999 FEW020 29/24 A2993,SKSM,2015-02-21T16:00:00Z,11.12,-74.22,29.0,24.0,230,6,,6.21,29.929134,,,,,,,,,,,FEW,2000,,,,,,,VFR,,,,,,,,,,,,METAR,4.0
SKRH 211600Z 11016G26KT 9999 SCT020 33/19 A2996,SKRH,2015-02-21T16:00:00Z,11.52,-72.92,33.0,19.0,110,16,26,6.21,29.958662,,,,,,,,,,,SCT,2000,,,,,,,VFR,,,,,,,,,,,,METAR,4.0
SKVP 211600Z 06017KT 9999 FEW022 BKN200 33/17 A2994,SKVP,2015-02-21T16:00:00Z,10.42,-73.25,33.0,17.0,60,17,,6.21,29.940945,,,,,,,,,,,FEW,2200,BKN,20000,,,,,VFR,,,,,,,,,,,,METAR,138.0
SKMR 211600Z 00000KT 9999 SCT020 32/23 A2986,SKMR,2015-02-21T16:00:00Z,8.82,-75.83,32.0,23.0,0,0,,6.21,29.861221,,,,,,,,,,,SCT,2000,,,,,,,VFR,,,,,,,,,,,,METAR,26.0
SKBG 211600Z 34005KT 9999 FEW015 SCT070 24/18 A3004,SKBG,2015-02-21T16:00:00Z,7.13,-73.18,24.0,18.0,340,5,,6.21,30.041338,,,,,,,,,,,FEW,1500,SCT,7000,,,,,VFR,,,,,,,,,,,,METAR,1189.0
SKEJ 211600Z 00000KT 9999 FEW015 30/23 A2987,SKEJ,2015-02-21T16:00:00Z,7.02,-73.78,30.0,23.0,0,0,,6.21,29.870079,,,,,,,,,,,FEW,1500,,,,,,,VFR,,,,,,,,,,,,METAR,134.0
SKLC 211600Z 31012KT 9999 SCT025 31/23 A2988,SKLC,2015-02-21T16:00:00Z,7.82,-76.7,31.0,23.0,310,12,,6.21,29.878937,,,,,,,,,,,SCT,2500,,,,,,,VFR,,,,,,,,,,,,METAR,30.0
SKUI 211600Z 02009KT 7000 BKN015 28/24 A2989 RMK HZ,SKUI,2015-02-21T16:00:00Z,5.72,-76.62,28.0,24.0,20,9,,4.35,29.890747,,,,,,,,,,,BKN,1500,,,,,,,MVFR,,,,,,,,,,,,METAR,33.0
SKPC 211600Z 07018KT 9999 FEW020 33/21 A2985,SKPC,2015-02-21T16:00:00Z,6.17,-67.5,33.0,21.0,70,18,,6.21,29.84941,,,,,,,,,,,FEW,2000,,,,,,,VFR,,,,,,,,,,,,METAR,55.0
SKRG 211600Z 08006KT 9999 FEW020 20/11 A3032,SKRG,2015-02-21T16:00:00Z,6.17,-75.42,20.0,11.0,80,6,,6.21,30.318897,,,,,,,,,,,FEW,2000,,,,,,,VFR,,,,,,,,,,,,METAR,2137.0
SKMD 211600Z 09006KT 9999 FEW030 24/13 A3016,SKMD,2015-02-21T16:00:00Z,6.22,-75.58,24.0,13.0,90,6,,6.21,30.159449,,,,,,,,,,,FEW,3000,,,,,,,VFR,,,,,,,,,,,,METAR,1499.0
SKUC 211600Z 10007KT 9999 FEW017 31/20 A2994,SKUC,2015-02-21T16:00:00Z,7.07,-70.72,31.0,20.0,100,7,,6.21,29.940945,,,,,,,,,,,FEW,1700,,,,,,,VFR,,,,,,,,,,,,METAR,128.0
SKCC 211600Z 36006KT 9999 SCT018 27/20 A3003,SKCC,2015-02-21T16:00:00Z,7.92,-72.52,27.0,20.0,360,6,,6.21,30.029528,,,,,,,,,,,SCT,1800,,,,,,,VFR,,,,,,,,,,,,METAR,317.0
SKPE 211600Z 13003KT 9999 FEW023 25/17 A3007,SKPE,2015-02-21T16:00:00Z,4.82,-75.73,25.0,17.0,130,3,,6.21,30.070866,,,,,,,,,,,FEW,2300,,,,,,,VFR,,,,,,,,,,,,METAR,1346.0
SKAR 211600Z 00000KT 9999 SCT023 26/19 A3008,SKAR,2015-02-21T16:00:00Z,4.45,-75.77,26.0,19.0,0,0,,6.21,30.079725,,,,,,,,,,,SCT,2300,,,,,,,VFR,,,,,,,,,,,,METAR,1219.0
SKIB 211600Z 07004KT 9999 SCT020 BKN100 27/20 A3009,SKIB,2015-02-21T16:00:00Z,4.42,-75.15,27.0,20.0,70,4,,6.21,30.088583,,,,,,,,,,,SCT,2000,BKN,10000,,,,,VFR,,,,,,,,,,,,METAR,928.0
SKBO 211600Z 03007KT 9999 FEW023 SCT200 20/05 A3033,SKBO,2015-02-21T16:00:00Z,4.7,-74.12,20.0,5.0,30,7,,6.21,30.33071,,,,,,,,,,,FEW,2300,SCT,20000,,,,,VFR,,,,,,,,,,,,METAR,2548.0
SKVV 211600Z 04004KT 9999 NSC 32/16 A2995,SKVV,2015-02-21T16:00:00Z,4.17,-73.62,32.0,16.0,40,4,,6.21,29.949802,,,,,,,,,,,,,,,,,,,,,,,,,,,,,,,METAR,431.0
SKCL 211600Z VRB02KT 9999 FEW025 27/18 A2999 RMK / HZ,SKCL,2015-02-21T16:00:00Z,3.53,-76.37,27.0,18.0,0,2,,6.21,29.991142,,,,,,,,,,,FEW,2500,,,,,,,VFR,,,,,,,,,,,,METAR,969.0
SKPS 211600Z 34005KT 9999 FEW023 22/14 A3019 RMK HZ,SKPS,2015-02-21T16:00:00Z,1.4,-77.28,22.0,14.0,340,5,,6.21,30.188976,,,,,,,,,,,FEW,2300,,,,,,,VFR,,,,,,,,,,,,METAR,1826.0
SKNV 211600Z 02008KT 9000 FEW020 30/19 A2990 RMK HZ,SKNV,2015-02-21T16:00:00Z,2.97,-75.28,30.0,19.0,20,8,,5.59,29.899607,,,,,,,,,,,FEW,2000,,,,,,,VFR,,,,,,,,,,,,METAR,443.0
SKIP 211600Z 08006KT 9999 SCT020 16/10 A3045,SKIP,2015-02-21T16:00:00Z,0.88,-77.67,16.0,10.0,80,6,,6.21,30.448818,,,,,,,,,,,SCT,2000,,,,,,,VFR,,,,,,,,,,,,METAR,2961.0
DAAP 211600Z 23020KT 1500 -RA DRSA OVC040 18/13 Q1008,DAAP,2015-02-21T16:00:00Z,26.72,8.62,18.0,13.0,230,20,,0.93,29.763779,,,,,,,,,,-RA DRSA,OVC,4000,,,,,,,LIFR,,,,,,,,,,,,METAR,558.0
DABS 211600Z 24004KT 8000 FEW033 BKN100 11/05 Q1004,DABS,2015-02-21T16:00:00Z,35.43,8.12,11.0,5.0,240,4,,4.97,29.64567,,,,,,,,,,,FEW,3300,BKN,10000,,,,,MVFR,,,,,,,,,,,,METAR,813.0
OEGN 211600Z 28008KT CAVOK 28/21 Q1011 NOSIG,OEGN,2015-02-21T16:00:00Z,16.88,42.57,28.0,21.0,280,8,,6.21,29.852362,,,,,,TRUE,,,,,CAVOK,,,,,,,,VFR,,,,,,,,,,,,METAR,3.0
OEDM 211600Z 27012KT CAVOK 16/M07 Q1012,OEDM,2015-02-21T16:00:00Z,24.45,44.12,16.0,-7.0,270,12,,6.21,29.88189,,,,,,,,,,,CAVOK,,,,,,,,VFR,,,,,,,,,,,,METAR,922.0
OEBA 211600Z 20004KT 9999 FEW030 16/10 Q1017 NOSIG,OEBA,2015-02-21T16:00:00Z,20.3,41.62,16.0,10.0,200,4,,6.21,30.029528,,,,,,TRUE,,,,,FEW,3000,,,,,,,VFR,,,,,,,,,,,,METAR,1656.0
OEAO 211600Z 26010KT 9999 FEW035 16/02 Q1015,OEAO,2015-02-21T16:00:00Z,26.48,38.12,16.0,2.0,260,10,,6.21,29.970472,,,,,,,,,,,FEW,3500,,,,,,,VFR,,,,,,,,,,,,METAR,624.0
OEAH 211600Z 36008KT CAVOK 16/M07 Q1013 NOSIG,OEAH,2015-02-21T16:00:00Z,25.27,49.47,16.0,-7.0,360,8,,6.21,29.911417,,,,,,TRUE,,,,,CAVOK,,,,,,,,VFR,,,,,,,,,,,,METAR,172.0
OEAB 211600Z 21018KT 9999 SCT008 14/11 Q1020 NOSIG,OEAB,2015-02-21T16:00:00Z,18.22,42.63,14.0,11.0,210,18,,6.21,30.11811,,,,,,TRUE,,,,,SCT,800,,,,,,,VFR,,,,,,,,,,,,METAR,2084.0
SKBQ 211600Z 32006KT CAVOK 31/24 A2991,SKBQ,2015-02-21T16:00:00Z,10.9,-74.77,31.0,24.0,320,6,,6.21,29.911417,,,,,,,,,,,CAVOK,,,,,,,,VFR,,,,,,,,,,,,METAR,10.0
OETB 211600Z 33022KT 9999 BKN040 10/01 Q1015 NOSIG,OETB,2015-02-21T16:00:00Z,28.37,36.62,10.0,1.0,330,22,,6.21,29.970472,,,,,,TRUE,,,,,BKN,4000,,,,,,,VFR,,,,,,,,,,,,METAR,770.0
OESK 211600Z 28014KT 9999 BKN030 09/02 Q1014 NOSIG,OESK,2015-02-21T16:00:00Z,29.77,40.1,9.0,2.0,280,14,,6.21,29.940945,,,,,,TRUE,,,,,BKN,3000,,,,,,,MVFR,,,,,,,,,,,,METAR,684.0
OESH 211600Z 06015KT 2000 BLDU SKC 28/03 Q1010 NOSIG,OESH,2015-02-21T16:00:00Z,17.47,47.12,28.0,3.0,60,15,,1.24,29.822834,,,,,,TRUE,,,,BLDU,SKC,,,,,,,,IFR,,,,,,,,,,,,METAR,722.0
OERR 211600Z 36012KT 9999 SCT040 05/05 Q1012 NOSIG,OERR,2015-02-21T16:00:00Z,30.88,41.12,5.0,5.0,360,12,,6.21,29.88189,,,,,,TRUE,,,,,SCT,4000,,,,,,,VFR,,,,,,,,,,,,METAR,552.0
OERF 211600Z 29005KT 9000 RA BKN040 09/03 Q1011,OERF,2015-02-21T16:00:00Z,29.62,43.47,9.0,3.0,290,5,,5.59,29.852362,,,,,,,,,,RA,BKN,4000,,,,,,,VFR,,,,,,,,,,,,METAR,447.0
OEPA 211600Z 20003KT CAVOK 14/07 Q1011 NOSIG,OEPA,2015-02-21T16:00:00Z,28.32,46.12,14.0,7.0,200,3,,6.21,29.852362,,,,,,TRUE,,,,,CAVOK,,,,,,,,VFR,,,,,,,,,,,,METAR,355.0
OEMK 211600Z 30002KT CAVOK 21/08 Q1014,OEMK,2015-02-21T16:00:00Z,21.43,40.0,21.0,8.0,300,2,,6.21,29.940945,,,,,,,,,,,CAVOK,,,,,,,,VFR,,,,,,,,,,,,METAR,369.0
OEKM 211600Z 21012KT 9999 FEW020 14/11 Q1020 NOSIG,OEKM,2015-02-21T16:00:00Z,18.3,42.78,14.0,11.0,210,12,,6.21,30.11811,,,,,,TRUE,,,,,FEW,2000,,,,,,,VFR,,,,,,,,,,,,METAR,2054.0
OEKK 211600Z 24012G22KT 8000 BKN030 16/01 Q1011 NOSIG,OEKK,2015-02-21T16:00:00Z,27.88,45.52,16.0,1.0,240,12,22,4.97,29.852362,,,,,,TRUE,,,,,BKN,3000,,,,,,,MVFR,,,,,,,,,,,,METAR,413.0
OEGT 211600Z 29014KT 9999 SCT030 10/02 Q1012 NOSIG,OEGT,2015-02-21T16:00:00Z,31.42,37.27,10.0,2.0,290,14,,6.21,29.88189,,,,,,TRUE,,,,,SCT,3000,,,,,,,VFR,,,,,,,,,,,,METAR,499.0
OEGS 211600Z 28004KT 9999 FEW040 16/02 Q1011,OEGS,2015-02-21T16:00:00Z,26.3,43.77,16.0,2.0,280,4,,6.21,29.852362,,,,,,,,,,,FEW,4000,,,,,,,VFR,,,,,,,,,,,,METAR,650.0
FSPP 211600Z 07003KT //// //// 27/21 Q1012,FSPP,2015-02-21T16:00:00Z,-4.32,55.7,27.0,21.0,70,3,,,29.88189,,,,,,,,,,,,,,,,,,,,,,,,,,,,,,,METAR,4.0
OEYN 211600Z 26014KT 9999 FEW040 19/08 Q1013 NOSIG,OEYN,2015-02-21T16:00:00Z,24.13,38.07,19.0,8.0,260,14,,6.21,29.911417,,,,,,TRUE,,,,,FEW,4000,,,,,,,VFR,,,,,,,,,,,,METAR,8.0
OEWJ 211600Z 30019KT 9999 BKN040 19/12 Q1015 NOSIG,OEWJ,2015-02-21T16:00:00Z,26.18,36.47,19.0,12.0,300,19,,6.21,29.970472,,,,,,TRUE,,,,,BKN,4000,,,,,,,VFR,,,,,,,,,,,,METAR,16.0
OEWD 211600Z 21002KT 6000 SKC 22/08 Q1011 NOSIG,OEWD,2015-02-21T16:00:00Z,20.5,45.2,22.0,8.0,210,2,,3.73,29.852362,,,,,,TRUE,,,,,SKC,,,,,,,,MVFR,,,,,,,,,,,,METAR,617.0
OETR 211600Z 35011KT 9999 SCT040 06/M01 Q1012 NOSIG,OETR,2015-02-21T16:00:00Z,31.7,38.73,6.0,-1.0,350,11,,6.21,29.88189,,,,,,TRUE,,,,,SCT,4000,,,,,,,VFR,,,,,,,,,,,,METAR,855.0
OETF 211600Z 28018KT CAVOK 14/M03 Q1017 NOSIG,OETF,2015-02-21T16:00:00Z,21.47,40.53,14.0,-3.0,280,18,,6.21,30.029528,,,,,,TRUE,,,,,CAVOK,,,,,,,,VFR,,,,,,,,,,,,METAR,1449.0
SMJP 211600Z 08012KT 9999 FEW015CB SCT020 29/23 Q1013 NOSIG,SMJP,2015-02-21T16:00:00Z,5.45,-55.17,29.0,23.0,80,12,,6.21,29.911417,,,,,,TRUE,,,,,FEW,1500,SCT,2000,,,,,VFR,,,,,,,,,,,,METAR,16.0
HEBL 211600Z 03004KT CAVOK 18/02 Q1018 NOSIG,HEBL,2015-02-21T16:00:00Z,22.38,31.62,18.0,2.0,30,4,,6.21,30.059055,,,,,,TRUE,,,,,CAVOK,,,,,,,,VFR,,,,,,,,,,,,METAR,188.0
HEBA 211600Z 33006KT 9999 BKN020 14/10 Q1018 NOSIG,HEBA,2015-02-21T16:00:00Z,30.92,29.7,14.0,10.0,330,6,,6.21,30.059055,,,,,,TRUE,,,,,BKN,2000,,,,,,,MVFR,,,,,,,,,,,,METAR,54.0
HEAT 211600Z 33009KT CAVOK 16/04 Q1019 NOSIG,HEAT,2015-02-21T16:00:00Z,27.05,31.02,16.0,4.0,330,9,,6.21,30.088583,,,,,,TRUE,,,,,CAVOK,,,,,,,,VFR,,,,,,,,,,,,METAR,70.0
HESH 211600Z 00000KT 9999 SCT020 18/06 Q1015 NOSIG,HESH,2015-02-21T16:00:00Z,27.97,34.38,18.0,6.0,0,0,,6.21,29.970472,,,,,,TRUE,,,,,SCT,2000,,,,,,,VFR,,,,,,,,,,,,METAR,50.0
HEPS 211600Z 34005KT CAVOK 13/10 Q1017 NOSIG,HEPS,2015-02-21T16:00:00Z,31.28,32.25,13.0,10.0,340,5,,6.21,30.029528,,,,,,TRUE,,,,,CAVOK,,,,,,,,VFR,,,,,,,,,,,,METAR,6.0
HEGN 211600Z 36018KT CAVOK 18/08 Q1016 NOSIG,HEGN,2015-02-21T16:00:00Z,27.18,33.8,18.0,8.0,360,18,,6.21,30.0,,,,,,TRUE,,,,,CAVOK,,,,,,,,VFR,,,,,,,,,,,,METAR,14.0
HEAR 211600Z 31002KT CAVOK 12/08 Q1017 NOSIG,HEAR,2015-02-21T16:00:00Z,31.07,33.82,12.0,8.0,310,2,,6.21,30.029528,,,,,,TRUE,,,,,CAVOK,,,,,,,,VFR,,,,,,,,,,,,METAR,32.0
HESN 211600Z 36007KT CAVOK 18/M03 Q1018 NOSIG,HESN,2015-02-21T16:00:00Z,23.97,32.82,18.0,-3.0,360,7,,6.21,30.059055,,,,,,TRUE,,,,,CAVOK,,,,,,,,VFR,,,,,,,,,,,,METAR,194.0
HELX 211600Z 25003KT CAVOK 17/06 Q1018 NOSIG,HELX,2015-02-21T16:00:00Z,25.67,32.7,17.0,6.0,250,3,,6.21,30.059055,,,,,,TRUE,,,,,CAVOK,,,,,,,,VFR,,,,,,,,,,,,METAR,88.0
HEAX 211600Z 33012KT 9999 SCT020 SCT022 15/08 Q1017 NOSIG,HEAX,2015-02-21T16:00:00Z,31.18,29.93,15.0,8.0,330,12,,6.21,30.029528,,,,,,TRUE,,,,,SCT,2000,SCT,2200,,,,,VFR,,,,,,,,,,,,METAR,7.0
HEMM 211600Z 27010KT 9999 SCT020 BKN022 15/08 Q1018 NOSIG,HEMM,2015-02-21T16:00:00Z,31.32,27.22,15.0,8.0,270,10,,6.21,30.059055,,,,,,TRUE,,,,,SCT,2000,BKN,2200,,,,,MVFR,,,,,,,,,,,,METAR,30.0
HESC 211600Z 30009KT 9999 FEW015 SCT020 04/02 Q1020 NOSIG,HESC,2015-02-21T16:00:00Z,28.68,34.07,4.0,2.0,300,9,,6.21,30.11811,,,,,,TRUE,,,,,FEW,1500,SCT,2000,,,,,VFR,,,,,,,,,,,,METAR,1332.0
HEMA 211600Z 05005KT CAVOK 18/03 Q1017 NOSIG,HEMA,2015-02-21T16:00:00Z,25.55,34.58,18.0,3.0,50,5,,6.21,30.029528,,,,,,TRUE,,,,,CAVOK,,,,,,,,VFR,,,,,,,,,,,,METAR,77.0
HESG 211600Z 29008KT CAVOK 17/01 Q1017 NOSIG,HESG,2015-02-21T16:00:00Z,26.33,31.75,17.0,1.0,290,8,,6.21,30.029528,,,,,,TRUE,,,,,CAVOK,,,,,,,,VFR,,,,,,,,,,,,METAR,70.0
HKVO 211600Z 09006KT 9999 FEW023 32/16,HKVO,2015-02-21T16:00:00Z,-3.38,38.53,32.0,16.0,90,6,,6.21,,,,,,,,,,,,FEW,2300,,,,,,,VFR,,,,,,,,,,,,METAR,579.0
HKNC 211600Z 06005KT 9999 FEW024 BKN280 24/10 Q1018,HKNC,2015-02-21T16:00:00Z,-1.3,36.75,24.0,10.0,60,5,,6.21,30.059055,,,,,,,,,,,FEW,2400,BKN,28000,,,,,VFR,,,,,,,,,,,,METAR,1798.0
HKKT 211600Z 00000KT 9999 SCT024 BKN090 24/14,HKKT,2015-02-21T16:00:00Z,0.97,34.97,24.0,14.0,0,0,,6.21,,,,,,,,,,,,SCT,2400,BKN,9000,,,,,VFR,,,,,,,,,,,,METAR,1850.0
HKJK 211600Z 03011KT 9999 FEW027 26/11 Q1017,HKJK,2015-02-21T16:00:00Z,-1.32,36.92,26.0,11.0,30,11,,6.21,30.029528,,,,,,,,,,,FEW,2700,,,,,,,VFR,,,,,,,,,,,,METAR,1624.0
HKEL 211600Z 21009KT 9999 FEW023CB BKN300 23/M01 Q1020,HKEL,2015-02-21T16:00:00Z,0.4,35.23,23.0,-1.0,210,9,,6.21,30.11811,,,,,,,,,,,FEW,2300,BKN,30000,,,,,VFR,,,,,,,,,,,,METAR,2133.0
DXNG 211600Z 28006KT 250V310 9999 SCT015 FEW016CB 31/19 Q1010 NOSIG,DXNG,2015-02-21T16:00:00Z,9.77,1.1,31.0,19.0,280,6,,6.21,29.822834,,,,,,TRUE,,,,,SCT,1500,FEW,1600,,,,,VFR,,,,,,,,,,,,METAR,343.0
DXXX 211600Z 20015KT 9999 FEW015 FEW020CB 31/25 Q1007 NOSIG,DXXX,2015-02-21T16:00:00Z,6.17,1.25,31.0,25.0,200,15,,6.21,29.734253,,,,,,TRUE,,,,,FEW,1500,FEW,2000,,,,,VFR,,,,,,,,,,,,METAR,25.0
DRZR 211600Z 24004KT 2500 DU NSC 34/M02 Q1009,DRZR,2015-02-21T16:00:00Z,13.77,8.97,34.0,-2.0,240,4,,1.55,29.793306,,,,,,,,,,DU,,,,,,,,,,,,,,,,,,,,,METAR,453.0
DRZA 211600Z 10004KT 3100 DU NSC 32/M04 Q1012,DRZA,2015-02-21T16:00:00Z,16.97,8.0,32.0,-4.0,100,4,,1.93,29.88189,,,,,,,,,,DU,,,,,,,,,,,,,,,,,,,,,METAR,502.0
DRRN 211600Z 34011KT CAVOK 32/10 Q1009 NOSIG,DRRN,2015-02-21T16:00:00Z,13.47,2.17,32.0,10.0,340,11,,6.21,29.793306,,,,,,TRUE,,,,,CAVOK,,,,,,,,VFR,,,,,,,,,,,,METAR,227.0
DRRM 211600Z 24002KT 8000 NSC 36/04 Q1008,DRRM,2015-02-21T16:00:00Z,13.5,7.12,36.0,4.0,240,2,,4.97,29.763779,,,,,,,,,,,,,,,,,,,,,,,,,,,,,,,METAR,373.0
DNKN 211600Z 04006KT 2500 HZ NSC 34/07 Q1008 NOSIG,DNKN,2015-02-21T16:00:00Z,12.05,8.52,34.0,7.0,40,6,,1.55,29.763779,,,,,,TRUE,,,,HZ,,,,,,,,,,,,,,,,,,,,,METAR,481.0
NGFU 211600Z 32012KT 9999 SCT019TCU 29/24 Q1006,NGFU,2015-02-21T16:00:00Z,-8.52,179.22,29.0,24.0,320,12,,6.21,29.704725,,,,,,,,,,,SCT,1900,,,,,,,VFR,,,,,,,,,,,,METAR,1.0
CWCO 211600Z AUTO 09005KT M10/M14 RMK AO1 SLP176 T10981135 55007,CWCO,2015-02-21T16:00:00Z,44.45,-80.17,-9.8,-13.5,90,5,,,,1017.6,,TRUE,TRUE,,,,,,,,,,,,,,,,-0.7,,,,,,,,,,,METAR,221.0
CWDT 211600Z AUTO 13004KT M18/M25 RMK AO1 SLP232 T11801247 58004,CWDT,2015-02-21T16:00:00Z,49.88,-71.25,-18.0,-24.7,130,4,,,,1023.2,,TRUE,TRUE,,,,,,,,,,,,,,,,-0.4,,,,,,,,,,,METAR,399.0
CWID 211600Z AUTO 12003KT M27/M31 RMK AO1 SLP386 T12741306 56018,CWID,2015-02-21T16:00:00Z,61.32,-117.6,-27.4,-30.6,120,3,,,,1038.6,,TRUE,TRUE,,,,,,,,,,,,,,,,-1.8,,,,,,,,,,,METAR,161.0
CWEK 211600Z AUTO 08019KT 05/ RMK AO1 PK WND 06023/1559 SLP314 T0045 51009,CWEK,2015-02-21T16:00:00Z,54.58,-130.7,4.5,,80,19,,,,1031.4,,TRUE,TRUE,,,,,,,,,,,,,,,,0.9,,,,,,,,,,,METAR,8.0
CWWK 211600Z AUTO 09002KT 02/02 RMK AO1 SLP285 T00210015 53014,CWWK,2015-02-21T16:00:00Z,49.02,-122.78,2.1,1.5,90,2,,,,1028.5,,TRUE,TRUE,,,,,,,,,,,,,,,,1.4,,,,,,,,,,,METAR,15.0
CWXC 211600Z AUTO 21005KT M15/M21 RMK AO1 SLP222 T11491212 56006,CWXC,2015-02-21T16:00:00Z,48.88,-71.03,-14.9,-21.2,210,5,,,,1022.2,,TRUE,TRUE,,,,,,,,,,,,,,,,-0.6,,,,,,,,,,,METAR,300.0
CXDI 211600Z AUTO 21003KT M08/M10 RMK AO1 0PAST HR 8007 SLP162 P0004 T10831096 50032,CXDI,2015-02-21T16:00:00Z,42.87,-80.55,-8.3,-9.6,210,3,,,,1016.2,,TRUE,TRUE,,,,,,,,,,,,,,,,3.2,,,,,0.04,,,,,,METAR,232.0
CWND 211600Z AUTO 00000KT M15/M16 RMK AO1 SLP177 T11471163 58007,CWND,2015-02-21T16:00:00Z,69.63,-135.43,-14.7,-16.3,0,0,,,,1017.7,,TRUE,TRUE,,,,,,,,,,,,,,,,-0.7,,,,,,,,,,,METAR,12.0
CXSR 211600Z AUTO 19002KT M07/M08 RMK AO1 SOG 54 3006 SLP364 T10721075,CXSR,2015-02-21T16:00:00Z,55.7,-119.23,-7.2,-7.5,190,2,,,,1036.4,,TRUE,TRUE,,,,,,,,,,,,,,,,,,,,,,,,,,,METAR,1015.0
CTNK 211600Z AUTO 23003KT M11/M14 RMK AO1 SOG 54 6016 SLP168 T11091135 50007,CTNK,2015-02-21T16:00:00Z,45.53,-78.27,-10.9,-13.5,230,3,,,,1016.8,,TRUE,TRUE,,,,,,,,,,,,,,,,0.7,,,,,,,,,,,METAR,410.0
CXDK 211600Z AUTO 33008KT M01/M04 RMK AO1 SOG 41 6020 SLP301 T10121044,CXDK,2015-02-21T16:00:00Z,61.27,-124.47,-1.2,-4.4,330,8,,,,1030.1,,TRUE,TRUE,,,,,,,,,,,,,,,,,,,,,,,,,,,METAR,283.0
CXTO 211600Z AUTO M07/M09 RMK AO1 3PAST HR 6011 SLP171 P0005 T10711086 50027,CXTO,2015-02-21T16:00:00Z,43.67,-79.4,-7.1,-8.6,,,,,,1017.1,,TRUE,TRUE,,,,,,,,,,,,,,,,2.7,,,,,0.05,,,,,,METAR,113.0
CXYH 211600Z AUTO 02001KT M11/M12 RMK AO1 SOG 60 6026 SLP286 T11071115,CXYH,2015-02-21T16:00:00Z,61.25,-123.75,-10.7,-11.5,20,1,,,,1028.6,,TRUE,TRUE,,,,,,,,,,,,,,,,,,,,,,,,,,,METAR,204.0
CZZJ 211600Z AUTO 02002KT M06/M10 RMK AO1 SOG 36 3017 SLP372 T10601095,CZZJ,2015-02-21T16:00:00Z,53.58,-116.47,-6.0,-9.5,20,2,,,,1037.2,,TRUE,TRUE,,,,,,,,,,,,,,,,,,,,,,,,,,,METAR,927.0
RCNN 211600Z 04006KT 5000 -RA BR SCT010 BKN025 BKN040 19/18 Q1016 RMK A3001 RA AMT 2.0MM,RCNN,2015-02-21T16:00:00Z,22.93,120.2,19.0,18.0,40,6,,3.11,30.0,,,,,,,,,,-RA BR,SCT,1000,BKN,2500,BKN,4000,,,MVFR,,,,,,,,,,,,METAR,19.0
RCMQ 211600Z 19006KT 2400 BR FEW010 SCT025 BKN040 18/17 Q1016 RMK A3002 RA AMT T,RCMQ,2015-02-21T16:00:00Z,24.27,120.62,18.0,17.0,190,6,,1.49,30.0,,,,,,,,,,BR,FEW,1000,SCT,2500,BKN,4000,,,IFR,,,,,,,,,,,,METAR,5.0
RCSS 211600Z 11003KT 090V160 3800 BR FEW012 SCT040 BKN060 19/16 Q1016 NOSIG RMK A3003,RCSS,2015-02-21T16:00:00Z,25.07,121.53,19.0,16.0,110,3,,2.36,30.0,,,,,,TRUE,,,,BR,FEW,1200,SCT,4000,BKN,6000,,,IFR,,,,,,,,,,,,METAR,6.0
FYWW 211600Z 23005KT 9999 FEW050TCU SCT100 30/07 Q1018,FYWW,2015-02-21T16:00:00Z,-22.57,17.1,30.0,7.0,230,5,,6.21,30.059055,,,,,,,,,,,FEW,5000,SCT,10000,,,,,VFR,,,,,,,,,,,,METAR,1725.0
FYWH 211600Z AUTO 19005KT //// 28/07 Q////,FYWH,2015-02-21T16:00:00Z,-22.47,17.47,28.0,7.0,190,5,,,,,,TRUE,,,,,,,,,,,,,,,,,,,,,,,,,,,,SPECI,1700.0
FYOA 211600Z AUTO 21003KT //// 36/06 Q1010,FYOA,2015-02-21T16:00:00Z,-17.88,15.97,36.0,6.0,210,3,,,29.822834,,,TRUE,,,,,,,,,,,,,,,,,,,,,,,,,,,,METAR,1095.0
FYGF 211600Z AUTO 07005KT //// 35/04 Q1015,FYGF,2015-02-21T16:00:00Z,-19.6,18.12,35.0,4.0,70,5,,,29.970472,,,TRUE,,,,,,,,,,,,,,,,,,,,,,,,,,,,METAR,1400.0
DFFD 211600Z 09004KT 8000 -RA NSC 25/10 Q1010 TEMPO 4000 SHRA,DFFD,2015-02-21T16:00:00Z,12.33,-1.52,25.0,10.0,90,4,,4.97,29.822834,,,,,,,,,,-RA,,,,,,,,,,,,,,,,,,,,,METAR,306.0
DFOO 211600Z 36006KT CAVOK 28/05 Q1012,DFOO,2015-02-21T16:00:00Z,11.17,-4.32,28.0,5.0,360,6,,6.21,29.88189,,,,,,,,,,,CAVOK,,,,,,,,VFR,,,,,,,,,,,,METAR,460.0
DBBB 211600Z 20013KT 9999 FEW015 FEW030CB 31/25 Q1006 NOSIG,DBBB,2015-02-21T16:00:00Z,6.33,2.37,31.0,25.0,200,13,,6.21,29.704725,,,,,,TRUE,,,,,FEW,1500,FEW,3000,,,,,VFR,,,,,,,,,,,,METAR,9.0
SASA 211600 00000KT 80000 FEW007 BKN020 OVC100 18/14 Q1021,SASA,2015-02-21T16:00:00Z,-24.85,-65.47,18.0,14.0,0,0,,0.0,30.147638,,,,,,,,,,,FEW,700,BKN,2000,OVC,10000,,,LIFR,,,,,,,,,,,,METAR,1216.0
OEHL 211600Z 33022KT 6000 SCT040 11/M06 Q1013 NOSIG,OEHL,2015-02-21T16:00:00Z,27.42,41.67,11.0,-6.0,330,22,,3.73,29.911417,,,,,,TRUE,,,,,SCT,4000,,,,,,,MVFR,,,,,,,,,,,,METAR,1013.0
OEBH 211600Z 28006KT CAVOK 21/10 Q1014 NOSIG,OEBH,2015-02-21T16:00:00Z,19.97,42.62,21.0,10.0,280,6,,6.21,29.940945,,,,,,TRUE,,,,,CAVOK,,,,,,,,VFR,,,,,,,,,,,,METAR,1157.0
VTUK 211600Z 14003KT 9999 FEW035 SCT150 24/21 Q1013 A2991 NOSIG,VTUK,2015-02-21T16:00:00Z,16.47,102.78,24.0,21.0,140,3,,6.21,29.911417,,,,,,TRUE,,,,,FEW,3500,SCT,15000,,,,,VFR,,,,,,,,,,,,METAR,204.0
CWCF 211600Z AUTO 34008KT M28/M32 RMK AO1 SOG 17 1018 SLP280 T12821322,CWCF,2015-02-21T16:00:00Z,52.35,-97.03,-28.2,-32.2,340,8,,,,1028.0,,TRUE,TRUE,,,,,,,,,,,,,,,,,,,,,,,,,,,METAR,222.0
CXPA 211600Z AUTO 10005KT M09/M11 RMK AO1 T10911107,CXPA,2015-02-21T16:00:00Z,55.62,-118.3,-9.1,-10.7,100,5,,,,,,TRUE,TRUE,,,,,,,,,,,,,,,,,,,,,,,,,,,METAR,621.0
CXOY 211600Z AUTO 02015KT M15/M17 RMK AO1 PK WND 02018/1540 T11491172,CXOY,2015-02-21T16:00:00Z,51.38,-110.35,-14.9,-17.2,20,15,,,,,,TRUE,TRUE,,,,,,,,,,,,,,,,,,,,,,,,,,,METAR,767.0
CXKM 211600Z AUTO 33006KT M21/M24 RMK AO1 7PAST HR M P0003 T12091242 50007,CXKM,2015-02-21T16:00:00Z,52.82,-111.85,-20.9,-24.2,330,6,,,,,,TRUE,TRUE,,,,,,,,,,,,,,,,0.7,,,,,0.03,,,,,,METAR,675.0
CXHR 211600Z AUTO 01017KT M13/M16 RMK AO1 PK WND 00027/1528 T11341157,CXHR,2015-02-21T16:00:00Z,51.18,-112.5,-13.4,-15.7,10,17,,,,,,TRUE,TRUE,,,,,,,,,,,,,,,,,,,,,,,,,,,METAR,971.0
CXFR 211600Z AUTO 14006KT M10/M11 RMK AO1 T11011111,CXFR,2015-02-21T16:00:00Z,56.08,-118.43,-10.1,-11.1,140,6,,,,,,TRUE,TRUE,,,,,,,,,,,,,,,,,,,,,,,,,,,METAR,655.0
CXDP 211600Z AUTO 33007KT M19/M21 RMK AO1 T11891207 50004,CXDP,2015-02-21T16:00:00Z,54.32,-113.95,-18.9,-20.7,330,7,,,,,,TRUE,TRUE,,,,,,,,,,,,,,,,0.4,,,,,,,,,,,METAR,614.0
CXBR 211600Z AUTO 02020KT M05/M08 RMK AO1 PK WND 02028/1558 T10491075,CXBR,2015-02-21T16:00:00Z,49.62,-113.82,-4.9,-7.5,20,20,,,,,,TRUE,TRUE,,,,,,,,,,,,,,,,,,,,,,,,,,,METAR,1073.0
CXAF 211600Z AUTO 35004KT M20/M22 RMK AO1 T12001217,CXAF,2015-02-21T16:00:00Z,54.28,-112.97,-20.0,-21.7,350,4,,,,,,TRUE,TRUE,,,,,,,,,,,,,,,,,,,,,,,,,,,METAR,664.0
CWZV 211600Z AUTO 05008G18KT 07/04 RMK AO1 PK WND 04020/1503 SLP290 T00670036 51001,CWZV,2015-02-21T16:00:00Z,51.93,-131.02,6.7,3.6,50,8,18,,,1029.0,,TRUE,TRUE,,,,,,,,,,,,,,,,0.1,,,,,,,,,,,METAR,92.0
CWZL 211600Z AUTO 26005KT 04/02 RMK AO1 SLP315 T00420015 51007,CWZL,2015-02-21T16:00:00Z,53.03,-131.6,4.2,1.5,260,5,,,,1031.5,,TRUE,TRUE,,,,,,,,,,,,,,,,0.7,,,,,,,,,,,METAR,17.0
SKLT 211600Z 07004KT 9999 SCT015 BKN080 31/26 A2983,SKLT,2015-02-21T16:00:00Z,-4.2,-69.93,31.0,26.0,70,4,,6.21,29.828741,,,,,,,,,,,SCT,1500,BKN,8000,,,,,VFR,,,,,,,,,,,,METAR,84.0
OEKJ 211600Z 09003KT 4000 DU NSC 18/M05 Q1012,OEKJ,2015-02-21T16:00:00Z,24.07,47.58,18.0,-5.0,90,3,,2.49,29.88189,,,,,,,,,,DU,,,,,,,,,,,,,,,,,,,,,METAR,503.0
FYWB 211600Z AUTO 25012KT //// 23/12 Q1010,FYWB,2015-02-21T16:00:00Z,-22.98,14.65,23.0,12.0,250,12,,,29.822834,,,TRUE,,,,,,,,,,,,,,,,,,,,,,,,,,,,SPECI,46.0
YBPN 211600Z AUTO 34007KT 9999 // SCT008 SCT019 27/26 Q1008,YBPN,2015-02-21T16:00:00Z,-20.5,148.55,27.0,26.0,340,7,,6.21,29.763779,,,TRUE,,,,,,,,SCT,800,SCT,1900,,,,,VFR,,,,,,,,,,,,METAR,25.0
YBOK 211600Z AUTO 15005KT 9999 // NCD 20/18 Q1010,YBOK,2015-02-21T16:00:00Z,-27.42,151.72,20.0,18.0,150,5,,6.21,29.822834,,,TRUE,,,,,,,,,,,,,,,,,,,,,,,,,,,,METAR,407.0
YBNA 211600Z AUTO 15021G32KT 4100 // BKN009 OVC014 23/22 Q1008,YBNA,2015-02-21T16:00:00Z,-28.83,153.57,23.0,22.0,150,21,32,2.55,29.763779,,,TRUE,,,,,,,,BKN,900,OVC,1400,,,,,IFR,,,,,,,,,,,,METAR,2.0
YBMK 211600Z AUTO 36006KT 9999 // NCD 28/26 Q1007,YBMK,2015-02-21T16:00:00Z,-21.17,149.17,28.0,26.0,360,6,,6.21,29.734253,,,TRUE,,,,,,,,,,,,,,,,,,,,,,,,,,,,METAR,31.0
YBHI 211600Z AUTO 06004KT 9999 // NCD 26/14 Q1011,YBHI,2015-02-21T16:00:00Z,-32.0,141.47,26.0,14.0,60,4,,6.21,29.852362,,,TRUE,,,,,,,,,,,,,,,,,,,,,,,,,,,,METAR,292.0
YPBO 211600Z AUTO 19006KT 9999 // NCD 37/07 Q1005,YPBO,2015-02-21T16:00:00Z,-23.2,117.75,37.0,7.0,190,6,,6.21,29.675198,,,TRUE,,,,,,,,,,,,,,,,,,,,,,,,,,,,METAR,1292.0
YOLD 211600Z AUTO 07002KT 9999 // ////// 26/10 Q1007,YOLD,2015-02-21T16:00:00Z,-30.48,136.88,26.0,10.0,70,2,,6.21,29.734253,,,TRUE,,,,,,,,,,,,,,,,,,,,,,,,,,,,METAR,105.0
YNTN 211600Z AUTO 02005KT //// // ////// 28/26 Q1009,YNTN,2015-02-21T16:00:00Z,-17.68,141.07,28.0,26.0,20,5,,,29.793306,,,TRUE,,,,,,,,,,,,,,,,,,,,,,,,,,,,METAR,22.0
YNBR 211600Z AUTO 16009KT //// // ////// 23/17 Q1011,YNBR,2015-02-21T16:00:00Z,-30.32,149.83,23.0,17.0,160,9,,,29.852362,,,TRUE,,,,,,,,,,,,,,,,,,,,,,,,,,,,METAR,240.0
YNAR 211600Z AUTO 09009KT //// // ////// 24/15 Q1013,YNAR,2015-02-21T16:00:00Z,-34.7,146.52,24.0,15.0,90,9,,,29.911417,,,TRUE,,,,,,,,,,,,,,,,,,,,,,,,,,,,METAR,145.0
YMTG 211600Z AUTO 05006KT 9999 // SCT120 21/13 Q1009,YMTG,2015-02-21T16:00:00Z,-37.75,140.78,21.0,13.0,50,6,,6.21,29.793306,,,TRUE,,,,,,,,SCT,12000,,,,,,,VFR,,,,,,,,,,,,METAR,65.0
YSNW 211600Z AUTO 32003KT 9999 // SCT029 BKN066 19/19 Q1016,YSNW,2015-02-21T16:00:00Z,-34.95,150.52,19.0,19.0,320,3,,6.21,30.0,,,TRUE,,,,,,,,SCT,2900,BKN,6600,,,,,VFR,,,,,,,,,,,,METAR,110.0
YRMD 211600Z AUTO 29014KT //// // ////// 32/19 Q1008,YRMD,2015-02-21T16:00:00Z,-20.7,143.12,32.0,19.0,290,14,,,29.763779,,,TRUE,,,,,,,,,,,,,,,,,,,,,,,,,,,,METAR,207.0
YESP 211600Z AUTO 02004KT 9999 // NCD 15/13 Q1012,YESP,2015-02-21T16:00:00Z,-33.68,121.82,15.0,13.0,20,4,,6.21,29.88189,,,TRUE,,,,,,,,,,,,,,,,,,,,,,,,,,,,METAR,143.0
YEML 211600Z AUTO 13007KT 9999 // NCD 27/22 Q1009,YEML,2015-02-21T16:00:00Z,-23.57,148.18,27.0,22.0,130,7,,6.21,29.793306,,,TRUE,,,,,,,,,,,,,,,,,,,,,,,,,,,,METAR,190.0
YCNM 211600Z AUTO 14004KT //// // ////// 22/16 Q1011,YCNM,2015-02-21T16:00:00Z,-30.98,148.38,22.0,16.0,140,4,,,29.852362,,,TRUE,,,,,,,,,,,,,,,,,,,,,,,,,,,,METAR,184.0
YCDU 211600Z AUTO 07014KT 9999 // NCD 22/15 Q1007,YCDU,2015-02-21T16:00:00Z,-32.12,133.7,22.0,15.0,70,14,,6.21,29.734253,,,TRUE,,,,,,,,,,,,,,,,,,,,,,,,,,,,METAR,15.0
YLEC 211600Z AUTO 13004KT //// // ////// 25/12 Q1009,YLEC,2015-02-21T16:00:00Z,-30.6,138.43,25.0,12.0,130,4,,,29.793306,,,TRUE,,,,,,,,,,,,,,,,,,,,,,,,,,,,METAR,262.0
YKRY 211600Z AUTO 00000KT //// // ////// 19/18 Q1010,YKRY,2015-02-21T16:00:00Z,-26.57,151.83,19.0,18.0,0,0,,,29.822834,,,TRUE,,,,,,,,,,,,,,,,,,,,,,,,,,,,METAR,434.0
YHUG 211600Z AUTO 02004KT //// // ////// 30/18 Q1009,YHUG,2015-02-21T16:00:00Z,-20.82,144.23,30.0,18.0,20,4,,,29.793306,,,TRUE,,,,,,,,,,,,,,,,,,,,,,,,,,,,METAR,318.0
YGTH 211600Z AUTO 11008KT 9999 // NCD 24/16 Q1012,YGTH,2015-02-21T16:00:00Z,-34.25,146.07,24.0,16.0,110,8,,6.21,29.88189,,,TRUE,,,,,,,,,,,,,,,,,,,,,,,,,,,,METAR,134.0
YGTE 211600Z AUTO 34010KT 9999 // OVC075 28/24 Q1008,YGTE,2015-02-21T16:00:00Z,-13.97,136.45,28.0,24.0,340,10,,6.21,29.763779,,,TRUE,,,,,,,,OVC,7500,,,,,,,VFR,,,,,,,,,,,,METAR,14.0
YGFN 211600Z AUTO 13008KT 9999 // SCT015 OVC049 21/20 Q1011,YGFN,2015-02-21T16:00:00Z,-29.77,153.03,21.0,20.0,130,8,,6.21,29.852362,,,TRUE,,,,,,,,SCT,1500,OVC,4900,,,,,VFR,,,,,,,,,,,,METAR,34.0
RKSM 211600Z 20003KT 2400 -RA BR FEW000 BKN012 OVC025 07/06 A2995,RKSM,2015-02-21T16:00:00Z,37.42,127.12,7.0,6.0,200,3,,1.49,29.949802,,,,,,,,,,-RA BR,FEW,0,BKN,1200,OVC,2500,,,IFR,,,,,,,,,,,,METAR,20.0
TLPC 211600Z 08011G22KT 9999 SCT023 28/21 Q1017 NOSIG,TLPC,2015-02-21T16:00:00Z,14.02,-61.0,28.0,21.0,80,11,22,6.21,30.029528,,,,,,TRUE,,,,,SCT,2300,,,,,,,VFR,,,,,,,,,,,,METAR,2.0
CXTP 211600Z AUTO 26018G32KT M06/M14 RMK AO1 SOG 33 3022 PK WND 26036/1516 SLP143 T10561144,CXTP,2015-02-21T16:00:00Z,48.55,-53.97,-5.6,-14.4,260,18,32,,,1014.3,,TRUE,TRUE,,,,,,,,,,,,,,,,,,,,,,,,,,,METAR,107.0
CXRH 211600Z AUTO 25020G29KT M08/M13 RMK AO1 30 SOG 57 T10761132,CXRH,2015-02-21T16:00:00Z,49.57,-57.88,-7.6,-13.2,250,20,29,,,,,TRUE,TRUE,,,,,,,,,,,,,,,,,,,,,,,,,,,METAR,68.0
CXMY 211600Z AUTO M05/M17 RMK AO1 T10501168,CXMY,2015-02-21T16:00:00Z,44.98,-62.48,-5.0,-16.8,,,,,,,,TRUE,TRUE,,,,,,,,,,,,,,,,,,,,,,,,,,,METAR,40.0
CXMM 211600Z AUTO 25004KT M26/M29 RMK AO1 SOG 25 3015 SLP440 T12641290,CXMM,2015-02-21T16:00:00Z,56.65,-111.22,-26.4,-29.0,250,4,,,,1044.0,,TRUE,TRUE,,,,,,,,,,,,,,,,,,,,,,,,,,,METAR,369.0
CXET 211600Z AUTO 18005KT M12/M14 RMK AO1 SOG 15 6012 SLP168 T11161138 50008,CXET,2015-02-21T16:00:00Z,44.23,-79.78,-11.6,-13.8,180,5,,,,1016.8,,TRUE,TRUE,,,,,,,,,,,,,,,,0.8,,,,,,,,,,,METAR,251.0
CXEG 211600Z AUTO M15/M16 RMK AO1 SOG 11 T11471155,CXEG,2015-02-21T16:00:00Z,53.3,-113.6,-14.7,-15.5,,,,,,,,TRUE,TRUE,,,,,,,,,,,,,,,,,,,,,,,,,,,METAR,715.0
CXEC 211600Z AUTO M15/ RMK AO1 T1150,CXEC,2015-02-21T16:00:00Z,53.57,-113.52,-15.0,,,,,,,,,TRUE,TRUE,,,,,,,,,,,,,,,,,,,,,,,,,,,METAR,671.0
CXEA 211600Z AUTO 32006KT M24/M27 RMK AO1 SOG 48 1018 SLP231 T12441269,CXEA,2015-02-21T16:00:00Z,50.63,-93.22,-24.4,-26.9,320,6,,,,1023.1,,TRUE,TRUE,,,,,,,,,,,,,,,,,,,,,,,,,,,METAR,355.0
CXDE 211600Z AUTO 09006KT M16/M18 RMK AO1 SOG 15 8017 SLP278 T11641180,CXDE,2015-02-21T16:00:00Z,65.22,-123.43,-16.4,-18.0,90,6,,,,1027.8,,TRUE,TRUE,,,,,,,,,,,,,,,,,,,,,,,,,,,METAR,213.0
CWNC 211600Z AUTO 19010KT M06/M09 RMK AO1 SOG 10 6015 SLP171 T10601087,CWNC,2015-02-21T16:00:00Z,43.95,-78.17,-6.0,-8.7,190,10,,,,1017.1,,TRUE,TRUE,,,,,,,,,,,,,,,,,,,,,,,,,,,METAR,78.0
CWDV 211600Z AUTO 34004KT M19/M22 RMK AO1 SOG 60 1019 SLP182 T11941216,CWDV,2015-02-21T16:00:00Z,49.02,-90.47,-19.4,-21.6,340,4,,,,1018.2,,TRUE,TRUE,,,,,,,,,,,,,,,,,,,,,,,,,,,METAR,489.0
CWAJ 211600Z AUTO 19005KT M07/M09 RMK AO1 SLP159 T10731087 58005,CWAJ,2015-02-21T16:00:00Z,42.25,-81.9,-7.3,-8.7,190,5,,,,1015.9,,TRUE,TRUE,,,,,,,,,,,,,,,,-0.5,,,,,,,,,,,METAR,178.0
CZEV 211600Z AUTO 28003KT M11/M12 RMK AO1 SOG 38 5003 SLP226 T11071118,CZEV,2015-02-21T16:00:00Z,68.32,-133.52,-10.7,-11.8,280,3,,,,1022.6,,TRUE,TRUE,,,,,,,,,,,,,,,,,,,,,,,,,,,SPECI,103.0
CZDB 211600Z AUTO 26018G24KT M09/M15 RMK AO1 SOG 83 1018 PK WND 27024/1552 SLP321 T10941151,CZDB,2015-02-21T16:00:00Z,45.42,-63.47,-9.4,-15.1,260,18,24,,,1032.1,,TRUE,TRUE,,,,,,,,,,,,,,,,,,,,,,,,,,,METAR,38.0
CXZC 211600Z AUTO 31004KT M13/M16 RMK AO1 SOG 77 3007 SLP132 T11271164 50003,CXZC,2015-02-21T16:00:00Z,51.3,-80.62,-12.7,-16.4,310,4,,,,1013.2,,TRUE,TRUE,,,,,,,,,,,,,,,,0.3,,,,,,,,,,,METAR,9.0
CZRP 211600Z AUTO 25014KT M20/M22 RMK AO1 PK WND 24018/1540 SLP150 T11971217 58024,CZRP,2015-02-21T16:00:00Z,75.37,-105.72,-19.7,-21.7,250,14,,,,1015.0,,TRUE,TRUE,,,,,,,,,,,,,,,,-2.4,,,,,,,,,,,METAR,12.0
CXVN 211600Z AUTO 17002KT M07/M10 RMK AO1 8PAST HR 6011 SLP171 P0003 T10721095 50011,CXVN,2015-02-21T16:00:00Z,43.18,-79.4,-7.2,-9.5,170,2,,,,1017.1,,TRUE,TRUE,,,,,,,,,,,,,,,,1.1,,,,,0.03,,,,,,METAR,79.0
CXSE 211600Z AUTO 26018KT M19/M21 RMK AO1 PK WND 25023/1522 SLP176 T11911211 56027,CXSE,2015-02-21T16:00:00Z,73.77,-105.28,-19.1,-21.1,260,18,,,,1017.6,,TRUE,TRUE,,,,,,,,,,,,,,,,-2.7,,,,,,,,,,,METAR,11.0
CXKI 211600Z AUTO M14/M16 RMK AO1 SOG 44 5004 SLP142 T11431161,CXKI,2015-02-21T16:00:00Z,48.22,-80.0,-14.3,-16.1,,,,,,1014.2,,TRUE,TRUE,,,,,,,,,,,,,,,,,,,,,,,,,,,METAR,324.0
CWRA 211600Z AUTO 26030G38KT M03/ RMK AO1 PK WND 26041/1533 SLP214 T1027 50022,CWRA,2015-02-21T16:00:00Z,46.63,-53.07,-2.7,,260,30,38,,,1021.4,,TRUE,TRUE,,,,,,,,,,,,,,,,2.2,,,,,,,,,,,METAR,28.0
CWDO 211600Z AUTO M06/M13 RMK AO1 47 SOG 16 3022 SLP099 T10581131,CWDO,2015-02-21T16:00:00Z,49.67,-54.78,-5.8,-13.1,,,,,,1009.9,,TRUE,TRUE,,,,,,,,,,,,,,,,,,,,,,,,,,,METAR,92.0
CWXL 211600Z AUTO 02010KT M09/M11 RMK AO1 T10911112 50007,CWXL,2015-02-21T16:00:00Z,49.73,-111.45,-9.1,-11.2,20,10,,,,,,TRUE,TRUE,,,,,,,,,,,,,,,,0.7,,,,,,,,,,,METAR,817.0
CWZW 211600Z AUTO 10002KT M12/M13 RMK AO1 SOG 38 6008 SLP352 T11191128,CWZW,2015-02-21T16:00:00Z,60.17,-132.73,-11.9,-12.8,100,2,,,,1035.2,,TRUE,TRUE,,,,,,,,,,,,,,,,,,,,,,,,,,,METAR,705.0
CWIY 211600Z AUTO M15/M21 RMK AO1 SLP290 T11511206 51011,CWIY,2015-02-21T16:00:00Z,47.13,-67.82,-15.1,-20.6,,,,,,1029.0,,TRUE,TRUE,,,,,,,,,,,,,,,,1.1,,,,,,,,,,,METAR,241.0
CWBO 211600Z AUTO 01010KT M11/M13 RMK AO1 3029 SLP346 T11111126 50005,CWBO,2015-02-21T16:00:00Z,50.53,-111.83,-11.1,-12.6,10,10,,,,1034.6,,TRUE,TRUE,,,,,,,,,,,,,,,,0.5,,,,,,,,,,,METAR,747.0
CWGM 211600Z AUTO 03003KT M06/M08 RMK AO1 T10581079,CWGM,2015-02-21T16:00:00Z,49.13,-113.78,-5.8,-7.9,30,3,,,,,,TRUE,TRUE,,,,,,,,,,,,,,,,,,,,,,,,,,,METAR,1296.0
CWFF 211600Z AUTO 34005KT M27/M30 RMK AO1 SOG 19 1026 SLP353 T12701300,CWFF,2015-02-21T16:00:00Z,52.82,-104.58,-27.0,-30.0,340,5,,,,1035.3,,TRUE,TRUE,,,,,,,,,,,,,,,,,,,,,,,,,,,METAR,490.0
CYRA 211600Z 16007KT 15SM BKN025 M25/M28 A3051 RMK SC5 SLP369,CYRA,2015-02-21T16:00:00Z,64.12,-117.32,-25.0,-28.0,160,7,,15.0,30.510826,1036.9,,,,,,,,,,BKN,2500,,,,,,,MVFR,,,,,,,,,,,,METAR,213.0
FNMO 211600Z 26016KT CAVOK 27/22 Q1006,FNMO,2015-02-21T16:00:00Z,-15.27,12.15,27.0,22.0,260,16,,6.21,29.704725,,,,,,,,,,,CAVOK,,,,,,,,VFR,,,,,,,,,,,,METAR,64.0
FNGI 211600Z 20005KT 9999 FEW015 35/11 Q1011,FNGI,2015-02-21T16:00:00Z,-17.05,15.68,35.0,11.0,200,5,,6.21,29.852362,,,,,,,,,,,FEW,1500,,,,,,,VFR,,,,,,,,,,,,METAR,1087.0
CWZN 211600Z AUTO 00025KT M06/M09 RMK AO1 SLP200 T10631094 53034,CWZN,2015-02-21T16:00:00Z,47.37,-55.8,-6.3,-9.4,0,25,,,,1020.0,,TRUE,TRUE,,,,,,,,,,,,,,,,3.4,,,,,,,,,,,METAR,64.0
CWDA 211600Z AUTO 27058G70KT M09/M11 RMK AO1 3028 PK WND 27070/1531 SLP010 T10881114 50009,CWDA,2015-02-21T16:00:00Z,50.72,-56.12,-8.8,-11.4,270,58,70,,,1001.0,,TRUE,TRUE,,,,,,,,,,,,,,,,0.9,,,,,,,,,,,METAR,29.0
CWMZ 211600Z AUTO 16013KT M11/M14 RMK AO1 SLP164 T11111136 55004,CWMZ,2015-02-21T16:00:00Z,45.02,-80.37,-11.1,-13.6,160,13,,,,1016.4,,TRUE,TRUE,,,,,,,,,,,,,,,,-0.4,,,,,,,,,,,METAR,191.0
CZMU 211600Z AUTO 32004KT M21/M23 RMK AO1 6PAST HR SOG 01 M P0002 T12071226 50006,CZMU,2015-02-21T16:00:00Z,53.57,-112.3,-20.7,-22.6,320,4,,,,,,TRUE,TRUE,,,,,,,,,,,,,,,,0.6,,,,,0.02,,,,,,METAR,683.0
CXVW 211600Z AUTO 35003KT M10/M11 RMK AO1 T10951111,CXVW,2015-02-21T16:00:00Z,55.1,-117.2,-9.5,-11.1,350,3,,,,,,TRUE,TRUE,,,,,,,,,,,,,,,,,,,,,,,,,,,METAR,698.0
CWPS 211600Z AUTO M07/M08 RMK AO1 SLP162 T10701081 56011,CWPS,2015-02-21T16:00:00Z,42.57,-80.03,-7.0,-8.1,,,,,,1016.2,,TRUE,TRUE,,,,,,,,,,,,,,,,-1.1,,,,,,,,,,,METAR,175.0
CWNL 211600Z AUTO 28006KT M07/M10 RMK AO1 SLP140 T10701098 55000,CWNL,2015-02-21T16:00:00Z,45.62,-82.97,-7.0,-9.8,280,6,,,,1014.0,,TRUE,TRUE,,,,,,,,,,,,,,,,0.0,,,,,,,,,,,METAR,183.0
CWEF 211600Z AUTO 28033G39KT M11/M14 RMK AO1 PK WND 27041/1532 SLP246 T11121143,CWEF,2015-02-21T16:00:00Z,47.22,-60.12,-11.2,-14.3,280,33,39,,,1024.6,,TRUE,TRUE,,,,,,,,,,,,,,,,,,,,,,,,,,,METAR,26.0
CWCI 211600Z AUTO 35006KT M10/M13 RMK AO1 SLP137 T11021127 53021,CWCI,2015-02-21T16:00:00Z,47.32,-85.82,-10.2,-12.7,350,6,,,,1013.7,,TRUE,TRUE,,,,,,,,,,,,,,,,2.1,,,,,,,,,,,METAR,187.0
CWKK 211600Z AUTO 35010KT M22/M25 RMK AO1 SOG 14 1024 SLP181 T12201253 50007,CWKK,2015-02-21T16:00:00Z,49.72,-88.33,-22.0,-25.3,350,10,,,,1018.1,,TRUE,TRUE,,,,,,,,,,,,,,,,0.7,,,,,,,,,,,METAR,260.0
DIBK 211600Z 22008KT 9999 TSRA BKN015CB 28/23 Q1011 NOSIG,DIBK,2015-02-21T16:00:00Z,7.72,-5.07,28.0,23.0,220,8,,6.21,29.852362,,,,,,TRUE,,,,TSRA,BKN,1500,,,,,,,MVFR,,,,,,,,,,,,SPECI,376.0
HTSO 211600Z 18010KT 9999 TS BKN022 FEW024CB SCT080 24/20 Q1015,HTSO,2015-02-21T16:00:00Z,-10.67,35.57,24.0,20.0,180,10,,6.21,29.970472,,,,,,,,,,TS,BKN,2200,FEW,2400,SCT,8000,,,MVFR,,,,,,,,,,,,SPECI,1067.0
HTMW 211600Z 30005KT 9999 FEW024 FEW025CB BKN260 25/19 Q1012 NOSIG,HTMW,2015-02-21T16:00:00Z,-2.47,32.92,25.0,19.0,300,5,,6.21,29.88189,,,,,,TRUE,,,,,FEW,2400,FEW,2500,BKN,26000,,,VFR,,,,,,,,,,,,SPECI,1140.0
HTMG 211600Z 09006KT 9999 FEW028 31/19 Q1009,HTMG,2015-02-21T16:00:00Z,-6.82,37.63,31.0,19.0,90,6,,6.21,29.793306,,,,,,,,,,,FEW,2800,,,,,,,VFR,,,,,,,,,,,,SPECI,526.0
HTKA 211600Z 00000KT 9999 FEW020 FEW021CB BKN090 23/20 Q1013,HTKA,2015-02-21T16:00:00Z,-4.87,29.67,23.0,20.0,0,0,,6.21,29.911417,,,,,,,,,,,FEW,2000,FEW,2100,BKN,9000,,,VFR,,,,,,,,,,,,SPECI,885.0
HTIR 211600Z 00000KT 9999 FEW018 FEW019CB BKN080 20/17 Q1017,HTIR,2015-02-21T16:00:00Z,-7.67,35.75,20.0,17.0,0,0,,6.21,30.029528,,,,,,,,,,,FEW,1800,FEW,1900,BKN,8000,,,VFR,,,,,,,,,,,,SPECI,1428.0
HTDO 211600Z 08015KT 9999 SCT026 FEW027CB 28/15 Q1013 NOSIG,HTDO,2015-02-21T16:00:00Z,-6.17,35.77,28.0,15.0,80,15,,6.21,29.911417,,,,,,TRUE,,,,,SCT,2600,FEW,2700,,,,,VFR,,,,,,,,,,,,SPECI,1120.0
HTBU 211600Z 00000KT 9999 FW021 FEW023CB SCT100 25/19 Q1012,HTBU,2015-02-21T16:00:00Z,-1.32,31.82,25.0,19.0,0,0,,6.21,29.88189,,,,,,,,,,,FEW,2300,SCT,10000,,,,,VFR,,,,,,,,,,,,SPECI,1137.0
HTAR 211600Z 08010KT 9999 FEW034CB SCT110 26/16 Q1014,HTAR,2015-02-21T16:00:00Z,-3.37,36.63,26.0,16.0,80,10,,6.21,29.940945,,,,,,,,,,,FEW,3400,SCT,11000,,,,,VFR,,,,,,,,,,,,SPECI,1387.0
HTKJ 211600Z 04005KT 9999 FEW032 BKN260 30/16 Q1010 NOSIG,HTKJ,2015-02-21T16:00:00Z,-3.42,37.07,30.0,16.0,40,5,,6.21,29.822834,,,,,,TRUE,,,,,FEW,3200,BKN,26000,,,,,VFR,,,,,,,,,,,,SPECI,896.0
HTDA 211600Z 06011KT 9999 FEW025 29/24 Q1008 NOSIG,HTDA,2015-02-21T16:00:00Z,-6.88,39.2,29.0,24.0,60,11,,6.21,29.763779,,,,,,TRUE,,,,,FEW,2500,,,,,,,VFR,,,,,,,,,,,,SPECI,55.0
HTSU 211600Z 00000KT 9999 SCT020 FEW021CB BKN210 21/16 Q1019,HTSU,2015-02-21T16:00:00Z,-7.95,31.67,21.0,16.0,0,0,,6.21,30.088583,,,,,,,,,,,SCT,2000,FEW,2100,BKN,21000,,,VFR,,,,,,,,,,,,SPECI,1804.0
HTTB 211600Z 00000KT 9999 FEW025 FEW026CB 28/20 Q1013,HTTB,2015-02-21T16:00:00Z,-5.07,32.82,28.0,20.0,0,0,,6.21,29.911417,,,,,,,,,,,FEW,2500,FEW,2600,,,,,VFR,,,,,,,,,,,,SPECI,1190.0
DAEN 211600Z 17014KT 8000 NSC 16/12 Q1005,DAEN,2015-02-21T16:00:00Z,29.73,6.72,16.0,12.0,170,14,,4.97,29.675198,,,,,,,,,,,,,,,,,,,,,,,,,,,,,,,METAR,252.0
VLVT 211600Z 22002KT 3000 BR BKN040 24/21 Q1011 NOSIG,VLVT,2015-02-21T16:00:00Z,17.98,102.57,24.0,21.0,220,2,,1.86,29.852362,,,,,,TRUE,,,,BR,BKN,4000,,,,,,,IFR,,,,,,,,,,,,METAR,171.0
FNHU 211600Z 00000KT 9999 BKN020 22/18 Q1017,FNHU,2015-02-21T16:00:00Z,-12.82,15.77,22.0,18.0,0,0,,6.21,30.029528,,,,,,,,,,,BKN,2000,,,,,,,MVFR,,,,,,,,,,,,METAR,1701.0
CZPS 211600Z AUTO 05006KT M13/M15 RMK AO1 T11281151,CZPS,2015-02-21T16:00:00Z,52.43,-113.6,-12.8,-15.1,50,6,,,,,,TRUE,TRUE,,,,,,,,,,,,,,,,,,,,,,,,,,,METAR,965.0
CZOL 211600Z AUTO 05005KT M15/M18 RMK AO1 T11481180,CZOL,2015-02-21T16:00:00Z,53.65,-113.35,-14.8,-18.0,50,5,,,,,,TRUE,TRUE,,,,,,,,,,,,,,,,,,,,,,,,,,,METAR,665.0
CXVM 211600Z AUTO 35007KT M21/M24 RMK AO1 T12051242,CXVM,2015-02-21T16:00:00Z,53.35,-110.88,-20.5,-24.2,350,7,,,,,,TRUE,TRUE,,,,,,,,,,,,,,,,,,,,,,,,,,,METAR,623.0
CXSP 211600Z AUTO 33008KT M22/M24 RMK AO1 T12191243 50004,CXSP,2015-02-21T16:00:00Z,54.02,-111.27,-21.9,-24.3,330,8,,,,,,TRUE,TRUE,,,,,,,,,,,,,,,,0.4,,,,,,,,,,,METAR,649.0
CXPL 211600Z AUTO 35016KT M12/M15 RMK AO1 PK WND 00026/1520 T11221154,CXPL,2015-02-21T16:00:00Z,51.13,-111.7,-12.2,-15.4,350,16,,,,,,TRUE,TRUE,,,,,,,,,,,,,,,,,,,,,,,,,,,METAR,750.0
CXOL 211600Z AUTO 35006KT M11/M12 RMK AO1 T11121121 50004,CXOL,2015-02-21T16:00:00Z,51.77,-114.08,-11.2,-12.1,350,6,,,,,,TRUE,TRUE,,,,,,,,,,,,,,,,0.4,,,,,,,,,,,METAR,1046.0
CXMO 211600Z AUTO 02014KT M13/M15 RMK AO1 PK WND 04017/1518 T11251153,CXMO,2015-02-21T16:00:00Z,51.67,-112.68,-12.5,-15.3,20,14,,,,,,TRUE,TRUE,,,,,,,,,,,,,,,,,,,,,,,,,,,METAR,836.0
CXHD 211600Z AUTO 33004KT M21/M23 RMK AO1 T12061226,CXHD,2015-02-21T16:00:00Z,53.18,-112.25,-20.6,-22.6,330,4,,,,,,TRUE,TRUE,,,,,,,,,,,,,,,,,,,,,,,,,,,METAR,688.0
CPRY 211600Z AUTO 35013KT M05/M06 RMK AO1 PK WND 34023/1557 T10481059 50004,CPRY,2015-02-21T16:00:00Z,49.48,-112.68,-4.8,-5.9,350,13,,,,,,TRUE,TRUE,,,,,,,,,,,,,,,,0.4,,,,,,,,,,,METAR,937.0
CPFI 211600Z AUTO 02014KT M09/M10 RMK AO1 PK WND 02018/1552 T10871102 50005,CPFI,2015-02-21T16:00:00Z,49.8,-112.03,-8.7,-10.2,20,14,,,,,,TRUE,TRUE,,,,,,,,,,,,,,,,0.5,,,,,,,,,,,METAR,833.0
CXCS 211600Z AUTO 34011KT M18/M21 RMK AO1 PK WND 35017/1502 T11761211,CXCS,2015-02-21T16:00:00Z,51.93,-110.72,-17.6,-21.1,340,11,,,,,,TRUE,TRUE,,,,,,,,,,,,,,,,,,,,,,,,,,,METAR,772.0
CXBA 211600Z AUTO 34013KT M18/M22 RMK AO1 PK WND 33017/1556 T11831223 50004,CXBA,2015-02-21T16:00:00Z,52.12,-110.1,-18.3,-22.3,340,13,,,,,,TRUE,TRUE,,,,,,,,,,,,,,,,0.4,,,,,,,,,,,METAR,687.0
CXAJ 211600Z AUTO 32006KT M21/M23 RMK AO1 SOG 10 T12091227,CXAJ,2015-02-21T16:00:00Z,54.77,-112.82,-20.9,-22.7,320,6,,,,,,TRUE,TRUE,,,,,,,,,,,,,,,,,,,,,,,,,,,METAR,574.0
CXAG 211600Z AUTO 34004KT M20/M22 RMK AO1 T12041220,CXAG,2015-02-21T16:00:00Z,53.92,-112.28,-20.4,-22.0,340,4,,,,,,TRUE,TRUE,,,,,,,,,,,,,,,,,,,,,,,,,,,METAR,625.0
CWBU 211600Z AUTO 01011KT M27/M31 RMK AO1 SOG 26 1025 SLP357 T12721307,CWBU,2015-02-21T16:00:00Z,53.33,-104.02,-27.2,-30.7,10,11,,,,1035.7,,TRUE,TRUE,,,,,,,,,,,,,,,,,,,,,,,,,,,METAR,373.0
HKMO 211600Z 08010KT 9999 FEW024 28/24 Q1008 NOSIG,HKMO,2015-02-21T16:00:00Z,-4.02,39.62,28.0,24.0,80,10,,6.21,29.763779,,,,,,TRUE,,,,,FEW,2400,,,,,,,VFR,,,,,,,,,,,,METAR,55.0
CXTH 211600Z AUTO 34006KT M21/M23 RMK AO1 T12071231,CXTH,2015-02-21T16:00:00Z,53.63,-111.68,-20.7,-23.1,340,6,,,,,,TRUE,TRUE,,,,,,,,,,,,,,,,,,,,,,,,,,,METAR,678.0
CXFM 211600Z AUTO 02007KT M08/M10 RMK AO1 5PAST HR M P0002 T10841097 50010,CXFM,2015-02-21T16:00:00Z,49.48,-111.48,-8.4,-9.7,20,7,,,,,,TRUE,TRUE,,,,,,,,,,,,,,,,1.0,,,,,0.02,,,,,,METAR,881.0
CXDB 211600Z AUTO 26016KT M07/M08 RMK AO1 PK WND 23021/1558 T10681077 50004,CXDB,2015-02-21T16:00:00Z,49.05,-112.82,-6.8,-7.7,260,16,,,,,,TRUE,TRUE,,,,,,,,,,,,,,,,0.4,,,,,,,,,,,METAR,1310.0
CXAK 211600Z AUTO 03007KT M17/M19 RMK AO1 T11661192,CXAK,2015-02-21T16:00:00Z,52.35,-112.6,-16.6,-19.2,30,7,,,,,,TRUE,TRUE,,,,,,,,,,,,,,,,,,,,,,,,,,,METAR,795.0
CPRO 211600Z AUTO 01015KT M11/M12 RMK AO1 PK WND 00026/1559 T11061115 50005,CPRO,2015-02-21T16:00:00Z,50.83,-112.05,-10.6,-11.5,10,15,,,,,,TRUE,TRUE,,,,,,,,,,,,,,,,0.5,,,,,,,,,,,METAR,714.0
CXWM 211600Z AUTO 05012KT M08/M09 RMK AO1 PK WND 32017/1513 T10751087 50005,CXWM,2015-02-21T16:00:00Z,49.5,-112.12,-7.5,-8.7,50,12,,,,,,TRUE,TRUE,,,,,,,,,,,,,,,,0.5,,,,,,,,,,,METAR,944.0
CXRB 211600Z AUTO 15015KT M30/M33 RMK AO1 SOG 00 6031 PK WND 16022/1528 SLP213 T12951327,CXRB,2015-02-21T16:00:00Z,74.72,-94.98,-29.5,-32.7,150,15,,,,1021.3,,TRUE,TRUE,,,,,,,,,,,,,,,,,,,,,,,,,,,METAR,68.0
CWEE 211600Z AUTO M15/M21 RMK AO1 T11531211,CWEE,2015-02-21T16:00:00Z,49.27,-73.33,-15.3,-21.1,,,,,,,,TRUE,TRUE,,,,,,,,,,,,,,,,,,,,,,,,,,,METAR,305.0
FNKU 211600Z 12010KT 9999 FEW014 25/14 Q1016,FNKU,2015-02-21T16:00:00Z,-12.37,16.93,25.0,14.0,120,10,,6.21,30.0,,,,,,,,,,,FEW,1400,,,,,,,VFR,,,,,,,,,,,,METAR,1699.0
CXBW 211600Z AUTO 03015KT M08/M10 RMK AO1 PK WND 03019/1553 T10841098 50004,CXBW,2015-02-21T16:00:00Z,49.8,-112.3,-8.4,-9.8,30,15,,,,,,TRUE,TRUE,,,,,,,,,,,,,,,,0.4,,,,,,,,,,,METAR,824.0
CWHI 211600Z AUTO 32004KT M11/M14 RMK AO1 T11141136,CWHI,2015-02-21T16:00:00Z,51.7,-113.22,-11.4,-13.6,320,4,,,,,,TRUE,TRUE,,,,,,,,,,,,,,,,,,,,,,,,,,,METAR,907.0
FNBG 211600Z 27012KT 9999 FEW020 BKN250 29/24 Q1008,FNBG,2015-02-21T16:00:00Z,-12.62,13.4,29.0,24.0,270,12,,6.21,29.763779,,,,,,,,,,,FEW,2000,BKN,25000,,,,,VFR,,,,,,,,,,,,METAR,36.0
CWME 211600Z AUTO 05018G24KT 06/01 RMK AO1 PK WND 05024/1558 SLP305 T00590005 51016,CWME,2015-02-21T16:00:00Z,52.18,-127.47,5.9,0.5,50,18,24,,,1030.5,,TRUE,TRUE,,,,,,,,,,,,,,,,1.6,,,,,,,,,,,METAR,32.0
CWWL 211600Z AUTO 07002KT 06/01 RMK AO1 SLP303 T00590005 53005,CWWL,2015-02-21T16:00:00Z,53.5,-130.63,5.9,0.5,70,2,,,,1030.3,,TRUE,TRUE,,,,,,,,,,,,,,,,0.5,,,,,,,,,,,METAR,17.0
CXTV 211600Z AUTO 25005KT M12/M14 RMK AO1 SLP214 T11151135 56006,CXTV,2015-02-21T16:00:00Z,68.75,-133.5,-11.5,-13.5,250,5,,,,1021.4,,TRUE,TRUE,,,,,,,,,,,,,,,,-0.6,,,,,,,,,,,METAR,85.0
CWHP 211600Z AUTO 26027KT M11/M13 RMK AO1 PK WND 26034/1540 SLP206 T11091126 52037,CWHP,2015-02-21T16:00:00Z,49.07,-61.7,-10.9,-12.6,260,27,,,,1020.6,,TRUE,TRUE,,,,,,,,,,,,,,,,3.7,,,,,,,,,,,METAR,4.0
CWWX 211600Z AUTO 23007KT M08/M09 RMK AO1 SLP142 T10751087 55005,CWWX,2015-02-21T16:00:00Z,45.32,-81.73,-7.5,-8.7,230,7,,,,1014.2,,TRUE,TRUE,,,,,,,,,,,,,,,,-0.5,,,,,,,,,,,METAR,181.0
CXSC 211600Z AUTO 36013KT M11/M13 RMK AO1 T11101134 50005,CXSC,2015-02-21T16:00:00Z,50.3,-110.08,-11.0,-13.4,360,13,,,,,,TRUE,TRUE,,,,,,,,,,,,,,,,0.5,,,,,,,,,,,METAR,800.0
FEFF 211600Z VRB03KT 9999 FEW020 BKN150 29/22 Q1008 NOSIG,FEFF,2015-02-21T16:00:00Z,4.4,18.52,29.0,22.0,0,3,,6.21,29.763779,,,,,,TRUE,,,,,FEW,2000,BKN,15000,,,,,VFR,,,,,,,,,,,,METAR,366.0
FCPP 211600Z 21008KT 9999 FEW016 FEW026TCU 29/25 Q1007 NOSIG,FCPP,2015-02-21T16:00:00Z,-4.82,11.9,29.0,25.0,210,8,,6.21,29.734253,,,,,,TRUE,,,,,FEW,1600,FEW,2600,,,,,VFR,,,,,,,,,,,,METAR,17.0
FCBB 211600Z 22006KT 190V260 9999 FEW020 FEW030CB 32/22 Q1007 NOSIG,FCBB,2015-02-21T16:00:00Z,-4.25,15.25,32.0,22.0,220,6,,6.21,29.734253,,,,,,TRUE,,,,,FEW,2000,FEW,3000,,,,,VFR,,,,,,,,,,,,METAR,316.0
FGSL 211600Z 25008KT 9999 FEW010 31/24 Q1007 NOSIG,FGSL,2015-02-21T16:00:00Z,3.75,8.72,31.0,24.0,250,8,,6.21,29.734253,,,,,,TRUE,,,,,FEW,1000,,,,,,,VFR,,,,,,,,,,,,METAR,56.0
FGBT 211600Z 26008KT 9999 FEW010 31/25 Q1007 NOSIG,FGBT,2015-02-21T16:00:00Z,1.88,9.8,31.0,25.0,260,8,,6.21,29.734253,,,,,,TRUE,,,,,FEW,1000,,,,,,,VFR,,,,,,,,,,,,METAR,8.0
FPST 211600Z 33006KT 9999 FEW020CB BKN040 29/25 Q1008,FPST,2015-02-21T16:00:00Z,0.37,6.72,29.0,25.0,330,6,,6.21,29.763779,,,,,,,,,,,FEW,2000,BKN,4000,,,,,VFR,,,,,,,,,,,,METAR,13.0
FOON 211600Z /////KT 9999 FEW020 SCT040 31/22 Q1005,FOON,2015-02-21T16:00:00Z,-1.63,13.42,31.0,22.0,,,,6.21,29.675198,,,,,,,,,,,FEW,2000,SCT,4000,,,,,VFR,,,,,,,,,,,,METAR,441.0
FOOG 211600Z /////KT 9999 TS SCT013 FEW020CB SCT040 30/25 Q1007,FOOG,2015-02-21T16:00:00Z,-0.7,8.75,30.0,25.0,,,,6.21,29.734253,,,,,,,,,,TS,SCT,1300,FEW,2000,SCT,4000,,,VFR,,,,,,,,,,,,METAR,4.0
CWIX 211600Z AUTO 18008KT M15/M19 RMK AO1 T11481189,CWIX,2015-02-21T16:00:00Z,48.6,-71.72,-14.8,-18.9,180,8,,,,,,TRUE,TRUE,,,,,,,,,,,,,,,,,,,,,,,,,,,METAR,113.0
CWKD 211600Z AUTO 03005KT M23/M28 RMK AO1 SLP215 T12311279 58003,CWKD,2015-02-21T16:00:00Z,50.73,-71.02,-23.1,-27.9,30,5,,,,1021.5,,TRUE,TRUE,,,,,,,,,,,,,,,,-0.3,,,,,,,,,,,METAR,497.0
CXWB 211600Z AUTO 31011KT M33/M37 RMK AO1 T13301372,CXWB,2015-02-21T16:00:00Z,65.88,-89.45,-33.0,-37.2,310,11,,,,,,TRUE,TRUE,,,,,,,,,,,,,,,,,,,,,,,,,,,METAR,18.0
CXMG 211600Z AUTO 21005KT M11/M12 RMK AO1 T11071123,CXMG,2015-02-21T16:00:00Z,56.97,-117.45,-10.7,-12.3,210,5,,,,,,TRUE,TRUE,,,,,,,,,,,,,,,,,,,,,,,,,,,METAR,457.0
CXHP 211600Z AUTO 13004KT M11/M14 RMK AO1 T11131144,CXHP,2015-02-21T16:00:00Z,55.4,-116.48,-11.3,-14.4,130,4,,,,,,TRUE,TRUE,,,,,,,,,,,,,,,,,,,,,,,,,,,METAR,602.0
CZSM 211600Z AUTO 14001KT M34/M39 RMK AO1 SOG 41 0000 SLP434 T13411388,CZSM,2015-02-21T16:00:00Z,60.03,-111.93,-34.1,-38.8,140,1,,,,1043.4,,TRUE,TRUE,,,,,,,,,,,,,,,,,,,,,,,,,,,METAR,203.0
CZFS 211600Z AUTO 12006KT M15/M17 RMK AO1 SOG 41 6022 SLP334 T11521166,CZFS,2015-02-21T16:00:00Z,61.77,-121.23,-15.2,-16.6,120,6,,,,1033.4,,TRUE,TRUE,,,,,,,,,,,,,,,,,,,,,,,,,,,METAR,168.0
LPLA 211600Z /////KT 9999 FEW015 BKN020 17/13 Q1036,LPLA,2015-02-21T16:00:00Z,38.77,-27.1,17.0,13.0,,,,6.21,30.590551,,,,,,,,,,,FEW,1500,BKN,2000,,,,,MVFR,,,,,,,,,,,,METAR,55.0
SBUF 211600Z 16003KT 9999 SCT020 30/21 Q1014,SBUF,2015-02-21T16:00:00Z,-9.4,-38.25,30.0,21.0,160,3,,6.21,29.940945,,,,,,,,,,,SCT,2000,,,,,,,VFR,,,,,,,,,,,,METAR,252.0
SBTC 211600Z 15004KT 9999 SCT020 32/25 Q1015,SBTC,2015-02-21T16:00:00Z,-15.35,-38.98,32.0,25.0,150,4,,6.21,29.970472,,,,,,,,,,,SCT,2000,,,,,,,VFR,,,,,,,,,,,,METAR,6.0
SBQV 211600Z 13007KT 9999 BKN020 26/20 Q0102,SBQV,2015-02-21T16:00:00Z,-14.87,-40.87,26.0,20.0,130,7,,6.21,3.011811,,,,,,,,,,,BKN,2000,,,,,,,MVFR,,,,,,,,,,,,METAR,893.0
SBMS 211600Z 05009KT 9999 SCT030 BKN100 32/22 Q1011,SBMS,2015-02-21T16:00:00Z,-5.2,-37.37,32.0,22.0,50,9,,6.21,29.852362,,,,,,,,,,,SCT,3000,BKN,10000,,,,,VFR,,,,,,,,,,,,METAR,18.0
SBLP 211600Z 12003KT 9999 SCT030 33/17 Q1015,SBLP,2015-02-21T16:00:00Z,-13.27,-43.42,33.0,17.0,120,3,,6.21,29.970472,,,,,,,,,,,SCT,3000,,,,,,,VFR,,,,,,,,,,,,METAR,440.0
SBKG 211600Z 10007KT 9999 BKN040 29/19 Q1014,SBKG,2015-02-21T16:00:00Z,-7.27,-35.87,29.0,19.0,100,7,,6.21,29.940945,,,,,,,,,,,BKN,4000,,,,,,,VFR,,,,,,,,,,,,METAR,560.0
SBJU 211600Z 08003KT 9999 SCT020 BKN080 28/23 Q1016,SBJU,2015-02-21T16:00:00Z,-7.22,-39.27,28.0,23.0,80,3,,6.21,30.0,,,,,,,,,,,SCT,2000,BKN,8000,,,,,VFR,,,,,,,,,,,,METAR,409.0
SBIL 211600Z 14011KT 9999 SCT025 SCT070 29/23 Q1014,SBIL,2015-02-21T16:00:00Z,-14.8,-39.02,29.0,23.0,140,11,,6.21,29.940945,,,,,,,,,,,SCT,2500,SCT,7000,,,,,VFR,,,,,,,,,,,,METAR,5.0
LOWZ 211600Z 18010G20KT 30KM SCT100AC BKN140AC 07/M03 Q0999 RMK BKN,LOWZ,2015-02-21T16:00:00Z,47.3,12.78,7.0,-3.0,180,10,20,18.64,29.498032,,,,,,,,,,,,,,,,,,,,,,,,,,,,,,,METAR,754.0
LOIH 211600Z 05005KT 35KM FEW030SC BKN040SC 06/02 Q1000 RMK OVC,LOIH,2015-02-21T16:00:00Z,47.38,9.7,6.0,2.0,50,5,,21.75,29.52756,,,,,,,,,,,,,,,,,,,,,,,,,,,,,,,METAR,418.0
LOAV 211600Z 04003KT 15KM BKN300CI 10/M05 Q1002 RMK BKN,LOAV,2015-02-21T16:00:00Z,47.97,16.27,10.0,-5.0,40,3,,9.32,29.586615,,,,,,,,,,,,,,,,,,,,,,,,,,,,,,,METAR,233.0
LOAN 211600Z 03005KT 20KM SCT300CI RMK BKN,LOAN,2015-02-21T16:00:00Z,47.85,16.25,,,30,5,,12.43,,,,,,,,,,,,,,,,,,,,,,,,,,,,,,,,METAR,272.0
HKKI 211600Z 27015KT 9999 FEW023CB SCT090 26/19 Q1013,HKKI,2015-02-21T16:00:00Z,-0.1,34.75,26.0,19.0,270,15,,6.21,29.911417,,,,,,,,,,,FEW,2300,SCT,9000,,,,,VFR,,,,,,,,,,,,METAR,1146.0
CWJU 211600Z AUTO 10008G15KT 05/04 RMK AO1 SLP300 T00460035 58002,CWJU,2015-02-21T16:00:00Z,54.25,-133.07,4.6,3.5,100,8,15,,,1030.0,,TRUE,TRUE,,,,,,,,,,,,,,,,-0.2,,,,,,,,,,,METAR,41.0
SUCA 211600Z XXXXXKT 9999-RA BKN016 24/18 Q1017,SUCA,2015-02-21T16:00:00Z,-34.45,-57.77,24.0,18.0,,,,,30.029528,,,,,,,,,,-RA,BKN,1600,,,,,,,,,,,,,,,,,,,METAR,23.0
SULS 211600Z 10013KT 9999 SCT026 25/16 Q1020,SULS,2015-02-21T16:00:00Z,-34.87,-55.1,25.0,16.0,100,13,,6.21,30.11811,,,,,,,,,,,SCT,2600,,,,,,,VFR,,,,,,,,,,,,METAR,30.0
SUSO 211600Z 27006KT 9999 SCT027 BKN200 29/17 Q1018,SUSO,2015-02-21T16:00:00Z,-31.43,-57.98,29.0,17.0,270,6,,6.21,30.059055,,,,,,,,,,,SCT,2700,BKN,20000,,,,,VFR,,,,,,,,,,,,METAR,34.0
SUDU 211600Z 03008KT 9999 BKN026 SCT200 27/17 Q1018,SUDU,2015-02-21T16:00:00Z,-33.35,-56.5,27.0,17.0,30,8,,6.21,30.059055,,,,,,,,,,,BKN,2600,SCT,20000,,,,,MVFR,,,,,,,,,,,,METAR,93.0
MBPV 211600Z 04018KT 9000 SCT015 BKN030 25/21 Q1022,MBPV,2015-02-21T16:00:00Z,21.77,-72.27,25.0,21.0,40,18,,5.59,30.177166,,,,,,,,,,,SCT,1500,BKN,3000,,,,,MVFR,,,,,,,,,,,,METAR,5.0
OISY 211600Z 00000KT 9999 SCT035 01/M07 Q1010,OISY,2015-02-21T16:00:00Z,30.7,51.55,1.0,-7.0,0,0,,6.21,29.822834,,,,,,,,,,,SCT,3500,,,,,,,VFR,,,,,,,,,,,,METAR,1811.0
OISL 211600Z 00000KT 5000 DU SKC 14/08 Q1009,OISL,2015-02-21T16:00:00Z,27.67,54.37,14.0,8.0,0,0,,3.11,29.793306,,,,,,,,,,DU,SKC,,,,,,,,MVFR,,,,,,,,,,,,METAR,805.0
GMFM 211600Z 22009KT 5000 -RA SCT013 BKN016 08/06 Q1017 NOSIG,GMFM,2015-02-21T16:00:00Z,33.87,-5.52,8.0,6.0,220,9,,3.11,30.029528,,,,,,TRUE,,,,-RA,SCT,1300,BKN,1600,,,,,MVFR,,,,,,,,,,,,METAR,549.0
OITM 211600Z 12004KT 9999 SCT040 BKN180 M01/M04 Q1011,OITM,2015-02-21T16:00:00Z,37.35,46.15,-1.0,-4.0,120,4,,6.21,29.852362,,,,,,,,,,,SCT,4000,BKN,18000,,,,,VFR,,,,,,,,,,,,METAR,1340.0
OINE 211600Z 18010KT 3000 RA BKN020 OVC080 06/06 Q1013,OINE,2015-02-21T16:00:00Z,37.38,55.45,6.0,6.0,180,10,,1.86,29.911417,,,,,,,,,,RA,BKN,2000,OVC,8000,,,,,IFR,,,,,,,,,,,,METAR,130.0
OIMQ 211600Z 12012KT 9999 SCT025 OVC080 09/08 Q1007 RERA,OIMQ,2015-02-21T16:00:00Z,35.23,58.47,9.0,8.0,120,12,,6.21,29.734253,,,,,,,,,,,SCT,2500,OVC,8000,,,,,VFR,,,,,,,,,,,,METAR,1140.0
OIMD 211600Z 24006KT 5000 -RA FEW025 SCT030 OVC080 10/07 Q1004,OIMD,2015-02-21T16:00:00Z,34.38,58.63,10.0,7.0,240,6,,3.11,29.64567,,,,,,,,,,-RA,FEW,2500,SCT,3000,OVC,8000,,,MVFR,,,,,,,,,,,,METAR,1100.0
OIMC 211600Z 30004KT 3000 RA BKN020 OVC080 10/09 Q1010,OIMC,2015-02-21T16:00:00Z,36.5,61.07,10.0,9.0,300,4,,1.86,29.822834,,,,,,,,,,RA,BKN,2000,OVC,8000,,,,,IFR,,,,,,,,,,,,METAR,288.0
OIIK 211600Z 01004KT CAVOK M02/M08 Q1010,OIIK,2015-02-21T16:00:00Z,36.25,50.05,-2.0,-8.0,10,4,,6.21,29.822834,,,,,,,,,,,CAVOK,,,,,,,,VFR,,,,,,,,,,,,METAR,1278.0
META CHECK TEXT NEW ENDING ADDED VABBYFYX ,META,2015-02-21T16:00:00Z,,,,,,,,,,,,,,,,,,,VA,,,,,,,,,,,,,,,,,,,,,METAR,
OINR 211600Z 32019KT 9999 FEW025CB BKN030 BKN100 05/M00 Q1017,OINR,2015-02-21T16:00:00Z,36.88,50.67,5.0,0.0,320,19,,6.21,30.029528,,,,,,,,,,,FEW,2500,BKN,3000,BKN,10000,,,MVFR,,,,,,,,,,,,METAR,-20.0
OINN 211600Z 27012KT 5000 RADZ OVC007 05/02 Q1018 RESHRA,OINN,2015-02-21T16:00:00Z,36.67,51.47,5.0,2.0,270,12,,3.11,30.059055,,,,,,,,,,RA DZ,OVC,700,,,,,,,IFR,,,,,,,,,,,,METAR,-19.0
OIKQ 211600Z 22016KT 3000 SA FEW025CB FEW030 OVC090 24/17 Q1006,OIKQ,2015-02-21T16:00:00Z,26.75,55.9,24.0,17.0,220,16,,1.86,29.704725,,,,,,,,,,SA,FEW,2500,FEW,3000,OVC,9000,,,IFR,,,,,,,,,,,,METAR,12.0
OICI 211600Z 15004KT 6000 -SN FEW030CB SCT035 OVC070 01/M01 Q1009 A2981,OICI,2015-02-21T16:00:00Z,33.58,46.4,1.0,-1.0,150,4,,3.73,29.793306,,,,,,,,,,-SN,FEW,3000,SCT,3500,OVC,7000,,,MVFR,,,,,,,,,,,,METAR,1343.0
OIAM 211600Z 29004KT 8000 SKC 13/01 Q1012,OIAM,2015-02-21T16:00:00Z,30.55,49.15,13.0,1.0,290,4,,4.97,29.88189,,,,,,,,,,,SKC,,,,,,,,MVFR,,,,,,,,,,,,METAR,4.0
OIAG 211600Z 32006KT 3500 DU SKC 14/00 Q1013,OIAG,2015-02-21T16:00:00Z,30.77,49.67,14.0,0.0,320,6,,2.17,29.911417,,,,,,,,,,DU,SKC,,,,,,,,IFR,,,,,,,,,,,,METAR,29.0
OIZI 211600Z 19006KT 6000 FEW040 SCT200 26/04 Q1012,OIZI,2015-02-21T16:00:00Z,27.23,60.72,26.0,4.0,190,6,,3.73,29.88189,,,,,,,,,,,FEW,4000,SCT,20000,,,,,MVFR,,,,,,,,,,,,METAR,591.0
OIZB 211600Z 21010KT 2000 DU VV030 29/01 Q1004,OIZB,2015-02-21T16:00:00Z,31.1,61.55,29.0,1.0,210,10,,1.24,29.64567,,,,,,,,,,DU,OVX,0,,,,,,,LIFR,,,,,,,,,,,3000,METAR,489.0
OING 211600Z 24020KT 9999 SCT025 OVC080 08/04 Q1016,OING,2015-02-21T16:00:00Z,36.9,54.4,8.0,4.0,240,20,,6.21,30.0,,,,,,,,,,,SCT,2500,OVC,8000,,,,,VFR,,,,,,,,,,,,METAR,155.0
OIZJ 211600Z AUTO 09029KT //// // ////// 24/21 Q1006,OIZJ,2015-02-21T16:00:00Z,25.65,57.8,24.0,21.0,90,29,,,29.704725,,,TRUE,,,,,,,,,,,,,,,,,,,,,,,,,,,,METAR,4.0
OIMB 211600Z 29006KT 6000 FEW030CB SCT030 OVC090 09/06 Q1009,OIMB,2015-02-21T16:00:00Z,32.9,59.28,9.0,6.0,290,6,,3.73,29.793306,,,,,,,,,,,FEW,3000,SCT,3000,OVC,9000,,,MVFR,,,,,,,,,,,,METAR,1491.0
OIFS 211600Z 35004KT 9999 FEW035 M01/M09 Q1009,OIFS,2015-02-21T16:00:00Z,32.32,50.85,-1.0,-9.0,350,4,,6.21,29.793306,,,,,,,,,,,FEW,3500,,,,,,,VFR,,,,,,,,,,,,METAR,2078.0
SCFA 211600Z 20012KT CAVOK 23/14 Q1014 NOSIG,SCFA,2015-02-21T16:00:00Z,-23.42,-70.42,23.0,14.0,200,12,,6.21,29.940945,,,,,,TRUE,,,,,CAVOK,,,,,,,,VFR,,,,,,,,,,,,METAR,120.0
YDBY 211600Z AUTO 08016G33KT //// // ////// 23/21 Q1007,YDBY,2015-02-21T16:00:00Z,-17.37,123.67,23.0,21.0,80,16,33,,29.734253,,,TRUE,,,,,,,,,,,,,,,,,,,,,,,,,,,,METAR,7.0
HKMA 21160NIL,HKMA,2015-02-21T16:00:00Z,3.92,41.87,,,,,,,,,,,,,,,,,,,,,,,,,,,,,-16.0,,,,,,,,,METAR,231.0
WIPP 211600Z 00000KT 9999 FEW012 26/24 Q1011 NOSIG,WIPP,2015-02-21T16:00:00Z,-2.88,104.7,26.0,24.0,0,0,,6.21,29.852362,,,,,,TRUE,,,,,FEW,1200,,,,,,,VFR,,,,,,,,,,,,METAR,10.0
SBPJ 211600Z 12010KT 9999 SCT027 SCT100 30/20 Q1014,SBPJ,2015-02-21T16:00:00Z,-10.28,-48.37,30.0,20.0,120,10,,6.21,29.940945,,,,,,,,,,,SCT,2700,SCT,10000,,,,,VFR,,,,,,,,,,,,METAR,236.0
SBBW 211600Z 09004KT 9999 BKN020 29/22 Q1016,SBBW,2015-02-21T16:00:00Z,-15.87,-52.37,29.0,22.0,90,4,,6.21,30.0,,,,,,,,,,,BKN,2000,,,,,,,MVFR,,,,,,,,,,,,METAR,350.0
SBAN 211600Z 09008KT 9999 BKN025 FEW030TCU 27/16 Q1021,SBAN,2015-02-21T16:00:00Z,-16.22,-48.97,27.0,16.0,90,8,,6.21,30.147638,,,,,,,,,,,BKN,2500,FEW,3000,,,,,MVFR,,,,,,,,,,,,METAR,1137.0
OIBL 211600Z 28012KT 2500 HZ FEW030 BKN100 23/13 Q1006,OIBL,2015-02-21T16:00:00Z,26.53,54.82,23.0,13.0,280,12,,1.55,29.704725,,,,,,,,,,HZ,FEW,3000,BKN,10000,,,,,IFR,,,,,,,,,,,,METAR,14.0
OIIP 211600Z 30012KT 9999 FEW035 M03/M05 Q1010,OIIP,2015-02-21T16:00:00Z,35.78,50.83,-3.0,-5.0,300,12,,6.21,29.822834,,,,,,,,,,,FEW,3500,,,,,,,VFR,,,,,,,,,,,,METAR,1271.0
SBSM 211600Z 11010KT 9999 BKN025 26/22 Q1017,SBSM,2015-02-21T16:00:00Z,-29.72,-53.7,26.0,22.0,110,10,,6.21,30.029528,,,,,,,,,,,BKN,2500,,,,,,,MVFR,,,,,,,,,,,,METAR,85.0
SBPF 211600Z 02005KT 9999 VCSH BKN030 25/16 Q1019,SBPF,2015-02-21T16:00:00Z,-28.25,-52.33,25.0,16.0,20,5,,6.21,30.088583,,,,,,,,,,VCSH,BKN,3000,,,,,,,MVFR,,,,,,,,,,,,METAR,684.0
SBMG 211600Z 33009KT 9999 BKN040 SCT050 30/22 Q1017,SBMG,2015-02-21T16:00:00Z,-23.48,-52.02,30.0,22.0,330,9,,6.21,30.029528,,,,,,,,,,,BKN,4000,SCT,5000,,,,,VFR,,,,,,,,,,,,METAR,542.0
SBJV 211600Z 18005KT 9999 BKN014 BKN025 28/25 Q1018,SBJV,2015-02-21T16:00:00Z,-26.22,-48.8,28.0,25.0,180,5,,6.21,30.059055,,,,,,,,,,,BKN,1400,BKN,2500,,,,,MVFR,,,,,,,,,,,,METAR,4.0
SBCO 211600Z 13012KT 100V160 9999 BKN025 BKN070 28/22 Q1018,SBCO,2015-02-21T16:00:00Z,-29.95,-51.15,28.0,22.0,130,12,,6.21,30.059055,,,,,,,,,,,BKN,2500,BKN,7000,,,,,MVFR,,,,,,,,,,,,METAR,47.0
SBCM 211600Z 12004KT 9999 FEW010 SCT015 BKN070 26/23 Q1019,SBCM,2015-02-21T16:00:00Z,-28.72,-49.42,26.0,23.0,120,4,,6.21,30.088583,,,,,,,,,,,FEW,1000,SCT,1500,BKN,7000,,,VFR,,,,,,,,,,,,METAR,28.0
SBCH 211600Z 04012KT 8000 -SHRA SCT010 FEW020TCU OVC025 23/22 Q 1019,SBCH,2015-02-21T16:00:00Z,-27.13,-52.67,23.0,22.0,40,12,,4.97,,,,,,,,,,,-SHRA,SCT,1000,FEW,2000,OVC,2500,,,MVFR,,,,,,,,,,,,METAR,650.0
SBCA 211600Z 03020KT 9999 FEW020 SCT080 26/19 Q1019,SBCA,2015-02-21T16:00:00Z,-25.0,-53.5,26.0,19.0,30,20,,6.21,30.088583,,,,,,,,,,,FEW,2000,SCT,8000,,,,,VFR,,,,,,,,,,,,METAR,754.0
SBBI 211600Z 03005KT 9999 FEW018 BKN030 27/19 Q1022,SBBI,2015-02-21T16:00:00Z,-25.4,-49.23,27.0,19.0,30,5,,6.21,30.177166,,,,,,,,,,,FEW,1800,BKN,3000,,,,,MVFR,,,,,,,,,,,,METAR,923.0
SBSR 211600Z 05007KT 9999 BKN040 31/17 Q1018,SBSR,2015-02-21T16:00:00Z,-20.8,-49.4,31.0,17.0,50,7,,6.21,30.059055,,,,,,,,,,,BKN,4000,,,,,,,VFR,,,,,,,,,,,,METAR,543.0
SBLS 211600Z 14014KT 9999 BKN030 FEW040TCU 27/16 Q1021,SBLS,2015-02-21T16:00:00Z,-19.67,-43.88,27.0,16.0,140,14,,6.21,30.147638,,,,,,,,,,,BKN,3000,FEW,4000,,,,,MVFR,,,,,,,,,,,,METAR,852.0
SBST 211600Z 22008KT 9999 BKN022 33/25 Q1017,SBST,2015-02-21T16:00:00Z,-23.92,-46.28,33.0,25.0,220,8,,6.21,30.029528,,,,,,,,,,,BKN,2200,,,,,,,MVFR,,,,,,,,,,,,METAR,3.0
SBSC 211600Z 10003KT CAVOK 34/18 Q1015,SBSC,2015-02-21T16:00:00Z,-22.92,-43.72,34.0,18.0,100,3,,6.21,29.970472,,,,,,,,,,,CAVOK,,,,,,,,VFR,,,,,,,,,,,,METAR,3.0
SBPR 211600Z 07010KT 9999 BKN025 29/14 Q1021,SBPR,2015-02-21T16:00:00Z,-19.9,-43.98,29.0,14.0,70,10,,6.21,30.147638,,,,,,,,,,,BKN,2500,,,,,,,MVFR,,,,,,,,,,,,METAR,927.0
SBPC 211600Z 09004KT 9999 BKN020 29/16 Q1024,SBPC,2015-02-21T16:00:00Z,-21.85,-46.57,29.0,16.0,90,4,,6.21,30.236221,,,,,,,,,,,BKN,2000,,,,,,,MVFR,,,,,,,,,,,,METAR,1260.0
SBMT 211600Z 20006KT 9999 SCT040 BKN070 30/18 Q1020,SBMT,2015-02-21T16:00:00Z,-23.52,-46.62,30.0,18.0,200,6,,6.21,30.11811,,,,,,,,,,,SCT,4000,BKN,7000,,,,,VFR,,,,,,,,,,,,METAR,722.0
SBMK 211600Z 09008KT 9999 FEW048 31/12 Q1018,SBMK,2015-02-21T16:00:00Z,-16.7,-43.82,31.0,12.0,90,8,,6.21,30.059055,,,,,,,,,,,FEW,4800,,,,,,,VFR,,,,,,,,,,,,METAR,646.0
SBME 211600Z 12003KT 9999 FEW025 31/23 Q1016,SBME,2015-02-21T16:00:00Z,-22.35,-41.77,31.0,23.0,120,3,,6.21,30.0,,,,,,,,,,,FEW,2500,,,,,,,VFR,,,,,,,,,,,,METAR,2.0
SBLB 211600Z 05010KT 9999 FEW010 29/23 Q1018 W///S2,SBLB,2015-02-21T16:00:00Z,-22.1,-39.92,29.0,23.0,50,10,,6.21,30.059055,,,,,,,,,,,FEW,1000,,,,,,,VFR,,,,,,,,,,,,METAR,10.0
SBJR 211600Z 15006KT 9999 FEW025 33/25 Q1016,SBJR,2015-02-21T16:00:00Z,-22.97,-43.37,33.0,25.0,150,6,,6.21,30.0,,,,,,,,,,,FEW,2500,,,,,,,VFR,,,,,,,,,,,,METAR,3.0
SBJF 211600Z 05009KT 9999 BKN018 28/19 Q1022,SBJF,2015-02-21T16:00:00Z,-21.77,-43.38,28.0,19.0,50,9,,6.21,30.177166,,,,,,,,,,,BKN,1800,,,,,,,MVFR,,,,,,,,,,,,METAR,939.0
SBIP 211600Z 01007KT 9999 SCT040 31/17 Q1018,SBIP,2015-02-21T16:00:00Z,-19.47,-42.48,31.0,17.0,10,7,,6.21,30.059055,,,,,,,,,,,SCT,4000,,,,,,,VFR,,,,,,,,,,,,METAR,239.0
SBGW 211600Z VRB03KT 9999 SCT025 32/18 Q1019,SBGW,2015-02-21T16:00:00Z,-22.77,-45.2,32.0,18.0,0,3,,6.21,30.088583,,,,,,,,,,,SCT,2500,,,,,,,VFR,,,,,,,,,,,,METAR,533.0
SBFS 211600Z 05017KT 9999 FEW020 ///// Q1017,SBFS,2015-02-21T16:00:00Z,-22.02,-41.07,,,50,17,,6.21,30.029528,,,,,,,,,,,FEW,2000,,,,,,,VFR,,,,,,,,,,,,METAR,3.0
SBES 211600Z 07018KT 040V100 9999 FEW020 33/19 Q1017,SBES,2015-02-21T16:00:00Z,-22.82,-42.1,33.0,19.0,70,18,,6.21,30.029528,,,,,,,,,,,FEW,2000,,,,,,,VFR,,,,,,,,,,,,METAR,11.0
SBDN 211600Z 07008KT 9999 SCT040 32/20 Q1017,SBDN,2015-02-21T16:00:00Z,-22.18,-51.43,32.0,20.0,70,8,,6.21,30.029528,,,,,,,,,,,SCT,4000,,,,,,,VFR,,,,,,,,,,,,METAR,435.0
SBBU 211600Z 07008KT 9999 SCT033 32/23 Q1018,SBBU,2015-02-21T16:00:00Z,-22.32,-49.07,32.0,23.0,70,8,,6.21,30.059055,,,,,,,,,,,SCT,3300,,,,,,,VFR,,,,,,,,,,,,METAR,590.0
SBBQ 211600Z 10006KT 9999 FEW040 26/14 Q1024,SBBQ,2015-02-21T16:00:00Z,-21.25,-43.77,26.0,14.0,100,6,,6.21,30.236221,,,,,,,,,,,FEW,4000,,,,,,,VFR,,,,,,,,,,,,METAR,1171.0
SBBH 211600Z 06011KT 9999 SCT040 29/18 Q1020,SBBH,2015-02-21T16:00:00Z,-19.85,-43.95,29.0,18.0,60,11,,6.21,30.11811,,,,,,,,,,,SCT,4000,,,,,,,VFR,,,,,,,,,,,,METAR,785.0
SBAF 211600Z 20012KT 9999 FEW025 34/23 Q1016,SBAF,2015-02-21T16:00:00Z,-22.87,-43.37,34.0,23.0,200,12,,6.21,30.0,,,,,,,,,,,FEW,2500,,,,,,,VFR,,,,,,,,,,,,METAR,34.0
OTHH 211600Z 33018KT 6000 NSC 18/05 Q1013 NOSIG,OTHH,2015-02-21T16:00:00Z,25.25,51.6,18.0,5.0,330,18,,3.73,29.911417,,,,,,TRUE,,,,,,,,,,,,,,,,,,,,,,,,,METAR,0.0
OTBD 211600Z 32010KT 290V350 6000 NSC 18/06 Q1014 NOSIG,OTBD,2015-02-21T16:00:00Z,25.25,51.57,18.0,6.0,320,10,,3.73,29.940945,,,,,,TRUE,,,,,,,,,,,,,,,,,,,,,,,,,METAR,10.0
OBBI 211600Z 32013KT 4000 DU SKC 17/03 Q1013 NOSIG,OBBI,2015-02-21T16:00:00Z,26.27,50.63,17.0,3.0,320,13,,2.49,29.911417,,,,,,TRUE,,,,DU,SKC,,,,,,,,IFR,,,,,,,,,,,,METAR,2.0
SBUY 211600Z 00000KT 9999 BKN012 BKN090 29/24 Q1011,SBUY,2015-02-21T16:00:00Z,-4.88,-65.35,29.0,24.0,0,0,,6.21,29.852362,,,,,,,,,,,BKN,1200,BKN,9000,,,,,MVFR,,,,,,,,,,,,METAR,72.0
SBUA 211600Z 08004KT 9999 SCT020 35/23 Q1010,SBUA,2015-02-21T16:00:00Z,-0.15,-66.98,35.0,23.0,80,4,,6.21,29.822834,,,,,,,,,,,SCT,2000,,,,,,,VFR,,,,,,,,,,,,METAR,79.0
SBTK 211600Z 14004KT 9999 BKN015 OVC090 23/23 Q1014,SBTK,2015-02-21T16:00:00Z,-8.17,-70.77,23.0,23.0,140,4,,6.21,29.940945,,,,,,,,,,,BKN,1500,OVC,9000,,,,,MVFR,,,,,,,,,,,,METAR,188.0
SBOI 211600Z 03010KT 9999 BKN020 26/24 Q1013,SBOI,2015-02-21T16:00:00Z,3.85,-51.82,26.0,24.0,30,10,,6.21,29.911417,,,,,,,,,,,BKN,2000,,,,,,,MVFR,,,,,,,,,,,,METAR,39.0
SBMY 211600Z 13004KT 9999 SCT017 BKN080 28/24 Q1013,SBMY,2015-02-21T16:00:00Z,-5.82,-61.28,28.0,24.0,130,4,,6.21,29.911417,,,,,,,,,,,SCT,1700,BKN,8000,,,,,VFR,,,,,,,,,,,,METAR,49.0
SBMD 211600Z 21004KT 9999 BKN015 BKN090 ///// Q1013,SBMD,2015-02-21T16:00:00Z,-0.87,-52.6,,,210,4,,6.21,29.911417,,,,,,,,,,,BKN,1500,BKN,9000,,,,,MVFR,,,,,,,,,,,,METAR,206.0
SBIZ 211600Z 08005KT 9999 BKN020 BKN100 31/24 Q1012,SBIZ,2015-02-21T16:00:00Z,-5.52,-47.45,31.0,24.0,80,5,,6.21,29.88189,,,,,,,,,,,BKN,2000,BKN,10000,,,,,MVFR,,,,,,,,,,,,METAR,123.0
SBIH 211600Z 11010KT 9999 SCT022 31/24 Q1012,SBIH,2015-02-21T16:00:00Z,-4.25,-56.0,31.0,24.0,110,10,,6.21,29.88189,,,,,,,,,,,SCT,2200,,,,,,,VFR,,,,,,,,,,,,METAR,34.0
SBHT 211600Z 12003KT 9999 BKN020 29/24 Q1013,SBHT,2015-02-21T16:00:00Z,-3.25,-52.27,29.0,24.0,120,3,,6.21,29.911417,,,,,,,,,,,BKN,2000,,,,,,,MVFR,,,,,,,,,,,,METAR,74.0
SBGM 211600Z 22003KT 9999 BKN007 BKN067 24/22 Q1014,SBGM,2015-02-21T16:00:00Z,-10.78,-65.28,24.0,22.0,220,3,,6.21,29.940945,,,,,,,,,,,BKN,700,BKN,6700,,,,,IFR,,,,,,,,,,,,METAR,146.0
SBCC 211600Z 09010KT 9999 SCT020 FEW025TCU 28/21 Q1015,SBCC,2015-02-21T16:00:00Z,-9.32,-54.95,28.0,21.0,90,10,,6.21,29.970472,,,,,,,,,,,SCT,2000,FEW,2500,,,,,VFR,,,,,,,,,,,,METAR,536.0
SBAT 211600Z 12004KT 9999 SCT027 BKN090 32/22 Q1013,SBAT,2015-02-21T16:00:00Z,-9.87,-56.1,32.0,22.0,120,4,,6.21,29.911417,,,,,,,,,,,SCT,2700,BKN,9000,,,,,VFR,,,,,,,,,,,,METAR,288.0
LPBJ 211600Z 33017KT 9999 FEW030 16/05 Q1013,LPBJ,2015-02-21T16:00:00Z,38.08,-7.93,16.0,5.0,330,17,,6.21,29.911417,,,,,,,,,,,FEW,3000,,,,,,,VFR,,,,,,,,,,,,METAR,247.0
CWQS 211600Z AUTO 11008KT 06/03 RMK AO1 SLP293 T00550026 58001,CWQS,2015-02-21T16:00:00Z,53.32,-132.77,5.5,2.6,110,8,,,,1029.3,,TRUE,TRUE,,,,,,,,,,,,,,,,-0.1,,,,,,,,,,,METAR,14.0
CWRU 211600Z AUTO 12009KT 07/M00 RMK AO1 SLP273 T00711003 52015,CWRU,2015-02-21T16:00:00Z,50.12,-127.93,7.1,-0.3,120,9,,,,1027.3,,TRUE,TRUE,,,,,,,,,,,,,,,,1.5,,,,,,,,,,,METAR,98.0
CXAT 211600Z AUTO 00000KT M36/M40 RMK AO1 SOG 01 7023 SLP261 T13641403,CXAT,2015-02-21T16:00:00Z,73.0,-85.03,-36.4,-40.3,0,0,,,,1026.1,,TRUE,TRUE,,,,,,,,,,,,,,,,,,,,,,,,,,,METAR,19.0
CPIR 211600Z AUTO 04014KT M08/M09 RMK AO1 PK WND 04022/1522 T10751094,CPIR,2015-02-21T16:00:00Z,49.9,-112.73,-7.5,-9.4,40,14,,,,,,TRUE,TRUE,,,,,,,,,,,,,,,,,,,,,,,,,,,METAR,858.0
CPEH 211600Z AUTO 03017KT M09/M10 RMK AO1 PK WND 02023/1554 T10941095 50007,CPEH,2015-02-21T16:00:00Z,50.18,-112.43,-9.4,-9.5,30,17,,,,,,TRUE,TRUE,,,,,,,,,,,,,,,,0.7,,,,,,,,,,,METAR,801.0
CPBT 211600Z AUTO 01014KT M05/M06 RMK AO1 7PAST HR M PK WND 03018/1555 P0003 T10451061 50007,CPBT,2015-02-21T16:00:00Z,49.57,-113.05,-4.5,-6.1,10,14,,,,,,TRUE,TRUE,,,,,,,,,,,,,,,,0.7,,,,,0.03,,,,,,METAR,980.0
NSFA 211600Z 17005KT 9999 FEW022 BKN270 26/25 Q1008,NSFA,2015-02-21T16:00:00Z,-13.83,-172.0,26.0,25.0,170,5,,6.21,29.763779,,,,,,,,,,,FEW,2200,BKN,27000,,,,,VFR,,,,,,,,,,,,METAR,5.0
KQTM 211559Z AUTO 30009KT 9999 CLR 25/M02 A2956 RMK CDP03569 CLR,KQTM,2015-02-21T15:59:00Z,,,25.0,-2.0,300,9,,6.21,29.56004,,,TRUE,,,,,,,,CLR,,,,,,,,VFR,,,,,,,,,,,,METAR,
KBIF 211558Z AUTO 30005KT 10SM CLR 18/M01 A3001 RMK AO2 SLP114 T01761013 $,KBIF,2015-02-21T15:58:00Z,31.85,-106.38,17.6,-1.3,300,5,,10.0,30.008858,1011.4,,TRUE,TRUE,TRUE,,,,,,CLR,,,,,,,,VFR,,,,,,,,,,,,METAR,1203.0
KU16 211558Z AUTO 00000KT 10SM SCT110 03/M05 A2997 RMK AO2 SLP777 T00281050 TSNO $,KU16,2015-02-21T15:58:00Z,41.05,-113.07,2.8,-5.0,0,0,,10.0,29.970472,977.7,,TRUE,TRUE,TRUE,,TRUE,,,,SCT,11000,,,,,,,VFR,,,,,,,,,,,,SPECI,1292.0
PAPG 211556Z 00000KT 1/4SM FZFG OVC022 M01/M02 A3048,PAPG,2015-02-21T15:56:00Z,56.82,-132.97,-1.0,-2.0,0,0,,0.25,30.481298,,,,,,,,,,FZFG,OVC,2200,,,,,,,LIFR,,,,,,,,,,,,METAR,15.0
LIED 211555Z 28004KT 7000 SCT006 SCT018 BKN040 12/10 Q1001 RMK OVC VIS MIN 7000 WIND THR35 28007KT WIND THR17 28006KT WHT,LIED,2015-02-21T15:55:00Z,39.35,8.97,12.0,10.0,280,4,,4.35,29.557087,,,,,,,,,,,SCT,600,SCT,1800,BKN,4000,,,MVFR,,,,,,,,,,,,METAR,28.0
LIBY 211555Z 21013KT 9999 SCT013 SCT015 11/07 Q1013 RMK BKN BKN080 QUK 3 QUL 1 SW VIS MAR 20 KM VIS MAX 20 KM VIS MIN 9999,LIBY,2015-02-21T15:55:00Z,39.82,18.35,11.0,7.0,210,13,,6.21,29.911417,,,,,,,,,,,SCT,1300,SCT,1500,,,,,VFR,,,,,,,,,,,,METAR,112.0
LIRS 211555Z 12014G24KT 9999 -RA FEW020 BKN060 08/06 Q1005 RMK OVC VIS MIN 9999 WIND THR03 02006KT WIND THR21 /////KT BLU,LIRS,2015-02-21T15:55:00Z,42.75,11.07,8.0,6.0,120,14,24,6.21,29.675198,,,,,,,,,,-RA,FEW,2000,BKN,6000,,,,,VFR,,,,,,,,,,,,SPECI,7.0
LICF 211555Z 24010G20KT 9999 SCT010 SCT030 12/11 Q1009 RMK BKN BKN080 QUK 3 QUL 1 SW VIS MAR 12 KM MON E CIME INC NC MON W INC NC VIS MIN 9999,LICF,2015-02-21T15:55:00Z,38.2,15.55,12.0,11.0,240,10,20,6.21,29.793306,,,,,,,,,,,SCT,1000,SCT,3000,,,,,VFR,,,,,,,,,,,,METAR,51.0
LIEB 211555Z 32005KT 8000 -RA FEW010 SCT020 11/11 Q1001 RMK OVC BKN070 QUK 3 QUL 1 N VIS MAR 8 KM MON W INC NC VIS MIN 6000,LIEB,2015-02-21T15:55:00Z,39.93,9.72,11.0,11.0,320,5,,4.97,29.557087,,,,,,,,,,-RA,FEW,1000,SCT,2000,,,,,MVFR,,,,,,,,,,,,METAR,156.0
LIMU 211555Z 02009KT 5000 -RA BR FEW020 SCT023 09/05 Q1002 RMK OVC QUK 2 QUL 1 SE VIS MAR 5 KM VIS MIN 5000,LIMU,2015-02-21T15:55:00Z,43.95,8.17,9.0,5.0,20,9,,3.11,29.586615,,,,,,,,,,-RA BR,FEW,2000,SCT,2300,,,,,MVFR,,,,,,,,,,,,METAR,221.0
LIMH 211555Z /////KT 0100 -SN FZFG VV/// M13/M13 Q0993 RMK MON INVIS VAL INVIS VIS MIN 0100,LIMH,2015-02-21T15:55:00Z,45.93,7.7,-13.0,-13.0,,,,0.06,29.320866,,,,,,,,,,FZFG -SN,OVX,0,,,,,,,LIFR,,,,,,,,,,,,METAR,3488.0
LIMV 211555Z /////KT 8000 -RA BKN007TCU 06/04 Q1002 RMK BKN MON N INC S CIME INC CUF ELEV SLW VAL FOSCHIA VIS MIN 6000N,LIMV,2015-02-21T15:55:00Z,44.55,8.92,6.0,4.0,,,,4.97,29.586615,,,,,,,,,,-RA,BKN,700,,,,,,,IFR,,,,,,,,,,,,METAR,475.0
LIRE 211555Z 11013KT 8000 -RA SCT018 SCT040 11/07 Q1006 RMK OVC VIS MIN 8000 WIND THR31 /////KT BLU,LIRE,2015-02-21T15:55:00Z,41.63,12.42,11.0,7.0,110,13,,4.97,29.704725,,,,,,,,,,-RA,SCT,1800,SCT,4000,,,,,MVFR,,,,,,,,,,,,METAR,12.0
LIQC 211555Z ///04KT 5000 -RA SCT015 BKN025 09/09 Q1009 RMK OVC QUK 3 QUL 1 SE VIS MAR 5 KM VIS MIN 5000,LIQC,2015-02-21T15:55:00Z,40.55,14.2,9.0,9.0,,,,3.11,29.793306,,,,,,,,,,-RA,SCT,1500,BKN,2500,,,,,MVFR,,,,,,,,,,,,METAR,269.0
LIVD 211555Z 09012KT 9999 OVC020 01/M02 Q1004 RMK OVC VIS MIN 9999,LIVD,2015-02-21T15:55:00Z,46.72,12.22,1.0,-2.0,90,12,,6.21,29.64567,,,,,,,,,,,OVC,2000,,,,,,,MVFR,,,,,,,,,,,,METAR,1226.0
LIBQ 211555Z 20015KT 9999 OVC020 03/02 Q1008 RMK OVC MON LIB VAL NIL VIS MIN 9999,LIBQ,2015-02-21T15:55:00Z,39.32,16.38,3.0,2.0,200,15,,6.21,29.763779,,,,,,,,,,,OVC,2000,,,,,,,MVFR,,,,,,,,,,,,METAR,1720.0
KFFZ 211555Z 03005KT 40SM SCT200 12/02 A2993 RMK WIND ESTIMATED,KFFZ,2015-02-21T15:55:00Z,33.47,-111.72,12.0,2.0,30,5,,40.0,29.929134,,,,,,,,,,,SCT,20000,,,,,,,VFR,,,,,,,,,,,,METAR,424.0
KQTI 211555Z 21004KT 9999 SCT040 BKN050 09/03 A291 RMK SLP129 WND DATA ESTMD ALSTG/SLP ESTMD,KQTI,2015-02-21T15:55:00Z,100.65,-1000.65,9.0,3.0,210,4,,6.21,,1012.9,,,,,,,,,,SCT,4000,BKN,5000,,,,,VFR,,,,,,,,,,,,METAR,999.0
