No errors
No warnings
219 ms
data source=metars
4604 results
raw_text,station_id,observation_time,latitude,longitude,temp_c,dewpoint_c,wind_dir_degrees,wind_speed_kt,wind_gust_kt,visibility_statute_mi,altim_in_hg,sea_level_pressure_mb,corrected,auto,auto_station,maintenance_indicator_on,no_signal,lightning_sensor_off,freezing_rain_sensor_off,present_weather_sensor_off,wx_string,sky_cover,cloud_base_ft_agl,sky_cover,cloud_base_ft_agl,sky_cover,cloud_base_ft_agl,sky_cover,cloud_base_ft_agl,flight_category,three_hr_pressure_tendency_mb,maxT_c,minT_c,maxT24hr_c,minT24hr_c,precip_in,pcp3hr_in,pcp6hr_in,pcp24hr_in,snow_in,vert_vis_ft,metar_type,elevation_m
KGWR 130655Z AUTO 23011KT 10SM OVC018 M07/M10 A3010 RMK A01 P000,KGWR,2015-02-13T06:55:00Z,46.22,-97.65,-7.0,-10.0,230,11,,10.0,30.100393,,,TRUE,TRUE,,,,,,,OVC,1800,,,,,,,MVFR,,,,,,,,,,,,SPECI,386.0
KFDW 130655Z AUTO 00000KT 10SM CLR M03/M10 A3019 RMK AO1,KFDW,2015-02-13T06:55:00Z,34.32,-81.12,-3.0,-10.0,0,0,,10.0,30.188976,,,TRUE,TRUE,,,,,,,CLR,,,,,,,,VFR,,,,,,,,,,,,SPECI,176.0
K1R7 130655Z AUTO 35007KT CLR 00/M05 A3035 RMK AO2,K1R7,2015-02-13T06:55:00Z,31.6,-90.42,0.0,-5.0,350,7,,,30.351377,,,TRUE,TRUE,,,,,,,CLR,,,,,,,,,,,,,,,,,,,,SPECI,149.0
KSPA 130655Z AUTO 34003KT 10SM CLR M02/M11 A3020 RMK AO2,KSPA,2015-02-13T06:55:00Z,34.92,-81.93,-2.0,-11.0,340,3,,10.0,30.200787,,,TRUE,TRUE,,,,,,,CLR,,,,,,,,VFR,,,,,,,,,,,,SPECI,303.0
KORS 130655Z AUTO 10SM OVC036 11/09 A3026 RMK AO2,KORS,2015-02-13T06:55:00Z,48.7,-122.92,11.0,9.0,,,,10.0,30.259842,,,TRUE,TRUE,,,,,,,OVC,3600,,,,,,,VFR,,,,,,,,,,,,SPECI,9.0
KJZI 130655Z AUTO 01013G23KT 10SM CLR 02/M11 A3015 RMK A02 P000,KJZI,2015-02-13T06:55:00Z,32.7,-80.0,2.0,-11.0,10,13,23,10.0,30.15059,,,TRUE,TRUE,,,,,,,CLR,,,,,,,,VFR,,,,,,,,,,,,SPECI,6.0
KVDF 130655Z AUTO 00000KT 3SM BR CLR 09/08 A3010 RMK AO2,KVDF,2015-02-13T06:55:00Z,28.02,-82.33,9.0,8.0,0,0,,3.0,30.100393,,,TRUE,TRUE,,,,,,BR,CLR,,,,,,,,MVFR,,,,,,,,,,,,SPECI,7.0
KUYF 130655Z AUTO 29003KT 10SM CLR M15/M18 A3033 RMK AO2,KUYF,2015-02-13T06:55:00Z,39.93,-83.47,-15.0,-18.0,290,3,,10.0,30.33071,,,TRUE,TRUE,,,,,,,CLR,,,,,,,,VFR,,,,,,,,,,,,SPECI,330.0
KLDJ 130655Z AUTO 32017G23KT 10SM CLR M09/M20 A3003 RMK AO2 T10921198,KLDJ,2015-02-13T06:55:00Z,40.62,-74.25,-9.2,-19.8,320,17,23,10.0,30.029528,,,TRUE,TRUE,,,,,,,CLR,,,,,,,,VFR,,,,,,,,,,,,SPECI,7.0
KCKI 130655Z AUTO 31005KT 10SM CLR 01/M05 A3020 RMK AO2,KCKI,2015-02-13T06:55:00Z,33.72,-79.85,1.0,-5.0,310,5,,10.0,30.200787,,,TRUE,TRUE,,,,,,,CLR,,,,,,,,VFR,,,,,,,,,,,,SPECI,21.0
KLUX 130655Z AUTO 35003KT 10SM CLR M03/M09 A3020 RMK AO2,KLUX,2015-02-13T06:55:00Z,34.5,-81.95,-3.0,-9.0,350,3,,10.0,30.200787,,,TRUE,TRUE,,,,,,,CLR,,,,,,,,VFR,,,,,,,,,,,,METAR,213.0
KLQK 130655Z AUTO 10SM CLR M03/M12 A3018 RMK AO2 T10341120,KLQK,2015-02-13T06:55:00Z,34.82,-82.7,-3.4,-12.0,,,,10.0,30.180119,,,TRUE,TRUE,,,,,,,CLR,,,,,,,,VFR,,,,,,,,,,,,METAR,309.0
KJFX 130655Z AUTO 02005KT 10SM CLR M02/M10 A3036 RMK A02 P-128,KJFX,2015-02-13T06:55:00Z,33.9,-87.32,-2.0,-10.0,20,5,,10.0,30.360237,,,TRUE,TRUE,,,,,,,CLR,,,,,,,,VFR,,,,,,,,,,,,METAR,148.0
KGPH 130655Z AUTO 15006KT 10SM BKN100 M05/M12 A3036 RMK AO2,KGPH,2015-02-13T06:55:00Z,39.33,-94.32,-5.0,-12.0,150,6,,10.0,30.360237,,,TRUE,TRUE,,,,,,,BKN,10000,,,,,,,VFR,,,,,,,,,,,,METAR,235.0
KGGE 130655Z AUTO 33009KT 10SM CLR 00/M09 A3017 RMK AO2,KGGE,2015-02-13T06:55:00Z,33.32,-79.32,0.0,-9.0,330,9,,10.0,30.171259,,,TRUE,TRUE,,,,,,,CLR,,,,,,,,VFR,,,,,,,,,,,,METAR,12.0
KCLS 130655Z AUTO 00000KT 10SM CLR 10/10 A3025 RMK AO2,KCLS,2015-02-13T06:55:00Z,46.68,-122.98,10.0,10.0,0,0,,10.0,30.250984,,,TRUE,TRUE,,,,,,,CLR,,,,,,,,VFR,,,,,,,,,,,,METAR,54.0
KAIK 130655Z AUTO 36007KT 10SM CLR M02/M10 A3023 RMK AO2 PNO,KAIK,2015-02-13T06:55:00Z,33.65,-81.68,-2.0,-10.0,360,7,,10.0,30.230314,,,TRUE,TRUE,,,,,,,CLR,,,,,,,,VFR,,,,,,,,,,,,METAR,161.0
K4I7 130655Z AUTO 00000KT 10SM CLR M11/M16 A3041 RMK AO2,K4I7,2015-02-13T06:55:00Z,39.63,-86.82,-11.0,-16.0,0,0,,10.0,30.410433,,,TRUE,TRUE,,,,,,,CLR,,,,,,,,VFR,,,,,,,,,,,,METAR,257.0
KLRO 130655Z AUTO 35010G16KT 10SM -RA CLR 02/M11 A3016 RMK AO2,KLRO,2015-02-13T06:55:00Z,32.9,-79.78,2.0,-11.0,350,10,16,10.0,30.159449,,,TRUE,TRUE,,,,,,-RA,CLR,,,,,,,,VFR,,,,,,,,,,,,METAR,4.0
KBDN 130655Z AUTO 22005KT 10SM CLR 03/00 A3032 RMK AO2,KBDN,2015-02-13T06:55:00Z,44.1,-121.2,3.0,0.0,220,5,,10.0,30.318897,,,TRUE,TRUE,,,,,,,CLR,,,,,,,,VFR,,,,,,,,,,,,METAR,1055.0
KSIK 130655Z AUTO 00000KT 10SM SCT120 M05/M12 A3046 RMK AO2 PWINO,KSIK,2015-02-13T06:55:00Z,36.9,-89.57,-5.0,-12.0,0,0,,10.0,30.46063,,,TRUE,TRUE,,,,,TRUE,,SCT,12000,,,,,,,VFR,,,,,,,,,,,,METAR,96.0
KM40 130655Z AUTO 02006KT 10SM CLR M01/M02 A3041 RMK AO2,KM40,2015-02-13T06:55:00Z,33.87,-88.48,-1.0,-2.0,20,6,,10.0,30.410433,,,TRUE,TRUE,,,,,,,CLR,,,,,,,,VFR,,,,,,,,,,,,METAR,69.0
KIMM 130655Z AUTO 00000KT 5SM CLR 11/ A3010 RMK A01 P000,KIMM,2015-02-13T06:55:00Z,26.43,-81.4,11.0,,0,0,,5.0,30.100393,,,TRUE,TRUE,,,,,,,CLR,,,,,,,,MVFR,,,,,,,,,,,,METAR,12.0
KGLY 130655Z AUTO 11003KT 10SM CLR M03/M12 A3038 RMK AO2,KGLY,2015-02-13T06:55:00Z,38.35,-93.68,-3.0,-12.0,110,3,,10.0,30.380905,,,TRUE,TRUE,,,,,,,CLR,,,,,,,,VFR,,,,,,,,,,,,METAR,251.0
K24J 130655Z AUTO 35007KT 5SM CLR 06/M05 A3019 RMK AO1,K24J,2015-02-13T06:55:00Z,30.3,-83.03,6.0,-5.0,350,7,,5.0,30.188976,,,TRUE,TRUE,,,,,,,CLR,,,,,,,,MVFR,,,,,,,,,,,,METAR,32.0
KDCM 130655Z AUTO 36003KT 10SM CLR M01/M12 A3021 RMK AO2,KDCM,2015-02-13T06:55:00Z,34.78,-81.2,-1.0,-12.0,360,3,,10.0,30.209646,,,TRUE,TRUE,,,,,,,CLR,,,,,,,,VFR,,,,,,,,,,,,METAR,200.0
K1S5 130655Z AUTO 00000KT 2 1/2SM BR CLR 02/02 A3031 RMK AO2 T00220021,K1S5,2015-02-13T06:55:00Z,46.33,-119.97,2.2,2.1,0,0,,2.5,30.31004,,,TRUE,TRUE,,,,,,BR,CLR,,,,,,,,IFR,,,,,,,,,,,,METAR,234.0
KARW 130655Z AUTO 36008KT 10SM CLR 02/M07 A3017 RMK AO2,KARW,2015-02-13T06:55:00Z,32.42,-80.63,2.0,-7.0,360,8,,10.0,30.171259,,,TRUE,TRUE,,,,,,,CLR,,,,,,,,VFR,,,,,,,,,,,,SPECI,4.0
KMKS 130655Z AUTO 36012G18KT 10SM CLR 02/M11 A3018 RMK AO2,KMKS,2015-02-13T06:55:00Z,33.18,-80.03,2.0,-11.0,360,12,18,10.0,30.180119,,,TRUE,TRUE,,,,,,,CLR,,,,,,,,VFR,,,,,,,,,,,,SPECI,23.0
K2V5 130655Z AUTO 23006KT 10SM CLR M01/M03 A3018 RMK AO2 T10061033,K2V5,2015-02-13T06:55:00Z,40.1,-102.25,-0.6,-3.3,230,6,,10.0,30.180119,,,TRUE,TRUE,,,,,,,CLR,,,,,,,,VFR,,,,,,,,,,,,SPECI,1118.0
EHKD 130655Z AUTO 14006KT 2800 R21/2800 BR NCD 02/01 Q1014 YLO 15008KT 3500 BR NSC TEMPO 2500 SCT004,EHKD,2015-02-13T06:55:00Z,52.92,4.77,2.0,1.0,140,6,,1.74,29.940945,,,TRUE,,,,,,,BR BR,,,,,,,,,,,,,,,,,,,,,METAR,14.0
GMMN 130655Z 18004KT 2300 R35R/0650VP2000D BR SCT010 04/03 Q1024 NOSIG,GMMN,2015-02-13T06:55:00Z,33.37,-7.57,4.0,3.0,180,4,,1.43,30.236221,,,,,,TRUE,,,,BR,SCT,1000,,,,,,,IFR,,,,,,,,,,,,SPECI,206.0
KMAO 130655Z AUTO 33007KT 10SM CLR 00/M11 A3020 RMK AO2,KMAO,2015-02-13T06:55:00Z,34.18,-79.33,0.0,-11.0,330,7,,10.0,30.200787,,,TRUE,TRUE,,,,,,,CLR,,,,,,,,VFR,,,,,,,,,,,,SPECI,28.0
OAHR 130654Z 08001KT 3000 BR FEW005 SCT150 17/08 Q1018 RMK SCT VIS MIN 3000 YLO,OAHR,2015-02-13T06:54:00Z,34.22,62.22,17.0,8.0,80,1,,1.86,30.059055,,,,,,,,,,BR,FEW,500,SCT,15000,,,,,IFR,,,,,,,,,,,,METAR,964.0
CYAT 130654Z AUTO 00000KT 6SM HZ FEW140 M36/M40 A3028 RMK SLP256,CYAT,2015-02-13T06:54:00Z,52.93,-82.43,-36.0,-40.0,0,0,,6.0,30.280512,1025.6,,TRUE,,,,,,,HZ,FEW,14000,,,,,,,VFR,,,,,,,,,,,,SPECI,9.0
PGUM 130654Z 04013KT 10SM SCT038 27/18 A2986 RMK AO2 SLP103 T02720178 ,PGUM,2015-02-13T06:54:00Z,13.48,144.8,27.2,17.8,40,13,,10.0,29.861221,1010.3,,,TRUE,,,,,,,SCT,3800,,,,,,,VFR,,,,,,,,,,,,METAR,91.0
CYGW 130654Z AUTO 13004KT 2 1/4SM HZ CLR M40/M45 A3026 RMK VIS VRB 1 1/4-3 SLP250,CYGW,2015-02-13T06:54:00Z,55.27,-77.77,-40.0,-45.0,130,4,,2.25,30.259842,1025.0,,TRUE,,,,,,,HZ,CLR,,,,,,,,IFR,,,,,,,,,,,,SPECI,12.0
CYHU 130654Z AUTO 31010KT 4SM -SN OVC038 M18/M22 A2999 RMK SLP159,CYHU,2015-02-13T06:54:00Z,45.52,-73.42,-18.0,-22.0,310,10,,4.0,29.991142,1015.9,,TRUE,,,,,,,-SN,OVC,3800,,,,,,,MVFR,,,,,,,,,,,,SPECI,27.0
CYQZ 130653Z AUTO 15003KT 100V170 3/4SM BR BKN002 BKN220 BKN240 02/02 A3014 RMK SLP230,CYQZ,2015-02-13T06:53:00Z,53.02,-122.52,2.0,2.0,150,3,,0.75,30.138779,1023.0,,TRUE,,,,,,,BR,BKN,200,BKN,22000,BKN,24000,,,LIFR,,,,,,,,,,,,SPECI,545.0
CWSA 130653Z AUTO 17005KT 9SM SCT017 OVC026 00/M02 A2957 RMK SLP014,CWSA,2015-02-13T06:53:00Z,43.93,-60.0,0.0,-2.0,170,5,,9.0,29.568897,1001.4,,TRUE,,,,,,,,SCT,1700,OVC,2600,,,,,MVFR,,,,,,,,,,,,SPECI,4.0
YBHM 130653Z AUTO 12028G39KT 9999 // SCT023 BKN086 27/23 Q1011,YBHM,2015-02-13T06:53:00Z,-20.35,148.95,27.0,23.0,120,28,39,6.21,29.852362,,,TRUE,,,,,,,,SCT,2300,BKN,8600,,,,,VFR,,,,,,,,,,,,SPECI,5.0
KRCA 130653Z AUTO 32005KT 1 1/4SM HZ CLR 02/M03 A3012 RMK AO2 VIS 1 1/4V10 $,KRCA,2015-02-13T06:53:00Z,44.13,-103.08,2.0,-3.0,320,5,,1.25,30.121063,,,TRUE,TRUE,TRUE,,,,,HZ,CLR,,,,,,,,IFR,,,,,,,,,,,,SPECI,999.0
KMLT 130653Z AUTO 32004KT 8SM CLR M20/M23 A2969 RMK AO2 SLP071 T12001228,KMLT,2015-02-13T06:53:00Z,45.65,-68.7,-20.0,-22.8,320,4,,8.0,29.68996,1007.1,,TRUE,TRUE,,,,,,,CLR,,,,,,,,VFR,,,,,,,,,,,,METAR,123.0
KADC 130653Z AUTO 21006KT 10SM BKN025 OVC042 M12/M14 A3008 RMK AO2,KADC,2015-02-13T06:53:00Z,46.45,-95.22,-12.0,-14.0,210,6,,10.0,30.079725,,,TRUE,TRUE,,,,,,,BKN,2500,OVC,4200,,,,,MVFR,,,,,,,,,,,,METAR,418.0
KCGI 130653Z AUTO 03005KT 10SM FEW120 M06/M13 A3045 RMK AO2 SLP315 T10611133 TSNO,KCGI,2015-02-13T06:53:00Z,37.23,-89.58,-6.1,-13.3,30,5,,10.0,30.448818,1031.5,,TRUE,TRUE,,,TRUE,,,,FEW,12000,,,,,,,VFR,,,,,,,,,,,,METAR,102.0
KBRO 130653Z 33007KT 6SM BR CLR 13/12 A3029 RMK AO2 SLP257 T01330117,KBRO,2015-02-13T06:53:00Z,25.92,-97.42,13.3,11.7,330,7,,6.0,30.28937,1025.7,,,TRUE,,,,,,BR,CLR,,,,,,,,VFR,,,,,,,,,,,,METAR,7.0
KGAG 130653Z AUTO 22008KT 10SM CLR 03/M06 A3022 RMK AO2 SLP239 T00331061,KGAG,2015-02-13T06:53:00Z,36.3,-99.77,3.3,-6.1,220,8,,10.0,30.221457,1023.9,,TRUE,TRUE,,,,,,,CLR,,,,,,,,VFR,,,,,,,,,,,,METAR,668.0
KJLN 130653Z AUTO 08004KT 10SM OVC110 M03/M13 A3034 RMK AO2 SLP283 T10281128,KJLN,2015-02-13T06:53:00Z,37.15,-94.5,-2.8,-12.8,80,4,,10.0,30.339567,1028.3,,TRUE,TRUE,,,,,,,OVC,11000,,,,,,,VFR,,,,,,,,,,,,METAR,299.0
KLXT 130653Z AUTO 15005KT 10SM SCT085 M06/M13 A3034 RMK AO2 SLP289 T10561133,KLXT,2015-02-13T06:53:00Z,38.97,-94.37,-5.6,-13.3,150,5,,10.0,30.339567,1028.9,,TRUE,TRUE,,,,,,,SCT,8500,,,,,,,VFR,,,,,,,,,,,,METAR,306.0
KMHE 130653Z AUTO 16007KT 10SM CLR M07/M12 A3012 RMK AO2 SLP225 T10721122 $,KMHE,2015-02-13T06:53:00Z,43.77,-98.02,-7.2,-12.2,160,7,,10.0,30.121063,1022.5,,TRUE,TRUE,TRUE,,,,,,CLR,,,,,,,,VFR,,,,,,,,,,,,METAR,397.0
KTUP 130653Z AUTO 04010KT 10SM CLR M03/M12 A3039 RMK AO2 SLP294 T10281122 ,KTUP,2015-02-13T06:53:00Z,34.27,-88.77,-2.8,-12.2,40,10,,10.0,30.389763,1029.4,,TRUE,TRUE,,,,,,,CLR,,,,,,,,VFR,,,,,,,,,,,,METAR,105.0
KLAX 130653Z VRB03KT 10SM CLR 21/01 A3005 RMK AO2 SLP173 T02060011 $ ,KLAX,2015-02-13T06:53:00Z,33.93,-118.38,20.6,1.1,0,3,,10.0,30.050198,1017.3,,,TRUE,TRUE,,,,,,CLR,,,,,,,,VFR,,,,,,,,,,,,METAR,46.0
KLOR 130653Z AUTO 36007KT 10SM CLR 00/M09 A3024 RMK AO2 SLP241 T00001089 ,KLOR,2015-02-13T06:53:00Z,31.35,-85.75,0.0,-8.9,360,7,,10.0,30.239174,1024.1,,TRUE,TRUE,,,,,,,CLR,,,,,,,,VFR,,,,,,,,,,,,METAR,74.0
KHEY 130653Z AUTO 36005KT 10SM CLR M01/M09 A3025 RMK AO2 SLP233 T10061094 ,KHEY,2015-02-13T06:53:00Z,31.35,-85.65,-0.6,-9.4,360,5,,10.0,30.250984,1023.3,,TRUE,TRUE,,,,,,,CLR,,,,,,,,VFR,,,,,,,,,,,,METAR,97.0
KP92 130653Z AUTO VRB04KT 07/M03 A3031 RMK AO1 SLP262 T00721028 ,KP92,2015-02-13T06:53:00Z,29.57,-91.53,7.2,-2.8,0,4,,,30.31004,1026.2,,TRUE,TRUE,,,,,,,,,,,,,,,,,,,,,,,,,,,METAR,1.0
KOQT 130653Z AUTO VRB05KT 10SM CLR M05/M13 A3031 RMK AO2 SLP284 T10501133 ,KOQT,2015-02-13T06:53:00Z,36.02,-84.23,-5.0,-13.3,0,5,,10.0,30.31004,1028.4,,TRUE,TRUE,,,,,,,CLR,,,,,,,,VFR,,,,,,,,,,,,METAR,277.0
KCQC 130653Z AUTO 30013KT 10SM CLR 01/M04 A3028 RMK AO2 SLP235 T00061039 401061056 ,KCQC,2015-02-13T06:53:00Z,35.0,-105.67,0.6,-3.9,300,13,,10.0,30.280512,1023.5,,TRUE,TRUE,,,,,,,CLR,,,,,,,,VFR,,,,10.6,-5.6,,,,,,,METAR,2160.0
KNIP 130653Z 36019KT 10SM CLR 09/M05 A3015 RMK AO2 PK WND 35028/0637 SLP203 T00891050 $ ,KNIP,2015-02-13T06:53:00Z,30.22,-81.67,8.9,-5.0,360,19,,10.0,30.15059,1020.3,,,TRUE,TRUE,,,,,,CLR,,,,,,,,VFR,,,,,,,,,,,,METAR,7.0
KMWT 130653Z AUTO 13006KT 10SM CLR 01/M11 A3035 RMK AO2 SLP284 T00111106 ,KMWT,2015-02-13T06:53:00Z,34.55,-93.58,1.1,-10.6,130,6,,10.0,30.351377,1028.4,,TRUE,TRUE,,,,,,,CLR,,,,,,,,VFR,,,,,,,,,,,,METAR,214.0
KSPW 130653Z AUTO 18010KT 10SM SCT038 OVC050 M08/M12 A3020 RMK AO2 SLP254 T10831117 TSNO,KSPW,2015-02-13T06:53:00Z,43.17,-95.22,-8.3,-11.7,180,10,,10.0,30.200787,1025.4,,TRUE,TRUE,,,TRUE,,,,SCT,3800,OVC,5000,,,,,VFR,,,,,,,,,,,,METAR,403.0
KPUC 130653Z AUTO VRB03KT 10SM CLR 01/M08 A3034 RMK AO2 SLP283 T00061083 401441017,KPUC,2015-02-13T06:53:00Z,39.62,-110.75,0.6,-8.3,0,3,,10.0,30.339567,1028.3,,TRUE,TRUE,,,,,,,CLR,,,,,,,,VFR,,,,14.4,-1.7,,,,,,,METAR,2091.0
KMIC 130653Z 18007KT 10SM OVC080 M12/M16 A3022 RMK AO2 SLP253 T11221161,KMIC,2015-02-13T06:53:00Z,45.07,-93.35,-12.2,-16.1,180,7,,10.0,30.221457,1025.3,,,TRUE,,,,,,,OVC,8000,,,,,,,VFR,,,,,,,,,,,,METAR,265.0
KNUI 130653Z AUTO 31014G24KT 10SM CLR M07/M18 A3015 RMK AO2 PK WND 30027/0639 SLP209 T10721183 $ ,KNUI,2015-02-13T06:53:00Z,38.15,-76.43,-7.2,-18.3,310,14,24,10.0,30.15059,1020.9,,TRUE,TRUE,TRUE,,,,,,CLR,,,,,,,,VFR,,,,,,,,,,,,METAR,7.0
KCDJ 130652Z AUTO 17004KT M07/M11 A3038 RMK AO1 SLP312 T10721106 ,KCDJ,2015-02-13T06:52:00Z,39.82,-93.58,-7.2,-10.6,170,4,,,30.380905,1031.2,,TRUE,TRUE,,,,,,,,,,,,,,,,,,,,,,,,,,,METAR,234.0
KP69 130652Z AUTO 00000KT 04/03 A3041 RMK AO1 SLP304 T00440033 ,KP69,2015-02-13T06:52:00Z,46.15,-115.6,4.4,3.3,0,0,,,30.410433,1030.4,,TRUE,TRUE,,,,,,,,,,,,,,,,,,,,,,,,,,,METAR,480.0
KREO 130652Z AUTO 15004KT M01/M04 A3033 RMK AO1 SLP286 T10061039 ,KREO,2015-02-13T06:52:00Z,42.58,-117.87,-0.6,-3.9,150,4,,,30.33071,1028.6,,TRUE,TRUE,,,,,,,,,,,,,,,,,,,,,,,,,,,METAR,1235.0
KNHK 130652Z AUTO 31020G31KT 10SM CLR M07/M17 A3015 RMK AO2 PK WND 32037/0600 SLP209 T10721172,KNHK,2015-02-13T06:52:00Z,38.27,-76.4,-7.2,-17.2,310,20,31,10.0,30.15059,1020.9,,TRUE,TRUE,,,,,,,CLR,,,,,,,,VFR,,,,,,,,,,,,METAR,12.0
CWCL 130652Z AUTO 21005KT 4SM 02/M00 A3019,CWCL,2015-02-13T06:52:00Z,51.13,-121.5,2.0,0.0,210,5,,4.0,30.188976,,,TRUE,,,,,,,,,,,,,,,,,,,,,,,,,,,,SPECI,1057.0
KN60 130652Z AUTO 00000KT M10/M12 A3004 RMK AO1 SLP215 T11001117,KN60,2015-02-13T06:52:00Z,47.65,-101.43,-10.0,-11.7,0,0,,,30.041338,1021.5,,TRUE,TRUE,,,,,,,,,,,,,,,,,,,,,,,,,,,SPECI,582.0
KBLU 130652Z AUTO 00000KT 10SM CLR 14/00 A3030 RMK AO2 SLP196 T01390000,KBLU,2015-02-13T06:52:00Z,39.28,-120.7,13.9,0.0,0,0,,10.0,30.301182,1019.6,,TRUE,TRUE,,,,,,,CLR,,,,,,,,VFR,,,,,,,,,,,,METAR,1609.0
KBAN 130652Z AUTO 00000KT 10SM CLR 01/M03 A3039 RMK AO2 SLP265 T00111033,KBAN,2015-02-13T06:52:00Z,38.35,-119.52,1.1,-3.3,0,0,,10.0,30.389763,1026.5,,TRUE,TRUE,,,,,,,CLR,,,,,,,,VFR,,,,,,,,,,,,SPECI,2057.0
KNRB 130652Z AUTO 34010G20KT 10SM CLR 07/M06 A3015 RMK AO2 SLP207 T00671056 $,KNRB,2015-02-13T06:52:00Z,30.38,-81.42,6.7,-5.6,340,10,20,10.0,30.15059,1020.7,,TRUE,TRUE,TRUE,,,,,,CLR,,,,,,,,VFR,,,,,,,,,,,,METAR,5.0
KNFW 130652Z AUTO 30003KT 10SM CLR 05/M03 A3041 RMK AO2 SLP277 T00501028 $,KNFW,2015-02-13T06:52:00Z,32.78,-97.43,5.0,-2.8,300,3,,10.0,30.410433,1027.7,,TRUE,TRUE,TRUE,,,,,,CLR,,,,,,,,VFR,,,,,,,,,,,,METAR,198.0
KCFV 130652Z AUTO 09005KT 10SM CLR M03/M11 A3032 RMK AO2 SLP277 T10331106,KCFV,2015-02-13T06:52:00Z,37.08,-95.57,-3.3,-10.6,90,5,,10.0,30.318897,1027.7,,TRUE,TRUE,,,,,,,CLR,,,,,,,,VFR,,,,,,,,,,,,SPECI,225.0
KPYM 130652Z AUTO 31011G23KT 10SM OVC050 M07/M13 A2972 RMK AO2 SLP064 T10671133,KPYM,2015-02-13T06:52:00Z,41.92,-70.73,-6.7,-13.3,310,11,23,10.0,29.719488,1006.4,,TRUE,TRUE,,,,,,,OVC,5000,,,,,,,VFR,,,,,,,,,,,,SPECI,43.0
KORE 130652Z AUTO 30011KT 10SM BKN032 OVC041 M11/M18 A2979 RMK AO2 SLP096 T11111178,KORE,2015-02-13T06:52:00Z,42.57,-72.28,-11.1,-17.8,300,11,,10.0,29.790354,1009.6,,TRUE,TRUE,,,,,,,BKN,3200,OVC,4100,,,,,VFR,,,,,,,,,,,,SPECI,164.0
KMLF 130652Z AUTO 32004KT 10SM CLR 00/M07 A3035 RMK AO2 SLP271 T00001067 401611061 TSNO,KMLF,2015-02-13T06:52:00Z,38.42,-113.02,0.0,-6.7,320,4,,10.0,30.351377,1027.1,,TRUE,TRUE,,,TRUE,,,,CLR,,,,,,,,VFR,,,,16.1,-6.1,,,,,,,SPECI,1534.0
KMDH 130652Z AUTO 00000KT 10SM CLR M07/M13 A3044 RMK AO2 SLP316 T10671128,KMDH,2015-02-13T06:52:00Z,37.78,-89.25,-6.7,-12.8,0,0,,10.0,30.43996,1031.6,,TRUE,TRUE,,,,,,,CLR,,,,,,,,VFR,,,,,,,,,,,,SPECI,130.0
YBCS 130652Z 15010KT 3000 RA FEW004 BKN020 OVC030 24/23 Q1008,YBCS,2015-02-13T06:52:00Z,-16.87,145.75,24.0,23.0,150,10,,1.86,29.763779,,,,,,,,,,RA,FEW,400,BKN,2000,OVC,3000,,,IFR,,,,,,,,,,,,SPECI,7.0
KABQ 130652Z 00000KT 10SM CLR 03/M03 A3031 RMK AO2 SLP249 T00331033 401221006,KABQ,2015-02-13T06:52:00Z,35.05,-106.62,3.3,-3.3,0,0,,10.0,30.31004,1024.9,,,TRUE,,,,,,,CLR,,,,,,,,VFR,,,,12.2,-0.6,,,,,,,METAR,1618.0
KARR 130652Z AUTO 00000KT 10SM CLR M18/M21 A3040 RMK AO2 SLP313 T11781206,KARR,2015-02-13T06:52:00Z,41.77,-88.48,-17.8,-20.6,0,0,,10.0,30.398623,1031.3,,TRUE,TRUE,,,,,,,CLR,,,,,,,,VFR,,,,,,,,,,,,METAR,215.0
KAQW 130652Z AUTO 27016G24KT 6SM HZ OVC036 M14/M21 A2988 RMK AO2 UPB02E04SNB04E26 SLP132 P0000 T11441211,KAQW,2015-02-13T06:52:00Z,42.7,-73.17,-14.4,-21.1,270,16,24,6.0,29.878937,1013.2,,TRUE,TRUE,,,,,,HZ,OVC,3600,,,,,,,VFR,,,,,,0.0050,,,,,,METAR,199.0
KAFN 130652Z AUTO 9SM CLR M13/M19 A2972 RMK AO2 SLP088 T11281189,KAFN,2015-02-13T06:52:00Z,42.8,-72.0,-12.8,-18.9,,,,9.0,29.719488,1008.8,,TRUE,TRUE,,,,,,,CLR,,,,,,,,VFR,,,,,,,,,,,,METAR,313.0
KCQX 130652Z AUTO 32009G25KT 290V350 7SM -SN OVC033 M05/M08 A2966 RMK AO2 PK WND 33027/0613 SLP047 P0000 T10501083,KCQX,2015-02-13T06:52:00Z,41.68,-70.0,-5.0,-8.3,320,9,25,7.0,29.660433,1004.7,,TRUE,TRUE,,,,,,-SN,OVC,3300,,,,,,,VFR,,,,,,0.0050,,,,,,METAR,19.0
KCLT 130652Z 34006KT 10SM FEW250 M04/M14 A3019 RMK AO2 SLP227 T10391144,KCLT,2015-02-13T06:52:00Z,35.22,-80.95,-3.9,-14.4,340,6,,10.0,30.188976,1022.7,,,TRUE,,,,,,,FEW,25000,,,,,,,VFR,,,,,,,,,,,,METAR,220.0
KCID 130652Z AUTO 14004KT 10SM CLR M14/M16 A3034 RMK AO2 SLP294 T11391161,KCID,2015-02-13T06:52:00Z,41.88,-91.72,-13.9,-16.1,140,4,,10.0,30.339567,1029.4,,TRUE,TRUE,,,,,,,CLR,,,,,,,,VFR,,,,,,,,,,,,METAR,264.0
KBML 130652Z AUTO VRB06KT 6SM HZ OVC023 M16/M19 A2971 RMK AO2 SLP084 T11561194,KBML,2015-02-13T06:52:00Z,44.58,-71.18,-15.6,-19.4,0,6,,6.0,29.71063,1008.4,,TRUE,TRUE,,,,,,HZ,OVC,2300,,,,,,,MVFR,,,,,,,,,,,,METAR,345.0
KATL 130652Z 33012G19KT 10SM FEW250 M03/M13 A3021 RMK AO2 SLP236 T10331128,KATL,2015-02-13T06:52:00Z,33.63,-84.45,-3.3,-12.8,330,12,19,10.0,30.209646,1023.6,,,TRUE,,,,,,,FEW,25000,,,,,,,VFR,,,,,,,,,,,,METAR,296.0
KHIE 130652Z AUTO 30009KT 7SM BKN032 OVC041 M15/M20 A2976 RMK AO2 SLP101 T11501200,KHIE,2015-02-13T06:52:00Z,44.37,-71.55,-15.0,-20.0,300,9,,7.0,29.760826,1010.1,,TRUE,TRUE,,,,,,,BKN,3200,OVC,4100,,,,,VFR,,,,,,,,,,,,METAR,318.0
KFIT 130652Z AUTO 32009KT 10SM CLR M10/M17 A2977 RMK AO2 SLP087 T11001167,KFIT,2015-02-13T06:52:00Z,42.55,-71.75,-10.0,-16.7,320,9,,10.0,29.769686,1008.7,,TRUE,TRUE,,,,,,,CLR,,,,,,,,VFR,,,,,,,,,,,,METAR,103.0
KDVN 130652Z AUTO 00000KT 10SM CLR M16/M19 A3039 RMK AO2 SLP308 T11561189,KDVN,2015-02-13T06:52:00Z,41.62,-90.58,-15.6,-18.9,0,0,,10.0,30.389763,1030.8,,TRUE,TRUE,,,,,,,CLR,,,,,,,,VFR,,,,,,,,,,,,METAR,230.0
KDPA 130652Z 00000KT 10SM CLR M16/M19 A3039 RMK AO2 SLP307 T11561189,KDPA,2015-02-13T06:52:00Z,41.92,-88.25,-15.6,-18.9,0,0,,10.0,30.389763,1030.7,,,TRUE,,,,,,,CLR,,,,,,,,VFR,,,,,,,,,,,,METAR,231.0
KMKE 130652Z 24006KT 10SM FEW180 M14/M20 A3037 RMK AO2 SLP300 T11441200,KMKE,2015-02-13T06:52:00Z,42.95,-87.9,-14.4,-20.0,240,6,,10.0,30.369095,1030.0,,,TRUE,,,,,,,FEW,18000,,,,,,,VFR,,,,,,,,,,,,METAR,206.0
KIOW 130652Z AUTO 14003KT 10SM CLR M13/M16 A3039 RMK AO2 SLP308 T11281156,KIOW,2015-02-13T06:52:00Z,41.63,-91.55,-12.8,-15.6,140,3,,10.0,30.389763,1030.8,,TRUE,TRUE,,,,,,,CLR,,,,,,,,VFR,,,,,,,,,,,,METAR,198.0
KIJD 130652Z AUTO 30009G15KT 280V350 10SM CLR M11/M19 A2983 RMK AO2 SLP104 T11061189,KIJD,2015-02-13T06:52:00Z,41.75,-72.18,-10.6,-18.9,300,9,15,10.0,29.828741,1010.4,,TRUE,TRUE,,,,,,,CLR,,,,,,,,VFR,,,,,,,,,,,,METAR,75.0
KTAN 130652Z AUTO 33012G20KT 10SM UP SCT050 M07/M15 A2973 RMK AO2 PK WND 32027/0617 UPE0554B48SNB0555E09 SLP068 P0000 T10671150,KTAN,2015-02-13T06:52:00Z,41.88,-71.02,-6.7,-15.0,330,12,20,10.0,29.731298,1006.8,,TRUE,TRUE,,,,,,UP,SCT,5000,,,,,,,VFR,,,,,,0.0050,,,,,,METAR,7.0
KPWK 130652Z AUTO 00000KT 10SM CLR M13/M18 A3041 RMK AO2 SLP312 T11331183,KPWK,2015-02-13T06:52:00Z,42.12,-87.9,-13.3,-18.3,0,0,,10.0,30.410433,1031.2,,TRUE,TRUE,,,,,,,CLR,,,,,,,,VFR,,,,,,,,,,,,METAR,203.0
KMWH 130652Z AUTO 01005KT 7SM CLR 04/03 A3031 RMK AO2 SLP270 T00390033,KMWH,2015-02-13T06:52:00Z,47.2,-119.32,3.9,3.3,10,5,,7.0,30.31004,1027.0,,TRUE,TRUE,,,,,,,CLR,,,,,,,,VFR,,,,,,,,,,,,METAR,362.0
KMLI 130652Z 00000KT 10SM CLR M15/M18 A3040 RMK AO2 SLP308 T11501183 $,KMLI,2015-02-13T06:52:00Z,41.45,-90.52,-15.0,-18.3,0,0,,10.0,30.398623,1030.8,,,TRUE,TRUE,,,,,,CLR,,,,,,,,VFR,,,,,,,,,,,,METAR,184.0
KBIS 130652Z 00000KT 10SM CLR M14/M17 A3008 RMK AO2 SLP225 T11441167,KBIS,2015-02-13T06:52:00Z,46.77,-100.75,-14.4,-16.7,0,0,,10.0,30.079725,1022.5,,,TRUE,,,,,,,CLR,,,,,,,,VFR,,,,,,,,,,,,METAR,505.0
KBDR 130652Z AUTO 35011KT 10SM BKN038 M10/M18 A2990 RMK AO2 SLP125 T11001178,KBDR,2015-02-13T06:52:00Z,41.17,-73.13,-10.0,-17.8,350,11,,10.0,29.899607,1012.5,,TRUE,TRUE,,,,,,,BKN,3800,,,,,,,VFR,,,,,,,,,,,,METAR,7.0
KALS 130652Z AUTO 23005KT 10SM CLR M06/M08 A3034 RMK AO2 SLP280 T10611083 401001122,KALS,2015-02-13T06:52:00Z,37.43,-105.87,-6.1,-8.3,230,5,,10.0,30.339567,1028.0,,TRUE,TRUE,,,,,,,CLR,,,,,,,,VFR,,,,10.0,-12.2,,,,,,,METAR,2299.0
KABI 130652Z 20006KT 10SM BKN050 03/M03 A3035 RMK AO2 SLP276 T00331033,KABI,2015-02-13T06:52:00Z,32.42,-99.68,3.3,-3.3,200,6,,10.0,30.351377,1027.6,,,TRUE,,,,,,,BKN,5000,,,,,,,VFR,,,,,,,,,,,,METAR,548.0
KCVG 130652Z 00000KT 9SM -SN FEW017 SCT022 OVC033 M08/M11 A3035 RMK AO2 SLP289 P0000 T10781111,KCVG,2015-02-13T06:52:00Z,39.05,-84.67,-7.8,-11.1,0,0,,9.0,30.351377,1028.9,,,TRUE,,,,,,-SN,FEW,1700,SCT,2200,OVC,3300,,,VFR,,,,,,0.0050,,,,,,METAR,269.0
KCNU 130652Z AUTO 09007KT 10SM CLR M03/M12 A3033 RMK AO2 SLP279 T10331117,KCNU,2015-02-13T06:52:00Z,37.67,-95.48,-3.3,-11.7,90,7,,10.0,30.33071,1027.9,,TRUE,TRUE,,,,,,,CLR,,,,,,,,VFR,,,,,,,,,,,,METAR,297.0
KCKV 130652Z AUTO 34005KT 10SM CLR M07/M12 A3043 RMK AO2 SLP312 T10721122,KCKV,2015-02-13T06:52:00Z,36.62,-87.42,-7.2,-12.2,340,5,,10.0,30.431103,1031.2,,TRUE,TRUE,,,,,,,CLR,,,,,,,,VFR,,,,,,,,,,,,METAR,165.0
KBLH 130652Z AUTO 26006KT 10SM CLR 16/M02 A3009 RMK AO2 SLP185 T01611017,KBLH,2015-02-13T06:52:00Z,33.62,-114.72,16.1,-1.7,260,6,,10.0,30.088583,1018.5,,TRUE,TRUE,,,,,,,CLR,,,,,,,,VFR,,,,,,,,,,,,METAR,119.0
KBLF 130652Z AUTO 31011G18KT 270V330 3/4SM -SN BKN010 OVC017 M11/M14 A3009 RMK AO2 SLP226 P0000 T11061139,KBLF,2015-02-13T06:52:00Z,37.3,-81.2,-10.6,-13.9,310,11,18,0.75,30.088583,1022.6,,TRUE,TRUE,,,,,,-SN,BKN,1000,OVC,1700,,,,,LIFR,,,,,,0.0050,,,,,,METAR,873.0
KDCA 130652Z 33016G23KT 10SM FEW040 M08/M19 A3021 RMK AO2 PK WND 33030/0625 SLP227 T10781194,KDCA,2015-02-13T06:52:00Z,38.85,-77.03,-7.8,-19.4,330,16,23,10.0,30.209646,1022.7,,,TRUE,,,,,,,FEW,4000,,,,,,,VFR,,,,,,,,,,,,METAR,18.0
KDDC 130652Z AUTO 21012KT 10SM CLR 02/M06 A3015 RMK AO2 SLP223 T00221056 $,KDDC,2015-02-13T06:52:00Z,37.77,-99.97,2.2,-5.6,210,12,,10.0,30.15059,1022.3,,TRUE,TRUE,TRUE,,,,,,CLR,,,,,,,,VFR,,,,,,,,,,,,METAR,789.0
KEST 130652Z AUTO 18013KT 10SM OVC050 M10/M12 A3020 RMK AO2 SLP255 T11001117,KEST,2015-02-13T06:52:00Z,43.4,-94.75,-10.0,-11.7,180,13,,10.0,30.200787,1025.5,,TRUE,TRUE,,,,,,,OVC,5000,,,,,,,VFR,,,,,,,,,,,,METAR,401.0
KFIG 130652Z AUTO 28008G19KT 10SM SCT026 OVC034 M16/M21 A3012 RMK AO2 SNE30 P0000,KFIG,2015-02-13T06:52:00Z,41.05,-78.42,-16.0,-21.0,280,8,19,10.0,30.121063,,,TRUE,TRUE,,,,,,,SCT,2600,OVC,3400,,,,,VFR,,,,,,0.0050,,,,,,SPECI,462.0
KGLS 130652Z AUTO 05007KT 10SM CLR 12/04 A3033 RMK AO2 SLP270 T01220039,KGLS,2015-02-13T06:52:00Z,29.27,-94.87,12.2,3.9,50,7,,10.0,30.33071,1027.0,,TRUE,TRUE,,,,,,,CLR,,,,,,,,VFR,,,,,,,,,,,,METAR,6.0
KHRL 130652Z 34003KT 7SM SCT065 12/11 A3029 RMK AO2 SLP258 T01170106,KHRL,2015-02-13T06:52:00Z,26.23,-97.65,11.7,10.6,340,3,,7.0,30.28937,1025.8,,,TRUE,,,,,,,SCT,6500,,,,,,,VFR,,,,,,,,,,,,METAR,10.0
KIAD 130652Z 33018G24KT 10SM FEW046 M10/M20 A3019 RMK AO2 SLP226 T11001200,KIAD,2015-02-13T06:52:00Z,38.93,-77.45,-10.0,-20.0,330,18,24,10.0,30.188976,1022.6,,,TRUE,,,,,,,FEW,4600,,,,,,,VFR,,,,,,,,,,,,METAR,93.0
KHUT 130652Z AUTO 16008KT 10SM CLR M04/M12 A3022 RMK AO2 SLP243 T10391117,KHUT,2015-02-13T06:52:00Z,38.07,-97.87,-3.9,-11.7,160,8,,10.0,30.221457,1024.3,,TRUE,TRUE,,,,,,,CLR,,,,,,,,VFR,,,,,,,,,,,,METAR,467.0
KISN 130652Z AUTO 17003KT 10SM OVC070 M01/M04 A3008 RMK AO2 SLP216 T10111039,KISN,2015-02-13T06:52:00Z,48.17,-103.63,-1.1,-3.9,170,3,,10.0,30.079725,1021.6,,TRUE,TRUE,,,,,,,OVC,7000,,,,,,,VFR,,,,,,,,,,,,METAR,579.0
KIEN 130652Z AUTO 23003KT 10SM CLR M02/M05 A3015 RMK AO2 SLP232 T10171050 401221072,KIEN,2015-02-13T06:52:00Z,43.03,-102.52,-1.7,-5.0,230,3,,10.0,30.15059,1023.2,,TRUE,TRUE,,,,,,,CLR,,,,,,,,VFR,,,,12.2,-7.2,,,,,,,METAR,998.0
KLWC 130652Z AUTO 15009KT 10SM CLR M04/M13 A3033 RMK AO2 SLP282 T10441128,KLWC,2015-02-13T06:52:00Z,39.02,-95.22,-4.4,-12.8,150,9,,10.0,30.33071,1028.2,,TRUE,TRUE,,,,,,,CLR,,,,,,,,VFR,,,,,,,,,,,,METAR,253.0
KMBG 130652Z AUTO 14005KT 10SM CLR M09/M13 A3006 RMK AO2 SLP214 T10941133,KMBG,2015-02-13T06:52:00Z,45.55,-100.42,-9.4,-13.3,140,5,,10.0,30.059055,1021.4,,TRUE,TRUE,,,,,,,CLR,,,,,,,,VFR,,,,,,,,,,,,METAR,510.0
KMEB 130652Z AUTO 31006KT 10SM CLR M03/M12 A3019 RMK AO2 SLP225 T10281122,KMEB,2015-02-13T06:52:00Z,34.78,-79.37,-2.8,-12.2,310,6,,10.0,30.188976,1022.5,,TRUE,TRUE,,,,,,,CLR,,,,,,,,VFR,,,,,,,,,,,,METAR,67.0
KMFD 130652Z AUTO 26005KT 10SM CLR M17/M22 A3028 RMK AO2 SLP283 T11671217,KMFD,2015-02-13T06:52:00Z,40.82,-82.52,-16.7,-21.7,260,5,,10.0,30.280512,1028.3,,TRUE,TRUE,,,,,,,CLR,,,,,,,,VFR,,,,,,,,,,,,METAR,395.0
PATA 130652Z AUTO 09006KT 10SM BKN080 OVC120 M09/M22 A2989 RMK AO2 SLP130 T10941217 TSNO,PATA,2015-02-13T06:52:00Z,65.17,-152.1,-9.4,-21.7,90,6,,10.0,29.890747,1013.0,,TRUE,TRUE,,,TRUE,,,,BKN,8000,OVC,12000,,,,,VFR,,,,,,,,,,,,METAR,67.0
KOMA 130652Z 17008KT 10SM FEW100 M07/M12 A3028 RMK AO2 SLP270 T10671122,KOMA,2015-02-13T06:52:00Z,41.32,-95.9,-6.7,-12.2,170,8,,10.0,30.280512,1027.0,,,TRUE,,,,,,,FEW,10000,,,,,,,VFR,,,,,,,,,,,,METAR,312.0
KCZZ 130652Z AUTO 04016G25KT 17/M06 A3006 RMK AO1 PK WND 05033/0554 SLP152 T01671061 ,KCZZ,2015-02-13T06:52:00Z,32.63,-116.47,16.7,-6.1,40,16,25,,30.059055,1015.2,,TRUE,TRUE,,,,,,,,,,,,,,,,,,,,,,,,,,,METAR,807.0
KVTN 130652Z AUTO 29007KT 10SM CLR M01/M04 A3010 RMK AO2 SLP218 T10111039,KVTN,2015-02-13T06:52:00Z,42.87,-100.55,-1.1,-3.9,290,7,,10.0,30.100393,1021.8,,TRUE,TRUE,,,,,,,CLR,,,,,,,,VFR,,,,,,,,,,,,METAR,788.0
KTRM 130652Z AUTO 36005KT 10SM CLR 13/00 A3007 RMK AO2 SLP184 T01280000 TSNO,KTRM,2015-02-13T06:52:00Z,33.63,-116.17,12.8,0.0,360,5,,10.0,30.070866,1018.4,,TRUE,TRUE,,,TRUE,,,,CLR,,,,,,,,VFR,,,,,,,,,,,,METAR,-35.0
KTOL 130652Z 00000KT 10SM CLR M18/M21 A3037 RMK AO2 SLP300 T11831211,KTOL,2015-02-13T06:52:00Z,41.58,-83.8,-18.3,-21.1,0,0,,10.0,30.369095,1030.0,,,TRUE,,,,,,,CLR,,,,,,,,VFR,,,,,,,,,,,,METAR,210.0
KSUX 130652Z 16007KT 10SM OVC085 M07/M12 A3023 RMK AO2 SLP257 T10721122,KSUX,2015-02-13T06:52:00Z,42.38,-96.38,-7.2,-12.2,160,7,,10.0,30.230314,1025.7,,,TRUE,,,,,,,OVC,8500,,,,,,,VFR,,,,,,,,,,,,METAR,338.0
KSPS 130652Z AUTO 18006KT 10SM CLR 01/M04 A3032 RMK AO2 SLP270 T00111039,KSPS,2015-02-13T06:52:00Z,33.98,-98.5,1.1,-3.9,180,6,,10.0,30.318897,1027.0,,TRUE,TRUE,,,,,,,CLR,,,,,,,,VFR,,,,,,,,,,,,METAR,308.0
KSPI 130652Z AUTO 02004KT 10SM BKN120 M09/M13 A3044 RMK AO2 SLP319 T10891133,KSPI,2015-02-13T06:52:00Z,39.85,-89.68,-8.9,-13.3,20,4,,10.0,30.43996,1031.9,,TRUE,TRUE,,,,,,,BKN,12000,,,,,,,VFR,,,,,,,,,,,,METAR,181.0
KSLE 130652Z AUTO 00000KT 1/4SM R31/1400V2200FT FG VV002 07/06 A3024 RMK AO2,KSLE,2015-02-13T06:52:00Z,44.9,-123.0,7.0,6.0,0,0,,0.25,30.239174,,,TRUE,TRUE,,,,,,FG,OVX,0,,,,,,,LIFR,,,,,,,,,,,200,SPECI,59.0
KSGF 130652Z 15007KT 10SM OVC085 M03/M14 A3033 RMK AO2 SLP284 T10331139 $,KSGF,2015-02-13T06:52:00Z,37.23,-93.38,-3.3,-13.9,150,7,,10.0,30.33071,1028.4,,,TRUE,TRUE,,,,,,OVC,8500,,,,,,,VFR,,,,,,,,,,,,METAR,390.0
KRAP 130652Z AUTO 32008KT 10SM CLR M01/M04 A3013 RMK AO2 SLP226 T10061044 401391100,KRAP,2015-02-13T06:52:00Z,44.05,-103.05,-0.6,-4.4,320,8,,10.0,30.129921,1022.6,,TRUE,TRUE,,,,,,,CLR,,,,,,,,VFR,,,,13.9,-10.0,,,,,,,METAR,965.0
KPPF 130652Z AUTO VRB04KT 10SM CLR M03/M11 A3033 RMK AO2 SLP279 T10281106 TSNO $,KPPF,2015-02-13T06:52:00Z,37.33,-95.5,-2.8,-10.6,0,4,,10.0,30.33071,1027.9,,TRUE,TRUE,TRUE,,TRUE,,,,CLR,,,,,,,,VFR,,,,,,,,,,,,METAR,274.0
KOKC 130652Z 17005KT 10SM SCT180 BKN250 00/M07 A3029 RMK AO2 SLP264 T00001072 $,KOKC,2015-02-13T06:52:00Z,35.38,-97.6,0.0,-7.2,170,5,,10.0,30.28937,1026.4,,,TRUE,TRUE,,,,,,SCT,18000,BKN,25000,,,,,VFR,,,,,,,,,,,,METAR,390.0
KOKB 130652Z AUTO 00000KT 10SM CLR 10/01 A3002 RMK AO2 SLP166 T01000011,KOKB,2015-02-13T06:52:00Z,33.22,-117.35,10.0,1.1,0,0,,10.0,30.02067,1016.6,,TRUE,TRUE,,,,,,,CLR,,,,,,,,VFR,,,,,,,,,,,,METAR,8.0
KP58 130651Z AUTO 26006KT M17/M21 A3030 RMK AO1 SLP285 T11671211 ,KP58,2015-02-13T06:51:00Z,44.02,-82.8,-16.7,-21.1,260,6,,,30.301182,1028.5,,TRUE,TRUE,,,,,,,,,,,,,,,,,,,,,,,,,,,METAR,179.0
KP59 130651Z AUTO 24010G16KT M15/M19 A3021 RMK AO1 SLP256 T11501189 ,KP59,2015-02-13T06:51:00Z,47.47,-87.88,-15.0,-18.9,240,10,16,,30.209646,1025.6,,TRUE,TRUE,,,,,,,,,,,,,,,,,,,,,,,,,,,METAR,190.0
KSMX 130651Z AUTO 13004KT 10SM CLR 11/05 A3009 RMK AO2 SLP190 T01110050 TSNO $,KSMX,2015-02-13T06:51:00Z,34.9,-120.45,11.1,5.0,130,4,,10.0,30.088583,1019.0,,TRUE,TRUE,TRUE,,TRUE,,,,CLR,,,,,,,,VFR,,,,,,,,,,,,SPECI,74.0
KJCT 130651Z AUTO 00000KT 10SM OVC046 07/00 A3035 RMK AO2 SLP264 T00720000,KJCT,2015-02-13T06:51:00Z,30.5,-99.77,7.2,0.0,0,0,,10.0,30.351377,1026.4,,TRUE,TRUE,,,,,,,OVC,4600,,,,,,,VFR,,,,,,,,,,,,SPECI,522.0
KILG 130651Z AUTO 32025G36KT 10SM CLR M10/M19 A3010 RMK AO2 PK WND 32036/0650 SLP192 T11001194,KILG,2015-02-13T06:51:00Z,39.67,-75.6,-10.0,-19.4,320,25,36,10.0,30.100393,1019.2,,TRUE,TRUE,,,,,,,CLR,,,,,,,,VFR,,,,,,,,,,,,SPECI,28.0
KIGM 130651Z AUTO 07004KT 10SM CLR 09/M03 A3023 RMK AO2 SLP192 T00891033 402220022,KIGM,2015-02-13T06:51:00Z,35.25,-113.93,8.9,-3.3,70,4,,10.0,30.230314,1019.2,,TRUE,TRUE,,,,,,,CLR,,,,,,,,VFR,,,,22.2,2.2,,,,,,,SPECI,1032.0
KHTS 130651Z 36007KT 10SM CLR M11/M17 A3036 RMK AO2 SLP292 T11061172,KHTS,2015-02-13T06:51:00Z,38.37,-82.55,-10.6,-17.2,360,7,,10.0,30.360237,1029.2,,,TRUE,,,,,,,CLR,,,,,,,,VFR,,,,,,,,,,,,SPECI,254.0
KHSE 130651Z AUTO 35008G18KT 320V040 10SM CLR 01/M06 A3008 RMK AO2 SLP185 T00061061 TSNO,KHSE,2015-02-13T06:51:00Z,35.23,-75.62,0.6,-6.1,350,8,18,10.0,30.079725,1018.5,,TRUE,TRUE,,,TRUE,,,,CLR,,,,,,,,VFR,,,,,,,,,,,,SPECI,3.0
KHDO 130651Z AUTO 03006KT 10SM OVC095 10/02 A3036 RMK AO2 SLP274 T01000022 $,KHDO,2015-02-13T06:51:00Z,29.37,-99.17,10.0,2.2,30,6,,10.0,30.360237,1027.4,,TRUE,TRUE,TRUE,,,,,,OVC,9500,,,,,,,VFR,,,,,,,,,,,,SPECI,282.0
KEWR 130651Z 31021G29KT 10SM FEW040 M12/M21 A3001 RMK AO2 PK WND 31031/0640 SLP162 T11171211,KEWR,2015-02-13T06:51:00Z,40.68,-74.17,-11.7,-21.1,310,21,29,10.0,30.008858,1016.2,,,TRUE,,,,,,,FEW,4000,,,,,,,VFR,,,,,,,,,,,,SPECI,7.0
KERI 130651Z AUTO 29009G18KT 9SM OVC041 M13/M18 A3027 RMK AO2 SLP266 T11331178,KERI,2015-02-13T06:51:00Z,42.08,-80.18,-13.3,-17.8,290,9,18,9.0,30.268702,1026.6,,TRUE,TRUE,,,,,,,OVC,4100,,,,,,,VFR,,,,,,,,,,,,SPECI,222.0
KELP 130651Z 00000KT 10SM FEW080 FEW200 07/M03 A3031 RMK AO2 SLP238 T00721033 401330056,KELP,2015-02-13T06:51:00Z,31.82,-106.38,7.2,-3.3,0,0,,10.0,30.31004,1023.8,,,TRUE,,,,,,,FEW,8000,FEW,20000,,,,,VFR,,,,13.3,5.6,,,,,,,SPECI,1197.0
KEKN 130651Z AUTO 31010KT 4SM -SN OVC025 M14/M18 A3018 RMK AO2 SLP262 P0000 T11441178 TSNO,KEKN,2015-02-13T06:51:00Z,38.88,-79.85,-14.4,-17.8,310,10,,4.0,30.180119,1026.2,,TRUE,TRUE,,,TRUE,,,-SN,OVC,2500,,,,,,,MVFR,,,,,,0.0050,,,,,,SPECI,603.0
KDAW 130651Z AUTO 31014G20KT 10SM OVC046 M10/M16 A2971 RMK AO2 SLP063 T11001161,KDAW,2015-02-13T06:51:00Z,43.28,-70.92,-10.0,-16.1,310,14,20,10.0,29.71063,1006.3,,TRUE,TRUE,,,,,,,OVC,4600,,,,,,,VFR,,,,,,,,,,,,SPECI,100.0
KCSG 130651Z 36008KT 10SM CLR M02/M12 A3025 RMK AO2 SLP243 T10171122,KCSG,2015-02-13T06:51:00Z,32.52,-84.95,-1.7,-12.2,360,8,,10.0,30.250984,1024.3,,,TRUE,,,,,,,CLR,,,,,,,,VFR,,,,,,,,,,,,SPECI,135.0
KCRP 130651Z 01007KT 10SM FEW250 12/08 A3033 RMK AO2 SLP272 T01170083,KCRP,2015-02-13T06:51:00Z,27.77,-97.5,11.7,8.3,10,7,,10.0,30.33071,1027.2,,,TRUE,,,,,,,FEW,25000,,,,,,,VFR,,,,,,,,,,,,SPECI,14.0
KCON 130651Z AUTO 31012KT 10SM CLR M12/M18 A2977 RMK AO2 SLP086 T11171183,KCON,2015-02-13T06:51:00Z,43.2,-71.5,-11.7,-18.3,310,12,,10.0,29.769686,1008.6,,TRUE,TRUE,,,,,,,CLR,,,,,,,,VFR,,,,,,,,,,,,SPECI,103.0
KCMH 130651Z 00000KT 10SM CLR M13/M19 A3035 RMK AO2 SLP295 T11331189,KCMH,2015-02-13T06:51:00Z,40.0,-82.88,-13.3,-18.9,0,0,,10.0,30.351377,1029.5,,,TRUE,,,,,,,CLR,,,,,,,,VFR,,,,,,,,,,,,SPECI,247.0
KCLE 130651Z 23005KT 10SM CLR M17/M21 A3034 RMK AO2 SLP293 T11721211 $,KCLE,2015-02-13T06:51:00Z,41.42,-81.85,-17.2,-21.1,230,5,,10.0,30.339567,1029.3,,,TRUE,TRUE,,,,,,CLR,,,,,,,,VFR,,,,,,,,,,,,SPECI,233.0
KCAK 130651Z 28005KT 10SM CLR M17/M21 A3027 RMK AO2 SLP277 T11671211,KCAK,2015-02-13T06:51:00Z,40.92,-81.45,-16.7,-21.1,280,5,,10.0,30.268702,1027.7,,,TRUE,,,,,,,CLR,,,,,,,,VFR,,,,,,,,,,,,SPECI,377.0
KBKW 130651Z AUTO 31012KT 7SM BKN018 OVC023 M13/M17 A3014 RMK AO2 SNE51 SLP257 P0000 T11281172,KBKW,2015-02-13T06:51:00Z,37.8,-81.12,-12.8,-17.2,310,12,,7.0,30.138779,1025.7,,TRUE,TRUE,,,,,,,BKN,1800,OVC,2300,,,,,MVFR,,,,,,0.0050,,,,,,SPECI,764.0
KBHK 130651Z AUTO 32003KT 10SM CLR M01/M04 A3012 RMK AO2 SLP218 T10111039 400891111,KBHK,2015-02-13T06:51:00Z,46.35,-104.25,-1.1,-3.9,320,3,,10.0,30.121063,1021.8,,TRUE,TRUE,,,,,,,CLR,,,,,,,,VFR,,,,8.9,-11.1,,,,,,,SPECI,902.0
KBGD 130651Z AUTO 22012KT 10SM CLR 07/M09 A3022 RMK AO2 SLP227 T00671089,KBGD,2015-02-13T06:51:00Z,35.7,-101.4,6.7,-8.9,220,12,,10.0,30.221457,1022.7,,TRUE,TRUE,,,,,,,CLR,,,,,,,,VFR,,,,,,,,,,,,SPECI,927.0
KBFD 130651Z AUTO 30010KT 6SM HZ OVC010 M20/M23 A3005 RMK AO2,KBFD,2015-02-13T06:51:00Z,41.8,-78.63,-20.0,-23.0,300,10,,6.0,30.050198,,,TRUE,TRUE,,,,,,HZ,OVC,1000,,,,,,,MVFR,,,,,,,,,,,,SPECI,647.0
KBDL 130651Z 32015G21KT 10SM CLR M12/M21 A2987 RMK AO2 PK WND 33029/0618 SLP118 T11171211,KBDL,2015-02-13T06:51:00Z,41.93,-72.68,-11.7,-21.1,320,15,21,10.0,29.870079,1011.8,,,TRUE,,,,,,,CLR,,,,,,,,VFR,,,,,,,,,,,,SPECI,60.0
KBAZ 130651Z AUTO 02006KT 10SM CLR 08/02 A3035 RMK AO2 SLP274 T00830017,KBAZ,2015-02-13T06:51:00Z,29.72,-98.05,8.3,1.7,20,6,,10.0,30.351377,1027.4,,TRUE,TRUE,,,,,,,CLR,,,,,,,,VFR,,,,,,,,,,,,SPECI,195.0
KAVX 130651Z AUTO 08005KT 10SM CLR 21/M04 A3011 RMK AO2 SLP169 T02111039 $,KAVX,2015-02-13T06:51:00Z,33.4,-118.42,21.1,-3.9,80,5,,10.0,30.109253,1016.9,,TRUE,TRUE,TRUE,,,,,,CLR,,,,,,,,VFR,,,,,,,,,,,,SPECI,482.0
KASH 130651Z AUTO 32015G18KT 10SM CLR M10/M16 A2978 RMK AO2 FZRANO T11001161 SLP344 $,KASH,2015-02-13T06:51:00Z,42.78,-71.52,-10.0,-16.1,320,15,18,10.0,29.778543,1034.4,,TRUE,TRUE,TRUE,,,TRUE,,,CLR,,,,,,,,VFR,,,,,,,,,,,,SPECI,61.0
KALB 130651Z 28010KT 10SM FEW080 M16/M23 A3000 RMK AO2 SLP164 T11611233,KALB,2015-02-13T06:51:00Z,42.75,-73.8,-16.1,-23.3,280,10,,10.0,30.0,1016.4,,,TRUE,,,,,,,FEW,8000,,,,,,,VFR,,,,,,,,,,,,SPECI,92.0
KAHN 130651Z AUTO VRB04KT 10SM CLR M03/M13 A3020 RMK AO2 SLP233 T10281128,KAHN,2015-02-13T06:51:00Z,33.95,-83.33,-2.8,-12.8,0,4,,10.0,30.200787,1023.3,,TRUE,TRUE,,,,,,,CLR,,,,,,,,VFR,,,,,,,,,,,,SPECI,244.0
KACT 130651Z 26003KT 10SM CLR 01/M02 A3037 RMK AO2 SLP286 T00061017,KACT,2015-02-13T06:51:00Z,31.62,-97.23,0.6,-1.7,260,3,,10.0,30.369095,1028.6,,,TRUE,,,,,,,CLR,,,,,,,,VFR,,,,,,,,,,,,SPECI,151.0
KABE 130651Z 30015G22KT 10SM CLR M13/M23 A3006 RMK AO2 PK WND 31027/0639 SLP185 T11331228 $,KABE,2015-02-13T06:51:00Z,40.65,-75.45,-13.3,-22.8,300,15,22,10.0,30.059055,1018.5,,,TRUE,TRUE,,,,,,CLR,,,,,,,,VFR,,,,,,,,,,,,SPECI,114.0
KYNG 130651Z 24003KT 10SM FEW040 M17/M21 A3025 RMK AO2 SLP271 T11721206,KYNG,2015-02-13T06:51:00Z,41.25,-80.67,-17.2,-20.6,240,3,,10.0,30.250984,1027.1,,,TRUE,,,,,,,FEW,4000,,,,,,,VFR,,,,,,,,,,,,SPECI,360.0
KVNY 130651Z 00000KT 10SM CLR 17/M01 A3007 RMK AO2 SLP176 T01721006,KVNY,2015-02-13T06:51:00Z,34.22,-118.48,17.2,-0.6,0,0,,10.0,30.070866,1017.6,,,TRUE,,,,,,,CLR,,,,,,,,VFR,,,,,,,,,,,,SPECI,245.0
KVCT 130651Z AUTO 36007KT 10SM CLR 09/06 A3034 RMK AO2 SLP272 T00940061 $,KVCT,2015-02-13T06:51:00Z,28.87,-96.93,9.4,6.1,360,7,,10.0,30.339567,1027.2,,TRUE,TRUE,TRUE,,,,,,CLR,,,,,,,,VFR,,,,,,,,,,,,SPECI,31.0
KTEB 130651Z 33014G25KT 10SM CLR M12/M22 A2999 RMK AO2 PK WND 32032/0632 SLP156 T11221217,KTEB,2015-02-13T06:51:00Z,40.87,-74.05,-12.2,-21.7,330,14,25,10.0,29.991142,1015.6,,,TRUE,,,,,,,CLR,,,,,,,,VFR,,,,,,,,,,,,SPECI,7.0
KSTL 130651Z 12003KT 10SM SCT110 BKN250 M07/M14 A3042 RMK AO2 SLP319 T10671139,KSTL,2015-02-13T06:51:00Z,38.75,-90.37,-6.7,-13.9,120,3,,10.0,30.41929,1031.9,,,TRUE,,,,,,,SCT,11000,BKN,25000,,,,,VFR,,,,,,,,,,,,SPECI,171.0
KSMO 130651Z AUTO 35005KT 10SM CLR 20/M01 A3005 RMK AO2 SLP174 T02001006,KSMO,2015-02-13T06:51:00Z,34.02,-118.45,20.0,-0.6,350,5,,10.0,30.050198,1017.4,,TRUE,TRUE,,,,,,,CLR,,,,,,,,VFR,,,,,,,,,,,,SPECI,57.0
KSLK 130651Z AUTO VRB05KT 3SM HZ BKN017 BKN025 OVC029 M22/M26 A2984 RMK AO2 SLP141 T12221256 $,KSLK,2015-02-13T06:51:00Z,44.4,-74.2,-22.2,-25.6,0,5,,3.0,29.840551,1014.1,,TRUE,TRUE,TRUE,,,,,HZ,BKN,1700,BKN,2500,OVC,2900,,,MVFR,,,,,,,,,,,,SPECI,498.0
KSJT 130651Z AUTO 00000KT 10SM SCT037 OVC075 08/00 A3034 RMK AO2 SLP278 T00830000,KSJT,2015-02-13T06:51:00Z,31.37,-100.5,8.3,0.0,0,0,,10.0,30.339567,1027.8,,TRUE,TRUE,,,,,,,SCT,3700,OVC,7500,,,,,VFR,,,,,,,,,,,,SPECI,576.0
KSAT 130651Z 02004KT 10SM BKN050 BKN250 10/02 A3035 RMK AO2 SLP266 T01000017,KSAT,2015-02-13T06:51:00Z,29.53,-98.47,10.0,1.7,20,4,,10.0,30.351377,1026.6,,,TRUE,,,,,,,BKN,5000,BKN,25000,,,,,VFR,,,,,,,,,,,,SPECI,243.0
KSAN 130651Z 00000KT 10SM CLR 19/07 A3004 RMK AO2 SLP171 T01890072,KSAN,2015-02-13T06:51:00Z,32.73,-117.18,18.9,7.2,0,0,,10.0,30.041338,1017.1,,,TRUE,,,,,,,CLR,,,,,,,,VFR,,,,,,,,,,,,METAR,12.0
KROW 130651Z AUTO 17005KT 10SM CLR 02/M02 A3029 RMK AO2 SLP244 T00221017 401330017,KROW,2015-02-13T06:51:00Z,33.3,-104.5,2.2,-1.7,170,5,,10.0,30.28937,1024.4,,TRUE,TRUE,,,,,,,CLR,,,,,,,,VFR,,,,13.3,1.7,,,,,,,SPECI,1112.0
KRDU 130651Z 32006KT 10SM FEW200 M03/M15 A3017 RMK AO2 SLP218 T10281150,KRDU,2015-02-13T06:51:00Z,35.9,-78.78,-2.8,-15.0,320,6,,10.0,30.171259,1021.8,,,TRUE,,,,,,,FEW,20000,,,,,,,VFR,,,,,,,,,,,,SPECI,130.0
KPWM 130651Z AUTO 33008KT 10SM SCT065 OVC080 M09/M14 A2972 RMK AO2 SLP065 T10891144,KPWM,2015-02-13T06:51:00Z,43.65,-70.3,-8.9,-14.4,330,8,,10.0,29.719488,1006.5,,TRUE,TRUE,,,,,,,SCT,6500,OVC,8000,,,,,VFR,,,,,,,,,,,,SPECI,15.0
KPVD 130651Z 30009KT 10SM FEW038 SCT065 M08/M16 A2977 RMK AO2 SLP080 T10781156,KPVD,2015-02-13T06:51:00Z,41.72,-71.43,-7.8,-15.6,300,9,,10.0,29.769686,1008.0,,,TRUE,,,,,,,FEW,3800,SCT,6500,,,,,VFR,,,,,,,,,,,,SPECI,16.0
KPIT 130651Z 27006KT 10SM CLR M16/M20 A3026 RMK AO2 SLP278 T11561200,KPIT,2015-02-13T06:51:00Z,40.5,-80.27,-15.6,-20.0,270,6,,10.0,30.259842,1027.8,,,TRUE,,,,,,,CLR,,,,,,,,VFR,,,,,,,,,,,,SPECI,357.0
KPHX 130651Z 13004KT 10SM CLR 17/03 A3013 RMK AO2 SLP191 T01670028 402560144,KPHX,2015-02-13T06:51:00Z,33.43,-112.02,16.7,2.8,130,4,,10.0,30.129921,1019.1,,,TRUE,,,,,,,CLR,,,,,,,,VFR,,,,25.6,14.4,,,,,,,SPECI,336.0
KOXR 130651Z AUTO 02005KT 10SM CLR 17/02 A3006 RMK AO2 SLP178 T01670022,KOXR,2015-02-13T06:51:00Z,34.2,-119.2,16.7,2.2,20,5,,10.0,30.059055,1017.8,,TRUE,TRUE,,,,,,,CLR,,,,,,,,VFR,,,,,,,,,,,,SPECI,20.0
KORF 130651Z AUTO 34010G18KT 10SM CLR M03/M12 A3011 RMK AO2 SLP195 T10331122 TSNO,KORF,2015-02-13T06:51:00Z,36.9,-76.2,-3.3,-12.2,340,10,18,10.0,30.109253,1019.5,,TRUE,TRUE,,,TRUE,,,,CLR,,,,,,,,VFR,,,,,,,,,,,,SPECI,14.0
KORD 130651Z 25004KT 10SM CLR M14/M18 A3039 RMK AO2 SLP306 T11391183,KORD,2015-02-13T06:51:00Z,41.98,-87.93,-13.9,-18.3,250,4,,10.0,30.389763,1030.6,,,TRUE,,,,,,,CLR,,,,,,,,VFR,,,,,,,,,,,,SPECI,200.0
KOLM 130651Z AUTO 00000KT 1/2SM FG CLR 07/07 A3026 RMK AO2,KOLM,2015-02-13T06:51:00Z,46.97,-122.9,7.0,7.0,0,0,,0.5,30.259842,,,TRUE,TRUE,,,,,,FG,CLR,,,,,,,,LIFR,,,,,,,,,,,,SPECI,58.0
KMYL 130651Z AUTO 00000KT 9SM CLR M03/M04 A3036 RMK AO2 SLP312 T10281039 400891050,KMYL,2015-02-13T06:51:00Z,44.9,-116.1,-2.8,-3.9,0,0,,9.0,30.360237,1031.2,,TRUE,TRUE,,,,,,,CLR,,,,,,,,VFR,,,,8.9,-5.0,,,,,,,SPECI,1533.0
KMPV 130651Z AUTO 31012G21KT 2SM -SN BKN017 OVC033 M18/M22 A2985 RMK AO2 UPB43E46SNE43B46 SLP136 P0000 T11831222,KMPV,2015-02-13T06:51:00Z,44.2,-72.57,-18.3,-22.2,310,12,21,2.0,29.84941,1013.6,,TRUE,TRUE,,,,,,-SN,BKN,1700,OVC,3300,,,,,IFR,,,,,,0.0050,,,,,,SPECI,343.0
KLGU 130651Z AUTO 00000KT 10SM CLR 00/M03 A3038 RMK AO2 SLP293 T00001028 401391033,KLGU,2015-02-13T06:51:00Z,41.78,-111.85,0.0,-2.8,0,0,,10.0,30.380905,1029.3,,TRUE,TRUE,,,,,,,CLR,,,,,,,,VFR,,,,13.9,-3.3,,,,,,,SPECI,1355.0
KLGA 130651Z 31018G26KT 10SM CLR M11/M18 A2998 RMK AO2 PK WND 32034/0623 SLP152 T11061183,KLGA,2015-02-13T06:51:00Z,40.78,-73.88,-10.6,-18.3,310,18,26,10.0,29.97933,1015.2,,,TRUE,,,,,,,CLR,,,,,,,,VFR,,,,,,,,,,,,SPECI,11.0
KJFK 130651Z 31021G30KT 10SM CLR M10/M21 A2998 RMK AO2 PK WND 30037/0605 SLP152 T11001211,KJFK,2015-02-13T06:51:00Z,40.63,-73.77,-10.0,-21.1,310,21,30,10.0,29.97933,1015.2,,,TRUE,,,,,,,CLR,,,,,,,,VFR,,,,,,,,,,,,SPECI,9.0
PKMR 130651Z 04010KT 15SM FEW015 SCT050 BKN120 OVC300 28/24 A2975 RMK SLP075 T02840240,PKMR,2015-02-13T06:51:00Z,7.08,171.38,28.4,24.0,40,10,,15.0,29.749016,1007.5,,,,,,,,,,FEW,1500,SCT,5000,BKN,12000,OVC,30000,VFR,,,,,,,,,,,,SPECI,4.0
MMCZ 130651Z 01006KT 7SM SKC 20/16 A3010 RMK RTS,MMCZ,2015-02-13T06:51:00Z,20.52,-86.92,20.0,16.0,10,6,,7.0,30.100393,,,,,,,,,,,SKC,,,,,,,,VFR,,,,,,,,,,,,METAR,5.0
KSAD 130651Z AUTO 15006KT 10SM CLR 08/M01 A3026 RMK AO2 SLP228 T00831011 401940056,KSAD,2015-02-13T06:51:00Z,32.85,-109.63,8.3,-1.1,150,6,,10.0,30.259842,1022.8,,TRUE,TRUE,,,,,,,CLR,,,,,,,,VFR,,,,19.4,5.6,,,,,,,SPECI,962.0
KBVE 130651Z AUTO 35010G17KT 330V040 10SM CLR 09/01 A3029 RMK AO2 SLP255 T00890006,KBVE,2015-02-13T06:51:00Z,29.32,-89.4,8.9,0.6,350,10,17,10.0,30.28937,1025.5,,TRUE,TRUE,,,,,,,CLR,,,,,,,,VFR,,,,,,,,,,,,METAR,1.0
KSNT 130651Z AUTO 15003KT M06/M09 A3044 RMK AO1 SLP310 T10561094 400891094,KSNT,2015-02-13T06:51:00Z,44.17,-114.93,-5.6,-9.4,150,3,,,30.43996,1031.0,,TRUE,TRUE,,,,,,,,,,,,,,,,,,,8.9,-9.4,,,,,,,SPECI,1980.0
KATT 130651Z AUTO 00000KT 10SM BKN055 09/00 A3037 RMK AO2 SLP283 T00940000,KATT,2015-02-13T06:51:00Z,30.32,-97.77,9.4,0.0,0,0,,10.0,30.369095,1028.3,,TRUE,TRUE,,,,,,,BKN,5500,,,,,,,VFR,,,,,,,,,,,,SPECI,201.0
ETSI 130651Z 14003KT 2300 BR OVC002 M03/M03 Q1022 AMB YLO TEMPO AMB,ETSI,2015-02-13T06:51:00Z,48.72,11.52,-3.0,-3.0,140,3,,1.43,30.177166,,,,,,,,,,BR,OVC,200,,,,,,,LIFR,,,,,,,,,,,,SPECI,370.0
KMTN 130651Z AUTO 30012G21KT 10SM CLR M08/M17 A3015 RMK AO2,KMTN,2015-02-13T06:51:00Z,39.32,-76.42,-8.0,-17.0,300,12,21,10.0,30.15059,,,TRUE,TRUE,,,,,,,CLR,,,,,,,,VFR,,,,,,,,,,,,METAR,7.0
KNYC 130651Z AUTO 31008G21KT 260V020 10SM CLR M11/M21 A3000 RMK AO2 SLP152 T11111211 ,KNYC,2015-02-13T06:51:00Z,40.78,-73.97,-11.1,-21.1,310,8,21,10.0,30.0,1015.2,,TRUE,TRUE,,,,,,,CLR,,,,,,,,VFR,,,,,,,,,,,,METAR,11.0
LSME 130650Z VRB02KT 0250 R04/0300N R22/0350N -FZRA FZFG OVC002 M03/M04 Q1021 RMK RED,LSME,2015-02-13T06:50:00Z,47.1,8.3,-3.0,-4.0,0,2,,0.16,30.147638,,,,,,,,,,-FZRA FZFG,OVC,200,,,,,,,LIFR,,,,,,,,,,,,METAR,427.0
LSMD 130650Z 06002KT 0300 R11/0450N R29/0900V1500N FZFG VV001 M06/M06 Q1021 RMK RED,LSMD,2015-02-13T06:50:00Z,47.4,8.65,-6.0,-6.0,60,2,,0.19,30.147638,,,,,,,,,,FZFG,OVX,0,,,,,,,LIFR,,,,,,,,,,,100,METAR,448.0
LSMA 130650Z 00000KT 0300 R01/0350N R19/0375N FZFG OVC002 M05/M06 Q1021 RMK RED,LSMA,2015-02-13T06:50:00Z,46.95,8.28,-5.0,-6.0,0,0,,0.19,30.147638,,,,,,,,,,FZFG,OVC,200,,,,,,,LIFR,,,,,,,,,,,,METAR,444.0
LSZL 130650Z 00000KT 5000 SCT029 02/01 Q1025 RMK GRN,LSZL,2015-02-13T06:50:00Z,46.17,8.88,2.0,1.0,0,0,,3.11,30.265747,,,,,,,,,,,SCT,2900,,,,,,,MVFR,,,,,,,,,,,,METAR,600.0
LSZC 130650Z 23003KT 0100 FZFG VV001 M03/M04 Q1021 BELOW SVFR,LSZC,2015-02-13T06:50:00Z,46.97,8.38,-3.0,-4.0,230,3,,0.06,30.147638,,,,,,,,,,FZFG,OVX,0,,,,,,,LIFR,,,,,,,,,,,100,METAR,450.0
LSZS 130650Z VRB01KT CAVOK M14/M14 Q1019,LSZS,2015-02-13T06:50:00Z,46.53,9.88,-14.0,-14.0,0,1,,6.21,30.088583,,,,,,,,,,,CAVOK,,,,,,,,VFR,,,,,,,,,,,,METAR,1706.0
LSZR 130650Z 10004KT 0350 R10/0800N FZFG VV001 M03/M03 Q1021 NOSIG RMK D,LSZR,2015-02-13T06:50:00Z,47.48,9.57,-3.0,-3.0,100,4,,0.22,30.147638,,,,,,TRUE,,,,FZFG,OVX,0,,,,,,,LIFR,,,,,,,,,,,100,METAR,398.0
LSZG 130650Z VRB02KT 0100 FZFG VV002 M04/M04 Q1021 NOSIG,LSZG,2015-02-13T06:50:00Z,47.17,7.42,-4.0,-4.0,0,2,,0.06,30.147638,,,,,,TRUE,,,,FZFG,OVX,0,,,,,,,LIFR,,,,,,,,,,,200,METAR,430.0
LSGS 130650Z 07003KT CAVOK M02/M03 Q1021,LSGS,2015-02-13T06:50:00Z,46.22,7.32,-2.0,-3.0,70,3,,6.21,30.147638,,,,,,,,,,,CAVOK,,,,,,,,VFR,,,,,,,,,,,,METAR,481.0
LSGC 130650Z 00000KT CAVOK M07/M10 Q1018,LSGC,2015-02-13T06:50:00Z,47.08,6.8,-7.0,-10.0,0,0,,6.21,30.059055,,,,,,,,,,,CAVOK,,,,,,,,VFR,,,,,,,,,,,,METAR,1027.0
ESUT 130650Z AUTO 17002KT 9999 FEW026/// SCT049/// M06/M07 Q1008,ESUT,2015-02-13T06:50:00Z,65.8,15.08,-6.0,-7.0,170,2,,6.21,29.763779,,,TRUE,,,,,,,,,,,,,,,,,,,,,,,,,,,,METAR,463.0
ESNZ 130650Z VRB02KT CAVOK M06/M07 Q1011,ESNZ,2015-02-13T06:50:00Z,63.17,14.5,-6.0,-7.0,0,2,,6.21,29.852362,,,,,,,,,,,CAVOK,,,,,,,,VFR,,,,,,,,,,,,METAR,370.0
ESNU 130650Z 19003KT 9999 OVC042 M03/M07 Q1015 R14/71//50,ESNU,2015-02-13T06:50:00Z,63.78,20.27,-3.0,-7.0,190,3,,6.21,29.970472,,,,,,,,,,,OVC,4200,,,,,,,VFR,,,,,,,,,,,,METAR,14.0
ESNS 130650Z 24007KT CAVOK M03/M07 Q1013,ESNS,2015-02-13T06:50:00Z,64.62,21.07,-3.0,-7.0,240,7,,6.21,29.911417,,,,,,,,,,,CAVOK,,,,,,,,VFR,,,,,,,,,,,,METAR,49.0
ESNQ 130650Z 28014KT CAVOK M08/M14 Q1003,ESNQ,2015-02-13T06:50:00Z,67.82,20.32,-8.0,-14.0,280,14,,6.21,29.616142,,,,,,,,,,,CAVOK,,,,,,,,VFR,,,,,,,,,,,,METAR,452.0
ESNO 130650Z 28003KT CAVOK M11/M12 Q1014,ESNO,2015-02-13T06:50:00Z,63.38,18.97,-11.0,-12.0,280,3,,6.21,29.940945,,,,,,,,,,,CAVOK,,,,,,,,VFR,,,,,,,,,,,,METAR,103.0
ESNN 130650Z 00000KT CAVOK M07/M08 Q1015 R16/09//68,ESNN,2015-02-13T06:50:00Z,62.52,17.43,-7.0,-8.0,0,0,,6.21,29.970472,,,,,,,,,,,CAVOK,,,,,,,,VFR,,,,,,,,,,,,METAR,10.0
ESNK 130650Z AUTO 31004KT 9999 SCT084/// M09/M10 Q1015,ESNK,2015-02-13T06:50:00Z,63.03,17.77,-9.0,-10.0,310,4,,6.21,29.970472,,,TRUE,,,,,,,,,,,,,,,,,,,,,,,,,,,,METAR,19.0
ESNG 130650Z 25013KT CAVOK M07/M14 Q1006,ESNG,2015-02-13T06:50:00Z,67.13,20.82,-7.0,-14.0,250,13,,6.21,29.704725,,,,,,,,,,,CAVOK,,,,,,,,VFR,,,,,,,,,,,,METAR,310.0
EKVD 130650Z 16008KT 2000 BR BKN005 01/00 Q1017,EKVD,2015-02-13T06:50:00Z,55.42,9.32,1.0,0.0,160,8,,1.24,30.029528,,,,,,,,,,BR,BKN,500,,,,,,,IFR,,,,,,,,,,,,METAR,45.0
EGPB 130650Z 18014KT 9999 FEW015 SCT035 07/04 Q1002 NOSIG,EGPB,2015-02-13T06:50:00Z,59.87,-1.3,7.0,4.0,180,14,,6.21,29.586615,,,,,,TRUE,,,,,FEW,1500,SCT,3500,,,,,VFR,,,,,,,,,,,,METAR,5.0
EKSB 130650Z 16006KT 4500 BR SCT006 BKN010 01/M00 Q1018,EKSB,2015-02-13T06:50:00Z,54.97,9.8,1.0,0.0,160,6,,2.8,30.059055,,,,,,,,,,BR,SCT,600,BKN,1000,,,,,IFR,,,,,,,,,,,,METAR,23.0
EGNV 130650Z 16012KT 5000 -DZ SCT009 OVC011 03/01 Q1004,EGNV,2015-02-13T06:50:00Z,54.52,-1.42,3.0,1.0,160,12,,3.11,29.64567,,,,,,,,,,-DZ,SCT,900,OVC,1100,,,,,MVFR,,,,,,,,,,,,METAR,37.0
EGNT 130650Z 16009G20KT 120V200 7000 BKN009 02/00 Q1002,EGNT,2015-02-13T06:50:00Z,55.02,-1.7,2.0,0.0,160,9,20,4.35,29.586615,,,,,,,,,,,BKN,900,,,,,,,IFR,,,,,,,,,,,,METAR,81.0
EGHI 130650Z 18005G17KT 140V220 9999 SCT015 06/04 Q1005,EGHI,2015-02-13T06:50:00Z,50.95,-1.35,6.0,4.0,180,5,17,6.21,29.675198,,,,,,,,,,,SCT,1500,,,,,,,VFR,,,,,,,,,,,,METAR,14.0
EGGP 130650Z 13012KT 7000 SCT010 BKN014 05/04 Q1000,EGGP,2015-02-13T06:50:00Z,53.32,-2.85,5.0,4.0,130,12,,4.35,29.52756,,,,,,,,,,,SCT,1000,BKN,1400,,,,,MVFR,,,,,,,,,,,,METAR,26.0
EGGD 130650Z 16014KT 9999 FEW007 SCT011 BKN021 06/05 Q1001,EGGD,2015-02-13T06:50:00Z,51.37,-2.72,6.0,5.0,160,14,,6.21,29.557087,,,,,,,,,,,FEW,700,SCT,1100,BKN,2100,,,MVFR,,,,,,,,,,,,METAR,189.0
EGTK 130650Z 16013KT 8000 BKN012 OVC015 06/05 Q1004,EGTK,2015-02-13T06:50:00Z,51.83,-1.32,6.0,5.0,160,13,,4.97,29.64567,,,,,,,,,,,BKN,1200,OVC,1500,,,,,MVFR,,,,,,,,,,,,METAR,82.0
EGMC 130650Z 16013KT 7000 FEW020 05/03 Q1008,EGMC,2015-02-13T06:50:00Z,51.57,0.7,5.0,3.0,160,13,,4.35,29.763779,,,,,,,,,,,FEW,2000,,,,,,,MVFR,,,,,,,,,,,,METAR,15.0
EGLF 130650Z 17011KT 140V200 9999 BKN013 07/05 Q1006,EGLF,2015-02-13T06:50:00Z,51.28,-0.77,7.0,5.0,170,11,,6.21,29.704725,,,,,,,,,,,BKN,1300,,,,,,,MVFR,,,,,,,,,,,,METAR,65.0
EGKB 130650Z 16011KT 130V190 5000 -SHRA BKN009 05/03 Q1007,EGKB,2015-02-13T06:50:00Z,51.32,0.02,5.0,3.0,160,11,,3.11,29.734253,,,,,,,,,,-SHRA,BKN,900,,,,,,,IFR,,,,,,,,,,,,METAR,183.0
EGHH 130650Z 18014KT 9999 FEW009 BKN013 08/06 Q1004,EGHH,2015-02-13T06:50:00Z,50.78,-1.83,8.0,6.0,180,14,,6.21,29.64567,,,,,,,,,,,FEW,900,BKN,1300,,,,,MVFR,,,,,,,,,,,,METAR,11.0
EGPD 130650Z 15011KT 9999 OVC044 04/00 Q1002 NOSIG,EGPD,2015-02-13T06:50:00Z,57.2,-2.22,4.0,0.0,150,11,,6.21,29.586615,,,,,,TRUE,,,,,OVC,4400,,,,,,,VFR,,,,,,,,,,,,METAR,65.0
EGNX 130650Z 14013KT 4500 HZ BKN007 04/03 Q1004,EGNX,2015-02-13T06:50:00Z,52.82,-1.32,4.0,3.0,140,13,,2.8,29.64567,,,,,,,,,,HZ,BKN,700,,,,,,,IFR,,,,,,,,,,,,METAR,94.0
EGNM 130650Z 14010KT 3000 BR BKN004 01/01 Q1003,EGNM,2015-02-13T06:50:00Z,53.87,-1.63,1.0,1.0,140,10,,1.86,29.616142,,,,,,,,,,BR,BKN,400,,,,,,,LIFR,,,,,,,,,,,,METAR,208.0
EGLC 130650Z 15011KT 5000 -DZ BKN045 06/04 Q1007,EGLC,2015-02-13T06:50:00Z,51.5,0.05,6.0,4.0,150,11,,3.11,29.734253,,,,,,,,,,-DZ,BKN,4500,,,,,,,MVFR,,,,,,,,,,,,METAR,5.0
EGGW 130650Z 14009KT 2300 -RA OVC005 05/04 Q1006,EGGW,2015-02-13T06:50:00Z,51.87,-0.37,5.0,4.0,140,9,,1.43,29.704725,,,,,,,,,,-RA,OVC,500,,,,,,,IFR,,,,,,,,,,,,METAR,160.0
EGFF 130650Z AUTO 17015KT 9999 FEW014 SCT034 07/05 Q1001,EGFF,2015-02-13T06:50:00Z,51.38,-3.35,7.0,5.0,170,15,,6.21,29.557087,,,TRUE,,,,,,,,FEW,1400,SCT,3400,,,,,VFR,,,,,,,,,,,,METAR,67.0
EGAC 130650Z 13013KT 9999 5000W -DZ FEW009 BKN014 06/04 Q0994,EGAC,2015-02-13T06:50:00Z,54.62,-5.87,6.0,4.0,130,13,,6.21,29.350393,,,,,,,,,,-DZ,FEW,900,BKN,1400,,,,,MVFR,,,,,,,,,,,,METAR,5.0
EGAA 130650Z 14016KT 6000 FEW009 BKN013 07/05 Q0993,EGAA,2015-02-13T06:50:00Z,54.63,-6.22,7.0,5.0,140,16,,3.73,29.320866,,,,,,,,,,,FEW,900,BKN,1300,,,,,MVFR,,,,,,,,,,,,METAR,81.0
EGLL 130650Z 15010KT 5000 -SHRA BKN015 06/05 Q1007 TEMPO BKN014,EGLL,2015-02-13T06:50:00Z,51.48,-0.45,6.0,5.0,150,10,,3.11,29.734253,,,,,,,,,,-SHRA,BKN,1500,,,,,,,MVFR,,,,,,,,,,,,METAR,24.0
EGCC 130650Z 15014KT 110V180 4000 HZ SCT010 BKN015 05/03 Q1001 TEMPO BKN010,EGCC,2015-02-13T06:50:00Z,53.35,-2.27,5.0,3.0,150,14,,2.49,29.557087,,,,,,,,,,HZ,SCT,1000,BKN,1500,,,,,IFR,,,,,,,,,,,,METAR,78.0
EGSS 130650Z 15011KT 3000 BR BKN005 04/03 Q1007,EGSS,2015-02-13T06:50:00Z,51.88,0.22,4.0,3.0,150,11,,1.86,29.734253,,,,,,,,,,BR,BKN,500,,,,,,,IFR,,,,,,,,,,,,METAR,106.0
EGPK 130650Z 13012KT 9000 FEW017 BKN040 04/01 Q0999,EGPK,2015-02-13T06:50:00Z,55.5,-4.57,4.0,1.0,130,12,,5.59,29.498032,,,,,,,,,,,FEW,1700,BKN,4000,,,,,VFR,,,,,,,,,,,,METAR,20.0
EGPH 130650Z 16006KT 120V200 9000 SCT019 04/00 Q1000,EGPH,2015-02-13T06:50:00Z,55.95,-3.35,4.0,0.0,160,6,,5.59,29.52756,,,,,,,,,,,SCT,1900,,,,,,,VFR,,,,,,,,,,,,METAR,41.0
EGPF 130650Z AUTO 06005KT 8000 SCT020 04/01 Q0999,EGPF,2015-02-13T06:50:00Z,55.87,-4.42,4.0,1.0,60,5,,4.97,29.498032,,,TRUE,,,,,,,,SCT,2000,,,,,,,MVFR,,,,,,,,,,,,METAR,8.0
EGKK 130650Z 16008KT 6000 -RA BKN012 07/05 Q1007,EGKK,2015-02-13T06:50:00Z,51.13,-0.17,7.0,5.0,160,8,,3.73,29.734253,,,,,,,,,,-RA,BKN,1200,,,,,,,MVFR,,,,,,,,,,,,METAR,62.0
EGBB 130650Z 13013KT 3700 HZ BKN007 BKN014 05/04 Q1002,EGBB,2015-02-13T06:50:00Z,52.47,-1.75,5.0,4.0,130,13,,2.3,29.586615,,,,,,,,,,HZ,BKN,700,BKN,1400,,,,,IFR,,,,,,,,,,,,METAR,99.0
EKRN 130650Z AUTO 14007KT 8000NDV BKN009/// 02/01 Q1020,EKRN,2015-02-13T06:50:00Z,55.07,14.75,2.0,1.0,140,7,,,30.11811,,,TRUE,,,,,,,,,,,,,,,,,,,,,,,,,,,,METAR,16.0
EKEB 130650Z AUTO 14007KT 3000NDV BR BKN014/// 02/01 Q1016,EKEB,2015-02-13T06:50:00Z,55.52,8.55,2.0,1.0,140,7,,,30.0,,,TRUE,,,,,,,BR,,,,,,,,,,,,,,,,,,,,,METAR,29.0
EKAH 130650Z AUTO 22002KT 7000NDV OVC011/// 01/M01 Q1018,EKAH,2015-02-13T06:50:00Z,56.28,10.62,1.0,-1.0,220,2,,,30.059055,,,TRUE,,,,,,,,,,,,,,,,,,,,,,,,,,,,METAR,25.0
EKRK 130650Z AUTO 15005KT 4300NDV BR FEW006/// BKN009/// OVC011/// M00/M01 Q1019,EKRK,2015-02-13T06:50:00Z,55.57,12.12,0.0,-1.0,150,5,,,30.088583,,,TRUE,,,,,,,BR,,,,,,,,,,,,,,,,,,,,,METAR,44.0
EKYT 130650Z 15008KT 6000 FEW006 BKN028 BKN035 01/01 Q1017,EKYT,2015-02-13T06:50:00Z,57.1,9.87,1.0,1.0,150,8,,3.73,30.029528,,,,,,,,,,,FEW,600,BKN,2800,BKN,3500,,,MVFR,,,,,,,,,,,,METAR,3.0
EKBI 130650Z 15005KT 2000 BR BKN004 01/00 Q1017,EKBI,2015-02-13T06:50:00Z,55.72,9.15,1.0,0.0,150,5,,1.24,30.029528,,,,,,,,,,BR,BKN,400,,,,,,,LIFR,,,,,,,,,,,,METAR,66.0
EKCH 130650Z 17007KT 130V200 5000 BR FEW005 BKN007 00/M01 Q1019 TEMPO 4000,EKCH,2015-02-13T06:50:00Z,55.62,12.67,0.0,-1.0,170,7,,3.11,30.088583,,,,,,,,,,BR,FEW,500,BKN,700,,,,,IFR,,,,,,,,,,,,METAR,5.0
EGTE 130650Z 17015KT 9999 SCT020 07/06 Q1001,EGTE,2015-02-13T06:50:00Z,50.72,-3.42,7.0,6.0,170,15,,6.21,29.557087,,,,,,,,,,,SCT,2000,,,,,,,VFR,,,,,,,,,,,,METAR,30.0
EGJJ 130650Z 17018KT 9999 FEW008 07/06 Q1006 NOSIG,EGJJ,2015-02-13T06:50:00Z,49.22,-2.2,7.0,6.0,170,18,,6.21,29.704725,,,,,,TRUE,,,,,FEW,800,,,,,,,VFR,,,,,,,,,,,,METAR,84.0
EGJB 130650Z 17019KT 9999 FEW009 07/06 Q1005,EGJB,2015-02-13T06:50:00Z,49.42,-2.6,7.0,6.0,170,19,,6.21,29.675198,,,,,,,,,,,FEW,900,,,,,,,VFR,,,,,,,,,,,,METAR,102.0
LLSD 130650Z /////KT 8000 RA FEW020TCU BKN025 11/05 Q1015,LLSD,2015-02-13T06:50:00Z,32.12,34.78,11.0,5.0,,,,4.97,29.970472,,,,,,,,,,RA,FEW,2000,BKN,2500,,,,,MVFR,,,,,,,,,,,,METAR,14.0
LLIB 130650Z 14007KT 2000 -RA BR SCT005 BKN020 06/05 Q1016,LLIB,2015-02-13T06:50:00Z,32.98,35.57,6.0,5.0,140,7,,1.24,30.0,,,,,,,,,,-RA BR,SCT,500,BKN,2000,,,,,IFR,,,,,,,,,,,,METAR,282.0
LLHA 130650Z 19008KT 160V220 9999 VCFG FEW015 SCT030 BKN045 10/07 Q1015 RMK RERA,LLHA,2015-02-13T06:50:00Z,32.78,35.02,10.0,7.0,190,8,,6.21,29.970472,,,,,,,,,,VCFG,FEW,1500,SCT,3000,BKN,4500,,,VFR,,,,,,,,,,,,METAR,8.0
LLET 130650Z VRB02KT CAVOK 15/M01 Q1021 RMK BKN080,LLET,2015-02-13T06:50:00Z,29.55,34.95,15.0,-1.0,0,2,,6.21,30.147638,,,,,,,,,,,CAVOK,,,,,,,,VFR,,,,,,,,,,,,METAR,13.0
EFVA 130650Z AUTO 18003KT 9999 FEW057/// OVC069/// M02/M03 Q1016 R16/32//95,EFVA,2015-02-13T06:50:00Z,63.03,21.77,-2.0,-3.0,180,3,,6.21,30.0,,,TRUE,,,,,,,,,,,,,,,,,,,,,,,,,,,,METAR,4.0
EFTU 130650Z AUTO VRB02KT 0400 R26/0500D FZFG VV002 M02/M03 Q1019,EFTU,2015-02-13T06:50:00Z,60.52,22.27,-2.0,-3.0,0,2,,0.25,30.088583,,,TRUE,,,,,,,FZFG,OVX,0,,,,,,,LIFR,,,,,,,,,,,200,METAR,59.0
EFTP 130650Z VRB00KT CAVOK M10/M10 Q1018,EFTP,2015-02-13T06:50:00Z,61.42,23.62,-10.0,-10.0,0,0,,6.21,30.059055,,,,,,,,,,,CAVOK,,,,,,,,VFR,,,,,,,,,,,,METAR,112.0
EFRO 130650Z 26010KT 9999 FEW040 SCT240 M06/M10 Q1006,EFRO,2015-02-13T06:50:00Z,66.57,25.82,-6.0,-10.0,260,10,,6.21,29.704725,,,,,,,,,,,FEW,4000,SCT,24000,,,,,VFR,,,,,,,,,,,,METAR,201.0
EFOU 130650Z AUTO 23009KT CAVOK M02/M05 Q1012 R12/19//95,EFOU,2015-02-13T06:50:00Z,64.92,25.37,-2.0,-5.0,230,9,,6.21,29.88189,,,TRUE,,,,,,,,CAVOK,,,,,,,,VFR,,,,,,,,,,,,METAR,15.0
EFKU 130650Z 21007KT CAVOK M05/M09 Q1017,EFKU,2015-02-13T06:50:00Z,63.02,27.8,-5.0,-9.0,210,7,,6.21,30.029528,,,,,,,,,,,CAVOK,,,,,,,,VFR,,,,,,,,,,,,METAR,102.0
EFJY 130650Z VRB01KT CAVOK M11/M12 Q1017,EFJY,2015-02-13T06:50:00Z,62.4,25.68,-11.0,-12.0,0,1,,6.21,30.029528,,,,,,,,,,,CAVOK,,,,,,,,VFR,,,,,,,,,,,,METAR,145.0
EFHK 130650Z 20008KT 9999 BKN007 BKN013 01/M00 Q1019 TEMPO BKN004,EFHK,2015-02-13T06:50:00Z,60.32,24.97,1.0,0.0,200,8,,6.21,30.088583,,,,,,,,,,,BKN,700,BKN,1300,,,,,IFR,,,,,,,,,,,,METAR,56.0
BGKK 130650Z AUTO 07024KT //// VV005/// M10/M13 Q0999,BGKK,2015-02-13T06:50:00Z,65.57,-37.13,-10.0,-13.0,70,24,,,29.498032,,,TRUE,,,,,,,,,,,,,,,,,,,,,,,,,,,,METAR,34.0
BGJN 130650Z AUTO 14002KT 9999NDV NCD M24/M29 Q1009,BGJN,2015-02-13T06:50:00Z,69.25,-51.07,-24.0,-29.0,140,2,,,29.793306,,,TRUE,,,,,,,,,,,,,,,,,,,,,,,,,,,,METAR,25.0
BGGH 130650Z AUTO 35009KT 9999NDV FEW029/// SCT190/// M14/M18 Q1007,BGGH,2015-02-13T06:50:00Z,64.2,-51.68,-14.0,-18.0,350,9,,,29.734253,,,TRUE,,,,,,,,,,,,,,,,,,,,,,,,,,,,METAR,70.0
BGSF 130650Z AUTO 05004KT 020V080 9999NDV NCD M25/M28 Q1008,BGSF,2015-02-13T06:50:00Z,67.0,-50.72,-25.0,-28.0,50,4,,,29.763779,,,TRUE,,,,,,,,,,,,,,,,,,,,,,,,,,,,METAR,53.0
EDDW 130650Z 15008KT 3500 BR OVC004 00/M00 Q1018 BECMG 5000 SCT008,EDDW,2015-02-13T06:50:00Z,53.03,8.8,0.0,0.0,150,8,,2.17,30.059055,,,,,,,,,,BR,OVC,400,,,,,,,LIFR,,,,,,,,,,,,METAR,5.0
EDDP 130650Z 18008KT CAVOK M02/M03 Q1020 NOSIG,EDDP,2015-02-13T06:50:00Z,51.43,12.23,-2.0,-3.0,180,8,,6.21,30.11811,,,,,,TRUE,,,,,CAVOK,,,,,,,,VFR,,,,,,,,,,,,METAR,149.0
EDDG 130650Z 12003KT 4500 BR NSC M02/M02 Q1017 NOSIG,EDDG,2015-02-13T06:50:00Z,52.13,7.7,-2.0,-2.0,120,3,,2.8,30.029528,,,,,,TRUE,,,,BR,,,,,,,,,,,,,,,,,,,,,METAR,52.0
EDDE 130650Z 20004KT 5000 BR NSC M05/M05 Q1019 TEMPO 4000 BR,EDDE,2015-02-13T06:50:00Z,50.98,10.97,-5.0,-5.0,200,4,,3.11,30.088583,,,,,,,,,,BR,,,,,,,,,,,,,,,,,,,,,METAR,323.0
EDDK 130650Z 13010KT 8000 FEW004 SCT280 M00/M01 Q1018 NOSIG,EDDK,2015-02-13T06:50:00Z,50.87,7.15,0.0,-1.0,130,10,,4.97,30.059055,,,,,,TRUE,,,,,FEW,400,SCT,28000,,,,,MVFR,,,,,,,,,,,,METAR,99.0
KEFD 130650Z 00000KT 7SM SCT250 12/02 A3033,KEFD,2015-02-13T06:50:00Z,29.6,-95.17,12.0,2.0,0,0,,7.0,30.33071,,,,,,,,,,,SCT,25000,,,,,,,VFR,,,,,,,,,,,,METAR,10.0
ESTL 130650Z AUTO 19004KT 160V220 5000NDV BR OVC007/// 00/M01 Q1019,ESTL,2015-02-13T06:50:00Z,56.07,13.2,0.0,-1.0,190,4,,,30.088583,,,TRUE,,,,,,,BR,,,,,,,,,,,,,,,,,,,,,METAR,43.0
ESTA 130650Z 14007KT 5000 BR BKN006 00/M01 Q1019,ESTA,2015-02-13T06:50:00Z,56.28,12.83,0.0,-1.0,140,7,,3.11,30.088583,,,,,,,,,,BR,BKN,600,,,,,,,IFR,,,,,,,,,,,,METAR,47.0
ESMX 130650Z 17008KT 140V210 4400 BR OVC003 M01/M02 Q1019,ESMX,2015-02-13T06:50:00Z,56.92,14.72,-1.0,-2.0,170,8,,2.73,30.088583,,,,,,,,,,BR,OVC,300,,,,,,,LIFR,,,,,,,,,,,,METAR,186.0
ESMT 130650Z 15005KT 4100 BR BKN006 00/M01 Q1019,ESMT,2015-02-13T06:50:00Z,56.67,12.82,0.0,-1.0,150,5,,2.55,30.088583,,,,,,,,,,BR,BKN,600,,,,,,,IFR,,,,,,,,,,,,METAR,30.0
ESMS 130650Z 20007KT 5000 BR OVC006 M00/M01 Q1019 R17/11//95,ESMS,2015-02-13T06:50:00Z,55.53,13.37,0.0,-1.0,200,7,,3.11,30.088583,,,,,,,,,,BR,OVC,600,,,,,,,IFR,,,,,,,,,,,,METAR,106.0
ESMQ 130650Z 21007KT 170V230 9000 BR OVC009 01/M01 Q1020,ESMQ,2015-02-13T06:50:00Z,56.68,16.3,1.0,-1.0,210,7,,5.59,30.11811,,,,,,,,,,BR,OVC,900,,,,,,,IFR,,,,,,,,,,,,METAR,16.0
ESMK 130650Z AUTO 18005KT 150V210 9000 OVC008/// 00/M01 Q1019,ESMK,2015-02-13T06:50:00Z,55.92,14.07,0.0,-1.0,180,5,,5.59,30.088583,,,TRUE,,,,,,,,,,,,,,,,,,,,,,,,,,,,METAR,23.0
ESGT 130650Z 19007KT 9999 SCT009 BKN029 01/00 Q1018,ESGT,2015-02-13T06:50:00Z,58.32,12.33,1.0,0.0,190,7,,6.21,30.059055,,,,,,,,,,,SCT,900,BKN,2900,,,,,MVFR,,,,,,,,,,,,METAR,41.0
ESGP 130650Z 17008KT 4700 BR BKN009 BKN011 OVC013 01/M01 Q1018 REDZ R19/29//95,ESGP,2015-02-13T06:50:00Z,57.77,11.87,1.0,-1.0,170,8,,2.92,30.059055,,,,,,,,,,BR,BKN,900,BKN,1100,OVC,1300,,,IFR,,,,,,,,,,,,METAR,53.0
ESGJ 130650Z AUTO 18004KT 9999 OVC019/// M01/M02 Q1018 RESHUP,ESGJ,2015-02-13T06:50:00Z,57.77,14.07,-1.0,-2.0,180,4,,6.21,30.059055,,,TRUE,,,,,,,,,,,,,,,,,,,,,,,,,,,,METAR,232.0
ESGG 130650Z 20009KT 4000 -FZDZ BKN004 M01/M02 Q1017 R21/29//95,ESGG,2015-02-13T06:50:00Z,57.67,12.3,-1.0,-2.0,200,9,,2.49,30.029528,,,,,,,,,,-FZDZ,BKN,400,,,,,,,LIFR,,,,,,,,,,,,METAR,169.0
LLBG 130650Z 19014KT 9999 SCT045 11/03 Q1017 TEMPO RA FEW025TCU RMK SCT070,LLBG,2015-02-13T06:50:00Z,32.0,34.88,11.0,3.0,190,14,,6.21,30.029528,,,,,,,,,,,SCT,4500,,,,,,,VFR,,,,,,,,,,,,METAR,49.0
EKSP 130650Z 15007KT 2000 BR BKN005 BKN014 01/00 Q1017 TEMPO 4000,EKSP,2015-02-13T06:50:00Z,55.22,9.27,1.0,0.0,150,7,,1.24,30.029528,,,,,,,,,,BR,BKN,500,BKN,1400,,,,,IFR,,,,,,,,,,,,METAR,40.0
EKKA 130650Z 15005KT 3000 -DZ BR FEW004 SCT005 BKN012 01/01 Q1016 TEMPO 5000 FEW005 BKN015,EKKA,2015-02-13T06:50:00Z,56.3,9.12,1.0,1.0,150,5,,1.86,30.0,,,,,,,,,,-DZ BR,FEW,400,SCT,500,BKN,1200,,,IFR,,,,,,,,,,,,METAR,52.0
EVVA 130650Z AUTO 20007KT 8000 OVC011 02/01 Q1022,EVVA,2015-02-13T06:50:00Z,57.35,21.55,2.0,1.0,200,7,,4.97,30.177166,,,TRUE,,,,,,,,OVC,1100,,,,,,,MVFR,,,,,,,,,,,,METAR,6.0
KHRI 130650Z AUTO 00000KT 1 3/4SM BR CLR 03/02 A3030 RMK AO2,KHRI,2015-02-13T06:50:00Z,45.83,-119.27,3.0,2.0,0,0,,1.75,30.301182,,,TRUE,TRUE,,,,,,BR,CLR,,,,,,,,IFR,,,,,,,,,,,,SPECI,195.0
KDAG 130650Z AUTO 26005KT 10SM CLR 11/M05 A3019 RMK AO2 SLP211 T01111050,KDAG,2015-02-13T06:50:00Z,34.85,-116.78,11.1,-5.0,260,5,,10.0,30.188976,1021.1,,TRUE,TRUE,,,,,,,CLR,,,,,,,,VFR,,,,,,,,,,,,SPECI,587.0
ETNG 130650Z 10005KT 6000 FEW250 M00/M01 Q1016 TEMPO 4500 BR,ETNG,2015-02-13T06:50:00Z,50.97,6.03,0.0,-1.0,100,5,,3.73,30.0,,,,,,,,,,,FEW,25000,,,,,,,MVFR,,,,,,,,,,,,METAR,98.0
PAHN 130650Z AUTO 29010KT 10SM -RA SCT021 BKN034 OVC041 01/00 A2975 RMK AO2 P0004 TSNO,PAHN,2015-02-13T06:50:00Z,59.25,-135.52,1.0,0.0,290,10,,10.0,29.749016,,,TRUE,TRUE,,,TRUE,,,-RA,SCT,2100,BKN,3400,OVC,4100,,,VFR,,,,,,0.04,,,,,,SPECI,5.0
EDVK 130650Z 16004KT 4000 BR OVC007 M01/M02 Q1019 RMK ATIS E,EDVK,2015-02-13T06:50:00Z,51.38,9.37,-1.0,-2.0,160,4,,2.49,30.088583,,,,,,,,,,BR,OVC,700,,,,,,,IFR,,,,,,,,,,,,SPECI,285.0
EDQM 130650Z 20006KT 1800 BR OVC003 M05/M06 Q1020,EDQM,2015-02-13T06:50:00Z,50.3,11.85,-5.0,-6.0,200,6,,1.12,30.11811,,,,,,,,,,BR,OVC,300,,,,,,,LIFR,,,,,,,,,,,,METAR,568.0
EDOP 130650Z 20006KT 4000 BR OVC004 M01/M02 Q1020,EDOP,2015-02-13T06:50:00Z,53.43,11.78,-1.0,-2.0,200,6,,2.49,30.11811,,,,,,,,,,BR,OVC,400,,,,,,,LIFR,,,,,,,,,,,,METAR,51.0
EDNY 130650Z 02004KT 0650 R24/1000VP2000D FZFG VV/// M04/M05 Q1021 RMK ATIS E,EDNY,2015-02-13T06:50:00Z,47.67,9.52,-4.0,-5.0,20,4,,0.4,30.147638,,,,,,,,,,FZFG,OVX,0,,,,,,,LIFR,,,,,,,,,,,,SPECI,424.0
EDMO 130650Z 20003KT 0500 FZFG VV/// M08/M09 Q1020 RMK ATIS C,EDMO,2015-02-13T06:50:00Z,48.07,11.27,-8.0,-9.0,200,3,,0.31,30.11811,,,,,,,,,,FZFG,OVX,0,,,,,,,LIFR,,,,,,,,,,,,METAR,600.0
EDMA 130650Z 12004KT 080V160 0500 R25/1100N FZFG OVC001 M03/M03 Q1021 RESG RMK ATIS GOL,EDMA,2015-02-13T06:50:00Z,48.42,10.92,-3.0,-3.0,120,4,,0.31,30.147638,,,,,,,,,,FZFG,OVC,100,,,,,,,LIFR,,,,,,,,,,,,METAR,463.0
EDLW 130650Z 15007KT CAVOK M00/M03 Q1017 RMK ATIS F,EDLW,2015-02-13T06:50:00Z,51.52,7.62,0.0,-3.0,150,7,,6.21,30.029528,,,,,,,,,,,CAVOK,,,,,,,,VFR,,,,,,,,,,,,METAR,127.0
EDLN 130650Z 14007KT 110V170 5000 BR NSC 00/M00 Q1017 RMK ATIS B,EDLN,2015-02-13T06:50:00Z,51.23,6.5,0.0,0.0,140,7,,3.11,30.029528,,,,,,,,,,BR,,,,,,,,,,,,,,,,,,,,,METAR,38.0
EDHL 130650Z 16004KT 3500 BR BKN004 00/M00 Q1019 RMK ATIS ECH,EDHL,2015-02-13T06:50:00Z,53.8,10.72,0.0,0.0,160,4,,2.17,30.088583,,,,,,,,,,BR,BKN,400,,,,,,,LIFR,,,,,,,,,,,,METAR,16.0
EDHI 130650Z 15006KT 4000 BR OVC005 01/01 Q1018,EDHI,2015-02-13T06:50:00Z,53.53,9.83,1.0,1.0,150,6,,2.49,30.059055,,,,,,,,,,BR,OVC,500,,,,,,,IFR,,,,,,,,,,,,METAR,13.0
EDFH 130650Z 14015KT 0100 R21/0375N FZFG VV/// M02/M03 Q1017,EDFH,2015-02-13T06:50:00Z,49.95,7.27,-2.0,-3.0,140,15,,0.06,30.029528,,,,,,,,,,FZFG,OVX,0,,,,,,,LIFR,,,,,,,,,,,,METAR,498.0
EDDV 130650Z 14008KT 6000 FEW009 M01/M02 Q1018 NOSIG,EDDV,2015-02-13T06:50:00Z,52.47,9.68,-1.0,-2.0,140,8,,3.73,30.059055,,,,,,TRUE,,,,,FEW,900,,,,,,,MVFR,,,,,,,,,,,,METAR,54.0
EDDT 130650Z 18007KT 6000 BKN006 M00/M01 Q1020 TEMPO 4500 BR,EDDT,2015-02-13T06:50:00Z,52.57,13.32,0.0,-1.0,180,7,,3.73,30.11811,,,,,,,,,,,BKN,600,,,,,,,IFR,,,,,,,,,,,,SPECI,37.0
EDDS 130650Z 09004KT 4500 BR NSC M05/M05 Q1020 NOSIG,EDDS,2015-02-13T06:50:00Z,48.67,9.22,-5.0,-5.0,90,4,,2.8,30.11811,,,,,,TRUE,,,,BR,,,,,,,,,,,,,,,,,,,,,METAR,419.0
EDDR 130650Z 08006KT 0400 R09/0750D FZFG VV/// M03/M03 Q1019 NOSIG,EDDR,2015-02-13T06:50:00Z,49.22,7.1,-3.0,-3.0,80,6,,0.25,30.088583,,,,,,TRUE,,,,FZFG,OVX,0,,,,,,,LIFR,,,,,,,,,,,,SPECI,320.0
EDDN 130650Z 12007KT 090V150 5000 BR OVC005 M01/M02 Q1021 NOSIG,EDDN,2015-02-13T06:50:00Z,49.5,11.08,-1.0,-2.0,120,7,,3.11,30.147638,,,,,,TRUE,,,,BR,OVC,500,,,,,,,IFR,,,,,,,,,,,,METAR,312.0
EDDM 130650Z 10005KT 0300 R08L/0600N R08R/0600N FZFG VV/// M04/M04 Q1021 TEMPO 0600,EDDM,2015-02-13T06:50:00Z,48.35,11.82,-4.0,-4.0,100,5,,0.19,30.147638,,,,,,,,,,FZFG,OVX,0,,,,,,,LIFR,,,,,,,,,,,,METAR,447.0
EDDL 130650Z 15015KT 8000 NSC 01/M01 Q1017 NOSIG,EDDL,2015-02-13T06:50:00Z,51.3,6.77,1.0,-1.0,150,15,,4.97,30.029528,,,,,,TRUE,,,,,,,,,,,,,,,,,,,,,,,,,METAR,44.0
EDDH 130650Z 15007KT 3500 BR OVC004 01/00 Q1018 TEMPO 2500,EDDH,2015-02-13T06:50:00Z,53.63,10.0,1.0,0.0,150,7,,2.17,30.059055,,,,,,,,,,BR,OVC,400,,,,,,,LIFR,,,,,,,,,,,,METAR,16.0
EDDF 130650Z 14004KT 4000 BR OVC004 M00/M01 Q1021 NOSIG,EDDF,2015-02-13T06:50:00Z,50.05,8.6,0.0,-1.0,140,4,,2.49,30.147638,,,,,,TRUE,,,,BR,OVC,400,,,,,,,LIFR,,,,,,,,,,,,METAR,113.0
EDDC 130650Z 15009KT CAVOK 01/M02 Q1020 NOSIG,EDDC,2015-02-13T06:50:00Z,51.13,13.75,1.0,-2.0,150,9,,6.21,30.11811,,,,,,TRUE,,,,,CAVOK,,,,,,,,VFR,,,,,,,,,,,,METAR,226.0
EDDB 130650Z 17006KT 4600 BR SCT008 M03/M03 Q1021 TEMPO BKN008,EDDB,2015-02-13T06:50:00Z,52.38,13.53,-3.0,-3.0,170,6,,2.86,30.147638,,,,,,,,,,BR,SCT,800,,,,,,,IFR,,,,,,,,,,,,SPECI,48.0
KQFX 130650Z AUTO 36004KT 9999 CLR 04/M16 A3006 RMK A02 TSNO,KQFX,2015-02-13T06:50:00Z,100.65,-1000.65,4.0,-16.0,360,4,,6.21,30.059055,,,TRUE,TRUE,,,TRUE,,,,CLR,,,,,,,,VFR,,,,,,,,,,,,METAR,999.0
KQFV 130650Z AUTO 31007G11KT 9999 CLR 02/M15 A2999 RMK A02 TSNO,KQFV,2015-02-13T06:50:00Z,100.65,-1000.65,2.0,-15.0,310,7,11,6.21,29.991142,,,TRUE,TRUE,,,TRUE,,,,CLR,,,,,,,,VFR,,,,,,,,,,,,METAR,999.0
KQFU 130650Z AUTO 08005G10KT 9999 CLR 03/M15 A3007 RMK A02 TSNO,KQFU,2015-02-13T06:50:00Z,100.65,-1000.65,3.0,-15.0,80,5,10,6.21,30.070866,,,TRUE,TRUE,,,TRUE,,,,CLR,,,,,,,,VFR,,,,,,,,,,,,METAR,999.0
KQFT 130650Z AUTO 28006G15KT 9999 CLR 04/M15 A3006 RMK A02 TSNO,KQFT,2015-02-13T06:50:00Z,100.65,-1000.65,4.0,-15.0,280,6,15,6.21,30.059055,,,TRUE,TRUE,,,TRUE,,,,CLR,,,,,,,,VFR,,,,,,,,,,,,METAR,999.0
KQFB 130650Z AUTO 30009G17KT 9999 CLR 05/M17 A3007 RMK A02 TSNO,KQFB,2015-02-13T06:50:00Z,100.65,-1000.65,5.0,-17.0,300,9,17,6.21,30.070866,,,TRUE,TRUE,,,TRUE,,,,CLR,,,,,,,,VFR,,,,,,,,,,,,METAR,999.0
KQEY 130650Z AUTO 33005G14KT 9999 CLR 03/M13 A3006 RMK A02 TSNO,KQEY,2015-02-13T06:50:00Z,100.65,-1000.65,3.0,-13.0,330,5,14,6.21,30.059055,,,TRUE,TRUE,,,TRUE,,,,CLR,,,,,,,,VFR,,,,,,,,,,,,METAR,999.0
KQEX 130650Z AUTO 31008G15KT 9999 CLR 05/M15 A3007 RMK A02 TSNO,KQEX,2015-02-13T06:50:00Z,100.65,-1000.65,5.0,-15.0,310,8,15,6.21,30.070866,,,TRUE,TRUE,,,TRUE,,,,CLR,,,,,,,,VFR,,,,,,,,,,,,METAR,999.0
KQEW 130650Z AUTO 28014G24KT 9999 CLR 04/M15 A3003 RMK A02 TSNO,KQEW,2015-02-13T06:50:00Z,100.65,-1000.65,4.0,-15.0,280,14,24,6.21,30.029528,,,TRUE,TRUE,,,TRUE,,,,CLR,,,,,,,,VFR,,,,,,,,,,,,METAR,999.0
KQEV 130650Z AUTO 33005G13KT 9999 CLR 05/M14 A3010 RMK A02 TSNO,KQEV,2015-02-13T06:50:00Z,100.65,-1000.65,5.0,-14.0,330,5,13,6.21,30.100393,,,TRUE,TRUE,,,TRUE,,,,CLR,,,,,,,,VFR,,,,,,,,,,,,METAR,999.0
KQES 130650Z AUTO 9999 CLR 02/M09 A3016 RMK A02 TSNO,KQES,2015-02-13T06:50:00Z,100.65,-1000.65,2.0,-9.0,,,,6.21,30.159449,,,TRUE,TRUE,,,TRUE,,,,CLR,,,,,,,,VFR,,,,,,,,,,,,METAR,999.0
KQER 130650Z AUTO 8000 /CLR M06/M11 / RMK A02 TSNO,KQER,2015-02-13T06:50:00Z,100.65,-1000.65,-6.0,-11.0,,,,4.97,,,,TRUE,TRUE,,,TRUE,,,,CLR,,,,,,,,MVFR,,,,,,,,,,,,METAR,999.0
KQEQ 130650Z AUTO 25005G12KT 9999 CLR 03/M14 A2995 RMK A02 TSNO,KQEQ,2015-02-13T06:50:00Z,100.65,-1000.65,3.0,-14.0,250,5,12,6.21,29.949802,,,TRUE,TRUE,,,TRUE,,,,CLR,,,,,,,,VFR,,,,,,,,,,,,METAR,999.0
KQEP 130650Z AUTO 29009G16KT 9999 CLR 03/M16 A3002 RMK A02 TSNO,KQEP,2015-02-13T06:50:00Z,100.65,-1000.65,3.0,-16.0,290,9,16,6.21,30.02067,,,TRUE,TRUE,,,TRUE,,,,CLR,,,,,,,,VFR,,,,,,,,,,,,METAR,999.0
KQEN 130650Z AUTO 9999 CLR M05/M18 / RMK A02 TSNO,KQEN,2015-02-13T06:50:00Z,100.65,-1000.65,-5.0,-18.0,,,,6.21,,,,TRUE,TRUE,,,TRUE,,,,CLR,,,,,,,,VFR,,,,,,,,,,,,METAR,999.0
KQEL 130650Z AUTO 24009KT 9999 CLR 04/M15 A3008 RMK A02 TSNO,KQEL,2015-02-13T06:50:00Z,100.65,-1000.65,4.0,-15.0,240,9,,6.21,30.079725,,,TRUE,TRUE,,,TRUE,,,,CLR,,,,,,,,VFR,,,,,,,,,,,,METAR,999.0
KQEJ 130650Z AUTO 23007G12KT 9999 CLR 02/M16 A2997 RMK A02 TSNO,KQEJ,2015-02-13T06:50:00Z,100.65,-1000.65,2.0,-16.0,230,7,12,6.21,29.970472,,,TRUE,TRUE,,,TRUE,,,,CLR,,,,,,,,VFR,,,,,,,,,,,,METAR,999.0
KQEI 130650Z AUTO 23004G11KT 9999 CLR 03/M16 A3001 RMK A02 TSNO,KQEI,2015-02-13T06:50:00Z,100.65,-1000.65,3.0,-16.0,230,4,11,6.21,30.008858,,,TRUE,TRUE,,,TRUE,,,,CLR,,,,,,,,VFR,,,,,,,,,,,,METAR,999.0
LSZA 130650Z VRB01KT 3000 BR OVC028 03/01 Q1024 NOSIG,LSZA,2015-02-13T06:50:00Z,46.0,8.92,3.0,1.0,0,1,,1.86,30.236221,,,,,,TRUE,,,,BR,OVC,2800,,,,,,,IFR,,,,,,,,,,,,METAR,276.0
LSZB 130650Z 00000KT CAVOK M05/M06 Q1020 NOSIG,LSZB,2015-02-13T06:50:00Z,46.92,7.5,-5.0,-6.0,0,0,,6.21,30.11811,,,,,,TRUE,,,,,CAVOK,,,,,,,,VFR,,,,,,,,,,,,METAR,505.0
LSGG 130650Z 29002KT 0600 R05/P2000D R23/0700N FZFG FEW002 SCT080 M02/M02 Q1021 BECMG 0800,LSGG,2015-02-13T06:50:00Z,46.25,6.12,-2.0,-2.0,290,2,,0.37,30.147638,,,,,,,,,,FZFG,FEW,200,SCT,8000,,,,,LIFR,,,,,,,,,,,,METAR,416.0
LSZH 130650Z VRB02KT 0500 R14/0750N R16/0800U R28/0600D R34/0700N FZFG VV002 M05/M05 Q1021 TEMPO 0400,LSZH,2015-02-13T06:50:00Z,47.48,8.53,-5.0,-5.0,0,2,,0.31,30.147638,,,,,,,,,,FZFG,OVX,0,,,,,,,LIFR,,,,,,,,,,,200,METAR,432.0
EYSA 130650Z 18007KT 4900 BR OVC009 M01/M01 Q1024 R14L/29//95 R14R/29//95,EYSA,2015-02-13T06:50:00Z,55.9,23.4,-1.0,-1.0,180,7,,3.04,30.236221,,,,,,,,,,BR,OVC,900,,,,,,,IFR,,,,,,,,,,,,SPECI,135.0
OAKB 130650Z 34008KT 9999 SCT090 13/02 Q1020 NOSIG RMK BLU BLU,OAKB,2015-02-13T06:50:00Z,34.55,69.22,13.0,2.0,340,8,,6.21,30.11811,,,,,,TRUE,,,,,SCT,9000,,,,,,,VFR,,,,,,,,,,,,METAR,1791.0
UKLN 130650Z 00000MPS 3600 BR SKC M04/M05 Q1028 1509//70 NOSIG,UKLN,2015-02-13T06:50:00Z,48.27,25.98,-4.0,-5.0,0,0,,2.24,30.35433,,,,,,TRUE,,,,BR,SKC,,,,,,,,IFR,,,,,,,,,,,,METAR,252.0
EYVI 130650Z 20006KT 2600 BR OVC007 M02/M03 Q1024 R20/2///95 NOSIG,EYVI,2015-02-13T06:50:00Z,54.63,25.28,-2.0,-3.0,200,6,,1.62,30.236221,,,,,,TRUE,,,,BR,OVC,700,,,,,,,IFR,,,,,,,,,,,,METAR,197.0
PTKR 130650Z 05016KT 15SM FEW017 SCT120 BKN300 31/22 A2979 RMK SLP087 T03060224,PTKR,2015-02-13T06:50:00Z,7.33,134.48,30.6,22.4,50,16,,15.0,29.790354,1008.7,,,,,,,,,,FEW,1700,SCT,12000,BKN,30000,,,VFR,,,,,,,,,,,,METAR,30.0
EYPA 130650Z 17008KT 5000 BR BKN012 01/M01 Q1023 R19/0///95,EYPA,2015-02-13T06:50:00Z,55.97,21.08,1.0,-1.0,170,8,,3.11,30.206694,,,,,,,,,,BR,BKN,1200,,,,,,,MVFR,,,,,,,,,,,,METAR,10.0
PGRO 130650Z 03014KT 7SM FEW032 BKN120 27/19 A2986,PGRO,2015-02-13T06:50:00Z,14.18,145.25,27.0,19.0,30,14,,7.0,29.861221,,,,,,,,,,,FEW,3200,BKN,12000,,,,,VFR,,,,,,,,,,,,METAR,185.0
CYYD 130650Z AUTO 00000KT 3SM BR BKN015 BKN060 OVC073 01/01 A3001 RMK SLP183,CYYD,2015-02-13T06:50:00Z,54.82,-127.18,1.0,1.0,0,0,,3.0,30.008858,1018.3,,TRUE,,,,,,,BR,BKN,1500,BKN,6000,OVC,7300,,,MVFR,,,,,,,,,,,,SPECI,523.0
CYBC 130650Z AUTO 28003KT 6SM -SN OVC024 M17/M19 A2970 RMK SLP059,CYBC,2015-02-13T06:50:00Z,49.12,-68.2,-17.0,-19.0,280,3,,6.0,29.698818,1005.9,,TRUE,,,,,,,-SN,OVC,2400,,,,,,,MVFR,,,,,,,,,,,,SPECI,22.0
EETN 130650Z 19006KT 9999 OVC019 01/00 Q1020 R08/290195 NOSIG,EETN,2015-02-13T06:50:00Z,59.4,24.82,1.0,0.0,190,6,,6.21,30.11811,,,,,,TRUE,,,,,OVC,1900,,,,,,,MVFR,,,,,,,,,,,,METAR,40.0
YMIA 130650Z AUTO 19015G25KT 140V200 9000 // SCT057 OVC115 30/14 Q1015,YMIA,2015-02-13T06:50:00Z,-34.23,142.08,30.0,14.0,190,15,25,5.59,29.970472,,,TRUE,,,,,,,,SCT,5700,OVC,11500,,,,,VFR,,,,,,,,,,,,SPECI,51.0
CYLW 130650Z AUTO 34006KT 340V050 2 1/4SM BR FEW002 BKN027 04/04 A3030 RMK SLP275,CYLW,2015-02-13T06:50:00Z,49.95,-119.37,4.0,4.0,340,6,,2.25,30.301182,1027.5,,TRUE,,,,,,,BR,FEW,200,BKN,2700,,,,,IFR,,,,,,,,,,,,SPECI,430.0
EYKA 130650Z 15004KT 110V180 7000 OVC012 M01/M04 Q1025 R08/190095,EYKA,2015-02-13T06:50:00Z,54.97,24.08,-1.0,-4.0,150,4,,4.35,30.265747,,,,,,,,,,,OVC,1200,,,,,,,MVFR,,,,,,,,,,,,METAR,77.0
EKVG 130650Z AUTO VRB05KT 9999NDV BKN023/// BKN078/// 05/02 Q0999,EKVG,2015-02-13T06:50:00Z,62.07,-7.3,5.0,2.0,0,5,,,29.498032,,,TRUE,,,,,,,,,,,,,,,,,,,,,,,,,,,,METAR,85.0
EVRA 130650Z 20005KT 7000 -SN BKN004 OVC017 00/00 Q1023 RESN R18/550195 BECMG OVC005,EVRA,2015-02-13T06:50:00Z,56.92,23.97,0.0,0.0,200,5,,4.35,30.206694,,,,,,,,,,-SN,BKN,400,OVC,1700,,,,,LIFR,,,,,,,,,,,,METAR,10.0
VECC 130650Z 36006KT 2700 HZ SCT100 26/13 Q1012 NOSIG,VECC,2015-02-13T06:50:00Z,22.65,88.43,26.0,13.0,360,6,,1.68,29.88189,,,,,,TRUE,,,,HZ,SCT,10000,,,,,,,IFR,,,,,,,,,,,,METAR,6.0
EGSD 130650Z 14007G18KT 2000 -RA BKN008 05/04 Q1010,EGSD,2015-02-13T06:50:00Z,52.63,1.72,5.0,4.0,140,7,18,1.24,29.822834,,,,,,,,,,-RA,BKN,800,,,,,,,IFR,,,,,,,,,,,,METAR,2.0
EDVE 130650Z 14005KT 5000 BR OVC004 M01/M01 Q1019,EDVE,2015-02-13T06:50:00Z,52.32,10.55,-1.0,-1.0,140,5,,3.11,30.088583,,,,,,,,,,BR,OVC,400,,,,,,,LIFR,,,,,,,,,,,,METAR,88.0
EDLP 130650Z 14002KT CAVOK M02/M03 Q1017 RMK ATIS GOL,EDLP,2015-02-13T06:50:00Z,51.62,8.62,-2.0,-3.0,140,2,,6.21,30.029528,,,,,,,,,,,CAVOK,,,,,,,,VFR,,,,,,,,,,,,METAR,213.0
LATI 130650Z VRB02KT CAVOK 01/M04 Q1025 NOSIG,LATI,2015-02-13T06:50:00Z,41.42,19.72,1.0,-4.0,0,2,,6.21,30.265747,,,,,,TRUE,,,,,CAVOK,,,,,,,,VFR,,,,,,,,,,,,METAR,90.0
LSMM 130650Z 10003KT 1500 FZFG NSC M09/M10 Q1021 RMK AMB,LSMM,2015-02-13T06:50:00Z,46.75,8.12,-9.0,-10.0,100,3,,0.93,30.147638,,,,,,,,,,FZFG,,,,,,,,,,,,,,,,,,,,,METAR,577.0
EGPO 130650Z 15007KT 130V200 9999 FEW027 SCT040 06/02 Q0997,EGPO,2015-02-13T06:50:00Z,58.22,-6.32,6.0,2.0,150,7,,6.21,29.438976,,,,,,,,,,,FEW,2700,SCT,4000,,,,,VFR,,,,,,,,,,,,METAR,13.0
EGPL 130650Z AUTO 15019KT 9999 FEW014/// BKN017/// 07/05 Q0995,EGPL,2015-02-13T06:50:00Z,57.47,-7.37,7.0,5.0,150,19,,6.21,29.379921,,,TRUE,,,,,,,,,,,,,,,,,,,,,,,,,,,,METAR,6.0
EGPC 130650Z AUTO 19012KT 150V220 9000 NCD 04/02 Q1001,EGPC,2015-02-13T06:50:00Z,58.45,-3.07,4.0,2.0,190,12,,5.59,29.557087,,,TRUE,,,,,,,,,,,,,,,,,,,,,,,,,,,,METAR,39.0
EGPA 130650Z 18011KT 9999 FEW012 06/04 Q1000,EGPA,2015-02-13T06:50:00Z,58.95,-2.88,6.0,4.0,180,11,,6.21,29.52756,,,,,,,,,,,FEW,1200,,,,,,,VFR,,,,,,,,,,,,METAR,21.0
LSMP 130650Z VRB01KT 0200 R05/0600V1100U R23/0450N FZFG VV001 M04/M04 Q1021 RMK RED,LSMP,2015-02-13T06:50:00Z,46.82,6.92,-4.0,-4.0,0,1,,0.12,30.147638,,,,,,,,,,FZFG,OVX,0,,,,,,,LIFR,,,,,,,,,,,100,METAR,491.0
EGPN 130650Z 10006KT 060V170 9999 FEW024 04/01 Q1001,EGPN,2015-02-13T06:50:00Z,56.45,-3.02,4.0,1.0,100,6,,6.21,29.557087,,,,,,,,,,,FEW,2400,,,,,,,VFR,,,,,,,,,,,,METAR,4.0
EGPE 130650Z 18011KT 140V200 9999 FEW012 05/00 Q1000,EGPE,2015-02-13T06:50:00Z,57.52,-4.03,5.0,0.0,180,11,,6.21,29.52756,,,,,,,,,,,FEW,1200,,,,,,,VFR,,,,,,,,,,,,METAR,9.0
EGNR 130650Z 14008KT 9999 OVC009 05/04 Q1000,EGNR,2015-02-13T06:50:00Z,53.17,-2.97,5.0,4.0,140,8,,6.21,29.52756,,,,,,,,,,,OVC,900,,,,,,,IFR,,,,,,,,,,,,METAR,10.0
EGNJ 130650Z 15015KT 4500 HZ FEW012 SCT033 05/03 Q1006,EGNJ,2015-02-13T06:50:00Z,53.57,-0.35,5.0,3.0,150,15,,2.8,29.704725,,,,,,,,,,HZ,FEW,1200,SCT,3300,,,,,IFR,,,,,,,,,,,,METAR,31.0
EGNH 130650Z 13016KT 7000 SCT011 05/03 Q1000,EGNH,2015-02-13T06:50:00Z,53.77,-3.02,5.0,3.0,130,16,,4.35,29.52756,,,,,,,,,,,SCT,1100,,,,,,,MVFR,,,,,,,,,,,,METAR,10.0
EGPM 130650Z 15012KT 9999 -RA FEW014 BKN023 06/03 Q1002 NOSIG,EGPM,2015-02-13T06:50:00Z,60.42,-1.3,6.0,3.0,150,12,,6.21,29.586615,,,,,,TRUE,,,,-RA,FEW,1400,BKN,2300,,,,,MVFR,,,,,,,,,,,,METAR,22.0
LSMS 130650Z 07003KT CAVOK M02/M03 Q1021,LSMS,2015-02-13T06:50:00Z,46.22,7.32,-2.0,-3.0,70,3,,6.21,30.147638,,,,,,,,,,,CAVOK,,,,,,,,VFR,,,,,,,,,,,,METAR,481.0
ESSD 130650Z VRB01KT 7000 BCFG BKN020 M07/M07 Q1016,ESSD,2015-02-13T06:50:00Z,60.42,15.5,-7.0,-7.0,0,1,,4.35,30.0,,,,,,,,,,BCFG,BKN,2000,,,,,,,MVFR,,,,,,,,,,,,METAR,161.0
ESSB 130650Z 19003KT 7000 BR OVC023 01/00 Q1018 R12/19//68,ESSB,2015-02-13T06:50:00Z,59.35,17.93,1.0,0.0,190,3,,4.35,30.059055,,,,,,,,,,BR,OVC,2300,,,,,,,MVFR,,,,,,,,,,,,METAR,11.0
ESSA 130650Z 17004KT 3900 BR BKN024 M00/M00 Q1017 R01L/19//65 R08/19//59 R01R/19//61 BECMG OVC025,ESSA,2015-02-13T06:50:00Z,59.63,17.93,0.0,0.0,170,4,,2.42,30.029528,,,,,,,,,,BR,BKN,2400,,,,,,,IFR,,,,,,,,,,,,METAR,61.0
ESOW 130650Z VRB03KT 000V360 3500 BR BKN010 M00/M01 Q1018 R19/71//51,ESOW,2015-02-13T06:50:00Z,59.57,16.62,0.0,-1.0,0,3,,2.17,30.059055,,,,,,,,,,BR,BKN,1000,,,,,,,IFR,,,,,,,,,,,,METAR,31.0
ESOK 130650Z 20006KT 4800 BR BKN003 BKN032 01/01 Q1016,ESOK,2015-02-13T06:50:00Z,59.45,13.33,1.0,1.0,200,6,,2.98,30.0,,,,,,,,,,BR,BKN,300,BKN,3200,,,,,LIFR,,,,,,,,,,,,METAR,107.0
ESOE 130650Z 20005KT 9000 OVC021 02/01 Q1017,ESOE,2015-02-13T06:50:00Z,59.22,15.05,2.0,1.0,200,5,,5.59,30.029528,,,,,,,,,,,OVC,2100,,,,,,,MVFR,,,,,,,,,,,,METAR,57.0
ESKN 130650Z 23006KT 9999 BKN024 01/M00 Q1018 R26/12//95,ESKN,2015-02-13T06:50:00Z,58.78,16.9,1.0,0.0,230,6,,6.21,30.059055,,,,,,,,,,,BKN,2400,,,,,,,MVFR,,,,,,,,,,,,METAR,43.0
ESSP 130650Z 20005KT 9999 OVC023 01/00 Q1018 R27/09//95,ESSP,2015-02-13T06:50:00Z,58.57,16.25,1.0,0.0,200,5,,6.21,30.059055,,,,,,,,,,,OVC,2300,,,,,,,MVFR,,,,,,,,,,,,METAR,8.0
EGCN 130650Z 14011KT 4500 HZ BKN008 03/02 Q1006,EGCN,2015-02-13T06:50:00Z,53.48,-1.0,3.0,2.0,140,11,,2.8,29.704725,,,,,,,,,,HZ,BKN,800,,,,,,,IFR,,,,,,,,,,,,METAR,17.0
EGAE 130650Z 15014KT 7000 RA SCT015 BKN039 07/05 Q0991,EGAE,2015-02-13T06:50:00Z,55.03,-7.15,7.0,5.0,150,14,,4.35,29.26181,,,,,,,,,,RA,SCT,1500,BKN,3900,,,,,MVFR,,,,,,,,,,,,METAR,9.0
ESSV 130650Z 20007KT 9999 BKN012 01/01 Q1020 R21/19//63,ESSV,2015-02-13T06:50:00Z,57.67,18.35,1.0,1.0,200,7,,6.21,30.11811,,,,,,,,,,,BKN,1200,,,,,,,MVFR,,,,,,,,,,,,METAR,47.0
ESNL 130650Z VRB03KT CAVOK M04/M10 Q1012,ESNL,2015-02-13T06:50:00Z,64.55,18.72,-4.0,-10.0,0,3,,6.21,29.88189,,,,,,,,,,,CAVOK,,,,,,,,VFR,,,,,,,,,,,,METAR,214.0
ESGR 130650Z AUTO 18006KT 9999 OVC029/// 01/01 Q1017,ESGR,2015-02-13T06:50:00Z,58.45,13.97,1.0,1.0,180,6,,6.21,30.029528,,,TRUE,,,,,,,,,,,,,,,,,,,,,,,,,,,,METAR,105.0
ESSL 130650Z 19004KT 150V220 9999 OVC025 01/M00 Q1018 R29/09//95,ESSL,2015-02-13T06:50:00Z,58.38,15.67,1.0,0.0,190,4,,6.21,30.059055,,,,,,,,,,,OVC,2500,,,,,,,MVFR,,,,,,,,,,,,METAR,52.0
ESPE 130650Z AUTO 26004KT 9999NDV SCT025/// OVC070/// M04/M07 Q1010,ESPE,2015-02-13T06:50:00Z,65.88,20.15,-4.0,-7.0,260,4,,,29.822834,,,TRUE,,,,,,,,,,,,,,,,,,,,,,,,,,,,METAR,182.0
ESPA 130650Z 25005KT CAVOK M04/M09 Q1011,ESPA,2015-02-13T06:50:00Z,65.53,22.12,-4.0,-9.0,250,5,,6.21,29.852362,,,,,,,,,,,CAVOK,,,,,,,,VFR,,,,,,,,,,,,METAR,34.0
ESIB 130650Z 20009KT 9999 BKN009 BKN030 01/M00 Q1018,ESIB,2015-02-13T06:50:00Z,58.42,12.68,1.0,0.0,200,9,,6.21,30.059055,,,,,,,,,,,BKN,900,BKN,3000,,,,,IFR,,,,,,,,,,,,METAR,74.0
ESDF 130650Z 17006KT 9999 OVC011 01/M01 Q1020,ESDF,2015-02-13T06:50:00Z,56.27,15.27,1.0,-1.0,170,6,,6.21,30.11811,,,,,,,,,,,OVC,1100,,,,,,,MVFR,,,,,,,,,,,,METAR,74.0
ESCF 130650Z 18003KT 9999 FEW010 OVC025 01/00 Q1018,ESCF,2015-02-13T06:50:00Z,58.38,15.52,1.0,0.0,180,3,,6.21,30.059055,,,,,,,,,,,FEW,1000,OVC,2500,,,,,MVFR,,,,,,,,,,,,METAR,117.0
KQRB 130650Z 10001KT 6000 BR CLR 23/23 A2993 RMK AO2A SLP134 T02340231,KQRB,2015-02-13T06:50:00Z,100.65,-1000.65,23.4,23.1,100,1,,3.73,29.929134,1013.4,,,TRUE,,,,,,BR,CLR,,,,,,,,MVFR,,,,,,,,,,,,METAR,999.0
EGSH 130650Z 15012KT 3000 HZ SCT007 BKN041 05/04 Q1009 NOSIG,EGSH,2015-02-13T06:50:00Z,52.68,1.28,5.0,4.0,150,12,,1.86,29.793306,,,,,,TRUE,,,,HZ,SCT,700,BKN,4100,,,,,IFR,,,,,,,,,,,,METAR,36.0
OAMS 130650Z 08006KT 9000 FEW005 OVC012 13/13 Q1020 GRN BLU TEMPO GRN,OAMS,2015-02-13T06:50:00Z,36.7,67.2,13.0,13.0,80,6,,5.59,30.11811,,,,,,,,,,,FEW,500,OVC,1200,,,,,MVFR,,,,,,,,,,,,METAR,378.0
EEEI 130650Z 16005KT 9999 BKN021 01/00 Q1021 NOSIG,EEEI,2015-02-13T06:50:00Z,59.27,24.2,1.0,0.0,160,5,,6.21,30.147638,,,,,,TRUE,,,,,BKN,2100,,,,,,,MVFR,,,,,,,,,,,,METAR,20.0
ESUD 130650Z AUTO VRB02KT 9999 FEW066/// M07/M10 Q1010,ESUD,2015-02-13T06:50:00Z,64.97,17.7,-7.0,-10.0,0,2,,6.21,29.822834,,,TRUE,,,,,,,,,,,,,,,,,,,,,,,,,,,,METAR,279.0
ESNX 130650Z 17004KT 130V200 9999 -SN BKN035 M05/M08 Q1009,ESNX,2015-02-13T06:50:00Z,65.58,19.28,-5.0,-8.0,170,4,,6.21,29.793306,,,,,,,,,,-SN,BKN,3500,,,,,,,VFR,,,,,,,,,,,,METAR,379.0
EDSB 130650Z 01002KT 0800 R21/1900N FZFG -FZDZ VV/// M03/M03 Q1021,EDSB,2015-02-13T06:50:00Z,48.78,8.08,-3.0,-3.0,10,2,,0.5,30.147638,,,,,,,,,,FZFG -FZDZ,OVX,0,,,,,,,LIFR,,,,,,,,,,,,METAR,124.0
EGNS 130650Z 14024KT 6000 HZ FEW009 BKN023 06/04 Q0997 NOSIG,EGNS,2015-02-13T06:50:00Z,54.08,-4.63,6.0,4.0,140,24,,3.73,29.438976,,,,,,TRUE,,,,HZ,FEW,900,BKN,2300,,,,,MVFR,,,,,,,,,,,,METAR,17.0
CYMA 130650Z 07006KT 10SM -SN SCT090 OVC200 M12/M14 A2984 RMK AS4CI4 SLP156,CYMA,2015-02-13T06:50:00Z,63.62,-135.87,-12.0,-14.0,70,6,,10.0,29.840551,1015.6,,,,,,,,,-SN,SCT,9000,OVC,20000,,,,,VFR,,,,,,,,,,,,SPECI,504.0
MSLP 13060Z VRB02KT CAVOK 25/15 Q1012 A2989,MSLP,2015-02-13T06:49:56Z,13.43,-89.05,25.0,15.0,0,2,,6.21,29.890747,,,,,,,,,,,CAVOK,,,,,,,,VFR,,,,,,,,,,,,METAR,25.0
KSBN 130649Z AUTO 21004KT 4SM -SN BR FEW025 OVC037 M10/M12 A3037 RMK AO2 P0000 TSNO,KSBN,2015-02-13T06:49:00Z,41.7,-86.32,-10.0,-12.0,210,4,,4.0,30.369095,,,TRUE,TRUE,,,TRUE,,,-SN BR,FEW,2500,OVC,3700,,,,,MVFR,,,,,,0.0050,,,,,,SPECI,237.0
KMWN 130649Z 31030KT 0SM -SN FZFG VV000 M28/M28 RMK VRY LGT ICG,KMWN,2015-02-13T06:49:00Z,44.27,-71.3,-28.0,-28.0,310,30,,0.0,,,,,,,,,,,-SN FZFG,OVX,0,,,,,,,LIFR,,,,,,,,,,,0,METAR,1910.0
CYKA 130649Z VRB04KT 15SM BKN007 OVC019 04/04 A3028 RMK ST5SC3 SLP267,CYKA,2015-02-13T06:49:00Z,50.7,-120.45,4.0,4.0,0,4,,15.0,30.280512,1026.7,,,,,,,,,,BKN,700,OVC,1900,,,,,IFR,,,,,,,,,,,,SPECI,346.0
CYQM 130649Z 23005KT 15SM -SN BKN013 M13/M15 A2960 RMK SC7 PRESRR SLP030,CYQM,2015-02-13T06:49:00Z,46.12,-64.67,-13.0,-15.0,230,5,,15.0,29.601377,1003.0,,,,,,,,,-SN,BKN,1300,,,,,,,MVFR,,,,,,,,,,,,SPECI,71.0
CYTE 130649Z AUTO 29002KT 4SM HZ CLR M33/M37 A3025 RMK SLP254,CYTE,2015-02-13T06:49:00Z,64.22,-76.52,-33.0,-37.0,290,2,,4.0,30.250984,1025.4,,TRUE,,,,,,,HZ,CLR,,,,,,,,MVFR,,,,,,,,,,,,SPECI,47.0
KEHA 130648Z AUTO 25009KT 07/M02 RMK AO1 PK WND 16 000 T00721016,KEHA,2015-02-13T06:48:00Z,37.0,-101.9,7.2,-1.6,250,9,,,,,,TRUE,TRUE,,,,,,,,,,,,,,,,,,,,,,,,,,,METAR,1099.0
PAWM 130648Z AUTO 36011KT 4SM -SN BKN025 OVC041 M16/M19 A2972 RMK AO2 P0000 FZRANO,PAWM,2015-02-13T06:48:00Z,64.68,-163.42,-16.0,-19.0,360,11,,4.0,29.719488,,,TRUE,TRUE,,,,TRUE,,-SN,BKN,2500,OVC,4100,,,,,MVFR,,,,,,0.0050,,,,,,SPECI,82.0
PASN 130648Z AUTO 02022G27KT 1/2SM -SN FZFG OVC015 M07/M09 A2951 RMK AO2 PK WND 01029/0556 P0001 TSNO $,PASN,2015-02-13T06:48:00Z,57.15,-170.22,-7.0,-9.0,20,22,27,0.5,29.509842,,,TRUE,TRUE,TRUE,,TRUE,,,-SN FZFG,OVC,1500,,,,,,,LIFR,,,,,,0.01,,,,,,SPECI,29.0
PFNO 130648Z AUTO 07012KT 8SM -SN OVC029 M15/M17 A2988 RMK AO2 P0000 FZRANO,PFNO,2015-02-13T06:48:00Z,66.82,-161.02,-15.0,-17.0,70,12,,8.0,29.878937,,,TRUE,TRUE,,,,TRUE,,-SN,OVC,2900,,,,,,,MVFR,,,,,,0.0050,,,,,,SPECI,17.0
KFME 130648Z AUTO 29011G24KT 10SM CLR M09/M18 A3018 RMK AO1,KFME,2015-02-13T06:48:00Z,39.08,-76.77,-9.0,-18.0,290,11,24,10.0,30.180119,,,TRUE,TRUE,,,,,,,CLR,,,,,,,,VFR,,,,,,,,,,,,METAR,46.0
KCGE 130648Z AUTO 31017G26KT 10SM SCT042 M05/M16 A3012 RMK AO1,KCGE,2015-02-13T06:48:00Z,38.53,-76.03,-5.0,-16.0,310,17,26,10.0,30.121063,,,TRUE,TRUE,,,,,,,SCT,4200,,,,,,,VFR,,,,,,,,,,,,METAR,6.0
KCBE 130648Z AUTO 31011G21KT 10SM CLR M11/M20 A3026 RMK AO1,KCBE,2015-02-13T06:48:00Z,39.62,-78.77,-11.0,-20.0,310,11,21,10.0,30.259842,,,TRUE,TRUE,,,,,,,CLR,,,,,,,,VFR,,,,,,,,,,,,METAR,236.0
KBRD 130648Z AUTO 20006KT 3SM -SN BKN021 OVC034 M14/M17 A3013 RMK AO2 P0000,KBRD,2015-02-13T06:48:00Z,46.4,-94.13,-14.0,-17.0,200,6,,3.0,30.129921,,,TRUE,TRUE,,,,,,-SN,BKN,2100,OVC,3400,,,,,MVFR,,,,,,0.0050,,,,,,METAR,372.0
KAXN 130648Z AUTO 20010KT 9SM OVC029 M11/M13 A3012 RMK AO2,KAXN,2015-02-13T06:48:00Z,45.87,-95.4,-11.0,-13.0,200,10,,9.0,30.121063,,,TRUE,TRUE,,,,,,,OVC,2900,,,,,,,MVFR,,,,,,,,,,,,METAR,433.0
KTCM 130648Z AUTO 24002KT 2 1/2SM BR CLR 09/09 A3026 RMK AO2 VIS 1 1/4V2 1/2 $,KTCM,2015-02-13T06:48:00Z,47.12,-122.47,9.0,9.0,240,2,,2.5,30.259842,,,TRUE,TRUE,TRUE,,,,,BR,CLR,,,,,,,,IFR,,,,,,,,,,,,SPECI,98.0
EGVA 130648Z AUTO 17013KT 9999 OVC011 07/05 A2962 RMK AO2,EGVA,2015-02-13T06:48:00Z,51.67,-1.77,7.0,5.0,170,13,,6.21,29.619095,,,TRUE,TRUE,,,,,,,OVC,1100,,,,,,,MVFR,,,,,,,,,,,,SPECI,87.0
KSDB 130648Z AUTO 02004KT 10SM CLR 12/M08 A3026 RMK AO2 SLP212 T01171078 $,KSDB,2015-02-13T06:48:00Z,34.75,-118.72,11.7,-7.8,20,4,,10.0,30.259842,1021.2,,TRUE,TRUE,TRUE,,,,,,CLR,,,,,,,,VFR,,,,,,,,,,,,METAR,1377.0
KJDN 130648Z AUTO 27004KT M02/M02 A3011 RMK AO1 SLP221 T10171022 401061072,KJDN,2015-02-13T06:48:00Z,47.33,-106.95,-1.7,-2.2,270,4,,,30.109253,1022.1,,TRUE,TRUE,,,,,,,,,,,,,,,,,,,10.6,-7.2,,,,,,,METAR,801.0
KRDR 130648Z AUTO 23007KT 10SM SCT017 OVC025 M10/M14 A3005 RMK AO2 CIG 017V025,KRDR,2015-02-13T06:48:00Z,47.97,-97.4,-10.0,-14.0,230,7,,10.0,30.050198,,,TRUE,TRUE,,,,,,,SCT,1700,OVC,2500,,,,,MVFR,,,,,,,,,,,,METAR,278.0
CYPR 130648Z AUTO 14015G21KT 9SM -RA SCT027 BKN110 OVC150 11/08 A2989 RMK SLP123,CYPR,2015-02-13T06:48:00Z,54.28,-130.42,11.0,8.0,140,15,21,9.0,29.890747,1012.3,,TRUE,,,,,,,-RA,SCT,2700,BKN,11000,OVC,15000,,,VFR,,,,,,,,,,,,SPECI,34.0
LERT 130647Z 00000KT 0900 R28/0800 FG NSC 07/07 Q1024 NOSIG,LERT,2015-02-13T06:47:00Z,36.63,-6.33,7.0,7.0,0,0,,0.56,30.236221,,,,,,TRUE,,,,FG,,,,,,,,,,,,,,,,,,,,,SPECI,26.0
KW29 130647Z AUTO 32021G29KT 10SM M07/M17 A3014 RMK AO1,KW29,2015-02-13T06:47:00Z,38.98,-76.33,-7.0,-17.0,320,21,29,10.0,30.138779,,,TRUE,TRUE,,,,,,,,,,,,,,,,,,,,,,,,,,,METAR,15.0
K2W6 130647Z AUTO 31010G15KT 280V340 10SM CLR M07/M18 A3016 RMK AO1,K2W6,2015-02-13T06:47:00Z,38.32,-76.55,-7.0,-18.0,310,10,15,10.0,30.159449,,,TRUE,TRUE,,,,,,,CLR,,,,,,,,VFR,,,,,,,,,,,,METAR,44.0
KSYR 130647Z 30008KT 4SM -SN BR BKN019 BKN043 M19/M19 A3011 RMK AO2 P0000 T11891194 $,KSYR,2015-02-13T06:47:00Z,43.12,-76.1,-18.9,-19.4,300,8,,4.0,30.109253,,,,TRUE,TRUE,,,,,-SN BR,BKN,1900,BKN,4300,,,,,MVFR,,,,,,0.0050,,,,,,SPECI,127.0
PAMO 130647Z AUTO 01005KT 8SM -SN FEW001 BKN011 OVC021 M10/M11 A2962 RMK AO2 TSNO P0000 $,PAMO,2015-02-13T06:47:00Z,62.1,-163.68,-10.0,-11.0,10,5,,8.0,29.619095,,,TRUE,TRUE,TRUE,,TRUE,,,-SN,FEW,100,BKN,1100,OVC,2100,,,MVFR,,,,,,0.0050,,,,,,METAR,103.0
PAGA 130647Z AUTO 08004KT 3SM -SN BR FEW017 BKN029 OVC034 M10/M12 A2980 RMK AO2 P0000 FZRANO,PAGA,2015-02-13T06:47:00Z,64.73,-156.93,-10.0,-12.0,80,4,,3.0,29.799213,,,TRUE,TRUE,,,,TRUE,,-SN BR,FEW,1700,BKN,2900,OVC,3400,,,MVFR,,,,,,0.0050,,,,,,METAR,46.0
KPOB 130647Z AUTO VRB04KT 10SM CLR M02/M14 A3018 RMK AO2,KPOB,2015-02-13T06:47:00Z,35.17,-79.02,-2.0,-14.0,0,4,,10.0,30.180119,,,TRUE,TRUE,,,,,,,CLR,,,,,,,,VFR,,,,,,,,,,,,SPECI,66.0
KIWA 130647Z 13006KT 20SM SKC 12/03 A3017 RMK LAST,KIWA,2015-02-13T06:47:00Z,33.3,-111.65,12.0,3.0,130,6,,20.0,30.171259,,,,,,,,,,,SKC,,,,,,,,VFR,,,,,,,,,,,,SPECI,412.0
KCQT 130647Z AUTO 00000KT 10SM CLR 19/01 A3005 RMK AO2 SLP173 T01890006,KCQT,2015-02-13T06:47:00Z,34.02,-118.28,18.9,0.6,0,0,,10.0,30.050198,1017.3,,TRUE,TRUE,,,,,,,CLR,,,,,,,,VFR,,,,,,,,,,,,METAR,56.0
CYKP 130647Z AUTO 14004KT 9SM -SN FEW055 OVC076 M27/M30 A3013 RMK SLP230,CYKP,2015-02-13T06:47:00Z,51.67,-85.9,-27.0,-30.0,140,4,,9.0,30.129921,1023.0,,TRUE,,,,,,,-SN,FEW,5500,OVC,7600,,,,,VFR,,,,,,,,,,,,SPECI,179.0
CYHE 130647Z AUTO 00000KT 1 3/4SM -RA BR SCT003 BKN006 BKN037 OVC047 09/08 A3031 RMK VIS VRB 1-2 1/2 SLP266,CYHE,2015-02-13T06:47:00Z,49.37,-121.5,9.0,8.0,0,0,,1.75,30.31004,1026.6,,TRUE,,,,,,,-RA BR,SCT,300,BKN,600,BKN,3700,OVC,4700,IFR,,,,,,,,,,,,SPECI,39.0
CYHD 130647Z AUTO 21009KT 1 1/2SM -SN BKN026 OVC035 M17/M19 A2996 RMK SLP194,CYHD,2015-02-13T06:47:00Z,49.82,-92.75,-17.0,-19.0,210,9,,1.5,29.958662,1019.4,,TRUE,,,,,,,-SN,BKN,2600,OVC,3500,,,,,IFR,,,,,,,,,,,,SPECI,413.0
KQVF 130646Z AUTO VRB03KT 9999 FEW020 SCT026 27/22 A2997 RMK AO2 SLP148 $,KQVF,2015-02-13T06:46:00Z,100.65,-1000.65,27.0,22.0,0,3,,6.21,29.970472,1014.8,,TRUE,TRUE,TRUE,,,,,,FEW,2000,SCT,2600,,,,,VFR,,,,,,,,,,,,SPECI,999.0
KQBF 130646Z AUTO 04001KT 3200 HZ CLR 26/06 A2997 RMK AO2 SLP131 $,KQBF,2015-02-13T06:46:00Z,100.65,-1000.65,26.0,6.0,40,1,,1.99,29.970472,1013.1,,TRUE,TRUE,TRUE,,,,,HZ,CLR,,,,,,,,IFR,,,,,,,,,,,,SPECI,999.0
RJCB 130646Z 29003KT 220V340 0800 R35/1300V1700D SHSN FEW004 BKN006 M04/M05 Q0994 RMK 1ST004 6ST006 A2936,RJCB,2015-02-13T06:46:00Z,42.72,143.22,-4.0,-5.0,290,3,,0.5,29.350393,,,,,,,,,,SHSN,FEW,400,BKN,600,,,,,LIFR,,,,,,,,,,,,METAR,152.0
PWAK 130646Z AUTO 09005KT 9999 SCT017 BKN022 OVC035 26/23 A2982 RMK AO2 RAB17E26 CIG 017V024,PWAK,2015-02-13T06:46:00Z,19.28,166.65,26.0,23.0,90,5,,6.21,29.819881,,,TRUE,TRUE,,,,,,,SCT,1700,BKN,2200,OVC,3500,,,MVFR,,,,,,,,,,,,METAR,4.0
PATL 130646Z AUTO 08004KT 10SM BKN015 BKN055 M12/M14 A2974 RMK AO2 SLP104 $,PATL,2015-02-13T06:46:00Z,62.9,-155.97,-12.0,-14.0,80,4,,10.0,29.740158,1010.4,,TRUE,TRUE,TRUE,,,,,,BKN,1500,BKN,5500,,,,,MVFR,,,,,,,,,,,,METAR,294.0
KMCE 130646Z AUTO 13003KT 2 1/2SM BR CLR 09/08 A3015 RMK AO2 T00940078,KMCE,2015-02-13T06:46:00Z,37.28,-120.5,9.4,7.8,130,3,,2.5,30.15059,,,TRUE,TRUE,,,,,,BR,CLR,,,,,,,,IFR,,,,,,,,,,,,METAR,47.0
KHYA 130646Z AUTO 32016G27KT 3SM -SN OVC023 M04/M09 A2965 RMK AO2 PK WND 34027/0646 P0000 T10441094,KHYA,2015-02-13T06:46:00Z,41.67,-70.27,-4.4,-9.4,320,16,27,3.0,29.648623,,,TRUE,TRUE,,,,,,-SN,OVC,2300,,,,,,,MVFR,,,,,,0.0050,,,,,,METAR,22.0
KCEC 130646Z AUTO 00000KT 1SM BR VV004 09/08 A3020 RMK AO2 T00940083,KCEC,2015-02-13T06:46:00Z,41.77,-124.22,9.4,8.3,0,0,,1.0,30.200787,,,TRUE,TRUE,,,,,,BR,OVX,0,,,,,,,LIFR,,,,,,,,,,,400,METAR,17.0
PAGH 130646Z AUTO 10018G24KT 5SM -SN BR SCT021 M12/M14 A2987 RMK AO2 PK WND 10026/0629 P0000 FZRANO,PAGH,2015-02-13T06:46:00Z,66.88,-157.17,-12.0,-14.0,100,18,24,5.0,29.870079,,,TRUE,TRUE,,,,TRUE,,-SN BR,SCT,2100,,,,,,,MVFR,,,,,,0.0050,,,,,,METAR,60.0
ETOU 130646Z AUTO 13005KT 2000 BR OVC002 00/00 A3015 RMK AO2 VIS 2000V4000,ETOU,2015-02-13T06:46:00Z,50.03,8.32,0.0,0.0,130,5,,1.24,30.15059,,,TRUE,TRUE,,,,,,BR,OVC,200,,,,,,,LIFR,,,,,,,,,,,,SPECI,141.0
CWOB 130646Z AUTO 29005KT M26/ A2993,CWOB,2015-02-13T06:46:00Z,63.32,-64.15,-26.0,,290,5,,,29.929134,,,TRUE,,,,,,,,,,,,,,,,,,,,,,,,,,,,SPECI,367.0
LKKU 130646Z VRB03KT CAVOK M03/M04 Q1025,LKKU,2015-02-13T06:46:00Z,49.05,17.45,-3.0,-4.0,0,3,,6.21,30.265747,,,,,,,,,,,CAVOK,,,,,,,,VFR,,,,,,,,,,,,METAR,177.0
CYSC 130646Z AUTO 30012G18KT 9SM -SN BKN018 BKN025 BKN060 M18/M21 A2981 RMK SLP115,CYSC,2015-02-13T06:46:00Z,45.43,-71.68,-18.0,-21.0,300,12,18,9.0,29.811024,1011.5,,TRUE,,,,,,,-SN,BKN,1800,BKN,2500,BKN,6000,,,MVFR,,,,,,,,,,,,SPECI,241.0
KDLZ 130646Z AUTO 00000KT 10SM CLR M16/M18 A3035 RMK AO2,KDLZ,2015-02-13T06:46:00Z,40.28,-83.12,-16.0,-18.0,0,0,,10.0,30.351377,,,TRUE,TRUE,,,,,,,CLR,,,,,,,,VFR,,,,,,,,,,,,SPECI,289.0
MMMD 130645Z 00000KT 7SM SKC 19/14 A3014,MMMD,2015-02-13T06:45:00Z,20.95,-89.65,19.0,14.0,0,0,,7.0,30.138779,,,,,,,,,,,SKC,,,,,,,,VFR,,,,,,,,,,,,METAR,10.0
LHSN 130645Z 04002KT 5000 BR MIBCFZFG NSC M03/M05 Q1028 BECMG 6000 NSW RMK WHT,LHSN,2015-02-13T06:45:00Z,47.12,20.23,-3.0,-5.0,40,2,,3.11,30.35433,,,,,,,,,,BR FZFG,,,,,,,,,,,,,,,,,,,,,SPECI,98.0
LHKE 130645Z 00000KT 1300 BR NSC M06/M06 Q1028 BECMG 3000 RMK AMB,LHKE,2015-02-13T06:45:00Z,46.92,19.75,-6.0,-6.0,0,0,,0.81,30.35433,,,,,,,,,,BR,,,,,,,,,,,,,,,,,,,,,SPECI,115.0
RJTT 130645Z 02018KT 9999 VCSH FEW015 SCT020 BKN060 07/M07 Q1002 RMK 1CU015 3CU020 7SC060 A2959,RJTT,2015-02-13T06:45:00Z,35.53,139.77,7.0,-7.0,20,18,,6.21,29.586615,,,,,,,,,,VCSH,FEW,1500,SCT,2000,BKN,6000,,,VFR,,,,,,,,,,,,METAR,8.0
RJOB 130645Z 28015G25KT 250V330 9999 FEW025 SCT040 04/M08 Q1011 RMK 1CU025 3CU040 A2988,RJOB,2015-02-13T06:45:00Z,34.75,133.83,4.0,-8.0,280,15,25,6.21,29.852362,,,,,,,,,,,FEW,2500,SCT,4000,,,,,VFR,,,,,,,,,,,,METAR,242.0
LMML 130645Z 11009KT 9000 -RA FEW017 BKN024 11/08 Q1021 BECMG 9999,LMML,2015-02-13T06:45:00Z,35.85,14.47,11.0,8.0,110,9,,5.59,30.147638,,,,,,,,,,-RA,FEW,1700,BKN,2400,,,,,MVFR,,,,,,,,,,,,METAR,91.0
KFDK 130645Z AUTO 31011G18KT 10SM CLR M09/M20 A3022 RMK AO2,KFDK,2015-02-13T06:45:00Z,39.42,-77.37,-9.0,-20.0,310,11,18,10.0,30.221457,,,TRUE,TRUE,,,,,,,CLR,,,,,,,,VFR,,,,,,,,,,,,METAR,92.0
KDMW 130645Z AUTO 31011G19KT 10SM SCT090 M11/M19 A3009 RMK AO2,KDMW,2015-02-13T06:45:00Z,39.6,-77.0,-11.0,-19.0,310,11,19,10.0,30.088583,,,TRUE,TRUE,,,,,,,SCT,9000,,,,,,,VFR,,,,,,,,,,,,METAR,241.0
K2G4 130645Z AUTO 30008G20KT 272V332 2SM BR OVC017 M18/M18 A3001 RMK AO1,K2G4,2015-02-13T06:45:00Z,39.58,-79.33,-18.0,-18.0,300,8,20,2.0,30.008858,,,TRUE,TRUE,,,,,,BR,OVC,1700,,,,,,,IFR,,,,,,,,,,,,METAR,894.0
KQAZ 130645Z AUTO 13006KT 9999 CLR 20/M01 A3000 RMK CDP03565 CLR,KQAZ,2015-02-13T06:45:00Z,100.65,-1000.65,20.0,-1.0,130,6,,6.21,30.0,,,TRUE,,,,,,,,CLR,,,,,,,,VFR,,,,,,,,,,,,METAR,999.0
CMGB 130645Z AUTO 32005KT M18/M21 RMK AO1 SOG 37 1022 SLP142 T11781213,CMGB,2015-02-13T06:45:00Z,45.37,-72.77,-17.8,-21.3,320,5,,,,1014.2,,TRUE,TRUE,,,,,,,,,,,,,,,,,,,,,,,,,,,METAR,86.0
CWPF 130645Z AUTO 02005KT 10/09 RMK AO1 T00970087,CWPF,2015-02-13T06:45:00Z,48.43,-123.43,9.7,8.7,20,5,,,,,,TRUE,TRUE,,,,,,,,,,,,,,,,,,,,,,,,,,,METAR,12.0
LKKV 130645Z 21004KT 3000 1500N BR OVC003 M04/M04 Q1020 R29/09//95 RMK REG QNH 1018,LKKV,2015-02-13T06:45:00Z,50.2,12.92,-4.0,-4.0,210,4,,1.86,30.11811,,,,,,,,,,BR,OVC,300,,,,,,,LIFR,,,,,,,,,,,,SPECI,604.0
PAJZ 130645Z AUTO 05005KT 10SM CLR M03/M03 A2964 RMK AO2 TSNO $,PAJZ,2015-02-13T06:45:00Z,59.73,-157.27,-3.0,-3.0,50,5,,10.0,29.639763,,,TRUE,TRUE,TRUE,,TRUE,,,,CLR,,,,,,,,VFR,,,,,,,,,,,,METAR,82.0
KMHR 130645Z 00000KT 10SM SCT200 10/09 A3016,KMHR,2015-02-13T06:45:00Z,38.53,-121.28,10.0,9.0,0,0,,10.0,30.159449,,,,,,,,,,,SCT,20000,,,,,,,VFR,,,,,,,,,,,,METAR,29.0
CYKL 130645Z AUTO 35008KT 3SM -SN OVC041 M30/M34 A2975 RMK SLP147,CYKL,2015-02-13T06:45:00Z,54.78,-66.82,-30.0,-34.0,350,8,,3.0,29.749016,1014.7,,TRUE,,,,,,,-SN,OVC,4100,,,,,,,MVFR,,,,,,,,,,,,SPECI,521.0
KMWS 130645Z 01504G04KT 11/M21 RMK SNOW DEPTH 2.00 ,KMWS,2015-02-13T06:45:00Z,34.23,-118.05,11.0,-21.0,15,4,4,,,,,,,,,,,,,,,,,,,,,,,,,,,,,,,,,METAR,1739.0
RJCM 130644Z 05003KT 0600 R36/1100D SHSN VV005 M04/M05 Q0996 RMK A2943,RJCM,2015-02-13T06:44:00Z,43.88,144.17,-4.0,-5.0,50,3,,0.37,29.409449,,,,,,,,,,SHSN,OVX,0,,,,,,,LIFR,,,,,,,,,,,500,METAR,36.0
EHWO 130644Z AUTO 16005KT 4000 R25/2800 BR FEW057 BKN065 OVC074 01/M00 Q1015 GRN 15005KT 2500 BR NSC TEMPO 0800 BCFG,EHWO,2015-02-13T06:44:00Z,51.45,4.32,1.0,0.0,160,5,,2.49,29.970472,,,TRUE,,,,,,,BR BR,FEW,5700,BKN,6500,OVC,7400,,,IFR,,,,,,,,,,,,SPECI,17.0
RJSY 130644Z 27020KT 9999 -SHSN FEW008 SCT020 BKN070 00/M06 Q1002 RMK 1ST008 4CU020 7AC070 A2961,RJSY,2015-02-13T06:44:00Z,38.82,139.77,0.0,-6.0,270,20,,6.21,29.586615,,,,,,,,,,-SHSN,FEW,800,SCT,2000,BKN,7000,,,VFR,,,,,,,,,,,,SPECI,22.0
RJCN 130644Z 04007KT 1000 R08/0900V1200U -SHSN FEW002 BKN004 M03/M03 Q0996 RMK 1ST002 7ST004 A2941,RJCN,2015-02-13T06:44:00Z,43.57,144.97,-3.0,-3.0,40,7,,0.62,29.409449,,,,,,,,,,-SHSN,FEW,200,BKN,400,,,,,LIFR,,,,,,,,,,,,METAR,70.0
ETHF 130644Z 19008KT 2800 BR OVC005 M00/M02 Q1020 YLO YLO,ETHF,2015-02-13T06:44:00Z,51.12,9.27,0.0,-2.0,190,8,,1.74,30.11811,,,,,,,,,,BR,OVC,500,,,,,,,IFR,,,,,,,,,,,,SPECI,181.0
KUAO 130644Z AUTO 00000KT 1/4SM FG VV002 05/05 A3025 RMK AO2 T00500050,KUAO,2015-02-13T06:44:00Z,45.25,-122.77,5.0,5.0,0,0,,0.25,30.250984,,,TRUE,TRUE,,,,,,FG,OVX,0,,,,,,,LIFR,,,,,,,,,,,200,METAR,59.0
KBEH 130644Z AUTO 13003KT 1SM -SN BR BKN015 OVC033 M11/M13 A3038 RMK AO2 P0000 T11111128,KBEH,2015-02-13T06:44:00Z,42.13,-86.42,-11.1,-12.8,130,3,,1.0,30.380905,,,TRUE,TRUE,,,,,,-SN BR,BKN,1500,OVC,3300,,,,,IFR,,,,,,0.0050,,,,,,METAR,191.0
CZPC 130644Z AUTO 24019KT 9SM BKN055 BKN091 BKN120 06/01 A3014 RMK PRESFR SLP223,CZPC,2015-02-13T06:44:00Z,49.52,-114.0,6.0,1.0,240,19,,9.0,30.138779,1022.3,,TRUE,,,,,,,,BKN,5500,BKN,9100,BKN,12000,,,VFR,,,,,,,,,,,,SPECI,1190.0
RJNG 130643Z 30011KT 9999 FEW010 SCT025 BKN045 02/M05 Q1009 RMK 1CU010 3CU025 5SC045 A2981,RJNG,2015-02-13T06:43:00Z,35.37,136.87,2.0,-5.0,300,11,,6.21,29.793306,,,,,,,,,,,FEW,1000,SCT,2500,BKN,4500,,,VFR,,,,,,,,,,,,METAR,42.0
KMIE 130643Z AUTO 32009KT 10SM OVC029 M09/M13 A3037 RMK AO2 T10941133,KMIE,2015-02-13T06:43:00Z,40.23,-85.4,-9.4,-13.3,320,9,,10.0,30.369095,,,TRUE,TRUE,,,,,,,OVC,2900,,,,,,,MVFR,,,,,,,,,,,,METAR,285.0
KLEX 130643Z 35006KT 10SM FEW020 BKN026 OVC036 M08/M14 A3035 RMK AO2 T10831144,KLEX,2015-02-13T06:43:00Z,38.03,-84.6,-8.3,-14.4,350,6,,10.0,30.351377,,,,TRUE,,,,,,,FEW,2000,BKN,2600,OVC,3600,,,MVFR,,,,,,,,,,,,METAR,300.0
PAKF 130643Z AUTO 23005KT 4SM -RA BR OVC010 02/02 A2925 RMK AO2 UPB04E08 SLP998 P0007 60027 T00220017 10033 20022 51001 FZRANO $,PAKF,2015-02-13T06:43:00Z,54.85,-163.42,2.2,1.7,230,5,,4.0,29.25,999.8,,TRUE,TRUE,TRUE,,,TRUE,,-RA BR,OVC,1000,,,,,,,MVFR,0.1,3.3,2.2,,,0.07,,0.27,,,,METAR,6.0
LELN 130643Z 24003KT 210V280 2000 BCFG FEW002 SCT048 M04/M04 Q1018,LELN,2015-02-13T06:43:00Z,42.57,-5.65,-4.0,-4.0,240,3,,1.24,30.059055,,,,,,,,,,BCFG,FEW,200,SCT,4800,,,,,IFR,,,,,,,,,,,,SPECI,914.0
YPDN 130643Z 13015G25KT 0800 +TSRA FEW017 BKN033 FEW033CB 24/23 Q1007 FM0700 32010KT 9999 -SHRA SCT025 TEMPO 0730/0900 VRB20G40KT 1000 TSRA BKN010 SCT020CB,YPDN,2015-02-13T06:43:00Z,-12.42,130.9,24.0,23.0,130,15,25,0.5,29.734253,,,,,,,,,,+TSRA,FEW,1700,BKN,3300,FEW,3300,,,LIFR,,,,,,,,,,,,METAR,30.0
CYEK 130643Z AUTO 36015G20KT 2SM -SN BKN039 M32/M36 A3016 RMK VIS VRB 1 1/2-2 1/2 SLP213,CYEK,2015-02-13T06:43:00Z,61.1,-94.07,-32.0,-36.0,360,15,20,2.0,30.159449,1021.3,,TRUE,,,,,,,-SN,BKN,3900,,,,,,,IFR,,,,,,,,,,,,SPECI,10.0
BIVM 130643Z 08022G32KT 9999 BKN025 M01/M03 Q1003,BIVM,2015-02-13T06:43:00Z,63.42,-20.27,-1.0,-3.0,80,22,32,6.21,29.616142,,,,,,,,,,,BKN,2500,,,,,,,MVFR,,,,,,,,,,,,METAR,124.0
KMQI 130643Z AUTO 33011G19KT 10SM SCT037 M01/M09 A3009 RMK AO2,KMQI,2015-02-13T06:43:00Z,35.92,-75.7,-1.0,-9.0,330,11,19,10.0,30.088583,,,TRUE,TRUE,,,,,,,SCT,3700,,,,,,,VFR,,,,,,,,,,,,SPECI,4.0
MMTP 130642Z 00000KT 10SM SKC 25/21 A2994,MMTP,2015-02-13T06:42:00Z,14.77,-92.37,25.0,21.0,0,0,,10.0,29.940945,,,,,,,,,,,SKC,,,,,,,,VFR,,,,,,,,,,,,METAR,29.0
PANC 130642Z 00000KT 1/2SM R07R/P6000FT FZFG VV003 M02/M04 A2971 RMK AO2,PANC,2015-02-13T06:42:00Z,61.17,-150.02,-2.0,-4.0,0,0,,0.5,29.71063,,,,TRUE,,,,,,FZFG,OVX,0,,,,,,,LIFR,,,,,,,,,,,300,METAR,38.0
KDDH 130642Z AUTO 28009KT 3SM -SN OVC026 M15/M20 A2987 RMK AO2 SNE0555B16 P0000 T11501200,KDDH,2015-02-13T06:42:00Z,42.9,-73.25,-15.0,-20.0,280,9,,3.0,29.870079,,,TRUE,TRUE,,,,,,-SN,OVC,2600,,,,,,,MVFR,,,,,,0.0050,,,,,,METAR,244.0
KBGM 130642Z AUTO 30007G16KT 3/4SM -SN BR VV012 M18/M21 A2994 RMK AO2 P0000 T11831206 RVRNO,KBGM,2015-02-13T06:42:00Z,42.22,-75.98,-18.3,-20.6,300,7,16,0.75,29.940945,,,TRUE,TRUE,,,,,,-SN BR,OVX,0,,,,,,,LIFR,,,,,,0.0050,,,,,1200,METAR,490.0
KAAT 130642Z AUTO 00000KT 5SM HZ CLR 03/00 A3031 RMK AO2 T00330000,KAAT,2015-02-13T06:42:00Z,41.48,-120.57,3.3,0.0,0,0,,5.0,30.31004,,,TRUE,TRUE,,,,,,HZ,CLR,,,,,,,,MVFR,,,,,,,,,,,,METAR,1331.0
MMDO 130642Z 04004KT 8SM SCT100 BKN200 10/08 A3029 RMK 8/067 RTS,MMDO,2015-02-13T06:42:00Z,24.12,-104.52,10.0,8.0,40,4,,8.0,30.28937,,,,,,,,,,,SCT,10000,BKN,20000,,,,,VFR,,,,,,,,,,,,METAR,1857.0
RJSA 130641Z 23025KT 0100 R24/0400V0500N +SHSN BLSN VV002 M02/M03 Q0993 RMK A2933,RJSA,2015-02-13T06:41:00Z,40.72,140.68,-2.0,-3.0,230,25,,0.06,29.320866,,,,,,,,,,+SHSN BLSN,OVX,0,,,,,,,LIFR,,,,,,,,,,,200,METAR,201.0
RJOR 130641Z 27016KT 3500 R10/1300VP1800D -SHSN FEW015 SCT030 BKN040 00/M03 Q1013 RMK 1CU015 3CU030 5CU040 A2993,RJOR,2015-02-13T06:41:00Z,35.52,134.17,0.0,-3.0,270,16,,2.17,29.911417,,,,,,,,,,-SHSN,FEW,1500,SCT,3000,BKN,4000,,,IFR,,,,,,,,,,,,METAR,18.0
KROC 130641Z 31011KT 2SM -SN BLSN OVC028 M16/M18 A3017 RMK AO2 P0000 T11561183,KROC,2015-02-13T06:41:00Z,43.12,-77.68,-15.6,-18.3,310,11,,2.0,30.171259,,,,TRUE,,,,,,-SN BLSN,OVC,2800,,,,,,,IFR,,,,,,0.0050,,,,,,SPECI,178.0
KITH 130641Z AUTO 32021G27KT 1SM R32/5000VP6000FT -SN OVC016 M17/M19 A3004 RMK AO2 P0000 PK WND 32027/0559,KITH,2015-02-13T06:41:00Z,42.47,-76.45,-17.0,-19.0,320,21,27,1.0,30.041338,,,TRUE,TRUE,,,,,,-SN,OVC,1600,,,,,,,IFR,,,,,,0.0050,,,,,,SPECI,335.0
KCKB 130641Z AUTO 33007KT 10SM FEW025 M13/M18 A3028 RMK AO2 UPB0554E22 P0000 T11331183 TSNO,KCKB,2015-02-13T06:41:00Z,39.3,-80.22,-13.3,-18.3,330,7,,10.0,30.280512,,,TRUE,TRUE,,,TRUE,,,,FEW,2500,,,,,,,VFR,,,,,,0.0050,,,,,,SPECI,360.0
CYDQ 130641Z AUTO VRB02KT 9SM -RA SCT048 OVC060 01/01 A3000 RMK SLP194,CYDQ,2015-02-13T06:41:00Z,55.75,-120.17,1.0,1.0,0,2,,9.0,30.0,1019.4,,TRUE,,,,,,,-RA,SCT,4800,OVC,6000,,,,,VFR,,,,,,,,,,,,SPECI,655.0
LEST 130641Z 21014KT 170V270 5000 RA SCT009 BKN013 07/06 Q1018 TEMPO 3000 -RA BR,LEST,2015-02-13T06:41:00Z,42.88,-8.42,7.0,6.0,210,14,,3.11,30.059055,,,,,,,,,,RA,SCT,900,BKN,1300,,,,,MVFR,,,,,,,,,,,,SPECI,367.0
MMUN 130640Z 32003KT 7SM SKC 16/14 A3012,MMUN,2015-02-13T06:40:00Z,21.02,-86.85,16.0,14.0,320,3,,7.0,30.121063,,,,,,,,,,,SKC,,,,,,,,VFR,,,,,,,,,,,,METAR,10.0
DAAV 130640Z 00000KT 9999 FEW020 FEW023TCU 10/09 Q1019,DAAV,2015-02-13T06:40:00Z,36.8,5.88,10.0,9.0,0,0,,6.21,30.088583,,,,,,,,,,,FEW,2000,FEW,2300,,,,,VFR,,,,,,,,,,,,SPECI,11.0
EHVK 130640Z AUTO 14004KT 4000 BR NCD M01/M02 Q1016 GRN 16006KT 4000 BR FEW250 BECMG 6000,EHVK,2015-02-13T06:40:00Z,51.63,5.7,-1.0,-2.0,140,4,,2.49,30.0,,,TRUE,,,,,,,BR BR,FEW,25000,,,,,,,IFR,,,,,,,,,,,,METAR,21.0
MMMY 130640Z 30003KT 1SM -DZ BR BKN004 OVC007 10/09 A3032 RMK 60025 8/7// -RAE30B-DZ,MMMY,2015-02-13T06:40:00Z,25.77,-100.08,10.0,9.0,300,3,,1.0,30.318897,,,,,,,,,,-DZ BR,BKN,400,OVC,700,,,,,LIFR,,,,,,,,0.25,,,,METAR,387.0
CWZQ 130640Z AUTO 35004KT M07/M09 RMK AO1 T10691086,CWZQ,2015-02-13T06:40:00Z,46.53,-61.05,-6.9,-8.6,350,4,,,,,,TRUE,TRUE,,,,,,,,,,,,,,,,,,,,,,,,,,,METAR,17.0
CYYT 130640Z 35027G40KT 8SM DRSN OVC014 M03/M05 A2924 RMK SC8 SLP908,CYYT,2015-02-13T06:40:00Z,47.62,-52.72,-3.0,-5.0,350,27,40,8.0,29.241142,990.8,,,,,,,,,DRSN,OVC,1400,,,,,,,MVFR,,,,,,,,,,,,SPECI,140.0
CYAM 130640Z 06002KT 15SM -SN BKN022 M27/M30 A3030 RMK SC7 SLP283,CYAM,2015-02-13T06:40:00Z,46.47,-84.52,-27.0,-30.0,60,2,,15.0,30.301182,1028.3,,,,,,,,,-SN,BKN,2200,,,,,,,MVFR,,,,,,,,,,,,SPECI,192.0
FMCZ 130640Z 05007KT 9999 SCT020 SCT040 BKN220 28/24 Q1012 NOSIG,FMCZ,2015-02-13T06:40:00Z,-12.8,45.27,28.0,24.0,50,7,,6.21,29.88189,,,,,,TRUE,,,,,SCT,2000,SCT,4000,BKN,22000,,,VFR,,,,,,,,,,,,METAR,7.0
PKWA 130640Z AUTO 05010KT 10SM SCT020 SCT027 28/23 RMK AO2 T02840229,PKWA,2015-02-13T06:40:00Z,8.72,167.72,28.4,22.9,50,10,,10.0,,,,TRUE,TRUE,,,,,,,SCT,2000,SCT,2700,,,,,VFR,,,,,,,,,,,,METAR,8.0
KLXY 130640Z AUTO 34004KT 10SM CLR 05/M02 A3035 RMK AO2 T00511020,KLXY,2015-02-13T06:40:00Z,31.63,-96.52,5.1,-2.0,340,4,,10.0,30.351377,,,TRUE,TRUE,,,,,,,CLR,,,,,,,,VFR,,,,,,,,,,,,SPECI,166.0
KS39 130640Z AUTO 00000KT 10SM CLR 01/00 A3032 RMK AO2,KS39,2015-02-13T06:40:00Z,44.28,-120.9,1.0,0.0,0,0,,10.0,30.318897,,,TRUE,TRUE,,,,,,,CLR,,,,,,,,VFR,,,,,,,,,,,,SPECI,991.0
KEDU 130640Z AUTO 00000KT 10SM CLR 11/09 A3016 RMK AO1,KEDU,2015-02-13T06:40:00Z,38.53,-121.78,11.0,9.0,0,0,,10.0,30.159449,,,TRUE,TRUE,,,,,,,CLR,,,,,,,,VFR,,,,,,,,,,,,SPECI,21.0
KGRY 130640Z AUTO VRB05G13KT 10SM FEW042 17/08 A3024 RMK A01,KGRY,2015-02-13T06:40:00Z,27.63,-90.45,17.0,8.0,0,5,13,10.0,30.239174,,,TRUE,TRUE,,,,,,,FEW,4200,,,,,,,VFR,,,,,,,,,,,,SPECI,58.0
RJCK 130639Z 03009KT 1400 R17/P1800N -SHSN FEW003 BKN005 BKN012 M03/M04 Q0995 RMK 2ST003 5ST005 7ST012 A2938,RJCK,2015-02-13T06:39:00Z,43.02,144.18,-3.0,-4.0,30,9,,0.87,29.379921,,,,,,,,,,-SHSN,FEW,300,BKN,500,BKN,1200,,,LIFR,,,,,,,,,,,,SPECI,98.0
EHLW 130639Z AUTO 16006KT 3600 R23/P3000 BR OVC022 02/01 Q1015 YLO,EHLW,2015-02-13T06:39:00Z,53.22,5.75,2.0,1.0,160,6,,2.24,29.970472,,,TRUE,,,,,,,BR,OVC,2200,,,,,,,IFR,,,,,,,,,,,,SPECI,2.0
CYUA 130639Z AUTO 27006KT 9SM CLR M32/ A3010 RMK ICG PAST HR,CYUA,2015-02-13T06:39:00Z,68.95,-137.28,-32.0,,270,6,,9.0,30.100393,,,TRUE,,,,,,,,CLR,,,,,,,,VFR,,,,,,,,,,,,SPECI,38.0
ETMN 130639Z 17007KT 1500 BR OVC002 00/M00 Q1018 AMB YLO TEMPO RED,ETMN,2015-02-13T06:39:00Z,53.77,8.67,0.0,0.0,170,7,,0.93,30.059055,,,,,,,,,,BR,OVC,200,,,,,,,LIFR,,,,,,,,,,,,SPECI,31.0
KPSC 130639Z AUTO 32004KT 2SM BR CLR 03/03 A3031 RMK AO2 T00280028,KPSC,2015-02-13T06:39:00Z,46.27,-119.12,2.8,2.8,320,4,,2.0,30.31004,,,TRUE,TRUE,,,,,,BR,CLR,,,,,,,,IFR,,,,,,,,,,,,SPECI,121.0
KPHN 130639Z AUTO 29005KT 10SM CLR M18/M22 A3032 RMK AO2,KPHN,2015-02-13T06:39:00Z,42.92,-82.52,-18.0,-22.0,290,5,,10.0,30.318897,,,TRUE,TRUE,,,,,,,CLR,,,,,,,,VFR,,,,,,,,,,,,METAR,198.0
PAEH 130638Z AUTO 13016G27KT 10SM SCT021 SCT026 BKN045 04/01 A2948 RMK AO2 SLP988,PAEH,2015-02-13T06:38:00Z,58.65,-162.07,4.0,1.0,130,16,27,10.0,29.480314,998.8,,TRUE,TRUE,,,,,,,SCT,2100,SCT,2600,BKN,4500,,,VFR,,,,,,,,,,,,SPECI,161.0
KGRF 130638Z AUTO 24002KT 4SM BR CLR 09/09 A3025 RMK AO2,KGRF,2015-02-13T06:38:00Z,47.07,-122.57,9.0,9.0,240,2,,4.0,30.250984,,,TRUE,TRUE,,,,,,BR,CLR,,,,,,,,MVFR,,,,,,,,,,,,SPECI,92.0
KMPO 130638Z AUTO 31015G27KT 3SM HZ OVC016 M18/M23 A2984 RMK AO2 PK WND 31033/0620 UPE0555B25E28SNB0555E25 P0000 T11831233,KMPO,2015-02-13T06:38:00Z,41.13,-75.38,-18.3,-23.3,310,15,27,3.0,29.840551,,,TRUE,TRUE,,,,,,HZ,OVC,1600,,,,,,,MVFR,,,,,,0.0050,,,,,,SPECI,577.0
KLPR 130638Z AUTO 27005KT 10SM FEW023 SCT028 M19/M23 A3033 RMK AO2 T11891228 TSNO,KLPR,2015-02-13T06:38:00Z,41.35,-82.18,-18.9,-22.8,270,5,,10.0,30.33071,,,TRUE,TRUE,,,TRUE,,,,FEW,2300,SCT,2800,,,,,VFR,,,,,,,,,,,,SPECI,241.0
KSLH 130638Z AUTO 00000KT 10SM SCT023 M25/M27 A3030 RMK AO2 T12481276,KSLH,2015-02-13T06:38:00Z,45.65,-84.52,-24.8,-27.6,0,0,,10.0,30.301182,,,TRUE,TRUE,,,,,,,SCT,2300,,,,,,,VFR,,,,,,,,,,,,METAR,195.0
PALH 130637Z 00000KT 1/4SM FZFG VV001 M04/M06 A2973 RMK AO2,PALH,2015-02-13T06:37:00Z,61.18,-149.97,-4.0,-6.0,0,0,,0.25,29.731298,,,,TRUE,,,,,,FZFG,OVX,0,,,,,,,LIFR,,,,,,,,,,,100,SPECI,22.0
RJBT 130637Z 35006G16KT 290V040 3000 -SHSN BCFG FEW000 SCT015 BKN025 M01/M03 Q1011 RMK 1ST000 3CU015 5CU025 A2986 FG ALL QUAD,RJBT,2015-02-13T06:37:00Z,35.5,134.8,-1.0,-3.0,350,6,16,1.86,29.852362,,,,,,,,,,-SHSN BCFG,FEW,0,SCT,1500,BKN,2500,,,IFR,,,,,,,,,,,,SPECI,210.0
KSAW 130637Z AUTO 00000KT 10SM SCT100 M26/M29 A3021 RMK AO2 T12571287,KSAW,2015-02-13T06:37:00Z,46.35,-87.4,-25.7,-28.7,0,0,,10.0,30.209646,,,TRUE,TRUE,,,,,,,SCT,10000,,,,,,,VFR,,,,,,,,,,,,SPECI,372.0
KCAD 130636Z AUTO 00000KT 3/4SM -SN BKN028 M20/M22 A3025 RMK AO2,KCAD,2015-02-13T06:36:00Z,44.27,-85.42,-20.0,-22.0,0,0,,0.75,30.250984,,,TRUE,TRUE,,,,,,-SN,BKN,2800,,,,,,,LIFR,,,,,,,,,,,,SPECI,398.0
PAMR 130636Z 00000KT 1/4SM FZFG VV002 M03/M04 A2971 RMK AO2 I1001 T10331044,PAMR,2015-02-13T06:36:00Z,61.22,-149.85,-3.3,-4.4,0,0,,0.25,29.71063,,,,TRUE,,,,,,FZFG,OVX,0,,,,,,,LIFR,,,,,,,,,,,200,SPECI,41.0
PACZ 130636Z AUTO 02030G35KT 330V040 1/2SM -SN FG FEW006 BKN019 M12/M14 A2954,PACZ,2015-02-13T06:36:00Z,61.78,-166.03,-12.0,-14.0,20,30,35,0.5,29.53937,,,TRUE,,,,,,,-SN FG,FEW,600,BKN,1900,,,,,LIFR,,,,,,,,,,,,METAR,146.0
KMUI 130636Z AUTO 33010G21KT 260V030 10SM SCT041 M13/M21 A3012 RMK AO2 WSHFT 34,KMUI,2015-02-13T06:36:00Z,40.42,-76.57,-13.0,-21.0,330,10,21,10.0,30.121063,,,TRUE,TRUE,,,,,,,SCT,4100,,,,,,,VFR,,,,,,,,,,,,SPECI,149.0
LTBQ 130636Z 31003KT 3500 -RA BR SCT012 BKN023 OVC070 04/03 Q1023 BECMG TL0720 7000 RMK RWY09 30004KT,LTBQ,2015-02-13T06:36:00Z,40.72,30.07,4.0,3.0,310,3,,2.17,30.206694,,,,,,,,,,-RA BR,SCT,1200,BKN,2300,OVC,7000,,,IFR,,,,,,,,,,,,SPECI,50.0
KTGI 130636Z AUTO 32025G36KT 10SM SCT044 M04/M12 A3011 RMK AO1,KTGI,2015-02-13T06:36:00Z,37.82,-75.98,-4.0,-12.0,320,25,36,10.0,30.109253,,,TRUE,TRUE,,,,,,,SCT,4400,,,,,,,VFR,,,,,,,,,,,,METAR,2.0
KTTF 130636Z AUTO 00000KT 10SM CLR M18/M22 A3034 RMK AO2,KTTF,2015-02-13T06:36:00Z,41.93,-83.42,-18.0,-22.0,0,0,,10.0,30.339567,,,TRUE,TRUE,,,,,,,CLR,,,,,,,,VFR,,,,,,,,,,,,METAR,188.0
PFYU 130636Z 00000KT 10SM CLR M26/M30 A3001 RMK AO1,PFYU,2015-02-13T06:36:00Z,66.57,-145.27,-26.0,-30.0,0,0,,10.0,30.008858,,,,TRUE,,,,,,,CLR,,,,,,,,VFR,,,,,,,,,,,,SPECI,131.0
PAZK 130636Z AUTO 00000KT 1/4SM OVC002 M12/M13 A2961 RMK AO1,PAZK,2015-02-13T06:36:00Z,61.93,-147.17,-12.0,-13.0,0,0,,0.25,29.610237,,,TRUE,TRUE,,,,,,,OVC,200,,,,,,,LIFR,,,,,,,,,,,,SPECI,1003.0
PAWS 130636Z AUTO 00000KT 10SM CLR M07/M09 A2970 RMK AO1,PAWS,2015-02-13T06:36:00Z,61.57,-149.53,-7.0,-9.0,0,0,,10.0,29.698818,,,TRUE,TRUE,,,,,,,CLR,,,,,,,,VFR,,,,,,,,,,,,SPECI,107.0
PAWG 130636Z 10011G16KT 10SM OVC045 08/06 A2983 RMK AO1 WEA:NONE MJ,PAWG,2015-02-13T06:36:00Z,56.48,-132.37,8.0,6.0,100,11,16,10.0,29.828741,,,,TRUE,,,,,,,OVC,4500,,,,,,,VFR,,,,,,,,,,,,SPECI,11.0
PAVD 130636Z 00000KT 10SM SCT100 M03/M06 A2970 RMK AO1 0547Z WEA: NONE TWR WND 00000KT,PAVD,2015-02-13T06:36:00Z,61.13,-146.25,-3.0,-6.0,0,0,,10.0,29.698818,,,,TRUE,,,,,,,SCT,10000,,,,,,,VFR,,,,,,,,,,,,SPECI,37.0
PFSH 130636Z AUTO 02016KT 7SM -SN OVC030 M14/M16 A2974 RMK AO2 SNB15 P0000 FZRANO,PFSH,2015-02-13T06:36:00Z,64.37,-161.22,-14.0,-16.0,20,16,,7.0,29.740158,,,TRUE,TRUE,,,,TRUE,,-SN,OVC,3000,,,,,,,MVFR,,,,,,0.0050,,,,,,SPECI,7.0
KABR 130636Z AUTO 19006KT 10SM SCT024 M10/M13 A3012 RMK AO2 T11001128,KABR,2015-02-13T06:36:00Z,45.45,-98.42,-10.0,-12.8,190,6,,10.0,30.121063,,,TRUE,TRUE,,,,,,,SCT,2400,,,,,,,VFR,,,,,,,,,,,,SPECI,397.0
PABL 130636Z AUTO 32007KT 4SM BKN022 OVC028 M17/M22 A2984 RMK AO1,PABL,2015-02-13T06:36:00Z,65.98,-161.15,-17.0,-22.0,320,7,,4.0,29.840551,,,TRUE,TRUE,,,,,,,BKN,2200,OVC,2800,,,,,MVFR,,,,,,,,,,,,METAR,7.0
PAAK 130636Z 32019G26KT 10SM BKN036 OVC043 M01/M08 A2957 RMK AO1,PAAK,2015-02-13T06:36:00Z,52.22,-174.2,-1.0,-8.0,320,19,26,10.0,29.568897,,,,TRUE,,,,,,,BKN,3600,OVC,4300,,,,,VFR,,,,,,,,,,,,METAR,17.0
PAMM 130636Z AUTO 14015G23KT 10SM BKN016 OVC026 11/08 A2986 RMK AO1,PAMM,2015-02-13T06:36:00Z,55.13,-131.58,11.0,8.0,140,15,23,10.0,29.861221,,,TRUE,TRUE,,,,,,,BKN,1600,OVC,2600,,,,,MVFR,,,,,,,,,,,,METAR,1.0
PAMH 130636Z AUTO 05004KT 10SM OVC110 M14/M20 A2978 RMK AO1,PAMH,2015-02-13T06:36:00Z,63.9,-152.32,-14.0,-20.0,50,4,,10.0,29.778543,,,TRUE,TRUE,,,,,,,OVC,11000,,,,,,,VFR,,,,,,,,,,,,METAR,214.0
PAMD 130636Z 03007KT 1/2SM OVC003 04/03 A2963 RMK AO1,PAMD,2015-02-13T06:36:00Z,59.43,-146.3,4.0,3.0,30,7,,0.5,29.630905,,,,TRUE,,,,,,,OVC,300,,,,,,,LIFR,,,,,,,,,,,,METAR,14.0
PAKP 130636Z AUTO 02006KT 10SM SCT060 M27/M33 A2977 RMK AO1,PAKP,2015-02-13T06:36:00Z,68.13,-151.73,-27.0,-33.0,20,6,,10.0,29.769686,,,TRUE,TRUE,,,,,,,SCT,6000,,,,,,,VFR,,,,,,,,,,,,METAR,642.0
PAKK 130636Z AUTO 34011G16KT 10SM BKN035 OVC070 A2968 RMK AO1,PAKK,2015-02-13T06:36:00Z,64.93,-161.15,,,340,11,16,10.0,29.681103,,,TRUE,TRUE,,,,,,,BKN,3500,OVC,7000,,,,,VFR,,,,,,,,,,,,METAR,47.0
PAJC 130636Z AUTO 11005KT 8SM BKN018 OVC024 05/01 A2945 RMK AO1,PAJC,2015-02-13T06:36:00Z,56.32,-158.37,5.0,1.0,110,5,,8.0,29.450787,,,TRUE,TRUE,,,,,,,BKN,1800,OVC,2400,,,,,MVFR,,,,,,,,,,,,METAR,15.0
PAIN 130636Z AUTO 00000KT 10SM SCT120 M14/M16 A2967 RMK AO1,PAIN,2015-02-13T06:36:00Z,63.73,-148.92,-14.0,-16.0,0,0,,10.0,29.66929,,,TRUE,TRUE,,,,,,,SCT,12000,,,,,,,VFR,,,,,,,,,,,,METAR,524.0
PAII 130636Z AUTO 08007KT 10SM OVC110 02/00 A2954 RMK AO1,PAII,2015-02-13T06:36:00Z,58.18,-157.38,2.0,0.0,80,7,,10.0,29.53937,,,TRUE,TRUE,,,,,,,OVC,11000,,,,,,,VFR,,,,,,,,,,,,METAR,30.0
PAHY 130636Z AUTO 10SM BKN014 OVC020 11/07 A2974 RMK AO1,PAHY,2015-02-13T06:36:00Z,55.2,-132.83,11.0,7.0,,,,10.0,29.740158,,,TRUE,TRUE,,,,,,,BKN,1400,OVC,2000,,,,,MVFR,,,,,,,,,,,,METAR,1.0
PAHP 130636Z AUTO 05011KT 6SM OVC019 M11/M13 A2962 RMK AO1,PAHP,2015-02-13T06:36:00Z,61.53,-166.15,-11.0,-13.0,50,11,,6.0,29.619095,,,TRUE,TRUE,,,,,,,OVC,1900,,,,,,,MVFR,,,,,,,,,,,,METAR,5.0
PAHL 130636Z AUTO 08010G19KT 050V110 10SM FEW026 BKN036 OVC049 M13/M16 A2981 RMK AO1,PAHL,2015-02-13T06:36:00Z,65.7,-156.35,-13.0,-16.0,80,10,19,10.0,29.811024,,,TRUE,TRUE,,,,,,,FEW,2600,BKN,3600,OVC,4900,,,VFR,,,,,,,,,,,,METAR,65.0
PAGM 130636Z AUTO 02025KT 10SM BKN014 M16/M19 A2990 RMK AO1,PAGM,2015-02-13T06:36:00Z,63.77,-171.73,-16.0,-19.0,20,25,,10.0,29.899607,,,TRUE,TRUE,,,,,,,BKN,1400,,,,,,,MVFR,,,,,,,,,,,,METAR,8.0
PAGL 130636Z AUTO 31007KT 8SM FEW025 SCT031 BKN040 M15/M17 A2976 RMK AO1,PAGL,2015-02-13T06:36:00Z,64.55,-163.03,-15.0,-17.0,310,7,,8.0,29.760826,,,TRUE,TRUE,,,,,,,FEW,2500,SCT,3100,BKN,4000,,,VFR,,,,,,,,,,,,METAR,8.0
PAFM 130636Z AUTO 03011G16KT 1 1/2SM OVC010 M17/M22 A2990 RMK AO1,PAFM,2015-02-13T06:36:00Z,67.1,-157.85,-17.0,-22.0,30,11,16,1.5,29.899607,,,TRUE,TRUE,,,,,,,OVC,1000,,,,,,,IFR,,,,,,,,,,,,METAR,88.0
PAFE 130636Z AUTO 10006KT 10SM OVC017 08/08 A2976 RMK AO1,PAFE,2015-02-13T06:36:00Z,56.97,-133.92,8.0,8.0,100,6,,10.0,29.760826,,,TRUE,TRUE,,,,,,,OVC,1700,,,,,,,MVFR,,,,,,,,,,,,METAR,9.0
PADK 130636Z AUTO 35017G24KT 10SM BKN039 OVC046 00/M06 A2974 RMK AO1,PADK,2015-02-13T06:36:00Z,51.88,-176.65,0.0,-6.0,350,17,24,10.0,29.740158,,,TRUE,TRUE,,,,,,,BKN,3900,OVC,4600,,,,,VFR,,,,,,,,,,,,SPECI,4.0
PABV 130636Z AUTO 14004KT 10SM CLR M06/M06 A2972 RMK AO1,PABV,2015-02-13T06:36:00Z,61.42,-149.52,-6.0,-6.0,140,4,,10.0,29.719488,,,TRUE,TRUE,,,,,,,CLR,,,,,,,,VFR,,,,,,,,,,,,METAR,29.0
KAVC 130636Z AUTO 31006G14KT 10SM CLR M04/M16 A3020 RMK AO2 T10361159,KAVC,2015-02-13T06:36:00Z,36.68,-78.03,-3.6,-15.9,310,6,14,10.0,30.200787,,,TRUE,TRUE,,,,,,,CLR,,,,,,,,VFR,,,,,,,,,,,,METAR,135.0
KCOQ 130636Z AUTO 20006KT 10SM SCT060 OVC070 M16/M21 A3015 RMK AO2,KCOQ,2015-02-13T06:36:00Z,46.7,-92.5,-16.0,-21.0,200,6,,10.0,30.15059,,,TRUE,TRUE,,,,,,,SCT,6000,OVC,7000,,,,,VFR,,,,,,,,,,,,METAR,390.0
KAUM 130636Z AUTO 17007KT 10SM CLR M15/M18 A3025 RMK AO2,KAUM,2015-02-13T06:36:00Z,43.67,-92.92,-15.0,-18.0,170,7,,10.0,30.250984,,,TRUE,TRUE,,,,,,,CLR,,,,,,,,VFR,,,,,,,,,,,,METAR,375.0
KSJX 130636Z AUTO 26006KT 10SM OVC028 M12/M17 A3030 RMK AO2 T11251169,KSJX,2015-02-13T06:36:00Z,45.7,-85.57,-12.5,-16.9,260,6,,10.0,30.301182,,,TRUE,TRUE,,,,,,,OVC,2800,,,,,,,MVFR,,,,,,,,,,,,METAR,204.0
CYWK 130636Z AUTO 03008KT 2 1/2SM -SN OVC046 M22/M25 A2958 RMK SLP075,CYWK,2015-02-13T06:36:00Z,52.92,-66.87,-22.0,-25.0,30,8,,2.5,29.58071,1007.5,,TRUE,,,,,,,-SN,OVC,4600,,,,,,,IFR,,,,,,,,,,,,SPECI,551.0
KBDU 130636Z AUTO 00000KT 10SM BKN100 06/M06 A3021 RMK AO2,KBDU,2015-02-13T06:36:00Z,40.03,-105.23,6.0,-6.0,0,0,,10.0,30.209646,,,TRUE,TRUE,,,,,,,BKN,10000,,,,,,,VFR,,,,,,,,,,,,METAR,1612.0
K4BM 130636Z AUTO 06005KT 10SM CLR 00/M10 A3043 RMK AO2,K4BM,2015-02-13T06:36:00Z,39.05,-105.52,0.0,-10.0,60,5,,10.0,30.431103,,,TRUE,TRUE,,,,,,,CLR,,,,,,,,VFR,,,,,,,,,,,,SPECI,3438.0
KMNH 130636Z AUTO 20005KT 10SM CLR 00/M08 A3026 RMK AO2,KMNH,2015-02-13T06:36:00Z,39.22,-104.65,0.0,-8.0,200,5,,10.0,30.259842,,,TRUE,TRUE,,,,,,,CLR,,,,,,,,VFR,,,,,,,,,,,,METAR,2152.0
KXVG 130636Z AUTO 17004KT 1 3/4SM -SN SCT020 OVC029 M15/M17 A3011 RMK AO2 VIS 1 1/4V3,KXVG,2015-02-13T06:36:00Z,46.98,-94.2,-15.0,-17.0,170,4,,1.75,30.109253,,,TRUE,TRUE,,,,,,-SN,SCT,2000,OVC,2900,,,,,IFR,,,,,,,,,,,,METAR,407.0
KROS 130636Z AUTO 00000KT 10SM BKN075 OVC100 M14/M18 A3023 RMK AO2 T11451185,KROS,2015-02-13T06:36:00Z,45.7,-92.95,-14.5,-18.5,0,0,,10.0,30.230314,,,TRUE,TRUE,,,,,,,BKN,7500,OVC,10000,,,,,VFR,,,,,,,,,,,,SPECI,281.0
KPOV 130636Z AUTO 27003KT 10SM CLR M17/M21 A3026 RMK AO2 T11731209,KPOV,2015-02-13T06:36:00Z,41.22,-81.25,-17.3,-20.9,270,3,,10.0,30.259842,,,TRUE,TRUE,,,,,,,CLR,,,,,,,,VFR,,,,,,,,,,,,SPECI,365.0
KONA 130636Z AUTO 00000KT 10SM CLR M18/M20 A3034 RMK AO2,KONA,2015-02-13T06:36:00Z,44.07,-91.7,-18.0,-20.0,0,0,,10.0,30.339567,,,TRUE,TRUE,,,,,,,CLR,,,,,,,,VFR,,,,,,,,,,,,METAR,200.0
K14Y 130636Z AUTO 18008KT 10SM OVC030 M12/M15 A3013 RMK AO2,K14Y,2015-02-13T06:36:00Z,45.9,-94.87,-12.0,-15.0,180,8,,10.0,30.129921,,,TRUE,TRUE,,,,,,,OVC,3000,,,,,,,MVFR,,,,,,,,,,,,METAR,406.0
KETH 130636Z AUTO 17006KT 10SM BKN029 OVC035 M11/M12 A3016 RMK AO2,KETH,2015-02-13T06:36:00Z,45.78,-96.55,-11.0,-12.0,170,6,,10.0,30.159449,,,TRUE,TRUE,,,,,,,BKN,2900,OVC,3500,,,,,MVFR,,,,,,,,,,,,SPECI,313.0
PAUN 130636Z AUTO 07016KT 8SM FEW022 SCT036 OVC047 M09/M12 A2969 RMK AO1,PAUN,2015-02-13T06:36:00Z,63.88,-160.8,-9.0,-12.0,70,16,,8.0,29.68996,,,TRUE,TRUE,,,,,,,FEW,2200,SCT,3600,OVC,4700,,,VFR,,,,,,,,,,,,METAR,6.0
PATG 130636Z AUTO 03008KT 10SM 01/00 A2953 RMK AO1,PATG,2015-02-13T06:36:00Z,59.05,-160.38,1.0,0.0,30,8,,10.0,29.530512,,,TRUE,TRUE,,,,,,,,,,,,,,,,,,,,,,,,,,,METAR,4.0
PASX 130636Z AUTO 07005KT 7SM OVC003 M02/M03 A2970 RMK AO1,PASX,2015-02-13T06:36:00Z,60.48,-151.03,-2.0,-3.0,70,5,,7.0,29.698818,,,TRUE,TRUE,,,,,,,OVC,300,,,,,,,LIFR,,,,,,,,,,,,METAR,32.0
PASM 130636Z AUTO 04007KT 3SM OVC015 M09/M11 A2960 RMK AO1,PASM,2015-02-13T06:36:00Z,62.07,-163.3,-9.0,-11.0,40,7,,3.0,29.601377,,,TRUE,TRUE,,,,,,,OVC,1500,,,,,,,MVFR,,,,,,,,,,,,METAR,92.0
PASL 130636Z AUTO 00000KT 10SM OVC025 M08/M13 A2974 RMK AO1,PASL,2015-02-13T06:36:00Z,61.72,-157.15,-8.0,-13.0,0,0,,10.0,29.740158,,,TRUE,TRUE,,,,,,,OVC,2500,,,,,,,MVFR,,,,,,,,,,,,METAR,55.0
PASK 130636Z AUTO 05012KT 2 1/2SM OVC020 M14/M15 A2987 RMK AO1,PASK,2015-02-13T06:36:00Z,66.6,-160.0,-14.0,-15.0,50,12,,2.5,29.870079,,,TRUE,TRUE,,,,,,,OVC,2000,,,,,,,IFR,,,,,,,,,,,,METAR,8.0
PASD 130636Z AUTO 14010G17KT 10SM BKN017 BKN025 BKN032 06/04 A2935 RMK AO1,PASD,2015-02-13T06:36:00Z,55.33,-160.5,6.0,4.0,140,10,17,10.0,29.350393,,,TRUE,TRUE,,,,,,,BKN,1700,BKN,2500,BKN,3200,,,MVFR,,,,,,,,,,,,METAR,7.0
PASA 130636Z AUTO 03007KT 10SM OVC012 M18/M18 A2990 RMK AO1,PASA,2015-02-13T06:36:00Z,63.68,-170.5,-18.0,-18.0,30,7,,10.0,29.899607,,,TRUE,TRUE,,,,,,,OVC,1200,,,,,,,MVFR,,,,,,,,,,,,METAR,16.0
PARC 130636Z AUTO 00000KT 10SM CLR M23/ A2983 RMK AO1,PARC,2015-02-13T06:36:00Z,68.12,-145.58,-23.0,,0,0,,10.0,29.828741,,,TRUE,TRUE,,,,,,,CLR,,,,,,,,VFR,,,,,,,,,,,,METAR,636.0
PAPO 130636Z AUTO 02019KT 10SM CLR M19/ A2998 RMK AO1,PAPO,2015-02-13T06:36:00Z,68.35,-166.8,-19.0,,20,19,,10.0,29.97933,,,TRUE,TRUE,,,,,,,CLR,,,,,,,,VFR,,,,,,,,,,,,METAR,6.0
PAPH 130636Z AUTO 15007KT 10SM FEW025 04/M01 A2945 RMK AO1,PAPH,2015-02-13T06:36:00Z,56.95,-158.62,4.0,-1.0,150,7,,10.0,29.450787,,,TRUE,TRUE,,,,,,,FEW,2500,,,,,,,VFR,,,,,,,,,,,,METAR,29.0
PANV 130636Z AUTO 04010KT 10SM OVC010 M12/M14 A2965 RMK AO1,PANV,2015-02-13T06:36:00Z,62.65,-160.18,-12.0,-14.0,40,10,,10.0,29.648623,,,TRUE,TRUE,,,,,,,OVC,1000,,,,,,,MVFR,,,,,,,,,,,,METAR,99.0
PANI 130636Z AUTO 00000KT 10SM OVC070 M09/M12 A2963 RMK AO1,PANI,2015-02-13T06:36:00Z,61.58,-159.53,-9.0,-12.0,0,0,,10.0,29.630905,,,TRUE,TRUE,,,,,,,OVC,7000,,,,,,,VFR,,,,,,,,,,,,METAR,26.0
PAMY 130636Z AUTO 05014KT 2 1/2SM OVC012 M09/M13 A2955 RMK AO1,PAMY,2015-02-13T06:36:00Z,60.37,-166.27,-9.0,-13.0,50,14,,2.5,29.551182,,,TRUE,TRUE,,,,,,,OVC,1200,,,,,,,IFR,,,,,,,,,,,,METAR,13.0
K4O4 130635Z AUTO 10004KT 10SM CLR 01/M07 A3037 RMK AO2,K4O4,2015-02-13T06:35:00Z,33.92,-94.87,1.0,-7.0,100,4,,10.0,30.369095,,,TRUE,TRUE,,,,,,,CLR,,,,,,,,VFR,,,,,,,,,,,,METAR,144.0
KCLW 130635Z AUTO 34010G15KT 10SM CLR 14/07 A3009 RMK AO2,KCLW,2015-02-13T06:35:00Z,27.98,-82.75,14.0,7.0,340,10,15,10.0,30.088583,,,TRUE,TRUE,,,,,,,CLR,,,,,,,,VFR,,,,,,,,,,,,SPECI,22.0
KCKF 130635Z AUTO 01006KT 10SM CLR 01/M11 A3024 RMK AO2 T00051115,KCKF,2015-02-13T06:35:00Z,31.98,-83.77,0.5,-11.5,10,6,,10.0,30.239174,,,TRUE,TRUE,,,,,,,CLR,,,,,,,,VFR,,,,,,,,,,,,SPECI,91.0
KBYY 130635Z AUTO 36004KT 10SM CLR 09/07 A3033 RMK AO2 T00940078,KBYY,2015-02-13T06:35:00Z,28.97,-95.87,9.4,7.8,360,4,,10.0,30.33071,,,TRUE,TRUE,,,,,,,CLR,,,,,,,,VFR,,,,,,,,,,,,SPECI,14.0
KBTA 130635Z AUTO 17010KT 10SM SCT100 M07/M12 A3023 RMK AO2 T10671124,KBTA,2015-02-13T06:35:00Z,41.42,-96.12,-6.7,-12.4,170,10,,10.0,30.230314,,,TRUE,TRUE,,,,,,,SCT,10000,,,,,,,VFR,,,,,,,,,,,,SPECI,396.0
KBPC 130635Z AUTO 24007KT 10SM CLR 03/M06 A3022 RMK AO2,KBPC,2015-02-13T06:35:00Z,35.88,-101.03,3.0,-6.0,240,7,,10.0,30.221457,,,TRUE,TRUE,,,,,,,CLR,,,,,,,,VFR,,,,,,,,,,,,SPECI,845.0
KBKS 130635Z AUTO 36003KT 10SM BKN090 12/09 A3033 RMK AO1 T01230092,KBKS,2015-02-13T06:35:00Z,27.2,-98.12,12.3,9.2,360,3,,10.0,30.33071,,,TRUE,TRUE,,,,,,,BKN,9000,,,,,,,VFR,,,,,,,,,,,,SPECI,34.0
KDKB 130635Z AUTO 24005KT 10SM CLR M15/M19 A3039 RMK AO2 T11541195,KDKB,2015-02-13T06:35:00Z,41.93,-88.7,-15.4,-19.5,240,5,,10.0,30.389763,,,TRUE,TRUE,,,,,,,CLR,,,,,,,,VFR,,,,,,,,,,,,SPECI,279.0
KRHP 130635Z AUTO 09008KT 10SM CLR M06/M12 A3018 RMK AO2 T10621125,KRHP,2015-02-13T06:35:00Z,35.18,-83.85,-6.2,-12.5,90,8,,10.0,30.180119,,,TRUE,TRUE,,,,,,,CLR,,,,,,,,VFR,,,,,,,,,,,,SPECI,518.0
KRFI 130635Z AUTO 08004KT 10SM CLR 05/M02 A3037 RMK AO2 T00451017,KRFI,2015-02-13T06:35:00Z,32.15,-94.85,4.5,-1.7,80,4,,10.0,30.369095,,,TRUE,TRUE,,,,,,,CLR,,,,,,,,VFR,,,,,,,,,,,,SPECI,135.0
KRCE 130635Z AUTO 17009KT 10SM 00/M06 A3030 RMK AO2,KRCE,2015-02-13T06:35:00Z,35.48,-97.82,0.0,-6.0,170,9,,10.0,30.301182,,,TRUE,TRUE,,,,,,,,,,,,,,,,,,,,,,,,,,,SPECI,413.0
KPYX 130635Z AUTO 21010KT 10SM 03/M07 A3019 RMK AO2 T00321068,KPYX,2015-02-13T06:35:00Z,36.42,-100.75,3.2,-6.8,210,10,,10.0,30.188976,,,TRUE,TRUE,,,,,,,,,,,,,,,,,,,,,,,,,,,SPECI,889.0
KPVF 130635Z AUTO 10006KT 10SM CLR 14/05 A3021 RMK AO1,KPVF,2015-02-13T06:35:00Z,38.72,-120.75,14.0,5.0,100,6,,10.0,30.209646,,,TRUE,TRUE,,,,,,,CLR,,,,,,,,VFR,,,,,,,,,,,,SPECI,789.0
KPTT 130635Z AUTO 17010KT 10SM CLR 00/M08 A3020 RMK AO2,KPTT,2015-02-13T06:35:00Z,37.7,-98.75,0.0,-8.0,170,10,,10.0,30.200787,,,TRUE,TRUE,,,,,,,CLR,,,,,,,,VFR,,,,,,,,,,,,SPECI,595.0
KPTS 130635Z AUTO 10005KT 10SM OVC110 M02/M10 A3034 RMK AO2 T10201096,KPTS,2015-02-13T06:35:00Z,37.45,-94.73,-2.0,-9.6,100,5,,10.0,30.339567,,,TRUE,TRUE,,,,,,,OVC,11000,,,,,,,VFR,,,,,,,,,,,,SPECI,290.0
KPSN 130635Z AUTO 36005KT 10SM CLR 05/M01 A3036 RMK AO2 T00491012,KPSN,2015-02-13T06:35:00Z,31.78,-95.7,4.9,-1.2,360,5,,10.0,30.360237,,,TRUE,TRUE,,,,,,,CLR,,,,,,,,VFR,,,,,,,,,,,,SPECI,129.0
KPPQ 130635Z AUTO 11003KT 10SM CLR M08/M12 A3042 RMK AO2 T10801122,KPPQ,2015-02-13T06:35:00Z,39.63,-90.78,-8.0,-12.2,110,3,,10.0,30.41929,,,TRUE,TRUE,,,,,,,CLR,,,,,,,,VFR,,,,,,,,,,,,SPECI,216.0
KPPO 130635Z AUTO 27007KT 10SM -SN SCT032 BKN070 OVC090 M11/M15 A3039 RMK AO2 T11101154,KPPO,2015-02-13T06:35:00Z,41.57,-86.73,-11.0,-15.4,270,7,,10.0,30.389763,,,TRUE,TRUE,,,,,,-SN,SCT,3200,BKN,7000,OVC,9000,,,VFR,,,,,,,,,,,,SPECI,248.0
KPMV 130635Z AUTO 16009KT 10SM OVC100 M06/M13 A3026 RMK AO2 T10641131,KPMV,2015-02-13T06:35:00Z,40.95,-95.92,-6.4,-13.1,160,9,,10.0,30.259842,,,TRUE,TRUE,,,,,,,OVC,10000,,,,,,,VFR,,,,,,,,,,,,SPECI,367.0
KPEQ 130635Z AUTO 17006KT 10SM OVC060 08/00 A3034 RMK AO2 T00750000,KPEQ,2015-02-13T06:35:00Z,31.38,-103.52,7.5,0.0,170,6,,10.0,30.339567,,,TRUE,TRUE,,,,,,,OVC,6000,,,,,,,VFR,,,,,,,,,,,,SPECI,797.0
KPDC 130635Z AUTO 00000KT 10SM CLR M17/M20 A3038 RMK AO2 T11711205,KPDC,2015-02-13T06:35:00Z,43.02,-91.12,-17.1,-20.5,0,0,,10.0,30.380905,,,TRUE,TRUE,,,,,,,CLR,,,,,,,,VFR,,,,,,,,,,,,SPECI,201.0
KOPN 130635Z AUTO 36006KT 10SM CLR M01/M11 A3021 RMK AO2,KOPN,2015-02-13T06:35:00Z,32.95,-84.27,-1.0,-11.0,360,6,,10.0,30.209646,,,TRUE,TRUE,,,,,,,CLR,,,,,,,,VFR,,,,,,,,,,,,SPECI,243.0
KONP 130635Z AUTO 00000KT 10SM CLR 11/06 A3023 RMK AO2,KONP,2015-02-13T06:35:00Z,44.57,-124.03,11.0,6.0,0,0,,10.0,30.230314,,,TRUE,TRUE,,,,,,,CLR,,,,,,,,VFR,,,,,,,,,,,,SPECI,48.0
KOKV 130635Z AUTO 32010G15KT 10SM OVC038 M10/M21 A3018 RMK AO2,KOKV,2015-02-13T06:35:00Z,39.13,-78.15,-10.0,-21.0,320,10,15,10.0,30.180119,,,TRUE,TRUE,,,,,,,OVC,3800,,,,,,,VFR,,,,,,,,,,,,SPECI,222.0
KOCW 130635Z AUTO 31007KT 10SM CLR M01/M11 A3014 RMK AO2 T10121106,KOCW,2015-02-13T06:35:00Z,35.57,-77.05,-1.2,-10.6,310,7,,10.0,30.138779,,,TRUE,TRUE,,,,,,,CLR,,,,,,,,VFR,,,,,,,,,,,,SPECI,12.0
KO69 130635Z AUTO 11003KT 10SM CLR 10/10 A3016 RMK AO1,KO69,2015-02-13T06:35:00Z,38.25,-122.6,10.0,10.0,110,3,,10.0,30.159449,,,TRUE,TRUE,,,,,,,CLR,,,,,,,,VFR,,,,,,,,,,,,SPECI,28.0
KN38 130635Z AUTO 31011G21KT 10SM BKN017 M19/M23 A3001 RMK AO2,KN38,2015-02-13T06:35:00Z,41.73,-77.4,-19.0,-23.0,310,11,21,10.0,30.008858,,,TRUE,TRUE,,,,,,,BKN,1700,,,,,,,MVFR,,,,,,,,,,,,SPECI,577.0
KMZG 130635Z AUTO 05009G15KT 7SM CLR 19/11 A3030 RMK A01,KMZG,2015-02-13T06:35:00Z,27.73,-96.18,19.0,11.0,50,9,15,7.0,30.301182,,,TRUE,TRUE,,,,,,,CLR,,,,,,,,VFR,,,,,,,,,,,,SPECI,29.0
KMWO 130635Z AUTO 00000KT 10SM OVC037 M07/M14 A3039 RMK AO2 T10701137,KMWO,2015-02-13T06:35:00Z,39.53,-84.4,-7.0,-13.7,0,0,,10.0,30.389763,,,TRUE,TRUE,,,,,,,OVC,3700,,,,,,,VFR,,,,,,,,,,,,SPECI,198.0
KMVH 130635Z AUTO 33005KT 10SM FEW120 01/M02 A3017 RMK A01,KMVH,2015-02-13T06:35:00Z,46.83,-108.93,1.0,-2.0,330,5,,10.0,30.171259,,,TRUE,TRUE,,,,,,,FEW,12000,,,,,,,VFR,,,,,,,,,,,,SPECI,1355.0
KMRN 130635Z AUTO 34003KT 10SM CLR M05/M14 A3022 RMK AO2 T10471136,KMRN,2015-02-13T06:35:00Z,35.82,-81.62,-4.7,-13.6,340,3,,10.0,30.221457,,,TRUE,TRUE,,,,,,,CLR,,,,,,,,VFR,,,,,,,,,,,,SPECI,387.0
KMQS 130635Z AUTO 32019G27KT 10SM CLR M11/M18 A3005 RMK AO2,KMQS,2015-02-13T06:35:00Z,39.98,-75.87,-11.0,-18.0,320,19,27,10.0,30.050198,,,TRUE,TRUE,,,,,,,CLR,,,,,,,,VFR,,,,,,,,,,,,SPECI,201.0
KMOR 130635Z AUTO 34009KT 10SM SCT035 M06/M12 A3027 RMK,KMOR,2015-02-13T06:35:00Z,36.18,-83.37,-6.0,-12.0,340,9,,10.0,30.268702,,,TRUE,,,,,,,,SCT,3500,,,,,,,VFR,,,,,,,,,,,,METAR,400.0
KMNZ 130635Z AUTO 00000KT 10SM CLR 04/M02 A3037 RMK AO2 T00381025,KMNZ,2015-02-13T06:35:00Z,31.67,-98.15,3.8,-2.5,0,0,,10.0,30.369095,,,TRUE,TRUE,,,,,,,CLR,,,,,,,,VFR,,,,,,,,,,,,SPECI,396.0
KMMU 130635Z AUTO 32011G23KT 10SM CLR M11/M23 A3001 RMK AO2,KMMU,2015-02-13T06:35:00Z,40.78,-74.42,-11.0,-23.0,320,11,23,10.0,30.008858,,,TRUE,TRUE,,,,,,,CLR,,,,,,,,VFR,,,,,,,,,,,,SPECI,57.0
KMIS 130635Z AUTO 04022KT 10SM CLR 12/02 A3024 RMK A01,KMIS,2015-02-13T06:35:00Z,29.3,-88.85,12.0,2.0,40,22,,10.0,30.239174,,,TRUE,TRUE,,,,,,,CLR,,,,,,,,VFR,,,,,,,,,,,,SPECI,32.0
KMHV 130635Z AUTO 33008KT 10SM CLR 09/M06 A3022 RMK AO1,KMHV,2015-02-13T06:35:00Z,35.07,-118.15,9.0,-6.0,330,8,,10.0,30.221457,,,TRUE,TRUE,,,,,,,CLR,,,,,,,,VFR,,,,,,,,,,,,SPECI,849.0
KMGR 130635Z AUTO 36008G14KT 10SM CLR 02/M06 A3021 RMK AO2,KMGR,2015-02-13T06:35:00Z,31.08,-83.8,2.0,-6.0,360,8,14,10.0,30.209646,,,TRUE,TRUE,,,,,,,CLR,,,,,,,,VFR,,,,,,,,,,,,SPECI,90.0
KMEV 130635Z AUTO 09003KT 10SM CLR 02/00 A3036 RMK AO2,KMEV,2015-02-13T06:35:00Z,38.98,-119.75,2.0,0.0,90,3,,10.0,30.360237,,,TRUE,TRUE,,,,,,,CLR,,,,,,,,VFR,,,,,,,,,,,,SPECI,1439.0
KMDJ 130635Z AUTO 02023KT 10SM 13/03 A3029 RMK A01,KMDJ,2015-02-13T06:35:00Z,28.65,-89.8,13.0,3.0,20,23,,10.0,30.28937,,,TRUE,TRUE,,,,,,,,,,,,,,,,,,,,,,,,,,,SPECI,31.0
KMCC 130635Z AUTO 00000KT 9SM CLR 11/10 A3017 RMK AO2,KMCC,2015-02-13T06:35:00Z,38.67,-121.4,11.0,10.0,0,0,,9.0,30.171259,,,TRUE,TRUE,,,,,,,CLR,,,,,,,,VFR,,,,,,,,,,,,SPECI,23.0
KMAN 130635Z AUTO 00000KT 5SM CLR 03/03 A3036 RMK AO1,KMAN,2015-02-13T06:35:00Z,43.58,-116.52,3.0,3.0,0,0,,5.0,30.360237,,,TRUE,TRUE,,,,,,,CLR,,,,,,,,MVFR,,,,,,,,,,,,SPECI,774.0
KM30 130635Z AUTO 00000KT 10SM CLR M07/M11 A3044 RMK AO2 T10661115,KM30,2015-02-13T06:35:00Z,37.18,-88.75,-6.6,-11.5,0,0,,10.0,30.43996,,,TRUE,TRUE,,,,,,,CLR,,,,,,,,VFR,,,,,,,,,,,,SPECI,117.0
KLVL 130635Z AUTO 32003KT 10SM CLR M03/M14 A3014 RMK AO1 T10351138,KLVL,2015-02-13T06:35:00Z,36.78,-77.8,-3.5,-13.8,320,3,,10.0,30.138779,,,TRUE,TRUE,,,,,,,CLR,,,,,,,,VFR,,,,,,,,,,,,SPECI,100.0
KLUM 130635Z AUTO 16004KT 10SM CLR M16/M20 A3027 RMK AO2 T11611201,KLUM,2015-02-13T06:35:00Z,44.9,-91.87,-16.1,-20.1,160,4,,10.0,30.268702,,,TRUE,TRUE,,,,,,,CLR,,,,,,,,VFR,,,,,,,,,,,,SPECI,273.0
KLNN 130635Z AUTO 32005KT 10SM CLR M15/M20 A3031 RMK AO1 T11461198,KLNN,2015-02-13T06:35:00Z,41.67,-81.37,-14.6,-19.8,320,5,,10.0,30.31004,,,TRUE,TRUE,,,,,,,CLR,,,,,,,,VFR,,,,,,,,,,,,SPECI,191.0
KLNC 130635Z AUTO 00000KT 10SM CLR 02/M02 A3038 RMK AO2 T00171024,KLNC,2015-02-13T06:35:00Z,32.58,-96.72,1.7,-2.4,0,0,,10.0,30.380905,,,TRUE,TRUE,,,,,,,CLR,,,,,,,,VFR,,,,,,,,,,,,SPECI,153.0
PAAD 130635Z AUTO 24012KT 10SM BKN050 BKN065 OVC100 M34/M38 A3021 RMK AO2,PAAD,2015-02-13T06:35:00Z,70.13,-146.28,-34.0,-38.0,240,12,,10.0,30.209646,,,TRUE,TRUE,,,,,,,BKN,5000,BKN,6500,OVC,10000,,,VFR,,,,,,,,,,,,SPECI,8.0
KW31 130635Z AUTO 33008KT 10SM CLR M04/M16 A3014 RMK AO1 T10391158,KW31,2015-02-13T06:35:00Z,36.95,-78.18,-3.9,-15.8,330,8,,10.0,30.138779,,,TRUE,TRUE,,,,,,,CLR,,,,,,,,VFR,,,,,,,,,,,,SPECI,162.0
KVJI 130635Z AUTO 34006KT 10SM OVC032 M07/M14 A3018 RMK AO2 T10711145,KVJI,2015-02-13T06:35:00Z,36.67,-82.02,-7.1,-14.5,340,6,,10.0,30.180119,,,TRUE,TRUE,,,,,,,OVC,3200,,,,,,,VFR,,,,,,,,,,,,SPECI,631.0
KSZT 130635Z AUTO 00000KT 3SM BR BKN002 BKN110 03/03 A3032 RMK AO2,KSZT,2015-02-13T06:35:00Z,48.3,-116.57,3.0,3.0,0,0,,3.0,30.318897,,,TRUE,TRUE,,,,,,BR,BKN,200,BKN,11000,,,,,LIFR,,,,,,,,,,,,SPECI,648.0
KSUT 130635Z AUTO 35013G20KT 10SM CLR 00/M11 A3014 RMK AO2 T00021115,KSUT,2015-02-13T06:35:00Z,33.93,-78.08,0.2,-11.5,350,13,20,10.0,30.138779,,,TRUE,TRUE,,,,,,,CLR,,,,,,,,VFR,,,,,,,,,,,,SPECI,8.0
KSUN 130635Z AUTO 32007KT 10SM CLR 02/M02 A3039 RMK AO2,KSUN,2015-02-13T06:35:00Z,43.5,-114.28,2.0,-2.0,320,7,,10.0,30.389763,,,TRUE,TRUE,,,,,,,CLR,,,,,,,,VFR,,,,,,,,,,,,SPECI,1620.0
KSJS 130635Z AUTO 36008G17KT 330V030 10SM SCT042 M09/M15 A3032 RMK AO2 T10871147,KSJS,2015-02-13T06:35:00Z,37.75,-82.63,-8.7,-14.7,360,8,17,10.0,30.318897,,,TRUE,TRUE,,,,,,,SCT,4200,,,,,,,VFR,,,,,,,,,,,,SPECI,372.0
KSCD 130635Z AUTO 00000KT 10SM CLR M03/M11 A3030 RMK AO2 T10271108,KSCD,2015-02-13T06:35:00Z,33.17,-86.3,-2.7,-10.8,0,0,,10.0,30.301182,,,TRUE,TRUE,,,,,,,CLR,,,,,,,,VFR,,,,,,,,,,,,SPECI,173.0
KSAA 130635Z AUTO 10SM CLR 00/M06 A3032 RMK AO2,KSAA,2015-02-13T06:35:00Z,41.45,-106.83,0.0,-6.0,,,,10.0,30.318897,,,TRUE,TRUE,,,,,,,CLR,,,,,,,,VFR,,,,,,,,,,,,SPECI,2138.0
KRCZ 130635Z AUTO 32008KT 10SM M02/M12 A3019 RMK AO2 T10211121,KRCZ,2015-02-13T06:35:00Z,34.88,-79.77,-2.1,-12.1,320,8,,10.0,30.188976,,,TRUE,TRUE,,,,,,,,,,,,,,,,,,,,,,,,,,,SPECI,109.0
KPVJ 130635Z AUTO 16003KT 10SM CLR 00/M07 A3033 RMK AO2 T00001071,KPVJ,2015-02-13T06:35:00Z,34.72,-97.22,0.0,-7.1,160,3,,10.0,30.33071,,,TRUE,TRUE,,,,,,,CLR,,,,,,,,VFR,,,,,,,,,,,,SPECI,295.0
KPRO 130635Z AUTO 15004KT 10SM M09/M11 A3032 RMK AO2 T10931110,KPRO,2015-02-13T06:35:00Z,41.83,-94.17,-9.3,-11.0,150,4,,10.0,30.318897,,,TRUE,TRUE,,,,,,,,,,,,,,,,,,,,,,,,,,,SPECI,308.0
KPCZ 130635Z AUTO 00000KT 10SM CLR M18/M22 A3034 RMK AO2 T11791219,KPCZ,2015-02-13T06:35:00Z,44.33,-89.02,-17.9,-21.9,0,0,,10.0,30.339567,,,TRUE,TRUE,,,,,,,CLR,,,,,,,,VFR,,,,,,,,,,,,SPECI,252.0
KOXI 130635Z AUTO 25007KT 10SM SCT031 M13/M23 A3039 RMK AO1,KOXI,2015-02-13T06:35:00Z,41.33,-86.67,-13.0,-23.0,250,7,,10.0,30.389763,,,TRUE,TRUE,,,,,,,SCT,3100,,,,,,,VFR,,,,,,,,,,,,SPECI,209.0
KOLE 130635Z AUTO 28005KT 2 1/2SM BR SCT009 OVC014 M21/M22 A3002 RMK AO2,KOLE,2015-02-13T06:35:00Z,42.23,-78.37,-21.0,-22.0,280,5,,2.5,30.02067,,,TRUE,TRUE,,,,,,BR,SCT,900,OVC,1400,,,,,IFR,,,,,,,,,,,,SPECI,651.0
KOJA 130635Z AUTO 19007KT 10SM CLR 02/M04 A3028 RMK AO2,KOJA,2015-02-13T06:35:00Z,35.55,-98.67,2.0,-4.0,190,7,,10.0,30.280512,,,TRUE,TRUE,,,,,,,CLR,,,,,,,,VFR,,,,,,,,,,,,SPECI,490.0
KMQB 130635Z AUTO 00000KT 10SM CLR M10/M13 A3043 RMK AO2 T11021128,KMQB,2015-02-13T06:35:00Z,40.52,-90.65,-10.2,-12.8,0,0,,10.0,30.431103,,,TRUE,TRUE,,,,,,,CLR,,,,,,,,VFR,,,,,,,,,,,,SPECI,215.0
KMMH 130635Z AUTO 00000KT 10SM CLR 01/M05 A3043 RMK AO1,KMMH,2015-02-13T06:35:00Z,37.62,-118.82,1.0,-5.0,0,0,,10.0,30.431103,,,TRUE,TRUE,,,,,,,CLR,,,,,,,,VFR,,,,,,,,,,,,SPECI,2173.0
KLUA 130635Z AUTO 32011G20KT 300V360 10SM CLR M08/M17 A3016 RMK AO2,KLUA,2015-02-13T06:35:00Z,38.67,-78.5,-8.0,-17.0,320,11,20,10.0,30.159449,,,TRUE,TRUE,,,,,,,CLR,,,,,,,,VFR,,,,,,,,,,,,SPECI,275.0
KLOM 130635Z AUTO 31008G17KT OVC036 M09/M17 A3004 RMK AO1,KLOM,2015-02-13T06:35:00Z,40.13,-75.27,-9.0,-17.0,310,8,17,,30.041338,,,TRUE,TRUE,,,,,,,OVC,3600,,,,,,,,,,,,,,,,,,,SPECI,92.0
KJYL 130635Z AUTO 01003KT 10SM CLR 00/M09 A3019 RMK AO2 T00011089,KJYL,2015-02-13T06:35:00Z,32.65,-81.6,0.1,-8.9,10,3,,10.0,30.188976,,,TRUE,TRUE,,,,,,,CLR,,,,,,,,VFR,,,,,,,,,,,,SPECI,57.0
KJVL 130635Z AUTO 00000KT 10SM CLR M13/M17 A3038 RMK AO2,KJVL,2015-02-13T06:35:00Z,42.62,-89.05,-13.0,-17.0,0,0,,10.0,30.380905,,,TRUE,TRUE,,,,,,,CLR,,,,,,,,VFR,,,,,,,,,,,,SPECI,246.0
KJNX 130635Z AUTO 35006G17KT 10SM CLR M01/M14 A3016 RMK AO2,KJNX,2015-02-13T06:35:00Z,35.53,-78.38,-1.0,-14.0,350,6,17,10.0,30.159449,,,TRUE,TRUE,,,,,,,CLR,,,,,,,,VFR,,,,,,,,,,,,SPECI,50.0
KIXA 130635Z AUTO 31008KT 10SM CLR M01/M12 A3015 RMK AO2,KIXA,2015-02-13T06:35:00Z,36.33,-77.63,-1.0,-12.0,310,8,,10.0,30.15059,,,TRUE,TRUE,,,,,,,CLR,,,,,,,,VFR,,,,,,,,,,,,SPECI,44.0
KHVE 130635Z AUTO 00000KT 10SM CLR 00/M05 A3035 RMK AO2,KHVE,2015-02-13T06:35:00Z,38.42,-110.7,0.0,-5.0,0,0,,10.0,30.351377,,,TRUE,TRUE,,,,,,,CLR,,,,,,,,VFR,,,,,,,,,,,,SPECI,1350.0
KHNZ 130635Z AUTO 32004G17KT 10SM CLR M04/M16 A3016 RMK AO2 T10411165,KHNZ,2015-02-13T06:35:00Z,36.37,-78.53,-4.1,-16.5,320,4,17,10.0,30.159449,,,TRUE,TRUE,,,,,,,CLR,,,,,,,,VFR,,,,,,,,,,,,SPECI,161.0
KHHF 130635Z AUTO 21009KT 10SM CLR 05/M06 A3022 RMK AO2 T00471065,KHHF,2015-02-13T06:35:00Z,35.9,-100.4,4.7,-6.5,210,9,,10.0,30.221457,,,TRUE,TRUE,,,,,,,CLR,,,,,,,,VFR,,,,,,,,,,,,SPECI,712.0
KHBI 130635Z AUTO 32005G08KT 10SM CLR M03/M15 A3022 RMK AO2 T10351147,KHBI,2015-02-13T06:35:00Z,35.65,-79.9,-3.5,-14.7,320,5,8,10.0,30.221457,,,TRUE,TRUE,,,,,,,CLR,,,,,,,,VFR,,,,,,,,,,,,SPECI,205.0
KGYY 130635Z AUTO 24004KT 10SM CLR M11/M19 A3042 RMK AO2 T11131186,KGYY,2015-02-13T06:35:00Z,41.62,-87.42,-11.3,-18.6,240,4,,10.0,30.41929,,,TRUE,TRUE,,,,,,,CLR,,,,,,,,VFR,,,,,,,,,,,,SPECI,180.0
KGEV 130635Z AUTO 31009G16KT 10SM OVC023 M11/M16 A3003 RMK AO2 T11071165,KGEV,2015-02-13T06:35:00Z,36.43,-81.42,-10.7,-16.5,310,9,16,10.0,30.029528,,,TRUE,TRUE,,,,,,,OVC,2300,,,,,,,MVFR,,,,,,,,,,,,SPECI,969.0
KFKR 130635Z AUTO 22005KT 10SM CLR M13/M14 A3040 RMK AO2 T11271144,KFKR,2015-02-13T06:35:00Z,40.27,-86.57,-12.7,-14.4,220,5,,10.0,30.398623,,,TRUE,TRUE,,,,,,,CLR,,,,,,,,VFR,,,,,,,,,,,,SPECI,262.0
KEHO 130635Z AUTO 33006KT 10SM CLR M03/M13 A3019 RMK AO2 T10351132,KEHO,2015-02-13T06:35:00Z,35.25,-81.6,-3.5,-13.2,330,6,,10.0,30.188976,,,TRUE,TRUE,,,,,,,CLR,,,,,,,,VFR,,,,,,,,,,,,SPECI,258.0
KGLE 130635Z AUTO 00000KT 10SM CLR 00/M03 A3037 RMK AO2 T10031033,KGLE,2015-02-13T06:35:00Z,33.65,-97.2,-0.3,-3.3,0,0,,10.0,30.369095,,,TRUE,TRUE,,,,,,,CLR,,,,,,,,VFR,,,,,,,,,,,,SPECI,256.0
KGIC 130635Z AUTO 22004KT 7SM CLR 03/00 A3036 RMK AO1 T00320000,KGIC,2015-02-13T06:35:00Z,45.95,-116.12,3.2,0.0,220,4,,7.0,30.360237,,,TRUE,TRUE,,,,,,,CLR,,,,,,,,VFR,,,,,,,,,,,,SPECI,1009.0
KGHB 130635Z AUTO 04020KT 10SM SCT039 SCT046 16/08 A3026 RMK A01,KGHB,2015-02-13T06:35:00Z,27.83,-91.98,16.0,8.0,40,20,,10.0,30.259842,,,TRUE,TRUE,,,,,,,SCT,3900,SCT,4600,,,,,VFR,,,,,,,,,,,,SPECI,30.0
KGDJ 130635Z AUTO 00000KT 10SM CLR 02/M01 A3039 RMK AO2 T00211012,KGDJ,2015-02-13T06:35:00Z,32.45,-97.82,2.1,-1.2,0,0,,10.0,30.389763,,,TRUE,TRUE,,,,,,,CLR,,,,,,,,VFR,,,,,,,,,,,,SPECI,237.0
KGBK 130635Z AUTO 00000G12KT 10SM FEW033 SCT041 18/11 A3024 RMK A01,KGBK,2015-02-13T06:35:00Z,27.2,-92.2,18.0,11.0,0,0,12,10.0,30.239174,,,TRUE,TRUE,,,,,,,FEW,3300,SCT,4100,,,,,VFR,,,,,,,,,,,,SPECI,59.0
KFYJ 130635Z AUTO 32010G16KT 10SM CLR M04/M15 A3016 RMK AO2 T10401151,KFYJ,2015-02-13T06:35:00Z,37.52,-76.77,-4.0,-15.1,320,10,16,10.0,30.159449,,,TRUE,TRUE,,,,,,,CLR,,,,,,,,VFR,,,,,,,,,,,,SPECI,7.0
KFSO 130635Z AUTO 29006G18KT 7SM BKN034 OVC055 M18/M22 A2997 RMK AO2 T11821225,KFSO,2015-02-13T06:35:00Z,44.93,-73.1,-18.2,-22.5,290,6,18,7.0,29.970472,,,TRUE,TRUE,,,,,,,BKN,3400,OVC,5500,,,,,VFR,,,,,,,,,,,,SPECI,70.0
KFOT 130635Z AUTO 14010KT 10SM CLR 09/09 A3018 RMK AO1,KFOT,2015-02-13T06:35:00Z,40.55,-124.13,9.0,9.0,140,10,,10.0,30.180119,,,TRUE,TRUE,,,,,,,CLR,,,,,,,,VFR,,,,,,,,,,,,SPECI,120.0
KFHB 130635Z AUTO 34013G16KT 10SM CLR 08/M05 A3015 RMK AO1,KFHB,2015-02-13T06:35:00Z,30.62,-81.47,8.0,-5.0,340,13,16,10.0,30.15059,,,TRUE,TRUE,,,,,,,CLR,,,,,,,,VFR,,,,,,,,,,,,SPECI,5.0
FASB 130635Z 16005KT 9999 FEW012 15/08 Q1018,FASB,2015-02-13T06:35:00Z,-29.68,17.93,15.0,8.0,160,5,,6.21,30.059055,,,,,,,,,,,FEW,1200,,,,,,,VFR,,,,,,,,,,,,SPECI,813.0
KADU 130635Z AUTO 18009KT 10SM SCT048 BKN060 OVC085 M08/M11 A3026 RMK AO2,KADU,2015-02-13T06:35:00Z,41.7,-94.92,-8.0,-11.0,180,9,,10.0,30.259842,,,TRUE,TRUE,,,,,,,SCT,4800,BKN,6000,OVC,8500,,,VFR,,,,,,,,,,,,SPECI,392.0
KA08 130635Z AUTO 35005KT 10SM CLR M02/M10 A3033 RMK AO2 T10211100,KA08,2015-02-13T06:35:00Z,32.52,-87.38,-2.1,-10.0,350,5,,10.0,30.33071,,,TRUE,TRUE,,,,,,,CLR,,,,,,,,VFR,,,,,,,,,,,,METAR,69.0
K7L2 130635Z AUTO 11005KT 10SM CLR M14/M14 A3008 RMK AO2,K7L2,2015-02-13T06:35:00Z,46.22,-100.25,-14.0,-14.0,110,5,,10.0,30.079725,,,TRUE,TRUE,,,,,,,CLR,,,,,,,,VFR,,,,,,,,,,,,SPECI,543.0
K6B0 130635Z AUTO 36008KT 5SM HZ BKN020 OVC025 M16/M19 A2991 RMK AO2 T11611191,K6B0,2015-02-13T06:35:00Z,43.98,-73.1,-16.1,-19.1,360,8,,5.0,29.911417,,,TRUE,TRUE,,,,,,HZ,BKN,2000,OVC,2500,,,,,MVFR,,,,,,,,,,,,SPECI,149.0
K66R 130635Z AUTO 34005KT 10SM CLR 08/04 A3034 RMK AO2 T00760043,K66R,2015-02-13T06:35:00Z,29.65,-96.52,7.6,4.3,340,5,,10.0,30.339567,,,TRUE,TRUE,,,,,,,CLR,,,,,,,,VFR,,,,,,,,,,,,SPECI,74.0
K54J 130635Z AUTO 36006KT 10SM CLR 02/M07 A3024 RMK AO2 T00161075,K54J,2015-02-13T06:35:00Z,30.73,-86.15,1.6,-7.5,360,6,,10.0,30.239174,,,TRUE,TRUE,,,,,,,CLR,,,,,,,,VFR,,,,,,,,,,,,SPECI,88.0
K3R7 130635Z AUTO 04009KT 10SM CLR 06/M04 A3034 RMK AO2 T00571041,K3R7,2015-02-13T06:35:00Z,30.25,-92.67,5.7,-4.1,40,9,,10.0,30.339567,,,TRUE,TRUE,,,,,,,CLR,,,,,,,,VFR,,,,,,,,,,,,SPECI,7.0
K3LF 130635Z AUTO 00000KT 10SM SCT120 M09/M15 A3042 RMK AO2 T10891149,K3LF,2015-02-13T06:35:00Z,39.17,-89.67,-8.9,-14.9,0,0,,10.0,30.41929,,,TRUE,TRUE,,,,,,,SCT,12000,,,,,,,VFR,,,,,,,,,,,,SPECI,210.0
K36U 130635Z AUTO 00000KT 10SM CLR M02/M05 A3039 RMK AO2,K36U,2015-02-13T06:35:00Z,40.48,-111.43,-2.0,-5.0,0,0,,10.0,30.389763,,,TRUE,TRUE,,,,,,,CLR,,,,,,,,VFR,,,,,,,,,,,,SPECI,1718.0
K2G9 130635Z AUTO 31015G22KT 5SM HZ OVC019 M17/M21 A3008 RMK AO2,K2G9,2015-02-13T06:35:00Z,40.03,-79.02,-17.0,-21.0,310,15,22,5.0,30.079725,,,TRUE,TRUE,,,,,,HZ,OVC,1900,,,,,,,MVFR,,,,,,,,,,,,METAR,693.0
KAFK 130635Z AUTO 17007KT 10SM OVC100 M06/M14 A3028 RMK AO2 T10571138,KAFK,2015-02-13T06:35:00Z,40.6,-95.85,-5.7,-13.8,170,7,,10.0,30.280512,,,TRUE,TRUE,,,,,,,OVC,10000,,,,,,,VFR,,,,,,,,,,,,SPECI,354.0
RJSN 130635Z 29023G38KT 9999 FEW020 BKN045 02/M09 Q1005 RMK 1CU020 5CU045 A2969,RJSN,2015-02-13T06:35:00Z,37.95,139.12,2.0,-9.0,290,23,38,6.21,29.675198,,,,,,,,,,,FEW,2000,BKN,4500,,,,,VFR,,,,,,,,,,,,SPECI,4.0
RJOA 130635Z 30021G31KT 9999 FEW015 SCT030 02/M10 Q1012 RMK 1CU015 3CU030 A2990,RJOA,2015-02-13T06:35:00Z,34.42,132.92,2.0,-10.0,300,21,31,6.21,29.88189,,,,,,,,,,,FEW,1500,SCT,3000,,,,,VFR,,,,,,,,,,,,SPECI,6.0
KBPG 130635Z AUTO 15003KT 10SM OVC065 09/M03 A3036 RMK AO2 T00871034,KBPG,2015-02-13T06:35:00Z,32.22,-101.52,8.7,-3.4,150,3,,10.0,30.360237,,,TRUE,TRUE,,,,,,,OVC,6500,,,,,,,VFR,,,,,,,,,,,,SPECI,784.0
KCTJ 130635Z AUTO 34008KT 10SM CLR M03/M11 A3027 RMK AO2,KCTJ,2015-02-13T06:35:00Z,33.63,-85.15,-3.0,-11.0,340,8,,10.0,30.268702,,,TRUE,TRUE,,,,,,,CLR,,,,,,,,VFR,,,,,,,,,,,,SPECI,354.0
KCSQ 130635Z AUTO 18009KT 10SM SCT033 BKN041 OVC047 M09/M11 A3030 RMK AO2,KCSQ,2015-02-13T06:35:00Z,41.02,-94.37,-9.0,-11.0,180,9,,10.0,30.301182,,,TRUE,TRUE,,,,,,,SCT,3300,BKN,4100,OVC,4700,,,VFR,,,,,,,,,,,,SPECI,394.0
KCQF 130635Z AUTO 36004KT 10SM CLR 02/M05 A3027 RMK AO2,KCQF,2015-02-13T06:35:00Z,30.47,-87.88,2.0,-5.0,360,4,,10.0,30.268702,,,TRUE,TRUE,,,,,,,CLR,,,,,,,,VFR,,,,,,,,,,,,SPECI,28.0
KCQB 130635Z AUTO 14005KT 10SM CLR 01/M07 A3032 RMK AO2,KCQB,2015-02-13T06:35:00Z,35.72,-96.82,1.0,-7.0,140,5,,10.0,30.318897,,,TRUE,TRUE,,,,,,,CLR,,,,,,,,VFR,,,,,,,,,,,,SPECI,300.0
KCPT 130635Z AUTO 00000KT 10SM CLR 03/M01 A3038 RMK AO2,KCPT,2015-02-13T06:35:00Z,32.35,-97.43,3.0,-1.0,0,0,,10.0,30.380905,,,TRUE,TRUE,,,,,,,CLR,,,,,,,,VFR,,,,,,,,,,,,SPECI,260.0
KCPC 130635Z AUTO 00000KT 10SM CLR 00/M10 A3016 RMK AO2 T00001102,KCPC,2015-02-13T06:35:00Z,34.28,-78.72,0.0,-10.2,0,0,,10.0,30.159449,,,TRUE,TRUE,,,,,,,CLR,,,,,,,,VFR,,,,,,,,,,,,SPECI,29.0
KCOM 130635Z AUTO 20003KT 10SM CLR 06/M02 A3036 RMK AO2 T00611018,KCOM,2015-02-13T06:35:00Z,31.83,-99.4,6.1,-1.8,200,3,,10.0,30.360237,,,TRUE,TRUE,,,,,,,CLR,,,,,,,,VFR,,,,,,,,,,,,SPECI,517.0
KCNC 130635Z AUTO 19007KT 7SM -SN SCT020 SCT026 OVC055 M09/M12 A3034 RMK AO2,KCNC,2015-02-13T06:35:00Z,41.02,-93.37,-9.0,-12.0,190,7,,7.0,30.339567,,,TRUE,TRUE,,,,,,-SN,SCT,2000,SCT,2600,OVC,5500,,,VFR,,,,,,,,,,,,SPECI,320.0
KCMY 130635Z AUTO 00000KT 10SM CLR M22/M25 A3034 RMK AO2 T12251249,KCMY,2015-02-13T06:35:00Z,43.97,-90.73,-22.5,-24.9,0,0,,10.0,30.339567,,,TRUE,TRUE,,,,,,,CLR,,,,,,,,VFR,,,,,,,,,,,,SPECI,256.0
KCJR 130635Z AUTO 01009KT 10SM CLR M08/M18 A3019 RMK AO2,KCJR,2015-02-13T06:35:00Z,38.53,-77.87,-8.0,-18.0,10,9,,10.0,30.188976,,,TRUE,TRUE,,,,,,,CLR,,,,,,,,VFR,,,,,,,,,,,,SPECI,97.0
KCIN 130635Z AUTO 18008KT 10SM BKN050 OVC060 M08/M10 A3028 RMK AO2,KCIN,2015-02-13T06:35:00Z,42.03,-94.77,-8.0,-10.0,180,8,,10.0,30.280512,,,TRUE,TRUE,,,,,,,BKN,5000,OVC,6000,,,,,VFR,,,,,,,,,,,,SPECI,375.0
KCHK 130635Z AUTO 17003KT 10SM CLR 01/M03 A3030 RMK AO2,KCHK,2015-02-13T06:35:00Z,35.1,-97.97,1.0,-3.0,170,3,,10.0,30.301182,,,TRUE,TRUE,,,,,,,CLR,,,,,,,,VFR,,,,,,,,,,,,SPECI,351.0
KCFD 130635Z AUTO 34003KT 10SM CLR 07/01 A3037 RMK AO2 T00650009,KCFD,2015-02-13T06:35:00Z,30.72,-96.33,6.5,0.9,340,3,,10.0,30.369095,,,TRUE,TRUE,,,,,,,CLR,,,,,,,,VFR,,,,,,,,,,,,SPECI,112.0
KCBF 130635Z AUTO 18008KT 10SM SCT090 M07/M13 A3025 RMK AO2,KCBF,2015-02-13T06:35:00Z,41.27,-95.77,-7.0,-13.0,180,8,,10.0,30.250984,,,TRUE,TRUE,,,,,,,SCT,9000,,,,,,,VFR,,,,,,,,,,,,SPECI,382.0
KCAV 130635Z AUTO 18011KT 4SM -SN FEW005 SCT044 BKN070 M11/M13 A3029 RMK AO2,KCAV,2015-02-13T06:35:00Z,42.75,-93.77,-11.0,-13.0,180,11,,4.0,30.28937,,,TRUE,TRUE,,,,,,-SN,FEW,500,SCT,4400,BKN,7000,,,MVFR,,,,,,,,,,,,SPECI,354.0
KC09 130635Z AUTO 00000KT 10SM CLR M16/M19 A3042 RMK AO2 T11651187,KC09,2015-02-13T06:35:00Z,41.43,-88.42,-16.5,-18.7,0,0,,10.0,30.41929,,,TRUE,TRUE,,,,,,,CLR,,,,,,,,VFR,,,,,,,,,,,,SPECI,178.0
KBQK 130635Z AUTO 33004KT 10SM CLR 04/M08 A3017 RMK AO1,KBQK,2015-02-13T06:35:00Z,31.25,-81.47,4.0,-8.0,330,4,,10.0,30.171259,,,TRUE,TRUE,,,,,,,CLR,,,,,,,,VFR,,,,,,,,,,,,SPECI,8.0
KDBN 130635Z AUTO 34003KT 10SM CLR M01/M09 A3024 RMK AO2,KDBN,2015-02-13T06:35:00Z,32.57,-82.98,-1.0,-9.0,340,3,,10.0,30.239174,,,TRUE,TRUE,,,,,,,CLR,,,,,,,,VFR,,,,,,,,,,,,SPECI,94.0
KCWC 130635Z AUTO 17005KT 10SM CLR 02/M02 A3035 RMK AO2 T00241021,KCWC,2015-02-13T06:35:00Z,33.85,-98.48,2.4,-2.1,170,5,,10.0,30.351377,,,TRUE,TRUE,,,,,,,CLR,,,,,,,,VFR,,,,,,,,,,,,SPECI,305.0
KCVB 130635Z AUTO 04004KT 10SM BKN100 10/02 A3036 RMK AO2 T01010020,KCVB,2015-02-13T06:35:00Z,29.35,-98.85,10.1,2.0,40,4,,10.0,30.360237,,,TRUE,TRUE,,,,,,,BKN,10000,,,,,,,VFR,,,,,,,,,,,,SPECI,235.0
KCTZ 130635Z AUTO 32004KT 10SM CLR M01/M10 A3017 RMK AO2 T10081097,KCTZ,2015-02-13T06:35:00Z,34.98,-78.37,-0.8,-9.7,320,4,,10.0,30.171259,,,TRUE,TRUE,,,,,,,CLR,,,,,,,,VFR,,,,,,,,,,,,SPECI,45.0
KEFK 130635Z AUTO 29006G14KT 2 1/2SM -SN BKN008 BKN014 OVC050 M18/M21 A2983 RMK AO2 T11771212,KEFK,2015-02-13T06:35:00Z,44.88,-72.23,-17.7,-21.2,290,6,14,2.5,29.828741,,,TRUE,TRUE,,,,,,-SN,BKN,800,BKN,1400,OVC,5000,,,IFR,,,,,,,,,,,,SPECI,284.0
KEBS 130635Z AUTO 17009KT 7SM BKN035 BKN070 OVC120 M11/M11 A3029 RMK AO2,KEBS,2015-02-13T06:35:00Z,42.42,-93.87,-11.0,-11.0,170,9,,7.0,30.28937,,,TRUE,TRUE,,,,,,,BKN,3500,BKN,7000,OVC,12000,,,VFR,,,,,,,,,,,,SPECI,342.0
KE38 130635Z AUTO 21004KT 10SM OVC024 01/00 A3039 RMK AO2 T00070000,KE38,2015-02-13T06:35:00Z,30.38,-103.68,0.7,0.0,210,4,,10.0,30.389763,,,TRUE,TRUE,,,,,,,OVC,2400,,,,,,,MVFR,,,,,,,,,,,,SPECI,1376.0
KDWX 130635Z AUTO 08004KT 10SM CLR 00/M05 A3038 RMK AO2 T10021054,KDWX,2015-02-13T06:35:00Z,41.03,-107.5,-0.2,-5.4,80,4,,10.0,30.380905,,,TRUE,TRUE,,,,,,,CLR,,,,,,,,VFR,,,,,,,,,,,,SPECI,1996.0
KDUB 130635Z AUTO 27012KT 10SM CLR 03/M09 A3031 RMK AO2,KDUB,2015-02-13T06:35:00Z,43.55,-109.68,3.0,-9.0,270,12,,10.0,30.31004,,,TRUE,TRUE,,,,,,,CLR,,,,,,,,VFR,,,,,,,,,,,,SPECI,2224.0
KDNS 130635Z AUTO 19008KT 10SM FEW048 OVC075 M08/M11 A3024 RMK AO2,KDNS,2015-02-13T06:35:00Z,41.97,-95.37,-8.0,-11.0,190,8,,10.0,30.239174,,,TRUE,TRUE,,,,,,,FEW,4800,OVC,7500,,,,,VFR,,,,,,,,,,,,SPECI,388.0
KDEH 130635Z AUTO 19005KT 10SM CLR M16/M20 A3030 RMK AO2,KDEH,2015-02-13T06:35:00Z,43.27,-91.72,-16.0,-20.0,190,5,,10.0,30.301182,,,TRUE,TRUE,,,,,,,CLR,,,,,,,,VFR,,,,,,,,,,,,SPECI,353.0
KISO 130635Z AUTO 33011G16KT 10SM CLR M01/M12 A3014 RMK AO2 T10071125,KISO,2015-02-13T06:35:00Z,35.32,-77.62,-0.7,-12.5,330,11,16,10.0,30.138779,,,TRUE,TRUE,,,,,,,CLR,,,,,,,,VFR,,,,,,,,,,,,SPECI,29.0
KIOB 130635Z AUTO 04003KT 10SM SCT032 OVC040 M07/M12 A3036 RMK AO2,KIOB,2015-02-13T06:35:00Z,38.05,-83.98,-7.0,-12.0,40,3,,10.0,30.360237,,,TRUE,TRUE,,,,,,,SCT,3200,OVC,4000,,,,,VFR,,,,,,,,,,,,SPECI,311.0
KINJ 130635Z AUTO 00000KT 10SM CLR 04/M03 A3037 RMK AO2 T00431029,KINJ,2015-02-13T06:35:00Z,32.08,-97.1,4.3,-2.9,0,0,,10.0,30.369095,,,TRUE,TRUE,,,,,,,CLR,,,,,,,,VFR,,,,,,,,,,,,SPECI,209.0
KINF 130635Z AUTO 35006KT 10SM CLR 11/03 A3011 RMK AO2,KINF,2015-02-13T06:35:00Z,28.8,-82.32,11.0,3.0,350,6,,10.0,30.109253,,,TRUE,TRUE,,,,,,,CLR,,,,,,,,VFR,,,,,,,,,,,,SPECI,15.0
KIKV 130635Z AUTO 16005KT 10SM BKN050 OVC070 M10/M14 A3034 RMK AO2,KIKV,2015-02-13T06:35:00Z,41.68,-93.57,-10.0,-14.0,160,5,,10.0,30.339567,,,TRUE,TRUE,,,,,,,BKN,5000,OVC,7000,,,,,VFR,,,,,,,,,,,,SPECI,275.0
KIKK 130635Z AUTO 00000KT 10SM CLR M13/M16 A3042 RMK AO2 T11351163,KIKK,2015-02-13T06:35:00Z,41.07,-87.85,-13.5,-16.3,0,0,,10.0,30.41929,,,TRUE,TRUE,,,,,,,CLR,,,,,,,,VFR,,,,,,,,,,,,SPECI,192.0
KIJX 130635Z AUTO 08003KT 10SM CLR M08/M12 A3043 RMK AO2 T10851121,KIJX,2015-02-13T06:35:00Z,39.77,-90.25,-8.5,-12.1,80,3,,10.0,30.431103,,,TRUE,TRUE,,,,,,,CLR,,,,,,,,VFR,,,,,,,,,,,,SPECI,190.0
KIIB 130635Z AUTO 16005KT 10SM CLR M14/M16 A3034 RMK AO2,KIIB,2015-02-13T06:35:00Z,42.45,-91.95,-14.0,-16.0,160,5,,10.0,30.339567,,,TRUE,TRUE,,,,,,,CLR,,,,,,,,VFR,,,,,,,,,,,,SPECI,298.0
KIDP 130635Z AUTO 08005KT 10SM CLR M03/M11 A3033 RMK AO2,KIDP,2015-02-13T06:35:00Z,37.17,-95.78,-3.0,-11.0,80,5,,10.0,30.33071,,,TRUE,TRUE,,,,,,,CLR,,,,,,,,VFR,,,,,,,,,,,,SPECI,251.0
KI75 130635Z AUTO 17007KT 5SM -SN SCT024 BKN032 OVC038 M09/M11 A3032 RMK AO2 T10871108,KI75,2015-02-13T06:35:00Z,41.05,-93.68,-8.7,-10.8,170,7,,5.0,30.318897,,,TRUE,TRUE,,,,,,-SN,SCT,2400,BKN,3200,OVC,3800,,,MVFR,,,,,,,,,,,,SPECI,339.0
KI35 130635Z AUTO 00000KT 10SM OVC037 M07/M14 A3027 RMK AO1,KI35,2015-02-13T06:35:00Z,36.87,-83.37,-7.0,-14.0,0,0,,10.0,30.268702,,,TRUE,TRUE,,,,,,,OVC,3700,,,,,,,VFR,,,,,,,,,,,,SPECI,473.0
KHZR 130635Z AUTO 02007KT 10SM CLR 02/M06 A3036 RMK AO2 T00231056,KHZR,2015-02-13T06:35:00Z,30.72,-91.48,2.3,-5.6,20,7,,10.0,30.360237,,,TRUE,TRUE,,,,,,,CLR,,,,,,,,VFR,,,,,,,,,,,,SPECI,12.0
KHSP 130635Z AUTO 29011G27KT 260V320 10SM SCT016 M15/M19 A2989 RMK AO2 T11551191,KHSP,2015-02-13T06:35:00Z,37.95,-79.82,-15.5,-19.1,290,11,27,10.0,29.890747,,,TRUE,TRUE,,,,,,,SCT,1600,,,,,,,VFR,,,,,,,,,,,,SPECI,1156.0
KHNR 130635Z AUTO 19010KT 10SM FEW070 OVC085 M07/M10 A3030 RMK AO2,KHNR,2015-02-13T06:35:00Z,41.58,-95.33,-7.0,-10.0,190,10,,10.0,30.301182,,,TRUE,TRUE,,,,,,,FEW,7000,OVC,8500,,,,,VFR,,,,,,,,,,,,SPECI,375.0
KHLX 130635Z AUTO 31016G23KT 10SM BKN024 M10/M16 A3006 RMK AO2 T11041165,KHLX,2015-02-13T06:35:00Z,36.77,-80.82,-10.4,-16.5,310,16,23,10.0,30.059055,,,TRUE,TRUE,,,,,,,BKN,2400,,,,,,,MVFR,,,,,,,,,,,,SPECI,834.0
KHJH 130635Z AUTO 15006KT 10SM CLR M06/M12 A3022 RMK AO2 T10631120,KHJH,2015-02-13T06:35:00Z,40.15,-97.58,-6.3,-12.0,150,6,,10.0,30.221457,,,TRUE,TRUE,,,,,,,CLR,,,,,,,,VFR,,,,,,,,,,,,SPECI,447.0
KHHW 130635Z AUTO 00000KT 10SM CLR 03/M07 A3035 RMK AO2 T00261070,KHHW,2015-02-13T06:35:00Z,34.03,-95.55,2.6,-7.0,0,0,,10.0,30.351377,,,TRUE,TRUE,,,,,,,CLR,,,,,,,,VFR,,,,,,,,,,,,SPECI,144.0
KHDE 130635Z AUTO 21004KT 10SM CLR M06/M11 A3015 RMK AO2 T10631115,KHDE,2015-02-13T06:35:00Z,40.45,-99.32,-6.3,-11.5,210,4,,10.0,30.15059,,,TRUE,TRUE,,,,,,,CLR,,,,,,,,VFR,,,,,,,,,,,,SPECI,705.0
KH21 130635Z AUTO 07004KT 10SM BKN070 OVC080 M05/M14 A3038 RMK AO2,KH21,2015-02-13T06:35:00Z,37.97,-92.68,-5.0,-14.0,70,4,,10.0,30.380905,,,TRUE,TRUE,,,,,,,BKN,7000,OVC,8000,,,,,VFR,,,,,,,,,,,,SPECI,324.0
KGYI 130635Z AUTO 00000KT 10SM CLR 02/M03 A3037 RMK AO2 T00221031,KGYI,2015-02-13T06:35:00Z,33.72,-96.67,2.2,-3.1,0,0,,10.0,30.369095,,,TRUE,TRUE,,,,,,,CLR,,,,,,,,VFR,,,,,,,,,,,,SPECI,228.0
KGYB 130635Z AUTO 35003KT 10SM CLR 08/01 A3039 RMK AO2 T00770010,KGYB,2015-02-13T06:35:00Z,30.17,-96.98,7.7,1.0,350,3,,10.0,30.389763,,,TRUE,TRUE,,,,,,,CLR,,,,,,,,VFR,,,,,,,,,,,,SPECI,148.0
KGVT 130635Z AUTO 00000KT 10SM CLR 02/M03 A3037 RMK AO2,KGVT,2015-02-13T06:35:00Z,33.07,-96.07,2.0,-3.0,0,0,,10.0,30.369095,,,TRUE,TRUE,,,,,,,CLR,,,,,,,,VFR,,,,,,,,,,,,SPECI,163.0
KGUR 130635Z AUTO 29009KT 10SM CLR 06/M01 A3022 RMK AO2 T00561006,KGUR,2015-02-13T06:35:00Z,42.25,-104.72,5.6,-0.6,290,9,,10.0,30.221457,,,TRUE,TRUE,,,,,,,CLR,,,,,,,,VFR,,,,,,,,,,,,SPECI,1358.0
KGNT 130635Z AUTO 00000KT 10SM CLR M01/M04 A3034 RMK AO2 T10061045,KGNT,2015-02-13T06:35:00Z,35.17,-107.9,-0.6,-4.5,0,0,,10.0,30.339567,,,TRUE,TRUE,,,,,,,CLR,,,,,,,,VFR,,,,,,,,,,,,SPECI,1987.0
KGMJ 130635Z AUTO 00000KT 10SM CLR 00/M10 A3036 RMK AO2,KGMJ,2015-02-13T06:35:00Z,36.6,-94.73,0.0,-10.0,0,0,,10.0,30.360237,,,TRUE,TRUE,,,,,,,CLR,,,,,,,,VFR,,,,,,,,,,,,SPECI,254.0
KGHG 130635Z AUTO 33011G19KT 010V360 9SM SCT032 SCT039 BKN050 M05/M11 A2974 RMK AO2,KGHG,2015-02-13T06:35:00Z,42.1,-70.67,-5.0,-11.0,330,11,19,9.0,29.740158,,,TRUE,TRUE,,,,,,,SCT,3200,SCT,3900,BKN,5000,,,VFR,,,,,,,,,,,,SPECI,4.0
KGGI 130635Z AUTO 17006KT 10SM OVC085 M11/M14 A3035 RMK AO2 T11081143,KGGI,2015-02-13T06:35:00Z,41.72,-92.73,-10.8,-14.3,170,6,,10.0,30.351377,,,TRUE,TRUE,,,,,,,OVC,8500,,,,,,,VFR,,,,,,,,,,,,SPECI,307.0
KGBG 130635Z AUTO 00000KT 10SM CLR M13/M14 A3041 RMK AO2 T11261141,KGBG,2015-02-13T06:35:00Z,40.93,-90.43,-12.6,-14.1,0,0,,10.0,30.410433,,,TRUE,TRUE,,,,,,,CLR,,,,,,,,VFR,,,,,,,,,,,,SPECI,233.0
KGAO 130635Z AUTO 35008KT 10SM CLR 09/00 A3031 RMK AO2 T00851005,KGAO,2015-02-13T06:35:00Z,29.45,-90.27,8.5,-0.5,350,8,,10.0,30.31004,,,TRUE,TRUE,,,,,,,CLR,,,,,,,,VFR,,,,,,,,,,,,SPECI,1.0
KFWC 130635Z AUTO 00000KT 10SM CLR M07/M12 A3043 RMK AO1 T10701121,KFWC,2015-02-13T06:35:00Z,38.38,-88.42,-7.0,-12.1,0,0,,10.0,30.431103,,,TRUE,TRUE,,,,,,,CLR,,,,,,,,VFR,,,,,,,,,,,,SPECI,133.0
KFSW 130635Z AUTO 00000KT 10SM CLR M10/M14 A3040 RMK AO2,KFSW,2015-02-13T06:35:00Z,40.67,-91.32,-10.0,-14.0,0,0,,10.0,30.398623,,,TRUE,TRUE,,,,,,,CLR,,,,,,,,VFR,,,,,,,,,,,,SPECI,221.0
KFQD 130635Z AUTO 01007KT 10SM CLR M04/M14 A3019 RMK AO2 T10381145,KFQD,2015-02-13T06:35:00Z,35.42,-81.93,-3.8,-14.5,10,7,,10.0,30.188976,,,TRUE,TRUE,,,,,,,CLR,,,,,,,,VFR,,,,,,,,,,,,SPECI,329.0
KFOA 130635Z AUTO 07004KT 10SM CLR M08/M12 A3044 RMK AO2 T10771125,KFOA,2015-02-13T06:35:00Z,38.67,-88.45,-7.7,-12.5,70,4,,10.0,30.43996,,,TRUE,TRUE,,,,,,,CLR,,,,,,,,VFR,,,,,,,,,,,,SPECI,144.0
KFKN 130635Z AUTO 33008G14KT 10SM CLR M03/M12 A3014 RMK AO2 T10301124,KFKN,2015-02-13T06:35:00Z,36.7,-76.9,-3.0,-12.4,330,8,14,10.0,30.138779,,,TRUE,TRUE,,,,,,,CLR,,,,,,,,VFR,,,,,,,,,,,,SPECI,12.0
KFFL 130635Z AUTO 16004KT 10SM BKN080 BKN120 M10/M15 A3039 RMK AO2,KFFL,2015-02-13T06:35:00Z,41.03,-91.97,-10.0,-15.0,160,4,,10.0,30.389763,,,TRUE,TRUE,,,,,,,BKN,8000,BKN,12000,,,,,VFR,,,,,,,,,,,,SPECI,244.0
KF70 130635Z AUTO 00000KT 10SM CLR 13/M01 A3010 RMK AO1,KF70,2015-02-13T06:35:00Z,33.57,-117.13,13.0,-1.0,0,0,,10.0,30.100393,,,TRUE,TRUE,,,,,,,CLR,,,,,,,,VFR,,,,,,,,,,,,SPECI,412.0
KF46 130635Z AUTO 07004KT 10SM CLR 04/M04 A3036 RMK AO2 T00361039,KF46,2015-02-13T06:35:00Z,32.93,-96.43,3.6,-3.9,70,4,,10.0,30.360237,,,TRUE,TRUE,,,,,,,CLR,,,,,,,,VFR,,,,,,,,,,,,SPECI,176.0
KEZF 130635Z AUTO 33013G19KT 10SM CLR M07/M17 A3018 RMK AO2 T10661175,KEZF,2015-02-13T06:35:00Z,38.27,-77.45,-6.6,-17.5,330,13,19,10.0,30.180119,,,TRUE,TRUE,,,,,,,CLR,,,,,,,,VFR,,,,,,,,,,,,SPECI,26.0
KEYF 130635Z AUTO 33006KT 10SM CLR 00/M12 A3016 RMK AO2 T10051117,KEYF,2015-02-13T06:35:00Z,34.6,-78.58,-0.5,-11.7,330,6,,10.0,30.159449,,,TRUE,TRUE,,,,,,,CLR,,,,,,,,VFR,,,,,,,,,,,,SPECI,41.0
KEXX 130635Z AUTO 34003KT 10SM CLR M04/M15 A3019 RMK AO2 T10361147,KEXX,2015-02-13T06:35:00Z,35.78,-80.3,-3.6,-14.7,340,3,,10.0,30.188976,,,TRUE,TRUE,,,,,,,CLR,,,,,,,,VFR,,,,,,,,,,,,SPECI,223.0
KEOK 130635Z AUTO 00000KT 10SM BKN090 BKN120 M09/M12 A3040 RMK AO2,KEOK,2015-02-13T06:35:00Z,40.47,-91.42,-9.0,-12.0,0,0,,10.0,30.398623,,,TRUE,TRUE,,,,,,,BKN,9000,BKN,12000,,,,,VFR,,,,,,,,,,,,SPECI,205.0
KELK 130635Z AUTO 21012KT 10SM CLR A3026 RMK AO2,KELK,2015-02-13T06:35:00Z,35.43,-99.4,,,210,12,,10.0,30.259842,,,TRUE,TRUE,,,,,,,CLR,,,,,,,,VFR,,,,,,,,,,,,SPECI,610.0
KELA 130635Z AUTO 33005KT 10SM CLR 08/05 A3034 RMK AO2 T00770053,KELA,2015-02-13T06:35:00Z,29.6,-96.32,7.7,5.3,330,5,,10.0,30.339567,,,TRUE,TRUE,,,,,,,CLR,,,,,,,,VFR,,,,,,,,,,,,METAR,56.0
KIZA 130635Z AUTO 09007KT 10SM CLR 11/03 A3010 RMK AO2,KIZA,2015-02-13T06:35:00Z,34.6,-120.07,11.0,3.0,90,7,,10.0,30.100393,,,TRUE,TRUE,,,,,,,CLR,,,,,,,,VFR,,,,,,,,,,,,SPECI,205.0
KJGG 130635Z AUTO 34009G17KT 10SM CLR M03/M11 A3014 RMK AO1,KJGG,2015-02-13T06:35:00Z,37.23,-76.72,-3.0,-11.0,340,9,17,10.0,30.138779,,,TRUE,TRUE,,,,,,,CLR,,,,,,,,VFR,,,,,,,,,,,,SPECI,15.0
KLAM 130635Z AUTO 00000KT 10SM CLR 05/M02 A3033 RMK AO2 T00451024,KLAM,2015-02-13T06:35:00Z,35.87,-106.27,4.5,-2.4,0,0,,10.0,30.33071,,,TRUE,TRUE,,,,,,,CLR,,,,,,,,VFR,,,,,,,,,,,,SPECI,2179.0
KJYR 130635Z AUTO 19007KT 10SM CLR M07/M11 A3020 RMK AO2,KJYR,2015-02-13T06:35:00Z,40.9,-97.62,-7.0,-11.0,190,7,,10.0,30.200787,,,TRUE,TRUE,,,,,,,CLR,,,,,,,,VFR,,,,,,,,,,,,SPECI,509.0
KJWY 130635Z AUTO 00000KT 10SM CLR 03/M01 A3038 RMK AO2 T00311008,KJWY,2015-02-13T06:35:00Z,32.45,-96.92,3.1,-0.8,0,0,,10.0,30.380905,,,TRUE,TRUE,,,,,,,CLR,,,,,,,,VFR,,,,,,,,,,,,SPECI,217.0
KLKU 130635Z AUTO 34008KT 10SM CLR M06/M17 A3014 RMK AO2,KLKU,2015-02-13T06:35:00Z,38.02,-77.97,-6.0,-17.0,340,8,,10.0,30.138779,,,TRUE,TRUE,,,,,,,CLR,,,,,,,,VFR,,,,,,,,,,,,SPECI,150.0
KLGC 130635Z AUTO 35006KT 10SM CLR 00/M10 A3026 RMK AO2 T10021101,KLGC,2015-02-13T06:35:00Z,33.0,-85.07,-0.2,-10.1,350,6,,10.0,30.259842,,,TRUE,TRUE,,,,,,,CLR,,,,,,,,VFR,,,,,,,,,,,,SPECI,211.0
KLCQ 130635Z AUTO 36008G15KT 10SM CLR 05/M05 A3015 RMK AO2,KLCQ,2015-02-13T06:35:00Z,30.18,-82.58,5.0,-5.0,360,8,15,10.0,30.15059,,,TRUE,TRUE,,,,,,,CLR,,,,,,,,VFR,,,,,,,,,,,,SPECI,61.0
KLCK 130635Z AUTO 00000KT 10SM CLR M13/M17 A3036 RMK AO2 T11301174,KLCK,2015-02-13T06:35:00Z,39.82,-82.92,-13.0,-17.4,0,0,,10.0,30.360237,,,TRUE,TRUE,,,,,,,CLR,,,,,,,,VFR,,,,,,,,,,,,SPECI,227.0
KLCG 130635Z AUTO 18007KT 10SM CLR M07/M12 A3020 RMK AO2 T10751120,KLCG,2015-02-13T06:35:00Z,42.25,-96.98,-7.5,-12.0,180,7,,10.0,30.200787,,,TRUE,TRUE,,,,,,,CLR,,,,,,,,VFR,,,,,,,,,,,,SPECI,436.0
KMLE 130635Z AUTO 16005KT 10SM SCT110 M06/M12 A3027 RMK AO2 T10601122,KMLE,2015-02-13T06:35:00Z,41.2,-96.12,-6.0,-12.2,160,5,,10.0,30.268702,,,TRUE,TRUE,,,,,,,SCT,11000,,,,,,,VFR,,,,,,,,,,,,SPECI,320.0
KLXN 130635Z AUTO 00000KT 10SM CLR M04/M10 A3014 RMK AO2 T10451103,KLXN,2015-02-13T06:35:00Z,40.78,-99.77,-4.5,-10.3,0,0,,10.0,30.138779,,,TRUE,TRUE,,,,,,,CLR,,,,,,,,VFR,,,,,,,,,,,,SPECI,734.0
KLSB 130635Z AUTO 11006KT 10SM CLR 03/M02 A3030 RMK AO2,KLSB,2015-02-13T06:35:00Z,32.33,-108.7,3.0,-2.0,110,6,,10.0,30.301182,,,TRUE,TRUE,,,,,,,CLR,,,,,,,,VFR,,,,,,,,,,,,SPECI,1307.0
KLRU 130635Z AUTO 28004KT 10SM CLR 02/M04 A3033 RMK AO2 T00161045,KLRU,2015-02-13T06:35:00Z,32.27,-106.92,1.6,-4.5,280,4,,10.0,30.33071,,,TRUE,TRUE,,,,,,,CLR,,,,,,,,VFR,,,,,,,,,,,,SPECI,1358.0
KRCM 130635Z AUTO 12004KT 10SM SCT055 OVC075 M05/M13 A3038 RMK AO2,KRCM,2015-02-13T06:35:00Z,38.78,-93.8,-5.0,-13.0,120,4,,10.0,30.380905,,,TRUE,TRUE,,,,,,,SCT,5500,OVC,7500,,,,,VFR,,,,,,,,,,,,SPECI,244.0
KOSA 130635Z AUTO 07005KT 10SM CLR 03/M05 A3039 RMK AO1 T00311052,KOSA,2015-02-13T06:35:00Z,33.1,-94.97,3.1,-5.2,70,5,,10.0,30.389763,,,TRUE,TRUE,,,,,,,CLR,,,,,,,,VFR,,,,,,,,,,,,SPECI,111.0
KORC 130635Z AUTO 19012KT 10SM OVC044 M08/M12 A3018 RMK AO2,KORC,2015-02-13T06:35:00Z,42.97,-96.07,-8.0,-12.0,190,12,,10.0,30.180119,,,TRUE,TRUE,,,,,,,OVC,4400,,,,,,,VFR,,,,,,,,,,,,SPECI,431.0
KOPL 130635Z AUTO 03006KT 10SM CLR 03/M03 A3035 RMK AO2 T00331034,KOPL,2015-02-13T06:35:00Z,30.55,-92.1,3.3,-3.4,30,6,,10.0,30.351377,,,TRUE,TRUE,,,,,,,CLR,,,,,,,,VFR,,,,,,,,,,,,SPECI,23.0
KONM 130635Z AUTO 21006KT 10SM 02/M04 A3031 RMK AO2 T00221037,KONM,2015-02-13T06:35:00Z,34.02,-106.9,2.2,-3.7,210,6,,10.0,30.31004,,,TRUE,TRUE,,,,,,,,,,,,,,,,,,,,,,,,,,,SPECI,1410.0
KONL 130635Z AUTO 19005KT 10SM CLR M04/M10 A3010 RMK AO2 T10441098,KONL,2015-02-13T06:35:00Z,42.47,-98.67,-4.4,-9.8,190,5,,10.0,30.100393,,,TRUE,TRUE,,,,,,,CLR,,,,,,,,VFR,,,,,,,,,,,,SPECI,619.0
KOMH 130635Z AUTO 31008KT 10SM CLR M06/M17 A3018 RMK AO2,KOMH,2015-02-13T06:35:00Z,38.25,-78.05,-6.0,-17.0,310,8,,10.0,30.180119,,,TRUE,TRUE,,,,,,,CLR,,,,,,,,VFR,,,,,,,,,,,,SPECI,142.0
KOLZ 130635Z AUTO 17004KT 10SM OVC120 M14/M17 A3034 RMK AO2,KOLZ,2015-02-13T06:35:00Z,42.67,-91.97,-14.0,-17.0,170,4,,10.0,30.339567,,,TRUE,TRUE,,,,,,,OVC,12000,,,,,,,VFR,,,,,,,,,,,,SPECI,328.0
KOLG 130635Z AUTO 20006KT 10SM OVC100 M16/M21 A3021 RMK AO1,KOLG,2015-02-13T06:35:00Z,46.3,-91.82,-16.0,-21.0,200,6,,10.0,30.209646,,,TRUE,TRUE,,,,,,,OVC,10000,,,,,,,VFR,,,,,,,,,,,,SPECI,336.0
KOKM 130635Z AUTO 18004KT 10SM CLR 00/M09 A3034 RMK AO2 T10051090,KOKM,2015-02-13T06:35:00Z,35.67,-95.95,-0.5,-9.0,180,4,,10.0,30.339567,,,TRUE,TRUE,,,,,,,CLR,,,,,,,,VFR,,,,,,,,,,,,SPECI,220.0
KOGA 130635Z AUTO 00000KT 10SM CLR M02/M04 A3015 RMK AO2 T10231039,KOGA,2015-02-13T06:35:00Z,41.12,-101.77,-2.3,-3.9,0,0,,10.0,30.15059,,,TRUE,TRUE,,,,,,,CLR,,,,,,,,VFR,,,,,,,,,,,,SPECI,999.0
KOEO 130635Z AUTO 16005KT 10SM BKN080 M14/M18 A3027 RMK AO2 T11421177,KOEO,2015-02-13T06:35:00Z,45.32,-92.7,-14.2,-17.7,160,5,,10.0,30.268702,,,TRUE,TRUE,,,,,,,BKN,8000,,,,,,,VFR,,,,,,,,,,,,SPECI,275.0
KMXO 130635Z AUTO 00000KT 10SM CLR M15/M17 A3037 RMK AO2,KMXO,2015-02-13T06:35:00Z,42.22,-91.17,-15.0,-17.0,0,0,,10.0,30.369095,,,TRUE,TRUE,,,,,,,CLR,,,,,,,,VFR,,,,,,,,,,,,SPECI,259.0
KMWA 130635Z AUTO 00000KT 10SM CLR M07/M12 A3045 RMK AO2,KMWA,2015-02-13T06:35:00Z,37.77,-89.02,-7.0,-12.0,0,0,,10.0,30.448818,,,TRUE,TRUE,,,,,,,CLR,,,,,,,,VFR,,,,,,,,,,,,SPECI,144.0
KMUT 130635Z AUTO 00000KT 10SM OVC100 M12/M14 A3043 RMK AO2,KMUT,2015-02-13T06:35:00Z,41.37,-91.15,-12.0,-14.0,0,0,,10.0,30.431103,,,TRUE,TRUE,,,,,,,OVC,10000,,,,,,,VFR,,,,,,,,,,,,SPECI,167.0
KMPZ 130635Z AUTO 00000KT 10SM CLR M11/M14 A3040 RMK AO2 T11101145,KMPZ,2015-02-13T06:35:00Z,40.95,-91.52,-11.0,-14.5,0,0,,10.0,30.398623,,,TRUE,TRUE,,,,,,,CLR,,,,,,,,VFR,,,,,,,,,,,,SPECI,224.0
KMLJ 130635Z AUTO 33005KT 10SM CLR 00/M08 A3021 RMK AO2,KMLJ,2015-02-13T06:35:00Z,33.15,-83.23,0.0,-8.0,330,5,,10.0,30.209646,,,TRUE,TRUE,,,,,,,CLR,,,,,,,,VFR,,,,,,,,,,,,SPECI,117.0
KS25 130635Z AUTO 26009KT 10SM OVC065 00/M03 A3006 RMK AO2,KS25,2015-02-13T06:35:00Z,47.8,-103.25,0.0,-3.0,260,9,,10.0,30.059055,,,TRUE,TRUE,,,,,,,OVC,6500,,,,,,,VFR,,,,,,,,,,,,SPECI,644.0
KSPF 130635Z AUTO 28010KT 10SM CLR 05/M03 A3015 RMK AO2,KSPF,2015-02-13T06:35:00Z,44.47,-103.77,5.0,-3.0,280,10,,10.0,30.15059,,,TRUE,TRUE,,,,,,,CLR,,,,,,,,VFR,,,,,,,,,,,,METAR,1188.0
KFWB 130635Z AUTO 13007KT 10SM SCT024 BKN075 OVC090 M03/M15 A3034 RMK AO2,KFWB,2015-02-13T06:35:00Z,36.7,-93.4,-3.0,-15.0,130,7,,10.0,30.339567,,,TRUE,TRUE,,,,,,,SCT,2400,BKN,7500,OVC,9000,,,VFR,,,,,,,,,,,,METAR,406.0
KDYA 130635Z AUTO 35005KT 10SM CLR 00/M08 A3034 RMK AO2 T10031081,KDYA,2015-02-13T06:35:00Z,32.47,-87.95,-0.3,-8.1,350,5,,10.0,30.339567,,,TRUE,TRUE,,,,,,,CLR,,,,,,,,VFR,,,,,,,,,,,,METAR,34.0
KVQQ 130635Z AUTO 34011KT 10SM CLR 05/M06 A3015 RMK AO2,KVQQ,2015-02-13T06:35:00Z,30.22,-81.88,5.0,-6.0,340,11,,10.0,30.15059,,,TRUE,TRUE,,,,,,,CLR,,,,,,,,VFR,,,,,,,,,,,,METAR,25.0
KO22 130635Z AUTO 02003KT 10SM CLR 09/09 A3017 RMK AO1,KO22,2015-02-13T06:35:00Z,38.03,-120.42,9.0,9.0,20,3,,10.0,30.171259,,,TRUE,TRUE,,,,,,,CLR,,,,,,,,VFR,,,,,,,,,,,,METAR,646.0
KD60 130635Z AUTO 27006KT 7SM CLR M08/M08 A3008 RMK AO2,KD60,2015-02-13T06:35:00Z,48.38,-102.9,-8.0,-8.0,270,6,,7.0,30.079725,,,TRUE,TRUE,,,,,,,CLR,,,,,,,,VFR,,,,,,,,,,,,METAR,693.0
KBBG 130635Z AUTO 00000KT 10SM BKN025 OVC075 M03/M14 A3035 RMK AO2,KBBG,2015-02-13T06:35:00Z,36.53,-93.2,-3.0,-14.0,0,0,,10.0,30.351377,,,TRUE,TRUE,,,,,,,BKN,2500,OVC,7500,,,,,MVFR,,,,,,,,,,,,METAR,397.0
K9D7 130635Z AUTO 30005KT 10SM FEW033 M12/M14 A3001 RMK AO2,K9D7,2015-02-13T06:35:00Z,48.48,-99.23,-12.0,-14.0,300,5,,10.0,30.008858,,,TRUE,TRUE,,,,,,,FEW,3300,,,,,,,VFR,,,,,,,,,,,,METAR,452.0
K96D 130635Z AUTO 28008KT 10SM M10/M12 A3002 RMK AO2,K96D,2015-02-13T06:35:00Z,48.93,-97.9,-10.0,-12.0,280,8,,10.0,30.02067,,,TRUE,TRUE,,,,,,,,,,,,,,,,,,,,,,,,,,,METAR,290.0
K20U 130635Z AUTO 29005KT 10SM CLR 00/M02 A3011 RMK AO2,K20U,2015-02-13T06:35:00Z,46.93,-103.98,0.0,-2.0,290,5,,10.0,30.109253,,,TRUE,TRUE,,,,,,,CLR,,,,,,,,VFR,,,,,,,,,,,,METAR,840.0
KUOX 130635Z AUTO 03006KT 10SM CLR M04/M13 A3041 RMK AO2 PWINO PNO,KUOX,2015-02-13T06:35:00Z,34.38,-89.53,-4.0,-13.0,30,6,,10.0,30.410433,,,TRUE,TRUE,,,,,TRUE,,CLR,,,,,,,,VFR,,,,,,,,,,,,SPECI,137.0
KO54 130635Z AUTO 00000KT 8SM CLR 05/04 A3026 RMK AO1,KO54,2015-02-13T06:35:00Z,40.75,-122.92,5.0,4.0,0,0,,8.0,30.259842,,,TRUE,TRUE,,,,,,,CLR,,,,,,,,VFR,,,,,,,,,,,,SPECI,717.0
KFGX 130635Z AUTO 07004KT 10SM BKN041 M10/M15 A3037 RMK AO2 T11041152,KFGX,2015-02-13T06:35:00Z,38.55,-83.75,-10.4,-15.2,70,4,,10.0,30.369095,,,TRUE,TRUE,,,,,,,BKN,4100,,,,,,,VFR,,,,,,,,,,,,SPECI,278.0
K4A6 130635Z AUTO 02007KT 10SM BKN033 M04/M12 A3034 RMK AO2,K4A6,2015-02-13T06:35:00Z,34.68,-86.0,-4.0,-12.0,20,7,,10.0,30.339567,,,TRUE,TRUE,,,,,,,BKN,3300,,,,,,,VFR,,,,,,,,,,,,SPECI,198.0
KY49 130635Z AUTO 19004KT 7SM -SN OVC024 M15/M17 A3008 RMK AO2 T11461175,KY49,2015-02-13T06:35:00Z,47.13,-94.65,-14.6,-17.5,190,4,,7.0,30.079725,,,TRUE,TRUE,,,,,,-SN,OVC,2400,,,,,,,MVFR,,,,,,,,,,,,SPECI,416.0
KWDG 130635Z AUTO 16005KT 10SM CLR M01/M07 A3026 RMK AO2,KWDG,2015-02-13T06:35:00Z,36.37,-97.77,-1.0,-7.0,160,5,,10.0,30.259842,,,TRUE,TRUE,,,,,,,CLR,,,,,,,,VFR,,,,,,,,,,,,SPECI,356.0
KUES 130635Z AUTO 22005KT 10SM CLR M16/M20 A3036 RMK AO2,KUES,2015-02-13T06:35:00Z,43.05,-88.25,-16.0,-20.0,220,5,,10.0,30.360237,,,TRUE,TRUE,,,,,,,CLR,,,,,,,,VFR,,,,,,,,,,,,SPECI,278.0
KTSP 130635Z AUTO 10006KT 10SM CLR 10/M08 A3025 RMK AO2,KTSP,2015-02-13T06:35:00Z,35.13,-118.43,10.0,-8.0,100,6,,10.0,30.250984,,,TRUE,TRUE,,,,,,,CLR,,,,,,,,VFR,,,,,,,,,,,,SPECI,1220.0
KSNC 130635Z AUTO 33013G30KT 9SM CLR M10/M17 A2982 RMK AO2,KSNC,2015-02-13T06:35:00Z,41.38,-72.5,-10.0,-17.0,330,13,30,9.0,29.819881,,,TRUE,TRUE,,,,,,,CLR,,,,,,,,VFR,,,,,,,,,,,,SPECI,127.0
KSEE 130635Z AUTO 00000KT 10SM CLR 13/00 A3006 RMK AO2,KSEE,2015-02-13T06:35:00Z,32.82,-116.97,13.0,0.0,0,0,,10.0,30.059055,,,TRUE,TRUE,,,,,,,CLR,,,,,,,,VFR,,,,,,,,,,,,SPECI,117.0
KRZN 130635Z AUTO 14003KT 10SM SCT110 M16/M20 A3023 RMK AO2 T11571200,KRZN,2015-02-13T06:35:00Z,45.82,-92.37,-15.7,-20.0,140,3,,10.0,30.230314,,,TRUE,TRUE,,,,,,,SCT,11000,,,,,,,VFR,,,,,,,,,,,,SPECI,301.0
KRYV 130635Z AUTO 00000KT 10SM CLR M19/M21 A3035 RMK AO2 T11881215,KRYV,2015-02-13T06:35:00Z,43.17,-88.72,-18.8,-21.5,0,0,,10.0,30.351377,,,TRUE,TRUE,,,,,,,CLR,,,,,,,,VFR,,,,,,,,,,,,SPECI,254.0
KRWV 130635Z AUTO 33004KT 10SM CLR 07/00 A3039 RMK AO2,KRWV,2015-02-13T06:35:00Z,30.52,-96.7,7.0,0.0,330,4,,10.0,30.389763,,,TRUE,TRUE,,,,,,,CLR,,,,,,,,VFR,,,,,,,,,,,,SPECI,119.0
KRUG 130635Z AUTO 29009KT 10SM CLR M09/M10 A3001 RMK AO2,KRUG,2015-02-13T06:35:00Z,48.38,-100.02,-9.0,-10.0,290,9,,10.0,30.008858,,,TRUE,TRUE,,,,,,,CLR,,,,,,,,VFR,,,,,,,,,,,,SPECI,472.0
KPNA 130635Z AUTO 32015KT 10SM SCT110 M01/M06 A3036 RMK AO2,KPNA,2015-02-13T06:35:00Z,42.8,-109.8,-1.0,-6.0,320,15,,10.0,30.360237,,,TRUE,TRUE,,,,,,,SCT,11000,,,,,,,VFR,,,,,,,,,,,,SPECI,2160.0
KMZZ 130635Z AUTO 31004KT 10SM BKN037 M11/M15 A3039 RMK AO2 T11091146,KMZZ,2015-02-13T06:35:00Z,40.48,-85.68,-10.9,-14.6,310,4,,10.0,30.389763,,,TRUE,TRUE,,,,,,,BKN,3700,,,,,,,VFR,,,,,,,,,,,,SPECI,262.0
KMYZ 130635Z AUTO 17009KT 10SM OVC100 M04/M12 A3025 RMK AO2,KMYZ,2015-02-13T06:35:00Z,39.25,-96.63,-4.0,-12.0,170,9,,10.0,30.250984,,,TRUE,TRUE,,,,,,,OVC,10000,,,,,,,VFR,,,,,,,,,,,,SPECI,319.0
KLNL 130635Z AUTO 00000KT 10SM BKN110 M26/M29 A3017 RMK AO2 T12601290,KLNL,2015-02-13T06:35:00Z,46.15,-89.22,-26.0,-29.0,0,0,,10.0,30.171259,,,TRUE,TRUE,,,,,,,BKN,11000,,,,,,,VFR,,,,,,,,,,,,SPECI,520.0
KHRX 130635Z AUTO 23009KT 10SM CLR 02/M05 A3026 RMK AO2 T00171050,KHRX,2015-02-13T06:35:00Z,34.87,-102.33,1.7,-5.0,230,9,,10.0,30.259842,,,TRUE,TRUE,,,,,,,CLR,,,,,,,,VFR,,,,,,,,,,,,SPECI,1154.0
KHOE 130635Z AUTO 34005KT 10SM CLR 03/M06 A3020 RMK AO2,KHOE,2015-02-13T06:35:00Z,31.05,-82.78,3.0,-6.0,340,5,,10.0,30.200787,,,TRUE,TRUE,,,,,,,CLR,,,,,,,,VFR,,,,,,,,,,,,SPECI,57.0
KHII 130635Z AUTO 36005KT 10SM CLR 20/M04 A3011 RMK AO2,KHII,2015-02-13T06:35:00Z,34.57,-114.37,20.0,-4.0,360,5,,10.0,30.109253,,,TRUE,TRUE,,,,,,,CLR,,,,,,,,VFR,,,,,,,,,,,,SPECI,238.0
KHHG 130635Z AUTO 29004KT 10SM OVC033 M10/M14 A3037 RMK AO2 T10971142,KHHG,2015-02-13T06:35:00Z,40.85,-85.45,-9.7,-14.2,290,4,,10.0,30.369095,,,TRUE,TRUE,,,,,,,OVC,3300,,,,,,,VFR,,,,,,,,,,,,SPECI,246.0
KHBV 130635Z AUTO 35003KT 10SM BKN080 A3033 RMK AO2,KHBV,2015-02-13T06:35:00Z,27.35,-98.73,,,350,3,,10.0,30.33071,,,TRUE,TRUE,,,,,,,BKN,8000,,,,,,,VFR,,,,,,,,,,,,SPECI,202.0
KGLW 130635Z AUTO 35003KT 10SM CLR M07/M12 A3038 RMK AO2 T10741122,KGLW,2015-02-13T06:35:00Z,37.03,-85.95,-7.4,-12.2,350,3,,10.0,30.380905,,,TRUE,TRUE,,,,,,,CLR,,,,,,,,VFR,,,,,,,,,,,,SPECI,218.0
KFZG 130635Z AUTO 36007KT 10SM CLR 01/M11 A3024 RMK AO2 T00101113,KFZG,2015-02-13T06:35:00Z,31.68,-83.27,1.0,-11.3,360,7,,10.0,30.239174,,,TRUE,TRUE,,,,,,,CLR,,,,,,,,VFR,,,,,,,,,,,,SPECI,111.0
KDKR 130635Z AUTO 00000KT 10SM CLR 04/03 A3038 RMK AO2,KDKR,2015-02-13T06:35:00Z,31.3,-95.4,4.0,3.0,0,0,,10.0,30.380905,,,TRUE,TRUE,,,,,,,CLR,,,,,,,,VFR,,,,,,,,,,,,SPECI,106.0
KDED 130635Z AUTO 35005KT 10SM CLR A3009 RMK AO1,KDED,2015-02-13T06:35:00Z,29.07,-81.28,,,350,5,,10.0,30.088583,,,TRUE,TRUE,,,,,,,CLR,,,,,,,,VFR,,,,,,,,,,,,SPECI,24.0
KCCA 130635Z AUTO 00000KT 9SM BKN100 M02/M09 A3043 RMK AO2,KCCA,2015-02-13T06:35:00Z,35.6,-92.45,-2.0,-9.0,0,0,,9.0,30.431103,,,TRUE,TRUE,,,,,,,BKN,10000,,,,,,,VFR,,,,,,,,,,,,SPECI,157.0
KBWP 130635Z AUTO 19010KT 10SM OVC027 M09/M12 A3013 RMK AO1,KBWP,2015-02-13T06:35:00Z,46.25,-96.62,-9.0,-12.0,190,10,,10.0,30.129921,,,TRUE,TRUE,,,,,,,OVC,2700,,,,,,,MVFR,,,,,,,,,,,,SPECI,295.0
KBUU 130635Z AUTO 22006KT 10SM CLR M20/M22 A3037 RMK AO2 T11961217,KBUU,2015-02-13T06:35:00Z,42.68,-88.3,-19.6,-21.7,220,6,,10.0,30.369095,,,TRUE,TRUE,,,,,,,CLR,,,,,,,,VFR,,,,,,,,,,,,SPECI,237.0
KAZE 130635Z AUTO 35005KT 10SM CLR 01/M07 A3020 RMK AO2 T00131074,KAZE,2015-02-13T06:35:00Z,31.88,-82.65,1.3,-7.4,350,5,,10.0,30.200787,,,TRUE,TRUE,,,,,,,CLR,,,,,,,,VFR,,,,,,,,,,,,SPECI,78.0
KASJ 130635Z AUTO 33005KT 10SM CLR M02/M14 A3014 RMK AO2 T10201141,KASJ,2015-02-13T06:35:00Z,36.28,-77.17,-2.0,-14.1,330,5,,10.0,30.138779,,,TRUE,TRUE,,,,,,,CLR,,,,,,,,VFR,,,,,,,,,,,,SPECI,21.0
KANK 130635Z AUTO 36006KT 10SM CLR M01/M06 A3042 RMK AO1 T10071059,KANK,2015-02-13T06:35:00Z,38.53,-106.05,-0.7,-5.9,360,6,,10.0,30.41929,,,TRUE,TRUE,,,,,,,CLR,,,,,,,,VFR,,,,,,,,,,,,SPECI,2293.0
KAIG 130635Z AUTO 00000KT 10SM CLR M24/M26 A3022 RMK AO2 T12401262,KAIG,2015-02-13T06:35:00Z,45.15,-89.12,-24.0,-26.2,0,0,,10.0,30.221457,,,TRUE,TRUE,,,,,,,CLR,,,,,,,,VFR,,,,,,,,,,,,SPECI,464.0
KACP 130635Z AUTO 00000KT 10SM CLR 03/M03 A3036 RMK AO2 T00331035,KACP,2015-02-13T06:35:00Z,30.75,-92.68,3.3,-3.5,0,0,,10.0,30.360237,,,TRUE,TRUE,,,,,,,CLR,,,,,,,,VFR,,,,,,,,,,,,SPECI,33.0
K3T5 130635Z AUTO 34003KT 10SM CLR 09/04 A3034 RMK AO2 T00860038,K3T5,2015-02-13T06:35:00Z,29.9,-96.95,8.6,3.8,340,3,,10.0,30.339567,,,TRUE,TRUE,,,,,,,CLR,,,,,,,,VFR,,,,,,,,,,,,SPECI,99.0
K2J9 130635Z AUTO 01008KT 340V040 10SM CLR 03/M08 A3023 RMK AO1,K2J9,2015-02-13T06:35:00Z,30.6,-84.55,3.0,-8.0,10,8,,10.0,30.230314,,,TRUE,TRUE,,,,,,,CLR,,,,,,,,VFR,,,,,,,,,,,,SPECI,69.0
K28J 130635Z AUTO 36009KT 10SM BKN043 08/M03 A3012 RMK AO2,K28J,2015-02-13T06:35:00Z,29.65,-81.58,8.0,-3.0,360,9,,10.0,30.121063,,,TRUE,TRUE,,,,,,,BKN,4300,,,,,,,VFR,,,,,,,,,,,,SPECI,15.0
K06D 130635Z AUTO 29006KT M10/M12 RMK AO2 PWINO PNO TSNO,K06D,2015-02-13T06:35:00Z,48.88,-99.62,-10.0,-12.0,290,6,,,,,,TRUE,TRUE,,,TRUE,,TRUE,,,,,,,,,,,,,,,,,,,,,,SPECI,556.0
KF17 130635Z AUTO 04003KT 10SM CLR 03/M02 A3036 RMK AO2 T00251022,KF17,2015-02-13T06:35:00Z,31.83,-94.15,2.5,-2.2,40,3,,10.0,30.360237,,,TRUE,TRUE,,,,,,,CLR,,,,,,,,VFR,,,,,,,,,,,,METAR,97.0
K3AU 130635Z AUTO 15006KT 10SM BKN120 M04/M12 A3027 RMK AO2,K3AU,2015-02-13T06:35:00Z,37.67,-97.08,-4.0,-12.0,150,6,,10.0,30.268702,,,TRUE,TRUE,,,,,,,BKN,12000,,,,,,,VFR,,,,,,,,,,,,METAR,405.0
KSCR 130635Z AUTO 33006KT 290V350 10SM CLR M03/M14 A3017 RMK AO2 T10351140,KSCR,2015-02-13T06:35:00Z,35.7,-79.5,-3.5,-14.0,330,6,,10.0,30.171259,,,TRUE,TRUE,,,,,,,CLR,,,,,,,,VFR,,,,,,,,,,,,SPECI,188.0
KY23 130635Z AUTO 13003KT 10SM CLR M18/M22 A3025 RMK AO2 T11831218,KY23,2015-02-13T06:35:00Z,45.3,-91.63,-18.3,-21.8,130,3,,10.0,30.250984,,,TRUE,TRUE,,,,,,,CLR,,,,,,,,VFR,,,,,,,,,,,,SPECI,322.0
KY19 130635Z AUTO 26005KT 10SM FEW023 M10/M13 A3007 RMK AO2,KY19,2015-02-13T06:35:00Z,46.77,-100.9,-10.0,-13.0,260,5,,10.0,30.070866,,,TRUE,TRUE,,,,,,,FEW,2300,,,,,,,VFR,,,,,,,,,,,,SPECI,593.0
KXSA 130635Z AUTO 32012G19KT 10SM CLR M06/M21 A3015 RMK AO2 T10581207,KXSA,2015-02-13T06:35:00Z,37.87,-76.9,-5.8,-20.7,320,12,19,10.0,30.15059,,,TRUE,TRUE,,,,,,,CLR,,,,,,,,VFR,,,,,,,,,,,,SPECI,42.0
KWWR 130635Z AUTO 22010KT 10SM CLR 04/M06 A3024 RMK AO2,KWWR,2015-02-13T06:35:00Z,36.45,-99.52,4.0,-6.0,220,10,,10.0,30.239174,,,TRUE,TRUE,,,,,,,CLR,,,,,,,,VFR,,,,,,,,,,,,SPECI,667.0
KW99 130635Z AUTO 31014G25KT 10SM CLR M11/M21 A3022 RMK AO2 T11101211,KW99,2015-02-13T06:35:00Z,39.0,-79.15,-11.0,-21.1,310,14,25,10.0,30.221457,,,TRUE,TRUE,,,,,,,CLR,,,,,,,,VFR,,,,,,,,,,,,SPECI,293.0
KW78 130635Z AUTO 30010KT 10SM CLR M04/M15 A3018 RMK AO1 T10451154,KW78,2015-02-13T06:35:00Z,36.68,-78.85,-4.5,-15.4,300,10,,10.0,30.180119,,,TRUE,TRUE,,,,,,,CLR,,,,,,,,VFR,,,,,,,,,,,,SPECI,129.0
KW22 130635Z AUTO 31007G12KT 10SM SCT021 BKN031 M15/M19 A3023 RMK AO2,KW22,2015-02-13T06:35:00Z,39.0,-80.27,-15.0,-19.0,310,7,12,10.0,30.230314,,,TRUE,TRUE,,,,,,,SCT,2100,BKN,3100,,,,,VFR,,,,,,,,,,,,SPECI,499.0
KVYS 130635Z AUTO 23004KT 10SM CLR M14/M16 A3042 RMK AO2 T11361161,KVYS,2015-02-13T06:35:00Z,41.35,-89.15,-13.6,-16.1,230,4,,10.0,30.41929,,,TRUE,TRUE,,,,,,,CLR,,,,,,,,VFR,,,,,,,,,,,,SPECI,199.0
KVVG 130635Z AUTO 34007KT 4SM HZ 11/03 A3000 RMK A01,KVVG,2015-02-13T06:35:00Z,28.95,-81.97,11.0,3.0,340,7,,4.0,30.0,,,TRUE,TRUE,,,,,,HZ,,,,,,,,,,,,,,,,,,,,,SPECI,27.0
KVUJ 130635Z AUTO 34005KT 10SM CLR M03/M13 A3024 RMK AO2 T10271126,KVUJ,2015-02-13T06:35:00Z,35.42,-80.15,-2.7,-12.6,340,5,,10.0,30.239174,,,TRUE,TRUE,,,,,,,CLR,,,,,,,,VFR,,,,,,,,,,,,SPECI,186.0
KVNC 130635Z AUTO 32012KT 10SM CLR 17/13 A3010 RMK AO2,KVNC,2015-02-13T06:35:00Z,27.07,-82.43,17.0,13.0,320,12,,10.0,30.100393,,,TRUE,TRUE,,,,,,,CLR,,,,,,,,VFR,,,,,,,,,,,,SPECI,6.0
KVER 130635Z AUTO 16005KT 2SM -SN OVC019 M07/M10 A3040 RMK AO2 T10681102,KVER,2015-02-13T06:35:00Z,38.95,-92.68,-6.8,-10.2,160,5,,2.0,30.398623,,,TRUE,TRUE,,,,,,-SN,OVC,1900,,,,,,,IFR,,,,,,,,,,,,SPECI,218.0
KVBW 130635Z AUTO 35005KT 10SM CLR M09/M17 A3013 RMK AO2 T10921173,KVBW,2015-02-13T06:35:00Z,38.37,-78.97,-9.2,-17.3,350,5,,10.0,30.129921,,,TRUE,TRUE,,,,,,,CLR,,,,,,,,VFR,,,,,,,,,,,,METAR,355.0
KUXL 130635Z AUTO 05006G14KT 10SM CLR 08/M02 A3035 RMK AO2 T00821016,KUXL,2015-02-13T06:35:00Z,30.13,-93.38,8.2,-1.6,50,6,14,10.0,30.351377,,,TRUE,TRUE,,,,,,,CLR,,,,,,,,VFR,,,,,,,,,,,,SPECI,4.0
KUNV 130635Z AUTO 32009G19KT 280V360 10SM CLR M15/M21 A3011 RMK AO2 T11481209,KUNV,2015-02-13T06:35:00Z,40.85,-77.83,-14.8,-20.9,320,9,19,10.0,30.109253,,,TRUE,TRUE,,,,,,,CLR,,,,,,,,VFR,,,,,,,,,,,,SPECI,378.0
KUNU 130635Z AUTO 00000KT 10SM CLR M18/M21 A3035 RMK AO2 T11781207,KUNU,2015-02-13T06:35:00Z,43.42,-88.7,-17.8,-20.7,0,0,,10.0,30.351377,,,TRUE,TRUE,,,,,,,CLR,,,,,,,,VFR,,,,,,,,,,,,SPECI,285.0
KUKF 130635Z AUTO 02004KT 10SM CLR M06/M14 A3022 RMK AO2,KUKF,2015-02-13T06:35:00Z,36.22,-81.1,-6.0,-14.0,20,4,,10.0,30.221457,,,TRUE,TRUE,,,,,,,CLR,,,,,,,,VFR,,,,,,,,,,,,SPECI,396.0
KUBE 130635Z AUTO 17004KT 10SM CLR M18/M22 A3022 RMK AO2,KUBE,2015-02-13T06:35:00Z,45.5,-91.98,-18.0,-22.0,170,4,,10.0,30.221457,,,TRUE,TRUE,,,,,,,CLR,,,,,,,,VFR,,,,,,,,,,,,SPECI,379.0
KU68 130635Z AUTO 17004KT 10SM SCT070 SCT085 OVC095 04/01 A3021 RMK AO2 PWINO,KU68,2015-02-13T06:35:00Z,44.92,-108.45,4.0,1.0,170,4,,10.0,30.209646,,,TRUE,TRUE,,,,,TRUE,,SCT,7000,SCT,8500,OVC,9500,,,VFR,,,,,,,,,,,,SPECI,1247.0
KTZR 130635Z AUTO 00000KT 10SM CLR A3036 RMK AO2,KTZR,2015-02-13T06:35:00Z,39.9,-83.13,,,0,0,,10.0,30.360237,,,TRUE,TRUE,,,,,,,CLR,,,,,,,,VFR,,,,,,,,,,,,SPECI,276.0
KTVI 130635Z AUTO 36008KT 10SM CLR 03/M07 A3022 RMK AO2,KTVI,2015-02-13T06:35:00Z,30.9,-83.88,3.0,-7.0,360,8,,10.0,30.221457,,,TRUE,TRUE,,,,,,,CLR,,,,,,,,VFR,,,,,,,,,,,,SPECI,80.0
KTRK 130635Z AUTO 00000KT 10SM CLR 01/00 A3037 RMK AO2,KTRK,2015-02-13T06:35:00Z,39.32,-120.12,1.0,0.0,0,0,,10.0,30.369095,,,TRUE,TRUE,,,,,,,CLR,,,,,,,,VFR,,,,,,,,,,,,SPECI,1798.0
KGYH 130635Z AUTO 01009G15KT 10SM CLR M04/M16 A3020 RMK AO2,KGYH,2015-02-13T06:35:00Z,34.75,-82.38,-4.0,-16.0,10,9,15,10.0,30.200787,,,TRUE,TRUE,,,,,,,CLR,,,,,,,,VFR,,,,,,,,,,,,SPECI,292.0
KGVE 130635Z AUTO 00000KT 10SM CLR M07/M18 A3015 RMK AO1 T10701177,KGVE,2015-02-13T06:35:00Z,38.15,-78.17,-7.0,-17.7,0,0,,10.0,30.15059,,,TRUE,TRUE,,,,,,,CLR,,,,,,,,VFR,,,,,,,,,,,,SPECI,138.0
KGOP 130635Z AUTO 00000KT 10SM CLR 02/00 A3039 RMK AO2,KGOP,2015-02-13T06:35:00Z,31.42,-97.8,2.0,0.0,0,0,,10.0,30.389763,,,TRUE,TRUE,,,,,,,CLR,,,,,,,,VFR,,,,,,,,,,,,SPECI,276.0
KGGP 130635Z AUTO 28003KT 10SM CLR M12/M16 A3040 RMK AO2,KGGP,2015-02-13T06:35:00Z,40.72,-86.37,-12.0,-16.0,280,3,,10.0,30.398623,,,TRUE,TRUE,,,,,,,CLR,,,,,,,,VFR,,,,,,,,,,,,SPECI,225.0
KGCD 130635Z AUTO 16007KT 10SM CLR 09/01 A3034 RMK AO2 T00910010,KGCD,2015-02-13T06:35:00Z,44.38,-118.97,9.1,1.0,160,7,,10.0,30.339567,,,TRUE,TRUE,,,,,,,CLR,,,,,,,,VFR,,,,,,,,,,,,SPECI,1127.0
KFXY 130635Z AUTO 19009KT 10SM SCT050 OVC100 M10/M13 A3026 RMK AO2,KFXY,2015-02-13T06:35:00Z,43.23,-93.62,-10.0,-13.0,190,9,,10.0,30.259842,,,TRUE,TRUE,,,,,,,SCT,5000,OVC,10000,,,,,VFR,,,,,,,,,,,,SPECI,375.0
KFWS 130635Z AUTO 00000KT 10SM CLR 01/M02 A3038 RMK AO2 T00061024,KFWS,2015-02-13T06:35:00Z,32.57,-97.3,0.6,-2.4,0,0,,10.0,30.380905,,,TRUE,TRUE,,,,,,,CLR,,,,,,,,VFR,,,,,,,,,,,,SPECI,208.0
KFFA 130635Z AUTO 32008G18KT 290V350 10SM CLR M01/M09 A3006 RMK AO2 T10061092,KFFA,2015-02-13T06:35:00Z,36.02,-75.67,-0.6,-9.2,320,8,18,10.0,30.059055,,,TRUE,TRUE,,,,,,,CLR,,,,,,,,VFR,,,,,,,,,,,,SPECI,4.0
KEOE 130635Z AUTO 34004KT 10SM CLR M03/M11 A3023 RMK AO2,KEOE,2015-02-13T06:35:00Z,34.32,-81.63,-3.0,-11.0,340,4,,10.0,30.230314,,,TRUE,TRUE,,,,,,,CLR,,,,,,,,VFR,,,,,,,,,,,,SPECI,174.0
KENL 130635Z AUTO 00000KT 10SM CLR M07/M13 A3043 RMK AO2 T10751128,KENL,2015-02-13T06:35:00Z,38.52,-89.1,-7.5,-12.8,0,0,,10.0,30.431103,,,TRUE,TRUE,,,,,,,CLR,,,,,,,,VFR,,,,,,,,,,,,SPECI,163.0
KEMV 130635Z AUTO 30012G17KT 10SM CLR M02/M15 A3016 RMK AO2,KEMV,2015-02-13T06:35:00Z,36.68,-77.48,-2.0,-15.0,300,12,17,10.0,30.159449,,,TRUE,TRUE,,,,,,,CLR,,,,,,,,VFR,,,,,,,,,,,,SPECI,39.0
KEMM 130635Z AUTO 26006KT 10SM CLR 00/M05 A3038 RMK AO2,KEMM,2015-02-13T06:35:00Z,41.82,-110.55,0.0,-5.0,260,6,,10.0,30.380905,,,TRUE,TRUE,,,,,,,CLR,,,,,,,,VFR,,,,,,,,,,,,SPECI,2220.0
KEFT 130635Z AUTO 25006KT 10SM CLR M15/M18 A3034 RMK AO2,KEFT,2015-02-13T06:35:00Z,42.62,-89.6,-15.0,-18.0,250,6,,10.0,30.339567,,,TRUE,TRUE,,,,,,,CLR,,,,,,,,VFR,,,,,,,,,,,,SPECI,331.0
KE11 130635Z AUTO 23005KT 10SM OVC060 07/M02 A3033 RMK AO2 T00671025,KE11,2015-02-13T06:35:00Z,32.33,-102.53,6.7,-2.5,230,5,,10.0,30.33071,,,TRUE,TRUE,,,,,,,OVC,6000,,,,,,,VFR,,,,,,,,,,,,SPECI,967.0
KDTA 130635Z AUTO 08003KT 10SM CLR 02/M02 A3036 RMK AO1 T00171025,KDTA,2015-02-13T06:35:00Z,39.38,-112.5,1.7,-2.5,80,3,,10.0,30.360237,,,TRUE,TRUE,,,,,,,CLR,,,,,,,,VFR,,,,,,,,,,,,SPECI,1402.0
KDNN 130635Z AUTO 00000KT 10SM CLR M03/M10 A3030 RMK AO2,KDNN,2015-02-13T06:35:00Z,34.72,-84.87,-3.0,-10.0,0,0,,10.0,30.301182,,,TRUE,TRUE,,,,,,,CLR,,,,,,,,VFR,,,,,,,,,,,,SPECI,216.0
KDCY 130635Z AUTO 35004KT 10SM CLR M09/M14 A3044 RMK AO2 T10861136,KDCY,2015-02-13T06:35:00Z,38.7,-87.13,-8.6,-13.6,350,4,,10.0,30.43996,,,TRUE,TRUE,,,,,,,CLR,,,,,,,,VFR,,,,,,,,,,,,SPECI,144.0
KD25 130635Z AUTO 00000KT 10SM OVC110 M21/M24 A3017 RMK AO2 T12121242,KD25,2015-02-13T06:35:00Z,46.12,-89.88,-21.2,-24.2,0,0,,10.0,30.171259,,,TRUE,TRUE,,,,,,,OVC,11000,,,,,,,VFR,,,,,,,,,,,,SPECI,491.0
KCXE 130635Z AUTO 28006KT 10SM CLR M03/M13 A3016 RMK AO1 T10331135,KCXE,2015-02-13T06:35:00Z,36.78,-78.5,-3.3,-13.5,280,6,,10.0,30.159449,,,TRUE,TRUE,,,,,,,CLR,,,,,,,,VFR,,,,,,,,,,,,SPECI,153.0
KCWF 130635Z AUTO 05005KT 10SM CLR 06/M01 A3035 RMK AO2 T00621011,KCWF,2015-02-13T06:35:00Z,30.22,-93.15,6.2,-1.1,50,5,,10.0,30.351377,,,TRUE,TRUE,,,,,,,CLR,,,,,,,,VFR,,,,,,,,,,,,SPECI,4.0
KCKP 130635Z AUTO 18009KT 10SM SCT038 BKN050 OVC060 M08/M10 A3023 RMK AO2 T10811103,KCKP,2015-02-13T06:35:00Z,42.73,-95.55,-8.1,-10.3,180,9,,10.0,30.230314,,,TRUE,TRUE,,,,,,,SCT,3800,BKN,5000,OVC,6000,,,VFR,,,,,,,,,,,,SPECI,374.0
KCKM 130635Z AUTO 02006KT 10SM CLR M02/M11 A3044 RMK AO1,KCKM,2015-02-13T06:35:00Z,34.3,-90.52,-2.0,-11.0,20,6,,10.0,30.43996,,,TRUE,TRUE,,,,,,,CLR,,,,,,,,VFR,,,,,,,,,,,,SPECI,53.0
KCBK 130635Z AUTO 26008KT 10SM CLR M01/M03 A3015 RMK AO2,KCBK,2015-02-13T06:35:00Z,39.43,-101.05,-1.0,-3.0,260,8,,10.0,30.15059,,,TRUE,TRUE,,,,,,,CLR,,,,,,,,VFR,,,,,,,,,,,,SPECI,971.0
KC75 130635Z AUTO 00000KT 10SM CLR M14/M17 A3043 RMK AO2 T11441167,KC75,2015-02-13T06:35:00Z,41.02,-89.38,-14.4,-16.7,0,0,,10.0,30.431103,,,TRUE,TRUE,,,,,,,CLR,,,,,,,,VFR,,,,,,,,,,,,SPECI,173.0
KC35 130635Z AUTO 00000KT 10SM CLR M19/M21 A3033 RMK AO2 T11891213,KC35,2015-02-13T06:35:00Z,43.53,-89.98,-18.9,-21.3,0,0,,10.0,30.33071,,,TRUE,TRUE,,,,,,,CLR,,,,,,,,VFR,,,,,,,,,,,,SPECI,276.0
KBQP 130635Z AUTO 04005KT 10SM CLR M01/M10 A3041 RMK AO2 T10061105,KBQP,2015-02-13T06:35:00Z,32.75,-91.88,-0.6,-10.5,40,5,,10.0,30.410433,,,TRUE,TRUE,,,,,,,CLR,,,,,,,,VFR,,,,,,,,,,,,SPECI,51.0
KBMC 130635Z AUTO 01003KT 10SM CLR 02/M01 A3038 RMK AO1 T00231007,KBMC,2015-02-13T06:35:00Z,41.55,-112.07,2.3,-0.7,10,3,,10.0,30.380905,,,TRUE,TRUE,,,,,,,CLR,,,,,,,,VFR,,,,,,,,,,,,SPECI,1288.0
KBKD 130635Z AUTO 18003KT 10SM CLR 04/M03 A3035 RMK AO2 T00411031,KBKD,2015-02-13T06:35:00Z,32.72,-98.88,4.1,-3.1,180,3,,10.0,30.351377,,,TRUE,TRUE,,,,,,,CLR,,,,,,,,VFR,,,,,,,,,,,,SPECI,392.0
KARV 130635Z AUTO 00000KT 10SM SCT120 M20/M23 A3017 RMK AO2 T12041234,KARV,2015-02-13T06:35:00Z,45.92,-89.72,-20.4,-23.4,0,0,,10.0,30.171259,,,TRUE,TRUE,,,,,,,SCT,12000,,,,,,,VFR,,,,,,,,,,,,SPECI,496.0
KAQR 130635Z AUTO 00000KT 10SM CLR M01/M05 A3035 RMK AO2,KAQR,2015-02-13T06:35:00Z,34.4,-96.15,-1.0,-5.0,0,0,,10.0,30.351377,,,TRUE,TRUE,,,,,,,CLR,,,,,,,,VFR,,,,,,,,,,,,SPECI,189.0
KAFO 130635Z AUTO 00000KT 10SM CLR M04/M06 A3040 RMK AO2,KAFO,2015-02-13T06:35:00Z,42.72,-110.95,-4.0,-6.0,0,0,,10.0,30.398623,,,TRUE,TRUE,,,,,,,CLR,,,,,,,,VFR,,,,,,,,,,,,SPECI,1897.0
KACJ 130635Z AUTO 01005KT 10SM CLR M01/M10 A3024 RMK AO2,KACJ,2015-02-13T06:35:00Z,32.12,-84.18,-1.0,-10.0,10,5,,10.0,30.239174,,,TRUE,TRUE,,,,,,,CLR,,,,,,,,VFR,,,,,,,,,,,,SPECI,143.0
K9V9 130635Z AUTO 00000KT 10SM CLR M09/M12 A3009 RMK AO2 T10861125,K9V9,2015-02-13T06:35:00Z,43.77,-99.32,-8.6,-12.5,0,0,,10.0,30.088583,,,TRUE,TRUE,,,,,,,CLR,,,,,,,,VFR,,,,,,,,,,,,SPECI,519.0
K8A0 130635Z AUTO 35009KT 10SM CLR M05/M09 A3029 RMK AO2,K8A0,2015-02-13T06:35:00Z,34.23,-86.25,-5.0,-9.0,350,9,,10.0,30.28937,,,TRUE,TRUE,,,,,,,CLR,,,,,,,,VFR,,,,,,,,,,,,SPECI,315.0
K5H4 130635Z AUTO 25006KT 10SM CLR M10/M12 A3003 RMK AO2,K5H4,2015-02-13T06:35:00Z,47.78,-99.93,-10.0,-12.0,250,6,,10.0,30.029528,,,TRUE,TRUE,,,,,,,CLR,,,,,,,,VFR,,,,,,,,,,,,SPECI,490.0
K3N8 130635Z AUTO 22010KT 5SM -SN OVC014 M12/M14 A3008 RMK AO2 T11201139,K3N8,2015-02-13T06:35:00Z,47.25,-95.88,-12.0,-13.9,220,10,,5.0,30.079725,,,TRUE,TRUE,,,,,,-SN,OVC,1400,,,,,,,MVFR,,,,,,,,,,,,SPECI,383.0
K3K3 130635Z AUTO 29003KT 10SM CLR 03/M02 A3016 RMK AO2,K3K3,2015-02-13T06:35:00Z,38.0,-101.75,3.0,-2.0,290,3,,10.0,30.159449,,,TRUE,TRUE,,,,,,,CLR,,,,,,,,VFR,,,,,,,,,,,,METAR,1013.0
K2C8 130635Z AUTO 25006KT 10SM SCT017 OVC025 M10/M13 A3004 RMK AO2,K2C8,2015-02-13T06:35:00Z,48.78,-97.63,-10.0,-13.0,250,6,,10.0,30.041338,,,TRUE,TRUE,,,,,,,SCT,1700,OVC,2500,,,,,MVFR,,,,,,,,,,,,SPECI,272.0
K1F0 130635Z AUTO 00000KT 10SM CLR 01/M06 A3036 RMK AO2,K1F0,2015-02-13T06:35:00Z,34.15,-97.12,1.0,-6.0,0,0,,10.0,30.360237,,,TRUE,TRUE,,,,,,,CLR,,,,,,,,VFR,,,,,,,,,,,,SPECI,257.0
KTNU 130635Z AUTO 16008KT 10SM BKN032 OVC060 M11/M15 A3034 RMK AO2,KTNU,2015-02-13T06:35:00Z,41.67,-93.02,-11.0,-15.0,160,8,,10.0,30.339567,,,TRUE,TRUE,,,,,,,BKN,3200,OVC,6000,,,,,VFR,,,,,,,,,,,,SPECI,290.0
KTMA 130635Z AUTO 35007KT 10SM CLR 01/M09 A3020 RMK AO2,KTMA,2015-02-13T06:35:00Z,31.43,-83.48,1.0,-9.0,350,7,,10.0,30.200787,,,TRUE,TRUE,,,,,,,CLR,,,,,,,,VFR,,,,,,,,,,,,SPECI,109.0
KTIF 130635Z AUTO 29009KT 10SM CLR 01/M02 A3011 RMK AO2 T00101025,KTIF,2015-02-13T06:35:00Z,41.97,-100.57,1.0,-2.5,290,9,,10.0,30.109253,,,TRUE,TRUE,,,,,,,CLR,,,,,,,,VFR,,,,,,,,,,,,SPECI,892.0
KTFP 130635Z AUTO 36004KT 10SM CLR 11/10 A3033 RMK AO2 T01110095,KTFP,2015-02-13T06:35:00Z,27.92,-97.22,11.1,9.5,360,4,,10.0,30.33071,,,TRUE,TRUE,,,,,,,CLR,,,,,,,,VFR,,,,,,,,,,,,SPECI,6.0
KTDF 130635Z AUTO 33005G16KT 10SM CLR M03/M15 A3019 RMK AO2,KTDF,2015-02-13T06:35:00Z,36.28,-78.98,-3.0,-15.0,330,5,16,10.0,30.188976,,,TRUE,TRUE,,,,,,,CLR,,,,,,,,VFR,,,,,,,,,,,,SPECI,186.0
KTBR 130635Z AUTO 01006KT 10SM CLR 00/M09 A3019 RMK AO2 T00001090,KTBR,2015-02-13T06:35:00Z,32.48,-81.73,0.0,-9.0,10,6,,10.0,30.188976,,,TRUE,TRUE,,,,,,,CLR,,,,,,,,VFR,,,,,,,,,,,,SPECI,57.0
KTAZ 130635Z AUTO 00000KT 10SM SCT120 M10/M13 A3044 RMK AO2,KTAZ,2015-02-13T06:35:00Z,39.53,-89.33,-10.0,-13.0,0,0,,10.0,30.43996,,,TRUE,TRUE,,,,,,,SCT,12000,,,,,,,VFR,,,,,,,,,,,,SPECI,190.0
KT65 130635Z AUTO 34003KT 7SM OVC060 14/11 A3031 RMK AO2 T01360110,KT65,2015-02-13T06:35:00Z,26.18,-97.97,13.6,11.0,340,3,,7.0,30.31004,,,TRUE,TRUE,,,,,,,OVC,6000,,,,,,,VFR,,,,,,,,,,,,SPECI,21.0
KT35 130635Z AUTO 29005KT 10SM CLR 06/00 A3037 RMK AO2 T00570002,KT35,2015-02-13T06:35:00Z,30.88,-96.97,5.7,0.2,290,5,,10.0,30.369095,,,TRUE,TRUE,,,,,,,CLR,,,,,,,,VFR,,,,,,,,,,,,SPECI,123.0
KSYF 130635Z AUTO 23007KT 10SM CLR 00/M04 A3017 RMK AO2 T10021043,KSYF,2015-02-13T06:35:00Z,39.77,-101.8,-0.2,-4.3,230,7,,10.0,30.171259,,,TRUE,TRUE,,,,,,,CLR,,,,,,,,VFR,,,,,,,,,,,,SPECI,1025.0
KSWW 130635Z AUTO 16006KT 10SM OVC044 06/M03 A3037 RMK AO2 T00611034,KSWW,2015-02-13T06:35:00Z,32.47,-100.47,6.1,-3.4,160,6,,10.0,30.369095,,,TRUE,TRUE,,,,,,,OVC,4400,,,,,,,VFR,,,,,,,,,,,,SPECI,727.0
KSVH 130635Z AUTO 34005KT 10SM CLR M04/M14 A3017 RMK AO2 T10421136,KSVH,2015-02-13T06:35:00Z,35.75,-80.95,-4.2,-13.6,340,5,,10.0,30.171259,,,TRUE,TRUE,,,,,,,CLR,,,,,,,,VFR,,,,,,,,,,,,SPECI,294.0
KSUW 130635Z AUTO 23003KT 10SM SCT075 OVC090 M15/M21 A3024 RMK AO2 T11501206,KSUW,2015-02-13T06:35:00Z,46.68,-92.1,-15.0,-20.6,230,3,,10.0,30.239174,,,TRUE,TRUE,,,,,,,SCT,7500,OVC,9000,,,,,VFR,,,,,,,,,,,,SPECI,206.0
KSTE 130635Z AUTO 00000KT 10SM CLR M23/M26 A3029 RMK AO2 T12331258,KSTE,2015-02-13T06:35:00Z,44.55,-89.53,-23.3,-25.8,0,0,,10.0,30.28937,,,TRUE,TRUE,,,,,,,CLR,,,,,,,,VFR,,,,,,,,,,,,SPECI,338.0
KSRR 130635Z AUTO 23008KT 10SM CLR 00/M05 A3033 RMK AO2,KSRR,2015-02-13T06:35:00Z,33.47,-105.52,0.0,-5.0,230,8,,10.0,30.33071,,,TRUE,TRUE,,,,,,,CLR,,,,,,,,VFR,,,,,,,,,,,,SPECI,2076.0
KSOA 130635Z AUTO 00000KT 10SM SCT080 07/M01 A3039 RMK AO2,KSOA,2015-02-13T06:35:00Z,30.58,-100.65,7.0,-1.0,0,0,,10.0,30.389763,,,TRUE,TRUE,,,,,,,SCT,8000,,,,,,,VFR,,,,,,,,,,,,SPECI,652.0
KSNK 130635Z AUTO 18005KT 10SM BKN070 04/M05 A3034 RMK AO2 T00381048 TSNO,KSNK,2015-02-13T06:35:00Z,32.7,-100.95,3.8,-4.8,180,5,,10.0,30.339567,,,TRUE,TRUE,,,TRUE,,,,BKN,7000,,,,,,,VFR,,,,,,,,,,,,SPECI,741.0
KSME 130635Z AUTO 03003KT 10SM SCT041 M07/M13 A3036 RMK AO2,KSME,2015-02-13T06:35:00Z,37.05,-84.62,-7.0,-13.0,30,3,,10.0,30.360237,,,TRUE,TRUE,,,,,,,SCT,4100,,,,,,,VFR,,,,,,,,,,,,SPECI,283.0
KSLB 130635Z AUTO 19012KT 10SM OVC047 M09/M11 A3023 RMK AO2,KSLB,2015-02-13T06:35:00Z,42.6,-95.22,-9.0,-11.0,190,12,,10.0,30.230314,,,TRUE,TRUE,,,,,,,OVC,4700,,,,,,,VFR,,,,,,,,,,,,SPECI,454.0
KSHL 130635Z AUTO 18010KT 10SM OVC042 M09/M11 A3018 RMK AO2,KSHL,2015-02-13T06:35:00Z,43.22,-95.82,-9.0,-11.0,180,10,,10.0,30.180119,,,TRUE,TRUE,,,,,,,OVC,4200,,,,,,,VFR,,,,,,,,,,,,SPECI,432.0
KSFQ 130635Z AUTO 33009G15KT 290V360 10SM CLR M03/M12 A3013 RMK AO2 T10301121,KSFQ,2015-02-13T06:35:00Z,36.68,-76.6,-3.0,-12.1,330,9,15,10.0,30.129921,,,TRUE,TRUE,,,,,,,CLR,,,,,,,,VFR,,,,,,,,,,,,SPECI,22.0
KSEZ 130635Z AUTO 04017KT 10SM CLR 11/M04 A3027 RMK AO2,KSEZ,2015-02-13T06:35:00Z,34.85,-111.78,11.0,-4.0,40,17,,10.0,30.268702,,,TRUE,TRUE,,,,,,,CLR,,,,,,,,VFR,,,,,,,,,,,,SPECI,1473.0
KSDA 130635Z AUTO 17010KT 10SM FEW080 OVC100 M05/M12 A3030 RMK AO2,KSDA,2015-02-13T06:35:00Z,40.75,-95.42,-5.0,-12.0,170,10,,10.0,30.301182,,,TRUE,TRUE,,,,,,,FEW,8000,OVC,10000,,,,,VFR,,,,,,,,,,,,SPECI,296.0
KSBO 130635Z AUTO 31003KT 10SM CLR M01/M10 A3021 RMK AO2,KSBO,2015-02-13T06:35:00Z,32.62,-82.37,-1.0,-10.0,310,3,,10.0,30.209646,,,TRUE,TRUE,,,,,,,CLR,,,,,,,,VFR,,,,,,,,,,,,SPECI,100.0
KRUQ 130635Z AUTO 33007KT 10SM CLR M04/M14 A3019 RMK AO2 T10361141,KRUQ,2015-02-13T06:35:00Z,35.65,-80.52,-3.6,-14.1,330,7,,10.0,30.188976,,,TRUE,TRUE,,,,,,,CLR,,,,,,,,VFR,,,,,,,,,,,,SPECI,236.0
KRRL 130635Z AUTO 00000KT 10SM CLR M20/M23 A3024 RMK AO2 T12021232,KRRL,2015-02-13T06:35:00Z,45.2,-89.72,-20.2,-23.2,0,0,,10.0,30.239174,,,TRUE,TRUE,,,,,,,CLR,,,,,,,,VFR,,,,,,,,,,,,SPECI,401.0
KRNH 130635Z AUTO 16004KT 10SM SCT090 M15/M19 A3023 RMK AO2 T11521187,KRNH,2015-02-13T06:35:00Z,45.15,-92.53,-15.2,-18.7,160,4,,10.0,30.230314,,,TRUE,TRUE,,,,,,,SCT,9000,,,,,,,VFR,,,,,,,,,,,,SPECI,304.0
KRMN 130635Z AUTO 35016G24KT 10SM CLR M07/M19 A3022 RMK AO2 T10751191,KRMN,2015-02-13T06:35:00Z,38.4,-77.45,-7.5,-19.1,350,16,24,10.0,30.221457,,,TRUE,TRUE,,,,,,,CLR,,,,,,,,VFR,,,,,,,,,,,,SPECI,65.0
KRDK 130635Z AUTO 17008KT 10SM FEW055 BKN065 OVC090 M06/M11 A3029 RMK AO2,KRDK,2015-02-13T06:35:00Z,41.02,-95.27,-6.0,-11.0,170,8,,10.0,30.28937,,,TRUE,TRUE,,,,,,,FEW,5500,BKN,6500,OVC,9000,,,VFR,,,,,,,,,,,,SPECI,318.0
KRCR 130635Z AUTO 27006KT 10SM OVC033 M10/M15 A3039 RMK AO2,KRCR,2015-02-13T06:35:00Z,41.07,-86.18,-10.0,-15.0,270,6,,10.0,30.389763,,,TRUE,TRUE,,,,,,,OVC,3300,,,,,,,VFR,,,,,,,,,,,,SPECI,241.0
KRAS 130635Z AUTO 03006KT 10SM CLR 14/12 A3032 RMK AO2 T01410120,KRAS,2015-02-13T06:35:00Z,27.82,-97.08,14.1,12.0,30,6,,10.0,30.318897,,,TRUE,TRUE,,,,,,,CLR,,,,,,,,VFR,,,,,,,,,,,,SPECI,2.0
KPXE 130635Z AUTO 00000KT 10SM CLR 00/M10 A3024 RMK AO2 T00001100,KPXE,2015-02-13T06:35:00Z,32.52,-83.77,0.0,-10.0,0,0,,10.0,30.239174,,,TRUE,TRUE,,,,,,,CLR,,,,,,,,VFR,,,,,,,,,,,,SPECI,127.0
KPVW 130635Z AUTO 20011KT 10SM CLR 02/M06 A3027 RMK AO2 T00151060,KPVW,2015-02-13T06:35:00Z,34.17,-101.72,1.5,-6.0,200,11,,10.0,30.268702,,,TRUE,TRUE,,,,,,,CLR,,,,,,,,VFR,,,,,,,,,,,,SPECI,1028.0
KPVB 130635Z AUTO 19003KT 10SM SCT110 M15/M19 A3035 RMK AO1 T11501186,KPVB,2015-02-13T06:35:00Z,42.68,-90.43,-15.0,-18.6,190,3,,10.0,30.351377,,,TRUE,TRUE,,,,,,,SCT,11000,,,,,,,VFR,,,,,,,,,,,,SPECI,313.0
KPTB 130635Z AUTO 30008KT 10SM CLR M02/M15 A3015 RMK AO2 T10251155,KPTB,2015-02-13T06:35:00Z,37.17,-77.52,-2.5,-15.5,300,8,,10.0,30.15059,,,TRUE,TRUE,,,,,,,CLR,,,,,,,,VFR,,,,,,,,,,,,SPECI,59.0
KPSK 130635Z AUTO 34004KT 10SM BKN034 BKN040 M08/M14 A3013 RMK AO2 T10851143,KPSK,2015-02-13T06:35:00Z,37.12,-80.67,-8.5,-14.3,340,4,,10.0,30.129921,,,TRUE,TRUE,,,,,,,BKN,3400,BKN,4000,,,,,VFR,,,,,,,,,,,,SPECI,642.0
KPRS 130635Z AUTO 36004KT 10SM OVC020 08/06 A3035 RMK AO2 T00770055,KPRS,2015-02-13T06:35:00Z,29.63,-104.35,7.7,5.5,360,4,,10.0,30.351377,,,TRUE,TRUE,,,,,,,OVC,2000,,,,,,,MVFR,,,,,,,,,,,,SPECI,896.0
KPRG 130635Z AUTO 00000KT 10SM CLR M11/M14 A3044 RMK AO2 T11111141,KPRG,2015-02-13T06:35:00Z,39.7,-87.67,-11.1,-14.1,0,0,,10.0,30.43996,,,TRUE,TRUE,,,,,,,CLR,,,,,,,,VFR,,,,,,,,,,,,SPECI,199.0
KPPA 130635Z AUTO 21011G15KT 10SM CLR 03/M07 A3022 RMK AO2 T00311075,KPPA,2015-02-13T06:35:00Z,35.62,-101.0,3.1,-7.5,210,11,15,10.0,30.221457,,,TRUE,TRUE,,,,,,,CLR,,,,,,,,VFR,,,,,,,,,,,,SPECI,989.0
KPOY 130635Z AUTO 03005KT 10SM BKN075 BKN085 BKN110 07/M03 A3022 RMK AO2,KPOY,2015-02-13T06:35:00Z,44.87,-108.8,7.0,-3.0,30,5,,10.0,30.221457,,,TRUE,TRUE,,,,,,,BKN,7500,BKN,8500,BKN,11000,,,VFR,,,,,,,,,,,,SPECI,1552.0
KPNT 130635Z AUTO 00000KT 10SM CLR M13/M16 A3043 RMK AO2 T11341160,KPNT,2015-02-13T06:35:00Z,40.92,-88.62,-13.4,-16.0,0,0,,10.0,30.431103,,,TRUE,TRUE,,,,,,,CLR,,,,,,,,VFR,,,,,,,,,,,,SPECI,201.0
KPLU 130635Z AUTO 00000KT 10SM FEW044 09/09 A3025 RMK AO2,KPLU,2015-02-13T06:35:00Z,47.1,-122.28,9.0,9.0,0,0,,10.0,30.250984,,,TRUE,TRUE,,,,,,,FEW,4400,,,,,,,VFR,,,,,,,,,,,,SPECI,164.0
KPGV 130635Z AUTO 32005KT 10SM CLR M01/M10 A3016 RMK AO2,KPGV,2015-02-13T06:35:00Z,35.62,-77.4,-1.0,-10.0,320,5,,10.0,30.159449,,,TRUE,TRUE,,,,,,,CLR,,,,,,,,VFR,,,,,,,,,,,,SPECI,8.0
KPEA 130635Z AUTO 14004KT 10SM OVC032 A3037 RMK AO2,KPEA,2015-02-13T06:35:00Z,41.4,-92.95,,,140,4,,10.0,30.369095,,,TRUE,TRUE,,,,,,,OVC,3200,,,,,,,VFR,,,,,,,,,,,,SPECI,270.0
KPBX 130635Z AUTO 36007KT 330V030 10SM SCT031 OVC039 M09/M14 A3028 RMK AO2 T10861145,KPBX,2015-02-13T06:35:00Z,37.57,-82.57,-8.6,-14.5,360,7,,10.0,30.280512,,,TRUE,TRUE,,,,,,,SCT,3100,OVC,3900,,,,,VFR,,,,,,,,,,,,SPECI,449.0
KOZA 130635Z AUTO 00000KT 10SM BKN060 08/00 A3037 RMK AO2,KOZA,2015-02-13T06:35:00Z,30.73,-101.2,8.0,0.0,0,0,,10.0,30.369095,,,TRUE,TRUE,,,,,,,BKN,6000,,,,,,,VFR,,,,,,,,,,,,SPECI,726.0
KOXV 130635Z AUTO 19006KT 10SM OVC034 M09/M15 A3034 RMK AO2,KOXV,2015-02-13T06:35:00Z,41.28,-93.12,-9.0,-15.0,190,6,,10.0,30.339567,,,TRUE,TRUE,,,,,,,OVC,3400,,,,,,,VFR,,,,,,,,,,,,SPECI,283.0
KOUN 130635Z AUTO 16008KT 10SM CLR 00/M06 A3031 RMK AO2,KOUN,2015-02-13T06:35:00Z,35.25,-97.47,0.0,-6.0,160,8,,10.0,30.31004,,,TRUE,TRUE,,,,,,,CLR,,,,,,,,VFR,,,,,,,,,,,,SPECI,357.0
KOOA 130635Z AUTO 16008KT 10SM OVC075 M10/M14 A3037 RMK AO2 T11001136,KOOA,2015-02-13T06:35:00Z,41.23,-92.5,-10.0,-13.6,160,8,,10.0,30.369095,,,TRUE,TRUE,,,,,,,OVC,7500,,,,,,,VFR,,,,,,,,,,,,SPECI,256.0
KOLY 130635Z AUTO 00000KT 10SM SCT120 M08/M13 A3044 RMK AO2,KOLY,2015-02-13T06:35:00Z,38.72,-88.18,-8.0,-13.0,0,0,,10.0,30.43996,,,TRUE,TRUE,,,,,,,SCT,12000,,,,,,,VFR,,,,,,,,,,,,SPECI,147.0
KOCQ 130635Z AUTO 00000KT 10SM CLR M22/M24 A3032 RMK AO1 T12161237,KOCQ,2015-02-13T06:35:00Z,44.87,-87.92,-21.6,-23.7,0,0,,10.0,30.318897,,,TRUE,TRUE,,,,,,,CLR,,,,,,,,VFR,,,,,,,,,,,,SPECI,183.0
KNY0 130635Z AUTO 29007KT 10SM CLR M20/M24 A2994 RMK AO2 T11961242,KNY0,2015-02-13T06:35:00Z,42.98,-74.33,-19.6,-24.2,290,7,,10.0,29.940945,,,TRUE,TRUE,,,,,,,CLR,,,,,,,,VFR,,,,,,,,,,,,SPECI,271.0
KMWK 130635Z AUTO 30007KT 10SM CLR M05/M15 A3019 RMK AO2 T10551153,KMWK,2015-02-13T06:35:00Z,36.47,-80.55,-5.5,-15.3,300,7,,10.0,30.188976,,,TRUE,TRUE,,,,,,,CLR,,,,,,,,VFR,,,,,,,,,,,,SPECI,380.0
KMWC 130635Z AUTO 23003KT 10SM CLR M16/M20 A3037 RMK AO2,KMWC,2015-02-13T06:35:00Z,43.12,-88.03,-16.0,-20.0,230,3,,10.0,30.369095,,,TRUE,TRUE,,,,,,,CLR,,,,,,,,VFR,,,,,,,,,,,,SPECI,227.0
KMNE 130635Z AUTO 00000KT 10SM CLR 02/M06 A3040 RMK AO2 T00181059,KMNE,2015-02-13T06:35:00Z,32.65,-93.3,1.8,-5.9,0,0,,10.0,30.398623,,,TRUE,TRUE,,,,,,,CLR,,,,,,,,VFR,,,,,,,,,,,,SPECI,85.0
KMKJ 130635Z AUTO 30009G21KT 10SM OVC028 M09/M15 A3012 RMK AO2 T10901155,KMKJ,2015-02-13T06:35:00Z,36.88,-81.33,-9.0,-15.5,300,9,21,10.0,30.121063,,,TRUE,TRUE,,,,,,,OVC,2800,,,,,,,MVFR,,,,,,,,,,,,SPECI,780.0
KMGC 130635Z AUTO 28003KT 10SM OVC028 M08/M16 A3039 RMK AO2,KMGC,2015-02-13T06:35:00Z,41.7,-86.82,-8.0,-16.0,280,3,,10.0,30.389763,,,TRUE,TRUE,,,,,,,OVC,2800,,,,,,,MVFR,,,,,,,,,,,,SPECI,200.0
KMDZ 130635Z AUTO 00000KT 10SM CLR M21/M24 A3022 RMK AO2 T12121241,KMDZ,2015-02-13T06:35:00Z,45.1,-90.3,-21.2,-24.1,0,0,,10.0,30.221457,,,TRUE,TRUE,,,,,,,CLR,,,,,,,,VFR,,,,,,,,,,,,SPECI,448.0
KMDD 130635Z AUTO 21006KT 10SM OVC050 09/M01 A3035 RMK AO2 T00921013,KMDD,2015-02-13T06:35:00Z,32.03,-102.1,9.2,-1.3,210,6,,10.0,30.351377,,,TRUE,TRUE,,,,,,,OVC,5000,,,,,,,VFR,,,,,,,,,,,,SPECI,854.0
KLWB 130635Z AUTO 31013G18KT 10SM SCT014 SCT020 BKN028 M11/M16 A3013 RMK AO2 T11101164,KLWB,2015-02-13T06:35:00Z,37.87,-80.4,-11.0,-16.4,310,13,18,10.0,30.129921,,,TRUE,TRUE,,,,,,,SCT,1400,SCT,2000,BKN,2800,,,MVFR,,,,,,,,,,,,SPECI,702.0
KLOT 130635Z AUTO 28004KT 10SM CLR M15/M18 A3041 RMK AO2 T11521185,KLOT,2015-02-13T06:35:00Z,41.6,-88.1,-15.2,-18.5,280,4,,10.0,30.410433,,,TRUE,TRUE,,,,,,,CLR,,,,,,,,VFR,,,,,,,,,,,,SPECI,205.0
KLNP 130635Z AUTO 32004KT 7SM -SN OVC020 M09/M13 A3016 RMK AO2,KLNP,2015-02-13T06:35:00Z,36.97,-82.52,-9.0,-13.0,320,4,,7.0,30.159449,,,TRUE,TRUE,,,,,,-SN,OVC,2000,,,,,,,MVFR,,,,,,,,,,,,SPECI,817.0
KLHZ 130635Z AUTO 32008KT 290V350 10SM CLR M03/M15 A3017 RMK AO2,KLHZ,2015-02-13T06:35:00Z,36.02,-78.33,-3.0,-15.0,320,8,,10.0,30.171259,,,TRUE,TRUE,,,,,,,CLR,,,,,,,,VFR,,,,,,,,,,,,SPECI,113.0
KL38 130635Z AUTO 01004KT 10SM CLR 05/M05 A3034 RMK AO2 T00471054,KL38,2015-02-13T06:35:00Z,30.17,-90.93,4.7,-5.4,10,4,,10.0,30.339567,,,TRUE,TRUE,,,,,,,CLR,,,,,,,,VFR,,,,,,,,,,,,SPECI,4.0
KL35 130635Z AUTO 00000KT 10SM CLR M02/M12 A3034 RMK AO2,KL35,2015-02-13T06:35:00Z,34.27,-116.85,-2.0,-12.0,0,0,,10.0,30.339567,,,TRUE,TRUE,,,,,,,CLR,,,,,,,,VFR,,,,,,,,,,,,SPECI,2059.0
KJYO 130635Z AUTO 34018G23KT 10SM CLR M09/M17 A3019 RMK AO2,KJYO,2015-02-13T06:35:00Z,39.07,-77.57,-9.0,-17.0,340,18,23,10.0,30.188976,,,TRUE,TRUE,,,,,,,CLR,,,,,,,,VFR,,,,,,,,,,,,SPECI,119.0
KJOT 130635Z AUTO 00000KT 10SM CLR M16/M19 A3042 RMK AO2 T11611192,KJOT,2015-02-13T06:35:00Z,41.52,-88.18,-16.1,-19.2,0,0,,10.0,30.41929,,,TRUE,TRUE,,,,,,,CLR,,,,,,,,VFR,,,,,,,,,,,,SPECI,177.0
KJES 130635Z AUTO 00000KT 10SM CLR 04/M06 A3019 RMK AO2,KJES,2015-02-13T06:35:00Z,31.55,-81.88,4.0,-6.0,0,0,,10.0,30.188976,,,TRUE,TRUE,,,,,,,CLR,,,,,,,,VFR,,,,,,,,,,,,SPECI,33.0
KHWY 130635Z AUTO 32016G23KT 10SM CLR M08/M16 A3019 RMK AO2 T10801157,KHWY,2015-02-13T06:35:00Z,38.58,-77.72,-8.0,-15.7,320,16,23,10.0,30.188976,,,TRUE,TRUE,,,,,,,CLR,,,,,,,,VFR,,,,,,,,,,,,SPECI,103.0
KHFJ 130635Z AUTO 13007KT 10SM OVC100 M02/M12 A3031 RMK AO2,KHFJ,2015-02-13T06:35:00Z,36.9,-94.02,-2.0,-12.0,130,7,,10.0,30.31004,,,TRUE,TRUE,,,,,,,OVC,10000,,,,,,,VFR,,,,,,,,,,,,SPECI,401.0
KHDC 130635Z AUTO 00000KT 10SM CLR 02/M05 A3035 RMK AO2,KHDC,2015-02-13T06:35:00Z,30.52,-90.42,2.0,-5.0,0,0,,10.0,30.351377,,,TRUE,TRUE,,,,,,,CLR,,,,,,,,VFR,,,,,,,,,,,,SPECI,13.0
KCVC 130635Z AUTO 34007KT 10SM CLR M01/M11 A3019 RMK AO2,KCVC,2015-02-13T06:35:00Z,33.63,-83.85,-1.0,-11.0,340,7,,10.0,30.188976,,,TRUE,TRUE,,,,,,,CLR,,,,,,,,VFR,,,,,,,,,,,,SPECI,247.0
KCUL 130635Z AUTO 36003KT 10SM CLR M06/M10 A3044 RMK AO2 T10611097,KCUL,2015-02-13T06:35:00Z,38.08,-88.12,-6.1,-9.7,360,3,,10.0,30.43996,,,TRUE,TRUE,,,,,,,CLR,,,,,,,,VFR,,,,,,,,,,,,SPECI,118.0
KCNI 130635Z AUTO 31003KT 10SM CLR M03/M15 A3022 RMK AO2,KCNI,2015-02-13T06:35:00Z,34.32,-84.42,-3.0,-15.0,310,3,,10.0,30.221457,,,TRUE,TRUE,,,,,,,CLR,,,,,,,,VFR,,,,,,,,,,,,SPECI,372.0
KW13 130635Z AUTO 29007KT 10SM CLR M10/M19 A3010 RMK AO1 T10981190,KW13,2015-02-13T06:35:00Z,38.08,-78.95,-9.8,-19.0,290,7,,10.0,30.100393,,,TRUE,TRUE,,,,,,,CLR,,,,,,,,VFR,,,,,,,,,,,,METAR,443.0
KVTI 130635Z AUTO 16004KT 10SM CLR M13/M16 A3036 RMK AO2 T11291158,KVTI,2015-02-13T06:35:00Z,42.22,-92.02,-12.9,-15.8,160,4,,10.0,30.360237,,,TRUE,TRUE,,,,,,,CLR,,,,,,,,VFR,,,,,,,,,,,,SPECI,255.0
KVDI 130635Z AUTO 32005KT 10SM CLR 00/M07 A3021 RMK AO2,KVDI,2015-02-13T06:35:00Z,32.2,-82.37,0.0,-7.0,320,5,,10.0,30.209646,,,TRUE,TRUE,,,,,,,CLR,,,,,,,,VFR,,,,,,,,,,,,METAR,84.0
KUCY 130635Z AUTO 03008KT 10SM BKN120 M08/M13 A3044 RMK,KUCY,2015-02-13T06:35:00Z,36.38,-88.98,-8.0,-13.0,30,8,,10.0,30.43996,,,TRUE,,,,,,,,BKN,12000,,,,,,,VFR,,,,,,,,,,,,METAR,104.0
KTTA 130635Z AUTO 33009G17KT 10SM CLR M02/M14 A3017 RMK AO2 T10161139,KTTA,2015-02-13T06:35:00Z,35.58,-79.1,-1.6,-13.9,330,9,17,10.0,30.171259,,,TRUE,TRUE,,,,,,,CLR,,,,,,,,VFR,,,,,,,,,,,,METAR,75.0
KTPF 130635Z AUTO 34003KT 10SM CLR 15/12 A3009 RMK AO2,KTPF,2015-02-13T06:35:00Z,27.92,-82.45,15.0,12.0,340,3,,10.0,30.088583,,,TRUE,TRUE,,,,,,,CLR,,,,,,,,VFR,,,,,,,,,,,,METAR,3.0
KTME 130635Z AUTO 01003KT 10SM OVC048 07/05 A3035 RMK AO2,KTME,2015-02-13T06:35:00Z,29.8,-95.9,7.0,5.0,10,3,,10.0,30.351377,,,TRUE,TRUE,,,,,,,OVC,4800,,,,,,,VFR,,,,,,,,,,,,METAR,51.0
KTHA 130635Z AUTO 36007KT 10SM CLR M08/M13 A3033 RMK,KTHA,2015-02-13T06:35:00Z,35.38,-86.25,-8.0,-13.0,360,7,,10.0,30.33071,,,TRUE,,,,,,,,CLR,,,,,,,,VFR,,,,,,,,,,,,METAR,331.0
KTBX 130635Z AUTO 34003KT 10SM CLR 05/M04 A3036 RMK AO2,KTBX,2015-02-13T06:35:00Z,43.47,-108.23,5.0,-4.0,340,3,,10.0,30.360237,,,TRUE,TRUE,,,,,,,CLR,,,,,,,,VFR,,,,,,,,,,,,METAR,2225.0
KSTF 130635Z AUTO 36005KT 10SM CLR M02/M11 A3039 RMK AO2,KSTF,2015-02-13T06:35:00Z,33.43,-88.85,-2.0,-11.0,360,5,,10.0,30.389763,,,TRUE,TRUE,,,,,,,CLR,,,,,,,,VFR,,,,,,,,,,,,METAR,102.0
KSOW 130635Z AUTO 00000KT 10SM CLR 00/M05 A3035 RMK AO2,KSOW,2015-02-13T06:35:00Z,34.27,-110.0,0.0,-5.0,0,0,,10.0,30.351377,,,TRUE,TRUE,,,,,,,CLR,,,,,,,,VFR,,,,,,,,,,,,SPECI,1954.0
KSNL 130635Z AUTO 17004KT 10SM CLR 02/M06 A3033 RMK AO2,KSNL,2015-02-13T06:35:00Z,35.35,-96.95,2.0,-6.0,170,4,,10.0,30.33071,,,TRUE,TRUE,,,,,,,CLR,,,,,,,,VFR,,,,,,,,,,,,METAR,327.0
KSMS 130635Z AUTO 35006KT 10SM CLR M01/M12 A3021 RMK AO2,KSMS,2015-02-13T06:35:00Z,34.0,-80.37,-1.0,-12.0,350,6,,10.0,30.209646,,,TRUE,TRUE,,,,,,,CLR,,,,,,,,VFR,,,,,,,,,,,,SPECI,56.0
KSLO 130635Z AUTO 00000KT 10SM SCT120 M06/M13 A3043 RMK AO2 T10651126,KSLO,2015-02-13T06:35:00Z,38.65,-88.97,-6.5,-12.6,0,0,,10.0,30.431103,,,TRUE,TRUE,,,,,,,SCT,12000,,,,,,,VFR,,,,,,,,,,,,METAR,175.0
KSAR 130635Z AUTO 06003KT 10SM CLR M07/M13 A3045 RMK AO2 T10731129,KSAR,2015-02-13T06:35:00Z,38.15,-89.7,-7.3,-12.9,60,3,,10.0,30.448818,,,TRUE,TRUE,,,,,,,CLR,,,,,,,,VFR,,,,,,,,,,,,METAR,164.0
KRYW 130635Z AUTO 03005KT 10SM CLR 07/00 A3035 RMK AO2 T00741005,KRYW,2015-02-13T06:35:00Z,30.5,-97.97,7.4,-0.5,30,5,,10.0,30.351377,,,TRUE,TRUE,,,,,,,CLR,,,,,,,,VFR,,,,,,,,,,,,METAR,376.0
KRSV 130635Z AUTO 03005KT 10SM CLR M10/M13 A3047 RMK AO2 T11011133,KRSV,2015-02-13T06:35:00Z,39.02,-87.65,-10.1,-13.3,30,5,,10.0,30.469488,,,TRUE,TRUE,,,,,,,CLR,,,,,,,,VFR,,,,,,,,,,,,METAR,141.0
KRSN 130635Z AUTO 05005KT 10SM CLR 01/M07 A3042 RMK AO2 T00081073,KRSN,2015-02-13T06:35:00Z,32.52,-92.58,0.8,-7.3,50,5,,10.0,30.41929,,,TRUE,TRUE,,,,,,,CLR,,,,,,,,VFR,,,,,,,,,,,,METAR,95.0
KRPD 130635Z AUTO 14006KT 10SM CLR M17/M21 A3025 RMK AO2 T11741215,KRPD,2015-02-13T06:35:00Z,45.42,-91.77,-17.4,-21.5,140,6,,10.0,30.250984,,,TRUE,TRUE,,,,,,,CLR,,,,,,,,VFR,,,,,,,,,,,,METAR,338.0
KRKR 130635Z AUTO 00000KT 10SM CLR 02/M05 A3037 RMK AO2 T00231054,KRKR,2015-02-13T06:35:00Z,35.02,-94.62,2.3,-5.4,0,0,,10.0,30.369095,,,TRUE,TRUE,,,,,,,CLR,,,,,,,,VFR,,,,,,,,,,,,METAR,138.0
KRCX 130635Z AUTO 16003KT 10SM SCT110 M18/M22 A3026 RMK AO2 T11801217,KRCX,2015-02-13T06:35:00Z,45.5,-91.0,-18.0,-21.7,160,3,,10.0,30.259842,,,TRUE,TRUE,,,,,,,SCT,11000,,,,,,,VFR,,,,,,,,,,,,METAR,377.0
KRBW 130635Z AUTO 36006KT 10SM CLR 01/M09 A3018 RMK AO2,KRBW,2015-02-13T06:35:00Z,32.92,-80.63,1.0,-9.0,360,6,,10.0,30.180119,,,TRUE,TRUE,,,,,,,CLR,,,,,,,,VFR,,,,,,,,,,,,METAR,31.0
KPUJ 130635Z AUTO 34011G16KT 10SM CLR M03/M10 A3022 RMK AO2,KPUJ,2015-02-13T06:35:00Z,33.92,-84.93,-3.0,-10.0,340,11,16,10.0,30.221457,,,TRUE,TRUE,,,,,,,CLR,,,,,,,,VFR,,,,,,,,,,,,METAR,393.0
KPKV 130635Z AUTO 00000KT 10SM OVC050 11/07 A3033 RMK AO2 T01110072,KPKV,2015-02-13T06:35:00Z,28.65,-96.68,11.1,7.2,0,0,,10.0,30.33071,,,TRUE,TRUE,,,,,,,OVC,5000,,,,,,,VFR,,,,,,,,,,,,METAR,9.0
KPHT 130635Z AUTO 02004KT 10SM CLR M09/M14 A3042 RMK,KPHT,2015-02-13T06:35:00Z,36.33,-88.38,-9.0,-14.0,20,4,,10.0,30.41929,,,TRUE,,,,,,,,CLR,,,,,,,,VFR,,,,,,,,,,,,METAR,177.0
KPEZ 130635Z AUTO 02004KT 10SM CLR 10/03 A3035 RMK AO2 T01000029,KPEZ,2015-02-13T06:35:00Z,28.95,-98.52,10.0,2.9,20,4,,10.0,30.351377,,,TRUE,TRUE,,,,,,,CLR,,,,,,,,VFR,,,,,,,,,,,,METAR,132.0
KBGE 130635Z AUTO 01007KT 10SM CLR 03/M05 A3024 RMK AO2,KBGE,2015-02-13T06:35:00Z,30.97,-84.63,3.0,-5.0,10,7,,10.0,30.239174,,,TRUE,TRUE,,,,,,,CLR,,,,,,,,VFR,,,,,,,,,,,,SPECI,43.0
KAZC 130635Z AUTO 14005KT 10SM CLR M01/M05 A3033 RMK AO2 T10071047,KAZC,2015-02-13T06:35:00Z,36.97,-113.02,-0.7,-4.7,140,5,,10.0,30.33071,,,TRUE,TRUE,,,,,,,CLR,,,,,,,,VFR,,,,,,,,,,,,SPECI,1486.0
KASN 130635Z AUTO 01006KT 10SM CLR M02/M11 A3031 RMK AO2 T10191111,KASN,2015-02-13T06:35:00Z,33.57,-86.05,-1.9,-11.1,10,6,,10.0,30.31004,,,TRUE,TRUE,,,,,,,CLR,,,,,,,,VFR,,,,,,,,,,,,SPECI,162.0
KPBH 130635Z AUTO 17003KT 10SM SCT110 M19/M23 A3020 RMK AO2 T11881230,KPBH,2015-02-13T06:35:00Z,45.7,-90.4,-18.8,-23.0,170,3,,10.0,30.200787,,,TRUE,TRUE,,,,,,,SCT,11000,,,,,,,VFR,,,,,,,,,,,,METAR,449.0
KPAN 130635Z AUTO VRB04KT 10SM CLR 10/M05 A3029 RMK AO2,KPAN,2015-02-13T06:35:00Z,34.25,-111.33,10.0,-5.0,0,4,,10.0,30.28937,,,TRUE,TRUE,,,,,,,CLR,,,,,,,,VFR,,,,,,,,,,,,SPECI,1572.0
KOWP 130635Z AUTO 12004KT 10SM CLR 00/M12 A3032 RMK AO2 T10031119,KOWP,2015-02-13T06:35:00Z,36.18,-96.15,-0.3,-11.9,120,4,,10.0,30.318897,,,TRUE,TRUE,,,,,,,CLR,,,,,,,,VFR,,,,,,,,,,,,SPECI,272.0
KORG 130635Z AUTO 03006KT 10SM CLR 08/01 A3034 RMK AO2 T00800013,KORG,2015-02-13T06:35:00Z,30.07,-93.8,8.0,1.3,30,6,,10.0,30.339567,,,TRUE,TRUE,,,,,,,CLR,,,,,,,,VFR,,,,,,,,,,,,SPECI,4.0
KONX 130635Z AUTO 32007G14KT 10SM CLR M01/M10 A3010 RMK AO2 T10151100,KONX,2015-02-13T06:35:00Z,36.4,-76.02,-1.5,-10.0,320,7,14,10.0,30.100393,,,TRUE,TRUE,,,,,,,CLR,,,,,,,,VFR,,,,,,,,,,,,SPECI,5.0
KOKZ 130635Z AUTO 00000KT 10SM CLR M02/M11 A3021 RMK AO2 T10201106 PNO,KOKZ,2015-02-13T06:35:00Z,32.97,-82.83,-2.0,-10.6,0,0,,10.0,30.209646,,,TRUE,TRUE,,,,,,,CLR,,,,,,,,VFR,,,,,,,,,,,,SPECI,134.0
KOBE 130635Z AUTO 27003KT 10SM CLR 09/08 A3008 RMK AO2,KOBE,2015-02-13T06:35:00Z,27.27,-80.85,9.0,8.0,270,3,,10.0,30.079725,,,TRUE,TRUE,,,,,,,CLR,,,,,,,,VFR,,,,,,,,,,,,SPECI,11.0
KMRC 130635Z AUTO 36006KT M07/M13 A3039 RMK,KMRC,2015-02-13T06:35:00Z,35.55,-87.18,-7.0,-13.0,360,6,,,30.389763,,,TRUE,,,,,,,,,,,,,,,,,,,,,,,,,,,,METAR,208.0
KMMI 130635Z AUTO 00000KT 10SM CLR M06/M13 A3030 RMK,KMMI,2015-02-13T06:35:00Z,35.4,-84.57,-6.0,-13.0,0,0,,10.0,30.301182,,,TRUE,,,,,,,,CLR,,,,,,,,VFR,,,,,,,,,,,,METAR,266.0
KMKN 130635Z AUTO 21004KT 10SM SCT055 06/M02 A3037 RMK AO2 T00571020,KMKN,2015-02-13T06:35:00Z,31.92,-98.6,5.7,-2.0,210,4,,10.0,30.369095,,,TRUE,TRUE,,,,,,,SCT,5500,,,,,,,VFR,,,,,,,,,,,,SPECI,423.0
KMFV 130635Z AUTO 31017G26KT 10SM OVC039 M04/M13 A3009 RMK AO2,KMFV,2015-02-13T06:35:00Z,37.63,-75.77,-4.0,-13.0,310,17,26,10.0,30.088583,,,TRUE,TRUE,,,,,,,OVC,3900,,,,,,,VFR,,,,,,,,,,,,SPECI,15.0
K5A6 130635Z AUTO 03009KT 10SM CLR M02/M11 A3038 RMK AO2 T10251115,K5A6,2015-02-13T06:35:00Z,33.47,-89.73,-2.5,-11.5,30,9,,10.0,30.380905,,,TRUE,TRUE,,,,,,,CLR,,,,,,,,VFR,,,,,,,,,,,,METAR,111.0
KZPH 130635Z AUTO 00000KT 10SM CLR 10/09 A3010 RMK AO2,KZPH,2015-02-13T06:35:00Z,28.23,-82.15,10.0,9.0,0,0,,10.0,30.100393,,,TRUE,TRUE,,,,,,,CLR,,,,,,,,VFR,,,,,,,,,,,,METAR,26.0
KW75 130635Z AUTO 32014G24KT 290V350 10SM CLR M05/M14 A3013 RMK AO1 T10501136,KW75,2015-02-13T06:35:00Z,37.6,-76.45,-5.0,-13.6,320,14,24,10.0,30.129921,,,TRUE,TRUE,,,,,,,CLR,,,,,,,,VFR,,,,,,,,,,,,METAR,9.0
KW63 130635Z AUTO 30006G18KT 10SM CLR M03/M15 A3017 RMK AO1,KW63,2015-02-13T06:35:00Z,36.6,-78.55,-3.0,-15.0,300,6,18,10.0,30.171259,,,TRUE,TRUE,,,,,,,CLR,,,,,,,,VFR,,,,,,,,,,,,METAR,129.0
K3I2 130635Z AUTO 00000KT 10SM CLR M10/M17 A3039 RMK AO2,K3I2,2015-02-13T06:35:00Z,38.92,-82.1,-10.0,-17.0,0,0,,10.0,30.389763,,,TRUE,TRUE,,,,,,,CLR,,,,,,,,VFR,,,,,,,,,,,,SPECI,196.0
K40J 130635Z AUTO 01010G15KT 10SM CLR 07/M05 A3018 RMK AO2 T00651046,K40J,2015-02-13T06:35:00Z,30.07,-83.57,6.5,-4.6,10,10,15,10.0,30.180119,,,TRUE,TRUE,,,,,,,CLR,,,,,,,,VFR,,,,,,,,,,,,SPECI,13.0
KMCX 130635Z AUTO 00000KT 10SM CLR M12/M15 A3041 RMK AO2 T11211152,KMCX,2015-02-13T06:35:00Z,40.72,-86.77,-12.1,-15.2,0,0,,10.0,30.410433,,,TRUE,TRUE,,,,,,,CLR,,,,,,,,VFR,,,,,,,,,,,,SPECI,206.0
KMCJ 130635Z AUTO 04005KT 10SM CLR 12/02 A3029 RMK AO1,KMCJ,2015-02-13T06:35:00Z,29.72,-95.4,12.0,2.0,40,5,,10.0,30.28937,,,TRUE,TRUE,,,,,,,CLR,,,,,,,,VFR,,,,,,,,,,,,SPECI,69.0
KMCD 130635Z AUTO 20005KT 7SM BKN017 BKN027 OVC035 M20/M22 A3028 RMK AO2 T12001225,KMCD,2015-02-13T06:35:00Z,45.85,-84.63,-20.0,-22.5,200,5,,7.0,30.280512,,,TRUE,TRUE,,,,,,,BKN,1700,BKN,2700,OVC,3500,,,MVFR,,,,,,,,,,,,SPECI,226.0
KY51 130635Z AUTO 19005KT 10SM CLR M18/M21 A3028 RMK AO1 T11771209,KY51,2015-02-13T06:35:00Z,43.58,-90.9,-17.7,-20.9,190,5,,10.0,30.280512,,,TRUE,TRUE,,,,,,,CLR,,,,,,,,VFR,,,,,,,,,,,,SPECI,394.0
KXPY 130635Z AUTO 02012G20KT 10SM CLR 09/00 A3032 RMK A01,KXPY,2015-02-13T06:35:00Z,29.12,-90.2,9.0,0.0,20,12,20,10.0,30.318897,,,TRUE,TRUE,,,,,,,CLR,,,,,,,,VFR,,,,,,,,,,,,SPECI,2.0
KXLL 130635Z AUTO 30007KT 10SM CLR M12/M21 A3009 RMK AO2,KXLL,2015-02-13T06:35:00Z,40.57,-75.48,-12.0,-21.0,300,7,,10.0,30.088583,,,TRUE,TRUE,,,,,,,CLR,,,,,,,,VFR,,,,,,,,,,,,SPECI,122.0
KXIH 130635Z AUTO 06015KT 10SM OVC042 14/04 A3031 RMK A01,KXIH,2015-02-13T06:35:00Z,29.18,-94.52,14.0,4.0,60,15,,10.0,30.31004,,,TRUE,TRUE,,,,,,,OVC,4200,,,,,,,VFR,,,,,,,,,,,,SPECI,75.0
KXBP 130635Z AUTO 00000KT 10SM CLR 00/M02 A3037 RMK AO2 T00021017,KXBP,2015-02-13T06:35:00Z,33.18,-97.83,0.2,-1.7,0,0,,10.0,30.369095,,,TRUE,TRUE,,,,,,,CLR,,,,,,,,VFR,,,,,,,,,,,,SPECI,260.0
KWDR 130635Z AUTO 34008KT 10SM CLR M02/M10 A3022 RMK AO1,KWDR,2015-02-13T06:35:00Z,33.98,-83.67,-2.0,-10.0,340,8,,10.0,30.221457,,,TRUE,TRUE,,,,,,,CLR,,,,,,,,VFR,,,,,,,,,,,,SPECI,287.0
KW96 130635Z AUTO 33006G15KT 10SM CLR M05/M16 A3015 RMK AO1 T10501160,KW96,2015-02-13T06:35:00Z,37.5,-77.12,-5.0,-16.0,330,6,15,10.0,30.15059,,,TRUE,TRUE,,,,,,,CLR,,,,,,,,VFR,,,,,,,,,,,,SPECI,37.0
KW81 130635Z AUTO 33005KT 10SM CLR M04/M17 A3015 RMK AO1 T10441175,KW81,2015-02-13T06:35:00Z,37.18,-78.1,-4.4,-17.5,330,5,,10.0,30.15059,,,TRUE,TRUE,,,,,,,CLR,,,,,,,,VFR,,,,,,,,,,,,SPECI,129.0
KW43 130635Z AUTO 25006KT 10SM CLR 04/M02 A3018 RMK AO2,KW43,2015-02-13T06:35:00Z,44.67,-104.57,4.0,-2.0,250,6,,10.0,30.180119,,,TRUE,TRUE,,,,,,,CLR,,,,,,,,VFR,,,,,,,,,,,,SPECI,1300.0
KVQT 130635Z AUTO 04019KT 10SM SCT028 BKN036 BKN041 15/06 A3028 RMK A01,KVQT,2015-02-13T06:35:00Z,28.27,-92.27,15.0,6.0,40,19,,10.0,30.280512,,,TRUE,TRUE,,,,,,,SCT,2800,BKN,3600,BKN,4100,,,VFR,,,,,,,,,,,,SPECI,25.0
KVOA 130635Z AUTO 01016G24KT 10SM CLR 11/02 A3021 RMK A01,KVOA,2015-02-13T06:35:00Z,29.23,-87.78,11.0,2.0,10,16,24,10.0,30.209646,,,TRUE,TRUE,,,,,,,CLR,,,,,,,,VFR,,,,,,,,,,,,SPECI,53.0
KVKY 130635Z AUTO 04019G28KT CLR 11/03 A3024 RMK A01,KVKY,2015-02-13T06:35:00Z,29.25,-88.43,11.0,3.0,40,19,28,,30.239174,,,TRUE,TRUE,,,,,,,CLR,,,,,,,,,,,,,,,,,,,,SPECI,32.0
KVKS 130635Z AUTO 04006KT 10SM CLR M00/M11 A3039 RMK A01,KVKS,2015-02-13T06:35:00Z,,,0.0,-11.0,40,6,,10.0,30.389763,,,TRUE,TRUE,,,,,,,CLR,,,,,,,,VFR,,,,,,,,,,,,SPECI,
KVES 130635Z AUTO 01009KT 10SM OVC032 M09/M15 A3034 RMK AO2,KVES,2015-02-13T06:35:00Z,40.2,-84.53,-9.0,-15.0,10,9,,10.0,30.339567,,,TRUE,TRUE,,,,,,,OVC,3200,,,,,,,VFR,,,,,,,,,,,,SPECI,307.0
KVCV 130635Z AUTO 24004KT 7SM CLR 07/M03 A3021 RMK AO2,KVCV,2015-02-13T06:35:00Z,34.58,-117.38,7.0,-3.0,240,4,,7.0,30.209646,,,TRUE,TRUE,,,,,,,CLR,,,,,,,,VFR,,,,,,,,,,,,SPECI,876.0
KVBS 130635Z AUTO 12015KT 10SM 12/02 A3031 RMK A01,KVBS,2015-02-13T06:35:00Z,29.48,-93.63,12.0,2.0,120,15,,10.0,30.31004,,,TRUE,TRUE,,,,,,,,,,,,,,,,,,,,,,,,,,,SPECI,31.0
KVAF 130635Z AUTO 07012KT 9SM FEW029 FEW038 FEW047 17/10 A3027 RMK A01,KVAF,2015-02-13T06:35:00Z,27.35,-94.63,17.0,10.0,70,12,,9.0,30.268702,,,TRUE,TRUE,,,,,,,FEW,2900,FEW,3800,FEW,4700,,,VFR,,,,,,,,,,,,SPECI,46.0
KUVA 130635Z AUTO 10004KT 10SM OVC095 11/03 A3036 RMK AO2 T01060032,KUVA,2015-02-13T06:35:00Z,29.22,-99.75,10.6,3.2,100,4,,10.0,30.360237,,,TRUE,TRUE,,,,,,,OVC,9500,,,,,,,VFR,,,,,,,,,,,,SPECI,287.0
KUSE 130635Z AUTO 29004KT 10SM CLR M18/M22 A3037 RMK AO2,KUSE,2015-02-13T06:35:00Z,41.62,-84.13,-18.0,-22.0,290,4,,10.0,30.369095,,,TRUE,TRUE,,,,,,,CLR,,,,,,,,VFR,,,,,,,,,,,,SPECI,238.0
KTYQ 130635Z AUTO 28004KT 10SM CLR M12/M15 A3039 RMK AO2 T11171153,KTYQ,2015-02-13T06:35:00Z,40.03,-86.25,-11.7,-15.3,280,4,,10.0,30.389763,,,TRUE,TRUE,,,,,,,CLR,,,,,,,,VFR,,,,,,,,,,,,SPECI,281.0
KTQH 130635Z AUTO 00000KT 10SM CLR M01/M10 A3034 RMK AO2,KTQH,2015-02-13T06:35:00Z,35.93,-95.0,-1.0,-10.0,0,0,,10.0,30.339567,,,TRUE,TRUE,,,,,,,CLR,,,,,,,,VFR,,,,,,,,,,,,SPECI,266.0
KTOC 130635Z AUTO 34004KT 10SM CLR M02/M13 A3019 RMK AO2 T10251135,KTOC,2015-02-13T06:35:00Z,34.6,-83.3,-2.5,-13.5,340,4,,10.0,30.188976,,,TRUE,TRUE,,,,,,,CLR,,,,,,,,VFR,,,,,,,,,,,,SPECI,304.0
KTNB 130635Z AUTO 31013G18KT 10SM BKN026 BKN110 M10/M16 A3004 RMK AO2 T11031157,KTNB,2015-02-13T06:35:00Z,36.2,-81.65,-10.3,-15.7,310,13,18,10.0,30.041338,,,TRUE,TRUE,,,,,,,BKN,2600,BKN,11000,,,,,MVFR,,,,,,,,,,,,SPECI,911.0
KTMK 130635Z AUTO 00000KT 7SM CLR A3024 RMK AO2,KTMK,2015-02-13T06:35:00Z,45.42,-123.82,,,0,0,,7.0,30.239174,,,TRUE,TRUE,,,,,,,CLR,,,,,,,,VFR,,,,,,,,,,,,SPECI,11.0
KTKV 130635Z AUTO 00000KT 10SM SCT110 M21/M24 A3021 RMK AO2 T12071236,KTKV,2015-02-13T06:35:00Z,45.47,-89.82,-20.7,-23.6,0,0,,10.0,30.209646,,,TRUE,TRUE,,,,,,,SCT,11000,,,,,,,VFR,,,,,,,,,,,,SPECI,453.0
KTIP 130635Z AUTO 00000KT 10SM CLR M12/M15 A3041 RMK AO2 T11191153,KTIP,2015-02-13T06:35:00Z,40.28,-88.15,-11.9,-15.3,0,0,,10.0,30.410433,,,TRUE,TRUE,,,,,,,CLR,,,,,,,,VFR,,,,,,,,,,,,SPECI,225.0
KT82 130635Z AUTO 00000KT 10SM CLR 06/00 A3035 RMK AO2 T00610000,KT82,2015-02-13T06:35:00Z,30.25,-98.92,6.1,0.0,0,0,,10.0,30.351377,,,TRUE,TRUE,,,,,,,CLR,,,,,,,,VFR,,,,,,,,,,,,SPECI,517.0
KT20 130635Z AUTO 01005KT 10SM CLR 09/03 A3034 RMK AO2 T00870033,KT20,2015-02-13T06:35:00Z,29.52,-97.47,8.7,3.3,10,5,,10.0,30.339567,,,TRUE,TRUE,,,,,,,CLR,,,,,,,,VFR,,,,,,,,,,,,SPECI,108.0
KSVC 130635Z AUTO 00000KT 10SM CLR 02/M03 A3034 RMK AO2,KSVC,2015-02-13T06:35:00Z,32.63,-108.15,2.0,-3.0,0,0,,10.0,30.339567,,,TRUE,TRUE,,,,,,,CLR,,,,,,,,VFR,,,,,,,,,,,,SPECI,1659.0
KSQE 130635Z AUTO 03021KT 10SM FEW041 SCT048 16/07 A3025 RMK A01,KSQE,2015-02-13T06:35:00Z,28.07,-90.82,16.0,7.0,30,21,,10.0,30.250984,,,TRUE,TRUE,,,,,,,FEW,4100,SCT,4800,,,,,VFR,,,,,,,,,,,,SPECI,0.0
KSPR 130635Z AUTO 04025KT 10SM BKN031 OVC038 13/03 A3026 RMK A01,KSPR,2015-02-13T06:35:00Z,28.6,-91.2,13.0,3.0,40,25,,10.0,30.259842,,,TRUE,TRUE,,,,,,,BKN,3100,OVC,3800,,,,,VFR,,,,,,,,,,,,SPECI,31.0
KSLR 130635Z AUTO 03003KT 10SM CLR 04/M04 A3039 RMK AO2 T00401045,KSLR,2015-02-13T06:35:00Z,33.17,-95.62,4.0,-4.5,30,3,,10.0,30.389763,,,TRUE,TRUE,,,,,,,CLR,,,,,,,,VFR,,,,,,,,,,,,SPECI,149.0
KSIF 130635Z AUTO 35004KT 10SM CLR M05/M14 A3021 RMK AO2 T10501144,KSIF,2015-02-13T06:35:00Z,36.43,-79.85,-5.0,-14.4,350,4,,10.0,30.209646,,,TRUE,TRUE,,,,,,,CLR,,,,,,,,VFR,,,,,,,,,,,,SPECI,211.0
KSHD 130635Z AUTO 33006KT 10SM CLR M09/M16 A3015 RMK AO2 T10861163,KSHD,2015-02-13T06:35:00Z,38.27,-78.9,-8.6,-16.3,330,6,,10.0,30.15059,,,TRUE,TRUE,,,,,,,CLR,,,,,,,,VFR,,,,,,,,,,,,SPECI,366.0
KSFY 130635Z AUTO 00000KT 10SM CLR M17/M19 A3041 RMK AO2 T11671194,KSFY,2015-02-13T06:35:00Z,42.05,-90.12,-16.7,-19.4,0,0,,10.0,30.410433,,,TRUE,TRUE,,,,,,,CLR,,,,,,,,VFR,,,,,,,,,,,,SPECI,188.0
KSEP 130635Z AUTO 00000KT 10SM CLR 02/M01 A3038 RMK AO2 T00211011,KSEP,2015-02-13T06:35:00Z,32.22,-98.17,2.1,-1.1,0,0,,10.0,30.380905,,,TRUE,TRUE,,,,,,,CLR,,,,,,,,VFR,,,,,,,,,,,,SPECI,402.0
KRZL 130635Z AUTO 27003KT 10SM CLR M12/M14 A3041 RMK AO2,KRZL,2015-02-13T06:35:00Z,40.95,-87.18,-12.0,-14.0,270,3,,10.0,30.410433,,,TRUE,TRUE,,,,,,,CLR,,,,,,,,VFR,,,,,,,,,,,,SPECI,213.0
KRTS 130635Z AUTO 00000KT 10SM CLR 05/02 A3034 RMK AO2,KRTS,2015-02-13T06:35:00Z,39.67,-119.88,5.0,2.0,0,0,,10.0,30.339567,,,TRUE,TRUE,,,,,,,CLR,,,,,,,,VFR,,,,,,,,,,,,SPECI,1540.0
KRPJ 130635Z AUTO 00000KT 10SM CLR M20/M22 A3041 RMK AO2 T11971218,KRPJ,2015-02-13T06:35:00Z,41.88,-89.08,-19.7,-21.8,0,0,,10.0,30.410433,,,TRUE,TRUE,,,,,,,CLR,,,,,,,,VFR,,,,,,,,,,,,SPECI,238.0
KRPH 130635Z AUTO 00000KT 10SM CLR 00/M03 A3034 RMK AO2 T10021035,KRPH,2015-02-13T06:35:00Z,33.12,-98.55,-0.2,-3.5,0,0,,10.0,30.339567,,,TRUE,TRUE,,,,,,,CLR,,,,,,,,VFR,,,,,,,,,,,,SPECI,342.0
KRNV 130635Z AUTO 03006KT 10SM CLR M02/M09 A3042 RMK AO2 T10201094,KRNV,2015-02-13T06:35:00Z,33.77,-90.75,-2.0,-9.4,30,6,,10.0,30.41929,,,TRUE,TRUE,,,,,,,CLR,,,,,,,,VFR,,,,,,,,,,,,SPECI,41.0
KRNC 130635Z AUTO 02011KT 10SM CLR M06/M13 A3033 RMK,KRNC,2015-02-13T06:35:00Z,35.7,-85.85,-6.0,-13.0,20,11,,10.0,30.33071,,,TRUE,,,,,,,,CLR,,,,,,,,VFR,,,,,,,,,,,,METAR,315.0
KBDG 130635Z AUTO 05004KT 10SM CLR 03/M05 A3038 RMK AO1 T00311051,KBDG,2015-02-13T06:35:00Z,37.58,-109.47,3.1,-5.1,50,4,,10.0,30.380905,,,TRUE,TRUE,,,,,,,CLR,,,,,,,,VFR,,,,,,,,,,,,SPECI,1788.0
KBBF 130635Z AUTO 08011KT 8SM CLR 17/10 A3029 RMK A01,KBBF,2015-02-13T06:35:00Z,27.83,-96.02,17.0,10.0,80,11,,8.0,30.28937,,,TRUE,TRUE,,,,,,,CLR,,,,,,,,VFR,,,,,,,,,,,,SPECI,36.0
KBAC 130635Z AUTO 23008KT 10SM SCT017 OVC026 M10/M10 A3005 RMK AO2,KBAC,2015-02-13T06:35:00Z,46.93,-98.02,-10.0,-10.0,230,8,,10.0,30.050198,,,TRUE,TRUE,,,,,,,SCT,1700,OVC,2600,,,,,MVFR,,,,,,,,,,,,SPECI,684.0
KAYS 130635Z AUTO 02008KT 10SM CLR 04/M07 A3019 RMK AO2 T00381068,KAYS,2015-02-13T06:35:00Z,31.25,-82.4,3.8,-6.8,20,8,,10.0,30.188976,,,TRUE,TRUE,,,,,,,CLR,,,,,,,,VFR,,,,,,,,,,,,SPECI,46.0
KAXX 130635Z AUTO 00000KT 10SM CLR M05/M07 A3037 RMK AO2 T10551066,KAXX,2015-02-13T06:35:00Z,36.42,-105.28,-5.5,-6.6,0,0,,10.0,30.369095,,,TRUE,TRUE,,,,,,,CLR,,,,,,,,VFR,,,,,,,,,,,,SPECI,2548.0
KAVK 130635Z AUTO 20009KT 10SM CLR 00/M05 A3023 RMK AO2,KAVK,2015-02-13T06:35:00Z,36.77,-98.67,0.0,-5.0,200,9,,10.0,30.230314,,,TRUE,TRUE,,,,,,,CLR,,,,,,,,VFR,,,,,,,,,,,,SPECI,449.0
KAUN 130635Z AUTO 00000KT 10SM CLR 12/08 A3018 RMK AO1,KAUN,2015-02-13T06:35:00Z,38.95,-121.08,12.0,8.0,0,0,,10.0,30.180119,,,TRUE,TRUE,,,,,,,CLR,,,,,,,,VFR,,,,,,,,,,,,SPECI,467.0
KAUH 130635Z AUTO 19006KT 10SM CLR M07/M12 A3018 RMK AO2 T10661116,KAUH,2015-02-13T06:35:00Z,40.88,-98.0,-6.6,-11.6,190,6,,10.0,30.180119,,,TRUE,TRUE,,,,,,,CLR,,,,,,,,VFR,,,,,,,,,,,,SPECI,550.0
KATP 130635Z AUTO 35014KT 10SM 19/09 A3023 RMK A01,KATP,2015-02-13T06:35:00Z,27.2,-90.03,19.0,9.0,350,14,,10.0,30.230314,,,TRUE,TRUE,,,,,,,,,,,,,,,,,,,,,,,,,,,SPECI,62.0
KAPY 130635Z AUTO 00000KT 10SM OVC065 12/08 A3033 RMK AO2 T01260083,KAPY,2015-02-13T06:35:00Z,26.97,-99.25,12.6,8.3,0,0,,10.0,30.33071,,,TRUE,TRUE,,,,,,,OVC,6500,,,,,,,VFR,,,,,,,,,,,,SPECI,129.0
KANW 130635Z AUTO 26006KT 10SM CLR M03/M05 A3008 RMK AO2 T10311053,KANW,2015-02-13T06:35:00Z,42.57,-100.0,-3.1,-5.3,260,6,,10.0,30.079725,,,TRUE,TRUE,,,,,,,CLR,,,,,,,,VFR,,,,,,,,,,,,SPECI,789.0
KALM 130635Z AUTO 13005KT 10SM CLR 03/M03 A3033 RMK AO2,KALM,2015-02-13T06:35:00Z,32.82,-105.97,3.0,-3.0,130,5,,10.0,30.33071,,,TRUE,TRUE,,,,,,,CLR,,,,,,,,VFR,,,,,,,,,,,,SPECI,1279.0
KAJZ 130635Z AUTO 16003KT 10SM CLR 02/M06 A3036 RMK AO2 T00171058,KAJZ,2015-02-13T06:35:00Z,38.78,-108.07,1.7,-5.8,160,3,,10.0,30.360237,,,TRUE,TRUE,,,,,,,CLR,,,,,,,,VFR,,,,,,,,,,,,SPECI,1583.0
KAJG 130635Z AUTO 04006KT 10SM SCT120 M06/M13 A3044 RMK AO2,KAJG,2015-02-13T06:35:00Z,38.62,-87.73,-6.0,-13.0,40,6,,10.0,30.43996,,,TRUE,TRUE,,,,,,,SCT,12000,,,,,,,VFR,,,,,,,,,,,,SPECI,131.0
KAEJ 130635Z AUTO 30010G18KT 10SM CLR 03/M11 A3034 RMK AO2 T00271107,KAEJ,2015-02-13T06:35:00Z,38.82,-106.12,2.7,-10.7,300,10,18,10.0,30.339567,,,TRUE,TRUE,,,,,,,CLR,,,,,,,,VFR,,,,,,,,,,,,SPECI,2422.0
KADH 130635Z AUTO 14004KT 10SM CLR 00/M06 A3033 RMK AO2,KADH,2015-02-13T06:35:00Z,34.8,-96.67,0.0,-6.0,140,4,,10.0,30.33071,,,TRUE,TRUE,,,,,,,CLR,,,,,,,,VFR,,,,,,,,,,,,SPECI,308.0
KAAA 130635Z AUTO 10003KT 10SM CLR M10/M14 A3047 RMK AO2 T11001138,KAAA,2015-02-13T06:35:00Z,40.17,-89.33,-10.0,-13.8,100,3,,10.0,30.469488,,,TRUE,TRUE,,,,,,,CLR,,,,,,,,VFR,,,,,,,,,,,,SPECI,182.0
K82C 130635Z AUTO 00000KT 10SM CLR M21/M23 A3032 RMK AO2 T12131235,K82C,2015-02-13T06:35:00Z,43.83,-90.13,-21.3,-23.5,0,0,,10.0,30.318897,,,TRUE,TRUE,,,,,,,CLR,,,,,,,,VFR,,,,,,,,,,,,METAR,276.0
K65S 130635Z AUTO 00000KT 3/4SM BR BKN055 02/02 A3031 RMK AO2,K65S,2015-02-13T06:35:00Z,48.73,-116.3,2.0,2.0,0,0,,0.75,30.31004,,,TRUE,TRUE,,,,,,BR,BKN,5500,,,,,,,LIFR,,,,,,,,,,,,SPECI,713.0
K5T9 130635Z AUTO 32003KT 10SM BKN055 OVC065 11/01 A3036 RMK A01,K5T9,2015-02-13T06:35:00Z,28.85,-100.52,11.0,1.0,320,3,,10.0,30.360237,,,TRUE,TRUE,,,,,,,BKN,5500,OVC,6500,,,,,VFR,,,,,,,,,,,,METAR,270.0
K5C1 130635Z AUTO 03003KT 10SM OVC050 07/01 A3037 RMK AO1,K5C1,2015-02-13T06:35:00Z,29.72,-98.7,7.0,1.0,30,3,,10.0,30.369095,,,TRUE,TRUE,,,,,,,OVC,5000,,,,,,,VFR,,,,,,,,,,,,SPECI,423.0
K4A9 130635Z AUTO 36003KT 10SM CLR M05/M13 A3029 RMK AO2,K4A9,2015-02-13T06:35:00Z,34.47,-85.72,-5.0,-13.0,360,3,,10.0,30.28937,,,TRUE,TRUE,,,,,,,CLR,,,,,,,,VFR,,,,,,,,,,,,SPECI,267.0
K2I0 130635Z AUTO 01005KT 10SM CLR M07/M12 A3045 RMK AO2 T10661116,K2I0,2015-02-13T06:35:00Z,37.35,-87.4,-6.6,-11.6,10,5,,10.0,30.448818,,,TRUE,TRUE,,,,,,,CLR,,,,,,,,VFR,,,,,,,,,,,,SPECI,134.0
K2D5 130635Z AUTO 20011KT 10SM M10/M11 A3008 RMK AO2,K2D5,2015-02-13T06:35:00Z,46.17,-98.08,-10.0,-11.0,200,11,,10.0,30.079725,,,TRUE,TRUE,,,,,,,,,,,,,,,,,,,,,,,,,,,SPECI,407.0
K1L0 130635Z AUTO 02007KT 10SM CLR 06/M04 A3033 RMK AO2 T00561043,K1L0,2015-02-13T06:35:00Z,30.08,-90.58,5.6,-4.3,20,7,,10.0,30.33071,,,TRUE,TRUE,,,,,,,CLR,,,,,,,,VFR,,,,,,,,,,,,SPECI,2.0
K1II 130635Z AUTO 32004KT 10SM CLR M10/M13 A3041 RMK AO2,K1II,2015-02-13T06:35:00Z,39.33,-86.03,-10.0,-13.0,320,4,,10.0,30.410433,,,TRUE,TRUE,,,,,,,CLR,,,,,,,,VFR,,,,,,,,,,,,SPECI,214.0
K1H2 130635Z AUTO 05003KT 10SM SCT110 M09/M14 A3045 RMK AO2 T10861140,K1H2,2015-02-13T06:35:00Z,39.07,-88.53,-8.6,-14.0,50,3,,10.0,30.448818,,,TRUE,TRUE,,,,,,,SCT,11000,,,,,,,VFR,,,,,,,,,,,,SPECI,179.0
K1A6 130635Z AUTO 36003KT 10SM OVC035 M06/M12 A3030 RMK AO2 T10581125,K1A6,2015-02-13T06:35:00Z,36.62,-83.73,-5.8,-12.5,360,3,,10.0,30.301182,,,TRUE,TRUE,,,,,,,OVC,3500,,,,,,,VFR,,,,,,,,,,,,SPECI,352.0
K1A5 130635Z AUTO 00000KT 10SM M07/M15 A3018 RMK AO2 T10661148,K1A5,2015-02-13T06:35:00Z,35.22,-83.42,-6.6,-14.8,0,0,,10.0,30.180119,,,TRUE,TRUE,,,,,,,,,,,,,,,,,,,,,,,,,,,SPECI,616.0
K19A 130635Z AUTO 33004KT 10SM CLR M02/M10 A3019 RMK AO2,K19A,2015-02-13T06:35:00Z,34.18,-83.57,-2.0,-10.0,330,4,,10.0,30.188976,,,TRUE,TRUE,,,,,,,CLR,,,,,,,,VFR,,,,,,,,,,,,SPECI,290.0
K11R 130635Z AUTO 00000KT 10SM CLR 08/03 A3035 RMK AO2 T00770033,K11R,2015-02-13T06:35:00Z,30.22,-96.37,7.7,3.3,0,0,,10.0,30.351377,,,TRUE,TRUE,,,,,,,CLR,,,,,,,,VFR,,,,,,,,,,,,SPECI,94.0
K0VG 130635Z AUTO 33005KT 10SM OVC035 M07/M14 A3029 RMK AO2,K0VG,2015-02-13T06:35:00Z,36.65,-83.22,-7.0,-14.0,330,5,,10.0,30.28937,,,TRUE,TRUE,,,,,,,OVC,3500,,,,,,,VFR,,,,,,,,,,,,SPECI,430.0
K0V4 130635Z AUTO 30007KT 10SM CLR M05/M13 A3017 RMK AO1 T10511132,K0V4,2015-02-13T06:35:00Z,37.15,-79.02,-5.1,-13.2,300,7,,10.0,30.171259,,,TRUE,TRUE,,,,,,,CLR,,,,,,,,VFR,,,,,,,,,,,,SPECI,182.0
K0F2 130635Z AUTO 00000KT 10SM CLR 00/M03 A3035 RMK AO2 T10031027,K0F2,2015-02-13T06:35:00Z,33.6,-97.78,-0.3,-2.7,0,0,,10.0,30.351377,,,TRUE,TRUE,,,,,,,CLR,,,,,,,,VFR,,,,,,,,,,,,SPECI,336.0
K0E0 130635Z AUTO 06004KT 10SM CLR M04/M06 A3031 RMK AO2 T10411063,K0E0,2015-02-13T06:35:00Z,34.98,-106.0,-4.1,-6.3,60,4,,10.0,30.31004,,,TRUE,TRUE,,,,,,,CLR,,,,,,,,VFR,,,,,,,,,,,,SPECI,1890.0
K05U 130635Z AUTO 21005KT 10SM CLR 01/M07 A3039 RMK AO1,K05U,2015-02-13T06:35:00Z,39.6,-116.0,1.0,-7.0,210,5,,10.0,30.389763,,,TRUE,TRUE,,,,,,,CLR,,,,,,,,VFR,,,,,,,,,,,,SPECI,1816.0
KFET 130635Z AUTO 16009KT 10SM BKN090 M06/M11 A3024 RMK AO2 T10581114,KFET,2015-02-13T06:35:00Z,41.45,-96.52,-5.8,-11.4,160,9,,10.0,30.239174,,,TRUE,TRUE,,,,,,,BKN,9000,,,,,,,VFR,,,,,,,,,,,,SPECI,367.0
KF44 130635Z AUTO 36004KT 10SM CLR 04/M02 A3036 RMK AO2,KF44,2015-02-13T06:35:00Z,32.17,-95.83,4.0,-2.0,360,4,,10.0,30.360237,,,TRUE,TRUE,,,,,,,CLR,,,,,,,,VFR,,,,,,,,,,,,SPECI,135.0
KF05 130635Z AUTO 21005KT 10SM CLR 01/M06 A3032 RMK AO1 T00091058,KF05,2015-02-13T06:35:00Z,34.23,-99.28,0.9,-5.8,210,5,,10.0,30.318897,,,TRUE,TRUE,,,,,,,CLR,,,,,,,,VFR,,,,,,,,,,,,SPECI,386.0
KEZS 130635Z AUTO 00000KT 10SM CLR M16/M20 A3031 RMK AO2 T11571205,KEZS,2015-02-13T06:35:00Z,44.78,-88.57,-15.7,-20.5,0,0,,10.0,30.31004,,,TRUE,TRUE,,,,,,,CLR,,,,,,,,VFR,,,,,,,,,,,,SPECI,248.0
KEZM 130635Z AUTO 00000KT 10SM CLR M01/M08 A3025 RMK AO2 T10111085,KEZM,2015-02-13T06:35:00Z,32.22,-83.13,-1.1,-8.5,0,0,,10.0,30.250984,,,TRUE,TRUE,,,,,,,CLR,,,,,,,,VFR,,,,,,,,,,,,SPECI,93.0
KETC 130635Z AUTO 31005KT 10SM CLR M01/M11 A3016 RMK AO2 T10121113,KETC,2015-02-13T06:35:00Z,35.93,-77.55,-1.2,-11.3,310,5,,10.0,30.159449,,,TRUE,TRUE,,,,,,,CLR,,,,,,,,VFR,,,,,,,,,,,,SPECI,17.0
KERV 130635Z AUTO 00000KT 10SM CLR 06/01 A3035 RMK AO2 T00570005,KERV,2015-02-13T06:35:00Z,29.98,-99.08,5.7,0.5,0,0,,10.0,30.351377,,,TRUE,TRUE,,,,,,,CLR,,,,,,,,VFR,,,,,,,,,,,,SPECI,510.0
KEQA 130635Z AUTO 11005KT 10SM OVC120 M03/M11 A3027 RMK AO2,KEQA,2015-02-13T06:35:00Z,37.78,-96.82,-3.0,-11.0,110,5,,10.0,30.268702,,,TRUE,TRUE,,,,,,,OVC,12000,,,,,,,VFR,,,,,,,,,,,,SPECI,420.0
KEMK 130635Z AUTO 04014KT 10SM FEW037 18/10 A3028 RMK A01,KEMK,2015-02-13T06:35:00Z,27.82,-94.32,18.0,10.0,40,14,,10.0,30.280512,,,TRUE,TRUE,,,,,,,FEW,3700,,,,,,,VFR,,,,,,,,,,,,SPECI,26.0
KEIR 130635Z AUTO 03025KT 10SM FEW036 12/02 A3029 RMK A01,KEIR,2015-02-13T06:35:00Z,28.63,-91.48,12.0,2.0,30,25,,10.0,30.28937,,,TRUE,TRUE,,,,,,,FEW,3600,,,,,,,VFR,,,,,,,,,,,,SPECI,28.0
KEHC 130635Z AUTO 03017KT 10SM CLR 15/05 A3029 RMK A01,KEHC,2015-02-13T06:35:00Z,28.43,-92.88,15.0,5.0,30,17,,10.0,30.28937,,,TRUE,TRUE,,,,,,,CLR,,,,,,,,VFR,,,,,,,,,,,,SPECI,31.0
KEBG 130635Z AUTO 35003KT 10SM OVC065 14/11 A3032 RMK AO2 T01380110,KEBG,2015-02-13T06:35:00Z,26.45,-98.13,13.8,11.0,350,3,,10.0,30.318897,,,TRUE,TRUE,,,,,,,OVC,6500,,,,,,,VFR,,,,,,,,,,,,SPECI,24.0
KE16 130635Z AUTO 00000KT 10SM CLR 12/11 A3017 RMK AO2,KE16,2015-02-13T06:35:00Z,37.08,-121.6,12.0,11.0,0,0,,10.0,30.171259,,,TRUE,TRUE,,,,,,,CLR,,,,,,,,VFR,,,,,,,,,,,,SPECI,86.0
KDZB 130635Z AUTO 00000KT 10SM SCT050 04/00 A3036 RMK AO2 T00360003,KDZB,2015-02-13T06:35:00Z,30.53,-98.37,3.6,0.3,0,0,,10.0,30.360237,,,TRUE,TRUE,,,,,,,SCT,5000,,,,,,,VFR,,,,,,,,,,,,SPECI,334.0
KDVO 130635Z AUTO 19004KT 12/10 A3015 RMK AO2,KDVO,2015-02-13T06:35:00Z,38.15,-122.55,12.0,10.0,190,4,,,30.15059,,,TRUE,TRUE,,,,,,,,,,,,,,,,,,,,,,,,,,,SPECI,1.0
KDUX 130635Z AUTO 23013KT 10SM CLR 03/M05 A3021 RMK AO2 T00261048,KDUX,2015-02-13T06:35:00Z,35.85,-102.02,2.6,-4.8,230,13,,10.0,30.209646,,,TRUE,TRUE,,,,,,,CLR,,,,,,,,VFR,,,,,,,,,,,,SPECI,1129.0
KDUC 130635Z AUTO 15004KT 10SM CLR 01/M02 A3033 RMK AO2,KDUC,2015-02-13T06:35:00Z,34.47,-97.97,1.0,-2.0,150,4,,10.0,30.33071,,,TRUE,TRUE,,,,,,,CLR,,,,,,,,VFR,,,,,,,,,,,,SPECI,339.0
KDRI 130635Z AUTO 06006KT 10SM CLR 05/M04 A3037 RMK AO2 T00511038,KDRI,2015-02-13T06:35:00Z,30.83,-93.33,5.1,-3.8,60,6,,10.0,30.369095,,,TRUE,TRUE,,,,,,,CLR,,,,,,,,VFR,,,,,,,,,,,,SPECI,63.0
KDQH 130635Z AUTO 01007KT 10SM CLR 02/M09 A3022 RMK AO2,KDQH,2015-02-13T06:35:00Z,31.48,-82.87,2.0,-9.0,10,7,,10.0,30.221457,,,TRUE,TRUE,,,,,,,CLR,,,,,,,,VFR,,,,,,,,,,,,SPECI,78.0
KDNV 130635Z AUTO 00000KT 10SM CLR M13/M15 A3039 RMK AO2 T11311151,KDNV,2015-02-13T06:35:00Z,40.2,-87.6,-13.1,-15.1,0,0,,10.0,30.389763,,,TRUE,TRUE,,,,,,,CLR,,,,,,,,VFR,,,,,,,,,,,,SPECI,212.0
KDLP 130635Z AUTO 02024KT 10SM CLR 10/03 A3025 RMK A01,KDLP,2015-02-13T06:35:00Z,29.12,-89.55,10.0,3.0,20,24,,10.0,30.250984,,,TRUE,TRUE,,,,,,,CLR,,,,,,,,VFR,,,,,,,,,,,,SPECI,36.0
KD50 130635Z AUTO 30006KT 10SM CLR M05/M05 A3007 RMK AO2,KD50,2015-02-13T06:35:00Z,48.93,-103.3,-5.0,-5.0,300,6,,10.0,30.070866,,,TRUE,TRUE,,,,,,,CLR,,,,,,,,VFR,,,,,,,,,,,,SPECI,595.0
KCXP 130635Z AUTO 00000KT 10SM CLR 05/00 A3035 RMK AO2,KCXP,2015-02-13T06:35:00Z,39.18,-119.73,5.0,0.0,0,0,,10.0,30.351377,,,TRUE,TRUE,,,,,,,CLR,,,,,,,,VFR,,,,,,,,,,,,SPECI,1435.0
KCVW 130635Z AUTO 06012G17KT 10SM FEW019 09/M00 A3035 RMK A01,KCVW,2015-02-13T06:35:00Z,29.78,-93.3,9.0,0.0,60,12,17,10.0,30.351377,,,TRUE,TRUE,,,,,,,FEW,1900,,,,,,,VFR,,,,,,,,,,,,SPECI,1.0
KCUH 130635Z AUTO 17004KT 10SM CLR 00/M08 A3031 RMK AO2,KCUH,2015-02-13T06:35:00Z,35.95,-96.77,0.0,-8.0,170,4,,10.0,30.31004,,,TRUE,TRUE,,,,,,,CLR,,,,,,,,VFR,,,,,,,,,,,,SPECI,279.0
KCRX 130635Z AUTO 03009KT 10SM CLR M04/M12 A3039 RMK AO2,KCRX,2015-02-13T06:35:00Z,34.92,-88.6,-4.0,-12.0,30,9,,10.0,30.389763,,,TRUE,TRUE,,,,,,,CLR,,,,,,,,VFR,,,,,,,,,,,,SPECI,130.0
KCRH 130635Z AUTO 04016KT 10SM FEW020 OVC042 14/05 A3032 RMK A01,KCRH,2015-02-13T06:35:00Z,28.92,-93.3,14.0,5.0,40,16,,10.0,30.318897,,,TRUE,TRUE,,,,,,,FEW,2000,OVC,4200,,,,,VFR,,,,,,,,,,,,SPECI,34.0
KCPK 130635Z AUTO 32011G17KT 10SM CLR M01/M11 A3011 RMK AO2,KCPK,2015-02-13T06:35:00Z,36.67,-76.32,-1.0,-11.0,320,11,17,10.0,30.109253,,,TRUE,TRUE,,,,,,,CLR,,,,,,,,VFR,,,,,,,,,,,,SPECI,6.0
KCMD 130635Z AUTO 36005KT 10SM CLR M06/M12 A3034 RMK AO2 T10571125,KCMD,2015-02-13T06:35:00Z,34.27,-86.85,-5.7,-12.5,360,5,,10.0,30.339567,,,TRUE,TRUE,,,,,,,CLR,,,,,,,,VFR,,,,,,,,,,,,SPECI,294.0
KCIR 130635Z AUTO 01004KT 10SM SCT120 M05/M12 A3046 RMK AO2 T10521121,KCIR,2015-02-13T06:35:00Z,37.07,-89.22,-5.2,-12.1,10,4,,10.0,30.46063,,,TRUE,TRUE,,,,,,,SCT,12000,,,,,,,VFR,,,,,,,,,,,,SPECI,98.0
KCIC 130635Z AUTO 06005KT 10SM CLR 14/09 A3017 RMK AO1,KCIC,2015-02-13T06:35:00Z,39.78,-121.83,14.0,9.0,60,5,,10.0,30.171259,,,TRUE,TRUE,,,,,,,CLR,,,,,,,,VFR,,,,,,,,,,,,SPECI,73.0
KCDA 130635Z AUTO 26014G18KT 3SM HZ SCT010 BKN017 OVC036 M17/M21 A2978 RMK AO2 T11671212,KCDA,2015-02-13T06:35:00Z,44.57,-72.02,-16.7,-21.2,260,14,18,3.0,29.778543,,,TRUE,TRUE,,,,,,HZ,SCT,1000,BKN,1700,OVC,3600,,,MVFR,,,,,,,,,,,,SPECI,363.0
KCCO 130635Z AUTO 35012KT 10SM CLR M03/M11 A3021 RMK AO2 T10261106,KCCO,2015-02-13T06:35:00Z,33.32,-84.77,-2.6,-10.6,350,12,,10.0,30.209646,,,TRUE,TRUE,,,,,,,CLR,,,,,,,,VFR,,,,,,,,,,,,SPECI,296.0
KC29 130635Z AUTO 00000KT 10SM CLR M20/M23 A3035 RMK AO1 T11991232,KC29,2015-02-13T06:35:00Z,43.12,-89.53,-19.9,-23.2,0,0,,10.0,30.351377,,,TRUE,TRUE,,,,,,,CLR,,,,,,,,VFR,,,,,,,,,,,,SPECI,283.0
KBWD 130635Z AUTO 00000KT 10SM OVC050 04/M02 A3037 RMK AO2,KBWD,2015-02-13T06:35:00Z,31.8,-98.95,4.0,-2.0,0,0,,10.0,30.369095,,,TRUE,TRUE,,,,,,,OVC,5000,,,,,,,VFR,,,,,,,,,,,,SPECI,423.0
KBVN 130635Z AUTO 18004KT 10SM CLR M07/M12 A3017 RMK AO2 T10701120,KBVN,2015-02-13T06:35:00Z,41.73,-98.05,-7.0,-12.0,180,4,,10.0,30.171259,,,TRUE,TRUE,,,,,,,CLR,,,,,,,,VFR,,,,,,,,,,,,SPECI,551.0
KBQX 130635Z AUTO 07008KT 10SM BKN048 17/08 A3031 RMK A01,KBQX,2015-02-13T06:35:00Z,28.5,-95.72,17.0,8.0,70,8,,10.0,30.31004,,,TRUE,TRUE,,,,,,,BKN,4800,,,,,,,VFR,,,,,,,,,,,,SPECI,34.0
KBMT 130635Z AUTO 04003KT 10SM CLR 08/01 A3033 RMK AO2 T00810012,KBMT,2015-02-13T06:35:00Z,30.07,-94.22,8.1,1.2,40,3,,10.0,30.33071,,,TRUE,TRUE,,,,,,,CLR,,,,,,,,VFR,,,,,,,,,,,,SPECI,10.0
KBHC 130635Z AUTO 35006KT 10SM CLR 02/M08 A3020 RMK AO2,KBHC,2015-02-13T06:35:00Z,31.72,-82.4,2.0,-8.0,350,6,,10.0,30.200787,,,TRUE,TRUE,,,,,,,CLR,,,,,,,,VFR,,,,,,,,,,,,SPECI,61.0
KLAL 130635Z AUTO 32003KT 10SM CLR 10/09 A3009 RMK AO2,KLAL,2015-02-13T06:35:00Z,27.97,-82.02,10.0,9.0,320,3,,10.0,30.088583,,,TRUE,TRUE,,,,,,,CLR,,,,,,,,VFR,,,,,,,,,,,,SPECI,43.0
KJXI 130635Z AUTO 09003KT 10SM TS CLR 04/M05 A3037 RMK AO2 T00401047,KJXI,2015-02-13T06:35:00Z,32.7,-94.95,4.0,-4.7,90,3,,10.0,30.369095,,,TRUE,TRUE,,,,,,TS,CLR,,,,,,,,VFR,,,,,,,,,,,,SPECI,127.0
KJWG 130635Z AUTO 19006KT 10SM CLR 01/M03 A3028 RMK AO2 T00101026,KJWG,2015-02-13T06:35:00Z,35.87,-98.42,1.0,-2.6,190,6,,10.0,30.280512,,,TRUE,TRUE,,,,,,,CLR,,,,,,,,VFR,,,,,,,,,,,,SPECI,472.0
KJTC 130635Z AUTO 22008KT 10SM CLR M02/M07 A3037 RMK AO2,KJTC,2015-02-13T06:35:00Z,34.13,-109.32,-2.0,-7.0,220,8,,10.0,30.369095,,,TRUE,TRUE,,,,,,,CLR,,,,,,,,VFR,,,,,,,,,,,,METAR,2150.0
KJSV 130635Z AUTO 00000KT 10SM CLR 01/M06 A3036 RMK AO2,KJSV,2015-02-13T06:35:00Z,35.43,-94.8,1.0,-6.0,0,0,,10.0,30.360237,,,TRUE,TRUE,,,,,,,CLR,,,,,,,,VFR,,,,,,,,,,,,SPECI,161.0
KJSO 130635Z AUTO 36005KT 10SM CLR 07/M02 A3036 RMK AO2 T00701029,KJSO,2015-02-13T06:35:00Z,31.87,-95.22,7.0,-2.9,360,5,,10.0,30.360237,,,TRUE,TRUE,,,,,,,CLR,,,,,,,,VFR,,,,,,,,,,,,SPECI,206.0
KJFZ 130635Z AUTO 34010G17KT 310V010 10SM OVC026 M10/M16 A3012 RMK AO2 T11011158,KJFZ,2015-02-13T06:35:00Z,37.07,-81.8,-10.1,-15.8,340,10,17,10.0,30.121063,,,TRUE,TRUE,,,,,,,OVC,2600,,,,,,,MVFR,,,,,,,,,,,,SPECI,809.0
KJAS 130635Z AUTO 07004KT 10SM CLR 07/00 A3036 RMK AO2 T00650000,KJAS,2015-02-13T06:35:00Z,30.88,-94.03,6.5,0.0,70,4,,10.0,30.360237,,,TRUE,TRUE,,,,,,,CLR,,,,,,,,VFR,,,,,,,,,,,,SPECI,65.0
KIPN 130635Z AUTO 36012G17KT 10SM FEW030 SCT040 17/06 A3019 RMK A01,KIPN,2015-02-13T06:35:00Z,28.08,-87.98,17.0,6.0,360,12,17,10.0,30.188976,,,TRUE,TRUE,,,,,,,FEW,3000,SCT,4000,,,,,VFR,,,,,,,,,,,,SPECI,41.0
KIKT 130635Z AUTO 36009G18KT 300V040 10SM SCT035 15/04 A3019 RMK A01,KIKT,2015-02-13T06:35:00Z,28.52,-88.28,15.0,4.0,360,9,18,10.0,30.188976,,,TRUE,TRUE,,,,,,,SCT,3500,,,,,,,VFR,,,,,,,,,,,,SPECI,25.0
KIIY 130635Z AUTO 34003KT 10SM CLR M01/M08 A3020 RMK AO2,KIIY,2015-02-13T06:35:00Z,33.78,-82.82,-1.0,-8.0,340,3,,10.0,30.200787,,,TRUE,TRUE,,,,,,,CLR,,,,,,,,VFR,,,,,,,,,,,,SPECI,197.0
KIFP 130635Z AUTO 03017G20KT 10SM CLR 22/M04 A3012 RMK AO2 PWINO,KIFP,2015-02-13T06:35:00Z,35.15,-114.57,22.0,-4.0,30,17,20,10.0,30.121063,,,TRUE,TRUE,,,,,TRUE,,CLR,,,,,,,,VFR,,,,,,,,,,,,SPECI,212.0
KIER 130635Z AUTO 08005KT 10SM CLR 03/M04 A3039 RMK AO2 T00291036,KIER,2015-02-13T06:35:00Z,31.73,-93.1,2.9,-3.6,80,5,,10.0,30.389763,,,TRUE,TRUE,,,,,,,CLR,,,,,,,,VFR,,,,,,,,,,,,SPECI,37.0
KIBM 130635Z AUTO 29007KT 10SM CLR 00/M04 A3019 RMK AO2 T00011044,KIBM,2015-02-13T06:35:00Z,41.18,-103.68,0.1,-4.4,290,7,,10.0,30.188976,,,TRUE,TRUE,,,,,,,CLR,,,,,,,,VFR,,,,,,,,,,,,SPECI,1501.0
KI16 130635Z AUTO 10SM SCT028 SCT039 M09/M13 A3027 RMK AO2 T10861127,KI16,2015-02-13T06:35:00Z,37.6,-81.57,-8.6,-12.7,,,,10.0,30.268702,,,TRUE,TRUE,,,,,,,SCT,2800,SCT,3900,,,,,VFR,,,,,,,,,,,,SPECI,544.0
KHZL 130635Z AUTO 29013G21KT 10SM OVC029 M16/M23 A2999 RMK AO2,KHZL,2015-02-13T06:35:00Z,40.98,-76.0,-16.0,-23.0,290,13,21,10.0,29.991142,,,TRUE,TRUE,,,,,,,OVC,2900,,,,,,,MVFR,,,,,,,,,,,,SPECI,489.0
KHUM 130635Z AUTO 01007KT 10SM CLR 06/M02 A3032 RMK AO2 T00571025,KHUM,2015-02-13T06:35:00Z,29.57,-90.67,5.7,-2.5,10,7,,10.0,30.318897,,,TRUE,TRUE,,,,,,,CLR,,,,,,,,VFR,,,,,,,,,,,,SPECI,3.0
KHRJ 130635Z AUTO 31004KT 10SM CLR M01/M12 A3017 RMK AO2 T10131117,KHRJ,2015-02-13T06:35:00Z,35.38,-78.73,-1.3,-11.7,310,4,,10.0,30.171259,,,TRUE,TRUE,,,,,,,CLR,,,,,,,,VFR,,,,,,,,,,,,SPECI,60.0
KHQZ 130635Z AUTO 00000KT 10SM CLR 05/M05 A3038 RMK AO1 T00481052,KHQZ,2015-02-13T06:35:00Z,32.75,-96.53,4.8,-5.2,0,0,,10.0,30.380905,,,TRUE,TRUE,,,,,,,CLR,,,,,,,,VFR,,,,,,,,,,,,SPECI,136.0
KHQU 130635Z AUTO 00000KT 10SM CLR M01/M08 A3024 RMK AO1 T10151082,KHQU,2015-02-13T06:35:00Z,33.53,-82.52,-1.5,-8.2,0,0,,10.0,30.239174,,,TRUE,TRUE,,,,,,,CLR,,,,,,,,VFR,,,,,,,,,,,,SPECI,152.0
KHQI 130635Z AUTO 01015KT 10SM FEW050 17/06 A3029 RMK A01,KHQI,2015-02-13T06:35:00Z,27.93,-93.67,17.0,6.0,10,15,,10.0,30.28937,,,TRUE,TRUE,,,,,,,FEW,5000,,,,,,,VFR,,,,,,,,,,,,SPECI,26.0
KHHV 130635Z AUTO 06015KT 10SM FEW028 OVC035 19/12 A3028 RMK A01,KHHV,2015-02-13T06:35:00Z,26.93,-94.68,19.0,12.0,60,15,,10.0,30.280512,,,TRUE,TRUE,,,,,,,FEW,2800,OVC,3500,,,,,VFR,,,,,,,,,,,,SPECI,25.0
KGWW 130635Z AUTO 33005KT 10SM CLR M02/M11 A3014 RMK AO2 T10201112,KGWW,2015-02-13T06:35:00Z,35.47,-77.97,-2.0,-11.2,330,5,,10.0,30.138779,,,TRUE,TRUE,,,,,,,CLR,,,,,,,,VFR,,,,,,,,,,,,SPECI,41.0
KGWB 130635Z AUTO 35004KT 10SM OVC035 M10/M16 A3037 RMK AO2,KGWB,2015-02-13T06:35:00Z,41.3,-85.07,-10.0,-16.0,350,4,,10.0,30.369095,,,TRUE,TRUE,,,,,,,OVC,3500,,,,,,,VFR,,,,,,,,,,,,SPECI,269.0
KGVX 130635Z AUTO 04011KT 10SM FEW037 BKN045 BKN050 16/09 A3031 RMK A01,KGVX,2015-02-13T06:35:00Z,28.58,-94.98,16.0,9.0,40,11,,10.0,30.31004,,,TRUE,TRUE,,,,,,,FEW,3700,BKN,4500,BKN,5000,,,VFR,,,,,,,,,,,,SPECI,39.0
KGUL 130635Z AUTO 10SM CLR 17/08 A3027 RMK A01,KGUL,2015-02-13T06:35:00Z,27.3,-93.53,17.0,8.0,,,,10.0,30.268702,,,TRUE,TRUE,,,,,,,CLR,,,,,,,,VFR,,,,,,,,,,,,SPECI,30.0
KGOO 130635Z AUTO 00000KT 10SM CLR 14/05 A3022 RMK AO1,KGOO,2015-02-13T06:35:00Z,39.22,-121.0,14.0,5.0,0,0,,10.0,30.221457,,,TRUE,TRUE,,,,,,,CLR,,,,,,,,VFR,,,,,,,,,,,,SPECI,962.0
KGNC 130635Z AUTO 22004KT 10SM CLR 03/M04 A3034 RMK AO2 T00251045,KGNC,2015-02-13T06:35:00Z,32.68,-102.65,2.5,-4.5,220,4,,10.0,30.339567,,,TRUE,TRUE,,,,,,,CLR,,,,,,,,VFR,,,,,,,,,,,,SPECI,1010.0
KBNW 130635Z AUTO 16009KT 4SM -SN FEW026 SCT041 BKN049 M10/M13 A3030 RMK AO2,KBNW,2015-02-13T06:35:00Z,42.03,-93.83,-10.0,-13.0,160,9,,4.0,30.301182,,,TRUE,TRUE,,,,,,-SN,FEW,2600,SCT,4100,BKN,4900,,,MVFR,,,,,,,,,,,,SPECI,354.0
KBKT 130635Z AUTO 32009G15KT 10SM CLR M05/M16 A3014 RMK AO1 T10461159,KBKT,2015-02-13T06:35:00Z,37.07,-77.95,-4.6,-15.9,320,9,15,10.0,30.138779,,,TRUE,TRUE,,,,,,,CLR,,,,,,,,VFR,,,,,,,,,,,,SPECI,134.0
KBIJ 130635Z AUTO 02005KT 10SM CLR 01/M08 A3025 RMK AO2,KBIJ,2015-02-13T06:35:00Z,31.4,-84.9,1.0,-8.0,20,5,,10.0,30.250984,,,TRUE,TRUE,,,,,,,CLR,,,,,,,,VFR,,,,,,,,,,,,SPECI,65.0
KBIE 130635Z AUTO 16006KT 10SM CLR M06/M12 A3024 RMK AO2 T10601125,KBIE,2015-02-13T06:35:00Z,40.28,-96.75,-6.0,-12.5,160,6,,10.0,30.239174,,,TRUE,TRUE,,,,,,,CLR,,,,,,,,VFR,,,,,,,,,,,,SPECI,403.0
KAXH 130635Z AUTO 00000KT 10SM CLR 12/10 A3033 RMK AO2 T01190100,KAXH,2015-02-13T06:35:00Z,29.52,-95.48,11.9,10.0,0,0,,10.0,30.33071,,,TRUE,TRUE,,,,,,,CLR,,,,,,,,VFR,,,,,,,,,,,,SPECI,21.0
KAXA 130635Z AUTO 18014KT 5SM HZ SCT010 BKN060 OVC075 M11/ A3025 RMK AO2,KAXA,2015-02-13T06:35:00Z,43.07,-94.27,-11.0,,180,14,,5.0,30.250984,,,TRUE,TRUE,,,,,,HZ,SCT,1000,BKN,6000,OVC,7500,,,MVFR,,,,,,,,,,,,SPECI,372.0
KAWG 130635Z AUTO 00000KT 10SM BKN100 BKN120 M11/M13 A3039 RMK AO2,KAWG,2015-02-13T06:35:00Z,41.27,-91.67,-11.0,-13.0,0,0,,10.0,30.389763,,,TRUE,TRUE,,,,,,,BKN,10000,BKN,12000,,,,,VFR,,,,,,,,,,,,SPECI,230.0
KAVQ 130635Z AUTO 31006KT 10SM CLR 11/01 A3015 RMK AO2 T01140009,KAVQ,2015-02-13T06:35:00Z,32.4,-111.22,11.4,0.9,310,6,,10.0,30.15059,,,TRUE,TRUE,,,,,,,CLR,,,,,,,,VFR,,,,,,,,,,,,METAR,619.0
KATW 130635Z AUTO 26010KT 10SM CLR M17/M22 A3032 RMK AO2,KATW,2015-02-13T06:35:00Z,44.27,-88.52,-17.0,-22.0,260,10,,10.0,30.318897,,,TRUE,TRUE,,,,,,,CLR,,,,,,,,VFR,,,,,,,,,,,,SPECI,280.0
KASL 130635Z AUTO 00000KT 10SM CLR 04/M04 A3039 RMK AO1 T00411040,KASL,2015-02-13T06:35:00Z,32.52,-94.3,4.1,-4.0,0,0,,10.0,30.389763,,,TRUE,TRUE,,,,,,,CLR,,,,,,,,VFR,,,,,,,,,,,,SPECI,109.0
KARM 130635Z AUTO 00000KT 10SM CLR 08/05 A3034 RMK AO2 T00840052,KARM,2015-02-13T06:35:00Z,29.25,-96.15,8.4,5.2,0,0,,10.0,30.339567,,,TRUE,TRUE,,,,,,,CLR,,,,,,,,VFR,,,,,,,,,,,,SPECI,31.0
KALX 130635Z AUTO 35008KT 10SM CLR M01/M13 A3027 RMK AO2 T10151128,KALX,2015-02-13T06:35:00Z,32.92,-85.97,-1.5,-12.8,350,8,,10.0,30.268702,,,TRUE,TRUE,,,,,,,CLR,,,,,,,,VFR,,,,,,,,,,,,SPECI,209.0
KAIO 130635Z AUTO 17008KT 10SM OVC065 M08/M10 A3028 RMK AO2,KAIO,2015-02-13T06:35:00Z,41.38,-95.03,-8.0,-10.0,170,8,,10.0,30.280512,,,TRUE,TRUE,,,,,,,OVC,6500,,,,,,,VFR,,,,,,,,,,,,SPECI,360.0
KAHQ 130635Z AUTO 16009KT 10SM SCT090 M06/M12 A3024 RMK AO2 T10631118,KAHQ,2015-02-13T06:35:00Z,41.23,-96.6,-6.3,-11.8,160,9,,10.0,30.239174,,,TRUE,TRUE,,,,,,,SCT,9000,,,,,,,VFR,,,,,,,,,,,,SPECI,374.0
KAFP 130635Z AUTO 31004KT 10SM CLR M02/M13 A3021 RMK AO2 T10221132,KAFP,2015-02-13T06:35:00Z,35.02,-80.08,-2.2,-13.2,310,4,,10.0,30.209646,,,TRUE,TRUE,,,,,,,CLR,,,,,,,,VFR,,,,,,,,,,,,SPECI,92.0
KEDN 130635Z AUTO 01004KT 10SM CLR 00/M08 A3025 RMK AO2,KEDN,2015-02-13T06:35:00Z,31.3,-85.9,0.0,-8.0,10,4,,10.0,30.250984,,,TRUE,TRUE,,,,,,,CLR,,,,,,,,VFR,,,,,,,,,,,,SPECI,110.0
KECS 130635Z AUTO 35008KT 10SM CLR 00/M03 A3018 RMK AO2,KECS,2015-02-13T06:35:00Z,43.88,-104.32,0.0,-3.0,350,8,,10.0,30.180119,,,TRUE,TRUE,,,,,,,CLR,,,,,,,,VFR,,,,,,,,,,,,SPECI,1273.0
KDUA 130635Z AUTO 00000KT 10SM CLR 00/M05 A3037 RMK AO2,KDUA,2015-02-13T06:35:00Z,33.95,-96.4,0.0,-5.0,0,0,,10.0,30.369095,,,TRUE,TRUE,,,,,,,CLR,,,,,,,,VFR,,,,,,,,,,,,SPECI,213.0
KMER 130635Z AUTO 00000KT 11/11 A3016 RMK AO1,KMER,2015-02-13T06:35:00Z,37.38,-120.57,11.0,11.0,0,0,,,30.159449,,,TRUE,TRUE,,,,,,,,,,,,,,,,,,,,,,,,,,,SPECI,57.0
KMDQ 130635Z AUTO 36010KT 10SM CLR M05/M13 A3035 RMK AO2,KMDQ,2015-02-13T06:35:00Z,34.87,-86.55,-5.0,-13.0,360,10,,10.0,30.351377,,,TRUE,TRUE,,,,,,,CLR,,,,,,,,VFR,,,,,,,,,,,,SPECI,230.0
KCZT 130635Z AUTO 00000KT 10SM SCT065 OVC095 11/01 A3035 RMK AO2,KCZT,2015-02-13T06:35:00Z,28.52,-99.82,11.0,1.0,0,0,,10.0,30.351377,,,TRUE,TRUE,,,,,,,SCT,6500,OVC,9500,,,,,VFR,,,,,,,,,,,,METAR,183.0
KCWV 130635Z AUTO 31003KT 10SM CLR 01/M07 A3020 RMK AO2,KCWV,2015-02-13T06:35:00Z,32.2,-81.87,1.0,-7.0,310,3,,10.0,30.200787,,,TRUE,TRUE,,,,,,,CLR,,,,,,,,VFR,,,,,,,,,,,,METAR,33.0
KCWA 130635Z AUTO 00000KT 10SM CLR M20/M22 A3027 RMK AO2,KCWA,2015-02-13T06:35:00Z,44.78,-89.67,-20.0,-22.0,0,0,,10.0,30.268702,,,TRUE,TRUE,,,,,,,CLR,,,,,,,,VFR,,,,,,,,,,,,METAR,389.0
KCLK 130635Z AUTO 16007KT 10SM CLR 01/M04 A3029 RMK AO2,KCLK,2015-02-13T06:35:00Z,35.53,-98.93,1.0,-4.0,160,7,,10.0,30.28937,,,TRUE,TRUE,,,,,,,CLR,,,,,,,,VFR,,,,,,,,,,,,METAR,492.0
KCLI 130635Z AUTO 21003KT 10SM CLR M18/M22 A3032 RMK AO2,KCLI,2015-02-13T06:35:00Z,44.62,-88.73,-18.0,-22.0,210,3,,10.0,30.318897,,,TRUE,TRUE,,,,,,,CLR,,,,,,,,VFR,,,,,,,,,,,,SPECI,250.0
KCGC 130635Z AUTO 36004KT 10SM CLR 10/01 A3011 RMK AO2,KCGC,2015-02-13T06:35:00Z,28.87,-82.57,10.0,1.0,360,4,,10.0,30.109253,,,TRUE,TRUE,,,,,,,CLR,,,,,,,,VFR,,,,,,,,,,,,METAR,3.0
KCEY 130635Z AUTO 02005KT 10SM CLR M07/M13 A3043 RMK AO1,KCEY,2015-02-13T06:35:00Z,36.67,-88.37,-7.0,-13.0,20,5,,10.0,30.431103,,,TRUE,TRUE,,,,,,,CLR,,,,,,,,VFR,,,,,,,,,,,,METAR,176.0
KCDH 130635Z AUTO 10SM CLR 00/M13 A3043 RMK AO2,KCDH,2015-02-13T06:35:00Z,33.62,-92.77,0.0,-13.0,,,,10.0,30.431103,,,TRUE,TRUE,,,,,,,CLR,,,,,,,,VFR,,,,,,,,,,,,METAR,35.0
KCCY 130635Z AUTO 14007KT 10SM OVC110 M14/M17 A3030 RMK AO2,KCCY,2015-02-13T06:35:00Z,43.07,-92.62,-14.0,-17.0,140,7,,10.0,30.301182,,,TRUE,TRUE,,,,,,,OVC,11000,,,,,,,VFR,,,,,,,,,,,,METAR,343.0
KBXK 130635Z AUTO 36008KT 10SM CLR 15/00 A3013 RMK AO1,KBXK,2015-02-13T06:35:00Z,33.42,-112.68,15.0,0.0,360,8,,10.0,30.129921,,,TRUE,TRUE,,,,,,,CLR,,,,,,,,VFR,,,,,,,,,,,,METAR,315.0
KBXA 130635Z AUTO 01004KT 10SM 01/M04 A3034 RMK AO2 T00121044,KBXA,2015-02-13T06:35:00Z,30.82,-89.87,1.2,-4.4,10,4,,10.0,30.339567,,,TRUE,TRUE,,,,,,,,,,,,,,,,,,,,,,,,,,,METAR,36.0
KBVS 130635Z AUTO 30004KT 10SM BKN034 10/10 A3028 RMK A01 P000,KBVS,2015-02-13T06:35:00Z,48.47,-122.42,10.0,10.0,300,4,,10.0,30.280512,,,TRUE,TRUE,,,,,,,BKN,3400,,,,,,,VFR,,,,,,,,,,,,METAR,43.0
KBNL 130635Z AUTO 01008KT CLR 00/M10 A3019 RMK AO2,KBNL,2015-02-13T06:35:00Z,33.25,-81.38,0.0,-10.0,10,8,,,30.188976,,,TRUE,TRUE,,,,,,,CLR,,,,,,,,,,,,,,,,,,,,METAR,75.0
KBEA 130635Z AUTO 02004KT 10SM CLR 10/05 A3034 RMK AO2 T01020052,KBEA,2015-02-13T06:35:00Z,28.37,-97.78,10.2,5.2,20,4,,10.0,30.339567,,,TRUE,TRUE,,,,,,,CLR,,,,,,,,VFR,,,,,,,,,,,,METAR,82.0
KBCK 130635Z AUTO 00000KT 10SM CLR M24/M27 A3033 RMK AO2 T12411275,KBCK,2015-02-13T06:35:00Z,44.25,-90.85,-24.1,-27.5,0,0,,10.0,30.33071,,,TRUE,TRUE,,,,,,,CLR,,,,,,,,VFR,,,,,,,,,,,,METAR,255.0
KBCB 130635Z AUTO 31016G23KT 10SM OVC030 M10/M17 A3014 RMK AO2 T11001171,KBCB,2015-02-13T06:35:00Z,37.22,-80.42,-10.0,-17.1,310,16,23,10.0,30.138779,,,TRUE,TRUE,,,,,,,OVC,3000,,,,,,,MVFR,,,,,,,,,,,,METAR,650.0
KAXS 130635Z AUTO 18006KT 10SM CLR 03/M04 A3031 RMK AO2 T00311037,KAXS,2015-02-13T06:35:00Z,34.7,-99.33,3.1,-3.7,180,6,,10.0,30.31004,,,TRUE,TRUE,,,,,,,CLR,,,,,,,,VFR,,,,,,,,,,,,METAR,437.0
KATS 130635Z AUTO 22007KT 10SM CLR 02/00 A3031 RMK AO2,KATS,2015-02-13T06:35:00Z,32.85,-104.47,2.0,0.0,220,7,,10.0,30.31004,,,TRUE,TRUE,,,,,,,CLR,,,,,,,,VFR,,,,,,,,,,,,METAR,1081.0
KASW 130635Z AUTO 27009KT 10SM OVC033 M10/M13 A3037 RMK AO2,KASW,2015-02-13T06:35:00Z,41.27,-85.83,-10.0,-13.0,270,9,,10.0,30.369095,,,TRUE,TRUE,,,,,,,OVC,3300,,,,,,,VFR,,,,,,,,,,,,METAR,259.0
KAQX 130635Z AUTO 36007KT 10SM CLR M00/M10 A3017 RMK AO2,KAQX,2015-02-13T06:35:00Z,32.98,-81.27,0.0,-10.0,360,7,,10.0,30.171259,,,TRUE,TRUE,,,,,,,CLR,,,,,,,,VFR,,,,,,,,,,,,METAR,49.0
KALN 130635Z AUTO 00000KT 10SM SCT120 M07/M14 A3044 RMK AO2 T10721145,KALN,2015-02-13T06:35:00Z,38.88,-90.03,-7.2,-14.5,0,0,,10.0,30.43996,,,TRUE,TRUE,,,,,,,SCT,12000,,,,,,,VFR,,,,,,,,,,,,METAR,166.0
KAJL 130635Z AUTO 26017KT 10SM CLR M05/M08 A3037 RMK AO2 T10551077,KAJL,2015-02-13T06:35:00Z,43.67,-110.03,-5.5,-7.7,260,17,,10.0,30.369095,,,TRUE,TRUE,,,,,,,CLR,,,,,,,,VFR,,,,,,,,,,,,METAR,3161.0
KAIB 130635Z AUTO 11009KT 10SM CLR 01/M07 A3038 RMK AO2,KAIB,2015-02-13T06:35:00Z,38.23,-108.57,1.0,-7.0,110,9,,10.0,30.380905,,,TRUE,TRUE,,,,,,,CLR,,,,,,,,VFR,,,,,,,,,,,,METAR,1811.0
K8W2 130635Z AUTO 36004KT 10SM CLR M10/M19 A3016 RMK AO1 T11011187,K8W2,2015-02-13T06:35:00Z,38.65,-78.7,-10.1,-18.7,360,4,,10.0,30.159449,,,TRUE,TRUE,,,,,,,CLR,,,,,,,,VFR,,,,,,,,,,,,METAR,297.0
K82V 130635Z AUTO 27006KT 10SM CLR 00/M05 A3022 RMK AO2,K82V,2015-02-13T06:35:00Z,41.15,-104.13,0.0,-5.0,270,6,,10.0,30.221457,,,TRUE,TRUE,,,,,,,CLR,,,,,,,,VFR,,,,,,,,,,,,METAR,1570.0
K7W4 130635Z AUTO 33004KT 10SM CLR M06/M17 A3015 RMK AO1 T10601167,K7W4,2015-02-13T06:35:00Z,37.97,-77.75,-6.0,-16.7,330,4,,10.0,30.15059,,,TRUE,TRUE,,,,,,,CLR,,,,,,,,VFR,,,,,,,,,,,,METAR,106.0
K6L4 130635Z AUTO 34006KT 10SM BKN042 BKN047 M11/M15 A3025 RMK AO2,K6L4,2015-02-13T06:35:00Z,37.85,-81.92,-11.0,-15.0,340,6,,10.0,30.250984,,,TRUE,TRUE,,,,,,,BKN,4200,BKN,4700,,,,,VFR,,,,,,,,,,,,METAR,508.0
K6A2 130635Z AUTO 34005KT 10SM CLR M01/M10 A3020 RMK AO2,K6A2,2015-02-13T06:35:00Z,33.23,-84.27,-1.0,-10.0,340,5,,10.0,30.200787,,,TRUE,TRUE,,,,,,,CLR,,,,,,,,VFR,,,,,,,,,,,,METAR,292.0
K4M9 130635Z AUTO 09010KT 10SM OVC070 M04/M11 A3045 RMK AO2,K4M9,2015-02-13T06:35:00Z,36.4,-90.65,-4.0,-11.0,90,10,,10.0,30.448818,,,TRUE,TRUE,,,,,,,OVC,7000,,,,,,,VFR,,,,,,,,,,,,METAR,90.0
K46D 130635Z AUTO 10SM CLR M10/M12 A3003 RMK AO2,K46D,2015-02-13T06:35:00Z,47.45,-99.15,-10.0,-12.0,,,,10.0,30.029528,,,TRUE,TRUE,,,,,,,CLR,,,,,,,,VFR,,,,,,,,,,,,METAR,490.0
K42J 130635Z AUTO 01010KT 10SM CLR 08/M07 A3012 RMK AO1 TSNO,K42J,2015-02-13T06:35:00Z,29.85,-82.05,8.0,-7.0,10,10,,10.0,30.121063,,,TRUE,TRUE,,,TRUE,,,,CLR,,,,,,,,VFR,,,,,,,,,,,,METAR,60.0
K3J7 130635Z AUTO 32003KT 10SM CLR M01/M08 A3017 RMK AO2,K3J7,2015-02-13T06:35:00Z,33.6,-83.13,-1.0,-8.0,320,3,,10.0,30.171259,,,TRUE,TRUE,,,,,,,CLR,,,,,,,,VFR,,,,,,,,,,,,METAR,206.0
K3D2 130635Z AUTO 00000KT 10SM CLR M15/M22 A3030 RMK AO2 T11521216,K3D2,2015-02-13T06:35:00Z,45.13,-87.18,-15.2,-21.6,0,0,,10.0,30.301182,,,TRUE,TRUE,,,,,,,CLR,,,,,,,,VFR,,,,,,,,,,,,METAR,234.0
K1K1 130635Z AUTO 15003KT 10SM OVC120 M05/M12 A3026 RMK AO2 T10461120,K1K1,2015-02-13T06:35:00Z,37.77,-97.12,-4.6,-12.0,150,3,,10.0,30.259842,,,TRUE,TRUE,,,,,,,OVC,12000,,,,,,,VFR,,,,,,,,,,,,METAR,416.0
K1A9 130635Z AUTO 00000KT 10SM CLR M01/M10 A3030 RMK AO2 T10151104,K1A9,2015-02-13T06:35:00Z,32.43,-86.52,-1.5,-10.4,0,0,,10.0,30.301182,,,TRUE,TRUE,,,,,,,CLR,,,,,,,,VFR,,,,,,,,,,,,METAR,69.0
K0A9 130635Z AUTO 31009KT 280V360 10SM FEW028 BKN040 M08/M16 A3022 RMK,K0A9,2015-02-13T06:35:00Z,36.37,-82.17,-8.0,-16.0,310,9,,10.0,30.221457,,,TRUE,,,,,,,,FEW,2800,BKN,4000,,,,,VFR,,,,,,,,,,,,METAR,486.0
KMOP 130635Z AUTO 00000KT 10SM CLR M20/M23 A3034 RMK AO2 T12041230,KMOP,2015-02-13T06:35:00Z,43.62,-84.73,-20.4,-23.0,0,0,,10.0,30.339567,,,TRUE,TRUE,,,,,,,CLR,,,,,,,,VFR,,,,,,,,,,,,METAR,230.0
KMGN 130635Z AUTO 06003KT 3SM -SN OVC030 M20/M22 A3029 RMK AO2 T12051228,KMGN,2015-02-13T06:35:00Z,45.43,-84.92,-20.5,-22.8,60,3,,3.0,30.28937,,,TRUE,TRUE,,,,,,-SN,OVC,3000,,,,,,,MVFR,,,,,,,,,,,,METAR,209.0
KLWA 130635Z AUTO 00000KT 2 1/2SM -SN SCT014 SCT022 OVC035 M10/M13 A3037 RMK AO2 VIS 1 1/2V5 T11051130,KLWA,2015-02-13T06:35:00Z,42.35,-86.25,-10.5,-13.0,0,0,,2.5,30.369095,,,TRUE,TRUE,,,,,,-SN,SCT,1400,SCT,2200,OVC,3500,,,IFR,,,,,,,,,,,,METAR,203.0
KLDM 130635Z AUTO 00000KT 10SM OVC036 M12/M15 A3033 RMK AO2 T11201151,KLDM,2015-02-13T06:35:00Z,43.97,-86.4,-12.0,-15.1,0,0,,10.0,30.33071,,,TRUE,TRUE,,,,,,,OVC,3600,,,,,,,VFR,,,,,,,,,,,,METAR,197.0
KHYX 130635Z AUTO 27005KT 10SM CLR M18/M22 A3035 RMK AO2,KHYX,2015-02-13T06:35:00Z,43.43,-83.87,-18.0,-22.0,270,5,,10.0,30.351377,,,TRUE,TRUE,,,,,,,CLR,,,,,,,,VFR,,,,,,,,,,,,METAR,183.0
KHAI 130635Z AUTO 00000KT 10SM OVC033 M11/M16 A3037 RMK AO2 T11061161,KHAI,2015-02-13T06:35:00Z,41.97,-85.6,-10.6,-16.1,0,0,,10.0,30.369095,,,TRUE,TRUE,,,,,,,OVC,3300,,,,,,,VFR,,,,,,,,,,,,METAR,251.0
KHAF 130635Z AUTO 00000KT 10SM CLR 13/08 A3012 RMK AO2,KHAF,2015-02-13T06:35:00Z,37.52,-122.5,13.0,8.0,0,0,,10.0,30.121063,,,TRUE,TRUE,,,,,,,CLR,,,,,,,,VFR,,,,,,,,,,,,METAR,21.0
KFSE 130635Z AUTO 21011KT 2 1/2SM -SN OVC017 M13/M15 A3007 RMK AO2,KFSE,2015-02-13T06:35:00Z,47.58,-95.77,-13.0,-15.0,210,11,,2.5,30.070866,,,TRUE,TRUE,,,,,,-SN,OVC,1700,,,,,,,IFR,,,,,,,,,,,,METAR,389.0
KFPK 130635Z AUTO 00000KT 10SM OVC031 M21/M23 A3033 RMK AO2 T12061234,KFPK,2015-02-13T06:35:00Z,42.57,-84.82,-20.6,-23.4,0,0,,10.0,30.33071,,,TRUE,TRUE,,,,,,,OVC,3100,,,,,,,VFR,,,,,,,,,,,,METAR,272.0
KDTL 130635Z AUTO 22008KT 10SM SCT019 M11/M12 A3009 RMK AO2,KDTL,2015-02-13T06:35:00Z,46.82,-95.87,-11.0,-12.0,220,8,,10.0,30.088583,,,TRUE,TRUE,,,,,,,SCT,1900,,,,,,,VFR,,,,,,,,,,,,METAR,426.0
KCQM 130635Z AUTO 21007KT 10SM -SN SCT033 OVC060 M15/M21 A3008 RMK AO2,KCQM,2015-02-13T06:35:00Z,47.82,-92.68,-15.0,-21.0,210,7,,10.0,30.079725,,,TRUE,TRUE,,,,,,-SN,SCT,3300,OVC,6000,,,,,VFR,,,,,,,,,,,,METAR,404.0
KCBG 130635Z AUTO 17006KT 10SM BKN065 OVC095 M13/M18 A3020 RMK AO2,KCBG,2015-02-13T06:35:00Z,45.57,-93.27,-13.0,-18.0,170,6,,10.0,30.200787,,,TRUE,TRUE,,,,,,,BKN,6500,OVC,9500,,,,,VFR,,,,,,,,,,,,METAR,287.0
KBDH 130635Z AUTO 20003KT 10SM SCT034 BKN048 OVC080 M09/M12 A3018 RMK AO2,KBDH,2015-02-13T06:35:00Z,45.12,-95.13,-9.0,-12.0,200,3,,10.0,30.180119,,,TRUE,TRUE,,,,,,,SCT,3400,BKN,4800,OVC,8000,,,VFR,,,,,,,,,,,,METAR,247.0
KAQP 130635Z AUTO 20005KT 10SM OVC036 M08/M11 A3016 RMK AO2,KAQP,2015-02-13T06:35:00Z,45.22,-96.0,-8.0,-11.0,200,5,,10.0,30.159449,,,TRUE,TRUE,,,,,,,OVC,3600,,,,,,,VFR,,,,,,,,,,,,METAR,311.0
KACQ 130635Z AUTO 18010KT 10SM SCT041 SCT095 M11/M13 A3024 RMK AO2,KACQ,2015-02-13T06:35:00Z,44.07,-93.55,-11.0,-13.0,180,10,,10.0,30.239174,,,TRUE,TRUE,,,,,,,SCT,4100,SCT,9500,,,,,VFR,,,,,,,,,,,,METAR,343.0
KACB 130635Z AUTO 00000KT 2 1/2SM -SN SCT024 OVC031 M14/M16 A3033 RMK AO2 T11431165,KACB,2015-02-13T06:35:00Z,44.98,-85.2,-14.3,-16.5,0,0,,2.5,30.33071,,,TRUE,TRUE,,,,,,-SN,SCT,2400,OVC,3100,,,,,IFR,,,,,,,,,,,,METAR,190.0
K4I3 130635Z AUTO 27004KT 10SM CLR M17/M21 A3031 RMK AO2,K4I3,2015-02-13T06:35:00Z,40.33,-82.53,-17.0,-21.0,270,4,,10.0,30.31004,,,TRUE,TRUE,,,,,,,CLR,,,,,,,,VFR,,,,,,,,,,,,METAR,363.0
KVLL 130635Z AUTO 30003KT 10SM CLR M14/M21 A3035 RMK AO2 T11401209,KVLL,2015-02-13T06:35:00Z,42.55,-83.18,-14.0,-20.9,300,3,,10.0,30.351377,,,TRUE,TRUE,,,,,,,CLR,,,,,,,,VFR,,,,,,,,,,,,METAR,222.0
KUKT 130635Z AUTO 31013G20KT 10SM CLR M13/M21 A3005 RMK AO1,KUKT,2015-02-13T06:35:00Z,40.43,-75.38,-13.0,-21.0,310,13,20,10.0,30.050198,,,TRUE,TRUE,,,,,,,CLR,,,,,,,,VFR,,,,,,,,,,,,METAR,160.0
KSEM 130635Z AUTO 36005KT 10SM M01/M10 A3032 RMK AO2,KSEM,2015-02-13T06:35:00Z,32.35,-86.98,-1.0,-10.0,360,5,,10.0,30.318897,,,TRUE,TRUE,,,,,,,,,,,,,,,,,,,,,,,,,,,METAR,51.0
KRNP 130635Z AUTO 00000KT 10SM CLR M19/M22 A3034 RMK AO2 T11951220,KRNP,2015-02-13T06:35:00Z,43.0,-84.13,-19.5,-22.0,0,0,,10.0,30.339567,,,TRUE,TRUE,,,,,,,CLR,,,,,,,,VFR,,,,,,,,,,,,METAR,224.0
K7N0 130635Z AUTO 02009KT 10SM CLR 07/M05 A3033 RMK AO1,K7N0,2015-02-13T06:35:00Z,29.95,-90.07,7.0,-5.0,20,9,,10.0,30.33071,,,TRUE,TRUE,,,,,,,CLR,,,,,,,,VFR,,,,,,,,,,,,METAR,0.0
KYKN 130635Z AUTO 14008KT 10SM CLR M08/M12 A3016 RMK AO1,KYKN,2015-02-13T06:35:00Z,42.92,-97.37,-8.0,-12.0,140,8,,10.0,30.159449,,,TRUE,TRUE,,,,,,,CLR,,,,,,,,VFR,,,,,,,,,,,,METAR,398.0
KWWD 130635Z AUTO 31014G27KT 10SM FEW039 M07/M17 A3003 RMK AO1,KWWD,2015-02-13T06:35:00Z,39.02,-74.92,-7.0,-17.0,310,14,27,10.0,30.029528,,,TRUE,TRUE,,,,,,,FEW,3900,,,,,,,VFR,,,,,,,,,,,,METAR,7.0
KWVL 130635Z 36006KT BKN100 M15/M19 A2967 RMK AO1,KWVL,2015-02-13T06:35:00Z,44.52,-69.67,-15.0,-19.0,360,6,,,29.66929,,,,TRUE,,,,,,,BKN,10000,,,,,,,,,,,,,,,,,,,METAR,101.0
KVTP 130635Z AUTO 24006KT 10SM CLR M02/M11 A3037 RMK AO2,KVTP,2015-02-13T06:35:00Z,37.5,-105.17,-2.0,-11.0,240,6,,10.0,30.369095,,,TRUE,TRUE,,,,,,,CLR,,,,,,,,VFR,,,,,,,,,,,,METAR,3114.0
KVIS 130635Z AUTO 00000KT 6SM CLR 11/05 A3016 RMK AO1,KVIS,2015-02-13T06:35:00Z,36.32,-119.4,11.0,5.0,0,0,,6.0,30.159449,,,TRUE,TRUE,,,,,,,CLR,,,,,,,,VFR,,,,,,,,,,,,METAR,89.0
KVBT 130635Z AUTO 11003KT 10SM CLR M01/M13 A3034 RMK AO1,KVBT,2015-02-13T06:35:00Z,36.35,-94.22,-1.0,-13.0,110,3,,10.0,30.339567,,,TRUE,TRUE,,,,,,,CLR,,,,,,,,VFR,,,,,,,,,,,,METAR,395.0
KUTA 130635Z AUTO 04005KT 10SM CLR M02/M10 A3045 RMK AO2,KUTA,2015-02-13T06:35:00Z,34.68,-90.35,-2.0,-10.0,40,5,,10.0,30.448818,,,TRUE,TRUE,,,,,,,CLR,,,,,,,,VFR,,,,,,,,,,,,METAR,59.0
KUDG 130635Z AUTO 33009KT 10SM CLR M01/M13 A3021 RMK AO1,KUDG,2015-02-13T06:35:00Z,34.45,-79.88,-1.0,-13.0,330,9,,10.0,30.209646,,,TRUE,TRUE,,,,,,,CLR,,,,,,,,VFR,,,,,,,,,,,,METAR,59.0
KTVF 130635Z AUTO 21011KT 3SM OVC014 M13/M14 A3006 RMK AO1,KTVF,2015-02-13T06:35:00Z,48.07,-96.17,-13.0,-14.0,210,11,,3.0,30.059055,,,TRUE,TRUE,,,,,,,OVC,1400,,,,,,,MVFR,,,,,,,,,,,,METAR,340.0
KTPL 130635Z AUTO 33003KT 10SM CLR 04/M03 A3036 RMK AO1,KTPL,2015-02-13T06:35:00Z,31.13,-97.4,4.0,-3.0,330,3,,10.0,30.360237,,,TRUE,TRUE,,,,,,,CLR,,,,,,,,VFR,,,,,,,,,,,,METAR,208.0
KTEX 130635Z AUTO 14004KT 10SM CLR 01/M09 A3041 RMK AO2 T00051088,KTEX,2015-02-13T06:35:00Z,37.95,-107.9,0.5,-8.8,140,4,,10.0,30.410433,,,TRUE,TRUE,,,,,,,CLR,,,,,,,,VFR,,,,,,,,,,,,METAR,2769.0
KSUE 130635Z AUTO 00000KT 10SM CLR M19/M23 A3032 RMK AO1,KSUE,2015-02-13T06:35:00Z,44.85,-87.42,-19.0,-23.0,0,0,,10.0,30.318897,,,TRUE,TRUE,,,,,,,CLR,,,,,,,,VFR,,,,,,,,,,,,METAR,221.0
KSUA 130635Z AUTO 29007KT 10SM CLR 12/09 A3008 RMK AO2,KSUA,2015-02-13T06:35:00Z,27.18,-80.22,12.0,9.0,290,7,,10.0,30.079725,,,TRUE,TRUE,,,,,,,CLR,,,,,,,,VFR,,,,,,,,,,,,METAR,6.0
KSQI 130635Z AUTO 00000KT 10SM CLR M17/M19 A3040 RMK AO1,KSQI,2015-02-13T06:35:00Z,41.75,-89.67,-17.0,-19.0,0,0,,10.0,30.398623,,,TRUE,TRUE,,,,,,,CLR,,,,,,,,VFR,,,,,,,,,,,,METAR,197.0
KSPL 130635Z AUTO 00000KT 2 1/2SM CLR 17/14 A3029 RMK AO1,KSPL,2015-02-13T06:35:00Z,26.07,-97.15,17.0,14.0,0,0,,2.5,30.28937,,,TRUE,TRUE,,,,,,,CLR,,,,,,,,IFR,,,,,,,,,,,,METAR,4.0
KSOP 130635Z AUTO 00000KT 10SM CLR M03/M13 A3017 RMK AO1,KSOP,2015-02-13T06:35:00Z,35.22,-79.4,-3.0,-13.0,0,0,,10.0,30.171259,,,TRUE,TRUE,,,,,,,CLR,,,,,,,,VFR,,,,,,,,,,,,METAR,141.0
KSMN 130635Z AUTO 00000KT 10SM CLR M01/M03 A3038 RMK AO1,KSMN,2015-02-13T06:35:00Z,45.12,-113.87,-1.0,-3.0,0,0,,10.0,30.380905,,,TRUE,TRUE,,,,,,,CLR,,,,,,,,VFR,,,,,,,,,,,,METAR,1233.0
KSLG 130635Z AUTO 00000KT 10SM CLR M02/M13 A3034 RMK AO1,KSLG,2015-02-13T06:35:00Z,36.2,-94.47,-2.0,-13.0,0,0,,10.0,30.339567,,,TRUE,TRUE,,,,,,,CLR,,,,,,,,VFR,,,,,,,,,,,,METAR,300.0
KSKX 130635Z AUTO 05003KT 10SM CLR M01/M06 A3034 RMK AO1,KSKX,2015-02-13T06:35:00Z,36.45,-105.67,-1.0,-6.0,50,3,,10.0,30.339567,,,TRUE,TRUE,,,,,,,CLR,,,,,,,,VFR,,,,,,,,,,,,METAR,2161.0
KSGU 130635Z AUTO 00000KT 10SM CLR 10/M06 A3027 RMK AO1,KSGU,2015-02-13T06:35:00Z,37.07,-113.52,10.0,-6.0,0,0,,10.0,30.268702,,,TRUE,TRUE,,,,,,,CLR,,,,,,,,VFR,,,,,,,,,,,,METAR,896.0
KSGT 130635Z AUTO 07006KT 10SM CLR M02/M12 A3044 RMK AO1,KSGT,2015-02-13T06:35:00Z,34.6,-91.57,-2.0,-12.0,70,6,,10.0,30.43996,,,TRUE,TRUE,,,,,,,CLR,,,,,,,,VFR,,,,,,,,,,,,METAR,68.0
KSFZ 130635Z 31016G23KT 10SM BKN033 M08/M17 A2972 RMK AO1,KSFZ,2015-02-13T06:35:00Z,41.92,-71.5,-8.0,-17.0,310,16,23,10.0,29.719488,,,,TRUE,,,,,,,BKN,3300,,,,,,,VFR,,,,,,,,,,,,METAR,134.0
KSFM 130635Z AUTO 32005KT 10SM FEW036 M10/M16 A2971 RMK AO1,KSFM,2015-02-13T06:35:00Z,43.38,-70.72,-10.0,-16.0,320,5,,10.0,29.71063,,,TRUE,TRUE,,,,,,,FEW,3600,,,,,,,VFR,,,,,,,,,,,,METAR,74.0
KSDY 130635Z AUTO 29006KT 10SM OVC080 01/M02 A3012 RMK AO1,KSDY,2015-02-13T06:35:00Z,47.7,-104.2,1.0,-2.0,290,6,,10.0,30.121063,,,TRUE,TRUE,,,,,,,OVC,8000,,,,,,,VFR,,,,,,,,,,,,METAR,605.0
KSBS 130635Z AUTO 00000KT 10SM CLR M04/M07 A3038 RMK AO1 T10391071,KSBS,2015-02-13T06:35:00Z,40.52,-106.87,-3.9,-7.1,0,0,,10.0,30.380905,,,TRUE,TRUE,,,,,,,CLR,,,,,,,,VFR,,,,,,,,,,,,METAR,2096.0
KRUT 130635Z 32007G17KT 8SM SCT027 BKN033 OVC047 M16/M18 A2984 RMK AO1,KRUT,2015-02-13T06:35:00Z,43.52,-72.95,-16.0,-18.0,320,7,17,8.0,29.840551,,,,TRUE,,,,,,,SCT,2700,BKN,3300,OVC,4700,,,VFR,,,,,,,,,,,,METAR,240.0
KRQO 130635Z AUTO 17009KT 10SM CLR 00/M04 A3029 RMK AO2,KRQO,2015-02-13T06:35:00Z,35.47,-98.0,0.0,-4.0,170,9,,10.0,30.28937,,,TRUE,TRUE,,,,,,,CLR,,,,,,,,VFR,,,,,,,,,,,,METAR,432.0
KRKD 130635Z AUTO 33003KT 10SM CLR M11/M14 A2968 RMK AO1,KRKD,2015-02-13T06:35:00Z,44.07,-69.08,-11.0,-14.0,330,3,,10.0,29.681103,,,TRUE,TRUE,,,,,,,CLR,,,,,,,,VFR,,,,,,,,,,,,METAR,17.0
KLBL 130635Z AUTO 18008KT 10SM CLR 03/M06 A3019 RMK AO1,KLBL,2015-02-13T06:35:00Z,37.03,-100.97,3.0,-6.0,180,8,,10.0,30.188976,,,TRUE,TRUE,,,,,,,CLR,,,,,,,,VFR,,,,,,,,,,,,METAR,879.0
KKLS 130635Z 00000KT 10SM CLR 07/05 A3028 RMK AO1,KKLS,2015-02-13T06:35:00Z,46.12,-122.9,7.0,5.0,0,0,,10.0,30.280512,,,,TRUE,,,,,,,CLR,,,,,,,,VFR,,,,,,,,,,,,METAR,5.0
KJHW 130635Z 10SM OVC031 M18/M21 A3010 RMK AO1,KJHW,2015-02-13T06:35:00Z,42.13,-79.27,-18.0,-21.0,,,,10.0,30.100393,,,,TRUE,,,,,,,OVC,3100,,,,,,,VFR,,,,,,,,,,,,METAR,525.0
KJHN 130635Z AUTO 29008KT 10SM CLR 04/M01 A3015 RMK AO2 T00431015,KJHN,2015-02-13T06:35:00Z,37.58,-101.73,4.3,-1.5,290,8,,10.0,30.15059,,,TRUE,TRUE,,,,,,,CLR,,,,,,,,VFR,,,,,,,,,,,,METAR,1013.0
KJAC 130635Z AUTO 02004KT 10SM CLR M05/M06 A3039 RMK AO1,KJAC,2015-02-13T06:35:00Z,43.62,-110.73,-5.0,-6.0,20,4,,10.0,30.389763,,,TRUE,TRUE,,,,,,,CLR,,,,,,,,VFR,,,,,,,,,,,,METAR,1961.0
KIWD 130635Z AUTO 23004KT 10SM OVC100 M17/M17 A3016 RMK AO1,KIWD,2015-02-13T06:35:00Z,46.52,-90.12,-17.0,-17.0,230,4,,10.0,30.159449,,,TRUE,TRUE,,,,,,,OVC,10000,,,,,,,VFR,,,,,,,,,,,,METAR,375.0
KILE 130635Z 33003KT 10SM CLR 06/M03 A3036 RMK AO1,KILE,2015-02-13T06:35:00Z,31.07,-97.67,6.0,-3.0,330,3,,10.0,30.360237,,,,TRUE,,,,,,,CLR,,,,,,,,VFR,,,,,,,,,,,,METAR,258.0
KI67 130635Z AUTO 33004KT 10SM SCT022 OVC040 M07/M11 A3038 RMK AO1,KI67,2015-02-13T06:35:00Z,39.25,-84.78,-7.0,-11.0,330,4,,10.0,30.380905,,,TRUE,TRUE,,,,,,,SCT,2200,OVC,4000,,,,,VFR,,,,,,,,,,,,METAR,178.0
KHYW 130635Z AUTO 00000KT 7SM CLR 00/M10 A3019 RMK AO2,KHYW,2015-02-13T06:35:00Z,33.83,-79.12,0.0,-10.0,0,0,,7.0,30.188976,,,TRUE,TRUE,,,,,,,CLR,,,,,,,,VFR,,,,,,,,,,,,METAR,11.0
KHYS 130635Z AUTO 12006KT 10SM CLR M04/M12 A3017 RMK AO1,KHYS,2015-02-13T06:35:00Z,38.85,-99.27,-4.0,-12.0,120,6,,10.0,30.171259,,,TRUE,TRUE,,,,,,,CLR,,,,,,,,VFR,,,,,,,,,,,,METAR,609.0
KHYI 130635Z 34005KT 10SM CLR 07/01 A3037 RMK AO1,KHYI,2015-02-13T06:35:00Z,29.88,-97.87,7.0,1.0,340,5,,10.0,30.369095,,,,TRUE,,,,,,,CLR,,,,,,,,VFR,,,,,,,,,,,,METAR,182.0
KHVS 130635Z AUTO 00000KT 10SM CLR M02/M12 A3020 RMK AO2,KHVS,2015-02-13T06:35:00Z,34.4,-80.12,-2.0,-12.0,0,0,,10.0,30.200787,,,TRUE,TRUE,,,,,,,CLR,,,,,,,,VFR,,,,,,,,,,,,METAR,111.0
KHNB 130635Z AUTO 01006KT 10SM CLR M08/M13 A3042 RMK AO1,KHNB,2015-02-13T06:35:00Z,38.25,-86.95,-8.0,-13.0,10,6,,10.0,30.41929,,,TRUE,TRUE,,,,,,,CLR,,,,,,,,VFR,,,,,,,,,,,,METAR,161.0
KHEZ 130635Z AUTO 02007KT 10SM CLR 01/M08 A3036 RMK AO1,KHEZ,2015-02-13T06:35:00Z,31.62,-91.3,1.0,-8.0,20,7,,10.0,30.360237,,,TRUE,TRUE,,,,,,,CLR,,,,,,,,VFR,,,,,,,,,,,,METAR,83.0
KHEQ 130635Z AUTO 27009KT 10SM CLR 01/M03 A3017 RMK AO2,KHEQ,2015-02-13T06:35:00Z,40.57,-102.28,1.0,-3.0,270,9,,10.0,30.171259,,,TRUE,TRUE,,,,,,,CLR,,,,,,,,VFR,,,,,,,,,,,,METAR,1137.0
KHEF 130635Z 32016G23KT 10SM CLR M09/M17 A3019 RMK AO1,KHEF,2015-02-13T06:35:00Z,38.72,-77.52,-9.0,-17.0,320,16,23,10.0,30.188976,,,,TRUE,,,,,,,CLR,,,,,,,,VFR,,,,,,,,,,,,METAR,59.0
KHDN 130635Z AUTO 10010KT 10SM CLR M02/M07 A3037 RMK AO1,KHDN,2015-02-13T06:35:00Z,40.47,-107.22,-2.0,-7.0,100,10,,10.0,30.369095,,,TRUE,TRUE,,,,,,,CLR,,,,,,,,VFR,,,,,,,,,,,,METAR,2012.0
KGXY 130635Z AUTO 00000KT 10SM BKN110 02/M07 A3020 RMK AO1,KGXY,2015-02-13T06:35:00Z,40.42,-104.62,2.0,-7.0,0,0,,10.0,30.200787,,,TRUE,TRUE,,,,,,,BKN,11000,,,,,,,VFR,,,,,,,,,,,,METAR,1420.0
KGUC 130635Z 00000KT 10SM CLR M09/M13 A3043 RMK AO1,KGUC,2015-02-13T06:35:00Z,38.52,-106.92,-9.0,-13.0,0,0,,10.0,30.431103,,,,TRUE,,,,,,,CLR,,,,,,,,VFR,,,,,,,,,,,,METAR,2339.0
KGTU 130635Z 00000KT 10SM CLR 03/00 A3037 RMK AO1,KGTU,2015-02-13T06:35:00Z,30.68,-97.68,3.0,0.0,0,0,,10.0,30.369095,,,,TRUE,,,,,,,CLR,,,,,,,,VFR,,,,,,,,,,,,METAR,240.0
KGTR 130635Z AUTO 35007KT 10SM CLR M03/M12 A3037 RMK AO1,KGTR,2015-02-13T06:35:00Z,33.45,-88.57,-3.0,-12.0,350,7,,10.0,30.369095,,,TRUE,TRUE,,,,,,,CLR,,,,,,,,VFR,,,,,,,,,,,,METAR,80.0
KGPZ 130635Z AUTO 16007KT 6SM FEW020 SCT027 OVC048 M16/M20 A3010 RMK AO1,KGPZ,2015-02-13T06:35:00Z,47.22,-93.52,-16.0,-20.0,160,7,,6.0,30.100393,,,TRUE,TRUE,,,,,,,FEW,2000,SCT,2700,OVC,4800,,,VFR,,,,,,,,,,,,SPECI,413.0
KGDV 130635Z AUTO 27009KT 10SM CLR 01/M02 A3011 RMK AO1,KGDV,2015-02-13T06:35:00Z,47.12,-104.78,1.0,-2.0,270,9,,10.0,30.109253,,,TRUE,TRUE,,,,,,,CLR,,,,,,,,VFR,,,,,,,,,,,,METAR,749.0
KGBD 130635Z AUTO 16008KT 10SM CLR M03/M09 A3018 RMK AO1,KGBD,2015-02-13T06:35:00Z,38.35,-98.87,-3.0,-9.0,160,8,,10.0,30.180119,,,TRUE,TRUE,,,,,,,CLR,,,,,,,,VFR,,,,,,,,,,,,METAR,575.0
KGAI 130635Z AUTO 31014G25KT 10SM CLR M11/M21 A3017 RMK AO1,KGAI,2015-02-13T06:35:00Z,39.17,-77.17,-11.0,-21.0,310,14,25,10.0,30.171259,,,TRUE,TRUE,,,,,,,CLR,,,,,,,,VFR,,,,,,,,,,,,METAR,165.0
KGAD 130635Z 01006KT 10SM CLR A3031 RMK AO1,KGAD,2015-02-13T06:35:00Z,33.97,-86.07,,,10,6,,10.0,30.31004,,,,TRUE,,,,,,,CLR,,,,,,,,VFR,,,,,,,,,,,,METAR,173.0
KFRM 130635Z AUTO 18014KT 10SM SCT046 OVC070 M10/M13 A3020 RMK AO1,KFRM,2015-02-13T06:35:00Z,43.63,-94.42,-10.0,-13.0,180,14,,10.0,30.200787,,,TRUE,TRUE,,,,,,,SCT,4600,OVC,7000,,,,,VFR,,,,,,,,,,,,METAR,354.0
KFOD 130635Z AUTO 17007KT 10SM FEW041 SCT046 BKN055 M11/M14 A3029 RMK AO1,KFOD,2015-02-13T06:35:00Z,42.53,-94.17,-11.0,-14.0,170,7,,10.0,30.28937,,,TRUE,TRUE,,,,,,,FEW,4100,SCT,4600,BKN,5500,,,VFR,,,,,,,,,,,,METAR,355.0
KFNL 130635Z AUTO 00000KT 10SM BKN095 BKN120 06/M05 A3023 RMK AO1,KFNL,2015-02-13T06:35:00Z,40.45,-105.02,6.0,-5.0,0,0,,10.0,30.230314,,,TRUE,TRUE,,,,,,,BKN,9500,BKN,12000,,,,,VFR,,,,,,,,,,,,METAR,1529.0
KFLP 130635Z 10004KT 10SM SCT100 M03/M15 A3038 RMK AO1,KFLP,2015-02-13T06:35:00Z,36.28,-92.58,-3.0,-15.0,100,4,,10.0,30.380905,,,,TRUE,,,,,,,SCT,10000,,,,,,,VFR,,,,,,,,,,,,METAR,219.0
KFKL 130635Z AUTO 27007KT 10SM OVC039 M17/M21 A3019 RMK AO1,KFKL,2015-02-13T06:35:00Z,41.37,-79.87,-17.0,-21.0,270,7,,10.0,30.188976,,,TRUE,TRUE,,,,,,,OVC,3900,,,,,,,VFR,,,,,,,,,,,,METAR,469.0
KFAM 130635Z AUTO 10004KT 10SM CLR M07/M14 A3042 RMK AO1,KFAM,2015-02-13T06:35:00Z,37.77,-90.42,-7.0,-14.0,100,4,,10.0,30.41929,,,TRUE,TRUE,,,,,,,CLR,,,,,,,,VFR,,,,,,,,,,,,METAR,288.0
KEWK 130635Z AUTO 13009KT 10SM CLR M05/M14 A3026 RMK AO1,KEWK,2015-02-13T06:35:00Z,38.03,-97.27,-5.0,-14.0,130,9,,10.0,30.259842,,,TRUE,TRUE,,,,,,,CLR,,,,,,,,VFR,,,,,,,,,,,,METAR,467.0
KEUL 130635Z AUTO 04004KT 3SM CLR 02/M02 A3037 RMK AO1,KEUL,2015-02-13T06:35:00Z,43.62,-116.62,2.0,-2.0,40,4,,3.0,30.369095,,,TRUE,TRUE,,,,,,,CLR,,,,,,,,MVFR,,,,,,,,,,,,METAR,740.0
KESC 130635Z AUTO 00000KT 5SM SCT110 M24/M29 A3027 RMK AO1,KESC,2015-02-13T06:35:00Z,45.75,-87.08,-24.0,-29.0,0,0,,5.0,30.268702,,,TRUE,TRUE,,,,,,,SCT,11000,,,,,,,MVFR,,,,,,,,,,,,METAR,187.0
KENV 130635Z AUTO 24003KT 10SM CLR 02/M04 A3036 RMK AO1,KENV,2015-02-13T06:35:00Z,40.72,-114.02,2.0,-4.0,240,3,,10.0,30.360237,,,TRUE,TRUE,,,,,,,CLR,,,,,,,,VFR,,,,,,,,,,,,METAR,1292.0
KEIK 130635Z AUTO 00000KT 10SM BKN100 03/M04 A3022 RMK AO2 T00301038,KEIK,2015-02-13T06:35:00Z,40.02,-105.05,3.0,-3.8,0,0,,10.0,30.221457,,,TRUE,TRUE,,,,,,,BKN,10000,,,,,,,VFR,,,,,,,,,,,,METAR,1564.0
KEHR 130635Z AUTO 03006KT 10SM FEW120 M07/M13 A3043 RMK AO1,KEHR,2015-02-13T06:35:00Z,37.82,-87.67,-7.0,-13.0,30,6,,10.0,30.431103,,,TRUE,TRUE,,,,,,,FEW,12000,,,,,,,VFR,,,,,,,,,,,,METAR,117.0
KEGE 130635Z AUTO 00000KT 10SM CLR M02/M05 A3041 RMK AO1,KEGE,2015-02-13T06:35:00Z,39.63,-106.92,-2.0,-5.0,0,0,,10.0,30.410433,,,TRUE,TRUE,,,,,,,CLR,,,,,,,,VFR,,,,,,,,,,,,METAR,1993.0
KEEN 130635Z AUTO 32005G14KT 10SM OVC032 M11/M16 A2979 RMK AO1,KEEN,2015-02-13T06:35:00Z,42.88,-72.27,-11.0,-16.0,320,5,14,10.0,29.790354,,,TRUE,TRUE,,,,,,,OVC,3200,,,,,,,VFR,,,,,,,,,,,,METAR,149.0
KEDC 130635Z AUTO 35005KT 10SM OVC060 07/01 A3037 RMK AO2,KEDC,2015-02-13T06:35:00Z,30.4,-97.57,7.0,1.0,350,5,,10.0,30.369095,,,TRUE,TRUE,,,,,,,OVC,6000,,,,,,,VFR,,,,,,,,,,,,METAR,189.0
KEAR 130635Z 22011KT 10SM CLR M06/M12 A3015 RMK AO1,KEAR,2015-02-13T06:35:00Z,40.72,-99.0,-6.0,-12.0,220,11,,10.0,30.15059,,,,TRUE,,,,,,,CLR,,,,,,,,VFR,,,,,,,,,,,,SPECI,649.0
KDYR 130635Z 05009KT 10SM SCT110 M06/M18 A3046 RMK AO1,KDYR,2015-02-13T06:35:00Z,36.0,-89.4,-6.0,-18.0,50,9,,10.0,30.46063,,,,TRUE,,,,,,,SCT,11000,,,,,,,VFR,,,,,,,,,,,,METAR,103.0
KDWU 130635Z AUTO 36004KT 10SM CLR M09/M16 A3037 RMK AO1,KDWU,2015-02-13T06:35:00Z,38.55,-82.73,-9.0,-16.0,360,4,,10.0,30.369095,,,TRUE,TRUE,,,,,,,CLR,,,,,,,,VFR,,,,,,,,,,,,SPECI,166.0
KDVL 130635Z AUTO 25008KT 10SM CLR M09/M13 A3000 RMK AO1,KDVL,2015-02-13T06:35:00Z,48.12,-98.92,-9.0,-13.0,250,8,,10.0,30.0,,,TRUE,TRUE,,,,,,,CLR,,,,,,,,VFR,,,,,,,,,,,,SPECI,443.0
KCWI 130635Z AUTO 24003KT 10SM BKN120 M16/M19 A3042 RMK AO1,KCWI,2015-02-13T06:35:00Z,41.82,-90.32,-16.0,-19.0,240,3,,10.0,30.41929,,,TRUE,TRUE,,,,,,,BKN,12000,,,,,,,VFR,,,,,,,,,,,,METAR,216.0
KCVO 130635Z AUTO 00000KT M1/4SM OVC002 08/07 A3026 RMK AO1,KCVO,2015-02-13T06:35:00Z,44.5,-123.27,8.0,7.0,0,0,,0.25,30.259842,,,TRUE,TRUE,,,,,,,OVC,200,,,,,,,LIFR,,,,,,,,,,,,METAR,75.0
KCVN 130635Z AUTO 23006KT 10SM CLR M01/M06 A3027 RMK AO1,KCVN,2015-02-13T06:35:00Z,34.42,-103.07,-1.0,-6.0,230,6,,10.0,30.268702,,,TRUE,TRUE,,,,,,,CLR,,,,,,,,VFR,,,,,,,,,,,,METAR,1284.0
KCQW 130635Z AUTO 35007KT 10SM CLR M02/M15 A3020 RMK AO2,KCQW,2015-02-13T06:35:00Z,34.72,-79.95,-2.0,-15.0,350,7,,10.0,30.200787,,,TRUE,TRUE,,,,,,,CLR,,,,,,,,VFR,,,,,,,,,,,,METAR,73.0
KCOE 130635Z AUTO 00000KT 2 1/2SM CLR 02/01 A3031 RMK AO1,KCOE,2015-02-13T06:35:00Z,47.77,-116.82,2.0,1.0,0,0,,2.5,30.31004,,,TRUE,TRUE,,,,,,,CLR,,,,,,,,IFR,,,,,,,,,,,,METAR,707.0
KCOD 130635Z 00000KT 10SM CLR 07/M04 A3022 RMK AO1,KCOD,2015-02-13T06:35:00Z,44.52,-109.02,7.0,-4.0,0,0,,10.0,30.221457,,,,TRUE,,,,,,,CLR,,,,,,,,VFR,,,,,,,,,,,,METAR,1553.0
KCIU 130635Z AUTO 21004KT 10SM OVC018 M21/M22 A3027 RMK AO1,KCIU,2015-02-13T06:35:00Z,46.25,-84.47,-21.0,-22.0,210,4,,10.0,30.268702,,,TRUE,TRUE,,,,,,,OVC,1800,,,,,,,MVFR,,,,,,,,,,,,METAR,244.0
KCGZ 130635Z AUTO 06009KT 10SM CLR 16/00 A3015 RMK AO1,KCGZ,2015-02-13T06:35:00Z,32.95,-111.77,16.0,0.0,60,9,,10.0,30.15059,,,TRUE,TRUE,,,,,,,CLR,,,,,,,,VFR,,,,,,,,,,,,METAR,446.0
KCDN 130635Z AUTO 00000KT 10SM CLR M03/M12 A3022 RMK AO2 TSNO,KCDN,2015-02-13T06:35:00Z,34.28,-80.57,-3.0,-12.0,0,0,,10.0,30.221457,,,TRUE,TRUE,,,TRUE,,,,CLR,,,,,,,,VFR,,,,,,,,,,,,METAR,92.0
KCCU 130635Z AUTO 10SM BKN024 M03/M12 A3046 RMK AO2,KCCU,2015-02-13T06:35:00Z,39.48,-106.15,-3.0,-12.0,,,,10.0,30.46063,,,TRUE,TRUE,,,,,,,BKN,2400,,,,,,,MVFR,,,,,,,,,,,,METAR,3680.0
KBVX 130635Z AUTO 10005KT 10SM CLR M03/M13 A3041 RMK AO1,KBVX,2015-02-13T06:35:00Z,35.73,-91.65,-3.0,-13.0,100,5,,10.0,30.410433,,,TRUE,TRUE,,,,,,,CLR,,,,,,,,VFR,,,,,,,,,,,,METAR,141.0
KBVU 130635Z AUTO 00000KT 10SM CLR 15/M03 A3021 RMK AO2,KBVU,2015-02-13T06:35:00Z,35.95,-114.87,15.0,-3.0,0,0,,10.0,30.209646,,,TRUE,TRUE,,,,,,,CLR,,,,,,,,VFR,,,,,,,,,,,,METAR,671.0
KBTP 130635Z AUTO 27004KT 10SM CLR M16/M21 A3025 RMK AO1,KBTP,2015-02-13T06:35:00Z,40.77,-79.95,-16.0,-21.0,270,4,,10.0,30.250984,,,TRUE,TRUE,,,,,,,CLR,,,,,,,,VFR,,,,,,,,,,,,METAR,380.0
KBOW 130635Z AUTO 29005KT 10SM CLR 13/11 A3009 RMK AO2,KBOW,2015-02-13T06:35:00Z,27.93,-81.77,13.0,11.0,290,5,,10.0,30.088583,,,TRUE,TRUE,,,,,,,CLR,,,,,,,,VFR,,,,,,,,,,,,METAR,39.0
KBLM 130635Z AUTO 32017G27KT 10SM CLR M10/M21 A2996 RMK AO1,KBLM,2015-02-13T06:35:00Z,40.17,-74.12,-10.0,-21.0,320,17,27,10.0,29.958662,,,TRUE,TRUE,,,,,,,CLR,,,,,,,,VFR,,,,,,,,,,,,METAR,48.0
KBJC 130635Z AUTO 29007KT 10SM OVC095 09/M06 A3022 RMK AO2,KBJC,2015-02-13T06:35:00Z,39.9,-105.1,9.0,-6.0,290,7,,10.0,30.221457,,,TRUE,TRUE,,,,,,,OVC,9500,,,,,,,VFR,,,,,,,,,,,,METAR,1724.0
KBID 130635Z AUTO 32011G24KT 10SM CLR M07/M15 A2975 RMK AO1,KBID,2015-02-13T06:35:00Z,41.17,-71.58,-7.0,-15.0,320,11,24,10.0,29.749016,,,TRUE,TRUE,,,,,,,CLR,,,,,,,,VFR,,,,,,,,,,,,METAR,33.0
KBHB 130635Z 34005KT 10SM FEW065 BKN070 OVC110 M13/M15 A2969 RMK AO1,KBHB,2015-02-13T06:35:00Z,44.45,-68.37,-13.0,-15.0,340,5,,10.0,29.68996,,,,TRUE,,,,,,,FEW,6500,BKN,7000,OVC,11000,,,VFR,,,,,,,,,,,,METAR,26.0
KAWO 130635Z AUTO 00000KT 10SM OVC037 11/08 A3027 RMK AO1,KAWO,2015-02-13T06:35:00Z,48.17,-122.17,11.0,8.0,0,0,,10.0,30.268702,,,TRUE,TRUE,,,,,,,OVC,3700,,,,,,,VFR,,,,,,,,,,,,METAR,42.0
KAUO 130635Z AUTO 01007KT 10SM CLR M03/M13 A3026 RMK AO1,KAUO,2015-02-13T06:35:00Z,32.62,-85.42,-3.0,-13.0,10,7,,10.0,30.259842,,,TRUE,TRUE,,,,,,,CLR,,,,,,,,VFR,,,,,,,,,,,,METAR,236.0
KARG 130635Z AUTO 08007KT 10SM CLR M04/M13 A3044 RMK AO1,KARG,2015-02-13T06:35:00Z,36.12,-90.92,-4.0,-13.0,80,7,,10.0,30.43996,,,TRUE,TRUE,,,,,,,CLR,,,,,,,,VFR,,,,,,,,,,,,METAR,83.0
KAIZ 130635Z AUTO 12004KT 9SM SCT030 BKN042 OVC055 M06/M14 A3038 RMK AO1,KAIZ,2015-02-13T06:35:00Z,38.1,-92.53,-6.0,-14.0,120,4,,9.0,30.380905,,,TRUE,TRUE,,,,,,,SCT,3000,BKN,4200,OVC,5500,,,VFR,,,,,,,,,,,,METAR,265.0
KAFJ 130635Z AUTO 26003KT 10SM CLR M16/M21 A3028 RMK AO1,KAFJ,2015-02-13T06:35:00Z,40.12,-80.27,-16.0,-21.0,260,3,,10.0,30.280512,,,TRUE,TRUE,,,,,,,CLR,,,,,,,,VFR,,,,,,,,,,,,METAR,361.0
KAEG 130635Z AUTO 27005KT 10SM CLR 00/M05 A3031 RMK AO2 T00001047,KAEG,2015-02-13T06:35:00Z,35.13,-106.8,0.0,-4.7,270,5,,10.0,30.31004,,,TRUE,TRUE,,,,,,,CLR,,,,,,,,VFR,,,,,,,,,,,,METAR,1779.0
K5SM 130635Z AUTO 29003KT 10SM CLR 00/M09 A3046 RMK AO2,K5SM,2015-02-13T06:35:00Z,39.43,-107.38,0.0,-9.0,290,3,,10.0,30.46063,,,TRUE,TRUE,,,,,,,CLR,,,,,,,,VFR,,,,,,,,,,,,METAR,3232.0
K33V 130635Z AUTO 16003KT 10SM SCT050 BKN055 00/M07 A3036 RMK AO2,K33V,2015-02-13T06:35:00Z,40.75,-106.28,0.0,-7.0,160,3,,10.0,30.360237,,,TRUE,TRUE,,,,,,,SCT,5000,BKN,5500,,,,,VFR,,,,,,,,,,,,METAR,2484.0
K20V 130635Z AUTO 00000KT 10SM SCT070 M05/M08 A3041 RMK AO2,K20V,2015-02-13T06:35:00Z,40.05,-106.37,-5.0,-8.0,0,0,,10.0,30.410433,,,TRUE,TRUE,,,,,,,SCT,7000,,,,,,,VFR,,,,,,,,,,,,METAR,2259.0
K1V6 130635Z AUTO 32007KT 10SM CLR 04/M01 A3025 RMK AO2,K1V6,2015-02-13T06:35:00Z,38.43,-105.1,4.0,-1.0,320,7,,10.0,30.250984,,,TRUE,TRUE,,,,,,,CLR,,,,,,,,VFR,,,,,,,,,,,,METAR,1658.0
K1P1 130635Z AUTO 29011G15KT 10SM SCT018 BKN027 M13/M16 A2978 RMK AO2 T11341163,K1P1,2015-02-13T06:35:00Z,43.78,-71.75,-13.4,-16.3,290,11,15,10.0,29.778543,,,TRUE,TRUE,,,,,,,SCT,1800,BKN,2700,,,,,MVFR,,,,,,,,,,,,METAR,154.0
K0CO 130635Z AUTO 34012G18KT 10SM BKN021 M08/M11 A3043 RMK AO2,K0CO,2015-02-13T06:35:00Z,39.8,-105.77,-8.0,-11.0,340,12,18,10.0,30.431103,,,TRUE,TRUE,,,,,,,BKN,2100,,,,,,,MVFR,,,,,,,,,,,,METAR,3807.0
KPWT 130635Z AUTO 00000KT 10SM OVC020 09/09 A3028 RMK AO1,KPWT,2015-02-13T06:35:00Z,47.5,-122.75,9.0,9.0,0,0,,10.0,30.280512,,,TRUE,TRUE,,,,,,,OVC,2000,,,,,,,MVFR,,,,,,,,,,,,METAR,147.0
KPWG 130635Z AUTO 32005KT 10SM CLR 03/M04 A3038 RMK AO1,KPWG,2015-02-13T06:35:00Z,31.47,-97.32,3.0,-4.0,320,5,,10.0,30.380905,,,TRUE,TRUE,,,,,,,CLR,,,,,,,,VFR,,,,,,,,,,,,METAR,180.0
KPVU 130635Z AUTO 00000KT 10SM CLR 04/M03 A3037 RMK AO1,KPVU,2015-02-13T06:35:00Z,40.22,-111.72,4.0,-3.0,0,0,,10.0,30.369095,,,TRUE,TRUE,,,,,,,CLR,,,,,,,,VFR,,,,,,,,,,,,METAR,1369.0
KPVG 130635Z AUTO 33010G21KT 300V010 10SM CLR M03/M13 A3013 RMK AO1,KPVG,2015-02-13T06:35:00Z,36.78,-76.45,-3.0,-13.0,330,10,21,10.0,30.129921,,,TRUE,TRUE,,,,,,,CLR,,,,,,,,VFR,,,,,,,,,,,,METAR,7.0
KPVC 130635Z 32024G33KT 10SM BKN027 BKN036 M04/M10 A2969 RMK AO1,KPVC,2015-02-13T06:35:00Z,42.07,-70.22,-4.0,-10.0,320,24,33,10.0,29.68996,,,,TRUE,,,,,,,BKN,2700,BKN,3600,,,,,MVFR,,,,,,,,,,,,METAR,2.0
KPTV 130635Z AUTO 14006KT 5SM CLR 09/07 A3017 RMK AO1,KPTV,2015-02-13T06:35:00Z,36.02,-119.07,9.0,7.0,140,6,,5.0,30.171259,,,TRUE,TRUE,,,,,,,CLR,,,,,,,,MVFR,,,,,,,,,,,,METAR,135.0
KPTN 130635Z AUTO 02009KT 10SM CLR 07/M04 A3031 RMK AO1,KPTN,2015-02-13T06:35:00Z,29.72,-91.32,7.0,-4.0,20,9,,10.0,30.31004,,,TRUE,TRUE,,,,,,,CLR,,,,,,,,VFR,,,,,,,,,,,,METAR,3.0
KPSO 130635Z AUTO 00000KT 10SM CLR 00/M05 A3034 RMK AO2 T10051047,KPSO,2015-02-13T06:35:00Z,37.28,-107.05,-0.5,-4.7,0,0,,10.0,30.339567,,,TRUE,TRUE,,,,,,,CLR,,,,,,,,VFR,,,,,,,,,,,,METAR,2334.0
KPRX 130635Z 04006KT 10SM CLR 02/M06 A3037 RMK AO1,KPRX,2015-02-13T06:35:00Z,33.62,-95.45,2.0,-6.0,40,6,,10.0,30.369095,,,,TRUE,,,,,,,CLR,,,,,,,,VFR,,,,,,,,,,,,METAR,167.0
KPIB 130635Z AUTO 35007KT 10SM CLR M01/M07 A3033 RMK AO1,KPIB,2015-02-13T06:35:00Z,31.47,-89.32,-1.0,-7.0,350,7,,10.0,30.33071,,,TRUE,TRUE,,,,,,,CLR,,,,,,,,VFR,,,,,,,,,,,,METAR,91.0
KOXC 130635Z 32012G23KT 10SM FEW002 M12/M23 A2983 RMK AO1,KOXC,2015-02-13T06:35:00Z,41.47,-73.13,-12.0,-23.0,320,12,23,10.0,29.828741,,,,TRUE,,,,,,,FEW,200,,,,,,,VFR,,,,,,,,,,,,METAR,222.0
KOWA 130635Z AUTO 17009KT 10SM CLR M14/M17 A3023 RMK AO2,KOWA,2015-02-13T06:35:00Z,44.12,-93.25,-14.0,-17.0,170,9,,10.0,30.230314,,,TRUE,TRUE,,,,,,,CLR,,,,,,,,VFR,,,,,,,,,,,,METAR,350.0
KOTH 130635Z 12007KT 10SM CLR 09/09 A3020 RMK AO1,KOTH,2015-02-13T06:35:00Z,43.42,-124.25,9.0,9.0,120,7,,10.0,30.200787,,,,TRUE,,,,,,,CLR,,,,,,,,VFR,,,,,,,,,,,,METAR,4.0
KOTG 130635Z AUTO 19012KT 10SM OVC042 M09/M13 A3016 RMK AO1,KOTG,2015-02-13T06:35:00Z,43.63,-95.57,-9.0,-13.0,190,12,,10.0,30.159449,,,TRUE,TRUE,,,,,,,OVC,4200,,,,,,,VFR,,,,,,,,,,,,METAR,480.0
KOLV 130635Z AUTO 05008KT 10SM CLR M05/M11 A3042 RMK A01 P000,KOLV,2015-02-13T06:35:00Z,34.98,-89.78,-5.0,-11.0,50,8,,10.0,30.41929,,,TRUE,TRUE,,,,,,,CLR,,,,,,,,VFR,,,,,,,,,,,,METAR,122.0
KOLU 130635Z AUTO 17006KT 10SM CLR M07/M14 A3021 RMK AO1,KOLU,2015-02-13T06:35:00Z,41.45,-97.32,-7.0,-14.0,170,6,,10.0,30.209646,,,TRUE,TRUE,,,,,,,CLR,,,,,,,,VFR,,,,,,,,,,,,METAR,440.0
KOKK 130635Z AUTO 29004KT 10SM CLR M13/M17 A3039 RMK AO1,KOKK,2015-02-13T06:35:00Z,40.53,-86.07,-13.0,-17.0,290,4,,10.0,30.389763,,,TRUE,TRUE,,,,,,,CLR,,,,,,,,VFR,,,,,,,,,,,,METAR,253.0
KOCH 130635Z AUTO 00000KT 10SM CLR 02/M02 A3036 RMK AO1,KOCH,2015-02-13T06:35:00Z,31.57,-94.72,2.0,-2.0,0,0,,10.0,30.360237,,,TRUE,TRUE,,,,,,,CLR,,,,,,,,VFR,,,,,,,,,,,,METAR,108.0
KOCF 130635Z AUTO 01008KT 10SM CLR 07/02 A3010 RMK AO1,KOCF,2015-02-13T06:35:00Z,29.17,-82.22,7.0,2.0,10,8,,10.0,30.100393,,,TRUE,TRUE,,,,,,,CLR,,,,,,,,VFR,,,,,,,,,,,,METAR,27.0
KOAJ 130635Z AUTO 30006KT 10SM CLR M01/M12 A3015 RMK AO1,KOAJ,2015-02-13T06:35:00Z,34.82,-77.62,-1.0,-12.0,300,6,,10.0,30.15059,,,TRUE,TRUE,,,,,,,CLR,,,,,,,,VFR,,,,,,,,,,,,METAR,29.0
KMYR 130635Z AUTO 34012G17KT 10SM CLR 01/M12 A3019 RMK AO1,KMYR,2015-02-13T06:35:00Z,33.67,-78.92,1.0,-12.0,340,12,17,10.0,30.188976,,,TRUE,TRUE,,,,,,,CLR,,,,,,,,VFR,,,,,,,,,,,,METAR,8.0
KMVN 130635Z AUTO 00000KT 10SM CLR M08/M14 A3043 RMK AO1,KMVN,2015-02-13T06:35:00Z,38.32,-88.87,-8.0,-14.0,0,0,,10.0,30.431103,,,TRUE,TRUE,,,,,,,CLR,,,,,,,,VFR,,,,,,,,,,,,METAR,146.0
KMSV 130635Z AUTO 29019G24KT 270V330 9SM SCT026 M17/M21 A2987 RMK AO1,KMSV,2015-02-13T06:35:00Z,41.7,-74.78,-17.0,-21.0,290,19,24,9.0,29.870079,,,TRUE,TRUE,,,,,,,SCT,2600,,,,,,,VFR,,,,,,,,,,,,METAR,428.0
KMRF 130635Z AUTO 00000KT 10SM OVC008 04/03 A3035 RMK AO1,KMRF,2015-02-13T06:35:00Z,30.37,-104.02,4.0,3.0,0,0,,10.0,30.351377,,,TRUE,TRUE,,,,,,,OVC,800,,,,,,,IFR,,,,,,,,,,,,METAR,1481.0
KMNM 130635Z AUTO 00000KT 10SM CLR M22/M24 A3030 RMK AO1,KMNM,2015-02-13T06:35:00Z,45.12,-87.62,-22.0,-24.0,0,0,,10.0,30.301182,,,TRUE,TRUE,,,,,,,CLR,,,,,,,,VFR,,,,,,,,,,,,METAR,191.0
KMML 130635Z AUTO 20016G20KT 10SM OVC042 M08/M13 A3016 RMK AO1,KMML,2015-02-13T06:35:00Z,44.45,-95.82,-8.0,-13.0,200,16,20,10.0,30.159449,,,TRUE,TRUE,,,,,,,OVC,4200,,,,,,,VFR,,,,,,,,,,,,METAR,359.0
KMKY 130635Z AUTO 30004KT 10SM CLR 12/09 A3007 RMK AO1,KMKY,2015-02-13T06:35:00Z,26.0,-81.67,12.0,9.0,300,4,,10.0,30.070866,,,TRUE,TRUE,,,,,,,CLR,,,,,,,,VFR,,,,,,,,,,,,METAR,2.0
KMKT 130635Z AUTO 19011KT 10SM BKN046 OVC100 M11/M15 A3021 RMK AO1,KMKT,2015-02-13T06:35:00Z,44.22,-93.92,-11.0,-15.0,190,11,,10.0,30.209646,,,TRUE,TRUE,,,,,,,BKN,4600,OVC,10000,,,,,VFR,,,,,,,,,,,,METAR,311.0
KMJX 130635Z AUTO 31019G24KT 10SM CLR M09/M19 A2998 RMK AO1,KMJX,2015-02-13T06:35:00Z,39.93,-74.3,-9.0,-19.0,310,19,24,10.0,29.97933,,,TRUE,TRUE,,,,,,,CLR,,,,,,,,VFR,,,,,,,,,,,,METAR,25.0
KMEZ 130635Z AUTO 00000KT 10SM CLR 01/M03 A3035 RMK AO2,KMEZ,2015-02-13T06:35:00Z,34.55,-94.2,1.0,-3.0,0,0,,10.0,30.351377,,,TRUE,TRUE,,,,,,,CLR,,,,,,,,VFR,,,,,,,,,,,,METAR,329.0
KMBL 130635Z AUTO 10003KT 10SM BKN034 M14/M16 A3032 RMK AO1,KMBL,2015-02-13T06:35:00Z,44.27,-86.25,-14.0,-16.0,100,3,,10.0,30.318897,,,TRUE,TRUE,,,,,,,BKN,3400,,,,,,,VFR,,,,,,,,,,,,METAR,189.0
KM91 130635Z AUTO 35005KT 10SM CLR M08/M11 A3041 RMK,KM91,2015-02-13T06:35:00Z,36.53,-86.92,-8.0,-11.0,350,5,,10.0,30.410433,,,TRUE,,,,,,,,CLR,,,,,,,,VFR,,,,,,,,,,,,METAR,215.0
KLPC 130635Z AUTO 08005KT 10SM CLR 11/02 A3009 RMK AO1,KLPC,2015-02-13T06:35:00Z,34.67,-120.47,11.0,2.0,80,5,,10.0,30.088583,,,TRUE,TRUE,,,,,,,CLR,,,,,,,,VFR,,,,,,,,,,,,METAR,27.0
KLKV 130635Z 34006KT 10SM CLR 00/M03 A3033 RMK AO1,KLKV,2015-02-13T06:35:00Z,42.17,-120.4,0.0,-3.0,340,6,,10.0,30.33071,,,,TRUE,,,,,,,CLR,,,,,,,,VFR,,,,,,,,,,,,METAR,1441.0
KLKR 130635Z AUTO 34004KT 10SM CLR M03/M13 A3020 RMK AO2,KLKR,2015-02-13T06:35:00Z,34.72,-80.85,-3.0,-13.0,340,4,,10.0,30.200787,,,TRUE,TRUE,,,,,,,CLR,,,,,,,,VFR,,,,,,,,,,,,METAR,149.0
KLGD 130635Z AUTO 33005KT 10SM CLR 03/M02 A3032 RMK AO1,KLGD,2015-02-13T06:35:00Z,45.27,-118.0,3.0,-2.0,330,5,,10.0,30.318897,,,TRUE,TRUE,,,,,,,CLR,,,,,,,,VFR,,,,,,,,,,,,METAR,827.0
KLEW 130635Z AUTO 01007KT 10SM BKN095 M12/M16 A2968 RMK AO1,KLEW,2015-02-13T06:35:00Z,44.03,-70.27,-12.0,-16.0,10,7,,10.0,29.681103,,,TRUE,TRUE,,,,,,,BKN,9500,,,,,,,VFR,,,,,,,,,,,,METAR,88.0
KLCI 130635Z AUTO 27009G18KT 240V310 10SM CLR M12/M19 A2971 RMK AO1,KLCI,2015-02-13T06:35:00Z,43.57,-71.42,-12.0,-19.0,270,9,18,10.0,29.71063,,,TRUE,TRUE,,,,,,,CLR,,,,,,,,VFR,,,,,,,,,,,,METAR,166.0
KSQL 130635Z AUTO 00000KT 10SM CLR 14/10 A3015 RMK AO2,KSQL,2015-02-13T06:35:00Z,37.52,-122.25,14.0,10.0,0,0,,10.0,30.15059,,,TRUE,TRUE,,,,,,,CLR,,,,,,,,VFR,,,,,,,,,,,,METAR,1.0
KMQJ 130635Z AUTO 30005KT 10SM CLR M11/M18 A3039 RMK AO1,KMQJ,2015-02-13T06:35:00Z,39.85,-85.9,-11.0,-18.0,300,5,,10.0,30.389763,,,TRUE,TRUE,,,,,,,CLR,,,,,,,,VFR,,,,,,,,,,,,METAR,263.0
KMGG 130635Z AUTO 17006KT 10SM OVC037 M12/M14 A3019 RMK AO2 T11171142,KMGG,2015-02-13T06:35:00Z,45.23,-93.98,-11.7,-14.2,170,6,,10.0,30.188976,,,TRUE,TRUE,,,,,,,OVC,3700,,,,,,,VFR,,,,,,,,,,,,METAR,313.0
KLYV 130635Z AUTO 18008KT 10SM SCT038 M08/M11 A3018 RMK AO2,KLYV,2015-02-13T06:35:00Z,43.62,-96.22,-8.0,-11.0,180,8,,10.0,30.180119,,,TRUE,TRUE,,,,,,,SCT,3800,,,,,,,VFR,,,,,,,,,,,,SPECI,436.0
KFKA 130635Z AUTO 19008KT 10SM CLR M19/M21 A3027 RMK AO2 T11861208,KFKA,2015-02-13T06:35:00Z,43.68,-92.17,-18.6,-20.8,190,8,,10.0,30.268702,,,TRUE,TRUE,,,,,,,CLR,,,,,,,,VFR,,,,,,,,,,,,METAR,389.0
KCVH 130635Z AUTO 00000KT 10SM CLR 11/11 A3016 RMK AO1,KCVH,2015-02-13T06:35:00Z,36.9,-121.42,11.0,11.0,0,0,,10.0,30.159449,,,TRUE,TRUE,,,,,,,CLR,,,,,,,,VFR,,,,,,,,,,,,METAR,70.0
CYNE 130635Z AUTO 33010KT 9SM SCT020 OVC040 M18/M21 A3000 RMK SLP187,CYNE,2015-02-13T06:35:00Z,53.97,-97.82,-18.0,-21.0,330,10,,9.0,30.0,1018.7,,TRUE,,,,,,,,SCT,2000,OVC,4000,,,,,VFR,,,,,,,,,,,,SPECI,223.0
CYZP 130635Z AUTO 13023G29KT 9SM SCT043 BKN090 BKN110 BKN140 10/09 A2977 RMK PRESFR SLP080,CYZP,2015-02-13T06:35:00Z,53.25,-131.82,10.0,9.0,130,23,29,9.0,29.769686,1008.0,,TRUE,,,,,,,,SCT,4300,BKN,9000,BKN,11000,BKN,14000,VFR,,,,,,,,,,,,SPECI,6.0
KRZR 130635Z AUTO 02010KT 10SM CLR M05/M13 A3029 RMK,KRZR,2015-02-13T06:35:00Z,35.22,-84.8,-5.0,-13.0,20,10,,10.0,30.28937,,,TRUE,,,,,,,,CLR,,,,,,,,VFR,,,,,,,,,,,,METAR,263.0
KN03 130635Z AUTO 32006KT 2 1/2SM -SN SCT005 BKN009 OVC040 M16/M19 A3003 RMK AO2,KN03,2015-02-13T06:35:00Z,42.6,-76.22,-16.0,-19.0,320,6,,2.5,30.029528,,,TRUE,TRUE,,,,,,-SN,SCT,500,BKN,900,OVC,4000,,,IFR,,,,,,,,,,,,METAR,366.0
KHOB 130635Z AUTO 00000KT 10SM CLR 02/M05 A3033 RMK AO2,KHOB,2015-02-13T06:35:00Z,32.67,-103.22,2.0,-5.0,0,0,,10.0,30.33071,,,TRUE,TRUE,,,,,,,CLR,,,,,,,,VFR,,,,,,,,,,,,METAR,1115.0
KBBP 130635Z AUTO 32006KT 10SM CLR 00/M13 A3020 RMK AO2,KBBP,2015-02-13T06:35:00Z,34.62,-79.73,0.0,-13.0,320,6,,10.0,30.200787,,,TRUE,TRUE,,,,,,,CLR,,,,,,,,VFR,,,,,,,,,,,,METAR,45.0
KIFA 130635Z AUTO 19007KT 7SM BKN039 BKN045 OVC050 M11/M15 A3033 RMK AO2 T11121147,KIFA,2015-02-13T06:35:00Z,42.47,-93.27,-11.2,-14.7,190,7,,7.0,30.33071,,,TRUE,TRUE,,,,,,,BKN,3900,BKN,4500,OVC,5000,,,VFR,,,,,,,,,,,,SPECI,347.0
KIDI 130635Z AUTO 31009KT 10SM BKN021 BKN028 BKN040 M16/M19 A3023 RMK A01,KIDI,2015-02-13T06:35:00Z,40.62,-79.08,-16.0,-19.0,310,9,,10.0,30.230314,,,TRUE,TRUE,,,,,,,BKN,2100,BKN,2800,BKN,4000,,,MVFR,,,,,,,,,,,,SPECI,429.0
KICL 130635Z AUTO 18008KT 10SM BKN055 OVC070 M06/M12 A3032 RMK AO2,KICL,2015-02-13T06:35:00Z,40.72,-95.02,-6.0,-12.0,180,8,,10.0,30.318897,,,TRUE,TRUE,,,,,,,BKN,5500,OVC,7000,,,,,VFR,,,,,,,,,,,,SPECI,303.0
KI39 130635Z AUTO 01006KT 10SM OVC034 M07/M14 A3034 RMK AO2,KI39,2015-02-13T06:35:00Z,37.63,-84.33,-7.0,-14.0,10,6,,10.0,30.339567,,,TRUE,TRUE,,,,,,,OVC,3400,,,,,,,VFR,,,,,,,,,,,,SPECI,306.0
KHZE 130635Z AUTO 24011KT 10SM OVC070 M07/M09 A3006 RMK AO2,KHZE,2015-02-13T06:35:00Z,47.28,-101.58,-7.0,-9.0,240,11,,10.0,30.059055,,,TRUE,TRUE,,,,,,,OVC,7000,,,,,,,VFR,,,,,,,,,,,,SPECI,553.0
KHXD 130635Z AUTO 36010G21KT 10SM CLR 03/M10 A3018 RMK AO2 P0000,KHXD,2015-02-13T06:35:00Z,32.22,-80.7,3.0,-10.0,360,10,21,10.0,30.180119,,,TRUE,TRUE,,,,,,,CLR,,,,,,,,VFR,,,,,,0.0050,,,,,,SPECI,6.0
KHSB 130635Z AUTO 35003KT 10SM CLR M07/M12 A3046 RMK AO2 T10711122,KHSB,2015-02-13T06:35:00Z,37.82,-88.55,-7.1,-12.2,350,3,,10.0,30.46063,,,TRUE,TRUE,,,,,,,CLR,,,,,,,,VFR,,,,,,,,,,,,SPECI,121.0
KHAE 130635Z AUTO 16003KT 10SM SCT095 M07/M14 A3040 RMK AO2,KHAE,2015-02-13T06:35:00Z,39.73,-91.45,-7.0,-14.0,160,3,,10.0,30.398623,,,TRUE,TRUE,,,,,,,SCT,9500,,,,,,,VFR,,,,,,,,,,,,SPECI,234.0
KGZL 130635Z AUTO 00000KT 10SM CLR 00/M11 A3037 RMK AO2,KGZL,2015-02-13T06:35:00Z,35.28,-95.1,0.0,-11.0,0,0,,10.0,30.369095,,,TRUE,TRUE,,,,,,,CLR,,,,,,,,VFR,,,,,,,,,,,,SPECI,183.0
KGPM 130635Z AUTO 00000KT 10SM CLR 06/00 A3039 RMK AO2 T00561002,KGPM,2015-02-13T06:35:00Z,32.7,-97.05,5.6,-0.2,0,0,,10.0,30.389763,,,TRUE,TRUE,,,,,,,CLR,,,,,,,,VFR,,,,,,,,,,,,SPECI,180.0
KGKT 130635Z AUTO 00000KT 10SM SCT038 BKN044 M07/M13 A3029 RMK,KGKT,2015-02-13T06:35:00Z,35.85,-83.53,-7.0,-13.0,0,0,,10.0,30.28937,,,TRUE,,,,,,,,SCT,3800,BKN,4400,,,,,VFR,,,,,,,,,,,,METAR,309.0
KGCM 130635Z AUTO 06003KT 10SM CLR M02/M08 A3037 RMK AO2,KGCM,2015-02-13T06:35:00Z,36.3,-95.48,-2.0,-8.0,60,3,,10.0,30.369095,,,TRUE,TRUE,,,,,,,CLR,,,,,,,,VFR,,,,,,,,,,,,SPECI,221.0
KFYM 130635Z AUTO 01009KT 10SM CLR M07/M13 A3034 RMK,KFYM,2015-02-13T06:35:00Z,35.07,-86.57,-7.0,-13.0,10,9,,10.0,30.339567,,,TRUE,,,,,,,,CLR,,,,,,,,VFR,,,,,,,,,,,,METAR,300.0
KFWZ 130635Z AUTO 35010KT 10SM CLR 01/M04 A3025 RMK AO2,KFWZ,2015-02-13T06:35:00Z,42.52,-108.78,1.0,-4.0,350,10,,10.0,30.250984,,,TRUE,TRUE,,,,,,,CLR,,,,,,,,VFR,,,,,,,,,,,,SPECI,2588.0
KFVX 130635Z AUTO 00000KT 10SM CLR M04/M17 A3016 RMK AO2 T10361172,KFVX,2015-02-13T06:35:00Z,37.35,-78.42,-3.6,-17.2,0,0,,10.0,30.159449,,,TRUE,TRUE,,,,,,,CLR,,,,,,,,VFR,,,,,,,,,,,,SPECI,125.0
KFRR 130635Z AUTO 33012G21KT 300V360 10SM CLR M10/M19 A3016 RMK AO1,KFRR,2015-02-13T06:35:00Z,38.92,-78.25,-10.0,-19.0,330,12,21,10.0,30.159449,,,TRUE,TRUE,,,,,,,CLR,,,,,,,,VFR,,,,,,,,,,,,SPECI,216.0
KFMM 130635Z AUTO 00000KT 10SM CLR 04/M05 A3021 RMK AO2 T00361051,KFMM,2015-02-13T06:35:00Z,40.33,-103.8,3.6,-5.1,0,0,,10.0,30.209646,,,TRUE,TRUE,,,,,,,CLR,,,,,,,,VFR,,,,,,,,,,,,SPECI,1393.0
KFMH 130635Z AUTO 33012G19KT 10SM OVC047 M05/M11 A2969 RMK AO2,KFMH,2015-02-13T06:35:00Z,41.63,-70.52,-5.0,-11.0,330,12,19,10.0,29.68996,,,TRUE,TRUE,,,,,,,OVC,4700,,,,,,,VFR,,,,,,,,,,,,SPECI,40.0
KFEP 130635Z AUTO 22004KT 10SM CLR M15/M19 A3040 RMK AO2 T11521192,KFEP,2015-02-13T06:35:00Z,42.25,-89.58,-15.2,-19.2,220,4,,10.0,30.398623,,,TRUE,TRUE,,,,,,,CLR,,,,,,,,VFR,,,,,,,,,,,,SPECI,262.0
KFBR 130635Z AUTO 25010KT 10SM CLR 03/M05 A3040 RMK AO2 T00341051,KFBR,2015-02-13T06:35:00Z,41.4,-110.4,3.4,-5.1,250,10,,10.0,30.398623,,,TRUE,TRUE,,,,,,,CLR,,,,,,,,VFR,,,,,,,,,,,,SPECI,2144.0
KEHY 130635Z AUTO 25015G20KT 10SM CLR 04/M08 A3026 RMK AO2,KEHY,2015-02-13T06:35:00Z,41.73,-106.47,4.0,-8.0,250,15,20,10.0,30.259842,,,TRUE,TRUE,,,,,,,CLR,,,,,,,,VFR,,,,,,,,,,,,SPECI,2225.0
KEDE 130635Z AUTO 32006KT 10SM CLR M01/M07 A3012 RMK AO2 T10091075,KEDE,2015-02-13T06:35:00Z,36.02,-76.57,-0.9,-7.5,320,6,,10.0,30.121063,,,TRUE,TRUE,,,,,,,CLR,,,,,,,,VFR,,,,,,,,,,,,SPECI,6.0
KE80 130635Z AUTO 00000KT 10SM CLR 00/M04 A3030 RMK AO2 T00041043,KE80,2015-02-13T06:35:00Z,34.65,-106.83,0.4,-4.3,0,0,,10.0,30.301182,,,TRUE,TRUE,,,,,,,CLR,,,,,,,,VFR,,,,,,,,,,,,SPECI,1582.0
KDVK 130635Z AUTO 01003KT 10SM CLR M10/M12 A3036 RMK AO2,KDVK,2015-02-13T06:35:00Z,37.58,-84.77,-10.0,-12.0,10,3,,10.0,30.360237,,,TRUE,TRUE,,,,,,,CLR,,,,,,,,VFR,,,,,,,,,,,,SPECI,312.0
KDPL 130635Z AUTO 32007KT 10SM CLR M01/M11 A3015 RMK AO2 T10101107,KDPL,2015-02-13T06:35:00Z,35.0,-77.97,-1.0,-10.7,320,7,,10.0,30.15059,,,TRUE,TRUE,,,,,,,CLR,,,,,,,,VFR,,,,,,,,,,,,METAR,42.0
KD57 130635Z AUTO 00000KT 10SM FEW070 M07/M09 A3006 RMK AO2,KD57,2015-02-13T06:35:00Z,46.82,-101.87,-7.0,-9.0,0,0,,10.0,30.059055,,,TRUE,TRUE,,,,,,,FEW,7000,,,,,,,VFR,,,,,,,,,,,,METAR,637.0
KLHM 130635Z AUTO 03003KT 10SM CLR 08/08 A3015 RMK AO1,KLHM,2015-02-13T06:35:00Z,38.92,-121.35,8.0,8.0,30,3,,10.0,30.15059,,,TRUE,TRUE,,,,,,,CLR,,,,,,,,VFR,,,,,,,,,,,,SPECI,37.0
KLHB 130635Z AUTO 00000KT 10SM CLR 04/00 A3038 RMK AO2 T00440003,KLHB,2015-02-13T06:35:00Z,30.87,-96.62,4.4,0.3,0,0,,10.0,30.380905,,,TRUE,TRUE,,,,,,,CLR,,,,,,,,VFR,,,,,,,,,,,,SPECI,87.0
KLBE 130635Z AUTO 29005KT 10SM CLR M15/M19 A3026 RMK AO2,KLBE,2015-02-13T06:35:00Z,40.27,-79.4,-15.0,-19.0,290,5,,10.0,30.259842,,,TRUE,TRUE,,,,,,,CLR,,,,,,,,VFR,,,,,,,,,,,,SPECI,361.0
KL18 130635Z AUTO 36004KT 10SM CLR 18/M03 A3005 RMK AO2,KL18,2015-02-13T06:35:00Z,33.35,-117.25,18.0,-3.0,360,4,,10.0,30.050198,,,TRUE,TRUE,,,,,,,CLR,,,,,,,,VFR,,,,,,,,,,,,SPECI,216.0
KJQF 130635Z AUTO 33005KT 10SM CLR M03/M12 A3023 RMK AO2,KJQF,2015-02-13T06:35:00Z,35.38,-80.72,-3.0,-12.0,330,5,,10.0,30.230314,,,TRUE,TRUE,,,,,,,CLR,,,,,,,,VFR,,,,,,,,,,,,SPECI,210.0
KJKA 130635Z AUTO 01007KT 10SM CLR 03/M05 A3026 RMK AO2 T00321050,KJKA,2015-02-13T06:35:00Z,30.28,-87.67,3.2,-5.0,10,7,,10.0,30.259842,,,TRUE,TRUE,,,,,,,CLR,,,,,,,,VFR,,,,,,,,,,,,SPECI,5.0
KJDD 130635Z AUTO 00000KT 10SM CLR 02/M02 A3038 RMK AO2,KJDD,2015-02-13T06:35:00Z,32.75,-95.5,2.0,-2.0,0,0,,10.0,30.380905,,,TRUE,TRUE,,,,,,,CLR,,,,,,,,VFR,,,,,,,,,,,,SPECI,132.0
KIPJ 130635Z AUTO 32004KT 10SM CLR M03/M14 A3019 RMK AO2 T10351141,KIPJ,2015-02-13T06:35:00Z,35.48,-81.17,-3.5,-14.1,320,4,,10.0,30.188976,,,TRUE,TRUE,,,,,,,CLR,,,,,,,,VFR,,,,,,,,,,,,SPECI,267.0
KIGQ 130635Z AUTO 00000KT 10SM CLR M14/M19 A3041 RMK AO2 T11431186,KIGQ,2015-02-13T06:35:00Z,41.53,-87.53,-14.3,-18.6,0,0,,10.0,30.410433,,,TRUE,TRUE,,,,,,,CLR,,,,,,,,VFR,,,,,,,,,,,,SPECI,188.0
PAUT 130635Z AUTO 10SM BKN038 OVC043 03/02 A2923 RMK AO2 T00300017,PAUT,2015-02-13T06:35:00Z,54.15,-165.6,3.0,1.7,,,,10.0,29.22933,,,TRUE,TRUE,,,,,,,BKN,3800,OVC,4300,,,,,VFR,,,,,,,,,,,,SPECI,25.0
KPCM 130635Z AUTO 31003KT 10SM CLR A3010 RMK AO2,KPCM,2015-02-13T06:35:00Z,28.0,-82.17,,,310,3,,10.0,30.100393,,,TRUE,TRUE,,,,,,,CLR,,,,,,,,VFR,,,,,,,,,,,,METAR,47.0
KADM 130635Z AUTO 00000KT 10SM CLR M01/M04 A3036 RMK AO2 T10131041,KADM,2015-02-13T06:35:00Z,34.28,-97.02,-1.3,-4.1,0,0,,10.0,30.360237,,,TRUE,TRUE,,,,,,,CLR,,,,,,,,VFR,,,,,,,,,,,,SPECI,232.0
KLRJ 130635Z AUTO 18009KT 10SM OVC048 M08/M11 A3022 RMK AO2,KLRJ,2015-02-13T06:35:00Z,42.77,-96.2,-8.0,-11.0,180,9,,10.0,30.221457,,,TRUE,TRUE,,,,,,,OVC,4800,,,,,,,VFR,,,,,,,,,,,,SPECI,365.0
KJYM 130634Z AUTO 00000KT 10SM CLR M17/M20 A3032 RMK AO2 T11711203,KJYM,2015-02-13T06:34:00Z,41.92,-84.58,-17.1,-20.3,0,0,,10.0,30.318897,,,TRUE,TRUE,,,,,,,CLR,,,,,,,,VFR,,,,,,,,,,,,METAR,360.0
KISQ 130634Z AUTO 29005KT 10SM CLR M18/M22 A3029 RMK AO2 T11841220,KISQ,2015-02-13T06:34:00Z,45.97,-86.17,-18.4,-22.0,290,5,,10.0,30.28937,,,TRUE,TRUE,,,,,,,CLR,,,,,,,,VFR,,,,,,,,,,,,METAR,209.0
KIRS 130634Z AUTO 00000KT 10SM OVC035 M12/M17 A3035 RMK AO2,KIRS,2015-02-13T06:34:00Z,41.8,-85.43,-12.0,-17.0,0,0,,10.0,30.351377,,,TRUE,TRUE,,,,,,,OVC,3500,,,,,,,VFR,,,,,,,,,,,,METAR,282.0
KGOV 130634Z AUTO 00000KT 7SM OVC026 M24/M27 A3027 RMK AO2 T12411272,KGOV,2015-02-13T06:34:00Z,44.68,-84.73,-24.1,-27.2,0,0,,7.0,30.268702,,,TRUE,TRUE,,,,,,,OVC,2600,,,,,,,MVFR,,,,,,,,,,,,METAR,353.0
KFFX 130634Z AUTO 00000KT 10SM OVC034 M14/M16 A3033 RMK AO2 T11431162,KFFX,2015-02-13T06:34:00Z,43.43,-86.0,-14.3,-16.2,0,0,,10.0,30.33071,,,TRUE,TRUE,,,,,,,OVC,3400,,,,,,,VFR,,,,,,,,,,,,METAR,236.0
KERY 130634Z AUTO 23005KT 7SM OVC036 M16/M18 A3024 RMK AO2 T11651178,KERY,2015-02-13T06:34:00Z,46.3,-85.45,-16.5,-17.8,230,5,,7.0,30.239174,,,TRUE,TRUE,,,,,,,OVC,3600,,,,,,,VFR,,,,,,,,,,,,METAR,265.0
KDUH 130634Z AUTO 00000KT 10SM CLR M17/M21 A3038 RMK AO2,KDUH,2015-02-13T06:34:00Z,41.73,-83.65,-17.0,-21.0,0,0,,10.0,30.380905,,,TRUE,TRUE,,,,,,,CLR,,,,,,,,VFR,,,,,,,,,,,,METAR,204.0
KDRM 130634Z AUTO 00000KT 10SM CLR M27/M30 A3029 RMK AO2 T12731298,KDRM,2015-02-13T06:34:00Z,46.0,-83.75,-27.3,-29.8,0,0,,10.0,30.28937,,,TRUE,TRUE,,,,,,,CLR,,,,,,,,VFR,,,,,,,,,,,,METAR,204.0
KCVX 130634Z AUTO 27005KT 10SM SCT019 OVC032 M12/M16 A3033 RMK AO2 T11221157,KCVX,2015-02-13T06:34:00Z,45.3,-85.27,-12.2,-15.7,270,5,,10.0,30.33071,,,TRUE,TRUE,,,,,,,SCT,1900,OVC,3200,,,,,VFR,,,,,,,,,,,,METAR,204.0
KCKN 130634Z AUTO 22012KT 10SM OVC013 M12/M13 A3010 RMK AO2,KCKN,2015-02-13T06:34:00Z,47.85,-96.62,-12.0,-13.0,220,12,,10.0,30.100393,,,TRUE,TRUE,,,,,,,OVC,1300,,,,,,,MVFR,,,,,,,,,,,,METAR,273.0
KCKC 130634Z AUTO 21004KT 10SM SCT080 OVC090 M18/M24 A3007 RMK AO2,KCKC,2015-02-13T06:34:00Z,47.83,-90.37,-18.0,-24.0,210,4,,10.0,30.070866,,,TRUE,TRUE,,,,,,,SCT,8000,OVC,9000,,,,,VFR,,,,,,,,,,,,METAR,548.0
KCFS 130634Z AUTO 00000KT 10SM CLR M22/M25 A3033 RMK AO2 T12201247,KCFS,2015-02-13T06:34:00Z,43.47,-83.45,-22.0,-24.7,0,0,,10.0,30.33071,,,TRUE,TRUE,,,,,,,CLR,,,,,,,,VFR,,,,,,,,,,,,METAR,214.0
KBAX 130634Z AUTO 00000KT 10SM CLR M20/M23 A3032 RMK AO2 T12031235,KBAX,2015-02-13T06:34:00Z,43.78,-82.98,-20.3,-23.5,0,0,,10.0,30.318897,,,TRUE,TRUE,,,,,,,CLR,,,,,,,,VFR,,,,,,,,,,,,METAR,234.0
KRQB 130634Z AUTO 00000KT 10SM SCT032 M17/M18 A3031 RMK AO2 T11711184,KRQB,2015-02-13T06:34:00Z,43.72,-85.5,-17.1,-18.4,0,0,,10.0,30.31004,,,TRUE,TRUE,,,,,,,SCT,3200,,,,,,,VFR,,,,,,,,,,,,METAR,302.0
KPZQ 130634Z AUTO 25005KT 10SM SCT028 M20/M22 A3032 RMK AO2 T12021220,KPZQ,2015-02-13T06:34:00Z,45.4,-83.82,-20.2,-22.0,250,5,,10.0,30.318897,,,TRUE,TRUE,,,,,,,SCT,2800,,,,,,,VFR,,,,,,,,,,,,SPECI,204.0
KOZW 130634Z AUTO 30003KT 10SM CLR M17/M21 A3032 RMK AO2 T11731211,KOZW,2015-02-13T06:34:00Z,42.62,-83.97,-17.3,-21.1,300,3,,10.0,30.318897,,,TRUE,TRUE,,,,,,,CLR,,,,,,,,VFR,,,,,,,,,,,,METAR,293.0
KOEB 130634Z AUTO 00000KT 10SM OVC031 M14/M18 A3035 RMK AO2 T11361185,KOEB,2015-02-13T06:34:00Z,41.92,-85.03,-13.6,-18.5,0,0,,10.0,30.351377,,,TRUE,TRUE,,,,,,,OVC,3100,,,,,,,VFR,,,,,,,,,,,,METAR,292.0
KMZH 130634Z AUTO 20004KT 10SM OVC075 M15/M20 A3018 RMK AO2,KMZH,2015-02-13T06:34:00Z,46.42,-92.8,-15.0,-20.0,200,4,,10.0,30.180119,,,TRUE,TRUE,,,,,,,OVC,7500,,,,,,,VFR,,,,,,,,,,,,METAR,328.0
KBTV 130634Z 33013KT 2SM -SN OVC016 M17/M21 A2997 RMK AO2 P0000 T11671211,KBTV,2015-02-13T06:34:00Z,44.47,-73.15,-16.7,-21.1,330,13,,2.0,29.970472,,,,TRUE,,,,,,-SN,OVC,1600,,,,,,,IFR,,,,,,0.0050,,,,,,METAR,105.0
KBFW 130634Z AUTO 00000KT 10SM SCT060 BKN070 OVC090 M14/M21 A3014 RMK AO2,KBFW,2015-02-13T06:34:00Z,47.25,-91.4,-14.0,-21.0,0,0,,10.0,30.138779,,,TRUE,TRUE,,,,,,,SCT,6000,BKN,7000,OVC,9000,,,VFR,,,,,,,,,,,,METAR,331.0
K7BM 130634Z AUTO 34005KT 10SM CLR 02/M09 A3038 RMK AO2,K7BM,2015-02-13T06:34:00Z,38.78,-106.22,2.0,-9.0,340,5,,10.0,30.380905,,,TRUE,TRUE,,,,,,,CLR,,,,,,,,VFR,,,,,,,,,,,,METAR,2995.0
K04V 130634Z AUTO 02004KT 10SM CLR 01/M07 A3036 RMK AO2,K04V,2015-02-13T06:34:00Z,38.1,-106.17,1.0,-7.0,20,4,,10.0,30.360237,,,TRUE,TRUE,,,,,,,CLR,,,,,,,,VFR,,,,,,,,,,,,METAR,2385.0
KLMO 130634Z AUTO 19003KT 10SM OVC110 05/M04 A3023 RMK AO2 T00481037,KLMO,2015-02-13T06:34:00Z,40.17,-105.17,4.8,-3.7,190,3,,10.0,30.230314,,,TRUE,TRUE,,,,,,,OVC,11000,,,,,,,VFR,,,,,,,,,,,,METAR,1541.0
CYPA 130634Z 00000KT 15SM SCT015 BKN076 M11/M13 A3011 RMK SC3AC4 SLP234,CYPA,2015-02-13T06:34:00Z,53.22,-105.67,-11.0,-13.0,0,0,,15.0,30.109253,1023.4,,,,,,,,,,SCT,1500,BKN,7600,,,,,VFR,,,,,,,,,,,,SPECI,428.0
KVVV 130634Z AUTO 00000KT 10SM OVC036 M09/M12 A3016 RMK AO2,KVVV,2015-02-13T06:34:00Z,45.3,-96.42,-9.0,-12.0,0,0,,10.0,30.159449,,,TRUE,TRUE,,,,,,,OVC,3600,,,,,,,VFR,,,,,,,,,,,,METAR,335.0
KTWM 130634Z AUTO 22005KT 10SM BKN070 OVC080 M14/M20 A3015 RMK AO2,KTWM,2015-02-13T06:34:00Z,47.03,-91.75,-14.0,-20.0,220,5,,10.0,30.15059,,,TRUE,TRUE,,,,,,,BKN,7000,OVC,8000,,,,,VFR,,,,,,,,,,,,METAR,328.0
KTOB 130634Z AUTO 18010KT 10SM SCT080 SCT095 M15/M17 A3022 RMK AO2,KTOB,2015-02-13T06:34:00Z,44.02,-92.82,-15.0,-17.0,180,10,,10.0,30.221457,,,TRUE,TRUE,,,,,,,SCT,8000,SCT,9500,,,,,VFR,,,,,,,,,,,,METAR,398.0
KTEW 130634Z AUTO 00000KT 10SM CLR M21/M24 A3034 RMK AO2 T12111237,KTEW,2015-02-13T06:34:00Z,42.57,-84.42,-21.1,-23.7,0,0,,10.0,30.339567,,,TRUE,TRUE,,,,,,,CLR,,,,,,,,VFR,,,,,,,,,,,,METAR,280.0
KSYN 130634Z AUTO 18005KT 10SM CLR M13/M17 A3023 RMK AO2 T11321168,KSYN,2015-02-13T06:34:00Z,44.47,-93.02,-13.2,-16.8,180,5,,10.0,30.230314,,,TRUE,TRUE,,,,,,,CLR,,,,,,,,VFR,,,,,,,,,,,,SPECI,280.0
KRZT 130634Z AUTO 00000KT 10SM CLR M14/M17 A3037 RMK AO2,KRZT,2015-02-13T06:34:00Z,39.43,-83.02,-14.0,-17.0,0,0,,10.0,30.369095,,,TRUE,TRUE,,,,,,,CLR,,,,,,,,VFR,,,,,,,,,,,,METAR,221.0
KRRT 130634Z AUTO 22007KT 5SM -SN OVC015 M14/M16 A3002 RMK AO2,KRRT,2015-02-13T06:34:00Z,48.93,-95.33,-14.0,-16.0,220,7,,5.0,30.02067,,,TRUE,TRUE,,,,,,-SN,OVC,1500,,,,,,,MVFR,,,,,,,,,,,,METAR,327.0
KROX 130634Z AUTO 22013KT 5SM -SN OVC014 M13/M16 A3002 RMK AO2,KROX,2015-02-13T06:34:00Z,48.85,-95.7,-13.0,-16.0,220,13,,5.0,30.02067,,,TRUE,TRUE,,,,,,-SN,OVC,1400,,,,,,,MVFR,,,,,,,,,,,,METAR,323.0
KPWC 130634Z AUTO 15003KT 7SM -SN BKN030 OVC038 M14/M16 A3015 RMK AO2,KPWC,2015-02-13T06:34:00Z,46.72,-94.37,-14.0,-16.0,150,3,,7.0,30.15059,,,TRUE,TRUE,,,,,,-SN,BKN,3000,OVC,3800,,,,,MVFR,,,,,,,,,,,,METAR,395.0
KPQN 130634Z AUTO 21011KT 10SM OVC032 M09/M12 A3014 RMK AO2,KPQN,2015-02-13T06:34:00Z,43.97,-96.32,-9.0,-12.0,210,11,,10.0,30.138779,,,TRUE,TRUE,,,,,,,OVC,3200,,,,,,,VFR,,,,,,,,,,,,METAR,529.0
KPNM 130634Z AUTO 18005KT 10SM OVC043 M13/M17 A3020 RMK AO2,KPNM,2015-02-13T06:34:00Z,45.57,-93.6,-13.0,-17.0,180,5,,10.0,30.200787,,,TRUE,TRUE,,,,,,,OVC,4300,,,,,,,VFR,,,,,,,,,,,,METAR,298.0
KPEX 130634Z AUTO 14005KT 10SM BKN033 OVC042 M12/M14 A3017 RMK AO2 T11211141,KPEX,2015-02-13T06:34:00Z,45.37,-94.73,-12.1,-14.1,140,5,,10.0,30.171259,,,TRUE,TRUE,,,,,,,BKN,3300,OVC,4200,,,,,VFR,,,,,,,,,,,,METAR,360.0
KONZ 130634Z AUTO 31007KT 10SM CLR M15/M20 A3034 RMK AO2,KONZ,2015-02-13T06:34:00Z,42.1,-83.15,-15.0,-20.0,310,7,,10.0,30.339567,,,TRUE,TRUE,,,,,,,CLR,,,,,,,,VFR,,,,,,,,,,,,METAR,180.0
KI69 130634Z AUTO 00000KT 10SM OVC038 M07/M13 A3036 RMK AO1,KI69,2015-02-13T06:34:00Z,39.08,-84.22,-7.0,-13.0,0,0,,10.0,30.360237,,,TRUE,TRUE,,,,,,,OVC,3800,,,,,,,VFR,,,,,,,,,,,,METAR,255.0
KHCO 130634Z AUTO 20012KT 10SM OVC014 M13/M15 A3004 RMK AO2,KHCO,2015-02-13T06:34:00Z,48.75,-96.93,-13.0,-15.0,200,12,,10.0,30.041338,,,TRUE,TRUE,,,,,,,OVC,1400,,,,,,,MVFR,,,,,,,,,,,,METAR,250.0
KGYL 130634Z AUTO 18006KT 10SM BKN039 OVC090 M10/M12 A3020 RMK AO2 T11041125,KGYL,2015-02-13T06:34:00Z,44.77,-94.08,-10.4,-12.5,180,6,,10.0,30.200787,,,TRUE,TRUE,,,,,,,BKN,3900,OVC,9000,,,,,VFR,,,,,,,,,,,,METAR,302.0
KFGN 130634Z AUTO 22007KT 10SM OVC017 M15/M18 A3001 RMK AO2,KFGN,2015-02-13T06:34:00Z,49.32,-94.9,-15.0,-18.0,220,7,,10.0,30.008858,,,TRUE,TRUE,,,,,,,OVC,1700,,,,,,,MVFR,,,,,,,,,,,,METAR,328.0
KFFM 130634Z AUTO 20011KT 10SM OVC025 M11/M13 A3016 RMK AO2,KFFM,2015-02-13T06:34:00Z,46.28,-96.15,-11.0,-13.0,200,11,,10.0,30.159449,,,TRUE,TRUE,,,,,,,OVC,2500,,,,,,,MVFR,,,,,,,,,,,,METAR,361.0
KFBL 130634Z AUTO 17007KT 10SM CLR M14/M16 A3024 RMK AO2,KFBL,2015-02-13T06:34:00Z,44.33,-93.32,-14.0,-16.0,170,7,,10.0,30.239174,,,TRUE,TRUE,,,,,,,CLR,,,,,,,,VFR,,,,,,,,,,,,METAR,322.0
KDYT 130634Z AUTO 00000KT 10SM SCT070 OVC085 M14/M21 A3024 RMK AO2,KDYT,2015-02-13T06:34:00Z,46.72,-92.03,-14.0,-21.0,0,0,,10.0,30.239174,,,TRUE,TRUE,,,,,,,SCT,7000,OVC,8500,,,,,VFR,,,,,,,,,,,,METAR,186.0
KDXX 130634Z AUTO 20008KT 10SM OVC036 M06/M09 A3015 RMK AO2,KDXX,2015-02-13T06:34:00Z,44.98,-96.18,-6.0,-9.0,200,8,,10.0,30.15059,,,TRUE,TRUE,,,,,,,OVC,3600,,,,,,,VFR,,,,,,,,,,,,METAR,330.0
KBBB 130634Z AUTO 22007KT 10SM OVC039 M09/M12 A3016 RMK AO2,KBBB,2015-02-13T06:34:00Z,45.32,-95.65,-9.0,-12.0,220,7,,10.0,30.159449,,,TRUE,TRUE,,,,,,,OVC,3900,,,,,,,VFR,,,,,,,,,,,,METAR,317.0
KANE 130634Z AUTO 18006KT 10SM OVC085 M12/M15 A3022 RMK AO2,KANE,2015-02-13T06:34:00Z,45.15,-93.22,-12.0,-15.0,180,6,,10.0,30.221457,,,TRUE,TRUE,,,,,,,OVC,8500,,,,,,,VFR,,,,,,,,,,,,METAR,278.0
KAIT 130634Z AUTO 19004KT 3SM -SN SCT006 BKN022 OVC055 M13/M17 A3014 RMK AO2,KAIT,2015-02-13T06:34:00Z,46.53,-93.67,-13.0,-17.0,190,4,,3.0,30.138779,,,TRUE,TRUE,,,,,,-SN,SCT,600,BKN,2200,OVC,5500,,,MVFR,,,,,,,,,,,,METAR,367.0
K04W 130634Z AUTO 18007KT 10SM BKN075 OVC095 M14/M18 A3020 RMK AO2,K04W,2015-02-13T06:34:00Z,46.02,-92.9,-14.0,-18.0,180,7,,10.0,30.200787,,,TRUE,TRUE,,,,,,,BKN,7500,OVC,9500,,,,,VFR,,,,,,,,,,,,METAR,311.0
CZUM 130634Z AUTO 06012KT 2 1/4SM -SN OVC022 M23/M26 A2970 RMK SLP108,CZUM,2015-02-13T06:34:00Z,53.53,-64.08,-23.0,-26.0,60,12,,2.25,29.698818,1010.8,,TRUE,,,,,,,-SN,OVC,2200,,,,,,,IFR,,,,,,,,,,,,SPECI,440.0
YESP 130634Z AUTO 30015G28KT 9999 // SCT089 OVC115 31/12 Q1008,YESP,2015-02-13T06:34:00Z,-33.68,121.82,31.0,12.0,300,15,28,6.21,29.763779,,,TRUE,,,,,,,,SCT,8900,OVC,11500,,,,,VFR,,,,,,,,,,,,SPECI,143.0
CYNM 130634Z AUTO 28007KT 8SM -SN CLR M34/M37 A3011 RMK SLP238,CYNM,2015-02-13T06:34:00Z,49.77,-77.82,-34.0,-37.0,280,7,,8.0,30.109253,1023.8,,TRUE,,,,,,,-SN,CLR,,,,,,,,VFR,,,,,,,,,,,,SPECI,281.0
RJOT 130633Z 30015G25KT 9999 FEW030 BKN045 04/M08 Q1011 RMK 1CU030 5CU045 A2988,RJOT,2015-02-13T06:33:00Z,34.22,134.02,4.0,-8.0,300,15,25,6.21,29.852362,,,,,,,,,,,FEW,3000,BKN,4500,,,,,VFR,,,,,,,,,,,,SPECI,188.0
KQIR 130633Z AUTO 04009KT 5000 HZ FEW120 SCT170 SCT190 SCT220 22/18 A3003 RMK AO2,KQIR,2015-02-13T06:33:00Z,100.65,-1000.65,22.0,18.0,40,9,,3.11,30.029528,,,TRUE,TRUE,,,,,,HZ,FEW,12000,SCT,17000,SCT,19000,SCT,22000,MVFR,,,,,,,,,,,,SPECI,999.0
KCNB 130633Z AUTO 20006KT 10SM OVC036 M08/M11 A3014 RMK AO2 T10761113,KCNB,2015-02-13T06:33:00Z,44.73,-96.27,-7.6,-11.3,200,6,,10.0,30.138779,,,TRUE,TRUE,,,,,,,OVC,3600,,,,,,,VFR,,,,,,,,,,,,METAR,364.0
KY70 130633Z AUTO 00000KT 10SM OVC030 M14/M18 A3034 RMK AO2 T11451177 PWINO,KY70,2015-02-13T06:33:00Z,42.93,-85.07,-14.5,-17.7,0,0,,10.0,30.339567,,,TRUE,TRUE,,,,,TRUE,,OVC,3000,,,,,,,MVFR,,,,,,,,,,,,METAR,250.0
KY63 130633Z AUTO 19010KT 10SM OVC028 M10/M12 A3013 RMK AO2 T11051120,KY63,2015-02-13T06:33:00Z,45.98,-96.0,-10.5,-12.0,190,10,,10.0,30.129921,,,TRUE,TRUE,,,,,,,OVC,2800,,,,,,,MVFR,,,,,,,,,,,,METAR,367.0
KULM 130633Z AUTO 19013KT 10SM BKN060 OVC095 M09/M13 A3020 RMK AO2,KULM,2015-02-13T06:33:00Z,44.32,-94.5,-9.0,-13.0,190,13,,10.0,30.200787,,,TRUE,TRUE,,,,,,,BKN,6000,OVC,9500,,,,,VFR,,,,,,,,,,,,METAR,308.0
KTKC 130633Z AUTO 21016G21KT 10SM OVC046 M08/M11 A3014 RMK AO2 T10781110,KTKC,2015-02-13T06:33:00Z,44.25,-95.62,-7.8,-11.0,210,16,21,10.0,30.138779,,,TRUE,TRUE,,,,,,,OVC,4600,,,,,,,VFR,,,,,,,,,,,,SPECI,408.0
KSAZ 130633Z AUTO 17006KT 10SM BKN031 OVC048 M13/M16 A3011 RMK AO2,KSAZ,2015-02-13T06:33:00Z,46.37,-94.8,-13.0,-16.0,170,6,,10.0,30.109253,,,TRUE,TRUE,,,,,,,BKN,3100,OVC,4800,,,,,VFR,,,,,,,,,,,,METAR,392.0
KRMY 130633Z AUTO 00000KT 10SM OVC030 M19/M22 A3034 RMK AO2 T11921218,KRMY,2015-02-13T06:33:00Z,42.23,-84.95,-19.2,-21.8,0,0,,10.0,30.339567,,,TRUE,TRUE,,,,,,,OVC,3000,,,,,,,MVFR,,,,,,,,,,,,METAR,287.0
KPCW 130633Z AUTO 28007KT 10SM CLR M14/M19 A3035 RMK AO2 $,KPCW,2015-02-13T06:33:00Z,41.52,-82.87,-14.0,-19.0,280,7,,10.0,30.351377,,,TRUE,TRUE,TRUE,,,,,,CLR,,,,,,,,VFR,,,,,,,,,,,,METAR,178.0
KOVL 130633Z AUTO 20011G14KT 10SM OVC060 M09/M11 A3017 RMK AO2,KOVL,2015-02-13T06:33:00Z,44.78,-95.03,-9.0,-11.0,200,11,14,10.0,30.171259,,,TRUE,TRUE,,,,,,,OVC,6000,,,,,,,VFR,,,,,,,,,,,,METAR,328.0
KOSC 130633Z AUTO 28005KT 10SM CLR M21/M25 A3032 RMK AO2 T12171249,KOSC,2015-02-13T06:33:00Z,44.45,-83.4,-21.7,-24.9,280,5,,10.0,30.318897,,,TRUE,TRUE,,,,,,,CLR,,,,,,,,VFR,,,,,,,,,,,,SPECI,193.0
KMWM 130633Z AUTO 18011G14KT 10SM OVC048 M09/M12 A3016 RMK AO2,KMWM,2015-02-13T06:33:00Z,43.9,-95.1,-9.0,-12.0,180,11,14,10.0,30.159449,,,TRUE,TRUE,,,,,,,OVC,4800,,,,,,,VFR,,,,,,,,,,,,METAR,430.0
KMVE 130633Z AUTO 23007KT 10SM BKN036 OVC050 M08/M11 A3017 RMK AO2,KMVE,2015-02-13T06:33:00Z,44.97,-95.72,-8.0,-11.0,230,7,,10.0,30.171259,,,TRUE,TRUE,,,,,,,BKN,3600,OVC,5000,,,,,VFR,,,,,,,,,,,,METAR,315.0
KMRT 130633Z AUTO 00000KT 10SM SCT036 M14/M17 A3035 RMK AO2 T11401171,KMRT,2015-02-13T06:33:00Z,40.22,-83.35,-14.0,-17.1,0,0,,10.0,30.351377,,,TRUE,TRUE,,,,,,,SCT,3600,,,,,,,VFR,,,,,,,,,,,,METAR,312.0
KMOX 130633Z AUTO 20007KT 10SM OVC034 M09/M12 A3015 RMK AO2,KMOX,2015-02-13T06:33:00Z,45.57,-95.97,-9.0,-12.0,200,7,,10.0,30.15059,,,TRUE,TRUE,,,,,,,OVC,3400,,,,,,,VFR,,,,,,,,,,,,METAR,344.0
KMJQ 130633Z AUTO 18012KT 10SM SCT033 OVC050 M08/M11 A3019 RMK AO2,KMJQ,2015-02-13T06:33:00Z,43.63,-94.97,-8.0,-11.0,180,12,,10.0,30.188976,,,TRUE,TRUE,,,,,,,SCT,3300,OVC,5000,,,,,VFR,,,,,,,,,,,,METAR,441.0
KLXL 130633Z AUTO 16004KT 10SM -SN OVC031 M13/M16 A3016 RMK AO2,KLXL,2015-02-13T06:33:00Z,45.95,-94.33,-13.0,-16.0,160,4,,10.0,30.159449,,,TRUE,TRUE,,,,,,-SN,OVC,3100,,,,,,,VFR,,,,,,,,,,,,METAR,342.0
KIMS 130633Z AUTO 31004KT 10SM OVC032 M07/M12 A3040 RMK AO1,KIMS,2015-02-13T06:33:00Z,38.75,-85.47,-7.0,-12.0,310,4,,10.0,30.398623,,,TRUE,TRUE,,,,,,,OVC,3200,,,,,,,VFR,,,,,,,,,,,,METAR,250.0
KIKW 130633Z AUTO 00000KT 10SM CLR M21/M24 A3035 RMK AO2 T12111237,KIKW,2015-02-13T06:33:00Z,43.67,-84.27,-21.1,-23.7,0,0,,10.0,30.351377,,,TRUE,TRUE,,,,,,,CLR,,,,,,,,VFR,,,,,,,,,,,,SPECI,194.0
KHCD 130633Z AUTO 17007KT 10SM OVC038 M10/M12 A3019 RMK AO2 T10961120,KHCD,2015-02-13T06:33:00Z,44.87,-94.38,-9.6,-12.0,170,7,,10.0,30.188976,,,TRUE,TRUE,,,,,,,OVC,3800,,,,,,,VFR,,,,,,,,,,,,METAR,323.0
KGHW 130633Z AUTO 19011KT 10SM OVC034 M11/M13 A3014 RMK AO2,KGHW,2015-02-13T06:33:00Z,45.63,-95.32,-11.0,-13.0,190,11,,10.0,30.138779,,,TRUE,TRUE,,,,,,,OVC,3400,,,,,,,VFR,,,,,,,,,,,,METAR,425.0
KGDB 130633Z AUTO 18011KT 10SM OVC050 M08/M11 A3018 RMK AO2 T10831111,KGDB,2015-02-13T06:33:00Z,44.75,-95.55,-8.3,-11.1,180,11,,10.0,30.180119,,,TRUE,TRUE,,,,,,,OVC,5000,,,,,,,VFR,,,,,,,,,,,,METAR,319.0
KELO 130633Z AUTO 21006KT 10SM OVC070 M16/M22 A3008 RMK AO2,KELO,2015-02-13T06:33:00Z,47.82,-91.82,-16.0,-22.0,210,6,,10.0,30.079725,,,TRUE,TRUE,,,,,,,OVC,7000,,,,,,,VFR,,,,,,,,,,,,METAR,443.0
KD95 130633Z AUTO 00000KT 10SM CLR M18/M22 A3032 RMK AO2 T11821220,KD95,2015-02-13T06:33:00Z,43.07,-83.27,-18.2,-22.0,0,0,,10.0,30.318897,,,TRUE,TRUE,,,,,,,CLR,,,,,,,,VFR,,,,,,,,,,,,METAR,255.0
KAEL 130633Z AUTO 19007KT 10SM SCT055 M12/M15 A3023 RMK AO2,KAEL,2015-02-13T06:33:00Z,43.68,-93.37,-12.0,-15.0,190,7,,10.0,30.230314,,,TRUE,TRUE,,,,,,,SCT,5500,,,,,,,VFR,,,,,,,,,,,,METAR,383.0
K9MN 130633Z AUTO 16005KT 10SM CLR M16/M19 A3026 RMK AO1 T11601193,K9MN,2015-02-13T06:33:00Z,44.02,-92.48,-16.0,-19.3,160,5,,10.0,30.259842,,,TRUE,TRUE,,,,,,,CLR,,,,,,,,VFR,,,,,,,,,,,,SPECI,355.0
PATK 130633Z AUTO 36003KT 10SM BKN029 OVC040 M01/M04 A2971 RMK AO2 T10111039 TSNO,PATK,2015-02-13T06:33:00Z,62.3,-150.1,-1.1,-3.9,360,3,,10.0,29.71063,,,TRUE,TRUE,,,TRUE,,,,BKN,2900,OVC,4000,,,,,MVFR,,,,,,,,,,,,METAR,109.0
EBDT 130633Z 16005KT 3500 FEW160 M01/M02 Q1016 BLACKYLO YLO BECMG GRN,EBDT,2015-02-13T06:33:00Z,51.02,5.07,-1.0,-2.0,160,5,,2.17,30.0,,,,,,,,,,,FEW,16000,,,,,,,IFR,,,,,,,,,,,,METAR,54.0
KORB 130633Z AUTO 19006KT 10SM -SN BKN034 OVC060 M15/M22 A3004 RMK AO2,KORB,2015-02-13T06:33:00Z,48.02,-92.87,-15.0,-22.0,190,6,,10.0,30.041338,,,TRUE,TRUE,,,,,,-SN,BKN,3400,OVC,6000,,,,,VFR,,,,,,,,,,,,METAR,397.0
KJST 130633Z AUTO 30014KT 1SM -SN FEW008 OVC013 M17/M21 A3005 RMK AO2 P0000 T11721206,KJST,2015-02-13T06:33:00Z,40.32,-78.83,-17.2,-20.6,300,14,,1.0,30.050198,,,TRUE,TRUE,,,,,,-SN,FEW,800,OVC,1300,,,,,IFR,,,,,,0.0050,,,,,,METAR,694.0
KFWA 130633Z 00000KT 1 1/4SM -SN OVC012 M09/M13 A3038 RMK AO2 VIS 3/4V2 P0001 T10941128,KFWA,2015-02-13T06:33:00Z,40.98,-85.18,-9.4,-12.8,0,0,,1.25,30.380905,,,,TRUE,,,,,,-SN,OVC,1200,,,,,,,IFR,,,,,,0.01,,,,,,METAR,248.0
KFOZ 130633Z AUTO 20010KT 3SM -SN BKN016 OVC048 M14/M18 A3007 RMK AO2 TSNO,KFOZ,2015-02-13T06:33:00Z,47.77,-93.65,-14.0,-18.0,200,10,,3.0,30.070866,,,TRUE,TRUE,,,TRUE,,,-SN,BKN,1600,OVC,4800,,,,,MVFR,,,,,,,,,,,,METAR,411.0
KDVP 130633Z AUTO 19012KT 10SM OVC041 M09/M12 A3015 RMK AO2 T10921118,KDVP,2015-02-13T06:33:00Z,43.98,-95.78,-9.2,-11.8,190,12,,10.0,30.15059,,,TRUE,TRUE,,,,,,,OVC,4100,,,,,,,VFR,,,,,,,,,,,,METAR,495.0
ETSA 130633Z 19001KT 3000 VCFG M10/M11 Q1020 YLO YLO TEMPO RED,ETSA,2015-02-13T06:33:00Z,48.07,10.9,-10.0,-11.0,190,1,,1.86,30.11811,,,,,,,,,,VCFG,,,,,,,,,,,,,,,,,,,,,SPECI,628.0
CYBK 130633Z 34020KT 15SM DRSN FEW100 M38/M43 A3029 RMK AC1 SLP262,CYBK,2015-02-13T06:33:00Z,64.28,-96.07,-38.0,-43.0,340,20,,15.0,30.28937,1026.2,,,,,,,,,DRSN,FEW,10000,,,,,,,VFR,,,,,,,,,,,,SPECI,18.0
KFLY 130632Z AUTO 28005KT 10SM CLR M01/M08 A3028 RMK AO2 T10081076,KFLY,2015-02-13T06:32:00Z,38.95,-104.57,-0.8,-7.6,280,5,,10.0,30.280512,,,TRUE,TRUE,,,,,,,CLR,,,,,,,,VFR,,,,,,,,,,,,METAR,2096.0
KCPW 130632Z AUTO 04027G31KT 10SM CLR M02/M10 A3045 RMK AO2,KCPW,2015-02-13T06:32:00Z,37.45,-106.8,-2.0,-10.0,40,27,31,10.0,30.448818,,,TRUE,TRUE,,,,,,,CLR,,,,,,,,VFR,,,,,,,,,,,,METAR,3584.0
KMYP 130632Z AUTO 31003KT CLR M02/M10 A3054 RMK AO2 PWINO,KMYP,2015-02-13T06:32:00Z,38.48,-106.32,-2.0,-10.0,310,3,,,30.540354,,,TRUE,TRUE,,,,,TRUE,,CLR,,,,,,,,,,,,,,,,,,,,METAR,3667.0
KLJF 130632Z AUTO 00000KT 10SM OVC038 M11/M12 A3019 RMK AO2,KLJF,2015-02-13T06:32:00Z,45.1,-94.52,-11.0,-12.0,0,0,,10.0,30.188976,,,TRUE,TRUE,,,,,,,OVC,3800,,,,,,,VFR,,,,,,,,,,,,METAR,348.0
KD39 130632Z AUTO 18008KT 10SM OVC032 M11/M14 A3015 RMK AO2 T11121138,KD39,2015-02-13T06:32:00Z,45.7,-94.93,-11.2,-13.8,180,8,,10.0,30.15059,,,TRUE,TRUE,,,,,,,OVC,3200,,,,,,,VFR,,,,,,,,,,,,METAR,380.0
KBJI 130632Z AUTO 19005KT 5SM -SN OVC019 M14/M17 A3006 RMK AO2 T11411169,KBJI,2015-02-13T06:32:00Z,47.5,-94.92,-14.1,-16.9,190,5,,5.0,30.059055,,,TRUE,TRUE,,,,,,-SN,OVC,1900,,,,,,,MVFR,,,,,,,,,,,,METAR,420.0
KAXV 130632Z AUTO 33004KT 10SM OVC035 M09/M15 A3035 RMK AO2,KAXV,2015-02-13T06:32:00Z,40.5,-84.3,-9.0,-15.0,330,4,,10.0,30.351377,,,TRUE,TRUE,,,,,,,OVC,3500,,,,,,,VFR,,,,,,,,,,,,METAR,279.0
ETIC 130632Z AUTO VRB03KT 4000 BR OVC003 M03/M03 A3016 RMK AO2 VIS 4000V6000,ETIC,2015-02-13T06:32:00Z,49.7,11.93,-3.0,-3.0,0,3,,2.49,30.159449,,,TRUE,TRUE,,,,,,BR,OVC,300,,,,,,,LIFR,,,,,,,,,,,,SPECI,415.0
KQAY 130632Z AUTO 31007KT 3200 HZ SCT007 BKN009 OVC011 16/04 A3011 RMK AO2 SLP197 $,KQAY,2015-02-13T06:32:00Z,100.65,-1000.65,16.0,4.0,310,7,,1.99,30.109253,1019.7,,TRUE,TRUE,TRUE,,,,,HZ,SCT,700,BKN,900,OVC,1100,,,IFR,,,,,,,,,,,,SPECI,999.0
KFKS 130632Z AUTO 00000KT 10SM BKN033 M16/M18 A3032 RMK AO2 T11641178,KFKS,2015-02-13T06:32:00Z,44.63,-86.2,-16.4,-17.8,0,0,,10.0,30.318897,,,TRUE,TRUE,,,,,,,BKN,3300,,,,,,,VFR,,,,,,,,,,,,SPECI,193.0
KVWU 130631Z AUTO 19005KT 7SM -SN OVC022 M13/M16 A3005 RMK AO2,KVWU,2015-02-13T06:31:00Z,48.15,-94.52,-13.0,-16.0,190,5,,7.0,30.050198,,,TRUE,TRUE,,,,,,-SN,OVC,2200,,,,,,,MVFR,,,,,,,,,,,,METAR,360.0
KAMN 130631Z AUTO 00000KT 10SM CLR M21/M23 A3035 RMK AO2 T12091226,KAMN,2015-02-13T06:31:00Z,43.32,-84.68,-20.9,-22.6,0,0,,10.0,30.351377,,,TRUE,TRUE,,,,,,,CLR,,,,,,,,VFR,,,,,,,,,,,,METAR,230.0
KRGK 130631Z AUTO 00000KT 10SM CLR M16/M19 A3027 RMK AO2,KRGK,2015-02-13T06:31:00Z,44.58,-92.48,-16.0,-19.0,0,0,,10.0,30.268702,,,TRUE,TRUE,,,,,,,CLR,,,,,,,,VFR,,,,,,,,,,,,METAR,239.0
KSGS 130631Z AUTO 16003KT 10SM BKN090 M15/M18 A3024 RMK AO2 T11501182,KSGS,2015-02-13T06:31:00Z,44.87,-93.03,-15.0,-18.2,160,3,,10.0,30.239174,,,TRUE,TRUE,,,,,,,BKN,9000,,,,,,,VFR,,,,,,,,,,,,METAR,250.0
KJKJ 130631Z AUTO 19007KT 10SM OVC019 M10/M11 A3012 RMK AO2,KJKJ,2015-02-13T06:31:00Z,46.83,-96.67,-10.0,-11.0,190,7,,10.0,30.121063,,,TRUE,TRUE,,,,,,,OVC,1900,,,,,,,MVFR,,,,,,,,,,,,METAR,280.0
KEVM 130631Z AUTO 21007KT 10SM BKN065 M15/M21 A3011 RMK AO2,KEVM,2015-02-13T06:31:00Z,47.42,-92.5,-15.0,-21.0,210,7,,10.0,30.109253,,,TRUE,TRUE,,,,,,,BKN,6500,,,,,,,VFR,,,,,,,,,,,,METAR,421.0
K21D 130631Z AUTO 17007KT 10SM BKN085 M14/M17 A3023 RMK AO2,K21D,2015-02-13T06:31:00Z,45.0,-92.85,-14.0,-17.0,170,7,,10.0,30.230314,,,TRUE,TRUE,,,,,,,BKN,8500,,,,,,,VFR,,,,,,,,,,,,METAR,285.0
RJNT 130631Z 26004KT 170V330 5000 -SHSN FEW005 BKN010 BKN020 M02/M03 Q1010 RMK 2CU005 5CU010 7CU020 A2985,RJNT,2015-02-13T06:31:00Z,36.63,137.17,-2.0,-3.0,260,4,,3.11,29.822834,,,,,,,,,,-SHSN,FEW,500,BKN,1000,BKN,2000,,,MVFR,,,,,,,,,,,,SPECI,27.0
KHTL 130631Z AUTO 00000KT 10SM BKN027 M23/M26 A3028 RMK AO2 T12331261,KHTL,2015-02-13T06:31:00Z,44.35,-84.67,-23.3,-26.1,0,0,,10.0,30.280512,,,TRUE,TRUE,,,,,,,BKN,2700,,,,,,,MVFR,,,,,,,,,,,,METAR,351.0
KDEW 130631Z AUTO 34004KT 3SM BR FEW002 02/01 A3032 RMK AO2 T00170011,KDEW,2015-02-13T06:31:00Z,47.97,-117.43,1.7,1.1,340,4,,3.0,30.318897,,,TRUE,TRUE,,,,,,BR,FEW,200,,,,,,,MVFR,,,,,,,,,,,,METAR,674.0
CYMH 130631Z AUTO 33014G21KT 9SM BKN014 OVC027 M18/M20 A2975 RMK SLP075,CYMH,2015-02-13T06:31:00Z,52.28,-55.85,-18.0,-20.0,330,14,21,9.0,29.749016,1007.5,,TRUE,,,,,,,,BKN,1400,OVC,2700,,,,,MVFR,,,,,,,,,,,,SPECI,11.0
KO86 130630Z AUTO 00000KT 9SM CLR 05/04 A3028 RMK AO1,KO86,2015-02-13T06:30:00Z,40.98,-122.7,5.0,4.0,0,0,,9.0,30.280512,,,TRUE,TRUE,,,,,,,CLR,,,,,,,,VFR,,,,,,,,,,,,SPECI,729.0
USCC 130630Z 24006MPS 9999 FEW033 BKN070 M00/M07 Q1006 27000060 TEMPO 23012MPS RMK QFE735,USCC,2015-02-13T06:30:00Z,55.3,61.5,0.0,-7.0,240,12,,6.21,29.704725,,,,,,,,,,,FEW,3300,BKN,7000,,,,,VFR,,,,,,,,,,,,METAR,234.0
UWUU 130630Z 21006G09MPS 9999 OVC013 M06/M08 Q1017 14411054 NOSIG RMK QFE752/1003,UWUU,2015-02-13T06:30:00Z,54.57,55.87,-6.0,-8.0,210,12,17,6.21,30.029528,,,,,,TRUE,,,,,OVC,1300,,,,,,,MVFR,,,,,,,,,,,,METAR,137.0
UWOO 130630Z 22006G09MPS 5000 DRSN OVC009 M07/M10 Q1023 26820252 NOSIG RMK QFE756/1009 0000-0300,UWOO,2015-02-13T06:30:00Z,51.8,55.47,-7.0,-10.0,220,12,17,3.11,30.206694,,,,,,TRUE,,,,DRSN,OVC,900,,,,,,,IFR,,,,,,,,,,,,SPECI,109.0
UWWW 130630Z 27002MPS 240V300 3300 BR OVC005 M06/M07 Q1019 23420545 15//99// NOSIG RMK QBB150 QFE753/1004 650051,UWWW,2015-02-13T06:30:00Z,53.5,50.17,-6.0,-7.0,270,4,,2.05,30.088583,,,,,,TRUE,,,,BR,OVC,500,,,,,,,IFR,,,,,,,,50.05,,,,METAR,146.0
USHH 130630Z 22007MPS 1600 SN BLSN BKN005 OVC080 M01/M02 Q0987 TEMPO 24014MPS 0500 +SN VV002 RMK QBB160 QFE737 24////34,USHH,2015-02-13T06:30:00Z,61.03,69.08,-1.0,-2.0,220,14,,0.99,29.143702,,,,,,,,,,SN BLSN,BKN,500,OVC,8000,,,,,LIFR,,,,,,,,,,,,METAR,23.0
USTR 130630Z 24006G09MPS 9999 -SHSN DRSN SCT011 OVC033CB M01/M03 Q1000 TEMPO 2000 SHSN BLSN BKN007 RMK QFE741/0988 21450550 30450550,USTR,2015-02-13T06:30:00Z,57.17,65.32,-1.0,-3.0,240,12,17,6.21,29.52756,,,,,,,,,,-SHSN DRSN,SCT,1100,OVC,3300,,,,,VFR,,,-45.0,,,,,,,,,METAR,115.0
UNTT 130630Z 25006MPS 9999 FEW023 SCT230 M10/M16 Q1012 NOSIG RMK QFE744 21490140,UNTT,2015-02-13T06:30:00Z,56.38,85.22,-10.0,-16.0,250,12,,6.21,29.88189,,,,,,TRUE,,,,,FEW,2300,SCT,23000,,,,,VFR,,,-49.0,,,,,,,,,METAR,182.0
UNOO 130630Z 21008G11MPS 4500 -SN BLSN OVC066 M07/M08 Q1011 25452035 NOSIG RMK QFE750,UNOO,2015-02-13T06:30:00Z,54.97,73.32,-7.0,-8.0,210,16,21,2.8,29.852362,,,,,,TRUE,,,,-SN BLSN,OVC,6600,,,,,,,IFR,,,,,,,,,,,,METAR,95.0
UNNT 130630Z 23005MPS CAVOK M10/M15 Q1018 25810160 16810160 NOSIG RMK QFE753/1004,UNNT,2015-02-13T06:30:00Z,55.02,82.63,-10.0,-15.0,230,10,,6.21,30.059055,,,,,,TRUE,,,,,CAVOK,,,,,,,,VFR,,,,,,,,,,,,METAR,111.0
UNKL 130630Z 27008G13MPS 9999 -SHSN DRSN SCT030CB BKN083 M07/M15 Q1006 TEMPO 28012G17MPS 0800 +SHSN BLSN RMK QFE729 29////55,UNKL,2015-02-13T06:30:00Z,56.17,92.48,-7.0,-15.0,270,16,25,6.21,29.704725,,,,,,,,,,-SHSN DRSN,SCT,3000,BKN,8300,,,,,VFR,,,,,,,,,,,,METAR,276.0
UNEE 130630Z 25006MPS 9999 SCT018CB BKN066 M10/M14 Q1014 NOSIG RMK QFE737 23451035,UNEE,2015-02-13T06:30:00Z,55.27,86.08,-10.0,-14.0,250,12,,6.21,29.940945,,,,,,TRUE,,,,,SCT,1800,BKN,6600,,,,,VFR,,,,,,,,,,,,METAR,260.0
UNBB 130630Z 24006MPS CAVOK M09/M15 Q1019 NOSIG RMK QFE742/0989 24401050,UNBB,2015-02-13T06:30:00Z,53.37,83.53,-9.0,-15.0,240,12,,6.21,30.088583,,,,,,TRUE,,,,,CAVOK,,,,,,,,VFR,,,,,,,,,,,,METAR,255.0
UNAA 130630Z 02005MPS 9999 SCT030CB OVC100 M02/M09 Q1009 NOSIG RMK QFE734 20190055,UNAA,2015-02-13T06:30:00Z,53.75,91.4,-2.0,-9.0,20,10,,6.21,29.793306,,,,,,TRUE,,,,,SCT,3000,OVC,10000,,,,,VFR,,,19.0,,,,,,,,,METAR,245.0
USSS 130630Z 26009MPS 1900 -SHSN BLSN OVC016CB M02/M04 Q1004 76410340 TEMPO 25017MPS 0800 +SHSN FZRA RMK QFE732,USSS,2015-02-13T06:30:00Z,56.75,60.82,-2.0,-4.0,260,17,,1.18,29.64567,,,,,,,,,,-SHSN BLSN,OVC,1600,,,,,,,IFR,,,,,,,,,0.0,,,METAR,233.0
USRR 130630Z 16005G08MPS 1100 SN BR BKN015 OVC070 M10/M11 Q0990 TEMPO 0800 +SN VV002 RMK OBST OBSC QFE738 25////40,USRR,2015-02-13T06:30:00Z,61.33,73.42,-10.0,-11.0,160,10,16,0.68,29.232283,,,,,,,,,,SN BR,BKN,1500,OVC,7000,,,,,LIFR,,,,,,,,,,,,METAR,44.0
USNN 130630Z 15005G08MPS 9000 BKN047 M14/M17 Q0997 NOSIG RMK QFE743 21410262,USNN,2015-02-13T06:30:00Z,60.95,76.48,-14.0,-17.0,150,10,16,5.59,29.438976,,,,,,TRUE,,,,,BKN,4700,,,,,,,VFR,,,-41.0,,,,,,,,,METAR,54.0
UIII 130630Z 15006MPS CAVOK M05/M12 Q1000 NOSIG RMK QFE708/0944 12810360,UIII,2015-02-13T06:30:00Z,52.27,104.4,-5.0,-12.0,150,12,,6.21,29.52756,,,,,,TRUE,,,,,CAVOK,,,,,,,,VFR,,,,,,,,,,,,METAR,513.0
UIBB 130630Z 19003MPS 9999 BKN015CB OVC100 M06/M12 Q0997 NOSIG RMK QFE705/0941 30820550,UIBB,2015-02-13T06:30:00Z,56.37,101.7,-6.0,-12.0,190,6,,6.21,29.438976,,,,,,TRUE,,,,,BKN,1500,OVC,10000,,,,,MVFR,,,,,,,,,,,,METAR,490.0
UIAA 130630Z 08006MPS 9999 BKN200 M05/M14 Q1004 NOSIG RMK QFE695 29CLRD70,UIAA,2015-02-13T06:30:00Z,52.02,113.32,-5.0,-14.0,80,12,,6.21,29.64567,,,,,,TRUE,,,,,BKN,20000,,,,,,,VFR,,,,,,,,,,,,METAR,685.0
UWGG 130630Z 28003MPS 9999 OVC023 01/M03 Q1018 NOSIG 36190042 RMK QFE756,UWGG,2015-02-13T06:30:00Z,56.23,43.78,1.0,-3.0,280,6,,6.21,30.059055,,,,,,TRUE,,,,,OVC,2300,,,,,,,MVFR,,,,,,,,,,,,METAR,73.0
UUOB 130630Z 31002MPS 0300 R29/550 FZFG VV002 M06/M06 Q1026 29190055 NOSIG,UUOB,2015-02-13T06:30:00Z,50.65,36.58,-6.0,-6.0,310,4,,0.19,30.295275,,,,,,TRUE,,,,FZFG,OVX,0,,,,,,,LIFR,,,,,,,,,,,200,METAR,224.0
ULWC 130630Z 31002MPS 9999 SCT026 BKN/// M01/M02 Q1018 NOSIG RMK QFE753/1005 SC047,ULWC,2015-02-13T06:30:00Z,59.28,38.02,-1.0,-2.0,310,4,,6.21,30.059055,,,,,,TRUE,,,,,SCT,2600,,,,,,,VFR,,,,,,,,,,,,METAR,115.0
OKBK 130630Z 03008KT 2500 -HZ SKC 16/02 Q1020 NOSIG,OKBK,2015-02-13T06:30:00Z,29.22,47.97,16.0,2.0,30,8,,1.55,30.11811,,,,,,TRUE,,,,-HZ,SKC,,,,,,,,IFR,,,,,,,,,,,,METAR,55.0
GABS 130630Z 24005KT 190V270 9999 FEW033 BKN230 25/17 Q1015 NOSIG,GABS,2015-02-13T06:30:00Z,12.52,-7.95,25.0,17.0,240,5,,6.21,29.970472,,,,,,TRUE,,,,,FEW,3300,BKN,23000,,,,,VFR,,,,,,,,,,,,METAR,381.0
URFF 130630Z 06007MPS 030V090 1100 R01/1100V1600D -FZDZ BR OVC002 M00/M01 Q1023 01550245 BECMG 0700 FZDZ FZFG OVC002,URFF,2015-02-13T06:30:00Z,45.03,33.98,0.0,-1.0,60,14,,0.68,30.206694,,,,,,,,,,-FZDZ BR,OVC,200,,,,,,,LIFR,,,,,,,,,,,,METAR,188.0
URWW 130630Z 23002MPS CAVOK M04/M07 Q1027 NOSIG RMK 29CLRD70,URWW,2015-02-13T06:30:00Z,48.78,44.33,-4.0,-7.0,230,4,,6.21,30.324802,,,,,,TRUE,,,,,CAVOK,,,,,,,,VFR,,,,,,,,,,,,METAR,147.0
URWI 130630Z 08002MPS 5000 SCT002 BKN100 M04/M04 Q1026 NOSIG RMK SC065 QBB080 OBST OBSC,URWI,2015-02-13T06:30:00Z,46.37,44.33,-4.0,-4.0,80,4,,3.11,30.295275,,,,,,TRUE,,,,,SCT,200,BKN,10000,,,,,MVFR,,,,,,,,,,,,METAR,150.0
URWA 130630Z VRB01MPS CAVOK M05/M07 Q1027 NOSIG RMK QFE772/1030 SC060,URWA,2015-02-13T06:30:00Z,46.28,48.02,-5.0,-7.0,0,2,,6.21,30.324802,,,,,,TRUE,,,,,CAVOK,,,,,,,,VFR,,,,,,,,,,,,METAR,-20.0
URSS 130630Z 13004G07MPS 9999 OVC028 09/07 Q1021 WS ALL RWY NOSIG RMK R02/13003G06MPS MT OBSC QFE764 06190060 02//////,URSS,2015-02-13T06:30:00Z,43.45,39.95,9.0,7.0,130,8,14,6.21,30.147638,,,,,,TRUE,,,,,OVC,2800,,,,,,,MVFR,,,,,,,,,,,,METAR,16.0
URRR 130630Z 06003MPS 030V090 6000 BKN004 M03/M03 Q1027 REFZFG 04150060 TEMPO 0200 FZDZ 0VC001 RMK QBB140 MAST OBSC,URRR,2015-02-13T06:30:00Z,47.25,39.82,-3.0,-3.0,60,6,,3.73,30.324802,,,,,,,,,,,BKN,400,,,,,,,LIFR,,,,,,,,,,,,METAR,77.0
URMT 130630Z 10004MPS 1400 VCFG BR OVC002 M01/M01 Q1022 REFZFG NOSIG RMK QBB060 OBST OBSC QFE726 SC060,URMT,2015-02-13T06:30:00Z,45.12,42.12,-1.0,-1.0,100,8,,0.87,30.177166,,,,,,TRUE,,,,VCFG BR,OVC,200,,,,,,,LIFR,,,,,,,,,,,,METAR,453.0
URMO 130630Z 29002MPS 5000 BR BKN003 OVC011 M01/M01 Q1022 NOSIG RMK QBB110 MT OBSC QFE723/0964 SC060,URMO,2015-02-13T06:30:00Z,43.2,44.6,-1.0,-1.0,290,4,,3.11,30.177166,,,,,,TRUE,,,,BR,BKN,300,OVC,1100,,,,,LIFR,,,,,,,,,,,,METAR,510.0
URMN 130630Z 00000MPS 2000 BR OVC003 M01/M01 Q1022 NOSIG RMK QBB100 MT OBSC OBST OBSC QFE730 SC055,URMN,2015-02-13T06:30:00Z,43.52,43.63,-1.0,-1.0,0,0,,1.24,30.177166,,,,,,TRUE,,,,BR,OVC,300,,,,,,,LIFR,,,,,,,,,,,,METAR,445.0
URMM 130630Z 10004MPS 4100 -FZDZ BR OVC002 M00/M01 Q1023 R12/750145 NOSIG RMK QBB080 MT OBSC QFE739/0985,URMM,2015-02-13T06:30:00Z,44.22,43.1,0.0,-1.0,100,8,,2.55,30.206694,,,,,,TRUE,,,,-FZDZ BR,OVC,200,,,,,,,LIFR,,,,,,,,,,,,METAR,314.0
URML 130630Z 35003MPS 6000 -RA OVC015 03/02 Q1023 NOSIG RMK QFE767/1023 SC070,URML,2015-02-13T06:30:00Z,42.82,47.65,3.0,2.0,350,6,,3.73,30.206694,,,,,,TRUE,,,,-RA,OVC,1500,,,,,,,MVFR,,,,,,,,,,,,METAR,4.0
URKK 130630Z 08005G08MPS 9999 FEW015 BKN053 02/M00 Q1023 NOSIG RMK QFE764 SC065,URKK,2015-02-13T06:30:00Z,45.03,39.15,2.0,0.0,80,10,16,6.21,30.206694,,,,,,TRUE,,,,,FEW,1500,BKN,5300,,,,,VFR,,,,,,,,,,,,METAR,34.0
URKA 130630Z 08009G12MPS 9999 SCT013 BKN120 02/M01 Q1022 NOSIG RMK QFE762/1016 SC070,URKA,2015-02-13T06:30:00Z,45.0,37.35,2.0,-1.0,80,17,23,6.21,30.177166,,,,,,TRUE,,,,,SCT,1300,BKN,12000,,,,,VFR,,,,,,,,,,,,METAR,53.0
UIUU 130630Z 25003MPS 9999 FEW100 M08/M14 Q1002 NOSIG RMK QFE708/0944 26810550,UIUU,2015-02-13T06:30:00Z,51.8,107.45,-8.0,-14.0,250,6,,6.21,29.586615,,,,,,TRUE,,,,,FEW,10000,,,,,,,VFR,,,,,,,,,,,,METAR,515.0
UMKK 130630Z 19004MPS 160V220 8000 OVC012 M00/M03 Q1024 R24/19//60 NOSIG RMK QFE767/1022,UMKK,2015-02-13T06:30:00Z,54.88,20.6,0.0,-3.0,190,8,,4.97,30.236221,,,,,,TRUE,,,,,OVC,1200,,,,,,,MVFR,,,,,,,,,,,,METAR,21.0
ULOO 130630Z 22002MPS 6000 -SNRA OVC024 01/M00 Q1022 19590150 NOSIG RMK QFE762,ULOO,2015-02-13T06:30:00Z,57.78,28.4,1.0,0.0,220,4,,3.73,30.177166,,,,,,TRUE,,,,-SN -RA,OVC,2400,,,,,,,MVFR,,,,,,,,,,,,METAR,47.0
UUYY 130630Z 30004G08MPS 9999 SCT022CB OVC066 M01/M04 Q1002 NOSIG 01450236 RMK QFE742/0990,UUYY,2015-02-13T06:30:00Z,61.65,50.82,-1.0,-4.0,300,8,16,6.21,29.586615,,,,,,TRUE,,,,,SCT,2200,OVC,6600,,,,,VFR,,,,,,,,,,,,METAR,119.0
UUOO 130630Z 31003MPS 4500 BR OVC004 M05/M06 Q1025 NOSIG RMK 30800345,UUOO,2015-02-13T06:30:00Z,51.82,39.23,-5.0,-6.0,310,6,,2.8,30.265747,,,,,,TRUE,,,,BR,OVC,400,,,,,,,LIFR,,,,,,,,,,,,METAR,157.0
ULAA 130630Z 27004MPS 9999 SCT026 BKN/// M06/M09 Q1007 TEMPO 2000 SHSN BKN005CB RMK QFE754/1005 SC045,ULAA,2015-02-13T06:30:00Z,64.6,40.72,-6.0,-9.0,270,8,,6.21,29.734253,,,,,,,,,,,SCT,2600,,,,,,,VFR,,,,,,,,,,,,METAR,19.0
ULMM 130630Z 28004G09MPS 9999 SCT030CB BKN080 M07/M12 Q0995 NOSIG RMK QFE739 31490240,ULMM,2015-02-13T06:30:00Z,68.78,32.75,-7.0,-12.0,280,8,17,6.21,29.379921,,,,,,TRUE,,,,,SCT,3000,BKN,8000,,,,,VFR,,,,,,,,,,,,METAR,51.0
VVPQ 130630Z 12011KT 070V140 9999 FEW017 27/18 Q1012 NOSIG,VVPQ,2015-02-13T06:30:00Z,10.23,103.97,27.0,18.0,120,11,,6.21,29.88189,,,,,,TRUE,,,,,FEW,1700,,,,,,,VFR,,,,,,,,,,,,METAR,4.0
DTTA 130630Z 00000KT 6000 FEW026 09/08 Q1020 NOSIG,DTTA,2015-02-13T06:30:00Z,36.85,10.22,9.0,8.0,0,0,,3.73,30.11811,,,,,,TRUE,,,,,FEW,2600,,,,,,,MVFR,,,,,,,,,,,,METAR,4.0
OIMN 130630Z 36004KT 9999 FEW010 SCT035 BKN080 07/04 Q1019,OIMN,2015-02-13T06:30:00Z,37.48,57.3,7.0,4.0,360,4,,6.21,30.088583,,,,,,,,,,,FEW,1000,SCT,3500,BKN,8000,,,VFR,,,,,,,,,,,,METAR,1074.0
VMMC 130630Z 14003KT 9999 FEW040 20/06 Q1017 NOSIG,VMMC,2015-02-13T06:30:00Z,22.15,113.58,20.0,6.0,140,3,,6.21,30.029528,,,,,,TRUE,,,,,FEW,4000,,,,,,,VFR,,,,,,,,,,,,METAR,6.0
RCMQ 130630Z 32009KT 9999 FEW012 SCT120 20/06 Q1016 NOSIG RMK A3003,RCMQ,2015-02-13T06:30:00Z,24.27,120.62,20.0,6.0,320,9,,6.21,30.0,,,,,,TRUE,,,,,FEW,1200,SCT,12000,,,,,VFR,,,,,,,,,,,,SPECI,5.0
RCSS 130630Z 13012KT CAVOK 23/05 Q1016 NOSIG RMK A3003,RCSS,2015-02-13T06:30:00Z,25.07,121.53,23.0,5.0,130,12,,6.21,30.0,,,,,,TRUE,,,,,CAVOK,,,,,,,,VFR,,,,,,,,,,,,SPECI,6.0
RCKH 130630Z 28011KT 5000 HZ FEW016 25/14 Q1016 NOSIG RMK 30011KT/R09 A3002,RCKH,2015-02-13T06:30:00Z,22.57,120.33,25.0,14.0,280,11,,3.11,30.0,,,,,,TRUE,,,,HZ,FEW,1600,,,,,,,MVFR,,,,,,,,,,,,METAR,9.0
RCTP 130630Z 35010KT 9999 FEW020 SCT200 23/07 Q1016 NOSIG RMK A3001,RCTP,2015-02-13T06:30:00Z,25.07,121.22,23.0,7.0,350,10,,6.21,30.0,,,,,,TRUE,,,,,FEW,2000,SCT,20000,,,,,VFR,,,,,,,,,,,,METAR,33.0
VVPB 130630Z 06011KT 9999 FEW023 BKN300 27/20 Q1013 NOSIG,VVPB,2015-02-13T06:30:00Z,16.38,107.7,27.0,20.0,60,11,,6.21,29.911417,,,,,,TRUE,,,,,FEW,2300,BKN,30000,,,,,VFR,,,,,,,,,,,,METAR,17.0
VYMD 130630Z 19007KT 7000 NSC 32/12 Q1009 NOSIG,VYMD,2015-02-13T06:30:00Z,21.7,95.98,32.0,12.0,190,7,,4.35,29.793306,,,,,,TRUE,,,,,,,,,,,,,,,,,,,,,,,,,SPECI,91.0
VVTS 130630Z VRB04KT 8000 FEW023 31/14 Q1011 NOSIG,VVTS,2015-02-13T06:30:00Z,10.82,106.67,31.0,14.0,0,4,,4.97,29.852362,,,,,,TRUE,,,,,FEW,2300,,,,,,,MVFR,,,,,,,,,,,,METAR,19.0
VDPP 130630Z 18005KT 110V230 9000 FEW017 32/17 Q1010,VDPP,2015-02-13T06:30:00Z,11.55,104.83,32.0,17.0,180,5,,5.59,29.822834,,,,,,,,,,,FEW,1700,,,,,,,VFR,,,,,,,,,,,,METAR,10.0
VTSP 130630Z 10010KT 9000 FEW020 BKN300 31/17 Q1010 A2984,VTSP,2015-02-13T06:30:00Z,8.12,98.32,31.0,17.0,100,10,,5.59,29.822834,,,,,,,,,,,FEW,2000,BKN,30000,,,,,VFR,,,,,,,,,,,,METAR,10.0
VTBU 130630Z 22013KT 7000 FEW020 SCT300 29/21 Q1011 A2987,VTBU,2015-02-13T06:30:00Z,12.68,101.0,29.0,21.0,220,13,,4.35,29.852362,,,,,,,,,,,FEW,2000,SCT,30000,,,,,MVFR,,,,,,,,,,,,METAR,5.0
KECU 130630Z AUTO 00000KT 10SM OVC080 08/00 A3035 RMK AO2,KECU,2015-02-13T06:30:00Z,29.95,-100.17,8.0,0.0,0,0,,10.0,30.351377,,,TRUE,TRUE,,,,,,,OVC,8000,,,,,,,VFR,,,,,,,,,,,,METAR,725.0
VVCR 130630Z 08015KT 9999 FEW015 27/18 Q1013 NOSIG,VVCR,2015-02-13T06:30:00Z,12.0,109.22,27.0,18.0,80,15,,6.21,29.911417,,,,,,TRUE,,,,,FEW,1500,,,,,,,VFR,,,,,,,,,,,,METAR,12.0
VDSR 130630Z 16008KT 110V200 CAVOK 30/16 Q1010,VDSR,2015-02-13T06:30:00Z,13.42,103.83,30.0,16.0,160,8,,6.21,29.822834,,,,,,,,,,,CAVOK,,,,,,,,VFR,,,,,,,,,,,,METAR,15.0
VVDN 130630Z 12008KT 080V150 7000 FEW015 SCT060 27/18 Q1014 NOSIG,VVDN,2015-02-13T06:30:00Z,16.02,108.2,27.0,18.0,120,8,,4.35,29.940945,,,,,,TRUE,,,,,FEW,1500,SCT,6000,,,,,MVFR,,,,,,,,,,,,METAR,7.0
VTBD 130630Z 18011KT 150V210 9000 FEW020 SCT120 BKN300 32/21 Q1010 NOSIG,VTBD,2015-02-13T06:30:00Z,13.92,100.6,32.0,21.0,180,11,,5.59,29.822834,,,,,,TRUE,,,,,FEW,2000,SCT,12000,BKN,30000,,,VFR,,,,,,,,,,,,METAR,3.0
VTBS 130630Z 23010KT 190V270 9999 FEW020 BKN120 BKN300 30/20 Q1011 NOSIG,VTBS,2015-02-13T06:30:00Z,13.68,100.75,30.0,20.0,230,10,,6.21,29.852362,,,,,,TRUE,,,,,FEW,2000,BKN,12000,BKN,30000,,,VFR,,,,,,,,,,,,METAR,2.0
OTBD 130630Z 36009KT 320V020 5000 HZ SCT008 BKN025 22/20 Q1018 NOSIG,OTBD,2015-02-13T06:30:00Z,25.25,51.57,22.0,20.0,360,9,,3.11,30.059055,,,,,,TRUE,,,,HZ,SCT,800,BKN,2500,,,,,MVFR,,,,,,,,,,,,METAR,10.0
VTCC 130630Z 17007KT 9999 FEW040 30/06 Q1011 A2987 NOSIG,VTCC,2015-02-13T06:30:00Z,18.77,98.97,30.0,6.0,170,7,,6.21,29.852362,,,,,,TRUE,,,,,FEW,4000,,,,,,,VFR,,,,,,,,,,,,METAR,314.0
VTSS 130630Z 06010KT 9999 SCT020 BKN300 30/24 Q1011 A2985 NOSIG,VTSS,2015-02-13T06:30:00Z,6.92,100.38,30.0,24.0,60,10,,6.21,29.852362,,,,,,TRUE,,,,,SCT,2000,BKN,30000,,,,,VFR,,,,,,,,,,,,METAR,35.0
VIJP 130630Z 24008KT 3000 HZ NSC 24/03 Q1016 NOSIG,VIJP,2015-02-13T06:30:00Z,26.82,75.78,24.0,3.0,240,8,,1.86,30.0,,,,,,TRUE,,,,HZ,,,,,,,,,,,,,,,,,,,,,METAR,390.0
VIBN 130630Z 27005KT 3500 HZ NSC 22/11 Q1014,VIBN,2015-02-13T06:30:00Z,25.43,82.87,22.0,11.0,270,5,,2.17,29.940945,,,,,,,,,,HZ,,,,,,,,,,,,,,,,,,,,,METAR,85.0
VIAR 130630Z 27008KT 3000 HZ NSC 19/10 Q1014,VIAR,2015-02-13T06:30:00Z,31.7,74.8,19.0,10.0,270,8,,1.86,29.940945,,,,,,,,,,HZ,,,,,,,,,,,,,,,,,,,,,METAR,234.0
VILK 130630Z 29006KT 3000 HZ NSC 22/12 Q1014 NOSIG,VILK,2015-02-13T06:30:00Z,26.75,80.87,22.0,12.0,290,6,,1.86,29.940945,,,,,,TRUE,,,,HZ,,,,,,,,,,,,,,,,,,,,,METAR,128.0
VOCI 130630Z 17002KT 4000 HZ FEW015 32/22 Q1012 NOSIG,VOCI,2015-02-13T06:30:00Z,10.15,76.4,32.0,22.0,170,2,,2.49,29.88189,,,,,,TRUE,,,,HZ,FEW,1500,,,,,,,IFR,,,,,,,,,,,,METAR,8.0
VLVT 130630Z 12002KT 7000 SCT050 BKN083 27/18 Q1013 NOSIG,VLVT,2015-02-13T06:30:00Z,17.98,102.57,27.0,18.0,120,2,,4.35,29.911417,,,,,,TRUE,,,,,SCT,5000,BKN,8300,,,,,MVFR,,,,,,,,,,,,METAR,171.0
KUNI 130630Z AUTO 00000KT 10SM CLR M13/M19 A3035 RMK AO2 T11301192,KUNI,2015-02-13T06:30:00Z,39.22,-82.23,-13.0,-19.2,0,0,,10.0,30.351377,,,TRUE,TRUE,,,,,,,CLR,,,,,,,,VFR,,,,,,,,,,,,SPECI,193.0
KTVK 130630Z AUTO 18005KT 10SM FEW060 M09/M13 A3036 RMK AO2,KTVK,2015-02-13T06:30:00Z,40.68,-92.9,-9.0,-13.0,180,5,,10.0,30.360237,,,TRUE,TRUE,,,,,,,FEW,6000,,,,,,,VFR,,,,,,,,,,,,SPECI,314.0
KMTV 130630Z AUTO 35006KT 10SM CLR M06/M14 A3022 RMK AO2 T10571145,KMTV,2015-02-13T06:30:00Z,36.63,-80.02,-5.7,-14.5,350,6,,10.0,30.221457,,,TRUE,TRUE,,,,,,,CLR,,,,,,,,VFR,,,,,,,,,,,,SPECI,287.0
KMRJ 130630Z AUTO 23003KT 10SM CLR M14/M18 A3033 RMK AO2,KMRJ,2015-02-13T06:30:00Z,42.88,-90.23,-14.0,-18.0,230,3,,10.0,30.33071,,,TRUE,TRUE,,,,,,,CLR,,,,,,,,VFR,,,,,,,,,,,,SPECI,359.0
KETB 130630Z AUTO 00000KT 10SM CLR M18/M20 A3034 RMK AO2,KETB,2015-02-13T06:30:00Z,43.42,-88.13,-18.0,-20.0,0,0,,10.0,30.339567,,,TRUE,TRUE,,,,,,,CLR,,,,,,,,VFR,,,,,,,,,,,,SPECI,270.0
KEGV 130630Z AUTO 00000KT 10SM SCT120 M24/M27 A3016 RMK AO2 T12411274,KEGV,2015-02-13T06:30:00Z,45.93,-89.27,-24.1,-27.4,0,0,,10.0,30.159449,,,TRUE,TRUE,,,,,,,SCT,12000,,,,,,,VFR,,,,,,,,,,,,SPECI,500.0
KDLL 130630Z AUTO 22004KT 10SM CLR M19/M22 A3032 RMK AO2 T11881223,KDLL,2015-02-13T06:30:00Z,43.52,-89.77,-18.8,-22.3,220,4,,10.0,30.318897,,,TRUE,TRUE,,,,,,,CLR,,,,,,,,VFR,,,,,,,,,,,,SPECI,299.0
KAQO 130630Z AUTO 00000KT 10SM CLR 04/00 A3040 RMK AO2,KAQO,2015-02-13T06:30:00Z,30.78,-98.67,4.0,0.0,0,0,,10.0,30.398623,,,TRUE,TRUE,,,,,,,CLR,,,,,,,,VFR,,,,,,,,,,,,SPECI,336.0
KADS 130630Z AUTO 00000KT 10SM CLR 07/M05 A3039 RMK AO2 T00661047,KADS,2015-02-13T06:30:00Z,32.97,-96.82,6.6,-4.7,0,0,,10.0,30.389763,,,TRUE,TRUE,,,,,,,CLR,,,,,,,,VFR,,,,,,,,,,,,SPECI,196.0
K5R8 130630Z AUTO 00000KT 10SM CLR 06/M01 A3035 RMK AO2 T00611008,K5R8,2015-02-13T06:30:00Z,30.43,-93.47,6.1,-0.8,0,0,,10.0,30.351377,,,TRUE,TRUE,,,,,,,CLR,,,,,,,,VFR,,,,,,,,,,,,SPECI,24.0
LFQG 130630Z AUTO VRB01KT 9999 ////// M01/M02 Q1017,LFQG,2015-02-13T06:30:00Z,47.0,3.1,-1.0,-2.0,0,1,,6.21,30.029528,,,TRUE,,,,,,,,,,,,,,,,,,,,,,,,,,,,METAR,181.0
LFLW 130630Z AUTO 10006KT 9999 // FEW049 01/M01 Q1019,LFLW,2015-02-13T06:30:00Z,44.88,2.42,1.0,-1.0,100,6,,6.21,30.088583,,,TRUE,,,,,,,,FEW,4900,,,,,,,VFR,,,,,,,,,,,,METAR,639.0
UTTT 130630Z 11003KT 050V200 CAVOK 09/04 Q1021 R88/70D NOSIG,UTTT,2015-02-13T06:30:00Z,41.27,69.27,9.0,4.0,110,3,,6.21,30.147638,,,,,,TRUE,,,,,CAVOK,,,,,,,,VFR,,,,,,,,,,,,METAR,489.0
UTST 130630Z 06008KT 030V110 9999 SCT033 BKN100 15/12 Q1016 R88/290460 NOSIG,UTST,2015-02-13T06:30:00Z,37.28,67.32,15.0,12.0,60,8,,6.21,30.0,,,,,,TRUE,,,,,SCT,3300,BKN,10000,,,,,VFR,,,,,,,,,,,,SPECI,302.0
UTSS 130630Z 12012KT 090V150 9999 NSC 06/03 Q1018 R88/19//65 NOSIG,UTSS,2015-02-13T06:30:00Z,39.7,66.98,6.0,3.0,120,12,,6.21,30.059055,,,,,,TRUE,,,,,,,,,,,,,,,,,,,,,,,,,SPECI,724.0
UTSK 130630Z 35003KT 5000 BR BKN006 OVC050CB 11/09 Q1017 R16/190060 RMK BASE600,UTSK,2015-02-13T06:30:00Z,38.83,65.77,11.0,9.0,350,3,,3.11,30.029528,,,,,,,,,,BR,BKN,600,OVC,5000,,,,,IFR,,,,,,,,,,,,SPECI,1365.0
UTSB 130630Z 01011KT CAVOK 09/05 Q1018 R01/CLRD70 NOSIG,UTSB,2015-02-13T06:30:00Z,39.77,64.48,9.0,5.0,10,11,,6.21,30.059055,,,,,,TRUE,,,,,CAVOK,,,,,,,,VFR,,,,,,,,,,,,SPECI,226.0
UTSA 130630Z 06014KT 8000 NSC 09/04 Q1017 R07/CLRD70 NOSIG,UTSA,2015-02-13T06:30:00Z,40.12,65.17,9.0,4.0,60,14,,4.97,30.029528,,,,,,TRUE,,,,,,,,,,,,,,,,,,,,,,,,,SPECI,346.0
UTNU 130630Z 09010KT CAVOK 02/M01 Q1021 R31/CLRD70 NOSIG,UTNU,2015-02-13T06:30:00Z,41.58,60.63,2.0,-1.0,90,10,,6.21,30.147638,,,,,,TRUE,,,,,CAVOK,,,,,,,,VFR,,,,,,,,,,,,SPECI,98.0
UTNN 130630Z 06009KT CAVOK 02/M02 Q1022 R33/CLRD60 NOSIG,UTNN,2015-02-13T06:30:00Z,42.48,59.63,2.0,-2.0,60,9,,6.21,30.177166,,,,,,TRUE,,,,,CAVOK,,,,,,,,VFR,,,,,,,,,,,,SPECI,67.0
VVNB 130630Z 05006KT 030V090 3300 BR NSC 19/14 Q1015 NOSIG,VVNB,2015-02-13T06:30:00Z,21.22,105.8,19.0,14.0,50,6,,2.05,29.970472,,,,,,TRUE,,,,BR,,,,,,,,,,,,,,,,,,,,,SPECI,12.0
WAAA 130630Z 31007KT 250V350 9999 SCT019 30/25 Q1008 NOSIG,WAAA,2015-02-13T06:30:00Z,-5.07,119.53,30.0,25.0,310,7,,6.21,29.763779,,,,,,TRUE,,,,,SCT,1900,,,,,,,VFR,,,,,,,,,,,,METAR,14.0
WADD 130630Z 16009KT 9999 TS FEW016CB SCT017 31/24 Q1006 NOSIG RMK CB TO N NE,WADD,2015-02-13T06:30:00Z,-8.73,115.17,31.0,24.0,160,9,,6.21,29.704725,,,,,,TRUE,,,,TS,FEW,1600,SCT,1700,,,,,VFR,,,,,,,,,,,,SPECI,216.0
WIDD 130630Z 04019KT 9999 FEW015 29/21 Q1010,WIDD,2015-02-13T06:30:00Z,1.12,104.12,29.0,21.0,40,19,,6.21,29.822834,,,,,,,,,,,FEW,1500,,,,,,,VFR,,,,,,,,,,,,METAR,38.0
WARR 130630Z 26015KT 5000 TS BKN016 FEW018CB 25/22 Q1008 RERA TEMPOFM0640 28010G20KT 2000 TSRA,WARR,2015-02-13T06:30:00Z,-7.37,112.78,25.0,22.0,260,15,,3.11,29.763779,,,,,,,,,,TS,BKN,1600,FEW,1800,,,,,MVFR,,,,,,,,,,,,SPECI,2.0
WIMM 130630Z 34010KT 6000 SCT018 31/24 Q1009 NOSIG,WIMM,2015-02-13T06:30:00Z,3.57,98.67,31.0,24.0,340,10,,3.73,29.793306,,,,,,TRUE,,,,,SCT,1800,,,,,,,MVFR,,,,,,,,,,,,METAR,25.0
YPWR 130630Z AUTO 07005KT 9999 // NCD 40/05 Q1012,YPWR,2015-02-13T06:30:00Z,-31.12,136.82,40.0,5.0,70,5,,6.21,29.88189,,,TRUE,,,,,,,,,,,,,,,,,,,,,,,,,,,,METAR,167.0
YWLM 130630Z AUTO 11014KT 9999 // SCT096 27/18 Q1022,YWLM,2015-02-13T06:30:00Z,-32.8,151.83,27.0,18.0,110,14,,6.21,30.177166,,,TRUE,,,,,,,,SCT,9600,,,,,,,VFR,,,,,,,,,,,,SPECI,9.0
YBRK 130630Z 09010KT 9999 FEW045 BKN280 29/17 Q1013,YBRK,2015-02-13T06:30:00Z,-23.37,150.47,29.0,17.0,90,10,,6.21,29.911417,,,,,,,,,,,FEW,4500,BKN,28000,,,,,VFR,,,,,,,,,,,,METAR,14.0
YSRI 130630Z AUTO 24008KT 9999 // NCD 24/19 Q1022,YSRI,2015-02-13T06:30:00Z,-33.6,150.77,24.0,19.0,240,8,,6.21,30.177166,,,TRUE,,,,,,,,,,,,,,,,,,,,,,,,,,,,SPECI,21.0
YPPD 130630Z AUTO 31023KT 9999 // NCD 39/18 Q1005,YPPD,2015-02-13T06:30:00Z,-20.37,118.62,39.0,18.0,310,23,,6.21,29.675198,,,TRUE,,,,,,,,,,,,,,,,,,,,,,,,,,,,SPECI,6.0
YSNF 130630Z 12012KT 9999 SCT025 22/15 Q1018,YSNF,2015-02-13T06:30:00Z,-29.02,167.92,22.0,15.0,120,12,,6.21,30.059055,,,,,,,,,,,SCT,2500,,,,,,,VFR,,,,,,,,,,,,METAR,109.0
YBMA 130630Z AUTO 09010KT 9999 // SCT105 36/10 Q1008,YBMA,2015-02-13T06:30:00Z,-20.67,139.47,36.0,10.0,90,10,,6.21,29.763779,,,TRUE,,,,,,,,SCT,10500,,,,,,,VFR,,,,,,,,,,,,SPECI,344.0
YMLT 130630Z AUTO 02008KT 9999 // BKN056 21/08 Q1024,YMLT,2015-02-13T06:30:00Z,-41.52,147.18,21.0,8.0,20,8,,6.21,30.236221,,,TRUE,,,,,,,,BKN,5600,,,,,,,VFR,,,,,,,,,,,,SPECI,178.0
YPKG 130630Z AUTO 12010KT 9999 // NCD 40/03 Q1006,YPKG,2015-02-13T06:30:00Z,-30.77,121.45,40.0,3.0,120,10,,6.21,29.704725,,,TRUE,,,,,,,,,,,,,,,,,,,,,,,,,,,,SPECI,360.0
YMHB 130630Z 06013KT 9999 FEW047 BKN260 20/10 Q1025,YMHB,2015-02-13T06:30:00Z,-42.82,147.52,20.0,10.0,60,13,,6.21,30.265747,,,,,,,,,,,FEW,4700,BKN,26000,,,,,VFR,,,,,,,,,,,,METAR,27.0
YPGV 130630Z 15012KT 9999 FEW023 SCT090 BKN270 FEW023TCU 29/23 Q1006,YPGV,2015-02-13T06:30:00Z,-12.27,136.82,29.0,23.0,150,12,,6.21,29.704725,,,,,,,,,,,FEW,2300,SCT,9000,BKN,27000,FEW,2300,VFR,,,,,,,,,,,,METAR,55.0
YGEL 130630Z 20018KT 9999 FEW018 SCT180 26/19 Q1010,YGEL,2015-02-13T06:30:00Z,-28.8,114.7,26.0,19.0,200,18,,6.21,29.822834,,,,,,,,,,,FEW,1800,SCT,18000,,,,,VFR,,,,,,,,,,,,METAR,37.0
YFRT 130630Z AUTO 32011KT //// // ////// 43/00 Q1007,YFRT,2015-02-13T06:30:00Z,-30.83,128.12,43.0,0.0,320,11,,,29.734253,,,TRUE,,,,,,,,,,,,,,,,,,,,,,,,,,,,SPECI,156.0
YSDU 130630Z AUTO 09009KT 9999 // SCT110 BKN125 28/17 Q1019,YSDU,2015-02-13T06:30:00Z,-32.22,148.57,28.0,17.0,90,9,,6.21,30.088583,,,TRUE,,,,,,,,SCT,11000,BKN,12500,,,,,VFR,,,,,,,,,,,,SPECI,275.0
YCIN 130630Z AUTO 21006KT //// // NCD 37/20 Q1006,YCIN,2015-02-13T06:30:00Z,-17.58,123.83,37.0,20.0,210,6,,,29.704725,,,TRUE,,,,,,,,,,,,,,,,,,,,,,,,,,,,SPECI,91.0
YBRM 130630Z 20008KT 9999 FEW030 36/19 Q1007,YBRM,2015-02-13T06:30:00Z,-17.93,122.22,36.0,19.0,200,8,,6.21,29.734253,,,,,,,,,,,FEW,3000,,,,,,,VFR,,,,,,,,,,,,METAR,9.0
YMAV 130630Z AUTO 19018KT //// // SCT076 OVC105 21/19 Q1018,YMAV,2015-02-13T06:30:00Z,-38.03,144.48,21.0,19.0,190,18,,,30.059055,,,TRUE,,,,,,,,SCT,7600,OVC,10500,,,,,,,,,,,,,,,,,SPECI,8.0
YAMB 130630Z AUTO 11016KT 9999 // SCT038 BKN082 27/16 Q1018,YAMB,2015-02-13T06:30:00Z,-27.63,152.72,27.0,16.0,110,16,,6.21,30.059055,,,TRUE,,,,,,,,SCT,3800,BKN,8200,,,,,VFR,,,,,,,,,,,,SPECI,28.0
LPPT 130630Z 28003KT 9999 4500E VCFG FEW010 08/08 Q1024,LPPT,2015-02-13T06:30:00Z,38.77,-9.12,8.0,8.0,280,3,,6.21,30.236221,,,,,,,,,,VCFG,FEW,1000,,,,,,,VFR,,,,,,,,,,,,SPECI,123.0
LPPD 130630Z 25007KT 9999 BKN022 14/09 Q1026,LPPD,2015-02-13T06:30:00Z,37.72,-25.68,14.0,9.0,250,7,,6.21,30.295275,,,,,,,,,,,BKN,2200,,,,,,,MVFR,,,,,,,,,,,,METAR,72.0
LPAZ 130630Z 25005KT 9999 FEW021 BKN028 13/10 Q1027,LPAZ,2015-02-13T06:30:00Z,36.97,-25.17,13.0,10.0,250,5,,6.21,30.324802,,,,,,,,,,,FEW,2100,BKN,2800,,,,,MVFR,,,,,,,,,,,,METAR,100.0
LPPS 130630Z 35005KT 9999 FEW015 12/09 Q1027,LPPS,2015-02-13T06:30:00Z,33.07,-16.35,12.0,9.0,350,5,,6.21,30.324802,,,,,,,,,,,FEW,1500,,,,,,,VFR,,,,,,,,,,,,METAR,82.0
LPPR 130630Z 16007KT 3600 1200S BR SCT001 OVC004 08/08 Q1022,LPPR,2015-02-13T06:30:00Z,41.22,-8.67,8.0,8.0,160,7,,2.24,30.177166,,,,,,,,,,BR,SCT,100,OVC,400,,,,,LIFR,,,,,,,,,,,,SPECI,73.0
LPMA 130630Z 36006KT 330V030 9999 FEW016 11/06 Q1027 RS36005KT 0535004KT 2336005KT,LPMA,2015-02-13T06:30:00Z,32.7,-16.77,11.0,6.0,360,6,,6.21,30.324802,,,,,,,,,,,FEW,1600,,,,,,,VFR,,,,,,,,,,,,SPECI,55.0
LPFR 130630Z VRB02KT CAVOK 06/04 Q1023,LPFR,2015-02-13T06:30:00Z,37.02,-7.97,6.0,4.0,0,2,,6.21,30.206694,,,,,,,,,,,CAVOK,,,,,,,,VFR,,,,,,,,,,,,METAR,4.0
YBTL 130630Z 09018KT 9999 VCSH FEW030 SCT160 BKN300 30/21 Q1008,YBTL,2015-02-13T06:30:00Z,-19.25,146.75,30.0,21.0,90,18,,6.21,29.763779,,,,,,,,,,VCSH,FEW,3000,SCT,16000,BKN,30000,,,VFR,,,,,,,,,,,,METAR,6.0
YPTN 130630Z AUTO 26007KT 9999 // NCD 29/22 Q1006,YPTN,2015-02-13T06:30:00Z,-14.52,132.38,29.0,22.0,260,7,,6.21,29.704725,,,TRUE,,,,,,,,,,,,,,,,,,,,,,,,,,,,SPECI,109.0
YSTW 130630Z AUTO 10011KT 9999 // NCD 32/04 Q1018,YSTW,2015-02-13T06:30:00Z,-31.07,150.85,32.0,4.0,100,11,,6.21,30.059055,,,TRUE,,,,,,,,,,,,,,,,,,,,,,,,,,,,SPECI,410.0
YSSY 130630Z 12010KT 9999 FEW015 BKN160 FEW025TCU 25/18 Q1022 RMK DIST CB TOP TO SE INTER 0730/0930 5000 SHRA BKN010,YSSY,2015-02-13T06:30:00Z,-33.95,151.17,25.0,18.0,120,10,,6.21,30.177166,,,,,,,,,,,FEW,1500,BKN,16000,FEW,2500,,,VFR,,,,,,,,,,,,SPECI,3.0
YPPH 130630Z 27013KT 9999 SCT030 BKN300 27/16 Q1009,YPPH,2015-02-13T06:30:00Z,-31.93,115.98,27.0,16.0,270,13,,6.21,29.793306,,,,,,,,,,,SCT,3000,BKN,30000,,,,,VFR,,,,,,,,,,,,METAR,13.0
YPLM 130630Z AUTO 27018KT 9999 // NCD 36/19 Q1006,YPLM,2015-02-13T06:30:00Z,-22.22,114.07,36.0,19.0,270,18,,6.21,29.704725,,,TRUE,,,,,,,,,,,,,,,,,,,,,,,,,,,,SPECI,6.0
YPKU 130630Z AUTO 14008KT 9999 // NCD 37/18 Q1005,YPKU,2015-02-13T06:30:00Z,-15.77,128.68,37.0,18.0,140,8,,6.21,29.675198,,,TRUE,,,,,,,,,,,,,,,,,,,,,,,,,,,,SPECI,45.0
YPJT 130630Z AUTO 21013KT 9999 // BKN023 BKN029 25/17 Q1010,YPJT,2015-02-13T06:30:00Z,-32.1,115.88,25.0,17.0,210,13,,6.21,29.822834,,,TRUE,,,,,,,,BKN,2300,BKN,2900,,,,,MVFR,,,,,,,,,,,,METAR,30.0
YHID 130630Z AUTO 28006KT 9999 // SCT019 BKN047 BKN063 28/24 Q1004,YHID,2015-02-13T06:30:00Z,-10.58,142.3,28.0,24.0,280,6,,6.21,29.64567,,,TRUE,,,,,,,,SCT,1900,BKN,4700,BKN,6300,,,VFR,,,,,,,,,,,,METAR,13.0
YBCG 130630Z AUTO 14015KT 9999 // BKN073 OVC082 25/19 Q1019,YBCG,2015-02-13T06:30:00Z,-28.17,153.5,25.0,19.0,140,15,,6.21,30.088583,,,TRUE,,,,,,,,BKN,7300,OVC,8200,,,,,VFR,,,,,,,,,,,,SPECI,6.0
YCFS 130630Z AUTO 09010KT 9999 // SCT031 26/18 Q1021,YCFS,2015-02-13T06:30:00Z,-30.32,153.12,26.0,18.0,90,10,,6.21,30.147638,,,TRUE,,,,,,,,SCT,3100,,,,,,,VFR,,,,,,,,,,,,METAR,5.0
YPCC 130630Z 17014KT 9999 FEW022 BKN330 31/25 Q1008,YPCC,2015-02-13T06:30:00Z,-12.17,96.82,31.0,25.0,170,14,,6.21,29.763779,,,,,,,,,,,FEW,2200,BKN,33000,,,,,VFR,,,,,,,,,,,,METAR,3.0
YSCB 130630Z 06014KT 9999 FEW020 SCT040 BKN200 FEW040TCU 24/14 Q1023 RMK DIST PRECIP TO SW,YSCB,2015-02-13T06:30:00Z,-35.28,149.17,24.0,14.0,60,14,,6.21,30.206694,,,,,,,,,,,FEW,2000,SCT,4000,BKN,20000,FEW,4000,VFR,,,,,,,,,,,,SPECI,577.0
YBAS 130630Z 10016KT CAVOK 37/04 Q1012,YBAS,2015-02-13T06:30:00Z,-23.8,133.9,37.0,4.0,100,16,,6.21,29.88189,,,,,,,,,,,CAVOK,,,,,,,,VFR,,,,,,,,,,,,METAR,541.0
YPAD 130630Z 13013KT CAVOK 34/08 Q1014 RMK 5AC130 NOSIG,YPAD,2015-02-13T06:30:00Z,-34.95,138.52,34.0,8.0,130,13,,6.21,29.940945,,,,,,,,,,,CAVOK,,,,,,,,VFR,,,,,,,,,,,,SPECI,4.0
VYYY 130630Z 32005KT 8000 R21/2000N NSC 30/15 Q1011 NOSIG,VYYY,2015-02-13T06:30:00Z,16.9,96.13,30.0,15.0,320,5,,4.97,29.852362,,,,,,TRUE,,,,,,,,,,,,,,,,,,,,,,,,,METAR,33.0
UWSS 130630Z 31004MPS 6000 OVC006 M06/M06 Q1022 12800350 NOSIG RMK QFE754,UWSS,2015-02-13T06:30:00Z,51.57,46.07,-6.0,-6.0,310,8,,3.73,30.177166,,,,,,TRUE,,,,,OVC,600,,,,,,,IFR,,,,,,,,,,,,METAR,166.0
UWKS 130630Z 30007MPS 9999 BKN017CB OVC066 M00/M03 Q1015 NOSIG RMK QFE747 24850337,UWKS,2015-02-13T06:30:00Z,56.08,47.35,0.0,-3.0,300,14,,6.21,29.970472,,,,,,TRUE,,,,,BKN,1700,OVC,6600,,,,,MVFR,,,,,,,,,,,,METAR,170.0
UWKE 130630Z 22005G08MPS 8000 OVC005 M05/M05 Q1013 NOSIG RMK QBB150 QFE743/0991 21390034,UWKE,2015-02-13T06:30:00Z,55.57,52.08,-5.0,-5.0,220,10,16,4.97,29.911417,,,,,,TRUE,,,,,OVC,500,,,,,,,IFR,,,-39.0,,,,,,,,,METAR,196.0
UWKD 130630Z 26007MPS 5000 -SN OVC007 M02/M02 Q1014 R29/4/0140 TEMPO 2000 FZDZ OVC005 RMK QFE750/1000,UWKD,2015-02-13T06:30:00Z,55.62,49.28,-2.0,-2.0,260,14,,3.11,29.940945,,,,,,,,,,-SN,OVC,700,,,,,,,IFR,,,,,,,,,,,,METAR,126.0
USPP 130630Z 24009MPS 6000 -SN BKN013 OVC070 M00/M02 Q1004 21620249 NOSIG RMK QFE742/0990 MOD ICE INC 360-1500,USPP,2015-02-13T06:30:00Z,57.92,56.02,0.0,-2.0,240,17,,3.73,29.64567,,,,,,TRUE,,,,-SN,BKN,1300,OVC,7000,,,,,MVFR,,,-62.0,,,,,,,,,METAR,123.0
UUMO 130630Z 33005MPS 9999 OVC018 M01/M04 Q1023 NOSIG RMK QFE752/1002 26290050,UUMO,2015-02-13T06:30:00Z,55.52,37.5,-1.0,-4.0,330,10,,6.21,30.206694,,,,,,TRUE,,,,,OVC,1800,,,,,,,MVFR,,,,,,,,,,,,METAR,174.0
UUWW 130630Z 30005MPS 9999 BKN017 OVC100 M01/M04 Q1022 WS RWY24 24510250 NOSIG,UUWW,2015-02-13T06:30:00Z,55.6,37.27,-1.0,-4.0,300,10,,6.21,30.177166,,,,,,TRUE,,,,,BKN,1700,OVC,10000,,,,,MVFR,,,,,,,,,,,,METAR,203.0
UUEE 130630Z 26004MPS 9999 OVC020 M01/M04 Q1022 75190051 25190051 NOSIG,UUEE,2015-02-13T06:30:00Z,55.97,37.42,-1.0,-4.0,260,8,,6.21,30.177166,,,,,,TRUE,,,,,OVC,2000,,,,,,,MVFR,,,,,,,,,51.9,,,METAR,190.0
UUDL 130630Z 26004MPS 9999 OVC029 00/M02 Q1019 NOSIG RMK QFE756 23390050,UUDL,2015-02-13T06:30:00Z,57.57,40.17,0.0,-2.0,260,8,,6.21,30.088583,,,,,,TRUE,,,,,OVC,2900,,,,,,,MVFR,,,,,,,,,,,,METAR,88.0
UUDD 130630Z 31005MPS 9999 OVC018 M01/M04 Q1022 32550195 82520195 NOSIG,UUDD,2015-02-13T06:30:00Z,55.4,37.9,-1.0,-4.0,310,10,,6.21,30.177166,,,,,,TRUE,,,,,OVC,1800,,,,,,,MVFR,,,,,,,,,,,,METAR,168.0
UUBW 130630Z 30004MPS 9999 OVC020 M00/M04 Q1022 NOSIG RMK SC0.50,UUBW,2015-02-13T06:30:00Z,55.55,38.15,0.0,-4.0,300,8,,6.21,30.177166,,,,,,TRUE,,,,,OVC,2000,,,,,,,MVFR,,,,,,,,,,,,METAR,115.0
ULLI 130630Z VRB01MPS 9999 SCT009 OVC018 00/M01 Q1021 88310245 NOSIG,ULLI,2015-02-13T06:30:00Z,59.8,30.27,0.0,-1.0,0,2,,6.21,30.147638,,,,,,TRUE,,,,,SCT,900,OVC,1800,,,,,MVFR,,,,,,,,,,,,METAR,4.0
UEEE 130630Z 35001MPS CAVOK M19/M21 Q1018 NOSIG RMK QFE755 23490150,UEEE,2015-02-13T06:30:00Z,62.08,129.77,-19.0,-21.0,350,2,,6.21,30.059055,,,,,,TRUE,,,,,CAVOK,,,,,,,,VFR,,,,,,,,,,,,METAR,103.0
UHWW 130630Z 36005MPS 9999 SCT100 M04/M14 Q1011 NOSIG RMK QFE757/1009 25CLRD60,UHWW,2015-02-13T06:30:00Z,43.4,132.15,-4.0,-14.0,360,10,,6.21,29.852362,,,,,,TRUE,,,,,SCT,10000,,,,,,,VFR,,,,,,,,,,,,METAR,184.0
UHSS 130630Z 22002MPS 9999 SCT040CB M01/M07 Q1000 NOSIG RMK QFE749/0999 01810360,UHSS,2015-02-13T06:30:00Z,46.88,142.72,-1.0,-7.0,220,4,,6.21,29.52756,,,,,,TRUE,,,,,SCT,4000,,,,,,,VFR,,,,,,,,,,,,METAR,31.0
UHPP 130630Z 00000MPS 9999 -SHSN BKN026CB M06/M10 Q1016 NOSIG RMK MT OBSC QFE759/1012 SC055,UHPP,2015-02-13T06:30:00Z,53.17,158.45,-6.0,-10.0,0,0,,6.21,30.0,,,,,,TRUE,,,,-SHSN,BKN,2600,,,,,,,MVFR,,,,,,,,,,,,METAR,40.0
UHMM 130630Z 00000MPS 9999 SCT036 OVC100 M13/M17 Q1018 NOSIG RMK QFE749 88450535,UHMM,2015-02-13T06:30:00Z,59.92,150.72,-13.0,-17.0,0,0,,6.21,30.059055,,,,,,TRUE,,,,,SCT,3600,OVC,10000,,,,,VFR,,,,,,,,,,,,METAR,118.0
UHHH 130630Z VRB01MPS CAVOK M09/M13 Q1006 NOSIG RMK QFE748/0998 23890050,UHHH,2015-02-13T06:30:00Z,48.52,135.18,-9.0,-13.0,0,2,,6.21,29.704725,,,,,,TRUE,,,,,CAVOK,,,,,,,,VFR,,,,,,,,,,,,METAR,72.0
UHBB 130630Z 00000MPS 9999 SCT033 BKN100 M04/M13 Q1009 NOSIG RMK QFE739/0985 36420550,UHBB,2015-02-13T06:30:00Z,50.43,127.42,-4.0,-13.0,0,0,,6.21,29.793306,,,,,,TRUE,,,,,SCT,3300,BKN,10000,,,,,VFR,,,,,,,,,,,,METAR,195.0
K6I2 130630Z AUTO 35004KT 10SM FEW025 M09/M13 A3037 RMK AO2,K6I2,2015-02-13T06:30:00Z,37.63,-85.25,-9.0,-13.0,350,4,,10.0,30.369095,,,TRUE,TRUE,,,,,,,FEW,2500,,,,,,,VFR,,,,,,,,,,,,METAR,264.0
YMML 130630Z 13009KT 9999 VCSH FEW065TCU SCT110 OVC260 26/16 Q1018 RMK SHOWER TO W TEMPO 0640/0930 VRB25G45KT 3000 TSRA SCT070CB,YMML,2015-02-13T06:30:00Z,-37.67,144.82,26.0,16.0,130,9,,6.21,30.059055,,,,,,,,,,VCSH,FEW,6500,SCT,11000,OVC,26000,,,VFR,,,,,,,,,,,,SPECI,141.0
VOCL 130630Z 33005KT 8000 FEW012 32/23 Q1013 NOSIG,VOCL,2015-02-13T06:30:00Z,11.13,75.95,32.0,23.0,330,5,,4.97,29.911417,,,,,,TRUE,,,,,FEW,1200,,,,,,,MVFR,,,,,,,,,,,,METAR,104.0
UASK 130630Z 31009MPS 9999 DRSN FEW020 SCT210 M08/M11 Q1023 R30/490242 NOSIG RMK QFE742/0989,UASK,2015-02-13T06:30:00Z,50.03,82.5,-8.0,-11.0,310,17,,6.21,30.206694,,,,,,TRUE,,,,DRSN,FEW,2000,SCT,21000,,,,,VFR,,,,,,,,,,,,METAR,286.0
WMKP 130630Z 20009KT 170V230 8000 FEW022 BKN280 32/23 Q1009 NOSIG,WMKP,2015-02-13T06:30:00Z,5.28,100.27,32.0,23.0,200,9,,4.97,29.793306,,,,,,TRUE,,,,,FEW,2200,BKN,28000,,,,,MVFR,,,,,,,,,,,,METAR,4.0
WMKK 130630Z 23008KT 200V280 8000 FEW017CB SCT018 BKN280 31/23 Q1009 NOSIG,WMKK,2015-02-13T06:30:00Z,2.75,101.72,31.0,23.0,230,8,,4.97,29.793306,,,,,,TRUE,,,,,FEW,1700,SCT,1800,BKN,28000,,,MVFR,,,,,,,,,,,,METAR,22.0
WBSB 130630Z 32008KT 9999 FEW017 SCT140 BKN300 30/23 Q1010 NOSIG,WBSB,2015-02-13T06:30:00Z,4.92,114.92,30.0,23.0,320,8,,6.21,29.822834,,,,,,TRUE,,,,,FEW,1700,SCT,14000,BKN,30000,,,VFR,,,,,,,,,,,,METAR,15.0
WBKK 130630Z 30003KT 9999 FEW015 BKN300 30/25 Q1009 NOSIG,WBKK,2015-02-13T06:30:00Z,5.92,116.03,30.0,25.0,300,3,,6.21,29.793306,,,,,,TRUE,,,,,FEW,1500,BKN,30000,,,,,VFR,,,,,,,,,,,,METAR,3.0
WBGG 130630Z 17001KT 8000 -RA FEW003 SCT020 BKN150 26/23 Q1011 NOSIG,WBGG,2015-02-13T06:30:00Z,1.47,110.35,26.0,23.0,170,1,,4.97,29.852362,,,,,,TRUE,,,,-RA,FEW,300,SCT,2000,BKN,15000,,,MVFR,,,,,,,,,,,,METAR,27.0
LYPG 130630Z 34003KT CAVOK M01/M05 Q1025 NOSIG,LYPG,2015-02-13T06:30:00Z,42.37,19.25,-1.0,-5.0,340,3,,6.21,30.265747,,,,,,TRUE,,,,,CAVOK,,,,,,,,VFR,,,,,,,,,,,,METAR,43.0
ROAH 130630Z 35010KT 310V020 CAVOK 17/03 Q1019 RMK A3009,ROAH,2015-02-13T06:30:00Z,26.17,127.65,17.0,3.0,350,10,,6.21,30.088583,,,,,,,,,,,CAVOK,,,,,,,,VFR,,,,,,,,,,,,METAR,8.0
RJGG 130630Z 33024KT 9999 VCSH FEW005 SCT040 04/M01 Q1009 TEMPO 3000 -SHSN,RJGG,2015-02-13T06:30:00Z,34.87,136.8,4.0,-1.0,330,24,,6.21,29.793306,,,,,,,,,,VCSH,FEW,500,SCT,4000,,,,,VFR,,,,,,,,,,,,METAR,5.0
RJFF 130630Z 30012KT 260V340 9999 FEW040 07/M08 Q1017 RMK 1CU040 A3003,RJFF,2015-02-13T06:30:00Z,33.57,130.43,7.0,-8.0,300,12,,6.21,30.029528,,,,,,,,,,,FEW,4000,,,,,,,VFR,,,,,,,,,,,,METAR,12.0
RJCC 130630Z 34013KT 3500 -SHSN FEW005 BKN008 M02/M04 Q0994 RMK 1ST005 7ST008 A2936,RJCC,2015-02-13T06:30:00Z,42.77,141.67,-2.0,-4.0,340,13,,2.17,29.350393,,,,,,,,,,-SHSN,FEW,500,BKN,800,,,,,IFR,,,,,,,,,,,,SPECI,30.0
RJBB 130630Z 30017KT 9999 VCSH FEW015 06/M06 Q1011 TEMPO 29023G34KT,RJBB,2015-02-13T06:30:00Z,34.42,135.25,6.0,-6.0,300,17,,6.21,29.852362,,,,,,,,,,VCSH,FEW,1500,,,,,,,VFR,,,,,,,,,,,,METAR,8.0
RJAA 130630Z 33014KT 9999 FEW020 BKN070 08/M12 Q1001 NOSIG RMK 1CU020 7AC070 A2956 VIRGA 30KM S-SW MOV E,RJAA,2015-02-13T06:30:00Z,35.77,140.37,8.0,-12.0,330,14,,6.21,29.557087,,,,,,TRUE,,,,,FEW,2000,BKN,7000,,,,,VFR,,,,,,,,,,,,SPECI,44.0
NZCH 130630Z AUTO 20013KT 9999 BKN026/// BKN033/// OVC045/// 14/09 Q1027 NOSIG,NZCH,2015-02-13T06:30:00Z,-43.47,172.55,14.0,9.0,200,13,,6.21,30.324802,,,TRUE,,,TRUE,,,,,,,,,,,,,,,,,,,,,,,,,METAR,34.0
NZWN 130630Z AUTO 19029KT 6000 -DZ BKN019/// 15/12 Q1022 BECMG 9999 TEMPO 4000 DZ BKN008,NZWN,2015-02-13T06:30:00Z,-41.32,174.8,15.0,12.0,190,29,,3.73,30.177166,,,TRUE,,,,,,,-DZ,,,,,,,,,,,,,,,,,,,,,METAR,7.0
NZAA 130630Z AUTO 22015KT 9999 FEW028/// 20/14 Q1019 NOSIG,NZAA,2015-02-13T06:30:00Z,-37.02,174.8,20.0,14.0,220,15,,6.21,30.088583,,,TRUE,,,TRUE,,,,,,,,,,,,,,,,,,,,,,,,,METAR,6.0
LFML 130630Z 00000KT 9999 SCT030 BKN046 OVC100 10/06 Q1021 NOSIG,LFML,2015-02-13T06:30:00Z,43.45,5.22,10.0,6.0,0,0,,6.21,30.147638,,,,,,TRUE,,,,,SCT,3000,BKN,4600,OVC,10000,,,VFR,,,,,,,,,,,,METAR,36.0
KEDJ 130630Z AUTO 00000KT 10SM BKN034 M15/M17 A3034 RMK AO1,KEDJ,2015-02-13T06:30:00Z,40.37,-83.82,-15.0,-17.0,0,0,,10.0,30.339567,,,TRUE,TRUE,,,,,,,BKN,3400,,,,,,,VFR,,,,,,,,,,,,METAR,342.0
VVCT 130630Z 11006KT 090V170 9999 SCT015 29/17 Q1011 NOSIG,VVCT,2015-02-13T06:30:00Z,10.08,105.72,29.0,17.0,110,6,,6.21,29.852362,,,,,,TRUE,,,,,SCT,1500,,,,,,,VFR,,,,,,,,,,,,METAR,3.0
KSTK 130630Z AUTO 35006KT 10SM CLR 00/M03 A3018 RMK AO2,KSTK,2015-02-13T06:30:00Z,40.62,-103.27,0.0,-3.0,350,6,,10.0,30.180119,,,TRUE,TRUE,,,,,,,CLR,,,,,,,,VFR,,,,,,,,,,,,METAR,1231.0
KRCV 130630Z AUTO 21008KT 10SM CLR M02/M06 A3036 RMK AO2 T10161057,KRCV,2015-02-13T06:30:00Z,37.72,-106.35,-1.6,-5.7,210,8,,10.0,30.360237,,,TRUE,TRUE,,,,,,,CLR,,,,,,,,VFR,,,,,,,,,,,,METAR,2424.0
KCDD 130630Z AUTO 18005KT 5SM -SN SCT037 OVC060 M15/M21 A3010 RMK AO2,KCDD,2015-02-13T06:30:00Z,48.27,-92.48,-15.0,-21.0,180,5,,5.0,30.100393,,,TRUE,TRUE,,,,,,-SN,SCT,3700,OVC,6000,,,,,MVFR,,,,,,,,,,,,METAR,341.0
UKKK 130630Z 30002MPS 270V330 9999 OVC006 M01/M02 Q1027 26290055 NOSIG,UKKK,2015-02-13T06:30:00Z,50.4,30.45,-1.0,-2.0,300,4,,6.21,30.324802,,,,,,TRUE,,,,,OVC,600,,,,,,,IFR,,,,,,,,,,,,METAR,179.0
UKLU 130630Z 00000MPS 9999 SKC M06/M06 Q1028 10090070 NOSIG,UKLU,2015-02-13T06:30:00Z,48.63,22.27,-6.0,-6.0,0,0,,6.21,30.35433,,,,,,TRUE,,,,,SKC,,,,,,,,VFR,,9.0,,,,,,,,,,METAR,117.0
UKON 130630Z 36003MPS CAVOK M04/M07 Q1028 NOSIG,UKON,2015-02-13T06:30:00Z,47.05,31.92,-4.0,-7.0,360,6,,6.21,30.35433,,,,,,TRUE,,,,,CAVOK,,,,,,,,VFR,,,,,,,,,,,,METAR,56.0
UKLI 130630Z 00000MPS CAVOK M06/M07 Q1028 28090070 NOSIG,UKLI,2015-02-13T06:30:00Z,48.88,24.68,-6.0,-7.0,0,0,,6.21,30.35433,,,,,,TRUE,,,,,CAVOK,,,,,,,,VFR,,,,,,,,,,,,METAR,280.0
UKLR 130630Z 24001MPS 9999 OVC016 M01/M01 Q1027 NOSIG,UKLR,2015-02-13T06:30:00Z,50.6,26.13,-1.0,-1.0,240,2,,6.21,30.324802,,,,,,TRUE,,,,,OVC,1600,,,,,,,MVFR,,,,,,,,,,,,METAR,230.0
KSYM 130630Z AUTO 01003KT 10SM SCT033 BKN039 M09/M16 A3037 RMK AO2,KSYM,2015-02-13T06:30:00Z,38.22,-83.58,-9.0,-16.0,10,3,,10.0,30.369095,,,TRUE,TRUE,,,,,,,SCT,3300,BKN,3900,,,,,VFR,,,,,,,,,,,,METAR,313.0
UMMS 130630Z VRB01MPS 6000 OVC006 M02/M02 Q1026 R31/810550 NOSIG RMK QBB180,UMMS,2015-02-13T06:30:00Z,53.88,28.03,-2.0,-2.0,0,2,,3.73,30.295275,,,,,,TRUE,,,,,OVC,600,,,,,,,IFR,,,,,,,,,,,,METAR,205.0
UMMM 130630Z 32002MPS 3000 BR OVC007 M01/M02 Q1025 R30/610240 NOSIG RMK QFE749,UMMM,2015-02-13T06:30:00Z,53.87,27.52,-1.0,-2.0,320,4,,1.86,30.265747,,,,,,TRUE,,,,BR,OVC,700,,,,,,,IFR,,,,,,,,,,,,METAR,234.0
UMMG 130630Z 19002MPS 4500 BR OVC012 01/M01 Q1025 R17/190065 NOSIG,UMMG,2015-02-13T06:30:00Z,53.6,24.05,1.0,-1.0,190,4,,2.8,30.265747,,,,,,TRUE,,,,BR,OVC,1200,,,,,,,IFR,,,,,,,,,,,,METAR,135.0
UMGG 130630Z 26003MPS 9999 OVC016CB M01/M02 Q1027 R28/550342 NOSIG,UMGG,2015-02-13T06:30:00Z,52.53,31.02,-1.0,-2.0,260,6,,6.21,30.324802,,,,,,TRUE,,,,,OVC,1600,,,,,,,MVFR,,,,,,,,,,,,METAR,144.0
UMBB 130630Z 21002MPS 2600 BR NSC M02/M03 Q1026 R29/190060 NOSIG,UMBB,2015-02-13T06:30:00Z,52.12,23.9,-2.0,-3.0,210,4,,1.62,30.295275,,,,,,TRUE,,,,BR,,,,,,,,,,,,,,,,,,,,,METAR,143.0
KMDS 130630Z AUTO 19015KT 10SM OVC034 M10/M10 A3010 RMK AO2,KMDS,2015-02-13T06:30:00Z,44.02,-97.08,-10.0,-10.0,190,15,,10.0,30.100393,,,TRUE,TRUE,,,,,,,OVC,3400,,,,,,,VFR,,,,,,,,,,,,METAR,524.0
DTTJ 130630Z 07006KT 6000 FEW020 SCT026 13/12 Q1018 NOSIG,DTTJ,2015-02-13T06:30:00Z,33.87,10.77,13.0,12.0,70,6,,3.73,30.059055,,,,,,TRUE,,,,,FEW,2000,SCT,2600,,,,,MVFR,,,,,,,,,,,,METAR,4.0
DTNH 130630Z AUTO 00000KT 9999NDV NCD 08/05 Q1020,DTNH,2015-02-13T06:30:00Z,36.07,10.43,8.0,5.0,0,0,,,30.11811,,,TRUE,,,,,,,,,,,,,,,,,,,,,,,,,,,,METAR,2.0
DTMB 130630Z 08001KT 8000 FEW020 09/08 Q1020,DTMB,2015-02-13T06:30:00Z,35.77,10.75,9.0,8.0,80,1,,4.97,30.11811,,,,,,,,,,,FEW,2000,,,,,,,MVFR,,,,,,,,,,,,METAR,2.0
FMEP 130630Z AUTO 13017KT 9999 FEW064/// SCT082/// 28/21 Q1013,FMEP,2015-02-13T06:30:00Z,-21.32,55.42,28.0,21.0,130,17,,6.21,29.911417,,,TRUE,,,,,,,,,,,,,,,,,,,,,,,,,,,,METAR,53.0
UCFO 130630Z 04004MPS 9999 FEW050 SCT166 10/04 Q1021 R12/19//60 NOSIG,UCFO,2015-02-13T06:30:00Z,40.6,72.8,10.0,4.0,40,8,,6.21,30.147638,,,,,,TRUE,,,,,FEW,5000,SCT,16600,,,,,VFR,,,,,,,,,,,,METAR,884.0
UCFM 130630Z 06003MPS 9999 SCT010 BKN023CB 03/M00 Q1025 R08/19//60 NOSIG,UCFM,2015-02-13T06:30:00Z,43.07,74.48,3.0,0.0,60,6,,6.21,30.265747,,,,,,TRUE,,,,,SCT,1000,BKN,2300,,,,,MVFR,,,,,,,,,,,,METAR,633.0
UTDT 130630Z 00000MPS 5000 -SHRA BR FEW026 BKN043CB OVC066 10/09 Q1018 35290550 RMK QFE724/0965,UTDT,2015-02-13T06:30:00Z,37.87,68.87,10.0,9.0,0,0,,3.11,30.059055,,,,,,,,,,-SHRA BR,FEW,2600,BKN,4300,OVC,6600,,,MVFR,,,,,,,,,,,,METAR,449.0
UTDK 130630Z 05004MPS 9000 -SHRA SCT013 BKN033CB OVC050 10/08 Q1018 0129//50 RMK QFE706/0942,UTDK,2015-02-13T06:30:00Z,37.98,69.8,10.0,8.0,50,8,,5.59,30.059055,,,,,,,,,,-SHRA,SCT,1300,BKN,3300,OVC,5000,,,VFR,,,,,,,,,,,,METAR,699.0
ZYTX 130630Z 20004MPS 9999 SCT040 03/M07 Q1016 NOSIG,ZYTX,2015-02-13T06:30:00Z,41.63,123.48,3.0,-7.0,200,8,,6.21,30.0,,,,,,TRUE,,,,,SCT,4000,,,,,,,VFR,,,,,,,,,,,,METAR,35.0
UTDL 130630Z 07006G09MPS 7000 SCT010 OVC021 07/04 Q1021 NOSIG RMK QFE727/0969 8829//55,UTDL,2015-02-13T06:30:00Z,40.22,69.7,7.0,4.0,70,12,17,4.35,30.147638,,,,,,TRUE,,,,,SCT,1000,OVC,2100,,,,,MVFR,,,,,,,,,,,,METAR,442.0
LCPH 130630Z 36006KT 9999 FEW008 FEW024CB BKN052 10/06 Q1012,LCPH,2015-02-13T06:30:00Z,34.72,32.47,10.0,6.0,360,6,,6.21,29.88189,,,,,,,,,,,FEW,800,FEW,2400,BKN,5200,,,VFR,,,,,,,,,,,,METAR,8.0
LCLK 130630Z VRB01KT 9999 VCSH FEW018 FEW020TCU FEW030CB 10/07 Q1011 NOSIG,LCLK,2015-02-13T06:30:00Z,34.87,33.62,10.0,7.0,0,1,,6.21,29.852362,,,,,,TRUE,,,,VCSH,FEW,1800,FEW,2000,FEW,3000,,,VFR,,,,,,,,,,,,METAR,2.0
ZYTL 130630Z 25005MPS 210V290 CAVOK 06/M11 Q1017 NOSIG,ZYTL,2015-02-13T06:30:00Z,38.97,121.53,6.0,-11.0,250,10,,6.21,30.029528,,,,,,TRUE,,,,,CAVOK,,,,,,,,VFR,,,,,,,,,,,,METAR,97.0
ZWWW 130630Z 16003MPS 2000 -RA BR OVC020 02/01 Q1017 NOSIG,ZWWW,2015-02-13T06:30:00Z,43.88,87.47,2.0,1.0,160,6,,1.24,30.029528,,,,,,TRUE,,,,-RA BR,OVC,2000,,,,,,,IFR,,,,,,,,,,,,METAR,654.0
ZSSS 130630Z 12004MPS 090V150 CAVOK 13/03 Q1019 NOSIG,ZSSS,2015-02-13T06:30:00Z,31.2,121.33,13.0,3.0,120,8,,6.21,30.088583,,,,,,TRUE,,,,,CAVOK,,,,,,,,VFR,,,,,,,,,,,,METAR,7.0
ZSPD 130630Z 11005MPS 080V180 CAVOK 11/02 Q1020 NOSIG,ZSPD,2015-02-13T06:30:00Z,31.15,121.8,11.0,2.0,110,10,,6.21,30.11811,,,,,,TRUE,,,,,CAVOK,,,,,,,,VFR,,,,,,,,,,,,METAR,4.0
ZSHC 130630Z 09002MPS 040V130 4000 HZ NSC 14/02 Q1019 NOSIG,ZSHC,2015-02-13T06:30:00Z,30.22,120.43,14.0,2.0,90,4,,2.49,30.088583,,,,,,TRUE,,,,HZ,,,,,,,,,,,,,,,,,,,,,METAR,43.0
ZGGG 130630Z 10002MPS 060V160 7000 FEW033 22/04 Q1017 NOSIG,ZGGG,2015-02-13T06:30:00Z,23.4,113.3,22.0,4.0,100,4,,4.35,30.029528,,,,,,TRUE,,,,,FEW,3300,,,,,,,MVFR,,,,,,,,,,,,METAR,15.0
ZBYN 130630Z 21003MPS 170V310 CAVOK 09/M18 Q1015 NOSIG,ZBYN,2015-02-13T06:30:00Z,37.77,112.63,9.0,-18.0,210,6,,6.21,29.970472,,,,,,TRUE,,,,,CAVOK,,,,,,,,VFR,,,,,,,,,,,,METAR,779.0
ZBTJ 130630Z 22005MPS 4000 HZ NSC 10/M08 Q1015 NOSIG,ZBTJ,2015-02-13T06:30:00Z,39.12,117.35,10.0,-8.0,220,10,,2.49,29.970472,,,,,,TRUE,,,,HZ,,,,,,,,,,,,,,,,,,,,,METAR,3.0
ZBAA 130630Z 15003MPS 110V230 7000 NSC 08/M09 Q1015 NOSIG,ZBAA,2015-02-13T06:30:00Z,40.07,116.58,8.0,-9.0,150,6,,4.35,29.970472,,,,,,TRUE,,,,,,,,,,,,,,,,,,,,,,,,,METAR,30.0
UTDD 130630Z VRB01MPS 1600 1300 R09/1800N BR FU FEW050CB BKN100 11/07 Q1018 R09/19//60 TEMPO 0800 FG RMK QFE695/0927,UTDD,2015-02-13T06:30:00Z,38.53,68.82,11.0,7.0,0,2,,0.99,30.059055,,,,,,,,,,FU BR,FEW,5000,BKN,10000,,,,,LIFR,,,,,,,,,,,,METAR,803.0
DAUH 130630Z 35006KT 6000 NSC 08/06 Q1017,DAUH,2015-02-13T06:30:00Z,31.67,6.15,8.0,6.0,350,6,,3.73,30.029528,,,,,,,,,,,,,,,,,,,,,,,,,,,,,,,METAR,142.0
DAOO 130630Z 25002KT 9999 -RA BKN020 BKN100 09/09 Q1022,DAOO,2015-02-13T06:30:00Z,35.62,-0.6,9.0,9.0,250,2,,6.21,30.177166,,,,,,,,,,-RA,BKN,2000,BKN,10000,,,,,MVFR,,,,,,,,,,,,METAR,90.0
DAON 130630Z 24004KT 9999 BKN026 10/08 Q1022,DAON,2015-02-13T06:30:00Z,35.02,-1.47,10.0,8.0,240,4,,6.21,30.177166,,,,,,,,,,,BKN,2600,,,,,,,MVFR,,,,,,,,,,,,METAR,247.0
DABS 130630Z 00000KT 9999 SCT040 SCT100 05/04 Q1019,DABS,2015-02-13T06:30:00Z,35.43,8.12,5.0,4.0,0,0,,6.21,30.088583,,,,,,,,,,,SCT,4000,SCT,10000,,,,,VFR,,,,,,,,,,,,METAR,813.0
DABB 130630Z 19002KT 9999 FEW040 BKN100 10/09 Q1019,DABB,2015-02-13T06:30:00Z,36.82,7.82,10.0,9.0,190,2,,6.21,30.088583,,,,,,,,,,,FEW,4000,BKN,10000,,,,,VFR,,,,,,,,,,,,METAR,4.0
DAAT 130630Z 05003KT 8000 NSC 14/M04 Q1022,DAAT,2015-02-13T06:30:00Z,22.82,5.47,14.0,-4.0,50,3,,4.97,30.177166,,,,,,,,,,,,,,,,,,,,,,,,,,,,,,,METAR,1377.0
DAAG 130630Z 00000KT 9999 FEW013 FEW023TCU BKN033 07/06 Q1021,DAAG,2015-02-13T06:30:00Z,36.72,3.22,7.0,6.0,0,0,,6.21,30.147638,,,,,,,,,,,FEW,1300,FEW,2300,BKN,3300,,,VFR,,,,,,,,,,,,METAR,25.0
RJSU 130630Z 29014KT 9000 -SHSN FEW015 SCT030 BKN050 02/M06 Q1001 RMK 1CU015 3CU030 5CU050 A2958,RJSU,2015-02-13T06:30:00Z,38.22,140.92,2.0,-6.0,290,14,,5.59,29.557087,,,,,,,,,,-SHSN,FEW,1500,SCT,3000,BKN,5000,,,VFR,,,,,,,,,,,,METAR,10.0
GEML 130630Z VRB02KT 9999 FEW009 SCT020 BKN048 11/09 Q1023,GEML,2015-02-13T06:30:00Z,35.27,-2.95,11.0,9.0,0,2,,6.21,30.206694,,,,,,,,,,,FEW,900,SCT,2000,BKN,4800,,,VFR,,,,,,,,,,,,METAR,55.0
UAUU 130630Z 22007G13MPS CAVOK M07/M10 Q1014 R15/820155 NOSIG RMK QFE744/0993,UAUU,2015-02-13T06:30:00Z,53.2,63.55,-7.0,-10.0,220,14,25,6.21,29.940945,,,,,,TRUE,,,,,CAVOK,,,,,,,,VFR,,,,,,,,,,,,METAR,182.0
UATT 130630Z 21002MPS 7000 -SN BKN014 M10/M11 Q1024 R31/490150 NOSIG RMK QFE748/0997,UATT,2015-02-13T06:30:00Z,50.25,57.2,-10.0,-11.0,210,4,,4.35,30.236221,,,,,,TRUE,,,,-SN,BKN,1400,,,,,,,MVFR,,,,,,,,,,,,METAR,227.0
UATG 130630Z 06001MPS 5000 BR SCT180 M12/M12 Q1027 R14/CLRD70 NOSIG RMK QFE772/1030,UATG,2015-02-13T06:30:00Z,47.12,51.83,-12.0,-12.0,60,2,,3.11,30.324802,,,,,,TRUE,,,,BR,SCT,18000,,,,,,,MVFR,,,,,,,,,,,,METAR,-22.0
UATE 130630Z 05009MPS CAVOK 03/M03 Q1022 R12/0///70 NOSIG RMK QFE764/1019,UATE,2015-02-13T06:30:00Z,43.87,51.1,3.0,-3.0,50,17,,6.21,30.177166,,,,,,TRUE,,,,,CAVOK,,,,,,,,VFR,,,,,,,,,,,,METAR,22.0
UARR 130630Z 20004MPS 1200 -SG BR OVC002 M07/M08 Q1024 R22/820555 TEMPO 0600 FZFG VV002 RMK QBB060 QFE764/1019,UARR,2015-02-13T06:30:00Z,51.15,51.53,-7.0,-8.0,200,8,,0.75,30.236221,,,,,,,,,,-SG BR,OVC,200,,,,,,,LIFR,,,,,,,,,,,,METAR,38.0
UASS 130630Z 29006MPS CAVOK M11/M13 Q1027 R26/89//35 NOSIG RMK QFE751/1002,UASS,2015-02-13T06:30:00Z,50.35,80.23,-11.0,-13.0,290,12,,6.21,30.324802,,,,,,TRUE,,,,,CAVOK,,,,,,,,VFR,,,,,,,,,,,,METAR,232.0
UASP 130630Z 25008MPS 9999 DRSN FEW200 M08/M12 Q1024 R21/0///60 NOSIG RMK QFE756/1009,UASP,2015-02-13T06:30:00Z,52.2,77.07,-8.0,-12.0,250,16,,6.21,30.236221,,,,,,TRUE,,,,DRSN,FEW,20000,,,,,,,VFR,,,,,,,,,,,,METAR,125.0
UAOO 130630Z 08004MPS CAVOK M01/M03 Q1026 R06/CLRD70 NOSIG RMK QFE758/1011,UAOO,2015-02-13T06:30:00Z,44.7,65.6,-1.0,-3.0,80,8,,6.21,30.295275,,,,,,TRUE,,,,,CAVOK,,,,,,,,VFR,,,,,,,,,,,,METAR,129.0
UAKK 130630Z 21005MPS 9999 FEW010 M12/M14 Q1025 R23/990535 NOSIG RMK QFE722/0963,UAKK,2015-02-13T06:30:00Z,49.67,73.33,-12.0,-14.0,210,10,,6.21,30.265747,,,,,,TRUE,,,,,FEW,1000,,,,,,,VFR,,,,,,,,,,,,METAR,538.0
UAII 130630Z 35003MPS 320V020 7000 SCT011 OVC100 06/06 Q1022 R28/0///70 NOSIG RMK QFE729/0972,UAII,2015-02-13T06:30:00Z,42.37,69.48,6.0,6.0,350,6,,4.35,30.177166,,,,,,TRUE,,,,,SCT,1100,OVC,10000,,,,,MVFR,,,,,,,,,,,,METAR,422.0
UACP 130630Z 24013G18MPS 3500 BLSN SCT011 BKN200 M07/M08 Q1009 R23/8/0557 NOSIG RMK QFE744/0992,UACP,2015-02-13T06:30:00Z,54.78,69.18,-7.0,-8.0,240,25,35,2.17,29.793306,,,,,,TRUE,,,,BLSN,SCT,1100,BKN,20000,,,,,IFR,,,,,,,,,,,,METAR,142.0
UACK 130630Z 24011MPS 9999 DRSN NSC M05/M08 Q1013 R20/410560 NOSIG RMK QFE736/0982,UACK,2015-02-13T06:30:00Z,53.32,69.58,-5.0,-8.0,240,21,,6.21,29.911417,,,,,,TRUE,,,,DRSN,,,,,,,,,,,,,,,,,,,,,METAR,2547.0
UACC 130630Z 21008MPS CAVOK M09/M12 Q1024 R22/3/0065 NOSIG RMK QFE737/0982,UACC,2015-02-13T06:30:00Z,51.02,71.47,-9.0,-12.0,210,16,,6.21,30.236221,,,,,,TRUE,,,,,CAVOK,,,,,,,,VFR,,,,,,,,,,,,METAR,355.0
UADD 130630Z 03004MPS 9999 BKN008 OVC050CB 02/M01 Q1023 NOSIG RMK MT OBSC QFE710/0947,UADD,2015-02-13T06:30:00Z,42.85,71.3,2.0,-1.0,30,8,,6.21,30.206694,,,,,,TRUE,,,,,BKN,800,OVC,5000,,,,,IFR,,,,,,,,,,,,METAR,665.0
UAAH 130630Z 09006MPS CAVOK M06/M10 Q1027 R05/710145 NOSIG RMK QFE733/0977,UAAH,2015-02-13T06:30:00Z,46.9,75.0,-6.0,-10.0,90,12,,6.21,30.324802,,,,,,TRUE,,,,,CAVOK,,,,,,,,VFR,,,,,,,,,,,,METAR,441.0
UAAA 130630Z 25004MPS 9999 SCT050CB BKN100 03/M04 Q1025 R88/2/0150 NOSIG,UAAA,2015-02-13T06:30:00Z,43.35,77.03,3.0,-4.0,250,8,,6.21,30.265747,,,,,,TRUE,,,,,SCT,5000,BKN,10000,,,,,VFR,,,,,,,,,,,,METAR,847.0
UDSG 130630Z 00000MPS 5000 BR FEW020 M11/M12 Q1018 R02/CLRD70 NOSIG,UDSG,2015-02-13T06:30:00Z,40.75,43.87,-11.0,-12.0,0,0,,3.11,30.059055,,,,,,TRUE,,,,BR,FEW,2000,,,,,,,MVFR,,,,,,,,,,,,METAR,1524.0
UDYZ 130630Z 00000MPS 6000 SKC 01/M02 Q1020 R09/010070 NOSIG,UDYZ,2015-02-13T06:30:00Z,40.15,44.4,1.0,-2.0,0,0,,3.73,30.11811,,,,,,TRUE,,,,,SKC,,,,,,,,MVFR,,,,,,,,,,,,METAR,865.0
RKSI 130630Z 28012KT CAVOK 02/M14 Q1020 NOSIG,RKSI,2015-02-13T06:30:00Z,37.47,126.45,2.0,-14.0,280,12,,6.21,30.11811,,,,,,TRUE,,,,,CAVOK,,,,,,,,VFR,,,,,,,,,,,,METAR,7.0
OIAW 130630Z 00000KT 3500 DU NSC 15/05 Q1018,OIAW,2015-02-13T06:30:00Z,31.32,48.77,15.0,5.0,0,0,,2.17,30.059055,,,,,,,,,,DU,,,,,,,,,,,,,,,,,,,,,METAR,22.0
LESA 130630Z VRB02KT CAVOK 01/01 Q1021,LESA,2015-02-13T06:30:00Z,40.95,-5.5,1.0,1.0,0,2,,6.21,30.147638,,,,,,,,,,,CAVOK,,,,,,,,VFR,,,,,,,,,,,,METAR,795.0
LEVS 130630Z 13001KT 0200 FG NSC 01/01 Q1022,LEVS,2015-02-13T06:30:00Z,40.37,-3.77,1.0,1.0,130,1,,0.12,30.177166,,,,,,,,,,FG,,,,,,,,,,,,,,,,,,,,,METAR,687.0
LEVD 130630Z 25004KT 6000 SCT005 SCT039 01/00 Q1020,LEVD,2015-02-13T06:30:00Z,41.72,-4.83,1.0,0.0,250,4,,3.73,30.11811,,,,,,,,,,,SCT,500,SCT,3900,,,,,MVFR,,,,,,,,,,,,METAR,854.0
LEXJ 130630Z 00000KT CAVOK 03/02 Q1017,LEXJ,2015-02-13T06:30:00Z,43.42,-3.82,3.0,2.0,0,0,,6.21,30.029528,,,,,,,,,,,CAVOK,,,,,,,,VFR,,,,,,,,,,,,METAR,6.0
LEPP 130630Z 00000KT 9999 FEW052 02/02 Q1020,LEPP,2015-02-13T06:30:00Z,42.77,-1.65,2.0,2.0,0,0,,6.21,30.11811,,,,,,,,,,,FEW,5200,,,,,,,VFR,,,,,,,,,,,,METAR,459.0
LEJR 130630Z 00000KT 0900 R20/1500U BCFG FG NSC 05/05 Q1024,LEJR,2015-02-13T06:30:00Z,36.75,-6.07,5.0,5.0,0,0,,0.56,30.236221,,,,,,,,,,BCFG FG,,,,,,,,,,,,,,,,,,,,,METAR,30.0
GCFV 130630Z 32007KT 9999 FEW035 14/09 Q1024,GCFV,2015-02-13T06:30:00Z,28.43,-13.87,14.0,9.0,320,7,,6.21,30.236221,,,,,,,,,,,FEW,3500,,,,,,,VFR,,,,,,,,,,,,METAR,23.0
GCRR 130630Z 35008KT 9999 FEW030 14/10 Q1024,GCRR,2015-02-13T06:30:00Z,28.93,-13.58,14.0,10.0,350,8,,6.21,30.236221,,,,,,,,,,,FEW,3000,,,,,,,VFR,,,,,,,,,,,,METAR,40.0
GCTS 130630Z 01008KT 9999 FEW040 14/07 Q1024 NOSIG,GCTS,2015-02-13T06:30:00Z,28.05,-16.57,14.0,7.0,10,8,,6.21,30.236221,,,,,,TRUE,,,,,FEW,4000,,,,,,,VFR,,,,,,,,,,,,METAR,72.0
GCXO 130630Z 32011KT 9999 SCT014 10/08 Q1025 NOSIG,GCXO,2015-02-13T06:30:00Z,28.48,-16.35,10.0,8.0,320,11,,6.21,30.265747,,,,,,TRUE,,,,,SCT,1400,,,,,,,VFR,,,,,,,,,,,,METAR,632.0
GCLP 130630Z 35010KT 9999 SCT030 15/09 Q1024 NOSIG,GCLP,2015-02-13T06:30:00Z,27.92,-15.37,15.0,9.0,350,10,,6.21,30.236221,,,,,,TRUE,,,,,SCT,3000,,,,,,,VFR,,,,,,,,,,,,METAR,25.0
LEGR 130630Z VRB01KT 3000 BCFG FEW002 BKN006 03/03 Q1023,LEGR,2015-02-13T06:30:00Z,37.17,-3.77,3.0,3.0,0,1,,1.86,30.206694,,,,,,,,,,BCFG,FEW,200,BKN,600,,,,,IFR,,,,,,,,,,,,METAR,559.0
LEAM 130630Z 33004KT 9999 SCT080 10/08 Q1023,LEAM,2015-02-13T06:30:00Z,36.85,-2.37,10.0,8.0,330,4,,6.21,30.206694,,,,,,,,,,,SCT,8000,,,,,,,VFR,,,,,,,,,,,,METAR,21.0
LEMH 130630Z 11005KT 080V160 9000 -RA FEW015 SCT025 10/09 Q1021,LEMH,2015-02-13T06:30:00Z,39.87,4.22,10.0,9.0,110,5,,5.59,30.147638,,,,,,,,,,-RA,FEW,1500,SCT,2500,,,,,VFR,,,,,,,,,,,,METAR,82.0
LERS 130630Z 03003KT 360V060 CAVOK 05/02 Q1021,LERS,2015-02-13T06:30:00Z,41.13,1.17,5.0,2.0,30,3,,6.21,30.147638,,,,,,,,,,,CAVOK,,,,,,,,VFR,,,,,,,,,,,,METAR,76.0
LEVT 130630Z VRB02KT 4000 BR FEW035 M00/M00 Q1019,LEVT,2015-02-13T06:30:00Z,42.87,-2.72,0.0,0.0,0,2,,2.49,30.088583,,,,,,,,,,BR,FEW,3500,,,,,,,IFR,,,,,,,,,,,,METAR,509.0
LESO 130630Z 22005KT CAVOK 09/03 Q1018,LESO,2015-02-13T06:30:00Z,43.35,-1.8,9.0,3.0,220,5,,6.21,30.059055,,,,,,,,,,,CAVOK,,,,,,,,VFR,,,,,,,,,,,,METAR,8.0
LEZG 130630Z 11005KT 080V140 CAVOK 01/00 Q1021,LEZG,2015-02-13T06:30:00Z,41.67,-1.02,1.0,0.0,110,5,,6.21,30.147638,,,,,,,,,,,CAVOK,,,,,,,,VFR,,,,,,,,,,,,METAR,258.0
LEGE 130630Z 00000KT 6000 FEW090 06/05 Q1021,LEGE,2015-02-13T06:30:00Z,41.88,2.77,6.0,5.0,0,0,,3.73,30.147638,,,,,,,,,,,FEW,9000,,,,,,,MVFR,,,,,,,,,,,,METAR,129.0
LECO 130630Z 19012G22KT 140V230 9999 FEW020 SCT025 BKN035 10/07 Q1016 NOSIG,LECO,2015-02-13T06:30:00Z,43.28,-8.37,10.0,7.0,190,12,22,6.21,30.0,,,,,,TRUE,,,,,FEW,2000,SCT,2500,BKN,3500,,,VFR,,,,,,,,,,,,METAR,103.0
LEBB 130630Z VRB02KT CAVOK 06/02 Q1018 NOSIG,LEBB,2015-02-13T06:30:00Z,43.28,-2.92,6.0,2.0,0,2,,6.21,30.059055,,,,,,TRUE,,,,,CAVOK,,,,,,,,VFR,,,,,,,,,,,,METAR,34.0
LEAS 130630Z 22014KT 9999 BKN074 10/02 Q1015 NOSIG,LEAS,2015-02-13T06:30:00Z,43.53,-6.02,10.0,2.0,220,14,,6.21,29.970472,,,,,,TRUE,,,,,BKN,7400,,,,,,,VFR,,,,,,,,,,,,METAR,134.0
LEVX 130630Z 17009KT 100V210 3000 VCFG SCT002 BKN033 06/06 Q1020 TEMPO 0800 BCFG,LEVX,2015-02-13T06:30:00Z,42.22,-8.62,6.0,6.0,170,9,,1.86,30.11811,,,,,,,,,,VCFG,SCT,200,BKN,3300,,,,,IFR,,,,,,,,,,,,METAR,256.0
LEIB 130630Z VRB02KT 9999 FEW022 10/09 Q1021 NOSIG,LEIB,2015-02-13T06:30:00Z,38.87,1.37,10.0,9.0,0,2,,6.21,30.147638,,,,,,TRUE,,,,,FEW,2200,,,,,,,VFR,,,,,,,,,,,,METAR,12.0
LEAL 130630Z 22005KT 200V270 9999 FEW022 06/05 Q1022 NOSIG,LEAL,2015-02-13T06:30:00Z,38.27,-0.55,6.0,5.0,220,5,,6.21,30.177166,,,,,,TRUE,,,,,FEW,2200,,,,,,,VFR,,,,,,,,,,,,METAR,31.0
LEVC 130630Z 00000KT 8000 FEW030 SCT060 07/06 Q1021 NOSIG,LEVC,2015-02-13T06:30:00Z,39.5,-0.47,7.0,6.0,0,0,,4.97,30.147638,,,,,,TRUE,,,,,FEW,3000,SCT,6000,,,,,MVFR,,,,,,,,,,,,METAR,62.0
LEMG 130630Z 30007KT 9999 FEW015 08/07 Q1023 NOSIG,LEMG,2015-02-13T06:30:00Z,36.67,-4.5,8.0,7.0,300,7,,6.21,30.206694,,,,,,TRUE,,,,,FEW,1500,,,,,,,VFR,,,,,,,,,,,,METAR,7.0
LEZL 130630Z 00000KT 0100 R27/0400D R09/0150N FG VV001 08/08 Q1024 NOSIG,LEZL,2015-02-13T06:30:00Z,37.42,-5.9,8.0,8.0,0,0,,0.06,30.236221,,,,,,TRUE,,,,FG,OVX,0,,,,,,,LIFR,,,,,,,,,,,100,METAR,31.0
LEPA 130630Z VRB01KT 9999 FEW030 08/07 Q1021 NOSIG,LEPA,2015-02-13T06:30:00Z,39.53,2.72,8.0,7.0,0,1,,6.21,30.147638,,,,,,TRUE,,,,,FEW,3000,,,,,,,VFR,,,,,,,,,,,,METAR,8.0
LEBL 130630Z 31004KT 9999 FEW020 09/05 Q1021 NOSIG,LEBL,2015-02-13T06:30:00Z,41.27,2.07,9.0,5.0,310,4,,6.21,30.147638,,,,,,TRUE,,,,,FEW,2000,,,,,,,VFR,,,,,,,,,,,,METAR,6.0
LEMD 130630Z 00000KT 7000 BKN007 01/01 Q1022 NOSIG,LEMD,2015-02-13T06:30:00Z,40.48,-3.57,1.0,1.0,0,0,,4.35,30.177166,,,,,,TRUE,,,,,BKN,700,,,,,,,IFR,,,,,,,,,,,,METAR,582.0
LETL 130630Z AUTO 20005KT 0250 R36/0650D FZFG VV002 M02/M02 Q1021,LETL,2015-02-13T06:30:00Z,40.42,-1.22,-2.0,-2.0,200,5,,0.16,30.147638,,,TRUE,,,,,,,FZFG,OVX,0,,,,,,,LIFR,,,,,,,,,,,200,METAR,1013.0
LEAG 130630Z AUTO 34004KT 300V050 9999 // NCD 08/06 Q1024,LEAG,2015-02-13T06:30:00Z,,,8.0,6.0,340,4,,6.21,30.236221,,,TRUE,,,,,,,,,,,,,,,,,,,,,,,,,,,,METAR,
LRTC 130630Z 36008KT CAVOK M01/M04 Q1028,LRTC,2015-02-13T06:30:00Z,45.07,28.72,-1.0,-4.0,360,8,,6.21,30.35433,,,,,,,,,,,CAVOK,,,,,,,,VFR,,,,,,,,,,,,METAR,6.0
LRSV 130630Z 35006KT CAVOK M02/M04 Q1027,LRSV,2015-02-13T06:30:00Z,47.68,26.35,-2.0,-4.0,350,6,,6.21,30.324802,,,,,,,,,,,CAVOK,,,,,,,,VFR,,,,,,,,,,,,METAR,351.0
LRCV 130630Z 30004KT CAVOK M06/M08 Q1028,LRCV,2015-02-13T06:30:00Z,44.32,23.88,-6.0,-8.0,300,4,,6.21,30.35433,,,,,,,,,,,CAVOK,,,,,,,,VFR,,,,,,,,,,,,METAR,191.0
LRBC 130630Z 34004KT CAVOK M06/M08 Q1028 R16/09//95,LRBC,2015-02-13T06:30:00Z,46.52,26.92,-6.0,-8.0,340,4,,6.21,30.35433,,,,,,,,,,,CAVOK,,,,,,,,VFR,,,,,,,,,,,,METAR,185.0
LFRK 130630Z AUTO 20007KT 6000 SCT015 SCT027 BKN054 05/03 Q1010,LFRK,2015-02-13T06:30:00Z,49.17,-0.45,5.0,3.0,200,7,,3.73,29.822834,,,TRUE,,,,,,,,SCT,1500,SCT,2700,BKN,5400,,,MVFR,,,,,,,,,,,,METAR,67.0
LFRG 130630Z AUTO 19010KT 9999 FEW014 SCT076 04/02 Q1010,LFRG,2015-02-13T06:30:00Z,49.37,0.15,4.0,2.0,190,10,,6.21,29.822834,,,TRUE,,,,,,,,FEW,1400,SCT,7600,,,,,VFR,,,,,,,,,,,,METAR,146.0
LFRC 130630Z AUTO 17010KT 9999 OVC012 06/04 Q1007,LFRC,2015-02-13T06:30:00Z,49.63,-1.47,6.0,4.0,170,10,,6.21,29.734253,,,TRUE,,,,,,,,OVC,1200,,,,,,,MVFR,,,,,,,,,,,,METAR,138.0
LFPN 130630Z AUTO 15009KT 8000 NSC 03/01 Q1014,LFPN,2015-02-13T06:30:00Z,48.75,2.12,3.0,1.0,150,9,,4.97,29.940945,,,TRUE,,,,,,,,,,,,,,,,,,,,,,,,,,,,SPECI,164.0
LFOT 130630Z AUTO 16010KT 8000 BKN015 OVC074 05/03 Q1014,LFOT,2015-02-13T06:30:00Z,47.43,0.72,5.0,3.0,160,10,,4.97,29.940945,,,TRUE,,,,,,,,BKN,1500,OVC,7400,,,,,MVFR,,,,,,,,,,,,METAR,108.0
LFMH 130630Z 15004KT CAVOK 04/00 Q1019 NOSIG,LFMH,2015-02-13T06:30:00Z,45.52,4.28,4.0,0.0,150,4,,6.21,30.088583,,,,,,TRUE,,,,,CAVOK,,,,,,,,VFR,,,,,,,,,,,,METAR,402.0
LFMD 130630Z AUTO 01005KT 310V050 9999 OVC030 07/04 Q1022,LFMD,2015-02-13T06:30:00Z,43.53,6.95,7.0,4.0,10,5,,6.21,30.177166,,,TRUE,,,,,,,,OVC,3000,,,,,,,MVFR,,,,,,,,,,,,METAR,9.0
LFJR 130630Z AUTO 14008KT 5000 BR FEW029/// BKN035/// OVC044/// ///TCU 04/03 Q1013,LFJR,2015-02-13T06:30:00Z,47.57,-0.3,4.0,3.0,140,8,,3.11,29.911417,,,TRUE,,,,,,,BR,,,,,,,,,,,,,,,,,,,,,METAR,60.0
LFGJ 130630Z AUTO VRB03KT 9999 NSC M02/M04 Q1019,LFGJ,2015-02-13T06:30:00Z,47.05,5.43,-2.0,-4.0,0,3,,6.21,30.088583,,,TRUE,,,,,,,,,,,,,,,,,,,,,,,,,,,,METAR,196.0
LFBE 130630Z AUTO VRB03KT 4200 BR OVC006 06/04 Q1018,LFBE,2015-02-13T06:30:00Z,44.82,0.52,6.0,4.0,0,3,,2.61,30.059055,,,TRUE,,,,,,,BR,OVC,600,,,,,,,IFR,,,,,,,,,,,,METAR,52.0
LFBA 130630Z AUTO 11006KT 1100 R29/P2000 BR OVC002 05/05 Q1019,LFBA,2015-02-13T06:30:00Z,44.17,0.6,5.0,5.0,110,6,,0.68,30.088583,,,TRUE,,,,,,,BR,OVC,200,,,,,,,LIFR,,,,,,,,,,,,METAR,60.0
LROD 130630Z 11003KT CAVOK M03/M06 Q1028,LROD,2015-02-13T06:30:00Z,47.03,21.92,-3.0,-6.0,110,3,,6.21,30.35433,,,,,,,,,,,CAVOK,,,,,,,,VFR,,,,,,,,,,,,METAR,140.0
LRTM 130630Z 07004KT 3500 BR SCT002 M11/M12 Q1029,LRTM,2015-02-13T06:30:00Z,46.47,24.42,-11.0,-12.0,70,4,,2.17,30.383858,,,,,,,,,,BR,SCT,200,,,,,,,IFR,,,,,,,,,,,,METAR,309.0
LRSM 130630Z 00000KT CAVOK M06/M07 Q1028,LRSM,2015-02-13T06:30:00Z,47.7,22.88,-6.0,-7.0,0,0,,6.21,30.35433,,,,,,,,,,,CAVOK,,,,,,,,VFR,,,,,,,,,,,,METAR,124.0
LRCL 130630Z 00000KT 5000 BR NSC M08/M09 Q1029,LRCL,2015-02-13T06:30:00Z,46.78,23.68,-8.0,-9.0,0,0,,3.11,30.383858,,,,,,,,,,BR,,,,,,,,,,,,,,,,,,,,,METAR,413.0
LRBM 130630Z 11005KT CAVOK M05/M07 Q1029,LRBM,2015-02-13T06:30:00Z,47.67,23.47,-5.0,-7.0,110,5,,6.21,30.383858,,,,,,,,,,,CAVOK,,,,,,,,VFR,,,,,,,,,,,,METAR,185.0
LRAR 130630Z 12003KT 9000 NSC M02/M04 Q1028,LRAR,2015-02-13T06:30:00Z,46.18,21.27,-2.0,-4.0,120,3,,5.59,30.35433,,,,,,,,,,,,,,,,,,,,,,,,,,,,,,,METAR,118.0
LFTH 130630Z AUTO 36003KT 320V060 9999 OVC016 09/08 Q1021,LFTH,2015-02-13T06:30:00Z,43.1,6.15,9.0,8.0,360,3,,6.21,30.147638,,,TRUE,,,,,,,,OVC,1600,,,,,,,MVFR,,,,,,,,,,,,METAR,4.0
LFST 130630Z AUTO 21004KT 0600 0500 R23/P2000 R05/1600N FZFG VV/// M02/M02 Q1021,LFST,2015-02-13T06:30:00Z,48.53,7.62,-2.0,-2.0,210,4,,0.37,30.147638,,,TRUE,,,,,,,FZFG,OVX,0,,,,,,,LIFR,,,,,,,,,,,,METAR,154.0
LFSG 130630Z AUTO VRB02KT 9999 NSC M01/M03 Q1018,LFSG,2015-02-13T06:30:00Z,48.33,6.07,-1.0,-3.0,0,2,,6.21,30.059055,,,TRUE,,,,,,,,,,,,,,,,,,,,,,,,,,,,METAR,330.0
LFSB 130630Z 17005KT 140V210 5000 NSC M02/M03 Q1020 NOSIG,LFSB,2015-02-13T06:30:00Z,47.6,7.52,-2.0,-3.0,170,5,,3.11,30.11811,,,,,,TRUE,,,,,,,,,,,,,,,,,,,,,,,,,METAR,271.0
LFRZ 130630Z AUTO 19009KT 9999 FEW029 SCT035 08/06 Q1011,LFRZ,2015-02-13T06:30:00Z,47.32,-2.17,8.0,6.0,190,9,,6.21,29.852362,,,TRUE,,,,,,,,FEW,2900,SCT,3500,,,,,VFR,,,,,,,,,,,,METAR,4.0
LFRV 130630Z AUTO 17007KT 9999 FEW021 BKN220 06/06 Q1008,LFRV,2015-02-13T06:30:00Z,47.72,-2.72,6.0,6.0,170,7,,6.21,29.763779,,,TRUE,,,,,,,,FEW,2100,BKN,22000,,,,,VFR,,,,,,,,,,,,METAR,133.0
LFRO 130630Z AUTO 16013KT 9999 NSC 07/05 Q1004,LFRO,2015-02-13T06:30:00Z,48.75,-3.47,7.0,5.0,160,13,,6.21,29.64567,,,TRUE,,,,,,,,,,,,,,,,,,,,,,,,,,,,METAR,89.0
LFRN 130630Z AUTO 18010KT 5000 BR OVC007 07/06 Q1010,LFRN,2015-02-13T06:30:00Z,48.07,-1.72,7.0,6.0,180,10,,3.11,29.822834,,,TRUE,,,,,,,BR,OVC,700,,,,,,,IFR,,,,,,,,,,,,METAR,37.0
LFRM 130630Z AUTO 17007KT 140V220 9000 FEW040 OVC064 05/03 Q1013,LFRM,2015-02-13T06:30:00Z,47.95,0.2,5.0,3.0,170,7,,5.59,29.911417,,,TRUE,,,,,,,,FEW,4000,OVC,6400,,,,,VFR,,,,,,,,,,,,METAR,52.0
LFRI 130630Z AUTO 18008KT 2200 RA BR SCT003/// SCT009/// BKN019/// ///TCU 07/07 Q1013,LFRI,2015-02-13T06:30:00Z,46.7,-1.37,7.0,7.0,180,8,,1.37,29.911417,,,TRUE,,,,,,,RA BR,,,,,,,,,,,,,,,,,,,,,METAR,91.0
LFRD 130630Z AUTO 17013KT 9999 FEW008 SCT160 BKN220 07/05 Q1008,LFRD,2015-02-13T06:30:00Z,48.58,-2.07,7.0,5.0,170,13,,6.21,29.763779,,,TRUE,,,,,,,,FEW,800,SCT,16000,BKN,22000,,,VFR,,,,,,,,,,,,METAR,59.0
LFOV 130630Z AUTO 17008KT 5000 BR FEW009 SCT013 BKN046 04/03 Q1011,LFOV,2015-02-13T06:30:00Z,48.03,-0.75,4.0,3.0,170,8,,3.11,29.852362,,,TRUE,,,,,,,BR,FEW,900,SCT,1300,BKN,4600,,,MVFR,,,,,,,,,,,,METAR,101.0
LFMK 130630Z AUTO 15003KT 6000 FEW016 OVC024 05/05 Q1020,LFMK,2015-02-13T06:30:00Z,43.22,2.32,5.0,5.0,150,3,,3.73,30.11811,,,TRUE,,,,,,,,FEW,1600,OVC,2400,,,,,MVFR,,,,,,,,,,,,METAR,130.0
LFMI 130630Z AUTO 08001KT 9999 FEW024 BKN031 BKN042 08/07 Q1021,LFMI,2015-02-13T06:30:00Z,43.52,4.92,8.0,7.0,80,1,,6.21,30.147638,,,TRUE,,,,,,,,FEW,2400,BKN,3100,BKN,4200,,,VFR,,,,,,,,,,,,METAR,24.0
LRTR 130630Z 08004KT CAVOK M03/M05 Q1027 NOSIG,LRTR,2015-02-13T06:30:00Z,45.82,21.33,-3.0,-5.0,80,4,,6.21,30.324802,,,,,,TRUE,,,,,CAVOK,,,,,,,,VFR,,,,,,,,,,,,METAR,88.0
LRSB 130630Z 11002KT CAVOK M10/M11 Q1028,LRSB,2015-02-13T06:30:00Z,45.78,24.08,-10.0,-11.0,110,2,,6.21,30.35433,,,,,,,,,,,CAVOK,,,,,,,,VFR,,,,,,,,,,,,METAR,444.0
LROP 130630Z 25002KT 1500 BR NSC M04/M05 Q1028 BECMG 5000,LROP,2015-02-13T06:30:00Z,44.57,26.1,-4.0,-5.0,250,2,,0.93,30.35433,,,,,,,,,,BR,,,,,,,,,,,,,,,,,,,,,METAR,95.0
LRCK 130630Z 32006KT 9999 FEW005 SCT008 M02/M02 Q1026 RMK R36/910395 NOSIG,LRCK,2015-02-13T06:30:00Z,44.37,28.48,-2.0,-2.0,320,6,,6.21,30.295275,,,,,,,,,,,FEW,500,SCT,800,,,,,VFR,,,,,,,,,,,,METAR,108.0
LRBS 130630Z 00000KT 3000 BR BR NSC M03/M04 Q1028 BECMG 5000,LRBS,2015-02-13T06:30:00Z,44.5,26.08,-3.0,-4.0,0,0,,1.86,30.35433,,,,,,,,,,BR BR,,,,,,,,,,,,,,,,,,,,,METAR,91.0
LFTW 130630Z AUTO 00000KT 4400 BR SCT029 OVC035 07/06 Q1021,LFTW,2015-02-13T06:30:00Z,43.75,4.42,7.0,6.0,0,0,,2.73,30.147638,,,TRUE,,,,,,,BR,SCT,2900,OVC,3500,,,,,IFR,,,,,,,,,,,,METAR,96.0
LFSD 130630Z AUTO 00000KT 4300 BR NSC M04/M04 Q1019,LFSD,2015-02-13T06:30:00Z,47.27,5.07,-4.0,-4.0,0,0,,2.67,30.088583,,,TRUE,,,,,,,BR,,,,,,,,,,,,,,,,,,,,,SPECI,227.0
LFRQ 130630Z AUTO 19016KT 9999 BKN023/// OVC045/// ///TCU 09/06 Q1005,LFRQ,2015-02-13T06:30:00Z,47.97,-4.17,9.0,6.0,190,16,,6.21,29.675198,,,TRUE,,,,,,,,,,,,,,,,,,,,,,,,,,,,METAR,94.0
LFRH 130630Z AUTO 20019KT 9999 BKN026 BKN037 09/06 Q1007,LFRH,2015-02-13T06:30:00Z,47.77,-3.45,9.0,6.0,200,19,,6.21,29.734253,,,TRUE,,,,,,,,BKN,2600,BKN,3700,,,,,MVFR,,,,,,,,,,,,METAR,44.0
LFPT 130630Z AUTO 13007KT 4500 BR NSC 01/01 Q1014,LFPT,2015-02-13T06:30:00Z,49.1,2.03,1.0,1.0,130,7,,2.8,29.940945,,,TRUE,,,,,,,BR,,,,,,,,,,,,,,,,,,,,,METAR,99.0
LFPM 130630Z AUTO 14007KT 5000 BR NSC 01/M00 Q1015,LFPM,2015-02-13T06:30:00Z,48.62,2.67,1.0,0.0,140,7,,3.11,29.970472,,,TRUE,,,,,,,BR,,,,,,,,,,,,,,,,,,,,,METAR,92.0
LFLN 130630Z AUTO 00000KT 1900 BR NSC M02/M03 Q1019,LFLN,2015-02-13T06:30:00Z,46.42,4.02,-2.0,-3.0,0,0,,1.18,30.088583,,,TRUE,,,,,,,BR,,,,,,,,,,,,,,,,,,,,,METAR,244.0
LFGA 130630Z AUTO 00000KT 0500 R19/1300D FZFG VV/// M02/M02 Q1021,LFGA,2015-02-13T06:30:00Z,48.1,7.35,-2.0,-2.0,0,0,,0.31,30.147638,,,TRUE,,,,,,,FZFG,OVX,0,,,,,,,LIFR,,,,,,,,,,,,METAR,191.0
LFBU 130630Z AUTO 17008KT 130V200 9999 FEW042 SCT064 OVC084 06/04 Q1017,LFBU,2015-02-13T06:30:00Z,45.72,0.22,6.0,4.0,170,8,,6.21,30.029528,,,TRUE,,,,,,,,FEW,4200,SCT,6400,OVC,8400,,,VFR,,,,,,,,,,,,METAR,133.0
LFAT 130630Z AUTO 09008KT 5000 BR NSC 02/01 Q1011,LFAT,2015-02-13T06:30:00Z,50.52,1.62,2.0,1.0,90,8,,3.11,29.852362,,,TRUE,,,,,,,BR,,,,,,,,,,,,,,,,,,,,,SPECI,14.0
LFAQ 130630Z AUTO 00000KT 1700 BR NSC M00/M00 Q1014,LFAQ,2015-02-13T06:30:00Z,49.97,2.7,0.0,0.0,0,0,,1.06,29.940945,,,TRUE,,,,,,,BR,,,,,,,,,,,,,,,,,,,,,METAR,111.0
LFSN 130630Z AUTO VRB02KT 0300 R03/1000D FZFG VV/// M04/M05 Q1019,LFSN,2015-02-13T06:30:00Z,48.67,6.22,-4.0,-5.0,0,2,,0.19,30.088583,,,TRUE,,,,,,,FZFG,OVX,0,,,,,,,LIFR,,,,,,,,,,,,METAR,217.0
LFQB 130630Z AUTO 15003KT 7000 NSC M00/M02 Q1017,LFQB,2015-02-13T06:30:00Z,48.32,4.02,0.0,-2.0,150,3,,4.35,30.029528,,,TRUE,,,,,,,,,,,,,,,,,,,,,,,,,,,,METAR,118.0
LFQA 130630Z AUTO 10009KT 3800 BR BKN042 BKN050 M02/M02 Q1016,LFQA,2015-02-13T06:30:00Z,49.2,4.15,-2.0,-2.0,100,9,,2.36,30.0,,,TRUE,,,,,,,BR,BKN,4200,BKN,5000,,,,,IFR,,,,,,,,,,,,METAR,95.0
LFPB 130630Z AUTO 17006KT 7000 NSC 01/M01 Q1015,LFPB,2015-02-13T06:30:00Z,48.97,2.45,1.0,-1.0,170,6,,4.35,29.970472,,,TRUE,,,,,,,,,,,,,,,,,,,,,,,,,,,,METAR,65.0
LFOP 130630Z AUTO 15011KT 5000 BR NSC 02/01 Q1012,LFOP,2015-02-13T06:30:00Z,49.37,1.17,2.0,1.0,150,11,,3.11,29.88189,,,TRUE,,,,,,,BR,,,,,,,,,,,,,,,,,,,,,METAR,157.0
LFOK 130630Z AUTO 15009KT 8000 NSC 00/M02 Q1016,LFOK,2015-02-13T06:30:00Z,48.78,4.18,0.0,-2.0,150,9,,4.97,30.0,,,TRUE,,,,,,,,,,,,,,,,,,,,,,,,,,,,METAR,162.0
LFOH 130630Z AUTO 14008KT 9999 NSC 05/02 Q1010,LFOH,2015-02-13T06:30:00Z,49.52,0.07,5.0,2.0,140,8,,6.21,29.822834,,,TRUE,,,,,,,,,,,,,,,,,,,,,,,,,,,,METAR,103.0
LFOB 130630Z AUTO 00000KT 2000 BR NSC M00/M00 Q1013,LFOB,2015-02-13T06:30:00Z,49.47,2.12,0.0,0.0,0,0,,1.24,29.911417,,,TRUE,,,,,,,BR,,,,,,,,,,,,,,,,,,,,,METAR,111.0
LFMU 130630Z AUTO 36005KT 9999 -DZ BKN024 OVC031 08/07 Q1021,LFMU,2015-02-13T06:30:00Z,43.32,3.35,8.0,7.0,360,5,,6.21,30.147638,,,TRUE,,,,,,,-DZ,BKN,2400,OVC,3100,,,,,MVFR,,,,,,,,,,,,METAR,17.0
LFMT 130630Z 01003KT 6000 BKN036 08/06 Q1021 NOSIG,LFMT,2015-02-13T06:30:00Z,43.57,3.97,8.0,6.0,10,3,,3.73,30.147638,,,,,,TRUE,,,,,BKN,3600,,,,,,,MVFR,,,,,,,,,,,,METAR,6.0
LFLY 130630Z AUTO 00000KT 8000 NSC 03/01 Q1020,LFLY,2015-02-13T06:30:00Z,45.72,4.95,3.0,1.0,0,0,,4.97,30.11811,,,TRUE,,,,,,,,,,,,,,,,,,,,,,,,,,,,METAR,201.0
LFLU 130630Z AUTO 21008KT 9999 FEW048 BKN110 OVC130 06/03 Q1020,LFLU,2015-02-13T06:30:00Z,44.92,4.98,6.0,3.0,210,8,,6.21,30.11811,,,TRUE,,,,,,,,FEW,4800,BKN,11000,OVC,13000,,,VFR,,,,,,,,,,,,METAR,160.0
LFLS 130630Z AUTO 08007KT 9999 FEW036 OVC100 03/M00 Q1020,LFLS,2015-02-13T06:30:00Z,45.37,5.32,3.0,0.0,80,7,,6.21,30.11811,,,TRUE,,,,,,,,FEW,3600,OVC,10000,,,,,VFR,,,,,,,,,,,,METAR,386.0
LFLP 130630Z AUTO VRB03KT 9999 NSC M02/M04 Q1021,LFLP,2015-02-13T06:30:00Z,45.92,6.08,-2.0,-4.0,0,3,,6.21,30.147638,,,TRUE,,,,,,,,,,,,,,,,,,,,,,,,,,,,METAR,463.0
LFJL 130630Z AUTO 10006KT 060V130 0350 R22/1400N R04/1700U FZFG VV/// M03/M04 Q1018,LFJL,2015-02-13T06:30:00Z,48.97,6.25,-3.0,-4.0,100,6,,0.22,30.059055,,,TRUE,,,,,,,FZFG,OVX,0,,,,,,,LIFR,,,,,,,,,,,,METAR,264.0
LFCR 130630Z AUTO 13005KT 7000 NSC 01/M01 Q1019,LFCR,2015-02-13T06:30:00Z,44.38,2.47,1.0,-1.0,130,5,,4.35,30.088583,,,TRUE,,,,,,,,,,,,,,,,,,,,,,,,,,,,METAR,580.0
LJCE 130630Z 00000KT 0150 FZFG VV001 M04/M04 Q1026 RMK RED,LJCE,2015-02-13T06:30:00Z,45.9,15.52,-4.0,-4.0,0,0,,0.09,30.295275,,,,,,,,,,FZFG,OVX,0,,,,,,,LIFR,,,,,,,,,,,100,METAR,155.0
LFLB 130630Z 00000KT 9999 FEW040 BKN130 BKN230 M02/M02 Q1021 NOSIG,LFLB,2015-02-13T06:30:00Z,45.63,5.87,-2.0,-2.0,0,0,,6.21,30.147638,,,,,,TRUE,,,,,FEW,4000,BKN,13000,BKN,23000,,,VFR,,,,,,,,,,,,METAR,239.0
LFCK 130630Z AUTO 12014KT 9999 NSC 07/04 Q1020,LFCK,2015-02-13T06:30:00Z,43.55,2.28,7.0,4.0,120,14,,6.21,30.11811,,,TRUE,,,,,,,,,,,,,,,,,,,,,,,,,,,,METAR,240.0
LFBZ 130630Z AUTO 21003KT 180V250 9999 FEW066 09/02 Q1018,LFBZ,2015-02-13T06:30:00Z,43.47,-1.52,9.0,2.0,210,3,,6.21,30.059055,,,TRUE,,,,,,,,FEW,6600,,,,,,,VFR,,,,,,,,,,,,METAR,71.0
LFBT 130630Z AUTO 17004KT 9999 BKN076 OVC090 05/M02 Q1018,LFBT,2015-02-13T06:30:00Z,43.17,0.0,5.0,-2.0,170,4,,6.21,30.059055,,,TRUE,,,,,,,,BKN,7600,OVC,9000,,,,,VFR,,,,,,,,,,,,METAR,363.0
LFBP 130630Z AUTO 13004KT 9999 FEW066 SCT100 04/M00 Q1018,LFBP,2015-02-13T06:30:00Z,43.37,-0.42,4.0,0.0,130,4,,6.21,30.059055,,,TRUE,,,,,,,,FEW,6600,SCT,10000,,,,,VFR,,,,,,,,,,,,METAR,185.0
LFBO 130630Z AUTO 16003KT 0200 0150 R14R/0800N R32L/0600N R14L/0750N R32R/0600N FG VV/// 04/04 Q1020,LFBO,2015-02-13T06:30:00Z,43.62,1.37,4.0,4.0,160,3,,0.12,30.11811,,,TRUE,,,,,,,FG,OVX,0,,,,,,,LIFR,,,,,,,,,,,,METAR,153.0
LFBL 130630Z AUTO 14004KT 100V180 9999 FEW013 OVC078 04/02 Q1017,LFBL,2015-02-13T06:30:00Z,45.87,1.17,4.0,2.0,140,4,,6.21,30.029528,,,TRUE,,,,,,,,FEW,1300,OVC,7800,,,,,VFR,,,,,,,,,,,,METAR,402.0
LFBI 130630Z AUTO 18011KT 9999 FEW030 BKN062 06/04 Q1015,LFBI,2015-02-13T06:30:00Z,46.57,0.32,6.0,4.0,180,11,,6.21,29.970472,,,TRUE,,,,,,,,FEW,3000,BKN,6200,,,,,VFR,,,,,,,,,,,,METAR,120.0
LFBH 130630Z AUTO 18010KT 9999 FEW032 08/07 Q1014,LFBH,2015-02-13T06:30:00Z,46.18,-1.2,8.0,7.0,180,10,,6.21,29.940945,,,TRUE,,,,,,,,FEW,3200,,,,,,,VFR,,,,,,,,,,,,METAR,10.0
LFBD 130630Z AUTO 15006KT 9999 NSC 05/02 Q1017,LFBD,2015-02-13T06:30:00Z,44.82,-0.7,5.0,2.0,150,6,,6.21,30.029528,,,TRUE,,,,,,,,,,,,,,,,,,,,,,,,,,,,METAR,61.0
LJPZ 130630Z 12005KT 9999 BKN043 04/00 Q1025,LJPZ,2015-02-13T06:30:00Z,45.47,13.62,4.0,0.0,120,5,,6.21,30.265747,,,,,,,,,,,BKN,4300,,,,,,,VFR,,,,,,,,,,,,METAR,2.0
LJMB 130630Z 00000KT 0100 R32/0200N FZFG BKN001 M05/M06 Q1025,LJMB,2015-02-13T06:30:00Z,46.47,15.67,-5.0,-6.0,0,0,,0.06,30.265747,,,,,,,,,,FZFG,BKN,100,,,,,,,LIFR,,,,,,,,,,,,METAR,265.0
LJLJ 130630Z 00000KT 9999 OVC024 00/M01 Q1025 NOSIG,LJLJ,2015-02-13T06:30:00Z,46.22,14.47,0.0,-1.0,0,0,,6.21,30.265747,,,,,,TRUE,,,,,OVC,2400,,,,,,,MVFR,,,,,,,,,,,,METAR,385.0
LFSL 130630Z AUTO 13005KT 9999 NSC 04/02 Q1019,LFSL,2015-02-13T06:30:00Z,45.03,1.48,4.0,2.0,130,5,,6.21,30.088583,,,TRUE,,,,,,,,,,,,,,,,,,,,,,,,,,,,METAR,310.0
LFMV 130630Z AUTO VRB02KT 5000 BR OVC033 06/05 Q1021,LFMV,2015-02-13T06:30:00Z,43.9,4.9,6.0,5.0,0,2,,3.11,30.147638,,,TRUE,,,,,,,BR,OVC,3300,,,,,,,MVFR,,,,,,,,,,,,METAR,38.0
LFMP 130630Z AUTO VRB02KT 9000 FEW024 BKN180 07/06 Q1021,LFMP,2015-02-13T06:30:00Z,42.72,2.87,7.0,6.0,0,2,,5.59,30.147638,,,TRUE,,,,,,,,FEW,2400,BKN,18000,,,,,VFR,,,,,,,,,,,,METAR,48.0
LFLC 130630Z 15004KT 030V200 CAVOK 01/M02 Q1019 NOSIG,LFLC,2015-02-13T06:30:00Z,45.77,3.17,1.0,-2.0,150,4,,6.21,30.088583,,,,,,TRUE,,,,,CAVOK,,,,,,,,VFR,,,,,,,,,,,,METAR,330.0
LFKJ 130630Z 03007KT 9999 FEW036 BKN260 05/03 Q1022 NOSIG,LFKJ,2015-02-13T06:30:00Z,41.92,8.8,5.0,3.0,30,7,,6.21,30.177166,,,,,,TRUE,,,,,FEW,3600,BKN,26000,,,,,VFR,,,,,,,,,,,,METAR,9.0
LFKF 130630Z AUTO VRB02KT 9999 NCD 02/01 Q1022,LFKF,2015-02-13T06:30:00Z,41.5,9.08,2.0,1.0,0,2,,6.21,30.177166,,,TRUE,,,,,,,,,,,,,,,,,,,,,,,,,,,,METAR,23.0
LFKC 130630Z 20006KT 9999 FEW023 BKN260 06/03 Q1022 NOSIG,LFKC,2015-02-13T06:30:00Z,42.52,8.8,6.0,3.0,200,6,,6.21,30.177166,,,,,,TRUE,,,,,FEW,2300,BKN,26000,,,,,VFR,,,,,,,,,,,,METAR,58.0
LFKB 130630Z 25006KT CAVOK 06/02 Q1022 NOSIG,LFKB,2015-02-13T06:30:00Z,42.53,9.47,6.0,2.0,250,6,,6.21,30.177166,,,,,,TRUE,,,,,CAVOK,,,,,,,,VFR,,,,,,,,,,,,METAR,12.0
LFRS 130630Z 17006KT 8000 NSC 06/06 Q1012 NOSIG,LFRS,2015-02-13T06:30:00Z,47.17,-1.6,6.0,6.0,170,6,,4.97,29.88189,,,,,,TRUE,,,,,,,,,,,,,,,,,,,,,,,,,METAR,27.0
LFPV 130630Z AUTO 14005KT 6000 NSC 02/M00 Q1014,LFPV,2015-02-13T06:30:00Z,48.77,2.2,2.0,0.0,140,5,,3.73,29.940945,,,TRUE,,,,,,,,,,,,,,,,,,,,,,,,,,,,METAR,179.0
LFPC 130630Z AUTO 14007KT 5000 BR ////// 02/00 Q1014,LFPC,2015-02-13T06:30:00Z,49.25,2.52,2.0,0.0,140,7,,3.11,29.940945,,,TRUE,,,,,,,BR,,,,,,,,,,,,,,,,,,,,,METAR,88.0
LFOA 130630Z AUTO 17007KT 9999 NSC 03/M00 Q1017,LFOA,2015-02-13T06:30:00Z,47.03,2.63,3.0,0.0,170,7,,6.21,30.029528,,,TRUE,,,,,,,,,,,,,,,,,,,,,,,,,,,,METAR,179.0
LFRB 130630Z 19022KT 9999 -RA FEW010 BKN019 09/06 Q1003 NOSIG,LFRB,2015-02-13T06:30:00Z,48.45,-4.42,9.0,6.0,190,22,,6.21,29.616142,,,,,,TRUE,,,,-RA,FEW,1000,BKN,1900,,,,,MVFR,,,,,,,,,,,,METAR,103.0
LFQQ 130630Z 15007KT 3700 BR NSC 01/01 Q1014 NOSIG,LFQQ,2015-02-13T06:30:00Z,50.57,3.1,1.0,1.0,150,7,,2.3,29.940945,,,,,,TRUE,,,,BR,,,,,,,,,,,,,,,,,,,,,METAR,52.0
LFPO 130630Z 17006KT 7000 NSC 01/M00 Q1015 NOSIG,LFPO,2015-02-13T06:30:00Z,48.72,2.38,1.0,0.0,170,6,,4.35,29.970472,,,,,,TRUE,,,,,,,,,,,,,,,,,,,,,,,,,METAR,96.0
LFPG 130630Z 15008KT 120V180 7000 NSC 02/00 Q1015 NOSIG,LFPG,2015-02-13T06:30:00Z,49.02,2.52,2.0,0.0,150,8,,4.35,29.970472,,,,,,TRUE,,,,,,,,,,,,,,,,,,,,,,,,,METAR,109.0
LFMN 130630Z 33010KT 9999 FEW020 SCT046 BKN230 07/01 Q1022 NOSIG,LFMN,2015-02-13T06:30:00Z,43.63,7.2,7.0,1.0,330,10,,6.21,30.177166,,,,,,TRUE,,,,,FEW,2000,SCT,4600,BKN,23000,,,VFR,,,,,,,,,,,,METAR,10.0
LFLL 130630Z 12004KT CAVOK 06/02 Q1020 NOSIG,LFLL,2015-02-13T06:30:00Z,45.72,5.07,6.0,2.0,120,4,,6.21,30.11811,,,,,,TRUE,,,,,CAVOK,,,,,,,,VFR,,,,,,,,,,,,METAR,240.0
LFRL 130630Z AUTO 18018KT 9999 -RA SCT019/// BKN025/// BKN041/// ///TCU 09/07 Q1003,LFRL,2015-02-13T06:30:00Z,48.27,-4.42,9.0,7.0,180,18,,6.21,29.616142,,,TRUE,,,,,,,-RA,,,,,,,,,,,,,,,,,,,,,METAR,82.0
LFRJ 130630Z AUTO 18016KT 9999 -RADZ BKN017/// BKN024/// BKN032/// ///TCU 08/06 Q1003,LFRJ,2015-02-13T06:30:00Z,48.52,-4.15,8.0,6.0,180,16,,6.21,29.616142,,,TRUE,,,,,,,-RA -DZ,,,,,,,,,,,,,,,,,,,,,METAR,115.0
LFOJ 130630Z AUTO 15010KT 8000 NSC 03/01 Q1015,LFOJ,2015-02-13T06:30:00Z,47.97,1.75,3.0,1.0,150,10,,4.97,29.970472,,,TRUE,,,,,,,,,,,,,,,,,,,,,,,,,,,,METAR,125.0
LFOE 130630Z AUTO 16010KT 7000 NSC 03/01 Q1012,LFOE,2015-02-13T06:30:00Z,49.02,1.22,3.0,1.0,160,10,,4.35,29.88189,,,TRUE,,,,,,,,,,,,,,,,,,,,,,,,,,,,METAR,146.0
LFOC 130630Z AUTO 16006KT 4700 BR NSC 01/00 Q1014,LFOC,2015-02-13T06:30:00Z,48.03,1.37,1.0,0.0,160,6,,2.92,29.940945,,,TRUE,,,,,,,BR,,,,,,,,,,,,,,,,,,,,,METAR,127.0
LFMY 130630Z AUTO 00000KT 9999 FEW044 BKN098 OVC120 07/06 Q1021,LFMY,2015-02-13T06:30:00Z,43.6,5.08,7.0,6.0,0,0,,6.21,30.147638,,,TRUE,,,,,,,,FEW,4400,BKN,9800,OVC,12000,,,VFR,,,,,,,,,,,,METAR,60.0
LFMO 130630Z AUTO VRB01KT 5000 BR BKN034 OVC042 05/04 Q1022,LFMO,2015-02-13T06:30:00Z,44.12,4.87,5.0,4.0,0,1,,3.11,30.177166,,,TRUE,,,,,,,BR,BKN,3400,OVC,4200,,,,,MVFR,,,,,,,,,,,,METAR,55.0
LFKS 130630Z AUTO 29007KT 9999 NSC 06/02 Q1022,LFKS,2015-02-13T06:30:00Z,41.92,9.4,6.0,2.0,290,7,,6.21,30.177166,,,TRUE,,,,,,,,,,,,,,,,,,,,,,,,,,,,METAR,22.0
LFBM 130630Z AUTO 11003KT 9999 NSC 01/M00 Q1018,LFBM,2015-02-13T06:30:00Z,43.92,-0.5,1.0,0.0,110,3,,6.21,30.059055,,,TRUE,,,,,,,,,,,,,,,,,,,,,,,,,,,,METAR,63.0
LFBG 130630Z AUTO 16010KT 9999 NSC 05/03 Q1016,LFBG,2015-02-13T06:30:00Z,45.67,-0.32,5.0,3.0,160,10,,6.21,30.0,,,TRUE,,,,,,,,,,,,,,,,,,,,,,,,,,,,METAR,31.0
LFBC 130630Z AUTO 18006KT 9999 NSC 05/03 Q1017,LFBC,2015-02-13T06:30:00Z,44.52,-1.12,5.0,3.0,180,6,,6.21,30.029528,,,TRUE,,,,,,,,,,,,,,,,,,,,,,,,,,,,METAR,33.0
LFYR 130630Z AUTO 17010KT 9999 NSC 04/03 Q1015,LFYR,2015-02-13T06:30:00Z,47.32,1.67,4.0,3.0,170,10,,6.21,29.970472,,,TRUE,,,,,,,,,,,,,,,,,,,,,,,,,,,,METAR,86.0
LFSX 130630Z AUTO 08006KT 9999 NSC M02/M04 Q1019,LFSX,2015-02-13T06:30:00Z,47.77,6.33,-2.0,-4.0,80,6,,6.21,30.088583,,,TRUE,,,,,,,,,,,,,,,,,,,,,,,,,,,,METAR,273.0
LFSO 130630Z AUTO 12004KT 8000 NSC M03/M04 Q1017,LFSO,2015-02-13T06:30:00Z,48.57,5.97,-3.0,-4.0,120,4,,4.97,30.029528,,,TRUE,,,,,,,,,,,,,,,,,,,,,,,,,,,,METAR,350.0
LFSI 130630Z AUTO 09003KT 9000 NSC 00/M01 Q1017,LFSI,2015-02-13T06:30:00Z,48.62,4.9,0.0,-1.0,90,3,,5.59,30.029528,,,TRUE,,,,,,,,,,,,,,,,,,,,,,,,,,,,METAR,140.0
OIZH 130630Z 21018KT CAVOK 25/M03 Q1019 A3010,OIZH,2015-02-13T06:30:00Z,29.47,60.92,25.0,-3.0,210,18,,6.21,30.088583,,,,,,,,,,,CAVOK,,,,,,,,VFR,,,,,,,,,,,,METAR,1370.0
OITT 130630Z 00000KT 6000 FEW020 M03/M04 Q1020 A3013,OITT,2015-02-13T06:30:00Z,38.13,46.23,-3.0,-4.0,0,0,,3.73,30.11811,,,,,,,,,,,FEW,2000,,,,,,,MVFR,,,,,,,,,,,,METAR,1361.0
OISS 130630Z 11004KT 6000 SCT040TCU SCT090 16/04 Q1022 A3020,OISS,2015-02-13T06:30:00Z,29.52,52.57,16.0,4.0,110,4,,3.73,30.177166,,,,,,,,,,,SCT,4000,SCT,9000,,,,,MVFR,,,,,,,,,,,,METAR,1491.0
OIMM 130630Z 07004KT 4500 BR OVC012 11/09 Q1016 A3003,OIMM,2015-02-13T06:30:00Z,36.23,59.62,11.0,9.0,70,4,,2.8,30.0,,,,,,,,,,BR,OVC,1200,,,,,,,IFR,,,,,,,,,,,,METAR,980.0
OIKB 130630Z 28004KT 4000 HZ NSC 26/17 Q1016 A3002,OIKB,2015-02-13T06:30:00Z,27.22,56.37,26.0,17.0,280,4,,2.49,30.0,,,,,,,,,,HZ,,,,,,,,,,,,,,,,,,,,,METAR,10.0
OIII 130630Z 24010KT CAVOK 11/M04 Q1017 A3005 NOSIG,OIII,2015-02-13T06:30:00Z,35.68,51.3,11.0,-4.0,240,10,,6.21,30.029528,,,,,,TRUE,,,,,CAVOK,,,,,,,,VFR,,,,,,,,,,,,METAR,1191.0
OIYY 130630Z 24008KT 9999 FEW035 BKN200 22/M07 Q1019,OIYY,2015-02-13T06:30:00Z,31.9,54.28,22.0,-7.0,240,8,,6.21,30.088583,,,,,,,,,,,FEW,3500,BKN,20000,,,,,VFR,,,,,,,,,,,,METAR,1236.0
OIGG 130630Z 23004KT 2000 -RA BKN007 OVC060 07/07 Q1021,OIGG,2015-02-13T06:30:00Z,37.33,49.6,7.0,7.0,230,4,,1.24,30.147638,,,,,,,,,,-RA,BKN,700,OVC,6000,,,,,IFR,,,,,,,,,,,,METAR,-13.0
OICC 130630Z 00000KT 4000 DU SKC 03/M04 Q1020 A3014 TEMPO 4000 DU,OICC,2015-02-13T06:30:00Z,34.33,47.17,3.0,-4.0,0,0,,2.49,30.11811,,,,,,,,,,DU,SKC,,,,,,,,IFR,,,,,,,,,,,,METAR,1322.0
OIBK 130630Z 06008KT 7000 SCT030 27/12 Q1017,OIBK,2015-02-13T06:30:00Z,26.53,53.98,27.0,12.0,60,8,,4.35,30.029528,,,,,,,,,,,SCT,3000,,,,,,,MVFR,,,,,,,,,,,,METAR,30.0
OIAA 130630Z 35004KT 4000 DU NSC 14/05 Q1019,OIAA,2015-02-13T06:30:00Z,30.37,48.25,14.0,5.0,350,4,,2.49,30.088583,,,,,,,,,,DU,,,,,,,,,,,,,,,,,,,,,METAR,11.0
OICS 130630Z 00000KT 6000 SKC 02/M03 Q1020,OICS,2015-02-13T06:30:00Z,35.25,47.02,2.0,-3.0,0,0,,3.73,30.11811,,,,,,,,,,,SKC,,,,,,,,MVFR,,,,,,,,,,,,METAR,1373.0
OIBP 130630Z 10004KT 6000 NSC 27/10 Q1016 A3002,OIBP,2015-02-13T06:30:00Z,27.38,52.73,27.0,10.0,100,4,,3.73,30.0,,,,,,,,,,,,,,,,,,,,,,,,,,,,,,,METAR,9.0
OIFM 130630Z 12006KT 7000 NSC 13/M04 Q1019 A3011,OIFM,2015-02-13T06:30:00Z,32.75,51.87,13.0,-4.0,120,6,,4.35,30.088583,,,,,,,,,,,,,,,,,,,,,,,,,,,,,,,METAR,1542.0
LWOH 130630Z 33005KT CAVOK M04/M08 Q1024,LWOH,2015-02-13T06:30:00Z,41.18,20.75,-4.0,-8.0,330,5,,6.21,30.236221,,,,,,,,,,,CAVOK,,,,,,,,VFR,,,,,,,,,,,,METAR,761.0
LKTB 130630Z 08005KT 9000 NSC M02/M04 Q1025 NOSIG,LKTB,2015-02-13T06:30:00Z,49.13,16.68,-2.0,-4.0,80,5,,5.59,30.265747,,,,,,TRUE,,,,,,,,,,,,,,,,,,,,,,,,,METAR,246.0
LKPR 130630Z 18005KT 9000 OVC012 00/M02 Q1022 NOSIG,LKPR,2015-02-13T06:30:00Z,50.1,14.27,0.0,-2.0,180,5,,5.59,30.177166,,,,,,TRUE,,,,,OVC,1200,,,,,,,MVFR,,,,,,,,,,,,METAR,365.0
LKMT 130630Z 23006KT CAVOK M03/M05 Q1024 NOSIG,LKMT,2015-02-13T06:30:00Z,49.67,18.12,-3.0,-5.0,230,6,,6.21,30.236221,,,,,,TRUE,,,,,CAVOK,,,,,,,,VFR,,,,,,,,,,,,METAR,256.0
EPZG 130630Z 30001KT 3000 BR NSC M07/M07 Q1022,EPZG,2015-02-13T06:30:00Z,52.13,15.8,-7.0,-7.0,300,1,,1.86,30.177166,,,,,,,,,,BR,,,,,,,,,,,,,,,,,,,,,METAR,59.0
EPWR 130630Z 11003KT 4000 MIFG BR NSC M04/M06 Q1022,EPWR,2015-02-13T06:30:00Z,51.1,16.87,-4.0,-6.0,110,3,,2.49,30.177166,,,,,,,,,,MIFG BR,,,,,,,,,,,,,,,,,,,,,METAR,121.0
EPSC 130630Z 18003KT 2500 BR SCT003 BKN005 M03/M04 Q1021,EPSC,2015-02-13T06:30:00Z,53.58,14.9,-3.0,-4.0,180,3,,1.55,30.147638,,,,,,,,,,BR,SCT,300,BKN,500,,,,,IFR,,,,,,,,,,,,METAR,3.0
EPMO 130630Z 17006KT 2500 BR NSC M02/M02 Q1024,EPMO,2015-02-13T06:30:00Z,52.45,20.65,-2.0,-2.0,170,6,,1.55,30.236221,,,,,,,,,,BR,,,,,,,,,,,,,,,,,,,,,METAR,104.0
EPLB 130630Z VRB02KT 6000 NSC M01/M02 Q1026,EPLB,2015-02-13T06:30:00Z,51.23,22.72,-1.0,-2.0,0,2,,3.73,30.295275,,,,,,,,,,,,,,,,,,,,,,,,,,,,,,,METAR,206.0
EPKT 130630Z 14004KT 2200 BR NSC M03/M04 Q1024,EPKT,2015-02-13T06:30:00Z,50.47,19.08,-3.0,-4.0,140,4,,1.37,30.236221,,,,,,,,,,BR,,,,,,,,,,,,,,,,,,,,,METAR,284.0
EPBY 130630Z 00000KT 2800 BR NSC M06/M06 Q1023,EPBY,2015-02-13T06:30:00Z,53.1,18.0,-6.0,-6.0,0,0,,1.74,30.206694,,,,,,,,,,BR,,,,,,,,,,,,,,,,,,,,,METAR,71.0
EPWA 130630Z 17003KT 3200 BR NSC M04/M04 Q1024 R11/1///95 BECMG 5000,EPWA,2015-02-13T06:30:00Z,52.17,20.97,-4.0,-4.0,170,3,,1.99,30.236221,,,,,,,,,,BR,,,,,,,,,,,,,,,,,,,,,METAR,107.0
EPRZ 130630Z 07002KT CAVOK M04/M04 Q1026,EPRZ,2015-02-13T06:30:00Z,50.1,22.05,-4.0,-4.0,70,2,,6.21,30.295275,,,,,,,,,,,CAVOK,,,,,,,,VFR,,,,,,,,,,,,METAR,202.0
EPPO 130630Z 13002KT 1200 R28/1400 BR NSC M04/M06 Q1022,EPPO,2015-02-13T06:30:00Z,52.42,16.82,-4.0,-6.0,130,2,,0.75,30.177166,,,,,,,,,,BR,,,,,,,,,,,,,,,,,,,,,METAR,92.0
EPLL 130630Z 08002KT 2000 BR NSC M03/M04 Q1024,EPLL,2015-02-13T06:30:00Z,51.72,19.4,-3.0,-4.0,80,2,,1.24,30.236221,,,,,,,,,,BR,,,,,,,,,,,,,,,,,,,,,METAR,184.0
EPKK 130630Z 00000KT 1200 R25/1200 BR NSC M05/M05 Q1025,EPKK,2015-02-13T06:30:00Z,50.07,19.8,-5.0,-5.0,0,0,,0.75,30.265747,,,,,,,,,,BR,,,,,,,,,,,,,,,,,,,,,METAR,237.0
EPGD 130630Z 17004KT 090V200 3000 BR FEW003 BKN005 M00/M01 Q1021,EPGD,2015-02-13T06:30:00Z,54.37,18.47,0.0,-1.0,170,4,,1.86,30.147638,,,,,,,,,,BR,FEW,300,BKN,500,,,,,IFR,,,,,,,,,,,,METAR,138.0
BIKF 130630Z 10004KT CAVOK M04/M14 Q1005,BIKF,2015-02-13T06:30:00Z,63.98,-22.6,-4.0,-14.0,100,4,,6.21,29.675198,,,,,,,,,,,CAVOK,,,,,,,,VFR,,,,,,,,,,,,METAR,54.0
LQSA 130630Z VRB02KT 9999 4500NW FEW005 M06/M06 Q1026 NOSIG,LQSA,2015-02-13T06:30:00Z,43.82,18.32,-6.0,-6.0,0,2,,6.21,30.295275,,,,,,TRUE,,,,,FEW,500,,,,,,,VFR,,,,,,,,,,,,METAR,511.0
LQBK 130630Z 15003KT 2500 BR SCT002 M04/M04 Q1027 NOSIG,LQBK,2015-02-13T06:30:00Z,44.93,17.3,-4.0,-4.0,150,3,,1.55,30.324802,,,,,,TRUE,,,,BR,SCT,200,,,,,,,IFR,,,,,,,,,,,,METAR,122.0
LYVR 130630Z VRB01KT CAVOK M03/M04 Q1028 NOSIG,LYVR,2015-02-13T06:30:00Z,45.13,21.32,-3.0,-4.0,0,1,,6.21,30.35433,,,,,,TRUE,,,,,CAVOK,,,,,,,,VFR,,,,,,,,,,,,METAR,85.0
LYUZ 130630Z 29003KT CAVOK M07/M09 Q1023 R10///////,LYUZ,2015-02-13T06:30:00Z,43.9,19.7,-7.0,-9.0,290,3,,6.21,30.206694,,,,,,,,,,,CAVOK,,,,,,,,VFR,,,,,,,,,,,,METAR,904.0
LYTV 130630Z VRB01KT CAVOK M02/M03 Q1025 NOSIG,LYTV,2015-02-13T06:30:00Z,42.38,18.72,-2.0,-3.0,0,1,,6.21,30.265747,,,,,,TRUE,,,,,CAVOK,,,,,,,,VFR,,,,,,,,,,,,METAR,5.0
LYNI 130630Z 13003KT 8000 NSC M05/M07 Q1028 NOSIG,LYNI,2015-02-13T06:30:00Z,43.32,21.88,-5.0,-7.0,130,3,,4.97,30.35433,,,,,,TRUE,,,,,,,,,,,,,,,,,,,,,,,,,METAR,202.0
LYKV 130630Z 00000KT 1000 BR NSC M06/M06 Q1028 R14/////// BECMG 1500,LYKV,2015-02-13T06:30:00Z,43.82,20.58,-6.0,-6.0,0,0,,0.62,30.35433,,,,,,,,,,BR,,,,,,,,,,,,,,,,,,,,,METAR,209.0
LYBT 130630Z 27002KT 3000 BR NSC M04/M06 Q1027 NOSIG,LYBT,2015-02-13T06:30:00Z,44.93,20.25,-4.0,-6.0,270,2,,1.86,30.324802,,,,,,TRUE,,,,BR,,,,,,,,,,,,,,,,,,,,,METAR,80.0
LYBE 130630Z 13001KT 3000 MIFG BR NSC M02/M05 Q1027 NOSIG,LYBE,2015-02-13T06:30:00Z,44.82,20.28,-2.0,-5.0,130,1,,1.86,30.324802,,,,,,TRUE,,,,MIFG BR,,,,,,,,,,,,,,,,,,,,,METAR,99.0
EIKN 130630Z 15010KT 120V180 9999 -DZ BKN004 OVC010 04/04 Q0988 NOSIG,EIKN,2015-02-13T06:30:00Z,53.92,-8.82,4.0,4.0,150,10,,6.21,29.17323,,,,,,TRUE,,,,-DZ,BKN,400,OVC,1000,,,,,LIFR,,,,,,,,,,,,METAR,64.0
EICK 130630Z 20008KT 9999 FEW015 SCT030 05/05 Q0990 NOSIG,EICK,2015-02-13T06:30:00Z,51.85,-8.47,5.0,5.0,200,8,,6.21,29.232283,,,,,,TRUE,,,,,FEW,1500,SCT,3000,,,,,VFR,,,,,,,,,,,,METAR,162.0
EINN 130630Z 13009KT 9999 FEW024 BKN046 BKN070 05/04 Q0989 NOSIG,EINN,2015-02-13T06:30:00Z,52.7,-8.92,5.0,4.0,130,9,,6.21,29.202755,,,,,,TRUE,,,,,FEW,2400,BKN,4600,BKN,7000,,,VFR,,,,,,,,,,,,METAR,20.0
EIDW 130630Z 15020KT 9999 FEW010 SCT025 BKN060 07/05 Q0992 TEMPO 4000 BKN007,EIDW,2015-02-13T06:30:00Z,53.42,-6.25,7.0,5.0,150,20,,6.21,29.291338,,,,,,,,,,,FEW,1000,SCT,2500,BKN,6000,,,VFR,,,,,,,,,,,,METAR,85.0
HECA 130630Z 21007KT CAVOK 11/00 Q1019 NOSIG,HECA,2015-02-13T06:30:00Z,30.12,31.38,11.0,0.0,210,7,,6.21,30.088583,,,,,,TRUE,,,,,CAVOK,,,,,,,,VFR,,,,,,,,,,,,METAR,74.0
UGKO 130630Z 00000KT 9999 SCT012CB BKN042 08/06 Q1021 R07/19//60 NOSIG,UGKO,2015-02-13T06:30:00Z,42.18,42.48,8.0,6.0,0,0,,6.21,30.147638,,,,,,TRUE,,,,,SCT,1200,BKN,4200,,,,,VFR,,,,,,,,,,,,METAR,68.0
UGSB 130630Z 14006KT 9999 FEW016CB SCT036 08/05 Q1023 R13/70D NOSIG,UGSB,2015-02-13T06:30:00Z,41.62,41.6,8.0,5.0,140,6,,6.21,30.206694,,,,,,TRUE,,,,,FEW,1600,SCT,3600,,,,,VFR,,,,,,,,,,,,METAR,32.0
UGTB 130630Z 19004KT 150V210 9999 FEW018 SCT023 05/03 Q1021 R31L/290064 NOSIG,UGTB,2015-02-13T06:30:00Z,41.67,44.95,5.0,3.0,190,4,,6.21,30.147638,,,,,,TRUE,,,,,FEW,1800,SCT,2300,,,,,VFR,,,,,,,,,,,,METAR,495.0
VOCB 130630Z 00000KT 5000 HZ FEW015 29/17 Q1016 NOSIG,VOCB,2015-02-13T06:30:00Z,11.02,77.03,29.0,17.0,0,0,,3.11,30.0,,,,,,TRUE,,,,HZ,FEW,1500,,,,,,,MVFR,,,,,,,,,,,,METAR,399.0
GMTT 130630Z VRB01KT 4000 BR SCT008 BKN016 09/08 Q1024 NOSIG,GMTT,2015-02-13T06:30:00Z,35.72,-5.9,9.0,8.0,0,1,,2.49,30.236221,,,,,,TRUE,,,,BR,SCT,800,BKN,1600,,,,,IFR,,,,,,,,,,,,METAR,21.0
GMMX 130630Z 27004KT 7000 BKN026 10/10 Q1022 NOSIG,GMMX,2015-02-13T06:30:00Z,31.62,-8.02,10.0,10.0,270,4,,4.35,30.177166,,,,,,TRUE,,,,,BKN,2600,,,,,,,MVFR,,,,,,,,,,,,METAR,466.0
GMME 130630Z VRB02KT 3000 SCT015 08/07 Q1023 NOSIG,GMME,2015-02-13T06:30:00Z,34.03,-6.77,8.0,7.0,0,2,,1.86,30.206694,,,,,,TRUE,,,,,SCT,1500,,,,,,,IFR,,,,,,,,,,,,METAR,75.0
GMFF 130630Z 23003KT 0400 R27/0200N R09/P2000U FG BKN006 06/05 Q1023 NOSIG,GMFF,2015-02-13T06:30:00Z,33.92,-4.97,6.0,5.0,230,3,,0.25,30.206694,,,,,,TRUE,,,,FG,BKN,600,,,,,,,LIFR,,,,,,,,,,,,METAR,579.0
GMAD 130630Z 05004KT 9999 FEW020 07/06 Q1020 NOSIG,GMAD,2015-02-13T06:30:00Z,30.32,-9.42,7.0,6.0,50,4,,6.21,30.11811,,,,,,TRUE,,,,,FEW,2000,,,,,,,VFR,,,,,,,,,,,,METAR,74.0
VOBL 130630Z VRB02KT CAVOK 31/12 Q1018 NOSIG,VOBL,2015-02-13T06:30:00Z,13.2,77.7,31.0,12.0,0,2,,6.21,30.059055,,,,,,TRUE,,,,,CAVOK,,,,,,,,VFR,,,,,,,,,,,,METAR,915.0
VHHH 130630Z 27009KT CAVOK 21/06 Q1017 NOSIG,VHHH,2015-02-13T06:30:00Z,22.32,113.92,21.0,6.0,270,9,,6.21,30.029528,,,,,,TRUE,,,,,CAVOK,,,,,,,,VFR,,,,,,,,,,,,METAR,9.0
WIII 130630Z VRB04KT 8000 SCT020 27/25 Q1009 RERA NOSIG,WIII,2015-02-13T06:30:00Z,-6.13,106.67,27.0,25.0,0,4,,4.97,29.793306,,,,,,TRUE,,,,,SCT,2000,,,,,,,MVFR,,,,,,,,,,,,METAR,8.0
UBBB 130630Z 32020KT 9999 BKN011 BKN100 05/03 Q1020 R34/190068 R36/290060 NOSIG,UBBB,2015-02-13T06:30:00Z,40.45,50.07,5.0,3.0,320,20,,6.21,30.11811,,,,,,TRUE,,,,,BKN,1100,BKN,10000,,,,,MVFR,,,,,,,,,,,,METAR,-6.0
WSSS 130630Z 04011KT 010V070 9999 FEW022 SCT040 BKN300 30/21 Q1010 NOSIG,WSSS,2015-02-13T06:30:00Z,1.37,103.97,30.0,21.0,40,11,,6.21,29.822834,,,,,,TRUE,,,,,FEW,2200,SCT,4000,BKN,30000,,,VFR,,,,,,,,,,,,METAR,16.0
LZTT 130630Z VRB02KT 0300 R27/0200N FZFG VV001 M09/M10 Q1024 TEMPO 0600 FZFG BKN002,LZTT,2015-02-13T06:30:00Z,49.07,20.25,-9.0,-10.0,0,2,,0.19,30.236221,,,,,,,,,,FZFG,OVX,0,,,,,,,LIFR,,,,,,,,,,,100,METAR,707.0
LZKZ 130630Z 36003KT 0900 R01/0175N PRFG SCT002 M03/M04 Q1027 TEMPO 1500 BR,LZKZ,2015-02-13T06:30:00Z,48.67,21.23,-3.0,-4.0,360,3,,0.56,30.324802,,,,,,,,,,PRFG,SCT,200,,,,,,,LIFR,,,,,,,,,,,,METAR,232.0
LZIB 130630Z 08006KT 7000 FEW015 M03/M05 Q1026 R88/CLRD// NOSIG,LZIB,2015-02-13T06:30:00Z,48.17,17.22,-3.0,-5.0,80,6,,4.35,30.295275,,,,,,TRUE,,,,,FEW,1500,,,,,,,MVFR,,,,,,,,,,,,METAR,134.0
LHBP 130630Z VRB03KT 4500 BR NSC M05/M05 Q1028 NOSIG,LHBP,2015-02-13T06:30:00Z,47.42,19.27,-5.0,-5.0,0,3,,2.8,30.35433,,,,,,TRUE,,,,BR,,,,,,,,,,,,,,,,,,,,,METAR,185.0
LBBG 130630Z 35014KT 9999 BKN030 00/M05 Q1026 NOSIG,LBBG,2015-02-13T06:30:00Z,42.57,27.52,0.0,-5.0,350,14,,6.21,30.295275,,,,,,TRUE,,,,,BKN,3000,,,,,,,MVFR,,,,,,,,,,,,METAR,28.0
LBWN 130630Z 27006KT 9999 SCT013 M02/M05 Q1026 NOSIG,LBWN,2015-02-13T06:30:00Z,43.22,27.82,-2.0,-5.0,270,6,,6.21,30.295275,,,,,,TRUE,,,,,SCT,1300,,,,,,,VFR,,,,,,,,,,,,METAR,43.0
LBSF 130630Z 09003KT 4000 BR NSC M06/M07 Q1026 TEMPO 2000 BR,LBSF,2015-02-13T06:30:00Z,42.65,23.38,-6.0,-7.0,90,3,,2.49,30.295275,,,,,,,,,,BR,,,,,,,,,,,,,,,,,,,,,METAR,595.0
LZZI 130630Z VRB01KT 0200 R06/0225N FZFG OVC001 M05/M05 Q1026,LZZI,2015-02-13T06:30:00Z,49.23,18.62,-5.0,-5.0,0,1,,0.12,30.295275,,,,,,,,,,FZFG,OVC,100,,,,,,,LIFR,,,,,,,,,,,,SPECI,311.0
LZSL 130630Z VRB01KT 0150 FZFG OVC001 M05/M05 Q1027,LZSL,2015-02-13T06:30:00Z,48.63,19.13,-5.0,-5.0,0,1,,0.09,30.324802,,,,,,,,,,FZFG,OVC,100,,,,,,,LIFR,,,,,,,,,,,,SPECI,313.0
LZPP 130630Z 17003KT CAVOK 00/M05 Q1026,LZPP,2015-02-13T06:30:00Z,48.62,17.83,0.0,-5.0,170,3,,6.21,30.295275,,,,,,,,,,,CAVOK,,,,,,,,VFR,,,,,,,,,,,,SPECI,161.0
DIAP 130630Z 31001KT 8000 FEW011 25/24 Q1013 NOSIG,DIAP,2015-02-13T06:30:00Z,5.25,-3.92,25.0,24.0,310,1,,4.97,29.911417,,,,,,TRUE,,,,,FEW,1100,,,,,,,MVFR,,,,,,,,,,,,SPECI,8.0
LUBM 130630Z 00000KT 5000 BR NSC M08/M09 Q1029 R25/CLRD65,LUBM,2015-02-13T06:30:00Z,47.87,28.22,-8.0,-9.0,0,0,,3.11,30.383858,,,,,,,,,,BR,,,,,,,,,,,,,,,,,,,,,METAR,95.0
YBBN 130630Z 07007KT 9999 -SHRA FEW018 SCT024 BKN045 23/22 Q1018 INTER 0630/0900 3000 SHRA BKN012,YBBN,2015-02-13T06:30:00Z,-27.38,153.13,23.0,22.0,70,7,,6.21,30.059055,,,,,,,,,,-SHRA,FEW,1800,SCT,2400,BKN,4500,,,VFR,,,,,,,,,,,,SPECI,5.0
LUBL 130630Z AUTO 08002KT 050V110 9999 NCD M01/M04 Q1028,LUBL,2015-02-13T06:30:00Z,47.83,27.78,-1.0,-4.0,80,2,,6.21,30.35433,,,TRUE,,,,,,,,,,,,,,,,,,,,,,,,,,,,METAR,232.0
TFFR 130630Z AUTO VRB02KT 9999 NSC 23/22 Q1014,TFFR,2015-02-13T06:30:00Z,16.27,-61.53,23.0,22.0,0,2,,6.21,29.940945,,,TRUE,,,,,,,,,,,,,,,,,,,,,,,,,,,,METAR,11.0
NWWW 130630Z AUTO 14016KT 9999 FEW050 SCT140 30/20 Q1008,NWWW,2015-02-13T06:30:00Z,-22.02,166.22,30.0,20.0,140,16,,6.21,29.763779,,,TRUE,,,,,,,,FEW,5000,SCT,14000,,,,,VFR,,,,,,,,,,,,METAR,16.0
UKDR 130630Z 02003MPS CAVOK M09/M11 Q1028 3609//65 NOSIG,UKDR,2015-02-13T06:30:00Z,48.05,33.22,-9.0,-11.0,20,6,,6.21,30.35433,,,,,,TRUE,,,,,CAVOK,,,,,,,,VFR,,,,,,,,,,,,SPECI,124.0
UKLL 130630Z 17002MPS 4900 BR SKC M07/M07 Q1027 13811080 NOSIG,UKLL,2015-02-13T06:30:00Z,49.82,23.93,-7.0,-7.0,170,4,,3.04,30.324802,,,,,,TRUE,,,,BR,SKC,,,,,,,,MVFR,,,,,,,,,,,,METAR,325.0
UKDD 130630Z 01003MPS CAVOK M04/M07 Q1027 08090070 NOSIG,UKDD,2015-02-13T06:30:00Z,48.37,35.1,-4.0,-7.0,10,6,,6.21,30.324802,,,,,,TRUE,,,,,CAVOK,,,,,,,,VFR,,,,,,,,,,,,SPECI,149.0
UKDE 130630Z 02002MPS CAVOK M02/M03 Q1027 02710370 NOSIG,UKDE,2015-02-13T06:30:00Z,47.87,35.32,-2.0,-3.0,20,4,,6.21,30.324802,,,,,,TRUE,,,,,CAVOK,,,,,,,,VFR,,,,,,,,,,,,SPECI,113.0
UKOO 130630Z 01005MPS CAVOK M03/M07 Q1028 34090060 NOSIG,UKOO,2015-02-13T06:30:00Z,46.42,30.68,-3.0,-7.0,10,10,,6.21,30.35433,,,,,,TRUE,,,,,CAVOK,,,,,,,,VFR,,,,,,,,,,,,METAR,35.0
UKHH 130630Z 00000MPS 0150 R25/0250V0450U FZFG VV002 M08/M09 Q1027 25710560 NOSIG,UKHH,2015-02-13T06:30:00Z,49.92,36.28,-8.0,-9.0,0,0,,0.09,30.324802,,,,,,TRUE,,,,FZFG,OVX,0,,,,,,,LIFR,,,,,,,,,,,200,SPECI,155.0
UKBB 130630Z 35002MPS 9999 OVC005 M01/M01 Q1028 86811050 36390128 NOSIG,UKBB,2015-02-13T06:30:00Z,50.33,30.9,-1.0,-1.0,350,4,,6.21,30.35433,,,,,,TRUE,,,,,OVC,500,,,,,,,IFR,,,,,,,,,,,,METAR,119.0
UTAA 130630Z 00000MPS 8000 -RA OVC005 08/08 Q1018 R30/290055 NOSIG,UTAA,2015-02-13T06:30:00Z,37.98,58.37,8.0,8.0,0,0,,4.97,30.059055,,,,,,TRUE,,,,-RA,OVC,500,,,,,,,IFR,,,,,,,,,,,,METAR,210.0
SBPA 130630Z 26004KT 4000 BR BKN005 24/24 Q1013,SBPA,2015-02-13T06:30:00Z,-30.0,-51.17,24.0,24.0,260,4,,2.49,29.911417,,,,,,,,,,BR,BKN,500,,,,,,,IFR,,,,,,,,,,,,METAR,3.0
SOCA 130630Z AUTO 00000KT 9999 FEW018/// SCT026/// BKN064/// 25/23 Q1012,SOCA,2015-02-13T06:30:00Z,4.82,-52.37,25.0,23.0,0,0,,6.21,29.88189,,,TRUE,,,,,,,,,,,,,,,,,,,,,,,,,,,,METAR,9.0
TFFF 130630Z AUTO 00000KT 9999 NSC 24/23 Q1014,TFFF,2015-02-13T06:30:00Z,14.6,-61.0,24.0,23.0,0,0,,6.21,29.940945,,,TRUE,,,,,,,,,,,,,,,,,,,,,,,,,,,,METAR,5.0
UBBG 130630Z 00000KT 9999 FEW006 SCT030 06/04 Q1019 R12/190065 NOSIG,UBBG,2015-02-13T06:30:00Z,40.73,46.32,6.0,4.0,0,0,,6.21,30.088583,,,,,,TRUE,,,,,FEW,600,SCT,3000,,,,,VFR,,,,,,,,,,,,SPECI,330.0
YGLA 130630Z AUTO 09016G26KT 9999 // NCD 30/19 Q1014,YGLA,2015-02-13T06:30:00Z,-23.87,151.22,30.0,19.0,90,16,26,6.21,29.940945,,,TRUE,,,,,,,,,,,,,,,,,,,,,,,,,,,,SPECI,52.0
LUKK 130630Z 33002KT CAVOK M05/M07 Q1029 R26/110065 NOSIG,LUKK,2015-02-13T06:30:00Z,46.93,28.93,-5.0,-7.0,330,2,,6.21,30.383858,,,,,,TRUE,,,,,CAVOK,,,,,,,,VFR,,,,,,,,,,,,METAR,122.0
LDOS 130630Z 00000KT CAVOK M03/M04 Q1027,LDOS,2015-02-13T06:30:00Z,45.47,18.82,-3.0,-4.0,0,0,,6.21,30.324802,,,,,,,,,,,CAVOK,,,,,,,,VFR,,,,,,,,,,,,METAR,89.0
LDZD 130630Z 12004KT CAVOK M02/M03 Q1025 NOSIG,LDZD,2015-02-13T06:30:00Z,44.1,15.37,-2.0,-3.0,120,4,,6.21,30.265747,,,,,,TRUE,,,,,CAVOK,,,,,,,,VFR,,,,,,,,,,,,METAR,84.0
LDZA 130630Z 00000KT 0100 R05/0225N R23/0400N FZFG VV001 M06/M07 Q1026 TEMPO 0600 BCFG BKN003,LDZA,2015-02-13T06:30:00Z,45.72,16.07,-6.0,-7.0,0,0,,0.06,30.295275,,,,,,,,,,FZFG,OVX,0,,,,,,,LIFR,,,,,,,,,,,100,METAR,107.0
LDDU 130630Z 05006KT CAVOK 05/M05 Q1024 NOSIG,LDDU,2015-02-13T06:30:00Z,42.57,18.27,5.0,-5.0,50,6,,6.21,30.236221,,,,,,TRUE,,,,,CAVOK,,,,,,,,VFR,,,,,,,,,,,,METAR,165.0
LDPL 130630Z 00000KT 9999 OVC045 05/M00 Q1024 NOSIG,LDPL,2015-02-13T06:30:00Z,44.88,13.92,5.0,0.0,0,0,,6.21,30.236221,,,,,,TRUE,,,,,OVC,4500,,,,,,,VFR,,,,,,,,,,,,METAR,63.0
LDSP 130630Z 00000KT CAVOK 02/M02 Q1025 NOSIG,LDSP,2015-02-13T06:30:00Z,43.52,16.3,2.0,-2.0,0,0,,6.21,30.265747,,,,,,TRUE,,,,,CAVOK,,,,,,,,VFR,,,,,,,,,,,,METAR,21.0
YBWP 130630Z AUTO 15009KT 0300 // SCT004 BKN009 OVC028 25/25 Q1005,YBWP,2015-02-13T06:30:00Z,-12.68,141.92,25.0,25.0,150,9,,0.19,29.675198,,,TRUE,,,,,,,,SCT,400,BKN,900,OVC,2800,,,LIFR,,,,,,,,,,,,SPECI,12.0
NTAA 130630Z 09008KT 040V120 9999 FEW016 BKN100 27/20 Q1013 WS R04 TEMPO 3000 SHRA BKN010 BKN015 BKN100,NTAA,2015-02-13T06:30:00Z,-17.55,-149.62,27.0,20.0,90,8,,6.21,29.911417,,,,,,,,,,,FEW,1600,BKN,10000,,,,,VFR,,,,,,,,,,,,METAR,2.0
YLRE 130630Z AUTO 07016G34KT 9999 // NCD 38/08 Q1010,YLRE,2015-02-13T06:30:00Z,-23.43,144.28,38.0,8.0,70,16,34,6.21,29.822834,,,TRUE,,,,,,,,,,,,,,,,,,,,,,,,,,,,SPECI,193.0
HKJK 130630Z 01007KT 340V040 9999 FEW023 23/14 Q1022,HKJK,2015-02-13T06:30:00Z,-1.32,36.92,23.0,14.0,10,7,,6.21,30.177166,,,,,,,,,,,FEW,2300,,,,,,,VFR,,,,,,,,,,,,METAR,1624.0
HRYR 130630Z 33003KT 9999 FEW025 20/18 Q1021 NOSIG,HRYR,2015-02-13T06:30:00Z,-1.97,30.12,20.0,18.0,330,3,,6.21,30.147638,,,,,,TRUE,,,,,FEW,2500,,,,,,,VFR,,,,,,,,,,,,METAR,1497.0
GOOY 130630Z 35012KT CAVOK 19/17 Q1016 NOSIG,GOOY,2015-02-13T06:30:00Z,14.72,-17.5,19.0,17.0,350,12,,6.21,30.0,,,,,,TRUE,,,,,CAVOK,,,,,,,,VFR,,,,,,,,,,,,METAR,24.0
ORBI 130630Z 10003KT 060V130 4100 DU NSC 13/03 Q1020,ORBI,2015-02-13T06:30:00Z,33.27,44.23,13.0,3.0,100,3,,2.55,30.11811,,,,,,,,,,DU,,,,,,,,,,,,,,,,,,,,,METAR,35.0
GQNN 130630Z 01008KT 8000 NSC 18/10 Q1016 NOSIG,GQNN,2015-02-13T06:30:00Z,18.1,-15.93,18.0,10.0,10,8,,4.97,30.0,,,,,,TRUE,,,,,,,,,,,,,,,,,,,,,,,,,METAR,3.0
UBBN 130630Z 33004KT 9999 NSC 03/M01 Q1019 R14R/CLRD60 NOSIG RMK MT OP QFE689,UBBN,2015-02-13T06:30:00Z,39.18,45.45,3.0,-1.0,330,4,,6.21,30.088583,,,,,,TRUE,,,,,,,,,,,,,,,,,,,,,,,,,SPECI,873.0
OBBI 130630Z 36011KT 2000 DU NSC 21/14 Q1017 NOSIG,OBBI,2015-02-13T06:30:00Z,26.27,50.63,21.0,14.0,360,11,,1.24,30.029528,,,,,,TRUE,,,,DU,,,,,,,,,,,,,,,,,,,,,METAR,2.0
HSSS 130630Z 36015KT 8000 Q1018,HSSS,2015-02-13T06:30:00Z,15.58,32.53,,,360,15,,4.97,30.059055,,,,,,,,,,,,,,,,,,,,,,,,,,,,,,,METAR,380.0
LRIA 130630Z 00000KT 5000 BR NSC M04/M06 Q1029 R14/09//95,LRIA,2015-02-13T06:30:00Z,47.17,27.62,-4.0,-6.0,0,0,,3.11,30.383858,,,,,,,,,,BR,,,,,,,,,,,,,,,,,,,,,METAR,104.0
KVSF 130629Z AUTO 27009KT 9SM SCT028 OVC040 M13/M18 A2983 RMK AO2 T11331183 TSNO,KVSF,2015-02-13T06:29:00Z,43.35,-72.52,-13.3,-18.3,270,9,,9.0,29.828741,,,TRUE,TRUE,,,TRUE,,,,SCT,2800,OVC,4000,,,,,VFR,,,,,,,,,,,,SPECI,175.0
KDSV 130629Z AUTO VRB05KT 10SM BKN025 OVC037 M17/M22 A3017 RMK AO2 T11671217,KDSV,2015-02-13T06:29:00Z,42.57,-77.72,-16.7,-21.7,0,5,,10.0,30.171259,,,TRUE,TRUE,,,,,,,BKN,2500,OVC,3700,,,,,MVFR,,,,,,,,,,,,SPECI,198.0
CYQX 130629Z 31016G22KT 4SM -SN DRSN OVC009 M11/M13 A2947 RMK SF8 PRESRR SLP990,CYQX,2015-02-13T06:29:00Z,48.95,-54.58,-11.0,-13.0,310,16,22,4.0,29.471457,999.0,,,,,,,,,-SN DRSN,OVC,900,,,,,,,IFR,,,,,,,,,,,,METAR,151.0
PAED 130628Z 00000KT 1/2SM R06/3000FT FZFG VV004 M05/M05 A2971 RMK AO2A VIS 1/2V1 $,PAED,2015-02-13T06:28:00Z,61.25,-149.8,-5.0,-5.0,0,0,,0.5,29.71063,,,,TRUE,TRUE,,,,,FZFG,OVX,0,,,,,,,LIFR,,,,,,,,,,,400,METAR,59.0
KPSM 130628Z 29011KT 10SM BKN028 BKN035 OVC050 M09/M15 A2972 RMK AO2A,KPSM,2015-02-13T06:28:00Z,43.07,-70.82,-9.0,-15.0,290,11,,10.0,29.719488,,,,TRUE,,,,,,,BKN,2800,BKN,3500,OVC,5000,,,MVFR,,,,,,,,,,,,METAR,31.0
KHZX 130627Z AUTO 18003KT 7SM SCT027 BKN034 OVC050 M13/M17 A3016 RMK AO2,KHZX,2015-02-13T06:27:00Z,46.62,-93.32,-13.0,-17.0,180,3,,7.0,30.159449,,,TRUE,TRUE,,,,,,,SCT,2700,BKN,3400,OVC,5000,,,VFR,,,,,,,,,,,,METAR,374.0
RJSF 130627Z 32014KT 6000 -SHSN FEW004 SCT015 BKN040 M03/M05 Q1002 RMK 1ST004 4CU015 5CU040 A2960 3000SE-SW,RJSF,2015-02-13T06:27:00Z,37.22,140.42,-3.0,-5.0,320,14,,3.73,29.586615,,,,,,,,,,-SHSN,FEW,400,SCT,1500,BKN,4000,,,MVFR,,,,,,,,,,,,SPECI,375.0
ETEB 130627Z AUTO 12006KT 0400 FZFG VV002 M03/M03 A3013 RMK AO2 VIS 0400V1200 RVRNO,ETEB,2015-02-13T06:27:00Z,49.32,10.62,-3.0,-3.0,120,6,,0.25,30.129921,,,TRUE,TRUE,,,,,,FZFG,OVX,0,,,,,,,LIFR,,,,,,,,,,,200,SPECI,467.0
PASO 130627Z AUTO 19003KT 1 3/4SM BR BKN002 00/00 A2967 RMK AO2 T00000000 TSNO,PASO,2015-02-13T06:27:00Z,59.45,-151.7,0.0,0.0,190,3,,1.75,29.66929,,,TRUE,TRUE,,,TRUE,,,BR,BKN,200,,,,,,,LIFR,,,,,,,,,,,,SPECI,9.0
PAOU 130627Z AUTO 08009KT 5SM -RA BR BKN004 BKN024 OVC029 03/02 A2934 RMK AO2 TSNO BKN V OVC UPB0557E01RAB01 P0000 $,PAOU,2015-02-13T06:27:00Z,56.0,-161.17,3.0,2.0,80,9,,5.0,29.338583,,,TRUE,TRUE,TRUE,,TRUE,,,-RA BR,BKN,400,BKN,2400,OVC,2900,,,LIFR,,,,,,0.0050,,,,,,SPECI,4.0
PAJN 130627Z 00000KT 1 3/4SM -RA BR SCT003 BKN019 OVC036 01/01 A2973 RMK AO2 VIS 1 1/4V4 P0000 T00110011,PAJN,2015-02-13T06:27:00Z,58.37,-134.58,1.1,1.1,0,0,,1.75,29.731298,,,,TRUE,,,,,,-RA BR,SCT,300,BKN,1900,OVC,3600,,,IFR,,,,,,0.0050,,,,,,SPECI,5.0
ETIK 130627Z AUTO VRB02KT 6000 BR OVC006 M02/M02 A3016 RMK AO2,ETIK,2015-02-13T06:27:00Z,49.47,10.37,-2.0,-2.0,0,2,,3.73,30.159449,,,TRUE,TRUE,,,,,,BR,OVC,600,,,,,,,IFR,,,,,,,,,,,,SPECI,325.0
CYOJ 130627Z AUTO 01010KT 9SM BKN015 OVC070 M18/M21 A3025 RMK SLP282,CYOJ,2015-02-13T06:27:00Z,58.62,-117.17,-18.0,-21.0,10,10,,9.0,30.250984,1028.2,,TRUE,,,,,,,,BKN,1500,OVC,7000,,,,,MVFR,,,,,,,,,,,,SPECI,338.0
RJOZ 130626Z 30016G27KT 270V340 9999 FEW040 SCT050 06/M07 Q1016 RMK 1CU040 4SC050 A3002,RJOZ,2015-02-13T06:26:00Z,34.03,131.05,6.0,-7.0,300,16,27,6.21,30.0,,,,,,,,,,,FEW,4000,SCT,5000,,,,,VFR,,,,,,,,,,,,SPECI,7.0
PARS 130626Z AUTO 00000KT 10SM FEW004 SCT035 BKN047 M08/M10 A2962 RMK AO2 TSNO SNE25 P0000 $,PARS,2015-02-13T06:26:00Z,61.77,-161.32,-8.0,-10.0,0,0,,10.0,29.619095,,,TRUE,TRUE,TRUE,,TRUE,,,,FEW,400,SCT,3500,BKN,4700,,,VFR,,,,,,0.0050,,,,,,SPECI,16.0
CWLY 130626Z AUTO VRB02KT 9SM BKN022 OVC027 06/05 A3027 RMK SLP255,CWLY,2015-02-13T06:26:00Z,50.22,-121.58,6.0,5.0,0,2,,9.0,30.268702,1025.5,,TRUE,,,,,,,,BKN,2200,OVC,2700,,,,,MVFR,,,,,,,,,,,,SPECI,229.0
KCFE 130625Z AUTO 18004KT 10SM SCT040 OVC080 M13/M16 A3022 RMK AO2,KCFE,2015-02-13T06:25:00Z,45.17,-93.85,-13.0,-16.0,180,4,,10.0,30.221457,,,TRUE,TRUE,,,,,,,SCT,4000,OVC,8000,,,,,VFR,,,,,,,,,,,,SPECI,295.0
KJYG 130625Z AUTO 16012KT 10SM OVC065 M09/M12 A3022 RMK AO2,KJYG,2015-02-13T06:25:00Z,43.98,-94.55,-9.0,-12.0,160,12,,10.0,30.221457,,,TRUE,TRUE,,,,,,,OVC,6500,,,,,,,VFR,,,,,,,,,,,,METAR,325.0
KJMR 130625Z AUTO 17003KT 10SM BKN060 M14/M19 A3022 RMK AO2,KJMR,2015-02-13T06:25:00Z,45.88,-93.27,-14.0,-19.0,170,3,,10.0,30.221457,,,TRUE,TRUE,,,,,,,BKN,6000,,,,,,,VFR,,,,,,,,,,,,METAR,309.0
EHSA 130625Z AUTO 16021G23KT //// ///////// 04/// Q1013 W06/H8,EHSA,2015-02-13T06:25:00Z,52.0,3.28,6.0,,160,21,23,,29.911417,,,TRUE,,,,,,,,,,,,,,,,,,,,,,,,,,,,METAR,50.0
EHJR 130625Z AUTO 15020G22KT //// ///////// 05/02 Q1012 W06/H9,EHJR,2015-02-13T06:25:00Z,53.22,3.22,5.0,2.0,150,20,22,,29.88189,,,TRUE,,,,,,,,,,,,,,,,,,,,,,,,,,,,METAR,50.0
EHSC 130625Z AUTO 17018G21KT 1800 ///////// 02/02 Q1013 W06/H6,EHSC,2015-02-13T06:25:00Z,51.93,3.67,2.0,2.0,170,18,21,1.12,29.911417,,,TRUE,,,,,,,,,,,,,,,,,,,,,,,,,,,,METAR,50.0
EBLB 130625Z AUTO VRB01KT 3100 FEW001/// M05/M06 Q1016 YLO,EBLB,2015-02-13T06:25:00Z,50.47,6.17,-5.0,-6.0,0,1,,1.93,30.0,,,TRUE,,,,,,,,,,,,,,,,,,,,,,,,,,,,METAR,570.0
EBFS 130625Z 17009KT 5000 BR SCT100 00/M01 Q1015 WHT,EBFS,2015-02-13T06:25:00Z,50.22,4.65,0.0,-1.0,170,9,,3.11,29.970472,,,,,,,,,,BR,SCT,10000,,,,,,,MVFR,,,,,,,,,,,,METAR,299.0
EBFN 130625Z 15011KT 4800 BR FEW047 BKN080 02/01 Q1013 GRN,EBFN,2015-02-13T06:25:00Z,51.07,2.63,2.0,1.0,150,11,,2.98,29.911417,,,,,,,,,,BR,FEW,4700,BKN,8000,,,,,IFR,,,,,,,,,,,,METAR,9.0
EBCV 130625Z AUTO 14007KT 5000 FEW055/// BKN095/// 02/00 Q1015 WHT,EBCV,2015-02-13T06:25:00Z,50.57,3.82,2.0,0.0,140,7,,3.11,29.970472,,,TRUE,,,,,,,,,,,,,,,,,,,,,,,,,,,,METAR,63.0
EBBL 130625Z VRB01KT 3500 BR SKC M02/M03 Q1016 YLO,EBBL,2015-02-13T06:25:00Z,51.17,5.47,-2.0,-3.0,0,1,,2.17,30.0,,,,,,,,,,BR,SKC,,,,,,,,IFR,,,,,,,,,,,,METAR,64.0
EBBE 130625Z AUTO 18007KT 8000 NCD 02/M01 Q1015 BLU,EBBE,2015-02-13T06:25:00Z,50.75,4.77,2.0,-1.0,180,7,,4.97,29.970472,,,TRUE,,,,,,,,,,,,,,,,,,,,,,,,,,,,METAR,127.0
OPLA 130625Z 27004KT 5000 HZ NSC 20/08 Q1015,OPLA,2015-02-13T06:25:00Z,31.52,74.4,20.0,8.0,270,4,,3.11,29.970472,,,,,,,,,,HZ,,,,,,,,,,,,,,,,,,,,,METAR,217.0
EHFS 130625Z AUTO 15013KT 3500 BR FEW038/// 03/02 Q1014,EHFS,2015-02-13T06:25:00Z,51.45,3.6,3.0,2.0,150,13,,2.17,29.940945,,,TRUE,,,,,,,BR,,,,,,,,,,,,,,,,,,,,,METAR,32.0
EHEH 130625Z AUTO 15006KT 4100 BR NCD M01/M02 Q1016 GRN 15006KT 4000 BR NSC TEMPO 2500,EHEH,2015-02-13T06:25:00Z,51.45,5.38,-1.0,-2.0,150,6,,2.55,30.0,,,TRUE,,,,,,,BR BR,,,,,,,,,,,,,,,,,,,,,METAR,22.0
OPKC 130625Z 26014KT 6000 NSC 27/18 Q1016 NOSIG,OPKC,2015-02-13T06:25:00Z,24.88,67.17,27.0,18.0,260,14,,3.73,30.0,,,,,,TRUE,,,,,,,,,,,,,,,,,,,,,,,,,SPECI,22.0
EHQE 130625Z AUTO 18016KT 8000 BKN015/// 05/01 Q////,EHQE,2015-02-13T06:25:00Z,52.92,4.15,5.0,1.0,180,16,,4.97,,,,TRUE,,,,,,,,,,,,,,,,,,,,,,,,,,,,METAR,50.0
EHPG 130625Z AUTO 14019KT 080V150 2900 BR SCT003/// BKN004/// 04/03 Q1012,EHPG,2015-02-13T06:25:00Z,52.37,3.35,4.0,3.0,140,19,,1.8,29.88189,,,TRUE,,,,,,,BR,,,,,,,,,,,,,,,,,,,,,METAR,50.0
EHMG 130625Z AUTO 19019KT 5000 OVC020/// 04/02 Q1014,EHMG,2015-02-13T06:25:00Z,53.62,4.97,4.0,2.0,190,19,,3.11,29.940945,,,TRUE,,,,,,,,,,,,,,,,,,,,,,,,,,,,METAR,50.0
EHMA 130625Z AUTO 18013KT 3900 BR OVC022/// 03/01 Q1015,EHMA,2015-02-13T06:25:00Z,53.5,5.95,3.0,1.0,180,13,,2.42,29.970472,,,TRUE,,,,,,,BR,,,,,,,,,,,,,,,,,,,,,METAR,50.0
EHKV 130625Z AUTO 19016KT 9000 BKN016/// 05/02 Q1012,EHKV,2015-02-13T06:25:00Z,53.27,3.63,5.0,2.0,190,16,,5.59,29.88189,,,TRUE,,,,,,,,,,,,,,,,,,,,,,,,,,,,METAR,50.0
EHJA 130625Z AUTO 16018KT 9999 OVC015/// 05/01 Q1011,EHJA,2015-02-13T06:25:00Z,53.82,2.95,5.0,1.0,160,18,,6.21,29.852362,,,TRUE,,,,,,,,,,,,,,,,,,,,,,,,,,,,METAR,50.0
EHFZ 130625Z AUTO VRB18KT 9999 BKN018/// OVC021/// 05/01 Q1012,EHFZ,2015-02-13T06:25:00Z,54.12,4.02,5.0,1.0,0,18,,6.21,29.88189,,,TRUE,,,,,,,,,,,,,,,,,,,,,,,,,,,,METAR,50.0
EHFD 130625Z AUTO 19021KT 8000 SCT015/// OVC018/// 05/01 Q1012,EHFD,2015-02-13T06:25:00Z,54.85,4.7,5.0,1.0,190,21,,4.97,29.88189,,,TRUE,,,,,,,,,,,,,,,,,,,,,,,,,,,,METAR,50.0
EHDV 130625Z AUTO 17018KT 9999 OVC015/// 04/01 Q1011,EHDV,2015-02-13T06:25:00Z,54.32,2.93,4.0,1.0,170,18,,6.21,29.852362,,,TRUE,,,,,,,,,,,,,,,,,,,,,,,,,,,,METAR,50.0
EHAK 130625Z AUTO 27016KT 190V340 9000 BKN015/// OVC019/// 04/01 Q1011,EHAK,2015-02-13T06:25:00Z,55.42,3.82,4.0,1.0,270,16,,5.59,29.852362,,,TRUE,,,,,,,,,,,,,,,,,,,,,,,,,,,,METAR,50.0
PADQ 130625Z 05007KT 5SM BR BKN004 OVC014 04/03 A2962 RMK AO2 T00390033,PADQ,2015-02-13T06:25:00Z,57.75,-152.5,3.9,3.3,50,7,,5.0,29.619095,,,,TRUE,,,,,,BR,BKN,400,OVC,1400,,,,,LIFR,,,,,,,,,,,,SPECI,34.0
EHAM 130625Z 14008KT 2500 BR NSC 01/00 Q1015 NOSIG,EHAM,2015-02-13T06:25:00Z,52.32,4.78,1.0,0.0,140,8,,1.55,29.970472,,,,,,TRUE,,,,BR,,,,,,,,,,,,,,,,,,,,,METAR,9.0
EHRD 130625Z AUTO 16010KT 110V200 3100 BR NSC 02/01 Q1015 TEMPO 2500 BKN004,EHRD,2015-02-13T06:25:00Z,51.95,4.45,2.0,1.0,160,10,,1.93,29.970472,,,TRUE,,,,,,,BR,,,,,,,,,,,,,,,,,,,,,METAR,-5.0
EHGG 130625Z AUTO 16006KT 130V190 2600 BR OVC004 01/01 Q1016 BECMG BKN005,EHGG,2015-02-13T06:25:00Z,53.12,6.57,1.0,1.0,160,6,,1.62,30.0,,,TRUE,,,,,,,BR,OVC,400,,,,,,,LIFR,,,,,,,,,,,,METAR,4.0
EHBK 130625Z AUTO 18006KT 8000 NCD 01/M02 Q1016 NOSIG,EHBK,2015-02-13T06:25:00Z,50.92,5.77,1.0,-2.0,180,6,,4.97,30.0,,,TRUE,,,TRUE,,,,,,,,,,,,,,,,,,,,,,,,,METAR,116.0
EHVL 130625Z AUTO 18010KT 5000 BR OVC019 04/02 Q1014 WHT,EHVL,2015-02-13T06:25:00Z,53.23,4.92,4.0,2.0,180,10,,3.11,29.940945,,,TRUE,,,,,,,BR,OVC,1900,,,,,,,MVFR,,,,,,,,,,,,METAR,5.0
EHGR 130625Z AUTO 17004KT 3100 BR FEW088 SCT100 OVC380 M01/M01 Q1015 YLO,EHGR,2015-02-13T06:25:00Z,51.57,4.92,-1.0,-1.0,170,4,,1.93,29.970472,,,TRUE,,,,,,,BR,FEW,8800,SCT,10000,OVC,38000,,,IFR,,,,,,,,,,,,METAR,13.0
EHDL 130625Z AUTO 15004KT 2600 BR FEW100 M01/M02 Q1016 YLO,EHDL,2015-02-13T06:25:00Z,52.07,5.87,-1.0,-2.0,150,4,,1.62,30.0,,,TRUE,,,,,,,BR,FEW,10000,,,,,,,IFR,,,,,,,,,,,,METAR,52.0
RJEC 130624Z 35005KT 320V020 1600 -SHSN FEW005 BKN013 BKN020 M06/M06 Q0993 RMK 1ST005 5ST013 7CU020 A2934,RJEC,2015-02-13T06:24:00Z,43.67,142.43,-6.0,-6.0,350,5,,0.99,29.320866,,,,,,,,,,-SHSN,FEW,500,BKN,1300,BKN,2000,,,LIFR,,,,,,,,,,,,SPECI,211.0
CYYY 130624Z 31007KT 15SM FEW009 OVC020 M15/M18 A2970 RMK SF2SC6 SLP063,CYYY,2015-02-13T06:24:00Z,48.6,-68.22,-15.0,-18.0,310,7,,15.0,29.698818,1006.3,,,,,,,,,,FEW,900,OVC,2000,,,,,MVFR,,,,,,,,,,,,SPECI,52.0
UTO8 M M M 275/-31/-35/2614+20/M/ PK WND 2523 0539Z SOG 14 3005 97MM,UTO8,2015-02-13T06:23:00Z,,,,,,,,1.87,,,,,,,,,,,,,,,,,,,,,,,,,,,,,,,,SPECI,
KELZ 130623Z AUTO 29017KT 8SM FEW011 SCT019 M21/M24 A3001 RMK AO2 UPE19 P0000 T12061244,KELZ,2015-02-13T06:23:00Z,42.1,-77.98,-20.6,-24.4,290,17,,8.0,30.008858,,,TRUE,TRUE,,,,,,,FEW,1100,SCT,1900,,,,,VFR,,,,,,0.0050,,,,,,SPECI,646.0
PATO 130623Z AUTO 28003KT 3/4SM BR BKN002 OVC036 M01/M01 A2970 RMK AO2 T10111011 TSNO,PATO,2015-02-13T06:23:00Z,60.78,-148.85,-1.1,-1.1,280,3,,0.75,29.698818,,,TRUE,TRUE,,,TRUE,,,BR,BKN,200,OVC,3600,,,,,LIFR,,,,,,,,,,,,SPECI,31.0
ETIH 130623Z AUTO VRB02KT 4000 BR OVC003 M02/M02 A3017 RMK AO2 VIS 4000V5000,ETIH,2015-02-13T06:23:00Z,49.22,11.82,-2.0,-2.0,0,2,,2.49,30.171259,,,TRUE,TRUE,,,,,,BR,OVC,300,,,,,,,LIFR,,,,,,,,,,,,SPECI,442.0
CYQI 130623Z 12003KT 12SM -SHSN OVC010 M06/M07 A2958 RMK SF8 SLP018,CYQI,2015-02-13T06:23:00Z,43.83,-66.08,-6.0,-7.0,120,3,,12.0,29.58071,1001.8,,,,,,,,,-SHSN,OVC,1000,,,,,,,MVFR,,,,,,,,,,,,SPECI,43.0
LFLX 130622Z 18009KT CAVOK 05/03 Q1016 NOSIG,LFLX,2015-02-13T06:22:00Z,46.85,1.72,5.0,3.0,180,9,,6.21,30.0,,,,,,TRUE,,,,,CAVOK,,,,,,,,VFR,,,,,,,,,,,,METAR,157.0
PADE 130622Z AUTO 21007KT 10SM BKN014 OVC044 M16/M26 A2985 RMK AO2 T11561261 TSNO,PADE,2015-02-13T06:22:00Z,66.07,-162.77,-15.6,-26.1,210,7,,10.0,29.84941,,,TRUE,TRUE,,,TRUE,,,,BKN,1400,OVC,4400,,,,,MVFR,,,,,,,,,,,,SPECI,5.0
PACD 130622Z AUTO 10006KT 10SM FEW015 BKN032 OVC095 03/02 A2924 RMK AO2 RAE17 P0000 T00330022 TSNO $,PACD,2015-02-13T06:22:00Z,55.2,-162.72,3.3,2.2,100,6,,10.0,29.241142,,,TRUE,TRUE,TRUE,,TRUE,,,,FEW,1500,BKN,3200,OVC,9500,,,VFR,,,,,,0.0050,,,,,,SPECI,30.0
CYQK 130622Z 22009KT 2SM -SN OVC012 M17/M19 A2997 RMK SC8 SLP193,CYQK,2015-02-13T06:22:00Z,49.77,-94.37,-17.0,-19.0,220,9,,2.0,29.970472,1019.3,,,,,,,,,-SN,OVC,1200,,,,,,,IFR,,,,,,,,,,,,SPECI,411.0
RJSR 130621Z 26020G32KT 0600 R11/0450V0650N SHSN FEW001 BKN005 BKN010 M02/M02 Q0998 RMK 1ST001 5ST005 7ST010 A2947,RJSR,2015-02-13T06:21:00Z,40.18,140.37,-2.0,-2.0,260,20,32,0.37,29.468504,,,,,,,,,,SHSN,FEW,100,BKN,500,BKN,1000,,,LIFR,,,,,,,,,,,,SPECI,87.0
CYXJ 130621Z 36005KT 15SM -FZRA BKN048 OVC090 M01/M04 A3000 RMK SC6AC2 SLP199,CYXJ,2015-02-13T06:21:00Z,56.25,-120.73,-1.0,-4.0,360,5,,15.0,30.0,1019.9,,,,,,,,,-FZRA,BKN,4800,OVC,9000,,,,,VFR,,,,,,,,,,,,SPECI,695.0
LGRP 130620Z 32007KT 9999 FEW018 11/04 Q1015 NOSIG,LGRP,2015-02-13T06:20:00Z,36.4,28.08,11.0,4.0,320,7,,6.21,29.970472,,,,,,TRUE,,,,,FEW,1800,,,,,,,VFR,,,,,,,,,,,,METAR,5.0
VGHS 130620Z 27005KT 3500 HZ FEW100 26/13 Q1012 NOSIG,VGHS,2015-02-13T06:20:00Z,23.85,90.4,26.0,13.0,270,5,,2.17,29.88189,,,,,,TRUE,,,,HZ,FEW,10000,,,,,,,IFR,,,,,,,,,,,,METAR,10.0
LTFE 130620Z 11003KT 050V130 CAVOK 07/01 Q1017 BECMG TL0650 02012KT,LTFE,2015-02-13T06:20:00Z,37.25,27.67,7.0,1.0,110,3,,6.21,30.029528,,,,,,,,,,,CAVOK,,,,,,,,VFR,,,,,,,,,,,,SPECI,6.0
EGPU 130620Z AUTO 16028KT 7000 FEW017/// BKN029/// 07/04 Q0994,EGPU,2015-02-13T06:20:00Z,56.5,-6.87,7.0,4.0,160,28,,4.35,29.350393,,,TRUE,,,,,,,,,,,,,,,,,,,,,,,,,,,,METAR,12.0
EGPI 130620Z AUTO 13022KT 090V160 5000 HZ BKN014/// SCT021/// 06/04 Q0995,EGPI,2015-02-13T06:20:00Z,55.68,-6.25,6.0,4.0,130,22,,3.11,29.379921,,,TRUE,,,,,,,HZ,,,,,,,,,,,,,,,,,,,,,METAR,18.0
LTCJ 130620Z 01008KT 7000 SCT040 BKN100 07/05 Q1019,LTCJ,2015-02-13T06:20:00Z,37.93,41.12,7.0,5.0,10,8,,4.35,30.088583,,,,,,,,,,,SCT,4000,BKN,10000,,,,,MVFR,,,,,,,,,,,,METAR,540.0
LTCE 130620Z 00000KT 1600 BR SCT030 BKN070 M12/M13 Q1018 NOSIG,LTCE,2015-02-13T06:20:00Z,39.95,41.17,-12.0,-13.0,0,0,,0.99,30.059055,,,,,,TRUE,,,,BR,SCT,3000,BKN,7000,,,,,LIFR,,,,,,,,,,,,METAR,1758.0
LTCC 130620Z VRB01KT 9999 FEW012 SCT040 BKN090 05/03 Q1018 NOSIG,LTCC,2015-02-13T06:20:00Z,37.87,40.2,5.0,3.0,0,1,,6.21,30.059055,,,,,,TRUE,,,,,FEW,1200,SCT,4000,BKN,9000,,,VFR,,,,,,,,,,,,METAR,677.0
LTBU 130620Z 36014KT 7000 SCT040 BKN100 01/M00 Q1024,LTBU,2015-02-13T06:20:00Z,41.12,27.92,1.0,0.0,360,14,,4.35,30.236221,,,,,,,,,,,SCT,4000,BKN,10000,,,,,MVFR,,,,,,,,,,,,METAR,173.0
LTAU 130620Z 06009KT 9999 SCT035 BKN080 02/M02 Q1015 NOSIG,LTAU,2015-02-13T06:20:00Z,38.77,35.47,2.0,-2.0,60,9,,6.21,29.970472,,,,,,TRUE,,,,,SCT,3500,BKN,8000,,,,,VFR,,,,,,,,,,,,METAR,1054.0
LTAT 130620Z 36007KT 6000 SCT012 BKN033 OVC090 04/02 Q1017 RERA NOSIG,LTAT,2015-02-13T06:20:00Z,38.42,38.07,4.0,2.0,360,7,,3.73,30.029528,,,,,,TRUE,,,,,SCT,1200,BKN,3300,OVC,9000,,,MVFR,,,,,,,,,,,,METAR,849.0
LTAP 130620Z 28004KT 8000 SCT012 BKN036 03/01 Q1018 NOSIG,LTAP,2015-02-13T06:20:00Z,40.83,35.52,3.0,1.0,280,4,,4.97,30.059055,,,,,,TRUE,,,,,SCT,1200,BKN,3600,,,,,MVFR,,,,,,,,,,,,METAR,535.0
LTAG 130620Z 05012KT 9999 -SHRA BKN030 BKN100 08/06 Q1014 TEMPO SHRA,LTAG,2015-02-13T06:20:00Z,37.0,35.42,8.0,6.0,50,12,,6.21,29.940945,,,,,,,,,,-SHRA,BKN,3000,BKN,10000,,,,,MVFR,,,,,,,,,,,,SPECI,66.0
LCEN 130620Z 29011KT 9999 FEW025CB SCT030 BKN100 08/06 Q1011 NOSIG,LCEN,2015-02-13T06:20:00Z,35.13,33.5,8.0,6.0,290,11,,6.21,29.852362,,,,,,TRUE,,,,,FEW,2500,SCT,3000,BKN,10000,,,VFR,,,,,,,,,,,,METAR,91.0
LTFJ 130620Z 14003KT 9999 SCT010 BKN030 04/03 Q1023 NOSIG,LTFJ,2015-02-13T06:20:00Z,40.9,29.3,4.0,3.0,140,3,,6.21,30.206694,,,,,,TRUE,,,,,SCT,1000,BKN,3000,,,,,MVFR,,,,,,,,,,,,METAR,98.0
LTFC 130620Z 06004KT 9999 SCT035 M00/M02 Q1015,LTFC,2015-02-13T06:20:00Z,37.87,30.38,0.0,-2.0,60,4,,6.21,29.970472,,,,,,,,,,,SCT,3500,,,,,,,VFR,,,,,,,,,,,,METAR,864.0
LTCS 130620Z 12014KT 9999 -RA FEW010 BKN030 04/03 Q1018,LTCS,2015-02-13T06:20:00Z,37.45,38.9,4.0,3.0,120,14,,6.21,30.059055,,,,,,,,,,-RA,FEW,1000,BKN,3000,,,,,MVFR,,,,,,,,,,,,METAR,825.0
LTCG 130620Z 11004KT 9999 SCT017 BKN028 08/06 Q1022 NOSIG,LTCG,2015-02-13T06:20:00Z,41.0,39.8,8.0,6.0,110,4,,6.21,30.177166,,,,,,TRUE,,,,,SCT,1700,BKN,2800,,,,,MVFR,,,,,,,,,,,,METAR,30.0
LTBS 130620Z 08006KT CAVOK 07/02 Q1015 NOSIG,LTBS,2015-02-13T06:20:00Z,36.7,28.77,7.0,2.0,80,6,,6.21,29.970472,,,,,,TRUE,,,,,CAVOK,,,,,,,,VFR,,,,,,,,,,,,METAR,2.0
LTBR 130620Z 00000KT 6000 FEW013 BKN020 BKN080 02/02 Q1022 NOSIG,LTBR,2015-02-13T06:20:00Z,40.25,29.57,2.0,2.0,0,0,,3.73,30.177166,,,,,,TRUE,,,,,FEW,1300,BKN,2000,BKN,8000,,,MVFR,,,,,,,,,,,,METAR,232.0
LTBJ 130620Z 35014KT 9999 FEW030 05/00 Q1018 NOSIG,LTBJ,2015-02-13T06:20:00Z,38.28,27.15,5.0,0.0,350,14,,6.21,30.059055,,,,,,TRUE,,,,,FEW,3000,,,,,,,VFR,,,,,,,,,,,,METAR,120.0
LTBA 130620Z 30009KT 6000 -RA SCT009 OVC025 02/01 Q1023 BECMG 36015KT,LTBA,2015-02-13T06:20:00Z,40.97,28.82,2.0,1.0,300,9,,3.73,30.206694,,,,,,,,,,-RA,SCT,900,OVC,2500,,,,,MVFR,,,,,,,,,,,,SPECI,37.0
LTAZ 130620Z VRB04KT 9999 SCT035 BKN100 03/M01 Q1015,LTAZ,2015-02-13T06:20:00Z,38.77,34.55,3.0,-1.0,0,4,,6.21,29.970472,,,,,,,,,,,SCT,3500,BKN,10000,,,,,VFR,,,,,,,,,,,,METAR,945.0
LTAJ 130620Z 07011KT 9999 -RA FEW015 BKN030 OVC080 05/03 Q1015 NOSIG,LTAJ,2015-02-13T06:20:00Z,36.95,37.48,5.0,3.0,70,11,,6.21,29.970472,,,,,,TRUE,,,,-RA,FEW,1500,BKN,3000,OVC,8000,,,MVFR,,,,,,,,,,,,METAR,855.0
LTAI 130620Z 33005KT 9999 FEW030 09/M00 Q1014 NOSIG,LTAI,2015-02-13T06:20:00Z,36.9,30.8,9.0,0.0,330,5,,6.21,29.940945,,,,,,TRUE,,,,,FEW,3000,,,,,,,VFR,,,,,,,,,,,,METAR,54.0
LTAF 130620Z 04005KT 5000 -SHRA BR SCT035 BKN100 09/07 Q1014 NOSIG,LTAF,2015-02-13T06:20:00Z,36.97,35.28,9.0,7.0,40,5,,3.11,29.940945,,,,,,TRUE,,,,-SHRA BR,SCT,3500,BKN,10000,,,,,MVFR,,,,,,,,,,,,METAR,20.0
LTAC 130620Z 36006KT 9999 SCT025 BKN080 01/M02 Q1017 NOSIG,LTAC,2015-02-13T06:20:00Z,40.12,32.97,1.0,-2.0,360,6,,6.21,30.029528,,,,,,TRUE,,,,,SCT,2500,BKN,8000,,,,,VFR,,,,,,,,,,,,METAR,949.0
ENHM 130620Z 16020KT 9999 FEW029 SCT045 BKN052 05/03 Q1006 W07/S4,ENHM,2015-02-13T06:20:00Z,59.57,2.23,5.0,3.0,160,20,,6.21,29.704725,,,,,,,,,,,FEW,2900,SCT,4500,BKN,5200,,,VFR,,,,,,,,,,,,METAR,10.0
ENSN 130620Z VRB02KT 9999 BKN005 M03/M04 Q1014,ENSN,2015-02-13T06:20:00Z,59.17,9.57,-3.0,-4.0,0,2,,6.21,29.940945,,,,,,,,,,,BKN,500,,,,,,,IFR,,,,,,,,,,,,METAR,14.0
EFKT 130620Z AUTO 26009KT 230V300 CAVOK M08/M11 Q1004,EFKT,2015-02-13T06:20:00Z,67.7,24.85,-8.0,-11.0,260,9,,6.21,29.64567,,,TRUE,,,,,,,,CAVOK,,,,,,,,VFR,,,,,,,,,,,,METAR,643.0
EFKS 130620Z AUTO 26010KT 240V310 CAVOK M05/M08 Q1005,EFKS,2015-02-13T06:20:00Z,66.0,29.23,-5.0,-8.0,260,10,,6.21,29.675198,,,TRUE,,,,,,,,CAVOK,,,,,,,,VFR,,,,,,,,,,,,METAR,263.0
EFKI 130620Z AUTO 20006KT 150V250 CAVOK M07/M10 Q1012,EFKI,2015-02-13T06:20:00Z,64.27,27.67,-7.0,-10.0,200,6,,6.21,29.88189,,,TRUE,,,,,,,,CAVOK,,,,,,,,VFR,,,,,,,,,,,,METAR,136.0
EFIV 130620Z 24009KT CAVOK M08/M12 Q1000,EFIV,2015-02-13T06:20:00Z,68.62,27.42,-8.0,-12.0,240,9,,6.21,29.52756,,,,,,,,,,,CAVOK,,,,,,,,VFR,,,,,,,,,,,,METAR,148.0
EFET 130620Z AUTO 24008KT CAVOK M10/M12 Q1002,EFET,2015-02-13T06:20:00Z,68.37,23.43,-10.0,-12.0,240,8,,6.21,29.586615,,,TRUE,,,,,,,,CAVOK,,,,,,,,VFR,,,,,,,,,,,,METAR,306.0
LGBL 130620Z 00000KT 9999 FEW030 00/M05 Q1026,LGBL,2015-02-13T06:20:00Z,39.22,22.8,0.0,-5.0,0,0,,6.21,30.295275,,,,,,,,,,,FEW,3000,,,,,,,VFR,,,,,,,,,,,,METAR,26.0
LGTS 130620Z 11006KT 9999 FEW020 M01/M05 Q1026 NOSIG,LGTS,2015-02-13T06:20:00Z,40.52,22.97,-1.0,-5.0,110,6,,6.21,30.295275,,,,,,TRUE,,,,,FEW,2000,,,,,,,VFR,,,,,,,,,,,,METAR,7.0
LGSM 130620Z 04011KT 9999 FEW025 07/02 Q1018,LGSM,2015-02-13T06:20:00Z,37.68,26.92,7.0,2.0,40,11,,6.21,30.059055,,,,,,,,,,,FEW,2500,,,,,,,VFR,,,,,,,,,,,,METAR,6.0
LGSA 130620Z 01012KT 9999 FEW010 SCT018TCU BKN025 07/06 Q1020,LGSA,2015-02-13T06:20:00Z,35.53,24.13,7.0,6.0,10,12,,6.21,30.11811,,,,,,,,,,,FEW,1000,SCT,1800,BKN,2500,,,MVFR,,,,,,,,,,,,METAR,135.0
LGLM 130620Z 06012G22KT 9999 FEW016 BKN025 06/M01 Q1024,LGLM,2015-02-13T06:20:00Z,39.92,25.23,6.0,-1.0,60,12,22,6.21,30.236221,,,,,,,,,,,FEW,1600,BKN,2500,,,,,MVFR,,,,,,,,,,,,METAR,5.0
LGKO 130620Z 35010KT 9999 SCT020 08/01 Q1016,LGKO,2015-02-13T06:20:00Z,36.8,27.08,8.0,1.0,350,10,,6.21,30.0,,,,,,,,,,,SCT,2000,,,,,,,VFR,,,,,,,,,,,,METAR,125.0
LGKL 130620Z 33005KT CAVOK 02/M03 Q1023,LGKL,2015-02-13T06:20:00Z,37.07,22.02,2.0,-3.0,330,5,,6.21,30.206694,,,,,,,,,,,CAVOK,,,,,,,,VFR,,,,,,,,,,,,METAR,8.0
LGAD 130620Z 00000KT 9999 FEW020 01/M02 Q1023,LGAD,2015-02-13T06:20:00Z,37.92,21.27,1.0,-2.0,0,0,,6.21,30.206694,,,,,,,,,,,FEW,2000,,,,,,,VFR,,,,,,,,,,,,METAR,12.0
LGSR 130620Z 34018G28KT 9999 -RA SCT025 BKN080 08/04 Q1019,LGSR,2015-02-13T06:20:00Z,36.4,25.48,8.0,4.0,340,18,28,6.21,30.088583,,,,,,,,,,-RA,SCT,2500,BKN,8000,,,,,VFR,,,,,,,,,,,,METAR,40.0
LGRX 130620Z 00000KT CAVOK 01/M00 Q1023,LGRX,2015-02-13T06:20:00Z,38.17,21.42,1.0,0.0,0,0,,6.21,30.206694,,,,,,,,,,,CAVOK,,,,,,,,VFR,,,,,,,,,,,,METAR,15.0
LGPZ 130620Z 07007KT CAVOK 04/M01 Q1025,LGPZ,2015-02-13T06:20:00Z,38.92,20.77,4.0,-1.0,70,7,,6.21,30.265747,,,,,,,,,,,CAVOK,,,,,,,,VFR,,,,,,,,,,,,METAR,4.0
LGMT 130620Z /////KT 9999 SCT020 BKN070 06/02 Q1021,LGMT,2015-02-13T06:20:00Z,39.05,26.6,6.0,2.0,,,,6.21,30.147638,,,,,,,,,,,SCT,2000,BKN,7000,,,,,VFR,,,,,,,,,,,,SPECI,17.0
LGKV 130620Z 00000KT 9999 FEW030 M02/M04 Q1025,LGKV,2015-02-13T06:20:00Z,40.92,24.62,-2.0,-4.0,0,0,,6.21,30.265747,,,,,,,,,,,FEW,3000,,,,,,,VFR,,,,,,,,,,,,METAR,5.0
LGIO 130620Z AUTO VRB02KT //// // ////// M04/M06 Q1023 RE//,LGIO,2015-02-13T06:20:00Z,39.7,20.82,-4.0,-6.0,0,2,,,30.206694,,,TRUE,,,,,,,,,,,,,,,,,,,,,,,,,,,,METAR,476.0
LGEL 130620Z 29005KT 9999 FEW020 BKN025 06/M03 Q1023,LGEL,2015-02-13T06:20:00Z,38.07,23.55,6.0,-3.0,290,5,,6.21,30.206694,,,,,,,,,,,FEW,2000,BKN,2500,,,,,MVFR,,,,,,,,,,,,METAR,31.0
LGAL 130620Z 02013KT 9999 SCT035 BKN080 05/M04 Q1024,LGAL,2015-02-13T06:20:00Z,40.85,25.95,5.0,-4.0,20,13,,6.21,30.236221,,,,,,,,,,,SCT,3500,BKN,8000,,,,,VFR,,,,,,,,,,,,METAR,3.0
ETSN 130620Z 08005KT 0600 FZFG VV001 M03/M03 Q1021 BLACKRED,ETSN,2015-02-13T06:20:00Z,48.72,11.22,-3.0,-3.0,80,5,,0.37,30.147638,,,,,,,,,,FZFG,OVX,0,,,,,,,LIFR,,,,,,,,,,,100,METAR,387.0
ETSL 130620Z VRB01KT 0400 FZFG VV000 M07/M08 Q1020 RED,ETSL,2015-02-13T06:20:00Z,48.17,10.87,-7.0,-8.0,0,1,,0.25,30.11811,,,,,,,,,,FZFG,OVX,0,,,,,,,LIFR,,,,,,,,,,,0,METAR,562.0
ETSB 130620Z 14005KT 0100 FZFG VV/ /// /// /// M03/M03 Q1017 RED,ETSB,2015-02-13T06:20:00Z,50.17,7.07,-3.0,-3.0,140,5,,0.06,30.029528,,,,,,,,,,FZFG,,,,,,,,,,,,,,,,,,,,,METAR,486.0
ETNN 130620Z 12004KT 5000 BR FEW240 M00/M01 Q1017 WHT,ETNN,2015-02-13T06:20:00Z,50.82,6.67,0.0,-1.0,120,4,,3.11,30.029528,,,,,,,,,,BR,FEW,24000,,,,,,,MVFR,,,,,,,,,,,,METAR,135.0
ETHN 130620Z 12008KT 0200 FZFG VV000 M03/M03 Q1020 RED RED,ETHN,2015-02-13T06:20:00Z,49.38,9.97,-3.0,-3.0,120,8,,0.12,30.11811,,,,,,,,,,FZFG,OVX,0,,,,,,,LIFR,,,,,,,,,,,0,METAR,473.0
ETHL 130620Z 18003KT 0100 R27/0650N FZFG VV000 M07/M07 Q1020 RED RED,ETHL,2015-02-13T06:20:00Z,48.22,9.92,-7.0,-7.0,180,3,,0.06,30.11811,,,,,,,,,,FZFG,OVX,0,,,,,,,LIFR,,,,,,,,,,,0,METAR,549.0
ETHA 130620Z 24003KT 9999 M07/M08 Q1019 BLACKBLU+BLU+,ETHA,2015-02-13T06:20:00Z,47.82,10.87,-7.0,-8.0,240,3,,6.21,30.088583,,,,,,,,,,,,,,,,,,,,,,,,,,,,,,,METAR,760.0
ETWM 130620Z 16003KT 1400 BR OVC001 M01/M02 Q1017 RED,ETWM,2015-02-13T06:20:00Z,52.72,7.33,-1.0,-2.0,160,3,,0.87,30.029528,,,,,,,,,,BR,OVC,100,,,,,,,LIFR,,,,,,,,,,,,METAR,21.0
ETSH 130620Z 16004KT 5000 BR M04/M05 Q1020 WHT WHT TEMPO YLO,ETSH,2015-02-13T06:20:00Z,51.77,13.17,-4.0,-5.0,160,4,,3.11,30.11811,,,,,,,,,,BR,,,,,,,,,,,,,,,,,,,,,METAR,79.0
ETNW 130620Z 13004KT 3600 BR M02/M02 Q1018 YLO WHT TEMPO YLO,ETNW,2015-02-13T06:20:00Z,52.45,9.42,-2.0,-2.0,130,4,,2.24,30.059055,,,,,,,,,,BR,,,,,,,,,,,,,,,,,,,,,METAR,70.0
ETNT 130620Z 18009KT 2500 BR BKN003 01/00 Q1017 YLO,ETNT,2015-02-13T06:20:00Z,53.53,7.67,1.0,0.0,180,9,,1.55,30.029528,,,,,,,,,,BR,BKN,300,,,,,,,LIFR,,,,,,,,,,,,METAR,12.0
ETNS 130620Z 14007KT 3300 BR OVC003 M00/M01 Q1018 YLO YLO,ETNS,2015-02-13T06:20:00Z,54.47,9.52,0.0,-1.0,140,7,,2.05,30.059055,,,,,,,,,,BR,OVC,300,,,,,,,LIFR,,,,,,,,,,,,METAR,25.0
ETNL 130620Z 18005KT 2000 -FZDZ BR OVC002 M02/M02 Q1020 AMB YLO TEMPO AMB,ETNL,2015-02-13T06:20:00Z,53.92,12.27,-2.0,-2.0,180,5,,1.24,30.11811,,,,,,,,,,-FZDZ BR,OVC,200,,,,,,,LIFR,,,,,,,,,,,,METAR,40.0
ETNH 130620Z 14005KT 3000 BR BKN005 BKN018 M00/M01 Q1018 YLO YLO,ETNH,2015-02-13T06:20:00Z,54.32,9.55,0.0,-1.0,140,5,,1.86,30.059055,,,,,,,,,,BR,BKN,500,BKN,1800,,,,,IFR,,,,,,,,,,,,METAR,17.0
ETML 130620Z AUTO 20003KT //// // ////// M01/M01 Q1019 ///,ETML,2015-02-13T06:20:00Z,,,-1.0,-1.0,200,3,,,30.088583,,,TRUE,,,,,,,,,,,,,,,,,,,,,,,,,,,,METAR,
ETHS 130620Z 19006KT 2000 BR OVC003 M01/M02 Q1019 YLO YLO BECMG GRN,ETHS,2015-02-13T06:20:00Z,52.92,10.18,-1.0,-2.0,190,6,,1.24,30.088583,,,,,,,,,,BR,OVC,300,,,,,,,LIFR,,,,,,,,,,,,METAR,88.0
ETHE 130620Z 12003KT 3500 BR FEW004 M02/M02 Q1017 YLO YLO BECMG GRN,ETHE,2015-02-13T06:20:00Z,52.28,7.37,-2.0,-2.0,120,3,,2.17,30.029528,,,,,,,,,,BR,FEW,400,,,,,,,IFR,,,,,,,,,,,,METAR,49.0
ETHC 130620Z 11005KT 4000 BR FEW009 M01/M02 Q1019 GRN GRN,ETHC,2015-02-13T06:20:00Z,52.6,10.02,-1.0,-2.0,110,5,,2.49,30.088583,,,,,,,,,,BR,FEW,900,,,,,,,IFR,,,,,,,,,,,,METAR,52.0
ETHB 130620Z VRB03KT 5000 BR FEW006 M01/M02 Q1018 WHT WHT TEMPO YLO,ETHB,2015-02-13T06:20:00Z,52.27,9.07,-1.0,-2.0,0,3,,3.11,30.059055,,,,,,,,,,BR,FEW,600,,,,,,,MVFR,,,,,,,,,,,,METAR,78.0
ETGG 130620Z 15008KT 4000 -DZ BR BKN005 OVC011 01/M00 Q1018 YLO,ETGG,2015-02-13T06:20:00Z,54.83,9.5,1.0,0.0,150,8,,2.49,30.059055,,,,,,,,,,-DZ BR,BKN,500,OVC,1100,,,,,IFR,,,,,,,,,,,,METAR,33.0
EFVR 130620Z AUTO 00000KT 8000 SCT001 M14/M15 Q1018,EFVR,2015-02-13T06:20:00Z,62.17,27.87,-14.0,-15.0,0,0,,4.97,30.059055,,,TRUE,,,,,,,,SCT,100,,,,,,,MVFR,,,,,,,,,,,,SPECI,87.0
EFUT 130620Z 15002KT 0400 FZFG VV002 M07/M07 Q1019,EFUT,2015-02-13T06:20:00Z,60.88,26.92,-7.0,-7.0,150,2,,0.25,30.088583,,,,,,,,,,FZFG,OVX,0,,,,,,,LIFR,,,,,,,,,,,200,SPECI,100.0
EFSA 130620Z 21002KT CAVOK M07/M07 Q1018,EFSA,2015-02-13T06:20:00Z,61.95,28.93,-7.0,-7.0,210,2,,6.21,30.059055,,,,,,,,,,,CAVOK,,,,,,,,VFR,,,,,,,,,,,,SPECI,95.0
EFMI 130620Z 00000KT 9999 PRFG FEW200 M13/M14 Q1019,EFMI,2015-02-13T06:20:00Z,61.68,27.2,-13.0,-14.0,0,0,,6.21,30.088583,,,,,,,,,,PRFG,FEW,20000,,,,,,,VFR,,,,,,,,,,,,SPECI,138.0
EFLP 130620Z AUTO 22001KT 0150 R06/M0150V0775N R24/0250VP1500D FZFG BKN001 OVC004 M10/M11 Q1019,EFLP,2015-02-13T06:20:00Z,61.07,28.13,-10.0,-11.0,220,1,,0.09,30.088583,,,TRUE,,,,,,,FZFG,BKN,100,OVC,400,,,,,LIFR,,,,,,,,,,,,METAR,106.0
EFJO 130620Z 20004KT CAVOK M09/M09 Q1017,EFJO,2015-02-13T06:20:00Z,62.67,29.62,-9.0,-9.0,200,4,,6.21,30.029528,,,,,,,,,,,CAVOK,,,,,,,,VFR,,,,,,,,,,,,SPECI,117.0
LGKR 130620Z 00000KT 9999 FEW020 01/00 Q1023 NOSIG,LGKR,2015-02-13T06:20:00Z,39.62,19.92,1.0,0.0,0,0,,6.21,30.206694,,,,,,TRUE,,,,,FEW,2000,,,,,,,VFR,,,,,,,,,,,,METAR,2.0
LGIR 130620Z 36016KT 9999 FEW018TCU BKN025 10/04 Q1019 NOSIG,LGIR,2015-02-13T06:20:00Z,35.32,25.17,10.0,4.0,360,16,,6.21,30.088583,,,,,,TRUE,,,,,FEW,1800,BKN,2500,,,,,MVFR,,,,,,,,,,,,METAR,39.0
LGAV 130620Z 34008KT 9999 FEW020 SCT035 BKN070 07/M01 Q1023 NOSIG,LGAV,2015-02-13T06:20:00Z,37.93,23.95,7.0,-1.0,340,8,,6.21,30.206694,,,,,,TRUE,,,,,FEW,2000,SCT,3500,BKN,7000,,,VFR,,,,,,,,,,,,METAR,94.0
ENZV 130620Z 13007KT 6000 -DZ SCT011 BKN015 03/02 Q1011 TEMPO 4000 -DZ BKN010,ENZV,2015-02-13T06:20:00Z,58.87,5.62,3.0,2.0,130,7,,3.73,29.852362,,,,,,,,,,-DZ,SCT,1100,BKN,1500,,,,,MVFR,,,,,,,,,,,,SPECI,9.0
ENVA 130620Z 13004KT CAVOK M03/M05 Q1012 NOSIG RMK WIND 670FT 10003KT,ENVA,2015-02-13T06:20:00Z,63.47,10.92,-3.0,-5.0,130,4,,6.21,29.88189,,,,,,TRUE,,,,,CAVOK,,,,,,,,VFR,,0.3,,,,,,,,,,SPECI,17.0
ENOL 130620Z 09008KT 9999 FEW020 BKN045 M01/M03 Q1011 NOSIG,ENOL,2015-02-13T06:20:00Z,63.7,9.58,-1.0,-3.0,90,8,,6.21,29.852362,,,,,,TRUE,,,,,FEW,2000,BKN,4500,,,,,VFR,,,,,,,,,,,,METAR,7.0
ENGM 130620Z 00000KT 3000 -SN BR OVC003 M02/M03 Q1014 TEMPO 2000 -SN BR BKN005,ENGM,2015-02-13T06:20:00Z,60.2,11.1,-2.0,-3.0,0,0,,1.86,29.940945,,,,,,,,,,-SN BR,OVC,300,,,,,,,LIFR,,,,,,,,,,,,SPECI,204.0
ENDU 130620Z 27015G25KT 0700 R28///// SHSN BLSN VV003 M06/M09 Q1005 NOSIG,ENDU,2015-02-13T06:20:00Z,69.03,18.55,-6.0,-9.0,270,15,25,0.43,29.675198,,,,,,TRUE,,,,BLSN SHSN,OVX,0,,,,,,,LIFR,,,,,,,,,,,300,SPECI,79.0
ENBO 130620Z 28006KT 250V330 9999 VCSH FEW015 BKN030 M02/M08 Q1010 TEMPO 3000 -SHSN VV012,ENBO,2015-02-13T06:20:00Z,67.27,14.37,-2.0,-8.0,280,6,,6.21,29.822834,,,,,,,,,,VCSH,FEW,1500,BKN,3000,,,,,MVFR,,,,,,,,,,,,SPECI,13.0
ENBR 130620Z 15013KT 9999 FEW015 BKN040 04/M00 Q1010 NOSIG RMK WIND 1200FT 14022KT,ENBR,2015-02-13T06:20:00Z,60.28,5.22,4.0,0.0,150,13,,6.21,29.822834,,,,,,TRUE,,,,,FEW,1500,BKN,4000,,,,,VFR,,,,,,,,,,,,SPECI,50.0
ENAN 130620Z 29020KT 9999 FEW012CB BKN030 M04/M08 Q1006 TEMPO 33025G35KT 0500 +SHSNGS VV003,ENAN,2015-02-13T06:20:00Z,69.28,16.13,-4.0,-8.0,290,20,,6.21,29.704725,,,,,,,,,,,FEW,1200,BKN,3000,,,,,MVFR,,,,,,,,,,,,SPECI,14.0
ENRA 130620Z 18002KT 9999 -SHSN SCT020 BKN025 M04/M05 Q1010,ENRA,2015-02-13T06:20:00Z,66.37,14.3,-4.0,-5.0,180,2,,6.21,29.822834,,,,,,,,,,-SHSN,SCT,2000,BKN,2500,,,,,MVFR,,,,,,,,,,,,METAR,70.0
ENFG 130620Z VRB02KT 2000 BR NSC M07/M08 Q1009,ENFG,2015-02-13T06:20:00Z,61.0,9.3,-7.0,-8.0,0,2,,1.24,29.793306,,,,,,,,,,BR,,,,,,,,,,,,,,,,,,,,,SPECI,822.0
ENBV 130620Z 28044G55KT 0100 +BLSN VV000 M06/M08 Q0992,ENBV,2015-02-13T06:20:00Z,70.87,29.02,-6.0,-8.0,280,44,55,0.06,29.291338,,,,,,,,,,+BLSN,OVX,0,,,,,,,LIFR,,,,,,,,,,,0,METAR,13.0
ENLA 130620Z AUTO 18023KT 9999NDV OVC023/// 05/00 Q1008 W///S4,ENLA,2015-02-13T06:20:00Z,59.1,2.83,5.0,0.0,180,23,,,29.763779,,,TRUE,,,,,,,,,,,,,,,,,,,,,,,,,,,,METAR,4.0
ENQA 130620Z AUTO 16032KT 9999NDV OVC013/// 05/03 Q1008 W04/S5,ENQA,2015-02-13T06:20:00Z,60.65,3.72,5.0,3.0,160,32,,,29.763779,,,TRUE,,,,,,,,,,,,,,,,,,,,,,,,,,,,METAR,20.0
ENQC 130620Z AUTO 15031KT 6000NDV -SHRA BKN012/// 05/03 Q1007 W///S5,ENQC,2015-02-13T06:20:00Z,60.88,3.62,5.0,3.0,150,31,,,29.734253,,,TRUE,,,,,,,-SHRA,,,,,,,,,,,,,,,,,,,,,METAR,20.0
ENSE 130620Z AUTO 17027KT 9999NDV FEW017/// SCT039/// BKN051/// 06/03 Q1005 W///S4,ENSE,2015-02-13T06:20:00Z,61.45,2.15,6.0,3.0,170,27,,,29.675198,,,TRUE,,,,,,,,,,,,,,,,,,,,,,,,,,,,METAR,10.0
ENQR 130620Z AUTO 15024KT 9999NDV SCT014/// BKN028/// BKN048/// 06/03 Q1005 W///S5,ENQR,2015-02-13T06:20:00Z,61.35,2.22,6.0,3.0,150,24,,,29.675198,,,TRUE,,,,,,,,,,,,,,,,,,,,,,,,,,,,METAR,10.0
ENNE 130620Z 23013KT 9999 FEW025 01/M06 Q1011 W///S6,ENNE,2015-02-13T06:20:00Z,66.03,8.08,1.0,-6.0,230,13,,6.21,29.852362,,,,,,,,,,,FEW,2500,,,,,,,VFR,,,,,,,,,,,,METAR,10.0
EDTY 130620Z 10007KT 2200 1000E R28/P2000N BCFG BKN001 BKN003 M03/M03 Q1020,EDTY,2015-02-13T06:20:00Z,49.12,9.78,-3.0,-3.0,100,7,,1.37,30.11811,,,,,,,,,,BCFG,BKN,100,BKN,300,,,,,LIFR,,,,,,,,,,,,SPECI,400.0
EDJA 130620Z 19003KT 9999 NSC M13/M15 Q1019,EDJA,2015-02-13T06:20:00Z,47.98,10.23,-13.0,-15.0,190,3,,6.21,30.088583,,,,,,,,,,,,,,,,,,,,,,,,,,,,,,,SPECI,633.0
EDLV 130620Z 13007KT 4500 BR NSC M00/M00 Q1016,EDLV,2015-02-13T06:20:00Z,51.6,6.15,0.0,0.0,130,7,,2.8,30.0,,,,,,,,,,BR,,,,,,,,,,,,,,,,,,,,,SPECI,32.0
EDFM 130620Z 18004KT 140V220 5000 BR OVC005 M00/M01 Q1021,EDFM,2015-02-13T06:20:00Z,49.47,8.52,0.0,-1.0,180,4,,3.11,30.147638,,,,,,,,,,BR,OVC,500,,,,,,,IFR,,,,,,,,,,,,METAR,100.0
EDFE 130620Z 19003KT 4500 BR BKN004 M01/M02 Q1021,EDFE,2015-02-13T06:20:00Z,49.97,8.63,-1.0,-2.0,190,3,,2.8,30.147638,,,,,,,,,,BR,BKN,400,,,,,,,LIFR,,,,,,,,,,,,METAR,118.0
ENSD 130620Z 00000KT 9999 FEW006 BKN052 03/02 Q1009 RMK WIND 1138FT VRB02KT,ENSD,2015-02-13T06:20:00Z,61.82,6.12,3.0,2.0,0,0,,6.21,29.793306,,,,,,,,,,,FEW,600,BKN,5200,,,,,VFR,,,,,,,,,,,,SPECI,60.0
ENTO 130620Z 20008KT 3900 -DZ BKN005 02/02 Q1015,ENTO,2015-02-13T06:20:00Z,59.2,10.27,2.0,2.0,200,8,,2.42,29.970472,,,,,,,,,,-DZ,BKN,500,,,,,,,IFR,,,,,,,,,,,,METAR,88.0
ENTC 130620Z 28008KT 8000 -SHSN FEW002 SCT010 BKN023 M06/M08 Q1004 TEMPO 0500 SHSNGS VV005 RMK WIND 2600FT 31040G51KT,ENTC,2015-02-13T06:20:00Z,69.68,18.92,-6.0,-8.0,280,8,,4.97,29.64567,,,,,,,,,,-SHSN,FEW,200,SCT,1000,BKN,2300,,,MVFR,,,,,,,,,,,,SPECI,10.0
ENRY 130620Z 17006KT 7000 -DZ BKN008 03/02 Q1015 NOSIG,ENRY,2015-02-13T06:20:00Z,59.37,10.77,3.0,2.0,170,6,,4.35,29.970472,,,,,,TRUE,,,,-DZ,BKN,800,,,,,,,IFR,,,,,,,,,,,,METAR,53.0
ENRO 130620Z VRB01KT CAVOK M06/M07 Q1009,ENRO,2015-02-13T06:20:00Z,62.57,11.33,-6.0,-7.0,0,1,,6.21,29.793306,,,,,,,,,,,CAVOK,,,,,,,,VFR,,,,,,,,,,,,METAR,626.0
ENHD 130620Z 14012KT 9999 SCT016 BKN028 04/02 Q1010,ENHD,2015-02-13T06:20:00Z,59.35,5.22,4.0,2.0,140,12,,6.21,29.822834,,,,,,,,,,,SCT,1600,BKN,2800,,,,,MVFR,,,,,,,,,,,,METAR,24.0
ENCN 130620Z 17008KT 9999 -DZ BKN007 02/01 Q1014,ENCN,2015-02-13T06:20:00Z,58.2,8.07,2.0,1.0,170,8,,6.21,29.940945,,,,,,,,,,-DZ,BKN,700,,,,,,,IFR,,,,,,,,,,,,METAR,17.0
ENAL 130620Z 12003KT 9999 FEW010 BKN035 02/01 Q1009,ENAL,2015-02-13T06:20:00Z,62.57,6.12,2.0,1.0,120,3,,6.21,29.793306,,,,,,,,,,,FEW,1000,BKN,3500,,,,,VFR,,,,,,,,,,,,METAR,22.0
EDGS 130620Z 00000KT 0250 R13/0375N FZFG VV/// M04/M04 Q1017,EDGS,2015-02-13T06:20:00Z,50.7,8.08,-4.0,-4.0,0,0,,0.16,30.029528,,,,,,,,,,FZFG,OVX,0,,,,,,,LIFR,,,,,,,,,,,,METAR,602.0
ENFB 130620Z AUTO 16026KT 9999NDV SCT016/// BKN018/// BKN031/// 06/03 Q1005 W///S4,ENFB,2015-02-13T06:20:00Z,61.2,1.83,6.0,3.0,160,26,,,29.675198,,,TRUE,,,,,,,,,,,,,,,,,,,,,,,,,,,,SPECI,10.0
ENSL 130620Z 16026KT 9999 OVC039 05/01 Q1006 W05/S4,ENSL,2015-02-13T06:20:00Z,58.37,1.9,5.0,1.0,160,26,,6.21,29.704725,,,,,,,,,,,OVC,3900,,,,,,,VFR,,,,,,,,,,,,METAR,50.0
ENHE 130620Z 32004KT 9999 FEW035 SCT055 02/M06 Q1011 W///S5,ENHE,2015-02-13T06:20:00Z,65.33,2.33,2.0,-6.0,320,4,,6.21,29.852362,,,,,,,,,,,FEW,3500,SCT,5500,,,,,VFR,,,,,,,,,,,,SPECI,1.0
ENGC 130620Z 19024KT 9999 -SHRA FEW015 BKN030 05/03 Q1006 W06/S5,ENGC,2015-02-13T06:20:00Z,61.02,2.02,5.0,3.0,190,24,,6.21,29.704725,,,,,,,,,,-SHRA,FEW,1500,BKN,3000,,,,,MVFR,,,,,,,,,,,,SPECI,10.0
ENEK 130620Z 18020KT 9999 BKN020 04/00 Q1009 W07/S4,ENEK,2015-02-13T06:20:00Z,56.53,3.25,4.0,0.0,180,20,,6.21,29.793306,,,,,,,,,,,BKN,2000,,,,,,,MVFR,,,,,,,,,,,,SPECI,3.0
LIRQ 130620Z 00000KT 9999 MIFG FEW060 00/M00 Q1024,LIRQ,2015-02-13T06:20:00Z,43.78,11.18,0.0,0.0,0,0,,6.21,30.236221,,,,,,,,,,MIFG,FEW,6000,,,,,,,VFR,,,,,,,,,,,,METAR,38.0
LIRN 130620Z 34004KT 9999 SCT060 07/04 Q1023,LIRN,2015-02-13T06:20:00Z,40.88,14.3,7.0,4.0,340,4,,6.21,30.206694,,,,,,,,,,,SCT,6000,,,,,,,VFR,,,,,,,,,,,,METAR,72.0
LIRF 130620Z 03004KT 8000 SCT025 06/05 Q1023 NOSIG,LIRF,2015-02-13T06:20:00Z,41.78,12.22,6.0,5.0,30,4,,4.97,30.206694,,,,,,TRUE,,,,,SCT,2500,,,,,,,MVFR,,,,,,,,,,,,METAR,3.0
LIML 130620Z 21003KT 2500 BR FEW015 BKN030 04/03 Q1025 NOSIG,LIML,2015-02-13T06:20:00Z,45.47,9.27,4.0,3.0,210,3,,1.55,30.265747,,,,,,TRUE,,,,BR,FEW,1500,BKN,3000,,,,,IFR,,,,,,,,,,,,METAR,103.0
LIMJ 130620Z 03008KT 360V070 9999 FEW028 SCT040 08/00 Q1023,LIMJ,2015-02-13T06:20:00Z,44.42,8.83,8.0,0.0,30,8,,6.21,30.206694,,,,,,,,,,,FEW,2800,SCT,4000,,,,,VFR,,,,,,,,,,,,METAR,3.0
LIMF 130620Z 30004KT 2500 BR BKN020 04/02 Q1024,LIMF,2015-02-13T06:20:00Z,45.22,7.65,4.0,2.0,300,4,,1.55,30.236221,,,,,,,,,,BR,BKN,2000,,,,,,,IFR,,,,,,,,,,,,METAR,287.0
LIME 130620Z 36003KT 2500 BR SCT030 05/02 Q1024,LIME,2015-02-13T06:20:00Z,45.67,9.68,5.0,2.0,360,3,,1.55,30.236221,,,,,,,,,,BR,SCT,3000,,,,,,,IFR,,,,,,,,,,,,METAR,237.0
LIMC 130620Z 35001KT 2000 BR BKN020 04/03 Q1024 NOSIG,LIMC,2015-02-13T06:20:00Z,45.62,8.72,4.0,3.0,350,1,,1.24,30.236221,,,,,,TRUE,,,,BR,BKN,2000,,,,,,,IFR,,,,,,,,,,,,METAR,211.0
LIEO 130620Z 23005KT CAVOK 02/01 Q1023,LIEO,2015-02-13T06:20:00Z,40.88,9.52,2.0,1.0,230,5,,6.21,30.206694,,,,,,,,,,,CAVOK,,,,,,,,VFR,,,,,,,,,,,,METAR,13.0
LIEE 130620Z 33005KT CAVOK 05/04 Q1022,LIEE,2015-02-13T06:20:00Z,39.25,9.07,5.0,4.0,330,5,,6.21,30.177166,,,,,,,,,,,CAVOK,,,,,,,,VFR,,,,,,,,,,,,METAR,4.0
LIEA 130620Z 36002KT 9999 0600NW MIFG SCT048 04/04 Q1022,LIEA,2015-02-13T06:20:00Z,40.62,8.27,4.0,4.0,360,2,,6.21,30.177166,,,,,,,,,,MIFG,SCT,4800,,,,,,,VFR,,,,,,,,,,,,SPECI,23.0
LIPZ 130620Z 36007KT 9999 BKN035 04/00 Q1025,LIPZ,2015-02-13T06:20:00Z,45.5,12.35,4.0,0.0,360,7,,6.21,30.265747,,,,,,,,,,,BKN,3500,,,,,,,VFR,,,,,,,,,,,,METAR,6.0
LIPQ 130620Z 00000KT 9999 BKN060 BKN090 03/M03 Q1025,LIPQ,2015-02-13T06:20:00Z,45.82,13.47,3.0,-3.0,0,0,,6.21,30.265747,,,,,,,,,,,BKN,6000,BKN,9000,,,,,VFR,,,,,,,,,,,,METAR,12.0
LIPE 130620Z 22004KT 190V250 3000 BR SCT015 02/01 Q1025,LIPE,2015-02-13T06:20:00Z,44.52,11.3,2.0,1.0,220,4,,1.86,30.265747,,,,,,,,,,BR,SCT,1500,,,,,,,IFR,,,,,,,,,,,,METAR,42.0
LICJ 130620Z 15003KT 110V200 9999 SCT050 10/07 Q1022,LICJ,2015-02-13T06:20:00Z,38.17,13.08,10.0,7.0,150,3,,6.21,30.177166,,,,,,,,,,,SCT,5000,,,,,,,VFR,,,,,,,,,,,,METAR,34.0
LICC 130620Z 27003KT 9999 FEW090 03/02 Q1023,LICC,2015-02-13T06:20:00Z,37.47,15.05,3.0,2.0,270,3,,6.21,30.206694,,,,,,,,,,,FEW,9000,,,,,,,VFR,,,,,,,,,,,,METAR,17.0
LIBD 130620Z 24005KT 6000 FEW035 01/M02 Q1025,LIBD,2015-02-13T06:20:00Z,41.12,16.77,1.0,-2.0,240,5,,3.73,30.265747,,,,,,,,,,,FEW,3500,,,,,,,MVFR,,,,,,,,,,,,METAR,44.0
ENNM 130620Z 06010KT 9999 SCT035 M03/M05 Q1013,ENNM,2015-02-13T06:20:00Z,64.47,11.57,-3.0,-5.0,60,10,,6.21,29.911417,,,,,,,,,,,SCT,3500,,,,,,,VFR,,,,,,,,,,,,METAR,2.0
ENHK 130620Z 31033G43KT 9999 VCSH BLSN FEW012 SCT038TCU BKN045 M05/M08 Q1000,ENHK,2015-02-13T06:20:00Z,70.47,22.13,-5.0,-8.0,310,33,43,6.21,29.52756,,,,,,,,,,VCSH BLSN,FEW,1200,SCT,3800,BKN,4500,,,VFR,,,,,,,,,,,,METAR,10.0
ELLX 130620Z VRB03KT 0150 R24/0350V0500N FZFG VV001 M02/M02 Q1017 NOSIG,ELLX,2015-02-13T06:20:00Z,49.63,6.2,-2.0,-2.0,0,3,,0.09,30.029528,,,,,,TRUE,,,,FZFG,OVX,0,,,,,,,LIFR,,,,,,,,,,,100,METAR,379.0
EBOS 130620Z 16008KT 3200 BR NSC 01/00 Q1013 NOSIG,EBOS,2015-02-13T06:20:00Z,51.2,2.87,1.0,0.0,160,8,,1.99,29.911417,,,,,,TRUE,,,,BR,,,,,,,,,,,,,,,,,,,,,SPECI,5.0
EBLG 130620Z 16010KT 7000 NSC 02/M01 Q1016 NOSIG,EBLG,2015-02-13T06:20:00Z,50.63,5.45,2.0,-1.0,160,10,,4.35,30.0,,,,,,TRUE,,,,,,,,,,,,,,,,,,,,,,,,,SPECI,178.0
EBCI 130620Z 16009KT 6000 NSC 01/M01 Q1016 NOSIG,EBCI,2015-02-13T06:20:00Z,50.47,4.45,1.0,-1.0,160,9,,3.73,30.0,,,,,,TRUE,,,,,,,,,,,,,,,,,,,,,,,,,SPECI,192.0
EBBR 130620Z 18009KT 6000 NSC 01/M01 Q1015 NOSIG,EBBR,2015-02-13T06:20:00Z,50.9,4.5,1.0,-1.0,180,9,,3.73,29.970472,,,,,,TRUE,,,,,,,,,,,,,,,,,,,,,,,,,SPECI,58.0
EBAW 130620Z 14005KT 4000 BR NSC 00/M02 Q1015 NOSIG,EBAW,2015-02-13T06:20:00Z,51.2,4.47,0.0,-2.0,140,5,,2.49,29.970472,,,,,,TRUE,,,,BR,,,,,,,,,,,,,,,,,,,,,SPECI,14.0
ENNA 130620Z 28022KT 8000 3000N -SN VV015 M06/M12 Q0999 RMK WIND 1800FT 29039KT,ENNA,2015-02-13T06:20:00Z,70.07,24.97,-6.0,-12.0,280,22,,4.97,29.498032,,,,,,,,,,-SN,OVX,0,,,,,,,LIFR,,,,,,,,,,,1500,SPECI,8.0
ENML 130620Z 09005KT 9999 FEW010 BKN050 01/M00 Q1010,ENML,2015-02-13T06:20:00Z,62.75,7.27,1.0,0.0,90,5,,6.21,29.822834,,,,,,,,,,,FEW,1000,BKN,5000,,,,,VFR,,,,,,,,,,,,METAR,3.0
ENKR 130620Z 29017KT 9999 FEW019 M08/M10 Q0995 RMK WIND 731FT 28029KT,ENKR,2015-02-13T06:20:00Z,69.72,29.88,-8.0,-10.0,290,17,,6.21,29.379921,,,,,,,,,,,FEW,1900,,,,,,,VFR,,,,,,,,,,,,SPECI,91.0
ENKB 130620Z 09004KT 9999 -SHRASN FEW014 SCT023 BKN042 01/M00 Q1010,ENKB,2015-02-13T06:20:00Z,63.12,7.82,1.0,0.0,90,4,,6.21,29.822834,,,,,,,,,,-SHRA -SHSN,FEW,1400,SCT,2300,BKN,4200,,,VFR,,,,,,,,,,,,METAR,62.0
ENFL 130620Z 12008KT 9999 FEW022 BKN040 05/02 Q1009,ENFL,2015-02-13T06:20:00Z,61.57,5.02,5.0,2.0,120,8,,6.21,29.793306,,,,,,,,,,,FEW,2200,BKN,4000,,,,,VFR,,,,,,,,,,,,METAR,9.0
ENEV 130620Z 25009KT 210V270 9999 FEW015 SCT034 M05/M09 Q1008 RMK WIND 1400FT 25014KT,ENEV,2015-02-13T06:20:00Z,68.52,16.67,-5.0,-9.0,250,9,,6.21,29.763779,,,,,,,,,,,FEW,1500,SCT,3400,,,,,VFR,,,,,,,,,,,,SPECI,26.0
ENST 130620Z 26010KT 200V320 9999 FEW020 SCT040 02/M04 Q1010 RMK WIND 300FT 27017KT,ENST,2015-02-13T06:20:00Z,65.97,12.47,2.0,-4.0,260,10,,6.21,29.822834,,,,,,,,,,,FEW,2000,SCT,4000,,,,,VFR,,,,,,,,,,,,SPECI,17.0
ENRS 130620Z 30007KT 8000 -SHSN OVC023 M04/M08 Q1010,ENRS,2015-02-13T06:20:00Z,67.52,12.08,-4.0,-8.0,300,7,,4.97,29.822834,,,,,,,,,,-SHSN,OVC,2300,,,,,,,MVFR,,,,,,,,,,,,METAR,4.0
ENMS 130620Z 15004KT 9999 SCT020 BKN040 M02/M03 Q1010 RMK WIND 412FT VRB04KT,ENMS,2015-02-13T06:20:00Z,65.78,13.22,-2.0,-3.0,150,4,,6.21,29.822834,,,,,,,,,,,SCT,2000,BKN,4000,,,,,VFR,,,,,,,,,,,,SPECI,70.0
LOXZ 130620Z 16004KT 10KM FEW008ST OVC015ST M01/M04 Q1023 NOSIG RMK OVC,LOXZ,2015-02-13T06:20:00Z,47.2,14.75,-1.0,-4.0,160,4,,6.21,30.206694,,,,,,TRUE,,,,,,,,,,,,,,,,,,,,,,,,,SPECI,682.0
LOWK 130620Z VRB01KT 9999 OVC014 01/M02 Q1024 R10L/19//95 BECMG OVC015,LOWK,2015-02-13T06:20:00Z,46.65,14.32,1.0,-2.0,0,1,,6.21,30.236221,,,,,,,,,,,OVC,1400,,,,,,,MVFR,,,,,,,,,,,,SPECI,441.0
LOWG 130620Z VRB01KT 0250 R17/0250N R35/0225N FZFG VV001 M03/M03 Q1024 R17/19//95 TEMPO VV002,LOWG,2015-02-13T06:20:00Z,47.0,15.42,-3.0,-3.0,0,1,,0.16,30.236221,,,,,,,,,,FZFG,OVX,0,,,,,,,LIFR,,,,,,,,,,,100,SPECI,347.0
LOWI 130620Z VRB01KT 9999 MIFG SKC M07/M08 Q1022 R08/19//94 NOSIG,LOWI,2015-02-13T06:20:00Z,47.27,11.33,-7.0,-8.0,0,1,,6.21,30.177166,,,,,,TRUE,,,,MIFG,SKC,,,,,,,,VFR,,,,,,,,,,,,SPECI,581.0
LOWS 130620Z VRB01KT 0300 R15/0450N R33/0350N FZFG VV002 M05/M05 Q1021 NOSIG,LOWS,2015-02-13T06:20:00Z,47.78,13.02,-5.0,-5.0,0,1,,0.19,30.147638,,,,,,TRUE,,,,FZFG,OVX,0,,,,,,,LIFR,,,,,,,,,,,200,SPECI,450.0
LOWL 130620Z 09004KT 5000 BR FEW005 OVC007 M01/M02 Q1023 TEMPO 4000,LOWL,2015-02-13T06:20:00Z,48.22,14.18,-1.0,-2.0,90,4,,3.11,30.206694,,,,,,,,,,BR,FEW,500,OVC,700,,,,,IFR,,,,,,,,,,,,SPECI,313.0
LOWW 130620Z 13012KT 8000 SKC M01/M03 Q1024 NOSIG,LOWW,2015-02-13T06:20:00Z,48.12,16.57,-1.0,-3.0,130,12,,4.97,30.236221,,,,,,TRUE,,,,,SKC,,,,,,,,MVFR,,,,,,,,,,,,METAR,190.0
EFSI 130620Z 19005KT 130V240 CAVOK M04/M05 Q1016,EFSI,2015-02-13T06:20:00Z,62.7,22.83,-4.0,-5.0,190,5,,6.21,30.0,,,,,,,,,,,CAVOK,,,,,,,,VFR,,,,,,,,,,,,METAR,91.0
EFPO 130620Z AUTO 15003KT CAVOK M06/M07 Q1018 R12/35//95,EFPO,2015-02-13T06:20:00Z,61.47,21.8,-6.0,-7.0,150,3,,6.21,30.059055,,,TRUE,,,,,,,,CAVOK,,,,,,,,VFR,,,,,,,,,,,,SPECI,17.0
EFMA 130620Z 00000KT 6000 BR FEW005 M04/M04 Q1018,EFMA,2015-02-13T06:20:00Z,60.12,19.88,-4.0,-4.0,0,0,,3.73,30.059055,,,,,,,,,,BR,FEW,500,,,,,,,MVFR,,,,,,,,,,,,METAR,6.0
EFKK 130620Z 17003KT CAVOK M06/M07 Q1015,EFKK,2015-02-13T06:20:00Z,63.72,23.13,-6.0,-7.0,170,3,,6.21,29.970472,,,,,,,,,,,CAVOK,,,,,,,,VFR,,,,,,,,,,,,METAR,25.0
EFHF 130620Z 17005KT 130V200 9999 BKN015 01/00 Q1019,EFHF,2015-02-13T06:20:00Z,60.25,25.05,1.0,0.0,170,5,,6.21,30.088583,,,,,,,,,,,BKN,1500,,,,,,,MVFR,,,,,,,,,,,,METAR,28.0
EFHA 130620Z 15006KT 9999 BCFG M09/M10 Q1018,EFHA,2015-02-13T06:20:00Z,61.85,24.8,-9.0,-10.0,150,6,,6.21,30.059055,,,,,,,,,,BCFG,,,,,,,,,,,,,,,,,,,,,METAR,145.0
PMDY 130620Z AUTO 04007KT 10SM FEW026 16/16 A2970 RMK AO2 TSNO $,PMDY,2015-02-13T06:20:00Z,28.22,-177.37,16.0,16.0,40,7,,10.0,29.698818,,,TRUE,TRUE,TRUE,,TRUE,,,,FEW,2600,,,,,,,VFR,,,,,,,,,,,,SPECI,4.0
PAKV 130620Z AUTO 05006KT 4SM HZ OVC045 M11/M14 A2981 RMK AO1 T11061139 FZRANO TSNO,PAKV,2015-02-13T06:20:00Z,64.33,-158.75,-10.6,-13.9,50,6,,4.0,29.811024,,,TRUE,TRUE,,,TRUE,TRUE,,HZ,OVC,4500,,,,,,,MVFR,,,,,,,,,,,,SPECI,61.0
EGUN 130620Z AUTO 15012KT 8000 BR SCT042 BKN100 04/03 A2976 RMK AO2 CIG 042 RWY29,EGUN,2015-02-13T06:20:00Z,52.37,0.47,4.0,3.0,150,12,,4.97,29.760826,,,TRUE,TRUE,,,,,,BR,SCT,4200,BKN,10000,,,,,MVFR,,,,,,,,,,,,SPECI,10.0
KMVL 130620Z AUTO 31012G17KT 3SM -SN OVC018 M17/M22 A2989 RMK AO2 P0000 T11721222 TSNO,KMVL,2015-02-13T06:20:00Z,44.53,-72.62,-17.2,-22.2,310,12,17,3.0,29.890747,,,TRUE,TRUE,,,TRUE,,,-SN,OVC,1800,,,,,,,MVFR,,,,,,0.0050,,,,,,SPECI,234.0
SBKG 130620Z 10006KT 9999 SCT010 22/21 Q1015,SBKG,2015-02-13T06:20:00Z,-7.27,-35.87,22.0,21.0,100,6,,6.21,29.970472,,,,,,,,,,,SCT,1000,,,,,,,VFR,,,,,,,,,,,,METAR,560.0
EFKE 130620Z AUTO 27005KT 220V320 CAVOK M03/M07 Q1010,EFKE,2015-02-13T06:20:00Z,65.77,24.57,-3.0,-7.0,270,5,,6.21,29.822834,,,TRUE,,,,,,,,CAVOK,,,,,,,,VFR,,,,,,,,,,,,METAR,15.0
KLVN 130619Z AUTO 18003KT 10SM CLR M16/M18 A3023 RMK AO2,KLVN,2015-02-13T06:19:00Z,44.63,-93.23,-16.0,-18.0,180,3,,10.0,30.230314,,,TRUE,TRUE,,,,,,,CLR,,,,,,,,VFR,,,,,,,,,,,,METAR,293.0
KQAJ 130619Z 34007KT 3200 HZ SCT100 BKN250 14/02 A3012 RMK SLP199,KQAJ,2015-02-13T06:19:00Z,100.65,-1000.65,14.0,2.0,340,7,,1.99,30.121063,1019.9,,,,,,,,,HZ,SCT,10000,BKN,25000,,,,,IFR,,,,,,,,,,,,SPECI,999.0
ETAR 130619Z AUTO 09002KT 6000 BR OVC003 M01/M02 A3011 RMK AO2,ETAR,2015-02-13T06:19:00Z,49.42,7.58,-1.0,-2.0,90,2,,3.73,30.109253,,,TRUE,TRUE,,,,,,BR,OVC,300,,,,,,,LIFR,,,,,,,,,,,,SPECI,238.0
KELM 130619Z AUTO VRB06KT 5SM HZ BKN032 OVC038 M17/M21 A3009 RMK AO2 T11671206,KELM,2015-02-13T06:19:00Z,42.15,-76.9,-16.7,-20.6,0,6,,5.0,30.088583,,,TRUE,TRUE,,,,,,HZ,BKN,3200,OVC,3800,,,,,MVFR,,,,,,,,,,,,METAR,302.0
CYLH 130618Z AUTO 19005KT 5SM -SN SCT048 BKN070 OVC090 M22/M25 A3003 RMK SLP203,CYLH,2015-02-13T06:18:00Z,52.2,-87.93,-22.0,-25.0,190,5,,5.0,30.029528,1020.3,,TRUE,,,,,,,-SN,SCT,4800,BKN,7000,OVC,9000,,,MVFR,,,,,,,,,,,,SPECI,254.0
CYPX 130618Z AUTO 07007KT 6SM HZ CLR M40/M44 A3031 RMK SLP270,CYPX,2015-02-13T06:18:00Z,60.03,-77.27,-40.0,-44.0,70,7,,6.0,30.31004,1027.0,,TRUE,,,,,,,HZ,CLR,,,,,,,,VFR,,,,,,,,,,,,SPECI,23.0
KIAG 130618Z AUTO 32013KT 5SM -SN BKN026 OVC032 M15/M19 A3022 RMK AO2 P0000 T11501189,KIAG,2015-02-13T06:18:00Z,43.12,-78.93,-15.0,-18.9,320,13,,5.0,30.221457,,,TRUE,TRUE,,,,,,-SN,BKN,2600,OVC,3200,,,,,MVFR,,,,,,0.0050,,,,,,METAR,182.0
PAOH 130618Z AUTO 09006KT 10SM FEW010 BKN017 OVC030 05/05 A2970 RMK AO2 TSNO BKN V SCT $,PAOH,2015-02-13T06:18:00Z,58.1,-135.45,5.0,5.0,90,6,,10.0,29.698818,,,TRUE,TRUE,TRUE,,TRUE,,,,FEW,1000,BKN,1700,OVC,3000,,,MVFR,,,,,,,,,,,,METAR,9.0
CZSJ 130617Z AUTO 25003KT 200V270 7SM -SN OVC065 M18/M20 A2991 RMK SLP164,CZSJ,2015-02-13T06:17:00Z,53.07,-93.35,-18.0,-20.0,250,3,,7.0,29.911417,1016.4,,TRUE,,,,,,,-SN,OVC,6500,,,,,,,VFR,,,,,,,,,,,,SPECI,290.0
ETAD 130617Z 00000KT M0400 R23/0500 FZFG VV002 M03/M03 A3007 RMK AO2A $,ETAD,2015-02-13T06:17:00Z,49.98,6.7,-3.0,-3.0,0,0,,0.25,30.070866,,,,TRUE,TRUE,,,,,FZFG,OVX,0,,,,,,,LIFR,,,,,,,,,,,200,SPECI,365.0
KGTB 130617Z AUTO 32007KT 10SM SCT018 M22/M25 A3007 RMK AO2 SNB0559E0613,KGTB,2015-02-13T06:17:00Z,44.07,-75.72,-22.0,-25.0,320,7,,10.0,30.070866,,,TRUE,TRUE,,,,,,,SCT,1800,,,,,,,VFR,,,,,,,,,,,,SPECI,207.0
PAPG 130616Z 13004KT 10SM SCT029 BKN040 OVC055 10/05 A2977 RMK AO1 -RA,PAPG,2015-02-13T06:16:00Z,56.82,-132.97,10.0,5.0,130,4,,10.0,29.769686,,,,TRUE,,,,,,,SCT,2900,BKN,4000,OVC,5500,,,VFR,,,,,,,,,,,,SPECI,15.0
CYYG 130616Z 20005KT 12SM -SHSN SCT008 OVC022 M11/M12 A2954 RMK SF3SC5 PRESRR SLP007,CYYG,2015-02-13T06:16:00Z,46.27,-63.12,-11.0,-12.0,200,5,,12.0,29.53937,1000.7,,,,,,,,,-SHSN,SCT,800,OVC,2200,,,,,MVFR,,,,,,,,,,,,SPECI,54.0
CYZY 130616Z AUTO 15006KT 9SM OVC014 03/03 A3003 RMK SLP198,CYZY,2015-02-13T06:16:00Z,55.28,-123.12,3.0,3.0,150,6,,9.0,30.029528,1019.8,,TRUE,,,,,,,,OVC,1400,,,,,,,MVFR,,,,,,,,,,,,SPECI,690.0
CYHK 130616Z AUTO 34013KT 6SM HZ CLR M39/M43 A3041 RMK SLP309,CYHK,2015-02-13T06:16:00Z,68.62,-95.83,-39.0,-43.0,340,13,,6.0,30.410433,1030.9,,TRUE,,,,,,,HZ,CLR,,,,,,,,VFR,,,,,,,,,,,,SPECI,46.0
FABL 130616Z 01007KT 320V040 9999 FEW060TCU 24/13 Q1017 NOSIG,FABL,2015-02-13T06:16:00Z,-29.1,26.3,24.0,13.0,10,7,,6.21,30.029528,,,,,,TRUE,,,,,FEW,6000,,,,,,,VFR,,,,,,,,,,,,SPECI,1348.0
CWZZ 130615Z AUTO 04022KT M30/ A2987,CWZZ,2015-02-13T06:15:00Z,58.32,-62.57,-30.0,,40,22,,,29.870079,,,TRUE,,,,,,,,,,,,,,,,,,,,,,,,,,,,SPECI,483.0
LHUD 130615Z 02002KT 3000 MIFG M04/M05 Q1028,LHUD,2015-02-13T06:15:00Z,46.25,20.1,-4.0,-5.0,20,2,,1.86,30.35433,,,,,,,,,,MIFG,,,,,,,,,,,,,,,,,,,,,METAR,84.0
LHSM 130615Z 10001KT 0800 FZFG M04/M05 Q1027,LHSM,2015-02-13T06:15:00Z,46.68,17.17,-4.0,-5.0,100,1,,0.5,30.324802,,,,,,,,,,FZFG,,,,,,,,,,,,,,,,,,,,,METAR,125.0
LHPR 130615Z 15006KT 4000 BR NSC M03/M04 Q1027,LHPR,2015-02-13T06:15:00Z,47.63,17.82,-3.0,-4.0,150,6,,2.49,30.324802,,,,,,,,,,BR,,,,,,,,,,,,,,,,,,,,,METAR,129.0
LHPP 130615Z 00000KT CAVOK M03/M04 Q1027,LHPP,2015-02-13T06:15:00Z,45.98,18.23,-3.0,-4.0,0,0,,6.21,30.324802,,,,,,,,,,,CAVOK,,,,,,,,VFR,,,,,,,,,,,,METAR,305.0
LHPA 130615Z 15002MPS 8000 NSC M02/M05 Q1026 NOSIG RMK BLU,LHPA,2015-02-13T06:15:00Z,47.35,17.5,-2.0,-5.0,150,4,,4.97,30.295275,,,,,,TRUE,,,,,,,,,,,,,,,,,,,,,,,,,METAR,148.0
LHDC 130615Z 06003KT 4000 BR M05/M07 Q1028,LHDC,2015-02-13T06:15:00Z,47.47,21.62,-5.0,-7.0,60,3,,2.49,30.35433,,,,,,,,,,BR,,,,,,,,,,,,,,,,,,,,,METAR,112.0
KFYG 130615Z AUTO 12003KT 10SM BKN080 OVC110 M07/M13 A3043 RMK AO2,KFYG,2015-02-13T06:15:00Z,38.58,-91.0,-7.0,-13.0,120,3,,10.0,30.431103,,,TRUE,TRUE,,,,,,,BKN,8000,OVC,11000,,,,,VFR,,,,,,,,,,,,SPECI,149.0
LIRP 130615Z 12006KT 9999 FEW030 SCT040 05/04 Q1023 NOSIG,LIRP,2015-02-13T06:15:00Z,43.67,10.37,5.0,4.0,120,6,,6.21,30.206694,,,,,,TRUE,,,,,FEW,3000,SCT,4000,,,,,VFR,,,,,,,,,,,,METAR,2.0
LIRA 130615Z 09002KT 9999 SCT016 SCT025 07/06 Q1022,LIRA,2015-02-13T06:15:00Z,41.8,12.58,7.0,6.0,90,2,,6.21,30.177166,,,,,,,,,,,SCT,1600,SCT,2500,,,,,VFR,,,,,,,,,,,,METAR,101.0
LIPX 130615Z 19001KT 2000 BR FEW035 BKN050 05/04 Q1025,LIPX,2015-02-13T06:15:00Z,45.38,10.87,5.0,4.0,190,1,,1.24,30.265747,,,,,,,,,,BR,FEW,3500,BKN,5000,,,,,IFR,,,,,,,,,,,,METAR,68.0
LIPR 130615Z 21002KT 1200 R31/P1500D BR NSC 01/01 Q1024,LIPR,2015-02-13T06:15:00Z,44.02,12.62,1.0,1.0,210,2,,0.75,30.236221,,,,,,,,,,BR,,,,,,,,,,,,,,,,,,,,,SPECI,13.0
LIPH 130615Z /////KT 9999 BKN035 04/01 Q1025,LIPH,2015-02-13T06:15:00Z,45.63,12.17,4.0,1.0,,,,6.21,30.265747,,,,,,,,,,,BKN,3500,,,,,,,VFR,,,,,,,,,,,,SPECI,23.0
LIBR 130615Z 26003KT 9999 FEW020 01/M03 Q1024 NOSIG,LIBR,2015-02-13T06:15:00Z,40.65,17.95,1.0,-3.0,260,3,,6.21,30.236221,,,,,,TRUE,,,,,FEW,2000,,,,,,,VFR,,,,,,,,,,,,METAR,10.0
DABT 130615Z 00000KT 6000 FEW023 BKN100 05/03 Q1020,DABT,2015-02-13T06:15:00Z,35.75,6.32,5.0,3.0,0,0,,3.73,30.11811,,,,,,,,,,,FEW,2300,BKN,10000,,,,,MVFR,,,,,,,,,,,,SPECI,1052.0
KHFF 130615Z AUTO 33004KT 10SM CLR M02/M11 A3022 RMK AO2 PRESRR,KHFF,2015-02-13T06:15:00Z,35.02,-79.5,-2.0,-11.0,330,4,,10.0,30.221457,,,TRUE,TRUE,,,,,,,CLR,,,,,,,,VFR,,,,,,,,,,,,SPECI,115.0
KORH 130614Z AUTO 29011G26KT 9SM FEW022 SCT027 M11/M17 A2969 RMK AO2 PK WND 28028/0559 UPB0559E07 P0000 T11061167,KORH,2015-02-13T06:14:00Z,42.27,-71.87,-10.6,-16.7,290,11,26,9.0,29.68996,,,TRUE,TRUE,,,,,,,FEW,2200,SCT,2700,,,,,VFR,,,,,,0.0050,,,,,,SPECI,304.0
CYRQ 130614Z AUTO 34006KT 300V360 9SM FEW028 BKN038 OVC048 M19/M24 A2991 RMK SLP134,CYRQ,2015-02-13T06:14:00Z,46.35,-72.68,-19.0,-24.0,340,6,,9.0,29.911417,1013.4,,TRUE,,,,,,,,FEW,2800,BKN,3800,OVC,4800,,,VFR,,,,,,,,,,,,SPECI,61.0
CYIO 130614Z AUTO 15011KT 8SM CLR M39/M43 A3018 RMK SLP235,CYIO,2015-02-13T06:14:00Z,72.67,-77.97,-39.0,-43.0,150,11,,8.0,30.180119,1023.5,,TRUE,,,,,,,,CLR,,,,,,,,VFR,,,,,,,,,,,,SPECI,57.0
CYQH 130614Z 30002KT 10SM -SN OVC025 M12/M14 A2992 RMK SC8 SLP192,CYQH,2015-02-13T06:14:00Z,60.12,-128.82,-12.0,-14.0,300,2,,10.0,29.920275,1019.2,,,,,,,,,-SN,OVC,2500,,,,,,,MVFR,,,,,,,,,,,,SPECI,690.0
CZCP 130613Z AUTO 10015KT 9SM CLR M32/ A3049 RMK ICG PAST HR,CZCP,2015-02-13T06:13:00Z,70.17,-124.72,-32.0,,100,15,,9.0,30.490158,,,TRUE,,,,,,,,CLR,,,,,,,,VFR,,,,,,,,,,,,SPECI,93.0
KSKF 130613Z AUTO 03006KT 10SM FEW050 SCT065 11/02 A3034 RMK AO2 $,KSKF,2015-02-13T06:13:00Z,29.37,-98.57,11.0,2.0,30,6,,10.0,30.339567,,,TRUE,TRUE,TRUE,,,,,,FEW,5000,SCT,6500,,,,,VFR,,,,,,,,,,,,SPECI,210.0
KACK 130613Z AUTO 32022G33KT 7SM -SN FEW014 SCT020 OVC033 M03/M08 A2965 RMK AO2 PK WND 32033/0605 P0000 T10331078,KACK,2015-02-13T06:13:00Z,41.25,-70.07,-3.3,-7.8,320,22,33,7.0,29.648623,,,TRUE,TRUE,,,,,,-SN,FEW,1400,SCT,2000,OVC,3300,,,VFR,,,,,,0.0050,,,,,,METAR,16.0
KCLM 130613Z AUTO 10006KT 3SM BR OVC002 09/08 A3026 RMK AO2 T00940083 $,KCLM,2015-02-13T06:13:00Z,48.12,-123.5,9.4,8.3,100,6,,3.0,30.259842,,,TRUE,TRUE,TRUE,,,,,BR,OVC,200,,,,,,,LIFR,,,,,,,,,,,,METAR,85.0
YPXM 130612Z AUTO 30009KT 9999 // BKN011 26/24 Q1008,YPXM,2015-02-13T06:12:00Z,-10.45,105.67,26.0,24.0,300,9,,6.21,29.763779,,,TRUE,,,,,,,,BKN,1100,,,,,,,MVFR,,,,,,,,,,,,SPECI,259.0
CYSJ 130612Z 36005KT 5SM -SN BKN009 BKN077 OVC090 M14/M16 A2960 RMK SF6AC1AC1 PRESRR SLP031,CYSJ,2015-02-13T06:12:00Z,45.32,-65.87,-14.0,-16.0,360,5,,5.0,29.601377,1003.1,,,,,,,,,-SN,BKN,900,BKN,7700,OVC,9000,,,IFR,,,,,,,,,,,,SPECI,109.0
RJOE 130611Z 32019G34KT 9999 -SHSN FEW020 BKN040 BKN080 02/M03 Q1009 RMK 2CU020 5SC040 5AC080 A2981,RJOE,2015-02-13T06:11:00Z,34.52,136.67,2.0,-3.0,320,19,34,6.21,29.793306,,,,,,,,,,-SHSN,FEW,2000,BKN,4000,BKN,8000,,,VFR,,,,,,,,,,,,METAR,9.0
PAOO 130611Z AUTO 34008KT 10SM OVC013 M04/M07 A2953 RMK AO2 TSNO $,PAOO,2015-02-13T06:11:00Z,60.53,-165.12,-4.0,-7.0,340,8,,10.0,29.530512,,,TRUE,TRUE,TRUE,,TRUE,,,,OVC,1300,,,,,,,MVFR,,,,,,,,,,,,METAR,18.0
VCBI 130610Z 27007KT 240V330 9999 SCT016 30/23 Q1012 NOSIG,VCBI,2015-02-13T06:10:00Z,7.17,79.87,30.0,23.0,270,7,,6.21,29.88189,,,,,,TRUE,,,,,SCT,1600,,,,,,,VFR,,,,,,,,,,,,METAR,8.0
VCRI 130610Z 01006KT 320V070 9999 FEW016 SCT080 31/22 Q1012 NOSIG,VCRI,2015-02-13T06:10:00Z,6.28,81.13,31.0,22.0,10,6,,6.21,29.88189,,,,,,TRUE,,,,,FEW,1600,SCT,8000,,,,,VFR,,,,,,,,,,,,METAR,7.0
CBBC 130610Z AUTO 12005KT 100V180 9SM BKN026 OVC030 10/09 A3006 RMK SLP181,CBBC,2015-02-13T06:10:00Z,52.18,-128.15,10.0,9.0,120,5,,9.0,30.059055,1018.1,,TRUE,,,,,,,,BKN,2600,OVC,3000,,,,,MVFR,,,,,,,,,,,,SPECI,43.0
FJDG 130610Z 28007KT 8000 -SHRA SCT020 BKN050 OVC080 28/26 A2993 RMK SLP132,FJDG,2015-02-13T06:10:00Z,-7.32,72.42,28.0,26.0,280,7,,4.97,29.929134,1013.2,,,,,,,,,-SHRA,SCT,2000,BKN,5000,OVC,8000,,,MVFR,,,,,,,,,,,,METAR,3.0
KINL 130610Z AUTO 21006KT 10SM SCT029 OVC039 M14/M21 A3006 RMK AO2 T11441206,KINL,2015-02-13T06:10:00Z,48.57,-93.4,-14.4,-20.6,210,6,,10.0,30.059055,,,TRUE,TRUE,,,,,,,SCT,2900,OVC,3900,,,,,VFR,,,,,,,,,,,,METAR,360.0
VOTV 130610Z 27006KT 6000 SCT015 31/26 Q1013 NOSIG,VOTV,2015-02-13T06:10:00Z,8.47,76.95,31.0,26.0,270,6,,3.73,29.911417,,,,,,TRUE,,,,,SCT,1500,,,,,,,MVFR,,,,,,,,,,,,METAR,8.0
VOTR 130610Z 04005KT 5000 HZ SCT018 30/21 Q1014 NOSIG,VOTR,2015-02-13T06:10:00Z,10.77,78.72,30.0,21.0,40,5,,3.11,29.940945,,,,,,TRUE,,,,HZ,SCT,1800,,,,,,,MVFR,,,,,,,,,,,,METAR,88.0
VOMM 130610Z VRB02KT 5000 HZ SCT020 31/21 Q1013 NOSIG,VOMM,2015-02-13T06:10:00Z,13.0,80.17,31.0,21.0,0,2,,3.11,29.911417,,,,,,TRUE,,,,HZ,SCT,2000,,,,,,,MVFR,,,,,,,,,,,,METAR,16.0
VOHS 130610Z VRB05KT 5000 HZ NSC 31/09 Q1017 BECMG 6KM,VOHS,2015-02-13T06:10:00Z,17.23,78.43,31.0,9.0,0,5,,3.11,30.029528,,,,,,,,,,HZ,,,,,,,,,,,,,,,,,,,,,METAR,1.0
VANP 130610Z 33003KT 4000 HZ NSC 27/21 Q1016 NOSIG,VANP,2015-02-13T06:10:00Z,21.08,79.05,27.0,21.0,330,3,,2.49,30.0,,,,,,TRUE,,,,HZ,,,,,,,,,,,,,,,,,,,,,SPECI,310.0
VAAH 130610Z 14005KT 5000 FU NSC 28/07 Q1016 NOSIG,VAAH,2015-02-13T06:10:00Z,23.07,72.62,28.0,7.0,140,5,,3.11,30.0,,,,,,TRUE,,,,FU,,,,,,,,,,,,,,,,,,,,,SPECI,55.0
K8S0 130610Z 25004KT ,K8S0,2015-02-13T06:10:00Z,48.6,-113.12,,,250,4,,,,,,,,,,,,,,,,,,,,,,,,,,,,,,,,,,METAR,1419.0
ENDR 130610Z 10005KT 9999 FEW020 SCT120 04/00 Q1010,ENDR,2015-02-13T06:10:00Z,64.35,7.8,4.0,0.0,100,5,,6.21,29.822834,,,,,,,,,,,FEW,2000,SCT,12000,,,,,VFR,,,,,,,,,,,,METAR,50.0
KEUG 130609Z 29003KT 1/8SM R16R/1400V2400FT FG VV002 06/05 A3026 RMK AO2 T00560050,KEUG,2015-02-13T06:09:00Z,44.13,-123.22,5.6,5.0,290,3,,0.13,30.259842,,,,TRUE,,,,,,FG,OVX,0,,,,,,,LIFR,,,,,,,,,,,200,SPECI,114.0
CYVV 130608Z 00000KT 6SM -SN SCT024 M22/M24 A3026 RMK SC4 SLP271,CYVV,2015-02-13T06:08:00Z,44.75,-81.08,-22.0,-24.0,0,0,,6.0,30.259842,1027.1,,,,,,,,,-SN,SCT,2400,,,,,,,VFR,,,,,,,,,,,,SPECI,222.0
CYVO 130608Z AUTO 32007KT 9SM CLR M31/M34 A3010 RMK SLP240,CYVO,2015-02-13T06:08:00Z,48.07,-77.77,-31.0,-34.0,320,7,,9.0,30.100393,1024.0,,TRUE,,,,,,,,CLR,,,,,,,,VFR,,,,,,,,,,,,SPECI,337.0
LTAW 130608Z 04002KT 9999 SCT033 BKN100 06/01 Q1018 RMK RWY22 22006KT 190V250,LTAW,2015-02-13T06:08:00Z,40.28,36.37,6.0,1.0,40,2,,6.21,30.059055,,,,,,,,,,,SCT,3300,BKN,10000,,,,,VFR,,,,,,,,,,,,SPECI,608.0
PAPM 130608Z AUTO 11003KT 10SM BKN019 OVC037 02/00 A2951 RMK AO2 TSNO OVC V BKN $,PAPM,2015-02-13T06:08:00Z,59.02,-161.82,2.0,0.0,110,3,,10.0,29.509842,,,TRUE,TRUE,TRUE,,TRUE,,,,BKN,1900,OVC,3700,,,,,MVFR,,,,,,,,,,,,SPECI,5.0
KFZY 130608Z AUTO 31012KT 1 1/4SM -SN OVC015 M17/M20 A3011 RMK AO2 P0000 T11671200 $,KFZY,2015-02-13T06:08:00Z,43.35,-76.38,-16.7,-20.0,310,12,,1.25,30.109253,,,TRUE,TRUE,TRUE,,,,,-SN,OVC,1500,,,,,,,IFR,,,,,,0.0050,,,,,,SPECI,138.0
RJSS 130608Z 27020G30KT 9999 -SHSN FEW020 SCT030 BKN040 03/M09 Q1001 RMK 1CU020 3CU030 5CU040 A2958,RJSS,2015-02-13T06:08:00Z,38.12,140.92,3.0,-9.0,270,20,30,6.21,29.557087,,,,,,,,,,-SHSN,FEW,2000,SCT,3000,BKN,4000,,,VFR,,,,,,,,,,,,METAR,5.0
CYZH 130607Z AUTO VRB02KT 9SM BKN017 OVC160 M06/M07 A3005 RMK SLP218,CYZH,2015-02-13T06:07:00Z,55.28,-114.77,-6.0,-7.0,0,2,,9.0,30.050198,1021.8,,TRUE,,,,,,,,BKN,1700,OVC,16000,,,,,MVFR,,,,,,,,,,,,SPECI,581.0
CYLL 130606Z AUTO 24005KT 5SM BR FEW029 BKN039 BKN047 M03/M05 A3003 RMK SLP211,CYLL,2015-02-13T06:06:00Z,53.32,-110.07,-3.0,-5.0,240,5,,5.0,30.029528,1021.1,,TRUE,,,,,,,BR,FEW,2900,BKN,3900,BKN,4700,,,MVFR,,,,,,,,,,,,SPECI,669.0
LFMC 130606Z VRB01KT 4000 BR SCT001 BKN023 05/04 Q1022 RMK M2,LFMC,2015-02-13T06:06:00Z,43.37,6.37,5.0,4.0,0,1,,2.49,30.177166,,,,,,,,,,BR,SCT,100,BKN,2300,,,,,IFR,,,,,,,,,,,,SPECI,78.0
MUCL 130605Z AUTO 01012KT 21/16 Q1018,MUCL,2015-02-13T06:05:00Z,21.63,-81.55,21.0,16.0,10,12,,,30.059055,,,TRUE,,,,,,,,,,,,,,,,,,,,,,,,,,,,SPECI,5.0
LIPL 130605Z /////KT 1000 R31/P2000N MIFG SCT003 SCT014 04/04 Q1024 RMK BKN VIS MIN 1000 WIND THR31 00000KT AMB,LIPL,2015-02-13T06:05:00Z,45.42,10.27,4.0,4.0,,,,0.62,30.236221,,,,,,,,,,MIFG,SCT,300,SCT,1400,,,,,LIFR,,,,,,,,,,,,SPECI,92.0
RJAK 130604Z 31010G23KT 9999 FEW030 BKN100 08/M13 Q1001 RMK 2CU030 5AC100 A2958,RJAK,2015-02-13T06:04:00Z,36.02,140.18,8.0,-13.0,310,10,23,6.21,29.557087,,,,,,,,,,,FEW,3000,BKN,10000,,,,,VFR,,,,,,,,,,,,SPECI,29.0
LTAN 130603Z 36012KT 9999 SCT013 BKN035 01/M02 Q1015 RESN NOSIG RMK RWY19 36013KT,LTAN,2015-02-13T06:03:00Z,37.97,32.53,1.0,-2.0,360,12,,6.21,29.970472,,,,,,TRUE,,,,,SCT,1300,BKN,3500,,,,,VFR,,,,,,,,,,,,SPECI,1006.0
KQRH 130602Z AUTO VRB02KT 9999 SCT023 BKN033 BKN041 28/19 A3007 RMK AO2,KQRH,2015-02-13T06:02:00Z,100.65,-1000.65,28.0,19.0,0,2,,6.21,30.070866,,,TRUE,TRUE,,,,,,,SCT,2300,BKN,3300,BKN,4100,,,VFR,,,,,,,,,,,,SPECI,999.0
RJOP 130602Z 28019G29KT 260V320 9999 FEW030 SCT050 06/M05 Q1011 RMK 2CU030 4SC050 A2986,RJOP,2015-02-13T06:02:00Z,34.0,134.62,6.0,-5.0,280,19,29,6.21,29.852362,,,,,,,,,,,FEW,3000,SCT,5000,,,,,VFR,,,,,,,,,,,,METAR,6.0
RJFO 130602Z 32016G28KT 290V360 9999 FEW040 07/M08 Q1014 RMK 1CU040 A2997,RJFO,2015-02-13T06:02:00Z,33.47,131.72,7.0,-8.0,320,16,28,6.21,29.940945,,,,,,,,,,,FEW,4000,,,,,,,VFR,,,,,,,,,,,,METAR,8.0
YBPN 130602Z AUTO 13018G28KT 9999 // SCT018 SCT029 BKN047 26/22 Q1011,YBPN,2015-02-13T06:02:00Z,-20.5,148.55,26.0,22.0,130,18,28,6.21,29.852362,,,TRUE,,,,,,,,SCT,1800,SCT,2900,BKN,4700,,,VFR,,,,,,,,,,,,METAR,25.0
TJNR 130602Z AUTO 01003KT 10SM BKN022 BKN029 BKN040 23/22 A3001 RMK AO2 T02330222 $,TJNR,2015-02-13T06:02:00Z,18.25,-65.63,23.3,22.2,10,3,,10.0,30.008858,,,TRUE,TRUE,TRUE,,,,,,BKN,2200,BKN,2900,BKN,4000,,,MVFR,,,,,,,,,,,,METAR,12.0
FAEO 130601Z 35009KT CAVOK 17/14 Q1023,FAEO,2015-02-13T06:01:00Z,-26.5,29.97,17.0,14.0,350,9,,6.21,30.206694,,,,,,,,,,,CAVOK,,,,,,,,VFR,,,,,,,,,,,,SPECI,1737.0
PAIK 130601Z AUTO 00000KT 9SM -SN BKN032 OVC044 M17/M19 A2989 RMK AO2 SLP170 P0000 60000 T11721194 11172 21233 56005 FZRANO,PAIK,2015-02-13T06:01:00Z,66.98,-160.43,-17.2,-19.4,0,0,,9.0,29.890747,1017.0,,TRUE,TRUE,,,,TRUE,,-SN,BKN,3200,OVC,4400,,,,,VFR,-0.5,-17.2,-23.3,,,0.0050,,0.0050,,,,METAR,51.0
PAGK 130601Z AUTO 00000KT 10SM BKN014 M20/M23 A2979 RMK AO2 T12001233 TSNO,PAGK,2015-02-13T06:01:00Z,62.15,-145.45,-20.0,-23.3,0,0,,10.0,29.790354,,,TRUE,TRUE,,,TRUE,,,,BKN,1400,,,,,,,MVFR,,,,,,,,,,,,METAR,481.0
PABA 130601Z AUTO 28011KT 8SM M34/M37 A3019 RMK AO2 SLP222 T13391372 11328 21339 56002 FZRANO $,PABA,2015-02-13T06:01:00Z,70.13,-143.58,-33.9,-37.2,280,11,,8.0,30.188976,1022.2,,TRUE,TRUE,TRUE,,,TRUE,,,,,,,,,,,,-0.2,-32.8,-33.9,,,,,,,,,METAR,2.0
CWCF 130600Z AUTO 28011KT M16/M18 RMK AO1 SOG 26 6014 SLP176 T11581181,CWCF,2015-02-13T06:00:00Z,52.35,-97.03,-15.8,-18.1,280,11,,,,1017.6,,TRUE,TRUE,,,,,,,,,,,,,,,,,,,,,,,,,,,METAR,222.0
CWBO 130600Z AUTO 31002KT M01/M02 RMK AO1 SOG 09 5000 SLP200 T10111016,CWBO,2015-02-13T06:00:00Z,50.53,-111.83,-1.1,-1.6,310,2,,,,1020.0,,TRUE,TRUE,,,,,,,,,,,,,,,,,,,,,,,,,,,METAR,747.0
CWFF 130600Z AUTO 34004KT M12/M13 RMK AO1 SOG 11 2008 SLP232 T11161132,CWFF,2015-02-13T06:00:00Z,52.82,-104.58,-11.6,-13.2,340,4,,,,1023.2,,TRUE,TRUE,,,,,,,,,,,,,,,,,,,,,,,,,,,METAR,490.0
CZTB 130600Z AUTO 26002KT M23/M26 RMK AO1 SLP255 T12321262 56035,CZTB,2015-02-13T06:00:00Z,48.37,-89.32,-23.2,-26.2,260,2,,,,1025.5,,TRUE,TRUE,,,,,,,,,,,,,,,,-3.5,,,,,,,,,,,METAR,199.0
CZRP 130600Z AUTO 26018G23KT M31/M35 RMK AO1 PK WND 26023/0551 SLP340 T13051352 53012,CZRP,2015-02-13T06:00:00Z,75.37,-105.72,-30.5,-35.2,260,18,23,,,1034.0,,TRUE,TRUE,,,,,,,,,,,,,,,,1.2,,,,,,,,,,,METAR,12.0
CXVN 130600Z AUTO 33008KT M15/M20 RMK AO1 SLP254 T11461198 51006,CXVN,2015-02-13T06:00:00Z,43.18,-79.4,-14.6,-19.8,330,8,,,,1025.4,,TRUE,TRUE,,,,,,,,,,,,,,,,0.6,,,,,,,,,,,METAR,79.0
CXSE 130600Z AUTO 28012KT M37/M42 RMK AO1 SLP353 T13741415 53007,CXSE,2015-02-13T06:00:00Z,73.77,-105.28,-37.4,-41.5,280,12,,,,1035.3,,TRUE,TRUE,,,,,,,,,,,,,,,,0.7,,,,,,,,,,,METAR,11.0
CXRB 130600Z AUTO 32009KT M35/M38 RMK AO1 SOG 00 3005 SLP281 T13461384 50002,CXRB,2015-02-13T06:00:00Z,74.72,-94.98,-34.6,-38.4,320,9,,,,1028.1,,TRUE,TRUE,,,,,,,,,,,,,,,,0.2,,,,,,,,,,,METAR,68.0
CXKI 130600Z AUTO M30/M33 RMK AO1 SOG 48 8009 SLP260 T13031329 50002,CXKI,2015-02-13T06:00:00Z,48.22,-80.0,-30.3,-32.9,,,,,,1026.0,,TRUE,TRUE,,,,,,,,,,,,,,,,0.2,,,,,,,,,,,METAR,324.0
CWNC 130600Z AUTO 31004KT M20/M26 RMK AO1 SOG 11 1018 SLP230 T11961262,CWNC,2015-02-13T06:00:00Z,43.95,-78.17,-19.6,-26.2,310,4,,,,1023.0,,TRUE,TRUE,,,,,,,,,,,,,,,,,,,,,,,,,,,METAR,78.0
CWDV 130600Z AUTO 18003KT M20/M23 RMK AO1 SOG 62 6038 SLP227 T12031234,CWDV,2015-02-13T06:00:00Z,49.02,-90.47,-20.3,-23.4,180,3,,,,1022.7,,TRUE,TRUE,,,,,,,,,,,,,,,,,,,,,,,,,,,METAR,489.0
CWRY 130600Z AUTO 27008KT 04/M00 RMK AO1 SOG 02 5003 SLP205 T00391003,CWRY,2015-02-13T06:00:00Z,49.12,-112.03,3.9,-0.3,270,8,,,,1020.5,,TRUE,TRUE,,,,,,,,,,,,,,,,,,,,,,,,,,,METAR,1050.0
CWIY 130600Z AUTO 27005KT M17/M18 RMK AO1 SLP045 T11711175 57010,CWIY,2015-02-13T06:00:00Z,47.13,-67.82,-17.1,-17.5,270,5,,,,1004.5,,TRUE,TRUE,,,,,,,,,,,,,,,,-1.0,,,,,,,,,,,METAR,241.0
CWID 130600Z AUTO 03001KT M25/M28 RMK AO1 SLP333 T12451278 53018,CWID,2015-02-13T06:00:00Z,61.32,-117.6,-24.5,-27.8,30,1,,,,1033.3,,TRUE,TRUE,,,,,,,,,,,,,,,,1.8,,,,,,,,,,,METAR,161.0
CWHT 130600Z AUTO 00000KT M09/M10 RMK AO1 SOG 36 0002 SLP119 T10921104,CWHT,2015-02-13T06:00:00Z,60.77,-137.58,-9.2,-10.4,0,0,,,,1011.9,,TRUE,TRUE,,,,,,,,,,,,,,,,,,,,,,,,,,,METAR,599.0
TBPB 130600Z 09011KT 9999 SCT018 26/23 Q1015 NOSIG,TBPB,2015-02-13T06:00:00Z,13.07,-59.48,26.0,23.0,90,11,,6.21,29.970472,,,,,,TRUE,,,,,SCT,1800,,,,,,,VFR,,,,,,,,,,,,METAR,52.0
NGFU 130600Z VRB01KT 9999 SCT020TCU BKN31 31/25 Q1006,NGFU,2015-02-13T06:00:00Z,-8.52,179.22,31.0,25.0,0,1,,6.21,29.704725,,,,,,,,,,,SCT,2000,,,,,,,VFR,,,,,,,,,,,,METAR,1.0
NFNA 130600Z 07008KT 9999 SCT020 BKN048 BKN120 29/24 Q1008 ,NFNA,2015-02-13T06:00:00Z,-18.05,178.57,29.0,24.0,70,8,,6.21,29.763779,,,,,,,,,,,SCT,2000,BKN,4800,BKN,12000,,,VFR,,,,,,,,,,,,METAR,5.0
SBBR 130600Z 18003KT CAVOK 19/13 Q1021,SBBR,2015-02-13T06:00:00Z,-15.87,-47.92,19.0,13.0,180,3,,6.21,30.147638,,,,,,,,,,,CAVOK,,,,,,,,VFR,,,,,,,,,,,,METAR,1061.0
VRMM 130600Z 06012KT 9999 FEW018 SCT260 31/25 Q1013 NOSIG,VRMM,2015-02-13T06:00:00Z,4.2,73.52,31.0,25.0,60,12,,6.21,29.911417,,,,,,TRUE,,,,,FEW,1800,SCT,26000,,,,,VFR,,,,,,,,,,,,METAR,2.0
DAMH 130600Z 00000KT CAVOK 07/M02 Q1017,DAMH,2015-02-13T06:00:00Z,29.23,6.5,7.0,-2.0,0,0,,6.21,30.029528,,,,,,,,,,,CAVOK,,,,,,,,VFR,,,,,,,,,,,,METAR,294.0
DAUL 130600Z 24004KT 9999 FEW030 02/M04 Q1019,DAUL,2015-02-13T06:00:00Z,33.77,2.92,2.0,-4.0,240,4,,6.21,30.088583,,,,,,,,,,,FEW,3000,,,,,,,VFR,,,,,,,,,,,,METAR,765.0
DAUK 130600Z 00000KT CAVOK 07/03 Q1019,DAUK,2015-02-13T06:00:00Z,33.08,6.12,7.0,3.0,0,0,,6.21,30.088583,,,,,,,,,,,CAVOK,,,,,,,,VFR,,,,,,,,,,,,METAR,85.0
DAUI 130600Z 00000KT CAVOK 09/M06 Q1018,DAUI,2015-02-13T06:00:00Z,27.25,2.52,9.0,-6.0,0,0,,6.21,30.059055,,,,,,,,,,,CAVOK,,,,,,,,VFR,,,,,,,,,,,,METAR,269.0
DAUG 130600Z 34006KT CAVOK 06/M06 Q1019,DAUG,2015-02-13T06:00:00Z,32.37,3.82,6.0,-6.0,340,6,,6.21,30.088583,,,,,,,,,,,CAVOK,,,,,,,,VFR,,,,,,,,,,,,METAR,450.0
DAOV 130600Z 00000KT 9999 BKN030 08/07 Q1022,DAOV,2015-02-13T06:00:00Z,35.2,0.15,8.0,7.0,0,0,,6.21,30.177166,,,,,,,,,,,BKN,3000,,,,,,,MVFR,,,,,,,,,,,,METAR,514.0
DAOR 130600Z 00000KT CAVOK 06/03 Q1021,DAOR,2015-02-13T06:00:00Z,31.65,-2.27,6.0,3.0,0,0,,6.21,30.147638,,,,,,,,,,,CAVOK,,,,,,,,VFR,,,,,,,,,,,,METAR,773.0
DAOI 130600Z 20004KT 7000 SCT016 SCT026 11/10 Q1020,DAOI,2015-02-13T06:00:00Z,36.22,1.32,11.0,10.0,200,4,,4.35,30.11811,,,,,,,,,,,SCT,1600,SCT,2600,,,,,MVFR,,,,,,,,,,,,METAR,143.0
DAOB 130600Z 00000KT 9999 SCT026 06/05 Q1020,DAOB,2015-02-13T06:00:00Z,35.33,1.47,6.0,5.0,0,0,,6.21,30.11811,,,,,,,,,,,SCT,2600,,,,,,,VFR,,,,,,,,,,,,METAR,989.0
DAEF 130600Z 27010KT CAVOK 07/M06 Q1017,DAEF,2015-02-13T06:00:00Z,28.43,7.55,7.0,-6.0,270,10,,6.21,30.029528,,,,,,,,,,,CAVOK,,,,,,,,VFR,,,,,,,,,,,,METAR,472.0
DAAY 130600Z 00000KT 0300 FG VV/// 03/03 Q1023,DAAY,2015-02-13T06:00:00Z,33.53,-0.25,3.0,3.0,0,0,,0.19,30.206694,,,,,,,,,,FG,OVX,0,,,,,,,LIFR,,,,,,,,,,,,METAR,1149.0
DAAP 130600Z 26008KT 8000 NSC 13/M06 Q1017,DAAP,2015-02-13T06:00:00Z,26.72,8.62,13.0,-6.0,260,8,,4.97,30.029528,,,,,,,,,,,,,,,,,,,,,,,,,,,,,,,METAR,558.0
DAAE 130600Z 00000KT CAVOK 07/06 Q1020,DAAE,2015-02-13T06:00:00Z,36.72,5.07,7.0,6.0,0,0,,6.21,30.11811,,,,,,,,,,,CAVOK,,,,,,,,VFR,,,,,,,,,,,,METAR,2.0
DAAD 130600Z 00000KT CAVOK 05/02 Q1020,DAAD,2015-02-13T06:00:00Z,35.32,4.2,5.0,2.0,0,0,,6.21,30.11811,,,,,,,,,,,CAVOK,,,,,,,,VFR,,,,,,,,,,,,METAR,461.0
DTTR 130600Z 05010KT 6000 NSC 09/06 Q1016,DTTR,2015-02-13T06:00:00Z,31.7,9.27,9.0,6.0,50,10,,3.73,30.0,,,,,,,,,,,,,,,,,,,,,,,,,,,,,,,METAR,259.0
DTTN 130600Z 31002KT 6000 SCT020 SCT100 10/09 Q1020,DTTN,2015-02-13T06:00:00Z,36.47,8.8,10.0,9.0,310,2,,3.73,30.11811,,,,,,,,,,,SCT,2000,SCT,10000,,,,,MVFR,,,,,,,,,,,,METAR,144.0
DTTK 130600Z 00000KT 8000 FEW023 BKN030 10/07 Q1021,DTTK,2015-02-13T06:00:00Z,35.67,10.08,10.0,7.0,0,0,,4.97,30.147638,,,,,,,,,,,FEW,2300,BKN,3000,,,,,MVFR,,,,,,,,,,,,METAR,68.0
DTTD 130600Z 04004KT 010V120 4000 BR FEW023 08/07 Q1017,DTTD,2015-02-13T06:00:00Z,32.32,10.4,8.0,7.0,40,4,,2.49,30.029528,,,,,,,,,,BR,FEW,2300,,,,,,,IFR,,,,,,,,,,,,METAR,301.0
DTTB 130600Z 07002KT 6000 SCT020 08/07 Q1020,DTTB,2015-02-13T06:00:00Z,37.25,9.8,8.0,7.0,70,2,,3.73,30.11811,,,,,,,,,,,SCT,2000,,,,,,,MVFR,,,,,,,,,,,,METAR,3.0
UTAT 130600Z 06007MPS CAVOK 02/M02 Q1022 99GLRD70 NOSIG,UTAT,2015-02-13T06:00:00Z,41.77,59.83,2.0,-2.0,60,14,,6.21,30.177166,,,,,,TRUE,,,,,CAVOK,,,,,,,,VFR,,,,,,,,,,,,METAR,83.0
UTAM 130600Z 09003MPS 4300 BR OVC005 10/09 Q1017 NOSIG RMK QBB170 882///55,UTAM,2015-02-13T06:00:00Z,37.62,61.9,10.0,9.0,90,6,,2.67,30.029528,,,,,,TRUE,,,,BR,OVC,500,,,,,,,IFR,,,,,,,,,,,,METAR,222.0
UTAV 130600Z 05004PS 9999 SCT033 SCT100 07/05 Q1019 NOSIG,UTAV,2015-02-13T06:00:00Z,39.08,63.62,7.0,5.0,,,,6.21,30.088583,,,,,,TRUE,,,,,SCT,3300,SCT,10000,,,,,VFR,,,,,,,,,,,,METAR,192.0
FMEE 130600Z 10009KT 9999 FEW025 30/20 Q1013 NOSIG,FMEE,2015-02-13T06:00:00Z,-20.87,55.52,30.0,20.0,100,9,,6.21,29.911417,,,,,,TRUE,,,,,FEW,2500,,,,,,,VFR,,,,,,,,,,,,METAR,25.0
TTCP 130600Z 09008KT 9999 SCT016 26/23 Q1014 NOSIG,TTCP,2015-02-13T06:00:00Z,11.15,-60.85,26.0,23.0,90,8,,6.21,29.940945,,,,,,TRUE,,,,,SCT,1600,,,,,,,VFR,,,,,,,,,,,,METAR,8.0
TTPP 130600Z 00000KT 9999 FEW015 SCT038 25/24 Q1013 NOSIG,TTPP,2015-02-13T06:00:00Z,10.58,-61.35,25.0,24.0,0,0,,6.21,29.911417,,,,,,TRUE,,,,,FEW,1500,SCT,3800,,,,,VFR,,,,,,,,,,,,METAR,15.0
OJAQ 130600Z 00000KT 9999 SCT030 11/M02 Q1020 NOSIG,OJAQ,2015-02-13T06:00:00Z,29.62,35.02,11.0,-2.0,0,0,,6.21,30.11811,,,,,,TRUE,,,,,SCT,3000,,,,,,,VFR,,,,,,,,,,,,METAR,51.0
OJAM 130600Z 27008KT 5000 HZ BKN035 05/M02 Q1016 NOSIG,OJAM,2015-02-13T06:00:00Z,31.97,35.97,5.0,-2.0,270,8,,3.11,30.0,,,,,,TRUE,,,,HZ,BKN,3500,,,,,,,MVFR,,,,,,,,,,,,METAR,773.0
OJAI 130600Z 21012KT 8000 NSC 05/M01 Q1017 NOSIG,OJAI,2015-02-13T06:00:00Z,31.72,36.0,5.0,-1.0,210,12,,4.97,30.029528,,,,,,TRUE,,,,,,,,,,,,,,,,,,,,,,,,,METAR,730.0
OLBA 130600Z 16010KT 5000 RA FEW018CB BKN023 10/04 Q1016,OLBA,2015-02-13T06:00:00Z,33.82,35.47,10.0,4.0,160,10,,3.11,30.0,,,,,,,,,,RA,FEW,1800,BKN,2300,,,,,MVFR,,,,,,,,,,,,METAR,19.0
RPLI 130600Z 32010KT 9999 FEW019 SCT100 32/16 Q1010 NOSIG RMK A2983,RPLI,2015-02-13T06:00:00Z,18.17,120.52,32.0,16.0,320,10,,6.21,29.822834,,,,,,TRUE,,,,,FEW,1900,SCT,10000,,,,,VFR,,,,,,,,,,,,METAR,5.0
NGTT 130600Z VRB01KT 9999 SCT018 30/25 Q1005,NGTT,2015-02-13T06:00:00Z,1.35,172.92,30.0,25.0,0,1,,6.21,29.675198,,,,,,,,,,,SCT,1800,,,,,,,VFR,,,,,,,,,,,,METAR,2.0
LERI 130600Z 27003KT CAVOK 04/04 Q1022 NOSIG,LERI,2015-02-13T06:00:00Z,37.95,-1.22,4.0,4.0,270,3,,6.21,30.177166,,,,,,TRUE,,,,,CAVOK,,,,,,,,VFR,,,,,,,,,,,,METAR,75.0
LEGT 130600Z 00000KT 0700 R05/0500 FG NSC 00/00 Q1022,LEGT,2015-02-13T06:00:00Z,40.28,-3.72,0.0,0.0,0,0,,0.43,30.177166,,,,,,,,,,FG,,,,,,,,,,,,,,,,,,,,,METAR,612.0
FAVV 130600Z AUTO /////KT //// // ////// 21/13 Q1021,FAVV,2015-02-13T06:00:00Z,-26.57,27.97,21.0,13.0,,,,,30.147638,,,TRUE,,,,,,,,,,,,,,,,,,,,,,,,,,,,METAR,1483.0
FASI 130600Z AUTO /////KT //// // ////// 18/13 Q1022,FASI,2015-02-13T06:00:00Z,-26.25,28.4,18.0,13.0,,,,,30.177166,,,TRUE,,,,,,,,,,,,,,,,,,,,,,,,,,,,METAR,1628.0
FAJB 130600Z AUTO 02001KT //// // ////// 21/13 Q1022,FAJB,2015-02-13T06:00:00Z,-26.15,28.0,21.0,13.0,20,1,,,30.177166,,,TRUE,,,,,,,,,,,,,,,,,,,,,,,,,,,,METAR,1626.0
FAGC 130600Z AUTO 02007KT //// // ////// 20/13 Q1022,FAGC,2015-02-13T06:00:00Z,-25.98,28.13,20.0,13.0,20,7,,,30.177166,,,TRUE,,,,,,,,,,,,,,,,,,,,,,,,,,,,METAR,1623.0
DTKA 130600Z 09006KT 9999 FEW020 SCT100 10/07 Q1019 NOSIG,DTKA,2015-02-13T06:00:00Z,36.98,8.88,10.0,7.0,90,6,,6.21,30.088583,,,,,,TRUE,,,,,FEW,2000,SCT,10000,,,,,VFR,,,,,,,,,,,,METAR,21.0
DAUB 130600Z 00000KT CAVOK 10/05 Q1018,DAUB,2015-02-13T06:00:00Z,34.78,5.72,10.0,5.0,0,0,,6.21,30.059055,,,,,,,,,,,CAVOK,,,,,,,,VFR,,,,,,,,,,,,METAR,87.0
DABC 130600Z 00000KT 9999 FEW033 BKN100 06/05 Q1020,DABC,2015-02-13T06:00:00Z,36.27,6.62,6.0,5.0,0,0,,6.21,30.11811,,,,,,,,,,,FEW,3300,BKN,10000,,,,,VFR,,,,,,,,,,,,METAR,694.0
TNCB 130600Z AUTO 07011KT //// ////// 27/24 Q1012 NOSIG,TNCB,2015-02-13T06:00:00Z,12.13,-68.28,27.0,24.0,70,11,,,29.88189,,,TRUE,,,TRUE,,,,,,,,,,,,,,,,,,,,,,,,,METAR,6.0
TNCE 130600Z AUTO 05005KT //// ////// ///// Q1016,TNCE,2015-02-13T06:00:00Z,17.47,-62.97,,,50,5,,,30.0,,,TRUE,,,,,,,,,,,,,,,,,,,,,,,,,,,,METAR,39.0
TNCC 130600Z 10008KT 9999 SCT016 27/24 Q1013 NOSIG,TNCC,2015-02-13T06:00:00Z,12.2,-68.97,27.0,24.0,100,8,,6.21,29.911417,,,,,,TRUE,,,,,SCT,1600,,,,,,,VFR,,,,,,,,,,,,METAR,9.0
HTMT 130600Z 36015KT 9999 SCT024 29/24 Q1012,HTMT,2015-02-13T06:00:00Z,-10.27,40.17,29.0,24.0,360,15,,6.21,29.88189,,,,,,,,,,,SCT,2400,,,,,,,VFR,,,,,,,,,,,,METAR,113.0
HTMW 130600Z 12006KT 9999 FEW022 FEW023CB SCT260 23/18 Q1016 NOSIG,HTMW,2015-02-13T06:00:00Z,-2.47,32.92,23.0,18.0,120,6,,6.21,30.0,,,,,,TRUE,,,,,FEW,2200,FEW,2300,SCT,26000,,,VFR,,,,,,,,,,,,METAR,1140.0
HTTB 130600Z 00000KT CAVOK 23/19 Q1019,HTTB,2015-02-13T06:00:00Z,-5.07,32.82,23.0,19.0,0,0,,6.21,30.088583,,,,,,,,,,,CAVOK,,,,,,,,VFR,,,,,,,,,,,,METAR,1190.0
HTSO 130600Z 00000KT 9999 FEW020 FEW022CB 24/21 Q1017,HTSO,2015-02-13T06:00:00Z,-10.67,35.57,24.0,21.0,0,0,,6.21,30.029528,,,,,,,,,,,FEW,2000,FEW,2200,,,,,VFR,,,,,,,,,,,,METAR,1067.0
HTMG 130600Z 00000KT 9999 FEW025 27/20 Q1013,HTMG,2015-02-13T06:00:00Z,-6.82,37.63,27.0,20.0,0,0,,6.21,29.911417,,,,,,,,,,,FEW,2500,,,,,,,VFR,,,,,,,,,,,,METAR,526.0
HTMB 130600Z 20010KT 9999 SCT020 FEW021CB 22/15,HTMB,2015-02-13T06:00:00Z,-8.92,33.47,22.0,15.0,200,10,,6.21,,,,,,,,,,,,SCT,2000,FEW,2100,,,,,VFR,,,,,,,,,,,,METAR,1707.0
HTKA 130600Z 00000KT 9999 FEW020 FEW021CB 22/19 Q1019 ,HTKA,2015-02-13T06:00:00Z,-4.87,29.67,22.0,19.0,0,0,,6.21,30.088583,,,,,,,,,,,FEW,2000,FEW,2100,,,,,VFR,,,,,,,,,,,,METAR,885.0
HTIR 130600Z 00000KT 9999 FEW018 23/17 Q1020,HTIR,2015-02-13T06:00:00Z,-7.67,35.75,23.0,17.0,0,0,,6.21,30.11811,,,,,,,,,,,FEW,1800,,,,,,,VFR,,,,,,,,,,,,METAR,1428.0
HTDO 130600Z 09010KT 9999 FEW022 24/16 Q1017 NOSIG,HTDO,2015-02-13T06:00:00Z,-6.17,35.77,24.0,16.0,90,10,,6.21,30.029528,,,,,,TRUE,,,,,FEW,2200,,,,,,,VFR,,,,,,,,,,,,METAR,1120.0
HTBU 130600Z 26003KT 9999 FEW018 FEW020CB 22/18 Q1017,HTBU,2015-02-13T06:00:00Z,-1.32,31.82,22.0,18.0,260,3,,6.21,30.029528,,,,,,,,,,,FEW,1800,FEW,2000,,,,,VFR,,,,,,,,,,,,METAR,1137.0
HTAR 130600Z 12005KT 9999 FEW024 22/18 Q1020,HTAR,2015-02-13T06:00:00Z,-3.37,36.63,22.0,18.0,120,5,,6.21,30.11811,,,,,,,,,,,FEW,2400,,,,,,,VFR,,,,,,,,,,,,METAR,1387.0
HTZA 130600Z 07005KT 9999 FEW020 29/23 Q1012 NOSIG,HTZA,2015-02-13T06:00:00Z,-6.22,39.22,29.0,23.0,70,5,,6.21,29.88189,,,,,,TRUE,,,,,FEW,2000,,,,,,,VFR,,,,,,,,,,,,METAR,15.0
HTKJ 130600Z 03010KT 9999 FEW026 25/17 Q1016 NOSIG,HTKJ,2015-02-13T06:00:00Z,-3.42,37.07,25.0,17.0,30,10,,6.21,30.0,,,,,,TRUE,,,,,FEW,2600,,,,,,,VFR,,,,,,,,,,,,METAR,896.0
HTDA 130600Z 02010KT 9999 SCT027 30/23 Q1012 NOSIG,HTDA,2015-02-13T06:00:00Z,-6.88,39.2,30.0,23.0,20,10,,6.21,29.88189,,,,,,TRUE,,,,,SCT,2700,,,,,,,VFR,,,,,,,,,,,,METAR,55.0
MNMG 130600Z 13006KT 9999 FEW020 25/19 Q1012 A2991 NOSIG,MNMG,2015-02-13T06:00:00Z,12.15,-86.17,25.0,19.0,130,6,,6.21,29.88189,,,,,,TRUE,,,,,FEW,2000,,,,,,,VFR,,,,,,,,,,,,SPECI,59.0
CWKK 130600Z AUTO 18004KT M23/M25 RMK AO1 SOG 17 7037 SLP237 T12291249,CWKK,2015-02-13T06:00:00Z,49.72,-88.33,-22.9,-24.9,180,4,,,,1023.7,,TRUE,TRUE,,,,,,,,,,,,,,,,,,,,,,,,,,,METAR,260.0
CWCI 130600Z AUTO 09009KT M13/M14 RMK AO1 SLP258 T11321143 58024,CWCI,2015-02-13T06:00:00Z,47.32,-85.82,-13.2,-14.3,90,9,,,,1025.8,,TRUE,TRUE,,,,,,,,,,,,,,,,-2.4,,,,,,,,,,,METAR,187.0
CWMZ 130600Z AUTO 01020KT M20/M24 RMK AO1 PK WND 35026/0531 SLP259 T12031244 51004,CWMZ,2015-02-13T06:00:00Z,45.02,-80.37,-20.3,-24.4,10,20,,,,1025.9,,TRUE,TRUE,,,,,,,,,,,,,,,,0.4,,,,,,,,,,,METAR,191.0
CXAT 130600Z AUTO 00000KT M36/M41 RMK AO1 SOG 01 3008 SLP242 T13551406,CXAT,2015-02-13T06:00:00Z,73.0,-85.03,-35.5,-40.6,0,0,,,,1024.2,,TRUE,TRUE,,,,,,,,,,,,,,,,,,,,,,,,,,,METAR,19.0
CXVW 130600Z AUTO 16008KT 01/M00 RMK AO1 T00071002,CXVW,2015-02-13T06:00:00Z,55.1,-117.2,0.7,-0.2,160,8,,,,,,TRUE,TRUE,,,,,,,,,,,,,,,,,,,,,,,,,,,METAR,698.0
CWZN 130600Z AUTO 00034KT M08/M11 RMK AO1 SLP982 T10791106,CWZN,2015-02-13T06:00:00Z,47.37,-55.8,-7.9,-10.6,0,34,,,,998.2,,TRUE,TRUE,,,,,,,,,,,,,,,,,,,,,,,,,,,METAR,64.0
CWDA 130600Z AUTO 32013KT M16/M17 RMK AO1 2PAST HR 5014 PK WND 33018/0550 SLP042 P0001 T11591171 50004,CWDA,2015-02-13T06:00:00Z,50.72,-56.12,-15.9,-17.1,320,13,,,,1004.2,,TRUE,TRUE,,,,,,,,,,,,,,,,0.4,,,,,0.01,,,,,,METAR,29.0
CWPS 130600Z AUTO M16/M21 RMK AO1 SLP259 T11601209 53001,CWPS,2015-02-13T06:00:00Z,42.57,-80.03,-16.0,-20.9,,,,,,1025.9,,TRUE,TRUE,,,,,,,,,,,,,,,,0.1,,,,,,,,,,,METAR,175.0
CWNL 130600Z AUTO 01004KT M19/M25 RMK AO1 SLP281 T11931247 58001,CWNL,2015-02-13T06:00:00Z,45.62,-82.97,-19.3,-24.7,10,4,,,,1028.1,,TRUE,TRUE,,,,,,,,,,,,,,,,-0.1,,,,,,,,,,,METAR,183.0
CWEF 130600Z AUTO 16006KT M05/M07 RMK AO1 SLP017 T10481072 55005,CWEF,2015-02-13T06:00:00Z,47.22,-60.12,-4.8,-7.2,160,6,,,,1001.7,,TRUE,TRUE,,,,,,,,,,,,,,,,-0.5,,,,,,,,,,,METAR,26.0
TLPL 130600Z 10012KT 9999 SCT020 27/24 Q1014 NOSIG,TLPL,2015-02-13T06:00:00Z,13.75,-60.95,27.0,24.0,100,12,,6.21,29.940945,,,,,,TRUE,,,,,SCT,2000,,,,,,,VFR,,,,,,,,,,,,METAR,3.0
HUKA 130600Z 20003KT 3000 HZ FEW022 FEW024CB SCT250 23/19,HUKA,2015-02-13T06:00:00Z,,,23.0,19.0,200,3,,1.86,,,,,,,,,,,HZ,FEW,2200,FEW,2400,SCT,25000,,,IFR,,,,,,,,,,,,SPECI,
CXSR 130600Z AUTO 21007KT 04/02 RMK AO1 SOG 55 3003 SLP172 T00370015,CXSR,2015-02-13T06:00:00Z,55.7,-119.23,3.7,1.5,210,7,,,,1017.2,,TRUE,TRUE,,,,,,,,,,,,,,,,,,,,,,,,,,,METAR,1015.0
FNKU 130600Z 27008KT 9999 FEW013 BKN090 17/16 Q1022,FNKU,2015-02-13T06:00:00Z,-12.37,16.93,17.0,16.0,270,8,,6.21,30.177166,,,,,,,,,,,FEW,1300,BKN,9000,,,,,VFR,,,,,,,,,,,,METAR,1699.0
FNSO 130600Z 00000KT 9999 FEW012 OVC100 25/23 Q1013,FNSO,2015-02-13T06:00:00Z,-6.13,12.37,25.0,23.0,0,0,,6.21,29.911417,,,,,,,,,,,FEW,1200,OVC,10000,,,,,VFR,,,,,,,,,,,,METAR,5.0
FNGI 130600Z 28010KT 9999 FEW015 22/13 Q1018,FNGI,2015-02-13T06:00:00Z,-17.05,15.68,22.0,13.0,280,10,,6.21,30.059055,,,,,,,,,,,FEW,1500,,,,,,,VFR,,,,,,,,,,,,METAR,1087.0
FNHU 130600Z 18004KT 9999 SCT006 BKN060 17/16 Q1024,FNHU,2015-02-13T06:00:00Z,-12.82,15.77,17.0,16.0,180,4,,6.21,30.236221,,,,,,,,,,,SCT,600,BKN,6000,,,,,VFR,,,,,,,,,,,,METAR,1701.0
FNCA 130600Z 09005KT 9999 SCT010 BKN080 24/23 Q1012,FNCA,2015-02-13T06:00:00Z,-5.58,12.18,24.0,23.0,90,5,,6.21,29.88189,,,,,,,,,,,SCT,1000,BKN,8000,,,,,VFR,,,,,,,,,,,,METAR,20.0
FNUE 130600Z 27006KT 9999 SCT022 19/18 Q1020,FNUE,2015-02-13T06:00:00Z,-11.77,19.9,19.0,18.0,270,6,,6.21,30.11811,,,,,,,,,,,SCT,2200,,,,,,,VFR,,,,,,,,,,,,METAR,1329.0
FNBG 130600Z 22004KT 9999 OVC025 26/23 Q1014,FNBG,2015-02-13T06:00:00Z,-12.62,13.4,26.0,23.0,220,4,,6.21,29.940945,,,,,,,,,,,OVC,2500,,,,,,,MVFR,,,,,,,,,,,,METAR,36.0
FNLU 130600Z 16004KT 9999 FEW020 BKN023 26/24 Q1013 NOSIG,FNLU,2015-02-13T06:00:00Z,-8.83,13.22,26.0,24.0,160,4,,6.21,29.911417,,,,,,TRUE,,,,,FEW,2000,BKN,2300,,,,,MVFR,,,,,,,,,,,,METAR,70.0
OEGT 130600Z 12002KT CAVOK 03/M07 Q1018 NOSIG,OEGT,2015-02-13T06:00:00Z,31.42,37.27,3.0,-7.0,120,2,,6.21,30.059055,,,,,,TRUE,,,,,CAVOK,,,,,,,,VFR,,,,,,,,,,,,METAR,499.0
CYZS 130600Z 35008KT 15SM SKC M40/M44 A3020 RMK SLP241,CYZS,2015-02-13T06:00:00Z,64.2,-83.37,-40.0,-44.0,350,8,,15.0,30.200787,1024.1,,,,,,,,,,SKC,,,,,,,,VFR,,,,,,,,,,,,SPECI,64.0
DAFH 130600Z 00000KT CAVOK 04/M04 Q1020,DAFH,2015-02-13T06:00:00Z,32.93,3.32,4.0,-4.0,0,0,,6.21,30.11811,,,,,,,,,,,CAVOK,,,,,,,,VFR,,,,,,,,,,,,METAR,774.0
CWKD 130600Z AUTO 27003KT M26/M28 RMK AO1 SLP082 T12571281 57005,CWKD,2015-02-13T06:00:00Z,50.73,-71.02,-25.7,-28.1,270,3,,,,1008.2,,TRUE,TRUE,,,,,,,,,,,,,,,,-0.5,,,,,,,,,,,METAR,497.0
CWEE 130600Z AUTO M26/M30 RMK AO1 T12591304,CWEE,2015-02-13T06:00:00Z,49.27,-73.33,-25.9,-30.4,,,,,,,,TRUE,TRUE,,,,,,,,,,,,,,,,,,,,,,,,,,,METAR,305.0
CZFS 130600Z AUTO 00000KT M22/M24 RMK AO1 SOG 36 3016 SLP326 T12161235,CZFS,2015-02-13T06:00:00Z,61.77,-121.23,-21.6,-23.5,0,0,,,,1032.6,,TRUE,TRUE,,,,,,,,,,,,,,,,,,,,,,,,,,,METAR,168.0
CXHP 130600Z AUTO 04001KT M07/M08 RMK AO1 T10661076,CXHP,2015-02-13T06:00:00Z,55.4,-116.48,-6.6,-7.6,40,1,,,,,,TRUE,TRUE,,,,,,,,,,,,,,,,,,,,,,,,,,,METAR,602.0
CWIX 130600Z AUTO 28008KT M22/M25 RMK AO1 18 T12171248,CWIX,2015-02-13T06:00:00Z,48.6,-71.72,-21.7,-24.8,280,8,,,,,,TRUE,TRUE,,,,,,,,,,,,,,,,,,,,,,,,,,,METAR,113.0
CWWS 130600Z AUTO 33018KT M16/M19 RMK AO1 SOG 59 5004 PK WND 33022/0550 SLP184 T11641188,CWWS,2015-02-13T06:00:00Z,52.82,-97.62,-16.4,-18.8,330,18,,,,1018.4,,TRUE,TRUE,,,,,,,,,,,,,,,,,,,,,,,,,,,METAR,223.0
CXWB 130600Z AUTO 26003KT M35/M39 RMK AO1 T13541392,CXWB,2015-02-13T06:00:00Z,65.88,-89.45,-35.4,-39.2,260,3,,,,,,TRUE,TRUE,,,,,,,,,,,,,,,,,,,,,,,,,,,METAR,18.0
CWDT 130600Z AUTO 31010KT M23/M27 RMK AO1 17 8006 SLP090 T12291266,CWDT,2015-02-13T06:00:00Z,49.88,-71.25,-22.9,-26.6,310,10,,,,1009.0,,TRUE,TRUE,,,,,,,,,,,,,,,,,,,,,,,,,,,METAR,399.0
CWCO 130600Z AUTO 01011G16KT M19/M21 RMK AO1 PK WND 33021/0506 SLP268 T11861208 53009,CWCO,2015-02-13T06:00:00Z,44.45,-80.17,-18.6,-20.8,10,11,16,,,1026.8,,TRUE,TRUE,,,,,,,,,,,,,,,,0.9,,,,,,,,,,,METAR,221.0
CZSM 130600Z AUTO 31002KT M23/M26 RMK AO1 SOG 40 1022 SLP308 T12301261,CZSM,2015-02-13T06:00:00Z,60.03,-111.93,-23.0,-26.1,310,2,,,,1030.8,,TRUE,TRUE,,,,,,,,,,,,,,,,,,,,,,,,,,,METAR,203.0
CWLS 130600Z AUTO 01007KT M21/M24 RMK AO1 SOG 25 3002 SLP255 T12131235,CWLS,2015-02-13T06:00:00Z,43.97,-80.75,-21.3,-23.5,10,7,,,,1025.5,,TRUE,TRUE,,,,,,,,,,,,,,,,,,,,,,,,,,,METAR,415.0
CWXC 130600Z AUTO 01004KT M21/M23 RMK AO1 2003 SLP080 T12091231 50003,CWXC,2015-02-13T06:00:00Z,48.88,-71.03,-20.9,-23.1,10,4,,,,1008.0,,TRUE,TRUE,,,,,,,,,,,,,,,,0.3,,,,,,,,,,,METAR,300.0
CWWK 130600Z AUTO 04002KT 10/09 RMK AO1 SOG 00 6011 SLP253 T00980087 50004,CWWK,2015-02-13T06:00:00Z,49.02,-122.78,9.8,8.7,40,2,,,,1025.3,,TRUE,TRUE,,,,,,,,,,,,,,,,0.4,,,,,,,,,,,METAR,15.0
CWEK 130600Z AUTO 11011KT 08/ RMK AO1 PK WND 11017/0543 SLP122 T0075 53014,CWEK,2015-02-13T06:00:00Z,54.58,-130.7,7.5,,110,11,,,,1012.2,,TRUE,TRUE,,,,,,,,,,,,,,,,1.4,,,,,,,,,,,METAR,8.0
CWIJ 130600Z AUTO 33001KT M41/M46 RMK AO1 SOG 80 3024 SLP406 T14101457,CWIJ,2015-02-13T06:00:00Z,65.77,-111.23,-41.0,-45.7,330,1,,,,1040.6,,TRUE,TRUE,,,,,,,,,,,,,,,,,,,,,,,,,,,METAR,500.0
CZZJ 130600Z AUTO 06001KT 02/02 RMK AO1 SOG 40 2007 SLP208 T00220016,CZZJ,2015-02-13T06:00:00Z,53.58,-116.47,2.2,1.6,60,1,,,,1020.8,,TRUE,TRUE,,,,,,,,,,,,,,,,,,,,,,,,,,,METAR,927.0
CZMJ 130600Z AUTO 34002KT M08/M09 RMK AO1 SOG 01 3006 SLP225 T10751092,CZMJ,2015-02-13T06:00:00Z,50.33,-105.57,-7.5,-9.2,340,2,,,,1022.5,,TRUE,TRUE,,,,,,,,,,,,,,,,,,,,,,,,,,,METAR,577.0
CXYH 130600Z AUTO 00000KT M21/M23 RMK AO1 SOG 56 3010 SLP291 T12091231,CXYH,2015-02-13T06:00:00Z,61.25,-123.75,-20.9,-23.1,0,0,,,,1029.1,,TRUE,TRUE,,,,,,,,,,,,,,,,,,,,,,,,,,,METAR,204.0
CXTO 130600Z AUTO M18/M24 RMK AO1 SLP253 T11781239 51011,CXTO,2015-02-13T06:00:00Z,43.67,-79.4,-17.8,-23.9,,,,,,1025.3,,TRUE,TRUE,,,,,,,,,,,,,,,,1.1,,,,,,,,,,,METAR,113.0
ZSNJ 130600Z VRB01MPS 4000 HZ NSC 14/03 Q1019 NOSIG,ZSNJ,2015-02-13T06:00:00Z,31.75,118.87,14.0,3.0,0,2,,2.49,30.088583,,,,,,TRUE,,,,HZ,,,,,,,,,,,,,,,,,,,,,METAR,33.0
ZLLL 130600Z 16003MPS 110V210 CAVOK 07/M17 Q1011 NOSIG,ZLLL,2015-02-13T06:00:00Z,36.52,103.62,7.0,-17.0,160,6,,6.21,29.852362,,,,,,TRUE,,,,,CAVOK,,,,,,,,VFR,,,,,,,,,,,,METAR,1947.0
ZJSY 130600Z 12005MPS 090V160 8000 SCT023 SCT033 25/16 Q1015 NOSIG,ZJSY,2015-02-13T06:00:00Z,18.3,109.42,25.0,16.0,120,10,,4.97,29.970472,,,,,,TRUE,,,,,SCT,2300,SCT,3300,,,,,MVFR,,,,,,,,,,,,METAR,27.0
ZJHK 130600Z 08004MPS 060V130 9999 SCT030 24/12 Q1015 NOSIG,ZJHK,2015-02-13T06:00:00Z,19.93,110.47,24.0,12.0,80,8,,6.21,29.970472,,,,,,TRUE,,,,,SCT,3000,,,,,,,VFR,,,,,,,,,,,,METAR,23.0
ZHHH 130600Z 14002MPS 080V200 6000 NSC 19/05 Q1017 NOSIG,ZHHH,2015-02-13T06:00:00Z,30.78,114.22,19.0,5.0,140,4,,3.73,30.029528,,,,,,TRUE,,,,,,,,,,,,,,,,,,,,,,,,,METAR,23.0
ZHCC 130600Z 19003MPS 120V240 7000 NSC 14/M08 Q1018 NOSIG,ZHCC,2015-02-13T06:00:00Z,34.52,113.83,14.0,-8.0,190,6,,4.35,30.059055,,,,,,TRUE,,,,,,,,,,,,,,,,,,,,,,,,,METAR,111.0
ZGHA 130600Z 24004MPS 200V260 CAVOK 23/01 Q1016 NOSIG,ZGHA,2015-02-13T06:00:00Z,28.18,113.22,23.0,1.0,240,8,,6.21,30.0,,,,,,TRUE,,,,,CAVOK,,,,,,,,VFR,,,,,,,,,,,,METAR,66.0
ZBHH 130600Z 22004MPS 180V280 CAVOK 03/M14 Q1013 NOSIG,ZBHH,2015-02-13T06:00:00Z,40.85,111.82,3.0,-14.0,220,8,,6.21,29.911417,,,,,,TRUE,,,,,CAVOK,,,,,,,,VFR,,,,,,,,,,,,METAR,1065.0
DAEN 130600Z 29008KT 7000 NSC 08/M01 Q1017,DAEN,2015-02-13T06:00:00Z,29.73,6.72,8.0,-1.0,290,8,,4.35,30.029528,,,,,,,,,,,,,,,,,,,,,,,,,,,,,,,METAR,252.0
DTTZ 130600Z 03006KT 7000 SCT030 11/02 Q1018 NOSIG,DTTZ,2015-02-13T06:00:00Z,33.92,8.08,11.0,2.0,30,6,,4.35,30.059055,,,,,,TRUE,,,,,SCT,3000,,,,,,,MVFR,,,,,,,,,,,,METAR,93.0
DTTX 130600Z 35005KT 300V020 6000 FEW020 SCT030 11/09 Q1019 NOSIG,DTTX,2015-02-13T06:00:00Z,34.72,10.67,11.0,9.0,350,5,,3.73,30.088583,,,,,,TRUE,,,,,FEW,2000,SCT,3000,,,,,MVFR,,,,,,,,,,,,METAR,23.0
DTTF 130600Z 04012KT 9999 BKN030 09/06 Q1020 NOSIG,DTTF,2015-02-13T06:00:00Z,34.42,8.82,9.0,6.0,40,12,,6.21,30.11811,,,,,,TRUE,,,,,BKN,3000,,,,,,,MVFR,,,,,,,,,,,,METAR,314.0
CYUY 130600Z 32004KT 15SM SKC M31/M34 A3016 RMK SLP256,CYUY,2015-02-13T06:00:00Z,48.2,-78.82,-31.0,-34.0,320,4,,15.0,30.159449,1025.6,,,,,,,,,,SKC,,,,,,,,VFR,,,,,,,,,,,,METAR,301.0
CYPH 130600Z AUTO 06003KT 9SM CLR M40/M45 A3030 RMK SLP266,CYPH,2015-02-13T06:00:00Z,58.45,-78.08,-40.0,-45.0,60,3,,9.0,30.301182,1026.6,,TRUE,,,,,,,,CLR,,,,,,,,VFR,,,,,,,,,,,,METAR,3.0
CYOY 130600Z AUTO 33012G20KT 9SM OVC030 M17/M22 A2977 RMK SLP096,CYOY,2015-02-13T06:00:00Z,46.88,-71.5,-17.0,-22.0,330,12,20,9.0,29.769686,1009.6,,TRUE,,,,,,,,OVC,3000,,,,,,,MVFR,,,,,,,,,,,,METAR,168.0
CYGV 130600Z AUTO 07006KT 9SM OVC030 M14/M18 A2969 RMK SLP057,CYGV,2015-02-13T06:00:00Z,50.27,-63.62,-14.0,-18.0,70,6,,9.0,29.68996,1005.7,,TRUE,,,,,,,,OVC,3000,,,,,,,MVFR,,,,,,,,,,,,METAR,33.0
CYBX 130600Z 02022G30KT 15SM OVC050 M16/M21 A2966 RMK SC8 SLP049,CYBX,2015-02-13T06:00:00Z,51.45,-57.17,-16.0,-21.0,20,22,30,15.0,29.660433,1004.9,,,,,,,,,,OVC,5000,,,,,,,VFR,,,,,,,,,,,,METAR,35.0
CYAH 130600Z AUTO VRB03KT 9SM CLR M37/M41 A2993 RMK SLP183,CYAH,2015-02-13T06:00:00Z,53.75,-73.67,-37.0,-41.0,0,3,,9.0,29.929134,1018.3,,TRUE,,,,,,,,CLR,,,,,,,,VFR,,,,,,,,,,,,METAR,306.0
CYWE 130600Z AUTO 06008KT 9SM CLR M39/M43 A3046 RMK SLP388,CYWE,2015-02-13T06:00:00Z,64.18,-114.08,-39.0,-43.0,60,8,,9.0,30.46063,1038.8,,TRUE,,,,,,,,CLR,,,,,,,,VFR,,,,,,,,,,,,METAR,371.0
CYVM 130600Z AUTO 22005KT 9SM CLR M38/M42 A3016 RMK SLP213,CYVM,2015-02-13T06:00:00Z,67.53,-64.02,-38.0,-42.0,220,5,,9.0,30.159449,1021.3,,TRUE,,,,,,,,CLR,,,,,,,,VFR,,,,,,,,,,,,METAR,6.0
CYRT 130600Z 36011KT 15SM IC BKN250 M37/M42 A3017 RMK CI5 SLP223,CYRT,2015-02-13T06:00:00Z,62.82,-92.12,-37.0,-42.0,360,11,,15.0,30.171259,1022.3,,,,,,,,,IC,BKN,25000,,,,,,,VFR,,,,,,,,,,,,METAR,32.0
CYHY 130600Z 07004KT 15SM FEW040 M25/M28 A3044 RMK SC2 FROIN SLP332,CYHY,2015-02-13T06:00:00Z,60.82,-115.77,-25.0,-28.0,70,4,,15.0,30.43996,1033.2,,,,,,,,,,FEW,4000,,,,,,,VFR,,,,,,,,,,,,METAR,166.0
CYFS 130600Z 00000KT 15SM BKN031 BKN040 M22/M26 A3043 RMK SC6SC1 SLP328,CYFS,2015-02-13T06:00:00Z,61.75,-121.22,-22.0,-26.0,0,0,,15.0,30.431103,1032.8,,,,,,,,,,BKN,3100,BKN,4000,,,,,VFR,,,,,,,,,,,,METAR,169.0
CYCO 130600Z 00000KT 10SM IC SKC M40/M44 A3076 RMK FROIN SLP420,CYCO,2015-02-13T06:00:00Z,67.82,-115.15,-40.0,-44.0,0,0,,10.0,30.758858,1042.0,,,,,,,,,IC,SKC,,,,,,,,VFR,,,,,,,,,,,,METAR,22.0
CYCB 130600Z 32013KT 10SM IC DRSN SKC M39/M43 A3066 RMK SLP390,CYCB,2015-02-13T06:00:00Z,69.08,-105.12,-39.0,-43.0,320,13,,10.0,30.661417,1039.0,,,,,,,,,IC DRSN,SKC,,,,,,,,VFR,,,,,,,,,,,,METAR,27.0
CWCA 130600Z CCA 33015G20KT 4SM -SN FEW020 OVC070 M20/M23 A2989 RMK SC2AS6 SLP124,CWCA,2015-02-13T06:00:00Z,53.7,-57.02,-20.0,-23.0,330,15,20,4.0,29.890747,1012.4,,,,,,,,,-SN,FEW,2000,OVC,7000,,,,,MVFR,,,,,,,,,,,,METAR,14.0
CYXH 130600Z AUTO 21009KT 9SM OVC120 04/02 A3006 RMK SLP200,CYXH,2015-02-13T06:00:00Z,50.02,-110.72,4.0,2.0,210,9,,9.0,30.059055,1020.0,,TRUE,,,,,,,,OVC,12000,,,,,,,VFR,,,,,,,,,,,,METAR,716.0
CYUX 130600Z AUTO 31010KT 9SM CLR M43/M47 A3028 RMK SLP255,CYUX,2015-02-13T06:00:00Z,68.77,-81.25,-43.0,-47.0,310,10,,9.0,30.280512,1025.5,,TRUE,,,,,,,,CLR,,,,,,,,VFR,,,,,,,,,,,,METAR,8.0
CYUS 130600Z AUTO 23003KT 9SM CLR M39/ A3039 RMK ICG PAST HR SLP300,CYUS,2015-02-13T06:00:00Z,68.82,-93.42,-39.0,,230,3,,9.0,30.389763,1030.0,,TRUE,,,,,,,,CLR,,,,,,,,VFR,,,,,,,,,,,,METAR,42.0
CYUB 130600Z 12013KT 15SM SCT080 M31/M37 A3031 RMK AS3 -27.1/-36.3/TR/25 TRACE LOOSE LAST OBS/NXT 131400UTC SLP265,CYUB,2015-02-13T06:00:00Z,69.45,-133.02,-31.0,-37.0,120,13,,15.0,30.31004,1026.5,,,,,,,,,,SCT,8000,,,,,,,VFR,,,,,,,,,,,,METAR,5.0
CYTH 130600Z 31005KT 15SM SKC M23/M25 A2999 RMK SLP186,CYTH,2015-02-13T06:00:00Z,55.78,-97.87,-23.0,-25.0,310,5,,15.0,29.991142,1018.6,,,,,,,,,,SKC,,,,,,,,VFR,,,,,,,,,,,,METAR,218.0
CYSM 130600Z 34004KT 15SM SKC M23/M26 A3038 RMK SLP316,CYSM,2015-02-13T06:00:00Z,60.03,-111.97,-23.0,-26.0,340,4,,15.0,30.380905,1031.6,,,,,,,,,,SKC,,,,,,,,VFR,,,,,,,,,,,,METAR,203.0
CYSF 130600Z AUTO VRB02KT 9SM CLR M26/M30 A3026 RMK SLP281,CYSF,2015-02-13T06:00:00Z,59.25,-105.82,-26.0,-30.0,0,2,,9.0,30.259842,1028.1,,TRUE,,,,,,,,CLR,,,,,,,,VFR,,,,,,,,,,,,METAR,250.0
CYQV 130600Z AUTO 32013KT 9SM -SN OVC010 M12/M13 A3004 RMK SLP220,CYQV,2015-02-13T06:00:00Z,51.27,-102.47,-12.0,-13.0,320,13,,9.0,30.041338,1022.0,,TRUE,,,,,,,-SN,OVC,1000,,,,,,,MVFR,,,,,,,,,,,,METAR,498.0
CYOD 130600Z 01002KT 15SM BKN061 M05/M07 A3006 RMK SC7 SLP217,CYOD,2015-02-13T06:00:00Z,54.4,-110.28,-5.0,-7.0,10,2,,15.0,30.059055,1021.7,,,,,,,,,,BKN,6100,,,,,,,VFR,,,,,,,,,,,,METAR,544.0
CYED 130600Z AUTO 26005KT 9SM CLR 01/M02 A3003 RMK SLP200,CYED,2015-02-13T06:00:00Z,53.67,-113.47,1.0,-2.0,260,5,,9.0,30.029528,1020.0,,TRUE,,,,,,,,CLR,,,,,,,,VFR,,,,,,,,,,,,METAR,688.0
CYCY 130600Z AUTO 29015KT 9SM CLR M35/M40 A3013 RMK SLP208,CYCY,2015-02-13T06:00:00Z,70.47,-68.52,-35.0,-40.0,290,15,,9.0,30.129921,1020.8,,TRUE,,,,,,,,CLR,,,,,,,,VFR,,,,,,,,,,,,METAR,26.0
CYBW 130600Z AUTO 27010KT 9SM SCT085 04/M01 A3007 RMK SLP213,CYBW,2015-02-13T06:00:00Z,51.1,-114.37,4.0,-1.0,270,10,,9.0,30.070866,1021.3,,TRUE,,,,,,,,SCT,8500,,,,,,,VFR,,,,,,,,,,,,METAR,1200.0
CWVD 130600Z AUTO 34013KT M31/ A2978 RMK SLP179,CWVD,2015-02-13T06:00:00Z,67.52,-63.77,-31.0,,340,13,,,29.778543,1017.9,,TRUE,,,,,,,,,,,,,,,,,,,,,,,,,,,,METAR,573.0
CWRF 130600Z AUTO ///// M37/ A3014 RMK SLP276,CWRF,2015-02-13T06:00:00Z,69.42,-89.72,-37.0,,,,,,30.138779,1027.6,,TRUE,,,,,,,,,,,,,,,,,,,,,,,,,,,,METAR,325.0
RJNK 130600Z 30020G30KT 3000 -SHSN FEW003 BKN005 OVC008 00/M03 Q1011,RJNK,2015-02-13T06:00:00Z,36.37,136.42,0.0,-3.0,300,20,30,1.86,29.852362,,,,,,,,,,-SHSN,FEW,300,BKN,500,OVC,800,,,IFR,,,,,,,,,,,,METAR,9.0
VTUU 130600Z VRB05KT 9000 NSC 31/15 Q1011 A2987,VTUU,2015-02-13T06:00:00Z,15.25,104.87,31.0,15.0,0,5,,5.59,29.852362,,,,,,,,,,,,,,,,,,,,,,,,,,,,,,,METAR,127.0
VTBO 130600Z 15010KT 7000 SCT022 30/21 Q1012,VTBO,2015-02-13T06:00:00Z,12.28,102.32,30.0,21.0,150,10,,4.35,29.88189,,,,,,,,,,,SCT,2200,,,,,,,MVFR,,,,,,,,,,,,METAR,32.0
VTSM 130600Z 15015KT 8000 FEW020 BKN300 30/22 Q1013 A2992,VTSM,2015-02-13T06:00:00Z,9.55,100.07,30.0,22.0,150,15,,4.97,29.911417,,,,,,,,,,,FEW,2000,BKN,30000,,,,,MVFR,,,,,,,,,,,,METAR,17.0
VTSB 130600Z 03007KT 7000 FEW020 31/22 Q1011 A2987,VTSB,2015-02-13T06:00:00Z,9.12,99.13,31.0,22.0,30,7,,4.35,29.852362,,,,,,,,,,,FEW,2000,,,,,,,MVFR,,,,,,,,,,,,METAR,11.0
VTPP 130600Z 20008KT 4000 HZ SCT020 BKN300 31/22 Q1010,VTPP,2015-02-13T06:00:00Z,16.78,100.28,31.0,22.0,200,8,,2.49,29.822834,,,,,,,,,,HZ,SCT,2000,BKN,30000,,,,,IFR,,,,,,,,,,,,METAR,44.0
VTCT 130600Z 16005KT 080V220 5000 HZ FEW025 28/18 Q1011 A2985 RMK/RWY03 INFO G,VTCT,2015-02-13T06:00:00Z,19.95,99.88,28.0,18.0,160,5,,3.11,29.852362,,,,,,,,,,HZ,FEW,2500,,,,,,,MVFR,,,,,,,,,,,,METAR,390.0
FXMM 130600Z 36010KT 9999 BKN080 22/10 Q1021 NOSIG,FXMM,2015-02-13T06:00:00Z,-29.47,27.55,22.0,10.0,360,10,,6.21,30.147638,,,,,,TRUE,,,,,BKN,8000,,,,,,,VFR,,,,,,,,,,,,METAR,1631.0
WADL 130600Z 27006KT 210V300 8000 FEW015CB SCT016 30/25 Q1008 NOSIG RMK CB TO E,WADL,2015-02-13T06:00:00Z,-8.75,116.28,30.0,25.0,270,6,,4.97,29.763779,,,,,,TRUE,,,,,FEW,1500,SCT,1600,,,,,MVFR,,,,,,,,,,,,METAR,97.0
UTAK 130600Z 25006MPS 9999 SCT010 BKN015 07/05 Q1018 NOSIG,UTAK,2015-02-13T06:00:00Z,40.05,53.0,7.0,5.0,250,12,,6.21,30.059055,,,,,,TRUE,,,,,SCT,1000,BKN,1500,,,,,MVFR,,,,,,,,,,,,METAR,85.0
EIME 130600Z 15016KT 9999 FEW021 BKN070 07/03 Q0992,EIME,2015-02-13T06:00:00Z,53.3,-6.45,7.0,3.0,150,16,,6.21,29.291338,,,,,,,,,,,FEW,2100,BKN,7000,,,,,VFR,,,,,,,,,,,,METAR,93.0
EIKY 130600Z 19008KT 9999 RA FEW023 SCT037 OVC043 07/05 Q0989,EIKY,2015-02-13T06:00:00Z,52.18,-9.52,7.0,5.0,190,8,,6.21,29.202755,,,,,,,,,,RA,FEW,2300,SCT,3700,OVC,4300,,,VFR,,,,,,,,,,,,METAR,34.0
UMOO 130600Z 28003MPS 5000 BR OVC005 M01/M02 Q1026 R31/920432 NOSIG RMK QBB170,UMOO,2015-02-13T06:00:00Z,53.95,30.1,-1.0,-2.0,280,6,,3.11,30.295275,,,,,,TRUE,,,,BR,OVC,500,,,,,,,IFR,,,,,,,,,,,,METAR,194.0
UMII 130600Z 28002MPS 4400 -FZDZ BR OVC008 M02/M03 Q1024 TEMPO 2000 BKN005,UMII,2015-02-13T06:00:00Z,55.13,30.35,-2.0,-3.0,280,4,,2.73,30.236221,,,,,,,,,,-FZDZ BR,OVC,800,,,,,,,IFR,,,,,,,,,,,,METAR,208.0
ZYHB 130600Z 17004MPS 3000 HZ NSC M07/M12 Q1012 BECMG TL0740 2500,ZYHB,2015-02-13T06:00:00Z,45.62,126.25,-7.0,-12.0,170,8,,1.86,29.88189,,,,,,,,,,HZ,,,,,,,,,,,,,,,,,,,,,METAR,140.0
ZYCC 130600Z 22005MPS CAVOK M02/M12 Q1013 NOSIG,ZYCC,2015-02-13T06:00:00Z,43.98,125.68,-2.0,-12.0,220,10,,6.21,29.911417,,,,,,TRUE,,,,,CAVOK,,,,,,,,VFR,,,,,,,,,,,,METAR,238.0
ZUCK 130600Z VRB01MPS 1700 HZ NSC 14/06 Q1015 NOSIG,ZUCK,2015-02-13T06:00:00Z,29.72,106.63,14.0,6.0,0,2,,1.06,29.970472,,,,,,TRUE,,,,HZ,,,,,,,,,,,,,,,,,,,,,METAR,351.0
ZSOF 130600Z 05002MPS 010V100 3000 HZ NSC 15/M02 Q1019 NOSIG,ZSOF,2015-02-13T06:00:00Z,31.78,117.3,15.0,-2.0,50,4,,1.86,30.088583,,,,,,TRUE,,,,HZ,,,,,,,,,,,,,,,,,,,,,METAR,33.0
AGGH 130600Z 02006KT 9999 FEW020 FEW021CB SCT040 BKN300 29/25 Q1006,AGGH,2015-02-13T06:00:00Z,-9.42,160.05,29.0,25.0,20,6,,6.21,29.704725,,,,,,,,,,,FEW,2000,FEW,2100,SCT,4000,BKN,30000,VFR,,,,,,,,,,,,METAR,9.0
YAYE 130600Z AUTO 08010KT 030V090 9999 // NCD 41/02 Q1011,YAYE,2015-02-13T06:00:00Z,-25.18,130.98,41.0,2.0,80,10,,6.21,29.852362,,,TRUE,,,,,,,,,,,,,,,,,,,,,,,,,,,,METAR,496.0
YARG 130600Z AUTO 13007KT 9999 // BKN100 37/13 Q1006,YARG,2015-02-13T06:00:00Z,-16.63,128.45,37.0,13.0,130,7,,6.21,29.704725,,,TRUE,,,,,,,,BKN,10000,,,,,,,VFR,,,,,,,,,,,,METAR,165.0
YABA 130600Z 18011KT CAVOK 28/18 Q1005,YABA,2015-02-13T06:00:00Z,-34.93,117.8,28.0,18.0,180,11,,6.21,29.675198,,,,,,,,,,,CAVOK,,,,,,,,VFR,,,,,,,,,,,,METAR,69.0
FMNN 130600Z 16002KT 9999 SCT020 29/26 Q1012,FMNN,2015-02-13T06:00:00Z,-13.32,48.32,29.0,26.0,160,2,,6.21,29.88189,,,,,,,,,,,SCT,2000,,,,,,,VFR,,,,,,,,,,,,METAR,9.0
DTTL 130600Z 00000KT 8000 FEW020 07/07 Q1021,DTTL,2015-02-13T06:00:00Z,36.85,11.07,7.0,7.0,0,0,,4.97,30.147638,,,,,,,,,,,FEW,2000,,,,,,,MVFR,,,,,,,,,,,,METAR,30.0
CZEL 130600Z AUTO 35006KT M21/M24 RMK AO1 1002 SLP250 T12081240 50008,CZEL,2015-02-13T06:00:00Z,43.65,-80.42,-20.8,-24.0,350,6,,,,1025.0,,TRUE,TRUE,,,,,,,,,,,,,,,,0.8,,,,,,,,,,,METAR,376.0
CXBI 130600Z AUTO 34009KT M22/M27 RMK AO1 2009 PK WND 33017/0524 SLP251 T12241268 50002,CXBI,2015-02-13T06:00:00Z,44.48,-79.55,-22.4,-26.8,340,9,,,,1025.1,,TRUE,TRUE,,,,,,,,,,,,,,,,0.2,,,,,,,,,,,METAR,289.0
CTNK 130600Z AUTO 33002KT M26/M30 RMK AO1 SOG 54 3004 SLP227 T12621297 50002,CTNK,2015-02-13T06:00:00Z,45.53,-78.27,-26.2,-29.7,330,2,,,,1022.7,,TRUE,TRUE,,,,,,,,,,,,,,,,0.2,,,,,,,,,,,METAR,410.0
CWXA 130600Z AUTO 24006KT 07/M02 RMK AO1 SLP198 T00691019 53003,CWXA,2015-02-13T06:00:00Z,51.07,-115.07,6.9,-1.9,240,6,,,,1019.8,,TRUE,TRUE,,,,,,,,,,,,,,,,0.3,,,,,,,,,,,METAR,1298.0
CWWF 130600Z AUTO 32007KT M11/M12 RMK AO1 SOG 08 4000 SLP218 T11091117,CWWF,2015-02-13T06:00:00Z,49.7,-103.8,-10.9,-11.7,320,7,,,,1021.8,,TRUE,TRUE,,,,,,,,,,,,,,,,,,,,,,,,,,,METAR,589.0
CWWA 130600Z AUTO 02001KT 10/08 RMK AO1 SOG 00 8007 SLP249 T00980083,CWWA,2015-02-13T06:00:00Z,49.35,-123.17,9.8,8.3,20,1,,,,1024.9,,TRUE,TRUE,,,,,,,,,,,,,,,,,,,,,,,,,,,METAR,178.0
CWVU 130600Z AUTO 32015KT M05/M07 RMK AO1 6018 PK WND 32019/0556 SLP038 T10511068 50002,CWVU,2015-02-13T06:00:00Z,44.28,-66.33,-5.1,-6.8,320,15,,,,1003.8,,TRUE,TRUE,,,,,,,,,,,,,,,,0.2,,,,,,,,,,,METAR,16.0
CWVQ 130600Z AUTO 29009KT M19/M24 RMK AO1 SOG 33 3018 SLP161 T11881235 50002,CWVQ,2015-02-13T06:00:00Z,45.42,-73.92,-18.8,-23.5,290,9,,,,1016.1,,TRUE,TRUE,,,,,,,,,,,,,,,,0.2,,,,,,,,,,,METAR,39.0
CWVP 130600Z AUTO 30005KT 06/M02 RMK AO1 SLP191 T00571019 57007,CWVP,2015-02-13T06:00:00Z,49.63,-109.52,5.7,-1.9,300,5,,,,1019.1,,TRUE,TRUE,,,,,,,,,,,,,,,,-0.7,,,,,,,,,,,METAR,1271.0
CWVN 130600Z AUTO 23002KT M03/M04 RMK AO1 SLP216 T10331040 56009,CWVN,2015-02-13T06:00:00Z,49.07,-107.57,-3.3,-4.0,230,2,,,,1021.6,,TRUE,TRUE,,,,,,,,,,,,,,,,-0.9,,,,,,,,,,,METAR,785.0
CWVI 130600Z AUTO 06001KT M05/M05 RMK AO1 SLP204 T10481048 51007,CWVI,2015-02-13T06:00:00Z,53.52,-112.1,-4.8,-4.8,60,1,,,,1020.4,,TRUE,TRUE,,,,,,,,,,,,,,,,0.7,,,,,,,,,,,METAR,639.0
CWVF 130600Z AUTO 11007KT 10/10 RMK AO1 T01000097,CWVF,2015-02-13T06:00:00Z,49.1,-123.3,10.0,9.7,110,7,,,,,,TRUE,TRUE,,,,,,,,,,,,,,,,,,,,,,,,,,,METAR,1.0
CWUX 130600Z AUTO 27015G22KT M21/M24 RMK AO1 PK WND 28022/0557 SLP110 T12111243 51010,CWUX,2015-02-13T06:00:00Z,48.3,-70.93,-21.1,-24.3,270,15,22,,,1011.0,,TRUE,TRUE,,,,,,,,,,,,,,,,1.0,,,,,,,,,,,METAR,135.0
CWUS 130600Z AUTO 29004KT 07/06 RMK AO1 0007 SLP270 T00730059 50002,CWUS,2015-02-13T06:00:00Z,49.57,-119.65,7.3,5.9,290,4,,,,1027.0,,TRUE,TRUE,,,,,,,,,,,,,,,,0.2,,,,,,,,,,,METAR,454.0
CWTY 130600Z AUTO 33010G15KT M18/M22 RMK AO1 1015 PK WND 32019/0518 SLP135 T11771224 50010,CWTY,2015-02-13T06:00:00Z,46.35,-72.52,-17.7,-22.4,330,10,15,,,1013.5,,TRUE,TRUE,,,,,,,,,,,,,,,,1.0,,,,,,,,,,,METAR,6.0
CWTT 130600Z AUTO 32010G15KT M17/M20 RMK AO1 PK WND 31018/0524 T11711195,CWTT,2015-02-13T06:00:00Z,45.27,-72.17,-17.1,-19.5,320,10,15,,,,,TRUE,TRUE,,,,,,,,,,,,,,,,,,,,,,,,,,,METAR,209.0
CWTN 130600Z AUTO 01010G15KT M15/M23 RMK AO1 SLP091 T11511226 56002,CWTN,2015-02-13T06:00:00Z,47.07,-70.78,-15.1,-22.6,10,10,15,,,1009.1,,TRUE,TRUE,,,,,,,,,,,,,,,,-0.2,,,,,,,,,,,METAR,6.0
CWTG 130600Z AUTO 33005KT M15/M17 RMK AO1 SLP054 T11541172 58012,CWTG,2015-02-13T06:00:00Z,49.32,-67.37,-15.4,-17.2,330,5,,,,1005.4,,TRUE,TRUE,,,,,,,,,,,,,,,,-1.2,,,,,,,,,,,METAR,5.0
CWTA 130600Z AUTO 27002KT M17/M22 RMK AO1 SLP145 T11691218 51016,CWTA,2015-02-13T06:00:00Z,45.5,-73.58,-16.9,-21.8,270,2,,,,1014.5,,TRUE,TRUE,,,,,,,,,,,,,,,,1.6,,,,,,,,,,,METAR,63.0
CWJH 130600Z AUTO 31004KT M19/M22 RMK AO1 SOG 43 3022 SLP234 T11891217,CWJH,2015-02-13T06:00:00Z,56.32,-103.27,-18.9,-21.7,310,4,,,,1023.4,,TRUE,TRUE,,,,,,,,,,,,,,,,,,,,,,,,,,,METAR,344.0
CWJB 130600Z AUTO 30005KT M16/M21 RMK AO1 SOG 48 T11581207,CWJB,2015-02-13T06:00:00Z,46.78,-71.27,-15.8,-20.7,300,5,,,,,,TRUE,TRUE,,,,,,,,,,,,,,,,,,,,,,,,,,,METAR,91.0
CWIZ 130600Z AUTO 27006KT M17/M20 RMK AO1 T11721195 50011,CWIZ,2015-02-13T06:00:00Z,45.28,-73.33,-17.2,-19.5,270,6,,,,,,TRUE,TRUE,,,,,,,,,,,,,,,,1.1,,,,,,,,,,,METAR,45.0
CWIW 130600Z AUTO 34005KT M08/M10 RMK AO1 SOG 03 3005 SLP225 T10811099,CWIW,2015-02-13T06:00:00Z,51.67,-105.4,-8.1,-9.9,340,5,,,,1022.5,,TRUE,TRUE,,,,,,,,,,,,,,,,,,,,,,,,,,,METAR,526.0
CWIT 130600Z AUTO 27007KT M19/M22 RMK AO1 3018 SLP152 T11911218 50002,CWIT,2015-02-13T06:00:00Z,45.17,-73.67,-19.1,-21.8,270,7,,,,1015.2,,TRUE,TRUE,,,,,,,,,,,,,,,,0.2,,,,,,,,,,,METAR,52.0
CWIS 130600Z AUTO 08004KT M22/M24 RMK AO1 SOG 99 6006 SLP054 T12171238 50005,CWIS,2015-02-13T06:00:00Z,47.28,-70.63,-21.7,-23.8,80,4,,,,1005.4,,TRUE,TRUE,,,,,,,,,,,,,,,,0.5,,,,,,,,,,,METAR,719.0
CWIP 130600Z AUTO 05003KT M13/ RMK AO1 T1131,CWIP,2015-02-13T06:00:00Z,50.17,-66.43,-13.1,,50,3,,,,,,TRUE,TRUE,,,,,,,,,,,,,,,,,,,,,,,,,,,METAR,25.0
CWII 130600Z AUTO 23013KT M16/M18 RMK AO1 T11601180,CWII,2015-02-13T06:00:00Z,50.7,-96.57,-16.0,-18.0,230,13,,,,,,TRUE,TRUE,,,,,,,,,,,,,,,,,,,,,,,,,,,METAR,220.0
CWIG 130600Z AUTO 31009KT RMK AO1,CWIG,2015-02-13T06:00:00Z,47.07,-70.53,,,310,9,,,,,,TRUE,TRUE,,,,,,,,,,,,,,,,,,,,,,,,,,,METAR,18.0
CWHV 130600Z AUTO 30004KT M16/M19 RMK AO1 SLP076 T11601189 56002,CWHV,2015-02-13T06:00:00Z,46.2,-70.77,-16.0,-18.9,300,4,,,,1007.6,,TRUE,TRUE,,,,,,,,,,,,,,,,-0.2,,,,,,,,,,,METAR,229.0
CWHQ 130600Z AUTO 32012G19KT M18/M22 RMK AO1 9PAST HR M PK WND 32019/0558 P0007 T11791221 50019,CWHQ,2015-02-13T06:00:00Z,46.68,-71.97,-17.9,-22.1,320,12,19,,,,,TRUE,TRUE,,,,,,,,,,,,,,,,1.9,,,,,0.07,,,,,,METAR,55.0
CWHM 130600Z AUTO 32011KT M18/M23 RMK AO1 PK WND 32017/0500 T11781229,CWHM,2015-02-13T06:00:00Z,45.72,-73.37,-17.8,-22.9,320,11,,,,,,TRUE,TRUE,,,,,,,,,,,,,,,,,,,,,,,,,,,METAR,192.0
CWHL 130600Z AUTO 14018G23KT 11/08 RMK AO1 3012 PK WND 13033/0532 SLP124 T01070077 50006,CWHL,2015-02-13T06:00:00Z,54.17,-130.35,10.7,7.7,140,18,23,,,1012.4,,TRUE,TRUE,,,,,,,,,,,,,,,,0.6,,,,,,,,,,,METAR,5.0
CWGY 130600Z AUTO 23008KT M02/M06 RMK AO1 SLP217 T10231057 53003,CWGY,2015-02-13T06:00:00Z,51.67,-110.2,-2.3,-5.7,230,8,,,,1021.7,,TRUE,TRUE,,,,,,,,,,,,,,,,0.3,,,,,,,,,,,METAR,707.0
CWGX 130600Z AUTO 24001KT M25/M28 RMK AO1 6013 SLP168 T12541281 50002,CWGX,2015-02-13T06:00:00Z,56.35,-94.7,-25.4,-28.1,240,1,,,,1016.8,,TRUE,TRUE,,,,,,,,,,,,,,,,0.2,,,,,,,,,,,METAR,145.0
CWGW 130600Z AUTO 16008KT 07/02 RMK AO1 SOG 01 5001 SLP248 T00680016,CWGW,2015-02-13T06:00:00Z,49.75,-114.9,6.8,1.6,160,8,,,,1024.8,,TRUE,TRUE,,,,,,,,,,,,,,,,,,,,,,,,,,,METAR,1137.0
CWGR 130600Z AUTO 33005KT M07/M08 RMK AO1 SLP005 T10711080 58012,CWGR,2015-02-13T06:00:00Z,47.42,-61.8,-7.1,-8.0,330,5,,,,1000.5,,TRUE,TRUE,,,,,,,,,,,,,,,,-1.2,,,,,,,,,,,METAR,60.0
CWRN 130600Z AUTO 26002KT M06/ RMK AO1 T1059,CWRN,2015-02-13T06:00:00Z,45.35,-60.98,-5.9,,260,2,,,,,,TRUE,TRUE,,,,,,,,,,,,,,,,,,,,,,,,,,,METAR,8.0
CWHO 130600Z AUTO 36017G22KT M23/M26 RMK AO1 22 0549Z 8016 SLP179 T12341255 50110,CWHO,2015-02-13T06:00:00Z,55.45,-60.22,-23.4,-25.5,360,17,22,,,1017.9,,TRUE,TRUE,,,,,,,,,,,,,,,,0.0,,,,,,,,,,,METAR,8.0
CWBV 130600Z AUTO 05006KT M05/M08 RMK AO1 SLP009 T10531075 58024,CWBV,2015-02-13T06:00:00Z,44.82,-62.32,-5.3,-7.5,50,6,,,,1000.9,,TRUE,TRUE,,,,,,,,,,,,,,,,-2.4,,,,,,,,,,,METAR,10.0
CWNH 130600Z AUTO 32008KT M16/M19 RMK AO1 SOG 37 6006 SLP074 T11601194,CWNH,2015-02-13T06:00:00Z,47.78,-69.53,-16.0,-19.4,320,8,,,,1007.4,,TRUE,TRUE,,,,,,,,,,,,,,,,,,,,,,,,,,,METAR,148.0
CWBY 130600Z AUTO 04002KT M15/M18 RMK AO1 SOG 18 6016 SLP045 T11541177,CWBY,2015-02-13T06:00:00Z,49.82,-64.28,-15.4,-17.7,40,2,,,,1004.5,,TRUE,TRUE,,,,,,,,,,,,,,,,,,,,,,,,,,,METAR,53.0
CWER 130600Z AUTO 35007KT RMK AO1,CWER,2015-02-13T06:00:00Z,47.0,-70.82,,,350,7,,,,,,TRUE,TRUE,,,,,,,,,,,,,,,,,,,,,,,,,,,METAR,5.0
CWEP 130600Z AUTO 00000KT M09/M10 RMK AO1 PRESFR SLP002 T10921103 58027,CWEP,2015-02-13T06:00:00Z,46.45,-61.97,-9.2,-10.3,0,0,,,,1000.2,,TRUE,TRUE,,,,,,,,,,,,,,,,-2.7,,,,,,,,,,,METAR,11.0
CWPK 130600Z AUTO 31008KT M29/M33 RMK AO1 SOG 50 1001 SLP167 T12861329 50002,CWPK,2015-02-13T06:00:00Z,47.92,-74.62,-28.6,-32.9,310,8,,,,1016.7,,TRUE,TRUE,,,,,,,,,,,,,,,,0.2,,,,,,,,,,,METAR,442.0
CWSF 130600Z AUTO 17005KT M13/M15 RMK AO1 SLP037 T11341147 56021,CWSF,2015-02-13T06:00:00Z,49.25,-65.32,-13.4,-14.7,170,5,,,,1003.7,,TRUE,TRUE,,,,,,,,,,,,,,,,-2.1,,,,,,,,,,,METAR,29.0
CWDM 130600Z AUTO 02012KT M17/M21 RMK AO1 SOG 76 6017 SLP060 T11701208,CWDM,2015-02-13T06:00:00Z,50.47,-59.62,-17.0,-20.8,20,12,,,,1006.0,,TRUE,TRUE,,,,,,,,,,,,,,,,,,,,,,,,,,,METAR,6.0
CXSL 130600Z AUTO 07002KT M02/M04 RMK AO1 T10201039,CXSL,2015-02-13T06:00:00Z,54.28,-112.5,-2.0,-3.9,70,2,,,,,,TRUE,TRUE,,,,,,,,,,,,,,,,,,,,,,,,,,,METAR,680.0
CPXL 130600Z AUTO 21005KT 04/01 RMK AO1 T00360013,CPXL,2015-02-13T06:00:00Z,49.87,-111.38,3.6,1.3,210,5,,,,,,TRUE,TRUE,,,,,,,,,,,,,,,,,,,,,,,,,,,METAR,799.0
CPSV 130600Z AUTO 22006KT 04/02 RMK AO1 T00400016,CPSV,2015-02-13T06:00:00Z,49.92,-110.92,4.0,1.6,220,6,,,,,,TRUE,TRUE,,,,,,,,,,,,,,,,,,,,,,,,,,,METAR,766.0
CPST 130600Z AUTO 35008KT 05/01 RMK AO1 T00490005,CPST,2015-02-13T06:00:00Z,51.03,-113.28,4.9,0.5,350,8,,,,,,TRUE,TRUE,,,,,,,,,,,,,,,,,,,,,,,,,,,METAR,967.0
CWDZ 130600Z AUTO 35003KT M03/M05 RMK AO1 SLP215 T10281051 53009,CWDZ,2015-02-13T06:00:00Z,51.42,-112.67,-2.8,-5.1,350,3,,,,1021.5,,TRUE,TRUE,,,,,,,,,,,,,,,,0.9,,,,,,,,,,,METAR,678.0
CWDK 130600Z AUTO 08/M00 RMK AO1 SOG 00 3003 SLP199 T00771003,CWDK,2015-02-13T06:00:00Z,50.02,-113.62,7.7,-0.3,,,,,,1019.9,,TRUE,TRUE,,,,,,,,,,,,,,,,,,,,,,,,,,,METAR,1012.0
CWDJ 130600Z AUTO 33003KT M12/M14 RMK AO1 SOG 02 3004 SLP223 T11171135,CWDJ,2015-02-13T06:00:00Z,50.4,-104.58,-11.7,-13.5,330,3,,,,1022.3,,TRUE,TRUE,,,,,,,,,,,,,,,,,,,,,,,,,,,METAR,573.0
CWCJ 130600Z AUTO 06005KT M29/M32 RMK AO1 SLP266 T12871317 56025,CWCJ,2015-02-13T06:00:00Z,48.6,-86.28,-28.7,-31.7,60,5,,,,1026.6,,TRUE,TRUE,,,,,,,,,,,,,,,,-2.5,,,,,,,,,,,METAR,206.0
CWBZ 130600Z AUTO 28008KT M20/M24 RMK AO1 SLP179 T11991239 53014,CWBZ,2015-02-13T06:00:00Z,45.12,-74.27,-19.9,-23.9,280,8,,,,1017.9,,TRUE,TRUE,,,,,,,,,,,,,,,,1.4,,,,,,,,,,,METAR,49.0
CWBT 130600Z AUTO 06004KT M13/M17 RMK AO1 SLP059 T11341171 57010,CWBT,2015-02-13T06:00:00Z,50.27,-64.23,-13.4,-17.1,60,4,,,,1005.9,,TRUE,TRUE,,,,,,,,,,,,,,,,-1.0,,,,,,,,,,,METAR,11.0
CWBS 130600Z AUTO 32013KT M19/M25 RMK AO1 PK WND 32020/0548 T11851251,CWBS,2015-02-13T06:00:00Z,46.18,-72.92,-18.5,-25.1,320,13,,,,,,TRUE,TRUE,,,,,,,,,,,,,,,,,,,,,,,,,,,METAR,16.0
CWBA 130600Z AUTO 32010G17KT M25/M27 RMK AO1 SOG 61 PK WND 31018/0505 T12471269,CWBA,2015-02-13T06:00:00Z,46.72,-79.1,-24.7,-26.9,320,10,17,,,,,TRUE,TRUE,,,,,,,,,,,,,,,,,,,,,,,,,,,METAR,181.0
CWAV 130600Z AUTO 15002KT 02/M01 RMK AO1 SOG 11 3010 SLP216 T00221012,CWAV,2015-02-13T06:00:00Z,51.77,-114.67,2.2,-1.2,150,2,,,,1021.6,,TRUE,TRUE,,,,,,,,,,,,,,,,,,,,,,,,,,,METAR,1114.0
CWAQ 130600Z AUTO 36001KT M00/M02 RMK AO1 SLP203 T10021015 58003,CWAQ,2015-02-13T06:00:00Z,49.05,-105.48,-0.2,-1.5,360,1,,,,1020.3,,TRUE,TRUE,,,,,,,,,,,,,,,,-0.3,,,,,,,,,,,METAR,756.0
CWAF 130600Z AUTO M13/M15 RMK AO1 T11341153,CWAF,2015-02-13T06:00:00Z,48.07,-69.53,-13.4,-15.3,,,,,,,,TRUE,TRUE,,,,,,,,,,,,,,,,,,,,,,,,,,,METAR,5.0
CXKE 130600Z AUTO 29005KT M22/M27 RMK AO1 SOG 28 1012 SLP194 T12161268,CXKE,2015-02-13T06:00:00Z,45.0,-75.63,-21.6,-26.8,290,5,,,,1019.4,,TRUE,TRUE,,,,,,,,,,,,,,,,,,,,,,,,,,,METAR,99.0
CXKA 130600Z AUTO 18001KT M37/M40 RMK AO1 SOG 72 8018 SLP283 T13651404,CXKA,2015-02-13T06:00:00Z,49.4,-82.45,-36.5,-40.4,180,1,,,,1028.3,,TRUE,TRUE,,,,,,,,,,,,,,,,,,,,,,,,,,,METAR,218.0
CWZS 130600Z AUTO 35008KT M16/M18 RMK AO1 SLP041 T11601177 58011,CWZS,2015-02-13T06:00:00Z,48.47,-67.43,-16.0,-17.7,350,8,,,,1004.1,,TRUE,TRUE,,,,,,,,,,,,,,,,-1.1,,,,,,,,,,,METAR,166.0
CWZO 130600Z AUTO 34006KT RMK AO1,CWZO,2015-02-13T06:00:00Z,48.55,-123.23,,,340,6,,,,,,TRUE,TRUE,,,,,,,,,,,,,,,,,,,,,,,,,,,METAR,1.0
CWZA 130600Z AUTO 05001KT 09/09 RMK AO1 1001 SLP261 T00900088 50004,CWZA,2015-02-13T06:00:00Z,49.25,-121.77,9.0,8.8,50,1,,,,1026.1,,TRUE,TRUE,,,,,,,,,,,,,,,,0.4,,,,,,,,,,,METAR,15.0
CWYY 130600Z AUTO 11002KT 08/07 RMK AO1 SOG 00 1009 SLP271 T00830070,CWYY,2015-02-13T06:00:00Z,49.03,-119.43,8.3,7.0,110,2,,,,1027.1,,TRUE,TRUE,,,,,,,,,,,,,,,,,,,,,,,,,,,METAR,283.0
CWYL 130600Z AUTO 26015KT 01/01 RMK AO1 SOG 91 3012 PK WND 26019/0508 SLP256 T00050005 50003,CWYL,2015-02-13T06:00:00Z,51.45,-116.32,0.5,0.5,260,15,,,,1025.6,,TRUE,TRUE,,,,,,,,,,,,,,,,0.3,,,,,,,,,,,METAR,1615.0
CWYJ 130600Z AUTO 35004KT 09/09 RMK AO1 5002 SLP251 T00900087 50014,CWYJ,2015-02-13T06:00:00Z,48.45,-123.3,9.0,8.7,350,4,,,,1025.1,,TRUE,TRUE,,,,,,,,,,,,,,,,1.4,,,,,,,,,,,METAR,39.0
CWIK 130600Z AUTO 31010KT M09/M11 RMK AO1 SOG 11 6002 SLP202 T10871106,CWIK,2015-02-13T06:00:00Z,50.37,-102.58,-8.7,-10.6,310,10,,,,1020.2,,TRUE,TRUE,,,,,,,,,,,,,,,,,,,,,,,,,,,METAR,602.0
CWBU 130600Z AUTO 27005KT M12/M14 RMK AO1 SOG 24 1007 SLP224 T11161136,CWBU,2015-02-13T06:00:00Z,53.33,-104.02,-11.6,-13.6,270,5,,,,1022.4,,TRUE,TRUE,,,,,,,,,,,,,,,,,,,,,,,,,,,METAR,373.0
CWMQ 130600Z AUTO 24005KT 01/M00 RMK AO1 SOG 00 5007 SLP204 T00121003,CWMQ,2015-02-13T06:00:00Z,49.9,-109.47,1.2,-0.3,240,5,,,,1020.4,,TRUE,TRUE,,,,,,,,,,,,,,,,,,,,,,,,,,,METAR,767.0
CWMJ 130600Z AUTO 32005KT M24/M29 RMK AO1 SOG 36 3007 SLP198 T12421288,CWMJ,2015-02-13T06:00:00Z,46.27,-76.0,-24.2,-28.8,320,5,,,,1019.8,,TRUE,TRUE,,,,,,,,,,,,,,,,,,,,,,,,,,,METAR,200.0
CWLC 130600Z AUTO 13027KT 10/08 RMK AO1 PK WND 13032/0523 T01040084,CWLC,2015-02-13T06:00:00Z,54.3,-130.62,10.4,8.4,130,27,,,,,,TRUE,TRUE,,,,,,,,,,,,,,,,,,,,,,,,,,,METAR,27.0
CWKX 130600Z AUTO 07009KT M04/M05 RMK AO1 2PAST HR SOG 48 8003 SLP146 P0001 T10381047 50005,CWKX,2015-02-13T06:00:00Z,58.43,-130.02,-3.8,-4.7,70,9,,,,1014.6,,TRUE,TRUE,,,,,,,,,,,,,,,,0.5,,,,,0.01,,,,,,METAR,793.0
CWKH 130600Z AUTO 08/07 RMK AO1 5003 SLP243 T00750069 50014,CWKH,2015-02-13T06:00:00Z,48.57,-123.55,7.5,6.9,,,,,,1024.3,,TRUE,TRUE,,,,,,,,,,,,,,,,1.4,,,,,,,,,,,METAR,366.0
CWKG 130600Z AUTO 22001KT M08/M09 RMK AO1 SOG 50 6030 SLP009 T10821091,CWKG,2015-02-13T06:00:00Z,44.43,-65.2,-8.2,-9.1,220,1,,,,1000.9,,TRUE,TRUE,,,,,,,,,,,,,,,,,,,,,,,,,,,METAR,165.0
CWJX 130600Z AUTO 17003KT M05/M06 RMK AO1 SOG 03 5004 SLP215 T10451055,CWJX,2015-02-13T06:00:00Z,50.88,-109.5,-4.5,-5.5,170,3,,,,1021.5,,TRUE,TRUE,,,,,,,,,,,,,,,,,,,,,,,,,,,METAR,672.0
CWJW 130600Z AUTO 20001KT 03/00 RMK AO1 SOG 24 1014 SLP227 T00270000,CWJW,2015-02-13T06:00:00Z,52.93,-118.03,2.7,0.0,200,1,,,,1022.7,,TRUE,TRUE,,,,,,,,,,,,,,,,,,,,,,,,,,,METAR,1020.0
CWJV 130600Z AUTO 10004KT 04/04 RMK AO1 SLP273 T00360035 51010,CWJV,2015-02-13T06:00:00Z,50.22,-119.18,3.6,3.5,100,4,,,,1027.3,,TRUE,TRUE,,,,,,,,,,,,,,,,1.0,,,,,,,,,,,METAR,556.0
CWJT 130600Z AUTO 31003KT M22/M26 RMK AO1 SLP172 T12221264 51010,CWJT,2015-02-13T06:00:00Z,46.07,-74.57,-22.2,-26.4,310,3,,,,1017.2,,TRUE,TRUE,,,,,,,,,,,,,,,,1.0,,,,,,,,,,,METAR,239.0
CWJR 130600Z AUTO 12003KT 03/03 RMK AO1 SLP289 T00340031 53007,CWJR,2015-02-13T06:00:00Z,49.07,-116.5,3.4,3.1,120,3,,,,1028.9,,TRUE,TRUE,,,,,,,,,,,,,,,,0.7,,,,,,,,,,,METAR,646.0
CWJO 130600Z AUTO 27015G21KT M21/M24 RMK AO1 PK WND 28023/0513 SLP121 T12071235 51008,CWJO,2015-02-13T06:00:00Z,48.43,-71.15,-20.7,-23.5,270,15,21,,,1012.1,,TRUE,TRUE,,,,,,,,,,,,,,,,0.8,,,,,,,,,,,METAR,133.0
CWJI 130600Z AUTO 28003KT M01/M03 RMK AO1 SOG 02 5001 SLP210 T10071026,CWJI,2015-02-13T06:00:00Z,49.72,-105.92,-0.7,-2.6,280,3,,,,1021.0,,TRUE,TRUE,,,,,,,,,,,,,,,,,,,,,,,,,,,METAR,724.0
CWWZ 130600Z AUTO 33018G24KT M13/M16 RMK AO1 SOG 08 3008 PK WND 32027/0507 SLP255 T11311157 50002,CWWZ,2015-02-13T06:00:00Z,43.25,-79.22,-13.1,-15.7,330,18,24,,,1025.5,,TRUE,TRUE,,,,,,,,,,,,,,,,0.2,,,,,,,,,,,METAR,79.0
CWPO 130600Z AUTO 24007KT M14/M15 RMK AO1 SLP207 T11361154 56016,CWPO,2015-02-13T06:00:00Z,49.2,-98.9,-13.6,-15.4,240,7,,,,1020.7,,TRUE,TRUE,,,,,,,,,,,,,,,,-1.6,,,,,,,,,,,METAR,470.0
CWPC 130600Z AUTO 31009KT M19/M24 RMK AO1 SLP258 T11881242 53004,CWPC,2015-02-13T06:00:00Z,42.87,-79.25,-18.8,-24.2,310,9,,,,1025.8,,TRUE,TRUE,,,,,,,,,,,,,,,,0.4,,,,,,,,,,,METAR,184.0
CWBE 130600Z AUTO 32004KT M22/M28 RMK AO1 SLP286 T12151278 51004,CWBE,2015-02-13T06:00:00Z,45.98,-81.48,-21.5,-27.8,320,4,,,,1028.6,,TRUE,TRUE,,,,,,,,,,,,,,,,0.4,,,,,,,,,,,METAR,196.0
CWAJ 130600Z AUTO 28007KT M16/M23 RMK AO1 SLP280 T11641226 57003,CWAJ,2015-02-13T06:00:00Z,42.25,-81.9,-16.4,-22.6,280,7,,,,1028.0,,TRUE,TRUE,,,,,,,,,,,,,,,,-0.3,,,,,,,,,,,METAR,178.0
CWNZ 130600Z AUTO 17002KT M33/M37 RMK AO1 8026 SLP262 T13331366 50002,CWNZ,2015-02-13T06:00:00Z,49.75,-84.17,-33.3,-36.6,170,2,,,,1026.2,,TRUE,TRUE,,,,,,,,,,,,,,,,0.2,,,,,,,,,,,METAR,256.0
CWDQ 130600Z AUTO 33009KT M22/M26 RMK AO1 SOG 40 1007 SLP145 T12171263,CWDQ,2015-02-13T06:00:00Z,47.42,-72.78,-21.7,-26.3,330,9,,,,1014.5,,TRUE,TRUE,,,,,,,,,,,,,,,,,,,,,,,,,,,METAR,169.0
CWWB 130600Z AUTO 24004KT M18/M22 RMK AO1 SLP264 T11781217 51007,CWWB,2015-02-13T06:00:00Z,43.3,-79.78,-17.8,-21.7,240,4,,,,1026.4,,TRUE,TRUE,,,,,,,,,,,,,,,,0.7,,,,,,,,,,,METAR,76.0
CXKT 130600Z AUTO 13001KT M08/M09 RMK AO1 SOG 46 5022 SLP012 T10821093,CXKT,2015-02-13T06:00:00Z,45.07,-64.48,-8.2,-9.3,130,1,,,,1001.2,,TRUE,TRUE,,,,,,,,,,,,,,,,,,,,,,,,,,,METAR,49.0
CXBK 130600Z AUTO 32005KT M12/M13 RMK AO1 SOG 12 3003 SLP208 T11191129,CXBK,2015-02-13T06:00:00Z,50.2,-104.7,-11.9,-12.9,320,5,,,,1020.8,,TRUE,TRUE,,,,,,,,,,,,,,,,,,,,,,,,,,,METAR,580.0
CXSH 130600Z AUTO 32015G22KT M19/M26 RMK AO1 PK WND 34026/0539 SLP124 T11911256 51011,CXSH,2015-02-13T06:00:00Z,46.58,-72.73,-19.1,-25.6,320,15,22,,,1012.4,,TRUE,TRUE,,,,,,,,,,,,,,,,1.1,,,,,,,,,,,METAR,110.0
CXQT 130600Z AUTO 00000KT 18/02 RMK AO1 T01750015,CXQT,2015-02-13T06:00:00Z,48.43,-89.22,17.5,1.5,0,0,,,,,,TRUE,TRUE,,,,,,,,,,,,,,,,,,,,,,,,,,,METAR,183.0
CXOX 130600Z AUTO 30003KT M11/M13 RMK AO1 SOG 48 3013 SLP227 T11121133,CXOX,2015-02-13T06:00:00Z,55.15,-105.27,-11.2,-13.3,300,3,,,,1022.7,,TRUE,TRUE,,,,,,,,,,,,,,,,,,,,,,,,,,,METAR,379.0
CXNM 130600Z AUTO 20002KT M09/M10 RMK AO1 SOG 158 T10891098,CXNM,2015-02-13T06:00:00Z,46.82,-60.67,-8.9,-9.8,200,2,,,,,,TRUE,TRUE,,,,,,,,,,,,,,,,,,,,,,,,,,,METAR,439.0
CXMI 130600Z AUTO 36003KT M07/M09 RMK AO1 SLP017 T10691087 55021,CXMI,2015-02-13T06:00:00Z,44.6,-63.53,-6.9,-8.7,360,3,,,,1001.7,,TRUE,TRUE,,,,,,,,,,,,,,,,-2.1,,,,,,,,,,,METAR,15.0
CXIB 130600Z AUTO 18001KT M06/M08 RMK AO1 SLP017 T10611084 58005,CXIB,2015-02-13T06:00:00Z,46.67,-60.38,-6.1,-8.4,180,1,,,,1001.7,,TRUE,TRUE,,,,,,,,,,,,,,,,-0.5,,,,,,,,,,,METAR,8.0
CXHF 130600Z AUTO M23/M27 RMK AO1 T12291269,CXHF,2015-02-13T06:00:00Z,45.83,-75.65,-22.9,-26.9,,,,,,,,TRUE,TRUE,,,,,,,,,,,,,,,,,,,,,,,,,,,METAR,190.0
CXGH 130600Z AUTO 20005KT M16/M17 RMK AO1 T11561173,CXGH,2015-02-13T06:00:00Z,50.63,-97.0,-15.6,-17.3,200,5,,,,,,TRUE,TRUE,,,,,,,,,,,,,,,,,,,,,,,,,,,METAR,217.0
CXET 130600Z AUTO 33005KT M22/M26 RMK AO1 SOG 15 3010 SLP253 T12241259,CXET,2015-02-13T06:00:00Z,44.23,-79.78,-22.4,-25.9,330,5,,,,1025.3,,TRUE,TRUE,,,,,,,,,,,,,,,,,,,,,,,,,,,METAR,251.0
CXDW 130600Z AUTO 28010KT M09/M11 RMK AO1 T10931114,CXDW,2015-02-13T06:00:00Z,49.4,-98.32,-9.3,-11.4,280,10,,,,,,TRUE,TRUE,,,,,,,,,,,,,,,,,,,,,,,,,,,METAR,341.0
CXDI 130600Z AUTO 26002KT M21/M23 RMK AO1 SLP263 T12101228 53001,CXDI,2015-02-13T06:00:00Z,42.87,-80.55,-21.0,-22.8,260,2,,,,1026.3,,TRUE,TRUE,,,,,,,,,,,,,,,,0.1,,,,,,,,,,,METAR,232.0
CXCK 130600Z AUTO 33001KT M14/M16 RMK AO1 SOG 30 8007 SLP154 T11441163 50004,CXCK,2015-02-13T06:00:00Z,62.12,-136.2,-14.4,-16.3,330,1,,,,1015.4,,TRUE,TRUE,,,,,,,,,,,,,,,,0.4,,,,,,,,,,,METAR,540.0
CXCH 130600Z AUTO M07/M09 RMK AO1 SOG 52 T10741089,CXCH,2015-02-13T06:00:00Z,46.63,-60.95,-7.4,-8.9,,,,,,,,TRUE,TRUE,,,,,,,,,,,,,,,,,,,,,,,,,,,METAR,44.0
CXCA 130600Z AUTO 17001KT M25/M28 RMK AO1 SLP269 T12521278 58034,CXCA,2015-02-13T06:00:00Z,49.15,-88.35,-25.2,-27.8,170,1,,,,1026.9,,TRUE,TRUE,,,,,,,,,,,,,,,,-3.4,,,,,,,,,,,METAR,228.0
CXBO 130600Z AUTO 28007KT RMK AO1,CXBO,2015-02-13T06:00:00Z,46.83,-71.2,,,280,7,,,,,,TRUE,TRUE,,,,,,,,,,,,,,,,,,,,,,,,,,,METAR,100.0
CWMT 130600Z AUTO 06006KT M32/M35 RMK AO1 SLP349 T13161351 51017,CWMT,2015-02-13T06:00:00Z,63.13,-117.25,-31.6,-35.1,60,6,,,,1034.9,,TRUE,TRUE,,,,,,,,,,,,,,,,1.7,,,,,,,,,,,METAR,271.0
CZSP 130600Z AUTO 18003KT M11/M12 RMK AO1 PRESFR SLP005 T11061116 58033,CZSP,2015-02-13T06:00:00Z,46.45,-62.58,-10.6,-11.6,180,3,,,,1000.5,,TRUE,TRUE,,,,,,,,,,,,,,,,-3.3,,,,,,,,,,,METAR,30.0
CZCR 130600Z AUTO 23003KT M14/M16 RMK AO1 3PAST HR SOG 34 8014 SLP041 P0001 T11421156 50008,CZCR,2015-02-13T06:00:00Z,47.97,-66.32,-14.2,-15.6,230,3,,,,1004.1,,TRUE,TRUE,,,,,,,,,,,,,,,,0.8,,,,,0.01,,,,,,METAR,38.0
CXNP 130600Z AUTO 06002KT M11/M12 RMK AO1 SLP022 T11111115 55020,CXNP,2015-02-13T06:00:00Z,45.75,-64.23,-11.1,-11.5,60,2,,,,1002.2,,TRUE,TRUE,,,,,,,,,,,,,,,,-2.0,,,,,,,,,,,METAR,20.0
CWXI 130600Z AUTO 06017KT M15/M18 RMK AO1 SOG 56 8015 PK WND 05022/0527 SLP044 T11531175,CWXI,2015-02-13T06:00:00Z,51.02,-57.1,-15.3,-17.5,60,17,,,,1004.4,,TRUE,TRUE,,,,,,,,,,,,,,,,,,,,,,,,,,,METAR,6.0
CWBK 130600Z AUTO 29003KT M09/M11 RMK AO1 SOG 80 8027 SLP006 T10931106,CWBK,2015-02-13T06:00:00Z,45.77,-62.67,-9.3,-10.6,290,3,,,,1000.6,,TRUE,TRUE,,,,,,,,,,,,,,,,,,,,,,,,,,,METAR,2.0
CAHR 130600Z AUTO 00000KT M12/M13 RMK AO1 SLP995 T11191133 58035,CAHR,2015-02-13T06:00:00Z,46.35,-63.17,-11.9,-13.3,0,0,,,,999.5,,TRUE,TRUE,,,,,,,,,,,,,,,,-3.5,,,,,,,,,,,METAR,53.0
CWGM 130600Z AUTO 23012G17KT 08/01 RMK AO1 PK WND 23022/0521 T00800005,CWGM,2015-02-13T06:00:00Z,49.13,-113.78,8.0,0.5,230,12,17,,,,,TRUE,TRUE,,,,,,,,,,,,,,,,,,,,,,,,,,,METAR,1296.0
CWGL 130600Z AUTO 34011KT M22/M27 RMK AO1 SLP244 T12211268 51010,CWGL,2015-02-13T06:00:00Z,44.52,-79.22,-22.1,-26.8,340,11,,,,1024.4,,TRUE,TRUE,,,,,,,,,,,,,,,,1.0,,,,,,,,,,,METAR,221.0
CWGD 130600Z AUTO 11006KT M17/M19 RMK AO1 5PAST HR SOG 17 1008 SLP261 P0002 T11681191 50015,CWGD,2015-02-13T06:00:00Z,43.77,-81.72,-16.8,-19.1,110,6,,,,1026.1,,TRUE,TRUE,,,,,,,,,,,,,,,,1.5,,,,,0.02,,,,,,METAR,214.0
CWGB 130600Z AUTO 11011KT 09/08 RMK AO1 PK WND 11017/0526 SLP246 T00900079 53002,CWGB,2015-02-13T06:00:00Z,49.35,-124.17,9.0,7.9,110,11,,,,1024.6,,TRUE,TRUE,,,,,,,,,,,,,,,,0.2,,,,,,,,,,,METAR,5.0
CWFQ 130600Z AUTO 29005KT M18/M20 RMK AO1 5PAST HR SOG 47 3016 SLP131 P0002 T11841203 50032,CWFQ,2015-02-13T06:00:00Z,45.03,-72.82,-18.4,-20.3,290,5,,,,1013.1,,TRUE,TRUE,,,,,,,,,,,,,,,,3.2,,,,,0.02,,,,,,METAR,152.0
CWFJ 130600Z AUTO 26015G22KT 08/01 RMK AO1 PK WND 25023/0533 T00820007,CWFJ,2015-02-13T06:00:00Z,49.2,-113.27,8.2,0.7,260,15,22,,,,,TRUE,TRUE,,,,,,,,,,,,,,,,,,,,,,,,,,,METAR,1136.0
CWEZ 130600Z AUTO 03004KT 09/08 RMK AO1 7005 SLP250 T00910081 50010,CWEZ,2015-02-13T06:00:00Z,48.78,-123.05,9.1,8.1,30,4,,,,1025.0,,TRUE,TRUE,,,,,,,,,,,,,,,,1.0,,,,,,,,,,,METAR,7.0
CWEW 130600Z AUTO 32008KT M19/M24 RMK AO1 SOG 22 1018 SLP164 T11911239,CWEW,2015-02-13T06:00:00Z,45.82,-73.43,-19.1,-23.9,320,8,,,,1016.4,,TRUE,TRUE,,,,,,,,,,,,,,,,,,,,,,,,,,,METAR,21.0
CWEL 130600Z AUTO 15006KT 09/08 RMK AO1 SLP253 T00880076 55003,CWEL,2015-02-13T06:00:00Z,49.22,-123.78,8.8,7.6,150,6,,,,1025.3,,TRUE,TRUE,,,,,,,,,,,,,,,,-0.3,,,,,,,,,,,METAR,5.0
CWEB 130600Z AUTO 10012G23KT 11/10 RMK AO1 8PAST HR 7001 PK WND 11023/0550 SLP219 P0007 T01070102 50033,CWEB,2015-02-13T06:00:00Z,49.38,-126.55,10.7,10.2,100,12,23,,,1021.9,,TRUE,TRUE,,,,,,,,,,,,,,,,3.3,,,,,0.07,,,,,,METAR,7.0
CWOY 130600Z AUTO 34001KT M12/M14 RMK AO1 SOG 08 1007 SLP221 T11181137,CWOY,2015-02-13T06:00:00Z,51.77,-104.2,-11.8,-13.7,340,1,,,,1022.1,,TRUE,TRUE,,,,,,,,,,,,,,,,,,,,,,,,,,,METAR,560.0
CWKO 130600Z AUTO 25011KT 01/M02 RMK AO1 SOG 00 8006 SLP215 T00061017,CWKO,2015-02-13T06:00:00Z,49.17,-105.97,0.6,-1.7,250,11,,,,1021.5,,TRUE,TRUE,,,,,,,,,,,,,,,,,,,,,,,,,,,METAR,917.0
CWEH 130600Z AUTO 30006KT 01/00 RMK AO1 SOG 30 6006 SLP213 T00130000 50002,CWEH,2015-02-13T06:00:00Z,49.42,-108.97,1.3,0.0,300,6,,,,1021.3,,TRUE,TRUE,,,,,,,,,,,,,,,,0.2,,,,,,,,,,,METAR,1078.0
CWDC 130600Z AUTO 05006KT M24/M28 RMK AO1 SOG 35 1028 SLP291 T12401276 50002,CWDC,2015-02-13T06:00:00Z,59.57,-108.47,-24.0,-27.6,50,6,,,,1029.1,,TRUE,TRUE,,,,,,,,,,,,,,,,0.2,,,,,,,,,,,METAR,318.0
CWLB 130600Z AUTO 01002KT M04/M06 RMK AO1 SOG 21 1010 SLP208 T10361058,CWLB,2015-02-13T06:00:00Z,54.77,-112.02,-3.6,-5.8,10,2,,,,1020.8,,TRUE,TRUE,,,,,,,,,,,,,,,,,,,,,,,,,,,METAR,567.0
CWCT 130600Z AUTO 29007KT 01/M03 RMK AO1 SOG 07 3008 SLP206 T00051034,CWCT,2015-02-13T06:00:00Z,52.07,-111.47,0.5,-3.4,290,7,,,,1020.6,,TRUE,TRUE,,,,,,,,,,,,,,,,,,,,,,,,,,,METAR,791.0
CWLP 130600Z AUTO 12036G44KT 11/08 RMK AO1 PK WND 12047/0525 SLP173 T01140075 57001,CWLP,2015-02-13T06:00:00Z,50.93,-127.63,11.4,7.5,120,36,44,,,1017.3,,TRUE,TRUE,,,,,,,,,,,,,,,,-0.1,,,,,,,,,,,METAR,17.0
CWJD 130600Z AUTO 33007KT M15/M18 RMK AO1 SOG 44 3012 SLP204 T11531181,CWJD,2015-02-13T06:00:00Z,53.17,-99.27,-15.3,-18.1,330,7,,,,1020.4,,TRUE,TRUE,,,,,,,,,,,,,,,,,,,,,,,,,,,METAR,223.0
CWEQ 130600Z AUTO 26008KT M11/M14 RMK AO1 SOG 43 2010 SLP208 T11121137,CWEQ,2015-02-13T06:00:00Z,52.12,-101.22,-11.2,-13.7,260,8,,,,1020.8,,TRUE,TRUE,,,,,,,,,,,,,,,,,,,,,,,,,,,METAR,335.0
CWRM 130600Z AUTO 11001KT 01/M00 RMK AO1 SOG 36 1009 SLP219 T00121001,CWRM,2015-02-13T06:00:00Z,52.42,-114.92,1.2,-0.1,110,1,,,,1021.9,,TRUE,TRUE,,,,,,,,,,,,,,,,,,,,,,,,,,,METAR,988.0
CWVT 130600Z AUTO 35005KT M12/M15 RMK AO1 SOG 41 2017 SLP248 T11191147 50006,CWVT,2015-02-13T06:00:00Z,55.82,-108.42,-11.9,-14.7,350,5,,,,1024.8,,TRUE,TRUE,,,,,,,,,,,,,,,,0.6,,,,,,,,,,,METAR,434.0
CZKD 130600Z AUTO 32003KT M22/M24 RMK AO1 SOG 51 5001 SLP165 T12211240,CZKD,2015-02-13T06:00:00Z,56.03,-96.52,-22.1,-24.0,320,3,,,,1016.5,,TRUE,TRUE,,,,,,,,,,,,,,,,,,,,,,,,,,,METAR,183.0
CXZV 130600Z AUTO 04003KT M14/M16 RMK AO1 5PAST HR SOG 44 7014 SLP051 P0002 T11401156 50007,CXZV,2015-02-13T06:00:00Z,50.22,-66.25,-14.0,-15.6,40,3,,,,1005.1,,TRUE,TRUE,,,,,,,,,,,,,,,,0.7,,,,,0.02,,,,,,METAR,52.0
CXTD 130600Z AUTO 12003KT M08/M09 RMK AO1 PRESFR SOG 13 8036 SLP006 T10801093,CXTD,2015-02-13T06:00:00Z,45.62,-61.68,-8.0,-9.3,120,3,,,,1000.6,,TRUE,TRUE,,,,,,,,,,,,,,,,,,,,,,,,,,,METAR,68.0
CXRL 130600Z AUTO M03/M05 RMK AO1 T10321052,CXRL,2015-02-13T06:00:00Z,54.5,-111.7,-3.2,-5.2,,,,,,,,TRUE,TRUE,,,,,,,,,,,,,,,,,,,,,,,,,,,METAR,585.0
CXPC 130600Z AUTO M28/M32 RMK AO1 SOG 44 1006 SLP259 T12821315,CXPC,2015-02-13T06:00:00Z,45.35,-80.05,-28.2,-31.5,,,,,,1025.9,,TRUE,TRUE,,,,,,,,,,,,,,,,,,,,,,,,,,,METAR,176.0
CXLB 130600Z AUTO 26005KT M07/ RMK AO1 SLP017 T1071 55026,CXLB,2015-02-13T06:00:00Z,44.37,-64.3,-7.1,,260,5,,,,1001.7,,TRUE,TRUE,,,,,,,,,,,,,,,,-2.6,,,,,,,,,,,METAR,4.0
CXCP 130600Z AUTO 28007KT 04/M00 RMK AO1 T00431004,CXCP,2015-02-13T06:00:00Z,50.28,-113.35,4.3,-0.4,280,7,,,,,,TRUE,TRUE,,,,,,,,,,,,,,,,,,,,,,,,,,,METAR,1006.0
CMFM 130600Z AUTO 36005KT M22/M26 RMK AO1 SOG 79 8001 SLP064 T12231257,CMFM,2015-02-13T06:00:00Z,47.32,-71.15,-22.3,-25.7,360,5,,,,1006.4,,TRUE,TRUE,,,,,,,,,,,,,,,,,,,,,,,,,,,METAR,672.0
CWPZ 130600Z AUTO 11001KT 01/M00 RMK AO1 SOG 69 3012 SLP184 T00071003 50006,CWPZ,2015-02-13T06:00:00Z,54.38,-125.97,0.7,-0.3,110,1,,,,1018.4,,TRUE,TRUE,,,,,,,,,,,,,,,,0.6,,,,,,,,,,,METAR,713.0
CWPR 130600Z AUTO 00000KT 02/01 RMK AO1 SOG 23 1007 SLP274 T00170014,CWPR,2015-02-13T06:00:00Z,49.47,-120.52,1.7,1.4,0,0,,,,1027.4,,TRUE,TRUE,,,,,,,,,,,,,,,,,,,,,,,,,,,METAR,700.0
CWPE 130600Z AUTO 33005KT M12/M14 RMK AO1 SOG 18 5011 SLP031 T11211140,CWPE,2015-02-13T06:00:00Z,45.07,-66.47,-12.1,-14.0,330,5,,,,1003.1,,TRUE,TRUE,,,,,,,,,,,,,,,,,,,,,,,,,,,METAR,1.0
CWPD 130600Z AUTO 02005KT M25/M28 RMK AO1 SLP079 T12491282 58002,CWPD,2015-02-13T06:00:00Z,47.57,-71.22,-24.9,-28.2,20,5,,,,1007.9,,TRUE,TRUE,,,,,,,,,,,,,,,,-0.2,,,,,,,,,,,METAR,803.0
CWOE 130600Z AUTO 30011KT 05/01 RMK AO1 SLP205 T00530007 56009,CWOE,2015-02-13T06:00:00Z,49.12,-110.47,5.3,0.7,300,11,,,,1020.5,,TRUE,TRUE,,,,,,,,,,,,,,,,-0.9,,,,,,,,,,,METAR,935.0
CWOD 130600Z AUTO 30014KT M23/M27 RMK AO1 SOG 06 0001 PK WND 31022/0521 SLP121 T12291270,CWOD,2015-02-13T06:00:00Z,48.85,-72.55,-22.9,-27.0,300,14,,,,1012.1,,TRUE,TRUE,,,,,,,,,,,,,,,,,,,,,,,,,,,METAR,137.0
CWOC 130600Z AUTO 33004KT M13/M14 RMK AO1 SLP030 T11251137 58020,CWOC,2015-02-13T06:00:00Z,48.02,-65.32,-12.5,-13.7,330,4,,,,1003.0,,TRUE,TRUE,,,,,,,,,,,,,,,,-2.0,,,,,,,,,,,METAR,47.0
CWNQ 130600Z AUTO 32008KT M18/M23 RMK AO1 SLP133 T11801231 52015,CWNQ,2015-02-13T06:00:00Z,46.22,-72.65,-18.0,-23.1,320,8,,,,1013.3,,TRUE,TRUE,,,,,,,,,,,,,,,,1.5,,,,,,,,,,,METAR,10.0
CWNP 130600Z AUTO 34001KT 03/02 RMK AO1 SOG 11 3007 SLP283 T00270015 50021,CWNP,2015-02-13T06:00:00Z,50.27,-117.82,2.7,1.5,340,1,,,,1028.3,,TRUE,TRUE,,,,,,,,,,,,,,,,2.1,,,,,,,,,,,METAR,524.0
CWNM 130600Z AUTO 23005KT 05/04 RMK AO1 SLP282 T00510044 51007,CWNM,2015-02-13T06:00:00Z,49.5,-117.28,5.1,4.4,230,5,,,,1028.2,,TRUE,TRUE,,,,,,,,,,,,,,,,0.7,,,,,,,,,,,METAR,535.0
CWNK 130600Z AUTO 27007KT M10/M12 RMK AO1 T10981124,CWNK,2015-02-13T06:00:00Z,49.5,-98.03,-9.8,-12.4,270,7,,,,,,TRUE,TRUE,,,,,,,,,,,,,,,,,,,,,,,,,,,METAR,268.0
CWNE 130600Z AUTO 03009KT M10/M11 RMK AO1 SLP008 T11041114 58027,CWNE,2015-02-13T06:00:00Z,47.07,-64.0,-10.4,-11.4,30,9,,,,1000.8,,TRUE,TRUE,,,,,,,,,,,,,,,,-2.7,,,,,,,,,,,METAR,15.0
CWST 130600Z AUTO 35007KT M15/M19 RMK AO1 3PAST HR SOG 12 6005 SLP076 P0001 T11501192 50003,CWST,2015-02-13T06:00:00Z,47.35,-70.02,-15.0,-19.2,350,7,,,,1007.6,,TRUE,TRUE,,,,,,,,,,,,,,,,0.3,,,,,0.01,,,,,,METAR,31.0
CWSR 130600Z AUTO 07002KT M07/M10 RMK AO1 SOG 15 3010 SLP211 T10741101,CWSR,2015-02-13T06:00:00Z,53.37,-107.53,-7.4,-10.1,70,2,,,,1021.1,,TRUE,TRUE,,,,,,,,,,,,,,,,,,,,,,,,,,,METAR,584.0
CWSP 130600Z AUTO 11013KT 10/10 RMK AO1 SLP245 T01000096 56006,CWSP,2015-02-13T06:00:00Z,48.38,-123.92,10.0,9.6,110,13,,,,1024.5,,TRUE,TRUE,,,,,,,,,,,,,,,,-0.6,,,,,,,,,,,METAR,21.0
CWSL 130600Z AUTO 21002KT 05/04 RMK AO1 1011 SLP276 T00470043 50002,CWSL,2015-02-13T06:00:00Z,50.7,-119.27,4.7,4.3,210,2,,,,1027.6,,TRUE,TRUE,,,,,,,,,,,,,,,,0.2,,,,,,,,,,,METAR,351.0
CWSK 130600Z AUTO 36001KT 08/08 RMK AO1 5002 SLP262 T00780075 50010,CWSK,2015-02-13T06:00:00Z,49.78,-123.17,7.8,7.5,360,1,,,,1026.2,,TRUE,TRUE,,,,,,,,,,,,,,,,1.0,,,,,,,,,,,METAR,60.0
CWSG 130600Z AUTO 18003KT M13/M14 RMK AO1 6013 SLP045 T11291143 50020,CWSG,2015-02-13T06:00:00Z,49.12,-66.65,-12.9,-14.3,180,3,,,,1004.5,,TRUE,TRUE,,,,,,,,,,,,,,,,2.0,,,,,,,,,,,METAR,5.0
CWSD 130600Z AUTO 31005KT M10/M11 RMK AO1 SOG 55 8033 SLP998 T11011114,CWSD,2015-02-13T06:00:00Z,46.42,-63.85,-10.1,-11.4,310,5,,,,999.8,,TRUE,TRUE,,,,,,,,,,,,,,,,,,,,,,,,,,,METAR,24.0
CWRZ 130600Z AUTO 01008KT M12/M14 RMK AO1 SLP024 T11161139 58023,CWRZ,2015-02-13T06:00:00Z,48.42,-64.32,-11.6,-13.9,10,8,,,,1002.4,,TRUE,TRUE,,,,,,,,,,,,,,,,-2.3,,,,,,,,,,,METAR,16.0
CWRT 130600Z AUTO 31009G18KT 07/01 RMK AO1 PK WND 32021/0519 T00680014,CWRT,2015-02-13T06:00:00Z,49.62,-114.47,6.8,1.4,310,9,18,,,,,TRUE,TRUE,,,,,,,,,,,,,,,,,,,,,,,,,,,METAR,1303.0
CWRK 130600Z AUTO 34007KT M25/M28 RMK AO1 2PAST HR SOG 40 3006 SLP218 P0001 T12461275 50002,CWRK,2015-02-13T06:00:00Z,45.07,-77.87,-24.6,-27.5,340,7,,,,1021.8,,TRUE,TRUE,,,,,,,,,,,,,,,,0.2,,,,,0.01,,,,,,METAR,331.0
CWRJ 130600Z AUTO 26001KT M03/M04 RMK AO1 SOG 10 1008 SLP211 T10331043,CWRJ,2015-02-13T06:00:00Z,51.57,-107.92,-3.3,-4.3,260,1,,,,1021.1,,TRUE,TRUE,,,,,,,,,,,,,,,,,,,,,,,,,,,METAR,586.0
CWQV 130600Z AUTO 28020KT M17/M21 RMK AO1 PK WND 28026/0540 T11741207,CWQV,2015-02-13T06:00:00Z,48.27,-70.12,-17.4,-20.7,280,20,,,,,,TRUE,TRUE,,,,,,,,,,,,,,,,,,,,,,,,,,,METAR,1.0
CWQR 130600Z AUTO 07015KT M12/ RMK AO1 PK WND 07021/0522 T1115,CWQR,2015-02-13T06:00:00Z,50.22,-64.22,-11.5,,70,15,,,,,,TRUE,TRUE,,,,,,,,,,,,,,,,,,,,,,,,,,,METAR,9.0
CWQO 130600Z AUTO 30011KT M15/M16 RMK AO1 T11491155,CWQO,2015-02-13T06:00:00Z,48.42,-68.9,-14.9,-15.5,300,11,,,,,,TRUE,TRUE,,,,,,,,,,,,,,,,,,,,,,,,,,,METAR,1.0
CWQK 130600Z AUTO 06011KT 10/09 RMK AO1 SLP246 T00990092 58004,CWQK,2015-02-13T06:00:00Z,48.3,-123.53,9.9,9.2,60,11,,,,1024.6,,TRUE,TRUE,,,,,,,,,,,,,,,,-0.4,,,,,,,,,,,METAR,5.0
CWQH 130600Z AUTO 31013G20KT M16/M20 RMK AO1 SOG 32 PK WND 31023/0523 T11641195,CWQH,2015-02-13T06:00:00Z,45.37,-71.82,-16.4,-19.5,310,13,20,,,,,TRUE,TRUE,,,,,,,,,,,,,,,,,,,,,,,,,,,METAR,181.0
WMKN 130600Z 05006KT 9999 FEW018 BKN300 29/21 Q1012,WMKN,2015-02-13T06:00:00Z,5.37,103.08,29.0,21.0,50,6,,6.21,29.88189,,,,,,,,,,,FEW,1800,BKN,30000,,,,,VFR,,,,,,,,,,,,METAR,6.0
WMKM 130600Z 05007KT 330V110 9999 SCT021 BKN280 32/23 Q1010,WMKM,2015-02-13T06:00:00Z,2.27,102.25,32.0,23.0,50,7,,6.21,29.822834,,,,,,,,,,,SCT,2100,BKN,28000,,,,,VFR,,,,,,,,,,,,METAR,9.0
WMKL 130600Z 36006KT 9999 FEW022 BKN280 32/21 Q1010,WMKL,2015-02-13T06:00:00Z,6.32,99.72,32.0,21.0,360,6,,6.21,29.822834,,,,,,,,,,,FEW,2200,BKN,28000,,,,,VFR,,,,,,,,,,,,METAR,7.0
WMKI 130600Z 22005KT 9999 SCT020 BKN290 33/22 Q1009,WMKI,2015-02-13T06:00:00Z,4.57,101.08,33.0,22.0,220,5,,6.21,29.793306,,,,,,,,,,,SCT,2000,BKN,29000,,,,,VFR,,,,,,,,,,,,METAR,39.0
WMKE 130600Z 04009KT 9999 FEW016CB SCT018 BKN270 27/21 Q1011,WMKE,2015-02-13T06:00:00Z,4.53,103.43,27.0,21.0,40,9,,6.21,29.852362,,,,,,,,,,,FEW,1600,SCT,1800,BKN,27000,,,VFR,,,,,,,,,,,,METAR,5.0
WMKD 130600Z 05006KT 9999 SCT018 SCT160 BKN280 29/22 Q1011 NOSIG,WMKD,2015-02-13T06:00:00Z,3.77,103.22,29.0,22.0,50,6,,6.21,29.852362,,,,,,TRUE,,,,,SCT,1800,SCT,16000,BKN,28000,,,VFR,,,,,,,,,,,,METAR,16.0
WMKC 130600Z 06010KT 020V100 9999 SCT018 SCT140 BKN280 29/22 Q1012,WMKC,2015-02-13T06:00:00Z,6.17,102.27,29.0,22.0,60,10,,6.21,29.88189,,,,,,,,,,,SCT,1800,SCT,14000,BKN,28000,,,VFR,,,,,,,,,,,,METAR,5.0
WMKB 130600Z 29010KT 240V340 6000 FEW020 BKN280 31/23 Q1009 N,WMKB,2015-02-13T06:00:00Z,5.47,100.37,31.0,23.0,290,10,,3.73,29.793306,,,,,,,,,,,FEW,2000,BKN,28000,,,,,MVFR,,,,,,,,,,,,METAR,4.0
WMKA 130600Z 35003KT 6000 SCT020 BKN300 33/21 Q1009,WMKA,2015-02-13T06:00:00Z,6.2,100.4,33.0,21.0,350,3,,3.73,29.793306,,,,,,,,,,,SCT,2000,BKN,30000,,,,,MVFR,,,,,,,,,,,,METAR,5.0
WMBA 130600Z 29005KT 200V290 9999 FEW020 BKN280 33/21 Q1009,WMBA,2015-02-13T06:00:00Z,4.22,100.7,33.0,21.0,290,5,,6.21,29.793306,,,,,,,,,,,FEW,2000,BKN,28000,,,,,VFR,,,,,,,,,,,,METAR,8.0
WBKW 130600Z 16010KT 9999 FEW017 BKN300 31/25 Q1008,WBKW,2015-02-13T06:00:00Z,4.32,118.12,31.0,25.0,160,10,,6.21,29.763779,,,,,,,,,,,FEW,1700,BKN,30000,,,,,VFR,,,,,,,,,,,,METAR,20.0
WBKT 130600Z 04007KT 330V120 9999 FEW015 SCT140 BKN290 29/23 Q1010,WBKT,2015-02-13T06:00:00Z,6.92,116.82,29.0,23.0,40,7,,6.21,29.822834,,,,,,,,,,,FEW,1500,SCT,14000,BKN,29000,,,VFR,,,,,,,,,,,,METAR,5.0
WBKS 130600Z 06008KT 030V120 9999 FEW016 BKN300 30/24 Q1009,WBKS,2015-02-13T06:00:00Z,5.9,118.07,30.0,24.0,60,8,,6.21,29.793306,,,,,,,,,,,FEW,1600,BKN,30000,,,,,VFR,,,,,,,,,,,,METAR,13.0
WBKL 130600Z 30004KT 230V020 9999 SCT015 SCT140 BKN300 29/22 Q1010,WBKL,2015-02-13T06:00:00Z,5.28,115.25,29.0,22.0,300,4,,6.21,29.822834,,,,,,,,,,,SCT,1500,SCT,14000,BKN,30000,,,VFR,,,,,,,,,,,,METAR,30.0
WBGY 130600Z 34004KT 9999 SCT024 BKN300 31/25 Q1009,WBGY,2015-02-13T06:00:00Z,1.22,111.43,31.0,25.0,340,4,,6.21,29.793306,,,,,,,,,,,SCT,2400,BKN,30000,,,,,VFR,,,,,,,,,,,,METAR,34.0
WBGS 130600Z 04003KT 9999 SCT016 BKN150 29/23 Q1010,WBGS,2015-02-13T06:00:00Z,2.27,111.98,29.0,23.0,40,3,,6.21,29.822834,,,,,,,,,,,SCT,1600,BKN,15000,,,,,VFR,,,,,,,,,,,,METAR,8.0
WBGR 130600Z 31007KT 9999 SCT016 BKN300 29/23 Q1010,WBGR,2015-02-13T06:00:00Z,4.32,113.97,29.0,23.0,310,7,,6.21,29.822834,,,,,,,,,,,SCT,1600,BKN,30000,,,,,VFR,,,,,,,,,,,,METAR,18.0
WBGB 130600Z 33009KT 260V040 9999 FEW016 BKN300 30/24 Q1010,WBGB,2015-02-13T06:00:00Z,3.12,113.02,30.0,24.0,330,9,,6.21,29.822834,,,,,,,,,,,FEW,1600,BKN,30000,,,,,VFR,,,,,,,,,,,,METAR,5.0
WMSA 130600Z 32004KT 9999 FEW019 BKN280 33/20 Q1010,WMSA,2015-02-13T06:00:00Z,3.13,101.55,33.0,20.0,320,4,,6.21,29.822834,,,,,,,,,,,FEW,1900,BKN,28000,,,,,VFR,,,,,,,,,,,,METAR,27.0
WMKJ 130600Z 02010KT 320V060 9999 SCT020 SCT130 BKN280 31/23 Q1010,WMKJ,2015-02-13T06:00:00Z,1.62,103.67,31.0,23.0,20,10,,6.21,29.822834,,,,,,,,,,,SCT,2000,SCT,13000,BKN,28000,,,VFR,,,,,,,,,,,,METAR,40.0
DAUA 130600Z 36008KT 8000 NSC 07/M04 Q1018,DAUA,2015-02-13T06:00:00Z,27.83,-0.18,7.0,-4.0,360,8,,4.97,30.059055,,,,,,,,,,,,,,,,,,,,,,,,,,,,,,,METAR,263.0
DAUT 130600Z 00000KT CAVOK 06/M08 Q1019,DAUT,2015-02-13T06:00:00Z,29.25,0.27,6.0,-8.0,0,0,,6.21,30.088583,,,,,,,,,,,CAVOK,,,,,,,,VFR,,,,,,,,,,,,METAR,312.0
LICB 130600Z 36004KT 330V050 CAVOK 07/03 Q1022,LICB,2015-02-13T06:00:00Z,37.0,14.62,7.0,3.0,360,4,,6.21,30.177166,,,,,,,,,,,CAVOK,,,,,,,,VFR,,,,,,,,,,,,SPECI,220.0
RCNN 130600Z 30010KT 8000 FEW012 SCT100 23/11 Q1016 NOSIG RMK A3002,RCNN,2015-02-13T06:00:00Z,22.93,120.2,23.0,11.0,300,10,,4.97,30.0,,,,,,TRUE,,,,,FEW,1200,SCT,10000,,,,,MVFR,,,,,,,,,,,,METAR,19.0
CWYK 130600Z AUTO ///// M33/ A2960 RMK SLP149,CWYK,2015-02-13T06:00:00Z,57.12,-61.47,-33.0,,,,,,29.601377,1014.9,,TRUE,,,,,,,,,,,,,,,,,,,,,,,,,,,,METAR,834.0
CWVH 130600Z AUTO 12009KT M31/ A3011 RMK SLP244,CWVH,2015-02-13T06:00:00Z,68.9,-133.93,-31.0,,120,9,,,30.109253,1024.4,,TRUE,,,,,,,,,,,,,,,,,,,,,,,,,,,,METAR,261.0
CWUW 130600Z AUTO 30008KT 9SM CLR M37/ A2986 RMK SLP208,CWUW,2015-02-13T06:00:00Z,68.65,-71.17,-37.0,,300,8,,9.0,29.861221,1020.8,,TRUE,,,,,,,,CLR,,,,,,,,VFR,,,,,,,,,,,,METAR,527.0
CWUP 130600Z AUTO ///// M32/ A2989 RMK SLP187,CWUP,2015-02-13T06:00:00Z,68.47,-66.82,-32.0,,,,,,29.890747,1018.7,,TRUE,,,,,,,,,,,,,,,,,,,,,,,,,,,,METAR,390.0
CWRX 130600Z AUTO 14004KT M35/ A3019,CWRX,2015-02-13T06:00:00Z,69.07,-79.02,-35.0,,140,4,,,30.188976,,,TRUE,,,,,,,,,,,,,,,,,,,,,,,,,,,,METAR,41.0
CWPX 130600Z AUTO 34017KT M39/ A3059 RMK SLP403,CWPX,2015-02-13T06:00:00Z,69.02,-107.82,-39.0,,340,17,,,30.590551,1040.3,,TRUE,,,,,,,,,,,,,,,,,,,,,,,,,,,,METAR,165.0
CWLX 130600Z AUTO 32004KT M37/ A3011 RMK SLP229,CWLX,2015-02-13T06:00:00Z,68.9,-75.15,-37.0,,320,4,,,30.109253,1022.9,,TRUE,,,,,,,,,,,,,,,,,,,,,,,,,,,,METAR,162.0
CWLI 130600Z AUTO 11014G19KT M31/ A3033 RMK SLP293,CWLI,2015-02-13T06:00:00Z,69.58,-130.9,-31.0,,110,14,19,,30.33071,1029.3,,TRUE,,,,,,,,,,,,,,,,,,,,,,,,,,,,METAR,102.0
CWKW 130600Z AUTO ///// M33/ A2987 RMK SLP205,CWKW,2015-02-13T06:00:00Z,59.97,-64.17,-33.0,,,,,,29.870079,1020.5,,TRUE,,,,,,,,,,,,,,,,,,,,,,,,,,,,METAR,551.0
CWKM 130600Z AUTO 27006KT M32/ A3017 RMK SLP225,CWKM,2015-02-13T06:00:00Z,69.6,-140.17,-32.0,,270,6,,,30.171259,1022.5,,TRUE,,,,,,,,,,,,,,,,,,,,,,,,,,,,METAR,13.0
CWIL 130600Z AUTO 33016KT M38/ A3049 RMK SLP339,CWIL,2015-02-13T06:00:00Z,68.32,-100.07,-38.0,,330,16,,,30.490158,1033.9,,TRUE,,,,,,,,,,,,,,,,,,,,,,,,,,,,METAR,36.0
CYDF 130600Z 03003KT 350V060 6SM -SN OVC020 M13/M16 A2964 RMK SC8 SLP040,CYDF,2015-02-13T06:00:00Z,49.22,-57.4,-13.0,-16.0,30,3,,6.0,29.639763,1004.0,,,,,,,,,-SN,OVC,2000,,,,,,,MVFR,,,,,,,,,,,,METAR,22.0
CYCX 130600Z 32004KT 8SM -SN BKN017 OVC080 M13/M15 A2962 RMK SC7AC1 DA-3000FT PCPN VRY LGT SLP034,CYCX,2015-02-13T06:00:00Z,45.82,-66.42,-13.0,-15.0,320,4,,8.0,29.619095,1003.4,,,,,,,,,-SN,BKN,1700,OVC,8000,,,,,MVFR,,,,,,,,,,,,METAR,51.0
CYZT 130600Z 11017G24KT 15SM BKN032 OVC043 11/08 A3009 RMK SC5SC3 SLP191,CYZT,2015-02-13T06:00:00Z,50.67,-127.37,11.0,8.0,110,17,24,15.0,30.088583,1019.1,,,,,,,,,,BKN,3200,OVC,4300,,,,,VFR,,,,,,,,,,,,METAR,22.0
CYXS 130600Z AUTO 18011G16KT 9SM FEW065 05/03 A3006 RMK SLP206,CYXS,2015-02-13T06:00:00Z,53.9,-122.68,5.0,3.0,180,11,16,9.0,30.059055,1020.6,,TRUE,,,,,,,,FEW,6500,,,,,,,VFR,,,,,,,,,,,,METAR,691.0
CYXE 130600Z 00000KT 15SM OVC041 M08/M11 A3009 RMK SC8 SLP231,CYXE,2015-02-13T06:00:00Z,52.17,-106.7,-8.0,-11.0,0,0,,15.0,30.088583,1023.1,,,,,,,,,,OVC,4100,,,,,,,VFR,,,,,,,,,,,,METAR,504.0
CYXC 130600Z 19004KT 25SM BKN059 OVC090 07/02 A3025 RMK SC7AC1 SLP261,CYXC,2015-02-13T06:00:00Z,49.6,-115.77,7.0,2.0,190,4,,25.0,30.250984,1026.1,,,,,,,,,,BKN,5900,OVC,9000,,,,,VFR,,,,,,,,,,,,METAR,939.0
CYVL 130600Z AUTO 01003KT 320V060 9SM CLR M29/M32 A3028 RMK ICG MISG SLP308,CYVL,2015-02-13T06:00:00Z,67.02,-126.13,-29.0,-32.0,10,3,,9.0,30.280512,1030.8,,TRUE,,,,,,,,CLR,,,,,,,,VFR,,,,,,,,,,,,METAR,259.0
CYRV 130600Z AUTO VRB02KT 5/8SM BR BKN004 OVC008 01/01 A3035 RMK SLP295,CYRV,2015-02-13T06:00:00Z,50.97,-118.17,1.0,1.0,0,2,,0.63,30.351377,1029.5,,TRUE,,,,,,,BR,BKN,400,OVC,800,,,,,LIFR,,,,,,,,,,,,METAR,443.0
CYQD 130600Z 32009KT 15SM -SN OVC019 M15/M17 A3006 RMK SC8 SLP209,CYQD,2015-02-13T06:00:00Z,53.97,-101.08,-15.0,-17.0,320,9,,15.0,30.059055,1020.9,,,,,,,,,-SN,OVC,1900,,,,,,,MVFR,,,,,,,,,,,,METAR,271.0
CYKY 130600Z 20004KT 15SM OVC035 M07/M09 A3004 RMK SC8 SLP218,CYKY,2015-02-13T06:00:00Z,51.52,-109.17,-7.0,-9.0,200,4,,15.0,30.041338,1021.8,,,,,,,,,,OVC,3500,,,,,,,VFR,,,,,,,,,,,,METAR,694.0
CYEV 130600Z 07008KT 15SM FEW140 FEW240 M29/M33 A3023 RMK AC1CI1 SLP250,CYEV,2015-02-13T06:00:00Z,68.32,-133.5,-29.0,-33.0,70,8,,15.0,30.230314,1025.0,,,,,,,,,,FEW,14000,FEW,24000,,,,,VFR,,,,,,,,,,,,METAR,68.0
CYDB 130600Z AUTO VRB02KT 9SM OVC017 M23/M25 A2973 RMK SLP158,CYDB,2015-02-13T06:00:00Z,61.37,-139.05,-23.0,-25.0,0,2,,9.0,29.731298,1015.8,,TRUE,,,,,,,,OVC,1700,,,,,,,MVFR,,,,,,,,,,,,METAR,801.0
CYZR 130600Z AUTO 30009KT 9SM CLR M17/M22 A3031 RMK SLP281,CYZR,2015-02-13T06:00:00Z,43.0,-82.3,-17.0,-22.0,300,9,,9.0,30.31004,1028.1,,TRUE,,,,,,,,CLR,,,,,,,,VFR,,,,,,,,,,,,METAR,181.0
CYZE 130600Z AUTO 36004KT 9SM CLR M22/M27 A3031 RMK ICG SLP284,CYZE,2015-02-13T06:00:00Z,45.87,-82.57,-22.0,-27.0,360,4,,9.0,30.31004,1028.4,,TRUE,,,,,,,,CLR,,,,,,,,VFR,,,,,,,,,,,,METAR,193.0
CYXR 130600Z AUTO 30006KT 9SM CLR M31/M34 A3022 RMK SLP268,CYXR,2015-02-13T06:00:00Z,47.7,-79.83,-31.0,-34.0,300,6,,9.0,30.221457,1026.8,,TRUE,,,,,,,,CLR,,,,,,,,VFR,,,,,,,,,,,,METAR,243.0
CYWA 130600Z AUTO 32009G16KT 9SM CLR M24/M31 A3017 RMK SLP232,CYWA,2015-02-13T06:00:00Z,45.95,-77.32,-24.0,-31.0,320,9,16,9.0,30.171259,1023.2,,TRUE,,,,,,,,CLR,,,,,,,,VFR,,,,,,,,,,,,METAR,130.0
CYVP 130600Z 28003KT 15SM SKC M38/M42 A3025 RMK SLP251,CYVP,2015-02-13T06:00:00Z,58.12,-68.42,-38.0,-42.0,280,3,,15.0,30.250984,1025.1,,,,,,,,,,SKC,,,,,,,,VFR,,,,,,,,,,,,METAR,60.0
CYTZ 130600Z AUTO 32008KT 280V350 9SM CLR M17/M24 A3028 RMK SLP260,CYTZ,2015-02-13T06:00:00Z,43.63,-79.4,-17.0,-24.0,320,8,,9.0,30.280512,1026.0,,TRUE,,,,,,,,CLR,,,,,,,,VFR,,,,,,,,,,,,METAR,77.0
CYTS 130600Z 00000KT 15SM IC SKC M35/M38 A3020 RMK SLP271,CYTS,2015-02-13T06:00:00Z,48.57,-81.37,-35.0,-38.0,0,0,,15.0,30.200787,1027.1,,,,,,,,,IC,SKC,,,,,,,,VFR,,,,,,,,,,,,METAR,295.0
CYTL 130600Z AUTO 18004KT 9SM -SN BKN090 BKN110 OVC130 M21/M23 A2998 RMK SLP181,CYTL,2015-02-13T06:00:00Z,53.82,-89.88,-21.0,-23.0,180,4,,9.0,29.97933,1018.1,,TRUE,,,,,,,-SN,BKN,9000,BKN,11000,OVC,13000,,,VFR,,,,,,,,,,,,METAR,224.0
CYRJ 130600Z CCA 30015G21KT 20SM -SN DRSN SCT060 M23/M28 A2987 RMK SC4 SLP133,CYRJ,2015-02-13T06:00:00Z,48.52,-72.27,-23.0,-28.0,300,15,21,20.0,29.870079,1013.3,,,,,,,,,DRSN -SN,SCT,6000,,,,,,,VFR,,,,,,,,,,,,METAR,179.0
CYQT 130600Z 26003KT 15SM FEW021 BKN100 OVC160 M23/M27 A3022 RMK SC2AC4AC2 SLP258,CYQT,2015-02-13T06:00:00Z,48.37,-89.32,-23.0,-27.0,260,3,,15.0,30.221457,1025.8,,,,,,,,,,FEW,2100,BKN,10000,OVC,16000,,,VFR,,,,,,,,,,,,METAR,199.0
CYPQ 130600Z AUTO 30008KT 9SM CLR M21/M26 A3018 RMK SLP239,CYPQ,2015-02-13T06:00:00Z,44.22,-78.37,-21.0,-26.0,300,8,,9.0,30.180119,1023.9,,TRUE,,,,,,,,CLR,,,,,,,,VFR,,,,,,,,,,,,METAR,191.0
CYNA 130600Z AUTO 07009KT 9SM BKN028 OVC130 M14/M20 A2969 RMK PRESFR SLP055,CYNA,2015-02-13T06:00:00Z,50.17,-61.82,-14.0,-20.0,70,9,,9.0,29.68996,1005.5,,TRUE,,,,,,,,BKN,2800,OVC,13000,,,,,MVFR,,,,,,,,,,,,METAR,11.0
CYMO 130600Z AUTO 26003KT 9SM CLR M35/M38 A3032 RMK SLP270,CYMO,2015-02-13T06:00:00Z,51.28,-80.62,-35.0,-38.0,260,3,,9.0,30.318897,1027.0,,TRUE,,,,,,,,CLR,,,,,,,,VFR,,,,,,,,,,,,METAR,10.0
CYGP 130600Z 32003KT 15SM -SN OVC015 M14/M16 A2963 RMK SC8 SLP036,CYGP,2015-02-13T06:00:00Z,48.77,-64.47,-14.0,-16.0,320,3,,15.0,29.630905,1003.6,,,,,,,,,-SN,OVC,1500,,,,,,,MVFR,,,,,,,,,,,,METAR,33.0
CZMD 130600Z AUTO 22008KT 9SM -SN SCT060 OVC088 M19/M21 A2993 RMK SLP170,CZMD,2015-02-13T06:00:00Z,53.43,-91.77,-19.0,-21.0,220,8,,9.0,29.929134,1017.0,,TRUE,,,,,,,-SN,SCT,6000,OVC,8800,,,,,VFR,,,,,,,,,,,,METAR,278.0
CYYU 130600Z VRB02KT 15SM SKC M35/M38 A3024 RMK SLP274,CYYU,2015-02-13T06:00:00Z,49.42,-82.47,-35.0,-38.0,0,2,,15.0,30.239174,1027.4,,,,,,,,,,SKC,,,,,,,,VFR,,,,,,,,,,,,METAR,227.0
CYYH 130600Z 15003KT 15SM IC SKC M39/M43 A3039 RMK FU OVR TOWN SLP296,CYYH,2015-02-13T06:00:00Z,69.53,-93.57,-39.0,-43.0,150,3,,15.0,30.389763,1029.6,,,,,,,,,IC,SKC,,,,,,,,VFR,,,,,,,,,,,,METAR,28.0
CYYB 130600Z AUTO 33006KT 9SM CLR M28/M31 A3014 RMK SLP251,CYYB,2015-02-13T06:00:00Z,46.35,-79.42,-28.0,-31.0,330,6,,9.0,30.138779,1025.1,,TRUE,,,,,,,,CLR,,,,,,,,VFR,,,,,,,,,,,,METAR,371.0
CYXU 130600Z 00000KT 6SM -SHSN OVC024 M17/M20 A3025 RMK SC8 CVCTV CLD EMBD SLP268,CYXU,2015-02-13T06:00:00Z,43.02,-81.15,-17.0,-20.0,0,0,,6.0,30.250984,1026.8,,,,,,,,,-SHSN,OVC,2400,,,,,,,MVFR,,,,,,,,,,,,METAR,278.0
CYXL 130600Z 17006KT 15SM -SN FEW040 OVC068 M19/M23 A3000 RMK SC2AC6 SLP206,CYXL,2015-02-13T06:00:00Z,50.12,-91.9,-19.0,-23.0,170,6,,15.0,30.0,1020.6,,,,,,,,,-SN,FEW,4000,OVC,6800,,,,,VFR,,,,,,,,,,,,METAR,390.0
CYVQ 130600Z 12020KT 30SM DRSN SCT120 M23/M27 A3027 RMK AC3 SLP261,CYVQ,2015-02-13T06:00:00Z,65.27,-126.78,-23.0,-27.0,120,20,,30.0,30.268702,1026.1,,,,,,,,,DRSN,SCT,12000,,,,,,,VFR,,,,,,,,,,,,METAR,74.0
CYRB 130600Z 34009KT 15SM IC FEW075 M35/M39 A3034 RMK AC1 AC TR SLP289,CYRB,2015-02-13T06:00:00Z,74.72,-94.97,-35.0,-39.0,340,9,,15.0,30.339567,1028.9,,,,,,,,,IC,FEW,7500,,,,,,,VFR,,,,,,,,,,,,METAR,67.0
CYQA 130600Z AUTO 33009KT 9SM CLR M25/M28 A3017 RMK SLP250,CYQA,2015-02-13T06:00:00Z,44.97,-79.28,-25.0,-28.0,330,9,,9.0,30.171259,1025.0,,TRUE,,,,,,,,CLR,,,,,,,,VFR,,,,,,,,,,,,METAR,282.0
CYPO 130600Z AUTO 16006KT 8SM -SN BKN043 OVC070 M28/M32 A3016 RMK SLP223,CYPO,2015-02-13T06:00:00Z,54.98,-85.43,-28.0,-32.0,160,6,,8.0,30.159449,1022.3,,TRUE,,,,,,,-SN,BKN,4300,OVC,7000,,,,,VFR,,,,,,,,,,,,METAR,53.0
CYOO 130600Z AUTO 32007KT 9SM CLR M20/M26 A3022 RMK SLP248,CYOO,2015-02-13T06:00:00Z,43.92,-78.9,-20.0,-26.0,320,7,,9.0,30.221457,1024.8,,TRUE,,,,,,,,CLR,,,,,,,,VFR,,,,,,,,,,,,METAR,139.0
CYKZ 130600Z 32006KT 15SM SKC M20/M27 A3023 RMK SLP255,CYKZ,2015-02-13T06:00:00Z,43.87,-79.37,-20.0,-27.0,320,6,,15.0,30.230314,1025.5,,,,,,,,,,SKC,,,,,,,,VFR,,,,,,,,,,,,METAR,198.0
CYKF 130600Z AUTO 29006KT 9SM CLR M22/M24 A3020 RMK SLP259,CYKF,2015-02-13T06:00:00Z,43.47,-80.38,-22.0,-24.0,290,6,,9.0,30.200787,1025.9,,TRUE,,,,,,,,CLR,,,,,,,,VFR,,,,,,,,,,,,METAR,317.0
CYHM 130600Z 26006KT 15SM FEW025 M21/M25 A3023 RMK SC1 SC TR SLP258,CYHM,2015-02-13T06:00:00Z,43.17,-79.93,-21.0,-25.0,260,6,,15.0,30.230314,1025.8,,,,,,,,,,FEW,2500,,,,,,,VFR,,,,,,,,,,,,METAR,238.0
CYGQ 130600Z CCA 22002KT 15SM SCT100 M29/M32 A3014 RMK AC3 SLP253,CYGQ,2015-02-13T06:00:00Z,49.77,-86.92,-29.0,-32.0,220,2,,15.0,30.138779,1025.3,,,,,,,,,,SCT,10000,,,,,,,VFR,,,,,,,,,,,,METAR,351.0
CYER 130600Z AUTO 16005KT 6SM -SN OVC046 M25/M28 A3010 RMK SLP196,CYER,2015-02-13T06:00:00Z,56.02,-87.68,-25.0,-28.0,160,5,,6.0,30.100393,1019.6,,TRUE,,,,,,,-SN,OVC,4600,,,,,,,VFR,,,,,,,,,,,,METAR,16.0
CYCK 130600Z AUTO 30009KT 9SM CLR M19/M24 A3032 RMK SLP286,CYCK,2015-02-13T06:00:00Z,42.3,-82.08,-19.0,-24.0,300,9,,9.0,30.318897,1028.6,,TRUE,,,,,,,,CLR,,,,,,,,VFR,,,,,,,,,,,,METAR,198.0
CYBN 130600Z AUTO 33005KT 9SM FEW021 M22/M27 A3023 RMK SLP261,CYBN,2015-02-13T06:00:00Z,44.27,-79.92,-22.0,-27.0,330,5,,9.0,30.230314,1026.1,,TRUE,,,,,,,,FEW,2100,,,,,,,VFR,,,,,,,,,,,,METAR,223.0
CYYF 130600Z 00000KT 12SM FEW015 OVC064 06/05 A3031 RMK SF2SC6 SLP271,CYYF,2015-02-13T06:00:00Z,49.47,-119.58,6.0,5.0,0,0,,12.0,30.31004,1027.1,,,,,,,,,,FEW,1500,OVC,6400,,,,,VFR,,,,,,,,,,,,METAR,344.0
CYYE 130600Z 35003KT 15SM SCT050 OVC100 M16/M19 A3023 RMK SC4AC4 SLP280,CYYE,2015-02-13T06:00:00Z,58.82,-122.57,-16.0,-19.0,350,3,,15.0,30.230314,1028.0,,,,,,,,,,SCT,5000,OVC,10000,,,,,VFR,,,,,,,,,,,,METAR,382.0
CYXY 130600Z 34002KT 15SM BKN011 OVC025 M10/M12 A2973 RMK SC7SC1 /S01/ SLP127,CYXY,2015-02-13T06:00:00Z,60.72,-135.07,-10.0,-12.0,340,2,,15.0,29.731298,1012.7,,,,,,,,,,BKN,1100,OVC,2500,,,,,MVFR,,,,,,,,,,,,METAR,703.0
CYWL 130600Z 11007KT 15SM SCT050 03/01 A3014 RMK SC4 SLP238,CYWL,2015-02-13T06:00:00Z,52.18,-122.07,3.0,1.0,110,7,,15.0,30.138779,1023.8,,,,,,,,,,SCT,5000,,,,,,,VFR,,,,,,,,,,,,METAR,940.0
CYIN 130600Z AUTO 16003KT 120V250 9SM SCT190 BKN220 01/M00 A3014 RMK SLP238,CYIN,2015-02-13T06:00:00Z,51.27,-121.68,1.0,0.0,160,3,,9.0,30.138779,1023.8,,TRUE,,,,,,,,SCT,19000,BKN,22000,,,,,VFR,,,,,,,,,,,,METAR,1128.0
CYDL 130600Z AUTO 14013KT 9SM BKN045 OVC060 M04/ A2980 RMK ICG PAST HR SLP130,CYDL,2015-02-13T06:00:00Z,58.42,-130.02,-4.0,,140,13,,9.0,29.799213,1013.0,,TRUE,,,,,,,,BKN,4500,OVC,6000,,,,,VFR,,,,,,,,,,,,METAR,816.0
CYIV 130600Z CCA 26006KT 8SM -SN OVC040 M18/M21 A2993 RMK SC8 SLP162,CYIV,2015-02-13T06:00:00Z,53.85,-94.65,-18.0,-21.0,260,6,,8.0,29.929134,1016.2,,,,,,,,,-SN,OVC,4000,,,,,,,VFR,,,,,,,,,,,,METAR,237.0
CYQU 130600Z 33003KT 330V090 25SM OVC074 M01/M02 A3002 RMK AC8 SLP205,CYQU,2015-02-13T06:00:00Z,55.18,-118.88,-1.0,-2.0,330,3,,25.0,30.02067,1020.5,,,,,,,,,,OVC,7400,,,,,,,VFR,,,,,,,,,,,,METAR,669.0
CYPD 130600Z AUTO 02003KT 280V030 9SM BKN020 OVC027 M09/M10 A2952 RMK PRESFR SLP003,CYPD,2015-02-13T06:00:00Z,45.67,-61.37,-9.0,-10.0,20,3,,9.0,29.518702,1000.3,,TRUE,,,,,,,,BKN,2000,OVC,2700,,,,,MVFR,,,,,,,,,,,,METAR,114.0
CWYM 130600Z AUTO 28008KT M30/ A2974 RMK SLP163,CWYM,2015-02-13T06:00:00Z,64.95,-63.57,-30.0,,280,8,,,29.740158,1016.3,,TRUE,,,,,,,,,,,,,,,,,,,,,,,,,,,,METAR,583.0
CWXR 130600Z AUTO 17008KT M33/ A3057 RMK SLP371,CWXR,2015-02-13T06:00:00Z,69.27,-119.22,-33.0,,170,8,,,30.569881,1037.1,,TRUE,,,,,,,,,,,,,,,,,,,,,,,,,,,,METAR,69.0
CWTU 130600Z AUTO 31024KT M27/ A2963 RMK SLP117,CWTU,2015-02-13T06:00:00Z,54.72,-58.35,-27.0,,310,24,,,29.630905,1011.7,,TRUE,,,,,,,,,,,,,,,,,,,,,,,,,,,,METAR,683.0
CWRH 130600Z AUTO ///// M30/ A2999 RMK SLP223,CWRH,2015-02-13T06:00:00Z,61.57,-64.65,-30.0,,,,,,29.991142,1022.3,,TRUE,,,,,,,,,,,,,,,,,,,,,,,,,,,,METAR,369.0
CWKP 130600Z AUTO 28002KT M25/ A3035 RMK SLP338,CWKP,2015-02-13T06:00:00Z,69.67,-121.67,-25.0,,280,2,,,30.351377,1033.8,,TRUE,,,,,,,,,,,,,,,,,,,,,,,,,,,,METAR,330.0
CWFD 130600Z AUTO 33018KT 9SM FEW071 M31/ A2956 RMK SLP127,CWFD,2015-02-13T06:00:00Z,66.57,-61.58,-31.0,,330,18,,9.0,29.56004,1012.7,,TRUE,,,,,,,,FEW,7100,,,,,,,VFR,,,,,,,,,,,,METAR,393.0
CWEU 130600Z 12017KT 12SM -SN DRSN SCT050 BKN120 BKN170 M36/M40 A3023 RMK SC4AC2AC1 SLP238,CWEU,2015-02-13T06:00:00Z,80.0,-85.92,-36.0,-40.0,120,17,,12.0,30.230314,1023.8,,,,,,,,,-SN DRSN,SCT,5000,BKN,12000,BKN,17000,,,VFR,,,,,,,,,,,,METAR,10.0
CYZX 130600Z 00000KT 5SM -SHSN OVC023 M07/M08 A2958 RMK SC8 WNDY HILL 00000KT SLP020,CYZX,2015-02-13T06:00:00Z,44.98,-64.92,-7.0,-8.0,0,0,,5.0,29.58071,1002.0,,,,,,,,,-SHSN,OVC,2300,,,,,,,MVFR,,,,,,,,,,,,METAR,28.0
CYZV 130600Z CCA 05004KT 2SM -SN VV015 M14/M17 A2967 RMK SN8 /S02/ SLP051,CYZV,2015-02-13T06:00:00Z,50.22,-66.27,-14.0,-17.0,50,4,,2.0,29.66929,1005.1,,,,,,,,,-SN,OVX,0,,,,,,,LIFR,,,,,,,,,,,1500,METAR,55.0
CYZF 130600Z 07010KT 15SM SKC M31/M35 A3049 RMK SLP357,CYZF,2015-02-13T06:00:00Z,62.47,-114.45,-31.0,-35.0,70,10,,15.0,30.490158,1035.7,,,,,,,,,,SKC,,,,,,,,VFR,,,,,,,,,,,,METAR,206.0
CYYZ 130600Z 33012KT 15SM SKC M19/M24 A3025 RMK SLP259,CYYZ,2015-02-13T06:00:00Z,43.67,-79.62,-19.0,-24.0,330,12,,15.0,30.250984,1025.9,,,,,,,,,,SKC,,,,,,,,VFR,,,,,,,,,,,,METAR,173.0
CYYR 130600Z 00000KT 3SM -SHSN OVC026 M23/M29 A2994 RMK SC8 /S01/ SLP145,CYYR,2015-02-13T06:00:00Z,53.32,-60.42,-23.0,-29.0,0,0,,3.0,29.940945,1014.5,,,,,,,,,-SHSN,OVC,2600,,,,,,,MVFR,,,,,,,,,,,,METAR,49.0
CYYQ 130600Z 28003KT 4SM -SN OVC040 M24/M26 A3002 RMK SC8 SLP170,CYYQ,2015-02-13T06:00:00Z,58.75,-94.07,-24.0,-26.0,280,3,,4.0,30.02067,1017.0,,,,,,,,,-SN,OVC,4000,,,,,,,MVFR,,,,,,,,,,,,METAR,29.0
CYYJ 130600Z 29005KT 15SM FEW007 SCT011 BKN016 OVC033 09/09 A3028 RMK SF2SC2SC1SC3 SLP254,CYYJ,2015-02-13T06:00:00Z,48.63,-123.42,9.0,9.0,290,5,,15.0,30.280512,1025.4,,,,,,,,,,FEW,700,SCT,1100,BKN,1600,OVC,3300,MVFR,,,,,,,,,,,,METAR,19.0
CYYC 130600Z 29014KT 15SM BKN083 09/M01 A3007 RMK AC7 SLP211,CYYC,2015-02-13T06:00:00Z,51.12,-114.02,9.0,-1.0,290,14,,15.0,30.070866,1021.1,,,,,,,,,,BKN,8300,,,,,,,VFR,,,,,,,,,,,,METAR,1084.0
CYWG 130600Z 21009KT 4SM -SN OVC018 M15/M17 A3003 RMK SC8 SLP194,CYWG,2015-02-13T06:00:00Z,49.88,-97.22,-15.0,-17.0,210,9,,4.0,30.029528,1019.4,,,,,,,,,-SN,OVC,1800,,,,,,,MVFR,,,,,,,,,,,,METAR,239.0
CYVR 130600Z 08005KT 15SM SCT032 OVC054 10/09 A3028 RMK SC3SC5 SLP254,CYVR,2015-02-13T06:00:00Z,49.17,-123.17,10.0,9.0,80,5,,15.0,30.280512,1025.4,,,,,,,,,,SCT,3200,OVC,5400,,,,,VFR,,,,,,,,,,,,METAR,2.0
CYUL 130600Z 28010KT 8SM -SN DRSN FEW030 OVC050 M18/M23 A2999 RMK SC2SC6 SLP159,CYUL,2015-02-13T06:00:00Z,45.47,-73.73,-18.0,-23.0,280,10,,8.0,29.991142,1015.9,,,,,,,,,-SN DRSN,FEW,3000,OVC,5000,,,,,VFR,,,,,,,,,,,,METAR,36.0
CYTR 130600Z 32004KT 15SM SKC M21/M25 A3019 RMK SLP232,CYTR,2015-02-13T06:00:00Z,44.12,-77.52,-21.0,-25.0,320,4,,15.0,30.188976,1023.2,,,,,,,,,,SKC,,,,,,,,VFR,,,,,,,,,,,,METAR,86.0
CYQY 130600Z 25004KT 10SM -SN OVC008 M06/M08 A2957 RMK ST8 SLP016,CYQY,2015-02-13T06:00:00Z,46.17,-60.03,-6.0,-8.0,250,4,,10.0,29.568897,1001.6,,,,,,,,,-SN,OVC,800,,,,,,,IFR,,,,,,,,,,,,METAR,62.0
CYQQ 130600Z 15009G15KT 20SM -SHRA FEW006 SCT017 OVC026 10/09 A3027 RMK SF1SC3SC4 SLP251,CYQQ,2015-02-13T06:00:00Z,49.72,-124.9,10.0,9.0,150,9,15,20.0,30.268702,1025.1,,,,,,,,,-SHRA,FEW,600,SCT,1700,OVC,2600,,,MVFR,,,,,,,,,,,,METAR,24.0
CYQG 130600Z 32009KT 15SM SKC M15/M21 A3035 RMK SLP292,CYQG,2015-02-13T06:00:00Z,42.27,-82.97,-15.0,-21.0,320,9,,15.0,30.351377,1029.2,,,,,,,,,,SKC,,,,,,,,VFR,,,,,,,,,,,,METAR,190.0
CYQB 130600Z 31007KT 15SM FEW045 SCT080 M16/M22 A2980 RMK SC2AC2 SLP098,CYQB,2015-02-13T06:00:00Z,46.78,-71.37,-16.0,-22.0,310,7,,15.0,29.799213,1009.8,,,,,,,,,,FEW,4500,SCT,8000,,,,,VFR,,,,,,,,,,,,METAR,73.0
CYOW 130600Z 31013KT 15SM FEW040 M22/M27 A3007 RMK SC1 SC TR OCNL DRSN SLP195,CYOW,2015-02-13T06:00:00Z,45.32,-75.67,-22.0,-27.0,310,13,,15.0,30.070866,1019.5,,,,,,,,,,FEW,4000,,,,,,,VFR,,,,,,,,,,,,METAR,114.0
CYMX 130600Z 32007KT 270V340 8SM -SN BKN032 OVC070 M18/M24 A2997 RMK SC6AC2 SLP157,CYMX,2015-02-13T06:00:00Z,45.67,-74.02,-18.0,-24.0,320,7,,8.0,29.970472,1015.7,,,,,,,,,-SN,BKN,3200,OVC,7000,,,,,VFR,,,,,,,,,,,,METAR,82.0
CYJT 130600Z 05005KT 15SM OVC022 M11/M14 A2961 RMK SC8 SLP028,CYJT,2015-02-13T06:00:00Z,48.55,-58.57,-11.0,-14.0,50,5,,15.0,29.610237,1002.8,,,,,,,,,,OVC,2200,,,,,,,MVFR,,,,,,,,,,,,METAR,26.0
CYHZ 130600Z 00000KT 15SM FEW008 OVC170 M10/M11 A2953 RMK ST1AS7 PRESRR SLP008,CYHZ,2015-02-13T06:00:00Z,44.87,-63.5,-10.0,-11.0,0,0,,15.0,29.530512,1000.8,,,,,,,,,,FEW,800,OVC,17000,,,,,VFR,,,,,,,,,,,,METAR,145.0
CYGL 130600Z 34005KT 15SM SKC M37/M41 A3011 RMK SLP230,CYGL,2015-02-13T06:00:00Z,53.62,-77.7,-37.0,-41.0,340,5,,15.0,30.109253,1023.0,,,,,,,,,,SKC,,,,,,,,VFR,,,,,,,,,,,,METAR,195.0
CYFC 130600Z AUTO 30006KT 9SM -SN OVC024 M13/M15 A2963 RMK SLP034,CYFC,2015-02-13T06:00:00Z,45.87,-66.52,-13.0,-15.0,300,6,,9.0,29.630905,1003.4,,TRUE,,,,,,,-SN,OVC,2400,,,,,,,MVFR,,,,,,,,,,,,METAR,20.0
CYFB 130600Z 33019KT 12SM IC DRSN SKC M35/M40 A3023 RMK SLP244,CYFB,2015-02-13T06:00:00Z,63.75,-68.55,-35.0,-40.0,330,19,,12.0,30.230314,1024.4,,,,,,,,,IC DRSN,SKC,,,,,,,,VFR,,,,,,,,,,,,METAR,34.0
CYEG 130600Z 27003KT 15SM BKN057 BKN100 00/M03 A3004 RMK SC5AC1 SLP209,CYEG,2015-02-13T06:00:00Z,53.28,-113.57,0.0,-3.0,270,3,,15.0,30.041338,1020.9,,,,,,,,,,BKN,5700,BKN,10000,,,,,VFR,,,,,,,,,,,,METAR,723.0
CYBG 130600Z 27016G21KT 5SM -SN BLSN FEW020 OVC060 M20/M24 A2982 RMK SC2SC6 /S01/ SLP114,CYBG,2015-02-13T06:00:00Z,48.33,-70.98,-20.0,-24.0,270,16,21,5.0,29.819881,1011.4,,,,,,,,,-SN BLSN,FEW,2000,OVC,6000,,,,,MVFR,,,,,,,,,,,,METAR,159.0
CZVL 130600Z AUTO 33004KT 9SM BKN130 BKN150 03/M00 A3004 RMK SLP205,CZVL,2015-02-13T06:00:00Z,53.67,-113.85,3.0,0.0,330,4,,9.0,30.041338,1020.5,,TRUE,,,,,,,,BKN,13000,BKN,15000,,,,,VFR,,,,,,,,,,,,METAR,686.0
CYYN 130600Z AUTO 24011KT 9SM BKN070 BKN081 00/M02 A3003 RMK SLP205,CYYN,2015-02-13T06:00:00Z,50.27,-107.67,0.0,-2.0,240,11,,9.0,30.029528,1020.5,,TRUE,,,,,,,,BKN,7000,BKN,8100,,,,,VFR,,,,,,,,,,,,METAR,818.0
CYYL 130600Z AUTO 32007KT 9SM CLR M24/M26 A3002 RMK SLP211,CYYL,2015-02-13T06:00:00Z,56.87,-101.07,-24.0,-26.0,320,7,,9.0,30.02067,1021.1,,TRUE,,,,,,,,CLR,,,,,,,,VFR,,,,,,,,,,,,METAR,357.0
CYXD 130600Z AUTO 27005KT 9SM CLR 02/M01 A3004 RMK SLP203,CYXD,2015-02-13T06:00:00Z,53.57,-113.52,2.0,-1.0,270,5,,9.0,30.041338,1020.3,,TRUE,,,,,,,,CLR,,,,,,,,VFR,,,,,,,,,,,,METAR,671.0
CYVC 130600Z 30004KT 15SM -SN OVC020 M11/M14 A3010 RMK SC8 SLP229,CYVC,2015-02-13T06:00:00Z,55.15,-105.27,-11.0,-14.0,300,4,,15.0,30.100393,1022.9,,,,,,,,,-SN,OVC,2000,,,,,,,MVFR,,,,,,,,,,,,METAR,379.0
CYQW 130600Z AUTO VRB02KT 9SM BKN044 OVC055 M08/M09 A3007 RMK SLP224,CYQW,2015-02-13T06:00:00Z,52.77,-108.25,-8.0,-9.0,0,2,,9.0,30.070866,1022.4,,TRUE,,,,,,,,BKN,4400,OVC,5500,,,,,VFR,,,,,,,,,,,,METAR,548.0
CYQR 130600Z 33004KT 12SM BKN150 BKN240 M12/M13 A3006 RMK AC5CI2 SLP227,CYQR,2015-02-13T06:00:00Z,50.43,-104.67,-12.0,-13.0,330,4,,12.0,30.059055,1022.7,,,,,,,,,,BKN,15000,BKN,24000,,,,,VFR,,,,,,,,,,,,METAR,577.0
CYQL 130600Z AUTO 26020G26KT 9SM OVC100 08/01 A3008 RMK SLP199,CYQL,2015-02-13T06:00:00Z,49.63,-112.8,8.0,1.0,260,20,26,9.0,30.079725,1019.9,,TRUE,,,,,,,,OVC,10000,,,,,,,VFR,,,,,,,,,,,,METAR,929.0
CYQF 130600Z 20005KT 170V240 15SM BKN060 OVC120 01/M02 A3007 RMK SC6AC2 SLP231,CYQF,2015-02-13T06:00:00Z,52.17,-113.9,1.0,-2.0,200,5,,15.0,30.070866,1023.1,,,,,,,,,,BKN,6000,OVC,12000,,,,,VFR,,,,,,,,,,,,METAR,905.0
CYPY 130600Z AUTO 01003KT 310V030 9SM -SN OVC075 M19/M21 A3033 RMK SLP298,CYPY,2015-02-13T06:00:00Z,58.77,-111.12,-19.0,-21.0,10,3,,9.0,30.33071,1029.8,,TRUE,,,,,,,-SN,OVC,7500,,,,,,,VFR,,,,,,,,,,,,METAR,232.0
CYMM 130600Z AUTO 32006KT 9SM -SN M13/M15 A3020 RMK CLD MISG SLP260,CYMM,2015-02-13T06:00:00Z,56.65,-111.22,-13.0,-15.0,320,6,,9.0,30.200787,1026.0,,TRUE,,,,,,,-SN,,,,,,,,,,,,,,,,,,,,,METAR,369.0
CYKJ 130600Z AUTO 34004KT 9SM OVC065 M19/M22 A3007 RMK SLP238,CYKJ,2015-02-13T06:00:00Z,57.25,-105.62,-19.0,-22.0,340,4,,9.0,30.070866,1023.8,,TRUE,,,,,,,,OVC,6500,,,,,,,VFR,,,,,,,,,,,,METAR,509.0
CYGX 130600Z VRB02KT 12SM -SN OVC050 M25/M28 A2996 RMK SC8 SLP167,CYGX,2015-02-13T06:00:00Z,56.35,-94.7,-25.0,-28.0,0,2,,12.0,29.958662,1016.7,,,,,,,,,-SN,OVC,5000,,,,,,,VFR,,,,,,,,,,,,METAR,145.0
CYET 130600Z AUTO VRB02KT 9SM OVC060 04/03 A3004 RMK PCPN 0.8MM PAST HR SLP212,CYET,2015-02-13T06:00:00Z,53.57,-116.47,4.0,3.0,0,2,,9.0,30.041338,1021.2,,TRUE,,,,,,,,OVC,6000,,,,,,,VFR,,,,,,,,,,,,METAR,925.0
CYEN 130600Z 26008KT 15SM FEW100 FEW220 M10/M11 A3005 RMK AC1CI1 AC TR CI TR SLP221,CYEN,2015-02-13T06:00:00Z,49.22,-102.97,-10.0,-11.0,260,8,,15.0,30.050198,1022.1,,,,,,,,,,FEW,10000,FEW,22000,,,,,VFR,,,,,,,,,,,,METAR,581.0
CYDN 130600Z AUTO 29013G18KT 9SM -SN OVC016 M10/M12 A3003 RMK SLP197,CYDN,2015-02-13T06:00:00Z,51.1,-100.03,-10.0,-12.0,290,13,18,9.0,30.029528,1019.7,,TRUE,,,,,,,-SN,OVC,1600,,,,,,,MVFR,,,,,,,,,,,,METAR,305.0
CYBU 130600Z AUTO 24006KT 9SM -SN OVC021 M11/M13 A3010 RMK PRESRR SLP227,CYBU,2015-02-13T06:00:00Z,53.32,-104.0,-11.0,-13.0,240,6,,9.0,30.100393,1022.7,,TRUE,,,,,,,-SN,OVC,2100,,,,,,,MVFR,,,,,,,,,,,,METAR,374.0
CYBR 130600Z 28011KT 15SM SCT011 OVC150 M12/M14 A3002 RMK SC3CC5 SLP206,CYBR,2015-02-13T06:00:00Z,49.92,-99.95,-12.0,-14.0,280,11,,15.0,30.02067,1020.6,,,,,,,,,,SCT,1100,OVC,15000,,,,,VFR,,,,,,,,,,,,METAR,409.0
CYBQ 130600Z AUTO 33006KT 9SM -SN OVC055 M27/M30 A2999 RMK SLP194,CYBQ,2015-02-13T06:00:00Z,58.7,-98.5,-27.0,-30.0,330,6,,9.0,29.991142,1019.4,,TRUE,,,,,,,-SN,OVC,5500,,,,,,,VFR,,,,,,,,,,,,METAR,262.0
CWHN 130600Z AUTO 06007KT 9SM OVC071 M08/M11 A3004 RMK SLP222,CWHN,2015-02-13T06:00:00Z,54.88,-109.97,-8.0,-11.0,60,7,,9.0,30.041338,1022.2,,TRUE,,,,,,,,OVC,7100,,,,,,,VFR,,,,,,,,,,,,METAR,636.0
CZBF 130600Z CCA VRB02KT 12SM -SN BKN050 M14/M16 A2962 RMK SC7 SLP034,CZBF,2015-02-13T06:00:00Z,47.62,-65.75,-14.0,-16.0,0,2,,12.0,29.619095,1003.4,,,,,,,,,-SN,BKN,5000,,,,,,,VFR,,,,,,,,,,,,METAR,59.0
SCAT 130600Z AUTO 24004KT 210V280 9999 // ///007 16/14 Q1013,SCAT,2015-02-13T06:00:00Z,-27.27,-70.77,16.0,14.0,240,4,,6.21,29.911417,,,TRUE,,,,,,,,,,,,,,,,,,,,,,,,,,,,METAR,204.0
NCPY 130600Z AUTO 09004KT //// ////// 27/25 Q1007,NCPY,2015-02-13T06:00:00Z,-9.02,-158.07,27.0,25.0,90,4,,,29.734253,,,TRUE,,,,,,,,,,,,,,,,,,,,,,,,,,,,METAR,2.0
NCAI 130600Z AUTO 10007KT //// ////// 26/23 Q1012,NCAI,2015-02-13T06:00:00Z,-18.82,-159.77,26.0,23.0,100,7,,,29.88189,,,TRUE,,,,,,,,,,,,,,,,,,,,,,,,,,,,METAR,6.0
NCRG 130600Z 11008KT 9999 FEW016 27/24 Q1012,NCRG,2015-02-13T06:00:00Z,-21.2,-159.82,27.0,24.0,110,8,,6.21,29.88189,,,,,,,,,,,FEW,1600,,,,,,,VFR,,,,,,,,,,,,METAR,7.0
HUEN 130600Z 35004KT 7000 FEW020 FEW022CB SCT250 24/19 Q1018,HUEN,2015-02-13T06:00:00Z,0.03,32.45,24.0,19.0,350,4,,4.35,30.059055,,,,,,,,,,,FEW,2000,FEW,2200,SCT,25000,,,MVFR,,,,,,,,,,,,METAR,1155.0
OEYN 130600Z 08004KT 9000 SKC 14/07 Q1016 NOSIG,OEYN,2015-02-13T06:00:00Z,24.13,38.07,14.0,7.0,80,4,,5.59,30.0,,,,,,TRUE,,,,,SKC,,,,,,,,VFR,,,,,,,,,,,,METAR,8.0
OEWJ 130600Z 07006KT 9000 SCT040 17/07 Q1019 NOSIG,OEWJ,2015-02-13T06:00:00Z,26.18,36.47,17.0,7.0,70,6,,5.59,30.088583,,,,,,TRUE,,,,,SCT,4000,,,,,,,VFR,,,,,,,,,,,,METAR,16.0
OEWD 130600Z 05006KT 1200 DU SKC 21/08 Q1017 NOSIG,OEWD,2015-02-13T06:00:00Z,20.5,45.2,21.0,8.0,50,6,,0.75,30.029528,,,,,,TRUE,,,,DU,SKC,,,,,,,,LIFR,,,,,,,,,,,,METAR,617.0
OETR 130600Z 15003KT 8000 SKC 04/M03 Q1017,OETR,2015-02-13T06:00:00Z,31.7,38.73,4.0,-3.0,150,3,,4.97,30.029528,,,,,,,,,,,SKC,,,,,,,,MVFR,,,,,,,,,,,,METAR,855.0
OETB 130600Z 29010KT CAVOK 07/M06 Q1018 NOSIG,OETB,2015-02-13T06:00:00Z,28.37,36.62,7.0,-6.0,290,10,,6.21,30.059055,,,,,,TRUE,,,,,CAVOK,,,,,,,,VFR,,,,,,,,,,,,METAR,770.0
OESK 130600Z 06005KT 4000 HZ SKC 08/M06 Q1018 NOSIG,OESK,2015-02-13T06:00:00Z,29.77,40.1,8.0,-6.0,60,5,,2.49,30.059055,,,,,,TRUE,,,,HZ,SKC,,,,,,,,IFR,,,,,,,,,,,,METAR,684.0
OESH 130600Z 20011KT 6000 SKC 22/07 Q1017 NOSIG,OESH,2015-02-13T06:00:00Z,17.47,47.12,22.0,7.0,200,11,,3.73,30.029528,,,,,,TRUE,,,,,SKC,,,,,,,,MVFR,,,,,,,,,,,,METAR,722.0
OERY 130600Z 07008KT 3000 DU NSC 16/M04 Q1020,OERY,2015-02-13T06:00:00Z,24.72,46.72,16.0,-4.0,70,8,,1.86,30.11811,,,,,,,,,,DU,,,,,,,,,,,,,,,,,,,,,METAR,612.0
OERR 130600Z 00000KT 3000 HZ SKC 08/00 Q1018 NOSIG,OERR,2015-02-13T06:00:00Z,30.88,41.12,8.0,0.0,0,0,,1.86,30.059055,,,,,,TRUE,,,,HZ,SKC,,,,,,,,IFR,,,,,,,,,,,,METAR,552.0
OEPA 130600Z 07006KT 9000 SKC 12/03 Q1019 NOSIG,OEPA,2015-02-13T06:00:00Z,28.32,46.12,12.0,3.0,70,6,,5.59,30.088583,,,,,,TRUE,,,,,SKC,,,,,,,,VFR,,,,,,,,,,,,METAR,355.0
OENG 130600Z 21004KT CAVOK 25/03 Q1019 NOSIG,OENG,2015-02-13T06:00:00Z,17.62,44.42,25.0,3.0,210,4,,6.21,30.088583,,,,,,TRUE,,,,,CAVOK,,,,,,,,VFR,,,,,,,,,,,,METAR,1203.0
OEMK 130600Z 00000KT 9999 SCT040 20/13 Q1017,OEMK,2015-02-13T06:00:00Z,21.43,40.0,20.0,13.0,0,0,,6.21,30.029528,,,,,,,,,,,SCT,4000,,,,,,,VFR,,,,,,,,,,,,METAR,369.0
OEKM 130600Z 18008KT CAVOK 16/09 Q1025 NOSIG,OEKM,2015-02-13T06:00:00Z,18.3,42.78,16.0,9.0,180,8,,6.21,30.265747,,,,,,TRUE,,,,,CAVOK,,,,,,,,VFR,,,,,,,,,,,,METAR,2054.0
OEKJ 130600Z 02010KT 2000 DU SKC 16/M06 Q1020,OEKJ,2015-02-13T06:00:00Z,24.07,47.58,16.0,-6.0,20,10,,1.24,30.11811,,,,,,,,,,DU,SKC,,,,,,,,IFR,,,,,,,,,,,,METAR,503.0
OEHL 130600Z 22004KT 5000 DU SKC 10/M04 Q1018,OEHL,2015-02-13T06:00:00Z,27.42,41.67,10.0,-4.0,220,4,,3.11,30.059055,,,,,,,,,,DU,SKC,,,,,,,,MVFR,,,,,,,,,,,,METAR,1013.0
OEGS 130600Z 09007KT 4000 DU SKC 14/M01 Q1018,OEGS,2015-02-13T06:00:00Z,26.3,43.77,14.0,-1.0,90,7,,2.49,30.059055,,,,,,,,,,DU,SKC,,,,,,,,IFR,,,,,,,,,,,,METAR,650.0
OEGN 130600Z 13005KT 9999 FEW030 27/20 Q1016 NOSIG,OEGN,2015-02-13T06:00:00Z,16.88,42.57,27.0,20.0,130,5,,6.21,30.0,,,,,,TRUE,,,,,FEW,3000,,,,,,,VFR,,,,,,,,,,,,METAR,3.0
OEDM 130600Z 09015KT 2500 DU SKC 16/M07 Q1018,OEDM,2015-02-13T06:00:00Z,24.45,44.12,16.0,-7.0,90,15,,1.55,30.059055,,,,,,,,,,DU,SKC,,,,,,,,IFR,,,,,,,,,,,,METAR,922.0
OEBH 130600Z 24002KT CAVOK 22/13 Q1019 NOSIG,OEBH,2015-02-13T06:00:00Z,19.97,42.62,22.0,13.0,240,2,,6.21,30.088583,,,,,,TRUE,,,,,CAVOK,,,,,,,,VFR,,,,,,,,,,,,METAR,1157.0
OEBA 130600Z 16004KT CAVOK 19/14 Q1021 NOSIG,OEBA,2015-02-13T06:00:00Z,20.3,41.62,19.0,14.0,160,4,,6.21,30.147638,,,,,,TRUE,,,,,CAVOK,,,,,,,,VFR,,,,,,,,,,,,METAR,1656.0
OEAH 130600Z 02016KT 2500 +BLDU FEW050 SCT100 18/10 Q1017,OEAH,2015-02-13T06:00:00Z,25.27,49.47,18.0,10.0,20,16,,1.55,30.029528,,,,,,,,,,+BLDU,FEW,5000,SCT,10000,,,,,IFR,,,,,,,,,,,,METAR,172.0
OEAB 130600Z 19011KT CAVOK 15/12 Q1025 NOSIG,OEAB,2015-02-13T06:00:00Z,18.22,42.63,15.0,12.0,190,11,,6.21,30.265747,,,,,,TRUE,,,,,CAVOK,,,,,,,,VFR,,,,,,,,,,,,METAR,2084.0
GQPZ 130600Z 32004KT CAVOK 15/05 Q1021,GQPZ,2015-02-13T06:00:00Z,22.75,-12.48,15.0,5.0,320,4,,6.21,30.147638,,,,,,,,,,,CAVOK,,,,,,,,VFR,,,,,,,,,,,,METAR,344.0
GOGG 130600Z 34004KT CAVOK 21/14 Q1016,GOGG,2015-02-13T06:00:00Z,12.55,-16.27,21.0,14.0,340,4,,6.21,30.0,,,,,,,,,,,CAVOK,,,,,,,,VFR,,,,,,,,,,,,METAR,23.0
GOSS 130600Z 36008KT CAVOK 19/15 Q1016,GOSS,2015-02-13T06:00:00Z,16.05,-16.43,19.0,15.0,360,8,,6.21,30.0,,,,,,,,,,,CAVOK,,,,,,,,VFR,,,,,,,,,,,,METAR,4.0
GOGS 130600Z 36010KT CAVOK 21/16 Q1014,GOGS,2015-02-13T06:00:00Z,12.4,-16.75,21.0,16.0,360,10,,6.21,29.940945,,,,,,,,,,,CAVOK,,,,,,,,VFR,,,,,,,,,,,,METAR,13.0
OETF 130600Z 19015KT CAVOK 19/11 Q1020 NOSIG,OETF,2015-02-13T06:00:00Z,21.47,40.53,19.0,11.0,190,15,,6.21,30.11811,,,,,,TRUE,,,,,CAVOK,,,,,,,,VFR,,,,,,,,,,,,METAR,1449.0
FIMR 130600Z 14008KT 9999 SCT018 28/25 Q1010,FIMR,2015-02-13T06:00:00Z,-19.75,63.37,28.0,25.0,140,8,,6.21,29.822834,,,,,,,,,,,SCT,1800,,,,,,,VFR,,,,,,,,,,,,METAR,31.0
SANT 130600Z 00000KT 9999 OVC040 23/21 Q1018,SANT,2015-02-13T06:00:00Z,-26.85,-65.08,23.0,21.0,0,0,,6.21,30.059055,,,,,,,,,,,OVC,4000,,,,,,,VFR,,,,,,,,,,,,METAR,450.0
FWKI 130600Z 12005KT 9999 FEW021 23/19 Q1018 NOSIG,FWKI,2015-02-13T06:00:00Z,-13.77,33.77,23.0,19.0,120,5,,6.21,30.059055,,,,,,TRUE,,,,,FEW,2100,,,,,,,VFR,,,,,,,,,,,,SPECI,1229.0
LIMP 130600Z VRB03KT 4000 BR BKN040 M01/M02 Q1025,LIMP,2015-02-13T06:00:00Z,44.82,10.3,-1.0,-2.0,0,3,,2.49,30.265747,,,,,,,,,,BR,BKN,4000,,,,,,,IFR,,,,,,,,,,,,SPECI,50.0
UUOK 130600Z 29002MPS 3000 BR OVC002 M04/M05 Q1027 NOSIG RMK QBB080 30490034,UUOK,2015-02-13T06:00:00Z,51.75,36.28,-4.0,-5.0,290,4,,1.86,30.324802,,,,,,TRUE,,,,BR,OVC,200,,,,,,,LIFR,,,,,,,,,,,,METAR,209.0
UUBP 130600Z 27002MPS 9999 OVC015 M02/M03 Q1024 NOSIG 34490240 RMK QFE751,UUBP,2015-02-13T06:00:00Z,53.22,34.18,-2.0,-3.0,270,4,,6.21,30.236221,,,,,,TRUE,,,,,OVC,1500,,,,,,,MVFR,,,,,,,,,,,,METAR,202.0
USCM 130600Z 21010MPS 9999 SCT100 M07/M11 Q1013 NOSIG 19090060 RMK QFE722,USCM,2015-02-13T06:00:00Z,53.4,58.75,-7.0,-11.0,210,19,,6.21,29.911417,,,,,,TRUE,,,,,SCT,10000,,,,,,,VFR,,,,,,,,,,,,METAR,435.0
UWOR 130600Z 26006MPS 9999 FEW010 BKN100 M10/M12 Q1022 25390105 NOSIG RMK QFE743/0990,UWOR,2015-02-13T06:00:00Z,51.07,58.6,-10.0,-12.0,260,12,,6.21,30.177166,,,,,,TRUE,,,,,FEW,1000,BKN,10000,,,,,VFR,,,,,,,,,,,,METAR,277.0
UWLW 130600Z 27004MPS 8000 OVC008 M04/M05 Q1019 20800250 TEMPO OVC007 RMK QFE758,UWLW,2015-02-13T06:00:00Z,54.4,48.8,-4.0,-5.0,270,8,,4.97,30.088583,,,,,,,,,,,OVC,800,,,,,,,IFR,,,0.0,,,,,,,,,METAR,66.0
YCCY 130600Z AUTO 12013KT //// // ////// 38/12 Q1008,YCCY,2015-02-13T06:00:00Z,-20.67,140.5,38.0,12.0,120,13,,,29.763779,,,TRUE,,,,,,,,,,,,,,,,,,,,,,,,,,,,METAR,570.0
YCBP 130600Z AUTO 01009KT 350V050 //// // NCD 41/00 Q1012,YCBP,2015-02-13T06:00:00Z,-29.03,134.72,41.0,0.0,10,9,,,29.88189,,,TRUE,,,,,,,,,,,,,,,,,,,,,,,,,,,,METAR,226.0
YCBB 130600Z AUTO 16009KT //// // ////// 25/15 Q1021,YCBB,2015-02-13T06:00:00Z,-31.33,149.27,25.0,15.0,160,9,,,30.147638,,,TRUE,,,,,,,,,,,,,,,,,,,,,,,,,,,,METAR,645.0
YCBA 130600Z AUTO 08010KT 060V140 //// // ////// 34/12 Q1015,YCBA,2015-02-13T06:00:00Z,-31.53,145.8,34.0,12.0,80,10,,,29.970472,,,TRUE,,,,,,,,,,,,,,,,,,,,,,,,,,,,METAR,221.0
YCAS 130600Z AUTO 11016KT //// // ////// 26/16 Q1020,YCAS,2015-02-13T06:00:00Z,-28.88,153.07,26.0,16.0,110,16,,,30.11811,,,TRUE,,,,,,,,,,,,,,,,,,,,,,,,,,,,METAR,26.0
YCAR 130600Z AUTO 22017KT 9999 // NCD 30/23 Q1007,YCAR,2015-02-13T06:00:00Z,-24.88,113.67,30.0,23.0,220,17,,6.21,29.734253,,,TRUE,,,,,,,,,,,,,,,,,,,,,,,,,,,,METAR,8.0
YBWX 130600Z AUTO 30015KT //// // ////// 37/19 Q1007,YBWX,2015-02-13T06:00:00Z,-20.88,115.4,37.0,19.0,300,15,,,29.734253,,,TRUE,,,,,,,,,,,,,,,,,,,,,,,,,,,,METAR,6.0
YBUD 130600Z AUTO 12019KT 9999 // NCD 29/18 Q1015,YBUD,2015-02-13T06:00:00Z,-24.9,152.32,29.0,18.0,120,19,,6.21,29.970472,,,TRUE,,,,,,,,,,,,,,,,,,,,,,,,,,,,METAR,82.0
UHMA 130600Z 36006G10MPS 9999 DRSN SKC M28/M31 Q1022 NOSIG RMK QFE762/1017 8875//40,UHMA,2015-02-13T06:00:00Z,64.73,177.73,-28.0,-31.0,360,12,19,6.21,30.177166,,,,,,TRUE,,,,DRSN,SKC,,,,,,,,VFR,,,,,,,,,,,,METAR,62.0
FKYS 130600Z 00000KT 6000 SCT003 BKN006 20/19 Q1018 TEMPO 3000 BR,FKYS,2015-02-13T06:00:00Z,3.82,11.52,20.0,19.0,0,0,,3.73,30.059055,,,,,,,,,,,SCT,300,BKN,600,,,,,IFR,,,,,,,,,,,,METAR,760.0
FKKR 130600Z 33002KT 7000 NSC 22/05 Q1013,FKKR,2015-02-13T06:00:00Z,9.32,13.37,22.0,5.0,330,2,,4.35,29.911417,,,,,,,,,,,,,,,,,,,,,,,,,,,,,,,METAR,244.0
FKKN 130600Z 00000KT 6000 NSC 16/05 Q1019,FKKN,2015-02-13T06:00:00Z,7.33,13.57,16.0,5.0,0,0,,3.73,30.088583,,,,,,,,,,,,,,,,,,,,,,,,,,,,,,,METAR,1104.0
FKKD 130600Z 10008KT 7000 BKN013 FEW016CB 25/22 Q1013 NOSIG,FKKD,2015-02-13T06:00:00Z,4.0,9.72,25.0,22.0,100,8,,4.35,29.911417,,,,,,TRUE,,,,,BKN,1300,FEW,1600,,,,,MVFR,,,,,,,,,,,,METAR,9.0
YBDV 130600Z AUTO 15008G19KT //// // ////// 40/08 Q1010,YBDV,2015-02-13T06:00:00Z,-25.9,139.35,40.0,8.0,150,8,19,,29.822834,,,TRUE,,,,,,,,,,,,,,,,,,,,,,,,,,,,METAR,47.0
YBCV 130600Z AUTO 11016KT 9999 // SCT098 35/06 Q1014,YBCV,2015-02-13T06:00:00Z,-26.38,146.27,35.0,6.0,110,16,,6.21,29.940945,,,TRUE,,,,,,,,SCT,9800,,,,,,,VFR,,,,,,,,,,,,METAR,304.0
FEFF 130600Z 00000KT 8000 FEW005 BKN300 23/22 Q1012 NOSIG,FEFF,2015-02-13T06:00:00Z,4.4,18.52,23.0,22.0,0,0,,4.97,29.88189,,,,,,TRUE,,,,,FEW,500,BKN,30000,,,,,MVFR,,,,,,,,,,,,METAR,366.0
FCPP 130600Z 02007KT 7000 SCT010 SCT023 24/23 Q1011 NOSIG,FCPP,2015-02-13T06:00:00Z,-4.82,11.9,24.0,23.0,20,7,,4.35,29.852362,,,,,,TRUE,,,,,SCT,1000,SCT,2300,,,,,MVFR,,,,,,,,,,,,METAR,17.0
FCBB 130600Z 11004KT 9999 BKN020 FEW030CB 23/21 Q1016 NOSIG,FCBB,2015-02-13T06:00:00Z,-4.25,15.25,23.0,21.0,110,4,,6.21,30.0,,,,,,TRUE,,,,,BKN,2000,FEW,3000,,,,,MVFR,,,,,,,,,,,,METAR,316.0
OEKK 130600Z 03010KT 5000 BLDU SKC 11/M01 Q1020 NOSIG,OEKK,2015-02-13T06:00:00Z,27.88,45.52,11.0,-1.0,30,10,,3.11,30.11811,,,,,,TRUE,,,,BLDU,SKC,,,,,,,,MVFR,,,,,,,,,,,,METAR,413.0
VTSG 130600Z 06008KT 010V110 9999 FEW020 32/17 Q1011 A2986,VTSG,2015-02-13T06:00:00Z,8.1,98.98,32.0,17.0,60,8,,6.21,29.852362,,,,,,,,,,,FEW,2000,,,,,,,VFR,,,,,,,,,,,,METAR,25.0
DAAS 130600Z 04002KT 9999 FEW026 SCT100 02/01 Q1020,DAAS,2015-02-13T06:00:00Z,36.18,5.33,2.0,1.0,40,2,,6.21,30.11811,,,,,,,,,,,FEW,2600,SCT,10000,,,,,VFR,,,,,,,,,,,,METAR,1038.0
WMAU 130600Z 01011KT 9999 FEW020 BKN140 28/22 Q//// QFF1011,WMAU,2015-02-13T06:00:00Z,2.38,103.88,28.0,22.0,10,11,,6.21,,,,,,,,,,,,FEW,2000,BKN,14000,,,,,VFR,,,,,,,,,,,,METAR,45.0
DAAJ 130600Z 00000KT 7000 NSC 14/03 Q1019,DAAJ,2015-02-13T06:00:00Z,24.28,9.47,14.0,3.0,0,0,,4.35,30.088583,,,,,,,,,,,,,,,,,,,,,,,,,,,,,,,METAR,968.0
DXNG 130600Z 07002KT CAVOK 23/11 Q1016 NOSIG,DXNG,2015-02-13T06:00:00Z,9.77,1.1,23.0,11.0,70,2,,6.21,30.0,,,,,,TRUE,,,,,CAVOK,,,,,,,,VFR,,,,,,,,,,,,METAR,343.0
DXXX 130600Z 24004KT 8000 FEW012 26/26 Q1012 NOSIG,DXXX,2015-02-13T06:00:00Z,6.17,1.25,26.0,26.0,240,4,,4.97,29.88189,,,,,,TRUE,,,,,FEW,1200,,,,,,,MVFR,,,,,,,,,,,,METAR,25.0
DNKN 130600Z 07009KT 5000 HZ NSC 17/M01 Q1016 NOSIG,DNKN,2015-02-13T06:00:00Z,12.05,8.52,17.0,-1.0,70,9,,3.11,30.0,,,,,,TRUE,,,,HZ,,,,,,,,,,,,,,,,,,,,,METAR,481.0
DGAA 130600Z 26009KT 9999 FEW010 25/25 Q1012 NOSIG,DGAA,2015-02-13T06:00:00Z,5.58,-0.17,25.0,25.0,260,9,,6.21,29.88189,,,,,,TRUE,,,,,FEW,1000,,,,,,,VFR,,,,,,,,,,,,METAR,69.0
DRZR 130600Z 04008KT 1600 DU NSC 21/M07 Q1016,DRZR,2015-02-13T06:00:00Z,13.77,8.97,21.0,-7.0,40,8,,0.99,30.0,,,,,,,,,,DU,,,,,,,,,,,,,,,,,,,,,METAR,453.0
DRZA 130600Z 12010KT CAVOK 19/M02 Q1017,DRZA,2015-02-13T06:00:00Z,16.97,8.0,19.0,-2.0,120,10,,6.21,30.029528,,,,,,,,,,,CAVOK,,,,,,,,VFR,,,,,,,,,,,,METAR,502.0
DRRT 130600Z 10010KT CAVOK 23/M05 Q1014,DRRT,2015-02-13T06:00:00Z,14.9,5.25,23.0,-5.0,100,10,,6.21,29.940945,,,,,,,,,,,CAVOK,,,,,,,,VFR,,,,,,,,,,,,METAR,391.0
DRRN 130600Z 11006KT 6000 NSC 25/M03 Q1013 BECMG 4000 DU,DRRN,2015-02-13T06:00:00Z,13.47,2.17,25.0,-3.0,110,6,,3.73,29.911417,,,,,,,,,,,,,,,,,,,,,,,,,,,,,,,METAR,227.0
DRRM 130600Z 08006KT CAVOK 21/M03 Q1015,DRRM,2015-02-13T06:00:00Z,13.5,7.12,21.0,-3.0,80,6,,6.21,29.970472,,,,,,,,,,,CAVOK,,,,,,,,VFR,,,,,,,,,,,,METAR,373.0
LEMO 130600Z 17002KT 7000 NSC 05/04 Q1023 NOSIG,LEMO,2015-02-13T06:00:00Z,37.17,-5.62,5.0,4.0,170,2,,4.35,30.206694,,,,,,TRUE,,,,,,,,,,,,,,,,,,,,,,,,,METAR,88.0
OYMT 130600Z 00000KT CAVOK 21/09 Q////,OYMT,2015-02-13T06:00:00Z,,,21.0,9.0,0,0,,6.21,,,,,,,,,,,,CAVOK,,,,,,,,VFR,,,,,,,,,,,,METAR,
SMJP 130600Z VRB02KT 9999 FEW010 BKN030 25/24 Q1014 NOSIG,SMJP,2015-02-13T06:00:00Z,5.45,-55.17,25.0,24.0,0,2,,6.21,29.940945,,,,,,TRUE,,,,,FEW,1000,BKN,3000,,,,,MVFR,,,,,,,,,,,,METAR,16.0
SVMI 130600Z 00000KT 9999 FEW016 SCT100 29/26 Q1016 NOSIG,SVMI,2015-02-13T06:00:00Z,10.58,-67.0,29.0,26.0,0,0,,6.21,30.0,,,,,,TRUE,,,,,FEW,1600,SCT,10000,,,,,VFR,,,,,,,,,,,,METAR,48.0
SKBO 130600Z 06005KT 9999 BKN025 12/10 A3036,SKBO,2015-02-13T06:00:00Z,4.7,-74.12,12.0,10.0,60,5,,6.21,30.360237,,,,,,,,,,,BKN,2500,,,,,,,MVFR,,,,,,,,,,,,METAR,2548.0
LPBJ 130600Z 25004KT 0200 R19/0600 FG VV001 03/03 Q1024,LPBJ,2015-02-13T06:00:00Z,38.08,-7.93,3.0,3.0,250,4,,0.12,30.236221,,,,,,,,,,FG,OVX,0,,,,,,,LIFR,,,,,,,,,,,100,METAR,247.0
LPLA 130600Z /////KT 9999 FEW030 14/11 Q1025,LPLA,2015-02-13T06:00:00Z,38.77,-27.1,14.0,11.0,,,,6.21,30.265747,,,,,,,,,,,FEW,3000,,,,,,,VFR,,,,,,,,,,,,METAR,55.0
LKVO 130600Z 29001KT 8000 OVC015 M00/M02 Q1022,LKVO,2015-02-13T06:00:00Z,50.22,14.4,0.0,-2.0,290,1,,4.97,30.177166,,,,,,,,,,,OVC,1500,,,,,,,MVFR,,,,,,,,,,,,METAR,280.0
UAKD 130600Z 09003MPS 7000 FEW016 M06/M08 Q1027 R04/0///60 NOSIG RMK QFE737/0982,UAKD,2015-02-13T06:00:00Z,47.7,67.73,-6.0,-8.0,90,6,,4.35,30.324802,,,,,,TRUE,,,,,FEW,1600,,,,,,,MVFR,,,,,,,,,,,,SPECI,381.0
DFFD 130600Z 00000KT 8000 NSC 25/09 Q1013 BECMG 2500 HZ,DFFD,2015-02-13T06:00:00Z,12.33,-1.52,25.0,9.0,0,0,,4.97,29.911417,,,,,,,,,,,,,,,,,,,,,,,,,,,,,,,METAR,306.0
FTTJ 130600Z 03006KT 7000 NSC 19/00 Q1014 NOSIG,FTTJ,2015-02-13T06:00:00Z,12.12,15.02,19.0,0.0,30,6,,4.35,29.940945,,,,,,TRUE,,,,,,,,,,,,,,,,,,,,,,,,,METAR,295.0
DBBB 130600Z 23008KT 8000 SCT010 BKN040 28/25 Q1011 TEMPO BKN006,DBBB,2015-02-13T06:00:00Z,6.33,2.37,28.0,25.0,230,8,,4.97,29.852362,,,,,,,,,,,SCT,1000,BKN,4000,,,,,MVFR,,,,,,,,,,,,METAR,9.0
VTUI 130600Z 10005KT 8000 NSC 29/17 Q1012 A2990 INFO G RWY05,VTUI,2015-02-13T06:00:00Z,17.2,104.12,29.0,17.0,100,5,,4.97,29.88189,,,,,,,,,,,,,,,,,,,,,,,,,,,,,,,METAR,172.0
FYWW 130600Z 13002KT CAVOK 21/10 Q1021,FYWW,2015-02-13T06:00:00Z,-22.57,17.1,21.0,10.0,130,2,,6.21,30.147638,,,,,,,,,,,CAVOK,,,,,,,,VFR,,,,,,,,,,,,METAR,1725.0
FYWH 130600Z 35001KT 9999 SCT100 21/10 Q1022 NOSIG,FYWH,2015-02-13T06:00:00Z,-22.47,17.47,21.0,10.0,350,1,,6.21,30.177166,,,,,,TRUE,,,,,SCT,10000,,,,,,,VFR,,,,,,,,,,,,METAR,1700.0
FYWE 130600Z 17007KT CAVOK 23/04 Q1022,FYWE,2015-02-13T06:00:00Z,-22.62,17.08,23.0,4.0,170,7,,6.21,30.177166,,,,,,,,,,,CAVOK,,,,,,,,VFR,,,,,,,,,,,,METAR,1700.0
FYRN 130600Z 29004KT CAVOK 22/12 Q1018,FYRN,2015-02-13T06:00:00Z,-20.02,13.85,22.0,12.0,290,4,,6.21,30.059055,,,,,,,,,,,CAVOK,,,,,,,,VFR,,,,,,,,,,,,METAR,756.0
FYOA 130600Z 28007KT CAVOK 24/09 Q1016,FYOA,2015-02-13T06:00:00Z,-17.88,15.97,24.0,9.0,280,7,,6.21,30.0,,,,,,,,,,,CAVOK,,,,,,,,VFR,,,,,,,,,,,,METAR,1095.0
FYKT 130600Z 24008KT CAVOK 17/03 Q1017,FYKT,2015-02-13T06:00:00Z,-26.52,18.12,17.0,3.0,240,8,,6.21,30.029528,,,,,,,,,,,CAVOK,,,,,,,,VFR,,,,,,,,,,,,METAR,1061.0
FYKM 130600Z 00000KT CAVOK 22/17 Q1016,FYKM,2015-02-13T06:00:00Z,-17.63,24.18,22.0,17.0,0,0,,6.21,30.0,,,,,,,,,,,CAVOK,,,,,,,,VFR,,,,,,,,,,,,METAR,958.0
SBCA 130600Z 13006KT 2000 0900SE BCFG FEW001 OVC002 21/21 Q1018,SBCA,2015-02-13T06:00:00Z,-25.0,-53.5,21.0,21.0,130,6,,1.24,30.059055,,,,,,,,,,BCFG,FEW,100,OVC,200,,,,,LIFR,,,,,,,,,,,,METAR,754.0
SKCL 130600Z 08004KT 9999 FEW030 BKN100 22/19 A2996,SKCL,2015-02-13T06:00:00Z,3.53,-76.37,22.0,19.0,80,4,,6.21,29.958662,,,,,,,,,,,FEW,3000,BKN,10000,,,,,VFR,,,,,,,,,,,,METAR,969.0
SBUR 130600Z 01004KT 9999 FEW040 23/18 Q1019,SBUR,2015-02-13T06:00:00Z,-19.77,-47.97,23.0,18.0,10,4,,6.21,30.088583,,,,,,,,,,,FEW,4000,,,,,,,VFR,,,,,,,,,,,,METAR,807.0
SBUL 130600Z 07005KT CAVOK 22/16 Q1020,SBUL,2015-02-13T06:00:00Z,-18.87,-48.22,22.0,16.0,70,5,,6.21,30.11811,,,,,,,,,,,CAVOK,,,,,,,,VFR,,,,,,,,,,,,METAR,922.0
SBSR 130600Z 00000KT CAVOK 25/21 Q1017,SBSR,2015-02-13T06:00:00Z,-20.8,-49.4,25.0,21.0,0,0,,6.21,30.029528,,,,,,,,,,,CAVOK,,,,,,,,VFR,,,,,,,,,,,,METAR,543.0
SBSC 130600Z 00000KT CAVOK 27/25 Q1014,SBSC,2015-02-13T06:00:00Z,-22.92,-43.72,27.0,25.0,0,0,,6.21,29.940945,,,,,,,,,,,CAVOK,,,,,,,,VFR,,,,,,,,,,,,METAR,3.0
SBME 130600Z 07006KT 9999 SCT015 26/24 Q1014,SBME,2015-02-13T06:00:00Z,-22.35,-41.77,26.0,24.0,70,6,,6.21,29.940945,,,,,,,,,,,SCT,1500,,,,,,,VFR,,,,,,,,,,,,METAR,2.0
SBDN 130600Z 16003KT CAVOK 24/21 Q1016,SBDN,2015-02-13T06:00:00Z,-22.18,-51.43,24.0,21.0,160,3,,6.21,30.0,,,,,,,,,,,CAVOK,,,,,,,,VFR,,,,,,,,,,,,METAR,435.0
SBBU 130600Z 20003KT CAVOK 26/23 Q1017,SBBU,2015-02-13T06:00:00Z,-22.32,-49.07,26.0,23.0,200,3,,6.21,30.029528,,,,,,,,,,,CAVOK,,,,,,,,VFR,,,,,,,,,,,,METAR,590.0
SBBH 130600Z 00000KT CAVOK 21/18 Q1020,SBBH,2015-02-13T06:00:00Z,-19.85,-43.95,21.0,18.0,0,0,,6.21,30.11811,,,,,,,,,,,CAVOK,,,,,,,,VFR,,,,,,,,,,,,METAR,785.0
SBAF 130600Z 24001KT CAVOK 25/22 Q1013,SBAF,2015-02-13T06:00:00Z,-22.87,-43.37,25.0,22.0,240,1,,6.21,29.911417,,,,,,,,,,,CAVOK,,,,,,,,VFR,,,,,,,,,,,,METAR,34.0
SBQV 130600Z 09009KT CAVOK 19/19 Q1020,SBQV,2015-02-13T06:00:00Z,-14.87,-40.87,19.0,19.0,90,9,,6.21,30.11811,,,,,,,,,,,CAVOK,,,,,,,,VFR,,,,,,,,,,,,METAR,893.0
SBJU 130600Z 00000KT CAVOK 28/22 Q1017,SBJU,2015-02-13T06:00:00Z,-7.22,-39.27,28.0,22.0,0,0,,6.21,30.029528,,,,,,,,,,,CAVOK,,,,,,,,VFR,,,,,,,,,,,,METAR,409.0
SBIL 130600Z 27003KT 9999 SCT025 23/21 Q1016,SBIL,2015-02-13T06:00:00Z,-14.8,-39.02,23.0,21.0,270,3,,6.21,30.0,,,,,,,,,,,SCT,2500,,,,,,,VFR,,,,,,,,,,,,METAR,5.0
YPEA 130600Z 25012KT 9999 FEW035 BKN220 27/17 Q1009 RMK USE TAF FOR ARRIVALS AFTER 0700Z NOSIG,YPEA,2015-02-13T06:00:00Z,-31.67,116.02,27.0,17.0,250,12,,6.21,29.793306,,,,,,,,,,,FEW,3500,BKN,22000,,,,,VFR,,,,,,,,,,,,SPECI,49.0
SBAN 130600Z 05003KT CAVOK 20/14 Q1021,SBAN,2015-02-13T06:00:00Z,-16.22,-48.97,20.0,14.0,50,3,,6.21,30.147638,,,,,,,,,,,CAVOK,,,,,,,,VFR,,,,,,,,,,,,METAR,1137.0
WIHH 130600Z 32010KT 4000 RA SCT016 27/24 Q1010 NOSIG,WIHH,2015-02-13T06:00:00Z,-6.25,106.88,27.0,24.0,320,10,,2.49,29.822834,,,,,,TRUE,,,,RA,SCT,1600,,,,,,,IFR,,,,,,,,,,,,METAR,25.0
SBPJ 130600Z 08002KT 9999 FEW030 25/22 Q1013,SBPJ,2015-02-13T06:00:00Z,-10.28,-48.37,25.0,22.0,80,2,,6.21,29.911417,,,,,,,,,,,FEW,3000,,,,,,,VFR,,,,,,,,,,,,METAR,236.0
CXDK 130600Z AUTO 13004KT M20/M23 RMK AO1 SLP289 T11961226 53011,CXDK,2015-02-13T06:00:00Z,61.27,-124.47,-19.6,-22.6,130,4,,,,1028.9,,TRUE,TRUE,,,,,,,,,,,,,,,,1.1,,,,,,,,,,,METAR,283.0
OITM 130600Z 08006KT CAVOK 01/M03 Q1019,OITM,2015-02-13T06:00:00Z,37.35,46.15,1.0,-3.0,80,6,,6.21,30.088583,,,,,,,,,,,CAVOK,,,,,,,,VFR,,,,,,,,,,,,METAR,1340.0
OINE 130600Z 27010KT 3000 -RA BKN015 OVC080 09/09 Q1021,OINE,2015-02-13T06:00:00Z,37.38,55.45,9.0,9.0,270,10,,1.86,30.147638,,,,,,,,,,-RA,BKN,1500,OVC,8000,,,,,IFR,,,,,,,,,,,,METAR,130.0
OIIK 130600Z 00000KT 9000 SKC 05/M02 Q1019,OIIK,2015-02-13T06:00:00Z,36.25,50.05,5.0,-2.0,0,0,,5.59,30.088583,,,,,,,,,,,SKC,,,,,,,,VFR,,,,,,,,,,,,METAR,1278.0
OIBQ 130600Z 34014KT 2500 SA SCT040 18/12 Q1017,OIBQ,2015-02-13T06:00:00Z,29.27,50.32,18.0,12.0,340,14,,1.55,30.029528,,,,,,,,,,SA,SCT,4000,,,,,,,IFR,,,,,,,,,,,,METAR,6.0
OIBL 130600Z 09004KT 8000 NSC 25/17 Q1017,OIBL,2015-02-13T06:00:00Z,26.53,54.82,25.0,17.0,90,4,,4.97,30.029528,,,,,,,,,,,,,,,,,,,,,,,,,,,,,,,METAR,14.0
GQPP 130600Z 35018KT CAVOK 17/08 Q1018 NOSIG,GQPP,2015-02-13T06:00:00Z,20.92,-17.02,17.0,8.0,350,18,,6.21,30.059055,,,,,,TRUE,,,,,CAVOK,,,,,,,,VFR,,,,,,,,,,,,METAR,3.0
OIZJ 130600Z 30006KT 7000 NSC 24/20 Q1016,OIZJ,2015-02-13T06:00:00Z,25.65,57.8,24.0,20.0,300,6,,4.35,30.0,,,,,,,,,,,,,,,,,,,,,,,,,,,,,,,METAR,4.0
OIMB 130600Z 27006KT 6000 SKC 19/M02 Q1019,OIMB,2015-02-13T06:00:00Z,32.9,59.28,19.0,-2.0,270,6,,3.73,30.088583,,,,,,,,,,,SKC,,,,,,,,MVFR,,,,,,,,,,,,METAR,1491.0
OIIP 130600Z 32010KT CAVOK 04/M05 Q1019,OIIP,2015-02-13T06:00:00Z,35.78,50.83,4.0,-5.0,320,10,,6.21,30.088583,,,,,,,,,,,CAVOK,,,,,,,,VFR,,,,,,,,,,,,METAR,1271.0
OIFS 130600Z 21014KT CAVOK 10/M07 Q1021,OIFS,2015-02-13T06:00:00Z,32.32,50.85,10.0,-7.0,210,14,,6.21,30.147638,,,,,,,,,,,CAVOK,,,,,,,,VFR,,,,,,,,,,,,METAR,2078.0
OIBA 130600Z 09004KT 6000 SKC 26/17 Q1015,OIBA,2015-02-13T06:00:00Z,25.88,55.03,26.0,17.0,90,4,,3.73,29.970472,,,,,,,,,,,SKC,,,,,,,,MVFR,,,,,,,,,,,,METAR,7.0
OIZI 130600Z 00000KT CAVOK 24/04 Q1019,OIZI,2015-02-13T06:00:00Z,27.23,60.72,24.0,4.0,0,0,,6.21,30.088583,,,,,,,,,,,CAVOK,,,,,,,,VFR,,,,,,,,,,,,METAR,591.0
OIZB 130600Z 00000KT CAVOK 18/05 Q1015,OIZB,2015-02-13T06:00:00Z,31.1,61.55,18.0,5.0,0,0,,6.21,29.970472,,,,,,,,,,,CAVOK,,,,,,,,VFR,,,,,,,,,,,,METAR,489.0
OING 130600Z 27006KT 5000 -DZ BKN010 OVC080 11/10 Q1022,OING,2015-02-13T06:00:00Z,36.9,54.4,11.0,10.0,270,6,,3.11,30.177166,,,,,,,,,,-DZ,BKN,1000,OVC,8000,,,,,MVFR,,,,,,,,,,,,METAR,155.0
OIBS 130600Z 00000KT CAVOK 23/18 Q1017,OIBS,2015-02-13T06:00:00Z,25.9,54.55,23.0,18.0,0,0,,6.21,30.029528,,,,,,,,,,,CAVOK,,,,,,,,VFR,,,,,,,,,,,,METAR,14.0
OIBJ 130600Z 08004KT CAVOK 21/08 Q1020,OIBJ,2015-02-13T06:00:00Z,27.82,52.35,21.0,8.0,80,4,,6.21,30.11811,,,,,,,,,,,CAVOK,,,,,,,,VFR,,,,,,,,,,,,METAR,663.0
SCVD 130600Z 21009KT CAVOK 12/06 Q1019,SCVD,2015-02-13T06:00:00Z,-39.65,-73.07,12.0,6.0,210,9,,6.21,30.088583,,,,,,,,,,,CAVOK,,,,,,,,VFR,,,,,,,,,,,,METAR,14.0
OITL 130600Z 20012KT 9000 4000SE PRFG SKC 00/M01 Q1017,OITL,2015-02-13T06:00:00Z,38.33,48.42,0.0,-1.0,200,12,,5.59,30.029528,,,,,,,,,,PRFG,SKC,,,,,,,,VFR,,,,,,,,,,,,METAR,1316.0
OINZ 130600Z 21006KT 9999 FEW025TCU FEW035CB BKN080 12/10 Q1020,OINZ,2015-02-13T06:00:00Z,36.63,53.2,12.0,10.0,210,6,,6.21,30.11811,,,,,,,,,,,FEW,2500,FEW,3500,BKN,8000,,,VFR,,,,,,,,,,,,METAR,11.0
OIHH 130600Z 04002KT CAVOK 02/M05 Q1019,OIHH,2015-02-13T06:00:00Z,34.87,48.55,2.0,-5.0,40,2,,6.21,30.088583,,,,,,,,,,,CAVOK,,,,,,,,VFR,,,,,,,,,,,,METAR,1757.0
OIBB 130600Z 36010KT 1500 DU SCT040 17/08 Q1016 A3003,OIBB,2015-02-13T06:00:00Z,28.97,50.82,17.0,8.0,360,10,,0.93,30.0,,,,,,,,,,DU,SCT,4000,,,,,,,LIFR,,,,,,,,,,,,METAR,19.0
OITZ 130600Z 12008KT CAVOK 02/M06 Q1018,OITZ,2015-02-13T06:00:00Z,36.77,48.37,2.0,-6.0,120,8,,6.21,30.059055,,,,,,,,,,,CAVOK,,,,,,,,VFR,,,,,,,,,,,,METAR,1663.0
OISY 130600Z 00000KT 9999 SCT040 10/05 Q1023,OISY,2015-02-13T06:00:00Z,30.7,51.55,10.0,5.0,0,0,,6.21,30.206694,,,,,,,,,,,SCT,4000,,,,,,,VFR,,,,,,,,,,,,METAR,1811.0
OISL 130600Z 00000KT 9999 FEW040 BKN200 19/04 Q1019,OISL,2015-02-13T06:00:00Z,27.67,54.37,19.0,4.0,0,0,,6.21,30.088583,,,,,,,,,,,FEW,4000,BKN,20000,,,,,VFR,,,,,,,,,,,,METAR,805.0
OINR 130600Z 33004KT 9999 FEW015 FEW020CB BKN025 10/08 Q1020,OINR,2015-02-13T06:00:00Z,36.88,50.67,10.0,8.0,330,4,,6.21,30.11811,,,,,,,,,,,FEW,1500,FEW,2000,BKN,2500,,,MVFR,,,,,,,,,,,,METAR,-20.0
OINN 130600Z 00000KT 9999 FEW024TCU BKN027 BKN090 11/09 Q1020,OINN,2015-02-13T06:00:00Z,36.67,51.47,11.0,9.0,0,0,,6.21,30.11811,,,,,,,,,,,FEW,2400,BKN,2700,BKN,9000,,,MVFR,,,,,,,,,,,,METAR,-19.0
OIKQ 130600Z 01004KT 3000 BR NSC 23/21 Q1017,OIKQ,2015-02-13T06:00:00Z,26.75,55.9,23.0,21.0,10,4,,1.86,30.029528,,,,,,,,,,BR,,,,,,,,,,,,,,,,,,,,,METAR,12.0
OICI 130600Z 00000KT CAVOK 06/M06 Q1019 A3010,OICI,2015-02-13T06:00:00Z,33.58,46.4,6.0,-6.0,0,0,,6.21,30.088583,,,,,,,,,,,CAVOK,,,,,,,,VFR,,,,,,,,,,,,METAR,1343.0
OIAM 130600Z 35008KT 5000 DU NSC 15/03 Q1018,OIAM,2015-02-13T06:00:00Z,30.55,49.15,15.0,3.0,350,8,,3.11,30.059055,,,,,,,,,,DU,,,,,,,,,,,,,,,,,,,,,METAR,4.0
OITR 130600Z 27004KT CAVOK 01/M03 Q1018,OITR,2015-02-13T06:00:00Z,37.67,45.07,1.0,-3.0,270,4,,6.21,30.059055,,,,,,,,,,,CAVOK,,,,,,,,VFR,,,,,,,,,,,,METAR,1312.0
OIIE 130600Z 31016KT CAVOK 08/M03 Q1018,OIIE,2015-02-13T06:00:00Z,35.42,51.15,8.0,-3.0,310,16,,6.21,30.059055,,,,,,,,,,,CAVOK,,,,,,,,VFR,,,,,,,,,,,,METAR,1008.0
OIKK 130600Z 27004KT CAVOK 18/M04 Q1023 A3024,OIKK,2015-02-13T06:00:00Z,30.25,56.97,18.0,-4.0,270,4,,6.21,30.206694,,,,,,,,,,,CAVOK,,,,,,,,VFR,,,,,,,,,,,,METAR,1754.0
PLCH 130600Z 12013KT 9999 FEW020 27/22 Q1008,PLCH,2015-02-13T06:00:00Z,1.98,-157.35,27.0,22.0,120,13,,6.21,29.763779,,,,,,,,,,,FEW,2000,,,,,,,VFR,,,,,,,,,,,,METAR,3.0
UKKM 130600Z 31002MPS 290V350 9999 OVC008 M01/M01 Q1027,UKKM,2015-02-13T06:00:00Z,50.6,30.2,-1.0,-1.0,310,4,,6.21,30.324802,,,,,,,,,,,OVC,800,,,,,,,IFR,,,,,,,,,,,,METAR,157.0
FBSK 130600Z 03007KT 350V060 CAVOK 24/14 Q1018 NOSIG,FBSK,2015-02-13T06:00:00Z,-24.55,25.92,24.0,14.0,30,7,,6.21,30.059055,,,,,,TRUE,,,,,CAVOK,,,,,,,,VFR,,,,,,,,,,,,METAR,1005.0
SLVR 130600Z 29003KT 9999 FEW017 SCT200 23/22 Q1014,SLVR,2015-02-13T06:00:00Z,-17.63,-63.12,23.0,22.0,290,3,,6.21,29.940945,,,,,,,,,,,FEW,1700,SCT,20000,,,,,VFR,,,,,,,,,,,,METAR,373.0
SLLP 130600Z 07006KT 4000E VCFG FEW002 SCT013 BKN200 06/05 Q1039,SLLP,2015-02-13T06:00:00Z,-16.52,-68.17,6.0,5.0,70,6,,2.49,30.679134,,,,,,,,,,VCFG,FEW,200,SCT,1300,BKN,20000,,,IFR,,,,,,,,,,,,METAR,4014.0
SLCB 130600Z 17003KT 9999 FEW027 15/12 Q1027,SLCB,2015-02-13T06:00:00Z,-17.42,-66.18,15.0,12.0,170,3,,6.21,30.324802,,,,,,,,,,,FEW,2700,,,,,,,VFR,,,,,,,,,,,,METAR,2548.0
SGES 130600Z 12004KT 9999 OVC013 23/23 Q1014 RERA,SGES,2015-02-13T06:00:00Z,-25.45,-54.85,23.0,23.0,120,4,,6.21,29.940945,,,,,,,,,,,OVC,1300,,,,,,,MVFR,,,,,,,,,,,,METAR,849.0
SGAS 130600Z 00000KT 9999 FEW030 SCT080 24/23 Q1013,SGAS,2015-02-13T06:00:00Z,-25.25,-57.52,24.0,23.0,0,0,,6.21,29.911417,,,,,,,,,,,FEW,3000,SCT,8000,,,,,VFR,,,,,,,,,,,,METAR,101.0
RPVM 130600Z VRB02KT 9999 FEW020 BKN100 30/24 Q1009 RMK A2980,RPVM,2015-02-13T06:00:00Z,10.32,123.98,30.0,24.0,0,2,,6.21,29.793306,,,,,,,,,,,FEW,2000,BKN,10000,,,,,VFR,,,,,,,,,,,,METAR,10.0
RPMD 130600Z 17007KT 9999 FEW016 30/23 Q1009 RMK A2980,RPMD,2015-02-13T06:00:00Z,7.12,125.65,30.0,23.0,170,7,,6.21,29.793306,,,,,,,,,,,FEW,1600,,,,,,,VFR,,,,,,,,,,,,METAR,18.0
RPLL 130600Z 29005KT 250V010 9000 SCT023 OVC100 28/21 Q1011 NOSIG RMK A2985,RPLL,2015-02-13T06:00:00Z,14.52,121.0,28.0,21.0,290,5,,5.59,29.852362,,,,,,TRUE,,,,,SCT,2300,OVC,10000,,,,,VFR,,,,,,,,,,,,METAR,21.0
RPLB 130600Z 07008KT 9999 SCT020 BKN080 30/18 Q1010 NOSIG RMK A2983,RPLB,2015-02-13T06:00:00Z,14.8,120.27,30.0,18.0,70,8,,6.21,29.822834,,,,,,TRUE,,,,,SCT,2000,BKN,8000,,,,,VFR,,,,,,,,,,,,METAR,17.0
FMSD 130600Z 04016KT 9999 FEW020 SCT033 27/21 Q1013,FMSD,2015-02-13T06:00:00Z,-25.02,46.95,27.0,21.0,40,16,,6.21,29.911417,,,,,,,,,,,FEW,2000,SCT,3300,,,,,VFR,,,,,,,,,,,,METAR,9.0
FMNM 130600Z 06008KT 9999 -RA FEW007 SCT016CB BKN090 25/24 Q1012 RETS NOSIG,FMNM,2015-02-13T06:00:00Z,-15.67,46.35,25.0,24.0,60,8,,6.21,29.88189,,,,,,TRUE,,,,-RA,FEW,700,SCT,1600,BKN,9000,,,VFR,,,,,,,,,,,,METAR,18.0
FMMT 130600Z 24008KT 9999 VCSH FEW007 BKN033 27/23 Q1013 NOSIG,FMMT,2015-02-13T06:00:00Z,-18.12,49.38,27.0,23.0,240,8,,6.21,29.911417,,,,,,TRUE,,,,VCSH,FEW,700,BKN,3300,,,,,VFR,,,,,,,,,,,,METAR,6.0
FMCH 130600Z VRB02KT 9999 FEW020 SCT030 29/24 Q1012 NOSIG,FMCH,2015-02-13T06:00:00Z,-11.52,43.27,29.0,24.0,0,2,,6.21,29.88189,,,,,,TRUE,,,,,FEW,2000,SCT,3000,,,,,VFR,,,,,,,,,,,,METAR,29.0
DAUZ 130600Z 25005KT CAVOK 08/M06 Q1015,DAUZ,2015-02-13T06:00:00Z,28.05,9.62,8.0,-6.0,250,5,,6.21,29.970472,,,,,,,,,,,CAVOK,,,,,,,,VFR,,,,,,,,,,,,METAR,562.0
FLSK 130600Z 10005KT 9000 FU NSC 21/18 Q1019,FLSK,2015-02-13T06:00:00Z,-13.0,28.67,21.0,18.0,100,5,,5.59,30.088583,,,,,,,,,,FU,,,,,,,,,,,,,,,,,,,,,METAR,1261.0
FAWK 130600Z AUTO 02009KT //// 23/16 Q////,FAWK,2015-02-13T06:00:00Z,-25.82,28.22,23.0,16.0,20,9,,,,,,TRUE,,,,,,,,,,,,,,,,,,,,,,,,,,,,METAR,1500.0
FAWB 130600Z 09003KT CAVOK 23/14 Q1019,FAWB,2015-02-13T06:00:00Z,-25.63,28.22,23.0,14.0,90,3,,6.21,30.088583,,,,,,,,,,,CAVOK,,,,,,,,VFR,,,,,,,,,,,,METAR,1248.0
FAKM 130600Z 33011KT CAVOK 27/10 Q1015,FAKM,2015-02-13T06:00:00Z,-28.8,24.77,27.0,10.0,330,11,,6.21,29.970472,,,,,,,,,,,CAVOK,,,,,,,,VFR,,,,,,,,,,,,METAR,1192.0
SBBE 130600Z 09004KT CAVOK 25/23 Q1011,SBBE,2015-02-13T06:00:00Z,-1.37,-48.47,25.0,23.0,90,4,,6.21,29.852362,,,,,,,,,,,CAVOK,,,,,,,,VFR,,,,,,,,,,,,METAR,16.0
FAUT 130600Z 15004KT 9999 BKN030 24/16 Q1012,FAUT,2015-02-13T06:00:00Z,-31.52,28.67,24.0,16.0,150,4,,6.21,29.88189,,,,,,,,,,,BKN,3000,,,,,,,MVFR,,,,,,,,,,,,METAR,732.0
FALM 130600Z 12010KT 9999 BKN015 21/// Q1019,FALM,2015-02-13T06:00:00Z,-23.17,29.7,,,120,10,,6.21,30.088583,,,,,,,,,,,BKN,1500,,,,,,,MVFR,,,0.0,,,,,,,,,METAR,935.0
ZWSH 130600Z VRB01MPS 9999 BKN040 11/M14 Q1013 NOSIG,ZWSH,2015-02-13T06:00:00Z,39.55,76.02,11.0,-14.0,0,2,,6.21,29.911417,,,,,,TRUE,,,,,BKN,4000,,,,,,,VFR,,,,,,,,,,,,METAR,1291.0
ZBSJ 130600Z 23003MPS 160V290 CAVOK 12/M11 Q1015 NOSIG,ZBSJ,2015-02-13T06:00:00Z,38.28,114.7,12.0,-11.0,230,6,,6.21,29.970472,,,,,,TRUE,,,,,CAVOK,,,,,,,,VFR,,,,,,,,,,,,METAR,71.0
LELO 130600Z 00000KT 2500 BR FEW040 02/02 Q1021,LELO,2015-02-13T06:00:00Z,42.45,-2.32,2.0,2.0,0,0,,1.55,30.147638,,,,,,,,,,BR,FEW,4000,,,,,,,IFR,,,,,,,,,,,,METAR,363.0
LEEC 130600Z 03002KT 0700 FG OVC001 08/08 Q1023,LEEC,2015-02-13T06:00:00Z,37.32,-6.0,8.0,8.0,30,2,,0.43,30.206694,,,,,,,,,,FG,OVC,100,,,,,,,LIFR,,,,,,,,,,,,METAR,7.0
LEBT 130600Z AUTO 30001KT CAVOK 07/07 Q1021,LEBT,2015-02-13T06:00:00Z,39.58,-0.45,7.0,7.0,300,1,,6.21,30.147638,,,TRUE,,,,,,,,CAVOK,,,,,,,,VFR,,,,,,,,,,,,METAR,50.0
LEAO 130600Z 20001KT 0150 R27/0400N FZFG BKN001 M01/M01 Q1023,LEAO,2015-02-13T06:00:00Z,38.95,-3.73,-1.0,-1.0,200,1,,0.09,30.206694,,,,,,,,,,FZFG,BKN,100,,,,,,,LIFR,,,,,,,,,,,,METAR,629.0
RPMZ 130600Z 24004KT 9999 FEW017CB SCT100 33/25 Q1010 RMK A2985 CB NW-NE,RPMZ,2015-02-13T06:00:00Z,6.92,122.07,33.0,25.0,240,4,,6.21,29.822834,,,,,,,,,,,FEW,1700,SCT,10000,,,,,VFR,,,,,,,,,,,,METAR,6.0
LEBA 130600Z 00000KT 9999 OVC010 08/06 Q1024,LEBA,2015-02-13T06:00:00Z,37.85,-4.82,8.0,6.0,0,0,,6.21,30.236221,,,,,,,,,,,OVC,1000,,,,,,,MVFR,,,,,,,,,,,,METAR,92.0
LEBG 130600Z 20011KT 9999 SCT011 BKN018 03/02 Q1019,LEBG,2015-02-13T06:00:00Z,42.37,-3.62,3.0,2.0,200,11,,6.21,30.088583,,,,,,,,,,,SCT,1100,BKN,1800,,,,,MVFR,,,,,,,,,,,,METAR,891.0
ZUUU 130600Z VRB02MPS 4500 HZ NSC 15/05 Q1014 NOSIG,ZUUU,2015-02-13T06:00:00Z,30.58,103.95,15.0,5.0,0,4,,2.8,29.940945,,,,,,TRUE,,,,HZ,,,,,,,,,,,,,,,,,,,,,METAR,508.0
ZUGY 130600Z 24003MPS 6000 BKN021 OVC040 12/07 Q1016 NOSIG,ZUGY,2015-02-13T06:00:00Z,26.53,106.8,12.0,7.0,240,6,,3.73,30.0,,,,,,TRUE,,,,,BKN,2100,OVC,4000,,,,,MVFR,,,,,,,,,,,,METAR,1074.0
ZSQD 130600Z 20004MPS 170V240 CAVOK 07/M06 Q1019 NOSIG,ZSQD,2015-02-13T06:00:00Z,36.27,120.38,7.0,-6.0,200,8,,6.21,30.088583,,,,,,TRUE,,,,,CAVOK,,,,,,,,VFR,,,,,,,,,,,,METAR,77.0
ZSNB 130600Z VRB01MPS 5000 HZ NSC 17/04 Q1018 NOSIG,ZSNB,2015-02-13T06:00:00Z,29.83,121.47,17.0,4.0,0,2,,3.11,30.059055,,,,,,TRUE,,,,HZ,,,,,,,,,,,,,,,,,,,,,METAR,4.0
ZSFZ 130600Z 05003MPS 020V090 CAVOK 19/06 Q1019 NOSIG,ZSFZ,2015-02-13T06:00:00Z,25.93,119.67,19.0,6.0,50,6,,6.21,30.088583,,,,,,TRUE,,,,,CAVOK,,,,,,,,VFR,,,,,,,,,,,,METAR,85.0
ZSAM 130600Z 12003MPS 080V220 CAVOK 20/04 Q1018 NOSIG,ZSAM,2015-02-13T06:00:00Z,24.53,118.13,20.0,4.0,120,6,,6.21,30.059055,,,,,,TRUE,,,,,CAVOK,,,,,,,,VFR,,,,,,,,,,,,METAR,139.0
ZPPP 130600Z 23007MPS 9999 SCT026 15/03 Q1017 NOSIG,ZPPP,2015-02-13T06:00:00Z,25.0,102.75,15.0,3.0,230,14,,6.21,30.029528,,,,,,TRUE,,,,,SCT,2600,,,,,,,VFR,,,,,,,,,,,,METAR,1892.0
ZLXY 130600Z 08004MPS 030V120 7000 NSC 13/M08 Q1015 NOSIG,ZLXY,2015-02-13T06:00:00Z,34.43,108.75,13.0,-8.0,80,8,,4.35,29.970472,,,,,,TRUE,,,,,,,,,,,,,,,,,,,,,,,,,METAR,479.0
ZGSZ 130600Z 28003MPS CAVOK 20/05 Q1017 NOSIG,ZGSZ,2015-02-13T06:00:00Z,22.63,113.8,20.0,5.0,280,6,,6.21,30.029528,,,,,,TRUE,,,,,CAVOK,,,,,,,,VFR,,,,,,,,,,,,METAR,18.0
ZGOW 130600Z 10003MPS 050V150 CAVOK 21/M01 Q1018 NOSIG,ZGOW,2015-02-13T06:00:00Z,23.55,116.5,21.0,-1.0,100,6,,6.21,30.059055,,,,,,TRUE,,,,,CAVOK,,,,,,,,VFR,,,,,,,,,,,,METAR,3.0
ZGNN 130600Z 14003MPS 4500 BR SCT020 OVC036 17/14 Q1016 NOSIG,ZGNN,2015-02-13T06:00:00Z,22.62,108.17,17.0,14.0,140,6,,2.8,30.0,,,,,,TRUE,,,,BR,SCT,2000,OVC,3600,,,,,IFR,,,,,,,,,,,,METAR,73.0
ZGKL 130600Z VRB01MPS 3800 HZ BKN023 OVC046 12/07 Q1018 NOSIG,ZGKL,2015-02-13T06:00:00Z,25.22,110.03,12.0,7.0,0,2,,2.36,30.059055,,,,,,TRUE,,,,HZ,BKN,2300,OVC,4600,,,,,IFR,,,,,,,,,,,,METAR,166.0
SAWH 130600Z 23025G30KT 9999 SCT040 08/02 Q1010,SAWH,2015-02-13T06:00:00Z,-54.85,-68.3,8.0,2.0,230,25,30,6.21,29.822834,,,,,,,,,,,SCT,4000,,,,,,,VFR,,,,,,,,,,,,METAR,14.0
VTSF 130600Z 11008KT 070V170 9000 FEW020 30/19 Q1012 A2988 INFO G / RWY 19,VTSF,2015-02-13T06:00:00Z,8.53,99.95,30.0,19.0,110,8,,5.59,29.88189,,,,,,,,,,,FEW,2000,,,,,,,VFR,,,,,,,,,,,,METAR,4.0
HKEL 130600Z 07009KT CAVOK 20/07 Q1025 NOSIG,HKEL,2015-02-13T06:00:00Z,0.4,35.23,20.0,7.0,70,9,,6.21,30.265747,,,,,,TRUE,,,,,CAVOK,,,,,,,,VFR,,,,,,,,,,,,METAR,2133.0
HKMO 130600Z 01007KT 9999 SCT022 28/21 Q1013 NOSIG,HKMO,2015-02-13T06:00:00Z,-4.02,39.62,28.0,21.0,10,7,,6.21,29.911417,,,,,,TRUE,,,,,SCT,2200,,,,,,,VFR,,,,,,,,,,,,METAR,55.0
HKMY 130600Z 14004KT CAVOK 26/14 Q////,HKMY,2015-02-13T06:00:00Z,3.47,39.1,26.0,14.0,140,4,,6.21,,,,,,,,,,,,CAVOK,,,,,,,,VFR,,,,,,,,,,,,METAR,1097.0
HKMU 130600Z 00000KT CAVOK 24/18 Q////,HKMU,2015-02-13T06:00:00Z,-2.27,37.82,24.0,18.0,0,0,,6.21,,,,,,,,,,,,CAVOK,,,,,,,,VFR,,,,,,,,,,,,METAR,1000.0
RKSM 130600Z 31007KT 9999 SKC 04/M13 A3008,RKSM,2015-02-13T06:00:00Z,37.42,127.12,4.0,-13.0,310,7,,6.21,30.079725,,,,,,,,,,,SKC,,,,,,,,VFR,,,,,,,,,,,,METAR,20.0
VIDP 130600Z 27006KT 3500 HZ NSC 19/06 Q1015 NOSIG,VIDP,2015-02-13T06:00:00Z,28.57,77.12,19.0,6.0,270,6,,2.17,29.970472,,,,,,TRUE,,,,HZ,,,,,,,,,,,,,,,,,,,,,METAR,233.0
CZDB 130600Z AUTO 25002KT M10/M12 RMK AO1 SLP020 T11021116 58020,CZDB,2015-02-13T06:00:00Z,45.42,-63.47,-10.2,-11.6,250,2,,,,1002.0,,TRUE,TRUE,,,,,,,,,,,,,,,,-2.0,,,,,,,,,,,METAR,38.0
CWAR 130600Z AUTO 01023G32KT M05/M06 RMK AO1 1045 PK WND 00037/0544 SLP936 T10481060 50019,CWAR,2015-02-13T06:00:00Z,47.28,-54.0,-4.8,-6.0,10,23,32,,,993.6,,TRUE,TRUE,,,,,,,,,,,,,,,,1.9,,,,,,,,,,,METAR,16.0
CERM 130600Z AUTO 33002KT M20/M22 RMK AO1 2PAST HR SOG 42 7008 SLP056 P0001 T12041215 50008,CERM,2015-02-13T06:00:00Z,47.42,-68.32,-20.4,-21.5,330,2,,,,1005.6,,TRUE,TRUE,,,,,,,,,,,,,,,,0.8,,,,,0.01,,,,,,METAR,154.0
CXZU 130600Z AUTO M01/M01 RMK AO1 SLP209 T10081014 52008,CXZU,2015-02-13T06:00:00Z,54.15,-115.78,-0.8,-1.4,,,,,,1020.9,,TRUE,TRUE,,,,,,,,,,,,,,,,0.8,,,,,,,,,,,METAR,785.0
CXWN 130600Z AUTO 22007KT M15/M17 RMK AO1 SLP188 T11451170 56029,CXWN,2015-02-13T06:00:00Z,49.88,-97.13,-14.5,-17.0,220,7,,,,1018.8,,TRUE,TRUE,,,,,,,,,,,,,,,,-2.9,,,,,,,,,,,METAR,230.0
FAMM 130600Z 36007KT 9999 FEW030 SCT080 21/13 Q1020,FAMM,2015-02-13T06:00:00Z,-25.8,25.52,21.0,13.0,360,7,,6.21,30.11811,,,,,,,,,,,FEW,3000,SCT,8000,,,,,VFR,,,,,,,,,,,,METAR,1277.0
CXTP 130600Z AUTO 33010G18KT M10/M11 RMK AO1 SOG 24 1013 PK WND 27023/0506 SLP945 T10991110 50042,CXTP,2015-02-13T06:00:00Z,48.55,-53.97,-9.9,-11.0,330,10,18,,,994.5,,TRUE,TRUE,,,,,,,,,,,,,,,,4.2,,,,,,,,,,,METAR,107.0
CXRH 130600Z AUTO 24002KT M12/M13 RMK AO1 SOG 99 T11171133,CXRH,2015-02-13T06:00:00Z,49.57,-57.88,-11.7,-13.3,240,2,,,,,,TRUE,TRUE,,,,,,,,,,,,,,,,,,,,,,,,,,,METAR,68.0
CXMY 130600Z AUTO M07/M09 RMK AO1 T10681091,CXMY,2015-02-13T06:00:00Z,44.98,-62.48,-6.8,-9.1,,,,,,,,TRUE,TRUE,,,,,,,,,,,,,,,,,,,,,,,,,,,METAR,40.0
CXMM 130600Z AUTO 32006KT M13/M15 RMK AO1 SOG 24 2021 SLP257 T11281147,CXMM,2015-02-13T06:00:00Z,56.65,-111.22,-12.8,-14.7,320,6,,,,1025.7,,TRUE,TRUE,,,,,,,,,,,,,,,,,,,,,,,,,,,METAR,369.0
CXMD 130600Z AUTO 27007KT M10/M13 RMK AO1 SOG 11 6025 SLP192 T10991127,CXMD,2015-02-13T06:00:00Z,49.22,-98.08,-9.9,-12.7,270,7,,,,1019.2,,TRUE,TRUE,,,,,,,,,,,,,,,,,,,,,,,,,,,METAR,301.0
CXEG 130600Z AUTO M01/M02 RMK AO1 SOG 14 T10051019,CXEG,2015-02-13T06:00:00Z,53.3,-113.6,-0.5,-1.9,,,,,,,,TRUE,TRUE,,,,,,,,,,,,,,,,,,,,,,,,,,,METAR,715.0
CXEC 130600Z AUTO 01/ RMK AO1 T0014,CXEC,2015-02-13T06:00:00Z,53.57,-113.52,1.4,,,,,,,,,TRUE,TRUE,,,,,,,,,,,,,,,,,,,,,,,,,,,METAR,671.0
CXEA 130600Z AUTO 19002KT M18/M20 RMK AO1 3PAST HR SOG 49 6037 SLP193 P0001 T11761195 50003,CXEA,2015-02-13T06:00:00Z,50.63,-93.22,-17.6,-19.5,190,2,,,,1019.3,,TRUE,TRUE,,,,,,,,,,,,,,,,0.3,,,,,0.01,,,,,,METAR,355.0
CXDE 130600Z AUTO 11013G19KT M30/M33 RMK AO1 SOG 16 1002 PK WND 11019/0554 SLP336 T12991334,CXDE,2015-02-13T06:00:00Z,65.22,-123.43,-29.9,-33.4,110,13,19,,,1033.6,,TRUE,TRUE,,,,,,,,,,,,,,,,,,,,,,,,,,,METAR,213.0
CWDO 130600Z AUTO M12/M14 RMK AO1 35 0509Z SOG 15 8006 SLP984 T11221137 50020,CWDO,2015-02-13T06:00:00Z,49.67,-54.78,-12.2,-13.7,,,,,,998.4,,TRUE,TRUE,,,,,,,,,,,,,,,,2.0,,,,,,,,,,,METAR,92.0
CWWE 130600Z AUTO 24001KT M08/M08 RMK AO1 SLP018 T10781084 55027,CWWE,2015-02-13T06:00:00Z,43.97,-64.67,-7.8,-8.4,240,1,,,,1001.8,,TRUE,TRUE,,,,,,,,,,,,,,,,-2.7,,,,,,,,,,,METAR,9.0
VTUK 130600Z VRB04KT 9000 FEW035 SCT120 OVC300 29/15 Q1012 A2989 RWY03 INFO H,VTUK,2015-02-13T06:00:00Z,16.47,102.78,29.0,15.0,0,4,,5.59,29.88189,,,,,,,,,,,FEW,3500,SCT,12000,OVC,30000,,,VFR,,,,,,,,,,,,METAR,204.0
CWMM 130600Z AUTO 36005KT 10/08 RMK AO1 6010 SLP253 T00970080 50008,CWMM,2015-02-13T06:00:00Z,49.22,-122.68,9.7,8.0,360,5,,,,1025.3,,TRUE,TRUE,,,,,,,,,,,,,,,,0.8,,,,,,,,,,,METAR,5.0
CWLM 130600Z AUTO 02007KT 09/09 RMK AO1 5002 SLP252 T00890086 50012,CWLM,2015-02-13T06:00:00Z,48.42,-123.32,8.9,8.6,20,7,,,,1025.2,,TRUE,TRUE,,,,,,,,,,,,,,,,1.2,,,,,,,,,,,METAR,70.0
CWLE 130600Z AUTO 26007KT M01/M03 RMK AO1 SOG 11 3004 SLP212 T10071030,CWLE,2015-02-13T06:00:00Z,50.95,-107.15,-0.7,-3.0,260,7,,,,1021.2,,TRUE,TRUE,,,,,,,,,,,,,,,,,,,,,,,,,,,METAR,665.0
CXHM 130600Z AUTO 24001KT M21/M24 RMK AO1 SLP260 T12091239 51004,CXHM,2015-02-13T06:00:00Z,43.28,-79.9,-20.9,-23.9,240,1,,,,1026.0,,TRUE,TRUE,,,,,,,,,,,,,,,,0.4,,,,,,,,,,,METAR,107.0
CZHY 130600Z AUTO 09004KT M25/M28 RMK AO1 SOG 30 1018 SLP322 T12471276,CZHY,2015-02-13T06:00:00Z,60.83,-115.78,-24.7,-27.6,90,4,,,,1032.2,,TRUE,TRUE,,,,,,,,,,,,,,,,,,,,,,,,,,,METAR,164.0
CZEV 130600Z AUTO 12009KT M29/M32 RMK AO1 SOG 40 8014 SLP250 T12891324,CZEV,2015-02-13T06:00:00Z,68.32,-133.52,-28.9,-32.4,120,9,,,,1025.0,,TRUE,TRUE,,,,,,,,,,,,,,,,,,,,,,,,,,,METAR,103.0
CWZW 130600Z AUTO 01001KT M05/M06 RMK AO1 SOG 37 6004 SLP130 T10541064,CWZW,2015-02-13T06:00:00Z,60.17,-132.73,-5.4,-6.4,10,1,,,,1013.0,,TRUE,TRUE,,,,,,,,,,,,,,,,,,,,,,,,,,,METAR,705.0
CWRO 130600Z AUTO 14029G35KT 09/09 RMK AO1 PK WND 14035/0557 SLP091 T00940091 51013,CWRO,2015-02-13T06:00:00Z,54.17,-131.67,9.4,9.1,140,29,35,,,1009.1,,TRUE,TRUE,,,,,,,,,,,,,,,,1.3,,,,,,,,,,,METAR,7.0
CXZC 130600Z AUTO 24002KT M35/M38 RMK AO1 SOG 77 8012 SLP270 T13501383,CXZC,2015-02-13T06:00:00Z,51.3,-80.62,-35.0,-38.3,240,2,,,,1027.0,,TRUE,TRUE,,,,,,,,,,,,,,,,,,,,,,,,,,,METAR,9.0
CTRA 130600Z AUTO 22005KT M17/M19 RMK AO1 SLP216 T11701193 56035,CTRA,2015-02-13T06:00:00Z,49.67,-93.73,-17.0,-19.3,220,5,,,,1021.6,,TRUE,TRUE,,,,,,,,,,,,,,,,-3.5,,,,,,,,,,,METAR,435.0
DAUU 130600Z 32008KT CAVOK 07/02 Q1018,DAUU,2015-02-13T06:00:00Z,31.92,5.4,7.0,2.0,320,8,,6.21,30.059055,,,,,,,,,,,CAVOK,,,,,,,,VFR,,,,,,,,,,,,METAR,141.0
SKBQ 130600Z 03009KT CAVOK 27/24 A2990,SKBQ,2015-02-13T06:00:00Z,10.9,-74.77,27.0,24.0,30,9,,6.21,29.899607,,,,,,,,,,,CAVOK,,,,,,,,VFR,,,,,,,,,,,,METAR,10.0
SKLT 130600Z 00000KT 9999 SCT010 SCT080 25/24 A2988,SKLT,2015-02-13T06:00:00Z,-4.2,-69.93,25.0,24.0,0,0,,6.21,29.878937,,,,,,,,,,,SCT,1000,SCT,8000,,,,,VFR,,,,,,,,,,,,METAR,84.0
SKRG 130600Z 00000KT 4000 -DZ BKN008 SCT080 16/15 A3032,SKRG,2015-02-13T06:00:00Z,6.17,-75.42,16.0,15.0,0,0,,2.49,30.318897,,,,,,,,,,-DZ,BKN,800,SCT,8000,,,,,IFR,,,,,,,,,,,,METAR,2137.0
SKCG 130600Z 01010KT 9999 SCT015 27/23 A2989 METAR ,SKCG,2015-02-13T06:00:00Z,10.43,-75.52,27.0,23.0,10,10,,6.21,29.890747,,,,,,,,,,,SCT,1500,,,,,,,VFR,,,,,,,,,,,,METAR,1.0
SKSP 130600Z 03005KT 9999 FEW016 26/21 A2995,SKSP,2015-02-13T06:00:00Z,12.57,-81.72,26.0,21.0,30,5,,6.21,29.949802,,,,,,,,,,,FEW,1600,,,,,,,VFR,,,,,,,,,,,,METAR,-2.0
DAUO 130600Z 030//KT CAVOK 05/03 Q1019,DAUO,2015-02-13T06:00:00Z,33.5,6.78,5.0,3.0,,,,6.21,30.088583,,,,,,,,,,,CAVOK,,,,,,,,VFR,,,,,,,,,,,,METAR,63.0
SASJ 130600Z 32008KT 5000 RA SCT025 OVC030 19/18 Q1020,SASJ,2015-02-13T06:00:00Z,-24.37,-65.1,19.0,18.0,320,8,,3.11,30.11811,,,,,,,,,,RA,SCT,2500,OVC,3000,,,,,MVFR,,,,,,,,,,,,METAR,1167.0
UTFF 130600Z 36006KT 9999 NSC 08/05 Q1022 R18/19//60,UTFF,2015-02-13T06:00:00Z,40.37,71.77,8.0,5.0,360,6,,6.21,30.177166,,,,,,,,,,,,,,,,,,,,,,,,,,,,,,,METAR,577.0
NSFA 130600Z 10005KT 9999 FEW023 BKN290 27/25 Q1007,NSFA,2015-02-13T06:00:00Z,-13.83,-172.0,27.0,25.0,100,5,,6.21,29.734253,,,,,,,,,,,FEW,2300,BKN,29000,,,,,VFR,,,,,,,,,,,,METAR,5.0
CYXX 130600Z 02008KT 10SM FEW005 OVC035 09/09 A3028 RMK SF2SC6 SLP256,CYXX,2015-02-13T06:00:00Z,49.03,-122.38,9.0,9.0,20,8,,10.0,30.280512,1025.6,,,,,,,,,,FEW,500,OVC,3500,,,,,VFR,,,,,,,,,,,,METAR,58.0
CYPE 130600Z 36009KT 15SM OVC020 M10/M12 A3007 RMK SC8 SLP225,CYPE,2015-02-13T06:00:00Z,56.22,-117.45,-10.0,-12.0,360,9,,15.0,30.070866,1022.5,,,,,,,,,,OVC,2000,,,,,,,MVFR,,,,,,,,,,,,METAR,571.0
CYSB 130600Z 34006KT 15SM SCT180 M28/M31 A3018 RMK AC3 SLP264,CYSB,2015-02-13T06:00:00Z,46.63,-80.8,-28.0,-31.0,340,6,,15.0,30.180119,1026.4,,,,,,,,,,SCT,18000,,,,,,,VFR,,,,,,,,,,,,METAR,348.0
FWCL 130600Z 10003KT 9999 FEW020 26/20 Q1016 NOSIG,FWCL,2015-02-13T06:00:00Z,-15.67,34.97,26.0,20.0,100,3,,6.21,30.0,,,,,,TRUE,,,,,FEW,2000,,,,,,,VFR,,,,,,,,,,,,METAR,767.0
FSPP 130600Z 01008KT //// //// 29/21 Q1013,FSPP,2015-02-13T06:00:00Z,-4.32,55.7,29.0,21.0,10,8,,,29.911417,,,,,,,,,,,,,,,,,,,,,,,,,,,,,,,METAR,4.0
HKRE 130600Z 06008KT 9999 FEW024 22/15 Q1023,HKRE,2015-02-13T06:00:00Z,-1.28,36.87,22.0,15.0,60,8,,6.21,30.206694,,,,,,,,,,,FEW,2400,,,,,,,VFR,,,,,,,,,,,,METAR,1627.0
HKNK 130600Z 22005KT CAVOK 18/09 Q////,HKNK,2015-02-13T06:00:00Z,-0.3,36.17,18.0,9.0,220,5,,6.21,,,,,,,,,,,,CAVOK,,,,,,,,VFR,,,,,,,,,,,,METAR,1901.0
YGFN 130600Z AUTO 10009KT 9999 // SCT039 26/17 Q1021,YGFN,2015-02-13T06:00:00Z,-29.77,153.03,26.0,17.0,100,9,,6.21,30.147638,,,TRUE,,,,,,,,SCT,3900,,,,,,,VFR,,,,,,,,,,,,METAR,34.0
VTCL 130600Z VRB05KT 8000 SCT025 30/18 Q1010 A2984 INFO: H,VTCL,2015-02-13T06:00:00Z,18.27,99.52,30.0,18.0,0,5,,4.97,29.822834,,,,,,,,,,,SCT,2500,,,,,,,MVFR,,,,,,,,,,,,METAR,242.0
FYWB 130600Z 02012KT 9999 OVC010 15/12 Q1014,FYWB,2015-02-13T06:00:00Z,-22.98,14.65,15.0,12.0,20,12,,6.21,29.940945,,,,,,,,,,,OVC,1000,,,,,,,MVFR,,,,,,,,,,,,METAR,46.0
YGTE 130600Z AUTO 00000KT 9999 // NCD 30/24 Q1006,YGTE,2015-02-13T06:00:00Z,-13.97,136.45,30.0,24.0,0,0,,6.21,29.704725,,,TRUE,,,,,,,,,,,,,,,,,,,,,,,,,,,,METAR,14.0
YGTH 130600Z AUTO 06011KT 9999 // NCD 34/12 Q1016,YGTH,2015-02-13T06:00:00Z,-34.25,146.07,34.0,12.0,60,11,,6.21,30.0,,,TRUE,,,,,,,,,,,,,,,,,,,,,,,,,,,,METAR,134.0
YHUG 130600Z AUTO 10012KT //// // ////// 36/12 Q1009,YHUG,2015-02-13T06:00:00Z,-20.82,144.23,36.0,12.0,100,12,,,29.793306,,,TRUE,,,,,,,,,,,,,,,,,,,,,,,,,,,,METAR,318.0
YLIS 130600Z AUTO /////KT 9999 // NCD ///// Q1020,YLIS,2015-02-13T06:00:00Z,-28.83,153.27,,,,,,6.21,30.11811,,,TRUE,,,,,,,,,,,,,,,,,,,,,,,,,,,,METAR,11.0
YLEC 130600Z AUTO 31011KT 290V350 //// // ////// 40/06 Q1013,YLEC,2015-02-13T06:00:00Z,-30.6,138.43,40.0,6.0,310,11,,,29.911417,,,TRUE,,,,,,,,,,,,,,,,,,,,,,,,,,,,METAR,262.0
YKRY 130600Z AUTO 11013KT //// // ////// 26/15 Q1018,YKRY,2015-02-13T06:00:00Z,-26.57,151.83,26.0,15.0,110,13,,,30.059055,,,TRUE,,,,,,,,,,,,,,,,,,,,,,,,,,,,METAR,434.0
YRMD 130600Z AUTO 09013KT //// // ////// 37/15 Q1007,YRMD,2015-02-13T06:00:00Z,-20.7,143.12,37.0,15.0,90,13,,,29.734253,,,TRUE,,,,,,,,,,,,,,,,,,,,,,,,,,,,METAR,207.0
YSNW 130600Z AUTO 11009KT 9999 // NCD 24/17 Q1023,YSNW,2015-02-13T06:00:00Z,-34.95,150.52,24.0,17.0,110,9,,6.21,30.206694,,,TRUE,,,,,,,,,,,,,,,,,,,,,,,,,,,,METAR,110.0
YMTG 130600Z AUTO 29013KT 9999 // SCT096 28/09 Q1017,YMTG,2015-02-13T06:00:00Z,-37.75,140.78,28.0,9.0,290,13,,6.21,30.029528,,,TRUE,,,,,,,,SCT,9600,,,,,,,VFR,,,,,,,,,,,,METAR,65.0
YNAR 130600Z AUTO 10012KT //// // ////// 34/12 Q1017,YNAR,2015-02-13T06:00:00Z,-34.7,146.52,34.0,12.0,100,12,,,30.029528,,,TRUE,,,,,,,,,,,,,,,,,,,,,,,,,,,,METAR,145.0
YNBR 130600Z AUTO 36005KT //// // ////// 34/09 Q1017,YNBR,2015-02-13T06:00:00Z,-30.32,149.83,34.0,9.0,360,5,,,30.029528,,,TRUE,,,,,,,,,,,,,,,,,,,,,,,,,,,,METAR,240.0
YNWN 130600Z AUTO 22008KT 170V250 //// // ////// 42/08 Q1008,YNWN,2015-02-13T06:00:00Z,-23.42,119.8,42.0,8.0,220,8,,,29.763779,,,TRUE,,,,,,,,,,,,,,,,,,,,,,,,,,,,METAR,525.0
YNTN 130600Z AUTO 13006KT //// // ////// 37/18 Q1005,YNTN,2015-02-13T06:00:00Z,-17.68,141.07,37.0,18.0,130,6,,,29.675198,,,TRUE,,,,,,,,,,,,,,,,,,,,,,,,,,,,METAR,22.0
YCDU 130600Z AUTO 17017KT 9999 // NCD 36/09 Q1010,YCDU,2015-02-13T06:00:00Z,-32.12,133.7,36.0,9.0,170,17,,6.21,29.822834,,,TRUE,,,,,,,,,,,,,,,,,,,,,,,,,,,,METAR,15.0
YPBO 130600Z AUTO 25012KT 9999 // NCD 41/07 Q1008,YPBO,2015-02-13T06:00:00Z,-23.2,117.75,41.0,7.0,250,12,,6.21,29.763779,,,TRUE,,,,,,,,,,,,,,,,,,,,,,,,,,,,METAR,1292.0
YOLD 130600Z AUTO 07009KT 9999 // ////// 41/06 Q1012,YOLD,2015-02-13T06:00:00Z,-30.48,136.88,41.0,6.0,70,9,,6.21,29.88189,,,TRUE,,,,,,,,,,,,,,,,,,,,,,,,,,,,METAR,105.0
YCNM 130600Z AUTO 12005KT 060V200 //// // ////// 30/14 Q1017,YCNM,2015-02-13T06:00:00Z,-30.98,148.38,30.0,14.0,120,5,,,30.029528,,,TRUE,,,,,,,,,,,,,,,,,,,,,,,,,,,,METAR,184.0
YCOM 130600Z AUTO 05013KT 9999 // NCD 22/14 Q1025,YCOM,2015-02-13T06:00:00Z,-36.3,148.97,22.0,14.0,50,13,,6.21,30.265747,,,TRUE,,,,,,,,,,,,,,,,,,,,,,,,,,,,METAR,941.0
YDBY 130600Z AUTO 01004KT 350V090 //// // ////// 36/20 Q1007,YDBY,2015-02-13T06:00:00Z,-17.37,123.67,36.0,20.0,10,4,,,29.734253,,,TRUE,,,,,,,,,,,,,,,,,,,,,,,,,,,,METAR,7.0
YEML 130600Z AUTO 13011KT 9999 // BKN069 33/15 Q1012,YEML,2015-02-13T06:00:00Z,-23.57,148.18,33.0,15.0,130,11,,6.21,29.88189,,,TRUE,,,,,,,,BKN,6900,,,,,,,VFR,,,,,,,,,,,,METAR,190.0
YBHI 130600Z AUTO 07014KT 9999 // NCD 38/06 Q1015,YBHI,2015-02-13T06:00:00Z,-32.0,141.47,38.0,6.0,70,14,,6.21,29.970472,,,TRUE,,,,,,,,,,,,,,,,,,,,,,,,,,,,METAR,292.0
YBOK 130600Z 09016KT CAVOK 29/14 Q1018 NOSIG,YBOK,2015-02-13T06:00:00Z,-27.42,151.72,29.0,14.0,90,16,,6.21,30.059055,,,,,,TRUE,,,,,CAVOK,,,,,,,,VFR,,,,,,,,,,,,METAR,407.0
YBNA 130600Z AUTO 12012KT 9999 // NCD 26/17 Q1020,YBNA,2015-02-13T06:00:00Z,-28.83,153.57,26.0,17.0,120,12,,6.21,30.11811,,,TRUE,,,,,,,,,,,,,,,,,,,,,,,,,,,,METAR,2.0
YBMK 130600Z AUTO 13024KT 9999 // SCT032 SCT040 BKN047 28/22 Q1011,YBMK,2015-02-13T06:00:00Z,-21.17,149.17,28.0,22.0,130,24,,6.21,29.852362,,,TRUE,,,,,,,,SCT,3200,SCT,4000,BKN,4700,,,VFR,,,,,,,,,,,,METAR,31.0
FLKK 130600Z 12004KT CAVOK 22/16 Q1019,FLKK,2015-02-13T06:00:00Z,-15.32,28.45,22.0,16.0,120,4,,6.21,30.088583,,,,,,,,,,,CAVOK,,,,,,,,VFR,,,,,,,,,,,,METAR,1154.0
GUCY 130600Z 06004KT 9999 FEW015 SCT110 25/23 Q1014 NOSIG,GUCY,2015-02-13T06:00:00Z,9.57,-13.62,25.0,23.0,60,4,,6.21,29.940945,,,,,,TRUE,,,,,FEW,1500,SCT,11000,,,,,VFR,,,,,,,,,,,,METAR,26.0
VTSH 130600Z 08008KT 9999 FEW020 BKN300 29/23 Q1012 A2989,VTSH,2015-02-13T06:00:00Z,7.2,100.58,29.0,23.0,80,8,,6.21,29.88189,,,,,,,,,,,FEW,2000,BKN,30000,,,,,VFR,,,,,,,,,,,,METAR,5.0
VTUL 130600Z 26003KT 3000 HZ BKN025 OVC100 25/17 Q1013 A2991,VTUL,2015-02-13T06:00:00Z,17.43,101.72,25.0,17.0,260,3,,1.86,29.911417,,,,,,,,,,HZ,BKN,2500,OVC,10000,,,,,IFR,,,,,,,,,,,,METAR,254.0
LETO 130600Z 02003KT 8000 SCT010 SCT040 01/01 Q1022 NOSIG,LETO,2015-02-13T06:00:00Z,40.47,-3.47,1.0,1.0,20,3,,4.97,30.177166,,,,,,TRUE,,,,,SCT,1000,SCT,4000,,,,,MVFR,,,,,,,,,,,,METAR,608.0
LELC 130600Z 26004KT CAVOK 06/06 Q1022 NOSIG,LELC,2015-02-13T06:00:00Z,37.77,-0.8,6.0,6.0,260,4,,6.21,30.177166,,,,,,TRUE,,,,,CAVOK,,,,,,,,VFR,,,,,,,,,,,,METAR,3.0
LEBZ 130600Z 00000KT 8000 NSC 02/02 Q1024,LEBZ,2015-02-13T06:00:00Z,38.87,-6.82,2.0,2.0,0,0,,4.97,30.236221,,,,,,,,,,,,,,,,,,,,,,,,,,,,,,,METAR,192.0
LEAB 130600Z 18003KT 150V230 0400 0200S R09/1900U R27/0450N FG SCT001 M02/M02 Q1022 NOSIG,LEAB,2015-02-13T06:00:00Z,38.95,-1.85,-2.0,-2.0,180,3,,0.25,30.177166,,,,,,TRUE,,,,FG,SCT,100,,,,,,,LIFR,,,,,,,,,,,,METAR,704.0
OYSD 130600Z 13003KT CAVOK 20/02 Q////,OYSD,2015-02-13T06:00:00Z,,,20.0,2.0,130,3,,6.21,,,,,,,,,,,,CAVOK,,,,,,,,VFR,,,,,,,,,,,,METAR,
OYTZ 130600Z VRB02KT CAVOK 20/13 Q1022,OYTZ,2015-02-13T06:00:00Z,13.67,44.12,20.0,13.0,0,2,,6.21,30.177166,,,,,,,,,,,CAVOK,,,,,,,,VFR,,,,,,,,,,,,METAR,1385.0
OYSH 130600Z 00000KT CAVOK 18/07 Q1026,OYSH,2015-02-13T06:00:00Z,16.97,43.72,18.0,7.0,0,0,,6.21,30.295275,,,,,,,,,,,CAVOK,,,,,,,,VFR,,,,,,,,,,,,METAR,1890.0
TNCA 130600Z 08008KT 9999 FEW015 27/24 Q1013 A2991 NOSIG,TNCA,2015-02-13T06:00:00Z,12.5,-70.0,27.0,24.0,80,8,,6.21,29.911417,,,,,,TRUE,,,,,FEW,1500,,,,,,,VFR,,,,,,,,,,,,METAR,18.0
RKSS 130600Z 27011KT CAVOK 02/M19 Q1019 NOSIG,RKSS,2015-02-13T06:00:00Z,37.53,126.78,2.0,-19.0,270,11,,6.21,30.088583,,,,,,TRUE,,,,,CAVOK,,,,,,,,VFR,,,,,,,,,,,,METAR,19.0
RKPK 130600Z 30010KT CAVOK 07/M17 Q1017 NOSIG,RKPK,2015-02-13T06:00:00Z,35.17,128.92,7.0,-17.0,300,10,,6.21,30.029528,,,,,,TRUE,,,,,CAVOK,,,,,,,,VFR,,,,,,,,,,,,METAR,15.0
RKPC 130600Z 31007KT 9999 SCT030 06/M05 Q1021 NOSIG,RKPC,2015-02-13T06:00:00Z,33.5,126.48,6.0,-5.0,310,7,,6.21,30.147638,,,,,,TRUE,,,,,SCT,3000,,,,,,,VFR,,,,,,,,,,,,METAR,27.0
RKTU 130600Z 29014KT CAVOK 03/M16 Q1019 NOSIG,RKTU,2015-02-13T06:00:00Z,36.7,127.5,3.0,-16.0,290,14,,6.21,30.088583,,,,,,TRUE,,,,,CAVOK,,,,,,,,VFR,,,,,,,,,,,,METAR,66.0
RKTN 130600Z 31012G22KT CAVOK 05/M16 Q1016 NOSIG,RKTN,2015-02-13T06:00:00Z,35.88,128.65,5.0,-16.0,310,12,22,6.21,30.0,,,,,,TRUE,,,,,CAVOK,,,,,,,,VFR,,,,,,,,,,,,METAR,35.0
RKJB 130600Z 34010KT 9999 FEW040 04/M05 Q1021 NOSIG,RKJB,2015-02-13T06:00:00Z,34.98,126.38,4.0,-5.0,340,10,,6.21,30.147638,,,,,,TRUE,,,,,FEW,4000,,,,,,,VFR,,,,,,,,,,,,METAR,2.0
RKNY 130600Z 27013KT CAVOK 04/M16 Q1014 NOSIG,RKNY,2015-02-13T06:00:00Z,38.07,128.67,4.0,-16.0,270,13,,6.21,29.940945,,,,,,TRUE,,,,,CAVOK,,,,,,,,VFR,,,,,,,,,,,,METAR,74.0
SAAR 130600Z 18005KT CAVOK 16/13 Q1019,SAAR,2015-02-13T06:00:00Z,-32.92,-60.77,16.0,13.0,180,5,,6.21,30.088583,,,,,,,,,,,CAVOK,,,,,,,,VFR,,,,,,,,,,,,METAR,25.0
SABE 130600Z 14011KT CAVOK 20/09 Q1019,SABE,2015-02-13T06:00:00Z,-34.57,-58.42,20.0,9.0,140,11,,6.21,30.088583,,,,,,,,,,,CAVOK,,,,,,,,VFR,,,,,,,,,,,,METAR,6.0
SACO 130600Z 27003KT CAVOK 15/14 Q1023,SACO,2015-02-13T06:00:00Z,-31.32,-64.22,15.0,14.0,270,3,,6.21,30.206694,,,,,,,,,,,CAVOK,,,,,,,,VFR,,,,,,,,,,,,METAR,474.0
SADF 130600Z 14006KT CAVOK 20/09 Q1019,SADF,2015-02-13T06:00:00Z,-34.45,-58.58,20.0,9.0,140,6,,6.21,30.088583,,,,,,,,,,,CAVOK,,,,,,,,VFR,,,,,,,,,,,,METAR,4.0
SAEZ 130600Z 21002KT CAVOK 14/11 Q1019,SAEZ,2015-02-13T06:00:00Z,-34.82,-58.52,14.0,11.0,210,2,,6.21,30.088583,,,,,,,,,,,CAVOK,,,,,,,,VFR,,,,,,,,,,,,METAR,20.0
SAME 130600Z 00000KT CAVOK 22/09 Q1019,SAME,2015-02-13T06:00:00Z,-32.82,-68.77,22.0,9.0,0,0,,6.21,30.088583,,,,,,,,,,,CAVOK,,,,,,,,VFR,,,,,,,,,,,,METAR,704.0
SAOC 130600Z 36005KT CAVOK 17/12 Q1020,SAOC,2015-02-13T06:00:00Z,-33.12,-64.27,17.0,12.0,360,5,,6.21,30.11811,,,,,,,,,,,CAVOK,,,,,,,,VFR,,,,,,,,,,,,METAR,421.0
SARC 130600Z 14002KT CAVOK 24/22 Q1013,SARC,2015-02-13T06:00:00Z,-27.43,-58.77,24.0,22.0,140,2,,6.21,29.911417,,,,,,,,,,,CAVOK,,,,,,,,VFR,,,,,,,,,,,,METAR,62.0
SARI 130600Z 05005KT 2500 BR SCT020 BKN100 22/22 Q1016,SARI,2015-02-13T06:00:00Z,-25.72,-54.47,22.0,22.0,50,5,,1.55,30.0,,,,,,,,,,BR,SCT,2000,BKN,10000,,,,,IFR,,,,,,,,,,,,METAR,270.0
SARF 130600Z 14003KT 9999 FEW020 26/24 Q1013,SARF,2015-02-13T06:00:00Z,-26.22,-58.22,26.0,24.0,140,3,,6.21,29.911417,,,,,,,,,,,FEW,2000,,,,,,,VFR,,,,,,,,,,,,METAR,60.0
SARP 130600Z 05002KT CAVOK 25/22 Q1015,SARP,2015-02-13T06:00:00Z,-27.38,-55.97,25.0,22.0,50,2,,6.21,29.970472,,,,,,,,,,,CAVOK,,,,,,,,VFR,,,,,,,,,,,,METAR,125.0
SARL 130600Z 23006KT CAVOK 24/22 Q1014,SARL,2015-02-13T06:00:00Z,-29.67,-57.13,24.0,22.0,230,6,,6.21,29.940945,,,,,,,,,,,CAVOK,,,,,,,,VFR,,,,,,,,,,,,METAR,70.0
SASA 130600Z 18002KT 5000 -RA SCT003 OVC030 18/17 Q1024,SASA,2015-02-13T06:00:00Z,-24.85,-65.47,18.0,17.0,180,2,,3.11,30.236221,,,,,,,,,,-RA,SCT,300,OVC,3000,,,,,MVFR,,,,,,,,,,,,METAR,1216.0
SAVC 130600Z 23005KT CAVOK 16/11 Q1017,SAVC,2015-02-13T06:00:00Z,-45.77,-67.47,16.0,11.0,230,5,,6.21,30.029528,,,,,,,,,,,CAVOK,,,,,,,,VFR,,,,,,,,,,,,METAR,46.0
OYMK 130600Z 18008KT CAVOK 25/22 Q////,OYMK,2015-02-13T06:00:00Z,13.32,43.27,25.0,22.0,180,8,,6.21,,,,,,,,,,,,CAVOK,,,,,,,,VFR,,,,,,,,,,,,METAR,3.0
OYHJ 130600Z 00000KT 9999 FEW020 16/13 Q////,OYHJ,2015-02-13T06:00:00Z,15.7,43.6,16.0,13.0,0,0,,6.21,,,,,,,,,,,,FEW,2000,,,,,,,VFR,,,,,,,,,,,,METAR,1760.0
OYGD 130600Z 06006KT CAVOK 24/13 Q1017,OYGD,2015-02-13T06:00:00Z,16.18,52.17,24.0,13.0,60,6,,6.21,30.029528,,,,,,,,,,,CAVOK,,,,,,,,VFR,,,,,,,,,,,,METAR,41.0
OYDM 130600Z 00000KT CAVOK 17/03 Q////,OYDM,2015-02-13T06:00:00Z,14.53,44.43,17.0,3.0,0,0,,6.21,,,,,,,,,,,,CAVOK,,,,,,,,VFR,,,,,,,,,,,,METAR,2425.0
FAOR 130600Z 36012KT CAVOK 20/13 Q1023 NOSIG,FAOR,2015-02-13T06:00:00Z,-26.12,28.22,20.0,13.0,360,12,,6.21,30.206694,,,,,,TRUE,,,,,CAVOK,,,,,,,,VFR,,,,,,,,,,,,METAR,1700.0
FAOB 130600Z AUTO 29010KT //// // ////// 19/14 Q1013,FAOB,2015-02-13T06:00:00Z,-34.6,20.27,19.0,14.0,290,10,,,29.911417,,,TRUE,,,,,,,,,,,,,,,,,,,,,,,,,,,,METAR,75.0
FALW 130600Z AUTO 07001KT //// // ////// 17/13 Q1014,FALW,2015-02-13T06:00:00Z,-32.97,18.17,17.0,13.0,70,1,,,29.940945,,,TRUE,,,,,,,,,,,,,,,,,,,,,,,,,,,,METAR,0.0
FALE 130600Z 34004KT 320V020 CAVOK 25/20 Q1011 NOSIG,FALE,2015-02-13T06:00:00Z,-29.62,31.12,25.0,20.0,340,4,,6.21,29.852362,,,,,,TRUE,,,,,CAVOK,,,,,,,,VFR,,,,,,,,,,,,METAR,109.0
FALA 130600Z 00000KT CAVOK 21/15 Q1021 NOSIG,FALA,2015-02-13T06:00:00Z,-25.92,27.92,21.0,15.0,0,0,,6.21,30.147638,,,,,,TRUE,,,,,CAVOK,,,,,,,,VFR,,,,,,,,,,,,METAR,1377.0
FAKN 130600Z 34002KT 9999 FEW010 BKN020 21/16 Q1018 NOSIG,FAKN,2015-02-13T06:00:00Z,-25.38,31.1,21.0,16.0,340,2,,6.21,30.059055,,,,,,TRUE,,,,,FEW,1000,BKN,2000,,,,,MVFR,,,,,,,,,,,,METAR,862.0
FAGG 130600Z 29014KT 9999 BKN018 19/15 Q1011,FAGG,2015-02-13T06:00:00Z,-34.0,22.37,19.0,15.0,290,14,,6.21,29.852362,,,,,,,,,,,BKN,1800,,,,,,,MVFR,,,,,,,,,,,,METAR,193.0
FAEL 130600Z 33004KT 290V020 9999 FEW029 23/21 Q1009,FAEL,2015-02-13T06:00:00Z,-33.02,27.82,23.0,21.0,330,4,,6.21,29.793306,,,,,,,,,,,FEW,2900,,,,,,,VFR,,,,,,,,,,,,METAR,125.0
FACT 130600Z VRB02KT 9999 FEW025 19/15 Q1014 NOSIG,FACT,2015-02-13T06:00:00Z,-33.97,18.6,19.0,15.0,0,2,,6.21,29.940945,,,,,,TRUE,,,,,FEW,2500,,,,,,,VFR,,,,,,,,,,,,METAR,42.0
SAZM 130600Z 00000KT CAVOK 12/09 Q1020,SAZM,2015-02-13T06:00:00Z,-37.92,-57.57,12.0,9.0,0,0,,6.21,30.11811,,,,,,,,,,,CAVOK,,,,,,,,VFR,,,,,,,,,,,,METAR,21.0
SAWG 130600Z 27016KT CAVOK 10/03 Q1015,SAWG,2015-02-13T06:00:00Z,-51.62,-69.32,10.0,3.0,270,16,,6.21,29.970472,,,,,,,,,,,CAVOK,,,,,,,,VFR,,,,,,,,,,,,METAR,19.0
SAWE 130600Z 23005KT CAVOK 06/01 Q1011,SAWE,2015-02-13T06:00:00Z,-53.78,-67.75,6.0,1.0,230,5,,6.21,29.852362,,,,,,,,,,,CAVOK,,,,,,,,VFR,,,,,,,,,,,,METAR,22.0
FAPE 130600Z 25018KT 9999 SCT008 BKN028 20/17 Q1008 TEMPO BKN008,FAPE,2015-02-13T06:00:00Z,-33.97,25.6,20.0,17.0,250,18,,6.21,29.763779,,,,,,,,,,,SCT,800,BKN,2800,,,,,MVFR,,,,,,,,,,,,METAR,60.0
FAPN 130600Z AUTO 14001KT //// // ////// 23/14 Q1018,FAPN,2015-02-13T06:00:00Z,-25.33,27.17,23.0,14.0,140,1,,,30.059055,,,TRUE,,,,,,,,,,,,,,,,,,,,,,,,,,,,METAR,1039.0
OEDF 130600Z 01013KT 2500 BLDU NSC 20/10 Q1017 BECMG 3000,OEDF,2015-02-13T06:00:00Z,26.47,49.8,20.0,10.0,10,13,,1.55,30.029528,,,,,,,,,,BLDU,,,,,,,,,,,,,,,,,,,,,METAR,22.0
OEDR 130600Z 01014KT 2000 BLDU NSC 20/12 Q1016 NOSIG,OEDR,2015-02-13T06:00:00Z,26.27,50.17,20.0,12.0,10,14,,1.24,30.0,,,,,,TRUE,,,,BLDU,,,,,,,,,,,,,,,,,,,,,METAR,17.0
OEJN 130600Z 01011KT CAVOK 21/11 Q1017 NOSIG,OEJN,2015-02-13T06:00:00Z,21.68,39.15,21.0,11.0,10,11,,6.21,30.029528,,,,,,TRUE,,,,,CAVOK,,,,,,,,VFR,,,,,,,,,,,,METAR,15.0
OEMA 130600Z 00000KT 6000 SKC 15/M05 Q1019 NOSIG,OEMA,2015-02-13T06:00:00Z,24.55,39.7,15.0,-5.0,0,0,,3.73,30.088583,,,,,,TRUE,,,,,SKC,,,,,,,,MVFR,,,,,,,,,,,,METAR,631.0
OERK 130600Z 08006KT 4000 DU SKC 14/M07 Q1020 NOSIG,OERK,2015-02-13T06:00:00Z,24.95,46.72,14.0,-7.0,80,6,,2.49,30.11811,,,,,,TRUE,,,,DU,SKC,,,,,,,,IFR,,,,,,,,,,,,METAR,612.0
SPCL 130600Z 34004KT 9999 BKN017 25/24 Q1013 RMK PP000,SPCL,2015-02-13T06:00:00Z,-8.38,-74.58,25.0,24.0,340,4,,6.21,29.911417,,,,,,,,,,,BKN,1700,,,,,,,MVFR,,,,,,,,,,,,METAR,149.0
SCTN 130600Z AUTO 09004KT 060V120 CAVOK 08/07 Q1021,SCTN,2015-02-13T06:00:00Z,-42.92,-72.7,8.0,7.0,90,4,,6.21,30.147638,,,TRUE,,,,,,,,CAVOK,,,,,,,,VFR,,,,,,,,,,,,METAR,4.0
SBMA 130600Z 24003KT 5000 BR NSC 25/25 Q1012,SBMA,2015-02-13T06:00:00Z,-5.37,-49.13,25.0,25.0,240,3,,3.11,29.88189,,,,,,,,,,BR,,,,,,,,,,,,,,,,,,,,,METAR,102.0
SPHI 130600Z 17009KT CAVOK 23/21 Q1011 RMK PP000,SPHI,2015-02-13T06:00:00Z,-6.77,-79.82,23.0,21.0,170,9,,6.21,29.852362,,,,,,,,,,,CAVOK,,,,,,,,VFR,,,,,,,,,,,,METAR,34.0
SPQT 130600Z 00000KT 8000 -DZ SCT005 OVC100 24/23 Q1012 RMK PP004,SPQT,2015-02-13T06:00:00Z,-3.78,-73.32,24.0,23.0,0,0,,4.97,29.88189,,,,,,,,,,-DZ,SCT,500,OVC,10000,,,,,MVFR,,,,,,,,,,,,METAR,126.0
SPZO 130600Z 00000KT 9999 BKN040 SCT080 09/07 Q1033 RMK PP000,SPZO,2015-02-13T06:00:00Z,-13.55,-71.97,9.0,7.0,0,0,,6.21,30.501968,,,,,,,,,,,BKN,4000,SCT,8000,,,,,VFR,,,,,,,,,,,,METAR,3249.0
SPTN 130600Z 27003KT CAVOK 19/16 Q1011 RMK PP000,SPTN,2015-02-13T06:00:00Z,-18.07,-70.28,19.0,16.0,270,3,,6.21,29.852362,,,,,,,,,,,CAVOK,,,,,,,,VFR,,,,,,,,,,,,METAR,458.0
SPSO 130600Z 00000KT CAVOK 22/20 Q1010 RMK PP000,SPSO,2015-02-13T06:00:00Z,-13.73,-76.22,22.0,20.0,0,0,,6.21,29.822834,,,,,,,,,,,CAVOK,,,,,,,,VFR,,,,,,,,,,,,METAR,10.0
SPRU 130600Z 12006KT 9000 OVC030 23/20 Q1011 RMK PP000,SPRU,2015-02-13T06:00:00Z,-8.08,-79.12,23.0,20.0,120,6,,5.59,29.852362,,,,,,,,,,,OVC,3000,,,,,,,MVFR,,,,,,,,,,,,METAR,30.0
SPQU 130600Z 02003KT 8000 SCT100 14/12 Q1025 RMK PP000,SPQU,2015-02-13T06:00:00Z,-16.33,-71.57,14.0,12.0,20,3,,4.97,30.265747,,,,,,,,,,,SCT,10000,,,,,,,MVFR,,,,,,,,,,,,METAR,2554.0
SBPL 130600Z 10011KT CAVOK 26/19 Q1015,SBPL,2015-02-13T06:00:00Z,-9.37,-40.57,26.0,19.0,100,11,,6.21,29.970472,,,,,,,,,,,CAVOK,,,,,,,,VFR,,,,,,,,,,,,METAR,375.0
NFFN 130600Z 34003KT 9999 SCT026TCU SCT047 BKN280 28/24 Q1008 NOSIG,NFFN,2015-02-13T06:00:00Z,-17.75,177.45,28.0,24.0,340,3,,6.21,29.763779,,,,,,TRUE,,,,,SCT,2600,SCT,4700,BKN,28000,,,VFR,,,,,,,,,,,,METAR,18.0
SBLO 130600Z 10001KT CAVOK 23/23 Q1017,SBLO,2015-02-13T06:00:00Z,-23.32,-51.12,23.0,23.0,100,1,,6.21,30.029528,,,,,,,,,,,CAVOK,,,,,,,,VFR,,,,,,,,,,,,METAR,570.0
SBRP 130600Z 15004KT CAVOK 22/20 Q1017,SBRP,2015-02-13T06:00:00Z,-21.12,-47.77,22.0,20.0,150,4,,6.21,30.029528,,,,,,,,,,,CAVOK,,,,,,,,VFR,,,,,,,,,,,,METAR,549.0
SCPQ 130600Z AUTO 20010KT CAVOK 09/05 Q1022,SCPQ,2015-02-13T06:00:00Z,-42.33,-73.72,9.0,5.0,200,10,,6.21,30.177166,,,TRUE,,,,,,,,CAVOK,,,,,,,,VFR,,,,,,,,,,,,METAR,5.0
SCIP 130600Z 10006KT 9999 SCT020 23/17 Q1023 NOSIG,SCIP,2015-02-13T06:00:00Z,-27.17,-109.43,23.0,17.0,100,6,,6.21,30.206694,,,,,,TRUE,,,,,SCT,2000,,,,,,,VFR,,,,,,,,,,,,METAR,69.0
SCEL 130600Z 34003KT 310V010 CAVOK 20/06 Q1011 NOSIG,SCEL,2015-02-13T06:00:00Z,-33.37,-70.77,20.0,6.0,340,3,,6.21,29.852362,,,,,,TRUE,,,,,CAVOK,,,,,,,,VFR,,,,,,,,,,,,METAR,476.0
SCCI 130600Z 24018KT 9999 SCT040 09/05 Q1014 NOSIG,SCCI,2015-02-13T06:00:00Z,-53.0,-70.83,9.0,5.0,240,18,,6.21,29.940945,,,,,,TRUE,,,,,SCT,4000,,,,,,,VFR,,,,,,,,,,,,METAR,37.0
SCTE 130600Z 00000KT CAVOK 08/06 Q1022 NOSIG,SCTE,2015-02-13T06:00:00Z,-41.42,-73.07,8.0,6.0,0,0,,6.21,30.177166,,,,,,TRUE,,,,,CAVOK,,,,,,,,VFR,,,,,,,,,,,,METAR,86.0
SCSE 130600Z 29001KT 9999 OVC012 16/14 Q1010,SCSE,2015-02-13T06:00:00Z,-29.92,-71.2,16.0,14.0,290,1,,6.21,29.822834,,,,,,,,,,,OVC,1200,,,,,,,MVFR,,,,,,,,,,,,METAR,146.0
SCDA 130600Z 00000KT CAVOK 20/16 Q1012,SCDA,2015-02-13T06:00:00Z,-20.52,-70.17,20.0,16.0,0,0,,6.21,29.88189,,,,,,,,,,,CAVOK,,,,,,,,VFR,,,,,,,,,,,,METAR,52.0
SCIE 130600Z 20005KT CAVOK 12/09 Q1014,SCIE,2015-02-13T06:00:00Z,-36.77,-73.07,12.0,9.0,200,5,,6.21,29.940945,,,,,,,,,,,CAVOK,,,,,,,,VFR,,,,,,,,,,,,METAR,16.0
SCCF 130600Z 09009KT CAVOK 12/05 Q1025,SCCF,2015-02-13T06:00:00Z,-22.5,-68.9,12.0,5.0,90,9,,6.21,30.265747,,,,,,,,,,,CAVOK,,,,,,,,VFR,,,,,,,,,,,,METAR,2312.0
SCBA 130600Z AUTO 26005KT CAVOK 03/00 Q1021,SCBA,2015-02-13T06:00:00Z,-45.92,-71.67,3.0,0.0,260,5,,6.21,30.147638,,,TRUE,,,,,,,,CAVOK,,,,,,,,VFR,,,,,,,,,,,,METAR,524.0
SCAR 130600Z 30003KT 8000 NSC 22/18 Q1012,SCAR,2015-02-13T06:00:00Z,-18.35,-70.32,22.0,18.0,300,3,,4.97,29.88189,,,,,,,,,,,,,,,,,,,,,,,,,,,,,,,METAR,59.0
SCFA 130600Z 18004KT 9999 FEW009 BKN014 19/16 Q1011 NOSIG,SCFA,2015-02-13T06:00:00Z,-23.42,-70.42,19.0,16.0,180,4,,6.21,29.852362,,,,,,TRUE,,,,,FEW,900,BKN,1400,,,,,MVFR,,,,,,,,,,,,METAR,120.0
SYCJ 130600Z 00000KT 9999 FEW016 24/23 Q1013 NOSIG,SYCJ,2015-02-13T06:00:00Z,6.5,-58.25,24.0,23.0,0,0,,6.21,29.911417,,,,,,TRUE,,,,,FEW,1600,,,,,,,VFR,,,,,,,,,,,,METAR,30.0
TAPA 130600Z VRB01KT 9999 FEW018 23/22 Q1015 NOSIG,TAPA,2015-02-13T06:00:00Z,17.12,-61.78,23.0,22.0,0,1,,6.21,29.970472,,,,,,TRUE,,,,,FEW,1800,,,,,,,VFR,,,,,,,,,,,,METAR,14.0
RPLC 130600Z 04004KT 9999 FEW042 SCT100 BKN300 28/20 Q1012 NOSIG A2989,RPLC,2015-02-13T06:00:00Z,15.17,120.58,28.0,20.0,40,4,,6.21,29.88189,,,,,,TRUE,,,,,FEW,4200,SCT,10000,BKN,30000,,,VFR,,,,,,,,,,,,METAR,196.0
SBFI 130600Z 07003KT 9999 FEW005 OVC090 23/23 Q1015,SBFI,2015-02-13T06:00:00Z,-25.6,-54.48,23.0,23.0,70,3,,6.21,29.970472,,,,,,,,,,,FEW,500,OVC,9000,,,,,VFR,,,,,,,,,,,,METAR,243.0
OPRN 130600Z 13004KT 4000 HZ FEW100 19/04 Q1016.0/30.00,OPRN,2015-02-13T06:00:00Z,33.62,73.08,19.0,4.0,130,4,,2.49,,,,,,,,,,,HZ,FEW,10000,,,,,,,IFR,,,,,,,,,,,,METAR,508.0
OPNH 130600Z 22504KTS 4000M FU NSC 22/11 Q.1013,OPNH,2015-02-13T06:00:00Z,26.22,68.37,22.0,11.0,225,4,,2.49,,,,,,,,,,,FU,,,,,,,,,,,,,,,,,,,,,METAR,38.0
FIMP 130600Z 12009KT 9999 SCT017 29/22 Q1013,FIMP,2015-02-13T06:00:00Z,-20.42,57.67,29.0,22.0,120,9,,6.21,29.911417,,,,,,,,,,,SCT,1700,,,,,,,VFR,,,,,,,,,,,,METAR,57.0
FDMY 130600Z AUTO 05003KT //// // ////// ///// Q////,FDMY,2015-02-13T06:00:00Z,-25.87,31.52,,,50,3,,,,,,TRUE,,,,,,,,,,,,,,,,,,,,,,,,,,,,METAR,480.0
FDST 130600Z AUTO 00000KT //// // ////// 25/20 Q1015,FDST,2015-02-13T06:00:00Z,-26.43,31.95,25.0,20.0,0,0,,,29.970472,,,TRUE,,,,,,,,,,,,,,,,,,,,,,,,,,,,METAR,667.0
FDND 130600Z AUTO /////KT //// // ////// 25/19 Q1013,FDND,2015-02-13T06:00:00Z,-26.97,31.97,25.0,19.0,,,,,29.911417,,,TRUE,,,,,,,,,,,,,,,,,,,,,,,,,,,,METAR,207.0
FDBB 130600Z AUTO 04001KT //// // ////// 27/20 Q1013,FDBB,2015-02-13T06:00:00Z,-26.85,31.92,27.0,20.0,40,1,,,29.911417,,,TRUE,,,,,,,,,,,,,,,,,,,,,,,,,,,,METAR,94.0
RJKA 130600Z 33009KT 9999 FEW035 SCT040 BKN045 14/03 Q1017,RJKA,2015-02-13T06:00:00Z,28.42,129.72,14.0,3.0,330,9,,6.21,30.029528,,,,,,,,,,,FEW,3500,SCT,4000,BKN,4500,,,VFR,,,,,,,,,,,,METAR,7.0
RJNW 130600Z 29011G22KT 260V330 9999 VCSH FEW007 SCT015 BKN040 M02/M07 Q1007,RJNW,2015-02-13T06:00:00Z,37.3,136.97,-2.0,-7.0,290,11,22,6.21,29.734253,,,,,,,,,,VCSH,FEW,700,SCT,1500,BKN,4000,,,VFR,,,,,,,,,,,,METAR,219.0
RJNS 130600Z 28024G35KT 9999 FEW020 06/M11 Q1004,RJNS,2015-02-13T06:00:00Z,34.8,138.18,6.0,-11.0,280,24,35,6.21,29.64567,,,,,,,,,,,FEW,2000,,,,,,,VFR,,,,,,,,,,,,METAR,135.0
RJOC 130600Z 27015KT 9999 VCSH FEW015 SCT025 BKN040 03/M06 Q1014,RJOC,2015-02-13T06:00:00Z,35.42,132.87,3.0,-6.0,270,15,,6.21,29.940945,,,,,,,,,,VCSH,FEW,1500,SCT,2500,BKN,4000,,,VFR,,,,,,,,,,,,METAR,5.0
RJOH 130600Z 27012KT 9999 -SHSN FEW010 BKN035 03/M05 Q1014,RJOH,2015-02-13T06:00:00Z,35.47,133.25,3.0,-5.0,270,12,,6.21,29.940945,,,,,,,,,,-SHSN,FEW,1000,BKN,3500,,,,,VFR,,,,,,,,,,,,METAR,9.0
RJOK 130600Z 33014G28KT 310V010 9999 FEW030 10/M12 Q1010,RJOK,2015-02-13T06:00:00Z,33.52,133.67,10.0,-12.0,330,14,28,6.21,29.822834,,,,,,,,,,,FEW,3000,,,,,,,VFR,,,,,,,,,,,,METAR,10.0
RJOM 130600Z 28014KT 9999 FEW040 SCT050 08/M09 Q1013,RJOM,2015-02-13T06:00:00Z,33.82,132.68,8.0,-9.0,280,14,,6.21,29.911417,,,,,,,,,,,FEW,4000,SCT,5000,,,,,VFR,,,,,,,,,,,,METAR,7.0
RJOO 130600Z 32007KT 260V360 9999 -SHSN FEW015 BKN035 05/M01 Q1010 RMK 1CU015 5CU035 A2985,RJOO,2015-02-13T06:00:00Z,34.77,135.43,5.0,-1.0,320,7,,6.21,29.822834,,,,,,,,,,-SHSN,FEW,1500,BKN,3500,,,,,VFR,,,,,,,,,,,,METAR,15.0
RJAF 130600Z 34006KT 300V030 9999 -SHSN FEW020 BKN040 M02/M09 Q1002,RJAF,2015-02-13T06:00:00Z,36.17,137.92,-2.0,-9.0,340,6,,6.21,29.586615,,,,,,,,,,-SHSN,FEW,2000,BKN,4000,,,,,VFR,,,,,,,,,,,,METAR,660.0
RJBD 130600Z 33019KT 9999 FEW025 SCT035 07/M08 Q1010,RJBD,2015-02-13T06:00:00Z,33.67,135.37,7.0,-8.0,330,19,,6.21,29.822834,,,,,,,,,,,FEW,2500,SCT,3500,,,,,VFR,,,,,,,,,,,,METAR,108.0
RJBE 130600Z 27021KT 9999 -SHSN FEW015 BKN025 04/M04 Q1011,RJBE,2015-02-13T06:00:00Z,34.63,135.23,4.0,-4.0,270,21,,6.21,29.852362,,,,,,,,,,-SHSN,FEW,1500,BKN,2500,,,,,MVFR,,,,,,,,,,,,METAR,5.0
RJCH 130600Z 32008KT 280V360 7000 -SHSN FEW004 SCT015 BKN020 00/M02 Q0991,RJCH,2015-02-13T06:00:00Z,41.77,140.82,0.0,-2.0,320,8,,4.35,29.26181,,,,,,,,,,-SHSN,FEW,400,SCT,1500,BKN,2000,,,MVFR,,,,,,,,,,,,METAR,36.0
RJCW 130600Z 05012KT 9999 -SHSN FEW006 SCT020 BKN050 M02/M07 Q0998,RJCW,2015-02-13T06:00:00Z,45.38,141.8,-2.0,-7.0,50,12,,6.21,29.468504,,,,,,,,,,-SHSN,FEW,600,SCT,2000,BKN,5000,,,VFR,,,,,,,,,,,,METAR,11.0
RJDC 130600Z 28012KT 250V310 9999 FEW030 SCT045 06/M09 Q1015,RJDC,2015-02-13T06:00:00Z,33.92,131.27,6.0,-9.0,280,12,,6.21,29.970472,,,,,,,,,,,FEW,3000,SCT,4500,,,,,VFR,,,,,,,,,,,,METAR,8.0
SBTE 130600Z 30002KT CAVOK 25/23 Q1011,SBTE,2015-02-13T06:00:00Z,-5.03,-42.82,25.0,23.0,300,2,,6.21,29.852362,,,,,,,,,,,CAVOK,,,,,,,,VFR,,,,,,,,,,,,METAR,69.0
SBCT 130600Z 30006KT 9999 SCT011 BKN100 21/20 Q1020,SBCT,2015-02-13T06:00:00Z,-25.52,-49.17,21.0,20.0,300,6,,6.21,30.11811,,,,,,,,,,,SCT,1100,BKN,10000,,,,,VFR,,,,,,,,,,,,METAR,908.0
SBMQ 130600Z 02004KT 9999 FEW012 26/25 Q1012,SBMQ,2015-02-13T06:00:00Z,0.05,-51.07,26.0,25.0,20,4,,6.21,29.88189,,,,,,,,,,,FEW,1200,,,,,,,VFR,,,,,,,,,,,,METAR,15.0
SBKP 130600Z 11005KT CAVOK 23/20 Q1019,SBKP,2015-02-13T06:00:00Z,-23.0,-47.12,23.0,20.0,110,5,,6.21,30.088583,,,,,,,,,,,CAVOK,,,,,,,,VFR,,,,,,,,,,,,METAR,661.0
GVNP 130600Z 03006KT 9999 SCT017 19/18 Q1018 NOSIG,GVNP,2015-02-13T06:00:00Z,14.95,-23.48,19.0,18.0,30,6,,6.21,30.059055,,,,,,TRUE,,,,,SCT,1700,,,,,,,VFR,,,,,,,,,,,,METAR,70.0
GVSV 130600Z 07015KT 9999 -DZ SCT017 OVC090 19/17 Q1019 NOSIG,GVSV,2015-02-13T06:00:00Z,16.83,-25.07,19.0,17.0,70,15,,6.21,30.088583,,,,,,TRUE,,,,-DZ,SCT,1700,OVC,9000,,,,,VFR,,,,,,,,,,,,METAR,20.0
SADM 130600Z 14004KT CAVOK 18/17 Q1019,SADM,2015-02-13T06:00:00Z,-34.67,-58.63,18.0,17.0,140,4,,6.21,30.088583,,,,,,,,,,,CAVOK,,,,,,,,VFR,,,,,,,,,,,,METAR,30.0
FDLB 130600Z AUTO 01002KT //// // ////// 26/19 Q1016,FDLB,2015-02-13T06:00:00Z,,,26.0,19.0,10,2,,,30.0,,,TRUE,,,,,,,,,,,,,,,,,,,,,,,,,,,,METAR,
FDOT 130600Z AUTO /////KT //// // ////// 25/18 Q1016,FDOT,2015-02-13T06:00:00Z,-26.7,31.43,25.0,18.0,,,,,30.0,,,TRUE,,,,,,,,,,,,,,,,,,,,,,,,,,,,METAR,341.0
UBEE 130600Z 14005KT 9999 -RA SCT006 OVC020 05/04 Q1021 R30/290360 NOSIG,UBEE,2015-02-13T06:00:00Z,40.63,47.15,5.0,4.0,140,5,,6.21,30.147638,,,,,,TRUE,,,,-RA,SCT,600,OVC,2000,,,,,MVFR,,,,,,,,,,,,METAR,15.0
MPTO 130600Z 02008KT 9999 FEW020 27/21 Q1012 NOSIG,MPTO,2015-02-13T06:00:00Z,9.05,-79.37,27.0,21.0,20,8,,6.21,29.88189,,,,,,TRUE,,,,,FEW,2000,,,,,,,VFR,,,,,,,,,,,,METAR,45.0
SBNT 130600Z 16005KT 9999 SCT020 25/22 Q1014,SBNT,2015-02-13T06:00:00Z,-5.92,-35.25,25.0,22.0,160,5,,6.21,29.940945,,,,,,,,,,,SCT,2000,,,,,,,VFR,,,,,,,,,,,,METAR,49.0
ORER 130600Z 00000KT 6000 NSC 08/04 Q1021 NOSIG,ORER,2015-02-13T06:00:00Z,36.23,43.97,8.0,4.0,0,0,,3.73,30.147638,,,,,,TRUE,,,,,,,,,,,,,,,,,,,,,,,,,METAR,409.0
SBVT 130600Z 01008KT CAVOK 25/21 Q1016,SBVT,2015-02-13T06:00:00Z,-20.27,-40.27,25.0,21.0,10,8,,6.21,30.0,,,,,,,,,,,CAVOK,,,,,,,,VFR,,,,,,,,,,,,METAR,4.0
UBBQ 130600Z 00000KT 9999 -RA SCT013 OVC022 02/01 Q1019 R34/29//60 NOSIG RMK MT OBSC,UBBQ,2015-02-13T06:00:00Z,40.82,47.72,2.0,1.0,0,0,,6.21,30.088583,,,,,,TRUE,,,,-RA,SCT,1300,OVC,2200,,,,,MVFR,,,,,,,,,,,,METAR,338.0
FSIA 130600Z 34011KT 9999 FEW020 30/22 Q1012 NOSIG,FSIA,2015-02-13T06:00:00Z,-4.67,55.52,30.0,22.0,340,11,,6.21,29.88189,,,,,,TRUE,,,,,FEW,2000,,,,,,,VFR,,,,,,,,,,,,METAR,3.0
WSSL 130600Z 02012KT 9999 FEW020 BKN060 30/20 Q1010 RMK 0530Z Q1011,WSSL,2015-02-13T06:00:00Z,1.42,103.87,30.0,20.0,20,12,,6.21,29.822834,,,,,,,,,,,FEW,2000,BKN,6000,,,,,VFR,,,,,,,,,,,,METAR,14.0
OMAA 130600Z 17008KT 140V240 CAVOK 26/08 Q1017 A3003 BECMG 23010KT,OMAA,2015-02-13T06:00:00Z,24.42,54.63,26.0,8.0,170,8,,6.21,30.029528,,,,,,,,,,,CAVOK,,,,,,,,VFR,,,,,,,,,,,,METAR,27.0
OMAD 130600Z 15005KT CAVOK 26/08 Q1017 A3004 NOSIG,OMAD,2015-02-13T06:00:00Z,24.42,54.47,26.0,8.0,150,5,,6.21,30.029528,,,,,,TRUE,,,,,CAVOK,,,,,,,,VFR,,,,,,,,,,,,METAR,3.0
OMAL 130600Z 15007KT CAVOK 27/08 Q1019 A3010 NOSIG,OMAL,2015-02-13T06:00:00Z,24.25,55.6,27.0,8.0,150,7,,6.21,30.088583,,,,,,TRUE,,,,,CAVOK,,,,,,,,VFR,,,,,,,,,,,,METAR,262.0
OMFJ 130600Z 09004KT 040V140 7000 NSC 29/12 Q1016 A3002,OMFJ,2015-02-13T06:00:00Z,25.1,56.32,29.0,12.0,90,4,,4.35,30.0,,,,,,,,,,,,,,,,,,,,,,,,,,,,,,,METAR,28.0
OMDW 130600Z 18011KT CAVOK 28/07 Q1018 NOSIG,OMDW,2015-02-13T06:00:00Z,24.9,55.17,28.0,7.0,180,11,,6.21,30.059055,,,,,,TRUE,,,,,CAVOK,,,,,,,,VFR,,,,,,,,,,,,METAR,25.0
OMDB 130600Z 16004KT 110V200 CAVOK 27/09 Q1017 NOSIG,OMDB,2015-02-13T06:00:00Z,25.25,55.37,27.0,9.0,160,4,,6.21,30.029528,,,,,,TRUE,,,,,CAVOK,,,,,,,,VFR,,,,,,,,,,,,METAR,5.0
OMSJ 130600Z 13002KT CAVOK 26/09 Q1017,OMSJ,2015-02-13T06:00:00Z,25.32,55.52,26.0,9.0,130,2,,6.21,30.029528,,,,,,,,,,,CAVOK,,,,,,,,VFR,,,,,,,,,,,,METAR,33.0
WSAP 130600Z 05015KT 9999 SCT020 BKN300 30/21 Q1010,WSAP,2015-02-13T06:00:00Z,1.37,103.92,30.0,21.0,50,15,,6.21,29.822834,,,,,,,,,,,SCT,2000,BKN,30000,,,,,VFR,,,,,,,,,,,,METAR,32.0
OMRK 130600Z 00000KT CAVOK 26/13 Q1017 A3005,OMRK,2015-02-13T06:00:00Z,25.62,55.92,26.0,13.0,0,0,,6.21,30.029528,,,,,,,,,,,CAVOK,,,,,,,,VFR,,,,,,,,,,,,METAR,31.0
LBPD 130600Z 27004KT CAVOK M03/M05 Q1027 NOSIG,LBPD,2015-02-13T06:00:00Z,42.13,24.8,-3.0,-5.0,270,4,,6.21,30.324802,,,,,,TRUE,,,,,CAVOK,,,,,,,,VFR,,,,,,,,,,,,METAR,185.0
LBGO 130600Z 10004KT 8000 NSC M07/M08 Q1029 NOSIG,LBGO,2015-02-13T06:00:00Z,43.15,25.72,-7.0,-8.0,100,4,,4.97,30.383858,,,,,,TRUE,,,,,,,,,,,,,,,,,,,,,,,,,METAR,86.0
SBGO 130600Z 00000KT CAVOK 22/18 Q1018,SBGO,2015-02-13T06:00:00Z,-16.62,-49.22,22.0,18.0,0,0,,6.21,30.059055,,,,,,,,,,,CAVOK,,,,,,,,VFR,,,,,,,,,,,,METAR,747.0
SBGL 130600Z 03003KT CAVOK 25/22 Q1013,SBGL,2015-02-13T06:00:00Z,-22.82,-43.25,25.0,22.0,30,3,,6.21,29.911417,,,,,,,,,,,CAVOK,,,,,,,,VFR,,,,,,,,,,,,METAR,6.0
SBSJ 130600Z 17003KT 7000 BKN020 25/22 Q1019,SBSJ,2015-02-13T06:00:00Z,-23.22,-45.87,25.0,22.0,170,3,,4.35,30.088583,,,,,,,,,,,BKN,2000,,,,,,,MVFR,,,,,,,,,,,,METAR,646.0
FQMA 130600Z 29003KT 9999 SCT025 28/24 Q1013 NOSIG,FQMA,2015-02-13T06:00:00Z,-25.92,32.57,28.0,24.0,290,3,,6.21,29.911417,,,,,,TRUE,,,,,SCT,2500,,,,,,,VFR,,,,,,,,,,,,METAR,44.0
OYSY 130600Z VRB03KT CAVOK 22/00 Q1018,OYSY,2015-02-13T06:00:00Z,15.97,48.78,22.0,0.0,0,3,,6.21,30.059055,,,,,,,,,,,CAVOK,,,,,,,,VFR,,,,,,,,,,,,METAR,701.0
MROC 130600Z 10014G24KT CAVOK 21/15 A3001 NOSIG,MROC,2015-02-13T06:00:00Z,10.0,-84.22,21.0,15.0,100,14,24,6.21,30.008858,,,,,,TRUE,,,,,CAVOK,,,,,,,,VFR,,,,,,,,,,,,METAR,920.0
CWGT 130600Z AUTO 12019KT 09/08 RMK AO1 PK WND 13025/0517 SLP243 T00910079 51008,CWGT,2015-02-13T06:00:00Z,49.48,-124.43,9.1,7.9,120,19,,,,1024.3,,TRUE,TRUE,,,,,,,,,,,,,,,,0.8,,,,,,,,,,,METAR,5.0
NCMH 130600Z AUTO NIL,NCMH,2015-02-13T06:00:00Z,-10.38,-161.0,,,,,,,,,,TRUE,,,,,,,,,,,,,,,,,,,,,,,,,,,,METAR,0.0
CYXT 130600Z 09004KT 3/4SM -RA BR BKN005 OVC012 01/00 A3003 RMK FG2SF4SC2 VIS VRB 1/2-1 SLP178,CYXT,2015-02-13T06:00:00Z,54.47,-128.57,1.0,0.0,90,4,,0.75,30.029528,1017.8,,,,,,,,,-RA BR,BKN,500,OVC,1200,,,,,LIFR,,,,,,,,,,,,METAR,217.0
HEMA 130600Z 28009KT 6000 NSC 14/M06 Q1021 NOSIG,HEMA,2015-02-13T06:00:00Z,25.55,34.58,14.0,-6.0,280,9,,3.73,30.147638,,,,,,TRUE,,,,,,,,,,,,,,,,,,,,,,,,,METAR,77.0
HESG 130600Z 23005KT CAVOK 09/M04 Q1021 NOSIG,HESG,2015-02-13T06:00:00Z,26.33,31.75,9.0,-4.0,230,5,,6.21,30.147638,,,,,,TRUE,,,,,CAVOK,,,,,,,,VFR,,,,,,,,,,,,METAR,70.0
HESC 130600Z 27010KT 9999 SCT025 02/M04 Q1021 NOSIG,HESC,2015-02-13T06:00:00Z,28.68,34.07,2.0,-4.0,270,10,,6.21,30.147638,,,,,,TRUE,,,,,SCT,2500,,,,,,,VFR,,,,,,,,,,,,METAR,1332.0
HEBL 130600Z 04009KT CAVOK 15/02 Q1022 NOSIG,HEBL,2015-02-13T06:00:00Z,22.38,31.62,15.0,2.0,40,9,,6.21,30.177166,,,,,,TRUE,,,,,CAVOK,,,,,,,,VFR,,,,,,,,,,,,METAR,188.0
HEBA 130600Z 24010KT 9999 SCT020 08/04 Q1018 NOSIG,HEBA,2015-02-13T06:00:00Z,30.92,29.7,8.0,4.0,240,10,,6.21,30.059055,,,,,,TRUE,,,,,SCT,2000,,,,,,,VFR,,,,,,,,,,,,METAR,54.0
HEAT 130600Z 20004KT CAVOK 05/M04 Q1022 NOSIG,HEAT,2015-02-13T06:00:00Z,27.05,31.02,5.0,-4.0,200,4,,6.21,30.177166,,,,,,TRUE,,,,,CAVOK,,,,,,,,VFR,,,,,,,,,,,,METAR,70.0
HESH 130600Z 26004KT 7000 NSC 14/04 Q1019 NOSIG,HESH,2015-02-13T06:00:00Z,27.97,34.38,14.0,4.0,260,4,,4.35,30.088583,,,,,,TRUE,,,,,,,,,,,,,,,,,,,,,,,,,METAR,50.0
HEPS 130600Z 22026KT CAVOK 09/04 Q1017 NOSIG,HEPS,2015-02-13T06:00:00Z,31.28,32.25,9.0,4.0,220,26,,6.21,30.029528,,,,,,TRUE,,,,,CAVOK,,,,,,,,VFR,,,,,,,,,,,,METAR,6.0
HEGN 130600Z 30009KT CAVOK 13/M03 Q1021 NOSIG,HEGN,2015-02-13T06:00:00Z,27.18,33.8,13.0,-3.0,300,9,,6.21,30.147638,,,,,,TRUE,,,,,CAVOK,,,,,,,,VFR,,,,,,,,,,,,METAR,14.0
HEAR 130600Z 23009KT CAVOK 11/02 Q1018 NOSIG,HEAR,2015-02-13T06:00:00Z,31.07,33.82,11.0,2.0,230,9,,6.21,30.059055,,,,,,TRUE,,,,,CAVOK,,,,,,,,VFR,,,,,,,,,,,,METAR,32.0
HESN 130600Z 31002KT CAVOK 11/M05 Q1022 NOSIG,HESN,2015-02-13T06:00:00Z,23.97,32.82,11.0,-5.0,310,2,,6.21,30.177166,,,,,,TRUE,,,,,CAVOK,,,,,,,,VFR,,,,,,,,,,,,METAR,194.0
HELX 130600Z 00000KT 6000 NSC 09/01 Q1022 NOSIG,HELX,2015-02-13T06:00:00Z,25.67,32.7,9.0,1.0,0,0,,3.73,30.177166,,,,,,TRUE,,,,,,,,,,,,,,,,,,,,,,,,,METAR,88.0
HEAX 130600Z 28010KT 9999 SCT020 12/07 Q1016 NOSIG,HEAX,2015-02-13T06:00:00Z,31.18,29.93,12.0,7.0,280,10,,6.21,30.0,,,,,,TRUE,,,,,SCT,2000,,,,,,,VFR,,,,,,,,,,,,METAR,7.0
HEMM 130600Z 27015KT 9999 SCT020 BKN022 08/05 Q1019 NOSIG,HEMM,2015-02-13T06:00:00Z,31.32,27.22,8.0,5.0,270,15,,6.21,30.088583,,,,,,TRUE,,,,,SCT,2000,BKN,2200,,,,,MVFR,,,,,,,,,,,,METAR,30.0
VTUO 130600Z 19009KT 8000 NSC 31/15 Q1010 INFO G RWY 22,VTUO,2015-02-13T06:00:00Z,15.23,103.25,31.0,15.0,190,9,,4.97,29.822834,,,,,,,,,,,,,,,,,,,,,,,,,,,,,,,METAR,183.0
VTPO 130600Z 15005KT 5000 BR FEW025 SCT120 BKN300 31/22 Q1011,VTPO,2015-02-13T06:00:00Z,17.23,99.82,31.0,22.0,150,5,,3.11,29.852362,,,,,,,,,,BR,FEW,2500,SCT,12000,BKN,30000,,,MVFR,,,,,,,,,,,,METAR,54.0
VTCH 130600Z VRB04KT 9999 FEW028 29/12 Q1010 A2985,VTCH,2015-02-13T06:00:00Z,19.3,97.98,29.0,12.0,0,4,,6.21,29.822834,,,,,,,,,,,FEW,2800,,,,,,,VFR,,,,,,,,,,,,METAR,269.0
CWSS 130600Z AUTO 32004KT M14/M16 RMK AO1 SOG 52 6017 SLP035 T11361161,CWSS,2015-02-13T06:00:00Z,45.2,-67.25,-13.6,-16.1,320,4,,,,1003.5,,TRUE,TRUE,,,,,,,,,,,,,,,,,,,,,,,,,,,METAR,26.0
CXCS 130600Z AUTO 30009KT M03/M05 RMK AO1 T10261048,CXCS,2015-02-13T06:00:00Z,51.93,-110.72,-2.6,-4.8,300,9,,,,,,TRUE,TRUE,,,,,,,,,,,,,,,,,,,,,,,,,,,METAR,772.0
CXCD 130600Z AUTO 01002KT M03/M05 RMK AO1 T10321052,CXCD,2015-02-13T06:00:00Z,56.32,-119.75,-3.2,-5.2,10,2,,,,,,TRUE,TRUE,,,,,,,,,,,,,,,,,,,,,,,,,,,METAR,630.0
CXBA 130600Z AUTO 28003KT M02/M05 RMK AO1 T10151047,CXBA,2015-02-13T06:00:00Z,52.12,-110.1,-1.5,-4.7,280,3,,,,,,TRUE,TRUE,,,,,,,,,,,,,,,,,,,,,,,,,,,METAR,687.0
CXAJ 130600Z AUTO 03002KT M02/M05 RMK AO1 SOG 10 T10231046,CXAJ,2015-02-13T06:00:00Z,54.77,-112.82,-2.3,-4.6,30,2,,,,,,TRUE,TRUE,,,,,,,,,,,,,,,,,,,,,,,,,,,METAR,574.0
CXAG 130600Z AUTO 16002KT M05/M06 RMK AO1 T10491062,CXAG,2015-02-13T06:00:00Z,53.92,-112.28,-4.9,-6.2,160,2,,,,,,TRUE,TRUE,,,,,,,,,,,,,,,,,,,,,,,,,,,METAR,625.0
CZOL 130600Z AUTO 31002KT M00/M02 RMK AO1 T10041024,CZOL,2015-02-13T06:00:00Z,53.65,-113.35,-0.4,-2.4,310,2,,,,,,TRUE,TRUE,,,,,,,,,,,,,,,,,,,,,,,,,,,METAR,665.0
CXVM 130600Z AUTO 07001KT M02/M04 RMK AO1 T10241037,CXVM,2015-02-13T06:00:00Z,53.35,-110.88,-2.4,-3.7,70,1,,,,,,TRUE,TRUE,,,,,,,,,,,,,,,,,,,,,,,,,,,METAR,623.0
CXSP 130600Z AUTO 02002KT M03/M04 RMK AO1 T10301040,CXSP,2015-02-13T06:00:00Z,54.02,-111.27,-3.0,-4.0,20,2,,,,,,TRUE,TRUE,,,,,,,,,,,,,,,,,,,,,,,,,,,METAR,649.0
CXPL 130600Z AUTO 03001KT M04/M05 RMK AO1 T10401054,CXPL,2015-02-13T06:00:00Z,51.13,-111.7,-4.0,-5.4,30,1,,,,,,TRUE,TRUE,,,,,,,,,,,,,,,,,,,,,,,,,,,METAR,750.0
CXOL 130600Z AUTO 26006KT 03/M01 RMK AO1 T00331009,CXOL,2015-02-13T06:00:00Z,51.77,-114.08,3.3,-0.9,260,6,,,,,,TRUE,TRUE,,,,,,,,,,,,,,,,,,,,,,,,,,,METAR,1046.0
CXMO 130600Z AUTO 32002KT M03/M05 RMK AO1 T10281047,CXMO,2015-02-13T06:00:00Z,51.67,-112.68,-2.8,-4.7,320,2,,,,,,TRUE,TRUE,,,,,,,,,,,,,,,,,,,,,,,,,,,METAR,836.0
CXMG 130600Z AUTO 01004KT M13/M15 RMK AO1 T11321147,CXMG,2015-02-13T06:00:00Z,56.97,-117.45,-13.2,-14.7,10,4,,,,,,TRUE,TRUE,,,,,,,,,,,,,,,,,,,,,,,,,,,METAR,457.0
CXHD 130600Z AUTO 27004KT M02/M04 RMK AO1 T10231036,CXHD,2015-02-13T06:00:00Z,53.18,-112.25,-2.3,-3.6,270,4,,,,,,TRUE,TRUE,,,,,,,,,,,,,,,,,,,,,,,,,,,METAR,688.0
CXFM 130600Z AUTO 23003KT 04/01 RMK AO1 T00400011,CXFM,2015-02-13T06:00:00Z,49.48,-111.48,4.0,1.1,230,3,,,,,,TRUE,TRUE,,,,,,,,,,,,,,,,,,,,,,,,,,,METAR,881.0
CPRY 130600Z AUTO 25009KT 04/M00 RMK AO1 T00411001,CPRY,2015-02-13T06:00:00Z,49.48,-112.68,4.1,-0.1,250,9,,,,,,TRUE,TRUE,,,,,,,,,,,,,,,,,,,,,,,,,,,METAR,937.0
CWXL 130600Z AUTO 26007KT 05/01 RMK AO1 T00480014,CWXL,2015-02-13T06:00:00Z,49.73,-111.45,4.8,1.4,260,7,,,,,,TRUE,TRUE,,,,,,,,,,,,,,,,,,,,,,,,,,,METAR,817.0
WATT 130600Z 25005KT 9999 SCT018 31/27 Q1008 NOSIG,WATT,2015-02-13T06:00:00Z,-10.17,123.67,31.0,27.0,250,5,,6.21,29.763779,,,,,,TRUE,,,,,SCT,1800,,,,,,,VFR,,,,,,,,,,,,METAR,102.0
WARS 130600Z 29012KT 9000 SCT014 30/23 Q1008 NOSIG,WARS,2015-02-13T06:00:00Z,-6.97,110.38,30.0,23.0,290,12,,5.59,29.763779,,,,,,TRUE,,,,,SCT,1400,,,,,,,VFR,,,,,,,,,,,,METAR,3.0
WIPT 130600Z 24005KT 170V280 9999 FEW020 31/22 Q1009,WIPT,2015-02-13T06:00:00Z,-0.78,100.28,31.0,22.0,240,5,,6.21,29.793306,,,,,,,,,,,FEW,2000,,,,,,,VFR,,,,,,,,,,,,METAR,5.0
WIBB 130600Z 00000KT 4000 FU SCT016 29/21 Q1009 NOSIG,WIBB,2015-02-13T06:00:00Z,0.47,101.45,29.0,21.0,0,0,,2.49,29.793306,,,,,,TRUE,,,,FU,SCT,1600,,,,,,,IFR,,,,,,,,,,,,METAR,31.0
WALL 130600Z 07007KT 9999 FEW017CB FEW018 29/25 Q1008 RMK CB TO NW AND N,WALL,2015-02-13T06:00:00Z,-1.27,116.9,29.0,25.0,70,7,,6.21,29.763779,,,,,,,,,,,FEW,1700,FEW,1800,,,,,VFR,,,,,,,,,,,,METAR,3.0
WAOO 130600Z 06003KT 9000 SCT016 25/24 Q1009 RERA,WAOO,2015-02-13T06:00:00Z,-3.45,114.77,25.0,24.0,60,3,,5.59,29.793306,,,,,,,,,,,SCT,1600,,,,,,,VFR,,,,,,,,,,,,METAR,20.0
WIPP 130600Z 35006KT 9999 BKN013 29/23 Q1010 NOSIG,WIPP,2015-02-13T06:00:00Z,-2.88,104.7,29.0,23.0,350,6,,6.21,29.822834,,,,,,TRUE,,,,,BKN,1300,,,,,,,MVFR,,,,,,,,,,,,METAR,10.0
TGPY 130600Z 11013KT 9999 FEW018 26/25 Q1013,TGPY,2015-02-13T06:00:00Z,12.0,-61.78,26.0,25.0,110,13,,6.21,29.911417,,,,,,,,,,,FEW,1800,,,,,,,VFR,,,,,,,,,,,,METAR,7.0
DXSK 130600Z 00000KT CAVOK 23/20 Q////,DXSK,2015-02-13T06:00:00Z,9.0,1.15,23.0,20.0,0,0,,6.21,,,,,,,,,,,,CAVOK,,,,,,,,VFR,,,,,,,,,,,,METAR,387.0
OERF 130600Z 12008KT 6000 SKC 08/01 Q1019,OERF,2015-02-13T06:00:00Z,29.62,43.47,8.0,1.0,120,8,,3.73,30.088583,,,,,,,,,,,SKC,,,,,,,,MVFR,,,,,,,,,,,,METAR,447.0
FTTC 130600Z 04010KT CAVOK 20/M08 Q1015,FTTC,2015-02-13T06:00:00Z,13.83,20.85,20.0,-8.0,40,10,,6.21,29.970472,,,,,,,,,,,CAVOK,,,,,,,,VFR,,,,,,,,,,,,METAR,549.0
VTUD 130600Z 13005KT 080V170 8000 FEW050 BKN150 27/17 Q1012 A2991 INFO I RWY30,VTUD,2015-02-13T06:00:00Z,17.37,102.78,27.0,17.0,130,5,,4.97,29.88189,,,,,,,,,,,FEW,5000,BKN,15000,,,,,MVFR,,,,,,,,,,,,METAR,182.0
CXTH 130600Z AUTO 20004KT 00/M02 RMK AO1 T00001019,CXTH,2015-02-13T06:00:00Z,53.63,-111.68,0.0,-1.9,200,4,,,,,,TRUE,TRUE,,,,,,,,,,,,,,,,,,,,,,,,,,,METAR,678.0
CXDB 130600Z AUTO 23016KT 05/01 RMK AO1 PK WND 24024/0530 T00490005,CXDB,2015-02-13T06:00:00Z,49.05,-112.82,4.9,0.5,230,16,,,,,,TRUE,TRUE,,,,,,,,,,,,,,,,,,,,,,,,,,,METAR,1310.0
CXAK 130600Z AUTO 26006KT 02/M02 RMK AO1 T00151018,CXAK,2015-02-13T06:00:00Z,52.35,-112.6,1.5,-1.8,260,6,,,,,,TRUE,TRUE,,,,,,,,,,,,,,,,,,,,,,,,,,,METAR,795.0
CPRO 130600Z AUTO 29004KT M04/M05 RMK AO1 T10421049,CPRO,2015-02-13T06:00:00Z,50.83,-112.05,-4.2,-4.9,290,4,,,,,,TRUE,TRUE,,,,,,,,,,,,,,,,,,,,,,,,,,,METAR,714.0
CPFI 130600Z AUTO 25011KT 07/02 RMK AO1 T00730016,CPFI,2015-02-13T06:00:00Z,49.8,-112.03,7.3,1.6,250,11,,,,,,TRUE,TRUE,,,,,,,,,,,,,,,,,,,,,,,,,,,METAR,833.0
CXWM 130600Z AUTO 27014KT 06/01 RMK AO1 PK WND 25019/0500 T00600013,CXWM,2015-02-13T06:00:00Z,49.5,-112.12,6.0,1.3,270,14,,,,,,TRUE,TRUE,,,,,,,,,,,,,,,,,,,,,,,,,,,METAR,944.0
NVVA 130600Z 13008KT 9999 BKN018 FEW025CB OVC110 28/25 Q1007 RMK RESH,NVVA,2015-02-13T06:00:00Z,-20.25,169.77,28.0,25.0,130,8,,6.21,29.734253,,,,,,,,,,,BKN,1800,FEW,2500,OVC,11000,,,MVFR,,,,,,,,,,,,METAR,3.0
NVVW 130600Z 11006KT 9999 FEW0118 BKN020 30/25 Q1005 RMK NIL,NVVW,2015-02-13T06:00:00Z,-19.45,169.22,30.0,25.0,110,6,,6.21,29.675198,,,,,,,,,,,BKN,2000,,,,,,,MVFR,,,,,,,,,,,,METAR,6.0
NVVV 130600Z 08009KT 9999 SCT020 BKN300 30/25 Q1005 RMK NIL,NVVV,2015-02-13T06:00:00Z,-17.68,168.3,30.0,25.0,80,9,,6.21,29.675198,,,,,,,,,,,SCT,2000,BKN,30000,,,,,VFR,,,,,,,,,,,,METAR,21.0
NVSL 130600Z 14005KT 9999 SCT025 FEW028CB 30/26 Q1004 RMK NIL,NVSL,2015-02-13T06:00:00Z,-16.45,167.83,30.0,26.0,140,5,,6.21,29.64567,,,,,,,,,,,SCT,2500,FEW,2800,,,,,VFR,,,,,,,,,,,,METAR,26.0
NVSS 130600Z 09003KT 9999 FEW025 30/26 Q1003 RMK NIL,NVSS,2015-02-13T06:00:00Z,-15.52,167.22,30.0,26.0,90,3,,6.21,29.616142,,,,,,,,,,,FEW,2500,,,,,,,VFR,,,,,,,,,,,,METAR,44.0
NVSC 130600Z 00000KT 9999 BKN018 FEW025CB 29/27 Q1006 RMK NIL,NVSC,2015-02-13T06:00:00Z,-13.83,167.55,29.0,27.0,0,0,,6.21,29.704725,,,,,,,,,,,BKN,1800,FEW,2500,,,,,MVFR,,,,,,,,,,,,METAR,18.0
GOGK 130600Z VRB02KT 8000 NSC 25/14 Q1014,GOGK,2015-02-13T06:00:00Z,12.9,-14.97,25.0,14.0,0,2,,4.97,29.940945,,,,,,,,,,,,,,,,,,,,,,,,,,,,,,,METAR,10.0
GOOD 130600Z 36006KT 8000 NSC 20/14 Q1015,GOOD,2015-02-13T06:00:00Z,14.65,-16.22,20.0,14.0,360,6,,4.97,29.970472,,,,,,,,,,,,,,,,,,,,,,,,,,,,,,,METAR,9.0
GOSM 130600Z 36004KT CAVOK 25/05 Q1013,GOSM,2015-02-13T06:00:00Z,15.6,-13.33,25.0,5.0,360,4,,6.21,29.911417,,,,,,,,,,,CAVOK,,,,,,,,VFR,,,,,,,,,,,,METAR,17.0
GOOG 130600Z 36007KT 8000 NSC 22/10 Q////,GOOG,2015-02-13T06:00:00Z,15.4,-15.08,22.0,10.0,360,7,,4.97,,,,,,,,,,,,,,,,,,,,,,,,,,,,,,,,METAR,21.0
GOSP 130600Z 32010KT CAVOK 21/11 Q1015,GOSP,2015-02-13T06:00:00Z,16.68,-14.97,21.0,11.0,320,10,,6.21,29.970472,,,,,,,,,,,CAVOK,,,,,,,,VFR,,,,,,,,,,,,METAR,7.0
GAMB 130600Z 34002KT CAVOK 24/09 Q1012,GAMB,2015-02-13T06:00:00Z,14.52,-4.08,24.0,9.0,340,2,,6.21,29.88189,,,,,,,,,,,CAVOK,,,,,,,,VFR,,,,,,,,,,,,METAR,272.0
GANR 130600Z 06002KT CAVOK 22/06 Q////,GANR,2015-02-13T06:00:00Z,15.23,-9.58,22.0,6.0,60,2,,6.21,,,,,,,,,,,,CAVOK,,,,,,,,VFR,,,,,,,,,,,,METAR,237.0
GOOK 130600Z 04006KT 8000 NSC 22/15 Q1015,GOOK,2015-02-13T06:00:00Z,14.15,-16.07,22.0,15.0,40,6,,4.97,29.970472,,,,,,,,,,,,,,,,,,,,,,,,,,,,,,,METAR,7.0
HUMI 130600Z 07002KT 9999 SCT018 FEW022CB BKN110 23/18,HUMI,2015-02-13T06:00:00Z,1.67,31.72,23.0,18.0,70,2,,6.21,,,,,,,,,,,,SCT,1800,FEW,2200,BKN,11000,,,VFR,,,,,,,,,,,,SPECI,1147.0
HUSO 130600Z 26004KT 9000 HZ SCT300 24/19 Q1017,HUSO,2015-02-13T06:00:00Z,1.72,33.62,24.0,19.0,260,4,,5.59,30.029528,,,,,,,,,,HZ,SCT,30000,,,,,,,VFR,,,,,,,,,,,,SPECI,1123.0
CXTV 130600Z AUTO 14009KT M30/M34 RMK AO1 SLP245 T13021336 58013,CXTV,2015-02-13T06:00:00Z,68.75,-133.5,-30.2,-33.6,140,9,,,,1024.5,,TRUE,TRUE,,,,,,,,,,,,,,,,-1.3,,,,,,,,,,,METAR,85.0
CWZV 130600Z AUTO 16027KT 10/10 RMK AO1 PK WND 17032/0551 SLP110 T01000096 55001,CWZV,2015-02-13T06:00:00Z,51.93,-131.02,10.0,9.6,160,27,,,,1011.0,,TRUE,TRUE,,,,,,,,,,,,,,,,-0.1,,,,,,,,,,,METAR,92.0
CWZL 130600Z AUTO 16025KT 11/09 RMK AO1 PK WND 16030/0549 SLP092 T01070088 50003,CWZL,2015-02-13T06:00:00Z,53.03,-131.6,10.7,8.8,160,25,,,,1009.2,,TRUE,TRUE,,,,,,,,,,,,,,,,0.3,,,,,,,,,,,METAR,17.0
CWJU 130600Z AUTO 11008KT 09/08 RMK AO1 SLP073 T00910081 50007,CWJU,2015-02-13T06:00:00Z,54.25,-133.07,9.1,8.1,110,8,,,,1007.3,,TRUE,TRUE,,,,,,,,,,,,,,,,0.7,,,,,,,,,,,METAR,41.0
CWND 130600Z AUTO 12020KT M29/M32 RMK AO1 PK WND 12026/0514 SLP201 T12881321 56006,CWND,2015-02-13T06:00:00Z,69.63,-135.43,-28.8,-32.1,120,20,,,,1020.1,,TRUE,TRUE,,,,,,,,,,,,,,,,-0.6,,,,,,,,,,,METAR,12.0
CWHP 130600Z AUTO 05019KT M11/M12 RMK AO1 PK WND 04025/0519 SLP030 T11061116 58021,CWHP,2015-02-13T06:00:00Z,49.07,-61.7,-10.6,-11.6,50,19,,,,1003.0,,TRUE,TRUE,,,,,,,,,,,,,,,,-2.1,,,,,,,,,,,METAR,4.0
CWWX 130600Z AUTO 04012KT M20/M24 RMK AO1 PK WND 05017/0535 SLP272 T11971236 53002,CWWX,2015-02-13T06:00:00Z,45.32,-81.73,-19.7,-23.6,40,12,,,,1027.2,,TRUE,TRUE,,,,,,,,,,,,,,,,0.2,,,,,,,,,,,METAR,181.0
CXPA 130600Z AUTO 10004KT M04/M04 RMK AO1 T10361041,CXPA,2015-02-13T06:00:00Z,55.62,-118.3,-3.6,-4.1,100,4,,,,,,TRUE,TRUE,,,,,,,,,,,,,,,,,,,,,,,,,,,METAR,621.0
CXOY 130600Z AUTO 25012KT M01/M04 RMK AO1 T10071039,CXOY,2015-02-13T06:00:00Z,51.38,-110.35,-0.7,-3.9,250,12,,,,,,TRUE,TRUE,,,,,,,,,,,,,,,,,,,,,,,,,,,METAR,767.0
CXKM 130600Z AUTO 25005KT M02/M04 RMK AO1 T10161038,CXKM,2015-02-13T06:00:00Z,52.82,-111.85,-1.6,-3.8,250,5,,,,,,TRUE,TRUE,,,,,,,,,,,,,,,,,,,,,,,,,,,METAR,675.0
CXHR 130600Z AUTO 29005KT 04/M01 RMK AO1 T00411007,CXHR,2015-02-13T06:00:00Z,51.18,-112.5,4.1,-0.7,290,5,,,,,,TRUE,TRUE,,,,,,,,,,,,,,,,,,,,,,,,,,,METAR,971.0
CXDP 130600Z AUTO 21003KT M08/M09 RMK AO1 T10811090,CXDP,2015-02-13T06:00:00Z,54.32,-113.95,-8.1,-9.0,210,3,,,,,,TRUE,TRUE,,,,,,,,,,,,,,,,,,,,,,,,,,,METAR,614.0
CXBR 130600Z AUTO 26024KT 08/01 RMK AO1 PK WND 26031/0546 T00800007,CXBR,2015-02-13T06:00:00Z,49.62,-113.82,8.0,0.7,260,24,,,,,,TRUE,TRUE,,,,,,,,,,,,,,,,,,,,,,,,,,,METAR,1073.0
CXAF 130600Z AUTO 02002KT M07/M08 RMK AO1 T10681079,CXAF,2015-02-13T06:00:00Z,54.28,-112.97,-6.8,-7.9,20,2,,,,,,TRUE,TRUE,,,,,,,,,,,,,,,,,,,,,,,,,,,METAR,664.0
CWRU 130600Z AUTO 12043G48KT 10/09 RMK AO1 2PAST HR 0000 PK WND 13050/0524 SLP157 P0001 T00970094 50002,CWRU,2015-02-13T06:00:00Z,50.12,-127.93,9.7,9.4,120,43,48,,,1015.7,,TRUE,TRUE,,,,,,,,,,,,,,,,0.2,,,,,0.01,,,,,,METAR,98.0
CWQS 130600Z AUTO 18027G34KT 11/10 RMK AO1 PK WND 17042/0508 SLP067 T01080095 58004,CWQS,2015-02-13T06:00:00Z,53.32,-132.77,10.8,9.5,180,27,34,,,1006.7,,TRUE,TRUE,,,,,,,,,,,,,,,,-0.4,,,,,,,,,,,METAR,14.0
CWME 130600Z AUTO 07010KT 09/08 RMK AO1 4PAST HR 1012 SLP177 P0005 T00900078 50028,CWME,2015-02-13T06:00:00Z,52.18,-127.47,9.0,7.8,70,10,,,,1017.7,,TRUE,TRUE,,,,,,,,,,,,,,,,2.8,,,,,0.05,,,,,,METAR,32.0
CWZG 130600Z AUTO 24005KT 04/M00 RMK AO1 SOG 01 3011 SLP240 T00381003,CWZG,2015-02-13T06:00:00Z,51.2,-115.53,3.8,-0.3,240,5,,,,1024.0,,TRUE,TRUE,,,,,,,,,,,,,,,,,,,,,,,,,,,METAR,1397.0
CWWL 130600Z AUTO 15021G30KT 10/09 RMK AO1 1011 PK WND 15034/0503 SLP116 T00950088 50002,CWWL,2015-02-13T06:00:00Z,53.5,-130.63,9.5,8.8,150,21,30,,,1011.6,,TRUE,TRUE,,,,,,,,,,,,,,,,0.2,,,,,,,,,,,METAR,17.0
CXSC 130600Z AUTO 25013KT 03/M00 RMK AO1 PK WND 24017/0536 T00251003,CXSC,2015-02-13T06:00:00Z,50.3,-110.08,2.5,-0.3,250,13,,,,,,TRUE,TRUE,,,,,,,,,,,,,,,,,,,,,,,,,,,METAR,800.0
HKNW 130600Z 06010KT 9999 FEW022 21/14 Q1021,HKNW,2015-02-13T06:00:00Z,-1.32,36.82,21.0,14.0,60,10,,6.21,30.147638,,,,,,,,,,,FEW,2200,,,,,,,VFR,,,,,,,,,,,,METAR,1679.0
HKNC 130600Z 06005KT 9999 SCT018 20/14 Q1023,HKNC,2015-02-13T06:00:00Z,-1.3,36.75,20.0,14.0,60,5,,6.21,30.206694,,,,,,,,,,,SCT,1800,,,,,,,VFR,,,,,,,,,,,,METAR,1798.0
FTTY 130600Z 04010KT CAVOK 17/M08 Q1009,FTTY,2015-02-13T06:00:00Z,18.0,19.17,17.0,-8.0,40,10,,6.21,29.793306,,,,,,,,,,,CAVOK,,,,,,,,VFR,,,,,,,,,,,,METAR,234.0
DAUE 130600Z 33004KT CAVOK 03/M02 Q1021,DAUE,2015-02-13T06:00:00Z,30.57,2.87,3.0,-2.0,330,4,,6.21,30.147638,,,,,,,,,,,CAVOK,,,,,,,,VFR,,,,,,,,,,,,METAR,397.0
GOTK 130600Z 00000KT CAVOK 27/10 Q1009,GOTK,2015-02-13T06:00:00Z,12.57,-12.22,27.0,10.0,0,0,,6.21,29.793306,,,,,,,,,,,CAVOK,,,,,,,,VFR,,,,,,,,,,,,METAR,167.0
GOTT 130600Z 32004KT CAVOK 25/10 Q1013,GOTT,2015-02-13T06:00:00Z,13.73,-13.65,25.0,10.0,320,4,,6.21,29.911417,,,,,,,,,,,CAVOK,,,,,,,,VFR,,,,,,,,,,,,METAR,50.0
FPST 130600Z 29004KT 9999 TS FEW017CB SCT030 OVC100 22/22 Q1013 NOSIG,FPST,2015-02-13T06:00:00Z,0.37,6.72,22.0,22.0,290,4,,6.21,29.911417,,,,,,TRUE,,,,TS,FEW,1700,SCT,3000,OVC,10000,,,VFR,,,,,,,,,,,,METAR,13.0
FOOG 130600Z /////KT 9000 SCT010 24/23 Q1013,FOOG,2015-02-13T06:00:00Z,-0.7,8.75,24.0,23.0,,,,5.59,29.911417,,,,,,,,,,,SCT,1000,,,,,,,VFR,,,,,,,,,,,,SPECI,4.0
FTTA 130600Z 12006KT CAVOK 26/02 Q1014,FTTA,2015-02-13T06:00:00Z,9.15,18.37,26.0,2.0,120,6,,6.21,29.940945,,,,,,,,,,,CAVOK,,,,,,,,VFR,,,,,,,,,,,,METAR,365.0
VTPH 130600Z 14015KT 8000 FEW030 30/23 Q1011 NOSIG,VTPH,2015-02-13T06:00:00Z,12.63,99.95,30.0,23.0,140,15,,4.97,29.852362,,,,,,TRUE,,,,,FEW,3000,,,,,,,MVFR,,,,,,,,,,,,METAR,6.0
VTST 130600Z 05012KT 8000 FEW020 32/21 Q1009 RWY08 INFO G,VTST,2015-02-13T06:00:00Z,7.52,99.62,32.0,21.0,50,12,,4.97,29.793306,,,,,,,,,,,FEW,2000,,,,,,,MVFR,,,,,,,,,,,,METAR,16.0
HKNY 130600Z 00000KT SKC 18/12 Q1024,HKNY,2015-02-13T06:00:00Z,-0.07,37.02,18.0,12.0,0,0,,,30.236221,,,,,,,,,,,SKC,,,,,,,,,,,,,,,,,,,,METAR,1905.0
HKML 130600Z 00000KT 9999 BKN022TCU 28/22 Q1012,HKML,2015-02-13T06:00:00Z,-3.22,40.1,28.0,22.0,0,0,,6.21,29.88189,,,,,,,,,,,BKN,2200,,,,,,,MVFR,,,,,,,,,,,,METAR,23.0
HKKI 130600Z 09010KT 9999 FEW023 BKN250 26/09 Q1018,HKKI,2015-02-13T06:00:00Z,-0.1,34.75,26.0,9.0,90,10,,6.21,30.059055,,,,,,,,,,,FEW,2300,BKN,25000,,,,,VFR,,,,,,,,,,,,METAR,1146.0
AYVN 130600Z 29012KT 9999 FEW020 SCT140 BKN300 28/25 Q1006,AYVN,2015-02-13T06:00:00Z,-2.7,141.3,28.0,25.0,290,12,,6.21,29.704725,,,,,,,,,,,FEW,2000,SCT,14000,BKN,30000,,,VFR,,,,,,,,,,,,METAR,4.0
FTTD 130600Z 00000KT CAVOK 20/05 Q1014,FTTD,2015-02-13T06:00:00Z,8.62,16.07,20.0,5.0,0,0,,6.21,29.940945,,,,,,,,,,,CAVOK,,,,,,,,VFR,,,,,,,,,,,,SPECI,422.0
FOON 130600Z /////KT 9999 TS BKN011 FEW020CB 21/20 Q1014,FOON,2015-02-13T06:00:00Z,-1.63,13.42,21.0,20.0,,,,6.21,29.940945,,,,,,,,,,TS,BKN,1100,FEW,2000,,,,,MVFR,,,,,,,,,,,,METAR,441.0
VTCP 130600Z 24010KT 4000 HZ SCT025 BKN300 30/19 Q1010 A2983 INFO F RWY19,VTCP,2015-02-13T06:00:00Z,18.13,100.17,30.0,19.0,240,10,,2.49,29.822834,,,,,,,,,,HZ,SCT,2500,BKN,30000,,,,,IFR,,,,,,,,,,,,METAR,162.0
LEGA 130600Z 00000KT 0200 FG VV003 02/02 Q1023,LEGA,2015-02-13T06:00:00Z,37.12,-3.62,2.0,2.0,0,0,,0.12,30.206694,,,,,,,,,,FG,OVX,0,,,,,,,LIFR,,,,,,,,,,,300,METAR,686.0
RJAW 130600Z RTD 30014KT 9999 FEW030 19/10 Q1012 RMK 1CU030 A2991,RJAW,2015-02-13T06:00:00Z,24.77,141.32,19.0,10.0,300,14,,6.21,29.88189,,,,,,,,,,,FEW,3000,,,,,,,VFR,,,,,,,,,,,,METAR,116.0
SBPK 130600Z 36003KT 8000 NSC 22/22 Q1013,SBPK,2015-02-13T06:00:00Z,-31.72,-52.33,22.0,22.0,360,3,,4.97,29.911417,,,,,,,,,,,,,,,,,,,,,,,,,,,,,,,METAR,13.0
OYMB 130600Z 30004KT CAVOK 23/06 Q1016,OYMB,2015-02-13T06:00:00Z,15.47,45.32,23.0,6.0,300,4,,6.21,30.0,,,,,,,,,,,CAVOK,,,,,,,,VFR,,,,,,,,,,,,METAR,1000.0
OYRN 130600Z 34004KT 290V020 9999 FEW018 26/18 Q1018,OYRN,2015-02-13T06:00:00Z,14.67,49.38,26.0,18.0,340,4,,6.21,30.059055,,,,,,,,,,,FEW,1800,,,,,,,VFR,,,,,,,,,,,,METAR,17.0
SPIM 130600Z 15011KT 9999 SCT014 BKN100 24/21 Q1011 NOSIG RMK PP000,SPIM,2015-02-13T06:00:00Z,-12.02,-77.12,24.0,21.0,150,11,,6.21,29.852362,,,,,,TRUE,,,,,SCT,1400,BKN,10000,,,,,VFR,,,,,,,,,,,,METAR,13.0
SBCY 130600Z 00000KT 9999 FEW020 BKN100 25/24 Q1014,SBCY,2015-02-13T06:00:00Z,-15.65,-56.12,25.0,24.0,0,0,,6.21,29.940945,,,,,,,,,,,FEW,2000,BKN,10000,,,,,VFR,,,,,,,,,,,,METAR,182.0
SBCB 130600Z 07015KT CAVOK 25/24 Q1014,SBCB,2015-02-13T06:00:00Z,-22.92,-42.08,25.0,24.0,70,15,,6.21,29.940945,,,,,,,,,,,CAVOK,,,,,,,,VFR,,,,,,,,,,,,METAR,4.0
SBFL 130600Z 30003KT 9999 -RA BKN013 BKN025 26/24 Q1012,SBFL,2015-02-13T06:00:00Z,-27.67,-48.53,26.0,24.0,300,3,,6.21,29.88189,,,,,,,,,,-RA,BKN,1300,BKN,2500,,,,,MVFR,,,,,,,,,,,,METAR,5.0
UBBY 130600Z 14005KT 9999 OVC020 03/01 Q1022 R33/////// NOSIG RMK MT OBSC,UBBY,2015-02-13T06:00:00Z,41.57,46.67,3.0,1.0,140,5,,6.21,30.177166,,,,,,TRUE,,,,,OVC,2000,,,,,,,MVFR,,,,,,,,,,,,METAR,390.0
TNCM 130600Z 08008KT 9999 FEW019 26/22 Q1015 A2999,TNCM,2015-02-13T06:00:00Z,18.05,-63.12,26.0,22.0,80,8,,6.21,29.970472,,,,,,,,,,,FEW,1900,,,,,,,VFR,,,,,,,,,,,,METAR,4.0
RJDT 130600Z 31009KT 200V010 9999 FEW040 05/M07 Q1016,RJDT,2015-02-13T06:00:00Z,34.27,129.32,5.0,-7.0,310,9,,6.21,30.0,,,,,,,,,,,FEW,4000,,,,,,,VFR,,,,,,,,,,,,METAR,66.0
RJEB 130600Z 04005KT 020V080 3000 -SHSN SCT004 BKN006 M04/M05 Q0997,RJEB,2015-02-13T06:00:00Z,44.3,143.4,-4.0,-5.0,40,5,,1.86,29.438976,,,,,,,,,,-SHSN,SCT,400,BKN,600,,,,,IFR,,,,,,,,,,,,METAR,25.0
RJFS 130600Z 30014KT 9999 FEW040 08/M08 Q1016,RJFS,2015-02-13T06:00:00Z,33.15,130.3,8.0,-8.0,300,14,,6.21,30.0,,,,,,,,,,,FEW,4000,,,,,,,VFR,,,,,,,,,,,,METAR,5.0
RJFG 130600Z 30023G33KT 9999 FEW040 09/M02 Q1015,RJFG,2015-02-13T06:00:00Z,30.62,130.98,9.0,-2.0,300,23,33,6.21,29.970472,,,,,,,,,,,FEW,4000,,,,,,,VFR,,,,,,,,,,,,METAR,95.0
RJOW 130600Z 28014KT 9999 FEW035 BKN045 03/M08 Q1016,RJOW,2015-02-13T06:00:00Z,34.67,131.8,3.0,-8.0,280,14,,6.21,30.0,,,,,,,,,,,FEW,3500,BKN,4500,,,,,VFR,,,,,,,,,,,,METAR,54.0
RJOY 130600Z 25017G27KT 9999 -SHSN FEW020 SCT030 06/M05 Q1010,RJOY,2015-02-13T06:00:00Z,34.6,135.58,6.0,-5.0,250,17,27,6.21,29.822834,,,,,,,,,,-SHSN,FEW,2000,SCT,3000,,,,,VFR,,,,,,,,,,,,METAR,13.0
RJSC 130600Z 24009KT 8000 -SHSN FEW008 SCT020 BKN030 M01/M05 Q1002,RJSC,2015-02-13T06:00:00Z,38.42,140.37,-1.0,-5.0,240,9,,4.97,29.586615,,,,,,,,,,-SHSN,FEW,800,SCT,2000,BKN,3000,,,MVFR,,,,,,,,,,,,METAR,108.0
RJSI 130600Z VRB05KT 9999 -SHSN FEW008 SCT020 BKN040 01/M09 Q0997,RJSI,2015-02-13T06:00:00Z,39.42,141.12,1.0,-9.0,0,5,,6.21,29.438976,,,,,,,,,,-SHSN,FEW,800,SCT,2000,BKN,4000,,,VFR,,,,,,,,,,,,METAR,93.0
RJSK 130600Z 29019G30KT 9999 FEW010 SCT020 BKN035 M00/M07 Q0999,RJSK,2015-02-13T06:00:00Z,39.62,140.22,0.0,-7.0,290,19,30,6.21,29.498032,,,,,,,,,,,FEW,1000,SCT,2000,BKN,3500,,,VFR,,,,,,,,,,,,METAR,96.0
RJTF 130600Z 02016KT 9999 FEW030 BKN080 07/M14 Q1001,RJTF,2015-02-13T06:00:00Z,35.67,139.52,7.0,-14.0,20,16,,6.21,29.557087,,,,,,,,,,,FEW,3000,BKN,8000,,,,,VFR,,,,,,,,,,,,METAR,44.0
RJTI 130600Z VRB13KT 9999 VCSH FEW020 SCT030 BKN050 07/M14 Q1001,RJTI,2015-02-13T06:00:00Z,35.63,139.83,7.0,-14.0,0,13,,6.21,29.557087,,,,,,,,,,VCSH,FEW,2000,SCT,3000,BKN,5000,,,VFR,,,,,,,,,,,,METAR,8.0
RJTO 130600Z 25018G29KT 210V280 9999 FEW025 08/M04 Q1001,RJTO,2015-02-13T06:00:00Z,34.77,139.37,8.0,-4.0,250,18,29,6.21,29.557087,,,,,,,,,,,FEW,2500,,,,,,,VFR,,,,,,,,,,,,METAR,41.0
ROMY 130600Z 07011KT 030V110 9999 FEW045 19/05 Q1018,ROMY,2015-02-13T06:00:00Z,24.77,125.27,19.0,5.0,70,11,,6.21,30.059055,,,,,,,,,,,FEW,4500,,,,,,,VFR,,,,,,,,,,,,METAR,41.0
ROIG 130600Z 07010KT 9999 FEW037 20/06 Q1018,ROIG,2015-02-13T06:00:00Z,24.32,124.17,20.0,6.0,70,10,,6.21,30.059055,,,,,,,,,,,FEW,3700,,,,,,,VFR,,,,,,,,,,,,METAR,7.0
RORS 130600Z 05011KT 020V090 CAVOK 19/05 Q1018,RORS,2015-02-13T06:00:00Z,24.82,125.15,19.0,5.0,50,11,,6.21,30.059055,,,,,,,,,,,CAVOK,,,,,,,,VFR,,,,,,,,,,,,METAR,16.0
RJAH 130600Z 34014KT 9999 FEW030 BKN100 08/M15 Q1000,RJAH,2015-02-13T06:00:00Z,36.17,140.42,8.0,-15.0,340,14,,6.21,29.52756,,,,,,,,,,,FEW,3000,BKN,10000,,,,,VFR,,,,,,,,,,,,METAR,35.0
FVHA 130600Z 36005KT 300V060 9999 FEW010 SCT300 22/18 Q1022 NOSIG,FVHA,2015-02-13T06:00:00Z,-17.92,31.12,22.0,18.0,360,5,,6.21,30.177166,,,,,,TRUE,,,,,FEW,1000,SCT,30000,,,,,VFR,,,,,,,,,,,,METAR,1503.0
LKKB 130600Z 15004KT 8000 OVC013 01/M01 Q1022 NOSIG,LKKB,2015-02-13T06:00:00Z,50.12,14.53,1.0,-1.0,150,4,,4.97,30.177166,,,,,,TRUE,,,,,OVC,1300,,,,,,,MVFR,,,,,,,,,,,,METAR,286.0
LKCV 130600Z 17008KT 9999 OVC020 02/M01 Q1023 NOSIG RMK WHT WHT,LKCV,2015-02-13T06:00:00Z,49.93,15.38,2.0,-1.0,170,8,,6.21,30.206694,,,,,,TRUE,,,,,OVC,2000,,,,,,,MVFR,,,,,,,,,,,,METAR,242.0
LKLN 130600Z AUTO 26001KT 9000 OVC007 M01/M02 Q1022,LKLN,2015-02-13T06:00:00Z,49.68,13.27,-1.0,-2.0,260,1,,5.59,30.177166,,,TRUE,,,,,,,,OVC,700,,,,,,,IFR,,,,,,,,,,,,METAR,362.0
LKNA 130600Z 12005KT 090V160 1300 BR BKN002 OVC004 M03/M03 Q1022 NOSIG RMK AMB AMB,LKNA,2015-02-13T06:00:00Z,49.17,16.12,-3.0,-3.0,120,5,,0.81,30.177166,,,,,,TRUE,,,,BR,BKN,200,OVC,400,,,,,LIFR,,,,,,,,,,,,METAR,472.0
LKPD 130600Z 09002KT 9999 FEW014 M03/M04 Q1023 NOSIG RMK BLU BLU,LKPD,2015-02-13T06:00:00Z,50.02,15.73,-3.0,-4.0,90,2,,6.21,30.206694,,,,,,TRUE,,,,,FEW,1400,,,,,,,VFR,,,,,,,,,,,,METAR,226.0
SBSN 130600Z 11003KT 9999 SCT013 SCT017 23/23 Q1012,SBSN,2015-02-13T06:00:00Z,-2.42,-54.78,23.0,23.0,110,3,,6.21,29.88189,,,,,,,,,,,SCT,1300,SCT,1700,,,,,VFR,,,,,,,,,,,,METAR,72.0
MKJS 130600Z 03008KT 9999 FEW022 BKN034 24/19 Q1015,MKJS,2015-02-13T06:00:00Z,18.5,-77.92,24.0,19.0,30,8,,6.21,29.970472,,,,,,,,,,,FEW,2200,BKN,3400,,,,,VFR,,,,,,,,,,,,METAR,1.0
RJFU 130600Z 31015KT 9999 FEW040 08/M04 Q1016,RJFU,2015-02-13T06:00:00Z,32.92,129.92,8.0,-4.0,310,15,,6.21,30.0,,,,,,,,,,,FEW,4000,,,,,,,VFR,,,,,,,,,,,,METAR,5.0
RJFT 130600Z 29010KT 9999 FEW040 08/M15 Q1015,RJFT,2015-02-13T06:00:00Z,32.82,130.83,8.0,-15.0,290,10,,6.21,29.970472,,,,,,,,,,,FEW,4000,,,,,,,VFR,,,,,,,,,,,,METAR,196.0
RJFR 130600Z 30020KT 9999 FEW030 SCT040 06/M06 Q1016,RJFR,2015-02-13T06:00:00Z,33.82,131.03,6.0,-6.0,300,20,,6.21,30.0,,,,,,,,,,,FEW,3000,SCT,4000,,,,,VFR,,,,,,,,,,,,METAR,6.0
RJFM 130600Z 27023KT 9999 FEW030 11/M14 Q1013,RJFM,2015-02-13T06:00:00Z,31.87,131.43,11.0,-14.0,270,23,,6.21,29.911417,,,,,,,,,,,FEW,3000,,,,,,,VFR,,,,,,,,,,,,METAR,9.0
RJFK 130600Z 33015KT 9999 FEW045 08/M10 Q1015 RMK 1CU045 A2997 VOLCANIC ASH CLOUD S,RJFK,2015-02-13T06:00:00Z,31.8,130.72,8.0,-10.0,330,15,,6.21,29.970472,,,,,,,,,,,FEW,4500,,,,,,,VFR,,,,,,,,,,,,METAR,275.0
YMOR 130600Z AUTO 27002KT 9999 // NCD 33/08 Q1016,YMOR,2015-02-13T06:00:00Z,-29.5,149.85,33.0,8.0,270,2,,6.21,30.0,,,TRUE,,,,,,,,,,,,,,,,,,,,,,,,,,,,METAR,214.0
YMER 130600Z AUTO 10005KT //// // NCD 24/18 Q1023,YMER,2015-02-13T06:00:00Z,-36.92,149.9,24.0,18.0,100,5,,,30.206694,,,TRUE,,,,,,,,,,,,,,,,,,,,,,,,,,,,METAR,2.0
YMEN 130600Z AUTO 16013KT 9999 // NCD 27/17 Q1017,YMEN,2015-02-13T06:00:00Z,-37.72,144.9,27.0,17.0,160,13,,6.21,30.029528,,,TRUE,,,,,,,,,,,,,,,,,,,,,,,,,,,,METAR,86.0
YMEK 130600Z AUTO 31009KT 9999 // NCD 41/05 Q1007,YMEK,2015-02-13T06:00:00Z,-26.62,118.55,41.0,5.0,310,9,,6.21,29.734253,,,TRUE,,,,,,,,,,,,,,,,,,,,,,,,,,,,METAR,522.0
YMDG 130600Z AUTO 36005KT 340V090 //// // SCT070 SCT087 OVC110 21/17 Q1022,YMDG,2015-02-13T06:00:00Z,-32.57,149.62,21.0,17.0,360,5,,,30.177166,,,TRUE,,,,,,,,SCT,7000,SCT,8700,OVC,11000,,,,,,,,,,,,,,,METAR,471.0
YMAY 130600Z AUTO 19005KT 9999 // NCD 32/13 Q1018,YMAY,2015-02-13T06:00:00Z,-36.07,146.93,32.0,13.0,190,5,,6.21,30.059055,,,TRUE,,,,,,,,,,,,,,,,,,,,,,,,,,,,METAR,171.0
SBGR 130600Z 10003KT 9999 FEW015 BKN100 24/21 Q1019,SBGR,2015-02-13T06:00:00Z,-23.42,-46.47,24.0,21.0,100,3,,6.21,30.088583,,,,,,,,,,,FEW,1500,BKN,10000,,,,,VFR,,,,,,,,,,,,METAR,750.0
FBSP 130600Z 09009KT CAVOK 25/20 Q1018,FBSP,2015-02-13T06:00:00Z,-22.05,27.82,25.0,20.0,90,9,,6.21,30.059055,,,,,,,,,,,CAVOK,,,,,,,,VFR,,,,,,,,,,,,METAR,892.0
FBMN 130600Z 03003KT CAVOK 24/16 Q1016,FBMN,2015-02-13T06:00:00Z,-19.97,23.42,24.0,16.0,30,3,,6.21,30.0,,,,,,,,,,,CAVOK,,,,,,,,VFR,,,,,,,,,,,,METAR,900.0
FBKE 130600Z 10003KT 040V130 CAVOK 23/18 Q1017,FBKE,2015-02-13T06:00:00Z,-17.82,25.17,23.0,18.0,100,3,,6.21,30.029528,,,,,,,,,,,CAVOK,,,,,,,,VFR,,,,,,,,,,,,METAR,1000.0
FBFT 130600Z 08006KT 060V130 CAVOK 24/17 Q1018,FBFT,2015-02-13T06:00:00Z,-21.17,27.48,24.0,17.0,80,6,,6.21,30.059055,,,,,,,,,,,CAVOK,,,,,,,,VFR,,,,,,,,,,,,METAR,1000.0
FAUP 130600Z 22009KT 9999 FEW050 20/06 Q1015 NOSIG,FAUP,2015-02-13T06:00:00Z,-28.38,21.27,20.0,6.0,220,9,,6.21,29.970472,,,,,,TRUE,,,,,FEW,5000,,,,,,,VFR,,,,,,,,,,,,METAR,836.0
FAPP 130600Z 06006KT 9999 SCT015 19/16 Q1020 NOSIG,FAPP,2015-02-13T06:00:00Z,-23.83,29.45,19.0,16.0,60,6,,6.21,30.11811,,,,,,TRUE,,,,,SCT,1500,,,,,,,VFR,,,,,,,,,,,,METAR,1242.0
GMAG 130600Z ///08KT 9999 BKN016 12/08 Q1021 NOSIG,GMAG,2015-02-13T06:00:00Z,29.03,-10.05,12.0,8.0,,,,6.21,30.147638,,,,,,TRUE,,,,,BKN,1600,,,,,,,MVFR,,,,,,,,,,,,METAR,333.0
GMAT 130600Z 02008KT 8000 FEW016 10/09 Q1020 NOSIG,GMAT,2015-02-13T06:00:00Z,28.43,-11.15,10.0,9.0,20,8,,4.97,30.11811,,,,,,TRUE,,,,,FEW,1600,,,,,,,MVFR,,,,,,,,,,,,METAR,200.0
GMFK 130600Z 09003KT 9999 BKN026 10/05 Q1022 NOSIG,GMFK,2015-02-13T06:00:00Z,31.95,-4.4,10.0,5.0,90,3,,6.21,30.177166,,,,,,TRUE,,,,,BKN,2600,,,,,,,MVFR,,,,,,,,,,,,METAR,1045.0
GMFM 130600Z 30004KT 0100 FG BKN010 07/07 Q1022 NOSIG,GMFM,2015-02-13T06:00:00Z,33.87,-5.52,7.0,7.0,300,4,,0.06,30.177166,,,,,,TRUE,,,,FG,BKN,1000,,,,,,,LIFR,,,,,,,,,,,,METAR,549.0
GMFO 130600Z 24003KT 9999 FEW020 05/04 Q1022 NOSIG,GMFO,2015-02-13T06:00:00Z,34.77,-1.92,5.0,4.0,240,3,,6.21,30.177166,,,,,,TRUE,,,,,FEW,2000,,,,,,,VFR,,,,,,,,,,,,METAR,470.0
GMMB 130600Z AUTO 08003KT //// NCD 07/07 Q1024,GMMB,2015-02-13T06:00:00Z,33.65,-7.63,7.0,7.0,80,3,,,30.236221,,,TRUE,,,,,,,,,,,,,,,,,,,,,,,,,,,,METAR,191.0
GMMC 130600Z /////KT 8000 FEW016 09/08 Q1022,GMMC,2015-02-13T06:00:00Z,33.57,-7.67,9.0,8.0,,,,4.97,30.177166,,,,,,,,,,,FEW,1600,,,,,,,MVFR,,,,,,,,,,,,METAR,62.0
GMMH 130600Z 02016KT CAVOK 16/13 Q1022 NOSIG,GMMH,2015-02-13T06:00:00Z,23.72,-15.93,16.0,13.0,20,16,,6.21,30.177166,,,,,,TRUE,,,,,CAVOK,,,,,,,,VFR,,,,,,,,,,,,METAR,11.0
GMMI 130600Z AUTO 06006KT 9999NDV NCD 08/07 Q1022 NOSIG,GMMI,2015-02-13T06:00:00Z,31.4,-9.68,8.0,7.0,60,6,,,30.177166,,,TRUE,,,TRUE,,,,,,,,,,,,,,,,,,,,,,,,,METAR,8.0
GMML 130600Z 03005KT CAVOK 12/10 Q1023,GMML,2015-02-13T06:00:00Z,27.13,-13.23,12.0,10.0,30,5,,6.21,30.206694,,,,,,,,,,,CAVOK,,,,,,,,VFR,,,,,,,,,,,,METAR,6.0
GMMW 130600Z 28005KT 9999 SCT030 05/05 Q1022 NOSIG,GMMW,2015-02-13T06:00:00Z,34.98,-3.02,5.0,5.0,280,5,,6.21,30.177166,,,,,,TRUE,,,,,SCT,3000,,,,,,,VFR,,,,,,,,,,,,METAR,175.0
GMMZ 130600Z /////KT 9999 FEW040 08/M02 Q1020 NOSIG,GMMZ,2015-02-13T06:00:00Z,30.92,-6.9,8.0,-2.0,,,,6.21,30.11811,,,,,,TRUE,,,,,FEW,4000,,,,,,,VFR,,,,,,,,,,,,METAR,1140.0
GMTA 130600Z 18004KT 8000 FEW020 SCT100 09/08 Q1023 NOSIG,GMTA,2015-02-13T06:00:00Z,35.17,-3.85,9.0,8.0,180,4,,4.97,30.206694,,,,,,TRUE,,,,,FEW,2000,SCT,10000,,,,,MVFR,,,,,,,,,,,,METAR,14.0
GMTN 130600Z AUTO 20006KT R24///// /// 09/07 Q1023,GMTN,2015-02-13T06:00:00Z,35.57,-5.32,9.0,7.0,200,6,,,30.206694,,,TRUE,,,,,,,,,,,,,,,,,,,,,,,,,,,,METAR,10.0
KFST 130600Z AUTO 22007KT 10SM SCT028 OVC033 04/01 A3035 RMK AO2 T00440006,KFST,2015-02-13T06:00:00Z,30.92,-102.92,4.4,0.6,220,7,,10.0,30.351377,,,TRUE,TRUE,,,,,,,SCT,2800,OVC,3300,,,,,VFR,,,,,,,,,,,,METAR,918.0
OYHD 130600Z 19006KT 160V230 6000 FEW030 26/22 Q1016,OYHD,2015-02-13T06:00:00Z,14.75,42.97,26.0,22.0,190,6,,3.73,30.0,,,,,,,,,,,FEW,3000,,,,,,,MVFR,,,,,,,,,,,,METAR,115.0
SCQP 130600Z 00000KT CAVOK 08/05 Q1017,SCQP,2015-02-13T06:00:00Z,-38.92,-72.65,8.0,5.0,0,0,,6.21,30.029528,,,,,,,,,,,CAVOK,,,,,,,,VFR,,,,,,,,,,,,METAR,97.0
YTEF 130600Z AUTO 02008KT //// // ////// 43/10 Q1005,YTEF,2015-02-13T06:00:00Z,-21.72,122.23,43.0,10.0,20,8,,,29.675198,,,TRUE,,,,,,,,,,,,,,,,,,,,,,,,,,,,METAR,296.0
YTNK 130600Z AUTO 09014G26KT 9999 // SCT105 37/06 Q1009,YTNK,2015-02-13T06:00:00Z,-19.63,134.18,37.0,6.0,90,14,26,6.21,29.793306,,,TRUE,,,,,,,,SCT,10500,,,,,,,VFR,,,,,,,,,,,,METAR,377.0
YTRE 130600Z AUTO 07011KT //// // NCD 26/17 Q1021,YTRE,2015-02-13T06:00:00Z,-31.88,152.52,26.0,17.0,70,11,,,30.147638,,,TRUE,,,,,,,,,,,,,,,,,,,,,,,,,,,,METAR,12.0
YWGT 130600Z AUTO 03006KT 350V090 //// // ////// 32/12 Q1018,YWGT,2015-02-13T06:00:00Z,-36.42,146.3,32.0,12.0,30,6,,,30.059055,,,TRUE,,,,,,,,,,,,,,,,,,,,,,,,,,,,METAR,153.0
YWHA 130600Z AUTO 16018KT 9999 // SCT100 31/16 Q1011,YWHA,2015-02-13T06:00:00Z,-33.07,137.52,31.0,16.0,160,18,,6.21,29.852362,,,TRUE,,,,,,,,SCT,10000,,,,,,,VFR,,,,,,,,,,,,METAR,13.0
YSWG 130600Z 07010KT 070V140 CAVOK 32/09 Q1018,YSWG,2015-02-13T06:00:00Z,-35.13,147.47,32.0,9.0,70,10,,6.21,30.059055,,,,,,,,,,,CAVOK,,,,,,,,VFR,,,,,,,,,,,,METAR,213.0
SBJP 130600Z 21004KT 9999 SCT020 24/21 Q1015,SBJP,2015-02-13T06:00:00Z,-7.15,-34.95,24.0,21.0,210,4,,6.21,29.970472,,,,,,,,,,,SCT,2000,,,,,,,VFR,,,,,,,,,,,,METAR,7.0
SCRM 130600Z 24013KT 9999 OVC012 01/M01 Q0986,SCRM,2015-02-13T06:00:00Z,-62.18,-58.98,1.0,-1.0,240,13,,6.21,29.114174,,,,,,,,,,,OVC,1200,,,,,,,MVFR,,,,,,,,,,,,METAR,45.0
LQTZ 130600Z 00000KT 0050 FZFG BKN002 M07/M07 Q1026,LQTZ,2015-02-13T06:00:00Z,44.47,18.73,-7.0,-7.0,0,0,,0.03,30.295275,,,,,,,,,,FZFG,BKN,200,,,,,,,LIFR,,,,,,,,,,,,METAR,306.0
BIRK 130600Z 11008KT CAVOK M03/M13 Q1005,BIRK,2015-02-13T06:00:00Z,64.13,-21.93,-3.0,-13.0,110,8,,6.21,29.675198,,,,,,,,,,,CAVOK,,,,,,,,VFR,,,,,,,,,,,,METAR,61.0
BIEG 130600Z 04009KT 9999 SCT032 OVC110 M03/M09 Q1011,BIEG,2015-02-13T06:00:00Z,65.27,-14.4,-3.0,-9.0,40,9,,6.21,29.852362,,,,,,,,,,,SCT,3200,OVC,11000,,,,,VFR,,,,,,,,,,,,METAR,38.0
BIAR 130600Z 26004KT CAVOK M06/M13 Q1011,BIAR,2015-02-13T06:00:00Z,65.67,-18.07,-6.0,-13.0,260,4,,6.21,29.852362,,,,,,,,,,,CAVOK,,,,,,,,VFR,,,,,,,,,,,,METAR,27.0
SUMU 130600Z 16008KT 9999 SCT030 20/11 Q1017 TEMPO SHRA,SUMU,2015-02-13T06:00:00Z,-34.82,-56.0,20.0,11.0,160,8,,6.21,30.029528,,,,,,,,,,,SCT,3000,,,,,,,VFR,,,,,,,,,,,,METAR,32.0
FDMV 130600Z AUTO 05002KT //// // ////// 28/21 Q1020,FDMV,2015-02-13T06:00:00Z,,,28.0,21.0,50,2,,,30.11811,,,TRUE,,,,,,,,,,,,,,,,,,,,,,,,,,,,METAR,
MHLC 130600Z 00000KT 9999 FEW026 20/19 Q1018 A3006 NOSIG,MHLC,2015-02-13T06:00:00Z,15.75,-86.85,20.0,19.0,0,0,,6.21,30.059055,,,,,,TRUE,,,,,FEW,2600,,,,,,,VFR,,,,,,,,,,,,METAR,15.0
MHCA 130600Z 00000KT 9999 SCT028 20/17 Q1017,MHCA,2015-02-13T06:00:00Z,14.9,-85.78,20.0,17.0,0,0,,6.21,30.029528,,,,,,,,,,,SCT,2800,,,,,,,VFR,,,,,,,,,,,,METAR,442.0
"MHSR 130600Z 00000KT 9999 SCT022 15/14 BR,HZ ",MHSR,2015-02-13T06:00:00Z,14.78,-88.78,15.0,14.0,0,0,,6.21,,,,,,,,,,,HZ BR,SCT,2200,,,,,,,VFR,,,,,,,,,,,,METAR,1079.0
GVAC 130600Z 04006KT 9999 -RA SCT013 BKN016 BKN100 19/17 Q1019 NOSIG,GVAC,2015-02-13T06:00:00Z,16.72,-22.93,19.0,17.0,40,6,,6.21,30.088583,,,,,,TRUE,,,,-RA,SCT,1300,BKN,1600,BKN,10000,,,MVFR,,,,,,,,,,,,METAR,55.0
NFTF 130600Z 00000KT 9999 SCT018TCU 28/25 Q1010,NFTF,2015-02-13T06:00:00Z,-21.23,-175.15,28.0,25.0,0,0,,6.21,29.822834,,,,,,,,,,,SCT,1800,,,,,,,VFR,,,,,,,,,,,,METAR,38.0
NFTL 130600Z VRB03KT 9999 FEW008 SCT016TCU 29/26 Q1009,NFTL,2015-02-13T06:00:00Z,-19.78,-174.33,29.0,26.0,0,3,,6.21,29.793306,,,,,,,,,,,FEW,800,SCT,1600,,,,,VFR,,,,,,,,,,,,METAR,3.0
NFTV 130600Z 00000KT 9999 SCT016 SCT040 BKN280 28/25 Q1009,NFTV,2015-02-13T06:00:00Z,-18.58,-173.97,28.0,25.0,0,0,,6.21,29.793306,,,,,,,,,,,SCT,1600,SCT,4000,BKN,28000,,,VFR,,,,,,,,,,,,METAR,71.0
MHTG 130600Z 36008KT 9999 BKN028 19/15 Q1021 A3015 NOSIG,MHTG,2015-02-13T06:00:00Z,14.07,-87.22,19.0,15.0,360,8,,6.21,30.147638,,,,,,TRUE,,,,,BKN,2800,,,,,,,MVFR,,,,,,,,,,,,METAR,1004.0
ORNI 130600Z 21004KT 3000 DU NSC 11/M03 Q1020 NOSIG,ORNI,2015-02-13T06:00:00Z,31.98,44.4,11.0,-3.0,210,4,,1.86,30.11811,,,,,,TRUE,,,,DU,,,,,,,,,,,,,,,,,,,,,METAR,53.0
OYAT 130600Z 14014KT CAVOK 21/05 Q1021,OYAT,2015-02-13T06:00:00Z,14.55,46.83,21.0,5.0,140,14,,6.21,30.147638,,,,,,,,,,,CAVOK,,,,,,,,VFR,,,,,,,,,,,,METAR,1039.0
SAZS 130600Z 18007KT CAVOK 06/00 Q1020,SAZS,2015-02-13T06:00:00Z,-41.13,-71.17,6.0,0.0,180,7,,6.21,30.11811,,,,,,,,,,,CAVOK,,,,,,,,VFR,,,,,,,,,,,,METAR,840.0
MDPP 130600Z 00000KT 9999 SCT018 BKN070 21/20 Q1016,MDPP,2015-02-13T06:00:00Z,19.75,-70.57,21.0,20.0,0,0,,6.21,30.0,,,,,,,,,,,SCT,1800,BKN,7000,,,,,VFR,,,,,,,,,,,,METAR,5.0
MDST 130600Z 09004KT 9999 BKN016 SCT070 21/18 Q1016,MDST,2015-02-13T06:00:00Z,19.4,-70.6,21.0,18.0,90,4,,6.21,30.0,,,,,,,,,,,BKN,1600,SCT,7000,,,,,MVFR,,,,,,,,,,,,METAR,184.0
MDPC 130600Z 00000KT 9999 SCT020 BKN080 24/20 Q1016,MDPC,2015-02-13T06:00:00Z,18.57,-68.37,24.0,20.0,0,0,,6.21,30.0,,,,,,,,,,,SCT,2000,BKN,8000,,,,,VFR,,,,,,,,,,,,METAR,12.0
MDSD 130600Z VRB03KT 9999 FEW016 BKN070 22/21 Q1016,MDSD,2015-02-13T06:00:00Z,18.42,-69.67,22.0,21.0,0,3,,6.21,30.0,,,,,,,,,,,FEW,1600,BKN,7000,,,,,VFR,,,,,,,,,,,,METAR,18.0
FDMS 130600Z 00000KT 9999 FEW035 22/19 Q1016 NOSIG,FDMS,2015-02-13T06:00:00Z,-26.52,31.3,22.0,19.0,0,0,,6.21,30.0,,,,,,TRUE,,,,,FEW,3500,,,,,,,VFR,,,,,,,,,,,,METAR,641.0
SBFZ 130600Z 10013KT 9999 FEW020 27/21 Q1013,SBFZ,2015-02-13T06:00:00Z,-3.77,-38.52,27.0,21.0,100,13,,6.21,29.911417,,,,,,,,,,,FEW,2000,,,,,,,VFR,,,,,,,,,,,,METAR,25.0
SBCG 130600Z 06001KT 9999 FEW030 FEW040TCU 23/21 Q1017,SBCG,2015-02-13T06:00:00Z,-20.47,-54.67,23.0,21.0,60,1,,6.21,30.029528,,,,,,,,,,,FEW,3000,FEW,4000,,,,,VFR,,,,,,,,,,,,METAR,567.0
OPPS 130600Z SW-04KT 3600 HZ FEW100 SCT250 20/06 Q1015.2,OPPS,2015-02-13T06:00:00Z,34.02,71.52,20.0,6.0,,,,2.24,29.976377,,,,,,,,,,HZ,FEW,10000,SCT,25000,,,,,IFR,,,,,,,,,,,,METAR,360.0
FDNY 130600Z AUTO 11001KT //// // ////// 24/19 Q1024,FDNY,2015-02-13T06:00:00Z,-26.12,31.45,24.0,19.0,110,1,,,30.236221,,,TRUE,,,,,,,,,,,,,,,,,,,,,,,,,,,,METAR,320.0
FDJR 130600Z AUTO 36006KT //// // ////// 25/23 Q1017,FDJR,2015-02-13T06:00:00Z,-27.17,31.43,25.0,23.0,360,6,,,30.029528,,,TRUE,,,,,,,,,,,,,,,,,,,,,,,,,,,,METAR,701.0
OYIB 130600Z 00000KT CAVOK 18/13 Q1022,OYIB,2015-02-13T06:00:00Z,13.97,44.17,18.0,13.0,0,0,,6.21,30.177166,,,,,,,,,,,CAVOK,,,,,,,,VFR,,,,,,,,,,,,METAR,1920.0
ORMM 130600Z 00000KT 2000 DU NSC 13/04 Q1020 NOSIG,ORMM,2015-02-13T06:00:00Z,30.57,47.67,13.0,4.0,0,0,,1.24,30.11811,,,,,,TRUE,,,,DU,,,,,,,,,,,,,,,,,,,,,METAR,2.0
FDSK 130600Z 02008KT 9999 FEW035 26/20 Q1014 NOSIG,FDSK,2015-02-13T06:00:00Z,-26.35,31.72,26.0,20.0,20,8,,6.21,29.940945,,,,,,TRUE,,,,,FEW,3500,,,,,,,VFR,,,,,,,,,,,,METAR,324.0
SBAR 130600Z 10008KT 9999 SCT015 26/21 Q1015,SBAR,2015-02-13T06:00:00Z,-10.97,-37.07,26.0,21.0,100,8,,6.21,29.970472,,,,,,,,,,,SCT,1500,,,,,,,VFR,,,,,,,,,,,,METAR,9.0
MKJP 130600Z VRB01KT 9999 FEW024 23/20 Q1014,MKJP,2015-02-13T06:00:00Z,17.92,-76.78,23.0,20.0,0,1,,6.21,29.940945,,,,,,,,,,,FEW,2400,,,,,,,VFR,,,,,,,,,,,,METAR,3.0
LFBY 130600Z 00000KT 8000 NSC 02/01 Q1018,LFBY,2015-02-13T06:00:00Z,43.67,-1.07,2.0,1.0,0,0,,4.97,30.059055,,,,,,,,,,,,,,,,,,,,,,,,,,,,,,,METAR,32.0
KQGA 130559Z AUTO VRB02KT 4800 HZ CLR 23/08 A2991 RMK CDP03659 CLR,KQGA,2015-02-13T05:59:00Z,100.65,-1000.65,23.0,8.0,0,2,,2.98,29.911417,,,TRUE,,,,,,,HZ,CLR,,,,,,,,IFR,,,,,,,,,,,,METAR,999.0
KQTM 130559Z AUTO 04004KT 9999 CLR 20/M01 A2969 RMK CDP03569 CLR,KQTM,2015-02-13T05:59:00Z,,,20.0,-1.0,40,4,,6.21,29.68996,,,TRUE,,,,,,,,CLR,,,,,,,,VFR,,,,,,,,,,,,METAR,
KNGU 130559Z 32021G28KT 10SM CLR M01/M12 A3012 RMK AO2 PK WND 33028/0555 SLP197 T10111122 10033 21017 53030,KNGU,2015-02-13T05:59:00Z,36.92,-76.27,-1.1,-12.2,320,21,28,10.0,30.121063,1019.7,,,TRUE,,,,,,,CLR,,,,,,,,VFR,3.0,3.3,-1.7,,,,,,,,,METAR,5.0
LIYW 130558Z AUTO 06004KT 9999 OVC034 04/04 A3027 RMK AO2 SLP259 T00360036 10044 20030 53001,LIYW,2015-02-13T05:58:00Z,46.02,12.62,3.6,3.6,60,4,,6.21,30.268702,1025.9,,TRUE,TRUE,,,,,,,OVC,3400,,,,,,,VFR,0.1,4.4,3.0,,,,,,,,,METAR,126.0
KBIF 130558Z AUTO 24004KT 10SM CLR 06/M03 A3034 RMK AO2 LTG DSNT N AND S SLPNO T00631034 10111 20048 53002 $,KBIF,2015-02-13T05:58:00Z,31.85,-106.38,6.3,-3.4,240,4,,10.0,30.339567,,,TRUE,TRUE,TRUE,,,,,,CLR,,,,,,,,VFR,0.2,11.1,4.8,,,,,,,,,METAR,1203.0
EGUL 130558Z 14009KT 8000 BR FEW008 BKN049 04/04 A2977 RMK AO2A RAE0504 SLP085 P0000 60000 T00390039 10039 20006 57036 VISNO RWY06 CHINO RWY06 $,EGUL,2015-02-13T05:58:00Z,52.42,0.57,3.9,3.9,140,9,,4.97,29.769686,1008.5,,,TRUE,TRUE,,,,,BR,FEW,800,BKN,4900,,,,,MVFR,-3.6,3.9,0.6,,,0.0050,,0.0050,,,,METAR,10.0
KMIB 130558Z AUTO 30012KT 10SM FEW120 M05/M06 A3001 RMK AO2 SLP201 T10551059 11055 21104 410551234 57009 $,KMIB,2015-02-13T05:58:00Z,48.42,-101.33,-5.5,-5.9,300,12,,10.0,30.008858,1020.1,,TRUE,TRUE,TRUE,,,,,,FEW,12000,,,,,,,VFR,-0.9,-5.5,-10.4,-5.5,-23.4,,,,,,,METAR,508.0
KOZR 130558Z AUTO 35010KT 10SM CLR 01/M09 A3024 RMK AO2 SLP243 T00131092 10110 20013 401690013 52004,KOZR,2015-02-13T05:58:00Z,31.28,-85.72,1.3,-9.2,350,10,,10.0,30.239174,1024.3,,TRUE,TRUE,,,,,,,CLR,,,,,,,,VFR,0.4,11.0,1.3,16.9,1.3,,,,,,,SPECI,93.0
KTTS 130558Z AUTO 32008KT 10SM CLR 12/08 A3005 RMK AO2 SLP179 T01210079 10176 20121 50002,KTTS,2015-02-13T05:58:00Z,28.62,-80.72,12.1,7.9,320,8,,10.0,30.050198,1017.9,,TRUE,TRUE,,,,,,,CLR,,,,,,,,VFR,0.2,17.6,12.1,,,,,,,,,SPECI,3.0
KTIK 130558Z AUTO 16007KT 10SM CLR 01/M08 A3029 RMK AO2 SLP273 T00091077 10069 20007 400851038 57014 $,KTIK,2015-02-13T05:58:00Z,35.42,-97.37,0.9,-7.7,160,7,,10.0,30.28937,1027.3,,TRUE,TRUE,TRUE,,,,,,CLR,,,,,,,,VFR,-1.4,6.9,0.7,8.5,-3.8,,,,,,,SPECI,394.0
KTBN 130558Z AUTO 09004KT 10SM FEW030 BKN038 OVC046 M06/M15 A3035 RMK AO2 SLP298 T10571148 11053 21057 410281087 56017,KTBN,2015-02-13T05:58:00Z,37.72,-92.12,-5.7,-14.8,90,4,,10.0,30.351377,1029.8,,TRUE,TRUE,,,,,,,FEW,3000,BKN,3800,OVC,4600,,,VFR,-1.7,-5.3,-5.7,-2.8,-8.7,,,,,,,SPECI,353.0
KBAD 130558Z AUTO 08005KT 10SM CLR 03/M07 A3038 RMK AO2 SLP291 T00301067 10106 20029 401470029 52006,KBAD,2015-02-13T05:58:00Z,32.5,-93.67,3.0,-6.7,80,5,,10.0,30.380905,1029.1,,TRUE,TRUE,,,,,,,CLR,,,,,,,,VFR,0.6,10.6,2.9,14.7,2.9,,,,,,,SPECI,51.0
KWRB 130558Z AUTO 36005KT 10SM CLR M01/M12 A3019 RMK AO2 SLP227 T10081123 10063 21009 55005,KWRB,2015-02-13T05:58:00Z,32.62,-83.58,-0.8,-12.3,360,5,,10.0,30.188976,1022.7,,TRUE,TRUE,,,,,,,CLR,,,,,,,,VFR,-0.5,6.3,-0.9,,,,,,,,,SPECI,90.0
KCOF 130558Z AUTO 30009KT 10SM CLR 14/08 A3005 RMK AO2 SLP180 T01390080 10181 20139 50002 $,KCOF,2015-02-13T05:58:00Z,28.23,-80.6,13.9,8.0,300,9,,10.0,30.050198,1018.0,,TRUE,TRUE,TRUE,,,,,,CLR,,,,,,,,VFR,0.2,18.1,13.9,,,,,,,,,SPECI,3.0
KDYS 130558Z AUTO 18001KT 10SM CLR 04/M03 A3034 RMK AO2 SLP275 T00371033 10113 20020 401290020 55003 $,KDYS,2015-02-13T05:58:00Z,32.42,-99.83,3.7,-3.3,180,1,,10.0,30.339567,1027.5,,TRUE,TRUE,TRUE,,,,,,CLR,,,,,,,,VFR,-0.3,11.3,2.0,12.9,2.0,,,,,,,SPECI,545.0
KHUA 130558Z AUTO 02011KT 10SM SCT210 M05/M12 A3034 RMK AO2 SLP283 T10491118 11015 21049 400441049 57003,KHUA,2015-02-13T05:58:00Z,34.68,-86.68,-4.9,-11.8,20,11,,10.0,30.339567,1028.3,,TRUE,TRUE,,,,,,,SCT,21000,,,,,,,VFR,-0.3,-1.5,-4.9,4.4,-4.9,,,,,,,SPECI,209.0
KHST 130558Z AUTO 26002KT 10SM CLR 13/10 A3007 RMK AO2 SLP186 T01270101 10186 20127 58002,KHST,2015-02-13T05:58:00Z,25.47,-80.37,12.7,10.1,260,2,,10.0,30.070866,1018.6,,TRUE,TRUE,,,,,,,CLR,,,,,,,,VFR,-0.2,18.6,12.7,,,,,,,,,SPECI,2.0
KLTS 130558Z AUTO 16005KT 10SM CLR M01/M04 A3031 RMK AO2 SLP272 T10121037 10093 21015 401141048 57012 $,KLTS,2015-02-13T05:58:00Z,34.67,-99.27,-1.2,-3.7,160,5,,10.0,30.31004,1027.2,,TRUE,TRUE,TRUE,,,,,,CLR,,,,,,,,VFR,-1.2,9.3,-1.5,11.4,-4.8,,,,,,,SPECI,420.0
KMGE 130558Z AUTO 30009KT 10SM CLR M04/M12 A3022 RMK AO2 SLP242 T10391123 11004 21039 57005 $,KMGE,2015-02-13T05:58:00Z,33.92,-84.52,-3.9,-12.3,300,9,,10.0,30.221457,1024.2,,TRUE,TRUE,TRUE,,,,,,CLR,,,,,,,,VFR,-0.5,-0.4,-3.9,,,,,,,,,SPECI,326.0
KMXF 130558Z AUTO 01008KT 10SM CLR 00/M10 A3029 RMK AO2 SLP261 T10041101 10058 21004 401361004 57007,KMXF,2015-02-13T05:58:00Z,32.37,-86.37,-0.4,-10.1,10,8,,10.0,30.28937,1026.1,,TRUE,TRUE,,,,,,,CLR,,,,,,,,VFR,-0.7,5.8,-0.4,13.6,-0.4,,,,,,,SPECI,51.0
KPAM 130558Z AUTO 36010G15KT 10SM CLR 06/M04 A3021 RMK AO2 SLP233 T00631044 10152 20062 51012 $,KPAM,2015-02-13T05:58:00Z,30.07,-85.57,6.3,-4.4,360,10,15,10.0,30.209646,1023.3,,TRUE,TRUE,TRUE,,,,,,CLR,,,,,,,,VFR,1.2,15.2,6.2,,,,,,,,,SPECI,5.0
MUCF 130558Z AUTO 05004KT 15/12 Q1018,MUCF,2015-02-13T05:58:00Z,22.13,-80.4,15.0,12.0,50,4,,,30.059055,,,TRUE,,,,,,,,,,,,,,,,,,,,,,,,,,,,METAR,39.0
KQGX 130558Z COR 15009KT 9999 CLR 26/07 A3007 RMK AO2A SLP185 T02620071 10262 20180 52017 $ COR 0559,KQGX,2015-02-13T05:58:00Z,100.65,-1000.65,26.2,7.1,150,9,,6.21,30.070866,1018.5,TRUE,,TRUE,TRUE,,,,,,CLR,,,,,,,,VFR,1.7,26.2,18.0,,,,,,,,,METAR,999.0
KDLF 130558Z AUTO 30006KT 10SM OVC090 09/04 A3035 RMK AO2 SLP277 T00910035 10110 20064 58001 $,KDLF,2015-02-13T05:58:00Z,29.37,-100.77,9.1,3.5,300,6,,10.0,30.351377,1027.7,,TRUE,TRUE,TRUE,,,,,,OVC,9000,,,,,,,VFR,-0.1,11.0,6.4,,,,,,,,,SPECI,330.0
KFSI 130558Z AUTO 17005KT 10SM CLR 02/M04 A3030 RMK AO2 SLP265 T00191040 10093 20016 401121024 57014,KFSI,2015-02-13T05:58:00Z,34.65,-98.4,1.9,-4.0,170,5,,10.0,30.301182,1026.5,,TRUE,TRUE,,,,,,,CLR,,,,,,,,VFR,-1.4,9.3,1.6,11.2,-2.4,,,,,,,SPECI,362.0
KGSB 130558Z AUTO 30012KT 10SM CLR 00/M11 A3013 RMK AO2 SLP207 T10051106 10059 21005 52025 $,KGSB,2015-02-13T05:58:00Z,35.32,-77.97,-0.5,-10.6,300,12,,10.0,30.129921,1020.7,,TRUE,TRUE,TRUE,,,,,,CLR,,,,,,,,VFR,2.5,5.9,-0.5,,,,,,,,,METAR,33.0
KLSF 130558Z AUTO 34009KT 10SM CLR M01/M10 A3025 RMK AO2 SLP247 T10111105 10068 21011 58005,KLSF,2015-02-13T05:58:00Z,32.32,-84.97,-1.1,-10.5,340,9,,10.0,30.250984,1024.7,,TRUE,TRUE,,,,,,,CLR,,,,,,,,VFR,-0.5,6.8,-1.1,,,,,,,,,SPECI,71.0
KHRT 130558Z AUTO 02011KT 10SM CLR 04/M07 A3024 RMK AO2 SLP242 T00391075 10128 20038 401850038 52012 $,KHRT,2015-02-13T05:58:00Z,30.42,-86.67,3.9,-7.5,20,11,,10.0,30.239174,1024.2,,TRUE,TRUE,TRUE,,,,,,CLR,,,,,,,,VFR,1.2,12.8,3.8,18.5,3.8,,,,,,,SPECI,12.0
KMEI 130558Z AUTO 36008KT 10SM CLR M01/M08 A3034 RMK AO2 SLP276 T10111083 10067 21011 401281011 58001,KMEI,2015-02-13T05:58:00Z,32.33,-88.75,-1.1,-8.3,360,8,,10.0,30.339567,1027.6,,TRUE,TRUE,,,,,,,CLR,,,,,,,,VFR,-0.1,6.7,-1.1,12.8,-1.1,,,,,,,SPECI,89.0
KMRH 130558Z AUTO 33017G25KT 10SM CLR 01/M08 A3010 RMK AO2 PK WND 35028/0514 PRESRR SLP194 I1002 I6/// T00111078 10072 20011 53030 TSNO $,KMRH,2015-02-13T05:58:00Z,34.73,-76.65,1.1,-7.8,330,17,25,10.0,30.100393,1019.4,,TRUE,TRUE,TRUE,,TRUE,,,,CLR,,,,,,,,VFR,3.0,7.2,1.1,,,,,,,,,SPECI,3.0
KSGJ 130558Z AUTO 35013G21KT 10SM CLR 10/M03 A3012 RMK AO2 SLP198 T01001028 10178 20100 53018,KSGJ,2015-02-13T05:58:00Z,29.97,-81.32,10.0,-2.8,350,13,21,10.0,30.121063,1019.8,,TRUE,TRUE,,,,,,,CLR,,,,,,,,VFR,1.8,17.8,10.0,,,,,,,,,SPECI,3.0
PFEL 130558Z AUTO 35009KT 7SM -SN FEW029 BKN070 OVC110 M12/M15 A2974 RMK AO2 SLP074 P0000 60000 T11171150 11117 21128 53004 FZRANO,PFEL,2015-02-13T05:58:00Z,64.62,-162.27,-11.7,-15.0,350,9,,7.0,29.740158,1007.4,,TRUE,TRUE,,,,TRUE,,-SN,FEW,2900,BKN,7000,OVC,11000,,,VFR,0.4,-11.7,-12.8,,,0.0050,,0.0050,,,,METAR,49.0
KBIX 130558Z AUTO 03012G16KT 10SM CLR 05/M05 A3029 RMK AO2 SLP260 T00541047 10140 20054 401810054 50006,KBIX,2015-02-13T05:58:00Z,30.42,-88.92,5.4,-4.7,30,12,16,10.0,30.28937,1026.0,,TRUE,TRUE,,,,,,,CLR,,,,,,,,VFR,0.6,14.0,5.4,18.1,5.4,,,,,,,METAR,10.0
KCBM 130558Z AUTO 33007KT 10SM CLR M03/M12 A3038 RMK AO2 SLP292 T10281122 10029 21028 400701028 55001 $,KCBM,2015-02-13T05:58:00Z,33.63,-88.45,-2.8,-12.2,330,7,,10.0,30.380905,1029.2,,TRUE,TRUE,TRUE,,,,,,CLR,,,,,,,,VFR,-0.1,2.9,-2.8,7.0,-2.8,,,,,,,METAR,67.0
KLHW 130558Z AUTO 33007KT 10SM CLR 03/M08 A3016 RMK AO2 SLP216 T00281082 10139 20026 50010,KLHW,2015-02-13T05:58:00Z,31.87,-81.57,2.8,-8.2,330,7,,10.0,30.159449,1021.6,,TRUE,TRUE,,,,,,,CLR,,,,,,,,VFR,1.0,13.9,2.6,,,,,,,,,METAR,14.0
KMMT 130558Z AUTO 36007KT 10SM CLR M03/M12 A3020 RMK AO2 SLP230 T10281123 10063 21028 51013 $,KMMT,2015-02-13T05:58:00Z,33.92,-80.78,-2.8,-12.3,360,7,,10.0,30.200787,1023.0,,TRUE,TRUE,TRUE,,,,,,CLR,,,,,,,,VFR,1.3,6.3,-2.8,,,,,,,,,METAR,77.0
KSVN 130558Z AUTO 36010KT 10SM CLR 04/M11 A3015 RMK AO2 SLP213 T00401108 10143 20040 51015,KSVN,2015-02-13T05:58:00Z,32.02,-81.15,4.0,-10.8,360,10,,10.0,30.15059,1021.3,,TRUE,TRUE,,,,,,,CLR,,,,,,,,VFR,1.5,14.3,4.0,,,,,,,,,METAR,13.0
RKJK 130558Z AUTO 33008G14KT 10SM CLR 03/M07 A3014 RMK AO2 SLP211 60000 T00331075 10036 21007 57009 $,RKJK,2015-02-13T05:58:00Z,35.9,126.62,3.3,-7.5,330,8,14,10.0,30.138779,1021.1,,TRUE,TRUE,TRUE,,,,,,CLR,,,,,,,,VFR,-0.9,3.6,-0.7,,,,,0.0050,,,,METAR,9.0
KLRF 130558Z AUTO 08006KT 10SM SCT150 00/M12 A3042 RMK AO2 SLP306 T10051123 10031 21006 400731007 55002,KLRF,2015-02-13T05:58:00Z,34.92,-92.15,-0.5,-12.3,80,6,,10.0,30.41929,1030.6,,TRUE,TRUE,,,,,,,SCT,15000,,,,,,,VFR,-0.2,3.1,-0.6,7.3,-0.7,,,,,,,SPECI,95.0
KVAD 130558Z AUTO 35012G19KT 10SM CLR 03/M08 A3018 RMK AO2 SLP223 T00331083 10137 20033 52021,KVAD,2015-02-13T05:58:00Z,30.97,-83.2,3.3,-8.3,350,12,19,10.0,30.180119,1022.3,,TRUE,TRUE,,,,,,,CLR,,,,,,,,VFR,2.1,13.7,3.3,,,,,,,,,SPECI,71.0
KSSC 130558Z AUTO 36006KT 10SM CLR M01/M12 A3019 RMK AO2 SLP226 T10131118 10070 21013 52017 $,KSSC,2015-02-13T05:58:00Z,33.97,-80.47,-1.3,-11.8,360,6,,10.0,30.188976,1022.6,,TRUE,TRUE,TRUE,,,,,,CLR,,,,,,,,VFR,1.7,7.0,-1.3,,,,,,,,,SPECI,74.0
KMCF 130558Z AUTO 31005KT 10SM CLR 14/13 A3008 RMK AO2 SLP189 T01410132 10151 20131 57002,KMCF,2015-02-13T05:58:00Z,27.85,-82.52,14.1,13.2,310,5,,10.0,30.079725,1018.9,,TRUE,TRUE,,,,,,,CLR,,,,,,,,VFR,-0.2,15.1,13.1,,,,,,,,,SPECI,4.0
K0J4 130558Z AUTO 01006KT 10SM CLR 02/M08 A3027 RMK AO2 SLP249 T00171078 10106 20017 50006 $,K0J4,2015-02-13T05:58:00Z,31.05,-86.32,1.7,-7.8,10,6,,10.0,30.268702,1024.9,,TRUE,TRUE,TRUE,,,,,,CLR,,,,,,,,VFR,0.6,10.6,1.7,,,,,,,,,METAR,96.0
KEUF 130558Z AUTO VRB04KT 10SM CLR 00/M11 A3024 RMK AO2 SLP239 T00001106 10094 20000 401720000 58005 PWINO FZRANO,KEUF,2015-02-13T05:58:00Z,31.95,-85.13,0.0,-10.6,0,4,,10.0,30.239174,1023.9,,TRUE,TRUE,,,,TRUE,TRUE,,CLR,,,,,,,,VFR,-0.5,9.4,0.0,17.2,,,,,,,,METAR,87.0
KGUS 130558Z AUTO 28004KT 10SM CLR M13/M16 A3039 RMK AO2 SLP311 60000 T11331162 11088 21133,KGUS,2015-02-13T05:58:00Z,40.63,-86.15,-13.3,-16.2,280,4,,10.0,30.389763,1031.1,,TRUE,TRUE,,,,,,,CLR,,,,,,,,VFR,,-8.8,-13.3,,,,,,,,,SPECI,247.0
KEDW 130558Z 34003KT 40SM FEW210 SCT310 10/M03 A3019 RMK AO2A SLP219 T00981029 10233 20098 52005,KEDW,2015-02-13T05:58:00Z,34.88,-117.87,9.8,-2.9,340,3,,40.0,30.188976,1021.9,,,TRUE,,,,,,,FEW,21000,SCT,31000,,,,,VFR,0.5,23.3,9.8,,,,,,,,,METAR,702.0
KCVS 130558Z 24006KT 10SM CLR 00/M04 A3027 RMK AO2A SLPNO 10112 20013 50002 $,KCVS,2015-02-13T05:58:00Z,34.37,-103.32,0.0,-4.0,240,6,,10.0,30.268702,,,,TRUE,TRUE,,,,,,CLR,,,,,,,,VFR,0.2,11.2,1.3,,,,,,,,,METAR,1309.0
KCEF 130558Z AUTO 31020KT 10SM CLR M11/M18 A2982 RMK AO2 PK WND 32030/29 SLP108 60000 T11081179 11028 21108 52020,KCEF,2015-02-13T05:58:00Z,42.2,-72.52,-10.8,-17.9,310,20,,10.0,29.819881,1010.8,,TRUE,TRUE,,,,,,,CLR,,,,,,,,VFR,2.0,-2.8,-10.8,,,,,,,,,SPECI,75.0
KBLV 130558Z AUTO 03001KT 10SM FEW130 M07/M14 A3045 RMK AO2 SLP322 T10721137 11065 21073 410231106 57015,KBLV,2015-02-13T05:58:00Z,38.53,-89.83,-7.2,-13.7,30,1,,10.0,30.448818,1032.2,,TRUE,TRUE,,,,,,,FEW,13000,,,,,,,VFR,-1.5,-6.5,-7.3,-2.3,-10.6,,,,,,,METAR,138.0
KBKF 130558Z 17009KT 10SM FEW110 FEW220 04/M07 A3022 RMK AO2A SLP210 T00401066 10121 20039 51005,KBKF,2015-02-13T05:58:00Z,39.72,-104.75,4.0,-6.6,170,9,,10.0,30.221457,1021.0,,,TRUE,,,,,,,FEW,11000,FEW,22000,,,,,VFR,0.5,12.1,3.9,,,,,,,,,METAR,1726.0
KADW 130558Z AUTO 32016G29KT 10SM CLR M09/M19 A3013 RMK AO2 PK WND 34034/19 SLP214 P0006 60066 T10871193 11014 21087 52030 $,KADW,2015-02-13T05:58:00Z,38.82,-76.87,-8.7,-19.3,320,16,29,10.0,30.129921,1021.4,,TRUE,TRUE,TRUE,,,,,,CLR,,,,,,,,VFR,3.0,-1.4,-8.7,,,0.06,,0.66,,,,METAR,86.0
KXMR 130558Z AUTO 32009KT 10SM CLR 13/08 A3005 RMK AO2 SLP179 T01320084 10169 20132 51003 $,KXMR,2015-02-13T05:58:00Z,28.47,-80.57,13.2,8.4,320,9,,10.0,30.050198,1017.9,,TRUE,TRUE,TRUE,,,,,,CLR,,,,,,,,VFR,0.3,16.9,13.2,,,,,,,,,METAR,3.0
KRND 130558Z AUTO 03003KT 10SM BKN048 BKN070 10/02 A3036 RMK AO2 SLP280 T01010017 10153 20099 401800087 53002,KRND,2015-02-13T05:58:00Z,29.52,-98.27,10.1,1.7,30,3,,10.0,30.360237,1028.0,,TRUE,TRUE,,,,,,,BKN,4800,BKN,7000,,,,,VFR,0.2,15.3,9.9,18.0,8.7,,,,,,,SPECI,232.0
KPOE 130558Z AUTO 06004KT 8SM CLR 05/M04 A3034 RMK AO2 SLP277 T00471039 10125 20047 401560047 50008,KPOE,2015-02-13T05:58:00Z,31.05,-93.2,4.7,-3.9,60,4,,8.0,30.339567,1027.7,,TRUE,TRUE,,,,,,,CLR,,,,,,,,VFR,0.8,12.5,4.7,15.6,4.7,,,,,,,SPECI,101.0
KHLR 130558Z AUTO 34003KT 10SM CLR 07/M03 A3035 RMK AO2 SLP278 T00721027 10121 20057 401410057 50002,KHLR,2015-02-13T05:58:00Z,31.13,-97.72,7.2,-2.7,340,3,,10.0,30.351377,1027.8,,TRUE,TRUE,,,,,,,CLR,,,,,,,,VFR,0.2,12.1,5.7,14.1,5.7,,,,,,,METAR,283.0
KGRK 130558Z AUTO 33003KT 10SM CLR 07/M02 A3036 RMK AO2 SLP283 T00671020 10119 20061 401380061 50002 $,KGRK,2015-02-13T05:58:00Z,31.07,-97.83,6.7,-2.0,330,3,,10.0,30.360237,1028.3,,TRUE,TRUE,TRUE,,,,,,CLR,,,,,,,,VFR,0.2,11.9,6.1,13.8,6.1,,,,,,,SPECI,309.0
KFBG 130558Z AUTO 33007KT 10SM CLR M01/M13 A3015 RMK AO2 SLP214 60001 T10131131 10053 21013 50015,KFBG,2015-02-13T05:58:00Z,35.12,-78.92,-1.3,-13.1,330,7,,10.0,30.15059,1021.4,,TRUE,TRUE,,,,,,,CLR,,,,,,,,VFR,1.5,5.3,-1.3,,,,,,,,,SPECI,74.0
K1J0 130558Z AUTO 36010KT 10SM CLR 03/M06 A3025 RMK AO2 SLP227 T00281061 10122 20028 50010,K1J0,2015-02-13T05:58:00Z,30.85,-85.6,2.8,-6.1,360,10,,10.0,30.250984,1022.7,,TRUE,TRUE,,,,,,,CLR,,,,,,,,VFR,1.0,12.2,2.8,,,,,,,,,SPECI,26.0
PATE 130558Z AUTO 07015KT 10SM CLR M20/M23 A2981 RMK AO2 SLP110 T12001233 11183 21200 53000 FZRANO,PATE,2015-02-13T05:58:00Z,65.23,-166.33,-20.0,-23.3,70,15,,10.0,29.811024,1011.0,,TRUE,TRUE,,,,TRUE,,,CLR,,,,,,,,VFR,0.0,-18.3,-20.0,,,,,,,,,SPECI,90.0
PFKT 130558Z AUTO 02026KT 9SM CLR M20/M23 A2983 RMK AO2 PK WND 03035/0507 SLP102 60000 T12001233 11150 21200 56007 FZRANO,PFKT,2015-02-13T05:58:00Z,65.33,-166.47,-20.0,-23.3,20,26,,9.0,29.828741,1010.2,,TRUE,TRUE,,,,TRUE,,,CLR,,,,,,,,VFR,-0.7,-15.0,-20.0,,,,,0.0050,,,,METAR,9.0
KHMN 130558Z AUTO 12005KT 10SM CLR 05/M03 A3031 RMK AO2 SLPNO T00531032 10133 20052 53007 $,KHMN,2015-02-13T05:58:00Z,32.85,-106.08,5.3,-3.2,120,5,,10.0,30.31004,,,TRUE,TRUE,TRUE,,,,,,CLR,,,,,,,,VFR,0.7,13.3,5.2,,,,,,,,,METAR,1248.0
KHIF 130558Z AUTO 11011KT 10SM CLR 05/M05 A3036 RMK AO2 SLPNO T00521054 10125 20050 53001,KHIF,2015-02-13T05:58:00Z,41.12,-111.97,5.2,-5.4,110,11,,10.0,30.360237,,,TRUE,TRUE,,,,,,,CLR,,,,,,,,VFR,0.1,12.5,5.0,,,,,,,,,METAR,1459.0
KAFF 130558Z AUTO 36008KT 10SM CLR M03/M07 A3026 RMK AO2 SLPNO T10261072 10108 21026 52005,KAFF,2015-02-13T05:58:00Z,38.97,-104.82,-2.6,-7.2,360,8,,10.0,30.259842,,,TRUE,TRUE,,,,,,,CLR,,,,,,,,VFR,0.5,10.8,-2.6,,,,,,,,,METAR,2003.0
BGTL 130558Z AUTO 12009KT 9999 CLR M32/M34 A2996 RMK AO2 SLP140 53003,BGTL,2015-02-13T05:58:00Z,76.53,-68.7,-32.0,-34.0,120,9,,6.21,29.958662,1014.0,,TRUE,TRUE,,,,,,,CLR,,,,,,,,VFR,0.3,,,,,,,,,,,METAR,77.0
PKMJ 130558Z 05017KT 15SM FEW015 SCT050 OVC300 29/24 A2972 ,PKMJ,2015-02-13T05:58:00Z,7.07,171.27,29.0,24.0,50,17,,15.0,29.719488,,,,,,,,,,,FEW,1500,SCT,5000,OVC,30000,,,VFR,,,,,,,,,,,,METAR,3.0
KMUO 130558Z 00000KT 10SM BKN200 04/02 A3034 RMK AO2A SLP286 T00350017 10120 20032 50005,KMUO,2015-02-13T05:58:00Z,43.03,-115.87,3.5,1.7,0,0,,10.0,30.339567,1028.6,,,TRUE,,,,,,,BKN,20000,,,,,,,VFR,0.5,12.0,3.2,,,,,,,,,METAR,913.0
KWRI 130558Z AUTO 32020G28KT 10SM CLR M08/M18 A2996 RMK AO2 PK WND 32031/24 SLP150 60000 T10821177 11007 21082 52035,KWRI,2015-02-13T05:58:00Z,40.02,-74.58,-8.2,-17.7,320,20,28,10.0,29.958662,1015.0,,TRUE,TRUE,,,,,,,CLR,,,,,,,,VFR,3.5,-0.7,-8.2,,,,,,,,,SPECI,41.0
KSUU 130558Z 25002KT 10SM CLR 11/09 A3014 RMK AO2A SLP210 WND DATA ESTMD T01070090 10205 20101 $,KSUU,2015-02-13T05:58:00Z,38.27,-121.92,10.7,9.0,250,2,,10.0,30.138779,1021.0,,,TRUE,TRUE,,,,,,CLR,,,,,,,,VFR,,20.5,10.1,,,,,,,,,SPECI,19.0
KSLI 130558Z 21002KT 10SM CLR 15/04 A3005 RMK AO2A SLP177 T01510044 10299 20151 50005,KSLI,2015-02-13T05:58:00Z,33.77,-118.03,15.1,4.4,210,2,,10.0,30.050198,1017.7,,,TRUE,,,,,,,CLR,,,,,,,,VFR,0.5,29.9,15.1,,,,,,,,,SPECI,11.0
KMTC 130558Z AUTO 30007KT 10SM CLR M16/M22 A3032 RMK AO2 SLP285 T11631216 11134 21163 58001,KMTC,2015-02-13T05:58:00Z,42.62,-82.82,-16.3,-21.6,300,7,,10.0,30.318897,1028.5,,TRUE,TRUE,,,,,,,CLR,,,,,,,,VFR,-0.1,-13.4,-16.3,,,,,,,,,METAR,177.0
KIAB 130558Z AUTO 12006KT 10SM CLR M04/M13 A3027 RMK AO2 SLP270 T10381128 11003 21039 400181061 57013,KIAB,2015-02-13T05:58:00Z,37.62,-97.27,-3.8,-12.8,120,6,,10.0,30.268702,1027.0,,TRUE,TRUE,,,,,,,CLR,,,,,,,,VFR,-1.3,-0.3,-3.9,1.8,-6.1,,,,,,,METAR,418.0
KDAA 130558Z AUTO 31015G20KT 10SM FEW049 M08/M18 A3019 RMK AO2 SLP227 T10781185 11011 21078 52034,KDAA,2015-02-13T05:58:00Z,38.72,-77.17,-7.8,-18.5,310,15,20,10.0,30.188976,1022.7,,TRUE,TRUE,,,,,,,FEW,4900,,,,,,,VFR,3.4,-1.1,-7.8,,,,,,,,,METAR,21.0
PAIW 130558Z AUTO 05009KT 10SM CLR M22/M24 A2995 RMK AO2 SNB42E52 SLP143 P0000 60000 T12221239 11211 21233 51002 FZRANO,PAIW,2015-02-13T05:58:00Z,65.62,-168.1,-22.2,-23.9,50,9,,10.0,29.949802,1014.3,,TRUE,TRUE,,,,TRUE,,,CLR,,,,,,,,VFR,0.2,-21.1,-23.3,,,0.0050,,,,,,SPECI,7.0
KFRI 130558Z AUTO 16006KT 10SM CLR M04/M13 A3030 RMK AO2 SLP274 T10411130 11033 21041 410091106 57024,KFRI,2015-02-13T05:58:00Z,39.03,-96.77,-4.1,-13.0,160,6,,10.0,30.301182,1027.4,,TRUE,TRUE,,,,,,,CLR,,,,,,,,VFR,-2.4,-3.3,-4.1,-0.9,-10.6,,,,,,,METAR,325.0
ROTM 130558Z 33010G17KT 9999 FEW040 17/03 A3010 RMK SLP181 XWND ADV T01730030 10173 20156 56007,ROTM,2015-02-13T05:58:00Z,26.27,127.75,17.3,3.0,330,10,17,6.21,30.100393,1018.1,,,,,,,,,,FEW,4000,,,,,,,VFR,-0.7,17.3,15.6,,,,,,,,,METAR,75.0
KVOK 130558Z AUTO 00000KT 10SM CLR M22/M24 A3034 RMK AO2 SLP303 T12251237 11129 21225 411041225 57016,KVOK,2015-02-13T05:58:00Z,43.92,-90.27,-22.5,-23.7,0,0,,10.0,30.339567,1030.3,,TRUE,TRUE,,,,,,,CLR,,,,,,,,VFR,-1.6,-12.9,-22.5,-10.4,-22.5,,,,,,,SPECI,277.0
KU16 130558Z AUTO 28005KT 10SM CLR 01/M04 A3034 RMK AO2 SLP887 T00111039 10122 20011 401331033 50001 TSNO $,KU16,2015-02-13T05:58:00Z,41.05,-113.07,1.1,-3.9,280,5,,10.0,30.339567,988.7,,TRUE,TRUE,TRUE,,TRUE,,,,CLR,,,,,,,,VFR,0.1,12.2,1.1,13.3,-3.3,,,,,,,SPECI,1292.0
RODN 130558Z AUTO 33011KT 9SM CLR 17/04 A3009 RMK AO2 SLP197 T01730035 10180 20146 57011 $,RODN,2015-02-13T05:58:00Z,26.35,127.77,17.3,3.5,330,11,,9.0,30.088583,1019.7,,TRUE,TRUE,TRUE,,,,,,CLR,,,,,,,,VFR,-1.1,18.0,14.6,,,,,,,,,METAR,45.0
RJTY 130558Z COR 03025G30KT 10SM SCT100 07/M12 A2955 RMK AO2 PK WND 03030/53 SLP016 T00721121 10112 20055 55008 COR 0602,RJTY,2015-02-13T05:58:00Z,35.75,139.33,7.2,-12.1,30,25,30,10.0,29.551182,1001.6,TRUE,,TRUE,,,,,,,SCT,10000,,,,,,,VFR,-0.8,11.2,5.5,,,,,,,,,METAR,139.0
PHHI 130558Z AUTO 00000KT 10SM CLR 19/15 A2990 RMK AO2 SLP121 T01910149 10243 20191 52013 $,PHHI,2015-02-13T05:58:00Z,21.48,-158.05,19.1,14.9,0,0,,10.0,29.899607,1012.1,,TRUE,TRUE,TRUE,,,,,,CLR,,,,,,,,VFR,1.3,24.3,19.1,,,,,,,,,METAR,255.0
PGUA 130558Z AUTO 04011KT 10SM FEW036 26/18 A2984 RMK AO2 SLP095 T02630175 10275 20260 55007 $,PGUA,2015-02-13T05:58:00Z,13.57,144.92,26.3,17.5,40,11,,10.0,29.840551,1009.5,,TRUE,TRUE,TRUE,,,,,,FEW,3600,,,,,,,VFR,-0.7,27.5,26.0,,,,,,,,,METAR,187.0
PAEI 130558Z AUTO 00000KT 10SM CLR M20/M22 A2979 RMK AO2 SLP107 T11981224 11118 21200 51002 $,PAEI,2015-02-13T05:58:00Z,64.67,-147.1,-19.8,-22.4,0,0,,10.0,29.790354,1010.7,,TRUE,TRUE,TRUE,,,,,,CLR,,,,,,,,VFR,0.2,-11.8,-20.0,,,,,,,,,METAR,167.0
KSKA 130558Z AUTO 33002KT 10SM CLR 06/04 A3030 RMK AO2 UPB49 SLPNO P0000 60000 T00640041 10134 20056 53004,KSKA,2015-02-13T05:58:00Z,47.62,-117.65,6.4,4.1,330,2,,10.0,30.301182,,,TRUE,TRUE,,,,,,,CLR,,,,,,,,VFR,0.4,13.4,5.6,,,0.0050,,0.0050,,,,METAR,750.0
KRIV 130558Z AUTO 02004KT 10SM CLR 16/M02 A3011 RMK AO2 SLPNO T01591020 10255 20150 51006,KRIV,2015-02-13T05:58:00Z,33.87,-117.27,15.9,-2.0,20,4,,10.0,30.109253,,,TRUE,TRUE,,,,,,,CLR,,,,,,,,VFR,0.6,25.5,15.0,,,,,,,,,METAR,469.0
KLUF 130558Z AUTO 35006KT 10SM CLR 13/04 A3011 RMK AO2 SLPNO T01280041 10247 20128 52006 $,KLUF,2015-02-13T05:58:00Z,33.52,-112.37,12.8,4.1,350,6,,10.0,30.109253,,,TRUE,TRUE,TRUE,,,,,,CLR,,,,,,,,VFR,0.6,24.7,12.8,,,,,,,,,METAR,332.0
KLSV 130558Z AUTO 00000KT 10SM CLR 12/M02 A3019 RMK AO2 SLPNO 50000,KLSV,2015-02-13T05:58:00Z,36.22,-115.02,12.0,-2.0,0,0,,10.0,30.188976,,,TRUE,TRUE,,,,,,,CLR,,,,,,,,VFR,0.0,,,,,,,,,,,METAR,570.0
KINS 130558Z AUTO 26007KT 10SM CLR 08/M07 A3025 RMK AO2 SLPNO T00801066 10203 20080 51003 $,KINS,2015-02-13T05:58:00Z,36.58,-115.67,8.0,-6.6,260,7,,10.0,30.250984,,,TRUE,TRUE,TRUE,,,,,,CLR,,,,,,,,VFR,0.3,20.3,8.0,,,,,,,,,METAR,955.0
KFCS 130558Z AUTO 32009KT 10SM CLR 03/M04 A3024 RMK AO2 SLPNO T00311038 10106 20022 52008,KFCS,2015-02-13T05:58:00Z,38.67,-104.77,3.1,-3.8,320,9,,10.0,30.239174,,,TRUE,TRUE,,,,,,,CLR,,,,,,,,VFR,0.8,10.6,2.2,,,,,,,,,METAR,1789.0
KDMA 130558Z AUTO 10007KT 10SM CLR 15/M01 A3015 RMK AO2 SLPNO T01451007 10200 20145 55000 $,KDMA,2015-02-13T05:58:00Z,32.17,-110.87,14.5,-0.7,100,7,,10.0,30.15059,,,TRUE,TRUE,TRUE,,,,,,CLR,,,,,,,,VFR,0.0,20.0,14.5,,,,,,,,,METAR,824.0
KBAB 130558Z AUTO 09002KT 10SM CLR 11/10 A3014 RMK AO2 SLPNO T01140102 10204 20114 58002 $,KBAB,2015-02-13T05:58:00Z,39.12,-121.42,11.4,10.2,90,2,,10.0,30.138779,,,TRUE,TRUE,TRUE,,,,,,CLR,,,,,,,,VFR,-0.2,20.4,11.4,,,,,,,,,METAR,34.0
KFTK 130558Z AUTO 33003KT 10SM OVC034 M08/M13 A3038 RMK AO2 SLP302 T10811131 11053 21083 58001,KFTK,2015-02-13T05:58:00Z,37.88,-85.97,-8.1,-13.1,330,3,,10.0,30.380905,1030.2,,TRUE,TRUE,,,,,,,OVC,3400,,,,,,,VFR,-0.1,-5.3,-8.3,,,,,,,,,METAR,230.0
KFAF 130558Z AUTO 01011G18KT 10SM CLR M03/M11 A3010 RMK AO2 SLP196 P0000 60001 T10281115 10016 21028 53030 $,KFAF,2015-02-13T05:58:00Z,37.12,-76.62,-2.8,-11.5,10,11,18,10.0,30.100393,1019.6,,TRUE,TRUE,TRUE,,,,,,CLR,,,,,,,,VFR,3.0,1.6,-2.8,,,0.0050,,,,,,SPECI,4.0
KDOV 130558Z AUTO 31015KT 10SM CLR M08/M18 A3006 RMK AO2 PK WND 30034/30 SLP183 T10791183 10002 21079 52029,KDOV,2015-02-13T05:58:00Z,39.12,-75.47,-7.9,-18.3,310,15,,10.0,30.059055,1018.3,,TRUE,TRUE,,,,,,,CLR,,,,,,,,VFR,2.9,0.2,-7.9,,,,,,,,,METAR,9.0
KLFI 130558Z AUTO 32015G21KT 10SM CLR M04/M11 A3011 RMK AO2 UPB0512E0522 SLP203 P0000 60000 T10371113 10009 21037 52032 $,KLFI,2015-02-13T05:58:00Z,37.07,-76.37,-3.7,-11.3,320,15,21,10.0,30.109253,1020.3,,TRUE,TRUE,TRUE,,,,,,CLR,,,,,,,,VFR,3.2,0.9,-3.7,,,0.0050,,,,,,SPECI,3.0
KHOP 130558Z AUTO 36005KT 10SM BKN140 BKN180 M07/M13 A3043 RMK AO2 SLP315 T10731126 11057 21076 400111076 57008,KHOP,2015-02-13T05:58:00Z,36.67,-87.5,-7.3,-12.6,360,5,,10.0,30.431103,1031.5,,TRUE,TRUE,,,,,,,BKN,14000,BKN,18000,,,,,VFR,-0.8,-5.7,-7.6,1.1,-7.6,,,,,,,METAR,174.0
KFFO 130558Z AUTO 08001KT 10SM CLR M11/M15 A3037 RMK AO2 SLP302 T11151154 11086 21118 58004,KFFO,2015-02-13T05:58:00Z,39.82,-84.03,-11.5,-15.4,80,1,,10.0,30.369095,1030.2,,TRUE,TRUE,,,,,,,CLR,,,,,,,,VFR,-0.4,-8.6,-11.8,,,,,,,,,METAR,251.0
KSZL 130558Z 13005KT 10SM BKN055 M06/M14 A3038 RMK AO2A SLP304 T10581138 11057 21064 57016 $,KSZL,2015-02-13T05:58:00Z,38.72,-93.53,-5.8,-13.8,130,5,,10.0,30.380905,1030.4,,,TRUE,TRUE,,,,,,BKN,5500,,,,,,,VFR,-1.6,-5.7,-6.4,,,,,,,,,METAR,265.0
RKSG 130558Z AUTO 30011G17KT 10SM CLR 03/M14 A3011 RMK AO2 UPB0458E00 SLP200 P0000 60000 T00301137 10033 21021 57010 $,RKSG,2015-02-13T05:58:00Z,36.97,127.02,3.0,-13.7,300,11,17,10.0,30.109253,1020.0,,TRUE,TRUE,TRUE,,,,,,CLR,,,,,,,,VFR,-1.0,3.3,-2.1,,,0.0050,,0.0050,,,,METAR,16.0
KOFF 130558Z AUTO 16008KT 10SM SCT095 OVC110 M06/M12 A3028 RMK AO2 SLP277 T10631123 11063 21075 410631140 57032 $,KOFF,2015-02-13T05:58:00Z,41.12,-95.92,-6.3,-12.3,160,8,,10.0,30.280512,1027.7,,TRUE,TRUE,TRUE,,,,,,SCT,9500,OVC,11000,,,,,VFR,-3.2,-6.3,-7.5,-6.3,-14.0,,,,,,,SPECI,319.0
KFLG 130557Z AUTO 00000KT 10SM CLR M02/M07 A3035 RMK AO2 SLP252 T10221072 10106 21028 58001 TSNO,KFLG,2015-02-13T05:57:00Z,35.13,-111.67,-2.2,-7.2,0,0,,10.0,30.351377,1025.2,,TRUE,TRUE,,,TRUE,,,,CLR,,,,,,,,VFR,-0.1,10.6,-2.8,,,,,,,,,METAR,2134.0
PHNG 130557Z AUTO 00000KT CLR 22/17 A2987 RMK AO2 SLP110 T02170167 10250 20217 51017 $,PHNG,2015-02-13T05:57:00Z,21.43,-157.77,21.7,16.7,0,0,,,29.870079,1011.0,,TRUE,TRUE,TRUE,,,,,,CLR,,,,,,,,,1.7,25.0,21.7,,,,,,,,,METAR,3.0
PAVA 130557Z AUTO 03023KT 9SM OVC014 M12/M13 A2964 RMK AO2 PK WND 02029/0519 SNE55 SLP040 P0000 60000 T11221133 11122 21133 55000 FZRANO,PAVA,2015-02-13T05:57:00Z,61.53,-165.6,-12.2,-13.3,30,23,,9.0,29.639763,1004.0,,TRUE,TRUE,,,,TRUE,,,OVC,1400,,,,,,,MVFR,0.0,-12.2,-13.3,,,0.0050,,0.0050,,,,METAR,23.0
KROG 130557Z 13008KT 10SM CLR M02/M13 A3032 RMK AO2 SLP279 T10221128 11006 21022 56018,KROG,2015-02-13T05:57:00Z,36.37,-94.08,-2.2,-12.8,130,8,,10.0,30.318897,1027.9,,,TRUE,,,,,,,CLR,,,,,,,,VFR,-1.8,-0.6,-2.2,,,,,,,,,METAR,415.0
KNSI 130557Z AUTO 30014KT 10SM CLR A3007 RMK AO2 SLPNO 54000 $,KNSI,2015-02-13T05:57:00Z,33.22,-119.45,,,300,14,,10.0,30.070866,,,TRUE,TRUE,TRUE,,,,,,CLR,,,,,,,,VFR,,,,,,,,,,,,SPECI,154.0
KNYL 130557Z 03003KT 10SM FEW200 FEW250 18/00 A3008 RMK AO2 SLP183 LAST T01830000 10278 20183 50003,KNYL,2015-02-13T05:57:00Z,32.63,-114.62,18.3,0.0,30,3,,10.0,30.079725,1018.3,,,TRUE,,,,,,,FEW,20000,FEW,25000,,,,,VFR,0.3,27.8,18.3,,,,,,,,,SPECI,65.0
KNJM 130557Z AUTO 32008KT 10SM CLR 01/M11 A3012 RMK AO2 SLP204 T00061106 10061 20006 53033 $,KNJM,2015-02-13T05:57:00Z,34.67,-77.02,0.6,-10.6,320,8,,10.0,30.121063,1020.4,,TRUE,TRUE,TRUE,,,,,,CLR,,,,,,,,VFR,3.3,6.1,0.6,,,,,,,,,METAR,7.0
PAGS 130556Z AUTO 00000KT 10SM FEW036 SCT042 OVC055 01/01 A2968 RMK VIA PHONE,PAGS,2015-02-13T05:56:00Z,58.42,-135.73,1.0,1.0,0,0,,10.0,29.681103,,,TRUE,,,,,,,,FEW,3600,SCT,4200,OVC,5500,,,VFR,,,,,,,,,,,,METAR,9.0
KD07 130556Z AUTO 31009KT M01/M04 A3009 RMK AO1 SLP233 T10111044 10000 21050 52010,KD07,2015-02-13T05:56:00Z,45.03,-102.02,-1.1,-4.4,310,9,,,30.088583,1023.3,,TRUE,TRUE,,,,,,,,,,,,,,,,1.0,0.0,-5.0,,,,,,,,,METAR,784.0
PAHX 130556Z AUTO 03012KT 10SM OVC012 M10/M12 A2969 RMK AO2 SNB26E47 SLP055 P0000 60000 T11001122 11100 21106 51005 FZRANO,PAHX,2015-02-13T05:56:00Z,62.7,-159.57,-10.0,-12.2,30,12,,10.0,29.68996,1005.5,,TRUE,TRUE,,,,TRUE,,,OVC,1200,,,,,,,MVFR,0.5,-10.0,-10.6,,,0.0050,,0.0050,,,,METAR,24.0
PAGN 130556Z AUTO 08006KT 10SM FEW030 BKN037 BKN065 08/07 A2968 RMK AO2 TSNO 55004 60000 T00770066 10077 20044 BKN V SCT SLP054 $,PAGN,2015-02-13T05:56:00Z,57.5,-134.58,7.7,6.6,80,6,,10.0,29.681103,1005.4,,TRUE,TRUE,TRUE,,TRUE,,,,FEW,3000,BKN,3700,BKN,6500,,,VFR,-0.4,7.7,4.4,,,,,0.0050,,,,METAR,2.0
KUCP 130556Z AUTO 24005KT 10SM OVC042 M17/M21 A3029 RMK AO2 51002 T11661205 11144 21172 SLP296,KUCP,2015-02-13T05:56:00Z,41.03,-80.42,-16.6,-20.5,240,5,,10.0,30.28937,1029.6,,TRUE,TRUE,,,,,,,OVC,4200,,,,,,,VFR,0.2,-14.4,-17.2,,,,,,,,,METAR,327.0
KMQY 130556Z AUTO 36010KT 10SM CLR M06/M12 A3041 RMK AO2 TSNO 56008 T10611122 11033 21061 400441061 SLP315,KMQY,2015-02-13T05:56:00Z,36.02,-86.52,-6.1,-12.2,360,10,,10.0,30.410433,1031.5,,TRUE,TRUE,,,TRUE,,,,CLR,,,,,,,,VFR,-0.8,-3.3,-6.1,4.4,-6.1,,,,,,,METAR,166.0
KM19 130556Z AUTO 08009KT 10SM CLR M03/M10 A3047 RMK AO2 56006 T10331100 11011 21038 400381038 SLP319,KM19,2015-02-13T05:56:00Z,35.65,-91.17,-3.3,-10.0,80,9,,10.0,30.469488,1031.9,,TRUE,TRUE,,,,,,,CLR,,,,,,,,VFR,-0.6,-1.1,-3.8,3.8,-3.8,,,,,,,METAR,73.0
KJXN 130556Z 00000KT 10SM CLR M19/M22 A3034 RMK AO2 SLP298 T11891217 11128 21189 57006,KJXN,2015-02-13T05:56:00Z,42.27,-84.47,-18.9,-21.7,0,0,,10.0,30.339567,1029.8,,,TRUE,,,,,,,CLR,,,,,,,,VFR,-0.6,-12.8,-18.9,,,,,,,,,METAR,305.0
KJAX 130556Z 35010KT 10SM CLR 07/M07 A3014 RMK AO2 SLP208 T00721067 10156 20072 53024,KJAX,2015-02-13T05:56:00Z,30.5,-81.68,7.2,-6.7,350,10,,10.0,30.138779,1020.8,,,TRUE,,,,,,,CLR,,,,,,,,VFR,2.4,15.6,7.2,,,,,,,,,METAR,10.0
KINW 130556Z AUTO 23005KT 10SM CLR 03/M03 A3030 RMK AO2 SLP249 T00331028 10144 20028 58000,KINW,2015-02-13T05:56:00Z,35.03,-110.72,3.3,-2.8,230,5,,10.0,30.301182,1024.9,,TRUE,TRUE,,,,,,,CLR,,,,,,,,VFR,0.0,14.4,2.8,,,,,,,,,METAR,1490.0
KIGX 130556Z AUTO 29008KT 10SM CLR M03/M14 A3017 RMK AO2 SLP217 T10281139 10017 21028 51019,KIGX,2015-02-13T05:56:00Z,35.93,-79.07,-2.8,-13.9,290,8,,10.0,30.171259,1021.7,,TRUE,TRUE,,,,,,,CLR,,,,,,,,VFR,1.9,1.7,-2.8,,,,,,,,,METAR,155.0
KGRD 130556Z AUTO 01008KT 10SM CLR M02/M13 A3021 RMK AO2 SLP233 T10221133 10028 21022 58001,KGRD,2015-02-13T05:56:00Z,34.25,-82.15,-2.2,-13.3,10,8,,10.0,30.209646,1023.3,,TRUE,TRUE,,,,,,,CLR,,,,,,,,VFR,-0.1,2.8,-2.2,,,,,,,,,METAR,185.0
KGXF 130556Z 14004KT 10SM CLR 15/02 A3010 RMK AO2A SLP190 T01500019 10244 20149 51003,KGXF,2015-02-13T05:56:00Z,32.87,-112.72,15.0,1.9,140,4,,10.0,30.100393,1019.0,,,TRUE,,,,,,,CLR,,,,,,,,VFR,0.3,24.4,14.9,,,,,,,,,METAR,262.0
KFEW 130556Z AUTO 31006KT 10SM BKN120 00/M05 A3018 RMK AO2 SLPNO T00001050 10099 21016 50002 $,KFEW,2015-02-13T05:56:00Z,41.13,-104.87,0.0,-5.0,310,6,,10.0,30.180119,,,TRUE,TRUE,TRUE,,,,,,BKN,12000,,,,,,,VFR,0.2,9.9,-1.6,,,,,,,,,METAR,1878.0
K2DP 130556Z AUTO 34010G16KT 10SM CLR M01/M05 A3008 RMK AO2 SLPNO 60002 T10111054 10027 21013,K2DP,2015-02-13T05:56:00Z,35.68,-75.9,-1.1,-5.4,340,10,16,10.0,30.079725,,,TRUE,TRUE,,,,,,,CLR,,,,,,,,VFR,,2.7,-1.3,,,,,0.02,,,,METAR,3.0
KNLC 130556Z 30004KT 7SM FEW220 12/07 A3017 RMK AO2 SLP217 RH/68 T01170067 10228 20117 51007 $,KNLC,2015-02-13T05:56:00Z,36.32,-119.95,11.7,6.7,300,4,,7.0,30.171259,1021.7,,,TRUE,TRUE,,,,,,FEW,22000,,,,,,,VFR,0.7,22.8,11.7,,,,,,,,,METAR,72.0
KNID 130556Z 20008KT 10SM FEW270 09/M01 A3020 RMK AO2 SLP229 T00941011 10228 20094 51001,KNID,2015-02-13T05:56:00Z,35.67,-117.67,9.4,-1.1,200,8,,10.0,30.200787,1022.9,,,TRUE,,,,,,,FEW,27000,,,,,,,VFR,0.1,22.8,9.4,,,,,,,,,METAR,696.0
KSPD 130556Z AUTO 29007KT 04/M03 A3017 RMK AO1 SLP201 T00391028 10100 20039 56002,KSPD,2015-02-13T05:56:00Z,37.28,-102.62,3.9,-2.8,290,7,,,30.171259,1020.1,,TRUE,TRUE,,,,,,,,,,,,,,,,-0.2,10.0,3.9,,,,,,,,,METAR,1335.0
KALK 130556Z AUTO 10012KT 10SM CLR 07/M01 A3023 RMK AO2 SLP191 T00671006 10122 20056 50000,KALK,2015-02-13T05:56:00Z,31.6,-110.43,6.7,-0.6,100,12,,10.0,30.230314,1019.1,,TRUE,TRUE,,,,,,,CLR,,,,,,,,VFR,0.0,12.2,5.6,,,,,,,,,METAR,1453.0
KNRS 130556Z 09007KT 10SM FEW200 15/06 A3003 RMK AO2 SLP169 T01500061 10294 20117 58005 $,KNRS,2015-02-13T05:56:00Z,32.57,-117.12,15.0,6.1,90,7,,10.0,30.029528,1016.9,,,TRUE,TRUE,,,,,,FEW,20000,,,,,,,VFR,-0.5,29.4,11.7,,,,,,,,,METAR,7.0
KNOG 130556Z AUTO 05008KT 10SM CLR 12/07 A3034 RMK AO2 SLP255 T01170067 10189 20106 402170106 53009 $,KNOG,2015-02-13T05:56:00Z,27.9,-98.05,11.7,6.7,50,8,,10.0,30.339567,1025.5,,TRUE,TRUE,TRUE,,,,,,CLR,,,,,,,,VFR,0.9,18.9,10.6,21.7,10.6,,,,,,,METAR,78.0
KGNR 130556Z AUTO 33010KT M17/M19 A2957 RMK AO1 SLP049 T11671189 11144 21167 55003,KGNR,2015-02-13T05:56:00Z,45.47,-69.55,-16.7,-18.9,330,10,,,29.568897,1004.9,,TRUE,TRUE,,,,,,,,,,,,,,,,-0.3,-14.4,-16.7,,,,,,,,,METAR,427.0
KNFE 130556Z AUTO 35008G22KT 10SM CLR 01/M13 A3009 RMK AO2 SLP190 60000 T00061128 10033 20006 53025,KNFE,2015-02-13T05:56:00Z,36.7,-76.13,0.6,-12.8,350,8,22,10.0,30.088583,1019.0,,TRUE,TRUE,,,,,,,CLR,,,,,,,,VFR,2.5,3.3,0.6,,,,,0.0050,,,,METAR,5.0
KCTB 130556Z AUTO 26016KT 10SM CLR 07/M02 A3012 RMK AO2 SLP202 T00671017 10094 20061 56003,KCTB,2015-02-13T05:56:00Z,48.6,-112.37,6.7,-1.7,260,16,,10.0,30.121063,1020.2,,TRUE,TRUE,,,,,,,CLR,,,,,,,,VFR,-0.3,9.4,6.1,,,,,,,,,METAR,1175.0
KJMS 130556Z AUTO 21004KT 10SM CLR M11/M13 A3005 RMK AO2 SLP211 60000 T11111133 11106 21133 411061244 58023,KJMS,2015-02-13T05:56:00Z,46.93,-98.67,-11.1,-13.3,210,4,,10.0,30.050198,1021.1,,TRUE,TRUE,,,,,,,CLR,,,,,,,,VFR,-2.3,-10.6,-13.3,-10.6,-24.4,,,0.0050,,,,METAR,455.0
KSRC 130556Z AUTO 08005KT 10SM CLR M02/M11 A3046 RMK AO2 SLP321 T10221106 10022 21022 56004 FZRANO TSNO,KSRC,2015-02-13T05:56:00Z,35.22,-91.73,-2.2,-10.6,80,5,,10.0,30.46063,1032.1,,TRUE,TRUE,,,TRUE,TRUE,,,CLR,,,,,,,,VFR,-0.4,2.2,-2.2,,,,,,,,,METAR,80.0
MUGM 130556Z 33009KT 9999 SCT040 22/14 A3002 RMK SLP166 T02170144 10261 20217 58006,MUGM,2015-02-13T05:56:00Z,19.9,-75.2,21.7,14.4,330,9,,6.21,30.02067,1016.6,,,,,,,,,,SCT,4000,,,,,,,VFR,-0.6,26.1,21.7,,,,,,,,,METAR,17.0
KCHS 130556Z 36017G22KT 10SM CLR 02/M11 A3015 RMK AO2 PK WND 01029/0536 SLP209 T00221111 10133 20022 50015,KCHS,2015-02-13T05:56:00Z,32.9,-80.03,2.2,-11.1,360,17,22,10.0,30.15059,1020.9,,,TRUE,,,,,,,CLR,,,,,,,,VFR,1.5,13.3,2.2,,,,,,,,,METAR,13.0
KCAE 130556Z 33005KT 10SM CLR M01/M11 A3021 RMK AO2 SLP230 T10061111 10067 21006 53007,KCAE,2015-02-13T05:56:00Z,33.93,-81.12,-0.6,-11.1,330,5,,10.0,30.209646,1023.0,,,TRUE,,,,,,,CLR,,,,,,,,VFR,0.7,6.7,-0.6,,,,,,,,,METAR,70.0
KBJJ 130556Z AUTO 29003KT 10SM CLR M19/M22 A3030 RMK AO2 SLP289 T11891222 11139 21189 58005 TSNO,KBJJ,2015-02-13T05:56:00Z,40.87,-81.88,-18.9,-22.2,290,3,,10.0,30.301182,1028.9,,TRUE,TRUE,,,TRUE,,,,CLR,,,,,,,,VFR,-0.5,-13.9,-18.9,,,,,,,,,METAR,343.0
KAND 130556Z AUTO 00000KT 10SM CLR M04/M12 A3020 RMK AO2 SLP228 T10391117 10017 21044 51003,KAND,2015-02-13T05:56:00Z,34.5,-82.72,-3.9,-11.7,0,0,,10.0,30.200787,1022.8,,TRUE,TRUE,,,,,,,CLR,,,,,,,,VFR,0.3,1.7,-4.4,,,,,,,,,METAR,239.0
K1M4 130556Z AUTO 00000KT 10SM M06/M13 A3035 RMK AO2 56005 T10551127 11011 21055 SLP287 $,K1M4,2015-02-13T05:56:00Z,34.28,-87.6,-5.5,-12.7,0,0,,10.0,30.351377,1028.7,,TRUE,TRUE,TRUE,,,,,,,,,,,,,,,-0.5,-1.1,-5.5,,,,,,,,,METAR,284.0
KADF 130556Z AUTO 07003KT 10SM CLR 01/M11 A3043 RMK AO2 50004 T00111105 10066 20011 401050011 SLP321,KADF,2015-02-13T05:56:00Z,34.1,-93.07,1.1,-10.5,70,3,,10.0,30.431103,1032.1,,TRUE,TRUE,,,,,,,CLR,,,,,,,,VFR,0.4,6.6,1.1,10.5,1.1,,,,,,,SPECI,56.0
KNCA 130556Z AUTO 31012KT 10SM CLR 00/M11 A3014 RMK AO2 SLP208 T00001106 10067 20000 53031,KNCA,2015-02-13T05:56:00Z,34.72,-77.45,0.0,-10.6,310,12,,10.0,30.138779,1020.8,,TRUE,TRUE,,,,,,,CLR,,,,,,,,VFR,3.1,6.7,0.0,,,,,,,,,METAR,8.0
KMHS 130556Z AUTO 07003KT 6SM HZ CLR 03/00 A3028 RMK AO2 SLP276 T00330000 10128 20028 53002,KMHS,2015-02-13T05:56:00Z,41.32,-122.32,3.3,0.0,70,3,,6.0,30.280512,1027.6,,TRUE,TRUE,,,,,,HZ,CLR,,,,,,,,VFR,0.2,12.8,2.8,,,,,,,,,METAR,1078.0
PANW 130556Z AUTO 02006KT 10SM CLR M03/M03 A2959 RMK AO2 TSNO 53008 T10271027 10000 21027 SLP002 $,PANW,2015-02-13T05:56:00Z,59.45,-157.37,-2.7,-2.7,20,6,,10.0,29.589567,1000.2,,TRUE,TRUE,TRUE,,TRUE,,,,CLR,,,,,,,,VFR,0.8,0.0,-2.7,,,,,,,,,SPECI,92.0
KGON 130556Z AUTO 32021G31KT 10SM CLR M08/M15 A2979 RMK AO2 PK WND 32031/0533 SLP087 T10781150 11006 21078 53015,KGON,2015-02-13T05:56:00Z,41.33,-72.05,-7.8,-15.0,320,21,31,10.0,29.790354,1008.7,,TRUE,TRUE,,,,,,,CLR,,,,,,,,VFR,1.5,-0.6,-7.8,,,,,,,,,METAR,3.0
KRDM 130556Z AUTO 17005KT 10SM CLR 02/01 A3030 RMK AO2 SLP265 T00220006 10172 20011 51007,KRDM,2015-02-13T05:56:00Z,44.25,-121.15,2.2,0.6,170,5,,10.0,30.301182,1026.5,,TRUE,TRUE,,,,,,,CLR,,,,,,,,VFR,0.7,17.2,1.1,,,,,,,,,METAR,938.0
KHND 130556Z 20005KT 10SM CLR 12/M02 A3023 RMK AO2 SLP231 T01171022 10211 20117 57001,KHND,2015-02-13T05:56:00Z,35.98,-115.13,11.7,-2.2,200,5,,10.0,30.230314,1023.1,,,TRUE,,,,,,,CLR,,,,,,,,VFR,-0.1,21.1,11.7,,,,,,,,,METAR,749.0
KHPN 130556Z 32015G33KT 9SM CLR M12/M19 A2988 RMK AO2 PK WND 30035/0543 SLP131 60000 T11171194 11011 21117 53024,KHPN,2015-02-13T05:56:00Z,41.07,-73.7,-11.7,-19.4,320,15,33,9.0,29.878937,1013.1,,,TRUE,,,,,,,CLR,,,,,,,,VFR,2.4,-1.1,-11.7,,,,,0.0050,,,,METAR,121.0
KISP 130556Z AUTO 31017G24KT 10SM CLR M08/M17 A2985 RMK AO2 PK WND 32028/0533 SLP108 60000 T10781167 11011 21078 53026,KISP,2015-02-13T05:56:00Z,40.8,-73.1,-7.8,-16.7,310,17,24,10.0,29.84941,1010.8,,TRUE,TRUE,,,,,,,CLR,,,,,,,,VFR,2.6,-1.1,-7.8,,,,,0.0050,,,,METAR,43.0
KHWV 130556Z AUTO 32013G22KT 10SM OVC036 M07/M14 A2985 RMK AO2 SLP110 60000 T10671144 11011 21067 53022 TSNO,KHWV,2015-02-13T05:56:00Z,40.82,-72.87,-6.7,-14.4,320,13,22,10.0,29.84941,1011.0,,TRUE,TRUE,,,TRUE,,,,OVC,3600,,,,,,,VFR,2.2,-1.1,-6.7,,,,,0.0050,,,,METAR,21.0
KNMM 130556Z AUTO 35005KT 10SM CLR M02/M09 A3035 RMK AO2 SLP291 T10171089 10050 21017 401171017 51000 $,KNMM,2015-02-13T05:56:00Z,32.53,-88.57,-1.7,-8.9,350,5,,10.0,30.351377,1029.1,,TRUE,TRUE,TRUE,,,,,,CLR,,,,,,,,VFR,0.0,5.0,-1.7,11.7,-1.7,,,,,,,SPECI,97.0
KWMC 130556Z AUTO 12003KT 10SM CLR 02/M01 A3034 RMK AO2 SLP275 T00221006 10156 20017 53009,KWMC,2015-02-13T05:56:00Z,40.9,-117.8,2.2,-0.6,120,3,,10.0,30.339567,1027.5,,TRUE,TRUE,,,,,,,CLR,,,,,,,,VFR,0.9,15.6,1.7,,,,,,,,,METAR,1310.0
KWJF 130556Z AUTO 28006KT 10SM CLR 06/M02 A3021 RMK AO2 SLP234 T00561022 10228 20056 51008,KWJF,2015-02-13T05:56:00Z,34.72,-118.22,5.6,-2.2,280,6,,10.0,30.209646,1023.4,,TRUE,TRUE,,,,,,,CLR,,,,,,,,VFR,0.8,22.8,5.6,,,,,,,,,METAR,715.0
PHBK 130556Z AUTO 15004KT 10SM FEW120 22/14 A2987 RMK AO2 SLP116 T02170139 10250 20217 53007,PHBK,2015-02-13T05:56:00Z,22.03,-159.78,21.7,13.9,150,4,,10.0,29.870079,1011.6,,TRUE,TRUE,,,,,,,FEW,12000,,,,,,,VFR,0.7,25.0,21.7,,,,,,,,,METAR,8.0
KDUG 130556Z AUTO 32007KT 10SM CLR 08/M01 A3024 RMK AO2 SLP213 T00831006 10133 20072 53004,KDUG,2015-02-13T05:56:00Z,31.47,-109.58,8.3,-0.6,320,7,,10.0,30.239174,1021.3,,TRUE,TRUE,,,,,,,CLR,,,,,,,,VFR,0.4,13.3,7.2,,,,,,,,,METAR,1265.0
KSBP 130556Z AUTO 00000KT 10SM CLR 13/07 A3010 RMK AO2 SLP192 T01280072 10239 20122 50003,KSBP,2015-02-13T05:56:00Z,35.23,-120.63,12.8,7.2,0,0,,10.0,30.100393,1019.2,,TRUE,TRUE,,,,,,,CLR,,,,,,,,VFR,0.3,23.9,12.2,,,,,,,,,METAR,59.0
PAPN 130556Z AUTO 11012KT 10SM CLR A2950 RMK AO2 PWINO TSNO 52003 6//// SLPNO $,PAPN,2015-02-13T05:56:00Z,57.58,-157.57,,,110,12,,10.0,29.500984,,,TRUE,TRUE,TRUE,,TRUE,,TRUE,,CLR,,,,,,,,VFR,0.3,,,,,,,,,,,METAR,18.0
KMDT 130556Z 31022G29KT 10SM FEW045 M11/M20 A3014 RMK AO2 PK WND 32035/0518 SLP210 T11111200 11050 21111 51028,KMDT,2015-02-13T05:56:00Z,40.2,-76.77,-11.1,-20.0,310,22,29,10.0,30.138779,1021.0,,,TRUE,,,,,,,FEW,4500,,,,,,,VFR,2.8,-5.0,-11.1,,,,,,,,,METAR,95.0
KLWS 130556Z 16003KT 10SM CLR 08/05 A3031 RMK AO2 SLP268 T00780050 10167 20067 51008,KLWS,2015-02-13T05:56:00Z,46.37,-117.02,7.8,5.0,160,3,,10.0,30.31004,1026.8,,,TRUE,,,,,,,CLR,,,,,,,,VFR,0.8,16.7,6.7,,,,,,,,,METAR,438.0
KLRD 130556Z 34008KT 10SM FEW048 OVC065 14/02 A3036 RMK AO2 53008 T01440016 10188 20138 402050138 SLP272,KLRD,2015-02-13T05:56:00Z,27.55,-99.47,14.4,1.6,340,8,,10.0,30.360237,1027.2,,,TRUE,,,,,,,FEW,4800,OVC,6500,,,,,VFR,0.8,18.8,13.8,20.5,13.8,,,,,,,METAR,155.0
KLNR 130556Z AUTO 00000KT 10SM CLR M18/M22 A3039 RMK AO2 SLP303 T11831222 11117 21194 411001194 56012,KLNR,2015-02-13T05:56:00Z,43.22,-90.18,-18.3,-22.2,0,0,,10.0,30.389763,1030.3,,TRUE,TRUE,,,,,,,CLR,,,,,,,,VFR,-1.2,-11.7,-19.4,-10.0,-19.4,,,,,,,METAR,217.0
KLAS 130556Z 20011KT 10SM FEW250 16/M03 A3016 RMK AO2 SLP204 T01561033 10228 20150 58001,KLAS,2015-02-13T05:56:00Z,36.07,-115.17,15.6,-3.3,200,11,,10.0,30.159449,1020.4,,,TRUE,,,,,,,FEW,25000,,,,,,,VFR,-0.1,22.8,15.0,,,,,,,,,METAR,636.0
KFSD 130556Z 18013KT 10SM OVC038 M08/M13 A3017 RMK AO2 SLP245 60004 T10831128 11083 21100 410831178 56026,KFSD,2015-02-13T05:56:00Z,43.58,-96.75,-8.3,-12.8,180,13,,10.0,30.171259,1024.5,,,TRUE,,,,,,,OVC,3800,,,,,,,VFR,-2.6,-8.3,-10.0,-8.3,-17.8,,,0.04,,,,METAR,436.0
KEKQ 130556Z AUTO 04006KT 10SM OVC037 M06/M13 A3037 RMK AO2 55007 T10551133 11044 21055 SLP300,KEKQ,2015-02-13T05:56:00Z,36.85,-84.85,-5.5,-13.3,40,6,,10.0,30.369095,1030.0,,TRUE,TRUE,,,,,,,OVC,3700,,,,,,,VFR,-0.7,-4.4,-5.5,,,,,,,,,METAR,294.0
KEKO 130556Z AUTO 04004KT 10SM CLR 03/M04 A3034 RMK AO2 SLP277 T00331039 10172 20022 51006,KEKO,2015-02-13T05:56:00Z,40.82,-115.78,3.3,-3.9,40,4,,10.0,30.339567,1027.7,,TRUE,TRUE,,,,,,,CLR,,,,,,,,VFR,0.6,17.2,2.2,,,,,,,,,METAR,1547.0
KEED 130556Z AUTO 31003KT 10SM CLR 18/M04 A3011 RMK AO2 SLP178 T01831044 10272 20183 58001 $,KEED,2015-02-13T05:56:00Z,34.77,-114.62,18.3,-4.4,310,3,,10.0,30.109253,1017.8,,TRUE,TRUE,TRUE,,,,,,CLR,,,,,,,,VFR,-0.1,27.2,18.3,,,,,,,,,METAR,302.0
KEAU 130556Z AUTO 18004KT 10SM CLR M17/M21 A3029 RMK AO2 SLP283 T11671211 11150 21194 411391200 58028,KEAU,2015-02-13T05:56:00Z,44.87,-91.47,-16.7,-21.1,180,4,,10.0,30.28937,1028.3,,TRUE,TRUE,,,,,,,CLR,,,,,,,,VFR,-2.8,-15.0,-19.4,-13.9,-20.0,,,,,,,METAR,276.0
K8D3 130556Z AUTO 24009KT M08/M12 A3013 RMK AO1 SLP245 60003 T10831117 11083 21106 410831222 56027,K8D3,2015-02-13T05:56:00Z,45.67,-96.98,-8.3,-11.7,240,9,,,30.129921,1024.5,,TRUE,TRUE,,,,,,,,,,,,,,,,-2.7,-8.3,-10.6,-8.3,-22.2,,,0.03,,,,METAR,354.0
KART 130556Z AUTO 33011KT 10SM BKN031 BKN036 M19/M25 A3013 RMK AO2 SLP213 60000 T11891250 11139 21194 53010,KART,2015-02-13T05:56:00Z,43.98,-76.03,-18.9,-25.0,330,11,,10.0,30.129921,1021.3,,TRUE,TRUE,,,,,,,BKN,3100,BKN,3600,,,,,VFR,1.0,-13.9,-19.4,,,,,0.0050,,,,METAR,100.0
KAJO 130556Z AUTO 11007KT 10SM CLR 18/M02 A3008 RMK AO2 50006 T01831022 10294 20183 SLP179 $,KAJO,2015-02-13T05:56:00Z,33.9,-117.6,18.3,-2.2,110,7,,10.0,30.079725,1017.9,,TRUE,TRUE,TRUE,,,,,,CLR,,,,,,,,VFR,0.6,29.4,18.3,,,,,,,,,METAR,163.0
PHNY 130556Z AUTO 10003KT 10SM CLR 18/14 A2996 RMK AO2 TSNO 51018 T01770138 10244 20177 SLP134 $,PHNY,2015-02-13T05:56:00Z,20.77,-156.93,17.7,13.8,100,3,,10.0,29.958662,1013.4,,TRUE,TRUE,TRUE,,TRUE,,,,CLR,,,,,,,,VFR,1.8,24.4,17.7,,,,,,,,,METAR,399.0
PARY 130556Z AUTO 3SM -SN FEW001 OVC026 M12/M15 A2976 RMK AO2 TSNO 53003 60000 T11221150 11122 21133 SNE07B26 P0000 SLP095 $,PARY,2015-02-13T05:56:00Z,64.73,-155.47,-12.2,-15.0,,,,3.0,29.760826,1009.5,,TRUE,TRUE,TRUE,,TRUE,,,-SN,FEW,100,OVC,2600,,,,,MVFR,0.3,-12.2,-13.3,,,0.0050,,0.0050,,,,METAR,199.0
PAQH 130556Z AUTO 07009KT 10SM FEW018 01/M01 A2951 RMK AO2 SLP995 T00111011 10044 20006 51009 FZRANO,PAQH,2015-02-13T05:56:00Z,59.75,-161.85,1.1,-1.1,70,9,,10.0,29.509842,999.5,,TRUE,TRUE,,,,TRUE,,,FEW,1800,,,,,,,VFR,0.9,4.4,0.6,,,,,,,,,METAR,13.0
PANA 130556Z AUTO 06003KT 9SM -SN BKN035 OVC048 M04/M06 A2954 RMK AO2 SLP004 P0000 60000 T10391061 11039 21061 53010 FZRANO,PANA,2015-02-13T05:56:00Z,60.68,-161.98,-3.9,-6.1,60,3,,9.0,29.53937,1000.4,,TRUE,TRUE,,,,TRUE,,-SN,BKN,3500,OVC,4800,,,,,VFR,1.0,-3.9,-6.1,,,0.0050,,0.0050,,,,METAR,5.0
PAMK 130556Z AUTO 03015KT 6SM -SN BR BKN027 OVC033 M13/M15 A2966 RMK AO2 TSNO 51003 60000 T11271150 11127 21138 SNE15B44 P0000 SLP051 $,PAMK,2015-02-13T05:56:00Z,63.48,-162.12,-12.7,-15.0,30,15,,6.0,29.660433,1005.1,,TRUE,TRUE,TRUE,,TRUE,,,-SN BR,BKN,2700,OVC,3300,,,,,MVFR,0.3,-12.7,-13.8,,,0.0050,,0.0050,,,,METAR,28.0
PAMB 130556Z AUTO 04010KT BKN041 M01/M01 A2951 RMK AO2 TSNO 53008 T10111011 10016 21016 SLP998 $,PAMB,2015-02-13T05:56:00Z,58.98,-159.05,-1.1,-1.1,40,10,,,29.509842,999.8,,TRUE,TRUE,TRUE,,TRUE,,,,BKN,4100,,,,,,,,0.8,1.6,-1.6,,,,,,,,,METAR,16.0
PALG 130556Z AUTO 10010G18KT CLR M03/M06 RMK AO2 PWINO TSNO 5//// T10271055 11022 21038 SLPNO $,PALG,2015-02-13T05:56:00Z,61.53,-160.33,-2.7,-5.5,100,10,18,,,,,TRUE,TRUE,TRUE,,TRUE,,TRUE,,CLR,,,,,,,,,,-2.2,-3.8,,,,,,,,,METAR,17.0
PAKI 130556Z AUTO 02016KT 10SM OVC015 M08/M09 A2950 RMK AO2 TSNO 53010 60000 T10771088 11077 21100 SNE10 P0000 SLP994 $,PAKI,2015-02-13T05:56:00Z,59.93,-164.03,-7.7,-8.8,20,16,,10.0,29.500984,999.4,,TRUE,TRUE,TRUE,,TRUE,,,,OVC,1500,,,,,,,MVFR,1.0,-7.7,-10.0,,,0.0050,,0.0050,,,,METAR,4.0
PAKH 130556Z AUTO 06016KT 05/01 RMK AO2 PWINO TSNO 5//// T00500011 10050 20044 SLPNO $,PAKH,2015-02-13T05:56:00Z,56.93,-154.18,5.0,1.1,60,16,,,,,,TRUE,TRUE,TRUE,,TRUE,,TRUE,,,,,,,,,,,,5.0,4.4,,,,,,,,,METAR,14.0
PAIG 130556Z AUTO 06009KT CLR 00/M02 A2958 RMK AO2 TSNO 53006 T00001016 10038 21005 SLP022 $,PAIG,2015-02-13T05:56:00Z,59.32,-155.9,0.0,-1.6,60,9,,,29.58071,1002.2,,TRUE,TRUE,TRUE,,TRUE,,,,CLR,,,,,,,,,0.6,3.8,-0.5,,,,,,,,,METAR,28.0
PAHC 130556Z AUTO 35009G14KT 10SM CLR M09/M12 A2964 RMK AO2 TSNO 53006 T10941122 11094 21100 SLP043 $,PAHC,2015-02-13T05:56:00Z,62.18,-159.78,-9.4,-12.2,350,9,14,10.0,29.639763,1004.3,,TRUE,TRUE,TRUE,,TRUE,,,,CLR,,,,,,,,VFR,0.6,-9.4,-10.0,,,,,,,,,METAR,21.0
PAFS 130556Z AUTO 06005KT 10SM -SN BKN039 OVC049 M12/M17 A2976 RMK AO2 TSNO 53007 60000 T11161172 11105 21116 SNB0457 P0000 SLP094 $,PAFS,2015-02-13T05:56:00Z,63.02,-154.35,-11.6,-17.2,60,5,,10.0,29.760826,1009.4,,TRUE,TRUE,TRUE,,TRUE,,,-SN,BKN,3900,OVC,4900,,,,,VFR,0.7,-10.5,-11.6,,,0.0050,,0.0050,,,,METAR,126.0
PADU 130556Z AUTO VRB05KT 5SM RA BR OVC010 03/02 A2926 RMK AO2 CIG 007V012 SLP913 P0007 60010 T00330017 10039 20028 51003,PADU,2015-02-13T05:56:00Z,53.9,-166.53,3.3,1.7,0,5,,5.0,29.258858,991.3,,TRUE,TRUE,,,,,,RA BR,OVC,1000,,,,,,,MVFR,0.3,3.9,2.8,,,0.07,,0.1,,,,METAR,4.0
PADM 130556Z AUTO 05011KT 10SM BKN039 M06/M08 A2962 RMK AO2 TSNO 52009 60000 T10551083 11055 21077 SLP021 $,PADM,2015-02-13T05:56:00Z,61.87,-162.03,-5.5,-8.3,50,11,,10.0,29.619095,1002.1,,TRUE,TRUE,TRUE,,TRUE,,,,BKN,3900,,,,,,,VFR,0.9,-5.5,-7.7,,,,,0.0050,,,,METAR,31.0
PACM 130556Z AUTO 04005KT 10SM OVC015 M13/M15 A2969 RMK AO2 FZRANO TSNO 53003 60000 T11271150 11127 21144 SNB07E42 P0000 SLP052 $,PACM,2015-02-13T05:56:00Z,61.85,-165.57,-12.7,-15.0,40,5,,10.0,29.68996,1005.2,,TRUE,TRUE,TRUE,,TRUE,TRUE,,,OVC,1500,,,,,,,MVFR,0.3,-12.7,-14.4,,,0.0050,,0.0050,,,,METAR,4.0
PPIZ 130556Z AUTO 00000KT CLR M36/ A3024 RMK AO2 TSNO 50003 T1355 11344 21355 SLP244 $,PPIZ,2015-02-13T05:56:00Z,69.73,-163.0,-35.5,,0,0,,,30.239174,1024.4,,TRUE,TRUE,TRUE,,TRUE,,,,CLR,,,,,,,,,0.3,-34.4,-35.5,,,,,,,,,METAR,8.0
PPIT 130556Z AUTO 07010KT 10SM BKN035 OVC049 M07/M09 A2955 RMK AO2 SLP006 60000 T10721089 11072 21094 53008 FZRANO,PPIT,2015-02-13T05:56:00Z,60.9,-162.43,-7.2,-8.9,70,10,,10.0,29.551182,1000.6,,TRUE,TRUE,,,,TRUE,,,BKN,3500,OVC,4900,,,,,VFR,0.8,-7.2,-9.4,,,,,0.0050,,,,METAR,4.0
PFKW 130556Z AUTO 04005KT 10SM OVC045 M04/M06 A2955 RMK AO2 SLP006 60000 T10391061 11033 21050 53010 FZRANO,PFKW,2015-02-13T05:56:00Z,60.8,-161.43,-3.9,-6.1,40,5,,10.0,29.551182,1000.6,,TRUE,TRUE,,,,TRUE,,,OVC,4500,,,,,,,VFR,1.0,-3.3,-5.0,,,,,0.0050,,,,METAR,8.0
PFCL 130556Z AUTO 05007KT 10SM OVC039 M02/M02 A2956 RMK AO2 SLP012 T10171022 10033 21017 53011 FZRANO,PFCL,2015-02-13T05:56:00Z,58.83,-158.53,-1.7,-2.2,50,7,,10.0,29.56004,1001.2,,TRUE,TRUE,,,,TRUE,,,OVC,3900,,,,,,,VFR,1.1,3.3,-1.7,,,,,,,,,METAR,24.0
PAVC 130556Z AUTO 10014KT 10SM OVC014 04/03 A2926 RMK AO2 TSNO 51006 60015 T00440027 10044 20033 RAB0458E28 P0001 SLP910 $,PAVC,2015-02-13T05:56:00Z,55.12,-162.27,4.4,2.7,100,14,,10.0,29.258858,991.0,,TRUE,TRUE,TRUE,,TRUE,,,,OVC,1400,,,,,,,MVFR,0.6,4.4,3.3,,,0.01,,0.15,,,,METAR,47.0
PATQ 130556Z AUTO 04010KT 10SM CLR M35/ A3027 RMK AO2 TSNO 50001 T1350 11338 21350 SLP261 $,PATQ,2015-02-13T05:56:00Z,70.47,-157.43,-35.0,,40,10,,10.0,30.268702,1026.1,,TRUE,TRUE,TRUE,,TRUE,,,,CLR,,,,,,,,VFR,0.1,-33.8,-35.0,,,,,,,,,METAR,29.0
KNQI 130556Z 33006KT 10SM SCT050 11/09 A3034 RMK SLP269 LAST T01060094 10189 20106 402280106 53009,KNQI,2015-02-13T05:56:00Z,27.5,-97.82,10.6,9.4,330,6,,10.0,30.339567,1026.9,,,,,,,,,,SCT,5000,,,,,,,VFR,0.9,18.9,10.6,22.8,10.6,,,,,,,METAR,15.0
K2WX 130556Z AUTO 32011KT 02/M03 A3005 RMK AO1 SLP206 T00171028 10078 21006 50007,K2WX,2015-02-13T05:56:00Z,45.6,-103.55,1.7,-2.8,320,11,,,30.050198,1020.6,,TRUE,TRUE,,,,,,,,,,,,,,,,0.7,7.8,-0.6,,,,,,,,,METAR,915.0
KMEH 130556Z AUTO 00000KT 10SM CLR M01/M02 A3032 RMK AO2 SLP281 T10111022 10144 21011 51000,KMEH,2015-02-13T05:56:00Z,45.52,-118.42,-1.1,-2.2,0,0,,10.0,30.318897,1028.1,,TRUE,TRUE,,,,,,,CLR,,,,,,,,VFR,0.0,14.4,-1.1,,,,,,,,,METAR,1136.0
KQHY 130556Z AUTO 01006G15KT 10SM CLR 05/M06 A3026 RMK AO2 SLP254 T00451063 10133 20045 52012,KQHY,2015-02-13T05:56:00Z,100.65,-1000.65,4.5,-6.3,10,6,15,10.0,30.259842,1025.4,,TRUE,TRUE,,,,,,,CLR,,,,,,,,VFR,1.2,13.3,4.5,,,,,,,,,METAR,999.0
KQBL 130556Z AUTO 35005KT 10SM CLR 05/M06 A3026 RMK AO2 SLP253 T00461061 10134 20046 52012,KQBL,2015-02-13T05:56:00Z,100.65,-1000.65,4.6,-6.1,350,5,,10.0,30.259842,1025.3,,TRUE,TRUE,,,,,,,CLR,,,,,,,,VFR,1.2,13.4,4.6,,,,,,,,,METAR,999.0
KNTU 130556Z 33022G32KT 10SM CLR M02/M10 A3008 RMK AO2 PK WND 33032/0553 SLP189 60000 T10221100 10022 21022 53030,KNTU,2015-02-13T05:56:00Z,36.82,-76.02,-2.2,-10.0,330,22,32,10.0,30.079725,1018.9,,,TRUE,,,,,,,CLR,,,,,,,,VFR,3.0,2.2,-2.2,,,,,,,,,SPECI,7.0
KNBT 130556Z AUTO A3007 RMK AO2 SLP188 6//// 52020 PWINO PNO $,KNBT,2015-02-13T05:56:00Z,35.02,-76.47,,,,,,,30.070866,1018.8,,TRUE,TRUE,TRUE,,,,TRUE,,,,,,,,,,,2.0,,,,,,,,,,,METAR,5.0
KSXT 130556Z AUTO 13009KT 10SM CLR 10/02 A3025 RMK AO2 SLP229 T01000017 10133 20100 58004,KSXT,2015-02-13T05:56:00Z,42.6,-123.37,10.0,1.7,130,9,,10.0,30.250984,1022.9,,TRUE,TRUE,,,,,,,CLR,,,,,,,,VFR,-0.4,13.3,10.0,,,,,,,,,METAR,1170.0
PASY 130556Z AUTO 34014KT 10SM OVC036 01/M16 A3005 RMK AO2 SLP177 T00061161 10022 21006 53004 TSNO $,PASY,2015-02-13T05:56:00Z,52.72,174.12,0.6,-16.1,340,14,,10.0,30.050198,1017.7,,TRUE,TRUE,TRUE,,TRUE,,,,OVC,3600,,,,,,,VFR,0.4,2.2,-0.6,,,,,,,,,METAR,31.0
KNUW 130556Z 25004KT 10SM BKN030 BKN060 OVC090 10/08 A3028 RMK AO2 SLP257 60000 T01000078 10133 20100 55002 VISNO E $,KNUW,2015-02-13T05:56:00Z,48.35,-122.65,10.0,7.8,250,4,,10.0,30.280512,1025.7,,,TRUE,TRUE,,,,,,BKN,3000,BKN,6000,OVC,9000,,,MVFR,-0.2,13.3,10.0,,,,,,,,,SPECI,14.0
KNFL 130556Z 00000KT 10SM CLR 04/M01 A3031 RMK AO2 SLP223 T00441011 10178 20044 51010,KNFL,2015-02-13T05:56:00Z,39.42,-118.7,4.4,-1.1,0,0,,10.0,30.31004,1022.3,,,TRUE,,,,,,,CLR,,,,,,,,VFR,1.0,17.8,4.4,,,,,,,,,SPECI,1199.0
KNXP 130556Z 28003KT 9SM CLR 13/M04 A3026 RMK AO2 SLP224 T01281039 10228 20128 53004,KNXP,2015-02-13T05:56:00Z,34.28,-116.17,12.8,-3.9,280,3,,9.0,30.259842,1022.4,,,TRUE,,,,,,,CLR,,,,,,,,VFR,0.4,22.8,12.8,,,,,,,,,SPECI,626.0
KAQV 130556Z AUTO 00000KT 10SM CLR 04/M03 A3034 RMK AO2 SLP276 T00391033 10128 20039 401670039 51005,KAQV,2015-02-13T05:56:00Z,31.4,-93.3,3.9,-3.3,0,0,,10.0,30.339567,1027.6,,TRUE,TRUE,,,,,,,CLR,,,,,,,,VFR,0.5,12.8,3.9,16.7,3.9,,,,,,,METAR,111.0
KPRN 130556Z AUTO 02007KT 10SM CLR 00/M10 A3026 RMK AO2 SLP248 T00001100 10083 20000 401440000 58004 FZRANO,KPRN,2015-02-13T05:56:00Z,31.85,-86.62,0.0,-10.0,20,7,,10.0,30.259842,1024.8,,TRUE,TRUE,,,,TRUE,,,CLR,,,,,,,,VFR,-0.4,8.3,0.0,14.4,,,,,,,,METAR,138.0
KNGP 130556Z AUTO 03009KT 9SM CLR 14/12 A3032 RMK AO2 SLP267 T01440122 10161 20144 401940144 51008 $,KNGP,2015-02-13T05:56:00Z,27.68,-97.27,14.4,12.2,30,9,,9.0,30.318897,1026.7,,TRUE,TRUE,TRUE,,,,,,CLR,,,,,,,,VFR,0.8,16.1,14.4,19.4,14.4,,,,,,,SPECI,6.0
KNDZ 130556Z AUTO 02013G20KT 10SM CLR 04/M07 A3027 RMK AO2 SLP236 T00441072 10128 20044 401940044 51009 $,KNDZ,2015-02-13T05:56:00Z,30.7,-87.02,4.4,-7.2,20,13,20,10.0,30.268702,1023.6,,TRUE,TRUE,TRUE,,,,,,CLR,,,,,,,,VFR,0.9,12.8,4.4,19.4,4.4,,,,,,,SPECI,54.0
KNSE 130556Z AUTO VRB06KT 10SM CLR 03/M07 A3026 RMK AO2 SLP236 T00281072 10117 20028 401720028 51009 $,KNSE,2015-02-13T05:56:00Z,30.73,-87.02,2.8,-7.2,0,6,,10.0,30.259842,1023.6,,TRUE,TRUE,TRUE,,,,,,CLR,,,,,,,,VFR,0.9,11.7,2.8,17.2,2.8,,,,,,,SPECI,61.0
KNPA 130556Z AUTO 36008KT 10SM CLR 04/M06 A3026 RMK AO2 SLP247 T00441056 10133 20044 401890044 50007 $,KNPA,2015-02-13T05:56:00Z,30.35,-87.32,4.4,-5.6,360,8,,10.0,30.259842,1024.7,,TRUE,TRUE,TRUE,,,,,,CLR,,,,,,,,VFR,0.7,13.3,4.4,18.9,4.4,,,,,,,SPECI,9.0
KP28 130556Z AUTO 17004KT M02/M11 A3023 RMK AO1 SLP254 T10221106 10028 21022 400391072 56018,KP28,2015-02-13T05:56:00Z,37.28,-98.55,-2.2,-10.6,170,4,,,30.230314,1025.4,,TRUE,TRUE,,,,,,,,,,,,,,,,-1.8,2.8,-2.2,3.9,-7.2,,,,,,,METAR,469.0
K79J 130556Z AUTO 02006KT 10SM CLR 03/M08 A3027 RMK AO2 SLP249 T00281083 10117 20028 51004,K79J,2015-02-13T05:56:00Z,31.32,-86.4,2.8,-8.3,20,6,,10.0,30.268702,1024.9,,TRUE,TRUE,,,,,,,CLR,,,,,,,,VFR,0.4,11.7,2.8,,,,,,,,,METAR,94.0
KP60 130556Z AUTO 00000KT M06/M08 A3041 RMK AO1 SLP316 T10611078 10022 21061 53003,KP60,2015-02-13T05:56:00Z,44.55,-110.42,-6.1,-7.8,0,0,,,30.410433,1031.6,,TRUE,TRUE,,,,,,,,,,,,,,,,0.3,2.2,-6.1,,,,,,,,,METAR,2388.0
KABH 130556Z AUTO 04003KT 10SM CLR M17/ A3024 RMK AO2 SLPNO T1172 51005 $,KABH,2015-02-13T05:56:00Z,38.75,-104.3,-17.2,,40,3,,10.0,30.239174,,,TRUE,TRUE,TRUE,,,,,,CLR,,,,,,,,VFR,0.5,,,,,,,,,,,METAR,1840.0
KGNA 130556Z AUTO 27004KT M13/M21 A3021 RMK AO1 SLP257 T11331211 11133 21172 411331239 56036,KGNA,2015-02-13T05:56:00Z,47.75,-90.35,-13.3,-21.1,270,4,,,30.209646,1025.7,,TRUE,TRUE,,,,,,,,,,,,,,,,-3.6,-13.3,-17.2,-13.3,-23.9,,,,,,,METAR,185.0
KNTD 130556Z 35008KT 10SM CLR 17/06 A3007 RMK AO2 SLP182 T01670056 10289 20161 58002 $,KNTD,2015-02-13T05:56:00Z,34.12,-119.12,16.7,5.6,350,8,,10.0,30.070866,1018.2,,,TRUE,TRUE,,,,,,CLR,,,,,,,,VFR,-0.2,28.9,16.1,,,,,,,,,METAR,4.0
KNYG 130556Z AUTO 33016G25KT 10SM CLR M07/M18 A3020 RMK AO2 PK WND 35029/0515 SLP226 T10721183 11006 21072 53030,KNYG,2015-02-13T05:56:00Z,38.5,-77.28,-7.2,-18.3,330,16,25,10.0,30.200787,1022.6,,TRUE,TRUE,,,,,,,CLR,,,,,,,,VFR,3.0,-0.6,-7.2,,,,,,,,,METAR,4.0
KTDR 130556Z AUTO 01012G18KT 10SM CLR 06/M03 A3020 RMK AO2 SLP230 T00621032 10152 20062 401840062 52013,KTDR,2015-02-13T05:56:00Z,30.05,-85.52,6.2,-3.2,10,12,18,10.0,30.200787,1023.0,,TRUE,TRUE,,,,,,,CLR,,,,,,,,VFR,1.3,15.2,6.2,18.4,6.2,,,,,,,METAR,5.0
KSXS 130556Z AUTO 36007G15KT 10SM CLR 01/M08 A3026 RMK AO2 SLP250 T00051080 10101 20005 401610005 53004,KSXS,2015-02-13T05:56:00Z,31.37,-85.85,0.5,-8.0,360,7,15,10.0,30.259842,1025.0,,TRUE,TRUE,,,,,,,CLR,,,,,,,,VFR,0.4,10.1,0.5,16.1,0.5,,,,,,,METAR,122.0
KNBC 130556Z AUTO 36010KT 10SM CLR 03/M10 A3017 RMK AO2 PK WND 36028/0507 SLP216 T00281100 10128 20028 51019 $,KNBC,2015-02-13T05:56:00Z,32.47,-80.72,2.8,-10.0,360,10,,10.0,30.171259,1021.6,,TRUE,TRUE,TRUE,,,,,,CLR,,,,,,,,VFR,1.9,12.8,2.8,,,,,,,,,METAR,12.0
KSDF 130556Z 35005KT 10SM FEW040 SCT250 M07/M13 A3041 RMK AO2 SLP305 T10671128 11039 21072 58002,KSDF,2015-02-13T05:56:00Z,38.18,-85.73,-6.7,-12.8,350,5,,10.0,30.410433,1030.5,,,TRUE,,,,,,,FEW,4000,SCT,25000,,,,,VFR,-0.2,-3.9,-7.2,,,,,,,,,METAR,146.0
TJSJ 130556Z 00000KT 10SM SCT036 BKN070 24/22 A3000 RMK AO2 SLP156 VCSH NE T02440217 10250 20244 58014,TJSJ,2015-02-13T05:56:00Z,18.43,-66.02,24.4,21.7,0,0,,10.0,30.0,1015.6,,,TRUE,,,,,,,SCT,3600,BKN,7000,,,,,VFR,-1.4,25.0,24.4,,,,,,,,,METAR,21.0
PFWS 130556Z AUTO 11004KT 10SM FEW090 00/M02 A2956 RMK AO2 SLP017 T00001017 10067 20000 53008 FZRANO,PFWS,2015-02-13T05:56:00Z,58.7,-157.0,0.0,-1.7,110,4,,10.0,29.56004,1001.7,,TRUE,TRUE,,,,TRUE,,,FEW,9000,,,,,,,VFR,0.8,6.7,0.0,,,,,,,,,METAR,49.0
KY50 130556Z AUTO 00000KT 10SM CLR M22/M24 A3035 RMK AO2 TSNO 58014 T12221244 11133 21222 411111222 SLP299,KY50,2015-02-13T05:56:00Z,44.03,-89.3,-22.2,-24.4,0,0,,10.0,30.351377,1029.9,,TRUE,TRUE,,,TRUE,,,,CLR,,,,,,,,VFR,-1.4,-13.3,-22.2,-11.1,-22.2,,,,,,,METAR,262.0
KDIK 130556Z AUTO 28006KT 10SM CLR M02/M05 A3005 RMK AO2 SLP210 T10221050 10011 21044 56002,KDIK,2015-02-13T05:56:00Z,46.8,-102.8,-2.2,-5.0,280,6,,10.0,30.050198,1021.0,,TRUE,TRUE,,,,,,,CLR,,,,,,,,VFR,-0.2,1.1,-4.4,,,,,,,,,METAR,788.0
KDIJ 130556Z AUTO 17005KT 9SM CLR M03/M05 A3040 RMK AO2 50001 T10331050 10050 21038 400771038 SLP286,KDIJ,2015-02-13T05:56:00Z,43.75,-111.1,-3.3,-5.0,170,5,,9.0,30.398623,1028.6,,TRUE,TRUE,,,,,,,CLR,,,,,,,,VFR,0.1,5.0,-3.8,7.7,-3.8,,,,,,,METAR,1899.0
KDAY 130556Z 00000KT 10SM OVC037 M09/M14 A3035 RMK AO2 SLP295 T10941144 11089 21106 58006,KDAY,2015-02-13T05:56:00Z,39.9,-84.22,-9.4,-14.4,0,0,,10.0,30.351377,1029.5,,,TRUE,,,,,,,OVC,3700,,,,,,,VFR,-0.6,-8.9,-10.6,,,,,,,,,METAR,305.0
KCXY 130556Z AUTO 32020G30KT 10SM CLR M11/M21 A3013 RMK AO2 PK WND 32030/0553 SLP207 T11111206 11050 21111 51021,KCXY,2015-02-13T05:56:00Z,40.22,-76.85,-11.1,-20.6,320,20,30,10.0,30.129921,1020.7,,TRUE,TRUE,,,,,,,CLR,,,,,,,,VFR,2.1,-5.0,-11.1,,,,,,,,,METAR,106.0
KBZN 130556Z 18003KT 10SM FEW075 03/M01 A3026 RMK AO2 SLP258 T00281006 10117 20022 51004,KBZN,2015-02-13T05:56:00Z,45.78,-111.17,2.8,-0.6,180,3,,10.0,30.259842,1025.8,,,TRUE,,,,,,,FEW,7500,,,,,,,VFR,0.4,11.7,2.2,,,,,,,,,METAR,1361.0
KBOK 130556Z AUTO 00000KT 10SM CLR 11/11 A3020 RMK AO2 55001 T01050105 10155 20105 SLP227,KBOK,2015-02-13T05:56:00Z,42.07,-124.28,10.5,10.5,0,0,,10.0,30.200787,1022.7,,TRUE,TRUE,,,,,,,CLR,,,,,,,,VFR,-0.1,15.5,10.5,,,,,,,,,METAR,140.0
KBMI 130556Z AUTO 06004KT 10SM CLR M12/M16 A3043 RMK AO2 56014 T11221155 11105 21122 410721122 SLP335,KBMI,2015-02-13T05:56:00Z,40.47,-88.92,-12.2,-15.5,60,4,,10.0,30.431103,1033.5,,TRUE,TRUE,,,,,,,CLR,,,,,,,,VFR,-1.4,-10.5,-12.2,-7.2,-12.2,,,,,,,METAR,267.0
KBIH 130556Z AUTO 30005KT 10SM CLR 04/M08 A3030 RMK AO2 SLP245 T00441083 10217 20044 51012,KBIH,2015-02-13T05:56:00Z,37.37,-118.35,4.4,-8.3,300,5,,10.0,30.301182,1024.5,,TRUE,TRUE,,,,,,,CLR,,,,,,,,VFR,1.2,21.7,4.4,,,,,,,,,METAR,1253.0
KBED 130556Z 30012KT 10SM BKN032 OVC070 M08/M14 A2974 RMK AO2 SLP088 60000 I6000 T10781144 11056 21089 53013,KBED,2015-02-13T05:56:00Z,42.47,-71.3,-7.8,-14.4,300,12,,10.0,29.740158,1008.8,,,TRUE,,,,,,,BKN,3200,OVC,7000,,,,,VFR,1.3,-5.6,-8.9,,,,,0.0050,,,,METAR,50.0
KMOB 130556Z AUTO 35007KT 10SM CLR 02/M06 A3029 RMK AO2 SLP256 T00221056 10117 20022 401670022 50006,KMOB,2015-02-13T05:56:00Z,30.68,-88.25,2.2,-5.6,350,7,,10.0,30.28937,1025.6,,TRUE,TRUE,,,,,,,CLR,,,,,,,,VFR,0.6,11.7,2.2,16.7,2.2,,,,,,,METAR,63.0
KUKI 130556Z AUTO 00000KT 10SM CLR 10/08 A3018 RMK AO2 SLP217 T01000078 10206 20100 51002,KUKI,2015-02-13T05:56:00Z,39.12,-123.2,10.0,7.8,0,0,,10.0,30.180119,1021.7,,TRUE,TRUE,,,,,,,CLR,,,,,,,,VFR,0.2,20.6,10.0,,,,,,,,,METAR,187.0
KTPH 130556Z AUTO 36013KT 10SM CLR 05/M12 A3036 RMK AO2 SLP267 T00501122 10178 20050 51007,KTPH,2015-02-13T05:56:00Z,38.05,-117.08,5.0,-12.2,360,13,,10.0,30.360237,1026.7,,TRUE,TRUE,,,,,,,CLR,,,,,,,,VFR,0.7,17.8,5.0,,,,,,,,,METAR,1652.0
KSHV 130556Z 08005KT 10SM BKN260 04/M06 A3037 RMK AO2 SLP284 T00391056 10117 20039 401500039 52005,KSHV,2015-02-13T05:56:00Z,32.45,-93.83,3.9,-5.6,80,5,,10.0,30.369095,1028.4,,,TRUE,,,,,,,BKN,26000,,,,,,,VFR,0.5,11.7,3.9,15.0,3.9,,,,,,,METAR,83.0
KSFO 130556Z 02003KT 10SM FEW200 16/14 A3015 RMK AO2 SLP208 T01610144 10228 20161 50000,KSFO,2015-02-13T05:56:00Z,37.62,-122.37,16.1,14.4,20,3,,10.0,30.15059,1020.8,,,TRUE,,,,,,,FEW,20000,,,,,,,VFR,0.0,22.8,16.1,,,,,,,,,METAR,3.0
KNJK 130556Z 24005KT 10SM CLR 14/M02 A3007 RMK AO2 SLP197 T01391022 10283 20139 58002 $,KNJK,2015-02-13T05:56:00Z,32.82,-115.67,13.9,-2.2,240,5,,10.0,30.070866,1019.7,,,TRUE,TRUE,,,,,,CLR,,,,,,,,VFR,-0.2,28.3,13.9,,,,,,,,,METAR,-13.0
KNXF 130556Z AUTO 03006KT 10SM CLR 18/M02 A3003 RMK AO2 PK WND 09040/0503 SLP253 T01831017 10250 20172 58000 $,KNXF,2015-02-13T05:56:00Z,33.28,-117.45,18.3,-1.7,30,6,,10.0,30.029528,1025.3,,TRUE,TRUE,TRUE,,,,,,CLR,,,,,,,,VFR,0.0,25.0,17.2,,,,,,,,,METAR,27.0
KVPZ 130556Z AUTO 27007KT 10SM CLR M16/M19 A3040 RMK AO2 SLP312 60000 T11561194 11106 21161 410501161 55011 TSNO,KVPZ,2015-02-13T05:56:00Z,41.45,-87.0,-15.6,-19.4,270,7,,10.0,30.398623,1031.2,,TRUE,TRUE,,,TRUE,,,,CLR,,,,,,,,VFR,-1.1,-10.6,-16.1,-5.0,-16.1,,,0.0050,,,,METAR,231.0
KP53 130556Z AUTO 22005KT M16/M21 A3030 RMK AO1 SLP278 T11611211 11122 21161 56015,KP53,2015-02-13T05:56:00Z,46.42,-86.65,-16.1,-21.1,220,5,,,30.301182,1027.8,,TRUE,TRUE,,,,,,,,,,,,,,,,-1.5,-12.2,-16.1,,,,,,,,,METAR,187.0
K1QW 130556Z AUTO 24009KT M /// /// M 08/04 A3025 RMK AO2 SLPNO T00750040 10115 20071 50000 $,K1QW,2015-02-13T05:56:00Z,46.8,-120.17,7.5,4.0,240,9,,,30.250984,,,TRUE,TRUE,TRUE,,,,,,,,,,,,,,,0.0,11.5,7.1,,,,,,,,,METAR,928.0
K1YT 130556Z AUTO 18004KT 10SM CLR 05/04 A3030 RMK AO2 SLPNO T00530040 10141 20048 51005,K1YT,2015-02-13T05:56:00Z,46.67,-120.45,5.3,4.0,180,4,,10.0,30.301182,,,TRUE,TRUE,,,,,,,CLR,,,,,,,,VFR,0.5,14.1,4.8,,,,,,,,,METAR,438.0
K4MR 130556Z AUTO 20016KT 10SM CLR 04/M02 A3026 RMK AO2 SLPNO T00351025 10099 20034 55001,K4MR,2015-02-13T05:56:00Z,34.3,-103.8,3.5,-2.5,200,16,,10.0,30.259842,,,TRUE,TRUE,,,,,,,CLR,,,,,,,,VFR,-0.1,9.9,3.4,,,,,,,,,METAR,1326.0
KCWN 130556Z AUTO 26003KT 10SM CLR 04/M05 A2996 RMK AO2 SLPNO T00431055 10071 20043 52006,KCWN,2015-02-13T05:56:00Z,38.75,-104.85,4.3,-5.5,260,3,,10.0,29.958662,,,TRUE,TRUE,,,,,,,CLR,,,,,,,,VFR,0.6,7.1,4.3,,,,,,,,,METAR,2040.0
KGFA 130556Z AUTO 24009KT 10SM SCT075 09/M02 A3015 RMK AO2 SLPNO T00941017 10117 20063 57008,KGFA,2015-02-13T05:56:00Z,47.5,-111.17,9.4,-1.7,240,9,,10.0,30.15059,,,TRUE,TRUE,,,,,,,SCT,7500,,,,,,,VFR,-0.8,11.7,6.3,,,,,,,,,METAR,1075.0
KM63 130556Z AUTO 04005KT 10SM CLR 05/M04 A3030 RMK AO2 SLPNO T00511038 10125 20047 53004,KM63,2015-02-13T05:56:00Z,32.05,-106.15,5.1,-3.8,40,5,,10.0,30.301182,,,TRUE,TRUE,,,,,,,CLR,,,,,,,,VFR,0.4,12.5,4.7,,,,,,,,,METAR,1283.0
KSHM 130556Z AUTO 33007KT 10SM CLR 03/M08 A3026 RMK AO2 SLPNO T00331083 10102 20029 52006,KSHM,2015-02-13T05:56:00Z,38.8,-104.52,3.3,-8.3,330,7,,10.0,30.259842,,,TRUE,TRUE,,,,,,,CLR,,,,,,,,VFR,0.6,10.2,2.9,,,,,,,,,METAR,1900.0
PHSF 130556Z AUTO 34005G11KT 10SM CLR 14/M01 A3022 RMK AO2 SLP123 T01411009 10203 20139 52014 PWINO $,PHSF,2015-02-13T05:56:00Z,19.77,-155.55,14.1,-0.9,340,5,11,10.0,30.221457,1012.3,,TRUE,TRUE,TRUE,,,,TRUE,,CLR,,,,,,,,VFR,1.4,20.3,13.9,,,,,,,,,METAR,1887.0
KQFS 130556Z AUTO 29008G12KT 9999 M 05/M17 A3003 RMK AO2 SLPNO T00461169 10050 21019 $,KQFS,2015-02-13T05:56:00Z,100.65,-1000.65,4.6,-16.9,290,8,12,6.21,30.029528,,,TRUE,TRUE,TRUE,,,,,,,,,,,,,,,,5.0,-1.9,,,,,,,,,METAR,999.0
KMTW 130556Z AUTO 26004KT 10SM CLR M16/M19 A3036 RMK AO2 SLP306 6//// T11561194 11128 21156 411001156 56014 FZRANO,KMTW,2015-02-13T05:56:00Z,44.12,-87.67,-15.6,-19.4,260,4,,10.0,30.360237,1030.6,,TRUE,TRUE,,,,TRUE,,,CLR,,,,,,,,VFR,-1.4,-12.8,-15.6,-10.0,-15.6,,,,,,,METAR,198.0
KOWB 130556Z AUTO 36006KT 10SM CLR M07/M13 A3045 RMK AO2 TSNO 55003 T10661127 11050 21066 400001066 SLP318,KOWB,2015-02-13T05:56:00Z,37.72,-87.17,-6.6,-12.7,360,6,,10.0,30.448818,1031.8,,TRUE,TRUE,,,TRUE,,,,CLR,,,,,,,,VFR,-0.3,-5.0,-6.6,,-6.6,,,,,,,METAR,124.0
KOFK 130556Z AUTO 18009KT 10SM OVC075 M06/M12 A3018 RMK AO2 SLP248 T10561117 11056 21067 410561156 56021,KOFK,2015-02-13T05:56:00Z,41.98,-97.43,-5.6,-11.7,180,9,,10.0,30.180119,1024.8,,TRUE,TRUE,,,,,,,OVC,7500,,,,,,,VFR,-2.1,-5.6,-6.7,-5.6,-15.6,,,,,,,METAR,470.0
KNUQ 130556Z AUTO 00000KT 10SM CLR 14/09 A3015 RMK AO2 SLP212 T01390094 10211 20139 58000 TSNO,KNUQ,2015-02-13T05:56:00Z,37.4,-122.05,13.9,9.4,0,0,,10.0,30.15059,1021.2,,TRUE,TRUE,,,TRUE,,,,CLR,,,,,,,,VFR,0.0,21.1,13.9,,,,,,,,,METAR,12.0
PATC 130555Z AUTO 03022KT 7SM CLR M22/M23 A2986 RMK AO2 PK WND 03028/0455 SLP125 T12171235 11223 21238 51007,PATC,2015-02-13T05:55:00Z,65.57,-167.92,-21.7,-23.5,30,22,,7.0,29.861221,1012.5,,TRUE,TRUE,,,,,,,CLR,,,,,,,,VFR,0.7,-22.3,-23.8,,,,,,,,,METAR,83.0
PASV 130555Z AUTO 04003KT 10SM CLR 01/M03 A2959 RMK AO2 SLP039 T00141032 10027 21025 52007,PASV,2015-02-13T05:55:00Z,61.1,-155.57,1.4,-3.2,40,3,,10.0,29.589567,1003.9,,TRUE,TRUE,,,,,,,CLR,,,,,,,,VFR,0.7,2.7,-2.5,,,,,,,,,METAR,484.0
PALU 130555Z AUTO 11014KT 10SM CLR M26/M29 A3014 RMK AO2 SLP207 T12561286 11239 21257 51006,PALU,2015-02-13T05:55:00Z,68.88,-166.13,-25.6,-28.6,110,14,,10.0,30.138779,1020.7,,TRUE,TRUE,,,,,,,CLR,,,,,,,,VFR,0.6,-23.9,-25.7,,,,,,,,,METAR,3.0
PAIM 130555Z AUTO 15012KT 5SM -SN OVC026 M14/M17 A2978 RMK AO2 SNB0455 SLP130 P0000 60000 T11411172 11138 21155 54001,PAIM,2015-02-13T05:55:00Z,66.0,-153.7,-14.1,-17.2,150,12,,5.0,29.778543,1013.0,,TRUE,TRUE,,,,,,-SN,OVC,2600,,,,,,,MVFR,,-13.8,-15.5,,,0.0050,,0.0050,,,,METAR,389.0
MMGL 130555Z 33004KT 10SM -RA SCT025 BKN090 14/11 A3026 RMK SLP157 52022 920 60015 8/470,MMGL,2015-02-13T05:55:00Z,20.52,-103.32,14.0,11.0,330,4,,10.0,30.259842,1015.7,,,,,,,,,-RA,SCT,2500,BKN,9000,,,,,VFR,2.2,,,,,,,0.15,,,,METAR,1528.0
KFCI 130555Z AUTO 33011G17KT 10SM CLR M03/M18 A3014 RMK AO1 10030 21030 52027,KFCI,2015-02-13T05:55:00Z,37.4,-77.52,-3.0,-18.0,330,11,17,10.0,30.138779,,,TRUE,TRUE,,,,,,,CLR,,,,,,,,VFR,2.7,3.0,-3.0,,,,,,,,,METAR,72.0
LIPF 130555Z 00000KT 0800 FG SCT020 03/02 Q1024,LIPF,2015-02-13T05:55:00Z,44.82,11.62,3.0,2.0,0,0,,0.5,30.236221,,,,,,,,,,FG,SCT,2000,,,,,,,LIFR,,,,,,,,,,,,METAR,10.0
LIVP 130555Z 00000KT CAVOK M04/M10 Q1018 RMK SKC MON LIB VAL MAR CLD VIS MIN 9999,LIVP,2015-02-13T05:55:00Z,46.15,11.03,-4.0,-10.0,0,0,,6.21,30.059055,,,,,,,,,,,CAVOK,,,,,,,,VFR,,,,,,,,,,,,METAR,2129.0
LIVC 130555Z 31009KT CAVOK M01/M03 Q1019 RMK SKC MON LIB VAL NIL VIS MIN 9999,LIVC,2015-02-13T05:55:00Z,44.2,10.68,-1.0,-3.0,310,9,,6.21,30.088583,,,,,,,,,,,CAVOK,,,,,,,,VFR,,,,,,,,,,,,METAR,2173.0
LIPS 130555Z 04004KT 9999 BKN035 04/M00 Q1024 RMK BKN VIS MIN 9999 WIND THR26 /////KT WIND THR08 04006KT BLU,LIPS,2015-02-13T05:55:00Z,45.67,12.08,4.0,0.0,40,4,,6.21,30.236221,,,,,,,,,,,BKN,3500,,,,,,,VFR,,,,,,,,,,,,METAR,41.0
LIPI 130555Z 03007KT 8000 FEW030 BKN035 03/01 Q1025 RMK OVC VIS MIN 8000 WIND THR06 04007KT 320V040 BLU,LIPI,2015-02-13T05:55:00Z,45.97,13.05,3.0,1.0,30,7,,4.97,30.265747,,,,,,,,,,,FEW,3000,BKN,3500,,,,,MVFR,,,,,,,,,,,,METAR,53.0
LIPA 130555Z 09005KT 9999 OVC035 03/02 Q1024 RMK OVC VIS MIN 9999 A3027 BLU,LIPA,2015-02-13T05:55:00Z,46.02,12.58,3.0,2.0,90,5,,6.21,30.236221,,,,,,,,,,,OVC,3500,,,,,,,VFR,,,,,,,,,,,,METAR,126.0
LIMN 130555Z /////KT 3000 BR BKN030 03/01 Q1024 RMK BKN VIS MIN 3000 YLO,LIMN,2015-02-13T05:55:00Z,45.52,8.67,3.0,1.0,,,,1.86,30.236221,,,,,,,,,,BR,BKN,3000,,,,,,,IFR,,,,,,,,,,,,METAR,169.0
LIMK 130555Z 09004KT 2000 BR BKN011 02/02 Q1022 RMK BKN VAL FOSCHIA VIS MIN 2000,LIMK,2015-02-13T05:55:00Z,45.02,7.72,2.0,2.0,90,4,,1.24,30.177166,,,,,,,,,,BR,BKN,1100,,,,,,,IFR,,,,,,,,,,,,METAR,710.0
LICZ 130555Z 34003KT 9999 FEW070 05/05 Q1024 RMK FEW VIS MIN 9999 WIND THR28 33004KT A3024 BLU,LICZ,2015-02-13T05:55:00Z,37.38,14.92,5.0,5.0,340,3,,6.21,30.236221,,,,,,,,,,,FEW,7000,,,,,,,VFR,,,,,,,,,,,,METAR,22.0
LICT 130555Z 00000KT 9999 FEW020 SCT040 10/09 Q1022 RMK BKN BKN070 VIS MIN 9999 WIND THR13 /////KT BLU,LICT,2015-02-13T05:55:00Z,37.92,12.5,10.0,9.0,0,0,,6.21,30.177166,,,,,,,,,,,FEW,2000,SCT,4000,,,,,VFR,,,,,,,,,,,,METAR,7.0
LICG 130555Z /////KT 8000 -DZ SCT010 SCT020 11/08 Q1019,LICG,2015-02-13T05:55:00Z,36.82,11.97,11.0,8.0,,,,4.97,30.088583,,,,,,,,,,-DZ,SCT,1000,SCT,2000,,,,,MVFR,,,,,,,,,,,,METAR,191.0
LIBV 130555Z VRB01KT CAVOK M02/M02 Q1023 RMK FEW FEW060 VIS MIN 9999 WIND THR32 01001KT WIND THR14 VRB01KT BLU,LIBV,2015-02-13T05:55:00Z,40.77,16.92,-2.0,-2.0,0,1,,6.21,30.206694,,,,,,,,,,,CAVOK,,,,,,,,VFR,,,,,,,,,,,,METAR,350.0
LIBN 130555Z 12003KT CAVOK M02/M02 Q1024 RMK SKC VIS MIN 9999 WIND THR14 15002KT BLU,LIBN,2015-02-13T05:55:00Z,40.22,18.13,-2.0,-2.0,120,3,,6.21,30.236221,,,,,,,,,,,CAVOK,,,,,,,,VFR,,,,,,,,,,,,METAR,61.0
LIBA 130555Z /////KT CAVOK 04/02 Q1024 RMK SKC VIS MIN 9999 WIND THR29 02002KT BLU,LIBA,2015-02-13T05:55:00Z,41.52,15.72,4.0,2.0,,,,6.21,30.236221,,,,,,,,,,,CAVOK,,,,,,,,VFR,,,,,,,,,,,,METAR,60.0
NZWD 130555Z 07008KT 9999 FEW025 SCT065 BKN150 M10/M12 A2898 RMK SLP815 GRID24008KT SDG/HDG,NZWD,2015-02-13T05:55:00Z,-77.87,167.07,-10.0,-12.0,70,8,,6.21,28.981298,981.5,,,,,,,,,,FEW,2500,SCT,6500,BKN,15000,,,VFR,,,,,,,,,,,,METAR,22.0
KFHU 130555Z 10010KT 10SM FEW260 07/00 A3022 RMK SLP219 54000,KFHU,2015-02-13T05:55:00Z,31.58,-110.35,7.0,0.0,100,10,,10.0,30.221457,1021.9,,,,,,,,,,FEW,26000,,,,,,,VFR,,,,,,,,,,,,METAR,1438.0
TXKF 130555Z 25019KT 9999 FEW036 BKN050 18/10 Q1011 ,TXKF,2015-02-13T05:55:00Z,32.37,-64.68,18.0,10.0,250,19,,6.21,29.852362,,,,,,,,,,,FEW,3600,BKN,5000,,,,,VFR,,,,,,,,,,,,METAR,6.0
KPVE 130555Z AUTO 02007KT 10SM CLR M06/M14 A3043 RMK,KPVE,2015-02-13T05:55:00Z,35.65,-88.2,-6.0,-14.0,20,7,,10.0,30.431103,,,TRUE,,,,,,,,CLR,,,,,,,,VFR,,,,,,,,,,,,METAR,149.0
KPHP 130555Z AUTO 27011KT 10SM CLR M03/M06 A3011 RMK AO2 SLP218 T10331061 10061 21056 53007,KPHP,2015-02-13T05:55:00Z,44.05,-101.6,-3.3,-6.1,270,11,,10.0,30.109253,1021.8,,TRUE,TRUE,,,,,,,CLR,,,,,,,,VFR,0.7,6.1,-5.6,,,,,,,,,METAR,672.0
KMKG 130555Z AUTO 00000KT 10SM OVC033 M10/M14 A3037 RMK AO2 SNB37E46 SLP297 P0000 60000 T11001144 11100 21100 56013,KMKG,2015-02-13T05:55:00Z,43.17,-86.23,-10.0,-14.4,0,0,,10.0,30.369095,1029.7,,TRUE,TRUE,,,,,,,OVC,3300,,,,,,,VFR,-1.3,-10.0,-10.0,,,0.0050,,0.0050,,,,METAR,191.0
KLLJ 130555Z AUTO 13004KT 10SM CLR 00/M02 A3038 RMK AO2 SLP299 T00001022 10106 20000 51010,KLLJ,2015-02-13T05:55:00Z,44.52,-114.22,0.0,-2.2,130,4,,10.0,30.380905,1029.9,,TRUE,TRUE,,,,,,,CLR,,,,,,,,VFR,1.0,10.6,0.0,,,,,,,,,METAR,1536.0
KLIC 130555Z AUTO 36005KT 10SM CLR 01/M08 A3023 RMK AO2 SLP226 T00061078 10122 21028 53007,KLIC,2015-02-13T05:55:00Z,39.27,-103.67,0.6,-7.8,360,5,,10.0,30.230314,1022.6,,TRUE,TRUE,,,,,,,CLR,,,,,,,,VFR,0.7,12.2,-2.8,,,,,,,,,METAR,1630.0
KEAT 130555Z AUTO 00000KT 10SM CLR 07/04 A3029 RMK AO2 SLP264 T00720044 10144 20072 51006,KEAT,2015-02-13T05:55:00Z,47.4,-120.2,7.2,4.4,0,0,,10.0,30.28937,1026.4,,TRUE,TRUE,,,,,,,CLR,,,,,,,,VFR,0.6,14.4,7.2,,,,,,,,,METAR,377.0
KDLH 130555Z 24012KT 10SM BKN080 OVC090 M16/M22 A3017 RMK AO2 SLP258 T11561222 11150 21167 411391244 56027,KDLH,2015-02-13T05:55:00Z,46.85,-92.2,-15.6,-22.2,240,12,,10.0,30.171259,1025.8,,,TRUE,,,,,,,BKN,8000,OVC,9000,,,,,VFR,-2.7,-15.0,-16.7,-13.9,-24.4,,,,,,,METAR,435.0
KCNK 130555Z AUTO 14007KT 10SM BKN100 M06/M12 A3024 RMK AO2 SLP261 T10561117 11044 21056 410171117 58024,KCNK,2015-02-13T05:55:00Z,39.55,-97.65,-5.6,-11.7,140,7,,10.0,30.239174,1026.1,,TRUE,TRUE,,,,,,,BKN,10000,,,,,,,VFR,-2.4,-4.4,-5.6,-1.7,-11.7,,,,,,,METAR,447.0
KCMA 130555Z 00000KT 10SM CLR 14/03 A3006 RMK AO2 SLP188 T01440033 10294 20133 50001,KCMA,2015-02-13T05:55:00Z,34.22,-119.1,14.4,3.3,0,0,,10.0,30.059055,1018.8,,,TRUE,,,,,,,CLR,,,,,,,,VFR,0.1,29.4,13.3,,,,,,,,,METAR,23.0
KCAO 130555Z AUTO 27012KT 10SM CLR 06/M02 A3021 RMK AO2 SLP216 T00561022 10094 20044 58003,KCAO,2015-02-13T05:55:00Z,36.45,-103.15,5.6,-2.2,270,12,,10.0,30.209646,1021.6,,TRUE,TRUE,,,,,,,CLR,,,,,,,,VFR,-0.3,9.4,4.4,,,,,,,,,METAR,1514.0
KIRK 130555Z AUTO 17007KT 10SM OVC080 M08/M13 A3037 RMK AO2 SLP306 T10831128 11083 21094 410331144 58023,KIRK,2015-02-13T05:55:00Z,40.1,-92.55,-8.3,-12.8,170,7,,10.0,30.369095,1030.6,,TRUE,TRUE,,,,,,,OVC,8000,,,,,,,VFR,-2.3,-8.3,-9.4,-3.3,-14.4,,,,,,,METAR,293.0
KHON 130555Z AUTO 15005KT 10SM CLR M08/M13 A3012 RMK AO2 SLP227 T10781133 11072 21094 410721189 58014,KHON,2015-02-13T05:55:00Z,44.38,-98.23,-7.8,-13.3,150,5,,10.0,30.121063,1022.7,,TRUE,TRUE,,,,,,,CLR,,,,,,,,VFR,-1.4,-7.2,-9.4,-7.2,-18.9,,,,,,,METAR,390.0
KGPI 130555Z 00000KT 10SM OVC060 02/01 A3027 RMK AO2 SLP274 T00170006 10050 20017 53004,KGPI,2015-02-13T05:55:00Z,48.32,-114.25,1.7,0.6,0,0,,10.0,30.268702,1027.4,,,TRUE,,,,,,,OVC,6000,,,,,,,VFR,0.4,5.0,1.7,,,,,,,,,METAR,908.0
KUGN 130555Z 00000KT 10SM CLR M17/M20 A3039 RMK AO2 SLP319 T11721200 11122 21178 410891178 56009,KUGN,2015-02-13T05:55:00Z,42.42,-87.87,-17.2,-20.0,0,0,,10.0,30.389763,1031.9,,,TRUE,,,,,,,CLR,,,,,,,,VFR,-0.9,-12.2,-17.8,-8.9,-17.8,,,,,,,METAR,222.0
KSYI 130555Z AUTO 02008KT 10SM CLR M06/M12 A3036 RMK,KSYI,2015-02-13T05:55:00Z,35.57,-86.45,-6.0,-12.0,20,8,,10.0,30.360237,,,TRUE,,,,,,,,CLR,,,,,,,,VFR,,,,,,,,,,,,METAR,245.0
KSCK 130555Z AUTO 22004KT 9SM CLR 11/09 A3015 RMK AO2 SLP208 T01060094 10222 20106 58002,KSCK,2015-02-13T05:55:00Z,37.88,-121.22,10.6,9.4,220,4,,9.0,30.15059,1020.8,,TRUE,TRUE,,,,,,,CLR,,,,,,,,VFR,-0.2,22.2,10.6,,,,,,,,,METAR,10.0
KRNO 130555Z 00000KT 10SM BKN200 09/02 A3033 RMK AO2 SLP259 T00940022 10189 20089 51011,KRNO,2015-02-13T05:55:00Z,39.5,-119.77,9.4,2.2,0,0,,10.0,30.33071,1025.9,,,TRUE,,,,,,,BKN,20000,,,,,,,VFR,1.1,18.9,8.9,,,,,,,,,METAR,1342.0
KAST 130555Z AUTO 00000KT 10SM CLR 09/07 A3022 RMK AO2 SLP234 60000 T00890067 10144 20089 55007,KAST,2015-02-13T05:55:00Z,46.15,-123.88,8.9,6.7,0,0,,10.0,30.221457,1023.4,,TRUE,TRUE,,,,,,,CLR,,,,,,,,VFR,-0.7,14.4,8.9,,,,,0.0050,,,,METAR,3.0
KANJ 130555Z AUTO 00000KT 10SM SCT023 M23/M26 A3028 RMK AO2 SLP275 I1000 I6000 T12331261 11178 21233 58013,KANJ,2015-02-13T05:55:00Z,46.47,-84.37,-23.3,-26.1,0,0,,10.0,30.280512,1027.5,,TRUE,TRUE,,,,,,,SCT,2300,,,,,,,VFR,-1.3,-17.8,-23.3,,,,,,,,,METAR,218.0
LIRM 130555Z /////KT 9999 SCT040 SCT070 05/04 Q1022 RMK BKN VIS MIN 9999 WIND THR06 /////KT BLU,LIRM,2015-02-13T05:55:00Z,41.03,14.07,5.0,4.0,,,,6.21,30.177166,,,,,,,,,,,SCT,4000,SCT,7000,,,,,VFR,,,,,,,,,,,,METAR,10.0
LIQW 130555Z 32008KT 9999 SCT025 04/03 Q1022 RMK SCT VIS MIN 9999 BLU,LIQW,2015-02-13T05:55:00Z,44.07,9.97,4.0,3.0,320,8,,6.21,30.177166,,,,,,,,,,,SCT,2500,,,,,,,VFR,,,,,,,,,,,,METAR,10.0
LIQC 130555Z ///01KT 9999 BKN030 09/03 Q1023 RMK BKN QUK 1 QUL 0 VIS MAR 20 KM VIS MIN 9999,LIQC,2015-02-13T05:55:00Z,40.55,14.2,9.0,3.0,,,,6.21,30.206694,,,,,,,,,,,BKN,3000,,,,,,,MVFR,,,,,,,,,,,,METAR,269.0
LIRK 130555Z AUTO /////KT //// ///// Q////,LIRK,2015-02-13T05:55:00Z,42.47,12.97,,,,,,,,,,TRUE,,,,,,,,,,,,,,,,,,,,,,,,,,,,METAR,1875.0
LIRE 130555Z 10007KT 9999 FEW020 SCT030 BKN045 09/07 Q1023 RMK BKN VIS MIN 9999 WIND THR31 /////KT BLU,LIRE,2015-02-13T05:55:00Z,41.63,12.42,9.0,7.0,100,7,,6.21,30.206694,,,,,,,,,,,FEW,2000,SCT,3000,BKN,4500,,,VFR,,,,,,,,,,,,METAR,12.0
LIQO 130555Z 00000KT 9999 SCT001 07/07 Q1021 RMK BKN VAL CLD SCT ELEV VIS MIN 9999,LIQO,2015-02-13T05:55:00Z,42.37,11.17,7.0,7.0,0,0,,6.21,30.147638,,,,,,,,,,,SCT,100,,,,,,,VFR,,,,,,,,,,,,METAR,632.0
LIVD 130555Z 00000KT CAVOK M06/M08 Q1021 RMK SKC VIS MIN 9999,LIVD,2015-02-13T05:55:00Z,46.72,12.22,-6.0,-8.0,0,0,,6.21,30.147638,,,,,,,,,,,CAVOK,,,,,,,,VFR,,,,,,,,,,,,METAR,1226.0
LIRX 130555Z 18002KT 9999 SCT006 08/06 Q1020 RMK SCT VIS MIN 9999 VIS MAR 10 KM,LIRX,2015-02-13T05:55:00Z,42.73,10.38,8.0,6.0,180,2,,6.21,30.11811,,,,,,,,,,,SCT,600,,,,,,,VFR,,,,,,,,,,,,METAR,297.0
LIRT 130555Z 06006KT CAVOK 00/M04 Q1020 RMK SKC MON LIB VAL NIL VIS MIN 9999,LIRT,2015-02-13T05:55:00Z,41.03,15.22,0.0,-4.0,60,6,,6.21,30.11811,,,,,,,,,,,CAVOK,,,,,,,,VFR,,,,,,,,,,,,METAR,1093.0
LIVF 130555Z 25002KT 9999 FEW030 02/M00 Q1022 RMK BKN SCT080 MON LIB VAL NW CLD SCT VIS MIN 9999,LIVF,2015-02-13T05:55:00Z,43.52,12.72,2.0,0.0,250,2,,6.21,30.177166,,,,,,,,,,,FEW,3000,,,,,,,VFR,,,,,,,,,,,,METAR,574.0
LIVT 130555Z 04008KT 9999 FEW030 05/M03 Q1024 RMK BKN SCT060 QUK / QUL / VIS MAR 20 KM VIS MIN 9999,LIVT,2015-02-13T05:55:00Z,45.68,13.75,5.0,-3.0,40,8,,6.21,30.236221,,,,,,,,,,,FEW,3000,,,,,,,VFR,,,,,,,,,,,,METAR,20.0
LIVR 130555Z 00000KT CAVOK M04/M08 Q1017 RMK SKC MON LIB VIS MIN 9999,LIVR,2015-02-13T05:55:00Z,46.28,11.77,-4.0,-8.0,0,0,,6.21,30.029528,,,,,,,,,,,CAVOK,,,,,,,,VFR,,,,,,,,,,,,METAR,2006.0
LIVO 130555Z 08001KT 9999 OVC015 M01/M02 Q1022 RMK OVC VIS MIN 9999,LIVO,2015-02-13T05:55:00Z,46.5,13.57,-1.0,-2.0,80,1,,6.21,30.177166,,,,,,,,,,,OVC,1500,,,,,,,MVFR,,,,,,,,,,,,METAR,778.0
LIVM 130555Z ///04KT 4000 BR FEW020 04/02 Q1024 RMK FEW QUK 0 QUL 0 VIS MAR 4 KM VIS MIN 4000,LIVM,2015-02-13T05:55:00Z,44.45,12.3,4.0,2.0,,,,2.49,30.236221,,,,,,,,,,BR,FEW,2000,,,,,,,IFR,,,,,,,,,,,,METAR,6.0
LIMY 130555Z 26004KT 3000 BR SCT010 BKN015 01/01 Q1023 RMK OVC VAL FOSCHIA VIS MIN 3000,LIMY,2015-02-13T05:55:00Z,44.25,7.78,1.0,1.0,260,4,,1.86,30.206694,,,,,,,,,,BR,SCT,1000,BKN,1500,,,,,IFR,,,,,,,,,,,,METAR,1742.0
LIMH 130555Z /////KT CAVOK M10/M17 Q1016 RMK SKC MON LIB VAL NIL VIS MIN 9999,LIMH,2015-02-13T05:55:00Z,45.93,7.7,-10.0,-17.0,,,,6.21,30.0,,,,,,,,,,,CAVOK,,,,,,,,VFR,,,,,,,,,,,,METAR,3488.0
LIED 130555Z 34003KT 9999 FEW010 04/03 Q1020 RMK BKN BKN200 VIS MIN 9999 WIND THR35 33003KT WIND THR17 34003KT BLU,LIED,2015-02-13T05:55:00Z,39.35,8.97,4.0,3.0,340,3,,6.21,30.11811,,,,,,,,,,,FEW,1000,,,,,,,VFR,,,,,,,,,,,,METAR,28.0
LICF 130555Z 25004KT 9999 FEW030 10/05 Q1022 RMK SCT SCT200 QUK 1 QUL 0 VIS MAR 16 KM MON LIB VAR RAPID VIS MIN 9999,LICF,2015-02-13T05:55:00Z,38.2,15.55,10.0,5.0,250,4,,6.21,30.177166,,,,,,,,,,,FEW,3000,,,,,,,VFR,,,,,,,,,,,,METAR,51.0
LIBY 130555Z 02008KT CAVOK 04/M01 Q1022 RMK SKC QUK 1 QUL 0 VIS MAR 20 KM VIS MAX 20 KM VIS MIN 9999,LIBY,2015-02-13T05:55:00Z,39.82,18.35,4.0,-1.0,20,8,,6.21,30.177166,,,,,,,,,,,CAVOK,,,,,,,,VFR,,,,,,,,,,,,METAR,112.0
KQTZ 130555Z 00000KT 4000 HZ CLR 13/01 A3013 RMK SLP203 WND DATA ESTMD ALSTG/SLP ESTMD 51008,KQTZ,2015-02-13T05:55:00Z,100.65,-1000.65,13.0,1.0,0,0,,2.49,30.129921,1020.3,,,,,,,,,HZ,CLR,,,,,,,,IFR,0.8,,,,,,,,,,,METAR,999.0
KQTH 130555Z AUTO 16020KT 9999 CLR 23/13 A3012 RMK AO2 SLP184 T02310130 51014 $,KQTH,2015-02-13T05:55:00Z,100.65,-1000.65,23.1,13.0,160,20,,6.21,30.121063,1018.4,,TRUE,TRUE,TRUE,,,,,,CLR,,,,,,,,VFR,1.4,,,,,,,,,,,METAR,999.0
KQGV 130555Z 03007KT 3200 HZ BKN180 12/M02 A3014 RMK SLPNO QNH1021 PA +263 53008,KQGV,2015-02-13T05:55:00Z,100.65,-1000.65,12.0,-2.0,30,7,,1.99,30.138779,,,,,,,,,,HZ,BKN,18000,,,,,,,IFR,0.8,,,,,,,,,,,METAR,999.0
RJOI 130555Z 31012KT 9999 FEW030 SCT050 08/09 A2995 RMK SLP143 T00781094 10078 20039 53003,RJOI,2015-02-13T05:55:00Z,34.13,132.22,7.8,9.0,310,12,,6.21,29.949802,1014.3,,,,,,,,,,FEW,3000,SCT,5000,,,,,VFR,0.3,7.8,3.9,,,,,,,,,METAR,2.0
LIPC 130555Z 28004KT 0050 R11/0250 FG NSC 00/M03 Q1024,LIPC,2015-02-13T05:55:00Z,44.22,12.3,0.0,-3.0,280,4,,0.03,30.236221,,,,,,,,,,FG,,,,,,,,,,,,,,,,,,,,,METAR,10.0
LIMS 130555Z 27005KT 1800 BR SCT025 M02/M02 Q1023 RMK SCT VIS MIN 1800 WIND THR30 25002KT YLO,LIMS,2015-02-13T05:55:00Z,44.92,9.72,-2.0,-2.0,270,5,,1.12,30.206694,,,,,,,,,,BR,SCT,2500,,,,,,,IFR,,,,,,,,,,,,METAR,138.0
LIRS 130555Z /////KT 1800 BR BKN018 03/02 Q1022 RMK BKN VIS MIN 1800 WIND THR03 04005KT WIND THR21 /////KT YLO,LIRS,2015-02-13T05:55:00Z,42.75,11.07,3.0,2.0,,,,1.12,30.177166,,,,,,,,,,BR,BKN,1800,,,,,,,IFR,,,,,,,,,,,,METAR,7.0
LIRV 130555Z 04006KT 9999 FEW018 BKN023 05/02 Q1022 RMK BKN MON E SE CLD CIME VAR RAPID VIS MIN 9999 WHT,LIRV,2015-02-13T05:55:00Z,42.42,12.07,5.0,2.0,40,6,,6.21,30.177166,,,,,,,,,,,FEW,1800,BKN,2300,,,,,MVFR,,,,,,,,,,,,METAR,300.0
LIRL 130555Z 01002KT 9999 SCT025 SCT060 08/06 Q1023 RMK BKN MON LIB VAR RAPID VIS MIN 9999 WIND THR30 35002KT BLU,LIRL,2015-02-13T05:55:00Z,41.53,12.9,8.0,6.0,10,2,,6.21,30.206694,,,,,,,,,,,SCT,2500,SCT,6000,,,,,VFR,,,,,,,,,,,,METAR,26.0
LIRH 130555Z 31003KT 4000 BR FEW030 03/01 Q1023 RMK SCT MON CIME INC VAR RAPID VIS MIN 4000 WIND THR16 00000KT GRN,LIRH,2015-02-13T05:55:00Z,41.65,13.3,3.0,1.0,310,3,,2.49,30.206694,,,,,,,,,,BR,FEW,3000,,,,,,,IFR,,,,,,,,,,,,METAR,181.0
LIRG 130555Z 02002KT 9999 SCT030 BKN035 08/06 Q1023 RMK OVC MON NE CIME INC VIS MIN 9999 BLU,LIRG,2015-02-13T05:55:00Z,42.0,12.72,8.0,6.0,20,2,,6.21,30.206694,,,,,,,,,,,SCT,3000,BKN,3500,,,,,VFR,,,,,,,,,,,,METAR,89.0
LIEB 130555Z 32010KT 9999 BKN030 08/04 Q1022 RMK BKN QUK / QUL / VIS MAR 20 KM MON INVIS VIS MIN 9999,LIEB,2015-02-13T05:55:00Z,39.93,9.72,8.0,4.0,320,10,,6.21,30.177166,,,,,,,,,,,BKN,3000,,,,,,,MVFR,,,,,,,,,,,,METAR,156.0
LIBQ 130555Z 06008KT CAVOK M03/M05 Q1018 RMK SKC MON LIB VAL NIL VIS MIN 9999,LIBQ,2015-02-13T05:55:00Z,39.32,16.38,-3.0,-5.0,60,8,,6.21,30.059055,,,,,,,,,,,CAVOK,,,,,,,,VFR,,,,,,,,,,,,METAR,1720.0
MUHA 130555Z 35005KT 9000 FEW040 17/11 Q1019,MUHA,2015-02-13T05:55:00Z,22.97,-82.42,17.0,11.0,350,5,,5.59,30.088583,,,,,,,,,,,FEW,4000,,,,,,,VFR,,,,,,,,,,,,METAR,64.0
KQL5 130555Z VRB01KT 5000 HZ FEW140 BKN200 19/01 A3003 RMK SLP165 T01880011 10131 20098 50001,KQL5,2015-02-13T05:55:00Z,100.65,-1000.65,18.8,1.1,0,1,,3.11,30.029528,1016.5,,,,,,,,,HZ,FEW,14000,BKN,20000,,,,,MVFR,0.1,13.1,9.8,,,,,,,,,METAR,999.0
KQSA 130555Z 28004KT 9999 VCSH FEW060 SCT100 BKN200 13/04 A3010 RMK AO2A SLP142 SHRA NW 60000 T01330041 10137 20046 51008,KQSA,2015-02-13T05:55:00Z,100.65,-1000.65,13.3,4.1,280,4,,6.21,30.100393,1014.2,,,TRUE,,,,,,VCSH,FEW,6000,SCT,10000,BKN,20000,,,VFR,0.8,13.7,4.6,,,,,0.0050,,,,METAR,999.0
KQTC 130555Z AUTO 07008KT 10SM CLR RMK AO2 SLPNO 52012 $,KQTC,2015-02-13T05:55:00Z,100.65,-1000.65,,,70,8,,10.0,,,,TRUE,TRUE,TRUE,,,,,,CLR,,,,,,,,VFR,1.2,,,,,,,,,,,METAR,999.0
NZCM 130555Z 05010G15KT 9999 SCT025 BKN060 BKN120 M05/M21 A2895 RMK SLP806,NZCM,2015-02-13T05:55:00Z,-77.87,166.97,-5.0,-21.0,50,10,15,6.21,28.948818,980.6,,,,,,,,,,SCT,2500,BKN,6000,BKN,12000,,,VFR,,,,,,,,,,,,METAR,8.0
KGXA 130555Z AUTO 15005KT 10SM CLR 08/M07 A3021 RMK AO2 SLP231 T00841067 10216 20096 54001 PWINO TSNO $,KGXA,2015-02-13T05:55:00Z,34.57,-117.67,8.4,-6.7,150,5,,10.0,30.209646,1023.1,,TRUE,TRUE,TRUE,,TRUE,,TRUE,,CLR,,,,,,,,VFR,,21.6,9.6,,,,,,,,,METAR,923.0
KNBG 130555Z AUTO 01008G15KT 10SM CLR 07/M04 A3031 RMK AO2 SLP264 T00721044 10156 20072 401830056 51011 $,KNBG,2015-02-13T05:55:00Z,29.82,-90.02,7.2,-4.4,10,8,15,10.0,30.31004,1026.4,,TRUE,TRUE,TRUE,,,,,,CLR,,,,,,,,VFR,1.1,15.6,7.2,18.3,5.6,,,,,,,METAR,1.0
KBGF 130555Z AUTO 01007KT 10SM CLR M07/M12 A3033 RMK,KBGF,2015-02-13T05:55:00Z,35.18,-86.07,-7.0,-12.0,10,7,,10.0,30.33071,,,TRUE,,,,,,,,CLR,,,,,,,,VFR,,,,,,,,,,,,METAR,299.0
PAFB 130555Z 00000KT 7SM FEW120 M19/M22 A2979 RMK SLP104 4/013 54000 LAST,PAFB,2015-02-13T05:55:00Z,64.83,-147.62,-19.0,-22.0,0,0,,7.0,29.790354,1010.4,,,,,,,,,,FEW,12000,,,,,,,VFR,,,,,,,,,,13.0,,METAR,137.0
KBYS 130555Z AUTO 33005KT 10SM CLR 16/M08 A3019 RMK AO2 SLP208 T01581080 10225 20151 54001 $,KBYS,2015-02-13T05:55:00Z,35.28,-116.62,15.8,-8.0,330,5,,10.0,30.188976,1020.8,,TRUE,TRUE,TRUE,,,,,,CLR,,,,,,,,VFR,,22.5,15.1,,,,,,,,,METAR,716.0
K9L2 130555Z AUTO 35006KT 10SM CLR 07/M03 A3019 RMK AO2 SLP225 T00721033 10233 20072 50004 TSNO $,K9L2,2015-02-13T05:55:00Z,34.97,-117.87,7.2,-3.3,350,6,,10.0,30.188976,1022.5,,TRUE,TRUE,TRUE,,TRUE,,,,CLR,,,,,,,,VFR,0.4,23.3,7.2,,,,,,,,,METAR,701.0
LIMT 130555Z 00000KT CAVOK 01/M01 Q1021 RMK SKC MON LIB VAL NIL VIS MIN 9999,LIMT,2015-02-13T05:55:00Z,44.47,9.92,1.0,-1.0,0,0,,6.21,30.147638,,,,,,,,,,,CAVOK,,,,,,,,VFR,,,,,,,,,,,,METAR,1040.0
LIMU 130555Z 35007KT CAVOK 10/M04 Q1021 RMK SCT SCT080 QUK / QUL / VIS MAR 40 KM VIS MIN 9999,LIMU,2015-02-13T05:55:00Z,43.95,8.17,10.0,-4.0,350,7,,6.21,30.147638,,,,,,,,,,,CAVOK,,,,,,,,VFR,,,,,,,,,,,,METAR,221.0
LIVE 130555Z /////KT CAVOK M07/M10 Q1021 RMK SKC VIS MIN 9999,LIVE,2015-02-13T05:55:00Z,46.85,10.5,-7.0,-10.0,,,,6.21,30.147638,,,,,,,,,,,CAVOK,,,,,,,,VFR,,,,,,,,,,,,METAR,1800.0
KBBD 130555Z AUTO 15003KT 10SM CLR 06/M03 A3034 RMK,KBBD,2015-02-13T05:55:00Z,31.18,-99.32,6.0,-3.0,150,3,,10.0,30.339567,,,TRUE,,,,,,,,CLR,,,,,,,,VFR,,,,,,,,,,,,METAR,557.0
KEGI 130555Z 01005KT 10SM CLR 03/M07 A3024 RMK AO2A SLP243 T00281067 10121 20027 401820027 51012 $,KEGI,2015-02-13T05:55:00Z,30.63,-86.52,2.8,-6.7,10,5,,10.0,30.239174,1024.3,,,TRUE,TRUE,,,,,,CLR,,,,,,,,VFR,1.2,12.1,2.7,18.2,2.7,,,,,,,METAR,59.0
KQWM 130555Z VRB06KT 4000 HZ BKN270 12/M01 A3014 RMK SLP208 QNH1020,KQWM,2015-02-13T05:55:00Z,100.65,-1000.65,12.0,-1.0,0,6,,2.49,30.138779,1020.8,,,,,,,,,HZ,BKN,27000,,,,,,,IFR,,,,,,,,,,,,METAR,999.0
KQLP 130555Z AUTO 03002KT 21/08 Q1025 RMK AO2 SLP179 T02050081 PWINO TSNO $,KQLP,2015-02-13T05:55:00Z,100.65,-1000.65,20.5,8.1,30,2,,,30.265747,1017.9,,TRUE,TRUE,TRUE,,TRUE,,TRUE,,,,,,,,,,,,,,,,,,,,,,METAR,999.0
KVPS 130555Z 01010KT 10SM CLR 04/M07 A3024 RMK AO2A SLP247 T00411070 10129 20041 401860041 51012 $,KVPS,2015-02-13T05:55:00Z,30.47,-86.52,4.1,-7.0,10,10,,10.0,30.239174,1024.7,,,TRUE,TRUE,,,,,,CLR,,,,,,,,VFR,1.2,12.9,4.1,18.6,4.1,,,,,,,METAR,26.0
KNKX 130555Z 10004KT 10SM CLR 17/M04 A3003 RMK AO2 SLP162 T01721044 10300 20144 58004,KNKX,2015-02-13T05:55:00Z,32.87,-117.13,17.2,-4.4,100,4,,10.0,30.029528,1016.2,,,TRUE,,,,,,,CLR,,,,,,,,VFR,-0.4,30.0,14.4,,,,,,,,,SPECI,146.0
KSNH 130555Z AUTO 01008KT 10SM CLR M05/M13 A3042 RMK,KSNH,2015-02-13T05:55:00Z,35.17,-88.22,-5.0,-13.0,10,8,,10.0,30.41929,,,TRUE,,,,,,,,CLR,,,,,,,,VFR,,,,,,,,,,,,METAR,144.0
KSRB 130555Z AUTO 00000KT 10SM CLR M06/M13 A3032 RMK,KSRB,2015-02-13T05:55:00Z,36.05,-85.53,-6.0,-13.0,0,0,,10.0,30.318897,,,TRUE,,,,,,,,CLR,,,,,,,,VFR,,,,,,,,,,,,METAR,313.0
KQXT 130555Z 17010KT 9999 OVC200 22/03 A3001 RMK SLP142 WND DATA ESTMD ALSTG/SLP ESTMD Q1016 50008,KQXT,2015-02-13T05:55:00Z,100.65,-1000.65,22.0,3.0,170,10,,6.21,30.008858,1014.2,,,,,,,,,,OVC,20000,,,,,,,VFR,0.8,,,,,,,,,,,METAR,999.0
KVBG 130555Z AUTO 12006KT 10SM CLR 11/05 A3010 RMK AO2 SLP183 T01110050 10244 20100 58003 TSNO $,KVBG,2015-02-13T05:55:00Z,34.73,-120.58,11.1,5.0,120,6,,10.0,30.100393,1018.3,,TRUE,TRUE,TRUE,,TRUE,,,,CLR,,,,,,,,VFR,-0.3,24.4,10.0,,,,,,,,,METAR,112.0
KQCL 130555Z AUTO 09002KT 17/M01 A3009 RMK AO2 SLP187 T01711010 10074 20041 50008 PWINO TSNO $,KQCL,2015-02-13T05:55:00Z,100.65,-1000.65,17.1,-1.0,90,2,,,30.088583,1018.7,,TRUE,TRUE,TRUE,,TRUE,,TRUE,,,,,,,,,,,0.8,7.4,4.1,,,,,,,,,METAR,999.0
KQFG 130555Z AUTO VRB01KT 9999 FEW120 18/01 A3006 RMK AO2 SLP171 T01770012 10150 20100 50002,KQFG,2015-02-13T05:55:00Z,100.65,-1000.65,17.7,1.2,0,1,,6.21,30.059055,1017.1,,TRUE,TRUE,,,,,,,FEW,12000,,,,,,,VFR,0.2,15.0,10.0,,,,,,,,,METAR,999.0
KQEA 130555Z AUTO 27009KT 10SM SCT085 31/19 A2981 RMK AO2 SLP095 T03080192 10292 20235 57022,KQEA,2015-02-13T05:55:00Z,100.65,-1000.65,30.8,19.2,270,9,,10.0,29.811024,1009.5,,TRUE,TRUE,,,,,,,SCT,8500,,,,,,,VFR,-2.2,29.2,23.5,,,,,,,,,METAR,999.0
KQFQ 130555Z AUTO VRB06KT 10SM CLR 03/M14 A3005 RMK AO2 SLP181 T00271139 10035 21070 57011 $,KQFQ,2015-02-13T05:55:00Z,100.65,-1000.65,2.7,-13.9,0,6,,10.0,30.050198,1018.1,,TRUE,TRUE,TRUE,,,,,,CLR,,,,,,,,VFR,-1.1,3.5,-7.0,,,,,,,,,METAR,999.0
KQQY 130555Z AUTO VRB01KT 9999 FEW013 SCT019 BKN100 BKN130 23/22 A3000 RMK AO2 SLP138 T02340224 10258 20231 58008,KQQY,2015-02-13T05:55:00Z,100.65,-1000.65,23.4,22.4,0,1,,6.21,30.0,1013.8,,TRUE,TRUE,,,,,,,FEW,1300,SCT,1900,BKN,10000,BKN,13000,VFR,-0.8,25.8,23.1,,,,,,,,,METAR,999.0
KQHN 130555Z VRB05KT 9999 BKN240 20/02 A3006 RMK SLP131 Q1018 DA4591,KQHN,2015-02-13T05:55:00Z,100.65,-1000.65,20.0,2.0,0,5,,6.21,30.059055,1013.1,,,,,,,,,,BKN,24000,,,,,,,VFR,,,,,,,,,,,,METAR,999.0
KQSF 130555Z AUTO VRB04KT 9999 FEW170 13/01 A3017 RMK AO2 SLP223 T01300009 10076 20066 50001 $,KQSF,2015-02-13T05:55:00Z,100.65,-1000.65,13.0,0.9,0,4,,6.21,30.171259,1022.3,,TRUE,TRUE,TRUE,,,,,,FEW,17000,,,,,,,VFR,0.1,7.6,6.6,,,,,,,,,METAR,999.0
OPMT 130555Z 00000KT 4000 HZ FEW120 21/06 Q1013 NOSIG,OPMT,2015-02-13T05:55:00Z,30.18,71.42,21.0,6.0,0,0,,2.49,29.911417,,,,,,TRUE,,,,HZ,FEW,12000,,,,,,,IFR,,,,,,,,,,,,METAR,123.0
KMTP 130554Z AUTO 32017G24KT M06/M13 A2980 RMK AO1 PK WND 31030/0512 SLP089 T10561128 10006 21056 51016,KMTP,2015-02-13T05:54:00Z,41.07,-71.92,-5.6,-12.8,320,17,24,,29.799213,1008.9,,TRUE,TRUE,,,,,,,,,,,,,,,,1.6,0.6,-5.6,,,,,,,,,METAR,2.0
KACY 130554Z 31017G25KT 10SM CLR M07/M16 A2997 RMK AO2 PK WND 31035/0533 SLP148 T10671161 10000 21067 51029,KACY,2015-02-13T05:54:00Z,39.45,-74.57,-6.7,-16.1,310,17,25,10.0,29.970472,1014.8,,,TRUE,,,,,,,CLR,,,,,,,,VFR,2.9,0.0,-6.7,,,,,,,,,METAR,23.0
KEWN 130554Z AUTO 32014G18KT 10SM CLR 01/M11 A3012 RMK AO2 SLP200 60000 T00111106 10067 20011 51028,KEWN,2015-02-13T05:54:00Z,35.07,-77.05,1.1,-10.6,320,14,18,10.0,30.121063,1020.0,,TRUE,TRUE,,,,,,,CLR,,,,,,,,VFR,2.8,6.7,1.1,,,,,0.0050,,,,METAR,3.0
KPTW 130554Z AUTO 32018G24KT 10SM CLR M12/M20 A3007 RMK AO2 PK WND 32026/0541 SLP183 T11171200 11022 21117 51039,KPTW,2015-02-13T05:54:00Z,40.23,-75.55,-11.7,-20.0,320,18,24,10.0,30.070866,1018.3,,TRUE,TRUE,,,,,,,CLR,,,,,,,,VFR,3.9,-2.2,-11.7,,,,,,,,,METAR,92.0
KPSF 130554Z AUTO 29011G24KT 250V340 8SM BKN032 M16/M22 A2980 RMK AO2 PK WND 30040/0515 UPB22E31SNE0458B06E22 SLP115 P0000 60000 T11561222 11089 21156 51020,KPSF,2015-02-13T05:54:00Z,42.43,-73.28,-15.6,-22.2,290,11,24,8.0,29.799213,1011.5,,TRUE,TRUE,,,,,,,BKN,3200,,,,,,,VFR,2.0,-8.9,-15.6,,,0.0050,,0.0050,,,,METAR,355.0
KPNE 130554Z 32020G29KT 10SM FEW028 M08/M21 A3005 RMK AO2 PK WND 32032/0531 SLP176 T10831206 10006 21083 53040,KPNE,2015-02-13T05:54:00Z,40.08,-75.02,-8.3,-20.6,320,20,29,10.0,30.050198,1017.6,,,TRUE,,,,,,,FEW,2800,,,,,,,VFR,4.0,0.6,-8.3,,,,,,,,,METAR,28.0
KPLN 130554Z AUTO 00000KT 10SM OVC035 M26/M28 A3032 RMK AO2 SLP291 T12561283 11178 21256 56015,KPLN,2015-02-13T05:54:00Z,45.57,-84.8,-25.6,-28.3,0,0,,10.0,30.318897,1029.1,,TRUE,TRUE,,,,,,,OVC,3500,,,,,,,VFR,-1.5,-17.8,-25.6,,,,,,,,,METAR,217.0
KPIA 130554Z 00000KT 10SM CLR M12/M16 A3044 RMK AO2 SLP322 T11171156 11089 21117 410671117 56017,KPIA,2015-02-13T05:54:00Z,40.67,-89.68,-11.7,-15.6,0,0,,10.0,30.43996,1032.2,,,TRUE,,,,,,,CLR,,,,,,,,VFR,-1.7,-8.9,-11.7,-6.7,-11.7,,,,,,,METAR,205.0
KPHL 130554Z 31016G28KT 10SM FEW050 M08/M20 A3006 RMK AO2 PK WND 32034/0511 SLP180 T10831200 10006 21083 53039,KPHL,2015-02-13T05:54:00Z,39.87,-75.23,-8.3,-20.0,310,16,28,10.0,30.059055,1018.0,,,TRUE,,,,,,,FEW,5000,,,,,,,VFR,3.9,0.6,-8.3,,,,,,,,,METAR,18.0
KPHF 130554Z 32014G21KT 10SM CLR M02/M13 A3012 RMK AO2 PK WND 32026/0509 SLP198 T10221128 10022 21022 53031,KPHF,2015-02-13T05:54:00Z,37.13,-76.5,-2.2,-12.8,320,14,21,10.0,30.121063,1019.8,,,TRUE,,,,,,,CLR,,,,,,,,VFR,3.1,2.2,-2.2,,,,,,,,,METAR,12.0
PTTP 130554Z COR 04004KT 15SM BKN017 BKN130 OVC300 28/26 A2978 RMK SLP083 60009 8/171 T02780255 10306 20276 55002,PTTP,2015-02-13T05:54:00Z,6.97,158.22,27.8,25.5,40,4,,15.0,29.778543,1008.3,TRUE,,,,,,,,,BKN,1700,BKN,13000,OVC,30000,,,MVFR,-0.2,30.6,27.6,,,,,0.09,,,,METAR,2.0
KDMH 130554Z AUTO M08/M19 A3013 RMK AO1 SLP201 T10831189 11017 21083 53024,KDMH,2015-02-13T05:54:00Z,39.28,-76.62,-8.3,-18.9,,,,,30.129921,1020.1,,TRUE,TRUE,,,,,,,,,,,,,,,,2.4,-1.7,-8.3,,,,,,,,,METAR,5.0
KMOT 130554Z AUTO 26009KT 10SM CLR M06/M09 A3002 RMK AO2 SLP201 T10611089 11061 21094 410611228 56009,KMOT,2015-02-13T05:54:00Z,48.25,-101.27,-6.1,-8.9,260,9,,10.0,30.02067,1020.1,,TRUE,TRUE,,,,,,,CLR,,,,,,,,VFR,-0.9,-6.1,-9.4,-6.1,-22.8,,,,,,,METAR,519.0
KMEM 130554Z 06011KT 10SM FEW150 BKN250 M03/M13 A3042 RMK AO2 SLP303 T10331133 11011 21033 400501033 58008,KMEM,2015-02-13T05:54:00Z,35.07,-89.98,-3.3,-13.3,60,11,,10.0,30.41929,1030.3,,,TRUE,,,,,,,FEW,15000,BKN,25000,,,,,VFR,-0.8,-1.1,-3.3,5.0,-3.3,,,,,,,METAR,86.0
KMFI 130554Z AUTO 00000KT 10SM BKN120 M19/M23 A3028 RMK AO2 SLP290 T11891233 11144 21200 411331200 56020,KMFI,2015-02-13T05:54:00Z,,,-18.9,-23.3,0,0,,10.0,30.280512,1029.0,,TRUE,TRUE,,,,,,,BKN,12000,,,,,,,VFR,-2.0,-14.4,-20.0,-13.3,-20.0,,,,,,,METAR,
KMGJ 130554Z AUTO 32007KT 280V350 10SM OVC042 M13/M21 A2996 RMK AO2 SLP151 T11331211 11039 21133 53027 TSNO,KMGJ,2015-02-13T05:54:00Z,41.52,-74.27,-13.3,-21.1,320,7,,10.0,29.958662,1015.1,,TRUE,TRUE,,,TRUE,,,,OVC,4200,,,,,,,VFR,2.7,-3.9,-13.3,,,,,,,,,METAR,108.0
KMIV 130554Z AUTO 31010G24KT 10SM CLR M08/M18 A3002 RMK AO2 PK WND 31029/0504 SLP166 T10781178 10006 21078 52031,KMIV,2015-02-13T05:54:00Z,39.37,-75.08,-7.8,-17.8,310,10,24,10.0,30.02067,1016.6,,TRUE,TRUE,,,,,,,CLR,,,,,,,,VFR,3.1,0.6,-7.8,,,,,,,,,METAR,23.0
KMKC 130554Z 15005KT 10SM OVC095 M04/M14 A3037 RMK AO2 SLP294 T10441139 11039 21044 400001111 58017,KMKC,2015-02-13T05:54:00Z,39.12,-94.6,-4.4,-13.9,150,5,,10.0,30.369095,1029.4,,,TRUE,,,,,,,OVC,9500,,,,,,,VFR,-1.7,-3.9,-4.4,,-11.1,,,,,,,METAR,227.0
KMRY 130554Z AUTO 09009KT 10SM CLR 14/03 A3013 RMK AO2 SLP215 T01440033 10239 20122 58002,KMRY,2015-02-13T05:54:00Z,36.58,-121.85,14.4,3.3,90,9,,10.0,30.129921,1021.5,,TRUE,TRUE,,,,,,,CLR,,,,,,,,VFR,-0.2,23.9,12.2,,,,,,,,,METAR,66.0
KOFP 130554Z AUTO 32007KT 10SM CLR M05/M16 A3016 RMK AO2 SLP215 T10501161 10006 21050 53028,KOFP,2015-02-13T05:54:00Z,37.7,-77.43,-5.0,-16.1,320,7,,10.0,30.159449,1021.5,,TRUE,TRUE,,,,,,,CLR,,,,,,,,VFR,2.8,0.6,-5.0,,,,,,,,,METAR,62.0
KOLS 130554Z AUTO 09008KT 10SM CLR 11/00 A3017 RMK AO2 SLP182 T01060000 10172 20089 53002,KOLS,2015-02-13T05:54:00Z,31.42,-110.85,10.6,0.0,90,8,,10.0,30.171259,1018.2,,TRUE,TRUE,,,,,,,CLR,,,,,,,,VFR,0.2,17.2,8.9,,,,,,,,,METAR,1184.0
KBOS 130554Z 32015G22KT 10SM FEW028 BKN038 OVC060 M07/M12 A2974 RMK AO2 VIS 2 1/2 E SLP071 60000 T10671117 11033 21067 53011,KBOS,2015-02-13T05:54:00Z,42.37,-71.02,-6.7,-11.7,320,15,22,10.0,29.740158,1007.1,,,TRUE,,,,,,,FEW,2800,BKN,3800,OVC,6000,,,VFR,1.1,-3.3,-6.7,,,,,0.0050,,,,METAR,6.0
KBUF 130554Z 27007KT 1SM R23/P6000FT -SN VV013 M17/M19 A3020 RMK AO2 SLP245 DRSN 4/022 P0001 60005 T11721194 11156 21172 52006,KBUF,2015-02-13T05:54:00Z,42.93,-78.73,-17.2,-19.4,270,7,,1.0,30.200787,1024.5,,,TRUE,,,,,,-SN,OVX,0,,,,,,,LIFR,0.6,-15.6,-17.2,,,0.01,,0.05,,22.0,1300,METAR,211.0
KBUY 130554Z AUTO 31007KT 10SM CLR M03/M16 A3017 RMK AO2 SLP221 T10331161 10011 21039 51020,KBUY,2015-02-13T05:54:00Z,36.05,-79.47,-3.3,-16.1,310,7,,10.0,30.171259,1022.1,,TRUE,TRUE,,,,,,,CLR,,,,,,,,VFR,2.0,1.1,-3.9,,,,,,,,,METAR,180.0
KBWI 130554Z 31018G29KT 10SM FEW045 M09/M19 A3012 RMK AO2 PK WND 31033/0513 SLP199 T10891194 11017 21089 53026,KBWI,2015-02-13T05:54:00Z,39.17,-76.68,-8.9,-19.4,310,18,29,10.0,30.121063,1019.9,,,TRUE,,,,,,,FEW,4500,,,,,,,VFR,2.6,-1.7,-8.9,,,,,,,,,METAR,59.0
KCAR 130554Z AUTO 32011KT 10SM FEW032 M17/M20 A2962 RMK AO2 SLP048 60000 T11671200 11139 21167 56010,KCAR,2015-02-13T05:54:00Z,46.87,-68.02,-16.7,-20.0,320,11,,10.0,29.619095,1004.8,,TRUE,TRUE,,,,,,,FEW,3200,,,,,,,VFR,-1.0,-13.9,-16.7,,,,,0.0050,,,,METAR,191.0
KCEU 130554Z AUTO 06003KT 10SM CLR M02/M13 A3020 RMK AO2 SLP227 T10171133 10017 21022 58001,KCEU,2015-02-13T05:54:00Z,34.67,-82.88,-1.7,-13.3,60,3,,10.0,30.200787,1022.7,,TRUE,TRUE,,,,,,,CLR,,,,,,,,VFR,-0.1,1.7,-2.2,,,,,,,,,METAR,268.0
KCOS 130554Z 36007KT 10SM FEW250 02/M06 A3026 RMK AO2 SLP252 T00171061 10111 20011 51007,KCOS,2015-02-13T05:54:00Z,38.82,-104.68,1.7,-6.1,360,7,,10.0,30.259842,1025.2,,,TRUE,,,,,,,FEW,25000,,,,,,,VFR,0.7,11.1,1.1,,,,,,,,,METAR,1856.0
KCOU 130554Z AUTO 12004KT 10SM OVC070 M07/M14 A3040 RMK AO2 SLP307 T10671139 11061 21067 410171111 56017 $,KCOU,2015-02-13T05:54:00Z,38.82,-92.22,-6.7,-13.9,120,4,,10.0,30.398623,1030.7,,TRUE,TRUE,TRUE,,,,,,OVC,7000,,,,,,,VFR,-1.7,-6.1,-6.7,-1.7,-11.1,,,,,,,METAR,271.0
KCRW 130554Z 02005KT 10SM SCT028 M10/M15 A3032 RMK AO2 SLP282 T11001150 11061 21100 52003,KCRW,2015-02-13T05:54:00Z,38.38,-81.58,-10.0,-15.0,20,5,,10.0,30.318897,1028.2,,,TRUE,,,,,,,SCT,2800,,,,,,,VFR,0.3,-6.1,-10.0,,,,,,,,,METAR,309.0
KNAK 130554Z AUTO 32016G29KT 10SM CLR M07/M14 A3012 RMK AO2 PK WND 34029/0550 SLP203 T10671144 11006 21067 53029,KNAK,2015-02-13T05:54:00Z,38.98,-76.48,-6.7,-14.4,320,16,29,10.0,30.121063,1020.3,,TRUE,TRUE,,,,,,,CLR,,,,,,,,VFR,2.9,-0.6,-6.7,,,,,,,,,METAR,2.0
KNKT 130554Z 32012KT 10SM CLR 01/M10 A3011 RMK AO2 PK WND 34027/0512 SLP194 T00111100 10061 20011 51028 $,KNKT,2015-02-13T05:54:00Z,34.9,-76.88,1.1,-10.0,320,12,,10.0,30.109253,1019.4,,,TRUE,TRUE,,,,,,CLR,,,,,,,,VFR,2.8,6.1,1.1,,,,,,,,,METAR,9.0
KILN 130554Z AUTO 36003KT 10SM CLR M11/M17 A3034 RMK AO2 SLP313 T11111167 11089 21111 58006,KILN,2015-02-13T05:54:00Z,39.43,-83.8,-11.1,-16.7,360,3,,10.0,30.339567,1031.3,,TRUE,TRUE,,,,,,,CLR,,,,,,,,VFR,-0.6,-8.9,-11.1,,,,,,,,,METAR,322.0
KIND 130554Z 31005KT 10SM SCT210 M12/M15 A3041 RMK AO2 SLP310 60000 T11171150 11072 21117 58007,KIND,2015-02-13T05:54:00Z,39.72,-86.3,-11.7,-15.0,310,5,,10.0,30.410433,1031.0,,,TRUE,,,,,,,SCT,21000,,,,,,,VFR,-0.7,-7.2,-11.7,,,,,0.0050,,,,METAR,241.0
KINT 130554Z AUTO 33012G20KT 10SM CLR M04/M16 A3019 RMK AO2 SLP229 T10441161 11006 21044 51017,KINT,2015-02-13T05:54:00Z,36.13,-80.22,-4.4,-16.1,330,12,20,10.0,30.188976,1022.9,,TRUE,TRUE,,,,,,,CLR,,,,,,,,VFR,1.7,-0.6,-4.4,,,,,,,,,METAR,291.0
KIPT 130554Z AUTO 27010G17KT 10SM FEW043 M15/M23 A3015 RMK AO2 SLP219 T11501233 11067 21150 51022,KIPT,2015-02-13T05:54:00Z,41.25,-76.92,-15.0,-23.3,270,10,17,10.0,30.15059,1021.9,,TRUE,TRUE,,,,,,,FEW,4300,,,,,,,VFR,2.2,-6.7,-15.0,,,,,,,,,METAR,164.0
KISW 130554Z AUTO 00000KT 10SM CLR M19/M22 A3033 RMK AO2 SLP301 T11941222 11133 21200 411221200 56016,KISW,2015-02-13T05:54:00Z,44.37,-89.83,-19.4,-22.2,0,0,,10.0,30.33071,1030.1,,TRUE,TRUE,,,,,,,CLR,,,,,,,,VFR,-1.6,-13.3,-20.0,-12.2,-20.0,,,,,,,METAR,307.0
KIZG 130554Z AUTO 23003KT 10SM SCT037 M18/M21 A2968 RMK AO2 SLP063 60000 I6000 T11831211 11089 21189 52001,KIZG,2015-02-13T05:54:00Z,43.98,-70.95,-18.3,-21.1,230,3,,10.0,29.681103,1006.3,,TRUE,TRUE,,,,,,,SCT,3700,,,,,,,VFR,0.1,-8.9,-18.9,,,,,0.0050,,,,METAR,135.0
KJAN 130554Z AUTO 36010KT 10SM CLR 01/M08 A3035 RMK AO2 SLP279 T00061078 10050 20000 401110000 58005,KJAN,2015-02-13T05:54:00Z,32.32,-90.08,0.6,-7.8,360,10,,10.0,30.351377,1027.9,,TRUE,TRUE,,,,,,,CLR,,,,,,,,VFR,-0.5,5.0,0.0,11.1,,,,,,,,METAR,91.0
KLAF 130554Z AUTO 27003KT 10SM CLR M12/M15 A3043 RMK AO2 SLP315 T11221150 11094 21122 56013 TSNO,KLAF,2015-02-13T05:54:00Z,40.42,-86.93,-12.2,-15.0,270,3,,10.0,30.431103,1031.5,,TRUE,TRUE,,,TRUE,,,,CLR,,,,,,,,VFR,-1.3,-9.4,-12.2,,,,,,,,,METAR,182.0
KLBT 130554Z AUTO 32008KT 10SM CLR 00/M11 A3017 RMK AO2 SLP215 T00001111 10072 20000 51017,KLBT,2015-02-13T05:54:00Z,34.6,-79.07,0.0,-11.1,320,8,,10.0,30.171259,1021.5,,TRUE,TRUE,,,,,,,CLR,,,,,,,,VFR,1.7,7.2,0.0,,,,,,,,,METAR,37.0
KGSO 130554Z 32009KT 10SM FEW040 M04/M15 A3017 RMK AO2 SLP221 T10441150 11006 21044 51020,KGSO,2015-02-13T05:54:00Z,36.1,-79.95,-4.4,-15.0,320,9,,10.0,30.171259,1022.1,,,TRUE,,,,,,,FEW,4000,,,,,,,VFR,2.0,-0.6,-4.4,,,,,,,,,METAR,275.0
KGED 130554Z AUTO 32011G25KT 280V350 10SM CLR M06/M17 A3005 RMK AO2 SLP175 T10611172 10017 21061 53028,KGED,2015-02-13T05:54:00Z,38.68,-75.37,-6.1,-17.2,320,11,25,10.0,30.050198,1017.5,,TRUE,TRUE,,,,,,,CLR,,,,,,,,VFR,2.8,1.7,-6.1,,,,,,,,,METAR,19.0
KGCN 130554Z 05003KT 10SM CLR M04/M08 A3035 RMK AO2 SLP264 T10441083 10133 21044 50000,KGCN,2015-02-13T05:54:00Z,35.95,-112.15,-4.4,-8.3,50,3,,10.0,30.351377,1026.4,,,TRUE,,,,,,,CLR,,,,,,,,VFR,0.0,13.3,-4.4,,,,,,,,,METAR,2016.0
KGCK 130554Z AUTO 19007KT 10SM CLR 01/M04 A3015 RMK AO2 SLP227 T00111044 10089 20006 401171067 56008,KGCK,2015-02-13T05:54:00Z,37.92,-100.72,1.1,-4.4,190,7,,10.0,30.15059,1022.7,,TRUE,TRUE,,,,,,,CLR,,,,,,,,VFR,-0.8,8.9,0.6,11.7,-6.7,,,,,,,METAR,877.0
KLYH 130554Z AUTO VRB03KT 10SM CLR M07/M17 A3016 RMK AO2 SLP218 T10671172 11017 21067 53018,KLYH,2015-02-13T05:54:00Z,37.32,-79.2,-6.7,-17.2,0,3,,10.0,30.159449,1021.8,,TRUE,TRUE,,,,,,,CLR,,,,,,,,VFR,1.8,-1.7,-6.7,,,,,,,,,METAR,295.0
KLWM 130554Z AUTO 31009G17KT 10SM OVC070 M08/M15 A2976 RMK AO2 SLP079 60000 T10831150 11056 21083 53014,KLWM,2015-02-13T05:54:00Z,42.72,-71.13,-8.3,-15.0,310,9,17,10.0,29.760826,1007.9,,TRUE,TRUE,,,,,,,OVC,7000,,,,,,,VFR,1.4,-5.6,-8.3,,,,,0.0050,,,,METAR,54.0
KHWD 130554Z 00000KT 10SM CLR 15/10 A3014 RMK AO2 SLP217 T01500100 10217 20150 50000,KHWD,2015-02-13T05:54:00Z,37.67,-122.12,15.0,10.0,0,0,,10.0,30.138779,1021.7,,,TRUE,,,,,,,CLR,,,,,,,,VFR,0.0,21.7,15.0,,,,,,,,,METAR,21.0
KUIN 130554Z AUTO 12004KT 10SM BKN100 M09/M14 A3040 RMK AO2 SLP307 T10891144 11083 21089 410391133 58021 TSNO,KUIN,2015-02-13T05:54:00Z,39.95,-91.2,-8.9,-14.4,120,4,,10.0,30.398623,1030.7,,TRUE,TRUE,,,TRUE,,,,BKN,10000,,,,,,,VFR,-2.1,-8.3,-8.9,-3.9,-13.3,,,,,,,METAR,234.0
KSBY 130554Z AUTO 31013G22KT 10SM CLR M04/M14 A3005 RMK AO2 PK WND 30028/0504 SLP177 T10441144 10028 21044 51025,KSBY,2015-02-13T05:54:00Z,38.33,-75.5,-4.4,-14.4,310,13,22,10.0,30.050198,1017.7,,TRUE,TRUE,,,,,,,CLR,,,,,,,,VFR,2.5,2.8,-4.4,,,,,,,,,METAR,19.0
KAAO 130554Z AUTO 15007KT 10SM CLR M04/M13 A3026 RMK AO2 SLP267 T10441128 11011 21044 400061072 58015,KAAO,2015-02-13T05:54:00Z,37.75,-97.22,-4.4,-12.8,150,7,,10.0,30.259842,1026.7,,TRUE,TRUE,,,,,,,CLR,,,,,,,,VFR,-1.5,-1.1,-4.4,0.6,-7.2,,,,,,,METAR,434.0
KAPC 130554Z AUTO 02003KT 10SM CLR 11/09 A3016 RMK AO2 SLP204 T01060094 10206 20094 51002,KAPC,2015-02-13T05:54:00Z,38.2,-122.28,10.6,9.4,20,3,,10.0,30.159449,1020.4,,TRUE,TRUE,,,,,,,CLR,,,,,,,,VFR,0.2,20.6,9.4,,,,,,,,,METAR,13.0
KALO 130554Z AUTO 18005KT 10SM CLR M13/M16 A3035 RMK AO2 SLP298 T11281161 11117 21133 411111178 58023,KALO,2015-02-13T05:54:00Z,42.55,-92.4,-12.8,-16.1,180,5,,10.0,30.351377,1029.8,,TRUE,TRUE,,,,,,,CLR,,,,,,,,VFR,-2.3,-11.7,-13.3,-11.1,-17.8,,,,,,,METAR,264.0
KAKR 130554Z AUTO 25007KT 10SM CLR M17/M21 A3029 RMK AO2 SLP278 T11671206 11128 21172 58005 $,KAKR,2015-02-13T05:54:00Z,41.03,-81.47,-16.7,-20.6,250,7,,10.0,30.28937,1027.8,,TRUE,TRUE,TRUE,,,,,,CLR,,,,,,,,VFR,-0.5,-12.8,-17.2,,,,,,,,,METAR,363.0
KAKQ 130554Z AUTO 33009G20KT 290V360 10SM CLR M02/M15 A3012 RMK AO2 PK WND 33026/0535 SLP203 60000 T10221150 10011 21022 53026 TSNO,KAKQ,2015-02-13T05:54:00Z,36.98,-77.0,-2.2,-15.0,330,9,20,10.0,30.121063,1020.3,,TRUE,TRUE,,,TRUE,,,,CLR,,,,,,,,VFR,2.6,1.1,-2.2,,,,,0.0050,,,,METAR,34.0
KAKH 130554Z AUTO 32006KT 10SM CLR M03/M14 A3019 RMK AO2 SLP227 T10281139 10006 21028 51007,KAKH,2015-02-13T05:54:00Z,35.2,-81.15,-2.8,-13.9,320,6,,10.0,30.188976,1022.7,,TRUE,TRUE,,,,,,,CLR,,,,,,,,VFR,0.7,0.6,-2.8,,,,,,,,,METAR,243.0
K6R3 130554Z AUTO 00000KT 10SM CLR 05/04 A3034 RMK AO2,K6R3,2015-02-13T05:54:00Z,30.35,-95.0,5.0,4.0,0,0,,10.0,30.339567,,,TRUE,TRUE,,,,,,,CLR,,,,,,,,VFR,,,,,,,,,,,,SPECI,46.0
KSET 130554Z AUTO 09005KT 10SM SCT110 M08/M12 A3045 RMK AO2 SLP316 T10831122 11067 21083 410221111 57018,KSET,2015-02-13T05:54:00Z,38.93,-90.43,-8.3,-12.2,90,5,,10.0,30.448818,1031.6,,TRUE,TRUE,,,,,,,SCT,11000,,,,,,,VFR,-1.8,-6.7,-8.3,-2.2,-11.1,,,,,,,METAR,134.0
KSJN 130554Z AUTO 22007KT 10SM CLR 05/M02 A3029 RMK AO2 SLP228 T00501022 10144 20033 51008,KSJN,2015-02-13T05:54:00Z,34.52,-109.38,5.0,-2.2,220,7,,10.0,30.28937,1022.8,,TRUE,TRUE,,,,,,,CLR,,,,,,,,VFR,0.8,14.4,3.3,,,,,,,,,METAR,1745.0
KAUW 130554Z AUTO 00000KT 10SM CLR M19/M23 A3027 RMK AO2 SLP288 T11891228 11139 21189 411111189 56017,KAUW,2015-02-13T05:54:00Z,44.93,-89.62,-18.9,-22.8,0,0,,10.0,30.268702,1028.8,,TRUE,TRUE,,,,,,,CLR,,,,,,,,VFR,-1.7,-13.9,-18.9,-11.1,-18.9,,,,,,,METAR,362.0
KAVL 130554Z AUTO 35016G26KT 10SM CLR M07/M15 A3013 RMK AO2 PK WND 33031/0510 SLP218 T10721150 11050 21072 58005,KAVL,2015-02-13T05:54:00Z,35.43,-82.53,-7.2,-15.0,350,16,26,10.0,30.129921,1021.8,,TRUE,TRUE,,,,,,,CLR,,,,,,,,VFR,-0.5,-5.0,-7.2,,,,,,,,,METAR,670.0
KAVP 130554Z AUTO 31008G16KT 10SM FEW027 OVC033 M15/M22 A3002 RMK AO2 UPB0457E0459SNE0457B0459E27 SLP181 P0000 60000 T11501222 11061 21156 51004,KAVP,2015-02-13T05:54:00Z,41.33,-75.72,-15.0,-22.2,310,8,16,10.0,30.02067,1018.1,,TRUE,TRUE,,,,,,,FEW,2700,OVC,3300,,,,,VFR,0.4,-6.1,-15.6,,,0.0050,,0.0050,,,,METAR,291.0
KBFL 130554Z 10005KT 5SM HZ CLR 16/09 A3016 RMK AO2 SLP211 T01560094 10244 20133 51007,KBFL,2015-02-13T05:54:00Z,35.43,-119.05,15.6,9.4,100,5,,5.0,30.159449,1021.1,,,TRUE,,,,,,HZ,CLR,,,,,,,,MVFR,0.7,24.4,13.3,,,,,,,,,METAR,151.0
KIMT 130554Z AUTO 00000KT 10SM FEW110 M23/M26 A3024 RMK AO2 SLP277 T12331256 11144 21250 411221250 58021,KIMT,2015-02-13T05:54:00Z,45.82,-88.12,-23.3,-25.6,0,0,,10.0,30.239174,1027.7,,TRUE,TRUE,,,,,,,FEW,11000,,,,,,,VFR,-2.1,-14.4,-25.0,-12.2,-25.0,,,,,,,METAR,349.0
KDEC 130554Z AUTO 09005KT 10SM CLR M11/M14 A3043 RMK AO2 SLP316 T11111139 11083 21117 410561117 56016 TSNO,KDEC,2015-02-13T05:54:00Z,39.83,-88.85,-11.1,-13.9,90,5,,10.0,30.431103,1031.6,,TRUE,TRUE,,,TRUE,,,,CLR,,,,,,,,VFR,-1.6,-8.3,-11.7,-5.6,-11.7,,,,,,,METAR,207.0
KDSM 130554Z 16006KT 9SM -SN FEW038 OVC055 M09/M14 A3034 RMK AO2 SNB18 SLP294 4/001 P0000 60000 T10891144 11089 21100 410891161 56028,KDSM,2015-02-13T05:54:00Z,41.53,-93.67,-8.9,-14.4,160,6,,9.0,30.339567,1029.4,,,TRUE,,,,,,-SN,FEW,3800,OVC,5500,,,,,VFR,-2.8,-8.9,-10.0,-8.9,-16.1,0.0050,,0.0050,,1.0,,METAR,295.0
KSUS 130554Z AUTO 08004KT 10SM FEW100 M07/M14 A3043 RMK AO2 SLP319 T10671144 11061 21072 410171111 58019,KSUS,2015-02-13T05:54:00Z,38.65,-90.65,-6.7,-14.4,80,4,,10.0,30.431103,1031.9,,TRUE,TRUE,,,,,,,FEW,10000,,,,,,,VFR,-1.9,-6.1,-7.2,-1.7,-11.1,,,,,,,METAR,141.0
KTAD 130554Z AUTO 28011KT 10SM CLR 03/M02 A3024 RMK AO2 SLP225 T00281022 10111 20017 52007,KTAD,2015-02-13T05:54:00Z,37.27,-104.33,2.8,-2.2,280,11,,10.0,30.239174,1022.5,,TRUE,TRUE,,,,,,,CLR,,,,,,,,VFR,0.7,11.1,1.7,,,,,,,,,METAR,1756.0
K1V4 130554Z AUTO M15/M20 A2980 RMK AO1 SLP111 T11501200 11078 21150 53015,K1V4,2015-02-13T05:54:00Z,44.42,-72.02,-15.0,-20.0,,,,,29.799213,1011.1,,TRUE,TRUE,,,,,,,,,,,,,,,,1.5,-7.8,-15.0,,,,,,,,,METAR,210.0
KDYL 130554Z AUTO 31019G29KT 10SM CLR M12/M21 A3001 RMK AO2 PK WND 31029/0553 SLP174 60000 T11221206 11022 21122 53041 $,KDYL,2015-02-13T05:54:00Z,40.33,-75.12,-12.2,-20.6,310,19,29,10.0,30.008858,1017.4,,TRUE,TRUE,TRUE,,,,,,CLR,,,,,,,,VFR,4.1,-2.2,-12.2,,,,,0.0050,,,,METAR,117.0
KECG 130554Z AUTO 31013KT 10SM CLR M02/M08 A3009 RMK AO2 SLP187 60001 T10171078 10011 21017 53024 FZRANO TSNO,KECG,2015-02-13T05:54:00Z,36.27,-76.18,-1.7,-7.8,310,13,,10.0,30.088583,1018.7,,TRUE,TRUE,,,TRUE,TRUE,,,CLR,,,,,,,,VFR,2.4,1.1,-1.7,,,,,0.01,,,,METAR,11.0
KLWT 130554Z AUTO 23012KT 10SM CLR 04/M01 A3017 RMK AO2 SLP217 T00391011 10106 20028 58003,KLWT,2015-02-13T05:54:00Z,47.03,-109.47,3.9,-1.1,230,12,,10.0,30.171259,1021.7,,TRUE,TRUE,,,,,,,CLR,,,,,,,,VFR,-0.3,10.6,2.8,,,,,,,,,METAR,1270.0
KTQE 130554Z AUTO 16010KT 10SM BKN090 M07/M12 A3026 RMK AO2 SLP264 T10671117 11067 21072 410671139 56033,KTQE,2015-02-13T05:54:00Z,41.77,-96.18,-6.7,-11.7,160,10,,10.0,30.259842,1026.4,,TRUE,TRUE,,,,,,,BKN,9000,,,,,,,VFR,-3.3,-6.7,-7.2,-6.7,-13.9,,,,,,,METAR,312.0
KUZA 130554Z AUTO 36006KT 10SM CLR M03/M13 A3021 RMK AO2 SLP233 T10281133 10011 21033 51007,KUZA,2015-02-13T05:54:00Z,34.98,-81.05,-2.8,-13.3,360,6,,10.0,30.209646,1023.3,,TRUE,TRUE,,,,,,,CLR,,,,,,,,VFR,0.7,1.1,-3.3,,,,,,,,,METAR,202.0
KVAY 130554Z AUTO 31010G26KT 10SM SCT033 BKN042 M08/M16 A3002 RMK AO2 PK WND 30027/0520 SLP165 T10831161 10000 21083 53037,KVAY,2015-02-13T05:54:00Z,39.93,-74.83,-8.3,-16.1,310,10,26,10.0,30.02067,1016.5,,TRUE,TRUE,,,,,,,SCT,3300,BKN,4200,,,,,VFR,3.7,0.0,-8.3,,,,,,,,,METAR,15.0
KVTA 130554Z AUTO 28004KT 10SM CLR M17/M21 A3035 RMK AO2 SLP295 T11671206 11106 21167 58002,KVTA,2015-02-13T05:54:00Z,40.02,-82.47,-16.7,-20.6,280,4,,10.0,30.351377,1029.5,,TRUE,TRUE,,,,,,,CLR,,,,,,,,VFR,-0.2,-10.6,-16.7,,,,,,,,,METAR,268.0
KWAL 130554Z AUTO 34013G30KT 10SM CLR M06/M14 A3005 RMK AO2 PK WND 33031/0538 SLP171 T10561144 10011 21056 51026,KWAL,2015-02-13T05:54:00Z,37.93,-75.47,-5.6,-14.4,340,13,30,10.0,30.050198,1017.1,,TRUE,TRUE,,,,,,,CLR,,,,,,,,VFR,2.6,1.1,-5.6,,,,,,,,,METAR,14.0
KWLD 130554Z AUTO 12006KT 10SM CLR M03/M12 A3030 RMK AO2 SLP273 T10331122 10006 21033 400171067 56020,KWLD,2015-02-13T05:54:00Z,37.17,-97.03,-3.3,-12.2,120,6,,10.0,30.301182,1027.3,,TRUE,TRUE,,,,,,,CLR,,,,,,,,VFR,-2.0,0.6,-3.3,1.7,-6.7,,,,,,,METAR,350.0
KRDG 130554Z 31020G25KT 10SM CLR M12/M20 A3008 RMK AO2 PK WND 32031/0515 SLP196 T11171200 11033 21117 52031,KRDG,2015-02-13T05:54:00Z,40.37,-75.97,-11.7,-20.0,310,20,25,10.0,30.079725,1019.6,,,TRUE,,,,,,,CLR,,,,,,,,VFR,3.1,-3.3,-11.7,,,,,,,,,METAR,109.0
KRBL 130554Z AUTO 30005KT 10SM CLR 11/09 A3018 RMK AO2 SLP218 T01060089 10211 20106 51003,KRBL,2015-02-13T05:54:00Z,40.15,-122.25,10.6,8.9,300,5,,10.0,30.180119,1021.8,,TRUE,TRUE,,,,,,,CLR,,,,,,,,VFR,0.3,21.1,10.6,,,,,,,,,METAR,104.0
PAKN 130554Z 07005KT 10SM SCT037 SCT110 M01/M02 A2953 RMK AO2 SLP000 T10061022 10083 21011 53008,PAKN,2015-02-13T05:54:00Z,58.68,-156.65,-0.6,-2.2,70,5,,10.0,29.530512,1000.0,,,TRUE,,,,,,,SCT,3700,SCT,11000,,,,,VFR,0.8,8.3,-1.1,,,,,,,,,METAR,17.0
PHMK 130554Z AUTO 00000KT 10SM CLR 17/14 A2991 RMK AO2 SLP135 60004 T01720144 10256 20172 51017 TSNO,PHMK,2015-02-13T05:54:00Z,21.15,-157.1,17.2,14.4,0,0,,10.0,29.911417,1013.5,,TRUE,TRUE,,,TRUE,,,,CLR,,,,,,,,VFR,1.7,25.6,17.2,,,,,0.04,,,,METAR,141.0
PHOG 130554Z 19004KT 10SM FEW030 20/17 A2990 RMK AO2 SLP130 T02000167 10272 20200 51021 $,PHOG,2015-02-13T05:54:00Z,20.9,-156.43,20.0,16.7,190,4,,10.0,29.899607,1013.0,,,TRUE,TRUE,,,,,,FEW,3000,,,,,,,VFR,2.1,27.2,20.0,,,,,,,,,METAR,12.0
PGSN 130554Z 05015G21KT 10SM CLR 27/16 A2984 RMK AO2 SLP127 T02670156 10294 20267 55002,PGSN,2015-02-13T05:54:00Z,15.12,145.72,26.7,15.6,50,15,21,10.0,29.840551,1012.7,,,TRUE,,,,,,,CLR,,,,,,,,VFR,-0.2,29.4,26.7,,,,,,,,,METAR,65.0
KRIC 130554Z 33012G24KT 10SM CLR M04/M16 A3014 RMK AO2 SLP213 T10391161 10028 21039 53028,KRIC,2015-02-13T05:54:00Z,37.52,-77.32,-3.9,-16.1,330,12,24,10.0,30.138779,1021.3,,,TRUE,,,,,,,CLR,,,,,,,,VFR,2.8,2.8,-3.9,,,,,,,,,METAR,50.0
KRFD 130554Z 17004KT 10SM FEW120 M16/M19 A3041 RMK AO2 SLP316 4/005 T11561194 11117 21156 410891156 56011,KRFD,2015-02-13T05:54:00Z,42.2,-89.1,-15.6,-19.4,170,4,,10.0,30.410433,1031.6,,,TRUE,,,,,,,FEW,12000,,,,,,,VFR,-1.1,-11.7,-15.6,-8.9,-15.6,,,,,5.0,,METAR,221.0
KRST 130554Z AUTO 18008KT 10SM CLR M18/M21 A3027 RMK AO2 SLP287 T11831211 11156 21194 411391211 58024,KRST,2015-02-13T05:54:00Z,43.9,-92.5,-18.3,-21.1,180,8,,10.0,30.268702,1028.7,,TRUE,TRUE,,,,,,,CLR,,,,,,,,VFR,-2.4,-15.6,-19.4,-13.9,-21.1,,,,,,,METAR,403.0
KROA 130554Z 30008KT 10SM CLR M07/M17 A3019 RMK AO2 SLP233 T10721172 11028 21078 51021,KROA,2015-02-13T05:54:00Z,37.32,-79.97,-7.2,-17.2,300,8,,10.0,30.188976,1023.3,,,TRUE,,,,,,,CLR,,,,,,,,VFR,2.1,-2.8,-7.8,,,,,,,,,METAR,362.0
MMTM 130554Z 05003KT 8SM SCT070 19/16 A3025 RMK SLP242 52006 9// 8/070,MMTM,2015-02-13T05:54:00Z,22.27,-97.87,19.0,16.0,50,3,,8.0,30.250984,1024.2,,,,,,,,,,SCT,7000,,,,,,,VFR,0.6,,,,,,,,,,,METAR,24.0
KBKB 130554Z AUTO 00000KT 10SM CLR 05/M04 A3033 RMK AO2 SLP301 T00501044 10133 20050 401830050 51008,KBKB,2015-02-13T05:54:00Z,31.0,-92.92,5.0,-4.4,0,0,,10.0,30.33071,1030.1,,TRUE,TRUE,,,,,,,CLR,,,,,,,,VFR,0.8,13.3,5.0,18.3,5.0,,,,,,,METAR,94.0
KNFG 130554Z 04005KT 10SM CLR 14/00 A3004 RMK AO2 SLP173 T01440000 10283 20117 50001 $,KNFG,2015-02-13T05:54:00Z,33.28,-117.33,14.4,0.0,40,5,,10.0,30.041338,1017.3,,,TRUE,TRUE,,,,,,CLR,,,,,,,,VFR,0.1,28.3,11.7,,,,,,,,,SPECI,24.0
K12N 130554Z AUTO 34010G21KT 300V010 M14/M23 A2998 RMK AO1 SLP169 T11391233 11039 21139 51027,K12N,2015-02-13T05:54:00Z,41.02,-74.73,-13.9,-23.3,340,10,21,,29.97933,1016.9,,TRUE,TRUE,,,,,,,,,,,,,,,,2.7,-3.9,-13.9,,,,,,,,,METAR,177.0
KMQE 130554Z AUTO 31020G32KT M08/M14 A2967 RMK AO1 PK WND 29032/0554 SLP068 T10781139 11044 21078 53006,KMQE,2015-02-13T05:54:00Z,42.22,-71.12,-7.8,-13.9,310,20,32,,29.66929,1006.8,,TRUE,TRUE,,,,,,,,,,,,,,,,0.6,-4.4,-7.8,,,,,,,,,METAR,199.0
KAPN 130554Z AUTO 27004KT 10SM CLR M21/M24 A3032 RMK AO2 SLP290 T12111239 11167 21217 56004,KAPN,2015-02-13T05:54:00Z,45.07,-83.57,-21.1,-23.9,270,4,,10.0,30.318897,1029.0,,TRUE,TRUE,,,,,,,CLR,,,,,,,,VFR,-0.4,-16.7,-21.7,,,,,,,,,METAR,210.0
KLNK 130554Z 18011KT 10SM BKN095 M06/M12 A3026 RMK AO2 SLP267 T10561122 11050 21067 410501139 56029,KLNK,2015-02-13T05:54:00Z,40.85,-96.77,-5.6,-12.2,180,11,,10.0,30.259842,1026.7,,,TRUE,,,,,,,BKN,9500,,,,,,,VFR,-2.9,-5.0,-6.7,-5.0,-13.9,,,,,,,METAR,364.0
KEVV 130554Z AUTO 01006KT 10SM CLR M06/M14 A3046 RMK AO2 SLP319 T10611139 11044 21061 410061061 58006,KEVV,2015-02-13T05:54:00Z,38.05,-87.52,-6.1,-13.9,10,6,,10.0,30.46063,1031.9,,TRUE,TRUE,,,,,,,CLR,,,,,,,,VFR,-0.6,-4.4,-6.1,-0.6,-6.1,,,,,,,METAR,117.0
KRWF 130553Z AUTO 18013KT 10SM OVC060 M08/M12 A3019 RMK AO2 SLP248 T10831122 11083 21106 410831206 58036,KRWF,2015-02-13T05:53:00Z,44.55,-95.08,-8.3,-12.2,180,13,,10.0,30.188976,1024.8,,TRUE,TRUE,,,,,,,OVC,6000,,,,,,,VFR,-3.6,-8.3,-10.6,-8.3,-20.6,,,,,,,METAR,311.0
KRWI 130553Z AUTO 31010KT 10SM CLR M02/M12 A3015 RMK AO2 SLP209 T10171122 10050 21017 51025,KRWI,2015-02-13T05:53:00Z,35.85,-77.9,-1.7,-12.2,310,10,,10.0,30.15059,1020.9,,TRUE,TRUE,,,,,,,CLR,,,,,,,,VFR,2.5,5.0,-1.7,,,,,,,,,METAR,47.0
KSAC 130553Z AUTO 00000KT 10SM CLR 12/09 A3016 RMK AO2 SLP211 T01220094 10222 20117 58001,KSAC,2015-02-13T05:53:00Z,38.5,-121.5,12.2,9.4,0,0,,10.0,30.159449,1021.1,,TRUE,TRUE,,,,,,,CLR,,,,,,,,VFR,-0.1,22.2,11.7,,,,,,,,,METAR,11.0
KRXE 130553Z AUTO 00000KT 10SM CLR M01/ A3036 RMK AO2 SLP297 T1006 10094 21006 50003 $,KRXE,2015-02-13T05:53:00Z,43.83,-111.8,-0.6,,0,0,,10.0,30.360237,1029.7,,TRUE,TRUE,TRUE,,,,,,CLR,,,,,,,,VFR,0.3,9.4,-0.6,,,,,,,,,METAR,1480.0
KSAF 130553Z AUTO 02007KT 10SM CLR 00/M04 A3030 RMK AO2 SLP243 T00001039 10100 21011 52002,KSAF,2015-02-13T05:53:00Z,35.62,-106.1,0.0,-3.9,20,7,,10.0,30.301182,1024.3,,TRUE,TRUE,,,,,,,CLR,,,,,,,,VFR,0.2,10.0,-1.1,,,,,,,,,METAR,1930.0
KSAV 130553Z AUTO 35008KT 10SM CLR 03/M11 A3018 RMK AO2 SLP218 T00281106 10139 20028 50016 TSNO,KSAV,2015-02-13T05:53:00Z,32.12,-81.2,2.8,-10.6,350,8,,10.0,30.180119,1021.8,,TRUE,TRUE,,,TRUE,,,,CLR,,,,,,,,VFR,1.6,13.9,2.8,,,,,,,,,METAR,14.0
KSBM 130553Z AUTO 22004KT 10SM CLR M18/M21 A3035 RMK AO2 SLP298 T11781211 11128 21194 411061194 56015,KSBM,2015-02-13T05:53:00Z,43.78,-87.85,-17.8,-21.1,220,4,,10.0,30.351377,1029.8,,TRUE,TRUE,,,,,,,CLR,,,,,,,,VFR,-1.5,-12.8,-19.4,-10.6,-19.4,,,,,,,METAR,232.0
KAPA 130553Z 15005KT 10SM FEW140 03/M05 A3022 RMK AO2 SLP224 T00331050 10122 20022 50005,KAPA,2015-02-13T05:53:00Z,39.57,-104.85,3.3,-5.0,150,5,,10.0,30.221457,1022.4,,,TRUE,,,,,,,FEW,14000,,,,,,,VFR,0.5,12.2,2.2,,,,,,,,,METAR,1775.0
KBWG 130553Z AUTO 35004KT 10SM CLR M07/M13 A3042 RMK AO2 SLP307 T10671133 11039 21067 400171067 55006,KBWG,2015-02-13T05:53:00Z,36.97,-86.42,-6.7,-13.3,350,4,,10.0,30.41929,1030.7,,TRUE,TRUE,,,,,,,CLR,,,,,,,,VFR,-0.6,-3.9,-6.7,1.7,-6.7,,,,,,,METAR,168.0
KBVY 130553Z AUTO 33017G22KT 8SM OVC065 M07/M15 A2972 RMK AO2 SLP064 60000 T10721150 11050 21072 53008,KBVY,2015-02-13T05:53:00Z,42.58,-70.92,-7.2,-15.0,330,17,22,8.0,29.719488,1006.4,,TRUE,TRUE,,,,,,,OVC,6500,,,,,,,VFR,0.8,-5.0,-7.2,,,,,0.0050,,,,METAR,28.0
KBUR 130553Z 00000KT 10SM CLR 18/M01 A3007 RMK AO2 SLP171 T01781011 10283 20178 51005,KBUR,2015-02-13T05:53:00Z,34.2,-118.37,17.8,-1.1,0,0,,10.0,30.070866,1017.1,,,TRUE,,,,,,,CLR,,,,,,,,VFR,0.5,28.3,17.8,,,,,,,,,METAR,217.0
KBTR 130553Z 03006KT 10SM CLR 04/M06 A3034 RMK AO2 SLP272 T00391056 10128 20039 401830039 50001,KBTR,2015-02-13T05:53:00Z,30.53,-91.15,3.9,-5.6,30,6,,10.0,30.339567,1027.2,,,TRUE,,,,,,,CLR,,,,,,,,VFR,0.1,12.8,3.9,18.3,3.9,,,,,,,METAR,21.0
KBTM 130553Z AUTO 00000KT 10SM CLR M02/M04 A3032 RMK AO2 SLP283 T10171044 10122 21017 53006,KBTM,2015-02-13T05:53:00Z,45.97,-112.5,-1.7,-4.4,0,0,,10.0,30.318897,1028.3,,TRUE,TRUE,,,,,,,CLR,,,,,,,,VFR,0.6,12.2,-1.7,,,,,,,,,METAR,1688.0
KBTL 130553Z 06003KT 10SM OVC030 M12/M18 A3035 RMK AO2 SLP297 T11171178 11106 21122 56007,KBTL,2015-02-13T05:53:00Z,42.32,-85.23,-11.7,-17.8,60,3,,10.0,30.351377,1029.7,,,TRUE,,,,,,,OVC,3000,,,,,,,MVFR,-0.7,-10.6,-12.2,,,,,,,,,METAR,290.0
KBPT 130553Z AUTO 05006KT 10SM CLR 09/02 A3032 RMK AO2 SLP266 T00940017 10156 20094 401940072 50000,KBPT,2015-02-13T05:53:00Z,29.95,-94.03,9.4,1.7,50,6,,10.0,30.318897,1026.6,,TRUE,TRUE,,,,,,,CLR,,,,,,,,VFR,0.0,15.6,9.4,19.4,7.2,,,,,,,METAR,5.0
KBPK 130553Z AUTO 10006KT 10SM CLR M03/M15 A3037 RMK AO2 SLP292 T10331150 11011 21033 400221039 56015,KBPK,2015-02-13T05:53:00Z,36.37,-92.47,-3.3,-15.0,100,6,,10.0,30.369095,1029.2,,TRUE,TRUE,,,,,,,CLR,,,,,,,,VFR,-1.5,-1.1,-3.3,2.2,-3.9,,,,,,,METAR,280.0
KBPI 130553Z AUTO 01008KT 10SM CLR 00/M06 A3036 RMK AO2 SLP260 T00001056 10083 21006 52002,KBPI,2015-02-13T05:53:00Z,42.58,-110.1,0.0,-5.6,10,8,,10.0,30.360237,1026.0,,TRUE,TRUE,,,,,,,CLR,,,,,,,,VFR,0.2,8.3,-0.6,,,,,,,,,METAR,2117.0
KBOI 130553Z 13005KT 10SM CLR 05/02 A3034 RMK AO2 SLP279 T00500017 10122 20044 50001,KBOI,2015-02-13T05:53:00Z,43.57,-116.23,5.0,1.7,130,5,,10.0,30.339567,1027.9,,,TRUE,,,,,,,CLR,,,,,,,,VFR,0.1,12.2,4.4,,,,,,,,,METAR,875.0
KBNO 130553Z AUTO 26007KT 10SM CLR M01/M03 A3035 RMK AO2 SLP295 T10061028 53008 $,KBNO,2015-02-13T05:53:00Z,43.6,-118.95,-0.6,-2.8,260,7,,10.0,30.351377,1029.5,,TRUE,TRUE,TRUE,,,,,,CLR,,,,,,,,VFR,0.8,,,,,,,,,,,METAR,1264.0
KBNA 130553Z 35006KT 10SM BKN200 M06/M12 A3040 RMK AO2 SLP302 T10611122 11033 21061 400391061 57007,KBNA,2015-02-13T05:53:00Z,36.12,-86.68,-6.1,-12.2,350,6,,10.0,30.398623,1030.2,,,TRUE,,,,,,,BKN,20000,,,,,,,VFR,-0.7,-3.3,-6.1,3.9,-6.1,,,,,,,METAR,210.0
K6R6 130553Z AUTO 00000KT 09/04 A3035 RMK AO1 SLP269 T00890039 10094 20083 401110056 58002,K6R6,2015-02-13T05:53:00Z,30.05,-102.22,8.9,3.9,0,0,,,30.351377,1026.9,,TRUE,TRUE,,,,,,,,,,,,,,,,-0.2,9.4,8.3,11.1,5.6,,,,,,,SPECI,701.0
PAWI 130553Z AUTO 05009KT 10SM CLR M33/M37 A3027 RMK SLP252 I1000 I6001 T13331372 11311 21339 56001 TSNO VIA AUTODIAL,PAWI,2015-02-13T05:53:00Z,70.62,-159.85,-33.3,-37.2,50,9,,10.0,30.268702,1025.2,,TRUE,,,,TRUE,,,,CLR,,,,,,,,VFR,-0.1,-31.1,-33.9,,,,,,,,,SPECI,27.0
PAEN 130553Z AUTO 05005KT 10SM OVC009 M01/M02 A2972 RMK AO2 SLP064 T10111017 10000 21011 53004 TSNO,PAEN,2015-02-13T05:53:00Z,60.57,-151.25,-1.1,-1.7,50,5,,10.0,29.719488,1006.4,,TRUE,TRUE,,,TRUE,,,,OVC,900,,,,,,,IFR,0.4,0.0,-1.1,,,,,,,,,METAR,27.0
KMKL 130553Z AUTO 05007KT 10SM CLR M06/M13 A3044 RMK AO2 SLP311 T10561128 11033 21056 400331056 58002,KMKL,2015-02-13T05:53:00Z,35.6,-88.92,-5.6,-12.8,50,7,,10.0,30.43996,1031.1,,TRUE,TRUE,,,,,,,CLR,,,,,,,,VFR,-0.2,-3.3,-5.6,3.3,-5.6,,,,,,,METAR,128.0
KMKO 130553Z AUTO 00000KT 10SM CLR M01/M09 A3038 RMK AO2 SLP292 T10061089 10039 21022 400671050 56010 $,KMKO,2015-02-13T05:53:00Z,35.65,-95.37,-0.6,-8.9,0,0,,10.0,30.380905,1029.2,,TRUE,TRUE,TRUE,,,,,,CLR,,,,,,,,VFR,-1.0,3.9,-2.2,6.7,-5.0,,,,,,,METAR,185.0
KMLB 130553Z 30006KT 10SM CLR 11/07 A3006 RMK AO2 SLP179 T01060067 10178 20106 53002,KMLB,2015-02-13T05:53:00Z,28.1,-80.65,10.6,6.7,300,6,,10.0,30.059055,1017.9,,,TRUE,,,,,,,CLR,,,,,,,,VFR,0.2,17.8,10.6,,,,,,,,,METAR,11.0
KMLC 130553Z AUTO 08003KT 10SM CLR 01/M08 A3036 RMK AO2 SLP284 T00111083 10056 21017 400781022 58012,KMLC,2015-02-13T05:53:00Z,34.88,-95.78,1.1,-8.3,80,3,,10.0,30.360237,1028.4,,TRUE,TRUE,,,,,,,CLR,,,,,,,,VFR,-1.2,5.6,-1.7,7.8,-2.2,,,,,,,METAR,232.0
KMLP 130553Z AUTO 24005KT 10SM CLR 03/M03 A3031 RMK AO2 SLP227 T00331033 10050 20022 50003,KMLP,2015-02-13T05:53:00Z,47.45,-115.67,3.3,-3.3,240,5,,10.0,30.31004,1022.7,,TRUE,TRUE,,,,,,,CLR,,,,,,,,VFR,0.3,5.0,2.2,,,,,,,,,METAR,1837.0
KMLS 130553Z AUTO 26006KT 10SM CLR 03/M01 A3013 RMK AO2 SLP220 T00331006 10083 20011 58002,KMLS,2015-02-13T05:53:00Z,46.43,-105.88,3.3,-0.6,260,6,,10.0,30.129921,1022.0,,TRUE,TRUE,,,,,,,CLR,,,,,,,,VFR,-0.2,8.3,1.1,,,,,,,,,METAR,801.0
KMLU 130553Z AUTO 06009KT 10SM CLR 01/M08 A3041 RMK AO2 SLP295 T00061078 10072 20006 401280006 55001,KMLU,2015-02-13T05:53:00Z,32.52,-92.03,0.6,-7.8,60,9,,10.0,30.410433,1029.5,,TRUE,TRUE,,,,,,,CLR,,,,,,,,VFR,-0.1,7.2,0.6,12.8,0.6,,,,,,,METAR,29.0
KMMK 130553Z AUTO 34013G23KT 10SM CLR M09/M18 A2986 RMK AO2 SLP115 T10941183 11017 21094 51023 TSNO,KMMK,2015-02-13T05:53:00Z,41.52,-72.83,-9.4,-18.3,340,13,23,10.0,29.861221,1011.5,,TRUE,TRUE,,,TRUE,,,,CLR,,,,,,,,VFR,2.3,-1.7,-9.4,,,,,,,,,METAR,31.0
KMMV 130553Z AUTO 26003KT 1/4SM FG VV002 06/06 A3026 RMK AO2 SLP249 T00610061 10100 20061 58003,KMMV,2015-02-13T05:53:00Z,45.2,-123.13,6.1,6.1,260,3,,0.25,30.259842,1024.9,,TRUE,TRUE,,,,,,FG,OVX,0,,,,,,,LIFR,-0.3,10.0,6.1,,,,,,,,200,METAR,48.0
KMNN 130553Z AUTO 26003KT 10SM CLR M16/M19 A3034 RMK AO2 SLP297 T11561194 11117 21156 58004 TSNO,KMNN,2015-02-13T05:53:00Z,40.62,-83.07,-15.6,-19.4,260,3,,10.0,30.339567,1029.7,,TRUE,TRUE,,,TRUE,,,,CLR,,,,,,,,VFR,-0.4,-11.7,-15.6,,,,,,,,,METAR,301.0
KMOD 130553Z AUTO 00000KT 9SM CLR 13/09 A3016 RMK AO2 SLP212 T01280094 10228 20128 50001,KMOD,2015-02-13T05:53:00Z,37.62,-120.95,12.8,9.4,0,0,,9.0,30.159449,1021.2,,TRUE,TRUE,,,,,,,CLR,,,,,,,,VFR,0.1,22.8,12.8,,,,,,,,,METAR,29.0
KMRB 130553Z AUTO 33019G30KT 10SM CLR M11/M21 A3017 RMK AO2 PK WND 31033/0506 SLP225 T11061206 11044 21106 53019 TSNO,KMRB,2015-02-13T05:53:00Z,39.4,-77.98,-10.6,-20.6,330,19,30,10.0,30.171259,1022.5,,TRUE,TRUE,,,TRUE,,,,CLR,,,,,,,,VFR,1.9,-4.4,-10.6,,,,,,,,,METAR,164.0
KMSL 130553Z AUTO 02008G15KT 10SM CLR M04/M13 A3040 RMK AO2 SLP297 T10391128 10006 21039 400671039 55001,KMSL,2015-02-13T05:53:00Z,34.75,-87.6,-3.9,-12.8,20,8,15,10.0,30.398623,1029.7,,TRUE,TRUE,,,,,,,CLR,,,,,,,,VFR,-0.1,0.6,-3.9,6.7,-3.9,,,,,,,METAR,164.0
KMSN 130553Z AUTO 00000KT 10SM CLR M17/M20 A3036 RMK AO2 SLP303 T11721200 11117 21178 411001178 56011,KMSN,2015-02-13T05:53:00Z,43.13,-89.35,-17.2,-20.0,0,0,,10.0,30.360237,1030.3,,TRUE,TRUE,,,,,,,CLR,,,,,,,,VFR,-1.1,-11.7,-17.8,-10.0,-17.8,,,,,,,METAR,261.0
KMSO 130553Z 00000KT 10SM CLR 03/01 A3032 RMK AO2 SLP286 T00280006 10111 20017 53008,KMSO,2015-02-13T05:53:00Z,46.92,-114.1,2.8,0.6,0,0,,10.0,30.318897,1028.6,,,TRUE,,,,,,,CLR,,,,,,,,VFR,0.8,11.1,1.7,,,,,,,,,METAR,975.0
KMIW 130553Z AUTO 16006KT 10SM BKN080 OVC090 M11/M16 A3034 RMK AO2 SLP293 T11111156 11111 21117 411111172 56025,KMIW,2015-02-13T05:53:00Z,42.12,-92.92,-11.1,-15.6,160,6,,10.0,30.339567,1029.3,,TRUE,TRUE,,,,,,,BKN,8000,OVC,9000,,,,,VFR,-2.5,-11.1,-11.7,-11.1,-17.2,,,,,,,METAR,296.0
KSDM 130553Z AUTO 15006KT 10SM CLR 17/03 A3004 RMK AO2 SLP167 T01670033 10278 20122 58002,KSDM,2015-02-13T05:53:00Z,32.58,-117.0,16.7,3.3,150,6,,10.0,30.041338,1016.7,,TRUE,TRUE,,,,,,,CLR,,,,,,,,VFR,-0.2,27.8,12.2,,,,,,,,,METAR,159.0
KSDL 130553Z 03004KT 10SM CLR 17/01 A3015 RMK AO2 SLP194 T01670011 10244 20161 53005,KSDL,2015-02-13T05:53:00Z,33.62,-111.92,16.7,1.1,30,4,,10.0,30.15059,1019.4,,,TRUE,,,,,,,CLR,,,,,,,,VFR,0.5,24.4,16.1,,,,,,,,,METAR,447.0
KSBA 130553Z 00000KT 10SM CLR 12/06 A3005 RMK AO2 SLP177 T01220061 10278 20122 58003 $,KSBA,2015-02-13T05:53:00Z,34.43,-119.85,12.2,6.1,0,0,,10.0,30.050198,1017.7,,,TRUE,TRUE,,,,,,CLR,,,,,,,,VFR,-0.3,27.8,12.2,,,,,,,,,METAR,3.0
KMSP 130553Z 16006KT 10SM OVC130 M14/M18 A3027 RMK AO2 SLP272 4/001 T11441183 11133 21161 411221194 58036,KMSP,2015-02-13T05:53:00Z,44.88,-93.23,-14.4,-18.3,160,6,,10.0,30.268702,1027.2,,,TRUE,,,,,,,OVC,13000,,,,,,,VFR,-3.6,-13.3,-16.1,-12.2,-19.4,,,,,1.0,,METAR,265.0
KMSS 130553Z AUTO 28007KT 10SM FEW055 M20/M25 A3008 RMK AO2 SLP195 60000 T12001250 11150 21200 53010,KMSS,2015-02-13T05:53:00Z,44.93,-74.85,-20.0,-25.0,280,7,,10.0,30.079725,1019.5,,TRUE,TRUE,,,,,,,FEW,5500,,,,,,,VFR,1.0,-15.0,-20.0,,,,,0.0050,,,,METAR,66.0
KMFE 130553Z 05005KT 9SM OVC060 16/12 A3032 RMK AO2 SLP265 T01560117 10194 20150 402330144 50002,KMFE,2015-02-13T05:53:00Z,26.18,-98.25,15.6,11.7,50,5,,9.0,30.318897,1026.5,,,TRUE,,,,,,,OVC,6000,,,,,,,VFR,0.2,19.4,15.0,23.3,14.4,,,,,,,METAR,38.0
KSLN 130553Z AUTO 13008KT 10SM CLR M03/M12 A3026 RMK AO2 SLP264 T10331122 11017 21039 410061089 58022,KSLN,2015-02-13T05:53:00Z,38.78,-97.65,-3.3,-12.2,130,8,,10.0,30.259842,1026.4,,TRUE,TRUE,,,,,,,CLR,,,,,,,,VFR,-2.2,-1.7,-3.9,-0.6,-8.9,,,,,,,METAR,385.0
KSLC 130553Z 14003KT 10SM SCT200 05/00 A3035 RMK AO2 SLP272 T00500000 10133 20050 50003,KSLC,2015-02-13T05:53:00Z,40.77,-111.97,5.0,0.0,140,3,,10.0,30.351377,1027.2,,,TRUE,,,,,,,SCT,20000,,,,,,,VFR,0.3,13.3,5.0,,,,,,,,,METAR,1286.0
KRVS 130553Z AUTO 00000KT 10SM CLR M02/M12 A3036 RMK AO2 SLP291 T10171117 10022 21022 400441039 56017,KRVS,2015-02-13T05:53:00Z,36.05,-95.98,-1.7,-11.7,0,0,,10.0,30.360237,1029.1,,TRUE,TRUE,,,,,,,CLR,,,,,,,,VFR,-1.7,2.2,-2.2,4.4,-3.9,,,,,,,METAR,200.0
KRUE 130553Z AUTO 12004KT 10SM CLR 01/M13 A3039 RMK AO2 SLP288 T00111128 10044 20011 400780000 58010,KRUE,2015-02-13T05:53:00Z,35.25,-93.1,1.1,-12.8,120,4,,10.0,30.389763,1028.8,,TRUE,TRUE,,,,,,,CLR,,,,,,,,VFR,-1.0,4.4,1.1,7.8,,,,,,,,METAR,115.0
KRTN 130553Z AUTO 06005KT 10SM CLR M02/M04 A3026 RMK AO2 SLP250 T10171044 10094 21017 53004,KRTN,2015-02-13T05:53:00Z,36.73,-104.5,-1.7,-4.4,60,5,,10.0,30.259842,1025.0,,TRUE,TRUE,,,,,,,CLR,,,,,,,,VFR,0.4,9.4,-1.7,,,,,,,,,METAR,1936.0
KRSW 130553Z 00000KT 9SM CLR 13/12 A3009 RMK AO2 SLP186 T01280122 10161 20122 58001,KRSW,2015-02-13T05:53:00Z,26.53,-81.75,12.8,12.2,0,0,,9.0,30.088583,1018.6,,,TRUE,,,,,,,CLR,,,,,,,,VFR,-0.1,16.1,12.2,,,,,,,,,METAR,10.0
KSMQ 130553Z AUTO 33018G27KT 10SM CLR M11/M21 A3000 RMK AO2 PK WND 31034/0536 SLP161 60000 T11111211 11006 21111 51039 TSNO,KSMQ,2015-02-13T05:53:00Z,40.62,-74.67,-11.1,-21.1,330,18,27,10.0,30.0,1016.1,,TRUE,TRUE,,,TRUE,,,,CLR,,,,,,,,VFR,3.9,-0.6,-11.1,,,,,0.0050,,,,METAR,30.0
KSMF 130553Z 31004KT 10SM SCT300 13/11 A3015 RMK AO2 SLP208 T01280111 10206 20117 58002,KSMF,2015-02-13T05:53:00Z,38.7,-121.6,12.8,11.1,310,4,,10.0,30.15059,1020.8,,,TRUE,,,,,,,SCT,30000,,,,,,,VFR,-0.2,20.6,11.7,,,,,,,,,METAR,6.0
KDBQ 130553Z AUTO 23005KT 10SM SCT120 M17/M19 A3036 RMK AO2 SLP309 T11671189 11122 21167 411171167 58012,KDBQ,2015-02-13T05:53:00Z,42.4,-90.7,-16.7,-18.9,230,5,,10.0,30.360237,1030.9,,TRUE,TRUE,,,,,,,SCT,12000,,,,,,,VFR,-1.2,-12.2,-16.7,-11.7,-16.7,,,,,,,METAR,326.0
KDAN 130553Z AUTO 31009KT 10SM CLR M04/M15 A3020 RMK AO2 SLP223 T10391150 10006 21039 51024,KDAN,2015-02-13T05:53:00Z,36.57,-79.33,-3.9,-15.0,310,9,,10.0,30.200787,1022.3,,TRUE,TRUE,,,,,,,CLR,,,,,,,,VFR,2.4,0.6,-3.9,,,,,,,,,METAR,175.0
KDAL 130553Z 00000KT 10SM FEW250 07/M03 A3038 RMK AO2 SLP285 T00671033 10122 20067 401390033 53004,KDAL,2015-02-13T05:53:00Z,32.85,-96.85,6.7,-3.3,0,0,,10.0,30.380905,1028.5,,,TRUE,,,,,,,FEW,25000,,,,,,,VFR,0.4,12.2,6.7,13.9,3.3,,,,,,,METAR,158.0
KDAB 130553Z 33005KT 10SM CLR 11/07 A3008 RMK AO2 SLP184 T01110067 10172 20106 51006,KDAB,2015-02-13T05:53:00Z,29.18,-81.07,11.1,6.7,330,5,,10.0,30.079725,1018.4,,,TRUE,,,,,,,CLR,,,,,,,,VFR,0.6,17.2,10.6,,,,,,,,,METAR,9.0
KCYS 130553Z AUTO 30006KT 10SM FEW110 04/M06 A3022 RMK AO2 SLP205 T00441061 10106 20039 50003,KCYS,2015-02-13T05:53:00Z,41.15,-104.8,4.4,-6.1,300,6,,10.0,30.221457,1020.5,,TRUE,TRUE,,,,,,,FEW,11000,,,,,,,VFR,0.3,10.6,3.9,,,,,,,,,METAR,1868.0
KCXO 130553Z AUTO 00000KT 10SM CLR 04/03 A3034 RMK AO2 SLP273 T00440028 10150 20044 401780044 50003,KCXO,2015-02-13T05:53:00Z,30.35,-95.42,4.4,2.8,0,0,,10.0,30.339567,1027.3,,TRUE,TRUE,,,,,,,CLR,,,,,,,,VFR,0.3,15.0,4.4,17.8,4.4,,,,,,,METAR,75.0
KCUT 130553Z AUTO 00000KT 10SM CLR M01/M06 A3014 RMK AO2 SLP217 T10061061 10067 21006 51006,KCUT,2015-02-13T05:53:00Z,43.73,-103.62,-0.6,-6.1,0,0,,10.0,30.138779,1021.7,,TRUE,TRUE,,,,,,,CLR,,,,,,,,VFR,0.6,6.7,-0.6,,,,,,,,,METAR,1725.0
KCUB 130553Z AUTO VRB03KT 10SM CLR 00/M13 A3022 RMK AO2 SLP234 T00001128 10067 20000 51012 $,KCUB,2015-02-13T05:53:00Z,33.97,-81.0,0.0,-12.8,0,3,,10.0,30.221457,1023.4,,TRUE,TRUE,TRUE,,,,,,CLR,,,,,,,,VFR,1.2,6.7,0.0,,,,,,,,,METAR,56.0
KCSV 130553Z AUTO 35008KT 10SM CLR M07/M14 A3025 RMK AO2 SLP266 T10721144 11044 21072 400281072 58009,KCSV,2015-02-13T05:53:00Z,35.95,-85.08,-7.2,-14.4,350,8,,10.0,30.250984,1026.6,,TRUE,TRUE,,,,,,,CLR,,,,,,,,VFR,-0.9,-4.4,-7.2,2.8,-7.2,,,,,,,METAR,570.0
KCSM 130553Z 19011KT 10SM CLR 02/M04 A3028 RMK AO2 SLP261 T00221044 10078 20017 400941044 56014,KCSM,2015-02-13T05:53:00Z,35.35,-99.2,2.2,-4.4,190,11,,10.0,30.280512,1026.1,,,TRUE,,,,,,,CLR,,,,,,,,VFR,-1.4,7.8,1.7,9.4,-4.4,,,,,,,METAR,588.0
KBYG 130553Z AUTO 28007KT 10SM CLR 03/M03 A3022 RMK AO2 SLP222 T00331028 10100 20011 51001,KBYG,2015-02-13T05:53:00Z,44.38,-106.72,3.3,-2.8,280,7,,10.0,30.221457,1022.2,,TRUE,TRUE,,,,,,,CLR,,,,,,,,VFR,0.1,10.0,1.1,,,,,,,,,METAR,1497.0
PANN 130553Z AUTO 00000KT 10SM CLR M19/M22 A2980 RMK AO2 SLP104 T11891222 11133 21189 53001 TSNO $,PANN,2015-02-13T05:53:00Z,64.55,-149.08,-18.9,-22.2,0,0,,10.0,29.799213,1010.4,,TRUE,TRUE,TRUE,,TRUE,,,,CLR,,,,,,,,VFR,0.1,-13.3,-18.9,,,,,,,,,METAR,110.0
PANT 130553Z AUTO 12015G20KT 6SM -RA BR OVC008 09/09 A2985 RMK AO2 PK WND 13026/0500 RAB15E24B37 SLP110 P0000 60011 T00940089 10100 20089 53016 TSNO,PANT,2015-02-13T05:53:00Z,55.03,-131.57,9.4,8.9,120,15,20,6.0,29.84941,1011.0,,TRUE,TRUE,,,TRUE,,,-RA BR,OVC,800,,,,,,,IFR,1.6,10.0,8.9,,,0.0050,,0.11,,,,METAR,36.0
PAOR 130553Z 00000KT 10SM SCT090 SCT160 BKN250 M22/M24 A2982 RMK AO2 SLP174 4/010 T12221244 11178 21222 58000,PAOR,2015-02-13T05:53:00Z,62.97,-141.93,-22.2,-24.4,0,0,,10.0,29.819881,1017.4,,,TRUE,,,,,,,SCT,9000,SCT,16000,BKN,25000,,,VFR,0.0,-17.8,-22.2,,,,,,,10.0,,METAR,523.0
PAOM 130553Z 34005KT 10SM FEW038 BKN075 BKN140 BKN230 M13/M17 A2974 RMK AO2 WSHFT 0513 SLP072 T11281172 11117 21139 53004,PAOM,2015-02-13T05:53:00Z,64.5,-165.43,-12.8,-17.2,340,5,,10.0,29.740158,1007.2,,,TRUE,,,,,,,FEW,3800,BKN,7500,BKN,14000,BKN,23000,VFR,0.4,-11.7,-13.9,,,,,,,,,METAR,11.0
PAOT 130553Z 06005KT 10SM FEW028 M21/M26 A2988 RMK AO2 SLP118 T12061261 11200 21217 53001,PAOT,2015-02-13T05:53:00Z,66.87,-162.58,-20.6,-26.1,60,5,,10.0,29.878937,1011.8,,,TRUE,,,,,,,FEW,2800,,,,,,,VFR,0.1,-20.0,-21.7,,,,,,,,,METAR,3.0
PAPB 130553Z AUTO 02035G42KT 1/2SM -SN FZFG M06/M07 A2939 RMK AO2 PK WND 03044/0520 SLP940 P0000 60000 T10611067 11061 21067 50000 TSNO $,PAPB,2015-02-13T05:53:00Z,56.58,-169.67,-6.1,-6.7,20,35,42,0.5,29.388779,994.0,,TRUE,TRUE,TRUE,,TRUE,,,-SN FZFG,,,,,,,,,,0.0,-6.1,-6.7,,,0.0050,,0.0050,,,,METAR,35.0
PAQT 130553Z AUTO 18004KT 10SM CLR M40/ A3024 RMK AO2 SLP241 T1400 11328 21400 55001 TSNO,PAQT,2015-02-13T05:53:00Z,70.22,-151.0,-40.0,,180,4,,10.0,30.239174,1024.1,,TRUE,TRUE,,,TRUE,,,,CLR,,,,,,,,VFR,-0.1,-32.8,-40.0,,,,,,,,,METAR,12.0
PASI 130553Z 12013KT 10SM BKN050 OVC060 11/04 A2960 RMK AO2 RAB30E39 SLP023 P0000 60003 T01060044 10117 20094 53004,PASI,2015-02-13T05:53:00Z,57.07,-135.35,10.6,4.4,120,13,,10.0,29.601377,1002.3,,,TRUE,,,,,,,BKN,5000,OVC,6000,,,,,VFR,0.4,11.7,9.4,,,0.0050,,0.03,,,,METAR,5.0
PASC 130553Z 23007KT 10SM SCT004 M38/ A3020 RMK AO2 SLP228 T1378 11378 21400 56002,PASC,2015-02-13T05:53:00Z,70.2,-148.47,-37.8,,230,7,,10.0,30.200787,1022.8,,,TRUE,,,,,,,SCT,400,,,,,,,VFR,-0.2,-37.8,-40.0,,,,,,,,,METAR,15.0
PAWD 130553Z AUTO 36006KT 10SM CLR M01/M01 A2968 RMK AO2 SLP051 I1001 I6001 T10061011 10050 21006 51000 TSNO,PAWD,2015-02-13T05:53:00Z,60.12,-149.42,-0.6,-1.1,360,6,,10.0,29.681103,1005.1,,TRUE,TRUE,,,TRUE,,,,CLR,,,,,,,,VFR,0.0,5.0,-0.6,,,,,,,,,METAR,23.0
PAVL 130553Z AUTO 03007KT 10SM CLR M25/M29 A2991 RMK AO2 SLP129 T12501294 11228 21267 53002 TSNO,PAVL,2015-02-13T05:53:00Z,67.73,-164.55,-25.0,-29.4,30,7,,10.0,29.911417,1012.9,,TRUE,TRUE,,,TRUE,,,,CLR,,,,,,,,VFR,0.2,-22.8,-26.7,,,,,,,,,METAR,3.0
PAYA 130553Z AUTO 00000KT 9SM BKN035 BKN055 01/01 A2961 RMK AO2 SLP025 I6000 T00060006 10056 20006 56007 TSNO,PAYA,2015-02-13T05:53:00Z,59.52,-139.67,0.6,0.6,0,0,,9.0,29.610237,1002.5,,TRUE,TRUE,,,TRUE,,,,BKN,3500,BKN,5500,,,,,VFR,-0.7,5.6,0.6,,,,,,,,,METAR,11.0
KSNA 130553Z 00000KT 10SM CLR 20/02 A3005 RMK AO2 SLP173 T02000022 10283 20189 51002,KSNA,2015-02-13T05:53:00Z,33.67,-117.87,20.0,2.2,0,0,,10.0,30.050198,1017.3,,,TRUE,,,,,,,CLR,,,,,,,,VFR,0.2,28.3,18.9,,,,,,,,,METAR,16.0
KSNS 130553Z AUTO 00000KT 10SM CLR 12/07 A3013 RMK AO2 SLP212 T01220072 10256 20117 50000,KSNS,2015-02-13T05:53:00Z,36.67,-121.6,12.2,7.2,0,0,,10.0,30.129921,1021.2,,TRUE,TRUE,,,,,,,CLR,,,,,,,,VFR,0.0,25.6,11.7,,,,,,,,,METAR,30.0
KSNY 130553Z AUTO 28005KT 10SM CLR M01/M05 A3018 RMK AO2 SLP244 T10111050 10094 21017 50009,KSNY,2015-02-13T05:53:00Z,41.1,-102.98,-1.1,-5.0,280,5,,10.0,30.180119,1024.4,,TRUE,TRUE,,,,,,,CLR,,,,,,,,VFR,0.9,9.4,-1.7,,,,,,,,,METAR,1307.0
KSPG 130553Z AUTO 32007KT 10SM CLR 15/11 A3007 RMK AO2 SLP183 T01500111 10172 20150 56002,KSPG,2015-02-13T05:53:00Z,27.77,-82.63,15.0,11.1,320,7,,10.0,30.070866,1018.3,,TRUE,TRUE,,,,,,,CLR,,,,,,,,VFR,-0.2,17.2,15.0,,,,,,,,,METAR,2.0
KSPB 130553Z AUTO 28003KT 4SM BR CLR 06/06 A3024 RMK AO2 SLP240 T00610056 10150 20056 58005,KSPB,2015-02-13T05:53:00Z,45.77,-122.87,6.1,5.6,280,3,,4.0,30.239174,1024.0,,TRUE,TRUE,,,,,,BR,CLR,,,,,,,,MVFR,-0.5,15.0,5.6,,,,,,,,,METAR,14.0
KHGR 130553Z AUTO 31021G27KT 10SM CLR M11/M20 A3015 RMK AO2 PK WND 30029/0516 SLP228 T11111200 11056 21111 53021,KHGR,2015-02-13T05:53:00Z,39.7,-77.73,-11.1,-20.0,310,21,27,10.0,30.15059,1022.8,,TRUE,TRUE,,,,,,,CLR,,,,,,,,VFR,2.1,-5.6,-11.1,,,,,,,,,METAR,224.0
PAAQ 130553Z AUTO 00000KT 10SM FEW049 M05/M07 A2970 RMK AO2 SLP062 60000 T10501067 11017 21067 50006 TSNO,PAAQ,2015-02-13T05:53:00Z,61.6,-149.08,-5.0,-6.7,0,0,,10.0,29.698818,1006.2,,TRUE,TRUE,,,TRUE,,,,FEW,4900,,,,,,,VFR,0.6,-1.7,-6.7,,,,,0.0050,,,,METAR,73.0
PABI 130553Z 11010KT 10SM FEW100 BKN140 BKN200 M11/M16 A2974 RMK AO2 SLP117 T11111161 11106 21117 53001,PABI,2015-02-13T05:53:00Z,64.0,-145.73,-11.1,-16.1,110,10,,10.0,29.740158,1011.7,,,TRUE,,,,,,,FEW,10000,BKN,14000,BKN,20000,,,VFR,0.1,-10.6,-11.7,,,,,,,,,METAR,386.0
PABE 130553Z 01005KT 10SM BKN040 OVC050 M07/M08 A2955 RMK AO2 SLP011 T10671078 11061 21072 53009,PABE,2015-02-13T05:53:00Z,60.78,-161.85,-6.7,-7.8,10,5,,10.0,29.551182,1001.1,,,TRUE,,,,,,,BKN,4000,OVC,5000,,,,,VFR,0.9,-6.1,-7.2,,,,,,,,,METAR,41.0
PABT 130553Z 00000KT 10SM OVC038 M16/M19 A2991 RMK AO2 SLP153 60001 4/017 T11561189 11150 21172 53001 PNO,PABT,2015-02-13T05:53:00Z,66.92,-151.52,-15.6,-18.9,0,0,,10.0,29.911417,1015.3,,,TRUE,,,,,,,OVC,3800,,,,,,,VFR,0.1,-15.0,-17.2,,,,,0.01,,17.0,,METAR,195.0
PABR 130553Z 04010KT 10SM BKN034 M28/M32 A3032 RMK AO2 SLP269 I6002 T12831317 11283 21294 55001,PABR,2015-02-13T05:53:00Z,71.28,-156.8,-28.3,-31.7,40,10,,10.0,30.318897,1026.9,,,TRUE,,,,,,,BKN,3400,,,,,,,VFR,-0.1,-28.3,-29.4,,,,,,,,,METAR,7.0
PACV 130553Z 12003KT 5SM BR BKN055 M01/M02 A2965 RMK AO2 SLP041 T10111017 10067 21011 58008 $,PACV,2015-02-13T05:53:00Z,60.5,-145.5,-1.1,-1.7,120,3,,5.0,29.648623,1004.1,,,TRUE,TRUE,,,,,BR,BKN,5500,,,,,,,MVFR,-0.8,6.7,-1.1,,,,,,,,,METAR,12.0
KSTP 130553Z AUTO 15008KT 10SM CLR M15/M18 A3029 RMK AO2 SLP274 T11501183 11133 21161 411221194 58034,KSTP,2015-02-13T05:53:00Z,44.93,-93.05,-15.0,-18.3,150,8,,10.0,30.28937,1027.4,,TRUE,TRUE,,,,,,,CLR,,,,,,,,VFR,-3.4,-13.3,-16.1,-12.2,-19.4,,,,,,,METAR,219.0
KSTJ 130553Z AUTO 17007KT 10SM FEW080 BKN100 OVC120 M05/M13 A3036 RMK AO2 SLP293 T10501133 11050 21061 410111128 56024,KSTJ,2015-02-13T05:53:00Z,39.77,-94.92,-5.0,-13.3,170,7,,10.0,30.360237,1029.3,,TRUE,TRUE,,,,,,,FEW,8000,BKN,10000,OVC,12000,,,VFR,-2.4,-5.0,-6.1,-1.1,-12.8,,,,,,,METAR,247.0
KSTC 130553Z AUTO 18011KT 10SM OVC040 M13/M17 A3020 RMK AO2 SLP263 T11331167 11133 21161 411331222 58036,KSTC,2015-02-13T05:53:00Z,45.55,-94.05,-13.3,-16.7,180,11,,10.0,30.200787,1026.3,,TRUE,TRUE,,,,,,,OVC,4000,,,,,,,VFR,-3.6,-13.3,-16.1,-13.3,-22.2,,,,,,,METAR,314.0
KSSI 130553Z AUTO 34012G18KT 10SM CLR 04/M08 A3016 RMK AO2 SLP213 T00441078 10156 20044 51025,KSSI,2015-02-13T05:53:00Z,31.15,-81.38,4.4,-7.8,340,12,18,10.0,30.159449,1021.3,,TRUE,TRUE,,,,,,,CLR,,,,,,,,VFR,2.5,15.6,4.4,,,,,,,,,METAR,6.0
KSSF 130553Z AUTO 03004KT 10SM BKN055 OVC070 11/03 A3034 RMK AO2 SLP274 T01110028 10167 20111 401940100 53001,KSSF,2015-02-13T05:53:00Z,29.33,-98.47,11.1,2.8,30,4,,10.0,30.339567,1027.4,,TRUE,TRUE,,,,,,,BKN,5500,OVC,7000,,,,,VFR,0.1,16.7,11.1,19.4,10.0,,,,,,,METAR,176.0
KSRQ 130553Z AUTO 33006KT 10SM CLR 14/12 A3008 RMK AO2 SLP185 T01390122 10156 20133 53000,KSRQ,2015-02-13T05:53:00Z,27.4,-82.57,13.9,12.2,330,6,,10.0,30.079725,1018.5,,TRUE,TRUE,,,,,,,CLR,,,,,,,,VFR,0.0,15.6,13.3,,,,,,,,,METAR,18.0
KSTS 130553Z AUTO 00000KT 10SM CLR 12/11 A3015 RMK AO2 SLP202 T01220106 10217 20111 56000,KSTS,2015-02-13T05:53:00Z,38.5,-122.82,12.2,10.6,0,0,,10.0,30.15059,1020.2,,TRUE,TRUE,,,,,,,CLR,,,,,,,,VFR,0.0,21.7,11.1,,,,,,,,,METAR,39.0
PAEG 130553Z AUTO 00000KT 10SM BKN100 M14/M18 A2985 RMK AO2 SLP132 T11441183 11094 21144 56003 TSNO,PAEG,2015-02-13T05:53:00Z,64.78,-141.15,-14.4,-18.3,0,0,,10.0,29.84941,1013.2,,TRUE,TRUE,,,TRUE,,,,BKN,10000,,,,,,,VFR,-0.3,-9.4,-14.4,,,,,,,,,METAR,268.0
PAFA 130553Z 06005KT 10SM FEW120 M18/M21 A2981 RMK AO2 SLP108 T11831211 11122 21200 53001,PAFA,2015-02-13T05:53:00Z,64.8,-147.88,-18.3,-21.1,60,5,,10.0,29.811024,1010.8,,,TRUE,,,,,,,FEW,12000,,,,,,,VFR,0.1,-12.2,-20.0,,,,,,,,,METAR,132.0
PAHO 130553Z AUTO 06005KT 10SM CLR 01/M02 A2967 RMK AO2 SLP048 T00061017 10067 20006 51003 TSNO,PAHO,2015-02-13T05:53:00Z,59.63,-151.5,0.6,-1.7,60,5,,10.0,29.66929,1004.8,,TRUE,TRUE,,,TRUE,,,,CLR,,,,,,,,VFR,0.3,6.7,0.6,,,,,,,,,METAR,28.0
PAGY 130553Z AUTO 04004KT 5SM -RA BR OVC040 01/00 A2977 RMK AO2 UPE0454RAB26 SLP082 P0002 60003 T00110000 10022 20011 55001 TSNO,PAGY,2015-02-13T05:53:00Z,59.47,-135.3,1.1,0.0,40,4,,5.0,29.769686,1008.2,,TRUE,TRUE,,,TRUE,,,-RA BR,OVC,4000,,,,,,,MVFR,-0.1,2.2,1.1,,,0.02,,0.03,,,,METAR,5.0
PAIL 130553Z 07006KT 10SM BKN027 OVC030 03/M01 A2964 RMK AO2 SLP039 T00281006 10050 20022 51008,PAIL,2015-02-13T05:53:00Z,59.75,-154.92,2.8,-0.6,70,6,,10.0,29.639763,1003.9,,,TRUE,,,,,,,BKN,2700,OVC,3000,,,,,MVFR,0.8,5.0,2.2,,,,,,,,,METAR,49.0
KDET 130553Z 32007KT 10SM CLR M14/M21 A3035 RMK AO2 SLP292 T11391211 11117 21139 58001,KDET,2015-02-13T05:53:00Z,42.4,-83.02,-13.9,-21.1,320,7,,10.0,30.351377,1029.2,,,TRUE,,,,,,,CLR,,,,,,,,VFR,-0.1,-11.7,-13.9,,,,,,,,,METAR,190.0
KDEQ 130553Z AUTO 00000KT 9SM CLR 01/M04 A3037 RMK AO2 SLP284 T00111039 10094 20006 401390006 58001,KDEQ,2015-02-13T05:53:00Z,34.05,-94.4,1.1,-3.9,0,0,,9.0,30.369095,1028.4,,TRUE,TRUE,,,,,,,CLR,,,,,,,,VFR,-0.1,9.4,0.6,13.9,0.6,,,,,,,METAR,106.0
KDEN 130553Z 16010KT 10SM FEW150 SCT220 02/M06 A3021 RMK AO2 SLP210 T00171056 10128 20006 51007,KDEN,2015-02-13T05:53:00Z,39.85,-104.65,1.7,-5.6,160,10,,10.0,30.209646,1021.0,,,TRUE,,,,,,,FEW,15000,SCT,22000,,,,,VFR,0.7,12.8,0.6,,,,,,,,,METAR,1640.0
PAKT 130553Z 15016G22KT 10SM OVC021 10/08 A2984 RMK AO2 RAB0455E46 SLP104 P0004 60053 T01000083 10100 20094 53010,PAKT,2015-02-13T05:53:00Z,55.35,-131.7,10.0,8.3,150,16,22,10.0,29.840551,1010.4,,,TRUE,,,,,,,OVC,2100,,,,,,,MVFR,1.0,10.0,9.4,,,0.04,,0.53,,,,METAR,28.0
KTYS 130553Z 36010KT 10SM FEW039 SCT100 BKN250 M05/M14 A3030 RMK AO2 SLP270 T10501139 11028 21050 56006,KTYS,2015-02-13T05:53:00Z,35.82,-83.98,-5.0,-13.9,360,10,,10.0,30.301182,1027.0,,,TRUE,,,,,,,FEW,3900,SCT,10000,BKN,25000,,,VFR,-0.6,-2.8,-5.0,,,,,,,,,METAR,302.0
KTYR 130553Z 34003KT 10SM CLR 06/M03 A3035 RMK AO2 SLP277 T00561033 10122 20050 401560044 55000,KTYR,2015-02-13T05:53:00Z,32.37,-95.4,5.6,-3.3,340,3,,10.0,30.351377,1027.7,,,TRUE,,,,,,,CLR,,,,,,,,VFR,0.0,12.2,5.0,15.6,4.4,,,,,,,METAR,165.0
KTXK 130553Z AUTO 08004KT 10SM CLR 03/M07 A3038 RMK AO2 SLP289 T00281072 10106 20028 401390028 51000,KTXK,2015-02-13T05:53:00Z,33.45,-93.98,2.8,-7.2,80,4,,10.0,30.380905,1028.9,,TRUE,TRUE,,,,,,,CLR,,,,,,,,VFR,0.0,10.6,2.8,13.9,2.8,,,,,,,METAR,111.0
KUIL 130553Z AUTO 07005KT 10SM SCT021 OVC065 11/11 A3022 RMK AO2 SLP233 60002 T01110106 10111 20106 58000,KUIL,2015-02-13T05:53:00Z,47.93,-124.55,11.1,10.6,70,5,,10.0,30.221457,1023.3,,TRUE,TRUE,,,,,,,SCT,2100,OVC,6500,,,,,VFR,0.0,11.1,10.6,,,,,0.02,,,,METAR,54.0
KAPF 130553Z AUTO 29005KT 10SM CLR 15/13 A3008 RMK AO2 SLP186 T01500133 10167 20144 58005,KAPF,2015-02-13T05:53:00Z,26.15,-81.77,15.0,13.3,290,5,,10.0,30.079725,1018.6,,TRUE,TRUE,,,,,,,CLR,,,,,,,,VFR,-0.5,16.7,14.4,,,,,,,,,METAR,3.0
PAKW 130553Z AUTO VRB03KT 10SM OVC023 08/07 A2975 RMK AO2 RAE34 SLP075 P0001 60007 T00830072 10094 20083 53017 TSNO,PAKW,2015-02-13T05:53:00Z,55.58,-133.07,8.3,7.2,0,3,,10.0,29.749016,1007.5,,TRUE,TRUE,,,TRUE,,,,OVC,2300,,,,,,,MVFR,1.7,9.4,8.3,,,0.01,,0.07,,,,METAR,15.0
PAMC 130553Z AUTO 15003KT 10SM BKN060 OVC075 M11/M16 A2977 RMK AO2 SLP091 60001 T11061161 11094 21106 51011 TSNO,PAMC,2015-02-13T05:53:00Z,62.97,-155.62,-10.6,-16.1,150,3,,10.0,29.769686,1009.1,,TRUE,TRUE,,,TRUE,,,,BKN,6000,OVC,7500,,,,,VFR,1.1,-9.4,-10.6,,,,,0.01,,,,METAR,103.0
KUTS 130553Z AUTO 00000KT 7SM CLR 07/02 A3033 RMK AO2 SLP272 T00670017 10144 20061 401670061 51002,KUTS,2015-02-13T05:53:00Z,30.75,-95.58,6.7,1.7,0,0,,7.0,30.33071,1027.2,,TRUE,TRUE,,,,,,,CLR,,,,,,,,VFR,0.2,14.4,6.1,16.7,6.1,,,,,,,METAR,104.0
KUNO 130553Z AUTO 10005KT 10SM FEW070 OVC090 M04/M16 A3035 RMK AO2 SLP292 T10441156 11033 21044 410061050 58018,KUNO,2015-02-13T05:53:00Z,36.88,-91.9,-4.4,-15.6,100,5,,10.0,30.351377,1029.2,,TRUE,TRUE,,,,,,,FEW,7000,OVC,9000,,,,,VFR,-1.8,-3.3,-4.4,-0.6,-5.0,,,,,,,METAR,372.0
KVEL 130553Z AUTO 26005KT 10SM CLR 01/M06 A3034 RMK AO2 SLP282 T00061061 10100 21006 53006,KVEL,2015-02-13T05:53:00Z,40.45,-109.52,0.6,-6.1,260,5,,10.0,30.339567,1028.2,,TRUE,TRUE,,,,,,,CLR,,,,,,,,VFR,0.6,10.0,-0.6,,,,,,,,,METAR,1604.0
KVCB 130553Z AUTO 00000KT 10SM CLR 11/08 A3017 RMK AO2 SLP215 T01060083 10228 20100 58003,KVCB,2015-02-13T05:53:00Z,38.38,-121.95,10.6,8.3,0,0,,10.0,30.171259,1021.5,,TRUE,TRUE,,,,,,,CLR,,,,,,,,VFR,-0.3,22.8,10.0,,,,,,,,,METAR,33.0
KUUU 130553Z AUTO 31018G23KT 10SM SCT039 M06/M13 A2972 RMK AO2 SLP066 T10611133 11006 21061 51011,KUUU,2015-02-13T05:53:00Z,41.53,-71.28,-6.1,-13.3,310,18,23,10.0,29.719488,1006.6,,TRUE,TRUE,,,,,,,SCT,3900,,,,,,,VFR,1.1,-0.6,-6.1,,,,,,,,,METAR,51.0
KVGT 130553Z AUTO 30006KT 10SM CLR 14/M03 A3019 RMK AO2 SLP234 T01391028 10228 20139 58003 TSNO,KVGT,2015-02-13T05:53:00Z,36.22,-115.2,13.9,-2.8,300,6,,10.0,30.188976,1023.4,,TRUE,TRUE,,,TRUE,,,,CLR,,,,,,,,VFR,-0.3,22.8,13.9,,,,,,,,,METAR,671.0
KASE 130553Z AUTO 21005KT 10SM CLR M02/M09 A3038 RMK AO2 SLP259 T10171089 10056 21022 53002,KASE,2015-02-13T05:53:00Z,39.23,-106.87,-1.7,-8.9,210,5,,10.0,30.380905,1025.9,,TRUE,TRUE,,,,,,,CLR,,,,,,,,VFR,0.2,5.6,-2.2,,,,,,,,,METAR,2354.0
KASD 130553Z AUTO 35007KT 10SM CLR 04/M04 A3031 RMK AO2 SLP264 T00441044 10139 20044 401890039 50004,KASD,2015-02-13T05:53:00Z,30.35,-89.82,4.4,-4.4,350,7,,10.0,30.31004,1026.4,,TRUE,TRUE,,,,,,,CLR,,,,,,,,VFR,0.4,13.9,4.4,18.9,3.9,,,,,,,METAR,9.0
KARB 130553Z AUTO 35006KT 10SM CLR M15/M21 A3034 RMK AO2 SLP294 T11501206 11122 21172 58005,KARB,2015-02-13T05:53:00Z,42.22,-83.73,-15.0,-20.6,350,6,,10.0,30.339567,1029.4,,TRUE,TRUE,,,,,,,CLR,,,,,,,,VFR,-0.5,-12.2,-17.2,,,,,,,,,METAR,251.0
KARA 130553Z AUTO 04011KT 10SM CLR 07/M03 A3034 RMK AO2 SLP274 T00721033 10133 20072 401780072 51006,KARA,2015-02-13T05:53:00Z,30.03,-91.88,7.2,-3.3,40,11,,10.0,30.339567,1027.4,,TRUE,TRUE,,,,,,,CLR,,,,,,,,VFR,0.6,13.3,7.2,17.8,7.2,,,,,,,METAR,18.0
KVLD 130553Z AUTO 36007KT 310V020 10SM CLR 03/M06 A3018 RMK AO2 SLP229 T00331061 10133 20033 51023 TSNO,KVLD,2015-02-13T05:53:00Z,30.78,-83.27,3.3,-6.1,360,7,,10.0,30.180119,1022.9,,TRUE,TRUE,,,TRUE,,,,CLR,,,,,,,,VFR,2.3,13.3,3.3,,,,,,,,,METAR,62.0
KWRL 130553Z AUTO 00000KT 10SM CLR 01/M02 A3022 RMK AO2 SLP251 T00111022 10100 21006 51007,KWRL,2015-02-13T05:53:00Z,43.97,-107.95,1.1,-2.2,0,0,,10.0,30.221457,1025.1,,TRUE,TRUE,,,,,,,CLR,,,,,,,,VFR,0.7,10.0,-0.6,,,,,,,,,METAR,1271.0
KVUO 130553Z AUTO 00000KT 10SM CLR 06/04 A3024 RMK AO2 SLP242 T00610039 10161 20050 58003,KVUO,2015-02-13T05:53:00Z,45.62,-122.65,6.1,3.9,0,0,,10.0,30.239174,1024.2,,TRUE,TRUE,,,,,,,CLR,,,,,,,,VFR,-0.3,16.1,5.0,,,,,,,,,METAR,8.0
KVRB 130553Z 26005KT 10SM CLR 12/09 A3007 RMK AO2 SLP180 T01170089 10172 20117 53004,KVRB,2015-02-13T05:53:00Z,27.65,-80.42,11.7,8.9,260,5,,10.0,30.070866,1018.0,,,TRUE,,,,,,,CLR,,,,,,,,VFR,0.4,17.2,11.7,,,,,,,,,METAR,10.0
KVPC 130553Z AUTO VRB03KT 10SM CLR M03/M13 A3028 RMK AO2 SLP253 T10331128 11006 21039 56008,KVPC,2015-02-13T05:53:00Z,34.13,-84.85,-3.3,-12.8,0,3,,10.0,30.280512,1025.3,,TRUE,TRUE,,,,,,,CLR,,,,,,,,VFR,-0.8,-0.6,-3.9,,,,,,,,,METAR,222.0
KDFI 130553Z AUTO 33004KT 10SM CLR M13/M19 A3039 RMK AO2 SLP305 T11331189 11106 21133 57001,KDFI,2015-02-13T05:53:00Z,41.33,-84.43,-13.3,-18.9,330,4,,10.0,30.389763,1030.5,,TRUE,TRUE,,,,,,,CLR,,,,,,,,VFR,-0.1,-10.6,-13.3,,,,,,,,,METAR,219.0
KDFW 130553Z 00000KT 10SM FEW250 06/M03 A3036 RMK AO2 SLP282 T00611033 10100 20056 401280022 53003,KDFW,2015-02-13T05:53:00Z,32.9,-97.02,6.1,-3.3,0,0,,10.0,30.360237,1028.2,,,TRUE,,,,,,,FEW,25000,,,,,,,VFR,0.3,10.0,5.6,12.8,2.2,,,,,,,METAR,174.0
KWST 130553Z AUTO 31010G22KT 10SM CLR M07/M15 A2977 RMK AO2 SLP081 T10721150 11006 21072 51012,KWST,2015-02-13T05:53:00Z,41.35,-71.8,-7.2,-15.0,310,10,22,10.0,29.769686,1008.1,,TRUE,TRUE,,,,,,,CLR,,,,,,,,VFR,1.2,-0.6,-7.2,,,,,,,,,METAR,21.0
KWVI 130553Z AUTO 29003KT 10SM CLR 14/08 A3014 RMK AO2 SLP206 T01390083 10250 20139 58001,KWVI,2015-02-13T05:53:00Z,36.93,-121.78,13.9,8.3,290,3,,10.0,30.138779,1020.6,,TRUE,TRUE,,,,,,,CLR,,,,,,,,VFR,-0.1,25.0,13.9,,,,,,,,,METAR,43.0
KXNA 130553Z AUTO 12004KT 10SM CLR M01/M13 A3032 RMK AO2 SLP276 T10111128 10006 21017 400331061 56016,KXNA,2015-02-13T05:53:00Z,36.28,-94.3,-1.1,-12.8,120,4,,10.0,30.318897,1027.6,,TRUE,TRUE,,,,,,,CLR,,,,,,,,VFR,-1.6,0.6,-1.7,3.3,-6.1,,,,,,,METAR,392.0
KDHN 130553Z AUTO 35008KT 10SM CLR 01/M08 A3026 RMK AO2 SLP248 T00061078 10106 20006 401720006 51004 FZRANO $,KDHN,2015-02-13T05:53:00Z,31.32,-85.45,0.6,-7.8,350,8,,10.0,30.259842,1024.8,,TRUE,TRUE,TRUE,,,TRUE,,,CLR,,,,,,,,VFR,0.4,10.6,0.6,17.2,0.6,,,,,,,METAR,113.0
KDGW 130553Z AUTO 32004KT 10SM CLR 01/M04 A3023 RMK AO2 SLP235 T00061039 10122 20006 53009 $,KDGW,2015-02-13T05:53:00Z,42.8,-105.38,0.6,-3.9,320,4,,10.0,30.230314,1023.5,,TRUE,TRUE,TRUE,,,,,,CLR,,,,,,,,VFR,0.9,12.2,0.6,,,,,,,,,METAR,1499.0
KDHT 130553Z AUTO 22007KT 10SM CLR 02/M02 A3023 RMK AO2 SLP229 T00221022 10106 20011 401171044 58002,KDHT,2015-02-13T05:53:00Z,36.02,-102.55,2.2,-2.2,220,7,,10.0,30.230314,1022.9,,TRUE,TRUE,,,,,,,CLR,,,,,,,,VFR,-0.2,10.6,1.1,11.7,-4.4,,,,,,,METAR,1217.0
KDLN 130553Z AUTO 17006KT 10SM CLR 03/M03 A3030 RMK AO2 SLP257 T00331033 10139 20028 52004,KDLN,2015-02-13T05:53:00Z,45.25,-112.55,3.3,-3.3,170,6,,10.0,30.301182,1025.7,,TRUE,TRUE,,,,,,,CLR,,,,,,,,VFR,0.4,13.9,2.8,,,,,,,,,METAR,1591.0
KDKK 130553Z AUTO 26005KT 10SM CLR M18/M22 A3025 RMK AO2 SLP261 T11781217 11167 21178 53002,KDKK,2015-02-13T05:53:00Z,42.5,-79.28,-17.8,-21.7,260,5,,10.0,30.250984,1026.1,,TRUE,TRUE,,,,,,,CLR,,,,,,,,VFR,0.2,-16.7,-17.8,,,,,,,,,METAR,202.0
KDMN 130553Z AUTO 36006KT 10SM CLR 02/M03 A3032 RMK AO2 SLP249 T00221033 10133 20022 53007 PWINO,KDMN,2015-02-13T05:53:00Z,32.27,-107.72,2.2,-3.3,360,6,,10.0,30.318897,1024.9,,TRUE,TRUE,,,,,TRUE,,CLR,,,,,,,,VFR,0.7,13.3,2.2,,,,,,,,,METAR,1311.0
KDLS 130553Z AUTO 00000KT 10SM CLR 04/04 A3031 RMK AO2 SLP267 T00440039 10144 20044 53014,KDLS,2015-02-13T05:53:00Z,45.62,-121.17,4.4,3.9,0,0,,10.0,30.31004,1026.7,,TRUE,TRUE,,,,,,,CLR,,,,,,,,VFR,1.4,14.4,4.4,,,,,,,,,METAR,71.0
KCAG 130553Z AUTO 00000KT 10SM CLR M03/M06 A3036 RMK AO2 SLP309 T10331056 10078 21039 51008,KCAG,2015-02-13T05:53:00Z,40.5,-107.52,-3.3,-5.6,0,0,,10.0,30.360237,1030.9,,TRUE,TRUE,,,,,,,CLR,,,,,,,,VFR,0.8,7.8,-3.9,,,,,,,,,METAR,1887.0
KCDC 130553Z AUTO 18006KT 10SM CLR 02/M08 A3034 RMK AO2 SLP263 T00171078 10156 21006 53006,KCDC,2015-02-13T05:53:00Z,37.7,-113.1,1.7,-7.8,180,6,,10.0,30.339567,1026.3,,TRUE,TRUE,,,,,,,CLR,,,,,,,,VFR,0.6,15.6,-0.6,,,,,,,,,METAR,1714.0
KCCR 130553Z 00000KT 10SM CLR 12/09 A3016 RMK AO2 SLP200 T01220089 10217 20117 51002,KCCR,2015-02-13T05:53:00Z,38.0,-122.05,12.2,8.9,0,0,,10.0,30.159449,1020.0,,,TRUE,,,,,,,CLR,,,,,,,,VFR,0.2,21.7,11.7,,,,,,,,,METAR,11.0
KYIP 130553Z AUTO 32005KT 10SM CLR M15/M21 A3036 RMK AO2 SLP293 T11501211 11117 21161 58004 TSNO,KYIP,2015-02-13T05:53:00Z,42.23,-83.53,-15.0,-21.1,320,5,,10.0,30.360237,1029.3,,TRUE,TRUE,,,TRUE,,,,CLR,,,,,,,,VFR,-0.4,-11.7,-16.1,,,,,,,,,METAR,215.0
KCDR 130553Z AUTO 30004KT 10SM CLR 03/M03 A3016 RMK AO2 SLP236 T00331028 10089 20017 53011,KCDR,2015-02-13T05:53:00Z,42.83,-103.1,3.3,-2.8,300,4,,10.0,30.159449,1023.6,,TRUE,TRUE,,,,,,,CLR,,,,,,,,VFR,1.1,8.9,1.7,,,,,,,,,METAR,1010.0
KCDS 130553Z AUTO 18007KT 10SM CLR 01/M06 A3030 RMK AO2 SLP265 T00111056 10106 20011 401221011 58008,KCDS,2015-02-13T05:53:00Z,34.43,-100.28,1.1,-5.6,180,7,,10.0,30.301182,1026.5,,TRUE,TRUE,,,,,,,CLR,,,,,,,,VFR,-0.8,10.6,1.1,12.2,-1.1,,,,,,,METAR,594.0
KCDW 130553Z AUTO 31007G14KT 10SM CLR M12/M22 A2999 RMK AO2 PK WND 30026/0521 SLP162 60000 T11171217 11006 21122 51037 TSNO,KCDW,2015-02-13T05:53:00Z,40.88,-74.28,-11.7,-21.7,310,7,14,10.0,29.991142,1016.2,,TRUE,TRUE,,,TRUE,,,,CLR,,,,,,,,VFR,3.7,-0.6,-12.2,,,,,0.0050,,,,METAR,64.0
KCEW 130553Z AUTO 01005KT 10SM CLR 03/M07 A3027 RMK AO2 SLP249 T00281067 10117 20028 401830017 50010,KCEW,2015-02-13T05:53:00Z,30.78,-86.52,2.8,-6.7,10,5,,10.0,30.268702,1024.9,,TRUE,TRUE,,,,,,,CLR,,,,,,,,VFR,1.0,11.7,2.8,18.3,1.7,,,,,,,METAR,55.0
KCEZ 130553Z AUTO 07008KT 10SM CLR 00/M06 A3030 RMK AO2 SLP245 T00001061 10111 21006 58003,KCEZ,2015-02-13T05:53:00Z,37.3,-108.63,0.0,-6.1,70,8,,10.0,30.301182,1024.5,,TRUE,TRUE,,,,,,,CLR,,,,,,,,VFR,-0.3,11.1,-0.6,,,,,,,,,METAR,1797.0
KYKM 130553Z 28005KT 7SM CLR 04/02 A3030 RMK AO2 SLP268 T00390022 10150 20033 51005,KYKM,2015-02-13T05:53:00Z,46.57,-120.53,3.9,2.2,280,5,,7.0,30.301182,1026.8,,,TRUE,,,,,,,CLR,,,,,,,,VFR,0.5,15.0,3.3,,,,,,,,,METAR,324.0
KLOL 130553Z AUTO 02007KT 10SM CLR 09/03 A3031 RMK AO2 SLP262 T00890033 10167 20056 51009,KLOL,2015-02-13T05:53:00Z,40.07,-118.57,8.9,3.3,20,7,,10.0,30.31004,1026.2,,TRUE,TRUE,,,,,,,CLR,,,,,,,,VFR,0.9,16.7,5.6,,,,,,,,,METAR,1189.0
KLNS 130553Z AUTO 33017KT 10SM CLR M12/M20 A3010 RMK AO2 PK WND 32031/0517 SLP197 T11171200 11039 21117 51033,KLNS,2015-02-13T05:53:00Z,40.12,-76.3,-11.7,-20.0,330,17,,10.0,30.100393,1019.7,,TRUE,TRUE,,,,,,,CLR,,,,,,,,VFR,3.3,-3.9,-11.7,,,,,,,,,METAR,125.0
KLND 130553Z AUTO 24008KT 10SM CLR 07/M04 A3025 RMK AO2 SLP225 T00671044 10122 20050 51007,KLND,2015-02-13T05:53:00Z,42.82,-108.73,6.7,-4.4,240,8,,10.0,30.250984,1022.5,,TRUE,TRUE,,,,,,,CLR,,,,,,,,VFR,0.7,12.2,5.0,,,,,,,,,METAR,1694.0
KLMT 130553Z AUTO 00000KT 10SM CLR 01/M01 A3030 RMK AO2 SLP270 T00111006 10128 20011 51004 $,KLMT,2015-02-13T05:53:00Z,42.15,-121.72,1.1,-0.6,0,0,,10.0,30.301182,1027.0,,TRUE,TRUE,TRUE,,,,,,CLR,,,,,,,,VFR,0.4,12.8,1.1,,,,,,,,,METAR,1246.0
KLLQ 130553Z AUTO 08007KT 10SM CLR M01/M11 A3041 RMK AO2 SLP299 T10061106 10050 21006 400781006 56005,KLLQ,2015-02-13T05:53:00Z,33.63,-91.75,-0.6,-10.6,80,7,,10.0,30.410433,1029.9,,TRUE,TRUE,,,,,,,CLR,,,,,,,,VFR,-0.5,5.0,-0.6,7.8,-0.6,,,,,,,METAR,83.0
KLIT 130553Z 08006KT 10SM OVC250 00/M12 A3044 RMK AO2 SLP311 T00001117 10033 20000 400890000 55003,KLIT,2015-02-13T05:53:00Z,34.73,-92.23,0.0,-11.7,80,6,,10.0,30.43996,1031.1,,,TRUE,,,,,,,OVC,25000,,,,,,,VFR,-0.3,3.3,0.0,8.9,,,,,,,,METAR,79.0
KLHX 130553Z AUTO 29010KT 10SM CLR 04/M04 A3020 RMK AO2 SLP217 T00391044 10167 20039 51009,KLHX,2015-02-13T05:53:00Z,38.05,-103.52,3.9,-4.4,290,10,,10.0,30.200787,1021.7,,TRUE,TRUE,,,,,,,CLR,,,,,,,,VFR,0.9,16.7,3.9,,,,,,,,,METAR,1277.0
KLHQ 130553Z AUTO 00000KT 10SM CLR M13/M18 A3037 RMK AO2 SLP298 T11331178 11094 21139 58001,KLHQ,2015-02-13T05:53:00Z,39.75,-82.67,-13.3,-17.8,0,0,,10.0,30.369095,1029.8,,TRUE,TRUE,,,,,,,CLR,,,,,,,,VFR,-0.1,-9.4,-13.9,,,,,,,,,METAR,260.0
KLGB 130553Z 00000KT 10SM CLR 18/03 A3005 RMK AO2 SLP174 T01780033 10306 20178 51004,KLGB,2015-02-13T05:53:00Z,33.82,-118.15,17.8,3.3,0,0,,10.0,30.050198,1017.4,,,TRUE,,,,,,,CLR,,,,,,,,VFR,0.4,30.6,17.8,,,,,,,,,METAR,10.0
KLFT 130553Z AUTO 04005KT 10SM CLR 06/M04 A3034 RMK AO2 SLP273 T00561039 10128 20056 401720056 50004,KLFT,2015-02-13T05:53:00Z,30.2,-92.0,5.6,-3.9,40,5,,10.0,30.339567,1027.3,,TRUE,TRUE,,,,,,,CLR,,,,,,,,VFR,0.4,12.8,5.6,17.2,5.6,,,,,,,METAR,11.0
KLFK 130553Z AUTO 00000KT 10SM CLR 07/01 A3034 RMK AO2 SLP272 T00670011 10156 20061 401890061 51000,KLFK,2015-02-13T05:53:00Z,31.23,-94.75,6.7,1.1,0,0,,10.0,30.339567,1027.2,,TRUE,TRUE,,,,,,,CLR,,,,,,,,VFR,0.0,15.6,6.1,18.9,6.1,,,,,,,METAR,88.0
KLEE 130553Z AUTO 34009KT 10SM CLR 12/09 A3009 RMK AO2 SLP187 T01170089 10167 20117 51003,KLEE,2015-02-13T05:53:00Z,28.82,-81.82,11.7,8.9,340,9,,10.0,30.088583,1018.7,,TRUE,TRUE,,,,,,,CLR,,,,,,,,VFR,0.3,16.7,11.7,,,,,,,,,METAR,23.0
KLEB 130553Z AUTO 33008G17KT 290V350 10SM FEW031 SCT055 M13/M19 A2981 RMK AO2 SLP112 T11331194 11050 21133 53016,KLEB,2015-02-13T05:53:00Z,43.63,-72.3,-13.3,-19.4,330,8,17,10.0,29.811024,1011.2,,TRUE,TRUE,,,,,,,FEW,3100,SCT,5500,,,,,VFR,1.6,-5.0,-13.3,,,,,,,,,METAR,171.0
KLCH 130553Z AUTO 07006KT 10SM CLR 07/01 A3033 RMK AO2 SLP279 T00720011 10144 20067 401830067 50005,KLCH,2015-02-13T05:53:00Z,30.13,-93.22,7.2,1.1,70,6,,10.0,30.33071,1027.9,,TRUE,TRUE,,,,,,,CLR,,,,,,,,VFR,0.5,14.4,6.7,18.3,6.7,,,,,,,METAR,4.0
KLBX 130553Z AUTO 03005KT 4SM BR CLR 07/07 A3033 RMK AO2 SLP268 T00670067 10161 20067 401890067 53002,KLBX,2015-02-13T05:53:00Z,29.12,-95.47,6.7,6.7,30,5,,4.0,30.33071,1026.8,,TRUE,TRUE,,,,,,BR,CLR,,,,,,,,MVFR,0.2,16.1,6.7,18.9,6.7,,,,,,,METAR,6.0
KHZY 130553Z AUTO 30005KT 10SM OVC042 M14/M20 A3028 RMK AO2 SLP275 60000 T11441200 11144 21150 53000,KHZY,2015-02-13T05:53:00Z,41.78,-80.7,-14.4,-20.0,300,5,,10.0,30.280512,1027.5,,TRUE,TRUE,,,,,,,OVC,4200,,,,,,,VFR,0.0,-14.4,-15.0,,,,,0.0050,,,,METAR,276.0
KHYR 130553Z AUTO 19005KT 10SM BKN110 M17/M23 A3023 RMK AO2 SLP271 T11671228 11144 21211 411331211 58027,KHYR,2015-02-13T05:53:00Z,46.02,-91.45,-16.7,-22.8,190,5,,10.0,30.230314,1027.1,,TRUE,TRUE,,,,,,,BKN,11000,,,,,,,VFR,-2.7,-14.4,-21.1,-13.3,-21.1,,,,,,,METAR,370.0
KHWO 130553Z AUTO 29004KT 10SM CLR 14/11 A3008 RMK AO2 SLP185 T01390106 10217 20139 58005 $,KHWO,2015-02-13T05:53:00Z,26.0,-80.23,13.9,10.6,290,4,,10.0,30.079725,1018.5,,TRUE,TRUE,TRUE,,,,,,CLR,,,,,,,,VFR,-0.5,21.7,13.9,,,,,,,,,METAR,2.0
KHVR 130553Z AUTO 26008KT 10SM SCT110 05/01 A3010 RMK AO2 SLP212 T00500011 10061 20017 55006,KHVR,2015-02-13T05:53:00Z,48.55,-109.77,5.0,1.1,260,8,,10.0,30.100393,1021.2,,TRUE,TRUE,,,,,,,SCT,11000,,,,,,,VFR,-0.6,6.1,1.7,,,,,,,,,METAR,787.0
KHVN 130553Z AUTO 34013G23KT 10SM CLR M08/M18 A2986 RMK AO2 PK WND 31027/0534 SLP111 T10831178 11011 21083 53026,KHVN,2015-02-13T05:53:00Z,41.27,-72.87,-8.3,-17.8,340,13,23,10.0,29.861221,1011.1,,TRUE,TRUE,,,,,,,CLR,,,,,,,,VFR,2.6,-1.1,-8.3,,,,,,,,,METAR,4.0
KHUL 130553Z AUTO 00000KT 10SM BKN095 BKN120 M19/M22 A2964 RMK AO2 SLP049 60000 I1000 I6000 T11941222 11133 21228 56007,KHUL,2015-02-13T05:53:00Z,46.12,-67.8,-19.4,-22.2,0,0,,10.0,29.639763,1004.9,,TRUE,TRUE,,,,,,,BKN,9500,BKN,12000,,,,,VFR,-0.7,-13.3,-22.8,,,,,0.0050,,,,METAR,150.0
KHUF 130553Z 01004KT 10SM CLR M11/M14 A3045 RMK AO2 SLP320 T11061144 11067 21106 58007,KHUF,2015-02-13T05:53:00Z,39.45,-87.3,-10.6,-14.4,10,4,,10.0,30.448818,1032.0,,,TRUE,,,,,,,CLR,,,,,,,,VFR,-0.7,-6.7,-10.6,,,,,,,,,METAR,179.0
KHSV 130553Z 01011KT 10SM BKN180 M04/M12 A3035 RMK AO2 SLP282 LAST T10391122 10000 21039 400561039 56002,KHSV,2015-02-13T05:53:00Z,34.65,-86.78,-3.9,-12.2,10,11,,10.0,30.351377,1028.2,,,TRUE,,,,,,,BKN,18000,,,,,,,VFR,-0.2,0.0,-3.9,5.6,-3.9,,,,,,,METAR,191.0
KHSI 130553Z AUTO 18005KT 10SM CLR M07/M12 A3017 RMK AO2 SLP248 T10671122 11044 21067 410281122 56022,KHSI,2015-02-13T05:53:00Z,40.6,-98.43,-6.7,-12.2,180,5,,10.0,30.171259,1024.8,,TRUE,TRUE,,,,,,,CLR,,,,,,,,VFR,-2.2,-4.4,-6.7,-2.8,-12.2,,,,,,,METAR,591.0
KHRO 130553Z AUTO 12008KT 10SM OVC095 M03/M14 A3034 RMK AO2 SLP288 T10281139 11006 21033 400221050 58013,KHRO,2015-02-13T05:53:00Z,36.27,-93.15,-2.8,-13.9,120,8,,10.0,30.339567,1028.8,,TRUE,TRUE,,,,,,,OVC,9500,,,,,,,VFR,-1.3,-0.6,-3.3,2.2,-5.0,,,,,,,METAR,417.0
KHQM 130553Z AUTO 07003KT 7SM BKN070 11/09 A3024 RMK AO2 SLP245 T01060094 10122 20106 53000,KHQM,2015-02-13T05:53:00Z,46.97,-123.93,10.6,9.4,70,3,,7.0,30.239174,1024.5,,TRUE,TRUE,,,,,,,BKN,7000,,,,,,,VFR,0.0,12.2,10.6,,,,,,,,,METAR,7.0
KHOU 130553Z 05005KT 10SM CLR 11/03 A3033 RMK AO2 SLP274 T01110028 10172 20111 401940100 53001,KHOU,2015-02-13T05:53:00Z,29.63,-95.28,11.1,2.8,50,5,,10.0,30.33071,1027.4,,,TRUE,,,,,,,CLR,,,,,,,,VFR,0.1,17.2,11.1,19.4,10.0,,,,,,,METAR,36.0
KHOT 130553Z AUTO 10004KT 10SM CLR 01/M12 A3040 RMK AO2 SLP298 T00061117 10061 20006 401000006 51002,KHOT,2015-02-13T05:53:00Z,34.48,-93.1,0.6,-11.7,100,4,,10.0,30.398623,1029.8,,TRUE,TRUE,,,,,,,CLR,,,,,,,,VFR,0.2,6.1,0.6,10.0,0.6,,,,,,,METAR,162.0
KHLN 130553Z AUTO 24008KT 190V270 10SM CLR 09/M03 A3023 RMK AO2 SLP251 T00941033 10122 20083 53000,KHLN,2015-02-13T05:53:00Z,46.6,-111.98,9.4,-3.3,240,8,,10.0,30.230314,1025.1,,TRUE,TRUE,,,,,,,CLR,,,,,,,,VFR,0.0,12.2,8.3,,,,,,,,,METAR,1182.0
KHLG 130553Z AUTO 27005KT 10SM CLR M16/M20 A3028 RMK AO2 SLP282 60000 T11561200 11117 21156 50002,KHLG,2015-02-13T05:53:00Z,40.17,-80.65,-15.6,-20.0,270,5,,10.0,30.280512,1028.2,,TRUE,TRUE,,,,,,,CLR,,,,,,,,VFR,0.2,-11.7,-15.6,,,,,0.0050,,,,METAR,372.0
KHLC 130553Z AUTO 06006KT 10SM CLR M06/M11 A3016 RMK AO2 SLP239 T10561111 10022 21056 400281067 58019,KHLC,2015-02-13T05:53:00Z,39.37,-99.83,-5.6,-11.1,60,6,,10.0,30.159449,1023.9,,TRUE,TRUE,,,,,,,CLR,,,,,,,,VFR,-1.9,2.2,-5.6,2.8,-6.7,,,,,,,METAR,669.0
KHKY 130553Z AUTO 33006KT 10SM CLR M04/M14 A3017 RMK AO2 SLP214 T10441144 11017 21050 51006,KHKY,2015-02-13T05:53:00Z,35.75,-81.38,-4.4,-14.4,330,6,,10.0,30.171259,1021.4,,TRUE,TRUE,,,,,,,CLR,,,,,,,,VFR,0.6,-1.7,-5.0,,,,,,,,,METAR,354.0
KHKS 130553Z AUTO 36004KT 10SM CLR 00/M09 A3036 RMK AO2 SLP276 T00001089 10050 20000 401060000 58006,KHKS,2015-02-13T05:53:00Z,32.33,-90.22,0.0,-8.9,360,4,,10.0,30.360237,1027.6,,TRUE,TRUE,,,,,,,CLR,,,,,,,,VFR,-0.6,5.0,0.0,10.6,,,,,,,,METAR,108.0
KHKA 130553Z AUTO 07008KT 10SM CLR M06/M12 A3046 RMK AO2 SLP319 T10561117 11033 21056 400221056 58004,KHKA,2015-02-13T05:53:00Z,35.93,-89.83,-5.6,-11.7,70,8,,10.0,30.46063,1031.9,,TRUE,TRUE,,,,,,,CLR,,,,,,,,VFR,-0.4,-3.3,-5.6,2.2,-5.6,,,,,,,METAR,78.0
KHJO 130553Z AUTO 32005KT 6SM HZ CLR 14/09 A3016 RMK AO2 SLP215 T01390094 10233 20128 51006,KHJO,2015-02-13T05:53:00Z,36.32,-119.62,13.9,9.4,320,5,,6.0,30.159449,1021.5,,TRUE,TRUE,,,,,,HZ,CLR,,,,,,,,VFR,0.6,23.3,12.8,,,,,,,,,METAR,74.0
KHIO 130553Z 00000KT 1/4SM R13/1200V1400FT FG VV001 06/06 A3025 RMK AO2 SLP244 T00610061 10094 20061 58007,KHIO,2015-02-13T05:53:00Z,45.55,-122.95,6.1,6.1,0,0,,0.25,30.250984,1024.4,,,TRUE,,,,,,FG,OVX,0,,,,,,,LIFR,-0.7,9.4,6.1,,,,,,,,100,METAR,68.0
KGKY 130553Z 00000KT 10SM CLR 02/M03 A3037 RMK AO2 SLP284 T00221028 10117 20017 401390017 53001,KGKY,2015-02-13T05:53:00Z,32.67,-97.1,2.2,-2.8,0,0,,10.0,30.369095,1028.4,,,TRUE,,,,,,,CLR,,,,,,,,VFR,0.1,11.7,1.7,13.9,1.7,,,,,,,METAR,192.0
KGKJ 130553Z AUTO 27007KT 3SM -SN OVC040 M16/M20 A3020 RMK AO2 SNB27 SLP257 P0000 60000 T11611200 11150 21167 53002 TSNO,KGKJ,2015-02-13T05:53:00Z,41.63,-80.22,-16.1,-20.0,270,7,,3.0,30.200787,1025.7,,TRUE,TRUE,,,TRUE,,,-SN,OVC,4000,,,,,,,MVFR,0.2,-15.0,-16.7,,,0.0050,,0.0050,,,,METAR,428.0
KGJT 130553Z AUTO 10004KT 10SM CLR 01/M05 A3033 RMK AO2 SLP267 T00111050 10117 20006 53004,KGJT,2015-02-13T05:53:00Z,39.12,-108.52,1.1,-5.0,100,4,,10.0,30.33071,1026.7,,TRUE,TRUE,,,,,,,CLR,,,,,,,,VFR,0.4,11.7,0.6,,,,,,,,,METAR,1475.0
KGIF 130553Z AUTO 30007KT 10SM CLR 13/10 A3009 RMK AO2 SLP187 T01280100 10172 20128 52001,KGIF,2015-02-13T05:53:00Z,28.07,-81.75,12.8,10.0,300,7,,10.0,30.088583,1018.7,,TRUE,TRUE,,,,,,,CLR,,,,,,,,VFR,0.1,17.2,12.8,,,,,,,,,METAR,43.0
KGGW 130553Z AUTO 21004KT 10SM CLR 01/M02 A3009 RMK AO2 SLP219 T00061022 10022 21011 56009,KGGW,2015-02-13T05:53:00Z,48.22,-106.62,0.6,-2.2,210,4,,10.0,30.088583,1021.9,,TRUE,TRUE,,,,,,,CLR,,,,,,,,VFR,-0.9,2.2,-1.1,,,,,,,,,METAR,694.0
KGGG 130553Z AUTO 09005KT 10SM CLR 04/M03 A3035 RMK AO2 SLP281 T00441028 10128 20044 401610044 53001,KGGG,2015-02-13T05:53:00Z,32.38,-94.72,4.4,-2.8,90,5,,10.0,30.351377,1028.1,,TRUE,TRUE,,,,,,,CLR,,,,,,,,VFR,0.1,12.8,4.4,16.1,4.4,,,,,,,METAR,107.0
KGFL 130553Z AUTO 30016G22KT 10SM BKN065 OVC080 M14/M22 A2992 RMK AO2 SLP145 T11441222 11050 21144 51022,KGFL,2015-02-13T05:53:00Z,43.33,-73.62,-14.4,-22.2,300,16,22,10.0,29.920275,1014.5,,TRUE,TRUE,,,,,,,BKN,6500,OVC,8000,,,,,VFR,2.2,-5.0,-14.4,,,,,,,,,METAR,103.0
KGFK 130553Z AUTO 20010KT 10SM OVC015 M12/M15 A3009 RMK AO2 SNB12E30 SLP215 4/002 P0000 60000 T11221150 11122 21161 411221294 58027 TSNO,KGFK,2015-02-13T05:53:00Z,47.95,-97.18,-12.2,-15.0,200,10,,10.0,30.088583,1021.5,,TRUE,TRUE,,,TRUE,,,,OVC,1500,,,,,,,MVFR,-2.7,-12.2,-16.1,-12.2,-29.4,0.0050,,0.0050,,2.0,,METAR,258.0
KGEZ 130553Z AUTO 32006KT 10SM CLR M09/M14 A3039 RMK AO2 SLP304 60000 T10941139 11056 21094 58006,KGEZ,2015-02-13T05:53:00Z,39.58,-85.8,-9.4,-13.9,320,6,,10.0,30.389763,1030.4,,TRUE,TRUE,,,,,,,CLR,,,,,,,,VFR,-0.6,-5.6,-9.4,,,,,0.0050,,,,METAR,245.0
KGEY 130553Z AUTO 14005KT 10SM CLR 03/M01 A3022 RMK AO2 SLP248 T00281006 10117 20022 51009,KGEY,2015-02-13T05:53:00Z,44.52,-108.08,2.8,-0.6,140,5,,10.0,30.221457,1024.8,,TRUE,TRUE,,,,,,,CLR,,,,,,,,VFR,0.9,11.7,2.2,,,,,,,,,METAR,1191.0
KGEG 130553Z 00000KT 10SM CLR 05/03 A3030 RMK AO2 SLP271 T00500033 10139 20050 51004,KGEG,2015-02-13T05:53:00Z,47.62,-117.53,5.0,3.3,0,0,,10.0,30.301182,1027.1,,,TRUE,,,,,,,CLR,,,,,,,,VFR,0.4,13.9,5.0,,,,,,,,,METAR,735.0
KGCC 130553Z AUTO 28009KT 10SM CLR 02/M03 A3018 RMK AO2 SLP224 T00171028 10106 21006 51005 TSNO,KGCC,2015-02-13T05:53:00Z,44.33,-105.55,1.7,-2.8,280,9,,10.0,30.180119,1022.4,,TRUE,TRUE,,,TRUE,,,,CLR,,,,,,,,VFR,0.5,10.6,-0.6,,,,,,,,,METAR,1320.0
KFYV 130553Z AUTO 00000KT 10SM BKN095 M02/M12 A3033 RMK AO2 SLP279 T10171117 10006 21028 400331061 58016,KFYV,2015-02-13T05:53:00Z,36.02,-94.17,-1.7,-11.7,0,0,,10.0,30.33071,1027.9,,TRUE,TRUE,,,,,,,BKN,9500,,,,,,,VFR,-1.6,0.6,-2.8,3.3,-6.1,,,,,,,METAR,379.0
KFXE 130553Z 29004KT 10SM CLR 14/12 A3006 RMK AO2 SLP182 T01390117 10211 20139 58004,KFXE,2015-02-13T05:53:00Z,26.2,-80.18,13.9,11.7,290,4,,10.0,30.059055,1018.2,,,TRUE,,,,,,,CLR,,,,,,,,VFR,-0.4,21.1,13.9,,,,,,,,,METAR,6.0
KFWN 130553Z AUTO 10SM SCT043 M14/M23 A2998 RMK AO2 UPB05UPEMM SLP157 P0000 60000 T11391228 11039 21139 53020 $,KFWN,2015-02-13T05:53:00Z,41.2,-74.63,-13.9,-22.8,,,,10.0,29.97933,1015.7,,TRUE,TRUE,TRUE,,,,,,SCT,4300,,,,,,,VFR,2.0,-3.9,-13.9,,,0.0050,,0.0050,,,,METAR,133.0
KFUL 130553Z 08003KT 10SM CLR 18/02 A3004 RMK AO2 SLP172 T01830017 10317 20183 51004,KFUL,2015-02-13T05:53:00Z,33.87,-117.98,18.3,1.7,80,3,,10.0,30.041338,1017.2,,,TRUE,,,,,,,CLR,,,,,,,,VFR,0.4,31.7,18.3,,,,,,,,,METAR,35.0
KFTY 130553Z 34006KT 10SM CLR M03/M13 A3024 RMK AO2 SLP246 T10331128 10006 21033 58003,KFTY,2015-02-13T05:53:00Z,33.78,-84.52,-3.3,-12.8,340,6,,10.0,30.239174,1024.6,,,TRUE,,,,,,,CLR,,,,,,,,VFR,-0.3,0.6,-3.3,,,,,,,,,METAR,263.0
KFTW 130553Z 30003KT 6SM HZ CLR 06/M01 A3037 RMK AO2 SLP283 T00561011 10106 20056 401330028 53001,KFTW,2015-02-13T05:53:00Z,32.83,-97.37,5.6,-1.1,300,3,,6.0,30.369095,1028.3,,,TRUE,,,,,,HZ,CLR,,,,,,,,VFR,0.1,10.6,5.6,13.3,2.8,,,,,,,METAR,214.0
KFSM 130553Z AUTO 07006KT 10SM CLR 03/M11 A3037 RMK AO2 SLP287 T00281106 10067 20028 400891006 56008,KFSM,2015-02-13T05:53:00Z,35.33,-94.37,2.8,-10.6,70,6,,10.0,30.369095,1028.7,,TRUE,TRUE,,,,,,,CLR,,,,,,,,VFR,-0.8,6.7,2.8,8.9,-0.6,,,,,,,METAR,140.0
KFRG 130553Z AUTO 30015G24KT 10SM CLR M09/M18 A2990 RMK AO2 PK WND 32030/0507 SLP128 T10941178 11006 21094 53030,KFRG,2015-02-13T05:53:00Z,40.73,-73.42,-9.4,-17.8,300,15,24,10.0,29.899607,1012.8,,TRUE,TRUE,,,,,,,CLR,,,,,,,,VFR,3.0,-0.6,-9.4,,,,,,,,,METAR,21.0
KFPR 130553Z 00000KT 9SM CLR 10/09 A3007 RMK AO2 SLP182 T01000094 10161 20100 53006,KFPR,2015-02-13T05:53:00Z,27.5,-80.38,10.0,9.4,0,0,,9.0,30.070866,1018.2,,,TRUE,,,,,,,CLR,,,,,,,,VFR,0.6,16.1,10.0,,,,,,,,,METAR,13.0
KCRS 130553Z AUTO 36005KT 10SM CLR 06/M02 A3037 RMK AO2 SLP285 T00611017 10122 20061 401500044 55002 $,KCRS,2015-02-13T05:53:00Z,32.03,-96.4,6.1,-1.7,360,5,,10.0,30.369095,1028.5,,TRUE,TRUE,TRUE,,,,,,CLR,,,,,,,,VFR,-0.2,12.2,6.1,15.0,4.4,,,,,,,METAR,133.0
KCRQ 130553Z AUTO 06006KT 10SM CLR 23/M06 A3003 RMK AO2 SLP164 T02281061 10272 20183 58004 TSNO,KCRQ,2015-02-13T05:53:00Z,33.13,-117.28,22.8,-6.1,60,6,,10.0,30.029528,1016.4,,TRUE,TRUE,,,TRUE,,,,CLR,,,,,,,,VFR,-0.4,27.2,18.3,,,,,,,,,METAR,99.0
KCRG 130553Z AUTO 35010KT 10SM CLR 08/M06 A3013 RMK AO2 SLP203 T00831056 10172 20083 53023,KCRG,2015-02-13T05:53:00Z,30.33,-81.52,8.3,-5.6,350,10,,10.0,30.129921,1020.3,,TRUE,TRUE,,,,,,,CLR,,,,,,,,VFR,2.3,17.2,8.3,,,,,,,,,METAR,13.0
KCRE 130553Z AUTO 34009G15KT 310V010 10SM CLR 01/M12 A3016 RMK AO1 SLP213 T00111117 10106 20011 51027,KCRE,2015-02-13T05:53:00Z,33.82,-78.72,1.1,-11.7,340,9,15,10.0,30.159449,1021.3,,TRUE,TRUE,,,,,,,CLR,,,,,,,,VFR,2.7,10.6,1.1,,,,,,,,,METAR,10.0
KCPS 130553Z AUTO 07004KT 10SM CLR M07/M13 A3045 RMK AO2 SLP319 T10671128 11061 21067 410111100 56017 TSNO,KCPS,2015-02-13T05:53:00Z,38.57,-90.15,-6.7,-12.8,70,4,,10.0,30.448818,1031.9,,TRUE,TRUE,,,TRUE,,,,CLR,,,,,,,,VFR,-1.7,-6.1,-6.7,-1.1,-10.0,,,,,,,METAR,126.0
KCPR 130553Z AUTO 33005KT 10SM CLR 00/M04 A3024 RMK AO2 SLP237 T00001044 10111 21011 51009,KCPR,2015-02-13T05:53:00Z,42.9,-106.47,0.0,-4.4,330,5,,10.0,30.239174,1023.7,,TRUE,TRUE,,,,,,,CLR,,,,,,,,VFR,0.9,11.1,-1.1,,,,,,,,,METAR,1621.0
KCOT 130553Z AUTO 08009KT 10SM OVC090 14/03 A3035 RMK AO2 SLP274 60000 T01440033 10194 20144 402110139 51012,KCOT,2015-02-13T05:53:00Z,28.45,-99.22,14.4,3.3,80,9,,10.0,30.351377,1027.4,,TRUE,TRUE,,,,,,,OVC,9000,,,,,,,VFR,1.2,19.4,14.4,21.1,13.9,,,0.0050,,,,METAR,140.0
KCNY 130553Z AUTO 00000KT 10SM CLR 02/M06 A3030 RMK AO2 SLP260 T00171056 10144 20011 51005,KCNY,2015-02-13T05:53:00Z,38.77,-109.75,1.7,-5.6,0,0,,10.0,30.301182,1026.0,,TRUE,TRUE,,,,,,,CLR,,,,,,,,VFR,0.5,14.4,1.1,,,,,,,,,METAR,1390.0
KCNO 130553Z AUTO 36004KT 10SM CLR 17/01 A3009 RMK AO2 SLP184 T01670006 10289 20133 51008,KCNO,2015-02-13T05:53:00Z,33.98,-117.62,16.7,0.6,360,4,,10.0,30.088583,1018.4,,TRUE,TRUE,,,,,,,CLR,,,,,,,,VFR,0.8,28.9,13.3,,,,,,,,,METAR,207.0
KCNM 130553Z AUTO 14005KT 10SM BKN065 06/M01 A3030 RMK AO2 SLP245 T00611006 10117 20056 55002,KCNM,2015-02-13T05:53:00Z,32.33,-104.25,6.1,-0.6,140,5,,10.0,30.301182,1024.5,,TRUE,TRUE,,,,,,,BKN,6500,,,,,,,VFR,-0.2,11.7,5.6,,,,,,,,,METAR,985.0
KCMX 130553Z AUTO 21005KT 10SM OVC018 M18/M21 A3020 RMK AO2 SLP259 60000 T11781211 11167 21178 58028,KCMX,2015-02-13T05:53:00Z,47.17,-88.48,-17.8,-21.1,210,5,,10.0,30.200787,1025.9,,TRUE,TRUE,,,,,,,OVC,1800,,,,,,,MVFR,-2.8,-16.7,-17.8,,,,,0.0050,,,,METAR,326.0
KCMI 130553Z AUTO 01004KT 10SM CLR M11/M16 A3043 RMK AO2 SLP319 T11111161 11100 21128 410501128 56014,KCMI,2015-02-13T05:53:00Z,40.03,-88.27,-11.1,-16.1,10,4,,10.0,30.431103,1031.9,,TRUE,TRUE,,,,,,,CLR,,,,,,,,VFR,-1.4,-10.0,-12.8,-5.0,-12.8,,,,,,,METAR,228.0
KCLL 130553Z 34003KT 10SM CLR 09/01 A3035 RMK AO2 SLP276 T00890006 10144 20083 401670067 51005,KCLL,2015-02-13T05:53:00Z,30.58,-96.37,8.9,0.6,340,3,,10.0,30.351377,1027.6,,,TRUE,,,,,,,CLR,,,,,,,,VFR,0.5,14.4,8.3,16.7,6.7,,,,,,,METAR,96.0
KCHO 130553Z 32010G17KT 10SM CLR M07/M17 A3014 RMK AO2 SLP210 T10671172 11011 21072 51020,KCHO,2015-02-13T05:53:00Z,38.13,-78.45,-6.7,-17.2,320,10,17,10.0,30.138779,1021.0,,,TRUE,,,,,,,CLR,,,,,,,,VFR,2.0,-1.1,-7.2,,,,,,,,,METAR,192.0
KCHA 130553Z AUTO 36011KT 10SM CLR M03/M12 A3030 RMK AO2 SLP267 T10281122 11006 21028 56009,KCHA,2015-02-13T05:53:00Z,35.03,-85.2,-2.8,-12.2,360,11,,10.0,30.301182,1026.7,,TRUE,TRUE,,,,,,,CLR,,,,,,,,VFR,-0.9,-0.6,-2.8,,,,,,,,,METAR,210.0
KLOU 130553Z 33003KT 10SM CLR M07/M13 A3041 RMK AO2 SLP307 T10721133 11039 21072 58003,KLOU,2015-02-13T05:53:00Z,38.22,-85.67,-7.2,-13.3,330,3,,10.0,30.410433,1030.7,,,TRUE,,,,,,,CLR,,,,,,,,VFR,-0.3,-3.9,-7.2,,,,,,,,,METAR,164.0
KLOZ 130553Z AUTO 01009KT 10SM OVC032 M06/M14 A3032 RMK AO2 SNB00E09 SLP283 P0000 60000 T10611144 11044 21061 55005,KLOZ,2015-02-13T05:53:00Z,37.08,-84.07,-6.1,-14.4,10,9,,10.0,30.318897,1028.3,,TRUE,TRUE,,,,,,,OVC,3200,,,,,,,VFR,-0.5,-4.4,-6.1,,,0.0050,,0.0050,,,,METAR,362.0
KLUK 130553Z AUTO 36007KT 10SM OVC040 M07/M15 A3041 RMK AO2 SLP305 T10721150 11056 21072 58005,KLUK,2015-02-13T05:53:00Z,39.1,-84.42,-7.2,-15.0,360,7,,10.0,30.410433,1030.5,,TRUE,TRUE,,,,,,,OVC,4000,,,,,,,VFR,-0.5,-5.6,-7.2,,,,,,,,,METAR,155.0
KLSE 130553Z AUTO 18004KT 10SM CLR M18/M21 A3037 RMK AO2 SLP313 T11781211 11133 21178 411061194 56019,KLSE,2015-02-13T05:53:00Z,43.88,-91.25,-17.8,-21.1,180,4,,10.0,30.369095,1031.3,,TRUE,TRUE,,,,,,,CLR,,,,,,,,VFR,-1.9,-13.3,-17.8,-10.6,-19.4,,,,,,,METAR,199.0
KLVK 130553Z AUTO 00000KT 10SM CLR 13/09 A3016 RMK AO2 SLP212 T01280089 10200 20117 50000,KLVK,2015-02-13T05:53:00Z,37.7,-121.82,12.8,8.9,0,0,,10.0,30.159449,1021.2,,TRUE,TRUE,,,,,,,CLR,,,,,,,,VFR,0.0,20.0,11.7,,,,,,,,,METAR,117.0
KLVJ 130553Z AUTO 08011KT 10SM CLR 11/03 A3034 RMK AO2 SLP273 T01110033 10178 20111 402000094 53002,KLVJ,2015-02-13T05:53:00Z,29.52,-95.25,11.1,3.3,80,11,,10.0,30.339567,1027.3,,TRUE,TRUE,,,,,,,CLR,,,,,,,,VFR,0.2,17.8,11.1,20.0,9.4,,,,,,,METAR,12.0
KLWD 130553Z AUTO 17006KT 4SM -SN BR OVC049 M09/M12 A3033 RMK AO2 SLP295 P0001 60002 T10941117 11089 21094 410611161 58025,KLWD,2015-02-13T05:53:00Z,40.63,-93.9,-9.4,-11.7,170,6,,4.0,30.33071,1029.5,,TRUE,TRUE,,,,,,-SN BR,OVC,4900,,,,,,,MVFR,-2.5,-8.9,-9.4,-6.1,-16.1,0.01,,0.02,,,,METAR,346.0
KLVS 130553Z AUTO 35007KT 10SM CLR 02/M05 A3027 RMK AO2 SLP230 T00171050 10083 20006 53006,KLVS,2015-02-13T05:53:00Z,35.65,-105.13,1.7,-5.0,350,7,,10.0,30.268702,1023.0,,TRUE,TRUE,,,,,,,CLR,,,,,,,,VFR,0.6,8.3,0.6,,,,,,,,,METAR,2091.0
KLVM 130553Z AUTO 22018G28KT 10SM BKN070 OVC085 11/M04 A3021 RMK AO2 PK WND 22028/0553 SLP213 T01061039 10133 20106 58004,KLVM,2015-02-13T05:53:00Z,45.7,-110.43,10.6,-3.9,220,18,28,10.0,30.209646,1021.3,,TRUE,TRUE,,,,,,,BKN,7000,OVC,8500,,,,,VFR,-0.4,13.3,10.6,,,,,,,,,METAR,1418.0
KDMO 130553Z AUTO 12005KT 10SM OVC060 M06/M14 A3041 RMK AO2 SLP310 T10561139 11056 21061 410111106 56015,KDMO,2015-02-13T05:53:00Z,38.72,-93.17,-5.6,-13.9,120,5,,10.0,30.410433,1031.0,,TRUE,TRUE,,,,,,,OVC,6000,,,,,,,VFR,-1.5,-5.6,-6.1,-1.1,-10.6,,,,,,,METAR,274.0
KDNL 130553Z AUTO 01005KT 10SM CLR 00/M14 A3020 RMK AO2 SLP227 T00001139 10072 20000 50005 $,KDNL,2015-02-13T05:53:00Z,33.47,-82.03,0.0,-13.9,10,5,,10.0,30.200787,1022.7,,TRUE,TRUE,TRUE,,,,,,CLR,,,,,,,,VFR,0.5,7.2,0.0,,,,,,,,,METAR,130.0
KDRO 130553Z AUTO 01006KT 10SM CLR 00/M04 A3031 RMK AO2 SLP266 T00001039 10094 21006 53001,KDRO,2015-02-13T05:53:00Z,37.15,-107.77,0.0,-3.9,10,6,,10.0,30.31004,1026.6,,TRUE,TRUE,,,,,,,CLR,,,,,,,,VFR,0.1,9.4,-0.6,,,,,,,,,METAR,2035.0
KDRT 130553Z AUTO 28005KT 10SM OVC095 10/03 A3036 RMK AO2 SLP276 T01000033 10111 20078 401440078 58000,KDRT,2015-02-13T05:53:00Z,29.37,-100.92,10.0,3.3,280,5,,10.0,30.360237,1027.6,,TRUE,TRUE,,,,,,,OVC,9500,,,,,,,VFR,0.0,11.1,7.8,14.4,7.8,,,,,,,METAR,313.0
KDTN 130553Z AUTO 09004KT 10SM CLR 04/M07 A3039 RMK AO2 SLP289 T00391072 10117 20028 401390028 53007 TSNO,KDTN,2015-02-13T05:53:00Z,32.55,-93.75,3.9,-7.2,90,4,,10.0,30.389763,1028.9,,TRUE,TRUE,,,TRUE,,,,CLR,,,,,,,,VFR,0.7,11.7,2.8,13.9,2.8,,,,,,,METAR,53.0
KDTO 130553Z AUTO 00000KT 10SM CLR 01/M03 A3037 RMK AO2 SLP284 T00061028 10100 20006 401170006 51001,KDTO,2015-02-13T05:53:00Z,33.2,-97.2,0.6,-2.8,0,0,,10.0,30.369095,1028.4,,TRUE,TRUE,,,,,,,CLR,,,,,,,,VFR,0.1,10.0,0.6,11.7,0.6,,,,,,,METAR,196.0
KDTW 130553Z 29004KT 10SM FEW220 M15/M21 A3036 RMK AO2 SLP297 T11501206 11122 21156 58003,KDTW,2015-02-13T05:53:00Z,42.23,-83.33,-15.0,-20.6,290,4,,10.0,30.360237,1029.7,,,TRUE,,,,,,,FEW,22000,,,,,,,VFR,-0.3,-12.2,-15.6,,,,,,,,,METAR,195.0
KDTS 130553Z AUTO 35016G21KT 10SM CLR 06/M06 A3025 RMK AO2 SLP242 T00561056 10144 20056 401890056 51012 TSNO,KDTS,2015-02-13T05:53:00Z,30.4,-86.47,5.6,-5.6,350,16,21,10.0,30.250984,1024.2,,TRUE,TRUE,,,TRUE,,,,CLR,,,,,,,,VFR,1.2,14.4,5.6,18.9,5.6,,,,,,,METAR,5.0
KDUJ 130553Z AUTO 27012KT 6SM HZ SCT020 OVC034 M17/M20 A3010 RMK AO2 SLP229 60000 T11671200 11150 21167 53006,KDUJ,2015-02-13T05:53:00Z,41.17,-78.9,-16.7,-20.0,270,12,,6.0,30.100393,1022.9,,TRUE,TRUE,,,,,,HZ,SCT,2000,OVC,3400,,,,,VFR,0.6,-15.0,-16.7,,,,,0.0050,,,,METAR,554.0
KDWH 130553Z 00000KT 10SM CLR 08/04 A3034 RMK AO2 SLP272 T00780044 10161 20078 401890078 50003,KDWH,2015-02-13T05:53:00Z,30.07,-95.55,7.8,4.4,0,0,,10.0,30.339567,1027.2,,,TRUE,,,,,,,CLR,,,,,,,,VFR,0.3,16.1,7.8,18.9,7.8,,,,,,,METAR,46.0
KDVT 130553Z 03011KT 10SM CLR 16/00 A3013 RMK AO2 SLP188 T01610000 10239 20144 53004,KDVT,2015-02-13T05:53:00Z,33.68,-112.07,16.1,0.0,30,11,,10.0,30.129921,1018.8,,,TRUE,,,,,,,CLR,,,,,,,,VFR,0.4,23.9,14.4,,,,,,,,,METAR,443.0
KDXR 130553Z AUTO 30012G20KT 9SM OVC041 M11/M20 A2988 RMK AO2 SLP123 60000 T11061200 11028 21106 53021,KDXR,2015-02-13T05:53:00Z,41.37,-73.48,-10.6,-20.0,300,12,20,9.0,29.878937,1012.3,,TRUE,TRUE,,,,,,,OVC,4100,,,,,,,VFR,2.1,-2.8,-10.6,,,,,0.0050,,,,METAR,139.0
KECP 130553Z AUTO 33009KT 10SM CLR 04/M05 A3021 RMK AO2 SLP242 T00441050 10133 20044 401940044 51014 $,KECP,2015-02-13T05:53:00Z,30.35,-85.8,4.4,-5.0,330,9,,10.0,30.209646,1024.2,,TRUE,TRUE,TRUE,,,,,,CLR,,,,,,,,VFR,1.4,13.3,4.4,19.4,4.4,,,,,,,METAR,21.0
KELD 130553Z AUTO 05007KT 10SM CLR 01/M11 A3041 RMK AO2 SLP297 T00111111 10072 20011 401220011 53003,KELD,2015-02-13T05:53:00Z,33.22,-92.82,1.1,-11.1,50,7,,10.0,30.410433,1029.7,,TRUE,TRUE,,,,,,,CLR,,,,,,,,VFR,0.3,7.2,1.1,12.2,1.1,,,,,,,METAR,81.0
KEET 130553Z AUTO 36005KT 10SM CLR M02/M12 A3030 RMK AO2 SLP261 T10171117 10033 21017 400941017 58010,KEET,2015-02-13T05:53:00Z,33.18,-86.78,-1.7,-11.7,360,5,,10.0,30.301182,1026.1,,TRUE,TRUE,,,,,,,CLR,,,,,,,,VFR,-1.0,3.3,-1.7,9.4,-1.7,,,,,,,METAR,173.0
KEEO 130553Z AUTO 13007KT 10SM CLR 01/M07 A3037 RMK AO2 SLP282 T00111072 10106 20000 53007,KEEO,2015-02-13T05:53:00Z,40.05,-107.88,1.1,-7.2,130,7,,10.0,30.369095,1028.2,,TRUE,TRUE,,,,,,,CLR,,,,,,,,VFR,0.7,10.6,0.0,,,,,,,,,METAR,1930.0
KELN 130553Z AUTO 00000KT 10SM CLR 04/02 A3029 RMK AO2 SLP265 T00440017 10144 20044 51005,KELN,2015-02-13T05:53:00Z,47.03,-120.53,4.4,1.7,0,0,,10.0,30.28937,1026.5,,TRUE,TRUE,,,,,,,CLR,,,,,,,,VFR,0.5,14.4,4.4,,,,,,,,,METAR,519.0
KELY 130553Z AUTO 17014KT 10SM CLR 01/M09 A3039 RMK AO2 SLP265 T00111089 10178 20000 52009,KELY,2015-02-13T05:53:00Z,39.3,-114.85,1.1,-8.9,170,14,,10.0,30.389763,1026.5,,TRUE,TRUE,,,,,,,CLR,,,,,,,,VFR,0.9,17.8,0.0,,,,,,,,,METAR,1906.0
KEMP 130553Z AUTO 14008KT 10SM SCT120 M04/M12 A3030 RMK AO2 SLP280 T10391122 11039 21050 410221106 58016,KEMP,2015-02-13T05:53:00Z,38.33,-96.2,-3.9,-12.2,140,8,,10.0,30.301182,1028.0,,TRUE,TRUE,,,,,,,SCT,12000,,,,,,,VFR,-1.6,-3.9,-5.0,-2.2,-10.6,,,,,,,METAR,367.0
PHLI 130553Z 23003KT 10SM CLR 22/14 A2989 RMK AO2 SLP119 T02170144 10256 20217 53009,PHLI,2015-02-13T05:53:00Z,21.97,-159.33,21.7,14.4,230,3,,10.0,29.890747,1011.9,,,TRUE,,,,,,,CLR,,,,,,,,VFR,0.9,25.6,21.7,,,,,,,,,METAR,45.0
PHJR 130553Z 16005KT 10SM CLR 22/14 A2991 RMK AO2 SLP133 T02220139 10256 20222 51015,PHJR,2015-02-13T05:53:00Z,21.32,-158.07,22.2,13.9,160,5,,10.0,29.911417,1013.3,,,TRUE,,,,,,,CLR,,,,,,,,VFR,1.5,25.6,22.2,,,,,,,,,METAR,15.0
KRWL 130553Z AUTO 24014KT 10SM CLR 03/M07 A3029 RMK AO2 SLP240 T00281067 10083 20028 51007,KRWL,2015-02-13T05:53:00Z,41.78,-107.2,2.8,-6.7,240,14,,10.0,30.28937,1024.0,,TRUE,TRUE,,,,,,,CLR,,,,,,,,VFR,0.7,8.3,2.8,,,,,,,,,METAR,2077.0
KEQY 130553Z AUTO 34004KT 10SM CLR M02/M14 A3018 RMK AO2 SLP237 T10221139 10017 21028 51005,KEQY,2015-02-13T05:53:00Z,35.02,-80.62,-2.2,-13.9,340,4,,10.0,30.180119,1023.7,,TRUE,TRUE,,,,,,,CLR,,,,,,,,VFR,0.5,1.7,-2.8,,,,,,,,,METAR,212.0
KGLD 130553Z AUTO 26006KT 10SM CLR 01/M04 A3015 RMK AO2 SLP229 T00111044 10089 21006 55002,KGLD,2015-02-13T05:53:00Z,39.37,-101.7,1.1,-4.4,260,6,,10.0,30.15059,1022.9,,TRUE,TRUE,,,,,,,CLR,,,,,,,,VFR,-0.2,8.9,-0.6,,,,,,,,,METAR,1113.0
KGLR 130553Z AUTO 00000KT 9SM BKN020 M20/M22 A3024 RMK AO2 SLP278 T12001222 11178 21244 58012,KGLR,2015-02-13T05:53:00Z,45.02,-84.68,-20.0,-22.2,0,0,,9.0,30.239174,1027.8,,TRUE,TRUE,,,,,,,BKN,2000,,,,,,,MVFR,-1.2,-17.8,-24.4,,,,,,,,,METAR,407.0
KGLH 130553Z AUTO 03011KT 10SM CLR M01/M11 A3042 RMK AO2 SLP312 T10111111 10033 21017 400721017 55003,KGLH,2015-02-13T05:53:00Z,33.5,-90.98,-1.1,-11.1,30,11,,10.0,30.41929,1031.2,,TRUE,TRUE,,,,,,,CLR,,,,,,,,VFR,-0.3,3.3,-1.7,7.2,-1.7,,,,,,,METAR,45.0
PHKO 130553Z 33004KT 10SM SCT043 24/16 A2990 RMK AO2 SLP124 T02390161 10267 20239 53019,PHKO,2015-02-13T05:53:00Z,19.73,-156.05,23.9,16.1,330,4,,10.0,29.899607,1012.4,,,TRUE,,,,,,,SCT,4300,,,,,,,VFR,1.9,26.7,23.9,,,,,,,,,METAR,27.0
PHNL 130553Z 16003KT 10SM FEW028 SCT065 23/15 A2989 RMK AO2 SLP122 T02280150 10256 20228 51016,PHNL,2015-02-13T05:53:00Z,21.33,-157.92,22.8,15.0,160,3,,10.0,29.890747,1012.2,,,TRUE,,,,,,,FEW,2800,SCT,6500,,,,,VFR,1.6,25.6,22.8,,,,,,,,,METAR,4.0
KZZV 130553Z AUTO 24003KT 10SM M16/M19 A3035 RMK AO2 SLPNO 6//// T11561189 TSNO,KZZV,2015-02-13T05:53:00Z,39.95,-81.9,-15.6,-18.9,240,3,,10.0,30.351377,,,TRUE,TRUE,,,TRUE,,,,,,,,,,,,,,,,,,,,,,,,METAR,268.0
KEPH 130553Z AUTO 33003KT 10SM CLR 06/04 A3029 RMK AO2 SLP263 T00560039 10139 20050 53004 $,KEPH,2015-02-13T05:53:00Z,47.3,-119.52,5.6,3.9,330,3,,10.0,30.28937,1026.3,,TRUE,TRUE,TRUE,,,,,,CLR,,,,,,,,VFR,0.4,13.9,5.0,,,,,,,,,METAR,383.0
KENW 130553Z AUTO 24003KT 10SM CLR M16/M20 A3039 RMK AO2 SLP309 T11611200 11133 21178 410891178 56008,KENW,2015-02-13T05:53:00Z,42.6,-87.93,-16.1,-20.0,240,3,,10.0,30.389763,1030.9,,TRUE,TRUE,,,,,,,CLR,,,,,,,,VFR,-0.8,-13.3,-17.8,-8.9,-17.8,,,,,,,METAR,219.0
KGNV 130553Z AUTO 35008KT 10SM CLR 09/M01 A3011 RMK AO2 SLP196 T00891011 10156 20083 51013,KGNV,2015-02-13T05:53:00Z,29.7,-82.28,8.9,-1.1,350,8,,10.0,30.109253,1019.6,,TRUE,TRUE,,,,,,,CLR,,,,,,,,VFR,1.3,15.6,8.3,,,,,,,,,METAR,45.0
KGMU 130553Z AUTO 35012KT 10SM CLR M03/M14 A3019 RMK AO2 SLP229 T10331139 10000 21033 55001,KGMU,2015-02-13T05:53:00Z,34.85,-82.35,-3.3,-13.9,350,12,,10.0,30.188976,1022.9,,TRUE,TRUE,,,,,,,CLR,,,,,,,,VFR,-0.1,0.0,-3.3,,,,,,,,,METAR,315.0
KGPT 130553Z AUTO 36009KT 10SM CLR 05/M05 A3030 RMK AO2 SLP258 T00501050 10139 20050 401890050 50006,KGPT,2015-02-13T05:53:00Z,30.42,-89.08,5.0,-5.0,360,9,,10.0,30.301182,1025.8,,TRUE,TRUE,,,,,,,CLR,,,,,,,,VFR,0.6,13.9,5.0,18.9,5.0,,,,,,,METAR,14.0
KGOK 130553Z AUTO 15006KT 10SM CLR 01/M10 A3030 RMK AO2 SLP268 T00111100 10061 20011 400781067 58019,KGOK,2015-02-13T05:53:00Z,35.85,-97.4,1.1,-10.0,150,6,,10.0,30.301182,1026.8,,TRUE,TRUE,,,,,,,CLR,,,,,,,,VFR,-1.9,6.1,1.1,7.8,-6.7,,,,,,,METAR,324.0
KGRB 130553Z AUTO 20003KT 10SM CLR M21/M23 A3034 RMK AO2 SLP294 T12061233 11111 21206 410941206 58012,KGRB,2015-02-13T05:53:00Z,44.48,-88.13,-20.6,-23.3,200,3,,10.0,30.339567,1029.4,,TRUE,TRUE,,,,,,,CLR,,,,,,,,VFR,-1.2,-11.1,-20.6,-9.4,-20.6,,,,,,,METAR,208.0
KGSH 130553Z AUTO 00000KT 6SM -SN SCT022 OVC032 M10/M13 A3037 RMK AO2 SNB0454 SLP299 P0000 60000 T11001128 11083 21100 55006,KGSH,2015-02-13T05:53:00Z,41.53,-85.78,-10.0,-12.8,0,0,,6.0,30.369095,1029.9,,TRUE,TRUE,,,,,,-SN,SCT,2200,OVC,3200,,,,,VFR,-0.6,-8.3,-10.0,,,0.0050,,0.0050,,,,METAR,252.0
KGRR 130553Z AUTO 34004KT 10SM OVC031 M11/M17 A3035 RMK AO2 SLP294 T11111167 11106 21111 56010,KGRR,2015-02-13T05:53:00Z,42.88,-85.52,-11.1,-16.7,340,4,,10.0,30.351377,1029.4,,TRUE,TRUE,,,,,,,OVC,3100,,,,,,,VFR,-1.0,-10.6,-11.1,,,,,,,,,METAR,237.0
KGSP 130553Z AUTO VRB05KT 10SM CLR M04/M13 A3018 RMK AO2 SLP221 T10391128 11006 21039 55004,KGSP,2015-02-13T05:53:00Z,34.9,-82.22,-3.9,-12.8,0,5,,10.0,30.180119,1022.1,,TRUE,TRUE,,,,,,,CLR,,,,,,,,VFR,-0.4,-0.6,-3.9,,,,,,,,,METAR,287.0
KGTF 130553Z 21010KT 10SM BKN065 BKN110 07/M02 A3015 RMK AO2 SLP217 T00721017 10106 20067 56008,KGTF,2015-02-13T05:53:00Z,47.47,-111.38,7.2,-1.7,210,10,,10.0,30.15059,1021.7,,,TRUE,,,,,,,BKN,6500,BKN,11000,,,,,VFR,-0.8,10.6,6.7,,,,,,,,,METAR,1119.0
KGUP 130553Z AUTO 00000KT 10SM CLR M02/M06 A3032 RMK AO2 SLP258 T10171056 10128 21017 58004,KGUP,2015-02-13T05:53:00Z,35.52,-108.8,-1.7,-5.6,0,0,,10.0,30.318897,1025.8,,TRUE,TRUE,,,,,,,CLR,,,,,,,,VFR,-0.4,12.8,-1.7,,,,,,,,,METAR,1971.0
KGWO 130553Z AUTO 03008KT 10SM CLR M02/M11 A3040 RMK AO2 SLP296 T10171106 10033 21028 400721028 58002,KGWO,2015-02-13T05:53:00Z,33.5,-90.08,-1.7,-10.6,30,8,,10.0,30.398623,1029.6,,TRUE,TRUE,,,,,,,CLR,,,,,,,,VFR,-0.2,3.3,-2.8,7.2,-2.8,,,,,,,METAR,44.0
KGVL 130553Z AUTO 30006KT 10SM CLR M03/M13 A3019 RMK AO2 SLP230 T10331128 11011 21039 56009,KGVL,2015-02-13T05:53:00Z,34.27,-83.83,-3.3,-12.8,300,6,,10.0,30.188976,1023.0,,TRUE,TRUE,,,,,,,CLR,,,,,,,,VFR,-0.9,-1.1,-3.9,,,,,,,,,METAR,386.0
KGUY 130553Z AUTO 21010KT 10SM CLR 05/M04 A3018 RMK AO2 SLP212 T00501039 10111 20022 401441050 56007,KGUY,2015-02-13T05:53:00Z,36.68,-101.5,5.0,-3.9,210,10,,10.0,30.180119,1021.2,,TRUE,TRUE,,,,,,,CLR,,,,,,,,VFR,-0.7,11.1,2.2,14.4,-5.0,,,,,,,METAR,948.0
KHBG 130553Z AUTO 35005KT 10SM CLR 03/M04 A3033 RMK AO2 SLP270 T00281044 10106 20022 401610022 50001,KHBG,2015-02-13T05:53:00Z,31.27,-89.25,2.8,-4.4,350,5,,10.0,30.33071,1027.0,,TRUE,TRUE,,,,,,,CLR,,,,,,,,VFR,0.1,10.6,2.2,16.1,2.2,,,,,,,METAR,44.0
KHAO 130553Z AUTO 01005KT 10SM OVC034 M07/M14 A3039 RMK AO2 SLP301 T10721144 11061 21072 58007,KHAO,2015-02-13T05:53:00Z,39.37,-84.52,-7.2,-14.4,10,5,,10.0,30.389763,1030.1,,TRUE,TRUE,,,,,,,OVC,3400,,,,,,,VFR,-0.7,-6.1,-7.2,,,,,,,,,METAR,188.0
KGZH 130553Z AUTO 01005KT 10SM CLR 01/M07 A3028 RMK AO2 SLP254 T00111072 10089 20011 401500011 50001,KGZH,2015-02-13T05:53:00Z,31.42,-87.05,1.1,-7.2,10,5,,10.0,30.280512,1025.4,,TRUE,TRUE,,,,,,,CLR,,,,,,,,VFR,0.1,8.9,1.1,15.0,1.1,,,,,,,METAR,78.0
KHBR 130553Z AUTO 20010KT CLR 00/M04 A3029 RMK AO2 SLP266 T00001039 10089 21006 401001056 58015,KHBR,2015-02-13T05:53:00Z,34.98,-99.05,0.0,-3.9,200,10,,,30.28937,1026.6,,TRUE,TRUE,,,,,,,CLR,,,,,,,,,-1.5,8.9,-0.6,10.0,-5.6,,,,,,,METAR,473.0
KHFD 130553Z 32014G22KT 10SM CLR M09/M18 A2987 RMK AO2 PK WND 33028/0523 SLP116 T10941183 11011 21094 53024,KHFD,2015-02-13T05:53:00Z,41.73,-72.65,-9.4,-18.3,320,14,22,10.0,29.870079,1011.6,,,TRUE,,,,,,,CLR,,,,,,,,VFR,2.4,-1.1,-9.4,,,,,,,,,METAR,4.0
KHEI 130553Z AUTO 30008KT 10SM CLR M03/M06 A3009 RMK AO2 SLP228 T10331056 10028 21050 50006,KHEI,2015-02-13T05:53:00Z,46.02,-102.65,-3.3,-5.6,300,8,,10.0,30.088583,1022.8,,TRUE,TRUE,,,,,,,CLR,,,,,,,,VFR,0.6,2.8,-5.0,,,,,,,,,METAR,828.0
KICR 130553Z AUTO 33009KT 10SM CLR M03/M06 A3009 RMK AO2 SLP217 T10281061 10022 21028 400221167 53010,KICR,2015-02-13T05:53:00Z,43.38,-99.85,-2.8,-6.1,330,9,,10.0,30.088583,1021.7,,TRUE,TRUE,,,,,,,CLR,,,,,,,,VFR,1.0,2.2,-2.8,2.2,-16.7,,,,,,,METAR,621.0
KIAH 130553Z 01003KT 9SM CLR 09/04 A3033 RMK AO2 SLP271 T00890044 10156 20078 401890078 50002,KIAH,2015-02-13T05:53:00Z,30.0,-95.37,8.9,4.4,10,3,,9.0,30.33071,1027.1,,,TRUE,,,,,,,CLR,,,,,,,,VFR,0.2,15.6,7.8,18.9,7.8,,,,,,,METAR,36.0
KHIB 130553Z AUTO 20004KT 10SM OVC065 M16/M22 A3014 RMK AO2 SLP248 T11561222 11156 21211 411331267 56030,KHIB,2015-02-13T05:53:00Z,47.38,-92.83,-15.6,-22.2,200,4,,10.0,30.138779,1024.8,,TRUE,TRUE,,,,,,,OVC,6500,,,,,,,VFR,-3.0,-15.6,-21.1,-13.3,-26.7,,,,,,,METAR,412.0
KHHR 130553Z AUTO 00000KT 10SM CLR 19/04 A3005 RMK AO2 SLP176 T01940044 10294 20194 53003,KHHR,2015-02-13T05:53:00Z,33.92,-118.33,19.4,4.4,0,0,,10.0,30.050198,1017.6,,TRUE,TRUE,,,,,,,CLR,,,,,,,,VFR,0.3,29.4,19.4,,,,,,,,,METAR,18.0
KIDA 130553Z AUTO 35003KT 10SM CLR 01/M01 A3037 RMK AO2 SLP297 T00111006 10117 20011 53003,KIDA,2015-02-13T05:53:00Z,43.52,-112.07,1.1,-0.6,350,3,,10.0,30.369095,1029.7,,TRUE,TRUE,,,,,,,CLR,,,,,,,,VFR,0.3,11.7,1.1,,,,,,,,,METAR,1453.0
KICT 130553Z 12008KT 10SM BKN150 BKN200 M03/M13 A3027 RMK AO2 SLP266 T10331128 10000 21033 400111056 56013,KICT,2015-02-13T05:53:00Z,37.65,-97.43,-3.3,-12.8,120,8,,10.0,30.268702,1026.6,,,TRUE,,,,,,,BKN,15000,BKN,20000,,,,,VFR,-1.3,0.0,-3.3,1.1,-5.6,,,,,,,METAR,407.0
KILM 130553Z 33011KT 10SM CLR 01/M10 A3014 RMK AO2 SLP206 T00061100 10083 20006 51031,KILM,2015-02-13T05:53:00Z,34.27,-77.9,0.6,-10.0,330,11,,10.0,30.138779,1020.6,,,TRUE,,,,,,,CLR,,,,,,,,VFR,3.1,8.3,0.6,,,,,,,,,METAR,9.0
KRIW 130553Z AUTO 00000KT 10SM CLR 07/M04 A3026 RMK AO2 SLP231 T00671044 10106 20022 51008,KRIW,2015-02-13T05:53:00Z,43.07,-108.47,6.7,-4.4,0,0,,10.0,30.259842,1023.1,,TRUE,TRUE,,,,,,,CLR,,,,,,,,VFR,0.8,10.6,2.2,,,,,,,,,METAR,1697.0
KRIL 130553Z AUTO 00000KT 10SM CLR 01/M06 A3036 RMK AO2 SLP288 T00061056 10111 20000 51008,KRIL,2015-02-13T05:53:00Z,39.53,-107.73,0.6,-5.6,0,0,,10.0,30.360237,1028.8,,TRUE,TRUE,,,,,,,CLR,,,,,,,,VFR,0.8,11.1,0.0,,,,,,,,,METAR,1678.0
TIST 130553Z 08006KT 10SM FEW050 SCT060 24/22 A2998 RMK AO2 SLP154 T02440217 10250 20239 58014,TIST,2015-02-13T05:53:00Z,18.33,-64.98,24.4,21.7,80,6,,10.0,29.97933,1015.4,,,TRUE,,,,,,,FEW,5000,SCT,6000,,,,,VFR,-1.4,25.0,23.9,,,,,,,,,METAR,7.0
TISX 130553Z 03004KT 10SM FEW037 23/22 A2999 RMK AO2 SLP154 T02330222 10244 20233 58015,TISX,2015-02-13T05:53:00Z,17.7,-64.8,23.3,22.2,30,4,,10.0,29.991142,1015.4,,,TRUE,,,,,,,FEW,3700,,,,,,,VFR,-1.5,24.4,23.3,,,,,,,,,METAR,19.0
KRMG 130553Z AUTO 33005KT 10SM CLR M03/M12 A3029 RMK AO2 SLP258 T10281117 10000 21028 55006,KRMG,2015-02-13T05:53:00Z,34.35,-85.17,-2.8,-11.7,330,5,,10.0,30.28937,1025.8,,TRUE,TRUE,,,,,,,CLR,,,,,,,,VFR,-0.6,0.0,-2.8,,,,,,,,,METAR,193.0
KRME 130553Z AUTO 30011KT 10SM SCT024 M19/M22 A3007 RMK AO2 SLP192 60000 T11891222 11117 21211 53017,KRME,2015-02-13T05:53:00Z,43.22,-75.4,-18.9,-22.2,300,11,,10.0,30.070866,1019.2,,TRUE,TRUE,,,,,,,SCT,2400,,,,,,,VFR,1.7,-11.7,-21.1,,,,,0.0050,,,,METAR,154.0
KRKP 130553Z AUTO 02007KT 9SM CLR 13/09 A3033 RMK AO2 SLP272 T01280089 10178 20128 402170128 51010,KRKP,2015-02-13T05:53:00Z,28.08,-97.05,12.8,8.9,20,7,,9.0,30.33071,1027.2,,TRUE,TRUE,,,,,,,CLR,,,,,,,,VFR,1.0,17.8,12.8,21.7,12.8,,,,,,,METAR,6.0
KLBB 130553Z 17007KT 10SM FEW300 02/M06 A3030 RMK AO2 SLP255 T00221061 10106 20006 401221022 56004,KLBB,2015-02-13T05:53:00Z,33.67,-101.82,2.2,-6.1,170,7,,10.0,30.301182,1025.5,,,TRUE,,,,,,,FEW,30000,,,,,,,VFR,-0.4,10.6,0.6,12.2,-2.2,,,,,,,METAR,993.0
KLAW 130553Z AUTO VRB03KT 10SM CLR 01/M04 A3032 RMK AO2 SLP275 T00111044 10100 20000 401171011 58011,KLAW,2015-02-13T05:53:00Z,34.55,-98.42,1.1,-4.4,0,3,,10.0,30.318897,1027.5,,TRUE,TRUE,,,,,,,CLR,,,,,,,,VFR,-1.1,10.0,0.0,11.7,-1.1,,,,,,,METAR,337.0
KLAR 130553Z AUTO 18007KT 10SM OVC085 02/M06 A3026 RMK AO2 SLP216 T00171056 10078 20000 51004,KLAR,2015-02-13T05:53:00Z,41.32,-105.67,1.7,-5.6,180,7,,10.0,30.259842,1021.6,,TRUE,TRUE,,,,,,,OVC,8500,,,,,,,VFR,0.4,7.8,0.0,,,,,,,,,METAR,2216.0
KLAN 130553Z 00000KT 10SM CLR M17/M21 A3035 RMK AO2 SLP300 T11721211 11122 21178 58009,KLAN,2015-02-13T05:53:00Z,42.78,-84.58,-17.2,-21.1,0,0,,10.0,30.351377,1030.0,,,TRUE,,,,,,,CLR,,,,,,,,VFR,-0.9,-12.2,-17.8,,,,,,,,,METAR,264.0
KLAA 130553Z AUTO 27004KT 10SM CLR 01/M05 A3017 RMK AO2 SLP219 T00111050 10139 20000 51009,KLAA,2015-02-13T05:53:00Z,38.07,-102.68,1.1,-5.0,270,4,,10.0,30.171259,1021.9,,TRUE,TRUE,,,,,,,CLR,,,,,,,,VFR,0.9,13.9,0.0,,,,,,,,,METAR,1119.0
KJKL 130553Z AUTO VRB04KT 10SM OVC037 M07/M14 A3030 RMK AO2 SLP278 60000 T10721139 11056 21072 56004,KJKL,2015-02-13T05:53:00Z,37.6,-83.32,-7.2,-13.9,0,4,,10.0,30.301182,1027.8,,TRUE,TRUE,,,,,,,OVC,3700,,,,,,,VFR,-0.4,-5.6,-7.2,,,,,0.0050,,,,METAR,416.0
KJER 130553Z AUTO 00000KT 10SM CLR 05/02 A3036 RMK AO2 SLP285 T00500017 10139 20050 53008,KJER,2015-02-13T05:53:00Z,42.72,-114.45,5.0,1.7,0,0,,10.0,30.360237,1028.5,,TRUE,TRUE,,,,,,,CLR,,,,,,,,VFR,0.8,13.9,5.0,,,,,,,,,METAR,1222.0
KJEF 130553Z AUTO 12005KT 10SM BKN070 OVC080 M06/M15 A3043 RMK AO2 SLP304 T10611150 11056 21061 410111100 58016,KJEF,2015-02-13T05:53:00Z,38.6,-92.15,-6.1,-15.0,120,5,,10.0,30.431103,1030.4,,TRUE,TRUE,,,,,,,BKN,7000,OVC,8000,,,,,VFR,-1.6,-5.6,-6.1,-1.1,-10.0,,,,,,,METAR,168.0
KJBR 130553Z AUTO 07010KT 10SM BKN110 M04/M11 A3046 RMK AO2 SLP315 T10441111 11011 21044 400171044 55005,KJBR,2015-02-13T05:53:00Z,35.83,-90.65,-4.4,-11.1,70,10,,10.0,30.46063,1031.5,,TRUE,TRUE,,,,,,,BKN,11000,,,,,,,VFR,-0.5,-1.1,-4.4,1.7,-4.4,,,,,,,METAR,79.0
KIXD 130553Z 14007KT 10SM OVC100 M06/M13 A3035 RMK AO2 SLP292 T10561133 11044 21056 410111117 58016,KIXD,2015-02-13T05:53:00Z,38.82,-94.88,-5.6,-13.3,140,7,,10.0,30.351377,1029.2,,,TRUE,,,,,,,OVC,10000,,,,,,,VFR,-1.6,-4.4,-5.6,-1.1,-11.7,,,,,,,METAR,342.0
KIWI 130553Z AUTO 00000KT 10SM BKN045 M13/M16 A2971 RMK AO2 SLP063 60002 T11281156 11100 21128 55002,KIWI,2015-02-13T05:53:00Z,43.97,-69.72,-12.8,-15.6,0,0,,10.0,29.71063,1006.3,,TRUE,TRUE,,,,,,,BKN,4500,,,,,,,VFR,-0.2,-10.0,-12.8,,,,,0.02,,,,METAR,20.0
KITR 130553Z AUTO 26008KT 10SM CLR 02/M06 A3017 RMK AO2 SLP225 T00171056 10111 20011 50001,KITR,2015-02-13T05:53:00Z,39.23,-102.28,1.7,-5.6,260,8,,10.0,30.171259,1022.5,,TRUE,TRUE,,,,,,,CLR,,,,,,,,VFR,0.1,11.1,1.1,,,,,,,,,METAR,1279.0
KIPL 130553Z AUTO 24003KT 10SM CLR 14/01 A3007 RMK AO2 SLP181 T01440011 10283 20139 50000,KIPL,2015-02-13T05:53:00Z,32.83,-115.58,14.4,1.1,240,3,,10.0,30.070866,1018.1,,TRUE,TRUE,,,,,,,CLR,,,,,,,,VFR,0.0,28.3,13.9,,,,,,,,,METAR,-17.0
KINK 130553Z AUTO 19011KT 10SM OVC060 08/M02 A3030 RMK AO2 SLP249 T00781022 10111 20061 401220061 58008,KINK,2015-02-13T05:53:00Z,31.78,-103.2,7.8,-2.2,190,11,,10.0,30.301182,1024.9,,TRUE,TRUE,,,,,,,OVC,6000,,,,,,,VFR,-0.8,11.1,6.1,12.2,6.1,,,,,,,METAR,855.0
KIML 130553Z AUTO 29010KT 10SM CLR 03/M04 A3014 RMK AO2 SLP233 T00281044 10056 21011 51001 $,KIML,2015-02-13T05:53:00Z,40.52,-101.62,2.8,-4.4,290,10,,10.0,30.138779,1023.3,,TRUE,TRUE,TRUE,,,,,,CLR,,,,,,,,VFR,0.1,5.6,-1.1,,,,,,,,,METAR,998.0
KESF 130553Z AUTO 00000KT 10SM CLR 03/M04 A3036 RMK AO2 SLP282 T00281044 10117 20028 401670028 58000,KESF,2015-02-13T05:53:00Z,31.4,-92.28,2.8,-4.4,0,0,,10.0,30.360237,1028.2,,TRUE,TRUE,,,,,,,CLR,,,,,,,,VFR,0.0,11.7,2.8,16.7,2.8,,,,,,,METAR,28.0
KLBF 130553Z AUTO 27005KT 10SM CLR M03/M07 A3015 RMK AO2 SLP241 T10331067 11006 21056 400001072 58001 FZRANO $,KLBF,2015-02-13T05:53:00Z,41.12,-100.67,-3.3,-6.7,270,5,,10.0,30.15059,1024.1,,TRUE,TRUE,TRUE,,,TRUE,,,CLR,,,,,,,,VFR,-0.1,-0.6,-5.6,,-7.2,,,,,,,METAR,847.0
KBYI 130553Z AUTO 00000KT 10SM CLR 01/M02 A3035 RMK AO2 SLP279 T00111017 10144 20011 53007,KBYI,2015-02-13T05:53:00Z,42.55,-113.77,1.1,-1.7,0,0,,10.0,30.351377,1027.9,,TRUE,TRUE,,,,,,,CLR,,,,,,,,VFR,0.7,14.4,1.1,,,,,,,,,METAR,1264.0
KFHR 130553Z AUTO 00000KT 10SM FEW037 BKN044 OVC060 09/09 A3028 RMK AO2 SLP253 60000 T00940089 10100 20094 55004,KFHR,2015-02-13T05:53:00Z,48.52,-123.03,9.4,8.9,0,0,,10.0,30.280512,1025.3,,TRUE,TRUE,,,,,,,FEW,3700,BKN,4400,OVC,6000,,,VFR,-0.4,10.0,9.4,,,,,0.0050,,,,METAR,32.0
KFFT 130553Z AUTO 34004KT 10SM OVC036 M07/M13 A3037 RMK AO2 SLP294 T10721128 11056 21078 56007,KFFT,2015-02-13T05:53:00Z,38.18,-84.9,-7.2,-12.8,340,4,,10.0,30.369095,1029.4,,TRUE,TRUE,,,,,,,OVC,3600,,,,,,,VFR,-0.7,-5.6,-7.8,,,,,,,,,METAR,236.0
KFFC 130553Z AUTO 33013KT 10SM CLR M02/M12 A3023 RMK AO2 SLP243 T10221122 10028 21022 58008 $,KFFC,2015-02-13T05:53:00Z,33.35,-84.57,-2.2,-12.2,330,13,,10.0,30.230314,1024.3,,TRUE,TRUE,TRUE,,,,,,CLR,,,,,,,,VFR,-0.8,2.8,-2.2,,,,,,,,,METAR,262.0
KFDY 130553Z AUTO 26003KT 10SM CLR M16/M19 A3035 RMK AO2 SLP292 T11561194 11111 21167 58003,KFDY,2015-02-13T05:53:00Z,41.02,-83.67,-15.6,-19.4,260,3,,10.0,30.351377,1029.2,,TRUE,TRUE,,,,,,,CLR,,,,,,,,VFR,-0.3,-11.1,-16.7,,,,,,,,,METAR,247.0
KFDR 130553Z AUTO 18006KT 10SM CLR 02/M04 A3029 RMK AO2 SLP262 T00171039 10094 20017 401171028 58012,KFDR,2015-02-13T05:53:00Z,34.35,-98.98,1.7,-3.9,180,6,,10.0,30.28937,1026.2,,TRUE,TRUE,,,,,,,CLR,,,,,,,,VFR,-1.2,9.4,1.7,11.7,-2.8,,,,,,,METAR,386.0
KFCM 130553Z 17006KT 10SM CLR M14/M17 A3025 RMK AO2 SLP265 T11441172 11144 21156 411281200 58036,KFCM,2015-02-13T05:53:00Z,44.83,-93.47,-14.4,-17.2,170,6,,10.0,30.250984,1026.5,,,TRUE,,,,,,,CLR,,,,,,,,VFR,-3.6,-14.4,-15.6,-12.8,-20.0,,,,,,,METAR,280.0
KFAY 130553Z AUTO 33008KT 10SM CLR M01/M12 A3016 RMK AO2 SLP209 T10061122 10061 21006 51018,KFAY,2015-02-13T05:53:00Z,34.98,-78.88,-0.6,-12.2,330,8,,10.0,30.159449,1020.9,,TRUE,TRUE,,,,,,,CLR,,,,,,,,VFR,1.8,6.1,-0.6,,,,,,,,,METAR,55.0
KFAT 130553Z 32006KT 10SM CLR 13/11 A3016 RMK AO2 SLP212 T01330106 10233 20133 51003,KFAT,2015-02-13T05:53:00Z,36.78,-119.72,13.3,10.6,320,6,,10.0,30.159449,1021.2,,,TRUE,,,,,,,CLR,,,,,,,,VFR,0.3,23.3,13.3,,,,,,,,,METAR,104.0
KFAR 130553Z 18010KT 10SM OVC019 M10/M13 A3012 RMK AO2 SLP224 T11001133 11100 21139 411001272 58030,KFAR,2015-02-13T05:53:00Z,46.93,-96.82,-10.0,-13.3,180,10,,10.0,30.121063,1022.4,,,TRUE,,,,,,,OVC,1900,,,,,,,MVFR,-3.0,-10.0,-13.9,-10.0,-27.2,,,,,,,METAR,277.0
KEYW 130553Z AUTO 34006KT 10SM CLR 18/13 A3009 RMK AO2 SLP189 T01780133 10183 20172 58010,KEYW,2015-02-13T05:53:00Z,24.55,-81.75,17.8,13.3,340,6,,10.0,30.088583,1018.9,,TRUE,TRUE,,,,,,,CLR,,,,,,,,VFR,-1.0,18.3,17.2,,,,,,,,,METAR,5.0
KEYE 130553Z AUTO 31006KT 10SM CLR M11/M15 A3040 RMK AO2 SLP308 T11111150 11078 21111 58008 $,KEYE,2015-02-13T05:53:00Z,39.83,-86.3,-11.1,-15.0,310,6,,10.0,30.398623,1030.8,,TRUE,TRUE,TRUE,,,,,,CLR,,,,,,,,VFR,-0.8,-7.8,-11.1,,,,,,,,,METAR,248.0
KEWB 130553Z AUTO 30011KT 10SM BKN035 M05/M11 A2971 RMK AO2 SLP060 T10501111 11006 21056 53008,KEWB,2015-02-13T05:53:00Z,41.68,-70.95,-5.0,-11.1,300,11,,10.0,29.71063,1006.0,,TRUE,TRUE,,,,,,,BKN,3500,,,,,,,VFR,0.8,-0.6,-5.6,,,,,,,,,METAR,23.0
KEVW 130553Z AUTO 21003KT 10SM CLR 03/M07 A3039 RMK AO2 SLP266 T00331072 10100 20033 52001,KEVW,2015-02-13T05:53:00Z,41.27,-111.03,3.3,-7.2,210,3,,10.0,30.389763,1026.6,,TRUE,TRUE,,,,,,,CLR,,,,,,,,VFR,0.1,10.0,3.3,,,,,,,,,METAR,2177.0
KFLD 130553Z AUTO 00000KT 10SM CLR M17/M22 A3035 RMK AO2 SLP299 T11721217 11122 21178 411001178 58010,KFLD,2015-02-13T05:53:00Z,43.77,-88.48,-17.2,-21.7,0,0,,10.0,30.351377,1029.9,,TRUE,TRUE,,,,,,,CLR,,,,,,,,VFR,-1.0,-12.2,-17.8,-10.0,-17.8,,,,,,,METAR,240.0
KFNB 130553Z AUTO 16010KT 10SM BKN120 M05/M13 A3031 RMK AO2 SLP279 T10501133 11050 21067 410171128 58028,KFNB,2015-02-13T05:53:00Z,40.07,-95.58,-5.0,-13.3,160,10,,10.0,30.31004,1027.9,,TRUE,TRUE,,,,,,,BKN,12000,,,,,,,VFR,-2.8,-5.0,-6.7,-1.7,-12.8,,,,,,,METAR,300.0
KFMY 130553Z AUTO 00000KT 10SM CLR 12/12 A3008 RMK AO2 SLP188 T01220117 10161 20117 58001,KFMY,2015-02-13T05:53:00Z,26.58,-81.87,12.2,11.7,0,0,,10.0,30.079725,1018.8,,TRUE,TRUE,,,,,,,CLR,,,,,,,,VFR,-0.1,16.1,11.7,,,,,,,,,METAR,4.0
KFMN 130553Z 00000KT 10SM CLR 01/M05 A3028 RMK AO2 SLP259 T00111050 10128 20011 55001,KFMN,2015-02-13T05:53:00Z,36.75,-108.23,1.1,-5.0,0,0,,10.0,30.280512,1025.9,,,TRUE,,,,,,,CLR,,,,,,,,VFR,-0.1,12.8,1.1,,,,,,,,,METAR,1685.0
KFLO 130553Z AUTO 35010KT 10SM CLR 00/M12 A3019 RMK AO2 SLP223 T00001122 10072 20000 51018,KFLO,2015-02-13T05:53:00Z,34.18,-79.73,0.0,-12.2,350,10,,10.0,30.188976,1022.3,,TRUE,TRUE,,,,,,,CLR,,,,,,,,VFR,1.8,7.2,0.0,,,,,,,,,METAR,44.0
KFLL 130553Z 30005KT 10SM CLR 14/11 A3006 RMK AO2 SLP177 T01440111 10211 20144 58005,KFLL,2015-02-13T05:53:00Z,26.07,-80.15,14.4,11.1,300,5,,10.0,30.059055,1017.7,,,TRUE,,,,,,,CLR,,,,,,,,VFR,-0.5,21.1,14.4,,,,,,,,,METAR,3.0
KLWV 130553Z AUTO 35005KT 10SM CLR M08/M14 A3046 RMK AO2 SLP320 T10831139 11061 21083 410221083 58007,KLWV,2015-02-13T05:53:00Z,38.77,-87.6,-8.3,-13.9,350,5,,10.0,30.46063,1032.0,,TRUE,TRUE,,,,,,,CLR,,,,,,,,VFR,-0.7,-6.1,-8.3,-2.2,-8.3,,,,,,,METAR,131.0
KFOK 130553Z AUTO 32019G25KT 10SM CLR M07/M14 A2984 RMK AO2 SLP104 60000 T10671144 11011 21067 53019 TSNO,KFOK,2015-02-13T05:53:00Z,40.85,-72.62,-6.7,-14.4,320,19,25,10.0,29.840551,1010.4,,TRUE,TRUE,,,TRUE,,,,CLR,,,,,,,,VFR,1.9,-1.1,-6.7,,,,,0.0050,,,,METAR,33.0
KFOE 130553Z AUTO 14007KT 10SM CLR M03/M13 A3032 RMK AO2 SLP282 T10331128 11033 21039 410061106 56023,KFOE,2015-02-13T05:53:00Z,38.93,-95.65,-3.3,-12.8,140,7,,10.0,30.318897,1028.2,,TRUE,TRUE,,,,,,,CLR,,,,,,,,VFR,-2.3,-3.3,-3.9,-0.6,-10.6,,,,,,,METAR,320.0
KFNT 130553Z AUTO 28004KT 10SM CLR M17/M21 A3035 RMK AO2 SLP297 T11671211 11128 21178 58002,KFNT,2015-02-13T05:53:00Z,42.97,-83.75,-16.7,-21.1,280,4,,10.0,30.351377,1029.7,,TRUE,TRUE,,,,,,,CLR,,,,,,,,VFR,-0.2,-12.8,-17.8,,,,,,,,,METAR,233.0
KLXV 130553Z AUTO 05008KT 10SM CLR M05/M13 A3040 RMK AO2 SLP246 T10501128 10017 21072 51003,KLXV,2015-02-13T05:53:00Z,39.23,-106.32,-5.0,-12.8,50,8,,10.0,30.398623,1024.6,,TRUE,TRUE,,,,,,,CLR,,,,,,,,VFR,0.3,1.7,-7.2,,,,,,,,,METAR,3028.0
KMBS 130553Z 26006KT 10SM CLR M17/M21 A3036 RMK AO2 SLP299 T11721211 11128 21178 58003,KMBS,2015-02-13T05:53:00Z,43.53,-84.08,-17.2,-21.1,260,6,,10.0,30.360237,1029.9,,,TRUE,,,,,,,CLR,,,,,,,,VFR,-0.3,-12.8,-17.8,,,,,,,,,METAR,202.0
KMAI 130553Z AUTO 36011KT 10SM CLR 03/M07 A3023 RMK AO2 SLP236 6//// T00281067 10128 20028 401890028 51015 PNO $,KMAI,2015-02-13T05:53:00Z,30.83,-85.18,2.8,-6.7,360,11,,10.0,30.230314,1023.6,,TRUE,TRUE,TRUE,,,,,,CLR,,,,,,,,VFR,1.5,12.8,2.8,18.9,2.8,,,,,,,METAR,32.0
KMAF 130553Z AUTO 22007KT 10SM OVC055 08/M01 A3033 RMK AO2 SLP259 T00831011 10100 20083 401000050 58000 TSNO,KMAF,2015-02-13T05:53:00Z,31.95,-102.2,8.3,-1.1,220,7,,10.0,30.33071,1025.9,,TRUE,TRUE,,,TRUE,,,,OVC,5500,,,,,,,VFR,0.0,10.0,8.3,10.0,5.0,,,,,,,METAR,874.0
KMAE 130553Z AUTO 35004KT 5SM BR CLR 11/09 A3017 RMK AO2 SLP214 T01060089 10222 20106 51003,KMAE,2015-02-13T05:53:00Z,36.98,-120.12,10.6,8.9,350,4,,5.0,30.171259,1021.4,,TRUE,TRUE,,,,,,BR,CLR,,,,,,,,MVFR,0.3,22.2,10.6,,,,,,,,,METAR,77.0
KMCB 130553Z AUTO 36006KT 10SM CLR 02/M07 A3032 RMK AO2 SLP268 T00221067 10100 20022 401500022 58005,KMCB,2015-02-13T05:53:00Z,31.18,-90.47,2.2,-6.7,360,6,,10.0,30.318897,1026.8,,TRUE,TRUE,,,,,,,CLR,,,,,,,,VFR,-0.5,10.0,2.2,15.0,2.2,,,,,,,METAR,124.0
PHTO 130553Z 16003KT 10SM BKN050 23/18 A2990 RMK AO2 SLP123 60000 T02280183 10250 20228 53015 $,PHTO,2015-02-13T05:53:00Z,19.72,-155.05,22.8,18.3,160,3,,10.0,29.899607,1012.3,,,TRUE,TRUE,,,,,,BKN,5000,,,,,,,VFR,1.5,25.0,22.8,,,,,0.0050,,,,METAR,12.0
KMGM 130553Z AUTO 01009KT 10SM CLR 00/M11 A3030 RMK AO2 SLP262 T00001106 10067 20000 401440000 58006 FZRANO,KMGM,2015-02-13T05:53:00Z,32.3,-86.4,0.0,-10.6,10,9,,10.0,30.301182,1026.2,,TRUE,TRUE,,,,TRUE,,,CLR,,,,,,,,VFR,-0.6,6.7,0.0,14.4,,,,,,,,METAR,63.0
KMFR 130553Z AUTO 00000KT 10SM CLR 07/04 A3026 RMK AO2 SLP254 T00670044 10144 20056 53005,KMFR,2015-02-13T05:53:00Z,42.38,-122.87,6.7,4.4,0,0,,10.0,30.259842,1025.4,,TRUE,TRUE,,,,,,,CLR,,,,,,,,VFR,0.5,14.4,5.6,,,,,,,,,METAR,396.0
KMDW 130553Z COR 27004KT 10SM CLR M12/M18 A3042 RMK AO2 SLP321 4/003 T11171183 11089 21117 410611117 56014 $,KMDW,2015-02-13T05:53:00Z,41.78,-87.75,-11.7,-18.3,270,4,,10.0,30.41929,1032.1,TRUE,,TRUE,TRUE,,,,,,CLR,,,,,,,,VFR,-1.4,-8.9,-11.7,-6.1,-11.7,,,,,3.0,,METAR,188.0
KMCW 130553Z AUTO 19006KT 10SM BKN055 OVC095 M12/M15 A3031 RMK AO2 SLP287 T11171150 11117 21122 411171189 58021,KMCW,2015-02-13T05:53:00Z,43.15,-93.33,-11.7,-15.0,190,6,,10.0,30.31004,1028.7,,TRUE,TRUE,,,,,,,BKN,5500,OVC,9500,,,,,VFR,-2.1,-11.7,-12.2,-11.7,-18.9,,,,,,,METAR,369.0
KMCO 130553Z 30006KT 10SM CLR 13/10 A3007 RMK AO2 SLP181 T01280100 10183 20128 50001,KMCO,2015-02-13T05:53:00Z,28.42,-81.33,12.8,10.0,300,6,,10.0,30.070866,1018.1,,,TRUE,,,,,,,CLR,,,,,,,,VFR,0.1,18.3,12.8,,,,,,,,,METAR,29.0
KMCN 130553Z AUTO 35006KT 10SM CLR M02/M12 A3023 RMK AO2 SLP236 T10171117 10056 21017 50007 TSNO,KMCN,2015-02-13T05:53:00Z,32.68,-83.65,-1.7,-11.7,350,6,,10.0,30.230314,1023.6,,TRUE,TRUE,,,TRUE,,,,CLR,,,,,,,,VFR,0.7,5.6,-1.7,,,,,,,,,METAR,109.0
KMCK 130553Z AUTO 06006KT 10SM CLR M04/M08 A3015 RMK AO2 SLP240 T10391083 10033 21039 400391056 56006,KMCK,2015-02-13T05:53:00Z,40.2,-100.58,-3.9,-8.3,60,6,,10.0,30.15059,1024.0,,TRUE,TRUE,,,,,,,CLR,,,,,,,,VFR,-0.6,3.3,-3.9,3.9,-5.6,,,,,,,METAR,782.0
KMCI 130553Z 15008KT 10SM BKN080 OVC095 M05/M13 A3033 RMK AO2 SLP286 T10501133 11050 21056 400001122 58023,KMCI,2015-02-13T05:53:00Z,39.3,-94.73,-5.0,-13.3,150,8,,10.0,30.33071,1028.6,,,TRUE,,,,,,,BKN,8000,OVC,9500,,,,,VFR,-2.3,-5.0,-5.6,,-12.2,,,,,,,METAR,320.0
KMHT 130553Z 30011G17KT 10SM FEW100 M09/M15 A2974 RMK AO2 SLP091 60000 I6000 T10941150 11061 21100 51015,KMHT,2015-02-13T05:53:00Z,42.93,-71.43,-9.4,-15.0,300,11,17,10.0,29.740158,1009.1,,,TRUE,,,,,,,FEW,10000,,,,,,,VFR,1.5,-6.1,-10.0,,,,,0.0050,,,,METAR,81.0
KMGY 130553Z AUTO 02007KT 10SM OVC038 M09/M14 A3034 RMK AO2 SLP289 T10891144 11078 21094 58008,KMGY,2015-02-13T05:53:00Z,39.6,-84.23,-8.9,-14.4,20,7,,10.0,30.339567,1028.9,,TRUE,TRUE,,,,,,,OVC,3800,,,,,,,VFR,-0.8,-7.8,-9.4,,,,,,,,,METAR,289.0
KMGW 130553Z AUTO 31003KT 10SM CLR M14/M21 A3027 RMK AO2 SLP274 60000 T11441211 11094 21144 51009 TSNO,KMGW,2015-02-13T05:53:00Z,39.65,-79.92,-14.4,-21.1,310,3,,10.0,30.268702,1027.4,,TRUE,TRUE,,,TRUE,,,,CLR,,,,,,,,VFR,0.9,-9.4,-14.4,,,,,0.0050,,,,METAR,378.0
KMIA 130553Z 28004KT 10SM CLR 15/11 A3007 RMK AO2 SLP183 T01500111 10217 20150 58004 $,KMIA,2015-02-13T05:53:00Z,25.8,-80.28,15.0,11.1,280,4,,10.0,30.070866,1018.3,,,TRUE,TRUE,,,,,,CLR,,,,,,,,VFR,-0.4,21.7,15.0,,,,,,,,,METAR,3.0
KOSU 130553Z AUTO 00000KT 10SM CLR M13/M18 A3035 RMK AO2 SLP296 T11331183 11106 21133 58003,KOSU,2015-02-13T05:53:00Z,40.08,-83.08,-13.3,-18.3,0,0,,10.0,30.351377,1029.6,,TRUE,TRUE,,,,,,,CLR,,,,,,,,VFR,-0.3,-10.6,-13.3,,,,,,,,,METAR,280.0
KFVE 130553Z AUTO 33011KT 10SM CLR M18/M21 A2959 RMK AO2 SLP044 60000 T11781206 11150 21178 56012,KFVE,2015-02-13T05:53:00Z,47.28,-68.3,-17.8,-20.6,330,11,,10.0,29.589567,1004.4,,TRUE,TRUE,,,,,,,CLR,,,,,,,,VFR,-1.2,-15.0,-17.8,,,,,0.0050,,,,METAR,301.0
KOTM 130553Z AUTO 13006KT 10SM BKN095 OVC110 M10/M15 A3037 RMK AO2 SLP302 T11001150 11100 21106 410831156 56025 TSNO,KOTM,2015-02-13T05:53:00Z,41.1,-92.45,-10.0,-15.0,130,6,,10.0,30.369095,1030.2,,TRUE,TRUE,,,TRUE,,,,BKN,9500,OVC,11000,,,,,VFR,-2.5,-10.0,-10.6,-8.3,-15.6,,,,,,,METAR,256.0
KOVE 130553Z AUTO 00000KT 10SM CLR 13/10 A3017 RMK AO2 SLP219 T01280100 10200 20122 58002 $,KOVE,2015-02-13T05:53:00Z,39.5,-121.62,12.8,10.0,0,0,,10.0,30.171259,1021.9,,TRUE,TRUE,TRUE,,,,,,CLR,,,,,,,,VFR,-0.2,20.0,12.2,,,,,,,,,METAR,58.0
KOVS 130553Z AUTO 00000KT 10SM CLR M18/M22 A3040 RMK AO2 SLP313 T11781217 11117 21178 410891178 56013,KOVS,2015-02-13T05:53:00Z,43.15,-90.68,-17.8,-21.7,0,0,,10.0,30.398623,1031.3,,TRUE,TRUE,,,,,,,CLR,,,,,,,,VFR,-1.3,-11.7,-17.8,-8.9,-17.8,,,,,,,METAR,202.0
KOWD 130553Z AUTO 31014G25KT 8SM OVC055 M06/M15 A2974 RMK AO2 PK WND 32030/0538 SNB04E13B40E53 SLP073 P0000 60000 T10611150 11028 21061 53012,KOWD,2015-02-13T05:53:00Z,42.18,-71.17,-6.1,-15.0,310,14,25,8.0,29.740158,1007.3,,TRUE,TRUE,,,,,,,OVC,5500,,,,,,,VFR,1.2,-2.8,-6.1,,,0.0050,,0.0050,,,,METAR,19.0
KOXB 130553Z AUTO 32015G30KT 10SM CLR M06/M15 A3003 RMK AO2 PK WND 31030/0544 SLP167 T10561150 10011 21056 51027 TSNO,KOXB,2015-02-13T05:53:00Z,38.32,-75.12,-5.6,-15.0,320,15,30,10.0,30.029528,1016.7,,TRUE,TRUE,,,TRUE,,,,CLR,,,,,,,,VFR,2.7,1.1,-5.6,,,,,,,,,METAR,3.0
KPAE 130553Z AUTO 25003KT 10SM OVC021 12/08 A3027 RMK AO2 SLP250 T01220078 10150 20106 58002,KPAE,2015-02-13T05:53:00Z,47.92,-122.28,12.2,7.8,250,3,,10.0,30.268702,1025.0,,TRUE,TRUE,,,,,,,OVC,2100,,,,,,,MVFR,-0.2,15.0,10.6,,,,,,,,,METAR,180.0
KPAH 130553Z AUTO 02006KT 10SM CLR M07/M13 A3045 RMK AO2 SLP316 T10671133 11061 21072 410061072 58012,KPAH,2015-02-13T05:53:00Z,37.07,-88.77,-6.7,-13.3,20,6,,10.0,30.448818,1031.6,,TRUE,TRUE,,,,,,,CLR,,,,,,,,VFR,-1.2,-6.1,-7.2,-0.6,-7.2,,,,,,,METAR,119.0
KPBF 130553Z AUTO 08006KT 10SM CLR M01/M10 A3043 RMK AO2 SLP306 T10111100 10028 21011 400721011 55002,KPBF,2015-02-13T05:53:00Z,34.18,-91.93,-1.1,-10.0,80,6,,10.0,30.431103,1030.6,,TRUE,TRUE,,,,,,,CLR,,,,,,,,VFR,-0.2,2.8,-1.1,7.2,-1.1,,,,,,,METAR,62.0
KPBG 130553Z AUTO 30011G20KT 10SM OVC055 M17/M24 A2996 RMK AO2 UPB12E14 SLP152 P0000 60000 T11721239 11100 21172 53014,KPBG,2015-02-13T05:53:00Z,44.65,-73.47,-17.2,-23.9,300,11,20,10.0,29.958662,1015.2,,TRUE,TRUE,,,,,,,OVC,5500,,,,,,,VFR,1.4,-10.0,-17.2,,,0.0050,,0.0050,,,,METAR,72.0
KPBI 130553Z 29008KT 10SM CLR 14/12 A3005 RMK AO2 SLP176 T01440122 10183 20144 52000,KPBI,2015-02-13T05:53:00Z,26.68,-80.1,14.4,12.2,290,8,,10.0,30.050198,1017.6,,,TRUE,,,,,,,CLR,,,,,,,,VFR,0.0,18.3,14.4,,,,,,,,,METAR,6.0
KPDK 130553Z 32008KT 10SM CLR M04/M13 A3022 RMK AO2 SLP247 T10391128 11006 21039 58008,KPDK,2015-02-13T05:53:00Z,33.88,-84.3,-3.9,-12.8,320,8,,10.0,30.221457,1024.7,,,TRUE,,,,,,,CLR,,,,,,,,VFR,-0.8,-0.6,-3.9,,,,,,,,,METAR,302.0
KPDT 130553Z AUTO 13007KT 9SM CLR 06/04 A3027 RMK AO2 SLP253 T00610039 10128 20050 58002,KPDT,2015-02-13T05:53:00Z,45.7,-118.83,6.1,3.9,130,7,,9.0,30.268702,1025.3,,TRUE,TRUE,,,,,,,CLR,,,,,,,,VFR,-0.2,12.8,5.0,,,,,,,,,METAR,462.0
KPDX 130553Z 09004KT 10SM FEW250 08/06 A3025 RMK AO2 SLP244 T00830056 10172 20072 58004,KPDX,2015-02-13T05:53:00Z,45.6,-122.62,8.3,5.6,90,4,,10.0,30.250984,1024.4,,,TRUE,,,,,,,FEW,25000,,,,,,,VFR,-0.4,17.2,7.2,,,,,,,,,METAR,7.0
KPEO 130553Z AUTO 30013G19KT 270V330 5SM -SN FEW027 OVC033 M16/M21 A3009 RMK AO2 UPE0455B18E32SNB32 SLP210 P0000 60000 T11611206 11150 21161 53005,KPEO,2015-02-13T05:53:00Z,42.65,-77.05,-16.1,-20.6,300,13,19,5.0,30.088583,1021.0,,TRUE,TRUE,,,,,,-SN,FEW,2700,OVC,3300,,,,,MVFR,0.5,-15.0,-16.1,,,0.0050,,0.0050,,,,METAR,256.0
KPGA 130553Z AUTO 00000KT 10SM CLR 09/M02 A3029 RMK AO2 SLP237 T00891022 10156 20083 51004 TSNO,KPGA,2015-02-13T05:53:00Z,36.92,-111.45,8.9,-2.2,0,0,,10.0,30.28937,1023.7,,TRUE,TRUE,,,TRUE,,,,CLR,,,,,,,,VFR,0.4,15.6,8.3,,,,,,,,,METAR,1307.0
KPGD 130553Z AUTO 27003KT 10SM CLR 13/12 A3011 RMK AO2 SLP195 T01280117 10156 20117 53002,KPGD,2015-02-13T05:53:00Z,26.92,-82.0,12.8,11.7,270,3,,10.0,30.109253,1019.5,,TRUE,TRUE,,,,,,,CLR,,,,,,,,VFR,0.2,15.6,11.7,,,,,,,,,METAR,7.0
KPHD 130553Z AUTO 00000KT 10SM CLR M14/M18 A3034 RMK AO2 SLP291 T11441183 11111 21144 58002,KPHD,2015-02-13T05:53:00Z,40.47,-81.42,-14.4,-18.3,0,0,,10.0,30.339567,1029.1,,TRUE,TRUE,,,,,,,CLR,,,,,,,,VFR,-0.2,-11.1,-14.4,,,,,,,,,METAR,272.0
KPIE 130553Z AUTO 31009KT 10SM CLR 13/12 A3009 RMK AO2 SLP188 T01330117 10144 20122 55002,KPIE,2015-02-13T05:53:00Z,27.92,-82.68,13.3,11.7,310,9,,10.0,30.088583,1018.8,,TRUE,TRUE,,,,,,,CLR,,,,,,,,VFR,-0.2,14.4,12.2,,,,,,,,,METAR,4.0
KPIH 130553Z AUTO 05003KT 10SM CLR 01/M01 A3036 RMK AO2 SLP285 T00111011 10117 20006 53004,KPIH,2015-02-13T05:53:00Z,42.92,-112.57,1.1,-1.1,50,3,,10.0,30.360237,1028.5,,TRUE,TRUE,,,,,,,CLR,,,,,,,,VFR,0.4,11.7,0.6,,,,,,,,,METAR,1359.0
KPIL 130553Z AUTO 30005KT 5SM BR CLR 14/13 A3029 RMK AO2 SLP257 T01390128 10172 20139 402280139 53006,KPIL,2015-02-13T05:53:00Z,26.17,-97.33,13.9,12.8,300,5,,5.0,30.28937,1025.7,,TRUE,TRUE,,,,,,BR,CLR,,,,,,,,MVFR,0.6,17.2,13.9,22.8,13.9,,,,,,,METAR,5.0
KPIR 130553Z AUTO 33003KT 10SM CLR M09/M13 A3010 RMK AO2 SLP224 T10941133 11011 21094 400001178 50001,KPIR,2015-02-13T05:53:00Z,44.38,-100.28,-9.4,-13.3,330,3,,10.0,30.100393,1022.4,,TRUE,TRUE,,,,,,,CLR,,,,,,,,VFR,0.1,-1.1,-9.4,,-17.8,,,,,,,METAR,526.0
KPKB 130553Z AUTO 33008KT 10SM CLR M13/M18 A3038 RMK AO2 SLP302 60000 T11281183 11083 21128 51006,KPKB,2015-02-13T05:53:00Z,39.35,-81.42,-12.8,-18.3,330,8,,10.0,30.380905,1030.2,,TRUE,TRUE,,,,,,,CLR,,,,,,,,VFR,0.6,-8.3,-12.8,,,,,0.0050,,,,METAR,262.0
KTCC 130553Z AUTO 23006KT 10SM CLR 04/M01 A3023 RMK AO2 SLP234 T00441011 10128 20044 51006,KTCC,2015-02-13T05:53:00Z,35.18,-103.6,4.4,-1.1,230,6,,10.0,30.230314,1023.4,,TRUE,TRUE,,,,,,,CLR,,,,,,,,VFR,0.6,12.8,4.4,,,,,,,,,METAR,1235.0
KTCL 130553Z 36006KT 10SM CLR M01/M11 A3035 RMK AO2 SLP279 T10111106 10044 21011 401001011 55002,KTCL,2015-02-13T05:53:00Z,33.22,-87.62,-1.1,-10.6,360,6,,10.0,30.351377,1027.9,,,TRUE,,,,,,,CLR,,,,,,,,VFR,-0.2,4.4,-1.1,10.0,-1.1,,,,,,,METAR,49.0
KTCS 130553Z AUTO 22004KT 10SM CLR 05/M04 A3030 RMK AO2 SLP235 T00501039 10133 20033 52007 TSNO,KTCS,2015-02-13T05:53:00Z,33.23,-107.27,5.0,-3.9,220,4,,10.0,30.301182,1023.5,,TRUE,TRUE,,,TRUE,,,,CLR,,,,,,,,VFR,0.7,13.3,3.3,,,,,,,,,METAR,1469.0
KTDZ 130553Z AUTO 29004KT 10SM CLR M16/M21 A3039 RMK AO2 SLP303 T11561211 11122 21161 58001 TSNO,KTDZ,2015-02-13T05:53:00Z,41.57,-83.48,-15.6,-21.1,290,4,,10.0,30.389763,1030.3,,TRUE,TRUE,,,TRUE,,,,CLR,,,,,,,,VFR,-0.1,-12.2,-16.1,,,,,,,,,METAR,189.0
KTHV 130553Z AUTO 32011G19KT 10SM CLR M11/M19 A3011 RMK AO2 SLP207 T11111189 11050 21111 51023,KTHV,2015-02-13T05:53:00Z,39.92,-76.88,-11.1,-18.9,320,11,19,10.0,30.109253,1020.7,,TRUE,TRUE,,,,,,,CLR,,,,,,,,VFR,2.3,-5.0,-11.1,,,,,,,,,METAR,144.0
KTIW 130553Z AUTO 06003KT 10SM BKN031 OVC042 11/09 A3025 RMK AO2 SLP246 T01110089 10139 20106 56007,KTIW,2015-02-13T05:53:00Z,47.27,-122.58,11.1,8.9,60,3,,10.0,30.250984,1024.6,,TRUE,TRUE,,,,,,,BKN,3100,OVC,4200,,,,,VFR,-0.7,13.9,10.6,,,,,,,,,METAR,89.0
KTKI 130553Z AUTO 00000KT 10SM CLR 02/M04 A3037 RMK AO2 SLP297 T00171039 10100 20017 401280017 53002,KTKI,2015-02-13T05:53:00Z,33.18,-96.58,1.7,-3.9,0,0,,10.0,30.369095,1029.7,,TRUE,TRUE,,,,,,,CLR,,,,,,,,VFR,0.2,10.0,1.7,12.8,1.7,,,,,,,METAR,179.0
KTLH 130553Z AUTO 35009KT 10SM CLR 06/M07 A3019 RMK AO2 SLP223 T00611067 10167 20061 51018 $,KTLH,2015-02-13T05:53:00Z,30.4,-84.35,6.1,-6.7,350,9,,10.0,30.188976,1022.3,,TRUE,TRUE,TRUE,,,,,,CLR,,,,,,,,VFR,1.8,16.7,6.1,,,,,,,,,METAR,19.0
KTMB 130553Z 27005KT 10SM CLR 12/11 A3008 RMK AO2 SLP184 T01170106 10206 20111 58003,KTMB,2015-02-13T05:53:00Z,25.65,-80.43,11.7,10.6,270,5,,10.0,30.079725,1018.4,,,TRUE,,,,,,,CLR,,,,,,,,VFR,-0.3,20.6,11.1,,,,,,,,,METAR,2.0
KTOI 130553Z AUTO 36007KT 10SM CLR M01/M09 A3027 RMK AO2 SLP249 T10061089 10083 21006 401441006 56005,KTOI,2015-02-13T05:53:00Z,31.85,-86.02,-0.6,-8.9,360,7,,10.0,30.268702,1024.9,,TRUE,TRUE,,,,,,,CLR,,,,,,,,VFR,-0.5,8.3,-0.6,14.4,-0.6,,,,,,,METAR,118.0
KTOP 130553Z AUTO 13006KT 10SM CLR M04/M13 A3035 RMK AO2 SLP289 T10391133 11039 21044 410061111 56025,KTOP,2015-02-13T05:53:00Z,39.07,-95.63,-3.9,-13.3,130,6,,10.0,30.351377,1028.9,,TRUE,TRUE,,,,,,,CLR,,,,,,,,VFR,-2.5,-3.9,-4.4,-0.6,-11.1,,,,,,,METAR,268.0
KTOR 130553Z AUTO 28003KT 10SM CLR 03/M04 A3019 RMK AO2 SLP238 T00281044 10139 20028 51011,KTOR,2015-02-13T05:53:00Z,42.07,-104.15,2.8,-4.4,280,3,,10.0,30.188976,1023.8,,TRUE,TRUE,,,,,,,CLR,,,,,,,,VFR,1.1,13.9,2.8,,,,,,,,,METAR,1277.0
KTPA 130553Z 32004KT 9SM CLR 13/10 A3009 RMK AO2 SLP189 T01330100 10172 20133 57001,KTPA,2015-02-13T05:53:00Z,27.97,-82.53,13.3,10.0,320,4,,9.0,30.088583,1018.9,,,TRUE,,,,,,,CLR,,,,,,,,VFR,-0.1,17.2,13.3,,,,,,,,,METAR,11.0
KTRI 130553Z 34010KT 10SM OVC037 M06/M14 A3024 RMK AO2 SLP244 60000 T10611139 11044 21061 58003,KTRI,2015-02-13T05:53:00Z,36.48,-82.4,-6.1,-13.9,340,10,,10.0,30.239174,1024.4,,,TRUE,,,,,,,OVC,3700,,,,,,,VFR,-0.3,-4.4,-6.1,,,,,0.0050,,,,METAR,474.0
KTRL 130553Z AUTO 02004KT 10SM CLR 03/M02 A3038 RMK AO2 SLP287 T00331022 10122 20028 401440028 53003,KTRL,2015-02-13T05:53:00Z,32.72,-96.27,3.3,-2.2,20,4,,10.0,30.380905,1028.7,,TRUE,TRUE,,,,,,,CLR,,,,,,,,VFR,0.3,12.2,2.8,14.4,2.8,,,,,,,METAR,145.0
KTTD 130553Z 09003KT 10SM CLR 07/05 A3024 RMK AO2 SLP240 T00720050 10172 20067 58004,KTTD,2015-02-13T05:53:00Z,45.55,-122.42,7.2,5.0,90,3,,10.0,30.239174,1024.0,,,TRUE,,,,,,,CLR,,,,,,,,VFR,-0.4,17.2,6.7,,,,,,,,,METAR,14.0
KTTN 130553Z AUTO 31019G29KT 10SM CLR M10/M21 A3001 RMK AO2 PK WND 33031/0524 SLP157 60000 T11001211 11006 21100 53041,KTTN,2015-02-13T05:53:00Z,40.28,-74.82,-10.0,-21.1,310,19,29,10.0,30.008858,1015.7,,TRUE,TRUE,,,,,,,CLR,,,,,,,,VFR,4.1,-0.6,-10.0,,,,,0.0050,,,,METAR,59.0
KTUL 130553Z 12004KT 10SM BKN170 M02/M12 A3034 RMK AO2 SLP280 T10221117 10022 21022 400391056 58019,KTUL,2015-02-13T05:53:00Z,36.2,-95.88,-2.2,-11.7,120,4,,10.0,30.339567,1028.0,,,TRUE,,,,,,,BKN,17000,,,,,,,VFR,-1.9,2.2,-2.2,3.9,-5.6,,,,,,,METAR,207.0
KTUS 130553Z 14007KT 10SM CLR 14/00 A3018 RMK AO2 SLP194 T01440000 10206 20144 53002,KTUS,2015-02-13T05:53:00Z,32.13,-110.95,14.4,0.0,140,7,,10.0,30.180119,1019.4,,,TRUE,,,,,,,CLR,,,,,,,,VFR,0.2,20.6,14.4,,,,,,,,,METAR,776.0
KTVC 130553Z 16003KT 10SM OVC035 M14/M17 A3033 RMK AO2 SLP284 60000 T11441167 11117 21144 56013,KTVC,2015-02-13T05:53:00Z,44.73,-85.57,-14.4,-16.7,160,3,,10.0,30.33071,1028.4,,,TRUE,,,,,,,OVC,3500,,,,,,,VFR,-1.3,-11.7,-14.4,,,,,0.0050,,,,METAR,190.0
KTVL 130553Z AUTO 19003KT 10SM CLR 02/M01 A3038 RMK AO2 SLP271 T00171011 10150 20017 51008,KTVL,2015-02-13T05:53:00Z,38.9,-120.0,1.7,-1.1,190,3,,10.0,30.380905,1027.1,,TRUE,TRUE,,,,,,,CLR,,,,,,,,VFR,0.8,15.0,1.7,,,,,,,,,METAR,1924.0
KTVR 130553Z AUTO 01008KT 10SM CLR M01/M10 A3040 RMK AO2 SLP301 T10061100 10056 21006 401111006 56003,KTVR,2015-02-13T05:53:00Z,32.35,-91.03,-0.6,-10.0,10,8,,10.0,30.398623,1030.1,,TRUE,TRUE,,,,,,,CLR,,,,,,,,VFR,-0.3,5.6,-0.6,11.1,-0.6,,,,,,,METAR,26.0
KTWF 130553Z AUTO 22007KT 10SM CLR 06/00 A3036 RMK AO2 SLP265 T00560000 10144 20028 53008,KTWF,2015-02-13T05:53:00Z,42.48,-114.48,5.6,0.0,220,7,,10.0,30.360237,1026.5,,TRUE,TRUE,,,,,,,CLR,,,,,,,,VFR,0.8,14.4,2.8,,,,,,,,,METAR,1266.0
KMSY 130553Z 02014G21KT 10SM CLR 07/M03 A3033 RMK AO2 SLP272 T00671033 10144 20067 401830067 51010,KMSY,2015-02-13T05:53:00Z,30.0,-90.25,6.7,-3.3,20,14,21,10.0,30.33071,1027.2,,,TRUE,,,,,,,CLR,,,,,,,,VFR,1.0,14.4,6.7,18.3,6.7,,,,,,,METAR,5.0
KMTH 130553Z AUTO 32007KT 10SM CLR 17/14 A3008 RMK AO2 SLP186 T01720139 10178 20167 58007,KMTH,2015-02-13T05:53:00Z,24.73,-81.05,17.2,13.9,320,7,,10.0,30.079725,1018.6,,TRUE,TRUE,,,,,,,CLR,,,,,,,,VFR,-0.7,17.8,16.7,,,,,,,,,METAR,2.0
KMTJ 130553Z AUTO 15009KT 10SM CLR 02/M08 A3036 RMK AO2 SLP266 T00171078 10117 20006 51002,KMTJ,2015-02-13T05:53:00Z,38.5,-107.9,1.7,-7.8,150,9,,10.0,30.360237,1026.6,,TRUE,TRUE,,,,,,,CLR,,,,,,,,VFR,0.2,11.7,0.6,,,,,,,,,METAR,1750.0
KMVY 130553Z AUTO 32017G26KT 10SM BKN035 M04/M11 A2968 RMK AO2 PK WND 31027/0531 SLP051 60000 T10391111 10000 21039 53003,KMVY,2015-02-13T05:53:00Z,41.4,-70.62,-3.9,-11.1,320,17,26,10.0,29.681103,1005.1,,TRUE,TRUE,,,,,,,BKN,3500,,,,,,,VFR,0.3,0.0,-3.9,,,,,0.0050,,,,METAR,16.0
KMWL 130553Z AUTO 00000KT 10SM CLR 04/M03 A3035 RMK AO2 SLP278 T00391028 10111 20028 401390022 55003,KMWL,2015-02-13T05:53:00Z,32.78,-98.07,3.9,-2.8,0,0,,10.0,30.351377,1027.8,,TRUE,TRUE,,,,,,,CLR,,,,,,,,VFR,-0.3,11.1,2.8,13.9,2.2,,,,,,,METAR,284.0
KMYF 130553Z AUTO 00000KT 10SM CLR 18/02 A3003 RMK AO2 SLP165 T01830022 10283 20156 58003 TSNO,KMYF,2015-02-13T05:53:00Z,32.82,-117.13,18.3,2.2,0,0,,10.0,30.029528,1016.5,,TRUE,TRUE,,,TRUE,,,,CLR,,,,,,,,VFR,-0.3,28.3,15.6,,,,,,,,,METAR,136.0
KMYV 130553Z AUTO 00000KT 10SM CLR 12/10 A3016 RMK AO2 SLP217 T01220100 10211 20111 58002,KMYV,2015-02-13T05:53:00Z,39.1,-121.57,12.2,10.0,0,0,,10.0,30.159449,1021.7,,TRUE,TRUE,,,,,,,CLR,,,,,,,,VFR,-0.2,21.1,11.1,,,,,,,,,METAR,21.0
KNEW 130553Z 02017KT 10SM CLR 08/M02 A3033 RMK AO2 PK WND 01027/0531 SLP263 T00781022 10150 20078 401830078 51010,KNEW,2015-02-13T05:53:00Z,30.05,-90.03,7.8,-2.2,20,17,,10.0,30.33071,1026.3,,,TRUE,,,,,,,CLR,,,,,,,,VFR,1.0,15.0,7.8,18.3,7.8,,,,,,,METAR,3.0
KOAK 130553Z 30003KT 10SM FEW200 15/10 A3015 RMK AO2 SLP209 T01500100 10200 20133 51002,KOAK,2015-02-13T05:53:00Z,37.72,-122.23,15.0,10.0,300,3,,10.0,30.15059,1020.9,,,TRUE,,,,,,,FEW,20000,,,,,,,VFR,0.2,20.0,13.3,,,,,,,,,METAR,26.0
KODO 130553Z AUTO 22010KT 10SM OVC050 08/M01 A3033 RMK AO2 SLP260 T00781006 10094 20078 400940044 58002,KODO,2015-02-13T05:53:00Z,31.92,-102.4,7.8,-0.6,220,10,,10.0,30.33071,1026.0,,TRUE,TRUE,,,,,,,OVC,5000,,,,,,,VFR,-0.2,9.4,7.8,9.4,4.4,,,,,,,METAR,902.0
KODX 130553Z AUTO 18004KT 10SM CLR M06/M13 A3014 RMK AO2 SLP242 T10611128 11039 21061 410281133 56016,KODX,2015-02-13T05:53:00Z,41.62,-98.95,-6.1,-12.8,180,4,,10.0,30.138779,1024.2,,TRUE,TRUE,,,,,,,CLR,,,,,,,,VFR,-1.6,-3.9,-6.1,-2.8,-13.3,,,,,,,METAR,631.0
KOGB 130553Z AUTO 01006KT 10SM CLR 01/M12 A3020 RMK AO2 SLP226 T00061122 10100 20006 51014,KOGB,2015-02-13T05:53:00Z,33.47,-80.85,0.6,-12.2,10,6,,10.0,30.200787,1022.6,,TRUE,TRUE,,,,,,,CLR,,,,,,,,VFR,1.4,10.0,0.6,,,,,,,,,METAR,59.0
KGRI 130553Z AUTO 19008KT 10SM CLR M06/M12 A3018 RMK AO2 SLP257 T10611122 11044 21067 410441133 58018,KGRI,2015-02-13T05:53:00Z,40.97,-98.32,-6.1,-12.2,190,8,,10.0,30.180119,1025.7,,TRUE,TRUE,,,,,,,CLR,,,,,,,,VFR,-1.8,-4.4,-6.7,-4.4,-13.3,,,,,,,METAR,561.0
KOGD 130553Z 17008KT 10SM CLR 03/M02 A3035 RMK AO2 SLP269 T00331022 10128 20028 50001,KOGD,2015-02-13T05:53:00Z,41.2,-112.02,3.3,-2.2,170,8,,10.0,30.351377,1026.9,,,TRUE,,,,,,,CLR,,,,,,,,VFR,0.1,12.8,2.8,,,,,,,,,METAR,1353.0
KDCU 130553Z AUTO 02011KT 10SM CLR M04/M12 A3037 RMK AO2 SLP290 T10441117 11011 21044 400441044 55001,KDCU,2015-02-13T05:53:00Z,34.65,-86.95,-4.4,-11.7,20,11,,10.0,30.369095,1029.0,,TRUE,TRUE,,,,,,,CLR,,,,,,,,VFR,-0.1,-1.1,-4.4,4.4,-4.4,,,,,,,METAR,176.0
KMTO 130553Z AUTO 05004KT 10SM CLR M12/M16 A3043 RMK AO2 SLP317 T11171156 11083 21117 410441117 56013,KMTO,2015-02-13T05:53:00Z,39.47,-88.27,-11.7,-15.6,50,4,,10.0,30.431103,1031.7,,TRUE,TRUE,,,,,,,CLR,,,,,,,,VFR,-1.3,-8.3,-11.7,-4.4,-11.7,,,,,,,METAR,214.0
KASX 130553Z AUTO 22007KT 10SM BKN110 M16/M23 A3026 RMK AO2 SLP269 T11561228 11150 21200 411331200 56031,KASX,2015-02-13T05:53:00Z,46.55,-90.92,-15.6,-22.8,220,7,,10.0,30.259842,1026.9,,TRUE,TRUE,,,,,,,BKN,11000,,,,,,,VFR,-3.1,-15.0,-20.0,-13.3,-20.0,,,,,,,METAR,251.0
KATY 130553Z AUTO 19008KT 10SM BKN033 M10/M13 A3009 RMK AO2 SLP229 60000 T11001128 11094 21106 410941211 56017,KATY,2015-02-13T05:53:00Z,44.9,-97.15,-10.0,-12.8,190,8,,10.0,30.088583,1022.9,,TRUE,TRUE,,,,,,,BKN,3300,,,,,,,VFR,-1.7,-9.4,-10.6,-9.4,-21.1,,,0.0050,,,,METAR,532.0
KAUG 130553Z AUTO 32008KT 10SM OVC090 M16/M18 A2969 RMK AO2 SLP062 60000 T11561183 11128 21156 58003,KAUG,2015-02-13T05:53:00Z,44.32,-69.8,-15.6,-18.3,320,8,,10.0,29.68996,1006.2,,TRUE,TRUE,,,,,,,OVC,9000,,,,,,,VFR,-0.3,-12.8,-15.6,,,,,0.0050,,,,METAR,109.0
KAUS 130553Z 36007KT 10SM BKN060 06/02 A3037 RMK AO2 SLP287 T00610017 10133 20044 401560044 51009,KAUS,2015-02-13T05:53:00Z,30.18,-97.68,6.1,1.7,360,7,,10.0,30.369095,1028.7,,,TRUE,,,,,,,BKN,6000,,,,,,,VFR,0.9,13.3,4.4,15.6,4.4,,,,,,,METAR,166.0
KAWM 130553Z AUTO 06008KT 10SM CLR M04/M12 A3043 RMK AO2 SLP306 T10441117 11022 21044 400391044 56013,KAWM,2015-02-13T05:53:00Z,35.13,-90.23,-4.4,-11.7,60,8,,10.0,30.431103,1030.6,,TRUE,TRUE,,,,,,,CLR,,,,,,,,VFR,-1.3,-2.2,-4.4,3.9,-4.4,,,,,,,METAR,65.0
KAZO 130553Z 01004KT 10SM OVC033 M11/M17 A3036 RMK AO2 SLP301 T11111172 11100 21111 55007,KAZO,2015-02-13T05:53:00Z,42.23,-85.55,-11.1,-17.2,10,4,,10.0,30.360237,1030.1,,,TRUE,,,,,,,OVC,3300,,,,,,,VFR,-0.7,-10.0,-11.1,,,,,,,,,METAR,272.0
KBBW 130553Z AUTO 23009KT 10SM CLR M03/M09 A3011 RMK AO2 SLP230 T10281094 11017 21044 410111106 58013,KBBW,2015-02-13T05:53:00Z,41.43,-99.63,-2.8,-9.4,230,9,,10.0,30.109253,1023.0,,TRUE,TRUE,,,,,,,CLR,,,,,,,,VFR,-1.3,-1.7,-4.4,-1.1,-10.6,,,,,,,METAR,776.0
KBCE 130553Z AUTO 26004KT 10SM CLR M02/M06 A3040 RMK AO2 SLP255 T10221056 10128 21022 50005,KBCE,2015-02-13T05:53:00Z,37.7,-112.15,-2.2,-5.6,260,4,,10.0,30.398623,1025.5,,TRUE,TRUE,,,,,,,CLR,,,,,,,,VFR,0.5,12.8,-2.2,,,,,,,,,METAR,2312.0
KBDE 130553Z AUTO 22012KT 10SM OVC027 M14/M18 A3004 RMK AO2 SLP206 T11441178 11139 21178 411391289 56032 TSNO,KBDE,2015-02-13T05:53:00Z,48.73,-94.62,-14.4,-17.8,220,12,,10.0,30.041338,1020.6,,TRUE,TRUE,,,TRUE,,,,OVC,2700,,,,,,,MVFR,-3.2,-13.9,-17.8,-13.9,-28.9,,,,,,,METAR,329.0
KBFF 130553Z AUTO 34006KT 10SM CLR 02/M02 A3018 RMK AO2 SLP236 T00221022 10117 20022 53008,KBFF,2015-02-13T05:53:00Z,41.87,-103.58,2.2,-2.2,340,6,,10.0,30.180119,1023.6,,TRUE,TRUE,,,,,,,CLR,,,,,,,,VFR,0.8,11.7,2.2,,,,,,,,,METAR,1203.0
KBFI 130553Z 31004KT 10SM OVC030 13/09 A3026 RMK AO2 SLP246 60000 T01340089 10272 20128 56004,KBFI,2015-02-13T05:53:00Z,47.55,-122.32,13.4,8.9,310,4,,10.0,30.259842,1024.6,,,TRUE,,,,,,,OVC,3000,,,,,,,MVFR,-0.4,27.2,12.8,,,,,0.0050,,,,METAR,4.0
KBFM 130553Z AUTO 35008KT 10SM CLR 04/M05 A3030 RMK AO2 SLP260 T00441050 10139 20044 401830044 50008,KBFM,2015-02-13T05:53:00Z,30.62,-88.07,4.4,-5.0,350,8,,10.0,30.301182,1026.0,,TRUE,TRUE,,,,,,,CLR,,,,,,,,VFR,0.8,13.9,4.4,18.3,4.4,,,,,,,METAR,20.0
KBGR 130553Z 31007KT 10SM FEW034 OVC070 M15/M17 A2969 RMK AO2 SNB22E46 SLP059 9/045 P0000 60000 T11501172 11150 21189 56010,KBGR,2015-02-13T05:53:00Z,44.8,-68.82,-15.0,-17.2,310,7,,10.0,29.68996,1005.9,,,TRUE,,,,,,,FEW,3400,OVC,7000,,,,,VFR,-1.0,-15.0,-18.9,,,0.0050,,0.0050,,,,METAR,57.0
KAAF 130553Z AUTO 01008KT 10SM CLR 09/M04 A3018 RMK AO2 SLP218 T00891039 10161 20089 51012 $,KAAF,2015-02-13T05:53:00Z,29.73,-85.03,8.9,-3.9,10,8,,10.0,30.180119,1021.8,,TRUE,TRUE,TRUE,,,,,,CLR,,,,,,,,VFR,1.2,16.1,8.9,,,,,,,,,METAR,5.0
KABY 130553Z AUTO 36007KT 10SM CLR 02/M09 A3025 RMK AO2 SLP244 T00171094 10122 20017 51011 FZRANO,KABY,2015-02-13T05:53:00Z,31.53,-84.2,1.7,-9.4,360,7,,10.0,30.250984,1024.4,,TRUE,TRUE,,,,TRUE,,,CLR,,,,,,,,VFR,1.1,12.2,1.7,,,,,,,,,METAR,58.0
KACV 130553Z AUTO 00000KT 9SM CLR 08/08 A3019 RMK AO2 SLP228 T00830078 10156 20083 55003,KACV,2015-02-13T05:53:00Z,40.98,-124.1,8.3,7.8,0,0,,9.0,30.188976,1022.8,,TRUE,TRUE,,,,,,,CLR,,,,,,,,VFR,-0.3,15.6,8.3,,,,,,,,,METAR,67.0
KSWO 130553Z AUTO 14009KT 10SM CLR 01/M12 A3030 RMK AO2 SLP267 T00061117 10044 20000 400721072 56019 TSNO,KSWO,2015-02-13T05:53:00Z,36.17,-97.08,0.6,-11.7,140,9,,10.0,30.301182,1026.7,,TRUE,TRUE,,,TRUE,,,,CLR,,,,,,,,VFR,-1.9,4.4,0.0,7.2,-7.2,,,,,,,METAR,290.0
KRSL 130553Z AUTO 11007KT 10SM CLR M04/M09 A3018 RMK AO2 SLP246 T10441094 11017 21044 410061078 58018,KRSL,2015-02-13T05:53:00Z,38.87,-98.82,-4.4,-9.4,110,7,,10.0,30.180119,1024.6,,TRUE,TRUE,,,,,,,CLR,,,,,,,,VFR,-1.8,-1.7,-4.4,-0.6,-7.8,,,,,,,METAR,567.0
KVIH 130553Z AUTO 09006KT 10SM SCT075 OVC090 M07/M15 A3036 RMK AO2 SLP299 T10671150 11067 21072 410331106 58017,KVIH,2015-02-13T05:53:00Z,38.13,-91.77,-6.7,-15.0,90,6,,10.0,30.360237,1029.9,,TRUE,TRUE,,,,,,,SCT,7500,OVC,9000,,,,,VFR,-1.7,-6.7,-7.2,-3.3,-10.6,,,,,,,METAR,333.0
KBAF 130553Z 35007KT 320V050 10SM FEW039 M11/M19 A2983 RMK AO2 SLP110 T11061189 11028 21106 53018,KBAF,2015-02-13T05:53:00Z,42.17,-72.72,-10.6,-18.9,350,7,,10.0,29.828741,1011.0,,,TRUE,,,,,,,FEW,3900,,,,,,,VFR,1.8,-2.8,-10.6,,,,,,,,,METAR,83.0
KBVO 130553Z AUTO 11003KT 10SM CLR M03/M12 A3036 RMK AO2 SLP284 T10281117 10000 21044 400281072 58021,KBVO,2015-02-13T05:53:00Z,36.77,-96.02,-2.8,-11.7,110,3,,10.0,30.360237,1028.4,,TRUE,TRUE,,,,,,,CLR,,,,,,,,VFR,-2.1,0.0,-4.4,2.8,-7.2,,,,,,,METAR,210.0
KADG 130553Z AUTO 24003KT 10SM CLR M19/M22 A3037 RMK AO2 SLP305 T11891222 11117 21200 58002 TSNO,KADG,2015-02-13T05:53:00Z,41.87,-84.08,-18.9,-22.2,240,3,,10.0,30.369095,1030.5,,TRUE,TRUE,,,TRUE,,,,CLR,,,,,,,,VFR,-0.2,-11.7,-20.0,,,,,,,,,METAR,241.0
KOJC 130553Z AUTO 14005KT 10SM OVC090 M06/M14 A3034 RMK AO2 SLP290 T10561139 11044 21056 410111111 58015,KOJC,2015-02-13T05:53:00Z,38.85,-94.73,-5.6,-13.9,140,5,,10.0,30.339567,1029.0,,TRUE,TRUE,,,,,,,OVC,9000,,,,,,,VFR,-1.5,-4.4,-5.6,-1.1,-11.1,,,,,,,METAR,326.0
KAFW 130553Z 00000KT 10SM FEW300 M01/M03 A3036 RMK AO2 SLP290 T10061028 10100 21011 401281011 51002,KAFW,2015-02-13T05:53:00Z,32.97,-97.32,-0.6,-2.8,0,0,,10.0,30.360237,1029.0,,,TRUE,,,,,,,FEW,30000,,,,,,,VFR,0.2,10.0,-1.1,12.8,-1.1,,,,,,,METAR,233.0
KAEX 130553Z 05003KT 10SM CLR 03/M06 A3036 RMK AO2 SLP285 T00331061 10122 20033 401610033 51004,KAEX,2015-02-13T05:53:00Z,31.33,-92.57,3.3,-6.1,50,3,,10.0,30.360237,1028.5,,,TRUE,,,,,,,CLR,,,,,,,,VFR,0.4,12.2,3.3,16.1,3.3,,,,,,,METAR,27.0
KAGC 130553Z 32008KT 10SM CLR M16/M22 A3024 RMK AO2 SLP271 60000 T11561217 11122 21156 50005,KAGC,2015-02-13T05:53:00Z,40.35,-79.92,-15.6,-21.7,320,8,,10.0,30.239174,1027.1,,,TRUE,,,,,,,CLR,,,,,,,,VFR,0.5,-12.2,-15.6,,,,,0.0050,,,,METAR,389.0
KAIA 130553Z AUTO 32014KT 10SM CLR 07/M03 A3014 RMK AO2 SLP217 T00671033 10100 20050 53005,KAIA,2015-02-13T05:53:00Z,42.05,-102.8,6.7,-3.3,320,14,,10.0,30.138779,1021.7,,TRUE,TRUE,,,,,,,CLR,,,,,,,,VFR,0.5,10.0,5.0,,,,,,,,,METAR,1196.0
KAGS 130553Z AUTO 02007KT 10SM CLR M01/M13 A3021 RMK AO2 SLP231 T10061128 10072 21011 50005,KAGS,2015-02-13T05:53:00Z,33.37,-81.97,-0.6,-12.8,20,7,,10.0,30.209646,1023.1,,TRUE,TRUE,,,,,,,CLR,,,,,,,,VFR,0.5,7.2,-1.1,,,,,,,,,METAR,44.0
KAKO 130553Z AUTO 31011KT 10SM CLR 06/M05 A3018 RMK AO2 SLP220 T00561050 10128 20017 51005,KAKO,2015-02-13T05:53:00Z,40.17,-103.22,5.6,-5.0,310,11,,10.0,30.180119,1022.0,,TRUE,TRUE,,,,,,,CLR,,,,,,,,VFR,0.5,12.8,1.7,,,,,,,,,METAR,1421.0
KAMA 130553Z AUTO 20012KT 10SM CLR 02/M08 A3025 RMK AO2 SLP239 T00221078 10106 20022 401221039 58008,KAMA,2015-02-13T05:53:00Z,35.22,-101.72,2.2,-7.8,200,12,,10.0,30.250984,1023.9,,TRUE,TRUE,,,,,,,CLR,,,,,,,,VFR,-0.8,10.6,2.2,12.2,-3.9,,,,,,,METAR,1093.0
KALW 130553Z AUTO 08008KT 10SM CLR 08/04 A3028 RMK AO2 SLP258 T00780039 10150 20061 50001,KALW,2015-02-13T05:53:00Z,46.1,-118.28,7.8,3.9,80,8,,10.0,30.280512,1025.8,,TRUE,TRUE,,,,,,,CLR,,,,,,,,VFR,0.1,15.0,6.1,,,,,,,,,METAR,363.0
KALI 130553Z AUTO 04009KT 10SM SCT070 12/07 A3033 RMK AO2 SLP271 T01220067 10194 20111 402330111 53008,KALI,2015-02-13T05:53:00Z,27.73,-98.02,12.2,6.7,40,9,,10.0,30.33071,1027.1,,TRUE,TRUE,,,,,,,SCT,7000,,,,,,,VFR,0.8,19.4,11.1,23.3,11.1,,,,,,,METAR,53.0
KAMW 130553Z AUTO 15006KT 10SM OVC055 M11/M15 A3034 RMK AO2 SLP294 T11061150 11106 21117 411061172 56024,KAMW,2015-02-13T05:53:00Z,41.98,-93.62,-10.6,-15.0,150,6,,10.0,30.339567,1029.4,,TRUE,TRUE,,,,,,,OVC,5500,,,,,,,VFR,-2.4,-10.6,-11.7,-10.6,-17.2,,,,,,,METAR,279.0
KAMG 130553Z AUTO 35008KT 10SM CLR 02/M09 A3020 RMK AO2 SLP224 T00221094 10133 20017 51020,KAMG,2015-02-13T05:53:00Z,31.53,-82.5,2.2,-9.4,350,8,,10.0,30.200787,1022.4,,TRUE,TRUE,,,,,,,CLR,,,,,,,,VFR,2.0,13.3,1.7,,,,,,,,,METAR,59.0
KANB 130553Z AUTO 02006KT 10SM CLR M03/M13 A3031 RMK AO2 SLP273 T10281128 10011 21028 400941028 58003,KANB,2015-02-13T05:53:00Z,33.58,-85.85,-2.8,-12.8,20,6,,10.0,30.31004,1027.3,,TRUE,TRUE,,,,,,,CLR,,,,,,,,VFR,-0.3,1.1,-2.8,9.4,-2.8,,,,,,,METAR,183.0
KAOH 130553Z AUTO 33005KT 10SM OVC035 M10/M17 A3034 RMK AO2 SLP294 T11001167 11100 21117 58004,KAOH,2015-02-13T05:53:00Z,40.7,-84.02,-10.0,-16.7,330,5,,10.0,30.339567,1029.4,,TRUE,TRUE,,,,,,,OVC,3500,,,,,,,VFR,-0.4,-10.0,-11.7,,,,,,,,,METAR,296.0
KAOO 130553Z AUTO 31016G32KT 10SM FEW025 OVC030 M14/M21 A3011 RMK AO2 PK WND 30032/0548 SLP225 60000 T11441206 11117 21144 50011,KAOO,2015-02-13T05:53:00Z,40.3,-78.32,-14.4,-20.6,310,16,32,10.0,30.109253,1022.5,,TRUE,TRUE,,,,,,,FEW,2500,OVC,3000,,,,,MVFR,1.1,-11.7,-14.4,,,,,0.0050,,,,METAR,455.0
KBIL 130553Z 19007KT 10SM BKN100 OVC170 08/M02 A3019 RMK AO2 SLP226 T00831017 10139 20072 58003,KBIL,2015-02-13T05:53:00Z,45.8,-108.55,8.3,-1.7,190,7,,10.0,30.188976,1022.6,,,TRUE,,,,,,,BKN,10000,OVC,17000,,,,,VFR,-0.3,13.9,7.2,,,,,,,,,METAR,1091.0
KBHM 130553Z 01009KT 10SM CLR M03/M12 A3033 RMK AO2 SLP275 T10331122 10011 21033 400781033 58004,KBHM,2015-02-13T05:53:00Z,33.57,-86.75,-3.3,-12.2,10,9,,10.0,30.33071,1027.5,,,TRUE,,,,,,,CLR,,,,,,,,VFR,-0.4,1.1,-3.3,7.8,-3.3,,,,,,,METAR,197.0
KBIV 130553Z AUTO 07004KT 5SM -SN OVC034 M10/M14 A3037 RMK AO2 SLP299 P0000 60000 T11001144 11089 21100 56010 $,KBIV,2015-02-13T05:53:00Z,42.75,-86.1,-10.0,-14.4,70,4,,5.0,30.369095,1029.9,,TRUE,TRUE,TRUE,,,,,-SN,OVC,3400,,,,,,,MVFR,-1.0,-8.9,-10.0,,,0.0050,,0.0050,,,,METAR,208.0
KBKE 130553Z AUTO 00000KT 10SM CLR 01/00 A3035 RMK AO2 SLP293 T00110000 10128 20000 50003 TSNO,KBKE,2015-02-13T05:53:00Z,44.85,-117.82,1.1,0.0,0,0,,10.0,30.351377,1029.3,,TRUE,TRUE,,,TRUE,,,,CLR,,,,,,,,VFR,0.3,12.8,0.0,,,,,,,,,METAR,1024.0
KBMG 130553Z AUTO 32003KT 10SM CLR M11/M13 A3040 RMK AO2 SLP308 T11061133 11061 21106 58005,KBMG,2015-02-13T05:53:00Z,39.15,-86.62,-10.6,-13.3,320,3,,10.0,30.398623,1030.8,,TRUE,TRUE,,,,,,,CLR,,,,,,,,VFR,-0.5,-6.1,-10.6,,,,,,,,,METAR,257.0
KBLI 130553Z 36004KT 10SM OVC042 10/08 A3027 RMK AO2 SLP258 60006 T01000083 10106 20100 56005,KBLI,2015-02-13T05:53:00Z,48.8,-122.53,10.0,8.3,360,4,,10.0,30.268702,1025.8,,,TRUE,,,,,,,OVC,4200,,,,,,,VFR,-0.5,10.6,10.0,,,,,0.06,,,,METAR,50.0
KBKV 130553Z AUTO 34008KT 6SM BR CLR 10/08 A3009 RMK AO2 SLP190 T01000078 10133 20061 55000,KBKV,2015-02-13T05:53:00Z,28.47,-82.45,10.0,7.8,340,8,,6.0,30.088583,1019.0,,TRUE,TRUE,,,,,,BR,CLR,,,,,,,,VFR,0.0,13.3,6.1,,,,,,,,,METAR,20.0
KBKL 130553Z 30010KT 10SM CLR M13/M18 A3034 RMK AO2 SLP285 T11281178 11128 21133 55003,KBKL,2015-02-13T05:53:00Z,41.53,-81.67,-12.8,-17.8,300,10,,10.0,30.339567,1028.5,,,TRUE,,,,,,,CLR,,,,,,,,VFR,-0.3,-12.8,-13.3,,,,,,,,,METAR,184.0
KBMQ 130553Z AUTO 00000KT 10SM CLR 05/M01 A3038 RMK AO2 SLP288 T00501011 10128 20050 401500050 50007 TSNO $,KBMQ,2015-02-13T05:53:00Z,30.73,-98.23,5.0,-1.1,0,0,,10.0,30.380905,1028.8,,TRUE,TRUE,TRUE,,TRUE,,,,CLR,,,,,,,,VFR,0.7,12.8,5.0,15.0,5.0,,,,,,,METAR,389.0
KOLF 130553Z AUTO 21004KT 8SM CLR M02/M04 A3010 RMK AO2 SLP222 T10221039 10028 21022 58007,KOLF,2015-02-13T05:53:00Z,48.1,-105.58,-2.2,-3.9,210,4,,8.0,30.100393,1022.2,,TRUE,TRUE,,,,,,,CLR,,,,,,,,VFR,-0.7,2.8,-2.2,,,,,,,,,METAR,604.0
KONO 130553Z AUTO 00000KT 10SM CLR 03/01 A3037 RMK AO2 SLP298 T00330011 10128 20028 53003,KONO,2015-02-13T05:53:00Z,44.02,-117.02,3.3,1.1,0,0,,10.0,30.369095,1029.8,,TRUE,TRUE,,,,,,,CLR,,,,,,,,VFR,0.3,12.8,2.8,,,,,,,,,METAR,667.0
KOMK 130553Z AUTO 28005KT 10SM OVC080 08/05 A3031 RMK AO2 SLP271 T00780050 10106 20078 51009,KOMK,2015-02-13T05:53:00Z,48.47,-119.52,7.8,5.0,280,5,,10.0,30.31004,1027.1,,TRUE,TRUE,,,,,,,OVC,8000,,,,,,,VFR,0.9,10.6,7.8,,,,,,,,,METAR,395.0
KNQX 130553Z AUTO 32007KT 10SM CLR 17/13 A3009 RMK AO2 SLP187 T01720128 10178 20167 58011 $,KNQX,2015-02-13T05:53:00Z,24.57,-81.67,17.2,12.8,320,7,,10.0,30.088583,1018.7,,TRUE,TRUE,TRUE,,,,,,CLR,,,,,,,,VFR,-1.1,17.8,16.7,,,,,,,,,METAR,2.0
KP68 130553Z AUTO 17006KT 03/M07 A3036 RMK AO1 SLP257 T00331067 10178 20011 51009,KP68,2015-02-13T05:53:00Z,39.6,-116.0,3.3,-6.7,170,6,,,30.360237,1025.7,,TRUE,TRUE,,,,,,,,,,,,,,,,0.9,17.8,1.1,,,,,,,,,METAR,1809.0
KCTY 130553Z AUTO 36009KT 09/M02 A3013 RMK AO1 SLP202 60001 T00891022 10139 20089 51015,KCTY,2015-02-13T05:53:00Z,29.63,-83.1,8.9,-2.2,360,9,,,30.129921,1020.2,,TRUE,TRUE,,,,,,,,,,,,,,,,1.5,13.9,8.9,,,,,0.01,,,,METAR,13.0
KPUB 130553Z 27005KT 10SM CLR 02/00 A3022 RMK AO2 SLP237 T00220000 10128 20022 51009,KPUB,2015-02-13T05:53:00Z,38.28,-104.5,2.2,0.0,270,5,,10.0,30.221457,1023.7,,,TRUE,,,,,,,CLR,,,,,,,,VFR,0.9,12.8,2.2,,,,,,,,,METAR,1420.0
KPTK 130553Z AUTO 30005KT 10SM CLR M17/M21 A3031 RMK AO2 SLP287 T11671211 11139 21167 58001,KPTK,2015-02-13T05:53:00Z,42.67,-83.42,-16.7,-21.1,300,5,,10.0,30.31004,1028.7,,TRUE,TRUE,,,,,,,CLR,,,,,,,,VFR,-0.1,-13.9,-16.7,,,,,,,,,METAR,299.0
KPSX 130553Z AUTO 33006KT 10SM CLR 10/07 A3033 RMK AO2 SLP270 T01000067 10172 20100 402000100 53001,KPSX,2015-02-13T05:53:00Z,28.72,-96.25,10.0,6.7,330,6,,10.0,30.33071,1027.0,,TRUE,TRUE,,,,,,,CLR,,,,,,,,VFR,0.1,17.2,10.0,20.0,10.0,,,,,,,METAR,5.0
KPSP 130553Z 28005KT 10SM CLR 21/M03 A3013 RMK AO2 SLP203 T02061033 10283 20200 51004,KPSP,2015-02-13T05:53:00Z,33.82,-116.5,20.6,-3.3,280,5,,10.0,30.129921,1020.3,,,TRUE,,,,,,,CLR,,,,,,,,VFR,0.4,28.3,20.0,,,,,,,,,METAR,135.0
KPRC 130553Z AUTO 00000KT 10SM CLR 04/M04 A3028 RMK AO2 SLP218 T00441039 10178 20039 53004 PWINO $,KPRC,2015-02-13T05:53:00Z,34.65,-112.42,4.4,-3.9,0,0,,10.0,30.280512,1021.8,,TRUE,TRUE,TRUE,,,,TRUE,,CLR,,,,,,,,VFR,0.4,17.8,3.9,,,,,,,,,METAR,1524.0
KPRB 130553Z AUTO 00000KT 10SM CLR 12/08 A3016 RMK AO2 SLP210 T01220078 10233 20111 51007 TSNO $,KPRB,2015-02-13T05:53:00Z,35.67,-120.63,12.2,7.8,0,0,,10.0,30.159449,1021.0,,TRUE,TRUE,TRUE,,TRUE,,,,CLR,,,,,,,,VFR,0.7,23.3,11.1,,,,,,,,,METAR,245.0
KPQL 130553Z AUTO 36007KT 10SM CLR 04/M05 A3030 RMK AO2 SLP260 T00391050 10133 20039 401890039 51009 TSNO,KPQL,2015-02-13T05:53:00Z,30.47,-88.53,3.9,-5.0,360,7,,10.0,30.301182,1026.0,,TRUE,TRUE,,,TRUE,,,,CLR,,,,,,,,VFR,0.9,13.3,3.9,18.9,3.9,,,,,,,METAR,6.0
KPOU 130553Z 29008KT 10SM CLR M11/M21 A2995 RMK AO2 SLP141 T11111206 11017 21111 53030,KPOU,2015-02-13T05:53:00Z,41.63,-73.88,-11.1,-20.6,290,8,,10.0,29.949802,1014.1,,,TRUE,,,,,,,CLR,,,,,,,,VFR,3.0,-1.7,-11.1,,,,,,,,,METAR,46.0
KPOF 130553Z AUTO 07005KT 10SM BKN110 M05/M13 A3045 RMK AO2 SLP318 T10501133 11022 21050 400061050 56012,KPOF,2015-02-13T05:53:00Z,36.77,-90.32,-5.0,-13.3,70,5,,10.0,30.448818,1031.8,,TRUE,TRUE,,,,,,,BKN,11000,,,,,,,VFR,-1.2,-2.2,-5.0,0.6,-5.0,,,,,,,METAR,99.0
KPNS 130553Z AUTO 36011G18KT 10SM CLR 04/M06 A3026 RMK AO2 SLP251 T00441056 10128 20039 401830039 51009,KPNS,2015-02-13T05:53:00Z,30.48,-87.18,4.4,-5.6,360,11,18,10.0,30.259842,1025.1,,TRUE,TRUE,,,,,,,CLR,,,,,,,,VFR,0.9,12.8,3.9,18.3,3.9,,,,,,,METAR,38.0
KPNC 130553Z AUTO 14006KT 10SM CLR M01/M12 A3030 RMK AO2 SLP266 T10111122 10028 21011 400441072 56021,KPNC,2015-02-13T05:53:00Z,36.73,-97.1,-1.1,-12.2,140,6,,10.0,30.301182,1026.6,,TRUE,TRUE,,,,,,,CLR,,,,,,,,VFR,-2.1,2.8,-1.1,4.4,-7.2,,,,,,,METAR,308.0
KPMP 130553Z 29008KT 10SM CLR 14/11 A3006 RMK AO2 SLP179 T01390106 10211 20139 58005 PWINO $,KPMP,2015-02-13T05:53:00Z,26.25,-80.12,13.9,10.6,290,8,,10.0,30.059055,1017.9,,,TRUE,TRUE,,,,TRUE,,CLR,,,,,,,,VFR,-0.5,21.1,13.9,,,,,,,,,METAR,6.0
KPMD 130553Z AUTO 03006KT 10SM CLR 11/M04 A3021 RMK AO2 SLP223 T01061044 10222 20083 51006,KPMD,2015-02-13T05:53:00Z,34.63,-118.08,10.6,-4.4,30,6,,10.0,30.209646,1022.3,,TRUE,TRUE,,,,,,,CLR,,,,,,,,VFR,0.6,22.2,8.3,,,,,,,,,METAR,780.0
KPKD 130553Z AUTO 19009KT 6SM HZ OVC027 M14/M17 A3009 RMK AO2 SLP229 60000 T11391167 11139 21150 411331283 58036,KPKD,2015-02-13T05:53:00Z,46.9,-95.07,-13.9,-16.7,190,9,,6.0,30.088583,1022.9,,TRUE,TRUE,,,,,,HZ,OVC,2700,,,,,,,MVFR,-3.6,-13.9,-15.0,-13.3,-28.3,,,0.0050,,,,METAR,442.0
KOSH 130553Z 22004KT 10SM CLR M17/M22 A3034 RMK AO2 SLP308 T11721217 11122 21172 411061172 56012,KOSH,2015-02-13T05:53:00Z,43.97,-88.55,-17.2,-21.7,220,4,,10.0,30.339567,1030.8,,,TRUE,,,,,,,CLR,,,,,,,,VFR,-1.2,-12.2,-17.2,-10.6,-17.2,,,,,,,METAR,248.0
KORL 130553Z AUTO 31007KT 10SM CLR 13/09 A3007 RMK AO2 SLP186 T01280089 10183 20128 50001,KORL,2015-02-13T05:53:00Z,28.55,-81.33,12.8,8.9,310,7,,10.0,30.070866,1018.6,,TRUE,TRUE,,,,,,,CLR,,,,,,,,VFR,0.1,18.3,12.8,,,,,,,,,METAR,37.0
KOPF 130553Z AUTO 29005KT 10SM CLR 14/11 A3007 RMK AO2 SLP184 T01440111 10211 20144 58004,KOPF,2015-02-13T05:53:00Z,25.92,-80.28,14.4,11.1,290,5,,10.0,30.070866,1018.4,,TRUE,TRUE,,,,,,,CLR,,,,,,,,VFR,-0.4,21.1,14.4,,,,,,,,,METAR,16.0
KONT 130553Z 33003KT 10SM FEW250 21/M02 A3008 RMK AO2 SLP173 T02111017 10294 20167 51007,KONT,2015-02-13T05:53:00Z,34.05,-117.58,21.1,-1.7,330,3,,10.0,30.079725,1017.3,,,TRUE,,,,,,,FEW,25000,,,,,,,VFR,0.7,29.4,16.7,,,,,,,,,METAR,274.0
KSGR 130553Z AUTO 00000KT 10SM CLR 09/05 A3033 RMK AO2 SLP273 T00940050 10161 20089 401940089 53003,KSGR,2015-02-13T05:53:00Z,29.62,-95.65,9.4,5.0,0,0,,10.0,30.33071,1027.3,,TRUE,TRUE,,,,,,,CLR,,,,,,,,VFR,0.3,16.1,8.9,19.4,8.9,,,,,,,METAR,2.0
KSFF 130553Z AUTO 07003KT 8SM CLR 04/04 A3032 RMK AO2 SLP274 T00440039 10133 20044 52007,KSFF,2015-02-13T05:53:00Z,47.68,-117.32,4.4,3.9,70,3,,8.0,30.318897,1027.4,,TRUE,TRUE,,,,,,,CLR,,,,,,,,VFR,0.7,13.3,4.4,,,,,,,,,METAR,609.0
KSFB 130553Z AUTO 32006KT 10SM CLR 11/08 A3007 RMK AO2 SLP182 T01110078 10172 20111 51002,KSFB,2015-02-13T05:53:00Z,28.77,-81.22,11.1,7.8,320,6,,10.0,30.070866,1018.2,,TRUE,TRUE,,,,,,,CLR,,,,,,,,VFR,0.2,17.2,11.1,,,,,,,,,METAR,17.0
KSEG 130553Z AUTO 32011G19KT 10SM BKN046 M13/M21 A3016 RMK AO2 SLP221 T11281211 11056 21128 51026,KSEG,2015-02-13T05:53:00Z,40.82,-76.87,-12.8,-21.1,320,11,19,10.0,30.159449,1022.1,,TRUE,TRUE,,,,,,,BKN,4600,,,,,,,VFR,2.6,-5.6,-12.8,,,,,,,,,METAR,134.0
KSEA 130553Z 29005KT 10SM OVC025 12/09 A3026 RMK AO2 SLP255 T01220089 10150 20122 55004,KSEA,2015-02-13T05:53:00Z,47.45,-122.32,12.2,8.9,290,5,,10.0,30.259842,1025.5,,,TRUE,,,,,,,OVC,2500,,,,,,,MVFR,-0.4,15.0,12.2,,,,,,,,,METAR,136.0
KRHI 130553Z AUTO 00000KT 10SM CLR M21/M24 A3021 RMK AO2 SLP274 T12061239 11139 21239 411281239 58021,KRHI,2015-02-13T05:53:00Z,45.63,-89.48,-20.6,-23.9,0,0,,10.0,30.209646,1027.4,,TRUE,TRUE,,,,,,,CLR,,,,,,,,VFR,-2.1,-13.9,-23.9,-12.8,-23.9,,,,,,,METAR,485.0
KRDD 130553Z AUTO 33003KT 10SM CLR 11/09 A3017 RMK AO2 SLP215 T01060089 10222 20106 51005,KRDD,2015-02-13T05:53:00Z,40.52,-122.3,10.6,8.9,330,3,,10.0,30.171259,1021.5,,TRUE,TRUE,,,,,,,CLR,,,,,,,,VFR,0.5,22.2,10.6,,,,,,,,,METAR,155.0
KRBG 130553Z AUTO 00000KT 10SM CLR 08/07 A3025 RMK AO2 SLP246 T00780067 10156 20078 53002,KRBG,2015-02-13T05:53:00Z,43.23,-123.35,7.8,6.7,0,0,,10.0,30.250984,1024.6,,TRUE,TRUE,,,,,,,CLR,,,,,,,,VFR,0.2,15.6,7.8,,,,,,,,,METAR,154.0
KRBD 130553Z 05004KT 10SM CLR 06/M03 A3036 RMK AO2 SLP281 T00611033 10122 20039 401440039 53003,KRBD,2015-02-13T05:53:00Z,32.68,-96.87,6.1,-3.3,50,4,,10.0,30.360237,1028.1,,,TRUE,,,,,,,CLR,,,,,,,,VFR,0.3,12.2,3.9,14.4,3.9,,,,,,,METAR,203.0
KRAL 130553Z AUTO 08004KT 10SM CLR 16/M01 A3009 RMK AO2 SLP176 T01611006 10294 20161 51004,KRAL,2015-02-13T05:53:00Z,33.95,-117.45,16.1,-0.6,80,4,,10.0,30.088583,1017.6,,TRUE,TRUE,,,,,,,CLR,,,,,,,,VFR,0.4,29.4,16.1,,,,,,,,,METAR,252.0
KRAC 130553Z AUTO 24003KT 10SM CLR M15/M20 A3041 RMK AO2 SLP312 T11501200 11117 21150 410831150 56008,KRAC,2015-02-13T05:53:00Z,42.77,-87.82,-15.0,-20.0,240,3,,10.0,30.410433,1031.2,,TRUE,TRUE,,,,,,,CLR,,,,,,,,VFR,-0.8,-11.7,-15.0,-8.3,-15.0,,,,,,,METAR,203.0
KPWA 130553Z AUTO 17010KT 10SM CLR 03/M08 A3030 RMK AO2 SLP265 T00281078 10078 20028 400891050 58016,KPWA,2015-02-13T05:53:00Z,35.53,-97.65,2.8,-7.8,170,10,,10.0,30.301182,1026.5,,TRUE,TRUE,,,,,,,CLR,,,,,,,,VFR,-1.6,7.8,2.8,8.9,-5.0,,,,,,,METAR,397.0
KPUW 130553Z AUTO 08004KT 10SM CLR 06/03 A3031 RMK AO2 SLP274 T00610028 10139 20056 51002,KPUW,2015-02-13T05:53:00Z,46.75,-117.12,6.1,2.8,80,4,,10.0,30.31004,1027.4,,TRUE,TRUE,,,,,,,CLR,,,,,,,,VFR,0.2,13.9,5.6,,,,,,,,,METAR,773.0
KSHN 130553Z AUTO 00000KT 10SM OVC022 10/09 A3025 RMK AO2 SLP245 T01000089 10133 20083 53002,KSHN,2015-02-13T05:53:00Z,47.23,-123.13,10.0,8.9,0,0,,10.0,30.250984,1024.5,,TRUE,TRUE,,,,,,,OVC,2200,,,,,,,MVFR,0.2,13.3,8.3,,,,,,,,,METAR,82.0
KSJC 130553Z 00000KT 10SM FEW250 16/10 A3014 RMK AO2 SLP207 T01610100 10211 20144 50000,KSJC,2015-02-13T05:53:00Z,37.37,-121.92,16.1,10.0,0,0,,10.0,30.138779,1020.7,,,TRUE,,,,,,,FEW,25000,,,,,,,VFR,0.0,21.1,14.4,,,,,,,,,METAR,24.0
KSIY 130553Z AUTO 00000KT 10SM CLR 02/01 A3030 RMK AO2 SLP282 T00220011 10128 20022 51006,KSIY,2015-02-13T05:53:00Z,41.77,-122.47,2.2,1.1,0,0,,10.0,30.301182,1028.2,,TRUE,TRUE,,,,,,,CLR,,,,,,,,VFR,0.6,12.8,2.2,,,,,,,,,METAR,807.0
KSHR 130553Z AUTO 19004KT 10SM CLR 02/M03 A3021 RMK AO2 SLP240 T00171033 10128 20017 50000,KSHR,2015-02-13T05:53:00Z,44.77,-106.97,1.7,-3.3,190,4,,10.0,30.209646,1024.0,,TRUE,TRUE,,,,,,,CLR,,,,,,,,VFR,0.0,12.8,1.7,,,,,,,,,METAR,1202.0
KRNM 130553Z AUTO 05007KT 10SM CLR 20/M07 A3007 RMK AO2 SLP168 T02001067 10244 20183 58001,KRNM,2015-02-13T05:53:00Z,33.03,-116.92,20.0,-6.7,50,7,,10.0,30.070866,1016.8,,TRUE,TRUE,,,,,,,CLR,,,,,,,,VFR,-0.1,24.4,18.3,,,,,,,,,METAR,427.0
KRNT 130553Z AUTO 33003KT 10SM OVC035 13/09 A3025 RMK AO2 SLP247 60000 T01280094 10167 20122 58006,KRNT,2015-02-13T05:53:00Z,47.5,-122.22,12.8,9.4,330,3,,10.0,30.250984,1024.7,,TRUE,TRUE,,,,,,,OVC,3500,,,,,,,VFR,-0.6,16.7,12.2,,,,,0.0050,,,,METAR,21.0
RJOF 130552Z 30014KT 270V340 9999 FEW030 BKN040 07/M08 Q1015 RMK 1CU030 5CU040 A2998,RJOF,2015-02-13T05:52:00Z,34.02,131.55,7.0,-8.0,300,14,,6.21,29.970472,,,,,,,,,,,FEW,3000,BKN,4000,,,,,VFR,,,,,,,,,,,,METAR,5.0
KMHK 130552Z AUTO 16005KT 10SM SCT120 M04/M12 A3030 RMK AO2 SLP278 T10391122 11033 21044 410061111 58025 TSNO,KMHK,2015-02-13T05:52:00Z,39.13,-96.68,-3.9,-12.2,160,5,,10.0,30.301182,1027.8,,TRUE,TRUE,,,TRUE,,,,SCT,12000,,,,,,,VFR,-2.5,-3.3,-4.4,-0.6,-11.1,,,,,,,METAR,317.0
KDRA 130552Z AUTO 08005KT 10SM CLR 12/M08 A3024 RMK AO2 SLP216 T01221078 10206 20094 51002,KDRA,2015-02-13T05:52:00Z,36.62,-116.03,12.2,-7.8,80,5,,10.0,30.239174,1021.6,,TRUE,TRUE,,,,,,,CLR,,,,,,,,VFR,0.2,20.6,9.4,,,,,,,,,METAR,1006.0
PTKK 130552Z VRB06KT 14SM -SHRA FEW012CB BKN120 BKN280 30/26 A2970 RMK SHRAB40 CB SE AND OHD SLP059 60000 8/371 T02960263 10306 20283 55007,PTKK,2015-02-13T05:52:00Z,7.47,151.85,29.6,26.3,0,6,,14.0,29.698818,1005.9,,,,,,,,,-SHRA,FEW,1200,BKN,12000,BKN,28000,,,VFR,-0.7,30.6,28.3,,,,,0.0050,,,,METAR,2.0
KNZY 130552Z 00000KT 10SM FEW220 18/07 A3002 RMK AO2 SLP165 T01830072 10261 20178 58002 $,KNZY,2015-02-13T05:52:00Z,32.7,-117.22,18.3,7.2,0,0,,10.0,30.02067,1016.5,,,TRUE,TRUE,,,,,,FEW,22000,,,,,,,VFR,-0.2,26.1,17.8,,,,,,,,,METAR,8.0
PTYA 130552Z 05014G20KT 12SM FEW017 BKN300 29/21 A2979 RMK SLP088 8/101 T02920211 10300 20289 57017,PTYA,2015-02-13T05:52:00Z,9.48,138.08,29.2,21.1,50,14,20,12.0,29.790354,1008.8,,,,,,,,,,FEW,1700,BKN,30000,,,,,VFR,-1.7,30.0,28.9,,,,,,,,,METAR,17.0
MUCM 130551Z 04002KT 9000 NSC 16/13 Q1018,MUCM,2015-02-13T05:51:00Z,21.42,-77.85,16.0,13.0,40,2,,5.59,30.059055,,,,,,,,,,,,,,,,,,,,,,,,,,,,,,,METAR,122.0
MUCU 130551Z 35007KT 9000 FEW020 20/14 Q1017,MUCU,2015-02-13T05:51:00Z,19.97,-75.83,20.0,14.0,350,7,,5.59,30.029528,,,,,,,,,,,FEW,2000,,,,,,,VFR,,,,,,,,,,,,METAR,76.0
KGDP 130551Z AUTO 23007KT 10SM FEW023 OVC045 06/M02 A3033 RMK AO2 SLP256 T00561022 10061 20044 50001,KGDP,2015-02-13T05:51:00Z,31.83,-104.82,5.6,-2.2,230,7,,10.0,30.33071,1025.6,,TRUE,TRUE,,,,,,,FEW,2300,OVC,4500,,,,,VFR,0.1,6.1,4.4,,,,,,,,,METAR,1692.0
MMPB 130551Z 34005KT 10SM SCT100 OVC200 08/05 A3038 RMK 8/037,MMPB,2015-02-13T05:51:00Z,19.17,-98.37,8.0,5.0,340,5,,10.0,30.380905,,,,,,,,,,,SCT,10000,OVC,20000,,,,,VFR,,,,,,,,,,,,METAR,2244.0
MSSS 130550Z 35006KT CAVOK 21/16 Q1017 A3003,MSSS,2015-02-13T05:50:00Z,13.7,-89.12,21.0,16.0,350,6,,6.21,30.029528,,,,,,,,,,,CAVOK,,,,,,,,VFR,,,,,,,,,,,,METAR,616.0
OISR 130550Z 00000KT 9999 FEW035CB BKN090 19/09 Q1019,OISR,2015-02-13T05:50:00Z,27.37,53.2,19.0,9.0,0,0,,6.21,30.088583,,,,,,,,,,,FEW,3500,BKN,9000,,,,,VFR,,,,,,,,,,,,METAR,408.0
KNQA 130550Z 05005KT 10SM SCT250 M05/M12 A3043,KNQA,2015-02-13T05:50:00Z,35.35,-89.87,-5.0,-12.0,50,5,,10.0,30.431103,,,,,,,,,,,SCT,25000,,,,,,,VFR,,,,,,,,,,,,METAR,86.0
ENBL 130550Z 22004KT 3000 VCFG SCT003 BKN015 01/01 Q1009,ENBL,2015-02-13T05:50:00Z,61.4,5.77,1.0,1.0,220,4,,1.86,29.793306,,,,,,,,,,VCFG,SCT,300,BKN,1500,,,,,IFR,,,,,,,,,,,,METAR,150.0
ENAT 130550Z 31026KT 2000 R29/0650 SHSN VV014 M06/M09 Q1000 RESG RMK WIND 700FT 31033KT,ENAT,2015-02-13T05:50:00Z,69.97,23.37,-6.0,-9.0,310,26,,1.24,29.52756,,,,,,,,,,SHSN,OVX,0,,,,,,,LIFR,,,,,,,,,,,1400,SPECI,3.0
ENSR 130550Z 28008KT 7000 -SHSN FEW010 BKN025 M06/M10 Q1002 WIND 1119FT 29023KT,ENSR,2015-02-13T05:50:00Z,69.77,20.97,-6.0,-10.0,280,8,,4.35,29.586615,,,,,,,,,,-SHSN,FEW,1000,BKN,2500,,,,,MVFR,,,,,,,,,,,,SPECI,6.0
ENSG 130550Z 00000KT CAVOK M02/M02 Q1008 RMK WIND 3901FT 11006KT,ENSG,2015-02-13T05:50:00Z,61.13,7.12,-2.0,-2.0,0,0,,6.21,29.763779,,,,,,,,,,,CAVOK,,,,,,,,VFR,,-0.6,,,,,,,,,,SPECI,497.0
LICD 130550Z 06006KT 9999 FEW015 13/10 Q1020,LICD,2015-02-13T05:50:00Z,35.5,12.62,13.0,10.0,60,6,,6.21,30.11811,,,,,,,,,,,FEW,1500,,,,,,,VFR,,,,,,,,,,,,METAR,20.0
LICA 130550Z VRB03KT CAVOK 02/M01 Q1024,LICA,2015-02-13T05:50:00Z,38.88,16.25,2.0,-1.0,0,3,,6.21,30.236221,,,,,,,,,,,CAVOK,,,,,,,,VFR,,,,,,,,,,,,METAR,15.0
NZSP 130550Z 07006KT 9999 SCT018 BKN050 BKN150 M41/ A2844 RMK CLN AIR 05007KT ALL WNDS GRID SDG/HDF,NZSP,2015-02-13T05:50:00Z,-89.98,179.98,-41.0,,70,6,,6.21,28.440945,,,,,,,,,,,SCT,1800,BKN,5000,BKN,15000,,,VFR,,,,,,,,,,,,METAR,2830.0
LIRZ 130550Z 01003KT 9999 FEW075 00/M01 Q1024,LIRZ,2015-02-13T05:50:00Z,43.1,12.5,0.0,-1.0,10,3,,6.21,30.236221,,,,,,,,,,,FEW,7500,,,,,,,VFR,,,,,,,,,,,,METAR,205.0
LIBP 130550Z 23004KT 9999 FEW090 01/M02 Q1025,LIBP,2015-02-13T05:50:00Z,42.42,14.18,1.0,-2.0,230,4,,6.21,30.265747,,,,,,,,,,,FEW,9000,,,,,,,VFR,,,,,,,,,,,,METAR,11.0
LCRA 130550Z 27008KT 9999 FEW020CB BKN150 10/06 Q1011 NOSIG,LCRA,2015-02-13T05:50:00Z,34.57,32.97,10.0,6.0,270,8,,6.21,29.852362,,,,,,TRUE,,,,,FEW,2000,BKN,15000,,,,,VFR,,,,,,,,,,,,METAR,23.0
EGYD 130550Z AUTO 15016KT 2600 // BKN006/// 02/01 Q1006,EGYD,2015-02-13T05:50:00Z,53.03,-0.5,2.0,1.0,150,16,,1.62,29.704725,,,TRUE,,,,,,,,,,,,,,,,,,,,,,,,,,,,METAR,67.0
EGXZ 130550Z AUTO 13012KT 3100 -SHRA OVC009/// 02/01 Q1005,EGXZ,2015-02-13T05:50:00Z,54.2,-1.38,2.0,1.0,130,12,,1.93,29.675198,,,TRUE,,,,,,,-SHRA,,,,,,,,,,,,,,,,,,,,,METAR,28.0
EGXT 130550Z AUTO 14007KT 3200 BR BKN006/// 03/02 Q1006,EGXT,2015-02-13T05:50:00Z,52.62,-0.47,3.0,2.0,140,7,,1.99,29.704725,,,TRUE,,,,,,,BR,,,,,,,,,,,,,,,,,,,,,METAR,84.0
EGXS 130550Z AUTO 14014KT 5000 // FEW015/// BKN080/// 03/01 Q1007,EGXS,2015-02-13T05:50:00Z,53.48,0.15,3.0,1.0,140,14,,3.11,29.734253,,,TRUE,,,,,,,,,,,,,,,,,,,,,,,,,,,,METAR,3.0
EGXP 130550Z AUTO 15014KT 3600 // BKN007/// 02/01 Q1006,EGXP,2015-02-13T05:50:00Z,53.3,-0.55,2.0,1.0,150,14,,2.24,29.704725,,,TRUE,,,,,,,,,,,,,,,,,,,,,,,,,,,,METAR,61.0
EGXE 130550Z AUTO 15011KT 3300 UP OVC009/// 02/00 Q1004,EGXE,2015-02-13T05:50:00Z,54.28,-1.52,2.0,0.0,150,11,,2.05,29.64567,,,TRUE,,,,,,,UP,,,,,,,,,,,,,,,,,,,,,METAR,40.0
EGVP 130550Z AUTO 17014KT 8000 // OVC009/// 06/05 Q1005,EGVP,2015-02-13T05:50:00Z,51.13,-1.57,6.0,5.0,170,14,,4.97,29.675198,,,TRUE,,,,,,,,,,,,,,,,,,,,,,,,,,,,METAR,91.0
EGQK 130550Z AUTO 15011KT 9999 FEW031/// OVC050/// 05/01 Q1000,EGQK,2015-02-13T05:50:00Z,57.65,-3.57,5.0,1.0,150,11,,6.21,29.52756,,,TRUE,,,,,,,,,,,,,,,,,,,,,,,,,,,,METAR,7.0
EGOS 130550Z AUTO 13011KT 2900 HZ BKN009/// SCT014/// 05/03 Q1002 RERA,EGOS,2015-02-13T05:50:00Z,52.8,-2.67,5.0,3.0,130,11,,1.8,29.586615,,,TRUE,,,,,,,HZ,,,,,,,,,,,,,,,,,,,,,METAR,76.0
EGOP 130550Z AUTO 15017KT 9999 // BKN032/// SCT045/// 07/05 Q0999,EGOP,2015-02-13T05:50:00Z,51.72,-4.32,7.0,5.0,150,17,,6.21,29.498032,,,TRUE,,,,,,,,,,,,,,,,,,,,,,,,,,,,METAR,6.0
EGOM 130550Z AUTO 09005KT 4400 HZ BKN011/// BKN019/// 01/M00 Q1001,EGOM,2015-02-13T05:50:00Z,55.05,-2.55,1.0,0.0,90,5,,2.73,29.557087,,,TRUE,,,,,,,HZ,,,,,,,,,,,,,,,,,,,,,METAR,325.0
EGDX 130550Z AUTO 14007KT 9999 FEW018/// BKN060/// 07/05 Q1001 RERA,EGDX,2015-02-13T05:50:00Z,51.4,-3.43,7.0,5.0,140,7,,6.21,29.557087,,,TRUE,,,,,,,,,,,,,,,,,,,,,,,,,,,,METAR,50.0
EGDM 130550Z AUTO 17016G26KT 9999 -SHRA OVC009/// 06/05 Q1005,EGDM,2015-02-13T05:50:00Z,51.17,-1.75,6.0,5.0,170,16,26,6.21,29.675198,,,TRUE,,,,,,,-SHRA,,,,,,,,,,,,,,,,,,,,,METAR,124.0
EGWU 130550Z AUTO 16009KT 6000 // BKN037/// BKN046/// 06/05 Q1007,EGWU,2015-02-13T05:50:00Z,51.55,-0.42,6.0,5.0,160,9,,3.73,29.734253,,,TRUE,,,,,,,,,,,,,,,,,,,,,,,,,,,,METAR,40.0
LICR 130550Z 06004KT 050V150 9999 FEW040 07/02 Q1023,LICR,2015-02-13T05:50:00Z,38.07,15.65,7.0,2.0,60,4,,6.21,30.206694,,,,,,,,,,,FEW,4000,,,,,,,VFR,,,,,,,,,,,,SPECI,21.0
EGXW 130550Z 15016KT 4000 HZ OVC007 02/01 Q1006 GRN,EGXW,2015-02-13T05:50:00Z,53.18,-0.52,2.0,1.0,150,16,,2.49,29.704725,,,,,,,,,,HZ,OVC,700,,,,,,,IFR,,,,,,,,,,,,METAR,70.0
EGXV 130550Z AUTO 14009KT //// -DZ SCT015/// SCT032/// BKN037/// 03/01 Q1006,EGXV,2015-02-13T05:50:00Z,53.87,-0.45,3.0,1.0,140,9,,,29.704725,,,TRUE,,,,,,,-DZ,,,,,,,,,,,,,,,,,,,,,METAR,6.0
EGXU 130550Z 14010KT 4000 HZ OVC010 03/00 Q1005 GRN,EGXU,2015-02-13T05:50:00Z,54.05,-1.25,3.0,0.0,140,10,,2.49,29.675198,,,,,,,,,,HZ,OVC,1000,,,,,,,IFR,,,,,,,,,,,,METAR,16.0
EGXC 130550Z 14011KT 7000 HZ OVC015 03/01 Q1007 WHT,EGXC,2015-02-13T05:50:00Z,53.1,-0.17,3.0,1.0,140,11,,4.35,29.734253,,,,,,,,,,HZ,OVC,1500,,,,,,,MVFR,,,,,,,,,,,,METAR,7.0
EGVO 130550Z 16014KT 6000 -RA OVC010 06/04 Q1006 GRN,EGVO,2015-02-13T05:50:00Z,51.23,-0.95,6.0,4.0,160,14,,3.73,29.704725,,,,,,,,,,-RA,OVC,1000,,,,,,,MVFR,,,,,,,,,,,,METAR,123.0
EGUW 130550Z 14010KT 2200 -RA SCT006 BKN038 OVC045 04/03 Q1009 YLO2,EGUW,2015-02-13T05:50:00Z,52.12,0.97,4.0,3.0,140,10,,1.37,29.793306,,,,,,,,,,-RA,SCT,600,BKN,3800,OVC,4500,,,IFR,,,,,,,,,,,,METAR,87.0
EGUB 130550Z 14014KT 8000 HZ BKN018 SCT030 06/05 Q1006 WHT,EGUB,2015-02-13T05:50:00Z,51.62,-1.07,6.0,5.0,140,14,,4.97,29.704725,,,,,,,,,,HZ,BKN,1800,SCT,3000,,,,,MVFR,,,,,,,,,,,,METAR,63.0
EGQM 130550Z AUTO 16018KT 6000 HZ BKN023/// BKN037/// 04/02 Q1004,EGQM,2015-02-13T05:50:00Z,55.42,-1.6,4.0,2.0,160,18,,3.73,29.64567,,,TRUE,,,,,,,HZ,,,,,,,,,,,,,,,,,,,,,METAR,23.0
EGOV 130550Z 15021KT 9999 BKN021 08/04 Q0997 WHT,EGOV,2015-02-13T05:50:00Z,53.25,-4.53,8.0,4.0,150,21,,6.21,29.438976,,,,,,,,,,,BKN,2100,,,,,,,MVFR,,,,,,,,,,,,METAR,11.0
EGDY 130550Z 17013KT 9999 BKN010 08/06 Q1003 GRN,EGDY,2015-02-13T05:50:00Z,51.0,-2.62,8.0,6.0,170,13,,6.21,29.616142,,,,,,,,,,,BKN,1000,,,,,,,MVFR,,,,,,,,,,,,METAR,23.0
EGDR 130550Z 18021G33KT 4000 RA SCT008 BKN012 OVC020 08/06 Q0998 GRN TEMPO 3000 RA SCT006,EGDR,2015-02-13T05:50:00Z,50.08,-5.25,8.0,6.0,180,21,33,2.49,29.468504,,,,,,,,,,RA,SCT,800,BKN,1200,OVC,2000,,,IFR,,,,,,,,,,,,METAR,82.0
VQPR 130550Z 03003KT 6000 SCT015 SCT030 10/M04 Q1017 NOSIG,VQPR,2015-02-13T05:50:00Z,27.4,89.43,10.0,-4.0,30,3,,3.73,30.029528,,,,,,TRUE,,,,,SCT,1500,SCT,3000,,,,,MVFR,,,,,,,,,,,,METAR,2235.0
LIPY 130550Z VRB02KT CAVOK 02/01 Q1025,LIPY,2015-02-13T05:50:00Z,43.62,13.37,2.0,1.0,0,2,,6.21,30.265747,,,,,,,,,,,CAVOK,,,,,,,,VFR,,,,,,,,,,,,METAR,10.0
LIPO 130550Z 00000KT 2000 BR NSC 04/04 Q1025,LIPO,2015-02-13T05:50:00Z,45.42,10.33,4.0,4.0,0,0,,1.24,30.265747,,,,,,,,,,BR,,,,,,,,,,,,,,,,,,,,,METAR,109.0
LIMZ 130550Z 27003KT 4000 BR SCT007 BKN015 01/M00 Q1024,LIMZ,2015-02-13T05:50:00Z,44.53,7.62,1.0,0.0,270,3,,2.49,30.236221,,,,,,,,,,BR,SCT,700,BKN,1500,,,,,IFR,,,,,,,,,,,,METAR,380.0
VEPT 130550Z 30008KT 3500 HZ NSC 20/12 Q1013 NOSIG,VEPT,2015-02-13T05:50:00Z,25.6,85.08,20.0,12.0,300,8,,2.17,29.911417,,,,,,TRUE,,,,HZ,,,,,,,,,,,,,,,,,,,,,METAR,60.0
OOSA 130550Z AUTO 19004KT 9999 25/17 Q1018,OOSA,2015-02-13T05:50:00Z,17.02,54.07,25.0,17.0,190,4,,6.21,30.059055,,,TRUE,,,,,,,,,,,,,,,,,,,,,,,,,,,,METAR,20.0
MUHG 130550Z 04003KT CAVOK 17/14 Q1017,MUHG,2015-02-13T05:50:00Z,20.77,-76.32,17.0,14.0,40,3,,6.21,30.029528,,,,,,,,,,,CAVOK,,,,,,,,VFR,,,,,,,,,,,,METAR,106.0
MUCC 130550Z VRB01KT 9000 FEW020 13/11 Q1017,MUCC,2015-02-13T05:50:00Z,22.47,-78.33,13.0,11.0,0,1,,5.59,30.029528,,,,,,,,,,,FEW,2000,,,,,,,VFR,,,,,,,,,,,,METAR,4.0
MUSC 130550Z 24003KT 8000 FEW030 13/11 Q1019,MUSC,2015-02-13T05:50:00Z,22.5,-79.95,13.0,11.0,240,3,,4.97,30.088583,,,,,,,,,,,FEW,3000,,,,,,,MVFR,,,,,,,,,,,,METAR,103.0
MUVR 130550Z VRB01KT 9000 FEW025 13/11 Q1019,MUVR,2015-02-13T05:50:00Z,23.03,-81.43,13.0,11.0,0,1,,5.59,30.088583,,,,,,,,,,,FEW,2500,,,,,,,VFR,,,,,,,,,,,,METAR,65.0
LTAR 130550Z 10010KT 9999 FEW040 SCT100 BKN200 M06/M07 Q1015,LTAR,2015-02-13T05:50:00Z,39.8,36.9,-6.0,-7.0,100,10,,6.21,29.970472,,,,,,,,,,,FEW,4000,SCT,10000,BKN,20000,,,VFR,,,,,,,,,,,,METAR,1271.0
LTAY 130550Z VRB01KT 1300 R24/P1500N R06/P1500U BR FEW007 SCT025 BKN080 M01/M01 Q1016,LTAY,2015-02-13T05:50:00Z,37.77,29.68,-1.0,-1.0,0,1,,0.81,30.0,,,,,,,,,,BR,FEW,700,SCT,2500,BKN,8000,,,LIFR,,,,,,,,,,,,METAR,849.0
LTCA 130550Z 04003KT 350V070 6000 -RA FEW015 BKN030 OVC090 02/01 Q1018 NOSIG,LTCA,2015-02-13T05:50:00Z,38.6,39.27,2.0,1.0,40,3,,3.73,30.059055,,,,,,TRUE,,,,-RA,FEW,1500,BKN,3000,OVC,9000,,,MVFR,,,,,,,,,,,,METAR,882.0
LTBY 130550Z 28007KT 9999 BKN035 M00/M02 Q1018,LTBY,2015-02-13T05:50:00Z,39.82,30.52,0.0,-2.0,280,7,,6.21,30.059055,,,,,,,,,,,BKN,3500,,,,,,,VFR,,,,,,,,,,,,METAR,789.0
LTCD 130550Z VRB01KT 9999 SCT040 BKN100 02/M04 Q1018 NOSIG,LTCD,2015-02-13T05:50:00Z,39.72,39.5,2.0,-4.0,0,1,,6.21,30.059055,,,,,,TRUE,,,,,SCT,4000,BKN,10000,,,,,VFR,,,,,,,,,,,,METAR,1215.0
LTCI 130550Z 06008KT 8000 SCT040 BKN120 M03/M07 Q1017 TEMPO 4000 BR,LTCI,2015-02-13T05:50:00Z,38.45,43.32,-3.0,-7.0,60,8,,4.97,30.029528,,,,,,,,,,,SCT,4000,BKN,12000,,,,,MVFR,,,,,,,,,,,,METAR,1661.0
LTDA 130550Z 04013KT 9999 -SHRA BKN030 BKN070 08/07 Q1015,LTDA,2015-02-13T05:50:00Z,36.37,36.28,8.0,7.0,40,13,,6.21,29.970472,,,,,,,,,,-SHRA,BKN,3000,BKN,7000,,,,,MVFR,,,,,,,,,,,,METAR,82.0
LTFH 130550Z 18003KT 130V230 9999 SCT027 OVC090 07/04 Q1021 NOSIG,LTFH,2015-02-13T05:50:00Z,41.27,36.55,7.0,4.0,180,3,,6.21,30.147638,,,,,,TRUE,,,,,SCT,2700,OVC,9000,,,,,VFR,,,,,,,,,,,,METAR,5.0
LTBH 130550Z 05008KT 9999 SCT035 BKN100 03/M02 Q1025,LTBH,2015-02-13T05:50:00Z,40.13,26.42,3.0,-2.0,50,8,,6.21,30.265747,,,,,,,,,,,SCT,3500,BKN,10000,,,,,VFR,,,,,,,,,,,,METAR,3.0
LTBO 130550Z 00000KT 9999 SCT040 BKN100 M01/M03 Q1017,LTBO,2015-02-13T05:50:00Z,38.67,29.47,-1.0,-3.0,0,0,,6.21,30.029528,,,,,,,,,,,SCT,4000,BKN,10000,,,,,VFR,,,,,,,,,,,,METAR,919.0
LTCL 130550Z 32001KT 9999 SCT040 BKN100 05/05 Q1020,LTCL,2015-02-13T05:50:00Z,37.98,41.83,5.0,5.0,320,1,,6.21,30.11811,,,,,,,,,,,SCT,4000,BKN,10000,,,,,VFR,,,,,,,,,,,,METAR,610.0
LTCK 130550Z VRB01KT 2000 BR BKN004 OVC025 00/M01 Q1019 RESN,LTCK,2015-02-13T05:50:00Z,38.75,41.67,0.0,-1.0,0,1,,1.24,30.088583,,,,,,,,,,BR,BKN,400,OVC,2500,,,,,LIFR,,,,,,,,,,,,METAR,1266.0
LTCM 130550Z 27009KT 9999 -RA SCT016 BKN030 BKN080 06/03 Q1021,LTCM,2015-02-13T05:50:00Z,42.02,35.07,6.0,3.0,270,9,,6.21,30.147638,,,,,,,,,,-RA,SCT,1600,BKN,3000,BKN,8000,,,MVFR,,,,,,,,,,,,METAR,8.0
LTCP 130550Z 10013KT 7000 -RA FEW015 BKN026 OVC080 05/04 Q1017,LTCP,2015-02-13T05:50:00Z,37.73,38.47,5.0,4.0,100,13,,4.35,30.029528,,,,,,,,,,-RA,FEW,1500,BKN,2600,OVC,8000,,,MVFR,,,,,,,,,,,,METAR,676.0
LTCN 130550Z 08010KT 030V120 9999 -SHRA SCT033 BKN080 06/03 Q1015,LTCN,2015-02-13T05:50:00Z,37.53,36.95,6.0,3.0,80,10,,6.21,29.970472,,,,,,,,,,-SHRA,SCT,3300,BKN,8000,,,,,VFR,,,,,,,,,,,,METAR,526.0
LTCR 130550Z 10009KT 9999 BKN040 BKN100 07/04 Q1019,LTCR,2015-02-13T05:50:00Z,37.22,40.63,7.0,4.0,100,9,,6.21,30.088583,,,,,,,,,,,BKN,4000,BKN,10000,,,,,VFR,,,,,,,,,,,,METAR,527.0
LTFD 130550Z 08011KT 9999 SCT030 BKN100 04/M01 Q1022,LTFD,2015-02-13T05:50:00Z,39.55,27.02,4.0,-1.0,80,11,,6.21,30.177166,,,,,,,,,,,SCT,3000,BKN,10000,,,,,VFR,,,,,,,,,,,,METAR,16.0
LTCV 130550Z 11008KT 6000 NSC 07/02 Q1020,LTCV,2015-02-13T05:50:00Z,37.37,42.07,7.0,2.0,110,8,,3.73,30.11811,,,,,,,,,,,,,,,,,,,,,,,,,,,,,,,METAR,621.0
LTCU 130550Z 35003KT 270V020 8000 FEW020 SCT035 BKN090 02/M03 Q1020,LTCU,2015-02-13T05:50:00Z,38.87,40.58,2.0,-3.0,350,3,,4.97,30.11811,,,,,,,,,,,FEW,2000,SCT,3500,BKN,9000,,,MVFR,,,,,,,,,,,,METAR,1061.0
LTFG 130550Z VRB02KT CAVOK 06/06 Q1012,LTFG,2015-02-13T05:50:00Z,36.3,32.3,6.0,6.0,0,2,,6.21,29.88189,,,,,,,,,,,CAVOK,,,,,,,,VFR,,,,,,,,,,,,METAR,95.0
LTBF 130550Z 35007KT 9999 SCT012 BKN035 OVC090 03/01 Q1023 NOSIG,LTBF,2015-02-13T05:50:00Z,39.62,27.92,3.0,1.0,350,7,,6.21,30.206694,,,,,,TRUE,,,,,SCT,1200,BKN,3500,OVC,9000,,,VFR,,,,,,,,,,,,METAR,102.0
EGYP 130550Z 22026G36KT 9999 SCT020 BKN030 BKN050 05/02 Q1004 RESHGS WHT,EGYP,2015-02-13T05:50:00Z,-51.82,-58.45,5.0,2.0,220,26,36,6.21,29.64567,,,,,,,,,,,SCT,2000,BKN,3000,BKN,5000,,,MVFR,,,,,,,,,,,,METAR,74.0
TJPS 130550Z 00000KT 10SM FEW030 24/21 A2996,TJPS,2015-02-13T05:50:00Z,18.02,-66.57,24.0,21.0,0,0,,10.0,29.958662,,,,,,,,,,,FEW,3000,,,,,,,VFR,,,,,,,,,,,,METAR,9.0
VNKT 130550Z 31003KT 5000 HZ FEW020 16/07 Q1016 NOSIG,VNKT,2015-02-13T05:50:00Z,27.68,85.37,16.0,7.0,310,3,,3.11,30.0,,,,,,TRUE,,,,HZ,FEW,2000,,,,,,,MVFR,,,,,,,,,,,,METAR,1337.0
VGEG 130550Z 26005KT 3500 HZ NSC 26/11 Q1012 NOSIG,VGEG,2015-02-13T05:50:00Z,22.27,91.82,26.0,11.0,260,5,,2.17,29.88189,,,,,,TRUE,,,,HZ,,,,,,,,,,,,,,,,,,,,,METAR,6.0
NSTU 130550Z 09010KT 12SM FEW017CB SCT210 29/25 A2975 RMK CB NW-NE SLP076 8/301 T02920252 10317 20292 50012,NSTU,2015-02-13T05:50:00Z,-14.33,-170.72,29.2,25.2,90,10,,12.0,29.749016,1007.6,,,,,,,,,,FEW,1700,SCT,21000,,,,,VFR,1.2,31.7,29.2,,,,,,,,,METAR,3.0
LXGB 130550Z 26003KT 9999 FEW012 SCT018 10/09 Q1023,LXGB,2015-02-13T05:50:00Z,36.13,-5.33,10.0,9.0,260,3,,6.21,30.206694,,,,,,,,,,,FEW,1200,SCT,1800,,,,,VFR,,,,,,,,,,,,METAR,5.0
LGSO 130550Z 34018KT 9999 SCT015 BKN020 08/02 Q1020,LGSO,2015-02-13T05:50:00Z,37.42,24.95,8.0,2.0,340,18,,6.21,30.11811,,,,,,,,,,,SCT,1500,BKN,2000,,,,,MVFR,,,,,,,,,,,,METAR,72.0
LGPA 130550Z 02023KT 9999 BKN025 08/02 Q1019,LGPA,2015-02-13T05:50:00Z,37.0,25.13,8.0,2.0,20,23,,6.21,30.088583,,,,,,,,,,,BKN,2500,,,,,,,MVFR,,,,,,,,,,,,METAR,36.0
LGNX 130550Z 35020G30KT 9999 FEW018 BKN025 08/03 Q1019,LGNX,2015-02-13T05:50:00Z,37.08,25.37,8.0,3.0,350,20,30,6.21,30.088583,,,,,,,,,,,FEW,1800,BKN,2500,,,,,MVFR,,,,,,,,,,,,METAR,4.0
LGKZ 130550Z 32005KT CAVOK M03/M09 Q1024,LGKZ,2015-02-13T05:50:00Z,40.28,21.83,-3.0,-9.0,320,5,,6.21,30.236221,,,,,,,,,,,CAVOK,,,,,,,,VFR,,,,,,,,,,,,METAR,628.0
LGKF 130550Z 00000KT CAVOK 06/M04 Q1023,LGKF,2015-02-13T05:50:00Z,38.12,20.5,6.0,-4.0,0,0,,6.21,30.206694,,,,,,,,,,,CAVOK,,,,,,,,VFR,,,,,,,,,,,,METAR,18.0
LGHI 130550Z 03019KT 9999 FEW018 BKN025 BKN080 08/02 Q1019,LGHI,2015-02-13T05:50:00Z,38.32,26.12,8.0,2.0,30,19,,6.21,30.088583,,,,,,,,,,,FEW,1800,BKN,2500,BKN,8000,,,MVFR,,,,,,,,,,,,METAR,4.0
LGZA 130550Z 02004KT 9999 FEW020 06/M00 Q1023,LGZA,2015-02-13T05:50:00Z,37.75,20.87,6.0,0.0,20,4,,6.21,30.206694,,,,,,,,,,,FEW,2000,,,,,,,VFR,,,,,,,,,,,,METAR,3.0
LGMK 130550Z 35013KT 9999 -RA FEW018 BKN025 07/01 Q1019,LGMK,2015-02-13T05:50:00Z,37.43,25.35,7.0,1.0,350,13,,6.21,30.088583,,,,,,,,,,-RA,FEW,1800,BKN,2500,,,,,MVFR,,,,,,,,,,,,METAR,123.0
LGKP 130550Z 33015KT 9999 SCT025 SCT080 11/04 Q1015,LGKP,2015-02-13T05:50:00Z,35.42,27.15,11.0,4.0,330,15,,6.21,29.970472,,,,,,,,,,,SCT,2500,SCT,8000,,,,,VFR,,,,,,,,,,,,METAR,20.0
EGQL 130550Z 17014KT CAVOK 04/00 Q1002 BLU,EGQL,2015-02-13T05:50:00Z,56.38,-2.87,4.0,0.0,170,14,,6.21,29.586615,,,,,,,,,,,CAVOK,,,,,,,,VFR,,,,,,,,,,,,METAR,12.0
EGQS 130550Z 13010KT 9999 FEW035 BKN055 05/01 Q1001 BLU,EGQS,2015-02-13T05:50:00Z,57.72,-3.32,5.0,1.0,130,10,,6.21,29.557087,,,,,,,,,,,FEW,3500,BKN,5500,,,,,VFR,,,,,,,,,,,,METAR,13.0
EGXD 130550Z 14008KT 5000 HZ OVC008 02/01 Q1005 GRN,EGXD,2015-02-13T05:50:00Z,54.13,-1.42,2.0,1.0,140,8,,3.11,29.675198,,,,,,,,,,HZ,OVC,800,,,,,,,IFR,,,,,,,,,,,,METAR,35.0
OOMS 130550Z 35002KT 8000 NSC 28/17 Q1017 NOSIG,OOMS,2015-02-13T05:50:00Z,23.57,58.27,28.0,17.0,350,2,,4.97,30.029528,,,,,,TRUE,,,,,,,,,,,,,,,,,,,,,,,,,METAR,8.0
EGYM 130550Z 13015KT 3000 HZ SCT010 BKN040 OVC100 04/02 Q1008 YLO1,EGYM,2015-02-13T05:50:00Z,52.63,0.57,4.0,2.0,130,15,,1.86,29.763779,,,,,,,,,,HZ,SCT,1000,BKN,4000,OVC,10000,,,IFR,,,,,,,,,,,,METAR,23.0
FHAW 130550Z 13012KT 9999 SCT016 BKN040 26/22 Q1015 WHT,FHAW,2015-02-13T05:50:00Z,-7.97,-14.4,26.0,22.0,130,12,,6.21,29.970472,,,,,,,,,,,SCT,1600,BKN,4000,,,,,VFR,,,,,,,,,,,,METAR,79.0
KRHV 130550Z 00000KT 10SM SKC 14/12 A3014,KRHV,2015-02-13T05:50:00Z,37.32,-121.82,14.0,12.0,0,0,,10.0,30.138779,,,,,,,,,,,SKC,,,,,,,,VFR,,,,,,,,,,,,METAR,41.0
PGWT 130550Z 04010KT 7SM FEW018 BKN100 BKN140 27/16 A2983,PGWT,2015-02-13T05:50:00Z,14.98,145.62,27.0,16.0,40,10,,7.0,29.828741,,,,,,,,,,,FEW,1800,BKN,10000,BKN,14000,,,VFR,,,,,,,,,,,,METAR,82.0
PADL 130550Z 33007KT 10SM FEW039 M02/M02 A2957,PADL,2015-02-13T05:50:00Z,59.05,-158.52,-2.0,-2.0,330,7,,10.0,29.568897,,,,,,,,,,,FEW,3900,,,,,,,VFR,,,,,,,,,,,,METAR,26.0
EGVN 130550Z 16008KT 8000 HZ SCT009 BKN018 06/05 Q1004 TEMPO 6000 -RADZ,EGVN,2015-02-13T05:50:00Z,51.77,-1.58,6.0,5.0,160,8,,4.97,29.64567,,,,,,,,,,HZ,SCT,900,BKN,1800,,,,,MVFR,,,,,,,,,,,,METAR,88.0
KQBC 130550Z AUTO VRB02KT 9999 BKN190 25/22 A2992 RMK AO2 SLP131 T02540217 10268 20259 55003,KQBC,2015-02-13T05:50:00Z,,,25.4,21.7,0,2,,6.21,29.920275,1013.1,,TRUE,TRUE,,,,,,,BKN,19000,,,,,,,VFR,-0.3,26.8,25.9,,,,,,,,,METAR,
ENSH 130550Z 26007KT 240V330 8000 -SHSN VV025 M04/M09 Q1009,ENSH,2015-02-13T05:50:00Z,68.25,14.67,-4.0,-9.0,260,7,,4.97,29.793306,,,,,,,,,,-SHSN,OVX,0,,,,,,,LIFR,,,,,,,,,,,2500,METAR,9.0
ENHF 130550Z 27017G31KT 230V320 6000 -SHSN DRSN FEW004 SCT013 BKN025 M07/M10 Q0997 RMK WIND 1254FT 29045G57KT,ENHF,2015-02-13T05:50:00Z,70.67,23.67,-7.0,-10.0,270,17,31,3.73,29.438976,,,,,,,,,,-SHSN DRSN,FEW,400,SCT,1300,BKN,2500,,,MVFR,,,,,,,,,,,,SPECI,81.0
ENBN 130550Z 27006KT 9999 FEW015 BKN036 02/M04 Q1011,ENBN,2015-02-13T05:50:00Z,65.47,12.22,2.0,-4.0,270,6,,6.21,29.852362,,,,,,,,,,,FEW,1500,BKN,3600,,,,,VFR,,,,,,,,,,,,METAR,9.0
ENSB 130550Z 33010KT 9999 FEW020 BKN026 M20/M23 Q0994 RMK WIND 1400FT 30008KT,ENSB,2015-02-13T05:50:00Z,78.25,15.47,-20.0,-23.0,330,10,,6.21,29.350393,,,,,,,,,,,FEW,2000,BKN,2600,,,,,MVFR,,,,,,,,,,,,SPECI,29.0
ENVD 130550Z 28022KT 9999 VCSH DRSN FEW007 SCT045 M07/M09 Q0993,ENVD,2015-02-13T05:50:00Z,70.07,29.85,-7.0,-9.0,280,22,,6.21,29.320866,,,,,,,,,,VCSH DRSN,FEW,700,SCT,4500,,,,,VFR,,,,,,,,,,,,METAR,39.0
ENSK 130550Z 30014G24KT 9999 VCSH FEW020 SCT035 BKN070 M03/M11 Q1008,ENSK,2015-02-13T05:50:00Z,68.57,15.02,-3.0,-11.0,300,14,24,6.21,29.763779,,,,,,,,,,VCSH,FEW,2000,SCT,3500,BKN,7000,,,VFR,,,,,,,,,,,,METAR,3.0
ENRM 130550Z 10005KT 060V130 9999 SCT015 BKN045 M00/M01 Q1012,ENRM,2015-02-13T05:50:00Z,64.83,11.13,0.0,-1.0,100,5,,6.21,29.88189,,,,,,,,,,,SCT,1500,BKN,4500,,,,,VFR,,,,,,,,,,,,METAR,14.0
ENNO 130550Z VRB02KT 9999 OVC004 M07/M08 Q1015,ENNO,2015-02-13T05:50:00Z,59.57,9.22,-7.0,-8.0,0,2,,6.21,29.970472,,,,,,,,,,,OVC,400,,,,,,,LIFR,,,,,,,,,,,,METAR,19.0
ENNK 130550Z 23022KT 9999 VCSH FEW010 SCT030 M02/M06 Q1008,ENNK,2015-02-13T05:50:00Z,68.47,17.38,-2.0,-6.0,230,22,,6.21,29.763779,,,,,,,,,,VCSH,FEW,1000,SCT,3000,,,,,VFR,,,,,,,,,,,,METAR,23.0
ENLK 130550Z VRB10G20KT 9000 -SHSN SCT015 BKN030 M03/M09 Q1009,ENLK,2015-02-13T05:50:00Z,68.15,13.62,-3.0,-9.0,0,10,20,5.59,29.793306,,,,,,,,,,-SHSN,SCT,1500,BKN,3000,,,,,MVFR,,,,,,,,,,,,METAR,26.0
ENHV 130550Z 29023KT 5000 -SN -BLSN FEW011 SCT024 M05/M08 Q0995,ENHV,2015-02-13T05:50:00Z,71.02,25.97,-5.0,-8.0,290,23,,3.11,29.379921,,,,,,,,,,-SN -BLSN,FEW,1100,SCT,2400,,,,,MVFR,,,,,,,,,,,,METAR,14.0
EEPU 130550Z 20006KT 3600 -SN BR OVC010 01/01 Q1021,EEPU,2015-02-13T05:50:00Z,58.42,24.47,1.0,1.0,200,6,,2.24,30.147638,,,,,,,,,,-SN BR,OVC,1000,,,,,,,IFR,,,,,,,,,,,,METAR,14.0
EETU 130550Z 23005KT 4000 -SN SCT005 OVC021 01/M01 Q1022,EETU,2015-02-13T05:50:00Z,58.32,26.68,1.0,-1.0,230,5,,2.49,30.177166,,,,,,,,,,-SN,SCT,500,OVC,2100,,,,,IFR,,,,,,,,,,,,METAR,67.0
EEKE 130550Z 22007KT 9999 SCT012 OVC017 01/01 Q1021 R17/290095,EEKE,2015-02-13T05:50:00Z,58.23,22.52,1.0,1.0,220,7,,6.21,30.147638,,,,,,,,,,,SCT,1200,OVC,1700,,,,,MVFR,,,,,,,,,,,,METAR,4.0
EEKA 130550Z 17004KT 9999 OVC021 02/01 Q1020,EEKA,2015-02-13T05:50:00Z,58.98,22.83,2.0,1.0,170,4,,6.21,30.11811,,,,,,,,,,,OVC,2100,,,,,,,MVFR,,,,,,,,,,,,METAR,4.0
LIPB 130550Z 34002KT 9999 BKN040 03/M01 Q1024 RMK MON CLD SCT,LIPB,2015-02-13T05:50:00Z,46.47,11.32,3.0,-1.0,340,2,,6.21,30.236221,,,,,,,,,,,BKN,4000,,,,,,,VFR,,,,,,,,,,,,SPECI,241.0
ENOA 130550Z 17030KT 9999 -SHRA SCT015 BKN050 05/03 Q1006 W///S4,ENOA,2015-02-13T05:50:00Z,60.5,2.83,5.0,3.0,170,30,,6.21,29.704725,,,,,,,,,,-SHRA,SCT,1500,BKN,5000,,,,,VFR,,,,,,,,,,,,SPECI,5.0
ENOV 130550Z VRB01KT 9999 FEW053 SCT078 01/01 Q1009 RMK WIND 2175FT 14008KT,ENOV,2015-02-13T05:50:00Z,62.17,6.07,1.0,1.0,0,1,,6.21,29.793306,,,,,,,,,,,FEW,5300,SCT,7800,,,,,VFR,,,,,,,,,,,,SPECI,74.0
LTCF 130550Z 27003KT 9999 SCT030 BKN070 M13/M14 Q1018,LTCF,2015-02-13T05:50:00Z,40.57,43.12,-13.0,-14.0,270,3,,6.21,30.059055,,,,,,,,,,,SCT,3000,BKN,7000,,,,,VFR,,,,,,,,,,,,METAR,1795.0
MMPR 130549Z 04004KT 10SM SCT020 OVC070 19/18 A2997 RMK SLP147 52005 918 8/57/,MMPR,2015-02-13T05:49:00Z,20.67,-105.25,19.0,18.0,40,4,,10.0,29.970472,1014.7,,,,,,,,,,SCT,2000,OVC,7000,,,,,VFR,0.5,,,,,,,,,,,METAR,6.0
MMTO 130549Z 00000KT 4SM BKN015 OVC070 07/05 A3041 RMK SLP123 52013 907 60025 8/47/ -RA E21 HZ,MMTO,2015-02-13T05:49:00Z,19.35,-99.57,7.0,5.0,0,0,,4.0,30.410433,1012.3,,,,,,,,,,BKN,1500,OVC,7000,,,,,MVFR,1.3,,,,,,,0.25,,,,METAR,2576.0
MMOX 130548Z 33005KT 7SM SCT200 13/05 A3032 RMK SLP167 52026 9// 8/008,MMOX,2015-02-13T05:48:00Z,17.0,-96.72,13.0,5.0,330,5,,7.0,30.318897,1016.7,,,,,,,,,,SCT,20000,,,,,,,VFR,2.6,,,,,,,,,,,METAR,1528.0
MMCL 130546Z 00000KT 8SM SCT020 BKN070 22/19 A2997 RMK SLP141 52010 907 8/670,MMCL,2015-02-13T05:46:00Z,24.77,-107.47,22.0,19.0,0,0,,8.0,29.970472,1014.1,,,,,,,,,,SCT,2000,BKN,7000,,,,,VFR,1.0,,,,,,,,,,,METAR,39.0
MMAA 130546Z 00000KT 7SM FEW015TCU SCT300 24/22 A2995 RMK SLP140 52012 916 8/202 HZY,MMAA,2015-02-13T05:46:00Z,16.75,-99.75,24.0,22.0,0,0,,7.0,29.949802,1014.0,,,,,,,,,,FEW,1500,SCT,30000,,,,,VFR,1.2,,,,,,,,,,,METAR,5.0
MMLO 130545Z 03012KT 8SM SCT030 BKN100 BKN200 11/07 A3036 RMK SLP170 52010 917 8/538,MMLO,2015-02-13T05:45:00Z,21.0,-101.47,11.0,7.0,30,12,,8.0,30.360237,1017.0,,,,,,,,,,SCT,3000,BKN,10000,BKN,20000,,,VFR,1.0,,,,,,,,,,,METAR,1819.0
MMIA 130545Z 36007KT 8SM SCT200 19/12 A3006 RMK 8/001,MMIA,2015-02-13T05:45:00Z,19.27,-103.57,19.0,12.0,360,7,,8.0,30.059055,,,,,,,,,,,SCT,20000,,,,,,,VFR,,,,,,,,,,,,METAR,723.0
MMAS 130545Z 36007KT 10SM -RA BKN040 OVC090 09/08 A3034 RMK SLP183 60065 8/77/,MMAS,2015-02-13T05:45:00Z,21.7,-102.32,9.0,8.0,360,7,,10.0,30.339567,1018.3,,,,,,,,,-RA,BKN,4000,OVC,9000,,,,,VFR,,,,,,,,0.65,,,,METAR,1863.0
LHBC 130545Z 00000KT 2500 BR NSC M05/M06 Q1028,LHBC,2015-02-13T05:45:00Z,46.68,21.17,-5.0,-6.0,0,0,,1.55,30.35433,,,,,,,,,,BR,,,,,,,,,,,,,,,,,,,,,METAR,86.0
MMCU 130545Z RTD 35005KT 8SM FEW004 BKN015 OVC020 04/04 A3034 RMK SLP275 54000 934 8/5//,MMCU,2015-02-13T05:45:00Z,28.7,-105.97,4.0,4.0,350,5,,8.0,30.339567,1027.5,,,,,,,,,,FEW,400,BKN,1500,OVC,2000,,,MVFR,,,,,,,,,,,,METAR,1372.0
RJAT 130545Z 33007G19KT 9999 FEW025 05/M21 Q0999 RMK 1CU025 A2950,RJAT,2015-02-13T05:45:00Z,35.32,138.87,5.0,-21.0,330,7,19,6.21,29.498032,,,,,,,,,,,FEW,2500,,,,,,,VFR,,,,,,,,,,,,METAR,683.0
MMQT 130545Z 10007KT 7SM SCT018 BKN100 OVC200 09/08 A3040 RMK 60015 8/527,MMQT,2015-02-13T05:45:00Z,20.62,-100.18,9.0,8.0,100,7,,7.0,30.398623,,,,,,,,,,,SCT,1800,BKN,10000,OVC,20000,,,VFR,,,,,,,,0.15,,,,METAR,1813.0
MMMX 130545Z 30007KT 10SM SCT020 OVC080 10/05 A3038 NOSIG RMK SLP162 52007 918 8/57/ HZY OCNL DROPS,MMMX,2015-02-13T05:45:00Z,19.42,-99.08,10.0,5.0,300,7,,10.0,30.380905,1016.2,,,,,TRUE,,,,,SCT,2000,OVC,8000,,,,,VFR,0.7,,,,,,,,,,,METAR,2238.0
MMZC 130544Z 17007KT 10SM SCT120 09/04 A3033 RMK 8/060,MMZC,2015-02-13T05:44:00Z,22.9,-102.68,9.0,4.0,170,7,,10.0,30.33071,,,,,,,,,,,SCT,12000,,,,,,,VFR,,,,,,,,,,,,METAR,2177.0
MMSP 130543Z 14005KT 6SM SCT010 OVC015 09/07 A3036 RMK SLP185 57009 940 8/5// OCNL DROPS,MMSP,2015-02-13T05:43:00Z,22.25,-100.93,9.0,7.0,140,5,,6.0,30.360237,1018.5,,,,,,,,,,SCT,1000,OVC,1500,,,,,MVFR,-0.9,,,,,,,,,,,METAR,1903.0
MMRX 130543Z 33005KT 6SM OVC025 14/10 A3032 RMK SLP263 51008 944 8/5// HZY FU,MMRX,2015-02-13T05:43:00Z,26.02,-98.22,14.0,10.0,330,5,,6.0,30.318897,1026.3,,,,,,,,,,OVC,2500,,,,,,,MVFR,0.8,,,,,,,,,,,METAR,39.0
MMVR 130543Z 34004KT 7SM SKC 19/17 A3021 RMK SLP198 57005 941 HZY,MMVR,2015-02-13T05:43:00Z,19.15,-96.18,19.0,17.0,340,4,,7.0,30.209646,1019.8,,,,,,,,,,SKC,,,,,,,,VFR,-0.5,,,,,,,,,,,METAR,16.0
MMTJ 130542Z 00000KT 6SM SKC 17/00 A3007 RMK SLP182 53021 952,MMTJ,2015-02-13T05:42:00Z,32.53,-116.97,17.0,0.0,0,0,,6.0,30.070866,1018.2,,,,,,,,,,SKC,,,,,,,,VFR,2.1,,,,,,,,,,,METAR,152.0
MMCP 130542Z 04010KT 7SM SCT080 20/17 A3013 RMK 8/030,MMCP,2015-02-13T05:42:00Z,19.82,-90.5,20.0,17.0,40,10,,7.0,30.129921,,,,,,,,,,,SCT,8000,,,,,,,VFR,,,,,,,,,,,,METAR,5.0
MMTG 130542Z 30012KT 5SM SCT070 20/14 A3011 RMK SLP165 52013 9// 8/070 FU HZ ARND ISOLD SC,MMTG,2015-02-13T05:42:00Z,16.57,-93.03,20.0,14.0,300,12,,5.0,30.109253,1016.5,,,,,,,,,,SCT,7000,,,,,,,MVFR,1.3,,,,,,,,,,,METAR,528.0
MMAN 130541Z 35007KT 1SM -DZ BR BKN004 OVC010 09/09 A3036 RMK SLP267 52005 946 60035 8/7//,MMAN,2015-02-13T05:41:00Z,25.87,-100.23,9.0,9.0,350,7,,1.0,30.360237,1026.7,,,,,,,,,-DZ BR,BKN,400,OVC,1000,,,,,LIFR,0.5,,,,,,,,,,,METAR,448.0
MMMZ 130541Z 03007KT 8SM FEW025 18/16 A2995 RMK SLP143 52013 913 8/500 HZY,MMMZ,2015-02-13T05:41:00Z,23.17,-106.27,18.0,16.0,30,7,,8.0,29.949802,1014.3,,,,,,,,,,FEW,2500,,,,,,,VFR,1.3,,,,,,,,,,,METAR,10.0
MMHO 130541Z 01008KT 10SM SKC 23/04 A2998 RMK SLP141 52011 918 HZY,MMHO,2015-02-13T05:41:00Z,29.08,-111.05,23.0,4.0,10,8,,10.0,29.97933,1014.1,,,,,,,,,,SKC,,,,,,,,VFR,1.1,,,,,,,,,,,METAR,184.0
