No errors
No warnings
220 ms
data source=metars
4590 results
raw_text,station_id,observation_time,latitude,longitude,temp_c,dewpoint_c,wind_dir_degrees,wind_speed_kt,wind_gust_kt,visibility_statute_mi,altim_in_hg,sea_level_pressure_mb,corrected,auto,auto_station,maintenance_indicator_on,no_signal,lightning_sensor_off,freezing_rain_sensor_off,present_weather_sensor_off,wx_string,sky_cover,cloud_base_ft_agl,sky_cover,cloud_base_ft_agl,sky_cover,cloud_base_ft_agl,sky_cover,cloud_base_ft_agl,flight_category,three_hr_pressure_tendency_mb,maxT_c,minT_c,maxT24hr_c,minT24hr_c,precip_in,pcp3hr_in,pcp6hr_in,pcp24hr_in,snow_in,vert_vis_ft,metar_type,elevation_m
RKSG 120758Z AUTO 30015G20KT 10SM CLR 01/M13 A2998 RMK AO2 SLP157 T00081126 $,RKSG,2015-02-12T07:58:00Z,36.97,127.02,0.8,-12.6,300,15,20,10.0,29.97933,1015.7,,TRUE,TRUE,TRUE,,,,,,CLR,,,,,,,,VFR,,,,,,,,,,,,METAR,16.0
CWOB 120758Z AUTO 36006KT M32/ A2973,CWOB,2015-02-12T07:58:00Z,63.32,-64.15,-32.0,,360,6,,,29.731298,,,TRUE,,,,,,,,,,,,,,,,,,,,,,,,,,,,SPECI,367.0
PHHI 120758Z AUTO 35003KT 10SM FEW032 SCT047 19/15 A2996 RMK AO2 SLP138 T01850150 $,PHHI,2015-02-12T07:58:00Z,21.48,-158.05,18.5,15.0,350,3,,10.0,29.958662,1013.8,,TRUE,TRUE,TRUE,,,,,,FEW,3200,SCT,4700,,,,,VFR,,,,,,,,,,,,METAR,255.0
PAED 120758Z AUTO 01004KT 10SM OVC070 M03/M06 A2963 RMK AO2 SLP032 T10311058,PAED,2015-02-12T07:58:00Z,61.25,-149.8,-3.1,-5.8,10,4,,10.0,29.630905,1003.2,,TRUE,TRUE,,,,,,,OVC,7000,,,,,,,VFR,,,,,,,,,,,,METAR,59.0
KSKA 120758Z AUTO 05006KT 10SM BKN130 05/05 A3024 RMK AO2 UPB18E31 SLP255 P0000 T00510051,KSKA,2015-02-12T07:58:00Z,47.62,-117.65,5.1,5.1,50,6,,10.0,30.239174,1025.5,,TRUE,TRUE,,,,,,,BKN,13000,,,,,,,VFR,,,,,,0.0050,,,,,,METAR,750.0
KRIV 120758Z AUTO 32004KT 10SM CLR 14/M06 A3013 RMK AO2 SLPNO T01361057 402630066,KRIV,2015-02-12T07:58:00Z,33.87,-117.27,13.6,-5.7,320,4,,10.0,30.129921,,,TRUE,TRUE,,,,,,,CLR,,,,,,,,VFR,,,,26.3,6.6,,,,,,,METAR,469.0
KMCF 120758Z AUTO 11003KT 10SM CLR 08/07 A3005 RMK AO2 SLP179 T00780073,KMCF,2015-02-12T07:58:00Z,27.85,-82.52,7.8,7.3,110,3,,10.0,30.050198,1017.9,,TRUE,TRUE,,,,,,,CLR,,,,,,,,VFR,,,,,,,,,,,,METAR,4.0
KHMN 120758Z AUTO 24003KT 10SM CLR 05/M02 A3033 RMK AO2 SLP240 T00471021 $,KHMN,2015-02-12T07:58:00Z,32.85,-106.08,4.7,-2.1,240,3,,10.0,30.33071,1024.0,,TRUE,TRUE,TRUE,,,,,,CLR,,,,,,,,VFR,,,,,,,,,,,,METAR,1248.0
KFRI 120758Z AUTO 02005KT 10SM OVC046 M02/M05 A3048 RMK AO2 SLP331 T10161048,KFRI,2015-02-12T07:58:00Z,39.03,-96.77,-1.6,-4.8,20,5,,10.0,30.481298,1033.1,,TRUE,TRUE,,,,,,,OVC,4600,,,,,,,VFR,,,,,,,,,,,,METAR,325.0
KDMA 120758Z AUTO 06014KT 10SM CLR 15/01 A3016 RMK AO2 SLP186 T01470010 $,KDMA,2015-02-12T07:58:00Z,32.17,-110.87,14.7,1.0,60,14,,10.0,30.159449,1018.6,,TRUE,TRUE,TRUE,,,,,,CLR,,,,,,,,VFR,,,,,,,,,,,,METAR,824.0
KBAB 120758Z AUTO 34003KT 10SM CLR 10/10 A3020 RMK AO2 SLPNO T00960096 401670047 $,KBAB,2015-02-12T07:58:00Z,39.12,-121.42,9.6,9.6,340,3,,10.0,30.200787,,,TRUE,TRUE,TRUE,,,,,,CLR,,,,,,,,VFR,,,,16.7,4.7,,,,,,,METAR,34.0
KAFF 120758Z AUTO 36005KT 10SM CLR M05/M06 A3037 RMK AO2 SLP304 T10491059,KAFF,2015-02-12T07:58:00Z,38.97,-104.82,-4.9,-5.9,360,5,,10.0,30.369095,1030.4,,TRUE,TRUE,,,,,,,CLR,,,,,,,,VFR,,,,,,,,,,,,METAR,2003.0
KSUU 120758Z AUTO 00000KT 10SM CLR 09/08 A3020 RMK AO2 SLP234 T00900077 401790041 $,KSUU,2015-02-12T07:58:00Z,38.27,-121.92,9.0,7.7,0,0,,10.0,30.200787,1023.4,,TRUE,TRUE,TRUE,,,,,,CLR,,,,,,,,VFR,,,,17.9,4.1,,,,,,,METAR,19.0
KSSC 120758Z AUTO 18003KT 10SM CLR 02/01 A2990 RMK AO2 SLP127 T00220007 $,KSSC,2015-02-12T07:58:00Z,33.97,-80.47,2.2,0.7,180,3,,10.0,29.899607,1012.7,,TRUE,TRUE,TRUE,,,,,,CLR,,,,,,,,VFR,,,,,,,,,,,,METAR,74.0
KPOE 120758Z AUTO 04004KT 9SM CLR 10/07 A3017 RMK AO2 SLP218 T01020066,KPOE,2015-02-12T07:58:00Z,31.05,-93.2,10.2,6.6,40,4,,9.0,30.171259,1021.8,,TRUE,TRUE,,,,,,,CLR,,,,,,,,VFR,,,,,,,,,,,,METAR,101.0
KEGI 120758Z AUTO 00000KT 8SM CLR 05/04 A3006 RMK AO2 SLP182 T00490036 $,KEGI,2015-02-12T07:58:00Z,30.63,-86.52,4.9,3.6,0,0,,8.0,30.059055,1018.2,,TRUE,TRUE,TRUE,,,,,,CLR,,,,,,,,VFR,,,,,,,,,,,,METAR,59.0
CBBC 120758Z AUTO 12007KT 9SM -RA SCT019 BKN025 OVC032 08/07 A3001 RMK SLP164,CBBC,2015-02-12T07:58:00Z,52.18,-128.15,8.0,7.0,120,7,,9.0,30.008858,1016.4,,TRUE,,,,,,,-RA,SCT,1900,BKN,2500,OVC,3200,,,MVFR,,,,,,,,,,,,SPECI,43.0
ROTM 120758Z 33012G18KT 9000 HZ FEW040 BKN070 18/06 A3000 RMK SLP145 XWND ADV T01790061,ROTM,2015-02-12T07:58:00Z,26.27,127.75,17.9,6.1,330,12,18,5.59,30.0,1014.5,,,,,,,,,HZ,FEW,4000,BKN,7000,,,,,VFR,,,,,,,,,,,,METAR,75.0
KVAD 120758Z AUTO 25005KT 10SM CLR 08/06 A3002 RMK AO2 SLP168 T00820063 $,KVAD,2015-02-12T07:58:00Z,30.97,-83.2,8.2,6.3,250,5,,10.0,30.02067,1016.8,,TRUE,TRUE,TRUE,,,,,,CLR,,,,,,,,VFR,,,,,,,,,,,,METAR,71.0
KTCM 120758Z AUTO 05002KT 10SM FEW080 BKN095 09/09 A3022 RMK AO2 SLP239 T00930093 401260041 $,KTCM,2015-02-12T07:58:00Z,47.12,-122.47,9.3,9.3,50,2,,10.0,30.221457,1023.9,,TRUE,TRUE,TRUE,,,,,,FEW,8000,BKN,9500,,,,,VFR,,,,12.6,4.1,,,,,,,METAR,98.0
KSLI 120758Z AUTO 02004KT 10SM CLR 20/M03 A3006 RMK AO2 SLP182 T01981032 403010073,KSLI,2015-02-12T07:58:00Z,33.77,-118.03,19.8,-3.2,20,4,,10.0,30.059055,1018.2,,TRUE,TRUE,,,,,,,CLR,,,,,,,,VFR,,,,30.1,7.3,,,,,,,METAR,11.0
KSKF 120758Z AUTO 02013KT 10SM OVC028 16/09 A3021 RMK AO2 SLP226 T01560085 $,KSKF,2015-02-12T07:58:00Z,29.37,-98.57,15.6,8.5,20,13,,10.0,30.209646,1022.6,,TRUE,TRUE,TRUE,,,,,,OVC,2800,,,,,,,MVFR,,,,,,,,,,,,METAR,210.0
KLUF 120758Z AUTO 33005KT 10SM CLR 16/M01 A3013 RMK AO2 SLP195 T01601009 $,KLUF,2015-02-12T07:58:00Z,33.52,-112.37,16.0,-0.9,330,5,,10.0,30.129921,1019.5,,TRUE,TRUE,TRUE,,,,,,CLR,,,,,,,,VFR,,,,,,,,,,,,METAR,332.0
KLSV 120758Z AUTO 33007KT 10SM CLR 12/M05 A3028 RMK AO2 SLP245,KLSV,2015-02-12T07:58:00Z,36.22,-115.02,12.0,-5.0,330,7,,10.0,30.280512,1024.5,,TRUE,TRUE,,,,,,,CLR,,,,,,,,VFR,,,,,,,,,,,,METAR,570.0
KIAB 120758Z AUTO 34005KT 10SM CLR M03/M07 A3044 RMK AO2 SLP323 T10301072,KIAB,2015-02-12T07:58:00Z,37.62,-97.27,-3.0,-7.2,340,5,,10.0,30.43996,1032.3,,TRUE,TRUE,,,,,,,CLR,,,,,,,,VFR,,,,,,,,,,,,METAR,418.0
KGRF 120758Z AUTO 07002KT 10SM BKN095 09/09 A3021 RMK AO2 SLPNO T00920091 401220046 $,KGRF,2015-02-12T07:58:00Z,47.07,-122.57,9.2,9.1,70,2,,10.0,30.209646,,,TRUE,TRUE,TRUE,,,,,,BKN,9500,,,,,,,VFR,,,,12.2,4.6,,,,,,,METAR,92.0
KFCS 120758Z AUTO 00000KT 10SM CLR M02/M03 A3037 RMK AO2 SLP325 T10201026,KFCS,2015-02-12T07:58:00Z,38.67,-104.77,-2.0,-2.6,0,0,,10.0,30.369095,1032.5,,TRUE,TRUE,,,,,,,CLR,,,,,,,,VFR,,,,,,,,,,,,METAR,1789.0
KEDW 120758Z AUTO 01004KT 10SM CLR 10/M05 A3024 RMK AO2 SLP232 T00981047 402440003,KEDW,2015-02-12T07:58:00Z,34.88,-117.87,9.8,-4.7,10,4,,10.0,30.239174,1023.2,,TRUE,TRUE,,,,,,,CLR,,,,,,,,VFR,,,,24.4,0.3,,,,,,,METAR,702.0
KPHN 120758Z AUTO 31012G19KT 10SM SCT024 SCT060 M08/M12 A2993 RMK AO2,KPHN,2015-02-12T07:58:00Z,42.92,-82.52,-8.0,-12.0,310,12,19,10.0,29.929134,,,TRUE,TRUE,,,,,,,SCT,2400,SCT,6000,,,,,VFR,,,,,,,,,,,,METAR,198.0
KSLH 120758Z AUTO 33018G25KT 1 3/4SM -SN BKN009 OVC017 M16/M18 A3007 RMK AO2 T11601190,KSLH,2015-02-12T07:58:00Z,45.65,-84.52,-16.0,-19.0,330,18,25,1.75,30.070866,,,TRUE,TRUE,,,,,,-SN,BKN,900,OVC,1700,,,,,IFR,,,,,,,,,,,,METAR,195.0
CYXR 120757Z AUTO 33015G22KT 9SM -SN BKN075 BKN093 M22/M26 A2997 RMK SLP173,CYXR,2015-02-12T07:57:00Z,47.7,-79.83,-22.0,-26.0,330,15,22,9.0,29.970472,1017.3,,TRUE,,,,,,,-SN,BKN,7500,BKN,9300,,,,,VFR,,,,,,,,,,,,SPECI,243.0
KGFA 120757Z AUTO 11002KT 3SM BR BKN095 M04/M04 A3015 RMK AO2 SLP262 T10411040,KGFA,2015-02-12T07:57:00Z,47.5,-111.17,-4.1,-4.0,110,2,,3.0,30.15059,1026.2,,TRUE,TRUE,,,,,,BR,BKN,9500,,,,,,,MVFR,,,,,,,,,,,,METAR,1075.0
PHNG 120757Z AUTO 31005KT CLR 21/15 A2992 RMK AO2 SLP128 T02060150 $ ,PHNG,2015-02-12T07:57:00Z,21.43,-157.77,20.6,15.0,310,5,,,29.920275,1012.8,,TRUE,TRUE,TRUE,,,,,,CLR,,,,,,,,,,,,,,,,,,,,METAR,3.0
KNJM 120757Z AUTO 00000KT 7SM CLR M01/M03 A2995 RMK AO2 SLP146 T10111028 ,KNJM,2015-02-12T07:57:00Z,34.67,-77.02,-1.1,-2.8,0,0,,7.0,29.949802,1014.6,,TRUE,TRUE,,,,,,,CLR,,,,,,,,VFR,,,,,,,,,,,,METAR,7.0
KNSI 120757Z AUTO 02008KT 10SM CLR 00/ A3007 RMK AO2 SLP181 T0000 $ ,KNSI,2015-02-12T07:57:00Z,33.22,-119.45,0.0,,20,8,,10.0,30.070866,1018.1,,TRUE,TRUE,TRUE,,,,,,CLR,,,,,,,,VFR,,,,,,,,,,,,METAR,154.0
CYBC 120757Z AUTO 09013G18KT 9SM BKN019 OVC140 M15/M19 A3001 RMK SLP163,CYBC,2015-02-12T07:57:00Z,49.12,-68.2,-15.0,-19.0,90,13,18,9.0,30.008858,1016.3,,TRUE,,,,,,,,BKN,1900,OVC,14000,,,,,MVFR,,,,,,,,,,,,SPECI,22.0
KBDU 120756Z AUTO 29003KT 10SM CLR 00/M03 A3033 RMK AO2,KBDU,2015-02-12T07:56:00Z,40.03,-105.23,0.0,-3.0,290,3,,10.0,30.33071,,,TRUE,TRUE,,,,,,,CLR,,,,,,,,VFR,,,,,,,,,,,,METAR,1612.0
KNTD 120756Z AUTO 06012KT 10SM CLR 23/M02 A3009 RMK AO2 SLP189 T02281022 403000139 $,KNTD,2015-02-12T07:56:00Z,34.12,-119.12,22.8,-2.2,60,12,,10.0,30.088583,1018.9,,TRUE,TRUE,TRUE,,,,,,CLR,,,,,,,,VFR,,,,30.0,13.9,,,,,,,METAR,4.0
KNID 120756Z AUTO 00000KT 10SM CLR 07/M02 A3027 RMK AO2 SLP248 T00721022 402170017,KNID,2015-02-12T07:56:00Z,35.67,-117.67,7.2,-2.2,0,0,,10.0,30.268702,1024.8,,TRUE,TRUE,,,,,,,CLR,,,,,,,,VFR,,,,21.7,1.7,,,,,,,METAR,696.0
KNYG 120756Z AUTO 15005KT 10SM OVC060 00/M03 A2989 RMK AO2 SLP122 T00001033,KNYG,2015-02-12T07:56:00Z,38.5,-77.28,0.0,-3.3,150,5,,10.0,29.890747,1012.2,,TRUE,TRUE,,,,,,,OVC,6000,,,,,,,VFR,,,,,,,,,,,,METAR,4.0
KNBC 120756Z AUTO 21004KT 8SM CLR 07/06 A2997 RMK AO2 SLP150 T00670056,KNBC,2015-02-12T07:56:00Z,32.47,-80.72,6.7,5.6,210,4,,8.0,29.970472,1015.0,,TRUE,TRUE,,,,,,,CLR,,,,,,,,VFR,,,,,,,,,,,,METAR,12.0
K1QW 120756Z AUTO 24006KT M /// /// M 06/04 A3021 RMK AO2 SLPNO T00550043 400650041 $,K1QW,2015-02-12T07:56:00Z,46.8,-120.17,5.5,4.3,240,6,,,30.209646,,,TRUE,TRUE,TRUE,,,,,,,,,,,,,,,,,,6.5,4.1,,,,,,,METAR,928.0
KGNA 120756Z AUTO VRB05KT M19/M25 A3048 RMK AO1 SLP348 T11941250,KGNA,2015-02-12T07:56:00Z,47.75,-90.35,-19.4,-25.0,0,5,,,30.481298,1034.8,,TRUE,TRUE,,,,,,,,,,,,,,,,,,,,,,,,,,,METAR,185.0
KNBT 120756Z AUTO A2995 RMK AO2 SLP148 PWINO PNO $,KNBT,2015-02-12T07:56:00Z,35.02,-76.47,,,,,,,29.949802,1014.8,,TRUE,TRUE,TRUE,,,,TRUE,,,,,,,,,,,,,,,,,,,,,,METAR,5.0
KNFE 120756Z AUTO 17004KT 10SM CLR 00/M04 A2992 RMK AO2 SLP133 T00001044 FZRANO $,KNFE,2015-02-12T07:56:00Z,36.7,-76.13,0.0,-4.4,170,4,,10.0,29.920275,1013.3,,TRUE,TRUE,TRUE,,,TRUE,,,CLR,,,,,,,,VFR,,,,,,,,,,,,METAR,5.0
KP60 120756Z AUTO 29004KT M06/M07 A3039 RMK AO1 SLP319 T10561072,KP60,2015-02-12T07:56:00Z,44.55,-110.42,-5.6,-7.2,290,4,,,30.389763,1031.9,,TRUE,TRUE,,,,,,,,,,,,,,,,,,,,,,,,,,,METAR,2388.0
KNUW 120756Z 05003KT 10SM FEW030 BKN120 OVC140 09/07 A3023 RMK AO2 SLP239 T00890072 401390056 VISNO E $,KNUW,2015-02-12T07:56:00Z,48.35,-122.65,8.9,7.2,50,3,,10.0,30.230314,1023.9,,,TRUE,TRUE,,,,,,FEW,3000,BKN,12000,OVC,14000,,,VFR,,,,13.9,5.6,,,,,,,METAR,14.0
KNFL 120756Z AUTO 18004KT 10SM CLR 02/M02 A3033 RMK AO2 SLP228 T00221017 401391022,KNFL,2015-02-12T07:56:00Z,39.42,-118.7,2.2,-1.7,180,4,,10.0,30.33071,1022.8,,TRUE,TRUE,,,,,,,CLR,,,,,,,,VFR,,,,13.9,-2.2,,,,,,,METAR,1199.0
KNXP 120756Z 33006KT 10SM CLR 13/M04 A3030 RMK AO2 SLP010 T01281044 402220089,KNXP,2015-02-12T07:56:00Z,34.28,-116.17,12.8,-4.4,330,6,,10.0,30.301182,1001.0,,,TRUE,,,,,,,CLR,,,,,,,,VFR,,,,22.2,8.9,,,,,,,METAR,626.0
KSPD 120756Z AUTO 24009KT M04/M07 A3040 RMK AO1 SLP304 T10391072,KSPD,2015-02-12T07:56:00Z,37.28,-102.62,-3.9,-7.2,240,9,,,30.398623,1030.4,,TRUE,TRUE,,,,,,,,,,,,,,,,,,,,,,,,,,,METAR,1335.0
KNRS 120756Z AUTO 03005KT 17/M02 A3003 RMK AO2 SLP167 T01671017 402830089 $,KNRS,2015-02-12T07:56:00Z,32.57,-117.12,16.7,-1.7,30,5,,,30.029528,1016.7,,TRUE,TRUE,TRUE,,,,,,,,,,,,,,,,,,28.3,8.9,,,,,,,METAR,7.0
PHBK 120756Z AUTO 34013KT 8SM FEW040 SCT050 BKN060 22/14 A2994 RMK AO2 RAB23E43 SLP141 P0000 T02170139,PHBK,2015-02-12T07:56:00Z,22.03,-159.78,21.7,13.9,340,13,,8.0,29.940945,1014.1,,TRUE,TRUE,,,,,,,FEW,4000,SCT,5000,BKN,6000,,,VFR,,,,,,0.0050,,,,,,METAR,8.0
PHSF 120756Z AUTO 29007KT 10SM CLR 12/M24 A3024 RMK AO2 SLP126 T01231239 $,PHSF,2015-02-12T07:56:00Z,19.77,-155.55,12.3,-23.9,290,7,,10.0,30.239174,1012.6,,TRUE,TRUE,TRUE,,,,,,CLR,,,,,,,,VFR,,,,,,,,,,,,METAR,1887.0
KTDR 120756Z AUTO 33001KT 3/4SM BR CLR 08/08 A3006 RMK AO2 VIS 3/4V11 SLP183 T00800081,KTDR,2015-02-12T07:56:00Z,30.05,-85.52,8.0,8.1,330,1,,0.75,30.059055,1018.3,,TRUE,TRUE,,,,,,BR,CLR,,,,,,,,LIFR,,,,,,,,,,,,METAR,5.0
KM63 120756Z AUTO 36019G30KT 10SM SCT075 BKN160 05/00 A3030 RMK AO2 PK WND 35031/01 SLP232 T00501004,KM63,2015-02-12T07:56:00Z,32.05,-106.15,5.0,-0.4,360,19,30,10.0,30.301182,1023.2,,TRUE,TRUE,,,,,,,SCT,7500,BKN,16000,,,,,VFR,,,,,,,,,,,,METAR,1283.0
KGXF 120756Z AUTO 07005G14KT 10SM CLR 19/M01 A3009 RMK AO2 SLP181 T01851006,KGXF,2015-02-12T07:56:00Z,32.87,-112.72,18.5,-0.6,70,5,14,10.0,30.088583,1018.1,,TRUE,TRUE,,,,,,,CLR,,,,,,,,VFR,,,,,,,,,,,,METAR,262.0
KFEW 120756Z AUTO 30005KT 10SM BKN160 M03/M05 A3026 RMK AO2 SLP260 T10301055 $,KFEW,2015-02-12T07:56:00Z,41.13,-104.87,-3.0,-5.5,300,5,,10.0,30.259842,1026.0,,TRUE,TRUE,TRUE,,,,,,BKN,16000,,,,,,,VFR,,,,,,,,,,,,METAR,1878.0
K4MR 120756Z AUTO 28006KT 10SM CLR M02/M03 A3046 RMK AO2 SLP327 T10171035,K4MR,2015-02-12T07:56:00Z,34.3,-103.8,-1.7,-3.5,280,6,,10.0,30.46063,1032.7,,TRUE,TRUE,,,,,,,CLR,,,,,,,,VFR,,,,,,,,,,,,METAR,1326.0
KSRC 120756Z AUTO 33010KT 300V010 10SM CLR 03/M04 A3034 RMK AO2 SLP282 T00281039 TSNO,KSRC,2015-02-12T07:56:00Z,35.22,-91.73,2.8,-3.9,330,10,,10.0,30.339567,1028.2,,TRUE,TRUE,,,TRUE,,,,CLR,,,,,,,,VFR,,,,,,,,,,,,METAR,80.0
PABV 120756Z AUTO 00000KT 10SM OVC085 M04/M06 A2964 RMK AO1,PABV,2015-02-12T07:56:00Z,61.42,-149.52,-4.0,-6.0,0,0,,10.0,29.639763,,,TRUE,TRUE,,,,,,,OVC,8500,,,,,,,VFR,,,,,,,,,,,,METAR,29.0
PABL 120756Z AUTO 34009KT 10SM CLR M26/M27 A2993 RMK AO1,PABL,2015-02-12T07:56:00Z,65.98,-161.15,-26.0,-27.0,340,9,,10.0,29.929134,,,TRUE,TRUE,,,,,,,CLR,,,,,,,,VFR,,,,,,,,,,,,METAR,7.0
PAHP 120756Z AUTO 05010KT 10SM CLR M14/M19 A2967 RMK AO1,PAHP,2015-02-12T07:56:00Z,61.53,-166.15,-14.0,-19.0,50,10,,10.0,29.66929,,,TRUE,TRUE,,,,,,,CLR,,,,,,,,VFR,,,,,,,,,,,,METAR,5.0
PAGL 120756Z AUTO 03010KT 10SM OVC080 M13/M19 A2978 RMK AO1,PAGL,2015-02-12T07:56:00Z,64.55,-163.03,-13.0,-19.0,30,10,,10.0,29.778543,,,TRUE,TRUE,,,,,,,OVC,8000,,,,,,,VFR,,,,,,,,,,,,METAR,8.0
PADK 120756Z AUTO 02021G27KT 10SM OVC043 01/M07 A2971 RMK AO1,PADK,2015-02-12T07:56:00Z,51.88,-176.65,1.0,-7.0,20,21,27,10.0,29.71063,,,TRUE,TRUE,,,,,,,OVC,4300,,,,,,,VFR,,,,,,,,,,,,METAR,4.0
PAAK 120756Z 33021G30KT 10SM BKN030 OVC036 00/M06 A2953 RMK AO1,PAAK,2015-02-12T07:56:00Z,52.22,-174.2,0.0,-6.0,330,21,30,10.0,29.530512,,,,TRUE,,,,,,,BKN,3000,OVC,3600,,,,,MVFR,,,,,,,,,,,,METAR,17.0
KWMC 120756Z AUTO 07003KT 10SM CLR 01/M02 A3034 RMK AO2 SLP274 T00111017 401331011,KWMC,2015-02-12T07:56:00Z,40.9,-117.8,1.1,-1.7,70,3,,10.0,30.339567,1027.4,,TRUE,TRUE,,,,,,,CLR,,,,,,,,VFR,,,,13.3,-1.1,,,,,,,METAR,1310.0
KAQV 120756Z AUTO 00000KT 10SM CLR 07/06 A3017 RMK AO2 SLP217 T00720056,KAQV,2015-02-12T07:56:00Z,31.4,-93.3,7.2,5.6,0,0,,10.0,30.171259,1021.7,,TRUE,TRUE,,,,,,,CLR,,,,,,,,VFR,,,,,,,,,,,,METAR,111.0
KNOG 120756Z AUTO 07007KT 9SM OVC002 16/16 A3016 RMK AO2 SLP193 T01610156 $,KNOG,2015-02-12T07:56:00Z,27.9,-98.05,16.1,15.6,70,7,,9.0,30.159449,1019.3,,TRUE,TRUE,TRUE,,,,,,OVC,200,,,,,,,LIFR,,,,,,,,,,,,METAR,78.0
KGNR 120756Z AUTO 00000KT M18/M22 A2975 RMK AO1 SLP108 T11781217,KGNR,2015-02-12T07:56:00Z,45.47,-69.55,-17.8,-21.7,0,0,,,29.749016,1010.8,,TRUE,TRUE,,,,,,,,,,,,,,,,,,,,,,,,,,,METAR,427.0
K8D3 120756Z AUTO 36014KT M20/M23 A3068 RMK AO1 SLP438 T12001233,K8D3,2015-02-12T07:56:00Z,45.67,-96.98,-20.0,-23.3,360,14,,,30.679134,1043.8,,TRUE,TRUE,,,,,,,,,,,,,,,,,,,,,,,,,,,METAR,354.0
KP28 120756Z AUTO 00000KT M06/M07 A3042 RMK AO1 SLP315 T10561072,KP28,2015-02-12T07:56:00Z,37.28,-98.55,-5.6,-7.2,0,0,,,30.41929,1031.5,,TRUE,TRUE,,,,,,,,,,,,,,,,,,,,,,,,,,,METAR,469.0
K2WX 120756Z AUTO 13013KT M11/M14 A3034 RMK AO1 SLP327 T11111139,K2WX,2015-02-12T07:56:00Z,45.6,-103.55,-11.1,-13.9,130,13,,,30.339567,1032.7,,TRUE,TRUE,,,,,,,,,,,,,,,,,,,,,,,,,,,METAR,915.0
KETH 120756Z AUTO 30010KT 10SM CLR M22/M25 A3071 RMK AO2,KETH,2015-02-12T07:56:00Z,45.78,-96.55,-22.0,-25.0,300,10,,10.0,30.708662,,,TRUE,TRUE,,,,,,,CLR,,,,,,,,VFR,,,,,,,,,,,,METAR,313.0
KEAU 120756Z AUTO 34013KT 10SM CLR M17/M22 A3042 RMK AO2 SLP323 T11671217,KEAU,2015-02-12T07:56:00Z,44.87,-91.47,-16.7,-21.7,340,13,,10.0,30.41929,1032.3,,TRUE,TRUE,,,,,,,CLR,,,,,,,,VFR,,,,,,,,,,,,METAR,276.0
PAZK 120756Z AUTO 06005KT 10SM CLR M17/M18 A2957 RMK AO1,PAZK,2015-02-12T07:56:00Z,61.93,-147.17,-17.0,-18.0,60,5,,10.0,29.568897,,,TRUE,TRUE,,,,,,,CLR,,,,,,,,VFR,,,,,,,,,,,,METAR,1003.0
PAWS 120756Z AUTO 04006KT 10SM OVC075 M01/M11 A2962 RMK AO1,PAWS,2015-02-12T07:56:00Z,61.57,-149.53,-1.0,-11.0,40,6,,10.0,29.619095,,,TRUE,TRUE,,,,,,,OVC,7500,,,,,,,VFR,,,,,,,,,,,,METAR,107.0
PAWG 120756Z 29006KT 7SM OVC045 02/M01 A2983 RMK AO1 WEA:NONE LAST MJ,PAWG,2015-02-12T07:56:00Z,56.48,-132.37,2.0,-1.0,290,6,,7.0,29.828741,,,,TRUE,,,,,,,OVC,4500,,,,,,,VFR,,,,,,,,,,,,METAR,11.0
PAVD 120756Z 00000KT 10SM OVC060 M04/M07 A2975 RMK AO1,PAVD,2015-02-12T07:56:00Z,61.13,-146.25,-4.0,-7.0,0,0,,10.0,29.749016,,,,TRUE,,,,,,,OVC,6000,,,,,,,VFR,,,,,,,,,,,,METAR,37.0
PAUN 120756Z AUTO 07012G17KT 10SM FEW090 M13/M23 A2972 RMK AO1,PAUN,2015-02-12T07:56:00Z,63.88,-160.8,-13.0,-23.0,70,12,17,10.0,29.719488,,,TRUE,TRUE,,,,,,,FEW,9000,,,,,,,VFR,,,,,,,,,,,,METAR,6.0
PATG 120756Z AUTO 02013KT 3SM M01/M02 A2942 RMK AO1 P0001,PATG,2015-02-12T07:56:00Z,59.05,-160.38,-1.0,-2.0,20,13,,3.0,29.421259,,,TRUE,TRUE,,,,,,,,,,,,,,,,,,,,,0.01,,,,,,METAR,4.0
PASX 120756Z AUTO 00000KT 10SM OVC060 M02/M08 A2960 RMK AO1,PASX,2015-02-12T07:56:00Z,60.48,-151.03,-2.0,-8.0,0,0,,10.0,29.601377,,,TRUE,TRUE,,,,,,,OVC,6000,,,,,,,VFR,,,,,,,,,,,,METAR,32.0
PASM 120756Z AUTO 04009KT 10SM FEW060 SCT080 BKN095 M14/M20 A2960 RMK AO1,PASM,2015-02-12T07:56:00Z,62.07,-163.3,-14.0,-20.0,40,9,,10.0,29.601377,,,TRUE,TRUE,,,,,,,FEW,6000,SCT,8000,BKN,9500,,,VFR,,,,,,,,,,,,METAR,92.0
PASL 120756Z AUTO 00000KT 10SM OVC050 M13/M20 A2968 RMK AO1,PASL,2015-02-12T07:56:00Z,61.72,-157.15,-13.0,-20.0,0,0,,10.0,29.681103,,,TRUE,TRUE,,,,,,,OVC,5000,,,,,,,VFR,,,,,,,,,,,,METAR,55.0
PASK 120756Z AUTO 00000KT 10SM CLR A2993 RMK AO1,PASK,2015-02-12T07:56:00Z,66.6,-160.0,,,0,0,,10.0,29.929134,,,TRUE,TRUE,,,,,,,CLR,,,,,,,,VFR,,,,,,,,,,,,METAR,8.0
PASD 120756Z AUTO 00000KT 10SM OVC009 06/05 A2927 RMK AO1,PASD,2015-02-12T07:56:00Z,55.33,-160.5,6.0,5.0,0,0,,10.0,29.27067,,,TRUE,TRUE,,,,,,,OVC,900,,,,,,,IFR,,,,,,,,,,,,METAR,7.0
PASA 120756Z AUTO 02011G15KT 10SM CLR M17/M17 A2995 RMK AO1,PASA,2015-02-12T07:56:00Z,63.68,-170.5,-17.0,-17.0,20,11,15,10.0,29.949802,,,TRUE,TRUE,,,,,,,CLR,,,,,,,,VFR,,,,,,,,,,,,METAR,16.0
PARC 120756Z AUTO 09005KT 10SM CLR M28/M33 A2987 RMK AO1,PARC,2015-02-12T07:56:00Z,68.12,-145.58,-28.0,-33.0,90,5,,10.0,29.870079,,,TRUE,TRUE,,,,,,,CLR,,,,,,,,VFR,,,,,,,,,,,,METAR,636.0
PAPO 120756Z AUTO 35004KT 10SM CLR M23/ A2993 RMK AO1,PAPO,2015-02-12T07:56:00Z,68.35,-166.8,-23.0,,350,4,,10.0,29.929134,,,TRUE,TRUE,,,,,,,CLR,,,,,,,,VFR,,,,,,,,,,,,METAR,6.0
PAPH 120756Z AUTO 12012KT 10SM OVC120 04/M01 A2934 RMK AO1,PAPH,2015-02-12T07:56:00Z,56.95,-158.62,4.0,-1.0,120,12,,10.0,29.338583,,,TRUE,TRUE,,,,,,,OVC,12000,,,,,,,VFR,,,,,,,,,,,,METAR,29.0
PAPG 120756Z 25003KT 10SM BKN038 OVC049 02/00 A2978 RMK AO1,PAPG,2015-02-12T07:56:00Z,56.82,-132.97,2.0,0.0,250,3,,10.0,29.778543,,,,TRUE,,,,,,,BKN,3800,OVC,4900,,,,,VFR,,,,,,,,,,,,METAR,15.0
PANV 120756Z AUTO 05014G19KT 3SM BKN017 BKN025 OVC037 M16/M23 A2962 RMK AO1,PANV,2015-02-12T07:56:00Z,62.65,-160.18,-16.0,-23.0,50,14,19,3.0,29.619095,,,TRUE,TRUE,,,,,,,BKN,1700,BKN,2500,OVC,3700,,,MVFR,,,,,,,,,,,,METAR,99.0
PANI 120756Z AUTO 03003KT 7SM FEW034 BKN048 OVC050 M13/M27 A2958 RMK AO1,PANI,2015-02-12T07:56:00Z,61.58,-159.53,-13.0,-27.0,30,3,,7.0,29.58071,,,TRUE,TRUE,,,,,,,FEW,3400,BKN,4800,OVC,5000,,,VFR,,,,,,,,,,,,METAR,26.0
PAMY 120756Z AUTO 03013KT 10SM FEW038 OVC100 M12/M17 A2961 RMK AO1,PAMY,2015-02-12T07:56:00Z,60.37,-166.27,-12.0,-17.0,30,13,,10.0,29.610237,,,TRUE,TRUE,,,,,,,FEW,3800,OVC,10000,,,,,VFR,,,,,,,,,,,,METAR,13.0
PAMM 120756Z AUTO 11004G16KT 10SM SCT026 OVC048 10/06 A2980 RMK AO1,PAMM,2015-02-12T07:56:00Z,55.13,-131.58,10.0,6.0,110,4,16,10.0,29.799213,,,TRUE,TRUE,,,,,,,SCT,2600,OVC,4800,,,,,VFR,,,,,,,,,,,,METAR,1.0
PAMH 120756Z AUTO 04004KT 10SM FEW050 FEW060 M16/M21 A2969 RMK AO1,PAMH,2015-02-12T07:56:00Z,63.9,-152.32,-16.0,-21.0,40,4,,10.0,29.68996,,,TRUE,TRUE,,,,,,,FEW,5000,FEW,6000,,,,,VFR,,,,,,,,,,,,METAR,214.0
PAMD 120756Z 12011KT 5SM OVC006 06/04 A2966 RMK AO1,PAMD,2015-02-12T07:56:00Z,59.43,-146.3,6.0,4.0,120,11,,5.0,29.660433,,,,TRUE,,,,,,,OVC,600,,,,,,,IFR,,,,,,,,,,,,METAR,14.0
PAKP 120756Z AUTO 01003KT 10SM CLR M28/ A2976 RMK AO1,PAKP,2015-02-12T07:56:00Z,68.13,-151.73,-28.0,,10,3,,10.0,29.760826,,,TRUE,TRUE,,,,,,,CLR,,,,,,,,VFR,,,,,,,,,,,,METAR,642.0
PAKK 120756Z AUTO 01012G19KT 320V030 5SM SCT031 BKN038 OVC047 A2972 RMK AO1,PAKK,2015-02-12T07:56:00Z,64.93,-161.15,,,10,12,19,5.0,29.719488,,,TRUE,TRUE,,,,,,,SCT,3100,BKN,3800,OVC,4700,,,MVFR,,,,,,,,,,,,METAR,47.0
PAJZ 120756Z AUTO 31006KT 1 1/4SM -SN BR BKN001 BKN011 OVC031 M10/M12 A2956 RMK AO2 TSNO T11001122 BKN V SCT SNB03 P0000 SLP002 $,PAJZ,2015-02-12T07:56:00Z,59.73,-157.27,-10.0,-12.2,310,6,,1.25,29.56004,1000.2,,TRUE,TRUE,TRUE,,TRUE,,,-SN BR,BKN,100,BKN,1100,OVC,3100,,,LIFR,,,,,,0.0050,,,,,,METAR,82.0
PAJC 120756Z AUTO 11006KT 7SM SCT017 BKN024 OVC033 05/01 A2935 RMK AO1 P0002,PAJC,2015-02-12T07:56:00Z,56.32,-158.37,5.0,1.0,110,6,,7.0,29.350393,,,TRUE,TRUE,,,,,,,SCT,1700,BKN,2400,OVC,3300,,,MVFR,,,,,,0.02,,,,,,METAR,15.0
PAIN 120756Z AUTO 00000KT 10SM SCT100 M16/M17 A2961 RMK AO1,PAIN,2015-02-12T07:56:00Z,63.73,-148.92,-16.0,-17.0,0,0,,10.0,29.610237,,,TRUE,TRUE,,,,,,,SCT,10000,,,,,,,VFR,,,,,,,,,,,,METAR,524.0
PAII 120756Z AUTO 11009KT 10SM SCT060 BKN065 BKN120 02/01 A2943 RMK AO1,PAII,2015-02-12T07:56:00Z,58.18,-157.38,2.0,1.0,110,9,,10.0,29.430119,,,TRUE,TRUE,,,,,,,SCT,6000,BKN,6500,BKN,12000,,,VFR,,,,,,,,,,,,METAR,30.0
PAHY 120756Z AUTO 5SM FEW022 BKN034 OVC120 08/04 A2972 RMK AO1 P0003,PAHY,2015-02-12T07:56:00Z,55.2,-132.83,8.0,4.0,,,,5.0,29.719488,,,TRUE,TRUE,,,,,,,FEW,2200,BKN,3400,OVC,12000,,,MVFR,,,,,,0.03,,,,,,METAR,1.0
PAHL 120756Z AUTO 07012G19KT 10SM OVC070 M15/M24 A2981 RMK AO1,PAHL,2015-02-12T07:56:00Z,65.7,-156.35,-15.0,-24.0,70,12,19,10.0,29.811024,,,TRUE,TRUE,,,,,,,OVC,7000,,,,,,,VFR,,,,,,,,,,,,METAR,65.0
PAGM 120756Z AUTO 01021G24KT 10SM OVC016 M15/M18 A2995 RMK AO1,PAGM,2015-02-12T07:56:00Z,63.77,-171.73,-15.0,-18.0,10,21,24,10.0,29.949802,,,TRUE,TRUE,,,,,,,OVC,1600,,,,,,,MVFR,,,,,,,,,,,,METAR,8.0
PAFM 120756Z AUTO 03009KT 10SM CLR M22/M31 A2993 RMK AO1,PAFM,2015-02-12T07:56:00Z,67.1,-157.85,-22.0,-31.0,30,9,,10.0,29.929134,,,TRUE,TRUE,,,,,,,CLR,,,,,,,,VFR,,,,,,,,,,,,METAR,88.0
PAFE 120756Z AUTO 00000KT 10SM OVC029 04/04 A2979 RMK AO1,PAFE,2015-02-12T07:56:00Z,56.97,-133.92,4.0,4.0,0,0,,10.0,29.790354,,,TRUE,TRUE,,,,,,,OVC,2900,,,,,,,MVFR,,,,,,,,,,,,METAR,9.0
PADL 120756Z 35012G16KT 10SM OVC028 M06/M06 A2947 RMK AO1,PADL,2015-02-12T07:56:00Z,59.05,-158.52,-6.0,-6.0,350,12,16,10.0,29.471457,,,,TRUE,,,,,,,OVC,2800,,,,,,,MVFR,,,,,,,,,,,,METAR,26.0
KSDF 120756Z 29011KT 10SM FEW028 BKN032 M01/M07 A3010 RMK AO2 SLP196 T10061072,KSDF,2015-02-12T07:56:00Z,38.18,-85.73,-0.6,-7.2,290,11,,10.0,30.100393,1019.6,,,TRUE,,,,,,,FEW,2800,BKN,3200,,,,,VFR,,,,,,,,,,,,METAR,146.0
KSBP 120756Z AUTO 00000KT 10SM CLR 11/07 A3011 RMK AO2 SLP196 T01110072 402560067,KSBP,2015-02-12T07:56:00Z,35.23,-120.63,11.1,7.2,0,0,,10.0,30.109253,1019.6,,TRUE,TRUE,,,,,,,CLR,,,,,,,,VFR,,,,25.6,6.7,,,,,,,METAR,59.0
KSAW 120756Z AUTO 36023G27KT SCT013 BKN020 OVC038 M14/M17 A3015 RMK AO2 T11421175 PWINO,KSAW,2015-02-12T07:56:00Z,46.35,-87.4,-14.2,-17.5,360,23,27,,30.15059,,,TRUE,TRUE,,,,,TRUE,,SCT,1300,BKN,2000,OVC,3800,,,,,,,,,,,,,,,METAR,372.0
KPRN 120756Z AUTO 34004KT 10SM CLR 06/01 A3006 RMK AO2 SLP177 T00560006,KPRN,2015-02-12T07:56:00Z,31.85,-86.62,5.6,0.6,340,4,,10.0,30.059055,1017.7,,TRUE,TRUE,,,,,,,CLR,,,,,,,,VFR,,,,,,,,,,,,METAR,138.0
KMEH 120756Z AUTO 00000KT 10SM CLR 03/01 A3028 RMK AO2 SLP265 T00280006 401001017 ,KMEH,2015-02-12T07:56:00Z,45.52,-118.42,2.8,0.6,0,0,,10.0,30.280512,1026.5,,TRUE,TRUE,,,,,,,CLR,,,,,,,,VFR,,,,10.0,-1.7,,,,,,,METAR,1136.0
KHFF 120756Z AUTO 14002KT 10SM CLR M01/M01 A2994 RMK AO2 SLP143 T10071012,KHFF,2015-02-12T07:56:00Z,35.02,-79.5,-0.7,-1.2,140,2,,10.0,29.940945,1014.3,,TRUE,TRUE,,,,,,,CLR,,,,,,,,VFR,,,,,,,,,,,,METAR,115.0
KELZ 120756Z AUTO 26004KT 5SM -SN BR FEW011 BKN017 OVC023 M02/M04 A2967 RMK AO2 SNB10 SLP071 P0000 T10221044,KELZ,2015-02-12T07:56:00Z,42.1,-77.98,-2.2,-4.4,260,4,,5.0,29.66929,1007.1,,TRUE,TRUE,,,,,,-SN BR,FEW,1100,BKN,1700,OVC,2300,,,MVFR,,,,,,0.0050,,,,,,METAR,646.0
KEKQ 120756Z AUTO 31013KT 10SM BKN017 OVC022 02/M01 A3009 RMK AO2 T00221005 SLP194,KEKQ,2015-02-12T07:56:00Z,36.85,-84.85,2.2,-0.5,310,13,,10.0,30.088583,1019.4,,TRUE,TRUE,,,,,,,BKN,1700,OVC,2200,,,,,MVFR,,,,,,,,,,,,METAR,294.0
KEKO 120756Z AUTO 01005KT 10SM CLR 01/M04 A3037 RMK AO2 SLP286 T00111039 401281056,KEKO,2015-02-12T07:56:00Z,40.82,-115.78,1.1,-3.9,10,5,,10.0,30.369095,1028.6,,TRUE,TRUE,,,,,,,CLR,,,,,,,,VFR,,,,12.8,-5.6,,,,,,,METAR,1547.0
KEED 120756Z AUTO 01011KT 10SM CLR 20/M06 A3019 RMK AO2 SLP201 T02001061 402560161 $,KEED,2015-02-12T07:56:00Z,34.77,-114.62,20.0,-6.1,10,11,,10.0,30.188976,1020.1,,TRUE,TRUE,TRUE,,,,,,CLR,,,,,,,,VFR,,,,25.6,16.1,,,,,,,METAR,302.0
KDUG 120756Z AUTO 08020G29KT 10SM CLR 09/M01 A3021 RMK AO2 PK WND 07033/0738 SLP189 T00891006,KDUG,2015-02-12T07:56:00Z,31.47,-109.58,8.9,-0.6,80,20,29,10.0,30.209646,1018.9,,TRUE,TRUE,,,,,,,CLR,,,,,,,,VFR,,,,,,,,,,,,METAR,1265.0
KDIK 120756Z AUTO 15013KT 10SM CLR M16/M19 A3043 RMK AO2 SLP361 T11611189,KDIK,2015-02-12T07:56:00Z,46.8,-102.8,-16.1,-18.9,150,13,,10.0,30.431103,1036.1,,TRUE,TRUE,,,,,,,CLR,,,,,,,,VFR,,,,,,,,,,,,METAR,788.0
KDIJ 120756Z AUTO 10006KT 8SM FEW095 M03/M06 A3039 RMK AO2 T10331061 SLP290,KDIJ,2015-02-12T07:56:00Z,43.75,-111.1,-3.3,-6.1,100,6,,8.0,30.389763,1029.0,,TRUE,TRUE,,,,,,,FEW,9500,,,,,,,VFR,,,,,,,,,,,,METAR,1899.0
KDAY 120756Z 29012KT 10SM SCT019 BKN024 OVC030 M02/M06 A2999 RMK AO2 SNE40 SLP163 P0000 T10171056,KDAY,2015-02-12T07:56:00Z,39.9,-84.22,-1.7,-5.6,290,12,,10.0,29.991142,1016.3,,,TRUE,,,,,,,SCT,1900,BKN,2400,OVC,3000,,,MVFR,,,,,,0.0050,,,,,,METAR,305.0
KCXY 120756Z AUTO 00000KT 10SM OVC036 M01/M06 A2983 RMK AO2 SLP104 T10061056,KCXY,2015-02-12T07:56:00Z,40.22,-76.85,-0.6,-5.6,0,0,,10.0,29.828741,1010.4,,TRUE,TRUE,,,,,,,OVC,3600,,,,,,,VFR,,,,,,,,,,,,METAR,106.0
KCTB 120756Z AUTO 11003KT 4SM BR CLR M05/M06 A3008 RMK AO2 SLP232 I1000 T10501056,KCTB,2015-02-12T07:56:00Z,48.6,-112.37,-5.0,-5.6,110,3,,4.0,30.079725,1023.2,,TRUE,TRUE,,,,,,BR,CLR,,,,,,,,MVFR,,,,,,,,,,,,METAR,1175.0
KWJF 120756Z AUTO 23004KT 10SM CLR 05/M03 A3026 RMK AO2 SLP249 T00501028 402111017,KWJF,2015-02-12T07:56:00Z,34.72,-118.22,5.0,-2.8,230,4,,10.0,30.259842,1024.9,,TRUE,TRUE,,,,,,,CLR,,,,,,,,VFR,,,,21.1,-1.7,,,,,,,METAR,715.0
KVPZ 120756Z AUTO 33011G19KT 8SM -SN BKN026 OVC038 M07/M11 A3009 RMK AO2 SNB53 SLP199 P0000 T10671111 TSNO,KVPZ,2015-02-12T07:56:00Z,41.45,-87.0,-6.7,-11.1,330,11,19,8.0,30.088583,1019.9,,TRUE,TRUE,,,TRUE,,,-SN,BKN,2600,OVC,3800,,,,,MVFR,,,,,,0.0050,,,,,,METAR,231.0
KUKI 120756Z AUTO 00000KT 10SM CLR 08/07 A3022 RMK AO2 SLP231 T00830067 401940033,KUKI,2015-02-12T07:56:00Z,39.12,-123.2,8.3,6.7,0,0,,10.0,30.221457,1023.1,,TRUE,TRUE,,,,,,,CLR,,,,,,,,VFR,,,,19.4,3.3,,,,,,,METAR,187.0
KUCP 120756Z AUTO 28008KT 9SM -SN FEW002 SCT011 BKN017 M03/M04 A2987 RMK AO2 T10271038 BKN V SCT P0000 SLP140,KUCP,2015-02-12T07:56:00Z,41.03,-80.42,-2.7,-3.8,280,8,,9.0,29.870079,1014.0,,TRUE,TRUE,,,,,,-SN,FEW,200,SCT,1100,BKN,1700,,,MVFR,,,,,,0.0050,,,,,,METAR,327.0
KTPH 120756Z AUTO 36010KT 10SM CLR 03/M11 A3039 RMK AO2 SLP276 T00331111 401611017,KTPH,2015-02-12T07:56:00Z,38.05,-117.08,3.3,-11.1,360,10,,10.0,30.389763,1027.6,,TRUE,TRUE,,,,,,,CLR,,,,,,,,VFR,,,,16.1,-1.7,,,,,,,METAR,1652.0
KSLE 120756Z AUTO 00000KT 2 1/2SM BR CLR 06/06 A3022 RMK AO2 SLP235 T00610061 401220033,KSLE,2015-02-12T07:56:00Z,44.9,-123.0,6.1,6.1,0,0,,2.5,30.221457,1023.5,,TRUE,TRUE,,,,,,BR,CLR,,,,,,,,IFR,,,,12.2,3.3,,,,,,,METAR,59.0
KSHV 120756Z 34008KT 10SM CLR 10/05 A3023 RMK AO2 SLP235 T01000050,KSHV,2015-02-12T07:56:00Z,32.45,-93.83,10.0,5.0,340,8,,10.0,30.230314,1023.5,,,TRUE,,,,,,,CLR,,,,,,,,VFR,,,,,,,,,,,,METAR,83.0
KSGH 120756Z AUTO 30014KT 8SM OVC018 M02/M04 A2998 RMK AO2 T10161038 UPB02E30 P0000 SLP160,KSGH,2015-02-12T07:56:00Z,39.83,-83.83,-1.6,-3.8,300,14,,8.0,29.97933,1016.0,,TRUE,TRUE,,,,,,,OVC,1800,,,,,,,MVFR,,,,,,0.0050,,,,,,METAR,321.0
KSFO 120756Z 00000KT 10SM BKN180 15/12 A3019 RMK AO2 SLP221 T01500122 401940089,KSFO,2015-02-12T07:56:00Z,37.62,-122.37,15.0,12.2,0,0,,10.0,30.188976,1022.1,,,TRUE,,,,,,,BKN,18000,,,,,,,VFR,,,,19.4,8.9,,,,,,,METAR,3.0
PFWS 120756Z AUTO 04007KT 10SM FEW049 SCT065 OVC100 M03/M04 A2946 RMK AO2 SLP980 T10331039 FZRANO,PFWS,2015-02-12T07:56:00Z,58.7,-157.0,-3.3,-3.9,40,7,,10.0,29.459646,998.0,,TRUE,TRUE,,,,TRUE,,,FEW,4900,SCT,6500,OVC,10000,,,VFR,,,,,,,,,,,,METAR,49.0
PAHX 120756Z AUTO 05011G16KT 9SM -SN OVC028 M15/M21 A2966 RMK AO2 SNB34 SLP047 P0000 T11501206 FZRANO,PAHX,2015-02-12T07:56:00Z,62.7,-159.57,-15.0,-20.6,50,11,16,9.0,29.660433,1004.7,,TRUE,TRUE,,,,TRUE,,-SN,OVC,2800,,,,,,,MVFR,,,,,,0.0050,,,,,,METAR,24.0
KY50 120756Z AUTO 01018G23KT 10SM FEW039 M13/M21 A3028 RMK AO2 TSNO T11271211 SNB17E50 P0000 SLP267,KY50,2015-02-12T07:56:00Z,44.03,-89.3,-12.7,-21.1,10,18,23,10.0,30.280512,1026.7,,TRUE,TRUE,,,TRUE,,,,FEW,3900,,,,,,,VFR,,,,,,0.0050,,,,,,METAR,262.0
TJSJ 120756Z 31011KT 10SM FEW008 SCT020 SCT042 23/22 A2992 RMK AO2 RAE55 SLP131 P0004 T02280222,TJSJ,2015-02-12T07:56:00Z,18.43,-66.02,22.8,22.2,310,11,,10.0,29.920275,1013.1,,,TRUE,,,,,,,FEW,800,SCT,2000,SCT,4200,,,VFR,,,,,,0.04,,,,,,METAR,21.0
KCHS 120756Z 21005KT 8SM CLR 06/06 A2996 RMK AO2 SLP146 T00610056,KCHS,2015-02-12T07:56:00Z,32.9,-80.03,6.1,5.6,210,5,,8.0,29.958662,1014.6,,,TRUE,,,,,,,CLR,,,,,,,,VFR,,,,,,,,,,,,METAR,13.0
KCEC 120756Z AUTO 11003KT 4SM BR CLR 07/06 A3023 RMK AO2 SLP236 T00670061 401440061,KCEC,2015-02-12T07:56:00Z,41.77,-124.22,6.7,6.1,110,3,,4.0,30.230314,1023.6,,TRUE,TRUE,,,,,,BR,CLR,,,,,,,,MVFR,,,,14.4,6.1,,,,,,,METAR,17.0
KCAE 120756Z 00000KT 9SM CLR 02/M01 A2991 RMK AO2 SLP130 T00171006,KCAE,2015-02-12T07:56:00Z,33.93,-81.12,1.7,-0.6,0,0,,9.0,29.911417,1013.0,,,TRUE,,,,,,,CLR,,,,,,,,VFR,,,,,,,,,,,,METAR,70.0
KBZN 120756Z 13004KT 10SM OVC110 02/M02 A3025 RMK AO2 SLP254 T00171017,KBZN,2015-02-12T07:56:00Z,45.78,-111.17,1.7,-1.7,130,4,,10.0,30.250984,1025.4,,,TRUE,,,,,,,OVC,11000,,,,,,,VFR,,,,,,,,,,,,METAR,1361.0
KBOK 120756Z AUTO 00000KT 10SM CLR 07/07 A3022 RMK AO2 T00720072 SLP235,KBOK,2015-02-12T07:56:00Z,42.07,-124.28,7.2,7.2,0,0,,10.0,30.221457,1023.5,,TRUE,TRUE,,,,,,,CLR,,,,,,,,VFR,,,,,,,,,,,,METAR,140.0
KBMI 120756Z AUTO 32020G28KT 10SM -SN FEW015 OVC022 M09/M13 A3021 RMK AO2 T10881127 P0000 PK WND 33028/0737 SLP253,KBMI,2015-02-12T07:56:00Z,40.47,-88.92,-8.8,-12.7,320,20,28,10.0,30.209646,1025.3,,TRUE,TRUE,,,,,,-SN,FEW,1500,OVC,2200,,,,,MVFR,,,,,,0.0050,,,,,,METAR,267.0
KBJJ 120756Z AUTO 29008KT 1 3/4SM -SN BKN019 BKN025 OVC055 M03/M06 A2990 RMK AO2 SNB38 SLP136 P0000 T10281056 TSNO,KBJJ,2015-02-12T07:56:00Z,40.87,-81.88,-2.8,-5.6,290,8,,1.75,29.899607,1013.6,,TRUE,TRUE,,,TRUE,,,-SN,BKN,1900,BKN,2500,OVC,5500,,,IFR,,,,,,0.0050,,,,,,METAR,343.0
KBIH 120756Z AUTO 32006KT 10SM CLR 04/M09 A3034 RMK AO2 SLP256 T00391089 402171022,KBIH,2015-02-12T07:56:00Z,37.37,-118.35,3.9,-8.9,320,6,,10.0,30.339567,1025.6,,TRUE,TRUE,,,,,,,CLR,,,,,,,,VFR,,,,21.7,-2.2,,,,,,,METAR,1253.0
KBED 120756Z 00000KT 10SM CLR M17/M18 A2988 RMK AO2 SLP137 T11671178,KBED,2015-02-12T07:56:00Z,42.47,-71.3,-16.7,-17.8,0,0,,10.0,29.878937,1013.7,,,TRUE,,,,,,,CLR,,,,,,,,VFR,,,,,,,,,,,,METAR,50.0
KHPN 120756Z 00000KT 10SM SCT090 M07/M11 A2983 RMK AO2 SLP112 T10671106,KHPN,2015-02-12T07:56:00Z,41.07,-73.7,-6.7,-10.6,0,0,,10.0,29.828741,1011.2,,,TRUE,,,,,,,SCT,9000,,,,,,,VFR,,,,,,,,,,,,METAR,121.0
KHND 120756Z 17010KT 10SM CLR 10/M03 A3031 RMK AO2 SLP258 T01001033 402060094,KHND,2015-02-12T07:56:00Z,35.98,-115.13,10.0,-3.3,170,10,,10.0,30.31004,1025.8,,,TRUE,,,,,,,CLR,,,,,,,,VFR,,,,20.6,9.4,,,,,,,METAR,749.0
KGRD 120756Z AUTO 31003KT 10SM CLR 03/01 A2993 RMK AO2 SLP135 T00280006,KGRD,2015-02-12T07:56:00Z,34.25,-82.15,2.8,0.6,310,3,,10.0,29.929134,1013.5,,TRUE,TRUE,,,,,,,CLR,,,,,,,,VFR,,,,,,,,,,,,METAR,185.0
KGON 120756Z AUTO 36003KT 10SM BKN100 M11/M12 A2988 RMK AO2 SLP119 T11061122,KGON,2015-02-12T07:56:00Z,41.33,-72.05,-10.6,-12.2,360,3,,10.0,29.878937,1011.9,,TRUE,TRUE,,,,,,,BKN,10000,,,,,,,VFR,,,,,,,,,,,,METAR,3.0
KFSD 120756Z AUTO 36015KT 10SM CLR M17/M21 A3061 RMK AO2 SLP396 T11671211,KFSD,2015-02-12T07:56:00Z,43.58,-96.75,-16.7,-21.1,360,15,,10.0,30.611221,1039.6,,TRUE,TRUE,,,,,,,CLR,,,,,,,,VFR,,,,,,,,,,,,METAR,436.0
KLWS 120756Z AUTO 00000KT 10SM FEW110 08/06 A3028 RMK AO2 SLP258 T00780056 401390044,KLWS,2015-02-12T07:56:00Z,46.37,-117.02,7.8,5.6,0,0,,10.0,30.280512,1025.8,,TRUE,TRUE,,,,,,,FEW,11000,,,,,,,VFR,,,,13.9,4.4,,,,,,,METAR,438.0
KLRD 120756Z AUTO 04005KT 10SM CLR 16/14 A3016 RMK AO2 T01550138 SLP205,KLRD,2015-02-12T07:56:00Z,27.55,-99.47,15.5,13.8,40,5,,10.0,30.159449,1020.5,,TRUE,TRUE,,,,,,,CLR,,,,,,,,VFR,,,,,,,,,,,,METAR,155.0
KLNR 120756Z AUTO 36016G32KT 8SM SCT030 BKN036 OVC100 M11/M17 A3031 RMK AO2 PK WND 01032/0752 SNE27 SLP270 P0000 T11111172,KLNR,2015-02-12T07:56:00Z,43.22,-90.18,-11.1,-17.2,360,16,32,8.0,30.31004,1027.0,,TRUE,TRUE,,,,,,,SCT,3000,BKN,3600,OVC,10000,,,VFR,,,,,,0.0050,,,,,,METAR,217.0
KLAS 120756Z 21008KT 10SM SCT250 12/M04 A3025 RMK AO2 SLP233 T01221044 402170117,KLAS,2015-02-12T07:56:00Z,36.07,-115.17,12.2,-4.4,210,8,,10.0,30.250984,1023.3,,,TRUE,,,,,,,SCT,25000,,,,,,,VFR,,,,21.7,11.7,,,,,,,METAR,636.0
KJXN 120756Z 33009KT 9SM SCT013 BKN034 OVC050 M06/M09 A2994 RMK AO2 SNE54 SLP153 P0000 T10561094,KJXN,2015-02-12T07:56:00Z,42.27,-84.47,-5.6,-9.4,330,9,,9.0,29.940945,1015.3,,,TRUE,,,,,,,SCT,1300,BKN,3400,OVC,5000,,,VFR,,,,,,0.0050,,,,,,METAR,305.0
KJMS 120756Z AUTO 33006KT 10SM CLR M24/M27 A3065 RMK AO2 SLP425 T12391267,KJMS,2015-02-12T07:56:00Z,46.93,-98.67,-23.9,-26.7,330,6,,10.0,30.649607,1042.5,,TRUE,TRUE,,,,,,,CLR,,,,,,,,VFR,,,,,,,,,,,,METAR,455.0
KJAX 120756Z 24004KT 10SM CLR 06/06 A3002 RMK AO2 SLP167 T00610061,KJAX,2015-02-12T07:56:00Z,30.5,-81.68,6.1,6.1,240,4,,10.0,30.02067,1016.7,,,TRUE,,,,,,,CLR,,,,,,,,VFR,,,,,,,,,,,,METAR,10.0
KITH 120756Z AUTO 21003KT 10SM OVC026 M02/M04 A2972 RMK AO2 T10161038 SLP078,KITH,2015-02-12T07:56:00Z,42.47,-76.45,-1.6,-3.8,210,3,,10.0,29.719488,1007.8,,TRUE,TRUE,,,,,,,OVC,2600,,,,,,,MVFR,,,,,,,,,,,,METAR,335.0
KISP 120756Z AUTO 00000KT 10SM SCT085 BKN110 M06/M09 A2985 RMK AO2 SLP111 T10611094,KISP,2015-02-12T07:56:00Z,40.8,-73.1,-6.1,-9.4,0,0,,10.0,29.84941,1011.1,,TRUE,TRUE,,,,,,,SCT,8500,BKN,11000,,,,,VFR,,,,,,,,,,,,METAR,43.0
KINW 120756Z AUTO 12004KT 10SM CLR 03/M02 A3039 RMK AO2 SLP274 T00281017,KINW,2015-02-12T07:56:00Z,35.03,-110.72,2.8,-1.7,120,4,,10.0,30.389763,1027.4,,TRUE,TRUE,,,,,,,CLR,,,,,,,,VFR,,,,,,,,,,,,METAR,1490.0
KIGX 120756Z AUTO 00000KT 10SM CLR 01/M01 A2989 RMK AO2 SLP122 T00061006,KIGX,2015-02-12T07:56:00Z,35.93,-79.07,0.6,-0.6,0,0,,10.0,29.890747,1012.2,,TRUE,TRUE,,,,,,,CLR,,,,,,,,VFR,,,,,,,,,,,,METAR,155.0
KHYA 120756Z AUTO 31008KT 10SM OVC019 M04/M08 A2984 RMK AO2 SLP105 T10441078,KHYA,2015-02-12T07:56:00Z,41.67,-70.27,-4.4,-7.8,310,8,,10.0,29.840551,1010.5,,TRUE,TRUE,,,,,,,OVC,1900,,,,,,,MVFR,,,,,,,,,,,,METAR,22.0
KHWV 120756Z AUTO 00000KT 10SM SCT080 BKN110 M09/M11 A2988 RMK AO2 SLP120 I1000 T10891111 TSNO,KHWV,2015-02-12T07:56:00Z,40.82,-72.87,-8.9,-11.1,0,0,,10.0,29.878937,1012.0,,TRUE,TRUE,,,TRUE,,,,SCT,8000,BKN,11000,,,,,VFR,,,,,,,,,,,,METAR,21.0
KRDM 120756Z AUTO 14006KT 10SM CLR 02/M01 A3027 RMK AO2 SLP255 T00221006 401561017,KRDM,2015-02-12T07:56:00Z,44.25,-121.15,2.2,-0.6,140,6,,10.0,30.268702,1025.5,,TRUE,TRUE,,,,,,,CLR,,,,,,,,VFR,,,,15.6,-1.7,,,,,,,METAR,938.0
KOWB 120756Z AUTO 32015KT 10SM OVC022 M01/M06 A3017 RMK AO2 TSNO T10111055 SLP217,KOWB,2015-02-12T07:56:00Z,37.72,-87.17,-1.1,-5.5,320,15,,10.0,30.171259,1021.7,,TRUE,TRUE,,,TRUE,,,,OVC,2200,,,,,,,MVFR,,,,,,,,,,,,METAR,124.0
KOFK 120756Z AUTO 35014KT 10SM CLR M13/M18 A3060 RMK AO2 SLP389 T11331183,KOFK,2015-02-12T07:56:00Z,41.98,-97.43,-13.3,-18.3,350,14,,10.0,30.59941,1038.9,,TRUE,TRUE,,,,,,,CLR,,,,,,,,VFR,,,,,,,,,,,,METAR,470.0
KNUQ 120756Z AUTO 25003KT 10SM CLR 13/08 A3019 RMK AO2 SLP224 T01280083 402000061 TSNO,KNUQ,2015-02-12T07:56:00Z,37.4,-122.05,12.8,8.3,250,3,,10.0,30.188976,1022.4,,TRUE,TRUE,,,TRUE,,,,CLR,,,,,,,,VFR,,,,20.0,6.1,,,,,,,METAR,12.0
KMTW 120756Z AUTO 34019G26KT 10SM CLR M13/M19 A3020 RMK AO2 PK WND 35029/0724 SLP250 T11331194 FZRANO,KMTW,2015-02-12T07:56:00Z,44.12,-87.67,-13.3,-19.4,340,19,26,10.0,30.200787,1025.0,,TRUE,TRUE,,,,TRUE,,,CLR,,,,,,,,VFR,,,,,,,,,,,,METAR,198.0
KMQY 120756Z AUTO 36013G19KT 10SM OVC023 03/M02 A3015 RMK AO2 T00271022 SLP221,KMQY,2015-02-12T07:56:00Z,36.02,-86.52,2.7,-2.2,360,13,19,10.0,30.15059,1022.1,,TRUE,TRUE,,,,,,,OVC,2300,,,,,,,MVFR,,,,,,,,,,,,METAR,166.0
KMOB 120756Z AUTO 30004KT 10SM CLR 07/05 A3010 RMK AO2 SLP192 T00720050,KMOB,2015-02-12T07:56:00Z,30.68,-88.25,7.2,5.0,300,4,,10.0,30.100393,1019.2,,TRUE,TRUE,,,,,,,CLR,,,,,,,,VFR,,,,,,,,,,,,METAR,63.0
KMDT 120756Z 10004KT 10SM OVC037 00/M06 A2982 RMK AO2 SLP103 T00001056,KMDT,2015-02-12T07:56:00Z,40.2,-76.77,0.0,-5.6,100,4,,10.0,29.819881,1010.3,,,TRUE,,,,,,,OVC,3700,,,,,,,VFR,,,,,,,,,,,,METAR,95.0
KM19 120756Z AUTO 34014KT 10SM CLR 01/M04 A3034 RMK AO2 T00051044 SLP273,KM19,2015-02-12T07:56:00Z,35.65,-91.17,0.5,-4.4,340,14,,10.0,30.339567,1027.3,,TRUE,TRUE,,,,,,,CLR,,,,,,,,VFR,,,,,,,,,,,,METAR,73.0
MUGM 120756Z 33010KT 9999 FEW035 SCT060 19/14 A2994 RMK SLP140 T01940144,MUGM,2015-02-12T07:56:00Z,19.9,-75.2,19.4,14.4,330,10,,6.21,29.940945,1014.0,,,,,,,,,,FEW,3500,SCT,6000,,,,,VFR,,,,,,,,,,,,METAR,17.0
PMDY 120756Z AUTO 22004KT 10SM SCT049 BKN090 17/11 A2992 RMK AO2 TSNO T01660111 SLP440 $,PMDY,2015-02-12T07:56:00Z,28.22,-177.37,16.6,11.1,220,4,,10.0,29.920275,1044.0,,TRUE,TRUE,TRUE,,TRUE,,,,SCT,4900,BKN,9000,,,,,VFR,,,,,,,,,,,,METAR,4.0
PHNY 120756Z AUTO 00000KT 10SM CLR 16/14 A2998 RMK AO2 TSNO T01610138 SLP138 $,PHNY,2015-02-12T07:56:00Z,20.77,-156.93,16.1,13.8,0,0,,10.0,29.97933,1013.8,,TRUE,TRUE,TRUE,,TRUE,,,,CLR,,,,,,,,VFR,,,,,,,,,,,,METAR,399.0
KART 120756Z AUTO 25007KT 4SM -SN BR FEW008 BKN027 OVC035 M01/M03 A2972 RMK AO2 SLP072 P0002 T10111033,KART,2015-02-12T07:56:00Z,43.98,-76.03,-1.1,-3.3,250,7,,4.0,29.719488,1007.2,,TRUE,TRUE,,,,,,-SN BR,FEW,800,BKN,2700,OVC,3500,,,MVFR,,,,,,0.02,,,,,,METAR,100.0
KAND 120756Z AUTO 29005KT 10SM CLR 03/00 A2992 RMK AO2 SLP130 T00280000,KAND,2015-02-12T07:56:00Z,34.5,-82.72,2.8,0.0,290,5,,10.0,29.920275,1013.0,,TRUE,TRUE,,,,,,,CLR,,,,,,,,VFR,,,,,,,,,,,,METAR,239.0
KAJO 120756Z AUTO 14006KT 10SM CLR 20/M06 A3012 RMK AO2 T02001055 402940144 SLP191 $,KAJO,2015-02-12T07:56:00Z,33.9,-117.6,20.0,-5.5,140,6,,10.0,30.121063,1019.1,,TRUE,TRUE,TRUE,,,,,,CLR,,,,,,,,VFR,,,,29.4,14.4,,,,,,,METAR,163.0
K1M4 120756Z AUTO 00000KT 10SM 03/00 A3013 RMK AO2 T00330000 SLP214 $,K1M4,2015-02-12T07:56:00Z,34.28,-87.6,3.3,0.0,0,0,,10.0,30.129921,1021.4,,TRUE,TRUE,TRUE,,,,,,,,,,,,,,,,,,,,,,,,,,METAR,284.0
KSXS 120756Z AUTO 32004KT 10SM CLR 07/02 A3006 RMK AO2 SLP181 T00730018,KSXS,2015-02-12T07:56:00Z,31.37,-85.85,7.3,1.8,320,4,,10.0,30.059055,1018.1,,TRUE,TRUE,,,,,,,CLR,,,,,,,,VFR,,,,,,,,,,,,METAR,122.0
K2DP 120756Z AUTO 20003KT 10SM CLR M02/M02 A2994 RMK AO2 SLPNO T10251025,K2DP,2015-02-12T07:56:00Z,35.68,-75.9,-2.5,-2.5,200,3,,10.0,29.940945,,,TRUE,TRUE,,,,,,,CLR,,,,,,,,VFR,,,,,,,,,,,,METAR,3.0
PPIZ 120756Z AUTO 00000KT -SN BKN004 M32/M36 A3015 RMK AO2 TSNO T13221355 SNB49 P0000 SLP215 $,PPIZ,2015-02-12T07:56:00Z,69.73,-163.0,-32.2,-35.5,0,0,,,30.15059,1021.5,,TRUE,TRUE,TRUE,,TRUE,,,-SN,BKN,400,,,,,,,,,,,,,0.0050,,,,,,METAR,8.0
PPIT 120756Z AUTO 04019KT 9SM -SN FEW048 OVC060 M14/M16 A2954 RMK AO2 SLP004 P0000 T11391161 FZRANO,PPIT,2015-02-12T07:56:00Z,60.9,-162.43,-13.9,-16.1,40,19,,9.0,29.53937,1000.4,,TRUE,TRUE,,,,TRUE,,-SN,FEW,4800,OVC,6000,,,,,VFR,,,,,,0.0050,,,,,,METAR,4.0
PFKW 120756Z AUTO 03009KT 4SM -SN BR BKN024 OVC029 M12/M14 A2950 RMK AO2 SLP989 P0000 T11221144 FZRANO,PFKW,2015-02-12T07:56:00Z,60.8,-161.43,-12.2,-14.4,30,9,,4.0,29.500984,998.9,,TRUE,TRUE,,,,TRUE,,-SN BR,BKN,2400,OVC,2900,,,,,MVFR,,,,,,0.0050,,,,,,METAR,8.0
PFCL 120756Z AUTO 04012KT 10SM BKN026 OVC036 M05/M07 A2946 RMK AO2 SLP977 T10501067 FZRANO,PFCL,2015-02-12T07:56:00Z,58.83,-158.53,-5.0,-6.7,40,12,,10.0,29.459646,997.7,,TRUE,TRUE,,,,TRUE,,,BKN,2600,OVC,3600,,,,,MVFR,,,,,,,,,,,,METAR,24.0
PAVC 120756Z AUTO 11009KT 10SM OVC009 04/03 A2923 RMK AO2 TSNO T00440033 CIG 007V012 P0001 SLP900 $,PAVC,2015-02-12T07:56:00Z,55.12,-162.27,4.4,3.3,110,9,,10.0,29.22933,990.0,,TRUE,TRUE,TRUE,,TRUE,,,,OVC,900,,,,,,,IFR,,,,,,0.01,,,,,,METAR,47.0
PATQ 120756Z AUTO 07012KT 5SM HZ CLR M34/M38 A3026 RMK AO2 TSNO T13381377 SNB10E55 P0000 SLP258 $,PATQ,2015-02-12T07:56:00Z,70.47,-157.43,-33.8,-37.7,70,12,,5.0,30.259842,1025.8,,TRUE,TRUE,TRUE,,TRUE,,,HZ,CLR,,,,,,,,MVFR,,,,,,0.0050,,,,,,METAR,29.0
PARY 120756Z AUTO 10SM FEW110 M17/M22 A2972 RMK AO2 TSNO T11661216 SLP083 $,PARY,2015-02-12T07:56:00Z,64.73,-155.47,-16.6,-21.6,,,,10.0,29.719488,1008.3,,TRUE,TRUE,TRUE,,TRUE,,,,FEW,11000,,,,,,,VFR,,,,,,,,,,,,METAR,199.0
PARS 120756Z AUTO 03006KT 3SM -SN BKN003 BKN014 OVC029 M13/M17 A2959 RMK AO2 TSNO T11331172 411331172 P0000 SLP026 $,PARS,2015-02-12T07:56:00Z,61.77,-161.32,-13.3,-17.2,30,6,,3.0,29.589567,1002.6,,TRUE,TRUE,TRUE,,TRUE,,,-SN,BKN,300,BKN,1400,OVC,2900,,,LIFR,,,,-13.3,-17.2,0.0050,,,,,,METAR,16.0
PAQH 120756Z AUTO 36013KT 3SM -SN BR BKN027 OVC037 M11/M12 A2944 RMK AO2 SLP972 P0000 T11061122 FZRANO,PAQH,2015-02-12T07:56:00Z,59.75,-161.85,-10.6,-12.2,360,13,,3.0,29.438976,997.2,,TRUE,TRUE,,,,TRUE,,-SN BR,BKN,2700,OVC,3700,,,,,MVFR,,,,,,0.0050,,,,,,METAR,13.0
PAPN 120756Z AUTO 12007KT 10SM OVC100 A2940 RMK AO2 PWINO TSNO OVC V BKN SLPNO $,PAPN,2015-02-12T07:56:00Z,57.58,-157.57,,,120,7,,10.0,29.40059,,,TRUE,TRUE,TRUE,,TRUE,,TRUE,,OVC,10000,,,,,,,VFR,,,,,,,,,,,,METAR,18.0
PAPM 120756Z AUTO 03012KT 6SM -SN BR BKN004 OVC017 00/00 A2940 RMK AO2 TSNO T00000000 400001111 BKN V SCT P0001 SLP955 $,PAPM,2015-02-12T07:56:00Z,59.02,-161.82,0.0,0.0,30,12,,6.0,29.40059,995.5,,TRUE,TRUE,TRUE,,TRUE,,,-SN BR,BKN,400,OVC,1700,,,,,LIFR,,,,,-11.1,0.01,,,,,,METAR,5.0
PAOU 120756Z AUTO 00000KT 10SM SCT034 02/02 A2926 RMK AO2 TSNO T00220016 SLP913 $,PAOU,2015-02-12T07:56:00Z,56.0,-161.17,2.2,1.6,0,0,,10.0,29.258858,991.3,,TRUE,TRUE,TRUE,,TRUE,,,,SCT,3400,,,,,,,VFR,,,,,,,,,,,,METAR,4.0
PAOO 120756Z AUTO 35018KT 7SM -SN SCT039 M13/M17 A2956 RMK AO2 TSNO T11331172 SNB47 P0000 PK WND 35027/0736 SLP013 $,PAOO,2015-02-12T07:56:00Z,60.53,-165.12,-13.3,-17.2,350,18,,7.0,29.56004,1001.3,,TRUE,TRUE,TRUE,,TRUE,,,-SN,SCT,3900,,,,,,,VFR,,,,,,0.0050,,,,,,METAR,18.0
PAOH 120756Z AUTO 00000KT 7SM -RA OVC008 01/01 A2979 RMK AO2 TSNO T00110011 400330000 P0000 SLP090 $,PAOH,2015-02-12T07:56:00Z,58.1,-135.45,1.1,1.1,0,0,,7.0,29.790354,1009.0,,TRUE,TRUE,TRUE,,TRUE,,,-RA,OVC,800,,,,,,,IFR,,,,3.3,,0.0050,,,,,,METAR,9.0
PANA 120756Z AUTO 04015KT 6SM -SN BR OVC020 M13/M16 A2950 RMK AO2 SLP989 P0000 T11331156 FZRANO,PANA,2015-02-12T07:56:00Z,60.68,-161.98,-13.3,-15.6,40,15,,6.0,29.500984,998.9,,TRUE,TRUE,,,,TRUE,,-SN BR,OVC,2000,,,,,,,MVFR,,,,,,0.0050,,,,,,METAR,5.0
PAMO 120756Z AUTO 01009KT 10SM CLR M14/M18 A2963 RMK AO2 TSNO T11441183 411381211 SLP920 $,PAMO,2015-02-12T07:56:00Z,62.1,-163.68,-14.4,-18.3,10,9,,10.0,29.630905,992.0,,TRUE,TRUE,TRUE,,TRUE,,,,CLR,,,,,,,,VFR,,,,-13.8,-21.1,,,,,,,METAR,103.0
PAMK 120756Z AUTO 04014KT 10SM CLR M16/M19 A2969 RMK AO2 TSNO T11551188 411501188 SLP059 $,PAMK,2015-02-12T07:56:00Z,63.48,-162.12,-15.5,-18.8,40,14,,10.0,29.68996,1005.9,,TRUE,TRUE,TRUE,,TRUE,,,,CLR,,,,,,,,VFR,,,,-15.0,-18.8,,,,,,,METAR,28.0
PAMB 120756Z AUTO 04016KT OVC026 M05/M05 A2941 RMK AO2 TSNO T10501050 SLP961 $,PAMB,2015-02-12T07:56:00Z,58.98,-159.05,-5.0,-5.0,40,16,,,29.409449,996.1,,TRUE,TRUE,TRUE,,TRUE,,,,OVC,2600,,,,,,,,,,,,,,,,,,,METAR,16.0
PALG 120756Z AUTO VRB05KT SCT027 BKN035 OVC070 M12/M17 RMK AO2 PWINO TSNO T11221166 411221172 OVC V BKN SLPNO $,PALG,2015-02-12T07:56:00Z,61.53,-160.33,-12.2,-16.6,0,5,,,,,,TRUE,TRUE,TRUE,,TRUE,,TRUE,,SCT,2700,BKN,3500,OVC,7000,,,,,,,-12.2,-17.2,,,,,,,METAR,17.0
PAKI 120756Z AUTO 01026G30KT 1 1/4SM -SN BR BKN004 OVC023 M14/M16 A2949 RMK AO2 TSNO T11381161 P0000 PK WND 01030/0720 SLP989 $,PAKI,2015-02-12T07:56:00Z,59.93,-164.03,-13.8,-16.1,10,26,30,1.25,29.489174,998.9,,TRUE,TRUE,TRUE,,TRUE,,,-SN BR,BKN,400,OVC,2300,,,,,LIFR,,,,,,0.0050,,,,,,METAR,4.0
PAKH 120756Z AUTO 10014KT 04/02 RMK AO2 PWINO TSNO T00440022 400550044 SLPNO $,PAKH,2015-02-12T07:56:00Z,56.93,-154.18,4.4,2.2,100,14,,,,,,TRUE,TRUE,TRUE,,TRUE,,TRUE,,,,,,,,,,,,,,5.5,4.4,,,,,,,METAR,14.0
PAKF 120756Z AUTO 09010KT 3SM -RA BR OVC006 04/03 A2919 RMK AO2 CIG 004V008 P0007 $,PAKF,2015-02-12T07:56:00Z,54.85,-163.42,4.0,3.0,90,10,,3.0,29.190945,,,TRUE,TRUE,TRUE,,,,,-RA BR,OVC,600,,,,,,,IFR,,,,,,0.07,,,,,,SPECI,6.0
PAIG 120756Z AUTO 06007KT BKN110 01/M01 A2947 RMK AO2 TSNO T00051011 SLP983 $,PAIG,2015-02-12T07:56:00Z,59.32,-155.9,0.5,-1.1,60,7,,,29.471457,998.3,,TRUE,TRUE,TRUE,,TRUE,,,,BKN,11000,,,,,,,,,,,,,,,,,,,METAR,28.0
PAHC 120756Z AUTO 36013G16KT 5SM -SN OVC036 M14/M20 A2962 RMK AO2 TSNO T11441200 OVC V BKN UPB01E22SNB43BLSNB39E54 P0000 SLP035 $,PAHC,2015-02-12T07:56:00Z,62.18,-159.78,-14.4,-20.0,360,13,16,5.0,29.619095,1003.5,,TRUE,TRUE,TRUE,,TRUE,,,-SN,OVC,3600,,,,,,,MVFR,,,,,,0.0050,,,,,,METAR,21.0
PAGS 120756Z AUTO 32007KT 10SM OVC008 02/01 A2978 RMK VIA PHONE,PAGS,2015-02-12T07:56:00Z,58.42,-135.73,2.0,1.0,320,7,,10.0,29.778543,,,TRUE,,,,,,,,OVC,800,,,,,,,IFR,,,,,,,,,,,,METAR,9.0
PAGN 120756Z AUTO 00000KT 10SM BKN032 OVC060 03/03 A2977 RMK AO2 TSNO T00330027 OVC V BKN SLP083 $,PAGN,2015-02-12T07:56:00Z,57.5,-134.58,3.3,2.7,0,0,,10.0,29.769686,1008.3,,TRUE,TRUE,TRUE,,TRUE,,,,BKN,3200,OVC,6000,,,,,VFR,,,,,,,,,,,,METAR,2.0
PAFS 120756Z AUTO 05004KT 10SM FEW040 OVC085 M14/M19 A2967 RMK AO2 TSNO T11381188 SNE52 P0000 SLP067 $,PAFS,2015-02-12T07:56:00Z,63.02,-154.35,-13.8,-18.8,50,4,,10.0,29.66929,1006.7,,TRUE,TRUE,TRUE,,TRUE,,,,FEW,4000,OVC,8500,,,,,VFR,,,,,,0.0050,,,,,,METAR,126.0
PADU 120756Z AUTO 33013KT 5SM -SN BR BKN008 OVC013 02/00 A2925 RMK AO2 CIG 005V011 SLP908 T00170000 PNO $,PADU,2015-02-12T07:56:00Z,53.9,-166.53,1.7,0.0,330,13,,5.0,29.25,990.8,,TRUE,TRUE,TRUE,,,,,-SN BR,BKN,800,OVC,1300,,,,,IFR,,,,,,,,,,,,METAR,4.0
PACM 120756Z AUTO 00000KT 10SM OVC080 M16/M19 A2973 RMK AO2 FZRANO TSNO T11551188 411551188 SLP063 $,PACM,2015-02-12T07:56:00Z,61.85,-165.57,-15.5,-18.8,0,0,,10.0,29.731298,1006.3,,TRUE,TRUE,TRUE,,TRUE,TRUE,,,OVC,8000,,,,,,,VFR,,,,-15.5,-18.8,,,,,,,METAR,4.0
KTTF 120756Z AUTO 35011KT 2 1/2SM -SN SCT008 BKN013 OVC028 M04/M06 A2993 RMK AO2,KTTF,2015-02-12T07:56:00Z,41.93,-83.42,-4.0,-6.0,350,11,,2.5,29.929134,,,TRUE,TRUE,,,,,,-SN,SCT,800,BKN,1300,OVC,2800,,,IFR,,,,,,,,,,,,METAR,188.0
KQRH 120756Z AUTO 09007G15KT 9999 FEW050 28/18 A3006 RMK AO2 SLP172 T02810183,KQRH,2015-02-12T07:56:00Z,100.65,-1000.65,28.1,18.3,90,7,15,6.21,30.059055,1017.2,,TRUE,TRUE,,,,,,,FEW,5000,,,,,,,VFR,,,,,,,,,,,,METAR,999.0
KNXF 120756Z AUTO 02006KT 10SM CLR 22/M07 A3004 RMK AO2 SLP256 T02221072 402890106 $ ,KNXF,2015-02-12T07:56:00Z,33.28,-117.45,22.2,-7.2,20,6,,10.0,30.041338,1025.6,,TRUE,TRUE,TRUE,,,,,,CLR,,,,,,,,VFR,,,,28.9,10.6,,,,,,,METAR,27.0
KABH 120756Z AUTO 18006KT CLR A3038 RMK AO2 SLPNO $ ,KABH,2015-02-12T07:56:00Z,38.75,-104.3,,,180,6,,,30.380905,,,TRUE,TRUE,TRUE,,,,,,CLR,,,,,,,,,,,,,,,,,,,,METAR,1840.0
KNMM 120756Z AUTO 32003KT 8SM CLR 06/02 A3013 RMK AO2 SLP215 T00560017 $ ,KNMM,2015-02-12T07:56:00Z,32.53,-88.57,5.6,1.7,320,3,,8.0,30.129921,1021.5,,TRUE,TRUE,TRUE,,,,,,CLR,,,,,,,,VFR,,,,,,,,,,,,METAR,97.0
KD07 120756Z AUTO 10009KT M16/M21 A3051 RMK AO1 SLP385 T11611206 ,KD07,2015-02-12T07:56:00Z,45.03,-102.02,-16.1,-20.6,100,9,,,30.510826,1038.5,,TRUE,TRUE,,,,,,,,,,,,,,,,,,,,,,,,,,,METAR,784.0
PASY 120756Z AUTO 03006KT 10SM -FZRA SCT027 OVC035 01/M11 A3002 RMK AO2 FZRAB54SNB49E50 SLP165 T00061106 TSNO $,PASY,2015-02-12T07:56:00Z,52.72,174.12,0.6,-10.6,30,6,,10.0,30.02067,1016.5,,TRUE,TRUE,TRUE,,TRUE,,,-FZRA,SCT,2700,OVC,3500,,,,,VFR,,,,,,,,,,,,METAR,31.0
KALK 120756Z AUTO 10018KT 10SM CLR 07/M01 A3020 RMK AO2 SLP164 T00721006 ,KALK,2015-02-12T07:56:00Z,31.6,-110.43,7.2,-0.6,100,18,,10.0,30.200787,1016.4,,TRUE,TRUE,,,,,,,CLR,,,,,,,,VFR,,,,,,,,,,,,METAR,1453.0
PFYU 120756Z 06007KT 10SM CLR M19/M25 A2998 RMK AO1,PFYU,2015-02-12T07:56:00Z,66.57,-145.27,-19.0,-25.0,60,7,,10.0,29.97933,,,,TRUE,,,,,,,CLR,,,,,,,,VFR,,,,,,,,,,,,METAR,131.0
KNTU 120756Z 17003KT 10SM CLR 00/M03 A2991 RMK AO2 SLP130 T00001033 ,KNTU,2015-02-12T07:56:00Z,36.82,-76.02,0.0,-3.3,170,3,,10.0,29.911417,1013.0,,,TRUE,,,,,,,CLR,,,,,,,,VFR,,,,,,,,,,,,METAR,7.0
KNDZ 120756Z AUTO 32004KT 7SM CLR 07/04 A3008 RMK AO2 SLP175 T00720044 $ ,KNDZ,2015-02-12T07:56:00Z,30.7,-87.02,7.2,4.4,320,4,,7.0,30.079725,1017.5,,TRUE,TRUE,TRUE,,,,,,CLR,,,,,,,,VFR,,,,,,,,,,,,METAR,54.0
KNCA 120756Z AUTO 00000KT 7SM CLR M01/M03 A2995 RMK AO2 SLP143 T10111028 ,KNCA,2015-02-12T07:56:00Z,34.72,-77.45,-1.1,-2.8,0,0,,7.0,29.949802,1014.3,,TRUE,TRUE,,,,,,,CLR,,,,,,,,VFR,,,,,,,,,,,,METAR,8.0
KNPA 120756Z AUTO 31004KT 5SM BR CLR 07/05 A3007 RMK AO2 SLP185 T00670050 ,KNPA,2015-02-12T07:56:00Z,30.35,-87.32,6.7,5.0,310,4,,5.0,30.070866,1018.5,,TRUE,TRUE,,,,,,BR,CLR,,,,,,,,MVFR,,,,,,,,,,,,METAR,9.0
K79J 120756Z AUTO 32003KT 10SM CLR 06/02 A3007 RMK AO2 SLP180 T00610017 ,K79J,2015-02-12T07:56:00Z,31.32,-86.4,6.1,1.7,320,3,,10.0,30.070866,1018.0,,TRUE,TRUE,,,,,,,CLR,,,,,,,,VFR,,,,,,,,,,,,METAR,94.0
KSJX 120756Z AUTO 36011G21KT 320V020 7SM SCT100 M15/M19 A3011 RMK AO2 T11531192,KSJX,2015-02-12T07:56:00Z,45.7,-85.57,-15.3,-19.2,360,11,21,7.0,30.109253,,,TRUE,TRUE,,,,,,,SCT,10000,,,,,,,VFR,,,,,,,,,,,,METAR,204.0
K14Y 120756Z AUTO 32009G16KT 10SM CLR M21/M24 A3059 RMK AO2,K14Y,2015-02-12T07:56:00Z,45.9,-94.87,-21.0,-24.0,320,9,16,10.0,30.590551,,,TRUE,TRUE,,,,,,,CLR,,,,,,,,VFR,,,,,,,,,,,,METAR,406.0
KMQJ 120756Z AUTO 29013KT 10SM BKN023 M05/M13 A3007 RMK AO1,KMQJ,2015-02-12T07:56:00Z,39.85,-85.9,-5.0,-13.0,290,13,,10.0,30.070866,,,TRUE,TRUE,,,,,,,BKN,2300,,,,,,,MVFR,,,,,,,,,,,,METAR,263.0
KXVG 120756Z AUTO 31004KT 10SM CLR M23/M25 A3057 RMK AO2,KXVG,2015-02-12T07:56:00Z,46.98,-94.2,-23.0,-25.0,310,4,,10.0,30.569881,,,TRUE,TRUE,,,,,,,CLR,,,,,,,,VFR,,,,,,,,,,,,METAR,407.0
KONA 120756Z AUTO 32013G18KT 10SM CLR M13/M18 A3046 RMK AO2,KONA,2015-02-12T07:56:00Z,44.07,-91.7,-13.0,-18.0,320,13,18,10.0,30.46063,,,TRUE,TRUE,,,,,,,CLR,,,,,,,,VFR,,,,,,,,,,,,METAR,200.0
KSHM 120756Z AUTO 14001KT 10SM CLR M02/M05 A3039 RMK AO2 SLP321 T10201050 400641025,KSHM,2015-02-12T07:56:00Z,38.8,-104.52,-2.0,-5.0,140,1,,10.0,30.389763,1032.1,,TRUE,TRUE,,,,,,,CLR,,,,,,,,VFR,,,,6.4,-2.5,,,,,,,METAR,1900.0
KCWN 120756Z AUTO 18008KT 10SM CLR 00/M03 A3005 RMK AO2 SLP199 T10021031,KCWN,2015-02-12T07:56:00Z,38.75,-104.85,-0.2,-3.1,180,8,,10.0,30.050198,1019.9,,TRUE,TRUE,,,,,,,CLR,,,,,,,,VFR,,,,,,,,,,,,METAR,2040.0
K1YT 120756Z AUTO 13004KT 9SM BKN100 06/05 A3025 RMK AO2 SLPNO T00610050 401080033,K1YT,2015-02-12T07:56:00Z,46.67,-120.45,6.1,5.0,130,4,,9.0,30.250984,,,TRUE,TRUE,,,,,,,BKN,10000,,,,,,,VFR,,,,10.8,3.3,,,,,,,METAR,438.0
CYZP 120756Z AUTO VRB02KT 8SM -RA FEW017 SCT032 SCT075 BKN100 09/09 A2977 RMK SLP080,CYZP,2015-02-12T07:56:00Z,53.25,-131.82,9.0,9.0,0,2,,8.0,29.769686,1008.0,,TRUE,,,,,,,-RA,FEW,1700,SCT,3200,SCT,7500,BKN,10000,VFR,,,,,,,,,,,,SPECI,6.0
K4I3 120756Z AUTO 28007KT 2SM -SN BKN008 OVC013 M02/M04 A2991 RMK AO2,K4I3,2015-02-12T07:56:00Z,40.33,-82.53,-2.0,-4.0,280,7,,2.0,29.911417,,,TRUE,TRUE,,,,,,-SN,BKN,800,OVC,1300,,,,,IFR,,,,,,,,,,,,METAR,363.0
K4BM 120756Z AUTO 28010G15KT 10SM BKN110 M06/M14 A3043 RMK AO2,K4BM,2015-02-12T07:56:00Z,39.05,-105.52,-6.0,-14.0,280,10,15,10.0,30.431103,,,TRUE,TRUE,,,,,,,BKN,11000,,,,,,,VFR,,,,,,,,,,,,METAR,3438.0
KNJK 120756Z AUTO 28004KT 10SM CLR 13/M04 A3009 RMK AO2 SLP204 T01281039 402890100 $,KNJK,2015-02-12T07:56:00Z,32.82,-115.67,12.8,-3.9,280,4,,10.0,30.088583,1020.4,,TRUE,TRUE,TRUE,,,,,,CLR,,,,,,,,VFR,,,,28.9,10.0,,,,,,,METAR,-13.0
KAVC 120756Z AUTO 22003KT 10SM CLR M01/M02 A2994 RMK AO2 T10121023,KAVC,2015-02-12T07:56:00Z,36.68,-78.03,-1.2,-2.3,220,3,,10.0,29.940945,,,TRUE,TRUE,,,,,,,CLR,,,,,,,,VFR,,,,,,,,,,,,METAR,135.0
KAUM 120756Z AUTO 34013G22KT 10SM CLR M18/M22 A3045 RMK AO2,KAUM,2015-02-12T07:56:00Z,43.67,-92.92,-18.0,-22.0,340,13,22,10.0,30.448818,,,TRUE,TRUE,,,,,,,CLR,,,,,,,,VFR,,,,,,,,,,,,METAR,375.0
KSXT 120756Z AUTO 14008KT 10SM CLR 09/00 A3025 RMK AO2 SLP233 T00890000 401170056,KSXT,2015-02-12T07:56:00Z,42.6,-123.37,8.9,0.0,140,8,,10.0,30.250984,1023.3,,TRUE,TRUE,,,,,,,CLR,,,,,,,,VFR,,,,11.7,5.6,,,,,,,METAR,1170.0
KCOQ 120756Z AUTO 32011G15KT 10SM CLR M20/M24 A3049 RMK AO2,KCOQ,2015-02-12T07:56:00Z,46.7,-92.5,-20.0,-24.0,320,11,15,10.0,30.490158,,,TRUE,TRUE,,,,,,,CLR,,,,,,,,VFR,,,,,,,,,,,,METAR,390.0
KMNH 120756Z AUTO 21009KT 10SM CLR M01/M03 A3035 RMK AO2,KMNH,2015-02-12T07:56:00Z,39.22,-104.65,-1.0,-3.0,210,9,,10.0,30.351377,,,TRUE,TRUE,,,,,,,CLR,,,,,,,,VFR,,,,,,,,,,,,METAR,2152.0
CYWA 120756Z AUTO 33005KT 2 1/2SM OVC029 M12/M14 A2974,CYWA,2015-02-12T07:56:00Z,45.95,-77.32,-12.0,-14.0,330,5,,2.5,29.740158,,,TRUE,,,,,,,,OVC,2900,,,,,,,IFR,,,,,,,,,,,,SPECI,130.0
KQHY 120756Z AUTO 33002KT 10SM CLR 07/06 A3008 RMK AO2 SLP193 T00700057,KQHY,2015-02-12T07:56:00Z,100.65,-1000.65,7.0,5.7,330,2,,10.0,30.079725,1019.3,,TRUE,TRUE,,,,,,,CLR,,,,,,,,VFR,,,,,,,,,,,,METAR,999.0
KQFS 120756Z AUTO 28010G17KT 9999 M 05/M14 A2985 RMK AO2 SLPNO T00511143 $,KQFS,2015-02-12T07:56:00Z,100.65,-1000.65,5.1,-14.3,280,10,17,6.21,29.84941,,,TRUE,TRUE,TRUE,,,,,,,,,,,,,,,,,,,,,,,,,,METAR,999.0
KQBL 120756Z AUTO 00000KT 6SM M CLR 07/06 A3008 RMK AO2 SLP192 T00690056 $,KQBL,2015-02-12T07:56:00Z,100.65,-1000.65,6.9,5.6,0,0,,6.0,30.079725,1019.2,,TRUE,TRUE,TRUE,,,,,,CLR,,,,,,,,VFR,,,,,,,,,,,,METAR,999.0
KWVL 120755Z 36007KT CLR M16/M22 A2986 RMK AO1,KWVL,2015-02-12T07:55:00Z,44.52,-69.67,-16.0,-22.0,360,7,,,29.861221,,,,TRUE,,,,,,,CLR,,,,,,,,,,,,,,,,,,,,METAR,101.0
KW75 120755Z AUTO 15006KT 10SM CLR 00/M02 A2989 RMK AO1 T10051024,KW75,2015-02-12T07:55:00Z,37.6,-76.45,-0.5,-2.4,150,6,,10.0,29.890747,,,TRUE,TRUE,,,,,,,CLR,,,,,,,,VFR,,,,,,,,,,,,METAR,9.0
KW63 120755Z AUTO 22005KT 10SM CLR 00/00 A2987 RMK AO1,KW63,2015-02-12T07:55:00Z,36.6,-78.55,0.0,0.0,220,5,,10.0,29.870079,,,TRUE,TRUE,,,,,,,CLR,,,,,,,,VFR,,,,,,,,,,,,METAR,129.0
KWWD 120755Z AUTO 20005KT 10SM CLR M02/M06 A2989 RMK AO1,KWWD,2015-02-12T07:55:00Z,39.02,-74.92,-2.0,-6.0,200,5,,10.0,29.890747,,,TRUE,TRUE,,,,,,,CLR,,,,,,,,VFR,,,,,,,,,,,,METAR,7.0
KYKN 120755Z AUTO 34012KT 10SM CLR M15/M20 A3066 RMK AO1,KYKN,2015-02-12T07:55:00Z,42.92,-97.37,-15.0,-20.0,340,12,,10.0,30.661417,,,TRUE,TRUE,,,,,,,CLR,,,,,,,,VFR,,,,,,,,,,,,METAR,398.0
K7N0 120755Z AUTO 34003KT 10SM CLR A3012 RMK AO1,K7N0,2015-02-12T07:55:00Z,29.95,-90.07,,,340,3,,10.0,30.121063,,,TRUE,TRUE,,,,,,,CLR,,,,,,,,VFR,,,,,,,,,,,,METAR,0.0
TXKF 120755Z 33021KT 9999 SCT022 18/12 Q1002 ,TXKF,2015-02-12T07:55:00Z,32.37,-64.68,18.0,12.0,330,21,,6.21,29.586615,,,,,,,,,,,SCT,2200,,,,,,,VFR,,,,,,,,,,,,METAR,6.0
KDVK 120755Z AUTO 31007G15KT 10SM OVC018 00/M03 A3006 RMK AO2,KDVK,2015-02-12T07:55:00Z,37.58,-84.77,0.0,-3.0,310,7,15,10.0,30.059055,,,TRUE,TRUE,,,,,,,OVC,1800,,,,,,,MVFR,,,,,,,,,,,,METAR,312.0
K5A6 120755Z AUTO 01009G16KT 10SM CLR 06/01 A3018 RMK AO2 T00610008,K5A6,2015-02-12T07:55:00Z,33.47,-89.73,6.1,0.8,10,9,16,10.0,30.180119,,,TRUE,TRUE,,,,,,,CLR,,,,,,,,VFR,,,,,,,,,,,,METAR,111.0
EHAM 120755Z 13004KT 4200 BR OVC014 03/02 Q1022 BECMG BKN016,EHAM,2015-02-12T07:55:00Z,52.32,4.78,3.0,2.0,130,4,,2.61,30.177166,,,,,,,,,,BR,OVC,1400,,,,,,,IFR,,,,,,,,,,,,METAR,9.0
EHRD 120755Z AUTO 11003KT 4200 BR OVC019 03/02 Q1022 NOSIG,EHRD,2015-02-12T07:55:00Z,51.95,4.45,3.0,2.0,110,3,,2.61,30.177166,,,TRUE,,,TRUE,,,,BR,OVC,1900,,,,,,,IFR,,,,,,,,,,,,METAR,-5.0
EHGG 120755Z AUTO 21006KT 170V230 2800 BR OVC006 02/01 Q1022 BECMG 3500,EHGG,2015-02-12T07:55:00Z,53.12,6.57,2.0,1.0,210,6,,1.74,30.177166,,,TRUE,,,,,,,BR,OVC,600,,,,,,,IFR,,,,,,,,,,,,METAR,4.0
EHBK 120755Z AUTO 16003KT 6000 NCD M00/M01 Q1021 NOSIG,EHBK,2015-02-12T07:55:00Z,50.92,5.77,0.0,-1.0,160,3,,3.73,30.147638,,,TRUE,,,TRUE,,,,,,,,,,,,,,,,,,,,,,,,,METAR,116.0
PATL 120755Z AUTO 08003KT 7SM -SHSN OVC065 M15/M19 A2966 RMK AO2 SNB0648E0701SHSNB0701 SLP083 P0000 T11521192 $,PATL,2015-02-12T07:55:00Z,62.9,-155.97,-15.2,-19.2,80,3,,7.0,29.660433,1008.3,,TRUE,TRUE,TRUE,,,,,-SHSN,OVC,6500,,,,,,,VFR,,,,,,0.0050,,,,,,METAR,294.0
PATC 120755Z AUTO 03029KT 2SM BR CLR M25/M27 A2987 RMK AO2 PK WND 03032/0659 SLP128 T12511272,PATC,2015-02-12T07:55:00Z,65.57,-167.92,-25.1,-27.2,30,29,,2.0,29.870079,1012.8,,TRUE,TRUE,,,,,,BR,CLR,,,,,,,,IFR,,,,,,,,,,,,METAR,83.0
PASV 120755Z AUTO 00000KT 7SM -SN BKN032 BKN100 M11/M12 A2948 RMK AO2 SHSNB0629E0752 SLP033 P0000 T11081120,PASV,2015-02-12T07:55:00Z,61.1,-155.57,-10.8,-12.0,0,0,,7.0,29.480314,1003.3,,TRUE,TRUE,,,,,,-SN,BKN,3200,BKN,10000,,,,,VFR,,,,,,0.0050,,,,,,METAR,484.0
PALU 120755Z AUTO 11009KT 10SM CLR M26/M29 A3004 RMK AO2 SLP171 T12611294,PALU,2015-02-12T07:55:00Z,68.88,-166.13,-26.1,-29.4,110,9,,10.0,30.041338,1017.1,,TRUE,TRUE,,,,,,,CLR,,,,,,,,VFR,,,,,,,,,,,,METAR,3.0
PACZ 120755Z AUTO 04034KT 10SM FEW210 M15/M18 A2954 RMK AO2 PK WND 04039/0708 SLP022 T11511185,PACZ,2015-02-12T07:55:00Z,61.78,-166.03,-15.1,-18.5,40,34,,10.0,29.53937,1002.2,,TRUE,TRUE,,,,,,,FEW,21000,,,,,,,VFR,,,,,,,,,,,,METAR,146.0
KBEA 120755Z AUTO 08004KT 7SM OVC036 16/16 A3017 RMK AO2 T01580158,KBEA,2015-02-12T07:55:00Z,28.37,-97.78,15.8,15.8,80,4,,7.0,30.171259,,,TRUE,TRUE,,,,,,,OVC,3600,,,,,,,VFR,,,,,,,,,,,,METAR,82.0
KBCK 120755Z AUTO 32008G14KT 10SM SCT030 M14/M20 A3038 RMK AO2 T11451201,KBCK,2015-02-12T07:55:00Z,44.25,-90.85,-14.5,-20.1,320,8,14,10.0,30.380905,,,TRUE,TRUE,,,,,,,SCT,3000,,,,,,,VFR,,,,,,,,,,,,METAR,255.0
KBCB 120755Z AUTO 29007KT 10SM OVC027 02/M03 A2989 RMK AO2 T00201027,KBCB,2015-02-12T07:55:00Z,37.22,-80.42,2.0,-2.7,290,7,,10.0,29.890747,,,TRUE,TRUE,,,,,,,OVC,2700,,,,,,,MVFR,,,,,,,,,,,,METAR,650.0
KAXS 120755Z AUTO 36005KT 10SM SCT100 05/M02 A3045 RMK AO2 T00491021,KAXS,2015-02-12T07:55:00Z,34.7,-99.33,4.9,-2.1,360,5,,10.0,30.448818,,,TRUE,TRUE,,,,,,,SCT,10000,,,,,,,VFR,,,,,,,,,,,,METAR,437.0
KAWO 120755Z AUTO 00000KT 10SM BKN120 08/07 A3023 RMK AO1,KAWO,2015-02-12T07:55:00Z,48.17,-122.17,8.0,7.0,0,0,,10.0,30.230314,,,TRUE,TRUE,,,,,,,BKN,12000,,,,,,,VFR,,,,,,,,,,,,METAR,42.0
KPVE 120755Z AUTO 35013KT 10SM SCT025 01/M05 A3018 RMK,KPVE,2015-02-12T07:55:00Z,35.65,-88.2,1.0,-5.0,350,13,,10.0,30.180119,,,TRUE,,,,,,,,SCT,2500,,,,,,,VFR,,,,,,,,,,,,METAR,149.0
KPVC 120755Z 32013KT 10SM OVC017 M03/M06 A2986 RMK AO1,KPVC,2015-02-12T07:55:00Z,42.07,-70.22,-3.0,-6.0,320,13,,10.0,29.861221,,,,TRUE,,,,,,,OVC,1700,,,,,,,MVFR,,,,,,,,,,,,METAR,2.0
KPUJ 120755Z AUTO 31006KT 10SM CLR 06/00 A3001 RMK AO2,KPUJ,2015-02-12T07:55:00Z,33.92,-84.93,6.0,0.0,310,6,,10.0,30.008858,,,TRUE,TRUE,,,,,,,CLR,,,,,,,,VFR,,,,,,,,,,,,METAR,393.0
KPTV 120755Z AUTO 09004KT 3SM CLR 09/07 A3020 RMK AO1 40190 0040,KPTV,2015-02-12T07:55:00Z,36.02,-119.07,9.0,7.0,90,4,,3.0,30.200787,,,TRUE,TRUE,,,,,,,CLR,,,,,,,,MVFR,,,,,,,,,,,,METAR,135.0
KPTN 120755Z AUTO 00000KT 2SM CLR 09/08 A3014 RMK AO1,KPTN,2015-02-12T07:55:00Z,29.72,-91.32,9.0,8.0,0,0,,2.0,30.138779,,,TRUE,TRUE,,,,,,,CLR,,,,,,,,IFR,,,,,,,,,,,,METAR,3.0
KPSO 120755Z AUTO 00000KT 10SM CLR M03/M04 A3044 RMK AO2 T10261037,KPSO,2015-02-12T07:55:00Z,37.28,-107.05,-2.6,-3.7,0,0,,10.0,30.43996,,,TRUE,TRUE,,,,,,,CLR,,,,,,,,VFR,,,,,,,,,,,,METAR,2334.0
KPRX 120755Z AUTO 35012G19KT 10SM CLR 05/M04 A3033 RMK AO1,KPRX,2015-02-12T07:55:00Z,33.62,-95.45,5.0,-4.0,350,12,19,10.0,30.33071,,,TRUE,TRUE,,,,,,,CLR,,,,,,,,VFR,,,,,,,,,,,,METAR,167.0
KPQI 120755Z AUTO 05004KT 10SM CLR M19/ A2988 RMK AO1,KPQI,2015-02-12T07:55:00Z,46.67,-68.03,-19.0,,50,4,,10.0,29.878937,,,TRUE,TRUE,,,,,,,CLR,,,,,,,,VFR,,,,,,,,,,,,METAR,146.0
KPIB 120755Z AUTO 34007KT 10SM CLR 09/01 A3014 RMK AO1,KPIB,2015-02-12T07:55:00Z,31.47,-89.32,9.0,1.0,340,7,,10.0,30.138779,,,TRUE,TRUE,,,,,,,CLR,,,,,,,,VFR,,,,,,,,,,,,METAR,91.0
KPHT 120755Z AUTO 35005KT 10SM CLR M03/M07 A3020 RMK,KPHT,2015-02-12T07:55:00Z,36.33,-88.38,-3.0,-7.0,350,5,,10.0,30.200787,,,TRUE,,,,,,,,CLR,,,,,,,,VFR,,,,,,,,,,,,METAR,177.0
KPEZ 120755Z AUTO 00000KT 10SM SCT004 BKN048 12/11 A3020 RMK AO2 T01220112,KPEZ,2015-02-12T07:55:00Z,28.95,-98.52,12.2,11.2,0,0,,10.0,30.200787,,,TRUE,TRUE,,,,,,,SCT,400,BKN,4800,,,,,VFR,,,,,,,,,,,,METAR,132.0
KPBH 120755Z AUTO 33007KT 7SM SCT021 OVC038 M16/M20 A3029 RMK AO2 T11641196,KPBH,2015-02-12T07:55:00Z,45.7,-90.4,-16.4,-19.6,330,7,,7.0,30.28937,,,TRUE,TRUE,,,,,,,SCT,2100,OVC,3800,,,,,VFR,,,,,,,,,,,,METAR,449.0
KPAN 120755Z AUTO 03007KT 10SM CLR 08/M04 A3033 RMK AO2,KPAN,2015-02-12T07:55:00Z,34.25,-111.33,8.0,-4.0,30,7,,10.0,30.33071,,,TRUE,TRUE,,,,,,,CLR,,,,,,,,VFR,,,,,,,,,,,,METAR,1572.0
KOZW 120755Z AUTO 36007KT 330V040 7SM -SN BKN020 BKN026 OVC055 M07/M10 A2994 RMK AO2 T10701103,KOZW,2015-02-12T07:55:00Z,42.62,-83.97,-7.0,-10.3,360,7,,7.0,29.940945,,,TRUE,TRUE,,,,,,-SN,BKN,2000,BKN,2600,OVC,5500,,,MVFR,,,,,,,,,,,,METAR,293.0
KOXC 120755Z 16003KT 10SM BKN090 OVC120 M07/M14 A2982 RMK AO1,KOXC,2015-02-12T07:55:00Z,41.47,-73.13,-7.0,-14.0,160,3,,10.0,29.819881,,,,TRUE,,,,,,,BKN,9000,OVC,12000,,,,,VFR,,,,,,,,,,,,METAR,222.0
KOWP 120755Z AUTO 03003KT 10SM CLR M01/M06 A3043 RMK AO2 T10151061,KOWP,2015-02-12T07:55:00Z,36.18,-96.15,-1.5,-6.1,30,3,,10.0,30.431103,,,TRUE,TRUE,,,,,,,CLR,,,,,,,,VFR,,,,,,,,,,,,METAR,272.0
KOTH 120755Z 12004KT 10SM CLR 07/07 A3023 RMK AO1,KOTH,2015-02-12T07:55:00Z,43.42,-124.25,7.0,7.0,120,4,,10.0,30.230314,,,,TRUE,,,,,,,CLR,,,,,,,,VFR,,,,,,,,,,,,METAR,4.0
KOTG 120755Z AUTO 34016G24KT 9SM BKN012 M19/M22 A3056 RMK AO1,KOTG,2015-02-12T07:55:00Z,43.63,-95.57,-19.0,-22.0,340,16,24,9.0,30.561024,,,TRUE,TRUE,,,,,,,BKN,1200,,,,,,,MVFR,,,,,,,,,,,,METAR,480.0
KORG 120755Z AUTO 00000KT 3SM BR CLR 09/09 A3018 RMK AO2 T00850085,KORG,2015-02-12T07:55:00Z,30.07,-93.8,8.5,8.5,0,0,,3.0,30.180119,,,TRUE,TRUE,,,,,,BR,CLR,,,,,,,,MVFR,,,,,,,,,,,,METAR,4.0
KONX 120755Z AUTO 00000KT 10SM CLR M01/M02 A2994 RMK AO2 T10091016,KONX,2015-02-12T07:55:00Z,36.4,-76.02,-0.9,-1.6,0,0,,10.0,29.940945,,,TRUE,TRUE,,,,,,,CLR,,,,,,,,VFR,,,,,,,,,,,,METAR,5.0
KOLU 120755Z AUTO 36011KT 10SM CLR M12/M21 A3060 RMK AO1,KOLU,2015-02-12T07:55:00Z,41.45,-97.32,-12.0,-21.0,360,11,,10.0,30.59941,,,TRUE,TRUE,,,,,,,CLR,,,,,,,,VFR,,,,,,,,,,,,METAR,440.0
KOKZ 120755Z AUTO 26004KT 10SM CLR 05/04 A2997 RMK AO2 T00520035 PNO,KOKZ,2015-02-12T07:55:00Z,32.97,-82.83,5.2,3.5,260,4,,10.0,29.970472,,,TRUE,TRUE,,,,,,,CLR,,,,,,,,VFR,,,,,,,,,,,,METAR,134.0
KOKK 120755Z AUTO 31017G20KT 10SM BKN040 M06/M10 A3006 RMK AO1,KOKK,2015-02-12T07:55:00Z,40.53,-86.07,-6.0,-10.0,310,17,20,10.0,30.059055,,,TRUE,TRUE,,,,,,,BKN,4000,,,,,,,VFR,,,,,,,,,,,,METAR,253.0
KOEB 120755Z AUTO 33012G19KT 1 3/4SM -SN BKN010 BKN015 OVC022 M05/M07 A2997 RMK AO2 T10521072,KOEB,2015-02-12T07:55:00Z,41.92,-85.03,-5.2,-7.2,330,12,19,1.75,29.970472,,,TRUE,TRUE,,,,,,-SN,BKN,1000,BKN,1500,OVC,2200,,,IFR,,,,,,,,,,,,METAR,292.0
KOCH 120755Z AUTO 36009KT 10SM CLR 10/05 A3023 RMK AO1,KOCH,2015-02-12T07:55:00Z,31.57,-94.72,10.0,5.0,360,9,,10.0,30.230314,,,TRUE,TRUE,,,,,,,CLR,,,,,,,,VFR,,,,,,,,,,,,METAR,108.0
KOCF 120755Z AUTO 00000KT 10SM CLR 03/01 A3004 RMK AO1,KOCF,2015-02-12T07:55:00Z,29.17,-82.22,3.0,1.0,0,0,,10.0,30.041338,,,TRUE,TRUE,,,,,,,CLR,,,,,,,,VFR,,,,,,,,,,,,METAR,27.0
KOBE 120755Z AUTO 00000KT 10SM CLR 07/07 A3006 RMK AO2,KOBE,2015-02-12T07:55:00Z,27.27,-80.85,7.0,7.0,0,0,,10.0,30.059055,,,TRUE,TRUE,,,,,,,CLR,,,,,,,,VFR,,,,,,,,,,,,METAR,11.0
KSGU 120755Z AUTO 15003KT 10SM CLR 09/M04 A3037 RMK AO1,KSGU,2015-02-12T07:55:00Z,37.07,-113.52,9.0,-4.0,150,3,,10.0,30.369095,,,TRUE,TRUE,,,,,,,CLR,,,,,,,,VFR,,,,,,,,,,,,METAR,896.0
KSGT 120755Z AUTO 36011KT 10SM BKN110 04/M03 A3031 RMK AO1,KSGT,2015-02-12T07:55:00Z,34.6,-91.57,4.0,-3.0,360,11,,10.0,30.31004,,,TRUE,TRUE,,,,,,,BKN,11000,,,,,,,VFR,,,,,,,,,,,,METAR,68.0
KSFZ 120755Z 02003KT 10SM CLR M14/M18 A2983 RMK AO1,KSFZ,2015-02-12T07:55:00Z,41.92,-71.5,-14.0,-18.0,20,3,,10.0,29.828741,,,,TRUE,,,,,,,CLR,,,,,,,,VFR,,,,,,,,,,,,METAR,134.0
KSFM 120755Z AUTO 00000KT 10SM CLR M18/M21 A2987 RMK AO1,KSFM,2015-02-12T07:55:00Z,43.38,-70.72,-18.0,-21.0,0,0,,10.0,29.870079,,,TRUE,TRUE,,,,,,,CLR,,,,,,,,VFR,,,,,,,,,,,,METAR,74.0
KSEM 120755Z AUTO 00000KT 10SM 03/01 A3008 RMK AO2,KSEM,2015-02-12T07:55:00Z,32.35,-86.98,3.0,1.0,0,0,,10.0,30.079725,,,TRUE,TRUE,,,,,,,,,,,,,,,,,,,,,,,,,,,METAR,51.0
KSDY 120755Z AUTO 13011KT 10SM CLR M14/M17 A3047 RMK AO1,KSDY,2015-02-12T07:55:00Z,47.7,-104.2,-14.0,-17.0,130,11,,10.0,30.469488,,,TRUE,TRUE,,,,,,,CLR,,,,,,,,VFR,,,,,,,,,,,,METAR,605.0
KSAR 120755Z AUTO 30007KT 10SM CLR M03/M07 A3025 RMK AO2 T10281066,KSAR,2015-02-12T07:55:00Z,38.15,-89.7,-2.8,-6.6,300,7,,10.0,30.250984,,,TRUE,TRUE,,,,,,,CLR,,,,,,,,VFR,,,,,,,,,,,,METAR,164.0
KRUT 120755Z 12009KT 10SM OVC050 M07/M13 A2975 RMK AO1,KRUT,2015-02-12T07:55:00Z,43.52,-72.95,-7.0,-13.0,120,9,,10.0,29.749016,,,,TRUE,,,,,,,OVC,5000,,,,,,,VFR,,,,,,,,,,,,METAR,240.0
KRSV 120755Z AUTO 33011G17KT 10SM OVC024 M04/M08 A3019 RMK AO2 T10371082,KRSV,2015-02-12T07:55:00Z,39.02,-87.65,-3.7,-8.2,330,11,17,10.0,30.188976,,,TRUE,TRUE,,,,,,,OVC,2400,,,,,,,MVFR,,,,,,,,,,,,METAR,141.0
KRSN 120755Z AUTO 00000KT 10SM CLR 05/04 A3024 RMK AO2 T00450042,KRSN,2015-02-12T07:55:00Z,32.52,-92.58,4.5,4.2,0,0,,10.0,30.239174,,,TRUE,TRUE,,,,,,,CLR,,,,,,,,VFR,,,,,,,,,,,,METAR,95.0
KRQO 120755Z AUTO 04008KT 10SM CLR M01/M05 A3042 RMK AO2,KRQO,2015-02-12T07:55:00Z,35.47,-98.0,-1.0,-5.0,40,8,,10.0,30.41929,,,TRUE,TRUE,,,,,,,CLR,,,,,,,,VFR,,,,,,,,,,,,METAR,432.0
KRPD 120755Z AUTO 32008KT 10SM CLR M17/M22 A3045 RMK AO2 T11751219,KRPD,2015-02-12T07:55:00Z,45.42,-91.77,-17.5,-21.9,320,8,,10.0,30.448818,,,TRUE,TRUE,,,,,,,CLR,,,,,,,,VFR,,,,,,,,,,,,METAR,338.0
KRKR 120755Z AUTO 35009G15KT 10SM OVC100 04/M04 A3041 RMK AO2 T00351042,KRKR,2015-02-12T07:55:00Z,35.02,-94.62,3.5,-4.2,350,9,15,10.0,30.410433,,,TRUE,TRUE,,,,,,,OVC,10000,,,,,,,VFR,,,,,,,,,,,,METAR,138.0
KRKD 120755Z AUTO 03009KT 10SM OVC019 M11/M13 A2987 RMK AO1,KRKD,2015-02-12T07:55:00Z,44.07,-69.08,-11.0,-13.0,30,9,,10.0,29.870079,,,TRUE,TRUE,,,,,,,OVC,1900,,,,,,,MVFR,,,,,,,,,,,,METAR,17.0
KRCX 120755Z AUTO 33010G16KT 10SM CLR M16/M20 A3038 RMK AO2 T11611200,KRCX,2015-02-12T07:55:00Z,45.5,-91.0,-16.1,-20.0,330,10,16,10.0,30.380905,,,TRUE,TRUE,,,,,,,CLR,,,,,,,,VFR,,,,,,,,,,,,METAR,377.0
KPWT 120755Z AUTO 00000KT 10SM SCT090 SCT110 09/09 A3025 RMK AO1,KPWT,2015-02-12T07:55:00Z,47.5,-122.75,9.0,9.0,0,0,,10.0,30.250984,,,TRUE,TRUE,,,,,,,SCT,9000,SCT,11000,,,,,VFR,,,,,,,,,,,,METAR,147.0
KPWG 120755Z AUTO 35012G18KT 10SM CLR 08/00 A3033 RMK AO1,KPWG,2015-02-12T07:55:00Z,31.47,-97.32,8.0,0.0,350,12,18,10.0,30.33071,,,TRUE,TRUE,,,,,,,CLR,,,,,,,,VFR,,,,,,,,,,,,METAR,180.0
KPVU 120755Z AUTO 26005KT 10SM CLR 02/M01 A3042 RMK AO1,KPVU,2015-02-12T07:55:00Z,40.22,-111.72,2.0,-1.0,260,5,,10.0,30.41929,,,TRUE,TRUE,,,,,,,CLR,,,,,,,,VFR,,,,,,,,,,,,METAR,1369.0
KPVG 120755Z AUTO 18004KT 10SM CLR M02/M04 A2993 RMK AO1,KPVG,2015-02-12T07:55:00Z,36.78,-76.45,-2.0,-4.0,180,4,,10.0,29.929134,,,TRUE,TRUE,,,,,,,CLR,,,,,,,,VFR,,,,,,,,,,,,METAR,7.0
KLKV 120755Z 36005KT 10SM CLR 00/M03 A3032 RMK AO1,KLKV,2015-02-12T07:55:00Z,42.17,-120.4,0.0,-3.0,360,5,,10.0,30.318897,,,,TRUE,,,,,,,CLR,,,,,,,,VFR,,,,,,,,,,,,METAR,1441.0
KLKR 120755Z AUTO 00000KT 10SM -RA CLR 03/03 A2991 RMK AO2,KLKR,2015-02-12T07:55:00Z,34.72,-80.85,3.0,3.0,0,0,,10.0,29.911417,,,TRUE,TRUE,,,,,,-RA,CLR,,,,,,,,VFR,,,,,,,,,,,,METAR,149.0
KLHB 120755Z AUTO 34011G15KT 10SM OVC055 12/05 A3028 RMK AO2 T01200050,KLHB,2015-02-12T07:55:00Z,30.87,-96.62,12.0,5.0,340,11,15,10.0,30.280512,,,TRUE,TRUE,,,,,,,OVC,5500,,,,,,,VFR,,,,,,,,,,,,METAR,87.0
KLGD 120755Z AUTO 15013KT 10SM CLR 08/00 A3029 RMK AO1,KLGD,2015-02-12T07:55:00Z,45.27,-118.0,8.0,0.0,150,13,,10.0,30.28937,,,TRUE,TRUE,,,,,,,CLR,,,,,,,,VFR,,,,,,,,,,,,METAR,827.0
KLEW 120755Z AUTO 00000KT 10SM CLR M17/M19 A2986 RMK AO1,KLEW,2015-02-12T07:55:00Z,44.03,-70.27,-17.0,-19.0,0,0,,10.0,29.861221,,,TRUE,TRUE,,,,,,,CLR,,,,,,,,VFR,,,,,,,,,,,,METAR,88.0
KLCI 120755Z AUTO 00000KT 10SM OVC110 M15/M17 A2983 RMK AO1,KLCI,2015-02-12T07:55:00Z,43.57,-71.42,-15.0,-17.0,0,0,,10.0,29.828741,,,TRUE,TRUE,,,,,,,OVC,11000,,,,,,,VFR,,,,,,,,,,,,METAR,166.0
KLBL 120755Z AUTO 26008KT 10SM CLR M03/M08 A3041 RMK AO1,KLBL,2015-02-12T07:55:00Z,37.03,-100.97,-3.0,-8.0,260,8,,10.0,30.410433,,,TRUE,TRUE,,,,,,,CLR,,,,,,,,VFR,,,,,,,,,,,,METAR,879.0
KL18 120755Z AUTO 02010G17KT 10SM CLR 20/M07 A3006 RMK AO2,KL18,2015-02-12T07:55:00Z,33.35,-117.25,20.0,-7.0,20,10,17,10.0,30.059055,,,TRUE,TRUE,,,,,,,CLR,,,,,,,,VFR,,,,,,,,,,,,METAR,216.0
KKLS 120755Z 00000KT 10SM OVC110 10/07 A3027 RMK AO1,KKLS,2015-02-12T07:55:00Z,46.12,-122.9,10.0,7.0,0,0,,10.0,30.268702,,,,TRUE,,,,,,,OVC,11000,,,,,,,VFR,,,,,,,,,,,,METAR,5.0
KJYM 120755Z AUTO 30007KT 3SM -SN BKN015 OVC019 M05/M06 A2993 RMK AO2 T10461058,KJYM,2015-02-12T07:55:00Z,41.92,-84.58,-4.6,-5.8,300,7,,3.0,29.929134,,,TRUE,TRUE,,,,,,-SN,BKN,1500,OVC,1900,,,,,MVFR,,,,,,,,,,,,METAR,360.0
KJYG 120755Z AUTO 32018G23KT 10SM CLR M17/M21 A3059 RMK AO2,KJYG,2015-02-12T07:55:00Z,43.98,-94.55,-17.0,-21.0,320,18,23,10.0,30.590551,,,TRUE,TRUE,,,,,,,CLR,,,,,,,,VFR,,,,,,,,,,,,METAR,325.0
KJQF 120755Z AUTO 00000KT 10SM CLR 01/00 A2993 RMK AO2,KJQF,2015-02-12T07:55:00Z,35.38,-80.72,1.0,0.0,0,0,,10.0,29.929134,,,TRUE,TRUE,,,,,,,CLR,,,,,,,,VFR,,,,,,,,,,,,METAR,210.0
KJKA 120755Z AUTO 31003KT 4SM BR CLR 06/06 A3008 RMK AO2 T00570055,KJKA,2015-02-12T07:55:00Z,30.28,-87.67,5.7,5.5,310,3,,4.0,30.079725,,,TRUE,TRUE,,,,,,BR,CLR,,,,,,,,MVFR,,,,,,,,,,,,METAR,5.0
KJHW 120755Z 4SM BKN010 BKN016 OVC060 M05/M07 A2975 RMK AO1,KJHW,2015-02-12T07:55:00Z,42.13,-79.27,-5.0,-7.0,,,,4.0,29.749016,,,,TRUE,,,,,,,BKN,1000,BKN,1600,OVC,6000,,,MVFR,,,,,,,,,,,,METAR,525.0
KJHN 120755Z AUTO 24009KT 10SM CLR M02/M07 A3040 RMK AO2 T10171066,KJHN,2015-02-12T07:55:00Z,37.58,-101.73,-1.7,-6.6,240,9,,10.0,30.398623,,,TRUE,TRUE,,,,,,,CLR,,,,,,,,VFR,,,,,,,,,,,,METAR,1013.0
KJDD 120755Z AUTO 35010G18KT 040V010 10SM CLR 07/00 A3031 RMK AO2,KJDD,2015-02-12T07:55:00Z,32.75,-95.5,7.0,0.0,350,10,18,10.0,30.31004,,,TRUE,TRUE,,,,,,,CLR,,,,,,,,VFR,,,,,,,,,,,,METAR,132.0
KJAC 120755Z AUTO 01008KT 10SM FEW110 M06/M07 A3040 RMK AO1,KJAC,2015-02-12T07:55:00Z,43.62,-110.73,-6.0,-7.0,10,8,,10.0,30.398623,,,TRUE,TRUE,,,,,,,FEW,11000,,,,,,,VFR,,,,,,,,,,,,METAR,1961.0
KIWD 120755Z AUTO 36011G17KT 1 1/4SM OVC013 M16/M17 A3034 RMK AO1,KIWD,2015-02-12T07:55:00Z,46.52,-90.12,-16.0,-17.0,360,11,17,1.25,30.339567,,,TRUE,TRUE,,,,,,,OVC,1300,,,,,,,IFR,,,,,,,,,,,,METAR,375.0
KISQ 120755Z AUTO 36011KT 2 1/2SM -SN SCT010 BKN025 OVC033 M15/M17 A3014 RMK AO2 T11461170,KISQ,2015-02-12T07:55:00Z,45.97,-86.17,-14.6,-17.0,360,11,,2.5,30.138779,,,TRUE,TRUE,,,,,,-SN,SCT,1000,BKN,2500,OVC,3300,,,IFR,,,,,,,,,,,,METAR,209.0
KIRS 120755Z AUTO 33006KT 5SM -SN SCT014 BKN025 OVC049 M06/M08 A2999 RMK AO2,KIRS,2015-02-12T07:55:00Z,41.8,-85.43,-6.0,-8.0,330,6,,5.0,29.991142,,,TRUE,TRUE,,,,,,-SN,SCT,1400,BKN,2500,OVC,4900,,,MVFR,,,,,,,,,,,,METAR,282.0
KIPJ 120755Z AUTO 00000KT 10SM CLR 00/M01 A2989 RMK AO2 T10041009,KIPJ,2015-02-12T07:55:00Z,35.48,-81.17,-0.4,-0.9,0,0,,10.0,29.890747,,,TRUE,TRUE,,,,,,,CLR,,,,,,,,VFR,,,,,,,,,,,,METAR,267.0
KFYM 120755Z AUTO 36006KT 10SM OVC037 02/M01 A3008 RMK,KFYM,2015-02-12T07:55:00Z,35.07,-86.57,2.0,-1.0,360,6,,10.0,30.079725,,,TRUE,,,,,,,,OVC,3700,,,,,,,VFR,,,,,,,,,,,,METAR,300.0
KFWZ 120755Z AUTO 26005KT 10SM CLR 01/M16 A3023 RMK AO2,KFWZ,2015-02-12T07:55:00Z,42.52,-108.78,1.0,-16.0,260,5,,10.0,30.230314,,,TRUE,TRUE,,,,,,,CLR,,,,,,,,VFR,,,,,,,,,,,,METAR,2588.0
KFVX 120755Z AUTO 24005KT 10SM CLR 03/00 A2984 RMK AO2 T00251005,KFVX,2015-02-12T07:55:00Z,37.35,-78.42,2.5,-0.5,240,5,,10.0,29.840551,,,TRUE,TRUE,,,,,,,CLR,,,,,,,,VFR,,,,,,,,,,,,METAR,125.0
KFSE 120755Z AUTO 00000KT 7SM CLR M29/M32 A3062 RMK AO2,KFSE,2015-02-12T07:55:00Z,47.58,-95.77,-29.0,-32.0,0,0,,7.0,30.620079,,,TRUE,TRUE,,,,,,,CLR,,,,,,,,VFR,,,,,,,,,,,,METAR,389.0
KFRR 120755Z AUTO 00000KT 10SM OVC044 01/M01 A2982 RMK AO1,KFRR,2015-02-12T07:55:00Z,38.92,-78.25,1.0,-1.0,0,0,,10.0,29.819881,,,TRUE,TRUE,,,,,,,OVC,4400,,,,,,,VFR,,,,,,,,,,,,METAR,216.0
KFRM 120755Z AUTO 32020KT 10SM SCT017 M17/M22 A3053 RMK AO1,KFRM,2015-02-12T07:55:00Z,43.63,-94.42,-17.0,-22.0,320,20,,10.0,30.528543,,,TRUE,TRUE,,,,,,,SCT,1700,,,,,,,VFR,,,,,,,,,,,,METAR,354.0
KFPK 120755Z AUTO 32013G17KT 10SM SCT046 OVC055 M07/M12 A2997 RMK AO2 T10671120,KFPK,2015-02-12T07:55:00Z,42.57,-84.82,-6.7,-12.0,320,13,17,10.0,29.970472,,,TRUE,TRUE,,,,,,,SCT,4600,OVC,5500,,,,,VFR,,,,,,,,,,,,METAR,272.0
KFOD 120755Z AUTO 34013G18KT 10SM BKN016 BKN021 M17/M21 A3054 RMK AO1,KFOD,2015-02-12T07:55:00Z,42.53,-94.17,-17.0,-21.0,340,13,18,10.0,30.540354,,,TRUE,TRUE,,,,,,,BKN,1600,BKN,2100,,,,,MVFR,,,,,,,,,,,,METAR,355.0
KFNL 120755Z AUTO 01004KT 10SM CLR M01/M04 A3035 RMK AO1,KFNL,2015-02-12T07:55:00Z,40.45,-105.02,-1.0,-4.0,10,4,,10.0,30.351377,,,TRUE,TRUE,,,,,,,CLR,,,,,,,,VFR,,,,,,,,,,,,METAR,1529.0
KFMM 120755Z AUTO 25005KT 10SM CLR M01/M05 A3035 RMK AO2 T10141053,KFMM,2015-02-12T07:55:00Z,40.33,-103.8,-1.4,-5.3,250,5,,10.0,30.351377,,,TRUE,TRUE,,,,,,,CLR,,,,,,,,VFR,,,,,,,,,,,,METAR,1393.0
KFMH 120755Z AUTO 31006G12KT 10SM OVC019 M06/M09 A2986 RMK AO2,KFMH,2015-02-12T07:55:00Z,41.63,-70.52,-6.0,-9.0,310,6,12,10.0,29.861221,,,TRUE,TRUE,,,,,,,OVC,1900,,,,,,,MVFR,,,,,,,,,,,,METAR,40.0
KFLP 120755Z 29005KT 10SM CLR M02/M08 A3035 RMK AO1,KFLP,2015-02-12T07:55:00Z,36.28,-92.58,-2.0,-8.0,290,5,,10.0,30.351377,,,,TRUE,,,,,,,CLR,,,,,,,,VFR,,,,,,,,,,,,METAR,219.0
KFKL 120755Z AUTO 29006KT 5SM FEW008 FEW016 OVC025 M04/M07 A2982 RMK AO1,KFKL,2015-02-12T07:55:00Z,41.37,-79.87,-4.0,-7.0,290,6,,5.0,29.819881,,,TRUE,TRUE,,,,,,,FEW,800,FEW,1600,OVC,2500,,,MVFR,,,,,,,,,,,,METAR,469.0
KFEP 120755Z AUTO 33012KT 1 3/4SM -SN BKN013 OVC023 M10/M12 A3024 RMK AO2 T11031122,KFEP,2015-02-12T07:55:00Z,42.25,-89.58,-10.3,-12.2,330,12,,1.75,30.239174,,,TRUE,TRUE,,,,,,-SN,BKN,1300,OVC,2300,,,,,IFR,,,,,,,,,,,,METAR,262.0
KFCI 120755Z AUTO 00000KT 10SM CLR M02/M08 A2987 RMK AO1,KFCI,2015-02-12T07:55:00Z,37.4,-77.52,-2.0,-8.0,0,0,,10.0,29.870079,,,TRUE,TRUE,,,,,,,CLR,,,,,,,,VFR,,,,,,,,,,,,METAR,72.0
KFBR 120755Z AUTO 24008KT 10SM CLR 00/M03 A3041 RMK AO2 T00031031,KFBR,2015-02-12T07:55:00Z,41.4,-110.4,0.3,-3.1,240,8,,10.0,30.410433,,,TRUE,TRUE,,,,,,,CLR,,,,,,,,VFR,,,,,,,,,,,,METAR,2144.0
KFAM 120755Z AUTO 30009KT 10SM CLR M03/M08 A3027 RMK AO1,KFAM,2015-02-12T07:55:00Z,37.77,-90.42,-3.0,-8.0,300,9,,10.0,30.268702,,,TRUE,TRUE,,,,,,,CLR,,,,,,,,VFR,,,,,,,,,,,,METAR,288.0
KVLL 120755Z AUTO 34010KT 10SM OVC060 M05/M10 A2995 RMK AO2 T10461100,KVLL,2015-02-12T07:55:00Z,42.55,-83.18,-4.6,-10.0,340,10,,10.0,29.949802,,,TRUE,TRUE,,,,,,,OVC,6000,,,,,,,VFR,,,,,,,,,,,,METAR,222.0
KVIS 120755Z AUTO 00000KT 4SM CLR 10/07 A3020 RMK AO1 40190 0060,KVIS,2015-02-12T07:55:00Z,36.32,-119.4,10.0,7.0,0,0,,4.0,30.200787,,,TRUE,TRUE,,,,,,,CLR,,,,,,,,MVFR,,,,,,,,,,,,METAR,89.0
KVDI 120755Z AUTO 25003KT 10SM CLR 07/06 A2999 RMK AO2,KVDI,2015-02-12T07:55:00Z,32.2,-82.37,7.0,6.0,250,3,,10.0,29.991142,,,TRUE,TRUE,,,,,,,CLR,,,,,,,,VFR,,,,,,,,,,,,METAR,84.0
KVBT 120755Z AUTO 02004KT 10SM CLR M03/M08 A3038 RMK AO1,KVBT,2015-02-12T07:55:00Z,36.35,-94.22,-3.0,-8.0,20,4,,10.0,30.380905,,,TRUE,TRUE,,,,,,,CLR,,,,,,,,VFR,,,,,,,,,,,,METAR,395.0
KVBG 120755Z AUTO 11006KT 10SM CLR 13/07 A3011 RMK AO2 SLP187 T01330072 402670067 TSNO $,KVBG,2015-02-12T07:55:00Z,34.73,-120.58,13.3,7.2,110,6,,10.0,30.109253,1018.7,,TRUE,TRUE,TRUE,,TRUE,,,,CLR,,,,,,,,VFR,,,,26.7,6.7,,,,,,,METAR,112.0
KSOW 120755Z AUTO 33005KT 10SM CLR M03/M05 A3037 RMK AO2,KSOW,2015-02-12T07:55:00Z,34.27,-110.0,-3.0,-5.0,330,5,,10.0,30.369095,,,TRUE,TRUE,,,,,,,CLR,,,,,,,,VFR,,,,,,,,,,,,METAR,1954.0
KSMS 120755Z AUTO 00000KT 10SM CLR 02/01 A2993 RMK AO2,KSMS,2015-02-12T07:55:00Z,34.0,-80.37,2.0,1.0,0,0,,10.0,29.929134,,,TRUE,TRUE,,,,,,,CLR,,,,,,,,VFR,,,,,,,,,,,,METAR,56.0
KSCK 120755Z AUTO 21003KT 8SM CLR 10/09 A3019 RMK AO2 SLP222 T01000094 402000039,KSCK,2015-02-12T07:55:00Z,37.88,-121.22,10.0,9.4,210,3,,8.0,30.188976,1022.2,,TRUE,TRUE,,,,,,,CLR,,,,,,,,VFR,,,,20.0,3.9,,,,,,,METAR,10.0
KRNO 120755Z 00000KT 10SM SCT250 04/01 A3034 RMK AO2 SLP261 T00440006 401561011,KRNO,2015-02-12T07:55:00Z,39.5,-119.77,4.4,0.6,0,0,,10.0,30.339567,1026.1,,,TRUE,,,,,,,SCT,25000,,,,,,,VFR,,,,15.6,-1.1,,,,,,,METAR,1342.0
KRBW 120755Z AUTO 00000KT 10SM CLR 04/ A2996 RMK AO2,KRBW,2015-02-12T07:55:00Z,32.92,-80.63,4.0,,0,0,,10.0,29.958662,,,TRUE,TRUE,,,,,,,CLR,,,,,,,,VFR,,,,,,,,,,,,METAR,31.0
KPHP 120755Z AUTO 10009KT 10SM OVC020 M13/M17 A3058 RMK AO2 SLP387 T11331172,KPHP,2015-02-12T07:55:00Z,44.05,-101.6,-13.3,-17.2,100,9,,10.0,30.578741,1038.7,,TRUE,TRUE,,,,,,,OVC,2000,,,,,,,MVFR,,,,,,,,,,,,METAR,672.0
KZPH 120755Z AUTO 00000KT 10SM CLR 04/04 A3007 RMK AO2,KZPH,2015-02-12T07:55:00Z,28.23,-82.15,4.0,4.0,0,0,,10.0,30.070866,,,TRUE,TRUE,,,,,,,CLR,,,,,,,,VFR,,,,,,,,,,,,METAR,26.0
KUGN 120755Z AUTO 32009KT 10SM FEW032 BKN060 OVC110 M09/M15 A3015 RMK AO2 SLP225 T10941150,KUGN,2015-02-12T07:55:00Z,42.42,-87.87,-9.4,-15.0,320,9,,10.0,30.15059,1022.5,,TRUE,TRUE,,,,,,,FEW,3200,BKN,6000,OVC,11000,,,VFR,,,,,,,,,,,,METAR,222.0
KUCY 120755Z AUTO 34012KT 10SM CLR M02/M06 A3022 RMK,KUCY,2015-02-12T07:55:00Z,36.38,-88.98,-2.0,-6.0,340,12,,10.0,30.221457,,,TRUE,,,,,,,,CLR,,,,,,,,VFR,,,,,,,,,,,,METAR,104.0
KTPF 120755Z AUTO 00000KT 10SM CLR 11/09 A3006 RMK AO2,KTPF,2015-02-12T07:55:00Z,27.92,-82.45,11.0,9.0,0,0,,10.0,30.059055,,,TRUE,TRUE,,,,,,,CLR,,,,,,,,VFR,,,,,,,,,,,,METAR,3.0
KSYI 120755Z AUTO 33009KT 10SM BKN023 OVC038 03/00 A3011 RMK,KSYI,2015-02-12T07:55:00Z,35.57,-86.45,3.0,0.0,330,9,,10.0,30.109253,,,TRUE,,,,,,,,BKN,2300,OVC,3800,,,,,MVFR,,,,,,,,,,,,METAR,245.0
KSVC 120755Z AUTO 14003KT 10SM CLR 02/M02 A3034 RMK AO2,KSVC,2015-02-12T07:55:00Z,32.63,-108.15,2.0,-2.0,140,3,,10.0,30.339567,,,TRUE,TRUE,,,,,,,CLR,,,,,,,,VFR,,,,,,,,,,,,METAR,1659.0
KSTF 120755Z AUTO 33004KT 10SM CLR 05/01 A3015 RMK AO2,KSTF,2015-02-12T07:55:00Z,33.43,-88.85,5.0,1.0,330,4,,10.0,30.15059,,,TRUE,TRUE,,,,,,,CLR,,,,,,,,VFR,,,,,,,,,,,,METAR,102.0
KMRC 120755Z AUTO 35007KT OVC024 04/03 A3011 RMK,KMRC,2015-02-12T07:55:00Z,35.55,-87.18,4.0,3.0,350,7,,,30.109253,,,TRUE,,,,,,,,OVC,2400,,,,,,,,,,,,,,,,,,,METAR,208.0
KMMI 120755Z AUTO 00000KT 10SM CLR M03/M03 A3006 RMK,KMMI,2015-02-12T07:55:00Z,35.4,-84.57,-3.0,-3.0,0,0,,10.0,30.059055,,,TRUE,,,,,,,,CLR,,,,,,,,VFR,,,,,,,,,,,,METAR,266.0
KMKG 120755Z AUTO 36018G22KT 5SM UP FEW024 OVC038 M08/M14 A3009 RMK AO2 PK WND 34027/0707 UPB26E29B53SNE26 SLP199 P0000 T10831139,KMKG,2015-02-12T07:55:00Z,43.17,-86.23,-8.3,-13.9,360,18,22,5.0,30.088583,1019.9,,TRUE,TRUE,,,,,,UP,FEW,2400,OVC,3800,,,,,MVFR,,,,,,0.0050,,,,,,METAR,191.0
KMER 120755Z AUTO 00000KT 10/10 A3020 RMK AO1,KMER,2015-02-12T07:55:00Z,37.38,-120.57,10.0,10.0,0,0,,,30.200787,,,TRUE,TRUE,,,,,,,,,,,,,,,,,,,,,,,,,,,METAR,57.0
KMCJ 120755Z AUTO 33009KT 9SM CLR 14/08 A3014 RMK AO1,KMCJ,2015-02-12T07:55:00Z,29.72,-95.4,14.0,8.0,330,9,,9.0,30.138779,,,TRUE,TRUE,,,,,,,CLR,,,,,,,,VFR,,,,,,,,,,,,METAR,69.0
KLLJ 120755Z AUTO 16005KT 10SM CLR 00/M02 A3037 RMK AO2 SLP293 T00001017,KLLJ,2015-02-12T07:55:00Z,44.52,-114.22,0.0,-1.7,160,5,,10.0,30.369095,1029.3,,TRUE,TRUE,,,,,,,CLR,,,,,,,,VFR,,,,,,,,,,,,METAR,1536.0
KLIC 120755Z AUTO 02003KT 10SM CLR M07/M09 A3038 RMK AO2 SLP302 T10721094,KLIC,2015-02-12T07:55:00Z,39.27,-103.67,-7.2,-9.4,20,3,,10.0,30.380905,1030.2,,TRUE,TRUE,,,,,,,CLR,,,,,,,,VFR,,,,,,,,,,,,METAR,1630.0
KLBE 120755Z AUTO 24008KT 2SM -RA OVC009 00/00 A2984 RMK AO2 P0001,KLBE,2015-02-12T07:55:00Z,40.27,-79.4,0.0,0.0,240,8,,2.0,29.840551,,,TRUE,TRUE,,,,,,-RA,OVC,900,,,,,,,IFR,,,,,,0.01,,,,,,METAR,361.0
KIRK 120755Z AUTO 33019G33KT 9SM -SN FEW023 SCT028 OVC039 M08/M13 A3038 RMK AO2 PK WND 34033/0729 SLP306 P0000 T10831133,KIRK,2015-02-12T07:55:00Z,40.1,-92.55,-8.3,-13.3,330,19,33,9.0,30.380905,1030.6,,TRUE,TRUE,,,,,,-SN,FEW,2300,SCT,2800,OVC,3900,,,VFR,,,,,,0.0050,,,,,,METAR,293.0
KINL 120755Z AUTO 35006KT 10SM CLR M23/M26 A3058 RMK AO2 SLP393 T12281261,KINL,2015-02-12T07:55:00Z,48.57,-93.4,-22.8,-26.1,350,6,,10.0,30.578741,1039.3,,TRUE,TRUE,,,,,,,CLR,,,,,,,,VFR,,,,,,,,,,,,METAR,360.0
KHZE 120755Z AUTO 14007KT 10SM CLR M19/M24 A3060 RMK AO2,KHZE,2015-02-12T07:55:00Z,47.28,-101.58,-19.0,-24.0,140,7,,10.0,30.59941,,,TRUE,TRUE,,,,,,,CLR,,,,,,,,VFR,,,,,,,,,,,,METAR,553.0
KHON 120755Z AUTO 36009KT 10SM CLR M18/M22 A3069 RMK AO2 SLP423 T11781217,KHON,2015-02-12T07:55:00Z,44.38,-98.23,-17.8,-21.7,360,9,,10.0,30.690945,1042.3,,TRUE,TRUE,,,,,,,CLR,,,,,,,,VFR,,,,,,,,,,,,METAR,390.0
KHAE 120755Z AUTO 31020G25KT 10SM -SN OVC027 M02/M09 A3029 RMK AO2,KHAE,2015-02-12T07:55:00Z,39.73,-91.45,-2.0,-9.0,310,20,25,10.0,30.28937,,,TRUE,TRUE,,,,,,-SN,OVC,2700,,,,,,,MVFR,,,,,,,,,,,,METAR,234.0
KGZL 120755Z AUTO 36009G15KT 10SM BKN110 01/M08 A3043 RMK AO2,KGZL,2015-02-12T07:55:00Z,35.28,-95.1,1.0,-8.0,360,9,15,10.0,30.431103,,,TRUE,TRUE,,,,,,,BKN,11000,,,,,,,VFR,,,,,,,,,,,,METAR,183.0
KEAT 120755Z AUTO 26006KT 10SM FEW110 07/05 A3025 RMK AO2 SLP250 T00720050 401060067,KEAT,2015-02-12T07:55:00Z,47.4,-120.2,7.2,5.0,260,6,,10.0,30.250984,1025.0,,TRUE,TRUE,,,,,,,FEW,11000,,,,,,,VFR,,,,10.6,6.7,,,,,,,METAR,377.0
KDLH 120755Z 34009G20KT 10SM CLR M20/M25 A3046 RMK AO2 PRESRR SLP355 T12001250,KDLH,2015-02-12T07:55:00Z,46.85,-92.2,-20.0,-25.0,340,9,20,10.0,30.46063,1035.5,,,TRUE,,,,,,,CLR,,,,,,,,VFR,,,,,,,,,,,,METAR,435.0
KCNK 120755Z AUTO 01015G20KT 10SM OVC040 M02/M08 A3050 RMK AO2 SLP342 T10221078,KCNK,2015-02-12T07:55:00Z,39.55,-97.65,-2.2,-7.8,10,15,20,10.0,30.499016,1034.2,,TRUE,TRUE,,,,,,,OVC,4000,,,,,,,VFR,,,,,,,,,,,,METAR,447.0
KCMA 120755Z 08015KT 10SM CLR 22/M05 A3009 RMK AO2 SLP195 T02171050 402830111,KCMA,2015-02-12T07:55:00Z,34.22,-119.1,21.7,-5.0,80,15,,10.0,30.088583,1019.5,,,TRUE,,,,,,,CLR,,,,,,,,VFR,,,,28.3,11.1,,,,,,,METAR,23.0
KCGC 120755Z AUTO 00000KT 10SM CLR 03/02 A3005 RMK AO2,KCGC,2015-02-12T07:55:00Z,28.87,-82.57,3.0,2.0,0,0,,10.0,30.050198,,,TRUE,TRUE,,,,,,,CLR,,,,,,,,VFR,,,,,,,,,,,,METAR,3.0
KCAO 120755Z AUTO 36004KT 10SM CLR M01/M06 A3042 RMK AO2 SLP313 T10111056,KCAO,2015-02-12T07:55:00Z,36.45,-103.15,-1.1,-5.6,360,4,,10.0,30.41929,1031.3,,TRUE,TRUE,,,,,,,CLR,,,,,,,,VFR,,,,,,,,,,,,METAR,1514.0
KBXK 120755Z AUTO 06011G17KT 10SM CLR 20/M03 A3012 RMK AO1,KBXK,2015-02-12T07:55:00Z,33.42,-112.68,20.0,-3.0,60,11,17,10.0,30.121063,,,TRUE,TRUE,,,,,,,CLR,,,,,,,,VFR,,,,,,,,,,,,METAR,315.0
KAST 120755Z AUTO 00000KT 10SM BKN090 OVC100 11/09 A3019 RMK AO2 SLP224 T01060089 401330056,KAST,2015-02-12T07:55:00Z,46.15,-123.88,10.6,8.9,0,0,,10.0,30.188976,1022.4,,TRUE,TRUE,,,,,,,BKN,9000,OVC,10000,,,,,VFR,,,,13.3,5.6,,,,,,,METAR,3.0
KANJ 120755Z AUTO 35011G19KT 10SM FEW090 BKN120 M19/M26 A3009 RMK AO2 SLP204 T11941256,KANJ,2015-02-12T07:55:00Z,46.47,-84.37,-19.4,-25.6,350,11,19,10.0,30.088583,1020.4,,TRUE,TRUE,,,,,,,FEW,9000,BKN,12000,,,,,VFR,,,,,,,,,,,,METAR,218.0
KAIB 120755Z AUTO 10008KT 10SM CLR 00/M06 A3046 RMK AO2,KAIB,2015-02-12T07:55:00Z,38.23,-108.57,0.0,-6.0,100,8,,10.0,30.46063,,,TRUE,TRUE,,,,,,,CLR,,,,,,,,VFR,,,,,,,,,,,,METAR,1811.0
KAAT 120755Z AUTO 07003KT 8SM CLR 03/M01 A3031 RMK AO2 SLP259 T00331006 401561022,KAAT,2015-02-12T07:55:00Z,41.48,-120.57,3.3,-0.6,70,3,,8.0,30.31004,1025.9,,TRUE,TRUE,,,,,,,CLR,,,,,,,,VFR,,,,15.6,-2.2,,,,,,,METAR,1331.0
KAAF 120755Z AUTO 00000KT 1 1/4SM BR SCT002 08/06 A3006 RMK AO2 T00780056 $,KAAF,2015-02-12T07:55:00Z,29.73,-85.03,7.8,5.6,0,0,,1.25,30.059055,,,TRUE,TRUE,TRUE,,,,,BR,SCT,200,,,,,,,IFR,,,,,,,,,,,,METAR,5.0
K4M9 120755Z AUTO 32007KT 10SM CLR 00/M05 A3030 RMK AO2,K4M9,2015-02-12T07:55:00Z,36.4,-90.65,0.0,-5.0,320,7,,10.0,30.301182,,,TRUE,TRUE,,,,,,,CLR,,,,,,,,VFR,,,,,,,,,,,,METAR,90.0
K46D 120755Z AUTO 10SM CLR M23/M25 A3065 RMK AO2,K46D,2015-02-12T07:55:00Z,47.45,-99.15,-23.0,-25.0,,,,10.0,30.649607,,,TRUE,TRUE,,,,,,,CLR,,,,,,,,VFR,,,,,,,,,,,,METAR,490.0
K42J 120755Z AUTO 00000KT 9SM CLR 04/04 A3004 RMK AO1 TSNO,K42J,2015-02-12T07:55:00Z,29.85,-82.05,4.0,4.0,0,0,,9.0,30.041338,,,TRUE,TRUE,,,TRUE,,,,CLR,,,,,,,,VFR,,,,,,,,,,,,METAR,60.0
K2D5 120755Z AUTO 35008KT 10SM M22/M24 A3069 RMK AO2,K2D5,2015-02-12T07:55:00Z,46.17,-98.08,-22.0,-24.0,350,8,,10.0,30.690945,,,TRUE,TRUE,,,,,,,,,,,,,,,,,,,,,,,,,,,METAR,407.0
KSCD 120755Z AUTO 00000KT 10SM CLR 01/01 A3007 RMK AO2 T00050005,KSCD,2015-02-12T07:55:00Z,33.17,-86.3,0.5,0.5,0,0,,10.0,30.070866,,,TRUE,TRUE,,,,,,,CLR,,,,,,,,VFR,,,,,,,,,,,,METAR,173.0
PAAD 120755Z AUTO 06014KT 10SM FEW028 SCT038 M28/M32 A3020 RMK AO2,PAAD,2015-02-12T07:55:00Z,70.13,-146.28,-28.0,-32.0,60,14,,10.0,30.200787,,,TRUE,TRUE,,,,,,,FEW,2800,SCT,3800,,,,,VFR,,,,,,,,,,,,METAR,8.0
KNKX 120755Z 05004KT 10SM CLR 15/M07 A3004 RMK AO2 SLP166 T01501067 403000100 ,KNKX,2015-02-12T07:55:00Z,32.87,-117.13,15.0,-6.7,50,4,,10.0,30.041338,1016.6,,,TRUE,,,,,,,CLR,,,,,,,,VFR,,,,30.0,10.0,,,,,,,METAR,146.0
KEQA 120755Z AUTO 35003KT 10SM CLR M04/M07 A3043 RMK AO2,KEQA,2015-02-12T07:55:00Z,37.78,-96.82,-4.0,-7.0,350,3,,10.0,30.431103,,,TRUE,TRUE,,,,,,,CLR,,,,,,,,VFR,,,,,,,,,,,,METAR,420.0
KEMK 120755Z AUTO 00000KT 10SM SCT021 20/14 A3012 RMK A01,KEMK,2015-02-12T07:55:00Z,27.82,-94.32,20.0,14.0,0,0,,10.0,30.121063,,,TRUE,TRUE,,,,,,,SCT,2100,,,,,,,VFR,,,,,,,,,,,,METAR,26.0
KEIR 120755Z AUTO 03006KT 10SM BKN021 BKN025 16/13 A3014 RMK A01,KEIR,2015-02-12T07:55:00Z,28.63,-91.48,16.0,13.0,30,6,,10.0,30.138779,,,TRUE,TRUE,,,,,,,BKN,2100,BKN,2500,,,,,MVFR,,,,,,,,,,,,METAR,28.0
KEHO 120755Z AUTO 00000KT 10SM CLR 00/00 A2989 RMK AO2 T00030003,KEHO,2015-02-12T07:55:00Z,35.25,-81.6,0.3,0.3,0,0,,10.0,29.890747,,,TRUE,TRUE,,,,,,,CLR,,,,,,,,VFR,,,,,,,,,,,,METAR,258.0
KEHC 120755Z AUTO 03005KT 10SM CLR 18/12 A3012 RMK A01,KEHC,2015-02-12T07:55:00Z,28.43,-92.88,18.0,12.0,30,5,,10.0,30.121063,,,TRUE,TRUE,,,,,,,CLR,,,,,,,,VFR,,,,,,,,,,,,METAR,31.0
KEDN 120755Z AUTO 00000KT 10SM CLR 03/02 A3006 RMK AO2,KEDN,2015-02-12T07:55:00Z,31.3,-85.9,3.0,2.0,0,0,,10.0,30.059055,,,TRUE,TRUE,,,,,,,CLR,,,,,,,,VFR,,,,,,,,,,,,METAR,110.0
KECS 120755Z AUTO 17009KT 7SM OVC005 M03/M03 A3035 RMK AO2,KECS,2015-02-12T07:55:00Z,43.88,-104.32,-3.0,-3.0,170,9,,7.0,30.351377,,,TRUE,TRUE,,,,,,,OVC,500,,,,,,,IFR,,,,,,,,,,,,METAR,1273.0
KEBG 120755Z AUTO 00000KT 7SM BKN029 BKN035 16/15 A3013 RMK AO2 T01610147,KEBG,2015-02-12T07:55:00Z,26.45,-98.13,16.1,14.7,0,0,,7.0,30.129921,,,TRUE,TRUE,,,,,,,BKN,2900,BKN,3500,,,,,MVFR,,,,,,,,,,,,METAR,24.0
KE16 120755Z AUTO 00000KT 10SM CLR 10/09 A3020 RMK AO2,KE16,2015-02-12T07:55:00Z,37.08,-121.6,10.0,9.0,0,0,,10.0,30.200787,,,TRUE,TRUE,,,,,,,CLR,,,,,,,,VFR,,,,,,,,,,,,METAR,86.0
KDZB 120755Z AUTO 36006KT 10SM OVC042 12/04 A3029 RMK AO2 T01200038,KDZB,2015-02-12T07:55:00Z,30.53,-98.37,12.0,3.8,360,6,,10.0,30.28937,,,TRUE,TRUE,,,,,,,OVC,4200,,,,,,,VFR,,,,,,,,,,,,METAR,334.0
KDVO 120755Z AUTO 00000KT 10/09 A3021 RMK AO2,KDVO,2015-02-12T07:55:00Z,38.15,-122.55,10.0,9.0,0,0,,,30.209646,,,TRUE,TRUE,,,,,,,,,,,,,,,,,,,,,,,,,,,METAR,1.0
KDUX 120755Z AUTO 28006KT 10SM CLR M03/M05 A3043 RMK AO2 T10331053,KDUX,2015-02-12T07:55:00Z,35.85,-102.02,-3.3,-5.3,280,6,,10.0,30.431103,,,TRUE,TRUE,,,,,,,CLR,,,,,,,,VFR,,,,,,,,,,,,METAR,1129.0
KDUC 120755Z AUTO 02007KT 10SM OVC110 03/M02 A3042 RMK AO2,KDUC,2015-02-12T07:55:00Z,34.47,-97.97,3.0,-2.0,20,7,,10.0,30.41929,,,TRUE,TRUE,,,,,,,OVC,11000,,,,,,,VFR,,,,,,,,,,,,METAR,339.0
KDUA 120755Z AUTO 33012G18KT 240V010 10SM SCT090 03/M01 A3038 RMK AO2,KDUA,2015-02-12T07:55:00Z,33.95,-96.4,3.0,-1.0,330,12,18,10.0,30.380905,,,TRUE,TRUE,,,,,,,SCT,9000,,,,,,,VFR,,,,,,,,,,,,METAR,213.0
KDRI 120755Z AUTO 00000KT 10SM CLR 08/07 A3019 RMK AO2 T00770066,KDRI,2015-02-12T07:55:00Z,30.83,-93.33,7.7,6.6,0,0,,10.0,30.188976,,,TRUE,TRUE,,,,,,,CLR,,,,,,,,VFR,,,,,,,,,,,,METAR,63.0
KDQH 120755Z AUTO 27004KT 10SM CLR 08/07 A3002 RMK AO2,KDQH,2015-02-12T07:55:00Z,31.48,-82.87,8.0,7.0,270,4,,10.0,30.02067,,,TRUE,TRUE,,,,,,,CLR,,,,,,,,VFR,,,,,,,,,,,,METAR,78.0
KDNV 120755Z AUTO 31016G20KT 10SM BKN021 M08/M11 A3013 RMK AO2 T10801112,KDNV,2015-02-12T07:55:00Z,40.2,-87.6,-8.0,-11.2,310,16,20,10.0,30.129921,,,TRUE,TRUE,,,,,,,BKN,2100,,,,,,,MVFR,,,,,,,,,,,,METAR,212.0
KDLP 120755Z AUTO 00000KT 10SM OVC021 18/02 A3011 RMK A01,KDLP,2015-02-12T07:55:00Z,29.12,-89.55,18.0,2.0,0,0,,10.0,30.109253,,,TRUE,TRUE,,,,,,,OVC,2100,,,,,,,MVFR,,,,,,,,,,,,METAR,36.0
KDKB 120755Z AUTO 33011G17KT 4SM -SN SCT026 SCT032 OVC041 M10/M13 A3018 RMK AO2 T11051132,KDKB,2015-02-12T07:55:00Z,41.93,-88.7,-10.5,-13.2,330,11,17,4.0,30.180119,,,TRUE,TRUE,,,,,,-SN,SCT,2600,SCT,3200,OVC,4100,,,MVFR,,,,,,,,,,,,METAR,279.0
KD50 120755Z AUTO 17010KT 10SM CLR M19/M24 A3049 RMK AO2,KD50,2015-02-12T07:55:00Z,48.93,-103.3,-19.0,-24.0,170,10,,10.0,30.490158,,,TRUE,TRUE,,,,,,,CLR,,,,,,,,VFR,,,,,,,,,,,,METAR,595.0
KCXP 120755Z AUTO 00000KT 10SM CLR 02/00 A3035 RMK AO2,KCXP,2015-02-12T07:55:00Z,39.18,-119.73,2.0,0.0,0,0,,10.0,30.351377,,,TRUE,TRUE,,,,,,,CLR,,,,,,,,VFR,,,,,,,,,,,,METAR,1435.0
KCVW 120755Z AUTO 01006KT M1/4SM FG OVC002 13/13 A3019 RMK A01,KCVW,2015-02-12T07:55:00Z,29.78,-93.3,13.0,13.0,10,6,,0.25,30.188976,,,TRUE,TRUE,,,,,,FG,OVC,200,,,,,,,LIFR,,,,,,,,,,,,METAR,1.0
KCVC 120755Z AUTO 29005KT 10SM CLR 07/00 A2997 RMK AO2,KCVC,2015-02-12T07:55:00Z,33.63,-83.85,7.0,0.0,290,5,,10.0,29.970472,,,TRUE,TRUE,,,,,,,CLR,,,,,,,,VFR,,,,,,,,,,,,METAR,247.0
KCUL 120755Z AUTO 30010G16KT 10SM CLR M02/M05 A3020 RMK AO2 T10201051,KCUL,2015-02-12T07:55:00Z,38.08,-88.12,-2.0,-5.1,300,10,16,10.0,30.200787,,,TRUE,TRUE,,,,,,,CLR,,,,,,,,VFR,,,,,,,,,,,,METAR,118.0
KCUH 120755Z AUTO 00000KT 10SM CLR M04/M06 A3044 RMK AO2,KCUH,2015-02-12T07:55:00Z,35.95,-96.77,-4.0,-6.0,0,0,,10.0,30.43996,,,TRUE,TRUE,,,,,,,CLR,,,,,,,,VFR,,,,,,,,,,,,METAR,279.0
KCRX 120755Z AUTO 33010KT 10SM BKN033 OVC040 04/M00 A3017 RMK AO2,KCRX,2015-02-12T07:55:00Z,34.92,-88.6,4.0,0.0,330,10,,10.0,30.171259,,,TRUE,TRUE,,,,,,,BKN,3300,OVC,4000,,,,,VFR,,,,,,,,,,,,METAR,130.0
KW43 120755Z AUTO 00000KT 7SM CLR M05/M06 A3030 RMK AO2,KW43,2015-02-12T07:55:00Z,44.67,-104.57,-5.0,-6.0,0,0,,7.0,30.301182,,,TRUE,TRUE,,,,,,,CLR,,,,,,,,VFR,,,,,,,,,,,,METAR,1300.0
KW31 120755Z AUTO 00000KT 10SM CLR M34/M35 A2985 RMK AO1 T13371349,KW31,2015-02-12T07:55:00Z,36.95,-78.18,-33.7,-34.9,0,0,,10.0,29.84941,,,TRUE,TRUE,,,,,,,CLR,,,,,,,,VFR,,,,,,,,,,,,METAR,162.0
KVQT 120755Z AUTO 04005KT 10SM CLR 18/10 A3014 RMK A01,KVQT,2015-02-12T07:55:00Z,28.27,-92.27,18.0,10.0,40,5,,10.0,30.138779,,,TRUE,TRUE,,,,,,,CLR,,,,,,,,VFR,,,,,,,,,,,,METAR,25.0
KVOA 120755Z AUTO 30008KT 10SM FEW020 BKN050 OVC060 17/08 A3008 RMK A01,KVOA,2015-02-12T07:55:00Z,29.23,-87.78,17.0,8.0,300,8,,10.0,30.079725,,,TRUE,TRUE,,,,,,,FEW,2000,BKN,5000,OVC,6000,,,VFR,,,,,,,,,,,,METAR,53.0
KVKY 120755Z AUTO 00000KT 10SM CLR 16/07 A3009 RMK A01,KVKY,2015-02-12T07:55:00Z,29.25,-88.43,16.0,7.0,0,0,,10.0,30.088583,,,TRUE,TRUE,,,,,,,CLR,,,,,,,,VFR,,,,,,,,,,,,METAR,32.0
KVKS 120755Z AUTO 00000KT 10SM CLR 05/03 A3017 RMK A01,KVKS,2015-02-12T07:55:00Z,,,5.0,3.0,0,0,,10.0,30.171259,,,TRUE,TRUE,,,,,,,CLR,,,,,,,,VFR,,,,,,,,,,,,METAR,
KVJI 120755Z AUTO 29006KT 10SM BKN032 OVC039 04/M02 A2993 RMK AO2 T00431020,KVJI,2015-02-12T07:55:00Z,36.67,-82.02,4.3,-2.0,290,6,,10.0,29.929134,,,TRUE,TRUE,,,,,,,BKN,3200,OVC,3900,,,,,VFR,,,,,,,,,,,,METAR,631.0
KVCV 120755Z AUTO 22003KT 10SM CLR 08/M06 A3026 RMK AO2,KVCV,2015-02-12T07:55:00Z,34.58,-117.38,8.0,-6.0,220,3,,10.0,30.259842,,,TRUE,TRUE,,,,,,,CLR,,,,,,,,VFR,,,,,,,,,,,,METAR,876.0
KVBS 120755Z AUTO 02008KT 5SM BR CLR 14/14 A3015 RMK A01,KVBS,2015-02-12T07:55:00Z,29.48,-93.63,14.0,14.0,20,8,,5.0,30.15059,,,TRUE,TRUE,,,,,,BR,CLR,,,,,,,,MVFR,,,,,,,,,,,,METAR,31.0
KVAF 120755Z AUTO 13004KT 10SM CLR 20/14 A3012 RMK A01,KVAF,2015-02-12T07:55:00Z,27.35,-94.63,20.0,14.0,130,4,,10.0,30.121063,,,TRUE,TRUE,,,,,,,CLR,,,,,,,,VFR,,,,,,,,,,,,METAR,46.0
KUVA 120755Z AUTO 02007KT 10SM -RA SCT024 OVC030 15/10 A3023 RMK AO2 T01530096,KUVA,2015-02-12T07:55:00Z,29.22,-99.75,15.3,9.6,20,7,,10.0,30.230314,,,TRUE,TRUE,,,,,,-RA,SCT,2400,OVC,3000,,,,,MVFR,,,,,,,,,,,,METAR,287.0
KUSE 120755Z AUTO 29011KT 10SM OVC055 M04/M06 A2995 RMK AO2,KUSE,2015-02-12T07:55:00Z,41.62,-84.13,-4.0,-6.0,290,11,,10.0,29.949802,,,TRUE,TRUE,,,,,,,OVC,5500,,,,,,,VFR,,,,,,,,,,,,METAR,238.0
KTYQ 120755Z AUTO 29011G17KT 10SM BKN017 OVC031 M06/M10 A3008 RMK AO2 T10621105,KTYQ,2015-02-12T07:55:00Z,40.03,-86.25,-6.2,-10.5,290,11,17,10.0,30.079725,,,TRUE,TRUE,,,,,,,BKN,1700,OVC,3100,,,,,MVFR,,,,,,,,,,,,METAR,281.0
KTMK 120755Z AUTO 14003KT 7SM SCT120 A3023 RMK AO2,KTMK,2015-02-12T07:55:00Z,45.42,-123.82,,,140,3,,7.0,30.230314,,,TRUE,TRUE,,,,,,,SCT,12000,,,,,,,VFR,,,,,,,,,,,,METAR,11.0
KSZT 120755Z AUTO 00000KT 1/4SM FG OVC003 03/03 A3026 RMK AO2,KSZT,2015-02-12T07:55:00Z,48.3,-116.57,3.0,3.0,0,0,,0.25,30.259842,,,TRUE,TRUE,,,,,,FG,OVC,300,,,,,,,LIFR,,,,,,,,,,,,METAR,648.0
KSUT 120755Z AUTO 00000KT 10SM CLR 03/02 A2996 RMK AO2 T00250016,KSUT,2015-02-12T07:55:00Z,33.93,-78.08,2.5,1.6,0,0,,10.0,29.958662,,,TRUE,TRUE,,,,,,,CLR,,,,,,,,VFR,,,,,,,,,,,,METAR,8.0
KSUN 120755Z AUTO 30008KT 10SM CLR 01/M01 A3039 RMK AO2,KSUN,2015-02-12T07:55:00Z,43.5,-114.28,1.0,-1.0,300,8,,10.0,30.389763,,,TRUE,TRUE,,,,,,,CLR,,,,,,,,VFR,,,,,,,,,,,,METAR,1620.0
KSQE 120755Z AUTO 04006KT 10SM CLR 18/10 A3012 RMK A01,KSQE,2015-02-12T07:55:00Z,28.07,-90.82,18.0,10.0,40,6,,10.0,30.121063,,,TRUE,TRUE,,,,,,,CLR,,,,,,,,VFR,,,,,,,,,,,,METAR,0.0
KSPR 120755Z AUTO 03008KT 10SM CLR 16/14 A3011 RMK A01,KSPR,2015-02-12T07:55:00Z,28.6,-91.2,16.0,14.0,30,8,,10.0,30.109253,,,TRUE,TRUE,,,,,,,CLR,,,,,,,,VFR,,,,,,,,,,,,METAR,31.0
KSNL 120755Z AUTO 03006KT 10SM CLR 02/M02 A3045 RMK AO2,KSNL,2015-02-12T07:55:00Z,35.35,-96.95,2.0,-2.0,30,6,,10.0,30.448818,,,TRUE,TRUE,,,,,,,CLR,,,,,,,,VFR,,,,,,,,,,,,METAR,327.0
KSJS 120755Z AUTO 31005KT 10SM OVC022 02/00 A2997 RMK AO2 T00200001,KSJS,2015-02-12T07:55:00Z,37.75,-82.63,2.0,0.1,310,5,,10.0,29.970472,,,TRUE,TRUE,,,,,,,OVC,2200,,,,,,,MVFR,,,,,,,,,,,,METAR,372.0
KXIH 120755Z AUTO 04005KT 4SM BR CLR 15/14 A3015 RMK A01,KXIH,2015-02-12T07:55:00Z,29.18,-94.52,15.0,14.0,40,5,,4.0,30.15059,,,TRUE,TRUE,,,,,,BR,CLR,,,,,,,,MVFR,,,,,,,,,,,,METAR,75.0
PAUT 120755Z AUTO 5SM BR BKN004 BKN009 OVC020 03/03 A2917 RMK AO2 T00270026,PAUT,2015-02-12T07:55:00Z,54.15,-165.6,2.7,2.6,,,,5.0,29.170275,,,TRUE,TRUE,,,,,,BR,BKN,400,BKN,900,OVC,2000,,,LIFR,,,,,,,,,,,,METAR,25.0
KBGF 120755Z AUTO 33005KT 10SM OVC039 02/00 A3009 RMK,KBGF,2015-02-12T07:55:00Z,35.18,-86.07,2.0,0.0,330,5,,10.0,30.088583,,,TRUE,,,,,,,,OVC,3900,,,,,,,VFR,,,,,,,,,,,,METAR,299.0
K2V5 120755Z AUTO 10SM CLR M02/M04 A3040 RMK AO2 T10171040,K2V5,2015-02-12T07:55:00Z,40.1,-102.25,-1.7,-4.0,,,,10.0,30.398623,,,TRUE,TRUE,,,,,,,CLR,,,,,,,,VFR,,,,,,,,,,,,SPECI,1118.0
KMKS 120755Z AUTO 00000KT 10SM CLR 03/01 A2996 RMK AO2,KMKS,2015-02-12T07:55:00Z,33.18,-80.03,3.0,1.0,0,0,,10.0,29.958662,,,TRUE,TRUE,,,,,,,CLR,,,,,,,,VFR,,,,,,,,,,,,SPECI,23.0
KARW 120755Z AUTO 20003KT 1 3/4SM BR VV007 07/07 A2997 RMK AO2,KARW,2015-02-12T07:55:00Z,32.42,-80.63,7.0,7.0,200,3,,1.75,29.970472,,,TRUE,TRUE,,,,,,BR,OVX,0,,,,,,,LIFR,,,,,,,,,,,700,SPECI,4.0
K1S5 120755Z AUTO 00000KT 7SM BKN110 05/04 A3028 RMK AO2 T00470043,K1S5,2015-02-12T07:55:00Z,46.33,-119.97,4.7,4.3,0,0,,7.0,30.280512,,,TRUE,TRUE,,,,,,,BKN,11000,,,,,,,VFR,,,,,,,,,,,,METAR,234.0
KIMM 120755Z AUTO 00000KT 4SM CLR 07/ A3005 RMK A01 P000,KIMM,2015-02-12T07:55:00Z,26.43,-81.4,7.0,,0,0,,4.0,30.050198,,,TRUE,TRUE,,,,,,,CLR,,,,,,,,MVFR,,,,,,,,,,,,SPECI,12.0
KGLY 120755Z AUTO 31006KT 10SM OVC050 M01/M05 A3038 RMK AO2,KGLY,2015-02-12T07:55:00Z,38.35,-93.68,-1.0,-5.0,310,6,,10.0,30.380905,,,TRUE,TRUE,,,,,,,OVC,5000,,,,,,,VFR,,,,,,,,,,,,SPECI,251.0
K24J 120755Z AUTO 00000KT 1 1/2SM CLR 06/06 A3006 RMK AO1,K24J,2015-02-12T07:55:00Z,30.3,-83.03,6.0,6.0,0,0,,1.5,30.059055,,,TRUE,TRUE,,,,,,,CLR,,,,,,,,IFR,,,,,,,,,,,,SPECI,32.0
KDCM 120755Z AUTO 00000KT 10SM CLR 03/02 A2991 RMK AO2,KDCM,2015-02-12T07:55:00Z,34.78,-81.2,3.0,2.0,0,0,,10.0,29.911417,,,TRUE,TRUE,,,,,,,CLR,,,,,,,,VFR,,,,,,,,,,,,SPECI,200.0
KLRO 120755Z AUTO 00000KT 7SM CLR 04/03 A2997 RMK AO2,KLRO,2015-02-12T07:55:00Z,32.9,-79.78,4.0,3.0,0,0,,7.0,29.970472,,,TRUE,TRUE,,,,,,,CLR,,,,,,,,VFR,,,,,,,,,,,,METAR,4.0
KSIK 120755Z AUTO 33004KT 10SM CLR M01/M05 A3025 RMK AO2 PWINO,KSIK,2015-02-12T07:55:00Z,36.9,-89.57,-1.0,-5.0,330,4,,10.0,30.250984,,,TRUE,TRUE,,,,,TRUE,,CLR,,,,,,,,VFR,,,,,,,,,,,,SPECI,96.0
KM40 120755Z AUTO 34005KT 8SM CLR 04/03 A3016 RMK AO2,KM40,2015-02-12T07:55:00Z,33.87,-88.48,4.0,3.0,340,5,,8.0,30.159449,,,TRUE,TRUE,,,,,,,CLR,,,,,,,,VFR,,,,,,,,,,,,SPECI,69.0
KGGE 120755Z AUTO 00000KT 10SM CLR 00/00 A2997 RMK AO2,KGGE,2015-02-12T07:55:00Z,33.32,-79.32,0.0,0.0,0,0,,10.0,29.970472,,,TRUE,TRUE,,,,,,,CLR,,,,,,,,VFR,,,,,,,,,,,,SPECI,12.0
KCKI 120755Z AUTO 00000KT 10SM CLR 04/04 A2995 RMK AO2,KCKI,2015-02-12T07:55:00Z,33.72,-79.85,4.0,4.0,0,0,,10.0,29.949802,,,TRUE,TRUE,,,,,,,CLR,,,,,,,,VFR,,,,,,,,,,,,SPECI,21.0
KLUX 120755Z AUTO 25004KT 10SM CLR 03/03 A2991 RMK AO2,KLUX,2015-02-12T07:55:00Z,34.5,-81.95,3.0,3.0,250,4,,10.0,29.911417,,,TRUE,TRUE,,,,,,,CLR,,,,,,,,VFR,,,,,,,,,,,,SPECI,213.0
KLQK 120755Z AUTO 10SM CLR 00/00 A2991 RMK AO2 T10011001,KLQK,2015-02-12T07:55:00Z,34.82,-82.7,-0.1,-0.1,,,,10.0,29.911417,,,TRUE,TRUE,,,,,,,CLR,,,,,,,,VFR,,,,,,,,,,,,SPECI,309.0
KJFX 120755Z AUTO 00000KT 6SM BR CLR 00/00 A3011 RMK A02 P-128,KJFX,2015-02-12T07:55:00Z,33.9,-87.32,0.0,0.0,0,0,,6.0,30.109253,,,TRUE,TRUE,,,,,,BR,CLR,,,,,,,,VFR,,,,,,,,,,,,SPECI,148.0
KGPH 120755Z AUTO 32018G27KT 10SM BKN036 M01/M08 A3042 RMK AO2,KGPH,2015-02-12T07:55:00Z,39.33,-94.32,-1.0,-8.0,320,18,27,10.0,30.41929,,,TRUE,TRUE,,,,,,,BKN,3600,,,,,,,VFR,,,,,,,,,,,,SPECI,235.0
KCLS 120755Z AUTO 13004KT 10SM SCT075 OVC100 10/10 A3022 RMK AO2,KCLS,2015-02-12T07:55:00Z,46.68,-122.98,10.0,10.0,130,4,,10.0,30.221457,,,TRUE,TRUE,,,,,,,SCT,7500,OVC,10000,,,,,VFR,,,,,,,,,,,,SPECI,54.0
KBDN 120755Z AUTO 15005KT 10SM CLR 04/M02 A3028 RMK AO2,KBDN,2015-02-12T07:55:00Z,44.1,-121.2,4.0,-2.0,150,5,,10.0,30.280512,,,TRUE,TRUE,,,,,,,CLR,,,,,,,,VFR,,,,,,,,,,,,SPECI,1055.0
KAIK 120755Z AUTO 23005KT 10SM CLR 04/04 A2995 RMK AO2 PNO,KAIK,2015-02-12T07:55:00Z,33.65,-81.68,4.0,4.0,230,5,,10.0,29.949802,,,TRUE,TRUE,,,,,,,CLR,,,,,,,,VFR,,,,,,,,,,,,SPECI,161.0
K4I7 120755Z AUTO 30008G15KT 281V341 10SM OVC023 M06/M12 A3011 RMK AO2,K4I7,2015-02-12T07:55:00Z,39.63,-86.82,-6.0,-12.0,300,8,15,10.0,30.109253,,,TRUE,TRUE,,,,,,,OVC,2300,,,,,,,MVFR,,,,,,,,,,,,SPECI,257.0
K1R7 120755Z AUTO 00000KT CLR 08/03 A3016 RMK AO2,K1R7,2015-02-12T07:55:00Z,31.6,-90.42,8.0,3.0,0,0,,,30.159449,,,TRUE,TRUE,,,,,,,CLR,,,,,,,,,,,,,,,,,,,,METAR,149.0
KVDF 120755Z AUTO 00000KT 1/2SM FG VV005 07/06 A3006 RMK AO2,KVDF,2015-02-12T07:55:00Z,28.02,-82.33,7.0,6.0,0,0,,0.5,30.059055,,,TRUE,TRUE,,,,,,FG,OVX,0,,,,,,,LIFR,,,,,,,,,,,500,METAR,7.0
KUYF 120755Z AUTO 29011G16KT 7SM -SN OVC027 M02/M03 A2995 RMK AO2,KUYF,2015-02-12T07:55:00Z,39.93,-83.47,-2.0,-3.0,290,11,16,7.0,29.949802,,,TRUE,TRUE,,,,,,-SN,OVC,2700,,,,,,,MVFR,,,,,,,,,,,,METAR,330.0
KLDJ 120755Z AUTO 00000KT 10SM SCT047 OVC070 00/M05 A2989 RMK AO2 T10051047,KLDJ,2015-02-12T07:55:00Z,40.62,-74.25,-0.5,-4.7,0,0,,10.0,29.890747,,,TRUE,TRUE,,,,,,,SCT,4700,OVC,7000,,,,,VFR,,,,,,,,,,,,METAR,7.0
KFDW 120755Z AUTO 20004KT 10SM CLR 05/02 A2990 RMK AO1,KFDW,2015-02-12T07:55:00Z,34.32,-81.12,5.0,2.0,200,4,,10.0,29.899607,,,TRUE,TRUE,,,,,,,CLR,,,,,,,,VFR,,,,,,,,,,,,METAR,176.0
KQAJ 120755Z 31014G26KT 0400 +DS VV010 23/M04 A2995 RMK SLP139 T02271035,KQAJ,2015-02-12T07:55:00Z,100.65,-1000.65,22.7,-3.5,310,14,26,0.25,29.949802,1013.9,,,,,,,,,+DS,OVX,0,,,,,,,LIFR,,,,,,,,,,,1000,METAR,999.0
KGWR 120755Z AUTO 36007KT 10SM CLR M20/M25 A3069 RMK A01 P000,KGWR,2015-02-12T07:55:00Z,46.22,-97.65,-20.0,-25.0,360,7,,10.0,30.690945,,,TRUE,TRUE,,,,,,,CLR,,,,,,,,VFR,,,,,,,,,,,,METAR,386.0
KJZI 120755Z AUTO 00000KT 6SM BR CLR 08/08 A2997 RMK A02 P000,KJZI,2015-02-12T07:55:00Z,32.7,-80.0,8.0,8.0,0,0,,6.0,29.970472,,,TRUE,TRUE,,,,,,BR,CLR,,,,,,,,VFR,,,,,,,,,,,,METAR,6.0
KORS 120755Z AUTO 00000KT 10SM CLR 08/08 A3020 RMK AO2,KORS,2015-02-12T07:55:00Z,48.7,-122.92,8.0,8.0,0,0,,10.0,30.200787,,,TRUE,TRUE,,,,,,,CLR,,,,,,,,VFR,,,,,,,,,,,,METAR,9.0
KRZR 120755Z AUTO 00000KT 10SM CLR M02/M04 A3005 RMK,KRZR,2015-02-12T07:55:00Z,35.22,-84.8,-2.0,-4.0,0,0,,10.0,30.050198,,,TRUE,,,,,,,,CLR,,,,,,,,VFR,,,,,,,,,,,,METAR,263.0
K1P1 120755Z AUTO 00000KT 10SM SCT110 M15/M15 A2985 RMK AO2 T11491150,K1P1,2015-02-12T07:55:00Z,43.78,-71.75,-14.9,-15.0,0,0,,10.0,29.84941,,,TRUE,TRUE,,,,,,,SCT,11000,,,,,,,VFR,,,,,,,,,,,,METAR,154.0
CYVO 120755Z AUTO 33011G22KT 2SM -SN OVC037 M19/M22 A2979 RMK SLP123,CYVO,2015-02-12T07:55:00Z,48.07,-77.77,-19.0,-22.0,330,11,22,2.0,29.790354,1012.3,,TRUE,,,,,,,-SN,OVC,3700,,,,,,,IFR,,,,,,,,,,,,SPECI,337.0
OAHR 120755Z 02004KT 9999 SCT 080 SCT100 22/04 Q1018 RMK BKN VIS MIN 9999 BLU,OAHR,2015-02-12T07:55:00Z,34.22,62.22,22.0,4.0,20,4,,6.21,30.059055,,,,,,,,,,,SCT,8000,SCT,10000,,,,,VFR,,,,,,,,,,,,METAR,964.0
KQXT 120755Z VRB01KT 9999 BKN240 26/04 A3007 RMK SLP157 WND DATA ESTMD ALSTG/SLP ESTMD Q1018,KQXT,2015-02-12T07:55:00Z,100.65,-1000.65,26.0,4.0,0,1,,6.21,30.070866,1015.7,,,,,,,,,,BKN,24000,,,,,,,VFR,,,,,,,,,,,,METAR,999.0
KQTI 120755Z 33010KT 4000 DU SKC 15/03 A3000 RMK DU FEW035 SLP160 WND DATA ESTMD ALSTG/SLP ESTMD,KQTI,2015-02-12T07:55:00Z,100.65,-1000.65,15.0,3.0,330,10,,2.49,30.0,1016.0,,,,,,,,,DU,SKC,,,,,,,,IFR,,,,,,,,,,,,METAR,999.0
KQFQ 120755Z AUTO VRB06KT 10SM CLR 01/M20 A2991 RMK AO2 SLP134 T00051203 $,KQFQ,2015-02-12T07:55:00Z,100.65,-1000.65,0.5,-20.3,0,6,,10.0,29.911417,1013.4,,TRUE,TRUE,TRUE,,,,,,CLR,,,,,,,,VFR,,,,,,,,,,,,METAR,999.0
HLLM 120755Z 14005KT 7000 FEW025 13/07 Q1022,HLLM,2015-02-12T07:55:00Z,32.9,13.28,13.0,7.0,140,5,,4.35,30.177166,,,,,,,,,,,FEW,2500,,,,,,,MVFR,,,,,,,,,,,,METAR,11.0
KCQW 120755Z AUTO 00000KT 5SM BR CLR 00/00 A2991 RMK AO2,KCQW,2015-02-12T07:55:00Z,34.72,-79.95,0.0,0.0,0,0,,5.0,29.911417,,,TRUE,TRUE,,,,,,BR,CLR,,,,,,,,MVFR,,,,,,,,,,,,METAR,73.0
KBBP 120755Z AUTO 00000KT 10SM CLR 02/02 A2992 RMK AO2,KBBP,2015-02-12T07:55:00Z,34.62,-79.73,2.0,2.0,0,0,,10.0,29.920275,,,TRUE,TRUE,,,,,,,CLR,,,,,,,,VFR,,,,,,,,,,,,METAR,45.0
KSAA 120755Z AUTO 14003KT 10SM CLR M03/M07 A3037 RMK AO2,KSAA,2015-02-12T07:55:00Z,41.45,-106.83,-3.0,-7.0,140,3,,10.0,30.369095,,,TRUE,TRUE,,,,,,,CLR,,,,,,,,VFR,,,,,,,,,,,,METAR,2138.0
KCRH 120755Z AUTO 01006KT 8SM CLR 17/15 A3015 RMK A01,KCRH,2015-02-12T07:55:00Z,28.92,-93.3,17.0,15.0,10,6,,8.0,30.15059,,,TRUE,TRUE,,,,,,,CLR,,,,,,,,VFR,,,,,,,,,,,,METAR,34.0
KCPK 120755Z AUTO 16004KT 10SM CLR 00/M01 A2992 RMK AO2,KCPK,2015-02-12T07:55:00Z,36.67,-76.32,0.0,-1.0,160,4,,10.0,29.920275,,,TRUE,TRUE,,,,,,,CLR,,,,,,,,VFR,,,,,,,,,,,,METAR,6.0
KCNI 120755Z AUTO 00000KT 10SM CLR 06/M04 A2999 RMK AO2,KCNI,2015-02-12T07:55:00Z,34.32,-84.42,6.0,-4.0,0,0,,10.0,29.991142,,,TRUE,TRUE,,,,,,,CLR,,,,,,,,VFR,,,,,,,,,,,,METAR,372.0
KCMD 120755Z AUTO 36003KT 10SM CLR 04/M01 A3010 RMK AO2 T00371012,KCMD,2015-02-12T07:55:00Z,34.27,-86.85,3.7,-1.2,360,3,,10.0,30.100393,,,TRUE,TRUE,,,,,,,CLR,,,,,,,,VFR,,,,,,,,,,,,METAR,294.0
KCLW 120755Z AUTO 00000KT 10SM CLR 07/06 A3005 RMK AO2,KCLW,2015-02-12T07:55:00Z,27.98,-82.75,7.0,6.0,0,0,,10.0,30.050198,,,TRUE,TRUE,,,,,,,CLR,,,,,,,,VFR,,,,,,,,,,,,METAR,22.0
KCKF 120755Z AUTO 00000KT 10SM CLR 06/04 A3003 RMK AO2 T00550044,KCKF,2015-02-12T07:55:00Z,31.98,-83.77,5.5,4.4,0,0,,10.0,30.029528,,,TRUE,TRUE,,,,,,,CLR,,,,,,,,VFR,,,,,,,,,,,,METAR,91.0
KCIR 120755Z AUTO 32010G14KT 10SM CLR 00/M05 A3024 RMK AO2 T00011050,KCIR,2015-02-12T07:55:00Z,37.07,-89.22,0.1,-5.0,320,10,14,10.0,30.239174,,,TRUE,TRUE,,,,,,,CLR,,,,,,,,VFR,,,,,,,,,,,,METAR,98.0
KCIC 120755Z AUTO 06005KT 10SM CLR 12/09 A3022 RMK AO1,KCIC,2015-02-12T07:55:00Z,39.78,-121.83,12.0,9.0,60,5,,10.0,30.221457,,,TRUE,TRUE,,,,,,,CLR,,,,,,,,VFR,,,,,,,,,,,,METAR,73.0
KCDA 120755Z AUTO 12005KT 10SM SCT060 BKN090 BKN120 M10/M17 A2976 RMK AO2 T11021171,KCDA,2015-02-12T07:55:00Z,44.57,-72.02,-10.2,-17.1,120,5,,10.0,29.760826,,,TRUE,TRUE,,,,,,,SCT,6000,BKN,9000,BKN,12000,,,VFR,,,,,,,,,,,,METAR,363.0
KCCO 120755Z AUTO 32004KT 10SM CLR 07/00 A3002 RMK AO2 T00650004,KCCO,2015-02-12T07:55:00Z,33.32,-84.77,6.5,0.4,320,4,,10.0,30.02067,,,TRUE,TRUE,,,,,,,CLR,,,,,,,,VFR,,,,,,,,,,,,METAR,296.0
KC29 120755Z AUTO 35016G22KT 3SM SCT020 BKN025 OVC042 M10/M14 A3025 RMK AO1 T11021142,KC29,2015-02-12T07:55:00Z,43.12,-89.53,-10.2,-14.2,350,16,22,3.0,30.250984,,,TRUE,TRUE,,,,,,,SCT,2000,BKN,2500,OVC,4200,,,MVFR,,,,,,,,,,,,METAR,283.0
KBYY 120755Z AUTO 00000KT M1/4SM FG OVC001 10/10 A3016 RMK AO2 T01080108,KBYY,2015-02-12T07:55:00Z,28.97,-95.87,10.8,10.8,0,0,,0.25,30.159449,,,TRUE,TRUE,,,,,,FG,OVC,100,,,,,,,LIFR,,,,,,,,,,,,METAR,14.0
KBVN 120755Z AUTO 36010G18KT 10SM CLR M12/M18 A3058 RMK AO2 T11251177,KBVN,2015-02-12T07:55:00Z,41.73,-98.05,-12.5,-17.7,360,10,18,10.0,30.578741,,,TRUE,TRUE,,,,,,,CLR,,,,,,,,VFR,,,,,,,,,,,,METAR,551.0
KBTA 120755Z AUTO 35017G24KT 10SM CLR M12/M19 A3056 RMK AO2 T11211192,KBTA,2015-02-12T07:55:00Z,41.42,-96.12,-12.1,-19.2,350,17,24,10.0,30.561024,,,TRUE,TRUE,,,,,,,CLR,,,,,,,,VFR,,,,,,,,,,,,METAR,396.0
KBQX 120755Z AUTO 02006KT 10SM CLR 17/16 A3015 RMK A01,KBQX,2015-02-12T07:55:00Z,28.5,-95.72,17.0,16.0,20,6,,10.0,30.15059,,,TRUE,TRUE,,,,,,,CLR,,,,,,,,VFR,,,,,,,,,,,,METAR,34.0
KBPC 120755Z AUTO 23006KT 10SM CLR M04/M05 A3044 RMK AO2,KBPC,2015-02-12T07:55:00Z,35.88,-101.03,-4.0,-5.0,230,6,,10.0,30.43996,,,TRUE,TRUE,,,,,,,CLR,,,,,,,,VFR,,,,,,,,,,,,METAR,845.0
KBMT 120755Z AUTO 00000KT 10SM CLR 08/07 A3018 RMK AO2 T00790074,KBMT,2015-02-12T07:55:00Z,30.07,-94.22,7.9,7.4,0,0,,10.0,30.180119,,,TRUE,TRUE,,,,,,,CLR,,,,,,,,VFR,,,,,,,,,,,,METAR,10.0
KBKT 120755Z AUTO 21004KT 10SM CLR M02/M02 A2986 RMK AO1 T10161022,KBKT,2015-02-12T07:55:00Z,37.07,-77.95,-1.6,-2.2,210,4,,10.0,29.861221,,,TRUE,TRUE,,,,,,,CLR,,,,,,,,VFR,,,,,,,,,,,,METAR,134.0
KBKS 120755Z AUTO 03003KT 7SM SCT040 16/15 A3014 RMK AO1 T01560145,KBKS,2015-02-12T07:55:00Z,27.2,-98.12,15.6,14.5,30,3,,7.0,30.138779,,,TRUE,TRUE,,,,,,,SCT,4000,,,,,,,VFR,,,,,,,,,,,,METAR,34.0
KBHC 120755Z AUTO 25004KT 10SM CLR 07/06 A3000 RMK AO2,KBHC,2015-02-12T07:55:00Z,31.72,-82.4,7.0,6.0,250,4,,10.0,30.0,,,TRUE,TRUE,,,,,,,CLR,,,,,,,,VFR,,,,,,,,,,,,METAR,61.0
KBGE 120755Z AUTO 25003KT 10SM CLR 07/06 A3005 RMK AO2,KBGE,2015-02-12T07:55:00Z,30.97,-84.63,7.0,6.0,250,3,,10.0,30.050198,,,TRUE,TRUE,,,,,,,CLR,,,,,,,,VFR,,,,,,,,,,,,METAR,43.0
KBDG 120755Z AUTO 01004KT 10SM CLR 01/M03 A3048 RMK AO1 T00121034,KBDG,2015-02-12T07:55:00Z,37.58,-109.47,1.2,-3.4,10,4,,10.0,30.481298,,,TRUE,TRUE,,,,,,,CLR,,,,,,,,VFR,,,,,,,,,,,,METAR,1788.0
KBBF 120755Z AUTO 10003KT 10SM CLR 20/14 A3013 RMK A01,KBBF,2015-02-12T07:55:00Z,27.83,-96.02,20.0,14.0,100,3,,10.0,30.129921,,,TRUE,TRUE,,,,,,,CLR,,,,,,,,VFR,,,,,,,,,,,,METAR,36.0
KBBD 120755Z AUTO 36011KT 10SM OVC038 07/M01 A3033 RMK,KBBD,2015-02-12T07:55:00Z,31.18,-99.32,7.0,-1.0,360,11,,10.0,30.33071,,,TRUE,,,,,,,,OVC,3800,,,,,,,VFR,,,,,,,,,,,,METAR,557.0
KBAC 120755Z AUTO 34007KT 10SM -SN CLR M23/M26 A3067 RMK AO2 P0002,KBAC,2015-02-12T07:55:00Z,46.93,-98.02,-23.0,-26.0,340,7,,10.0,30.670275,,,TRUE,TRUE,,,,,,-SN,CLR,,,,,,,,VFR,,,,,,0.02,,,,,,METAR,684.0
KAZC 120755Z AUTO 22004KT 10SM CLR 01/M05 A3041 RMK AO2 T00111048,KAZC,2015-02-12T07:55:00Z,36.97,-113.02,1.1,-4.8,220,4,,10.0,30.410433,,,TRUE,TRUE,,,,,,,CLR,,,,,,,,VFR,,,,,,,,,,,,METAR,1486.0
KAYS 120755Z AUTO 27005KT 10SM CLR 10/09 A3001 RMK AO2 T00980085,KAYS,2015-02-12T07:55:00Z,31.25,-82.4,9.8,8.5,270,5,,10.0,30.008858,,,TRUE,TRUE,,,,,,,CLR,,,,,,,,VFR,,,,,,,,,,,,METAR,46.0
KHQI 120755Z AUTO 00000KT 10SM CLR 19/15 A3013 RMK A01,KHQI,2015-02-12T07:55:00Z,27.93,-93.67,19.0,15.0,0,0,,10.0,30.129921,,,TRUE,TRUE,,,,,,,CLR,,,,,,,,VFR,,,,,,,,,,,,METAR,26.0
KHNZ 120755Z AUTO 00000KT 10SM CLR 00/M02 A2988 RMK AO2 T00001016,KHNZ,2015-02-12T07:55:00Z,36.37,-78.53,0.0,-1.6,0,0,,10.0,29.878937,,,TRUE,TRUE,,,,,,,CLR,,,,,,,,VFR,,,,,,,,,,,,METAR,161.0
KHHV 120755Z AUTO 11007KT 10SM CLR 21/14 A3012 RMK A01,KHHV,2015-02-12T07:55:00Z,26.93,-94.68,21.0,14.0,110,7,,10.0,30.121063,,,TRUE,TRUE,,,,,,,CLR,,,,,,,,VFR,,,,,,,,,,,,METAR,25.0
KHHF 120755Z AUTO 00000KT 10SM CLR M05/M06 A3043 RMK AO2 T10511061,KHHF,2015-02-12T07:55:00Z,35.9,-100.4,-5.1,-6.1,0,0,,10.0,30.431103,,,TRUE,TRUE,,,,,,,CLR,,,,,,,,VFR,,,,,,,,,,,,METAR,712.0
KHBI 120755Z AUTO 00000KT 10SM CLR 03/00 A2992 RMK AO2 T00260003,KHBI,2015-02-12T07:55:00Z,35.65,-79.9,2.6,0.3,0,0,,10.0,29.920275,,,TRUE,TRUE,,,,,,,CLR,,,,,,,,VFR,,,,,,,,,,,,METAR,205.0
KGYY 120755Z AUTO 32014G20KT 10SM OVC034 M06/M14 A3013 RMK AO2 T10581141,KGYY,2015-02-12T07:55:00Z,41.62,-87.42,-5.8,-14.1,320,14,20,10.0,30.129921,,,TRUE,TRUE,,,,,,,OVC,3400,,,,,,,VFR,,,,,,,,,,,,METAR,180.0
KGWW 120755Z AUTO 18003KT 4SM BR CLR 00/M01 A2992 RMK AO2 T10011006,KGWW,2015-02-12T07:55:00Z,35.47,-77.97,-0.1,-0.6,180,3,,4.0,29.920275,,,TRUE,TRUE,,,,,,BR,CLR,,,,,,,,MVFR,,,,,,,,,,,,METAR,41.0
KGWB 120755Z AUTO 28011KT 10SM -SN SCT021 SCT034 OVC050 M03/M07 A2999 RMK AO2,KGWB,2015-02-12T07:55:00Z,41.3,-85.07,-3.0,-7.0,280,11,,10.0,29.991142,,,TRUE,TRUE,,,,,,-SN,SCT,2100,SCT,3400,OVC,5000,,,VFR,,,,,,,,,,,,METAR,269.0
KGVX 120755Z AUTO 02006KT 4SM BR CLR 17/16 A3015 RMK A01,KGVX,2015-02-12T07:55:00Z,28.58,-94.98,17.0,16.0,20,6,,4.0,30.15059,,,TRUE,TRUE,,,,,,BR,CLR,,,,,,,,MVFR,,,,,,,,,,,,METAR,39.0
KGVT 120755Z AUTO 35015G19KT 10SM SCT120 06/M02 A3034 RMK AO2,KGVT,2015-02-12T07:55:00Z,33.07,-96.07,6.0,-2.0,350,15,19,10.0,30.339567,,,TRUE,TRUE,,,,,,,SCT,12000,,,,,,,VFR,,,,,,,,,,,,METAR,163.0
KGUL 120755Z AUTO 10SM CLR 20/13 A3012 RMK A01,KGUL,2015-02-12T07:55:00Z,27.3,-93.53,20.0,13.0,,,,10.0,30.121063,,,TRUE,TRUE,,,,,,,CLR,,,,,,,,VFR,,,,,,,,,,,,METAR,30.0
KGOO 120755Z AUTO 12004KT 10SM CLR 14/00 A3026 RMK AO1,KGOO,2015-02-12T07:55:00Z,39.22,-121.0,14.0,0.0,120,4,,10.0,30.259842,,,TRUE,TRUE,,,,,,,CLR,,,,,,,,VFR,,,,,,,,,,,,METAR,962.0
KGNC 120755Z AUTO 03007KT 10SM OVC050 04/M03 A3045 RMK AO2 T00401030,KGNC,2015-02-12T07:55:00Z,32.68,-102.65,4.0,-3.0,30,7,,10.0,30.448818,,,TRUE,TRUE,,,,,,,OVC,5000,,,,,,,VFR,,,,,,,,,,,,METAR,1010.0
KGLE 120755Z AUTO 35009KT 10SM CLR 04/M03 A3039 RMK AO2 T00401033,KGLE,2015-02-12T07:55:00Z,33.65,-97.2,4.0,-3.3,350,9,,10.0,30.389763,,,TRUE,TRUE,,,,,,,CLR,,,,,,,,VFR,,,,,,,,,,,,METAR,256.0
KGIC 120755Z AUTO 02003KT 10SM OVC120 06/02 A3033 RMK AO1 T00550019,KGIC,2015-02-12T07:55:00Z,45.95,-116.12,5.5,1.9,20,3,,10.0,30.33071,,,TRUE,TRUE,,,,,,,OVC,12000,,,,,,,VFR,,,,,,,,,,,,METAR,1009.0
KGHB 120755Z AUTO 04005KT 10SM CLR 19/12 A3012 RMK A01,KGHB,2015-02-12T07:55:00Z,27.83,-91.98,19.0,12.0,40,5,,10.0,30.121063,,,TRUE,TRUE,,,,,,,CLR,,,,,,,,VFR,,,,,,,,,,,,METAR,30.0
KGEV 120755Z AUTO 29016G26KT 10SM CLR 02/M04 A2983 RMK AO2 T00161040,KGEV,2015-02-12T07:55:00Z,36.43,-81.42,1.6,-4.0,290,16,26,10.0,29.828741,,,TRUE,TRUE,,,,,,,CLR,,,,,,,,VFR,,,,,,,,,,,,METAR,969.0
KGDJ 120755Z AUTO 34011G15KT 10SM BKN080 OVC100 08/00 A3037 RMK AO2 T00751002,KGDJ,2015-02-12T07:55:00Z,32.45,-97.82,7.5,-0.2,340,11,15,10.0,30.369095,,,TRUE,TRUE,,,,,,,BKN,8000,OVC,10000,,,,,VFR,,,,,,,,,,,,METAR,237.0
KGBK 120755Z AUTO 06005KT 10SM SCT029 20/12 A3011 RMK A01,KGBK,2015-02-12T07:55:00Z,27.2,-92.2,20.0,12.0,60,5,,10.0,30.109253,,,TRUE,TRUE,,,,,,,SCT,2900,,,,,,,VFR,,,,,,,,,,,,METAR,59.0
KFYJ 120755Z AUTO 17006KT 10SM CLR 01/M02 A2990 RMK AO2 T00131017,KFYJ,2015-02-12T07:55:00Z,37.52,-76.77,1.3,-1.7,170,6,,10.0,29.899607,,,TRUE,TRUE,,,,,,,CLR,,,,,,,,VFR,,,,,,,,,,,,METAR,7.0
KFSO 120755Z AUTO 00000KT 3SM -SN OVC030 M10/M12 A2974 RMK AO2 T11051125,KFSO,2015-02-12T07:55:00Z,44.93,-73.1,-10.5,-12.5,0,0,,3.0,29.740158,,,TRUE,TRUE,,,,,,-SN,OVC,3000,,,,,,,MVFR,,,,,,,,,,,,METAR,70.0
KFOT 120755Z AUTO 14008KT 1/2SM VV005 08/08 A3021 RMK AO1,KFOT,2015-02-12T07:55:00Z,40.55,-124.13,8.0,8.0,140,8,,0.5,30.209646,,,TRUE,TRUE,,,,,,,OVX,0,,,,,,,LIFR,,,,,,,,,,,500,METAR,120.0
KFKR 120755Z AUTO 28011G22KT 10SM SCT034 M07/M10 A3010 RMK AO2 T10701097,KFKR,2015-02-12T07:55:00Z,40.27,-86.57,-7.0,-9.7,280,11,22,10.0,30.100393,,,TRUE,TRUE,,,,,,,SCT,3400,,,,,,,VFR,,,,,,,,,,,,METAR,262.0
KFHB 120755Z AUTO 23004KT 10SM CLR 11/08 A3001 RMK AO1,KFHB,2015-02-12T07:55:00Z,30.62,-81.47,11.0,8.0,230,4,,10.0,30.008858,,,TRUE,TRUE,,,,,,,CLR,,,,,,,,VFR,,,,,,,,,,,,METAR,5.0
KFET 120755Z AUTO 34014G21KT 10SM CLR M12/M18 A3060 RMK AO2 T11171182,KFET,2015-02-12T07:55:00Z,41.45,-96.52,-11.7,-18.2,340,14,21,10.0,30.59941,,,TRUE,TRUE,,,,,,,CLR,,,,,,,,VFR,,,,,,,,,,,,METAR,367.0
KF44 120755Z AUTO 35010G16KT 10SM CLR 07/01 A3029 RMK AO2,KF44,2015-02-12T07:55:00Z,32.17,-95.83,7.0,1.0,350,10,16,10.0,30.28937,,,TRUE,TRUE,,,,,,,CLR,,,,,,,,VFR,,,,,,,,,,,,METAR,135.0
KF05 120755Z AUTO 01009KT 10SM OVC090 06/M05 A3044 RMK AO1 T00571047,KF05,2015-02-12T07:55:00Z,34.23,-99.28,5.7,-4.7,10,9,,10.0,30.43996,,,TRUE,TRUE,,,,,,,OVC,9000,,,,,,,VFR,,,,,,,,,,,,METAR,386.0
KEZS 120755Z AUTO 34007G16KT 10SM SCT038 M13/M21 A3027 RMK AO2 T11301206,KEZS,2015-02-12T07:55:00Z,44.78,-88.57,-13.0,-20.6,340,7,16,10.0,30.268702,,,TRUE,TRUE,,,,,,,SCT,3800,,,,,,,VFR,,,,,,,,,,,,METAR,248.0
KEZM 120755Z AUTO 29003KT 10SM CLR 06/06 A3002 RMK AO2 T00610057,KEZM,2015-02-12T07:55:00Z,32.22,-83.13,6.1,5.7,290,3,,10.0,30.02067,,,TRUE,TRUE,,,,,,,CLR,,,,,,,,VFR,,,,,,,,,,,,METAR,93.0
KETC 120755Z AUTO 00000KT 7SM CLR 00/M01 A2993 RMK AO2 T10041015,KETC,2015-02-12T07:55:00Z,35.93,-77.55,-0.4,-1.5,0,0,,7.0,29.929134,,,TRUE,TRUE,,,,,,,CLR,,,,,,,,VFR,,,,,,,,,,,,METAR,17.0
KERV 120755Z AUTO 36006KT 10SM OVC037 12/04 A3027 RMK AO2 T01200044,KERV,2015-02-12T07:55:00Z,29.98,-99.08,12.0,4.4,360,6,,10.0,30.268702,,,TRUE,TRUE,,,,,,,OVC,3700,,,,,,,VFR,,,,,,,,,,,,METAR,510.0
KLZZ 120755Z AUTO 01013G21KT 10SM SCT040 SCT050 09/04 A3030 RMK AO2 T00870035,KLZZ,2015-02-12T07:55:00Z,31.1,-98.2,8.7,3.5,10,13,21,10.0,30.301182,,,TRUE,TRUE,,,,,,,SCT,4000,SCT,5000,,,,,VFR,,,,,,,,,,,,METAR,371.0
KLXY 120755Z AUTO 10SM SCT070 08/02 A3029 RMK AO2 T00760018,KLXY,2015-02-12T07:55:00Z,31.63,-96.52,7.6,1.8,,,,10.0,30.28937,,,TRUE,TRUE,,,,,,,SCT,7000,,,,,,,VFR,,,,,,,,,,,,METAR,166.0
KLUA 120755Z AUTO 00000KT 10SM OVC042 02/00 A2982 RMK AO2,KLUA,2015-02-12T07:55:00Z,38.67,-78.5,2.0,0.0,0,0,,10.0,29.819881,,,TRUE,TRUE,,,,,,,OVC,4200,,,,,,,VFR,,,,,,,,,,,,METAR,275.0
KLOM 120755Z AUTO 00000KT 10SM OVC043 M01/M03 A2985 RMK AO1,KLOM,2015-02-12T07:55:00Z,40.13,-75.27,-1.0,-3.0,0,0,,10.0,29.84941,,,TRUE,TRUE,,,,,,,OVC,4300,,,,,,,VFR,,,,,,,,,,,,METAR,92.0
KLHM 120755Z AUTO 00000KT 10SM CLR 07/06 A3020 RMK AO1,KLHM,2015-02-12T07:55:00Z,38.92,-121.35,7.0,6.0,0,0,,10.0,30.200787,,,TRUE,TRUE,,,,,,,CLR,,,,,,,,VFR,,,,,,,,,,,,METAR,37.0
KJYL 120755Z AUTO 00000KT 10SM CLR 05/05 A2997 RMK AO2 T00500049,KJYL,2015-02-12T07:55:00Z,32.65,-81.6,5.0,4.9,0,0,,10.0,29.970472,,,TRUE,TRUE,,,,,,,CLR,,,,,,,,VFR,,,,,,,,,,,,METAR,57.0
KJVL 120755Z AUTO 35014G20KT 10SM SCT029 BKN044 OVC055 M08/M15 A3020 RMK AO2,KJVL,2015-02-12T07:55:00Z,42.62,-89.05,-8.0,-15.0,350,14,20,10.0,30.200787,,,TRUE,TRUE,,,,,,,SCT,2900,BKN,4400,OVC,5500,,,VFR,,,,,,,,,,,,METAR,246.0
KJTC 120755Z AUTO 11008KT 10SM CLR M01/M05 A3038 RMK AO2,KJTC,2015-02-12T07:55:00Z,34.13,-109.32,-1.0,-5.0,110,8,,10.0,30.380905,,,TRUE,TRUE,,,,,,,CLR,,,,,,,,VFR,,,,,,,,,,,,METAR,2150.0
KJNX 120755Z AUTO 00000KT 10SM CLR M01/M01 A2991 RMK AO2,KJNX,2015-02-12T07:55:00Z,35.53,-78.38,-1.0,-1.0,0,0,,10.0,29.911417,,,TRUE,TRUE,,,,,,,CLR,,,,,,,,VFR,,,,,,,,,,,,METAR,50.0
KIXA 120755Z AUTO 20005KT 7SM CLR 00/M01 A2990 RMK AO2,KIXA,2015-02-12T07:55:00Z,36.33,-77.63,0.0,-1.0,200,5,,7.0,29.899607,,,TRUE,TRUE,,,,,,,CLR,,,,,,,,VFR,,,,,,,,,,,,METAR,44.0
KIPN 120755Z AUTO VRB04KT 10SM FEW020 FEW060 19/11 A3009 RMK A01,KIPN,2015-02-12T07:55:00Z,28.08,-87.98,19.0,11.0,0,4,,10.0,30.088583,,,TRUE,TRUE,,,,,,,FEW,2000,FEW,6000,,,,,VFR,,,,,,,,,,,,METAR,41.0
KINF 120755Z AUTO 00000KT 5SM HZ CLR 03/01 A3006 RMK AO2,KINF,2015-02-12T07:55:00Z,28.8,-82.32,3.0,1.0,0,0,,5.0,30.059055,,,TRUE,TRUE,,,,,,HZ,CLR,,,,,,,,MVFR,,,,,,,,,,,,METAR,15.0
KIKT 120755Z AUTO VRB03KT 10SM CLR 17/10 A3008 RMK A01,KIKT,2015-02-12T07:55:00Z,28.52,-88.28,17.0,10.0,0,3,,10.0,30.079725,,,TRUE,TRUE,,,,,,,CLR,,,,,,,,VFR,,,,,,,,,,,,METAR,25.0
KIIY 120755Z AUTO 28008KT 10SM CLR 08/04 A2993 RMK AO2,KIIY,2015-02-12T07:55:00Z,33.78,-82.82,8.0,4.0,280,8,,10.0,29.929134,,,TRUE,TRUE,,,,,,,CLR,,,,,,,,VFR,,,,,,,,,,,,METAR,197.0
KIFP 120755Z AUTO 35009KT 10SM CLR 18/M03 A3021 RMK AO2 PWINO,KIFP,2015-02-12T07:55:00Z,35.15,-114.57,18.0,-3.0,350,9,,10.0,30.209646,,,TRUE,TRUE,,,,,TRUE,,CLR,,,,,,,,VFR,,,,,,,,,,,,METAR,212.0
KIER 120755Z AUTO 00000KT 10SM CLR 07/06 A3020 RMK AO2 T00670060,KIER,2015-02-12T07:55:00Z,31.73,-93.1,6.7,6.0,0,0,,10.0,30.200787,,,TRUE,TRUE,,,,,,,CLR,,,,,,,,VFR,,,,,,,,,,,,METAR,37.0
KIBM 120755Z AUTO 12003KT 10SM CLR M04/M04 A3032 RMK AO2 T10411045,KIBM,2015-02-12T07:55:00Z,41.18,-103.68,-4.1,-4.5,120,3,,10.0,30.318897,,,TRUE,TRUE,,,,,,,CLR,,,,,,,,VFR,,,,,,,,,,,,METAR,1501.0
KI16 120755Z AUTO 10SM OVC023 01/01 A2996 RMK AO2 T00140007,KI16,2015-02-12T07:55:00Z,37.6,-81.57,1.4,0.7,,,,10.0,29.958662,,,TRUE,TRUE,,,,,,,OVC,2300,,,,,,,MVFR,,,,,,,,,,,,METAR,544.0
KHZL 120755Z AUTO 19003KT 5SM BR OVC014 M02/M03 A2977 RMK AO2,KHZL,2015-02-12T07:55:00Z,40.98,-76.0,-2.0,-3.0,190,3,,5.0,29.769686,,,TRUE,TRUE,,,,,,BR,OVC,1400,,,,,,,MVFR,,,,,,,,,,,,METAR,489.0
KHVE 120755Z AUTO 00000KT 10SM CLR M02/M06 A3042 RMK AO2,KHVE,2015-02-12T07:55:00Z,38.42,-110.7,-2.0,-6.0,0,0,,10.0,30.41929,,,TRUE,TRUE,,,,,,,CLR,,,,,,,,VFR,,,,,,,,,,,,METAR,1350.0
KHRJ 120755Z AUTO 16003KT 10SM CLR 01/01 A2992 RMK AO2 T00130005,KHRJ,2015-02-12T07:55:00Z,35.38,-78.73,1.3,0.5,160,3,,10.0,29.920275,,,TRUE,TRUE,,,,,,,CLR,,,,,,,,VFR,,,,,,,,,,,,METAR,60.0
KHQZ 120755Z AUTO 36015G25KT 10SM CLR 07/M02 A3034 RMK AO1 T00661023,KHQZ,2015-02-12T07:55:00Z,32.75,-96.53,6.6,-2.3,360,15,25,10.0,30.339567,,,TRUE,TRUE,,,,,,,CLR,,,,,,,,VFR,,,,,,,,,,,,METAR,136.0
KHQU 120755Z AUTO 00000KT 10SM CLR 05/04 A2999 RMK AO1 T00510042,KHQU,2015-02-12T07:55:00Z,33.53,-82.52,5.1,4.2,0,0,,10.0,29.991142,,,TRUE,TRUE,,,,,,,CLR,,,,,,,,VFR,,,,,,,,,,,,METAR,152.0
KS25 120755Z AUTO 14007KT 10SM CLR M18/M21 A3045 RMK AO2,KS25,2015-02-12T07:55:00Z,47.8,-103.25,-18.0,-21.0,140,7,,10.0,30.448818,,,TRUE,TRUE,,,,,,,CLR,,,,,,,,VFR,,,,,,,,,,,,METAR,644.0
KRZL 120755Z AUTO 30010G15KT 10SM SCT090 M07/M10 A3012 RMK AO2,KRZL,2015-02-12T07:55:00Z,40.95,-87.18,-7.0,-10.0,300,10,15,10.0,30.121063,,,TRUE,TRUE,,,,,,,SCT,9000,,,,,,,VFR,,,,,,,,,,,,METAR,213.0
KRTS 120755Z AUTO 01003KT 10SM CLR 02/00 A3033 RMK AO2,KRTS,2015-02-12T07:55:00Z,39.67,-119.88,2.0,0.0,10,3,,10.0,30.33071,,,TRUE,TRUE,,,,,,,CLR,,,,,,,,VFR,,,,,,,,,,,,METAR,1540.0
KRNV 120755Z AUTO 35011KT 10SM CLR 05/03 A3025 RMK AO2 T00490025,KRNV,2015-02-12T07:55:00Z,33.77,-90.75,4.9,2.5,350,11,,10.0,30.250984,,,TRUE,TRUE,,,,,,,CLR,,,,,,,,VFR,,,,,,,,,,,,METAR,41.0
KRNC 120755Z AUTO 32004KT 10SM BKN017 BKN037 03/01 A3008 RMK,KRNC,2015-02-12T07:55:00Z,35.7,-85.85,3.0,1.0,320,4,,10.0,30.079725,,,TRUE,,,,,,,,BKN,1700,BKN,3700,,,,,MVFR,,,,,,,,,,,,METAR,315.0
KRCZ 120755Z AUTO 18004KT 10SM 03/01 A2991 RMK AO2 T00320005,KRCZ,2015-02-12T07:55:00Z,34.88,-79.77,3.2,0.5,180,4,,10.0,29.911417,,,TRUE,TRUE,,,,,,,,,,,,,,,,,,,,,,,,,,,METAR,109.0
KRCM 120755Z AUTO 30016G22KT 10SM OVC037 M01/M07 A3039 RMK AO2,KRCM,2015-02-12T07:55:00Z,38.78,-93.8,-1.0,-7.0,300,16,22,10.0,30.389763,,,TRUE,TRUE,,,,,,,OVC,3700,,,,,,,VFR,,,,,,,,,,,,METAR,244.0
KRCE 120755Z AUTO 04006KT 10SM M02/M05 A3044 RMK AO2,KRCE,2015-02-12T07:55:00Z,35.48,-97.82,-2.0,-5.0,40,6,,10.0,30.43996,,,TRUE,TRUE,,,,,,,,,,,,,,,,,,,,,,,,,,,METAR,413.0
KPVJ 120755Z AUTO 02016G24KT 10SM OVC110 03/M05 A3040 RMK AO2 T00251055,KPVJ,2015-02-12T07:55:00Z,34.72,-97.22,2.5,-5.5,20,16,24,10.0,30.398623,,,TRUE,TRUE,,,,,,,OVC,11000,,,,,,,VFR,,,,,,,,,,,,METAR,295.0
KPVF 120755Z AUTO 10005KT 10SM CLR 13/04 A3025 RMK AO1,KPVF,2015-02-12T07:55:00Z,38.72,-120.75,13.0,4.0,100,5,,10.0,30.250984,,,TRUE,TRUE,,,,,,,CLR,,,,,,,,VFR,,,,,,,,,,,,METAR,789.0
KPRO 120755Z AUTO 34019G24KT 10SM M14/M18 A3053 RMK AO2 T11421183,KPRO,2015-02-12T07:55:00Z,41.83,-94.17,-14.2,-18.3,340,19,24,10.0,30.528543,,,TRUE,TRUE,,,,,,,,,,,,,,,,,,,,,,,,,,,METAR,308.0
KPCZ 120755Z AUTO 33014G21KT 10SM CLR M13/M21 A3028 RMK AO2 T11281206,KPCZ,2015-02-12T07:55:00Z,44.33,-89.02,-12.8,-20.6,330,14,21,10.0,30.280512,,,TRUE,TRUE,,,,,,,CLR,,,,,,,,VFR,,,,,,,,,,,,METAR,252.0
KOXI 120755Z AUTO 31014G19KT 10SM OVC042 M05/M15 A3007 RMK AO1,KOXI,2015-02-12T07:55:00Z,41.33,-86.67,-5.0,-15.0,310,14,19,10.0,30.070866,,,TRUE,TRUE,,,,,,,OVC,4200,,,,,,,VFR,,,,,,,,,,,,METAR,209.0
KOLE 120755Z AUTO 32005KT 2 1/2SM -SN OVC006 M04/M04 A2968 RMK AO2,KOLE,2015-02-12T07:55:00Z,42.23,-78.37,-4.0,-4.0,320,5,,2.5,29.681103,,,TRUE,TRUE,,,,,,-SN,OVC,600,,,,,,,IFR,,,,,,,,,,,,METAR,651.0
KOJA 120755Z AUTO 35003KT 10SM CLR M01/M06 A3043 RMK AO2,KOJA,2015-02-12T07:55:00Z,35.55,-98.67,-1.0,-6.0,350,3,,10.0,30.431103,,,TRUE,TRUE,,,,,,,CLR,,,,,,,,VFR,,,,,,,,,,,,METAR,490.0
KO69 120755Z AUTO 00000KT 10SM CLR 08/08 A3022 RMK AO1,KO69,2015-02-12T07:55:00Z,38.25,-122.6,8.0,8.0,0,0,,10.0,30.221457,,,TRUE,TRUE,,,,,,,CLR,,,,,,,,VFR,,,,,,,,,,,,METAR,28.0
KN38 120755Z AUTO 22006KT 10SM SCT020 BKN026 OVC031 M01/M04 A2970 RMK AO2,KN38,2015-02-12T07:55:00Z,41.73,-77.4,-1.0,-4.0,220,6,,10.0,29.698818,,,TRUE,TRUE,,,,,,,SCT,2000,BKN,2600,OVC,3100,,,MVFR,,,,,,,,,,,,METAR,577.0
KMZG 120755Z AUTO 08005KT 10SM CLR 21/16 A3014 RMK A01,KMZG,2015-02-12T07:55:00Z,27.73,-96.18,21.0,16.0,80,5,,10.0,30.138779,,,TRUE,TRUE,,,,,,,CLR,,,,,,,,VFR,,,,,,,,,,,,METAR,29.0
KMQB 120755Z AUTO 31024G37KT 10SM OVC039 M10/M15 A3033 RMK AO2 T10971155,KMQB,2015-02-12T07:55:00Z,40.52,-90.65,-9.7,-15.5,310,24,37,10.0,30.33071,,,TRUE,TRUE,,,,,,,OVC,3900,,,,,,,VFR,,,,,,,,,,,,METAR,215.0
KMOR 120755Z AUTO 29005KT 10SM FEW035 06/M01 A3000 RMK,KMOR,2015-02-12T07:55:00Z,36.18,-83.37,6.0,-1.0,290,5,,10.0,30.0,,,TRUE,,,,,,,,FEW,3500,,,,,,,VFR,,,,,,,,,,,,METAR,400.0
KMMH 120755Z AUTO 00000KT 10SM CLR M01/M07 A3044 RMK AO1,KMMH,2015-02-12T07:55:00Z,37.62,-118.82,-1.0,-7.0,0,0,,10.0,30.43996,,,TRUE,TRUE,,,,,,,CLR,,,,,,,,VFR,,,,,,,,,,,,METAR,2173.0
KMIS 120755Z AUTO 28006KT 10SM BKN019 BKN027 BKN032 14/11 A3010 RMK A01,KMIS,2015-02-12T07:55:00Z,29.3,-88.85,14.0,11.0,280,6,,10.0,30.100393,,,TRUE,TRUE,,,,,,,BKN,1900,BKN,2700,BKN,3200,,,MVFR,,,,,,,,,,,,METAR,32.0
KMHV 120755Z AUTO 01011KT 10SM CLR 10/M06 A3027 RMK AO1,KMHV,2015-02-12T07:55:00Z,35.07,-118.15,10.0,-6.0,10,11,,10.0,30.268702,,,TRUE,TRUE,,,,,,,CLR,,,,,,,,VFR,,,,,,,,,,,,METAR,849.0
KMEV 120755Z AUTO 07004KT 10SM CLR 00/M01 A3036 RMK AO2,KMEV,2015-02-12T07:55:00Z,38.98,-119.75,0.0,-1.0,70,4,,10.0,30.360237,,,TRUE,TRUE,,,,,,,CLR,,,,,,,,VFR,,,,,,,,,,,,METAR,1439.0
KMDJ 120755Z AUTO 36006KT 10SM FEW027 SCT035 SCT041 18/05 A3014 RMK A01,KMDJ,2015-02-12T07:55:00Z,28.65,-89.8,18.0,5.0,360,6,,10.0,30.138779,,,TRUE,TRUE,,,,,,,FEW,2700,SCT,3500,SCT,4100,,,VFR,,,,,,,,,,,,METAR,31.0
KMCC 120755Z AUTO 30003KT 8SM CLR 09/09 A3023 RMK AO2,KMCC,2015-02-12T07:55:00Z,38.67,-121.4,9.0,9.0,300,3,,8.0,30.230314,,,TRUE,TRUE,,,,,,,CLR,,,,,,,,VFR,,,,,,,,,,,,METAR,23.0
KMAN 120755Z AUTO 09003KT 8SM CLR 03/03 A3035 RMK AO1,KMAN,2015-02-12T07:55:00Z,43.58,-116.52,3.0,3.0,90,3,,8.0,30.351377,,,TRUE,TRUE,,,,,,,CLR,,,,,,,,VFR,,,,,,,,,,,,METAR,774.0
KFHU 120755Z 11011KT 10SM CLR 08/M01 A3022 RMK SLP203,KFHU,2015-02-12T07:55:00Z,31.58,-110.35,8.0,-1.0,110,11,,10.0,30.221457,1020.3,,,,,,,,,,CLR,,,,,,,,VFR,,,,,,,,,,,,METAR,1438.0
KAXX 120755Z AUTO 00000KT 1 1/4SM BR OVC003 M11/M12 A3045 RMK AO2 T11121122,KAXX,2015-02-12T07:55:00Z,36.42,-105.28,-11.2,-12.2,0,0,,1.25,30.448818,,,TRUE,TRUE,,,,,,BR,OVC,300,,,,,,,LIFR,,,,,,,,,,,,METAR,2548.0
KAVQ 120755Z AUTO 00000KT 10SM CLR 11/01 A3014 RMK AO2 T01080005,KAVQ,2015-02-12T07:55:00Z,32.4,-111.22,10.8,0.5,0,0,,10.0,30.138779,,,TRUE,TRUE,,,,,,,CLR,,,,,,,,VFR,,,,,,,,,,,,METAR,619.0
KAVK 120755Z AUTO 31003KT 10SM CLR M02/M06 A3043 RMK AO2,KAVK,2015-02-12T07:55:00Z,36.77,-98.67,-2.0,-6.0,310,3,,10.0,30.431103,,,TRUE,TRUE,,,,,,,CLR,,,,,,,,VFR,,,,,,,,,,,,METAR,449.0
KAUN 120755Z AUTO 10005KT 10SM CLR 12/07 A3022 RMK AO1,KAUN,2015-02-12T07:55:00Z,38.95,-121.08,12.0,7.0,100,5,,10.0,30.221457,,,TRUE,TRUE,,,,,,,CLR,,,,,,,,VFR,,,,,,,,,,,,METAR,467.0
KAUH 120755Z AUTO 01019G22KT 10SM BKN023 M09/M13 A3056 RMK AO2 T10931131,KAUH,2015-02-12T07:55:00Z,40.88,-98.0,-9.3,-13.1,10,19,22,10.0,30.561024,,,TRUE,TRUE,,,,,,,BKN,2300,,,,,,,MVFR,,,,,,,,,,,,METAR,550.0
KATP 120755Z AUTO 06008KT 10SM FEW032 20/12 A3009 RMK A01,KATP,2015-02-12T07:55:00Z,27.2,-90.03,20.0,12.0,60,8,,10.0,30.088583,,,TRUE,TRUE,,,,,,,FEW,3200,,,,,,,VFR,,,,,,,,,,,,METAR,62.0
KASN 120755Z AUTO 00000KT 10SM CLR 01/00 A3007 RMK AO2 T00130000,KASN,2015-02-12T07:55:00Z,33.57,-86.05,1.3,0.0,0,0,,10.0,30.070866,,,TRUE,TRUE,,,,,,,CLR,,,,,,,,VFR,,,,,,,,,,,,METAR,162.0
KAPY 120755Z AUTO 08004KT 10SM SCT041 16/15 A3013 RMK AO2 T01620151,KAPY,2015-02-12T07:55:00Z,26.97,-99.25,16.2,15.1,80,4,,10.0,30.129921,,,TRUE,TRUE,,,,,,,SCT,4100,,,,,,,VFR,,,,,,,,,,,,METAR,129.0
KANW 120755Z AUTO 04010KT 10SM OVC015 M12/M15 A3053 RMK AO2 T11251152,KANW,2015-02-12T07:55:00Z,42.57,-100.0,-12.5,-15.2,40,10,,10.0,30.528543,,,TRUE,TRUE,,,,,,,OVC,1500,,,,,,,MVFR,,,,,,,,,,,,METAR,789.0
KALN 120755Z AUTO 31011G16KT 10SM OVC026 M02/M08 A3025 RMK AO2 T10211076 TSNO,KALN,2015-02-12T07:55:00Z,38.88,-90.03,-2.1,-7.6,310,11,16,10.0,30.250984,,,TRUE,TRUE,,,TRUE,,,,OVC,2600,,,,,,,MVFR,,,,,,,,,,,,METAR,166.0
KALM 120755Z AUTO 10SM CLR 04/M03 A3034 RMK AO2,KALM,2015-02-12T07:55:00Z,32.82,-105.97,4.0,-3.0,,,,10.0,30.339567,,,TRUE,TRUE,,,,,,,CLR,,,,,,,,VFR,,,,,,,,,,,,METAR,1279.0
KAJZ 120755Z AUTO 08004KT 10SM CLR 00/M06 A3043 RMK AO2 T00031057,KAJZ,2015-02-12T07:55:00Z,38.78,-108.07,0.3,-5.7,80,4,,10.0,30.431103,,,TRUE,TRUE,,,,,,,CLR,,,,,,,,VFR,,,,,,,,,,,,METAR,1583.0
KAJG 120755Z AUTO 32015G21KT 10SM BKN027 M01/M08 A3018 RMK AO2,KAJG,2015-02-12T07:55:00Z,38.62,-87.73,-1.0,-8.0,320,15,21,10.0,30.180119,,,TRUE,TRUE,,,,,,,BKN,2700,,,,,,,MVFR,,,,,,,,,,,,METAR,131.0
KAEJ 120755Z AUTO 24003KT 10SM CLR M08/M10 A3042 RMK AO2 T10791096,KAEJ,2015-02-12T07:55:00Z,38.82,-106.12,-7.9,-9.6,240,3,,10.0,30.41929,,,TRUE,TRUE,,,,,,,CLR,,,,,,,,VFR,,,,,,,,,,,,METAR,2422.0
KADM 120755Z AUTO 02013G17KT 10SM SCT100 03/M02 A3038 RMK AO2 T00321025,KADM,2015-02-12T07:55:00Z,34.28,-97.02,3.2,-2.5,20,13,17,10.0,30.380905,,,TRUE,TRUE,,,,,,,SCT,10000,,,,,,,VFR,,,,,,,,,,,,METAR,232.0
KADH 120755Z AUTO 01014KT 10SM BKN110 02/M03 A3041 RMK AO2,KADH,2015-02-12T07:55:00Z,34.8,-96.67,2.0,-3.0,10,14,,10.0,30.410433,,,TRUE,TRUE,,,,,,,BKN,11000,,,,,,,VFR,,,,,,,,,,,,METAR,308.0
KAAA 120755Z AUTO 31013G21KT 10SM -SN OVC028 M06/M11 A3026 RMK AO2 T10601107,KAAA,2015-02-12T07:55:00Z,40.17,-89.33,-6.0,-10.7,310,13,21,10.0,30.259842,,,TRUE,TRUE,,,,,,-SN,OVC,2800,,,,,,,MVFR,,,,,,,,,,,,METAR,182.0
K82V 120755Z AUTO 00000KT 10SM CLR M03/M05 A3033 RMK AO2,K82V,2015-02-12T07:55:00Z,41.15,-104.13,-3.0,-5.0,0,0,,10.0,30.33071,,,TRUE,TRUE,,,,,,,CLR,,,,,,,,VFR,,,,,,,,,,,,METAR,1570.0
K82C 120755Z AUTO 32013G17KT 10SM CLR M13/M18 A3030 RMK AO2 T11281181,K82C,2015-02-12T07:55:00Z,43.83,-90.13,-12.8,-18.1,320,13,17,10.0,30.301182,,,TRUE,TRUE,,,,,,,CLR,,,,,,,,VFR,,,,,,,,,,,,METAR,276.0
K65S 120755Z AUTO 00000KT 2SM BR BKN018 OVC100 03/03 A3025 RMK AO2,K65S,2015-02-12T07:55:00Z,48.73,-116.3,3.0,3.0,0,0,,2.0,30.250984,,,TRUE,TRUE,,,,,,BR,BKN,1800,OVC,10000,,,,,IFR,,,,,,,,,,,,METAR,713.0
K5T9 120755Z AUTO 34009KT 10SM OVC028 17/08 A3021 RMK A01,K5T9,2015-02-12T07:55:00Z,28.85,-100.52,17.0,8.0,340,9,,10.0,30.209646,,,TRUE,TRUE,,,,,,,OVC,2800,,,,,,,MVFR,,,,,,,,,,,,METAR,270.0
K5C1 120755Z AUTO 01011G15KT 10SM OVC036 13/06 A3025 RMK AO1,K5C1,2015-02-12T07:55:00Z,29.72,-98.7,13.0,6.0,10,11,15,10.0,30.250984,,,TRUE,TRUE,,,,,,,OVC,3600,,,,,,,VFR,,,,,,,,,,,,METAR,423.0
K4O4 120755Z AUTO 34010KT 10SM CLR 05/M02 A3032 RMK AO2,K4O4,2015-02-12T07:55:00Z,33.92,-94.87,5.0,-2.0,340,10,,10.0,30.318897,,,TRUE,TRUE,,,,,,,CLR,,,,,,,,VFR,,,,,,,,,,,,METAR,144.0
K4A9 120755Z AUTO 00000KT 10SM CLR M01/M03 A3005 RMK AO2,K4A9,2015-02-12T07:55:00Z,34.47,-85.72,-1.0,-3.0,0,0,,10.0,30.050198,,,TRUE,TRUE,,,,,,,CLR,,,,,,,,VFR,,,,,,,,,,,,METAR,267.0
K40J 120755Z AUTO 00000KT 2 1/2SM BR CLR 06/06 A3005 RMK AO2 VIS 3/4V5 T00570057,K40J,2015-02-12T07:55:00Z,30.07,-83.57,5.7,5.7,0,0,,2.5,30.050198,,,TRUE,TRUE,,,,,,BR,CLR,,,,,,,,IFR,,,,,,,,,,,,METAR,13.0
K3J7 120755Z AUTO 26005KT 10SM CLR 08/03 A2993 RMK AO2,K3J7,2015-02-12T07:55:00Z,33.6,-83.13,8.0,3.0,260,5,,10.0,29.929134,,,TRUE,TRUE,,,,,,,CLR,,,,,,,,VFR,,,,,,,,,,,,METAR,206.0
K3I2 120755Z AUTO 27003KT 4SM UP SCT007 BKN018 OVC024 01/00 A2997 RMK AO2,K3I2,2015-02-12T07:55:00Z,38.92,-82.1,1.0,0.0,270,3,,4.0,29.970472,,,TRUE,TRUE,,,,,,UP,SCT,700,BKN,1800,OVC,2400,,,MVFR,,,,,,,,,,,,METAR,196.0
K2I0 120755Z AUTO 32008KT 10SM SCT026 M01/M05 A3018 RMK AO2 T10071055,K2I0,2015-02-12T07:55:00Z,37.35,-87.4,-0.7,-5.5,320,8,,10.0,30.180119,,,TRUE,TRUE,,,,,,,SCT,2600,,,,,,,VFR,,,,,,,,,,,,METAR,134.0
K1K1 120755Z AUTO 34003KT 10SM CLR M04/M08 A3044 RMK AO2 T10431076,K1K1,2015-02-12T07:55:00Z,37.77,-97.12,-4.3,-7.6,340,3,,10.0,30.43996,,,TRUE,TRUE,,,,,,,CLR,,,,,,,,VFR,,,,,,,,,,,,METAR,416.0
K1II 120755Z AUTO 32014KT 10SM OVC029 M03/M08 A3009 RMK AO2,K1II,2015-02-12T07:55:00Z,39.33,-86.03,-3.0,-8.0,320,14,,10.0,30.088583,,,TRUE,TRUE,,,,,,,OVC,2900,,,,,,,MVFR,,,,,,,,,,,,METAR,214.0
K1A5 120755Z AUTO 00000KT 10SM 00/M03 A2998 RMK AO2 T00001030,K1A5,2015-02-12T07:55:00Z,35.22,-83.42,0.0,-3.0,0,0,,10.0,29.97933,,,TRUE,TRUE,,,,,,,,,,,,,,,,,,,,,,,,,,,METAR,616.0
K19A 120755Z AUTO 29006KT 10SM CLR 06/01 A2995 RMK AO2,K19A,2015-02-12T07:55:00Z,34.18,-83.57,6.0,1.0,290,6,,10.0,29.949802,,,TRUE,TRUE,,,,,,,CLR,,,,,,,,VFR,,,,,,,,,,,,METAR,290.0
K11R 120755Z AUTO 01007KT 10SM OVC027 15/10 A3023 RMK AO2 T01510098,K11R,2015-02-12T07:55:00Z,30.22,-96.37,15.1,9.8,10,7,,10.0,30.230314,,,TRUE,TRUE,,,,,,,OVC,2700,,,,,,,MVFR,,,,,,,,,,,,METAR,94.0
FJDG 120755Z 01008KT 9999 FEW020 BKN220 32/26 A2984 RMK SLP102 T03210264,FJDG,2015-02-12T07:55:00Z,-7.32,72.42,32.1,26.4,10,8,,6.21,29.840551,1010.2,,,,,,,,,,FEW,2000,BKN,22000,,,,,VFR,,,,,,,,,,,,METAR,3.0
KMCD 120755Z AUTO 36016G28KT 10SM OVC085 M17/M21 A3006 RMK AO2 T11711213,KMCD,2015-02-12T07:55:00Z,45.85,-84.63,-17.1,-21.3,360,16,28,10.0,30.059055,,,TRUE,TRUE,,,,,,,OVC,8500,,,,,,,VFR,,,,,,,,,,,,METAR,226.0
KQVF 120755Z AUTO VRB01KT 9999 FEW023 28/21 A3001 RMK AO2 SLP161 T02820214 $,KQVF,2015-02-12T07:55:00Z,100.65,-1000.65,28.2,21.4,0,1,,6.21,30.008858,1016.1,,TRUE,TRUE,TRUE,,,,,,FEW,2300,,,,,,,VFR,,,,,,,,,,,,METAR,999.0
KQSA 120755Z 06005KT 9999 FEW050 BKN090 OVC150 11/02 A3019 RMK AO2A SLP179 P0000 T01110021,KQSA,2015-02-12T07:55:00Z,100.65,-1000.65,11.1,2.1,60,5,,6.21,30.188976,1017.9,,,TRUE,,,,,,,FEW,5000,BKN,9000,OVC,15000,,,VFR,,,,,,0.0050,,,,,,METAR,999.0
KQND 120755Z AUTO VRB06KT CLR 25/M05 A2995 RMK AO2 SLP126 T02481055 PWINO TSNO $,KQND,2015-02-12T07:55:00Z,100.65,-1000.65,24.8,-5.5,0,6,,,29.949802,1012.6,,TRUE,TRUE,TRUE,,TRUE,,TRUE,,CLR,,,,,,,,,,,,,,,,,,,,METAR,999.0
KQLP 120755Z AUTO VRB06KT 24/03 Q1025 RMK AO2 SLP145 T02430034 PWINO TSNO $,KQLP,2015-02-12T07:55:00Z,100.65,-1000.65,24.3,3.4,0,6,,,30.265747,1014.5,,TRUE,TRUE,TRUE,,TRUE,,TRUE,,,,,,,,,,,,,,,,,,,,,,METAR,999.0
K9L2 120755Z AUTO 00000KT 10SM CLR 05/M04 A3024 RMK AO2 SLP243 T00501039 402280000 TSNO $ ,K9L2,2015-02-12T07:55:00Z,34.97,-117.87,5.0,-3.9,0,0,,10.0,30.239174,1024.3,,TRUE,TRUE,TRUE,,TRUE,,,,CLR,,,,,,,,VFR,,,,22.8,,,,,,,,METAR,701.0
KVPS 120755Z 31002KT 10SM SCT250 06/04 A3006 RMK AO2A SLP186 T00570042 $,KVPS,2015-02-12T07:55:00Z,30.47,-86.52,5.7,4.2,310,2,,10.0,30.059055,1018.6,,,TRUE,TRUE,,,,,,SCT,25000,,,,,,,VFR,,,,,,,,,,,,METAR,26.0
EHWO 120755Z AUTO 08002KT 2700 R25/2100 BR OVC019 02/02 Q1021 YLO 09002KT 2500 BR OVC017 BECMG 4500,EHWO,2015-02-12T07:55:00Z,51.45,4.32,2.0,2.0,80,2,,1.68,30.147638,,,TRUE,,,,,,,BR BR,OVC,1900,OVC,1700,,,,,IFR,,,,,,,,,,,,METAR,17.0
EHVL 120755Z AUTO 16005KT //// // BKN008 OVC009 03/01 Q1022 RE//,EHVL,2015-02-12T07:55:00Z,53.23,4.92,3.0,1.0,160,5,,,30.177166,,,TRUE,,,,,,,,BKN,800,OVC,900,,,,,,,,,,,,,,,,,METAR,5.0
EHVK 120755Z AUTO 05001KT 2300 BR OVC008 M01/M02 Q1022 YLO,EHVK,2015-02-12T07:55:00Z,51.63,5.7,-1.0,-2.0,50,1,,1.43,30.177166,,,TRUE,,,,,,,BR,OVC,800,,,,,,,IFR,,,,,,,,,,,,METAR,21.0
EHLW 120755Z AUTO 18003KT 2800 R23/P3000 BR OVC005 02/01 Q1022 YLO,EHLW,2015-02-12T07:55:00Z,53.22,5.75,2.0,1.0,180,3,,1.74,30.177166,,,TRUE,,,,,,,BR,OVC,500,,,,,,,IFR,,,,,,,,,,,,METAR,2.0
EHGR 120755Z AUTO 13002KT 3700 BR OVC014 00/M00 Q1022 GRN 15003KT 4000 BR OVC015 TEMPO 3000,EHGR,2015-02-12T07:55:00Z,51.57,4.92,0.0,0.0,130,2,,2.3,30.177166,,,TRUE,,,,,,,BR BR,OVC,1400,OVC,1500,,,,,IFR,,,,,,,,,,,,METAR,13.0
EHDL 120755Z AUTO 13003KT 1400 BR OVC002 00/M00 Q1022 AMB,EHDL,2015-02-12T07:55:00Z,52.07,5.87,0.0,0.0,130,3,,0.87,30.177166,,,TRUE,,,,,,,BR,OVC,200,,,,,,,LIFR,,,,,,,,,,,,METAR,52.0
NZPG 120755Z 06011KT 9999 FEW015 SCT080 BKN190 M10/M13 A2898 RMK SLP815 LSR11 GRID23011KT SDG/HDG,NZPG,2015-02-12T07:55:00Z,-77.95,166.52,-10.0,-13.0,60,11,,6.21,28.981298,981.5,,,,,,,,,,FEW,1500,SCT,8000,BKN,19000,,,VFR,,,,,,,,,,,,METAR,5.0
EHKD 120755Z AUTO 13005KT 2900 R21/2900 BR BKN009 OVC011 03/01 Q1022 YLO 14004KT 3000 BR SCT010 OVC012,EHKD,2015-02-12T07:55:00Z,52.92,4.77,3.0,1.0,130,5,,1.8,30.177166,,,TRUE,,,,,,,BR BR,BKN,900,OVC,1100,SCT,1000,OVC,1200,IFR,,,,,,,,,,,,METAR,14.0
KW13 120755Z AUTO 24006KT 10SM BKN039 04/M03 A2981 RMK AO1 T00371027,KW13,2015-02-12T07:55:00Z,38.08,-78.95,3.7,-2.7,240,6,,10.0,29.811024,,,TRUE,TRUE,,,,,,,BKN,3900,,,,,,,VFR,,,,,,,,,,,,METAR,443.0
KVTI 120755Z AUTO 34016G23KT 10SM CLR M14/M19 A3040 RMK AO2 T11361186,KVTI,2015-02-12T07:55:00Z,42.22,-92.02,-13.6,-18.6,340,16,23,10.0,30.398623,,,TRUE,TRUE,,,,,,,CLR,,,,,,,,VFR,,,,,,,,,,,,METAR,255.0
KBNL 120755Z AUTO 00000KT 03/02 A2995 RMK AO2,KBNL,2015-02-12T07:55:00Z,33.25,-81.38,3.0,2.0,0,0,,,29.949802,,,TRUE,TRUE,,,,,,,,,,,,,,,,,,,,,,,,,,,METAR,75.0
KBLM 120755Z AUTO 00000KT 10SM CLR M04/M09 A2986 RMK AO1,KBLM,2015-02-12T07:55:00Z,40.17,-74.12,-4.0,-9.0,0,0,,10.0,29.861221,,,TRUE,TRUE,,,,,,,CLR,,,,,,,,VFR,,,,,,,,,,,,METAR,48.0
KBJC 120755Z AUTO 00000KT 10SM CLR 01/M02 A3033 RMK AO2,KBJC,2015-02-12T07:55:00Z,39.9,-105.1,1.0,-2.0,0,0,,10.0,30.33071,,,TRUE,TRUE,,,,,,,CLR,,,,,,,,VFR,,,,,,,,,,,,METAR,1724.0
KBID 120755Z AUTO 03003KT 10SM CLR M05/M09 A2985 RMK AO1,KBID,2015-02-12T07:55:00Z,41.17,-71.58,-5.0,-9.0,30,3,,10.0,29.84941,,,TRUE,TRUE,,,,,,,CLR,,,,,,,,VFR,,,,,,,,,,,,METAR,33.0
KBHB 120755Z 01008KT 10SM OVC016 M16/M18 A2990 RMK AO1,KBHB,2015-02-12T07:55:00Z,44.45,-68.37,-16.0,-18.0,10,8,,10.0,29.899607,,,,TRUE,,,,,,,OVC,1600,,,,,,,MVFR,,,,,,,,,,,,METAR,26.0
KHOB 120755Z AUTO 36012KT 10SM OVC044 03/00 A3044 RMK AO2,KHOB,2015-02-12T07:55:00Z,32.67,-103.22,3.0,0.0,360,12,,10.0,30.43996,,,TRUE,TRUE,,,,,,,OVC,4400,,,,,,,VFR,,,,,,,,,,,,METAR,1115.0
KBOW 120755Z AUTO 00000KT 10SM CLR 05/05 A3006 RMK AO2,KBOW,2015-02-12T07:55:00Z,27.93,-81.77,5.0,5.0,0,0,,10.0,30.059055,,,TRUE,TRUE,,,,,,,CLR,,,,,,,,VFR,,,,,,,,,,,,METAR,39.0
KSUE 120755Z AUTO 32015G21KT 10SM CLR M14/M21 A3019 RMK AO1,KSUE,2015-02-12T07:55:00Z,44.85,-87.42,-14.0,-21.0,320,15,21,10.0,30.188976,,,TRUE,TRUE,,,,,,,CLR,,,,,,,,VFR,,,,,,,,,,,,METAR,221.0
KSUA 120755Z AUTO 34004KT 10SM CLR 12/08 A3005 RMK AO2,KSUA,2015-02-12T07:55:00Z,27.18,-80.22,12.0,8.0,340,4,,10.0,30.050198,,,TRUE,TRUE,,,,,,,CLR,,,,,,,,VFR,,,,,,,,,,,,METAR,6.0
KSRB 120755Z AUTO 00000KT 10SM BKN019 03/00 A3006 RMK,KSRB,2015-02-12T07:55:00Z,36.05,-85.53,3.0,0.0,0,0,,10.0,30.059055,,,TRUE,,,,,,,,BKN,1900,,,,,,,MVFR,,,,,,,,,,,,METAR,313.0
KSQI 120755Z AUTO 31011G20KT 3SM OVC025 M11/M13 A3024 RMK AO1,KSQI,2015-02-12T07:55:00Z,41.75,-89.67,-11.0,-13.0,310,11,20,3.0,30.239174,,,TRUE,TRUE,,,,,,,OVC,2500,,,,,,,MVFR,,,,,,,,,,,,METAR,197.0
KSPL 120755Z AUTO 15004KT 1 3/4SM OVC046 17/17 A3011 RMK AO1,KSPL,2015-02-12T07:55:00Z,26.07,-97.15,17.0,17.0,150,4,,1.75,30.109253,,,TRUE,TRUE,,,,,,,OVC,4600,,,,,,,IFR,,,,,,,,,,,,METAR,4.0
KSOP 120755Z AUTO 23004KT 10SM CLR 02/M01 A2990 RMK AO1,KSOP,2015-02-12T07:55:00Z,35.22,-79.4,2.0,-1.0,230,4,,10.0,29.899607,,,TRUE,TRUE,,,,,,,CLR,,,,,,,,VFR,,,,,,,,,,,,METAR,141.0
KSNH 120755Z AUTO 35012KT 10SM BKN022 OVC035 03/M02 A3017 RMK,KSNH,2015-02-12T07:55:00Z,35.17,-88.22,3.0,-2.0,350,12,,10.0,30.171259,,,TRUE,,,,,,,,BKN,2200,OVC,3500,,,,,MVFR,,,,,,,,,,,,METAR,144.0
KSMN 120755Z AUTO 00000KT 10SM BKN110 01/M02 A3035 RMK AO1,KSMN,2015-02-12T07:55:00Z,45.12,-113.87,1.0,-2.0,0,0,,10.0,30.351377,,,TRUE,TRUE,,,,,,,BKN,11000,,,,,,,VFR,,,,,,,,,,,,METAR,1233.0
KSLO 120755Z AUTO 31011KT 10SM OVC026 M02/M07 A3021 RMK AO2 T10241070,KSLO,2015-02-12T07:55:00Z,38.65,-88.97,-2.4,-7.0,310,11,,10.0,30.209646,,,TRUE,TRUE,,,,,,,OVC,2600,,,,,,,MVFR,,,,,,,,,,,,METAR,175.0
KSLG 120755Z AUTO 00000KT 10SM CLR M04/M09 A3040 RMK AO1,KSLG,2015-02-12T07:55:00Z,36.2,-94.47,-4.0,-9.0,0,0,,10.0,30.398623,,,TRUE,TRUE,,,,,,,CLR,,,,,,,,VFR,,,,,,,,,,,,METAR,300.0
KSKX 120755Z AUTO 10004KT 10SM BKN016 M03/M07 A3044 RMK AO1,KSKX,2015-02-12T07:55:00Z,36.45,-105.67,-3.0,-7.0,100,4,,10.0,30.43996,,,TRUE,TRUE,,,,,,,BKN,1600,,,,,,,MVFR,,,,,,,,,,,,METAR,2161.0
KCGZ 120755Z AUTO 02011KT 10SM CLR 17/M01 A3014 RMK AO1 40250 0080,KCGZ,2015-02-12T07:55:00Z,32.95,-111.77,17.0,-1.0,20,11,,10.0,30.138779,,,TRUE,TRUE,,,,,,,CLR,,,,,,,,VFR,,,,,,,,,,,,METAR,446.0
KCFS 120755Z AUTO 31011KT 10SM CLR M10/M15 A2996 RMK AO2 T11031155,KCFS,2015-02-12T07:55:00Z,43.47,-83.45,-10.3,-15.5,310,11,,10.0,29.958662,,,TRUE,TRUE,,,,,,,CLR,,,,,,,,VFR,,,,,,,,,,,,METAR,214.0
KCEY 120755Z AUTO 33007KT 10SM FEW023 M02/M06 A3020 RMK AO1,KCEY,2015-02-12T07:55:00Z,36.67,-88.37,-2.0,-6.0,330,7,,10.0,30.200787,,,TRUE,TRUE,,,,,,,FEW,2300,,,,,,,VFR,,,,,,,,,,,,METAR,176.0
KCDN 120755Z AUTO 00000KT 10SM CLR 05/01 A2991 RMK AO2 TSNO,KCDN,2015-02-12T07:55:00Z,34.28,-80.57,5.0,1.0,0,0,,10.0,29.911417,,,TRUE,TRUE,,,TRUE,,,,CLR,,,,,,,,VFR,,,,,,,,,,,,METAR,92.0
KCDH 120755Z AUTO 10SM CLR 07/02 A3028 RMK AO2,KCDH,2015-02-12T07:55:00Z,33.62,-92.77,7.0,2.0,,,,10.0,30.280512,,,TRUE,TRUE,,,,,,,CLR,,,,,,,,VFR,,,,,,,,,,,,METAR,35.0
KCCY 120755Z AUTO 34021G27KT 10SM OVC013 M16/M21 A3043 RMK AO2,KCCY,2015-02-12T07:55:00Z,43.07,-92.62,-16.0,-21.0,340,21,27,10.0,30.431103,,,TRUE,TRUE,,,,,,,OVC,1300,,,,,,,MVFR,,,,,,,,,,,,METAR,343.0
KCCU 120755Z AUTO 26019KT 10SM CLR M05/M11 A3045 RMK AO2,KCCU,2015-02-12T07:55:00Z,39.48,-106.15,-5.0,-11.0,260,19,,10.0,30.448818,,,TRUE,TRUE,,,,,,,CLR,,,,,,,,VFR,,,,,,,,,,,,METAR,3680.0
KCBG 120755Z AUTO 33009KT 10SM CLR M18/M23 A3054 RMK AO2,KCBG,2015-02-12T07:55:00Z,45.57,-93.27,-18.0,-23.0,330,9,,10.0,30.540354,,,TRUE,TRUE,,,,,,,CLR,,,,,,,,VFR,,,,,,,,,,,,METAR,287.0
KCAD 120755Z AUTO 32015G20KT 3SM -SN SCT008 BKN016 OVC023 M11/M15 A2996 RMK AO2 T11151150,KCAD,2015-02-12T07:55:00Z,44.27,-85.42,-11.5,-15.0,320,15,20,3.0,29.958662,,,TRUE,TRUE,,,,,,-SN,SCT,800,BKN,1600,OVC,2300,,,MVFR,,,,,,,,,,,,METAR,398.0
KBXA 120755Z AUTO 00000KT 10SM 07/05 A3015 RMK AO2 T00700045,KBXA,2015-02-12T07:55:00Z,30.82,-89.87,7.0,4.5,0,0,,10.0,30.15059,,,TRUE,TRUE,,,,,,,,,,,,,,,,,,,,,,,,,,,METAR,36.0
KBVX 120755Z AUTO 30004KT 10SM CLR 00/M07 A3033 RMK AO1,KBVX,2015-02-12T07:55:00Z,35.73,-91.65,0.0,-7.0,300,4,,10.0,30.33071,,,TRUE,TRUE,,,,,,,CLR,,,,,,,,VFR,,,,,,,,,,,,METAR,141.0
KBVU 120755Z AUTO 00000KT 10SM CLR 13/M03 A3029 RMK AO2,KBVU,2015-02-12T07:55:00Z,35.95,-114.87,13.0,-3.0,0,0,,10.0,30.28937,,,TRUE,TRUE,,,,,,,CLR,,,,,,,,VFR,,,,,,,,,,,,METAR,671.0
KBVS 120755Z AUTO 00000KT 10SM FEW110 09/09 A3023 RMK A01 P000,KBVS,2015-02-12T07:55:00Z,48.47,-122.42,9.0,9.0,0,0,,10.0,30.230314,,,TRUE,TRUE,,,,,,,FEW,11000,,,,,,,VFR,,,,,,,,,,,,METAR,43.0
KBTP 120755Z AUTO 26009G15KT 230V290 3SM FEW010 BKN016 OVC021 M02/M03 A2984 RMK AO1,KBTP,2015-02-12T07:55:00Z,40.77,-79.95,-2.0,-3.0,260,9,15,3.0,29.840551,,,TRUE,TRUE,,,,,,,FEW,1000,BKN,1600,OVC,2100,,,MVFR,,,,,,,,,,,,METAR,380.0
KCVH 120755Z AUTO 00000KT 10SM CLR 09/09 A3019 RMK AO1,KCVH,2015-02-12T07:55:00Z,36.9,-121.42,9.0,9.0,0,0,,10.0,30.188976,,,TRUE,TRUE,,,,,,,CLR,,,,,,,,VFR,,,,,,,,,,,,METAR,70.0
KRZT 120755Z AUTO 29012G18KT 10SM SCT016 BKN023 OVC031 00/M02 A2997 RMK AO2,KRZT,2015-02-12T07:55:00Z,39.43,-83.02,0.0,-2.0,290,12,18,10.0,29.970472,,,TRUE,TRUE,,,,,,,SCT,1600,BKN,2300,OVC,3100,,,MVFR,,,,,,,,,,,,METAR,221.0
KOLV 120755Z AUTO 35010G15KT 10SM CLR 01/M01 A3025 RMK A01 P000,KOLV,2015-02-12T07:55:00Z,34.98,-89.78,1.0,-1.0,350,10,15,10.0,30.250984,,,TRUE,TRUE,,,,,,,CLR,,,,,,,,VFR,,,,,,,,,,,,METAR,122.0
KN03 120755Z AUTO 23003KT 10SM BKN026 OVC030 M01/M02 A2973 RMK AO2,KN03,2015-02-12T07:55:00Z,42.6,-76.22,-1.0,-2.0,230,3,,10.0,29.731298,,,TRUE,TRUE,,,,,,,BKN,2600,OVC,3000,,,,,MVFR,,,,,,,,,,,,METAR,366.0
KHVS 120755Z AUTO 00000KT 10SM CLR 03/01 A2992 RMK AO2,KHVS,2015-02-12T07:55:00Z,34.4,-80.12,3.0,1.0,0,0,,10.0,29.920275,,,TRUE,TRUE,,,,,,,CLR,,,,,,,,VFR,,,,,,,,,,,,METAR,111.0
KUDG 120755Z AUTO 21005KT 10SM CLR 03/M01 A2992 RMK AO1,KUDG,2015-02-12T07:55:00Z,34.45,-79.88,3.0,-1.0,210,5,,10.0,29.920275,,,TRUE,TRUE,,,,,,,CLR,,,,,,,,VFR,,,,,,,,,,,,METAR,59.0
KTVF 120755Z AUTO 30006KT 10SM CLR M25/M31 A3064 RMK AO1,KTVF,2015-02-12T07:55:00Z,48.07,-96.17,-25.0,-31.0,300,6,,10.0,30.640747,,,TRUE,TRUE,,,,,,,CLR,,,,,,,,VFR,,,,,,,,,,,,METAR,340.0
KTTA 120755Z AUTO 00000KT 10SM CLR M02/M02 A2990 RMK AO2 T10171017,KTTA,2015-02-12T07:55:00Z,35.58,-79.1,-1.7,-1.7,0,0,,10.0,29.899607,,,TRUE,TRUE,,,,,,,CLR,,,,,,,,VFR,,,,,,,,,,,,METAR,75.0
KTPL 120755Z AUTO 34016G23KT 10SM BKN049 BKN060 09/02 A3029 RMK AO1,KTPL,2015-02-12T07:55:00Z,31.13,-97.4,9.0,2.0,340,16,23,10.0,30.28937,,,TRUE,TRUE,,,,,,,BKN,4900,BKN,6000,,,,,VFR,,,,,,,,,,,,METAR,208.0
KTME 120755Z AUTO 36008KT 3SM BR BKN048 BKN050 12/12 A3020 RMK AO2,KTME,2015-02-12T07:55:00Z,29.8,-95.9,12.0,12.0,360,8,,3.0,30.200787,,,TRUE,TRUE,,,,,,BR,BKN,4800,BKN,5000,,,,,MVFR,,,,,,,,,,,,METAR,51.0
KTHA 120755Z AUTO 34007KT 10SM OVC036 02/M01 A3009 RMK,KTHA,2015-02-12T07:55:00Z,35.38,-86.25,2.0,-1.0,340,7,,10.0,30.088583,,,TRUE,,,,,,,,OVC,3600,,,,,,,VFR,,,,,,,,,,,,METAR,331.0
KTEX 120755Z AUTO 14005KT 10SM CLR M03/M09 A3048 RMK AO2 T10281087,KTEX,2015-02-12T07:55:00Z,37.95,-107.9,-2.8,-8.7,140,5,,10.0,30.481298,,,TRUE,TRUE,,,,,,,CLR,,,,,,,,VFR,,,,,,,,,,,,METAR,2769.0
KTBX 120755Z AUTO 13008KT 10SM OVC100 00/M03 A3033 RMK AO2,KTBX,2015-02-12T07:55:00Z,43.47,-108.23,0.0,-3.0,130,8,,10.0,30.33071,,,TRUE,TRUE,,,,,,,OVC,10000,,,,,,,VFR,,,,,,,,,,,,METAR,2225.0
KUTA 120755Z AUTO 34014KT 10SM CLR 02/M01 A3028 RMK AO2,KUTA,2015-02-12T07:55:00Z,34.68,-90.35,2.0,-1.0,340,14,,10.0,30.280512,,,TRUE,TRUE,,,,,,,CLR,,,,,,,,VFR,,,,,,,,,,,,METAR,59.0
KUKT 120755Z AUTO 21003KT 10SM BKN040 OVC060 M02/M05 A2984 RMK AO1,KUKT,2015-02-12T07:55:00Z,40.43,-75.38,-2.0,-5.0,210,3,,10.0,29.840551,,,TRUE,TRUE,,,,,,,BKN,4000,OVC,6000,,,,,VFR,,,,,,,,,,,,METAR,160.0
KFKA 120755Z AUTO 34015G24KT 10SM CLR M18/M21 A3040 RMK AO2 T11771215,KFKA,2015-02-12T07:55:00Z,43.68,-92.17,-17.7,-21.5,340,15,24,10.0,30.398623,,,TRUE,TRUE,,,,,,,CLR,,,,,,,,VFR,,,,,,,,,,,,METAR,389.0
KHCO 120755Z AUTO 32006KT 10SM CLR M25/M28 A3071 RMK AO2,KHCO,2015-02-12T07:55:00Z,48.75,-96.93,-25.0,-28.0,320,6,,10.0,30.708662,,,TRUE,TRUE,,,,,,,CLR,,,,,,,,VFR,,,,,,,,,,,,METAR,250.0
KGYL 120755Z AUTO 33012G18KT 10SM CLR M17/M21 A3057 RMK AO2 T11721206,KGYL,2015-02-12T07:55:00Z,44.77,-94.08,-17.2,-20.6,330,12,18,10.0,30.569881,,,TRUE,TRUE,,,,,,,CLR,,,,,,,,VFR,,,,,,,,,,,,METAR,302.0
KMGG 120755Z AUTO 33012KT 10SM CLR M18/M21 A3057 RMK AO2 T11811212,KMGG,2015-02-12T07:55:00Z,45.23,-93.98,-18.1,-21.2,330,12,,10.0,30.569881,,,TRUE,TRUE,,,,,,,CLR,,,,,,,,VFR,,,,,,,,,,,,METAR,313.0
KLYV 120755Z AUTO 35014G21KT 10SM CLR M16/M20 A3060 RMK AO2,KLYV,2015-02-12T07:55:00Z,43.62,-96.22,-16.0,-20.0,350,14,21,10.0,30.59941,,,TRUE,TRUE,,,,,,,CLR,,,,,,,,VFR,,,,,,,,,,,,METAR,436.0
KOWA 120755Z AUTO 34014G18KT 10SM CLR M17/M22 A3050 RMK AO2,KOWA,2015-02-12T07:55:00Z,44.12,-93.25,-17.0,-22.0,340,14,18,10.0,30.499016,,,TRUE,TRUE,,,,,,,CLR,,,,,,,,VFR,,,,,,,,,,,,METAR,350.0
KROS 120755Z AUTO 33006KT 10SM BKN120 M19/M23 A3054 RMK AO2 T11871226,KROS,2015-02-12T07:55:00Z,45.7,-92.95,-18.7,-22.6,330,6,,10.0,30.540354,,,TRUE,TRUE,,,,,,,BKN,12000,,,,,,,VFR,,,,,,,,,,,,METAR,281.0
KPOV 120755Z AUTO 29006KT 10SM BKN017 BKN022 OVC055 M03/M06 A2986 RMK AO2 T10271057,KPOV,2015-02-12T07:55:00Z,41.22,-81.25,-2.7,-5.7,290,6,,10.0,29.861221,,,TRUE,TRUE,,,,,,,BKN,1700,BKN,2200,OVC,5500,,,MVFR,,,,,,,,,,,,METAR,365.0
K0CO 120755Z AUTO 31023G29KT 5SM HZ CLR M10/M13 A3040 RMK AO2,K0CO,2015-02-12T07:55:00Z,39.8,-105.77,-10.0,-13.0,310,23,29,5.0,30.398623,,,TRUE,TRUE,,,,,,HZ,CLR,,,,,,,,MVFR,,,,,,,,,,,,METAR,3807.0
K0A9 120755Z AUTO 24006KT 10SM OVC037 03/M02 A2996 RMK,K0A9,2015-02-12T07:55:00Z,36.37,-82.17,3.0,-2.0,240,6,,10.0,29.958662,,,TRUE,,,,,,,,OVC,3700,,,,,,,VFR,,,,,,,,,,,,METAR,486.0
KBYS 120755Z AUTO 33005KT 10SM CLR 14/M07 A3024 RMK AO2 SLP229 T01401074 $,KBYS,2015-02-12T07:55:00Z,35.28,-116.62,14.0,-7.4,330,5,,10.0,30.239174,1022.9,,TRUE,TRUE,TRUE,,,,,,CLR,,,,,,,,VFR,,,,,,,,,,,,METAR,716.0
KNBG 120755Z AUTO 31004KT 2 1/2SM BR CLR 09/07 A3012 RMK AO2 VIS 1 1/4V5 SLP199 T00890067 $,KNBG,2015-02-12T07:55:00Z,29.82,-90.02,8.9,6.7,310,4,,2.5,30.121063,1019.9,,TRUE,TRUE,TRUE,,,,,BR,CLR,,,,,,,,IFR,,,,,,,,,,,,METAR,1.0
KAEG 120755Z AUTO 32008KT 10SM SCT032 SCT042 00/M01 A3043 RMK AO2 T00001015,KAEG,2015-02-12T07:55:00Z,35.13,-106.8,0.0,-1.5,320,8,,10.0,30.431103,,,TRUE,TRUE,,,,,,,SCT,3200,SCT,4200,,,,,VFR,,,,,,,,,,,,METAR,1779.0
K8W2 120755Z AUTO 00000KT 7SM OVC040 01/M01 A2982 RMK AO1 T00131010,K8W2,2015-02-12T07:55:00Z,38.65,-78.7,1.3,-1.0,0,0,,7.0,29.819881,,,TRUE,TRUE,,,,,,,OVC,4000,,,,,,,VFR,,,,,,,,,,,,METAR,297.0
K7W4 120755Z AUTO 00000KT 10SM CLR M03/M04 A2985 RMK AO1 T10301040,K7W4,2015-02-12T07:55:00Z,37.97,-77.75,-3.0,-4.0,0,0,,10.0,29.84941,,,TRUE,TRUE,,,,,,,CLR,,,,,,,,VFR,,,,,,,,,,,,METAR,106.0
K6L4 120755Z AUTO VRB05KT 5SM BR OVC029 01/M00 A2992 RMK AO2,K6L4,2015-02-12T07:55:00Z,37.85,-81.92,1.0,0.0,0,5,,5.0,29.920275,,,TRUE,TRUE,,,,,,BR,OVC,2900,,,,,,,MVFR,,,,,,,,,,,,METAR,508.0
K6A2 120755Z AUTO 31006KT 10SM CLR 06/01 A3000 RMK AO2,K6A2,2015-02-12T07:55:00Z,33.23,-84.27,6.0,1.0,310,6,,10.0,30.0,,,TRUE,TRUE,,,,,,,CLR,,,,,,,,VFR,,,,,,,,,,,,METAR,292.0
K5SM 120755Z AUTO 00000KT 10SM CLR M03/M09 RMK AO2,K5SM,2015-02-12T07:55:00Z,39.43,-107.38,-3.0,-9.0,0,0,,10.0,,,,TRUE,TRUE,,,,,,,CLR,,,,,,,,VFR,,,,,,,,,,,,METAR,3232.0
K3D2 120755Z AUTO 33013G19KT 10SM SCT031 BKN090 M14/M19 A3016 RMK AO2 T11451192,K3D2,2015-02-12T07:55:00Z,45.13,-87.18,-14.5,-19.2,330,13,19,10.0,30.159449,,,TRUE,TRUE,,,,,,,SCT,3100,BKN,9000,,,,,VFR,,,,,,,,,,,,METAR,234.0
K33V 120755Z AUTO 12006KT 10SM CLR M07/M10 A3040 RMK AO2,K33V,2015-02-12T07:55:00Z,40.75,-106.28,-7.0,-10.0,120,6,,10.0,30.398623,,,TRUE,TRUE,,,,,,,CLR,,,,,,,,VFR,,,,,,,,,,,,METAR,2484.0
K20V 120755Z AUTO 00000KT 10SM CLR M07/M09 A3046 RMK AO2,K20V,2015-02-12T07:55:00Z,40.05,-106.37,-7.0,-9.0,0,0,,10.0,30.46063,,,TRUE,TRUE,,,,,,,CLR,,,,,,,,VFR,,,,,,,,,,,,METAR,2259.0
K1V6 120755Z AUTO 29005KT 10SM CLR 00/00 A3039 RMK AO2,K1V6,2015-02-12T07:55:00Z,38.43,-105.1,0.0,0.0,290,5,,10.0,30.389763,,,TRUE,TRUE,,,,,,,CLR,,,,,,,,VFR,,,,,,,,,,,,METAR,1658.0
K1A9 120755Z AUTO 33003KT 10SM CLR 07/01 A3006 RMK AO2 T00720005,K1A9,2015-02-12T07:55:00Z,32.43,-86.52,7.2,0.5,330,3,,10.0,30.059055,,,TRUE,TRUE,,,,,,,CLR,,,,,,,,VFR,,,,,,,,,,,,METAR,69.0
KAFJ 120755Z AUTO 26007KT 10SM FEW016 SCT022 OVC043 00/M02 A2986 RMK AO1,KAFJ,2015-02-12T07:55:00Z,40.12,-80.27,0.0,-2.0,260,7,,10.0,29.861221,,,TRUE,TRUE,,,,,,,FEW,1600,SCT,2200,OVC,4300,,,VFR,,,,,,,,,,,,METAR,361.0
KAIZ 120755Z AUTO 31003KT 10SM CLR M03/M08 A3033 RMK AO1,KAIZ,2015-02-12T07:55:00Z,38.1,-92.53,-3.0,-8.0,310,3,,10.0,30.33071,,,TRUE,TRUE,,,,,,,CLR,,,,,,,,VFR,,,,,,,,,,,,METAR,265.0
KAJL 120755Z AUTO 27019G25KT 10SM OVC050 M07/M10 A3034 RMK AO2 T10661100,KAJL,2015-02-12T07:55:00Z,43.67,-110.03,-6.6,-10.0,270,19,25,10.0,30.339567,,,TRUE,TRUE,,,,,,,OVC,5000,,,,,,,VFR,,,,,,,,,,,,METAR,3161.0
KARG 120755Z AUTO 31009KT 10SM CLR M02/M06 A3030 RMK AO1,KARG,2015-02-12T07:55:00Z,36.12,-90.92,-2.0,-6.0,310,9,,10.0,30.301182,,,TRUE,TRUE,,,,,,,CLR,,,,,,,,VFR,,,,,,,,,,,,METAR,83.0
KAQX 120755Z AUTO 00000KT 10SM CLR 05/04 A2995 RMK AO2,KAQX,2015-02-12T07:55:00Z,32.98,-81.27,5.0,4.0,0,0,,10.0,29.949802,,,TRUE,TRUE,,,,,,,CLR,,,,,,,,VFR,,,,,,,,,,,,METAR,49.0
KAQP 120755Z AUTO 32013KT 10SM CLR M20/M23 A3068 RMK AO2,KAQP,2015-02-12T07:55:00Z,45.22,-96.0,-20.0,-23.0,320,13,,10.0,30.679134,,,TRUE,TRUE,,,,,,,CLR,,,,,,,,VFR,,,,,,,,,,,,METAR,311.0
KQCL 120755Z AUTO VRB02KT 19/M05 A3013 RMK AO2 SLP205 T01871055 PWINO TSNO $,KQCL,2015-02-12T07:55:00Z,100.65,-1000.65,18.7,-5.5,0,2,,,30.129921,1020.5,,TRUE,TRUE,TRUE,,TRUE,,TRUE,,,,,,,,,,,,,,,,,,,,,,METAR,999.0
KQAY 120755Z AUTO 27014G24KT 0800 -SHRA HZ VV004 24/M07 A2993 RMK AO2 SHRAB0716 SLP133 P0000 T02441066 $,KQAY,2015-02-12T07:55:00Z,100.65,-1000.65,24.4,-6.6,270,14,24,0.5,29.929134,1013.3,,TRUE,TRUE,TRUE,,,,,-SHRA HZ,OVX,0,,,,,,,LIFR,,,,,,0.0050,,,,,400,METAR,999.0
ENGC 120755Z 05019KT 9999 -RASN BKN010 04/02 Q1012 W06/S5 RMK WS 10 MILES EAST OF MOLOX,ENGC,2015-02-12T07:55:00Z,61.02,2.02,4.0,2.0,50,19,,6.21,29.88189,,,,,,,,,,-RA -SN,BKN,1000,,,,,,,MVFR,,,,,,,,,,,,METAR,10.0
NZWD 120755Z 02008KT 9999 SCT070 SCT200 M10/M14 A2899 RMK SLP816 GRID19008KT SDG/HDG,NZWD,2015-02-12T07:55:00Z,-77.87,167.07,-10.0,-14.0,20,8,,6.21,28.990158,981.6,,,,,,,,,,SCT,7000,SCT,20000,,,,,VFR,,,,,,,,,,,,METAR,22.0
KAUO 120755Z AUTO 32004KT 10SM CLR 04/M02 A3005 RMK AO1,KAUO,2015-02-12T07:55:00Z,32.62,-85.42,4.0,-2.0,320,4,,10.0,30.050198,,,TRUE,TRUE,,,,,,,CLR,,,,,,,,VFR,,,,,,,,,,,,METAR,236.0
KATS 120755Z AUTO 35010KT 10SM OVC055 03/03 A3046 RMK AO2,KATS,2015-02-12T07:55:00Z,32.85,-104.47,3.0,3.0,350,10,,10.0,30.46063,,,TRUE,TRUE,,,,,,,OVC,5500,,,,,,,VFR,,,,,,,,,,,,METAR,1081.0
KASW 120755Z AUTO 29010KT 10SM -SN OVC046 M05/M07 A3002 RMK AO2,KASW,2015-02-12T07:55:00Z,41.27,-85.83,-5.0,-7.0,290,10,,10.0,30.02067,,,TRUE,TRUE,,,,,,-SN,OVC,4600,,,,,,,VFR,,,,,,,,,,,,METAR,259.0
KEWK 120755Z AUTO 33003KT 10SM CLR M04/M10 A3045 RMK AO1,KEWK,2015-02-12T07:55:00Z,38.03,-97.27,-4.0,-10.0,330,3,,10.0,30.448818,,,TRUE,TRUE,,,,,,,CLR,,,,,,,,VFR,,,,,,,,,,,,METAR,467.0
KEUL 120755Z AUTO 00000KT 10SM CLR 04/01 A3036 RMK AO1,KEUL,2015-02-12T07:55:00Z,43.62,-116.62,4.0,1.0,0,0,,10.0,30.360237,,,TRUE,TRUE,,,,,,,CLR,,,,,,,,VFR,,,,,,,,,,,,METAR,740.0
KESC 120755Z AUTO 35009G17KT 8SM BKN023 BKN031 OVC037 M12/M17 A3015 RMK AO1,KESC,2015-02-12T07:55:00Z,45.75,-87.08,-12.0,-17.0,350,9,17,8.0,30.15059,,,TRUE,TRUE,,,,,,,BKN,2300,BKN,3100,OVC,3700,,,MVFR,,,,,,,,,,,,METAR,187.0
KENV 120755Z AUTO 00000KT 10SM CLR 01/M05 A3040 RMK AO1,KENV,2015-02-12T07:55:00Z,40.72,-114.02,1.0,-5.0,0,0,,10.0,30.398623,,,TRUE,TRUE,,,,,,,CLR,,,,,,,,VFR,,,,,,,,,,,,METAR,1292.0
KEIK 120755Z AUTO 00000KT 10SM CLR M03/M04 A3034 RMK AO2 T10291042,KEIK,2015-02-12T07:55:00Z,40.02,-105.05,-2.9,-4.2,0,0,,10.0,30.339567,,,TRUE,TRUE,,,,,,,CLR,,,,,,,,VFR,,,,,,,,,,,,METAR,1564.0
KEHY 120755Z AUTO 25013KT 10SM CLR 01/M06 A3030 RMK AO2,KEHY,2015-02-12T07:55:00Z,41.73,-106.47,1.0,-6.0,250,13,,10.0,30.301182,,,TRUE,TRUE,,,,,,,CLR,,,,,,,,VFR,,,,,,,,,,,,METAR,2225.0
KEHR 120755Z AUTO 31013G19KT 10SM CLR M02/M07 A3019 RMK AO1,KEHR,2015-02-12T07:55:00Z,37.82,-87.67,-2.0,-7.0,310,13,19,10.0,30.188976,,,TRUE,TRUE,,,,,,,CLR,,,,,,,,VFR,,,,,,,,,,,,METAR,117.0
KEGE 120755Z AUTO 10003KT 10SM CLR M04/M06 A3047 RMK AO1,KEGE,2015-02-12T07:55:00Z,39.63,-106.92,-4.0,-6.0,100,3,,10.0,30.469488,,,TRUE,TRUE,,,,,,,CLR,,,,,,,,VFR,,,,,,,,,,,,METAR,1993.0
KEEN 120755Z AUTO 00000KT 10SM BKN110 M14/M16 A2983 RMK AO1,KEEN,2015-02-12T07:55:00Z,42.88,-72.27,-14.0,-16.0,0,0,,10.0,29.828741,,,TRUE,TRUE,,,,,,,BKN,11000,,,,,,,VFR,,,,,,,,,,,,METAR,149.0
KEDE 120755Z AUTO 20007KT 10SM CLR 01/M01 A2993 RMK AO2 T00051009,KEDE,2015-02-12T07:55:00Z,36.02,-76.57,0.5,-0.9,200,7,,10.0,29.929134,,,TRUE,TRUE,,,,,,,CLR,,,,,,,,VFR,,,,,,,,,,,,METAR,6.0
KILE 120755Z 35013G21KT 10SM BKN049 09/01 A3028 RMK AO1,KILE,2015-02-12T07:55:00Z,31.07,-97.67,9.0,1.0,350,13,21,10.0,30.280512,,,,TRUE,,,,,,,BKN,4900,,,,,,,VFR,,,,,,,,,,,,METAR,258.0
KIGQ 120755Z AUTO 33013G18KT 10SM OVC036 M07/M13 A3013 RMK AO2 T10711135,KIGQ,2015-02-12T07:55:00Z,41.53,-87.53,-7.1,-13.5,330,13,18,10.0,30.129921,,,TRUE,TRUE,,,,,,,OVC,3600,,,,,,,VFR,,,,,,,,,,,,METAR,188.0
KIFA 120755Z AUTO 33024G30KT 10SM CLR M16/M20 A3046 RMK AO2 T11591201,KIFA,2015-02-12T07:55:00Z,42.47,-93.27,-15.9,-20.1,330,24,30,10.0,30.46063,,,TRUE,TRUE,,,,,,,CLR,,,,,,,,VFR,,,,,,,,,,,,METAR,347.0
KICL 120755Z AUTO 36019G28KT 10SM CLR M11/M17 A3056 RMK AO2,KICL,2015-02-12T07:55:00Z,40.72,-95.02,-11.0,-17.0,360,19,28,10.0,30.561024,,,TRUE,TRUE,,,,,,,CLR,,,,,,,,VFR,,,,,,,,,,,,METAR,303.0
KI67 120755Z AUTO 29010G14KT 10SM OVC028 M01/M07 A3005 RMK AO1,KI67,2015-02-12T07:55:00Z,39.25,-84.78,-1.0,-7.0,290,10,14,10.0,30.050198,,,TRUE,TRUE,,,,,,,OVC,2800,,,,,,,MVFR,,,,,,,,,,,,METAR,178.0
KI39 120755Z AUTO 29011G17KT 10SM OVC018 01/M03 A3003 RMK AO2,KI39,2015-02-12T07:55:00Z,37.63,-84.33,1.0,-3.0,290,11,17,10.0,30.029528,,,TRUE,TRUE,,,,,,,OVC,1800,,,,,,,MVFR,,,,,,,,,,,,METAR,306.0
KHYX 120755Z AUTO 31013KT 10SM CLR M09/M14 A2998 RMK AO2,KHYX,2015-02-12T07:55:00Z,43.43,-83.87,-9.0,-14.0,310,13,,10.0,29.97933,,,TRUE,TRUE,,,,,,,CLR,,,,,,,,VFR,,,,,,,,,,,,METAR,183.0
KHYW 120755Z AUTO 00000KT 5SM BR CLR 00/00 A2995 RMK AO2,KHYW,2015-02-12T07:55:00Z,33.83,-79.12,0.0,0.0,0,0,,5.0,29.949802,,,TRUE,TRUE,,,,,,BR,CLR,,,,,,,,MVFR,,,,,,,,,,,,METAR,11.0
KHYS 120755Z AUTO 06008KT 10SM CLR M03/M10 A3043 RMK AO1,KHYS,2015-02-12T07:55:00Z,38.85,-99.27,-3.0,-10.0,60,8,,10.0,30.431103,,,TRUE,TRUE,,,,,,,CLR,,,,,,,,VFR,,,,,,,,,,,,METAR,609.0
KHYI 120755Z 03016G20KT 10SM FEW035 BKN042 OVC055 14/05 A3025 RMK AO1,KHYI,2015-02-12T07:55:00Z,29.88,-97.87,14.0,5.0,30,16,20,10.0,30.250984,,,,TRUE,,,,,,,FEW,3500,BKN,4200,OVC,5500,,,VFR,,,,,,,,,,,,METAR,182.0
KHXD 120755Z AUTO 20003KT 4SM BR CLR 07/07 A2999 RMK AO2 P0000,KHXD,2015-02-12T07:55:00Z,32.22,-80.7,7.0,7.0,200,3,,4.0,29.991142,,,TRUE,TRUE,,,,,,BR,CLR,,,,,,,,MVFR,,,,,,0.0050,,,,,,METAR,6.0
KHSB 120755Z AUTO 31011G15KT 10SM CLR M02/M06 A3023 RMK AO2 T10231063,KHSB,2015-02-12T07:55:00Z,37.82,-88.55,-2.3,-6.3,310,11,15,10.0,30.230314,,,TRUE,TRUE,,,,,,,CLR,,,,,,,,VFR,,,,,,,,,,,,METAR,121.0
KHNB 120755Z AUTO 30011KT 10SM BKN026 M02/M09 A3015 RMK AO1,KHNB,2015-02-12T07:55:00Z,38.25,-86.95,-2.0,-9.0,300,11,,10.0,30.15059,,,TRUE,TRUE,,,,,,,BKN,2600,,,,,,,MVFR,,,,,,,,,,,,METAR,161.0
KHEZ 120755Z AUTO 36004KT 10SM CLR 09/02 A3017 RMK AO1,KHEZ,2015-02-12T07:55:00Z,31.62,-91.3,9.0,2.0,360,4,,10.0,30.171259,,,TRUE,TRUE,,,,,,,CLR,,,,,,,,VFR,,,,,,,,,,,,METAR,83.0
KHEQ 120755Z AUTO 08005KT 10SM CLR M03/M05 A3041 RMK AO2,KHEQ,2015-02-12T07:55:00Z,40.57,-102.28,-3.0,-5.0,80,5,,10.0,30.410433,,,TRUE,TRUE,,,,,,,CLR,,,,,,,,VFR,,,,,,,,,,,,METAR,1137.0
KHEF 120755Z 14003KT 10SM OVC055 01/M02 A2986 RMK AO1,KHEF,2015-02-12T07:55:00Z,38.72,-77.52,1.0,-2.0,140,3,,10.0,29.861221,,,,TRUE,,,,,,,OVC,5500,,,,,,,VFR,,,,,,,,,,,,METAR,59.0
KHDN 120755Z AUTO 12009KT 10SM CLR M04/M09 A3041 RMK AO1,KHDN,2015-02-12T07:55:00Z,40.47,-107.22,-4.0,-9.0,120,9,,10.0,30.410433,,,TRUE,TRUE,,,,,,,CLR,,,,,,,,VFR,,,,,,,,,,,,METAR,2012.0
KHAI 120755Z AUTO 33010G18KT 10SM SCT019 SCT027 OVC050 M05/M10 A3001 RMK AO2 T10551098,KHAI,2015-02-12T07:55:00Z,41.97,-85.6,-5.5,-9.8,330,10,18,10.0,30.008858,,,TRUE,TRUE,,,,,,,SCT,1900,SCT,2700,OVC,5000,,,VFR,,,,,,,,,,,,METAR,251.0
KGXY 120755Z AUTO 00000KT 10SM CLR M04/M10 A3033 RMK AO1,KGXY,2015-02-12T07:55:00Z,40.42,-104.62,-4.0,-10.0,0,0,,10.0,30.33071,,,TRUE,TRUE,,,,,,,CLR,,,,,,,,VFR,,,,,,,,,,,,METAR,1420.0
KGUC 120755Z 05005KT 10SM CLR M10/M14 A3049 RMK AO1,KGUC,2015-02-12T07:55:00Z,38.52,-106.92,-10.0,-14.0,50,5,,10.0,30.490158,,,,TRUE,,,,,,,CLR,,,,,,,,VFR,,,,,,,,,,,,METAR,2339.0
KGTU 120755Z 01013G18KT 10SM BKN040 OVC050 12/04 A3028 RMK AO1,KGTU,2015-02-12T07:55:00Z,30.68,-97.68,12.0,4.0,10,13,18,10.0,30.280512,,,,TRUE,,,,,,,BKN,4000,OVC,5000,,,,,VFR,,,,,,,,,,,,METAR,240.0
KGTR 120755Z AUTO 32006KT 10SM CLR 04/00 A3014 RMK AO1,KGTR,2015-02-12T07:55:00Z,33.45,-88.57,4.0,0.0,320,6,,10.0,30.138779,,,TRUE,TRUE,,,,,,,CLR,,,,,,,,VFR,,,,,,,,,,,,METAR,80.0
KGPZ 120755Z AUTO 33015KT 10SM FEW015 M22/M24 A3052 RMK AO1,KGPZ,2015-02-12T07:55:00Z,47.22,-93.52,-22.0,-24.0,330,15,,10.0,30.519686,,,TRUE,TRUE,,,,,,,FEW,1500,,,,,,,VFR,,,,,,,,,,,,METAR,413.0
KGPM 120755Z AUTO 35013G19KT 10SM CLR 07/00 A3036 RMK AO2 T00691004,KGPM,2015-02-12T07:55:00Z,32.7,-97.05,6.9,-0.4,350,13,19,10.0,30.360237,,,TRUE,TRUE,,,,,,,CLR,,,,,,,,VFR,,,,,,,,,,,,METAR,180.0
KGPI 120755Z AUTO 00000KT 1/2SM FZFG VV001 M01/M01 A3024 RMK AO2 SLP262 T10111011,KGPI,2015-02-12T07:55:00Z,48.32,-114.25,-1.1,-1.1,0,0,,0.5,30.239174,1026.2,,TRUE,TRUE,,,,,,FZFG,OVX,0,,,,,,,LIFR,,,,,,,,,,,100,METAR,908.0
KGOV 120755Z AUTO 31012G21KT 7SM CLR M13/M17 A2997 RMK AO2 T11331173,KGOV,2015-02-12T07:55:00Z,44.68,-84.73,-13.3,-17.3,310,12,21,7.0,29.970472,,,TRUE,TRUE,,,,,,,CLR,,,,,,,,VFR,,,,,,,,,,,,METAR,353.0
KGKT 120755Z AUTO 00000KT 10SM FEW046 M02/M03 A3002 RMK,KGKT,2015-02-12T07:55:00Z,35.85,-83.53,-2.0,-3.0,0,0,,10.0,30.02067,,,TRUE,,,,,,,,FEW,4600,,,,,,,VFR,,,,,,,,,,,,METAR,309.0
KGDV 120755Z AUTO 14005KT 10SM CLR M11/M15 A3038 RMK AO1,KGDV,2015-02-12T07:55:00Z,47.12,-104.78,-11.0,-15.0,140,5,,10.0,30.380905,,,TRUE,TRUE,,,,,,,CLR,,,,,,,,VFR,,,,,,,,,,,,METAR,749.0
KGCM 120755Z AUTO 00000KT 10SM CLR M04/M06 A3046 RMK AO2,KGCM,2015-02-12T07:55:00Z,36.3,-95.48,-4.0,-6.0,0,0,,10.0,30.46063,,,TRUE,TRUE,,,,,,,CLR,,,,,,,,VFR,,,,,,,,,,,,METAR,221.0
KGBD 120755Z AUTO 03006KT 10SM CLR M04/M09 A3045 RMK AO1,KGBD,2015-02-12T07:55:00Z,38.35,-98.87,-4.0,-9.0,30,6,,10.0,30.448818,,,TRUE,TRUE,,,,,,,CLR,,,,,,,,VFR,,,,,,,,,,,,METAR,575.0
KGAI 120755Z AUTO 00000KT 10SM OVC050 01/M05 A2989 RMK AO1,KGAI,2015-02-12T07:55:00Z,39.17,-77.17,1.0,-5.0,0,0,,10.0,29.890747,,,TRUE,TRUE,,,,,,,OVC,5000,,,,,,,VFR,,,,,,,,,,,,METAR,165.0
KGAD 120755Z 00000KT 10SM CLR A3006 RMK AO1,KGAD,2015-02-12T07:55:00Z,33.97,-86.07,,,0,0,,10.0,30.059055,,,,TRUE,,,,,,,CLR,,,,,,,,VFR,,,,,,,,,,,,METAR,173.0
KEDC 120755Z AUTO 02015G18KT 10SM OVC037 12/04 A3026 RMK AO2,KEDC,2015-02-12T07:55:00Z,30.4,-97.57,12.0,4.0,20,15,18,10.0,30.259842,,,TRUE,TRUE,,,,,,,OVC,3700,,,,,,,VFR,,,,,,,,,,,,METAR,189.0
KEAR 120755Z 03016KT 10SM OVC022 M06/M11 A3052 RMK AO1,KEAR,2015-02-12T07:55:00Z,40.72,-99.0,-6.0,-11.0,30,16,,10.0,30.519686,,,,TRUE,,,,,,,OVC,2200,,,,,,,MVFR,,,,,,,,,,,,METAR,649.0
KE80 120755Z AUTO 27004KT 10SM CLR 01/00 A3043 RMK AO2 T00091003,KE80,2015-02-12T07:55:00Z,34.65,-106.83,0.9,-0.3,270,4,,10.0,30.431103,,,TRUE,TRUE,,,,,,,CLR,,,,,,,,VFR,,,,,,,,,,,,METAR,1582.0
KDYR 120755Z 35007KT 10SM CLR 00/M10 A3027 RMK AO1,KDYR,2015-02-12T07:55:00Z,36.0,-89.4,0.0,-10.0,350,7,,10.0,30.268702,,,,TRUE,,,,,,,CLR,,,,,,,,VFR,,,,,,,,,,,,METAR,103.0
KDWU 120755Z AUTO 33009G17KT 8SM OVC018 01/M01 A2997 RMK AO1,KDWU,2015-02-12T07:55:00Z,38.55,-82.73,1.0,-1.0,330,9,17,8.0,29.970472,,,TRUE,TRUE,,,,,,,OVC,1800,,,,,,,MVFR,,,,,,,,,,,,METAR,166.0
KDVL 120755Z AUTO 02003KT 10SM CLR M25/M29 A3062 RMK AO1,KDVL,2015-02-12T07:55:00Z,48.12,-98.92,-25.0,-29.0,20,3,,10.0,30.620079,,,TRUE,TRUE,,,,,,,CLR,,,,,,,,VFR,,,,,,,,,,,,METAR,443.0
KDTL 120755Z AUTO 31006KT 10SM CLR M23/M26 A3061 RMK AO2,KDTL,2015-02-12T07:55:00Z,46.82,-95.87,-23.0,-26.0,310,6,,10.0,30.611221,,,TRUE,TRUE,,,,,,,CLR,,,,,,,,VFR,,,,,,,,,,,,METAR,426.0
KDPL 120755Z AUTO 00000KT 5SM BR CLR M01/M01 A2995 RMK AO2 T10151015,KDPL,2015-02-12T07:55:00Z,35.0,-77.97,-1.5,-1.5,0,0,,5.0,29.949802,,,TRUE,TRUE,,,,,,BR,CLR,,,,,,,,MVFR,,,,,,,,,,,,METAR,42.0
KD57 120755Z AUTO 15006KT 10SM CLR M18/M23 A3055 RMK AO2,KD57,2015-02-12T07:55:00Z,46.82,-101.87,-18.0,-23.0,150,6,,10.0,30.549213,,,TRUE,TRUE,,,,,,,CLR,,,,,,,,VFR,,,,,,,,,,,,METAR,637.0
KCZT 120755Z AUTO 10003KT 10SM SCT070 15/13 A3017 RMK AO2,KCZT,2015-02-12T07:55:00Z,28.52,-99.82,15.0,13.0,100,3,,10.0,30.171259,,,TRUE,TRUE,,,,,,,SCT,7000,,,,,,,VFR,,,,,,,,,,,,METAR,183.0
KCWV 120755Z AUTO 26003KT 7SM CLR 03/03 A2998 RMK AO2,KCWV,2015-02-12T07:55:00Z,32.2,-81.87,3.0,3.0,260,3,,7.0,29.97933,,,TRUE,TRUE,,,,,,,CLR,,,,,,,,VFR,,,,,,,,,,,,METAR,33.0
KCWI 120755Z AUTO 32019KT 7SM BKN026 OVC032 M12/M16 A3031 RMK AO1,KCWI,2015-02-12T07:55:00Z,41.82,-90.32,-12.0,-16.0,320,19,,7.0,30.31004,,,TRUE,TRUE,,,,,,,BKN,2600,OVC,3200,,,,,MVFR,,,,,,,,,,,,METAR,216.0
KCWA 120755Z AUTO 34014G21KT 10SM OVC031 M15/M20 A3028 RMK AO2,KCWA,2015-02-12T07:55:00Z,44.78,-89.67,-15.0,-20.0,340,14,21,10.0,30.280512,,,TRUE,TRUE,,,,,,,OVC,3100,,,,,,,VFR,,,,,,,,,,,,METAR,389.0
KCVO 120755Z AUTO 31003KT M1/4SM OVC003 07/06 A3024 RMK AO1,KCVO,2015-02-12T07:55:00Z,44.5,-123.27,7.0,6.0,310,3,,0.25,30.239174,,,TRUE,TRUE,,,,,,,OVC,300,,,,,,,LIFR,,,,,,,,,,,,METAR,75.0
KCVN 120755Z AUTO 32005KT 10SM FEW100 M01/M03 A3044 RMK AO1,KCVN,2015-02-12T07:55:00Z,34.42,-103.07,-1.0,-3.0,320,5,,10.0,30.43996,,,TRUE,TRUE,,,,,,,FEW,10000,,,,,,,VFR,,,,,,,,,,,,METAR,1284.0
KCQM 120755Z AUTO 35005KT 10SM SCT018 M23/M26 A3052 RMK AO2,KCQM,2015-02-12T07:55:00Z,47.82,-92.68,-23.0,-26.0,350,5,,10.0,30.519686,,,TRUE,TRUE,,,,,,,SCT,1800,,,,,,,VFR,,,,,,,,,,,,METAR,404.0
KCOE 120755Z AUTO 04003KT 10SM BKN002 03/02 A3024 RMK AO1,KCOE,2015-02-12T07:55:00Z,47.77,-116.82,3.0,2.0,40,3,,10.0,30.239174,,,TRUE,TRUE,,,,,,,BKN,200,,,,,,,LIFR,,,,,,,,,,,,METAR,707.0
KCOD 120755Z 27013G20KT 10SM FEW120 07/M06 A3021 RMK AO1,KCOD,2015-02-12T07:55:00Z,44.52,-109.02,7.0,-6.0,270,13,20,10.0,30.209646,,,,TRUE,,,,,,,FEW,12000,,,,,,,VFR,,,,,,,,,,,,METAR,1553.0
KCLK 120755Z AUTO 35003KT 10SM CLR M01/M05 A3045 RMK AO2,KCLK,2015-02-12T07:55:00Z,35.53,-98.93,-1.0,-5.0,350,3,,10.0,30.448818,,,TRUE,TRUE,,,,,,,CLR,,,,,,,,VFR,,,,,,,,,,,,METAR,492.0
KCLI 120755Z AUTO 36012G18KT 10SM CLR M13/M21 A3027 RMK AO2,KCLI,2015-02-12T07:55:00Z,44.62,-88.73,-13.0,-21.0,360,12,18,10.0,30.268702,,,TRUE,TRUE,,,,,,,CLR,,,,,,,,VFR,,,,,,,,,,,,METAR,250.0
KCKN 120755Z AUTO 33007KT 10SM CLR M27/M29 A3072 RMK AO2,KCKN,2015-02-12T07:55:00Z,47.85,-96.62,-27.0,-29.0,330,7,,10.0,30.720472,,,TRUE,TRUE,,,,,,,CLR,,,,,,,,VFR,,,,,,,,,,,,METAR,273.0
KCIU 120755Z AUTO 34011KT 10SM CLR M19/M23 A3007 RMK AO1,KCIU,2015-02-12T07:55:00Z,46.25,-84.47,-19.0,-23.0,340,11,,10.0,30.070866,,,TRUE,TRUE,,,,,,,CLR,,,,,,,,VFR,,,,,,,,,,,,METAR,244.0
KOAJ 120755Z AUTO 00000KT 5SM CLR M01/M03 A2995 RMK AO1,KOAJ,2015-02-12T07:55:00Z,34.82,-77.62,-1.0,-3.0,0,0,,5.0,29.949802,,,TRUE,TRUE,,,,,,,CLR,,,,,,,,MVFR,,,,,,,,,,,,METAR,29.0
KMYR 120755Z AUTO 20003KT 10SM CLR 04/02 A2997 RMK AO1,KMYR,2015-02-12T07:55:00Z,33.67,-78.92,4.0,2.0,200,3,,10.0,29.970472,,,TRUE,TRUE,,,,,,,CLR,,,,,,,,VFR,,,,,,,,,,,,METAR,8.0
KMVN 120755Z AUTO 31006KT 10SM SCT027 M03/M09 A3021 RMK AO1,KMVN,2015-02-12T07:55:00Z,38.32,-88.87,-3.0,-9.0,310,6,,10.0,30.209646,,,TRUE,TRUE,,,,,,,SCT,2700,,,,,,,VFR,,,,,,,,,,,,METAR,146.0
KMSV 120755Z AUTO 00000KT 10SM OVC023 M06/M11 A2975 RMK AO1,KMSV,2015-02-12T07:55:00Z,41.7,-74.78,-6.0,-11.0,0,0,,10.0,29.749016,,,TRUE,TRUE,,,,,,,OVC,2300,,,,,,,MVFR,,,,,,,,,,,,METAR,428.0
KMRF 120755Z AUTO 01015G20KT 10SM FEW013 BKN046 OVC060 02/01 A3034 RMK AO1,KMRF,2015-02-12T07:55:00Z,30.37,-104.02,2.0,1.0,10,15,20,10.0,30.339567,,,TRUE,TRUE,,,,,,,FEW,1300,BKN,4600,OVC,6000,,,VFR,,,,,,,,,,,,METAR,1481.0
KMOP 120755Z AUTO 29007KT 10SM SCT042 M10/M16 A3000 RMK AO2 T11001165,KMOP,2015-02-12T07:55:00Z,43.62,-84.73,-10.0,-16.5,290,7,,10.0,30.0,,,TRUE,TRUE,,,,,,,SCT,4200,,,,,,,VFR,,,,,,,,,,,,METAR,230.0
KMNM 120755Z AUTO 34012G16KT 10SM CLR M14/M21 A3020 RMK AO1,KMNM,2015-02-12T07:55:00Z,45.12,-87.62,-14.0,-21.0,340,12,16,10.0,30.200787,,,TRUE,TRUE,,,,,,,CLR,,,,,,,,VFR,,,,,,,,,,,,METAR,191.0
KMML 120755Z AUTO 34015G21KT 10SM CLR M19/M24 A3064 RMK AO1,KMML,2015-02-12T07:55:00Z,44.45,-95.82,-19.0,-24.0,340,15,21,10.0,30.640747,,,TRUE,TRUE,,,,,,,CLR,,,,,,,,VFR,,,,,,,,,,,,METAR,359.0
KMKY 120755Z AUTO 06004KT 10SM CLR A3002 RMK AO1,KMKY,2015-02-12T07:55:00Z,26.0,-81.67,,,60,4,,10.0,30.02067,,,TRUE,TRUE,,,,,,,CLR,,,,,,,,VFR,,,,,,,,,,,,METAR,2.0
KMKT 120755Z AUTO 35016G21KT 10SM CLR M17/M22 A3053 RMK AO1,KMKT,2015-02-12T07:55:00Z,44.22,-93.92,-17.0,-22.0,350,16,21,10.0,30.528543,,,TRUE,TRUE,,,,,,,CLR,,,,,,,,VFR,,,,,,,,,,,,METAR,311.0
KMKN 120755Z AUTO 36011G14KT 10SM CLR 05/00 A3035 RMK AO2 T00530000,KMKN,2015-02-12T07:55:00Z,31.92,-98.6,5.3,0.0,360,11,14,10.0,30.351377,,,TRUE,TRUE,,,,,,,CLR,,,,,,,,VFR,,,,,,,,,,,,METAR,423.0
KMJX 120755Z AUTO 00000KT 10SM SCT090 M07/M07 A2986 RMK AO1,KMJX,2015-02-12T07:55:00Z,39.93,-74.3,-7.0,-7.0,0,0,,10.0,29.861221,,,TRUE,TRUE,,,,,,,SCT,9000,,,,,,,VFR,,,,,,,,,,,,METAR,25.0
KMFV 120755Z AUTO 19005KT 10SM CLR M01/M03 A2990 RMK AO2,KMFV,2015-02-12T07:55:00Z,37.63,-75.77,-1.0,-3.0,190,5,,10.0,29.899607,,,TRUE,TRUE,,,,,,,CLR,,,,,,,,VFR,,,,,,,,,,,,METAR,15.0
KMEZ 120755Z AUTO 00000KT 10SM SCT110 06/M01 A3033 RMK AO2,KMEZ,2015-02-12T07:55:00Z,34.55,-94.2,6.0,-1.0,0,0,,10.0,30.33071,,,TRUE,TRUE,,,,,,,SCT,11000,,,,,,,VFR,,,,,,,,,,,,METAR,329.0
KMDQ 120755Z AUTO 36005KT 10SM SCT039 SCT110 00/M02 A3010 RMK AO2,KMDQ,2015-02-12T07:55:00Z,34.87,-86.55,0.0,-2.0,360,5,,10.0,30.100393,,,TRUE,TRUE,,,,,,,SCT,3900,SCT,11000,,,,,VFR,,,,,,,,,,,,METAR,230.0
KMCX 120755Z AUTO 31013G19KT 10SM BKN037 M07/M10 A3009 RMK AO2 T10731105,KMCX,2015-02-12T07:55:00Z,40.72,-86.77,-7.3,-10.5,310,13,19,10.0,30.088583,,,TRUE,TRUE,,,,,,,BKN,3700,,,,,,,VFR,,,,,,,,,,,,METAR,206.0
KMBL 120755Z AUTO 34015G24KT 2 1/2SM FEW015 BKN020 OVC033 M09/M14 A3008 RMK AO1 VIS 2V4,KMBL,2015-02-12T07:55:00Z,44.27,-86.25,-9.0,-14.0,340,15,24,2.5,30.079725,,,TRUE,TRUE,,,,,,,FEW,1500,BKN,2000,OVC,3300,,,IFR,,,,,,,,,,,,METAR,189.0
KM91 120755Z AUTO 34008KT 10SM FEW024 M01/M05 A3016 RMK,KM91,2015-02-12T07:55:00Z,36.53,-86.92,-1.0,-5.0,340,8,,10.0,30.159449,,,TRUE,,,,,,,,FEW,2400,,,,,,,VFR,,,,,,,,,,,,METAR,215.0
KLWA 120755Z AUTO 34011G21KT 10SM OVC034 M05/M12 A3005 RMK AO2 T10501119,KLWA,2015-02-12T07:55:00Z,42.35,-86.25,-5.0,-11.9,340,11,21,10.0,30.050198,,,TRUE,TRUE,,,,,,,OVC,3400,,,,,,,VFR,,,,,,,,,,,,METAR,203.0
KLPC 120755Z AUTO 08006KT 10SM CLR 10/05 A3011 RMK AO1 40280 0060,KLPC,2015-02-12T07:55:00Z,34.67,-120.47,10.0,5.0,80,6,,10.0,30.109253,,,TRUE,TRUE,,,,,,,CLR,,,,,,,,VFR,,,,,,,,,,,,METAR,27.0
KQTH 120755Z 15010G15KT 9999 CLR 28/08 A3013 RMK AO2A SLP183 T02820082,KQTH,2015-02-12T07:55:00Z,100.65,-1000.65,28.2,8.2,150,10,15,6.21,30.129921,1018.3,,,TRUE,,,,,,,CLR,,,,,,,,VFR,,,,,,,,,,,,METAR,999.0
KQSF 120755Z AUTO VRB04KT 9999 SCT085 BKN100 12/M03 A3025 RMK AO2 SLP263 T01191026,KQSF,2015-02-12T07:55:00Z,100.65,-1000.65,11.9,-2.6,0,4,,6.21,30.250984,1026.3,,TRUE,TRUE,,,,,,,SCT,8500,BKN,10000,,,,,VFR,,,,,,,,,,,,METAR,999.0
KQQY 120755Z AUTO 23001KT 9999 FEW070 SCT090 OVC120 25/22 A2992 RMK AO2 SLP108 T02460217,KQQY,2015-02-12T07:55:00Z,100.65,-1000.65,24.6,21.7,230,1,,6.21,29.920275,1010.8,,TRUE,TRUE,,,,,,,FEW,7000,SCT,9000,OVC,12000,,,VFR,,,,,,,,,,,,METAR,999.0
KQGV 120755Z 29028G36KT 0300 BLDU VV002 20/M06 A2995 RMK SLPNO QNH1014 PA +438,KQGV,2015-02-12T07:55:00Z,100.65,-1000.65,20.0,-6.0,290,28,36,0.19,29.949802,,,,,,,,,,BLDU,OVX,0,,,,,,,LIFR,,,,,,,,,,,200,METAR,999.0
KQFG 120755Z AUTO VRB04KT 9999 FEW150 19/M01 A3013 RMK AO2 SLP200 T01851012,KQFG,2015-02-12T07:55:00Z,100.65,-1000.65,18.5,-1.2,0,4,,6.21,30.129921,1020.0,,TRUE,TRUE,,,,,,,FEW,15000,,,,,,,VFR,,,,,,,,,,,,METAR,999.0
KQEA 120755Z AUTO 13006KT 10SM SCT036 BKN050 31/18 A2980 RMK AO2 SLP089 T03050183,KQEA,2015-02-12T07:55:00Z,100.65,-1000.65,30.5,18.3,130,6,,10.0,29.799213,1008.9,,TRUE,TRUE,,,,,,,SCT,3600,BKN,5000,,,,,VFR,,,,,,,,,,,,METAR,999.0
KWAL 120754Z AUTO 23004KT 8SM CLR M02/M03 A2991 RMK AO2 SLP124 T10221033,KWAL,2015-02-12T07:54:00Z,37.93,-75.47,-2.2,-3.3,230,4,,8.0,29.911417,1012.4,,TRUE,TRUE,,,,,,,CLR,,,,,,,,VFR,,,,,,,,,,,,METAR,14.0
KBFL 120754Z AUTO 00000KT 5SM HZ CLR 10/07 A3019 RMK AO2 SLP221 T01000072 401940061,KBFL,2015-02-12T07:54:00Z,35.43,-119.05,10.0,7.2,0,0,,5.0,30.188976,1022.1,,TRUE,TRUE,,,,,,HZ,CLR,,,,,,,,MVFR,,,,19.4,6.1,,,,,,,METAR,151.0
KBAX 120754Z AUTO 30012G17KT 10SM OVC029 M10/M15 A2993 RMK AO2 T11001147,KBAX,2015-02-12T07:54:00Z,43.78,-82.98,-10.0,-14.7,300,12,17,10.0,29.929134,,,TRUE,TRUE,,,,,,,OVC,2900,,,,,,,MVFR,,,,,,,,,,,,METAR,234.0
KAVP 120754Z 00000KT 8SM OVC021 M01/M04 A2976 RMK AO2 SLP085 T10111044,KAVP,2015-02-12T07:54:00Z,41.33,-75.72,-1.1,-4.4,0,0,,8.0,29.760826,1008.5,,,TRUE,,,,,,,OVC,2100,,,,,,,MVFR,,,,,,,,,,,,METAR,291.0
KAVL 120754Z AUTO 34012KT 10SM CLR 03/M03 A2993 RMK AO2 SLP130 T00281028,KAVL,2015-02-12T07:54:00Z,35.43,-82.53,2.8,-2.8,340,12,,10.0,29.929134,1013.0,,TRUE,TRUE,,,,,,,CLR,,,,,,,,VFR,,,,,,,,,,,,METAR,670.0
KPTW 120754Z AUTO 19003KT 10SM OVC039 M02/M04 A2986 RMK AO2 SLP112 T10171039,KPTW,2015-02-12T07:54:00Z,40.23,-75.55,-1.7,-3.9,190,3,,10.0,29.861221,1011.2,,TRUE,TRUE,,,,,,,OVC,3900,,,,,,,VFR,,,,,,,,,,,,METAR,92.0
KPSF 120754Z AUTO 00000KT 10SM BKN028 OVC036 M10/M13 A2975 RMK AO2 SNE08 SLP094 P0000 T11001133,KPSF,2015-02-12T07:54:00Z,42.43,-73.28,-10.0,-13.3,0,0,,10.0,29.749016,1009.4,,TRUE,TRUE,,,,,,,BKN,2800,OVC,3600,,,,,MVFR,,,,,,0.0050,,,,,,METAR,355.0
KPNE 120754Z 19003KT 10SM OVC065 M01/M07 A2988 RMK AO2 SLP120 T10111067,KPNE,2015-02-12T07:54:00Z,40.08,-75.02,-1.1,-6.7,190,3,,10.0,29.878937,1012.0,,,TRUE,,,,,,,OVC,6500,,,,,,,VFR,,,,,,,,,,,,METAR,28.0
KPIA 120754Z 32010G18KT 300V360 9SM SCT033 SCT045 OVC049 M09/M14 A3026 RMK AO2 PK WND 31027/0655 SNE06B22E49 SLP255 P0000 T10891144,KPIA,2015-02-12T07:54:00Z,40.67,-89.68,-8.9,-14.4,320,10,18,9.0,30.259842,1025.5,,,TRUE,,,,,,,SCT,3300,SCT,4500,OVC,4900,,,VFR,,,,,,0.0050,,,,,,METAR,205.0
KPHL 120754Z 19005KT 10SM SCT040 BKN055 OVC070 M01/M05 A2988 RMK AO2 SLP119 T10111050,KPHL,2015-02-12T07:54:00Z,39.87,-75.23,-1.1,-5.0,190,5,,10.0,29.878937,1011.9,,,TRUE,,,,,,,SCT,4000,BKN,5500,OVC,7000,,,VFR,,,,,,,,,,,,METAR,18.0
KPHF 120754Z 19006KT 10SM CLR 01/M02 A2990 RMK AO2 SLP124 T00111022,KPHF,2015-02-12T07:54:00Z,37.13,-76.5,1.1,-2.2,190,6,,10.0,29.899607,1012.4,,,TRUE,,,,,,,CLR,,,,,,,,VFR,,,,,,,,,,,,METAR,12.0
KORH 120754Z AUTO 23005KT 10SM FEW100 M10/M18 A2980 RMK AO2 SLP109 T11001183,KORH,2015-02-12T07:54:00Z,42.27,-71.87,-10.0,-18.3,230,5,,10.0,29.799213,1010.9,,TRUE,TRUE,,,,,,,FEW,10000,,,,,,,VFR,,,,,,,,,,,,METAR,304.0
KOLS 120754Z AUTO 01005KT 10SM CLR 12/M01 A3015 RMK AO2 SLP164 T01171006,KOLS,2015-02-12T07:54:00Z,31.42,-110.85,11.7,-0.6,10,5,,10.0,30.15059,1016.4,,TRUE,TRUE,,,,,,,CLR,,,,,,,,VFR,,,,,,,,,,,,METAR,1184.0
KOLM 120754Z AUTO 00000KT 8SM -RA OVC100 09/08 A3022 RMK AO2 RAB54 SLP234 P0000 T00940083 401220039,KOLM,2015-02-12T07:54:00Z,46.97,-122.9,9.4,8.3,0,0,,8.0,30.221457,1023.4,,TRUE,TRUE,,,,,,-RA,OVC,10000,,,,,,,VFR,,,,12.2,3.9,0.0050,,,,,,METAR,58.0
KOFP 120754Z AUTO 00000KT 8SM CLR M02/M03 A2987 RMK AO2 SLP117 T10221033,KOFP,2015-02-12T07:54:00Z,37.7,-77.43,-2.2,-3.3,0,0,,8.0,29.870079,1011.7,,TRUE,TRUE,,,,,,,CLR,,,,,,,,VFR,,,,,,,,,,,,METAR,62.0
KSET 120754Z AUTO 32019G29KT 10SM OVC031 M02/M08 A3027 RMK AO2 PK WND 33033/0741 SLP252 T10221083,KSET,2015-02-12T07:54:00Z,38.93,-90.43,-2.2,-8.3,320,19,29,10.0,30.268702,1025.2,,TRUE,TRUE,,,,,,,OVC,3100,,,,,,,VFR,,,,,,,,,,,,METAR,134.0
KSBY 120754Z AUTO 00000KT 9SM CLR M02/M04 A2989 RMK AO2 SLP125 T10171044,KSBY,2015-02-12T07:54:00Z,38.33,-75.5,-1.7,-4.4,0,0,,9.0,29.890747,1012.5,,TRUE,TRUE,,,,,,,CLR,,,,,,,,VFR,,,,,,,,,,,,METAR,19.0
KSBS 120754Z AUTO 00000KT 10SM CLR M06/M09 A3043 RMK AO1 T10631092,KSBS,2015-02-12T07:54:00Z,40.52,-106.87,-6.3,-9.2,0,0,,10.0,30.431103,,,TRUE,TRUE,,,,,,,CLR,,,,,,,,VFR,,,,,,,,,,,,METAR,2096.0
KSBN 120754Z AUTO 34014G18KT 3/4SM R27L/3000VP6000FT -SN BR BKN014 BKN020 OVC038 M05/M07 A3005 RMK AO2 SLP184 P0001 T10501072 TSNO,KSBN,2015-02-12T07:54:00Z,41.7,-86.32,-5.0,-7.2,340,14,18,0.75,30.050198,1018.4,,TRUE,TRUE,,,TRUE,,,-SN BR,BKN,1400,BKN,2000,OVC,3800,,,LIFR,,,,,,0.01,,,,,,METAR,237.0
KRST 120754Z 34022G27KT 10SM CLR M18/M22 A3043 RMK AO2 PK WND 34029/0704 SLP335 T11781217,KRST,2015-02-12T07:54:00Z,43.9,-92.5,-17.8,-21.7,340,22,27,10.0,30.431103,1033.5,,,TRUE,,,,,,,CLR,,,,,,,,VFR,,,,,,,,,,,,METAR,403.0
KRQB 120754Z AUTO 32008G14KT 10SM SCT038 M11/M14 A3001 RMK AO2 T11081145,KRQB,2015-02-12T07:54:00Z,43.72,-85.5,-10.8,-14.5,320,8,14,10.0,30.008858,,,TRUE,TRUE,,,,,,,SCT,3800,,,,,,,VFR,,,,,,,,,,,,METAR,302.0
KROC 120754Z 27008KT 9SM -SN OVC060 M02/M04 A2975 RMK AO2 SLP083 P0000 T10171044,KROC,2015-02-12T07:54:00Z,43.12,-77.68,-1.7,-4.4,270,8,,9.0,29.749016,1008.3,,,TRUE,,,,,,-SN,OVC,6000,,,,,,,VFR,,,,,,0.0050,,,,,,METAR,178.0
KROA 120754Z 25004KT 10SM OVC036 05/M03 A2989 RMK AO2 SLP121 T00501028,KROA,2015-02-12T07:54:00Z,37.32,-79.97,5.0,-2.8,250,4,,10.0,29.890747,1012.1,,,TRUE,,,,,,,OVC,3600,,,,,,,VFR,,,,,,,,,,,,METAR,362.0
KRNP 120754Z AUTO 32014G19KT 10SM SCT023 SCT036 OVC050 M08/M13 A2998 RMK AO2 T10801133,KRNP,2015-02-12T07:54:00Z,43.0,-84.13,-8.0,-13.3,320,14,19,10.0,29.97933,,,TRUE,TRUE,,,,,,,SCT,2300,SCT,3600,OVC,5000,,,VFR,,,,,,,,,,,,METAR,224.0
KRKS 120754Z AUTO 24010KT 10SM CLR 00/M05 A3037 RMK AO2 SLP284 T00001050,KRKS,2015-02-12T07:54:00Z,41.6,-109.07,0.0,-5.0,240,10,,10.0,30.369095,1028.4,,TRUE,TRUE,,,,,,,CLR,,,,,,,,VFR,,,,,,,,,,,,METAR,2060.0
KRIC 120754Z 18004KT 9SM CLR M01/M04 A2986 RMK AO2 SLP119 T10111039,KRIC,2015-02-12T07:54:00Z,37.52,-77.32,-1.1,-3.9,180,4,,9.0,29.861221,1011.9,,,TRUE,,,,,,,CLR,,,,,,,,VFR,,,,,,,,,,,,METAR,50.0
KRFD 120754Z 34013G21KT 2SM -SN BLSN SCT025 OVC030 M10/M13 A3022 RMK AO2 SLP246 P0000 T11001133,KRFD,2015-02-12T07:54:00Z,42.2,-89.1,-10.0,-13.3,340,13,21,2.0,30.221457,1024.6,,,TRUE,,,,,,-SN BLSN,SCT,2500,OVC,3000,,,,,IFR,,,,,,0.0050,,,,,,METAR,221.0
KRDG 120754Z 00000KT 10SM OVC042 M01/M06 A2983 RMK AO2 SLP109 T10061061,KRDG,2015-02-12T07:54:00Z,40.37,-75.97,-0.6,-6.1,0,0,,10.0,29.828741,1010.9,,,TRUE,,,,,,,OVC,4200,,,,,,,VFR,,,,,,,,,,,,METAR,109.0
KRBL 120754Z AUTO 31006KT 10SM CLR 09/07 A3023 RMK AO2 SLP236 T00890072 402170044,KRBL,2015-02-12T07:54:00Z,40.15,-122.25,8.9,7.2,310,6,,10.0,30.230314,1023.6,,TRUE,TRUE,,,,,,,CLR,,,,,,,,VFR,,,,21.7,4.4,,,,,,,METAR,104.0
KPZQ 120754Z AUTO 33014G19KT 1 1/4SM -SN BKN006 BKN010 OVC018 M13/M15 A3001 RMK AO2 T11321148,KPZQ,2015-02-12T07:54:00Z,45.4,-83.82,-13.2,-14.8,330,14,19,1.25,30.008858,,,TRUE,TRUE,,,,,,-SN,BKN,600,BKN,1000,OVC,1800,,,IFR,,,,,,,,,,,,METAR,204.0
KLMO 120754Z AUTO 30004KT 10SM CLR M02/M04 A3035 RMK AO2 T10201039,KLMO,2015-02-12T07:54:00Z,40.17,-105.17,-2.0,-3.9,300,4,,10.0,30.351377,,,TRUE,TRUE,,,,,,,CLR,,,,,,,,VFR,,,,,,,,,,,,METAR,1541.0
KLEX 120754Z 32016G20KT 10SM FEW021 BKN030 M02/M06 A3005 RMK AO2 SLP180 T10171056,KLEX,2015-02-12T07:54:00Z,38.03,-84.6,-1.7,-5.6,320,16,20,10.0,30.050198,1018.0,,,TRUE,,,,,,,FEW,2100,BKN,3000,,,,,MVFR,,,,,,,,,,,,METAR,300.0
KLDM 120754Z AUTO 35015G23KT 1 1/4SM -SN SCT008 BKN012 OVC022 M09/M13 A3010 RMK AO2 T10911126,KLDM,2015-02-12T07:54:00Z,43.97,-86.4,-9.1,-12.6,350,15,23,1.25,30.100393,,,TRUE,TRUE,,,,,,-SN,SCT,800,BKN,1200,OVC,2200,,,IFR,,,,,,,,,,,,METAR,197.0
KLBT 120754Z AUTO 00000KT 7SM CLR 03/02 A2992 RMK AO2 SLP132 T00280017,KLBT,2015-02-12T07:54:00Z,34.6,-79.07,2.8,1.7,0,0,,7.0,29.920275,1013.2,,TRUE,TRUE,,,,,,,CLR,,,,,,,,VFR,,,,,,,,,,,,METAR,37.0
KLAF 120754Z AUTO 30013G19KT 10SM CLR M08/M12 A3012 RMK AO2 SLP206 T10781117 TSNO,KLAF,2015-02-12T07:54:00Z,40.42,-86.93,-7.8,-11.7,300,13,19,10.0,30.121063,1020.6,,TRUE,TRUE,,,TRUE,,,,CLR,,,,,,,,VFR,,,,,,,,,,,,METAR,182.0
KJST 120754Z AUTO 26011G18KT 2 1/2SM BR OVC004 M02/M03 A2973 RMK AO2 CIG 002V007 SLP092 I1002 T10171028,KJST,2015-02-12T07:54:00Z,40.32,-78.83,-1.7,-2.8,260,11,18,2.5,29.731298,1009.2,,TRUE,TRUE,,,,,,BR,OVC,400,,,,,,,LIFR,,,,,,,,,,,,METAR,694.0
KJAN 120754Z AUTO 00000KT 10SM CLR 06/02 A3016 RMK AO2 SLP210 T00610017,KJAN,2015-02-12T07:54:00Z,32.32,-90.08,6.1,1.7,0,0,,10.0,30.159449,1021.0,,TRUE,TRUE,,,,,,,CLR,,,,,,,,VFR,,,,,,,,,,,,METAR,91.0
KIZG 120754Z AUTO 00000KT 10SM CLR M17/M21 A2986 RMK AO2 SLP122 T11721206,KIZG,2015-02-12T07:54:00Z,43.98,-70.95,-17.2,-20.6,0,0,,10.0,29.861221,1012.2,,TRUE,TRUE,,,,,,,CLR,,,,,,,,VFR,,,,,,,,,,,,METAR,135.0
KISW 120754Z AUTO 33010KT 10SM FEW022 SCT040 M14/M20 A3030 RMK AO2 SLP283 T11391200,KISW,2015-02-12T07:54:00Z,44.37,-89.83,-13.9,-20.0,330,10,,10.0,30.301182,1028.3,,TRUE,TRUE,,,,,,,FEW,2200,SCT,4000,,,,,VFR,,,,,,,,,,,,METAR,307.0
KIPT 120754Z AUTO 00000KT 10SM OVC032 M01/M06 A2978 RMK AO2 SLP091 T10061056,KIPT,2015-02-12T07:54:00Z,41.25,-76.92,-0.6,-5.6,0,0,,10.0,29.778543,1009.1,,TRUE,TRUE,,,,,,,OVC,3200,,,,,,,VFR,,,,,,,,,,,,METAR,164.0
KINT 120754Z AUTO 00000KT 10SM CLR 01/M02 A2988 RMK AO2 SLP121 T00111022,KINT,2015-02-12T07:54:00Z,36.13,-80.22,1.1,-2.2,0,0,,10.0,29.878937,1012.1,,TRUE,TRUE,,,,,,,CLR,,,,,,,,VFR,,,,,,,,,,,,METAR,291.0
KIND 120754Z 30016KT 10SM OVC022 M06/M11 A3009 RMK AO2 SLP198 T10561106,KIND,2015-02-12T07:54:00Z,39.72,-86.3,-5.6,-10.6,300,16,,10.0,30.088583,1019.8,,,TRUE,,,,,,,OVC,2200,,,,,,,MVFR,,,,,,,,,,,,METAR,241.0
KIMT 120754Z AUTO 33017G25KT 10SM CLR M16/M21 A3019 RMK AO2 SLP252 T11611211,KIMT,2015-02-12T07:54:00Z,45.82,-88.12,-16.1,-21.1,330,17,25,10.0,30.188976,1025.2,,TRUE,TRUE,,,,,,,CLR,,,,,,,,VFR,,,,,,,,,,,,METAR,349.0
KILN 120754Z AUTO 27013KT 10SM FEW023 OVC040 M02/M06 A2997 RMK AO2 SLP172 T10171061,KILN,2015-02-12T07:54:00Z,39.43,-83.8,-1.7,-6.1,270,13,,10.0,29.970472,1017.2,,TRUE,TRUE,,,,,,,FEW,2300,OVC,4000,,,,,VFR,,,,,,,,,,,,METAR,322.0
KFWA 120754Z 29012G17KT 10SM -SN OVC048 M04/M09 A3001 RMK AO2 SLP170 P0000 T10391089,KFWA,2015-02-12T07:54:00Z,40.98,-85.18,-3.9,-8.9,290,12,17,10.0,30.008858,1017.0,,,TRUE,,,,,,-SN,OVC,4800,,,,,,,VFR,,,,,,0.0050,,,,,,METAR,248.0
KFIG 120754Z AUTO 25009KT 9SM -SN BKN016 OVC021 00/M03 A2974 RMK AO2 UPB20E22SNB03E20B53 SLP087 P0000 T00001028,KFIG,2015-02-12T07:54:00Z,41.05,-78.42,0.0,-2.8,250,9,,9.0,29.740158,1008.7,,TRUE,TRUE,,,,,,-SN,BKN,1600,OVC,2100,,,,,MVFR,,,,,,0.0050,,,,,,METAR,462.0
KEWN 120754Z AUTO 00000KT 8SM CLR M01/M03 A2995 RMK AO2 SLP143 T10111033,KEWN,2015-02-12T07:54:00Z,35.07,-77.05,-1.1,-3.3,0,0,,8.0,29.949802,1014.3,,TRUE,TRUE,,,,,,,CLR,,,,,,,,VFR,,,,,,,,,,,,METAR,3.0
KMZH 120754Z AUTO 36008KT 10SM CLR M19/M23 A3051 RMK AO2,KMZH,2015-02-12T07:54:00Z,46.42,-92.8,-19.0,-23.0,360,8,,10.0,30.510826,,,TRUE,TRUE,,,,,,,CLR,,,,,,,,VFR,,,,,,,,,,,,METAR,328.0
KAAO 120754Z AUTO 35005KT 10SM CLR M04/M08 A3044 RMK AO2 SLP322 T10391078,KAAO,2015-02-12T07:54:00Z,37.75,-97.22,-3.9,-7.8,350,5,,10.0,30.43996,1032.2,,TRUE,TRUE,,,,,,,CLR,,,,,,,,VFR,,,,,,,,,,,,METAR,434.0
KAPN 120754Z AUTO 33012G21KT 1 1/2SM -SN BR OVC013 M12/M14 A2996 RMK AO2 SNB02 SLP160 P0001 T11221144,KAPN,2015-02-12T07:54:00Z,45.07,-83.57,-12.2,-14.4,330,12,21,1.5,29.958662,1016.0,,TRUE,TRUE,,,,,,-SN BR,OVC,1300,,,,,,,IFR,,,,,,0.01,,,,,,METAR,210.0
KBKB 120754Z AUTO 00000KT 10SM CLR 09/06 A3016 RMK AO2 SLP240 T00940061,KBKB,2015-02-12T07:54:00Z,31.0,-92.92,9.4,6.1,0,0,,10.0,30.159449,1024.0,,TRUE,TRUE,,,,,,,CLR,,,,,,,,VFR,,,,,,,,,,,,METAR,94.0
KNFG 120754Z AUTO 06008KT 10SM CLR 20/M07 A3004 RMK AO2 SLP172 T02001072 403170050 $,KNFG,2015-02-12T07:54:00Z,33.28,-117.33,20.0,-7.2,60,8,,10.0,30.041338,1017.2,,TRUE,TRUE,TRUE,,,,,,CLR,,,,,,,,VFR,,,,31.7,5.0,,,,,,,METAR,24.0
KNKT 120754Z 00000KT 9SM CLR M02/M03 A2996 RMK AO2 SLP141 I1000 T10171033 $,KNKT,2015-02-12T07:54:00Z,34.9,-76.88,-1.7,-3.3,0,0,,9.0,29.958662,1014.1,,,TRUE,TRUE,,,,,,CLR,,,,,,,,VFR,,,,,,,,,,,,METAR,9.0
K1V4 120754Z AUTO M13/M16 A2977 RMK AO1 SLP101 T11331156,K1V4,2015-02-12T07:54:00Z,44.42,-72.02,-13.3,-15.6,,,,,29.769686,1010.1,,TRUE,TRUE,,,,,,,,,,,,,,,,,,,,,,,,,,,METAR,210.0
KMQE 120754Z AUTO 29004KT M09/M12 A2982 RMK AO1 SLP118 T10891122,KMQE,2015-02-12T07:54:00Z,42.22,-71.12,-8.9,-12.2,290,4,,,29.819881,1011.8,,TRUE,TRUE,,,,,,,,,,,,,,,,,,,,,,,,,,,METAR,199.0
KNAK 120754Z AUTO 18005KT 10SM OVC065 00/M04 A2987 RMK AO2 SLP117 T00001039,KNAK,2015-02-12T07:54:00Z,38.98,-76.48,0.0,-3.9,180,5,,10.0,29.870079,1011.7,,TRUE,TRUE,,,,,,,OVC,6500,,,,,,,VFR,,,,,,,,,,,,METAR,2.0
KMTP 120754Z AUTO 00000KT M07/M10 A2988 RMK AO1 SLP118 T10721100,KMTP,2015-02-12T07:54:00Z,41.07,-71.92,-7.2,-10.0,0,0,,,29.878937,1011.8,,TRUE,TRUE,,,,,,,,,,,,,,,,,,,,,,,,,,,METAR,2.0
MMMD 120754Z 00000KT 7SM SKC 16/14 A3001,MMMD,2015-02-12T07:54:00Z,20.95,-89.65,16.0,14.0,0,0,,7.0,30.008858,,,,,,,,,,,SKC,,,,,,,,VFR,,,,,,,,,,,,METAR,10.0
PGUM 120754Z 02013KT 10SM CLR 27/18 A2985 RMK AO2 SLP102 T02670183 $,PGUM,2015-02-12T07:54:00Z,13.48,144.8,26.7,18.3,20,13,,10.0,29.84941,1010.2,,,TRUE,TRUE,,,,,,CLR,,,,,,,,VFR,,,,,,,,,,,,METAR,91.0
YPBO 120754Z AUTO 05017G29KT 040V100 9999 // NCD 40/10 Q1008,YPBO,2015-02-12T07:54:00Z,-23.2,117.75,40.0,10.0,50,17,29,6.21,29.763779,,,TRUE,,,,,,,,,,,,,,,,,,,,,,,,,,,,SPECI,1292.0
KACY 120754Z 00000KT 10SM CLR M05/M07 A2988 RMK AO2 SLP120 T10501067,KACY,2015-02-12T07:54:00Z,39.45,-74.57,-5.0,-6.7,0,0,,10.0,29.878937,1012.0,,,TRUE,,,,,,,CLR,,,,,,,,VFR,,,,,,,,,,,,METAR,23.0
K12N 120754Z AUTO 00000KT M04/M08 A2981 RMK AO1 SLP108 T10391078,K12N,2015-02-12T07:54:00Z,41.02,-74.73,-3.9,-7.8,0,0,,,29.811024,1010.8,,TRUE,TRUE,,,,,,,,,,,,,,,,,,,,,,,,,,,METAR,177.0
KVTP 120754Z AUTO 16003KT 10SM CLR M05/M07 A3041 RMK AO2,KVTP,2015-02-12T07:54:00Z,37.5,-105.17,-5.0,-7.0,160,3,,10.0,30.410433,,,TRUE,TRUE,,,,,,,CLR,,,,,,,,VFR,,,,,,,,,,,,METAR,3114.0
KVTA 120754Z AUTO 32009KT 1 1/2SM -SN BR SCT018 OVC029 M02/M04 A2993 RMK AO2 SNB0655 SLP144 P0000 T10171039,KVTA,2015-02-12T07:54:00Z,40.02,-82.47,-1.7,-3.9,320,9,,1.5,29.929134,1014.4,,TRUE,TRUE,,,,,,-SN BR,SCT,1800,OVC,2900,,,,,IFR,,,,,,0.0050,,,,,,METAR,268.0
KVSF 120754Z AUTO 00000KT 9SM SCT055 BKN075 OVC100 M13/M14 A2983 RMK AO2 SLP111 T11281144 TSNO,KVSF,2015-02-12T07:54:00Z,43.35,-72.52,-12.8,-14.4,0,0,,9.0,29.828741,1011.1,,TRUE,TRUE,,,TRUE,,,,SCT,5500,BKN,7500,OVC,10000,,,VFR,,,,,,,,,,,,METAR,175.0
KBOS 120754Z 35004KT 10SM OVC025 M09/M13 A2988 RMK AO2 SLP118 T10891133,KBOS,2015-02-12T07:54:00Z,42.37,-71.02,-8.9,-13.3,350,4,,10.0,29.878937,1011.8,,,TRUE,,,,,,,OVC,2500,,,,,,,MVFR,,,,,,,,,,,,METAR,6.0
KSJN 120754Z AUTO 05005KT 10SM CLR 01/M02 A3038 RMK AO2 SLP261 T00061017,KSJN,2015-02-12T07:54:00Z,34.52,-109.38,0.6,-1.7,50,5,,10.0,30.380905,1026.1,,TRUE,TRUE,,,,,,,CLR,,,,,,,,VFR,,,,,,,,,,,,METAR,1745.0
KCEU 120754Z AUTO 27008KT 10SM CLR 08/M03 A2992 RMK AO2 SLP129 T00831028,KCEU,2015-02-12T07:54:00Z,34.67,-82.88,8.3,-2.8,270,8,,10.0,29.920275,1012.9,,TRUE,TRUE,,,,,,,CLR,,,,,,,,VFR,,,,,,,,,,,,METAR,268.0
KCAR 120754Z AUTO 06003KT 10SM CLR M19/M24 A2988 RMK AO2 SLP136 T11891244,KCAR,2015-02-12T07:54:00Z,46.87,-68.02,-18.9,-24.4,60,3,,10.0,29.878937,1013.6,,TRUE,TRUE,,,,,,,CLR,,,,,,,,VFR,,,,,,,,,,,,METAR,191.0
KBWI 120754Z 00000KT 10SM BKN060 00/M04 A2986 RMK AO2 SLP113 T00001044,KBWI,2015-02-12T07:54:00Z,39.17,-76.68,0.0,-4.4,0,0,,10.0,29.861221,1011.3,,,TRUE,,,,,,,BKN,6000,,,,,,,VFR,,,,,,,,,,,,METAR,59.0
KBUY 120754Z AUTO 00000KT 8SM CLR M01/M03 A2988 RMK AO2 SLP120 T10061028,KBUY,2015-02-12T07:54:00Z,36.05,-79.47,-0.6,-2.8,0,0,,8.0,29.878937,1012.0,,TRUE,TRUE,,,,,,,CLR,,,,,,,,VFR,,,,,,,,,,,,METAR,180.0
KBUF 120754Z 27008KT 4SM -SN BKN013 OVC030 M02/M05 A2977 RMK AO2 SLP091 P0000 T10221050,KBUF,2015-02-12T07:54:00Z,42.93,-78.73,-2.2,-5.0,270,8,,4.0,29.769686,1009.1,,,TRUE,,,,,,-SN,BKN,1300,OVC,3000,,,,,MVFR,,,,,,0.0050,,,,,,METAR,211.0
KBTV 120754Z 18012G19KT 8SM -SN OVC045 M05/M11 A2974 RMK AO2 SNB07 SLP076 P0000 T10501106,KBTV,2015-02-12T07:54:00Z,44.47,-73.15,-5.0,-10.6,180,12,19,8.0,29.740158,1007.6,,,TRUE,,,,,,-SN,OVC,4500,,,,,,,VFR,,,,,,0.0050,,,,,,METAR,105.0
KBFW 120754Z AUTO 32005KT 10SM CLR M19/M24 A3044 RMK AO2,KBFW,2015-02-12T07:54:00Z,47.25,-91.4,-19.0,-24.0,320,5,,10.0,30.43996,,,TRUE,TRUE,,,,,,,CLR,,,,,,,,VFR,,,,,,,,,,,,METAR,331.0
KANE 120754Z AUTO 32013G18KT 10SM CLR M17/M21 A3054 RMK AO2,KANE,2015-02-12T07:54:00Z,45.15,-93.22,-17.0,-21.0,320,13,18,10.0,30.540354,,,TRUE,TRUE,,,,,,,CLR,,,,,,,,VFR,,,,,,,,,,,,METAR,278.0
KAIT 120754Z AUTO 31008KT 10SM CLR M19/M24 A3055 RMK AO2,KAIT,2015-02-12T07:54:00Z,46.53,-93.67,-19.0,-24.0,310,8,,10.0,30.549213,,,TRUE,TRUE,,,,,,,CLR,,,,,,,,VFR,,,,,,,,,,,,METAR,367.0
KPLN 120754Z AUTO 34016KT 2SM -SN OVC029 M16/M19 A3007 RMK AO2 PK WND 34026/0733 SNB33 SLP199 P0000 T11611194,KPLN,2015-02-12T07:54:00Z,45.57,-84.8,-16.1,-19.4,340,16,,2.0,30.070866,1019.9,,TRUE,TRUE,,,,,,-SN,OVC,2900,,,,,,,IFR,,,,,,0.0050,,,,,,METAR,217.0
KTQE 120754Z AUTO 34015KT 10SM CLR M12/M18 A3061 RMK AO2 PK WND 36027/0700 SLP380 T11221178,KTQE,2015-02-12T07:54:00Z,41.77,-96.18,-12.2,-17.8,340,15,,10.0,30.611221,1038.0,,TRUE,TRUE,,,,,,,CLR,,,,,,,,VFR,,,,,,,,,,,,METAR,312.0
KLWT 120754Z AUTO 07003KT 10SM BKN100 M01/M04 A3014 RMK AO2 SLP237 T10111039,KLWT,2015-02-12T07:54:00Z,47.03,-109.47,-1.1,-3.9,70,3,,10.0,30.138779,1023.7,,TRUE,TRUE,,,,,,,BKN,10000,,,,,,,VFR,,,,,,,,,,,,METAR,1270.0
KI69 120754Z AUTO 29009KT 10SM OVC029 00/M05 A3001 RMK AO1,KI69,2015-02-12T07:54:00Z,39.08,-84.22,0.0,-5.0,290,9,,10.0,30.008858,,,TRUE,TRUE,,,,,,,OVC,2900,,,,,,,MVFR,,,,,,,,,,,,METAR,255.0
KTAD 120754Z AUTO 25012KT 10SM CLR M02/M06 A3040 RMK AO2 SLP300 T10221056,KTAD,2015-02-12T07:54:00Z,37.27,-104.33,-2.2,-5.6,250,12,,10.0,30.398623,1030.0,,TRUE,TRUE,,,,,,,CLR,,,,,,,,VFR,,,,,,,,,,,,METAR,1756.0
KSYR 120754Z 00000KT 6SM -SN BR SCT007 BKN018 OVC024 M07/M07 A2975 RMK AO2 SLP075 P0001 T10671067,KSYR,2015-02-12T07:54:00Z,43.12,-76.1,-6.7,-6.7,0,0,,6.0,29.749016,1007.5,,,TRUE,,,,,,-SN BR,SCT,700,BKN,1800,OVC,2400,,,MVFR,,,,,,0.01,,,,,,METAR,127.0
KSUS 120754Z AUTO 29010KT 10SM OVC029 M02/M07 A3027 RMK AO2 SLP256 T10221072,KSUS,2015-02-12T07:54:00Z,38.65,-90.65,-2.2,-7.2,290,10,,10.0,30.268702,1025.6,,TRUE,TRUE,,,,,,,OVC,2900,,,,,,,MVFR,,,,,,,,,,,,METAR,141.0
KUZA 120754Z AUTO 00000KT 10SM CLR 01/00 A2990 RMK AO2 SLP129 T00110000,KUZA,2015-02-12T07:54:00Z,34.98,-81.05,1.1,0.0,0,0,,10.0,29.899607,1012.9,,TRUE,TRUE,,,,,,,CLR,,,,,,,,VFR,,,,,,,,,,,,METAR,202.0
KUIN 120754Z AUTO 35020G26KT 3SM -SN BKN017 OVC025 M07/M11 A3030 RMK AO2 PK WND 01028/0743 SNB01E15B32 SLP270 P0000 T10671106,KUIN,2015-02-12T07:54:00Z,39.95,-91.2,-6.7,-10.6,350,20,26,3.0,30.301182,1027.0,,TRUE,TRUE,,,,,,-SN,BKN,1700,OVC,2500,,,,,MVFR,,,,,,0.0050,,,,,,METAR,234.0
KDXX 120754Z AUTO 33014G19KT 10SM CLR M17/M21 A3068 RMK AO2,KDXX,2015-02-12T07:54:00Z,44.98,-96.18,-17.0,-21.0,330,14,19,10.0,30.679134,,,TRUE,TRUE,,,,,,,CLR,,,,,,,,VFR,,,,,,,,,,,,METAR,330.0
KVAY 120754Z AUTO 00000KT 10SM OVC070 M03/M06 A2988 RMK AO2 SLP117 T10331061,KVAY,2015-02-12T07:54:00Z,39.93,-74.83,-3.3,-6.1,0,0,,10.0,29.878937,1011.7,,TRUE,TRUE,,,,,,,OVC,7000,,,,,,,VFR,,,,,,,,,,,,METAR,15.0
KFGN 120754Z AUTO 34004KT 10SM CLR M28/M30 A3061 RMK AO2,KFGN,2015-02-12T07:54:00Z,49.32,-94.9,-28.0,-30.0,340,4,,10.0,30.611221,,,TRUE,TRUE,,,,,,,CLR,,,,,,,,VFR,,,,,,,,,,,,METAR,328.0
KFFM 120754Z AUTO 30007KT 10SM CLR M23/M27 A3071 RMK AO2,KFFM,2015-02-12T07:54:00Z,46.28,-96.15,-23.0,-27.0,300,7,,10.0,30.708662,,,TRUE,TRUE,,,,,,,CLR,,,,,,,,VFR,,,,,,,,,,,,METAR,361.0
KFBL 120754Z AUTO 33011G16KT 10SM CLR M17/M22 A3052 RMK AO2,KFBL,2015-02-12T07:54:00Z,44.33,-93.32,-17.0,-22.0,330,11,16,10.0,30.519686,,,TRUE,TRUE,,,,,,,CLR,,,,,,,,VFR,,,,,,,,,,,,METAR,322.0
KWLD 120754Z AUTO 36003KT 10SM CLR M06/M07 A3045 RMK AO2 SLP320 T10561072,KWLD,2015-02-12T07:54:00Z,37.17,-97.03,-5.6,-7.2,360,3,,10.0,30.448818,1032.0,,TRUE,TRUE,,,,,,,CLR,,,,,,,,VFR,,,,,,,,,,,,METAR,350.0
KMVE 120754Z AUTO 35011KT 10SM CLR M21/M23 A3066 RMK AO2,KMVE,2015-02-12T07:54:00Z,44.97,-95.72,-21.0,-23.0,350,11,,10.0,30.661417,,,TRUE,TRUE,,,,,,,CLR,,,,,,,,VFR,,,,,,,,,,,,METAR,315.0
KLXL 120754Z AUTO 32005KT 10SM CLR M20/M24 A3059 RMK AO2,KLXL,2015-02-12T07:54:00Z,45.95,-94.33,-20.0,-24.0,320,5,,10.0,30.590551,,,TRUE,TRUE,,,,,,,CLR,,,,,,,,VFR,,,,,,,,,,,,METAR,342.0
KONZ 120754Z AUTO 32011KT 10SM OVC065 M04/M09 A2992 RMK AO2,KONZ,2015-02-12T07:54:00Z,42.1,-83.15,-4.0,-9.0,320,11,,10.0,29.920275,,,TRUE,TRUE,,,,,,,OVC,6500,,,,,,,VFR,,,,,,,,,,,,METAR,180.0
KOVL 120754Z AUTO 32011KT 10SM CLR M18/M21 A3061 RMK AO2,KOVL,2015-02-12T07:54:00Z,44.78,-95.03,-18.0,-21.0,320,11,,10.0,30.611221,,,TRUE,TRUE,,,,,,,CLR,,,,,,,,VFR,,,,,,,,,,,,METAR,328.0
KRRT 120754Z AUTO 32003KT 10SM CLR M26/M29 A3062 RMK AO2,KRRT,2015-02-12T07:54:00Z,48.93,-95.33,-26.0,-29.0,320,3,,10.0,30.620079,,,TRUE,TRUE,,,,,,,CLR,,,,,,,,VFR,,,,,,,,,,,,METAR,327.0
KROX 120754Z AUTO 35003KT 10SM CLR M26/M29 A3064 RMK AO2,KROX,2015-02-12T07:54:00Z,48.85,-95.7,-26.0,-29.0,350,3,,10.0,30.640747,,,TRUE,TRUE,,,,,,,CLR,,,,,,,,VFR,,,,,,,,,,,,METAR,323.0
KRMY 120754Z AUTO 31008G15KT 10SM -SN SCT020 BKN025 OVC050 M06/M10 A2997 RMK AO2 T10651101,KRMY,2015-02-12T07:54:00Z,42.23,-84.95,-6.5,-10.1,310,8,15,10.0,29.970472,,,TRUE,TRUE,,,,,,-SN,SCT,2000,BKN,2500,OVC,5000,,,MVFR,,,,,,,,,,,,METAR,287.0
KPWC 120754Z AUTO 33005KT 10SM CLR M22/M24 A3060 RMK AO2,KPWC,2015-02-12T07:54:00Z,46.72,-94.37,-22.0,-24.0,330,5,,10.0,30.59941,,,TRUE,TRUE,,,,,,,CLR,,,,,,,,VFR,,,,,,,,,,,,METAR,395.0
KPQN 120754Z AUTO 01009G17KT 10SM CLR M18/M22 A3057 RMK AO2,KPQN,2015-02-12T07:54:00Z,43.97,-96.32,-18.0,-22.0,10,9,17,10.0,30.569881,,,TRUE,TRUE,,,,,,,CLR,,,,,,,,VFR,,,,,,,,,,,,METAR,529.0
KPNM 120754Z AUTO 32007KT 10SM CLR M18/M23 A3056 RMK AO2,KPNM,2015-02-12T07:54:00Z,45.57,-93.6,-18.0,-23.0,320,7,,10.0,30.561024,,,TRUE,TRUE,,,,,,,CLR,,,,,,,,VFR,,,,,,,,,,,,METAR,298.0
KPEX 120754Z AUTO 29010KT 10SM CLR M21/M24 A3059 RMK AO2 T12131240,KPEX,2015-02-12T07:54:00Z,45.37,-94.73,-21.3,-24.0,290,10,,10.0,30.590551,,,TRUE,TRUE,,,,,,,CLR,,,,,,,,VFR,,,,,,,,,,,,METAR,360.0
KSYN 120754Z AUTO 34014KT 10SM CLR M16/M21 A3051 RMK AO2 T11651215,KSYN,2015-02-12T07:54:00Z,44.47,-93.02,-16.5,-21.5,340,14,,10.0,30.510826,,,TRUE,TRUE,,,,,,,CLR,,,,,,,,VFR,,,,,,,,,,,,METAR,280.0
KTEW 120754Z AUTO 32014G18KT 10SM BKN038 OVC050 M06/M11 A2995 RMK AO2 T10581111,KTEW,2015-02-12T07:54:00Z,42.57,-84.42,-5.8,-11.1,320,14,18,10.0,29.949802,,,TRUE,TRUE,,,,,,,BKN,3800,OVC,5000,,,,,VFR,,,,,,,,,,,,METAR,280.0
KTOB 120754Z AUTO 35018G22KT 10SM SCT095 M18/M21 A3043 RMK AO2,KTOB,2015-02-12T07:54:00Z,44.02,-92.82,-18.0,-21.0,350,18,22,10.0,30.431103,,,TRUE,TRUE,,,,,,,SCT,9500,,,,,,,VFR,,,,,,,,,,,,METAR,398.0
KTWM 120754Z AUTO 34005KT 10SM CLR M19/M23 A3045 RMK AO2,KTWM,2015-02-12T07:54:00Z,47.03,-91.75,-19.0,-23.0,340,5,,10.0,30.448818,,,TRUE,TRUE,,,,,,,CLR,,,,,,,,VFR,,,,,,,,,,,,METAR,328.0
KULM 120754Z AUTO 33016KT 10SM CLR M18/M22 A3059 RMK AO2,KULM,2015-02-12T07:54:00Z,44.32,-94.5,-18.0,-22.0,330,16,,10.0,30.590551,,,TRUE,TRUE,,,,,,,CLR,,,,,,,,VFR,,,,,,,,,,,,METAR,308.0
PHMK 120754Z AUTO 35004KT 10SM BKN031 OVC049 16/15 A2995 RMK AO2 SLP147 T01610150 TSNO,PHMK,2015-02-12T07:54:00Z,21.15,-157.1,16.1,15.0,350,4,,10.0,29.949802,1014.7,,TRUE,TRUE,,,TRUE,,,,BKN,3100,OVC,4900,,,,,VFR,,,,,,,,,,,,METAR,141.0
PHOG 120754Z 08004KT 10SM SCT060 21/16 A2994 RMK AO2 SLP143 T02060161 $,PHOG,2015-02-12T07:54:00Z,20.9,-156.43,20.6,16.1,80,4,,10.0,29.940945,1014.3,,,TRUE,TRUE,,,,,,SCT,6000,,,,,,,VFR,,,,,,,,,,,,METAR,12.0
PAHN 120754Z AUTO 30011KT 10SM BKN020 OVC026 M02/M03 A2984 RMK AO2 UPB16E26 SLP107 P0000 T10171033 TSNO,PAHN,2015-02-12T07:54:00Z,59.25,-135.52,-1.7,-3.3,300,11,,10.0,29.840551,1010.7,,TRUE,TRUE,,,TRUE,,,,BKN,2000,OVC,2600,,,,,MVFR,,,,,,0.0050,,,,,,METAR,5.0
PGSN 120754Z 02007G14KT 10SM CLR 26/18 A2984 RMK AO2 SLP125 T02560178,PGSN,2015-02-12T07:54:00Z,15.12,145.72,25.6,17.8,20,7,14,10.0,29.840551,1012.5,,,TRUE,,,,,,,CLR,,,,,,,,VFR,,,,,,,,,,,,METAR,65.0
PAKN 120754Z 03005KT 10SM BKN047 BKN100 M01/M02 A2941 RMK AO2 SLP961 T10061022,PAKN,2015-02-12T07:54:00Z,58.68,-156.65,-0.6,-2.2,30,5,,10.0,29.409449,996.1,,,TRUE,,,,,,,BKN,4700,BKN,10000,,,,,VFR,,,,,,,,,,,,METAR,17.0
KACQ 120754Z AUTO 33018KT 10SM CLR M16/M20 A3053 RMK AO2,KACQ,2015-02-12T07:54:00Z,44.07,-93.55,-16.0,-20.0,330,18,,10.0,30.528543,,,TRUE,TRUE,,,,,,,CLR,,,,,,,,VFR,,,,,,,,,,,,METAR,343.0
K7BM 120754Z AUTO 29005KT 10SM CLR M01/M12 A3041 RMK AO2,K7BM,2015-02-12T07:54:00Z,38.78,-106.22,-1.0,-12.0,290,5,,10.0,30.410433,,,TRUE,TRUE,,,,,,,CLR,,,,,,,,VFR,,,,,,,,,,,,METAR,2995.0
KAPC 120754Z AUTO 04004KT 10SM CLR 09/08 A3020 RMK AO2 SLP219 T00890083 401830022,KAPC,2015-02-12T07:54:00Z,38.2,-122.28,8.9,8.3,40,4,,10.0,30.200787,1021.9,,TRUE,TRUE,,,,,,,CLR,,,,,,,,VFR,,,,18.3,2.2,,,,,,,METAR,13.0
KALO 120754Z 34023G28KT 10SM CLR M16/M20 A3043 RMK AO2 PK WND 34030/0730 SLP322 T11561200,KALO,2015-02-12T07:54:00Z,42.55,-92.4,-15.6,-20.0,340,23,28,10.0,30.431103,1032.2,,,TRUE,,,,,,,CLR,,,,,,,,VFR,,,,,,,,,,,,METAR,264.0
KAKR 120754Z AUTO 31009KT 10SM OVC060 M02/M06 A2987 RMK AO2 SNE19 SLP125 P0000 T10171056 $,KAKR,2015-02-12T07:54:00Z,41.03,-81.47,-1.7,-5.6,310,9,,10.0,29.870079,1012.5,,TRUE,TRUE,TRUE,,,,,,OVC,6000,,,,,,,VFR,,,,,,0.0050,,,,,,METAR,363.0
KAKQ 120754Z AUTO 19004KT 10SM CLR M01/M03 A2989 RMK AO2 SLP124 T10061033 TSNO,KAKQ,2015-02-12T07:54:00Z,36.98,-77.0,-0.6,-3.3,190,4,,10.0,29.890747,1012.4,,TRUE,TRUE,,,TRUE,,,,CLR,,,,,,,,VFR,,,,,,,,,,,,METAR,34.0
KAKH 120754Z AUTO 00000KT 10SM CLR 01/M01 A2989 RMK AO2 SLP125 T00111011,KAKH,2015-02-12T07:54:00Z,35.2,-81.15,1.1,-1.1,0,0,,10.0,29.890747,1012.5,,TRUE,TRUE,,,,,,,CLR,,,,,,,,VFR,,,,,,,,,,,,METAR,243.0
KAUW 120754Z AUTO 34008G16KT 10SM BKN032 M15/M21 A3026 RMK AO2 SLP277 T11501206,KAUW,2015-02-12T07:54:00Z,44.93,-89.62,-15.0,-20.6,340,8,16,10.0,30.259842,1027.7,,TRUE,TRUE,,,,,,,BKN,3200,,,,,,,VFR,,,,,,,,,,,,METAR,362.0
KEVV 120754Z AUTO 30008G15KT 10SM OVC022 M01/M07 A3018 RMK AO2 SLP223 T10111072,KEVV,2015-02-12T07:54:00Z,38.05,-87.52,-1.1,-7.2,300,8,15,10.0,30.180119,1022.3,,TRUE,TRUE,,,,,,,OVC,2200,,,,,,,MVFR,,,,,,,,,,,,METAR,117.0
KEUG 120754Z AUTO 19005KT 1/4SM R16R/1800V2000FT FG VV001 07/06 A3023 RMK AO2 SLP238 T00670061 401280050 $,KEUG,2015-02-12T07:54:00Z,44.13,-123.22,6.7,6.1,190,5,,0.25,30.230314,1023.8,,TRUE,TRUE,TRUE,,,,,FG,OVX,0,,,,,,,LIFR,,,,12.8,5.0,,,,,,100,METAR,114.0
KERY 120754Z AUTO 01016G22KT 1 3/4SM BR SCT007 BKN012 OVC023 M17/M19 A3011 RMK AO2 T11751190,KERY,2015-02-12T07:54:00Z,46.3,-85.45,-17.5,-19.0,10,16,22,1.75,30.109253,,,TRUE,TRUE,,,,,,BR,SCT,700,BKN,1200,OVC,2300,,,IFR,,,,,,,,,,,,METAR,265.0
KHWD 120754Z AUTO 00000KT 10SM CLR 14/08 A3018 RMK AO2 SLP229 T01390083 401940078,KHWD,2015-02-12T07:54:00Z,37.67,-122.12,13.9,8.3,0,0,,10.0,30.180119,1022.9,,TRUE,TRUE,,,,,,,CLR,,,,,,,,VFR,,,,19.4,7.8,,,,,,,METAR,21.0
KGSO 120754Z 31004KT 10SM CLR 04/M01 A2987 RMK AO2 SLP114 T00391011 $,KGSO,2015-02-12T07:54:00Z,36.1,-79.95,3.9,-1.1,310,4,,10.0,29.870079,1011.4,,,TRUE,TRUE,,,,,,CLR,,,,,,,,VFR,,,,,,,,,,,,METAR,275.0
KGED 120754Z AUTO 19004KT 10SM CLR M03/M05 A2989 RMK AO2 SLP121 T10281050,KGED,2015-02-12T07:54:00Z,38.68,-75.37,-2.8,-5.0,190,4,,10.0,29.890747,1012.1,,TRUE,TRUE,,,,,,,CLR,,,,,,,,VFR,,,,,,,,,,,,METAR,19.0
KGCN 120754Z 07006KT 10SM CLR M03/M06 A3041 RMK AO2 SLP286 T10331061,KGCN,2015-02-12T07:54:00Z,35.95,-112.15,-3.3,-6.1,70,6,,10.0,30.410433,1028.6,,,TRUE,,,,,,,CLR,,,,,,,,VFR,,,,,,,,,,,,METAR,2016.0
KGCK 120754Z AUTO 28008KT 10SM CLR M03/M07 A3038 RMK AO2 SLP303 T10331072,KGCK,2015-02-12T07:54:00Z,37.92,-100.72,-3.3,-7.2,280,8,,10.0,30.380905,1030.3,,TRUE,TRUE,,,,,,,CLR,,,,,,,,VFR,,,,,,,,,,,,METAR,877.0
KFZY 120754Z AUTO 23005KT 5SM BR BKN013 OVC021 M03/M05 A2975 RMK AO2 SLP079 T10331050,KFZY,2015-02-12T07:54:00Z,43.35,-76.38,-3.3,-5.0,230,5,,5.0,29.749016,1007.9,,TRUE,TRUE,,,,,,BR,BKN,1300,OVC,2100,,,,,MVFR,,,,,,,,,,,,METAR,138.0
KDYL 120754Z AUTO 20003KT 10SM BKN045 OVC060 M03/M06 A2983 RMK AO2 SLP110 T10331056,KDYL,2015-02-12T07:54:00Z,40.33,-75.12,-3.3,-5.6,200,3,,10.0,29.828741,1011.0,,TRUE,TRUE,,,,,,,BKN,4500,OVC,6000,,,,,VFR,,,,,,,,,,,,METAR,117.0
KDUH 120754Z AUTO 28005KT 2SM -SN BKN007 BKN012 OVC033 M02/M05 A2994 RMK AO2,KDUH,2015-02-12T07:54:00Z,41.73,-83.65,-2.0,-5.0,280,5,,2.0,29.940945,,,TRUE,TRUE,,,,,,-SN,BKN,700,BKN,1200,OVC,3300,,,IFR,,,,,,,,,,,,METAR,204.0
KDSV 120754Z AUTO 33006KT 1 3/4SM -SN BR OVC020 M02/M03 A2975 RMK AO2 SNB27 SLP089 P0000 T10171033,KDSV,2015-02-12T07:54:00Z,42.57,-77.72,-1.7,-3.3,330,6,,1.75,29.749016,1008.9,,TRUE,TRUE,,,,,,-SN BR,OVC,2000,,,,,,,IFR,,,,,,0.0050,,,,,,METAR,198.0
KDSM 120754Z 35011G21KT 10SM CLR M13/M20 A3050 RMK AO2 SLP347 T11331200,KDSM,2015-02-12T07:54:00Z,41.53,-93.67,-13.3,-20.0,350,11,21,10.0,30.499016,1034.7,,,TRUE,,,,,,,CLR,,,,,,,,VFR,,,,,,,,,,,,METAR,295.0
KDRM 120754Z AUTO 35012G18KT 7SM SCT016 BKN027 OVC034 M18/M22 A3003 RMK AO2 T11761221,KDRM,2015-02-12T07:54:00Z,46.0,-83.75,-17.6,-22.1,350,12,18,7.0,30.029528,,,TRUE,TRUE,,,,,,,SCT,1600,BKN,2700,OVC,3400,,,MVFR,,,,,,,,,,,,METAR,204.0
KDEC 120754Z AUTO 33022G28KT 10SM OVC023 M06/M11 A3020 RMK AO2 PK WND 32032/0708 SLP237 T10611111 TSNO,KDEC,2015-02-12T07:54:00Z,39.83,-88.85,-6.1,-11.1,330,22,28,10.0,30.200787,1023.7,,TRUE,TRUE,,,TRUE,,,,OVC,2300,,,,,,,MVFR,,,,,,,,,,,,METAR,207.0
KDDH 120754Z AUTO 24005KT 10SM OVC030 M06/M13 A2976 RMK AO2 SLP088 T10561128,KDDH,2015-02-12T07:54:00Z,42.9,-73.25,-5.6,-12.8,240,5,,10.0,29.760826,1008.8,,TRUE,TRUE,,,,,,,OVC,3000,,,,,,,MVFR,,,,,,,,,,,,METAR,244.0
KCVX 120754Z AUTO 36021G26KT 2 1/2SM -SN SCT017 SCT024 OVC029 M15/M18 A3011 RMK AO2 T11461180,KCVX,2015-02-12T07:54:00Z,45.3,-85.27,-14.6,-18.0,360,21,26,2.5,30.109253,,,TRUE,TRUE,,,,,,-SN,SCT,1700,SCT,2400,OVC,2900,,,IFR,,,,,,,,,,,,METAR,204.0
KCRW 120754Z 26006KT 10SM OVC012 01/M01 A2994 RMK AO2 SLP146 T00111011,KCRW,2015-02-12T07:54:00Z,38.38,-81.58,1.1,-1.1,260,6,,10.0,29.940945,1014.6,,,TRUE,,,,,,,OVC,1200,,,,,,,MVFR,,,,,,,,,,,,METAR,309.0
KCOU 120754Z AUTO 32020G26KT 10SM OVC033 M02/M07 A3031 RMK AO2 PK WND 32026/0754 SLP270 T10221072 $,KCOU,2015-02-12T07:54:00Z,38.82,-92.22,-2.2,-7.2,320,20,26,10.0,30.31004,1027.0,,TRUE,TRUE,TRUE,,,,,,OVC,3300,,,,,,,VFR,,,,,,,,,,,,METAR,271.0
KCOS 120754Z 11004KT 10SM CLR M01/M04 A3039 RMK AO2 SLP307 T10111039,KCOS,2015-02-12T07:54:00Z,38.82,-104.68,-1.1,-3.9,110,4,,10.0,30.389763,1030.7,,,TRUE,,,,,,,CLR,,,,,,,,VFR,,,,,,,,,,,,METAR,1856.0
KCNB 120754Z AUTO 34012G19KT 10SM CLR M19/M22 A3067 RMK AO2 T11901221,KCNB,2015-02-12T07:54:00Z,44.73,-96.27,-19.0,-22.1,340,12,19,10.0,30.670275,,,TRUE,TRUE,,,,,,,CLR,,,,,,,,VFR,,,,,,,,,,,,METAR,364.0
KMVL 120754Z AUTO 20009KT 10SM BKN043 BKN055 OVC075 M07/M14 A2975 RMK AO2 SLP086 T10671139 TSNO,KMVL,2015-02-12T07:54:00Z,44.53,-72.62,-6.7,-13.9,200,9,,10.0,29.749016,1008.6,,TRUE,TRUE,,,TRUE,,,,BKN,4300,BKN,5500,OVC,7500,,,VFR,,,,,,,,,,,,METAR,234.0
KMRY 120754Z 08003KT 10SM CLR 11/07 A3014 RMK AO2 SLP218 T01110067 402390056,KMRY,2015-02-12T07:54:00Z,36.58,-121.85,11.1,6.7,80,3,,10.0,30.138779,1021.8,,,TRUE,,,,,,,CLR,,,,,,,,VFR,,,,23.9,5.6,,,,,,,METAR,66.0
KMOT 120754Z AUTO 11007KT 10SM CLR M22/M26 A3057 RMK AO2 SLP405 T12221261,KMOT,2015-02-12T07:54:00Z,48.25,-101.27,-22.2,-26.1,110,7,,10.0,30.569881,1040.5,,TRUE,TRUE,,,,,,,CLR,,,,,,,,VFR,,,,,,,,,,,,METAR,519.0
KMKC 120754Z 36016G19KT 10SM OVC040 M01/M08 A3042 RMK AO2 PRESRR SLP309 T10061083,KMKC,2015-02-12T07:54:00Z,39.12,-94.6,-0.6,-8.3,360,16,19,10.0,30.41929,1030.9,,,TRUE,,,,,,,OVC,4000,,,,,,,VFR,,,,,,,,,,,,METAR,227.0
KMIV 120754Z AUTO 00000KT 10SM BKN075 M03/M06 A2988 RMK AO2 SLP118 T10331056,KMIV,2015-02-12T07:54:00Z,39.37,-75.08,-3.3,-5.6,0,0,,10.0,29.878937,1011.8,,TRUE,TRUE,,,,,,,BKN,7500,,,,,,,VFR,,,,,,,,,,,,METAR,23.0
KMGN 120754Z AUTO 32013G19KT 5SM HZ SCT021 BKN085 OVC095 M15/M19 A3006 RMK AO2 T11541195,KMGN,2015-02-12T07:54:00Z,45.43,-84.92,-15.4,-19.5,320,13,19,5.0,30.059055,,,TRUE,TRUE,,,,,,HZ,SCT,2100,BKN,8500,OVC,9500,,,MVFR,,,,,,,,,,,,METAR,209.0
KMGJ 120754Z AUTO 00000KT 10SM SCT034 BKN044 OVC065 M07/M12 A2980 RMK AO2 SLP096 T10671117 TSNO,KMGJ,2015-02-12T07:54:00Z,41.52,-74.27,-6.7,-11.7,0,0,,10.0,29.799213,1009.6,,TRUE,TRUE,,,TRUE,,,,SCT,3400,BKN,4400,OVC,6500,,,VFR,,,,,,,,,,,,METAR,108.0
KMFI 120754Z AUTO 34009KT 10SM FEW020 SCT035 M15/M19 A3029 RMK AO2 SNB09E24 SLP286 P0000 T11501189,KMFI,2015-02-12T07:54:00Z,,,-15.0,-18.9,340,9,,10.0,30.28937,1028.6,,TRUE,TRUE,,,,,,,FEW,2000,SCT,3500,,,,,VFR,,,,,,0.0050,,,,,,METAR,
KMEM 120754Z 36007KT 10SM SCT150 03/M04 A3025 RMK AO2 SLP245 T00281039,KMEM,2015-02-12T07:54:00Z,35.07,-89.98,2.8,-3.9,360,7,,10.0,30.250984,1024.5,,,TRUE,,,,,,,SCT,15000,,,,,,,VFR,,,,,,,,,,,,METAR,86.0
KLYH 120754Z AUTO 26005KT 10SM OVC042 04/M03 A2986 RMK AO2 SLP114 T00391033 $,KLYH,2015-02-12T07:54:00Z,37.32,-79.2,3.9,-3.3,260,5,,10.0,29.861221,1011.4,,TRUE,TRUE,TRUE,,,,,,OVC,4200,,,,,,,VFR,,,,,,,,,,,,METAR,295.0
KLWM 120754Z AUTO 00000KT 10SM CLR M13/M16 A2989 RMK AO2 SLP124 T11331156,KLWM,2015-02-12T07:54:00Z,42.72,-71.13,-13.3,-15.6,0,0,,10.0,29.890747,1012.4,,TRUE,TRUE,,,,,,,CLR,,,,,,,,VFR,,,,,,,,,,,,METAR,54.0
KLNK 120754Z AUTO 01016G24KT 10SM CLR M11/M18 A3060 RMK AO2 PK WND 36032/0712 SLP379 T11111178,KLNK,2015-02-12T07:54:00Z,40.85,-96.77,-11.1,-17.8,10,16,24,10.0,30.59941,1037.9,,TRUE,TRUE,,,,,,,CLR,,,,,,,,VFR,,,,,,,,,,,,METAR,364.0
PAJN 120753Z 20003KT 7SM FEW002 BKN020 OVC039 01/01 A2980 RMK AO2 RAB03E18 SLP092 PRESENT WX VCSH N-SE P0000 T00110006,PAJN,2015-02-12T07:53:00Z,58.37,-134.58,1.1,0.6,200,3,,7.0,29.799213,1009.2,,,TRUE,,,,,,,FEW,200,BKN,2000,OVC,3900,,,MVFR,,,,,,0.0050,,,,,,METAR,5.0
KCDR 120753Z AUTO 03008KT 10SM OVC017 M03/M06 A3040 RMK AO2 SLP324 T10331061,KCDR,2015-02-12T07:53:00Z,42.83,-103.1,-3.3,-6.1,30,8,,10.0,30.398623,1032.4,,TRUE,TRUE,,,,,,,OVC,1700,,,,,,,MVFR,,,,,,,,,,,,METAR,1010.0
KCDW 120753Z AUTO 22003KT 10SM SCT041 OVC070 M04/M08 A2986 RMK AO2 SLP118 T10391083 TSNO,KCDW,2015-02-12T07:53:00Z,40.88,-74.28,-3.9,-8.3,220,3,,10.0,29.861221,1011.8,,TRUE,TRUE,,,TRUE,,,,SCT,4100,OVC,7000,,,,,VFR,,,,,,,,,,,,METAR,64.0
KABY 120753Z AUTO 00000KT 10SM CLR 05/03 A3005 RMK AO2 SLP177 T00500033,KABY,2015-02-12T07:53:00Z,31.53,-84.2,5.0,3.3,0,0,,10.0,30.050198,1017.7,,TRUE,TRUE,,,,,,,CLR,,,,,,,,VFR,,,,,,,,,,,,METAR,58.0
KABR 120753Z AUTO 01008KT 10SM CLR M19/M23 A3070 RMK AO2 SLP427 T11891228,KABR,2015-02-12T07:53:00Z,45.45,-98.42,-18.9,-22.8,10,8,,10.0,30.699802,1042.7,,TRUE,TRUE,,,,,,,CLR,,,,,,,,VFR,,,,,,,,,,,,METAR,397.0
PAYA 120753Z AUTO 06003KT 4SM -RA BR FEW016 BKN022 OVC029 04/04 A2974 RMK AO2 RAB21 SLP072 P0003 T00390039 TSNO,PAYA,2015-02-12T07:53:00Z,59.52,-139.67,3.9,3.9,60,3,,4.0,29.740158,1007.2,,TRUE,TRUE,,,TRUE,,,-RA BR,FEW,1600,BKN,2200,OVC,2900,,,MVFR,,,,,,0.03,,,,,,METAR,11.0
PAWD 120753Z AUTO 34003KT 10SM -RA OVC046 02/M01 A2964 RMK AO2 RAB38 SLP038 P0000 T00171006 TSNO,PAWD,2015-02-12T07:53:00Z,60.12,-149.42,1.7,-0.6,340,3,,10.0,29.639763,1003.8,,TRUE,TRUE,,,TRUE,,,-RA,OVC,4600,,,,,,,VFR,,,,,,0.0050,,,,,,METAR,23.0
PAVL 120753Z AUTO 07006KT 10SM CLR M31/M33 A2991 RMK AO2 SLP130 T13061333 TSNO,PAVL,2015-02-12T07:53:00Z,67.73,-164.55,-30.6,-33.3,70,6,,10.0,29.911417,1013.0,,TRUE,TRUE,,,TRUE,,,,CLR,,,,,,,,VFR,,,,,,,,,,,,METAR,3.0
PATO 120753Z AUTO 15007KT 110V180 10SM BKN023 OVC030 02/02 A2967 RMK AO2 SLP048 T00220017 TSNO,PATO,2015-02-12T07:53:00Z,60.78,-148.85,2.2,1.7,150,7,,10.0,29.66929,1004.8,,TRUE,TRUE,,,TRUE,,,,BKN,2300,OVC,3000,,,,,MVFR,,,,,,,,,,,,METAR,31.0
PATK 120753Z AUTO 03009KT 10SM OVC050 M01/M08 A2965 RMK AO2 SLP045 T10111083 TSNO,PATK,2015-02-12T07:53:00Z,62.3,-150.1,-1.1,-8.3,30,9,,10.0,29.648623,1004.5,,TRUE,TRUE,,,TRUE,,,,OVC,5000,,,,,,,VFR,,,,,,,,,,,,METAR,109.0
PASO 120753Z AUTO 00000KT 10SM FEW045 SCT050 OVC070 01/01 A2957 RMK AO2 SLP014 T00110006 TSNO,PASO,2015-02-12T07:53:00Z,59.45,-151.7,1.1,0.6,0,0,,10.0,29.568897,1001.4,,TRUE,TRUE,,,TRUE,,,,FEW,4500,SCT,5000,OVC,7000,,,VFR,,,,,,,,,,,,METAR,9.0
PASN 120753Z AUTO 01032G37KT 4SM -SN OVC015 M07/M11 A2954 RMK AO2 PK WND 01038/0700 UPE08B30E37SNB04E07B08E30B48 SLP004 P0000 T10721106 TSNO,PASN,2015-02-12T07:53:00Z,57.15,-170.22,-7.2,-10.6,10,32,37,4.0,29.53937,1000.4,,TRUE,TRUE,,,TRUE,,,-SN,OVC,1500,,,,,,,MVFR,,,,,,0.0050,,,,,,METAR,29.0
PASI 120753Z 33008KT 10SM OVC075 05/05 A2970 RMK AO2 SLP058 T00500050,PASI,2015-02-12T07:53:00Z,57.07,-135.35,5.0,5.0,330,8,,10.0,29.698818,1005.8,,,TRUE,,,,,,,OVC,7500,,,,,,,VFR,,,,,,,,,,,,METAR,5.0
PASC 120753Z 05019KT 10SM CLR M28/M32 A3020 RMK AO2 SLP230 T12781322,PASC,2015-02-12T07:53:00Z,70.2,-148.47,-27.8,-32.2,50,19,,10.0,30.200787,1023.0,,,TRUE,,,,,,,CLR,,,,,,,,VFR,,,,,,,,,,,,METAR,15.0
PAQT 120753Z AUTO 03011KT 10SM CLR M30/M34 A3024 RMK AO2 SLP244 T13001339 TSNO,PAQT,2015-02-12T07:53:00Z,70.22,-151.0,-30.0,-33.9,30,11,,10.0,30.239174,1024.4,,TRUE,TRUE,,,TRUE,,,,CLR,,,,,,,,VFR,,,,,,,,,,,,METAR,12.0
PHJR 120753Z AUTO 00000KT 10SM FEW055 17/13 A2996 RMK AO2 SLP151 T01720133 TSNO,PHJR,2015-02-12T07:53:00Z,21.32,-158.07,17.2,13.3,0,0,,10.0,29.958662,1015.1,,TRUE,TRUE,,,TRUE,,,,FEW,5500,,,,,,,VFR,,,,,,,,,,,,METAR,15.0
PHLI 120753Z 27004KT 10SM SCT018 OVC044 20/13 A2995 RMK AO2 SLP141 T02000133,PHLI,2015-02-12T07:53:00Z,21.97,-159.33,20.0,13.3,270,4,,10.0,29.949802,1014.1,,,TRUE,,,,,,,SCT,1800,OVC,4400,,,,,VFR,,,,,,,,,,,,METAR,45.0
PHKO 120753Z 07003KT 10SM SCT040 22/16 A2994 RMK AO2 SLP138 T02170161,PHKO,2015-02-12T07:53:00Z,19.73,-156.05,21.7,16.1,70,3,,10.0,29.940945,1013.8,,,TRUE,,,,,,,SCT,4000,,,,,,,VFR,,,,,,,,,,,,METAR,27.0
PHNL 120753Z 36003KT 10SM FEW033 SCT065 21/14 A2995 RMK AO2 SLP141 T02060144,PHNL,2015-02-12T07:53:00Z,21.33,-157.92,20.6,14.4,360,3,,10.0,29.949802,1014.1,,,TRUE,,,,,,,FEW,3300,SCT,6500,,,,,VFR,,,,,,,,,,,,METAR,4.0
PAPB 120753Z AUTO 02026G41KT 1 1/4SM -SN BR OVC012 M07/M08 A2947 RMK AO2 PK WND 01043/0706 SLP969 P0000 T10721083 TSNO,PAPB,2015-02-12T07:53:00Z,56.58,-169.67,-7.2,-8.3,20,26,41,1.25,29.471457,996.9,,TRUE,TRUE,,,TRUE,,,-SN BR,OVC,1200,,,,,,,IFR,,,,,,0.0050,,,,,,METAR,35.0
PAOT 120753Z 00000KT 10SM CLR M26/M31 A2992 RMK AO2 SLP132 T12561311,PAOT,2015-02-12T07:53:00Z,66.87,-162.58,-25.6,-31.1,0,0,,10.0,29.920275,1013.2,,,TRUE,,,,,,,CLR,,,,,,,,VFR,,,,,,,,,,,,METAR,3.0
PAOR 120753Z 12004KT 10SM BKN100 BKN130 M19/M23 A2977 RMK AO2 SLP153 T11941233,PAOR,2015-02-12T07:53:00Z,62.97,-141.93,-19.4,-23.3,120,4,,10.0,29.769686,1015.3,,,TRUE,,,,,,,BKN,10000,BKN,13000,,,,,VFR,,,,,,,,,,,,METAR,523.0
PAOM 120753Z 00000KT 10SM CLR M17/M23 A2977 RMK AO2 SLP083 T11721233,PAOM,2015-02-12T07:53:00Z,64.5,-165.43,-17.2,-23.3,0,0,,10.0,29.769686,1008.3,,,TRUE,,,,,,,CLR,,,,,,,,VFR,,,,,,,,,,,,METAR,11.0
PANT 120753Z AUTO 12017G24KT 8SM -RA OVC019 08/07 A2978 RMK AO2 PK WND 11026/0705 SLP085 P0002 T00830067 TSNO,PANT,2015-02-12T07:53:00Z,55.03,-131.57,8.3,6.7,120,17,24,8.0,29.778543,1008.5,,TRUE,TRUE,,,TRUE,,,-RA,OVC,1900,,,,,,,MVFR,,,,,,0.02,,,,,,METAR,36.0
PANN 120753Z AUTO 31006KT 10SM OVC085 M16/M19 A2974 RMK AO2 SLP084 T11611194 TSNO,PANN,2015-02-12T07:53:00Z,64.55,-149.08,-16.1,-19.4,310,6,,10.0,29.740158,1008.4,,TRUE,TRUE,,,TRUE,,,,OVC,8500,,,,,,,VFR,,,,,,,,,,,,METAR,110.0
PANC 120753Z 08004KT 10SM FEW045 BKN075 OVC090 M02/M05 A2963 RMK AO2 SLP034 T10171050,PANC,2015-02-12T07:53:00Z,61.17,-150.02,-1.7,-5.0,80,4,,10.0,29.630905,1003.4,,,TRUE,,,,,,,FEW,4500,BKN,7500,OVC,9000,,,VFR,,,,,,,,,,,,METAR,38.0
PAMR 120753Z 00000KT 10SM FEW050 BKN070 OVC130 M02/M08 A2963 RMK AO2 SLP035 T10221078,PAMR,2015-02-12T07:53:00Z,61.22,-149.85,-2.2,-7.8,0,0,,10.0,29.630905,1003.5,,,TRUE,,,,,,,FEW,5000,BKN,7000,OVC,13000,,,VFR,,,,,,,,,,,,METAR,41.0
PALH 120753Z 00000KT 10SM OVC070 M02/M07 A2964 RMK AO2 SLP038 T10171067,PALH,2015-02-12T07:53:00Z,61.18,-149.97,-1.7,-6.7,0,0,,10.0,29.639763,1003.8,,,TRUE,,,,,,,OVC,7000,,,,,,,VFR,,,,,,,,,,,,METAR,22.0
PAKW 120753Z AUTO VRB03KT 6SM -RA BR BKN028 OVC035 07/06 A2972 RMK AO2 SLP065 P0002 T00670056 TSNO,PAKW,2015-02-12T07:53:00Z,55.58,-133.07,6.7,5.6,0,3,,6.0,29.719488,1006.5,,TRUE,TRUE,,,TRUE,,,-RA BR,BKN,2800,OVC,3500,,,,,MVFR,,,,,,0.02,,,,,,METAR,15.0
PAKV 120753Z AUTO 05008KT 10SM CLR M13/M19 A2978 RMK AO1 SLP091 T11331194 FZRANO TSNO,PAKV,2015-02-12T07:53:00Z,64.33,-158.75,-13.3,-19.4,50,8,,10.0,29.778543,1009.1,,TRUE,TRUE,,,TRUE,TRUE,,,CLR,,,,,,,,VFR,,,,,,,,,,,,METAR,61.0
PAKT 120753Z AUTO 19006KT 4SM -RA BR OVC022 07/06 A2980 RMK AO2 SLP091 P0005 T00720056 TSNO,PAKT,2015-02-12T07:53:00Z,55.35,-131.7,7.2,5.6,190,6,,4.0,29.799213,1009.1,,TRUE,TRUE,,,TRUE,,,-RA BR,OVC,2200,,,,,,,MVFR,,,,,,0.05,,,,,,METAR,28.0
PAIL 120753Z AUTO 05005KT 10SM OVC032 01/M03 A2953 RMK AO2 SLP001 T00111033 TSNO,PAIL,2015-02-12T07:53:00Z,59.75,-154.92,1.1,-3.3,50,5,,10.0,29.530512,1000.1,,TRUE,TRUE,,,TRUE,,,,OVC,3200,,,,,,,VFR,,,,,,,,,,,,METAR,49.0
PAHO 120753Z AUTO 04005KT 10SM BKN060 OVC075 03/M01 A2957 RMK AO2 UPB11E22 SLP015 P0000 T00281011 TSNO,PAHO,2015-02-12T07:53:00Z,59.63,-151.5,2.8,-1.1,40,5,,10.0,29.568897,1001.5,,TRUE,TRUE,,,TRUE,,,,BKN,6000,OVC,7500,,,,,VFR,,,,,,0.0050,,,,,,METAR,28.0
PAGY 120753Z AUTO 02004KT 7SM FEW026 OVC035 M02/M03 A2985 RMK AO2 SLP107 T10171028 TSNO,PAGY,2015-02-12T07:53:00Z,59.47,-135.3,-1.7,-2.8,20,4,,7.0,29.84941,1010.7,,TRUE,TRUE,,,TRUE,,,,FEW,2600,OVC,3500,,,,,VFR,,,,,,,,,,,,METAR,5.0
PAGK 120753Z AUTO 00000KT 10SM BKN020 BKN095 M15/M18 A2977 RMK AO2 SLP138 T11501183 TSNO,PAGK,2015-02-12T07:53:00Z,62.15,-145.45,-15.0,-18.3,0,0,,10.0,29.769686,1013.8,,TRUE,TRUE,,,TRUE,,,,BKN,2000,BKN,9500,,,,,MVFR,,,,,,,,,,,,METAR,481.0
PAFA 120753Z 04005KT 6SM -SN BR OVC055 M12/M15 A2977 RMK AO2 SLP095 T11221150,PAFA,2015-02-12T07:53:00Z,64.8,-147.88,-12.2,-15.0,40,5,,6.0,29.769686,1009.5,,,TRUE,,,,,,-SN BR,OVC,5500,,,,,,,VFR,,,,,,,,,,,,METAR,132.0
PAEN 120753Z AUTO 36004KT 10SM OVC065 M03/M06 A2962 RMK AO2 SLP033 T10281061 TSNO,PAEN,2015-02-12T07:53:00Z,60.57,-151.25,-2.8,-6.1,360,4,,10.0,29.619095,1003.3,,TRUE,TRUE,,,TRUE,,,,OVC,6500,,,,,,,VFR,,,,,,,,,,,,METAR,27.0
PAEG 120753Z AUTO 10008KT 2 1/2SM -SN OVC028 M17/M23 A2986 RMK AO2 SNB32 SLP138 P0000 T11721233 TSNO,PAEG,2015-02-12T07:53:00Z,64.78,-141.15,-17.2,-23.3,100,8,,2.5,29.861221,1013.8,,TRUE,TRUE,,,TRUE,,,-SN,OVC,2800,,,,,,,IFR,,,,,,0.0050,,,,,,METAR,268.0
PADQ 120753Z 00000KT 6SM BR OVC004 03/03 A2952 RMK AO2 RAB21E45 SLP996 P0000 T00280028,PADQ,2015-02-12T07:53:00Z,57.75,-152.5,2.8,2.8,0,0,,6.0,29.518702,999.6,,,TRUE,,,,,,BR,OVC,400,,,,,,,LIFR,,,,,,0.0050,,,,,,METAR,34.0
PADE 120753Z AUTO 24008KT 10SM CLR M19/M30 A2992 RMK AO2 SLP133 T11891300 TSNO,PADE,2015-02-12T07:53:00Z,66.07,-162.77,-18.9,-30.0,240,8,,10.0,29.920275,1013.3,,TRUE,TRUE,,,TRUE,,,,CLR,,,,,,,,VFR,,,,,,,,,,,,METAR,5.0
PACV 120753Z 09003KT 10SM -RA OVC024 01/00 A2972 RMK AO2 UPB32E41RAB41 SLP063 P0001 T00060000 $,PACV,2015-02-12T07:53:00Z,60.5,-145.5,0.6,0.0,90,3,,10.0,29.719488,1006.3,,,TRUE,TRUE,,,,,-RA,OVC,2400,,,,,,,MVFR,,,,,,0.01,,,,,,METAR,12.0
PACD 120753Z AUTO 14009KT 10SM SCT020 OVC027 04/03 A2919 RMK AO2 SLP886 T00390033 TSNO,PACD,2015-02-12T07:53:00Z,55.2,-162.72,3.9,3.3,140,9,,10.0,29.190945,988.6,,TRUE,TRUE,,,TRUE,,,,SCT,2000,OVC,2700,,,,,MVFR,,,,,,,,,,,,METAR,30.0
PABT 120753Z 36005KT 10SM FEW055 SCT065 M21/M23 A2988 RMK AO2 SLP144 T12061233 $,PABT,2015-02-12T07:53:00Z,66.92,-151.52,-20.6,-23.3,360,5,,10.0,29.878937,1014.4,,,TRUE,TRUE,,,,,,FEW,5500,SCT,6500,,,,,VFR,,,,,,,,,,,,METAR,195.0
PABR 120753Z 06011KT 9SM CLR M30/M33 A3032 RMK AO2 SLP270 I1000 T13001333,PABR,2015-02-12T07:53:00Z,71.28,-156.8,-30.0,-33.3,60,11,,9.0,30.318897,1027.0,,,TRUE,,,,,,,CLR,,,,,,,,VFR,,,,,,,,,,,,METAR,7.0
PABI 120753Z AUTO 12016KT 10SM FEW075 BKN110 M14/M21 A2969 RMK AO2 SLP101 T11441206 TSNO,PABI,2015-02-12T07:53:00Z,64.0,-145.73,-14.4,-20.6,120,16,,10.0,29.68996,1010.1,,TRUE,TRUE,,,TRUE,,,,FEW,7500,BKN,11000,,,,,VFR,,,,,,,,,,,,METAR,386.0
PABE 120753Z 02016KT 6SM -SN BLSN OVC021 M14/M16 A2951 RMK AO2 SNB49 SLP995 P0000 T11391161,PABE,2015-02-12T07:53:00Z,60.78,-161.85,-13.9,-16.1,20,16,,6.0,29.509842,999.5,,,TRUE,,,,,,-SN BLSN,OVC,2100,,,,,,,MVFR,,,,,,0.0050,,,,,,METAR,41.0
PAAQ 120753Z AUTO 01008KT 10SM OVC085 M02/M10 A2962 RMK AO2 SLP036 T10171100 TSNO,PAAQ,2015-02-12T07:53:00Z,61.6,-149.08,-1.7,-10.0,10,8,,10.0,29.619095,1003.6,,TRUE,TRUE,,,TRUE,,,,OVC,8500,,,,,,,VFR,,,,,,,,,,,,METAR,73.0
KOQT 120753Z AUTO 00000KT 10SM OVC036 04/M01 A3004 RMK AO2 SLP176 T00441006,KOQT,2015-02-12T07:53:00Z,36.02,-84.23,4.4,-0.6,0,0,,10.0,30.041338,1017.6,,TRUE,TRUE,,,,,,,OVC,3600,,,,,,,VFR,,,,,,,,,,,,METAR,277.0
PHTO 120753Z 20005KT 10SM OVC050 23/17 A2993 RMK AO2 SLP134 T02280167 $,PHTO,2015-02-12T07:53:00Z,19.72,-155.05,22.8,16.7,200,5,,10.0,29.929134,1013.4,,,TRUE,TRUE,,,,,,OVC,5000,,,,,,,VFR,,,,,,,,,,,,METAR,12.0
KCQC 120753Z AUTO 00000KT 1SM BR OVC002 M02/M03 A3040 RMK AO2 SLP302 T10171028,KCQC,2015-02-12T07:53:00Z,35.0,-105.67,-1.7,-2.8,0,0,,1.0,30.398623,1030.2,,TRUE,TRUE,,,,,,BR,OVC,200,,,,,,,LIFR,,,,,,,,,,,,METAR,2160.0
KP68 120753Z AUTO 20006KT M02/M08 A3039 RMK AO1 SLP279 T10171078 401441078,KP68,2015-02-12T07:53:00Z,39.6,-116.0,-1.7,-7.8,200,6,,,30.389763,1027.9,,TRUE,TRUE,,,,,,,,,,,,,,,,,,,14.4,-7.8,,,,,,,METAR,1809.0
PTKK 120753Z 10007KT 15SM FEW014CB BKN120 OVC280 28/25 A2973 RMK CB DSNT SW-W SLP067 T02770251,PTKK,2015-02-12T07:53:00Z,7.47,151.85,27.7,25.1,100,7,,15.0,29.731298,1006.7,,,,,,,,,,FEW,1400,BKN,12000,OVC,28000,,,VFR,,,,,,,,,,,,METAR,2.0
KNUI 120753Z AUTO 16004KT 10SM CLR 00/M03 A2987 RMK AO2 SLP114 T00001033,KNUI,2015-02-12T07:53:00Z,38.15,-76.43,0.0,-3.3,160,4,,10.0,29.870079,1011.4,,TRUE,TRUE,,,,,,,CLR,,,,,,,,VFR,,,,,,,,,,,,METAR,7.0
KTUP 120753Z AUTO 01009KT 10SM CLR 05/00 A3017 RMK AO2 SLP216 T00500000,KTUP,2015-02-12T07:53:00Z,34.27,-88.77,5.0,0.0,10,9,,10.0,30.171259,1021.6,,TRUE,TRUE,,,,,,,CLR,,,,,,,,VFR,,,,,,,,,,,,METAR,105.0
KLAX 120753Z 00000KT 10SM CLR 21/M04 A3008 RMK AO2 SLP181 T02061039 402830128 $,KLAX,2015-02-12T07:53:00Z,33.93,-118.38,20.6,-3.9,0,0,,10.0,30.079725,1018.1,,,TRUE,TRUE,,,,,,CLR,,,,,,,,VFR,,,,28.3,12.8,,,,,,,METAR,46.0
KMWT 120753Z AUTO 32004KT 10SM CLR 06/M01 A3030 RMK AO2 SLP262 T00561011,KMWT,2015-02-12T07:53:00Z,34.55,-93.58,5.6,-1.1,320,4,,10.0,30.301182,1026.2,,TRUE,TRUE,,,,,,,CLR,,,,,,,,VFR,,,,,,,,,,,,METAR,214.0
PTYA 120753Z 05009KT 12SM FEW016 BKN300 28/22 A2979 RMK SLP090 T02840221,PTYA,2015-02-12T07:53:00Z,9.48,138.08,28.4,22.1,50,9,,12.0,29.790354,1009.0,,,,,,,,,,FEW,1600,BKN,30000,,,,,VFR,,,,,,,,,,,,METAR,17.0
KLOR 120753Z AUTO 00000KT 10SM CLR 03/01 A3005 RMK AO2 SLP175 T00280011,KLOR,2015-02-12T07:53:00Z,31.35,-85.75,2.8,1.1,0,0,,10.0,30.050198,1017.5,,TRUE,TRUE,,,,,,,CLR,,,,,,,,VFR,,,,,,,,,,,,METAR,74.0
KHEY 120753Z AUTO 00000KT 10SM CLR 03/02 A3005 RMK AO2 SLP165 T00280017,KHEY,2015-02-12T07:53:00Z,31.35,-85.65,2.8,1.7,0,0,,10.0,30.050198,1016.5,,TRUE,TRUE,,,,,,,CLR,,,,,,,,VFR,,,,,,,,,,,,METAR,97.0
KNIP 120753Z 26007KT 10SM CLR 09/06 A3004 RMK AO2 SLP167 T00940056,KNIP,2015-02-12T07:53:00Z,30.22,-81.67,9.4,5.6,260,7,,10.0,30.041338,1016.7,,,TRUE,,,,,,,CLR,,,,,,,,VFR,,,,,,,,,,,,METAR,7.0
KP92 120753Z AUTO 00000KT 12/12 A3012 RMK AO1 SLP200 T01220122,KP92,2015-02-12T07:53:00Z,29.57,-91.53,12.2,12.2,0,0,,,30.121063,1020.0,,TRUE,TRUE,,,,,,,,,,,,,,,,,,,,,,,,,,,METAR,1.0
KCTY 120753Z AUTO 00000KT 03/02 A3004 RMK AO1 SLP172 T00330017,KCTY,2015-02-12T07:53:00Z,29.63,-83.1,3.3,1.7,0,0,,,30.041338,1017.2,,TRUE,TRUE,,,,,,,,,,,,,,,,,,,,,,,,,,,METAR,13.0
KNQX 120753Z AUTO 01005KT 10SM CLR 17/13 A3003 RMK AO2 SLP169 T01670128 $,KNQX,2015-02-12T07:53:00Z,24.57,-81.67,16.7,12.8,10,5,,10.0,30.029528,1016.9,,TRUE,TRUE,TRUE,,,,,,CLR,,,,,,,,VFR,,,,,,,,,,,,METAR,2.0
K6R6 120753Z AUTO 01010KT 11/03 A3031 RMK AO1 SLP240 T01110033 $,K6R6,2015-02-12T07:53:00Z,30.05,-102.22,11.1,3.3,10,10,,,30.31004,1024.0,,TRUE,TRUE,TRUE,,,,,,,,,,,,,,,,,,,,,,,,,,METAR,701.0
KTWF 120753Z AUTO 36004KT 10SM CLR 06/M01 A3033 RMK AO2 SLP255 T00561011,KTWF,2015-02-12T07:53:00Z,42.48,-114.48,5.6,-1.1,360,4,,10.0,30.33071,1025.5,,TRUE,TRUE,,,,,,,CLR,,,,,,,,VFR,,,,,,,,,,,,METAR,1266.0
KGFK 120753Z 32007KT 10SM CLR M26/M28 A3073 RMK AO2 SLP436 T12561283 $,KGFK,2015-02-12T07:53:00Z,47.95,-97.18,-25.6,-28.3,320,7,,10.0,30.72933,1043.6,,,TRUE,TRUE,,,,,,CLR,,,,,,,,VFR,,,,,,,,,,,,METAR,258.0
KGAG 120753Z AUTO 24007KT 10SM CLR M05/M07 A3042 RMK AO2 SLP317 T10501072,KGAG,2015-02-12T07:53:00Z,36.3,-99.77,-5.0,-7.2,240,7,,10.0,30.41929,1031.7,,TRUE,TRUE,,,,,,,CLR,,,,,,,,VFR,,,,,,,,,,,,METAR,668.0
KDLN 120753Z AUTO 21018KT 10SM OVC100 05/M03 A3027 RMK AO2 SLP244 T00501028,KDLN,2015-02-12T07:53:00Z,45.25,-112.55,5.0,-2.8,210,18,,10.0,30.268702,1024.4,,TRUE,TRUE,,,,,,,OVC,10000,,,,,,,VFR,,,,,,,,,,,,METAR,1591.0
KCGI 120753Z AUTO 32010KT 10SM CLR M01/M06 A3025 RMK AO2 SLP243 T10111061 TSNO,KCGI,2015-02-12T07:53:00Z,37.23,-89.58,-1.1,-6.1,320,10,,10.0,30.250984,1024.3,,TRUE,TRUE,,,TRUE,,,,CLR,,,,,,,,VFR,,,,,,,,,,,,METAR,102.0
KBAF 120753Z 00000KT 10SM OVC019 M12/M16 A2986 RMK AO2 SLP120 T11221156,KBAF,2015-02-12T07:53:00Z,42.17,-72.72,-12.2,-15.6,0,0,,10.0,29.861221,1012.0,,,TRUE,,,,,,,OVC,1900,,,,,,,MVFR,,,,,,,,,,,,METAR,83.0
KADC 120753Z AUTO 01005KT 10SM CLR M24/M27 A3058 RMK AO2,KADC,2015-02-12T07:53:00Z,46.45,-95.22,-24.0,-27.0,10,5,,10.0,30.578741,,,TRUE,TRUE,,,,,,,CLR,,,,,,,,VFR,,,,,,,,,,,,METAR,418.0
KRHI 120753Z AUTO 36007KT 5SM -SN FEW023 OVC031 M17/M20 A3024 RMK AO2 SNB06 SLP277 P0000 T11671200,KRHI,2015-02-12T07:53:00Z,45.63,-89.48,-16.7,-20.0,360,7,,5.0,30.239174,1027.7,,TRUE,TRUE,,,,,,-SN,FEW,2300,OVC,3100,,,,,MVFR,,,,,,0.0050,,,,,,METAR,485.0
KPUC 120753Z AUTO 06003KT 10SM CLR M01/M08 A3040 RMK AO2 SLP301 T10061083,KPUC,2015-02-12T07:53:00Z,39.62,-110.75,-0.6,-8.3,60,3,,10.0,30.398623,1030.1,,TRUE,TRUE,,,,,,,CLR,,,,,,,,VFR,,,,,,,,,,,,METAR,2091.0
KLXT 120753Z AUTO 33014G25KT 10SM OVC037 M01/M08 A3040 RMK AO2 SLP303 T10111083,KLXT,2015-02-12T07:53:00Z,38.97,-94.37,-1.1,-8.3,330,14,25,10.0,30.398623,1030.3,,TRUE,TRUE,,,,,,,OVC,3700,,,,,,,VFR,,,,,,,,,,,,METAR,306.0
KHIB 120753Z AUTO 34008KT 10SM FEW017 M21/M26 A3051 RMK AO2 SLP373 T12111256,KHIB,2015-02-12T07:53:00Z,47.38,-92.83,-21.1,-25.6,340,8,,10.0,30.510826,1037.3,,TRUE,TRUE,,,,,,,FEW,1700,,,,,,,VFR,,,,,,,,,,,,METAR,412.0
KRCA 120753Z 14012KT 10SM OVC004 M09/M10 A3042 RMK AO2A SLP349 $,KRCA,2015-02-12T07:53:00Z,44.13,-103.08,-9.0,-10.0,140,12,,10.0,30.41929,1034.9,,,TRUE,TRUE,,,,,,OVC,400,,,,,,,LIFR,,,,,,,,,,,,METAR,999.0
YAYE 120753Z AUTO 10015KT 9999 // NCD 41/M02 Q1011,YAYE,2015-02-12T07:53:00Z,-25.18,130.98,41.0,-2.0,100,15,,6.21,29.852362,,,TRUE,,,,,,,,,,,,,,,,,,,,,,,,,,,,METAR,496.0
KAIA 120753Z AUTO 11007KT 10SM OVC011 M03/M05 A3038 RMK AO2 SLP305 T10281050,KAIA,2015-02-12T07:53:00Z,42.05,-102.8,-2.8,-5.0,110,7,,10.0,30.380905,1030.5,,TRUE,TRUE,,,,,,,OVC,1100,,,,,,,MVFR,,,,,,,,,,,,METAR,1196.0
KAGS 120753Z AUTO 00000KT 1 1/4SM BR CLR 00/00 A2995 RMK AO2 VIS 1/2V3 SLP140 T00000000,KAGS,2015-02-12T07:53:00Z,33.37,-81.97,0.0,0.0,0,0,,1.25,29.949802,1014.0,,TRUE,TRUE,,,,,,BR,CLR,,,,,,,,IFR,,,,,,,,,,,,METAR,44.0
KAGC 120753Z 29008G16KT 3/4SM R28/5000VP6000FT -SN BR BKN006 BKN010 OVC028 M01/M03 A2983 RMK AO2 UPB38E42FZRAB00E26SNB26E38B42 SLP116 P0003 I1002 T10111033,KAGC,2015-02-12T07:53:00Z,40.35,-79.92,-1.1,-3.3,290,8,16,0.75,29.828741,1011.6,,,TRUE,,,,,,-SN BR,BKN,600,BKN,1000,OVC,2800,,,LIFR,,,,,,0.03,,,,,,METAR,389.0
KAFW 120753Z 35011KT 10SM CLR 05/M02 A3035 RMK AO2 SLP279 T00501017,KAFW,2015-02-12T07:53:00Z,32.97,-97.32,5.0,-1.7,350,11,,10.0,30.351377,1027.9,,,TRUE,,,,,,,CLR,,,,,,,,VFR,,,,,,,,,,,,METAR,233.0
KAEX 120753Z 00000KT 9SM CLR 09/05 A3016 RMK AO2 SLP218 T00940050,KAEX,2015-02-12T07:53:00Z,31.33,-92.57,9.4,5.0,0,0,,9.0,30.159449,1021.8,,,TRUE,,,,,,,CLR,,,,,,,,VFR,,,,,,,,,,,,METAR,27.0
KADG 120753Z AUTO 31007KT 10SM FEW024 SCT029 OVC060 M04/M07 A2994 RMK AO2 SNE25 SLP152 P0000 T10391067 TSNO,KADG,2015-02-12T07:53:00Z,41.87,-84.08,-3.9,-6.7,310,7,,10.0,29.940945,1015.2,,TRUE,TRUE,,,TRUE,,,,FEW,2400,SCT,2900,OVC,6000,,,VFR,,,,,,0.0050,,,,,,METAR,241.0
KACV 120753Z AUTO 06003KT 7SM CLR 06/06 A3022 RMK AO2 SLP239 T00610061 401330039,KACV,2015-02-12T07:53:00Z,40.98,-124.1,6.1,6.1,60,3,,7.0,30.221457,1023.9,,TRUE,TRUE,,,,,,,CLR,,,,,,,,VFR,,,,13.3,3.9,,,,,,,METAR,67.0
KAKO 120753Z AUTO 23012KT 10SM CLR 01/M05 A3034 RMK AO2 SLP284 T00111050,KAKO,2015-02-12T07:53:00Z,40.17,-103.22,1.1,-5.0,230,12,,10.0,30.339567,1028.4,,TRUE,TRUE,,,,,,,CLR,,,,,,,,VFR,,,,,,,,,,,,METAR,1421.0
KAMW 120753Z AUTO 33016G29KT 10SM BKN018 BKN023 M16/M19 A3050 RMK AO2 PK WND 34032/0654 SLP345 T11561194,KAMW,2015-02-12T07:53:00Z,41.98,-93.62,-15.6,-19.4,330,16,29,10.0,30.499016,1034.5,,TRUE,TRUE,,,,,,,BKN,1800,BKN,2300,,,,,MVFR,,,,,,,,,,,,METAR,279.0
KAMG 120753Z AUTO 24005KT 9SM CLR 08/06 A3000 RMK AO2 SLP159 T00780061,KAMG,2015-02-12T07:53:00Z,31.53,-82.5,7.8,6.1,240,5,,9.0,30.0,1015.9,,TRUE,TRUE,,,,,,,CLR,,,,,,,,VFR,,,,,,,,,,,,METAR,59.0
KANB 120753Z AUTO 24003KT 10SM CLR 01/M01 A3006 RMK AO2 SLP185 T00061011,KANB,2015-02-12T07:53:00Z,33.58,-85.85,0.6,-1.1,240,3,,10.0,30.059055,1018.5,,TRUE,TRUE,,,,,,,CLR,,,,,,,,VFR,,,,,,,,,,,,METAR,183.0
KAOH 120753Z AUTO 28016G24KT 2SM -SN SCT009 BKN015 OVC025 M02/M05 A2995 RMK AO2 VIS 1 1/2V3 SNB06 SLP151 P0000 T10221050,KAOH,2015-02-12T07:53:00Z,40.7,-84.02,-2.2,-5.0,280,16,24,2.0,29.949802,1015.1,,TRUE,TRUE,,,,,,-SN,SCT,900,BKN,1500,OVC,2500,,,IFR,,,,,,0.0050,,,,,,METAR,296.0
KCEZ 120753Z AUTO 07005KT 10SM CLR M04/M06 A3043 RMK AO2 SLP296 T10441056,KCEZ,2015-02-12T07:53:00Z,37.3,-108.63,-4.4,-5.6,70,5,,10.0,30.431103,1029.6,,TRUE,TRUE,,,,,,,CLR,,,,,,,,VFR,,,,,,,,,,,,METAR,1797.0
KCEW 120753Z AUTO 00000KT 6SM BR CLR 03/02 A3009 RMK AO2 SLP188 T00330022,KCEW,2015-02-12T07:53:00Z,30.78,-86.52,3.3,2.2,0,0,,6.0,30.088583,1018.8,,TRUE,TRUE,,,,,,BR,CLR,,,,,,,,VFR,,,,,,,,,,,,METAR,55.0
KCDS 120753Z AUTO 35007KT 10SM OVC095 05/00 A3043 RMK AO2 SLP304 T00500000,KCDS,2015-02-12T07:53:00Z,34.43,-100.28,5.0,0.0,350,7,,10.0,30.431103,1030.4,,TRUE,TRUE,,,,,,,OVC,9500,,,,,,,VFR,,,,,,,,,,,,METAR,594.0
KCDC 120753Z AUTO 21004KT 10SM CLR M03/M07 A3040 RMK AO2 SLP290 T10331067,KCDC,2015-02-12T07:53:00Z,37.7,-113.1,-3.3,-6.7,210,4,,10.0,30.398623,1029.0,,TRUE,TRUE,,,,,,,CLR,,,,,,,,VFR,,,,,,,,,,,,METAR,1714.0
KCCR 120753Z 00000KT 10SM CLR 10/08 A3021 RMK AO2 SLP215 T01000083 402000056,KCCR,2015-02-12T07:53:00Z,38.0,-122.05,10.0,8.3,0,0,,10.0,30.209646,1021.5,,,TRUE,,,,,,,CLR,,,,,,,,VFR,,,,20.0,5.6,,,,,,,METAR,11.0
KCAG 120753Z AUTO 00000KT 10SM CLR M05/M07 A3042 RMK AO2 SLP321 T10501072 $,KCAG,2015-02-12T07:53:00Z,40.5,-107.52,-5.0,-7.2,0,0,,10.0,30.41929,1032.1,,TRUE,TRUE,TRUE,,,,,,CLR,,,,,,,,VFR,,,,,,,,,,,,METAR,1887.0
KBYI 120753Z AUTO 00000KT 10SM CLR 00/M02 A3033 RMK AO2 SLP274 T00001022,KBYI,2015-02-12T07:53:00Z,42.55,-113.77,0.0,-2.2,0,0,,10.0,30.33071,1027.4,,TRUE,TRUE,,,,,,,CLR,,,,,,,,VFR,,,,,,,,,,,,METAR,1264.0
KBYG 120753Z AUTO 16009KT 10SM CLR 01/M01 A3020 RMK AO2 SLP228 T00111011,KBYG,2015-02-12T07:53:00Z,44.38,-106.72,1.1,-1.1,160,9,,10.0,30.200787,1022.8,,TRUE,TRUE,,,,,,,CLR,,,,,,,,VFR,,,,,,,,,,,,METAR,1497.0
KBWG 120753Z AUTO 31005G15KT 10SM OVC027 01/M06 A3015 RMK AO2 SLP212 T00061061 $,KBWG,2015-02-12T07:53:00Z,36.97,-86.42,0.6,-6.1,310,5,15,10.0,30.15059,1021.2,,TRUE,TRUE,TRUE,,,,,,OVC,2700,,,,,,,MVFR,,,,,,,,,,,,METAR,168.0
KBVO 120753Z AUTO 00000KT 10SM CLR M06/M08 A3047 RMK AO2 SLP318 T10561083,KBVO,2015-02-12T07:53:00Z,36.77,-96.02,-5.6,-8.3,0,0,,10.0,30.469488,1031.8,,TRUE,TRUE,,,,,,,CLR,,,,,,,,VFR,,,,,,,,,,,,METAR,210.0
KBUR 120753Z 29004KT 10SM CLR 16/M03 A3009 RMK AO2 SLP178 T01611033 402890106,KBUR,2015-02-12T07:53:00Z,34.2,-118.37,16.1,-3.3,290,4,,10.0,30.088583,1017.8,,,TRUE,,,,,,,CLR,,,,,,,,VFR,,,,28.9,10.6,,,,,,,METAR,217.0
KBTR 120753Z AUTO 02004KT 10SM CLR 11/04 A3014 RMK AO2 SLP206 T01110044 TSNO,KBTR,2015-02-12T07:53:00Z,30.53,-91.15,11.1,4.4,20,4,,10.0,30.138779,1020.6,,TRUE,TRUE,,,TRUE,,,,CLR,,,,,,,,VFR,,,,,,,,,,,,METAR,21.0
KBTM 120753Z AUTO 29003KT 10SM BKN100 02/M03 A3027 RMK AO2 SLP251 T00221033,KBTM,2015-02-12T07:53:00Z,45.97,-112.5,2.2,-3.3,290,3,,10.0,30.268702,1025.1,,TRUE,TRUE,,,,,,,BKN,10000,,,,,,,VFR,,,,,,,,,,,,METAR,1688.0
KAWM 120753Z AUTO 35005KT 10SM BKN030 02/M02 A3027 RMK AO2 SLP252 T00221022,KAWM,2015-02-12T07:53:00Z,35.13,-90.23,2.2,-2.2,350,5,,10.0,30.268702,1025.2,,TRUE,TRUE,,,,,,,BKN,3000,,,,,,,MVFR,,,,,,,,,,,,METAR,65.0
KAUS 120753Z 01018G23KT 10SM OVC035 13/05 A3026 RMK AO2 SLP241 T01330050,KAUS,2015-02-12T07:53:00Z,30.18,-97.68,13.3,5.0,10,18,23,10.0,30.259842,1024.1,,,TRUE,,,,,,,OVC,3500,,,,,,,VFR,,,,,,,,,,,,METAR,166.0
KATY 120753Z AUTO 36010KT 10SM CLR M20/M23 A3060 RMK AO2 SLP408 T12001233,KATY,2015-02-12T07:53:00Z,44.9,-97.15,-20.0,-23.3,360,10,,10.0,30.59941,1040.8,,TRUE,TRUE,,,,,,,CLR,,,,,,,,VFR,,,,,,,,,,,,METAR,532.0
KASX 120753Z AUTO 34014G21KT 3SM HZ OVC029 M16/M19 A3046 RMK AO2 SNB06E15 SLP338 P0000 T11561189 $,KASX,2015-02-12T07:53:00Z,46.55,-90.92,-15.6,-18.9,340,14,21,3.0,30.46063,1033.8,,TRUE,TRUE,TRUE,,,,,HZ,OVC,2900,,,,,,,MVFR,,,,,,0.0050,,,,,,METAR,251.0
KASE 120753Z 20008KT 10SM CLR M04/M11 A3043 RMK AO2 SLP279 T10391106,KASE,2015-02-12T07:53:00Z,39.23,-106.87,-3.9,-10.6,200,8,,10.0,30.431103,1027.9,,,TRUE,,,,,,,CLR,,,,,,,,VFR,,,,,,,,,,,,METAR,2354.0
KASD 120753Z AUTO 02003KT 10SM CLR 06/04 A3012 RMK AO2 SLP201 T00610039,KASD,2015-02-12T07:53:00Z,30.35,-89.82,6.1,3.9,20,3,,10.0,30.121063,1020.1,,TRUE,TRUE,,,,,,,CLR,,,,,,,,VFR,,,,,,,,,,,,METAR,9.0
KARB 120753Z AUTO 34006KT 10SM OVC065 M05/M11 A2993 RMK AO2 SNE24 SLP146 P0000 T10501111,KARB,2015-02-12T07:53:00Z,42.22,-83.73,-5.0,-11.1,340,6,,10.0,29.929134,1014.6,,TRUE,TRUE,,,,,,,OVC,6500,,,,,,,VFR,,,,,,0.0050,,,,,,METAR,251.0
KARA 120753Z AUTO 00000KT 2 1/2SM BR CLR 10/08 A3015 RMK AO2 SLP210 T01000083,KARA,2015-02-12T07:53:00Z,30.03,-91.88,10.0,8.3,0,0,,2.5,30.15059,1021.0,,TRUE,TRUE,,,,,,BR,CLR,,,,,,,,IFR,,,,,,,,,,,,METAR,18.0
KAPF 120753Z AUTO 04003KT 10SM CLR 11/09 A3003 RMK AO2 SLP168 T01110094,KAPF,2015-02-12T07:53:00Z,26.15,-81.77,11.1,9.4,40,3,,10.0,30.029528,1016.8,,TRUE,TRUE,,,,,,,CLR,,,,,,,,VFR,,,,,,,,,,,,METAR,3.0
KAPA 120753Z 19007KT 10SM CLR 01/M03 A3034 RMK AO2 SLP289 T00061028,KAPA,2015-02-12T07:53:00Z,39.57,-104.85,0.6,-2.8,190,7,,10.0,30.339567,1028.9,,,TRUE,,,,,,,CLR,,,,,,,,VFR,,,,,,,,,,,,METAR,1775.0
KAOO 120753Z AUTO 26010KT 10SM OVC018 01/M03 A2978 RMK AO2 SLP098 T00061028,KAOO,2015-02-12T07:53:00Z,40.3,-78.32,0.6,-2.8,260,10,,10.0,29.778543,1009.8,,TRUE,TRUE,,,,,,,OVC,1800,,,,,,,MVFR,,,,,,,,,,,,METAR,455.0
KCHA 120753Z AUTO 34006KT 10SM CLR 03/M01 A3006 RMK AO2 SLP180 T00281011,KCHA,2015-02-12T07:53:00Z,35.03,-85.2,2.8,-1.1,340,6,,10.0,30.059055,1018.0,,TRUE,TRUE,,,,,,,CLR,,,,,,,,VFR,,,,,,,,,,,,METAR,210.0
KCHO 120753Z AUTO 00000KT 10SM OVC050 00/M03 A2983 RMK AO2 SLP102 T00001033,KCHO,2015-02-12T07:53:00Z,38.13,-78.45,0.0,-3.3,0,0,,10.0,29.828741,1010.2,,TRUE,TRUE,,,,,,,OVC,5000,,,,,,,VFR,,,,,,,,,,,,METAR,192.0
KCKB 120753Z AUTO 24009KT 6SM BR OVC008 00/M01 A2988 RMK AO2 UPE0659 CIG 006V011 SLP123 P0000 I1000 T00001011 TSNO,KCKB,2015-02-12T07:53:00Z,39.3,-80.22,0.0,-1.1,240,9,,6.0,29.878937,1012.3,,TRUE,TRUE,,,TRUE,,,BR,OVC,800,,,,,,,IFR,,,,,,0.0050,,,,,,METAR,360.0
KCLM 120753Z AUTO 00000KT 10SM OVC095 08/07 A3020 RMK AO2 SLP229 T00830067 401000067 $,KCLM,2015-02-12T07:53:00Z,48.12,-123.5,8.3,6.7,0,0,,10.0,30.200787,1022.9,,TRUE,TRUE,TRUE,,,,,,OVC,9500,,,,,,,VFR,,,,10.0,6.7,,,,,,,METAR,85.0
KCLL 120753Z 36015KT 10SM BKN055 13/06 A3024 RMK AO2 SLP237 T01280056,KCLL,2015-02-12T07:53:00Z,30.58,-96.37,12.8,5.6,360,15,,10.0,30.239174,1023.7,,,TRUE,,,,,,,BKN,5500,,,,,,,VFR,,,,,,,,,,,,METAR,96.0
KCMI 120753Z AUTO 32021G27KT 9SM -SN OVC023 M07/M12 A3017 RMK AO2 PK WND 31033/0740 SNB36 SLP228 P0000 T10721117,KCMI,2015-02-12T07:53:00Z,40.03,-88.27,-7.2,-11.7,320,21,27,9.0,30.171259,1022.8,,TRUE,TRUE,,,,,,-SN,OVC,2300,,,,,,,MVFR,,,,,,0.0050,,,,,,METAR,228.0
KCMX 120753Z AUTO 36016G26KT 3/4SM HZ BKN024 OVC031 M17/M20 A3031 RMK AO2 PK WND 36026/0659 SLP292 T11671200 PWINO FZRANO $,KCMX,2015-02-12T07:53:00Z,47.17,-88.48,-16.7,-20.0,360,16,26,0.75,30.31004,1029.2,,TRUE,TRUE,TRUE,,,TRUE,TRUE,HZ,BKN,2400,OVC,3100,,,,,LIFR,,,,,,,,,,,,METAR,326.0
KCNM 120753Z AUTO 34014KT 10SM OVC046 05/03 A3043 RMK AO2 SLP291 T00500028,KCNM,2015-02-12T07:53:00Z,32.33,-104.25,5.0,2.8,340,14,,10.0,30.431103,1029.1,,TRUE,TRUE,,,,,,,OVC,4600,,,,,,,VFR,,,,,,,,,,,,METAR,985.0
KCNY 120753Z AUTO 00000KT 10SM CLR 01/M05 A3038 RMK AO2 SLP282 T00061050,KCNY,2015-02-12T07:53:00Z,38.77,-109.75,0.6,-5.0,0,0,,10.0,30.380905,1028.2,,TRUE,TRUE,,,,,,,CLR,,,,,,,,VFR,,,,,,,,,,,,METAR,1390.0
KCNO 120753Z 08011G18KT 10SM CLR 23/M08 A3010 RMK AO2 SLP186 T02331078 402890072,KCNO,2015-02-12T07:53:00Z,33.98,-117.62,23.3,-7.8,80,11,18,10.0,30.100393,1018.6,,,TRUE,,,,,,,CLR,,,,,,,,VFR,,,,28.9,7.2,,,,,,,METAR,207.0
KCOT 120753Z AUTO 10007KT 10SM CLR 17/14 A3017 RMK AO2 SLP211 T01670144,KCOT,2015-02-12T07:53:00Z,28.45,-99.22,16.7,14.4,100,7,,10.0,30.171259,1021.1,,TRUE,TRUE,,,,,,,CLR,,,,,,,,VFR,,,,,,,,,,,,METAR,140.0
KCPR 120753Z AUTO 04003KT 10SM CLR M03/M05 A3025 RMK AO2 SLP249 T10281050,KCPR,2015-02-12T07:53:00Z,42.9,-106.47,-2.8,-5.0,40,3,,10.0,30.250984,1024.9,,TRUE,TRUE,,,,,,,CLR,,,,,,,,VFR,,,,,,,,,,,,METAR,1621.0
KCPS 120753Z AUTO 31013KT 10SM BKN031 M02/M07 A3026 RMK AO2 SLP249 T10171072 TSNO,KCPS,2015-02-12T07:53:00Z,38.57,-90.15,-1.7,-7.2,310,13,,10.0,30.259842,1024.9,,TRUE,TRUE,,,TRUE,,,,BKN,3100,,,,,,,VFR,,,,,,,,,,,,METAR,126.0
KAMA 120753Z AUTO 32004KT 10SM CLR M02/M04 A3044 RMK AO2 SLP316 T10171039,KAMA,2015-02-12T07:53:00Z,35.22,-101.72,-1.7,-3.9,320,4,,10.0,30.43996,1031.6,,TRUE,TRUE,,,,,,,CLR,,,,,,,,VFR,,,,,,,,,,,,METAR,1093.0
KALW 120753Z AUTO 16003KT 7SM CLR 08/06 A3027 RMK AO2 SLP254 T00830061 401220039,KALW,2015-02-12T07:53:00Z,46.1,-118.28,8.3,6.1,160,3,,7.0,30.268702,1025.4,,TRUE,TRUE,,,,,,,CLR,,,,,,,,VFR,,,,12.2,3.9,,,,,,,METAR,363.0
KALI 120753Z AUTO 03007KT 1/4SM FG VV002 15/14 A3015 RMK AO2 SLP207 T01500144,KALI,2015-02-12T07:53:00Z,27.73,-98.02,15.0,14.4,30,7,,0.25,30.15059,1020.7,,TRUE,TRUE,,,,,,FG,OVX,0,,,,,,,LIFR,,,,,,,,,,,200,METAR,53.0
KCRE 120753Z AUTO 21006KT 10SM CLR 07/04 A2995 RMK AO1 SLP142 T00670044,KCRE,2015-02-12T07:53:00Z,33.82,-78.72,6.7,4.4,210,6,,10.0,29.949802,1014.2,,TRUE,TRUE,,,,,,,CLR,,,,,,,,VFR,,,,,,,,,,,,METAR,10.0
KCRG 120753Z AUTO 00000KT 9SM CLR 07/05 A3003 RMK AO2 SLP168 T00670050,KCRG,2015-02-12T07:53:00Z,30.33,-81.52,6.7,5.0,0,0,,9.0,30.029528,1016.8,,TRUE,TRUE,,,,,,,CLR,,,,,,,,VFR,,,,,,,,,,,,METAR,13.0
KAXN 120753Z AUTO 35007KT 10SM CLR M22/M26 A3058 RMK AO2 SLP400 T12221256,KAXN,2015-02-12T07:53:00Z,45.87,-95.4,-22.2,-25.6,350,7,,10.0,30.578741,1040.0,,TRUE,TRUE,,,,,,,CLR,,,,,,,,VFR,,,,,,,,,,,,METAR,433.0
KCRQ 120753Z AUTO 36003KT 10SM CLR 18/M06 A3003 RMK AO2 SLP167 T01781056 402830122,KCRQ,2015-02-12T07:53:00Z,33.13,-117.28,17.8,-5.6,360,3,,10.0,30.029528,1016.7,,TRUE,TRUE,,,,,,,CLR,,,,,,,,VFR,,,,28.3,12.2,,,,,,,METAR,99.0
KBEH 120753Z AUTO 33009G22KT 300V360 8SM -SN FEW027 BKN032 OVC041 M06/M11 A3006 RMK AO2 SLP188 P0000 T10611111,KBEH,2015-02-12T07:53:00Z,42.13,-86.42,-6.1,-11.1,330,9,22,8.0,30.059055,1018.8,,TRUE,TRUE,,,,,,-SN,FEW,2700,BKN,3200,OVC,4100,,,VFR,,,,,,0.0050,,,,,,METAR,191.0
KBDE 120753Z AUTO 32008KT 10SM CLR M25/M28 A3060 RMK AO2 SLP401 T12501278 TSNO,KBDE,2015-02-12T07:53:00Z,48.73,-94.62,-25.0,-27.8,320,8,,10.0,30.59941,1040.1,,TRUE,TRUE,,,TRUE,,,,CLR,,,,,,,,VFR,,,,,,,,,,,,METAR,329.0
KBCE 120753Z AUTO 28007KT 10SM CLR M05/M08 A3045 RMK AO2 SLP279 T10501078,KBCE,2015-02-12T07:53:00Z,37.7,-112.15,-5.0,-7.8,280,7,,10.0,30.448818,1027.9,,TRUE,TRUE,,,,,,,CLR,,,,,,,,VFR,,,,,,,,,,,,METAR,2312.0
KBBW 120753Z AUTO 04011KT 10SM OVC014 M07/M11 A3051 RMK AO2 SLP362 T10671106,KBBW,2015-02-12T07:53:00Z,41.43,-99.63,-6.7,-10.6,40,11,,10.0,30.510826,1036.2,,TRUE,TRUE,,,,,,,OVC,1400,,,,,,,MVFR,,,,,,,,,,,,METAR,776.0
KAZO 120753Z AUTO 33016KT 10SM OVC045 M07/M12 A3001 RMK AO2 SNE15 SLP175 P0000 T10671117,KAZO,2015-02-12T07:53:00Z,42.23,-85.55,-6.7,-11.7,330,16,,10.0,30.008858,1017.5,,TRUE,TRUE,,,,,,,OVC,4500,,,,,,,VFR,,,,,,0.0050,,,,,,METAR,272.0
KBFD 120753Z AUTO 29014G21KT 1 1/4SM -SN SCT006 BKN010 OVC022 M03/M06 A2969 RMK AO2 SLP075 P0002 T10281056 $,KBFD,2015-02-12T07:53:00Z,41.8,-78.63,-2.8,-5.6,290,14,21,1.25,29.68996,1007.5,,TRUE,TRUE,TRUE,,,,,-SN,SCT,600,BKN,1000,OVC,2200,,,IFR,,,,,,0.02,,,,,,METAR,647.0
KBFF 120753Z AUTO 10008KT 10SM CLR M03/M04 A3037 RMK AO2 SLP298 T10281044,KBFF,2015-02-12T07:53:00Z,41.87,-103.58,-2.8,-4.4,100,8,,10.0,30.369095,1029.8,,TRUE,TRUE,,,,,,,CLR,,,,,,,,VFR,,,,,,,,,,,,METAR,1203.0
KBFI 120753Z 00000KT 10SM FEW075 OVC100 12/09 A3022 RMK AO2 SLP234 T01170089 401390067,KBFI,2015-02-12T07:53:00Z,47.55,-122.32,11.7,8.9,0,0,,10.0,30.221457,1023.4,,,TRUE,,,,,,,FEW,7500,OVC,10000,,,,,VFR,,,,13.9,6.7,,,,,,,METAR,4.0
KBFM 120753Z AUTO 31003KT 9SM CLR 07/06 A3011 RMK AO2 SLP196 T00670056,KBFM,2015-02-12T07:53:00Z,30.62,-88.07,6.7,5.6,310,3,,9.0,30.109253,1019.6,,TRUE,TRUE,,,,,,,CLR,,,,,,,,VFR,,,,,,,,,,,,METAR,20.0
KBGM 120753Z AUTO 21005KT 10SM OVC020 M03/M05 A2969 RMK AO2 SLP073 T10281050,KBGM,2015-02-12T07:53:00Z,42.22,-75.98,-2.8,-5.0,210,5,,10.0,29.68996,1007.3,,TRUE,TRUE,,,,,,,OVC,2000,,,,,,,MVFR,,,,,,,,,,,,METAR,490.0
KBHM 120753Z 00000KT 10SM CLR 03/00 A3010 RMK AO2 SLP191 T00280000,KBHM,2015-02-12T07:53:00Z,33.57,-86.75,2.8,0.0,0,0,,10.0,30.100393,1019.1,,,TRUE,,,,,,,CLR,,,,,,,,VFR,,,,,,,,,,,,METAR,197.0
KBIL 120753Z 00000KT 10SM OVC005 M04/M06 A3024 RMK AO2 SLP279 T10391061,KBIL,2015-02-12T07:53:00Z,45.8,-108.55,-3.9,-6.1,0,0,,10.0,30.239174,1027.9,,,TRUE,,,,,,,OVC,500,,,,,,,IFR,,,,,,,,,,,,METAR,1091.0
KBIV 120753Z AUTO 01010G16KT 10SM FEW026 BKN033 OVC043 M06/M12 A3006 RMK AO2 SNB03E13B33E43 SLP188 P0000 T10611117,KBIV,2015-02-12T07:53:00Z,42.75,-86.1,-6.1,-11.7,10,10,16,10.0,30.059055,1018.8,,TRUE,TRUE,,,,,,,FEW,2600,BKN,3300,OVC,4300,,,VFR,,,,,,0.0050,,,,,,METAR,208.0
KBKE 120753Z AUTO 00000KT 10SM CLR 01/01 A3034 RMK AO2 SLP289 T00110006 400941033 TSNO,KBKE,2015-02-12T07:53:00Z,44.85,-117.82,1.1,0.6,0,0,,10.0,30.339567,1028.9,,TRUE,TRUE,,,TRUE,,,,CLR,,,,,,,,VFR,,,,9.4,-3.3,,,,,,,METAR,1024.0
KBKL 120753Z 26015KT 10SM SCT046 SCT055 OVC070 M02/M05 A2989 RMK AO2 SLP128 T10221050,KBKL,2015-02-12T07:53:00Z,41.53,-81.67,-2.2,-5.0,260,15,,10.0,29.890747,1012.8,,,TRUE,,,,,,,SCT,4600,SCT,5500,OVC,7000,,,VFR,,,,,,,,,,,,METAR,184.0
KBKV 120753Z AUTO 00000KT 6SM BR CLR 06/04 A3006 RMK AO2 SLP178 T00560044,KBKV,2015-02-12T07:53:00Z,28.47,-82.45,5.6,4.4,0,0,,6.0,30.059055,1017.8,,TRUE,TRUE,,,,,,BR,CLR,,,,,,,,VFR,,,,,,,,,,,,METAR,20.0
KBLI 120753Z 00000KT 10SM BKN100 08/07 A3021 RMK AO2 SLP238 T00780067 401280056,KBLI,2015-02-12T07:53:00Z,48.8,-122.53,7.8,6.7,0,0,,10.0,30.209646,1023.8,,,TRUE,,,,,,,BKN,10000,,,,,,,VFR,,,,12.8,5.6,,,,,,,METAR,50.0
KBMG 120753Z AUTO 31011G18KT 10SM OVC024 M04/M09 A3010 RMK AO2 SLP199 T10391094 $,KBMG,2015-02-12T07:53:00Z,39.15,-86.62,-3.9,-9.4,310,11,18,10.0,30.100393,1019.9,,TRUE,TRUE,TRUE,,,,,,OVC,2400,,,,,,,MVFR,,,,,,,,,,,,METAR,257.0
KBMQ 120753Z AUTO 01013G19KT 10SM FEW048 BKN060 10/03 A3031 RMK AO2 SLP254 T01000033 TSNO $,KBMQ,2015-02-12T07:53:00Z,30.73,-98.23,10.0,3.3,10,13,19,10.0,30.31004,1025.4,,TRUE,TRUE,TRUE,,TRUE,,,,FEW,4800,BKN,6000,,,,,VFR,,,,,,,,,,,,METAR,389.0
KBNA 120753Z 34009KT 10SM OVC025 03/M03 A3015 RMK AO2 SLP209 T00281028,KBNA,2015-02-12T07:53:00Z,36.12,-86.68,2.8,-2.8,340,9,,10.0,30.15059,1020.9,,,TRUE,,,,,,,OVC,2500,,,,,,,MVFR,,,,,,,,,,,,METAR,210.0
KBNO 120753Z AUTO 36003KT 10SM CLR M01/M02 A3033 RMK AO2 SLP280 T10061022 401111028,KBNO,2015-02-12T07:53:00Z,43.6,-118.95,-0.6,-2.2,360,3,,10.0,30.33071,1028.0,,TRUE,TRUE,,,,,,,CLR,,,,,,,,VFR,,,,11.1,-2.8,,,,,,,METAR,1264.0
KBTL 120753Z 32011KT 9SM BKN022 OVC028 M06/M11 A2999 RMK AO2 SNB07E51 SLP168 P0000 T10611106,KBTL,2015-02-12T07:53:00Z,42.32,-85.23,-6.1,-10.6,320,11,,9.0,29.991142,1016.8,,,TRUE,,,,,,,BKN,2200,OVC,2800,,,,,MVFR,,,,,,0.0050,,,,,,METAR,290.0
KBRO 120753Z 07004KT 8SM CLR 17/16 A3011 RMK AO2 SLP194 T01670156,KBRO,2015-02-12T07:53:00Z,25.92,-97.42,16.7,15.6,70,4,,8.0,30.109253,1019.4,,,TRUE,,,,,,,CLR,,,,,,,,VFR,,,,,,,,,,,,METAR,7.0
KBRD 120753Z AUTO 34014KT 10SM CLR M21/M24 A3058 RMK AO2 SLP391 T12111244,KBRD,2015-02-12T07:53:00Z,46.4,-94.13,-21.1,-24.4,340,14,,10.0,30.578741,1039.1,,TRUE,TRUE,,,,,,,CLR,,,,,,,,VFR,,,,,,,,,,,,METAR,372.0
KBPT 120753Z 31003KT 1/4SM R12/4500V5500FT FG VV003 09/09 A3016 RMK AO2 SLP214 T00940089 $,KBPT,2015-02-12T07:53:00Z,29.95,-94.03,9.4,8.9,310,3,,0.25,30.159449,1021.4,,,TRUE,TRUE,,,,,FG,OVX,0,,,,,,,LIFR,,,,,,,,,,,300,METAR,5.0
KBPK 120753Z AUTO 32003KT 10SM CLR M02/M07 A3033 RMK AO2 SLP275 T10221067,KBPK,2015-02-12T07:53:00Z,36.37,-92.47,-2.2,-6.7,320,3,,10.0,30.33071,1027.5,,TRUE,TRUE,,,,,,,CLR,,,,,,,,VFR,,,,,,,,,,,,METAR,280.0
KBPI 120753Z AUTO 31005KT 10SM CLR M05/M07 A3040 RMK AO2 SLP298 T10501067,KBPI,2015-02-12T07:53:00Z,42.58,-110.1,-5.0,-6.7,310,5,,10.0,30.398623,1029.8,,TRUE,TRUE,,,,,,,CLR,,,,,,,,VFR,,,,,,,,,,,,METAR,2117.0
KBOI 120753Z 07005KT 10SM CLR 05/03 A3036 RMK AO2 SLP283 T00500028,KBOI,2015-02-12T07:53:00Z,43.57,-116.23,5.0,2.8,70,5,,10.0,30.360237,1028.3,,,TRUE,,,,,,,CLR,,,,,,,,VFR,,,,,,,,,,,,METAR,875.0
KCRS 120753Z AUTO 36014G22KT 10SM CLR 08/00 A3032 RMK AO2 SLP264 T00780000,KCRS,2015-02-12T07:53:00Z,32.03,-96.4,7.8,0.0,360,14,22,10.0,30.318897,1026.4,,TRUE,TRUE,,,,,,,CLR,,,,,,,,VFR,,,,,,,,,,,,METAR,133.0
KCSM 120753Z AUTO 36007KT 10SM CLR M02/M05 A3044 RMK AO2 SLP315 T10171050,KCSM,2015-02-12T07:53:00Z,35.35,-99.2,-1.7,-5.0,360,7,,10.0,30.43996,1031.5,,TRUE,TRUE,,,,,,,CLR,,,,,,,,VFR,,,,,,,,,,,,METAR,588.0
KCSV 120753Z AUTO 29006KT 8SM OVC012 03/M01 A3003 RMK AO2 SLP170 T00281006,KCSV,2015-02-12T07:53:00Z,35.95,-85.08,2.8,-0.6,290,6,,8.0,30.029528,1017.0,,TRUE,TRUE,,,,,,,OVC,1200,,,,,,,MVFR,,,,,,,,,,,,METAR,570.0
KCUT 120753Z AUTO 19004KT 10SM OVC004 M07/M08 A3027 RMK AO2 SLP280 T10671078,KCUT,2015-02-12T07:53:00Z,43.73,-103.62,-6.7,-7.8,190,4,,10.0,30.268702,1028.0,,TRUE,TRUE,,,,,,,OVC,400,,,,,,,LIFR,,,,,,,,,,,,METAR,1725.0
KCUB 120753Z AUTO 00000KT 10SM CLR 03/01 A2993 RMK AO2 SLP133 T00330011,KCUB,2015-02-12T07:53:00Z,33.97,-81.0,3.3,1.1,0,0,,10.0,29.929134,1013.3,,TRUE,TRUE,,,,,,,CLR,,,,,,,,VFR,,,,,,,,,,,,METAR,56.0
KDAN 120753Z AUTO 23004KT 10SM CLR 00/M03 A2988 RMK AO2 SLP114 T00001028,KDAN,2015-02-12T07:53:00Z,36.57,-79.33,0.0,-2.8,230,4,,10.0,29.878937,1011.4,,TRUE,TRUE,,,,,,,CLR,,,,,,,,VFR,,,,,,,,,,,,METAR,175.0
KDCU 120753Z AUTO 35011KT 9SM CLR 04/01 A3012 RMK AO2 SLP198 T00390006,KDCU,2015-02-12T07:53:00Z,34.65,-86.95,3.9,0.6,350,11,,9.0,30.121063,1019.8,,TRUE,TRUE,,,,,,,CLR,,,,,,,,VFR,,,,,,,,,,,,METAR,176.0
KDAL 120753Z 36009G19KT 10SM FEW080 SCT250 07/M02 A3034 RMK AO2 SLP273 T00721022,KDAL,2015-02-12T07:53:00Z,32.85,-96.85,7.2,-2.2,360,9,19,10.0,30.339567,1027.3,,,TRUE,,,,,,,FEW,8000,SCT,25000,,,,,VFR,,,,,,,,,,,,METAR,158.0
KDAB 120753Z 24003KT 7SM CLR 07/06 A3005 RMK AO2 SLP176 T00720061 $,KDAB,2015-02-12T07:53:00Z,29.18,-81.07,7.2,6.1,240,3,,7.0,30.050198,1017.6,,,TRUE,TRUE,,,,,,CLR,,,,,,,,VFR,,,,,,,,,,,,METAR,9.0
KCYS 120753Z AUTO 28008KT 10SM CLR M02/M06 A3031 RMK AO2 SLP267 T10171061,KCYS,2015-02-12T07:53:00Z,41.15,-104.8,-1.7,-6.1,280,8,,10.0,30.31004,1026.7,,TRUE,TRUE,,,,,,,CLR,,,,,,,,VFR,,,,,,,,,,,,METAR,1868.0
KCXO 120753Z 34005KT 10SM CLR 10/08 A3020 RMK AO2 SLP225 T01000083,KCXO,2015-02-12T07:53:00Z,30.35,-95.42,10.0,8.3,340,5,,10.0,30.200787,1022.5,,,TRUE,,,,,,,CLR,,,,,,,,VFR,,,,,,,,,,,,METAR,75.0
KDBQ 120753Z AUTO 33019G26KT 3SM HZ OVC039 M13/M16 A3027 RMK AO2 PK WND 34026/0747 SNE0656 SLP272 P0000 T11331161,KDBQ,2015-02-12T07:53:00Z,42.4,-90.7,-13.3,-16.1,330,19,26,3.0,30.268702,1027.2,,TRUE,TRUE,,,,,,HZ,OVC,3900,,,,,,,MVFR,,,,,,0.0050,,,,,,METAR,326.0
KDEN 120753Z 18009KT 10SM FEW220 M01/M03 A3033 RMK AO2 SLP270 T10111033,KDEN,2015-02-12T07:53:00Z,39.85,-104.65,-1.1,-3.3,180,9,,10.0,30.33071,1027.0,,,TRUE,,,,,,,FEW,22000,,,,,,,VFR,,,,,,,,,,,,METAR,1640.0
KDMO 120753Z AUTO 32010KT 10SM SCT036 BKN044 M02/M07 A3037 RMK AO2 SLP292 T10171067,KDMO,2015-02-12T07:53:00Z,38.72,-93.17,-1.7,-6.7,320,10,,10.0,30.369095,1029.2,,TRUE,TRUE,,,,,,,SCT,3600,BKN,4400,,,,,VFR,,,,,,,,,,,,METAR,274.0
KDMN 120753Z AUTO 10012KT 10SM OVC045 06/M01 A3035 RMK AO2 SLP246 T00561006,KDMN,2015-02-12T07:53:00Z,32.27,-107.72,5.6,-0.6,100,12,,10.0,30.351377,1024.6,,TRUE,TRUE,,,,,,,OVC,4500,,,,,,,VFR,,,,,,,,,,,,METAR,1311.0
KFKS 120753Z AUTO 35010G21KT 2SM -SN SCT008 BKN019 OVC030 M10/M13 A3009 RMK AO2 VIS 1 1/4V5 T11031133,KFKS,2015-02-12T07:53:00Z,44.63,-86.2,-10.3,-13.3,350,10,21,2.0,30.088583,,,TRUE,TRUE,,,,,,-SN,SCT,800,BKN,1900,OVC,3000,,,IFR,,,,,,,,,,,,METAR,193.0
KGRR 120753Z AUTO 34015G28KT 6SM UP SCT019 BKN027 OVC039 M08/M13 A3002 RMK AO2 PK WND 35028/0748 UPB52SNB27E52 SLP178 P0000 T10831128,KGRR,2015-02-12T07:53:00Z,42.88,-85.52,-8.3,-12.8,340,15,28,6.0,30.02067,1017.8,,TRUE,TRUE,,,,,,UP,SCT,1900,BKN,2700,OVC,3900,,,MVFR,,,,,,0.0050,,,,,,METAR,237.0
KGRI 120753Z AUTO 03014KT 10SM OVC023 M08/M12 A3056 RMK AO2 SLP380 T10831122,KGRI,2015-02-12T07:53:00Z,40.97,-98.32,-8.3,-12.2,30,14,,10.0,30.561024,1038.0,,TRUE,TRUE,,,,,,,OVC,2300,,,,,,,MVFR,,,,,,,,,,,,METAR,561.0
KGRB 120753Z AUTO 33013KT 10SM CLR M14/M22 A3024 RMK AO2 SLP255 T11391217,KGRB,2015-02-12T07:53:00Z,44.48,-88.13,-13.9,-21.7,330,13,,10.0,30.239174,1025.5,,TRUE,TRUE,,,,,,,CLR,,,,,,,,VFR,,,,,,,,,,,,METAR,208.0
KGPT 120753Z AUTO 00000KT 7SM CLR 07/05 A3011 RMK AO2 SLP195 T00670050,KGPT,2015-02-12T07:53:00Z,30.42,-89.08,6.7,5.0,0,0,,7.0,30.109253,1019.5,,TRUE,TRUE,,,,,,,CLR,,,,,,,,VFR,,,,,,,,,,,,METAR,14.0
KDLS 120753Z AUTO 13003KT 10SM FEW120 06/04 A3029 RMK AO2 SLP258 T00560044 401220022,KDLS,2015-02-12T07:53:00Z,45.62,-121.17,5.6,4.4,130,3,,10.0,30.28937,1025.8,,TRUE,TRUE,,,,,,,FEW,12000,,,,,,,VFR,,,,12.2,2.2,,,,,,,METAR,71.0
KDNL 120753Z AUTO 27003KT 10SM CLR 08/03 A2994 RMK AO2 SLP136 T00830028,KDNL,2015-02-12T07:53:00Z,33.47,-82.03,8.3,2.8,270,3,,10.0,29.940945,1013.6,,TRUE,TRUE,,,,,,,CLR,,,,,,,,VFR,,,,,,,,,,,,METAR,130.0
KDRO 120753Z AUTO 00000KT 10SM CLR M03/M06 A3043 RMK AO2 SLP312 T10331056,KDRO,2015-02-12T07:53:00Z,37.15,-107.77,-3.3,-5.6,0,0,,10.0,30.431103,1031.2,,TRUE,TRUE,,,,,,,CLR,,,,,,,,VFR,,,,,,,,,,,,METAR,2035.0
KDRT 120753Z AUTO 32007KT 10SM OVC046 13/04 A3027 RMK AO2 SLP238 T01330044,KDRT,2015-02-12T07:53:00Z,29.37,-100.92,13.3,4.4,320,7,,10.0,30.268702,1023.8,,TRUE,TRUE,,,,,,,OVC,4600,,,,,,,VFR,,,,,,,,,,,,METAR,313.0
KDTN 120753Z AUTO 35005KT 10SM CLR 09/04 A3024 RMK AO2 SLP237 T00890039 TSNO,KDTN,2015-02-12T07:53:00Z,32.55,-93.75,8.9,3.9,350,5,,10.0,30.239174,1023.7,,TRUE,TRUE,,,TRUE,,,,CLR,,,,,,,,VFR,,,,,,,,,,,,METAR,53.0
KDTO 120753Z AUTO 36011KT 10SM CLR 06/M02 A3036 RMK AO2 SLP280 T00561022,KDTO,2015-02-12T07:53:00Z,33.2,-97.2,5.6,-2.2,360,11,,10.0,30.360237,1028.0,,TRUE,TRUE,,,,,,,CLR,,,,,,,,VFR,,,,,,,,,,,,METAR,196.0
KDTS 120753Z AUTO 00000KT 10SM CLR 09/07 A3007 RMK AO2 SLP181 T00890067 TSNO,KDTS,2015-02-12T07:53:00Z,30.4,-86.47,8.9,6.7,0,0,,10.0,30.070866,1018.1,,TRUE,TRUE,,,TRUE,,,,CLR,,,,,,,,VFR,,,,,,,,,,,,METAR,5.0
KDTW 120753Z 31011KT 10SM SCT025 BKN050 OVC095 M04/M11 A2994 RMK AO2 SNE0655 SLP147 P0000 T10391111,KDTW,2015-02-12T07:53:00Z,42.23,-83.33,-3.9,-11.1,310,11,,10.0,29.940945,1014.7,,,TRUE,,,,,,,SCT,2500,BKN,5000,OVC,9500,,,VFR,,,,,,0.0050,,,,,,METAR,195.0
KDUJ 120753Z AUTO 28013G24KT 1 1/2SM -SN BR BKN008 BKN014 OVC036 M02/M03 A2973 RMK AO2 SNB22 SLP086 P0000 T10221033,KDUJ,2015-02-12T07:53:00Z,41.17,-78.9,-2.2,-3.3,280,13,24,1.5,29.731298,1008.6,,TRUE,TRUE,,,,,,-SN BR,BKN,800,BKN,1400,OVC,3600,,,IFR,,,,,,0.0050,,,,,,METAR,554.0
KDVT 120753Z 00000KT 10SM CLR 18/M03 A3016 RMK AO2 SLP195 T01781028,KDVT,2015-02-12T07:53:00Z,33.68,-112.07,17.8,-2.8,0,0,,10.0,30.159449,1019.5,,,TRUE,,,,,,,CLR,,,,,,,,VFR,,,,,,,,,,,,METAR,443.0
KDWH 120753Z 33004KT 9SM CLR 12/09 A3019 RMK AO2 SLP222 T01220094 $,KDWH,2015-02-12T07:53:00Z,30.07,-95.55,12.2,9.4,330,4,,9.0,30.188976,1022.2,,,TRUE,TRUE,,,,,,CLR,,,,,,,,VFR,,,,,,,,,,,,METAR,46.0
KDXR 120753Z AUTO 00000KT 10SM FEW038 OVC090 M06/M10 A2985 RMK AO2 SLP111 T10561100,KDXR,2015-02-12T07:53:00Z,41.37,-73.48,-5.6,-10.0,0,0,,10.0,29.84941,1011.1,,TRUE,TRUE,,,,,,,FEW,3800,OVC,9000,,,,,VFR,,,,,,,,,,,,METAR,139.0
KECP 120753Z AUTO 00000KT 9SM CLR 06/04 A3005 RMK AO2 SLP189 T00610044 $,KECP,2015-02-12T07:53:00Z,30.35,-85.8,6.1,4.4,0,0,,9.0,30.050198,1018.9,,TRUE,TRUE,TRUE,,,,,,CLR,,,,,,,,VFR,,,,,,,,,,,,METAR,21.0
KEEO 120753Z AUTO 13009KT 10SM CLR M02/M07 A3043 RMK AO2 SLP301 T10221067,KEEO,2015-02-12T07:53:00Z,40.05,-107.88,-2.2,-6.7,130,9,,10.0,30.431103,1030.1,,TRUE,TRUE,,,,,,,CLR,,,,,,,,VFR,,,,,,,,,,,,METAR,1930.0
KEET 120753Z AUTO 33004KT 10SM CLR 06/01 A3008 RMK AO2 SLP183 T00610006,KEET,2015-02-12T07:53:00Z,33.18,-86.78,6.1,0.6,330,4,,10.0,30.079725,1018.3,,TRUE,TRUE,,,,,,,CLR,,,,,,,,VFR,,,,,,,,,,,,METAR,173.0
KELD 120753Z AUTO 36006KT 10SM CLR 07/03 A3026 RMK AO2 SLP246 T00670028,KELD,2015-02-12T07:53:00Z,33.22,-92.82,6.7,2.8,360,6,,10.0,30.259842,1024.6,,TRUE,TRUE,,,,,,,CLR,,,,,,,,VFR,,,,,,,,,,,,METAR,81.0
KELM 120753Z AUTO 00000KT 5SM BR OVC039 M02/M02 A2973 RMK AO2 SLP077 T10221022,KELM,2015-02-12T07:53:00Z,42.15,-76.9,-2.2,-2.2,0,0,,5.0,29.731298,1007.7,,TRUE,TRUE,,,,,,BR,OVC,3900,,,,,,,MVFR,,,,,,,,,,,,METAR,302.0
KELN 120753Z AUTO 05004KT 6SM BR BKN095 BKN120 06/04 A3025 RMK AO2 SLP251 T00610039 401110039,KELN,2015-02-12T07:53:00Z,47.03,-120.53,6.1,3.9,50,4,,6.0,30.250984,1025.1,,TRUE,TRUE,,,,,,BR,BKN,9500,BKN,12000,,,,,VFR,,,,11.1,3.9,,,,,,,METAR,519.0
KEMP 120753Z AUTO 32004KT 10SM CLR M06/M08 A3043 RMK AO2 SLP322 T10561078,KEMP,2015-02-12T07:53:00Z,38.33,-96.2,-5.6,-7.8,320,4,,10.0,30.431103,1032.2,,TRUE,TRUE,,,,,,,CLR,,,,,,,,VFR,,,,,,,,,,,,METAR,367.0
KENW 120753Z AUTO 33011G18KT 10SM OVC035 M09/M16 A3016 RMK AO2 SLP223 T10891156,KENW,2015-02-12T07:53:00Z,42.6,-87.93,-8.9,-15.6,330,11,18,10.0,30.159449,1022.3,,TRUE,TRUE,,,,,,,OVC,3500,,,,,,,VFR,,,,,,,,,,,,METAR,219.0
KEPH 120753Z AUTO 27004KT 10SM OVC120 07/06 A3024 RMK AO2 SLP246 T00670056 401110039,KEPH,2015-02-12T07:53:00Z,47.3,-119.52,6.7,5.6,270,4,,10.0,30.239174,1024.6,,TRUE,TRUE,,,,,,,OVC,12000,,,,,,,VFR,,,,11.1,3.9,,,,,,,METAR,383.0
KDKK 120753Z AUTO 25008KT 5SM -SN BR BKN033 OVC042 M03/M04 A2982 RMK AO2 SLP106 P0000 T10331044,KDKK,2015-02-12T07:53:00Z,42.5,-79.28,-3.3,-4.4,250,8,,5.0,29.819881,1010.6,,TRUE,TRUE,,,,,,-SN BR,BKN,3300,OVC,4200,,,,,MVFR,,,,,,0.0050,,,,,,METAR,202.0
KDHT 120753Z AUTO 30007KT 10SM CLR M03/M06 A3044 RMK AO2 SLP323 T10281061,KDHT,2015-02-12T07:53:00Z,36.02,-102.55,-2.8,-6.1,300,7,,10.0,30.43996,1032.3,,TRUE,TRUE,,,,,,,CLR,,,,,,,,VFR,,,,,,,,,,,,METAR,1217.0
KDHN 120753Z AUTO 27003KT 10SM CLR 07/02 A3008 RMK AO2 SLP184 T00670022,KDHN,2015-02-12T07:53:00Z,31.32,-85.45,6.7,2.2,270,3,,10.0,30.079725,1018.4,,TRUE,TRUE,,,,,,,CLR,,,,,,,,VFR,,,,,,,,,,,,METAR,113.0
KDGW 120753Z AUTO 13009KT 10SM CLR 00/M02 A3027 RMK AO2 SLP254 T00001022,KDGW,2015-02-12T07:53:00Z,42.8,-105.38,0.0,-2.2,130,9,,10.0,30.268702,1025.4,,TRUE,TRUE,,,,,,,CLR,,,,,,,,VFR,,,,,,,,,,,,METAR,1499.0
KDFW 120753Z 02015KT 10SM FEW130 SCT250 06/M03 A3033 RMK AO2 SLP268 T00611028,KDFW,2015-02-12T07:53:00Z,32.9,-97.02,6.1,-2.8,20,15,,10.0,30.33071,1026.8,,,TRUE,,,,,,,FEW,13000,SCT,25000,,,,,VFR,,,,,,,,,,,,METAR,174.0
KDFI 120753Z AUTO 30010KT 10SM OVC055 M03/M08 A2998 RMK AO2 SNE0657 SLP159 P0000 T10281083,KDFI,2015-02-12T07:53:00Z,41.33,-84.43,-2.8,-8.3,300,10,,10.0,29.97933,1015.9,,TRUE,TRUE,,,,,,,OVC,5500,,,,,,,VFR,,,,,,0.0050,,,,,,METAR,219.0
KDEW 120753Z AUTO 34004KT 1/4SM FG VV002 04/04 A3026 RMK AO2 SLP259 T00440039 401000028,KDEW,2015-02-12T07:53:00Z,47.97,-117.43,4.4,3.9,340,4,,0.25,30.259842,1025.9,,TRUE,TRUE,,,,,,FG,OVX,0,,,,,,,LIFR,,,,10.0,2.8,,,,,,200,METAR,674.0
KDET 120753Z 35013G19KT 10SM FEW022 SCT034 OVC060 M04/M10 A2993 RMK AO2 SLP143 T10391100,KDET,2015-02-12T07:53:00Z,42.4,-83.02,-3.9,-10.0,350,13,19,10.0,29.929134,1014.3,,,TRUE,,,,,,,FEW,2200,SCT,3400,OVC,6000,,,VFR,,,,,,,,,,,,METAR,190.0
KDEQ 120753Z AUTO 02005KT 8SM SCT100 07/00 A3029 RMK AO2 SLP255 T00670000,KDEQ,2015-02-12T07:53:00Z,34.05,-94.4,6.7,0.0,20,5,,8.0,30.28937,1025.5,,TRUE,TRUE,,,,,,,SCT,10000,,,,,,,VFR,,,,,,,,,,,,METAR,106.0
KEQY 120753Z AUTO 00000KT 10SM CLR 03/M01 A2989 RMK AO2 SLP137 T00281006,KEQY,2015-02-12T07:53:00Z,35.02,-80.62,2.8,-0.6,0,0,,10.0,29.890747,1013.7,,TRUE,TRUE,,,,,,,CLR,,,,,,,,VFR,,,,,,,,,,,,METAR,212.0
KFRG 120753Z AUTO 00000KT 10SM OVC100 M05/M09 A2988 RMK AO2 SLP118 T10501094,KFRG,2015-02-12T07:53:00Z,40.73,-73.42,-5.0,-9.4,0,0,,10.0,29.878937,1011.8,,TRUE,TRUE,,,,,,,OVC,10000,,,,,,,VFR,,,,,,,,,,,,METAR,21.0
KFPR 120753Z AUTO 29003KT 9SM CLR 06/06 A3005 RMK AO2 SLP173 T00610056,KFPR,2015-02-12T07:53:00Z,27.5,-80.38,6.1,5.6,290,3,,9.0,30.050198,1017.3,,TRUE,TRUE,,,,,,,CLR,,,,,,,,VFR,,,,,,,,,,,,METAR,13.0
KFOZ 120753Z AUTO 33004KT 10SM CLR M23/M26 A3056 RMK AO2,KFOZ,2015-02-12T07:53:00Z,47.77,-93.65,-23.0,-26.0,330,4,,10.0,30.561024,,,TRUE,TRUE,,,,,,,CLR,,,,,,,,VFR,,,,,,,,,,,,METAR,411.0
KFOK 120753Z AUTO 32003KT 10SM FEW110 M13/M16 A2990 RMK AO2 SLP124 T11281161 TSNO,KFOK,2015-02-12T07:53:00Z,40.85,-72.62,-12.8,-16.1,320,3,,10.0,29.899607,1012.4,,TRUE,TRUE,,,TRUE,,,,FEW,11000,,,,,,,VFR,,,,,,,,,,,,METAR,33.0
KFOE 120753Z AUTO 34014G22KT 10SM OVC043 M01/M07 A3044 RMK AO2 SLP318 T10111067,KFOE,2015-02-12T07:53:00Z,38.93,-95.65,-1.1,-6.7,340,14,22,10.0,30.43996,1031.8,,TRUE,TRUE,,,,,,,OVC,4300,,,,,,,VFR,,,,,,,,,,,,METAR,320.0
KFNT 120753Z 34012KT 10SM FEW027 OVC050 M07/M13 A2996 RMK AO2 SLP155 T10671128,KFNT,2015-02-12T07:53:00Z,42.97,-83.75,-6.7,-12.8,340,12,,10.0,29.958662,1015.5,,,TRUE,,,,,,,FEW,2700,OVC,5000,,,,,VFR,,,,,,,,,,,,METAR,233.0
KFNB 120753Z AUTO 36016G32KT 10SM SCT027 M08/M14 A3053 RMK AO2 PK WND 36032/0744 PRESRR SLP350 T10781139,KFNB,2015-02-12T07:53:00Z,40.07,-95.58,-7.8,-13.9,360,16,32,10.0,30.528543,1035.0,,TRUE,TRUE,,,,,,,SCT,2700,,,,,,,VFR,,,,,,,,,,,,METAR,300.0
KFMY 120753Z AUTO 00000KT 10SM CLR 10/09 A3005 RMK AO2 SLP176 T01000094,KFMY,2015-02-12T07:53:00Z,26.58,-81.87,10.0,9.4,0,0,,10.0,30.050198,1017.6,,TRUE,TRUE,,,,,,,CLR,,,,,,,,VFR,,,,,,,,,,,,METAR,4.0
KFMN 120753Z AUTO 03004KT 10SM CLR M02/M04 A3042 RMK AO2 SLP307 T10221044,KFMN,2015-02-12T07:53:00Z,36.75,-108.23,-2.2,-4.4,30,4,,10.0,30.41929,1030.7,,TRUE,TRUE,,,,,,,CLR,,,,,,,,VFR,,,,,,,,,,,,METAR,1685.0
KFLO 120753Z AUTO 20005KT 10SM CLR 03/02 A2993 RMK AO2 SLP133 T00330017,KFLO,2015-02-12T07:53:00Z,34.18,-79.73,3.3,1.7,200,5,,10.0,29.929134,1013.3,,TRUE,TRUE,,,,,,,CLR,,,,,,,,VFR,,,,,,,,,,,,METAR,44.0
KFLL 120753Z 35007KT 10SM FEW049 14/11 A3002 RMK AO2 SLP165 T01390106,KFLL,2015-02-12T07:53:00Z,26.07,-80.15,13.9,10.6,350,7,,10.0,30.02067,1016.5,,,TRUE,,,,,,,FEW,4900,,,,,,,VFR,,,,,,,,,,,,METAR,3.0
KFLD 120753Z AUTO 01016G22KT 10SM SCT025 SCT030 BKN040 M13/M18 A3023 RMK AO2 SLP252 T11281178,KFLD,2015-02-12T07:53:00Z,43.77,-88.48,-12.8,-17.8,10,16,22,10.0,30.230314,1025.2,,TRUE,TRUE,,,,,,,SCT,2500,SCT,3000,BKN,4000,,,VFR,,,,,,,,,,,,METAR,240.0
KFHR 120753Z AUTO 01003KT 8SM BKN120 08/07 A3022 RMK AO2 SLP232 T00780067 401170050,KFHR,2015-02-12T07:53:00Z,48.52,-123.03,7.8,6.7,10,3,,8.0,30.221457,1023.2,,TRUE,TRUE,,,,,,,BKN,12000,,,,,,,VFR,,,,11.7,5.0,,,,,,,METAR,32.0
KFFT 120753Z AUTO 31008KT 10SM OVC031 M01/M07 A3005 RMK AO2 SLP181 T10111072,KFFT,2015-02-12T07:53:00Z,38.18,-84.9,-1.1,-7.2,310,8,,10.0,30.050198,1018.1,,TRUE,TRUE,,,,,,,OVC,3100,,,,,,,VFR,,,,,,,,,,,,METAR,236.0
KFFC 120753Z AUTO 29006KT 10SM CLR 04/00 A3002 RMK AO2 SLP168 T00390000,KFFC,2015-02-12T07:53:00Z,33.35,-84.57,3.9,0.0,290,6,,10.0,30.02067,1016.8,,TRUE,TRUE,,,,,,,CLR,,,,,,,,VFR,,,,,,,,,,,,METAR,262.0
KFDY 120753Z AUTO 28009KT 2SM -SN BKN022 BKN027 OVC060 M02/M05 A2994 RMK AO2 SLP142 P0000 T10221050,KFDY,2015-02-12T07:53:00Z,41.02,-83.67,-2.2,-5.0,280,9,,2.0,29.940945,1014.2,,TRUE,TRUE,,,,,,-SN,BKN,2200,BKN,2700,OVC,6000,,,IFR,,,,,,0.0050,,,,,,METAR,247.0
KFDR 120753Z AUTO 01009KT 10SM OVC095 04/M03 A3040 RMK AO2 SLP294 T00391028,KFDR,2015-02-12T07:53:00Z,34.35,-98.98,3.9,-2.8,10,9,,10.0,30.398623,1029.4,,TRUE,TRUE,,,,,,,OVC,9500,,,,,,,VFR,,,,,,,,,,,,METAR,386.0
KFCM 120753Z AUTO 34010KT 10SM CLR M18/M22 A3055 RMK AO2 SLP366 T11781222,KFCM,2015-02-12T07:53:00Z,44.83,-93.47,-17.8,-22.2,340,10,,10.0,30.549213,1036.6,,TRUE,TRUE,,,,,,,CLR,,,,,,,,VFR,,,,,,,,,,,,METAR,280.0
KFAY 120753Z AUTO 19004KT 10SM CLR 02/01 A2991 RMK AO2 SLP124 T00220006,KFAY,2015-02-12T07:53:00Z,34.98,-78.88,2.2,0.6,190,4,,10.0,29.911417,1012.4,,TRUE,TRUE,,,,,,,CLR,,,,,,,,VFR,,,,,,,,,,,,METAR,55.0
KFAT 120753Z 00000KT 4SM BR FEW150 11/09 A3021 RMK AO2 SLP229 T01060094 402060061,KFAT,2015-02-12T07:53:00Z,36.78,-119.72,10.6,9.4,0,0,,4.0,30.209646,1022.9,,,TRUE,,,,,,BR,FEW,15000,,,,,,,MVFR,,,,20.6,6.1,,,,,,,METAR,104.0
KFAR 120753Z AUTO 31012KT 10SM CLR M23/M27 A3072 RMK AO2 SLP432 T12281267 TSNO,KFAR,2015-02-12T07:53:00Z,46.93,-96.82,-22.8,-26.7,310,12,,10.0,30.720472,1043.2,,TRUE,TRUE,,,TRUE,,,,CLR,,,,,,,,VFR,,,,,,,,,,,,METAR,277.0
KEYW 120753Z AUTO 02005KT 10SM CLR 17/13 A3004 RMK AO2 SLP172 T01670133,KEYW,2015-02-12T07:53:00Z,24.55,-81.75,16.7,13.3,20,5,,10.0,30.041338,1017.2,,TRUE,TRUE,,,,,,,CLR,,,,,,,,VFR,,,,,,,,,,,,METAR,5.0
KEYE 120753Z AUTO 31016G21KT 10SM BKN023 M07/M11 A3008 RMK AO2 SLP196 T10671106 $,KEYE,2015-02-12T07:53:00Z,39.83,-86.3,-6.7,-10.6,310,16,21,10.0,30.079725,1019.6,,TRUE,TRUE,TRUE,,,,,,BKN,2300,,,,,,,MVFR,,,,,,,,,,,,METAR,248.0
KEVW 120753Z AUTO 20007KT 10SM CLR M02/M04 A3040 RMK AO2 SLP293 T10171044,KEVW,2015-02-12T07:53:00Z,41.27,-111.03,-1.7,-4.4,200,7,,10.0,30.398623,1029.3,,TRUE,TRUE,,,,,,,CLR,,,,,,,,VFR,,,,,,,,,,,,METAR,2177.0
KESF 120753Z AUTO 00000KT 10SM CLR 09/04 A3017 RMK AO2 SLP216 T00890044,KESF,2015-02-12T07:53:00Z,31.4,-92.28,8.9,4.4,0,0,,10.0,30.171259,1021.6,,TRUE,TRUE,,,,,,,CLR,,,,,,,,VFR,,,,,,,,,,,,METAR,28.0
KFSM 120753Z 35010KT 10SM FEW110 02/M05 A3041 RMK AO2 SLP298 T00221050 $,KFSM,2015-02-12T07:53:00Z,35.33,-94.37,2.2,-5.0,350,10,,10.0,30.410433,1029.8,,,TRUE,TRUE,,,,,,FEW,11000,,,,,,,VFR,,,,,,,,,,,,METAR,140.0
KFXE 120753Z 35004KT 10SM FEW050 14/11 A3003 RMK AO2 SLP170 T01440106,KFXE,2015-02-12T07:53:00Z,26.2,-80.18,14.4,10.6,350,4,,10.0,30.029528,1017.0,,,TRUE,,,,,,,FEW,5000,,,,,,,VFR,,,,,,,,,,,,METAR,6.0
KFYV 120753Z AUTO 00000KT 10SM CLR M03/M06 A3038 RMK AO2 SLP294 T10281061,KFYV,2015-02-12T07:53:00Z,36.02,-94.17,-2.8,-6.1,0,0,,10.0,30.380905,1029.4,,TRUE,TRUE,,,,,,,CLR,,,,,,,,VFR,,,,,,,,,,,,METAR,379.0
KGEG 120753Z 03004KT 8SM FEW002 BKN120 OVC200 06/06 A3024 RMK AO2 SLP252 T00610056 400940033,KGEG,2015-02-12T07:53:00Z,47.62,-117.53,6.1,5.6,30,4,,8.0,30.239174,1025.2,,,TRUE,,,,,,,FEW,200,BKN,12000,OVC,20000,,,VFR,,,,9.4,3.3,,,,,,,METAR,735.0
KGCC 120753Z AUTO 17008KT 10SM CLR M01/M03 A3024 RMK AO2 SLP256 T10061028 TSNO,KGCC,2015-02-12T07:53:00Z,44.33,-105.55,-0.6,-2.8,170,8,,10.0,30.239174,1025.6,,TRUE,TRUE,,,TRUE,,,,CLR,,,,,,,,VFR,,,,,,,,,,,,METAR,1320.0
KGEY 120753Z AUTO 00000KT 10SM CLR 01/M01 A3023 RMK AO2 SLP253 T00061011,KGEY,2015-02-12T07:53:00Z,44.52,-108.08,0.6,-1.1,0,0,,10.0,30.230314,1025.3,,TRUE,TRUE,,,,,,,CLR,,,,,,,,VFR,,,,,,,,,,,,METAR,1191.0
KGEZ 120753Z AUTO 29015KT 10SM OVC024 M03/M09 A3007 RMK AO2 SLP189 T10331089,KGEZ,2015-02-12T07:53:00Z,39.58,-85.8,-3.3,-8.9,290,15,,10.0,30.070866,1018.9,,TRUE,TRUE,,,,,,,OVC,2400,,,,,,,MVFR,,,,,,,,,,,,METAR,245.0
KFWN 120753Z AUTO 22003KT 10SM BKN040 OVC065 M04/M11 A2981 RMK AO2 SLP098 T10441106 $,KFWN,2015-02-12T07:53:00Z,41.2,-74.63,-4.4,-10.6,220,3,,10.0,29.811024,1009.8,,TRUE,TRUE,TRUE,,,,,,BKN,4000,OVC,6500,,,,,VFR,,,,,,,,,,,,METAR,133.0
KFUL 120753Z 33003KT 10SM CLR 18/M03 A3006 RMK AO2 SLP176 T01831028 403110100,KFUL,2015-02-12T07:53:00Z,33.87,-117.98,18.3,-2.8,330,3,,10.0,30.059055,1017.6,,,TRUE,,,,,,,CLR,,,,,,,,VFR,,,,31.1,10.0,,,,,,,METAR,35.0
KFTY 120753Z 00000KT 10SM CLR 06/M02 A3001 RMK AO2 SLP161 T00611017,KFTY,2015-02-12T07:53:00Z,33.78,-84.52,6.1,-1.7,0,0,,10.0,30.008858,1016.1,,,TRUE,,,,,,,CLR,,,,,,,,VFR,,,,,,,,,,,,METAR,263.0
KFTW 120753Z 34009KT 8SM CLR 06/M02 A3035 RMK AO2 SLP276 T00611017,KFTW,2015-02-12T07:53:00Z,32.83,-97.37,6.1,-1.7,340,9,,8.0,30.351377,1027.6,,,TRUE,,,,,,,CLR,,,,,,,,VFR,,,,,,,,,,,,METAR,214.0
KFST 120753Z AUTO 02011KT 10SM BKN033 OVC045 06/01 A3039 RMK AO2 SLP268 T00610006,KFST,2015-02-12T07:53:00Z,30.92,-102.92,6.1,0.6,20,11,,10.0,30.389763,1026.8,,TRUE,TRUE,,,,,,,BKN,3300,OVC,4500,,,,,VFR,,,,,,,,,,,,METAR,918.0
KGSH 120753Z AUTO 29011KT 10SM OVC050 M05/M08 A3001 RMK AO2 SNE28 SLP172 P0000 T10501083,KGSH,2015-02-12T07:53:00Z,41.53,-85.78,-5.0,-8.3,290,11,,10.0,30.008858,1017.2,,TRUE,TRUE,,,,,,,OVC,5000,,,,,,,VFR,,,,,,0.0050,,,,,,METAR,252.0
KGOK 120753Z AUTO 00000KT 10SM CLR M03/M07 A3044 RMK AO2 SLP317 T10331067,KGOK,2015-02-12T07:53:00Z,35.85,-97.4,-3.3,-6.7,0,0,,10.0,30.43996,1031.7,,TRUE,TRUE,,,,,,,CLR,,,,,,,,VFR,,,,,,,,,,,,METAR,324.0
KGNV 120753Z AUTO 00000KT 10SM CLR 04/04 A3004 RMK AO2 SLP171 T00440044,KGNV,2015-02-12T07:53:00Z,29.7,-82.28,4.4,4.4,0,0,,10.0,30.041338,1017.1,,TRUE,TRUE,,,,,,,CLR,,,,,,,,VFR,,,,,,,,,,,,METAR,45.0
KGMU 120753Z AUTO 00000KT 10SM CLR 03/00 A2991 RMK AO2 SLP129 T00330000,KGMU,2015-02-12T07:53:00Z,34.85,-82.35,3.3,0.0,0,0,,10.0,29.911417,1012.9,,TRUE,TRUE,,,,,,,CLR,,,,,,,,VFR,,,,,,,,,,,,METAR,315.0
KGLR 120753Z AUTO 32009G17KT 3SM HZ BKN020 OVC026 M16/M18 A2995 RMK AO2 SNE20B42E52 SLP169 P0000 T11561183,KGLR,2015-02-12T07:53:00Z,45.02,-84.68,-15.6,-18.3,320,9,17,3.0,29.949802,1016.9,,TRUE,TRUE,,,,,,HZ,BKN,2000,OVC,2600,,,,,MVFR,,,,,,0.0050,,,,,,METAR,407.0
KGLH 120753Z AUTO 36016KT 8SM CLR 06/01 A3024 RMK AO2 SLP247 T00610011,KGLH,2015-02-12T07:53:00Z,33.5,-90.98,6.1,1.1,360,16,,8.0,30.239174,1024.7,,TRUE,TRUE,,,,,,,CLR,,,,,,,,VFR,,,,,,,,,,,,METAR,45.0
KGLD 120753Z AUTO 26008KT 10SM CLR 00/M07 A3036 RMK AO2 SLP291 T00001067 $,KGLD,2015-02-12T07:53:00Z,39.37,-101.7,0.0,-6.7,260,8,,10.0,30.360237,1029.1,,TRUE,TRUE,TRUE,,,,,,CLR,,,,,,,,VFR,,,,,,,,,,,,METAR,1113.0
KGKY 120753Z AUTO 34010KT 10SM CLR 07/M02 A3034 RMK AO2 SLP272 T00721022,KGKY,2015-02-12T07:53:00Z,32.67,-97.1,7.2,-2.2,340,10,,10.0,30.339567,1027.2,,TRUE,TRUE,,,,,,,CLR,,,,,,,,VFR,,,,,,,,,,,,METAR,192.0
KGKJ 120753Z AUTO 29010KT 270V330 3SM -SN BR BKN011 BKN017 OVC055 M04/M06 A2981 RMK AO2 SNE43B52 SLP110 P0000 T10391061 TSNO,KGKJ,2015-02-12T07:53:00Z,41.63,-80.22,-3.9,-6.1,290,10,,3.0,29.811024,1011.0,,TRUE,TRUE,,,TRUE,,,-SN BR,BKN,1100,BKN,1700,OVC,5500,,,MVFR,,,,,,0.0050,,,,,,METAR,428.0
KGJT 120753Z AUTO 07004KT 10SM CLR M01/M06 A3040 RMK AO2 SLP284 T10061056,KGJT,2015-02-12T07:53:00Z,39.12,-108.52,-0.6,-5.6,70,4,,10.0,30.398623,1028.4,,TRUE,TRUE,,,,,,,CLR,,,,,,,,VFR,,,,,,,,,,,,METAR,1475.0
KGIF 120753Z AUTO 00000KT 7SM CLR 09/07 A3006 RMK AO2 SLP177 T00890072,KGIF,2015-02-12T07:53:00Z,28.07,-81.75,8.9,7.2,0,0,,7.0,30.059055,1017.7,,TRUE,TRUE,,,,,,,CLR,,,,,,,,VFR,,,,,,,,,,,,METAR,43.0
KGGW 120753Z AUTO 11019G23KT 10SM CLR M13/M17 A3030 RMK AO2 SLP309 T11331167,KGGW,2015-02-12T07:53:00Z,48.22,-106.62,-13.3,-16.7,110,19,23,10.0,30.301182,1030.9,,TRUE,TRUE,,,,,,,CLR,,,,,,,,VFR,,,,,,,,,,,,METAR,694.0
KHRO 120753Z AUTO 30007KT 10SM CLR M03/M07 A3034 RMK AO2 SLP280 T10331067,KHRO,2015-02-12T07:53:00Z,36.27,-93.15,-3.3,-6.7,300,7,,10.0,30.339567,1028.0,,TRUE,TRUE,,,,,,,CLR,,,,,,,,VFR,,,,,,,,,,,,METAR,417.0
KHRI 120753Z AUTO 15003KT 4SM BR CLR 04/03 A3027 RMK AO2 SLP254 T00440033 401220006,KHRI,2015-02-12T07:53:00Z,45.83,-119.27,4.4,3.3,150,3,,4.0,30.268702,1025.4,,TRUE,TRUE,,,,,,BR,CLR,,,,,,,,MVFR,,,,12.2,0.6,,,,,,,METAR,195.0
KHQM 120753Z AUTO 35003KT 6SM -RA BR OVC100 11/09 A3021 RMK AO2 SLP232 P0000 T01060094 401330072,KHQM,2015-02-12T07:53:00Z,46.97,-123.93,10.6,9.4,350,3,,6.0,30.209646,1023.2,,TRUE,TRUE,,,,,,-RA BR,OVC,10000,,,,,,,VFR,,,,13.3,7.2,0.0050,,,,,,METAR,7.0
KHOU 120753Z 35003KT 4SM BR BCFG FEW250 11/11 A3017 RMK AO2 SLP220 T01060106 $,KHOU,2015-02-12T07:53:00Z,29.63,-95.28,10.6,10.6,350,3,,4.0,30.171259,1022.0,,,TRUE,TRUE,,,,,BR BCFG,FEW,25000,,,,,,,MVFR,,,,,,,,,,,,METAR,36.0
KHOT 120753Z AUTO 36004KT 10SM FEW110 07/M01 A3031 RMK AO2 SLP261 T00671006,KHOT,2015-02-12T07:53:00Z,34.48,-93.1,6.7,-0.6,360,4,,10.0,30.31004,1026.1,,TRUE,TRUE,,,,,,,FEW,11000,,,,,,,VFR,,,,,,,,,,,,METAR,162.0
KHLN 120753Z AUTO 00000KT 10SM OVC110 03/01 A3023 RMK AO2 SLPNO T00330006,KHLN,2015-02-12T07:53:00Z,46.6,-111.98,3.3,0.6,0,0,,10.0,30.230314,,,TRUE,TRUE,,,,,,,OVC,11000,,,,,,,VFR,,,,,,,,,,,,METAR,1182.0
KHLG 120753Z AUTO 28009KT 6SM BR BKN013 OVC020 M01/M02 A2985 RMK AO2 UPB02E12 SLP121 P0000 T10061022,KHLG,2015-02-12T07:53:00Z,40.17,-80.65,-0.6,-2.2,280,9,,6.0,29.84941,1012.1,,TRUE,TRUE,,,,,,BR,BKN,1300,OVC,2000,,,,,MVFR,,,,,,0.0050,,,,,,METAR,372.0
KHLC 120753Z AUTO 06008KT 10SM CLR M03/M07 A3047 RMK AO2 SLP332 T10331072,KHLC,2015-02-12T07:53:00Z,39.37,-99.83,-3.3,-7.2,60,8,,10.0,30.469488,1033.2,,TRUE,TRUE,,,,,,,CLR,,,,,,,,VFR,,,,,,,,,,,,METAR,669.0
KHKY 120753Z AUTO 00000KT 10SM CLR 03/M03 A2987 RMK AO2 SLP107 T00331033,KHKY,2015-02-12T07:53:00Z,35.75,-81.38,3.3,-3.3,0,0,,10.0,29.870079,1010.7,,TRUE,TRUE,,,,,,,CLR,,,,,,,,VFR,,,,,,,,,,,,METAR,354.0
KHKS 120753Z AUTO 10SM CLR 08/02 A3016 RMK AO2 SLP208 T00830017 PWINO $,KHKS,2015-02-12T07:53:00Z,32.33,-90.22,8.3,1.7,,,,10.0,30.159449,1020.8,,TRUE,TRUE,TRUE,,,,TRUE,,CLR,,,,,,,,VFR,,,,,,,,,,,,METAR,108.0
KHKA 120753Z AUTO 36008KT 10SM CLR M02/M04 A3028 RMK AO2 SLP255 T10171044,KHKA,2015-02-12T07:53:00Z,35.93,-89.83,-1.7,-4.4,360,8,,10.0,30.280512,1025.5,,TRUE,TRUE,,,,,,,CLR,,,,,,,,VFR,,,,,,,,,,,,METAR,78.0
KHJO 120753Z AUTO 34003KT 2 1/2SM BR CLR 10/09 A3020 RMK AO2 SLP229 T01000089 401890044,KHJO,2015-02-12T07:53:00Z,36.32,-119.62,10.0,8.9,340,3,,2.5,30.200787,1022.9,,TRUE,TRUE,,,,,,BR,CLR,,,,,,,,IFR,,,,18.9,4.4,,,,,,,METAR,74.0
KHIO 120753Z 04003KT 8SM SCT110 08/08 A3022 RMK AO2 SLP235 T00780078 401220028,KHIO,2015-02-12T07:53:00Z,45.55,-122.95,7.8,7.8,40,3,,8.0,30.221457,1023.5,,,TRUE,,,,,,,SCT,11000,,,,,,,VFR,,,,12.2,2.8,,,,,,,METAR,68.0
KHHR 120753Z 22003KT 10SM CLR 18/M01 A3008 RMK AO2 SLP183 T01831006 403170133,KHHR,2015-02-12T07:53:00Z,33.92,-118.33,18.3,-0.6,220,3,,10.0,30.079725,1018.3,,,TRUE,,,,,,,CLR,,,,,,,,VFR,,,,31.7,13.3,,,,,,,METAR,18.0
KHGR 120753Z AUTO 25003KT 10SM OVC043 03/M03 A2982 RMK AO2 SLP112 T00281033,KHGR,2015-02-12T07:53:00Z,39.7,-77.73,2.8,-3.3,250,3,,10.0,29.819881,1011.2,,TRUE,TRUE,,,,,,,OVC,4300,,,,,,,VFR,,,,,,,,,,,,METAR,224.0
KHEI 120753Z AUTO 14011KT 10SM CLR M16/M19 A3048 RMK AO2 SLP374 T11611194,KHEI,2015-02-12T07:53:00Z,46.02,-102.65,-16.1,-19.4,140,11,,10.0,30.481298,1037.4,,TRUE,TRUE,,,,,,,CLR,,,,,,,,VFR,,,,,,,,,,,,METAR,828.0
KHBR 120753Z AUTO 03007KT CLR 00/M05 A3044 RMK AO2 SLP315 T00001050,KHBR,2015-02-12T07:53:00Z,34.98,-99.05,0.0,-5.0,30,7,,,30.43996,1031.5,,TRUE,TRUE,,,,,,,CLR,,,,,,,,,,,,,,,,,,,,METAR,473.0
KHBG 120753Z AUTO 31004KT 10SM CLR 09/03 A3014 RMK AO2 SLP206 T00890033,KHBG,2015-02-12T07:53:00Z,31.27,-89.25,8.9,3.3,310,4,,10.0,30.138779,1020.6,,TRUE,TRUE,,,,,,,CLR,,,,,,,,VFR,,,,,,,,,,,,METAR,44.0
KHAO 120753Z AUTO 30008KT 10SM OVC031 M02/M07 A3004 RMK AO2 PK WND 29026/0713 SNB21E37 SLP179 P0000 T10171072,KHAO,2015-02-12T07:53:00Z,39.37,-84.52,-1.7,-7.2,300,8,,10.0,30.041338,1017.9,,TRUE,TRUE,,,,,,,OVC,3100,,,,,,,VFR,,,,,,0.0050,,,,,,METAR,188.0
KGZH 120753Z AUTO 00000KT 9SM CLR 03/02 A3009 RMK AO2 SLP187 T00280017,KGZH,2015-02-12T07:53:00Z,31.42,-87.05,2.8,1.7,0,0,,9.0,30.088583,1018.7,,TRUE,TRUE,,,,,,,CLR,,,,,,,,VFR,,,,,,,,,,,,METAR,78.0
KGWO 120753Z AUTO 36009KT 10SM CLR 06/02 A3021 RMK AO2 SLP229 T00610017,KGWO,2015-02-12T07:53:00Z,33.5,-90.08,6.1,1.7,360,9,,10.0,30.209646,1022.9,,TRUE,TRUE,,,,,,,CLR,,,,,,,,VFR,,,,,,,,,,,,METAR,44.0
KGVL 120753Z AUTO 30009KT 10SM CLR 06/M02 A2996 RMK AO2 SLP144 T00611022,KGVL,2015-02-12T07:53:00Z,34.27,-83.83,6.1,-2.2,300,9,,10.0,29.958662,1014.4,,TRUE,TRUE,,,,,,,CLR,,,,,,,,VFR,,,,,,,,,,,,METAR,386.0
KGUY 120753Z AUTO 26006KT 10SM CLR M04/M07 A3042 RMK AO2 SLP310 T10391072,KGUY,2015-02-12T07:53:00Z,36.68,-101.5,-3.9,-7.2,260,6,,10.0,30.41929,1031.0,,TRUE,TRUE,,,,,,,CLR,,,,,,,,VFR,,,,,,,,,,,,METAR,948.0
KGUP 120753Z AUTO 05004KT 10SM CLR M03/M05 A3043 RMK AO2 SLP289 T10331050,KGUP,2015-02-12T07:53:00Z,35.52,-108.8,-3.3,-5.0,50,4,,10.0,30.431103,1028.9,,TRUE,TRUE,,,,,,,CLR,,,,,,,,VFR,,,,,,,,,,,,METAR,1971.0
KGTF 120753Z 21007KT 10SM BKN095 01/M02 A3014 RMK AO2 SLP250 T00111022,KGTF,2015-02-12T07:53:00Z,47.47,-111.38,1.1,-2.2,210,7,,10.0,30.138779,1025.0,,,TRUE,,,,,,,BKN,9500,,,,,,,VFR,,,,,,,,,,,,METAR,1119.0
KGSP 120753Z AUTO 30003KT 10SM CLR 04/01 A2989 RMK AO2 SLP121 T00390006,KGSP,2015-02-12T07:53:00Z,34.9,-82.22,3.9,0.6,300,3,,10.0,29.890747,1012.1,,TRUE,TRUE,,,,,,,CLR,,,,,,,,VFR,,,,,,,,,,,,METAR,287.0
KHSV 120753Z AUTO 36007KT 10SM CLR 05/M01 A3010 RMK AO2 SLP193 T00501011,KHSV,2015-02-12T07:53:00Z,34.65,-86.78,5.0,-1.1,360,7,,10.0,30.100393,1019.3,,TRUE,TRUE,,,,,,,CLR,,,,,,,,VFR,,,,,,,,,,,,METAR,191.0
KHTL 120753Z AUTO 31008KT 10SM SCT019 M13/M17 A2995 RMK AO2 SNE37 SLP164 P0000 T11281167,KHTL,2015-02-12T07:53:00Z,44.35,-84.67,-12.8,-16.7,310,8,,10.0,29.949802,1016.4,,TRUE,TRUE,,,,,,,SCT,1900,,,,,,,VFR,,,,,,0.0050,,,,,,METAR,351.0
KHUF 120753Z 33014G18KT 10SM OVC026 M05/M10 A3015 RMK AO2 SLP217 T10501100,KHUF,2015-02-12T07:53:00Z,39.45,-87.3,-5.0,-10.0,330,14,18,10.0,30.15059,1021.7,,,TRUE,,,,,,,OVC,2600,,,,,,,MVFR,,,,,,,,,,,,METAR,179.0
KHVN 120753Z AUTO 00000KT 10SM FEW090 SCT120 M07/M11 A2988 RMK AO2 SLP116 T10721111,KHVN,2015-02-12T07:53:00Z,41.27,-72.87,-7.2,-11.1,0,0,,10.0,29.878937,1011.6,,TRUE,TRUE,,,,,,,FEW,9000,SCT,12000,,,,,VFR,,,,,,,,,,,,METAR,4.0
KD95 120753Z AUTO 34012G17KT 10SM OVC044 M08/M14 A2994 RMK AO2 T10801139,KD95,2015-02-12T07:53:00Z,43.07,-83.27,-8.0,-13.9,340,12,17,10.0,29.940945,,,TRUE,TRUE,,,,,,,OVC,4400,,,,,,,VFR,,,,,,,,,,,,METAR,255.0
KD39 120753Z AUTO 34011G15KT 10SM CLR M21/M24 A3060 RMK AO2 T12101242,KD39,2015-02-12T07:53:00Z,45.7,-94.93,-21.0,-24.2,340,11,15,10.0,30.59941,,,TRUE,TRUE,,,,,,,CLR,,,,,,,,VFR,,,,,,,,,,,,METAR,380.0
KBVY 120753Z AUTO 00000KT 10SM OVC024 M11/M16 A2987 RMK AO2 SLP114 T11111161,KBVY,2015-02-12T07:53:00Z,42.58,-70.92,-11.1,-16.1,0,0,,10.0,29.870079,1011.4,,TRUE,TRUE,,,,,,,OVC,2400,,,,,,,MVFR,,,,,,,,,,,,METAR,28.0
KBGR 120753Z 04006KT 10SM OVC017 M16/M21 A2990 RMK AO2 SLP132 T11611211,KBGR,2015-02-12T07:53:00Z,44.8,-68.82,-16.1,-21.1,40,6,,10.0,29.899607,1013.2,,,TRUE,,,,,,,OVC,1700,,,,,,,MVFR,,,,,,,,,,,,METAR,57.0
KBBB 120753Z AUTO 36008KT 10SM CLR M21/M24 A3063 RMK AO2,KBBB,2015-02-12T07:53:00Z,45.32,-95.65,-21.0,-24.0,360,8,,10.0,30.628937,,,TRUE,TRUE,,,,,,,CLR,,,,,,,,VFR,,,,,,,,,,,,METAR,317.0
KAUG 120753Z AUTO 35006KT 10SM CLR M16/M20 A2988 RMK AO2 SLP128 T11561200,KAUG,2015-02-12T07:53:00Z,44.32,-69.8,-15.6,-20.0,350,6,,10.0,29.878937,1012.8,,TRUE,TRUE,,,,,,,CLR,,,,,,,,VFR,,,,,,,,,,,,METAR,109.0
KAEL 120753Z AUTO 33013G19KT 10SM CLR M17/M21 A3047 RMK AO2,KAEL,2015-02-12T07:53:00Z,43.68,-93.37,-17.0,-21.0,330,13,19,10.0,30.469488,,,TRUE,TRUE,,,,,,,CLR,,,,,,,,VFR,,,,,,,,,,,,METAR,383.0
KACK 120753Z AUTO 32014KT 10SM FEW014 SCT020 OVC024 M02/M06 A2984 RMK AO2 SLP104 T10221056,KACK,2015-02-12T07:53:00Z,41.25,-70.07,-2.2,-5.6,320,14,,10.0,29.840551,1010.4,,TRUE,TRUE,,,,,,,FEW,1400,SCT,2000,OVC,2400,,,MVFR,,,,,,,,,,,,METAR,16.0
K9MN 120753Z AUTO 32011G21KT 250V350 10SM CLR M17/M22 A3045 RMK AO1 T11711217,K9MN,2015-02-12T07:53:00Z,44.02,-92.48,-17.1,-21.7,320,11,21,10.0,30.448818,,,TRUE,TRUE,,,,,,,CLR,,,,,,,,VFR,,,,,,,,,,,,METAR,355.0
K04W 120753Z AUTO 34009KT 10SM CLR M18/M22 A3053 RMK AO2,K04W,2015-02-12T07:53:00Z,46.02,-92.9,-18.0,-22.0,340,9,,10.0,30.528543,,,TRUE,TRUE,,,,,,,CLR,,,,,,,,VFR,,,,,,,,,,,,METAR,311.0
KPSC 120753Z AUTO 00000KT 10SM SCT110 07/07 A3028 RMK AO2 SLP254 T00670067 401280011,KPSC,2015-02-12T07:53:00Z,46.27,-119.12,6.7,6.7,0,0,,10.0,30.280512,1025.4,,TRUE,TRUE,,,,,,,SCT,11000,,,,,,,VFR,,,,12.8,1.1,,,,,,,METAR,121.0
KPRC 120753Z AUTO 30006KT 10SM CLR 04/M04 A3032 RMK AO2 SLP230 T00391039 $,KPRC,2015-02-12T07:53:00Z,34.65,-112.42,3.9,-3.9,300,6,,10.0,30.318897,1023.0,,TRUE,TRUE,TRUE,,,,,,CLR,,,,,,,,VFR,,,,,,,,,,,,METAR,1524.0
KPRB 120753Z AUTO 00000KT 10SM CLR 10/06 A3018 RMK AO2 SLP219 T01000061 402220039 TSNO $,KPRB,2015-02-12T07:53:00Z,35.67,-120.63,10.0,6.1,0,0,,10.0,30.180119,1021.9,,TRUE,TRUE,TRUE,,TRUE,,,,CLR,,,,,,,,VFR,,,,22.2,3.9,,,,,,,METAR,245.0
KPQL 120753Z AUTO 00000KT 4SM BR CLR 04/04 A3011 RMK AO2 SLP196 T00440039 TSNO $,KPQL,2015-02-12T07:53:00Z,30.47,-88.53,4.4,3.9,0,0,,4.0,30.109253,1019.6,,TRUE,TRUE,TRUE,,TRUE,,,BR,CLR,,,,,,,,MVFR,,,,,,,,,,,,METAR,6.0
KPOU 120753Z AUTO 17004KT 10SM OVC042 M03/M09 A2983 RMK AO2 SLP101 T10281094,KPOU,2015-02-12T07:53:00Z,41.63,-73.88,-2.8,-9.4,170,4,,10.0,29.828741,1010.1,,TRUE,TRUE,,,,,,,OVC,4200,,,,,,,VFR,,,,,,,,,,,,METAR,46.0
KPOF 120753Z AUTO 33011KT 10SM CLR M01/M07 A3026 RMK AO2 SLP250 I1000 T10061067,KPOF,2015-02-12T07:53:00Z,36.77,-90.32,-0.6,-6.7,330,11,,10.0,30.259842,1025.0,,TRUE,TRUE,,,,,,,CLR,,,,,,,,VFR,,,,,,,,,,,,METAR,99.0
KPNS 120753Z AUTO 32005KT 8SM CLR 08/06 A3007 RMK AO2 SLP187 T00780056,KPNS,2015-02-12T07:53:00Z,30.48,-87.18,7.8,5.6,320,5,,8.0,30.070866,1018.7,,TRUE,TRUE,,,,,,,CLR,,,,,,,,VFR,,,,,,,,,,,,METAR,38.0
KPNC 120753Z AUTO 01003KT 10SM CLR M07/M09 A3045 RMK AO2 SLP319 T10721089,KPNC,2015-02-12T07:53:00Z,36.73,-97.1,-7.2,-8.9,10,3,,10.0,30.448818,1031.9,,TRUE,TRUE,,,,,,,CLR,,,,,,,,VFR,,,,,,,,,,,,METAR,308.0
KPMP 120753Z 35007KT 10SM CLR 16/10 A3003 RMK AO2 SLP168 T01560100,KPMP,2015-02-12T07:53:00Z,26.25,-80.12,15.6,10.0,350,7,,10.0,30.029528,1016.8,,,TRUE,,,,,,,CLR,,,,,,,,VFR,,,,,,,,,,,,METAR,6.0
KPMD 120753Z AUTO 29007KT 10SM CLR 06/M03 A3026 RMK AO2 SLP238 T00611033 402060006,KPMD,2015-02-12T07:53:00Z,34.63,-118.08,6.1,-3.3,290,7,,10.0,30.259842,1023.8,,TRUE,TRUE,,,,,,,CLR,,,,,,,,VFR,,,,20.6,0.6,,,,,,,METAR,780.0
KPKD 120753Z AUTO 34007KT 10SM CLR M23/M26 A3057 RMK AO2 SLP397 T12281256,KPKD,2015-02-12T07:53:00Z,46.9,-95.07,-22.8,-25.6,340,7,,10.0,30.569881,1039.7,,TRUE,TRUE,,,,,,,CLR,,,,,,,,VFR,,,,,,,,,,,,METAR,442.0
KPKB 120753Z AUTO 25004KT 6SM BR FEW006 SCT009 OVC047 01/M01 A2994 RMK AO2 SLP144 T00061011,KPKB,2015-02-12T07:53:00Z,39.35,-81.42,0.6,-1.1,250,4,,6.0,29.940945,1014.4,,TRUE,TRUE,,,,,,BR,FEW,600,SCT,900,OVC,4700,,,VFR,,,,,,,,,,,,METAR,262.0
KPIR 120753Z AUTO 05009KT 10SM CLR M17/M20 A3062 RMK AO2 SLP406 T11721200,KPIR,2015-02-12T07:53:00Z,44.38,-100.28,-17.2,-20.0,50,9,,10.0,30.620079,1040.6,,TRUE,TRUE,,,,,,,CLR,,,,,,,,VFR,,,,,,,,,,,,METAR,526.0
KPIL 120753Z AUTO 08005KT 7SM CLR 18/16 A3010 RMK AO2 SLP193 T01780161,KPIL,2015-02-12T07:53:00Z,26.17,-97.33,17.8,16.1,80,5,,7.0,30.100393,1019.3,,TRUE,TRUE,,,,,,,CLR,,,,,,,,VFR,,,,,,,,,,,,METAR,5.0
KPIH 120753Z AUTO 02006KT 10SM BKN120 M01/M01 A3037 RMK AO2 SLP294 T10061011,KPIH,2015-02-12T07:53:00Z,42.92,-112.57,-0.6,-1.1,20,6,,10.0,30.369095,1029.4,,TRUE,TRUE,,,,,,,BKN,12000,,,,,,,VFR,,,,,,,,,,,,METAR,1359.0
KPIE 120753Z AUTO 00000KT 10SM CLR 08/08 A3006 RMK AO2 SLP179 T00830078,KPIE,2015-02-12T07:53:00Z,27.92,-82.68,8.3,7.8,0,0,,10.0,30.059055,1017.9,,TRUE,TRUE,,,,,,,CLR,,,,,,,,VFR,,,,,,,,,,,,METAR,4.0
KPHD 120753Z AUTO 30010KT 4SM -SN SCT015 SCT025 OVC039 M01/M04 A2991 RMK AO2 SNB0659 SLP136 P0000 T10061044,KPHD,2015-02-12T07:53:00Z,40.47,-81.42,-0.6,-4.4,300,10,,4.0,29.911417,1013.6,,TRUE,TRUE,,,,,,-SN,SCT,1500,SCT,2500,OVC,3900,,,MVFR,,,,,,0.0050,,,,,,METAR,272.0
KPGD 120753Z AUTO 00000KT 8SM CLR 08/07 A3007 RMK AO2 SLP183 T00780072,KPGD,2015-02-12T07:53:00Z,26.92,-82.0,7.8,7.2,0,0,,8.0,30.070866,1018.3,,TRUE,TRUE,,,,,,,CLR,,,,,,,,VFR,,,,,,,,,,,,METAR,7.0
KPGA 120753Z AUTO 00000KT 10SM CLR 07/M04 A3038 RMK AO2 SLP267 T00671039 TSNO,KPGA,2015-02-12T07:53:00Z,36.92,-111.45,6.7,-3.9,0,0,,10.0,30.380905,1026.7,,TRUE,TRUE,,,TRUE,,,,CLR,,,,,,,,VFR,,,,,,,,,,,,METAR,1307.0
KPEO 120753Z AUTO 31005KT 10SM OVC024 M01/M04 A2973 RMK AO2 SLP078 T10061039,KPEO,2015-02-12T07:53:00Z,42.65,-77.05,-0.6,-3.9,310,5,,10.0,29.731298,1007.8,,TRUE,TRUE,,,,,,,OVC,2400,,,,,,,MVFR,,,,,,,,,,,,METAR,256.0
KPDX 120753Z 15004KT 10SM FEW070 BKN120 09/08 A3023 RMK AO2 SLP238 T00940078 401390044,KPDX,2015-02-12T07:53:00Z,45.6,-122.62,9.4,7.8,150,4,,10.0,30.230314,1023.8,,,TRUE,,,,,,,FEW,7000,BKN,12000,,,,,VFR,,,,13.9,4.4,,,,,,,METAR,7.0
KPDT 120753Z AUTO 00000KT 1 1/2SM BR CLR 04/04 A3026 RMK AO2 SLP244 T00440039 401390033,KPDT,2015-02-12T07:53:00Z,45.7,-118.83,4.4,3.9,0,0,,1.5,30.259842,1024.4,,TRUE,TRUE,,,,,,BR,CLR,,,,,,,,IFR,,,,13.9,3.3,,,,,,,METAR,462.0
KPDK 120753Z AUTO 28006KT 10SM CLR 06/M02 A2999 RMK AO2 SLP159 T00561017,KPDK,2015-02-12T07:53:00Z,33.88,-84.3,5.6,-1.7,280,6,,10.0,29.991142,1015.9,,TRUE,TRUE,,,,,,,CLR,,,,,,,,VFR,,,,,,,,,,,,METAR,302.0
KPBI 120753Z 33006KT 10SM CLR 12/10 A3003 RMK AO2 SLP167 T01220100,KPBI,2015-02-12T07:53:00Z,26.68,-80.1,12.2,10.0,330,6,,10.0,30.029528,1016.7,,,TRUE,,,,,,,CLR,,,,,,,,VFR,,,,,,,,,,,,METAR,6.0
KPBG 120753Z AUTO 00000KT 9SM OVC035 M10/M13 A2974 RMK AO2 SNE43 SLP075 P0000 T11001128,KPBG,2015-02-12T07:53:00Z,44.65,-73.47,-10.0,-12.8,0,0,,9.0,29.740158,1007.5,,TRUE,TRUE,,,,,,,OVC,3500,,,,,,,VFR,,,,,,0.0050,,,,,,METAR,72.0
KPBF 120753Z AUTO 01014KT 10SM CLR 04/M02 A3030 RMK AO2 SLP261 T00441022,KPBF,2015-02-12T07:53:00Z,34.18,-91.93,4.4,-2.2,10,14,,10.0,30.301182,1026.1,,TRUE,TRUE,,,,,,,CLR,,,,,,,,VFR,,,,,,,,,,,,METAR,62.0
KPAH 120753Z AUTO 31008KT 10SM CLR M02/M07 A3022 RMK AO2 SLP234 T10171067,KPAH,2015-02-12T07:53:00Z,37.07,-88.77,-1.7,-6.7,310,8,,10.0,30.221457,1023.4,,TRUE,TRUE,,,,,,,CLR,,,,,,,,VFR,,,,,,,,,,,,METAR,119.0
KPAE 120753Z AUTO 16009KT 10SM FEW065 BKN090 OVC110 11/07 A3022 RMK AO2 SLP235 T01110067 401330061,KPAE,2015-02-12T07:53:00Z,47.92,-122.28,11.1,6.7,160,9,,10.0,30.221457,1023.5,,TRUE,TRUE,,,,,,,FEW,6500,BKN,9000,OVC,11000,,,VFR,,,,13.3,6.1,,,,,,,METAR,180.0
KOXB 120753Z AUTO 23004KT 10SM CLR M02/M03 A2990 RMK AO2 SLP126 T10171033 TSNO,KOXB,2015-02-12T07:53:00Z,38.32,-75.12,-1.7,-3.3,230,4,,10.0,29.899607,1012.6,,TRUE,TRUE,,,TRUE,,,,CLR,,,,,,,,VFR,,,,,,,,,,,,METAR,3.0
KOVS 120753Z AUTO 36012G20KT 5SM HZ BKN025 OVC038 M11/M16 A3034 RMK AO2 SNB0658E0659B37E52 SLP288 P0000 T11111161,KOVS,2015-02-12T07:53:00Z,43.15,-90.68,-11.1,-16.1,360,12,20,5.0,30.339567,1028.8,,TRUE,TRUE,,,,,,HZ,BKN,2500,OVC,3800,,,,,MVFR,,,,,,0.0050,,,,,,METAR,202.0
TIST 120753Z 02009KT 10SM CLR 24/22 A2989 RMK AO2 SLP121 T02440222,TIST,2015-02-12T07:53:00Z,18.33,-64.98,24.4,22.2,20,9,,10.0,29.890747,1012.1,,,TRUE,,,,,,,CLR,,,,,,,,VFR,,,,,,,,,,,,METAR,7.0
TISX 120753Z 32003KT 10SM BKN049 BKN100 24/22 A2990 RMK AO2 RAB05E25 SLP125 P0000 T02390222,TISX,2015-02-12T07:53:00Z,17.7,-64.8,23.9,22.2,320,3,,10.0,29.899607,1012.5,,,TRUE,,,,,,,BKN,4900,BKN,10000,,,,,VFR,,,,,,0.0050,,,,,,METAR,19.0
KVCB 120753Z AUTO 00000KT 10SM CLR 09/07 A3022 RMK AO2 SLP233 T00940072 401940039,KVCB,2015-02-12T07:53:00Z,38.38,-121.95,9.4,7.2,0,0,,10.0,30.221457,1023.3,,TRUE,TRUE,,,,,,,CLR,,,,,,,,VFR,,,,19.4,3.9,,,,,,,METAR,33.0
KUTS 120753Z AUTO 01005KT 10SM FEW050 12/08 A3022 RMK AO2 SLP230 T01220078,KUTS,2015-02-12T07:53:00Z,30.75,-95.58,12.2,7.8,10,5,,10.0,30.221457,1023.0,,TRUE,TRUE,,,,,,,FEW,5000,,,,,,,VFR,,,,,,,,,,,,METAR,104.0
KUIL 120753Z AUTO 16003KT 7SM FEW075 OVC090 11/09 A3019 RMK AO2 RAB0659E44 SLP225 P0000 T01060089 401390056,KUIL,2015-02-12T07:53:00Z,47.93,-124.55,10.6,8.9,160,3,,7.0,30.188976,1022.5,,TRUE,TRUE,,,,,,,FEW,7500,OVC,9000,,,,,VFR,,,,13.9,5.6,0.0050,,,,,,METAR,54.0
KUAO 120753Z AUTO 00000KT 1/2SM FG VV003 07/07 A3024 RMK AO2 SLP239 T00670067 401110044,KUAO,2015-02-12T07:53:00Z,45.25,-122.77,6.7,6.7,0,0,,0.5,30.239174,1023.9,,TRUE,TRUE,,,,,,FG,OVX,0,,,,,,,LIFR,,,,11.1,4.4,,,,,,300,METAR,59.0
KTYS 120753Z 23003KT 10SM BKN039 01/M02 A3003 RMK AO2 SLP169 T00111022,KTYS,2015-02-12T07:53:00Z,35.82,-83.98,1.1,-2.2,230,3,,10.0,30.029528,1016.9,,,TRUE,,,,,,,BKN,3900,,,,,,,VFR,,,,,,,,,,,,METAR,302.0
KTYR 120753Z 36012KT 10SM CLR 08/01 A3028 RMK AO2 SLP250 T00780011,KTYR,2015-02-12T07:53:00Z,32.37,-95.4,7.8,1.1,360,12,,10.0,30.280512,1025.0,,,TRUE,,,,,,,CLR,,,,,,,,VFR,,,,,,,,,,,,METAR,165.0
KTXK 120753Z AUTO 36007KT 9SM CLR 07/03 A3028 RMK AO2 SLP253 T00670028,KTXK,2015-02-12T07:53:00Z,33.45,-93.98,6.7,2.8,360,7,,9.0,30.280512,1025.3,,TRUE,TRUE,,,,,,,CLR,,,,,,,,VFR,,,,,,,,,,,,METAR,111.0
KTVR 120753Z AUTO 35003KT 10SM CLR 04/01 A3018 RMK AO2 SLP226 T00440011,KTVR,2015-02-12T07:53:00Z,32.35,-91.03,4.4,1.1,350,3,,10.0,30.180119,1022.6,,TRUE,TRUE,,,,,,,CLR,,,,,,,,VFR,,,,,,,,,,,,METAR,26.0
KTVL 120753Z AUTO 00000KT 10SM CLR 00/M03 A3038 RMK AO2 SLP272 T00001028 401221033,KTVL,2015-02-12T07:53:00Z,38.9,-120.0,0.0,-2.8,0,0,,10.0,30.380905,1027.2,,TRUE,TRUE,,,,,,,CLR,,,,,,,,VFR,,,,12.2,-3.3,,,,,,,METAR,1924.0
KTVC 120753Z AUTO 34021G32KT 1SM -SN BKN015 OVC025 M11/M14 A3006 RMK AO2 PK WND 34032/0753 SLP190 P0000 T11111144,KTVC,2015-02-12T07:53:00Z,44.73,-85.57,-11.1,-14.4,340,21,32,1.0,30.059055,1019.0,,TRUE,TRUE,,,,,,-SN,BKN,1500,OVC,2500,,,,,IFR,,,,,,0.0050,,,,,,METAR,190.0
KTUS 120753Z VRB03KT 10SM CLR 15/01 A3019 RMK AO2 SLP192 T01500011,KTUS,2015-02-12T07:53:00Z,32.13,-110.95,15.0,1.1,0,3,,10.0,30.188976,1019.2,,,TRUE,,,,,,,CLR,,,,,,,,VFR,,,,,,,,,,,,METAR,776.0
KTUL 120753Z 34004KT 10SM FEW110 M03/M06 A3044 RMK AO2 SLP311 T10331061,KTUL,2015-02-12T07:53:00Z,36.2,-95.88,-3.3,-6.1,340,4,,10.0,30.43996,1031.1,,,TRUE,,,,,,,FEW,11000,,,,,,,VFR,,,,,,,,,,,,METAR,207.0
KTTN 120753Z AUTO 18006KT 10SM OVC060 M03/M07 A2986 RMK AO2 SLP106 T10281067,KTTN,2015-02-12T07:53:00Z,40.28,-74.82,-2.8,-6.7,180,6,,10.0,29.861221,1010.6,,TRUE,TRUE,,,,,,,OVC,6000,,,,,,,VFR,,,,,,,,,,,,METAR,59.0
KTTD 120753Z AUTO 10012KT 10SM BKN120 11/07 A3022 RMK AO2 SLP232 T01110067 401330072,KTTD,2015-02-12T07:53:00Z,45.55,-122.42,11.1,6.7,100,12,,10.0,30.221457,1023.2,,TRUE,TRUE,,,,,,,BKN,12000,,,,,,,VFR,,,,13.3,7.2,,,,,,,METAR,14.0
KTRL 120753Z AUTO 36010G19KT 10SM CLR 07/M02 A3034 RMK AO2 SLP271 T00721022,KTRL,2015-02-12T07:53:00Z,32.72,-96.27,7.2,-2.2,360,10,19,10.0,30.339567,1027.1,,TRUE,TRUE,,,,,,,CLR,,,,,,,,VFR,,,,,,,,,,,,METAR,145.0
KTRI 120753Z 24009KT 10SM OVC036 05/M02 A2996 RMK AO2 SLP137 T00501017,KTRI,2015-02-12T07:53:00Z,36.48,-82.4,5.0,-1.7,240,9,,10.0,29.958662,1013.7,,,TRUE,,,,,,,OVC,3600,,,,,,,VFR,,,,,,,,,,,,METAR,474.0
KTPA 120753Z 00000KT 10SM CLR 10/07 A3007 RMK AO2 SLP181 T01000072,KTPA,2015-02-12T07:53:00Z,27.97,-82.53,10.0,7.2,0,0,,10.0,30.070866,1018.1,,,TRUE,,,,,,,CLR,,,,,,,,VFR,,,,,,,,,,,,METAR,11.0
KTOR 120753Z AUTO 10007KT 10SM CLR M03/M05 A3034 RMK AO2 SLP287 T10331050,KTOR,2015-02-12T07:53:00Z,42.07,-104.15,-3.3,-5.0,100,7,,10.0,30.339567,1028.7,,TRUE,TRUE,,,,,,,CLR,,,,,,,,VFR,,,,,,,,,,,,METAR,1277.0
KTOP 120753Z AUTO 33014G23KT 10SM OVC042 M01/M08 A3046 RMK AO2 SLP325 T10061078,KTOP,2015-02-12T07:53:00Z,39.07,-95.63,-0.6,-7.8,330,14,23,10.0,30.46063,1032.5,,TRUE,TRUE,,,,,,,OVC,4200,,,,,,,VFR,,,,,,,,,,,,METAR,268.0
KTOI 120753Z AUTO 00000KT 10SM CLR 03/00 A3006 RMK AO2 SLP178 T00280000,KTOI,2015-02-12T07:53:00Z,31.85,-86.02,2.8,0.0,0,0,,10.0,30.059055,1017.8,,TRUE,TRUE,,,,,,,CLR,,,,,,,,VFR,,,,,,,,,,,,METAR,118.0
KTMB 120753Z 34007KT 10SM CLR 14/12 A3003 RMK AO2 SLP170 T01390122,KTMB,2015-02-12T07:53:00Z,25.65,-80.43,13.9,12.2,340,7,,10.0,30.029528,1017.0,,,TRUE,,,,,,,CLR,,,,,,,,VFR,,,,,,,,,,,,METAR,2.0
KTLH 120753Z AUTO 00000KT 10SM CLR 08/06 A3005 RMK AO2 SLP175 T00780056 $,KTLH,2015-02-12T07:53:00Z,30.4,-84.35,7.8,5.6,0,0,,10.0,30.050198,1017.5,,TRUE,TRUE,TRUE,,,,,,CLR,,,,,,,,VFR,,,,,,,,,,,,METAR,19.0
KTKI 120753Z AUTO 01012KT 10SM CLR 06/M02 A3034 RMK AO2 SLP281 T00611017,KTKI,2015-02-12T07:53:00Z,33.18,-96.58,6.1,-1.7,10,12,,10.0,30.339567,1028.1,,TRUE,TRUE,,,,,,,CLR,,,,,,,,VFR,,,,,,,,,,,,METAR,179.0
KTHV 120753Z AUTO 00000KT 8SM BKN037 OVC055 M01/M04 A2982 RMK AO2 SLP105 T10061039,KTHV,2015-02-12T07:53:00Z,39.92,-76.88,-0.6,-3.9,0,0,,8.0,29.819881,1010.5,,TRUE,TRUE,,,,,,,BKN,3700,OVC,5500,,,,,VFR,,,,,,,,,,,,METAR,144.0
KTDZ 120753Z AUTO 30007KT 2 1/2SM -SN BR OVC032 M03/M06 A2995 RMK AO2 VIS 1 3/4V5 SNB11 SLP148 P0000 T10331056 TSNO,KTDZ,2015-02-12T07:53:00Z,41.57,-83.48,-3.3,-5.6,300,7,,2.5,29.949802,1014.8,,TRUE,TRUE,,,TRUE,,,-SN BR,OVC,3200,,,,,,,IFR,,,,,,0.0050,,,,,,METAR,189.0
KTCS 120753Z AUTO 02014KT 10SM CLR 04/M02 A3037 RMK AO2 SLP249 T00441017 TSNO,KTCS,2015-02-12T07:53:00Z,33.23,-107.27,4.4,-1.7,20,14,,10.0,30.369095,1024.9,,TRUE,TRUE,,,TRUE,,,,CLR,,,,,,,,VFR,,,,,,,,,,,,METAR,1469.0
KTCL 120753Z AUTO 32003KT 10SM CLR 04/00 A3011 RMK AO2 SLP195 T00390000,KTCL,2015-02-12T07:53:00Z,33.22,-87.62,3.9,0.0,320,3,,10.0,30.109253,1019.5,,TRUE,TRUE,,,,,,,CLR,,,,,,,,VFR,,,,,,,,,,,,METAR,49.0
KTCC 120753Z AUTO 30005KT 10SM CLR M01/M02 A3043 RMK AO2 SLP319 T10111022,KTCC,2015-02-12T07:53:00Z,35.18,-103.6,-1.1,-2.2,300,5,,10.0,30.431103,1031.9,,TRUE,TRUE,,,,,,,CLR,,,,,,,,VFR,,,,,,,,,,,,METAR,1235.0
KSWO 120753Z AUTO 00000KT 10SM CLR M03/M07 A3043 RMK AO2 SLP311 T10331067 TSNO,KSWO,2015-02-12T07:53:00Z,36.17,-97.08,-3.3,-6.7,0,0,,10.0,30.431103,1031.1,,TRUE,TRUE,,,TRUE,,,,CLR,,,,,,,,VFR,,,,,,,,,,,,METAR,290.0
KSTS 120753Z AUTO 00000KT 10SM CLR 09/08 A3020 RMK AO2 SLP219 T00940083 401940039,KSTS,2015-02-12T07:53:00Z,38.5,-122.82,9.4,8.3,0,0,,10.0,30.200787,1021.9,,TRUE,TRUE,,,,,,,CLR,,,,,,,,VFR,,,,19.4,3.9,,,,,,,METAR,39.0
KSTP 120753Z AUTO 33014KT 10SM CLR M17/M22 A3057 RMK AO2 SLP367 T11721217,KSTP,2015-02-12T07:53:00Z,44.93,-93.05,-17.2,-21.7,330,14,,10.0,30.569881,1036.7,,TRUE,TRUE,,,,,,,CLR,,,,,,,,VFR,,,,,,,,,,,,METAR,219.0
KSTJ 120753Z AUTO 34026G30KT 10SM FEW034 M06/M11 A3050 RMK AO2 PK WND 36031/0742 PRESRR SLP337 T10561106,KSTJ,2015-02-12T07:53:00Z,39.77,-94.92,-5.6,-10.6,340,26,30,10.0,30.499016,1033.7,,TRUE,TRUE,,,,,,,FEW,3400,,,,,,,VFR,,,,,,,,,,,,METAR,247.0
KSTC 120753Z AUTO 33011KT 10SM CLR M19/M23 A3056 RMK AO2 SLP386 T11941233,KSTC,2015-02-12T07:53:00Z,45.55,-94.05,-19.4,-23.3,330,11,,10.0,30.561024,1038.6,,TRUE,TRUE,,,,,,,CLR,,,,,,,,VFR,,,,,,,,,,,,METAR,314.0
KSSI 120753Z AUTO 24006KT 10SM CLR 08/07 A3001 RMK AO2 SLP162 T00830067,KSSI,2015-02-12T07:53:00Z,31.15,-81.38,8.3,6.7,240,6,,10.0,30.008858,1016.2,,TRUE,TRUE,,,,,,,CLR,,,,,,,,VFR,,,,,,,,,,,,METAR,6.0
KSSF 120753Z AUTO 03011KT 10SM OVC024 16/09 A3021 RMK AO2 SLP225 T01560094,KSSF,2015-02-12T07:53:00Z,29.33,-98.47,15.6,9.4,30,11,,10.0,30.209646,1022.5,,TRUE,TRUE,,,,,,,OVC,2400,,,,,,,MVFR,,,,,,,,,,,,METAR,176.0
KSRQ 120753Z 00000KT 10SM CLR 08/07 A3004 RMK AO2 SLP173 T00780072,KSRQ,2015-02-12T07:53:00Z,27.4,-82.57,7.8,7.2,0,0,,10.0,30.041338,1017.3,,,TRUE,,,,,,,CLR,,,,,,,,VFR,,,,,,,,,,,,METAR,18.0
KSPW 120753Z AUTO 34019KT 4SM BLSN OVC017 M17/M21 A3056 RMK AO2 PK WND 33030/0705 SLP378 T11671206 TSNO,KSPW,2015-02-12T07:53:00Z,43.17,-95.22,-16.7,-20.6,340,19,,4.0,30.561024,1037.8,,TRUE,TRUE,,,TRUE,,,BLSN,OVC,1700,,,,,,,MVFR,,,,,,,,,,,,METAR,403.0
KSPG 120753Z AUTO 08006KT 10SM CLR 13/09 A3004 RMK AO2 SLP173 T01330094,KSPG,2015-02-12T07:53:00Z,27.77,-82.63,13.3,9.4,80,6,,10.0,30.041338,1017.3,,TRUE,TRUE,,,,,,,CLR,,,,,,,,VFR,,,,,,,,,,,,METAR,2.0
KSPB 120753Z AUTO 00000KT 10SM OVC110 09/08 A3023 RMK AO2 SLP235 T00890078 401390028,KSPB,2015-02-12T07:53:00Z,45.77,-122.87,8.9,7.8,0,0,,10.0,30.230314,1023.5,,TRUE,TRUE,,,,,,,OVC,11000,,,,,,,VFR,,,,13.9,2.8,,,,,,,METAR,14.0
KSNY 120753Z AUTO 10006KT 10SM CLR M05/M07 A3037 RMK AO2 SLP305 T10501067,KSNY,2015-02-12T07:53:00Z,41.1,-102.98,-5.0,-6.7,100,6,,10.0,30.369095,1030.5,,TRUE,TRUE,,,,,,,CLR,,,,,,,,VFR,,,,,,,,,,,,METAR,1307.0
KSNS 120753Z AUTO 08006KT 10SM CLR 14/09 A3015 RMK AO2 SLP219 T01440089 402330056,KSNS,2015-02-12T07:53:00Z,36.67,-121.6,14.4,8.9,80,6,,10.0,30.15059,1021.9,,TRUE,TRUE,,,,,,,CLR,,,,,,,,VFR,,,,23.3,5.6,,,,,,,METAR,30.0
KSNA 120753Z AUTO 00000KT 10SM CLR 18/M01 A3005 RMK AO2 SLP176 T01781011 403220122 TSNO $,KSNA,2015-02-12T07:53:00Z,33.67,-117.87,17.8,-1.1,0,0,,10.0,30.050198,1017.6,,TRUE,TRUE,TRUE,,TRUE,,,,CLR,,,,,,,,VFR,,,,32.2,12.2,,,,,,,METAR,16.0
KSMQ 120753Z AUTO 00000KT 10SM SCT048 OVC070 M04/M07 A2985 RMK AO2 SLP109 T10391072 TSNO,KSMQ,2015-02-12T07:53:00Z,40.62,-74.67,-3.9,-7.2,0,0,,10.0,29.84941,1010.9,,TRUE,TRUE,,,TRUE,,,,SCT,4800,OVC,7000,,,,,VFR,,,,,,,,,,,,METAR,30.0
KSMF 120753Z 00000KT 10SM BKN250 09/08 A3020 RMK AO2 SLP226 T00940083 401720028,KSMF,2015-02-12T07:53:00Z,38.7,-121.6,9.4,8.3,0,0,,10.0,30.200787,1022.6,,,TRUE,,,,,,,BKN,25000,,,,,,,VFR,,,,17.2,2.8,,,,,,,METAR,6.0
KSLN 120753Z AUTO 32006KT 10SM CLR M04/M07 A3049 RMK AO2 SLP335 T10391072,KSLN,2015-02-12T07:53:00Z,38.78,-97.65,-3.9,-7.2,320,6,,10.0,30.490158,1033.5,,TRUE,TRUE,,,,,,,CLR,,,,,,,,VFR,,,,,,,,,,,,METAR,385.0
KSLC 120753Z 14005KT 10SM FEW200 04/M02 A3040 RMK AO2 SLP287 T00391017,KSLC,2015-02-12T07:53:00Z,40.77,-111.97,3.9,-1.7,140,5,,10.0,30.398623,1028.7,,,TRUE,,,,,,,FEW,20000,,,,,,,VFR,,,,,,,,,,,,METAR,1286.0
KSJC 120753Z 00000KT 10SM SCT200 12/08 A3018 RMK AO2 SLP220 T01170083 402000050,KSJC,2015-02-12T07:53:00Z,37.37,-121.92,11.7,8.3,0,0,,10.0,30.180119,1022.0,,,TRUE,,,,,,,SCT,20000,,,,,,,VFR,,,,20.0,5.0,,,,,,,METAR,24.0
KSIY 120753Z AUTO 07003KT 10SM CLR 03/01 A3030 RMK AO2 SLP279 T00280011 401061011,KSIY,2015-02-12T07:53:00Z,41.77,-122.47,2.8,1.1,70,3,,10.0,30.301182,1027.9,,TRUE,TRUE,,,,,,,CLR,,,,,,,,VFR,,,,10.6,-1.1,,,,,,,METAR,807.0
KSHR 120753Z AUTO 32006KT 10SM FEW120 M03/M04 A3021 RMK AO2 SLP255 T10281044,KSHR,2015-02-12T07:53:00Z,44.77,-106.97,-2.8,-4.4,320,6,,10.0,30.209646,1025.5,,TRUE,TRUE,,,,,,,FEW,12000,,,,,,,VFR,,,,,,,,,,,,METAR,1202.0
KSHN 120753Z AUTO 20004KT 9SM -RA OVC100 09/08 A3020 RMK AO2 SLP228 P0001 T00890083 401280028,KSHN,2015-02-12T07:53:00Z,47.23,-123.13,8.9,8.3,200,4,,9.0,30.200787,1022.8,,TRUE,TRUE,,,,,,-RA,OVC,10000,,,,,,,VFR,,,,12.8,2.8,0.01,,,,,,METAR,82.0
KSGR 120753Z AUTO 00000KT 2 1/2SM BR CLR 11/11 A3017 RMK AO2 SLP216 T01110106,KSGR,2015-02-12T07:53:00Z,29.62,-95.65,11.1,10.6,0,0,,2.5,30.171259,1021.6,,TRUE,TRUE,,,,,,BR,CLR,,,,,,,,IFR,,,,,,,,,,,,METAR,2.0
KSFF 120753Z AUTO 03003KT 10SM CLR 06/04 A3026 RMK AO2 SLP252 T00610044 401170039,KSFF,2015-02-12T07:53:00Z,47.68,-117.32,6.1,4.4,30,3,,10.0,30.259842,1025.2,,TRUE,TRUE,,,,,,,CLR,,,,,,,,VFR,,,,11.7,3.9,,,,,,,METAR,609.0
KSFB 120753Z AUTO 27003KT 10SM CLR 08/06 A3005 RMK AO2 SLP176 T00830061,KSFB,2015-02-12T07:53:00Z,28.77,-81.22,8.3,6.1,270,3,,10.0,30.050198,1017.6,,TRUE,TRUE,,,,,,,CLR,,,,,,,,VFR,,,,,,,,,,,,METAR,17.0
KSEG 120753Z AUTO 20003KT 10SM BKN040 OVC060 00/M06 A2981 RMK AO2 SLP097 T00001061,KSEG,2015-02-12T07:53:00Z,40.82,-76.87,0.0,-6.1,200,3,,10.0,29.811024,1009.7,,TRUE,TRUE,,,,,,,BKN,4000,OVC,6000,,,,,VFR,,,,,,,,,,,,METAR,134.0
KSEA 120753Z 12003KT 10SM -RA SCT080 OVC100 11/08 A3023 RMK AO2 RAB49 SLP245 P0000 T01110083 401280056,KSEA,2015-02-12T07:53:00Z,47.45,-122.32,11.1,8.3,120,3,,10.0,30.230314,1024.5,,,TRUE,,,,,,-RA,SCT,8000,OVC,10000,,,,,VFR,,,,12.8,5.6,0.0050,,,,,,METAR,136.0
KSDM 120753Z AUTO 09003KT 10SM CLR 18/M07 A3004 RMK AO2 SLP165 T01781067 403110100,KSDM,2015-02-12T07:53:00Z,32.58,-117.0,17.8,-6.7,90,3,,10.0,30.041338,1016.5,,TRUE,TRUE,,,,,,,CLR,,,,,,,,VFR,,,,31.1,10.0,,,,,,,METAR,159.0
KSDL 120753Z 00000KT 10SM CLR 19/M03 A3017 RMK AO2 SLP199 T01891028,KSDL,2015-02-12T07:53:00Z,33.62,-111.92,18.9,-2.8,0,0,,10.0,30.171259,1019.9,,,TRUE,,,,,,,CLR,,,,,,,,VFR,,,,,,,,,,,,METAR,447.0
KSBM 120753Z AUTO 35015G23KT 10SM CLR M13/M21 A3019 RMK AO2 PK WND 36027/0726 SLP238 T11281206,KSBM,2015-02-12T07:53:00Z,43.78,-87.85,-12.8,-20.6,350,15,23,10.0,30.188976,1023.8,,TRUE,TRUE,,,,,,,CLR,,,,,,,,VFR,,,,,,,,,,,,METAR,232.0
KSBA 120753Z 00000KT 10SM CLR 12/08 A3008 RMK AO2 SLP187 T01170078 402560072,KSBA,2015-02-12T07:53:00Z,34.43,-119.85,11.7,7.8,0,0,,10.0,30.079725,1018.7,,,TRUE,,,,,,,CLR,,,,,,,,VFR,,,,25.6,7.2,,,,,,,METAR,3.0
KSAV 120753Z AUTO 22005KT 10SM CLR 07/04 A2999 RMK AO2 SLP153 T00720044 TSNO,KSAV,2015-02-12T07:53:00Z,32.12,-81.2,7.2,4.4,220,5,,10.0,29.991142,1015.3,,TRUE,TRUE,,,TRUE,,,,CLR,,,,,,,,VFR,,,,,,,,,,,,METAR,14.0
KSAF 120753Z AUTO 00000KT 10SM CLR M02/M04 A3043 RMK AO2 SLP292 T10221039,KSAF,2015-02-12T07:53:00Z,35.62,-106.1,-2.2,-3.9,0,0,,10.0,30.431103,1029.2,,TRUE,TRUE,,,,,,,CLR,,,,,,,,VFR,,,,,,,,,,,,METAR,1930.0
KSAC 120753Z AUTO 00000KT 10SM CLR 10/08 A3021 RMK AO2 SLP229 T01000083 401940039,KSAC,2015-02-12T07:53:00Z,38.5,-121.5,10.0,8.3,0,0,,10.0,30.209646,1022.9,,TRUE,TRUE,,,,,,,CLR,,,,,,,,VFR,,,,19.4,3.9,,,,,,,METAR,11.0
KRXE 120753Z AUTO 04003KT 10SM OVC110 M01/M03 A3037 RMK AO2 SLP298 T10111028,KRXE,2015-02-12T07:53:00Z,43.83,-111.8,-1.1,-2.8,40,3,,10.0,30.369095,1029.8,,TRUE,TRUE,,,,,,,OVC,11000,,,,,,,VFR,,,,,,,,,,,,METAR,1480.0
KRWL 120753Z AUTO 23008KT 10SM CLR 00/M06 A3036 RMK AO2 SLP272 T00001061,KRWL,2015-02-12T07:53:00Z,41.78,-107.2,0.0,-6.1,230,8,,10.0,30.360237,1027.2,,TRUE,TRUE,,,,,,,CLR,,,,,,,,VFR,,,,,,,,,,,,METAR,2077.0
KRWI 120753Z AUTO 18004KT 6SM BR CLR M01/M02 A2991 RMK AO2 SLP128 T10061017,KRWI,2015-02-12T07:53:00Z,35.85,-77.9,-0.6,-1.7,180,4,,6.0,29.911417,1012.8,,TRUE,TRUE,,,,,,BR,CLR,,,,,,,,VFR,,,,,,,,,,,,METAR,47.0
KRWF 120753Z AUTO 32010G18KT 10SM CLR M18/M22 A3062 RMK AO2 SLP396 T11831222,KRWF,2015-02-12T07:53:00Z,44.55,-95.08,-18.3,-22.2,320,10,18,10.0,30.620079,1039.6,,TRUE,TRUE,,,,,,,CLR,,,,,,,,VFR,,,,,,,,,,,,METAR,311.0
KRVS 120753Z AUTO 02004KT 10SM CLR M02/M06 A3044 RMK AO2 SLP318 T10171061,KRVS,2015-02-12T07:53:00Z,36.05,-95.98,-1.7,-6.1,20,4,,10.0,30.43996,1031.8,,TRUE,TRUE,,,,,,,CLR,,,,,,,,VFR,,,,,,,,,,,,METAR,200.0
KRUE 120753Z AUTO 35008KT 10SM CLR 04/M04 A3035 RMK AO2 SLP274 T00441044,KRUE,2015-02-12T07:53:00Z,35.25,-93.1,4.4,-4.4,350,8,,10.0,30.351377,1027.4,,TRUE,TRUE,,,,,,,CLR,,,,,,,,VFR,,,,,,,,,,,,METAR,115.0
KRTN 120753Z AUTO 08006KT 10SM CLR M08/M09 A3041 RMK AO2 SLP313 T10781089,KRTN,2015-02-12T07:53:00Z,36.73,-104.5,-7.8,-8.9,80,6,,10.0,30.410433,1031.3,,TRUE,TRUE,,,,,,,CLR,,,,,,,,VFR,,,,,,,,,,,,METAR,1936.0
KRSW 120753Z 04003KT 10SM CLR 09/08 A3005 RMK AO2 SLP173 T00940078,KRSW,2015-02-12T07:53:00Z,26.53,-81.75,9.4,7.8,40,3,,10.0,30.050198,1017.3,,,TRUE,,,,,,,CLR,,,,,,,,VFR,,,,,,,,,,,,METAR,10.0
KRSL 120753Z AUTO 04007KT 10SM CLR M05/M08 A3045 RMK AO2 SLP329 T10501078,KRSL,2015-02-12T07:53:00Z,38.87,-98.82,-5.0,-7.8,40,7,,10.0,30.448818,1032.9,,TRUE,TRUE,,,,,,,CLR,,,,,,,,VFR,,,,,,,,,,,,METAR,567.0
KRQE 120753Z AUTO 00000KT 10SM CLR M03/M06 A3043 RMK AO2 SLP310 T10281056 TSNO $,KRQE,2015-02-12T07:53:00Z,35.65,-109.07,-2.8,-5.6,0,0,,10.0,30.431103,1031.0,,TRUE,TRUE,TRUE,,TRUE,,,,CLR,,,,,,,,VFR,,,,,,,,,,,,METAR,2055.0
KRNT 120753Z AUTO 08005KT 10SM -RA OVC100 10/09 A3023 RMK AO2 RAE0658B46 SLP240 P0000 T01000094 401280050,KRNT,2015-02-12T07:53:00Z,47.5,-122.22,10.0,9.4,80,5,,10.0,30.230314,1024.0,,TRUE,TRUE,,,,,,-RA,OVC,10000,,,,,,,VFR,,,,12.8,5.0,0.0050,,,,,,METAR,21.0
KRNM 120753Z 08008KT 10SM CLR 19/M08 A3008 RMK AO2 SLP170 T01891083 402780072,KRNM,2015-02-12T07:53:00Z,33.03,-116.92,18.9,-8.3,80,8,,10.0,30.079725,1017.0,,,TRUE,,,,,,,CLR,,,,,,,,VFR,,,,27.8,7.2,,,,,,,METAR,427.0
KRMG 120753Z AUTO 00000KT 10SM CLR 01/M02 A3004 RMK AO2 SLP169 T00061022,KRMG,2015-02-12T07:53:00Z,34.35,-85.17,0.6,-2.2,0,0,,10.0,30.041338,1016.9,,TRUE,TRUE,,,,,,,CLR,,,,,,,,VFR,,,,,,,,,,,,METAR,193.0
KRKP 120753Z AUTO 04005KT 10SM BKN045 17/16 A3015 RMK AO2 SLP212 T01720156,KRKP,2015-02-12T07:53:00Z,28.08,-97.05,17.2,15.6,40,5,,10.0,30.15059,1021.2,,TRUE,TRUE,,,,,,,BKN,4500,,,,,,,VFR,,,,,,,,,,,,METAR,6.0
KRIW 120753Z AUTO 26008KT 10SM CLR 02/M06 A3024 RMK AO2 SLP240 T00221061,KRIW,2015-02-12T07:53:00Z,43.07,-108.47,2.2,-6.1,260,8,,10.0,30.239174,1024.0,,TRUE,TRUE,,,,,,,CLR,,,,,,,,VFR,,,,,,,,,,,,METAR,1697.0
KRIL 120753Z AUTO 00000KT 10SM CLR M02/M07 A3043 RMK AO2 SLP302 T10171067 $,KRIL,2015-02-12T07:53:00Z,39.53,-107.73,-1.7,-6.7,0,0,,10.0,30.431103,1030.2,,TRUE,TRUE,TRUE,,,,,,CLR,,,,,,,,VFR,,,,,,,,,,,,METAR,1678.0
KRDD 120753Z AUTO 35003KT 10SM CLR 09/07 A3023 RMK AO2 SLP234 T00940072 402170050,KRDD,2015-02-12T07:53:00Z,40.52,-122.3,9.4,7.2,350,3,,10.0,30.230314,1023.4,,TRUE,TRUE,,,,,,,CLR,,,,,,,,VFR,,,,21.7,5.0,,,,,,,METAR,155.0
KRBG 120753Z AUTO 00000KT 8SM CLR 07/06 A3024 RMK AO2 SLP243 T00670056 401500050,KRBG,2015-02-12T07:53:00Z,43.23,-123.35,6.7,5.6,0,0,,8.0,30.239174,1024.3,,TRUE,TRUE,,,,,,,CLR,,,,,,,,VFR,,,,15.0,5.0,,,,,,,METAR,154.0
KRBD 120753Z 36013KT 10SM CLR 08/M02 A3033 RMK AO2 SLP267 T00781022,KRBD,2015-02-12T07:53:00Z,32.68,-96.87,7.8,-2.2,360,13,,10.0,30.33071,1026.7,,,TRUE,,,,,,,CLR,,,,,,,,VFR,,,,,,,,,,,,METAR,203.0
KRAL 120753Z AUTO 10003KT 10SM CLR 18/M06 A3013 RMK AO2 SLP186 T01831061 402890111,KRAL,2015-02-12T07:53:00Z,33.95,-117.45,18.3,-6.1,100,3,,10.0,30.129921,1018.6,,TRUE,TRUE,,,,,,,CLR,,,,,,,,VFR,,,,28.9,11.1,,,,,,,METAR,252.0
KRAC 120753Z AUTO 34017G22KT 10SM FEW036 BKN055 OVC100 M09/M17 A3017 RMK AO2 SLP227 T10941172,KRAC,2015-02-12T07:53:00Z,42.77,-87.82,-9.4,-17.2,340,17,22,10.0,30.171259,1022.7,,TRUE,TRUE,,,,,,,FEW,3600,BKN,5500,OVC,10000,,,VFR,,,,,,,,,,,,METAR,203.0
KPWA 120753Z AUTO 04007KT 10SM CLR M01/M06 A3043 RMK AO2 SLP311 T10061056,KPWA,2015-02-12T07:53:00Z,35.53,-97.65,-0.6,-5.6,40,7,,10.0,30.431103,1031.1,,TRUE,TRUE,,,,,,,CLR,,,,,,,,VFR,,,,,,,,,,,,METAR,397.0
KPUW 120753Z AUTO 11005KT 10SM BKN110 07/04 A3027 RMK AO2 SLP259 T00720044 401110039,KPUW,2015-02-12T07:53:00Z,46.75,-117.12,7.2,4.4,110,5,,10.0,30.268702,1025.9,,TRUE,TRUE,,,,,,,BKN,11000,,,,,,,VFR,,,,11.1,3.9,,,,,,,METAR,773.0
KPUB 120753Z 00000KT 10SM CLR M02/M03 A3040 RMK AO2 SLP298 T10171033,KPUB,2015-02-12T07:53:00Z,38.28,-104.5,-1.7,-3.3,0,0,,10.0,30.398623,1029.8,,,TRUE,,,,,,,CLR,,,,,,,,VFR,,,,,,,,,,,,METAR,1420.0
KPTK 120753Z AUTO 34011KT 10SM OVC060 M07/M12 A2991 RMK AO2 SLP143 T10721122,KPTK,2015-02-12T07:53:00Z,42.67,-83.42,-7.2,-12.2,340,11,,10.0,29.911417,1014.3,,TRUE,TRUE,,,,,,,OVC,6000,,,,,,,VFR,,,,,,,,,,,,METAR,299.0
KPSX 120753Z AUTO 36004KT 1 1/2SM BR CLR 12/11 A3016 RMK AO2 SLP213 T01170111,KPSX,2015-02-12T07:53:00Z,28.72,-96.25,11.7,11.1,360,4,,1.5,30.159449,1021.3,,TRUE,TRUE,,,,,,BR,CLR,,,,,,,,IFR,,,,,,,,,,,,METAR,5.0
KPSP 120753Z AUTO 27004KT 10SM CLR 20/M06 A3016 RMK AO2 SLP210 T02001056 402890156 TSNO,KPSP,2015-02-12T07:53:00Z,33.82,-116.5,20.0,-5.6,270,4,,10.0,30.159449,1021.0,,TRUE,TRUE,,,TRUE,,,,CLR,,,,,,,,VFR,,,,28.9,15.6,,,,,,,METAR,135.0
KOVE 120753Z AUTO 35003KT 10SM CLR 10/08 A3023 RMK AO2 SLP239 T01000083 401720061,KOVE,2015-02-12T07:53:00Z,39.5,-121.62,10.0,8.3,350,3,,10.0,30.230314,1023.9,,TRUE,TRUE,,,,,,,CLR,,,,,,,,VFR,,,,17.2,6.1,,,,,,,METAR,58.0
KOTM 120753Z AUTO 33018G29KT 9SM BKN023 OVC029 M13/M18 A3044 RMK AO2 PK WND 33038/0713 SLP321 T11331183 TSNO,KOTM,2015-02-12T07:53:00Z,41.1,-92.45,-13.3,-18.3,330,18,29,9.0,30.43996,1032.1,,TRUE,TRUE,,,TRUE,,,,BKN,2300,OVC,2900,,,,,MVFR,,,,,,,,,,,,METAR,256.0
KOSU 120753Z AUTO 31008KT 5SM -SN BR OVC028 M02/M04 A2994 RMK AO2 UPE0654FZRAB0654E14SNB14 SLP148 P0000 I1000 T10171039,KOSU,2015-02-12T07:53:00Z,40.08,-83.08,-1.7,-3.9,310,8,,5.0,29.940945,1014.8,,TRUE,TRUE,,,,,,-SN BR,OVC,2800,,,,,,,MVFR,,,,,,0.0050,,,,,,METAR,280.0
KOSH 120753Z 36016G23KT 5SM HZ BKN040 M13/M18 A3023 RMK AO2 UPB19E22B43E53SNE19 SLP259 P0000 T11281183,KOSH,2015-02-12T07:53:00Z,43.97,-88.55,-12.8,-18.3,360,16,23,5.0,30.230314,1025.9,,,TRUE,,,,,,HZ,BKN,4000,,,,,,,MVFR,,,,,,0.0050,,,,,,METAR,248.0
KORL 120753Z AUTO 00000KT 10SM CLR 08/06 A3005 RMK AO2 SLP181 T00830056,KORL,2015-02-12T07:53:00Z,28.55,-81.33,8.3,5.6,0,0,,10.0,30.050198,1018.1,,TRUE,TRUE,,,,,,,CLR,,,,,,,,VFR,,,,,,,,,,,,METAR,37.0
KORB 120753Z AUTO 00000KT 10SM SCT018 M24/M27 A3050 RMK AO2,KORB,2015-02-12T07:53:00Z,48.02,-92.87,-24.0,-27.0,0,0,,10.0,30.499016,,,TRUE,TRUE,,,,,,,SCT,1800,,,,,,,VFR,,,,,,,,,,,,METAR,397.0
KOPF 120753Z AUTO 33006KT 10SM CLR 13/11 A3003 RMK AO2 SLP170 T01280106,KOPF,2015-02-12T07:53:00Z,25.92,-80.28,12.8,10.6,330,6,,10.0,30.029528,1017.0,,TRUE,TRUE,,,,,,,CLR,,,,,,,,VFR,,,,,,,,,,,,METAR,16.0
KONT 120753Z 08013KT 10SM FEW250 22/M09 A3010 RMK AO2 SLP176 T02221094 402940094,KONT,2015-02-12T07:53:00Z,34.05,-117.58,22.2,-9.4,80,13,,10.0,30.100393,1017.6,,,TRUE,,,,,,,FEW,25000,,,,,,,VFR,,,,29.4,9.4,,,,,,,METAR,274.0
KONO 120753Z AUTO 25004KT 10SM CLR 04/02 A3037 RMK AO2 SLP295 T00390022,KONO,2015-02-12T07:53:00Z,44.02,-117.02,3.9,2.2,250,4,,10.0,30.369095,1029.5,,TRUE,TRUE,,,,,,,CLR,,,,,,,,VFR,,,,,,,,,,,,METAR,667.0
KOMK 120753Z AUTO 14003KT 10SM OVC032 07/05 A3025 RMK AO2 SLP252 T00720050 401060061,KOMK,2015-02-12T07:53:00Z,48.47,-119.52,7.2,5.0,140,3,,10.0,30.250984,1025.2,,TRUE,TRUE,,,,,,,OVC,3200,,,,,,,VFR,,,,10.6,6.1,,,,,,,METAR,395.0
KOLF 120753Z AUTO 10008KT 10SM BKN120 M12/M17 A3039 RMK AO2 SLP335 T11221167,KOLF,2015-02-12T07:53:00Z,48.1,-105.58,-12.2,-16.7,100,8,,10.0,30.389763,1033.5,,TRUE,TRUE,,,,,,,BKN,12000,,,,,,,VFR,,,,,,,,,,,,METAR,604.0
KOJC 120753Z AUTO 33010KT 10SM OVC039 M01/M07 A3039 RMK AO2 SLP302 T10111072,KOJC,2015-02-12T07:53:00Z,38.85,-94.73,-1.1,-7.2,330,10,,10.0,30.389763,1030.2,,TRUE,TRUE,,,,,,,OVC,3900,,,,,,,VFR,,,,,,,,,,,,METAR,326.0
KOGD 120753Z 00000KT 10SM CLR 03/M03 A3041 RMK AO2 SLP292 T00281028,KOGD,2015-02-12T07:53:00Z,41.2,-112.02,2.8,-2.8,0,0,,10.0,30.410433,1029.2,,,TRUE,,,,,,,CLR,,,,,,,,VFR,,,,,,,,,,,,METAR,1353.0
KOGB 120753Z AUTO 00000KT 7SM CLR 03/02 A2994 RMK AO2 SLP137 T00330017,KOGB,2015-02-12T07:53:00Z,33.47,-80.85,3.3,1.7,0,0,,7.0,29.940945,1013.7,,TRUE,TRUE,,,,,,,CLR,,,,,,,,VFR,,,,,,,,,,,,METAR,59.0
KODX 120753Z AUTO 02010KT 10SM BKN019 M11/M14 A3056 RMK AO2 SLP380 T11061144,KODX,2015-02-12T07:53:00Z,41.62,-98.95,-10.6,-14.4,20,10,,10.0,30.561024,1038.0,,TRUE,TRUE,,,,,,,BKN,1900,,,,,,,MVFR,,,,,,,,,,,,METAR,631.0
KODO 120753Z AUTO 03018G24KT 10SM OVC046 06/M06 A3041 RMK AO2 PK WND 03026/0741 SLP279 T00561056,KODO,2015-02-12T07:53:00Z,31.92,-102.4,5.6,-5.6,30,18,24,10.0,30.410433,1027.9,,TRUE,TRUE,,,,,,,OVC,4600,,,,,,,VFR,,,,,,,,,,,,METAR,902.0
KOAK 120753Z 29004KT 10SM FEW180 13/08 A3019 RMK AO2 SLP222 T01280078 401780056,KOAK,2015-02-12T07:53:00Z,37.72,-122.23,12.8,7.8,290,4,,10.0,30.188976,1022.2,,,TRUE,,,,,,,FEW,18000,,,,,,,VFR,,,,17.8,5.6,,,,,,,METAR,26.0
KNEW 120753Z 31007KT 9SM CLR 14/11 A3013 RMK AO2 SLP196 T01390106,KNEW,2015-02-12T07:53:00Z,30.05,-90.03,13.9,10.6,310,7,,9.0,30.129921,1019.6,,,TRUE,,,,,,,CLR,,,,,,,,VFR,,,,,,,,,,,,METAR,3.0
KMYV 120753Z AUTO 31004KT 5SM BR CLR 08/07 A3022 RMK AO2 SLP235 T00780072 401720039,KMYV,2015-02-12T07:53:00Z,39.1,-121.57,7.8,7.2,310,4,,5.0,30.221457,1023.5,,TRUE,TRUE,,,,,,BR,CLR,,,,,,,,MVFR,,,,17.2,3.9,,,,,,,METAR,21.0
KMYF 120753Z 00000KT 10SM CLR 17/M04 A3004 RMK AO2 SLP168 T01671039 403000117,KMYF,2015-02-12T07:53:00Z,32.82,-117.13,16.7,-3.9,0,0,,10.0,30.041338,1016.8,,,TRUE,,,,,,,CLR,,,,,,,,VFR,,,,30.0,11.7,,,,,,,METAR,136.0
KMWL 120753Z AUTO 34009KT 10SM FEW080 SCT110 05/M03 A3036 RMK AO2 SLP278 T00501028,KMWL,2015-02-12T07:53:00Z,32.78,-98.07,5.0,-2.8,340,9,,10.0,30.360237,1027.8,,TRUE,TRUE,,,,,,,FEW,8000,SCT,11000,,,,,VFR,,,,,,,,,,,,METAR,284.0
KMTO 120753Z AUTO 33022G28KT 10SM OVC021 M06/M10 A3018 RMK AO2 PK WND 31031/0730 SLP227 T10561100,KMTO,2015-02-12T07:53:00Z,39.47,-88.27,-5.6,-10.0,330,22,28,10.0,30.180119,1022.7,,TRUE,TRUE,,,,,,,OVC,2100,,,,,,,MVFR,,,,,,,,,,,,METAR,214.0
KMTJ 120753Z AUTO 14008KT 10SM CLR M01/M06 A3044 RMK AO2 SLP294 T10111061,KMTJ,2015-02-12T07:53:00Z,38.5,-107.9,-1.1,-6.1,140,8,,10.0,30.43996,1029.4,,TRUE,TRUE,,,,,,,CLR,,,,,,,,VFR,,,,,,,,,,,,METAR,1750.0
KMTH 120753Z AUTO 01005KT 10SM SCT047 17/13 A3002 RMK AO2 SLP166 T01670133,KMTH,2015-02-12T07:53:00Z,24.73,-81.05,16.7,13.3,10,5,,10.0,30.02067,1016.6,,TRUE,TRUE,,,,,,,SCT,4700,,,,,,,VFR,,,,,,,,,,,,METAR,2.0
KMSY 120753Z 32005KT 10SM FEW010 FEW250 10/07 A3013 RMK AO2 SLP204 FU FEW010 FROPA 0725 T01000067,KMSY,2015-02-12T07:53:00Z,30.0,-90.25,10.0,6.7,320,5,,10.0,30.129921,1020.4,,,TRUE,,,,,,,FEW,1000,FEW,25000,,,,,VFR,,,,,,,,,,,,METAR,5.0
KMSP 120753Z 32018G22KT 10SM FEW030 M17/M22 A3055 RMK AO2 PK WND 34027/0705 SLP367 T11721222,KMSP,2015-02-12T07:53:00Z,44.88,-93.23,-17.2,-22.2,320,18,22,10.0,30.549213,1036.7,,,TRUE,,,,,,,FEW,3000,,,,,,,VFR,,,,,,,,,,,,METAR,265.0
KMSO 120753Z 00000KT 10SM BKN100 02/01 A3028 RMK AO2 SLP277 T00220011,KMSO,2015-02-12T07:53:00Z,46.92,-114.1,2.2,1.1,0,0,,10.0,30.280512,1027.7,,,TRUE,,,,,,,BKN,10000,,,,,,,VFR,,,,,,,,,,,,METAR,975.0
KMSN 120753Z AUTO 34016G22KT 10SM SCT055 OVC100 M11/M16 A3024 RMK AO2 PK WND 36026/0727 SNE27 SLP254 P0001 T11111156,KMSN,2015-02-12T07:53:00Z,43.13,-89.35,-11.1,-15.6,340,16,22,10.0,30.239174,1025.4,,TRUE,TRUE,,,,,,,SCT,5500,OVC,10000,,,,,VFR,,,,,,0.01,,,,,,METAR,261.0
KMCB 120753Z AUTO 01005KT 10SM CLR 11/03 A3014 RMK AO2 SLP203 T01060028 $,KMCB,2015-02-12T07:53:00Z,31.18,-90.47,10.6,2.8,10,5,,10.0,30.138779,1020.3,,TRUE,TRUE,TRUE,,,,,,CLR,,,,,,,,VFR,,,,,,,,,,,,METAR,124.0
KMBS 120753Z 31012KT 10SM CLR M09/M16 A2999 RMK AO2 SLP164 T10941156,KMBS,2015-02-12T07:53:00Z,43.53,-84.08,-9.4,-15.6,310,12,,10.0,29.991142,1016.4,,,TRUE,,,,,,,CLR,,,,,,,,VFR,,,,,,,,,,,,METAR,202.0
KMAI 120753Z AUTO 00000KT 10SM CLR 07/06 A3005 RMK AO2 SLP175 T00720061,KMAI,2015-02-12T07:53:00Z,30.83,-85.18,7.2,6.1,0,0,,10.0,30.050198,1017.5,,TRUE,TRUE,,,,,,,CLR,,,,,,,,VFR,,,,,,,,,,,,METAR,32.0
KMAF 120753Z AUTO 02016KT 10SM OVC040 06/M05 A3041 RMK AO2 SLP280 T00611050,KMAF,2015-02-12T07:53:00Z,31.95,-102.2,6.1,-5.0,20,16,,10.0,30.410433,1028.0,,TRUE,TRUE,,,,,,,OVC,4000,,,,,,,VFR,,,,,,,,,,,,METAR,874.0
KMAE 120753Z AUTO 00000KT 3/4SM BR CLR 09/08 A3021 RMK AO2 VIS 1/4V4 SLP230 T00890078 402000033,KMAE,2015-02-12T07:53:00Z,36.98,-120.12,8.9,7.8,0,0,,0.75,30.209646,1023.0,,TRUE,TRUE,,,,,,BR,CLR,,,,,,,,LIFR,,,,20.0,3.3,,,,,,,METAR,77.0
KLXV 120753Z AUTO 04008KT 10SM CLR M09/M15 A3043 RMK AO2 SLP284 T10891150,KLXV,2015-02-12T07:53:00Z,39.23,-106.32,-8.9,-15.0,40,8,,10.0,30.431103,1028.4,,TRUE,TRUE,,,,,,,CLR,,,,,,,,VFR,,,,,,,,,,,,METAR,3028.0
KLWV 120753Z AUTO 32015KT 10SM BKN026 M04/M09 A3018 RMK AO2 SLP224 T10391089 $,KLWV,2015-02-12T07:53:00Z,38.77,-87.6,-3.9,-8.9,320,15,,10.0,30.180119,1022.4,,TRUE,TRUE,TRUE,,,,,,BKN,2600,,,,,,,MVFR,,,,,,,,,,,,METAR,131.0
KLWD 120753Z AUTO 35020G31KT 10SM CLR M13/M19 A3046 RMK AO2 PK WND 36032/0730 SLP336 T11281194,KLWD,2015-02-12T07:53:00Z,40.63,-93.9,-12.8,-19.4,350,20,31,10.0,30.46063,1033.6,,TRUE,TRUE,,,,,,,CLR,,,,,,,,VFR,,,,,,,,,,,,METAR,346.0
KLVS 120753Z AUTO 33004KT 10SM CLR M05/M07 A3041 RMK AO2 SLP303 I1001 T10501067,KLVS,2015-02-12T07:53:00Z,35.65,-105.13,-5.0,-6.7,330,4,,10.0,30.410433,1030.3,,TRUE,TRUE,,,,,,,CLR,,,,,,,,VFR,,,,,,,,,,,,METAR,2091.0
KLVM 120753Z AUTO 25018G28KT 10SM OVC100 08/M05 A3021 RMK AO2 PK WND 25032/0741 SLP222 T00781050,KLVM,2015-02-12T07:53:00Z,45.7,-110.43,7.8,-5.0,250,18,28,10.0,30.209646,1022.2,,TRUE,TRUE,,,,,,,OVC,10000,,,,,,,VFR,,,,,,,,,,,,METAR,1418.0
KLVK 120753Z AUTO 00000KT 10SM CLR 11/08 RMK AO2 SLPNO T01060083 401890044 $,KLVK,2015-02-12T07:53:00Z,37.7,-121.82,10.6,8.3,0,0,,10.0,,,,TRUE,TRUE,TRUE,,,,,,CLR,,,,,,,,VFR,,,,18.9,4.4,,,,,,,METAR,117.0
KLVJ 120753Z AUTO 07006KT 1/4SM FG VV001 11/10 A3018 RMK AO2 SLP220 T01060100,KLVJ,2015-02-12T07:53:00Z,29.52,-95.25,10.6,10.0,70,6,,0.25,30.180119,1022.0,,TRUE,TRUE,,,,,,FG,OVX,0,,,,,,,LIFR,,,,,,,,,,,100,METAR,12.0
KLUK 120753Z AUTO 27017G22KT 10SM OVC030 M01/M08 A3006 RMK AO2 SLP181 T10111078,KLUK,2015-02-12T07:53:00Z,39.1,-84.42,-1.1,-7.8,270,17,22,10.0,30.059055,1018.1,,TRUE,TRUE,,,,,,,OVC,3000,,,,,,,MVFR,,,,,,,,,,,,METAR,155.0
KLSE 120753Z AUTO 35017G21KT 10SM FEW031 M13/M19 A3041 RMK AO2 SLP319 T11331194,KLSE,2015-02-12T07:53:00Z,43.88,-91.25,-13.3,-19.4,350,17,21,10.0,30.410433,1031.9,,TRUE,TRUE,,,,,,,FEW,3100,,,,,,,VFR,,,,,,,,,,,,METAR,199.0
KLPR 120753Z AUTO 29009KT 10SM FEW027 OVC060 M03/M06 A2991 RMK AO2 SLP137 T10281056 TSNO,KLPR,2015-02-12T07:53:00Z,41.35,-82.18,-2.8,-5.6,290,9,,10.0,29.911417,1013.7,,TRUE,TRUE,,,TRUE,,,,FEW,2700,OVC,6000,,,,,VFR,,,,,,,,,,,,METAR,241.0
KLOZ 120753Z AUTO 30006KT 10SM OVC020 03/M02 A3001 RMK AO2 SLP166 T00331017,KLOZ,2015-02-12T07:53:00Z,37.08,-84.07,3.3,-1.7,300,6,,10.0,30.008858,1016.6,,TRUE,TRUE,,,,,,,OVC,2000,,,,,,,MVFR,,,,,,,,,,,,METAR,362.0
KLOU 120753Z AUTO 28011KT 10SM BKN030 M01/M07 A3010 RMK AO2 SLP196 T10061072 TSNO,KLOU,2015-02-12T07:53:00Z,38.22,-85.67,-0.6,-7.2,280,11,,10.0,30.100393,1019.6,,TRUE,TRUE,,,TRUE,,,,BKN,3000,,,,,,,MVFR,,,,,,,,,,,,METAR,164.0
KLOL 120753Z AUTO 00000KT 10SM CLR 00/M02 A3033 RMK AO2 SLP278 T00001017 401391033,KLOL,2015-02-12T07:53:00Z,40.07,-118.57,0.0,-1.7,0,0,,10.0,30.33071,1027.8,,TRUE,TRUE,,,,,,,CLR,,,,,,,,VFR,,,,13.9,-3.3,,,,,,,METAR,1189.0
KLNS 120753Z AUTO 00000KT 10SM OVC041 M01/M05 A2983 RMK AO2 SLP105 T10111050,KLNS,2015-02-12T07:53:00Z,40.12,-76.3,-1.1,-5.0,0,0,,10.0,29.828741,1010.5,,TRUE,TRUE,,,,,,,OVC,4100,,,,,,,VFR,,,,,,,,,,,,METAR,125.0
KLND 120753Z AUTO 00000KT 10SM BKN120 02/M04 A3025 RMK AO2 SLP240 T00221039,KLND,2015-02-12T07:53:00Z,42.82,-108.73,2.2,-3.9,0,0,,10.0,30.250984,1024.0,,TRUE,TRUE,,,,,,,BKN,12000,,,,,,,VFR,,,,,,,,,,,,METAR,1694.0
KLMT 120753Z AUTO 00000KT 10SM CLR 01/M01 A3030 RMK AO2 SLP264 T00111006 401111017,KLMT,2015-02-12T07:53:00Z,42.15,-121.72,1.1,-0.6,0,0,,10.0,30.301182,1026.4,,TRUE,TRUE,,,,,,,CLR,,,,,,,,VFR,,,,11.1,-1.7,,,,,,,METAR,1246.0
KLLQ 120753Z AUTO VRB06KT 10SM CLR 06/01 A3026 RMK AO2 SLP247 T00610006,KLLQ,2015-02-12T07:53:00Z,33.63,-91.75,6.1,0.6,0,6,,10.0,30.259842,1024.7,,TRUE,TRUE,,,,,,,CLR,,,,,,,,VFR,,,,,,,,,,,,METAR,83.0
KLIT 120753Z 35011KT 10SM BKN110 05/M04 A3032 RMK AO2 SLP270 T00501044,KLIT,2015-02-12T07:53:00Z,34.73,-92.23,5.0,-4.4,350,11,,10.0,30.318897,1027.0,,,TRUE,,,,,,,BKN,11000,,,,,,,VFR,,,,,,,,,,,,METAR,79.0
KLHX 120753Z AUTO 26008KT 10SM CLR M03/M07 A3040 RMK AO2 SLP298 T10281067,KLHX,2015-02-12T07:53:00Z,38.05,-103.52,-2.8,-6.7,260,8,,10.0,30.398623,1029.8,,TRUE,TRUE,,,,,,,CLR,,,,,,,,VFR,,,,,,,,,,,,METAR,1277.0
KLHQ 120753Z AUTO 30007KT 4SM -SN BR FEW011 OVC025 M01/M02 A2994 RMK AO2 SNB49 SLP147 P0000 I1000 T10061022,KLHQ,2015-02-12T07:53:00Z,39.75,-82.67,-0.6,-2.2,300,7,,4.0,29.940945,1014.7,,TRUE,TRUE,,,,,,-SN BR,FEW,1100,OVC,2500,,,,,MVFR,,,,,,0.0050,,,,,,METAR,260.0
KLGB 120753Z 29003KT 10SM CLR 18/M01 A3007 RMK AO2 SLP181 T01831011 403060122,KLGB,2015-02-12T07:53:00Z,33.82,-118.15,18.3,-1.1,290,3,,10.0,30.070866,1018.1,,,TRUE,,,,,,,CLR,,,,,,,,VFR,,,,30.6,12.2,,,,,,,METAR,10.0
KLFT 120753Z AUTO 00000KT 8SM CLR 12/09 A3015 RMK AO2 SLP209 T01170094,KLFT,2015-02-12T07:53:00Z,30.2,-92.0,11.7,9.4,0,0,,8.0,30.15059,1020.9,,TRUE,TRUE,,,,,,,CLR,,,,,,,,VFR,,,,,,,,,,,,METAR,11.0
KLFK 120753Z AUTO 35006KT 10SM CLR 13/06 A3021 RMK AO2 SLP227 T01280061,KLFK,2015-02-12T07:53:00Z,31.23,-94.75,12.8,6.1,350,6,,10.0,30.209646,1022.7,,TRUE,TRUE,,,,,,,CLR,,,,,,,,VFR,,,,,,,,,,,,METAR,88.0
KLEE 120753Z AUTO 00000KT 10SM CLR 08/06 A3006 RMK AO2 SLP176 T00780061,KLEE,2015-02-12T07:53:00Z,28.82,-81.82,7.8,6.1,0,0,,10.0,30.059055,1017.6,,TRUE,TRUE,,,,,,,CLR,,,,,,,,VFR,,,,,,,,,,,,METAR,23.0
KLCH 120753Z AUTO 00000KT 1 1/4SM BR CLR 09/08 A3017 RMK AO2 SLP223 T00890083,KLCH,2015-02-12T07:53:00Z,30.13,-93.22,8.9,8.3,0,0,,1.25,30.171259,1022.3,,TRUE,TRUE,,,,,,BR,CLR,,,,,,,,IFR,,,,,,,,,,,,METAR,4.0
KLBX 120753Z AUTO 35003KT 1/4SM FG VV002 10/10 A3016 RMK AO2 SLP212 T01000100,KLBX,2015-02-12T07:53:00Z,29.12,-95.47,10.0,10.0,350,3,,0.25,30.159449,1021.2,,TRUE,TRUE,,,,,,FG,OVX,0,,,,,,,LIFR,,,,,,,,,,,200,METAR,6.0
KMSL 120753Z AUTO 34005KT 9SM FEW038 05/00 A3014 RMK AO2 SLP207 T00500000,KMSL,2015-02-12T07:53:00Z,34.75,-87.6,5.0,0.0,340,5,,9.0,30.138779,1020.7,,TRUE,TRUE,,,,,,,FEW,3800,,,,,,,VFR,,,,,,,,,,,,METAR,164.0
KMRB 120753Z AUTO 27007KT 10SM OVC044 04/M03 A2983 RMK AO2 SLP105 T00441028 TSNO,KMRB,2015-02-12T07:53:00Z,39.4,-77.98,4.4,-2.8,270,7,,10.0,29.828741,1010.5,,TRUE,TRUE,,,TRUE,,,,OVC,4400,,,,,,,VFR,,,,,,,,,,,,METAR,164.0
KMPO 120753Z AUTO 25006KT 6SM HZ OVC010 M04/M07 A2972 RMK AO2 SLP086 T10391072 $,KMPO,2015-02-12T07:53:00Z,41.13,-75.38,-3.9,-7.2,250,6,,6.0,29.719488,1008.6,,TRUE,TRUE,TRUE,,,,,HZ,OVC,1000,,,,,,,MVFR,,,,,,,,,,,,METAR,577.0
KMOD 120753Z AUTO 00000KT 8SM CLR 11/09 A3019 RMK AO2 SLP224 T01110089 402110056,KMOD,2015-02-12T07:53:00Z,37.62,-120.95,11.1,8.9,0,0,,8.0,30.188976,1022.4,,TRUE,TRUE,,,,,,,CLR,,,,,,,,VFR,,,,21.1,5.6,,,,,,,METAR,29.0
KMNN 120753Z AUTO 30007KT 8SM FEW023 SCT030 OVC060 M02/M06 A2993 RMK AO2 SLP146 T10221056 TSNO,KMNN,2015-02-12T07:53:00Z,40.62,-83.07,-2.2,-5.6,300,7,,8.0,29.929134,1014.6,,TRUE,TRUE,,,TRUE,,,,FEW,2300,SCT,3000,OVC,6000,,,VFR,,,,,,,,,,,,METAR,301.0
KMMV 120753Z AUTO 00000KT 1/4SM FG VV004 07/07 A3024 RMK AO2 SLP239 T00720067 401170033 $,KMMV,2015-02-12T07:53:00Z,45.2,-123.13,7.2,6.7,0,0,,0.25,30.239174,1023.9,,TRUE,TRUE,TRUE,,,,,FG,OVX,0,,,,,,,LIFR,,,,11.7,3.3,,,,,,400,METAR,48.0
KMLU 120753Z AUTO 00000KT 10SM CLR 07/03 A3020 RMK AO2 SLP226 T00670033,KMLU,2015-02-12T07:53:00Z,32.52,-92.03,6.7,3.3,0,0,,10.0,30.200787,1022.6,,TRUE,TRUE,,,,,,,CLR,,,,,,,,VFR,,,,,,,,,,,,METAR,29.0
KMLS 120753Z AUTO 11006KT 10SM FEW095 SCT120 M06/M10 A3032 RMK AO2 SLP304 T10611100,KMLS,2015-02-12T07:53:00Z,46.43,-105.88,-6.1,-10.0,110,6,,10.0,30.318897,1030.4,,TRUE,TRUE,,,,,,,FEW,9500,SCT,12000,,,,,VFR,,,,,,,,,,,,METAR,801.0
KMLP 120753Z AUTO 22007KT 10SM FEW065 01/M01 A3024 RMK AO2 SLP210 T00111006 400221017,KMLP,2015-02-12T07:53:00Z,47.45,-115.67,1.1,-0.6,220,7,,10.0,30.239174,1021.0,,TRUE,TRUE,,,,,,,FEW,6500,,,,,,,VFR,,,,2.2,-1.7,,,,,,,METAR,1837.0
KMLC 120753Z AUTO 02015G24KT 10SM BKN085 OVC110 02/M05 A3042 RMK AO2 SLP301 T00221050,KMLC,2015-02-12T07:53:00Z,34.88,-95.78,2.2,-5.0,20,15,24,10.0,30.41929,1030.1,,TRUE,TRUE,,,,,,,BKN,8500,OVC,11000,,,,,VFR,,,,,,,,,,,,METAR,232.0
KMLB 120753Z AUTO 00000KT 10SM CLR 08/07 A3005 RMK AO2 SLP173 T00780067,KMLB,2015-02-12T07:53:00Z,28.1,-80.65,7.8,6.7,0,0,,10.0,30.050198,1017.3,,TRUE,TRUE,,,,,,,CLR,,,,,,,,VFR,,,,,,,,,,,,METAR,11.0
KMKO 120753Z AUTO 33005KT 10SM CLR M02/M06 A3045 RMK AO2 SLP314 T10221061,KMKO,2015-02-12T07:53:00Z,35.65,-95.37,-2.2,-6.1,330,5,,10.0,30.448818,1031.4,,TRUE,TRUE,,,,,,,CLR,,,,,,,,VFR,,,,,,,,,,,,METAR,185.0
KMKL 120753Z AUTO 34013KT 10SM BKN026 01/M04 A3022 RMK AO2 SLP236 T00111044,KMKL,2015-02-12T07:53:00Z,35.6,-88.92,1.1,-4.4,340,13,,10.0,30.221457,1023.6,,TRUE,TRUE,,,,,,,BKN,2600,,,,,,,MVFR,,,,,,,,,,,,METAR,128.0
KMIW 120753Z AUTO 33017G25KT 10SM CLR M16/M20 A3045 RMK AO2 PK WND 33028/0711 SLP331 T11561200,KMIW,2015-02-12T07:53:00Z,42.12,-92.92,-15.6,-20.0,330,17,25,10.0,30.448818,1033.1,,TRUE,TRUE,,,,,,,CLR,,,,,,,,VFR,,,,,,,,,,,,METAR,296.0
KMIE 120753Z AUTO 29011KT 4SM -SN BKN015 OVC020 M04/M07 A3002 RMK AO2 SNB42 SLP174 P0000 T10441072,KMIE,2015-02-12T07:53:00Z,40.23,-85.4,-4.4,-7.2,290,11,,4.0,30.02067,1017.4,,TRUE,TRUE,,,,,,-SN,BKN,1500,OVC,2000,,,,,MVFR,,,,,,0.0050,,,,,,METAR,285.0
KMIA 120753Z 33005KT 10SM CLR 15/11 A3003 RMK AO2 SLP170 98620 T01500111 $,KMIA,2015-02-12T07:53:00Z,25.8,-80.28,15.0,11.1,330,5,,10.0,30.029528,1017.0,,,TRUE,TRUE,,,,,,CLR,,,,,,,,VFR,,,,,,,,,,,,METAR,3.0
KMHE 120753Z AUTO 34011KT 10SM CLR M16/M21 A3069 RMK AO2 SLP421 T11611206,KMHE,2015-02-12T07:53:00Z,43.77,-98.02,-16.1,-20.6,340,11,,10.0,30.690945,1042.1,,TRUE,TRUE,,,,,,,CLR,,,,,,,,VFR,,,,,,,,,,,,METAR,397.0
KMGY 120753Z AUTO 28014G20KT 10SM FEW022 OVC031 M02/M07 A2998 RMK AO2 SLP161 T10171067,KMGY,2015-02-12T07:53:00Z,39.6,-84.23,-1.7,-6.7,280,14,20,10.0,29.97933,1016.1,,TRUE,TRUE,,,,,,,FEW,2200,OVC,3100,,,,,VFR,,,,,,,,,,,,METAR,289.0
KMGW 120753Z AUTO 22006KT 5SM HZ BKN010 OVC014 00/M03 A2987 RMK AO2 CIG 009V012 SLP126 T00001033 TSNO,KMGW,2015-02-12T07:53:00Z,39.65,-79.92,0.0,-3.3,220,6,,5.0,29.870079,1012.6,,TRUE,TRUE,,,TRUE,,,HZ,BKN,1000,OVC,1400,,,,,MVFR,,,,,,,,,,,,METAR,378.0
KMGM 120753Z AUTO 30006KT 10SM CLR 07/01 A3007 RMK AO2 SLP182 T00670011,KMGM,2015-02-12T07:53:00Z,32.3,-86.4,6.7,1.1,300,6,,10.0,30.070866,1018.2,,TRUE,TRUE,,,,,,,CLR,,,,,,,,VFR,,,,,,,,,,,,METAR,63.0
KMFR 120753Z AUTO 00000KT 10SM CLR 05/03 A3026 RMK AO2 SLP252 T00500028 401440033,KMFR,2015-02-12T07:53:00Z,42.38,-122.87,5.0,2.8,0,0,,10.0,30.259842,1025.2,,TRUE,TRUE,,,,,,,CLR,,,,,,,,VFR,,,,14.4,3.3,,,,,,,METAR,396.0
KMFE 120753Z AUTO 07007KT 10SM CLR 18/16 A3012 RMK AO2 SLP196 T01780156,KMFE,2015-02-12T07:53:00Z,26.18,-98.25,17.8,15.6,70,7,,10.0,30.121063,1019.6,,TRUE,TRUE,,,,,,,CLR,,,,,,,,VFR,,,,,,,,,,,,METAR,38.0
KMDW 120753Z 33015KT 8SM -SN BKN042 OVC060 M07/M14 A3015 RMK AO2 SNB43 SLP224 P0000 T10721144,KMDW,2015-02-12T07:53:00Z,41.78,-87.75,-7.2,-14.4,330,15,,8.0,30.15059,1022.4,,,TRUE,,,,,,-SN,BKN,4200,OVC,6000,,,,,VFR,,,,,,0.0050,,,,,,METAR,188.0
KMCW 120753Z AUTO 33019G25KT 10SM CLR M17/M21 A3048 RMK AO2 PK WND 33026/0658 PRESRR SLP345 T11721211 $,KMCW,2015-02-12T07:53:00Z,43.15,-93.33,-17.2,-21.1,330,19,25,10.0,30.481298,1034.5,,TRUE,TRUE,TRUE,,,,,,CLR,,,,,,,,VFR,,,,,,,,,,,,METAR,369.0
KMCO 120753Z 00000KT 10SM CLR 08/07 A3006 RMK AO2 SLP178 T00780072,KMCO,2015-02-12T07:53:00Z,28.42,-81.33,7.8,7.2,0,0,,10.0,30.059055,1017.8,,,TRUE,,,,,,,CLR,,,,,,,,VFR,,,,,,,,,,,,METAR,29.0
KMCN 120753Z AUTO 29006KT 10SM CLR 06/01 A3000 RMK AO2 SLP157 T00610011 TSNO,KMCN,2015-02-12T07:53:00Z,32.68,-83.65,6.1,1.1,290,6,,10.0,30.0,1015.7,,TRUE,TRUE,,,TRUE,,,,CLR,,,,,,,,VFR,,,,,,,,,,,,METAR,109.0
KMCK 120753Z AUTO 07006KT 10SM CLR M04/M07 A3047 RMK AO2 SLP335 T10391072,KMCK,2015-02-12T07:53:00Z,40.2,-100.58,-3.9,-7.2,70,6,,10.0,30.469488,1033.5,,TRUE,TRUE,,,,,,,CLR,,,,,,,,VFR,,,,,,,,,,,,METAR,782.0
KMCI 120753Z 35023G30KT 10SM OVC036 M03/M09 A3042 RMK AO2 PK WND 36030/0753 SLP311 T10281089,KMCI,2015-02-12T07:53:00Z,39.3,-94.73,-2.8,-8.9,350,23,30,10.0,30.41929,1031.1,,,TRUE,,,,,,,OVC,3600,,,,,,,VFR,,,,,,,,,,,,METAR,320.0
KMCE 120753Z AUTO 24003KT 4SM BR CLR 08/07 A3020 RMK AO2 SLP227 T00830067 401940039,KMCE,2015-02-12T07:53:00Z,37.28,-120.5,8.3,6.7,240,3,,4.0,30.200787,1022.7,,TRUE,TRUE,,,,,,BR,CLR,,,,,,,,MVFR,,,,19.4,3.9,,,,,,,METAR,47.0
KLBF 120753Z AUTO 06010KT 10SM OVC023 M04/M09 A3049 RMK AO2 PRESRR SLP344 T10441094 FZRANO $,KLBF,2015-02-12T07:53:00Z,41.12,-100.67,-4.4,-9.4,60,10,,10.0,30.490158,1034.4,,TRUE,TRUE,TRUE,,,TRUE,,,OVC,2300,,,,,,,MVFR,,,,,,,,,,,,METAR,847.0
KLBB 120753Z COR 36007KT 10SM FEW050 OVC065 04/M03 A3041 RMK AO2 SLP297 T00391028 $,KLBB,2015-02-12T07:53:00Z,33.67,-101.82,3.9,-2.8,360,7,,10.0,30.410433,1029.7,TRUE,,TRUE,TRUE,,,,,,FEW,5000,OVC,6500,,,,,VFR,,,,,,,,,,,,METAR,993.0
KLAW 120753Z AUTO 01011KT 10SM OVC110 04/M04 A3042 RMK AO2 SLP306 T00391044,KLAW,2015-02-12T07:53:00Z,34.55,-98.42,3.9,-4.4,10,11,,10.0,30.41929,1030.6,,TRUE,TRUE,,,,,,,OVC,11000,,,,,,,VFR,,,,,,,,,,,,METAR,337.0
KLAR 120753Z AUTO 18007KT 10SM CLR M04/M07 A3032 RMK AO2 SLP266 T10391072,KLAR,2015-02-12T07:53:00Z,41.32,-105.67,-3.9,-7.2,180,7,,10.0,30.318897,1026.6,,TRUE,TRUE,,,,,,,CLR,,,,,,,,VFR,,,,,,,,,,,,METAR,2216.0
KLAN 120753Z 34011G19KT 2 1/2SM -SN OVC022 M08/M11 A2999 RMK AO2 SNB32 SLP166 P0000 T10781111,KLAN,2015-02-12T07:53:00Z,42.78,-84.58,-7.8,-11.1,340,11,19,2.5,29.991142,1016.6,,,TRUE,,,,,,-SN,OVC,2200,,,,,,,IFR,,,,,,0.0050,,,,,,METAR,264.0
KLAA 120753Z AUTO 28004KT 10SM CLR M04/M07 A3038 RMK AO2 SLP297 T10441072,KLAA,2015-02-12T07:53:00Z,38.07,-102.68,-4.4,-7.2,280,4,,10.0,30.380905,1029.7,,TRUE,TRUE,,,,,,,CLR,,,,,,,,VFR,,,,,,,,,,,,METAR,1119.0
KJLN 120753Z AUTO 34004KT 10SM CLR M04/M08 A3041 RMK AO2 SLP304 T10391078,KJLN,2015-02-12T07:53:00Z,37.15,-94.5,-3.9,-7.8,340,4,,10.0,30.410433,1030.4,,TRUE,TRUE,,,,,,,CLR,,,,,,,,VFR,,,,,,,,,,,,METAR,299.0
KJKL 120753Z AUTO 27006G16KT 10SM OVC016 02/M02 A2998 RMK AO2 SLP159 T00171022,KJKL,2015-02-12T07:53:00Z,37.6,-83.32,1.7,-2.2,270,6,16,10.0,29.97933,1015.9,,TRUE,TRUE,,,,,,,OVC,1600,,,,,,,MVFR,,,,,,,,,,,,METAR,416.0
KJER 120753Z AUTO 02009KT 10SM CLR 03/00 A3034 RMK AO2 SLP277 T00330000,KJER,2015-02-12T07:53:00Z,42.72,-114.45,3.3,0.0,20,9,,10.0,30.339567,1027.7,,TRUE,TRUE,,,,,,,CLR,,,,,,,,VFR,,,,,,,,,,,,METAR,1222.0
KJEF 120753Z AUTO 31007KT 10SM FEW055 M02/M07 A3034 RMK AO2 SLP267 T10221072,KJEF,2015-02-12T07:53:00Z,38.6,-92.15,-2.2,-7.2,310,7,,10.0,30.339567,1026.7,,TRUE,TRUE,,,,,,,FEW,5500,,,,,,,VFR,,,,,,,,,,,,METAR,168.0
KJBR 120753Z AUTO 33008KT 10SM CLR 01/M04 A3030 RMK AO2 SLP260 T00061044,KJBR,2015-02-12T07:53:00Z,35.83,-90.65,0.6,-4.4,330,8,,10.0,30.301182,1026.0,,TRUE,TRUE,,,,,,,CLR,,,,,,,,VFR,,,,,,,,,,,,METAR,79.0
KIXD 120753Z AUTO 33013G18KT 10SM OVC042 M01/M07 A3041 RMK AO2 SLP308 T10111067,KIXD,2015-02-12T07:53:00Z,38.82,-94.88,-1.1,-6.7,330,13,18,10.0,30.410433,1030.8,,TRUE,TRUE,,,,,,,OVC,4200,,,,,,,VFR,,,,,,,,,,,,METAR,342.0
KITR 120753Z AUTO 25011KT 10SM CLR 00/M07 A3036 RMK AO2 SLP287 T00001067,KITR,2015-02-12T07:53:00Z,39.23,-102.28,0.0,-6.7,250,11,,10.0,30.360237,1028.7,,TRUE,TRUE,,,,,,,CLR,,,,,,,,VFR,,,,,,,,,,,,METAR,1279.0
KIPL 120753Z AUTO 25006KT 10SM CLR 12/M03 A3008 RMK AO2 SLP187 T01171028 402890083,KIPL,2015-02-12T07:53:00Z,32.83,-115.58,11.7,-2.8,250,6,,10.0,30.079725,1018.7,,TRUE,TRUE,,,,,,,CLR,,,,,,,,VFR,,,,28.9,8.3,,,,,,,METAR,-17.0
KINK 120753Z AUTO 02011KT 10SM BKN046 07/M07 A3040 RMK AO2 SLP277 T00671067,KINK,2015-02-12T07:53:00Z,31.78,-103.2,6.7,-6.7,20,11,,10.0,30.398623,1027.7,,TRUE,TRUE,,,,,,,BKN,4600,,,,,,,VFR,,,,,,,,,,,,METAR,855.0
KIMS 120753Z AUTO 30004KT 10SM OVC031 M01/M07 A3008 RMK AO1,KIMS,2015-02-12T07:53:00Z,38.75,-85.47,-1.0,-7.0,300,4,,10.0,30.079725,,,TRUE,TRUE,,,,,,,OVC,3100,,,,,,,VFR,,,,,,,,,,,,METAR,250.0
KIML 120753Z AUTO 05006KT 10SM CLR M04/M07 A3043 RMK AO2 SLP328 T10441072,KIML,2015-02-12T07:53:00Z,40.52,-101.62,-4.4,-7.2,50,6,,10.0,30.431103,1032.8,,TRUE,TRUE,,,,,,,CLR,,,,,,,,VFR,,,,,,,,,,,,METAR,998.0
KILM 120753Z 00000KT 7SM CLR 00/M01 A2995 RMK AO2 SLP140 I1001 T00001006,KILM,2015-02-12T07:53:00Z,34.27,-77.9,0.0,-0.6,0,0,,7.0,29.949802,1014.0,,,TRUE,,,,,,,CLR,,,,,,,,VFR,,,,,,,,,,,,METAR,9.0
KIDA 120753Z AUTO 00000KT 10SM BKN110 01/M01 A3037 RMK AO2 SLP295 T00111011,KIDA,2015-02-12T07:53:00Z,43.52,-112.07,1.1,-1.1,0,0,,10.0,30.369095,1029.5,,TRUE,TRUE,,,,,,,BKN,11000,,,,,,,VFR,,,,,,,,,,,,METAR,1453.0
KICT 120753Z 35004KT 10SM CLR M03/M08 A3044 RMK AO2 SLP319 T10281078 $,KICT,2015-02-12T07:53:00Z,37.65,-97.43,-2.8,-7.8,350,4,,10.0,30.43996,1031.9,,,TRUE,TRUE,,,,,,CLR,,,,,,,,VFR,,,,,,,,,,,,METAR,407.0
KIAH 120753Z 32003KT 8SM FEW250 11/08 A3018 RMK AO2 SLP219 T01110083,KIAH,2015-02-12T07:53:00Z,30.0,-95.37,11.1,8.3,320,3,,8.0,30.180119,1021.9,,,TRUE,,,,,,,FEW,25000,,,,,,,VFR,,,,,,,,,,,,METAR,36.0
KIAG 120753Z AUTO 29013KT 7SM FEW021 BKN041 OVC065 M03/M06 A2978 RMK AO2 SLP099 T10281056 $,KIAG,2015-02-12T07:53:00Z,43.12,-78.93,-2.8,-5.6,290,13,,7.0,29.778543,1009.9,,TRUE,TRUE,TRUE,,,,,,FEW,2100,BKN,4100,OVC,6500,,,VFR,,,,,,,,,,,,METAR,182.0
KHZY 120753Z AUTO 28009KT 10SM OVC017 M03/M05 A2986 RMK AO2 SNE09 SLP122 P0000 T10281050 $,KHZY,2015-02-12T07:53:00Z,41.78,-80.7,-2.8,-5.0,280,9,,10.0,29.861221,1012.2,,TRUE,TRUE,TRUE,,,,,,OVC,1700,,,,,,,MVFR,,,,,,0.0050,,,,,,METAR,276.0
KHYR 120753Z AUTO VRB04KT 1 3/4SM -SN OVC026 M17/M20 A3042 RMK AO2 SNB05E19B27 SLP331 P0000 T11671200,KHYR,2015-02-12T07:53:00Z,46.02,-91.45,-16.7,-20.0,0,4,,1.75,30.41929,1033.1,,TRUE,TRUE,,,,,,-SN,OVC,2600,,,,,,,IFR,,,,,,0.0050,,,,,,METAR,370.0
KHWO 120753Z AUTO 34005KT 10SM CLR 14/11 A3004 RMK AO2 SLP171 T01390106 $,KHWO,2015-02-12T07:53:00Z,26.0,-80.23,13.9,10.6,340,5,,10.0,30.041338,1017.1,,TRUE,TRUE,TRUE,,,,,,CLR,,,,,,,,VFR,,,,,,,,,,,,METAR,2.0
KHVR 120753Z AUTO 03003KT 10SM CLR M06/M08 A3016 RMK AO2 SLP250 T10561078,KHVR,2015-02-12T07:53:00Z,48.55,-109.77,-5.6,-7.8,30,3,,10.0,30.159449,1025.0,,TRUE,TRUE,,,,,,,CLR,,,,,,,,VFR,,,,,,,,,,,,METAR,787.0
KDVP 120753Z AUTO 33019G25KT 10SM CLR M19/M23 A3057 RMK AO2 T11951230,KDVP,2015-02-12T07:53:00Z,43.98,-95.78,-19.5,-23.0,330,19,25,10.0,30.569881,,,TRUE,TRUE,,,,,,,CLR,,,,,,,,VFR,,,,,,,,,,,,METAR,495.0
KUNO 120753Z AUTO 32009KT 10SM CLR M03/M08 A3029 RMK AO2 SLP262 T10331078,KUNO,2015-02-12T07:53:00Z,36.88,-91.9,-3.3,-7.8,320,9,,10.0,30.28937,1026.2,,TRUE,TRUE,,,,,,,CLR,,,,,,,,VFR,,,,,,,,,,,,METAR,372.0
KGGG 120753Z AUTO 33009KT 10SM CLR 08/03 A3025 RMK AO2 SLP244 T00830033 TSNO,KGGG,2015-02-12T07:53:00Z,32.38,-94.72,8.3,3.3,330,9,,10.0,30.250984,1024.4,,TRUE,TRUE,,,TRUE,,,,CLR,,,,,,,,VFR,,,,,,,,,,,,METAR,107.0
KTIW 120753Z AUTO 16003KT 10SM -RA BKN100 OVC110 10/08 A3023 RMK AO2 RAB07 SLP237 P0002 T01000083 401110061,KTIW,2015-02-12T07:53:00Z,47.27,-122.58,10.0,8.3,160,3,,10.0,30.230314,1023.7,,TRUE,TRUE,,,,,,-RA,BKN,10000,OVC,11000,,,,,VFR,,,,11.1,6.1,0.02,,,,,,METAR,89.0
KELO 120753Z AUTO 32008KT 10SM CLR M23/M26 A3049 RMK AO2,KELO,2015-02-12T07:53:00Z,47.82,-91.82,-23.0,-26.0,320,8,,10.0,30.490158,,,TRUE,TRUE,,,,,,,CLR,,,,,,,,VFR,,,,,,,,,,,,METAR,443.0
KDYT 120753Z AUTO 33009KT 10SM CLR M18/M23 A3056 RMK AO2,KDYT,2015-02-12T07:53:00Z,46.72,-92.03,-18.0,-23.0,330,9,,10.0,30.561024,,,TRUE,TRUE,,,,,,,CLR,,,,,,,,VFR,,,,,,,,,,,,METAR,186.0
KGDB 120753Z AUTO 31013KT 10SM CLR M19/M22 A3066 RMK AO2 T11951225,KGDB,2015-02-12T07:53:00Z,44.75,-95.55,-19.5,-22.5,310,13,,10.0,30.661417,,,TRUE,TRUE,,,,,,,CLR,,,,,,,,VFR,,,,,,,,,,,,METAR,319.0
KFVE 120753Z AUTO 07005KT 10SM CLR M19/M24 A2984 RMK AO2 SLP129 T11941239,KFVE,2015-02-12T07:53:00Z,47.28,-68.3,-19.4,-23.9,70,5,,10.0,29.840551,1012.9,,TRUE,TRUE,,,,,,,CLR,,,,,,,,VFR,,,,,,,,,,,,METAR,301.0
KEWB 120753Z AUTO 00000KT 10SM OVC022 M06/M09 A2987 RMK AO2 SLP115 T10611094,KEWB,2015-02-12T07:53:00Z,41.68,-70.95,-6.1,-9.4,0,0,,10.0,29.870079,1011.5,,TRUE,TRUE,,,,,,,OVC,2200,,,,,,,MVFR,,,,,,,,,,,,METAR,23.0
KVLD 120753Z AUTO 00000KT 6SM BR CLR 06/04 A3004 RMK AO2 SLP179 T00560044 TSNO,KVLD,2015-02-12T07:53:00Z,30.78,-83.27,5.6,4.4,0,0,,6.0,30.041338,1017.9,,TRUE,TRUE,,,TRUE,,,BR,CLR,,,,,,,,VFR,,,,,,,,,,,,METAR,62.0
KVIH 120753Z AUTO 28008KT 10SM CLR M05/M08 A3026 RMK AO2 SLP260 T10501078,KVIH,2015-02-12T07:53:00Z,38.13,-91.77,-5.0,-7.8,280,8,,10.0,30.259842,1026.0,,TRUE,TRUE,,,,,,,CLR,,,,,,,,VFR,,,,,,,,,,,,METAR,333.0
KVGT 120753Z 35006KT 10SM CLR 13/M08 A3027 RMK AO2 SLP261 T01331078 402220117,KVGT,2015-02-12T07:53:00Z,36.22,-115.2,13.3,-7.8,350,6,,10.0,30.268702,1026.1,,,TRUE,,,,,,,CLR,,,,,,,,VFR,,,,22.2,11.7,,,,,,,METAR,671.0
KVEL 120753Z AUTO 18004KT 10SM CLR M01/M07 A3041 RMK AO2 SLP293 T10061067,KVEL,2015-02-12T07:53:00Z,40.45,-109.52,-0.6,-6.7,180,4,,10.0,30.410433,1029.3,,TRUE,TRUE,,,,,,,CLR,,,,,,,,VFR,,,,,,,,,,,,METAR,1604.0
KHUL 120753Z AUTO 00000KT 10SM CLR M22/M25 A2988 RMK AO2 SLP131 T12221250,KHUL,2015-02-12T07:53:00Z,46.12,-67.8,-22.2,-25.0,0,0,,10.0,29.878937,1013.1,,TRUE,TRUE,,,,,,,CLR,,,,,,,,VFR,,,,,,,,,,,,METAR,150.0
KHFD 120753Z 11003KT 10SM FEW019 OVC100 M09/M12 A2988 RMK AO2 SLP118 T10941117,KHFD,2015-02-12T07:53:00Z,41.73,-72.65,-9.4,-11.7,110,3,,10.0,29.878937,1011.8,,,TRUE,,,,,,,FEW,1900,OVC,10000,,,,,VFR,,,,,,,,,,,,METAR,4.0
KGHW 120753Z AUTO 34009KT 10SM CLR M21/M24 A3059 RMK AO2,KGHW,2015-02-12T07:53:00Z,45.63,-95.32,-21.0,-24.0,340,9,,10.0,30.590551,,,TRUE,TRUE,,,,,,,CLR,,,,,,,,VFR,,,,,,,,,,,,METAR,425.0
KGFL 120753Z AUTO 00000KT 10SM OVC030 M08/M12 A2979 RMK AO2 SNB0655E07 SLP098 P0000 T10831122,KGFL,2015-02-12T07:53:00Z,43.33,-73.62,-8.3,-12.2,0,0,,10.0,29.790354,1009.8,,TRUE,TRUE,,,,,,,OVC,3000,,,,,,,MVFR,,,,,,0.0050,,,,,,METAR,103.0
KYIP 120753Z AUTO 35013G19KT 10SM FEW049 OVC070 M03/M11 A2994 RMK AO2 UPE0657SNB0657E0658 SLP143 P0000 T10331106 TSNO,KYIP,2015-02-12T07:53:00Z,42.23,-83.53,-3.3,-10.6,350,13,19,10.0,29.940945,1014.3,,TRUE,TRUE,,,TRUE,,,,FEW,4900,OVC,7000,,,,,VFR,,,,,,0.0050,,,,,,METAR,215.0
KXNA 120753Z AUTO 01004KT 10SM CLR M04/M07 A3038 RMK AO2 SLP293 T10441072,KXNA,2015-02-12T07:53:00Z,36.28,-94.3,-4.4,-7.2,10,4,,10.0,30.380905,1029.3,,TRUE,TRUE,,,,,,,CLR,,,,,,,,VFR,,,,,,,,,,,,METAR,392.0
KWVI 120753Z AUTO 00000KT 10SM CLR 13/08 A3016 RMK AO2 SLP214 T01330083 402500067,KWVI,2015-02-12T07:53:00Z,36.93,-121.78,13.3,8.3,0,0,,10.0,30.159449,1021.4,,TRUE,TRUE,,,,,,,CLR,,,,,,,,VFR,,,,25.0,6.7,,,,,,,METAR,43.0
KWRL 120753Z AUTO 20005KT 10SM CLR M01/M03 A3022 RMK AO2 SLP253 T10111028,KWRL,2015-02-12T07:53:00Z,43.97,-107.95,-1.1,-2.8,200,5,,10.0,30.221457,1025.3,,TRUE,TRUE,,,,,,,CLR,,,,,,,,VFR,,,,,,,,,,,,METAR,1271.0
KVUO 120753Z AUTO 14003KT 10SM SCT120 10/07 A3023 RMK AO2 SLP236 T01000072 401330028,KVUO,2015-02-12T07:53:00Z,45.62,-122.65,10.0,7.2,140,3,,10.0,30.230314,1023.6,,TRUE,TRUE,,,,,,,SCT,12000,,,,,,,VFR,,,,13.3,2.8,,,,,,,METAR,8.0
KVRB 120753Z AUTO 27003KT 9SM CLR 06/05 A3005 RMK AO2 SLP175 T00610050,KVRB,2015-02-12T07:53:00Z,27.65,-80.42,6.1,5.0,270,3,,9.0,30.050198,1017.5,,TRUE,TRUE,,,,,,,CLR,,,,,,,,VFR,,,,,,,,,,,,METAR,10.0
KVPC 120753Z AUTO 00000KT 10SM CLR 03/M02 A3003 RMK AO2 SLP167 T00281017,KVPC,2015-02-12T07:53:00Z,34.13,-84.85,2.8,-1.7,0,0,,10.0,30.029528,1016.7,,TRUE,TRUE,,,,,,,CLR,,,,,,,,VFR,,,,,,,,,,,,METAR,222.0
KYKM 120753Z AUTO 00000KT 10SM SCT100 BKN120 07/05 A3027 RMK AO2 SLP253 T00720050 401220022,KYKM,2015-02-12T07:53:00Z,46.57,-120.53,7.2,5.0,0,0,,10.0,30.268702,1025.3,,TRUE,TRUE,,,,,,,SCT,10000,BKN,12000,,,,,VFR,,,,12.2,2.2,,,,,,,METAR,324.0
KLJF 120753Z AUTO 34010KT 10SM CLR M19/M22 A3059 RMK AO2,KLJF,2015-02-12T07:53:00Z,45.1,-94.52,-19.0,-22.0,340,10,,10.0,30.590551,,,TRUE,TRUE,,,,,,,CLR,,,,,,,,VFR,,,,,,,,,,,,METAR,348.0
KLEB 120753Z AUTO 00000KT 10SM OVC100 M12/M14 A2981 RMK AO2 SLP109 T11221144,KLEB,2015-02-12T07:53:00Z,43.63,-72.3,-12.2,-14.4,0,0,,10.0,29.811024,1010.9,,TRUE,TRUE,,,,,,,OVC,10000,,,,,,,VFR,,,,,,,,,,,,METAR,171.0
KIWI 120753Z AUTO 00000KT 10SM CLR M17/M19 A2991 RMK AO2 SLP130 T11671194,KIWI,2015-02-12T07:53:00Z,43.97,-69.72,-16.7,-19.4,0,0,,10.0,29.911417,1013.0,,TRUE,TRUE,,,,,,,CLR,,,,,,,,VFR,,,,,,,,,,,,METAR,20.0
KIKW 120753Z AUTO 30011KT 10SM CLR M09/M16 A2998 RMK AO2 T10951158,KIKW,2015-02-12T07:53:00Z,43.67,-84.27,-9.5,-15.8,300,11,,10.0,29.97933,,,TRUE,TRUE,,,,,,,CLR,,,,,,,,VFR,,,,,,,,,,,,METAR,194.0
KZZV 120753Z AUTO 29010KT 2SM -SN SCT018 BKN036 OVC048 M01/M04 A2992 RMK AO2 SNB26 SLP138 P0000 T10111039,KZZV,2015-02-12T07:53:00Z,39.95,-81.9,-1.1,-3.9,290,10,,2.0,29.920275,1013.8,,TRUE,TRUE,,,,,,-SN,SCT,1800,BKN,3600,OVC,4800,,,IFR,,,,,,0.0050,,,,,,METAR,268.0
KMWM 120753Z AUTO 33017G25KT 10SM CLR M19/M22 A3055 RMK AO2,KMWM,2015-02-12T07:53:00Z,43.9,-95.1,-19.0,-22.0,330,17,25,10.0,30.549213,,,TRUE,TRUE,,,,,,,CLR,,,,,,,,VFR,,,,,,,,,,,,METAR,430.0
KMVY 120753Z AUTO 34007KT 10SM OVC021 M04/M09 A2987 RMK AO2 SLP114 T10441089,KMVY,2015-02-12T07:53:00Z,41.4,-70.62,-4.4,-8.9,340,7,,10.0,29.870079,1011.4,,TRUE,TRUE,,,,,,,OVC,2100,,,,,,,MVFR,,,,,,,,,,,,METAR,16.0
KMSS 120753Z AUTO 05006KT 1 1/2SM -SN BR OVC014 M12/M13 A2975 RMK AO2 SLP083 P0000 T11171133,KMSS,2015-02-12T07:53:00Z,44.93,-74.85,-11.7,-13.3,50,6,,1.5,29.749016,1008.3,,TRUE,TRUE,,,,,,-SN BR,OVC,1400,,,,,,,IFR,,,,,,0.0050,,,,,,METAR,66.0
KMRT 120753Z AUTO 31006KT 7SM SCT023 SCT038 OVC044 M02/M05 A2994 RMK AO2 T10201050,KMRT,2015-02-12T07:53:00Z,40.22,-83.35,-2.0,-5.0,310,6,,7.0,29.940945,,,TRUE,TRUE,,,,,,,SCT,2300,SCT,3800,OVC,4400,,,VFR,,,,,,,,,,,,METAR,312.0
KMOX 120753Z AUTO 31012KT 10SM CLR M22/M24 A3064 RMK AO2,KMOX,2015-02-12T07:53:00Z,45.57,-95.97,-22.0,-24.0,310,12,,10.0,30.640747,,,TRUE,TRUE,,,,,,,CLR,,,,,,,,VFR,,,,,,,,,,,,METAR,344.0
KMMK 120753Z AUTO 00000KT 9SM OVC100 M11/M13 A2988 RMK AO2 SLP120 T11061128 TSNO,KMMK,2015-02-12T07:53:00Z,41.52,-72.83,-10.6,-12.8,0,0,,9.0,29.878937,1012.0,,TRUE,TRUE,,,TRUE,,,,OVC,10000,,,,,,,VFR,,,,,,,,,,,,METAR,31.0
KMLT 120753Z AUTO 06004KT 10SM CLR M18/M23 A2991 RMK AO2 SLP144 T11831233,KMLT,2015-02-12T07:53:00Z,45.65,-68.7,-18.3,-23.3,60,4,,10.0,29.911417,1014.4,,TRUE,TRUE,,,,,,,CLR,,,,,,,,VFR,,,,,,,,,,,,METAR,123.0
KMJQ 120753Z AUTO 34014G22KT 10SM SCT100 M17/M21 A3054 RMK AO2,KMJQ,2015-02-12T07:53:00Z,43.63,-94.97,-17.0,-21.0,340,14,22,10.0,30.540354,,,TRUE,TRUE,,,,,,,SCT,10000,,,,,,,VFR,,,,,,,,,,,,METAR,441.0
KMHT 120753Z 01004KT 10SM OVC130 M13/M16 A2986 RMK AO2 SLP134 T11331161,KMHT,2015-02-12T07:53:00Z,42.93,-71.43,-13.3,-16.1,10,4,,10.0,29.861221,1013.4,,,TRUE,,,,,,,OVC,13000,,,,,,,VFR,,,,,,,,,,,,METAR,81.0
KOWD 120753Z AUTO 26004KT 10SM BKN021 M13/M14 A2988 RMK AO2 SLP119 T11281144,KOWD,2015-02-12T07:53:00Z,42.18,-71.17,-12.8,-14.4,260,4,,10.0,29.878937,1011.9,,TRUE,TRUE,,,,,,,BKN,2100,,,,,,,MVFR,,,,,,,,,,,,METAR,19.0
KOSC 120753Z AUTO 31008G17KT 10SM SCT023 SCT028 M11/M16 A2993 RMK AO2 T11161162,KOSC,2015-02-12T07:53:00Z,44.45,-83.4,-11.6,-16.2,310,8,17,10.0,29.929134,,,TRUE,TRUE,,,,,,,SCT,2300,SCT,2800,,,,,VFR,,,,,,,,,,,,METAR,193.0
KPCW 120753Z AUTO 27009KT 10SM BKN055 OVC070 M02/M04 A2991 RMK AO2,KPCW,2015-02-12T07:53:00Z,41.52,-82.87,-2.0,-4.0,270,9,,10.0,29.911417,,,TRUE,TRUE,,,,,,,BKN,5500,OVC,7000,,,,,VFR,,,,,,,,,,,,METAR,178.0
KSAZ 120753Z AUTO 34007KT 10SM CLR M23/M26 A3059 RMK AO2,KSAZ,2015-02-12T07:53:00Z,46.37,-94.8,-23.0,-26.0,340,7,,10.0,30.590551,,,TRUE,TRUE,,,,,,,CLR,,,,,,,,VFR,,,,,,,,,,,,METAR,392.0
KRME 120753Z AUTO 13005KT 1 1/2SM -SN BR OVC010 M06/M06 A2976 RMK AO2 UPB07E27SNE07B27 SLP083 P0001 T10561061,KRME,2015-02-12T07:53:00Z,43.22,-75.4,-5.6,-6.1,130,5,,1.5,29.760826,1008.3,,TRUE,TRUE,,,,,,-SN BR,OVC,1000,,,,,,,IFR,,,,,,0.01,,,,,,METAR,154.0
KTKC 120753Z AUTO 34016G21KT 10SM CLR M19/M22 A3061 RMK AO2 T11871216,KTKC,2015-02-12T07:53:00Z,44.25,-95.62,-18.7,-21.6,340,16,21,10.0,30.611221,,,TRUE,TRUE,,,,,,,CLR,,,,,,,,VFR,,,,,,,,,,,,METAR,408.0
KUUU 120753Z AUTO 01005KT 10SM FEW025 M07/M09 A2987 RMK AO2 SLP115 T10671089,KUUU,2015-02-12T07:53:00Z,41.53,-71.28,-6.7,-8.9,10,5,,10.0,29.870079,1011.5,,TRUE,TRUE,,,,,,,FEW,2500,,,,,,,VFR,,,,,,,,,,,,METAR,51.0
KVVV 120753Z AUTO 34013G18KT 10SM CLR M21/M24 A3066 RMK AO2,KVVV,2015-02-12T07:53:00Z,45.3,-96.42,-21.0,-24.0,340,13,18,10.0,30.661417,,,TRUE,TRUE,,,,,,,CLR,,,,,,,,VFR,,,,,,,,,,,,METAR,335.0
KWST 120753Z AUTO 00000KT 10SM CLR M11/M13 A2988 RMK AO2 SLP121 T11111128,KWST,2015-02-12T07:53:00Z,41.35,-71.8,-11.1,-12.8,0,0,,10.0,29.878937,1012.1,,TRUE,TRUE,,,,,,,CLR,,,,,,,,VFR,,,,,,,,,,,,METAR,21.0
KY63 120753Z AUTO 32008KT 10SM CLR M24/M27 A3064 RMK AO2 T12451269,KY63,2015-02-12T07:53:00Z,45.98,-96.0,-24.5,-26.9,320,8,,10.0,30.640747,,,TRUE,TRUE,,,,,,,CLR,,,,,,,,VFR,,,,,,,,,,,,METAR,367.0
KY70 120753Z AUTO 34009G18KT 10SM SCT018 BKN026 BKN033 M08/M12 A3000 RMK AO2 T10801125 PWINO,KY70,2015-02-12T07:53:00Z,42.93,-85.07,-8.0,-12.5,340,9,18,10.0,30.0,,,TRUE,TRUE,,,,,TRUE,,SCT,1800,BKN,2600,BKN,3300,,,MVFR,,,,,,,,,,,,METAR,250.0
KELY 120753Z AUTO 16009KT 10SM CLR M05/M09 A3044 RMK AO2 SLP304 T10501094 401221089,KELY,2015-02-12T07:53:00Z,39.3,-114.85,-5.0,-9.4,160,9,,10.0,30.43996,1030.4,,TRUE,TRUE,,,,,,,CLR,,,,,,,,VFR,,,,12.2,-8.9,,,,,,,METAR,1906.0
KHSI 120753Z AUTO 03016KT 10SM OVC021 M06/M11 A3053 RMK AO2 SLP360 T10611111,KHSI,2015-02-12T07:53:00Z,40.6,-98.43,-6.1,-11.1,30,16,,10.0,30.528543,1036.0,,TRUE,TRUE,,,,,,,OVC,2100,,,,,,,MVFR,,,,,,,,,,,,METAR,591.0
KCKC 120753Z AUTO 33015G23KT 7SM CLR M24/M28 A3032 RMK AO2,KCKC,2015-02-12T07:53:00Z,47.83,-90.37,-24.0,-28.0,330,15,23,7.0,30.318897,,,TRUE,TRUE,,,,,,,CLR,,,,,,,,VFR,,,,,,,,,,,,METAR,548.0
KDRA 120752Z AUTO 07005KT 10SM CLR 10/M07 A3030 RMK AO2 SLP238 T01001067 402060083,KDRA,2015-02-12T07:52:00Z,36.62,-116.03,10.0,-6.7,70,5,,10.0,30.301182,1023.8,,TRUE,TRUE,,,,,,,CLR,,,,,,,,VFR,,,,20.6,8.3,,,,,,,METAR,1006.0
KFLY 120752Z AUTO 20004KT 10SM CLR M03/M04 A3039 RMK AO2 T10301039,KFLY,2015-02-12T07:52:00Z,38.95,-104.57,-3.0,-3.9,200,4,,10.0,30.389763,,,TRUE,TRUE,,,,,,,CLR,,,,,,,,VFR,,,,,,,,,,,,METAR,2096.0
CYGW 120752Z AUTO 03002KT 6SM HZ FEW009 M34/M38 A3030 RMK SLP262,CYGW,2015-02-12T07:52:00Z,55.27,-77.77,-34.0,-38.0,30,2,,6.0,30.301182,1026.2,,TRUE,,,,,,,HZ,FEW,900,,,,,,,VFR,,,,,,,,,,,,SPECI,12.0
KABQ 120752Z 02004KT 10SM BKN036 05/00 A3043 RMK AO2 SLP292 MTNS OBSC NE-SE T00500000,KABQ,2015-02-12T07:52:00Z,35.05,-106.62,5.0,0.0,20,4,,10.0,30.431103,1029.2,,,TRUE,,,,,,,BKN,3600,,,,,,,VFR,,,,,,,,,,,,METAR,1618.0
CYZR 120752Z AUTO 32016G23KT 9SM OVC065 M08/M12 A2992 RMK SLP141,CYZR,2015-02-12T07:52:00Z,43.0,-82.3,-8.0,-12.0,320,16,23,9.0,29.920275,1014.1,,TRUE,,,,,,,,OVC,6500,,,,,,,VFR,,,,,,,,,,,,SPECI,181.0
PTKR 120752Z 08004KT 15SM FEW018 BKN120 OVC320 29/22 A2979 RMK SLP089 T02940222,PTKR,2015-02-12T07:52:00Z,7.33,134.48,29.4,22.2,80,4,,15.0,29.790354,1008.9,,,,,,,,,,FEW,1800,BKN,12000,OVC,32000,,,VFR,,,,,,,,,,,,METAR,30.0
KREO 120752Z AUTO 00000KT 01/M02 A3032 RMK AO1 SLP277 T00111017 401391056,KREO,2015-02-12T07:52:00Z,42.58,-117.87,1.1,-1.7,0,0,,,30.318897,1027.7,,TRUE,TRUE,,,,,,,,,,,,,,,,,,,13.9,-5.6,,,,,,,METAR,1235.0
KEST 120752Z AUTO 34022G27KT 10SM SCT013 M18/M22 A3054 RMK AO2 PK WND 34029/0720 SLP372 T11831217,KEST,2015-02-12T07:52:00Z,43.4,-94.75,-18.3,-21.7,340,22,27,10.0,30.540354,1037.2,,TRUE,TRUE,,,,,,,SCT,1300,,,,,,,VFR,,,,,,,,,,,,METAR,401.0
KISN 120752Z AUTO 15009KT 10SM CLR M18/M22 A3048 RMK AO2 SLP376 T11781217,KISN,2015-02-12T07:52:00Z,48.17,-103.63,-17.8,-21.7,150,9,,10.0,30.481298,1037.6,,TRUE,TRUE,,,,,,,CLR,,,,,,,,VFR,,,,,,,,,,,,METAR,579.0
KMDH 120752Z AUTO 31008KT 10SM CLR M02/M07 A3024 RMK AO2 SLP244 T10221072,KMDH,2015-02-12T07:52:00Z,37.78,-89.25,-2.2,-7.2,310,8,,10.0,30.239174,1024.4,,TRUE,TRUE,,,,,,,CLR,,,,,,,,VFR,,,,,,,,,,,,METAR,130.0
KPYM 120752Z AUTO 29005KT 10SM OVC020 M07/M10 A2988 RMK AO2 SLP119 T10671100,KPYM,2015-02-12T07:52:00Z,41.92,-70.73,-6.7,-10.0,290,5,,10.0,29.878937,1011.9,,TRUE,TRUE,,,,,,,OVC,2000,,,,,,,MVFR,,,,,,,,,,,,METAR,43.0
KPPF 120752Z AUTO 33003KT 10SM CLR M06/M08 A3045 RMK AO2 SLP317 T10611078 TSNO,KPPF,2015-02-12T07:52:00Z,37.33,-95.5,-6.1,-7.8,330,3,,10.0,30.448818,1031.7,,TRUE,TRUE,,,TRUE,,,,CLR,,,,,,,,VFR,,,,,,,,,,,,METAR,274.0
KNZY 120752Z 25004KT 10SM CLR 17/05 A3002 RMK AO2 SLP167 T01670050 402720111 $,KNZY,2015-02-12T07:52:00Z,32.7,-117.22,16.7,5.0,250,4,,10.0,30.02067,1016.7,,,TRUE,TRUE,,,,,,CLR,,,,,,,,VFR,,,,27.2,11.1,,,,,,,METAR,8.0
PKMR 120752Z 07010KT 15SM SCT015 SCT050 OVC300 28/24 A2980 RMK SLP091 T02790236,PKMR,2015-02-12T07:52:00Z,7.08,171.38,27.9,23.6,70,10,,15.0,29.799213,1009.1,,,,,,,,,,SCT,1500,SCT,5000,OVC,30000,,,VFR,,,,,,,,,,,,METAR,4.0
KVTN 120752Z AUTO 05010KT 10SM BKN017 OVC026 M12/M16 A3053 RMK AO2 SNB0657E06 SLP377 P0000 T11221156,KVTN,2015-02-12T07:52:00Z,42.87,-100.55,-12.2,-15.6,50,10,,10.0,30.528543,1037.7,,TRUE,TRUE,,,,,,,BKN,1700,OVC,2600,,,,,MVFR,,,,,,0.0050,,,,,,METAR,788.0
KTRM 120752Z AUTO 01005KT 10SM CLR 14/M04 A3010 RMK AO2 SLP194 T01441039 403110067 TSNO,KTRM,2015-02-12T07:52:00Z,33.63,-116.17,14.4,-3.9,10,5,,10.0,30.100393,1019.4,,TRUE,TRUE,,,TRUE,,,,CLR,,,,,,,,VFR,,,,31.1,6.7,,,,,,,METAR,-35.0
KTOL 120752Z 30010KT 6SM -SN BR FEW012 BKN027 OVC065 M04/M06 A2994 RMK AO2 SLP147 P0001 T10391056 $,KTOL,2015-02-12T07:52:00Z,41.58,-83.8,-3.9,-5.6,300,10,,6.0,29.940945,1014.7,,,TRUE,TRUE,,,,,-SN BR,FEW,1200,BKN,2700,OVC,6500,,,MVFR,,,,,,0.01,,,,,,METAR,210.0
KTAN 120752Z AUTO 00000KT 10SM OVC021 M06/M11 A2987 RMK AO2 SLP114 T10611111,KTAN,2015-02-12T07:52:00Z,41.88,-71.02,-6.1,-11.1,0,0,,10.0,29.870079,1011.4,,TRUE,TRUE,,,,,,,OVC,2100,,,,,,,MVFR,,,,,,,,,,,,METAR,7.0
KDVN 120752Z AUTO 32022G29KT 5SM -SN OVC039 M13/M17 A3030 RMK AO2 PK WND 32035/0653 SNB08 SLP275 P0000 T11281167,KDVN,2015-02-12T07:52:00Z,41.62,-90.58,-12.8,-16.7,320,22,29,5.0,30.301182,1027.5,,TRUE,TRUE,,,,,,-SN,OVC,3900,,,,,,,MVFR,,,,,,0.0050,,,,,,METAR,230.0
KDPA 120752Z 33014KT 4SM -SN OVC032 M09/M14 A3016 RMK AO2 SNB23 SLP223 P0000 T10941139,KDPA,2015-02-12T07:52:00Z,41.92,-88.25,-9.4,-13.9,330,14,,4.0,30.159449,1022.3,,,TRUE,,,,,,-SN,OVC,3200,,,,,,,MVFR,,,,,,0.0050,,,,,,METAR,231.0
KDDC 120752Z AUTO 25009KT 10SM CLR M01/M08 A3038 RMK AO2 SLP300 T10111078,KDDC,2015-02-12T07:52:00Z,37.77,-99.97,-1.1,-7.8,250,9,,10.0,30.380905,1030.0,,TRUE,TRUE,,,,,,,CLR,,,,,,,,VFR,,,,,,,,,,,,METAR,789.0
KDCA 120752Z 21006KT 10SM OVC060 02/M03 A2988 RMK AO2 SLP119 T00171033,KDCA,2015-02-12T07:52:00Z,38.85,-77.03,1.7,-3.3,210,6,,10.0,29.878937,1011.9,,,TRUE,,,,,,,OVC,6000,,,,,,,VFR,,,,,,,,,,,,METAR,18.0
KCVG 120752Z 29015G24KT 10SM OVC028 M02/M08 A3003 RMK AO2 SLP172 T10171083,KCVG,2015-02-12T07:52:00Z,39.05,-84.67,-1.7,-8.3,290,15,24,10.0,30.029528,1017.2,,,TRUE,,,,,,,OVC,2800,,,,,,,MVFR,,,,,,,,,,,,METAR,269.0
KCQX 120752Z AUTO VRB05KT 10SM OVC020 M02/M06 A2985 RMK AO2 SLP110 T10171056,KCQX,2015-02-12T07:52:00Z,41.68,-70.0,-1.7,-5.6,0,5,,10.0,29.84941,1011.0,,TRUE,TRUE,,,,,,,OVC,2000,,,,,,,MVFR,,,,,,,,,,,,METAR,19.0
KCNU 120752Z AUTO 32004KT 10SM CLR M04/M07 A3043 RMK AO2 SLP311 T10441072,KCNU,2015-02-12T07:52:00Z,37.67,-95.48,-4.4,-7.2,320,4,,10.0,30.431103,1031.1,,TRUE,TRUE,,,,,,,CLR,,,,,,,,VFR,,,,,,,,,,,,METAR,297.0
KCLT 120752Z 00000KT 10SM CLR 03/M01 A2990 RMK AO2 SLP124 T00281011,KCLT,2015-02-12T07:52:00Z,35.22,-80.95,2.8,-1.1,0,0,,10.0,29.899607,1012.4,,,TRUE,,,,,,,CLR,,,,,,,,VFR,,,,,,,,,,,,METAR,220.0
KCKV 120752Z AUTO 33010KT 10SM CLR M02/M06 A3019 RMK AO2 SLP224 T10171061,KCKV,2015-02-12T07:52:00Z,36.62,-87.42,-1.7,-6.1,330,10,,10.0,30.188976,1022.4,,TRUE,TRUE,,,,,,,CLR,,,,,,,,VFR,,,,,,,,,,,,METAR,165.0
KCID 120752Z AUTO 33020G29KT 10SM CLR M15/M19 A3037 RMK AO2 PK WND 33032/0707 SLP302 T11501189,KCID,2015-02-12T07:52:00Z,41.88,-91.72,-15.0,-18.9,330,20,29,10.0,30.369095,1030.2,,TRUE,TRUE,,,,,,,CLR,,,,,,,,VFR,,,,,,,,,,,,METAR,264.0
KCFV 120752Z AUTO 33004KT 10SM CLR M05/M08 A3045 RMK AO2 SLP316 T10501078,KCFV,2015-02-12T07:52:00Z,37.08,-95.57,-5.0,-7.8,330,4,,10.0,30.448818,1031.6,,TRUE,TRUE,,,,,,,CLR,,,,,,,,VFR,,,,,,,,,,,,METAR,225.0
KBML 120752Z AUTO 36003KT 10SM BKN110 M16/M18 A2975 RMK AO2 SLP098 T11561183,KBML,2015-02-12T07:52:00Z,44.58,-71.18,-15.6,-18.3,360,3,,10.0,29.749016,1009.8,,TRUE,TRUE,,,,,,,BKN,11000,,,,,,,VFR,,,,,,,,,,,,METAR,345.0
KBLH 120752Z AUTO 34012KT 10SM CLR 21/M04 A3012 RMK AO2 SLP195 T02111039 402780156,KBLH,2015-02-12T07:52:00Z,33.62,-114.72,21.1,-3.9,340,12,,10.0,30.121063,1019.5,,TRUE,TRUE,,,,,,,CLR,,,,,,,,VFR,,,,27.8,15.6,,,,,,,METAR,119.0
KBLF 120752Z AUTO 28012KT 10SM OVC020 02/M03 A2987 RMK AO2 SLP116 T00171033,KBLF,2015-02-12T07:52:00Z,37.3,-81.2,1.7,-3.3,280,12,,10.0,29.870079,1011.6,,TRUE,TRUE,,,,,,,OVC,2000,,,,,,,MVFR,,,,,,,,,,,,METAR,873.0
KBIS 120752Z AUTO 12004KT 10SM CLR M21/M24 A3065 RMK AO2 SLP426 T12061239,KBIS,2015-02-12T07:52:00Z,46.77,-100.75,-20.6,-23.9,120,4,,10.0,30.649607,1042.6,,TRUE,TRUE,,,,,,,CLR,,,,,,,,VFR,,,,,,,,,,,,METAR,505.0
KBDR 120752Z 04004KT 10SM CLR M06/M09 A2988 RMK AO2 SLP117 T10561089,KBDR,2015-02-12T07:52:00Z,41.17,-73.13,-5.6,-8.9,40,4,,10.0,29.878937,1011.7,,,TRUE,,,,,,,CLR,,,,,,,,VFR,,,,,,,,,,,,METAR,7.0
KATL 120752Z 32010KT 10SM SCT200 BKN250 07/M02 A3000 RMK AO2 SLP159 T00721017,KATL,2015-02-12T07:52:00Z,33.63,-84.45,7.2,-1.7,320,10,,10.0,30.0,1015.9,,,TRUE,,,,,,,SCT,20000,BKN,25000,,,,,VFR,,,,,,,,,,,,METAR,296.0
KARR 120752Z AUTO 33018G22KT 2SM -SN BKN026 OVC032 M09/M13 A3018 RMK AO2 SNB16 SLP230 P0000 T10891128 $,KARR,2015-02-12T07:52:00Z,41.77,-88.48,-8.9,-12.8,330,18,22,2.0,30.180119,1023.0,,TRUE,TRUE,TRUE,,,,,-SN,BKN,2600,OVC,3200,,,,,IFR,,,,,,0.0050,,,,,,METAR,215.0
KAQW 120752Z AUTO 09003KT 10SM BKN031 OVC040 M07/M14 A2979 RMK AO2 SLP099 T10671144,KAQW,2015-02-12T07:52:00Z,42.7,-73.17,-6.7,-14.4,90,3,,10.0,29.790354,1009.9,,TRUE,TRUE,,,,,,,BKN,3100,OVC,4000,,,,,VFR,,,,,,,,,,,,METAR,199.0
KALS 120752Z AUTO 00000KT 10SM CLR M08/M09 A3041 RMK AO2 SLP313 T10781094,KALS,2015-02-12T07:52:00Z,37.43,-105.87,-7.8,-9.4,0,0,,10.0,30.410433,1031.3,,TRUE,TRUE,,,,,,,CLR,,,,,,,,VFR,,,,,,,,,,,,METAR,2299.0
KAFN 120752Z AUTO 00000KT 10SM BKN110 M17/M19 A2979 RMK AO2 SLP115 I1000 T11721189,KAFN,2015-02-12T07:52:00Z,42.8,-72.0,-17.2,-18.9,0,0,,10.0,29.790354,1011.5,,TRUE,TRUE,,,,,,,BKN,11000,,,,,,,VFR,,,,,,,,,,,,METAR,313.0
KABI 120752Z 01013KT 10SM OVC060 06/M05 A3038 RMK AO2 SLP282 T00611050,KABI,2015-02-12T07:52:00Z,32.42,-99.68,6.1,-5.0,10,13,,10.0,30.380905,1028.2,,,TRUE,,,,,,,OVC,6000,,,,,,,VFR,,,,,,,,,,,,METAR,548.0
KSUX 120752Z 34012KT 10SM CLR M13/M19 A3062 RMK AO2 SLP391 T11331194,KSUX,2015-02-12T07:52:00Z,42.38,-96.38,-13.3,-19.4,340,12,,10.0,30.620079,1039.1,,,TRUE,,,,,,,CLR,,,,,,,,VFR,,,,,,,,,,,,METAR,338.0
KSPS 120752Z AUTO 01011KT 10SM BKN120 04/M03 A3041 RMK AO2 SLP298 T00391033,KSPS,2015-02-12T07:52:00Z,33.98,-98.5,3.9,-3.3,10,11,,10.0,30.410433,1029.8,,TRUE,TRUE,,,,,,,BKN,12000,,,,,,,VFR,,,,,,,,,,,,METAR,308.0
KSPI 120752Z AUTO 33023G30KT 10SM OVC025 M06/M11 A3024 RMK AO2 PK WND 31034/0715 SLP249 T10561111,KSPI,2015-02-12T07:52:00Z,39.85,-89.68,-5.6,-11.1,330,23,30,10.0,30.239174,1024.9,,TRUE,TRUE,,,,,,,OVC,2500,,,,,,,MVFR,,,,,,,,,,,,METAR,181.0
KSGF 120752Z 32007KT 10SM CLR M06/M08 A3034 RMK AO2 SLP285 T10561078 $,KSGF,2015-02-12T07:52:00Z,37.23,-93.38,-5.6,-7.8,320,7,,10.0,30.339567,1028.5,,,TRUE,TRUE,,,,,,CLR,,,,,,,,VFR,,,,,,,,,,,,METAR,390.0
KRAP 120752Z AUTO 13013KT 5SM BR OVC006 M09/M10 A3044 RMK AO2 SLP352 I1000 T10891100,KRAP,2015-02-12T07:52:00Z,44.05,-103.05,-8.9,-10.0,130,13,,5.0,30.43996,1035.2,,TRUE,TRUE,,,,,,BR,OVC,600,,,,,,,IFR,,,,,,,,,,,,METAR,965.0
KPWK 120752Z AUTO 33012G17KT 7SM -SN BKN044 OVC065 M09/M14 A3017 RMK AO2 SNB44 SLP226 P0000 T10891144,KPWK,2015-02-12T07:52:00Z,42.12,-87.9,-8.9,-14.4,330,12,17,7.0,30.171259,1022.6,,TRUE,TRUE,,,,,,-SN,BKN,4400,OVC,6500,,,,,VFR,,,,,,0.0050,,,,,,METAR,203.0
KOMA 120752Z 34019G25KT 10SM CLR M12/M18 A3059 RMK AO2 PK WND 35030/0653 SLP376 T11221183,KOMA,2015-02-12T07:52:00Z,41.32,-95.9,-12.2,-18.3,340,19,25,10.0,30.590551,1037.6,,,TRUE,,,,,,,CLR,,,,,,,,VFR,,,,,,,,,,,,METAR,312.0
KOKC 120752Z 05007KT 10SM SCT130 01/M07 A3041 RMK AO2 SLP304 T00111067 $,KOKC,2015-02-12T07:52:00Z,35.38,-97.6,1.1,-6.7,50,7,,10.0,30.410433,1030.4,,,TRUE,TRUE,,,,,,SCT,13000,,,,,,,VFR,,,,,,,,,,,,METAR,390.0
KOKB 120752Z AUTO 00000KT 10SM CLR 08/01 A3004 RMK AO2 SLP172 T00830011 403060056,KOKB,2015-02-12T07:52:00Z,33.22,-117.35,8.3,1.1,0,0,,10.0,30.041338,1017.2,,TRUE,TRUE,,,,,,,CLR,,,,,,,,VFR,,,,30.6,5.6,,,,,,,METAR,8.0
KMWH 120752Z AUTO 23003KT 10SM OVC120 07/06 A3025 RMK AO2 SLP298 T00670056 401170017,KMWH,2015-02-12T07:52:00Z,47.2,-119.32,6.7,5.6,230,3,,10.0,30.250984,1029.8,,TRUE,TRUE,,,,,,,OVC,12000,,,,,,,VFR,,,,11.7,1.7,,,,,,,METAR,362.0
KMLI 120752Z AUTO 32017G28KT 2 1/2SM -SN FEW023 OVC030 M12/M16 A3031 RMK AO2 PK WND 31033/0738 SNB12 SLP275 P0000 T11171161,KMLI,2015-02-12T07:52:00Z,41.45,-90.52,-11.7,-16.1,320,17,28,2.5,30.31004,1027.5,,TRUE,TRUE,,,,,,-SN,FEW,2300,OVC,3000,,,,,IFR,,,,,,0.0050,,,,,,METAR,184.0
KMKE 120752Z 33020G27KT 10SM SCT055 BKN070 BKN100 M10/M18 A3017 RMK AO2 PK WND 35027/0743 SLP228 T11001178,KMKE,2015-02-12T07:52:00Z,42.95,-87.9,-10.0,-17.8,330,20,27,10.0,30.171259,1022.8,,,TRUE,,,,,,,SCT,5500,BKN,7000,BKN,10000,,,VFR,,,,,,,,,,,,METAR,206.0
KMHK 120752Z AUTO 01006KT 10SM OVC048 M01/M06 A3048 RMK AO2 SLP333 T10111056 TSNO,KMHK,2015-02-12T07:52:00Z,39.13,-96.68,-1.1,-5.6,10,6,,10.0,30.481298,1033.3,,TRUE,TRUE,,,TRUE,,,,OVC,4800,,,,,,,VFR,,,,,,,,,,,,METAR,317.0
KMFD 120752Z AUTO 30009KT 10SM OVC055 M03/M06 A2989 RMK AO2 SNE0658 SLP133 P0000 T10281056,KMFD,2015-02-12T07:52:00Z,40.82,-82.52,-2.8,-5.6,300,9,,10.0,29.890747,1013.3,,TRUE,TRUE,,,,,,,OVC,5500,,,,,,,VFR,,,,,,0.0050,,,,,,METAR,395.0
KMEB 120752Z AUTO 21003KT 10SM CLR 02/00 A2992 RMK AO2 SLP133 T00170000,KMEB,2015-02-12T07:52:00Z,34.78,-79.37,1.7,0.0,210,3,,10.0,29.920275,1013.3,,TRUE,TRUE,,,,,,,CLR,,,,,,,,VFR,,,,,,,,,,,,METAR,67.0
KMBG 120752Z AUTO 00000KT 10SM CLR M18/M21 A3062 RMK AO2 SLP409 T11781211,KMBG,2015-02-12T07:52:00Z,45.55,-100.42,-17.8,-21.1,0,0,,10.0,30.620079,1040.9,,TRUE,TRUE,,,,,,,CLR,,,,,,,,VFR,,,,,,,,,,,,METAR,510.0
KLWC 120752Z AUTO 34021G26KT 10SM OVC041 M01/M08 A3044 RMK AO2 PK WND 34026/0752 SLP317 T10111078,KLWC,2015-02-12T07:52:00Z,39.02,-95.22,-1.1,-7.8,340,21,26,10.0,30.43996,1031.7,,TRUE,TRUE,,,,,,,OVC,4100,,,,,,,VFR,,,,,,,,,,,,METAR,253.0
KIOW 120752Z AUTO 32013G21KT 10SM OVC024 M13/M18 A3040 RMK AO2 PK WND 30029/0724 SLP307 T11331178,KIOW,2015-02-12T07:52:00Z,41.63,-91.55,-13.3,-17.8,320,13,21,10.0,30.398623,1030.7,,TRUE,TRUE,,,,,,,OVC,2400,,,,,,,MVFR,,,,,,,,,,,,METAR,198.0
KIJD 120752Z AUTO 00000KT 8SM SCT100 M15/M17 A2988 RMK AO2 SLP123 I1000 T11501172,KIJD,2015-02-12T07:52:00Z,41.75,-72.18,-15.0,-17.2,0,0,,8.0,29.878937,1012.3,,TRUE,TRUE,,,,,,,SCT,10000,,,,,,,VFR,,,,,,,,,,,,METAR,75.0
KIEN 120752Z AUTO 08010KT 9SM OVC009 M07/M09 A3042 RMK AO2 CIG 007V011 SLP332 T10721094,KIEN,2015-02-12T07:52:00Z,43.03,-102.52,-7.2,-9.4,80,10,,9.0,30.41929,1033.2,,TRUE,TRUE,,,,,,,OVC,900,,,,,,,IFR,,,,,,,,,,,,METAR,998.0
KIAD 120752Z 17003KT 10SM OVC050 01/M03 A2985 RMK AO2 SLP111 T00061033,KIAD,2015-02-12T07:52:00Z,38.93,-77.45,0.6,-3.3,170,3,,10.0,29.84941,1011.1,,,TRUE,,,,,,,OVC,5000,,,,,,,VFR,,,,,,,,,,,,METAR,93.0
KHUT 120752Z AUTO 31003KT 10SM CLR M06/M08 A3045 RMK AO2 SLP319 T10561083 $,KHUT,2015-02-12T07:52:00Z,38.07,-97.87,-5.6,-8.3,310,3,,10.0,30.448818,1031.9,,TRUE,TRUE,TRUE,,,,,,CLR,,,,,,,,VFR,,,,,,,,,,,,METAR,467.0
KHRL 120752Z 08003KT 5SM BR CLR 16/16 A3011 RMK AO2 SLP194 T01610156,KHRL,2015-02-12T07:52:00Z,26.23,-97.65,16.1,15.6,80,3,,5.0,30.109253,1019.4,,,TRUE,,,,,,BR,CLR,,,,,,,,MVFR,,,,,,,,,,,,METAR,10.0
KHIE 120752Z AUTO 00000KT 10SM OVC110 M15/M17 A2976 RMK AO2 SLP099 T11501172,KHIE,2015-02-12T07:52:00Z,44.37,-71.55,-15.0,-17.2,0,0,,10.0,29.760826,1009.9,,TRUE,TRUE,,,,,,,OVC,11000,,,,,,,VFR,,,,,,,,,,,,METAR,318.0
KGLS 120752Z AUTO 01003KT 1/4SM FG 12/12 A3017 RMK AO2 SLP214 T01170117 $,KGLS,2015-02-12T07:52:00Z,29.27,-94.87,11.7,11.7,10,3,,0.25,30.171259,1021.4,,TRUE,TRUE,TRUE,,,,,FG,,,,,,,,,,,,,,,,,,,,,METAR,6.0
PATA 120752Z AUTO 09006KT 10SM SCT035 OVC050 M10/M23 A2984 RMK AO2 SLP112 T11001228 TSNO,PATA,2015-02-12T07:52:00Z,65.17,-152.1,-10.0,-22.8,90,6,,10.0,29.840551,1011.2,,TRUE,TRUE,,,TRUE,,,,SCT,3500,OVC,5000,,,,,VFR,,,,,,,,,,,,METAR,67.0
KBAN 120752Z AUTO 00000KT 10SM CLR 00/M04 A3038 RMK AO2 SLP265 T00001039 401611067 $,KBAN,2015-02-12T07:52:00Z,38.35,-119.52,0.0,-3.9,0,0,,10.0,30.380905,1026.5,,TRUE,TRUE,TRUE,,,,,,CLR,,,,,,,,VFR,,,,16.1,-6.7,,,,,,,METAR,2057.0
KPOB 120752Z AUTO 00000KT 10SM CLR M01/M02 A2990 RMK AO2,KPOB,2015-02-12T07:52:00Z,35.17,-79.02,-1.0,-2.0,0,0,,10.0,29.899607,,,TRUE,TRUE,,,,,,,CLR,,,,,,,,VFR,,,,,,,,,,,,SPECI,66.0
KN60 120752Z AUTO 16006KT M22/M24 A3057 RMK AO1 SLP408 T12221244,KN60,2015-02-12T07:52:00Z,47.65,-101.43,-22.2,-24.4,160,6,,,30.569881,1040.8,,TRUE,TRUE,,,,,,,,,,,,,,,,,,,,,,,,,,,METAR,582.0
KP69 120752Z AUTO 00000KT 06/04 A3035 RMK AO1 SLP284 T00560044 401170039,KP69,2015-02-12T07:52:00Z,46.15,-115.6,5.6,4.4,0,0,,,30.351377,1028.4,,TRUE,TRUE,,,,,,,,,,,,,,,,,,,11.7,3.9,,,,,,,METAR,480.0
KCDJ 120752Z AUTO 33017G29KT M05/M12 A3044 RMK AO1 PK WND 31029/0750 PRESRR SLP324 T10501122,KCDJ,2015-02-12T07:52:00Z,39.82,-93.58,-5.0,-12.2,330,17,29,,30.43996,1032.4,,TRUE,TRUE,,,,,,,,,,,,,,,,,,,,,,,,,,,METAR,234.0
KNFW 120752Z AUTO 35012KT 10SM CLR 07/M02 A3041 RMK AO2 SLP277 T00721022 $,KNFW,2015-02-12T07:52:00Z,32.78,-97.43,7.2,-2.2,350,12,,10.0,30.410433,1027.7,,TRUE,TRUE,TRUE,,,,,,CLR,,,,,,,,VFR,,,,,,,,,,,,METAR,198.0
KNRB 120752Z AUTO 22005KT 10SM CLR 07/06 A3003 RMK AO2 SLP167 T00670056 $,KNRB,2015-02-12T07:52:00Z,30.38,-81.42,6.7,5.6,220,5,,10.0,30.029528,1016.7,,TRUE,TRUE,TRUE,,,,,,CLR,,,,,,,,VFR,,,,,,,,,,,,METAR,5.0
KBLU 120752Z AUTO 00000KT 10SM CLR 12/M04 A3033 RMK AO2 SLP216 T01171039 401610078,KBLU,2015-02-12T07:52:00Z,39.28,-120.7,11.7,-3.9,0,0,,10.0,30.33071,1021.6,,TRUE,TRUE,,,,,,,CLR,,,,,,,,VFR,,,,16.1,7.8,,,,,,,METAR,1609.0
KNHK 120752Z AUTO 19004KT 10SM CLR M01/M03 A2988 RMK AO2 SLP117 T10061033,KNHK,2015-02-12T07:52:00Z,38.27,-76.4,-0.6,-3.3,190,4,,10.0,29.878937,1011.7,,TRUE,TRUE,,,,,,,CLR,,,,,,,,VFR,,,,,,,,,,,,METAR,12.0
KCZZ 120752Z AUTO 05010KT 14/M07 A3011 RMK AO1 SLP170 T01391072 402220111,KCZZ,2015-02-12T07:52:00Z,32.63,-116.47,13.9,-7.2,50,10,,,30.109253,1017.0,,TRUE,TRUE,,,,,,,,,,,,,,,,,,,22.2,11.1,,,,,,,METAR,807.0
KBJI 120752Z AUTO 32006KT 10SM CLR M25/M27 A3059 RMK AO2 T12491272,KBJI,2015-02-12T07:52:00Z,47.5,-94.92,-24.9,-27.2,320,6,,10.0,30.590551,,,TRUE,TRUE,,,,,,,CLR,,,,,,,,VFR,,,,,,,,,,,,METAR,420.0
KMLF 120752Z AUTO 20005KT 10SM CLR M02/M07 A3041 RMK AO2 SLP297 T10221067 TSNO,KMLF,2015-02-12T07:52:00Z,38.42,-113.02,-2.2,-6.7,200,5,,10.0,30.410433,1029.7,,TRUE,TRUE,,,TRUE,,,,CLR,,,,,,,,VFR,,,,,,,,,,,,METAR,1534.0
KFIT 120752Z AUTO 00000KT 9SM FEW120 M12/M16 A2987 RMK AO2 SLP120 T11221156,KFIT,2015-02-12T07:52:00Z,42.55,-71.75,-12.2,-15.6,0,0,,9.0,29.870079,1012.0,,TRUE,TRUE,,,,,,,FEW,12000,,,,,,,VFR,,,,,,,,,,,,METAR,103.0
KHCD 120752Z AUTO 33013G18KT 10SM CLR M18/M21 A3058 RMK AO2 T11801212,KHCD,2015-02-12T07:52:00Z,44.87,-94.38,-18.0,-21.2,330,13,18,10.0,30.578741,,,TRUE,TRUE,,,,,,,CLR,,,,,,,,VFR,,,,,,,,,,,,METAR,323.0
KORE 120752Z AUTO 00000KT 10SM SCT110 M16/M18 A2985 RMK AO2 SLP118 I1000 T11611183,KORE,2015-02-12T07:52:00Z,42.57,-72.28,-16.1,-18.3,0,0,,10.0,29.84941,1011.8,,TRUE,TRUE,,,,,,,SCT,11000,,,,,,,VFR,,,,,,,,,,,,METAR,164.0
KFFX 120751Z AUTO 35013G20KT 10SM OVC042 M10/M14 A3005 RMK AO2 T10971145,KFFX,2015-02-12T07:51:00Z,43.43,-86.0,-9.7,-14.5,350,13,20,10.0,30.050198,,,TRUE,TRUE,,,,,,,OVC,4200,,,,,,,VFR,,,,,,,,,,,,METAR,236.0
FAEO 120751Z 13003KT 9999 FEW015 21/13 Q1026,FAEO,2015-02-12T07:51:00Z,-26.5,29.97,21.0,13.0,130,3,,6.21,30.295275,,,,,,,,,,,FEW,1500,,,,,,,VFR,,,,,,,,,,,,SPECI,1737.0
CYYT 120751Z 08021G27KT 15SM OVC013 M08/M10 A2991 RMK SC8 SLP137,CYYT,2015-02-12T07:51:00Z,47.62,-52.72,-8.0,-10.0,80,21,27,15.0,29.911417,1013.7,,,,,,,,,,OVC,1300,,,,,,,MVFR,,,,,,,,,,,,SPECI,140.0
CYNM 120751Z AUTO 33014G21KT 6SM -SN OVC065 M23/M26 A2989 RMK SLP153,CYNM,2015-02-12T07:51:00Z,49.77,-77.82,-23.0,-26.0,330,14,21,6.0,29.890747,1015.3,,TRUE,,,,,,,-SN,OVC,6500,,,,,,,VFR,,,,,,,,,,,,SPECI,281.0
CYPY 120751Z AUTO VRB02KT 5SM -SN SCT029 BKN050 OVC085 M17/M18 A2998 RMK SLP183,CYPY,2015-02-12T07:51:00Z,58.77,-111.12,-17.0,-18.0,0,2,,5.0,29.97933,1018.3,,TRUE,,,,,,,-SN,SCT,2900,BKN,5000,OVC,8500,,,MVFR,,,,,,,,,,,,SPECI,232.0
YLRE 120751Z AUTO 09015KT 9999 // SCT090 36/11 Q1010,YLRE,2015-02-12T07:51:00Z,-23.43,144.28,36.0,11.0,90,15,,6.21,29.822834,,,TRUE,,,,,,,,SCT,9000,,,,,,,VFR,,,,,,,,,,,,SPECI,193.0
KLGU 120751Z AUTO 00000KT 10SM CLR M01/M03 A3041 RMK AO2 SLP302 T10061033,KLGU,2015-02-12T07:51:00Z,41.78,-111.85,-0.6,-3.3,0,0,,10.0,30.410433,1030.2,,TRUE,TRUE,,,,,,,CLR,,,,,,,,VFR,,,,,,,,,,,,METAR,1355.0
KABE 120751Z 21005KT 10SM BKN028 OVC034 M01/M07 A2983 RMK AO2 SLP106 T10111072,KABE,2015-02-12T07:51:00Z,40.65,-75.45,-1.1,-7.2,210,5,,10.0,29.828741,1010.6,,,TRUE,,,,,,,BKN,2800,OVC,3400,,,,,MVFR,,,,,,,,,,,,METAR,114.0
KATT 120751Z AUTO 02010G22KT 10SM OVC038 13/04 A3027 RMK AO2 SLP245 T01330044,KATT,2015-02-12T07:51:00Z,30.32,-97.77,13.3,4.4,20,10,22,10.0,30.268702,1024.5,,TRUE,TRUE,,,,,,,OVC,3800,,,,,,,VFR,,,,,,,,,,,,METAR,201.0
KNYC 120751Z AUTO VRB03KT 10SM BKN075 BKN095 M01/M08 A2987 RMK AO2 SLP109 T10111083,KNYC,2015-02-12T07:51:00Z,40.78,-73.97,-1.1,-8.3,0,3,,10.0,29.870079,1010.9,,TRUE,TRUE,,,,,,,BKN,7500,BKN,9500,,,,,VFR,,,,,,,,,,,,METAR,11.0
KSNT 120751Z AUTO 00000KT M04/M07 A3039 RMK AO1 SLP295 T10391067,KSNT,2015-02-12T07:51:00Z,44.17,-114.93,-3.9,-6.7,0,0,,,30.389763,1029.5,,TRUE,TRUE,,,,,,,,,,,,,,,,,,,,,,,,,,,METAR,1980.0
KBVE 120751Z AUTO 29004KT 5SM BR CLR 10/09 A3012 RMK AO2 SLP200 T01000094,KBVE,2015-02-12T07:51:00Z,29.32,-89.4,10.0,9.4,290,4,,5.0,30.121063,1020.0,,TRUE,TRUE,,,,,,BR,CLR,,,,,,,,MVFR,,,,,,,,,,,,METAR,1.0
KP59 120751Z AUTO 05020G30KT M14/M17 A3034 RMK AO1 PK WND 05031/0717 SLP296 T11391172,KP59,2015-02-12T07:51:00Z,47.47,-87.88,-13.9,-17.2,50,20,30,,30.339567,1029.6,,TRUE,TRUE,,,,,,,,,,,,,,,,,,,,,,,,,,,METAR,190.0
KSAD 120751Z AUTO 15006KT 10SM CLR 10/M01 A3025 RMK AO2 SLP217 T01001006,KSAD,2015-02-12T07:51:00Z,32.85,-109.63,10.0,-0.6,150,6,,10.0,30.250984,1021.7,,TRUE,TRUE,,,,,,,CLR,,,,,,,,VFR,,,,,,,,,,,,METAR,962.0
KACT 120751Z 36014KT 10SM BKN050 08/01 A3032 RMK AO2 PK WND 01026/0719 SLP264 T00830011,KACT,2015-02-12T07:51:00Z,31.62,-97.23,8.3,1.1,360,14,,10.0,30.318897,1026.4,,,TRUE,,,,,,,BKN,5000,,,,,,,VFR,,,,,,,,,,,,METAR,151.0
KAHN 120751Z AUTO 29008KT 10SM CLR 07/00 A2995 RMK AO2 SLP143 T00720000,KAHN,2015-02-12T07:51:00Z,33.95,-83.33,7.2,0.0,290,8,,10.0,29.949802,1014.3,,TRUE,TRUE,,,,,,,CLR,,,,,,,,VFR,,,,,,,,,,,,METAR,244.0
KASH 120751Z 00000KT 10SM CLR M12/M15 A2989 RMK AO2 FZRANO T11221150 SLP385 $,KASH,2015-02-12T07:51:00Z,42.78,-71.52,-12.2,-15.0,0,0,,10.0,29.890747,1038.5,,,TRUE,TRUE,,,TRUE,,,CLR,,,,,,,,VFR,,,,,,,,,,,,METAR,61.0
KAVX 120751Z AUTO 10015KT 10SM CLR 21/M08 A3011 RMK AO2 SLP171 T02111083 402560172,KAVX,2015-02-12T07:51:00Z,33.4,-118.42,21.1,-8.3,100,15,,10.0,30.109253,1017.1,,TRUE,TRUE,,,,,,,CLR,,,,,,,,VFR,,,,25.6,17.2,,,,,,,METAR,482.0
KBAZ 120751Z AUTO 03015G21KT 10SM FEW060 14/07 A3022 RMK AO2 SLP227 T01440067,KBAZ,2015-02-12T07:51:00Z,29.72,-98.05,14.4,6.7,30,15,21,10.0,30.221457,1022.7,,TRUE,TRUE,,,,,,,FEW,6000,,,,,,,VFR,,,,,,,,,,,,METAR,195.0
KBDL 120751Z 00000KT 10SM FEW019 SCT039 OVC095 M11/M14 A2986 RMK AO2 SLP115 T11061144,KBDL,2015-02-12T07:51:00Z,41.93,-72.68,-10.6,-14.4,0,0,,10.0,29.861221,1011.5,,,TRUE,,,,,,,FEW,1900,SCT,3900,OVC,9500,,,VFR,,,,,,,,,,,,METAR,60.0
KBGD 120751Z AUTO 25006KT 10SM CLR M02/M05 A3044 RMK AO2 SLP321 T10171050,KBGD,2015-02-12T07:51:00Z,35.7,-101.4,-1.7,-5.0,250,6,,10.0,30.43996,1032.1,,TRUE,TRUE,,,,,,,CLR,,,,,,,,VFR,,,,,,,,,,,,METAR,927.0
KBHK 120751Z AUTO 13014KT 10SM OVC010 M11/M13 A3037 RMK AO2 SLP331 T11061133,KBHK,2015-02-12T07:51:00Z,46.35,-104.25,-10.6,-13.3,130,14,,10.0,30.369095,1033.1,,TRUE,TRUE,,,,,,,OVC,1000,,,,,,,MVFR,,,,,,,,,,,,METAR,902.0
KBKW 120751Z AUTO 27009KT 10SM OVC017 00/M03 A2987 RMK AO2 SLP132 T00001033,KBKW,2015-02-12T07:51:00Z,37.8,-81.12,0.0,-3.3,270,9,,10.0,29.870079,1013.2,,TRUE,TRUE,,,,,,,OVC,1700,,,,,,,MVFR,,,,,,,,,,,,METAR,764.0
KCAK 120751Z 30012KT 8SM SCT018 OVC055 M02/M06 A2987 RMK AO2 SNE31 SLP128 P0000 T10221061 $,KCAK,2015-02-12T07:51:00Z,40.92,-81.45,-2.2,-6.1,300,12,,8.0,29.870079,1012.8,,,TRUE,TRUE,,,,,,SCT,1800,OVC,5500,,,,,VFR,,,,,,0.0050,,,,,,METAR,377.0
KCLE 120751Z 28009KT 9SM -SN OVC060 M02/M06 A2992 RMK AO2 SLP140 P0000 T10221061 $,KCLE,2015-02-12T07:51:00Z,41.42,-81.85,-2.2,-6.1,280,9,,9.0,29.920275,1014.0,,,TRUE,TRUE,,,,,-SN,OVC,6000,,,,,,,VFR,,,,,,0.0050,,,,,,METAR,233.0
KCMH 120751Z 33011KT 4SM -SN BR SCT014 OVC025 M02/M04 A2995 RMK AO2 SLP148 P0000 T10171039,KCMH,2015-02-12T07:51:00Z,40.0,-82.88,-1.7,-3.9,330,11,,4.0,29.949802,1014.8,,,TRUE,,,,,,-SN BR,SCT,1400,OVC,2500,,,,,MVFR,,,,,,0.0050,,,,,,METAR,247.0
KCON 120751Z AUTO 00000KT 10SM FEW110 M14/M17 A2987 RMK AO2 SLP121 T11441167,KCON,2015-02-12T07:51:00Z,43.2,-71.5,-14.4,-16.7,0,0,,10.0,29.870079,1012.1,,TRUE,TRUE,,,,,,,FEW,11000,,,,,,,VFR,,,,,,,,,,,,METAR,103.0
KCRP 120751Z 04004KT 10SM FEW013 SCT042 SCT250 17/16 A3015 RMK AO2 SLP207 T01670161,KCRP,2015-02-12T07:51:00Z,27.77,-97.5,16.7,16.1,40,4,,10.0,30.15059,1020.7,,,TRUE,,,,,,,FEW,1300,SCT,4200,SCT,25000,,,VFR,,,,,,,,,,,,METAR,14.0
KCSG 120751Z 00000KT 10SM CLR 06/02 A3003 RMK AO2 SLP169 T00560017,KCSG,2015-02-12T07:51:00Z,32.52,-84.95,5.6,1.7,0,0,,10.0,30.029528,1016.9,,,TRUE,,,,,,,CLR,,,,,,,,VFR,,,,,,,,,,,,METAR,135.0
KERI 120751Z 26007KT 6SM -SN OVC019 M02/M05 A2985 RMK AO2 SLP115 P0000 T10221050,KERI,2015-02-12T07:51:00Z,42.08,-80.18,-2.2,-5.0,260,7,,6.0,29.84941,1011.5,,,TRUE,,,,,,-SN,OVC,1900,,,,,,,MVFR,,,,,,0.0050,,,,,,METAR,222.0
KELP 120751Z 05011KT 10SM FEW040 BKN140 07/M01 A3034 RMK AO2 SLP240 T00671006,KELP,2015-02-12T07:51:00Z,31.82,-106.38,6.7,-0.6,50,11,,10.0,30.339567,1024.0,,,TRUE,,,,,,,FEW,4000,BKN,14000,,,,,VFR,,,,,,,,,,,,METAR,1197.0
KEKN 120751Z AUTO 24005KT 9SM OVC016 00/M02 A2985 RMK AO2 SLP126 T00001022 TSNO,KEKN,2015-02-12T07:51:00Z,38.88,-79.85,0.0,-2.2,240,5,,9.0,29.84941,1012.6,,TRUE,TRUE,,,TRUE,,,,OVC,1600,,,,,,,MVFR,,,,,,,,,,,,METAR,603.0
KDAW 120751Z AUTO 32006KT 10SM CLR M13/M19 A2986 RMK AO2 SLP116 T11281189,KDAW,2015-02-12T07:51:00Z,43.28,-70.92,-12.8,-18.9,320,6,,10.0,29.861221,1011.6,,TRUE,TRUE,,,,,,,CLR,,,,,,,,VFR,,,,,,,,,,,,METAR,100.0
KEWR 120751Z 21004KT 10SM SCT095 OVC120 M03/M07 A2987 RMK AO2 SLP114 T10281067,KEWR,2015-02-12T07:51:00Z,40.68,-74.17,-2.8,-6.7,210,4,,10.0,29.870079,1011.4,,,TRUE,,,,,,,SCT,9500,OVC,12000,,,,,VFR,,,,,,,,,,,,METAR,7.0
KHSE 120751Z AUTO 21004KT 7SM CLR 01/M01 A2995 RMK AO2 SLP142 T00061011 TSNO,KHSE,2015-02-12T07:51:00Z,35.23,-75.62,0.6,-1.1,210,4,,7.0,29.949802,1014.2,,TRUE,TRUE,,,TRUE,,,,CLR,,,,,,,,VFR,,,,,,,,,,,,METAR,3.0
KHDO 120751Z AUTO 04016G22KT 10SM OVC027 16/08 A3024 RMK AO2 SLP230 T01560083,KHDO,2015-02-12T07:51:00Z,29.37,-99.17,15.6,8.3,40,16,22,10.0,30.239174,1023.0,,TRUE,TRUE,,,,,,,OVC,2700,,,,,,,MVFR,,,,,,,,,,,,METAR,282.0
KIGM 120751Z AUTO 10003KT 10SM CLR 07/M05 A3031 RMK AO2 SLP224 T00671050,KIGM,2015-02-12T07:51:00Z,35.25,-113.93,6.7,-5.0,100,3,,10.0,30.31004,1022.4,,TRUE,TRUE,,,,,,,CLR,,,,,,,,VFR,,,,,,,,,,,,METAR,1032.0
KHTS 120751Z 23005KT 5SM -RA BR FEW017 BKN022 OVC030 01/01 A2996 RMK AO2 RAB31 SLP149 P0000 T00110006,KHTS,2015-02-12T07:51:00Z,38.37,-82.55,1.1,0.6,230,5,,5.0,29.958662,1014.9,,,TRUE,,,,,,-RA BR,FEW,1700,BKN,2200,OVC,3000,,,MVFR,,,,,,0.0050,,,,,,METAR,254.0
KILG 120751Z 19005KT 10SM OVC060 M01/M04 A2988 RMK AO2 SLP119 T10111039,KILG,2015-02-12T07:51:00Z,39.67,-75.6,-1.1,-3.9,190,5,,10.0,29.878937,1011.9,,,TRUE,,,,,,,OVC,6000,,,,,,,VFR,,,,,,,,,,,,METAR,28.0
KJCT 120751Z AUTO 02007KT 10SM BKN065 08/02 A3032 RMK AO2 SLP243 T00830017,KJCT,2015-02-12T07:51:00Z,30.5,-99.77,8.3,1.7,20,7,,10.0,30.318897,1024.3,,TRUE,TRUE,,,,,,,BKN,6500,,,,,,,VFR,,,,,,,,,,,,METAR,522.0
KJFK 120751Z 23005KT 10SM FEW085 SCT100 SCT250 M03/M07 A2988 RMK AO2 SLP119 T10281072,KJFK,2015-02-12T07:51:00Z,40.63,-73.77,-2.8,-7.2,230,5,,10.0,29.878937,1011.9,,,TRUE,,,,,,,FEW,8500,SCT,10000,SCT,25000,,,VFR,,,,,,,,,,,,METAR,9.0
KLGA 120751Z 20005KT 10SM BKN080 BKN250 M02/M08 A2986 RMK AO2 SLP112 T10171078 $,KLGA,2015-02-12T07:51:00Z,40.78,-73.88,-1.7,-7.8,200,5,,10.0,29.861221,1011.2,,,TRUE,TRUE,,,,,,BKN,8000,BKN,25000,,,,,VFR,,,,,,,,,,,,METAR,11.0
KMPV 120751Z AUTO 20008KT 10SM SCT050 BKN060 OVC070 M09/M15 A2978 RMK AO2 SLP104 T10941150,KMPV,2015-02-12T07:51:00Z,44.2,-72.57,-9.4,-15.0,200,8,,10.0,29.778543,1010.4,,TRUE,TRUE,,,,,,,SCT,5000,BKN,6000,OVC,7000,,,VFR,,,,,,,,,,,,METAR,343.0
KMYL 120751Z AUTO 05003KT 10SM SCT110 M02/M03 A3035 RMK AO2 SLP309 T10171028,KMYL,2015-02-12T07:51:00Z,44.9,-116.1,-1.7,-2.8,50,3,,10.0,30.351377,1030.9,,TRUE,TRUE,,,,,,,SCT,11000,,,,,,,VFR,,,,,,,,,,,,METAR,1533.0
KORD 120751Z 33015KT 9SM -SN OVC041 M09/M14 A3015 RMK AO2 SNB37 SLP218 P0000 T10891144,KORD,2015-02-12T07:51:00Z,41.98,-87.93,-8.9,-14.4,330,15,,9.0,30.15059,1021.8,,,TRUE,,,,,,-SN,OVC,4100,,,,,,,VFR,,,,,,0.0050,,,,,,METAR,200.0
KORF 120751Z AUTO 18006KT 10SM FEW100 M01/M03 A2990 RMK AO2 SLP126 T10111033 TSNO,KORF,2015-02-12T07:51:00Z,36.9,-76.2,-1.1,-3.3,180,6,,10.0,29.899607,1012.6,,TRUE,TRUE,,,TRUE,,,,FEW,10000,,,,,,,VFR,,,,,,,,,,,,METAR,14.0
KOXR 120751Z AUTO 07010KT 10SM CLR 23/M05 A3008 RMK AO2 SLP185 T02281050 402890111,KOXR,2015-02-12T07:51:00Z,34.2,-119.2,22.8,-5.0,70,10,,10.0,30.079725,1018.5,,TRUE,TRUE,,,,,,,CLR,,,,,,,,VFR,,,,28.9,11.1,,,,,,,METAR,20.0
KPHX 120751Z 05011KT 10SM CLR 21/M01 A3013 RMK AO2 SLP190 T02061011,KPHX,2015-02-12T07:51:00Z,33.43,-112.02,20.6,-1.1,50,11,,10.0,30.129921,1019.0,,,TRUE,,,,,,,CLR,,,,,,,,VFR,,,,,,,,,,,,METAR,336.0
KSJT 120751Z AUTO 03014KT 10SM BKN044 08/M02 A3035 RMK AO2 SLP273 T00781022,KSJT,2015-02-12T07:51:00Z,31.37,-100.5,7.8,-2.2,30,14,,10.0,30.351377,1027.3,,TRUE,TRUE,,,,,,,BKN,4400,,,,,,,VFR,,,,,,,,,,,,METAR,576.0
KSAT 120751Z 02011G19KT 10SM BKN031 OVC250 16/08 A3023 RMK AO2 PK WND 05028/0733 SLP224 T01560078,KSAT,2015-02-12T07:51:00Z,29.53,-98.47,15.6,7.8,20,11,19,10.0,30.230314,1022.4,,,TRUE,,,,,,,BKN,3100,OVC,25000,,,,,VFR,,,,,,,,,,,,METAR,243.0
KSAN 120751Z 03007KT 10SM CLR 19/M04 A3004 RMK AO2 SLP173 T01891039 402780122,KSAN,2015-02-12T07:51:00Z,32.73,-117.18,18.9,-3.9,30,7,,10.0,30.041338,1017.3,,,TRUE,,,,,,,CLR,,,,,,,,VFR,,,,27.8,12.2,,,,,,,METAR,12.0
KROW 120751Z 24004KT 10SM OVC060 03/02 A3047 RMK AO2 SLP306 T00330017,KROW,2015-02-12T07:51:00Z,33.3,-104.5,3.3,1.7,240,4,,10.0,30.469488,1030.6,,,TRUE,,,,,,,OVC,6000,,,,,,,VFR,,,,,,,,,,,,METAR,1112.0
KRDU 120751Z 24004KT 10SM FEW250 02/M01 A2989 RMK AO2 SLP123 T00221011,KRDU,2015-02-12T07:51:00Z,35.9,-78.78,2.2,-1.1,240,4,,10.0,29.890747,1012.3,,,TRUE,,,,,,,FEW,25000,,,,,,,VFR,,,,,,,,,,,,METAR,130.0
KPWM 120751Z AUTO 00000KT 10SM CLR M15/M19 A2990 RMK AO2 SLP125 T11501194,KPWM,2015-02-12T07:51:00Z,43.65,-70.3,-15.0,-19.4,0,0,,10.0,29.899607,1012.5,,TRUE,TRUE,,,,,,,CLR,,,,,,,,VFR,,,,,,,,,,,,METAR,15.0
KPVD 120751Z 34003KT 10SM CLR M11/M14 A2989 RMK AO2 SLP122 T11061144 $,KPVD,2015-02-12T07:51:00Z,41.72,-71.43,-10.6,-14.4,340,3,,10.0,29.890747,1012.2,,,TRUE,TRUE,,,,,,CLR,,,,,,,,VFR,,,,,,,,,,,,METAR,16.0
KPIT 120751Z 30011KT 8SM -SN FEW016 SCT021 OVC028 M01/M03 A2984 RMK AO2 SLP122 P0001 T10061028,KPIT,2015-02-12T07:51:00Z,40.5,-80.27,-0.6,-2.8,300,11,,8.0,29.840551,1012.2,,,TRUE,,,,,,-SN,FEW,1600,SCT,2100,OVC,2800,,,MVFR,,,,,,0.01,,,,,,METAR,357.0
KALB 120751Z 16007KT 10SM OVC031 M04/M11 A2979 RMK AO2 SNE09 SLP092 P0000 T10441106,KALB,2015-02-12T07:51:00Z,42.75,-73.8,-4.4,-10.6,160,7,,10.0,29.790354,1009.2,,,TRUE,,,,,,,OVC,3100,,,,,,,VFR,,,,,,0.0050,,,,,,METAR,92.0
EHEH 120751Z AUTO 16002KT 0250 R21/0200 FZFG OVC000 M01/M01 Q1022 RED VRB02KT 0300 FZFG BKN001 BECMG 1500 BR BKN007,EHEH,2015-02-12T07:51:00Z,51.45,5.38,-1.0,-1.0,160,2,,0.16,30.177166,,,TRUE,,,,,,,FZFG FZFG,OVC,0,BKN,100,,,,,LIFR,,,,,,,,,,,,METAR,22.0
EBBE 120751Z VRB01KT 3000 BR SKC M00/M01 Q1021 YLO YLO BECMG GRN,EBBE,2015-02-12T07:51:00Z,50.75,4.77,0.0,-1.0,0,1,,1.86,30.147638,,,,,,,,,,BR,SKC,,,,,,,,IFR,,,,,,,,,,,,METAR,127.0
KP58 120751Z AUTO 29010G22KT M10/M16 A2991 RMK AO1 PK WND 31027/0740 SLP145 T11001156,KP58,2015-02-12T07:51:00Z,44.02,-82.8,-10.0,-15.6,290,10,22,,29.911417,1014.5,,TRUE,TRUE,,,,,,,,,,,,,,,,,,,,,,,,,,,METAR,179.0
CYLT 120751Z 23020KT 4SM BLSN FEW120 RMK AC1,CYLT,2015-02-12T07:51:00Z,82.52,-62.27,,,230,20,,4.0,,,,,,,,,,,BLSN,FEW,12000,,,,,,,MVFR,,,,,,,,,,,,SPECI,31.0
KSMX 120751Z AUTO 15003KT 10SM CLR 12/07 A3011 RMK AO2 SLP198 T01170072 TSNO,KSMX,2015-02-12T07:51:00Z,34.9,-120.45,11.7,7.2,150,3,,10.0,30.109253,1019.8,,TRUE,TRUE,,,TRUE,,,,CLR,,,,,,,,VFR,,,,,,,,,,,,METAR,74.0
KYNG 120751Z 28010G16KT 8SM -SN BKN014 OVC046 M03/M05 A2985 RMK AO2 SLP120 T10281050,KYNG,2015-02-12T07:51:00Z,41.25,-80.67,-2.8,-5.0,280,10,16,8.0,29.84941,1012.0,,,TRUE,,,,,,-SN,BKN,1400,OVC,4600,,,,,MVFR,,,,,,,,,,,,METAR,360.0
KVNY 120751Z AUTO 36011KT 10SM CLR 20/M05 A3010 RMK AO2 SLP183 T02001050 402780122,KVNY,2015-02-12T07:51:00Z,34.22,-118.48,20.0,-5.0,360,11,,10.0,30.100393,1018.3,,TRUE,TRUE,,,,,,,CLR,,,,,,,,VFR,,,,27.8,12.2,,,,,,,METAR,245.0
KVCT 120751Z AUTO 01005KT 1 3/4SM BR CLR 12/12 A3018 RMK AO2 SLP218 T01170117 $,KVCT,2015-02-12T07:51:00Z,28.87,-96.93,11.7,11.7,10,5,,1.75,30.180119,1021.8,,TRUE,TRUE,TRUE,,,,,BR,CLR,,,,,,,,IFR,,,,,,,,,,,,METAR,31.0
KTEB 120751Z 00000KT 10SM BKN075 BKN095 M03/M08 A2986 RMK AO2 SLP111 T10331083,KTEB,2015-02-12T07:51:00Z,40.87,-74.05,-3.3,-8.3,0,0,,10.0,29.861221,1011.1,,,TRUE,,,,,,,BKN,7500,BKN,9500,,,,,VFR,,,,,,,,,,,,METAR,7.0
KSTL 120751Z 31016G21KT 10SM OVC029 M02/M08 A3025 RMK AO2 SLP252 T10171078,KSTL,2015-02-12T07:51:00Z,38.75,-90.37,-1.7,-7.8,310,16,21,10.0,30.250984,1025.2,,,TRUE,,,,,,,OVC,2900,,,,,,,MVFR,,,,,,,,,,,,METAR,171.0
KSMO 120751Z AUTO 35004KT 10SM CLR 20/M06 A3008 RMK AO2 SLP183 T02001056 402940133,KSMO,2015-02-12T07:51:00Z,34.02,-118.45,20.0,-5.6,350,4,,10.0,30.079725,1018.3,,TRUE,TRUE,,,,,,,CLR,,,,,,,,VFR,,,,29.4,13.3,,,,,,,METAR,57.0
KSLK 120751Z AUTO 24004KT 4SM -SN BR BKN020 BKN030 OVC040 M06/M07 A2962 RMK AO2 SNE02B19 SLP053 P0000 T10611072 $,KSLK,2015-02-12T07:51:00Z,44.4,-74.2,-6.1,-7.2,240,4,,4.0,29.619095,1005.3,,TRUE,TRUE,TRUE,,,,,-SN BR,BKN,2000,BKN,3000,OVC,4000,,,MVFR,,,,,,0.0050,,,,,,METAR,498.0
KAXV 120751Z AUTO 28009G19KT 3SM -SN BKN018 OVC023 M02/M03 A2998 RMK AO2,KAXV,2015-02-12T07:51:00Z,40.5,-84.3,-2.0,-3.0,280,9,19,3.0,29.97933,,,TRUE,TRUE,,,,,,-SN,BKN,1800,OVC,2300,,,,,MVFR,,,,,,,,,,,,METAR,279.0
KVWU 120751Z AUTO 00000KT 10SM CLR M25/M27 A3060 RMK AO2,KVWU,2015-02-12T07:51:00Z,48.15,-94.52,-25.0,-27.0,0,0,,10.0,30.59941,,,TRUE,TRUE,,,,,,,CLR,,,,,,,,VFR,,,,,,,,,,,,METAR,360.0
KEVM 120751Z AUTO 34008KT 10SM SCT011 SCT065 M21/M25 A3050 RMK AO2,KEVM,2015-02-12T07:51:00Z,47.42,-92.5,-21.0,-25.0,340,8,,10.0,30.499016,,,TRUE,TRUE,,,,,,,SCT,1100,SCT,6500,,,,,VFR,,,,,,,,,,,,METAR,421.0
KJKJ 120751Z AUTO 31008KT 10SM BKN009 M23/M25 A3071 RMK AO2,KJKJ,2015-02-12T07:51:00Z,46.83,-96.67,-23.0,-25.0,310,8,,10.0,30.708662,,,TRUE,TRUE,,,,,,,BKN,900,,,,,,,IFR,,,,,,,,,,,,METAR,280.0
KSGS 120751Z AUTO 34011G17KT 10SM CLR M17/M22 A3055 RMK AO2 T11681220,KSGS,2015-02-12T07:51:00Z,44.87,-93.03,-16.8,-22.0,340,11,17,10.0,30.549213,,,TRUE,TRUE,,,,,,,CLR,,,,,,,,VFR,,,,,,,,,,,,METAR,250.0
KAMN 120751Z AUTO 33011G15KT 10SM SCT022 SCT027 OVC050 M09/M14 A3000 RMK AO2 T10911137,KAMN,2015-02-12T07:51:00Z,43.32,-84.68,-9.1,-13.7,330,11,15,10.0,30.0,,,TRUE,TRUE,,,,,,,SCT,2200,SCT,2700,OVC,5000,,,VFR,,,,,,,,,,,,METAR,230.0
ENSO 120750Z 16008KT 140V200 9999 -DZ FEW003 BKN006 04/03 Q1015,ENSO,2015-02-12T07:50:00Z,59.78,5.33,4.0,3.0,160,8,,6.21,29.970472,,,,,,,,,,-DZ,FEW,300,BKN,600,,,,,IFR,,,,,,,,,,,,METAR,49.0
KRGK 120750Z AUTO 34006KT 10SM CLR M17/M22 A3050 RMK AO2,KRGK,2015-02-12T07:50:00Z,44.58,-92.48,-17.0,-22.0,340,6,,10.0,30.499016,,,TRUE,TRUE,,,,,,,CLR,,,,,,,,VFR,,,,,,,,,,,,METAR,239.0
KRCV 120750Z AUTO 27014KT 10SM CLR M03/M08 A3043 RMK AO2 T10351083,KRCV,2015-02-12T07:50:00Z,37.72,-106.35,-3.5,-8.3,270,14,,10.0,30.431103,,,TRUE,TRUE,,,,,,,CLR,,,,,,,,VFR,,,,,,,,,,,,METAR,2424.0
EGWU 120750Z 09001KT 9999 OVC021 04/M01 Q1021 NOSIG,EGWU,2015-02-12T07:50:00Z,51.55,-0.42,4.0,-1.0,90,1,,6.21,30.147638,,,,,,TRUE,,,,,OVC,2100,,,,,,,MVFR,,,,,,,,,,,,METAR,40.0
KEFD 120750Z 00000KT 1/2SM FG SCT002 13/13 A3018,KEFD,2015-02-12T07:50:00Z,29.6,-95.17,13.0,13.0,0,0,,0.5,30.180119,,,,,,,,,,FG,SCT,200,,,,,,,LIFR,,,,,,,,,,,,METAR,10.0
LATI 120750Z VRB02KT CAVOK 03/M07 Q1024 NOSIG,LATI,2015-02-12T07:50:00Z,41.42,19.72,3.0,-7.0,0,2,,6.21,30.236221,,,,,,TRUE,,,,,CAVOK,,,,,,,,VFR,,,,,,,,,,,,METAR,90.0
OAKB 120750Z 35007KT 9999 BKN090 11/M02 Q1023 NOSIG RMK BLU BLU,OAKB,2015-02-12T07:50:00Z,34.55,69.22,11.0,-2.0,350,7,,6.21,30.206694,,,,,,TRUE,,,,,BKN,9000,,,,,,,VFR,,,,,,,,,,,,METAR,1791.0
ETNG 120750Z 12003KT 5000 BR M01/M02 Q1022 BECMG CAVOK,ETNG,2015-02-12T07:50:00Z,50.97,6.03,-1.0,-2.0,120,3,,3.11,30.177166,,,,,,,,,,BR,,,,,,,,,,,,,,,,,,,,,METAR,98.0
EYKA 120750Z 22010KT 170V250 9999 OVC006 M01/M02 Q1025 R08/290095,EYKA,2015-02-12T07:50:00Z,54.97,24.08,-1.0,-2.0,220,10,,6.21,30.265747,,,,,,,,,,,OVC,600,,,,,,,IFR,,,,,,,,,,,,METAR,77.0
EKVG 120750Z AUTO 22002KT 1200NDV R12/P1500N R30/P1500N SHSN OVC010/// 00/M00 Q1013 RMK OVC003/// WIND 850FT 28011KT,EKVG,2015-02-12T07:50:00Z,62.07,-7.3,0.0,0.0,220,2,,0.93,29.911417,,,TRUE,,,,,,,SHSN PO,,,,,,,,,,,,,,,,,,,,,METAR,85.0
EVRA 120750Z 21010KT 190V250 9999 OVC009 02/01 Q1021 R18/190095 NOSIG,EVRA,2015-02-12T07:50:00Z,56.92,23.97,2.0,1.0,210,10,,6.21,30.147638,,,,,,TRUE,,,,,OVC,900,,,,,,,IFR,,,,,,,,,,,,METAR,10.0
EDVK 120750Z 16006KT 1800 BR OVC005 M01/M01 Q1022 RMK ATIS G,EDVK,2015-02-12T07:50:00Z,51.38,9.37,-1.0,-1.0,160,6,,1.12,30.177166,,,,,,,,,,BR,OVC,500,,,,,,,IFR,,,,,,,,,,,,METAR,285.0
EDVE 120750Z 13004KT 0350 R26/0650N FZFG VV/// M01/M01 Q1023,EDVE,2015-02-12T07:50:00Z,52.32,10.55,-1.0,-1.0,130,4,,0.22,30.206694,,,,,,,,,,FZFG,OVX,0,,,,,,,LIFR,,,,,,,,,,,,METAR,88.0
EDSB 120750Z VRB03KT 0400 R21/0750V1000N FZFG VV/// M01/M02 Q1024,EDSB,2015-02-12T07:50:00Z,48.78,8.08,-1.0,-2.0,0,3,,0.25,30.236221,,,,,,,,,,FZFG,OVX,0,,,,,,,LIFR,,,,,,,,,,,,METAR,124.0
EDQM 120750Z 17005KT 140V200 2000 BR OVC002 M05/M06 Q1023,EDQM,2015-02-12T07:50:00Z,50.3,11.85,-5.0,-6.0,170,5,,1.24,30.206694,,,,,,,,,,BR,OVC,200,,,,,,,LIFR,,,,,,,,,,,,METAR,568.0
EDOP 120750Z 17007KT 8000 OVC007 00/M01 Q1023,EDOP,2015-02-12T07:50:00Z,53.43,11.78,0.0,-1.0,170,7,,4.97,30.206694,,,,,,,,,,,OVC,700,,,,,,,IFR,,,,,,,,,,,,METAR,51.0
EDMO 120750Z 14003KT 0700 R22/1000U FZFG VV/// M04/M05 Q1023 RMK ATIS C,EDMO,2015-02-12T07:50:00Z,48.07,11.27,-4.0,-5.0,140,3,,0.43,30.206694,,,,,,,,,,FZFG,OVX,0,,,,,,,LIFR,,,,,,,,,,,,METAR,600.0
EDLW 120750Z 17003KT 8000 BKN014 00/M01 Q1022 RMK ATIS H,EDLW,2015-02-12T07:50:00Z,51.52,7.62,0.0,-1.0,170,3,,4.97,30.177166,,,,,,,,,,,BKN,1400,,,,,,,MVFR,,,,,,,,,,,,METAR,127.0
EDLP 120750Z 16003KT CAVOK M03/M04 Q1022 RMK ATIS JUL,EDLP,2015-02-12T07:50:00Z,51.62,8.62,-3.0,-4.0,160,3,,6.21,30.177166,,,,,,,,,,,CAVOK,,,,,,,,VFR,,,,,,,,,,,,METAR,213.0
EDHL 120750Z 20003KT 150V230 6000 BKN005 01/00 Q1023 RMK ATIS FOX,EDHL,2015-02-12T07:50:00Z,53.8,10.72,1.0,0.0,200,3,,3.73,30.206694,,,,,,,,,,,BKN,500,,,,,,,IFR,,,,,,,,,,,,METAR,16.0
EDHI 120750Z 17004KT 120V230 5000 BR OVC005 01/01 Q1023,EDHI,2015-02-12T07:50:00Z,53.53,9.83,1.0,1.0,170,4,,3.11,30.206694,,,,,,,,,,BR,OVC,500,,,,,,,IFR,,,,,,,,,,,,METAR,13.0
VECC 120750Z 31005KT 3500 HZ NSC 27/10 Q1013 NOSIG,VECC,2015-02-12T07:50:00Z,22.65,88.43,27.0,10.0,310,5,,2.17,29.911417,,,,,,TRUE,,,,HZ,,,,,,,,,,,,,,,,,,,,,METAR,6.0
EGSD 120750Z 00000KT 7000 BKN015 04/02 Q1021,EGSD,2015-02-12T07:50:00Z,52.63,1.72,4.0,2.0,0,0,,4.35,30.147638,,,,,,,,,,,BKN,1500,,,,,,,MVFR,,,,,,,,,,,,METAR,2.0
LSZB 120750Z VRB03KT 0150 R14/0250N FZFG VV002 M03/M04 Q1023 NOSIG,LSZB,2015-02-12T07:50:00Z,46.92,7.5,-3.0,-4.0,0,3,,0.09,30.206694,,,,,,TRUE,,,,FZFG,OVX,0,,,,,,,LIFR,,,,,,,,,,,200,METAR,505.0
LSGG 120750Z VRB01KT 4500 BR NSC M03/M03 Q1023 NOSIG,LSGG,2015-02-12T07:50:00Z,46.25,6.12,-3.0,-3.0,0,1,,2.8,30.206694,,,,,,TRUE,,,,BR,,,,,,,,,,,,,,,,,,,,,METAR,416.0
LSZH 120750Z VRB01KT 0250 R14/0400N R16/0500N R28/0450U R34/0650N FZFG VV001 M04/M04 Q1024 R88/19//// NOSIG,LSZH,2015-02-12T07:50:00Z,47.48,8.53,-4.0,-4.0,0,1,,0.16,30.236221,,,,,,TRUE,,,,FZFG,OVX,0,,,,,,,LIFR,,,,,,,,,,,100,METAR,432.0
FHAW 120750Z 13013KT 9999 SCT020 25/22 Q1016 WHT BECMG FEW020 BLU,FHAW,2015-02-12T07:50:00Z,-7.97,-14.4,25.0,22.0,130,13,,6.21,30.0,,,,,,,,,,,SCT,2000,,,,,,,VFR,,,,,,,,,,,,METAR,79.0
EYSA 120750Z 23013KT 5000 BR OVC004 M00/M00 Q1023 R14L/29//95 R14R/29//95,EYSA,2015-02-12T07:50:00Z,55.9,23.4,0.0,0.0,230,13,,3.11,30.206694,,,,,,,,,,BR,OVC,400,,,,,,,LIFR,,,,,,,,,,,,METAR,135.0
PGWT 120750Z 04009KT 7SM FEW160 26/17 A2982,PGWT,2015-02-12T07:50:00Z,14.98,145.62,26.0,17.0,40,9,,7.0,29.819881,,,,,,,,,,,FEW,16000,,,,,,,VFR,,,,,,,,,,,,METAR,82.0
PGRO 120750Z 01016KT 7SM SCT150 26/19 A2985,PGRO,2015-02-12T07:50:00Z,14.18,145.25,26.0,19.0,10,16,,7.0,29.84941,,,,,,,,,,,SCT,15000,,,,,,,VFR,,,,,,,,,,,,METAR,185.0
EYVI 120750Z 21013KT 1500 -FZDZ BR OVC001 M01/M01 Q1024 R20/2///95 NOSIG,EYVI,2015-02-12T07:50:00Z,54.63,25.28,-1.0,-1.0,210,13,,0.93,30.236221,,,,,,TRUE,,,,-FZDZ BR,OVC,100,,,,,,,LIFR,,,,,,,,,,,,METAR,197.0
EYPA 120750Z 23010KT 190V260 9999 OVC005 02/01 Q1023 R19/1///95,EYPA,2015-02-12T07:50:00Z,55.97,21.08,2.0,1.0,230,10,,6.21,30.206694,,,,,,,,,,,OVC,500,,,,,,,IFR,,,,,,,,,,,,METAR,10.0
CYVL 120750Z AUTO 36005KT 7SM CLR M39/M44 A3017 RMK SLP274,CYVL,2015-02-12T07:50:00Z,67.02,-126.13,-39.0,-44.0,360,5,,7.0,30.171259,1027.4,,TRUE,,,,,,,,CLR,,,,,,,,VFR,,,,,,,,,,,,SPECI,259.0
CYYB 120750Z AUTO 36021G29KT 1 3/4SM -SN FEW013 SCT020 OVC042 M16/M19 A2975 RMK VIS VRB 1 1/4-2 1/2 SLP104,CYYB,2015-02-12T07:50:00Z,46.35,-79.42,-16.0,-19.0,360,21,29,1.75,29.749016,1010.4,,TRUE,,,,,,,-SN,FEW,1300,SCT,2000,OVC,4200,,,IFR,,,,,,,,,,,,SPECI,371.0
CYKL 120750Z AUTO 14003KT 5SM -SN BKN055 BKN071 OVC086 M27/M30 A2992 RMK SLP201,CYKL,2015-02-12T07:50:00Z,54.78,-66.82,-27.0,-30.0,140,3,,5.0,29.920275,1020.1,,TRUE,,,,,,,-SN,BKN,5500,BKN,7100,OVC,8600,,,MVFR,,,,,,,,,,,,SPECI,521.0
EETN 120750Z 23016KT 9999 -DZ OVC006 01/00 Q1014 R08/19//95 NOSIG,EETN,2015-02-12T07:50:00Z,59.4,24.82,1.0,0.0,230,16,,6.21,29.940945,,,,,,TRUE,,,,-DZ,OVC,600,,,,,,,IFR,,,,,,,,,,,,METAR,40.0
LSZA 120750Z 36002KT CAVOK M00/M02 Q1025 NOSIG,LSZA,2015-02-12T07:50:00Z,46.0,8.92,0.0,-2.0,360,2,,6.21,30.265747,,,,,,TRUE,,,,,CAVOK,,,,,,,,VFR,,,,,,,,,,,,METAR,276.0
KDAG 120750Z AUTO 26007KT 10SM CLR 09/M06 A3025 RMK AO2 SLP233 T00891061 402280050,KDAG,2015-02-12T07:50:00Z,34.85,-116.78,8.9,-6.1,260,7,,10.0,30.250984,1023.3,,TRUE,TRUE,,,,,,,CLR,,,,,,,,VFR,,,,22.8,5.0,,,,,,,METAR,587.0
KQEJ 120750Z AUTO 01005G13KT 9999 CLR 00/M21 A2982 RMK A02 TSNO,KQEJ,2015-02-12T07:50:00Z,100.65,-1000.65,0.0,-21.0,10,5,13,6.21,29.819881,,,TRUE,TRUE,,,TRUE,,,,CLR,,,,,,,,VFR,,,,,,,,,,,,METAR,999.0
KNQA 120750Z 36007KT 10SM SCT250 01/M03 A3026,KNQA,2015-02-12T07:50:00Z,35.35,-89.87,1.0,-3.0,360,7,,10.0,30.259842,,,,,,,,,,,SCT,25000,,,,,,,VFR,,,,,,,,,,,,METAR,86.0
EDDT 120750Z 15006KT 9999 BKN011 02/M00 Q1023 BECMG SCT012,EDDT,2015-02-12T07:50:00Z,52.57,13.32,2.0,0.0,150,6,,6.21,30.206694,,,,,,,,,,,BKN,1100,,,,,,,MVFR,,,,,,,,,,,,METAR,37.0
EDDL 120750Z 15010KT 8000 BKN010 02/M00 Q1022 NOSIG,EDDL,2015-02-12T07:50:00Z,51.3,6.77,2.0,0.0,150,10,,4.97,30.177166,,,,,,TRUE,,,,,BKN,1000,,,,,,,MVFR,,,,,,,,,,,,METAR,44.0
ESTL 120750Z 25004KT 9999 OVC011 02/M00 Q1022,ESTL,2015-02-12T07:50:00Z,56.07,13.2,2.0,0.0,250,4,,6.21,30.177166,,,,,,,,,,,OVC,1100,,,,,,,MVFR,,,,,,,,,,,,METAR,43.0
ESTA 120750Z 24006KT 9999 OVC010 02/M00 Q1022,ESTA,2015-02-12T07:50:00Z,56.28,12.83,2.0,0.0,240,6,,6.21,30.177166,,,,,,,,,,,OVC,1000,,,,,,,MVFR,,,,,,,,,,,,METAR,47.0
ESMX 120750Z 25010KT 9999 OVC009 01/M00 Q1020,ESMX,2015-02-12T07:50:00Z,56.92,14.72,1.0,0.0,250,10,,6.21,30.11811,,,,,,,,,,,OVC,900,,,,,,,IFR,,,,,,,,,,,,METAR,186.0
ESMT 120750Z 26008KT 9999 OVC011 02/M00 Q1021,ESMT,2015-02-12T07:50:00Z,56.67,12.82,2.0,0.0,260,8,,6.21,30.147638,,,,,,,,,,,OVC,1100,,,,,,,MVFR,,,,,,,,,,,,METAR,30.0
ESMS 120750Z 26006KT 4000 BR OVC005 01/M00 Q1022 R17/19//95,ESMS,2015-02-12T07:50:00Z,55.53,13.37,1.0,0.0,260,6,,2.49,30.177166,,,,,,,,,,BR,OVC,500,,,,,,,IFR,,,,,,,,,,,,METAR,106.0
ESMQ 120750Z 24007KT 9999 BKN012 02/M00 Q1021,ESMQ,2015-02-12T07:50:00Z,56.68,16.3,2.0,0.0,240,7,,6.21,30.147638,,,,,,,,,,,BKN,1200,,,,,,,MVFR,,,,,,,,,,,,METAR,16.0
ESMK 120750Z 25008KT 9999 BKN009 01/M00 Q1022,ESMK,2015-02-12T07:50:00Z,55.92,14.07,1.0,0.0,250,8,,6.21,30.177166,,,,,,,,,,,BKN,900,,,,,,,IFR,,,,,,,,,,,,METAR,23.0
ESGT 120750Z 22010KT 9000 BR BKN014 03/02 Q1018 REDZ,ESGT,2015-02-12T07:50:00Z,58.32,12.33,3.0,2.0,220,10,,5.59,30.059055,,,,,,,,,,BR,BKN,1400,,,,,,,MVFR,,,,,,,,,,,,METAR,41.0
ESGP 120750Z 21012KT 6000 -DZ BKN006 OVC007 03/02 Q1019 R19/19//95,ESGP,2015-02-12T07:50:00Z,57.77,11.87,3.0,2.0,210,12,,3.73,30.088583,,,,,,,,,,-DZ,BKN,600,OVC,700,,,,,IFR,,,,,,,,,,,,METAR,53.0
ESGJ 120750Z 23010KT 9999 UP FEW009 BKN013 BKN022 01/M00 Q1018 RESN R19/19//70,ESGJ,2015-02-12T07:50:00Z,57.77,14.07,1.0,0.0,230,10,,6.21,30.059055,,,,,,,,,,UP,FEW,900,BKN,1300,BKN,2200,,,MVFR,,,,,,,,,,,,METAR,232.0
ESGG 120750Z 23010KT 4600 DZ OVC003 01/00 Q1019 R21/29//95,ESGG,2015-02-12T07:50:00Z,57.67,12.3,1.0,0.0,230,10,,2.86,30.088583,,,,,,,,,,DZ,OVC,300,,,,,,,LIFR,,,,,,,,,,,,METAR,169.0
BGKK 120750Z AUTO 09019KT //// BKN016/// M15/M17 Q1008,BGKK,2015-02-12T07:50:00Z,65.57,-37.13,-15.0,-17.0,90,19,,,29.763779,,,TRUE,,,,,,,,,,,,,,,,,,,,,,,,,,,,METAR,34.0
BGJN 120750Z AUTO 16003KT 9999NDV BKN023/// OVC027/// M20/M25 Q1005,BGJN,2015-02-12T07:50:00Z,69.25,-51.07,-20.0,-25.0,160,3,,,29.675198,,,TRUE,,,,,,,,,,,,,,,,,,,,,,,,,,,,METAR,25.0
BGGH 120750Z AUTO 35005KT 9999NDV FEW012/// BKN025/// BKN120/// M13/M16 Q1000,BGGH,2015-02-12T07:50:00Z,64.2,-51.68,-13.0,-16.0,350,5,,,29.52756,,,TRUE,,,,,,,,,,,,,,,,,,,,,,,,,,,,METAR,70.0
BGSF 120750Z AUTO 06007KT 9999NDV FEW110/// M30/M34 Q1006,BGSF,2015-02-12T07:50:00Z,67.0,-50.72,-30.0,-34.0,60,7,,,29.704725,,,TRUE,,,,,,,,,,,,,,,,,,,,,,,,,,,,METAR,53.0
MSLP 120750Z 05004KT CAVOK 28/18 Q1012 A2988,MSLP,2015-02-12T07:50:00Z,13.43,-89.05,28.0,18.0,50,4,,6.21,29.88189,,,,,,,,,,,CAVOK,,,,,,,,VFR,,,,,,,,,,,,METAR,25.0
EFVA 120750Z AUTO 21007KT CAVOK 01/M01 Q1004,EFVA,2015-02-12T07:50:00Z,63.03,21.77,1.0,-1.0,210,7,,6.21,29.64567,,,TRUE,,,,,,,,CAVOK,,,,,,,,VFR,,,,,,,,,,,,METAR,4.0
EFTU 120750Z AUTO 25009KT 200V300 9999 OVC010/// 02/M00 Q1011,EFTU,2015-02-12T07:50:00Z,60.52,22.27,2.0,0.0,250,9,,6.21,29.852362,,,TRUE,,,,,,,,,,,,,,,,,,,,,,,,,,,,METAR,59.0
EFTP 120750Z 24016KT 9999 BKN010 01/M01 Q1009,EFTP,2015-02-12T07:50:00Z,61.42,23.62,1.0,-1.0,240,16,,6.21,29.793306,,,,,,,,,,,BKN,1000,,,,,,,MVFR,,,,,,,,,,,,METAR,112.0
EFRO 120750Z 24011KT 9999 FEW020 01/M01 Q0990,EFRO,2015-02-12T07:50:00Z,66.57,25.82,1.0,-1.0,240,11,,6.21,29.232283,,,,,,,,,,,FEW,2000,,,,,,,VFR,,,,,,,,,,,,METAR,201.0
EFOU 120750Z AUTO 24016G26KT CAVOK 04/M02 Q0996 R12/19//95,EFOU,2015-02-12T07:50:00Z,64.92,25.37,4.0,-2.0,240,16,26,6.21,29.409449,,,TRUE,,,,,,,,CAVOK,,,,,,,,VFR,,,,,,,,,,,,METAR,15.0
EFKU 120750Z 22015KT 9999 FEW011 BKN120 00/M02 Q1002,EFKU,2015-02-12T07:50:00Z,63.02,27.8,0.0,-2.0,220,15,,6.21,29.586615,,,,,,,,,,,FEW,1100,BKN,12000,,,,,VFR,,,,,,,,,,,,METAR,102.0
EFJY 120750Z 23007KT 180V280 9999 BKN012 01/M01 Q1005,EFJY,2015-02-12T07:50:00Z,62.4,25.68,1.0,-1.0,230,7,,6.21,29.675198,,,,,,,,,,,BKN,1200,,,,,,,MVFR,,,,,,,,,,,,METAR,145.0
EFHK 120750Z 23015KT 9999 BKN011 02/M01 Q1011 NOSIG,EFHK,2015-02-12T07:50:00Z,60.32,24.97,2.0,-1.0,230,15,,6.21,29.852362,,,,,,TRUE,,,,,BKN,1100,,,,,,,MVFR,,,,,,,,,,,,METAR,56.0
PTTP 120750Z 09006KT 15SM BKN018 OVC300 28/23 A2981 RMK SLP093 T02800227,PTTP,2015-02-12T07:50:00Z,6.97,158.22,28.0,22.7,90,6,,15.0,29.811024,1009.3,,,,,,,,,,BKN,1800,OVC,30000,,,,,MVFR,,,,,,,,,,,,METAR,2.0
UMMM 120750Z 22004MPS 1500 -FZDZ BR OVC002 M02/M02 Q1026 R30/390330 NOSIG RMK QFE750 QBB080,UMMM,2015-02-12T07:50:00Z,53.87,27.52,-2.0,-2.0,220,8,,0.93,30.295275,,,,,,TRUE,,,,-FZDZ BR,OVC,200,,,,,,,LIFR,,,,,,,,,,,,SPECI,234.0
EKBI 120750Z AUTO 20004KT 170V230 6000NDV OVC012/// 02/00 Q1021,EKBI,2015-02-12T07:50:00Z,55.72,9.15,2.0,0.0,200,4,,,30.147638,,,TRUE,,,,,,,,,,,,,,,,,,,,,,,,,,,,METAR,66.0
EDNY 120750Z 06004KT 2100 BR BKN002 OVC003 M04/M05 Q1024 RMK ATIS G,EDNY,2015-02-12T07:50:00Z,47.67,9.52,-4.0,-5.0,60,4,,1.3,30.236221,,,,,,,,,,BR,BKN,200,OVC,300,,,,,LIFR,,,,,,,,,,,,METAR,424.0
EDMA 120750Z 15005KT 0900 R25/1200V1900U FZFG OVC002 M03/M03 Q1024 RMK ATIS FOX,EDMA,2015-02-12T07:50:00Z,48.42,10.92,-3.0,-3.0,150,5,,0.56,30.236221,,,,,,,,,,FZFG,OVC,200,,,,,,,LIFR,,,,,,,,,,,,METAR,463.0
EDFH 120750Z 15013KT 0100 R21/0225N FZFG VV/// M01/M01 Q1021,EDFH,2015-02-12T07:50:00Z,49.95,7.27,-1.0,-1.0,150,13,,0.06,30.147638,,,,,,,,,,FZFG,OVX,0,,,,,,,LIFR,,,,,,,,,,,,METAR,498.0
EDDW 120750Z 21003KT 170V230 4300 BR BKN009 02/00 Q1022 NOSIG,EDDW,2015-02-12T07:50:00Z,53.03,8.8,2.0,0.0,210,3,,2.67,30.177166,,,,,,TRUE,,,,BR,BKN,900,,,,,,,IFR,,,,,,,,,,,,METAR,5.0
EDDV 120750Z VRB02KT 3000 BR BKN002 M00/M01 Q1023 NOSIG,EDDV,2015-02-12T07:50:00Z,52.47,9.68,0.0,-1.0,0,2,,1.86,30.206694,,,,,,TRUE,,,,BR,BKN,200,,,,,,,LIFR,,,,,,,,,,,,METAR,54.0
EDDS 120750Z VRB01KT 8000 NSC M02/M02 Q1023 NOSIG,EDDS,2015-02-12T07:50:00Z,48.67,9.22,-2.0,-2.0,0,1,,4.97,30.206694,,,,,,TRUE,,,,,,,,,,,,,,,,,,,,,,,,,METAR,419.0
EDDR 120750Z 06005KT 0150 R09/0350N FZFG VV/// M01/M01 Q1022 NOSIG,EDDR,2015-02-12T07:50:00Z,49.22,7.1,-1.0,-1.0,60,5,,0.09,30.177166,,,,,,TRUE,,,,FZFG,OVX,0,,,,,,,LIFR,,,,,,,,,,,,METAR,320.0
EDDP 120750Z 20006KT 0200 R26L/0800V1500U R26R/0350V0600D FZFG OVC001 M02/M02 Q1023 NOSIG,EDDP,2015-02-12T07:50:00Z,51.43,12.23,-2.0,-2.0,200,6,,0.12,30.206694,,,,,,TRUE,,,,FZFG,OVC,100,,,,,,,LIFR,,,,,,,,,,,,METAR,149.0
EDDN 120750Z 15006KT 4000 BR OVC004 M01/M02 Q1024 NOSIG,EDDN,2015-02-12T07:50:00Z,49.5,11.08,-1.0,-2.0,150,6,,2.49,30.236221,,,,,,TRUE,,,,BR,OVC,400,,,,,,,LIFR,,,,,,,,,,,,METAR,312.0
EDDM 120750Z 08003KT 030V120 1800 BR OVC002 M02/M02 Q1024 BECMG 3000,EDDM,2015-02-12T07:50:00Z,48.35,11.82,-2.0,-2.0,80,3,,1.12,30.236221,,,,,,,,,,BR,OVC,200,,,,,,,LIFR,,,,,,,,,,,,METAR,447.0
EDDK 120750Z 13008KT 6000 BKN011 02/M00 Q1023 NOSIG,EDDK,2015-02-12T07:50:00Z,50.87,7.15,2.0,0.0,130,8,,3.73,30.206694,,,,,,TRUE,,,,,BKN,1100,,,,,,,MVFR,,,,,,,,,,,,METAR,99.0
EDDH 120750Z 19007KT 6000 OVC006 01/00 Q1022 NOSIG,EDDH,2015-02-12T07:50:00Z,53.63,10.0,1.0,0.0,190,7,,3.73,30.177166,,,,,,TRUE,,,,,OVC,600,,,,,,,IFR,,,,,,,,,,,,METAR,16.0
EDDG 120750Z 14003KT 4000 BR BKN003 M01/M01 Q1023 NOSIG,EDDG,2015-02-12T07:50:00Z,52.13,7.7,-1.0,-1.0,140,3,,2.49,30.206694,,,,,,TRUE,,,,BR,BKN,300,,,,,,,LIFR,,,,,,,,,,,,METAR,52.0
EDDF 120750Z 10003KT 040V170 6000 OVC007 01/M01 Q1024 NOSIG,EDDF,2015-02-12T07:50:00Z,50.05,8.6,1.0,-1.0,100,3,,3.73,30.236221,,,,,,TRUE,,,,,OVC,700,,,,,,,IFR,,,,,,,,,,,,METAR,113.0
EDDE 120750Z 22005KT 0200 R28/0250N FZFG VV/// M03/M03 Q1023 BECMG 0800 FZFG BKN001,EDDE,2015-02-12T07:50:00Z,50.98,10.97,-3.0,-3.0,220,5,,0.12,30.206694,,,,,,,,,,FZFG,OVX,0,,,,,,,LIFR,,,,,,,,,,,,METAR,323.0
EDDC 120750Z 16004KT 6000 NSC M01/M02 Q1023 NOSIG,EDDC,2015-02-12T07:50:00Z,51.13,13.75,-1.0,-2.0,160,4,,3.73,30.206694,,,,,,TRUE,,,,,,,,,,,,,,,,,,,,,,,,,METAR,226.0
EDDB 120750Z 14005KT 8000 NSC 00/M01 Q1024 NOSIG,EDDB,2015-02-12T07:50:00Z,52.38,13.53,0.0,-1.0,140,5,,4.97,30.236221,,,,,,TRUE,,,,,,,,,,,,,,,,,,,,,,,,,METAR,48.0
MMMY 120750Z 00000KT 10SM BKN050 16/13 A3011 RMK 8/500,MMMY,2015-02-12T07:50:00Z,25.77,-100.08,16.0,13.0,0,0,,10.0,30.109253,,,,,,,,,,,BKN,5000,,,,,,,VFR,,,,,,,,,,,,METAR,387.0
EVVA 120750Z AUTO 22014KT 8000 OVC007 02/01 Q1020,EVVA,2015-02-12T07:50:00Z,57.35,21.55,2.0,1.0,220,14,,4.97,30.11811,,,TRUE,,,,,,,,OVC,700,,,,,,,IFR,,,,,,,,,,,,METAR,6.0
EKSP 120750Z 24006KT 8000 OVC011 02/M00 Q1022 TEMPO BKN009,EKSP,2015-02-12T07:50:00Z,55.22,9.27,2.0,0.0,240,6,,4.97,30.177166,,,,,,,,,,,OVC,1100,,,,,,,MVFR,,,,,,,,,,,,METAR,40.0
EKKA 120750Z 21004KT 6000 -DZ OVC012 03/02 Q1021 TEMPO 8000,EKKA,2015-02-12T07:50:00Z,56.3,9.12,3.0,2.0,210,4,,3.73,30.147638,,,,,,,,,,-DZ,OVC,1200,,,,,,,MVFR,,,,,,,,,,,,METAR,52.0
KQFX 120750Z AUTO 35006G15KT 9999 CLR 02/M19 A2992 RMK A02 TSNO,KQFX,2015-02-12T07:50:00Z,100.65,-1000.65,2.0,-19.0,350,6,15,6.21,29.920275,,,TRUE,TRUE,,,TRUE,,,,CLR,,,,,,,,VFR,,,,,,,,,,,,METAR,999.0
KQFV 120750Z AUTO 30007G21KT 9999 CLR M02/M22 A2985 RMK A02 TSNO,KQFV,2015-02-12T07:50:00Z,100.65,-1000.65,-2.0,-22.0,300,7,21,6.21,29.84941,,,TRUE,TRUE,,,TRUE,,,,CLR,,,,,,,,VFR,,,,,,,,,,,,METAR,999.0
KQFU 120750Z AUTO 20002G11KT 9999 CLR 01/M21 A2994 RMK A02 TSNO,KQFU,2015-02-12T07:50:00Z,100.65,-1000.65,1.0,-21.0,200,2,11,6.21,29.940945,,,TRUE,TRUE,,,TRUE,,,,CLR,,,,,,,,VFR,,,,,,,,,,,,METAR,999.0
KQFT 120750Z AUTO 14002KT 9999 CLR 02/M21 A2991 RMK A02 TSNO,KQFT,2015-02-12T07:50:00Z,100.65,-1000.65,2.0,-21.0,140,2,,6.21,29.911417,,,TRUE,TRUE,,,TRUE,,,,CLR,,,,,,,,VFR,,,,,,,,,,,,METAR,999.0
KQFB 120750Z AUTO 28014G23KT 9999 CLR 05/M14 A2988 RMK A02 TSNO,KQFB,2015-02-12T07:50:00Z,100.65,-1000.65,5.0,-14.0,280,14,23,6.21,29.878937,,,TRUE,TRUE,,,TRUE,,,,CLR,,,,,,,,VFR,,,,,,,,,,,,METAR,999.0
KQEY 120750Z AUTO 30009G19KT 9999 CLR 02/M14 A2992 RMK A02 TSNO,KQEY,2015-02-12T07:50:00Z,100.65,-1000.65,2.0,-14.0,300,9,19,6.21,29.920275,,,TRUE,TRUE,,,TRUE,,,,CLR,,,,,,,,VFR,,,,,,,,,,,,METAR,999.0
KQEX 120750Z AUTO 35008G19KT 9999 CLR 04/M14 A2990 RMK A02 TSNO,KQEX,2015-02-12T07:50:00Z,100.65,-1000.65,4.0,-14.0,350,8,19,6.21,29.899607,,,TRUE,TRUE,,,TRUE,,,,CLR,,,,,,,,VFR,,,,,,,,,,,,METAR,999.0
KQEW 120750Z AUTO 27022G34KT 9999 CLR 02/M14 A2987 RMK A02 TSNO,KQEW,2015-02-12T07:50:00Z,100.65,-1000.65,2.0,-14.0,270,22,34,6.21,29.870079,,,TRUE,TRUE,,,TRUE,,,,CLR,,,,,,,,VFR,,,,,,,,,,,,METAR,999.0
KQEV 120750Z AUTO 30009G17KT 9999 CLR 02/M13 A2996 RMK A02 TSNO,KQEV,2015-02-12T07:50:00Z,100.65,-1000.65,2.0,-13.0,300,9,17,6.21,29.958662,,,TRUE,TRUE,,,TRUE,,,,CLR,,,,,,,,VFR,,,,,,,,,,,,METAR,999.0
KQES 120750Z AUTO 9999 CLR 01/M13 A3003 RMK A02 TSNO,KQES,2015-02-12T07:50:00Z,100.65,-1000.65,1.0,-13.0,,,,6.21,30.029528,,,TRUE,TRUE,,,TRUE,,,,CLR,,,,,,,,VFR,,,,,,,,,,,,METAR,999.0
KQER 120750Z AUTO 8000 /CLR M06/M11 / RMK A02 TSNO,KQER,2015-02-12T07:50:00Z,100.65,-1000.65,-6.0,-11.0,,,,4.97,,,,TRUE,TRUE,,,TRUE,,,,CLR,,,,,,,,MVFR,,,,,,,,,,,,METAR,999.0
KQEQ 120750Z AUTO 31009G18KT 9999 CLR 00/M19 A2983 RMK A02 TSNO,KQEQ,2015-02-12T07:50:00Z,100.65,-1000.65,0.0,-19.0,310,9,18,6.21,29.828741,,,TRUE,TRUE,,,TRUE,,,,CLR,,,,,,,,VFR,,,,,,,,,,,,METAR,999.0
KQEP 120750Z AUTO 29016G26KT 9999 CLR 01/M20 A2987 RMK A02 TSNO,KQEP,2015-02-12T07:50:00Z,100.65,-1000.65,1.0,-20.0,290,16,26,6.21,29.870079,,,TRUE,TRUE,,,TRUE,,,,CLR,,,,,,,,VFR,,,,,,,,,,,,METAR,999.0
KQEN 120750Z AUTO 9999 CLR M06/M20 / RMK A02 TSNO,KQEN,2015-02-12T07:50:00Z,100.65,-1000.65,-6.0,-20.0,,,,6.21,,,,TRUE,TRUE,,,TRUE,,,,CLR,,,,,,,,VFR,,,,,,,,,,,,METAR,999.0
KQEL 120750Z AUTO 35002KT 9999 CLR 01/M20 A2994 RMK A02 TSNO,KQEL,2015-02-12T07:50:00Z,100.65,-1000.65,1.0,-20.0,350,2,,6.21,29.940945,,,TRUE,TRUE,,,TRUE,,,,CLR,,,,,,,,VFR,,,,,,,,,,,,METAR,999.0
EKRN 120750Z 23008KT 200V260 9999 OVC004 01/M00 Q1024,EKRN,2015-02-12T07:50:00Z,55.07,14.75,1.0,0.0,230,8,,6.21,30.236221,,,,,,,,,,,OVC,400,,,,,,,LIFR,,,,,,,,,,,,METAR,16.0
EKEB 120750Z AUTO 19004KT 160V220 9000NDV OVC013/// 03/01 Q1021,EKEB,2015-02-12T07:50:00Z,55.52,8.55,3.0,1.0,190,4,,,30.147638,,,TRUE,,,,,,,,,,,,,,,,,,,,,,,,,,,,METAR,29.0
EKAH 120750Z AUTO 25005KT 210V290 9999NDV OVC012/// 03/M01 Q1022,EKAH,2015-02-12T07:50:00Z,56.28,10.62,3.0,-1.0,250,5,,,30.177166,,,TRUE,,,,,,,,,,,,,,,,,,,,,,,,,,,,METAR,25.0
EKRK 120750Z AUTO 22004KT 190V260 5000NDV BKN009/// 01/00 Q1022,EKRK,2015-02-12T07:50:00Z,55.57,12.12,1.0,0.0,220,4,,,30.177166,,,TRUE,,,,,,,,,,,,,,,,,,,,,,,,,,,,METAR,44.0
EKYT 120750Z 22009KT 8000 -DZ FEW013 OVC018 04/03 Q1020,EKYT,2015-02-12T07:50:00Z,57.1,9.87,4.0,3.0,220,9,,4.97,30.11811,,,,,,,,,,-DZ,FEW,1300,OVC,1800,,,,,MVFR,,,,,,,,,,,,METAR,3.0
EKCH 120750Z 24005KT 210V270 7000 FEW008 OVC010 02/M00 Q1023 NOSIG,EKCH,2015-02-12T07:50:00Z,55.62,12.67,2.0,0.0,240,5,,4.35,30.206694,,,,,,TRUE,,,,,FEW,800,OVC,1000,,,,,MVFR,,,,,,,,,,,,METAR,5.0
EKOD 120750Z 24006KT 6000 BKN011 03/03 Q1022,EKOD,2015-02-12T07:50:00Z,55.47,10.32,3.0,3.0,240,6,,3.73,30.177166,,,,,,,,,,,BKN,1100,,,,,,,MVFR,,,,,,,,,,,,METAR,17.0
EKSB 120750Z 23003KT 6000 BKN010 02/00 Q1022,EKSB,2015-02-12T07:50:00Z,54.97,9.8,2.0,0.0,230,3,,3.73,30.177166,,,,,,,,,,,BKN,1000,,,,,,,MVFR,,,,,,,,,,,,METAR,23.0
EKVJ 120750Z 23008KT 9999 BKN015 04/03 Q1022,EKVJ,2015-02-12T07:50:00Z,55.97,8.33,4.0,3.0,230,8,,6.21,30.177166,,,,,,,,,,,BKN,1500,,,,,,,MVFR,,,,,,,,,,,,METAR,5.0
VGEG 120750Z 30008KT 3500 HZ NSC 28/10 Q1010 NOSIG,VGEG,2015-02-12T07:50:00Z,22.27,91.82,28.0,10.0,300,8,,2.17,29.822834,,,,,,TRUE,,,,HZ,,,,,,,,,,,,,,,,,,,,,METAR,6.0
K21D 120750Z AUTO 33007KT 10SM CLR M17/M21 A3053 RMK AO2,K21D,2015-02-12T07:50:00Z,45.0,-92.85,-17.0,-21.0,330,7,,10.0,30.528543,,,TRUE,TRUE,,,,,,,CLR,,,,,,,,VFR,,,,,,,,,,,,METAR,285.0
ENTO 120750Z 25004KT CAVOK M00/M01 Q1015,ENTO,2015-02-12T07:50:00Z,59.2,10.27,0.0,-1.0,250,4,,6.21,29.970472,,,,,,,,,,,CAVOK,,,,,,,,VFR,,,,,,,,,,,,METAR,88.0
ENTC 120750Z 34013KT 9999 VCSH FEW025 BKN045 M04/M09 Q0993 TEMPO 0800 SHSNGS VV005 RMK WIND 2600FT 33043KT,ENTC,2015-02-12T07:50:00Z,69.68,18.92,-4.0,-9.0,340,13,,6.21,29.320866,,,,,,,,,,VCSH,FEW,2500,BKN,4500,,,,,VFR,,,,,,,,,,,,METAR,10.0
ENSB 120750Z 15008KT 9999 -SN FEW015 BKN030 M17/M22 Q0986 NOSIG RMK WIND 1400FT 13012KT,ENSB,2015-02-12T07:50:00Z,78.25,15.47,-17.0,-22.0,150,8,,6.21,29.114174,,,,,,TRUE,,,,-SN,FEW,1500,BKN,3000,,,,,MVFR,,,,,,,,,,,,METAR,29.0
ENRY 120750Z 23005KT 200V270 9999 FEW010 01/M00 Q1015 NOSIG,ENRY,2015-02-12T07:50:00Z,59.37,10.77,1.0,0.0,230,5,,6.21,29.970472,,,,,,TRUE,,,,,FEW,1000,,,,,,,VFR,,,,,,,,,,,,METAR,53.0
ENRO 120750Z 32012KT 9999 -SHSN SCT022 BKN029 M01/M04 Q1007,ENRO,2015-02-12T07:50:00Z,62.57,11.33,-1.0,-4.0,320,12,,6.21,29.734253,,,,,,,,,,-SHSN,SCT,2200,BKN,2900,,,,,MVFR,,,,,,,,,,,,METAR,626.0
ENHD 120750Z 16010KT 7000 FEW015 BKN036 04/03 Q1016,ENHD,2015-02-12T07:50:00Z,59.35,5.22,4.0,3.0,160,10,,4.35,30.0,,,,,,,,,,,FEW,1500,BKN,3600,,,,,MVFR,,,,,,,,,,,,METAR,24.0
ENCN 120750Z 22007KT 9999 BKN021 04/01 Q1017,ENCN,2015-02-12T07:50:00Z,58.2,8.07,4.0,1.0,220,7,,6.21,30.029528,,,,,,,,,,,BKN,2100,,,,,,,MVFR,,,,,,,,,,,,METAR,17.0
ENAL 120750Z 01007KT 3200 SN VV003 00/M00 Q1013,ENAL,2015-02-12T07:50:00Z,62.57,6.12,0.0,0.0,10,7,,1.99,29.911417,,,,,,,,,,SN,OVX,0,,,,,,,LIFR,,,,,,,,,,,300,METAR,22.0
ENZV 120750Z 16007KT 5000 BR SCT024 BKN031 04/03 Q1017 NOSIG,ENZV,2015-02-12T07:50:00Z,58.87,5.62,4.0,3.0,160,7,,3.11,30.029528,,,,,,TRUE,,,,BR,SCT,2400,BKN,3100,,,,,MVFR,,,,,,,,,,,,METAR,9.0
ENVA 120750Z 29017KT 5000 -RASN FEW005 SCT012 BKN018 01/M01 Q1011 TEMPO 2000 SNRA VV007 RMK WIND 670FT 29022KT,ENVA,2015-02-12T07:50:00Z,63.47,10.92,1.0,-1.0,290,17,,3.11,29.852362,,,,,,,,,,-RA -SN,FEW,500,SCT,1200,BKN,1800,,,MVFR,,,,,,,,,,,,METAR,17.0
ENOL 120750Z 24012KT 9999 VCSH FEW012 SCT040 BKN050 01/M00 Q1011 TEMPO 1200 -SHSNRA VV004,ENOL,2015-02-12T07:50:00Z,63.7,9.58,1.0,0.0,240,12,,6.21,29.852362,,,,,,,,,,VCSH,FEW,1200,SCT,4000,BKN,5000,,,VFR,,,,,,,,,,,,METAR,7.0
ENGM 120750Z 00000KT 9999 FEW003 M05/M06 Q1013 NOSIG,ENGM,2015-02-12T07:50:00Z,60.2,11.1,-5.0,-6.0,0,0,,6.21,29.911417,,,,,,TRUE,,,,,FEW,300,,,,,,,VFR,,,,,,,,,,,,METAR,204.0
ENDU 120750Z 31008KT 290V350 5000 -SHSN FEW010 SCT025 BKN035 M05/M07 Q0993 TEMPO 0800 SHSN VV004,ENDU,2015-02-12T07:50:00Z,69.03,18.55,-5.0,-7.0,310,8,,3.11,29.320866,,,,,,,,,,-SHSN,FEW,1000,SCT,2500,BKN,3500,,,MVFR,,,,,,,,,,,,METAR,79.0
ENBO 120750Z 30039G51KT 0300 +SHSN VV003 M02/M02 Q0998 TEMPO 9999 FEW012TCU BKN030,ENBO,2015-02-12T07:50:00Z,67.27,14.37,-2.0,-2.0,300,39,51,0.19,29.468504,,,,,,,,,,+SHSN,OVX,0,,,,,,,LIFR,,,,,,,,,,,300,METAR,13.0
ENBR 120750Z 17012KT 9000 -DZ SCT005 BKN009 04/03 Q1015 TEMPO 4000 DZRA BR SCT009 BKN012 RMK WIND 1200FT 18016KT,ENBR,2015-02-12T07:50:00Z,60.28,5.22,4.0,3.0,170,12,,5.59,29.970472,,,,,,,,,,-DZ,SCT,500,BKN,900,,,,,IFR,,,,,,,,,,,,METAR,50.0
ENAN 120750Z 32014KT 9999 VCSH FEW012CB SCT020 BKN040 M02/M09 Q0994 TEMPO 32025G40KT 0500 +SHSNGS VV003,ENAN,2015-02-12T07:50:00Z,69.28,16.13,-2.0,-9.0,320,14,,6.21,29.350393,,,,,,,,,,VCSH,FEW,1200,SCT,2000,BKN,4000,,,VFR,,,,,,,,,,,,METAR,14.0
MMZC 120750Z 20010KT 10SM SKC 09/01 A3021,MMZC,2015-02-12T07:50:00Z,22.9,-102.68,9.0,1.0,200,10,,10.0,30.209646,,,,,,,,,,,SKC,,,,,,,,VFR,,,,,,,,,,,,METAR,2177.0
LGRP 120750Z 30004KT 9999 FEW018 11/01 Q1012 NOSIG,LGRP,2015-02-12T07:50:00Z,36.4,28.08,11.0,1.0,300,4,,6.21,29.88189,,,,,,TRUE,,,,,FEW,1800,,,,,,,VFR,,,,,,,,,,,,METAR,5.0
ENLA 120750Z AUTO 25009KT 220V280 9999NDV OVC028/// 07/01 Q1017 W///S3,ENLA,2015-02-12T07:50:00Z,59.1,2.83,7.0,1.0,250,9,,,30.029528,,,TRUE,,,,,,,,,,,,,,,,,,,,,,,,,,,,METAR,4.0
ENHM 120750Z 22020KT 9999 SCT041 BKN046 06/05 Q1013 W07/S4,ENHM,2015-02-12T07:50:00Z,59.57,2.23,6.0,5.0,220,20,,6.21,29.911417,,,,,,,,,,,SCT,4100,BKN,4600,,,,,VFR,,,,,,,,,,,,METAR,10.0
ENQA 120750Z AUTO 20028KT 7000NDV -SHRA OVC021/// 06/05 Q1012 W05/S5,ENQA,2015-02-12T07:50:00Z,60.65,3.72,6.0,5.0,200,28,,,29.88189,,,TRUE,,,,,,,-SHRA,,,,,,,,,,,,,,,,,,,,,METAR,20.0
ENQC 120750Z AUTO 20024KT 7000NDV -RA OVC008/// 07/06 Q1011 W///S5,ENQC,2015-02-12T07:50:00Z,60.88,3.62,7.0,6.0,200,24,,,29.852362,,,TRUE,,,,,,,-RA,,,,,,,,,,,,,,,,,,,,,METAR,20.0
ENSE 120750Z AUTO 04020KT 9999NDV FEW012/// BKN017/// OVC024/// 03/01 Q1013 W///S5,ENSE,2015-02-12T07:50:00Z,61.45,2.15,3.0,1.0,40,20,,,29.911417,,,TRUE,,,,,,,,,,,,,,,,,,,,,,,,,,,,METAR,10.0
ENQR 120750Z AUTO 04016KT 9999NDV BKN018/// OVC060/// 04/02 Q1012 W///S5,ENQR,2015-02-12T07:50:00Z,61.35,2.22,4.0,2.0,40,16,,,29.88189,,,TRUE,,,,,,,,,,,,,,,,,,,,,,,,,,,,METAR,10.0
ENNE 120750Z 33031KT 9999 VCSH FEW018 SCT030 00/M03 Q1007 W07/S7,ENNE,2015-02-12T07:50:00Z,66.03,8.08,0.0,-3.0,330,31,,6.21,29.734253,,,,,,,,,,VCSH,FEW,1800,SCT,3000,,,,,VFR,,,,,,,,,,,,METAR,10.0
LGKR 120750Z 10004KT 9999 FEW030 08/M09 Q1023 NOSIG,LGKR,2015-02-12T07:50:00Z,39.62,19.92,8.0,-9.0,100,4,,6.21,30.206694,,,,,,TRUE,,,,,FEW,3000,,,,,,,VFR,,,,,,,,,,,,METAR,2.0
EDLN 120750Z 14004KT 100V170 3500 BR NSC 01/00 Q1022 RMK ATIS C,EDLN,2015-02-12T07:50:00Z,51.23,6.5,1.0,0.0,140,4,,2.17,30.177166,,,,,,,,,,BR,,,,,,,,,,,,,,,,,,,,,METAR,38.0
EDGS 120750Z 15007KT 0150 R13/0225N FZFG VV/// M03/M03 Q1020,EDGS,2015-02-12T07:50:00Z,50.7,8.08,-3.0,-3.0,150,7,,0.09,30.11811,,,,,,,,,,FZFG,OVX,0,,,,,,,LIFR,,,,,,,,,,,,METAR,602.0
EDBC 120750Z 18004KT 0150 R26/0200N FZFG VV/// M03/M03 Q1022,EDBC,2015-02-12T07:50:00Z,51.85,11.42,-3.0,-3.0,180,4,,0.09,30.177166,,,,,,,,,,FZFG,OVX,0,,,,,,,LIFR,,,,,,,,,,,,METAR,181.0
EDAC 120750Z 15004KT CAVOK M02/M02 Q1023,EDAC,2015-02-12T07:50:00Z,50.98,12.5,-2.0,-2.0,150,4,,6.21,30.206694,,,,,,,,,,,CAVOK,,,,,,,,VFR,,,,,,,,,,,,METAR,195.0
ENVR 120750Z 31017G31KT 270V010 9999 VCSH SCT017 BKN030 M02/M04 Q1000,ENVR,2015-02-12T07:50:00Z,67.65,12.72,-2.0,-4.0,310,17,31,6.21,29.52756,,,,,,,,,,VCSH,SCT,1700,BKN,3000,,,,,MVFR,,,,,,,,,,,,METAR,4.0
ENSH 120750Z 34015KT 330V010 9999 VCSH FEW010 SCT020 BKN035 M02/M06 Q0996,ENSH,2015-02-12T07:50:00Z,68.25,14.67,-2.0,-6.0,340,15,,6.21,29.409449,,,,,,,,,,VCSH,FEW,1000,SCT,2000,BKN,3500,,,VFR,,,,,,,,,,,,METAR,9.0
ENRA 120750Z 28014G24KT 9000 -SHSN SCT020 BKN040 M02/M03 Q1001,ENRA,2015-02-12T07:50:00Z,66.37,14.3,-2.0,-3.0,280,14,24,5.59,29.557087,,,,,,,,,,-SHSN,SCT,2000,BKN,4000,,,,,VFR,,,,,,,,,,,,METAR,70.0
ENHF 120750Z 24020G33KT 9999 VCSH DRSN FEW012 SCT036 BKN051 M05/M09 Q0985 RMK WIND 1254FT 27038G48KT,ENHF,2015-02-12T07:50:00Z,70.67,23.67,-5.0,-9.0,240,20,33,6.21,29.084646,,,,,,,,,,VCSH DRSN,FEW,1200,SCT,3600,BKN,5100,,,VFR,,,,,,,,,,,,METAR,81.0
ENFG 120750Z 26005KT 9999 FEW050 SCT100 M02/M07 Q1009,ENFG,2015-02-12T07:50:00Z,61.0,9.3,-2.0,-7.0,260,5,,6.21,29.793306,,,,,,,,,,,FEW,5000,SCT,10000,,,,,VFR,,,,,,,,,,,,METAR,822.0
ENBV 120750Z 26032KT 9999 -BLSN SCT020 M05/M08 Q0982,ENBV,2015-02-12T07:50:00Z,70.87,29.02,-5.0,-8.0,260,32,,6.21,28.996063,,,,,,,,,,-BLSN,SCT,2000,,,,,,,VFR,,,,,,,,,,,,METAR,13.0
ENBN 120750Z 30024KT 270V330 8000 -SHSN SCT012CB 00/M03 Q1006,ENBN,2015-02-12T07:50:00Z,65.47,12.22,0.0,-3.0,300,24,,4.97,29.704725,,,,,,,,,,-SHSN,SCT,1200,,,,,,,MVFR,,,,,,,,,,,,METAR,9.0
LIPZ 120750Z 02007KT 9999 SCT017 03/00 Q1025,LIPZ,2015-02-12T07:50:00Z,45.5,12.35,3.0,0.0,20,7,,6.21,30.265747,,,,,,,,,,,SCT,1700,,,,,,,VFR,,,,,,,,,,,,METAR,6.0
LIPQ 120750Z VRB01KT CAVOK 05/00 Q1026,LIPQ,2015-02-12T07:50:00Z,45.82,13.47,5.0,0.0,0,1,,6.21,30.295275,,,,,,,,,,,CAVOK,,,,,,,,VFR,,,,,,,,,,,,METAR,12.0
LIPE 120750Z VRB02KT 9999 FEW012 01/M02 Q1025,LIPE,2015-02-12T07:50:00Z,44.52,11.3,1.0,-2.0,0,2,,6.21,30.265747,,,,,,,,,,,FEW,1200,,,,,,,VFR,,,,,,,,,,,,METAR,42.0
LIPB 120750Z 26002KT CAVOK M02/M04 Q1025,LIPB,2015-02-12T07:50:00Z,46.47,11.32,-2.0,-4.0,260,2,,6.21,30.265747,,,,,,,,,,,CAVOK,,,,,,,,VFR,,,,,,,,,,,,METAR,241.0
LICJ 120750Z 15002KT CAVOK 10/06 Q1022,LICJ,2015-02-12T07:50:00Z,38.17,13.08,10.0,6.0,150,2,,6.21,30.177166,,,,,,,,,,,CAVOK,,,,,,,,VFR,,,,,,,,,,,,METAR,34.0
LICC 120750Z 24004KT 200V270 9999 FEW040 07/05 Q1022,LICC,2015-02-12T07:50:00Z,37.47,15.05,7.0,5.0,240,4,,6.21,30.177166,,,,,,,,,,,FEW,4000,,,,,,,VFR,,,,,,,,,,,,METAR,17.0
LIBD 120750Z VRB03KT 9999 FEW035 08/02 Q1024,LIBD,2015-02-12T07:50:00Z,41.12,16.77,8.0,2.0,0,3,,6.21,30.236221,,,,,,,,,,,FEW,3500,,,,,,,VFR,,,,,,,,,,,,METAR,44.0
OAMS 120750Z 07012G18KT 9999 -SHRA FEW010 BKN050 BKN100 13/11 Q1020 BLU WHT TEMPO BLU,OAMS,2015-02-12T07:50:00Z,36.7,67.2,13.0,11.0,70,12,18,6.21,30.11811,,,,,,,,,,-SHRA,FEW,1000,BKN,5000,BKN,10000,,,VFR,,,,,,,,,,,,METAR,378.0
ENST 120750Z 28010G22KT 9999 VCSH FEW015CB SCT035 00/M03 Q1005 RMK WIND 300FT 28014G26KT,ENST,2015-02-12T07:50:00Z,65.97,12.47,0.0,-3.0,280,10,22,6.21,29.675198,,,,,,,,,,VCSH,FEW,1500,SCT,3500,,,,,VFR,,,,,,,,,,,,METAR,17.0
ENSK 120750Z 29006KT 260V340 9999 6000NE VCSH FEW012 SCT017 BKN025 M03/M04 Q0996,ENSK,2015-02-12T07:50:00Z,68.57,15.02,-3.0,-4.0,290,6,,6.21,29.409449,,,,,,,,,,VCSH,FEW,1200,SCT,1700,BKN,2500,,,MVFR,,,,,,,,,,,,METAR,3.0
ENRS 120750Z 29028KT 9999 VCSH FEW009 SCT017CB BKN045 M01/M05 Q1000,ENRS,2015-02-12T07:50:00Z,67.52,12.08,-1.0,-5.0,290,28,,6.21,29.52756,,,,,,,,,,VCSH,FEW,900,SCT,1700,BKN,4500,,,VFR,,,,,,,,,,,,METAR,4.0
ENRM 120750Z 28012G23KT 9999 2000S SHSNGS FEW006 BKN015CB 01/M03 Q1008,ENRM,2015-02-12T07:50:00Z,64.83,11.13,1.0,-3.0,280,12,23,6.21,29.763779,,,,,,,,,,SHSN GS,FEW,600,BKN,1500,,,,,MVFR,,,,,,,,,,,,METAR,14.0
ENMS 120750Z 32008KT 290V360 9999 FEW012CB SCT035 M00/M05 Q1004 RMK WIND 412FT 29009KT 240V010,ENMS,2015-02-12T07:50:00Z,65.78,13.22,0.0,-5.0,320,8,,6.21,29.64567,,,,,,,,,,,FEW,1200,SCT,3500,,,,,VFR,,,,,,,,,,,,METAR,70.0
ENFB 120750Z AUTO 04016KT 9999NDV SCT012/// BKN057/// 04/02 Q1013 W///S5,ENFB,2015-02-12T07:50:00Z,61.2,1.83,4.0,2.0,40,16,,,29.911417,,,TRUE,,,,,,,,,,,,,,,,,,,,,,,,,,,,METAR,10.0
ENSL 120750Z 21015KT 9999 FEW042 SCT049 06/04 Q1015 W05/S4,ENSL,2015-02-12T07:50:00Z,58.37,1.9,6.0,4.0,210,15,,6.21,29.970472,,,,,,,,,,,FEW,4200,SCT,4900,,,,,VFR,,,,,,,,,,,,METAR,50.0
ENOA 120750Z 22025KT 7000 -RA BKN012 07/06 Q1011 W///S5,ENOA,2015-02-12T07:50:00Z,60.5,2.83,7.0,6.0,220,25,,4.35,29.852362,,,,,,,,,,-RA,BKN,1200,,,,,,,MVFR,,,,,,,,,,,,METAR,5.0
ENHE 120750Z 32023KT 9999 VCSH FEW015CB SCT025 BKN170 01/M04 Q1008 W///S6,ENHE,2015-02-12T07:50:00Z,65.33,2.33,1.0,-4.0,320,23,,6.21,29.763779,,,,,,,,,,VCSH,FEW,1500,SCT,2500,BKN,17000,,,VFR,,,,,,,,,,,,METAR,1.0
ENDR 120750Z AUTO 29023KT 03/M06 Q1010,ENDR,2015-02-12T07:50:00Z,64.35,7.8,3.0,-6.0,290,23,,,29.822834,,,TRUE,,,,,,,,,,,,,,,,,,,,,,,,,,,,METAR,50.0
ENNM 120750Z 24007KT 170V290 9999 SCT035 BKN047 01/M03 Q1008,ENNM,2015-02-12T07:50:00Z,64.47,11.57,1.0,-3.0,240,7,,6.21,29.763779,,,,,,,,,,,SCT,3500,BKN,4700,,,,,VFR,,,,,,,,,,,,METAR,2.0
ENNK 120750Z 30016KT 4000 -SHSN VV015 M02/M04 Q0993,ENNK,2015-02-12T07:50:00Z,68.47,17.38,-2.0,-4.0,300,16,,2.49,29.320866,,,,,,,,,,-SHSN,OVX,0,,,,,,,LIFR,,,,,,,,,,,1500,METAR,23.0
ENBS 120750Z 28029KT 240V300 9999 VCSH DRSN FEW039 M06/M14 Q0981,ENBS,2015-02-12T07:50:00Z,70.62,29.72,-6.0,-14.0,280,29,,6.21,28.966536,,,,,,,,,,VCSH DRSN,FEW,3900,,,,,,,VFR,,,,,,,,,,,,METAR,10.0
EEPU 120750Z 22018KT 9999 OVC008 01/01 Q1017,EEPU,2015-02-12T07:50:00Z,58.42,24.47,1.0,1.0,220,18,,6.21,30.029528,,,,,,,,,,,OVC,800,,,,,,,IFR,,,,,,,,,,,,METAR,14.0
EETU 120750Z AUTO 24016KT 9999 OVC009/// 01/M01 Q1017,EETU,2015-02-12T07:50:00Z,58.32,26.68,1.0,-1.0,240,16,,6.21,30.029528,,,TRUE,,,,,,,,,,,,,,,,,,,,,,,,,,,,METAR,67.0
EEKE 120750Z 25014KT 200V260 9999 OVC006 02/01 Q1018 R17/190095,EEKE,2015-02-12T07:50:00Z,58.23,22.52,2.0,1.0,250,14,,6.21,30.059055,,,,,,,,,,,OVC,600,,,,,,,IFR,,,,,,,,,,,,METAR,4.0
EEKA 120750Z 22011KT 190V260 9999 OVC006 02/01 Q1015,EEKA,2015-02-12T07:50:00Z,58.98,22.83,2.0,1.0,220,11,,6.21,29.970472,,,,,,,,,,,OVC,600,,,,,,,IFR,,,,,,,,,,,,METAR,4.0
EDTY 120750Z 11004KT 3300 BR OVC002 M02/M02 Q1023,EDTY,2015-02-12T07:50:00Z,49.12,9.78,-2.0,-2.0,110,4,,2.05,30.206694,,,,,,,,,,BR,OVC,200,,,,,,,LIFR,,,,,,,,,,,,METAR,400.0
EDTL 120750Z 13002KT 0300 R21/M0350N FZFG VV/// M02/M02 Q1024,EDTL,2015-02-12T07:50:00Z,48.37,7.83,-2.0,-2.0,130,2,,0.19,30.236221,,,,,,,,,,FZFG,OVX,0,,,,,,,LIFR,,,,,,,,,,,,METAR,156.0
EDJA 120750Z VRB02KT 0250 R24/M0350N FZFG VV/// M10/M11 Q1023,EDJA,2015-02-12T07:50:00Z,47.98,10.23,-10.0,-11.0,0,2,,0.16,30.206694,,,,,,,,,,FZFG,OVX,0,,,,,,,LIFR,,,,,,,,,,,,METAR,633.0
EDHK 120750Z 19004KT 140V230 7000 OVC011 02/M01 Q1022,EDHK,2015-02-12T07:50:00Z,54.38,10.15,2.0,-1.0,190,4,,4.35,30.177166,,,,,,,,,,,OVC,1100,,,,,,,MVFR,,,,,,,,,,,,METAR,31.0
EDAH 120750Z 20006KT 8000 OVC008 01/M01 Q1024,EDAH,2015-02-12T07:50:00Z,53.87,14.15,1.0,-1.0,200,6,,4.97,30.236221,,,,,,,,,,,OVC,800,,,,,,,IFR,,,,,,,,,,,,METAR,28.0
ENNA 120750Z 28021KT 9999 FEW025 M04/M10 Q0987 RMK WIND 1800FT 29038KT,ENNA,2015-02-12T07:50:00Z,70.07,24.97,-4.0,-10.0,280,21,,6.21,29.143702,,,,,,,,,,,FEW,2500,,,,,,,VFR,,,,,,,,,,,,METAR,8.0
ENML 120750Z 27004KT 220V290 6000 -SHSNRA VV011 01/00 Q1013,ENML,2015-02-12T07:50:00Z,62.75,7.27,1.0,0.0,270,4,,3.73,29.911417,,,,,,,,,,-SHSN -SHRA,OVX,0,,,,,,,LIFR,,,,,,,,,,,1100,METAR,3.0
ENKR 120750Z 29010KT CAVOK M06/M09 Q0985 RMK WIND 731FT 28020KT,ENKR,2015-02-12T07:50:00Z,69.72,29.88,-6.0,-9.0,290,10,,6.21,29.084646,,,,,,,,,,,CAVOK,,,,,,,,VFR,,,,,,,,,,,,METAR,91.0
ENKB 120750Z 33004KT 300V010 1500 SN VV006 M00/M00 Q1013,ENKB,2015-02-12T07:50:00Z,63.12,7.82,0.0,0.0,330,4,,0.93,29.911417,,,,,,,,,,SN,OVX,0,,,,,,,LIFR,,,,,,,,,,,600,METAR,62.0
ENFL 120750Z 19022KT 9999 -RADZ FEW006 SCT010 BKN012 05/03 Q1011,ENFL,2015-02-12T07:50:00Z,61.57,5.02,5.0,3.0,190,22,,6.21,29.852362,,,,,,,,,,-RA -DZ,FEW,600,SCT,1000,BKN,1200,,,MVFR,,,,,,,,,,,,METAR,9.0
ENEV 120750Z 35015KT 2000 SN VV012 M03/M04 Q0994 RMK WIND 1400FT 33027G39KT,ENEV,2015-02-12T07:50:00Z,68.52,16.67,-3.0,-4.0,350,15,,1.24,29.350393,,,,,,,,,,SN,OVX,0,,,,,,,LIFR,,,,,,,,,,,1200,METAR,26.0
ENBL 120750Z 24008KT 210V280 2000 -RA VV010 01/01 Q1011,ENBL,2015-02-12T07:50:00Z,61.4,5.77,1.0,1.0,240,8,,1.24,29.852362,,,,,,,,,,-RA,OVX,0,,,,,,,LIFR,,,,,,,,,,,1000,METAR,150.0
ENAT 120750Z 29016KT 9999 VCSH SCT020 M03/M10 Q0989 RMK WIND 700FT 29028KT,ENAT,2015-02-12T07:50:00Z,69.97,23.37,-3.0,-10.0,290,16,,6.21,29.202755,,,,,,,,,,VCSH,SCT,2000,,,,,,,VFR,,,,,,,,,,,,METAR,3.0
EDLV 120750Z 15004KT 1500 BR NSC M01/M01 Q1022,EDLV,2015-02-12T07:50:00Z,51.6,6.15,-1.0,-1.0,150,4,,0.93,30.177166,,,,,,,,,,BR,,,,,,,,,,,,,,,,,,,,,METAR,32.0
EDFM 120750Z VRB03KT 5000 BR OVC009 01/M00 Q1024,EDFM,2015-02-12T07:50:00Z,49.47,8.52,1.0,0.0,0,3,,3.11,30.236221,,,,,,,,,,BR,OVC,900,,,,,,,IFR,,,,,,,,,,,,METAR,100.0
EDFE 120750Z 13004KT 6000 BKN006 00/M02 Q1024,EDFE,2015-02-12T07:50:00Z,49.97,8.63,0.0,-2.0,130,4,,3.73,30.236221,,,,,,,,,,,BKN,600,,,,,,,IFR,,,,,,,,,,,,METAR,118.0
EGNS 120750Z 03002KT 9999 FEW025 OVC042 05/02 Q1018 NOSIG,EGNS,2015-02-12T07:50:00Z,54.08,-4.63,5.0,2.0,30,2,,6.21,30.059055,,,,,,TRUE,,,,,FEW,2500,OVC,4200,,,,,VFR,,,,,,,,,,,,METAR,17.0
LIRQ 120750Z 00000KT CAVOK 04/03 Q1024,LIRQ,2015-02-12T07:50:00Z,43.78,11.18,4.0,3.0,0,0,,6.21,30.236221,,,,,,,,,,,CAVOK,,,,,,,,VFR,,,,,,,,,,,,METAR,38.0
LIRN 120750Z 36006KT 9999 FEW040 09/04 Q1023,LIRN,2015-02-12T07:50:00Z,40.88,14.3,9.0,4.0,360,6,,6.21,30.206694,,,,,,,,,,,FEW,4000,,,,,,,VFR,,,,,,,,,,,,METAR,72.0
LIRF 120750Z 06007KT CAVOK 07/06 Q1023 NOSIG,LIRF,2015-02-12T07:50:00Z,41.78,12.22,7.0,6.0,60,7,,6.21,30.206694,,,,,,TRUE,,,,,CAVOK,,,,,,,,VFR,,,,,,,,,,,,METAR,3.0
LIML 120750Z 00000KT 2000 R36/1200V1600U BCFG NSC 01/01 Q1025 NOSIG,LIML,2015-02-12T07:50:00Z,45.47,9.27,1.0,1.0,0,0,,1.24,30.265747,,,,,,TRUE,,,,BCFG,,,,,,,,,,,,,,,,,,,,,METAR,103.0
LIMJ 120750Z 03007KT CAVOK 11/M01 Q1023,LIMJ,2015-02-12T07:50:00Z,44.42,8.83,11.0,-1.0,30,7,,6.21,30.206694,,,,,,,,,,,CAVOK,,,,,,,,VFR,,,,,,,,,,,,METAR,3.0
LIMF 120750Z 00000KT 6000 NSC 01/M02 Q1024,LIMF,2015-02-12T07:50:00Z,45.22,7.65,1.0,-2.0,0,0,,3.73,30.236221,,,,,,,,,,,,,,,,,,,,,,,,,,,,,,,METAR,287.0
LIME 120750Z 01005KT 5000 BR NSC 02/M00 Q1025,LIME,2015-02-12T07:50:00Z,45.67,9.68,2.0,0.0,10,5,,3.11,30.265747,,,,,,,,,,BR,,,,,,,,,,,,,,,,,,,,,METAR,237.0
LIMC 120750Z 35004KT 5000 BR NSC M00/M01 Q1025 NOSIG,LIMC,2015-02-12T07:50:00Z,45.62,8.72,0.0,-1.0,350,4,,3.11,30.265747,,,,,,TRUE,,,,BR,,,,,,,,,,,,,,,,,,,,,METAR,211.0
LIEO 120750Z 21003KT 9999 FEW008 04/04 Q1023,LIEO,2015-02-12T07:50:00Z,40.88,9.52,4.0,4.0,210,3,,6.21,30.206694,,,,,,,,,,,FEW,800,,,,,,,VFR,,,,,,,,,,,,METAR,13.0
LIEE 120750Z 35003KT 310V030 CAVOK 06/06 Q1022,LIEE,2015-02-12T07:50:00Z,39.25,9.07,6.0,6.0,350,3,,6.21,30.177166,,,,,,,,,,,CAVOK,,,,,,,,VFR,,,,,,,,,,,,METAR,4.0
LIEA 120750Z VRB02KT CAVOK 08/07 Q1021,LIEA,2015-02-12T07:50:00Z,40.62,8.27,8.0,7.0,0,2,,6.21,30.147638,,,,,,,,,,,CAVOK,,,,,,,,VFR,,,,,,,,,,,,METAR,23.0
ENSS 120750Z 25021KT CAVOK M07/M09 Q0983 RMK WIND 500FT 25033KT,ENSS,2015-02-12T07:50:00Z,70.33,31.05,-7.0,-9.0,250,21,,6.21,29.02559,,,,,,,,,,,CAVOK,,,,,,,,VFR,,,,,,,,,,,,METAR,12.0
ENSN 120750Z 29004KT 3000 BR PRFG BKN001 M06/M06 Q1015,ENSN,2015-02-12T07:50:00Z,59.17,9.57,-6.0,-6.0,290,4,,1.86,29.970472,,,,,,,,,,BR PRFG,BKN,100,,,,,,,LIFR,,,,,,,,,,,,METAR,14.0
ENSG 120750Z 24007KT 9999 VCSH FEW021 BKN030 02/M02 Q1011 RMK WIND 3901FT 23017KT,ENSG,2015-02-12T07:50:00Z,61.13,7.12,2.0,-2.0,240,7,,6.21,29.852362,,,,,,,,,,VCSH,FEW,2100,BKN,3000,,,,,MVFR,,,,,,,,,,,,METAR,497.0
ENSD 120750Z 35004KT 9999 -SHRA FEW015 SCT022 BKN030 04/02 Q1012 RMK WIND 1138FT 30008KT,ENSD,2015-02-12T07:50:00Z,61.82,6.12,4.0,2.0,350,4,,6.21,29.88189,,,,,,,,,,-SHRA,FEW,1500,SCT,2200,BKN,3000,,,MVFR,,,,,,,,,,,,METAR,60.0
ENOV 120750Z 22004KT 2000 SNRA VV011 00/M00 Q1013 RMK WIND 2175FT 33008KT,ENOV,2015-02-12T07:50:00Z,62.17,6.07,0.0,0.0,220,4,,1.24,29.911417,,,,,,,,,,SN RA,OVX,0,,,,,,,LIFR,,,,,,,,,,,1100,METAR,74.0
EGLC 120750Z VRB02KT 9000 OVC020 04/M01 Q1021,EGLC,2015-02-12T07:50:00Z,51.5,0.05,4.0,-1.0,0,2,,5.59,30.147638,,,,,,,,,,,OVC,2000,,,,,,,MVFR,,,,,,,,,,,,METAR,5.0
ELLX 120750Z VRB03KT 0100 R24/0175N FZFG VV001 M01/M01 Q1021 2419//58 NOSIG,ELLX,2015-02-12T07:50:00Z,49.63,6.2,-1.0,-1.0,0,3,,0.06,30.147638,,,,,,TRUE,,,,FZFG,OVX,0,,,,,,,LIFR,,,,,,,,,,,100,METAR,379.0
EBOS 120750Z VRB02KT 4200 BR BKN023 02/01 Q1021 NOSIG,EBOS,2015-02-12T07:50:00Z,51.2,2.87,2.0,1.0,0,2,,2.61,30.147638,,,,,,TRUE,,,,BR,BKN,2300,,,,,,,IFR,,,,,,,,,,,,METAR,5.0
EBLG 120750Z 14009KT 5000 BR NSC M00/M02 Q1021 BECMG NSW,EBLG,2015-02-12T07:50:00Z,50.63,5.45,0.0,-2.0,140,9,,3.11,30.147638,,,,,,,,,,BR,,,,,,,,,,,,,,,,,,,,,METAR,178.0
EBCI 120750Z VRB02KT 3200 BR NSC M01/M02 Q1021 TEMPO 2500 BR,EBCI,2015-02-12T07:50:00Z,50.47,4.45,-1.0,-2.0,0,2,,1.99,30.147638,,,,,,,,,,BR,,,,,,,,,,,,,,,,,,,,,METAR,192.0
EBBR 120750Z 15003KT 3000 1100SE R25L/1100V1800D R25R/P2000N R01/P2000N BCFG NSC M03/M04 Q1021 NOSIG,EBBR,2015-02-12T07:50:00Z,50.9,4.5,-3.0,-4.0,150,3,,1.86,30.147638,,,,,,TRUE,,,,BCFG,,,,,,,,,,,,,,,,,,,,,METAR,58.0
EBAW 120750Z 10003KT 2400 BR BKN017 01/M01 Q1022 NOSIG,EBAW,2015-02-12T07:50:00Z,51.2,4.47,1.0,-1.0,100,3,,1.49,30.177166,,,,,,TRUE,,,,BR,BKN,1700,,,,,,,IFR,,,,,,,,,,,,METAR,14.0
LOXZ 120750Z 18004KT 9000 FEW005ST BKN008ST BKN011ST M01/M02 Q1025 NOSIG RMK BASE DIF/OVC,LOXZ,2015-02-12T07:50:00Z,47.2,14.75,-1.0,-2.0,180,4,,5.59,30.265747,,,,,,TRUE,,,,,,,,,,,,,,,,,,,,,,,,,METAR,682.0
EFVR 120750Z AUTO 25010KT 210V290 9999 BKN013 01/M02 Q1005,EFVR,2015-02-12T07:50:00Z,62.17,27.87,1.0,-2.0,250,10,,6.21,29.675198,,,TRUE,,,,,,,,BKN,1300,,,,,,,MVFR,,,,,,,,,,,,METAR,87.0
EFUT 120750Z 25009KT 9999 BKN013 01/M01 Q1009,EFUT,2015-02-12T07:50:00Z,60.88,26.92,1.0,-1.0,250,9,,6.21,29.793306,,,,,,,,,,,BKN,1300,,,,,,,MVFR,,,,,,,,,,,,METAR,100.0
EFSA 120750Z AUTO 23008KT 170V280 9999 OVC014 01/M01 Q1006,EFSA,2015-02-12T07:50:00Z,61.95,28.93,1.0,-1.0,230,8,,6.21,29.704725,,,TRUE,,,,,,,,OVC,1400,,,,,,,MVFR,,,,,,,,,,,,METAR,95.0
EFMI 120750Z AUTO 26011KT 230V290 9999 OVC012 01/M02 Q1007,EFMI,2015-02-12T07:50:00Z,61.68,27.2,1.0,-2.0,260,11,,6.21,29.734253,,,TRUE,,,,,,,,OVC,1200,,,,,,,MVFR,,,,,,,,,,,,METAR,138.0
EFLP 120750Z AUTO 24012KT 9999 OVC014 02/M01 Q1008,EFLP,2015-02-12T07:50:00Z,61.07,28.13,2.0,-1.0,240,12,,6.21,29.763779,,,TRUE,,,,,,,,OVC,1400,,,,,,,MVFR,,,,,,,,,,,,METAR,106.0
EFJO 120750Z 22010KT 190V270 9999 OVC010 M00/M01 Q1003,EFJO,2015-02-12T07:50:00Z,62.67,29.62,0.0,-1.0,220,10,,6.21,29.616142,,,,,,,,,,,OVC,1000,,,,,,,MVFR,,,,,,,,,,,,METAR,117.0
LOWK 120750Z VRB01KT 7000 FEW012 BKN014 00/M01 Q1027 R10L/19//95 TEMPO SCT012 BKN015,LOWK,2015-02-12T07:50:00Z,46.65,14.32,0.0,-1.0,0,1,,4.35,30.324802,,,,,,,,,,,FEW,1200,BKN,1400,,,,,MVFR,,,,,,,,,,,,METAR,441.0
LOWG 120750Z VRB01KT 3800 BR FEW009 BKN016 01/00 Q1027 R17L/19//95 BECMG FM0900 9999 SCT020,LOWG,2015-02-12T07:50:00Z,47.0,15.42,1.0,0.0,0,1,,2.36,30.324802,,,,,,,,,,BR,FEW,900,BKN,1600,,,,,IFR,,,,,,,,,,,,METAR,347.0
LOWI 120750Z VRB02KT CAVOK M05/M05 Q1024 R08/1///95 NOSIG,LOWI,2015-02-12T07:50:00Z,47.27,11.33,-5.0,-5.0,0,2,,6.21,30.236221,,,,,,TRUE,,,,,CAVOK,,,,,,,,VFR,,,,,,,,,,,,METAR,581.0
LOWS 120750Z VRB02KT 1500 R15/P1500U R33/P1500N FZBR FEW002 OVC004 M02/M02 Q1024 BECMG 3000 OVC005,LOWS,2015-02-12T07:50:00Z,47.78,13.02,-2.0,-2.0,0,2,,0.93,30.236221,,,,,,,,,,BR,FEW,200,OVC,400,,,,,LIFR,,,,,,,,,,,,METAR,450.0
LOWL 120750Z 08005KT 9000 FEW008 BKN010 00/M02 Q1025 NOSIG,LOWL,2015-02-12T07:50:00Z,48.22,14.18,0.0,-2.0,80,5,,5.59,30.265747,,,,,,TRUE,,,,,FEW,800,BKN,1000,,,,,MVFR,,,,,,,,,,,,METAR,313.0
LOWW 120750Z 13013KT 9999 NCD 03/00 Q1027 R88/29//95 NOSIG,LOWW,2015-02-12T07:50:00Z,48.12,16.57,3.0,0.0,130,13,,6.21,30.324802,,,,,,TRUE,,,,,,,,,,,,,,,,,,,,,,,,,METAR,190.0
EGNO 120750Z 15002KT 8000 SCT034 OVC044 03/01 Q1020,EGNO,2015-02-12T07:50:00Z,53.75,-2.88,3.0,1.0,150,2,,4.97,30.11811,,,,,,,,,,,SCT,3400,OVC,4400,,,,,MVFR,,,,,,,,,,,,METAR,17.0
EGHH 120750Z 05005KT 9999 OVC026 03/00 Q1021,EGHH,2015-02-12T07:50:00Z,50.78,-1.83,3.0,0.0,50,5,,6.21,30.147638,,,,,,,,,,,OVC,2600,,,,,,,MVFR,,,,,,,,,,,,METAR,11.0
KQRB 120750Z 05004KT 9999 BKN150 23/22 A2995 RMK AO2A SLP143 T02250215,KQRB,2015-02-12T07:50:00Z,100.65,-1000.65,22.5,21.5,50,4,,6.21,29.949802,1014.3,,,TRUE,,,,,,,BKN,15000,,,,,,,VFR,,,,,,,,,,,,METAR,999.0
EKSN 120750Z 22009KT 4000 DZ BKN006 OVC012 03/03 Q1019,EKSN,2015-02-12T07:50:00Z,57.5,10.22,3.0,3.0,220,9,,2.49,30.088583,,,,,,,,,,DZ,BKN,600,OVC,1200,,,,,IFR,,,,,,,,,,,,METAR,28.0
ETHF 120750Z 20007KT 4000 -FZDZ BR OVC005 M00/M01 Q1024 YLO YLO,ETHF,2015-02-12T07:50:00Z,51.12,9.27,0.0,-1.0,200,7,,2.49,30.236221,,,,,,,,,,-FZDZ BR,OVC,500,,,,,,,IFR,,,,,,,,,,,,SPECI,181.0
ESSV 120750Z 25014KT 9999 BKN011 02/01 Q1018 R21/19//61,ESSV,2015-02-12T07:50:00Z,57.67,18.35,2.0,1.0,250,14,,6.21,30.059055,,,,,,,,,,,BKN,1100,,,,,,,MVFR,,,,,,,,,,,,METAR,47.0
ESSP 120750Z 24011KT 9000 BR SCT013 BKN016 OVC024 02/01 Q1017 R27/120095,ESSP,2015-02-12T07:50:00Z,58.57,16.25,2.0,1.0,240,11,,5.59,30.029528,,,,,,,,,,BR,SCT,1300,BKN,1600,OVC,2400,,,MVFR,,,,,,,,,,,,METAR,8.0
ESSD 120750Z 25007KT 9999 BKN017 01/M01 Q1011,ESSD,2015-02-12T07:50:00Z,60.42,15.5,1.0,-1.0,250,7,,6.21,29.852362,,,,,,,,,,,BKN,1700,,,,,,,MVFR,,,,,,,,,,,,METAR,161.0
ESSB 120750Z 25013KT 9999 BKN012 02/M00 Q1014 R30/19//73,ESSB,2015-02-12T07:50:00Z,59.35,17.93,2.0,0.0,250,13,,6.21,29.940945,,,,,,,,,,,BKN,1200,,,,,,,MVFR,,,,,,,,,,,,METAR,11.0
ESSA 120750Z 25019KT 9999 BKN012 02/M00 Q1013 R01L/19//63 R08/19//67 R01R/19//54 NOSIG,ESSA,2015-02-12T07:50:00Z,59.63,17.93,2.0,0.0,250,19,,6.21,29.911417,,,,,,TRUE,,,,,BKN,1200,,,,,,,MVFR,,,,,,,,,,,,METAR,61.0
ESOW 120750Z 24014G24KT 210V270 9999 OVC013 03/M00 Q1014 R19/210195,ESOW,2015-02-12T07:50:00Z,59.57,16.62,3.0,0.0,240,14,24,6.21,29.940945,,,,,,,,,,,OVC,1300,,,,,,,MVFR,,,,,,,,,,,,METAR,31.0
ESOK 120750Z 24008KT 9999 OVC016 03/01 Q1015,ESOK,2015-02-12T07:50:00Z,59.45,13.33,3.0,1.0,240,8,,6.21,29.970472,,,,,,,,,,,OVC,1600,,,,,,,MVFR,,,,,,,,,,,,METAR,107.0
ESOE 120750Z 24012KT 9999 BKN016 03/01 Q1015,ESOE,2015-02-12T07:50:00Z,59.22,15.05,3.0,1.0,240,12,,6.21,29.970472,,,,,,,,,,,BKN,1600,,,,,,,MVFR,,,,,,,,,,,,METAR,57.0
ESKN 120750Z 27014KT 9999 BKN015 02/M00 Q1016 R26/09//95,ESKN,2015-02-12T07:50:00Z,58.78,16.9,2.0,0.0,270,14,,6.21,30.0,,,,,,,,,,,BKN,1500,,,,,,,MVFR,,,,,,,,,,,,METAR,43.0
LSMS 120750Z 09005KT CAVOK M03/M04 Q1024,LSMS,2015-02-12T07:50:00Z,46.22,7.32,-3.0,-4.0,90,5,,6.21,30.236221,,,,,,,,,,,CAVOK,,,,,,,,VFR,,,,,,,,,,,,METAR,481.0
ESUD 120750Z AUTO 31017KT 9999 FEW025/// BKN035/// BKN051/// 00/M04 Q0999 RESG REUP,ESUD,2015-02-12T07:50:00Z,64.97,17.7,0.0,-4.0,310,17,,6.21,29.498032,,,TRUE,,,,,,,UP,,,,,,,,,,,,,,,,,,,,,METAR,279.0
ESNX 120750Z 28014KT 9999 FEW011 SCT027 M00/M05 Q0996,ESNX,2015-02-12T07:50:00Z,65.58,19.28,0.0,-5.0,280,14,,6.21,29.409449,,,,,,,,,,,FEW,1100,SCT,2700,,,,,VFR,,,,,,,,,,,,METAR,379.0
ESGR 120750Z AUTO 23006KT 180V270 6000 -DZ OVC010/// 02/01 Q1017,ESGR,2015-02-12T07:50:00Z,58.45,13.97,2.0,1.0,230,6,,3.73,30.029528,,,TRUE,,,,,,,-DZ,,,,,,,,,,,,,,,,,,,,,METAR,105.0
LSMP 120750Z 16003KT 0100 R05/0250N R23/0250N FZFG VV001 M03/M03 Q1023 RMK RED,LSMP,2015-02-12T07:50:00Z,46.82,6.92,-3.0,-3.0,160,3,,0.06,30.206694,,,,,,,,,,FZFG,OVX,0,,,,,,,LIFR,,,,,,,,,,,100,METAR,491.0
LSMM 120750Z 09001KT 0300 R10/0300V0400U R28/0275V0400U FZFG NSC M10/M11 Q1023 RMK RED,LSMM,2015-02-12T07:50:00Z,46.75,8.12,-10.0,-11.0,90,1,,0.19,30.206694,,,,,,,,,,FZFG,,,,,,,,,,,,,,,,,,,,,METAR,577.0
LSME 120750Z 22002KT 0200 R04/0700D R22/0175N -FZRA FZFG BKN001 M03/M03 Q1024 RMK RED,LSME,2015-02-12T07:50:00Z,47.1,8.3,-3.0,-3.0,220,2,,0.12,30.236221,,,,,,,,,,-FZRA FZFG,BKN,100,,,,,,,LIFR,,,,,,,,,,,,METAR,427.0
LSMD 120750Z 12002KT 0600 R11/0275N R29/0300N FZFG VV001 M04/M05 Q1024 RMK RED,LSMD,2015-02-12T07:50:00Z,47.4,8.65,-4.0,-5.0,120,2,,0.37,30.236221,,,,,,,,,,FZFG,OVX,0,,,,,,,LIFR,,,,,,,,,,,100,METAR,448.0
LSZL 120750Z VRB02KT CAVOK M00/M01 Q1025 RMK BLU,LSZL,2015-02-12T07:50:00Z,46.17,8.88,0.0,-1.0,0,2,,6.21,30.265747,,,,,,,,,,,CAVOK,,,,,,,,VFR,,,,,,,,,,,,METAR,600.0
LSZC 120750Z 22003KT 0100 FZFG VV002 M02/M03 Q1023 BELOW SVFR,LSZC,2015-02-12T07:50:00Z,46.97,8.38,-2.0,-3.0,220,3,,0.06,30.206694,,,,,,,,,,FZFG,OVX,0,,,,,,,LIFR,,,,,,,,,,,200,METAR,450.0
LSZS 120750Z 19002KT CAVOK M13/M13 Q1022,LSZS,2015-02-12T07:50:00Z,46.53,9.88,-13.0,-13.0,190,2,,6.21,30.177166,,,,,,,,,,,CAVOK,,,,,,,,VFR,,,,,,,,,,,,METAR,1706.0
LSZR 120750Z 07004KT 0400 R10/0800N FZFG VV001 M02/M02 Q1023 NOSIG RMK C,LSZR,2015-02-12T07:50:00Z,47.48,9.57,-2.0,-2.0,70,4,,0.25,30.206694,,,,,,TRUE,,,,FZFG,OVX,0,,,,,,,LIFR,,,,,,,,,,,100,METAR,398.0
LSZG 120750Z VRB01KT 0100 FZFG VV001 M04/M04 Q1024 NOSIG,LSZG,2015-02-12T07:50:00Z,47.17,7.42,-4.0,-4.0,0,1,,0.06,30.236221,,,,,,TRUE,,,,FZFG,OVX,0,,,,,,,LIFR,,,,,,,,,,,100,METAR,430.0
LSGS 120750Z 09005KT CAVOK M03/M04 Q1024,LSGS,2015-02-12T07:50:00Z,46.22,7.32,-3.0,-4.0,90,5,,6.21,30.236221,,,,,,,,,,,CAVOK,,,,,,,,VFR,,,,,,,,,,,,METAR,481.0
LSGC 120750Z 00000KT CAVOK M07/M10 Q1020,LSGC,2015-02-12T07:50:00Z,47.08,6.8,-7.0,-10.0,0,0,,6.21,30.11811,,,,,,,,,,,CAVOK,,,,,,,,VFR,,,,,,,,,,,,METAR,1027.0
ESNL 120750Z 27011KT 230V310 9999 SCT030 03/M04 Q0999,ESNL,2015-02-12T07:50:00Z,64.55,18.72,3.0,-4.0,270,11,,6.21,29.498032,,,,,,,,,,,SCT,3000,,,,,,,VFR,,,,,,,,,,,,METAR,214.0
ESPE 120750Z 27017KT 9999 FEW040 01/M06 Q0995,ESPE,2015-02-12T07:50:00Z,65.88,20.15,1.0,-6.0,270,17,,6.21,29.379921,,,,,,,,,,,FEW,4000,,,,,,,VFR,,,,,,,,,,,,METAR,182.0
ESSL 120750Z 26007KT 9999 FEW016 BKN021 BKN027 02/M00 Q1017 R29/09//95,ESSL,2015-02-12T07:50:00Z,58.38,15.67,2.0,0.0,260,7,,6.21,30.029528,,,,,,,,,,,FEW,1600,BKN,2100,BKN,2700,,,MVFR,,,,,,,,,,,,METAR,52.0
ESPA 120750Z 29013KT 9999 FEW036 04/M02 Q0995,ESPA,2015-02-12T07:50:00Z,65.53,22.12,4.0,-2.0,290,13,,6.21,29.379921,,,,,,,,,,,FEW,3600,,,,,,,VFR,,,,,,,,,,,,METAR,34.0
ESIB 120750Z 23012KT 9999 SCT009 BKN018 02/01 Q1017,ESIB,2015-02-12T07:50:00Z,58.42,12.68,2.0,1.0,230,12,,6.21,30.029528,,,,,,,,,,,SCT,900,BKN,1800,,,,,MVFR,,,,,,,,,,,,METAR,74.0
ESDF 120750Z 26007KT 230V290 9999 OVC011 01/M01 Q1021,ESDF,2015-02-12T07:50:00Z,56.27,15.27,1.0,-1.0,260,7,,6.21,30.147638,,,,,,,,,,,OVC,1100,,,,,,,MVFR,,,,,,,,,,,,METAR,74.0
ESCF 120750Z 25011KT 9999 FEW015 02/01 Q1017,ESCF,2015-02-12T07:50:00Z,58.38,15.52,2.0,1.0,250,11,,6.21,30.029528,,,,,,,,,,,FEW,1500,,,,,,,VFR,,,,,,,,,,,,METAR,117.0
ESUT 120750Z AUTO 28014KT 1500 -SN VV019 M04/M04 Q0999,ESUT,2015-02-12T07:50:00Z,65.8,15.08,-4.0,-4.0,280,14,,0.93,29.498032,,,TRUE,,,,,,,-SN,OVX,0,,,,,,,LIFR,,,,,,,,,,,1900,METAR,463.0
ESNZ 120750Z 30017KT 9999 FEW014 SCT019 01/M02 Q1005,ESNZ,2015-02-12T07:50:00Z,63.17,14.5,1.0,-2.0,300,17,,6.21,29.675198,,,,,,,,,,,FEW,1400,SCT,1900,,,,,VFR,,,,,,,,,,,,METAR,370.0
ESNU 120750Z 23008KT CAVOK 03/M04 Q1001 R14/71//70,ESNU,2015-02-12T07:50:00Z,63.78,20.27,3.0,-4.0,230,8,,6.21,29.557087,,,,,,,,,,,CAVOK,,,,,,,,VFR,,,,,,,,,,,,METAR,14.0
ESNS 120750Z 25012KT CAVOK 05/M02 Q0997,ESNS,2015-02-12T07:50:00Z,64.62,21.07,5.0,-2.0,250,12,,6.21,29.438976,,,,,,,,,,,CAVOK,,,,,,,,VFR,,,,,,,,,,,,METAR,49.0
ESNQ 120750Z 24015KT CAVOK M05/M09 Q0987,ESNQ,2015-02-12T07:50:00Z,67.82,20.32,-5.0,-9.0,240,15,,6.21,29.143702,,,,,,,,,,,CAVOK,,,,,,,,VFR,,,,,,,,,,,,METAR,452.0
ESNO 120750Z 24010KT CAVOK 03/M05 Q1002,ESNO,2015-02-12T07:50:00Z,63.38,18.97,3.0,-5.0,240,10,,6.21,29.586615,,,,,,,,,,,CAVOK,,,,,,,,VFR,,,,,,,,,,,,METAR,103.0
ESNN 120750Z VRB02KT CAVOK M06/M07 Q1006 R16/39//72,ESNN,2015-02-12T07:50:00Z,62.52,17.43,-6.0,-7.0,0,2,,6.21,29.704725,,,,,,,,,,,CAVOK,,,,,,,,VFR,,,,,,,,,,,,METAR,10.0
ESNK 120750Z 18003KT CAVOK M04/M05 Q1005,ESNK,2015-02-12T07:50:00Z,63.03,17.77,-4.0,-5.0,180,3,,6.21,29.675198,,,,,,,,,,,CAVOK,,,,,,,,VFR,,,,,,,,,,,,METAR,19.0
ESNG 120750Z 26010KT CAVOK M04/M08 Q0990,ESNG,2015-02-12T07:50:00Z,67.13,20.82,-4.0,-8.0,260,10,,6.21,29.232283,,,,,,,,,,,CAVOK,,,,,,,,VFR,,,,,,,,,,,,METAR,310.0
EFSI 120750Z 21006KT 150V300 CAVOK 01/M01 Q1005,EFSI,2015-02-12T07:50:00Z,62.7,22.83,1.0,-1.0,210,6,,6.21,29.675198,,,,,,,,,,,CAVOK,,,,,,,,VFR,,,,,,,,,,,,METAR,91.0
EFPO 120750Z AUTO 22011KT 9999 OVC010/// 02/00 Q1009,EFPO,2015-02-12T07:50:00Z,61.47,21.8,2.0,0.0,220,11,,6.21,29.793306,,,TRUE,,,,,,,,,,,,,,,,,,,,,,,,,,,,METAR,17.0
EFMA 120750Z 23009KT 190V270 9999 OVC011 03/01 Q1012,EFMA,2015-02-12T07:50:00Z,60.12,19.88,3.0,1.0,230,9,,6.21,29.88189,,,,,,,,,,,OVC,1100,,,,,,,MVFR,,,,,,,,,,,,METAR,6.0
EFKK 120750Z 22010KT 190V260 CAVOK 03/M02 Q1001,EFKK,2015-02-12T07:50:00Z,63.72,23.13,3.0,-2.0,220,10,,6.21,29.557087,,,,,,,,,,,CAVOK,,,,,,,,VFR,,,,,,,,,,,,METAR,25.0
EFHF 120750Z 23013KT 190V280 9999 BKN012 02/M01 Q1012,EFHF,2015-02-12T07:50:00Z,60.25,25.05,2.0,-1.0,230,13,,6.21,29.88189,,,,,,,,,,,BKN,1200,,,,,,,MVFR,,,,,,,,,,,,METAR,28.0
EFHA 120750Z 24009KT 200V270 9999 OVC012 01/M01 Q1007,EFHA,2015-02-12T07:50:00Z,61.85,24.8,1.0,-1.0,240,9,,6.21,29.734253,,,,,,,,,,,OVC,1200,,,,,,,MVFR,,,,,,,,,,,,METAR,145.0
EGPM 120750Z 04009KT 9999 BKN015 04/02 Q1013 NOSIG,EGPM,2015-02-12T07:50:00Z,60.42,-1.3,4.0,2.0,40,9,,6.21,29.911417,,,,,,TRUE,,,,,BKN,1500,,,,,,,MVFR,,,,,,,,,,,,METAR,22.0
EGPO 120750Z 00000KT 8000 -RA FEW003 BKN011 06/04 Q1013,EGPO,2015-02-12T07:50:00Z,58.22,-6.32,6.0,4.0,0,0,,4.97,29.911417,,,,,,,,,,-RA,FEW,300,BKN,1100,,,,,MVFR,,,,,,,,,,,,METAR,13.0
EGPL 120750Z 19009KT 9999 -RA FEW014 BKN030 07/07 Q1013,EGPL,2015-02-12T07:50:00Z,57.47,-7.37,7.0,7.0,190,9,,6.21,29.911417,,,,,,,,,,-RA,FEW,1400,BKN,3000,,,,,MVFR,,,,,,,,,,,,METAR,6.0
EGPC 120750Z 21008KT 180V240 9999 SCT031 04/03 Q1014,EGPC,2015-02-12T07:50:00Z,58.45,-3.07,4.0,3.0,210,8,,6.21,29.940945,,,,,,,,,,,SCT,3100,,,,,,,VFR,,,,,,,,,,,,METAR,39.0
EGPA 120750Z 21011KT 9999 VCSH FEW007 SCT010 BKN022 07/05 Q1013 RERA REDZ,EGPA,2015-02-12T07:50:00Z,58.95,-2.88,7.0,5.0,210,11,,6.21,29.911417,,,,,,,,,,VCSH,FEW,700,SCT,1000,BKN,2200,,,MVFR,,,,,,,,,,,,METAR,21.0
EGPB 120750Z 03014KT 9999 -DZ SCT008 BKN018 05/04 Q1013,EGPB,2015-02-12T07:50:00Z,59.87,-1.3,5.0,4.0,30,14,,6.21,29.911417,,,,,,,,,,-DZ,SCT,800,BKN,1800,,,,,MVFR,,,,,,,,,,,,METAR,5.0
EGNV 120750Z 19005KT 6000 FEW020 SCT030 02/01 Q1019,EGNV,2015-02-12T07:50:00Z,54.52,-1.42,2.0,1.0,190,5,,3.73,30.088583,,,,,,,,,,,FEW,2000,SCT,3000,,,,,MVFR,,,,,,,,,,,,METAR,37.0
EGNT 120750Z 23005KT 9999 BKN021 03/01 Q1018,EGNT,2015-02-12T07:50:00Z,55.02,-1.7,3.0,1.0,230,5,,6.21,30.059055,,,,,,,,,,,BKN,2100,,,,,,,MVFR,,,,,,,,,,,,METAR,81.0
EGHI 120750Z 00000KT 9999 BKN024 03/M01 Q1021,EGHI,2015-02-12T07:50:00Z,50.95,-1.35,3.0,-1.0,0,0,,6.21,30.147638,,,,,,,,,,,BKN,2400,,,,,,,MVFR,,,,,,,,,,,,METAR,14.0
EGGP 120750Z 08005KT 9999 OVC039 04/01 Q1020,EGGP,2015-02-12T07:50:00Z,53.32,-2.85,4.0,1.0,80,5,,6.21,30.11811,,,,,,,,,,,OVC,3900,,,,,,,VFR,,,,,,,,,,,,METAR,26.0
EGGD 120750Z 11006KT 9999 BKN025 02/M01 Q1020,EGGD,2015-02-12T07:50:00Z,51.37,-2.72,2.0,-1.0,110,6,,6.21,30.11811,,,,,,,,,,,BKN,2500,,,,,,,MVFR,,,,,,,,,,,,METAR,189.0
EGSH 120750Z 00000KT 4500 HZ OVC015 03/01 Q1021 TEMPO 6000 NSW BKN014,EGSH,2015-02-12T07:50:00Z,52.68,1.28,3.0,1.0,0,0,,2.8,30.147638,,,,,,,,,,HZ,OVC,1500,,,,,,,IFR,,,,,,,,,,,,METAR,36.0
EGPN 120750Z 27004KT 8000 NSC 00/00 Q1017,EGPN,2015-02-12T07:50:00Z,56.45,-3.02,0.0,0.0,270,4,,4.97,30.029528,,,,,,,,,,,,,,,,,,,,,,,,,,,,,,,METAR,4.0
EGPI 120750Z VRB03KT 9999 FEW015 BKN048 05/04 Q1017,EGPI,2015-02-12T07:50:00Z,55.68,-6.25,5.0,4.0,0,3,,6.21,30.029528,,,,,,,,,,,FEW,1500,BKN,4800,,,,,VFR,,,,,,,,,,,,METAR,18.0
EGPE 120750Z VRB03KT 9999 FEW036 01/M00 Q1015,EGPE,2015-02-12T07:50:00Z,57.52,-4.03,1.0,0.0,0,3,,6.21,29.970472,,,,,,,,,,,FEW,3600,,,,,,,VFR,,,,,,,,,,,,METAR,9.0
EGNR 120750Z 16004KT 9999 FEW030 OVC038 04/02 Q1020,EGNR,2015-02-12T07:50:00Z,53.17,-2.97,4.0,2.0,160,4,,6.21,30.11811,,,,,,,,,,,FEW,3000,OVC,3800,,,,,VFR,,,,,,,,,,,,METAR,10.0
EGNJ 120750Z 19004KT 5000 BR FEW017 OVC027 03/01 Q1020,EGNJ,2015-02-12T07:50:00Z,53.57,-0.35,3.0,1.0,190,4,,3.11,30.11811,,,,,,,,,,BR,FEW,1700,OVC,2700,,,,,MVFR,,,,,,,,,,,,METAR,31.0
EGAE 120750Z VRB01KT 9999 OVC048 04/03 Q1016,EGAE,2015-02-12T07:50:00Z,55.03,-7.15,4.0,3.0,0,1,,6.21,30.0,,,,,,,,,,,OVC,4800,,,,,,,VFR,,,,,,,,,,,,METAR,9.0
EGSC 120750Z 15002KT 6000 OVC022 03/M00 Q1021,EGSC,2015-02-12T07:50:00Z,52.2,0.17,3.0,0.0,150,2,,3.73,30.147638,,,,,,,,,,,OVC,2200,,,,,,,MVFR,,,,,,,,,,,,METAR,15.0
EGCN 120750Z 21005KT 9999 BKN028 04/01 Q1021,EGCN,2015-02-12T07:50:00Z,53.48,-1.0,4.0,1.0,210,5,,6.21,30.147638,,,,,,,,,,,BKN,2800,,,,,,,MVFR,,,,,,,,,,,,METAR,17.0
EGBE 120750Z VRB03KT 7000 OVC025 03/00 Q1021,EGBE,2015-02-12T07:50:00Z,52.37,-1.47,3.0,0.0,0,3,,4.35,30.147638,,,,,,,,,,,OVC,2500,,,,,,,MVFR,,,,,,,,,,,,METAR,82.0
EGTK 120750Z 00000KT 9000 OVC022 03/01 Q1021,EGTK,2015-02-12T07:50:00Z,51.83,-1.32,3.0,1.0,0,0,,5.59,30.147638,,,,,,,,,,,OVC,2200,,,,,,,MVFR,,,,,,,,,,,,METAR,82.0
EGTC 120750Z VRB01KT 7000 OVC020 03/00 Q1021,EGTC,2015-02-12T07:50:00Z,52.07,-0.62,3.0,0.0,0,1,,4.35,30.147638,,,,,,,,,,,OVC,2000,,,,,,,MVFR,,,,,,,,,,,,METAR,111.0
EGMC 120750Z 00000KT 7000 OVC017 02/M00 Q1021,EGMC,2015-02-12T07:50:00Z,51.57,0.7,2.0,0.0,0,0,,4.35,30.147638,,,,,,,,,,,OVC,1700,,,,,,,MVFR,,,,,,,,,,,,METAR,15.0
EGLF 120750Z VRB02KT 9000 OVC022 03/M00 Q1021,EGLF,2015-02-12T07:50:00Z,51.28,-0.77,3.0,0.0,0,2,,5.59,30.147638,,,,,,,,,,,OVC,2200,,,,,,,MVFR,,,,,,,,,,,,METAR,65.0
EGKB 120750Z 00000KT 2000 HZ OVC014 02/M01 Q1021,EGKB,2015-02-12T07:50:00Z,51.32,0.02,2.0,-1.0,0,0,,1.24,30.147638,,,,,,,,,,HZ,OVC,1400,,,,,,,IFR,,,,,,,,,,,,METAR,183.0
EGKA 120750Z 06004KT 6000 OVC015 03/M00 Q1021,EGKA,2015-02-12T07:50:00Z,50.83,-0.3,3.0,0.0,60,4,,3.73,30.147638,,,,,,,,,,,OVC,1500,,,,,,,MVFR,,,,,,,,,,,,METAR,2.0
EGTE 120750Z VRB02KT 9999 BKN035 04/00 Q1020,EGTE,2015-02-12T07:50:00Z,50.72,-3.42,4.0,0.0,0,2,,6.21,30.11811,,,,,,,,,,,BKN,3500,,,,,,,VFR,,,,,,,,,,,,METAR,30.0
EGJJ 120750Z 10010KT 5000 BR BKN015 02/02 Q1020 BECMG SCT015,EGJJ,2015-02-12T07:50:00Z,49.22,-2.2,2.0,2.0,100,10,,3.11,30.11811,,,,,,,,,,BR,BKN,1500,,,,,,,MVFR,,,,,,,,,,,,METAR,84.0
EGJB 120750Z 10007KT 9999 FEW017 02/01 Q1020,EGJB,2015-02-12T07:50:00Z,49.42,-2.6,2.0,1.0,100,7,,6.21,30.11811,,,,,,,,,,,FEW,1700,,,,,,,VFR,,,,,,,,,,,,METAR,102.0
EGJA 120750Z 12005KT 9999 SCT024 05/02 Q1020,EGJA,2015-02-12T07:50:00Z,49.72,-2.2,5.0,2.0,120,5,,6.21,30.11811,,,,,,,,,,,SCT,2400,,,,,,,VFR,,,,,,,,,,,,METAR,71.0
EGHQ 120750Z 11012KT 9000 BKN031 04/02 Q1019,EGHQ,2015-02-12T07:50:00Z,50.43,-5.0,4.0,2.0,110,12,,5.59,30.088583,,,,,,,,,,,BKN,3100,,,,,,,VFR,,,,,,,,,,,,METAR,119.0
EGPD 120750Z VRB01KT CAVOK M00/M02 Q1016 NOSIG,EGPD,2015-02-12T07:50:00Z,57.2,-2.22,0.0,-2.0,0,1,,6.21,30.0,,,,,,TRUE,,,,,CAVOK,,,,,,,,VFR,,,,,,,,,,,,METAR,65.0
EGNX 120750Z VRB03KT 9999 BKN026 03/M00 Q1020,EGNX,2015-02-12T07:50:00Z,52.82,-1.32,3.0,0.0,0,3,,6.21,30.11811,,,,,,,,,,,BKN,2600,,,,,,,MVFR,,,,,,,,,,,,METAR,94.0
EGNM 120750Z 26002KT 8000 BKN030 02/01 Q1019,EGNM,2015-02-12T07:50:00Z,53.87,-1.63,2.0,1.0,260,2,,4.97,30.088583,,,,,,,,,,,BKN,3000,,,,,,,MVFR,,,,,,,,,,,,METAR,208.0
EGGW 120750Z 00000KT 9999 OVC017 02/M01 Q1021,EGGW,2015-02-12T07:50:00Z,51.87,-0.37,2.0,-1.0,0,0,,6.21,30.147638,,,,,,,,,,,OVC,1700,,,,,,,MVFR,,,,,,,,,,,,METAR,160.0
EGFF 120750Z AUTO 12010KT 9999 OVC030 04/01 Q1021,EGFF,2015-02-12T07:50:00Z,51.38,-3.35,4.0,1.0,120,10,,6.21,30.147638,,,TRUE,,,,,,,,OVC,3000,,,,,,,MVFR,,,,,,,,,,,,METAR,67.0
EGAC 120750Z 16005KT 9999 FEW012 05/02 Q1018,EGAC,2015-02-12T07:50:00Z,54.62,-5.87,5.0,2.0,160,5,,6.21,30.059055,,,,,,,,,,,FEW,1200,,,,,,,VFR,,,,,,,,,,,,METAR,5.0
EGAA 120750Z 17004KT 9999 BKN041 04/02 Q1018,EGAA,2015-02-12T07:50:00Z,54.63,-6.22,4.0,2.0,170,4,,6.21,30.059055,,,,,,,,,,,BKN,4100,,,,,,,VFR,,,,,,,,,,,,METAR,81.0
EGLL 120750Z 00000KT 9000 OVC022 04/M00 Q1021 NOSIG,EGLL,2015-02-12T07:50:00Z,51.48,-0.45,4.0,0.0,0,0,,5.59,30.147638,,,,,,TRUE,,,,,OVC,2200,,,,,,,MVFR,,,,,,,,,,,,METAR,24.0
EGCC 120750Z VRB03KT 7000 BKN040 03/00 Q1020 NOSIG,EGCC,2015-02-12T07:50:00Z,53.35,-2.27,3.0,0.0,0,3,,4.35,30.11811,,,,,,TRUE,,,,,BKN,4000,,,,,,,MVFR,,,,,,,,,,,,METAR,78.0
EGSS 120750Z 36002KT 8000 OVC018 02/M01 Q1021,EGSS,2015-02-12T07:50:00Z,51.88,0.22,2.0,-1.0,360,2,,4.97,30.147638,,,,,,,,,,,OVC,1800,,,,,,,MVFR,,,,,,,,,,,,METAR,106.0
EGPK 120750Z VRB02KT 9999 BKN048 04/02 Q1018,EGPK,2015-02-12T07:50:00Z,55.5,-4.57,4.0,2.0,0,2,,6.21,30.059055,,,,,,,,,,,BKN,4800,,,,,,,VFR,,,,,,,,,,,,METAR,20.0
EGPH 120750Z 24003KT CAVOK 01/M01 Q1017,EGPH,2015-02-12T07:50:00Z,55.95,-3.35,1.0,-1.0,240,3,,6.21,30.029528,,,,,,,,,,,CAVOK,,,,,,,,VFR,,,,,,,,,,,,METAR,41.0
EGPF 120750Z AUTO 04003KT 9999 FEW020 OVC046 04/02 Q1018,EGPF,2015-02-12T07:50:00Z,55.87,-4.42,4.0,2.0,40,3,,6.21,30.059055,,,TRUE,,,,,,,,FEW,2000,OVC,4600,,,,,VFR,,,,,,,,,,,,METAR,8.0
EGKK 120750Z 08003KT 6000 OVC017 03/00 Q1021,EGKK,2015-02-12T07:50:00Z,51.13,-0.17,3.0,0.0,80,3,,3.73,30.147638,,,,,,,,,,,OVC,1700,,,,,,,MVFR,,,,,,,,,,,,METAR,62.0
EGBB 120750Z VRB02KT 9999 OVC026 03/M01 Q1020,EGBB,2015-02-12T07:50:00Z,52.47,-1.75,3.0,-1.0,0,2,,6.21,30.11811,,,,,,,,,,,OVC,2600,,,,,,,MVFR,,,,,,,,,,,,METAR,99.0
LLSD 120750Z /////KT 9000 SCT025 BKN035 12/05 Q1017,LLSD,2015-02-12T07:50:00Z,32.12,34.78,12.0,5.0,,,,5.59,30.029528,,,,,,,,,,,SCT,2500,BKN,3500,,,,,VFR,,,,,,,,,,,,METAR,14.0
LLIB 120750Z 15007KT 2000 -RA BR SCT005 BKN015 06/05 Q1017,LLIB,2015-02-12T07:50:00Z,32.98,35.57,6.0,5.0,150,7,,1.24,30.029528,,,,,,,,,,-RA BR,SCT,500,BKN,1500,,,,,IFR,,,,,,,,,,,,METAR,282.0
LLHA 120750Z 16014KT 8000 FEW020 BKN030 09/06 Q1016 RESHRA,LLHA,2015-02-12T07:50:00Z,32.78,35.02,9.0,6.0,160,14,,4.97,30.0,,,,,,,,,,,FEW,2000,BKN,3000,,,,,MVFR,,,,,,,,,,,,METAR,8.0
LLET 120750Z 27004KT 260V320 CAVOK 15/M05 Q1021,LLET,2015-02-12T07:50:00Z,29.55,34.95,15.0,-5.0,270,4,,6.21,30.147638,,,,,,,,,,,CAVOK,,,,,,,,VFR,,,,,,,,,,,,METAR,13.0
VGHS 120750Z 30010KT 4000 HZ NSC 27/08 Q1012 NOSIG,VGHS,2015-02-12T07:50:00Z,23.85,90.4,27.0,8.0,300,10,,2.49,29.88189,,,,,,TRUE,,,,HZ,,,,,,,,,,,,,,,,,,,,,METAR,10.0
LLBG 120750Z 19017KT 9000 SCT035 11/02 Q1018 NOSIG,LLBG,2015-02-12T07:50:00Z,32.0,34.88,11.0,2.0,190,17,,5.59,30.059055,,,,,,TRUE,,,,,SCT,3500,,,,,,,VFR,,,,,,,,,,,,METAR,49.0
KO86 120750Z AUTO 29003KT 10SM FEW004 04/04 A3030 RMK AO1,KO86,2015-02-12T07:50:00Z,40.98,-122.7,4.0,4.0,290,3,,10.0,30.301182,,,TRUE,TRUE,,,,,,,FEW,400,,,,,,,VFR,,,,,,,,,,,,METAR,729.0
K6I2 120750Z AUTO 29012G16KT 10SM OVC025 00/M06 A3008 RMK AO2,K6I2,2015-02-12T07:50:00Z,37.63,-85.25,0.0,-6.0,290,12,16,10.0,30.079725,,,TRUE,TRUE,,,,,,,OVC,2500,,,,,,,MVFR,,,,,,,,,,,,METAR,264.0
EGYM 120750Z 18001KT 5000 HZ OVC023 02/00 Q1021 WHT NOSIG,EGYM,2015-02-12T07:50:00Z,52.63,0.57,2.0,0.0,180,1,,3.11,30.147638,,,,,,TRUE,,,,HZ,OVC,2300,,,,,,,MVFR,,,,,,,,,,,,METAR,23.0
EGYD 120750Z 21002KT 7000 HZ OVC023 03/M01 Q1020 WHT TEMPO 8000 BLU,EGYD,2015-02-12T07:50:00Z,53.03,-0.5,3.0,-1.0,210,2,,4.35,30.11811,,,,,,,,,,HZ,OVC,2300,,,,,,,MVFR,,,,,,,,,,,,METAR,67.0
EGXW 120750Z 16002KT 9000 HZ OVC022 03/M00 Q1020 WHT NOSIG,EGXW,2015-02-12T07:50:00Z,53.18,-0.52,3.0,0.0,160,2,,5.59,30.11811,,,,,,TRUE,,,,HZ,OVC,2200,,,,,,,MVFR,,,,,,,,,,,,METAR,70.0
EGXV 120750Z AUTO 20002KT //// OVC033/// 03/01 Q1020,EGXV,2015-02-12T07:50:00Z,53.87,-0.45,3.0,1.0,200,2,,,30.11811,,,TRUE,,,,,,,,,,,,,,,,,,,,,,,,,,,,METAR,6.0
EGXU 120750Z 16001KT 4500 HZ BKN040 02/00 Q1020 GRN TEMPO 3500 -RA YL01,EGXU,2015-02-12T07:50:00Z,54.05,-1.25,2.0,0.0,160,1,,2.8,30.11811,,,,,,,,,,HZ,BKN,4000,,,,,,,IFR,,,,,,,,,,,,METAR,16.0
EGXT 120750Z 23002KT 9999 OVC023 03/M01 Q1020 WHT,EGXT,2015-02-12T07:50:00Z,52.62,-0.47,3.0,-1.0,230,2,,6.21,30.11811,,,,,,,,,,,OVC,2300,,,,,,,MVFR,,,,,,,,,,,,METAR,84.0
EGXP 120750Z 19002KT 6000 HZ OVC022 03/M00 Q1020 WHT,EGXP,2015-02-12T07:50:00Z,53.3,-0.55,3.0,0.0,190,2,,3.73,30.11811,,,,,,,,,,HZ,OVC,2200,,,,,,,MVFR,,,,,,,,,,,,METAR,61.0
EGXE 120750Z 17005KT 3800 HZ BKN027 BKN045 02/01 Q1020 GRN TEMPO 3000 -RADZ SCT020 YLO1,EGXE,2015-02-12T07:50:00Z,54.28,-1.52,2.0,1.0,170,5,,2.36,30.11811,,,,,,,,,,HZ,BKN,2700,BKN,4500,,,,,IFR,,,,,,,,,,,,METAR,40.0
EGXD 120750Z 15003KT 4000 2500N BR BKN040 01/01 Q1020 YLO1 BECMG 5000 HZ WHT,EGXD,2015-02-12T07:50:00Z,54.13,-1.42,1.0,1.0,150,3,,2.49,30.11811,,,,,,,,,,BR,BKN,4000,,,,,,,IFR,,,,,,,,,,,,METAR,35.0
EGXC 120750Z 18001KT 5000 HZ OVC023 02/01 Q1020 WHT TEMPO 4500 GRN,EGXC,2015-02-12T07:50:00Z,53.1,-0.17,2.0,1.0,180,1,,3.11,30.11811,,,,,,,,,,HZ,OVC,2300,,,,,,,MVFR,,,,,,,,,,,,METAR,7.0
EGVP 120750Z 34001KT 9999 OVC021 03/M01 Q1021 WHT NOSIG,EGVP,2015-02-12T07:50:00Z,51.13,-1.57,3.0,-1.0,340,1,,6.21,30.147638,,,,,,TRUE,,,,,OVC,2100,,,,,,,MVFR,,,,,,,,,,,,METAR,91.0
EGVO 120750Z 09001KT 9999 OVC020 03/M01 Q1020 WHT NOSIG,EGVO,2015-02-12T07:50:00Z,51.23,-0.95,3.0,-1.0,90,1,,6.21,30.11811,,,,,,TRUE,,,,,OVC,2000,,,,,,,MVFR,,,,,,,,,,,,METAR,123.0
EGVN 120750Z 14004KT 9999 OVC023 04/M02 Q1021 WHT NOSIG,EGVN,2015-02-12T07:50:00Z,51.77,-1.58,4.0,-2.0,140,4,,6.21,30.147638,,,,,,TRUE,,,,,OVC,2300,,,,,,,MVFR,,,,,,,,,,,,METAR,88.0
EGUW 120750Z 33003KT 7000 HZ OVC015 02/M00 Q1021 WHT NOSIG,EGUW,2015-02-12T07:50:00Z,52.12,0.97,2.0,0.0,330,3,,4.35,30.147638,,,,,,TRUE,,,,HZ,OVC,1500,,,,,,,MVFR,,,,,,,,,,,,METAR,87.0
EGUB 120750Z 15001KT 8000 HZ OVC022 03/01 Q1021 WHT NOSIG,EGUB,2015-02-12T07:50:00Z,51.62,-1.07,3.0,1.0,150,1,,4.97,30.147638,,,,,,TRUE,,,,HZ,OVC,2200,,,,,,,MVFR,,,,,,,,,,,,METAR,63.0
EGQS 120750Z 24004KT 9999 FEW035 BKN250 01/M00 Q1015 BLU NOSIG,EGQS,2015-02-12T07:50:00Z,57.72,-3.32,1.0,0.0,240,4,,6.21,29.970472,,,,,,TRUE,,,,,FEW,3500,BKN,25000,,,,,VFR,,,,,,,,,,,,METAR,13.0
EGQM 120750Z AUTO 24010KT 9999 OVC041/// 04/01 Q1018,EGQM,2015-02-12T07:50:00Z,55.42,-1.6,4.0,1.0,240,10,,6.21,30.059055,,,TRUE,,,,,,,,,,,,,,,,,,,,,,,,,,,,METAR,23.0
EGOV 120750Z 15010KT 9999 FEW018 OVC030 06/03 Q1019 BLU NOSIG,EGOV,2015-02-12T07:50:00Z,53.25,-4.53,6.0,3.0,150,10,,6.21,30.088583,,,,,,TRUE,,,,,FEW,1800,OVC,3000,,,,,MVFR,,,,,,,,,,,,METAR,11.0
EGOS 120750Z 18006KT 9000 HZ BKN027 OVC033 04/00 Q1020 BLU NOSIG,EGOS,2015-02-12T07:50:00Z,52.8,-2.67,4.0,0.0,180,6,,5.59,30.11811,,,,,,TRUE,,,,HZ,BKN,2700,OVC,3300,,,,,MVFR,,,,,,,,,,,,METAR,76.0
EGDR 120750Z 11008KT 9999 HZ FEW020 SCT024 OVC035 06/03 Q1019 WHT NOSIG,EGDR,2015-02-12T07:50:00Z,50.08,-5.25,6.0,3.0,110,8,,6.21,30.088583,,,,,,TRUE,,,,HZ,FEW,2000,SCT,2400,OVC,3500,,,VFR,,,,,,,,,,,,METAR,82.0
EGDM 120750Z 17001KT 9999 OVC020 03/M00 Q1021 WHT NOSIG,EGDM,2015-02-12T07:50:00Z,51.17,-1.75,3.0,0.0,170,1,,6.21,30.147638,,,,,,TRUE,,,,,OVC,2000,,,,,,,MVFR,,,,,,,,,,,,METAR,124.0
EGNH 120750Z 12006KT 9000 FEW032 BKN047 03/01 Q1020,EGNH,2015-02-12T07:50:00Z,53.77,-3.02,3.0,1.0,120,6,,5.59,30.11811,,,,,,,,,,,FEW,3200,BKN,4700,,,,,VFR,,,,,,,,,,,,METAR,10.0
LGSM 120750Z 03015KT 9999 FEW025 05/M00 Q1016,LGSM,2015-02-12T07:50:00Z,37.68,26.92,5.0,0.0,30,15,,6.21,30.0,,,,,,,,,,,FEW,2500,,,,,,,VFR,,,,,,,,,,,,METAR,6.0
LGSA 120750Z 35014KT 9999 SCT018TCU BKN020 06/02 Q1018,LGSA,2015-02-12T07:50:00Z,35.53,24.13,6.0,2.0,350,14,,6.21,30.059055,,,,,,,,,,,SCT,1800,BKN,2000,,,,,MVFR,,,,,,,,,,,,METAR,135.0
LGLM 120750Z 04015KT 9999 FEW010 BKN025 BKN070 04/M02 Q1024,LGLM,2015-02-12T07:50:00Z,39.92,25.23,4.0,-2.0,40,15,,6.21,30.236221,,,,,,,,,,,FEW,1000,BKN,2500,BKN,7000,,,MVFR,,,,,,,,,,,,METAR,5.0
LGKO 120750Z 35010KT 9999 FEW020 07/01 Q1013,LGKO,2015-02-12T07:50:00Z,36.8,27.08,7.0,1.0,350,10,,6.21,29.911417,,,,,,,,,,,FEW,2000,,,,,,,VFR,,,,,,,,,,,,METAR,125.0
LGKL 120750Z 02007KT 9999 FEW030 06/M04 Q1023,LGKL,2015-02-12T07:50:00Z,37.07,22.02,6.0,-4.0,20,7,,6.21,30.206694,,,,,,,,,,,FEW,3000,,,,,,,VFR,,,,,,,,,,,,METAR,8.0
LGAD 120750Z 00000KT 9999 FEW020 05/M03 Q1023,LGAD,2015-02-12T07:50:00Z,37.92,21.27,5.0,-3.0,0,0,,6.21,30.206694,,,,,,,,,,,FEW,2000,,,,,,,VFR,,,,,,,,,,,,METAR,12.0
EGBJ 120750Z 00000KT 9999 BKN018 04/01 Q1021,EGBJ,2015-02-12T07:50:00Z,51.9,-2.17,4.0,1.0,0,0,,6.21,30.147638,,,,,,,,,,,BKN,1800,,,,,,,MVFR,,,,,,,,,,,,METAR,29.0
LGTS 120750Z 34010G20KT CAVOK 03/M10 Q1026 NOSIG,LGTS,2015-02-12T07:50:00Z,40.52,22.97,3.0,-10.0,340,10,20,6.21,30.295275,,,,,,TRUE,,,,,CAVOK,,,,,,,,VFR,,,,,,,,,,,,METAR,7.0
EFET 120750Z AUTO 05001KT 9999 -SHSN SCT022 BKN031 M07/M09 Q0987,EFET,2015-02-12T07:50:00Z,68.37,23.43,-7.0,-9.0,50,1,,6.21,29.143702,,,TRUE,,,,,,,-SHSN,SCT,2200,BKN,3100,,,,,VFR,,,,,,,,,,,,METAR,306.0
EFIV 120750Z 22008KT 9999 FEW011 M05/M09 Q0987,EFIV,2015-02-12T07:50:00Z,68.62,27.42,-5.0,-9.0,220,8,,6.21,29.143702,,,,,,,,,,,FEW,1100,,,,,,,VFR,,,,,,,,,,,,METAR,148.0
EFKI 120750Z 23012KT 190V270 CAVOK 02/M02 Q0997,EFKI,2015-02-12T07:50:00Z,64.27,27.67,2.0,-2.0,230,12,,6.21,29.438976,,,,,,,,,,,CAVOK,,,,,,,,VFR,,,,,,,,,,,,METAR,136.0
EFKE 120750Z 25009KT 220V280 CAVOK 02/M00 Q0994,EFKE,2015-02-12T07:50:00Z,65.77,24.57,2.0,0.0,250,9,,6.21,29.350393,,,,,,,,,,,CAVOK,,,,,,,,VFR,,,,,,,,,,,,METAR,15.0
EFKS 120750Z AUTO 25011KT 220V280 9999 BKN019 02/M01 Q0990,EFKS,2015-02-12T07:50:00Z,66.0,29.23,2.0,-1.0,250,11,,6.21,29.232283,,,TRUE,,,,,,,,BKN,1900,,,,,,,MVFR,,,,,,,,,,,,METAR,263.0
EFKT 120750Z AUTO 25005KT 210V280 CAVOK M03/M05 Q0988,EFKT,2015-02-12T07:50:00Z,67.7,24.85,-3.0,-5.0,250,5,,6.21,29.17323,,,TRUE,,,,,,,,CAVOK,,,,,,,,VFR,,,,,,,,,,,,METAR,643.0
KSTK 120750Z AUTO 10004KT 10SM CLR M03/M05 A3036 RMK AO2,KSTK,2015-02-12T07:50:00Z,40.62,-103.27,-3.0,-5.0,100,4,,10.0,30.360237,,,TRUE,TRUE,,,,,,,CLR,,,,,,,,VFR,,,,,,,,,,,,METAR,1231.0
KCDD 120750Z AUTO 34006KT 10SM OVC022 M23/M26 A3058 RMK AO2,KCDD,2015-02-12T07:50:00Z,48.27,-92.48,-23.0,-26.0,340,6,,10.0,30.578741,,,TRUE,TRUE,,,,,,,OVC,2200,,,,,,,MVFR,,,,,,,,,,,,METAR,341.0
KSYM 120750Z AUTO 30012G20KT 2SM -RA OVC005 M00/M01 A3002 RMK AO2,KSYM,2015-02-12T07:50:00Z,38.22,-83.58,0.0,-1.0,300,12,20,2.0,30.02067,,,TRUE,TRUE,,,,,,-RA,OVC,500,,,,,,,IFR,,,,,,,,,,,,METAR,313.0
LGZA 120750Z 04004KT 9999 FEW020 08/M01 Q1023,LGZA,2015-02-12T07:50:00Z,37.75,20.87,8.0,-1.0,40,4,,6.21,30.206694,,,,,,,,,,,FEW,2000,,,,,,,VFR,,,,,,,,,,,,METAR,3.0
LGSR 120750Z 32019KT 9999 -RA BKN025 BKN080 06/03 Q1016,LGSR,2015-02-12T07:50:00Z,36.4,25.48,6.0,3.0,320,19,,6.21,30.0,,,,,,,,,,-RA,BKN,2500,BKN,8000,,,,,MVFR,,,,,,,,,,,,METAR,40.0
LGPZ 120750Z 05009KT 9999 FEW025 06/M06 Q1025,LGPZ,2015-02-12T07:50:00Z,38.92,20.77,6.0,-6.0,50,9,,6.21,30.265747,,,,,,,,,,,FEW,2500,,,,,,,VFR,,,,,,,,,,,,METAR,4.0
LGMT 120750Z /////KT 9999 FEW020 SCT025 05/01 Q1020,LGMT,2015-02-12T07:50:00Z,39.05,26.6,5.0,1.0,,,,6.21,30.11811,,,,,,,,,,,FEW,2000,SCT,2500,,,,,VFR,,,,,,,,,,,,METAR,17.0
LGKV 120750Z 00000KT 9999 BKN030 SCT080 03/M06 Q1025,LGKV,2015-02-12T07:50:00Z,40.92,24.62,3.0,-6.0,0,0,,6.21,30.265747,,,,,,,,,,,BKN,3000,SCT,8000,,,,,MVFR,,,,,,,,,,,,METAR,5.0
LGIO 120750Z 00000KT 9999 FEW040 M00/M08 Q1022,LGIO,2015-02-12T07:50:00Z,39.7,20.82,0.0,-8.0,0,0,,6.21,30.177166,,,,,,,,,,,FEW,4000,,,,,,,VFR,,,,,,,,,,,,METAR,476.0
LGEL 120750Z 33010G20KT 9999 FEW012 SCT025 BKN070 05/M04 Q1023,LGEL,2015-02-12T07:50:00Z,38.07,23.55,5.0,-4.0,330,10,20,6.21,30.206694,,,,,,,,,,,FEW,1200,SCT,2500,BKN,7000,,,VFR,,,,,,,,,,,,METAR,31.0
LGAL 120750Z 09009KT 9999 SCT030 BKN090 03/M03 Q1024,LGAL,2015-02-12T07:50:00Z,40.85,25.95,3.0,-3.0,90,9,,6.21,30.236221,,,,,,,,,,,SCT,3000,BKN,9000,,,,,VFR,,,,,,,,,,,,METAR,3.0
LGSO 120750Z 35017G28KT 9000-RA SCT015 BKN025 06/03 Q1018,LGSO,2015-02-12T07:50:00Z,37.42,24.95,6.0,3.0,350,17,28,,30.059055,,,,,,,,,,-RA,SCT,1500,BKN,2500,,,,,,,,,,,,,,,,,METAR,72.0
LGPA 120750Z 04011KT 9000 -DZ FEW015 BKN020 06/02 Q1017,LGPA,2015-02-12T07:50:00Z,37.0,25.13,6.0,2.0,40,11,,5.59,30.029528,,,,,,,,,,-DZ,FEW,1500,BKN,2000,,,,,MVFR,,,,,,,,,,,,METAR,36.0
LGNX 120750Z 35022G32KT 9999 SCT018 BKN025 07/04 Q1016,LGNX,2015-02-12T07:50:00Z,37.08,25.37,7.0,4.0,350,22,32,6.21,30.0,,,,,,,,,,,SCT,1800,BKN,2500,,,,,MVFR,,,,,,,,,,,,METAR,4.0
LGMK 120750Z 03015G25KT 9999 SCT010 OVC020 05/M00 Q1017,LGMK,2015-02-12T07:50:00Z,37.43,25.35,5.0,0.0,30,15,25,6.21,30.029528,,,,,,,,,,,SCT,1000,OVC,2000,,,,,MVFR,,,,,,,,,,,,METAR,123.0
LGKZ 120750Z 34014G25KT 320V020 9999 FEW070 SCT170 M02/M09 Q1024,LGKZ,2015-02-12T07:50:00Z,40.28,21.83,-2.0,-9.0,340,14,25,6.21,30.236221,,,,,,,,,,,FEW,7000,SCT,17000,,,,,VFR,,,,,,,,,,,,METAR,628.0
LGKP 120750Z 28014KT 9999 -RA BKN020 07/04 Q1014 RERA,LGKP,2015-02-12T07:50:00Z,35.42,27.15,7.0,4.0,280,14,,6.21,29.940945,,,,,,,,,,-RA,BKN,2000,,,,,,,MVFR,,,,,,,,,,,,METAR,20.0
LGKF 120750Z 00000KT CAVOK 08/M07 Q1023,LGKF,2015-02-12T07:50:00Z,38.12,20.5,8.0,-7.0,0,0,,6.21,30.206694,,,,,,,,,,,CAVOK,,,,,,,,VFR,,,,,,,,,,,,METAR,18.0
LGKC 120750Z /////KT 9999 SCT016 06/M02 Q1021,LGKC,2015-02-12T07:50:00Z,36.28,23.02,6.0,-2.0,,,,6.21,30.147638,,,,,,,,,,,SCT,1600,,,,,,,VFR,,,,,,,,,,,,METAR,319.0
LGHI 120750Z 03025G35KT 9999 FEW020 BKN030 BKN080 07/02 Q1018,LGHI,2015-02-12T07:50:00Z,38.32,26.12,7.0,2.0,30,25,35,6.21,30.059055,,,,,,,,,,,FEW,2000,BKN,3000,BKN,8000,,,MVFR,,,,,,,,,,,,METAR,4.0
LGBL 120750Z 27007KT 9999 FEW030 05/M07 Q1026,LGBL,2015-02-12T07:50:00Z,39.22,22.8,5.0,-7.0,270,7,,6.21,30.295275,,,,,,,,,,,FEW,3000,,,,,,,VFR,,,,,,,,,,,,METAR,26.0
LGIR 120750Z 34024KT 9999 FEW018TCU SCT025 08/03 Q1017 NOSIG,LGIR,2015-02-12T07:50:00Z,35.32,25.17,8.0,3.0,340,24,,6.21,30.029528,,,,,,TRUE,,,,,FEW,1800,SCT,2500,,,,,VFR,,,,,,,,,,,,METAR,39.0
KMDS 120750Z AUTO 36012G15KT 10SM CLR M18/M20 A3059 RMK AO2,KMDS,2015-02-12T07:50:00Z,44.02,-97.08,-18.0,-20.0,360,12,15,10.0,30.590551,,,TRUE,TRUE,,,,,,,CLR,,,,,,,,VFR,,,,,,,,,,,,METAR,524.0
KSQL 120750Z AUTO 00000KT 10SM CLR 13/09 A3020 RMK AO2,KSQL,2015-02-12T07:50:00Z,37.52,-122.25,13.0,9.0,0,0,,10.0,30.200787,,,TRUE,TRUE,,,,,,,CLR,,,,,,,,VFR,,,,,,,,,,,,METAR,1.0
TJPS 120750Z 00000KT 10SM SKC 22/20 A2984,TJPS,2015-02-12T07:50:00Z,18.02,-66.57,22.0,20.0,0,0,,10.0,29.840551,,,,,,,,,,,SKC,,,,,,,,VFR,,,,,,,,,,,,METAR,9.0
KQBC 120750Z AUTO VRB02KT 9999 FEW150 24/20 A2996 RMK AO2 SLP145 T02360196,KQBC,2015-02-12T07:50:00Z,,,23.6,19.6,0,2,,6.21,29.958662,1014.5,,TRUE,TRUE,,,,,,,FEW,15000,,,,,,,VFR,,,,,,,,,,,,METAR,
KEDJ 120750Z AUTO 00000KT 2 1/2SM FEW001 SCT012 BKN017 M03/M04 A2995 RMK AO1,KEDJ,2015-02-12T07:50:00Z,40.37,-83.82,-3.0,-4.0,0,0,,2.5,29.949802,,,TRUE,TRUE,,,,,,,FEW,100,SCT,1200,BKN,1700,,,IFR,,,,,,,,,,,,METAR,342.0
KCPW 120750Z AUTO 01004KT 10SM CLR M07/M15 A3050 RMK AO2,KCPW,2015-02-12T07:50:00Z,37.45,-106.8,-7.0,-15.0,10,4,,10.0,30.499016,,,TRUE,TRUE,,,,,,,CLR,,,,,,,,VFR,,,,,,,,,,,,METAR,3584.0
CYCK 120749Z AUTO 35016G21KT 5SM -SN FEW022 OVC031 M06/M08 A2990 RMK PRESRR SLP135,CYCK,2015-02-12T07:49:00Z,42.3,-82.08,-6.0,-8.0,350,16,21,5.0,29.899607,1013.5,,TRUE,,,,,,,-SN,FEW,2200,OVC,3100,,,,,MVFR,,,,,,,,,,,,SPECI,198.0
MMMZ 120749Z 04006KT 4SM SKC 17/15 A2989 RMK HZY,MMMZ,2015-02-12T07:49:00Z,23.17,-106.27,17.0,15.0,40,6,,4.0,29.890747,,,,,,,,,,,SKC,,,,,,,,MVFR,,,,,,,,,,,,METAR,10.0
KRND 120748Z AUTO 03013G16KT 10SM SCT032 BKN055 15/08 A3022 RMK AO2,KRND,2015-02-12T07:48:00Z,29.52,-98.27,15.0,8.0,30,13,16,10.0,30.221457,,,TRUE,TRUE,,,,,,,SCT,3200,BKN,5500,,,,,VFR,,,,,,,,,,,,SPECI,232.0
KSDB 120748Z AUTO 08023KT 10SM CLR 12/M08 A3027 RMK AO2 PK WND 08029/0724 SLP216 T01221078 401720106 $,KSDB,2015-02-12T07:48:00Z,34.75,-118.72,12.2,-7.8,80,23,,10.0,30.268702,1021.6,,TRUE,TRUE,TRUE,,,,,,CLR,,,,,,,,VFR,,,,17.2,10.6,,,,,,,METAR,1377.0
KJDN 120748Z AUTO 14013KT M07/M11 A3027 RMK AO1 SLP297 T10721106,KJDN,2015-02-12T07:48:00Z,47.33,-106.95,-7.2,-10.6,140,13,,,30.268702,1029.7,,TRUE,TRUE,,,,,,,,,,,,,,,,,,,,,,,,,,,METAR,801.0
CYAH 120748Z AUTO 04006KT 2 1/2SM -SN OVC028 M24/M28 A2994 RMK SLP182,CYAH,2015-02-12T07:48:00Z,53.75,-73.67,-24.0,-28.0,40,6,,2.5,29.940945,1018.2,,TRUE,,,,,,,-SN,OVC,2800,,,,,,,IFR,,,,,,,,,,,,SPECI,306.0
KMTN 120748Z AUTO 17003KT 10SM OVC055 01/M02 A2989 RMK AO2,KMTN,2015-02-12T07:48:00Z,39.32,-76.42,1.0,-2.0,170,3,,10.0,29.890747,,,TRUE,TRUE,,,,,,,OVC,5500,,,,,,,VFR,,,,,,,,,,,,METAR,7.0
KEHA 120748Z AUTO 24006KT M02/M08 RMK AO1 PK WND 08 000 T10171083,KEHA,2015-02-12T07:48:00Z,37.0,-101.9,-1.7,-8.3,240,6,,,,,,TRUE,TRUE,,,,,,,,,,,,,,,,,,,,,,,,,,,METAR,1099.0
PAEH 120748Z AUTO 11015KT 9SM -FZRA OVC006 M01/M01 A2936 RMK AO2 SLP955,PAEH,2015-02-12T07:48:00Z,58.65,-162.07,-1.0,-1.0,110,15,,9.0,29.359253,995.5,,TRUE,TRUE,,,,,,-FZRA,OVC,600,,,,,,,IFR,,,,,,,,,,,,METAR,161.0
KHZX 120748Z AUTO 32009KT 10SM CLR M20/M23 A3054 RMK AO2,KHZX,2015-02-12T07:48:00Z,46.62,-93.32,-20.0,-23.0,320,9,,10.0,30.540354,,,TRUE,TRUE,,,,,,,CLR,,,,,,,,VFR,,,,,,,,,,,,METAR,374.0
CYLL 120747Z AUTO 16014KT 9SM -SN OVC008 M18/M21 A3012 RMK PRESFR SLP270,CYLL,2015-02-12T07:47:00Z,53.32,-110.07,-18.0,-21.0,160,14,,9.0,30.121063,1027.0,,TRUE,,,,,,,-SN,OVC,800,,,,,,,IFR,,,,,,,,,,,,SPECI,669.0
KCQT 120747Z AUTO 00000KT 10SM CLR 17/M01 A3007 RMK AO2 SLP181 T01671011 402940128,KCQT,2015-02-12T07:47:00Z,34.02,-118.28,16.7,-1.1,0,0,,10.0,30.070866,1018.1,,TRUE,TRUE,,,,,,,CLR,,,,,,,,VFR,,,,29.4,12.8,,,,,,,METAR,56.0
ETSN 120747Z 12005KT 1200 R27////// -DZ BR OVC001 M02/M02 Q1024 BLACKRED,ETSN,2015-02-12T07:47:00Z,48.72,11.22,-2.0,-2.0,120,5,,0.75,30.236221,,,,,,,,,,-DZ BR,OVC,100,,,,,,,LIFR,,,,,,,,,,,,SPECI,387.0
KMWN 120747Z 27025KT 90SM SCT100 SCT110 BKN140 BKN160 M11/M20 RMK,KMWN,2015-02-12T07:47:00Z,44.27,-71.3,-11.0,-20.0,270,25,,90.0,,,,,,,,,,,,SCT,10000,SCT,11000,BKN,14000,BKN,16000,VFR,,,,,,,,,,,,METAR,1910.0
KMYP 120747Z AUTO M08/M10 A3054 RMK AO2 PWINO,KMYP,2015-02-12T07:47:00Z,38.48,-106.32,-8.0,-10.0,,,,,30.540354,,,TRUE,TRUE,,,,,TRUE,,,,,,,,,,,,,,,,,,,,,,METAR,3667.0
CYPR 120746Z AUTO 13015G23KT 6SM -RA BR SCT034 BKN046 BKN060 OVC077 09/07 A2981 RMK SLP097,CYPR,2015-02-12T07:46:00Z,54.28,-130.42,9.0,7.0,130,15,23,6.0,29.811024,1009.7,,TRUE,,,,,,,-RA BR,SCT,3400,BKN,4600,BKN,6000,OVC,7700,VFR,,,,,,,,,,,,SPECI,34.0
CYMM 120746Z AUTO 12005KT 9SM -SN OVC033 M14/M17 A3002 RMK SLP206,CYMM,2015-02-12T07:46:00Z,56.65,-111.22,-14.0,-17.0,120,5,,9.0,30.02067,1020.6,,TRUE,,,,,,,-SN,OVC,3300,,,,,,,VFR,,,,,,,,,,,,SPECI,369.0
KGUS 120746Z AUTO 30015KT 10SM -SN OVC039 M06/M09 A3005 RMK AO2,KGUS,2015-02-12T07:46:00Z,40.63,-86.15,-6.0,-9.0,300,15,,10.0,30.050198,,,TRUE,TRUE,,,,,,-SN,OVC,3900,,,,,,,VFR,,,,,,,,,,,,METAR,247.0
ETAD 120746Z 00000KT M0400 R23/0250 FZFG VV001 M01/M02 A3018 RMK AO2A,ETAD,2015-02-12T07:46:00Z,49.98,6.7,-1.0,-2.0,0,0,,0.25,30.180119,,,,TRUE,,,,,,FZFG,OVX,0,,,,,,,LIFR,,,,,,,,,,,100,METAR,365.0
UMMS 120746Z 23002MPS 2500 BCFG BR OVC002 M02/M02 Q1026 R31/810550 TEMPO 1200,UMMS,2015-02-12T07:46:00Z,53.88,28.03,-2.0,-2.0,230,4,,1.55,30.295275,,,,,,,,,,BCFG BR,OVC,200,,,,,,,LIFR,,,,,,,,,,,,SPECI,205.0
LEAO 120746Z 00000KT 3000 BR NSC 02/02 Q1019,LEAO,2015-02-12T07:46:00Z,38.95,-3.73,2.0,2.0,0,0,,1.86,30.088583,,,,,,,,,,BR,,,,,,,,,,,,,,,,,,,,,SPECI,629.0
KQBF 120746Z AUTO 31004KT 2800 HZ CLR 27/15 A2999 RMK AO2 SLP139 $,KQBF,2015-02-12T07:46:00Z,100.65,-1000.65,27.0,15.0,310,4,,1.74,29.991142,1013.9,,TRUE,TRUE,TRUE,,,,,HZ,CLR,,,,,,,,IFR,,,,,,,,,,,,SPECI,999.0
ETIC 120746Z AUTO 12003KT 3200 BR OVC002 M02/M02 A3024 RMK AO2 VIS 2400V3200,ETIC,2015-02-12T07:46:00Z,49.7,11.93,-2.0,-2.0,120,3,,1.99,30.239174,,,TRUE,TRUE,,,,,,BR,OVC,200,,,,,,,LIFR,,,,,,,,,,,,SPECI,415.0
EBDT 120746Z VRB01KT 0100 FZFG BKN001 M04/M04 Q1022 BLACKRED RED BECMG AMB,EBDT,2015-02-12T07:46:00Z,51.02,5.07,-4.0,-4.0,0,1,,0.06,30.177166,,,,,,,,,,FZFG,BKN,100,,,,,,,LIFR,,,,,,,,,,,,METAR,54.0
K04V 120746Z AUTO 32011KT 10SM CLR M02/M06 A3042 RMK AO2,K04V,2015-02-12T07:46:00Z,38.1,-106.17,-2.0,-6.0,320,11,,10.0,30.41929,,,TRUE,TRUE,,,,,,,CLR,,,,,,,,VFR,,,,,,,,,,,,METAR,2385.0
KMWS 120745Z 05505G06KT 11/M18 RMK SNOW DEPTH 3.00,KMWS,2015-02-12T07:45:00Z,34.23,-118.05,11.0,-18.0,55,5,6,,,,,,,,,,,,,,,,,,,,,,,,,,,,,,,,,METAR,1739.0
KJMR 120745Z AUTO 33011KT 10SM CLR M19/M24 A3055 RMK AO2,KJMR,2015-02-12T07:45:00Z,45.88,-93.27,-19.0,-24.0,330,11,,10.0,30.549213,,,TRUE,TRUE,,,,,,,CLR,,,,,,,,VFR,,,,,,,,,,,,METAR,309.0
CYKF 120745Z AUTO 30013G21KT 6SM -SN FEW020 BKN026 BKN042 OVC070 M06/M09 A2979 RMK SLP104,CYKF,2015-02-12T07:45:00Z,43.47,-80.38,-6.0,-9.0,300,13,21,6.0,29.790354,1010.4,,TRUE,,,,,,,-SN,FEW,2000,BKN,2600,BKN,4200,OVC,7000,MVFR,,,,,,,,,,,,SPECI,317.0
CMGB 120745Z AUTO 00000KT M11/M15 RMK AO1 SOG 28 6022 SLP084 T11101151,CMGB,2015-02-12T07:45:00Z,45.37,-72.77,-11.0,-15.1,0,0,,,,1008.4,,TRUE,TRUE,,,,,,,,,,,,,,,,,,,,,,,,,,,METAR,86.0
KFTK 120745Z AUTO 28012KT 10SM OVC027 M02/M07 A3008 RMK AO2,KFTK,2015-02-12T07:45:00Z,37.88,-85.97,-2.0,-7.0,280,12,,10.0,30.079725,,,TRUE,TRUE,,,,,,,OVC,2700,,,,,,,MVFR,,,,,,,,,,,,SPECI,230.0
MMQT 120745Z 05003KT 7SM BKN020 OVC120 11/08 A3030 RMK 8/47/,MMQT,2015-02-12T07:45:00Z,20.62,-100.18,11.0,8.0,50,3,,7.0,30.301182,,,,,,,,,,,BKN,2000,OVC,12000,,,,,MVFR,,,,,,,,,,,,METAR,1813.0
KW29 120745Z AUTO 20006KT 10SM 01/M02 A2988 RMK AO1,KW29,2015-02-12T07:45:00Z,38.98,-76.33,1.0,-2.0,200,6,,10.0,29.878937,,,TRUE,TRUE,,,,,,,,,,,,,,,,,,,,,,,,,,,METAR,15.0
KFME 120745Z AUTO 00000KT 10SM OVC060 00/M03 A2990 RMK AO1,KFME,2015-02-12T07:45:00Z,39.08,-76.77,0.0,-3.0,0,0,,10.0,29.899607,,,TRUE,TRUE,,,,,,,OVC,6000,,,,,,,VFR,,,,,,,,,,,,METAR,46.0
KDMW 120745Z AUTO 23005KT 10SM OVC050 00/M06 A2982 RMK AO2,KDMW,2015-02-12T07:45:00Z,39.6,-77.0,0.0,-6.0,230,5,,10.0,29.819881,,,TRUE,TRUE,,,,,,,OVC,5000,,,,,,,VFR,,,,,,,,,,,,METAR,241.0
KCGS 120745Z AUTO 00000KT 10SM OVC060 01/M02 A2987 RMK AO1,KCGS,2015-02-12T07:45:00Z,38.98,-76.92,1.0,-2.0,0,0,,10.0,29.870079,,,TRUE,TRUE,,,,,,,OVC,6000,,,,,,,VFR,,,,,,,,,,,,METAR,15.0
KCGE 120745Z AUTO 17004KT 10SM CLR 00/M01 A2988 RMK AO1,KCGE,2015-02-12T07:45:00Z,38.53,-76.03,0.0,-1.0,170,4,,10.0,29.878937,,,TRUE,TRUE,,,,,,,CLR,,,,,,,,VFR,,,,,,,,,,,,METAR,6.0
KCBE 120745Z AUTO 26007G18KT 251V311 10SM OVC036 04/M02 A2987 RMK AO1,KCBE,2015-02-12T07:45:00Z,39.62,-78.77,4.0,-2.0,260,7,18,10.0,29.870079,,,TRUE,TRUE,,,,,,,OVC,3600,,,,,,,VFR,,,,,,,,,,,,METAR,236.0
K2W6 120745Z AUTO 00000KT 10SM CLR 00/M02 A2989 RMK AO1,K2W6,2015-02-12T07:45:00Z,38.32,-76.55,0.0,-2.0,0,0,,10.0,29.890747,,,TRUE,TRUE,,,,,,,CLR,,,,,,,,VFR,,,,,,,,,,,,METAR,44.0
K2G4 120745Z AUTO 26013G22KT 7SM BKN003 BKN012 OVC023 M03/ A2975 RMK AO1,K2G4,2015-02-12T07:45:00Z,39.58,-79.33,-3.0,,260,13,22,7.0,29.749016,,,TRUE,TRUE,,,,,,,BKN,300,BKN,1200,OVC,2300,,,LIFR,,,,,,,,,,,,METAR,894.0
KSWF 120745Z 00000KT 7SM OVC030 M05/M09 A2982,KSWF,2015-02-12T07:45:00Z,41.5,-74.08,-5.0,-9.0,0,0,,7.0,29.819881,,,,,,,,,,,OVC,3000,,,,,,,MVFR,,,,,,,,,,,,METAR,150.0
CWPF 120745Z AUTO 28001KT 09/07 RMK AO1 T00880074,CWPF,2015-02-12T07:45:00Z,48.43,-123.43,8.8,7.4,280,1,,,,,,TRUE,TRUE,,,,,,,,,,,,,,,,,,,,,,,,,,,METAR,12.0
LMML 120745Z VRB02KT 9999 SCT020 14/10 Q1021 NOSIG,LMML,2015-02-12T07:45:00Z,35.85,14.47,14.0,10.0,0,2,,6.21,30.147638,,,,,,TRUE,,,,,SCT,2000,,,,,,,VFR,,,,,,,,,,,,METAR,91.0
KQAZ 120745Z AUTO 10008KT 9999 CLR 27/M01 A3003 RMK CDP03565 CLR,KQAZ,2015-02-12T07:45:00Z,100.65,-1000.65,27.0,-1.0,100,8,,6.21,30.029528,,,TRUE,,,,,,,,CLR,,,,,,,,VFR,,,,,,,,,,,,METAR,999.0
MMPR 120745Z 00000KT 10SM SCT035 BKN080 OVC270 22/21 A2990 RMK 8/557,MMPR,2015-02-12T07:45:00Z,20.67,-105.25,22.0,21.0,0,0,,10.0,29.899607,,,,,,,,,,,SCT,3500,BKN,8000,OVC,27000,,,VFR,,,,,,,,,,,,METAR,6.0
MMMM 120745Z 00000KT 7SM BKN030 OVC070 09/08 A3023 RMK 8/46/,MMMM,2015-02-12T07:45:00Z,19.85,-101.02,9.0,8.0,0,0,,7.0,30.230314,,,,,,,,,,,BKN,3000,OVC,7000,,,,,MVFR,,,,,,,,,,,,METAR,1833.0
LIPX 120745Z 35004KT 1500 BR NSC 01/M00 Q1026,LIPX,2015-02-12T07:45:00Z,45.38,10.87,1.0,0.0,350,4,,0.93,30.295275,,,,,,,,,,BR,,,,,,,,,,,,,,,,,,,,,METAR,68.0
LIPR 120745Z 00000KT 0500 R31/1200 FG BKN000 01/01 Q1025,LIPR,2015-02-12T07:45:00Z,44.02,12.62,1.0,1.0,0,0,,0.31,30.265747,,,,,,,,,,FG,BKN,0,,,,,,,LIFR,,,,,,,,,,,,METAR,13.0
LIPH 120745Z /////KT 8000 NSC 03/01 Q1026,LIPH,2015-02-12T07:45:00Z,45.63,12.17,3.0,1.0,,,,4.97,30.295275,,,,,,,,,,,,,,,,,,,,,,,,,,,,,,,METAR,23.0
LIBR 120745Z 05009KT 9999 FEW030 09/M04 Q1023 NOSIG,LIBR,2015-02-12T07:45:00Z,40.65,17.95,9.0,-4.0,50,9,,6.21,30.206694,,,,,,TRUE,,,,,FEW,3000,,,,,,,VFR,,,,,,,,,,,,METAR,10.0
LIRP 120745Z 18003KT CAVOK 04/03 Q1023 NOSIG,LIRP,2015-02-12T07:45:00Z,43.67,10.37,4.0,3.0,180,3,,6.21,30.206694,,,,,,TRUE,,,,,CAVOK,,,,,,,,VFR,,,,,,,,,,,,METAR,2.0
LIRA 120745Z 00000KT 9999 BKN030 05/04 Q1023,LIRA,2015-02-12T07:45:00Z,41.8,12.58,5.0,4.0,0,0,,6.21,30.206694,,,,,,,,,,,BKN,3000,,,,,,,MVFR,,,,,,,,,,,,METAR,101.0
LHSN 120745Z 18004KT 8000 NSC M00/M06 Q1030 BECMG CAVOK RMK BLU,LHSN,2015-02-12T07:45:00Z,47.12,20.23,0.0,-6.0,180,4,,4.97,30.413385,,,,,,,,,,,,,,,,,,,,,,,,,,,,,,,METAR,98.0
LHKE 120745Z 16006KT 8000 NSC M00/M04 Q1030 NOSIG RMK BLU,LHKE,2015-02-12T07:45:00Z,46.92,19.75,0.0,-4.0,160,6,,4.97,30.413385,,,,,,TRUE,,,,,,,,,,,,,,,,,,,,,,,,,METAR,115.0
KCFE 120745Z AUTO 33008G14KT 10SM CLR M18/M22 A3057 RMK AO2,KCFE,2015-02-12T07:45:00Z,45.17,-93.85,-18.0,-22.0,330,8,14,10.0,30.569881,,,TRUE,TRUE,,,,,,,CLR,,,,,,,,VFR,,,,,,,,,,,,METAR,295.0
UKLI 120744Z VRB01MPS 3600 BR BKN004 M02/M02 Q1029 NOSIG,UKLI,2015-02-12T07:44:00Z,48.88,24.68,-2.0,-2.0,0,2,,2.24,30.383858,,,,,,TRUE,,,,BR,BKN,400,,,,,,,LIFR,,,,,,,,,,,,SPECI,280.0
VHHH 120744Z 29005KT 2900 HZ FEW030 21/09 Q1016 NOSIG,VHHH,2015-02-12T07:44:00Z,22.32,113.92,21.0,9.0,290,5,,1.8,30.0,,,,,,TRUE,,,,HZ,FEW,3000,,,,,,,IFR,,,,,,,,,,,,SPECI,9.0
MMUN 120744Z 32004KT 7SM SCT015 16/15 A2999 RMK 8/500,MMUN,2015-02-12T07:44:00Z,21.02,-86.85,16.0,15.0,320,4,,7.0,29.991142,,,,,,,,,,,SCT,1500,,,,,,,VFR,,,,,,,,,,,,METAR,10.0
MMTO 120743Z 00000KT 8SM SCT015 SCT070 BKN200 06/06 A3035 RMK 8/532,MMTO,2015-02-12T07:43:00Z,19.35,-99.57,6.0,6.0,0,0,,8.0,30.351377,,,,,,,,,,,SCT,1500,SCT,7000,BKN,20000,,,VFR,,,,,,,,,,,,METAR,2576.0
PAEI 120743Z AUTO 34004KT 10SM FEW047 SCT055 M15/M17 A2975 RMK AO2 SNE35,PAEI,2015-02-12T07:43:00Z,64.67,-147.1,-15.0,-17.0,340,4,,10.0,29.749016,,,TRUE,TRUE,,,,,,,FEW,4700,SCT,5500,,,,,VFR,,,,,,,,,,,,SPECI,167.0
KGTB 120743Z AUTO 26009KT 1 1/2SM R21/5500FT -SN BR FEW005 OVC009 M03/M03 A2970 RMK AO2 VIS 1 1/2V2 CIG 008V010 CIG 002 RWY03,KGTB,2015-02-12T07:43:00Z,44.07,-75.72,-3.0,-3.0,260,9,,1.5,29.698818,,,TRUE,TRUE,,,,,,-SN BR,FEW,500,OVC,900,,,,,IFR,,,,,,,,,,,,SPECI,207.0
EGUL 120743Z AUTO 00000KT 9999 OVC024 02/02 A3015 RMK AO2 UPB0733E0743 VISNO RWY06 CHINO RWY06 $,EGUL,2015-02-12T07:43:00Z,52.42,0.57,2.0,2.0,0,0,,6.21,30.15059,,,TRUE,TRUE,TRUE,,,,,,OVC,2400,,,,,,,MVFR,,,,,,,,,,,,SPECI,10.0
FASB 120743Z 15004KT CAVOK 22/03 Q1018,FASB,2015-02-12T07:43:00Z,-29.68,17.93,22.0,3.0,150,4,,6.21,30.059055,,,,,,,,,,,CAVOK,,,,,,,,VFR,,,,,,,,,,,,SPECI,813.0
MMSP 120743Z 14010KT 10SM SCT025 12/04 A3016 RMK 8/500,MMSP,2015-02-12T07:43:00Z,22.25,-100.93,12.0,4.0,140,10,,10.0,30.159449,,,,,,,,,,,SCT,2500,,,,,,,VFR,,,,,,,,,,,,METAR,1903.0
MMHO 120743Z 16003KT 10SM SKC 18/08 A2993,MMHO,2015-02-12T07:43:00Z,29.08,-111.05,18.0,8.0,160,3,,10.0,29.929134,,,,,,,,,,,SKC,,,,,,,,VFR,,,,,,,,,,,,METAR,184.0
CYHU 120742Z AUTO 03007KT 3SM -SN SCT024 BKN036 OVC046 M13/M16 A2977 RMK SLP085,CYHU,2015-02-12T07:42:00Z,45.52,-73.42,-13.0,-16.0,30,7,,3.0,29.769686,1008.5,,TRUE,,,,,,,-SN,SCT,2400,BKN,3600,OVC,4600,,,MVFR,,,,,,,,,,,,SPECI,27.0
CYWK 120742Z AUTO 06006KT 2SM -SN OVC044 M26/M29 A2987 RMK SLP186,CYWK,2015-02-12T07:42:00Z,52.92,-66.87,-26.0,-29.0,60,6,,2.0,29.870079,1018.6,,TRUE,,,,,,,-SN,OVC,4400,,,,,,,IFR,,,,,,,,,,,,SPECI,551.0
ETOU 120742Z AUTO 09005KT 8000 BR OVC006 00/00 A3024 RMK AO2,ETOU,2015-02-12T07:42:00Z,50.03,8.32,0.0,0.0,90,5,,4.97,30.239174,,,TRUE,TRUE,,,,,,BR,OVC,600,,,,,,,IFR,,,,,,,,,,,,SPECI,141.0
MMMX 120742Z 08003KT 10SM SCT080 OVC200 10/06 A3030 NOSIG RMK 8/077 HZY SC,MMMX,2015-02-12T07:42:00Z,19.42,-99.08,10.0,6.0,80,3,,10.0,30.301182,,,,,,TRUE,,,,,SCT,8000,OVC,20000,,,,,VFR,,,,,,,,,,,,METAR,2238.0
GMFF 120742Z 32008KT 4200 1100SE BR RA BKN033 SCT100 10/08 Q1019 NOSIG,GMFF,2015-02-12T07:42:00Z,33.92,-4.97,10.0,8.0,320,8,,2.61,30.088583,,,,,,TRUE,,,,RA BR,BKN,3300,SCT,10000,,,,,IFR,,,,,,,,,,,,SPECI,579.0
RJNY 120742Z 27018G28KT 9999 FEW025 10/M03 Q1003 RMK 1CU025 A2965,RJNY,2015-02-12T07:42:00Z,34.82,138.3,10.0,-3.0,270,18,28,6.21,29.616142,,,,,,,,,,,FEW,2500,,,,,,,VFR,,,,,,,,,,,,METAR,10.0
MMTJ 120742Z 11006KT 8SM SKC 22/M10 A3006,MMTJ,2015-02-12T07:42:00Z,32.53,-116.97,22.0,-10.0,110,6,,8.0,30.059055,,,,,,,,,,,SKC,,,,,,,,VFR,,,,,,,,,,,,METAR,152.0
KMQI 120741Z AUTO 18004KT 10SM CLR 01/M01 A2995 RMK AO2,KMQI,2015-02-12T07:41:00Z,35.92,-75.7,1.0,-1.0,180,4,,10.0,29.949802,,,TRUE,TRUE,,,,,,,CLR,,,,,,,,VFR,,,,,,,,,,,,SPECI,4.0
MMCZ 120741Z 00000KT 7SM SKC 15/15 A2999 RMK RTS,MMCZ,2015-02-12T07:41:00Z,20.52,-86.92,15.0,15.0,0,0,,7.0,29.991142,,,,,,,,,,,SKC,,,,,,,,VFR,,,,,,,,,,,,METAR,5.0
CYYD 120741Z AUTO 12006KT 6SM -RA BR OVC025 00/00 A2995 RMK ICG PAST HR SLP162,CYYD,2015-02-12T07:41:00Z,54.82,-127.18,0.0,0.0,120,6,,6.0,29.949802,1016.2,,TRUE,,,,,,,-RA BR,OVC,2500,,,,,,,MVFR,,,,,,,,,,,,SPECI,523.0
EBFS 120741Z 12005KT 2700 BR SKC M02/M02 Q1020 YLO YLO BECMG GRN,EBFS,2015-02-12T07:41:00Z,50.22,4.65,-2.0,-2.0,120,5,,1.68,30.11811,,,,,,,,,,BR,SKC,,,,,,,,IFR,,,,,,,,,,,,SPECI,299.0
MMAA 120741Z 00000KT 7SM SCT100 BKN300 23/21 A2991 RMK 8/078 HZY,MMAA,2015-02-12T07:41:00Z,16.75,-99.75,23.0,21.0,0,0,,7.0,29.911417,,,,,,,,,,,SCT,10000,BKN,30000,,,,,VFR,,,,,,,,,,,,METAR,5.0
PANW 120741Z AUTO 36012KT 1 3/4SM -SN BR FEW001 BKN010 OVC017 M10/M12 A2950 RMK AO2 TSNO BKN V OVC P0000 $,PANW,2015-02-12T07:41:00Z,59.45,-157.37,-10.0,-12.0,360,12,,1.75,29.500984,,,TRUE,TRUE,TRUE,,TRUE,,,-SN BR,FEW,100,BKN,1000,OVC,1700,,,IFR,,,,,,0.0050,,,,,,METAR,92.0
LPPT 120741Z 03003KT 1500 0300NE R21/0275 PRFG SCT001 SCT003 05/05 Q1019,LPPT,2015-02-12T07:41:00Z,38.77,-9.12,5.0,5.0,30,3,,0.93,30.088583,,,,,,,,,,PRFG,SCT,100,SCT,300,,,,,LIFR,,,,,,,,,,,,SPECI,123.0
MMRX 120741Z 06006KT 8SM SCT025 16/13 A3011 RMK 8/500 HZY,MMRX,2015-02-12T07:41:00Z,26.02,-98.22,16.0,13.0,60,6,,8.0,30.109253,,,,,,,,,,,SCT,2500,,,,,,,VFR,,,,,,,,,,,,METAR,39.0
MMGL 120741Z 00000KT 10SM SCT020 BKN300 14/07 A3015 RMK 8/508,MMGL,2015-02-12T07:41:00Z,20.52,-103.32,14.0,7.0,0,0,,10.0,30.15059,,,,,,,,,,,SCT,2000,BKN,30000,,,,,VFR,,,,,,,,,,,,METAR,1528.0
PKWA 120740Z AUTO 06009KT 10SM SCT019 28/22 A2981 RMK AO2 T02800218,PKWA,2015-02-12T07:40:00Z,8.72,167.72,28.0,21.8,60,9,,10.0,29.811024,,,TRUE,TRUE,,,,,,,SCT,1900,,,,,,,VFR,,,,,,,,,,,,SPECI,8.0
MMDO 120740Z 19004KT 10SM SKC 12/06 A3017 RMK ISOL CI RTS,MMDO,2015-02-12T07:40:00Z,24.12,-104.52,12.0,6.0,190,4,,10.0,30.171259,,,,,,,,,,,SKC,,,,,,,,VFR,,,,,,,,,,,,METAR,1857.0
KQEI 120740Z AUTO 17003G14KT 9999 CLR 00/M21 A2985 RMK A02 TSNO,KQEI,2015-02-12T07:40:00Z,100.65,-1000.65,0.0,-21.0,170,3,14,6.21,29.84941,,,TRUE,TRUE,,,TRUE,,,,CLR,,,,,,,,VFR,,,,,,,,,,,,METAR,999.0
CWZQ 120740Z AUTO 31010KT M05/M08 RMK AO1 T10501076,CWZQ,2015-02-12T07:40:00Z,46.53,-61.05,-5.0,-7.6,310,10,,,,,,TRUE,TRUE,,,,,,,,,,,,,,,,,,,,,,,,,,,METAR,17.0
CYXU 120740Z 31012KT 290V350 4SM -SN FEW009 BKN022 OVC072 M07/M09 A2985 RMK SF2SC3AC3 SLP122,CYXU,2015-02-12T07:40:00Z,43.02,-81.15,-7.0,-9.0,310,12,,4.0,29.84941,1012.2,,,,,,,,,-SN,FEW,900,BKN,2200,OVC,7200,,,MVFR,,,,,,,,,,,,SPECI,278.0
UMII 120740Z 22005G08MPS 3100 BR OVC004 M01/M01 Q1023 R23/790226 TEMPO 2000 BKN003 RMK QBB120,UMII,2015-02-12T07:40:00Z,55.13,30.35,-1.0,-1.0,220,10,16,1.93,30.206694,,,,,,,,,,BR,OVC,400,,,,,,,LIFR,,,,,,,,,,,,SPECI,208.0
KFDK 120740Z AUTO 00000KT 10SM OVC050 01/M03 A2988 RMK AO2,KFDK,2015-02-12T07:40:00Z,39.42,-77.37,1.0,-3.0,0,0,,10.0,29.878937,,,TRUE,TRUE,,,,,,,OVC,5000,,,,,,,VFR,,,,,,,,,,,,METAR,92.0
MMCV 120740Z 19007KT 8SM SKC 17/14 A3006 RMK ISOL AC,MMCV,2015-02-12T07:40:00Z,23.72,-98.97,17.0,14.0,190,7,,8.0,30.059055,,,,,,,,,,,SKC,,,,,,,,VFR,,,,,,,,,,,,METAR,238.0
K8S0 120740Z 23019G37KT ,K8S0,2015-02-12T07:40:00Z,48.6,-113.12,,,230,19,37,,,,,,,,,,,,,,,,,,,,,,,,,,,,,,,,,METAR,1419.0
KLVN 120740Z AUTO 33012G18KT 10SM CLR M18/M22 A3053 RMK AO2,KLVN,2015-02-12T07:40:00Z,44.63,-93.23,-18.0,-22.0,330,12,18,10.0,30.528543,,,TRUE,TRUE,,,,,,,CLR,,,,,,,,VFR,,,,,,,,,,,,METAR,293.0
VOTV 120740Z 21007KT 6000 FEW015 FEW025TCU 32/25 Q1010 NOSIG,VOTV,2015-02-12T07:40:00Z,8.47,76.95,32.0,25.0,210,7,,3.73,29.822834,,,,,,TRUE,,,,,FEW,1500,FEW,2500,,,,,MVFR,,,,,,,,,,,,METAR,8.0
VOTR 120740Z 07008KT 4000 HZ SCT016 32/20 Q1012 BECMG 5000 HZ,VOTR,2015-02-12T07:40:00Z,10.77,78.72,32.0,20.0,70,8,,2.49,29.88189,,,,,,,,,,HZ,SCT,1600,,,,,,,IFR,,,,,,,,,,,,METAR,88.0
VOMM 120740Z 03008KT 6000 FEW020 31/20 Q1012 NOSIG,VOMM,2015-02-12T07:40:00Z,13.0,80.17,31.0,20.0,30,8,,3.73,29.88189,,,,,,TRUE,,,,,FEW,2000,,,,,,,MVFR,,,,,,,,,,,,METAR,16.0
VOHY 120740Z 21004KT 6000 NSC 32/01 Q1017 NOSIG,VOHY,2015-02-12T07:40:00Z,17.45,78.45,32.0,1.0,210,4,,3.73,30.029528,,,,,,TRUE,,,,,,,,,,,,,,,,,,,,,,,,,METAR,545.0
VOHS 120740Z 12008KT 6000 NSC 32/05 Q1016 NOSIG,VOHS,2015-02-12T07:40:00Z,17.23,78.43,32.0,5.0,120,8,,3.73,30.0,,,,,,TRUE,,,,,,,,,,,,,,,,,,,,,,,,,METAR,1.0
VANP 120740Z 04004KT 3000 HZ NSC 27/16 Q1015 NOSIG,VANP,2015-02-12T07:40:00Z,21.08,79.05,27.0,16.0,40,4,,1.86,29.970472,,,,,,TRUE,,,,HZ,,,,,,,,,,,,,,,,,,,,,METAR,310.0
VABB 120740Z 26010KT 3000 FU NSC 31/17 Q1013,VABB,2015-02-12T07:40:00Z,19.1,72.87,31.0,17.0,260,10,,1.86,29.911417,,,,,,,,,,FU,,,,,,,,,,,,,,,,,,,,,METAR,8.0
VAAH 120740Z 07004KT 6000 NSC 29/07 Q1015 NOSIG,VAAH,2015-02-12T07:40:00Z,23.07,72.62,29.0,7.0,70,4,,3.73,29.970472,,,,,,TRUE,,,,,,,,,,,,,,,,,,,,,,,,,METAR,55.0
KFBG 120739Z AUTO 17003KT 10SM CLR 02/00 A2990 RMK AO2,KFBG,2015-02-12T07:39:00Z,35.12,-78.92,2.0,0.0,170,3,,10.0,29.899607,,,TRUE,TRUE,,,,,,,CLR,,,,,,,,VFR,,,,,,,,,,,,SPECI,74.0
CYUL 120739Z 02009KT 1 1/4SM -SN VV009 M13/M15 A2977 RMK SN8 SLP082,CYUL,2015-02-12T07:39:00Z,45.47,-73.73,-13.0,-15.0,20,9,,1.25,29.769686,1008.2,,,,,,,,,-SN,OVX,0,,,,,,,LIFR,,,,,,,,,,,900,SPECI,36.0
RJFY 120739Z 29016G26KT 5000 -SHRA BR FEW005 SCT015 BKN025 FEW025CB 09/06 Q1010 RMK 1ST005 3CU015 6CU025 1CB025 A2984 CB 10KM E MOV E,RJFY,2015-02-12T07:39:00Z,31.37,130.82,9.0,6.0,290,16,26,3.11,29.822834,,,,,,,,,,-SHRA BR,FEW,500,SCT,1500,BKN,2500,FEW,2500,MVFR,,,,,,,,,,,,SPECI,68.0
RJSN 120738Z 24010KT 200V270 4500 -SHRA BR FEW008 SCT015 BKN020 FEW020TCU 05/02 Q1003 RMK 1ST008 3CU015 7CU020 1TCU020 A2963 TCU 40KM S MOV E,RJSN,2015-02-12T07:38:00Z,37.95,139.12,5.0,2.0,240,10,,2.8,29.616142,,,,,,,,,,-SHRA BR,FEW,800,SCT,1500,BKN,2000,FEW,2000,IFR,,,,,,,,,,,,SPECI,4.0
RJOB 120738Z 27014G25KT 230V320 3500 SHRA BR FEW010 SCT015 BKN020 FEW025CB 04/02 Q1005 RMK 1CU010 3CU015 5CU020 1CB025 A2969 CB 5KM SE MOV E,RJOB,2015-02-12T07:38:00Z,34.75,133.83,4.0,2.0,270,14,25,2.17,29.675198,,,,,,,,,,SHRA BR,FEW,1000,SCT,1500,BKN,2000,FEW,2500,IFR,,,,,,,,,,,,SPECI,242.0
LFLC 120738Z VRB03KT CAVOK 02/M03 Q1020 NOSIG,LFLC,2015-02-12T07:38:00Z,45.77,3.17,2.0,-3.0,0,3,,6.21,30.11811,,,,,,TRUE,,,,,CAVOK,,,,,,,,VFR,,,,,,,,,,,,METAR,330.0
LFMC 120737Z 00000KT 0100 FG BKN001 00/M00 Q1023,LFMC,2015-02-12T07:37:00Z,43.37,6.37,0.0,0.0,0,0,,0.06,30.206694,,,,,,,,,,FG,BKN,100,,,,,,,LIFR,,,,,,,,,,,,METAR,78.0
LKKV 120737Z 11005KT 0900 R29/1200U FZFG OVC002 M04/M05 Q1023 R29/09//95 RMK REG QNH 1020,LKKV,2015-02-12T07:37:00Z,50.2,12.92,-4.0,-5.0,110,5,,0.56,30.206694,,,,,,,,,,FZFG,OVC,200,,,,,,,LIFR,,,,,,,,,,,,SPECI,604.0
KTGI 120736Z AUTO 19014KT 10SM CLR 01/00 A2990 RMK AO1,KTGI,2015-02-12T07:36:00Z,37.82,-75.98,1.0,0.0,190,14,,10.0,29.899607,,,TRUE,TRUE,,,,,,,CLR,,,,,,,,VFR,,,,,,,,,,,,METAR,2.0
LTCK 120736Z VRB01KT 3300 BR SCT010 BKN030 OVC070 01/00 Q1013 RMK RWY11 VRB02KT,LTCK,2015-02-12T07:36:00Z,38.75,41.67,1.0,0.0,0,1,,2.05,29.911417,,,,,,,,,,BR,SCT,1000,BKN,3000,OVC,7000,,,IFR,,,,,,,,,,,,SPECI,1266.0
KPKV 120735Z AUTO 01003KT 1 3/4SM BR VV007 13/13 A3017 RMK AO2 T01250125,KPKV,2015-02-12T07:35:00Z,28.65,-96.68,12.5,12.5,10,3,,1.75,30.171259,,,TRUE,TRUE,,,,,,BR,OVX,0,,,,,,,LIFR,,,,,,,,,,,700,METAR,9.0
KRPJ 120735Z AUTO 32011KT 3SM -SN SCT017 BKN026 OVC032 M10/M12 A3020 RMK AO2 T11001120,KRPJ,2015-02-12T07:35:00Z,41.88,-89.08,-10.0,-12.0,320,11,,3.0,30.200787,,,TRUE,TRUE,,,,,,-SN,SCT,1700,BKN,2600,OVC,3200,,,MVFR,,,,,,,,,,,,METAR,238.0
KM30 120735Z AUTO 31006KT 10SM CLR M01/M05 A3022 RMK AO2 T10101047,KM30,2015-02-12T07:35:00Z,37.18,-88.75,-1.0,-4.7,310,6,,10.0,30.221457,,,TRUE,TRUE,,,,,,,CLR,,,,,,,,VFR,,,,,,,,,,,,METAR,117.0
KLVL 120735Z AUTO 00000KT 10SM CLR 00/M01 A2988 RMK AO1 T10041015,KLVL,2015-02-12T07:35:00Z,36.78,-77.8,-0.4,-1.5,0,0,,10.0,29.878937,,,TRUE,TRUE,,,,,,,CLR,,,,,,,,VFR,,,,,,,,,,,,METAR,100.0
KMGR 120735Z AUTO 00000KT 10SM CLR 07/07 A3005 RMK AO2,KMGR,2015-02-12T07:35:00Z,31.08,-83.8,7.0,7.0,0,0,,10.0,30.050198,,,TRUE,TRUE,,,,,,,CLR,,,,,,,,VFR,,,,,,,,,,,,METAR,90.0
KMNZ 120735Z AUTO 36015G20KT 10SM CLR 08/01 A3032 RMK AO2 T00750013,KMNZ,2015-02-12T07:35:00Z,31.67,-98.15,7.5,1.3,360,15,20,10.0,30.318897,,,TRUE,TRUE,,,,,,,CLR,,,,,,,,VFR,,,,,,,,,,,,METAR,396.0
KMMU 120735Z AUTO 00000KT 10SM SCT042 OVC075 M03/M08 A2987 RMK AO2,KMMU,2015-02-12T07:35:00Z,40.78,-74.42,-3.0,-8.0,0,0,,10.0,29.870079,,,TRUE,TRUE,,,,,,,SCT,4200,OVC,7500,,,,,VFR,,,,,,,,,,,,METAR,57.0
KMWO 120735Z AUTO 27016G21KT 10SM OVC036 00/M06 RMK AO2 T00001062,KMWO,2015-02-12T07:35:00Z,39.53,-84.4,0.0,-6.2,270,16,21,10.0,,,,TRUE,TRUE,,,,,,,OVC,3600,,,,,,,VFR,,,,,,,,,,,,METAR,198.0
KMRN 120735Z AUTO 00000KT 10SM CLR 05/M02 A2993 RMK AO2 T00461021,KMRN,2015-02-12T07:35:00Z,35.82,-81.62,4.6,-2.1,0,0,,10.0,29.929134,,,TRUE,TRUE,,,,,,,CLR,,,,,,,,VFR,,,,,,,,,,,,METAR,387.0
KMQS 120735Z AUTO 00000KT 10SM OVC038 M01/M03 A2984 RMK AO2,KMQS,2015-02-12T07:35:00Z,39.98,-75.87,-1.0,-3.0,0,0,,10.0,29.840551,,,TRUE,TRUE,,,,,,,OVC,3800,,,,,,,VFR,,,,,,,,,,,,METAR,201.0
KOKV 120735Z AUTO 00000KT 10SM OVC040 03/M02 A2983 RMK AO2,KOKV,2015-02-12T07:35:00Z,39.13,-78.15,3.0,-2.0,0,0,,10.0,29.828741,,,TRUE,TRUE,,,,,,,OVC,4000,,,,,,,VFR,,,,,,,,,,,,METAR,222.0
KONP 120735Z AUTO 07003KT 10SM CLR 08/08 A3024 RMK AO2,KONP,2015-02-12T07:35:00Z,44.57,-124.03,8.0,8.0,70,3,,10.0,30.239174,,,TRUE,TRUE,,,,,,,CLR,,,,,,,,VFR,,,,,,,,,,,,METAR,48.0
KOPN 120735Z AUTO 33005KT 10SM CLR 09/00 A3001 RMK AO2,KOPN,2015-02-12T07:35:00Z,32.95,-84.27,9.0,0.0,330,5,,10.0,30.008858,,,TRUE,TRUE,,,,,,,CLR,,,,,,,,VFR,,,,,,,,,,,,METAR,243.0
KPDC 120735Z AUTO 32013G21KT 10SM SCT022 SCT028 BKN034 M12/M18 A3035 RMK AO2 T11251177,KPDC,2015-02-12T07:35:00Z,43.02,-91.12,-12.5,-17.7,320,13,21,10.0,30.351377,,,TRUE,TRUE,,,,,,,SCT,2200,SCT,2800,BKN,3400,,,VFR,,,,,,,,,,,,METAR,201.0
KOCW 120735Z AUTO 19003KT 10SM CLR 00/M02 A2994 RMK AO2 T10021020,KOCW,2015-02-12T07:35:00Z,35.57,-77.05,-0.2,-2.0,190,3,,10.0,29.940945,,,TRUE,TRUE,,,,,,,CLR,,,,,,,,VFR,,,,,,,,,,,,METAR,12.0
KPEQ 120735Z AUTO 34011KT 10SM BKN045 OVC090 08/01 A3041 RMK AO2 T00750009,KPEQ,2015-02-12T07:35:00Z,31.38,-103.52,7.5,0.9,340,11,,10.0,30.410433,,,TRUE,TRUE,,,,,,,BKN,4500,OVC,9000,,,,,VFR,,,,,,,,,,,,METAR,797.0
KPTT 120735Z AUTO 00000KT 10SM CLR M03/M06 A3041 RMK AO2,KPTT,2015-02-12T07:35:00Z,37.7,-98.75,-3.0,-6.0,0,0,,10.0,30.410433,,,TRUE,TRUE,,,,,,,CLR,,,,,,,,VFR,,,,,,,,,,,,METAR,595.0
KPTS 120735Z AUTO 35005KT 10SM CLR M02/M06 A3041 RMK AO2 T10191056,KPTS,2015-02-12T07:35:00Z,37.45,-94.73,-1.9,-5.6,350,5,,10.0,30.410433,,,TRUE,TRUE,,,,,,,CLR,,,,,,,,VFR,,,,,,,,,,,,METAR,290.0
KPSN 120735Z AUTO 33012KT 10SM CLR 08/03 A3027 RMK AO2 T00870041,KPSN,2015-02-12T07:35:00Z,31.78,-95.7,8.7,3.0,330,12,,10.0,30.268702,,,TRUE,TRUE,,,,,,,CLR,,,,,,,,VFR,,,,,,,,,,,,METAR,129.0
KPPQ 120735Z AUTO 31012KT 10SM -SN BKN027 OVC033 M03/M07 A3027 RMK AO2 T10301070,KPPQ,2015-02-12T07:35:00Z,39.63,-90.78,-3.0,-7.0,310,12,,10.0,30.268702,,,TRUE,TRUE,,,,,,-SN,BKN,2700,OVC,3300,,,,,MVFR,,,,,,,,,,,,METAR,216.0
KPPO 120735Z AUTO 31012G17KT 4SM -SN BKN039 M05/M08 A3007 RMK AO2 T10471077,KPPO,2015-02-12T07:35:00Z,41.57,-86.73,-4.7,-7.7,310,12,17,4.0,30.070866,,,TRUE,TRUE,,,,,,-SN,BKN,3900,,,,,,,MVFR,,,,,,,,,,,,METAR,248.0
KPMV 120735Z AUTO 35013G20KT 10SM CLR M11/M19 A3055 RMK AO2 T11141186,KPMV,2015-02-12T07:35:00Z,40.95,-95.92,-11.4,-18.6,350,13,20,10.0,30.549213,,,TRUE,TRUE,,,,,,,CLR,,,,,,,,VFR,,,,,,,,,,,,METAR,367.0
KSLR 120735Z AUTO 36014KT 10SM CLR 07/M01 A3034 RMK AO2 T00651012,KSLR,2015-02-12T07:35:00Z,33.17,-95.62,6.5,-1.2,360,14,,10.0,30.339567,,,TRUE,TRUE,,,,,,,CLR,,,,,,,,VFR,,,,,,,,,,,,METAR,149.0
KSIF 120735Z AUTO 00000KT 7SM CLR M01/M02 A2990 RMK AO2 T10101018,KSIF,2015-02-12T07:35:00Z,36.43,-79.85,-1.0,-1.8,0,0,,7.0,29.899607,,,TRUE,TRUE,,,,,,,CLR,,,,,,,,VFR,,,,,,,,,,,,METAR,211.0
KSHD 120735Z AUTO 00000KT 7SM OVC044 01/M02 A2984 RMK AO2 T00061018,KSHD,2015-02-12T07:35:00Z,38.27,-78.9,0.6,-1.8,0,0,,7.0,29.840551,,,TRUE,TRUE,,,,,,,OVC,4400,,,,,,,VFR,,,,,,,,,,,,METAR,366.0
KSFY 120735Z AUTO 32014G18KT 3SM -SN BKN011 BKN017 OVC070 M10/M13 A3026 RMK AO2 T11011131,KSFY,2015-02-12T07:35:00Z,42.05,-90.12,-10.1,-13.1,320,14,18,3.0,30.259842,,,TRUE,TRUE,,,,,,-SN,BKN,1100,BKN,1700,OVC,7000,,,MVFR,,,,,,,,,,,,METAR,188.0
KSEP 120735Z AUTO 36017G22KT 10SM OVC065 07/M01 A3035 RMK AO2 T00651011,KSEP,2015-02-12T07:35:00Z,32.22,-98.17,6.5,-1.1,360,17,22,10.0,30.351377,,,TRUE,TRUE,,,,,,,OVC,6500,,,,,,,VFR,,,,,,,,,,,,METAR,402.0
KRPH 120735Z AUTO 34013KT 10SM BKN080 OVC110 06/M03 A3038 RMK AO2 T00551027,KRPH,2015-02-12T07:35:00Z,33.12,-98.55,5.5,-2.7,340,13,,10.0,30.380905,,,TRUE,TRUE,,,,,,,BKN,8000,OVC,11000,,,,,VFR,,,,,,,,,,,,METAR,342.0
KT20 120735Z AUTO 35003KT 7SM VCTS OVC008 15/14 A3020 RMK AO2 T01450139,KT20,2015-02-12T07:35:00Z,29.52,-97.47,14.5,13.9,350,3,,7.0,30.200787,,,TRUE,TRUE,,,,,,VCTS,OVC,800,,,,,,,IFR,,,,,,,,,,,,METAR,108.0
KT82 120735Z AUTO 02009G15KT 10SM OVC035 12/04 A3027 RMK AO2 T01150035,KT82,2015-02-12T07:35:00Z,30.25,-98.92,11.5,3.5,20,9,15,10.0,30.268702,,,TRUE,TRUE,,,,,,,OVC,3500,,,,,,,VFR,,,,,,,,,,,,METAR,517.0
KTIP 120735Z AUTO 32015G24KT 10SM -SN OVC018 M07/M10 A3017 RMK AO2 T10671105,KTIP,2015-02-12T07:35:00Z,40.28,-88.15,-6.7,-10.5,320,15,24,10.0,30.171259,,,TRUE,TRUE,,,,,,-SN,OVC,1800,,,,,,,MVFR,,,,,,,,,,,,METAR,225.0
KTKV 120735Z AUTO 34010G15KT 10SM SCT027 M17/M21 A3026 RMK AO2 T11671211,KTKV,2015-02-12T07:35:00Z,45.47,-89.82,-16.7,-21.1,340,10,15,10.0,30.259842,,,TRUE,TRUE,,,,,,,SCT,2700,,,,,,,VFR,,,,,,,,,,,,METAR,453.0
KTNB 120735Z AUTO 29019G27KT 10SM CLR 01/M03 A2984 RMK AO2 T00121035,KTNB,2015-02-12T07:35:00Z,36.2,-81.65,1.2,-3.5,290,19,27,10.0,29.840551,,,TRUE,TRUE,,,,,,,CLR,,,,,,,,VFR,,,,,,,,,,,,METAR,911.0
KTOC 120735Z AUTO 25006KT 10SM CLR 07/00 A2993 RMK AO2 T00711001,KTOC,2015-02-12T07:35:00Z,34.6,-83.3,7.1,-0.1,250,6,,10.0,29.929134,,,TRUE,TRUE,,,,,,,CLR,,,,,,,,VFR,,,,,,,,,,,,METAR,304.0
KTQH 120735Z AUTO 00000KT 10SM CLR M03/M06 A3042 RMK AO2,KTQH,2015-02-12T07:35:00Z,35.93,-95.0,-3.0,-6.0,0,0,,10.0,30.41929,,,TRUE,TRUE,,,,,,,CLR,,,,,,,,VFR,,,,,,,,,,,,METAR,266.0
KVES 120735Z AUTO 29012G20KT 7SM -SN SCT015 BKN023 OVC028 M02/M03 A2999 RMK AO2,KVES,2015-02-12T07:35:00Z,40.2,-84.53,-2.0,-3.0,290,12,20,7.0,29.991142,,,TRUE,TRUE,,,,,,-SN,SCT,1500,BKN,2300,OVC,2800,,,MVFR,,,,,,,,,,,,METAR,307.0
KTZR 120735Z AUTO 27008KT 3SM -SN SCT010 BKN015 OVC027 A2995 RMK AO2,KTZR,2015-02-12T07:35:00Z,39.9,-83.13,,,270,8,,3.0,29.949802,,,TRUE,TRUE,,,,,,-SN,SCT,1000,BKN,1500,OVC,2700,,,MVFR,,,,,,,,,,,,METAR,276.0
KOGA 120735Z AUTO 05005KT 10SM OVC020 M02/M04 A3044 RMK AO2 T10201045,KOGA,2015-02-12T07:35:00Z,41.12,-101.77,-2.0,-4.5,50,5,,10.0,30.43996,,,TRUE,TRUE,,,,,,,OVC,2000,,,,,,,MVFR,,,,,,,,,,,,SPECI,999.0
KOEO 120735Z AUTO 32006KT 10SM CLR M18/M22 A3053 RMK AO2 T11781220,KOEO,2015-02-12T07:35:00Z,45.32,-92.7,-17.8,-22.0,320,6,,10.0,30.528543,,,TRUE,TRUE,,,,,,,CLR,,,,,,,,VFR,,,,,,,,,,,,SPECI,275.0
KMXO 120735Z AUTO 33018G25KT 10SM SCT016 BKN024 OVC050 M13/M17 A3032 RMK AO2,KMXO,2015-02-12T07:35:00Z,42.22,-91.17,-13.0,-17.0,330,18,25,10.0,30.318897,,,TRUE,TRUE,,,,,,,SCT,1600,BKN,2400,OVC,5000,,,MVFR,,,,,,,,,,,,SPECI,259.0
KMWA 120735Z AUTO 30005KT 10SM SCT026 M02/M06 A3024 RMK AO2,KMWA,2015-02-12T07:35:00Z,37.77,-89.02,-2.0,-6.0,300,5,,10.0,30.239174,,,TRUE,TRUE,,,,,,,SCT,2600,,,,,,,VFR,,,,,,,,,,,,SPECI,144.0
KMUT 120735Z AUTO 32020G25KT 10SM SCT027 BKN038 OVC050 M12/M17 A3037 RMK AO2,KMUT,2015-02-12T07:35:00Z,41.37,-91.15,-12.0,-17.0,320,20,25,10.0,30.369095,,,TRUE,TRUE,,,,,,,SCT,2700,BKN,3800,OVC,5000,,,VFR,,,,,,,,,,,,SPECI,167.0
KMPZ 120735Z AUTO 32021G31KT 10SM BKN049 M13/M19 A3037 RMK AO2 T11271186,KMPZ,2015-02-12T07:35:00Z,40.95,-91.52,-12.7,-18.6,320,21,31,10.0,30.369095,,,TRUE,TRUE,,,,,,,BKN,4900,,,,,,,VFR,,,,,,,,,,,,SPECI,224.0
KMLJ 120735Z AUTO 28003KT 10SM CLR 07/03 A2998 RMK AO2,KMLJ,2015-02-12T07:35:00Z,33.15,-83.23,7.0,3.0,280,3,,10.0,29.97933,,,TRUE,TRUE,,,,,,,CLR,,,,,,,,VFR,,,,,,,,,,,,SPECI,117.0
KMLE 120735Z AUTO 35007G19KT 320V030 10SM CLR M11/M19 A3059 RMK AO2 T11111191,KMLE,2015-02-12T07:35:00Z,41.2,-96.12,-11.1,-19.1,350,7,19,10.0,30.590551,,,TRUE,TRUE,,,,,,,CLR,,,,,,,,VFR,,,,,,,,,,,,SPECI,320.0
KLXN 120735Z AUTO 04015KT 10SM OVC027 M03/M08 A3049 RMK AO2 T10351079,KLXN,2015-02-12T07:35:00Z,40.78,-99.77,-3.5,-7.9,40,15,,10.0,30.490158,,,TRUE,TRUE,,,,,,,OVC,2700,,,,,,,MVFR,,,,,,,,,,,,SPECI,734.0
KLSB 120735Z AUTO 15012KT 10SM CLR 05/00 A3031 RMK AO2,KLSB,2015-02-12T07:35:00Z,32.33,-108.7,5.0,0.0,150,12,,10.0,30.31004,,,TRUE,TRUE,,,,,,,CLR,,,,,,,,VFR,,,,,,,,,,,,SPECI,1307.0
KLRU 120735Z AUTO 00000KT 10SM CLR 03/M02 A3035 RMK AO2 T00331021,KLRU,2015-02-12T07:35:00Z,32.27,-106.92,3.3,-2.1,0,0,,10.0,30.351377,,,TRUE,TRUE,,,,,,,CLR,,,,,,,,VFR,,,,,,,,,,,,SPECI,1358.0
KLRJ 120735Z AUTO 35014G22KT 10SM CLR M14/M19 A3062 RMK AO2,KLRJ,2015-02-12T07:35:00Z,42.77,-96.2,-14.0,-19.0,350,14,22,10.0,30.620079,,,TRUE,TRUE,,,,,,,CLR,,,,,,,,VFR,,,,,,,,,,,,SPECI,365.0
KLKU 120735Z AUTO 00000KT 10SM CLR M03/M04 A2983 RMK AO2,KLKU,2015-02-12T07:35:00Z,38.02,-77.97,-3.0,-4.0,0,0,,10.0,29.828741,,,TRUE,TRUE,,,,,,,CLR,,,,,,,,VFR,,,,,,,,,,,,SPECI,150.0
KLGC 120735Z AUTO 00000KT 10SM CLR 02/01 A3003 RMK AO2 T00230011,KLGC,2015-02-12T07:35:00Z,33.0,-85.07,2.3,1.1,0,0,,10.0,30.029528,,,TRUE,TRUE,,,,,,,CLR,,,,,,,,VFR,,,,,,,,,,,,SPECI,211.0
KLCQ 120735Z AUTO 24003KT 10SM CLR 06/06 A3004 RMK AO2,KLCQ,2015-02-12T07:35:00Z,30.18,-82.58,6.0,6.0,240,3,,10.0,30.041338,,,TRUE,TRUE,,,,,,,CLR,,,,,,,,VFR,,,,,,,,,,,,SPECI,61.0
KLCK 120735Z AUTO 29005KT 7SM -SN SCT013 SCT020 OVC025 M01/M02 A2995 RMK AO2 T10101025,KLCK,2015-02-12T07:35:00Z,39.82,-82.92,-1.0,-2.5,290,5,,7.0,29.949802,,,TRUE,TRUE,,,,,,-SN,SCT,1300,SCT,2000,OVC,2500,,,MVFR,,,,,,,,,,,,SPECI,227.0
KLCG 120735Z AUTO 35013G18KT 10SM CLR M14/M19 A3060 RMK AO2 T11381191,KLCG,2015-02-12T07:35:00Z,42.25,-96.98,-13.8,-19.1,350,13,18,10.0,30.59941,,,TRUE,TRUE,,,,,,,CLR,,,,,,,,VFR,,,,,,,,,,,,SPECI,436.0
KENL 120735Z AUTO 31009KT 10SM BKN027 OVC060 M03/M07 A3022 RMK AO2 T10281075,KENL,2015-02-12T07:35:00Z,38.52,-89.1,-2.8,-7.5,310,9,,10.0,30.221457,,,TRUE,TRUE,,,,,,,BKN,2700,OVC,6000,,,,,MVFR,,,,,,,,,,,,SPECI,163.0
KEMV 120735Z AUTO 00000KT 10SM CLR M01/M02 A2991 RMK AO2,KEMV,2015-02-12T07:35:00Z,36.68,-77.48,-1.0,-2.0,0,0,,10.0,29.911417,,,TRUE,TRUE,,,,,,,CLR,,,,,,,,VFR,,,,,,,,,,,,SPECI,39.0
KE11 120735Z AUTO 02011G16KT 10SM OVC045 05/M03 A3043 RMK AO2 T00451028,KE11,2015-02-12T07:35:00Z,32.33,-102.53,4.5,-2.8,20,11,16,10.0,30.431103,,,TRUE,TRUE,,,,,,,OVC,4500,,,,,,,VFR,,,,,,,,,,,,SPECI,967.0
KDTA 120735Z AUTO 21009KT 10SM CLR M02/M04 A3040 RMK AO1 T10171043,KDTA,2015-02-12T07:35:00Z,39.38,-112.5,-1.7,-4.3,210,9,,10.0,30.398623,,,TRUE,TRUE,,,,,,,CLR,,,,,,,,VFR,,,,,,,,,,,,SPECI,1402.0
KD25 120735Z AUTO 35010G16KT 4SM HZ SCT014 SCT020 OVC034 M17/M20 A3026 RMK AO2 T11671203,KD25,2015-02-12T07:35:00Z,46.12,-89.88,-16.7,-20.3,350,10,16,4.0,30.259842,,,TRUE,TRUE,,,,,,HZ,SCT,1400,SCT,2000,OVC,3400,,,MVFR,,,,,,,,,,,,SPECI,491.0
KCXE 120735Z AUTO 00000KT 10SM CLR 00/00 A2988 RMK AO1 T10011001,KCXE,2015-02-12T07:35:00Z,36.78,-78.5,-0.1,-0.1,0,0,,10.0,29.878937,,,TRUE,TRUE,,,,,,,CLR,,,,,,,,VFR,,,,,,,,,,,,SPECI,153.0
KCWF 120735Z AUTO 00000KT 5SM BR CLR 09/08 A3018 RMK AO2 T00920087,KCWF,2015-02-12T07:35:00Z,30.22,-93.15,9.2,8.7,0,0,,5.0,30.180119,,,TRUE,TRUE,,,,,,BR,CLR,,,,,,,,MVFR,,,,,,,,,,,,SPECI,4.0
KCKP 120735Z AUTO 35010G19KT 10SM CLR M15/M20 A3058 RMK AO2 T11521197,KCKP,2015-02-12T07:35:00Z,42.73,-95.55,-15.2,-19.7,350,10,19,10.0,30.578741,,,TRUE,TRUE,,,,,,,CLR,,,,,,,,VFR,,,,,,,,,,,,SPECI,374.0
KCBK 120735Z AUTO 05012KT 10SM CLR M02/M03 A3041 RMK AO2,KCBK,2015-02-12T07:35:00Z,39.43,-101.05,-2.0,-3.0,50,12,,10.0,30.410433,,,TRUE,TRUE,,,,,,,CLR,,,,,,,,VFR,,,,,,,,,,,,SPECI,971.0
KC75 120735Z AUTO 30018G24KT 10SM UP SCT027 OVC037 M10/M14 A3024 RMK AO2 T11001143,KC75,2015-02-12T07:35:00Z,41.02,-89.38,-10.0,-14.3,300,18,24,10.0,30.239174,,,TRUE,TRUE,,,,,,UP,SCT,2700,OVC,3700,,,,,VFR,,,,,,,,,,,,SPECI,173.0
KC35 120735Z AUTO 35017G24KT 3SM -SN BKN026 BKN031 OVC037 M12/M16 A3027 RMK AO2 T11201163,KC35,2015-02-12T07:35:00Z,43.53,-89.98,-12.0,-16.3,350,17,24,3.0,30.268702,,,TRUE,TRUE,,,,,,-SN,BKN,2600,BKN,3100,OVC,3700,,,MVFR,,,,,,,,,,,,SPECI,276.0
KBQP 120735Z AUTO 00000KT 10SM CLR 03/03 A3020 RMK AO2 T00340027,KBQP,2015-02-12T07:35:00Z,32.75,-91.88,3.4,2.7,0,0,,10.0,30.200787,,,TRUE,TRUE,,,,,,,CLR,,,,,,,,VFR,,,,,,,,,,,,SPECI,51.0
KBMC 120735Z AUTO 00000KT 10SM CLR 01/M01 A3042 RMK AO1 T00071012,KBMC,2015-02-12T07:35:00Z,41.55,-112.07,0.7,-1.2,0,0,,10.0,30.41929,,,TRUE,TRUE,,,,,,,CLR,,,,,,,,VFR,,,,,,,,,,,,SPECI,1288.0
KBKD 120735Z AUTO 02010KT 10SM OVC065 07/M04 A3039 RMK AO2 T00701042,KBKD,2015-02-12T07:35:00Z,32.72,-98.88,7.0,-4.2,20,10,,10.0,30.389763,,,TRUE,TRUE,,,,,,,OVC,6500,,,,,,,VFR,,,,,,,,,,,,SPECI,392.0
KARV 120735Z AUTO 35013G18KT 10SM SCT027 SCT035 M16/M20 A3025 RMK AO2 T11611197,KARV,2015-02-12T07:35:00Z,45.92,-89.72,-16.1,-19.7,350,13,18,10.0,30.250984,,,TRUE,TRUE,,,,,,,SCT,2700,SCT,3500,,,,,VFR,,,,,,,,,,,,SPECI,496.0
KAQR 120735Z AUTO 36008G16KT 10SM OVC100 03/M04 A3040 RMK AO2,KAQR,2015-02-12T07:35:00Z,34.4,-96.15,3.0,-4.0,360,8,16,10.0,30.398623,,,TRUE,TRUE,,,,,,,OVC,10000,,,,,,,VFR,,,,,,,,,,,,SPECI,189.0
KAFO 120735Z AUTO 00000KT 10SM CLR M03/M06 A3042 RMK AO2,KAFO,2015-02-12T07:35:00Z,42.72,-110.95,-3.0,-6.0,0,0,,10.0,30.41929,,,TRUE,TRUE,,,,,,,CLR,,,,,,,,VFR,,,,,,,,,,,,SPECI,1897.0
KACJ 120735Z AUTO 29004KT 10SM CLR 07/02 A3004 RMK AO2,KACJ,2015-02-12T07:35:00Z,32.12,-84.18,7.0,2.0,290,4,,10.0,30.041338,,,TRUE,TRUE,,,,,,,CLR,,,,,,,,VFR,,,,,,,,,,,,SPECI,143.0
K9V9 120735Z AUTO 02007KT 10SM CLR M16/M20 A3065 RMK AO2 T11601198,K9V9,2015-02-12T07:35:00Z,43.77,-99.32,-16.0,-19.8,20,7,,10.0,30.649607,,,TRUE,TRUE,,,,,,,CLR,,,,,,,,VFR,,,,,,,,,,,,SPECI,519.0
K8A0 120735Z AUTO 31005KT 10SM CLR 03/01 A3005 RMK AO2,K8A0,2015-02-12T07:35:00Z,34.23,-86.25,3.0,1.0,310,5,,10.0,30.050198,,,TRUE,TRUE,,,,,,,CLR,,,,,,,,VFR,,,,,,,,,,,,SPECI,315.0
K5R8 120735Z AUTO 00000KT 10SM CLR 08/08 A3017 RMK AO2 T00790079,K5R8,2015-02-12T07:35:00Z,30.43,-93.47,7.9,7.9,0,0,,10.0,30.171259,,,TRUE,TRUE,,,,,,,CLR,,,,,,,,VFR,,,,,,,,,,,,SPECI,24.0
K3N8 120735Z AUTO 36005KT 10SM CLR M26/M28 A3062 RMK AO2 T12591283,K3N8,2015-02-12T07:35:00Z,47.25,-95.88,-25.9,-28.3,360,5,,10.0,30.620079,,,TRUE,TRUE,,,,,,,CLR,,,,,,,,VFR,,,,,,,,,,,,SPECI,383.0
K3K3 120735Z AUTO 29004KT 10SM CLR M01/M06 A3040 RMK AO2,K3K3,2015-02-12T07:35:00Z,38.0,-101.75,-1.0,-6.0,290,4,,10.0,30.398623,,,TRUE,TRUE,,,,,,,CLR,,,,,,,,VFR,,,,,,,,,,,,METAR,1013.0
K1F0 120735Z AUTO 04015G20KT 10SM OVC100 03/M03 A3036 RMK AO2,K1F0,2015-02-12T07:35:00Z,34.15,-97.12,3.0,-3.0,40,15,20,10.0,30.360237,,,TRUE,TRUE,,,,,,,OVC,10000,,,,,,,VFR,,,,,,,,,,,,SPECI,257.0
K1A6 120735Z AUTO 30004KT 10SM OVC027 05/00 A3001 RMK AO2 T00480000,K1A6,2015-02-12T07:35:00Z,36.62,-83.73,4.8,0.0,300,4,,10.0,30.008858,,,TRUE,TRUE,,,,,,,OVC,2700,,,,,,,MVFR,,,,,,,,,,,,SPECI,352.0
KTIF 120735Z AUTO 04010KT 7SM OVC010 M08/M10 A3051 RMK AO2 T10811099,KTIF,2015-02-12T07:35:00Z,41.97,-100.57,-8.1,-9.9,40,10,,7.0,30.510826,,,TRUE,TRUE,,,,,,,OVC,1000,,,,,,,MVFR,,,,,,,,,,,,SPECI,892.0
KTFP 120735Z AUTO 05003KT 10SM BKN015 BKN021 OVC044 15/15 A3015 RMK AO2 T01540149,KTFP,2015-02-12T07:35:00Z,27.92,-97.22,15.4,14.9,50,3,,10.0,30.15059,,,TRUE,TRUE,,,,,,,BKN,1500,BKN,2100,OVC,4400,,,MVFR,,,,,,,,,,,,SPECI,6.0
KTDF 120735Z AUTO 00000KT 10SM CLR M02/M02 A2990 RMK AO2,KTDF,2015-02-12T07:35:00Z,36.28,-78.98,-2.0,-2.0,0,0,,10.0,29.899607,,,TRUE,TRUE,,,,,,,CLR,,,,,,,,VFR,,,,,,,,,,,,SPECI,186.0
KTAZ 120735Z AUTO 31016G26KT 10SM OVC022 M05/M08 A3022 RMK AO2,KTAZ,2015-02-12T07:35:00Z,39.53,-89.33,-5.0,-8.0,310,16,26,10.0,30.221457,,,TRUE,TRUE,,,,,,,OVC,2200,,,,,,,MVFR,,,,,,,,,,,,SPECI,190.0
KT65 120735Z AUTO 00000KT 5SM BR CLR 15/14 A3012 RMK AO2 T01470136,KT65,2015-02-12T07:35:00Z,26.18,-97.97,14.7,13.6,0,0,,5.0,30.121063,,,TRUE,TRUE,,,,,,BR,CLR,,,,,,,,MVFR,,,,,,,,,,,,SPECI,21.0
KT35 120735Z AUTO 02013G20KT 10SM SCT050 BKN065 12/05 A3027 RMK AO2 T01170050,KT35,2015-02-12T07:35:00Z,30.88,-96.97,11.7,5.0,20,13,20,10.0,30.268702,,,TRUE,TRUE,,,,,,,SCT,5000,BKN,6500,,,,,VFR,,,,,,,,,,,,SPECI,123.0
KSYF 120735Z AUTO 06005KT 10SM CLR M02/M06 A3040 RMK AO2 T10171061,KSYF,2015-02-12T07:35:00Z,39.77,-101.8,-1.7,-6.1,60,5,,10.0,30.398623,,,TRUE,TRUE,,,,,,,CLR,,,,,,,,VFR,,,,,,,,,,,,SPECI,1025.0
KSWW 120735Z AUTO 02013G18KT 10SM BKN055 OVC070 06/M05 A3042 RMK AO2 T00571051,KSWW,2015-02-12T07:35:00Z,32.47,-100.47,5.7,-5.1,20,13,18,10.0,30.41929,,,TRUE,TRUE,,,,,,,BKN,5500,OVC,7000,,,,,VFR,,,,,,,,,,,,SPECI,727.0
KSVH 120735Z AUTO 00000KT 10SM CLR 00/M02 A2988 RMK AO2 T10051020,KSVH,2015-02-12T07:35:00Z,35.75,-80.95,-0.5,-2.0,0,0,,10.0,29.878937,,,TRUE,TRUE,,,,,,,CLR,,,,,,,,VFR,,,,,,,,,,,,SPECI,294.0
KSTE 120735Z AUTO 35008KT 10SM SCT034 M15/M21 A3027 RMK AO2 T11501212,KSTE,2015-02-12T07:35:00Z,44.55,-89.53,-15.0,-21.2,350,8,,10.0,30.268702,,,TRUE,TRUE,,,,,,,SCT,3400,,,,,,,VFR,,,,,,,,,,,,SPECI,338.0
KSOA 120735Z AUTO 02013KT 10SM CLR 08/01 A3034 RMK AO2,KSOA,2015-02-12T07:35:00Z,30.58,-100.65,8.0,1.0,20,13,,10.0,30.339567,,,TRUE,TRUE,,,,,,,CLR,,,,,,,,VFR,,,,,,,,,,,,SPECI,652.0
KSNK 120735Z AUTO 02010KT 10SM OVC070 05/M05 A3041 RMK AO2 T00511047 TSNO,KSNK,2015-02-12T07:35:00Z,32.7,-100.95,5.1,-4.7,20,10,,10.0,30.410433,,,TRUE,TRUE,,,TRUE,,,,OVC,7000,,,,,,,VFR,,,,,,,,,,,,SPECI,741.0
KSME 120735Z AUTO 31009G15KT 10SM OVC020 02/M01 A3006 RMK AO2,KSME,2015-02-12T07:35:00Z,37.05,-84.62,2.0,-1.0,310,9,15,10.0,30.059055,,,TRUE,TRUE,,,,,,,OVC,2000,,,,,,,MVFR,,,,,,,,,,,,SPECI,283.0
KSLB 120735Z AUTO 34021KT 10SM CLR M16/M21 A3052 RMK AO2,KSLB,2015-02-12T07:35:00Z,42.6,-95.22,-16.0,-21.0,340,21,,10.0,30.519686,,,TRUE,TRUE,,,,,,,CLR,,,,,,,,VFR,,,,,,,,,,,,SPECI,454.0
KSHL 120735Z AUTO 34015G26KT 10SM CLR M16/M21 A3056 RMK AO2,KSHL,2015-02-12T07:35:00Z,43.22,-95.82,-16.0,-21.0,340,15,26,10.0,30.561024,,,TRUE,TRUE,,,,,,,CLR,,,,,,,,VFR,,,,,,,,,,,,SPECI,432.0
KSFQ 120735Z AUTO 17003KT 10SM CLR M02/M03 A2992 RMK AO2 T10171027,KSFQ,2015-02-12T07:35:00Z,36.68,-76.6,-1.7,-2.7,170,3,,10.0,29.920275,,,TRUE,TRUE,,,,,,,CLR,,,,,,,,VFR,,,,,,,,,,,,SPECI,22.0
KSEZ 120735Z AUTO 07017G27KT 10SM CLR 09/M01 A3030 RMK AO2,KSEZ,2015-02-12T07:35:00Z,34.85,-111.78,9.0,-1.0,70,17,27,10.0,30.301182,,,TRUE,TRUE,,,,,,,CLR,,,,,,,,VFR,,,,,,,,,,,,SPECI,1473.0
KSDA 120735Z AUTO 36017G27KT 10SM FEW025 FEW031 M11/M17 A3057 RMK AO2,KSDA,2015-02-12T07:35:00Z,40.75,-95.42,-11.0,-17.0,360,17,27,10.0,30.569881,,,TRUE,TRUE,,,,,,,FEW,2500,FEW,3100,,,,,VFR,,,,,,,,,,,,SPECI,296.0
KSBO 120735Z AUTO 00000KT 10SM CLR 06/06 A2998 RMK AO2,KSBO,2015-02-12T07:35:00Z,32.62,-82.37,6.0,6.0,0,0,,10.0,29.97933,,,TRUE,TRUE,,,,,,,CLR,,,,,,,,VFR,,,,,,,,,,,,SPECI,100.0
KRUQ 120735Z AUTO 00000KT 10SM CLR M01/M01 A2990 RMK AO2 T10071015,KRUQ,2015-02-12T07:35:00Z,35.65,-80.52,-0.7,-1.5,0,0,,10.0,29.899607,,,TRUE,TRUE,,,,,,,CLR,,,,,,,,VFR,,,,,,,,,,,,SPECI,236.0
KRRL 120735Z AUTO 35010KT 10SM SCT027 SCT033 M16/M21 A3026 RMK AO2 T11591210,KRRL,2015-02-12T07:35:00Z,45.2,-89.72,-15.9,-21.0,350,10,,10.0,30.259842,,,TRUE,TRUE,,,,,,,SCT,2700,SCT,3300,,,,,VFR,,,,,,,,,,,,SPECI,401.0
KRNH 120735Z AUTO 34011KT 10SM CLR M18/M22 A3048 RMK AO2 T11821225,KRNH,2015-02-12T07:35:00Z,45.15,-92.53,-18.2,-22.5,340,11,,10.0,30.481298,,,TRUE,TRUE,,,,,,,CLR,,,,,,,,VFR,,,,,,,,,,,,SPECI,304.0
KRMN 120735Z AUTO 00000KT 10SM BKN065 M02/M02 A2991 RMK AO2 T10161016,KRMN,2015-02-12T07:35:00Z,38.4,-77.45,-1.6,-1.6,0,0,,10.0,29.911417,,,TRUE,TRUE,,,,,,,BKN,6500,,,,,,,VFR,,,,,,,,,,,,SPECI,65.0
KRDK 120735Z AUTO 10SM CLR M12/M18 A3055 RMK AO2,KRDK,2015-02-12T07:35:00Z,41.02,-95.27,-12.0,-18.0,,,,10.0,30.549213,,,TRUE,TRUE,,,,,,,CLR,,,,,,,,VFR,,,,,,,,,,,,SPECI,318.0
KRCR 120735Z AUTO 28008G14KT 7SM -SN SCT022 BKN043 M04/M07 A3005 RMK AO2,KRCR,2015-02-12T07:35:00Z,41.07,-86.18,-4.0,-7.0,280,8,14,7.0,30.050198,,,TRUE,TRUE,,,,,,-SN,SCT,2200,BKN,4300,,,,,VFR,,,,,,,,,,,,SPECI,241.0
KRAS 120735Z AUTO 06004KT 10SM SCT018 BKN029 OVC045 17/16 A3015 RMK AO2 T01700160,KRAS,2015-02-12T07:35:00Z,27.82,-97.08,17.0,16.0,60,4,,10.0,30.15059,,,TRUE,TRUE,,,,,,,SCT,1800,BKN,2900,OVC,4500,,,MVFR,,,,,,,,,,,,SPECI,2.0
KPXE 120735Z AUTO 29003KT 10SM CLR 09/02 A3002 RMK AO2 T00900020,KPXE,2015-02-12T07:35:00Z,32.52,-83.77,9.0,2.0,290,3,,10.0,30.02067,,,TRUE,TRUE,,,,,,,CLR,,,,,,,,VFR,,,,,,,,,,,,SPECI,127.0
KPVW 120735Z AUTO 36008KT 10SM OVC090 03/M02 A3041 RMK AO2 T00301018,KPVW,2015-02-12T07:35:00Z,34.17,-101.72,3.0,-1.8,360,8,,10.0,30.410433,,,TRUE,TRUE,,,,,,,OVC,9000,,,,,,,VFR,,,,,,,,,,,,SPECI,1028.0
KPVB 120735Z AUTO 30012G17KT 5SM BKN018 OVC024 M11/M13 A3025 RMK AO1 T11121135,KPVB,2015-02-12T07:35:00Z,42.68,-90.43,-11.2,-13.5,300,12,17,5.0,30.250984,,,TRUE,TRUE,,,,,,,BKN,1800,OVC,2400,,,,,MVFR,,,,,,,,,,,,SPECI,313.0
KPTB 120735Z AUTO 21004KT 10SM CLR 00/M01 A2988 RMK AO2 T00021008,KPTB,2015-02-12T07:35:00Z,37.17,-77.52,0.2,-0.8,210,4,,10.0,29.878937,,,TRUE,TRUE,,,,,,,CLR,,,,,,,,VFR,,,,,,,,,,,,SPECI,59.0
KPSK 120735Z AUTO 29011G16KT 10SM OVC028 04/M01 A2988 RMK AO2 T00351008,KPSK,2015-02-12T07:35:00Z,37.12,-80.67,3.5,-0.8,290,11,16,10.0,29.878937,,,TRUE,TRUE,,,,,,,OVC,2800,,,,,,,MVFR,,,,,,,,,,,,SPECI,642.0
KPRS 120735Z AUTO 01014G21KT 10SM OVC036 10/02 A3029 RMK AO2 T00960024,KPRS,2015-02-12T07:35:00Z,29.63,-104.35,9.6,2.4,10,14,21,10.0,30.28937,,,TRUE,TRUE,,,,,,,OVC,3600,,,,,,,VFR,,,,,,,,,,,,SPECI,896.0
RJCO 120735Z 32005KT 1500 R14/1800 -SHSN FEW005 BKN010 BKN025 M01/M02 Q1004 RMK 2ST005 5ST010 7CU025 A2967,RJCO,2015-02-12T07:35:00Z,43.12,141.37,-1.0,-2.0,320,5,,0.93,29.64567,,,,,,,,,,-SHSN,FEW,500,BKN,1000,BKN,2500,,,LIFR,,,,,,,,,,,,SPECI,11.0
LTAN 120735Z 13005KT 9999 SCT027 BKN090 M00/M03 Q1013 RESN NOSIG RMK RWY19 15004KT,LTAN,2015-02-12T07:35:00Z,37.97,32.53,0.0,-3.0,130,5,,6.21,29.911417,,,,,,TRUE,,,,,SCT,2700,BKN,9000,,,,,VFR,,,,,,,,,,,,SPECI,1006.0
KY51 120735Z AUTO 35014G23KT 5SM SCT020 BKN027 M14/M17 A3028 RMK AO1 T11371172,KY51,2015-02-12T07:35:00Z,43.58,-90.9,-13.7,-17.2,350,14,23,5.0,30.280512,,,TRUE,TRUE,,,,,,,SCT,2000,BKN,2700,,,,,MVFR,,,,,,,,,,,,SPECI,394.0
KXLL 120735Z AUTO 18005KT 10SM SCT042 OVC048 M01/M06 A2985 RMK AO2,KXLL,2015-02-12T07:35:00Z,40.57,-75.48,-1.0,-6.0,180,5,,10.0,29.84941,,,TRUE,TRUE,,,,,,,SCT,4200,OVC,4800,,,,,VFR,,,,,,,,,,,,SPECI,122.0
KGOP 120735Z AUTO 01007G16KT 10SM CLR 08/02 A3034 RMK AO2,KGOP,2015-02-12T07:35:00Z,31.42,-97.8,8.0,2.0,10,7,16,10.0,30.339567,,,TRUE,TRUE,,,,,,,CLR,,,,,,,,VFR,,,,,,,,,,,,SPECI,276.0
KGGP 120735Z AUTO 30008KT 7SM -SN OVC039 M06/M08 A3008 RMK AO2,KGGP,2015-02-12T07:35:00Z,40.72,-86.37,-6.0,-8.0,300,8,,7.0,30.079725,,,TRUE,TRUE,,,,,,-SN,OVC,3900,,,,,,,VFR,,,,,,,,,,,,SPECI,225.0
KGCD 120735Z AUTO 09008KT 10SM CLR 05/02 A3030 RMK AO2 T00540015,KGCD,2015-02-12T07:35:00Z,44.38,-118.97,5.4,1.5,90,8,,10.0,30.301182,,,TRUE,TRUE,,,,,,,CLR,,,,,,,,VFR,,,,,,,,,,,,SPECI,1127.0
KFWS 120735Z AUTO 36014KT 10SM SCT080 06/M01 A3037 RMK AO2 T00631010,KFWS,2015-02-12T07:35:00Z,32.57,-97.3,6.3,-1.0,360,14,,10.0,30.369095,,,TRUE,TRUE,,,,,,,SCT,8000,,,,,,,VFR,,,,,,,,,,,,SPECI,208.0
KEXX 120735Z AUTO 00000KT 10SM CLR M01/M01 A2989 RMK AO2 T10061014,KEXX,2015-02-12T07:35:00Z,35.78,-80.3,-0.6,-1.4,0,0,,10.0,29.890747,,,TRUE,TRUE,,,,,,,CLR,,,,,,,,VFR,,,,,,,,,,,,SPECI,223.0
KTNU 120735Z AUTO 33022G31KT 10SM SCT017 SCT021 BKN026 M15/M20 A3046 RMK AO2,KTNU,2015-02-12T07:35:00Z,41.67,-93.02,-15.0,-20.0,330,22,31,10.0,30.46063,,,TRUE,TRUE,,,,,,,SCT,1700,SCT,2100,BKN,2600,,,MVFR,,,,,,,,,,,,SPECI,290.0
KJYO 120735Z AUTO 22003KT 10SM OVC050 02/M01 A2986 RMK AO2,KJYO,2015-02-12T07:35:00Z,39.07,-77.57,2.0,-1.0,220,3,,10.0,29.861221,,,TRUE,TRUE,,,,,,,OVC,5000,,,,,,,VFR,,,,,,,,,,,,SPECI,119.0
KJOT 120735Z AUTO 29011KT 10SM SCT075 OVC100 M09/M13 A3016 RMK AO2 T10891132,KJOT,2015-02-12T07:35:00Z,41.52,-88.18,-8.9,-13.2,290,11,,10.0,30.159449,,,TRUE,TRUE,,,,,,,SCT,7500,OVC,10000,,,,,VFR,,,,,,,,,,,,SPECI,177.0
KHWY 120735Z AUTO 00000KT 10SM OVC060 01/M01 A2986 RMK AO2 T00051009,KHWY,2015-02-12T07:35:00Z,38.58,-77.72,0.5,-0.9,0,0,,10.0,29.861221,,,TRUE,TRUE,,,,,,,OVC,6000,,,,,,,VFR,,,,,,,,,,,,SPECI,103.0
KHDC 120735Z AUTO 00000KT 10SM CLR 07/04 A3016 RMK AO2,KHDC,2015-02-12T07:35:00Z,30.52,-90.42,7.0,4.0,0,0,,10.0,30.159449,,,TRUE,TRUE,,,,,,,CLR,,,,,,,,VFR,,,,,,,,,,,,SPECI,13.0
KTRK 120735Z AUTO 00000KT 10SM CLR 00/M01 A3037 RMK AO2,KTRK,2015-02-12T07:35:00Z,39.32,-120.12,0.0,-1.0,0,0,,10.0,30.369095,,,TRUE,TRUE,,,,,,,CLR,,,,,,,,VFR,,,,,,,,,,,,SPECI,1798.0
KUXL 120735Z AUTO 00000KT 3/4SM BR VV005 09/09 A3018 RMK AO2 T00900090,KUXL,2015-02-12T07:35:00Z,30.13,-93.38,9.0,9.0,0,0,,0.75,30.180119,,,TRUE,TRUE,,,,,,BR,OVX,0,,,,,,,LIFR,,,,,,,,,,,500,SPECI,4.0
KUNV 120735Z AUTO 22006KT 7SM OVC020 00/M02 A2977 RMK AO2 T00021016,KUNV,2015-02-12T07:35:00Z,40.85,-77.83,0.2,-1.6,220,6,,7.0,29.769686,,,TRUE,TRUE,,,,,,,OVC,2000,,,,,,,MVFR,,,,,,,,,,,,SPECI,378.0
KUNU 120735Z AUTO 33013G21KT 10SM SCT039 BKN048 OVC090 M11/M17 A3020 RMK AO2 T11131174,KUNU,2015-02-12T07:35:00Z,43.42,-88.7,-11.3,-17.4,330,13,21,10.0,30.200787,,,TRUE,TRUE,,,,,,,SCT,3900,BKN,4800,OVC,9000,,,VFR,,,,,,,,,,,,SPECI,285.0
KUKF 120735Z AUTO 28003KT 10SM CLR 04/M02 A2993 RMK AO2,KUKF,2015-02-12T07:35:00Z,36.22,-81.1,4.0,-2.0,280,3,,10.0,29.929134,,,TRUE,TRUE,,,,,,,CLR,,,,,,,,VFR,,,,,,,,,,,,SPECI,396.0
KUBE 120735Z AUTO 33015KT 10SM CLR M18/M22 A3041 RMK AO2,KUBE,2015-02-12T07:35:00Z,45.5,-91.98,-18.0,-22.0,330,15,,10.0,30.410433,,,TRUE,TRUE,,,,,,,CLR,,,,,,,,VFR,,,,,,,,,,,,SPECI,379.0
KU68 120735Z AUTO 05003KT 10SM SCT120 03/00 A3024 RMK AO2 PWINO,KU68,2015-02-12T07:35:00Z,44.92,-108.45,3.0,0.0,50,3,,10.0,30.239174,,,TRUE,TRUE,,,,,TRUE,,SCT,12000,,,,,,,VFR,,,,,,,,,,,,SPECI,1247.0
KTVI 120735Z AUTO 27003KT 7SM CLR 09/08 A3005 RMK AO2,KTVI,2015-02-12T07:35:00Z,30.9,-83.88,9.0,8.0,270,3,,7.0,30.050198,,,TRUE,TRUE,,,,,,,CLR,,,,,,,,VFR,,,,,,,,,,,,SPECI,80.0
KPRG 120735Z AUTO 32016G22KT 10SM OVC027 M06/M09 A3018 RMK AO2 T10561093,KPRG,2015-02-12T07:35:00Z,39.7,-87.67,-5.6,-9.3,320,16,22,10.0,30.180119,,,TRUE,TRUE,,,,,,,OVC,2700,,,,,,,MVFR,,,,,,,,,,,,SPECI,199.0
KPPA 120735Z AUTO 29006KT 10SM CLR M03/M05 A3043 RMK AO2 T10341048,KPPA,2015-02-12T07:35:00Z,35.62,-101.0,-3.4,-4.8,290,6,,10.0,30.431103,,,TRUE,TRUE,,,,,,,CLR,,,,,,,,VFR,,,,,,,,,,,,SPECI,989.0
KPOY 120735Z AUTO 12008KT 10SM SCT100 01/M03 A3020 RMK AO2,KPOY,2015-02-12T07:35:00Z,44.87,-108.8,1.0,-3.0,120,8,,10.0,30.200787,,,TRUE,TRUE,,,,,,,SCT,10000,,,,,,,VFR,,,,,,,,,,,,SPECI,1552.0
KPNT 120735Z AUTO 30015G25KT 10SM OVC060 M08/M11 A3020 RMK AO2 T10821110,KPNT,2015-02-12T07:35:00Z,40.92,-88.62,-8.2,-11.0,300,15,25,10.0,30.200787,,,TRUE,TRUE,,,,,,,OVC,6000,,,,,,,VFR,,,,,,,,,,,,SPECI,201.0
KPLU 120735Z AUTO 00000KT 10SM FEW065 SCT080 OVC095 09/09 A3023 RMK AO2,KPLU,2015-02-12T07:35:00Z,47.1,-122.28,9.0,9.0,0,0,,10.0,30.230314,,,TRUE,TRUE,,,,,,,FEW,6500,SCT,8000,OVC,9500,,,VFR,,,,,,,,,,,,SPECI,164.0
KPGV 120735Z AUTO 20004KT 7SM CLR 00/M01 A2995 RMK AO2,KPGV,2015-02-12T07:35:00Z,35.62,-77.4,0.0,-1.0,200,4,,7.0,29.949802,,,TRUE,TRUE,,,,,,,CLR,,,,,,,,VFR,,,,,,,,,,,,SPECI,8.0
KPEA 120735Z AUTO 33018G29KT 10SM SCT029 SCT034 M14/M33 A3048 RMK AO2 T11401330,KPEA,2015-02-12T07:35:00Z,41.4,-92.95,-14.0,-33.0,330,18,29,10.0,30.481298,,,TRUE,TRUE,,,,,,,SCT,2900,SCT,3400,,,,,VFR,,,,,,,,,,,,SPECI,270.0
KPBX 120735Z AUTO 25004KT 10SM OVC017 02/M01 A2996 RMK AO2 T00201006,KPBX,2015-02-12T07:35:00Z,37.57,-82.57,2.0,-0.6,250,4,,10.0,29.958662,,,TRUE,TRUE,,,,,,,OVC,1700,,,,,,,MVFR,,,,,,,,,,,,SPECI,449.0
KOZA 120735Z AUTO 03015G20KT 10SM SCT032 08/00 A3034 RMK AO2,KOZA,2015-02-12T07:35:00Z,30.73,-101.2,8.0,0.0,30,15,20,10.0,30.339567,,,TRUE,TRUE,,,,,,,SCT,3200,,,,,,,VFR,,,,,,,,,,,,SPECI,726.0
KOXV 120735Z AUTO 34018G28KT 10SM FEW021 BKN028 M13/M20 A3045 RMK AO2,KOXV,2015-02-12T07:35:00Z,41.28,-93.12,-13.0,-20.0,340,18,28,10.0,30.448818,,,TRUE,TRUE,,,,,,,FEW,2100,BKN,2800,,,,,MVFR,,,,,,,,,,,,SPECI,283.0
KOUN 120735Z AUTO 02012KT 10SM CLR 01/M05 A3044 RMK AO2,KOUN,2015-02-12T07:35:00Z,35.25,-97.47,1.0,-5.0,20,12,,10.0,30.43996,,,TRUE,TRUE,,,,,,,CLR,,,,,,,,VFR,,,,,,,,,,,,SPECI,357.0
KOSA 120735Z AUTO 33010KT 10SM CLR 07/01 A3031 RMK AO1 T00680007,KOSA,2015-02-12T07:35:00Z,33.1,-94.97,6.8,0.7,330,10,,10.0,30.31004,,,TRUE,TRUE,,,,,,,CLR,,,,,,,,VFR,,,,,,,,,,,,SPECI,111.0
KORC 120735Z AUTO 35015G22KT 10SM CLR M15/M20 A3057 RMK AO2,KORC,2015-02-12T07:35:00Z,42.97,-96.07,-15.0,-20.0,350,15,22,10.0,30.569881,,,TRUE,TRUE,,,,,,,CLR,,,,,,,,VFR,,,,,,,,,,,,SPECI,431.0
KOPL 120735Z AUTO 00000KT 10SM CLR 08/07 A3016 RMK AO2 T00750067,KOPL,2015-02-12T07:35:00Z,30.55,-92.1,7.5,6.7,0,0,,10.0,30.159449,,,TRUE,TRUE,,,,,,,CLR,,,,,,,,VFR,,,,,,,,,,,,SPECI,23.0
KOOA 120735Z AUTO 34024G31KT 10SM SCT029 SCT070 BKN100 M14/M18 A3043 RMK AO2 T11361185,KOOA,2015-02-12T07:35:00Z,41.23,-92.5,-13.6,-18.5,340,24,31,10.0,30.431103,,,TRUE,TRUE,,,,,,,SCT,2900,SCT,7000,BKN,10000,,,VFR,,,,,,,,,,,,SPECI,256.0
KONM 120735Z AUTO 34004KT 10SM 04/00 A3043 RMK AO2 T00381005,KONM,2015-02-12T07:35:00Z,34.02,-106.9,3.8,-0.5,340,4,,10.0,30.431103,,,TRUE,TRUE,,,,,,,,,,,,,,,,,,,,,,,,,,,SPECI,1410.0
KONL 120735Z AUTO 36012KT 10SM CLR M13/M16 A3059 RMK AO2 T11321159,KONL,2015-02-12T07:35:00Z,42.47,-98.67,-13.2,-15.9,360,12,,10.0,30.590551,,,TRUE,TRUE,,,,,,,CLR,,,,,,,,VFR,,,,,,,,,,,,SPECI,619.0
KOMH 120735Z AUTO 00000KT 10SM CLR M02/M03 A2986 RMK AO2,KOMH,2015-02-12T07:35:00Z,38.25,-78.05,-2.0,-3.0,0,0,,10.0,29.861221,,,TRUE,TRUE,,,,,,,CLR,,,,,,,,VFR,,,,,,,,,,,,SPECI,142.0
KOLZ 120735Z AUTO 34026G32KT 10SM BKN014 M15/M20 A3037 RMK AO2,KOLZ,2015-02-12T07:35:00Z,42.67,-91.97,-15.0,-20.0,340,26,32,10.0,30.369095,,,TRUE,TRUE,,,,,,,BKN,1400,,,,,,,MVFR,,,,,,,,,,,,SPECI,328.0
KOLY 120735Z AUTO 30010G17KT 10SM OVC022 M02/M06 A3020 RMK AO2,KOLY,2015-02-12T07:35:00Z,38.72,-88.18,-2.0,-6.0,300,10,17,10.0,30.200787,,,TRUE,TRUE,,,,,,,OVC,2200,,,,,,,MVFR,,,,,,,,,,,,SPECI,147.0
KOLG 120735Z AUTO 33007G16KT 10SM OVC025 M17/M22 A3045 RMK AO1,KOLG,2015-02-12T07:35:00Z,46.3,-91.82,-17.0,-22.0,330,7,16,10.0,30.448818,,,TRUE,TRUE,,,,,,,OVC,2500,,,,,,,MVFR,,,,,,,,,,,,SPECI,336.0
KOKM 120735Z AUTO 02006KT 10SM CLR M01/M05 A3044 RMK AO2 T10131055,KOKM,2015-02-12T07:35:00Z,35.67,-95.95,-1.3,-5.5,20,6,,10.0,30.43996,,,TRUE,TRUE,,,,,,,CLR,,,,,,,,VFR,,,,,,,,,,,,SPECI,220.0
KNY0 120735Z AUTO 00000KT 10SM OVC018 M08/M13 A2975 RMK AO2 T10801127,KNY0,2015-02-12T07:35:00Z,42.98,-74.33,-8.0,-12.7,0,0,,10.0,29.749016,,,TRUE,TRUE,,,,,,,OVC,1800,,,,,,,MVFR,,,,,,,,,,,,SPECI,271.0
KMWK 120735Z AUTO 00000KT 10SM CLR 05/M01 A2990 RMK AO2 T00451011,KMWK,2015-02-12T07:35:00Z,36.47,-80.55,4.5,-1.1,0,0,,10.0,29.899607,,,TRUE,TRUE,,,,,,,CLR,,,,,,,,VFR,,,,,,,,,,,,SPECI,380.0
KMWC 120735Z AUTO 35016G21KT 10SM BKN035 OVC075 M10/M17 A3018 RMK AO2,KMWC,2015-02-12T07:35:00Z,43.12,-88.03,-10.0,-17.0,350,16,21,10.0,30.180119,,,TRUE,TRUE,,,,,,,BKN,3500,OVC,7500,,,,,VFR,,,,,,,,,,,,SPECI,227.0
KMKJ 120735Z AUTO 28016G23KT 10SM OVC027 04/M02 A2988 RMK AO2 T00351020,KMKJ,2015-02-12T07:35:00Z,36.88,-81.33,3.5,-2.0,280,16,23,10.0,29.878937,,,TRUE,TRUE,,,,,,,OVC,2700,,,,,,,MVFR,,,,,,,,,,,,SPECI,780.0
KMDZ 120735Z AUTO 34009KT 10SM SCT013 OVC027 M16/M19 A3027 RMK AO2 T11601193,KMDZ,2015-02-12T07:35:00Z,45.1,-90.3,-16.0,-19.3,340,9,,10.0,30.268702,,,TRUE,TRUE,,,,,,,SCT,1300,OVC,2700,,,,,MVFR,,,,,,,,,,,,SPECI,448.0
KMDD 120735Z AUTO 36012G16KT 10SM BKN042 OVC065 07/M05 A3043 RMK AO2 T00681047,KMDD,2015-02-12T07:35:00Z,32.03,-102.1,6.8,-4.7,360,12,16,10.0,30.431103,,,TRUE,TRUE,,,,,,,BKN,4200,OVC,6500,,,,,VFR,,,,,,,,,,,,SPECI,854.0
KLWB 120735Z AUTO 25004KT 10SM OVC024 02/M02 A2986 RMK AO2 T00201023,KLWB,2015-02-12T07:35:00Z,37.87,-80.4,2.0,-2.3,250,4,,10.0,29.861221,,,TRUE,TRUE,,,,,,,OVC,2400,,,,,,,MVFR,,,,,,,,,,,,SPECI,702.0
KLNP 120735Z AUTO 26011G17KT 10SM OVC018 02/M02 A2993 RMK AO2,KLNP,2015-02-12T07:35:00Z,36.97,-82.52,2.0,-2.0,260,11,17,10.0,29.929134,,,TRUE,TRUE,,,,,,,OVC,1800,,,,,,,MVFR,,,,,,,,,,,,SPECI,817.0
KLHZ 120735Z AUTO 19004KT 10SM CLR 01/00 A2990 RMK AO2,KLHZ,2015-02-12T07:35:00Z,36.02,-78.33,1.0,0.0,190,4,,10.0,29.899607,,,TRUE,TRUE,,,,,,,CLR,,,,,,,,VFR,,,,,,,,,,,,SPECI,113.0
KL38 120735Z AUTO 00000KT 10SM CLR 09/09 A3014 RMK AO2 T00910085,KL38,2015-02-12T07:35:00Z,30.17,-90.93,9.1,8.5,0,0,,10.0,30.138779,,,TRUE,TRUE,,,,,,,CLR,,,,,,,,VFR,,,,,,,,,,,,SPECI,4.0
KL35 120735Z AUTO 00000KT 10SM CLR M02/M09 A3036 RMK AO2,KL35,2015-02-12T07:35:00Z,34.27,-116.85,-2.0,-9.0,0,0,,10.0,30.360237,,,TRUE,TRUE,,,,,,,CLR,,,,,,,,VFR,,,,,,,,,,,,SPECI,2059.0
KF17 120735Z AUTO 33006KT 10SM CLR 08/05 A3021 RMK AO2 T00820054,KF17,2015-02-12T07:35:00Z,31.83,-94.15,8.2,5.4,330,6,,10.0,30.209646,,,TRUE,TRUE,,,,,,,CLR,,,,,,,,VFR,,,,,,,,,,,,METAR,97.0
K3AU 120735Z AUTO 33003KT 10SM CLR M05/M08 A3044 RMK AO2,K3AU,2015-02-12T07:35:00Z,37.67,-97.08,-5.0,-8.0,330,3,,10.0,30.43996,,,TRUE,TRUE,,,,,,,CLR,,,,,,,,VFR,,,,,,,,,,,,METAR,405.0
KSCR 120735Z AUTO 00000KT 10SM CLR M01/M02 A2989 RMK AO2 T10151018,KSCR,2015-02-12T07:35:00Z,35.7,-79.5,-1.5,-1.8,0,0,,10.0,29.890747,,,TRUE,TRUE,,,,,,,CLR,,,,,,,,VFR,,,,,,,,,,,,SPECI,188.0
KY23 120735Z AUTO 32006G14KT 10SM CLR M18/M22 A3042 RMK AO2 T11771216,KY23,2015-02-12T07:35:00Z,45.3,-91.63,-17.7,-21.6,320,6,14,10.0,30.41929,,,TRUE,TRUE,,,,,,,CLR,,,,,,,,VFR,,,,,,,,,,,,SPECI,322.0
KXSA 120735Z AUTO 17004KT 10SM CLR 00/M04 A2988 RMK AO2 T10051036,KXSA,2015-02-12T07:35:00Z,37.87,-76.9,-0.5,-3.6,170,4,,10.0,29.878937,,,TRUE,TRUE,,,,,,,CLR,,,,,,,,VFR,,,,,,,,,,,,SPECI,42.0
KWWR 120735Z AUTO 23005KT 10SM CLR M03/M06 A3044 RMK AO2,KWWR,2015-02-12T07:35:00Z,36.45,-99.52,-3.0,-6.0,230,5,,10.0,30.43996,,,TRUE,TRUE,,,,,,,CLR,,,,,,,,VFR,,,,,,,,,,,,SPECI,667.0
KW99 120735Z AUTO 26004KT 10SM OVC037 04/M05 A2985 RMK AO2 T00401048,KW99,2015-02-12T07:35:00Z,39.0,-79.15,4.0,-4.8,260,4,,10.0,29.84941,,,TRUE,TRUE,,,,,,,OVC,3700,,,,,,,VFR,,,,,,,,,,,,SPECI,293.0
KW81 120735Z AUTO 00000KT 10SM CLR M01/M02 A2985 RMK AO1 T10091022,KW81,2015-02-12T07:35:00Z,37.18,-78.1,-0.9,-2.2,0,0,,10.0,29.84941,,,TRUE,TRUE,,,,,,,CLR,,,,,,,,VFR,,,,,,,,,,,,SPECI,129.0
KW78 120735Z AUTO 00000KT 10SM CLR M01/M02 A2988 RMK AO1 T10081025,KW78,2015-02-12T07:35:00Z,36.68,-78.85,-0.8,-2.5,0,0,,10.0,29.878937,,,TRUE,TRUE,,,,,,,CLR,,,,,,,,VFR,,,,,,,,,,,,SPECI,129.0
KW22 120735Z AUTO 23006KT 3SM -SN M01/M01 A2987 RMK AO2,KW22,2015-02-12T07:35:00Z,39.0,-80.27,-1.0,-1.0,230,6,,3.0,29.870079,,,TRUE,TRUE,,,,,,-SN,,,,,,,,,,,,,,,,,,,,,SPECI,499.0
KVYS 120735Z AUTO 31018G25KT 3SM HZ SCT037 OVC060 M09/M12 A3022 RMK AO2 T10901120,KVYS,2015-02-12T07:35:00Z,41.35,-89.15,-9.0,-12.0,310,18,25,3.0,30.221457,,,TRUE,TRUE,,,,,,HZ,SCT,3700,OVC,6000,,,,,MVFR,,,,,,,,,,,,SPECI,199.0
KVUJ 120735Z AUTO 00000KT 10SM CLR M01/M01 A2994 RMK AO2 T10111011,KVUJ,2015-02-12T07:35:00Z,35.42,-80.15,-1.1,-1.1,0,0,,10.0,29.940945,,,TRUE,TRUE,,,,,,,CLR,,,,,,,,VFR,,,,,,,,,,,,SPECI,186.0
KVBW 120735Z AUTO 31007KT 10SM OVC040 05/M02 A2982 RMK AO2 T00461020,KVBW,2015-02-12T07:35:00Z,38.37,-78.97,4.6,-2.0,310,7,,10.0,29.819881,,,TRUE,TRUE,,,,,,,OVC,4000,,,,,,,VFR,,,,,,,,,,,,METAR,355.0
K5H4 120735Z AUTO 22006KT 10SM CLR M25/M27 A3065 RMK AO2,K5H4,2015-02-12T07:35:00Z,47.78,-99.93,-25.0,-27.0,220,6,,10.0,30.649607,,,TRUE,TRUE,,,,,,,CLR,,,,,,,,VFR,,,,,,,,,,,,SPECI,490.0
K7L2 120735Z AUTO 08007KT 10SM CLR M20/M22 A3063 RMK AO2,K7L2,2015-02-12T07:35:00Z,46.22,-100.25,-20.0,-22.0,80,7,,10.0,30.628937,,,TRUE,TRUE,,,,,,,CLR,,,,,,,,VFR,,,,,,,,,,,,SPECI,543.0
KCKM 120735Z AUTO 35015G22KT 10SM FEW044 04/00 A3026 RMK AO1,KCKM,2015-02-12T07:35:00Z,34.3,-90.52,4.0,0.0,350,15,22,10.0,30.259842,,,TRUE,TRUE,,,,,,,FEW,4400,,,,,,,VFR,,,,,,,,,,,,SPECI,53.0
KEOE 120735Z AUTO 24004KT 10SM CLR 03/02 A2994 RMK AO2,KEOE,2015-02-12T07:35:00Z,34.32,-81.63,3.0,2.0,240,4,,10.0,29.940945,,,TRUE,TRUE,,,,,,,CLR,,,,,,,,VFR,,,,,,,,,,,,SPECI,174.0
KVNC 120735Z AUTO 07005KT 10SM CLR 09/09 A3007 RMK AO2,KVNC,2015-02-12T07:35:00Z,27.07,-82.43,9.0,9.0,70,5,,10.0,30.070866,,,TRUE,TRUE,,,,,,,CLR,,,,,,,,VFR,,,,,,,,,,,,SPECI,6.0
KGYH 120735Z AUTO 30005KT 10SM CLR 00/00 A2991 RMK AO2,KGYH,2015-02-12T07:35:00Z,34.75,-82.38,0.0,0.0,300,5,,10.0,29.911417,,,TRUE,TRUE,,,,,,,CLR,,,,,,,,VFR,,,,,,,,,,,,SPECI,292.0
KASJ 120735Z AUTO 17004KT 10SM CLR M03/M03 A2992 RMK AO2 T10261035,KASJ,2015-02-12T07:35:00Z,36.28,-77.17,-2.6,-3.5,170,4,,10.0,29.920275,,,TRUE,TRUE,,,,,,,CLR,,,,,,,,VFR,,,,,,,,,,,,SPECI,21.0
KACP 120735Z AUTO 00000KT 7SM CLR 05/04 A3018 RMK AO2 T00480041,KACP,2015-02-12T07:35:00Z,30.75,-92.68,4.8,4.1,0,0,,7.0,30.180119,,,TRUE,TRUE,,,,,,,CLR,,,,,,,,VFR,,,,,,,,,,,,SPECI,33.0
K2J9 120735Z AUTO 29003KT 10SM BKN015 OVC050 05/04 A3007 RMK AO1,K2J9,2015-02-12T07:35:00Z,30.6,-84.55,5.0,4.0,290,3,,10.0,30.070866,,,TRUE,TRUE,,,,,,,BKN,1500,OVC,5000,,,,,MVFR,,,,,,,,,,,,SPECI,69.0
K2C8 120735Z AUTO 32008KT 10SM CLR M23/M26 A3074 RMK AO2,K2C8,2015-02-12T07:35:00Z,48.78,-97.63,-23.0,-26.0,320,8,,10.0,30.741142,,,TRUE,TRUE,,,,,,,CLR,,,,,,,,VFR,,,,,,,,,,,,SPECI,272.0
K28J 120735Z AUTO 00000KT 9SM BKN027 03/03 A3005 RMK AO2,K28J,2015-02-12T07:35:00Z,29.65,-81.58,3.0,3.0,0,0,,9.0,30.050198,,,TRUE,TRUE,,,,,,,BKN,2700,,,,,,,MVFR,,,,,,,,,,,,SPECI,15.0
KAZE 120735Z AUTO 23004KT 10SM CLR 09/08 A2999 RMK AO2 T00900075,KAZE,2015-02-12T07:35:00Z,31.88,-82.65,9.0,7.5,230,4,,10.0,29.991142,,,TRUE,TRUE,,,,,,,CLR,,,,,,,,VFR,,,,,,,,,,,,SPECI,78.0
KRHP 120735Z AUTO 00000KT 10SM CLR M03/M03 A2999 RMK AO2 T10281031,KRHP,2015-02-12T07:35:00Z,35.18,-83.85,-2.8,-3.1,0,0,,10.0,29.991142,,,TRUE,TRUE,,,,,,,CLR,,,,,,,,VFR,,,,,,,,,,,,METAR,518.0
KRFI 120735Z AUTO 34006KT 10SM CLR 09/04 A3026 RMK AO2 T00880042,KRFI,2015-02-12T07:35:00Z,32.15,-94.85,8.8,4.2,340,6,,10.0,30.259842,,,TRUE,TRUE,,,,,,,CLR,,,,,,,,VFR,,,,,,,,,,,,METAR,135.0
KPYX 120735Z AUTO 25005KT 10SM CLR M05/M07 A3041 RMK AO2 T10461070,KPYX,2015-02-12T07:35:00Z,36.42,-100.75,-4.6,-7.0,250,5,,10.0,30.410433,,,TRUE,TRUE,,,,,,,CLR,,,,,,,,VFR,,,,,,,,,,,,METAR,889.0
KBWP 120735Z AUTO 32013KT 10SM OVC010 M21/M25 A3070 RMK AO1,KBWP,2015-02-12T07:35:00Z,46.25,-96.62,-21.0,-25.0,320,13,,10.0,30.699802,,,TRUE,TRUE,,,,,,,OVC,1000,,,,,,,MVFR,,,,,,,,,,,,SPECI,295.0
KCCA 120735Z AUTO 34005KT 9SM CLR 01/M05 A3036 RMK AO2,KCCA,2015-02-12T07:35:00Z,35.6,-92.45,1.0,-5.0,340,5,,9.0,30.360237,,,TRUE,TRUE,,,,,,,CLR,,,,,,,,VFR,,,,,,,,,,,,SPECI,157.0
KLNL 120735Z AUTO 36010G15KT 7SM OVC032 M17/M20 A3024 RMK AO2 T11701200,KLNL,2015-02-12T07:35:00Z,46.15,-89.22,-17.0,-20.0,360,10,15,7.0,30.239174,,,TRUE,TRUE,,,,,,,OVC,3200,,,,,,,VFR,,,,,,,,,,,,SPECI,520.0
KJES 120735Z AUTO 00000KT 7SM CLR 04/03 A3001 RMK AO2,KJES,2015-02-12T07:35:00Z,31.55,-81.88,4.0,3.0,0,0,,7.0,30.008858,,,TRUE,TRUE,,,,,,,CLR,,,,,,,,VFR,,,,,,,,,,,,SPECI,33.0
KIYA 120735Z AUTO 29003KT 4SM BR CLR 08/08 A3015 RMK AO2 T00820081,KIYA,2015-02-12T07:35:00Z,29.98,-92.08,8.2,8.1,290,3,,4.0,30.15059,,,TRUE,TRUE,,,,,,BR,CLR,,,,,,,,MVFR,,,,,,,,,,,,SPECI,5.0
KHRX 120735Z AUTO 34008KT 10SM CLR M03/M04 A3045 RMK AO2 T10271040,KHRX,2015-02-12T07:35:00Z,34.87,-102.33,-2.7,-4.0,340,8,,10.0,30.448818,,,TRUE,TRUE,,,,,,,CLR,,,,,,,,VFR,,,,,,,,,,,,SPECI,1154.0
KHII 120735Z AUTO 33007KT 10SM CLR 19/M04 A3018 RMK AO2,KHII,2015-02-12T07:35:00Z,34.57,-114.37,19.0,-4.0,330,7,,10.0,30.180119,,,TRUE,TRUE,,,,,,,CLR,,,,,,,,VFR,,,,,,,,,,,,SPECI,238.0
KHHG 120735Z AUTO 28009KT 7SM -SN SCT016 SCT023 OVC044 M04/M08 A3001 RMK AO2 T10411082,KHHG,2015-02-12T07:35:00Z,40.85,-85.45,-4.1,-8.2,280,9,,7.0,30.008858,,,TRUE,TRUE,,,,,,-SN,SCT,1600,SCT,2300,OVC,4400,,,VFR,,,,,,,,,,,,SPECI,246.0
KHFJ 120735Z AUTO 35005KT 10SM CLR M04/M07 A3036 RMK AO2,KHFJ,2015-02-12T07:35:00Z,36.9,-94.02,-4.0,-7.0,350,5,,10.0,30.360237,,,TRUE,TRUE,,,,,,,CLR,,,,,,,,VFR,,,,,,,,,,,,SPECI,401.0
KGVE 120735Z AUTO 00000KT 10SM CLR M03/M05 A2984 RMK AO1 T10351050,KGVE,2015-02-12T07:35:00Z,38.15,-78.17,-3.5,-5.0,0,0,,10.0,29.840551,,,TRUE,TRUE,,,,,,,CLR,,,,,,,,VFR,,,,,,,,,,,,SPECI,138.0
KFZG 120735Z AUTO 26003KT 10SM CLR 09/06 A3003 RMK AO2 T00880056,KFZG,2015-02-12T07:35:00Z,31.68,-83.27,8.8,5.6,260,3,,10.0,30.029528,,,TRUE,TRUE,,,,,,,CLR,,,,,,,,VFR,,,,,,,,,,,,SPECI,111.0
KFXY 120735Z AUTO 33018G24KT 10SM CLR M16/M21 A3046 RMK AO2,KFXY,2015-02-12T07:35:00Z,43.23,-93.62,-16.0,-21.0,330,18,24,10.0,30.46063,,,TRUE,TRUE,,,,,,,CLR,,,,,,,,VFR,,,,,,,,,,,,SPECI,375.0
KEFT 120735Z AUTO 33009G16KT 4SM -SN SCT018 BKN025 OVC034 M10/M12 A3019 RMK AO2,KEFT,2015-02-12T07:35:00Z,42.62,-89.6,-10.0,-12.0,330,9,16,4.0,30.188976,,,TRUE,TRUE,,,,,,-SN,SCT,1800,BKN,2500,OVC,3400,,,MVFR,,,,,,,,,,,,SPECI,331.0
KDNN 120735Z AUTO 00000KT 10SM CLR 02/00 A3003 RMK AO2,KDNN,2015-02-12T07:35:00Z,34.72,-84.87,2.0,0.0,0,0,,10.0,30.029528,,,TRUE,TRUE,,,,,,,CLR,,,,,,,,VFR,,,,,,,,,,,,SPECI,216.0
KDED 120735Z AUTO 00000KT 10SM CLR A3006 RMK AO1,KDED,2015-02-12T07:35:00Z,29.07,-81.28,,,0,0,,10.0,30.059055,,,TRUE,TRUE,,,,,,,CLR,,,,,,,,VFR,,,,,,,,,,,,SPECI,24.0
KDCY 120735Z AUTO 30013KT 10SM OVC025 M03/M09 A3015 RMK AO2 T10271088,KDCY,2015-02-12T07:35:00Z,38.7,-87.13,-2.7,-8.8,300,13,,10.0,30.15059,,,TRUE,TRUE,,,,,,,OVC,2500,,,,,,,MVFR,,,,,,,,,,,,SPECI,144.0
KTBR 120735Z AUTO 00000KT 10SM CLR 03/03 A2997 RMK AO2 T00260026,KTBR,2015-02-12T07:35:00Z,32.48,-81.73,2.6,2.6,0,0,,10.0,29.970472,,,TRUE,TRUE,,,,,,,CLR,,,,,,,,VFR,,,,,,,,,,,,SPECI,57.0
KSUW 120735Z AUTO 35008G14KT 10SM CLR M18/M23 A3054 RMK AO2 T11841235,KSUW,2015-02-12T07:35:00Z,46.68,-92.1,-18.4,-23.5,350,8,14,10.0,30.540354,,,TRUE,TRUE,,,,,,,CLR,,,,,,,,VFR,,,,,,,,,,,,SPECI,206.0
KSRR 120735Z AUTO 17007KT 10SM OVC018 M02/M03 A3045 RMK AO2,KSRR,2015-02-12T07:35:00Z,33.47,-105.52,-2.0,-3.0,170,7,,10.0,30.448818,,,TRUE,TRUE,,,,,,,OVC,1800,,,,,,,MVFR,,,,,,,,,,,,SPECI,2076.0
KSEE 120735Z AUTO 00000KT 10SM CLR 11/00 A3006 RMK AO2,KSEE,2015-02-12T07:35:00Z,32.82,-116.97,11.0,0.0,0,0,,10.0,30.059055,,,TRUE,TRUE,,,,,,,CLR,,,,,,,,VFR,,,,,,,,,,,,SPECI,117.0
KRYV 120735Z AUTO 33011G16KT 10SM SCT025 SCT043 OVC100 M11/M17 A3019 RMK AO2 T11071170,KRYV,2015-02-12T07:35:00Z,43.17,-88.72,-10.7,-17.0,330,11,16,10.0,30.188976,,,TRUE,TRUE,,,,,,,SCT,2500,SCT,4300,OVC,10000,,,VFR,,,,,,,,,,,,SPECI,254.0
KPNA 120735Z AUTO 29004KT 10SM SCT100 SCT120 M08/M10 A3039 RMK AO2,KPNA,2015-02-12T07:35:00Z,42.8,-109.8,-8.0,-10.0,290,4,,10.0,30.389763,,,TRUE,TRUE,,,,,,,SCT,10000,SCT,12000,,,,,VFR,,,,,,,,,,,,SPECI,2160.0
KOCQ 120735Z AUTO 33010KT 10SM CLR M14/M21 A3023 RMK AO1 T11421211,KOCQ,2015-02-12T07:35:00Z,44.87,-87.92,-14.2,-21.1,330,10,,10.0,30.230314,,,TRUE,TRUE,,,,,,,CLR,,,,,,,,VFR,,,,,,,,,,,,SPECI,183.0
KMZZ 120735Z AUTO 29015KT 7SM -SN OVC016 M05/M07 A3004 RMK AO2 T10471074,KMZZ,2015-02-12T07:35:00Z,40.48,-85.68,-4.7,-7.4,290,15,,7.0,30.041338,,,TRUE,TRUE,,,,,,-SN,OVC,1600,,,,,,,MVFR,,,,,,,,,,,,SPECI,262.0
KMYZ 120735Z AUTO 36016G25KT 10SM OVC032 M03/M08 A3050 RMK AO2,KMYZ,2015-02-12T07:35:00Z,39.25,-96.63,-3.0,-8.0,360,16,25,10.0,30.499016,,,TRUE,TRUE,,,,,,,OVC,3200,,,,,,,VFR,,,,,,,,,,,,SPECI,319.0
KMTV 120735Z AUTO 00000KT 10SM CLR M02/M02 A2991 RMK AO2 T10181018,KMTV,2015-02-12T07:35:00Z,36.63,-80.02,-1.8,-1.8,0,0,,10.0,29.911417,,,TRUE,TRUE,,,,,,,CLR,,,,,,,,VFR,,,,,,,,,,,,SPECI,287.0
KMNE 120735Z AUTO 34005KT 10SM CLR 07/05 A3022 RMK AO2 T00720052,KMNE,2015-02-12T07:35:00Z,32.65,-93.3,7.2,5.2,340,5,,10.0,30.221457,,,TRUE,TRUE,,,,,,,CLR,,,,,,,,VFR,,,,,,,,,,,,SPECI,85.0
KMGC 120735Z AUTO 31009G15KT 3SM -SN BKN016 OVC023 M05/M10 A3008 RMK AO2,KMGC,2015-02-12T07:35:00Z,41.7,-86.82,-5.0,-10.0,310,9,15,3.0,30.079725,,,TRUE,TRUE,,,,,,-SN,BKN,1600,OVC,2300,,,,,MVFR,,,,,,,,,,,,SPECI,200.0
KLOT 120735Z AUTO 35016G22KT 10SM SCT030 BKN080 OVC100 M08/M14 A3015 RMK AO2 T10831138,KLOT,2015-02-12T07:35:00Z,41.6,-88.1,-8.3,-13.8,350,16,22,10.0,30.15059,,,TRUE,TRUE,,,,,,,SCT,3000,BKN,8000,OVC,10000,,,VFR,,,,,,,,,,,,SPECI,205.0
KWDG 120735Z AUTO 33003KT 10SM CLR M03/M06 A3043 RMK AO2,KWDG,2015-02-12T07:35:00Z,36.37,-97.77,-3.0,-6.0,330,3,,10.0,30.431103,,,TRUE,TRUE,,,,,,,CLR,,,,,,,,VFR,,,,,,,,,,,,SPECI,356.0
KVVG 120735Z AUTO 00000KT 5SM BR 06/06 A2996 RMK A01,KVVG,2015-02-12T07:35:00Z,28.95,-81.97,6.0,6.0,0,0,,5.0,29.958662,,,TRUE,TRUE,,,,,,BR,,,,,,,,,,,,,,,,,,,,,SPECI,27.0
KVER 120735Z AUTO 31010G14KT 10SM OVC036 M01/M07 A3034 RMK AO2 T10151072,KVER,2015-02-12T07:35:00Z,38.95,-92.68,-1.5,-7.2,310,10,14,10.0,30.339567,,,TRUE,TRUE,,,,,,,OVC,3600,,,,,,,VFR,,,,,,,,,,,,SPECI,218.0
KUES 120735Z AUTO 33012G19KT 10SM BKN034 BKN075 BKN080 M11/M17 A3017 RMK AO2,KUES,2015-02-12T07:35:00Z,43.05,-88.25,-11.0,-17.0,330,12,19,10.0,30.171259,,,TRUE,TRUE,,,,,,,BKN,3400,BKN,7500,BKN,8000,,,VFR,,,,,,,,,,,,SPECI,278.0
KTMA 120735Z AUTO 00000KT 10SM CLR 07/05 A3002 RMK AO2,KTMA,2015-02-12T07:35:00Z,31.43,-83.48,7.0,5.0,0,0,,10.0,30.02067,,,TRUE,TRUE,,,,,,,CLR,,,,,,,,VFR,,,,,,,,,,,,SPECI,109.0
KY49 120735Z AUTO 32004KT 10SM CLR M23/M26 A3058 RMK AO2 T12341260,KY49,2015-02-12T07:35:00Z,47.13,-94.65,-23.4,-26.0,320,4,,10.0,30.578741,,,TRUE,TRUE,,,,,,,CLR,,,,,,,,VFR,,,,,,,,,,,,SPECI,416.0
KY19 120735Z AUTO 13004KT 10SM CLR M20/M23 A3062 RMK AO2,KY19,2015-02-12T07:35:00Z,46.77,-100.9,-20.0,-23.0,130,4,,10.0,30.620079,,,TRUE,TRUE,,,,,,,CLR,,,,,,,,VFR,,,,,,,,,,,,SPECI,593.0
K06D 120735Z AUTO 25003KT M28/M30 RMK AO2 PWINO PNO TSNO,K06D,2015-02-12T07:35:00Z,48.88,-99.62,-28.0,-30.0,250,3,,,,,,TRUE,TRUE,,,TRUE,,TRUE,,,,,,,,,,,,,,,,,,,,,,SPECI,556.0
K3T5 120735Z AUTO 02008KT 10SM BKN020 16/12 A3020 RMK AO2 T01600118,K3T5,2015-02-12T07:35:00Z,29.9,-96.95,16.0,11.8,20,8,,10.0,30.200787,,,TRUE,TRUE,,,,,,,BKN,2000,,,,,,,MVFR,,,,,,,,,,,,SPECI,99.0
KAIG 120735Z AUTO 35012KT 10SM SCT025 M17/M21 A3021 RMK AO2 T11751213,KAIG,2015-02-12T07:35:00Z,45.15,-89.12,-17.5,-21.3,350,12,,10.0,30.209646,,,TRUE,TRUE,,,,,,,SCT,2500,,,,,,,VFR,,,,,,,,,,,,SPECI,464.0
KANK 120735Z AUTO 32003KT 10SM CLR M05/M07 A3049 RMK AO1 T10501069,KANK,2015-02-12T07:35:00Z,38.53,-106.05,-5.0,-6.9,320,3,,10.0,30.490158,,,TRUE,TRUE,,,,,,,CLR,,,,,,,,VFR,,,,,,,,,,,,SPECI,2293.0
KBUU 120735Z AUTO 33014G19KT 10SM SCT036 M10/M16 A3017 RMK AO2 T11051160,KBUU,2015-02-12T07:35:00Z,42.68,-88.3,-10.5,-16.0,330,14,19,10.0,30.171259,,,TRUE,TRUE,,,,,,,SCT,3600,,,,,,,VFR,,,,,,,,,,,,SPECI,237.0
KDKR 120735Z AUTO 35006KT 10SM SCT055 12/08 A3026 RMK AO2,KDKR,2015-02-12T07:35:00Z,31.3,-95.4,12.0,8.0,350,6,,10.0,30.259842,,,TRUE,TRUE,,,,,,,SCT,5500,,,,,,,VFR,,,,,,,,,,,,SPECI,106.0
KFGX 120735Z AUTO 31013KT 7SM SCT013 OVC020 M01/M03 A3002 RMK AO2 T10081026,KFGX,2015-02-12T07:35:00Z,38.55,-83.75,-0.8,-2.6,310,13,,7.0,30.02067,,,TRUE,TRUE,,,,,,,SCT,1300,OVC,2000,,,,,MVFR,,,,,,,,,,,,SPECI,278.0
KUOX 120735Z AUTO 35009G17KT 10SM CLR 03/M01 A3022 RMK AO2 PWINO PNO,KUOX,2015-02-12T07:35:00Z,34.38,-89.53,3.0,-1.0,350,9,17,10.0,30.221457,,,TRUE,TRUE,,,,,TRUE,,CLR,,,,,,,,VFR,,,,,,,,,,,,SPECI,137.0
KTSP 120735Z AUTO 10010KT 10SM CLR 10/M08 A3029 RMK AO2,KTSP,2015-02-12T07:35:00Z,35.13,-118.43,10.0,-8.0,100,10,,10.0,30.28937,,,TRUE,TRUE,,,,,,,CLR,,,,,,,,VFR,,,,,,,,,,,,SPECI,1220.0
KSNC 120735Z AUTO 00000KT 10SM BKN090 M08/M11 A2987 RMK AO2,KSNC,2015-02-12T07:35:00Z,41.38,-72.5,-8.0,-11.0,0,0,,10.0,29.870079,,,TRUE,TRUE,,,,,,,BKN,9000,,,,,,,VFR,,,,,,,,,,,,SPECI,127.0
KRZN 120735Z AUTO 33008KT 10SM CLR M18/M22 A3050 RMK AO2 T11821222,KRZN,2015-02-12T07:35:00Z,45.82,-92.37,-18.2,-22.2,330,8,,10.0,30.499016,,,TRUE,TRUE,,,,,,,CLR,,,,,,,,VFR,,,,,,,,,,,,SPECI,301.0
KRWV 120735Z AUTO 33010KT 10SM BKN039 12/06 A3028 RMK AO2,KRWV,2015-02-12T07:35:00Z,30.52,-96.7,12.0,6.0,330,10,,10.0,30.280512,,,TRUE,TRUE,,,,,,,BKN,3900,,,,,,,VFR,,,,,,,,,,,,SPECI,119.0
KRUG 120735Z AUTO 19004KT 10SM CLR M25/M28 A3064 RMK AO2,KRUG,2015-02-12T07:35:00Z,48.38,-100.02,-25.0,-28.0,190,4,,10.0,30.640747,,,TRUE,TRUE,,,,,,,CLR,,,,,,,,VFR,,,,,,,,,,,,SPECI,472.0
KHOE 120735Z AUTO 28004KT 10SM CLR 08/07 A3003 RMK AO2,KHOE,2015-02-12T07:35:00Z,31.05,-82.78,8.0,7.0,280,4,,10.0,30.029528,,,TRUE,TRUE,,,,,,,CLR,,,,,,,,VFR,,,,,,,,,,,,SPECI,57.0
KHBV 120735Z AUTO 04004KT 1/2SM FG OVC002 A3016 RMK AO2,KHBV,2015-02-12T07:35:00Z,27.35,-98.73,,,40,4,,0.5,30.159449,,,TRUE,TRUE,,,,,,FG,OVC,200,,,,,,,LIFR,,,,,,,,,,,,SPECI,202.0
KGLW 120735Z AUTO 29009KT 10SM OVC021 01/M04 A3012 RMK AO2 T00051036,KGLW,2015-02-12T07:35:00Z,37.03,-85.95,0.5,-3.6,290,9,,10.0,30.121063,,,TRUE,TRUE,,,,,,,OVC,2100,,,,,,,MVFR,,,,,,,,,,,,SPECI,218.0
KO54 120735Z AUTO 00000KT 5SM CLR 04/03 A3028 RMK AO1,KO54,2015-02-12T07:35:00Z,40.75,-122.92,4.0,3.0,0,0,,5.0,30.280512,,,TRUE,TRUE,,,,,,,CLR,,,,,,,,MVFR,,,,,,,,,,,,SPECI,717.0
K96D 120735Z AUTO 28006KT 10SM M24/M27 A3073 RMK AO2,K96D,2015-02-12T07:35:00Z,48.93,-97.9,-24.0,-27.0,280,6,,10.0,30.72933,,,TRUE,TRUE,,,,,,,,,,,,,,,,,,,,,,,,,,,SPECI,290.0
K4A6 120735Z AUTO 35005KT 10SM CLR 00/M02 A3008 RMK AO2,K4A6,2015-02-12T07:35:00Z,34.68,-86.0,0.0,-2.0,350,5,,10.0,30.079725,,,TRUE,TRUE,,,,,,,CLR,,,,,,,,VFR,,,,,,,,,,,,SPECI,198.0
K20U 120735Z AUTO 15013KT 10SM SCT005 SCT013 M14/M15 A3040 RMK AO2,K20U,2015-02-12T07:35:00Z,46.93,-103.98,-14.0,-15.0,150,13,,10.0,30.398623,,,TRUE,TRUE,,,,,,,SCT,500,SCT,1300,,,,,VFR,,,,,,,,,,,,SPECI,840.0
KBBG 120735Z AUTO 00000KT 10SM CLR M04/M07 A3035 RMK AO2,KBBG,2015-02-12T07:35:00Z,36.53,-93.2,-4.0,-7.0,0,0,,10.0,30.351377,,,TRUE,TRUE,,,,,,,CLR,,,,,,,,VFR,,,,,,,,,,,,METAR,397.0
K9D7 120735Z AUTO 00000KT 10SM CLR M28/M31 A3065 RMK AO2,K9D7,2015-02-12T07:35:00Z,48.48,-99.23,-28.0,-31.0,0,0,,10.0,30.649607,,,TRUE,TRUE,,,,,,,CLR,,,,,,,,VFR,,,,,,,,,,,,METAR,452.0
KO22 120735Z AUTO 00000KT 10SM CLR 07/05 A3022 RMK AO1,KO22,2015-02-12T07:35:00Z,38.03,-120.42,7.0,5.0,0,0,,10.0,30.221457,,,TRUE,TRUE,,,,,,,CLR,,,,,,,,VFR,,,,,,,,,,,,SPECI,646.0
KFYG 120735Z AUTO 31009KT 10SM FEW055 M03/M07 A3028 RMK AO2,KFYG,2015-02-12T07:35:00Z,38.58,-91.0,-3.0,-7.0,310,9,,10.0,30.280512,,,TRUE,TRUE,,,,,,,FEW,5500,,,,,,,VFR,,,,,,,,,,,,SPECI,149.0
KD60 120735Z AUTO 15011KT 10SM CLR M21/M23 A3050 RMK AO2,KD60,2015-02-12T07:35:00Z,48.38,-102.9,-21.0,-23.0,150,11,,10.0,30.499016,,,TRUE,TRUE,,,,,,,CLR,,,,,,,,VFR,,,,,,,,,,,,SPECI,693.0
KSPF 120735Z AUTO 12004KT 10SM OVC011 M08/M09 A3034 RMK AO2,KSPF,2015-02-12T07:35:00Z,44.47,-103.77,-8.0,-9.0,120,4,,10.0,30.339567,,,TRUE,TRUE,,,,,,,OVC,1100,,,,,,,MVFR,,,,,,,,,,,,METAR,1188.0
KFWB 120735Z AUTO 29004KT 10SM CLR M03/M07 A3036 RMK AO2,KFWB,2015-02-12T07:35:00Z,36.7,-93.4,-3.0,-7.0,290,4,,10.0,30.360237,,,TRUE,TRUE,,,,,,,CLR,,,,,,,,VFR,,,,,,,,,,,,METAR,406.0
KDYA 120735Z AUTO 32003KT 10SM CLR 07/01 A3012 RMK AO2 T00700011,KDYA,2015-02-12T07:35:00Z,32.47,-87.95,7.0,1.1,320,3,,10.0,30.121063,,,TRUE,TRUE,,,,,,,CLR,,,,,,,,VFR,,,,,,,,,,,,METAR,34.0
KVQQ 120735Z AUTO 00000KT 4SM BR CLR 03/02 A3004 RMK AO2,KVQQ,2015-02-12T07:35:00Z,30.22,-81.88,3.0,2.0,0,0,,4.0,30.041338,,,TRUE,TRUE,,,,,,BR,CLR,,,,,,,,MVFR,,,,,,,,,,,,SPECI,25.0
KFKN 120735Z AUTO 16005KT 10SM CLR M02/M03 A2992 RMK AO2 T10221032,KFKN,2015-02-12T07:35:00Z,36.7,-76.9,-2.2,-3.2,160,5,,10.0,29.920275,,,TRUE,TRUE,,,,,,,CLR,,,,,,,,VFR,,,,,,,,,,,,METAR,12.0
KFFL 120735Z AUTO 33026KT 10SM FEW021 BKN028 BKN043 M13/M19 A3039 RMK AO2,KFFL,2015-02-12T07:35:00Z,41.03,-91.97,-13.0,-19.0,330,26,,10.0,30.389763,,,TRUE,TRUE,,,,,,,FEW,2100,BKN,2800,BKN,4300,,,MVFR,,,,,,,,,,,,METAR,244.0
KFFA 120735Z AUTO 00000KT 10SM CLR 00/00 A2994 RMK AO2 T00011001,KFFA,2015-02-12T07:35:00Z,36.02,-75.67,0.1,-0.1,0,0,,10.0,29.940945,,,TRUE,TRUE,,,,,,,CLR,,,,,,,,VFR,,,,,,,,,,,,METAR,4.0
KF70 120735Z AUTO 00000KT 10SM CLR 10/M02 A3014 RMK AO1,KF70,2015-02-12T07:35:00Z,33.57,-117.13,10.0,-2.0,0,0,,10.0,30.138779,,,TRUE,TRUE,,,,,,,CLR,,,,,,,,VFR,,,,,,,,,,,,METAR,412.0
KF46 120735Z AUTO 36009G20KT 10SM CLR 07/M02 A3033 RMK AO2 T00651019,KF46,2015-02-12T07:35:00Z,32.93,-96.43,6.5,-1.9,360,9,20,10.0,30.33071,,,TRUE,TRUE,,,,,,,CLR,,,,,,,,VFR,,,,,,,,,,,,METAR,176.0
KEZF 120735Z AUTO 00000KT 10SM SCT070 M01/M02 A2987 RMK AO2 T10101025,KEZF,2015-02-12T07:35:00Z,38.27,-77.45,-1.0,-2.5,0,0,,10.0,29.870079,,,TRUE,TRUE,,,,,,,SCT,7000,,,,,,,VFR,,,,,,,,,,,,METAR,26.0
KEYF 120735Z AUTO 18003KT 5SM BR CLR 02/02 A2994 RMK AO2 T00230020,KEYF,2015-02-12T07:35:00Z,34.6,-78.58,2.3,2.0,180,3,,5.0,29.940945,,,TRUE,TRUE,,,,,,BR,CLR,,,,,,,,MVFR,,,,,,,,,,,,METAR,41.0
KEOK 120735Z AUTO 34020G27KT 10SM OVC030 M09/M13 A3034 RMK AO2,KEOK,2015-02-12T07:35:00Z,40.47,-91.42,-9.0,-13.0,340,20,27,10.0,30.339567,,,TRUE,TRUE,,,,,,,OVC,3000,,,,,,,MVFR,,,,,,,,,,,,METAR,205.0
KEMM 120735Z AUTO 36003KT 10SM CLR M03/M06 A3040 RMK AO2,KEMM,2015-02-12T07:35:00Z,41.82,-110.55,-3.0,-6.0,360,3,,10.0,30.398623,,,TRUE,TRUE,,,,,,,CLR,,,,,,,,VFR,,,,,,,,,,,,METAR,2220.0
KELK 120735Z AUTO 01005KT 10SM CLR A3042 RMK AO2,KELK,2015-02-12T07:35:00Z,35.43,-99.4,,,10,5,,10.0,30.41929,,,TRUE,TRUE,,,,,,,CLR,,,,,,,,VFR,,,,,,,,,,,,METAR,610.0
KELA 120735Z AUTO 00000KT 3SM BR CLR 12/12 A3017 RMK AO2 T01200119,KELA,2015-02-12T07:35:00Z,29.6,-96.32,12.0,11.9,0,0,,3.0,30.171259,,,TRUE,TRUE,,,,,,BR,CLR,,,,,,,,MVFR,,,,,,,,,,,,METAR,56.0
KEFK 120735Z AUTO 16010G14KT 10SM OVC100 M09/M15 A2974 RMK AO2 T10901150,KEFK,2015-02-12T07:35:00Z,44.88,-72.23,-9.0,-15.0,160,10,14,10.0,29.740158,,,TRUE,TRUE,,,,,,,OVC,10000,,,,,,,VFR,,,,,,,,,,,,METAR,284.0
KEBS 120735Z AUTO 34025KT 10SM FEW008 FEW012 BKN018 M16/M20 A3048 RMK AO2,KEBS,2015-02-12T07:35:00Z,42.42,-93.87,-16.0,-20.0,340,25,,10.0,30.481298,,,TRUE,TRUE,,,,,,,FEW,800,FEW,1200,BKN,1800,,,MVFR,,,,,,,,,,,,METAR,342.0
KE38 120735Z AUTO 03012KT 7SM BKN012 OVC019 03/02 A3042 RMK AO2 T00300019,KE38,2015-02-12T07:35:00Z,30.38,-103.68,3.0,1.9,30,12,,7.0,30.41929,,,TRUE,TRUE,,,,,,,BKN,1200,OVC,1900,,,,,MVFR,,,,,,,,,,,,METAR,1376.0
KDWX 120735Z AUTO 08003KT 10SM CLR M02/M05 A3043 RMK AO2 T10161047,KDWX,2015-02-12T07:35:00Z,41.03,-107.5,-1.6,-4.7,80,3,,10.0,30.431103,,,TRUE,TRUE,,,,,,,CLR,,,,,,,,VFR,,,,,,,,,,,,METAR,1996.0
KDUB 120735Z AUTO 34017G20KT 10SM SCT090 00/M08 A3031 RMK AO2,KDUB,2015-02-12T07:35:00Z,43.55,-109.68,0.0,-8.0,340,17,20,10.0,30.31004,,,TRUE,TRUE,,,,,,,SCT,9000,,,,,,,VFR,,,,,,,,,,,,METAR,2224.0
KDNS 120735Z AUTO 34017KT 10SM CLR M14/M20 A3054 RMK AO2,KDNS,2015-02-12T07:35:00Z,41.97,-95.37,-14.0,-20.0,340,17,,10.0,30.540354,,,TRUE,TRUE,,,,,,,CLR,,,,,,,,VFR,,,,,,,,,,,,METAR,388.0
KDEH 120735Z AUTO 33016G22KT 10SM FEW019 BKN027 BKN033 M16/M21 A3036 RMK AO2,KDEH,2015-02-12T07:35:00Z,43.27,-91.72,-16.0,-21.0,330,16,22,10.0,30.360237,,,TRUE,TRUE,,,,,,,FEW,1900,BKN,2700,BKN,3300,,,MVFR,,,,,,,,,,,,METAR,353.0
KDBN 120735Z AUTO 28003KT 10SM CLR 05/05 A3001 RMK AO2,KDBN,2015-02-12T07:35:00Z,32.57,-82.98,5.0,5.0,280,3,,10.0,30.008858,,,TRUE,TRUE,,,,,,,CLR,,,,,,,,VFR,,,,,,,,,,,,METAR,94.0
KCWC 120735Z AUTO 36009G18KT 10SM BKN120 06/M04 A3043 RMK AO2 T00561037,KCWC,2015-02-12T07:35:00Z,33.85,-98.48,5.6,-3.7,360,9,18,10.0,30.431103,,,TRUE,TRUE,,,,,,,BKN,12000,,,,,,,VFR,,,,,,,,,,,,METAR,305.0
KCVB 120735Z AUTO 03011G16KT 7SM OVC022 15/09 A3023 RMK AO2 T01540094,KCVB,2015-02-12T07:35:00Z,29.35,-98.85,15.4,9.4,30,11,16,7.0,30.230314,,,TRUE,TRUE,,,,,,,OVC,2200,,,,,,,MVFR,,,,,,,,,,,,METAR,235.0
KCTZ 120735Z AUTO 00000KT 5SM BR CLR 02/02 A2994 RMK AO2 T00170017,KCTZ,2015-02-12T07:35:00Z,34.98,-78.37,1.7,1.7,0,0,,5.0,29.940945,,,TRUE,TRUE,,,,,,BR,CLR,,,,,,,,MVFR,,,,,,,,,,,,METAR,45.0
KCTJ 120735Z AUTO 31004KT 10SM CLR 06/00 A3005 RMK AO2,KCTJ,2015-02-12T07:35:00Z,33.63,-85.15,6.0,0.0,310,4,,10.0,30.050198,,,TRUE,TRUE,,,,,,,CLR,,,,,,,,VFR,,,,,,,,,,,,METAR,354.0
KCSQ 120735Z AUTO 34019KT 10SM CLR M13/M19 A3047 RMK AO2,KCSQ,2015-02-12T07:35:00Z,41.02,-94.37,-13.0,-19.0,340,19,,10.0,30.469488,,,TRUE,TRUE,,,,,,,CLR,,,,,,,,VFR,,,,,,,,,,,,METAR,394.0
KCQF 120735Z AUTO 00000KT 1/2SM FG VV005 05/05 A3008 RMK AO2,KCQF,2015-02-12T07:35:00Z,30.47,-87.88,5.0,5.0,0,0,,0.5,30.079725,,,TRUE,TRUE,,,,,,FG,OVX,0,,,,,,,LIFR,,,,,,,,,,,500,METAR,28.0
KCQB 120735Z AUTO 00000KT 10SM CLR 00/M03 A3045 RMK AO2,KCQB,2015-02-12T07:35:00Z,35.72,-96.82,0.0,-3.0,0,0,,10.0,30.448818,,,TRUE,TRUE,,,,,,,CLR,,,,,,,,VFR,,,,,,,,,,,,METAR,300.0
KCPT 120735Z AUTO 01017G23KT 10SM BKN075 07/M01 A3034 RMK AO2,KCPT,2015-02-12T07:35:00Z,32.35,-97.43,7.0,-1.0,10,17,23,10.0,30.339567,,,TRUE,TRUE,,,,,,,BKN,7500,,,,,,,VFR,,,,,,,,,,,,METAR,260.0
KCPC 120735Z AUTO 21003KT 5SM BR CLR 02/02 A2995 RMK AO2 T00220015,KCPC,2015-02-12T07:35:00Z,34.28,-78.72,2.2,1.5,210,3,,5.0,29.949802,,,TRUE,TRUE,,,,,,BR,CLR,,,,,,,,MVFR,,,,,,,,,,,,METAR,29.0
KCOM 120735Z AUTO 02014G19KT 10SM OVC050 07/M03 A3035 RMK AO2 T00661026,KCOM,2015-02-12T07:35:00Z,31.83,-99.4,6.6,-2.6,20,14,19,10.0,30.351377,,,TRUE,TRUE,,,,,,,OVC,5000,,,,,,,VFR,,,,,,,,,,,,METAR,517.0
KCNC 120735Z AUTO 32020G29KT 10SM SCT022 SCT026 BKN033 M13/M19 A3045 RMK AO2,KCNC,2015-02-12T07:35:00Z,41.02,-93.37,-13.0,-19.0,320,20,29,10.0,30.448818,,,TRUE,TRUE,,,,,,,SCT,2200,SCT,2600,BKN,3300,,,VFR,,,,,,,,,,,,METAR,320.0
KCMY 120735Z AUTO 33012G17KT 10SM CLR M13/M19 A3036 RMK AO2 T11351190,KCMY,2015-02-12T07:35:00Z,43.97,-90.73,-13.5,-19.0,330,12,17,10.0,30.360237,,,TRUE,TRUE,,,,,,,CLR,,,,,,,,VFR,,,,,,,,,,,,METAR,256.0
KCJR 120735Z AUTO 00000KT 10SM OVC065 01/M03 A2987 RMK AO2,KCJR,2015-02-12T07:35:00Z,38.53,-77.87,1.0,-3.0,0,0,,10.0,29.870079,,,TRUE,TRUE,,,,,,,OVC,6500,,,,,,,VFR,,,,,,,,,,,,METAR,97.0
KCIN 120735Z AUTO 35023KT 10SM CLR M14/M20 A3052 RMK AO2,KCIN,2015-02-12T07:35:00Z,42.03,-94.77,-14.0,-20.0,350,23,,10.0,30.519686,,,TRUE,TRUE,,,,,,,CLR,,,,,,,,VFR,,,,,,,,,,,,METAR,375.0
KCHK 120735Z AUTO 03009KT 10SM OVC120 02/M03 A3043 RMK AO2,KCHK,2015-02-12T07:35:00Z,35.1,-97.97,2.0,-3.0,30,9,,10.0,30.431103,,,TRUE,TRUE,,,,,,,OVC,12000,,,,,,,VFR,,,,,,,,,,,,METAR,351.0
KCFD 120735Z AUTO 35007G15KT 10SM SCT060 12/06 A3025 RMK AO2 T01180059,KCFD,2015-02-12T07:35:00Z,30.72,-96.33,11.8,5.9,350,7,15,10.0,30.250984,,,TRUE,TRUE,,,,,,,SCT,6000,,,,,,,VFR,,,,,,,,,,,,METAR,112.0
KCBF 120735Z AUTO 35016KT 10SM FEW015 FEW023 M13/M19 A3054 RMK AO2,KCBF,2015-02-12T07:35:00Z,41.27,-95.77,-13.0,-19.0,350,16,,10.0,30.540354,,,TRUE,TRUE,,,,,,,FEW,1500,FEW,2300,,,,,VFR,,,,,,,,,,,,METAR,382.0
KCAV 120735Z AUTO 34021G29KT 10SM BKN014 BKN019 BKN023 M16/M21 A3048 RMK AO2,KCAV,2015-02-12T07:35:00Z,42.75,-93.77,-16.0,-21.0,340,21,29,10.0,30.481298,,,TRUE,TRUE,,,,,,,BKN,1400,BKN,1900,BKN,2300,,,MVFR,,,,,,,,,,,,METAR,354.0
KC09 120735Z AUTO 31016G21KT 10SM OVC065 M09/M12 A3017 RMK AO2 T10901117,KC09,2015-02-12T07:35:00Z,41.43,-88.42,-9.0,-11.7,310,16,21,10.0,30.171259,,,TRUE,TRUE,,,,,,,OVC,6500,,,,,,,VFR,,,,,,,,,,,,METAR,178.0
KBQK 120735Z AUTO 25003KT 10SM CLR 06/05 A3002 RMK AO1,KBQK,2015-02-12T07:35:00Z,31.25,-81.47,6.0,5.0,250,3,,10.0,30.02067,,,TRUE,TRUE,,,,,,,CLR,,,,,,,,VFR,,,,,,,,,,,,METAR,8.0
KBPG 120735Z AUTO 36015G21KT 10SM SCT044 OVC050 07/M06 A3042 RMK AO2 T00691060,KBPG,2015-02-12T07:35:00Z,32.22,-101.52,6.9,-6.0,360,15,21,10.0,30.41929,,,TRUE,TRUE,,,,,,,SCT,4400,OVC,5000,,,,,VFR,,,,,,,,,,,,METAR,784.0
KBNW 120735Z AUTO 33022G31KT 10SM BKN017 BKN023 M16/M20 A3047 RMK AO2,KBNW,2015-02-12T07:35:00Z,42.03,-93.83,-16.0,-20.0,330,22,31,10.0,30.469488,,,TRUE,TRUE,,,,,,,BKN,1700,BKN,2300,,,,,MVFR,,,,,,,,,,,,METAR,354.0
KBIE 120735Z AUTO 36019G26KT 10SM SCT029 M07/M11 A3054 RMK AO2 T10731115,KBIE,2015-02-12T07:35:00Z,40.28,-96.75,-7.3,-11.5,360,19,26,10.0,30.540354,,,TRUE,TRUE,,,,,,,SCT,2900,,,,,,,VFR,,,,,,,,,,,,METAR,403.0
KAXH 120735Z AUTO 00000KT 4SM BR OVC002 12/12 A3018 RMK AO2 T01210121,KAXH,2015-02-12T07:35:00Z,29.52,-95.48,12.1,12.1,0,0,,4.0,30.180119,,,TRUE,TRUE,,,,,,BR,OVC,200,,,,,,,LIFR,,,,,,,,,,,,METAR,21.0
KAXA 120735Z AUTO 35017G24KT 10SM FEW016 SCT022 M17/ A3052 RMK AO2,KAXA,2015-02-12T07:35:00Z,43.07,-94.27,-17.0,,350,17,24,10.0,30.519686,,,TRUE,TRUE,,,,,,,FEW,1600,SCT,2200,,,,,VFR,,,,,,,,,,,,METAR,372.0
KAWG 120735Z AUTO 32023G30KT 10SM FEW027 FEW033 SCT038 M13/M17 A3039 RMK AO2,KAWG,2015-02-12T07:35:00Z,41.27,-91.67,-13.0,-17.0,320,23,30,10.0,30.389763,,,TRUE,TRUE,,,,,,,FEW,2700,FEW,3300,SCT,3800,,,VFR,,,,,,,,,,,,METAR,230.0
KATW 120735Z AUTO 36011G17KT 10SM SCT031 BKN039 M13/M20 A3022 RMK AO2,KATW,2015-02-12T07:35:00Z,44.27,-88.52,-13.0,-20.0,360,11,17,10.0,30.221457,,,TRUE,TRUE,,,,,,,SCT,3100,BKN,3900,,,,,VFR,,,,,,,,,,,,METAR,280.0
KASL 120735Z AUTO 34009KT CLR 10/06 A3026 RMK AO1 T01030059,KASL,2015-02-12T07:35:00Z,32.52,-94.3,10.3,5.9,340,9,,,30.259842,,,TRUE,TRUE,,,,,,,CLR,,,,,,,,,,,,,,,,,,,,METAR,109.0
KARM 120735Z AUTO 35004KT 1/2SM FG VV005 10/10 A3018 RMK AO2 T01010099,KARM,2015-02-12T07:35:00Z,29.25,-96.15,10.1,9.9,350,4,,0.5,30.180119,,,TRUE,TRUE,,,,,,FG,OVX,0,,,,,,,LIFR,,,,,,,,,,,500,METAR,31.0
KALX 120735Z AUTO 00000KT 10SM CLR 01/M01 A3005 RMK AO2 T00131013,KALX,2015-02-12T07:35:00Z,32.92,-85.97,1.3,-1.3,0,0,,10.0,30.050198,,,TRUE,TRUE,,,,,,,CLR,,,,,,,,VFR,,,,,,,,,,,,METAR,209.0
KAIO 120735Z AUTO 34017G23KT 10SM CLR M13/M19 A3053 RMK AO2,KAIO,2015-02-12T07:35:00Z,41.38,-95.03,-13.0,-19.0,340,17,23,10.0,30.528543,,,TRUE,TRUE,,,,,,,CLR,,,,,,,,VFR,,,,,,,,,,,,METAR,360.0
KAHQ 120735Z AUTO 10SM CLR M11/M17 A3059 RMK AO2 T11121171,KAHQ,2015-02-12T07:35:00Z,41.23,-96.6,-11.2,-17.1,,,,10.0,30.590551,,,TRUE,TRUE,,,,,,,CLR,,,,,,,,VFR,,,,,,,,,,,,METAR,374.0
KAFP 120735Z AUTO 00000KT 10SM CLR 00/M01 A2991 RMK AO2 T00001009,KAFP,2015-02-12T07:35:00Z,35.02,-80.08,0.0,-0.9,0,0,,10.0,29.911417,,,TRUE,TRUE,,,,,,,CLR,,,,,,,,VFR,,,,,,,,,,,,METAR,92.0
KAFK 120735Z AUTO 01016G27KT 10SM CLR M10/M17 A3053 RMK AO2 T10991170,KAFK,2015-02-12T07:35:00Z,40.6,-95.85,-9.9,-17.0,10,16,27,10.0,30.528543,,,TRUE,TRUE,,,,,,,CLR,,,,,,,,VFR,,,,,,,,,,,,METAR,354.0
KADU 120735Z AUTO 35015G23KT 10SM CLR M14/M19 A3052 RMK AO2,KADU,2015-02-12T07:35:00Z,41.7,-94.92,-14.0,-19.0,350,15,23,10.0,30.519686,,,TRUE,TRUE,,,,,,,CLR,,,,,,,,VFR,,,,,,,,,,,,METAR,392.0
KADS 120735Z AUTO 01010G18KT 10SM CLR 07/M01 A3036 RMK AO2 T00651015,KADS,2015-02-12T07:35:00Z,32.97,-96.82,6.5,-1.5,10,10,18,10.0,30.360237,,,TRUE,TRUE,,,,,,,CLR,,,,,,,,VFR,,,,,,,,,,,,METAR,196.0
KA08 120735Z AUTO 31004KT 10SM CLR 04/00 A3009 RMK AO2 T00380003,KA08,2015-02-12T07:35:00Z,32.52,-87.38,3.8,0.3,310,4,,10.0,30.088583,,,TRUE,TRUE,,,,,,,CLR,,,,,,,,VFR,,,,,,,,,,,,METAR,69.0
K6B0 120735Z AUTO 17006KT 7SM -SN SCT029 BKN035 OVC049 M05/M11 A2979 RMK AO2 T10511111,K6B0,2015-02-12T07:35:00Z,43.98,-73.1,-5.1,-11.1,170,6,,7.0,29.790354,,,TRUE,TRUE,,,,,,-SN,SCT,2900,BKN,3500,OVC,4900,,,VFR,,,,,,,,,,,,METAR,149.0
K66R 120735Z AUTO 00000KT 1 1/4SM BR SCT004 SCT047 12/12 A3017 RMK AO2 T01210121,K66R,2015-02-12T07:35:00Z,29.65,-96.52,12.1,12.1,0,0,,1.25,30.171259,,,TRUE,TRUE,,,,,,BR,SCT,400,SCT,4700,,,,,IFR,,,,,,,,,,,,METAR,74.0
K54J 120735Z AUTO 32004KT 10SM CLR 07/05 A3007 RMK AO2 T00700049,K54J,2015-02-12T07:35:00Z,30.73,-86.15,7.0,4.9,320,4,,10.0,30.070866,,,TRUE,TRUE,,,,,,,CLR,,,,,,,,VFR,,,,,,,,,,,,METAR,88.0
K3R7 120735Z AUTO 00000KT 7SM CLR 11/10 A3016 RMK AO2 T01110103,K3R7,2015-02-12T07:35:00Z,30.25,-92.67,11.1,10.3,0,0,,7.0,30.159449,,,TRUE,TRUE,,,,,,,CLR,,,,,,,,VFR,,,,,,,,,,,,METAR,7.0
K3LF 120735Z AUTO 32019G26KT 10SM OVC024 M04/M08 A3022 RMK AO2 T10381082,K3LF,2015-02-12T07:35:00Z,39.17,-89.67,-3.8,-8.2,320,19,26,10.0,30.221457,,,TRUE,TRUE,,,,,,,OVC,2400,,,,,,,MVFR,,,,,,,,,,,,METAR,210.0
K36U 120735Z AUTO 00000KT 10SM CLR M03/M05 A3042 RMK AO2,K36U,2015-02-12T07:35:00Z,40.48,-111.43,-3.0,-5.0,0,0,,10.0,30.41929,,,TRUE,TRUE,,,,,,,CLR,,,,,,,,VFR,,,,,,,,,,,,METAR,1718.0
K2G9 120735Z AUTO 26012G15KT 10SM OVC011 M01/M03 A2977 RMK AO2,K2G9,2015-02-12T07:35:00Z,40.03,-79.02,-1.0,-3.0,260,12,15,10.0,29.769686,,,TRUE,TRUE,,,,,,,OVC,1100,,,,,,,MVFR,,,,,,,,,,,,METAR,693.0
K1L0 120735Z AUTO 34003KT 10SM CLR 12/08 A3013 RMK AO2 T01160081,K1L0,2015-02-12T07:35:00Z,30.08,-90.58,11.6,8.1,340,3,,10.0,30.129921,,,TRUE,TRUE,,,,,,,CLR,,,,,,,,VFR,,,,,,,,,,,,METAR,2.0
K1H2 120735Z AUTO 28017G24KT 10SM OVC024 M04/M09 A3021 RMK AO2 T10361095,K1H2,2015-02-12T07:35:00Z,39.07,-88.53,-3.6,-9.5,280,17,24,10.0,30.209646,,,TRUE,TRUE,,,,,,,OVC,2400,,,,,,,MVFR,,,,,,,,,,,,METAR,179.0
K0VG 120735Z AUTO 25006KT 10SM OVC029 05/M01 A3000 RMK AO2,K0VG,2015-02-12T07:35:00Z,36.65,-83.22,5.0,-1.0,250,6,,10.0,30.0,,,TRUE,TRUE,,,,,,,OVC,2900,,,,,,,MVFR,,,,,,,,,,,,METAR,430.0
K0V4 120735Z AUTO 22004KT 10SM CLR 02/00 A2987 RMK AO1 T00191005,K0V4,2015-02-12T07:35:00Z,37.15,-79.02,1.9,-0.5,220,4,,10.0,29.870079,,,TRUE,TRUE,,,,,,,CLR,,,,,,,,VFR,,,,,,,,,,,,METAR,182.0
K0F2 120735Z AUTO 35012G16KT 10SM OVC095 05/M03 A3038 RMK AO2 T00451028,K0F2,2015-02-12T07:35:00Z,33.6,-97.78,4.5,-2.8,350,12,16,10.0,30.380905,,,TRUE,TRUE,,,,,,,OVC,9500,,,,,,,VFR,,,,,,,,,,,,METAR,336.0
K0E0 120735Z AUTO 17003KT 10SM SCT010 OVC020 M01/M03 A3045 RMK AO2 T10151026,K0E0,2015-02-12T07:35:00Z,34.98,-106.0,-1.5,-2.6,170,3,,10.0,30.448818,,,TRUE,TRUE,,,,,,,SCT,1000,OVC,2000,,,,,MVFR,,,,,,,,,,,,METAR,1890.0
KLAM 120735Z AUTO 21005KT 10SM CLR 00/M01 A3043 RMK AO2 T10031015,KLAM,2015-02-12T07:35:00Z,35.87,-106.27,-0.3,-1.5,210,5,,10.0,30.431103,,,TRUE,TRUE,,,,,,,CLR,,,,,,,,VFR,,,,,,,,,,,,METAR,2179.0
KJYR 120735Z AUTO 01019G32KT 10SM FEW018 SCT023 M09/M13 A3055 RMK AO2,KJYR,2015-02-12T07:35:00Z,40.9,-97.62,-9.0,-13.0,10,19,32,10.0,30.549213,,,TRUE,TRUE,,,,,,,FEW,1800,SCT,2300,,,,,VFR,,,,,,,,,,,,METAR,509.0
KJWY 120735Z AUTO 36012G21KT 10SM CLR 07/00 A3034 RMK AO2 T00651003,KJWY,2015-02-12T07:35:00Z,32.45,-96.92,6.5,-0.3,360,12,21,10.0,30.339567,,,TRUE,TRUE,,,,,,,CLR,,,,,,,,VFR,,,,,,,,,,,,METAR,217.0
KJGG 120735Z AUTO 17008KT 10SM 01/M01 A2991 RMK AO1,KJGG,2015-02-12T07:35:00Z,37.23,-76.72,1.0,-1.0,170,8,,10.0,29.911417,,,TRUE,TRUE,,,,,,,,,,,,,,,,,,,,,,,,,,,METAR,15.0
KIZA 120735Z AUTO 02003KT 10SM CLR 10/06 A3013 RMK AO2,KIZA,2015-02-12T07:35:00Z,34.6,-120.07,10.0,6.0,20,3,,10.0,30.129921,,,TRUE,TRUE,,,,,,,CLR,,,,,,,,VFR,,,,,,,,,,,,METAR,205.0
KIWA 120735Z AUTO 04008KT 10SM CLR 16/00 A3017 RMK AO2,KIWA,2015-02-12T07:35:00Z,33.3,-111.65,16.0,0.0,40,8,,10.0,30.171259,,,TRUE,TRUE,,,,,,,CLR,,,,,,,,VFR,,,,,,,,,,,,SPECI,412.0
KISO 120735Z AUTO 19004KT 7SM CLR 00/M01 A2995 RMK AO2 T10021010,KISO,2015-02-12T07:35:00Z,35.32,-77.62,-0.2,-1.0,190,4,,7.0,29.949802,,,TRUE,TRUE,,,,,,,CLR,,,,,,,,VFR,,,,,,,,,,,,METAR,29.0
KIOB 120735Z AUTO 32010G17KT 280V350 10SM SCT016 BKN023 OVC029 00/M02 A3003 RMK AO2,KIOB,2015-02-12T07:35:00Z,38.05,-83.98,0.0,-2.0,320,10,17,10.0,30.029528,,,TRUE,TRUE,,,,,,,SCT,1600,BKN,2300,OVC,2900,,,MVFR,,,,,,,,,,,,METAR,311.0
KINJ 120735Z AUTO 35012KT 10SM SCT075 07/00 A3032 RMK AO2 T00730000,KINJ,2015-02-12T07:35:00Z,32.08,-97.1,7.3,0.0,350,12,,10.0,30.318897,,,TRUE,TRUE,,,,,,,SCT,7500,,,,,,,VFR,,,,,,,,,,,,METAR,209.0
KIKV 120735Z AUTO 34020G26KT 10SM FEW019 M14/M20 A3049 RMK AO2,KIKV,2015-02-12T07:35:00Z,41.68,-93.57,-14.0,-20.0,340,20,26,10.0,30.490158,,,TRUE,TRUE,,,,,,,FEW,1900,,,,,,,VFR,,,,,,,,,,,,METAR,275.0
KIKK 120735Z AUTO 30011G17KT 10SM SCT037 SCT080 M08/M12 A3016 RMK AO2 T10851122,KIKK,2015-02-12T07:35:00Z,41.07,-87.85,-8.5,-12.2,300,11,17,10.0,30.159449,,,TRUE,TRUE,,,,,,,SCT,3700,SCT,8000,,,,,VFR,,,,,,,,,,,,METAR,192.0
KIJX 120735Z AUTO 32015G23KT 7SM -SN OVC023 M03/M08 A3025 RMK AO2 T10331078,KIJX,2015-02-12T07:35:00Z,39.77,-90.25,-3.3,-7.8,320,15,23,7.0,30.250984,,,TRUE,TRUE,,,,,,-SN,OVC,2300,,,,,,,MVFR,,,,,,,,,,,,METAR,190.0
KIIB 120735Z AUTO 34021G26KT 10SM CLR M15/M18 A3037 RMK AO2,KIIB,2015-02-12T07:35:00Z,42.45,-91.95,-15.0,-18.0,340,21,26,10.0,30.369095,,,TRUE,TRUE,,,,,,,CLR,,,,,,,,VFR,,,,,,,,,,,,METAR,298.0
KIDP 120735Z AUTO 34005KT 10SM CLR M05/M07 A3045 RMK AO2,KIDP,2015-02-12T07:35:00Z,37.17,-95.78,-5.0,-7.0,340,5,,10.0,30.448818,,,TRUE,TRUE,,,,,,,CLR,,,,,,,,VFR,,,,,,,,,,,,METAR,251.0
KI75 120735Z AUTO 34017G22KT 10SM SCT029 M12/M17 A3046 RMK AO2 T11251174,KI75,2015-02-12T07:35:00Z,41.05,-93.68,-12.5,-17.4,340,17,22,10.0,30.46063,,,TRUE,TRUE,,,,,,,SCT,2900,,,,,,,VFR,,,,,,,,,,,,METAR,339.0
KI35 120735Z AUTO 27007KT 240V310 10SM OVC026 03/M01 A2999 RMK AO1,KI35,2015-02-12T07:35:00Z,36.87,-83.37,3.0,-1.0,270,7,,10.0,29.991142,,,TRUE,TRUE,,,,,,,OVC,2600,,,,,,,MVFR,,,,,,,,,,,,METAR,473.0
KHZR 120735Z AUTO 34003KT 10SM CLR 10/05 A3015 RMK AO2 T01000048,KHZR,2015-02-12T07:35:00Z,30.72,-91.48,10.0,4.8,340,3,,10.0,30.15059,,,TRUE,TRUE,,,,,,,CLR,,,,,,,,VFR,,,,,,,,,,,,METAR,12.0
KHUM 120735Z AUTO 00000KT 2 1/2SM BR CLR 09/09 A3012 RMK AO2 T00920091,KHUM,2015-02-12T07:35:00Z,29.57,-90.67,9.2,9.1,0,0,,2.5,30.121063,,,TRUE,TRUE,,,,,,BR,CLR,,,,,,,,IFR,,,,,,,,,,,,METAR,3.0
KHSP 120735Z AUTO 29018G24KT 10SM OVC008 M01/M03 A2974 RMK AO2 T10151032,KHSP,2015-02-12T07:35:00Z,37.95,-79.82,-1.5,-3.2,290,18,24,10.0,29.740158,,,TRUE,TRUE,,,,,,,OVC,800,,,,,,,IFR,,,,,,,,,,,,METAR,1156.0
KHNR 120735Z AUTO 34015G22KT 10SM CLR M14/M18 A3058 RMK AO2,KHNR,2015-02-12T07:35:00Z,41.58,-95.33,-14.0,-18.0,340,15,22,10.0,30.578741,,,TRUE,TRUE,,,,,,,CLR,,,,,,,,VFR,,,,,,,,,,,,METAR,375.0
KHLX 120735Z AUTO 29013G18KT 10SM OVC019 02/M01 A2985 RMK AO2 T00221015,KHLX,2015-02-12T07:35:00Z,36.77,-80.82,2.2,-1.5,290,13,18,10.0,29.84941,,,TRUE,TRUE,,,,,,,OVC,1900,,,,,,,MVFR,,,,,,,,,,,,METAR,834.0
KHJH 120735Z AUTO 02016G22KT 10SM OVC033 M04/M10 A3052 RMK AO2 T10421102,KHJH,2015-02-12T07:35:00Z,40.15,-97.58,-4.2,-10.2,20,16,22,10.0,30.519686,,,TRUE,TRUE,,,,,,,OVC,3300,,,,,,,VFR,,,,,,,,,,,,METAR,447.0
KHHW 120735Z AUTO 36012G15KT 10SM CLR 05/M03 A3033 RMK AO2 T00501031,KHHW,2015-02-12T07:35:00Z,34.03,-95.55,5.0,-3.1,360,12,15,10.0,30.33071,,,TRUE,TRUE,,,,,,,CLR,,,,,,,,VFR,,,,,,,,,,,,METAR,144.0
KHDE 120735Z AUTO 04017G21KT 10SM OVC027 M04/M09 A3048 RMK AO2 T10401092,KHDE,2015-02-12T07:35:00Z,40.45,-99.32,-4.0,-9.2,40,17,21,10.0,30.481298,,,TRUE,TRUE,,,,,,,OVC,2700,,,,,,,MVFR,,,,,,,,,,,,METAR,705.0
KH21 120735Z AUTO 28007KT 10SM CLR M03/M06 A3033 RMK AO2,KH21,2015-02-12T07:35:00Z,37.97,-92.68,-3.0,-6.0,280,7,,10.0,30.33071,,,TRUE,TRUE,,,,,,,CLR,,,,,,,,VFR,,,,,,,,,,,,METAR,324.0
KGYI 120735Z AUTO 36013G18KT 10SM CLR 05/00 A3038 RMK AO2 T00521003,KGYI,2015-02-12T07:35:00Z,33.72,-96.67,5.2,-0.3,360,13,18,10.0,30.380905,,,TRUE,TRUE,,,,,,,CLR,,,,,,,,VFR,,,,,,,,,,,,METAR,228.0
KGUR 120735Z AUTO 10004KT 10SM SCT011 01/M01 A3035 RMK AO2 T00061012 PWINO,KGUR,2015-02-12T07:35:00Z,42.25,-104.72,0.6,-1.2,100,4,,10.0,30.351377,,,TRUE,TRUE,,,,,TRUE,,SCT,1100,,,,,,,VFR,,,,,,,,,,,,METAR,1358.0
KGNT 120735Z AUTO 33004KT 10SM CLR M04/M05 A3045 RMK AO2 T10451050,KGNT,2015-02-12T07:35:00Z,35.17,-107.9,-4.5,-5.0,330,4,,10.0,30.448818,,,TRUE,TRUE,,,,,,,CLR,,,,,,,,VFR,,,,,,,,,,,,METAR,1987.0
KGMJ 120735Z AUTO 00000KT 10SM CLR M01/M05 A3043 RMK AO2,KGMJ,2015-02-12T07:35:00Z,36.6,-94.73,-1.0,-5.0,0,0,,10.0,30.431103,,,TRUE,TRUE,,,,,,,CLR,,,,,,,,VFR,,,,,,,,,,,,METAR,254.0
KGHG 120735Z AUTO 30006KT 10SM OVC001 M05/M09 A2990 RMK AO2,KGHG,2015-02-12T07:35:00Z,42.1,-70.67,-5.0,-9.0,300,6,,10.0,29.899607,,,TRUE,TRUE,,,,,,,OVC,100,,,,,,,LIFR,,,,,,,,,,,,METAR,4.0
KGGI 120735Z AUTO 32020G24KT 10SM SCT027 M15/M19 A3043 RMK AO2 T11491190,KGGI,2015-02-12T07:35:00Z,41.72,-92.73,-14.9,-19.0,320,20,24,10.0,30.431103,,,TRUE,TRUE,,,,,,,SCT,2700,,,,,,,VFR,,,,,,,,,,,,METAR,307.0
KGBG 120735Z AUTO 32020G25KT 10SM OVC047 M10/M14 A3027 RMK AO2 T11001136,KGBG,2015-02-12T07:35:00Z,40.93,-90.43,-10.0,-13.6,320,20,25,10.0,30.268702,,,TRUE,TRUE,,,,,,,OVC,4700,,,,,,,VFR,,,,,,,,,,,,METAR,233.0
KGAO 120735Z AUTO 1 1/4SM BR VV007 10/09 A3013 RMK AO2 T00970091,KGAO,2015-02-12T07:35:00Z,29.45,-90.27,9.7,9.1,,,,1.25,30.129921,,,TRUE,TRUE,,,,,,BR,OVX,0,,,,,,,LIFR,,,,,,,,,,,700,METAR,1.0
KFWC 120735Z AUTO 31007G15KT 280V340 10SM CLR M03/M08 A3020 RMK AO1 T10301078,KFWC,2015-02-12T07:35:00Z,38.38,-88.42,-3.0,-7.8,310,7,15,10.0,30.200787,,,TRUE,TRUE,,,,,,,CLR,,,,,,,,VFR,,,,,,,,,,,,METAR,133.0
KFSW 120735Z AUTO 33027G34KT 10SM BKN035 BKN041 OVC050 M11/M16 A3033 RMK AO2,KFSW,2015-02-12T07:35:00Z,40.67,-91.32,-11.0,-16.0,330,27,34,10.0,30.33071,,,TRUE,TRUE,,,,,,,BKN,3500,BKN,4100,OVC,5000,,,VFR,,,,,,,,,,,,METAR,221.0
KFQD 120735Z AUTO 29005KT 10SM CLR 05/M01 A2991 RMK AO2 T00501010,KFQD,2015-02-12T07:35:00Z,35.42,-81.93,5.0,-1.0,290,5,,10.0,29.911417,,,TRUE,TRUE,,,,,,,CLR,,,,,,,,VFR,,,,,,,,,,,,METAR,329.0
KXBP 120735Z AUTO 35007KT 10SM SCT110 05/M01 A3040 RMK AO2 T00491014,KXBP,2015-02-12T07:35:00Z,33.18,-97.83,4.9,-1.4,350,7,,10.0,30.398623,,,TRUE,TRUE,,,,,,,SCT,11000,,,,,,,VFR,,,,,,,,,,,,METAR,260.0
KWDR 120735Z AUTO 31006KT 10SM CLR 08/01 A2999 RMK AO1,KWDR,2015-02-12T07:35:00Z,33.98,-83.67,8.0,1.0,310,6,,10.0,29.991142,,,TRUE,TRUE,,,,,,,CLR,,,,,,,,VFR,,,,,,,,,,,,METAR,287.0
KW96 120735Z AUTO 00000KT 10SM CLR M01/M03 A2988 RMK AO1 T10111028,KW96,2015-02-12T07:35:00Z,37.5,-77.12,-1.1,-2.8,0,0,,10.0,29.878937,,,TRUE,TRUE,,,,,,,CLR,,,,,,,,VFR,,,,,,,,,,,,METAR,37.0
KLUM 120735Z AUTO 31013KT 10SM CLR M16/M21 A3044 RMK AO2 T11611213,KLUM,2015-02-12T07:35:00Z,44.9,-91.87,-16.1,-21.3,310,13,,10.0,30.43996,,,TRUE,TRUE,,,,,,,CLR,,,,,,,,VFR,,,,,,,,,,,,METAR,273.0
KLUD 120735Z AUTO 35007KT 10SM CLR 04/M03 A3036 RMK AO2 T00401029,KLUD,2015-02-12T07:35:00Z,33.25,-97.58,4.0,-2.9,350,7,,10.0,30.360237,,,TRUE,TRUE,,,,,,,CLR,,,,,,,,VFR,,,,,,,,,,,,METAR,319.0
KLNN 120735Z AUTO 29009KT 10SM SCT023 OVC065 M03/M04 A2988 RMK AO1 T10261045,KLNN,2015-02-12T07:35:00Z,41.67,-81.37,-2.6,-4.5,290,9,,10.0,29.878937,,,TRUE,TRUE,,,,,,,SCT,2300,OVC,6500,,,,,VFR,,,,,,,,,,,,METAR,191.0
KLNC 120735Z AUTO 35012KT 10SM CLR 07/M02 A3034 RMK AO2 T00661017,KLNC,2015-02-12T07:35:00Z,32.58,-96.72,6.6,-1.7,350,12,,10.0,30.339567,,,TRUE,TRUE,,,,,,,CLR,,,,,,,,VFR,,,,,,,,,,,,METAR,153.0
KLAL 120735Z AUTO 00000KT 10SM CLR 06/05 A3006 RMK AO2,KLAL,2015-02-12T07:35:00Z,27.97,-82.02,6.0,5.0,0,0,,10.0,30.059055,,,TRUE,TRUE,,,,,,,CLR,,,,,,,,VFR,,,,,,,,,,,,METAR,43.0
KJXI 120735Z AUTO 33011KT 10SM CLR 07/02 A3027 RMK AO2 T00680017,KJXI,2015-02-12T07:35:00Z,32.7,-94.95,6.8,1.7,330,11,,10.0,30.268702,,,TRUE,TRUE,,,,,,,CLR,,,,,,,,VFR,,,,,,,,,,,,METAR,127.0
KJWG 120735Z AUTO 36004KT 10SM CLR M02/M05 A3044 RMK AO2 T10201048,KJWG,2015-02-12T07:35:00Z,35.87,-98.42,-2.0,-4.8,360,4,,10.0,30.43996,,,TRUE,TRUE,,,,,,,CLR,,,,,,,,VFR,,,,,,,,,,,,METAR,472.0
KJSV 120735Z AUTO 36007KT 10SM CLR 01/M04 A3043 RMK AO2,KJSV,2015-02-12T07:35:00Z,35.43,-94.8,1.0,-4.0,360,7,,10.0,30.431103,,,TRUE,TRUE,,,,,,,CLR,,,,,,,,VFR,,,,,,,,,,,,METAR,161.0
KJSO 120735Z AUTO 34007KT 10SM CLR 09/04 A3026 RMK AO2 T00940046,KJSO,2015-02-12T07:35:00Z,31.87,-95.22,9.4,4.6,340,7,,10.0,30.259842,,,TRUE,TRUE,,,,,,,CLR,,,,,,,,VFR,,,,,,,,,,,,METAR,206.0
KJFZ 120735Z AUTO 29009KT 10SM OVC021 02/M03 A2991 RMK AO2 T00151027,KJFZ,2015-02-12T07:35:00Z,37.07,-81.8,1.5,-2.7,290,9,,10.0,29.911417,,,TRUE,TRUE,,,,,,,OVC,2100,,,,,,,MVFR,,,,,,,,,,,,METAR,809.0
KJAS 120735Z AUTO 00000KT 7SM CLR 06/06 A3020 RMK AO2 T00640057,KJAS,2015-02-12T07:35:00Z,30.88,-94.03,6.4,5.7,0,0,,7.0,30.200787,,,TRUE,TRUE,,,,,,,CLR,,,,,,,,VFR,,,,,,,,,,,,METAR,65.0
K6R3 120734Z AUTO 34003KT 10SM 09/09 A3020 RMK AO2,K6R3,2015-02-12T07:34:00Z,30.35,-95.0,9.0,9.0,340,3,,10.0,30.200787,,,TRUE,TRUE,,,,,,,,,,,,,,,,,,,,,,,,,,,SPECI,46.0
CYFB 120734Z 32014KT 3SM IC DRSN SCT010 M38/M42 A3009 RMK IC2SF1 SLP195,CYFB,2015-02-12T07:34:00Z,63.75,-68.55,-38.0,-42.0,320,14,,3.0,30.088583,1019.5,,,,,,,,,IC DRSN,SCT,1000,,,,,,,MVFR,,,,,,,,,,,,SPECI,34.0
CYZY 120733Z AUTO 16005KT 9SM -SN OVC011 00/00 A2999 RMK SLP195,CYZY,2015-02-12T07:33:00Z,55.28,-123.12,0.0,0.0,160,5,,9.0,29.991142,1019.5,,TRUE,,,,,,,-SN,OVC,1100,,,,,,,MVFR,,,,,,,,,,,,SPECI,690.0
LTAP 120733Z 00000KT 4400 -SN BR BKN002 OVC031 01/01 Q1014 R052///77 BECMG TL0820 BKN032 RMK RWY23 25004KT,LTAP,2015-02-12T07:33:00Z,40.83,35.52,1.0,1.0,0,0,,2.73,29.940945,,,,,,,,,,-SN BR,BKN,200,OVC,3100,,,,,LIFR,,,,,,,,,,,,SPECI,535.0
ETEB 120733Z AUTO 14007KT M0400 -FZDZ FZFG OVC002 M02/M02 A3021 RMK AO2 RVRNO,ETEB,2015-02-12T07:33:00Z,49.32,10.62,-2.0,-2.0,140,7,,0.25,30.209646,,,TRUE,TRUE,,,,,,-FZDZ FZFG,OVC,200,,,,,,,LIFR,,,,,,,,,,,,SPECI,467.0
RJNT 120733Z 23013KT 5000 SHRA FEW010 SCT020 BKN030 04/01 Q1004 RMK 1CU010 4CU020 6CU030 A2967,RJNT,2015-02-12T07:33:00Z,36.63,137.17,4.0,1.0,230,13,,3.11,29.64567,,,,,,,,,,SHRA,FEW,1000,SCT,2000,BKN,3000,,,MVFR,,,,,,,,,,,,SPECI,27.0
FACV 120733Z 23007KT CAVOK 22/07 Q1017,FACV,2015-02-12T07:33:00Z,-31.5,19.72,22.0,7.0,230,7,,6.21,30.029528,,,,,,,,,,,CAVOK,,,,,,,,VFR,,,,,,,,,,,,SPECI,977.0
KFFO 120733Z 28013KT 10SM -SN OVC016 M01/M05 A2998 RMK AO2A,KFFO,2015-02-12T07:33:00Z,39.82,-84.03,-1.0,-5.0,280,13,,10.0,29.97933,,,,TRUE,,,,,,-SN,OVC,1600,,,,,,,MVFR,,,,,,,,,,,,METAR,251.0
KBLV 120733Z AUTO 31008KT 10SM BKN028 M03/M07 A3024 RMK AO2 BKN V FEW,KBLV,2015-02-12T07:33:00Z,38.53,-89.83,-3.0,-7.0,310,8,,10.0,30.239174,,,TRUE,TRUE,,,,,,,BKN,2800,,,,,,,MVFR,,,,,,,,,,,,METAR,138.0
KGDP 120732Z AUTO 04038G45KT 10SM OVC011 01/M02 A3031 RMK AO2 PK WND 05045/0729 T00111017,KGDP,2015-02-12T07:32:00Z,31.83,-104.82,1.1,-1.7,40,38,45,10.0,30.31004,,,TRUE,TRUE,,,,,,,OVC,1100,,,,,,,MVFR,,,,,,,,,,,,METAR,1692.0
PADM 120732Z AUTO 05012KT 6SM -SN FEW004 OVC029 M14/M18 A2962 RMK AO2 TSNO OVC V BKN P0000 $,PADM,2015-02-12T07:32:00Z,61.87,-162.03,-14.0,-18.0,50,12,,6.0,29.619095,,,TRUE,TRUE,TRUE,,TRUE,,,-SN,FEW,400,OVC,2900,,,,,MVFR,,,,,,0.0050,,,,,,SPECI,31.0
CYRV 120732Z AUTO VRB02KT 1 1/4SM BR OVC010 02/02 A3026 RMK VIS VRB 1/2-3 SLP264,CYRV,2015-02-12T07:32:00Z,50.97,-118.17,2.0,2.0,0,2,,1.25,30.259842,1026.4,,TRUE,,,,,,,BR,OVC,1000,,,,,,,IFR,,,,,,,,,,,,SPECI,443.0
LFBD 120730Z AUTO 11005KT 6000 NSC 04/02 Q1020,LFBD,2015-02-12T07:30:00Z,44.82,-0.7,4.0,2.0,110,5,,3.73,30.11811,,,TRUE,,,,,,,,,,,,,,,,,,,,,,,,,,,,SPECI,61.0
LFTH 120730Z AUTO VRB03KT 4700 BR OVC025 05/05 Q1022,LFTH,2015-02-12T07:30:00Z,43.1,6.15,5.0,5.0,0,3,,2.92,30.177166,,,TRUE,,,,,,,BR,OVC,2500,,,,,,,IFR,,,,,,,,,,,,METAR,4.0
LFST 120730Z AUTO VRB02KT 0250 R23/0800N R05/1000D FZFG VV/// M00/M01 Q1023,LFST,2015-02-12T07:30:00Z,48.53,7.62,0.0,-1.0,0,2,,0.16,30.206694,,,TRUE,,,,,,,FZFG,OVX,0,,,,,,,LIFR,,,,,,,,,,,,SPECI,154.0
LFSB 120730Z 00000KT 2500 BR FEW001 M04/M05 Q1023 NOSIG,LFSB,2015-02-12T07:30:00Z,47.6,7.52,-4.0,-5.0,0,0,,1.55,30.206694,,,,,,TRUE,,,,BR,FEW,100,,,,,,,IFR,,,,,,,,,,,,METAR,271.0
LFBH 120730Z AUTO 13008KT 9999 NSC 05/00 Q1019,LFBH,2015-02-12T07:30:00Z,46.18,-1.2,5.0,0.0,130,8,,6.21,30.088583,,,TRUE,,,,,,,,,,,,,,,,,,,,,,,,,,,,SPECI,10.0
LFBO 120730Z AUTO 00000KT 6000 -DZ OVC008 04/04 Q1020,LFBO,2015-02-12T07:30:00Z,43.62,1.37,4.0,4.0,0,0,,3.73,30.11811,,,TRUE,,,,,,,-DZ,OVC,800,,,,,,,IFR,,,,,,,,,,,,METAR,153.0
LFBL 120730Z AUTO 06003KT 9999 NSC 03/M01 Q1020,LFBL,2015-02-12T07:30:00Z,45.87,1.17,3.0,-1.0,60,3,,6.21,30.11811,,,TRUE,,,,,,,,,,,,,,,,,,,,,,,,,,,,SPECI,402.0
LFBI 120730Z AUTO 00000KT 5000 BR NSC M01/M02 Q1020,LFBI,2015-02-12T07:30:00Z,46.57,0.32,-1.0,-2.0,0,0,,3.11,30.11811,,,TRUE,,,,,,,BR,,,,,,,,,,,,,,,,,,,,,SPECI,120.0
LEAS 120730Z 24007KT CAVOK 05/01 Q1018 NOSIG,LEAS,2015-02-12T07:30:00Z,43.53,-6.02,5.0,1.0,240,7,,6.21,30.059055,,,,,,TRUE,,,,,CAVOK,,,,,,,,VFR,,,,,,,,,,,,METAR,134.0
UMGG 120730Z 23003MPS 0900 -FZDZ FZFG VV002 M02/M02 Q1028 R28/290050 NOSIG RMK QBB080,UMGG,2015-02-12T07:30:00Z,52.53,31.02,-2.0,-2.0,230,6,,0.56,30.35433,,,,,,TRUE,,,,-FZDZ FZFG,OVX,0,,,,,,,LIFR,,,,,,,,,,,200,METAR,144.0
UMBB 120730Z 22003MPS 5000 BR OVC007 01/M00 Q1028 R29/290050 NOSIG,UMBB,2015-02-12T07:30:00Z,52.12,23.9,1.0,0.0,220,6,,3.11,30.35433,,,,,,TRUE,,,,BR,OVC,700,,,,,,,IFR,,,,,,,,,,,,METAR,143.0
UMMG 120730Z 21003MPS 4500 BR OVC004 M00/M01 Q1026 R17/390134 NOSIG RMK QBB140,UMMG,2015-02-12T07:30:00Z,53.6,24.05,0.0,-1.0,210,6,,2.8,30.295275,,,,,,TRUE,,,,BR,OVC,400,,,,,,,LIFR,,,,,,,,,,,,METAR,135.0
LRTR 120730Z 09006KT 070V130 CAVOK M02/M06 Q1030 NOSIG,LRTR,2015-02-12T07:30:00Z,45.82,21.33,-2.0,-6.0,90,6,,6.21,30.413385,,,,,,TRUE,,,,,CAVOK,,,,,,,,VFR,,,,,,,,,,,,METAR,88.0
LRSB 120730Z VRB01KT CAVOK M06/M10 Q1029,LRSB,2015-02-12T07:30:00Z,45.78,24.08,-6.0,-10.0,0,1,,6.21,30.383858,,,,,,,,,,,CAVOK,,,,,,,,VFR,,,,,,,,,,,,METAR,444.0
LROP 120730Z 24006KT 9999 FEW049 M01/M03 Q1028 R08R/19//95 R08L/19//95 NOSIG,LROP,2015-02-12T07:30:00Z,44.57,26.1,-1.0,-3.0,240,6,,6.21,30.35433,,,,,,TRUE,,,,,FEW,4900,,,,,,,VFR,,,,,,,,,,,,SPECI,95.0
LRCK 120730Z 01010KT 9999 OVC017 M02/M02 Q1025 RMK R36/452594 NOSIG,LRCK,2015-02-12T07:30:00Z,44.37,28.48,-2.0,-2.0,10,10,,6.21,30.265747,,,,,,,,,,,OVC,1700,,,,,,,MVFR,,,,,,,,,,,,METAR,108.0
LRBS 120730Z 24005KT 9999 FEW024 M01/M06 Q1028 NOSIG,LRBS,2015-02-12T07:30:00Z,44.5,26.08,-1.0,-6.0,240,5,,6.21,30.35433,,,,,,TRUE,,,,,FEW,2400,,,,,,,VFR,,,,,,,,,,,,METAR,91.0
LFSL 120730Z AUTO 13003KT 9999 NSC M00/M02 Q1020,LFSL,2015-02-12T07:30:00Z,45.03,1.48,0.0,-2.0,130,3,,6.21,30.11811,,,TRUE,,,,,,,,,,,,,,,,,,,,,,,,,,,,SPECI,310.0
LFMV 120730Z AUTO 10001KT 6000 NSC M01/M01 Q1022,LFMV,2015-02-12T07:30:00Z,43.9,4.9,-1.0,-1.0,100,1,,3.73,30.177166,,,TRUE,,,,,,,,,,,,,,,,,,,,,,,,,,,,METAR,38.0
LFMP 120730Z AUTO VRB02KT 6000 NSC 03/02 Q1021,LFMP,2015-02-12T07:30:00Z,42.72,2.87,3.0,2.0,0,2,,3.73,30.147638,,,TRUE,,,,,,,,,,,,,,,,,,,,,,,,,,,,SPECI,48.0
LFKJ 120730Z 05006KT CAVOK 05/03 Q1021 NOSIG,LFKJ,2015-02-12T07:30:00Z,41.92,8.8,5.0,3.0,50,6,,6.21,30.147638,,,,,,TRUE,,,,,CAVOK,,,,,,,,VFR,,,,,,,,,,,,METAR,9.0
LFKF 120730Z AUTO 06007KT 9999 FEW013/// 10/08 Q1022,LFKF,2015-02-12T07:30:00Z,41.5,9.08,10.0,8.0,60,7,,6.21,30.177166,,,TRUE,,,,,,,,,,,,,,,,,,,,,,,,,,,,SPECI,23.0
LFKC 120730Z 16005KT CAVOK 04/03 Q1021 NOSIG,LFKC,2015-02-12T07:30:00Z,42.52,8.8,4.0,3.0,160,5,,6.21,30.147638,,,,,,TRUE,,,,,CAVOK,,,,,,,,VFR,,,,,,,,,,,,METAR,58.0
LFKB 120730Z 24004KT 9999 FEW013 07/04 Q1022 NOSIG,LFKB,2015-02-12T07:30:00Z,42.53,9.47,7.0,4.0,240,4,,6.21,30.177166,,,,,,TRUE,,,,,FEW,1300,,,,,,,VFR,,,,,,,,,,,,METAR,12.0
LFRS 120730Z VRB01KT 5000 NSC M00/M01 Q1019 NOSIG,LFRS,2015-02-12T07:30:00Z,47.17,-1.6,0.0,-1.0,0,1,,3.11,30.088583,,,,,,TRUE,,,,,,,,,,,,,,,,,,,,,,,,,SPECI,27.0
LFRB 120730Z 05005KT 1800 BR BKN023 00/M00 Q1018 NOSIG,LFRB,2015-02-12T07:30:00Z,48.45,-4.42,0.0,0.0,50,5,,1.12,30.059055,,,,,,TRUE,,,,BR,BKN,2300,,,,,,,IFR,,,,,,,,,,,,METAR,103.0
LFQQ 120730Z 11003KT 3000 BR OVC014 01/00 Q1021 NOSIG,LFQQ,2015-02-12T07:30:00Z,50.57,3.1,1.0,0.0,110,3,,1.86,30.147638,,,,,,TRUE,,,,BR,OVC,1400,,,,,,,IFR,,,,,,,,,,,,METAR,52.0
LFPO 120730Z VRB03KT 0800 R02/1800D R26/1500U R08/0450N R24/1200D R06/1400U BCFG BKN001 M03/M03 Q1021 TEMPO 0400 FG,LFPO,2015-02-12T07:30:00Z,48.72,2.38,-3.0,-3.0,0,3,,0.5,30.147638,,,,,,,,,,BCFG,BKN,100,,,,,,,LIFR,,,,,,,,,,,,SPECI,96.0
LFPG 120730Z VRB02KT 2000 0400S R27L/0600D R09R/0750D R26R/0400D R08L/P2000 R26L/0450N R08R/1500U R27R/0750D R09L/P2000 BCFG FEW004 M01/M02 Q1020 TEMPO 0300 FZFG BKN000,LFPG,2015-02-12T07:30:00Z,49.02,2.52,-1.0,-2.0,0,2,,1.24,30.11811,,,,,,,,,,BCFG,FEW,400,,,,,,,IFR,,,,,,,,,,,,SPECI,109.0
LFMN 120730Z 33012KT 9999 FEW023 07/M00 Q1022 NOSIG,LFMN,2015-02-12T07:30:00Z,43.63,7.2,7.0,0.0,330,12,,6.21,30.177166,,,,,,TRUE,,,,,FEW,2300,,,,,,,VFR,,,,,,,,,,,,METAR,10.0
LFLL 120730Z 11003KT 090V170 7000 NSC M00/M03 Q1021 NOSIG,LFLL,2015-02-12T07:30:00Z,45.72,5.07,0.0,-3.0,110,3,,4.35,30.147638,,,,,,TRUE,,,,,,,,,,,,,,,,,,,,,,,,,SPECI,240.0
LFYR 120730Z AUTO 00000KT 5000 BR NSC M04/M04 Q1021,LFYR,2015-02-12T07:30:00Z,47.32,1.67,-4.0,-4.0,0,0,,3.11,30.147638,,,TRUE,,,,,,,BR,,,,,,,,,,,,,,,,,,,,,METAR,86.0
LFSX 120730Z AUTO 06006KT 6000 NSC M01/M03 Q1022,LFSX,2015-02-12T07:30:00Z,47.77,6.33,-1.0,-3.0,60,6,,3.73,30.177166,,,TRUE,,,,,,,,,,,,,,,,,,,,,,,,,,,,SPECI,273.0
LFSO 120730Z AUTO 10003KT 0250 FZFG VV/// M04/M04 Q1021,LFSO,2015-02-12T07:30:00Z,48.57,5.97,-4.0,-4.0,100,3,,0.16,30.147638,,,TRUE,,,,,,,FZFG,OVX,0,,,,,,,LIFR,,,,,,,,,,,,METAR,350.0
LFSI 120730Z AUTO 09003KT 4900 BR NSC M01/M02 Q1021,LFSI,2015-02-12T07:30:00Z,48.62,4.9,-1.0,-2.0,90,3,,3.04,30.147638,,,TRUE,,,,,,,BR,,,,,,,,,,,,,,,,,,,,,SPECI,140.0
LFTW 120730Z AUTO 05004KT 8000 NSC 03/01 Q1022,LFTW,2015-02-12T07:30:00Z,43.75,4.42,3.0,1.0,50,4,,4.97,30.177166,,,TRUE,,,,,,,,,,,,,,,,,,,,,,,,,,,,METAR,96.0
LFSD 120730Z AUTO 34002KT 2900 BR NSC M04/M04 Q1022,LFSD,2015-02-12T07:30:00Z,47.27,5.07,-4.0,-4.0,340,2,,1.8,30.177166,,,TRUE,,,,,,,BR,,,,,,,,,,,,,,,,,,,,,METAR,227.0
LFRT 120730Z AUTO 16003KT 0150 UP FZFG VV/// M02/M02 Q1019,LFRT,2015-02-12T07:30:00Z,48.52,-2.85,-2.0,-2.0,160,3,,0.09,30.088583,,,TRUE,,,,,,,FZFG UP,OVX,0,,,,,,,LIFR,,,,,,,,,,,,METAR,136.0
LFRQ 120730Z AUTO 05003KT 3600 BR OVC005 03/02 Q1018,LFRQ,2015-02-12T07:30:00Z,47.97,-4.17,3.0,2.0,50,3,,2.24,30.059055,,,TRUE,,,,,,,BR,OVC,500,,,,,,,IFR,,,,,,,,,,,,METAR,94.0
LFRH 120730Z AUTO 07003KT 3400 BR OVC007 03/02 Q1018,LFRH,2015-02-12T07:30:00Z,47.77,-3.45,3.0,2.0,70,3,,2.11,30.059055,,,TRUE,,,,,,,BR,OVC,700,,,,,,,IFR,,,,,,,,,,,,METAR,44.0
LFPT 120730Z AUTO 00000KT 0050 R05/0225N FZFG VV/// M01/M02 Q1021,LFPT,2015-02-12T07:30:00Z,49.1,2.03,-1.0,-2.0,0,0,,0.03,30.147638,,,TRUE,,,,,,,FZFG,OVX,0,,,,,,,LIFR,,,,,,,,,,,,METAR,99.0
LFPM 120730Z AUTO 00000KT 1500 BR NSC M03/M03 Q1021,LFPM,2015-02-12T07:30:00Z,48.62,2.67,-3.0,-3.0,0,0,,0.93,30.147638,,,TRUE,,,,,,,BR,,,,,,,,,,,,,,,,,,,,,METAR,92.0
LFLN 120730Z AUTO 00000KT 2500 BR NSC M05/M05 Q1021,LFLN,2015-02-12T07:30:00Z,46.42,4.02,-5.0,-5.0,0,0,,1.55,30.147638,,,TRUE,,,,,,,BR,,,,,,,,,,,,,,,,,,,,,METAR,244.0
LFGA 120730Z AUTO VRB02KT 0200 R19/0550N FZFG VV/// M01/M02 Q1023,LFGA,2015-02-12T07:30:00Z,48.1,7.35,-1.0,-2.0,0,2,,0.12,30.206694,,,TRUE,,,,,,,FZFG,OVX,0,,,,,,,LIFR,,,,,,,,,,,,METAR,191.0
LFBU 120730Z AUTO 15005KT 110V170 9999 NSC 04/M01 Q1020,LFBU,2015-02-12T07:30:00Z,45.72,0.22,4.0,-1.0,150,5,,6.21,30.11811,,,TRUE,,,,,,,,,,,,,,,,,,,,,,,,,,,,METAR,133.0
LFAT 120730Z AUTO VRB02KT 3400 BR OVC021 03/01 Q1021,LFAT,2015-02-12T07:30:00Z,50.52,1.62,3.0,1.0,0,2,,2.11,30.147638,,,TRUE,,,,,,,BR,OVC,2100,,,,,,,IFR,,,,,,,,,,,,METAR,14.0
LFAQ 120730Z AUTO 11002KT 1400 R27/P2000 BR BKN023 M01/M01 Q1021,LFAQ,2015-02-12T07:30:00Z,49.97,2.7,-1.0,-1.0,110,2,,0.87,30.147638,,,TRUE,,,,,,,BR,BKN,2300,,,,,,,LIFR,,,,,,,,,,,,METAR,111.0
LRTC 120730Z 36016KT 9999 BKN014 M01/M05 Q1027 RMK R16/952093,LRTC,2015-02-12T07:30:00Z,45.07,28.72,-1.0,-5.0,360,16,,6.21,30.324802,,,,,,,,,,,BKN,1400,,,,,,,MVFR,,,,,,,,,,,,METAR,6.0
LRSV 120730Z 34004KT CAVOK M02/M02 Q1029,LRSV,2015-02-12T07:30:00Z,47.68,26.35,-2.0,-2.0,340,4,,6.21,30.383858,,,,,,,,,,,CAVOK,,,,,,,,VFR,,,,,,,,,,,,METAR,351.0
LRIA 120730Z 32005KT 270V340 CAVOK M02/M07 Q1030 R14/09//95,LRIA,2015-02-12T07:30:00Z,47.17,27.62,-2.0,-7.0,320,5,,6.21,30.413385,,,,,,,,,,,CAVOK,,,,,,,,VFR,,,,,,,,,,,,METAR,104.0
LRCV 120730Z 22004KT CAVOK M06/M08 Q1029,LRCV,2015-02-12T07:30:00Z,44.32,23.88,-6.0,-8.0,220,4,,6.21,30.383858,,,,,,,,,,,CAVOK,,,,,,,,VFR,,,,,,,,,,,,METAR,191.0
LRBC 120730Z 34007KT CAVOK M01/M04 Q1030 R16/09//95,LRBC,2015-02-12T07:30:00Z,46.52,26.92,-1.0,-4.0,340,7,,6.21,30.413385,,,,,,,,,,,CAVOK,,,,,,,,VFR,,,,,,,,,,,,METAR,185.0
LFRK 120730Z AUTO 17002KT 2200 BR OVC021 01/M00 Q1020,LFRK,2015-02-12T07:30:00Z,49.17,-0.45,1.0,0.0,170,2,,1.37,30.11811,,,TRUE,,,,,,,BR,OVC,2100,,,,,,,IFR,,,,,,,,,,,,METAR,67.0
LFRG 120730Z AUTO 00000KT 3500 BR OVC022 02/01 Q1020,LFRG,2015-02-12T07:30:00Z,49.37,0.15,2.0,1.0,0,0,,2.17,30.11811,,,TRUE,,,,,,,BR,OVC,2200,,,,,,,IFR,,,,,,,,,,,,METAR,146.0
LFRC 120730Z AUTO 14002KT 9999 OVC021 03/00 Q1020,LFRC,2015-02-12T07:30:00Z,49.63,-1.47,3.0,0.0,140,2,,6.21,30.11811,,,TRUE,,,,,,,,OVC,2100,,,,,,,MVFR,,,,,,,,,,,,METAR,138.0
LFPN 120730Z AUTO VRB02KT 0150 R25R/0375N FZFG VV/// M03/M04 Q1020,LFPN,2015-02-12T07:30:00Z,48.75,2.12,-3.0,-4.0,0,2,,0.09,30.11811,,,TRUE,,,,,,,FZFG,OVX,0,,,,,,,LIFR,,,,,,,,,,,,METAR,164.0
LFOT 120730Z AUTO 08005KT 1700 BR NSC M01/M02 Q1020,LFOT,2015-02-12T07:30:00Z,47.43,0.72,-1.0,-2.0,80,5,,1.06,30.11811,,,TRUE,,,,,,,BR,,,,,,,,,,,,,,,,,,,,,METAR,108.0
LFMH 120730Z 00000KT CAVOK 01/M04 Q1021 NOSIG,LFMH,2015-02-12T07:30:00Z,45.52,4.28,1.0,-4.0,0,0,,6.21,30.147638,,,,,,TRUE,,,,,CAVOK,,,,,,,,VFR,,,,,,,,,,,,METAR,402.0
LFMD 120730Z AUTO 36005KT 320V030 9999 NSC 04/01 Q1022,LFMD,2015-02-12T07:30:00Z,43.53,6.95,4.0,1.0,360,5,,6.21,30.177166,,,TRUE,,,,,,,,,,,,,,,,,,,,,,,,,,,,METAR,9.0
LFJR 120730Z AUTO 07002KT 2100 BR NSC M02/M03 Q1020,LFJR,2015-02-12T07:30:00Z,47.57,-0.3,-2.0,-3.0,70,2,,1.3,30.11811,,,TRUE,,,,,,,BR,,,,,,,,,,,,,,,,,,,,,METAR,60.0
LFGJ 120730Z AUTO 07004KT 4500 BR NSC M03/M04 Q1022,LFGJ,2015-02-12T07:30:00Z,47.05,5.43,-3.0,-4.0,70,4,,2.8,30.177166,,,TRUE,,,,,,,BR,,,,,,,,,,,,,,,,,,,,,METAR,196.0
LFBE 120730Z AUTO VRB03KT 6000 BKN008 BKN100 BKN130 M00/M01 Q1021,LFBE,2015-02-12T07:30:00Z,44.82,0.52,0.0,-1.0,0,3,,3.73,30.147638,,,TRUE,,,,,,,,BKN,800,BKN,10000,BKN,13000,,,IFR,,,,,,,,,,,,METAR,52.0
LFBA 120730Z AUTO 12005KT 0200 R29/0550U FG VV/// 03/03 Q1021,LFBA,2015-02-12T07:30:00Z,44.17,0.6,3.0,3.0,120,5,,0.12,30.147638,,,TRUE,,,,,,,FG,OVX,0,,,,,,,LIFR,,,,,,,,,,,,METAR,60.0
LFSN 120730Z AUTO VRB03KT 0200 R03/0550N FZFG VV/// M02/M02 Q1022,LFSN,2015-02-12T07:30:00Z,48.67,6.22,-2.0,-2.0,0,3,,0.12,30.177166,,,TRUE,,,,,,,FZFG,OVX,0,,,,,,,LIFR,,,,,,,,,,,,METAR,217.0
LFQB 120730Z AUTO 17003KT 7000 NSC M05/M06 Q1021,LFQB,2015-02-12T07:30:00Z,48.32,4.02,-5.0,-6.0,170,3,,4.35,30.147638,,,TRUE,,,,,,,,,,,,,,,,,,,,,,,,,,,,SPECI,118.0
LFQA 120730Z AUTO 11008KT 2500 BR NSC M02/M03 Q1021,LFQA,2015-02-12T07:30:00Z,49.2,4.15,-2.0,-3.0,110,8,,1.55,30.147638,,,TRUE,,,,,,,BR,,,,,,,,,,,,,,,,,,,,,METAR,95.0
LFPB 120730Z AUTO VRB03KT 1600 1200 R27/P2000 R09/P2000 R07/1800D UP BR FEW015 M03/M03 Q1021,LFPB,2015-02-12T07:30:00Z,48.97,2.45,-3.0,-3.0,0,3,,0.99,30.147638,,,TRUE,,,,,,,BR UP,FEW,1500,,,,,,,LIFR,,,,,,,,,,,,SPECI,65.0
LFOP 120730Z AUTO 16002KT 2000 BR OVC023 02/01 Q1020,LFOP,2015-02-12T07:30:00Z,49.37,1.17,2.0,1.0,160,2,,1.24,30.11811,,,TRUE,,,,,,,BR,OVC,2300,,,,,,,IFR,,,,,,,,,,,,METAR,157.0
LFOK 120730Z AUTO VRB02KT 4300 BR NSC M03/M04 Q1021,LFOK,2015-02-12T07:30:00Z,48.78,4.18,-3.0,-4.0,0,2,,2.67,30.147638,,,TRUE,,,,,,,BR,,,,,,,,,,,,,,,,,,,,,METAR,162.0
LFOH 120730Z AUTO VRB01KT 3800 BR OVC023 04/02 Q1020,LFOH,2015-02-12T07:30:00Z,49.52,0.07,4.0,2.0,0,1,,2.36,30.11811,,,TRUE,,,,,,,BR,OVC,2300,,,,,,,IFR,,,,,,,,,,,,METAR,103.0
LFOB 120730Z AUTO 00000KT 0150 R30/0450N R12/0650D FZFG VV/// M02/M02 Q1021,LFOB,2015-02-12T07:30:00Z,49.47,2.12,-2.0,-2.0,0,0,,0.09,30.147638,,,TRUE,,,,,,,FZFG,OVX,0,,,,,,,LIFR,,,,,,,,,,,,SPECI,111.0
LFMU 120730Z AUTO 01006KT 9999 OVC019 04/02 Q1021,LFMU,2015-02-12T07:30:00Z,43.32,3.35,4.0,2.0,10,6,,6.21,30.147638,,,TRUE,,,,,,,,OVC,1900,,,,,,,MVFR,,,,,,,,,,,,METAR,17.0
LFMT 120730Z 04004KT CAVOK 04/01 Q1022 NOSIG,LFMT,2015-02-12T07:30:00Z,43.57,3.97,4.0,1.0,40,4,,6.21,30.177166,,,,,,TRUE,,,,,CAVOK,,,,,,,,VFR,,,,,,,,,,,,METAR,6.0
LFLY 120730Z AUTO 24002KT 5000 BR NSC M01/M02 Q1022,LFLY,2015-02-12T07:30:00Z,45.72,4.95,-1.0,-2.0,240,2,,3.11,30.177166,,,TRUE,,,,,,,BR,,,,,,,,,,,,,,,,,,,,,SPECI,201.0
LFLU 120730Z AUTO 00000KT 7000 NSC M03/M03 Q1022,LFLU,2015-02-12T07:30:00Z,44.92,4.98,-3.0,-3.0,0,0,,4.35,30.177166,,,TRUE,,,,,,,,,,,,,,,,,,,,,,,,,,,,METAR,160.0
LFLS 120730Z AUTO 09012KT 9999 NSC 02/M01 Q1021,LFLS,2015-02-12T07:30:00Z,45.37,5.32,2.0,-1.0,90,12,,6.21,30.147638,,,TRUE,,,,,,,,,,,,,,,,,,,,,,,,,,,,SPECI,386.0
LFLP 120730Z AUTO 00000KT 0150 R04/0325U UP FZFG VV/// M04/M05 Q1023,LFLP,2015-02-12T07:30:00Z,45.92,6.08,-4.0,-5.0,0,0,,0.09,30.206694,,,TRUE,,,,,,,FZFG UP,OVX,0,,,,,,,LIFR,,,,,,,,,,,,METAR,463.0
LFJL 120730Z AUTO 10004KT 070V140 0150 R22/0500N R04/0700N FZFG VV/// M02/M02 Q1022,LFJL,2015-02-12T07:30:00Z,48.97,6.25,-2.0,-2.0,100,4,,0.09,30.177166,,,TRUE,,,,,,,FZFG,OVX,0,,,,,,,LIFR,,,,,,,,,,,,METAR,264.0
LFCR 120730Z AUTO 00000KT 9999 NSC 00/M04 Q1020,LFCR,2015-02-12T07:30:00Z,44.38,2.47,0.0,-4.0,0,0,,6.21,30.11811,,,TRUE,,,,,,,,,,,,,,,,,,,,,,,,,,,,METAR,580.0
LFML 120730Z 28002KT 6000 FEW002 SCT130 02/01 Q1022 NOSIG,LFML,2015-02-12T07:30:00Z,43.45,5.22,2.0,1.0,280,2,,3.73,30.177166,,,,,,TRUE,,,,,FEW,200,SCT,13000,,,,,MVFR,,,,,,,,,,,,METAR,36.0
LFLX 120730Z 02002KT 2600 BR NSC M04/M04 Q1020 NOSIG,LFLX,2015-02-12T07:30:00Z,46.85,1.72,-4.0,-4.0,20,2,,1.62,30.11811,,,,,,TRUE,,,,BR,,,,,,,,,,,,,,,,,,,,,METAR,157.0
LFLB 120730Z 00000KT 8000 NSC M03/M04 Q1023 NOSIG,LFLB,2015-02-12T07:30:00Z,45.63,5.87,-3.0,-4.0,0,0,,4.97,30.206694,,,,,,TRUE,,,,,,,,,,,,,,,,,,,,,,,,,SPECI,239.0
LFCK 120730Z AUTO 30004KT 0150 R14/0700D FG VV/// 00/00 Q1021,LFCK,2015-02-12T07:30:00Z,43.55,2.28,0.0,0.0,300,4,,0.09,30.147638,,,TRUE,,,,,,,FG,OVX,0,,,,,,,LIFR,,,,,,,,,,,,METAR,240.0
LFBZ 120730Z AUTO 16005KT 9999 FEW066/// BKN150/// BKN180/// ///TCU 07/03 Q1020,LFBZ,2015-02-12T07:30:00Z,43.47,-1.52,7.0,3.0,160,5,,6.21,30.11811,,,TRUE,,,,,,,,,,,,,,,,,,,,,,,,,,,,SPECI,71.0
LFBT 120730Z AUTO 19004KT 9999 NSC 02/M00 Q1019,LFBT,2015-02-12T07:30:00Z,43.17,0.0,2.0,0.0,190,4,,6.21,30.088583,,,TRUE,,,,,,,,,,,,,,,,,,,,,,,,,,,,SPECI,363.0
LFBP 120730Z AUTO 08003KT 9999 BKN100 03/01 Q1020,LFBP,2015-02-12T07:30:00Z,43.37,-0.42,3.0,1.0,80,3,,6.21,30.11811,,,TRUE,,,,,,,,BKN,10000,,,,,,,VFR,,,,,,,,,,,,METAR,185.0
LEBB 120730Z 00000KT CAVOK 05/01 Q1019 NOSIG,LEBB,2015-02-12T07:30:00Z,43.28,-2.92,5.0,1.0,0,0,,6.21,30.088583,,,,,,TRUE,,,,,CAVOK,,,,,,,,VFR,,,,,,,,,,,,METAR,34.0
LEST 120730Z VRB02KT 5000 -RA BKN017 BKN022 05/04 Q1017 TEMPO 3000 RA BKN010,LEST,2015-02-12T07:30:00Z,42.88,-8.42,5.0,4.0,0,2,,3.11,30.029528,,,,,,,,,,-RA,BKN,1700,BKN,2200,,,,,MVFR,,,,,,,,,,,,METAR,367.0
LEGE 120730Z 00000KT CAVOK 01/01 Q1021,LEGE,2015-02-12T07:30:00Z,41.88,2.77,1.0,1.0,0,0,,6.21,30.147638,,,,,,,,,,,CAVOK,,,,,,,,VFR,,,,,,,,,,,,METAR,129.0
LECO 120730Z 16004KT 4000 -RA BKN034 06/06 Q1018 NOSIG,LECO,2015-02-12T07:30:00Z,43.28,-8.37,6.0,6.0,160,4,,2.49,30.059055,,,,,,TRUE,,,,-RA,BKN,3400,,,,,,,IFR,,,,,,,,,,,,METAR,103.0
LFSG 120730Z AUTO 06002KT 0300 R26/0700D FZFG VV/// M06/M07 Q1021,LFSG,2015-02-12T07:30:00Z,48.33,6.07,-6.0,-7.0,60,2,,0.19,30.147638,,,TRUE,,,,,,,FZFG,OVX,0,,,,,,,LIFR,,,,,,,,,,,,METAR,330.0
RJBB 120730Z 26006KT 9999 FEW040 10/00 Q1005 NOSIG,RJBB,2015-02-12T07:30:00Z,34.42,135.25,10.0,0.0,260,6,,6.21,29.675198,,,,,,TRUE,,,,,FEW,4000,,,,,,,VFR,,,,,,,,,,,,METAR,8.0
NZAA 120730Z AUTO 08005KT 9999 BKN070/// 19/12 Q1024 NOSIG,NZAA,2015-02-12T07:30:00Z,-37.02,174.8,19.0,12.0,80,5,,6.21,30.236221,,,TRUE,,,TRUE,,,,,,,,,,,,,,,,,,,,,,,,,METAR,6.0
RJGG 120730Z 34005KT 9999 FEW020 10/04 Q1004 NOSIG,RJGG,2015-02-12T07:30:00Z,34.87,136.8,10.0,4.0,340,5,,6.21,29.64567,,,,,,TRUE,,,,,FEW,2000,,,,,,,VFR,,,,,,,,,,,,METAR,5.0
NZWN 120730Z AUTO 02013KT 9999 NCD 19/13 Q1023 NOSIG,NZWN,2015-02-12T07:30:00Z,-41.32,174.8,19.0,13.0,20,13,,6.21,30.206694,,,TRUE,,,TRUE,,,,,,,,,,,,,,,,,,,,,,,,,METAR,7.0
NZCH 120730Z AUTO 08012KT 9999 NCD 18/13 Q1019 NOSIG,NZCH,2015-02-12T07:30:00Z,-43.47,172.55,18.0,13.0,80,12,,6.21,30.088583,,,TRUE,,,TRUE,,,,,,,,,,,,,,,,,,,,,,,,,METAR,34.0
WBGG 120730Z 04005KT 350V090 5000 -RA FEW001 SCT020 BKN150 25/23 Q1010 NOSIG,WBGG,2015-02-12T07:30:00Z,1.47,110.35,25.0,23.0,40,5,,3.11,29.822834,,,,,,TRUE,,,,-RA,FEW,100,SCT,2000,BKN,15000,,,MVFR,,,,,,,,,,,,METAR,27.0
WBKK 120730Z 33007KT 270V050 9999 FEW015 BKN290 30/24 Q1009 NOSIG,WBKK,2015-02-12T07:30:00Z,5.92,116.03,30.0,24.0,330,7,,6.21,29.793306,,,,,,TRUE,,,,,FEW,1500,BKN,29000,,,,,VFR,,,,,,,,,,,,METAR,3.0
WBSB 120730Z 01010KT 9999 FEW016 BKN300 29/23 Q1010 NOSIG,WBSB,2015-02-12T07:30:00Z,4.92,114.92,29.0,23.0,10,10,,6.21,29.822834,,,,,,TRUE,,,,,FEW,1600,BKN,30000,,,,,VFR,,,,,,,,,,,,METAR,15.0
WMKK 120730Z 21005KT 9000 SCT018 BKN280 32/22 Q1008 NOSIG,WMKK,2015-02-12T07:30:00Z,2.75,101.72,32.0,22.0,210,5,,5.59,29.763779,,,,,,TRUE,,,,,SCT,1800,BKN,28000,,,,,VFR,,,,,,,,,,,,METAR,22.0
VOCB 120730Z 04008KT 6000 SCT015 31/18 Q1014 NOSIG,VOCB,2015-02-12T07:30:00Z,11.02,77.03,31.0,18.0,40,8,,3.73,29.940945,,,,,,TRUE,,,,,SCT,1500,,,,,,,MVFR,,,,,,,,,,,,METAR,399.0
VOCI 120730Z 15004KT 5000 HZ FEW020 33/20 Q1010 NOSIG,VOCI,2015-02-12T07:30:00Z,10.15,76.4,33.0,20.0,150,4,,3.11,29.822834,,,,,,TRUE,,,,HZ,FEW,2000,,,,,,,MVFR,,,,,,,,,,,,METAR,8.0
LFOA 120730Z AUTO 07003KT 2100 BR NSC M02/M02 Q1020,LFOA,2015-02-12T07:30:00Z,47.03,2.63,-2.0,-2.0,70,3,,1.3,30.11811,,,TRUE,,,,,,,BR,,,,,,,,,,,,,,,,,,,,,METAR,179.0
VDSR 120730Z 17008KT 140V210 9999 FEW017 30/20 Q1009,VDSR,2015-02-12T07:30:00Z,13.42,103.83,30.0,20.0,170,8,,6.21,29.793306,,,,,,,,,,,FEW,1700,,,,,,,VFR,,,,,,,,,,,,METAR,15.0
VDPP 120730Z VRB03KT 9999 FEW017 31/16 Q1009,VDPP,2015-02-12T07:30:00Z,11.55,104.83,31.0,16.0,0,3,,6.21,29.793306,,,,,,,,,,,FEW,1700,,,,,,,VFR,,,,,,,,,,,,METAR,10.0
VYYY 120730Z 25006KT 8000 R21/2000N FEW020 BKN110 32/16 Q1010 NOSIG,VYYY,2015-02-12T07:30:00Z,16.9,96.13,32.0,16.0,250,6,,4.97,29.822834,,,,,,TRUE,,,,,FEW,2000,BKN,11000,,,,,MVFR,,,,,,,,,,,,METAR,33.0
VYMD 120730Z 00000KT 7000 FEW020 32/14 Q1009NOSIG,VYMD,2015-02-12T07:30:00Z,21.7,95.98,32.0,14.0,0,0,,4.35,,,,,,,TRUE,,,,,FEW,2000,,,,,,,MVFR,,,,,,,,,,,,METAR,91.0
VLVT 120730Z 09002KT 8000 SCT050 30/18 Q1012 NOSIG,VLVT,2015-02-12T07:30:00Z,17.98,102.57,30.0,18.0,90,2,,4.97,29.88189,,,,,,TRUE,,,,,SCT,5000,,,,,,,MVFR,,,,,,,,,,,,METAR,171.0
VTSP 120730Z 09010KT 9999 FEW030 32/17 Q1009 A2982 NOSIG,VTSP,2015-02-12T07:30:00Z,8.12,98.32,32.0,17.0,90,10,,6.21,29.793306,,,,,,TRUE,,,,,FEW,3000,,,,,,,VFR,,,,,,,,,,,,METAR,10.0
VTSS 120730Z 05010KT 9999 FEW020 SCT300 31/24 Q1010 A2983 NOSIG,VTSS,2015-02-12T07:30:00Z,6.92,100.38,31.0,24.0,50,10,,6.21,29.822834,,,,,,TRUE,,,,,FEW,2000,SCT,30000,,,,,VFR,,,,,,,,,,,,METAR,35.0
VTCC 120730Z 20005KT 9000 SCT040 SCT120 30/08 Q1011 A2987 NOSIG,VTCC,2015-02-12T07:30:00Z,18.77,98.97,30.0,8.0,200,5,,5.59,29.852362,,,,,,TRUE,,,,,SCT,4000,SCT,12000,,,,,VFR,,,,,,,,,,,,METAR,314.0
VTBD 120730Z 16006KT 110V220 9000 FEW020 SCT035 BKN300 32/21 Q1009 NOSIG,VTBD,2015-02-12T07:30:00Z,13.92,100.6,32.0,21.0,160,6,,5.59,29.793306,,,,,,TRUE,,,,,FEW,2000,SCT,3500,BKN,30000,,,VFR,,,,,,,,,,,,METAR,3.0
VTBS 120730Z 17006KT 9999 FEW025 BKN300 32/19 Q1010 NOSIG,VTBS,2015-02-12T07:30:00Z,13.68,100.75,32.0,19.0,170,6,,6.21,29.822834,,,,,,TRUE,,,,,FEW,2500,BKN,30000,,,,,VFR,,,,,,,,,,,,METAR,2.0
WMKP 120730Z 21009KT 8000 FEW020 BKN300 31/21 Q1008 NOSIG,WMKP,2015-02-12T07:30:00Z,5.28,100.27,31.0,21.0,210,9,,4.97,29.763779,,,,,,TRUE,,,,,FEW,2000,BKN,30000,,,,,MVFR,,,,,,,,,,,,METAR,4.0
VEBS 120730Z 28006KT 4000 HZ SCT020 30/17 Q1014 NOSIG,VEBS,2015-02-12T07:30:00Z,20.25,85.82,30.0,17.0,280,6,,2.49,29.940945,,,,,,TRUE,,,,HZ,SCT,2000,,,,,,,IFR,,,,,,,,,,,,METAR,46.0
LFMK 120730Z AUTO 16003KT 8000 BKN008 OVC230 04/03 Q1020,LFMK,2015-02-12T07:30:00Z,43.22,2.32,4.0,3.0,160,3,,4.97,30.11811,,,TRUE,,,,,,,,BKN,800,OVC,23000,,,,,IFR,,,,,,,,,,,,METAR,130.0
LFMI 120730Z AUTO 05003KT 9999 NSC 01/01 Q1021,LFMI,2015-02-12T07:30:00Z,43.52,4.92,1.0,1.0,50,3,,6.21,30.147638,,,TRUE,,,,,,,,,,,,,,,,,,,,,,,,,,,,METAR,24.0
LROD 120730Z 10006KT CAVOK M02/M06 Q1030,LROD,2015-02-12T07:30:00Z,47.03,21.92,-2.0,-6.0,100,6,,6.21,30.413385,,,,,,,,,,,CAVOK,,,,,,,,VFR,,,,,,,,,,,,METAR,140.0
LRTM 120730Z VRB01KT 2700 BR FEW004 M08/M10 Q1030,LRTM,2015-02-12T07:30:00Z,46.47,24.42,-8.0,-10.0,0,1,,1.68,30.413385,,,,,,,,,,BR,FEW,400,,,,,,,IFR,,,,,,,,,,,,METAR,309.0
LRSM 120730Z 31002KT 270V340 CAVOK M04/M06 Q1030,LRSM,2015-02-12T07:30:00Z,47.7,22.88,-4.0,-6.0,310,2,,6.21,30.413385,,,,,,,,,,,CAVOK,,,,,,,,VFR,,,,,,,,,,,,METAR,124.0
LRCL 120730Z 10003KT 4000 BR NSC M08/M09 Q1030,LRCL,2015-02-12T07:30:00Z,46.78,23.68,-8.0,-9.0,100,3,,2.49,30.413385,,,,,,,,,,BR,,,,,,,,,,,,,,,,,,,,,METAR,413.0
LRBM 120730Z 13003KT 090V150 CAVOK M03/M06 Q1031,LRBM,2015-02-12T07:30:00Z,47.67,23.47,-3.0,-6.0,130,3,,6.21,30.442913,,,,,,,,,,,CAVOK,,,,,,,,VFR,,,,,,,,,,,,METAR,185.0
LRAR 120730Z 14007KT CAVOK M00/M08 Q1030,LRAR,2015-02-12T07:30:00Z,46.18,21.27,0.0,-8.0,140,7,,6.21,30.413385,,,,,,,,,,,CAVOK,,,,,,,,VFR,,,,,,,,,,,,METAR,118.0
OICK 120730Z 21010KT 8000 FEW035CB SCT040 BKN090 17/07 Q1013,OICK,2015-02-12T07:30:00Z,33.43,48.28,17.0,7.0,210,10,,4.97,29.911417,,,,,,,,,,,FEW,3500,SCT,4000,BKN,9000,,,MVFR,,,,,,,,,,,,METAR,1155.0
OIBP 120730Z 14014KT CAVOK 30/12 Q1016 A3002,OIBP,2015-02-12T07:30:00Z,27.38,52.73,30.0,12.0,140,14,,6.21,30.0,,,,,,,,,,,CAVOK,,,,,,,,VFR,,,,,,,,,,,,METAR,9.0
OIIE 120730Z 04006KT 2500 +RA FEW030CB FEW035 OVC080 10/08 Q1014,OIIE,2015-02-12T07:30:00Z,35.42,51.15,10.0,8.0,40,6,,1.55,29.940945,,,,,,,,,,+RA,FEW,3000,FEW,3500,OVC,8000,,,IFR,,,,,,,,,,,,METAR,1008.0
OIGG 120730Z 30006KT 2500 -RA BKN005 FEW010CB OVC070 10/10 Q1017,OIGG,2015-02-12T07:30:00Z,37.33,49.6,10.0,10.0,300,6,,1.55,30.029528,,,,,,,,,,-RA,BKN,500,FEW,1000,OVC,7000,,,IFR,,,,,,,,,,,,METAR,-13.0
OICC 120730Z 17020KT 2500 DU FEW035CB SCT040 SCT090 17/00 Q1012 A2990 TEMPO 2000 DU,OICC,2015-02-12T07:30:00Z,34.33,47.17,17.0,0.0,170,20,,1.55,29.88189,,,,,,,,,,DU,FEW,3500,SCT,4000,SCT,9000,,,IFR,,,,,,,,,,,,SPECI,1322.0
OIBK 120730Z 11012KT 6000 NSC 26/18 Q1017,OIBK,2015-02-12T07:30:00Z,26.53,53.98,26.0,18.0,110,12,,3.73,30.029528,,,,,,,,,,,,,,,,,,,,,,,,,,,,,,,SPECI,30.0
LFMY 120730Z AUTO 00000KT 9999 NSC 01/M01 Q1022,LFMY,2015-02-12T07:30:00Z,43.6,5.08,1.0,-1.0,0,0,,6.21,30.177166,,,TRUE,,,,,,,,,,,,,,,,,,,,,,,,,,,,METAR,60.0
LFMO 120730Z AUTO VRB02KT 8000 NSC M02/M03 Q1022,LFMO,2015-02-12T07:30:00Z,44.12,4.87,-2.0,-3.0,0,2,,4.97,30.177166,,,TRUE,,,,,,,,,,,,,,,,,,,,,,,,,,,,METAR,55.0
LFKS 120730Z AUTO 27006KT 9999 NSC 08/03 Q1022,LFKS,2015-02-12T07:30:00Z,41.92,9.4,8.0,3.0,270,6,,6.21,30.177166,,,TRUE,,,,,,,,,,,,,,,,,,,,,,,,,,,,METAR,22.0
LFBM 120730Z AUTO 08002KT 9000 NSC 02/01 Q1020,LFBM,2015-02-12T07:30:00Z,43.92,-0.5,2.0,1.0,80,2,,5.59,30.11811,,,TRUE,,,,,,,,,,,,,,,,,,,,,,,,,,,,SPECI,63.0
LFBG 120730Z AUTO 00000KT 9000 NSC 01/M01 Q1020,LFBG,2015-02-12T07:30:00Z,45.67,-0.32,1.0,-1.0,0,0,,5.59,30.11811,,,TRUE,,,,,,,,,,,,,,,,,,,,,,,,,,,,METAR,31.0
LFBC 120730Z AUTO 00000KT 9999 NSC 04/01 Q1020,LFBC,2015-02-12T07:30:00Z,44.52,-1.12,4.0,1.0,0,0,,6.21,30.11811,,,TRUE,,,,,,,,,,,,,,,,,,,,,,,,,,,,SPECI,33.0
LJMB 120730Z VRB02KT 3000 BR FEW017 03/00 Q1027,LJMB,2015-02-12T07:30:00Z,46.47,15.67,3.0,0.0,0,2,,1.86,30.324802,,,,,,,,,,BR,FEW,1700,,,,,,,IFR,,,,,,,,,,,,METAR,265.0
LJLJ 120730Z 08001KT 2000 BR FEW007 OVC017 01/00 Q1027 NOSIG,LJLJ,2015-02-12T07:30:00Z,46.22,14.47,1.0,0.0,80,1,,1.24,30.324802,,,,,,TRUE,,,,BR,FEW,700,OVC,1700,,,,,IFR,,,,,,,,,,,,METAR,385.0
LJCE 120730Z 16001KT 6000 BKN027 01/00 Q1028 R09/CLRD// RMK WHT,LJCE,2015-02-12T07:30:00Z,45.9,15.52,1.0,0.0,160,1,,3.73,30.35433,,,,,,,,,,,BKN,2700,,,,,,,MVFR,,,,,,,,,,,,METAR,155.0
OITT 120730Z 05004KT 5000 BR FEW030CB FEW035 OVC090 03/01 Q1013 A2993,OITT,2015-02-12T07:30:00Z,38.13,46.23,3.0,1.0,50,4,,3.11,29.911417,,,,,,,,,,BR,FEW,3000,FEW,3500,OVC,9000,,,MVFR,,,,,,,,,,,,METAR,1361.0
OISS 120730Z VRB06KT 7000 FEW040 BKN180 20/03 Q1021 A3017,OISS,2015-02-12T07:30:00Z,29.52,52.57,20.0,3.0,0,6,,4.35,30.147638,,,,,,,,,,,FEW,4000,BKN,18000,,,,,MVFR,,,,,,,,,,,,METAR,1491.0
OIMM 120730Z 06004KT 9999 FEW040 SCT200 16/07 Q1016 A3002,OIMM,2015-02-12T07:30:00Z,36.23,59.62,16.0,7.0,60,4,,6.21,30.0,,,,,,,,,,,FEW,4000,SCT,20000,,,,,VFR,,,,,,,,,,,,METAR,980.0
OIKB 120730Z 20004KT 5000 HZ NSC 26/18 Q1017 A3005,OIKB,2015-02-12T07:30:00Z,27.22,56.37,26.0,18.0,200,4,,3.11,30.029528,,,,,,,,,,HZ,,,,,,,,,,,,,,,,,,,,,METAR,10.0
OIII 120730Z 10012KT 5000 RA SCT025 FEW030CB OVC090 11/04 Q1015 A2999 NOSIG,OIII,2015-02-12T07:30:00Z,35.68,51.3,11.0,4.0,100,12,,3.11,29.970472,,,,,,TRUE,,,,RA,SCT,2500,FEW,3000,OVC,9000,,,MVFR,,,,,,,,,,,,METAR,1191.0
LFRL 120730Z AUTO 08006KT 4600 BR FEW019 SCT160 BKN210 03/02 Q1018,LFRL,2015-02-12T07:30:00Z,48.27,-4.42,3.0,2.0,80,6,,2.86,30.059055,,,TRUE,,,,,,,BR,FEW,1900,SCT,16000,BKN,21000,,,IFR,,,,,,,,,,,,METAR,82.0
LFRJ 120730Z AUTO 11008KT 4600 BR BKN025 BKN130 OVC150 01/01 Q1018,LFRJ,2015-02-12T07:30:00Z,48.52,-4.15,1.0,1.0,110,8,,2.86,30.059055,,,TRUE,,,,,,,BR,BKN,2500,BKN,13000,OVC,15000,,,IFR,,,,,,,,,,,,METAR,115.0
LFOJ 120730Z AUTO 33002KT 1600 UP BR VV/// M07/M07 Q1021,LFOJ,2015-02-12T07:30:00Z,47.97,1.75,-7.0,-7.0,330,2,,0.99,30.147638,,,TRUE,,,,,,,BR UP,OVX,0,,,,,,,LIFR,,,,,,,,,,,,METAR,125.0
LFOE 120730Z AUTO 00000KT 0100 R22/0325N FZFG VV/// M02/M02 Q1021,LFOE,2015-02-12T07:30:00Z,49.02,1.22,-2.0,-2.0,0,0,,0.06,30.147638,,,TRUE,,,,,,,FZFG,OVX,0,,,,,,,LIFR,,,,,,,,,,,,METAR,146.0
LFOC 120730Z AUTO 05001KT 0050 R28/M0200N FZFG VV/// M05/M05 Q1021,LFOC,2015-02-12T07:30:00Z,48.03,1.37,-5.0,-5.0,50,1,,0.03,30.147638,,,TRUE,,,,,,,FZFG,OVX,0,,,,,,,LIFR,,,,,,,,,,,,METAR,127.0
LFPV 120730Z AUTO 27001KT 0050 R27/0225N R09/0250N FZFG VV/// M03/M04 Q1020,LFPV,2015-02-12T07:30:00Z,48.77,2.2,-3.0,-4.0,270,1,,0.03,30.11811,,,TRUE,,,,,,,FZFG,OVX,0,,,,,,,LIFR,,,,,,,,,,,,SPECI,179.0
LFPC 120730Z AUTO 00000KT 0100 R25/0350N FZFG NSC M02/M02 Q1021,LFPC,2015-02-12T07:30:00Z,49.25,2.52,-2.0,-2.0,0,0,,0.06,30.147638,,,TRUE,,,,,,,FZFG,,,,,,,,,,,,,,,,,,,,,METAR,88.0
LFRZ 120730Z AUTO 07006KT 2500 BR NSC M01/M02 Q1019,LFRZ,2015-02-12T07:30:00Z,47.32,-2.17,-1.0,-2.0,70,6,,1.55,30.088583,,,TRUE,,,,,,,BR,,,,,,,,,,,,,,,,,,,,,SPECI,4.0
LFRV 120730Z AUTO 06008KT 0800 FG BKN019 OVC180 01/01 Q1018,LFRV,2015-02-12T07:30:00Z,47.72,-2.72,1.0,1.0,60,8,,0.5,30.059055,,,TRUE,,,,,,,FG,BKN,1900,OVC,18000,,,,,LIFR,,,,,,,,,,,,METAR,133.0
LFRO 120730Z AUTO 13005KT 0100 R29/0400N FZFG VV/// M00/M00 Q1019,LFRO,2015-02-12T07:30:00Z,48.75,-3.47,0.0,0.0,130,5,,0.06,30.088583,,,TRUE,,,,,,,FZFG,OVX,0,,,,,,,LIFR,,,,,,,,,,,,METAR,89.0
LFRN 120730Z AUTO 19001KT 3700 BR NSC M04/M05 Q1020,LFRN,2015-02-12T07:30:00Z,48.07,-1.72,-4.0,-5.0,190,1,,2.3,30.11811,,,TRUE,,,,,,,BR,,,,,,,,,,,,,,,,,,,,,SPECI,37.0
LFRM 120730Z AUTO VRB02KT 3600 BR NSC M03/M04 Q1021,LFRM,2015-02-12T07:30:00Z,47.95,0.2,-3.0,-4.0,0,2,,2.24,30.147638,,,TRUE,,,,,,,BR,,,,,,,,,,,,,,,,,,,,,SPECI,52.0
LFRI 120730Z AUTO 11005KT 9999 -RA NSC 03/00 Q1019,LFRI,2015-02-12T07:30:00Z,46.7,-1.37,3.0,0.0,110,5,,6.21,30.088583,,,TRUE,,,,,,,-RA,,,,,,,,,,,,,,,,,,,,,METAR,91.0
LFRD 120730Z AUTO 10007KT 1800 BR NSC M01/M01 Q1020,LFRD,2015-02-12T07:30:00Z,48.58,-2.07,-1.0,-1.0,100,7,,1.12,30.11811,,,TRUE,,,,,,,BR,,,,,,,,,,,,,,,,,,,,,SPECI,59.0
LFOV 120730Z AUTO 36003KT 2700 BR NSC M04/M04 Q1020,LFOV,2015-02-12T07:30:00Z,48.03,-0.75,-4.0,-4.0,360,3,,1.68,30.11811,,,TRUE,,,,,,,BR,,,,,,,,,,,,,,,,,,,,,METAR,101.0
GCRR 120730Z 31004KT 9999 FEW025 SCT049 13/10 Q1020,GCRR,2015-02-12T07:30:00Z,28.93,-13.58,13.0,10.0,310,4,,6.21,30.11811,,,,,,,,,,,FEW,2500,SCT,4900,,,,,VFR,,,,,,,,,,,,METAR,40.0
GCTS 120730Z 04004KT 9999 FEW033 14/09 Q1021 NOSIG,GCTS,2015-02-12T07:30:00Z,28.05,-16.57,14.0,9.0,40,4,,6.21,30.147638,,,,,,TRUE,,,,,FEW,3300,,,,,,,VFR,,,,,,,,,,,,METAR,72.0
GCXO 120730Z 28005KT 250V320 9999 -DZ FEW012 BKN022 10/09 Q1021 NOSIG,GCXO,2015-02-12T07:30:00Z,28.48,-16.35,10.0,9.0,280,5,,6.21,30.147638,,,,,,TRUE,,,,-DZ,FEW,1200,BKN,2200,,,,,MVFR,,,,,,,,,,,,METAR,632.0
GCLP 120730Z 32008KT 300V360 9999 FEW020 15/09 Q1020 NOSIG,GCLP,2015-02-12T07:30:00Z,27.92,-15.37,15.0,9.0,320,8,,6.21,30.11811,,,,,,TRUE,,,,,FEW,2000,,,,,,,VFR,,,,,,,,,,,,METAR,25.0
LESA 120730Z 00000KT 6000 SCT042 M02/M02 Q1018,LESA,2015-02-12T07:30:00Z,40.95,-5.5,-2.0,-2.0,0,0,,3.73,30.059055,,,,,,,,,,,SCT,4200,,,,,,,MVFR,,,,,,,,,,,,METAR,795.0
LEVS 120730Z 00000KT 9999 SCT014 BKN025 05/02 Q1019,LEVS,2015-02-12T07:30:00Z,40.37,-3.77,5.0,2.0,0,0,,6.21,30.088583,,,,,,,,,,,SCT,1400,BKN,2500,,,,,MVFR,,,,,,,,,,,,METAR,687.0
LEVD 120730Z 12003KT 9999 FEW040 00/00 Q1018,LEVD,2015-02-12T07:30:00Z,41.72,-4.83,0.0,0.0,120,3,,6.21,30.059055,,,,,,,,,,,FEW,4000,,,,,,,VFR,,,,,,,,,,,,METAR,854.0
LEIB 120730Z 03004KT 9999 FEW016 11/09 Q1020 NOSIG,LEIB,2015-02-12T07:30:00Z,38.87,1.37,11.0,9.0,30,4,,6.21,30.11811,,,,,,TRUE,,,,,FEW,1600,,,,,,,VFR,,,,,,,,,,,,METAR,12.0
LEAL 120730Z 35007KT 9999 FEW013 BKN026 12/08 Q1020 TEMPO RA,LEAL,2015-02-12T07:30:00Z,38.27,-0.55,12.0,8.0,350,7,,6.21,30.11811,,,,,,,,,,,FEW,1300,BKN,2600,,,,,MVFR,,,,,,,,,,,,METAR,31.0
LEVC 120730Z VRB01KT 9999 FEW025 BKN040 09/08 Q1020 NOSIG,LEVC,2015-02-12T07:30:00Z,39.5,-0.47,9.0,8.0,0,1,,6.21,30.11811,,,,,,TRUE,,,,,FEW,2500,BKN,4000,,,,,VFR,,,,,,,,,,,,METAR,62.0
LEMG 120730Z 28004KT 6000 -RA FEW014 FEW030TCU BKN045 10/10 Q1018 NOSIG,LEMG,2015-02-12T07:30:00Z,36.67,-4.5,10.0,10.0,280,4,,3.73,30.059055,,,,,,TRUE,,,,-RA,FEW,1400,FEW,3000,BKN,4500,,,MVFR,,,,,,,,,,,,METAR,7.0
LEZL 120730Z 00000KT 9999 SCT035 09/09 Q1018 NOSIG,LEZL,2015-02-12T07:30:00Z,37.42,-5.9,9.0,9.0,0,0,,6.21,30.059055,,,,,,TRUE,,,,,SCT,3500,,,,,,,VFR,,,,,,,,,,,,METAR,31.0
LEPA 120730Z 06003KT CAVOK 04/04 Q1020 NOSIG,LEPA,2015-02-12T07:30:00Z,39.53,2.72,4.0,4.0,60,3,,6.21,30.11811,,,,,,TRUE,,,,,CAVOK,,,,,,,,VFR,,,,,,,,,,,,METAR,8.0
LEBL 120730Z 33013KT 290V350 9999 FEW020 05/01 Q1021 NOSIG,LEBL,2015-02-12T07:30:00Z,41.27,2.07,5.0,1.0,330,13,,6.21,30.147638,,,,,,TRUE,,,,,FEW,2000,,,,,,,VFR,,,,,,,,,,,,METAR,6.0
LEMD 120730Z 36002KT 9999 BKN020 03/02 Q1019 NOSIG,LEMD,2015-02-12T07:30:00Z,40.48,-3.57,3.0,2.0,360,2,,6.21,30.088583,,,,,,TRUE,,,,,BKN,2000,,,,,,,MVFR,,,,,,,,,,,,METAR,582.0
LEGR 120730Z 00000KT 5000 -DZ FEW012 SCT030 BKN050 07/07 Q1018,LEGR,2015-02-12T07:30:00Z,37.17,-3.77,7.0,7.0,0,0,,3.11,30.059055,,,,,,,,,,-DZ,FEW,1200,SCT,3000,BKN,5000,,,MVFR,,,,,,,,,,,,METAR,559.0
LEMH 120730Z VRB02KT 9999 SCT020 06/06 Q1020,LEMH,2015-02-12T07:30:00Z,39.87,4.22,6.0,6.0,0,2,,6.21,30.11811,,,,,,,,,,,SCT,2000,,,,,,,VFR,,,,,,,,,,,,METAR,82.0
LERS 120730Z 02006KT CAVOK 04/01 Q1021,LERS,2015-02-12T07:30:00Z,41.13,1.17,4.0,1.0,20,6,,6.21,30.147638,,,,,,,,,,,CAVOK,,,,,,,,VFR,,,,,,,,,,,,METAR,76.0
LESO 120730Z VRB02KT CAVOK 10/03 Q1019,LESO,2015-02-12T07:30:00Z,43.35,-1.8,10.0,3.0,0,2,,6.21,30.088583,,,,,,,,,,,CAVOK,,,,,,,,VFR,,,,,,,,,,,,METAR,8.0
LEZG 120730Z 00000KT 4500 -RA SCT060 BKN080 03/02 Q1021,LEZG,2015-02-12T07:30:00Z,41.67,-1.02,3.0,2.0,0,0,,2.8,30.147638,,,,,,,,,,-RA,SCT,6000,BKN,8000,,,,,IFR,,,,,,,,,,,,METAR,258.0
UHSS 120730Z 17003MPS 9999 SCT028CB M04/M07 Q1003 NOSIG RMK MT OBSC QFE751/1002 19810360,UHSS,2015-02-12T07:30:00Z,46.88,142.72,-4.0,-7.0,170,6,,6.21,29.616142,,,,,,TRUE,,,,,SCT,2800,,,,,,,VFR,,,,,,,,,,,,METAR,31.0
UHPP 120730Z VRB01MPS 9999 NSC M07/M09 Q1016 NOSIG RMK QFE758/1011 SC045 050 050,UHPP,2015-02-12T07:30:00Z,53.17,158.45,-7.0,-9.0,0,2,,6.21,30.0,,,,,,TRUE,,,,,,,,,,,,,,,,,,,,,,,,,METAR,40.0
UHMM 120730Z 07002MPS 9999 SCT100 OVC200 M08/M14 Q1015 NOSIG RMK QFE747 88450535,UHMM,2015-02-12T07:30:00Z,59.92,150.72,-8.0,-14.0,70,4,,6.21,29.970472,,,,,,TRUE,,,,,SCT,10000,OVC,20000,,,,,VFR,,,,,,,,,,,,METAR,118.0
UHHH 120730Z 26004MPS 9999 FEW033 SCT100 BKN200 M12/M14 Q1010 NOSIG RMK QFE751/1001 23850045,UHHH,2015-02-12T07:30:00Z,48.52,135.18,-12.0,-14.0,260,8,,6.21,29.822834,,,,,,TRUE,,,,,FEW,3300,SCT,10000,BKN,20000,,,VFR,,,,,,,,,,,,METAR,72.0
UNAA 120730Z 00000MPS 2600 -SHSN BKN030CB OVC083 M03/M06 Q1002 TEMPO 1000 SHSN RMK QFE729 52690045,UNAA,2015-02-12T07:30:00Z,53.75,91.4,-3.0,-6.0,0,0,,1.62,29.586615,,,,,,,,,,-SHSN,BKN,3000,OVC,8300,,,,,IFR,0.0,,,,,,,,,,,METAR,245.0
UNBB 120730Z 26005MPS 9999 BKN008 M01/M03 Q1000 NOSIG RMK QFE728/0970 24CLRD60,UNBB,2015-02-12T07:30:00Z,53.37,83.53,-1.0,-3.0,260,10,,6.21,29.52756,,,,,,TRUE,,,,,BKN,800,,,,,,,IFR,,,,,,,,,,,,METAR,255.0
UNEE 120730Z 15002MPS 5000 -SHSN OVC010CB M03/M03 Q0998 NOSIG RMK QFE726 23451040,UNEE,2015-02-12T07:30:00Z,55.27,86.08,-3.0,-3.0,150,4,,3.11,29.468504,,,,,,TRUE,,,,-SHSN,OVC,1000,,,,,,,MVFR,,,,,,,,,,,,METAR,260.0
UNKL 120730Z 12003MPS 9999 SCT027CB BKN083 00/M05 Q1001 NOSIG RMK QFE725 29////65,UNKL,2015-02-12T07:30:00Z,56.17,92.48,0.0,-5.0,120,6,,6.21,29.557087,,,,,,TRUE,,,,,SCT,2700,BKN,8300,,,,,VFR,,,,,,,,,,,,METAR,276.0
UNNT 120730Z 22004MPS 180V250 9999 OVC011 M03/M06 Q0999 25190055 16810160 NOSIG RMK QFE740/0986,UNNT,2015-02-12T07:30:00Z,55.02,82.63,-3.0,-6.0,220,8,,6.21,29.498032,,,,,,TRUE,,,,,OVC,1100,,,,,,,MVFR,,,,,,,,,,,,METAR,111.0
UNOO 120730Z 28007MPS 6000 -SHSN BLSN BKN015 BKN033CB M07/M09 Q0999 25390137 NOSIG RMK QFE741,UNOO,2015-02-12T07:30:00Z,54.97,73.32,-7.0,-9.0,280,14,,3.73,29.498032,,,,,,TRUE,,,,-SHSN BLSN,BKN,1500,BKN,3300,,,,,MVFR,,,,,,,,,,,,METAR,95.0
UNTT 120730Z 22006MPS 9999 -SHSN SCT011 BKN015CB OVC066 M04/M06 Q0997 NOSIG RMK QFE733 21490240,UNTT,2015-02-12T07:30:00Z,56.38,85.22,-4.0,-6.0,220,12,,6.21,29.438976,,,,,,TRUE,,,,-SHSN,SCT,1100,BKN,1500,OVC,6600,,,MVFR,,,-49.0,,,,,,,,,METAR,182.0
USTR 120730Z 29006MPS CAVOK M05/M09 Q1005 NOSIG RMK QFE744/0993 21390048 12350055,USTR,2015-02-12T07:30:00Z,57.17,65.32,-5.0,-9.0,290,12,,6.21,29.675198,,,,,,TRUE,,,,,CAVOK,,,,,,,,VFR,,,-39.0,,,,,,,,,METAR,115.0
USHH 120730Z 27003G07MPS CAVOK M11/M17 Q0996 NOSIG RMK QFE743 24////45,USHH,2015-02-12T07:30:00Z,61.03,69.08,-11.0,-17.0,270,6,14,6.21,29.409449,,,,,,TRUE,,,,,CAVOK,,,,,,,,VFR,,,,,,,,,,,,METAR,23.0
UWUU 120730Z 24004MPS 9999 OVC016 M02/M04 Q1017 82411052 NOSIG RMK QFE751/1002 FBL ICE INC,UWUU,2015-02-12T07:30:00Z,54.57,55.87,-2.0,-4.0,240,8,,6.21,30.029528,,,,,,TRUE,,,,,OVC,1600,,,,,,,MVFR,,,,,,,,,,,,METAR,137.0
USCC 120730Z 28008MPS 9999 DRSN FEW030CB SCT070 M03/M08 Q1009 27000060 TEMPO 27015MPS RMK QFE737,USCC,2015-02-12T07:30:00Z,55.3,61.5,-3.0,-8.0,280,16,,6.21,29.793306,,,,,,,,,,DRSN,FEW,3000,SCT,7000,,,,,VFR,,,,,,,,,,,,METAR,234.0
USNN 120730Z 29003MPS 2600 -SN OVC022 M08/M11 Q0989 NOSIG RMK QFE737 21490333,USNN,2015-02-12T07:30:00Z,60.95,76.48,-8.0,-11.0,290,6,,1.62,29.202755,,,,,,TRUE,,,,-SN,OVC,2200,,,,,,,IFR,,,-49.0,,,,,,,,,METAR,54.0
USRR 120730Z 30005G08MPS 7000 SKC M12/M16 Q0991 NOSIG RMK QFE738 25////37,USRR,2015-02-12T07:30:00Z,61.33,73.42,-12.0,-16.0,300,10,16,4.35,29.26181,,,,,,TRUE,,,,,SKC,,,,,,,,MVFR,,,,,,,,,,,,METAR,44.0
ULLI 120730Z 23008MPS 190V250 9999 BKN014 OVC200 01/M02 Q1013 28350145 78290050 NOSIG,ULLI,2015-02-12T07:30:00Z,59.8,30.27,1.0,-2.0,230,16,,6.21,29.911417,,,,,,TRUE,,,,,BKN,1400,OVC,20000,,,,,MVFR,,,,,,,,,0.0,,,METAR,4.0
UEEE 120730Z 18002MPS CAVOK M15/M18 Q1021 NOSIG RMK QFE757 23490150,UEEE,2015-02-12T07:30:00Z,62.08,129.77,-15.0,-18.0,180,4,,6.21,30.147638,,,,,,TRUE,,,,,CAVOK,,,,,,,,VFR,,,,,,,,,,,,METAR,103.0
USSS 120730Z 28009MPS 9999 BKN031 BKN067 M02/M06 Q1008 76990135 NOSIG RMK QFE735,USSS,2015-02-12T07:30:00Z,56.75,60.82,-2.0,-6.0,280,17,,6.21,29.763779,,,,,,TRUE,,,,,BKN,3100,BKN,6700,,,,,VFR,,,,,,,,,0.0,,,METAR,233.0
UUBW 120730Z 25004MPS 4500 BR OVC004 M00/M01 Q1022 TEMPO 2000 FZDZ OVC003 RMK QBB130 SC0.45,UUBW,2015-02-12T07:30:00Z,55.55,38.15,0.0,-1.0,250,8,,2.8,30.177166,,,,,,,,,,BR,OVC,400,,,,,,,LIFR,,,,,,,,,,,,METAR,115.0
UUDD 120730Z 24005MPS 210V270 3900 BR OVC002 M01/M01 Q1022 32290095 82290095 TEMPO 1000 FZDZ,UUDD,2015-02-12T07:30:00Z,55.4,37.9,-1.0,-1.0,240,10,,2.42,30.177166,,,,,,,,,,BR,OVC,200,,,,,,,LIFR,,,,,,,,,,,,METAR,168.0
UUDL 120730Z 20004MPS CAVOK M00/M02 Q1017 NOSIG RMK QFE754 23850338,UUDL,2015-02-12T07:30:00Z,57.57,40.17,0.0,-2.0,200,8,,6.21,30.029528,,,,,,TRUE,,,,,CAVOK,,,,,,,,VFR,,,,,,,,,,,,METAR,88.0
UUEE 120730Z 22006MPS 3900 BR OVC001 M01/M01 Q1021 25410151 TEMPO -FZDZ RMK QBB050,UUEE,2015-02-12T07:30:00Z,55.97,37.42,-1.0,-1.0,220,12,,2.42,30.147638,,,,,,,,,,BR,OVC,100,,,,,,,LIFR,,,,,,,,,,,,METAR,190.0
UUWW 120730Z 25006MPS 1000 R24/0650V1400U BR OVC001 M01/M01 Q1022 24190060 TEMPO 0500 FZDZ FZFG OVC001 RMK QBB040,UUWW,2015-02-12T07:30:00Z,55.6,37.27,-1.0,-1.0,250,12,,0.62,30.177166,,,,,,,,,,BR,OVC,100,,,,,,,LIFR,,,,,,,,,,,,METAR,203.0
UUMO 120730Z 24005MPS 3000 BR OVC002 M01/M01 Q1022 NOSIG RMK QFE751/1002 QBB060 26290050,UUMO,2015-02-12T07:30:00Z,55.52,37.5,-1.0,-1.0,240,10,,1.86,30.177166,,,,,,TRUE,,,,BR,OVC,200,,,,,,,LIFR,,,,,,,,,,,,METAR,174.0
UIBB 120730Z 15003MPS 9999 BKN100 OVC200 M06/M13 Q1006 NOSIG RMK QFE712/0949 30820550,UIBB,2015-02-12T07:30:00Z,56.37,101.7,-6.0,-13.0,150,6,,6.21,29.704725,,,,,,TRUE,,,,,BKN,10000,OVC,20000,,,,,VFR,,,,,,,,,,,,METAR,490.0
UIII 120730Z 16005MPS CAVOK M04/M11 Q1009 NOSIG RMK QFE715/0953 12810360,UIII,2015-02-12T07:30:00Z,52.27,104.4,-4.0,-11.0,160,10,,6.21,29.793306,,,,,,TRUE,,,,,CAVOK,,,,,,,,VFR,,,,,,,,,,,,METAR,513.0
UIUU 120730Z 34001MPS 5000 BR FEW100 M14/M19 Q1015 NOSIG RMK QFE717/0956 26810550,UIUU,2015-02-12T07:30:00Z,51.8,107.45,-14.0,-19.0,340,2,,3.11,29.970472,,,,,,TRUE,,,,BR,FEW,10000,,,,,,,MVFR,,,,,,,,,,,,METAR,515.0
USCM 120730Z 32005MPS 9999 SCT026 M04/M09 Q1013 TEMPO 32012MPS 01090060 RMK QFE721,USCM,2015-02-12T07:30:00Z,53.4,58.75,-4.0,-9.0,320,10,,6.21,29.911417,,,,,,,,,,,SCT,2600,,,,,,,VFR,,,,,,,,,,,,METAR,435.0
ULWC 120730Z 27004G07MPS 9999 FEW033 BKN/// 01/M02 Q1011 NOSIG RMK QFE748/0997 SC045,ULWC,2015-02-12T07:30:00Z,59.28,38.02,1.0,-2.0,270,8,14,6.21,29.852362,,,,,,TRUE,,,,,FEW,3300,,,,,,,VFR,,,,,,,,,,,,METAR,115.0
UUOB 120730Z VRB01MPS 4000 BR NSC M11/M11 Q1027 29090060 NOSIG,UUOB,2015-02-12T07:30:00Z,50.65,36.58,-11.0,-11.0,0,2,,2.49,30.324802,,,,,,TRUE,,,,BR,,,,,,,,,,,,,,,,,,,,,METAR,224.0
UWGG 120730Z 23003MPS 9000 OVC005 M00/M01 Q1019 TEMPO 2000 FZRA BR OVC004 18820038 RMK QBB150 QFE757,UWGG,2015-02-12T07:30:00Z,56.23,43.78,0.0,-1.0,230,6,,5.59,30.088583,,,,,,,,,,,OVC,500,,,,,,,IFR,,,,,,,,,,,,METAR,73.0
USPP 120730Z 27005G08MPS 9999 BKN015 00/M02 Q1010 21290150 NOSIG RMK QFE747/0996,USPP,2015-02-12T07:30:00Z,57.92,56.02,0.0,-2.0,270,10,16,6.21,29.822834,,,,,,TRUE,,,,,BKN,1500,,,,,,,MVFR,,,-29.0,,,,,,,,,METAR,123.0
UWKD 120730Z 26006MPS 9999 OVC010 M01/M03 Q1017 R29/2/0045 TEMPO OVC006 RMK QFE752/1003,UWKD,2015-02-12T07:30:00Z,55.62,49.28,-1.0,-3.0,260,12,,6.21,30.029528,,,,,,,,,,,OVC,1000,,,,,,,MVFR,,,,,,,,,,,,METAR,126.0
UWKE 120730Z 22006MPS 8000 -SN SCT006 M03/M04 Q1016 NOSIG RMK QBB190 QFE745/0994 21410335,UWKE,2015-02-12T07:30:00Z,55.57,52.08,-3.0,-4.0,220,12,,4.97,30.0,,,,,,TRUE,,,,-SN,SCT,600,,,,,,,MVFR,,,-41.0,,,,,,,,,METAR,196.0
UWKS 120730Z 27006MPS 9999 OVC007 M02/M03 Q1017 TEMPO -FZRA OVC005 RMK QFE749 24850336,UWKS,2015-02-12T07:30:00Z,56.08,47.35,-2.0,-3.0,270,12,,6.21,30.029528,,,,,,,,,,,OVC,700,,,,,,,IFR,,,,,,,,,,,,METAR,170.0
UWOO 120730Z 24002MPS 190V280 4400 -SN BR OVC015 M09/M11 Q1021 26820252 NOSIG RMK QFE755/1007,UWOO,2015-02-12T07:30:00Z,51.8,55.47,-9.0,-11.0,240,4,,2.73,30.147638,,,,,,TRUE,,,,-SN BR,OVC,1500,,,,,,,IFR,,,,,,,,,,,,METAR,109.0
UWSS 120730Z 29004MPS 9999 OVC010 M06/M07 Q1024 30800350 NOSIG RMK QFE754,UWSS,2015-02-12T07:30:00Z,51.57,46.07,-6.0,-7.0,290,8,,6.21,30.236221,,,,,,TRUE,,,,,OVC,1000,,,,,,,MVFR,,,,,,,,,,,,METAR,166.0
UWWW 120730Z 28005MPS 3900 BR OVC007 M03/M05 Q1021 23420545 15//99// NOSIG RMK QFE755/1006,UWWW,2015-02-12T07:30:00Z,53.5,50.17,-3.0,-5.0,280,10,,2.42,30.147638,,,,,,TRUE,,,,BR,OVC,700,,,,,,,IFR,,,,,,,,,,,,METAR,146.0
UAII 120730Z 29005MPS 2000 -SHRA BR BKN002 OVC010CB 08/08 Q1014 R28/2///55 NOSIG RMK QBB070 QFE723/0964,UAII,2015-02-12T07:30:00Z,42.37,69.48,8.0,8.0,290,10,,1.24,29.940945,,,,,,TRUE,,,,-SHRA BR,BKN,200,OVC,1000,,,,,LIFR,,,,,,,,,,,,METAR,422.0
UACP 120730Z 30007MPS 9999 BKN023CB BKN026 M04/M07 Q1003 R23/4/1049 NOSIG RMK QFE740/0986,UACP,2015-02-12T07:30:00Z,54.78,69.18,-4.0,-7.0,300,14,,6.21,29.616142,,,,,,TRUE,,,,,BKN,2300,BKN,2600,,,,,MVFR,,,,,,,,,,,,METAR,142.0
UACK 120730Z 29008MPS 9000 BLSN BKN033CB M08/M10 Q1003 R20/490542 NOSIG RMK QFE729/0972,UACK,2015-02-12T07:30:00Z,53.32,69.58,-8.0,-10.0,290,16,,5.59,29.616142,,,,,,TRUE,,,,BLSN,BKN,3300,,,,,,,VFR,,,,,,,,,,,,METAR,2547.0
UHBB 120730Z 01004MPS CAVOK M05/M07 Q1011 NOSIG RMK QFE741/0988 36420550,UHBB,2015-02-12T07:30:00Z,50.43,127.42,-5.0,-7.0,10,8,,6.21,29.852362,,,,,,TRUE,,,,,CAVOK,,,,,,,,VFR,,,,,,,,,,,,METAR,195.0
LWOH 120730Z 33006KT CAVOK M02/M14 Q1023,LWOH,2015-02-12T07:30:00Z,41.18,20.75,-2.0,-14.0,330,6,,6.21,30.206694,,,,,,,,,,,CAVOK,,,,,,,,VFR,,,,,,,,,,,,METAR,761.0
LETL 120730Z AUTO 31004KT 2200 HZ OVC003/// 02/01 Q1019,LETL,2015-02-12T07:30:00Z,40.42,-1.22,2.0,1.0,310,4,,1.37,30.088583,,,TRUE,,,,,,,HZ,,,,,,,,,,,,,,,,,,,,,METAR,1013.0
LEAG 120730Z AUTO 08006KT 040V120 9999 // FEW008 OVC010 12/10 Q1018,LEAG,2015-02-12T07:30:00Z,,,12.0,10.0,80,6,,6.21,30.059055,,,TRUE,,,,,,,,FEW,800,OVC,1000,,,,,MVFR,,,,,,,,,,,,METAR,
LEXJ 120730Z 00000KT CAVOK 05/03 Q1018,LEXJ,2015-02-12T07:30:00Z,43.42,-3.82,5.0,3.0,0,0,,6.21,30.059055,,,,,,,,,,,CAVOK,,,,,,,,VFR,,,,,,,,,,,,METAR,6.0
LEPP 120730Z 00000KT 9999 BKN024 03/03 Q1020,LEPP,2015-02-12T07:30:00Z,42.77,-1.65,3.0,3.0,0,0,,6.21,30.11811,,,,,,,,,,,BKN,2400,,,,,,,MVFR,,,,,,,,,,,,METAR,459.0
LELL 120730Z 27001KT CAVOK 02/00 Q1021,LELL,2015-02-12T07:30:00Z,41.52,2.1,2.0,0.0,270,1,,6.21,30.147638,,,,,,,,,,,CAVOK,,,,,,,,VFR,,,,,,,,,,,,METAR,250.0
LEJR 120730Z VRB02KT 8000 FEW023 BKN048 OVC050 10/10 Q1018 REDZ,LEJR,2015-02-12T07:30:00Z,36.75,-6.07,10.0,10.0,0,2,,4.97,30.059055,,,,,,,,,,,FEW,2300,BKN,4800,OVC,5000,,,MVFR,,,,,,,,,,,,METAR,30.0
GCLA 120730Z 30007KT 9999 FEW030 SCT055 14/07 Q1021,GCLA,2015-02-12T07:30:00Z,28.62,-17.75,14.0,7.0,300,7,,6.21,30.147638,,,,,,,,,,,FEW,3000,SCT,5500,,,,,VFR,,,,,,,,,,,,METAR,31.0
GCFV 120730Z 30007KT 9999 FEW025 12/09 Q1020,GCFV,2015-02-12T07:30:00Z,28.43,-13.87,12.0,9.0,300,7,,6.21,30.11811,,,,,,,,,,,FEW,2500,,,,,,,VFR,,,,,,,,,,,,METAR,23.0
UACC 120730Z 25004MPS 9999 BKN004 M10/M11 Q1006 R22/3/0065 NOSIG RMK QBB130 QFE723/0965,UACC,2015-02-12T07:30:00Z,51.02,71.47,-10.0,-11.0,250,8,,6.21,29.704725,,,,,,TRUE,,,,,BKN,400,,,,,,,LIFR,,,,,,,,,,,,METAR,355.0
UADD 120730Z 21004MPS 170V250 9999 BKN043CB OVC100 13/05 Q1010 R13/290056 NOSIG RMK QFE701/0935,UADD,2015-02-12T07:30:00Z,42.85,71.3,13.0,5.0,210,8,,6.21,29.822834,,,,,,TRUE,,,,,BKN,4300,OVC,10000,,,,,VFR,,,,,,,,,,,,METAR,665.0
UAKD 120730Z 30004MPS 7000 OVC100 M02/M03 Q1010 R22/19//40 NOSIG RMK QFE724/0966,UAKD,2015-02-12T07:30:00Z,47.7,67.73,-2.0,-3.0,300,8,,4.35,29.822834,,,,,,TRUE,,,,,OVC,10000,,,,,,,MVFR,,,,,,,,,,,,SPECI,381.0
UMKK 120730Z 23005MPS 6000 OVC007 01/M01 Q1025 R24/19//60 NOSIG RMK QFE767/1023,UMKK,2015-02-12T07:30:00Z,54.88,20.6,1.0,-1.0,230,10,,3.73,30.265747,,,,,,TRUE,,,,,OVC,700,,,,,,,IFR,,,,,,,,,,,,METAR,21.0
ULOO 120730Z 22006MPS 5000 BR OVC008 00/M01 Q1018 19090060 NOSIG RMK QFE759,ULOO,2015-02-12T07:30:00Z,57.78,28.4,0.0,-1.0,220,12,,3.11,30.059055,,,,,,TRUE,,,,BR,OVC,800,,,,,,,IFR,,,,,,,,,,,,METAR,47.0
ULAA 120730Z 24004G07MPS 9999 BKN015 OVC/// 01/01 Q0993 26890534 NOSIG RMK QFE743/0991,ULAA,2015-02-12T07:30:00Z,64.6,40.72,1.0,1.0,240,8,14,6.21,29.320866,,,,,,TRUE,,,,,BKN,1500,,,,,,,MVFR,,,,,,,,,,,,METAR,19.0
UUYY 120730Z 24003G07MPS 9999 BKN011CB 01/00 Q1001 TEMPO 0700 +SHSN 1939//33 RMK QFE742/0990,UUYY,2015-02-12T07:30:00Z,61.65,50.82,1.0,0.0,240,6,14,6.21,29.557087,,,,,,,,,,,BKN,1100,,,,,,,MVFR,,,,,,,,,,,,METAR,119.0
WAAA 120730Z 02005KT 330V050 1000 +RA FEW016CB BKN016 24/24 Q1010 NOSIG,WAAA,2015-02-12T07:30:00Z,-5.07,119.53,24.0,24.0,20,5,,0.62,29.822834,,,,,,TRUE,,,,+RA,FEW,1600,BKN,1600,,,,,LIFR,,,,,,,,,,,,METAR,14.0
WADD 120730Z 26006KT 220V280 9999 TS FEW015CB SCT016 28/24 Q1007 NOSIG RMK CB TO NE AND E,WADD,2015-02-12T07:30:00Z,-8.73,115.17,28.0,24.0,260,6,,6.21,29.734253,,,,,,TRUE,,,,TS,FEW,1500,SCT,1600,,,,,VFR,,,,,,,,,,,,SPECI,216.0
WIDD 120730Z 05019KT 9999 FEW014 30/22 Q1009,WIDD,2015-02-12T07:30:00Z,1.12,104.12,30.0,22.0,50,19,,6.21,29.793306,,,,,,,,,,,FEW,1400,,,,,,,VFR,,,,,,,,,,,,METAR,38.0
WIMM 120730Z 34009KT 9999 SCT018 31/23 Q1009 NOSIG,WIMM,2015-02-12T07:30:00Z,3.57,98.67,31.0,23.0,340,9,,6.21,29.793306,,,,,,TRUE,,,,,SCT,1800,,,,,,,VFR,,,,,,,,,,,,METAR,25.0
UTST 120730Z 02016KT 9999 BKN033CB OVC100 13/11 Q1018 R88/290260 NOSIG,UTST,2015-02-12T07:30:00Z,37.28,67.32,13.0,11.0,20,16,,6.21,30.059055,,,,,,TRUE,,,,,BKN,3300,OVC,10000,,,,,VFR,,,,,,,,,,,,SPECI,302.0
UTSS 120730Z 27002KT 6000 -SHRA BKN010 OVC033CB 10/09 Q1015 R88/29//55 NOSIG,UTSS,2015-02-12T07:30:00Z,39.7,66.98,10.0,9.0,270,2,,3.73,29.970472,,,,,,TRUE,,,,-SHRA,BKN,1000,OVC,3300,,,,,MVFR,,,,,,,,,,,,METAR,724.0
UTSK 120730Z 16003KT 120V190 9999 -SHRA BKN012CB OVC100 13/10 Q1016 R16/290250,UTSK,2015-02-12T07:30:00Z,38.83,65.77,13.0,10.0,160,3,,6.21,30.0,,,,,,,,,,-SHRA,BKN,1200,OVC,10000,,,,,MVFR,,,,,,,,,,,,SPECI,1365.0
UTSB 120730Z 32007KT 6000 -SHRA SCT005 OVC027CB 07/05 Q1018 R01/290355 NOSIG RMK BASE560,UTSB,2015-02-12T07:30:00Z,39.77,64.48,7.0,5.0,320,7,,3.73,30.059055,,,,,,TRUE,,,,-SHRA,SCT,500,OVC,2700,,,,,MVFR,,,,,,,,,,,,SPECI,226.0
UTNU 120730Z 35009KT 9999 OVC009 03/01 Q1021 R31/CLRD70 NOSIG,UTNU,2015-02-12T07:30:00Z,41.58,60.63,3.0,1.0,350,9,,6.21,30.147638,,,,,,TRUE,,,,,OVC,900,,,,,,,IFR,,,,,,,,,,,,SPECI,98.0
UTNN 120730Z 34007KT 9999 OVC008 01/M01 Q1023 R33/CLRD60 NOSIG,UTNN,2015-02-12T07:30:00Z,42.48,59.63,1.0,-1.0,340,7,,6.21,30.206694,,,,,,TRUE,,,,,OVC,800,,,,,,,IFR,,,,,,,,,,,,SPECI,67.0
UDSG 120730Z 04004MPS 6000 -SN BKN013 OVC066 M01/M02 Q1012 R02/590726 NOSIG,UDSG,2015-02-12T07:30:00Z,40.75,43.87,-1.0,-2.0,40,8,,3.73,29.88189,,,,,,TRUE,,,,-SN,BKN,1300,OVC,6600,,,,,MVFR,,,,,,,,,,,,METAR,1524.0
LPPS 120730Z 01006KT 9999 FEW015 13/09 Q1021,LPPS,2015-02-12T07:30:00Z,33.07,-16.35,13.0,9.0,10,6,,6.21,30.147638,,,,,,,,,,,FEW,1500,,,,,,,VFR,,,,,,,,,,,,METAR,82.0
LPPR 120730Z 13007KT 9000 SCT048 08/06 Q1018,LPPR,2015-02-12T07:30:00Z,41.22,-8.67,8.0,6.0,130,7,,5.59,30.059055,,,,,,,,,,,SCT,4800,,,,,,,VFR,,,,,,,,,,,,METAR,73.0
LPMA 120730Z 36005KT 320V040 9999 BKN016 14/07 Q1021 RS34004KT 0536006KT 2336005KT,LPMA,2015-02-12T07:30:00Z,32.7,-16.77,14.0,7.0,360,5,,6.21,30.147638,,,,,,,,,,,BKN,1600,,,,,,,MVFR,,,,,,,,,,,,SPECI,55.0
LPFR 120730Z 28003KT 9999 FEW035 09/09 Q1018,LPFR,2015-02-12T07:30:00Z,37.02,-7.97,9.0,9.0,280,3,,6.21,30.059055,,,,,,,,,,,FEW,3500,,,,,,,VFR,,,,,,,,,,,,METAR,4.0
YPWR 120730Z AUTO 13013KT 9999 // NCD 40/M04 Q1013,YPWR,2015-02-12T07:30:00Z,-31.12,136.82,40.0,-4.0,130,13,,6.21,29.911417,,,TRUE,,,,,,,,,,,,,,,,,,,,,,,,,,,,METAR,167.0
YWLM 120730Z 10014KT 9999 FEW030 SCT300 FEW040TCU 26/20 Q1020 RMK USE TAF FOR ARRIVALS AFTER 1030Z,YWLM,2015-02-12T07:30:00Z,-32.8,151.83,26.0,20.0,100,14,,6.21,30.11811,,,,,,,,,,,FEW,3000,SCT,30000,FEW,4000,,,VFR,,,,,,,,,,,,SPECI,9.0
"YBRK 120730Z 10013KT 9999 FEW040 28/20 Q1013 RMK TCU TOPS TO S, DISTANT SHOWER S",YBRK,2015-02-12T07:30:00Z,-23.37,150.47,28.0,20.0,100,13,,6.21,29.911417,,,,,,,,,,,FEW,4000,,,,,,,VFR,,,,,,,,,,,,SPECI,14.0
YSRI 120730Z AUTO 10013KT 9999 // SCT034 SCT043 SCT048 26/19 Q1020,YSRI,2015-02-12T07:30:00Z,-33.6,150.77,26.0,19.0,100,13,,6.21,30.11811,,,TRUE,,,,,,,,SCT,3400,SCT,4300,SCT,4800,,,VFR,,,,,,,,,,,,SPECI,21.0
YPPD 120730Z AUTO 32019KT 9999 // NCD 38/22 Q1005,YPPD,2015-02-12T07:30:00Z,-20.37,118.62,38.0,22.0,320,19,,6.21,29.675198,,,TRUE,,,,,,,,,,,,,,,,,,,,,,,,,,,,SPECI,6.0
YSNF 120730Z 11012KT 9999 SCT019 22/18 Q1017,YSNF,2015-02-12T07:30:00Z,-29.02,167.92,22.0,18.0,110,12,,6.21,30.029528,,,,,,,,,,,SCT,1900,,,,,,,VFR,,,,,,,,,,,,METAR,109.0
YBMA 120730Z AUTO 09017KT 9999 // SCT110 36/07 Q1009,YBMA,2015-02-12T07:30:00Z,-20.67,139.47,36.0,7.0,90,17,,6.21,29.793306,,,TRUE,,,,,,,,SCT,11000,,,,,,,VFR,,,,,,,,,,,,SPECI,344.0
YMLT 120730Z AUTO 03011KT 9999 // BKN054 OVC065 19/07 Q1026,YMLT,2015-02-12T07:30:00Z,-41.52,147.18,19.0,7.0,30,11,,6.21,30.295275,,,TRUE,,,,,,,,BKN,5400,OVC,6500,,,,,VFR,,,,,,,,,,,,SPECI,178.0
YPKG 120730Z AUTO 15010KT 9999 // NCD 39/05 Q1012,YPKG,2015-02-12T07:30:00Z,-30.77,121.45,39.0,5.0,150,10,,6.21,29.88189,,,TRUE,,,,,,,,,,,,,,,,,,,,,,,,,,,,SPECI,360.0
YMHB 120730Z 09009KT 9999 FEW040 BKN048 16/05 Q1029,YMHB,2015-02-12T07:30:00Z,-42.82,147.52,16.0,5.0,90,9,,6.21,30.383858,,,,,,,,,,,FEW,4000,BKN,4800,,,,,VFR,,,,,,,,,,,,METAR,27.0
YBHM 120730Z AUTO 12022KT 9999 // SCT022 27/23 Q1010,YBHM,2015-02-12T07:30:00Z,-20.35,148.95,27.0,23.0,120,22,,6.21,29.822834,,,TRUE,,,,,,,,SCT,2200,,,,,,,VFR,,,,,,,,,,,,SPECI,5.0
YPGV 120730Z 17008KT 9999 FEW025 BKN250 29/23 Q1006,YPGV,2015-02-12T07:30:00Z,-12.27,136.82,29.0,23.0,170,8,,6.21,29.704725,,,,,,,,,,,FEW,2500,BKN,25000,,,,,VFR,,,,,,,,,,,,METAR,55.0
YGEL 120730Z 18020KT CAVOK 28/19 Q1010 RMK 5AC190,YGEL,2015-02-12T07:30:00Z,-28.8,114.7,28.0,19.0,180,20,,6.21,29.822834,,,,,,,,,,,CAVOK,,,,,,,,VFR,,,,,,,,,,,,METAR,37.0
YFRT 120730Z AUTO 24004KT //// // ////// 42/01 Q1011,YFRT,2015-02-12T07:30:00Z,-30.83,128.12,42.0,1.0,240,4,,,29.852362,,,TRUE,,,,,,,,,,,,,,,,,,,,,,,,,,,,SPECI,156.0
YSDU 120730Z AUTO 12006KT 9999 // BKN110 24/20 Q1018,YSDU,2015-02-12T07:30:00Z,-32.22,148.57,24.0,20.0,120,6,,6.21,30.059055,,,TRUE,,,,,,,,BKN,11000,,,,,,,VFR,,,,,,,,,,,,SPECI,275.0
YCIN 120730Z AUTO 26006KT 180V270 //// // NCD 38/22 Q1005,YCIN,2015-02-12T07:30:00Z,-17.58,123.83,38.0,22.0,260,6,,,29.675198,,,TRUE,,,,,,,,,,,,,,,,,,,,,,,,,,,,SPECI,91.0
YBRM 120730Z 28014KT 9999 FEW035 34/23 Q1006,YBRM,2015-02-12T07:30:00Z,-17.93,122.22,34.0,23.0,280,14,,6.21,29.704725,,,,,,,,,,,FEW,3500,,,,,,,VFR,,,,,,,,,,,,METAR,9.0
YMAV 120730Z AUTO 19015KT 9999 // NCD 20/13 Q1021,YMAV,2015-02-12T07:30:00Z,-38.03,144.48,20.0,13.0,190,15,,6.21,30.147638,,,TRUE,,,,,,,,,,,,,,,,,,,,,,,,,,,,SPECI,8.0
YAMB 120730Z 10014KT 9999 FEW037 27/17 Q1017,YAMB,2015-02-12T07:30:00Z,-27.63,152.72,27.0,17.0,100,14,,6.21,30.029528,,,,,,,,,,,FEW,3700,,,,,,,VFR,,,,,,,,,,,,METAR,28.0
LPPD 120730Z 35008KT 9999 FEW016 SCT030 14/10 Q1021,LPPD,2015-02-12T07:30:00Z,37.72,-25.68,14.0,10.0,350,8,,6.21,30.147638,,,,,,,,,,,FEW,1600,SCT,3000,,,,,VFR,,,,,,,,,,,,METAR,72.0
LPHR 120730Z 31005KT 280V350 9999 SCT015 BKN030 14/08 Q1022,LPHR,2015-02-12T07:30:00Z,38.52,-28.72,14.0,8.0,310,5,,6.21,30.177166,,,,,,,,,,,SCT,1500,BKN,3000,,,,,MVFR,,,,,,,,,,,,METAR,41.0
LPAZ 120730Z 31007KT 9999 SCT002 SCT005 BKN018 15/14 Q1021,LPAZ,2015-02-12T07:30:00Z,36.97,-25.17,15.0,14.0,310,7,,6.21,30.147638,,,,,,,,,,,SCT,200,SCT,500,BKN,1800,,,MVFR,,,,,,,,,,,,METAR,100.0
YBTL 120730Z 09017KT 9999 FEW035 SCT300 30/21 Q1009 RMK HZ,YBTL,2015-02-12T07:30:00Z,-19.25,146.75,30.0,21.0,90,17,,6.21,29.793306,,,,,,,,,,,FEW,3500,SCT,30000,,,,,VFR,,,,,,,,,,,,SPECI,6.0
YPTN 120730Z AUTO 10007KT 9999 // NCD 37/16 Q1005,YPTN,2015-02-12T07:30:00Z,-14.52,132.38,37.0,16.0,100,7,,6.21,29.675198,,,TRUE,,,,,,,,,,,,,,,,,,,,,,,,,,,,SPECI,109.0
YSTW 120730Z AUTO 09012KT 9999 // NCD 30/09 Q1017,YSTW,2015-02-12T07:30:00Z,-31.07,150.85,30.0,9.0,90,12,,6.21,30.029528,,,TRUE,,,,,,,,,,,,,,,,,,,,,,,,,,,,SPECI,410.0
YSSY 120730Z 10016KT 9999 VCSH FEW017 BKN260 FEW022TCU 25/20 Q1021 INTER 0730/1030 5000 SHRA BKN010,YSSY,2015-02-12T07:30:00Z,-33.95,151.17,25.0,20.0,100,16,,6.21,30.147638,,,,,,,,,,VCSH,FEW,1700,BKN,26000,FEW,2200,,,VFR,,,,,,,,,,,,SPECI,3.0
"YPPH 120730Z 28008KT CAVOK 28/17 Q1012 RMK VIRGA, DIST SHRA 6AC160",YPPH,2015-02-12T07:30:00Z,-31.93,115.98,28.0,17.0,280,8,,6.21,29.88189,,,,,,,,,,,CAVOK,,,,,,,,VFR,,,,,,,,,,,,SPECI,13.0
YMML 120730Z 21011KT CAVOK 21/12 Q1021 INTER 0930/1030 5000 SHRA,YMML,2015-02-12T07:30:00Z,-37.67,144.82,21.0,12.0,210,11,,6.21,30.147638,,,,,,,,,,,CAVOK,,,,,,,,VFR,,,,,,,,,,,,SPECI,141.0
YPLM 120730Z AUTO 29015KT 9999 // NCD 40/11 Q1007,YPLM,2015-02-12T07:30:00Z,-22.22,114.07,40.0,11.0,290,15,,6.21,29.734253,,,TRUE,,,,,,,,,,,,,,,,,,,,,,,,,,,,SPECI,6.0
YPKU 120730Z AUTO 19011KT 130V220 9999 // SCT038 SCT076 BKN100 29/17 Q1005,YPKU,2015-02-12T07:30:00Z,-15.77,128.68,29.0,17.0,190,11,,6.21,29.675198,,,TRUE,,,,,,,,SCT,3800,SCT,7600,BKN,10000,,,VFR,,,,,,,,,,,,SPECI,45.0
YPJT 120730Z AUTO 25009KT 9999 // NCD 27/17 Q1012,YPJT,2015-02-12T07:30:00Z,-32.1,115.88,27.0,17.0,250,9,,6.21,29.88189,,,TRUE,,,,,,,,,,,,,,,,,,,,,,,,,,,,METAR,30.0
YHID 120730Z AUTO 28006KT 9999 // SCT016 27/24 Q1005,YHID,2015-02-12T07:30:00Z,-10.58,142.3,27.0,24.0,280,6,,6.21,29.675198,,,TRUE,,,,,,,,SCT,1600,,,,,,,VFR,,,,,,,,,,,,METAR,13.0
YBCG 120730Z AUTO 12009KT 9999 // NCD 26/19 Q1018,YBCG,2015-02-12T07:30:00Z,-28.17,153.5,26.0,19.0,120,9,,6.21,30.059055,,,TRUE,,,,,,,,,,,,,,,,,,,,,,,,,,,,SPECI,6.0
YPDN 120730Z 30011KT 9999 FEW035 BKN300 32/23 Q1006,YPDN,2015-02-12T07:30:00Z,-12.42,130.9,32.0,23.0,300,11,,6.21,29.704725,,,,,,,,,,,FEW,3500,BKN,30000,,,,,VFR,,,,,,,,,,,,METAR,30.0
YCFS 120730Z AUTO 08009KT 9999 // SCT026 25/20 Q1020,YCFS,2015-02-12T07:30:00Z,-30.32,153.12,25.0,20.0,80,9,,6.21,30.11811,,,TRUE,,,,,,,,SCT,2600,,,,,,,VFR,,,,,,,,,,,,METAR,5.0
YPCC 120730Z 17014KT 9999 FEW020 31/25 Q1009,YPCC,2015-02-12T07:30:00Z,-12.17,96.82,31.0,25.0,170,14,,6.21,29.793306,,,,,,,,,,,FEW,2000,,,,,,,VFR,,,,,,,,,,,,METAR,3.0
YSCB 120730Z 13011KT 9999 FEW025 BKN180 19/14 Q1024,YSCB,2015-02-12T07:30:00Z,-35.28,149.17,19.0,14.0,130,11,,6.21,30.236221,,,,,,,,,,,FEW,2500,BKN,18000,,,,,VFR,,,,,,,,,,,,METAR,577.0
YBBN 120730Z 10009KT 9999 SCT031 26/19 Q1017 RMK HZ,YBBN,2015-02-12T07:30:00Z,-27.38,153.13,26.0,19.0,100,9,,6.21,30.029528,,,,,,,,,,,SCT,3100,,,,,,,VFR,,,,,,,,,,,,METAR,5.0
YBAS 120730Z AUTO 08011KT 9999 // NCD 37/03 Q1012,YBAS,2015-02-12T07:30:00Z,-23.8,133.9,37.0,3.0,80,11,,6.21,29.88189,,,TRUE,,,,,,,,,,,,,,,,,,,,,,,,,,,,SPECI,541.0
YPAD 120730Z 17009KT CAVOK 33/11 Q1015 RMK 5AC160 NOSIG,YPAD,2015-02-12T07:30:00Z,-34.95,138.52,33.0,11.0,170,9,,6.21,29.970472,,,,,,,,,,,CAVOK,,,,,,,,VFR,,,,,,,,,,,,SPECI,4.0
WIPP 120730Z 35008KT 9999 BKN013 29/23 Q1009 NOSIG,WIPP,2015-02-12T07:30:00Z,-2.88,104.7,29.0,23.0,350,8,,6.21,29.793306,,,,,,TRUE,,,,,BKN,1300,,,,,,,MVFR,,,,,,,,,,,,METAR,10.0
WIPT 120730Z 21005KT 180V250 8000 SCT020 28/23 Q1008,WIPT,2015-02-12T07:30:00Z,-0.78,100.28,28.0,23.0,210,5,,4.97,29.763779,,,,,,,,,,,SCT,2000,,,,,,,MVFR,,,,,,,,,,,,METAR,5.0
WIBB 120730Z 05006KT 7000 BKN015 31/20 Q1007 NOSIG,WIBB,2015-02-12T07:30:00Z,0.47,101.45,31.0,20.0,50,6,,4.35,29.734253,,,,,,TRUE,,,,,BKN,1500,,,,,,,MVFR,,,,,,,,,,,,METAR,31.0
WARS 120730Z 36009KT 5000 -TSRA FEW017CB SCT018 27/25 Q1007 NOSIG,WARS,2015-02-12T07:30:00Z,-6.97,110.38,27.0,25.0,360,9,,3.11,29.734253,,,,,,TRUE,,,,-TSRA,FEW,1700,SCT,1800,,,,,MVFR,,,,,,,,,,,,METAR,3.0
WADL 120730Z 29005KT 260V330 5000 RA FEW015CB BKN016 26/24 Q1008 RETS,WADL,2015-02-12T07:30:00Z,-8.75,116.28,26.0,24.0,290,5,,3.11,29.763779,,,,,,,,,,RA,FEW,1500,BKN,1600,,,,,MVFR,,,,,,,,,,,,METAR,97.0
"WALL 120730Z 19002KT 3000 RA FEW015CB SCT015 25/24Q1008 RETS RMK CB TO NE,E,W AND NW",WALL,2015-02-12T07:30:00Z,-1.27,116.9,,,190,2,,1.86,29.763779,,,,,,,,,,RA,FEW,1500,SCT,1500,,,,,IFR,,,,,,,,,,,,METAR,3.0
WARR 120730Z VRB03KT 9000 SCT018 FEW020CB 30/22 Q1006 NOSIG,WARR,2015-02-12T07:30:00Z,-7.37,112.78,30.0,22.0,0,3,,5.59,29.704725,,,,,,TRUE,,,,,SCT,1800,FEW,2000,,,,,VFR,,,,,,,,,,,,METAR,2.0
GEML 120730Z 00000KT 9999 FEW010 SCT015 OVC025 11/10 Q1018,GEML,2015-02-12T07:30:00Z,35.27,-2.95,11.0,10.0,0,0,,6.21,30.059055,,,,,,,,,,,FEW,1000,SCT,1500,OVC,2500,,,MVFR,,,,,,,,,,,,METAR,55.0
VOBL 120730Z 12004KT 020V180 9999 FE ,VOBL,2015-02-12T07:30:00Z,13.2,77.7,,,120,4,,6.21,,,,,,,,,,,,,,,,,,,,,,,,,,,,,,,,METAR,915.0
UASK 120730Z 21005MPS 9999 OVC022CB 04/00 Q1006 R12/290350 TEMPO 17010G15MPS RMK QFE729/0972,UASK,2015-02-12T07:30:00Z,50.03,82.5,4.0,0.0,210,10,,6.21,29.704725,,,,,,,,,,,OVC,2200,,,,,,,MVFR,,,,,,,,,,,,METAR,286.0
UAOO 120730Z 33007MPS 9999 OVC007 01/00 Q1017 R24/290060 NOSIG RMK QFE751/1001,UAOO,2015-02-12T07:30:00Z,44.7,65.6,1.0,0.0,330,14,,6.21,30.029528,,,,,,TRUE,,,,,OVC,700,,,,,,,IFR,,,,,,,,,,,,METAR,129.0
UAKK 120730Z 27005MPS 3300 BR OVC002 M05/M06 Q1005 R23/990532 TEMPO 0600 FZFG VV002 RMK QBB080 QFE707/0943,UAKK,2015-02-12T07:30:00Z,49.67,73.33,-5.0,-6.0,270,10,,2.05,29.675198,,,,,,,,,,BR,OVC,200,,,,,,,LIFR,,,,,,,,,,,,METAR,538.0
KAQO 120730Z AUTO 36010G15KT 10SM OVC060 11/04 A3035 RMK AO2,KAQO,2015-02-12T07:30:00Z,30.78,-98.67,11.0,4.0,360,10,15,10.0,30.351377,,,TRUE,TRUE,,,,,,,OVC,6000,,,,,,,VFR,,,,,,,,,,,,SPECI,336.0
KBIJ 120730Z AUTO 00000KT 10SM CLR 06/06 A3005 RMK AO2,KBIJ,2015-02-12T07:30:00Z,31.4,-84.9,6.0,6.0,0,0,,10.0,30.050198,,,TRUE,TRUE,,,,,,,CLR,,,,,,,,VFR,,,,,,,,,,,,SPECI,65.0
KDLL 120730Z AUTO 34011G21KT 10SM BKN026 OVC034 M12/M16 A3025 RMK AO2 T11181165,KDLL,2015-02-12T07:30:00Z,43.52,-89.77,-11.8,-16.5,340,11,21,10.0,30.250984,,,TRUE,TRUE,,,,,,,BKN,2600,OVC,3400,,,,,MVFR,,,,,,,,,,,,SPECI,299.0
KEGV 120730Z AUTO 35014G19KT 10SM BKN033 M17/M22 A3022 RMK AO2 T11711216,KEGV,2015-02-12T07:30:00Z,45.93,-89.27,-17.1,-21.6,350,14,19,10.0,30.221457,,,TRUE,TRUE,,,,,,,BKN,3300,,,,,,,VFR,,,,,,,,,,,,SPECI,500.0
KETB 120730Z AUTO 33012G18KT 10SM SCT025 OVC032 M11/M16 A3017 RMK AO2,KETB,2015-02-12T07:30:00Z,43.42,-88.13,-11.0,-16.0,330,12,18,10.0,30.171259,,,TRUE,TRUE,,,,,,,SCT,2500,OVC,3200,,,,,VFR,,,,,,,,,,,,SPECI,270.0
KFOA 120730Z AUTO 30012G19KT 10SM BKN025 BKN110 M03/M07 A3021 RMK AO2 T10351070,KFOA,2015-02-12T07:30:00Z,38.67,-88.45,-3.5,-7.0,300,12,19,10.0,30.209646,,,TRUE,TRUE,,,,,,,BKN,2500,BKN,11000,,,,,MVFR,,,,,,,,,,,,SPECI,144.0
KUNI 120730Z AUTO 28009KT 3SM -SN BKN012 OVC020 00/M01 A2994 RMK AO2 T00011010,KUNI,2015-02-12T07:30:00Z,39.22,-82.23,0.1,-1.0,280,9,,3.0,29.940945,,,TRUE,TRUE,,,,,,-SN,BKN,1200,OVC,2000,,,,,MVFR,,,,,,,,,,,,SPECI,193.0
KTVK 120730Z AUTO 32020G27KT 10SM FEW035 M12/M17 A3042 RMK AO2,KTVK,2015-02-12T07:30:00Z,40.68,-92.9,-12.0,-17.0,320,20,27,10.0,30.41929,,,TRUE,TRUE,,,,,,,FEW,3500,,,,,,,VFR,,,,,,,,,,,,SPECI,314.0
KMRJ 120730Z AUTO 32013G19KT 5SM -SN OVC021 M10/M13 A3022 RMK AO2,KMRJ,2015-02-12T07:30:00Z,42.88,-90.23,-10.0,-13.0,320,13,19,5.0,30.221457,,,TRUE,TRUE,,,,,,-SN,OVC,2100,,,,,,,MVFR,,,,,,,,,,,,SPECI,359.0
HKJK 120730Z 04008KT 9999 FEW025 24/13 Q1023 NOSIG,HKJK,2015-02-12T07:30:00Z,-1.32,36.92,24.0,13.0,40,8,,6.21,30.206694,,,,,,TRUE,,,,,FEW,2500,,,,,,,VFR,,,,,,,,,,,,METAR,1624.0
VIJP 120730Z 28007KT 4000 HZ NSC 23/00 Q1018 NOSIG,VIJP,2015-02-12T07:30:00Z,26.82,75.78,23.0,0.0,280,7,,2.49,30.059055,,,,,,TRUE,,,,HZ,,,,,,,,,,,,,,,,,,,,,SPECI,390.0
VIBN 120730Z 26004KT 3500 HZ NSC 24/13 Q1015,VIBN,2015-02-12T07:30:00Z,25.43,82.87,24.0,13.0,260,4,,2.17,29.970472,,,,,,,,,,HZ,,,,,,,,,,,,,,,,,,,,,SPECI,85.0
VIAR 120730Z 26006KT 2500 HZ NSC 21/09 Q1017,VIAR,2015-02-12T07:30:00Z,31.7,74.8,21.0,9.0,260,6,,1.55,30.029528,,,,,,,,,,HZ,,,,,,,,,,,,,,,,,,,,,SPECI,234.0
VIDP 120730Z 27011KT 2100 HZ NSC 20/11 Q1017 NOSIG,VIDP,2015-02-12T07:30:00Z,28.57,77.12,20.0,11.0,270,11,,1.3,30.029528,,,,,,TRUE,,,,HZ,,,,,,,,,,,,,,,,,,,,,SPECI,233.0
KECU 120730Z AUTO 03012G18KT 10SM BKN045 OVC060 08/03 A3029 RMK AO2,KECU,2015-02-12T07:30:00Z,29.95,-100.17,8.0,3.0,30,12,18,10.0,30.28937,,,TRUE,TRUE,,,,,,,BKN,4500,OVC,6000,,,,,VFR,,,,,,,,,,,,SPECI,725.0
UHWW 120730Z 33005MPS 9999 SCT100 M08/M15 Q1009 NOSIG RMK QFE756/1008 25CLRD60,UHWW,2015-02-12T07:30:00Z,43.4,132.15,-8.0,-15.0,330,10,,6.21,29.793306,,,,,,TRUE,,,,,SCT,10000,,,,,,,VFR,,,,,,,,,,,,METAR,184.0
ZYTX 120730Z 34005MPS 9999 SCT040 M01/M16 Q1018 NOSIG,ZYTX,2015-02-12T07:30:00Z,41.63,123.48,-1.0,-16.0,340,10,,6.21,30.059055,,,,,,TRUE,,,,,SCT,4000,,,,,,,VFR,,,,,,,,,,,,METAR,35.0
ZYTL 120730Z 33005MPS CAVOK M01/M12 Q1020 NOSIG,ZYTL,2015-02-12T07:30:00Z,38.97,121.53,-1.0,-12.0,330,10,,6.21,30.11811,,,,,,TRUE,,,,,CAVOK,,,,,,,,VFR,,,,,,,,,,,,METAR,97.0
ZWWW 120730Z VRB01MPS 0700 R25/0800N FZFG NSC M04/M09 Q1013 BECMG TL0830 0900 FZFG,ZWWW,2015-02-12T07:30:00Z,43.88,87.47,-4.0,-9.0,0,2,,0.43,29.911417,,,,,,,,,,FZFG,,,,,,,,,,,,,,,,,,,,,SPECI,654.0
ZSSS 120730Z 33005MPS 300V020 3000 HZ NSC 13/02 Q1018 NOSIG,ZSSS,2015-02-12T07:30:00Z,31.2,121.33,13.0,2.0,330,10,,1.86,30.059055,,,,,,TRUE,,,,HZ,,,,,,,,,,,,,,,,,,,,,SPECI,7.0
ZSPD 120730Z 36005MPS 4000 HZ NSC 11/02 Q1019 NOSIG,ZSPD,2015-02-12T07:30:00Z,31.15,121.8,11.0,2.0,360,10,,2.49,30.088583,,,,,,TRUE,,,,HZ,,,,,,,,,,,,,,,,,,,,,SPECI,4.0
ZSHC 120730Z 04003MPS 340V080 CAVOK 17/M09 Q1018 NOSIG,ZSHC,2015-02-12T07:30:00Z,30.22,120.43,17.0,-9.0,40,6,,6.21,30.059055,,,,,,TRUE,,,,,CAVOK,,,,,,,,VFR,,,,,,,,,,,,METAR,43.0
ZGGG 120730Z 06003MPS 350V140 8000 NSC 24/03 Q1016 NOSIG,ZGGG,2015-02-12T07:30:00Z,23.4,113.3,24.0,3.0,60,6,,4.97,30.0,,,,,,TRUE,,,,,,,,,,,,,,,,,,,,,,,,,METAR,15.0
ZBYN 120730Z 31005MPS CAVOK 07/M17 Q1013 NOSIG,ZBYN,2015-02-12T07:30:00Z,37.77,112.63,7.0,-17.0,310,10,,6.21,29.911417,,,,,,TRUE,,,,,CAVOK,,,,,,,,VFR,,,,,,,,,,,,METAR,779.0
ZBTJ 120730Z 16005MPS CAVOK 04/M10 Q1020 NOSIG,ZBTJ,2015-02-12T07:30:00Z,39.12,117.35,4.0,-10.0,160,10,,6.21,30.11811,,,,,,TRUE,,,,,CAVOK,,,,,,,,VFR,,,,,,,,,,,,METAR,3.0
ZBAA 120730Z VRB02MPS CAVOK 06/M13 Q1018 NOSIG,ZBAA,2015-02-12T07:30:00Z,40.07,116.58,6.0,-13.0,0,4,,6.21,30.059055,,,,,,TRUE,,,,,CAVOK,,,,,,,,VFR,,,,,,,,,,,,METAR,30.0
HECA 120730Z 22009KT 4000 SA NSC 09/M01 Q1020 BECMG 6000,HECA,2015-02-12T07:30:00Z,30.12,31.38,9.0,-1.0,220,9,,2.49,30.11811,,,,,,,,,,SA,,,,,,,,,,,,,,,,,,,,,SPECI,74.0
RKSI 120730Z 33018KT CAVOK 00/M20 Q1015 WS ALL RWY NOSIG,RKSI,2015-02-12T07:30:00Z,37.47,126.45,0.0,-20.0,330,18,,6.21,29.970472,,,,,,TRUE,,,,,CAVOK,,,,,,,,VFR,,,,,,,,,,,,METAR,7.0
UUOO 120730Z 26003MPS 9999 OVC013 M04/M07 Q1026 NOSIG RMK 30720345,UUOO,2015-02-12T07:30:00Z,51.82,39.23,-4.0,-7.0,260,6,,6.21,30.295275,,,,,,TRUE,,,,,OVC,1300,,,,,,,MVFR,,,,,,,,,,,,METAR,157.0
ULMM 120730Z 26004MPS 9999 SCT009 BKN015CB BKN080 M03/M05 Q0984 NOSIG RMK OBST OBSC QFE731 31490538,ULMM,2015-02-12T07:30:00Z,68.78,32.75,-3.0,-5.0,260,8,,6.21,29.055119,,,,,,TRUE,,,,,SCT,900,BKN,1500,BKN,8000,,,MVFR,,,,,,,,,,,,METAR,51.0
VTBU 120730Z 19012KT 4000 HZ FEW020 SCT300 29/20 Q1010 A2984,VTBU,2015-02-12T07:30:00Z,12.68,101.0,29.0,20.0,190,12,,2.49,29.822834,,,,,,,,,,HZ,FEW,2000,SCT,30000,,,,,IFR,,,,,,,,,,,,METAR,5.0
URFF 120730Z 06010MPS 2000 BR OVC006 M00/M01 Q1019 01810255 NOSIG,URFF,2015-02-12T07:30:00Z,45.03,33.98,0.0,-1.0,60,19,,1.24,30.088583,,,,,,TRUE,,,,BR,OVC,600,,,,,,,IFR,,,,,,,,,,,,METAR,188.0
URWW 120730Z 29002MPS 240V330 9999 FEW003 M09/M10 Q1028 NOSIG RMK QBB090 11750157,URWW,2015-02-12T07:30:00Z,48.78,44.33,-9.0,-10.0,290,4,,6.21,30.35433,,,,,,TRUE,,,,,FEW,300,,,,,,,VFR,,-75.0,,,,,,,,,,METAR,147.0
URWA 120730Z 07003MPS CAVOK M01/M06 Q1027 NOSIG RMK QFE772/1030 SC060,URWA,2015-02-12T07:30:00Z,46.28,48.02,-1.0,-6.0,70,6,,6.21,30.324802,,,,,,TRUE,,,,,CAVOK,,,,,,,,VFR,,,,,,,,,,,,METAR,-20.0
URSS 120730Z 09003MPS 9999 BKN010 OVC029CB 10/08 Q1014 NOSIG RMK R02/10002MPS MT OBSC QFE760 06290055 02//////,URSS,2015-02-12T07:30:00Z,43.45,39.95,10.0,8.0,90,6,,6.21,29.940945,,,,,,TRUE,,,,,BKN,1000,OVC,2900,,,,,MVFR,,,,,,,,,,,,METAR,16.0
URRR 120730Z 08009G12MPS 6000 -SG OVC004 M04/M05 Q1026 04CLRD70 TEMPO 1000 FZDZ OVC003 RMK QBB140 MAST OBSC,URRR,2015-02-12T07:30:00Z,47.25,39.82,-4.0,-5.0,80,17,23,3.73,30.295275,,,,,,,,,,-SG,OVC,400,,,,,,,LIFR,,,,,,,,,,,,METAR,77.0
URMT 120730Z 10005G08MPS 0100 R07/M0300N FZDZ FZFG VV001 M02/M02 Q1019 NOSIG RMK QBB040 OBST OBSC QFE724 SC037,URMT,2015-02-12T07:30:00Z,45.12,42.12,-2.0,-2.0,100,10,16,0.06,30.088583,,,,,,TRUE,,,,FZDZ FZFG,OVX,0,,,,,,,LIFR,,,,,,,,,,,100,METAR,453.0
URMO 120730Z 05003MPS 9999 SCT008 BKN016 OVC100 00/M02 Q1019 NOSIG RMK QFE720/0961 SC070,URMO,2015-02-12T07:30:00Z,43.2,44.6,0.0,-2.0,50,6,,6.21,30.088583,,,,,,TRUE,,,,,SCT,800,BKN,1600,OVC,10000,,,MVFR,,,,,,,,,,,,METAR,510.0
URMN 120730Z 04002MPS 5000 BR OVC004 M01/M02 Q1020 NOSIG RMK MT OBSC OBST OBSC QFE728 SC055,URMN,2015-02-12T07:30:00Z,43.52,43.63,-1.0,-2.0,40,4,,3.11,30.11811,,,,,,TRUE,,,,BR,OVC,400,,,,,,,LIFR,,,,,,,,,,,,METAR,445.0
URMM 120730Z 11006MPS 3000 -SHSN BKN005 OVC033CB M01/M02 Q1021 R12/590145 TEMPO 0800 +SHSN RMK MT OBSC QFE737/0983,URMM,2015-02-12T07:30:00Z,44.22,43.1,-1.0,-2.0,110,12,,1.86,30.147638,,,,,,,,,,-SHSN,BKN,500,OVC,3300,,,,,IFR,,,,,,,,,,,,METAR,314.0
URML 120730Z VRB01MPS 5000 -RA BR OVC014 04/03 Q1022 NOSIG RMK QFE766/1022 SC070,URML,2015-02-12T07:30:00Z,42.82,47.65,4.0,3.0,0,2,,3.11,30.177166,,,,,,TRUE,,,,-RA BR,OVC,1400,,,,,,,MVFR,,,,,,,,,,,,METAR,4.0
URKK 120730Z 08009G12MPS 9999 BKN014 OVC026 02/M00 Q1020 NOSIG RMK QFE761 SC065,URKK,2015-02-12T07:30:00Z,45.03,39.15,2.0,0.0,80,17,23,6.21,30.11811,,,,,,TRUE,,,,,BKN,1400,OVC,2600,,,,,MVFR,,,,,,,,,,,,METAR,34.0
URKA 120730Z 08014G18MPS 9999 SCT012 SCT120 03/00 Q1017 NOSIG RMK QFE759/1012 SC070,URKA,2015-02-12T07:30:00Z,45.0,37.35,3.0,0.0,80,27,35,6.21,30.029528,,,,,,TRUE,,,,,SCT,1200,SCT,12000,,,,,VFR,,,,,,,,,,,,METAR,53.0
LFQG 120730Z AUTO 10003KT 3100 BR NSC M03/M04 Q1020,LFQG,2015-02-12T07:30:00Z,47.0,3.1,-3.0,-4.0,100,3,,1.93,30.11811,,,TRUE,,,,,,,BR,,,,,,,,,,,,,,,,,,,,,METAR,181.0
LFLW 120730Z AUTO 09005KT 9999 NSC 04/M06 Q1020,LFLW,2015-02-12T07:30:00Z,44.88,2.42,4.0,-6.0,90,5,,6.21,30.11811,,,TRUE,,,,,,,,,,,,,,,,,,,,,,,,,,,,METAR,639.0
EIDL 120730Z 17008KT CAVOK 05/03 Q1017,EIDL,2015-02-12T07:30:00Z,55.05,-8.33,5.0,3.0,170,8,,6.21,30.029528,,,,,,,,,,,CAVOK,,,,,,,,VFR,,,,,,,,,,,,METAR,9.0
GABS 120730Z 22003KT CAVOK 25/16 Q1014 NOSIG,GABS,2015-02-12T07:30:00Z,12.52,-7.95,25.0,16.0,220,3,,6.21,29.940945,,,,,,TRUE,,,,,CAVOK,,,,,,,,VFR,,,,,,,,,,,,METAR,381.0
UIAA 120730Z 00000MPS 9999 SKC M07/M14 Q1013 NOSIG RMK QFE701 29CLRD70,UIAA,2015-02-12T07:30:00Z,52.02,113.32,-7.0,-14.0,0,0,,6.21,29.911417,,,,,,TRUE,,,,,SKC,,,,,,,,VFR,,,,,,,,,,,,METAR,685.0
UARR 120730Z 19002MPS 8000 BKN007 OVC016 M09/M09 Q1024 R22/820555 TEMPO 3000 BR BKN005 RMK QFE765/1020,UARR,2015-02-12T07:30:00Z,51.15,51.53,-9.0,-9.0,190,4,,4.97,30.236221,,,,,,,,,,,BKN,700,OVC,1600,,,,,IFR,,,,,,,,,,,,METAR,38.0
UASS 120730Z 27005MPS 9999 -SNRA SCT004 OVC030 M00/M01 Q1004 R26/79//28 TEMPO 2000 BR RMK QBB120 QFE735/0980,UASS,2015-02-12T07:30:00Z,50.35,80.23,0.0,-1.0,270,10,,6.21,29.64567,,,,,,,,,,-SN -RA,SCT,400,OVC,3000,,,,,MVFR,,,,,,,,,,,,METAR,232.0
UASP 120730Z 26004MPS 9999 BKN007 M09/M10 Q1004 R21/3/0150 BKN004 RMK IPZ QFE742/0989,UASP,2015-02-12T07:30:00Z,52.2,77.07,-9.0,-10.0,260,8,,6.21,29.64567,,,,,,,,,,,BKN,700,BKN,400,,,,,IFR,,,,,,,,,,,,SPECI,125.0
UATE 120730Z 07008MPS 9999 OVC022 03/M00 Q1024 R12/0///70 NOSIG RMK QFE766/1021,UATE,2015-02-12T07:30:00Z,43.87,51.1,3.0,0.0,70,16,,6.21,30.236221,,,,,,TRUE,,,,,OVC,2200,,,,,,,MVFR,,,,,,,,,,,,METAR,22.0
DAAT 120730Z 13009KT 9000 NSC 20/M03 Q1023,DAAT,2015-02-12T07:30:00Z,22.82,5.47,20.0,-3.0,130,9,,5.59,30.206694,,,,,,,,,,,,,,,,,,,,,,,,,,,,,,,METAR,1377.0
EIWF 120730Z VRB03KT CAVOK 04/03 Q1018,EIWF,2015-02-12T07:30:00Z,52.18,-7.08,4.0,3.0,0,3,,6.21,30.059055,,,,,,,,,,,CAVOK,,,,,,,,VFR,,,,,,,,,,,,METAR,36.0
EIKY 120730Z 10006KT 9999 FEW040 06/04 Q1016,EIKY,2015-02-12T07:30:00Z,52.18,-9.52,6.0,4.0,100,6,,6.21,30.0,,,,,,,,,,,FEW,4000,,,,,,,VFR,,,,,,,,,,,,METAR,34.0
VMMC 120730Z 11004KT 2200 HZ FEW040 19/13 Q1016 NOSIG,VMMC,2015-02-12T07:30:00Z,22.15,113.58,19.0,13.0,110,4,,1.37,30.0,,,,,,TRUE,,,,HZ,FEW,4000,,,,,,,IFR,,,,,,,,,,,,METAR,6.0
RCNN 120730Z 34014KT 9999 FEW012 SCT200 22/06 Q1014 NOSIG RMK A2995,RCNN,2015-02-12T07:30:00Z,22.93,120.2,22.0,6.0,340,14,,6.21,29.940945,,,,,,TRUE,,,,,FEW,1200,SCT,20000,,,,,VFR,,,,,,,,,,,,METAR,19.0
RCMQ 120730Z 36014G24KT 9999 FEW010 SCT050 BKN180 19/03 Q1014 NOSIG RMK A2997,RCMQ,2015-02-12T07:30:00Z,24.27,120.62,19.0,3.0,360,14,24,6.21,29.940945,,,,,,TRUE,,,,,FEW,1000,SCT,5000,BKN,18000,,,VFR,,,,,,,,,,,,METAR,5.0
RCSS 120730Z 01005KT 320V120 9999 FEW025 SCT060 BKN200 19/M00 Q1017 NOSIG RMK A3005,RCSS,2015-02-12T07:30:00Z,25.07,121.53,19.0,0.0,10,5,,6.21,30.029528,,,,,,TRUE,,,,,FEW,2500,SCT,6000,BKN,20000,,,VFR,,,,,,,,,,,,METAR,6.0
RCKH 120730Z 30008KT 260V350 7000 FEW025 SCT300 25/11 Q1014 NOSIG RMK A2996,RCKH,2015-02-12T07:30:00Z,22.57,120.33,25.0,11.0,300,8,,4.35,29.940945,,,,,,TRUE,,,,,FEW,2500,SCT,30000,,,,,MVFR,,,,,,,,,,,,METAR,9.0
RCTP 120730Z 05013KT 9999 FEW015 BKN100 BKN200 17/M00 Q1018 NOSIG RMK A3006,RCTP,2015-02-12T07:30:00Z,25.07,121.22,17.0,0.0,50,13,,6.21,30.059055,,,,,,TRUE,,,,,FEW,1500,BKN,10000,BKN,20000,,,VFR,,,,,,,,,,,,METAR,33.0
FMEP 120730Z AUTO 13026KT 9999 NCD 29/22 Q1013,FMEP,2015-02-12T07:30:00Z,-21.32,55.42,29.0,22.0,130,26,,6.21,29.911417,,,TRUE,,,,,,,,,,,,,,,,,,,,,,,,,,,,METAR,53.0
FMEE 120730Z 11015G25KT 9999 VCSH FEW023 27/21 Q1014 TEMPO -SHRA,FMEE,2015-02-12T07:30:00Z,-20.87,55.52,27.0,21.0,110,15,25,6.21,29.940945,,,,,,,,,,VCSH,FEW,2300,,,,,,,VFR,,,,,,,,,,,,METAR,25.0
UTDL 120730Z 04004MPS 4000 -RA BR OVC029 07/05 Q1016 NOSIG RMK QFE723/0964 8829//50,UTDL,2015-02-12T07:30:00Z,40.22,69.7,7.0,5.0,40,8,,2.49,30.0,,,,,,TRUE,,,,-RA BR,OVC,2900,,,,,,,IFR,,,,,,,,,,,,METAR,442.0
UTDT 120730Z 28002MPS 6000 -RA SCT031 BKN050 OVC086 11/10 Q1018 35290650 RMK QFE724/0965,UTDT,2015-02-12T07:30:00Z,37.87,68.87,11.0,10.0,280,4,,3.73,30.059055,,,,,,,,,,-RA,SCT,3100,BKN,5000,OVC,8600,,,MVFR,,,,,,,,,,,,METAR,449.0
UTDK 120730Z 02003MPS 6000 -RA SCT008 OVC045 10/08 Q1019 0129//50 RMK QFE707/0942,UTDK,2015-02-12T07:30:00Z,37.98,69.8,10.0,8.0,20,6,,3.73,30.088583,,,,,,,,,,-RA,SCT,800,OVC,4500,,,,,MVFR,,,,,,,,,,,,METAR,699.0
UTDD 120730Z 09002MPS 4900 RA BR FEW009 OVC049 08/07 Q1020 R09/29//50 TEMPO 1500 RA BR RMK QFE696/0928,UTDD,2015-02-12T07:30:00Z,38.53,68.82,8.0,7.0,90,4,,3.04,30.11811,,,,,,,,,,RA BR,FEW,900,OVC,4900,,,,,MVFR,,,,,,,,,,,,METAR,803.0
DTTJ 120730Z 00000KT 7000 NSC 10/09 Q1020 NOSIG,DTTJ,2015-02-12T07:30:00Z,33.87,10.77,10.0,9.0,0,0,,4.35,30.11811,,,,,,TRUE,,,,,,,,,,,,,,,,,,,,,,,,,METAR,4.0
DTTA 120730Z 16003KT 4000 BR SCT013 08/07 Q1021 BECMG 7000 FEW020,DTTA,2015-02-12T07:30:00Z,36.85,10.22,8.0,7.0,160,3,,2.49,30.147638,,,,,,,,,,BR,SCT,1300,,,,,,,IFR,,,,,,,,,,,,METAR,4.0
DTNH 120730Z AUTO VRB02KT 7000NDV NCD 06/02 Q1020,DTNH,2015-02-12T07:30:00Z,36.07,10.43,6.0,2.0,0,2,,,30.11811,,,TRUE,,,,,,,,,,,,,,,,,,,,,,,,,,,,METAR,2.0
DTMB 120730Z 00000KT CAVOK 08/04 Q1020 NOSIG,DTMB,2015-02-12T07:30:00Z,35.77,10.75,8.0,4.0,0,0,,6.21,30.11811,,,,,,TRUE,,,,,CAVOK,,,,,,,,VFR,,,,,,,,,,,,METAR,2.0
UCFO 120730Z 31002MPS 9000 SCT050 BKN140 10/05 Q1014 R12/CLRD70 NOSIG,UCFO,2015-02-12T07:30:00Z,40.6,72.8,10.0,5.0,310,4,,5.59,29.940945,,,,,,TRUE,,,,,SCT,5000,BKN,14000,,,,,VFR,,,,,,,,,,,,METAR,884.0
UCFM 120730Z 12006MPS 9999 FEW020 BKN130 10/05 Q1011 R08/19//60 NOSIG,UCFM,2015-02-12T07:30:00Z,43.07,74.48,10.0,5.0,120,12,,6.21,29.852362,,,,,,TRUE,,,,,FEW,2000,BKN,13000,,,,,VFR,,,,,,,,,,,,METAR,633.0
KMHR 120730Z 12003KT 10SM SKC 09/08 A3020,KMHR,2015-02-12T07:30:00Z,38.53,-121.28,9.0,8.0,120,3,,10.0,30.200787,,,,,,,,,,,SKC,,,,,,,,VFR,,,,,,,,,,,,METAR,29.0
UTTT 120730Z 20007KT 170V230 3000 SHRA BR OVC005CB 11/11 Q1014 R88/290050 TEMPO 1500 SHRA BR BKN004CB RMK BASE550,UTTT,2015-02-12T07:30:00Z,41.27,69.27,11.0,11.0,200,7,,1.86,29.940945,,,,,,,,,,SHRA BR,OVC,500,,,,,,,IFR,,,,,,,,,,,,METAR,489.0
UATT 120730Z 28006MPS 9999 BKN011 M11/M13 Q1020 R31/810255 NOSIG RMK QFE745/0993,UATT,2015-02-12T07:30:00Z,50.25,57.2,-11.0,-13.0,280,12,,6.21,30.11811,,,,,,TRUE,,,,,BKN,1100,,,,,,,MVFR,,,,,,,,,,,,METAR,227.0
UATG 120730Z 04005MPS 5000 BR BKN004 M09/M09 Q1028 R32/CLRD70 NOSIG RMK QBB120 QFE773/1031,UATG,2015-02-12T07:30:00Z,47.12,51.83,-9.0,-9.0,40,10,,3.11,30.35433,,,,,,TRUE,,,,BR,BKN,400,,,,,,,LIFR,,,,,,,,,,,,METAR,-22.0
VVPQ 120730Z 11008KT 080V140 9999 SCT017 28/17 Q1011 NOSIG,VVPQ,2015-02-12T07:30:00Z,10.23,103.97,28.0,17.0,110,8,,6.21,29.852362,,,,,,TRUE,,,,,SCT,1700,,,,,,,VFR,,,,,,,,,,,,METAR,4.0
VVCT 120730Z 07007KT 040V120 9999 SCT015 30/18 Q1011 NOSIG,VVCT,2015-02-12T07:30:00Z,10.08,105.72,30.0,18.0,70,7,,6.21,29.852362,,,,,,TRUE,,,,,SCT,1500,,,,,,,VFR,,,,,,,,,,,,METAR,3.0
VVCR 120730Z 06016KT 9999 FEW017 27/18 Q1014 NOSIG,VVCR,2015-02-12T07:30:00Z,12.0,109.22,27.0,18.0,60,16,,6.21,29.940945,,,,,,TRUE,,,,,FEW,1700,,,,,,,VFR,,,,,,,,,,,,METAR,12.0
VVPB 120730Z 02006KT 9999 SCT020 23/19 Q1015 NOSIG,VVPB,2015-02-12T07:30:00Z,16.38,107.7,23.0,19.0,20,6,,6.21,29.970472,,,,,,TRUE,,,,,SCT,2000,,,,,,,VFR,,,,,,,,,,,,METAR,17.0
VVDN 120730Z 09007KT 050V140 7000 FEW015 26/16 Q1015 NOSIG,VVDN,2015-02-12T07:30:00Z,16.02,108.2,26.0,16.0,90,7,,4.35,29.970472,,,,,,TRUE,,,,,FEW,1500,,,,,,,MVFR,,,,,,,,,,,,METAR,7.0
VVNB 120730Z 05005KT 020V090 9000 NSC 22/09 Q1016 NOSIG,VVNB,2015-02-12T07:30:00Z,21.22,105.8,22.0,9.0,50,5,,5.59,30.0,,,,,,TRUE,,,,,,,,,,,,,,,,,,,,,,,,,METAR,12.0
VVTS 120730Z VRB02KT CAVOK 32/12 Q1010 NOSIG,VVTS,2015-02-12T07:30:00Z,10.82,106.67,32.0,12.0,0,2,,6.21,29.822834,,,,,,TRUE,,,,,CAVOK,,,,,,,,VFR,,,,,,,,,,,,METAR,19.0
LYKV 120730Z 13004KT 2000 BR BKN005 M05/M05 Q1029 NOSIG,LYKV,2015-02-12T07:30:00Z,43.82,20.58,-5.0,-5.0,130,4,,1.24,30.383858,,,,,,TRUE,,,,BR,BKN,500,,,,,,,IFR,,,,,,,,,,,,METAR,209.0
LJPZ 120730Z 12007KT 9999 SCT018 03/M00 Q1026,LJPZ,2015-02-12T07:30:00Z,45.47,13.62,3.0,0.0,120,7,,6.21,30.295275,,,,,,,,,,,SCT,1800,,,,,,,VFR,,,,,,,,,,,,METAR,2.0
ROAH 120730Z 32011KT 9999 FEW048 19/04 Q1015 RMK 1SC048 A2998,ROAH,2015-02-12T07:30:00Z,26.17,127.65,19.0,4.0,320,11,,6.21,29.970472,,,,,,,,,,,FEW,4800,,,,,,,VFR,,,,,,,,,,,,METAR,8.0
OIZH 120730Z 22012KT CAVOK 25/M01 Q1020 A3012,OIZH,2015-02-12T07:30:00Z,29.47,60.92,25.0,-1.0,220,12,,6.21,30.11811,,,,,,,,,,,CAVOK,,,,,,,,VFR,,,,,,,,,,,,METAR,1370.0
GMTT 120730Z 12003KT 090V170 9999 BKN016 SCT080 11/10 Q1018 NOSIG,GMTT,2015-02-12T07:30:00Z,35.72,-5.9,11.0,10.0,120,3,,6.21,30.059055,,,,,,TRUE,,,,,BKN,1600,SCT,8000,,,,,MVFR,,,,,,,,,,,,METAR,21.0
GMMX 120730Z 00000KT 9999 SCT026 SCT090 09/07 Q1019 NOSIG,GMMX,2015-02-12T07:30:00Z,31.62,-8.02,9.0,7.0,0,0,,6.21,30.088583,,,,,,TRUE,,,,,SCT,2600,SCT,9000,,,,,VFR,,,,,,,,,,,,METAR,466.0
GMMN 120730Z 16005KT 9999 BKN016 SCT080 08/07 Q1019 NOSIG,GMMN,2015-02-12T07:30:00Z,33.37,-7.57,8.0,7.0,160,5,,6.21,30.088583,,,,,,TRUE,,,,,BKN,1600,SCT,8000,,,,,MVFR,,,,,,,,,,,,METAR,206.0
GMME 120730Z 18005KT 5000 FEW013 SCT016 BKN080 10/09 Q1018 NOSIG,GMME,2015-02-12T07:30:00Z,34.03,-6.77,10.0,9.0,180,5,,3.11,30.059055,,,,,,TRUE,,,,,FEW,1300,SCT,1600,BKN,8000,,,MVFR,,,,,,,,,,,,METAR,75.0
GMAD 120730Z 06003KT CAVOK 09/07 Q1019 NOSIG,GMAD,2015-02-12T07:30:00Z,30.32,-9.42,9.0,7.0,60,3,,6.21,30.088583,,,,,,TRUE,,,,,CAVOK,,,,,,,,VFR,,,,,,,,,,,,METAR,74.0
UKLN 120730Z 00000MPS CAVOK M03/M04 Q1030 1509//70 NOSIG,UKLN,2015-02-12T07:30:00Z,48.27,25.98,-3.0,-4.0,0,0,,6.21,30.413385,,,,,,TRUE,,,,,CAVOK,,,,,,,,VFR,,,,,,,,,,,,SPECI,252.0
UKKM 120730Z 30002MPS 260V330 3000 -FZDZ BR OVC002 M01/M01 Q1029 33350040 TEMPO 1000 -FZDZ BR OVC001,UKKM,2015-02-12T07:30:00Z,50.6,30.2,-1.0,-1.0,300,4,,1.86,30.383858,,,,,,,,,,-FZDZ BR,OVC,200,,,,,,,LIFR,,,,,,,,,,,,SPECI,157.0
UKKK 120730Z 28003MPS 260V320 5000 BR OVC003 M02/M02 Q1029 26190060 TEMPO 2000 -FZDZ BR OVC002,UKKK,2015-02-12T07:30:00Z,50.4,30.45,-2.0,-2.0,280,6,,3.11,30.383858,,,,,,,,,,BR,OVC,300,,,,,,,LIFR,,,,,,,,,,,,SPECI,179.0
UKLU 120730Z 00000MPS 9999 SCT200 M03/M04 Q1030 10090070 NOSIG,UKLU,2015-02-12T07:30:00Z,48.63,22.27,-3.0,-4.0,0,0,,6.21,30.413385,,,,,,TRUE,,,,,SCT,20000,,,,,,,VFR,,9.0,,,,,,,,,,SPECI,117.0
UKON 120730Z 02007MPS 350V060 CAVOK M01/M05 Q1026 NOSIG,UKON,2015-02-12T07:30:00Z,47.05,31.92,-1.0,-5.0,20,14,,6.21,30.295275,,,,,,TRUE,,,,,CAVOK,,,,,,,,VFR,,,,,,,,,,,,METAR,56.0
UKLR 120730Z 19002MPS 0900 FZFG VV002 M01/M01 Q1029 NOSIG,UKLR,2015-02-12T07:30:00Z,50.6,26.13,-1.0,-1.0,190,4,,0.56,30.383858,,,,,,TRUE,,,,FZFG,OVX,0,,,,,,,LIFR,,,,,,,,,,,200,METAR,230.0
LDOS 120730Z 15005KT 0200 FG VV002 00/00 Q1029,LDOS,2015-02-12T07:30:00Z,45.47,18.82,0.0,0.0,150,5,,0.12,30.383858,,,,,,,,,,FG,OVX,0,,,,,,,LIFR,,,,,,,,,,,200,METAR,89.0
WSSS 120730Z 04012KT 010V090 9999 FEW020 SCT040 BKN300 30/22 Q1010 NOSIG,WSSS,2015-02-12T07:30:00Z,1.37,103.97,30.0,22.0,40,12,,6.21,29.822834,,,,,,TRUE,,,,,FEW,2000,SCT,4000,BKN,30000,,,VFR,,,,,,,,,,,,METAR,16.0
DIAP 120730Z 35003KT 9999 FEW011 23/23 Q1013 NOSIG,DIAP,2015-02-12T07:30:00Z,5.25,-3.92,23.0,23.0,350,3,,6.21,29.911417,,,,,,TRUE,,,,,FEW,1100,,,,,,,VFR,,,,,,,,,,,,SPECI,8.0
RKJB 120730Z 32013KT 9999 BKN030 02/M01 Q1017 NOSIG,RKJB,2015-02-12T07:30:00Z,34.98,126.38,2.0,-1.0,320,13,,6.21,30.029528,,,,,,TRUE,,,,,BKN,3000,,,,,,,MVFR,,,,,,,,,,,,SPECI,2.0
UGKO 120730Z 12006KT 090V160 CAVOK 11/06 Q1014 WS 07/09//70 NOSIG,UGKO,2015-02-12T07:30:00Z,42.18,42.48,11.0,6.0,120,6,,6.21,29.940945,,,,,,TRUE,,,,,CAVOK,,,,,,,,VFR,,,,,,,,,,,,METAR,68.0
UGSB 120730Z 23010KT 9999 SCT011 BKN020 09/08 Q1017 R13/29//55 NOSIG,UGSB,2015-02-12T07:30:00Z,41.62,41.6,9.0,8.0,230,10,,6.21,30.029528,,,,,,TRUE,,,,,SCT,1100,BKN,2000,,,,,MVFR,,,,,,,,,,,,METAR,32.0
UGTB 120730Z VRB02KT 8000 -RA FEW005 SCT013 OVC021 04/03 Q1019 R13R/290067 NOSIG,UGTB,2015-02-12T07:30:00Z,41.67,44.95,4.0,3.0,0,2,,4.97,30.088583,,,,,,TRUE,,,,-RA,FEW,500,SCT,1300,OVC,2100,,,MVFR,,,,,,,,,,,,METAR,495.0
YBCS 120730Z 15012KT 3000 -SHRA SCT020 BKN050 25/24 Q1008 FM0730 14015KT 9999 -SHRA SCT022 SCT045 INTER 0730/1030 14018G28KT 3000 SHRA BKN018,YBCS,2015-02-12T07:30:00Z,-16.87,145.75,25.0,24.0,150,12,,1.86,29.763779,,,,,,,,,,-SHRA,SCT,2000,BKN,5000,,,,,IFR,,,,,,,,,,,,SPECI,7.0
UBBB 120730Z 03011KT 9999 BKN007 OVC024 07/05 Q1020 88290065 NOSIG,UBBB,2015-02-12T07:30:00Z,40.45,50.07,7.0,5.0,30,11,,6.21,30.11811,,,,,,TRUE,,,,,BKN,700,OVC,2400,,,,,IFR,,,,,,,,,,,,METAR,-6.0
LUBL 120730Z 36007KT CAVOK M03/M07 Q1030,LUBL,2015-02-12T07:30:00Z,47.83,27.78,-3.0,-7.0,360,7,,6.21,30.413385,,,,,,,,,,,CAVOK,,,,,,,,VFR,,,,,,,,,,,,METAR,232.0
TFFR 120730Z AUTO 00000KT 9999 NSC 22/21 Q1012,TFFR,2015-02-12T07:30:00Z,16.27,-61.53,22.0,21.0,0,0,,6.21,29.88189,,,TRUE,,,,,,,,,,,,,,,,,,,,,,,,,,,,METAR,11.0
TFFF 120730Z AUTO 09003KT 9999 NSC 22/22 Q1012,TFFF,2015-02-12T07:30:00Z,14.6,-61.0,22.0,22.0,90,3,,6.21,29.88189,,,TRUE,,,,,,,,,,,,,,,,,,,,,,,,,,,,METAR,5.0
UTAA 120730Z 04003MPS 9999 OVC003 10/09 Q1019 R12/150065 NOSIG,UTAA,2015-02-12T07:30:00Z,37.98,58.37,10.0,9.0,40,6,,6.21,30.088583,,,,,,TRUE,,,,,OVC,300,,,,,,,LIFR,,,,,,,,,,,,METAR,210.0
LBBG 120730Z 36024KT 9999 -SN FEW023 SCT037 BKN049 M00/M04 Q1024 NOSIG,LBBG,2015-02-12T07:30:00Z,42.57,27.52,0.0,-4.0,360,24,,6.21,30.236221,,,,,,TRUE,,,,-SN,FEW,2300,SCT,3700,BKN,4900,,,VFR,,,,,,,,,,,,METAR,28.0
LBWN 120730Z 32009G19KT 260V040 9999 SCT021 BKN048 M00/M05 Q1025 R09/41//94 NOSIG,LBWN,2015-02-12T07:30:00Z,43.22,27.82,0.0,-5.0,320,9,19,6.21,30.265747,,,,,,TRUE,,,,,SCT,2100,BKN,4800,,,,,VFR,,,,,,,,,,,,SPECI,43.0
LBSF 120730Z 29004KT 8000 FEW032 BKN085 M05/M10 Q1026 NOSIG,LBSF,2015-02-12T07:30:00Z,42.65,23.38,-5.0,-10.0,290,4,,4.97,30.295275,,,,,,TRUE,,,,,FEW,3200,BKN,8500,,,,,MVFR,,,,,,,,,,,,METAR,595.0
LZTT 120730Z VRB02KT 9999 FEW006 BKN023 M01/M02 Q1026 NOSIG,LZTT,2015-02-12T07:30:00Z,49.07,20.25,-1.0,-2.0,0,2,,6.21,30.295275,,,,,,TRUE,,,,,FEW,600,BKN,2300,,,,,MVFR,,,,,,,,,,,,METAR,707.0
LZKZ 120730Z VRB01KT 9999 OVC020 M00/M01 Q1029 NOSIG,LZKZ,2015-02-12T07:30:00Z,48.67,21.23,0.0,-1.0,0,1,,6.21,30.383858,,,,,,TRUE,,,,,OVC,2000,,,,,,,MVFR,,,,,,,,,,,,METAR,232.0
LZIB 120730Z 08003KT 4000 BR BKN019 00/M01 Q1028 R04/71//95 R13/////95 NOSIG,LZIB,2015-02-12T07:30:00Z,48.17,17.22,0.0,-1.0,80,3,,2.49,30.35433,,,,,,TRUE,,,,BR,BKN,1900,,,,,,,IFR,,,,,,,,,,,,SPECI,134.0
LHBP 120730Z 09005KT 040V110 8000 BKN036 02/02 Q1029 NOSIG,LHBP,2015-02-12T07:30:00Z,47.42,19.27,2.0,2.0,90,5,,4.97,30.383858,,,,,,TRUE,,,,,BKN,3600,,,,,,,MVFR,,,,,,,,,,,,METAR,185.0
LZZI 120730Z 27001KT 3600 BR BKN011 OVC020 M00/M01 Q1027,LZZI,2015-02-12T07:30:00Z,49.23,18.62,0.0,-1.0,270,1,,2.24,30.324802,,,,,,,,,,BR,BKN,1100,OVC,2000,,,,,IFR,,,,,,,,,,,,METAR,311.0
LZSL 120730Z 00000KT 5000 BR OVC010 00/M01 Q1028,LZSL,2015-02-12T07:30:00Z,48.63,19.13,0.0,-1.0,0,0,,3.11,30.35433,,,,,,,,,,BR,OVC,1000,,,,,,,MVFR,,,,,,,,,,,,METAR,313.0
LZPP 120730Z 04001KT 2000 BR FEW008 OVC018 M00/M01 Q1029,LZPP,2015-02-12T07:30:00Z,48.62,17.83,0.0,-1.0,40,1,,1.24,30.383858,,,,,,,,,,BR,FEW,800,OVC,1800,,,,,IFR,,,,,,,,,,,,METAR,161.0
NWWW 120730Z AUTO 12011KT 9999 FEW029/// SCT043/// BKN054/// ///TCU 25/23 Q1010,NWWW,2015-02-12T07:30:00Z,-22.02,166.22,25.0,23.0,120,11,,6.21,29.822834,,,TRUE,,,,,,,,,,,,,,,,,,,,,,,,,,,,METAR,16.0
HSSS 120730Z 35014KT 6000M SA Q1018,HSSS,2015-02-12T07:30:00Z,15.58,32.53,,,350,14,,3.73,30.059055,,,,,,,,,,SA,,,,,,,,,,,,,,,,,,,,,METAR,380.0
YCOM 120730Z AUTO 08010KT //// // OVC014 16/13 Q1026,YCOM,2015-02-12T07:30:00Z,-36.3,148.97,16.0,13.0,80,10,,,30.295275,,,TRUE,,,,,,,,OVC,1400,,,,,,,,,,,,,,,,,,,SPECI,941.0
CWFD 120730Z AUTO 36024G31KT 2 3/4SM FEW046 FEW056 FEW072 M30/ A2940 RMK VSBY VRBL 1.4V5.0,CWFD,2015-02-12T07:30:00Z,66.57,-61.58,-30.0,,360,24,31,2.75,29.40059,,,TRUE,,,,,,,,FEW,4600,FEW,5600,FEW,7200,,,IFR,,,,,,,,,,,,SPECI,393.0
SOCA 120730Z AUTO 07002KT 9999 FEW014/// BKN023/// BKN036/// 24/24 Q1012,SOCA,2015-02-12T07:30:00Z,4.82,-52.37,24.0,24.0,70,2,,6.21,29.88189,,,TRUE,,,,,,,,,,,,,,,,,,,,,,,,,,,,METAR,9.0
UBBG 120730Z 10009KT 0800 R12/0800 DZ FG VV002 05/05 Q1017 R12/190065 NOSIG,UBBG,2015-02-12T07:30:00Z,40.73,46.32,5.0,5.0,100,9,,0.5,30.029528,,,,,,TRUE,,,,DZ FG,OVX,0,,,,,,,LIFR,,,,,,,,,,,200,SPECI,330.0
LUKK 120730Z 36011KT CAVOK M01/M12 Q1028 R08/110060 NOSIG,LUKK,2015-02-12T07:30:00Z,46.93,28.93,-1.0,-12.0,360,11,,6.21,30.35433,,,,,,TRUE,,,,,CAVOK,,,,,,,,VFR,,,,,,,,,,,,METAR,122.0
CYBN 120730Z AUTO 28010KT 260V330 9SM -SN OVC028 M06/M09 A2979,CYBN,2015-02-12T07:30:00Z,44.27,-79.92,-6.0,-9.0,280,10,,9.0,29.790354,,,TRUE,,,,,,,-SN,OVC,2800,,,,,,,MVFR,,,,,,,,,,,,SPECI,223.0
LDRI 120730Z 06006KT 030V120 CAVOK 04/M04 Q1026,LDRI,2015-02-12T07:30:00Z,45.22,14.57,4.0,-4.0,60,6,,6.21,30.295275,,,,,,,,,,,CAVOK,,,,,,,,VFR,,,,,,,,,,,,METAR,85.0
LDZD 120730Z 07006KT 010V120 9999 FEW040 07/M02 Q1025 NOSIG,LDZD,2015-02-12T07:30:00Z,44.1,15.37,7.0,-2.0,70,6,,6.21,30.265747,,,,,,TRUE,,,,,FEW,4000,,,,,,,VFR,,,,,,,,,,,,METAR,84.0
LDZA 120730Z 27002KT 2500 BR BKN048 00/M00 Q1028 NOSIG,LDZA,2015-02-12T07:30:00Z,45.72,16.07,0.0,0.0,270,2,,1.55,30.35433,,,,,,TRUE,,,,BR,BKN,4800,,,,,,,IFR,,,,,,,,,,,,METAR,107.0
LDDU 120730Z 02015KT 340V040 CAVOK 06/M08 Q1024 NOSIG,LDDU,2015-02-12T07:30:00Z,42.57,18.27,6.0,-8.0,20,15,,6.21,30.236221,,,,,,TRUE,,,,,CAVOK,,,,,,,,VFR,,,,,,,,,,,,METAR,165.0
LDPL 120730Z 06008KT 9999 SCT030 05/01 Q1025 NOSIG,LDPL,2015-02-12T07:30:00Z,44.88,13.92,5.0,1.0,60,8,,6.21,30.265747,,,,,,TRUE,,,,,SCT,3000,,,,,,,VFR,,,,,,,,,,,,METAR,63.0
LDSP 120730Z 05004KT 360V110 CAVOK 09/M03 Q1025 NOSIG,LDSP,2015-02-12T07:30:00Z,43.52,16.3,9.0,-3.0,50,4,,6.21,30.265747,,,,,,TRUE,,,,,CAVOK,,,,,,,,VFR,,,,,,,,,,,,METAR,21.0
CYZE 120730Z AUTO 01020G25KT 1SM -SN OVC022 M16/M18 A2993 RMK ICG PRESRR SLP148,CYZE,2015-02-12T07:30:00Z,45.87,-82.57,-16.0,-18.0,10,20,25,1.0,29.929134,1014.8,,TRUE,,,,,,,-SN,OVC,2200,,,,,,,IFR,,,,,,,,,,,,SPECI,193.0
NTAA 120730Z 07008KT 040V100 9999 VCSH FEW010CB SCT016 BKN100 27/22 Q1012 TEMPO 01016G26KT 2000 TSRA BKN020CB,NTAA,2015-02-12T07:30:00Z,-17.55,-149.62,27.0,22.0,70,8,,6.21,29.88189,,,,,,,,,,VCSH,FEW,1000,SCT,1600,BKN,10000,,,VFR,,,,,,,,,,,,METAR,2.0
GOOY 120730Z 33004KT 300V010 9000 NSC 17/16 Q1014 NOSIG,GOOY,2015-02-12T07:30:00Z,14.72,-17.5,17.0,16.0,330,4,,5.59,29.940945,,,,,,TRUE,,,,,,,,,,,,,,,,,,,,,,,,,METAR,24.0
ORBI 120730Z 35012KT 9000 NSC 15/03 Q1016,ORBI,2015-02-12T07:30:00Z,33.27,44.23,15.0,3.0,350,12,,5.59,30.0,,,,,,,,,,,,,,,,,,,,,,,,,,,,,,,SPECI,35.0
UAAH 120730Z 26007MPS 0200 R23/0200N FG VV002 02/02 Q1007 R23/790228 NOSIG RMK QBB060 QFE717/0956,UAAH,2015-02-12T07:30:00Z,46.9,75.0,2.0,2.0,260,14,,0.12,29.734253,,,,,,TRUE,,,,FG,OVX,0,,,,,,,LIFR,,,,,,,,,,,200,METAR,441.0
UAAA 120730Z 06003MPS 9999 FEW050 SCT100 BKN200 10/01 Q1012 R88/1///60 NOSIG,UAAA,2015-02-12T07:30:00Z,43.35,77.03,10.0,1.0,60,6,,6.21,29.88189,,,,,,TRUE,,,,,FEW,5000,SCT,10000,BKN,20000,,,VFR,,,,,,,,,,,,METAR,847.0
UDYZ 120730Z 00000MPS 3500 BR FEW023 BKN036 05/05 Q1013 R09/190065 NOSIG,UDYZ,2015-02-12T07:30:00Z,40.15,44.4,5.0,5.0,0,0,,2.17,29.911417,,,,,,TRUE,,,,BR,FEW,2300,BKN,3600,,,,,IFR,,,,,,,,,,,,METAR,865.0
DAUH 120730Z 05008KT CAVOK 09/M03 Q1016,DAUH,2015-02-12T07:30:00Z,31.67,6.15,9.0,-3.0,50,8,,6.21,30.0,,,,,,,,,,,CAVOK,,,,,,,,VFR,,,,,,,,,,,,SPECI,142.0
DAOO 120730Z 18005KT 9999 FEW020 SCT100 BKN233 08/07 Q1017,DAOO,2015-02-12T07:30:00Z,35.62,-0.6,8.0,7.0,180,5,,6.21,30.029528,,,,,,,,,,,FEW,2000,SCT,10000,BKN,23300,,,VFR,,,,,,,,,,,,SPECI,90.0
DAON 120730Z 00000KT 9000 FEW010 SCT233 06/05 Q1018,DAON,2015-02-12T07:30:00Z,35.02,-1.47,6.0,5.0,0,0,,5.59,30.059055,,,,,,,,,,,FEW,1000,SCT,23300,,,,,VFR,,,,,,,,,,,,SPECI,247.0
DABS 120730Z 00000KT 9999 FEW040 03/M01 Q1020,DABS,2015-02-12T07:30:00Z,35.43,8.12,3.0,-1.0,0,0,,6.21,30.11811,,,,,,,,,,,FEW,4000,,,,,,,VFR,,,,,,,,,,,,SPECI,813.0
DABC 120730Z 00000KT CAVOK 04/M01 Q1020,DABC,2015-02-12T07:30:00Z,36.27,6.62,4.0,-1.0,0,0,,6.21,30.11811,,,,,,,,,,,CAVOK,,,,,,,,VFR,,,,,,,,,,,,SPECI,694.0
DABB 120730Z VRB02KT CAVOK 07/06 Q1018,DABB,2015-02-12T07:30:00Z,36.82,7.82,7.0,6.0,0,2,,6.21,30.059055,,,,,,,,,,,CAVOK,,,,,,,,VFR,,,,,,,,,,,,SPECI,4.0
DAAG 120730Z 00000KT 7000 NSC 03/02 Q1018,DAAG,2015-02-12T07:30:00Z,36.72,3.22,3.0,2.0,0,0,,4.35,30.059055,,,,,,,,,,,,,,,,,,,,,,,,,,,,,,,METAR,25.0
LEVT 120730Z VRB01KT 4000 BR FEW070 M03/M03 Q1020,LEVT,2015-02-12T07:30:00Z,42.87,-2.72,-3.0,-3.0,0,1,,2.49,30.11811,,,,,,,,,,BR,FEW,7000,,,,,,,IFR,,,,,,,,,,,,METAR,509.0
LEVX 120730Z 22005KT 0800 R20/P2000 R02/P2000 DZ BCFG OVC020 06/06 Q1018 TEMPO 0300 FG BKN005,LEVX,2015-02-12T07:30:00Z,42.22,-8.62,6.0,6.0,220,5,,0.5,30.059055,,,,,,,,,,BCFG DZ,OVC,2000,,,,,,,LIFR,,,,,,,,,,,,METAR,256.0
RJTT 120730Z 08006KT 9999 FEW040 10/03 Q1001 BECMG TL0830 20010KT RMK 1CU040 A2956,RJTT,2015-02-12T07:30:00Z,35.53,139.77,10.0,3.0,80,6,,6.21,29.557087,,,,,,,,,,,FEW,4000,,,,,,,VFR,,,1.0,,,,,,,,,METAR,8.0
RJFF 120730Z 28015G27KT 9999 FEW020 09/M06 Q1010 RMK 1CU020 A2984,RJFF,2015-02-12T07:30:00Z,33.57,130.43,9.0,-6.0,280,15,27,6.21,29.822834,,,,,,,,,,,FEW,2000,,,,,,,VFR,,,,,,,,,,,,METAR,12.0
RJCC 120730Z 18007KT 9999 FEW020 00/M06 Q1004 RMK 1ST020 A2965,RJCC,2015-02-12T07:30:00Z,42.77,141.67,0.0,-6.0,180,7,,6.21,29.64567,,,,,,,,,,,FEW,2000,,,,,,,VFR,,,,,,,,,,,,SPECI,30.0
RJAA 120730Z 26004KT 210V310 9999 FEW030 12/M03 Q1001 BECMG TL0800 08005KT,RJAA,2015-02-12T07:30:00Z,35.77,140.37,12.0,-3.0,260,4,,6.21,29.557087,,,,,,,,,,,FEW,3000,,,,,,,VFR,,,,,,,,,,,,METAR,44.0
EIKN 120730Z 15005KT 110V180 9999 OVC048 03/02 Q1015 NOSIG,EIKN,2015-02-12T07:30:00Z,53.92,-8.82,3.0,2.0,150,5,,6.21,29.970472,,,,,,TRUE,,,,,OVC,4800,,,,,,,VFR,,,,,,,,,,,,METAR,64.0
EICK 120730Z 14006KT 9999 FEW014 SCT040 BKN050 05/04 Q1017 NOSIG,EICK,2015-02-12T07:30:00Z,51.85,-8.47,5.0,4.0,140,6,,6.21,30.029528,,,,,,TRUE,,,,,FEW,1400,SCT,4000,BKN,5000,,,VFR,,,,,,,,,,,,METAR,162.0
EINN 120730Z 10010KT CAVOK 05/03 Q1017 NOSIG,EINN,2015-02-12T07:30:00Z,52.7,-8.92,5.0,3.0,100,10,,6.21,30.029528,,,,,,TRUE,,,,,CAVOK,,,,,,,,VFR,,,,,,,,,,,,METAR,20.0
EIDW 120730Z VRB03KT 9999 FEW015 BKN040 04/01 Q1018 NOSIG,EIDW,2015-02-12T07:30:00Z,53.42,-6.25,4.0,1.0,0,3,,6.21,30.059055,,,,,,TRUE,,,,,FEW,1500,BKN,4000,,,,,VFR,,,,,,,,,,,,METAR,85.0
LQSA 120730Z VRB01KT 9999 FEW040 00/M03 Q1026 NOSIG,LQSA,2015-02-12T07:30:00Z,43.82,18.32,0.0,-3.0,0,1,,6.21,30.295275,,,,,,TRUE,,,,,FEW,4000,,,,,,,VFR,,,,,,,,,,,,METAR,511.0
LQBK 120730Z 11002KT 1500 -DZ BR BKN005 OVC015 02/01 Q1028 NOSIG,LQBK,2015-02-12T07:30:00Z,44.93,17.3,2.0,1.0,110,2,,0.93,30.35433,,,,,,TRUE,,,,-DZ BR,BKN,500,OVC,1500,,,,,LIFR,,,,,,,,,,,,METAR,122.0
EPZG 120730Z VRB01KT 8000 NSC M00/M01 Q1025,EPZG,2015-02-12T07:30:00Z,52.13,15.8,0.0,-1.0,0,1,,4.97,30.265747,,,,,,,,,,,,,,,,,,,,,,,,,,,,,,,METAR,59.0
EPWR 120730Z 17003KT 140V210 CAVOK 02/M01 Q1024,EPWR,2015-02-12T07:30:00Z,51.1,16.87,2.0,-1.0,170,3,,6.21,30.236221,,,,,,,,,,,CAVOK,,,,,,,,VFR,,,,,,,,,,,,METAR,121.0
EPSC 120730Z 18007KT 9999 BKN009 02/M00 Q1024,EPSC,2015-02-12T07:30:00Z,53.58,14.9,2.0,0.0,180,7,,6.21,30.236221,,,,,,,,,,,BKN,900,,,,,,,IFR,,,,,,,,,,,,METAR,3.0
EPMO 120730Z 20006KT 9999 BKN015 02/M01 Q1026,EPMO,2015-02-12T07:30:00Z,52.45,20.65,2.0,-1.0,200,6,,6.21,30.295275,,,,,,,,,,,BKN,1500,,,,,,,MVFR,,,,,,,,,,,,METAR,104.0
EPLB 120730Z 20007KT 7000 BKN007 OVC009 01/M00 Q1028,EPLB,2015-02-12T07:30:00Z,51.23,22.72,1.0,0.0,200,7,,4.35,30.35433,,,,,,,,,,,BKN,700,OVC,900,,,,,IFR,,,,,,,,,,,,METAR,206.0
EPKT 120730Z 14006KT 6000 SCT017 01/M01 Q1025,EPKT,2015-02-12T07:30:00Z,50.47,19.08,1.0,-1.0,140,6,,3.73,30.265747,,,,,,,,,,,SCT,1700,,,,,,,MVFR,,,,,,,,,,,,METAR,284.0
EPBY 120730Z VRB03KT 9999 OVC014 02/M00 Q1025,EPBY,2015-02-12T07:30:00Z,53.1,18.0,2.0,0.0,0,3,,6.21,30.265747,,,,,,,,,,,OVC,1400,,,,,,,MVFR,,,,,,,,,,,,METAR,71.0
WIII 120730Z 32008KT 8000 SCT020 28/24 Q1008 TEMPO FM0745 6000 -RA,WIII,2015-02-12T07:30:00Z,-6.13,106.67,28.0,24.0,320,8,,4.97,29.763779,,,,,,,,,,,SCT,2000,,,,,,,MVFR,,,,,,,,,,,,METAR,8.0
EPWA 120730Z 21007KT 180V250 9999 BKN012 01/M01 Q1027 NOSIG,EPWA,2015-02-12T07:30:00Z,52.17,20.97,1.0,-1.0,210,7,,6.21,30.324802,,,,,,TRUE,,,,,BKN,1200,,,,,,,MVFR,,,,,,,,,,,,METAR,107.0
EPRZ 120730Z 22007KT 9999 SCT009 OVC011 01/M01 Q1028,EPRZ,2015-02-12T07:30:00Z,50.1,22.05,1.0,-1.0,220,7,,6.21,30.35433,,,,,,,,,,,SCT,900,OVC,1100,,,,,MVFR,,,,,,,,,,,,METAR,202.0
EPPO 120730Z 17006KT 140V210 9999 BKN015 03/M01 Q1025,EPPO,2015-02-12T07:30:00Z,52.42,16.82,3.0,-1.0,170,6,,6.21,30.265747,,,,,,,,,,,BKN,1500,,,,,,,MVFR,,,,,,,,,,,,METAR,92.0
EPLL 120730Z 20004KT 7000 OVC015 01/M01 Q1026,EPLL,2015-02-12T07:30:00Z,51.72,19.4,1.0,-1.0,200,4,,4.35,30.295275,,,,,,,,,,,OVC,1500,,,,,,,MVFR,,,,,,,,,,,,METAR,184.0
EPKK 120730Z 04003KT 3500 BR NSC 01/00 Q1027,EPKK,2015-02-12T07:30:00Z,50.07,19.8,1.0,0.0,40,3,,2.17,30.324802,,,,,,,,,,BR,,,,,,,,,,,,,,,,,,,,,SPECI,237.0
EPGD 120730Z 24007KT 210V270 8000 OVC006 M00/M01 Q1023,EPGD,2015-02-12T07:30:00Z,54.37,18.47,0.0,-1.0,240,7,,4.97,30.206694,,,,,,,,,,,OVC,600,,,,,,,IFR,,,,,,,,,,,,METAR,138.0
LKTB 120730Z 12005KT 7000 OVC015 01/M01 Q1027 R28/21//95 NOSIG,LKTB,2015-02-12T07:30:00Z,49.13,16.68,1.0,-1.0,120,5,,4.35,30.324802,,,,,,TRUE,,,,,OVC,1500,,,,,,,MVFR,,,,,,,,,,,,SPECI,246.0
LKPR 120730Z 18006KT 8000 OVC010 M01/M03 Q1025 NOSIG,LKPR,2015-02-12T07:30:00Z,50.1,14.27,-1.0,-3.0,180,6,,4.97,30.265747,,,,,,TRUE,,,,,OVC,1000,,,,,,,MVFR,,,,,,,,,,,,METAR,365.0
LKMT 120730Z 23014KT 9000 BKN016 01/M01 Q1026 NOSIG,LKMT,2015-02-12T07:30:00Z,49.67,18.12,1.0,-1.0,230,14,,5.59,30.295275,,,,,,TRUE,,,,,BKN,1600,,,,,,,MVFR,,,,,,,,,,,,METAR,256.0
BIKF 120730Z 33007KT 9999 FEW040 BKN150 M05/M09 Q1011 R29/720165,BIKF,2015-02-12T07:30:00Z,63.98,-22.6,-5.0,-9.0,330,7,,6.21,29.852362,,,,,,,,,,,FEW,4000,BKN,15000,,,,,VFR,,,,,,,,,,,,METAR,54.0
LYVR 120730Z VRB03KT CAVOK M02/M05 Q1030 NOSIG,LYVR,2015-02-12T07:30:00Z,45.13,21.32,-2.0,-5.0,0,3,,6.21,30.413385,,,,,,TRUE,,,,,CAVOK,,,,,,,,VFR,,,,,,,,,,,,METAR,85.0
LYUZ 120730Z 00000KT 0500 FZFG VV002 M05/M05 Q1024 R10///////,LYUZ,2015-02-12T07:30:00Z,43.9,19.7,-5.0,-5.0,0,0,,0.31,30.236221,,,,,,,,,,FZFG,OVX,0,,,,,,,LIFR,,,,,,,,,,,200,METAR,904.0
LYTV 120730Z VRB07KT CAVOK 08/M10 Q1024 NOSIG,LYTV,2015-02-12T07:30:00Z,42.38,18.72,8.0,-10.0,0,7,,6.21,30.236221,,,,,,TRUE,,,,,CAVOK,,,,,,,,VFR,,,,,,,,,,,,METAR,5.0
LYPG 120730Z 03008KT CAVOK 06/M09 Q1025 NOSIG,LYPG,2015-02-12T07:30:00Z,42.37,19.25,6.0,-9.0,30,8,,6.21,30.265747,,,,,,TRUE,,,,,CAVOK,,,,,,,,VFR,,,,,,,,,,,,METAR,43.0
LYNI 120730Z 20003KT 150V250 CAVOK M04/M07 Q1030 NOSIG,LYNI,2015-02-12T07:30:00Z,43.32,21.88,-4.0,-7.0,200,3,,6.21,30.413385,,,,,,TRUE,,,,,CAVOK,,,,,,,,VFR,,,,,,,,,,,,METAR,202.0
LYBT 120730Z 10003KT 070V140 1500 BR NSC M02/M03 Q1030 BECMG 3000,LYBT,2015-02-12T07:30:00Z,44.93,20.25,-2.0,-3.0,100,3,,0.93,30.413385,,,,,,,,,,BR,,,,,,,,,,,,,,,,,,,,,METAR,80.0
LYBE 120730Z VRB02KT 3000 BR NSC M01/M03 Q1030 BECMG 5000,LYBE,2015-02-12T07:30:00Z,44.82,20.28,-1.0,-3.0,0,2,,1.86,30.413385,,,,,,,,,,BR,,,,,,,,,,,,,,,,,,,,,SPECI,99.0
UKDR 120730Z 03006MPS CAVOK M03/M07 Q1027 3609//65 NOSIG,UKDR,2015-02-12T07:30:00Z,48.05,33.22,-3.0,-7.0,30,12,,6.21,30.324802,,,,,,TRUE,,,,,CAVOK,,,,,,,,VFR,,,,,,,,,,,,SPECI,124.0
UKLL 120730Z 16002MPS 130V190 3600 BR OVC003 00/00 Q1028 13290060 NOSIG,UKLL,2015-02-12T07:30:00Z,49.82,23.93,0.0,0.0,160,4,,2.24,30.35433,,,,,,TRUE,,,,BR,OVC,300,,,,,,,LIFR,,,,,,,,,,,,SPECI,325.0
UKDD 120730Z 03007MPS CAVOK M04/M07 Q1026 08090070 NOSIG,UKDD,2015-02-12T07:30:00Z,48.37,35.1,-4.0,-7.0,30,14,,6.21,30.295275,,,,,,TRUE,,,,,CAVOK,,,,,,,,VFR,,,,,,,,,,,,SPECI,149.0
UKDE 120730Z 04005MPS CAVOK M01/M04 Q1026 02710370 NOSIG,UKDE,2015-02-12T07:30:00Z,47.87,35.32,-1.0,-4.0,40,10,,6.21,30.295275,,,,,,TRUE,,,,,CAVOK,,,,,,,,VFR,,,,,,,,,,,,SPECI,113.0
UKOO 120730Z 03009MPS CAVOK M01/M06 Q1026 34090060 NOSIG,UKOO,2015-02-12T07:30:00Z,46.42,30.68,-1.0,-6.0,30,17,,6.21,30.295275,,,,,,TRUE,,,,,CAVOK,,,,,,,,VFR,,,,,,,,,,,,SPECI,35.0
UKHH 120730Z 26002MPS 5000 BR NSC M07/M11 Q1028 25710560 NOSIG,UKHH,2015-02-12T07:30:00Z,49.92,36.28,-7.0,-11.0,260,4,,3.11,30.35433,,,,,,TRUE,,,,BR,,,,,,,,,,,,,,,,,,,,,SPECI,155.0
UKBB 120730Z VRB02MPS 9999 OVC005 M04/M06 Q1029 18811050 68811095 TEMPO 2000 BR,UKBB,2015-02-12T07:30:00Z,50.33,30.9,-4.0,-6.0,0,4,,6.21,30.383858,,,,,,,,,,,OVC,500,,,,,,,IFR,,,,,,,,,,,,SPECI,119.0
KMTC 120730Z AUTO 33011KT 10SM FEW019 SCT027 OVC065 M06/M09 A2991 RMK AO2 DZB0656E0725,KMTC,2015-02-12T07:30:00Z,42.62,-82.82,-6.0,-9.0,330,11,,10.0,29.911417,,,TRUE,TRUE,,,,,,,FEW,1900,SCT,2700,OVC,6500,,,VFR,,,,,,,,,,,,SPECI,177.0
LCPH 120730Z 02004KT 260V060 9999 FEW025CB FEW030TCU 14/08 Q1011,LCPH,2015-02-12T07:30:00Z,34.72,32.47,14.0,8.0,20,4,,6.21,29.852362,,,,,,,,,,,FEW,2500,FEW,3000,,,,,VFR,,,,,,,,,,,,METAR,8.0
LCLK 120730Z 33005KT 280V360 9999 FEW025TCU FEW030CB 13/06 Q1011 NOSIG,LCLK,2015-02-12T07:30:00Z,34.87,33.62,13.0,6.0,330,5,,6.21,29.852362,,,,,,TRUE,,,,,FEW,2500,FEW,3000,,,,,VFR,,,,,,,,,,,,METAR,2.0
OIFM 120730Z 22019KT 9999 FEW040 SCT100 BKN200 16/04 Q1016 A3000,OIFM,2015-02-12T07:30:00Z,32.75,51.87,16.0,4.0,220,19,,6.21,30.0,,,,,,,,,,,FEW,4000,SCT,10000,BKN,20000,,,VFR,,,,,,,,,,,,METAR,1542.0
OIAW 120730Z 15010KT 6000 SCT040 BKN100 24/16 Q1011,OIAW,2015-02-12T07:30:00Z,31.32,48.77,24.0,16.0,150,10,,3.73,29.852362,,,,,,,,,,,SCT,4000,BKN,10000,,,,,MVFR,,,,,,,,,,,,METAR,22.0
CYXS 120729Z AUTO 17009KT 9SM OVC027 01/01 A3001 RMK SLP196,CYXS,2015-02-12T07:29:00Z,53.9,-122.68,1.0,1.0,170,9,,9.0,30.008858,1019.6,,TRUE,,,,,,,,OVC,2700,,,,,,,MVFR,,,,,,,,,,,,SPECI,691.0
CYHY 120729Z 24002KT 15SM BKN040 M19/M22 A3000 RMK SC6 SLP182,CYHY,2015-02-12T07:29:00Z,60.82,-115.77,-19.0,-22.0,240,2,,15.0,30.0,1018.2,,,,,,,,,,BKN,4000,,,,,,,VFR,,,,,,,,,,,,SPECI,166.0
CYMO 120729Z AUTO 34014G21KT 6SM HZ FEW017 SCT049 M23/M27 A3024 RMK SLP241,CYMO,2015-02-12T07:29:00Z,51.28,-80.62,-23.0,-27.0,340,14,21,6.0,30.239174,1024.1,,TRUE,,,,,,,HZ,FEW,1700,SCT,4900,,,,,VFR,,,,,,,,,,,,SPECI,10.0
CYQZ 120727Z AUTO 17004KT 9SM -RA SCT003 SCT012 BKN032 OVC042 02/02 A3007 RMK SLP207,CYQZ,2015-02-12T07:27:00Z,53.02,-122.52,2.0,2.0,170,4,,9.0,30.070866,1020.7,,TRUE,,,,,,,-RA,SCT,300,SCT,1200,BKN,3200,OVC,4200,VFR,,,,,,,,,,,,SPECI,545.0
CWSA 120727Z AUTO 04034G45KT 3/4SM -FZUP BR SCT008 OVC016 02/01 A2945 RMK ICG PRESFR SLP973,CWSA,2015-02-12T07:27:00Z,43.93,-60.0,2.0,1.0,40,34,45,0.75,29.450787,997.3,,TRUE,,,,,,,BR UP,SCT,800,OVC,1600,,,,,LIFR,,,,,,,,,,,,SPECI,4.0
CYPQ 120727Z AUTO 30007G15KT 9SM OVC075 M06/M08 A2975 RMK SLP086,CYPQ,2015-02-12T07:27:00Z,44.22,-78.37,-6.0,-8.0,300,7,15,9.0,29.749016,1008.6,,TRUE,,,,,,,,OVC,7500,,,,,,,VFR,,,,,,,,,,,,SPECI,191.0
EBCV 120725Z AUTO VRB01KT 0050 FEW001/// BKN003/// M04/M04 Q1020 RED,EBCV,2015-02-12T07:25:00Z,50.57,3.82,-4.0,-4.0,0,1,,0.03,30.11811,,,TRUE,,,,,,,,,,,,,,,,,,,,,,,,,,,,METAR,63.0
EBBL 120725Z VRB01KT 1400 MIFG FEW002 M04/M06 Q1022 AMB YLO TEMPO RED,EBBL,2015-02-12T07:25:00Z,51.17,5.47,-4.0,-6.0,0,1,,0.87,30.177166,,,,,,,,,,MIFG,FEW,200,,,,,,,LIFR,,,,,,,,,,,,METAR,64.0
EBLB 120725Z AUTO VRB02KT 0250 VV002/// M03/M03 Q1020 RED,EBLB,2015-02-12T07:25:00Z,50.47,6.17,-3.0,-3.0,0,2,,0.16,30.11811,,,TRUE,,,,,,,,,,,,,,,,,,,,,,,,,,,,SPECI,570.0
EHSC 120725Z AUTO 21009G11KT 7000 ///////// 04/01 Q1021 W06/H3,EHSC,2015-02-12T07:25:00Z,51.93,3.67,4.0,1.0,210,9,11,4.35,30.147638,,,TRUE,,,,,,,,,,,,,,,,,,,,,,,,,,,,METAR,50.0
EHJR 120725Z AUTO 16007G09KT //// ///////// 05/02 Q1021 W06/H4,EHJR,2015-02-12T07:25:00Z,53.22,3.22,5.0,2.0,160,7,9,,30.147638,,,TRUE,,,,,,,,,,,,,,,,,,,,,,,,,,,,METAR,50.0
EHSA 120725Z AUTO VRB03G04KT //// ///////// 04/// Q1021 W06/H3,EHSA,2015-02-12T07:25:00Z,52.0,3.28,6.0,,0,3,4,,30.147638,,,TRUE,,,,,,,,,,,,,,,,,,,,,,,,,,,,METAR,50.0
CWCL 120725Z AUTO 18004KT 1/8SM 02/M00 A3009,CWCL,2015-02-12T07:25:00Z,51.13,-121.5,2.0,0.0,180,4,,0.13,30.088583,,,TRUE,,,,,,,,,,,,,,,,,,,,,,,,,,,,SPECI,1057.0
OPLA 120725Z 29009KT 6000 FEW100 21/06 Q1017,OPLA,2015-02-12T07:25:00Z,31.52,74.4,21.0,6.0,290,9,,3.73,30.029528,,,,,,,,,,,FEW,10000,,,,,,,MVFR,,,,,,,,,,,,METAR,217.0
EHFS 120725Z AUTO 22002KT 9000 OVC018/// 04/00 Q1021,EHFS,2015-02-12T07:25:00Z,51.45,3.6,4.0,0.0,220,2,,5.59,30.147638,,,TRUE,,,,,,,,,,,,,,,,,,,,,,,,,,,,METAR,32.0
EHQE 120725Z AUTO 17006KT 140V200 6000 BKN008/// BKN009/// OVC011/// 04/01 Q////,EHQE,2015-02-12T07:25:00Z,52.92,4.15,4.0,1.0,170,6,,3.73,,,,TRUE,,,,,,,,,,,,,,,,,,,,,,,,,,,,METAR,50.0
EHPG 120725Z AUTO 14008KT 080V180 6000 OVC011/// 04/01 Q1020,EHPG,2015-02-12T07:25:00Z,52.37,3.35,4.0,1.0,140,8,,3.73,30.11811,,,TRUE,,,,,,,,,,,,,,,,,,,,,,,,,,,,METAR,50.0
EHMG 120725Z AUTO 16006KT 130V190 4900 BR BKN008/// OVC009/// 04/01 Q1021,EHMG,2015-02-12T07:25:00Z,53.62,4.97,4.0,1.0,160,6,,3.04,30.147638,,,TRUE,,,,,,,BR,,,,,,,,,,,,,,,,,,,,,METAR,50.0
EHMA 120725Z AUTO 18006KT 150V220 4600 BR OVC006/// 03/01 Q1022,EHMA,2015-02-12T07:25:00Z,53.5,5.95,3.0,1.0,180,6,,2.86,30.177166,,,TRUE,,,,,,,BR,,,,,,,,,,,,,,,,,,,,,METAR,50.0
EHKV 120725Z AUTO VRB02KT 7000 OVC011/// 05/02 Q1021,EHKV,2015-02-12T07:25:00Z,53.27,3.63,5.0,2.0,0,2,,4.35,30.147638,,,TRUE,,,,,,,,,,,,,,,,,,,,,,,,,,,,METAR,50.0
EHJA 120725Z AUTO 17005KT 140V200 9999 OVC017/// 05/01 Q1020,EHJA,2015-02-12T07:25:00Z,53.82,2.95,5.0,1.0,170,5,,6.21,30.11811,,,TRUE,,,,,,,,,,,,,,,,,,,,,,,,,,,,METAR,50.0
EHFZ 120725Z AUTO 21007KT 9000 OVC015/// 05/01 Q1020,EHFZ,2015-02-12T07:25:00Z,54.12,4.02,5.0,1.0,210,7,,5.59,30.11811,,,TRUE,,,,,,,,,,,,,,,,,,,,,,,,,,,,METAR,50.0
EHFD 120725Z AUTO 23010KT 200V270 9999 OVC015/// 05/01 Q1020,EHFD,2015-02-12T07:25:00Z,54.85,4.7,5.0,1.0,230,10,,6.21,30.11811,,,TRUE,,,,,,,,,,,,,,,,,,,,,,,,,,,,METAR,50.0
EHDV 120725Z AUTO 25007KT 9999 OVC018/// 05/01 Q1020,EHDV,2015-02-12T07:25:00Z,54.32,2.93,5.0,1.0,250,7,,6.21,30.11811,,,TRUE,,,,,,,,,,,,,,,,,,,,,,,,,,,,METAR,50.0
EHAK 120725Z AUTO 29010KT 9999 BKN016/// OVC020/// 05/01 Q1020,EHAK,2015-02-12T07:25:00Z,55.42,3.82,5.0,1.0,290,10,,6.21,30.11811,,,TRUE,,,,,,,,,,,,,,,,,,,,,,,,,,,,METAR,50.0
OPKC 120725Z 00000KT 6000 SCT200 30/10 Q1017 NOSIG,OPKC,2015-02-12T07:25:00Z,24.88,67.17,30.0,10.0,0,0,,3.73,30.029528,,,,,,TRUE,,,,,SCT,20000,,,,,,,MVFR,,,,,,,,,,,,METAR,22.0
RJSH 120725Z 35005KT 310V040 1500 R25/P1800N -SN BR FEW003 BKN007 OVC015 02/M00 Q1004 RMK 2ST003 5ST007 8SC015 A2966,RJSH,2015-02-12T07:25:00Z,40.53,141.47,2.0,0.0,350,5,,0.93,29.64567,,,,,,,,,,-SN BR,FEW,300,BKN,700,OVC,1500,,,LIFR,,,,,,,,,,,,METAR,49.0
EBFN 120725Z VRB02KT 3900 BR BKN023 02/01 Q1021 GRN GRN BECMG WHT,EBFN,2015-02-12T07:25:00Z,51.07,2.63,2.0,1.0,0,2,,2.42,30.147638,,,,,,,,,,BR,BKN,2300,,,,,,,IFR,,,,,,,,,,,,METAR,9.0
YMER 120724Z AUTO 13008KT 9999 // SCT017 SCT022 SCT028 20/17 Q1025,YMER,2015-02-12T07:24:00Z,-36.92,149.9,20.0,17.0,130,8,,6.21,30.265747,,,TRUE,,,,,,,,SCT,1700,SCT,2200,SCT,2800,,,VFR,,,,,,,,,,,,SPECI,2.0
KMUI 120724Z AUTO 03002KT 10SM OVC030 M02/M08 A2984 RMK AO2,KMUI,2015-02-12T07:24:00Z,40.42,-76.57,-2.0,-8.0,30,2,,10.0,29.840551,,,TRUE,TRUE,,,,,,,OVC,3000,,,,,,,MVFR,,,,,,,,,,,,SPECI,149.0
CYZX 120724Z 06003KT 4SM -SHSN OVC015 M12/M15 A2984 RMK SC8 WNDY,CYZX,2015-02-12T07:24:00Z,44.98,-64.92,-12.0,-15.0,60,3,,4.0,29.840551,,,,,,,,,,-SHSN,OVC,1500,,,,,,,MVFR,,,,,,,,,,,,METAR,28.0
FOOL 120723Z 17003KT 130V220 8000 -RA BKN009 FEW020CB 28/26 Q1012 NOSIG,FOOL,2015-02-12T07:23:00Z,0.45,9.42,28.0,26.0,170,3,,4.97,29.88189,,,,,,TRUE,,,,-RA,BKN,900,FEW,2000,,,,,IFR,,,,,,,,,,,,METAR,15.0
LTBF 120723Z 36009KT 4000 -SHSN SCT010 BKN035 OVC090 01/M01 Q1021 BECMG 9999 RMK RWY18 35012KT,LTBF,2015-02-12T07:23:00Z,39.62,27.92,1.0,-1.0,360,9,,2.49,30.147638,,,,,,,,,,-SHSN,SCT,1000,BKN,3500,OVC,9000,,,IFR,,,,,,,,,,,,SPECI,102.0
UTO8 M M M 127/-27/-32/2520/M/ PK WND 2523 0658Z 8004 07MM,UTO8,2015-02-12T07:23:00Z,,,,,,,,4.97,,,,,,,,,,,,,,,,,,,,,,,,,,,,,,,,METAR,
CYWE 120722Z AUTO 08006KT 9SM OVC120 M28/M32 A3002 RMK SLP229,CYWE,2015-02-12T07:22:00Z,64.18,-114.08,-28.0,-32.0,80,6,,9.0,30.02067,1022.9,,TRUE,,,,,,,,OVC,12000,,,,,,,VFR,,,,,,,,,,,,SPECI,371.0
LTAH 120722Z 32011KT 9999 SCT035 OVC090 M02/M04 Q1014 RESN RMK RWY13 32010KT,LTAH,2015-02-12T07:22:00Z,38.75,30.52,-2.0,-4.0,320,11,,6.21,29.940945,,,,,,,,,,,SCT,3500,OVC,9000,,,,,VFR,,,,,,,,,,,,METAR,1034.0
KBDH 120721Z AUTO 33008KT 10SM CLR M18/M23 A3061 RMK AO2,KBDH,2015-02-12T07:21:00Z,45.12,-95.13,-18.0,-23.0,330,8,,10.0,30.611221,,,TRUE,TRUE,,,,,,,CLR,,,,,,,,VFR,,,,,,,,,,,,SPECI,247.0
SBRJ 120720Z 34006KT CAVOK 27/23 Q1012,SBRJ,2015-02-12T07:20:00Z,-22.88,-43.17,27.0,23.0,340,6,,6.21,29.88189,,,,,,,,,,,CAVOK,,,,,,,,VFR,,,,,,,,,,,,METAR,3.0
EGPU 120720Z AUTO 19013KT 9999 BKN012/// 07/06 Q1015,EGPU,2015-02-12T07:20:00Z,56.5,-6.87,7.0,6.0,190,13,,6.21,29.970472,,,TRUE,,,,,,,,,,,,,,,,,,,,,,,,,,,,METAR,12.0
ETSH 120720Z 16006KT 0400 R09/4700U FZFG BKN001 M01/M01 Q1024 RED RED BECMG WHT,ETSH,2015-02-12T07:20:00Z,51.77,13.17,-1.0,-1.0,160,6,,0.25,30.236221,,,,,,,,,,FZFG,BKN,100,,,,,,,LIFR,,,,,,,,,,,,METAR,79.0
ETNW 120720Z 02001KT 2700 BR BKN002 M03/M03 Q1023 AMB RED TEMPO YLO,ETNW,2015-02-12T07:20:00Z,52.45,9.42,-3.0,-3.0,20,1,,1.68,30.206694,,,,,,,,,,BR,BKN,200,,,,,,,LIFR,,,,,,,,,,,,METAR,70.0
ETNT 120720Z 19003KT 6000 OVC008 02/M00 Q1022 GRN GRN TEMPO YLO,ETNT,2015-02-12T07:20:00Z,53.53,7.67,2.0,0.0,190,3,,3.73,30.177166,,,,,,,,,,,OVC,800,,,,,,,IFR,,,,,,,,,,,,METAR,12.0
ETNS 120720Z 26006KT 6000 OVC011 02/M00 Q1022 GRN GRN,ETNS,2015-02-12T07:20:00Z,54.47,9.52,2.0,0.0,260,6,,3.73,30.177166,,,,,,,,,,,OVC,1100,,,,,,,MVFR,,,,,,,,,,,,METAR,25.0
ETNL 120720Z 21005KT 9999 OVC007 01/M01 Q1023 GRN GRN TEMPO YLO,ETNL,2015-02-12T07:20:00Z,53.92,12.27,1.0,-1.0,210,5,,6.21,30.206694,,,,,,,,,,,OVC,700,,,,,,,IFR,,,,,,,,,,,,METAR,40.0
ETNH 120720Z 22002KT 3800 BR OVC011 02/00 Q1022 GRN GRN TEMPO YLO,ETNH,2015-02-12T07:20:00Z,54.32,9.55,2.0,0.0,220,2,,2.36,30.177166,,,,,,,,,,BR,OVC,1100,,,,,,,IFR,,,,,,,,,,,,METAR,17.0
ETMN 120720Z 18004KT 3500 BR OVC008 02/M00 Q1022 YLO GRN TEMPO YLO,ETMN,2015-02-12T07:20:00Z,53.77,8.67,2.0,0.0,180,4,,2.17,30.177166,,,,,,,,,,BR,OVC,800,,,,,,,IFR,,,,,,,,,,,,METAR,31.0
ETML 120720Z AUTO 18003KT //// // ////// 01/M00 Q1023 ///,ETML,2015-02-12T07:20:00Z,,,1.0,0.0,180,3,,,30.206694,,,TRUE,,,,,,,,,,,,,,,,,,,,,,,,,,,,METAR,
ETHS 120720Z 18005KT 0800 R27/1600U FZFG VV001 M01/M01 Q1023 RED YLO TEMPO RED,ETHS,2015-02-12T07:20:00Z,52.92,10.18,-1.0,-1.0,180,5,,0.5,30.206694,,,,,,,,,,FZFG,OVX,0,,,,,,,LIFR,,,,,,,,,,,100,METAR,88.0
ETHE 120720Z 14001KT 3300 BR FEW003 BKN004 00/M00 Q1022 YLO GRN TEMPO YLO,ETHE,2015-02-12T07:20:00Z,52.28,7.37,0.0,0.0,140,1,,2.05,30.177166,,,,,,,,,,BR,FEW,300,BKN,400,,,,,LIFR,,,,,,,,,,,,METAR,49.0
ETHC 120720Z 15004KT 1500 R26/4600U BR BKN003 M00/M01 Q1023 AMB YLO TEMPO AMB,ETHC,2015-02-12T07:20:00Z,52.6,10.02,0.0,-1.0,150,4,,0.93,30.206694,,,,,,,,,,BR,BKN,300,,,,,,,LIFR,,,,,,,,,,,,METAR,52.0
ETHB 120720Z 16004KT 2000 BR BKN003 M00/M01 Q1023 YLO GRN TEMPO AMB,ETHB,2015-02-12T07:20:00Z,52.27,9.07,0.0,-1.0,160,4,,1.24,30.206694,,,,,,,,,,BR,BKN,300,,,,,,,LIFR,,,,,,,,,,,,METAR,78.0
ETGG 120720Z VRB03KT 2000 BR OVC009 02/M00 Q1022 YLO,ETGG,2015-02-12T07:20:00Z,54.83,9.5,2.0,0.0,0,3,,1.24,30.177166,,,,,,,,,,BR,OVC,900,,,,,,,IFR,,,,,,,,,,,,METAR,33.0
ETSL 120720Z 19003KT 0200 FZFG VV000 M04/M05 Q1023 RED,ETSL,2015-02-12T07:20:00Z,48.17,10.87,-4.0,-5.0,190,3,,0.12,30.206694,,,,,,,,,,FZFG,OVX,0,,,,,,,LIFR,,,,,,,,,,,0,METAR,562.0
ETSI 120720Z 15004KT 2200 -FZDZ BR OVC003 M02/M02 Q1024 YLO YLO TEMPO RED,ETSI,2015-02-12T07:20:00Z,48.72,11.52,-2.0,-2.0,150,4,,1.37,30.236221,,,,,,,,,,-FZDZ BR,OVC,300,,,,,,,LIFR,,,,,,,,,,,,METAR,370.0
ETSB 120720Z 12004KT 0150 R21/0250N FZFG VV000 M01/M01 Q1021 RED RED,ETSB,2015-02-12T07:20:00Z,50.17,7.07,-1.0,-1.0,120,4,,0.09,30.147638,,,,,,,,,,FZFG,OVX,0,,,,,,,LIFR,,,,,,,,,,,0,METAR,486.0
ETSA 120720Z VRB02KT 0150 R25/0250N FZFG VV000 M05/M05 Q1022 RED RED,ETSA,2015-02-12T07:20:00Z,48.07,10.9,-5.0,-5.0,0,2,,0.09,30.177166,,,,,,,,,,FZFG,OVX,0,,,,,,,LIFR,,,,,,,,,,,0,METAR,628.0
ETNN 120720Z 10002KT 5000 BR FEW010 M01/M01 Q1022 WHT WHT TEMPO GRN,ETNN,2015-02-12T07:20:00Z,50.82,6.67,-1.0,-1.0,100,2,,3.11,30.177166,,,,,,,,,,BR,FEW,1000,,,,,,,MVFR,,,,,,,,,,,,METAR,135.0
ETHN 120720Z 14008KT 0400 FZFG VV000 M02/M03 Q1022 RED RED,ETHN,2015-02-12T07:20:00Z,49.38,9.97,-2.0,-3.0,140,8,,0.25,30.177166,,,,,,,,,,FZFG,OVX,0,,,,,,,LIFR,,,,,,,,,,,0,METAR,473.0
ETHA 120720Z 22002KT 1800 VCFG FEW120 M10/M11 Q1021 BLACKYLO YLO BECMG BLU+,ETHA,2015-02-12T07:20:00Z,47.82,10.87,-10.0,-11.0,220,2,,1.12,30.147638,,,,,,,,,,VCFG,FEW,12000,,,,,,,IFR,,,,,,,,,,,,METAR,760.0
ETWM 120720Z 19004KT 3400 BR OVC006 02/00 Q1022 YLO,ETWM,2015-02-12T07:20:00Z,52.72,7.33,2.0,0.0,190,4,,2.11,30.177166,,,,,,,,,,BR,OVC,600,,,,,,,IFR,,,,,,,,,,,,METAR,21.0
LGRX 120720Z 00000KT 9999 FEW020 04/M00 Q1023,LGRX,2015-02-12T07:20:00Z,38.17,21.42,4.0,0.0,0,0,,6.21,30.206694,,,,,,,,,,,FEW,2000,,,,,,,VFR,,,,,,,,,,,,METAR,15.0
EKVD 120720Z 23006KT 6000 OVC011 02/00 Q1022,EKVD,2015-02-12T07:20:00Z,55.42,9.32,2.0,0.0,230,6,,3.73,30.177166,,,,,,,,,,,OVC,1100,,,,,,,MVFR,,,,,,,,,,,,METAR,45.0
LTCJ 120720Z 36004KT 320V030 1900 DU SCT023 OVC080 07/03 Q1013,LTCJ,2015-02-12T07:20:00Z,37.93,41.12,7.0,3.0,360,4,,1.18,29.911417,,,,,,,,,,DU,SCT,2300,OVC,8000,,,,,IFR,,,,,,,,,,,,METAR,540.0
LTCE 120720Z 26004KT 4000 BR SCT030 BKN080 M05/M06 Q1012 BECMG TL0800 9999 NSW,LTCE,2015-02-12T07:20:00Z,39.95,41.17,-5.0,-6.0,260,4,,2.49,29.88189,,,,,,,,,,BR,SCT,3000,BKN,8000,,,,,IFR,,,,,,,,,,,,SPECI,1758.0
LTCC 120720Z 34003KT 290V020 4000 BR FEW010 SCT035 BKN100 05/02 Q1013 TEMPO TL0900 6000,LTCC,2015-02-12T07:20:00Z,37.87,40.2,5.0,2.0,340,3,,2.49,29.911417,,,,,,,,,,BR,FEW,1000,SCT,3500,BKN,10000,,,IFR,,,,,,,,,,,,SPECI,677.0
LTBU 120720Z 36021KT 9999 BKN025 BKN090 M00/M03 Q1022,LTBU,2015-02-12T07:20:00Z,41.12,27.92,0.0,-3.0,360,21,,6.21,30.177166,,,,,,,,,,,BKN,2500,BKN,9000,,,,,MVFR,,,,,,,,,,,,METAR,173.0
LTAU 120720Z 26006KT 9999 SCT040 BKN120 04/M01 Q1011 NOSIG,LTAU,2015-02-12T07:20:00Z,38.77,35.47,4.0,-1.0,260,6,,6.21,29.852362,,,,,,TRUE,,,,,SCT,4000,BKN,12000,,,,,VFR,,,,,,,,,,,,METAR,1054.0
LTAT 120720Z 20004KT 7000 SCT011 BKN033 OVC090 03/02 Q1012 NOSIG,LTAT,2015-02-12T07:20:00Z,38.42,38.07,3.0,2.0,200,4,,4.35,29.88189,,,,,,TRUE,,,,,SCT,1100,BKN,3300,OVC,9000,,,MVFR,,,,,,,,,,,,METAR,849.0
LTAG 120720Z 01009KT 9999 SCT030 BKN100 10/07 Q1012 NOSIG,LTAG,2015-02-12T07:20:00Z,37.0,35.42,10.0,7.0,10,9,,6.21,29.88189,,,,,,TRUE,,,,,SCT,3000,BKN,10000,,,,,VFR,,,,,,,,,,,,METAR,66.0
LCEN 120720Z 28010KT 9999 FEW025CB SCT030 10/07 Q1010 NOSIG,LCEN,2015-02-12T07:20:00Z,35.13,33.5,10.0,7.0,280,10,,6.21,29.822834,,,,,,TRUE,,,,,FEW,2500,SCT,3000,,,,,VFR,,,,,,,,,,,,METAR,91.0
LTFJ 120720Z 36013KT 8000 3000SW -RA SCT009 BKN025 OVC080 03/02 Q1020 NOSIG,LTFJ,2015-02-12T07:20:00Z,40.9,29.3,3.0,2.0,360,13,,4.97,30.11811,,,,,,TRUE,,,,-RA,SCT,900,BKN,2500,OVC,8000,,,MVFR,,,,,,,,,,,,METAR,98.0
LTFE 120720Z 03008KT CAVOK 08/M02 Q1014 NOSIG,LTFE,2015-02-12T07:20:00Z,37.25,27.67,8.0,-2.0,30,8,,6.21,29.940945,,,,,,TRUE,,,,,CAVOK,,,,,,,,VFR,,,,,,,,,,,,METAR,6.0
LTFC 120720Z 33012KT 9999 SCT035 BKN100 00/M04 Q1013,LTFC,2015-02-12T07:20:00Z,37.87,30.38,0.0,-4.0,330,12,,6.21,29.911417,,,,,,,,,,,SCT,3500,BKN,10000,,,,,VFR,,,,,,,,,,,,METAR,864.0
LTCS 120720Z 15007KT 8000 SCT005 BKN025 04/02 Q1014,LTCS,2015-02-12T07:20:00Z,37.45,38.9,4.0,2.0,150,7,,4.97,29.940945,,,,,,,,,,,SCT,500,BKN,2500,,,,,MVFR,,,,,,,,,,,,METAR,825.0
LTCG 120720Z 00000KT 9999 FEW019 BKN035 09/05 Q1015 TEMPO 29012KT,LTCG,2015-02-12T07:20:00Z,41.0,39.8,9.0,5.0,0,0,,6.21,29.970472,,,,,,,,,,,FEW,1900,BKN,3500,,,,,VFR,,,,,,,,,,,,SPECI,30.0
LTBS 120720Z 02013KT 9999 FEW030 09/M02 Q1012 NOSIG,LTBS,2015-02-12T07:20:00Z,36.7,28.77,9.0,-2.0,20,13,,6.21,29.88189,,,,,,TRUE,,,,,FEW,3000,,,,,,,VFR,,,,,,,,,,,,METAR,2.0
LTBR 120720Z 23006KT 8000 -SHRA FEW011 BKN025 BKN080 03/02 Q1019 NOSIG,LTBR,2015-02-12T07:20:00Z,40.25,29.57,3.0,2.0,230,6,,4.97,30.088583,,,,,,TRUE,,,,-SHRA,FEW,1100,BKN,2500,BKN,8000,,,MVFR,,,,,,,,,,,,METAR,232.0
LTBJ 120720Z 35019KT 9999 SCT030 05/M01 Q1016 NOSIG,LTBJ,2015-02-12T07:20:00Z,38.28,27.15,5.0,-1.0,350,19,,6.21,30.0,,,,,,TRUE,,,,,SCT,3000,,,,,,,VFR,,,,,,,,,,,,METAR,120.0
LTBA 120720Z 35026G36KT 1200 R35R/0800U R17L/1300U R05/0900U R23/P1500N SHSNRA BKN010 BKN025 03/01 Q1021 BECMG TL0820 6000 NSW SCT010 BKN025,LTBA,2015-02-12T07:20:00Z,40.97,28.82,3.0,1.0,350,26,36,0.75,30.147638,,,,,,,,,,SHSN RA,BKN,1000,BKN,2500,,,,,LIFR,,,,,,,,,,,,SPECI,37.0
LTAZ 120720Z 22004KT 180V250 9999 SCT035 BKN090 02/M01 Q1012,LTAZ,2015-02-12T07:20:00Z,38.77,34.55,2.0,-1.0,220,4,,6.21,29.88189,,,,,,,,,,,SCT,3500,BKN,9000,,,,,VFR,,,,,,,,,,,,METAR,945.0
LTAJ 120720Z VRB01KT 7000 SCT007 BKN020 OVC080 05/03 Q1013 NOSIG,LTAJ,2015-02-12T07:20:00Z,36.95,37.48,5.0,3.0,0,1,,4.35,29.911417,,,,,,TRUE,,,,,SCT,700,BKN,2000,OVC,8000,,,MVFR,,,,,,,,,,,,METAR,855.0
LTAI 120720Z 32011KT CAVOK 10/M04 Q1012 NOSIG,LTAI,2015-02-12T07:20:00Z,36.9,30.8,10.0,-4.0,320,11,,6.21,29.88189,,,,,,TRUE,,,,,CAVOK,,,,,,,,VFR,,,,,,,,,,,,METAR,54.0
LTAF 120720Z 01007KT 9999 SCT035 BKN100 10/06 Q1012 RESHRA NOSIG,LTAF,2015-02-12T07:20:00Z,36.97,35.28,10.0,6.0,10,7,,6.21,29.88189,,,,,,TRUE,,,,,SCT,3500,BKN,10000,,,,,VFR,,,,,,,,,,,,METAR,20.0
LTAC 120720Z 01004KT 9999 BKN033 OVC080 02/M03 Q1013 NOSIG,LTAC,2015-02-12T07:20:00Z,40.12,32.97,2.0,-3.0,10,4,,6.21,29.911417,,,,,,TRUE,,,,,BKN,3300,OVC,8000,,,,,VFR,,,,,,,,,,,,METAR,949.0
LGAV 120720Z 36007KT 9999 FEW018 SCT025 BKN070 03/M01 Q1022 NOSIG,LGAV,2015-02-12T07:20:00Z,37.93,23.95,3.0,-1.0,360,7,,6.21,30.177166,,,,,,TRUE,,,,,FEW,1800,SCT,2500,BKN,7000,,,VFR,,,,,,,,,,,,METAR,94.0
ETHL 120720Z 19002KT 0300 R27/0450N FZFG VV000 M05/M05 Q1023 RED RED,ETHL,2015-02-12T07:20:00Z,48.22,9.92,-5.0,-5.0,190,2,,0.19,30.206694,,,,,,,,,,FZFG,OVX,0,,,,,,,LIFR,,,,,,,,,,,0,SPECI,549.0
CYHK 120718Z AUTO 23007KT 5SM -SN OVC085 M33/M36 A3015 RMK SLP220,CYHK,2015-02-12T07:18:00Z,68.62,-95.83,-33.0,-36.0,230,7,,5.0,30.15059,1022.0,,TRUE,,,,,,,-SN,OVC,8500,,,,,,,MVFR,,,,,,,,,,,,SPECI,46.0
YCNM 120717Z AUTO 20016G27KT 050V210 //// // ////// 26/15 Q1017,YCNM,2015-02-12T07:17:00Z,-30.98,148.38,26.0,15.0,200,16,27,,30.029528,,,TRUE,,,,,,,,,,,,,,,,,,,,,,,,,,,,SPECI,184.0
CZUM 120717Z AUTO 07003KT 9SM SCT050 OVC070 M27/M30 A2999 RMK SLP213,CZUM,2015-02-12T07:17:00Z,53.53,-64.08,-27.0,-30.0,70,3,,9.0,29.991142,1021.3,,TRUE,,,,,,,,SCT,5000,OVC,7000,,,,,VFR,,,,,,,,,,,,SPECI,440.0
LHDC 120717Z 16002KT 6000 M02/M03 Q1031,LHDC,2015-02-12T07:17:00Z,47.47,21.62,-2.0,-3.0,160,2,,3.73,30.442913,,,,,,,,,,,,,,,,,,,,,,,,,,,,,,,SPECI,112.0
SBIZ 120715Z 07006KT 9000 SCT030 25/25 Q1012,SBIZ,2015-02-12T07:15:00Z,-5.52,-47.45,25.0,25.0,70,6,,5.59,29.88189,,,,,,,,,,,SCT,3000,,,,,,,VFR,,,,,,,,,,,,METAR,123.0
KBWD 120715Z AUTO 01011G19KT 10SM OVC050 07/M02 A3035 RMK AO2,KBWD,2015-02-12T07:15:00Z,31.8,-98.95,7.0,-2.0,10,11,19,10.0,30.351377,,,TRUE,TRUE,,,,,,,OVC,5000,,,,,,,VFR,,,,,,,,,,,,METAR,423.0
LIPC 120715Z 26003KT 0700 R11/0700 FG SCT006 01/M01 Q1025 RMK SCT VIS MIN 0700 WIND THR11 26003KT RED,LIPC,2015-02-12T07:15:00Z,44.22,12.3,1.0,-1.0,260,3,,0.43,30.265747,,,,,,,,,,FG,SCT,600,,,,,,,LIFR,,,,,,,,,,,,SPECI,10.0
LHUD 120715Z 16002KT 4000 BR M02/M04 Q1030,LHUD,2015-02-12T07:15:00Z,46.25,20.1,-2.0,-4.0,160,2,,2.49,30.413385,,,,,,,,,,BR,,,,,,,,,,,,,,,,,,,,,METAR,84.0
LHSM 120715Z 00000KT 9999 BKN033 01/M00 Q1029,LHSM,2015-02-12T07:15:00Z,46.68,17.17,1.0,0.0,0,0,,6.21,30.383858,,,,,,,,,,,BKN,3300,,,,,,,VFR,,,,,,,,,,,,METAR,125.0
LHPR 120715Z 10003KT 4000 BR BKN020 00/00 Q1029,LHPR,2015-02-12T07:15:00Z,47.63,17.82,0.0,0.0,100,3,,2.49,30.383858,,,,,,,,,,BR,BKN,2000,,,,,,,IFR,,,,,,,,,,,,METAR,129.0
LHPP 120715Z 10004KT 8000 BKN013 02/00 Q1029,LHPP,2015-02-12T07:15:00Z,45.98,18.23,2.0,0.0,100,4,,4.97,30.383858,,,,,,,,,,,BKN,1300,,,,,,,MVFR,,,,,,,,,,,,METAR,305.0
LHPA 120715Z 13001MPS 8000 BKN043 02/M00 Q1028 NOSIG RMK BLU,LHPA,2015-02-12T07:15:00Z,47.35,17.5,2.0,0.0,130,2,,4.97,30.35433,,,,,,TRUE,,,,,BKN,4300,,,,,,,MVFR,,,,,,,,,,,,METAR,148.0
KRSP 120713Z AUTO 10SM SCT024 OVC041 00/M04 RMK AO2 $,KRSP,2015-02-12T07:13:00Z,39.65,-77.47,0.0,-4.0,,,,10.0,,,,TRUE,TRUE,TRUE,,,,,,SCT,2400,OVC,4100,,,,,VFR,,,,,,,,,,,,METAR,561.0
CYKP 120712Z AUTO 32008KT 9SM CLR M30/M33 A3045 RMK SLP338,CYKP,2015-02-12T07:12:00Z,51.67,-85.9,-30.0,-33.0,320,8,,9.0,30.448818,1033.8,,TRUE,,,,,,,,CLR,,,,,,,,VFR,,,,,,,,,,,,SPECI,179.0
CYBG 120711Z 08017KT 1 1/2SM -SN BLSN OVC020 M17/M21 A2983 RMK SC8 VIS VRB 1-2 SLP116,CYBG,2015-02-12T07:11:00Z,48.33,-70.98,-17.0,-21.0,80,17,,1.5,29.828741,1011.6,,,,,,,,,-SN BLSN,OVC,2000,,,,,,,IFR,,,,,,,,,,,,SPECI,159.0
RJOT 120711Z 26018G28KT 9999 FEW025 10/00 Q1005 RMK 1CU025 A2969,RJOT,2015-02-12T07:11:00Z,34.22,134.02,10.0,0.0,260,18,28,6.21,29.675198,,,,,,,,,,,FEW,2500,,,,,,,VFR,,,,,,,,,,,,SPECI,188.0
KRBO 120710Z AUTO 02006KT 5SM BR BKN040 16/13 A3015 RMK AO2 T01630128,KRBO,2015-02-12T07:10:00Z,27.78,-97.68,16.3,12.8,20,6,,5.0,30.15059,,,TRUE,TRUE,,,,,,BR,BKN,4000,,,,,,,MVFR,,,,,,,,,,,,METAR,24.0
VCRI 120710Z 04006KT 360V130 9999 SCT016 32/23 Q1010 NOSIG,VCRI,2015-02-12T07:10:00Z,6.28,81.13,32.0,23.0,40,6,,6.21,29.822834,,,,,,TRUE,,,,,SCT,1600,,,,,,,VFR,,,,,,,,,,,,METAR,7.0
VCBI 120710Z 02008KT 350V050 9999 SCT018 32/20 Q1010 NOSIG,VCBI,2015-02-12T07:10:00Z,7.17,79.87,32.0,20.0,20,8,,6.21,29.822834,,,,,,TRUE,,,,,SCT,1800,,,,,,,VFR,,,,,,,,,,,,METAR,8.0
LFBY 120709Z 00000KT 7000 -RA NSC 05/04 Q1020,LFBY,2015-02-12T07:09:00Z,43.67,-1.07,5.0,4.0,0,0,,4.35,30.11811,,,,,,,,,,-RA,,,,,,,,,,,,,,,,,,,,,METAR,32.0
YNWN 120709Z AUTO 04015KT 290V050 //// // ////// 39/08 Q1009,YNWN,2015-02-12T07:09:00Z,-23.42,119.8,39.0,8.0,40,15,,,29.793306,,,TRUE,,,,,,,,,,,,,,,,,,,,,,,,,,,,SPECI,525.0
CYRQ 120708Z AUTO 06010G15KT 2SM -SN OVC024 M14/M16 A2980 RMK SLP095,CYRQ,2015-02-12T07:08:00Z,46.35,-72.68,-14.0,-16.0,60,10,15,2.0,29.799213,1009.5,,TRUE,,,,,,,-SN,OVC,2400,,,,,,,IFR,,,,,,,,,,,,SPECI,61.0
CYOO 120708Z AUTO 32007KT 9SM SCT020 OVC080 M04/M07 A2978 RMK SLP090,CYOO,2015-02-12T07:08:00Z,43.92,-78.9,-4.0,-7.0,320,7,,9.0,29.778543,1009.0,,TRUE,,,,,,,,SCT,2000,OVC,8000,,,,,VFR,,,,,,,,,,,,SPECI,139.0
YSWG 120707Z 08021KT 9999 TS FEW070CB BKN290 28/11 Q1018,YSWG,2015-02-12T07:07:00Z,-35.13,147.47,28.0,11.0,80,21,,6.21,30.059055,,,,,,,,,,TS,FEW,7000,BKN,29000,,,,,VFR,,,,,,,,,,,,SPECI,213.0
OERK 120706Z 34009KT 3000 DU NSC 26/03 Q1017 TEMPO 1000,OERK,2015-02-12T07:06:00Z,24.95,46.72,26.0,3.0,340,9,,1.86,30.029528,,,,,,,,,,DU,,,,,,,,,,,,,,,,,,,,,METAR,612.0
RJSU 120706Z 15005KT 9999 FEW020 BKN070 07/02 Q1002 RMK 1CU020 5AC070 A2961,RJSU,2015-02-12T07:06:00Z,38.22,140.92,7.0,2.0,150,5,,6.21,29.586615,,,,,,,,,,,FEW,2000,BKN,7000,,,,,VFR,,,,,,,,,,,,SPECI,10.0
KHOP 120705Z AUTO 33010KT 290V360 10SM SCT026 00/M06 A3019 RMK AO2,KHOP,2015-02-12T07:05:00Z,36.67,-87.5,0.0,-6.0,330,10,,10.0,30.188976,,,TRUE,TRUE,,,,,,,SCT,2600,,,,,,,VFR,,,,,,,,,,,,SPECI,174.0
MUCL 120705Z AUTO 04012KT 20/13 Q1015,MUCL,2015-02-12T07:05:00Z,21.63,-81.55,20.0,13.0,40,12,,,29.970472,,,TRUE,,,,,,,,,,,,,,,,,,,,,,,,,,,,METAR,5.0
RJOF 120705Z 25021G32KT 9999 FEW025 10/M03 Q1007 RMK 1CU025 A2974,RJOF,2015-02-12T07:05:00Z,34.02,131.55,10.0,-3.0,250,21,32,6.21,29.734253,,,,,,,,,,,FEW,2500,,,,,,,VFR,,,,,,,,,,,,SPECI,5.0
CYYN 120704Z AUTO 17026G31KT 2SM -SN BLSN OVC055 M14/M16 A3013 RMK PRESFR SLP271,CYYN,2015-02-12T07:04:00Z,50.27,-107.67,-14.0,-16.0,170,26,31,2.0,30.129921,1027.1,,TRUE,,,,,,,-SN BLSN,OVC,5500,,,,,,,IFR,,,,,,,,,,,,SPECI,818.0
CYOJ 120704Z AUTO 00000KT 9SM OVC020 M18/M20 A2997 RMK SLP189,CYOJ,2015-02-12T07:04:00Z,58.62,-117.17,-18.0,-20.0,0,0,,9.0,29.970472,1018.9,,TRUE,,,,,,,,OVC,2000,,,,,,,MVFR,,,,,,,,,,,,SPECI,338.0
CYUS 120702Z AUTO 20011KT 2 3/4SM CLR M37/ A3017,CYUS,2015-02-12T07:02:00Z,68.82,-93.42,-37.0,,200,11,,2.75,30.171259,,,TRUE,,,,,,,,CLR,,,,,,,,IFR,,,,,,,,,,,,SPECI,42.0
PABA 120701Z AUTO 06008KT 10SM M29/M32 A3023 RMK AO2 SLP236 T12941322 FZRANO $,PABA,2015-02-12T07:01:00Z,70.13,-143.58,-29.4,-32.2,60,8,,10.0,30.230314,1023.6,,TRUE,TRUE,TRUE,,,TRUE,,,,,,,,,,,,,,,,,,,,,,,METAR,2.0
PAIK 120701Z AUTO 34009KT 10SM CLR M28/M31 A2993 RMK AO2 SLP186 T12781306 FZRANO,PAIK,2015-02-12T07:01:00Z,66.98,-160.43,-27.8,-30.6,340,9,,10.0,29.929134,1018.6,,TRUE,TRUE,,,,TRUE,,,CLR,,,,,,,,VFR,,,,,,,,,,,,METAR,51.0
TTCP 120700Z 10017KT 9999 FEW016 26/22 Q1012,TTCP,2015-02-12T07:00:00Z,11.15,-60.85,26.0,22.0,100,17,,6.21,29.88189,,,,,,,,,,,FEW,1600,,,,,,,VFR,,,,,,,,,,,,METAR,8.0
TTPP 120700Z 11005KT 9999 FEW016 24/22 Q1011,TTPP,2015-02-12T07:00:00Z,10.58,-61.35,24.0,22.0,110,5,,6.21,29.852362,,,,,,,,,,,FEW,1600,,,,,,,VFR,,,,,,,,,,,,SPECI,15.0
LIBG 120700Z 34002KT 9999 FEW043 03/01 Q1022,LIBG,2015-02-12T07:00:00Z,40.52,17.38,3.0,1.0,340,2,,6.21,30.177166,,,,,,,,,,,FEW,4300,,,,,,,VFR,,,,,,,,,,,,SPECI,69.0
FSIA 120700Z 33016KT 9999 SCT017 BKN080 28/23 Q1012 NOSIG,FSIA,2015-02-12T07:00:00Z,-4.67,55.52,28.0,23.0,330,16,,6.21,29.88189,,,,,,TRUE,,,,,SCT,1700,BKN,8000,,,,,VFR,,,,,,,,,,,,METAR,3.0
OPRN 120700Z 23004KT 4000 HZ FEW100 SCT200 20/07 Q1019.3/30.10,OPRN,2015-02-12T07:00:00Z,33.62,73.08,20.0,7.0,230,4,,2.49,,,,,,,,,,,HZ,FEW,10000,SCT,20000,,,,,IFR,,,,,,,,,,,,METAR,508.0
OPNH 120700Z 04503KTS 3000M FU NSC 24/09 Q1017,OPNH,2015-02-12T07:00:00Z,26.22,68.37,24.0,9.0,45,3,,1.86,30.029528,,,,,,,,,,FU,,,,,,,,,,,,,,,,,,,,,METAR,38.0
YGTE 120700Z AUTO 32007KT 9999 // SCT042 BKN052 BKN083 30/24 Q1006,YGTE,2015-02-12T07:00:00Z,-13.97,136.45,30.0,24.0,320,7,,6.21,29.704725,,,TRUE,,,,,,,,SCT,4200,BKN,5200,BKN,8300,,,VFR,,,,,,,,,,,,METAR,14.0
YGLA 120700Z AUTO 11018KT 9999 // NCD 29/20 Q1013,YGLA,2015-02-12T07:00:00Z,-23.87,151.22,29.0,20.0,110,18,,6.21,29.911417,,,TRUE,,,,,,,,,,,,,,,,,,,,,,,,,,,,METAR,52.0
YGFN 120700Z AUTO 10009KT 9999 // SCT057 26/18 Q1019,YGFN,2015-02-12T07:00:00Z,-29.77,153.03,26.0,18.0,100,9,,6.21,30.088583,,,TRUE,,,,,,,,SCT,5700,,,,,,,VFR,,,,,,,,,,,,METAR,34.0
FYWB 120700Z 02006KT 4000 BR OVC006 15/13 Q1016 REFG,FYWB,2015-02-12T07:00:00Z,-22.98,14.65,15.0,13.0,20,6,,2.49,30.0,,,,,,,,,,BR,OVC,600,,,,,,,IFR,,,,,,,,,,,,METAR,46.0
YOLD 120700Z AUTO 13010KT 9999 // ////// 40/03 Q1012,YOLD,2015-02-12T07:00:00Z,-30.48,136.88,40.0,3.0,130,10,,6.21,29.88189,,,TRUE,,,,,,,,,,,,,,,,,,,,,,,,,,,,METAR,105.0
YNTN 120700Z AUTO 19005KT //// // ////// 35/17 Q1005,YNTN,2015-02-12T07:00:00Z,-17.68,141.07,35.0,17.0,190,5,,,29.675198,,,TRUE,,,,,,,,,,,,,,,,,,,,,,,,,,,,METAR,22.0
YNBR 120700Z AUTO 15011KT 130V190 //// // ////// 34/10 Q1015,YNBR,2015-02-12T07:00:00Z,-30.32,149.83,34.0,10.0,150,11,,,29.970472,,,TRUE,,,,,,,,,,,,,,,,,,,,,,,,,,,,METAR,240.0
YNAR 120700Z AUTO 11007KT //// // ////// 32/15 Q1017,YNAR,2015-02-12T07:00:00Z,-34.7,146.52,32.0,15.0,110,7,,,30.029528,,,TRUE,,,,,,,,,,,,,,,,,,,,,,,,,,,,METAR,145.0
YMTG 120700Z AUTO 17016KT 9999 // NCD 24/10 Q1019,YMTG,2015-02-12T07:00:00Z,-37.75,140.78,24.0,10.0,170,16,,6.21,30.088583,,,TRUE,,,,,,,,,,,,,,,,,,,,,,,,,,,,METAR,65.0
FAMM 120700Z 33014KT 9999 FEW040CB BKN080 21/14 Q1021 RESH NOSIG,FAMM,2015-02-12T07:00:00Z,-25.8,25.52,21.0,14.0,330,14,,6.21,30.147638,,,,,,TRUE,,,,,FEW,4000,BKN,8000,,,,,VFR,,,,,,,,,,,,METAR,1277.0
FALW 120700Z AUTO 23007KT //// // ////// 20/13 Q1015,FALW,2015-02-12T07:00:00Z,-32.97,18.17,20.0,13.0,230,7,,,29.970472,,,TRUE,,,,,,,,,,,,,,,,,,,,,,,,,,,,METAR,0.0
RKSM 120700Z 31008KT 9999 FEW030 02/M17 A2994,RKSM,2015-02-12T07:00:00Z,37.42,127.12,2.0,-17.0,310,8,,6.21,29.940945,,,,,,,,,,,FEW,3000,,,,,,,VFR,,,,,,,,,,,,METAR,20.0
SKLT 120700Z 00000KT 7000 VCSH OVC010 25/24 A2988 RMK AD OPR IMC,SKLT,2015-02-12T07:00:00Z,-4.2,-69.93,25.0,24.0,0,0,,4.35,29.878937,,,,,,,,,,VCSH,OVC,1000,,,,,,,MVFR,,,,,,,,,,,,METAR,84.0
TAPA 120700Z 21003KT 9999 FEW018 24/22 Q1012 NOSIG,TAPA,2015-02-12T07:00:00Z,17.12,-61.78,24.0,22.0,210,3,,6.21,29.88189,,,,,,TRUE,,,,,FEW,1800,,,,,,,VFR,,,,,,,,,,,,METAR,14.0
OERF 120700Z 31018KT 2500 BLDU SKC 15/M01 Q1017,OERF,2015-02-12T07:00:00Z,29.62,43.47,15.0,-1.0,310,18,,1.55,30.029528,,,,,,,,,,BLDU,SKC,,,,,,,,IFR,,,,,,,,,,,,METAR,447.0
VTCT 120700Z 16004KT 8000 NSC 27/17 Q1011,VTCT,2015-02-12T07:00:00Z,19.95,99.88,27.0,17.0,160,4,,4.97,29.852362,,,,,,,,,,,,,,,,,,,,,,,,,,,,,,,METAR,390.0
CWWK 120700Z AUTO 00000KT 09/08 RMK AO1 SOG 00 3015 SLP232 T00920083,CWWK,2015-02-12T07:00:00Z,49.02,-122.78,9.2,8.3,0,0,,,,1023.2,,TRUE,TRUE,,,,,,,,,,,,,,,,,,,,,,,,,,,METAR,15.0
CWTT 120700Z AUTO 03002KT M14/M16 RMK AO1 T11371157,CWTT,2015-02-12T07:00:00Z,45.27,-72.17,-13.7,-15.7,30,2,,,,,,TRUE,TRUE,,,,,,,,,,,,,,,,,,,,,,,,,,,METAR,209.0
CZEV 120700Z AUTO 12006KT M35/M39 RMK AO1 SOG 39 1003 SLP272 T13491387,CZEV,2015-02-12T07:00:00Z,68.32,-133.52,-34.9,-38.7,120,6,,,,1027.2,,TRUE,TRUE,,,,,,,,,,,,,,,,,,,,,,,,,,,METAR,103.0
CXTP 120700Z AUTO 04006KT M15/M17 RMK AO1 SOG 26 7028 SLP170 T11501170,CXTP,2015-02-12T07:00:00Z,48.55,-53.97,-15.0,-17.0,40,6,,,,1017.0,,TRUE,TRUE,,,,,,,,,,,,,,,,,,,,,,,,,,,METAR,107.0
CXRH 120700Z AUTO 12004KT M17/M21 RMK AO1 SOG 102 T11671209,CXRH,2015-02-12T07:00:00Z,49.57,-57.88,-16.7,-20.9,120,4,,,,,,TRUE,TRUE,,,,,,,,,,,,,,,,,,,,,,,,,,,METAR,68.0
CXMY 120700Z AUTO M08/M11 RMK AO1 T10811106,CXMY,2015-02-12T07:00:00Z,44.98,-62.48,-8.1,-10.6,,,,,,,,TRUE,TRUE,,,,,,,,,,,,,,,,,,,,,,,,,,,METAR,40.0
CXMM 120700Z AUTO 12007KT M15/M17 RMK AO1 SOG 25 6034 SLP214 T11481174,CXMM,2015-02-12T07:00:00Z,56.65,-111.22,-14.8,-17.4,120,7,,,,1021.4,,TRUE,TRUE,,,,,,,,,,,,,,,,,,,,,,,,,,,METAR,369.0
CXMD 120700Z AUTO 31003KT M24/M28 RMK AO1 SOG 12 3003 SLP441 T12441276,CXMD,2015-02-12T07:00:00Z,49.22,-98.08,-24.4,-27.6,310,3,,,,1044.1,,TRUE,TRUE,,,,,,,,,,,,,,,,,,,,,,,,,,,METAR,301.0
CXEC 120700Z AUTO M10/ RMK AO1 T1096,CXEC,2015-02-12T07:00:00Z,53.57,-113.52,-9.6,,,,,,,,,TRUE,TRUE,,,,,,,,,,,,,,,,,,,,,,,,,,,METAR,671.0
CXEA 120700Z AUTO 32004KT M28/M30 RMK AO1 SOG 49 0006 SLP401 T12761303,CXEA,2015-02-12T07:00:00Z,50.63,-93.22,-27.6,-30.3,320,4,,,,1040.1,,TRUE,TRUE,,,,,,,,,,,,,,,,,,,,,,,,,,,METAR,355.0
CXDE 120700Z AUTO 27003KT M28/M32 RMK AO1 SOG 15 1008 SLP250 T12841315,CXDE,2015-02-12T07:00:00Z,65.22,-123.43,-28.4,-31.5,270,3,,,,1025.0,,TRUE,TRUE,,,,,,,,,,,,,,,,,,,,,,,,,,,METAR,213.0
CXCA 120700Z AUTO 34008G18KT M23/M26 RMK AO1 PK WND 34021/0605 SLP345 T12321260 51029,CXCA,2015-02-12T07:00:00Z,49.15,-88.35,-23.2,-26.0,340,8,18,,,1034.5,,TRUE,TRUE,,,,,,,,,,,,,,,,2.9,,,,,,,,,,,METAR,228.0
CWIY 120700Z AUTO 08002KT M21/M24 RMK AO1 SLP149 T12111240 58023,CWIY,2015-02-12T07:00:00Z,47.13,-67.82,-21.1,-24.0,80,2,,,,1014.9,,TRUE,TRUE,,,,,,,,,,,,,,,,-2.3,,,,,,,,,,,METAR,241.0
CWHT 120700Z AUTO 04002KT M17/M19 RMK AO1 SOG 36 1010 SLP089 T11651193,CWHT,2015-02-12T07:00:00Z,60.77,-137.58,-16.5,-19.3,40,2,,,,1008.9,,TRUE,TRUE,,,,,,,,,,,,,,,,,,,,,,,,,,,METAR,599.0
CWFF 120700Z AUTO 17008KT M25/M28 RMK AO1 SOG 15 6044 SLP372 T12501284,CWFF,2015-02-12T07:00:00Z,52.82,-104.58,-25.0,-28.4,170,8,,,,1037.2,,TRUE,TRUE,,,,,,,,,,,,,,,,,,,,,,,,,,,METAR,490.0
CWSR 120700Z AUTO 15007KT M21/M28 RMK AO1 SOG 15 6044 SLP309 T12131277,CWSR,2015-02-12T07:00:00Z,53.37,-107.53,-21.3,-27.7,150,7,,,,1030.9,,TRUE,TRUE,,,,,,,,,,,,,,,,,,,,,,,,,,,METAR,584.0
CZDB 120700Z AUTO 02012G19KT M12/M15 RMK AO1 SOG 46 7031 PK WND 03024/0640 SLP098 T11231147,CZDB,2015-02-12T07:00:00Z,45.42,-63.47,-12.3,-14.7,20,12,19,,,1009.8,,TRUE,TRUE,,,,,,,,,,,,,,,,,,,,,,,,,,,METAR,38.0
CXNP 120700Z AUTO 01013KT M15/M16 RMK AO1 PK WND 00017/0604 SLP127 T11501162 58023,CXNP,2015-02-12T07:00:00Z,45.75,-64.23,-15.0,-16.2,10,13,,,,1012.7,,TRUE,TRUE,,,,,,,,,,,,,,,,-2.3,,,,,,,,,,,METAR,20.0
CAHR 120700Z AUTO 35011KT M14/M15 RMK AO1 PK WND 35017/0631 SLP120 T11371151 57026,CAHR,2015-02-12T07:00:00Z,46.35,-63.17,-13.7,-15.1,350,11,,,,1012.0,,TRUE,TRUE,,,,,,,,,,,,,,,,-2.6,,,,,,,,,,,METAR,53.0
CWCF 120700Z AUTO 25002KT M34/M37 RMK AO1 SOG 26 8004 SLP429 T13361373,CWCF,2015-02-12T07:00:00Z,52.35,-97.03,-33.6,-37.3,250,2,,,,1042.9,,TRUE,TRUE,,,,,,,,,,,,,,,,,,,,,,,,,,,METAR,222.0
CWAV 120700Z AUTO 19003KT M06/M09 RMK AO1 SOG 13 6002 SLP200 T10631089,CWAV,2015-02-12T07:00:00Z,51.77,-114.67,-6.3,-8.9,190,3,,,,1020.0,,TRUE,TRUE,,,,,,,,,,,,,,,,,,,,,,,,,,,METAR,1114.0
CWLM 120700Z AUTO 07002KT 08/07 RMK AO1 SLP229 T00830072 53011,CWLM,2015-02-12T07:00:00Z,48.42,-123.32,8.3,7.2,70,2,,,,1022.9,,TRUE,TRUE,,,,,,,,,,,,,,,,1.1,,,,,,,,,,,METAR,70.0
CXZC 120700Z AUTO 34013G20KT M23/M25 RMK AO1 3PAST HR SOG 77 3022 PK WND 29021/0644 SLP238 P0001 T12261253 50003,CXZC,2015-02-12T07:00:00Z,51.3,-80.62,-22.6,-25.3,340,13,20,,,1023.8,,TRUE,TRUE,,,,,,,,,,,,,,,,0.3,,,,,0.01,,,,,,METAR,9.0
CTRA 120700Z AUTO 03005KT M26/M28 RMK AO1 2PAST HR 1012 SLP412 P0001 T12581284 50002,CTRA,2015-02-12T07:00:00Z,49.67,-93.73,-25.8,-28.4,30,5,,,,1041.2,,TRUE,TRUE,,,,,,,,,,,,,,,,0.2,,,,,0.01,,,,,,METAR,435.0
CWRA 120700Z AUTO 06032G45KT M05/ RMK AO1 PRESFR PK WND 07045/0650 SLP089 T1048 56057,CWRA,2015-02-12T07:00:00Z,46.63,-53.07,-4.8,,60,32,45,,,1008.9,,TRUE,TRUE,,,,,,,,,,,,,,,,-5.7,,,,,,,,,,,METAR,28.0
CWHO 120700Z AUTO 24008KT M24/M30 RMK AO1 SLP229 T12431301 55002,CWHO,2015-02-12T07:00:00Z,55.45,-60.22,-24.3,-30.1,240,8,,,,1022.9,,TRUE,TRUE,,,,,,,,,,,,,,,,-0.2,,,,,,,,,,,METAR,8.0
CWDO 120700Z AUTO M17/M20 RMK AO1 SOG 16 8019 SLP198 T11741200,CWDO,2015-02-12T07:00:00Z,49.67,-54.78,-17.4,-20.0,,,,,,1019.8,,TRUE,TRUE,,,,,,,,,,,,,,,,,,,,,,,,,,,METAR,92.0
CWNZ 120700Z AUTO 33009G15KT M25/M28 RMK AO1 PK WND 34018/0623 SLP279 T12511279 52023,CWNZ,2015-02-12T07:00:00Z,49.75,-84.17,-25.1,-27.9,330,9,15,,,1027.9,,TRUE,TRUE,,,,,,,,,,,,,,,,2.3,,,,,,,,,,,METAR,256.0
CWNC 120700Z AUTO 30006KT M02/M06 RMK AO1 SOG 14 5002 SLP071 T10221055,CWNC,2015-02-12T07:00:00Z,43.95,-78.17,-2.2,-5.5,300,6,,,,1007.1,,TRUE,TRUE,,,,,,,,,,,,,,,,,,,,,,,,,,,METAR,78.0
CWDV 120700Z AUTO 35004KT M26/M28 RMK AO1 SOG 63 1022 SLP347 T12571280,CWDV,2015-02-12T07:00:00Z,49.02,-90.47,-25.7,-28.0,350,4,,,,1034.7,,TRUE,TRUE,,,,,,,,,,,,,,,,,,,,,,,,,,,METAR,489.0
CWPC 120700Z AUTO 31001KT M03/M04 RMK AO1 SLP097 T10261035 55003,CWPC,2015-02-12T07:00:00Z,42.87,-79.25,-2.6,-3.5,310,1,,,,1009.7,,TRUE,TRUE,,,,,,,,,,,,,,,,-0.3,,,,,,,,,,,METAR,184.0
CWLS 120700Z AUTO 32009KT M09/M10 RMK AO1 SOG 26 3009 PK WND 33019/0630 SLP105 T10871097,CWLS,2015-02-12T07:00:00Z,43.97,-80.75,-8.7,-9.7,320,9,,,,1010.5,,TRUE,TRUE,,,,,,,,,,,,,,,,,,,,,,,,,,,METAR,415.0
CWAJ 120700Z AUTO 27006KT M03/M06 RMK AO1 SLP121 T10331058 58001,CWAJ,2015-02-12T07:00:00Z,42.25,-81.9,-3.3,-5.8,270,6,,,,1012.1,,TRUE,TRUE,,,,,,,,,,,,,,,,-0.1,,,,,,,,,,,METAR,178.0
CWYL 120700Z AUTO 27013KT M00/M00 RMK AO1 SOG 93 0005 PK WND 26018/0606 SLP216 T10041004,CWYL,2015-02-12T07:00:00Z,51.45,-116.32,-0.4,-0.4,270,13,,,,1021.6,,TRUE,TRUE,,,,,,,,,,,,,,,,,,,,,,,,,,,METAR,1615.0
CZTB 120700Z AUTO 35010KT M21/M26 RMK AO1 SLP336 T12091257 51027,CZTB,2015-02-12T07:00:00Z,48.37,-89.32,-20.9,-25.7,350,10,,,,1033.6,,TRUE,TRUE,,,,,,,,,,,,,,,,2.7,,,,,,,,,,,METAR,199.0
CZRP 120700Z AUTO 28011KT M36/M40 RMK AO1 SLP272 T13581397 51014,CZRP,2015-02-12T07:00:00Z,75.37,-105.72,-35.8,-39.7,280,11,,,,1027.2,,TRUE,TRUE,,,,,,,,,,,,,,,,1.4,,,,,,,,,,,METAR,12.0
CXVN 120700Z AUTO 30012KT M02/M06 RMK AO1 PK WND 28017/0640 SLP090 T10191064 55000,CXVN,2015-02-12T07:00:00Z,43.18,-79.4,-1.9,-6.4,300,12,,,,1009.0,,TRUE,TRUE,,,,,,,,,,,,,,,,0.0,,,,,,,,,,,METAR,79.0
CXSE 120700Z AUTO 27008KT M41/M46 RMK AO1 SLP262 T14121457 51020,CXSE,2015-02-12T07:00:00Z,73.77,-105.28,-41.2,-45.7,270,8,,,,1026.2,,TRUE,TRUE,,,,,,,,,,,,,,,,2.0,,,,,,,,,,,METAR,11.0
FEFF 120700Z VRB02KT CAVOK 27/22 Q1012 NOSIG,FEFF,2015-02-12T07:00:00Z,4.4,18.52,27.0,22.0,0,2,,6.21,29.88189,,,,,,TRUE,,,,,CAVOK,,,,,,,,VFR,,,,,,,,,,,,METAR,366.0
FCPP 120700Z 11003KT 300V160 8000 TS FEW010 SCT020 FEW030CB 25/22 Q1012 NOSIG,FCPP,2015-02-12T07:00:00Z,-4.82,11.9,25.0,22.0,110,3,,4.97,29.88189,,,,,,TRUE,,,,TS,FEW,1000,SCT,2000,FEW,3000,,,MVFR,,,,,,,,,,,,METAR,17.0
FCBB 120700Z 25005KT 7000 FEW010 25/23 Q1013 NOSIG,FCBB,2015-02-12T07:00:00Z,-4.25,15.25,25.0,23.0,250,5,,4.35,29.911417,,,,,,TRUE,,,,,FEW,1000,,,,,,,MVFR,,,,,,,,,,,,METAR,316.0
MDST 120700Z 26003KT 9999 BKN016 21/19 Q1013 NOSIG,MDST,2015-02-12T07:00:00Z,19.4,-70.6,21.0,19.0,260,3,,6.21,29.911417,,,,,,TRUE,,,,,BKN,1600,,,,,,,MVFR,,,,,,,,,,,,METAR,184.0
MDSD 120700Z 03006KT 9999 BKN016 22/21 Q1013,MDSD,2015-02-12T07:00:00Z,18.42,-69.67,22.0,21.0,30,6,,6.21,29.911417,,,,,,,,,,,BKN,1600,,,,,,,MVFR,,,,,,,,,,,,METAR,18.0
MDPC 120700Z 04005KT 9999 BKN018 24/19 Q1013,MDPC,2015-02-12T07:00:00Z,18.57,-68.37,24.0,19.0,40,5,,6.21,29.911417,,,,,,,,,,,BKN,1800,,,,,,,MVFR,,,,,,,,,,,,METAR,12.0
CYYH 120700Z 16006KT 12SM IC FEW030 M38/M41 A3018 RMK SC1 FROIN SLP227,CYYH,2015-02-12T07:00:00Z,69.53,-93.57,-38.0,-41.0,160,6,,12.0,30.180119,1022.7,,,,,,,,,IC,FEW,3000,,,,,,,VFR,,,,,,,,,,,,SPECI,28.0
CZMD 120700Z AUTO 24003KT 9SM CLR M33/M36 A3056 RMK SLP394,CZMD,2015-02-12T07:00:00Z,53.43,-91.77,-33.0,-36.0,240,3,,9.0,30.561024,1039.4,,TRUE,,,,,,,,CLR,,,,,,,,VFR,,,,,,,,,,,,METAR,278.0
CZSJ 120700Z AUTO 29005KT 9SM CLR M32/M35 A3061 RMK SLP411,CZSJ,2015-02-12T07:00:00Z,53.07,-93.35,-32.0,-35.0,290,5,,9.0,30.611221,1041.1,,TRUE,,,,,,,,CLR,,,,,,,,VFR,,,,,,,,,,,,METAR,290.0
OYHD 120700Z 19010KT 140V230 7000 SCT030 27/21 Q1017,OYHD,2015-02-12T07:00:00Z,14.75,42.97,27.0,21.0,190,10,,4.35,30.029528,,,,,,,,,,,SCT,3000,,,,,,,MVFR,,,,,,,,,,,,METAR,115.0
TBPB 120700Z 11011KT 9999 SCT018 SCT300 26/23 Q1012 NOSIG,TBPB,2015-02-12T07:00:00Z,13.07,-59.48,26.0,23.0,110,11,,6.21,29.88189,,,,,,TRUE,,,,,SCT,1800,SCT,30000,,,,,VFR,,,,,,,,,,,,METAR,52.0
FQMA 120700Z 11003KT 9999 SCT020 30/20 Q1017 NOSIG,FQMA,2015-02-12T07:00:00Z,-25.92,32.57,30.0,20.0,110,3,,6.21,30.029528,,,,,,TRUE,,,,,SCT,2000,,,,,,,VFR,,,,,,,,,,,,METAR,44.0
CXAJ 120700Z AUTO 19005KT M13/M16 RMK AO1 SOG 10 T11341156,CXAJ,2015-02-12T07:00:00Z,54.77,-112.82,-13.4,-15.6,190,5,,,,,,TRUE,TRUE,,,,,,,,,,,,,,,,,,,,,,,,,,,METAR,574.0
CXAG 120700Z AUTO 17015KT M14/M16 RMK AO1 PK WND 17018/0655 T11391159,CXAG,2015-02-12T07:00:00Z,53.92,-112.28,-13.9,-15.9,170,15,,,,,,TRUE,TRUE,,,,,,,,,,,,,,,,,,,,,,,,,,,METAR,625.0
CWRO 120700Z AUTO 13027KT 09/08 RMK AO1 PK WND 13036/0640 SLP071 T00860080 58007,CWRO,2015-02-12T07:00:00Z,54.17,-131.67,8.6,8.0,130,27,,,,1007.1,,TRUE,TRUE,,,,,,,,,,,,,,,,-0.7,,,,,,,,,,,METAR,7.0
CXBA 120700Z AUTO 15009KT M15/M17 RMK AO1 T11521173,CXBA,2015-02-12T07:00:00Z,52.12,-110.1,-15.2,-17.3,150,9,,,,,,TRUE,TRUE,,,,,,,,,,,,,,,,,,,,,,,,,,,METAR,687.0
CWCT 120700Z AUTO 17011KT M12/M14 RMK AO1 SOG 08 5032 PK WND 16022/0605 SLP240 T11201136,CWCT,2015-02-12T07:00:00Z,52.07,-111.47,-12.0,-13.6,170,11,,,,1024.0,,TRUE,TRUE,,,,,,,,,,,,,,,,,,,,,,,,,,,METAR,791.0
CWWS 120700Z AUTO 29003KT M28/M32 RMK AO1 SOG 55 8010 SLP426 T12801315,CWWS,2015-02-12T07:00:00Z,52.82,-97.62,-28.0,-31.5,290,3,,,,1042.6,,TRUE,TRUE,,,,,,,,,,,,,,,,,,,,,,,,,,,METAR,223.0
CXEG 120700Z AUTO M10/M12 RMK AO1 SOG 15 T10991116,CXEG,2015-02-12T07:00:00Z,53.3,-113.6,-9.9,-11.6,,,,,,,,TRUE,TRUE,,,,,,,,,,,,,,,,,,,,,,,,,,,METAR,715.0
CXHP 120700Z AUTO 09003KT M11/M12 RMK AO1 T11061124,CXHP,2015-02-12T07:00:00Z,55.4,-116.48,-10.6,-12.4,90,3,,,,,,TRUE,TRUE,,,,,,,,,,,,,,,,,,,,,,,,,,,METAR,602.0
CXMG 120700Z AUTO 21004KT M13/M15 RMK AO1 T11281149,CXMG,2015-02-12T07:00:00Z,56.97,-117.45,-12.8,-14.9,210,4,,,,,,TRUE,TRUE,,,,,,,,,,,,,,,,,,,,,,,,,,,METAR,457.0
CXCD 120700Z AUTO 30001KT M17/M18 RMK AO1 T11661175,CXCD,2015-02-12T07:00:00Z,56.32,-119.75,-16.6,-17.5,300,1,,,,,,TRUE,TRUE,,,,,,,,,,,,,,,,,,,,,,,,,,,METAR,630.0
CXWB 120700Z AUTO 02003KT M37/M41 RMK AO1 T13661406,CXWB,2015-02-12T07:00:00Z,65.88,-89.45,-36.6,-40.6,20,3,,,,,,TRUE,TRUE,,,,,,,,,,,,,,,,,,,,,,,,,,,METAR,18.0
CZPS 120700Z AUTO 22006KT M09/M11 RMK AO1 T10921108,CZPS,2015-02-12T07:00:00Z,52.43,-113.6,-9.2,-10.8,220,6,,,,,,TRUE,TRUE,,,,,,,,,,,,,,,,,,,,,,,,,,,METAR,965.0
CZOL 120700Z AUTO 19005KT M10/M13 RMK AO1 T10981126,CZOL,2015-02-12T07:00:00Z,53.65,-113.35,-9.8,-12.6,190,5,,,,,,TRUE,TRUE,,,,,,,,,,,,,,,,,,,,,,,,,,,METAR,665.0
CXVM 120700Z AUTO 16010KT M17/M18 RMK AO1 T11651183,CXVM,2015-02-12T07:00:00Z,53.35,-110.88,-16.5,-18.3,160,10,,,,,,TRUE,TRUE,,,,,,,,,,,,,,,,,,,,,,,,,,,METAR,623.0
CXSP 120700Z AUTO 15013KT M18/M20 RMK AO1 PK WND 15017/0652 T11831199,CXSP,2015-02-12T07:00:00Z,54.02,-111.27,-18.3,-19.9,150,13,,,,,,TRUE,TRUE,,,,,,,,,,,,,,,,,,,,,,,,,,,METAR,649.0
CXPL 120700Z AUTO 11010KT M13/M14 RMK AO1 T11271141,CXPL,2015-02-12T07:00:00Z,51.13,-111.7,-12.7,-14.1,110,10,,,,,,TRUE,TRUE,,,,,,,,,,,,,,,,,,,,,,,,,,,METAR,750.0
CXOL 120700Z AUTO 07003KT M08/M08 RMK AO1 T10801084,CXOL,2015-02-12T07:00:00Z,51.77,-114.08,-8.0,-8.4,70,3,,,,,,TRUE,TRUE,,,,,,,,,,,,,,,,,,,,,,,,,,,METAR,1046.0
CXMO 120700Z AUTO 19013KT M09/M10 RMK AO1 T10941103,CXMO,2015-02-12T07:00:00Z,51.67,-112.68,-9.4,-10.3,190,13,,,,,,TRUE,TRUE,,,,,,,,,,,,,,,,,,,,,,,,,,,METAR,836.0
CPRY 120700Z AUTO 24013KT 05/01 RMK AO1 PK WND 24018/0623 T00500005,CPRY,2015-02-12T07:00:00Z,49.48,-112.68,5.0,0.5,240,13,,,,,,TRUE,TRUE,,,,,,,,,,,,,,,,,,,,,,,,,,,METAR,937.0
CXCS 120700Z AUTO 16008KT M13/M15 RMK AO1 T11341152,CXCS,2015-02-12T07:00:00Z,51.93,-110.72,-13.4,-15.2,160,8,,,,,,TRUE,TRUE,,,,,,,,,,,,,,,,,,,,,,,,,,,METAR,772.0
CZHY 120700Z AUTO 00000KT M19/M22 RMK AO1 SOG 30 8007 SLP169 T11891218,CZHY,2015-02-12T07:00:00Z,60.83,-115.78,-18.9,-21.8,0,0,,,,1016.9,,TRUE,TRUE,,,,,,,,,,,,,,,,,,,,,,,,,,,METAR,164.0
OLBA 120700Z 15012KT 6000 RA FEW020CB BKN023 10/05 Q1016,OLBA,2015-02-12T07:00:00Z,33.82,35.47,10.0,5.0,150,12,,3.73,30.0,,,,,,,,,,RA,FEW,2000,BKN,2300,,,,,MVFR,,,,,,,,,,,,METAR,19.0
FXMM 120700Z 04004KT 9999 BKN/// 24/15 Q1025 NOSIG,FXMM,2015-02-12T07:00:00Z,-29.47,27.55,24.0,15.0,40,4,,6.21,30.265747,,,,,,TRUE,,,,,,,,,,,,,,,,,,,,,,,,,METAR,1631.0
FLSK 120700Z 00000KT 9000 FU NSC 23/19 Q1020 NOSIG,FLSK,2015-02-12T07:00:00Z,-13.0,28.67,23.0,19.0,0,0,,5.59,30.11811,,,,,,TRUE,,,,FU,,,,,,,,,,,,,,,,,,,,,METAR,1261.0
FLHN 120700Z 10003KT 9999 FEW025 SCT100 25/18 Q1019 NOSIG,FLHN,2015-02-12T07:00:00Z,-17.82,25.82,25.0,18.0,100,3,,6.21,30.088583,,,,,,TRUE,,,,,FEW,2500,SCT,10000,,,,,VFR,,,,,,,,,,,,METAR,986.0
RPLI 120700Z 36012G22KT 9999 FEW019 SCT100 26/17 Q1012 NOSIG RMK A2988,RPLI,2015-02-12T07:00:00Z,18.17,120.52,26.0,17.0,360,12,22,6.21,29.88189,,,,,,TRUE,,,,,FEW,1900,SCT,10000,,,,,VFR,,,,,,,,,,,,METAR,5.0
ZYHB 120700Z 35005MPS 310V010 CAVOK M09/M15 Q1013 NOSIG,ZYHB,2015-02-12T07:00:00Z,45.62,126.25,-9.0,-15.0,350,10,,6.21,29.911417,,,,,,TRUE,,,,,CAVOK,,,,,,,,VFR,,,,,,,,,,,,METAR,140.0
ZYCC 120700Z 30006MPS 270V330 9999 FEW030 M04/M15 Q1013 NOSIG,ZYCC,2015-02-12T07:00:00Z,43.98,125.68,-4.0,-15.0,300,12,,6.21,29.911417,,,,,,TRUE,,,,,FEW,3000,,,,,,,VFR,,,,,,,,,,,,METAR,238.0
ZUCK 120700Z 35004MPS 300V060 6000 NSC 17/04 Q1014 NOSIG,ZUCK,2015-02-12T07:00:00Z,29.72,106.63,17.0,4.0,350,8,,3.73,29.940945,,,,,,TRUE,,,,,,,,,,,,,,,,,,,,,,,,,METAR,351.0
ZSOF 120700Z 31002MPS 270V340 CAVOK 16/M05 Q1017 NOSIG,ZSOF,2015-02-12T07:00:00Z,31.78,117.3,16.0,-5.0,310,4,,6.21,30.029528,,,,,,TRUE,,,,,CAVOK,,,,,,,,VFR,,,,,,,,,,,,METAR,33.0
ZSNJ 120700Z VRB02MPS 6000 SCT040 15/M08 Q1017 NOSIG,ZSNJ,2015-02-12T07:00:00Z,31.75,118.87,15.0,-8.0,0,4,,3.73,30.029528,,,,,,TRUE,,,,,SCT,4000,,,,,,,MVFR,,,,,,,,,,,,METAR,33.0
ZLLL 120700Z 17004MPS 120V220 CAVOK 09/M19 Q1016 NOSIG,ZLLL,2015-02-12T07:00:00Z,36.52,103.62,9.0,-19.0,170,8,,6.21,30.0,,,,,,TRUE,,,,,CAVOK,,,,,,,,VFR,,,,,,,,,,,,METAR,1947.0
ZJSY 120700Z 17003MPS 130V220 9999 FEW030 BKN060 24/17 Q1015 NOSIG,ZJSY,2015-02-12T07:00:00Z,18.3,109.42,24.0,17.0,170,6,,6.21,29.970472,,,,,,TRUE,,,,,FEW,3000,BKN,6000,,,,,VFR,,,,,,,,,,,,METAR,27.0
ZJHK 120700Z 06002MPS 5000 HZ FEW026 BKN040 21/13 Q1016 NOSIG,ZJHK,2015-02-12T07:00:00Z,19.93,110.47,21.0,13.0,60,4,,3.11,30.0,,,,,,TRUE,,,,HZ,FEW,2600,BKN,4000,,,,,MVFR,,,,,,,,,,,,METAR,23.0
ZHHH 120700Z 21004MPS 170V240 5000 HZ NSC 18/03 Q1016 NOSIG,ZHHH,2015-02-12T07:00:00Z,30.78,114.22,18.0,3.0,210,8,,3.11,30.0,,,,,,TRUE,,,,HZ,,,,,,,,,,,,,,,,,,,,,METAR,23.0
ZHCC 120700Z 15003MPS 120V190 CAVOK 14/M11 Q1015 NOSIG,ZHCC,2015-02-12T07:00:00Z,34.52,113.83,14.0,-11.0,150,6,,6.21,29.970472,,,,,,TRUE,,,,,CAVOK,,,,,,,,VFR,,,,,,,,,,,,METAR,111.0
ZGHA 120700Z 20003MPS 120V240 8000 NSC 21/M01 Q1016 NOSIG,ZGHA,2015-02-12T07:00:00Z,28.18,113.22,21.0,-1.0,200,6,,4.97,30.0,,,,,,TRUE,,,,,,,,,,,,,,,,,,,,,,,,,METAR,66.0
ZBHH 120700Z 33005MPS 9999 FEW040 03/M15 Q1014 NOSIG,ZBHH,2015-02-12T07:00:00Z,40.85,111.82,3.0,-15.0,330,10,,6.21,29.940945,,,,,,TRUE,,,,,FEW,4000,,,,,,,VFR,,,,,,,,,,,,METAR,1065.0
FAVV 120700Z AUTO /////KT //// // ////// 23/15 Q1025,FAVV,2015-02-12T07:00:00Z,-26.57,27.97,23.0,15.0,,,,,30.265747,,,TRUE,,,,,,,,,,,,,,,,,,,,,,,,,,,,METAR,1483.0
FASI 120700Z AUTO /////KT //// // ////// 21/15 Q1025,FASI,2015-02-12T07:00:00Z,-26.25,28.4,21.0,15.0,,,,,30.265747,,,TRUE,,,,,,,,,,,,,,,,,,,,,,,,,,,,METAR,1628.0
FAGC 120700Z AUTO 36009KT //// // ////// 21/13 Q1025,FAGC,2015-02-12T07:00:00Z,-25.98,28.13,21.0,13.0,360,9,,,30.265747,,,TRUE,,,,,,,,,,,,,,,,,,,,,,,,,,,,METAR,1623.0
DTTR 120700Z 07012KT 8000 NSC 09/01 Q1017,DTTR,2015-02-12T07:00:00Z,31.7,9.27,9.0,1.0,70,12,,4.97,30.029528,,,,,,,,,,,,,,,,,,,,,,,,,,,,,,,SPECI,259.0
SUMU 120700Z 01008KT CAVOK 19/13 Q1011 NOSIG,SUMU,2015-02-12T07:00:00Z,-34.82,-56.0,19.0,13.0,10,8,,6.21,29.852362,,,,,,TRUE,,,,,CAVOK,,,,,,,,VFR,,,,,,,,,,,,METAR,32.0
SULS 120700Z 02005KT CAVOK 18/13 Q1011,SULS,2015-02-12T07:00:00Z,-34.87,-55.1,18.0,13.0,20,5,,6.21,29.852362,,,,,,,,,,,CAVOK,,,,,,,,VFR,,,,,,,,,,,,METAR,30.0
SLVR 120700Z VRB02KT 9999 SCT070 BKN200 20/20 Q1014,SLVR,2015-02-12T07:00:00Z,-17.63,-63.12,20.0,20.0,0,2,,6.21,29.940945,,,,,,,,,,,SCT,7000,BKN,20000,,,,,VFR,,,,,,,,,,,,METAR,373.0
SLLP 120700Z VRB02KT 8000 -RA FEW003 SCT012 OVC070 06/05 Q1038,SLLP,2015-02-12T07:00:00Z,-16.52,-68.17,6.0,5.0,0,2,,4.97,30.649607,,,,,,,,,,-RA,FEW,300,SCT,1200,OVC,7000,,,MVFR,,,,,,,,,,,,METAR,4014.0
SLCB 120700Z 00000KT 9999 SCT025 FEW027CB OVC070 15/14 Q1026,SLCB,2015-02-12T07:00:00Z,-17.42,-66.18,15.0,14.0,0,0,,6.21,30.295275,,,,,,,,,,,SCT,2500,FEW,2700,OVC,7000,,,VFR,,,,,,,,,,,,METAR,2548.0
RPVM 120700Z 03012KT 9999 FEW020 BKN100 28/25 Q1009 RMK A2980,RPVM,2015-02-12T07:00:00Z,10.32,123.98,28.0,25.0,30,12,,6.21,29.793306,,,,,,,,,,,FEW,2000,BKN,10000,,,,,VFR,,,,,,,,,,,,METAR,10.0
RPMZ 120700Z 16002KT 9999 SCT017CB 33/25 Q1010 RMK A2983 CB NW-NE,RPMZ,2015-02-12T07:00:00Z,6.92,122.07,33.0,25.0,160,2,,6.21,29.822834,,,,,,,,,,,SCT,1700,,,,,,,VFR,,,,,,,,,,,,METAR,6.0
RPMD 120700Z 15008KT 9999 FEW016 31/23 Q1008 RMK A2977,RPMD,2015-02-12T07:00:00Z,7.12,125.65,31.0,23.0,150,8,,6.21,29.763779,,,,,,,,,,,FEW,1600,,,,,,,VFR,,,,,,,,,,,,METAR,18.0
RPLL 120700Z 28007KT 250V310 9999 FEW025 SCT300 30/19 Q1010 NOSIG RMK A2983,RPLL,2015-02-12T07:00:00Z,14.52,121.0,30.0,19.0,280,7,,6.21,29.822834,,,,,,TRUE,,,,,FEW,2500,SCT,30000,,,,,VFR,,,,,,,,,,,,METAR,21.0
RPLB 120700Z 22009KT 9999 FEW020 30/19 Q1009 NOSIG RMK A2980,RPLB,2015-02-12T07:00:00Z,14.8,120.27,30.0,19.0,220,9,,6.21,29.793306,,,,,,TRUE,,,,,FEW,2000,,,,,,,VFR,,,,,,,,,,,,METAR,17.0
DTTN 120700Z 16002KT CAVOK 05/04 Q1020,DTTN,2015-02-12T07:00:00Z,36.47,8.8,5.0,4.0,160,2,,6.21,30.11811,,,,,,,,,,,CAVOK,,,,,,,,VFR,,,,,,,,,,,,METAR,144.0
DTTL 120700Z 00000KT 8000 FEW020 08/08 Q1021,DTTL,2015-02-12T07:00:00Z,36.85,11.07,8.0,8.0,0,0,,4.97,30.147638,,,,,,,,,,,FEW,2000,,,,,,,MVFR,,,,,,,,,,,,METAR,30.0
DTTK 120700Z 00000KT CAVOK 05/01 Q1020,DTTK,2015-02-12T07:00:00Z,35.67,10.08,5.0,1.0,0,0,,6.21,30.11811,,,,,,,,,,,CAVOK,,,,,,,,VFR,,,,,,,,,,,,METAR,68.0
DTTD 120700Z 35002KT 4000 BR SCT020 06/02 Q1019,DTTD,2015-02-12T07:00:00Z,32.32,10.4,6.0,2.0,350,2,,2.49,30.088583,,,,,,,,,,BR,SCT,2000,,,,,,,IFR,,,,,,,,,,,,METAR,301.0
DTTB 120700Z 00000KT 0300 FG FEW020 04/04 Q1021,DTTB,2015-02-12T07:00:00Z,37.25,9.8,4.0,4.0,0,0,,0.19,30.147638,,,,,,,,,,FG,FEW,2000,,,,,,,LIFR,,,,,,,,,,,,METAR,3.0
OJAQ 120700Z 00000KT 4000 HZ 12/M04 Q1019 NOSIG,OJAQ,2015-02-12T07:00:00Z,29.62,35.02,12.0,-4.0,0,0,,2.49,30.088583,,,,,,TRUE,,,,HZ,,,,,,,,,,,,,,,,,,,,,METAR,51.0
OJAM 120700Z 26021KT 3000 DU SCT030 05/M02 Q1016 NOSIG,OJAM,2015-02-12T07:00:00Z,31.97,35.97,5.0,-2.0,260,21,,1.86,30.0,,,,,,TRUE,,,,DU,SCT,3000,,,,,,,IFR,,,,,,,,,,,,METAR,773.0
OJAI 120700Z 23018KT 2000 DU SCT035 05/M02 Q1017 NOSIG,OJAI,2015-02-12T07:00:00Z,31.72,36.0,5.0,-2.0,230,18,,1.24,30.029528,,,,,,TRUE,,,,DU,SCT,3500,,,,,,,IFR,,,,,,,,,,,,METAR,730.0
DTTX 120700Z 31004KT 0250 FG FEW026 06/05 Q1020 NOSIG,DTTX,2015-02-12T07:00:00Z,34.72,10.67,6.0,5.0,310,4,,0.16,30.11811,,,,,,TRUE,,,,FG,FEW,2600,,,,,,,LIFR,,,,,,,,,,,,METAR,23.0
DTTG 120700Z 08005KT 8000 FEW030 05/02 Q1020 NODIG,DTTG,2015-02-12T07:00:00Z,33.73,9.92,5.0,2.0,80,5,,4.97,30.11811,,,,,,,,,,,FEW,3000,,,,,,,MVFR,,,,,,,,,,,,SPECI,5.0
LEBG 120700Z 04001KT 6000 BKN035 M03/M03 Q1018,LEBG,2015-02-12T07:00:00Z,42.37,-3.62,-3.0,-3.0,40,1,,3.73,30.059055,,,,,,,,,,,BKN,3500,,,,,,,MVFR,,,,,,,,,,,,METAR,891.0
LECV 120700Z VRB01KT 9999 FEW012 02/01 Q1018,LECV,2015-02-12T07:00:00Z,40.63,-3.72,2.0,1.0,0,1,,6.21,30.059055,,,,,,,,,,,FEW,1200,,,,,,,VFR,,,,,,,,,,,,METAR,710.0
LELO 120700Z 00000KT 4000 BR NSC M00/M00 Q1020,LELO,2015-02-12T07:00:00Z,42.45,-2.32,0.0,0.0,0,0,,2.49,30.11811,,,,,,,,,,BR,,,,,,,,,,,,,,,,,,,,,METAR,363.0
LEEC 120700Z 02004KT 9999 SCT037 09/07 Q1018,LEEC,2015-02-12T07:00:00Z,37.32,-6.0,9.0,7.0,20,4,,6.21,30.059055,,,,,,,,,,,SCT,3700,,,,,,,VFR,,,,,,,,,,,,METAR,7.0
LEBT 120700Z AUTO 00000KT 9999 // SCT044/// 07/06 Q1020,LEBT,2015-02-12T07:00:00Z,39.58,-0.45,7.0,6.0,0,0,,6.21,30.11811,,,TRUE,,,,,,,,,,,,,,,,,,,,,,,,,,,,METAR,50.0
SBBE 120700Z 12002KT CAVOK 25/23 Q1012,SBBE,2015-02-12T07:00:00Z,-1.37,-48.47,25.0,23.0,120,2,,6.21,29.88189,,,,,,,,,,,CAVOK,,,,,,,,VFR,,,,,,,,,,,,SPECI,16.0
GMMZ 120700Z VRB03KT CAVOK 10/03 Q1017 NOSIG,GMMZ,2015-02-12T07:00:00Z,30.92,-6.9,10.0,3.0,0,3,,6.21,30.029528,,,,,,TRUE,,,,,CAVOK,,,,,,,,VFR,,,,,,,,,,,,METAR,1140.0
DAMH 120700Z 01012KT CAVOK 10/M04 Q1013,DAMH,2015-02-12T07:00:00Z,29.23,6.5,10.0,-4.0,10,12,,6.21,29.911417,,,,,,,,,,,CAVOK,,,,,,,,VFR,,,,,,,,,,,,METAR,294.0
DAUU 120700Z 05014KT CAVOK 08/M05 Q1016,DAUU,2015-02-12T07:00:00Z,31.92,5.4,8.0,-5.0,50,14,,6.21,30.0,,,,,,,,,,,CAVOK,,,,,,,,VFR,,,,,,,,,,,,METAR,141.0
DAUT 120700Z 04006KT 8000 NSC 07/M09 Q1016,DAUT,2015-02-12T07:00:00Z,29.25,0.27,7.0,-9.0,40,6,,4.97,30.0,,,,,,,,,,,,,,,,,,,,,,,,,,,,,,,METAR,312.0
DAUO 120700Z 040//KT 9999 FEW040 05/M03 Q1019,DAUO,2015-02-12T07:00:00Z,33.5,6.78,5.0,-3.0,,,,6.21,30.088583,,,,,,,,,,,FEW,4000,,,,,,,VFR,,,,,,,,,,,,METAR,63.0
DAUL 120700Z 00000KT 9999 SCT033 SCT200 03/M02 Q1019,DAUL,2015-02-12T07:00:00Z,33.77,2.92,3.0,-2.0,0,0,,6.21,30.088583,,,,,,,,,,,SCT,3300,SCT,20000,,,,,VFR,,,,,,,,,,,,METAR,765.0
DAUK 120700Z 36006KT CAVOK 06/M02 Q1018,DAUK,2015-02-12T07:00:00Z,33.08,6.12,6.0,-2.0,360,6,,6.21,30.059055,,,,,,,,,,,CAVOK,,,,,,,,VFR,,,,,,,,,,,,METAR,85.0
DAUE 120700Z 36006KT CAVOK 09/M03 Q1017,DAUE,2015-02-12T07:00:00Z,30.57,2.87,9.0,-3.0,360,6,,6.21,30.029528,,,,,,,,,,,CAVOK,,,,,,,,VFR,,,,,,,,,,,,METAR,397.0
DAUB 120700Z 36008KT 9999 SCT040 SCT100 10/03 Q1018,DAUB,2015-02-12T07:00:00Z,34.78,5.72,10.0,3.0,360,8,,6.21,30.059055,,,,,,,,,,,SCT,4000,SCT,10000,,,,,VFR,,,,,,,,,,,,METAR,87.0
DATM 120700Z 00000KT 6000 NSC 19/05 Q1014,DATM,2015-02-12T07:00:00Z,21.38,0.92,19.0,5.0,0,0,,3.73,29.940945,,,,,,,,,,,,,,,,,,,,,,,,,,,,,,,METAR,396.0
DAOV 120700Z 24005KT 9999 SCT033 SCT233 05/02 Q1017,DAOV,2015-02-12T07:00:00Z,35.2,0.15,5.0,2.0,240,5,,6.21,30.029528,,,,,,,,,,,SCT,3300,SCT,23300,,,,,VFR,,,,,,,,,,,,METAR,514.0
DAOR 120700Z 00000KT CAVOK 04/M01 Q1019,DAOR,2015-02-12T07:00:00Z,31.65,-2.27,4.0,-1.0,0,0,,6.21,30.088583,,,,,,,,,,,CAVOK,,,,,,,,VFR,,,,,,,,,,,,METAR,773.0
DAOI 120700Z 04010KT CAVOK 09/02 Q1018,DAOI,2015-02-12T07:00:00Z,36.22,1.32,9.0,2.0,40,10,,6.21,30.059055,,,,,,,,,,,CAVOK,,,,,,,,VFR,,,,,,,,,,,,METAR,143.0
DAOF 120700Z 01004KT CAVOK 08/02 Q1018,DAOF,2015-02-12T07:00:00Z,27.7,-8.17,8.0,2.0,10,4,,6.21,30.059055,,,,,,,,,,,CAVOK,,,,,,,,VFR,,,,,,,,,,,,METAR,431.0
DAOB 120700Z 00000KT 9999 SCT023 SCT216 04/02 Q1017,DAOB,2015-02-12T07:00:00Z,35.33,1.47,4.0,2.0,0,0,,6.21,30.029528,,,,,,,,,,,SCT,2300,SCT,21600,,,,,VFR,,,,,,,,,,,,METAR,989.0
DAFH 120700Z 06008KT CAVOK 03/M03 Q1018,DAFH,2015-02-12T07:00:00Z,32.93,3.32,3.0,-3.0,60,8,,6.21,30.059055,,,,,,,,,,,CAVOK,,,,,,,,VFR,,,,,,,,,,,,METAR,774.0
DAEN 120700Z 00000KT 8000 NSC 09/M05 Q1013,DAEN,2015-02-12T07:00:00Z,29.73,6.72,9.0,-5.0,0,0,,4.97,29.911417,,,,,,,,,,,,,,,,,,,,,,,,,,,,,,,METAR,252.0
DAEF 120700Z 07006KT CAVOK 13/M06 Q1013,DAEF,2015-02-12T07:00:00Z,28.43,7.55,13.0,-6.0,70,6,,6.21,29.911417,,,,,,,,,,,CAVOK,,,,,,,,VFR,,,,,,,,,,,,METAR,472.0
DABT 120700Z 00000KT CAVOK 01/M02 Q1020,DABT,2015-02-12T07:00:00Z,35.75,6.32,1.0,-2.0,0,0,,6.21,30.11811,,,,,,,,,,,CAVOK,,,,,,,,VFR,,,,,,,,,,,,METAR,1052.0
DAAY 120700Z 00000KT 8000 FEW033 SCT100 02/02 Q1019,DAAY,2015-02-12T07:00:00Z,33.53,-0.25,2.0,2.0,0,0,,4.97,30.088583,,,,,,,,,,,FEW,3300,SCT,10000,,,,,MVFR,,,,,,,,,,,,METAR,1149.0
DAAV 120700Z 00000KT CAVOK 08/04 Q1018,DAAV,2015-02-12T07:00:00Z,36.8,5.88,8.0,4.0,0,0,,6.21,30.059055,,,,,,,,,,,CAVOK,,,,,,,,VFR,,,,,,,,,,,,METAR,11.0
DAAS 120700Z 36003KT 9999 FEW030 SCT100 02/M01 Q1020,DAAS,2015-02-12T07:00:00Z,36.18,5.33,2.0,-1.0,360,3,,6.21,30.11811,,,,,,,,,,,FEW,3000,SCT,10000,,,,,VFR,,,,,,,,,,,,METAR,1038.0
DAAP 120700Z 19012KT 7000 FEW046 SCT100 21/M00 Q1013,DAAP,2015-02-12T07:00:00Z,26.72,8.62,21.0,0.0,190,12,,4.35,29.911417,,,,,,,,,,,FEW,4600,SCT,10000,,,,,MVFR,,,,,,,,,,,,METAR,558.0
DAAJ 120700Z 00000KT CAVOK 12/04 Q1022,DAAJ,2015-02-12T07:00:00Z,24.28,9.47,12.0,4.0,0,0,,6.21,30.177166,,,,,,,,,,,CAVOK,,,,,,,,VFR,,,,,,,,,,,,METAR,968.0
DAAE 120700Z 26007KT CAVOK 08/04 Q1019,DAAE,2015-02-12T07:00:00Z,36.72,5.07,8.0,4.0,260,7,,6.21,30.088583,,,,,,,,,,,CAVOK,,,,,,,,VFR,,,,,,,,,,,,METAR,2.0
DAAD 120700Z 00000KT 8000 BKN040 06/01 Q1020,DAAD,2015-02-12T07:00:00Z,35.32,4.2,6.0,1.0,0,0,,4.97,30.11811,,,,,,,,,,,BKN,4000,,,,,,,MVFR,,,,,,,,,,,,METAR,461.0
FAKM 120700Z 35016KT CAVOK 29/11 Q1018,FAKM,2015-02-12T07:00:00Z,-28.8,24.77,29.0,11.0,350,16,,6.21,30.059055,,,,,,,,,,,CAVOK,,,,,,,,VFR,,,,,,,,,,,,METAR,1192.0
FAWK 120700Z AUTO 02008KT //// // ////// 25/16 Q////,FAWK,2015-02-12T07:00:00Z,-25.82,28.22,25.0,16.0,20,8,,,,,,TRUE,,,,,,,,,,,,,,,,,,,,,,,,,,,,METAR,1500.0
FAWB 120700Z AUTO 04008KT //// 24/14 Q1022,FAWB,2015-02-12T07:00:00Z,-25.63,28.22,24.0,14.0,40,8,,,30.177166,,,TRUE,,,,,,,,,,,,,,,,,,,,,,,,,,,,METAR,1248.0
DAUZ 120700Z 08010KT CAVOK 10/M07 Q1014,DAUZ,2015-02-12T07:00:00Z,28.05,9.62,10.0,-7.0,80,10,,6.21,29.940945,,,,,,,,,,,CAVOK,,,,,,,,VFR,,,,,,,,,,,,SPECI,562.0
DAUG 120700Z 02012KT CAVOK 07/M06 Q1018,DAUG,2015-02-12T07:00:00Z,32.37,3.82,7.0,-6.0,20,12,,6.21,30.059055,,,,,,,,,,,CAVOK,,,,,,,,VFR,,,,,,,,,,,,SPECI,450.0
DAUA 120700Z 35014KT 8000 NSC 08/M03 Q1015,DAUA,2015-02-12T07:00:00Z,27.83,-0.18,8.0,-3.0,350,14,,4.97,29.970472,,,,,,,,,,,,,,,,,,,,,,,,,,,,,,,METAR,263.0
DTKA 120700Z 06007KT CAVOK 07/03 Q1019 NOSIG,DTKA,2015-02-12T07:00:00Z,36.98,8.88,7.0,3.0,60,7,,6.21,30.088583,,,,,,TRUE,,,,,CAVOK,,,,,,,,VFR,,,,,,,,,,,,METAR,21.0
CYUA 120700Z AUTO 17003KT 9SM CLR M37/ A3026 RMK SLP258,CYUA,2015-02-12T07:00:00Z,68.95,-137.28,-37.0,,170,3,,9.0,30.259842,1025.8,,TRUE,,,,,,,,CLR,,,,,,,,VFR,,,,,,,,,,,,SPECI,38.0
CYQD 120700Z 16005KT 15SM FEW005 OVC031 M25/M29 A3059 RMK SF1SC8 SF TR SLP396,CYQD,2015-02-12T07:00:00Z,53.97,-101.08,-25.0,-29.0,160,5,,15.0,30.590551,1039.6,,,,,,,,,,FEW,500,OVC,3100,,,,,VFR,,,,,,,,,,,,SPECI,271.0
CYKY 120700Z 14011KT 15SM OVC028 M18/M20 A3016 RMK SC8 SLP278,CYKY,2015-02-12T07:00:00Z,51.52,-109.17,-18.0,-20.0,140,11,,15.0,30.159449,1027.8,,,,,,,,,,OVC,2800,,,,,,,MVFR,,,,,,,,,,,,SPECI,694.0
CYHE 120700Z AUTO 09005KT 9SM OVC100 07/07 A3022 RMK SLP233,CYHE,2015-02-12T07:00:00Z,49.37,-121.5,7.0,7.0,90,5,,9.0,30.221457,1023.3,,TRUE,,,,,,,,OVC,10000,,,,,,,VFR,,,,,,,,,,,,SPECI,39.0
CYEV 120700Z 08009KT 15SM IC SKC M34/M38 A3029 RMK SLP270,CYEV,2015-02-12T07:00:00Z,68.32,-133.5,-34.0,-38.0,80,9,,15.0,30.28937,1027.0,,,,,,,,,IC,SKC,,,,,,,,VFR,,,,,,,,,,,,SPECI,68.0
CYDQ 120700Z AUTO 08007KT 9SM BKN120 M07/M08 A2989 RMK SLP172,CYDQ,2015-02-12T07:00:00Z,55.75,-120.17,-7.0,-8.0,80,7,,9.0,29.890747,1017.2,,TRUE,,,,,,,,BKN,12000,,,,,,,VFR,,,,,,,,,,,,METAR,655.0
CYDB 120700Z AUTO VRB02KT 9SM OVC009 M23/M26 A2967 RMK SLP136,CYDB,2015-02-12T07:00:00Z,61.37,-139.05,-23.0,-26.0,0,2,,9.0,29.66929,1013.6,,TRUE,,,,,,,,OVC,900,,,,,,,IFR,,,,,,,,,,,,SPECI,801.0
CZCP 120700Z AUTO 00000KT 9SM CLR M33/ A3031 RMK SLP282,CZCP,2015-02-12T07:00:00Z,70.17,-124.72,-33.0,,0,0,,9.0,30.31004,1028.2,,TRUE,,,,,,,,CLR,,,,,,,,VFR,,,,,,,,,,,,SPECI,93.0
CZBF 120700Z 00000KT 15SM -SHSN BKN015 M22/M25 A3004 RMK SC7 SLP178,CZBF,2015-02-12T07:00:00Z,47.62,-65.75,-22.0,-25.0,0,0,,15.0,30.041338,1017.8,,,,,,,,,-SHSN,BKN,1500,,,,,,,MVFR,,,,,,,,,,,,METAR,59.0
CWZZ 120700Z AUTO 27009KT M30/ A2978 RMK SLP158,CWZZ,2015-02-12T07:00:00Z,58.32,-62.57,-30.0,,270,9,,,29.778543,1015.8,,TRUE,,,,,,,,,,,,,,,,,,,,,,,,,,,,SPECI,483.0
CWYK 120700Z AUTO ///// M29/ A2961 RMK SLP136,CWYK,2015-02-12T07:00:00Z,57.12,-61.47,-29.0,,,,,,29.610237,1013.6,,TRUE,,,,,,,,,,,,,,,,,,,,,,,,,,,,METAR,834.0
CWVH 120700Z AUTO 11004KT M28/ A3019 RMK SLP267,CWVH,2015-02-12T07:00:00Z,68.9,-133.93,-28.0,,110,4,,,30.188976,1026.7,,TRUE,,,,,,,,,,,,,,,,,,,,,,,,,,,,SPECI,261.0
CWUW 120700Z AUTO 31004KT 9SM CLR M29/ A2977 RMK SLP168,CWUW,2015-02-12T07:00:00Z,68.65,-71.17,-29.0,,310,4,,9.0,29.769686,1016.8,,TRUE,,,,,,,,CLR,,,,,,,,VFR,,,,,,,,,,,,SPECI,527.0
CWUP 120700Z AUTO ///// M29/ A2982 RMK SLP160,CWUP,2015-02-12T07:00:00Z,68.47,-66.82,-29.0,,,,,,29.819881,1016.0,,TRUE,,,,,,,,,,,,,,,,,,,,,,,,,,,,SPECI,390.0
CWRX 120700Z AUTO 31011KT M37/ A3011,CWRX,2015-02-12T07:00:00Z,69.07,-79.02,-37.0,,310,11,,,30.109253,,,TRUE,,,,,,,,,,,,,,,,,,,,,,,,,,,,METAR,41.0
CWPX 120700Z AUTO 34014KT M34/ A3010 RMK SLP232,CWPX,2015-02-12T07:00:00Z,69.02,-107.82,-34.0,,340,14,,,30.100393,1023.2,,TRUE,,,,,,,,,,,,,,,,,,,,,,,,,,,,METAR,165.0
CWLY 120700Z AUTO VRB04KT 9SM FEW023 BKN090 05/03 A3016 RMK SLP218,CWLY,2015-02-12T07:00:00Z,50.22,-121.58,5.0,3.0,0,4,,9.0,30.159449,1021.8,,TRUE,,,,,,,,FEW,2300,BKN,9000,,,,,VFR,,,,,,,,,,,,SPECI,229.0
CWLX 120700Z AUTO 33017KT M34/ A2998 RMK SLP184,CWLX,2015-02-12T07:00:00Z,68.9,-75.15,-34.0,,330,17,,,29.97933,1018.4,,TRUE,,,,,,,,,,,,,,,,,,,,,,,,,,,,SPECI,162.0
CWLI 120700Z AUTO 26007KT M32/ A3029 RMK SLP282,CWLI,2015-02-12T07:00:00Z,69.58,-130.9,-32.0,,260,7,,,30.28937,1028.2,,TRUE,,,,,,,,,,,,,,,,,,,,,,,,,,,,SPECI,102.0
CWKW 120700Z AUTO ///// M33/ A2971 RMK SLP148,CWKW,2015-02-12T07:00:00Z,59.97,-64.17,-33.0,,,,,,29.71063,1014.8,,TRUE,,,,,,,,,,,,,,,,,,,,,,,,,,,,SPECI,551.0
CWKM 120700Z AUTO 08019KT M30/ A3019 RMK SLP230,CWKM,2015-02-12T07:00:00Z,69.6,-140.17,-30.0,,80,19,,,30.188976,1023.0,,TRUE,,,,,,,,,,,,,,,,,,,,,,,,,,,,SPECI,13.0
CWIL 120700Z AUTO 28007KT M31/ A3013 RMK SLP214,CWIL,2015-02-12T07:00:00Z,68.32,-100.07,-31.0,,280,7,,,30.129921,1021.4,,TRUE,,,,,,,,,,,,,,,,,,,,,,,,,,,,SPECI,36.0
CWCA 120700Z 15005KT 15SM FEW070 M29/M33 A3022 RMK AC1 TR AC SLP235,CWCA,2015-02-12T07:00:00Z,53.7,-57.02,-29.0,-33.0,150,5,,15.0,30.221457,1023.5,,,,,,,,,,FEW,7000,,,,,,,VFR,,,,,,,,,,,,SPECI,14.0
CZPC 120700Z AUTO 25017G22KT 9SM FEW180 06/M00 A3008 RMK PRESRR SLP230,CZPC,2015-02-12T07:00:00Z,49.52,-114.0,6.0,0.0,250,17,22,9.0,30.079725,1023.0,,TRUE,,,,,,,,FEW,18000,,,,,,,VFR,,,,,,,,,,,,SPECI,1190.0
CYPD 120700Z AUTO 02004KT 350V060 9SM OVC017 M06/M08 A2973 RMK PRESFR SLP075,CYPD,2015-02-12T07:00:00Z,45.67,-61.37,-6.0,-8.0,20,4,,9.0,29.731298,1007.5,,TRUE,,,,,,,,OVC,1700,,,,,,,MVFR,,,,,,,,,,,,METAR,114.0
CWYM 120700Z AUTO 27005KT M29/ A2957 RMK SLP106,CWYM,2015-02-12T07:00:00Z,64.95,-63.57,-29.0,,270,5,,,29.568897,1010.6,,TRUE,,,,,,,,,,,,,,,,,,,,,,,,,,,,SPECI,583.0
CWXR 120700Z AUTO 30007KT M32/ A3029 RMK SLP275,CWXR,2015-02-12T07:00:00Z,69.27,-119.22,-32.0,,300,7,,,30.28937,1027.5,,TRUE,,,,,,,,,,,,,,,,,,,,,,,,,,,,SPECI,69.0
CWTU 120700Z AUTO 29013KT M27/ A2982 RMK SLP187,CWTU,2015-02-12T07:00:00Z,54.72,-58.35,-27.0,,290,13,,,29.819881,1018.7,,TRUE,,,,,,,,,,,,,,,,,,,,,,,,,,,,SPECI,683.0
CWRH 120700Z AUTO ///// M29/ A2979 RMK SLP151,CWRH,2015-02-12T07:00:00Z,61.57,-64.65,-29.0,,,,,,29.790354,1015.1,,TRUE,,,,,,,,,,,,,,,,,,,,,,,,,,,,SPECI,369.0
CWKP 120700Z AUTO 30003KT M31/ A3013 RMK SLP266,CWKP,2015-02-12T07:00:00Z,69.67,-121.67,-31.0,,300,3,,,30.129921,1026.6,,TRUE,,,,,,,,,,,,,,,,,,,,,,,,,,,,METAR,330.0
CWEU 120700Z 06004KT 15SM SKC M40/M44 A3015 RMK SLP214,CWEU,2015-02-12T07:00:00Z,80.0,-85.92,-40.0,-44.0,60,4,,15.0,30.15059,1021.4,,,,,,,,,,SKC,,,,,,,,VFR,,,,,,,,,,,,SPECI,10.0
CYYF 120700Z 15010KT 15SM SCT032 BKN097 OVC160 09/05 A3021 RMK SC3AC4AC1 SLP239,CYYF,2015-02-12T07:00:00Z,49.47,-119.58,9.0,5.0,150,10,,15.0,30.209646,1023.9,,,,,,,,,,SCT,3200,BKN,9700,OVC,16000,,,VFR,,,,,,,,,,,,SPECI,344.0
CYYE 120700Z 27003KT 15SM SKC M25/M27 A2996 RMK SLP194,CYYE,2015-02-12T07:00:00Z,58.82,-122.57,-25.0,-27.0,270,3,,15.0,29.958662,1019.4,,,,,,,,,,SKC,,,,,,,,VFR,,,,,,,,,,,,SPECI,382.0
CYXY 120700Z 16019KT 15SM DRSN BKN230 M09/M12 A2967 RMK CI6 SLP106,CYXY,2015-02-12T07:00:00Z,60.72,-135.07,-9.0,-12.0,160,19,,15.0,29.66929,1010.6,,,,,,,,,DRSN,BKN,23000,,,,,,,VFR,,,,,,,,,,,,METAR,703.0
CYXJ 120700Z 18007KT 15SM BKN140 OVC180 M13/M15 A2989 RMK AC6AC2 SLP182,CYXJ,2015-02-12T07:00:00Z,56.25,-120.73,-13.0,-15.0,180,7,,15.0,29.890747,1018.2,,,,,,,,,,BKN,14000,OVC,18000,,,,,VFR,,,,,,,,,,,,SPECI,695.0
CYWL 120700Z 09004KT 10SM BKN050 02/02 A3006 RMK ST6 SLP211,CYWL,2015-02-12T07:00:00Z,52.18,-122.07,2.0,2.0,90,4,,10.0,30.059055,1021.1,,,,,,,,,,BKN,5000,,,,,,,VFR,,,,,,,,,,,,SPECI,940.0
CYQU 120700Z 20003KT 25SM OVC140 M11/M14 A2994 RMK AC8 SLP193,CYQU,2015-02-12T07:00:00Z,55.18,-118.88,-11.0,-14.0,200,3,,25.0,29.940945,1019.3,,,,,,,,,,OVC,14000,,,,,,,VFR,,,,,,,,,,,,SPECI,669.0
CYQH 120700Z 00000KT 20SM -SN OVC035 M20/M23 A2987 RMK SC8 SLP186,CYQH,2015-02-12T07:00:00Z,60.12,-128.82,-20.0,-23.0,0,0,,20.0,29.870079,1018.6,,,,,,,,,-SN,OVC,3500,,,,,,,VFR,,,,,,,,,,,,SPECI,690.0
CYMA 120700Z 23004KT 10SM -SN OVC045 M16/M18 A2976 RMK SC8 SLP133,CYMA,2015-02-12T07:00:00Z,63.62,-135.87,-16.0,-18.0,230,4,,10.0,29.760826,1013.3,,,,,,,,,-SN,OVC,4500,,,,,,,VFR,,,,,,,,,,,,SPECI,504.0
CYLW 120700Z AUTO 05003KT 9SM BKN034 OVC040 05/04 A3022 RMK SLP247,CYLW,2015-02-12T07:00:00Z,49.95,-119.37,5.0,4.0,50,3,,9.0,30.221457,1024.7,,TRUE,,,,,,,,BKN,3400,OVC,4000,,,,,VFR,,,,,,,,,,,,SPECI,430.0
CYKA 120700Z 09009KT 40SM BKN120 OVC240 06/04 A3016 RMK AC5CI3 SLP225,CYKA,2015-02-12T07:00:00Z,50.7,-120.45,6.0,4.0,90,9,,40.0,30.159449,1022.5,,,,,,,,,,BKN,12000,OVC,24000,,,,,VFR,,,,,,,,,,,,SPECI,346.0
CYIN 120700Z AUTO 15013KT 9SM BKN210 OVC240 02/00 A3004 RMK SLP200,CYIN,2015-02-12T07:00:00Z,51.27,-121.68,2.0,0.0,150,13,,9.0,30.041338,1020.0,,TRUE,,,,,,,,BKN,21000,OVC,24000,,,,,VFR,,,,,,,,,,,,METAR,1128.0
CYDL 120700Z AUTO 14010KT 9SM OVC070 M14/M16 A2983 RMK SLP159,CYDL,2015-02-12T07:00:00Z,58.42,-130.02,-14.0,-16.0,140,10,,9.0,29.828741,1015.9,,TRUE,,,,,,,,OVC,7000,,,,,,,VFR,,,,,,,,,,,,METAR,816.0
SAWG 120700Z 25020G30KT CAVOK 07/M01 Q1006,SAWG,2015-02-12T07:00:00Z,-51.62,-69.32,7.0,-1.0,250,20,30,6.21,29.704725,,,,,,,,,,,CAVOK,,,,,,,,VFR,,,,,,,,,,,,METAR,19.0
SAME 120700Z 00000KT CAVOK 21/12 Q1011,SAME,2015-02-12T07:00:00Z,-32.82,-68.77,21.0,12.0,0,0,,6.21,29.852362,,,,,,,,,,,CAVOK,,,,,,,,VFR,,,,,,,,,,,,METAR,704.0
UMOO 120700Z 24002MPS 0900 FZFG VV002 M01/M01 Q1027 NOSIG RMK QBB060,UMOO,2015-02-12T07:00:00Z,53.95,30.1,-1.0,-1.0,240,4,,0.56,30.324802,,,,,,TRUE,,,,FZFG,OVX,0,,,,,,,LIFR,,,,,,,,,,,200,SPECI,194.0
EIME 120700Z 17005KT 9999 OVC037 04/01 Q1018,EIME,2015-02-12T07:00:00Z,53.3,-6.45,4.0,1.0,170,5,,6.21,30.059055,,,,,,,,,,,OVC,3700,,,,,,,VFR,,,,,,,,,,,,METAR,93.0
DAUI 120700Z 00000KT CAVOK 11/M01 Q1014,DAUI,2015-02-12T07:00:00Z,27.25,2.52,11.0,-1.0,0,0,,6.21,29.940945,,,,,,,,,,,CAVOK,,,,,,,,VFR,,,,,,,,,,,,METAR,269.0
MKJP 120700Z 01012KT 9999 FEW024 23/17 Q1012,MKJP,2015-02-12T07:00:00Z,17.92,-76.78,23.0,17.0,10,12,,6.21,29.88189,,,,,,,,,,,FEW,2400,,,,,,,VFR,,,,,,,,,,,,METAR,3.0
BIVM 120700Z 01003KT 9999 -SN FEW008 SCT020 M04/M05 Q1011 R12/990242 RMK RWY 12-30 A45 B39 C42,BIVM,2015-02-12T07:00:00Z,63.42,-20.27,-4.0,-5.0,10,3,,6.21,29.852362,,,,,,,,,,-SN,FEW,800,SCT,2000,,,,,VFR,,,,,,,,,,,,METAR,124.0
YWHA 120700Z AUTO 17012KT 9999 // NCD 30/14 Q1014,YWHA,2015-02-12T07:00:00Z,-33.07,137.52,30.0,14.0,170,12,,6.21,29.940945,,,TRUE,,,,,,,,,,,,,,,,,,,,,,,,,,,,METAR,13.0
YWGT 120700Z AUTO 18003KT //// // ////// 33/10 Q1017,YWGT,2015-02-12T07:00:00Z,-36.42,146.3,33.0,10.0,180,3,,,30.029528,,,TRUE,,,,,,,,,,,,,,,,,,,,,,,,,,,,METAR,153.0
YTRE 120700Z AUTO 08013KT //// // NCD 27/18 Q1019,YTRE,2015-02-12T07:00:00Z,-31.88,152.52,27.0,18.0,80,13,,,30.088583,,,TRUE,,,,,,,,,,,,,,,,,,,,,,,,,,,,METAR,12.0
YTNK 120700Z AUTO 12013KT 9999 // SCT115 38/05 Q1008,YTNK,2015-02-12T07:00:00Z,-19.63,134.18,38.0,5.0,120,13,,6.21,29.763779,,,TRUE,,,,,,,,SCT,11500,,,,,,,VFR,,,,,,,,,,,,METAR,377.0
YTEF 120700Z AUTO 09006KT 060V130 //// // ////// 43/06 Q1006,YTEF,2015-02-12T07:00:00Z,-21.72,122.23,43.0,6.0,90,6,,,29.704725,,,TRUE,,,,,,,,,,,,,,,,,,,,,,,,,,,,METAR,296.0
RJAW 120700Z 28007KT 250V320 9999 FEW030 19/10 Q1012 RMK 1CU030 A2990,RJAW,2015-02-12T07:00:00Z,24.77,141.32,19.0,10.0,280,7,,6.21,29.88189,,,,,,,,,,,FEW,3000,,,,,,,VFR,,,,,,,,,,,,METAR,116.0
NGTT 120700Z 02013KT 9999 VCSH FEW016CB BKN300 28/24 Q1008,NGTT,2015-02-12T07:00:00Z,1.35,172.92,28.0,24.0,20,13,,6.21,29.763779,,,,,,,,,,VCSH,FEW,1600,BKN,30000,,,,,VFR,,,,,,,,,,,,METAR,2.0
DIBK 120700Z 24006KT 8000 SCT013 BKN100 22/20 Q1015 NOSIG,DIBK,2015-02-12T07:00:00Z,7.72,-5.07,22.0,20.0,240,6,,4.97,29.970472,,,,,,TRUE,,,,,SCT,1300,BKN,10000,,,,,MVFR,,,,,,,,,,,,METAR,376.0
PLCH 120700Z 12006KT 9999 FEW020 27/23 Q1009,PLCH,2015-02-12T07:00:00Z,1.98,-157.35,27.0,23.0,120,6,,6.21,29.793306,,,,,,,,,,,FEW,2000,,,,,,,VFR,,,,,,,,,,,,METAR,3.0
DFFD 120700Z 28002KT 4000 HZ NSC 24/17 Q1014 NOSIG,DFFD,2015-02-12T07:00:00Z,12.33,-1.52,24.0,17.0,280,2,,2.49,29.940945,,,,,,TRUE,,,,HZ,,,,,,,,,,,,,,,,,,,,,METAR,306.0
YBPN 120700Z AUTO 12017KT 9999 // SCT023 SCT028 28/23 Q1010,YBPN,2015-02-12T07:00:00Z,-20.5,148.55,28.0,23.0,120,17,,6.21,29.822834,,,TRUE,,,,,,,,SCT,2300,SCT,2800,,,,,VFR,,,,,,,,,,,,METAR,25.0
YBOK 120700Z 07015KT 9999 FEW033 SCT049 28/16 Q1017 NOSIG,YBOK,2015-02-12T07:00:00Z,-27.42,151.72,28.0,16.0,70,15,,6.21,30.029528,,,,,,TRUE,,,,,FEW,3300,SCT,4900,,,,,VFR,,,,,,,,,,,,METAR,407.0
YBNA 120700Z AUTO 10010KT 9999 // SCT024 26/19 Q1019,YBNA,2015-02-12T07:00:00Z,-28.83,153.57,26.0,19.0,100,10,,6.21,30.088583,,,TRUE,,,,,,,,SCT,2400,,,,,,,VFR,,,,,,,,,,,,METAR,2.0
YBMK 120700Z AUTO 14017KT 9999 // SCT019 SCT030 BKN043 27/24 Q1011,YBMK,2015-02-12T07:00:00Z,-21.17,149.17,27.0,24.0,140,17,,6.21,29.852362,,,TRUE,,,,,,,,SCT,1900,SCT,3000,BKN,4300,,,VFR,,,,,,,,,,,,METAR,31.0
YBHI 120700Z AUTO 14015KT 130V200 9999 // SCT125 38/06 Q1014,YBHI,2015-02-12T07:00:00Z,-32.0,141.47,38.0,6.0,140,15,,6.21,29.940945,,,TRUE,,,,,,,,SCT,12500,,,,,,,VFR,,,,,,,,,,,,METAR,292.0
YESP 120700Z AUTO 12009KT 9999 // NCD 26/16 Q1015,YESP,2015-02-12T07:00:00Z,-33.68,121.82,26.0,16.0,120,9,,6.21,29.970472,,,TRUE,,,,,,,,,,,,,,,,,,,,,,,,,,,,METAR,143.0
YEML 120700Z AUTO 14013KT 9999 // SCT062 SCT098 32/16 Q1012,YEML,2015-02-12T07:00:00Z,-23.57,148.18,32.0,16.0,140,13,,6.21,29.88189,,,TRUE,,,,,,,,SCT,6200,SCT,9800,,,,,VFR,,,,,,,,,,,,METAR,190.0
YDBY 120700Z AUTO 30011KT //// // ////// 36/26 Q1005,YDBY,2015-02-12T07:00:00Z,-17.37,123.67,36.0,26.0,300,11,,,29.675198,,,TRUE,,,,,,,,,,,,,,,,,,,,,,,,,,,,METAR,7.0
YCDU 120700Z AUTO 17016KT 9999 // NCD 29/16 Q1012,YCDU,2015-02-12T07:00:00Z,-32.12,133.7,29.0,16.0,170,16,,6.21,29.88189,,,TRUE,,,,,,,,,,,,,,,,,,,,,,,,,,,,METAR,15.0
YRMD 120700Z AUTO 12017KT //// // ////// 36/11 Q1007,YRMD,2015-02-12T07:00:00Z,-20.7,143.12,36.0,11.0,120,17,,,29.734253,,,TRUE,,,,,,,,,,,,,,,,,,,,,,,,,,,,METAR,207.0
VTPH 120700Z 14011KT 7000 NSC 30/22 Q1010 NOSIG,VTPH,2015-02-12T07:00:00Z,12.63,99.95,30.0,22.0,140,11,,4.35,29.822834,,,,,,TRUE,,,,,,,,,,,,,,,,,,,,,,,,,METAR,6.0
YLIS 120700Z AUTO 09008KT 9999 // SCT028 26/19 Q1018,YLIS,2015-02-12T07:00:00Z,-28.83,153.27,26.0,19.0,90,8,,6.21,30.059055,,,TRUE,,,,,,,,SCT,2800,,,,,,,VFR,,,,,,,,,,,,METAR,11.0
YLEC 120700Z AUTO 05005KT //// // ////// 39/01 Q1013,YLEC,2015-02-12T07:00:00Z,-30.6,138.43,39.0,1.0,50,5,,,29.911417,,,TRUE,,,,,,,,,,,,,,,,,,,,,,,,,,,,METAR,262.0
YKRY 120700Z AUTO 13013KT //// // ////// 25/17 Q1018,YKRY,2015-02-12T07:00:00Z,-26.57,151.83,25.0,17.0,130,13,,,30.059055,,,TRUE,,,,,,,,,,,,,,,,,,,,,,,,,,,,METAR,434.0
YHUG 120700Z AUTO 13011KT //// // ////// 35/11 Q1009,YHUG,2015-02-12T07:00:00Z,-20.82,144.23,35.0,11.0,130,11,,,29.793306,,,TRUE,,,,,,,,,,,,,,,,,,,,,,,,,,,,METAR,318.0
YGTH 120700Z AUTO 09011KT 9999 // NCD 32/14 Q1017,YGTH,2015-02-12T07:00:00Z,-34.25,146.07,32.0,14.0,90,11,,6.21,30.029528,,,TRUE,,,,,,,,,,,,,,,,,,,,,,,,,,,,METAR,134.0
SBVT 120700Z 34004KT CAVOK 23/20 Q1016,SBVT,2015-02-12T07:00:00Z,-20.27,-40.27,23.0,20.0,340,4,,6.21,30.0,,,,,,,,,,,CAVOK,,,,,,,,VFR,,,,,,,,,,,,METAR,4.0
SYCJ 120700Z 00000KT 2000 BR FEW015 23/23 Q1012 NOSIG,SYCJ,2015-02-12T07:00:00Z,6.5,-58.25,23.0,23.0,0,0,,1.24,29.88189,,,,,,TRUE,,,,BR,FEW,1500,,,,,,,IFR,,,,,,,,,,,,METAR,30.0
SBSN 120700Z 10008KT 9999 SCT013 FEW025TCU BKN100 25/24 Q1011,SBSN,2015-02-12T07:00:00Z,-2.42,-54.78,25.0,24.0,100,8,,6.21,29.852362,,,,,,,,,,,SCT,1300,FEW,2500,BKN,10000,,,VFR,,,,,,,,,,,,METAR,72.0
SBCT 120700Z 34005KT 9999 FEW030 20/19 Q1018,SBCT,2015-02-12T07:00:00Z,-25.52,-49.17,20.0,19.0,340,5,,6.21,30.059055,,,,,,,,,,,FEW,3000,,,,,,,VFR,,,,,,,,,,,,METAR,908.0
WAJJ 120700Z 29017KT 9999 SCT014 30/20 Q1004,WAJJ,2015-02-12T07:00:00Z,-2.58,140.52,30.0,20.0,290,17,,6.21,29.64567,,,,,,,,,,,SCT,1400,,,,,,,VFR,,,,,,,,,,,,METAR,88.0
HDAM 120700Z 08008KT 9999 BKN020 SCT030 28/21 Q1018,HDAM,2015-02-12T07:00:00Z,11.55,43.17,28.0,21.0,80,8,,6.21,30.059055,,,,,,,,,,,BKN,2000,SCT,3000,,,,,MVFR,,,,,,,,,,,,METAR,49.0
VRMM 120700Z 04011KT 8000 SCT018 FEW019CB 31/25 Q1011 CB NW NOSIG,VRMM,2015-02-12T07:00:00Z,4.2,73.52,31.0,25.0,40,11,,4.97,29.852362,,,,,,TRUE,,,,,SCT,1800,FEW,1900,,,,,MVFR,,,,,,,,,,,,METAR,2.0
VTCN 120700Z 22006KT 180V260 9999 FEW023 BKN300 31/12 Q1009 A2982,VTCN,2015-02-12T07:00:00Z,18.82,100.77,31.0,12.0,220,6,,6.21,29.793306,,,,,,,,,,,FEW,2300,BKN,30000,,,,,VFR,,,,,,,,,,,,METAR,201.0
HUEN 120700Z 35002KT 8000 NSC 25/21 Q1019,HUEN,2015-02-12T07:00:00Z,0.03,32.45,25.0,21.0,350,2,,4.97,30.088583,,,,,,,,,,,,,,,,,,,,,,,,,,,,,,,METAR,1155.0
FNMO 120700Z 00000KT 9999 SCT022 22/19 Q1013,FNMO,2015-02-12T07:00:00Z,-15.27,12.15,22.0,19.0,0,0,,6.21,29.911417,,,,,,,,,,,SCT,2200,,,,,,,VFR,,,,,,,,,,,,METAR,64.0
CYPO 120700Z AUTO 31006KT 9SM CLR M32/M36 A3050 RMK SLP337,CYPO,2015-02-12T07:00:00Z,54.98,-85.43,-32.0,-36.0,310,6,,9.0,30.499016,1033.7,,TRUE,,,,,,,,CLR,,,,,,,,VFR,,,,,,,,,,,,METAR,53.0
CYLH 120700Z AUTO 30004KT 9SM CLR M30/M33 A3049 RMK SLP362,CYLH,2015-02-12T07:00:00Z,52.2,-87.93,-30.0,-33.0,300,4,,9.0,30.490158,1036.2,,TRUE,,,,,,,,CLR,,,,,,,,VFR,,,,,,,,,,,,METAR,254.0
CYKZ 120700Z 32007KT 12SM -SN FEW015 FEW030 BKN075 M04/M07 A2977 RMK SF1SC2AC5 SLP092,CYKZ,2015-02-12T07:00:00Z,43.87,-79.37,-4.0,-7.0,320,7,,12.0,29.769686,1009.2,,,,,,,,,-SN,FEW,1500,FEW,3000,BKN,7500,,,VFR,,,,,,,,,,,,SPECI,198.0
CYGQ 120700Z 34009KT 15SM FEW025 M26/M30 A3035 RMK SC2 SLP322,CYGQ,2015-02-12T07:00:00Z,49.77,-86.92,-26.0,-30.0,340,9,,15.0,30.351377,1032.2,,,,,,,,,,FEW,2500,,,,,,,VFR,,,,,,,,,,,,SPECI,351.0
CYER 120700Z AUTO 28007KT 9SM CLR M33/M36 A3058 RMK SLP357,CYER,2015-02-12T07:00:00Z,56.02,-87.68,-33.0,-36.0,280,7,,9.0,30.578741,1035.7,,TRUE,,,,,,,,CLR,,,,,,,,VFR,,,,,,,,,,,,METAR,16.0
CYAT 120700Z AUTO 33009G16KT 9SM CLR M30/M34 A3039 RMK SLP293,CYAT,2015-02-12T07:00:00Z,52.93,-82.43,-30.0,-34.0,330,9,16,9.0,30.389763,1029.3,,TRUE,,,,,,,,CLR,,,,,,,,VFR,,,,,,,,,,,,METAR,9.0
FQBR 120700Z 21006KT 9000 DZ BKN018 BKN030 FEW030CB 26/25 Q1012 RMK CB TO NE,FQBR,2015-02-12T07:00:00Z,-19.8,34.88,26.0,25.0,210,6,,5.59,29.88189,,,,,,,,,,DZ,BKN,1800,BKN,3000,FEW,3000,,,MVFR,,,,,,,,,,,,METAR,16.0
MHTG 120700Z 36003KT 9999 BKN028 19/14 Q1019 A3009 NOSIG,MHTG,2015-02-12T07:00:00Z,14.07,-87.22,19.0,14.0,360,3,,6.21,30.088583,,,,,,TRUE,,,,,BKN,2800,,,,,,,MVFR,,,,,,,,,,,,METAR,1004.0
MHLM 120700Z 00000KT 9999 FEW025 20/20 Q1015 A2997 NOSIG,MHLM,2015-02-12T07:00:00Z,15.45,-87.93,20.0,20.0,0,0,,6.21,29.970472,,,,,,TRUE,,,,,FEW,2500,,,,,,,VFR,,,,,,,,,,,,METAR,26.0
LRCT 120700Z 00000KT 0100 FZFG VV001 M11/M13 Q1030 RED RED,LRCT,2015-02-12T07:00:00Z,46.5,23.88,-11.0,-13.0,0,0,,0.06,30.413385,,,,,,,,,,FZFG,OVX,0,,,,,,,LIFR,,,,,,,,,,,100,METAR,331.0
CYYZ 120700Z 31013KT 15SM FEW020 BKN075 M03/M07 A2978 RMK SC1AC6 SLP094,CYYZ,2015-02-12T07:00:00Z,43.67,-79.62,-3.0,-7.0,310,13,,15.0,29.778543,1009.4,,,,,,,,,,FEW,2000,BKN,7500,,,,,VFR,,,,,,,,,,,,METAR,173.0
CYYR 120700Z 23003KT 15SM BKN150 BKN200 M28/M34 A3023 RMK AC2CI0 SLP243,CYYR,2015-02-12T07:00:00Z,53.32,-60.42,-28.0,-34.0,230,3,,15.0,30.230314,1024.3,,,,,,,,,,BKN,15000,BKN,20000,,,,,VFR,,,,,,,,,,,,METAR,49.0
CYYQ 120700Z 29004KT 15SM IC SCT160 M33/M37 A3053 RMK AC3 PRESFR SLP345,CYYQ,2015-02-12T07:00:00Z,58.75,-94.07,-33.0,-37.0,290,4,,15.0,30.528543,1034.5,,,,,,,,,IC,SCT,16000,,,,,,,VFR,,,,,,,,,,,,METAR,29.0
CYYJ 120700Z 00000KT 30SM OVC110 08/08 A3020 RMK AC8 SLP228,CYYJ,2015-02-12T07:00:00Z,48.63,-123.42,8.0,8.0,0,0,,30.0,30.200787,1022.8,,,,,,,,,,OVC,11000,,,,,,,VFR,,,,,,,,,,,,METAR,19.0
CYYC 120700Z 20007KT 10SM FEW150 BKN180 M06/M08 A2997 RMK AC1AC6 AC TR SLP219,CYYC,2015-02-12T07:00:00Z,51.12,-114.02,-6.0,-8.0,200,7,,10.0,29.970472,1021.9,,,,,,,,,,FEW,15000,BKN,18000,,,,,VFR,,,,,,,,,,,,METAR,1084.0
CYXX 120700Z 20003KT 10SM OVC140 08/08 A3022 RMK AC8 SLP235,CYXX,2015-02-12T07:00:00Z,49.03,-122.38,8.0,8.0,200,3,,10.0,30.221457,1023.5,,,,,,,,,,OVC,14000,,,,,,,VFR,,,,,,,,,,,,METAR,58.0
CYWG 120700Z 29008KT 15SM SKC M29/M33 A3075 RMK SLP444,CYWG,2015-02-12T07:00:00Z,49.88,-97.22,-29.0,-33.0,290,8,,15.0,30.75,1044.4,,,,,,,,,,SKC,,,,,,,,VFR,,,,,,,,,,,,METAR,239.0
CYVR 120700Z 11003KT 20SM BKN100 OVC150 08/07 A3021 RMK AC7AC1 SLP230,CYVR,2015-02-12T07:00:00Z,49.17,-123.17,8.0,7.0,110,3,,20.0,30.209646,1023.0,,,,,,,,,,BKN,10000,OVC,15000,,,,,VFR,,,,,,,,,,,,METAR,2.0
CYTR 120700Z 25006KT 6SM -SN SCT012 OVC060 M03/M04 A2974 RMK SF4SC4 AWOS UNSERBL PCPN VRY LGT SLP076,CYTR,2015-02-12T07:00:00Z,44.12,-77.52,-3.0,-4.0,250,6,,6.0,29.740158,1007.6,,,TRUE,,,,,,-SN,SCT,1200,OVC,6000,,,,,VFR,,,,,,,,,,,,METAR,86.0
CYQY 120700Z 06018G27KT 10SM OVC018 M05/M08 A2976 RMK SC8 SLP083,CYQY,2015-02-12T07:00:00Z,46.17,-60.03,-5.0,-8.0,60,18,27,10.0,29.760826,1008.3,,,,,,,,,,OVC,1800,,,,,,,MVFR,,,,,,,,,,,,METAR,62.0
CYQX 120700Z 04010G16KT 20SM FEW011 BKN160 OVC220 M17/M20 A3004 RMK SC1AS5CS2 SLP185,CYQX,2015-02-12T07:00:00Z,48.95,-54.58,-17.0,-20.0,40,10,16,20.0,30.041338,1018.5,,,,,,,,,,FEW,1100,BKN,16000,OVC,22000,,,VFR,,,,,,,,,,,,METAR,151.0
CYSC 120700Z AUTO 07002KT 9SM BKN110 BKN130 BKN210 M15/M17 A2976 RMK SLP095,CYSC,2015-02-12T07:00:00Z,45.43,-71.68,-15.0,-17.0,70,2,,9.0,29.760826,1009.5,,TRUE,,,,,,,,BKN,11000,BKN,13000,BKN,21000,,,VFR,,,,,,,,,,,,SPECI,241.0
CYSB 120700Z CCA 36017G29KT 2 1/2SM -SN BLSN VV011 M19/M23 A2984 RMK SN8 SLP134,CYSB,2015-02-12T07:00:00Z,46.63,-80.8,-19.0,-23.0,360,17,29,2.5,29.840551,1013.4,,,,,,,,,BLSN -SN,OVX,0,,,,,,,LIFR,,,,,,,,,,,1100,METAR,348.0
CYRB 120700Z 34009KT 15SM IC SKC M38/M42 A3016 RMK SLP230,CYRB,2015-02-12T07:00:00Z,74.72,-94.97,-38.0,-42.0,340,9,,15.0,30.159449,1023.0,,,,,,,,,IC,SKC,,,,,,,,VFR,,,,,,,,,,,,METAR,67.0
CYQK 120700Z 35007KT 15SM IC SKC M26/M28 A3058 RMK SLP404,CYQK,2015-02-12T07:00:00Z,49.77,-94.37,-26.0,-28.0,350,7,,15.0,30.578741,1040.4,,,,,,,,,IC,SKC,,,,,,,,VFR,,,,,,,,,,,,SPECI,411.0
CYQA 120700Z AUTO 26007KT 230V300 9SM FEW010 OVC070 M08/M10 A2974 RMK SLP088,CYQA,2015-02-12T07:00:00Z,44.97,-79.28,-8.0,-10.0,260,7,,9.0,29.740158,1008.8,,TRUE,,,,,,,,FEW,1000,OVC,7000,,,,,VFR,,,,,,,,,,,,SPECI,282.0
SBFL 120700Z 36006KT 9999 FEW020 25/23 Q1010,SBFL,2015-02-12T07:00:00Z,-27.67,-48.53,25.0,23.0,360,6,,6.21,29.822834,,,,,,,,,,,FEW,2000,,,,,,,VFR,,,,,,,,,,,,METAR,5.0
NCAI 120700Z AUTO 08005KT //// ////// 25/22 Q1012,NCAI,2015-02-12T07:00:00Z,-18.82,-159.77,25.0,22.0,80,5,,,29.88189,,,TRUE,,,,,,,,,,,,,,,,,,,,,,,,,,,,METAR,6.0
NCRG 120700Z 11006KT 9999 SHRA SCT012 BKN090 26/22 Q1012,NCRG,2015-02-12T07:00:00Z,-21.2,-159.82,26.0,22.0,110,6,,6.21,29.88189,,,,,,,,,,SHRA,SCT,1200,BKN,9000,,,,,VFR,,,,,,,,,,,,METAR,7.0
NCPY 120700Z AUTO 09005KT //// ////// 27/25 Q1009,NCPY,2015-02-12T07:00:00Z,-9.02,-158.07,27.0,25.0,90,5,,,29.793306,,,TRUE,,,,,,,,,,,,,,,,,,,,,,,,,,,,METAR,2.0
NCMH 120700Z AUTO 07003KT //// ////// 28/24 Q1009,NCMH,2015-02-12T07:00:00Z,-10.38,-161.0,28.0,24.0,70,3,,,29.793306,,,TRUE,,,,,,,,,,,,,,,,,,,,,,,,,,,,METAR,0.0
SBMA 120700Z 02001KT CAVOK 24/24 Q1012,SBMA,2015-02-12T07:00:00Z,-5.37,-49.13,24.0,24.0,20,1,,6.21,29.88189,,,,,,,,,,,CAVOK,,,,,,,,VFR,,,,,,,,,,,,METAR,102.0
OEGN 120700Z 15006KT 9999 FEW030 BKN100 28/23 Q1017 NOSIG,OEGN,2015-02-12T07:00:00Z,16.88,42.57,28.0,23.0,150,6,,6.21,30.029528,,,,,,TRUE,,,,,FEW,3000,BKN,10000,,,,,VFR,,,,,,,,,,,,METAR,3.0
OEDM 120700Z 01008KT CAVOK 22/06 Q1019,OEDM,2015-02-12T07:00:00Z,24.45,44.12,22.0,6.0,10,8,,6.21,30.088583,,,,,,,,,,,CAVOK,,,,,,,,VFR,,,,,,,,,,,,METAR,922.0
OEBH 120700Z 12002KT CAVOK 24/09 Q1020 NOSIG,OEBH,2015-02-12T07:00:00Z,19.97,42.62,24.0,9.0,120,2,,6.21,30.11811,,,,,,TRUE,,,,,CAVOK,,,,,,,,VFR,,,,,,,,,,,,METAR,1157.0
OEBA 120700Z 16010KT CAVOK 22/11 Q1022 NOSIG,OEBA,2015-02-12T07:00:00Z,20.3,41.62,22.0,11.0,160,10,,6.21,30.177166,,,,,,TRUE,,,,,CAVOK,,,,,,,,VFR,,,,,,,,,,,,METAR,1656.0
OEAO 120700Z 15004KT 6000 SKC 14/M01 Q1020,OEAO,2015-02-12T07:00:00Z,26.48,38.12,14.0,-1.0,150,4,,3.73,30.11811,,,,,,,,,,,SKC,,,,,,,,MVFR,,,,,,,,,,,,METAR,624.0
OEAH 120700Z 18018KT CAVOK 28/01 Q1014 NOSIG,OEAH,2015-02-12T07:00:00Z,25.27,49.47,28.0,1.0,180,18,,6.21,29.940945,,,,,,TRUE,,,,,CAVOK,,,,,,,,VFR,,,,,,,,,,,,METAR,172.0
OEAB 120700Z 17012KT CAVOK 20/02 Q1026 NOSIG,OEAB,2015-02-12T07:00:00Z,18.22,42.63,20.0,2.0,170,12,,6.21,30.295275,,,,,,TRUE,,,,,CAVOK,,,,,,,,VFR,,,,,,,,,,,,METAR,2084.0
URWI 120700Z 08006MPS 9999 SCT005 M03/M03 Q1025 NOSIG RMK QBB150,URWI,2015-02-12T07:00:00Z,46.37,44.33,-3.0,-3.0,80,12,,6.21,30.265747,,,,,,TRUE,,,,,SCT,500,,,,,,,VFR,,,,,,,,,,,,METAR,150.0
UWOR 120700Z 30011MPS 9999 DRSN SCT015 BKN100 M10/M12 Q1016 25820255 NOSIG RMK QFE738/0985,UWOR,2015-02-12T07:00:00Z,51.07,58.6,-10.0,-12.0,300,21,,6.21,30.0,,,,,,TRUE,,,,DRSN,SCT,1500,BKN,10000,,,,,VFR,,,,,,,,,,,,METAR,277.0
UWLW 120700Z 27004MPS 8000 -SNRA OVC007 M02/M03 Q1021 20490145 TEMPO 2100 -SNRA BR BKN007 RMK QFE760,UWLW,2015-02-12T07:00:00Z,54.4,48.8,-2.0,-3.0,270,8,,4.97,30.147638,,,,,,,,,,-SN -RA,OVC,700,,,,,,,IFR,,,49.0,,,,,,,,,METAR,66.0
UUOK 120700Z 25004MPS 1700 R12/1700 BR OVC004 M05/M05 Q1029 NOSIG RMK 12490131,UUOK,2015-02-12T07:00:00Z,51.75,36.28,-5.0,-5.0,250,8,,1.06,30.383858,,,,,,TRUE,,,,BR,OVC,400,,,,,,,LIFR,,,,,,,,,,,,METAR,209.0
UUBP 120700Z 24003MPS 0800 R16/0800N FZFG VV002 M04/M04 Q1026 NOSIG 16810260 RMK QBB070 QFE751,UUBP,2015-02-12T07:00:00Z,53.22,34.18,-4.0,-4.0,240,6,,0.5,30.295275,,,,,,TRUE,,,,FZFG,OVX,0,,,,,,,LIFR,,,,,,,,,,,200,METAR,202.0
UHMA 120700Z 35005MPS 9999 FEW006 OVC080 M28/M30 Q1022 NOSIG RMK QBB200 QFE762/1017,UHMA,2015-02-12T07:00:00Z,64.73,177.73,-28.0,-30.0,350,10,,6.21,30.177166,,,,,,TRUE,,,,,FEW,600,OVC,8000,,,,,VFR,,,,,,,,,,,,METAR,62.0
LEBA 120700Z 00000KT 9999 FEW049 08/06 Q1018,LEBA,2015-02-12T07:00:00Z,37.85,-4.82,8.0,6.0,0,0,,6.21,30.059055,,,,,,,,,,,FEW,4900,,,,,,,VFR,,,,,,,,,,,,METAR,92.0
YSNW 120700Z 17011KT 7000 -RA FEW010 SCT019 OVC026 20/19 Q1023 FM0730 17010KT 9999 -RA SCT010 BKN020 TEMPO 0730/1000 5000 -DZ BKN010,YSNW,2015-02-12T07:00:00Z,-34.95,150.52,20.0,19.0,170,11,,4.35,30.206694,,,,,,,,,,-RA,FEW,1000,SCT,1900,OVC,2600,,,MVFR,,,,,,,,,,,,SPECI,110.0
FKYS 120700Z 26006KT 230V310 8000 BKN006 24/22 Q1016 BECMG N BKN010,FKYS,2015-02-12T07:00:00Z,3.82,11.52,24.0,22.0,260,6,,4.97,30.0,,,,,,,,,,,BKN,600,,,,,,,IFR,,,,,,,,,,,,METAR,760.0
FKKR 120700Z VRB02KT 4500 HZ NSC 24/06 Q1012 BECMG 2500,FKKR,2015-02-12T07:00:00Z,9.32,13.37,24.0,6.0,0,2,,2.8,29.88189,,,,,,,,,,HZ,,,,,,,,,,,,,,,,,,,,,METAR,244.0
DAOY 120700Z 00000KT 9999 SCT026 SCT100 02/M03 Q1018,DAOY,2015-02-12T07:00:00Z,33.72,1.08,2.0,-3.0,0,0,,6.21,30.059055,,,,,,,,,,,SCT,2600,SCT,10000,,,,,VFR,,,,,,,,,,,,METAR,1347.0
VTST 120700Z 05011KT 8000 FEW020 32/21 Q1009 RWY08 INFO H,VTST,2015-02-12T07:00:00Z,7.52,99.62,32.0,21.0,50,11,,4.97,29.793306,,,,,,,,,,,FEW,2000,,,,,,,MVFR,,,,,,,,,,,,METAR,16.0
VTSM 120700Z 15013KT 8000 FEW020 BKN300 31/22 Q1012 A2990,VTSM,2015-02-12T07:00:00Z,9.55,100.07,31.0,22.0,150,13,,4.97,29.88189,,,,,,,,,,,FEW,2000,BKN,30000,,,,,MVFR,,,,,,,,,,,,METAR,17.0
VTSH 120700Z 12008KT 9999 FEW020 BKN300 29/23 Q1011 A2986,VTSH,2015-02-12T07:00:00Z,7.2,100.58,29.0,23.0,120,8,,6.21,29.852362,,,,,,,,,,,FEW,2000,BKN,30000,,,,,VFR,,,,,,,,,,,,METAR,5.0
VTSG 120700Z 10009KT 050V150 9000 FEW020 33/17 Q1010 A2983,VTSG,2015-02-12T07:00:00Z,8.1,98.98,33.0,17.0,100,9,,5.59,29.822834,,,,,,,,,,,FEW,2000,,,,,,,VFR,,,,,,,,,,,,METAR,25.0
VTSF 120700Z 12007KT 080V170 9999 FEW020 29/22 Q1011 A2986 INFO H / RWY 19,VTSF,2015-02-12T07:00:00Z,8.53,99.95,29.0,22.0,120,7,,6.21,29.852362,,,,,,,,,,,FEW,2000,,,,,,,VFR,,,,,,,,,,,,METAR,4.0
VTSB 120700Z 06010KT 8000 FEW020 SCT300 31/22 Q1010 A2984,VTSB,2015-02-12T07:00:00Z,9.12,99.13,31.0,22.0,60,10,,4.97,29.822834,,,,,,,,,,,FEW,2000,SCT,30000,,,,,MVFR,,,,,,,,,,,,METAR,11.0
VTUD 120700Z VRB07KT 7000 NSC 29/16 Q1012 A2989 INFO I RWY12,VTUD,2015-02-12T07:00:00Z,17.37,102.78,29.0,16.0,0,7,,4.35,29.88189,,,,,,,,,,,,,,,,,,,,,,,,,,,,,,,METAR,182.0
VTPP 120700Z 21007KT 6000 FEW300 32/18 Q1010,VTPP,2015-02-12T07:00:00Z,16.78,100.28,32.0,18.0,210,7,,3.73,29.822834,,,,,,,,,,,FEW,30000,,,,,,,MVFR,,,,,,,,,,,,METAR,44.0
VTPO 120700Z 12003KT 4000 HZ NSC 31/20 Q1010,VTPO,2015-02-12T07:00:00Z,17.23,99.82,31.0,20.0,120,3,,2.49,29.822834,,,,,,,,,,HZ,,,,,,,,,,,,,,,,,,,,,METAR,54.0
VTCP 120700Z 25008KT 5000 HZ FEW025 BKN300 32/15 Q1010 A2982 INFO G RWY19,VTCP,2015-02-12T07:00:00Z,18.13,100.17,32.0,15.0,250,8,,3.11,29.822834,,,,,,,,,,HZ,FEW,2500,BKN,30000,,,,,MVFR,,,,,,,,,,,,METAR,162.0
CWOY 120700Z AUTO 17009KT M24/M29 RMK AO1 SOG 10 8044 SLP371 T12441287,CWOY,2015-02-12T07:00:00Z,51.77,-104.2,-24.4,-28.7,170,9,,,,1037.1,,TRUE,TRUE,,,,,,,,,,,,,,,,,,,,,,,,,,,METAR,560.0
CWKO 120700Z AUTO 15017KT M17/M19 RMK AO1 PRESFR SOG 01 8045 PK WND 15023/0638 SLP330 T11651190,CWKO,2015-02-12T07:00:00Z,49.17,-105.97,-16.5,-19.0,150,17,,,,1033.0,,TRUE,TRUE,,,,,,,,,,,,,,,,,,,,,,,,,,,METAR,917.0
CWEH 120700Z AUTO 17012KT M11/M11 RMK AO1 SOG 30 6031 SLP273 T11061110,CWEH,2015-02-12T07:00:00Z,49.42,-108.97,-10.6,-11.0,170,12,,,,1027.3,,TRUE,TRUE,,,,,,,,,,,,,,,,,,,,,,,,,,,METAR,1078.0
CWDC 120700Z AUTO 09003KT M22/M25 RMK AO1 SOG 34 8047 SLP224 T12181252,CWDC,2015-02-12T07:00:00Z,59.57,-108.47,-21.8,-25.2,90,3,,,,1022.4,,TRUE,TRUE,,,,,,,,,,,,,,,,,,,,,,,,,,,METAR,318.0
CWZW 120700Z AUTO 05002KT M09/M11 RMK AO1 SOG 37 0002 SLP130 T10931110,CWZW,2015-02-12T07:00:00Z,60.17,-132.73,-9.3,-11.0,50,2,,,,1013.0,,TRUE,TRUE,,,,,,,,,,,,,,,,,,,,,,,,,,,METAR,705.0
CWVT 120700Z AUTO 17008KT M20/M24 RMK AO1 SOG 42 6055 PK WND 18018/0638 SLP277 T12001243,CWVT,2015-02-12T07:00:00Z,55.82,-108.42,-20.0,-24.3,170,8,,,,1027.7,,TRUE,TRUE,,,,,,,,,,,,,,,,,,,,,,,,,,,METAR,434.0
CWRM 120700Z AUTO 08001KT M10/M11 RMK AO1 SOG 37 7002 SLP214 T10981108,CWRM,2015-02-12T07:00:00Z,52.42,-114.92,-9.8,-10.8,80,1,,,,1021.4,,TRUE,TRUE,,,,,,,,,,,,,,,,,,,,,,,,,,,METAR,988.0
CWZG 120700Z AUTO 24006KT 05/M02 RMK AO1 SOG 01 0001 PK WND 23017/0607 SLP202 T00541021,CWZG,2015-02-12T07:00:00Z,51.2,-115.53,5.4,-2.1,240,6,,,,1020.2,,TRUE,TRUE,,,,,,,,,,,,,,,,,,,,,,,,,,,METAR,1397.0
CWLP 120700Z AUTO 12026G33KT 10/07 RMK AO1 PK WND 13035/0626 SLP163 T01030073 53009,CWLP,2015-02-12T07:00:00Z,50.93,-127.63,10.3,7.3,120,26,33,,,1016.3,,TRUE,TRUE,,,,,,,,,,,,,,,,0.9,,,,,,,,,,,METAR,17.0
CWJD 120700Z AUTO 26002KT M26/M29 RMK AO1 SOG 45 8016 SLP418 T12581286,CWJD,2015-02-12T07:00:00Z,53.17,-99.27,-25.8,-28.6,260,2,,,,1041.8,,TRUE,TRUE,,,,,,,,,,,,,,,,,,,,,,,,,,,METAR,223.0
CWEQ 120700Z AUTO 23006KT M26/M30 RMK AO1 SLP407 T12571298 58028,CWEQ,2015-02-12T07:00:00Z,52.12,-101.22,-25.7,-29.8,230,6,,,,1040.7,,TRUE,TRUE,,,,,,,,,,,,,,,,-2.8,,,,,,,,,,,METAR,335.0
CWPZ 120700Z AUTO 10003KT 01/M00 RMK AO1 7PAST HR SOG 74 8004 SLP163 P0011 T00081002 50027,CWPZ,2015-02-12T07:00:00Z,54.38,-125.97,0.8,-0.2,100,3,,,,1016.3,,TRUE,TRUE,,,,,,,,,,,,,,,,2.7,,,,,0.11,,,,,,METAR,713.0
CWPR 120700Z AUTO 33001KT 01/01 RMK AO1 SOG 24 3001 SLP246 T00090005,CWPR,2015-02-12T07:00:00Z,49.47,-120.52,0.9,0.5,330,1,,,,1024.6,,TRUE,TRUE,,,,,,,,,,,,,,,,,,,,,,,,,,,METAR,700.0
CWPE 120700Z AUTO 01007G16KT M16/M19 RMK AO1 SOG 18 6026 SLP122 T11611187,CWPE,2015-02-12T07:00:00Z,45.07,-66.47,-16.1,-18.7,10,7,16,,,1012.2,,TRUE,TRUE,,,,,,,,,,,,,,,,,,,,,,,,,,,METAR,1.0
CWPD 120700Z AUTO 19001KT M16/M20 RMK AO1 SLP082 T11601202 58020,CWPD,2015-02-12T07:00:00Z,47.57,-71.22,-16.0,-20.2,190,1,,,,1008.2,,TRUE,TRUE,,,,,,,,,,,,,,,,-2.0,,,,,,,,,,,METAR,803.0
CWOE 120700Z AUTO 11013KT M08/M09 RMK AO1 PK WND 10017/0601 SLP260 T10801092 56028,CWOE,2015-02-12T07:00:00Z,49.12,-110.47,-8.0,-9.2,110,13,,,,1026.0,,TRUE,TRUE,,,,,,,,,,,,,,,,-2.8,,,,,,,,,,,METAR,935.0
CWOD 120700Z AUTO 34002KT M18/M20 RMK AO1 6PAST HR SOG 10 6017 SLP106 P0002 T11751195 50006,CWOD,2015-02-12T07:00:00Z,48.85,-72.55,-17.5,-19.5,340,2,,,,1010.6,,TRUE,TRUE,,,,,,,,,,,,,,,,0.6,,,,,0.02,,,,,,METAR,137.0
CWOC 120700Z AUTO 03003KT M19/M23 RMK AO1 SLP180 T11911226 57017,CWOC,2015-02-12T07:00:00Z,48.02,-65.32,-19.1,-22.6,30,3,,,,1018.0,,TRUE,TRUE,,,,,,,,,,,,,,,,-1.7,,,,,,,,,,,METAR,47.0
CWNQ 120700Z AUTO 06009KT M14/M16 RMK AO1 SLP087 T11351157 57022,CWNQ,2015-02-12T07:00:00Z,46.22,-72.65,-13.5,-15.7,60,9,,,,1008.7,,TRUE,TRUE,,,,,,,,,,,,,,,,-2.2,,,,,,,,,,,METAR,10.0
CWNP 120700Z AUTO 34002KT 03/03 RMK AO1 SOG 13 1006 SLP255 T00280027,CWNP,2015-02-12T07:00:00Z,50.27,-117.82,2.8,2.7,340,2,,,,1025.5,,TRUE,TRUE,,,,,,,,,,,,,,,,,,,,,,,,,,,METAR,524.0
CWNM 120700Z AUTO 24007KT 05/04 RMK AO1 SLP256 T00470037 51002,CWNM,2015-02-12T07:00:00Z,49.5,-117.28,4.7,3.7,240,7,,,,1025.6,,TRUE,TRUE,,,,,,,,,,,,,,,,0.2,,,,,,,,,,,METAR,535.0
CWNK 120700Z AUTO 30005KT M25/M28 RMK AO1 T12511281,CWNK,2015-02-12T07:00:00Z,49.5,-98.03,-25.1,-28.1,300,5,,,,,,TRUE,TRUE,,,,,,,,,,,,,,,,,,,,,,,,,,,METAR,268.0
CWNE 120700Z AUTO 01016KT M15/M16 RMK AO1 PK WND 00021/0625 SLP149 T11481155 58026,CWNE,2015-02-12T07:00:00Z,47.07,-64.0,-14.8,-15.5,10,16,,,,1014.9,,TRUE,TRUE,,,,,,,,,,,,,,,,-2.6,,,,,,,,,,,METAR,15.0
CWDM 120700Z AUTO 02012KT M22/M26 RMK AO1 SOG 78 8013 PK WND 02017/0611 SLP205 T12161261,CWDM,2015-02-12T07:00:00Z,50.47,-59.62,-21.6,-26.1,20,12,,,,1020.5,,TRUE,TRUE,,,,,,,,,,,,,,,,,,,,,,,,,,,METAR,6.0
CWBY 120700Z AUTO 09005KT M18/M21 RMK AO1 SOG 18 6022 SLP190 T11781207,CWBY,2015-02-12T07:00:00Z,49.82,-64.28,-17.8,-20.7,90,5,,,,1019.0,,TRUE,TRUE,,,,,,,,,,,,,,,,,,,,,,,,,,,METAR,53.0
CXKE 120700Z AUTO 06002KT M12/M14 RMK AO1 7PAST HR SOG 29 6014 SLP074 P0003 T11201139 50007,CXKE,2015-02-12T07:00:00Z,45.0,-75.63,-12.0,-13.9,60,2,,,,1007.4,,TRUE,TRUE,,,,,,,,,,,,,,,,0.7,,,,,0.03,,,,,,METAR,99.0
CXHM 120700Z AUTO 30005KT M03/M07 RMK AO1 SLP095 T10311074 53003,CXHM,2015-02-12T07:00:00Z,43.28,-79.9,-3.1,-7.4,300,5,,,,1009.5,,TRUE,TRUE,,,,,,,,,,,,,,,,0.3,,,,,,,,,,,METAR,107.0
CWZS 120700Z AUTO 15004KT M19/M22 RMK AO1 SLP160 T11901217 58018,CWZS,2015-02-12T07:00:00Z,48.47,-67.43,-19.0,-21.7,150,4,,,,1016.0,,TRUE,TRUE,,,,,,,,,,,,,,,,-1.8,,,,,,,,,,,METAR,166.0
CWZO 120700Z AUTO 09003KT RMK AO1,CWZO,2015-02-12T07:00:00Z,48.55,-123.23,,,90,3,,,,,,TRUE,TRUE,,,,,,,,,,,,,,,,,,,,,,,,,,,METAR,1.0
CWZA 120700Z AUTO 16003KT 07/07 RMK AO1 SLP235 T00740069 53009,CWZA,2015-02-12T07:00:00Z,49.25,-121.77,7.4,6.9,160,3,,,,1023.5,,TRUE,TRUE,,,,,,,,,,,,,,,,0.9,,,,,,,,,,,METAR,15.0
CWYY 120700Z AUTO 17005KT 09/06 RMK AO1 SLP244 T00940059 57004,CWYY,2015-02-12T07:00:00Z,49.03,-119.43,9.4,5.9,170,5,,,,1024.4,,TRUE,TRUE,,,,,,,,,,,,,,,,-0.4,,,,,,,,,,,METAR,283.0
CWYJ 120700Z AUTO 00000KT 08/07 RMK AO1 SLP227 T00760068 53012,CWYJ,2015-02-12T07:00:00Z,48.45,-123.3,7.6,6.8,0,0,,,,1022.7,,TRUE,TRUE,,,,,,,,,,,,,,,,1.2,,,,,,,,,,,METAR,39.0
CXSL 120700Z AUTO 17010KT M15/M16 RMK AO1 T11481155,CXSL,2015-02-12T07:00:00Z,54.28,-112.5,-14.8,-15.5,170,10,,,,,,TRUE,TRUE,,,,,,,,,,,,,,,,,,,,,,,,,,,METAR,680.0
CPXL 120700Z AUTO 16014KT M06/M07 RMK AO1 PK WND 16024/0635 T10561068,CPXL,2015-02-12T07:00:00Z,49.87,-111.38,-5.6,-6.8,160,14,,,,,,TRUE,TRUE,,,,,,,,,,,,,,,,,,,,,,,,,,,METAR,799.0
CPSV 120700Z AUTO 20012KT M03/M05 RMK AO1 T10341052,CPSV,2015-02-12T07:00:00Z,49.92,-110.92,-3.4,-5.2,200,12,,,,,,TRUE,TRUE,,,,,,,,,,,,,,,,,,,,,,,,,,,METAR,766.0
CPST 120700Z AUTO 20006KT M07/M07 RMK AO1 T10661071,CPST,2015-02-12T07:00:00Z,51.03,-113.28,-6.6,-7.1,200,6,,,,,,TRUE,TRUE,,,,,,,,,,,,,,,,,,,,,,,,,,,METAR,967.0
CZEL 120700Z AUTO 31010KT M07/M09 RMK AO1 SLP098 T10681089 51007,CZEL,2015-02-12T07:00:00Z,43.65,-80.42,-6.8,-8.9,310,10,,,,1009.8,,TRUE,TRUE,,,,,,,,,,,,,,,,0.7,,,,,,,,,,,METAR,376.0
CXBI 120700Z AUTO 32010G15KT M07/M09 RMK AO1 SLP092 T10711093 51011,CXBI,2015-02-12T07:00:00Z,44.48,-79.55,-7.1,-9.3,320,10,15,,,1009.2,,TRUE,TRUE,,,,,,,,,,,,,,,,1.1,,,,,,,,,,,METAR,289.0
CTNK 120700Z AUTO 27001KT M09/M10 RMK AO1 SOG 53 3002 SLP062 T10871098,CTNK,2015-02-12T07:00:00Z,45.53,-78.27,-8.7,-9.8,270,1,,,,1006.2,,TRUE,TRUE,,,,,,,,,,,,,,,,,,,,,,,,,,,METAR,410.0
CWGM 120700Z AUTO 24016G22KT 06/M01 RMK AO1 PK WND 25024/0649 T00581012,CWGM,2015-02-12T07:00:00Z,49.13,-113.78,5.8,-1.2,240,16,22,,,,,TRUE,TRUE,,,,,,,,,,,,,,,,,,,,,,,,,,,METAR,1296.0
CWGL 120700Z AUTO 31014G23KT M07/M10 RMK AO1 PK WND 30023/0659 SLP079 T10741100 51011,CWGL,2015-02-12T07:00:00Z,44.52,-79.22,-7.4,-10.0,310,14,23,,,1007.9,,TRUE,TRUE,,,,,,,,,,,,,,,,1.1,,,,,,,,,,,METAR,221.0
CWGD 120700Z AUTO 32015KT M07/M11 RMK AO1 SOG 11 3011 PK WND 32019/0651 SLP119 T10691109,CWGD,2015-02-12T07:00:00Z,43.77,-81.72,-6.9,-10.9,320,15,,,,1011.9,,TRUE,TRUE,,,,,,,,,,,,,,,,,,,,,,,,,,,METAR,214.0
CWGB 120700Z AUTO 08012KT 09/07 RMK AO1 SLP218 T00900073 53008,CWGB,2015-02-12T07:00:00Z,49.35,-124.17,9.0,7.3,80,12,,,,1021.8,,TRUE,TRUE,,,,,,,,,,,,,,,,0.8,,,,,,,,,,,METAR,5.0
CWFQ 120700Z AUTO 17004KT M09/M14 RMK AO1 SOG 33 6018 SLP075 T10871135,CWFQ,2015-02-12T07:00:00Z,45.03,-72.82,-8.7,-13.5,170,4,,,,1007.5,,TRUE,TRUE,,,,,,,,,,,,,,,,,,,,,,,,,,,METAR,152.0
CWEW 120700Z AUTO 02004KT M14/M16 RMK AO1 SLP105 T11361156 58016,CWEW,2015-02-12T07:00:00Z,45.82,-73.43,-13.6,-15.6,20,4,,,,1010.5,,TRUE,TRUE,,,,,,,,,,,,,,,,-1.6,,,,,,,,,,,METAR,21.0
CWEL 120700Z AUTO 08005KT 09/07 RMK AO1 SLP224 T00880070 52010,CWEL,2015-02-12T07:00:00Z,49.22,-123.78,8.8,7.0,80,5,,,,1022.4,,TRUE,TRUE,,,,,,,,,,,,,,,,1.0,,,,,,,,,,,METAR,5.0
CWEB 120700Z AUTO 09012G22KT 10/09 RMK AO1 9PAST HR 3008 PK WND 09023/0622 SLP206 P0004 T00970093 50009,CWEB,2015-02-12T07:00:00Z,49.38,-126.55,9.7,9.3,90,12,22,,,1020.6,,TRUE,TRUE,,,,,,,,,,,,,,,,0.9,,,,,0.04,,,,,,METAR,7.0
CWXA 120700Z AUTO 26011G18KT 08/M04 RMK AO1 PK WND 23025/0630 SLP173 T00811035 55004,CWXA,2015-02-12T07:00:00Z,51.07,-115.07,8.1,-3.5,260,11,18,,,1017.3,,TRUE,TRUE,,,,,,,,,,,,,,,,-0.4,,,,,,,,,,,METAR,1298.0
CWWF 120700Z AUTO 17012KT M23/M26 RMK AO1 SOG 08 8036 SLP391 T12341264,CWWF,2015-02-12T07:00:00Z,49.7,-103.8,-23.4,-26.4,170,12,,,,1039.1,,TRUE,TRUE,,,,,,,,,,,,,,,,,,,,,,,,,,,METAR,589.0
CWWA 120700Z AUTO 00000KT 09/07 RMK AO1 SOG 00 1011 SLP225 T00920066,CWWA,2015-02-12T07:00:00Z,49.35,-123.17,9.2,6.6,0,0,,,,1022.5,,TRUE,TRUE,,,,,,,,,,,,,,,,,,,,,,,,,,,METAR,178.0
CWVU 120700Z AUTO 04017KT M08/M10 RMK AO1 PK WND 04021/0605 SLP114 T10811096 56021,CWVU,2015-02-12T07:00:00Z,44.28,-66.33,-8.1,-9.6,40,17,,,,1011.4,,TRUE,TRUE,,,,,,,,,,,,,,,,-2.1,,,,,,,,,,,METAR,16.0
CWVQ 120700Z AUTO 03005KT M13/M15 RMK AO1 2PAST HR SOG 29 6020 SLP088 P0001 T11281149 50002,CWVQ,2015-02-12T07:00:00Z,45.42,-73.92,-12.8,-14.9,30,5,,,,1008.8,,TRUE,TRUE,,,,,,,,,,,,,,,,0.2,,,,,0.01,,,,,,METAR,39.0
CWVP 120700Z AUTO 18007KT M11/M13 RMK AO1 SOG 01 6029 SLP251 T11111127,CWVP,2015-02-12T07:00:00Z,49.63,-109.52,-11.1,-12.7,180,7,,,,1025.1,,TRUE,TRUE,,,,,,,,,,,,,,,,,,,,,,,,,,,METAR,1271.0
CWVI 120700Z AUTO 17012G17KT M14/M16 RMK AO1 PK WND 17017/0659 SLP251 T11381158 58023,CWVI,2015-02-12T07:00:00Z,53.52,-112.1,-13.8,-15.8,170,12,17,,,1025.1,,TRUE,TRUE,,,,,,,,,,,,,,,,-2.3,,,,,,,,,,,METAR,639.0
CWVF 120700Z AUTO 13003KT 09/08 RMK AO1 T00910083,CWVF,2015-02-12T07:00:00Z,49.1,-123.3,9.1,8.3,130,3,,,,,,TRUE,TRUE,,,,,,,,,,,,,,,,,,,,,,,,,,,METAR,1.0
CWUX 120700Z AUTO 08008KT M17/M20 RMK AO1 SLP118 T11661197 58028,CWUX,2015-02-12T07:00:00Z,48.3,-70.93,-16.6,-19.7,80,8,,,,1011.8,,TRUE,TRUE,,,,,,,,,,,,,,,,-2.8,,,,,,,,,,,METAR,135.0
CWUS 120700Z AUTO 01003KT 08/05 RMK AO1 SLP240 T00820047 56002,CWUS,2015-02-12T07:00:00Z,49.57,-119.65,8.2,4.7,10,3,,,,1024.0,,TRUE,TRUE,,,,,,,,,,,,,,,,-0.2,,,,,,,,,,,METAR,454.0
CWTY 120700Z AUTO 07013KT M13/M15 RMK AO1 PK WND 07019/0623 SLP099 T11291148 58018,CWTY,2015-02-12T07:00:00Z,46.35,-72.52,-12.9,-14.8,70,13,,,,1009.9,,TRUE,TRUE,,,,,,,,,,,,,,,,-1.8,,,,,,,,,,,METAR,6.0
CWTN 120700Z AUTO 02005KT M12/M19 RMK AO1 SLP130 T11211188 58025,CWTN,2015-02-12T07:00:00Z,47.07,-70.78,-12.1,-18.8,20,5,,,,1013.0,,TRUE,TRUE,,,,,,,,,,,,,,,,-2.5,,,,,,,,,,,METAR,6.0
CWTG 120700Z AUTO 06019G24KT M15/M18 RMK AO1 PK WND 06024/0658 SLP174 T11541183 58025,CWTG,2015-02-12T07:00:00Z,49.32,-67.37,-15.4,-18.3,60,19,24,,,1017.4,,TRUE,TRUE,,,,,,,,,,,,,,,,-2.5,,,,,,,,,,,METAR,5.0
CWTA 120700Z AUTO 31001KT M12/M14 RMK AO1 SLP084 T11151144 56020,CWTA,2015-02-12T07:00:00Z,45.5,-73.58,-11.5,-14.4,310,1,,,,1008.4,,TRUE,TRUE,,,,,,,,,,,,,,,,-2.0,,,,,,,,,,,METAR,63.0
CZFS 120700Z AUTO 36003KT M24/M26 RMK AO1 SOG 36 0001 SLP205 T12401263,CZFS,2015-02-12T07:00:00Z,61.77,-121.23,-24.0,-26.3,360,3,,,,1020.5,,TRUE,TRUE,,,,,,,,,,,,,,,,,,,,,,,,,,,METAR,168.0
CWMT 120700Z AUTO 06005KT M25/M28 RMK AO1 SLP211 T12511279 58004,CWMT,2015-02-12T07:00:00Z,63.13,-117.25,-25.1,-27.9,60,5,,,,1021.1,,TRUE,TRUE,,,,,,,,,,,,,,,,-0.4,,,,,,,,,,,METAR,271.0
CWJH 120700Z AUTO 22002KT M23/M27 RMK AO1 SOG 43 8040 SLP343 T12341269,CWJH,2015-02-12T07:00:00Z,56.32,-103.27,-23.4,-26.9,220,2,,,,1034.3,,TRUE,TRUE,,,,,,,,,,,,,,,,,,,,,,,,,,,METAR,344.0
CWJB 120700Z AUTO 07012G18KT M13/M16 RMK AO1 SOG 44 PK WND 09022/0613 T11311160,CWJB,2015-02-12T07:00:00Z,46.78,-71.27,-13.1,-16.0,70,12,18,,,,,TRUE,TRUE,,,,,,,,,,,,,,,,,,,,,,,,,,,METAR,91.0
CWIZ 120700Z AUTO 03002KT M12/M13 RMK AO1 T11211131,CWIZ,2015-02-12T07:00:00Z,45.28,-73.33,-12.1,-13.1,30,2,,,,,,TRUE,TRUE,,,,,,,,,,,,,,,,,,,,,,,,,,,METAR,45.0
CWIW 120700Z AUTO 15011KT M25/M28 RMK AO1 PRESFR SOG 03 8049 SLP359 T12461275,CWIW,2015-02-12T07:00:00Z,51.67,-105.4,-24.6,-27.5,150,11,,,,1035.9,,TRUE,TRUE,,,,,,,,,,,,,,,,,,,,,,,,,,,METAR,526.0
CWIT 120700Z AUTO 06004KT M12/M14 RMK AO1 SOG 15 8020 SLP076 T11241136,CWIT,2015-02-12T07:00:00Z,45.17,-73.67,-12.4,-13.6,60,4,,,,1007.6,,TRUE,TRUE,,,,,,,,,,,,,,,,,,,,,,,,,,,METAR,52.0
CWIS 120700Z AUTO 02003KT M20/M22 RMK AO1 SOG 96 6021 SLP108 T11961215,CWIS,2015-02-12T07:00:00Z,47.28,-70.63,-19.6,-21.5,20,3,,,,1010.8,,TRUE,TRUE,,,,,,,,,,,,,,,,,,,,,,,,,,,METAR,719.0
CWIP 120700Z AUTO 05007KT M16/ RMK AO1 T1156,CWIP,2015-02-12T07:00:00Z,50.17,-66.43,-15.6,,50,7,,,,,,TRUE,TRUE,,,,,,,,,,,,,,,,,,,,,,,,,,,METAR,25.0
CWII 120700Z AUTO 26002KT M28/M31 RMK AO1 T12761306,CWII,2015-02-12T07:00:00Z,50.7,-96.57,-27.6,-30.6,260,2,,,,,,TRUE,TRUE,,,,,,,,,,,,,,,,,,,,,,,,,,,METAR,220.0
CWIG 120700Z AUTO 04011KT RMK AO1 PK WND 03018/0626,CWIG,2015-02-12T07:00:00Z,47.07,-70.53,,,40,11,,,,,,TRUE,TRUE,,,,,,,,,,,,,,,,,,,,,,,,,,,METAR,18.0
CWHV 120700Z AUTO 17003KT M15/M20 RMK AO1 SLP105 T11451197 56016,CWHV,2015-02-12T07:00:00Z,46.2,-70.77,-14.5,-19.7,170,3,,,,1010.5,,TRUE,TRUE,,,,,,,,,,,,,,,,-1.6,,,,,,,,,,,METAR,229.0
CWHQ 120700Z AUTO 08008G18KT M13/M18 RMK AO1 PK WND 08018/0650 T11261180,CWHQ,2015-02-12T07:00:00Z,46.68,-71.97,-12.6,-18.0,80,8,18,,,,,TRUE,TRUE,,,,,,,,,,,,,,,,,,,,,,,,,,,METAR,55.0
CWHM 120700Z AUTO 04004KT M13/M15 RMK AO1 T11291149,CWHM,2015-02-12T07:00:00Z,45.72,-73.37,-12.9,-14.9,40,4,,,,,,TRUE,TRUE,,,,,,,,,,,,,,,,,,,,,,,,,,,METAR,192.0
CWHL 120700Z AUTO 13022KT 09/06 RMK AO1 2PAST HR 6002 PK WND 13028/0625 SLP095 P0001 T00860063 50002,CWHL,2015-02-12T07:00:00Z,54.17,-130.35,8.6,6.3,130,22,,,,1009.5,,TRUE,TRUE,,,,,,,,,,,,,,,,0.2,,,,,0.01,,,,,,METAR,5.0
CWGY 120700Z AUTO 12015KT M15/M18 RMK AO1 PK WND 11021/0645 SLP264 T11531180 56046,CWGY,2015-02-12T07:00:00Z,51.67,-110.2,-15.3,-18.0,120,15,,,,1026.4,,TRUE,TRUE,,,,,,,,,,,,,,,,-4.6,,,,,,,,,,,METAR,707.0
CWGX 120700Z AUTO 21004KT M32/M35 RMK AO1 SLP375 T13171350 58019,CWGX,2015-02-12T07:00:00Z,56.35,-94.7,-31.7,-35.0,210,4,,,,1037.5,,TRUE,TRUE,,,,,,,,,,,,,,,,-1.9,,,,,,,,,,,METAR,145.0
CWGW 120700Z AUTO 18006G17KT 06/01 RMK AO1 SOG 01 5001 PK WND 20017/0604 SLP230 T00560005,CWGW,2015-02-12T07:00:00Z,49.75,-114.9,5.6,0.5,180,6,17,,,1023.0,,TRUE,TRUE,,,,,,,,,,,,,,,,,,,,,,,,,,,METAR,1137.0
CWGT 120700Z AUTO 12015KT 11/06 RMK AO1 PK WND 12022/0608 SLP218 T01130055 53011,CWGT,2015-02-12T07:00:00Z,49.48,-124.43,11.3,5.5,120,15,,,,1021.8,,TRUE,TRUE,,,,,,,,,,,,,,,,1.1,,,,,,,,,,,METAR,5.0
CWGR 120700Z AUTO 06014KT M08/M12 RMK AO1 PK WND 05019/0619 SLP131 T10751118 57023,CWGR,2015-02-12T07:00:00Z,47.42,-61.8,-7.5,-11.8,60,14,,,,1013.1,,TRUE,TRUE,,,,,,,,,,,,,,,,-2.3,,,,,,,,,,,METAR,60.0
CWDZ 120700Z AUTO 15005KT M09/M11 RMK AO1 SLP214 T10891106 56033,CWDZ,2015-02-12T07:00:00Z,51.42,-112.67,-8.9,-10.6,150,5,,,,1021.4,,TRUE,TRUE,,,,,,,,,,,,,,,,-3.3,,,,,,,,,,,METAR,678.0
CWDK 120700Z AUTO M03/M03 RMK AO1 SOG 02 6024 SLP213 T10281029,CWDK,2015-02-12T07:00:00Z,50.02,-113.62,-2.8,-2.9,,,,,,1021.3,,TRUE,TRUE,,,,,,,,,,,,,,,,,,,,,,,,,,,METAR,1012.0
CWDJ 120700Z AUTO 14013G18KT M23/M28 RMK AO1 SOG 02 8042 PK WND 15018/0654 SLP373 T12341275,CWDJ,2015-02-12T07:00:00Z,50.4,-104.58,-23.4,-27.5,140,13,18,,,1037.3,,TRUE,TRUE,,,,,,,,,,,,,,,,,,,,,,,,,,,METAR,573.0
CWCJ 120700Z AUTO 01006KT M23/M27 RMK AO1 2PAST HR 1030 SLP283 P0001 T12311269 50002,CWCJ,2015-02-12T07:00:00Z,48.6,-86.28,-23.1,-26.9,10,6,,,,1028.3,,TRUE,TRUE,,,,,,,,,,,,,,,,0.2,,,,,0.01,,,,,,METAR,206.0
CWBZ 120700Z AUTO 06005KT M12/M14 RMK AO1 2PAST HR 6021 SLP086 P0005 T11241137 50012,CWBZ,2015-02-12T07:00:00Z,45.12,-74.27,-12.4,-13.7,60,5,,,,1008.6,,TRUE,TRUE,,,,,,,,,,,,,,,,1.2,,,,,0.05,,,,,,METAR,49.0
CWBT 120700Z AUTO 05003KT M18/M22 RMK AO1 SLP205 T11831216 56016,CWBT,2015-02-12T07:00:00Z,50.27,-64.23,-18.3,-21.6,50,3,,,,1020.5,,TRUE,TRUE,,,,,,,,,,,,,,,,-1.6,,,,,,,,,,,METAR,11.0
CWBS 120700Z AUTO 05010KT M13/M15 RMK AO1 T11291151,CWBS,2015-02-12T07:00:00Z,46.18,-72.92,-12.9,-15.1,50,10,,,,,,TRUE,TRUE,,,,,,,,,,,,,,,,,,,,,,,,,,,METAR,16.0
CWBO 120700Z AUTO 16010KT M06/M07 RMK AO1 SOG 09 6039 SLP211 T10621073,CWBO,2015-02-12T07:00:00Z,50.53,-111.83,-6.2,-7.3,160,10,,,,1021.1,,TRUE,TRUE,,,,,,,,,,,,,,,,,,,,,,,,,,,METAR,747.0
CWBA 120700Z AUTO 33016G22KT M14/M16 RMK AO1 1PAST HR SOG 65 M PK WND 32023/0641 P0004 T11401158 50011,CWBA,2015-02-12T07:00:00Z,46.72,-79.1,-14.0,-15.8,330,16,22,,,,,TRUE,TRUE,,,,,,,,,,,,,,,,1.1,,,,,0.04,,,,,,METAR,181.0
CWAQ 120700Z AUTO 14013KT M18/M21 RMK AO1 SOG 00 8036 PK WND 15018/0648 SLP337 T11751206,CWAQ,2015-02-12T07:00:00Z,49.05,-105.48,-17.5,-20.6,140,13,,,,1033.7,,TRUE,TRUE,,,,,,,,,,,,,,,,,,,,,,,,,,,METAR,756.0
CWAF 120700Z AUTO 00000KT M13/M18 RMK AO1 T11281180,CWAF,2015-02-12T07:00:00Z,48.07,-69.53,-12.8,-18.0,0,0,,,,,,TRUE,TRUE,,,,,,,,,,,,,,,,,,,,,,,,,,,METAR,5.0
CMFM 120700Z AUTO 00000KT M16/M21 RMK AO1 3PAST HR SOG 75 7022 SLP088 P0001 T11591213 50003,CMFM,2015-02-12T07:00:00Z,47.32,-71.15,-15.9,-21.3,0,0,,,,1008.8,,TRUE,TRUE,,,,,,,,,,,,,,,,0.3,,,,,0.01,,,,,,METAR,672.0
CWST 120700Z AUTO 10002KT M17/M21 RMK AO1 SOG 10 8025 SLP134 T11691209,CWST,2015-02-12T07:00:00Z,47.35,-70.02,-16.9,-20.9,100,2,,,,1013.4,,TRUE,TRUE,,,,,,,,,,,,,,,,,,,,,,,,,,,METAR,31.0
CWSP 120700Z AUTO 00000KT 11/07 RMK AO1 SLP228 T01070072 50008,CWSP,2015-02-12T07:00:00Z,48.38,-123.92,10.7,7.2,0,0,,,,1022.8,,TRUE,TRUE,,,,,,,,,,,,,,,,0.8,,,,,,,,,,,METAR,21.0
CWSL 120700Z AUTO 19002KT 04/04 RMK AO1 SOG 02 8004 SLP240 T00440040,CWSL,2015-02-12T07:00:00Z,50.7,-119.27,4.4,4.0,190,2,,,,1024.0,,TRUE,TRUE,,,,,,,,,,,,,,,,,,,,,,,,,,,METAR,351.0
CWSK 120700Z AUTO 03003KT 08/08 RMK AO1 SLP229 T00840076 51012,CWSK,2015-02-12T07:00:00Z,49.78,-123.17,8.4,7.6,30,3,,,,1022.9,,TRUE,TRUE,,,,,,,,,,,,,,,,1.2,,,,,,,,,,,METAR,60.0
CWSG 120700Z AUTO 20004KT M18/M22 RMK AO1 SLP171 T11751219 56024,CWSG,2015-02-12T07:00:00Z,49.12,-66.65,-17.5,-21.9,200,4,,,,1017.1,,TRUE,TRUE,,,,,,,,,,,,,,,,-2.4,,,,,,,,,,,METAR,5.0
CWSD 120700Z AUTO 01016G21KT M14/M16 RMK AO1 SOG 56 6027 PK WND 02022/0636 SLP133 T11431164,CWSD,2015-02-12T07:00:00Z,46.42,-63.85,-14.3,-16.4,10,16,21,,,1013.3,,TRUE,TRUE,,,,,,,,,,,,,,,,,,,,,,,,,,,METAR,24.0
CWRZ 120700Z AUTO 01010KT M17/M20 RMK AO1 SLP181 T11681196 56017,CWRZ,2015-02-12T07:00:00Z,48.42,-64.32,-16.8,-19.6,10,10,,,,1018.1,,TRUE,TRUE,,,,,,,,,,,,,,,,-1.7,,,,,,,,,,,METAR,16.0
CWRY 120700Z AUTO 18007KT M04/M05 RMK AO1 SOG 02 6029 SLP227 T10361047,CWRY,2015-02-12T07:00:00Z,49.12,-112.03,-3.6,-4.7,180,7,,,,1022.7,,TRUE,TRUE,,,,,,,,,,,,,,,,,,,,,,,,,,,METAR,1050.0
CWRT 120700Z AUTO 31015G23KT 06/M01 RMK AO1 PK WND 29025/0614 T00591006,CWRT,2015-02-12T07:00:00Z,49.62,-114.47,5.9,-0.6,310,15,23,,,,,TRUE,TRUE,,,,,,,,,,,,,,,,,,,,,,,,,,,METAR,1303.0
CWRK 120700Z AUTO 24003KT M06/M08 RMK AO1 SOG 39 5003 SLP060 T10551079,CWRK,2015-02-12T07:00:00Z,45.07,-77.87,-5.5,-7.9,240,3,,,,1006.0,,TRUE,TRUE,,,,,,,,,,,,,,,,,,,,,,,,,,,METAR,331.0
CWRJ 120700Z AUTO 14010KT M18/M22 RMK AO1 SOG 10 6065 PK WND 13018/0604 SLP297 T11751216,CWRJ,2015-02-12T07:00:00Z,51.57,-107.92,-17.5,-21.6,140,10,,,,1029.7,,TRUE,TRUE,,,,,,,,,,,,,,,,,,,,,,,,,,,METAR,586.0
CWQV 120700Z AUTO 08010KT M16/M20 RMK AO1 T11631198,CWQV,2015-02-12T07:00:00Z,48.27,-70.12,-16.3,-19.8,80,10,,,,,,TRUE,TRUE,,,,,,,,,,,,,,,,,,,,,,,,,,,METAR,1.0
CWQR 120700Z AUTO 07015KT M16/ RMK AO1 PK WND 07019/0652 T1161,CWQR,2015-02-12T07:00:00Z,50.22,-64.22,-16.1,,70,15,,,,,,TRUE,TRUE,,,,,,,,,,,,,,,,,,,,,,,,,,,METAR,9.0
CWQO 120700Z AUTO 10003KT M15/M19 RMK AO1 T11481194,CWQO,2015-02-12T07:00:00Z,48.42,-68.9,-14.8,-19.4,100,3,,,,,,TRUE,TRUE,,,,,,,,,,,,,,,,,,,,,,,,,,,METAR,1.0
CWQK 120700Z AUTO 26003KT 10/07 RMK AO1 SLP227 T01020072 51015,CWQK,2015-02-12T07:00:00Z,48.3,-123.53,10.2,7.2,260,3,,,,1022.7,,TRUE,TRUE,,,,,,,,,,,,,,,,1.5,,,,,,,,,,,METAR,5.0
CWQH 120700Z AUTO 05006KT M13/M16 RMK AO1 SOG 31 T11311160,CWQH,2015-02-12T07:00:00Z,45.37,-71.82,-13.1,-16.0,50,6,,,,,,TRUE,TRUE,,,,,,,,,,,,,,,,,,,,,,,,,,,METAR,181.0
CWIK 120700Z AUTO 14006KT M28/M32 RMK AO1 SOG 10 8030 SLP401 T12751317,CWIK,2015-02-12T07:00:00Z,50.37,-102.58,-27.5,-31.7,140,6,,,,1040.1,,TRUE,TRUE,,,,,,,,,,,,,,,,,,,,,,,,,,,METAR,602.0
CWBU 120700Z AUTO 17006KT M26/M29 RMK AO1 SOG 25 7042 SLP377 T12551294,CWBU,2015-02-12T07:00:00Z,53.33,-104.02,-25.5,-29.4,170,6,,,,1037.7,,TRUE,TRUE,,,,,,,,,,,,,,,,,,,,,,,,,,,METAR,373.0
CWBK 120700Z AUTO 34007KT M10/M11 RMK AO1 SOG 81 7029 SLP098 T10971112,CWBK,2015-02-12T07:00:00Z,45.77,-62.67,-9.7,-11.2,340,7,,,,1009.8,,TRUE,TRUE,,,,,,,,,,,,,,,,,,,,,,,,,,,METAR,2.0
CWAR 120700Z AUTO 06019G28KT M08/M10 RMK AO1 PK WND 06028/0656 SLP121 T10751095 56038,CWAR,2015-02-12T07:00:00Z,47.28,-54.0,-7.5,-9.5,60,19,28,,,1012.1,,TRUE,TRUE,,,,,,,,,,,,,,,,-3.8,,,,,,,,,,,METAR,16.0
CERM 120700Z AUTO 10004KT M17/M23 RMK AO1 SOG 40 8026 SLP144 T11661231,CERM,2015-02-12T07:00:00Z,47.42,-68.32,-16.6,-23.1,100,4,,,,1014.4,,TRUE,TRUE,,,,,,,,,,,,,,,,,,,,,,,,,,,METAR,154.0
CZSP 120700Z AUTO 02006KT M09/M11 RMK AO1 SLP121 T10911108 56029,CZSP,2015-02-12T07:00:00Z,46.45,-62.58,-9.1,-10.8,20,6,,,,1012.1,,TRUE,TRUE,,,,,,,,,,,,,,,,-2.9,,,,,,,,,,,METAR,30.0
CZCR 120700Z AUTO 13003KT M19/M22 RMK AO1 SOG 33 6024 SLP180 T11941216,CZCR,2015-02-12T07:00:00Z,47.97,-66.32,-19.4,-21.6,130,3,,,,1018.0,,TRUE,TRUE,,,,,,,,,,,,,,,,,,,,,,,,,,,METAR,38.0
CWXI 120700Z AUTO 05012KT M20/M24 RMK AO1 SOG 77 6015 SLP205 T12031235,CWXI,2015-02-12T07:00:00Z,51.02,-57.1,-20.3,-23.5,50,12,,,,1020.5,,TRUE,TRUE,,,,,,,,,,,,,,,,,,,,,,,,,,,METAR,6.0
CWBE 120700Z AUTO 01011G18KT M14/M18 RMK AO1 PK WND 02021/0616 SLP125 T11381178 53035,CWBE,2015-02-12T07:00:00Z,45.98,-81.48,-13.8,-17.8,10,11,18,,,1012.5,,TRUE,TRUE,,,,,,,,,,,,,,,,3.5,,,,,,,,,,,METAR,196.0
CWDQ 120700Z AUTO 18001KT M13/M14 RMK AO1 SOG 38 6017 SLP099 T11341135,CWDQ,2015-02-12T07:00:00Z,47.42,-72.78,-13.4,-13.5,180,1,,,,1009.9,,TRUE,TRUE,,,,,,,,,,,,,,,,,,,,,,,,,,,METAR,169.0
CWJU 120700Z AUTO 12008KT 09/08 RMK AO1 2PAST HR 3006 SLP055 P0001 T00890081 50002,CWJU,2015-02-12T07:00:00Z,54.25,-133.07,8.9,8.1,120,8,,,,1005.5,,TRUE,TRUE,,,,,,,,,,,,,,,,0.2,,,,,0.01,,,,,,METAR,41.0
CXSC 120700Z AUTO 14006KT M07/M09 RMK AO1 T10721088,CXSC,2015-02-12T07:00:00Z,50.3,-110.08,-7.2,-8.8,140,6,,,,,,TRUE,TRUE,,,,,,,,,,,,,,,,,,,,,,,,,,,METAR,800.0
CXTV 120700Z AUTO 00000KT M35/M39 RMK AO1 SLP268 T13511387 50001,CXTV,2015-02-12T07:00:00Z,68.75,-133.5,-35.1,-38.7,0,0,,,,1026.8,,TRUE,TRUE,,,,,,,,,,,,,,,,0.1,,,,,,,,,,,METAR,85.0
CWME 120700Z AUTO 05015G21KT 07/05 RMK AO1 2PAST HR 3001 PK WND 03025/0605 SLP162 P0001 T00660052 50002,CWME,2015-02-12T07:00:00Z,52.18,-127.47,6.6,5.2,50,15,21,,,1016.2,,TRUE,TRUE,,,,,,,,,,,,,,,,0.2,,,,,0.01,,,,,,METAR,32.0
CWRU 120700Z AUTO 12039G45KT 09/09 RMK AO1 PK WND 12047/0648 SLP145 T00930090 51005,CWRU,2015-02-12T07:00:00Z,50.12,-127.93,9.3,9.0,120,39,45,,,1014.5,,TRUE,TRUE,,,,,,,,,,,,,,,,0.5,,,,,,,,,,,METAR,98.0
CWQS 120700Z AUTO 17025G30KT 10/10 RMK AO1 PK WND 18031/0609 SLP062 T01020098 50006,CWQS,2015-02-12T07:00:00Z,53.32,-132.77,10.2,9.8,170,25,30,,,1006.2,,TRUE,TRUE,,,,,,,,,,,,,,,,0.6,,,,,,,,,,,METAR,14.0
CWWL 120700Z AUTO 15025KT 09/08 RMK AO1 4PAST HR 2009 PK WND 15035/0633 SLP091 P0005 T00890082 50014,CWWL,2015-02-12T07:00:00Z,53.5,-130.63,8.9,8.2,150,25,,,,1009.1,,TRUE,TRUE,,,,,,,,,,,,,,,,1.4,,,,,0.05,,,,,,METAR,17.0
CWZV 120700Z AUTO 18023KT 09/09 RMK AO1 PK WND 19026/0651 SLP103 T00850090 53018,CWZV,2015-02-12T07:00:00Z,51.93,-131.02,8.5,9.0,180,23,,,,1010.3,,TRUE,TRUE,,,,,,,,,,,,,,,,1.8,,,,,,,,,,,METAR,92.0
CWZL 120700Z AUTO 16016KT 10/10 RMK AO1 PK WND 15022/0627 SLP079 T01030095 51007,CWZL,2015-02-12T07:00:00Z,53.03,-131.6,10.3,9.5,160,16,,,,1007.9,,TRUE,TRUE,,,,,,,,,,,,,,,,0.7,,,,,,,,,,,METAR,17.0
CWHP 120700Z AUTO 06016KT M14/M16 RMK AO1 PK WND 04021/0605 SLP182 T11361162 56016,CWHP,2015-02-12T07:00:00Z,49.07,-61.7,-13.6,-16.2,60,16,,,,1018.2,,TRUE,TRUE,,,,,,,,,,,,,,,,-1.6,,,,,,,,,,,METAR,4.0
CWWX 120700Z AUTO 03018G25KT M08/M10 RMK AO1 PK WND 03025/0658 SLP100 T10801103 53011,CWWX,2015-02-12T07:00:00Z,45.32,-81.73,-8.0,-10.3,30,18,25,,,1010.0,,TRUE,TRUE,,,,,,,,,,,,,,,,1.1,,,,,,,,,,,METAR,181.0
CXPA 120700Z AUTO 08003KT M08/M10 RMK AO1 T10811103,CXPA,2015-02-12T07:00:00Z,55.62,-118.3,-8.1,-10.3,80,3,,,,,,TRUE,TRUE,,,,,,,,,,,,,,,,,,,,,,,,,,,METAR,621.0
CXOY 120700Z AUTO 15014KT M15/M17 RMK AO1 T11521168,CXOY,2015-02-12T07:00:00Z,51.38,-110.35,-15.2,-16.8,150,14,,,,,,TRUE,TRUE,,,,,,,,,,,,,,,,,,,,,,,,,,,METAR,767.0
CXKM 120700Z AUTO 15010KT M13/M15 RMK AO1 T11341153,CXKM,2015-02-12T07:00:00Z,52.82,-111.85,-13.4,-15.3,150,10,,,,,,TRUE,TRUE,,,,,,,,,,,,,,,,,,,,,,,,,,,METAR,675.0
CXHR 120700Z AUTO 13005KT M09/M10 RMK AO1 T10891096,CXHR,2015-02-12T07:00:00Z,51.18,-112.5,-8.9,-9.6,130,5,,,,,,TRUE,TRUE,,,,,,,,,,,,,,,,,,,,,,,,,,,METAR,971.0
CXFR 120700Z AUTO 05003KT M15/M17 RMK AO1 T11481168,CXFR,2015-02-12T07:00:00Z,56.08,-118.43,-14.8,-16.8,50,3,,,,,,TRUE,TRUE,,,,,,,,,,,,,,,,,,,,,,,,,,,METAR,655.0
CXDP 120700Z AUTO 17007KT M10/M12 RMK AO1 PK WND 16018/0611 T10951119,CXDP,2015-02-12T07:00:00Z,54.32,-113.95,-9.5,-11.9,170,7,,,,,,TRUE,TRUE,,,,,,,,,,,,,,,,,,,,,,,,,,,METAR,614.0
CXBR 120700Z AUTO 24022KT 07/M01 RMK AO1 PK WND 24034/0608 T00701006,CXBR,2015-02-12T07:00:00Z,49.62,-113.82,7.0,-0.6,240,22,,,,,,TRUE,TRUE,,,,,,,,,,,,,,,,,,,,,,,,,,,METAR,1073.0
CXAF 120700Z AUTO 17008KT M14/M16 RMK AO1 PK WND 17018/0642 T11351156,CXAF,2015-02-12T07:00:00Z,54.28,-112.97,-13.5,-15.6,170,8,,,,,,TRUE,TRUE,,,,,,,,,,,,,,,,,,,,,,,,,,,METAR,664.0
SARC 120700Z 00000KT CAVOK 20/20 Q1011,SARC,2015-02-12T07:00:00Z,-27.43,-58.77,20.0,20.0,0,0,,6.21,29.852362,,,,,,,,,,,CAVOK,,,,,,,,VFR,,,,,,,,,,,,METAR,62.0
SMJP 120700Z 00000KT 9999 SCT010 SCT035 25/24 Q1012 NOSIG,SMJP,2015-02-12T07:00:00Z,5.45,-55.17,25.0,24.0,0,0,,6.21,29.88189,,,,,,TRUE,,,,,SCT,1000,SCT,3500,,,,,VFR,,,,,,,,,,,,METAR,16.0
OYAT 120700Z 14018KT CAVOK 24/04 Q1021,OYAT,2015-02-12T07:00:00Z,14.55,46.83,24.0,4.0,140,18,,6.21,30.147638,,,,,,,,,,,CAVOK,,,,,,,,VFR,,,,,,,,,,,,METAR,1039.0
CYXE 120700Z 15011KT 15SM SCT200 M22/M27 A3035 RMK CI4 PRESFR SLP337,CYXE,2015-02-12T07:00:00Z,52.17,-106.7,-22.0,-27.0,150,11,,15.0,30.351377,1033.7,,,,,,,,,,SCT,20000,,,,,,,VFR,,,,,,,,,,,,SPECI,504.0
CYXC 120700Z 15006KT 25SM FEW060 FEW110 05/01 A3018 RMK SC1AC1 SLP239,CYXC,2015-02-12T07:00:00Z,49.6,-115.77,5.0,1.0,150,6,,25.0,30.180119,1023.9,,,,,,,,,,FEW,6000,FEW,11000,,,,,VFR,,,,,,,,,,,,SPECI,939.0
CYZF 120700Z 08007KT 4SM -SN BKN024 OVC045 M25/M28 A3006 RMK SC5SC3 SLP212,CYZF,2015-02-12T07:00:00Z,62.47,-114.45,-25.0,-28.0,80,7,,4.0,30.059055,1021.2,,,,,,,,,-SN,BKN,2400,OVC,4500,,,,,MVFR,,,,,,,,,,,,METAR,206.0
YBUD 120700Z AUTO 12019KT 9999 // NCD 28/18 Q1015,YBUD,2015-02-12T07:00:00Z,-24.9,152.32,28.0,18.0,120,19,,6.21,29.970472,,,TRUE,,,,,,,,,,,,,,,,,,,,,,,,,,,,METAR,82.0
YBWP 120700Z AUTO 01003KT 9999 // ////// 24/23 Q1005,YBWP,2015-02-12T07:00:00Z,-12.68,141.92,24.0,23.0,10,3,,6.21,29.675198,,,TRUE,,,,,,,,,,,,,,,,,,,,,,,,,,,,METAR,12.0
YBWX 120700Z AUTO 25015KT //// // ////// 36/17 Q1008,YBWX,2015-02-12T07:00:00Z,-20.88,115.4,36.0,17.0,250,15,,,29.763779,,,TRUE,,,,,,,,,,,,,,,,,,,,,,,,,,,,METAR,6.0
YCAR 120700Z AUTO 21016KT 9999 // ////// 33/24 Q1005,YCAR,2015-02-12T07:00:00Z,-24.88,113.67,33.0,24.0,210,16,,6.21,29.675198,,,TRUE,,,,,,,,,,,,,,,,,,,,,,,,,,,,METAR,8.0
YCAS 120700Z AUTO 10012KT //// // ////// 26/19 Q1018,YCAS,2015-02-12T07:00:00Z,-28.88,153.07,26.0,19.0,100,12,,,30.059055,,,TRUE,,,,,,,,,,,,,,,,,,,,,,,,,,,,METAR,26.0
YCBA 120700Z AUTO 17009KT 130V220 //// // ////// 35/10 Q1014,YCBA,2015-02-12T07:00:00Z,-31.53,145.8,35.0,10.0,170,9,,,29.940945,,,TRUE,,,,,,,,,,,,,,,,,,,,,,,,,,,,METAR,221.0
YCBB 120700Z AUTO 19010KT //// // ////// 20/16 Q1020,YCBB,2015-02-12T07:00:00Z,-31.33,149.27,20.0,16.0,190,10,,,30.11811,,,TRUE,,,,,,,,,,,,,,,,,,,,,,,,,,,,METAR,645.0
YCBP 120700Z AUTO 10010KT 060V120 //// // NCD 41/M06 Q1012,YCBP,2015-02-12T07:00:00Z,-29.03,134.72,41.0,-6.0,100,10,,,29.88189,,,TRUE,,,,,,,,,,,,,,,,,,,,,,,,,,,,METAR,226.0
YCCY 120700Z AUTO 10015KT //// // ////// 37/09 Q1007,YCCY,2015-02-12T07:00:00Z,-20.67,140.5,37.0,9.0,100,15,,,29.734253,,,TRUE,,,,,,,,,,,,,,,,,,,,,,,,,,,,METAR,570.0
RJNK 120700Z 17011KT 5000 BR FEW008 SCT015 BKN020 04/03 Q1004 RETS,RJNK,2015-02-12T07:00:00Z,36.37,136.42,4.0,3.0,170,11,,3.11,29.64567,,,,,,,,,,BR,FEW,800,SCT,1500,BKN,2000,,,MVFR,,,,,,,,,,,,METAR,9.0
YPXM 120700Z AUTO 22007KT 9999 // SCT022 29/23 Q1008,YPXM,2015-02-12T07:00:00Z,-10.45,105.67,29.0,23.0,220,7,,6.21,29.763779,,,TRUE,,,,,,,,SCT,2200,,,,,,,VFR,,,,,,,,,,,,METAR,259.0
HKRE 120700Z 03010KT 9999 FEW023 SCT300 23/12 Q1024,HKRE,2015-02-12T07:00:00Z,-1.28,36.87,23.0,12.0,30,10,,6.21,30.236221,,,,,,,,,,,FEW,2300,SCT,30000,,,,,VFR,,,,,,,,,,,,METAR,1627.0
HKML 120700Z 08008KT 9999 SCT024TCU 31/22 Q1014,HKML,2015-02-12T07:00:00Z,-3.22,40.1,31.0,22.0,80,8,,6.21,29.940945,,,,,,,,,,,SCT,2400,,,,,,,VFR,,,,,,,,,,,,METAR,23.0
HKKS 120700Z 00000KT 9999 SCT021 25/11,HKKS,2015-02-12T07:00:00Z,-0.67,34.77,25.0,11.0,0,0,,6.21,,,,,,,,,,,,SCT,2100,,,,,,,VFR,,,,,,,,,,,,METAR,1493.0
CYTH 120700Z VRB02KT 10SM IC FEW140 SCT200 M28/M32 A3055 RMK AC2CI2 PRESFR SLP382,CYTH,2015-02-12T07:00:00Z,55.78,-97.87,-28.0,-32.0,0,2,,10.0,30.549213,1038.2,,,,,,,,,IC,FEW,14000,SCT,20000,,,,,VFR,,,,,,,,,,,,SPECI,218.0
CYSM 120700Z 12004KT 080V160 10SM -SN OVC050 M20/M23 A2999 RMK SC8 SLP183,CYSM,2015-02-12T07:00:00Z,60.03,-111.97,-20.0,-23.0,120,4,,10.0,29.991142,1018.3,,,,,,,,,-SN,OVC,5000,,,,,,,VFR,,,,,,,,,,,,SPECI,203.0
CYSF 120700Z AUTO 09008KT 9SM OVC060 M23/M27 A3020 RMK PRESFR SLP261,CYSF,2015-02-12T07:00:00Z,59.25,-105.82,-23.0,-27.0,90,8,,9.0,30.200787,1026.1,,TRUE,,,,,,,,OVC,6000,,,,,,,VFR,,,,,,,,,,,,SPECI,250.0
CYQV 120700Z AUTO 16005KT 9SM CLR M28/M31 A3053 RMK PRESFR SLP404,CYQV,2015-02-12T07:00:00Z,51.27,-102.47,-28.0,-31.0,160,5,,9.0,30.528543,1040.4,,TRUE,,,,,,,,CLR,,,,,,,,VFR,,,,,,,,,,,,SPECI,498.0
CYPE 120700Z 23006KT 15SM BKN250 M11/M13 A2992 RMK CI7 SLP180,CYPE,2015-02-12T07:00:00Z,56.22,-117.45,-11.0,-13.0,230,6,,15.0,29.920275,1018.0,,,,,,,,,,BKN,25000,,,,,,,VFR,,,,,,,,,,,,SPECI,571.0
CYOD 120700Z 17007KT 15SM -SHSN OVC013 M19/M24 A3016 RMK SC8 PRESFR PCPN VRY LGT SLP271,CYOD,2015-02-12T07:00:00Z,54.4,-110.28,-19.0,-24.0,170,7,,15.0,30.159449,1027.1,,,,,,,,,-SHSN,OVC,1300,,,,,,,MVFR,,,,,,,,,,,,SPECI,544.0
CYIO 120700Z AUTO 18007KT 9SM CLR M38/M43 A3005 RMK SLP191,CYIO,2015-02-12T07:00:00Z,72.67,-77.97,-38.0,-43.0,180,7,,9.0,30.050198,1019.1,,TRUE,,,,,,,,CLR,,,,,,,,VFR,,,,,,,,,,,,SPECI,57.0
CYEK 120700Z AUTO 26008KT 9SM CLR M38/M42 A3046 RMK SLP315,CYEK,2015-02-12T07:00:00Z,61.1,-94.07,-38.0,-42.0,260,8,,9.0,30.46063,1031.5,,TRUE,,,,,,,,CLR,,,,,,,,VFR,,,,,,,,,,,,SPECI,10.0
CYED 120700Z AUTO 18007KT 9SM OVC081 M10/M13 A3004 RMK SLP226,CYED,2015-02-12T07:00:00Z,53.67,-113.47,-10.0,-13.0,180,7,,9.0,30.041338,1022.6,,TRUE,,,,,,,,OVC,8100,,,,,,,VFR,,,,,,,,,,,,SPECI,688.0
CYCY 120700Z AUTO 27005KT 9SM CLR M37/M43 A3003 RMK SLP173,CYCY,2015-02-12T07:00:00Z,70.47,-68.52,-37.0,-43.0,270,5,,9.0,30.029528,1017.3,,TRUE,,,,,,,,CLR,,,,,,,,VFR,,,,,,,,,,,,SPECI,26.0
CYBW 120700Z AUTO 33007KT 4SM BR OVC170 M08/M08 A2998 RMK SLP224,CYBW,2015-02-12T07:00:00Z,51.1,-114.37,-8.0,-8.0,330,7,,4.0,29.97933,1022.4,,TRUE,,,,,,,BR,OVC,17000,,,,,,,MVFR,,,,,,,,,,,,SPECI,1200.0
CWVD 120700Z AUTO 32014KT M31/ A2968 RMK SLP151,CWVD,2015-02-12T07:00:00Z,67.52,-63.77,-31.0,,320,14,,,29.681103,1015.1,,TRUE,,,,,,,,,,,,,,,,,,,,,,,,,,,,SPECI,573.0
CWRF 120700Z AUTO ///// M38/ A2999 RMK SLP228,CWRF,2015-02-12T07:00:00Z,69.42,-89.72,-38.0,,,,,,29.991142,1022.8,,TRUE,,,,,,,,,,,,,,,,,,,,,,,,,,,,METAR,325.0
CYYG 120700Z 36009G16KT 15SM DRSN OVC023 M13/M15 A2988 RMK NS8 SLP122,CYYG,2015-02-12T07:00:00Z,46.27,-63.12,-13.0,-15.0,360,9,16,15.0,29.878937,1012.2,,,,,,,,,DRSN,OVC,2300,,,,,,,MVFR,,,,,,,,,,,,SPECI,54.0
CYSJ 120700Z 01010KT 15SM SCT015 OVC220 M18/M21 A2987 RMK SC4CI4 PRESFR SLP124,CYSJ,2015-02-12T07:00:00Z,45.32,-65.87,-18.0,-21.0,10,10,,15.0,29.870079,1012.4,,,,,,,,,,SCT,1500,OVC,22000,,,,,VFR,,,,,,,,,,,,METAR,109.0
CYDF 120700Z 04012G18KT 15SM BKN200 M19/M22 A3010 RMK CI6 SLP196,CYDF,2015-02-12T07:00:00Z,49.22,-57.4,-19.0,-22.0,40,12,18,15.0,30.100393,1019.6,,,,,,,,,,BKN,20000,,,,,,,VFR,,,,,,,,,,,,SPECI,22.0
CYCX 120700Z 02004KT 15SM OVC020 M17/M21 A2994 RMK SC8 DA-3931FT SLP144,CYCX,2015-02-12T07:00:00Z,45.82,-66.42,-17.0,-21.0,20,4,,15.0,29.940945,1014.4,,,,,,,,,,OVC,2000,,,,,,,MVFR,,,,,,,,,,,,SPECI,51.0
CZVL 120700Z AUTO 16007KT 9SM OVC090 M10/M12 A3003 RMK SLP222,CZVL,2015-02-12T07:00:00Z,53.67,-113.85,-10.0,-12.0,160,7,,9.0,30.029528,1022.2,,TRUE,,,,,,,,OVC,9000,,,,,,,VFR,,,,,,,,,,,,METAR,686.0
CYZH 120700Z AUTO 09006KT 9SM OVC060 M12/M14 A3000 RMK SLP206,CYZH,2015-02-12T07:00:00Z,55.28,-114.77,-12.0,-14.0,90,6,,9.0,30.0,1020.6,,TRUE,,,,,,,,OVC,6000,,,,,,,VFR,,,,,,,,,,,,SPECI,581.0
CYYL 120700Z AUTO 22007KT 9SM OVC150 M24/M28 A3041 RMK PRESFR SLP350,CYYL,2015-02-12T07:00:00Z,56.87,-101.07,-24.0,-28.0,220,7,,9.0,30.410433,1035.0,,TRUE,,,,,,,,OVC,15000,,,,,,,VFR,,,,,,,,,,,,SPECI,357.0
CYXD 120700Z AUTO 18006KT 9SM OVC084 M09/M13 A3006 RMK SLP229,CYXD,2015-02-12T07:00:00Z,53.57,-113.52,-9.0,-13.0,180,6,,9.0,30.059055,1022.9,,TRUE,,,,,,,,OVC,8400,,,,,,,VFR,,,,,,,,,,,,SPECI,671.0
CYVC 120700Z 16012KT 15SM OVC075 M21/M26 A3036 RMK AC8 PRESFR SLP329,CYVC,2015-02-12T07:00:00Z,55.15,-105.27,-21.0,-26.0,160,12,,15.0,30.360237,1032.9,,,,,,,,,,OVC,7500,,,,,,,VFR,,,,,,,,,,,,SPECI,379.0
CYQW 120700Z AUTO 11013KT 9SM BKN032 BKN120 OVC180 M22/M26 A3031 RMK PRESFR SLP326,CYQW,2015-02-12T07:00:00Z,52.77,-108.25,-22.0,-26.0,110,13,,9.0,30.31004,1032.6,,TRUE,,,,,,,,BKN,3200,BKN,12000,OVC,18000,,,VFR,,,,,,,,,,,,SPECI,548.0
CYQR 120700Z 14015G21KT 15SM FEW150 BKN200 M24/M27 A3045 RMK AC1CI6 SLP379,CYQR,2015-02-12T07:00:00Z,50.43,-104.67,-24.0,-27.0,140,15,21,15.0,30.448818,1037.9,,,,,,,,,,FEW,15000,BKN,20000,,,,,VFR,,,,,,,,,,,,SPECI,577.0
CYQL 120700Z AUTO 25015G22KT 9SM CLR 05/00 A3002 RMK PRESFR SLP204,CYQL,2015-02-12T07:00:00Z,49.63,-112.8,5.0,0.0,250,15,22,9.0,30.02067,1020.4,,TRUE,,,,,,,,CLR,,,,,,,,VFR,,,,,,,,,,,,SPECI,929.0
CYQF 120700Z 18004KT 5SM BR FEW120 BKN180 M09/M10 A3001 RMK AC2AC3 SLP226,CYQF,2015-02-12T07:00:00Z,52.17,-113.9,-9.0,-10.0,180,4,,5.0,30.008858,1022.6,,,,,,,,,BR,FEW,12000,BKN,18000,,,,,MVFR,,,,,,,,,,,,SPECI,905.0
CYPA 120700Z 16003KT 15SM BKN140 M23/M28 A3044 RMK AC7 SLP362,CYPA,2015-02-12T07:00:00Z,53.22,-105.67,-23.0,-28.0,160,3,,15.0,30.43996,1036.2,,,,,,,,,,BKN,14000,,,,,,,VFR,,,,,,,,,,,,SPECI,428.0
CYNE 120700Z AUTO 21002KT 9SM BKN150 M32/M35 A3063 RMK PRESFR SLP408,CYNE,2015-02-12T07:00:00Z,53.97,-97.82,-32.0,-35.0,210,2,,9.0,30.628937,1040.8,,TRUE,,,,,,,,BKN,15000,,,,,,,VFR,,,,,,,,,,,,SPECI,223.0
CYKJ 120700Z AUTO 17010G17KT 9SM BKN110 BKN130 M23/M27 A3017 RMK PRESFR SLP282,CYKJ,2015-02-12T07:00:00Z,57.25,-105.62,-23.0,-27.0,170,10,17,9.0,30.171259,1028.2,,TRUE,,,,,,,,BKN,11000,BKN,13000,,,,,VFR,,,,,,,,,,,,SPECI,509.0
CYGX 120700Z 22004KT 15SM SKC M32/M35 A3056 RMK PRESFR SLP375,CYGX,2015-02-12T07:00:00Z,56.35,-94.7,-32.0,-35.0,220,4,,15.0,30.561024,1037.5,,,,,,,,,,SKC,,,,,,,,VFR,,,,,,,,,,,,SPECI,145.0
CYET 120700Z AUTO 26002KT 7SM BKN120 OVC140 M11/M11 A2999 RMK SLP221,CYET,2015-02-12T07:00:00Z,53.57,-116.47,-11.0,-11.0,260,2,,7.0,29.991142,1022.1,,TRUE,,,,,,,,BKN,12000,OVC,14000,,,,,VFR,,,,,,,,,,,,SPECI,925.0
CYEN 120700Z 14007KT 15SM FEW220 M23/M27 A3054 RMK CI0 PRESFR SLP409,CYEN,2015-02-12T07:00:00Z,49.22,-102.97,-23.0,-27.0,140,7,,15.0,30.540354,1040.9,,,,,,,,,,FEW,22000,,,,,,,VFR,,,,,,,,,,,,SPECI,581.0
CYDN 120700Z AUTO 18004KT 9SM FEW170 SCT200 M28/M31 A3067 RMK PRESFR SLP426,CYDN,2015-02-12T07:00:00Z,51.1,-100.03,-28.0,-31.0,180,4,,9.0,30.670275,1042.6,,TRUE,,,,,,,,FEW,17000,SCT,20000,,,,,VFR,,,,,,,,,,,,SPECI,305.0
CYBU 120700Z AUTO 14007KT 9SM OVC170 M25/M29 A3051 RMK PRESFR SLP380,CYBU,2015-02-12T07:00:00Z,53.32,-104.0,-25.0,-29.0,140,7,,9.0,30.510826,1038.0,,TRUE,,,,,,,,OVC,17000,,,,,,,VFR,,,,,,,,,,,,SPECI,374.0
CYBR 120700Z 15003KT 15SM FEW210 M31/M34 A3066 RMK CI2 SLP438,CYBR,2015-02-12T07:00:00Z,49.92,-99.95,-31.0,-34.0,150,3,,15.0,30.661417,1043.8,,,,,,,,,,FEW,21000,,,,,,,VFR,,,,,,,,,,,,METAR,409.0
CYBQ 120700Z AUTO 21005KT 9SM BKN120 M30/M34 A3040 RMK PRESFR SLP339,CYBQ,2015-02-12T07:00:00Z,58.7,-98.5,-30.0,-34.0,210,5,,9.0,30.398623,1033.9,,TRUE,,,,,,,,BKN,12000,,,,,,,VFR,,,,,,,,,,,,METAR,262.0
CYBK 120700Z 24007KT 15SM SKC M38/M42 A3034 RMK SLP279,CYBK,2015-02-12T07:00:00Z,64.28,-96.07,-38.0,-42.0,240,7,,15.0,30.339567,1027.9,,,,,,,,,,SKC,,,,,,,,VFR,,,,,,,,,,,,SPECI,18.0
CWHN 120700Z AUTO 19009G17KT 170V230 9SM OVC009 M20/M26 A3007 RMK PRESFR SLP253,CWHN,2015-02-12T07:00:00Z,54.88,-109.97,-20.0,-26.0,190,9,17,9.0,30.070866,1025.3,,TRUE,,,,,,,,OVC,900,,,,,,,IFR,,,,,,,,,,,,METAR,636.0
CYYY 120700Z 08007KT 30SM SCT095 M18/M22 A3000 RMK AC3 SLP164,CYYY,2015-02-12T07:00:00Z,48.6,-68.22,-18.0,-22.0,80,7,,30.0,30.0,1016.4,,,,,,,,,,SCT,9500,,,,,,,VFR,,,,,,,,,,,,SPECI,52.0
CYVV 120700Z 30010KT 8SM -SHSN OVC030 M07/M10 A2979 RMK SC8 SLP100,CYVV,2015-02-12T07:00:00Z,44.75,-81.08,-7.0,-10.0,300,10,,8.0,29.790354,1010.0,,,,,,,,,-SHSN,OVC,3000,,,,,,,MVFR,,,,,,,,,,,,SPECI,222.0
CYVP 120700Z 23003KT 15SM FEW045 M35/M39 A3022 RMK SC1 SLP240,CYVP,2015-02-12T07:00:00Z,58.12,-68.42,-35.0,-39.0,230,3,,15.0,30.221457,1024.0,,,,,,,,,,FEW,4500,,,,,,,VFR,,,,,,,,,,,,METAR,60.0
CYTZ 120700Z AUTO 31010G15KT 280V350 9SM OVC080 M02/M07 A2979 RMK SLP091,CYTZ,2015-02-12T07:00:00Z,43.63,-79.4,-2.0,-7.0,310,10,15,9.0,29.790354,1009.1,,TRUE,,,,,,,,OVC,8000,,,,,,,VFR,,,,,,,,,,,,SPECI,77.0
CYTS 120700Z 34012G20KT 8SM -SN DRSN FEW020 SCT048 BKN065 M24/M28 A3004 RMK SC2SC2SC2 SLP203,CYTS,2015-02-12T07:00:00Z,48.57,-81.37,-24.0,-28.0,340,12,20,8.0,30.041338,1020.3,,,,,,,,,-SN DRSN,FEW,2000,SCT,4800,BKN,6500,,,VFR,,,,,,,,,,,,SPECI,295.0
CYTL 120700Z AUTO 29005KT 9SM CLR M33/M36 A3055 RMK SLP382,CYTL,2015-02-12T07:00:00Z,53.82,-89.88,-33.0,-36.0,290,5,,9.0,30.549213,1038.2,,TRUE,,,,,,,,CLR,,,,,,,,VFR,,,,,,,,,,,,METAR,224.0
CYRJ 120700Z 31004KT 1SM -SN VV010 M20/M23 A2982 RMK SN8 SLP119,CYRJ,2015-02-12T07:00:00Z,48.52,-72.27,-20.0,-23.0,310,4,,1.0,29.819881,1011.9,,,,,,,,,-SN,OVX,0,,,,,,,LIFR,,,,,,,,,,,1000,SPECI,179.0
CYQT 120700Z 34010G16KT 15SM FEW029 M21/M26 A3047 RMK SC1 SLP338,CYQT,2015-02-12T07:00:00Z,48.37,-89.32,-21.0,-26.0,340,10,16,15.0,30.469488,1033.8,,,,,,,,,,FEW,2900,,,,,,,VFR,,,,,,,,,,,,SPECI,199.0
CYNA 120700Z AUTO 04010KT 9SM CLR M21/M26 A3013 RMK SLP204,CYNA,2015-02-12T07:00:00Z,50.17,-61.82,-21.0,-26.0,40,10,,9.0,30.129921,1020.4,,TRUE,,,,,,,,CLR,,,,,,,,VFR,,,,,,,,,,,,SPECI,11.0
CYHD 120700Z AUTO 35006KT 9SM CLR M26/M29 A3055 RMK SLP398,CYHD,2015-02-12T07:00:00Z,49.82,-92.75,-26.0,-29.0,350,6,,9.0,30.549213,1039.8,,TRUE,,,,,,,,CLR,,,,,,,,VFR,,,,,,,,,,,,SPECI,413.0
CYGP 120700Z 00000KT 15SM SCT100 M24/M26 A3009 RMK AC4 SLP193,CYGP,2015-02-12T07:00:00Z,48.77,-64.47,-24.0,-26.0,0,0,,15.0,30.088583,1019.3,,,,,,,,,,SCT,10000,,,,,,,VFR,,,,,,,,,,,,SPECI,33.0
CYAM 120700Z 34010G15KT 15SM BKN100 M19/M24 A3008 RMK AC5 PRESRR SLP202,CYAM,2015-02-12T07:00:00Z,46.47,-84.52,-19.0,-24.0,340,10,15,15.0,30.079725,1020.2,,,,,,,,,,BKN,10000,,,,,,,VFR,,,,,,,,,,,,SPECI,192.0
CYZT 120700Z 12016G23KT 15SM OVC033 10/08 A3005 RMK SC8 SLP178,CYZT,2015-02-12T07:00:00Z,50.67,-127.37,10.0,8.0,120,16,23,15.0,30.050198,1017.8,,,,,,,,,,OVC,3300,,,,,,,VFR,,,,,,,,,,,,SPECI,22.0
CYPX 120700Z AUTO VRB02KT 9SM CLR M37/M42 A3035 RMK SLP282,CYPX,2015-02-12T07:00:00Z,60.03,-77.27,-37.0,-42.0,0,2,,9.0,30.351377,1028.2,,TRUE,,,,,,,,CLR,,,,,,,,VFR,,,,,,,,,,,,SPECI,23.0
SBTE 120700Z 00000KT CAVOK 24/24 Q1012,SBTE,2015-02-12T07:00:00Z,-5.03,-42.82,24.0,24.0,0,0,,6.21,29.88189,,,,,,,,,,,CAVOK,,,,,,,,VFR,,,,,,,,,,,,METAR,69.0
SBSJ 120700Z 06003KT 9999 FEW015 24/21 Q1018,SBSJ,2015-02-12T07:00:00Z,-23.22,-45.87,24.0,21.0,60,3,,6.21,30.059055,,,,,,,,,,,FEW,1500,,,,,,,VFR,,,,,,,,,,,,METAR,646.0
SEGU 120700Z 25004KT 9999 FEW010 BKN023 BKN100 26/20 Q1010 NOSIG RMK A2984,SEGU,2015-02-12T07:00:00Z,-2.13,-79.87,26.0,20.0,250,4,,6.21,29.822834,,,,,,TRUE,,,,,FEW,1000,BKN,2300,BKN,10000,,,MVFR,,,,,,,,,,,,METAR,9.0
SELT 120700Z 18002KT 9999 SCT030 12/10 Q1030,SELT,2015-02-12T07:00:00Z,-0.92,-78.62,12.0,10.0,180,2,,6.21,30.413385,,,,,,,,,,,SCT,3000,,,,,,,VFR,,,,,,,,,,,,METAR,2785.0
SEMT 120700Z 22004KT 9999 FEW023 24/23 Q1011,SEMT,2015-02-12T07:00:00Z,-0.95,-80.67,24.0,23.0,220,4,,6.21,29.852362,,,,,,,,,,,FEW,2300,,,,,,,VFR,,,,,,,,,,,,METAR,14.0
SEQM 120700Z 06002KT 9999 SCT003 SCT013 14/12 Q1026 NOSIG RMK A3030,SEQM,2015-02-12T07:00:00Z,-0.12,-78.35,14.0,12.0,60,2,,6.21,30.295275,,,,,,TRUE,,,,,SCT,300,SCT,1300,,,,,VFR,,,,,,,,,,,,METAR,2400.0
UBBQ 120700Z 17003KT 8000 -DZ OVC010 05/04 Q1018 R16/29//60 NOSIG RMK MT OBSC,UBBQ,2015-02-12T07:00:00Z,40.82,47.72,5.0,4.0,170,3,,4.97,30.059055,,,,,,TRUE,,,,-DZ,OVC,1000,,,,,,,MVFR,,,,,,,,,,,,METAR,338.0
SKSP 120700Z 05005KT 9999 FEW017 26/23 A2990,SKSP,2015-02-12T07:00:00Z,12.57,-81.72,26.0,23.0,50,5,,6.21,29.899607,,,,,,,,,,,FEW,1700,,,,,,,VFR,,,,,,,,,,,,METAR,-2.0
SKRG 120700Z 00000KT 8000 BKN012 BKN200 15/14 A30298 RMK HZ,SKRG,2015-02-12T07:00:00Z,6.17,-75.42,15.0,14.0,0,0,,4.97,,,,,,,,,,,,BKN,1200,BKN,20000,,,,,MVFR,,,,,,,,,,,,METAR,2137.0
SKCG 120700Z 04012KT 9999 FEW015 SCT070 26/22 A2985,SKCG,2015-02-12T07:00:00Z,10.43,-75.52,26.0,22.0,40,12,,6.21,29.84941,,,,,,,,,,,FEW,1500,SCT,7000,,,,,VFR,,,,,,,,,,,,METAR,1.0
SKCL 120700Z 07005KT 9999 FEW030 SCT090 20/18 A2995,SKCL,2015-02-12T07:00:00Z,3.53,-76.37,20.0,18.0,70,5,,6.21,29.949802,,,,,,,,,,,FEW,3000,SCT,9000,,,,,VFR,,,,,,,,,,,,METAR,969.0
SKBQ 120700Z 02014KT 9999 FEW012 BKN080 26/23 A2988,SKBQ,2015-02-12T07:00:00Z,10.9,-74.77,26.0,23.0,20,14,,6.21,29.878937,,,,,,,,,,,FEW,1200,BKN,8000,,,,,VFR,,,,,,,,,,,,METAR,10.0
SKBO 120700Z 05004KT 9999 BKN015 11/10 A3032,SKBO,2015-02-12T07:00:00Z,4.7,-74.12,11.0,10.0,50,4,,6.21,30.318897,,,,,,,,,,,BKN,1500,,,,,,,MVFR,,,,,,,,,,,,METAR,2548.0
SADF 120700Z 32004KT CAVOK 19/16 Q1010,SADF,2015-02-12T07:00:00Z,-34.45,-58.58,19.0,16.0,320,4,,6.21,29.822834,,,,,,,,,,,CAVOK,,,,,,,,VFR,,,,,,,,,,,,METAR,4.0
SBJP 120700Z 15004KT 9999 SCT020 25/22 Q1014,SBJP,2015-02-12T07:00:00Z,-7.15,-34.95,25.0,22.0,150,4,,6.21,29.940945,,,,,,,,,,,SCT,2000,,,,,,,VFR,,,,,,,,,,,,METAR,7.0
LBGO 120700Z VRB02KT 9999 BKN046 M02/M06 Q1029 NOSIG,LBGO,2015-02-12T07:00:00Z,43.15,25.72,-2.0,-6.0,0,2,,6.21,30.383858,,,,,,TRUE,,,,,BKN,4600,,,,,,,VFR,,,,,,,,,,,,METAR,86.0
LBPD 120700Z 30005KT 9999 SCT048 BKN060 OVC077 M01/M08 Q1026 NOSIG,LBPD,2015-02-12T07:00:00Z,42.13,24.8,-1.0,-8.0,300,5,,6.21,30.295275,,,,,,TRUE,,,,,SCT,4800,BKN,6000,OVC,7700,,,VFR,,,,,,,,,,,,METAR,185.0
WSSL 120700Z 01009KT 9999 FEW020TCU SCT022 BKN300 31/20 Q1009 RMK 0630Z Q1010,WSSL,2015-02-12T07:00:00Z,1.42,103.87,31.0,20.0,10,9,,6.21,29.793306,,,,,,,,,,,FEW,2000,SCT,2200,BKN,30000,,,VFR,,,,,,,,,,,,METAR,14.0
SCTN 120700Z AUTO 17003KT 130V190 9999 FEW017 11/09 Q1022,SCTN,2015-02-12T07:00:00Z,-42.92,-72.7,11.0,9.0,170,3,,6.21,30.177166,,,TRUE,,,,,,,,FEW,1700,,,,,,,VFR,,,,,,,,,,,,METAR,4.0
FIMP 120700Z 13011KT 9999 SCT020 29/22 Q1014,FIMP,2015-02-12T07:00:00Z,-20.42,57.67,29.0,22.0,130,11,,6.21,29.940945,,,,,,,,,,,SCT,2000,,,,,,,VFR,,,,,,,,,,,,METAR,57.0
FMCZ 120700Z 21006KT 9999 FEW022 BKN300 30/24 Q1012 NOSIG,FMCZ,2015-02-12T07:00:00Z,-12.8,45.27,30.0,24.0,210,6,,6.21,29.88189,,,,,,TRUE,,,,,FEW,2200,BKN,30000,,,,,VFR,,,,,,,,,,,,METAR,7.0
OMSJ 120700Z 18005KT CAVOK 29/09 Q1018,OMSJ,2015-02-12T07:00:00Z,25.32,55.52,29.0,9.0,180,5,,6.21,30.059055,,,,,,,,,,,CAVOK,,,,,,,,VFR,,,,,,,,,,,,METAR,33.0
OMRK 120700Z 25005KT CAVOK 30/10 Q1018 A3007,OMRK,2015-02-12T07:00:00Z,25.62,55.92,30.0,10.0,250,5,,6.21,30.059055,,,,,,,,,,,CAVOK,,,,,,,,VFR,,,,,,,,,,,,METAR,31.0
OMFJ 120700Z 11004KT 020V230 6000 NSC 28/18 Q1018 A3006,OMFJ,2015-02-12T07:00:00Z,25.1,56.32,28.0,18.0,110,4,,3.73,30.059055,,,,,,,,,,,,,,,,,,,,,,,,,,,,,,,METAR,28.0
OMDW 120700Z 17015KT CAVOK 29/11 Q1018 NOSIG,OMDW,2015-02-12T07:00:00Z,24.9,55.17,29.0,11.0,170,15,,6.21,30.059055,,,,,,TRUE,,,,,CAVOK,,,,,,,,VFR,,,,,,,,,,,,METAR,25.0
OMDB 120700Z 16006KT 120V210 CAVOK 29/10 Q1018 NOSIG,OMDB,2015-02-12T07:00:00Z,25.25,55.37,29.0,10.0,160,6,,6.21,30.059055,,,,,,TRUE,,,,,CAVOK,,,,,,,,VFR,,,,,,,,,,,,METAR,5.0
OMAL 120700Z 17013KT CAVOK 27/11 Q1019 A3011 NOSIG,OMAL,2015-02-12T07:00:00Z,24.25,55.6,27.0,11.0,170,13,,6.21,30.088583,,,,,,TRUE,,,,,CAVOK,,,,,,,,VFR,,,,,,,,,,,,METAR,262.0
OMAD 120700Z 16009KT 130V200 CAVOK 28/12 Q1017 A3003 NOSIG,OMAD,2015-02-12T07:00:00Z,24.42,54.47,28.0,12.0,160,9,,6.21,30.029528,,,,,,TRUE,,,,,CAVOK,,,,,,,,VFR,,,,,,,,,,,,METAR,3.0
OMAA 120700Z 16014KT 8000 NSC 28/12 Q1016 A3002 NOSIG,OMAA,2015-02-12T07:00:00Z,24.42,54.63,28.0,12.0,160,14,,4.97,30.0,,,,,,TRUE,,,,,,,,,,,,,,,,,,,,,,,,,METAR,27.0
LEGT 120700Z 05003KT 9999 BKN019 04/02 Q1019,LEGT,2015-02-12T07:00:00Z,40.28,-3.72,4.0,2.0,50,3,,6.21,30.088583,,,,,,,,,,,BKN,1900,,,,,,,MVFR,,,,,,,,,,,,SPECI,612.0
LEGA 120700Z 00000KT 3000 -RA FEW010 SCT020 OVC030 06/06 Q1018,LEGA,2015-02-12T07:00:00Z,37.12,-3.62,6.0,6.0,0,0,,1.86,30.059055,,,,,,,,,,-RA,FEW,1000,SCT,2000,OVC,3000,,,IFR,,,,,,,,,,,,SPECI,686.0
SGES 120700Z 00000KT 9999 SCT027 BKN080 25/24 Q1012,SGES,2015-02-12T07:00:00Z,-25.45,-54.85,25.0,24.0,0,0,,6.21,29.88189,,,,,,,,,,,SCT,2700,BKN,8000,,,,,VFR,,,,,,,,,,,,METAR,849.0
SGAS 120700Z 00000KT 9999 BKN020 BKN070 25/23 Q1011,SGAS,2015-02-12T07:00:00Z,-25.25,-57.52,25.0,23.0,0,0,,6.21,29.852362,,,,,,,,,,,BKN,2000,BKN,7000,,,,,MVFR,,,,,,,,,,,,METAR,101.0
LERI 120700Z VRB02KT 9999 -RA BKN020 10/09 Q1020 NOSIG,LERI,2015-02-12T07:00:00Z,37.95,-1.22,10.0,9.0,0,2,,6.21,30.11811,,,,,,TRUE,,,,-RA,BKN,2000,,,,,,,MVFR,,,,,,,,,,,,SPECI,75.0
CWPK 120700Z AUTO 10002KT M15/M17 RMK AO1 SOG 53 6008 SLP081 T11481173,CWPK,2015-02-12T07:00:00Z,47.92,-74.62,-14.8,-17.3,100,2,,,,1008.1,,TRUE,TRUE,,,,,,,,,,,,,,,,,,,,,,,,,,,METAR,442.0
VTCH 120700Z 02003KT 320V080 7000 FEW025 29/13 Q1010 A2984,VTCH,2015-02-12T07:00:00Z,19.3,97.98,29.0,13.0,20,3,,4.35,29.822834,,,,,,,,,,,FEW,2500,,,,,,,MVFR,,,,,,,,,,,,METAR,269.0
FAOB 120700Z AUTO 21003KT //// // ////// 21/13 Q1015,FAOB,2015-02-12T07:00:00Z,-34.6,20.27,21.0,13.0,210,3,,,29.970472,,,TRUE,,,,,,,,,,,,,,,,,,,,,,,,,,,,METAR,75.0
FAJB 120700Z AUTO 03003KT //// // ////// 23/15 Q1025,FAJB,2015-02-12T07:00:00Z,-26.15,28.0,23.0,15.0,30,3,,,30.265747,,,TRUE,,,,,,,,,,,,,,,,,,,,,,,,,,,,METAR,1626.0
CYQI 120700Z 01007KT 15SM BKN250 M15/M17 A2980 RMK CI7 SLP095,CYQI,2015-02-12T07:00:00Z,43.83,-66.08,-15.0,-17.0,10,7,,15.0,29.799213,1009.5,,,,,,,,,,BKN,25000,,,,,,,VFR,,,,,,,,,,,,SPECI,43.0
LERT 120700Z 05004KT 020V080 8000 -RA FEW014 BKN027 10/09 Q1017 NOSIG,LERT,2015-02-12T07:00:00Z,36.63,-6.33,10.0,9.0,50,4,,4.97,30.029528,,,,,,TRUE,,,,-RA,FEW,1400,BKN,2700,,,,,MVFR,,,,,,,,,,,,METAR,26.0
FPST 120700Z 21002KT 9999 TS FEW025CB BKN040 25/23 Q1012,FPST,2015-02-12T07:00:00Z,0.37,6.72,25.0,23.0,210,2,,6.21,29.88189,,,,,,,,,,TS,FEW,2500,BKN,4000,,,,,VFR,,,,,,,,,,,,METAR,13.0
FOOG 120700Z /////KT 9999 TS SCT008 FEW016CB 29/26 Q1012,FOOG,2015-02-12T07:00:00Z,-0.7,8.75,29.0,26.0,,,,6.21,29.88189,,,,,,,,,,TS,SCT,800,FEW,1600,,,,,VFR,,,,,,,,,,,,METAR,4.0
FGSL 120700Z 23007KT 9999 TS SCT010 FEW020CB BKN060 27/23 Q1012 NOSIG,FGSL,2015-02-12T07:00:00Z,3.75,8.72,27.0,23.0,230,7,,6.21,29.88189,,,,,,TRUE,,,,TS,SCT,1000,FEW,2000,BKN,6000,,,VFR,,,,,,,,,,,,METAR,56.0
FGBT 120700Z 00000KT 8000 FEW010 FEW020CB 27/25 Q1012 NOSIG,FGBT,2015-02-12T07:00:00Z,1.88,9.8,27.0,25.0,0,0,,4.97,29.88189,,,,,,TRUE,,,,,FEW,1000,FEW,2000,,,,,MVFR,,,,,,,,,,,,METAR,8.0
FEFT 120700Z 00000KT CAVOK 24/21 Q1011,FEFT,2015-02-12T07:00:00Z,4.25,15.8,24.0,21.0,0,0,,6.21,29.852362,,,,,,,,,,,CAVOK,,,,,,,,VFR,,,,,,,,,,,,METAR,583.0
CWKK 120700Z AUTO 35015KT M26/M28 RMK AO1 4PAST HR SOG 17 1023 PK WND 00020/0606 SLP337 P0002 T12561279 50004,CWKK,2015-02-12T07:00:00Z,49.72,-88.33,-25.6,-27.9,350,15,,,,1033.7,,TRUE,TRUE,,,,,,,,,,,,,,,,0.4,,,,,0.02,,,,,,METAR,260.0
CXAT 120700Z AUTO 12001KT M37/M41 RMK AO1 SOG 01 4000 SLP209 T13681413,CXAT,2015-02-12T07:00:00Z,73.0,-85.03,-36.8,-41.3,120,1,,,,1020.9,,TRUE,TRUE,,,,,,,,,,,,,,,,,,,,,,,,,,,METAR,19.0
CWEF 120700Z AUTO 08023G29KT M07/M08 RMK AO1 PK WND 07031/0640 SLP115 T10671084 56029,CWEF,2015-02-12T07:00:00Z,47.22,-60.12,-6.7,-8.4,80,23,29,,,1011.5,,TRUE,TRUE,,,,,,,,,,,,,,,,-2.9,,,,,,,,,,,METAR,26.0
CWPS 120700Z AUTO M03/M05 RMK AO1 SLP102 T10321047 53007,CWPS,2015-02-12T07:00:00Z,42.57,-80.03,-3.2,-4.7,,,,,,1010.2,,TRUE,TRUE,,,,,,,,,,,,,,,,0.7,,,,,,,,,,,METAR,175.0
CWNL 120700Z AUTO 01006KT M13/M16 RMK AO1 PK WND 00018/0642 SLP138 T11301158 53033,CWNL,2015-02-12T07:00:00Z,45.62,-82.97,-13.0,-15.8,10,6,,,,1013.8,,TRUE,TRUE,,,,,,,,,,,,,,,,3.3,,,,,,,,,,,METAR,183.0
CXVW 120700Z AUTO 15014KT M08/M10 RMK AO1 PK WND 15017/0603 T10811101,CXVW,2015-02-12T07:00:00Z,55.1,-117.2,-8.1,-10.1,150,14,,,,,,TRUE,TRUE,,,,,,,,,,,,,,,,,,,,,,,,,,,METAR,698.0
CWCI 120700Z AUTO 03022G31KT M16/M18 RMK AO1 PK WND 02031/0654 SLP241 T11551179 51035,CWCI,2015-02-12T07:00:00Z,47.32,-85.82,-15.5,-17.9,30,22,31,,,1024.1,,TRUE,TRUE,,,,,,,,,,,,,,,,3.5,,,,,,,,,,,METAR,187.0
CWZN 120700Z AUTO 03002KT M12/M14 RMK AO1 SLP114 T11211140 56039,CWZN,2015-02-12T07:00:00Z,47.37,-55.8,-12.1,-14.0,30,2,,,,1011.4,,TRUE,TRUE,,,,,,,,,,,,,,,,-3.9,,,,,,,,,,,METAR,64.0
CWDA 120700Z AUTO 32005KT M22/M24 RMK AO1 SLP213 T12171238 56013,CWDA,2015-02-12T07:00:00Z,50.72,-56.12,-21.7,-23.8,320,5,,,,1021.3,,TRUE,TRUE,,,,,,,,,,,,,,,,-1.3,,,,,,,,,,,METAR,29.0
CWMZ 120700Z AUTO 30025KT M07/M10 RMK AO1 PK WND 30031/0622 SLP088 T10711101 51006,CWMZ,2015-02-12T07:00:00Z,45.02,-80.37,-7.1,-10.1,300,25,,,,1008.8,,TRUE,TRUE,,,,,,,,,,,,,,,,0.6,,,,,,,,,,,METAR,191.0
FALA 120700Z 01004KT 310V050 CAVOK 22/16 Q1024 NOSIG,FALA,2015-02-12T07:00:00Z,-25.92,27.92,22.0,16.0,10,4,,6.21,30.236221,,,,,,TRUE,,,,,CAVOK,,,,,,,,VFR,,,,,,,,,,,,SPECI,1377.0
HKEL 120700Z 05006KT FEW024 22/06 Q1026 NOSIG,HKEL,2015-02-12T07:00:00Z,0.4,35.23,22.0,6.0,50,6,,,30.295275,,,,,,TRUE,,,,,FEW,2400,,,,,,,,,,,,,,,,,,,METAR,2133.0
HTSU 120700Z 14007KT 9999 FEW018 21/16 Q1024,HTSU,2015-02-12T07:00:00Z,-7.95,31.67,21.0,16.0,140,7,,6.21,30.236221,,,,,,,,,,,FEW,1800,,,,,,,VFR,,,,,,,,,,,,SPECI,1804.0
HTMT 120700Z 00000KT 9999 BKN025 SCT080 29/24 Q1013,HTMT,2015-02-12T07:00:00Z,-10.27,40.17,29.0,24.0,0,0,,6.21,29.911417,,,,,,,,,,,BKN,2500,SCT,8000,,,,,MVFR,,,,,,,,,,,,SPECI,113.0
HTTB 120700Z 12008KT 9999 FEW020 27/17 Q1020,HTTB,2015-02-12T07:00:00Z,-5.07,32.82,27.0,17.0,120,8,,6.21,30.11811,,,,,,,,,,,FEW,2000,,,,,,,VFR,,,,,,,,,,,,SPECI,1190.0
HTSO 120700Z 00000KT 9999 SCT022 FEW024CB 25/19 Q1019,HTSO,2015-02-12T07:00:00Z,-10.67,35.57,25.0,19.0,0,0,,6.21,30.088583,,,,,,,,,,,SCT,2200,FEW,2400,,,,,VFR,,,,,,,,,,,,SPECI,1067.0
HTMW 120700Z 00000KT 9999 FEW025 BKN290 26/18 Q1017 NOSIG,HTMW,2015-02-12T07:00:00Z,-2.47,32.92,26.0,18.0,0,0,,6.21,30.029528,,,,,,TRUE,,,,,FEW,2500,BKN,29000,,,,,VFR,,,,,,,,,,,,SPECI,1140.0
HTMU 120700Z 00000KT 9999 FEW026CB SCT100 27/15 Q1019,HTMU,2015-02-12T07:00:00Z,-1.5,33.78,27.0,15.0,0,0,,6.21,30.088583,,,,,,,,,,,FEW,2600,SCT,10000,,,,,VFR,,,,,,,,,,,,SPECI,1147.0
HTMG 120700Z 00000KT 9999 SCT024 Q1016,HTMG,2015-02-12T07:00:00Z,-6.82,37.63,,,0,0,,6.21,30.0,,,,,,,,,,,SCT,2400,,,,,,,VFR,,,,,,,,,,,,SPECI,526.0
HTMB 120700Z 09005KT 9999 FEW020 23/16 Q////,HTMB,2015-02-12T07:00:00Z,-8.92,33.47,23.0,16.0,90,5,,6.21,,,,,,,,,,,,FEW,2000,,,,,,,VFR,,,,,,,,,,,,SPECI,1707.0
HTKA 120700Z 00000KT 9999 FEW023 FEW025CB BKN100 26/21 Q1020,HTKA,2015-02-12T07:00:00Z,-4.87,29.67,26.0,21.0,0,0,,6.21,30.11811,,,,,,,,,,,FEW,2300,FEW,2500,BKN,10000,,,VFR,,,,,,,,,,,,SPECI,885.0
HTIR 120700Z 00000KT 9999 FEW020 25/16 Q1022,HTIR,2015-02-12T07:00:00Z,-7.67,35.75,25.0,16.0,0,0,,6.21,30.177166,,,,,,,,,,,FEW,2000,,,,,,,VFR,,,,,,,,,,,,SPECI,1428.0
HTDO 120700Z 08010KT 9999 FEW025 27/16 Q1018 NOSIG,HTDO,2015-02-12T07:00:00Z,-6.17,35.77,27.0,16.0,80,10,,6.21,30.059055,,,,,,TRUE,,,,,FEW,2500,,,,,,,VFR,,,,,,,,,,,,SPECI,1120.0
HTBU 120700Z 00000KT 9999 FEW021 FEW023CB BKN100 25/16 Q1018,HTBU,2015-02-12T07:00:00Z,-1.32,31.82,25.0,16.0,0,0,,6.21,30.059055,,,,,,,,,,,FEW,2100,FEW,2300,BKN,10000,,,VFR,,,,,,,,,,,,SPECI,1137.0
HTAR 120700Z 15010KT 9999 FEW029 22/18 Q1021,HTAR,2015-02-12T07:00:00Z,-3.37,36.63,22.0,18.0,150,10,,6.21,30.147638,,,,,,,,,,,FEW,2900,,,,,,,VFR,,,,,,,,,,,,SPECI,1387.0
HTZA 120700Z 00000KT 9999 BKN020 31/22 Q1013 NOSIG,HTZA,2015-02-12T07:00:00Z,-6.22,39.22,31.0,22.0,0,0,,6.21,29.911417,,,,,,TRUE,,,,,BKN,2000,,,,,,,MVFR,,,,,,,,,,,,METAR,15.0
HTKJ 120700Z 12008KT 9999 SCT028 27/19 Q1018 NOSIG,HTKJ,2015-02-12T07:00:00Z,-3.42,37.07,27.0,19.0,120,8,,6.21,30.059055,,,,,,TRUE,,,,,SCT,2800,,,,,,,VFR,,,,,,,,,,,,METAR,896.0
HTDA 120700Z 36007KT 9999 BKN027 31/23 Q1014 NOSIG,HTDA,2015-02-12T07:00:00Z,-6.88,39.2,31.0,23.0,360,7,,6.21,29.940945,,,,,,TRUE,,,,,BKN,2700,,,,,,,MVFR,,,,,,,,,,,,METAR,55.0
HKLU 120700Z 08006KT 99 SCT023 3122,HKLU,2015-02-12T07:00:00Z,-2.25,40.92,,,80,6,,1.94,,,,,,,,,,,,SCT,2300,,,,,,,IFR,,,,,,,,,,,,SPECI,6.0
HKEM 120700Z 16005KT 9999 FEW022 24/11,HKEM,2015-02-12T07:00:00Z,-0.57,37.48,24.0,11.0,160,5,,6.21,,,,,,,,,,,,FEW,2200,,,,,,,VFR,,,,,,,,,,,,METAR,1493.0
CYHM 120700Z 32013KT 10SM -SN FEW010 OVC030 M04/M08 A2979 RMK CF1SC8 CF TR SLP100,CYHM,2015-02-12T07:00:00Z,43.17,-79.93,-4.0,-8.0,320,13,,10.0,29.790354,1010.0,,,,,,,,,-SN,FEW,1000,OVC,3000,,,,,MVFR,,,,,,,,,,,,SPECI,238.0
CPIR 120700Z AUTO 24011KT M05/M06 RMK AO1 T10491056,CPIR,2015-02-12T07:00:00Z,49.9,-112.73,-4.9,-5.6,240,11,,,,,,TRUE,TRUE,,,,,,,,,,,,,,,,,,,,,,,,,,,METAR,858.0
CWMQ 120700Z AUTO 18024G32KT M07/M10 RMK AO1 SOG 00 6056 PK WND 18036/0602 SLP237 T10691095,CWMQ,2015-02-12T07:00:00Z,49.9,-109.47,-6.9,-9.5,180,24,32,,,1023.7,,TRUE,TRUE,,,,,,,,,,,,,,,,,,,,,,,,,,,METAR,767.0
CWMJ 120700Z AUTO 00000KT M13/M14 RMK AO1 SOG 33 6011 SLP076 T11261141,CWMJ,2015-02-12T07:00:00Z,46.27,-76.0,-12.6,-14.1,0,0,,,,1007.6,,TRUE,TRUE,,,,,,,,,,,,,,,,,,,,,,,,,,,METAR,200.0
CWLE 120700Z AUTO 14012KT M17/M21 RMK AO1 PRESFR SOG 10 8061 PK WND 14018/0631 SLP310 T11741206,CWLE,2015-02-12T07:00:00Z,50.95,-107.15,-17.4,-20.6,140,12,,,,1031.0,,TRUE,TRUE,,,,,,,,,,,,,,,,,,,,,,,,,,,METAR,665.0
CWLC 120700Z AUTO 13026KT 08/06 RMK AO1 PK WND 12031/0629 T00800062,CWLC,2015-02-12T07:00:00Z,54.3,-130.62,8.0,6.2,130,26,,,,,,TRUE,TRUE,,,,,,,,,,,,,,,,,,,,,,,,,,,METAR,27.0
CWKX 120700Z AUTO 06006KT M14/M16 RMK AO1 SOG 47 1004 SLP175 T11441155,CWKX,2015-02-12T07:00:00Z,58.43,-130.02,-14.4,-15.5,60,6,,,,1017.5,,TRUE,TRUE,,,,,,,,,,,,,,,,,,,,,,,,,,,METAR,793.0
CWKH 120700Z AUTO 09/05 RMK AO1 SLP216 T00920046 52012,CWKH,2015-02-12T07:00:00Z,48.57,-123.55,9.2,4.6,,,,,,1021.6,,TRUE,TRUE,,,,,,,,,,,,,,,,1.2,,,,,,,,,,,METAR,366.0
CWKG 120700Z AUTO 35005KT M14/M16 RMK AO1 SLP091 T11411158 58017,CWKG,2015-02-12T07:00:00Z,44.43,-65.2,-14.1,-15.8,350,5,,,,1009.1,,TRUE,TRUE,,,,,,,,,,,,,,,,-1.7,,,,,,,,,,,METAR,165.0
CWJX 120700Z AUTO 09008KT M14/M17 RMK AO1 SOG 03 6056 SLP257 T11441169,CWJX,2015-02-12T07:00:00Z,50.88,-109.5,-14.4,-16.9,90,8,,,,1025.7,,TRUE,TRUE,,,,,,,,,,,,,,,,,,,,,,,,,,,METAR,672.0
CWJV 120700Z AUTO 10008KT 03/03 RMK AO1 SLP243 T00280028 58001,CWJV,2015-02-12T07:00:00Z,50.22,-119.18,2.8,2.8,100,8,,,,1024.3,,TRUE,TRUE,,,,,,,,,,,,,,,,-0.1,,,,,,,,,,,METAR,556.0
CWJT 120700Z AUTO 10001KT M13/M15 RMK AO1 0PAST HR 7014 SLP089 P0004 T11261150 50010,CWJT,2015-02-12T07:00:00Z,46.07,-74.57,-12.6,-15.0,100,1,,,,1008.9,,TRUE,TRUE,,,,,,,,,,,,,,,,1.0,,,,,0.04,,,,,,METAR,239.0
CWJR 120700Z AUTO 12003KT 05/04 RMK AO1 SLP262 T00500038 50000,CWJR,2015-02-12T07:00:00Z,49.07,-116.5,5.0,3.8,120,3,,,,1026.2,,TRUE,TRUE,,,,,,,,,,,,,,,,0.0,,,,,,,,,,,METAR,646.0
CWJO 120700Z AUTO 10010G19KT M17/M20 RMK AO1 0PAST HR 8026 PK WND 11020/0629 SLP124 P0004 T11711196 50010,CWJO,2015-02-12T07:00:00Z,48.43,-71.15,-17.1,-19.6,100,10,19,,,1012.4,,TRUE,TRUE,,,,,,,,,,,,,,,,1.0,,,,,0.04,,,,,,METAR,133.0
CWJI 120700Z AUTO 15010G15KT M17/M21 RMK AO1 PRESFR SOG 02 8049 SLP328 T11721206,CWJI,2015-02-12T07:00:00Z,49.72,-105.92,-17.2,-20.6,150,10,15,,,1032.8,,TRUE,TRUE,,,,,,,,,,,,,,,,,,,,,,,,,,,METAR,724.0
CXZU 120700Z AUTO 00000KT M12/M14 RMK AO1 SLP220 T11191136 56014,CXZU,2015-02-12T07:00:00Z,54.15,-115.78,-11.9,-13.6,0,0,,,,1022.0,,TRUE,TRUE,,,,,,,,,,,,,,,,-1.4,,,,,,,,,,,METAR,785.0
CXWN 120700Z AUTO 33004KT M24/M28 RMK AO1 SLP434 T12431284 53001,CXWN,2015-02-12T07:00:00Z,49.88,-97.13,-24.3,-28.4,330,4,,,,1043.4,,TRUE,TRUE,,,,,,,,,,,,,,,,0.1,,,,,,,,,,,METAR,230.0
CXSH 120700Z AUTO 07006KT M13/M16 RMK AO1 SLP092 T11311160 56022,CXSH,2015-02-12T07:00:00Z,46.58,-72.73,-13.1,-16.0,70,6,,,,1009.2,,TRUE,TRUE,,,,,,,,,,,,,,,,-2.2,,,,,,,,,,,METAR,110.0
CXQT 120700Z AUTO 00000KT 18/08 RMK AO1 T01810084,CXQT,2015-02-12T07:00:00Z,48.43,-89.22,18.1,8.4,0,0,,,,,,TRUE,TRUE,,,,,,,,,,,,,,,,,,,,,,,,,,,METAR,183.0
CXOX 120700Z AUTO 17008KT M22/M26 RMK AO1 PRESFR SOG 48 8054 SLP326 T12161261,CXOX,2015-02-12T07:00:00Z,55.15,-105.27,-21.6,-26.1,170,8,,,,1032.6,,TRUE,TRUE,,,,,,,,,,,,,,,,,,,,,,,,,,,METAR,379.0
CXNM 120700Z AUTO 11013G19KT M09/M10 RMK AO1 SOG 159 PK WND 09022/0634 T10931102,CXNM,2015-02-12T07:00:00Z,46.82,-60.67,-9.3,-10.2,110,13,19,,,,,TRUE,TRUE,,,,,,,,,,,,,,,,,,,,,,,,,,,METAR,439.0
CXMI 120700Z AUTO 35010G15KT M10/M12 RMK AO1 PK WND 00018/0606 SLP078 T11041115 56024,CXMI,2015-02-12T07:00:00Z,44.6,-63.53,-10.4,-11.5,350,10,15,,,1007.8,,TRUE,TRUE,,,,,,,,,,,,,,,,-2.4,,,,,,,,,,,METAR,15.0
CXIB 120700Z AUTO 07008G16KT M05/M08 RMK AO1 PK WND 05017/0648 SLP108 T10501078 58029,CXIB,2015-02-12T07:00:00Z,46.67,-60.38,-5.0,-7.8,70,8,16,,,1010.8,,TRUE,TRUE,,,,,,,,,,,,,,,,-2.9,,,,,,,,,,,METAR,8.0
CXGH 120700Z AUTO 31006KT M26/M29 RMK AO1 T12551293,CXGH,2015-02-12T07:00:00Z,50.63,-97.0,-25.5,-29.3,310,6,,,,,,TRUE,TRUE,,,,,,,,,,,,,,,,,,,,,,,,,,,METAR,217.0
CXET 120700Z AUTO 32009G15KT M06/M09 RMK AO1 SOG 16 2009 SLP090 T10571093,CXET,2015-02-12T07:00:00Z,44.23,-79.78,-5.7,-9.3,320,9,15,,,1009.0,,TRUE,TRUE,,,,,,,,,,,,,,,,,,,,,,,,,,,METAR,251.0
CXDW 120700Z AUTO 29005KT M25/M28 RMK AO1 T12531283,CXDW,2015-02-12T07:00:00Z,49.4,-98.32,-25.3,-28.3,290,5,,,,,,TRUE,TRUE,,,,,,,,,,,,,,,,,,,,,,,,,,,METAR,341.0
CXCK 120700Z AUTO 00000KT M19/M20 RMK AO1 SOG 29 3017 SLP130 T11861204,CXCK,2015-02-12T07:00:00Z,62.12,-136.2,-18.6,-20.4,0,0,,,,1013.0,,TRUE,TRUE,,,,,,,,,,,,,,,,,,,,,,,,,,,METAR,540.0
CXCH 120700Z AUTO M05/M09 RMK AO1 SOG 52 T10521089,CXCH,2015-02-12T07:00:00Z,46.63,-60.95,-5.2,-8.9,,,,,,,,TRUE,TRUE,,,,,,,,,,,,,,,,,,,,,,,,,,,METAR,44.0
CXBO 120700Z AUTO 07014G19KT RMK AO1 PK WND 07022/0601,CXBO,2015-02-12T07:00:00Z,46.83,-71.2,,,70,14,19,,,,,TRUE,TRUE,,,,,,,,,,,,,,,,,,,,,,,,,,,METAR,100.0
CXBK 120700Z AUTO 13017KT M23/M26 RMK AO1 PRESFR SOG 12 8047 PK WND 13021/0652 SLP354 T12281260,CXBK,2015-02-12T07:00:00Z,50.2,-104.7,-22.8,-26.0,130,17,,,,1035.4,,TRUE,TRUE,,,,,,,,,,,,,,,,,,,,,,,,,,,METAR,580.0
CXKT 120700Z AUTO 01005KT M13/M15 RMK AO1 SOG 47 7024 SLP105 T11321149,CXKT,2015-02-12T07:00:00Z,45.07,-64.48,-13.2,-14.9,10,5,,,,1010.5,,TRUE,TRUE,,,,,,,,,,,,,,,,,,,,,,,,,,,METAR,49.0
CZMJ 120700Z AUTO 13015KT M21/M24 RMK AO1 SOG 02 8057 PK WND 13018/0658 SLP355 T12081243,CZMJ,2015-02-12T07:00:00Z,50.33,-105.57,-20.8,-24.3,130,15,,,,1035.5,,TRUE,TRUE,,,,,,,,,,,,,,,,,,,,,,,,,,,METAR,577.0
CZKD 120700Z AUTO 22002KT M30/M33 RMK AO1 SOG 51 8017 SLP373 T12991326,CZKD,2015-02-12T07:00:00Z,56.03,-96.52,-29.9,-32.6,220,2,,,,1037.3,,TRUE,TRUE,,,,,,,,,,,,,,,,,,,,,,,,,,,METAR,183.0
CXZV 120700Z AUTO 06006KT M17/M21 RMK AO1 SOG 44 6023 SLP189 T11671212,CXZV,2015-02-12T07:00:00Z,50.22,-66.25,-16.7,-21.2,60,6,,,,1018.9,,TRUE,TRUE,,,,,,,,,,,,,,,,,,,,,,,,,,,METAR,52.0
CXTD 120700Z AUTO 35008KT M08/M09 RMK AO1 SLP094 T10821091 56031,CXTD,2015-02-12T07:00:00Z,45.62,-61.68,-8.2,-9.1,350,8,,,,1009.4,,TRUE,TRUE,,,,,,,,,,,,,,,,-3.1,,,,,,,,,,,METAR,68.0
CXRL 120700Z AUTO M17/M20 RMK AO1 T11741195,CXRL,2015-02-12T07:00:00Z,54.5,-111.7,-17.4,-19.5,,,,,,,,TRUE,TRUE,,,,,,,,,,,,,,,,,,,,,,,,,,,METAR,585.0
CXPC 120700Z AUTO M08/M11 RMK AO1 SOG 44 0006 SLP082 T10831106,CXPC,2015-02-12T07:00:00Z,45.35,-80.05,-8.3,-10.6,,,,,,1008.2,,TRUE,TRUE,,,,,,,,,,,,,,,,,,,,,,,,,,,METAR,176.0
CXLB 120700Z AUTO 01011G19KT M09/ RMK AO1 PK WND 35019/0625 SLP081 T1085 56022,CXLB,2015-02-12T07:00:00Z,44.37,-64.3,-8.5,,10,11,19,,,1008.1,,TRUE,TRUE,,,,,,,,,,,,,,,,-2.2,,,,,,,,,,,METAR,4.0
CXKI 120700Z AUTO M23/M26 RMK AO1 SOG 52 1033 SLP166 T12341256,CXKI,2015-02-12T07:00:00Z,48.22,-80.0,-23.4,-25.6,,,,,,1016.6,,TRUE,TRUE,,,,,,,,,,,,,,,,,,,,,,,,,,,METAR,324.0
CXCP 120700Z AUTO 28001KT M07/M08 RMK AO1 T10721078,CXCP,2015-02-12T07:00:00Z,50.28,-113.35,-7.2,-7.8,280,1,,,,,,TRUE,TRUE,,,,,,,,,,,,,,,,,,,,,,,,,,,METAR,1006.0
CWSF 120700Z AUTO 16014KT M20/M24 RMK AO1 PK WND 16019/0607 SLP185 T12001235 56025,CWSF,2015-02-12T07:00:00Z,49.25,-65.32,-20.0,-23.5,160,14,,,,1018.5,,TRUE,TRUE,,,,,,,,,,,,,,,,-2.5,,,,,,,,,,,METAR,29.0
CWER 120700Z AUTO 05020KT RMK AO1 PK WND 04026/0609,CWER,2015-02-12T07:00:00Z,47.0,-70.82,,,50,20,,,,,,TRUE,TRUE,,,,,,,,,,,,,,,,,,,,,,,,,,,METAR,5.0
CWEP 120700Z AUTO 03015KT M08/M09 RMK AO1 PK WND 03019/0621 SLP105 T10791092 58031,CWEP,2015-02-12T07:00:00Z,46.45,-61.97,-7.9,-9.2,30,15,,,,1010.5,,TRUE,TRUE,,,,,,,,,,,,,,,,-3.1,,,,,,,,,,,METAR,11.0
CWSS 120700Z AUTO 34004KT M19/M21 RMK AO1 SOG 52 6020 SLP138 T11871209,CWSS,2015-02-12T07:00:00Z,45.2,-67.25,-18.7,-20.9,340,4,,,,1013.8,,TRUE,TRUE,,,,,,,,,,,,,,,,,,,,,,,,,,,METAR,26.0
CWRN 120700Z AUTO 04022G29KT M03/ RMK AO1 PK WND 04029/0657 T1028,CWRN,2015-02-12T07:00:00Z,45.35,-60.98,-2.8,,40,22,29,,,,,TRUE,TRUE,,,,,,,,,,,,,,,,,,,,,,,,,,,METAR,8.0
CWBV 120700Z AUTO 03027KT M06/M08 RMK AO1 PK WND 04036/0640 SLP054 T10571076 56023,CWBV,2015-02-12T07:00:00Z,44.82,-62.32,-5.7,-7.6,30,27,,,,1005.4,,TRUE,TRUE,,,,,,,,,,,,,,,,-2.3,,,,,,,,,,,METAR,10.0
CWNH 120700Z AUTO 07001KT M18/M21 RMK AO1 SOG 33 6025 SLP144 T11771212,CWNH,2015-02-12T07:00:00Z,47.78,-69.53,-17.7,-21.2,70,1,,,,1014.4,,TRUE,TRUE,,,,,,,,,,,,,,,,,,,,,,,,,,,METAR,148.0
CWWE 120700Z AUTO 35010KT M11/M12 RMK AO1 SLP077 T11081124 56022,CWWE,2015-02-12T07:00:00Z,43.97,-64.67,-10.8,-12.4,350,10,,,,1007.7,,TRUE,TRUE,,,,,,,,,,,,,,,,-2.2,,,,,,,,,,,METAR,9.0
CPEH 120700Z AUTO 17003KT M05/M05 RMK AO1 T10481053,CPEH,2015-02-12T07:00:00Z,50.18,-112.43,-4.8,-5.3,170,3,,,,,,TRUE,TRUE,,,,,,,,,,,,,,,,,,,,,,,,,,,METAR,801.0
CPBT 120700Z AUTO 25015KT 05/M00 RMK AO1 PK WND 22019/0602 T00481002,CPBT,2015-02-12T07:00:00Z,49.57,-113.05,4.8,-0.2,250,15,,,,,,TRUE,TRUE,,,,,,,,,,,,,,,,,,,,,,,,,,,METAR,980.0
OYTZ 120700Z 14008KT 4000 BR SCT015 18/15 Q1023,OYTZ,2015-02-12T07:00:00Z,13.67,44.12,18.0,15.0,140,8,,2.49,30.206694,,,,,,,,,,BR,SCT,1500,,,,,,,IFR,,,,,,,,,,,,METAR,1385.0
OYSH 120700Z 00000KT CAVOK 22/04 Q1026,OYSH,2015-02-12T07:00:00Z,16.97,43.72,22.0,4.0,0,0,,6.21,30.295275,,,,,,,,,,,CAVOK,,,,,,,,VFR,,,,,,,,,,,,METAR,1890.0
OYSD 120700Z 16004KT CAVOK 20/M13 Q////,OYSD,2015-02-12T07:00:00Z,,,20.0,-13.0,160,4,,6.21,,,,,,,,,,,,CAVOK,,,,,,,,VFR,,,,,,,,,,,,METAR,
SBPL 120700Z 07014KT 9999 BKN030 SCT070 26/19 Q1016,SBPL,2015-02-12T07:00:00Z,-9.37,-40.57,26.0,19.0,70,14,,6.21,30.0,,,,,,,,,,,BKN,3000,SCT,7000,,,,,MVFR,,,,,,,,,,,,METAR,375.0
OEGT 120700Z 21012KT 7000 SKC 08/M02 Q1018 NOSIG,OEGT,2015-02-12T07:00:00Z,31.42,37.27,8.0,-2.0,210,12,,4.35,30.059055,,,,,,TRUE,,,,,SKC,,,,,,,,MVFR,,,,,,,,,,,,METAR,499.0
OEGS 120700Z 34012KT 1500 DU SCT040 16/00 Q1019,OEGS,2015-02-12T07:00:00Z,26.3,43.77,16.0,0.0,340,12,,0.93,30.088583,,,,,,,,,,DU,SCT,4000,,,,,,,LIFR,,,,,,,,,,,,METAR,650.0
SAZN 120700Z 27005KT CAVOK 19/10 Q1012,SAZN,2015-02-12T07:00:00Z,-38.95,-68.15,19.0,10.0,270,5,,6.21,29.88189,,,,,,,,,,,CAVOK,,,,,,,,VFR,,,,,,,,,,,,METAR,271.0
FTTY 120700Z 04012KT CAVOK 17/M05 Q1021,FTTY,2015-02-12T07:00:00Z,18.0,19.17,17.0,-5.0,40,12,,6.21,30.147638,,,,,,,,,,,CAVOK,,,,,,,,VFR,,,,,,,,,,,,METAR,234.0
FTTD 120700Z 36004KT 8000 NSC 21/M04 Q1013,FTTD,2015-02-12T07:00:00Z,8.62,16.07,21.0,-4.0,360,4,,4.97,29.911417,,,,,,,,,,,,,,,,,,,,,,,,,,,,,,,METAR,422.0
VILK 120700Z VRB02KT 4500 HZ NSC 24/11 Q1016 BECMG 5000,VILK,2015-02-12T07:00:00Z,26.75,80.87,24.0,11.0,0,2,,2.8,30.0,,,,,,,,,,HZ,,,,,,,,,,,,,,,,,,,,,SPECI,128.0
OIAA 120700Z 26014KT 3000 DU NSC 22/15 Q1012,OIAA,2015-02-12T07:00:00Z,30.37,48.25,22.0,15.0,260,14,,1.86,29.88189,,,,,,,,,,DU,,,,,,,,,,,,,,,,,,,,,SPECI,11.0
GQPP 120700Z 35010KT 8000 NSC 13/09 Q1017 NOSIG,GQPP,2015-02-12T07:00:00Z,20.92,-17.02,13.0,9.0,350,10,,4.97,30.029528,,,,,,TRUE,,,,,,,,,,,,,,,,,,,,,,,,,METAR,3.0
OIKK 120700Z 00000KT 9999 FEW040 BKN120 14/M01 Q1024 A3024,OIKK,2015-02-12T07:00:00Z,30.25,56.97,14.0,-1.0,0,0,,6.21,30.236221,,,,,,,,,,,FEW,4000,BKN,12000,,,,,VFR,,,,,,,,,,,,METAR,1754.0
WSAP 120700Z 04012KT 9999 SCT020 BKN350 31/21 Q1010,WSAP,2015-02-12T07:00:00Z,1.37,103.92,31.0,21.0,40,12,,6.21,29.822834,,,,,,,,,,,SCT,2000,BKN,35000,,,,,VFR,,,,,,,,,,,,METAR,32.0
FWKI 120700Z 06003KT CAVOK 22/16 Q1020 NOSIG,FWKI,2015-02-12T07:00:00Z,-13.77,33.77,22.0,16.0,60,3,,6.21,30.11811,,,,,,TRUE,,,,,CAVOK,,,,,,,,VFR,,,,,,,,,,,,METAR,1229.0
TNCA 120700Z VRB03KT 9999 SCT018 26/24 Q1011 A2987 NOSIG,TNCA,2015-02-12T07:00:00Z,12.5,-70.0,26.0,24.0,0,3,,6.21,29.852362,,,,,,TRUE,,,,,SCT,1800,,,,,,,VFR,,,,,,,,,,,,METAR,18.0
OIYY 120700Z 05004KT 9999 FEW040 SCT100 23/M03 Q1016,OIYY,2015-02-12T07:00:00Z,31.9,54.28,23.0,-3.0,50,4,,6.21,30.0,,,,,,,,,,,FEW,4000,SCT,10000,,,,,VFR,,,,,,,,,,,,METAR,1236.0
VTUK 120700Z 08006KT 050V170 9000 NSC 30/14 Q1011 A2988 RWY03 INFO I,VTUK,2015-02-12T07:00:00Z,16.47,102.78,30.0,14.0,80,6,,5.59,29.852362,,,,,,,,,,,,,,,,,,,,,,,,,,,,,,,METAR,204.0
VTUO 120700Z 09006KT 9000 NSC 31/15 Q1010 INFO H RWY 22,VTUO,2015-02-12T07:00:00Z,15.23,103.25,31.0,15.0,90,6,,5.59,29.822834,,,,,,,,,,,,,,,,,,,,,,,,,,,,,,,METAR,183.0
VTUL 120700Z VRB05KT 4000 HZ NSC 29/16 Q1012 A2988,VTUL,2015-02-12T07:00:00Z,17.43,101.72,29.0,16.0,0,5,,2.49,29.88189,,,,,,,,,,HZ,,,,,,,,,,,,,,,,,,,,,METAR,254.0
VTUI 120700Z 11007KT CAVOK 29/16 Q1012 A2991 INFO H RWY05,VTUI,2015-02-12T07:00:00Z,17.2,104.12,29.0,16.0,110,7,,6.21,29.88189,,,,,,,,,,,CAVOK,,,,,,,,VFR,,,,,,,,,,,,METAR,172.0
CXYH 120700Z AUTO 35001KT M27/M30 RMK AO1 SOG 57 1006 SLP191 T12691299,CXYH,2015-02-12T07:00:00Z,61.25,-123.75,-26.9,-29.9,350,1,,,,1019.1,,TRUE,TRUE,,,,,,,,,,,,,,,,,,,,,,,,,,,METAR,204.0
OYMT 120700Z 18004KT CAVOK 22/09 Q////,OYMT,2015-02-12T07:00:00Z,,,22.0,9.0,180,4,,6.21,,,,,,,,,,,,CAVOK,,,,,,,,VFR,,,,,,,,,,,,METAR,
OYMK 120700Z 18016KT CAVOK 26/21 Q////,OYMK,2015-02-12T07:00:00Z,13.32,43.27,26.0,21.0,180,16,,6.21,,,,,,,,,,,,CAVOK,,,,,,,,VFR,,,,,,,,,,,,METAR,3.0
OYHJ 120700Z 18004KT CAVOK 20/13 Q////,OYHJ,2015-02-12T07:00:00Z,15.7,43.6,20.0,13.0,180,4,,6.21,,,,,,,,,,,,CAVOK,,,,,,,,VFR,,,,,,,,,,,,METAR,1760.0
OYDM 120700Z 00000KT CAVOK 20/00 Q////,OYDM,2015-02-12T07:00:00Z,14.53,44.43,20.0,0.0,0,0,,6.21,,,,,,,,,,,,CAVOK,,,,,,,,VFR,,,,,,,,,,,,METAR,2425.0
OYAR 120700Z 00000KT CAVOK 18/M03 Q////,OYAR,2015-02-12T07:00:00Z,14.58,49.25,18.0,-3.0,0,0,,6.21,,,,,,,,,,,,CAVOK,,,,,,,,VFR,,,,,,,,,,,,SPECI,25.0
SCEL 120700Z 17004KT CAVOK 19/07 Q1016 NOSIG,SCEL,2015-02-12T07:00:00Z,-33.37,-70.77,19.0,7.0,170,4,,6.21,30.0,,,,,,TRUE,,,,,CAVOK,,,,,,,,VFR,,,,,,,,,,,,METAR,476.0
SCBA 120700Z AUTO 31017KT CAVOK 06/00 Q1014,SCBA,2015-02-12T07:00:00Z,-45.92,-71.67,6.0,0.0,310,17,,6.21,29.940945,,,TRUE,,,,,,,,CAVOK,,,,,,,,VFR,,,,,,,,,,,,METAR,524.0
SCRM 120700Z 14002KT 9999 OVC010 01/01 Q0981,SCRM,2015-02-12T07:00:00Z,-62.18,-58.98,1.0,1.0,140,2,,6.21,28.966536,,,,,,,,,,,OVC,1000,,,,,,,MVFR,,,,,,,,,,,,METAR,45.0
SCPQ 120700Z AUTO 20004KT CAVOK 07/06 Q1022,SCPQ,2015-02-12T07:00:00Z,-42.33,-73.72,7.0,6.0,200,4,,6.21,30.177166,,,TRUE,,,,,,,,CAVOK,,,,,,,,VFR,,,,,,,,,,,,METAR,5.0
SCIP 120700Z 10007KT 9999 SCT020 23/16 Q1024 NOSIG,SCIP,2015-02-12T07:00:00Z,-27.17,-109.43,23.0,16.0,100,7,,6.21,30.236221,,,,,,TRUE,,,,,SCT,2000,,,,,,,VFR,,,,,,,,,,,,METAR,69.0
SCCI 120700Z 25025KT 9999 SCT040 07/02 Q1005 NOSIG,SCCI,2015-02-12T07:00:00Z,-53.0,-70.83,7.0,2.0,250,25,,6.21,29.675198,,,,,,TRUE,,,,,SCT,4000,,,,,,,VFR,,,,,,,,,,,,METAR,37.0
SCQP 120700Z 06003KT CAVOK 10/09 Q1021,SCQP,2015-02-12T07:00:00Z,-38.92,-72.65,10.0,9.0,60,3,,6.21,30.147638,,,,,,,,,,,CAVOK,,,,,,,,VFR,,,,,,,,,,,,METAR,97.0
SCSE 120700Z 27004KT CAVOK 16/15 Q1014,SCSE,2015-02-12T07:00:00Z,-29.92,-71.2,16.0,15.0,270,4,,6.21,29.940945,,,,,,,,,,,CAVOK,,,,,,,,VFR,,,,,,,,,,,,METAR,146.0
SCDA 120700Z 17013KT CAVOK 22/16 Q1013,SCDA,2015-02-12T07:00:00Z,-20.52,-70.17,22.0,16.0,170,13,,6.21,29.911417,,,,,,,,,,,CAVOK,,,,,,,,VFR,,,,,,,,,,,,METAR,52.0
SCAT 120700Z 18004KT CAVOK 17/14 Q1016,SCAT,2015-02-12T07:00:00Z,-27.27,-70.77,17.0,14.0,180,4,,6.21,30.0,,,,,,,,,,,CAVOK,,,,,,,,VFR,,,,,,,,,,,,METAR,204.0
SCIE 120700Z 21007KT CAVOK 13/10 Q1018,SCIE,2015-02-12T07:00:00Z,-36.77,-73.07,13.0,10.0,210,7,,6.21,30.059055,,,,,,,,,,,CAVOK,,,,,,,,VFR,,,,,,,,,,,,METAR,16.0
SCCF 120700Z 09010KT CAVOK 09/05 Q1027,SCCF,2015-02-12T07:00:00Z,-22.5,-68.9,9.0,5.0,90,10,,6.21,30.324802,,,,,,,,,,,CAVOK,,,,,,,,VFR,,,,,,,,,,,,METAR,2312.0
SCFA 120700Z 17004KT 9999 BKN013 19/17 Q1013 NOSIG,SCFA,2015-02-12T07:00:00Z,-23.42,-70.42,19.0,17.0,170,4,,6.21,29.911417,,,,,,TRUE,,,,,BKN,1300,,,,,,,MVFR,,,,,,,,,,,,METAR,120.0
WMKB 120700Z 28008KT 220V320 7000 FEW020 BKN300 31/20 Q1009 NOSIG,WMKB,2015-02-12T07:00:00Z,5.47,100.37,31.0,20.0,280,8,,4.35,29.793306,,,,,,TRUE,,,,,FEW,2000,BKN,30000,,,,,MVFR,,,,,,,,,,,,METAR,4.0
AYPY 120700Z 34010KT SCT020 SCT030 OVC280 28/22 Q1005,AYPY,2015-02-12T07:00:00Z,-9.42,147.22,28.0,22.0,340,10,,,29.675198,,,,,,,,,,,SCT,2000,SCT,3000,OVC,28000,,,,,,,,,,,,,,,METAR,47.0
LKVO 120700Z 18003KT 130V220 8000 OVC013 M00/M02 Q1025,LKVO,2015-02-12T07:00:00Z,50.22,14.4,0.0,-2.0,180,3,,4.97,30.265747,,,,,,,,,,,OVC,1300,,,,,,,MVFR,,,,,,,,,,,,METAR,280.0
LKKU 120700Z 18009KT 130V220 9999 OVC016 02/M00 Q1028,LKKU,2015-02-12T07:00:00Z,49.05,17.45,2.0,0.0,180,9,,6.21,30.35433,,,,,,,,,,,OVC,1600,,,,,,,MVFR,,,,,,,,,,,,METAR,177.0
FYWW 120700Z 35003KT 9999 FEW035 BKN100 25/11 Q1023,FYWW,2015-02-12T07:00:00Z,-22.57,17.1,25.0,11.0,350,3,,6.21,30.206694,,,,,,,,,,,FEW,3500,BKN,10000,,,,,VFR,,,,,,,,,,,,METAR,1725.0
FYWH 120700Z 21005KT CAVOK 24/12 Q1024,FYWH,2015-02-12T07:00:00Z,-22.47,17.47,24.0,12.0,210,5,,6.21,30.236221,,,,,,,,,,,CAVOK,,,,,,,,VFR,,,,,,,,,,,,METAR,1700.0
FYWE 120700Z 00000KT CAVOK 26/11 Q1024,FYWE,2015-02-12T07:00:00Z,-22.62,17.08,26.0,11.0,0,0,,6.21,30.236221,,,,,,,,,,,CAVOK,,,,,,,,VFR,,,,,,,,,,,,METAR,1700.0
FYRN 120700Z 27003KT CAVOK 24/16 Q1019,FYRN,2015-02-12T07:00:00Z,-20.02,13.85,24.0,16.0,270,3,,6.21,30.088583,,,,,,,,,,,CAVOK,,,,,,,,VFR,,,,,,,,,,,,METAR,756.0
FYOA 120700Z 15004KT CAVOK 27/15 Q1017,FYOA,2015-02-12T07:00:00Z,-17.88,15.97,27.0,15.0,150,4,,6.21,30.029528,,,,,,,,,,,CAVOK,,,,,,,,VFR,,,,,,,,,,,,METAR,1095.0
FYKT 120700Z 21004KT CAVOK 28/09 Q1017,FYKT,2015-02-12T07:00:00Z,-26.52,18.12,28.0,9.0,210,4,,6.21,30.029528,,,,,,,,,,,CAVOK,,,,,,,,VFR,,,,,,,,,,,,METAR,1061.0
FYKM 120700Z 00000KT CAVOK 25/18 Q1018,FYKM,2015-02-12T07:00:00Z,-17.63,24.18,25.0,18.0,0,0,,6.21,30.059055,,,,,,,,,,,CAVOK,,,,,,,,VFR,,,,,,,,,,,,METAR,958.0
FYGF 120700Z 00000KT CAVOK 26/12 Q1023,FYGF,2015-02-12T07:00:00Z,-19.6,18.12,26.0,12.0,0,0,,6.21,30.206694,,,,,,,,,,,CAVOK,,,,,,,,VFR,,,,,,,,,,,,METAR,1400.0
LOWZ 120700Z 00000KT 0200 FZFG VV001 M08/M08 Q1024,LOWZ,2015-02-12T07:00:00Z,47.3,12.78,-8.0,-8.0,0,0,,0.12,30.236221,,,,,,,,,,FZFG,OVX,0,,,,,,,LIFR,,,,,,,,,,,100,METAR,754.0
LOAN 120700Z 24003KT 5000 BR SKC,LOAN,2015-02-12T07:00:00Z,47.85,16.25,,,240,3,,3.11,,,,,,,,,,,BR,SKC,,,,,,,,MVFR,,,,,,,,,,,,METAR,272.0
DFOO 120700Z 18006KT CAVOK 25/19 Q1014,DFOO,2015-02-12T07:00:00Z,11.17,-4.32,25.0,19.0,180,6,,6.21,29.940945,,,,,,,,,,,CAVOK,,,,,,,,VFR,,,,,,,,,,,,METAR,460.0
FTTJ 120700Z 04014KT 3000 DU NSC 23/05 Q1013 NOSIG,FTTJ,2015-02-12T07:00:00Z,12.12,15.02,23.0,5.0,40,14,,1.86,29.911417,,,,,,TRUE,,,,DU,,,,,,,,,,,,,,,,,,,,,METAR,295.0
DBBB 120700Z 34002KT 6000 SCT011 BKN100 25/22 Q1011 NOSIG,DBBB,2015-02-12T07:00:00Z,6.33,2.37,25.0,22.0,340,2,,3.73,29.852362,,,,,,TRUE,,,,,SCT,1100,BKN,10000,,,,,MVFR,,,,,,,,,,,,METAR,9.0
DGAA 120700Z 29007KT CAVOK 24/20 Q1011 NOSIG,DGAA,2015-02-12T07:00:00Z,5.58,-0.17,24.0,20.0,290,7,,6.21,29.852362,,,,,,TRUE,,,,,CAVOK,,,,,,,,VFR,,,,,,,,,,,,METAR,69.0
SBES 120700Z 05012KT CAVOK 24/22 Q1014,SBES,2015-02-12T07:00:00Z,-22.82,-42.1,24.0,22.0,50,12,,6.21,29.940945,,,,,,,,,,,CAVOK,,,,,,,,VFR,,,,,,,,,,,,METAR,11.0
SBDN 120700Z 00000KT 9999 SCT008 SCT100 22/21 Q1015,SBDN,2015-02-12T07:00:00Z,-22.18,-51.43,22.0,21.0,0,0,,6.21,29.970472,,,,,,,,,,,SCT,800,SCT,10000,,,,,VFR,,,,,,,,,,,,METAR,435.0
SBBU 120700Z 36003KT 9999 FEW030 SCT070 25/23 Q1016,SBBU,2015-02-12T07:00:00Z,-22.32,-49.07,25.0,23.0,360,3,,6.21,30.0,,,,,,,,,,,FEW,3000,SCT,7000,,,,,VFR,,,,,,,,,,,,METAR,590.0
CXTO 120700Z AUTO M02/M07 RMK AO1 SLP086 T10241069 53002,CXTO,2015-02-12T07:00:00Z,43.67,-79.4,-2.4,-6.9,,,,,,1008.6,,TRUE,TRUE,,,,,,,,,,,,,,,,0.2,,,,,,,,,,,METAR,113.0
CXRB 120700Z AUTO 35006KT M37/M42 RMK AO1 SLP222 T13651415 51009,CXRB,2015-02-12T07:00:00Z,74.72,-94.98,-36.5,-41.5,350,6,,,,1022.2,,TRUE,TRUE,,,,,,,,,,,,,,,,0.9,,,,,,,,,,,METAR,68.0
CXDK 120700Z AUTO 33001KT M29/M33 RMK AO1 SOG 36 1014 SLP190 T12941328,CXDK,2015-02-12T07:00:00Z,61.27,-124.47,-29.4,-32.8,330,1,,,,1019.0,,TRUE,TRUE,,,,,,,,,,,,,,,,,,,,,,,,,,,METAR,283.0
CWEK 120700Z AUTO 05025G31KT 06/ RMK AO1 4PAST HR 3002 PK WND 06037/0604 SLP102 P0013 T0056 50034,CWEK,2015-02-12T07:00:00Z,54.58,-130.7,5.6,,50,25,31,,,1010.2,,TRUE,TRUE,,,,,,,,,,,,,,,,3.4,,,,,0.13,,,,,,METAR,8.0
CWLB 120700Z AUTO 17008KT M16/M19 RMK AO1 SOG 21 5032 SLP250 T11601186,CWLB,2015-02-12T07:00:00Z,54.77,-112.02,-16.0,-18.6,170,8,,,,1025.0,,TRUE,TRUE,,,,,,,,,,,,,,,,,,,,,,,,,,,METAR,567.0
CXKA 120700Z AUTO 34012G17KT M24/M27 RMK AO1 SOG 72 2020 PK WND 33018/0644 SLP243 T12381271,CXKA,2015-02-12T07:00:00Z,49.4,-82.45,-23.8,-27.1,340,12,17,,,1024.3,,TRUE,TRUE,,,,,,,,,,,,,,,,,,,,,,,,,,,METAR,218.0
CWXL 120700Z AUTO 16022G27KT M06/M08 RMK AO1 PK WND 16031/0617 T10591079,CWXL,2015-02-12T07:00:00Z,49.73,-111.45,-5.9,-7.9,160,22,27,,,,,TRUE,TRUE,,,,,,,,,,,,,,,,,,,,,,,,,,,METAR,817.0
CWXC 120700Z AUTO 00000KT M16/M17 RMK AO1 3PAST HR 8017 SLP098 P0001 T11591174 50003,CWXC,2015-02-12T07:00:00Z,48.88,-71.03,-15.9,-17.4,0,0,,,,1009.8,,TRUE,TRUE,,,,,,,,,,,,,,,,0.3,,,,,0.01,,,,,,METAR,300.0
CWVN 120700Z AUTO 16017KT M12/M14 RMK AO1 PK WND 16021/0637 SLP301 T11201140 58037,CWVN,2015-02-12T07:00:00Z,49.07,-107.57,-12.0,-14.0,160,17,,,,1030.1,,TRUE,TRUE,,,,,,,,,,,,,,,,-3.7,,,,,,,,,,,METAR,785.0
CXSR 120700Z AUTO 25012G19KT 01/M00 RMK AO1 SOG 59 8001 PK WND 25020/0613 SLP147 T00071001,CXSR,2015-02-12T07:00:00Z,55.7,-119.23,0.7,-0.1,250,12,19,,,1014.7,,TRUE,TRUE,,,,,,,,,,,,,,,,,,,,,,,,,,,METAR,1015.0
CXDI 120700Z AUTO 31009G15KT M04/M06 RMK AO1 SLP101 T10391062 53003,CXDI,2015-02-12T07:00:00Z,42.87,-80.55,-3.9,-6.2,310,9,15,,,1010.1,,TRUE,TRUE,,,,,,,,,,,,,,,,0.3,,,,,,,,,,,METAR,232.0
CWIJ 120700Z AUTO 00000KT M40/M44 RMK AO1 SOG 80 6016 SLP256 T13981444,CWIJ,2015-02-12T07:00:00Z,65.77,-111.23,-39.8,-44.4,0,0,,,,1025.6,,TRUE,TRUE,,,,,,,,,,,,,,,,,,,,,,,,,,,METAR,500.0
CWID 120700Z AUTO 32003KT M23/M26 RMK AO1 SLP192 T12311260 55002,CWID,2015-02-12T07:00:00Z,61.32,-117.6,-23.1,-26.0,320,3,,,,1019.2,,TRUE,TRUE,,,,,,,,,,,,,,,,-0.2,,,,,,,,,,,METAR,161.0
CWMM 120700Z AUTO 34001KT 09/08 RMK AO1 SLP229 T00940082 52014,CWMM,2015-02-12T07:00:00Z,49.22,-122.68,9.4,8.2,340,1,,,,1022.9,,TRUE,TRUE,,,,,,,,,,,,,,,,1.4,,,,,,,,,,,METAR,5.0
CZZJ 120700Z AUTO 27003KT M11/M12 RMK AO1 SOG 42 6007 SLP216 T11071118,CZZJ,2015-02-12T07:00:00Z,53.58,-116.47,-10.7,-11.8,270,3,,,,1021.6,,TRUE,TRUE,,,,,,,,,,,,,,,,,,,,,,,,,,,METAR,927.0
UTFF 120700Z 27008G19KT 230V300 3600 HZ BKN066CB BKN100 08/05 Q1015 R18/CLRD70,UTFF,2015-02-12T07:00:00Z,40.37,71.77,8.0,5.0,270,8,19,2.24,29.970472,,,,,,,,,,HZ,BKN,6600,BKN,10000,,,,,IFR,,,,,,,,,,,,METAR,577.0
UTSA 120700Z 32009KT 3400 RA BR OVC002 07/06 Q1017 R25/2///65 NOSIG RMK BASE260,UTSA,2015-02-12T07:00:00Z,40.12,65.17,7.0,6.0,320,9,,2.11,30.029528,,,,,,TRUE,,,,RA BR,OVC,200,,,,,,,LIFR,,,,,,,,,,,,METAR,346.0
SCTE 120700Z 12003KT 9999 VCFG SCT050 09/08 Q1022 NOSIG,SCTE,2015-02-12T07:00:00Z,-41.42,-73.07,9.0,8.0,120,3,,6.21,30.177166,,,,,,TRUE,,,,VCFG,SCT,5000,,,,,,,VFR,,,,,,,,,,,,METAR,86.0
CYYU 120700Z 36011G19KT 4SM -SN BLSN SCT018 M24/M27 A3017 RMK SC3 SLP242,CYYU,2015-02-12T07:00:00Z,49.42,-82.47,-24.0,-27.0,360,11,19,4.0,30.171259,1024.2,,,,,,,,,-SN BLSN,SCT,1800,,,,,,,MVFR,,,,,,,,,,,,METAR,227.0
CYIV 120700Z 00000KT 15SM SKC M32/M35 A3063 RMK SLP410,CYIV,2015-02-12T07:00:00Z,53.85,-94.65,-32.0,-35.0,0,0,,15.0,30.628937,1041.0,,,,,,,,,,SKC,,,,,,,,VFR,,,,,,,,,,,,METAR,237.0
CWEZ 120700Z AUTO 00000KT 09/07 RMK AO1 SLP227 T00890074 51013,CWEZ,2015-02-12T07:00:00Z,48.78,-123.05,8.9,7.4,0,0,,,,1022.7,,TRUE,TRUE,,,,,,,,,,,,,,,,1.3,,,,,,,,,,,METAR,7.0
CWCO 120700Z AUTO 29010G16KT M06/M10 RMK AO1 PK WND 27017/0611 SLP100 T10561095 53006,CWCO,2015-02-12T07:00:00Z,44.45,-80.17,-5.6,-9.5,290,10,16,,,1010.0,,TRUE,TRUE,,,,,,,,,,,,,,,,0.6,,,,,,,,,,,METAR,221.0
OIMN 120700Z 00000KT 9999 FEW025 BKN180 11/05 Q1017,OIMN,2015-02-12T07:00:00Z,37.48,57.3,11.0,5.0,0,0,,6.21,30.029528,,,,,,,,,,,FEW,2500,BKN,18000,,,,,VFR,,,,,,,,,,,,METAR,1074.0
OIMB 120700Z 00000KT CAVOK 22/M00 Q1020,OIMB,2015-02-12T07:00:00Z,32.9,59.28,22.0,0.0,0,0,,6.21,30.11811,,,,,,,,,,,CAVOK,,,,,,,,VFR,,,,,,,,,,,,METAR,1491.0
OIFS 120700Z 18008KT 5000 RA FEW025 SCT035 OVC070 07/05 Q1018,OIFS,2015-02-12T07:00:00Z,32.32,50.85,7.0,5.0,180,8,,3.11,30.059055,,,,,,,,,,RA,FEW,2500,SCT,3500,OVC,7000,,,MVFR,,,,,,,,,,,,METAR,2078.0
OIBV 120700Z 09014KT CAVOK 25/18 Q1017,OIBV,2015-02-12T07:00:00Z,26.82,53.35,25.0,18.0,90,14,,6.21,30.029528,,,,,,,,,,,CAVOK,,,,,,,,VFR,,,,,,,,,,,,METAR,24.0
OIBA 120700Z 15008KT 6000 NSC 25/18 Q1017,OIBA,2015-02-12T07:00:00Z,25.88,55.03,25.0,18.0,150,8,,3.73,30.029528,,,,,,,,,,,,,,,,,,,,,,,,,,,,,,,METAR,7.0
OIZI 120700Z 00000KT CAVOK 23/06 Q1020,OIZI,2015-02-12T07:00:00Z,27.23,60.72,23.0,6.0,0,0,,6.21,30.11811,,,,,,,,,,,CAVOK,,,,,,,,VFR,,,,,,,,,,,,METAR,591.0
OIZB 120700Z 14004KT CAVOK 23/06 Q1017,OIZB,2015-02-12T07:00:00Z,31.1,61.55,23.0,6.0,140,4,,6.21,30.029528,,,,,,,,,,,CAVOK,,,,,,,,VFR,,,,,,,,,,,,METAR,489.0
OING 120700Z 00000KT 0200 FG VV003 09/09 Q1017,OING,2015-02-12T07:00:00Z,36.9,54.4,9.0,9.0,0,0,,0.12,30.029528,,,,,,,,,,FG,OVX,0,,,,,,,LIFR,,,,,,,,,,,300,METAR,155.0
OIBS 120700Z 10010KT 5000 HZ SKC 24/20 Q1018,OIBS,2015-02-12T07:00:00Z,25.9,54.55,24.0,20.0,100,10,,3.11,30.059055,,,,,,,,,,HZ,SKC,,,,,,,,MVFR,,,,,,,,,,,,METAR,14.0
OIBJ 120700Z 18014KT CAVOK 24/10 Q1020,OIBJ,2015-02-12T07:00:00Z,27.82,52.35,24.0,10.0,180,14,,6.21,30.11811,,,,,,,,,,,CAVOK,,,,,,,,VFR,,,,,,,,,,,,METAR,663.0
OITL 120700Z 09012KT 0800 FG SCT004 SCT035 OVC080 03/02 Q1014,OITL,2015-02-12T07:00:00Z,38.33,48.42,3.0,2.0,90,12,,0.5,29.940945,,,,,,,,,,FG,SCT,400,SCT,3500,OVC,8000,,,LIFR,,,,,,,,,,,,METAR,1316.0
OISR 120700Z 00000KT CAVOK 22/12 Q1020,OISR,2015-02-12T07:00:00Z,27.37,53.2,22.0,12.0,0,0,,6.21,30.11811,,,,,,,,,,,CAVOK,,,,,,,,VFR,,,,,,,,,,,,METAR,408.0
OINZ 120700Z 00000KT 1500 BR VCFG OVC012 10/10 Q1016,OINZ,2015-02-12T07:00:00Z,36.63,53.2,10.0,10.0,0,0,,0.93,30.0,,,,,,,,,,BR VCFG,OVC,1200,,,,,,,LIFR,,,,,,,,,,,,METAR,11.0
OIHH 120700Z 01006KT 8000 -SHRA FEW015 FEW030CB SCT040 BKN090 06/05 Q1013,OIHH,2015-02-12T07:00:00Z,34.87,48.55,6.0,5.0,10,6,,4.97,29.911417,,,,,,,,,,-SHRA,FEW,1500,FEW,3000,SCT,4000,BKN,9000,MVFR,,,,,,,,,,,,METAR,1757.0
OICS 120700Z 36008KT 4000 -RA FEW030 FEW035TCU SCT040 BKN090 06/02 Q1011,OICS,2015-02-12T07:00:00Z,35.25,47.02,6.0,2.0,360,8,,2.49,29.852362,,,,,,,,,,-RA,FEW,3000,FEW,3500,SCT,4000,BKN,9000,IFR,,,,,,,,,,,,METAR,1373.0
OIBB 120700Z 16035KT 9999 SCT040 OVC100 27/07 Q1013 A2992,OIBB,2015-02-12T07:00:00Z,28.97,50.82,27.0,7.0,160,35,,6.21,29.911417,,,,,,,,,,,SCT,4000,OVC,10000,,,,,VFR,,,,,,,,,,,,METAR,19.0
OISY 120700Z 18012KT 1500 -RA FEW035CB SCT040 OVC070 11/05 Q1023,OISY,2015-02-12T07:00:00Z,30.7,51.55,11.0,5.0,180,12,,0.93,30.206694,,,,,,,,,,-RA,FEW,3500,SCT,4000,OVC,7000,,,LIFR,,,,,,,,,,,,METAR,1811.0
OISL 120700Z 00000KT CAVOK 20/09 Q1020,OISL,2015-02-12T07:00:00Z,27.67,54.37,20.0,9.0,0,0,,6.21,30.11811,,,,,,,,,,,CAVOK,,,,,,,,VFR,,,,,,,,,,,,METAR,805.0
OINR 120700Z VRB02KT 1300 DZ OVC005 11/10 Q1017,OINR,2015-02-12T07:00:00Z,36.88,50.67,11.0,10.0,0,2,,0.81,30.029528,,,,,,,,,,DZ,OVC,500,,,,,,,LIFR,,,,,,,,,,,,METAR,-20.0
OINN 120700Z 33004KT 5000 RA BKN015 FEW020CB OVC080 10/09 Q1016,OINN,2015-02-12T07:00:00Z,36.67,51.47,10.0,9.0,330,4,,3.11,30.0,,,,,,,,,,RA,BKN,1500,FEW,2000,OVC,8000,,,MVFR,,,,,,,,,,,,METAR,-19.0
OIKQ 120700Z 09008KT 6000 BR NSC 25/23 Q1018,OIKQ,2015-02-12T07:00:00Z,26.75,55.9,25.0,23.0,90,8,,3.73,30.059055,,,,,,,,,,BR,,,,,,,,,,,,,,,,,,,,,METAR,12.0
OICI 120700Z 18010KT 5000 SHRA FEW035CB SCT040 BKN080 11/08 Q1013 A2992,OICI,2015-02-12T07:00:00Z,33.58,46.4,11.0,8.0,180,10,,3.11,29.911417,,,,,,,,,,SHRA,FEW,3500,SCT,4000,BKN,8000,,,MVFR,,,,,,,,,,,,METAR,1343.0
OIAM 120700Z 18010KT 8000 NSC 22/18 Q1012,OIAM,2015-02-12T07:00:00Z,30.55,49.15,22.0,18.0,180,10,,4.97,29.88189,,,,,,,,,,,,,,,,,,,,,,,,,,,,,,,METAR,4.0
OIAG 120700Z 16025KT 5000 SA SCT040 OVC100 27/09 Q1013,OIAG,2015-02-12T07:00:00Z,30.77,49.67,27.0,9.0,160,25,,3.11,29.911417,,,,,,,,,,SA,SCT,4000,OVC,10000,,,,,MVFR,,,,,,,,,,,,METAR,29.0
GMTN 120700Z VRB01KT 6000 BKN023 SCT100 11/10 Q1017,GMTN,2015-02-12T07:00:00Z,35.57,-5.32,11.0,10.0,0,1,,3.73,30.029528,,,,,,,,,,,BKN,2300,SCT,10000,,,,,MVFR,,,,,,,,,,,,METAR,10.0
GMTA 120700Z 20004KT 9999 SCT023 BKN100 11/10 Q1016 NOSIG,GMTA,2015-02-12T07:00:00Z,35.17,-3.85,11.0,10.0,200,4,,6.21,30.0,,,,,,TRUE,,,,,SCT,2300,BKN,10000,,,,,VFR,,,,,,,,,,,,METAR,14.0
GMMW 120700Z 20004KT 6000 FEW010 SCT100 07/07 Q1017 NOSIG,GMMW,2015-02-12T07:00:00Z,34.98,-3.02,7.0,7.0,200,4,,3.73,30.029528,,,,,,TRUE,,,,,FEW,1000,SCT,10000,,,,,MVFR,,,,,,,,,,,,METAR,175.0
GMML 120700Z 10004KT 8000 FEW020 11/09 Q1017 NOSIG,GMML,2015-02-12T07:00:00Z,27.13,-13.23,11.0,9.0,100,4,,4.97,30.029528,,,,,,TRUE,,,,,FEW,2000,,,,,,,MVFR,,,,,,,,,,,,METAR,6.0
GMMI 120700Z AUTO 20005KT 9999NDV NCD 11/10 Q1018 NOSIG,GMMI,2015-02-12T07:00:00Z,31.4,-9.68,11.0,10.0,200,5,,,30.059055,,,TRUE,,,TRUE,,,,,,,,,,,,,,,,,,,,,,,,,METAR,8.0
GMMH 120700Z 02010KT 6000 SCT006 SCT200 14/13 Q1018 NOSIG,GMMH,2015-02-12T07:00:00Z,23.72,-15.93,14.0,13.0,20,10,,3.73,30.059055,,,,,,TRUE,,,,,SCT,600,SCT,20000,,,,,MVFR,,,,,,,,,,,,METAR,11.0
GMMC 120700Z /////KT CAVOK 11/09 Q1018,GMMC,2015-02-12T07:00:00Z,33.57,-7.67,11.0,9.0,,,,6.21,30.059055,,,,,,,,,,,CAVOK,,,,,,,,VFR,,,,,,,,,,,,METAR,62.0
GMMB 120700Z AUTO VRB02KT //// NCD 10/10 Q1019,GMMB,2015-02-12T07:00:00Z,33.65,-7.63,10.0,10.0,0,2,,,30.088583,,,TRUE,,,,,,,,,,,,,,,,,,,,,,,,,,,,METAR,191.0
GMFO 120700Z 20004KT 6000 SCT006 SCT230 06/05 Q1016 NOSIG,GMFO,2015-02-12T07:00:00Z,34.77,-1.92,6.0,5.0,200,4,,3.73,30.0,,,,,,TRUE,,,,,SCT,600,SCT,23000,,,,,MVFR,,,,,,,,,,,,METAR,470.0
GMFM 120700Z 29005KT 0800 FG BKN013 BKN020 09/08 Q1018 NOSIG,GMFM,2015-02-12T07:00:00Z,33.87,-5.52,9.0,8.0,290,5,,0.5,30.059055,,,,,,TRUE,,,,FG,BKN,1300,BKN,2000,,,,,LIFR,,,,,,,,,,,,METAR,549.0
GMFK 120700Z 23003KT 9999 BKN026 FEW030CB 09/04 Q1019 NOSIG,GMFK,2015-02-12T07:00:00Z,31.95,-4.4,9.0,4.0,230,3,,6.21,30.088583,,,,,,TRUE,,,,,BKN,2600,FEW,3000,,,,,MVFR,,,,,,,,,,,,METAR,1045.0
GMAT 120700Z 02004KT 8000 FEW016 10/09 Q1015 NOSIG,GMAT,2015-02-12T07:00:00Z,28.43,-11.15,10.0,9.0,20,4,,4.97,29.970472,,,,,,TRUE,,,,,FEW,1600,,,,,,,MVFR,,,,,,,,,,,,METAR,200.0
GMAG 120700Z 00000KT 9999 FEW016 06/04 Q1020 NOSIG,GMAG,2015-02-12T07:00:00Z,29.03,-10.05,6.0,4.0,0,0,,6.21,30.11811,,,,,,TRUE,,,,,FEW,1600,,,,,,,VFR,,,,,,,,,,,,METAR,333.0
UBBY 120700Z 00000KT 9999 OVC033 06/03 Q1021 R33/////// NOSIG RMK MT OP,UBBY,2015-02-12T07:00:00Z,41.57,46.67,6.0,3.0,0,0,,6.21,30.147638,,,,,,TRUE,,,,,OVC,3300,,,,,,,VFR,,,,,,,,,,,,METAR,390.0
OITR 120700Z 22004KT 5000 BR SCT035 OVC100 01/M01 Q1012 TMP3000 SHSNRA,OITR,2015-02-12T07:00:00Z,37.67,45.07,1.0,-1.0,220,4,,3.11,29.88189,,,,,,,,,,BR SHSN RA,SCT,3500,OVC,10000,,,,,MVFR,,,,,,,,,,,,METAR,1312.0
TLPL 120700Z 11010KT 9999 FEW020 26/23 Q1013 NOSIG,TLPL,2015-02-12T07:00:00Z,13.75,-60.95,26.0,23.0,110,10,,6.21,29.911417,,,,,,TRUE,,,,,FEW,2000,,,,,,,VFR,,,,,,,,,,,,METAR,3.0
NVVV 120700Z 09008KT 9999 FEW020 SCT300 28/26 Q1005 RMK NIL,NVVV,2015-02-12T07:00:00Z,-17.68,168.3,28.0,26.0,90,8,,6.21,29.675198,,,,,,,,,,,FEW,2000,SCT,30000,,,,,VFR,,,,,,,,,,,,METAR,21.0
MKJS 120700Z 36006KT 9999 FEW022 23/16 Q1013,MKJS,2015-02-12T07:00:00Z,18.5,-77.92,23.0,16.0,360,6,,6.21,29.911417,,,,,,,,,,,FEW,2200,,,,,,,VFR,,,,,,,,,,,,METAR,1.0
CYVQ 120700Z 27007KT 4SM -SN BKN040 OVC090 M29/M33 A3027 RMK SC6AC2 SLP262,CYVQ,2015-02-12T07:00:00Z,65.27,-126.78,-29.0,-33.0,270,7,,4.0,30.268702,1026.2,,,,,,,,,-SN,BKN,4000,OVC,9000,,,,,MVFR,,,,,,,,,,,,SPECI,74.0
CYXL 120700Z 35004KT 15SM IC SKC M28/M31 A3054 RMK SLP391,CYXL,2015-02-12T07:00:00Z,50.12,-91.9,-28.0,-31.0,350,4,,15.0,30.540354,1039.1,,,,,,,,,IC,SKC,,,,,,,,VFR,,,,,,,,,,,,SPECI,390.0
WMKD 120700Z 03005KT 9999 FEW017TCU SCT018 BKN280 30/22 Q1010 NOSIG,WMKD,2015-02-12T07:00:00Z,3.77,103.22,30.0,22.0,30,5,,6.21,29.822834,,,,,,TRUE,,,,,FEW,1700,SCT,1800,BKN,28000,,,VFR,,,,,,,,,,,,METAR,16.0
WMKC 120700Z 08009KT 030V120 9999 SCT018 BKN280 29/22 Q1011,WMKC,2015-02-12T07:00:00Z,6.17,102.27,29.0,22.0,80,9,,6.21,29.852362,,,,,,,,,,,SCT,1800,BKN,28000,,,,,VFR,,,,,,,,,,,,METAR,5.0
WMKE 120700Z 04006KT 9999 FEW018 BKN270 28/20 Q1010,WMKE,2015-02-12T07:00:00Z,4.53,103.43,28.0,20.0,40,6,,6.21,29.822834,,,,,,,,,,,FEW,1800,BKN,27000,,,,,VFR,,,,,,,,,,,,METAR,5.0
OITM 120700Z 11004KT 8000 FEW035TCU OVC080 04/00 Q1013,OITM,2015-02-12T07:00:00Z,37.35,46.15,4.0,0.0,110,4,,4.97,29.911417,,,,,,,,,,,FEW,3500,OVC,8000,,,,,MVFR,,,,,,,,,,,,METAR,1340.0
OITK 120700Z 22004KT 8000 FEW040 OVC090 06/01 Q1011,OITK,2015-02-12T07:00:00Z,38.42,44.98,6.0,1.0,220,4,,4.97,29.852362,,,,,,,,,,,FEW,4000,OVC,9000,,,,,MVFR,,,,,,,,,,,,METAR,1107.0
OINE 120700Z 00000KT 9999 FEW035 BKN200 13/11 Q1014,OINE,2015-02-12T07:00:00Z,37.38,55.45,13.0,11.0,0,0,,6.21,29.940945,,,,,,,,,,,FEW,3500,BKN,20000,,,,,VFR,,,,,,,,,,,,METAR,130.0
OIMQ 120700Z 00000KT 9999 FEW035 20/04 Q1017,OIMQ,2015-02-12T07:00:00Z,35.23,58.47,20.0,4.0,0,0,,6.21,30.029528,,,,,,,,,,,FEW,3500,,,,,,,VFR,,,,,,,,,,,,METAR,1140.0
OIMD 120700Z 35010KT 9999 SCT035 19/04 Q1013,OIMD,2015-02-12T07:00:00Z,34.38,58.63,19.0,4.0,350,10,,6.21,29.911417,,,,,,,,,,,SCT,3500,,,,,,,VFR,,,,,,,,,,,,METAR,1100.0
OIMC 120700Z 30023KT 7000 NSC 14/11 Q1018,OIMC,2015-02-12T07:00:00Z,36.5,61.07,14.0,11.0,300,23,,4.35,30.059055,,,,,,,,,,,,,,,,,,,,,,,,,,,,,,,METAR,288.0
OIIK 120700Z 15010KT 8000 SCT035 OVC090 09/06 Q1015,OIIK,2015-02-12T07:00:00Z,36.25,50.05,9.0,6.0,150,10,,4.97,29.970472,,,,,,,,,,,SCT,3500,OVC,9000,,,,,MVFR,,,,,,,,,,,,METAR,1278.0
OIBQ 120700Z 18016G26KT 8000 SCT040 BKN100 25/17 Q1012,OIBQ,2015-02-12T07:00:00Z,29.27,50.32,25.0,17.0,180,16,26,4.97,29.88189,,,,,,,,,,,SCT,4000,BKN,10000,,,,,MVFR,,,,,,,,,,,,METAR,6.0
OIBL 120700Z 09008KT 7000 NSC 25/17 Q1018,OIBL,2015-02-12T07:00:00Z,26.53,54.82,25.0,17.0,90,8,,4.35,30.059055,,,,,,,,,,,,,,,,,,,,,,,,,,,,,,,METAR,14.0
WMKA 120700Z 10008KT 8000 FEW022 BKN300 34/18 Q1008,WMKA,2015-02-12T07:00:00Z,6.2,100.4,34.0,18.0,100,8,,4.97,29.763779,,,,,,,,,,,FEW,2200,BKN,30000,,,,,MVFR,,,,,,,,,,,,METAR,5.0
WMBA 120700Z 23003KT 9999 FEW020 BKN300 33/21 Q1009,WMBA,2015-02-12T07:00:00Z,4.22,100.7,33.0,21.0,230,3,,6.21,29.793306,,,,,,,,,,,FEW,2000,BKN,30000,,,,,VFR,,,,,,,,,,,,METAR,8.0
WMAU 120700Z 01011KT 9999 FEW020 SCT150 BKN280 29/23 Q//// QFF1010,WMAU,2015-02-12T07:00:00Z,2.38,103.88,29.0,23.0,10,11,,6.21,,,,,,,,,,,,FEW,2000,SCT,15000,BKN,28000,,,VFR,,,,,,,,,,,,METAR,45.0
WMKI 120700Z 20005KT 8000 FEW020 BKN290 33/22 Q1009,WMKI,2015-02-12T07:00:00Z,4.57,101.08,33.0,22.0,200,5,,4.97,29.793306,,,,,,,,,,,FEW,2000,BKN,29000,,,,,MVFR,,,,,,,,,,,,METAR,39.0
WMKL 120700Z 02003KT 9999 FEW022 BKN280 32/21 Q1009,WMKL,2015-02-12T07:00:00Z,6.32,99.72,32.0,21.0,20,3,,6.21,29.793306,,,,,,,,,,,FEW,2200,BKN,28000,,,,,VFR,,,,,,,,,,,,METAR,7.0
WMKM 120700Z 04007KT 350V100 9999 SCT021 BKN280 33/23 Q1009,WMKM,2015-02-12T07:00:00Z,2.27,102.25,33.0,23.0,40,7,,6.21,29.793306,,,,,,,,,,,SCT,2100,BKN,28000,,,,,VFR,,,,,,,,,,,,METAR,9.0
OYMB 120700Z 09003KT CAVOK 24/06 Q1016,OYMB,2015-02-12T07:00:00Z,15.47,45.32,24.0,6.0,90,3,,6.21,30.0,,,,,,,,,,,CAVOK,,,,,,,,VFR,,,,,,,,,,,,METAR,1000.0
FIMR 120700Z 12019KT 9999 FEW020 BKN050 30/23 Q1012,FIMR,2015-02-12T07:00:00Z,-19.75,63.37,30.0,23.0,120,19,,6.21,29.88189,,,,,,,,,,,FEW,2000,BKN,5000,,,,,VFR,,,,,,,,,,,,METAR,31.0
SPHI 120700Z 15007KT 9999 FEW010 23/21 Q1011 RMK PP000,SPHI,2015-02-12T07:00:00Z,-6.77,-79.82,23.0,21.0,150,7,,6.21,29.852362,,,,,,,,,,,FEW,1000,,,,,,,VFR,,,,,,,,,,,,METAR,34.0
ORSU 120700Z 05007KT 5000 HZ SCT040 OVC080 10/03 Q1016,ORSU,2015-02-12T07:00:00Z,35.57,45.32,10.0,3.0,50,7,,3.11,30.0,,,,,,,,,,HZ,SCT,4000,OVC,8000,,,,,MVFR,,,,,,,,,,,,METAR,761.0
WMKN 120700Z 06005KT 9999 SCT018 BKN280 28/21 Q1011,WMKN,2015-02-12T07:00:00Z,5.37,103.08,28.0,21.0,60,5,,6.21,29.852362,,,,,,,,,,,SCT,1800,BKN,28000,,,,,VFR,,,,,,,,,,,,METAR,6.0
WMKJ 120700Z 01009KT 9999 SCT020 BKN300 31/23 Q1009,WMKJ,2015-02-12T07:00:00Z,1.62,103.67,31.0,23.0,10,9,,6.21,29.793306,,,,,,,,,,,SCT,2000,BKN,30000,,,,,VFR,,,,,,,,,,,,METAR,40.0
WMSA 120700Z 20007KT 5000 HZ FEW020 SCT140 BKN260 32/23 Q1009,WMSA,2015-02-12T07:00:00Z,3.13,101.55,32.0,23.0,200,7,,3.11,29.793306,,,,,,,,,,HZ,FEW,2000,SCT,14000,BKN,26000,,,MVFR,,,,,,,,,,,,METAR,27.0
WBGB 120700Z 35008KT 290V050 9999 SCT014 BKN150 28/24 Q1009,WBGB,2015-02-12T07:00:00Z,3.12,113.02,28.0,24.0,350,8,,6.21,29.793306,,,,,,,,,,,SCT,1400,BKN,15000,,,,,VFR,,,,,,,,,,,,METAR,5.0
WBGR 120700Z 02009KT 320V050 9999 SCT014 BKN300 29/24 Q1009,WBGR,2015-02-12T07:00:00Z,4.32,113.97,29.0,24.0,20,9,,6.21,29.793306,,,,,,,,,,,SCT,1400,BKN,30000,,,,,VFR,,,,,,,,,,,,METAR,18.0
WBGS 120700Z 09010KT 9999 FEW015CB SCT018 BKN150 26/23 Q1009,WBGS,2015-02-12T07:00:00Z,2.27,111.98,26.0,23.0,90,10,,6.21,29.793306,,,,,,,,,,,FEW,1500,SCT,1800,BKN,15000,,,VFR,,,,,,,,,,,,METAR,8.0
WBKL 120700Z 01009KT 330V040 9999 FEW012 BKN300 29/22 Q1009,WBKL,2015-02-12T07:00:00Z,5.28,115.25,29.0,22.0,10,9,,6.21,29.793306,,,,,,,,,,,FEW,1200,BKN,30000,,,,,VFR,,,,,,,,,,,,METAR,30.0
WBKS 120700Z 05009KT 020V080 9999 SCT016 BKN300 30/24 Q1009,WBKS,2015-02-12T07:00:00Z,5.9,118.07,30.0,24.0,50,9,,6.21,29.793306,,,,,,,,,,,SCT,1600,BKN,30000,,,,,VFR,,,,,,,,,,,,METAR,13.0
WBKT 120700Z 35008KT 9999 SCT015 BKN290 29/24 Q1010,WBKT,2015-02-12T07:00:00Z,6.92,116.82,29.0,24.0,350,8,,6.21,29.822834,,,,,,,,,,,SCT,1500,BKN,29000,,,,,VFR,,,,,,,,,,,,METAR,5.0
WBKW 120700Z 18005KT 9999 FEW017 SCT030 BKN300 31/25 Q1008,WBKW,2015-02-12T07:00:00Z,4.32,118.12,31.0,25.0,180,5,,6.21,29.763779,,,,,,,,,,,FEW,1700,SCT,3000,BKN,30000,,,VFR,,,,,,,,,,,,METAR,20.0
YABA 120700Z 11014KT 9999 BKN022 OVC250 22/16 Q1015,YABA,2015-02-12T07:00:00Z,-34.93,117.8,22.0,16.0,110,14,,6.21,29.970472,,,,,,,,,,,BKN,2200,OVC,25000,,,,,MVFR,,,,,,,,,,,,METAR,69.0
YARG 120700Z AUTO 34005KT 9999 // SCT088 38/15 Q1006,YARG,2015-02-12T07:00:00Z,-16.63,128.45,38.0,15.0,340,5,,6.21,29.704725,,,TRUE,,,,,,,,SCT,8800,,,,,,,VFR,,,,,,,,,,,,METAR,165.0
YBCV 120700Z AUTO 11013KT 9999 // NCD 34/04 Q1013,YBCV,2015-02-12T07:00:00Z,-26.38,146.27,34.0,4.0,110,13,,6.21,29.911417,,,TRUE,,,,,,,,,,,,,,,,,,,,,,,,,,,,METAR,304.0
LQTZ 120700Z VRB02KT 0400 FG OVC002 00/00 Q1027,LQTZ,2015-02-12T07:00:00Z,44.47,18.73,0.0,0.0,0,2,,0.25,30.324802,,,,,,,,,,FG,OVC,200,,,,,,,LIFR,,,,,,,,,,,,METAR,306.0
BIRK 120700Z 32012KT 9999 FEW032 SCT044 BKN068 M03/M11 Q1011 R19/410395,BIRK,2015-02-12T07:00:00Z,64.13,-21.93,-3.0,-11.0,320,12,,6.21,29.852362,,,,,,,,,,,FEW,3200,SCT,4400,BKN,6800,,,VFR,,,,,,,,,,,,METAR,61.0
BIEG 120700Z 20006KT 9999 FEW060 M08/M11 Q1009,BIEG,2015-02-12T07:00:00Z,65.27,-14.4,-8.0,-11.0,200,6,,6.21,29.793306,,,,,,,,,,,FEW,6000,,,,,,,VFR,,,,,,,,,,,,METAR,38.0
BIAR 120700Z 36014KT 9999 SCT014 BKN020 OVC051 M05/M07 Q1009,BIAR,2015-02-12T07:00:00Z,65.67,-18.07,-5.0,-7.0,360,14,,6.21,29.793306,,,,,,,,,,,SCT,1400,BKN,2000,OVC,5100,,,MVFR,,,,,,,,,,,,METAR,27.0
SBLO 120700Z 34001KT 9999 BKN025 25/23 Q1016,SBLO,2015-02-12T07:00:00Z,-23.32,-51.12,25.0,23.0,340,1,,6.21,30.0,,,,,,,,,,,BKN,2500,,,,,,,MVFR,,,,,,,,,,,,METAR,570.0
LEMO 120700Z 12004KT 9999 FEW040 BKN050 10/09 Q1018 NOSIG,LEMO,2015-02-12T07:00:00Z,37.17,-5.62,10.0,9.0,120,4,,6.21,30.059055,,,,,,TRUE,,,,,FEW,4000,BKN,5000,,,,,VFR,,,,,,,,,,,,METAR,88.0
FBSK 120700Z 03010KT CAVOK 28/13 Q1020 NOSIG,FBSK,2015-02-12T07:00:00Z,-24.55,25.92,28.0,13.0,30,10,,6.21,30.11811,,,,,,TRUE,,,,,CAVOK,,,,,,,,VFR,,,,,,,,,,,,METAR,1005.0
SBMQ 120700Z 03006KT 9999 FEW015 25/25 Q1011,SBMQ,2015-02-12T07:00:00Z,0.05,-51.07,25.0,25.0,30,6,,6.21,29.852362,,,,,,,,,,,FEW,1500,,,,,,,VFR,,,,,,,,,,,,METAR,15.0
SBKG 120700Z 10010KT 9999 SCT005 BKN010 23/22 Q1016,SBKG,2015-02-12T07:00:00Z,-7.27,-35.87,23.0,22.0,100,10,,6.21,30.0,,,,,,,,,,,SCT,500,BKN,1000,,,,,MVFR,,,,,,,,,,,,METAR,560.0
SBJU 120700Z 00000KT 9999 SCT020 28/22 Q1017,SBJU,2015-02-12T07:00:00Z,-7.22,-39.27,28.0,22.0,0,0,,6.21,30.029528,,,,,,,,,,,SCT,2000,,,,,,,VFR,,,,,,,,,,,,METAR,409.0
SBIL 120700Z 28006KT 9999 SCT020 SCT070 22/21 Q1016,SBIL,2015-02-12T07:00:00Z,-14.8,-39.02,22.0,21.0,280,6,,6.21,30.0,,,,,,,,,,,SCT,2000,SCT,7000,,,,,VFR,,,,,,,,,,,,METAR,5.0
SBME 120700Z 06003KT CAVOK 24/23 Q1014,SBME,2015-02-12T07:00:00Z,-22.35,-41.77,24.0,23.0,60,3,,6.21,29.940945,,,,,,,,,,,CAVOK,,,,,,,,VFR,,,,,,,,,,,,METAR,2.0
NSFA 120700Z 00000KT 9999 FEW020 SCT040 26/25 Q1009,NSFA,2015-02-12T07:00:00Z,-13.83,-172.0,26.0,25.0,0,0,,6.21,29.793306,,,,,,,,,,,FEW,2000,SCT,4000,,,,,VFR,,,,,,,,,,,,METAR,5.0
CYBX 120700Z 03009KT 15SM FEW020 M22/M29 A3016 RMK SC2 SLP219,CYBX,2015-02-12T07:00:00Z,51.45,-57.17,-22.0,-29.0,30,9,,15.0,30.159449,1021.9,,,,,,,,,,FEW,2000,,,,,,,VFR,,,,,,,,,,,,METAR,35.0
CYXT 120700Z 00000KT 1SM -RA BR SCT002 BKN008 OVC012 00/M00 A2997 RMK FG2SF1SF2SC3 SLP161,CYXT,2015-02-12T07:00:00Z,54.47,-128.57,0.0,0.0,0,0,,1.0,29.970472,1016.1,,,,,,,,,-RA BR,SCT,200,BKN,800,OVC,1200,,,IFR,,,,,,,,,,,,METAR,217.0
HESG 120700Z 33005KT 5000 DU NSC 12/M03 Q1022 NOSIG,HESG,2015-02-12T07:00:00Z,26.33,31.75,12.0,-3.0,330,5,,3.11,30.177166,,,,,,TRUE,,,,DU,,,,,,,,,,,,,,,,,,,,,METAR,70.0
HESC 120700Z 29012KT 4000 SA NSC 02/M08 Q1020 TEMPO 3000,HESC,2015-02-12T07:00:00Z,28.68,34.07,2.0,-8.0,290,12,,2.49,30.11811,,,,,,,,,,SA,,,,,,,,,,,,,,,,,,,,,SPECI,1332.0
HEBL 120700Z 36013KT CAVOK 15/02 Q1023 NOSIG,HEBL,2015-02-12T07:00:00Z,22.38,31.62,15.0,2.0,360,13,,6.21,30.206694,,,,,,TRUE,,,,,CAVOK,,,,,,,,VFR,,,,,,,,,,,,METAR,188.0
HEBA 120700Z 25015KT 9999 BKN020 076/04 Q1018 NOSIG,HEBA,2015-02-12T07:00:00Z,30.92,29.7,0.0,4.0,250,15,,6.21,30.059055,,,,,,TRUE,,,,,BKN,2000,,,,,,,MVFR,,,,,,,,,,,,METAR,54.0
HEAT 120700Z 29007KT CAVOK 08/M04 Q1023 NOSIG,HEAT,2015-02-12T07:00:00Z,27.05,31.02,8.0,-4.0,290,7,,6.21,30.206694,,,,,,TRUE,,,,,CAVOK,,,,,,,,VFR,,,,,,,,,,,,METAR,70.0
HESH 120700Z 28011KT 1000 R04R/1000 SA NSC 14/00 Q1020 NOSIG,HESH,2015-02-12T07:00:00Z,27.97,34.38,14.0,0.0,280,11,,0.62,30.11811,,,,,,TRUE,,,,SA,,,,,,,,,,,,,,,,,,,,,METAR,50.0
HEPS 120700Z 20018KT 9999 SCT025 09/04 Q1018 NOSIG,HEPS,2015-02-12T07:00:00Z,31.28,32.25,9.0,4.0,200,18,,6.21,30.059055,,,,,,TRUE,,,,,SCT,2500,,,,,,,VFR,,,,,,,,,,,,METAR,6.0
HEGN 120700Z 33015KT 3000 DU NSC 14/M04 Q1022 NOSIG,HEGN,2015-02-12T07:00:00Z,27.18,33.8,14.0,-4.0,330,15,,1.86,30.177166,,,,,,TRUE,,,,DU,,,,,,,,,,,,,,,,,,,,,SPECI,14.0
HEAR 120700Z 23014KT 4000 SA NSC 10/M02 Q1018 NOSG,HEAR,2015-02-12T07:00:00Z,31.07,33.82,10.0,-2.0,230,14,,2.49,30.059055,,,,,,TRUE,,,,SA,,,,,,,,,,,,,,,,,,,,,METAR,32.0
HESN 120700Z 36007KT 4000 HZ NSC 13/M03 Q1023 NOSIG,HESN,2015-02-12T07:00:00Z,23.97,32.82,13.0,-3.0,360,7,,2.49,30.206694,,,,,,TRUE,,,,HZ,,,,,,,,,,,,,,,,,,,,,SPECI,194.0
HELX 120700Z 00000KT 3000 DU NSC 13/00 Q1023 NOSIG,HELX,2015-02-12T07:00:00Z,25.67,32.7,13.0,0.0,0,0,,1.86,30.206694,,,,,,TRUE,,,,DU,,,,,,,,,,,,,,,,,,,,,SPECI,88.0
HEAX 120700Z 21010KT 9999 SCT020 SCT022 08/07 Q1016 NOSIG,HEAX,2015-02-12T07:00:00Z,31.18,29.93,8.0,7.0,210,10,,6.21,30.0,,,,,,TRUE,,,,,SCT,2000,SCT,2200,,,,,VFR,,,,,,,,,,,,METAR,7.0
HEMM 120700Z 26017KT 9999 SCT025 08/05 Q1018 NOSIG,HEMM,2015-02-12T07:00:00Z,31.32,27.22,8.0,5.0,260,17,,6.21,30.059055,,,,,,TRUE,,,,,SCT,2500,,,,,,,VFR,,,,,,,,,,,,METAR,30.0
SBBH 120700Z 10003KT CAVOK 20/18 Q1019,SBBH,2015-02-12T07:00:00Z,-19.85,-43.95,20.0,18.0,100,3,,6.21,30.088583,,,,,,,,,,,CAVOK,,,,,,,,VFR,,,,,,,,,,,,METAR,785.0
SBAF 120700Z 17005KT 9999 FEW020 25/22 Q1013,SBAF,2015-02-12T07:00:00Z,-22.87,-43.37,25.0,22.0,170,5,,6.21,29.911417,,,,,,,,,,,FEW,2000,,,,,,,VFR,,,,,,,,,,,,METAR,34.0
OIIP 120700Z 12004KT 7000 FEW030CB SCT035 OVC090 11/04 Q1015,OIIP,2015-02-12T07:00:00Z,35.78,50.83,11.0,4.0,120,4,,4.35,29.970472,,,,,,,,,,,FEW,3000,SCT,3500,OVC,9000,,,MVFR,,,,,,,,,,,,METAR,1271.0
WAOO 120700Z 22007KT 9999 SCT020 28/23 Q1008 NOSIG,WAOO,2015-02-12T07:00:00Z,-3.45,114.77,28.0,23.0,220,7,,6.21,29.763779,,,,,,TRUE,,,,,SCT,2000,,,,,,,VFR,,,,,,,,,,,,METAR,20.0
SBPJ 120700Z 01002KT CAVOK 25/22 Q1013,SBPJ,2015-02-12T07:00:00Z,-10.28,-48.37,25.0,22.0,10,2,,6.21,29.911417,,,,,,,,,,,CAVOK,,,,,,,,VFR,,,,,,,,,,,,METAR,236.0
SBAN 120700Z 16006KT 9999 FEW013 20/17 Q1020,SBAN,2015-02-12T07:00:00Z,-16.22,-48.97,20.0,17.0,160,6,,6.21,30.11811,,,,,,,,,,,FEW,1300,,,,,,,VFR,,,,,,,,,,,,METAR,1137.0
SAZS 120700Z 29026G39KT 9999 SCT030 12/03 Q1015,SAZS,2015-02-12T07:00:00Z,-41.13,-71.17,12.0,3.0,290,26,39,6.21,29.970472,,,,,,,,,,,SCT,3000,,,,,,,VFR,,,,,,,,,,,,METAR,840.0
WIHH 120700Z 32009KT 5000 HZ FEW017CB SCT016 29/24 Q1009 CB TO NW AND RA TO S,WIHH,2015-02-12T07:00:00Z,-6.25,106.88,29.0,24.0,320,9,,3.11,29.793306,,,,,,,,,,HZ RA,FEW,1700,SCT,1600,,,,,MVFR,,,,,,,,,,,,METAR,25.0
SBSM 120700Z 00000KT 9999 BKN006 OVC011 22/21 Q1012,SBSM,2015-02-12T07:00:00Z,-29.72,-53.7,22.0,21.0,0,0,,6.21,29.88189,,,,,,,,,,,BKN,600,OVC,1100,,,,,IFR,,,,,,,,,,,,METAR,85.0
SBMG 120700Z 33005KT 9999 VCTS BKN015 FEW040CB BKN100 23/21 Q10 16,SBMG,2015-02-12T07:00:00Z,-23.48,-52.02,23.0,21.0,330,5,,6.21,,,,,,,,,,,VCTS,BKN,1500,FEW,4000,BKN,10000,,,MVFR,,,,,,,,,,,,METAR,542.0
SBCM 120700Z 00000KT 0800 FG SCT005 23/23 Q1010,SBCM,2015-02-12T07:00:00Z,-28.72,-49.42,23.0,23.0,0,0,,0.5,29.822834,,,,,,,,,,FG,SCT,500,,,,,,,LIFR,,,,,,,,,,,,METAR,28.0
SBCH 120700Z 07006KT CAVOK 23/19 Q1015,SBCH,2015-02-12T07:00:00Z,-27.13,-52.67,23.0,19.0,70,6,,6.21,29.970472,,,,,,,,,,,CAVOK,,,,,,,,VFR,,,,,,,,,,,,METAR,650.0
FNKU 120700Z VRB02KT CAVOK 20/15 Q1022,FNKU,2015-02-12T07:00:00Z,-12.37,16.93,20.0,15.0,0,2,,6.21,30.177166,,,,,,,,,,,CAVOK,,,,,,,,VFR,,,,,,,,,,,,METAR,1699.0
FNSA 120700Z 00000KT CAVOK 22/18 Q1016,FNSA,2015-02-12T07:00:00Z,-9.68,20.43,22.0,18.0,0,0,,6.21,30.0,,,,,,,,,,,CAVOK,,,,,,,,VFR,,,,,,,,,,,,METAR,1093.0
FNGI 120700Z 25006KT 9999 FEW016 26/17 Q1018,FNGI,2015-02-12T07:00:00Z,-17.05,15.68,26.0,17.0,250,6,,6.21,30.059055,,,,,,,,,,,FEW,1600,,,,,,,VFR,,,,,,,,,,,,METAR,1087.0
FNHU 120700Z 18005KT CAVOK 18/17 Q1024,FNHU,2015-02-12T07:00:00Z,-12.82,15.77,18.0,17.0,180,5,,6.21,30.236221,,,,,,,,,,,CAVOK,,,,,,,,VFR,,,,,,,,,,,,METAR,1701.0
FNUE 120700Z 23006KT CAVOK 21/17 Q1020,FNUE,2015-02-12T07:00:00Z,-11.77,19.9,21.0,17.0,230,6,,6.21,30.11811,,,,,,,,,,,CAVOK,,,,,,,,VFR,,,,,,,,,,,,METAR,1329.0
FNMA 120700Z 00000KT 9999 BKN057 18/17 Q1018,FNMA,2015-02-12T07:00:00Z,-9.55,16.32,18.0,17.0,0,0,,6.21,30.059055,,,,,,,,,,,BKN,5700,,,,,,,VFR,,,,,,,,,,,,METAR,1173.0
FNSU 120700Z 17005KT 9999 FEW012 BKN070 27/24 Q1018,FNSU,2015-02-12T07:00:00Z,-11.17,13.85,27.0,24.0,170,5,,6.21,30.059055,,,,,,,,,,,FEW,1200,BKN,7000,,,,,VFR,,,,,,,,,,,,METAR,11.0
FNUG 120700Z 00000KT 9999 FEW015 OVC060 21/20 Q1016,FNUG,2015-02-12T07:00:00Z,-7.6,15.28,21.0,20.0,0,0,,6.21,30.0,,,,,,,,,,,FEW,1500,OVC,6000,,,,,VFR,,,,,,,,,,,,METAR,829.0
FNBG 120700Z 00000KT 9999 FEW025 SCT120 26/24 Q1012,FNBG,2015-02-12T07:00:00Z,-12.62,13.4,26.0,24.0,0,0,,6.21,29.88189,,,,,,,,,,,FEW,2500,SCT,12000,,,,,VFR,,,,,,,,,,,,METAR,36.0
FNSO 120700Z 00000KT 9999 FEW011 OVC100 24/23 Q1012,FNSO,2015-02-12T07:00:00Z,-6.13,12.37,24.0,23.0,0,0,,6.21,29.88189,,,,,,,,,,,FEW,1100,OVC,10000,,,,,VFR,,,,,,,,,,,,METAR,5.0
FNBC 120700Z 31009KT 1000 MIFG BKN090 25/// Q1014,FNBC,2015-02-12T07:00:00Z,-6.27,14.25,,,310,9,,0.62,29.940945,,,,,,,,,,MIFG,BKN,9000,,,,,,,LIFR,,,,,,,,,,,,METAR,567.0
FNCA 120700Z 00000KT 9999 SCT010 BKN090 24/22 Q1012,FNCA,2015-02-12T07:00:00Z,-5.58,12.18,24.0,22.0,0,0,,6.21,29.88189,,,,,,,,,,,SCT,1000,BKN,9000,,,,,VFR,,,,,,,,,,,,METAR,20.0
OTBD 120700Z 17012KT 130V200 CAVOK 26/14 Q1017 NOSIG,OTBD,2015-02-12T07:00:00Z,25.25,51.57,26.0,14.0,170,12,,6.21,30.029528,,,,,,TRUE,,,,,CAVOK,,,,,,,,VFR,,,,,,,,,,,,METAR,10.0
OBBI 120700Z 16006KT 110V190 CAVOK 24/12 Q1016 NOSIG,OBBI,2015-02-12T07:00:00Z,26.27,50.63,24.0,12.0,160,6,,6.21,30.0,,,,,,TRUE,,,,,CAVOK,,,,,,,,VFR,,,,,,,,,,,,METAR,2.0
FSPP 120700Z 34014KT //// //// 28/22 Q1013,FSPP,2015-02-12T07:00:00Z,-4.32,55.7,28.0,22.0,340,14,,,29.911417,,,,,,,,,,,,,,,,,,,,,,,,,,,,,,,METAR,4.0
LPBJ 120700Z 30004KT CAVOK 04/04 Q1018,LPBJ,2015-02-12T07:00:00Z,38.08,-7.93,4.0,4.0,300,4,,6.21,30.059055,,,,,,,,,,,CAVOK,,,,,,,,VFR,,,,,,,,,,,,METAR,247.0
LPLA 120700Z /////KT 9999 FEW018 BKN030 12/12 Q1021,LPLA,2015-02-12T07:00:00Z,38.77,-27.1,12.0,12.0,,,,6.21,30.147638,,,,,,,,,,,FEW,1800,BKN,3000,,,,,MVFR,,,,,,,,,,,,METAR,55.0
SBQV 120700Z 15003KT CAVOK 15/14 Q1021,SBQV,2015-02-12T07:00:00Z,-14.87,-40.87,15.0,14.0,150,3,,6.21,30.147638,,,,,,,,,,,CAVOK,,,,,,,,VFR,,,,,,,,,,,,METAR,893.0
SBSC 120700Z 02004KT CAVOK 25/23 Q1012,SBSC,2015-02-12T07:00:00Z,-22.92,-43.72,25.0,23.0,20,4,,6.21,29.88189,,,,,,,,,,,CAVOK,,,,,,,,VFR,,,,,,,,,,,,METAR,3.0
SBML 120700Z 04004KT 9999 SCT030 SCT080 23/20 Q1017,SBML,2015-02-12T07:00:00Z,-22.18,-49.92,23.0,20.0,40,4,,6.21,30.029528,,,,,,,,,,,SCT,3000,SCT,8000,,,,,VFR,,,,,,,,,,,,METAR,647.0
SBMK 120700Z 00000KT CAVOK 18/16 Q1019,SBMK,2015-02-12T07:00:00Z,-16.7,-43.82,18.0,16.0,0,0,,6.21,30.088583,,,,,,,,,,,CAVOK,,,,,,,,VFR,,,,,,,,,,,,METAR,646.0
CYPH 120700Z AUTO 34007KT 9SM CLR M36/M41 A3038 RMK SLP294,CYPH,2015-02-12T07:00:00Z,58.45,-78.08,-36.0,-41.0,340,7,,9.0,30.380905,1029.4,,TRUE,,,,,,,,CLR,,,,,,,,VFR,,,,,,,,,,,,SPECI,3.0
CYOY 120700Z AUTO 10006KT 9SM OVC057 M13/M21 A2981 RMK SLP110,CYOY,2015-02-12T07:00:00Z,46.88,-71.5,-13.0,-21.0,100,6,,9.0,29.811024,1011.0,,TRUE,,,,,,,,OVC,5700,,,,,,,VFR,,,,,,,,,,,,SPECI,168.0
CYMH 120700Z AUTO VRB02KT 9SM CLR M26/M30 A3021 RMK SLP231,CYMH,2015-02-12T07:00:00Z,52.28,-55.85,-26.0,-30.0,0,2,,9.0,30.209646,1023.1,,TRUE,,,,,,,,CLR,,,,,,,,VFR,,,,,,,,,,,,METAR,11.0
CYGV 120700Z AUTO 06007KT 9SM BKN080 OVC090 M19/M23 A3013 RMK SLP206,CYGV,2015-02-12T07:00:00Z,50.27,-63.62,-19.0,-23.0,60,7,,9.0,30.129921,1020.6,,TRUE,,,,,,,,BKN,8000,OVC,9000,,,,,VFR,,,,,,,,,,,,SPECI,33.0
CYZS 120700Z 33004KT 15SM SKC M42/M47 A3025 RMK SLP257,CYZS,2015-02-12T07:00:00Z,64.2,-83.37,-42.0,-47.0,330,4,,15.0,30.250984,1025.7,,,,,,,,,,SKC,,,,,,,,VFR,,,,,,,,,,,,SPECI,64.0
CYVM 120700Z AUTO 05009KT 9SM OVC065 M28/M33 A3004 RMK SLP173,CYVM,2015-02-12T07:00:00Z,67.53,-64.02,-28.0,-33.0,50,9,,9.0,30.041338,1017.3,,TRUE,,,,,,,,OVC,6500,,,,,,,VFR,,,,,,,,,,,,SPECI,6.0
CYTE 120700Z AUTO 28006KT 9SM CLR M32/M38 A3019 RMK SLP234,CYTE,2015-02-12T07:00:00Z,64.22,-76.52,-32.0,-38.0,280,6,,9.0,30.188976,1023.4,,TRUE,,,,,,,,CLR,,,,,,,,VFR,,,,,,,,,,,,METAR,47.0
CYRT 120700Z 27008KT 15SM IC SKC M38/M43 A3037 RMK SLP293,CYRT,2015-02-12T07:00:00Z,62.82,-92.12,-38.0,-43.0,270,8,,15.0,30.369095,1029.3,,,,,,,,,IC,SKC,,,,,,,,VFR,,,,,,,,,,,,SPECI,32.0
CYFS 120700Z 01005KT 15SM -SN SCT028 M24/M27 A3006 RMK SC3 SLP206,CYFS,2015-02-12T07:00:00Z,61.75,-121.22,-24.0,-27.0,10,5,,15.0,30.059055,1020.6,,,,,,,,,-SN,SCT,2800,,,,,,,VFR,,,,,,,,,,,,SPECI,169.0
CYCO 120700Z 23010KT 12SM IC DRSN FEW015 SCT050 BKN120 M34/M38 A3031 RMK SC2SC1AS2 SLP268,CYCO,2015-02-12T07:00:00Z,67.82,-115.15,-34.0,-38.0,230,10,,12.0,30.31004,1026.8,,,,,,,,,IC DRSN,FEW,1500,SCT,5000,BKN,12000,,,VFR,,,,,,,,,,,,SPECI,22.0
CYCB 120700Z 32008KT 8SM SCT035 BKN070 M34/M38 A3019 RMK SC2AC1 IC SLP229,CYCB,2015-02-12T07:00:00Z,69.08,-105.12,-34.0,-38.0,320,8,,8.0,30.188976,1022.9,,,,,,,,,,SCT,3500,BKN,7000,,,,,VFR,,,,,,,,,,,,SPECI,27.0
CYXH 120700Z AUTO 02003KT 9SM OVC190 M07/M08 A3008 RMK SLP228,CYXH,2015-02-12T07:00:00Z,50.02,-110.72,-7.0,-8.0,20,3,,9.0,30.079725,1022.8,,TRUE,,,,,,,,OVC,19000,,,,,,,VFR,,,,,,,,,,,,SPECI,716.0
CYUX 120700Z AUTO 31013KT 9SM CLR M42/M47 A3020 RMK SLP230,CYUX,2015-02-12T07:00:00Z,68.77,-81.25,-42.0,-47.0,310,13,,9.0,30.200787,1023.0,,TRUE,,,,,,,,CLR,,,,,,,,VFR,,,,,,,,,,,,SPECI,8.0
CYUY 120700Z 34013G20KT 6SM -SN OVC030 M21/M25 A2986 RMK SC8 SLP143,CYUY,2015-02-12T07:00:00Z,48.2,-78.82,-21.0,-25.0,340,13,20,6.0,29.861221,1014.3,,,,,,,,,-SN,OVC,3000,,,,,,,MVFR,,,,,,,,,,,,METAR,301.0
SBGO 120700Z 14005KT CAVOK 22/19 Q1018,SBGO,2015-02-12T07:00:00Z,-16.62,-49.22,22.0,19.0,140,5,,6.21,30.059055,,,,,,,,,,,CAVOK,,,,,,,,VFR,,,,,,,,,,,,METAR,747.0
FKKD 120700Z 00000KT 1600 TS BR BKN016 FEW020CB 27/26 Q1012 TEMPO 1200 TS BR,FKKD,2015-02-12T07:00:00Z,4.0,9.72,27.0,26.0,0,0,,0.99,29.88189,,,,,,,,,,TS BR,BKN,1600,FEW,2000,,,,,LIFR,,,,,,,,,,,,METAR,9.0
ZBSJ 120700Z 13003MPS 090V180 CAVOK 08/M13 Q1018 NOSIG,ZBSJ,2015-02-12T07:00:00Z,38.28,114.7,8.0,-13.0,130,6,,6.21,30.059055,,,,,,TRUE,,,,,CAVOK,,,,,,,,VFR,,,,,,,,,,,,METAR,71.0
LKPD 120700Z 14003KT 9999 OVC016 01/M02 Q1026 NOSIG RMK WHT WHT,LKPD,2015-02-12T07:00:00Z,50.02,15.73,1.0,-2.0,140,3,,6.21,30.295275,,,,,,TRUE,,,,,OVC,1600,,,,,,,MVFR,,,,,,,,,,,,METAR,226.0
LKNA 120700Z 13006KT 4000 BR OVC007 M01/M01 Q1025 NOSIG RMK GRN GRN,LKNA,2015-02-12T07:00:00Z,49.17,16.12,-1.0,-1.0,130,6,,2.49,30.265747,,,,,,TRUE,,,,BR,OVC,700,,,,,,,IFR,,,,,,,,,,,,METAR,472.0
LKLN 120700Z AUTO VRB03KT 7000 OVC007 M01/M02 Q1025,LKLN,2015-02-12T07:00:00Z,49.68,13.27,-1.0,-2.0,0,3,,4.35,30.265747,,,TRUE,,,,,,,,OVC,700,,,,,,,IFR,,,,,,,,,,,,METAR,362.0
LKKB 120700Z 14003KT 110V180 9000 OVC013 M01/M03 Q1025 NOSIG,LKKB,2015-02-12T07:00:00Z,50.12,14.53,-1.0,-3.0,140,3,,5.59,30.265747,,,,,,TRUE,,,,,OVC,1300,,,,,,,MVFR,,,,,,,,,,,,METAR,286.0
LKCV 120700Z 17004KT 130V200 9999 OVC015 02/M01 Q1026 NOSIG RMK WHT WHT,LKCV,2015-02-12T07:00:00Z,49.93,15.38,2.0,-1.0,170,4,,6.21,30.295275,,,,,,TRUE,,,,,OVC,1500,,,,,,,MVFR,,,,,,,,,,,,METAR,242.0
RJFG 120700Z 31009KT 290V360 5000 BR FEW030 SCT040 12/07 Q1010,RJFG,2015-02-12T07:00:00Z,30.62,130.98,12.0,7.0,310,9,,3.11,29.822834,,,,,,,,,,BR,FEW,3000,SCT,4000,,,,,MVFR,,,,,,,,,,,,METAR,95.0
RJFS 120700Z 31020KT 9999 FEW040 10/M04 Q1010,RJFS,2015-02-12T07:00:00Z,33.15,130.3,10.0,-4.0,310,20,,6.21,29.822834,,,,,,,,,,,FEW,4000,,,,,,,VFR,,,,,,,,,,,,METAR,5.0
RJEC 120700Z 16007KT 9999 -SHSN FEW012 BKN035 BKN050 M01/M07 Q1002,RJEC,2015-02-12T07:00:00Z,43.67,142.43,-1.0,-7.0,160,7,,6.21,29.586615,,,,,,,,,,-SHSN,FEW,1200,BKN,3500,BKN,5000,,,VFR,,,,,,,,,,,,METAR,211.0
RJEB 120700Z VRB01KT 9999 FEW050 SCT060 M02/M06 Q1004,RJEB,2015-02-12T07:00:00Z,44.3,143.4,-2.0,-6.0,0,1,,6.21,29.64567,,,,,,,,,,,FEW,5000,SCT,6000,,,,,VFR,,,,,,,,,,,,METAR,25.0
RJDT 120700Z 27016G27KT 230V300 9999 FEW040 07/M07 Q1009,RJDT,2015-02-12T07:00:00Z,34.27,129.32,7.0,-7.0,270,16,27,6.21,29.793306,,,,,,,,,,,FEW,4000,,,,,,,VFR,,,,,,,,,,,,METAR,66.0
RJDC 120700Z 27017KT 9999 FEW030 SCT/// 10/M04 Q1008,RJDC,2015-02-12T07:00:00Z,33.92,131.27,10.0,-4.0,270,17,,6.21,29.763779,,,,,,,,,,,FEW,3000,,,,,,,VFR,,,,,,,,,,,,METAR,8.0
RJCW 120700Z 17007KT 6000 -SHSN FEW004 SCT020 BKN035 M03/M05 Q1003,RJCW,2015-02-12T07:00:00Z,45.38,141.8,-3.0,-5.0,170,7,,3.73,29.616142,,,,,,,,,,-SHSN,FEW,400,SCT,2000,BKN,3500,,,MVFR,,,,,,,,,,,,METAR,11.0
RJCN 120700Z 28002KT 9999 FEW030 SCT170 BKN/// M04/M06 Q1004,RJCN,2015-02-12T07:00:00Z,43.57,144.97,-4.0,-6.0,280,2,,6.21,29.64567,,,,,,,,,,,FEW,3000,SCT,17000,,,,,VFR,,,,,,,,,,,,METAR,70.0
RJCM 120700Z 04005KT 9999 FEW030 SCT050 BKN/// M01/M07 Q1003,RJCM,2015-02-12T07:00:00Z,43.88,144.17,-1.0,-7.0,40,5,,6.21,29.616142,,,,,,,,,,,FEW,3000,SCT,5000,,,,,VFR,,,,,,,,,,,,METAR,36.0
RJCK 120700Z 22006KT 9999 FEW012 SCT150 BKN/// M01/M05 Q1004,RJCK,2015-02-12T07:00:00Z,43.02,144.18,-1.0,-5.0,220,6,,6.21,29.64567,,,,,,,,,,,FEW,1200,SCT,15000,,,,,VFR,,,,,,,,,,,,METAR,98.0
RJCH 120700Z 32007KT 9999 VCSH FEW020 SCT030 02/M05 Q1004,RJCH,2015-02-12T07:00:00Z,41.77,140.82,2.0,-5.0,320,7,,6.21,29.64567,,,,,,,,,,VCSH,FEW,2000,SCT,3000,,,,,VFR,,,,,,,,,,,,METAR,36.0
RJCB 120700Z VRB01KT 9999 FEW050 BKN/// M02/M07 Q1003,RJCB,2015-02-12T07:00:00Z,42.72,143.22,-2.0,-7.0,0,1,,6.21,29.616142,,,,,,,,,,,FEW,5000,,,,,,,VFR,,,,,,,,,,,,METAR,152.0
RJBT 120700Z 30006KT 260V340 9999 -SHRA FEW015 SCT030 BKN040 06/00 Q1004,RJBT,2015-02-12T07:00:00Z,35.5,134.8,6.0,0.0,300,6,,6.21,29.64567,,,,,,,,,,-SHRA,FEW,1500,SCT,3000,BKN,4000,,,VFR,,,,,,,,,,,,METAR,210.0
RJBE 120700Z 25010KT 9999 FEW035 09/04 Q1005,RJBE,2015-02-12T07:00:00Z,34.63,135.23,9.0,4.0,250,10,,6.21,29.675198,,,,,,,,,,,FEW,3500,,,,,,,VFR,,,,,,,,,,,,METAR,5.0
RJBD 120700Z 31006KT 260V360 9999 FEW035 12/01 Q1005,RJBD,2015-02-12T07:00:00Z,33.67,135.37,12.0,1.0,310,6,,6.21,29.675198,,,,,,,,,,,FEW,3500,,,,,,,VFR,,,,,,,,,,,,METAR,108.0
RJAF 120700Z 17014KT 9999 VCSH FEW060 04/M04 Q1001,RJAF,2015-02-12T07:00:00Z,36.17,137.92,4.0,-4.0,170,14,,6.21,29.557087,,,,,,,,,,VCSH,FEW,6000,,,,,,,VFR,,,,,,,,,,,,METAR,660.0
RJAH 120700Z 08008KT 9999 FEW030 09/M00 Q1001,RJAH,2015-02-12T07:00:00Z,36.17,140.42,9.0,0.0,80,8,,6.21,29.557087,,,,,,,,,,,FEW,3000,,,,,,,VFR,,,,,,,,,,,,METAR,35.0
RORS 120700Z 35016KT 9999 FEW046 BKN/// 19/08 Q1015,RORS,2015-02-12T07:00:00Z,24.82,125.15,19.0,8.0,350,16,,6.21,29.970472,,,,,,,,,,,FEW,4600,,,,,,,VFR,,,,,,,,,,,,METAR,16.0
ROMY 120700Z 35009KT 9999 FEW040 BKN/// 19/08 Q1015,ROMY,2015-02-12T07:00:00Z,24.77,125.27,19.0,8.0,350,9,,6.21,29.970472,,,,,,,,,,,FEW,4000,,,,,,,VFR,,,,,,,,,,,,METAR,41.0
ROIG 120700Z 01012KT 340V050 9999 FEW035 BKN060 19/07 Q1015,ROIG,2015-02-12T07:00:00Z,24.32,124.17,19.0,7.0,10,12,,6.21,29.970472,,,,,,,,,,,FEW,3500,BKN,6000,,,,,VFR,,,,,,,,,,,,METAR,7.0
RJTO 120700Z 24015KT 9999 FEW030 12/02 Q1002,RJTO,2015-02-12T07:00:00Z,34.77,139.37,12.0,2.0,240,15,,6.21,29.586615,,,,,,,,,,,FEW,3000,,,,,,,VFR,,,,,,,,,,,,METAR,41.0
RJTI 120700Z 11003KT 060V190 8000 FEW030 11/M02 Q1001,RJTI,2015-02-12T07:00:00Z,35.63,139.83,11.0,-2.0,110,3,,4.97,29.557087,,,,,,,,,,,FEW,3000,,,,,,,MVFR,,,,,,,,,,,,METAR,8.0
RJTF 120700Z 07004KT 9999 FEW030 13/M04 Q1000,RJTF,2015-02-12T07:00:00Z,35.67,139.52,13.0,-4.0,70,4,,6.21,29.52756,,,,,,,,,,,FEW,3000,,,,,,,VFR,,,,,,,,,,,,METAR,44.0
RJSY 120700Z 10004KT 7000 -SHRA BR FEW008 SCT015 BKN025 02/01 Q1003,RJSY,2015-02-12T07:00:00Z,38.82,139.77,2.0,1.0,100,4,,4.35,29.616142,,,,,,,,,,-SHRA BR,FEW,800,SCT,1500,BKN,2500,,,MVFR,,,,,,,,,,,,METAR,22.0
RJSS 120700Z 12005KT 9999 FEW030 BKN080 07/03 Q1002,RJSS,2015-02-12T07:00:00Z,38.12,140.92,7.0,3.0,120,5,,6.21,29.586615,,,,,,,,,,,FEW,3000,BKN,8000,,,,,VFR,,,,,,,,,,,,METAR,5.0
RJSR 120700Z 13004KT 9999 FEW010 SCT030 BKN070 02/01 Q1003,RJSR,2015-02-12T07:00:00Z,40.18,140.37,2.0,1.0,130,4,,6.21,29.616142,,,,,,,,,,,FEW,1000,SCT,3000,BKN,7000,,,VFR,,,,,,,,,,,,METAR,87.0
RJSK 120700Z VRB01KT 9999 FEW010 SCT030 BKN040 02/M00 Q1003,RJSK,2015-02-12T07:00:00Z,39.62,140.22,2.0,0.0,0,1,,6.21,29.616142,,,,,,,,,,,FEW,1000,SCT,3000,BKN,4000,,,VFR,,,,,,,,,,,,METAR,96.0
RJSI 120700Z 36004KT 9999 FEW030 SCT040 BKN080 04/M02 Q1002,RJSI,2015-02-12T07:00:00Z,39.42,141.12,4.0,-2.0,360,4,,6.21,29.586615,,,,,,,,,,,FEW,3000,SCT,4000,BKN,8000,,,VFR,,,,,,,,,,,,METAR,93.0
RJSF 120700Z 11008KT 9999 FEW040 BKN050 07/M02 Q1000,RJSF,2015-02-12T07:00:00Z,37.22,140.42,7.0,-2.0,110,8,,6.21,29.52756,,,,,,,,,,,FEW,4000,BKN,5000,,,,,VFR,,,,,,,,,,,,METAR,375.0
RJSC 120700Z VRB02KT 9999 -SHRA FEW015 SCT025 BKN035 04/M00 Q1002,RJSC,2015-02-12T07:00:00Z,38.42,140.37,4.0,0.0,0,2,,6.21,29.586615,,,,,,,,,,-SHRA,FEW,1500,SCT,2500,BKN,3500,,,VFR,,,,,,,,,,,,METAR,108.0
RJSA 120700Z 22003KT 9000 -SN FEW006 SCT020 BKN060 M00/M02 Q1003,RJSA,2015-02-12T07:00:00Z,40.72,140.68,0.0,-2.0,220,3,,5.59,29.616142,,,,,,,,,,-SN,FEW,600,SCT,2000,BKN,6000,,,VFR,,,,,,,,,,,,METAR,201.0
RJOY 120700Z 27011KT 9999 FEW040 SCT/// 10/M01 Q1005,RJOY,2015-02-12T07:00:00Z,34.6,135.58,10.0,-1.0,270,11,,6.21,29.675198,,,,,,,,,,,FEW,4000,,,,,,,VFR,,,,,,,,,,,,METAR,13.0
RJOW 120700Z 28019KT 9999 FEW030 SCT045 09/M02 Q1007,RJOW,2015-02-12T07:00:00Z,34.67,131.8,9.0,-2.0,280,19,,6.21,29.734253,,,,,,,,,,,FEW,3000,SCT,4500,,,,,VFR,,,,,,,,,,,,METAR,54.0
RJOR 120700Z 22009KT 9999 FEW008 SCT020 FEW025CB BKN040 06/02 Q1005,RJOR,2015-02-12T07:00:00Z,35.52,134.17,6.0,2.0,220,9,,6.21,29.675198,,,,,,,,,,,FEW,800,SCT,2000,FEW,2500,BKN,4000,VFR,,,,,,,,,,,,METAR,18.0
RJOO 120700Z 26009KT 220V300 9999 VCSH FEW030 11/M01 Q1005 RMK 1CU030 A2969,RJOO,2015-02-12T07:00:00Z,34.77,135.43,11.0,-1.0,260,9,,6.21,29.675198,,,,,,,,,,VCSH,FEW,3000,,,,,,,VFR,,,,,,,,,,,,SPECI,15.0
RJOM 120700Z 23013KT 9999 FEW035 11/04 Q1007,RJOM,2015-02-12T07:00:00Z,33.82,132.68,11.0,4.0,230,13,,6.21,29.734253,,,,,,,,,,,FEW,3500,,,,,,,VFR,,,,,,,,,,,,METAR,7.0
RJOK 120700Z 27011KT 9999 FEW030 13/M04 Q1006,RJOK,2015-02-12T07:00:00Z,33.52,133.67,13.0,-4.0,270,11,,6.21,29.704725,,,,,,,,,,,FEW,3000,,,,,,,VFR,,,,,,,,,,,,METAR,10.0
RJOH 120700Z 28014KT 9999 -SHRA FEW020 BKN030 BKN045 07/M01 Q1006,RJOH,2015-02-12T07:00:00Z,35.47,133.25,7.0,-1.0,280,14,,6.21,29.704725,,,,,,,,,,-SHRA,FEW,2000,BKN,3000,BKN,4500,,,MVFR,,,,,,,,,,,,METAR,9.0
RJOC 120700Z 28016KT 9999 FEW035 BKN045 06/M01 Q1006,RJOC,2015-02-12T07:00:00Z,35.42,132.87,6.0,-1.0,280,16,,6.21,29.704725,,,,,,,,,,,FEW,3500,BKN,4500,,,,,VFR,,,,,,,,,,,,METAR,5.0
RJOA 120700Z 25010KT 9999 FEW015 SCT025 07/01 Q1005,RJOA,2015-02-12T07:00:00Z,34.42,132.92,7.0,1.0,250,10,,6.21,29.675198,,,,,,,,,,,FEW,1500,SCT,2500,,,,,VFR,,,,,,,,,,,,METAR,6.0
RJNS 120700Z 28020KT 9999 FEW040 11/M03 Q1003,RJNS,2015-02-12T07:00:00Z,34.8,138.18,11.0,-3.0,280,20,,6.21,29.616142,,,,,,,,,,,FEW,4000,,,,,,,VFR,,,,,,,,,,,,METAR,135.0
RJNW 120700Z 20007KT 180V240 2000 VCSH BR FEW001 SCT005 BKN010 03/03 Q1002,RJNW,2015-02-12T07:00:00Z,37.3,136.97,3.0,3.0,200,7,,1.24,29.586615,,,,,,,,,,VCSH BR,FEW,100,SCT,500,BKN,1000,,,IFR,,,,,,,,,,,,METAR,219.0
RJKA 120700Z 27009KT 220V300 9999 FEW040 SCT060 17/04 Q1012,RJKA,2015-02-12T07:00:00Z,28.42,129.72,17.0,4.0,270,9,,6.21,29.88189,,,,,,,,,,,FEW,4000,SCT,6000,,,,,VFR,,,,,,,,,,,,METAR,7.0
RJFU 120700Z 32022KT 9999 FEW025 10/M03 Q1011,RJFU,2015-02-12T07:00:00Z,32.92,129.92,10.0,-3.0,320,22,,6.21,29.852362,,,,,,,,,,,FEW,2500,,,,,,,VFR,,,,,,,,,,,,METAR,5.0
RJFT 120700Z 25012KT 8000 FEW025 BKN040 10/01 Q1009,RJFT,2015-02-12T07:00:00Z,32.82,130.83,10.0,1.0,250,12,,4.97,29.793306,,,,,,,,,,,FEW,2500,BKN,4000,,,,,MVFR,,,,,,,,,,,,METAR,196.0
RJFR 120700Z 26019KT 9999 FEW045 10/M03 Q1008,RJFR,2015-02-12T07:00:00Z,33.82,131.03,10.0,-3.0,260,19,,6.21,29.763779,,,,,,,,,,,FEW,4500,,,,,,,VFR,,,,,,,,,,,,METAR,6.0
RJFO 120700Z VRB06KT 9999 FEW040 SCT050 BKN070 12/M01 Q1007,RJFO,2015-02-12T07:00:00Z,33.47,131.72,12.0,-1.0,0,6,,6.21,29.734253,,,,,,,,,,,FEW,4000,SCT,5000,BKN,7000,,,VFR,,,,,,,,,,,,METAR,8.0
RJFM 120700Z 26016KT 8000 FEW030 13/03 Q1008,RJFM,2015-02-12T07:00:00Z,31.87,131.43,13.0,3.0,260,16,,4.97,29.763779,,,,,,,,,,,FEW,3000,,,,,,,MVFR,,,,,,,,,,,,METAR,9.0
RJFK 120700Z 26006KT 6000 FEW010 SCT020 BKN030 08/05 Q1010 RMK 1CU010 3CU020 6CU030 A2982,RJFK,2015-02-12T07:00:00Z,31.8,130.72,8.0,5.0,260,6,,3.73,29.822834,,,,,,,,,,,FEW,1000,SCT,2000,BKN,3000,,,MVFR,,,,,,,,,,,,SPECI,275.0
FAUP 120700Z 31003KT CAVOK 28/01 Q1016 NOSIG,FAUP,2015-02-12T07:00:00Z,-28.38,21.27,28.0,1.0,310,3,,6.21,30.0,,,,,,TRUE,,,,,CAVOK,,,,,,,,VFR,,,,,,,,,,,,METAR,836.0
FAPP 120700Z 05006KT 9999 FEW030 21/14 Q1022 NOSIG,FAPP,2015-02-12T07:00:00Z,-23.83,29.45,21.0,14.0,50,6,,6.21,30.177166,,,,,,TRUE,,,,,FEW,3000,,,,,,,VFR,,,,,,,,,,,,METAR,1242.0
FAPN 120700Z AUTO 20002KT //// // ////// 24/15 Q1021,FAPN,2015-02-12T07:00:00Z,-25.33,27.17,24.0,15.0,200,2,,,30.147638,,,TRUE,,,,,,,,,,,,,,,,,,,,,,,,,,,,METAR,1039.0
FAPE 120700Z 10008KT 9999 OVC004 21/19 Q1014 NOSIG,FAPE,2015-02-12T07:00:00Z,-33.97,25.6,21.0,19.0,100,8,,6.21,29.940945,,,,,,TRUE,,,,,OVC,400,,,,,,,LIFR,,,,,,,,,,,,METAR,60.0
FAOR 120700Z 36008KT 330V030 CAVOK 21/15 Q1026 NOSIG,FAOR,2015-02-12T07:00:00Z,-26.12,28.22,21.0,15.0,360,8,,6.21,30.295275,,,,,,TRUE,,,,,CAVOK,,,,,,,,VFR,,,,,,,,,,,,METAR,1700.0
FALE 120700Z 06008KT 9999 BKN009 OVC018 26/23 Q1015 NOSIG,FALE,2015-02-12T07:00:00Z,-29.62,31.12,26.0,23.0,60,8,,6.21,29.970472,,,,,,TRUE,,,,,BKN,900,OVC,1800,,,,,IFR,,,,,,,,,,,,METAR,109.0
FAKN 120700Z 17003KT 9999 SCT020 23/16 Q1022 NOSIG,FAKN,2015-02-12T07:00:00Z,-25.38,31.1,23.0,16.0,170,3,,6.21,30.177166,,,,,,TRUE,,,,,SCT,2000,,,,,,,VFR,,,,,,,,,,,,METAR,862.0
FAGG 120700Z VRB03KT 9999 FEW016 SCT020 19/15 Q1014,FAGG,2015-02-12T07:00:00Z,-34.0,22.37,19.0,15.0,0,3,,6.21,29.940945,,,,,,,,,,,FEW,1600,SCT,2000,,,,,VFR,,,,,,,,,,,,METAR,193.0
FAEL 120700Z 04010KT 9999 SCT013 25/21 Q1013,FAEL,2015-02-12T07:00:00Z,-33.02,27.82,25.0,21.0,40,10,,6.21,29.911417,,,,,,,,,,,SCT,1300,,,,,,,VFR,,,,,,,,,,,,METAR,125.0
FACT 120700Z /////KT CAVOK ///// Q//// NOSIG,FACT,2015-02-12T07:00:00Z,-33.97,18.6,,,,,,6.21,,,,,,,TRUE,,,,,CAVOK,,,,,,,,VFR,,,,,,,,,,,,METAR,42.0
FABL 120700Z 04008KT 010V070 CAVOK 25/12 Q1022 NOSIG,FABL,2015-02-12T07:00:00Z,-29.1,26.3,25.0,12.0,40,8,,6.21,30.177166,,,,,,TRUE,,,,,CAVOK,,,,,,,,VFR,,,,,,,,,,,,METAR,1348.0
SAWE 120700Z 25012T CAVOK 04/03 Q0998,SAWE,2015-02-12T07:00:00Z,-53.78,-67.75,4.0,3.0,,,,6.21,29.468504,,,,,,,,,,,CAVOK,,,,,,,,VFR,,,,,,,,,,,,SPECI,22.0
SAVC 120700Z 23014KT CAVOK 14/M00 Q1011,SAVC,2015-02-12T07:00:00Z,-45.77,-67.47,14.0,0.0,230,14,,6.21,29.852362,,,,,,,,,,,CAVOK,,,,,,,,VFR,,,,,,,,,,,,METAR,46.0
SARP 120700Z 23002KT CAVOK 24/22 Q1012,SARP,2015-02-12T07:00:00Z,-27.38,-55.97,24.0,22.0,230,2,,6.21,29.88189,,,,,,,,,,,CAVOK,,,,,,,,VFR,,,,,,,,,,,,METAR,125.0
SARL 120700Z 00000KT CAVOK 21/21 Q1011,SARL,2015-02-12T07:00:00Z,-29.67,-57.13,21.0,21.0,0,0,,6.21,29.852362,,,,,,,,,,,CAVOK,,,,,,,,VFR,,,,,,,,,,,,METAR,70.0
SARI 120700Z 00000KT 9999 FEW020 BKN100 25/24 Q1014,SARI,2015-02-12T07:00:00Z,-25.72,-54.47,25.0,24.0,0,0,,6.21,29.940945,,,,,,,,,,,FEW,2000,BKN,10000,,,,,VFR,,,,,,,,,,,,METAR,270.0
SARE 120700Z 00000KT 5000 BR NSC 20/20 Q1011,SARE,2015-02-12T07:00:00Z,-27.43,-59.03,20.0,20.0,0,0,,3.11,29.852362,,,,,,,,,,BR,,,,,,,,,,,,,,,,,,,,,SPECI,52.0
SAOC 120700Z 32005KT CAVOK 19/16 Q1011,SAOC,2015-02-12T07:00:00Z,-33.12,-64.27,19.0,16.0,320,5,,6.21,29.852362,,,,,,,,,,,CAVOK,,,,,,,,VFR,,,,,,,,,,,,METAR,421.0
SANT 120700Z 36006KT CAVOK 20/16 Q1013,SANT,2015-02-12T07:00:00Z,-26.85,-65.08,20.0,16.0,360,6,,6.21,29.911417,,,,,,,,,,,CAVOK,,,,,,,,VFR,,,,,,,,,,,,METAR,450.0
SAEZ 120700Z 32003KT CAVOK 22/15 Q1010,SAEZ,2015-02-12T07:00:00Z,-34.82,-58.52,22.0,15.0,320,3,,6.21,29.822834,,,,,,,,,,,CAVOK,,,,,,,,VFR,,,,,,,,,,,,METAR,20.0
SACO 120700Z 34007KT CAVOK 16/15 Q1013,SACO,2015-02-12T07:00:00Z,-31.32,-64.22,16.0,15.0,340,7,,6.21,29.911417,,,,,,,,,,,CAVOK,,,,,,,,VFR,,,,,,,,,,,,METAR,474.0
SABE 120700Z 32008KT CAVOK 22/14 Q1010,SABE,2015-02-12T07:00:00Z,-34.57,-58.42,22.0,14.0,320,8,,6.21,29.822834,,,,,,,,,,,CAVOK,,,,,,,,VFR,,,,,,,,,,,,METAR,6.0
SAAR 120700Z 00000KT CAVOK 18/16 Q1011,SAAR,2015-02-12T07:00:00Z,-32.92,-60.77,18.0,16.0,0,0,,6.21,29.852362,,,,,,,,,,,CAVOK,,,,,,,,VFR,,,,,,,,,,,,METAR,25.0
RKNY 120700Z 29016KT 9999 FEW040 03/M20 Q1008 WS ALL RWY NOSIG,RKNY,2015-02-12T07:00:00Z,38.07,128.67,3.0,-20.0,290,16,,6.21,29.763779,,,,,,TRUE,,,,,FEW,4000,,,,,,,VFR,,,,,,,,,,,,METAR,74.0
RKTN 120700Z 31015G25KT CAVOK 06/M14 Q1009 NOSIG,RKTN,2015-02-12T07:00:00Z,35.88,128.65,6.0,-14.0,310,15,25,6.21,29.793306,,,,,,TRUE,,,,,CAVOK,,,,,,,,VFR,,,,,,,,,,,,METAR,35.0
RKTU 120700Z 29017KT 9999 FEW040 01/M14 Q1014 NOSIG,RKTU,2015-02-12T07:00:00Z,36.7,127.5,1.0,-14.0,290,17,,6.21,29.940945,,,,,,TRUE,,,,,FEW,4000,,,,,,,VFR,,,,,,,,,,,,METAR,66.0
RKPK 120700Z 30011KT CAVOK 08/M15 Q1010 NOSIG,RKPK,2015-02-12T07:00:00Z,35.17,128.92,8.0,-15.0,300,11,,6.21,29.822834,,,,,,TRUE,,,,,CAVOK,,,,,,,,VFR,,,,,,,,,,,,METAR,15.0
RKPC 120700Z 32015KT 9999 SCT035 06/M05 Q1017 NOSIG,RKPC,2015-02-12T07:00:00Z,33.5,126.48,6.0,-5.0,320,15,,6.21,30.029528,,,,,,TRUE,,,,,SCT,3500,,,,,,,VFR,,,,,,,,,,,,METAR,27.0
RKSS 120700Z 32016KT CAVOK 01/M27 Q1014 NOSIG,RKSS,2015-02-12T07:00:00Z,37.53,126.78,1.0,-27.0,320,16,,6.21,29.940945,,,,,,TRUE,,,,,CAVOK,,,,,,,,VFR,,,,,,,,,,,,METAR,19.0
FMSD 120700Z 06018KT 9999 FEW020 30/23 Q1014,FMSD,2015-02-12T07:00:00Z,-25.02,46.95,30.0,23.0,60,18,,6.21,29.940945,,,,,,,,,,,FEW,2000,,,,,,,VFR,,,,,,,,,,,,METAR,9.0
FMCH 120700Z 24004KT 200V280 9999 FEW020 29/24 Q1013 NOSIG,FMCH,2015-02-12T07:00:00Z,-11.52,43.27,29.0,24.0,240,4,,6.21,29.911417,,,,,,TRUE,,,,,FEW,2000,,,,,,,VFR,,,,,,,,,,,,METAR,29.0
GUCY 120700Z 00000KT 9999 SCT015 25/23 Q1014 NOSIG,GUCY,2015-02-12T07:00:00Z,9.57,-13.62,25.0,23.0,0,0,,6.21,29.940945,,,,,,TRUE,,,,,SCT,1500,,,,,,,VFR,,,,,,,,,,,,METAR,26.0
FMNM 120700Z 12012KT 9999 FEW017CB SCT230 32/22 Q1011 NOSIG,FMNM,2015-02-12T07:00:00Z,-15.67,46.35,32.0,22.0,120,12,,6.21,29.852362,,,,,,TRUE,,,,,FEW,1700,SCT,23000,,,,,VFR,,,,,,,,,,,,METAR,18.0
FMMT 120700Z 18008KT 6000 -DZRA FEW007 SCT017 BKN033 28/25 Q1014 TEMPO 4000 DZRA,FMMT,2015-02-12T07:00:00Z,-18.12,49.38,28.0,25.0,180,8,,3.73,29.940945,,,,,,,,,,-DZ -RA,FEW,700,SCT,1700,BKN,3300,,,MVFR,,,,,,,,,,,,METAR,6.0
LETO 120700Z VRB02KT 9999 SCT019 SCT024 03/02 Q1019 NOSIG,LETO,2015-02-12T07:00:00Z,40.47,-3.47,3.0,2.0,0,2,,6.21,30.088583,,,,,,TRUE,,,,,SCT,1900,SCT,2400,,,,,VFR,,,,,,,,,,,,METAR,608.0
LELN 120700Z VRB01KT 9999 FEW035 M00/M02 Q1017,LELN,2015-02-12T07:00:00Z,42.57,-5.65,0.0,-2.0,0,1,,6.21,30.029528,,,,,,,,,,,FEW,3500,,,,,,,VFR,,,,,,,,,,,,METAR,914.0
LELC 120700Z 03012KT 9999 SCT014 BKN018 13/11 Q1019 TEMPO 4000 RA,LELC,2015-02-12T07:00:00Z,37.77,-0.8,13.0,11.0,30,12,,6.21,30.088583,,,,,,,,,,,SCT,1400,BKN,1800,,,,,MVFR,,,,,,,,,,,,METAR,3.0
LEBZ 120700Z 00000KT CAVOK 06/05 Q1019,LEBZ,2015-02-12T07:00:00Z,38.87,-6.82,6.0,5.0,0,0,,6.21,30.088583,,,,,,,,,,,CAVOK,,,,,,,,VFR,,,,,,,,,,,,METAR,192.0
LEAB 120700Z 09006KT 9999 FEW020 SCT035 05/04 Q1019 NOSIG,LEAB,2015-02-12T07:00:00Z,38.95,-1.85,5.0,4.0,90,6,,6.21,30.088583,,,,,,TRUE,,,,,FEW,2000,SCT,3500,,,,,VFR,,,,,,,,,,,,METAR,704.0
GCGM 120700Z 32006KT 280V020 9999 FEW030 14/08 Q1021 RMK CAB09 30005KT 260V340,GCGM,2015-02-12T07:00:00Z,28.03,-17.22,14.0,8.0,320,6,,6.21,30.147638,,,,,,,,,,,FEW,3000,,,,,,,VFR,,,,,,,,,,,,METAR,219.0
GCHI 120700Z 03010KT 350V060 9999 FEW027 SCT030 BKN055 17/11 Q1021,GCHI,2015-02-12T07:00:00Z,27.82,-17.87,17.0,11.0,30,10,,6.21,30.147638,,,,,,,,,,,FEW,2700,SCT,3000,BKN,5500,,,VFR,,,,,,,,,,,,METAR,30.0
LEAM 120700Z 33011KT 290V350 9999 -RA SCT030 BKN060 OVC070 11/08 Q1017,LEAM,2015-02-12T07:00:00Z,36.85,-2.37,11.0,8.0,330,11,,6.21,30.029528,,,,,,,,,,-RA,SCT,3000,BKN,6000,OVC,7000,,,VFR,,,,,,,,,,,,METAR,21.0
OITZ 120700Z 13008KT 2000 SHSN SCT025 SCT030CB OVC070 02/01 Q1013,OITZ,2015-02-12T07:00:00Z,36.77,48.37,2.0,1.0,130,8,,1.24,29.911417,,,,,,,,,,SHSN,SCT,2500,SCT,3000,OVC,7000,,,IFR,,,,,,,,,,,,METAR,1663.0
FBSP 120700Z 11012KT CAVOK 27/18 Q1020,FBSP,2015-02-12T07:00:00Z,-22.05,27.82,27.0,18.0,110,12,,6.21,30.11811,,,,,,,,,,,CAVOK,,,,,,,,VFR,,,,,,,,,,,,METAR,892.0
FBKE 120700Z VRB03KT CAVOK 26/19 Q1019,FBKE,2015-02-12T07:00:00Z,-17.82,25.17,26.0,19.0,0,3,,6.21,30.088583,,,,,,,,,,,CAVOK,,,,,,,,VFR,,,,,,,,,,,,METAR,1000.0
FBMN 120700Z 34005KT CAVOK 27/18 Q1018,FBMN,2015-02-12T07:00:00Z,-19.97,23.42,27.0,18.0,340,5,,6.21,30.059055,,,,,,,,,,,CAVOK,,,,,,,,VFR,,,,,,,,,,,,METAR,900.0
FBFT 120700Z 05010KT 050V110 CAVOK 27/13 Q1020,FBFT,2015-02-12T07:00:00Z,-21.17,27.48,27.0,13.0,50,10,,6.21,30.11811,,,,,,,,,,,CAVOK,,,,,,,,VFR,,,,,,,,,,,,METAR,1000.0
FKKN 120700Z 00000KT CAVOK 20/04 Q1018,FKKN,2015-02-12T07:00:00Z,7.33,13.57,20.0,4.0,0,0,,6.21,30.059055,,,,,,,,,,,CAVOK,,,,,,,,VFR,,,,,,,,,,,,METAR,1104.0
FOON 120700Z /////KT 8000 FEW005 24/23 Q1012,FOON,2015-02-12T07:00:00Z,-1.63,13.42,24.0,23.0,,,,4.97,29.88189,,,,,,,,,,,FEW,500,,,,,,,MVFR,,,,,,,,,,,,SPECI,441.0
HEMA 120700Z 31007KT 6000 NSC 14/M04 Q1022 NOSIG,HEMA,2015-02-12T07:00:00Z,25.55,34.58,14.0,-4.0,310,7,,3.73,30.177166,,,,,,TRUE,,,,,,,,,,,,,,,,,,,,,,,,,SPECI,77.0
SVMI 120700Z 00000KT 9999 FEW016 27/22 Q1014 NOSIG,SVMI,2015-02-12T07:00:00Z,10.58,-67.0,27.0,22.0,0,0,,6.21,29.940945,,,,,,TRUE,,,,,FEW,1600,,,,,,,VFR,,,,,,,,,,,,METAR,48.0
SPCL 120700Z 00000KT 9000 SCT013 BKN080 23/22 Q1012 RMK PP000,SPCL,2015-02-12T07:00:00Z,-8.38,-74.58,23.0,22.0,0,0,,5.59,29.88189,,,,,,,,,,,SCT,1300,BKN,8000,,,,,VFR,,,,,,,,,,,,METAR,149.0
OEMA 120700Z 28008KT 7000 SKC 16/M06 Q1021 NOSIG,OEMA,2015-02-12T07:00:00Z,24.55,39.7,16.0,-6.0,280,8,,4.35,30.147638,,,,,,TRUE,,,,,SKC,,,,,,,,MVFR,,,,,,,,,,,,METAR,631.0
OEJN 120700Z 36015KT 8000 NSC 24/09 Q1017 NOSIG,OEJN,2015-02-12T07:00:00Z,21.68,39.15,24.0,9.0,360,15,,4.97,30.029528,,,,,,TRUE,,,,,,,,,,,,,,,,,,,,,,,,,METAR,15.0
OEDR 120700Z 15014KT CAVOK 24/08 Q1013 NOSIG,OEDR,2015-02-12T07:00:00Z,26.27,50.17,24.0,8.0,150,14,,6.21,29.911417,,,,,,TRUE,,,,,CAVOK,,,,,,,,VFR,,,,,,,,,,,,METAR,17.0
OEDF 120700Z 16017KT CAVOK 26/04 Q1013 NOSIG,OEDF,2015-02-12T07:00:00Z,26.47,49.8,26.0,4.0,160,17,,6.21,29.911417,,,,,,TRUE,,,,,CAVOK,,,,,,,,VFR,,,,,,,,,,,,METAR,22.0
ZLXY 120700Z 21006MPS 7000 NSC 17/M07 Q1014 NOSIG,ZLXY,2015-02-12T07:00:00Z,34.43,108.75,17.0,-7.0,210,12,,4.35,29.940945,,,,,,TRUE,,,,,,,,,,,,,,,,,,,,,,,,,METAR,479.0
ZGSZ 120700Z 27003MPS 4500 HZ NSC 21/10 Q1016 NOSIG,ZGSZ,2015-02-12T07:00:00Z,22.63,113.8,21.0,10.0,270,6,,2.8,30.0,,,,,,TRUE,,,,HZ,,,,,,,,,,,,,,,,,,,,,METAR,18.0
ZGOW 120700Z 13004MPS 100V170 CAVOK 22/M03 Q1017 NOSIG,ZGOW,2015-02-12T07:00:00Z,23.55,116.5,22.0,-3.0,130,8,,6.21,30.029528,,,,,,TRUE,,,,,CAVOK,,,,,,,,VFR,,,,,,,,,,,,METAR,3.0
ZGNN 120700Z VRB02MPS 7000 NSC 20/09 Q1016 NOSIG,ZGNN,2015-02-12T07:00:00Z,22.62,108.17,20.0,9.0,0,4,,4.35,30.0,,,,,,TRUE,,,,,,,,,,,,,,,,,,,,,,,,,METAR,73.0
ZGKL 120700Z VRB01MPS 3300 HZ SCT050 14/08 Q1018 NOSIG,ZGKL,2015-02-12T07:00:00Z,25.22,110.03,14.0,8.0,0,2,,2.05,30.059055,,,,,,TRUE,,,,HZ,SCT,5000,,,,,,,IFR,,,,,,,,,,,,METAR,166.0
YMOR 120700Z AUTO 03003KT 9999 // NCD 34/08 Q1015,YMOR,2015-02-12T07:00:00Z,-29.5,149.85,34.0,8.0,30,3,,6.21,29.970472,,,TRUE,,,,,,,,,,,,,,,,,,,,,,,,,,,,METAR,214.0
YMIA 120700Z AUTO 11007KT 9999 // BKN076 BKN087 36/11 Q1015,YMIA,2015-02-12T07:00:00Z,-34.23,142.08,36.0,11.0,110,7,,6.21,29.970472,,,TRUE,,,,,,,,BKN,7600,BKN,8700,,,,,VFR,,,,,,,,,,,,METAR,51.0
YMEN 120700Z AUTO 21014KT 9999 // NCD 22/13 Q1020,YMEN,2015-02-12T07:00:00Z,-37.72,144.9,22.0,13.0,210,14,,6.21,30.11811,,,TRUE,,,,,,,,,,,,,,,,,,,,,,,,,,,,METAR,86.0
YMEK 120700Z AUTO 21008KT 9999 // NCD 44/M01 Q1009,YMEK,2015-02-12T07:00:00Z,-26.62,118.55,44.0,-1.0,210,8,,6.21,29.793306,,,TRUE,,,,,,,,,,,,,,,,,,,,,,,,,,,,METAR,522.0
YMDG 120700Z AUTO 13012KT //// // SCT021 SCT060 SCT070 19/18 Q1022,YMDG,2015-02-12T07:00:00Z,-32.57,149.62,19.0,18.0,130,12,,,30.177166,,,TRUE,,,,,,,,SCT,2100,SCT,6000,SCT,7000,,,,,,,,,,,,,,,METAR,471.0
YMAY 120700Z AUTO 15007KT 9999 // NCD 31/15 Q1018,YMAY,2015-02-12T07:00:00Z,-36.07,146.93,31.0,15.0,150,7,,6.21,30.059055,,,TRUE,,,,,,,,,,,,,,,,,,,,,,,,,,,,METAR,171.0
FVBU 120700Z 11011KT 050V160 9999 FEW040 25/14 Q1021 NOSIG,FVBU,2015-02-12T07:00:00Z,-20.02,28.62,25.0,14.0,110,11,,6.21,30.147638,,,,,,TRUE,,,,,FEW,4000,,,,,,,VFR,,,,,,,,,,,,METAR,1326.0
TNCM 120700Z 24008KT 210V270 9999 -SHRA BKN017TCU SCT035 26/23 Q1012 A2989 RERA,TNCM,2015-02-12T07:00:00Z,18.05,-63.12,26.0,23.0,240,8,,6.21,29.88189,,,,,,,,,,-SHRA,BKN,1700,SCT,3500,,,,,MVFR,,,,,,,,,,,,METAR,4.0
FVHA 120700Z 10006KT 030V140 9999 BKN020 22/17 Q1023 NOSIG,FVHA,2015-02-12T07:00:00Z,-17.92,31.12,22.0,17.0,100,6,,6.21,30.206694,,,,,,TRUE,,,,,BKN,2000,,,,,,,MVFR,,,,,,,,,,,,METAR,1503.0
ZWSH 120700Z VRB01MPS CAVOK 06/M05 Q1016 NOSIG,ZWSH,2015-02-12T07:00:00Z,39.55,76.02,6.0,-5.0,0,2,,6.21,30.0,,,,,,TRUE,,,,,CAVOK,,,,,,,,VFR,,,,,,,,,,,,METAR,1291.0
SPQT 120700Z 21005KT 9999 SCT008 SCT100 24/23 Q1010 RMK PP000,SPQT,2015-02-12T07:00:00Z,-3.78,-73.32,24.0,23.0,210,5,,6.21,29.822834,,,,,,,,,,,SCT,800,SCT,10000,,,,,VFR,,,,,,,,,,,,METAR,126.0
SCVD 120700Z AUTO 19003KT 9999 FEW018 SCT044 14/13 Q1021,SCVD,2015-02-12T07:00:00Z,-39.65,-73.07,14.0,13.0,190,3,,6.21,30.147638,,,TRUE,,,,,,,,FEW,1800,SCT,4400,,,,,VFR,,,,,,,,,,,,METAR,14.0
SBRP 120700Z 00000KT CAVOK 21/20 Q1017,SBRP,2015-02-12T07:00:00Z,-21.12,-47.77,21.0,20.0,0,0,,6.21,30.029528,,,,,,,,,,,CAVOK,,,,,,,,VFR,,,,,,,,,,,,METAR,549.0
CZSM 120700Z AUTO 09002KT M20/M23 RMK AO1 2PAST HR SOG 40 6037 SLP177 P0001 T12011228 50002,CZSM,2015-02-12T07:00:00Z,60.03,-111.93,-20.1,-22.8,90,2,,,,1017.7,,TRUE,TRUE,,,,,,,,,,,,,,,,0.2,,,,,0.01,,,,,,METAR,203.0
CPFI 120700Z AUTO 15013KT M02/M04 RMK AO1 PK WND 16020/0614 T10161035,CPFI,2015-02-12T07:00:00Z,49.8,-112.03,-1.6,-3.5,150,13,,,,,,TRUE,TRUE,,,,,,,,,,,,,,,,,,,,,,,,,,,METAR,833.0
CXAK 120700Z AUTO 17006KT M11/M12 RMK AO1 T11061122,CXAK,2015-02-12T07:00:00Z,52.35,-112.6,-10.6,-12.2,170,6,,,,,,TRUE,TRUE,,,,,,,,,,,,,,,,,,,,,,,,,,,METAR,795.0
CPRO 120700Z AUTO 13007KT M08/M09 RMK AO1 T10791091,CPRO,2015-02-12T07:00:00Z,50.83,-112.05,-7.9,-9.1,130,7,,,,,,TRUE,TRUE,,,,,,,,,,,,,,,,,,,,,,,,,,,METAR,714.0
CXWM 120700Z AUTO 17015KT M02/M04 RMK AO1 PK WND 19020/0604 T10201037,CXWM,2015-02-12T07:00:00Z,49.5,-112.12,-2.0,-3.7,170,15,,,,,,TRUE,TRUE,,,,,,,,,,,,,,,,,,,,,,,,,,,METAR,944.0
CXTH 120700Z AUTO 16015KT M15/M16 RMK AO1 PK WND 16020/0658 T11501155,CXTH,2015-02-12T07:00:00Z,53.63,-111.68,-15.0,-15.5,160,15,,,,,,TRUE,TRUE,,,,,,,,,,,,,,,,,,,,,,,,,,,METAR,678.0
CXHD 120700Z AUTO 16011KT M14/M15 RMK AO1 T11371153,CXHD,2015-02-12T07:00:00Z,53.18,-112.25,-13.7,-15.3,160,11,,,,,,TRUE,TRUE,,,,,,,,,,,,,,,,,,,,,,,,,,,METAR,688.0
CXFM 120700Z AUTO 12014KT M05/M06 RMK AO1 PK WND 13023/0630 T10481058,CXFM,2015-02-12T07:00:00Z,49.48,-111.48,-4.8,-5.8,120,14,,,,,,TRUE,TRUE,,,,,,,,,,,,,,,,,,,,,,,,,,,METAR,881.0
CXDB 120700Z AUTO 20021KT 04/00 RMK AO1 PK WND 15026/0657 T00420000,CXDB,2015-02-12T07:00:00Z,49.05,-112.82,4.2,0.0,200,21,,,,,,TRUE,TRUE,,,,,,,,,,,,,,,,,,,,,,,,,,,METAR,1310.0
FKKL 120700Z 01010KT 3000 DU 25/M02 Q1014,FKKL,2015-02-12T07:00:00Z,10.45,14.25,25.0,-2.0,10,10,,1.86,29.940945,,,,,,,,,,DU,,,,,,,,,,,,,,,,,,,,,SPECI,424.0
SPQU 120700Z 00000KT 9999 SCT020 BKN130 13/12 Q1026 RMK PP000,SPQU,2015-02-12T07:00:00Z,-16.33,-71.57,13.0,12.0,0,0,,6.21,30.295275,,,,,,,,,,,SCT,2000,BKN,13000,,,,,VFR,,,,,,,,,,,,METAR,2554.0
SPRU 120700Z 11009KT 2000 R02/1000N OVC001 21/19 Q1011 RMK PP000,SPRU,2015-02-12T07:00:00Z,-8.08,-79.12,21.0,19.0,110,9,,1.24,29.852362,,,,,,,,,,,OVC,100,,,,,,,LIFR,,,,,,,,,,,,METAR,30.0
SVMG 120700Z /////KT 9999 FEW010 27/24 Q1011 NOSIG,SVMG,2015-02-12T07:00:00Z,10.92,-63.97,27.0,24.0,,,,6.21,29.852362,,,,,,TRUE,,,,,FEW,1000,,,,,,,VFR,,,,,,,,,,,,METAR,23.0
SPZO 120700Z 08002KT 9000 -RA FEW030 SCT036 BKN070 09/07 Q1033 RMK PP006,SPZO,2015-02-12T07:00:00Z,-13.55,-71.97,9.0,7.0,80,2,,5.59,30.501968,,,,,,,,,,-RA,FEW,3000,SCT,3600,BKN,7000,,,VFR,,,,,,,,,,,,METAR,3249.0
SPTN 120700Z 20004KT 9999 SCT150 20/17 Q1012 RMK PP000,SPTN,2015-02-12T07:00:00Z,-18.07,-70.28,20.0,17.0,200,4,,6.21,29.88189,,,,,,,,,,,SCT,15000,,,,,,,VFR,,,,,,,,,,,,METAR,458.0
SPSO 120700Z 24003KT 190V250 CAVOK 22/20 Q1010 RMK SCT230 PP000,SPSO,2015-02-12T07:00:00Z,-13.73,-76.22,22.0,20.0,240,3,,6.21,29.822834,,,,,,,,,,,CAVOK,,,,,,,,VFR,,,,,,,,,,,,METAR,10.0
VTBO 120700Z 21010KT 7000 FEW023 28/22 Q1011,VTBO,2015-02-12T07:00:00Z,12.28,102.32,28.0,22.0,210,10,,4.35,29.852362,,,,,,,,,,,FEW,2300,,,,,,,MVFR,,,,,,,,,,,,METAR,32.0
VTCL 120700Z 25006KT 8000 SCT025 BKN120 31/18 Q1010 A2985 NOSIG INFO: I,VTCL,2015-02-12T07:00:00Z,18.27,99.52,31.0,18.0,250,6,,4.97,29.822834,,,,,,TRUE,,,,,SCT,2500,BKN,12000,,,,,MVFR,,,,,,,,,,,,METAR,242.0
GGOV 120700Z 29005KT CAVOK 18/16 Q1013 NOSIG,GGOV,2015-02-12T07:00:00Z,11.87,-15.65,18.0,16.0,290,5,,6.21,29.911417,,,,,,TRUE,,,,,CAVOK,,,,,,,,VFR,,,,,,,,,,,,METAR,36.0
DNKN 120700Z 06008KT 1500 HZ NSC 20/M01 Q1016 NOSIG,DNKN,2015-02-12T07:00:00Z,12.05,8.52,20.0,-1.0,60,8,,0.93,30.0,,,,,,TRUE,,,,HZ,,,,,,,,,,,,,,,,,,,,,METAR,481.0
GFLL 120700Z 24006KT 9999 BKN012 25/22 Q1013,GFLL,2015-02-12T07:00:00Z,8.62,-13.18,25.0,22.0,240,6,,6.21,29.911417,,,,,,,,,,,BKN,1200,,,,,,,MVFR,,,,,,,,,,,,METAR,27.0
WBGY 120700Z 31006KT 250V350 9999 FEW015CB BKN020 BKN150 27/25 Q1008,WBGY,2015-02-12T07:00:00Z,1.22,111.43,27.0,25.0,310,6,,6.21,29.763779,,,,,,,,,,,FEW,1500,BKN,2000,BKN,15000,,,MVFR,,,,,,,,,,,,METAR,34.0
YPEA 120700Z AUTO 23011KT //// // SCT115 29/15 Q1012,YPEA,2015-02-12T07:00:00Z,-31.67,116.02,29.0,15.0,230,11,,,29.88189,,,TRUE,,,,,,,,SCT,11500,,,,,,,,,,,,,,,,,,,SPECI,49.0
GOGG 120700Z 34004KT CAVOK 18/17 Q1013,GOGG,2015-02-12T07:00:00Z,12.55,-16.27,18.0,17.0,340,4,,6.21,29.911417,,,,,,,,,,,CAVOK,,,,,,,,VFR,,,,,,,,,,,,METAR,23.0
GOSS 120700Z 02008KT CAVOK 19/17 Q1014,GOSS,2015-02-12T07:00:00Z,16.05,-16.43,19.0,17.0,20,8,,6.21,29.940945,,,,,,,,,,,CAVOK,,,,,,,,VFR,,,,,,,,,,,,METAR,4.0
GOGS 120700Z 36006KT CAVOK 19/18 Q1013,GOGS,2015-02-12T07:00:00Z,12.4,-16.75,19.0,18.0,360,6,,6.21,29.911417,,,,,,,,,,,CAVOK,,,,,,,,VFR,,,,,,,,,,,,METAR,13.0
OEYN 120700Z 32012KT 8000 SKC 21/04 Q1017 NOSIG,OEYN,2015-02-12T07:00:00Z,24.13,38.07,21.0,4.0,320,12,,4.97,30.029528,,,,,,TRUE,,,,,SKC,,,,,,,,MVFR,,,,,,,,,,,,METAR,8.0
OEWJ 120700Z 34008KT 4000 DU BKN040 18/08 Q1020 NOSIG,OEWJ,2015-02-12T07:00:00Z,26.18,36.47,18.0,8.0,340,8,,2.49,30.11811,,,,,,TRUE,,,,DU,BKN,4000,,,,,,,IFR,,,,,,,,,,,,METAR,16.0
OETR 120700Z 26012KT 3000 BLDU SKC 06/M02 Q1017,OETR,2015-02-12T07:00:00Z,31.7,38.73,6.0,-2.0,260,12,,1.86,30.029528,,,,,,,,,,BLDU,SKC,,,,,,,,IFR,,,,,,,,,,,,METAR,855.0
OETF 120700Z 19010KT CAVOK 23/08 Q1021 NOSIG,OETF,2015-02-12T07:00:00Z,21.47,40.53,23.0,8.0,190,10,,6.21,30.147638,,,,,,TRUE,,,,,CAVOK,,,,,,,,VFR,,,,,,,,,,,,METAR,1449.0
OETB 120700Z 23006KT 3000 BLDU SKC 09/00 Q1018 NOSIG,OETB,2015-02-12T07:00:00Z,28.37,36.62,9.0,0.0,230,6,,1.86,30.059055,,,,,,TRUE,,,,BLDU,SKC,,,,,,,,IFR,,,,,,,,,,,,METAR,770.0
OESK 120700Z 31013KT 2700 DU SKC 09/M05 Q1020 NOSIG,OESK,2015-02-12T07:00:00Z,29.77,40.1,9.0,-5.0,310,13,,1.68,30.11811,,,,,,TRUE,,,,DU,SKC,,,,,,,,IFR,,,,,,,,,,,,METAR,684.0
OESH 120700Z 20011KT 9000 SKC 27/02 Q1016 NOSIG,OESH,2015-02-12T07:00:00Z,17.47,47.12,27.0,2.0,200,11,,5.59,30.0,,,,,,TRUE,,,,,SKC,,,,,,,,VFR,,,,,,,,,,,,METAR,722.0
OERY 120700Z 34007KT 6000 NSC 27/09 Q1017,OERY,2015-02-12T07:00:00Z,24.72,46.72,27.0,9.0,340,7,,3.73,30.029528,,,,,,,,,,,,,,,,,,,,,,,,,,,,,,,METAR,612.0
OERR 120700Z 29015KT 2000 BLDU SKC 10/02 Q1018 NOSIG,OERR,2015-02-12T07:00:00Z,30.88,41.12,10.0,2.0,290,15,,1.24,30.059055,,,,,,TRUE,,,,BLDU,SKC,,,,,,,,IFR,,,,,,,,,,,,METAR,552.0
OEPA 120700Z 32014KT 1000 BLDU SKC 22/10 Q1016 NOSIG,OEPA,2015-02-12T07:00:00Z,28.32,46.12,22.0,10.0,320,14,,0.62,30.0,,,,,,TRUE,,,,BLDU,SKC,,,,,,,,LIFR,,,,,,,,,,,,METAR,355.0
OENG 120700Z 09004KT CAVOK 30/02 Q1019 NOSIG,OENG,2015-02-12T07:00:00Z,17.62,44.42,30.0,2.0,90,4,,6.21,30.088583,,,,,,TRUE,,,,,CAVOK,,,,,,,,VFR,,,,,,,,,,,,METAR,1203.0
OEMK 120700Z 00000KT CAVOK 23/12 Q1017,OEMK,2015-02-12T07:00:00Z,21.43,40.0,23.0,12.0,0,0,,6.21,30.029528,,,,,,,,,,,CAVOK,,,,,,,,VFR,,,,,,,,,,,,METAR,369.0
OEKM 120700Z 21012KT CAVOK 21/01 Q1026 NOSIG,OEKM,2015-02-12T07:00:00Z,18.3,42.78,21.0,1.0,210,12,,6.21,30.295275,,,,,,TRUE,,,,,CAVOK,,,,,,,,VFR,,,,,,,,,,,,METAR,2054.0
OEKK 120700Z 30018KT 3000 DU SKC 16/00 Q1018 NOSIG,OEKK,2015-02-12T07:00:00Z,27.88,45.52,16.0,0.0,300,18,,1.86,30.059055,,,,,,TRUE,,,,DU,SKC,,,,,,,,IFR,,,,,,,,,,,,METAR,413.0
OEKJ 120700Z 32005KT 9000 FEW050 30/M03 Q1016,OEKJ,2015-02-12T07:00:00Z,24.07,47.58,30.0,-3.0,320,5,,5.59,30.0,,,,,,,,,,,FEW,5000,,,,,,,VFR,,,,,,,,,,,,METAR,503.0
OEHL 120700Z 33004KT CAVOK 13/M02 Q1019 NOSIG,OEHL,2015-02-12T07:00:00Z,27.42,41.67,13.0,-2.0,330,4,,6.21,30.088583,,,,,,TRUE,,,,,CAVOK,,,,,,,,VFR,,,,,,,,,,,,METAR,1013.0
DRZA 120700Z 10014KT CAVOK 24/M04 Q1017,DRZA,2015-02-12T07:00:00Z,16.97,8.0,24.0,-4.0,100,14,,6.21,30.029528,,,,,,,,,,,CAVOK,,,,,,,,VFR,,,,,,,,,,,,METAR,502.0
DRRT 120700Z 12010KT CAVOK 27/M04 Q1015,DRRT,2015-02-12T07:00:00Z,14.9,5.25,27.0,-4.0,120,10,,6.21,29.970472,,,,,,,,,,,CAVOK,,,,,,,,VFR,,,,,,,,,,,,METAR,391.0
DRRN 120700Z 09007KT 3000 DU NSC 28/M01 Q1013 TEMPO 10022KT 2000 BLDU,DRRN,2015-02-12T07:00:00Z,13.47,2.17,28.0,-1.0,90,7,,1.86,29.911417,,,,,,,,,,DU,,,,,,,,,,,2.2,,,,,,,,,,METAR,227.0
DRRM 120700Z 00000KT 8000 NSC 20/02 Q1015,DRRM,2015-02-12T07:00:00Z,13.5,7.12,20.0,2.0,0,0,,4.97,29.970472,,,,,,,,,,,,,,,,,,,,,,,,,,,,,,,METAR,373.0
DXNG 120700Z 31002KT CAVOK 22/19 Q1016 NOSIG,DXNG,2015-02-12T07:00:00Z,9.77,1.1,22.0,19.0,310,2,,6.21,30.0,,,,,,TRUE,,,,,CAVOK,,,,,,,,VFR,,,,,,,,,,,,METAR,343.0
DXXX 120700Z 34001KT 8000 FEW010 25/23 Q1012 NOSIG,DXXX,2015-02-12T07:00:00Z,6.17,1.25,25.0,23.0,340,1,,4.97,29.88189,,,,,,TRUE,,,,,FEW,1000,,,,,,,MVFR,,,,,,,,,,,,METAR,25.0
HKVO 120700Z 05006KT 9999 SCT022 27/19,HKVO,2015-02-12T07:00:00Z,-3.38,38.53,27.0,19.0,50,6,,6.21,,,,,,,,,,,,SCT,2200,,,,,,,VFR,,,,,,,,,,,,METAR,579.0
HKNY 120700Z 30005KT 9999 FEW020 22/10 Q1025,HKNY,2015-02-12T07:00:00Z,-0.07,37.02,22.0,10.0,300,5,,6.21,30.265747,,,,,,,,,,,FEW,2000,,,,,,,VFR,,,,,,,,,,,,METAR,1905.0
HKNK 120700Z 22006KT 9999 FEW024 21/07,HKNK,2015-02-12T07:00:00Z,-0.3,36.17,21.0,7.0,220,6,,6.21,,,,,,,,,,,,FEW,2400,,,,,,,VFR,,,,,,,,,,,,METAR,1901.0
DRZR 120700Z 06010KT 2800 NSC 23/M08 Q1016,DRZR,2015-02-12T07:00:00Z,13.77,8.97,23.0,-8.0,60,10,,1.74,30.0,,,,,,,,,,,,,,,,,,,,,,,,,,,,,,,METAR,453.0
SCAR 120700Z 36004KT CAVOK 23/18 Q1013,SCAR,2015-02-12T07:00:00Z,-18.35,-70.32,23.0,18.0,360,4,,6.21,29.911417,,,,,,,,,,,CAVOK,,,,,,,,VFR,,,,,,,,,,,,METAR,59.0
SBGR 120700Z 34003KT CAVOK 23/21 Q1018,SBGR,2015-02-12T07:00:00Z,-23.42,-46.47,23.0,21.0,340,3,,6.21,30.059055,,,,,,,,,,,CAVOK,,,,,,,,VFR,,,,,,,,,,,,METAR,750.0
ZPPP 120700Z 22007MPS 190V270 CAVOK 16/M00 Q1018 NOSIG,ZPPP,2015-02-12T07:00:00Z,25.0,102.75,16.0,0.0,220,14,,6.21,30.059055,,,,,,TRUE,,,,,CAVOK,,,,,,,,VFR,,,,,,,,,,,,METAR,1892.0
UBBL 120700Z 32005KT 4400 -RA OVC011 08/07 Q1019 R33/CLRD60 RMK MT OBSC,UBBL,2015-02-12T07:00:00Z,38.75,48.82,8.0,7.0,320,5,,2.73,30.088583,,,,,,,,,,-RA,OVC,1100,,,,,,,IFR,,,,,,,,,,,,METAR,10.0
SBGL 120700Z 17002KT CAVOK 25/22 Q1012,SBGL,2015-02-12T07:00:00Z,-22.82,-43.25,25.0,22.0,170,2,,6.21,29.88189,,,,,,,,,,,CAVOK,,,,,,,,VFR,,,,,,,,,,,,METAR,6.0
SBKP 120700Z 08004KT CAVOK 22/20 Q1018,SBKP,2015-02-12T07:00:00Z,-23.0,-47.12,22.0,20.0,80,4,,6.21,30.059055,,,,,,,,,,,CAVOK,,,,,,,,VFR,,,,,,,,,,,,METAR,661.0
TGPY 120700Z 13016KT 9999 FEW017 26/24 Q1011 ADJ SHRA-ENE,TGPY,2015-02-12T07:00:00Z,12.0,-61.78,26.0,24.0,130,16,,6.21,29.852362,,,,,,,,,,SHRA,FEW,1700,,,,,,,VFR,,,,,,,,,,,,METAR,7.0
ZUGY 120700Z 21006MPS 160V240 CAVOK 19/04 Q1014 NOSIG,ZUGY,2015-02-12T07:00:00Z,26.53,106.8,19.0,4.0,210,12,,6.21,29.940945,,,,,,TRUE,,,,,CAVOK,,,,,,,,VFR,,,,,,,,,,,,METAR,1074.0
ZSQD 120700Z 21003MPS 180V240 CAVOK 06/M12 Q1019 NOSIG,ZSQD,2015-02-12T07:00:00Z,36.27,120.38,6.0,-12.0,210,6,,6.21,30.088583,,,,,,TRUE,,,,,CAVOK,,,,,,,,VFR,,,,,,,,,,,,METAR,77.0
ZSNB 120700Z 33006MPS 290V360 CAVOK 16/M09 Q1017 NOSIG,ZSNB,2015-02-12T07:00:00Z,29.83,121.47,16.0,-9.0,330,12,,6.21,30.029528,,,,,,TRUE,,,,,CAVOK,,,,,,,,VFR,,,,,,,,,,,,METAR,4.0
ZSFZ 120700Z 11004MPS 070V140 CAVOK 18/M00 Q1017 NOSIG,ZSFZ,2015-02-12T07:00:00Z,25.93,119.67,18.0,0.0,110,8,,6.21,30.029528,,,,,,TRUE,,,,,CAVOK,,,,,,,,VFR,,,,,,,,,,,,METAR,85.0
ZSAM 120700Z 11006MPS CAVOK 20/M02 Q1017 NOSIG,ZSAM,2015-02-12T07:00:00Z,24.53,118.13,20.0,-2.0,110,12,,6.21,30.029528,,,,,,TRUE,,,,,CAVOK,,,,,,,,VFR,,,,,,,,,,,,METAR,139.0
YBDV 120700Z AUTO 15013KT //// // ////// 40/06 Q1009,YBDV,2015-02-12T07:00:00Z,-25.9,139.35,40.0,6.0,150,13,,,29.793306,,,TRUE,,,,,,,,,,,,,,,,,,,,,,,,,,,,METAR,47.0
SBUR 120700Z 03006KT CAVOK 21/19 Q1019,SBUR,2015-02-12T07:00:00Z,-19.77,-47.97,21.0,19.0,30,6,,6.21,30.088583,,,,,,,,,,,CAVOK,,,,,,,,VFR,,,,,,,,,,,,METAR,807.0
SBUL 120700Z 08005KT CAVOK 21/19 Q1020,SBUL,2015-02-12T07:00:00Z,-18.87,-48.22,21.0,19.0,80,5,,6.21,30.11811,,,,,,,,,,,CAVOK,,,,,,,,VFR,,,,,,,,,,,,METAR,922.0
SBSR 120700Z 06006KT 5000 -RA SCT010 BKN020 OVC070 22/21 Q1017,SBSR,2015-02-12T07:00:00Z,-20.8,-49.4,22.0,21.0,60,6,,3.11,30.029528,,,,,,,,,,-RA,SCT,1000,BKN,2000,OVC,7000,,,MVFR,,,,,,,,,,,,METAR,543.0
CWWZ 120700Z AUTO 29019KT M01/M04 RMK AO1 SOG 09 5000 PK WND 29023/0646 SLP093 T10111042,CWWZ,2015-02-12T07:00:00Z,43.25,-79.22,-1.1,-4.2,290,19,,,,1009.3,,TRUE,TRUE,,,,,,,,,,,,,,,,,,,,,,,,,,,METAR,79.0
CWPO 120700Z AUTO 27003KT M28/M31 RMK AO1 SLP447 T12831312 50010,CWPO,2015-02-12T07:00:00Z,49.2,-98.9,-28.3,-31.2,270,3,,,,1044.7,,TRUE,TRUE,,,,,,,,,,,,,,,,1.0,,,,,,,,,,,METAR,470.0
CWWB 120700Z AUTO 30012KT M03/M08 RMK AO1 PK WND 31017/0646 SLP098 T10261078 53003,CWWB,2015-02-12T07:00:00Z,43.3,-79.78,-2.6,-7.8,300,12,,,,1009.8,,TRUE,TRUE,,,,,,,,,,,,,,,,0.3,,,,,,,,,,,METAR,76.0
VTUU 120700Z 17004KT 8000 NSC 31/15 Q1010 A2984 NOSIG,VTUU,2015-02-12T07:00:00Z,15.25,104.87,31.0,15.0,170,4,,4.97,29.822834,,,,,,TRUE,,,,,,,,,,,,,,,,,,,,,,,,,METAR,127.0
ZUUU 120700Z 08003MPS 020V130 4500 HZ SCT030 16/03 Q1015 NOSIG,ZUUU,2015-02-12T07:00:00Z,30.58,103.95,16.0,3.0,80,6,,2.8,29.970472,,,,,,TRUE,,,,HZ,SCT,3000,,,,,,,IFR,,,,,,,,,,,,METAR,508.0
UAUU 120700Z 30009MPS CAVOK M05/M09 Q1009 R33/090060 TEMPO 30012MPS RMK QFE741/0989,UAUU,2015-02-12T07:00:00Z,53.2,63.55,-5.0,-9.0,300,17,,6.21,29.793306,,,,,,,,,,,CAVOK,,,,,,,,VFR,,,,,,,,,,,,METAR,182.0
UTAT 120700Z 33005MPS 9999 OVC008 03/01 Q1023 99GLRD70 TEMPO 2000 RABR OVC005,UTAT,2015-02-12T07:00:00Z,41.77,59.83,3.0,1.0,330,10,,6.21,30.206694,,,,,,,,,,,OVC,800,,,,,,,IFR,,,,,,,,,,,,METAR,83.0
UTAM 120700Z 35007MPS 6000 OVC007 12/10 Q1019 NOSIG RMK 882///55,UTAM,2015-02-12T07:00:00Z,37.62,61.9,12.0,10.0,350,14,,3.73,30.088583,,,,,,TRUE,,,,,OVC,700,,,,,,,IFR,,,,,,,,,,,,METAR,222.0
UTAV 120700Z 35003PS 9999 SCT013CB SCT013 07/06 Q1020 NOSIG,UTAV,2015-02-12T07:00:00Z,39.08,63.62,7.0,6.0,,,,6.21,30.11811,,,,,,TRUE,,,,,SCT,1300,SCT,1300,,,,,VFR,,,,,,,,,,,,METAR,192.0
UTAK 120700Z 08006MPS CAVOK 10/03 Q1019 NOSIG,UTAK,2015-02-12T07:00:00Z,40.05,53.0,10.0,3.0,80,12,,6.21,30.088583,,,,,,TRUE,,,,,CAVOK,,,,,,,,VFR,,,,,,,,,,,,METAR,85.0
CYEG 120700Z 16008KT 15SM OVC082 M10/M13 A3004 RMK AC8 PRESFR SLP229,CYEG,2015-02-12T07:00:00Z,53.28,-113.57,-10.0,-13.0,160,8,,15.0,30.041338,1022.9,,,,,,,,,,OVC,8200,,,,,,,VFR,,,,,,,,,,,,METAR,723.0
CYFC 120700Z AUTO 03006KT 9SM -SN OVC017 M17/M20 A2995 RMK SLP144,CYFC,2015-02-12T07:00:00Z,45.87,-66.52,-17.0,-20.0,30,6,,9.0,29.949802,1014.4,,TRUE,,,,,,,-SN,OVC,1700,,,,,,,MVFR,,,,,,,,,,,,METAR,20.0
CYGL 120700Z 01006KT 10SM -SN SCT100 M26/M29 A3009 RMK AC3 SLP216,CYGL,2015-02-12T07:00:00Z,53.62,-77.7,-26.0,-29.0,10,6,,10.0,30.088583,1021.6,,,,,,,,,-SN,SCT,10000,,,,,,,VFR,,,,,,,,,,,,METAR,195.0
CYJT 120700Z 07010KT 15SM OVC200 M14/M19 A2999 RMK CS8 SLP158,CYJT,2015-02-12T07:00:00Z,48.55,-58.57,-14.0,-19.0,70,10,,15.0,29.991142,1015.8,,,,,,,,,,OVC,20000,,,,,,,VFR,,,,,,,,,,,,METAR,26.0
CYHZ 120700Z 36016G22KT 15SM -SN OVC014 M13/M15 A2974 RMK NS8 SLP082,CYHZ,2015-02-12T07:00:00Z,44.87,-63.5,-13.0,-15.0,360,16,22,15.0,29.740158,1008.2,,,,,,,,,-SN,OVC,1400,,,,,,,MVFR,,,,,,,,,,,,METAR,145.0
CYMX 120700Z 05004KT 2 1/2SM -SN OVC049 M13/M16 A2978 RMK SN1SC7 SLP092,CYMX,2015-02-12T07:00:00Z,45.67,-74.02,-13.0,-16.0,50,4,,2.5,29.778543,1009.2,,,,,,,,,-SN,OVC,4900,,,,,,,IFR,,,,,,,,,,,,METAR,82.0
CYOW 120700Z 05006KT 1 1/2SM -SN VV011 M13/M15 A2974 RMK SN8 /S02/ SLP081,CYOW,2015-02-12T07:00:00Z,45.32,-75.67,-13.0,-15.0,50,6,,1.5,29.740158,1008.1,,,,,,,,,-SN,OVX,0,,,,,,,LIFR,,,,,,,,,,,1100,METAR,114.0
CYQB 120700Z 07013G22KT 15SM FEW010 OVC065 M13/M18 A2985 RMK SC1SC7 SLP115,CYQB,2015-02-12T07:00:00Z,46.78,-71.37,-13.0,-18.0,70,13,22,15.0,29.84941,1011.5,,,,,,,,,,FEW,1000,OVC,6500,,,,,VFR,,,,,,,,,,,,METAR,73.0
CYQG 120700Z 29009KT 10SM -SN FEW015 BKN054 M04/M07 A2991 RMK SC1SC6 SLP137,CYQG,2015-02-12T07:00:00Z,42.27,-82.97,-4.0,-7.0,290,9,,10.0,29.911417,1013.7,,,,,,,,,-SN,FEW,1500,BKN,5400,,,,,VFR,,,,,,,,,,,,METAR,190.0
CYQM 120700Z 36009KT 15SM -SHSN OVC012 M16/M19 A2992 RMK SC8 SLP137,CYQM,2015-02-12T07:00:00Z,46.12,-64.67,-16.0,-19.0,360,9,,15.0,29.920275,1013.7,,,,,,,,,-SHSN,OVC,1200,,,,,,,MVFR,,,,,,,,,,,,METAR,71.0
CYQQ 120700Z 17007KT 20SM FEW030 BKN060 OVC084 10/08 A3018 RMK SC2SC5AC2 SLP221,CYQQ,2015-02-12T07:00:00Z,49.72,-124.9,10.0,8.0,170,7,,20.0,30.180119,1022.1,,,,,,,,,,FEW,3000,BKN,6000,OVC,8400,,,VFR,,,,,,,,,,,,METAR,24.0
CYZV 120700Z 07008KT 15SM BKN025 OVC120 M17/M23 A3007 RMK SC5AC3 SLP189,CYZV,2015-02-12T07:00:00Z,50.22,-66.27,-17.0,-23.0,70,8,,15.0,30.070866,1018.9,,,,,,,,,,BKN,2500,OVC,12000,,,,,MVFR,,,,,,,,,,,,METAR,55.0
HKNC 120700Z 03006KT 9999 FEW019 21/10 Q1023,HKNC,2015-02-12T07:00:00Z,-1.3,36.75,21.0,10.0,30,6,,6.21,30.206694,,,,,,,,,,,FEW,1900,,,,,,,VFR,,,,,,,,,,,,METAR,1798.0
HKKI 120700Z 09012KT 9999 FEW027 28/07 Q1019,HKKI,2015-02-12T07:00:00Z,-0.1,34.75,28.0,7.0,90,12,,6.21,30.088583,,,,,,,,,,,FEW,2700,,,,,,,VFR,,,,,,,,,,,,METAR,1146.0
VOCL 120700Z 24004KT 8000 FEW015 33/20 Q1011 NOSIG,VOCL,2015-02-12T07:00:00Z,11.13,75.95,33.0,20.0,240,4,,4.97,29.852362,,,,,,TRUE,,,,,FEW,1500,,,,,,,MVFR,,,,,,,,,,,,METAR,104.0
KNGU 120659Z 16004KT 10SM CLR 01/M03 A2994 RMK AO2 SLP137 T00111028,KNGU,2015-02-12T06:59:00Z,36.92,-76.27,1.1,-2.8,160,4,,10.0,29.940945,1013.7,,,TRUE,,,,,,,CLR,,,,,,,,VFR,,,,,,,,,,,,SPECI,5.0
KQGA 120659Z AUTO 14005KT 4800 HZ CLR 26/03 A2993 RMK CDP03659 CLR,KQGA,2015-02-12T06:59:00Z,100.65,-1000.65,26.0,3.0,140,5,,2.98,29.929134,,,TRUE,,,,,,,HZ,CLR,,,,,,,,IFR,,,,,,,,,,,,METAR,999.0
KACB 120659Z AUTO 34008G18KT 310V020 2 1/2SM -SN BKN017 BKN028 OVC042 M11/M15 A3004 RMK AO2,KACB,2015-02-12T06:59:00Z,44.98,-85.2,-11.0,-15.0,340,8,18,2.5,30.041338,,,TRUE,TRUE,,,,,,-SN,BKN,1700,BKN,2800,OVC,4200,,,IFR,,,,,,,,,,,,METAR,190.0
KQTM 120659Z AUTO 13003KT 9999 CLR 22/M04 A2966 RMK CDP03569 CLR,KQTM,2015-02-12T06:59:00Z,,,22.0,-4.0,130,3,,6.21,29.660433,,,TRUE,,,,,,,,CLR,,,,,,,,VFR,,,,,,,,,,,,METAR,
KDOV 120658Z AUTO 18005KT 10SM CLR M03/M04 A2990 RMK AO2 SLP129 T10281036 $,KDOV,2015-02-12T06:58:00Z,39.12,-75.47,-2.8,-3.6,180,5,,10.0,29.899607,1012.9,,TRUE,TRUE,TRUE,,,,,,CLR,,,,,,,,VFR,,,,,,,,,,,,METAR,9.0
KDAA 120658Z AUTO 13002KT 10SM CLR M02/M04 A2990 RMK AO2 SLP129 T10211041,KDAA,2015-02-12T06:58:00Z,38.72,-77.17,-2.1,-4.1,130,2,,10.0,29.899607,1012.9,,TRUE,TRUE,,,,,,,CLR,,,,,,,,VFR,,,,,,,,,,,,METAR,21.0
KCEF 120658Z AUTO 14002KT 10SM FEW100 SCT130 M16/M18 A2988 RMK AO2 SLP129 T11601180,KCEF,2015-02-12T06:58:00Z,42.2,-72.52,-16.0,-18.0,140,2,,10.0,29.878937,1012.9,,TRUE,TRUE,,,,,,,FEW,10000,SCT,13000,,,,,VFR,,,,,,,,,,,,METAR,75.0
KHIF 120658Z AUTO 12007KT 10SM CLR 03/M05 A3039 RMK AO2 SLP285 T00341047 401100010,KHIF,2015-02-12T06:58:00Z,41.12,-111.97,3.4,-4.7,120,7,,10.0,30.389763,1028.5,,TRUE,TRUE,,,,,,,CLR,,,,,,,,VFR,,,,11.0,1.0,,,,,,,METAR,1459.0
KMEI 120658Z AUTO 00000KT 10SM CLR 05/02 A3013 RMK AO2 SLP202 T00500022,KMEI,2015-02-12T06:58:00Z,32.33,-88.75,5.0,2.2,0,0,,10.0,30.129921,1020.2,,TRUE,TRUE,,,,,,,CLR,,,,,,,,VFR,,,,,,,,,,,,METAR,89.0
KMRH 120658Z AUTO 00000KT 10SM CLR M02/M02 A2998 RMK AO2 SLP151 I1001 T10171022 TSNO,KMRH,2015-02-12T06:58:00Z,34.73,-76.65,-1.7,-2.2,0,0,,10.0,29.97933,1015.1,,TRUE,TRUE,,,TRUE,,,,CLR,,,,,,,,VFR,,,,,,,,,,,,METAR,3.0
KSGJ 120658Z AUTO 25006KT 10SM CLR 08/07 A3006 RMK AO2 SLP177 T00830072,KSGJ,2015-02-12T06:58:00Z,29.97,-81.32,8.3,7.2,250,6,,10.0,30.059055,1017.7,,TRUE,TRUE,,,,,,,CLR,,,,,,,,VFR,,,,,,,,,,,,METAR,3.0
PFEL 120658Z AUTO 01019G30KT 9SM -SN BKN060 OVC095 M14/M21 A2976 RMK AO2 PK WND 01030/0656 SLP083 P0000 T11441211 FZRANO,PFEL,2015-02-12T06:58:00Z,64.62,-162.27,-14.4,-21.1,10,19,30,9.0,29.760826,1008.3,,TRUE,TRUE,,,,TRUE,,-SN,BKN,6000,OVC,9500,,,,,VFR,,,,,,0.0050,,,,,,METAR,49.0
PFNO 120658Z AUTO 02009KT 10SM CLR M29/M32 A2993 RMK AO2 SLP138 T12941322 FZRANO,PFNO,2015-02-12T06:58:00Z,66.82,-161.02,-29.4,-32.2,20,9,,10.0,29.929134,1013.8,,TRUE,TRUE,,,,TRUE,,,CLR,,,,,,,,VFR,,,,,,,,,,,,METAR,17.0
PFSH 120658Z AUTO 01023KT 10SM BKN047 OVC060 M16/M20 A2976 RMK AO2 PK WND 02026/0647 SLP091 T11611200 FZRANO,PFSH,2015-02-12T06:58:00Z,64.37,-161.22,-16.1,-20.0,10,23,,10.0,29.760826,1009.1,,TRUE,TRUE,,,,TRUE,,,BKN,4700,OVC,6000,,,,,VFR,,,,,,,,,,,,METAR,7.0
LIYW 120658Z AUTO 03004KT 9999 CLR M01/M01 A3028 RMK AO2 SLP265 T10131013,LIYW,2015-02-12T06:58:00Z,46.02,12.62,-1.3,-1.3,30,4,,6.21,30.280512,1026.5,,TRUE,TRUE,,,,,,,CLR,,,,,,,,VFR,,,,,,,,,,,,METAR,126.0
EGVA 120658Z AUTO 10002KT 9999 OVC027 03/00 A3013 RMK AO2 SLP210 T00281001 $,EGVA,2015-02-12T06:58:00Z,51.67,-1.77,2.8,-0.1,100,2,,6.21,30.129921,1021.0,,TRUE,TRUE,TRUE,,,,,,OVC,2700,,,,,,,MVFR,,,,,,,,,,,,METAR,87.0
EGUN 120658Z AUTO 00000KT 9999 OVC024 03/00 A3014 RMK AO2 SLP210 T00281004,EGUN,2015-02-12T06:58:00Z,52.37,0.47,2.8,-0.4,0,0,,6.21,30.138779,1021.0,,TRUE,TRUE,,,,,,,OVC,2400,,,,,,,MVFR,,,,,,,,,,,,METAR,10.0
PFKT 120658Z AUTO 03019G28KT 10SM CLR M19/M26 A2989 RMK AO2 PK WND 03029/0620 SLP124 T11941256 FZRANO,PFKT,2015-02-12T06:58:00Z,65.33,-166.47,-19.4,-25.6,30,19,28,10.0,29.890747,1012.4,,TRUE,TRUE,,,,TRUE,,,CLR,,,,,,,,VFR,,,,,,,,,,,,METAR,9.0
PAWM 120658Z AUTO 36007KT 10SM OVC075 M14/M22 A2974 RMK AO2 SLP082 T11441217 FZRANO,PAWM,2015-02-12T06:58:00Z,64.68,-163.42,-14.4,-21.7,360,7,,10.0,29.740158,1008.2,,TRUE,TRUE,,,,TRUE,,,OVC,7500,,,,,,,VFR,,,,,,,,,,,,METAR,82.0
PATE 120658Z AUTO 06010KT 10SM CLR M23/M27 A2986 RMK AO2 SLP127 T12331272 FZRANO,PATE,2015-02-12T06:58:00Z,65.23,-166.33,-23.3,-27.2,60,10,,10.0,29.861221,1012.7,,TRUE,TRUE,,,,TRUE,,,CLR,,,,,,,,VFR,,,,,,,,,,,,METAR,90.0
PAIW 120658Z AUTO 06017KT 9SM CLR M24/M26 A2999 RMK AO2 SLP157 T12391261 FZRANO,PAIW,2015-02-12T06:58:00Z,65.62,-168.1,-23.9,-26.1,60,17,,9.0,29.991142,1015.7,,TRUE,TRUE,,,,TRUE,,,CLR,,,,,,,,VFR,,,,,,,,,,,,METAR,7.0
PAGA 120658Z AUTO 00000KT 10SM OVC100 M19/M22 A2979 RMK AO2 SLP094 T11891217 FZRANO,PAGA,2015-02-12T06:58:00Z,64.73,-156.93,-18.9,-21.7,0,0,,10.0,29.790354,1009.4,,TRUE,TRUE,,,,TRUE,,,OVC,10000,,,,,,,VFR,,,,,,,,,,,,METAR,46.0
KMXF 120658Z AUTO 29003KT 10SM CLR 05/03 A3007 RMK AO2 SLP186 T00520027,KMXF,2015-02-12T06:58:00Z,32.37,-86.37,5.2,2.7,290,3,,10.0,30.070866,1018.6,,TRUE,TRUE,,,,,,,CLR,,,,,,,,VFR,,,,,,,,,,,,METAR,51.0
KEND 120658Z AUTO 03004KT 10SM CLR M02/M07 A3042 RMK AO2 SLP312 T10241068 $,KEND,2015-02-12T06:58:00Z,36.32,-97.92,-2.4,-6.8,30,4,,10.0,30.41929,1031.2,,TRUE,TRUE,TRUE,,,,,,CLR,,,,,,,,VFR,,,,,,,,,,,,SPECI,398.0
KTBN 120658Z AUTO 29008KT 10SM CLR M04/M06 A3029 RMK AO2 SLP270 T10391065,KTBN,2015-02-12T06:58:00Z,37.72,-92.12,-3.9,-6.5,290,8,,10.0,30.28937,1027.0,,TRUE,TRUE,,,,,,,CLR,,,,,,,,VFR,,,,,,,,,,,,METAR,353.0
RODN 120658Z AUTO 28013G18KT 10SM CLR 19/05 A2997 RMK AO2 SLP156 T01860050 $,RODN,2015-02-12T06:58:00Z,26.35,127.77,18.6,5.0,280,13,18,10.0,29.970472,1015.6,,TRUE,TRUE,TRUE,,,,,,CLR,,,,,,,,VFR,,,,,,,,,,,,METAR,45.0
RKJK 120658Z AUTO 32018G25KT 8SM CLR 03/M07 A3000 RMK AO2 PK WND 31026/53 SLP164 T00301071 $,RKJK,2015-02-12T06:58:00Z,35.9,126.62,3.0,-7.1,320,18,25,8.0,30.0,1016.4,,TRUE,TRUE,TRUE,,,,,,CLR,,,,,,,,VFR,,,,,,,,,,,,METAR,9.0
PWAK 120658Z AUTO 08009KT 9999 FEW012 SCT022 SCT028 OVC039 26/24 A2985 RMK AO2 SLP115 T02590241,PWAK,2015-02-12T06:58:00Z,19.28,166.65,25.9,24.1,80,9,,6.21,29.84941,1011.5,,TRUE,TRUE,,,,,,,FEW,1200,SCT,2200,SCT,2800,OVC,3900,VFR,,,,,,,,,,,,METAR,4.0
PGUA 120658Z AUTO 01016G23KT 10SM CLR 27/18 A2983 RMK AO2 SLP092 T02670181 $,PGUA,2015-02-12T06:58:00Z,13.57,144.92,26.7,18.1,10,16,23,10.0,29.828741,1009.2,,TRUE,TRUE,TRUE,,,,,,CLR,,,,,,,,VFR,,,,,,,,,,,,METAR,187.0
KINS 120658Z AUTO 23001KT 10SM CLR 08/M05 A3031 RMK AO2 SLP246 T00781049,KINS,2015-02-12T06:58:00Z,36.58,-115.67,7.8,-4.9,230,1,,10.0,30.31004,1024.6,,TRUE,TRUE,,,,,,,CLR,,,,,,,,VFR,,,,,,,,,,,,METAR,955.0
KBKF 120658Z 18009KT 10SM CLR 00/M02 A3034 RMK AO2A SLP275 T00011018 400831004,KBKF,2015-02-12T06:58:00Z,39.72,-104.75,0.1,-1.8,180,9,,10.0,30.339567,1027.5,,,TRUE,,,,,,,CLR,,,,,,,,VFR,,,,8.3,-0.4,,,,,,,METAR,1726.0
ETAR 120658Z AUTO 05002KT 6000 BR OVC005 00/M01 A3020 RMK AO2 SLP243 T10021013 $,ETAR,2015-02-12T06:58:00Z,49.42,7.58,-0.2,-1.3,50,2,,3.73,30.200787,1024.3,,TRUE,TRUE,TRUE,,,,,BR,OVC,500,,,,,,,IFR,,,,,,,,,,,,METAR,238.0
BGTL 120658Z AUTO 09002KT 9999 CLR M30/M34 A2980 RMK AO2 SLP086,BGTL,2015-02-12T06:58:00Z,76.53,-68.7,-30.0,-34.0,90,2,,6.21,29.799213,1008.6,,TRUE,TRUE,,,,,,,CLR,,,,,,,,VFR,,,,,,,,,,,,METAR,77.0
RKSO 120658Z 30013G20KT 7SM FEW150 02/M15 A2996 RMK AO2A PK WND 28027/16 SLP149 T00151153 $,RKSO,2015-02-12T06:58:00Z,37.07,127.02,1.5,-15.3,300,13,20,7.0,29.958662,1014.9,,,TRUE,TRUE,,,,,,FEW,15000,,,,,,,VFR,,,,,,,,,,,,METAR,12.0
KMUO 120658Z 11004KT 10SM BKN190 OVC210 05/02 A3024 RMK AO2A SLP281 PA +2600 DA +2000,KMUO,2015-02-12T06:58:00Z,43.03,-115.87,5.0,2.0,110,4,,10.0,30.239174,1028.1,,,TRUE,,,,,,,BKN,19000,OVC,21000,,,,,VFR,,,,,,,,,,,,SPECI,913.0
KU16 120658Z AUTO 00000KT 10SM CLR 01/M04 A3039 RMK AO2 SLP902 T00111044 TSNO $,KU16,2015-02-12T06:58:00Z,41.05,-113.07,1.1,-4.4,0,0,,10.0,30.389763,990.2,,TRUE,TRUE,TRUE,,TRUE,,,,CLR,,,,,,,,VFR,,,,,,,,,,,,METAR,1292.0
KMIB 120658Z AUTO 14003KT 10SM CLR M23/M26 A3063 RMK AO2 SLP430 T12301256 $,KMIB,2015-02-12T06:58:00Z,48.42,-101.33,-23.0,-25.6,140,3,,10.0,30.628937,1043.0,,TRUE,TRUE,TRUE,,,,,,CLR,,,,,,,,VFR,,,,,,,,,,,,METAR,508.0
KADW 120658Z AUTO 20006KT 10SM CLR M01/M04 A2988 RMK AO2 SLP128 T10121036 $,KADW,2015-02-12T06:58:00Z,38.82,-76.87,-1.2,-3.6,200,6,,10.0,29.878937,1012.8,,TRUE,TRUE,TRUE,,,,,,CLR,,,,,,,,VFR,,,,,,,,,,,,METAR,86.0
KWRI 120658Z AUTO 00000KT 10SM BKN095 BKN110 M05/M07 A2987 RMK AO2 SLP120 T10471071,KWRI,2015-02-12T06:58:00Z,40.02,-74.58,-4.7,-7.1,0,0,,10.0,29.870079,1012.0,,TRUE,TRUE,,,,,,,BKN,9500,BKN,11000,,,,,VFR,,,,,,,,,,,,METAR,41.0
KVOK 120658Z AUTO 33014KT 10SM FEW035 SCT110 M13/M16 A3028 RMK AO2 SNE0650B0651E0653DZB0650E0651 SLP275 P0000 T11271161,KVOK,2015-02-12T06:58:00Z,43.92,-90.27,-12.7,-16.1,330,14,,10.0,30.280512,1027.5,,TRUE,TRUE,,,,,,,FEW,3500,SCT,11000,,,,,VFR,,,,,,0.0050,,,,,,METAR,277.0
KRDR 120658Z AUTO 33007KT 10SM CLR M23/M27 A3073 RMK AO2 SNB0655 SLP440 P0000 T12331274,KRDR,2015-02-12T06:58:00Z,47.97,-97.4,-23.3,-27.4,330,7,,10.0,30.72933,1044.0,,TRUE,TRUE,,,,,,,CLR,,,,,,,,VFR,,,,,,0.0050,,,,,,METAR,278.0
KOFF 120658Z AUTO 33012G23KT 10SM CLR M10/M17 A3056 RMK AO2 PK WND 34027/11 SLP371 T11051171,KOFF,2015-02-12T06:58:00Z,41.12,-95.92,-10.5,-17.1,330,12,23,10.0,30.561024,1037.1,,TRUE,TRUE,,,,,,,CLR,,,,,,,,VFR,,,,,,,,,,,,METAR,319.0
KCVS 120658Z 33003KT 10SM SCT095 01/M03 A3043 RMK AO2A SLP311 400770011 $,KCVS,2015-02-12T06:58:00Z,34.37,-103.32,1.0,-3.0,330,3,,10.0,30.431103,1031.1,,,TRUE,TRUE,,,,,,SCT,9500,,,,,,,VFR,,,,7.7,1.1,,,,,,,SPECI,1309.0
KPSM 120658Z 31005KT 10SM BKN150 M13/M18 A2990 RMK AO2A SLP130 T11271184,KPSM,2015-02-12T06:58:00Z,43.07,-70.82,-12.7,-18.4,310,5,,10.0,29.899607,1013.0,,,TRUE,,,,,,,BKN,15000,,,,,,,VFR,,,,,,,,,,,,METAR,31.0
KLFI 120658Z AUTO 19007KT 10SM CLR 00/M02 A2992 RMK AO2 SLP139 T10011023 $,KLFI,2015-02-12T06:58:00Z,37.07,-76.37,-0.1,-2.3,190,7,,10.0,29.920275,1013.9,,TRUE,TRUE,TRUE,,,,,,CLR,,,,,,,,VFR,,,,,,,,,,,,METAR,3.0
KFAF 120658Z AUTO 20007KT 10SM CLR 00/M01 A2990 RMK AO2 SLP128 T10011008 $,KFAF,2015-02-12T06:58:00Z,37.12,-76.62,-0.1,-0.8,200,7,,10.0,29.899607,1012.8,,TRUE,TRUE,TRUE,,,,,,CLR,,,,,,,,VFR,,,,,,,,,,,,METAR,4.0
K0J4 120658Z AUTO 00000KT 10SM CLR 06/03 A3009 RMK AO2 SLP186 T00560033 $,K0J4,2015-02-12T06:58:00Z,31.05,-86.32,5.6,3.3,0,0,,10.0,30.088583,1018.6,,TRUE,TRUE,TRUE,,,,,,CLR,,,,,,,,VFR,,,,,,,,,,,,METAR,96.0
K1J0 120658Z AUTO 00000KT 10SM CLR 06/04 A3008 RMK AO2 SLP169 T00560044,K1J0,2015-02-12T06:58:00Z,30.85,-85.6,5.6,4.4,0,0,,10.0,30.079725,1016.9,,TRUE,TRUE,,,,,,,CLR,,,,,,,,VFR,,,,,,,,,,,,METAR,26.0
KEUF 120658Z AUTO 00000KT 10SM CLR 06/02 A3004 RMK AO2 SLP171 T00610017 PWINO,KEUF,2015-02-12T06:58:00Z,31.95,-85.13,6.1,1.7,0,0,,10.0,30.041338,1017.1,,TRUE,TRUE,,,,,TRUE,,CLR,,,,,,,,VFR,,,,,,,,,,,,METAR,87.0
KBIF 120658Z AUTO 02009KT 10SM BKN150 06/M01 A3037 RMK AO2 SLP258 T00571010 401960032,KBIF,2015-02-12T06:58:00Z,31.85,-106.38,5.7,-1.0,20,9,,10.0,30.369095,1025.8,,TRUE,TRUE,,,,,,,BKN,15000,,,,,,,VFR,,,,19.6,3.2,,,,,,,METAR,1203.0
ETIK 120658Z AUTO VRB05KT 8000 BR OVC005 M01/M01 A3023 RMK AO2 SLP258 T10101010,ETIK,2015-02-12T06:58:00Z,49.47,10.37,-1.0,-1.0,0,5,,4.97,30.230314,1025.8,,TRUE,TRUE,,,,,,BR,OVC,500,,,,,,,IFR,,,,,,,,,,,,METAR,325.0
ETIH 120658Z AUTO 13003KT M0400 FZFG VV001 M01/M02 A3024 RMK AO2 DZB0558E0629 SLP269 T10151016 RVRNO,ETIH,2015-02-12T06:58:00Z,49.22,11.82,-1.5,-1.6,130,3,,0.25,30.239174,1026.9,,TRUE,TRUE,,,,,,FZFG,OVX,0,,,,,,,LIFR,,,,,,,,,,,100,METAR,442.0
KXMR 120658Z AUTO 25002KT 10SM CLR 05/04 A3004 RMK AO2 SLP176 T00480036 $,KXMR,2015-02-12T06:58:00Z,28.47,-80.57,4.8,3.6,250,2,,10.0,30.041338,1017.6,,TRUE,TRUE,TRUE,,,,,,CLR,,,,,,,,VFR,,,,,,,,,,,,METAR,3.0
KTTS 120658Z AUTO 29003KT 10SM CLR 08/07 A3004 RMK AO2 SLP176 T00770069,KTTS,2015-02-12T06:58:00Z,28.62,-80.72,7.7,6.9,290,3,,10.0,30.041338,1017.6,,TRUE,TRUE,,,,,,,CLR,,,,,,,,VFR,,,,,,,,,,,,METAR,3.0
KTIK 120658Z AUTO 03013KT 10SM CLR 02/M06 A3042 RMK AO2 SLP315 T00151058 $,KTIK,2015-02-12T06:58:00Z,35.42,-97.37,1.5,-5.8,30,13,,10.0,30.41929,1031.5,,TRUE,TRUE,TRUE,,,,,,CLR,,,,,,,,VFR,,,,,,,,,,,,METAR,394.0
KSVN 120658Z AUTO VRB03KT 10SM CLR 06/06 A2997 RMK AO2 SLP152 T00640059 $,KSVN,2015-02-12T06:58:00Z,32.02,-81.15,6.4,5.9,0,3,,10.0,29.970472,1015.2,,TRUE,TRUE,TRUE,,,,,,CLR,,,,,,,,VFR,,,,,,,,,,,,METAR,13.0
KOZR 120658Z AUTO 23001KT 10SM CLR 05/02 A3006 RMK AO2 SLP182 T00490023,KOZR,2015-02-12T06:58:00Z,31.28,-85.72,4.9,2.3,230,1,,10.0,30.059055,1018.2,,TRUE,TRUE,,,,,,,CLR,,,,,,,,VFR,,,,,,,,,,,,METAR,93.0
KMGE 120658Z AUTO 30007KT 10SM CLR 07/M01 A3000 RMK AO2 SLP160 T00671011 $,KMGE,2015-02-12T06:58:00Z,33.92,-84.52,6.7,-1.1,300,7,,10.0,30.0,1016.0,,TRUE,TRUE,TRUE,,,,,,CLR,,,,,,,,VFR,,,,,,,,,,,,METAR,326.0
KLSF 120658Z AUTO 14003KT 10SM CLR 02/01 A3004 RMK AO2 SLP176 T00190007,KLSF,2015-02-12T06:58:00Z,32.32,-84.97,1.9,0.7,140,3,,10.0,30.041338,1017.6,,TRUE,TRUE,,,,,,,CLR,,,,,,,,VFR,,,,,,,,,,,,METAR,71.0
KLHW 120658Z AUTO 00000KT 10SM CLR 05/04 A2998 RMK AO2 UPB51 SLP155 P0000 T00470037,KLHW,2015-02-12T06:58:00Z,31.87,-81.57,4.7,3.7,0,0,,10.0,29.97933,1015.5,,TRUE,TRUE,,,,,,,CLR,,,,,,,,VFR,,,,,,0.0050,,,,,,METAR,14.0
KHST 120658Z AUTO 31009KT 10SM CLR 14/12 A3001 RMK AO2 SLP165 T01350119,KHST,2015-02-12T06:58:00Z,25.47,-80.37,13.5,11.9,310,9,,10.0,30.008858,1016.5,,TRUE,TRUE,,,,,,,CLR,,,,,,,,VFR,,,,,,,,,,,,METAR,2.0
KGSB 120658Z AUTO 13002KT 10SM CLR 01/01 A2992 RMK AO2 SLP136 T00100007 $,KGSB,2015-02-12T06:58:00Z,35.32,-77.97,1.0,0.7,130,2,,10.0,29.920275,1013.6,,TRUE,TRUE,TRUE,,,,,,CLR,,,,,,,,VFR,,,,,,,,,,,,METAR,33.0
KFSI 120658Z AUTO 36007KT 10SM OVC100 03/M03 A3040 RMK AO2 SLP298 T00291031,KFSI,2015-02-12T06:58:00Z,34.65,-98.4,2.9,-3.1,360,7,,10.0,30.398623,1029.8,,TRUE,TRUE,,,,,,,OVC,10000,,,,,,,VFR,,,,,,,,,,,,METAR,362.0
MUCF 120658Z AUTO 06007KT 14/11 Q1016,MUCF,2015-02-12T06:58:00Z,22.13,-80.4,14.0,11.0,60,7,,,30.0,,,TRUE,,,,,,,,,,,,,,,,,,,,,,,,,,,,METAR,39.0
KQIR 120658Z 17019G24KT 8000 HZ CLR 26/11 A2999 RMK AO2A SLP157 T02640112 $,KQIR,2015-02-12T06:58:00Z,100.65,-1000.65,26.4,11.2,170,19,24,4.97,29.991142,1015.7,,,TRUE,TRUE,,,,,HZ,CLR,,,,,,,,MVFR,,,,,,,,,,,,METAR,999.0
KQGX 120658Z 16018KT 9999 CLR 29/11 A3005 RMK AO2A PRESRR SLPNO T02850111 CHINO RWY13 $,KQGX,2015-02-12T06:58:00Z,100.65,-1000.65,28.5,11.1,160,18,,6.21,30.050198,,,,TRUE,TRUE,,,,,,CLR,,,,,,,,VFR,,,,,,,,,,,,METAR,999.0
KPAM 120658Z AUTO 00000KT 10SM CLR 07/07 A3006 RMK AO2 VIS 2 RWY14 SLP182 T00730070 $,KPAM,2015-02-12T06:58:00Z,30.07,-85.57,7.3,7.0,0,0,,10.0,30.059055,1018.2,,TRUE,TRUE,TRUE,,,,,,CLR,,,,,,,,VFR,,,,,,,,,,,,METAR,5.0
KCOF 120658Z AUTO 00000KT 10SM CLR 13/08 A3004 RMK AO2 SLP177 T01250082,KCOF,2015-02-12T06:58:00Z,28.23,-80.6,12.5,8.2,0,0,,10.0,30.041338,1017.7,,TRUE,TRUE,,,,,,,CLR,,,,,,,,VFR,,,,,,,,,,,,METAR,3.0
KBAD 120658Z AUTO 34003KT 10SM CLR 08/05 A3021 RMK AO2 SLP233 T00780045,KBAD,2015-02-12T06:58:00Z,32.5,-93.67,7.8,4.5,340,3,,10.0,30.209646,1023.3,,TRUE,TRUE,,,,,,,CLR,,,,,,,,VFR,,,,,,,,,,,,METAR,51.0
KWRB 120658Z AUTO 25002KT 10SM CLR 06/04 A2996 RMK AO2 SLP148 T00580042,KWRB,2015-02-12T06:58:00Z,32.62,-83.58,5.8,4.2,250,2,,10.0,29.958662,1014.8,,TRUE,TRUE,,,,,,,CLR,,,,,,,,VFR,,,,,,,,,,,,METAR,90.0
KLRF 120658Z AUTO 34009G18KT 10SM BKN110 OVC130 05/M04 A3030 RMK AO2 SLP264 T00461038,KLRF,2015-02-12T06:58:00Z,34.92,-92.15,4.6,-3.8,340,9,18,10.0,30.301182,1026.4,,TRUE,TRUE,,,,,,,BKN,11000,OVC,13000,,,,,VFR,,,,,,,,,,,,METAR,95.0
KHUA 120658Z AUTO 01003KT 10SM CLR 04/M01 A3008 RMK AO2 SLP189 T00411012,KHUA,2015-02-12T06:58:00Z,34.68,-86.68,4.1,-1.2,10,3,,10.0,30.079725,1018.9,,TRUE,TRUE,,,,,,,CLR,,,,,,,,VFR,,,,,,,,,,,,METAR,209.0
KHLR 120658Z AUTO 01016G24KT 10SM SCT048 BKN060 11/04 A3027 RMK AO2 PK WND 01028/19 SLP246 T01060040,KHLR,2015-02-12T06:58:00Z,31.13,-97.72,10.6,4.0,10,16,24,10.0,30.268702,1024.6,,TRUE,TRUE,,,,,,,SCT,4800,BKN,6000,,,,,VFR,,,,,,,,,,,,SPECI,283.0
KGRK 120658Z AUTO 01012G20KT 10SM FEW046 SCT065 10/04 A3027 RMK AO2 SLP247 T01040043 $,KGRK,2015-02-12T06:58:00Z,31.07,-97.83,10.4,4.3,10,12,20,10.0,30.268702,1024.7,,TRUE,TRUE,TRUE,,,,,,FEW,4600,SCT,6500,,,,,VFR,,,,,,,,,,,,METAR,309.0
KBIX 120658Z AUTO VRB02KT 10SM CLR 09/09 A3011 RMK AO2 SLP199 T00940088,KBIX,2015-02-12T06:58:00Z,30.42,-88.92,9.4,8.8,0,2,,10.0,30.109253,1019.9,,TRUE,TRUE,,,,,,,CLR,,,,,,,,VFR,,,,,,,,,,,,METAR,10.0
RJTY 120658Z AUTO VRB03KT 10SM CLR 12/M03 A2960 RMK AO2 SLP031 T01161030,RJTY,2015-02-12T06:58:00Z,35.75,139.33,11.6,-3.0,0,3,,10.0,29.601377,1003.1,,TRUE,TRUE,,,,,,,CLR,,,,,,,,VFR,,,,,,,,,,,,METAR,139.0
KMMT 120658Z AUTO 05001KT 10SM CLR 01/01 A2994 RMK AO2 SLP142 T00090006 $,KMMT,2015-02-12T06:58:00Z,33.92,-80.78,0.9,0.6,50,1,,10.0,29.940945,1014.2,,TRUE,TRUE,TRUE,,,,,,CLR,,,,,,,,VFR,,,,,,,,,,,,METAR,77.0
KHRT 120658Z AUTO 29001KT 10SM CLR 07/05 A3006 RMK AO2 SLP181 T00730048 $,KHRT,2015-02-12T06:58:00Z,30.42,-86.67,7.3,4.8,290,1,,10.0,30.059055,1018.1,,TRUE,TRUE,TRUE,,,,,,CLR,,,,,,,,VFR,,,,,,,,,,,,METAR,12.0
KDYS 120658Z AUTO 03016KT 10SM OVC060 07/M04 A3037 RMK AO2 SLP273 T00661041 $,KDYS,2015-02-12T06:58:00Z,32.42,-99.83,6.6,-4.1,30,16,,10.0,30.369095,1027.3,,TRUE,TRUE,TRUE,,,,,,OVC,6000,,,,,,,VFR,,,,,,,,,,,,METAR,545.0
KDLF 120658Z AUTO 02010G18KT 10SM OVC045 15/06 A3023 RMK AO2 SLP229 T01450057 $,KDLF,2015-02-12T06:58:00Z,29.37,-100.77,14.5,5.7,20,10,18,10.0,30.230314,1022.9,,TRUE,TRUE,TRUE,,,,,,OVC,4500,,,,,,,VFR,,,,,,,,,,,,METAR,330.0
KCBM 120658Z AUTO 31004KT 10SM CLR 03/00 A3013 RMK AO2 SLP206 T00281001 $,KCBM,2015-02-12T06:58:00Z,33.63,-88.45,2.8,-0.1,310,4,,10.0,30.129921,1020.6,,TRUE,TRUE,TRUE,,,,,,CLR,,,,,,,,VFR,,,,,,,,,,,,METAR,67.0
KSZL 120658Z 32013G17KT 10SM OVC055 M01/M07 A3036 RMK AO2A SLP293 T10151068 $,KSZL,2015-02-12T06:58:00Z,38.72,-93.53,-1.5,-6.8,320,13,17,10.0,30.360237,1029.3,,,TRUE,TRUE,,,,,,OVC,5500,,,,,,,VFR,,,,,,,,,,,,METAR,265.0
KLTS 120658Z AUTO 36007KT 10SM OVC100 04/M03 A3043 RMK AO2 SLP307 T00441027 $,KLTS,2015-02-12T06:58:00Z,34.67,-99.27,4.4,-2.7,360,7,,10.0,30.431103,1030.7,,TRUE,TRUE,TRUE,,,,,,OVC,10000,,,,,,,VFR,,,,,,,,,,,,METAR,420.0
KROG 120657Z AUTO 34004KT 10SM CLR M03/M06 A3039 RMK AO2 SLP298 T10331061 TSNO,KROG,2015-02-12T06:57:00Z,36.37,-94.08,-3.3,-6.1,340,4,,10.0,30.389763,1029.8,,TRUE,TRUE,,,TRUE,,,,CLR,,,,,,,,VFR,,,,,,,,,,,,METAR,415.0
KFLG 120657Z AUTO 06008KT 10SM CLR 01/M03 A3040 RMK AO2 SLP263 T00061033 401001056 TSNO,KFLG,2015-02-12T06:57:00Z,35.13,-111.67,0.6,-3.3,60,8,,10.0,30.398623,1026.3,,TRUE,TRUE,,,TRUE,,,,CLR,,,,,,,,VFR,,,,10.0,-5.6,,,,,,,METAR,2134.0
PAVA 120657Z AUTO 03023KT 10SM SCT075 M14/M18 A2968 RMK AO2 PK WND 02028/0603 SLP052 T11441178 FZRANO,PAVA,2015-02-12T06:57:00Z,61.53,-165.6,-14.4,-17.8,30,23,,10.0,29.681103,1005.2,,TRUE,TRUE,,,,TRUE,,,SCT,7500,,,,,,,VFR,,,,,,,,,,,,METAR,23.0
PAGH 120657Z AUTO 00000KT 10SM CLR M30/M33 A2992 RMK AO2 SLP170 T13001333 FZRANO,PAGH,2015-02-12T06:57:00Z,66.88,-157.17,-30.0,-33.3,0,0,,10.0,29.920275,1017.0,,TRUE,TRUE,,,,TRUE,,,CLR,,,,,,,,VFR,,,,,,,,,,,,METAR,60.0
KNYL 120657Z AUTO 36010KT 10SM CLR 21/M03 A3008 RMK AO2 SLP183 T02111033 402890139,KNYL,2015-02-12T06:57:00Z,32.63,-114.62,21.1,-3.3,360,10,,10.0,30.079725,1018.3,,TRUE,TRUE,,,,,,,CLR,,,,,,,,VFR,,,,28.9,13.9,,,,,,,SPECI,65.0
PAFB 120656Z AUTO 06006KT 6SM HZ OVC055 M13/M16 A2975 RMK SLP087 T11281156 $ VIA AUTODIAL,PAFB,2015-02-12T06:56:00Z,64.83,-147.62,-12.8,-15.6,60,6,,6.0,29.749016,1008.7,,TRUE,,TRUE,,,,,HZ,OVC,5500,,,,,,,VFR,,,,,,,,,,,,METAR,137.0
KP53 120656Z AUTO 01025KT M13/M16 A3016 RMK AO1 PK WND 01034/0613 SLP228 P0001 T11281156,KP53,2015-02-12T06:56:00Z,46.42,-86.65,-12.8,-15.6,10,25,,,30.159449,1022.8,,TRUE,TRUE,,,,,,,,,,,,,,,,,,,,,0.01,,,,,,SPECI,187.0
KNSE 120656Z AUTO 31005KT 9SM CLR 08/05 A3008 RMK AO2 SLP174 T00830050 $,KNSE,2015-02-12T06:56:00Z,30.73,-87.02,8.3,5.0,310,5,,9.0,30.079725,1017.4,,TRUE,TRUE,TRUE,,,,,,CLR,,,,,,,,VFR,,,,,,,,,,,,METAR,61.0
KMHS 120656Z AUTO 00000KT 10SM CLR 03/01 A3028 RMK AO2 SLP272 T00330011,KMHS,2015-02-12T06:56:00Z,41.32,-122.32,3.3,1.1,0,0,,10.0,30.280512,1027.2,,TRUE,TRUE,,,,,,,CLR,,,,,,,,VFR,,,,,,,,,,,,METAR,1078.0
KNLC 120656Z 29005KT 8SM BKN220 08/04 A3021 RMK AO2 SLP230 RH/79 T00830044 $,KNLC,2015-02-12T06:56:00Z,36.32,-119.95,8.3,4.4,290,5,,8.0,30.209646,1023.0,,,TRUE,TRUE,,,,,,BKN,22000,,,,,,,VFR,,,,,,,,,,,,METAR,72.0
KADF 120656Z AUTO 02006KT 10SM CLR 07/03 A3028 RMK AO2 T00720027 SLP268,KADF,2015-02-12T06:56:00Z,34.1,-93.07,7.2,2.7,20,6,,10.0,30.280512,1026.8,,TRUE,TRUE,,,,,,,CLR,,,,,,,,VFR,,,,,,,,,,,,METAR,56.0
LIRV 120655Z 04006KT CAVOK 02/M01 Q1021 RMK SKC MON E SE LIB NC VIS MIN 9999 BLU,LIRV,2015-02-12T06:55:00Z,42.42,12.07,2.0,-1.0,40,6,,6.21,30.147638,,,,,,,,,,,CAVOK,,,,,,,,VFR,,,,,,,,,,,,METAR,300.0
LIRS 120655Z /////KT CAVOK 01/M01 Q1023,LIRS,2015-02-12T06:55:00Z,42.75,11.07,1.0,-1.0,,,,6.21,30.206694,,,,,,,,,,,CAVOK,,,,,,,,VFR,,,,,,,,,,,,METAR,7.0
LIRM 120655Z /////KT 9999 FEW050 03/02 Q1022 RMK FEW VIS MIN 9999 WIND THR06 /////KT BLU,LIRM,2015-02-12T06:55:00Z,41.03,14.07,3.0,2.0,,,,6.21,30.177166,,,,,,,,,,,FEW,5000,,,,,,,VFR,,,,,,,,,,,,METAR,10.0
LIRL 120655Z 03001KT 9999 FEW030 03/02 Q1022 RMK FEW MON LIB NC VIS MIN 9999 WIND THR30 01002KT BLU,LIRL,2015-02-12T06:55:00Z,41.53,12.9,3.0,2.0,30,1,,6.21,30.177166,,,,,,,,,,,FEW,3000,,,,,,,VFR,,,,,,,,,,,,METAR,26.0
LIRH 120655Z 00000KT 0800 FG FEW001 01/M01 Q1022 RMK FEW MON INVIS NC VIS MIN 0800 WIND THR16 00000KT AMB,LIRH,2015-02-12T06:55:00Z,41.65,13.3,1.0,-1.0,0,0,,0.5,30.177166,,,,,,,,,,FG,FEW,100,,,,,,,LIFR,,,,,,,,,,,,METAR,181.0
LIRG 120655Z 05004KT 9999 FEW030 02/01 Q1023 RMK FEW MON NE LIB VAR RAPID VIS MIN 9999 BLU,LIRG,2015-02-12T06:55:00Z,42.0,12.72,2.0,1.0,50,4,,6.21,30.206694,,,,,,,,,,,FEW,3000,,,,,,,VFR,,,,,,,,,,,,METAR,89.0
LIQW 120655Z 33008KT CAVOK 04/02 Q1022 RMK SKC VIS MIN 9999 BLU,LIQW,2015-02-12T06:55:00Z,44.07,9.97,4.0,2.0,330,8,,6.21,30.177166,,,,,,,,,,,CAVOK,,,,,,,,VFR,,,,,,,,,,,,METAR,10.0
LIMS 120655Z 19001KT 8000 NSC M02/M02 Q1023 RMK SKC VIS MIN 8000 WIND THR30 12001KT BLU,LIMS,2015-02-12T06:55:00Z,44.92,9.72,-2.0,-2.0,190,1,,4.97,30.206694,,,,,,,,,,,,,,,,,,,,,,,,,,,,,,,METAR,138.0
RJOI 120655Z 25015G23KT 9999 FEW025 SCT035 SCT045 12/02 A2971 RMK SHRAE18 SLP059 P0000 T01220017,RJOI,2015-02-12T06:55:00Z,34.13,132.22,12.2,1.7,250,15,23,6.21,29.71063,1005.9,,,,,,,,,,FEW,2500,SCT,3500,SCT,4500,,,VFR,,,,,,0.0050,,,,,,METAR,2.0
KGXA 120655Z AUTO 13006KT 10SM CLR 10/M07 A3025 RMK AO2 SLP241 T01001073 TSNO $,KGXA,2015-02-12T06:55:00Z,34.57,-117.67,10.0,-7.3,130,6,,10.0,30.250984,1024.1,,TRUE,TRUE,TRUE,,TRUE,,,,CLR,,,,,,,,VFR,,,,,,,,,,,,METAR,923.0
LIRE 120655Z 03005KT 9999 FEW020 SCT030 04/03 Q1023 RMK SCT VIS MIN 9999 WIND THR31 /////KT BLU,LIRE,2015-02-12T06:55:00Z,41.63,12.42,4.0,3.0,30,5,,6.21,30.206694,,,,,,,,,,,FEW,2000,SCT,3000,,,,,VFR,,,,,,,,,,,,SPECI,12.0
LIEB 120655Z 31012KT 9999 FEW015 SCT020 08/02 Q1021 RMK SCT QUK 2 QUL 0 VIS MAR 25 KM MON W CIME INC VIS MIN 9999,LIEB,2015-02-12T06:55:00Z,39.93,9.72,8.0,2.0,310,12,,6.21,30.147638,,,,,,,,,,,FEW,1500,SCT,2000,,,,,VFR,,,,,,,,,,,,SPECI,156.0
LICF 120655Z 35004KT CAVOK 10/07 Q1021 RMK FEW FEW080 QUK 1 QUL 0 VIS MAR 20 KM MON LIB NC VIS MIN 9999,LICF,2015-02-12T06:55:00Z,38.2,15.55,10.0,7.0,350,4,,6.21,30.147638,,,,,,,,,,,CAVOK,,,,,,,,VFR,,,,,,,,,,,,SPECI,51.0
LIBY 120655Z 04012KT 9999 FEW022 05/M03 Q1021 RMK FEW QUK 2 QUL 1 NE VIS MAR 20 KM VIS MAX 20 KM VIS MIN 9999,LIBY,2015-02-12T06:55:00Z,39.82,18.35,5.0,-3.0,40,12,,6.21,30.147638,,,,,,,,,,,FEW,2200,,,,,,,VFR,,,,,,,,,,,,SPECI,112.0
LIVO 120655Z 00000KT 2000 BR OVC002 00/M00 Q1023 RMK OVC VIS MIN 2000,LIVO,2015-02-12T06:55:00Z,46.5,13.57,0.0,0.0,0,0,,1.24,30.206694,,,,,,,,,,BR,OVC,200,,,,,,,LIFR,,,,,,,,,,,,METAR,778.0
LIVM 120655Z ///03KT 0400 FG SCT008 03/02 Q1024 RMK SCT QUK 0 QUL 0 VIS MAR 400 M VIS MIN 0400,LIVM,2015-02-12T06:55:00Z,44.45,12.3,3.0,2.0,,,,0.25,30.236221,,,,,,,,,,FG,SCT,800,,,,,,,LIFR,,,,,,,,,,,,METAR,6.0
LIVF 120655Z 00000KT CAVOK 02/M00 Q1022 RMK SKC MON LIB VAL NIL VIS MIN 9999,LIVF,2015-02-12T06:55:00Z,43.52,12.72,2.0,0.0,0,0,,6.21,30.177166,,,,,,,,,,,CAVOK,,,,,,,,VFR,,,,,,,,,,,,METAR,574.0
LIVE 120655Z /////KT CAVOK M04/M08 Q1023 RMK SKC VIS MIN 9999,LIVE,2015-02-12T06:55:00Z,46.85,10.5,-4.0,-8.0,,,,6.21,30.206694,,,,,,,,,,,CAVOK,,,,,,,,VFR,,,,,,,,,,,,METAR,1800.0
LIVD 120655Z 00000KT CAVOK M04/M06 Q1023 RMK SKC VIS MIN 9999,LIVD,2015-02-12T06:55:00Z,46.72,12.22,-4.0,-6.0,0,0,,6.21,30.206694,,,,,,,,,,,CAVOK,,,,,,,,VFR,,,,,,,,,,,,METAR,1226.0
LIRX 120655Z 15009KT 9999 FEW005 07/07 Q1020 RMK FEW VIS MIN 9999 VIS MAR 20 KM,LIRX,2015-02-12T06:55:00Z,42.73,10.38,7.0,7.0,150,9,,6.21,30.11811,,,,,,,,,,,FEW,500,,,,,,,VFR,,,,,,,,,,,,METAR,297.0
LIRK 120655Z AUTO /////KT //// ///// Q////,LIRK,2015-02-12T06:55:00Z,42.47,12.97,,,,,,,,,,TRUE,,,,,,,,,,,,,,,,,,,,,,,,,,,,METAR,1875.0
LICT 120655Z 10002KT 9999 FEW018 10/09 Q1021 RMK BKN BKN060 VIS MIN 9999 WIND THR13 /////KT BLU,LICT,2015-02-12T06:55:00Z,37.92,12.5,10.0,9.0,100,2,,6.21,30.147638,,,,,,,,,,,FEW,1800,,,,,,,VFR,,,,,,,,,,,,METAR,7.0
LICG 120655Z /////KT CAVOK 09/06 Q1019 RMK SKC VIS MIN 9999 WIND THR08 17002KT WIND THR21 16002KT BLU,LICG,2015-02-12T06:55:00Z,36.82,11.97,9.0,6.0,,,,6.21,30.088583,,,,,,,,,,,CAVOK,,,,,,,,VFR,,,,,,,,,,,,METAR,191.0
LICZ 120655Z 26003KT 9999 FEW040 SCT070 05/05 Q1022 RMK SCT VIS MIN 9999E WIND THR28 26005KT A3020 BLU,LICZ,2015-02-12T06:55:00Z,37.38,14.92,5.0,5.0,260,3,,6.21,30.177166,,,,,,,,,,,FEW,4000,SCT,7000,,,,,VFR,,,,,,,,,,,,SPECI,22.0
LIBV 120655Z 00000KT 9999 SCT030 04/02 Q1022 RMK BKN BKN070 VIS MIN 9999 WIND THR32 00000KT WIND THR14 VRB02KT BLU,LIBV,2015-02-12T06:55:00Z,40.77,16.92,4.0,2.0,0,0,,6.21,30.177166,,,,,,,,,,,SCT,3000,,,,,,,VFR,,,,,,,,,,,,METAR,350.0
LIBQ 120655Z 03008KT 0000 FZFG VV/// M03/M04 Q1016 RMK MON INVIS VAL INVIS VIS MIN 0000,LIBQ,2015-02-12T06:55:00Z,39.32,16.38,-3.0,-4.0,30,8,,0.0,30.0,,,,,,,,,,FZFG,OVX,0,,,,,,,LIFR,,,,,,,,,,,,METAR,1720.0
LIBN 120655Z 34003KT CAVOK 02/M00 Q1022 RMK FEW FEW120 VIS MIN 9999 WIND THR14 35004KT BLU,LIBN,2015-02-12T06:55:00Z,40.22,18.13,2.0,0.0,340,3,,6.21,30.177166,,,,,,,,,,,CAVOK,,,,,,,,VFR,,,,,,,,,,,,METAR,61.0
LIBA 120655Z /////KT 9999 SCT030 07/06 Q1023 RMK BKN SCT070 VIS MIN 9999 WIND THR29 06003KT BLU,LIBA,2015-02-12T06:55:00Z,41.52,15.72,7.0,6.0,,,,6.21,30.206694,,,,,,,,,,,SCT,3000,,,,,,,VFR,,,,,,,,,,,,METAR,60.0
LIVP 120655Z 20,LIVP,2015-02-12T06:55:00Z,46.15,11.03,,,,,,,,,,,,,,,,,,,,,,,,,,,,,,,,,,,,,,SPECI,2129.0
LIVC 120655Z 33003KT CAVOK 01/M05 Q1021 RMK SKC MON LIB VAL NIL VIS MIN 9999,LIVC,2015-02-12T06:55:00Z,44.2,10.68,1.0,-5.0,330,3,,6.21,30.147638,,,,,,,,,,,CAVOK,,,,,,,,VFR,,,,,,,,,,,,METAR,2173.0
LIPS 120655Z 04005KT 9000 NSC 02/00 Q1025 RMK SKC VIS MIN 9000 WIND THR26 /////KT WIND THR08 04006KT BLU,LIPS,2015-02-12T06:55:00Z,45.67,12.08,2.0,0.0,40,5,,5.59,30.265747,,,,,,,,,,,,,,,,,,,,,,,,,,,,,,,METAR,41.0
LIPL 120655Z /////KT 2600 1300SE R31/P2000N MIFG NSC 00/M00 Q1024 RMK SKC VIS MIN 1300SE WIND THR31 10003KT AMB,LIPL,2015-02-12T06:55:00Z,45.42,10.27,0.0,0.0,,,,1.62,30.236221,,,,,,,,,,MIFG,,,,,,,,,,,0.3,,,,,,,,,,METAR,92.0
LIPI 120655Z 07005KT CAVOK M01/M02 Q1025 RMK SKC VIS MIN 9999 WIND THR06 04006KT BLU,LIPI,2015-02-12T06:55:00Z,45.97,13.05,-1.0,-2.0,70,5,,6.21,30.265747,,,,,,,,,,,CAVOK,,,,,,,,VFR,,,,,,,,,,,,METAR,53.0
LIPA 120655Z 07002KT CAVOK M01/M02 Q1025 RMK SKC VIS MIN 9999 A3028 BLU,LIPA,2015-02-12T06:55:00Z,46.02,12.58,-1.0,-2.0,70,2,,6.21,30.265747,,,,,,,,,,,CAVOK,,,,,,,,VFR,,,,,,,,,,,,METAR,126.0
LIMY 120655Z 24006KT CAVOK 03/M01 Q1023 RMK SKC VAL NIL VIS MIN 9999,LIMY,2015-02-12T06:55:00Z,44.25,7.78,3.0,-1.0,240,6,,6.21,30.206694,,,,,,,,,,,CAVOK,,,,,,,,VFR,,,,,,,,,,,,METAR,1742.0
LIMN 120655Z /////KT 3500 BR NSC M02/M03 Q1023 RMK SKC VIS MIN 3500 YLO,LIMN,2015-02-12T06:55:00Z,45.52,8.67,-2.0,-3.0,,,,2.17,30.206694,,,,,,,,,,BR,,,,,,,,,,,,,,,,,,,,,METAR,169.0
LIMK 120655Z 00000KT CAVOK 05/01 Q1021 RMK SKC VAL FOSCHIA SKC SUP VIS MIN 9999,LIMK,2015-02-12T06:55:00Z,45.02,7.72,5.0,1.0,0,0,,6.21,30.147638,,,,,,,,,,,CAVOK,,,,,,,,VFR,,,,,,,,,,,,METAR,710.0
LIPF 120655Z 00000KT 0500 FZFG NSC M02/M03 Q1025 RMK SKC VIS MIN 0500,LIPF,2015-02-12T06:55:00Z,44.82,11.62,-2.0,-3.0,0,0,,0.31,30.265747,,,,,,,,,,FZFG,,,,,,,,,,,,,,,,,,,,,METAR,10.0
OPMT 120655Z 18008KT 4000 HZ FEW120 23/05 Q1018 NOSIG,OPMT,2015-02-12T06:55:00Z,30.18,71.42,23.0,5.0,180,8,,2.49,30.059055,,,,,,TRUE,,,,HZ,FEW,12000,,,,,,,IFR,,,,,,,,,,,,METAR,123.0
KQWM 120655Z 30025G32KT 0800 DS BKN000 OVC190 18/M06 A2996 RMK DU BKN000 SLP142 QNH1014,KQWM,2015-02-12T06:55:00Z,100.65,-1000.65,18.0,-6.0,300,25,32,0.5,29.958662,1014.2,,,,,,,,,DS,BKN,0,OVC,19000,,,,,LIFR,,,,,,,,,,,,METAR,999.0
KQL5 120655Z 02005KT 5000 HZ SCT150 BKN200 20/M01 A3013 RMK SLP202 T01951006,KQL5,2015-02-12T06:55:00Z,100.65,-1000.65,19.5,-0.6,20,5,,3.11,30.129921,1020.2,,,,,,,,,HZ,SCT,15000,BKN,20000,,,,,MVFR,,,,,,,,,,,,METAR,999.0
KQHN 120655Z VRB06KT 9999 CLR 20/04 A3015 RMK SLP160 Q1021 DA4504,KQHN,2015-02-12T06:55:00Z,100.65,-1000.65,20.0,4.0,0,6,,6.21,30.15059,1016.0,,,,,,,,,,CLR,,,,,,,,VFR,,,,,,,,,,,,SPECI,999.0
LIVR 120655Z 35002KT CAVOK M03/M10 Q1020 RMK SKC MON LIB VIS MIN 9999,LIVR,2015-02-12T06:55:00Z,46.28,11.77,-3.0,-10.0,350,2,,6.21,30.11811,,,,,,,,,,,CAVOK,,,,,,,,VFR,,,,,,,,,,,,SPECI,2006.0
KQTZ 120655Z 36011KT 4400 DU HZ BKN040 14/00 A3001 RMK DU BKN040 SLP161 WND DATA ESTMD ALSTG/SLP ESTMD,KQTZ,2015-02-12T06:55:00Z,100.65,-1000.65,14.0,0.0,360,11,,2.73,30.008858,1016.1,,,,,,,,,DU HZ,BKN,4000,,,,,,,IFR,,,,,,,,,,,,METAR,999.0
KQTC 120655Z AUTO 07014G23KT 6SM CLR RMK AO2 SLPNO $,KQTC,2015-02-12T06:55:00Z,100.65,-1000.65,,,70,14,23,6.0,,,,TRUE,TRUE,TRUE,,,,,,CLR,,,,,,,,VFR,,,,,,,,,,,,METAR,999.0
LIMH 120655Z /////KT CAVOK M09/M19 Q1020 RMK SKC MON LIB VAL NIL VIS MIN 9999,LIMH,2015-02-12T06:55:00Z,45.93,7.7,-9.0,-19.0,,,,6.21,30.11811,,,,,,,,,,,CAVOK,,,,,,,,VFR,,,,,,,,,,,,METAR,3488.0
LIED 120655Z 00000KT 5000 BR SCT004 02/00 Q1020 RMK SCT VIS MIN 5000 WIND THR35 30002KT WIND THR17 31003KT WHT,LIED,2015-02-12T06:55:00Z,39.35,8.97,2.0,0.0,0,0,,3.11,30.11811,,,,,,,,,,BR,SCT,400,,,,,,,MVFR,,,,,,,,,,,,METAR,28.0
MUHA 120655Z 26002KT 9000 NSC 09/07 Q1017,MUHA,2015-02-12T06:55:00Z,22.97,-82.42,9.0,7.0,260,2,,5.59,30.029528,,,,,,,,,,,,,,,,,,,,,,,,,,,,,,,SPECI,64.0
LIVT 120655Z 05015G26KT CAVOK 05/M00 Q1024 RMK SKC QUK 3 QUL 1 NE VIS MAR 20 KM VIS MIN 9999,LIVT,2015-02-12T06:55:00Z,45.68,13.75,5.0,0.0,50,15,26,6.21,30.236221,,,,,,,,,,,CAVOK,,,,,,,,VFR,,,,,,,,,,,,METAR,20.0
LIRT 120655Z 09007KT 0000 -RA FG VV/// 01/M02 Q1019 RMK MON INVIS VAL INVIS VIS MIN 0000,LIRT,2015-02-12T06:55:00Z,41.03,15.22,1.0,-2.0,90,7,,0.0,30.088583,,,,,,,,,,-RA FG,OVX,0,,,,,,,LIFR,,,,,,,,,,,,METAR,1093.0
LIMU 120655Z 01005KT CAVOK 11/M07 Q1021 RMK SKC QUK 1 QUL 1 E VIS MAR 40 KM VIS MIN 9999,LIMU,2015-02-12T06:55:00Z,43.95,8.17,11.0,-7.0,10,5,,6.21,30.147638,,,,,,,,,,,CAVOK,,,,,,,,VFR,,,,,,,,,,,,METAR,221.0
LIMT 120655Z 00000KT CAVOK 03/M05 Q1021 RMK SKC MON LIB VAL NIL VIS MIN 9999,LIMT,2015-02-12T06:55:00Z,44.47,9.92,3.0,-5.0,0,0,,6.21,30.147638,,,,,,,,,,,CAVOK,,,,,,,,VFR,,,,,,,,,,,,METAR,1040.0
LIQO 120655Z 12013KT 0000 FG VV/// 07/07 Q1020 RMK VAL INVIS NC VIS MIN 0000,LIQO,2015-02-12T06:55:00Z,42.37,11.17,7.0,7.0,120,13,,0.0,30.11811,,,,,,,,,,FG,OVX,0,,,,,,,LIFR,,,,,,,,,,,,METAR,632.0
LIQC 120655Z ///05KT CAVOK 09/07 Q1022 RMK FEW FEW090 QUK 2 QUL 1 NE VIS MAR 45 KM VIS MIN 9999,LIQC,2015-02-12T06:55:00Z,40.55,14.2,9.0,7.0,,,,6.21,30.177166,,,,,,,,,,,CAVOK,,,,,,,,VFR,,,,,,,,,,,,METAR,269.0
LIMV 120655Z /////KT CAVOK M01/M02 Q1022 RMK SKC MON LIB VAL NIL VIS MIN 9999,LIMV,2015-02-12T06:55:00Z,44.55,8.92,-1.0,-2.0,,,,6.21,30.177166,,,,,,,,,,,CAVOK,,,,,,,,VFR,,,,,,,,,,,,METAR,475.0
KDMH 120654Z AUTO 01/M05 A2988 RMK AO1 SLP119 T00061050,KDMH,2015-02-12T06:54:00Z,39.28,-76.62,0.6,-5.0,,,,,29.878937,1011.9,,TRUE,TRUE,,,,,,,,,,,,,,,,,,,,,,,,,,,METAR,5.0
KECG 120654Z 17004KT 10SM CLR M01/M02 A2995 RMK AO2 SLP141 T10061022 $,KECG,2015-02-12T06:54:00Z,36.27,-76.18,-0.6,-2.2,170,4,,10.0,29.949802,1014.1,,,TRUE,TRUE,,,,,,CLR,,,,,,,,VFR,,,,,,,,,,,,METAR,11.0
PAWI 120653Z AUTO 05014KT 2 1/2SM HZ SCT002 M32/M36 A3025 RMK SLP246 T13221361 TSNO VIA AUTODIAL,PAWI,2015-02-12T06:53:00Z,70.62,-159.85,-32.2,-36.1,50,14,,2.5,30.250984,1024.6,,TRUE,,,,TRUE,,,HZ,SCT,200,,,,,,,IFR,,,,,,,,,,,,METAR,27.0
PAMC 120653Z AUTO 25003KT 10SM BKN070 M17/M22 A2968 RMK AO2 SLP065 T11721222 TSNO,PAMC,2015-02-12T06:53:00Z,62.97,-155.62,-17.2,-22.2,250,3,,10.0,29.681103,1006.5,,TRUE,TRUE,,,TRUE,,,,BKN,7000,,,,,,,VFR,,,,,,,,,,,,METAR,103.0
TJNR 120653Z AUTO 00000KT 10SM CLR 22/21 A2992 RMK AO2 SLP131 T02170206 $,TJNR,2015-02-12T06:53:00Z,18.25,-65.63,21.7,20.6,0,0,,10.0,29.920275,1013.1,,TRUE,TRUE,TRUE,,,,,,CLR,,,,,,,,VFR,,,,,,,,,,,,SPECI,12.0
KRYT 120653Z AUTO 00000KT 10SM OVC033 02/M04 A2982 RMK AO2 SLP108 T00171039 $,KRYT,2015-02-12T06:53:00Z,39.73,-77.43,1.7,-3.9,0,0,,10.0,29.819881,1010.8,,TRUE,TRUE,TRUE,,,,,,OVC,3300,,,,,,,VFR,,,,,,,,,,,,METAR,274.0
MUHG 120651Z VRB01KT 9999 FEW020 13/11 Q1015,MUHG,2015-02-12T06:51:00Z,20.77,-76.32,13.0,11.0,0,1,,6.21,29.970472,,,,,,,,,,,FEW,2000,,,,,,,VFR,,,,,,,,,,,,METAR,106.0
MUSC 120651Z 24004KT 9000 NSC 10/08 Q1017,MUSC,2015-02-12T06:51:00Z,22.5,-79.95,10.0,8.0,240,4,,5.59,30.029528,,,,,,,,,,,,,,,,,,,,,,,,,,,,,,,METAR,103.0
MUVR 120651Z 12002KT 9000 NSC 09/07 Q1017,MUVR,2015-02-12T06:51:00Z,23.03,-81.43,9.0,7.0,120,2,,5.59,30.029528,,,,,,,,,,,,,,,,,,,,,,,,,,,,,,,SPECI,65.0
LIRU 120650Z 35005KT 0500 FG FEW035 02/02 Q1023,LIRU,2015-02-12T06:50:00Z,41.95,12.5,2.0,2.0,350,5,,0.31,30.206694,,,,,,,,,,FG,FEW,3500,,,,,,,LIFR,,,,,,,,,,,,METAR,24.0
LIMZ 120650Z 23004KT CAVOK M05/M07 Q1023,LIMZ,2015-02-12T06:50:00Z,44.53,7.62,-5.0,-7.0,230,4,,6.21,30.206694,,,,,,,,,,,CAVOK,,,,,,,,VFR,,,,,,,,,,,,METAR,380.0
LIMP 120650Z VRB02KT 5000 1400N R20/1200 BCFG NSC M07/M08 Q1025,LIMP,2015-02-12T06:50:00Z,44.82,10.3,-7.0,-8.0,0,2,,3.11,30.265747,,,,,,,,,,BCFG,,,,,,,,,,,,,,,,,,,,,METAR,50.0
PTRO 120650Z 04010G14KT 15SM SCT016TCU BKN120 BKN300 29/23 A2979 RMK TCU VC SW,PTRO,2015-02-12T06:50:00Z,7.37,134.55,29.0,23.0,40,10,14,15.0,29.790354,,,,,,,,,,,SCT,1600,BKN,12000,BKN,30000,,,VFR,,,,,,,,,,,,METAR,54.0
LTCI 120650Z 15007KT 6000 2800NE HZ BKN030 BKN070 01/M07 Q1011 TEMPO 1400 BR,LTCI,2015-02-12T06:50:00Z,38.45,43.32,1.0,-7.0,150,7,,3.73,29.852362,,,,,,,,,,HZ,BKN,3000,BKN,7000,,,,,MVFR,,,,,,,,,,,,METAR,1661.0
LTCD 120650Z 15008KT 9999 SCT038 BKN090 05/M02 Q1011 NOSIG,LTCD,2015-02-12T06:50:00Z,39.72,39.5,5.0,-2.0,150,8,,6.21,29.852362,,,,,,TRUE,,,,,SCT,3800,BKN,9000,,,,,VFR,,,,,,,,,,,,METAR,1215.0
LTCA 120650Z 07010KT 9999 -RA BKN030 BKN090 04/01 Q1013 NOSIG,LTCA,2015-02-12T06:50:00Z,38.6,39.27,4.0,1.0,70,10,,6.21,29.911417,,,,,,TRUE,,,,-RA,BKN,3000,BKN,9000,,,,,MVFR,,,,,,,,,,,,METAR,882.0
LTBY 120650Z 33005KT 280V010 9999 FEW015 BKN035 00/M03 Q1015,LTBY,2015-02-12T06:50:00Z,39.82,30.52,0.0,-3.0,330,5,,6.21,29.970472,,,,,,,,,,,FEW,1500,BKN,3500,,,,,VFR,,,,,,,,,,,,METAR,789.0
NZSP 120650Z 08007KT 9999 FEW005 SCT080 M41/ A2852 RMK CLN AIR 06008KT ALL WNDS GRID SDG/HDG,NZSP,2015-02-12T06:50:00Z,-89.98,179.98,-41.0,,80,7,,6.21,28.52067,,,,,,,,,,,FEW,500,SCT,8000,,,,,VFR,,,,,,,,,,,,SPECI,2830.0
OOSA 120650Z AUTO 17006KT 9999 26/16 Q1019,OOSA,2015-02-12T06:50:00Z,17.02,54.07,26.0,16.0,170,6,,6.21,30.088583,,,TRUE,,,,,,,,,,,,,,,,,,,,,,,,,,,,METAR,20.0
VQPR 120650Z 16011KT 8000 SCT040 15/M06 Q1016 NOSIG,VQPR,2015-02-12T06:50:00Z,27.4,89.43,15.0,-6.0,160,11,,4.97,30.0,,,,,,TRUE,,,,,SCT,4000,,,,,,,MVFR,,,,,,,,,,,,METAR,2235.0
ENHV 120650Z 28026G38KT 9999 -SN FEW011 SCT033 BKN065 M04/M07 Q0984,ENHV,2015-02-12T06:50:00Z,71.02,25.97,-4.0,-7.0,280,26,38,6.21,29.055119,,,,,,,,,,-SN,FEW,1100,SCT,3300,BKN,6500,,,VFR,,,,,,,,,,,,METAR,14.0
LICR 120650Z 08003KT CAVOK 07/03 Q1022,LICR,2015-02-12T06:50:00Z,38.07,15.65,7.0,3.0,80,3,,6.21,30.177166,,,,,,,,,,,CAVOK,,,,,,,,VFR,,,,,,,,,,,,METAR,21.0
LTBH 120650Z 04017KT 9999 SCT033 BKN100 02/M04 Q1024,LTBH,2015-02-12T06:50:00Z,40.13,26.42,2.0,-4.0,40,17,,6.21,30.236221,,,,,,,,,,,SCT,3300,BKN,10000,,,,,VFR,,,,,,,,,,,,METAR,3.0
LTAW 120650Z 03007KT 8000 -RA SCT008 BKN027 OVC080 03/01 Q1014,LTAW,2015-02-12T06:50:00Z,40.28,36.37,3.0,1.0,30,7,,4.97,29.940945,,,,,,,,,,-RA,SCT,800,BKN,2700,OVC,8000,,,MVFR,,,,,,,,,,,,METAR,608.0
LTAS 120650Z 18006KT 8000 FEW010 SCT021 OVC090 03/02 Q1019,LTAS,2015-02-12T06:50:00Z,41.52,32.08,3.0,2.0,180,6,,4.97,30.088583,,,,,,,,,,,FEW,1000,SCT,2100,OVC,9000,,,MVFR,,,,,,,,,,,,METAR,136.0
LTAL 120650Z 24008KT 4000 BR FEW016 BKN027 OVC080 M02/M03 Q1014,LTAL,2015-02-12T06:50:00Z,41.32,33.8,-2.0,-3.0,240,8,,2.49,29.940945,,,,,,,,,,BR,FEW,1600,BKN,2700,OVC,8000,,,IFR,,,,,,,,,,,,METAR,1066.0
LTBO 120650Z 22003KT 190V250 9999 SCT040 BKN080 M02/M04 Q1014,LTBO,2015-02-12T06:50:00Z,38.67,29.47,-2.0,-4.0,220,3,,6.21,29.940945,,,,,,,,,,,SCT,4000,BKN,8000,,,,,VFR,,,,,,,,,,,,METAR,919.0
LTCL 120650Z 23002KT 2000 BR SCT040 BKN100 07/02 Q1013,LTCL,2015-02-12T06:50:00Z,37.98,41.83,7.0,2.0,230,2,,1.24,29.911417,,,,,,,,,,BR,SCT,4000,BKN,10000,,,,,IFR,,,,,,,,,,,,METAR,610.0
LTCM 120650Z 29012KT 9999 -RA SCT012 BKN025 OVC080 06/03 Q1016,LTCM,2015-02-12T06:50:00Z,42.02,35.07,6.0,3.0,290,12,,6.21,30.0,,,,,,,,,,-RA,SCT,1200,BKN,2500,OVC,8000,,,MVFR,,,,,,,,,,,,METAR,8.0
LTCO 120650Z 22004KT 0200 R16/0200U R34/0200U FZFG VV002 M06/M07 Q1013,LTCO,2015-02-12T06:50:00Z,39.65,43.03,-6.0,-7.0,220,4,,0.12,29.911417,,,,,,,,,,FZFG,OVX,0,,,,,,,LIFR,,,,,,,,,,,200,METAR,1665.0
LTCN 120650Z VRB01KT 6000 SCT030 OVC090 06/04 Q1013,LTCN,2015-02-12T06:50:00Z,37.53,36.95,6.0,4.0,0,1,,3.73,29.911417,,,,,,,,,,,SCT,3000,OVC,9000,,,,,MVFR,,,,,,,,,,,,METAR,526.0
LTCP 120650Z 11003KT 8000 -RA FEW010 BKN030 OVC080 04/02 Q1013,LTCP,2015-02-12T06:50:00Z,37.73,38.47,4.0,2.0,110,3,,4.97,29.911417,,,,,,,,,,-RA,FEW,1000,BKN,3000,OVC,8000,,,MVFR,,,,,,,,,,,,METAR,676.0
LICD 120650Z 26002KT CAVOK 11/09 Q1021,LICD,2015-02-12T06:50:00Z,35.5,12.62,11.0,9.0,260,2,,6.21,30.147638,,,,,,,,,,,CAVOK,,,,,,,,VFR,,,,,,,,,,,,METAR,20.0
LICB 120650Z 08005KT 9999 SCT045 08/05 Q1021,LICB,2015-02-12T06:50:00Z,37.0,14.62,8.0,5.0,80,5,,6.21,30.147638,,,,,,,,,,,SCT,4500,,,,,,,VFR,,,,,,,,,,,,METAR,220.0
LICA 120650Z 05009KT 9999 FEW040 SCT070 07/02 Q1023,LICA,2015-02-12T06:50:00Z,38.88,16.25,7.0,2.0,50,9,,6.21,30.206694,,,,,,,,,,,FEW,4000,SCT,7000,,,,,VFR,,,,,,,,,,,,METAR,15.0
ENVD 120650Z 29017KT 9999 VCSH SCT026 SCT080 M08/M10 Q0983,ENVD,2015-02-12T06:50:00Z,70.07,29.85,-8.0,-10.0,290,17,,6.21,29.02559,,,,,,,,,,VCSH,SCT,2600,SCT,8000,,,,,VFR,,,,,,,,,,,,METAR,39.0
NSTU 120650Z VRB03KT 10SM FEW023 SCT050 BKN230 28/25 A2979 RMK SLP090 T02780246,NSTU,2015-02-12T06:50:00Z,-14.33,-170.72,27.8,24.6,0,3,,10.0,29.790354,1009.0,,,,,,,,,,FEW,2300,SCT,5000,BKN,23000,,,VFR,,,,,,,,,,,,METAR,3.0
LIPU 120650Z VRB01KT 5000 BR NSC 00/00 Q1025,LIPU,2015-02-12T06:50:00Z,45.38,11.83,0.0,0.0,0,1,,3.11,30.265747,,,,,,,,,,BR,,,,,,,,,,,,,,,,,,,,,METAR,14.0
LSMA 120650Z VRB02KT 0350 R01/0375N R19/0325V0550D FZFG OVC002 M04/M05 Q1023 RMK RED,LSMA,2015-02-12T06:50:00Z,46.95,8.28,-4.0,-5.0,0,2,,0.22,30.206694,,,,,,,,,,FZFG,OVC,200,,,,,,,LIFR,,,,,,,,,,,,METAR,444.0
VNKT 120650Z 14003KT 7000 FEW020 SCT250 19/02 Q1017 NOSIG,VNKT,2015-02-12T06:50:00Z,27.68,85.37,19.0,2.0,140,3,,4.35,30.029528,,,,,,TRUE,,,,,FEW,2000,SCT,25000,,,,,MVFR,,,,,,,,,,,,METAR,1337.0
LTBQ 120650Z 28003KT 240V310 2000 -SHSNRA BR SCT008 BKN016 OVC070 03/03 Q1020 BECMG TL0800 6000,LTBQ,2015-02-12T06:50:00Z,40.72,30.07,3.0,3.0,280,3,,1.24,30.11811,,,,,,,,,,-SHSN -SHRA BR,SCT,800,BKN,1600,OVC,7000,,,IFR,,,,,,,,,,,,METAR,50.0
LTFG 120650Z 10004KT 060V170 CAVOK 09/04 Q1011,LTFG,2015-02-12T06:50:00Z,36.3,32.3,9.0,4.0,100,4,,6.21,29.852362,,,,,,,,,,,CAVOK,,,,,,,,VFR,,,,,,,,,,,,METAR,95.0
LTFD 120650Z 05011KT 9999 SCT030 BKN090 02/M04 Q1021,LTFD,2015-02-12T06:50:00Z,39.55,27.02,2.0,-4.0,50,11,,6.21,30.147638,,,,,,,,,,,SCT,3000,BKN,9000,,,,,VFR,,,,,,,,,,,,METAR,16.0
LTCV 120650Z 14012KT 3500 HZ FEW040 BKN100 07/01 Q1014,LTCV,2015-02-12T06:50:00Z,37.37,42.07,7.0,1.0,140,12,,2.17,29.940945,,,,,,,,,,HZ,FEW,4000,BKN,10000,,,,,IFR,,,,,,,,,,,,METAR,621.0
LTCU 120650Z 33003KT 1200 R12/1200U -SN SCT006 BKN027 OVC080 00/M00 Q1014,LTCU,2015-02-12T06:50:00Z,38.87,40.58,0.0,0.0,330,3,,0.75,29.940945,,,,,,,,,,-SN,SCT,600,BKN,2700,OVC,8000,,,LIFR,,,,,,,,,,,,METAR,1061.0
LTCT 120650Z 00000KT 9999 SCT036 BKN070 04/00 Q1013,LTCT,2015-02-12T06:50:00Z,39.98,43.87,4.0,0.0,0,0,,6.21,29.911417,,,,,,,,,,,SCT,3600,BKN,7000,,,,,VFR,,,,,,,,,,,,METAR,946.0
ENNO 120650Z 26003KT 230V290 0900 FZFG BKN001 OVC003 M05/M05 Q1016,ENNO,2015-02-12T06:50:00Z,59.57,9.22,-5.0,-5.0,260,3,,0.56,30.0,,,,,,,,,,FZFG,BKN,100,OVC,300,,,,,LIFR,,,,,,,,,,,,METAR,19.0
ENEK 120650Z 23014KT 9999 BKN020 06/00 Q1018 W07/S4,ENEK,2015-02-12T06:50:00Z,56.53,3.25,6.0,0.0,230,14,,6.21,30.059055,,,,,,,,,,,BKN,2000,,,,,,,MVFR,,,,,,,,,,,,METAR,3.0
EEEI 120650Z 22015KT 9999 OVC007 01/00 Q1015 NOSIG,EEEI,2015-02-12T06:50:00Z,59.27,24.2,1.0,0.0,220,15,,6.21,29.970472,,,,,,TRUE,,,,,OVC,700,,,,,,,IFR,,,,,,,,,,,,METAR,20.0
EGXZ 120650Z AUTO 14004KT 2300 UP OVC040/// 01/00 Q1020,EGXZ,2015-02-12T06:50:00Z,54.2,-1.38,1.0,0.0,140,4,,1.43,30.11811,,,TRUE,,,,,,,UP,,,,,,,,,,,,,,,,,,,,,METAR,28.0
EGXS 120650Z AUTO 19005KT 5000 // OVC023/// 03/00 Q1020,EGXS,2015-02-12T06:50:00Z,53.48,0.15,3.0,0.0,190,5,,3.11,30.11811,,,TRUE,,,,,,,,,,,,,,,,,,,,,,,,,,,,METAR,3.0
EGQK 120650Z AUTO 20007KT 9999 SCT038/// 05/02 Q1015,EGQK,2015-02-12T06:50:00Z,57.65,-3.57,5.0,2.0,200,7,,6.21,29.970472,,,TRUE,,,,,,,,,,,,,,,,,,,,,,,,,,,,METAR,7.0
EGOP 120650Z AUTO 10006KT 7000 // OVC029/// 05/02 Q1020,EGOP,2015-02-12T06:50:00Z,51.72,-4.32,5.0,2.0,100,6,,4.35,30.11811,,,TRUE,,,,,,,,,,,,,,,,,,,,,,,,,,,,METAR,6.0
EGOM 120650Z AUTO 24004KT 1700 BR FEW003/// BKN006/// 02/01 Q1017 RERA,EGOM,2015-02-12T06:50:00Z,55.05,-2.55,2.0,1.0,240,4,,1.06,30.029528,,,TRUE,,,,,,,BR,,,,,,,,,,,,,,,,,,,,,METAR,325.0
EGDX 120650Z AUTO 10004KT 9999 OVC029/// 04/01 Q1020,EGDX,2015-02-12T06:50:00Z,51.4,-3.43,4.0,1.0,100,4,,6.21,30.11811,,,TRUE,,,,,,,,,,,,,,,,,,,,,,,,,,,,METAR,50.0
LIPO 120650Z 06004KT 3000 BR NSC M01/M01 Q1025,LIPO,2015-02-12T06:50:00Z,45.42,10.33,-1.0,-1.0,60,4,,1.86,30.265747,,,,,,,,,,BR,,,,,,,,,,,,,,,,,,,,,METAR,109.0
VEPT 120650Z 31007KT 5000 HZ FEW250 22/11 Q1014 NOSIG,VEPT,2015-02-12T06:50:00Z,25.6,85.08,22.0,11.0,310,7,,3.11,29.940945,,,,,,TRUE,,,,HZ,FEW,25000,,,,,,,MVFR,,,,,,,,,,,,METAR,60.0
LTCF 120650Z 00000KT 9999 BKN030 M05/M06 Q1013,LTCF,2015-02-12T06:50:00Z,40.57,43.12,-5.0,-6.0,0,0,,6.21,29.911417,,,,,,,,,,,BKN,3000,,,,,,,MVFR,,,,,,,,,,,,METAR,1795.0
EGQL 120650Z 29007KT 6000 HZ FEW038 02/01 Q1017 WHT,EGQL,2015-02-12T06:50:00Z,56.38,-2.87,2.0,1.0,290,7,,3.73,30.029528,,,,,,,,,,HZ,FEW,3800,,,,,,,MVFR,,,,,,,,,,,,METAR,12.0
EGDY 120650Z 13003KT 7000 HZ OVC027 03/00 Q1020 WHT NOSIG,EGDY,2015-02-12T06:50:00Z,51.0,-2.62,3.0,0.0,130,3,,4.35,30.11811,,,,,,TRUE,,,,HZ,OVC,2700,,,,,,,MVFR,,,,,,,,,,,,METAR,23.0
LXGB 120650Z 06009KT 4500 RA FEW008 SCT015 BKN025 12/11 Q1017 TEMPO 7000 -RA,LXGB,2015-02-12T06:50:00Z,36.13,-5.33,12.0,11.0,60,9,,2.8,30.029528,,,,,,,,,,RA,FEW,800,SCT,1500,BKN,2500,,,IFR,,,,,,,,,,,,METAR,5.0
MUCU 120650Z 01007KT 9000 FEW020 18/12 Q1014,MUCU,2015-02-12T06:50:00Z,19.97,-75.83,18.0,12.0,10,7,,5.59,29.940945,,,,,,,,,,,FEW,2000,,,,,,,VFR,,,,,,,,,,,,METAR,76.0
MUCM 120650Z VRB01KT 9000 SKC 13/09 Q1016,MUCM,2015-02-12T06:50:00Z,21.42,-77.85,13.0,9.0,0,1,,5.59,30.0,,,,,,,,,,,SKC,,,,,,,,VFR,,,,,,,,,,,,METAR,122.0
FADY 120650Z 01010KT CAVOK 29/08 Q1017,FADY,2015-02-12T06:50:00Z,-30.67,23.98,29.0,8.0,10,10,,6.21,30.029528,,,,,,,,,,,CAVOK,,,,,,,,VFR,,,,,,,,,,,,SPECI,384.0
EGYP 120650Z 27014KT 9999 FEW020 SCT060 BKN200 05/04 Q0987 BLU,EGYP,2015-02-12T06:50:00Z,-51.82,-58.45,5.0,4.0,270,14,,6.21,29.143702,,,,,,,,,,,FEW,2000,SCT,6000,BKN,20000,,,VFR,,,,,,,,,,,,METAR,74.0
MUCC 120650Z VRB01KT 9000 FEW020 13/11 Q1015,MUCC,2015-02-12T06:50:00Z,22.47,-78.33,13.0,11.0,0,1,,5.59,29.970472,,,,,,,,,,,FEW,2000,,,,,,,VFR,,,,,,,,,,,,METAR,4.0
LCRA 120650Z 25004KT 9999 FEW035 11/08 Q1010 NOSIG,LCRA,2015-02-12T06:50:00Z,34.57,32.97,11.0,8.0,250,4,,6.21,29.822834,,,,,,TRUE,,,,,FEW,3500,,,,,,,VFR,,,,,,,,,,,,METAR,23.0
LTAY 120650Z VRB01KT 9999 FEW030 BKN090 M04/M06 Q1014,LTAY,2015-02-12T06:50:00Z,37.77,29.68,-4.0,-6.0,0,1,,6.21,29.940945,,,,,,,,,,,FEW,3000,BKN,9000,,,,,VFR,,,,,,,,,,,,METAR,849.0
LTAR 120650Z 10006KT 9000 SCT011 BKN030 OVC080 M01/M01 Q1010,LTAR,2015-02-12T06:50:00Z,39.8,36.9,-1.0,-1.0,100,6,,5.59,29.822834,,,,,,,,,,,SCT,1100,BKN,3000,OVC,8000,,,MVFR,,,,,,,,,,,,METAR,1271.0
OOMS 120650Z 04004KT 8000 NSC 27/16 Q1019 NOSIG,OOMS,2015-02-12T06:50:00Z,23.57,58.27,27.0,16.0,40,4,,4.97,30.088583,,,,,,TRUE,,,,,,,,,,,,,,,,,,,,,,,,,METAR,8.0
LTDA 120650Z 05005KT 9999 -SHRA BKN025 08/08 Q1014,LTDA,2015-02-12T06:50:00Z,36.37,36.28,8.0,8.0,50,5,,6.21,29.940945,,,,,,,,,,-SHRA,BKN,2500,,,,,,,MVFR,,,,,,,,,,,,METAR,82.0
LTFH 120650Z 29016KT 8000 -RA FEW012 BKN029 OVC090 07/05 Q1016 NOSIG,LTFH,2015-02-12T06:50:00Z,41.27,36.55,7.0,5.0,290,16,,4.97,30.0,,,,,,TRUE,,,,-RA,FEW,1200,BKN,2900,OVC,9000,,,MVFR,,,,,,,,,,,,METAR,5.0
LIPY 120650Z VRB01KT 9999 FEW040 01/01 Q1025,LIPY,2015-02-12T06:50:00Z,43.62,13.37,1.0,1.0,0,1,,6.21,30.265747,,,,,,,,,,,FEW,4000,,,,,,,VFR,,,,,,,,,,,,METAR,10.0
LIRZ 120650Z 03003KT CAVOK 00/M01 Q1023,LIRZ,2015-02-12T06:50:00Z,43.1,12.5,0.0,-1.0,30,3,,6.21,30.206694,,,,,,,,,,,CAVOK,,,,,,,,VFR,,,,,,,,,,,,METAR,205.0
LIBP 120650Z VRB03KT 9999 SCT040 BKN080 03/00 Q1024,LIBP,2015-02-12T06:50:00Z,42.42,14.18,3.0,0.0,0,3,,6.21,30.236221,,,,,,,,,,,SCT,4000,BKN,8000,,,,,VFR,,,,,,,,,,,,METAR,11.0
LIBC 120650Z 34006KT 9999 SCT040 07/04 Q1022,LIBC,2015-02-12T06:50:00Z,39.0,17.07,7.0,4.0,340,6,,6.21,30.177166,,,,,,,,,,,SCT,4000,,,,,,,VFR,,,,,,,,,,,,METAR,161.0
LHBC 120645Z 09002KT 4500 BR FEW083 M05/M06 Q1030,LHBC,2015-02-12T06:45:00Z,46.68,21.17,-5.0,-6.0,90,2,,2.8,30.413385,,,,,,,,,,BR,FEW,8300,,,,,,,IFR,,,,,,,,,,,,METAR,86.0
