No errors
No warnings
285 ms
data source=metars
4527 results
raw_text,station_id,observation_time,latitude,longitude,temp_c,dewpoint_c,wind_dir_degrees,wind_speed_kt,wind_gust_kt,visibility_statute_mi,altim_in_hg,sea_level_pressure_mb,corrected,auto,auto_station,maintenance_indicator_on,no_signal,lightning_sensor_off,freezing_rain_sensor_off,present_weather_sensor_off,wx_string,sky_cover,cloud_base_ft_agl,sky_cover,cloud_base_ft_agl,sky_cover,cloud_base_ft_agl,sky_cover,cloud_base_ft_agl,flight_category,three_hr_pressure_tendency_mb,maxT_c,minT_c,maxT24hr_c,minT24hr_c,precip_in,pcp3hr_in,pcp6hr_in,pcp24hr_in,snow_in,vert_vis_ft,metar_type,elevation_m
KMTN 180733Z AUTO 00000KT 10SM CLR 13/13 A2999 RMK AO2,KMTN,2015-04-18T07:33:00Z,39.32,-76.42,13.0,13.0,0,0,,10.0,29.991142,,,TRUE,TRUE,,,,,,,CLR,,,,,,,,VFR,,,,,,,,,,,,METAR,7.0
KCEF 180732Z AUTO 00000KT 1 1/2SM BR CLR 04/03 A2992 RMK AO2 VIS 1 1/2V7,KCEF,2015-04-18T07:32:00Z,42.2,-72.52,4.0,3.0,0,0,,1.5,29.920275,,,TRUE,TRUE,,,,,,BR,CLR,,,,,,,,IFR,,,,,,,,,,,,SPECI,75.0
KWRB 180732Z AUTO 03004KT 2SM R33/3500FT +RA BR OVC005 18/18 A2994 RMK AO2 VIS 2V4 DZE02RAB02,KWRB,2015-04-18T07:32:00Z,32.62,-83.58,18.0,18.0,30,4,,2.0,29.940945,,,TRUE,TRUE,,,,,,+RA BR,OVC,500,,,,,,,IFR,,,,,,,,,,,,SPECI,90.0
CYUA 180732Z AUTO 09006KT 9SM BKN007 OVC013 OVC020 M11/ A3016,CYUA,2015-04-18T07:32:00Z,68.95,-137.28,-11.0,,90,6,,9.0,30.159449,,,TRUE,,,,,,,,BKN,700,OVC,1300,OVC,2000,,,IFR,,,,,,,,,,,,SPECI,38.0
CYMO 180732Z AUTO 03005KT 2SM -SN BKN005 BKN013 OVC020 M01/M02 A2994 RMK VIS VRB 1 3/4-2 1/2 SLP138,CYMO,2015-04-18T07:32:00Z,51.28,-80.62,-1.0,-2.0,30,5,,2.0,29.940945,1013.8,,TRUE,,,,,,,-SN,BKN,500,BKN,1300,OVC,2000,,,IFR,,,,,,,,,,,,SPECI,10.0
KVLD 180731Z AUTO 17004KT 8SM BKN011 OVC017 21/19 A2995 RMK AO2 T02060194 TSNO,KVLD,2015-04-18T07:31:00Z,30.78,-83.27,20.6,19.4,170,4,,8.0,29.949802,,,TRUE,TRUE,,,TRUE,,,,BKN,1100,OVC,1700,,,,,MVFR,,,,,,,,,,,,SPECI,62.0
KVAY 180731Z AUTO 00000KT 3/4SM BR SCT065 12/11 A2997 RMK AO2 T01170111,KVAY,2015-04-18T07:31:00Z,39.93,-74.83,11.7,11.1,0,0,,0.75,29.970472,,,TRUE,TRUE,,,,,,BR,SCT,6500,,,,,,,LIFR,,,,,,,,,,,,SPECI,15.0
KUNO 180731Z AUTO 16004KT 1 3/4SM BR OVC002 17/16 A3002 RMK AO2 T01670156,KUNO,2015-04-18T07:31:00Z,36.88,-91.9,16.7,15.6,160,4,,1.75,30.02067,,,TRUE,TRUE,,,,,,BR,OVC,200,,,,,,,LIFR,,,,,,,,,,,,SPECI,372.0
KSSF 180731Z AUTO 06004KT 10SM FEW007 BKN020 19/18 A2987 RMK AO2 T01940183 PNO $,KSSF,2015-04-18T07:31:00Z,29.33,-98.47,19.4,18.3,60,4,,10.0,29.870079,,,TRUE,TRUE,TRUE,,,,,,FEW,700,BKN,2000,,,,,MVFR,,,,,,,,,,,,SPECI,176.0
KSAF 180731Z AUTO 07007KT 6SM -SN BR OVC036 01/M01 A3003 RMK AO2 P0001 T00061006,KSAF,2015-04-18T07:31:00Z,35.62,-106.1,0.6,-0.6,70,7,,6.0,30.029528,,,TRUE,TRUE,,,,,,-SN BR,OVC,3600,,,,,,,VFR,,,,,,0.01,,,,,,SPECI,1930.0
KIAH 180731Z 09007KT 10SM BKN007 OVC100 21/20 A2987 RMK AO2 RAE26 P0000,KIAH,2015-04-18T07:31:00Z,30.0,-95.37,21.0,20.0,90,7,,10.0,29.870079,,,,TRUE,,,,,,,BKN,700,OVC,10000,,,,,IFR,,,,,,0.0050,,,,,,SPECI,36.0
KHRO 180731Z AUTO 13007KT 4SM BR FEW002 16/16 A3000 RMK AO2 T01560156,KHRO,2015-04-18T07:31:00Z,36.27,-93.15,15.6,15.6,130,7,,4.0,30.0,,,TRUE,TRUE,,,,,,BR,FEW,200,,,,,,,MVFR,,,,,,,,,,,,SPECI,417.0
KHRL 180731Z 07005KT 6SM BR BKN010 OVC023 25/24 A2983 RMK AO2 RAE14 P0000 T02500239,KHRL,2015-04-18T07:31:00Z,26.23,-97.65,25.0,23.9,70,5,,6.0,29.828741,,,,TRUE,,,,,,BR,BKN,1000,OVC,2300,,,,,MVFR,,,,,,0.0050,,,,,,SPECI,10.0
KEVV 180731Z AUTO 00000KT 1 3/4SM BR CLR 14/13 A3001 RMK AO2 T01390128,KEVV,2015-04-18T07:31:00Z,38.05,-87.52,13.9,12.8,0,0,,1.75,30.008858,,,TRUE,TRUE,,,,,,BR,CLR,,,,,,,,IFR,,,,,,,,,,,,SPECI,117.0
KCKV 180731Z AUTO 00000KT 3/4SM BR VV002 13/13 A3001 RMK AO2 T01330133,KCKV,2015-04-18T07:31:00Z,36.62,-87.42,13.3,13.3,0,0,,0.75,30.008858,,,TRUE,TRUE,,,,,,BR,OVX,0,,,,,,,LIFR,,,,,,,,,,,200,SPECI,165.0
KAHN 180731Z AUTO 00000KT 2 1/2SM -RA BR OVC008 17/17 A2999 RMK AO2 P0003 T01720167,KAHN,2015-04-18T07:31:00Z,33.95,-83.33,17.2,16.7,0,0,,2.5,29.991142,,,TRUE,TRUE,,,,,,-RA BR,OVC,800,,,,,,,IFR,,,,,,0.03,,,,,,SPECI,244.0
PFKT 180731Z AUTO 36017G20KT 2 1/2SM -SN OVC036 M12/M15 A2993 RMK AO2 PK WND 02028/0710 VIS 3/4V5 P0000 FZRANO,PFKT,2015-04-18T07:31:00Z,65.33,-166.47,-12.0,-15.0,360,17,20,2.5,29.929134,,,TRUE,TRUE,,,,TRUE,,-SN,OVC,3600,,,,,,,IFR,,,,,,0.0050,,,,,,SPECI,9.0
FAUP 180731Z 10005KT CAVOK 17/03 Q1023 NOSIG,FAUP,2015-04-18T07:31:00Z,-28.38,21.27,17.0,3.0,100,5,,6.21,30.206694,,,,,,TRUE,,,,,CAVOK,,,,,,,,VFR,,,,,,,,,,,,SPECI,836.0
LQMO 180730Z VRB02KT 9999 3500NW FEW006 SCT055 BKN080 13/12 Q1012,LQMO,2015-04-18T07:30:00Z,43.28,17.83,13.0,12.0,0,2,,6.21,29.88189,,,,,,,,,,,FEW,600,SCT,5500,BKN,8000,,,VFR,,,,,,,,,,,,METAR,48.0
CMGB 180730Z AUTO 02001KT 03/M04 RMK AO1 SLP148 T00271042 51010,CMGB,2015-04-18T07:30:00Z,45.37,-72.77,2.7,-4.2,20,1,,,,1014.8,,TRUE,TRUE,,,,,,,,,,,,,,,,1.0,,,,,,,,,,,METAR,86.0
KLSE 180730Z AUTO 00000KT 1/2SM FG CLR 11/10 A3003 RMK AO2 T01110100,KLSE,2015-04-18T07:30:00Z,43.88,-91.25,11.1,10.0,0,0,,0.5,30.029528,,,TRUE,TRUE,,,,,,FG,CLR,,,,,,,,LIFR,,,,,,,,,,,,SPECI,199.0
EIKN 180730Z 10014KT 9999 SCT020 06/04 Q1028 NOSIG,EIKN,2015-04-18T07:30:00Z,53.92,-8.82,6.0,4.0,100,14,,6.21,30.35433,,,,,,TRUE,,,,,SCT,2000,,,,,,,VFR,,,,,,,,,,,,METAR,64.0
EICK 180730Z 09015KT 9999 BKN012 BKN100 08/06 Q1025 NOSIG,EICK,2015-04-18T07:30:00Z,51.85,-8.47,8.0,6.0,90,15,,6.21,30.265747,,,,,,TRUE,,,,,BKN,1200,BKN,10000,,,,,MVFR,,,,,,,,,,,,METAR,162.0
EINN 180730Z 04009KT CAVOK 09/04 Q1027 NOSIG,EINN,2015-04-18T07:30:00Z,52.7,-8.92,9.0,4.0,40,9,,6.21,30.324802,,,,,,TRUE,,,,,CAVOK,,,,,,,,VFR,,,,,,,,,,,,METAR,20.0
EIDW 180730Z 08016KT 9999 SCT014 07/04 Q1029 NOSIG,EIDW,2015-04-18T07:30:00Z,53.42,-6.25,7.0,4.0,80,16,,6.21,30.383858,,,,,,TRUE,,,,,SCT,1400,,,,,,,VFR,,,,,,,,,,,,METAR,85.0
LYVR 180730Z 32013KT 7000 -RA BKN006 12/12 Q1012 NOSIG,LYVR,2015-04-18T07:30:00Z,45.13,21.32,12.0,12.0,320,13,,4.35,29.88189,,,,,,TRUE,,,,-RA,BKN,600,,,,,,,IFR,,,,,,,,,,,,METAR,85.0
LYUZ 180730Z 25005KT 210V270 9999 SCT020 10/06 Q1012,LYUZ,2015-04-18T07:30:00Z,43.9,19.7,10.0,6.0,250,5,,6.21,29.88189,,,,,,,,,,,SCT,2000,,,,,,,VFR,,,,,,,,,,,,METAR,904.0
LYTV 180730Z 17007KT 120V220 9999 FEW010 SCT020 BKN040 17/14 Q1013 NOSIG,LYTV,2015-04-18T07:30:00Z,42.38,18.72,17.0,14.0,170,7,,6.21,29.911417,,,,,,TRUE,,,,,FEW,1000,SCT,2000,BKN,4000,,,VFR,,,,,,,,,,,,METAR,5.0
LYPG 180730Z 15009KT 110V170 9999 BKN034 OVC080 17/13 Q1014 NOSIG,LYPG,2015-04-18T07:30:00Z,42.37,19.25,17.0,13.0,150,9,,6.21,29.940945,,,,,,TRUE,,,,,BKN,3400,OVC,8000,,,,,VFR,,,,,,,,,,,,METAR,43.0
LYNI 180730Z 22007KT 160V270 9999 SCT040 18/08 Q1011 NOSIG,LYNI,2015-04-18T07:30:00Z,43.32,21.88,18.0,8.0,220,7,,6.21,29.852362,,,,,,TRUE,,,,,SCT,4000,,,,,,,VFR,,,,,,,,,,,,METAR,202.0
LYKV 180730Z VRB05KT 9999 BKN040 17/08 Q1012 NOSIG,LYKV,2015-04-18T07:30:00Z,43.82,20.58,17.0,8.0,0,5,,6.21,29.88189,,,,,,TRUE,,,,,BKN,4000,,,,,,,VFR,,,,,,,,,,,,METAR,209.0
LYBT 180730Z 33012KT 220V360 9999 BKN013 11/09 Q1013 NOSIG,LYBT,2015-04-18T07:30:00Z,44.93,20.25,11.0,9.0,330,12,,6.21,29.911417,,,,,,TRUE,,,,,BKN,1300,,,,,,,MVFR,,,,,,,,,,,,METAR,80.0
LYBE 180730Z 33014KT 5000 -RA BR BKN010 BKN033 11/09 Q1013 NOSIG,LYBE,2015-04-18T07:30:00Z,44.82,20.28,11.0,9.0,330,14,,3.11,29.911417,,,,,,TRUE,,,,-RA BR,BKN,1000,BKN,3300,,,,,MVFR,,,,,,,,,,,,METAR,99.0
LQTZ 180730Z 24006KT 200V280 6000 -RA BKN010 OVC025 09/09 Q1015,LQTZ,2015-04-18T07:30:00Z,44.47,18.73,9.0,9.0,240,6,,3.73,29.970472,,,,,,,,,,-RA,BKN,1000,OVC,2500,,,,,MVFR,,,,,,,,,,,,METAR,306.0
LQSA 180730Z VRB01KT 9999 -RA FEW050 BKN065 14/08 Q1013 NOSIG,LQSA,2015-04-18T07:30:00Z,43.82,18.32,14.0,8.0,0,1,,6.21,29.911417,,,,,,TRUE,,,,-RA,FEW,5000,BKN,6500,,,,,VFR,,,,,,,,,,,,METAR,511.0
LQBK 180730Z 01006KT 7000 -RA SCT017 BKN033 09/08 Q1017 NOSIG,LQBK,2015-04-18T07:30:00Z,44.93,17.3,9.0,8.0,10,6,,4.35,30.029528,,,,,,TRUE,,,,-RA,SCT,1700,BKN,3300,,,,,MVFR,,,,,,,,,,,,METAR,122.0
BIKF 180730Z 15020KT 9999 BKN025 06/04 Q1024,BIKF,2015-04-18T07:30:00Z,63.98,-22.6,6.0,4.0,150,20,,6.21,30.236221,,,,,,,,,,,BKN,2500,,,,,,,MVFR,,,,,,,,,,,,METAR,54.0
LKTB 180730Z 35013KT 9999 SCT025 06/M00 Q1019 NOSIG,LKTB,2015-04-18T07:30:00Z,49.13,16.68,6.0,0.0,350,13,,6.21,30.088583,,,,,,TRUE,,,,,SCT,2500,,,,,,,VFR,,,,,,,,,,,,METAR,246.0
LKPR 180730Z 34013KT 9999 SCT013 BKN020 04/01 Q1021 NOSIG,LKPR,2015-04-18T07:30:00Z,50.1,14.27,4.0,1.0,340,13,,6.21,30.147638,,,,,,TRUE,,,,,SCT,1300,BKN,2000,,,,,MVFR,,,,,,,,,,,,METAR,365.0
LKMT 180730Z 36012KT 9999 SCT026 BKN040 05/M02 Q1019 NOSIG,LKMT,2015-04-18T07:30:00Z,49.67,18.12,5.0,-2.0,360,12,,6.21,30.088583,,,,,,TRUE,,,,,SCT,2600,BKN,4000,,,,,VFR,,,,,,,,,,,,METAR,256.0
LKKV 180730Z 36003KT 310V090 9999 SCT020 BKN030 03/M02 Q1022,LKKV,2015-04-18T07:30:00Z,50.2,12.92,3.0,-2.0,360,3,,6.21,30.177166,,,,,,,,,,,SCT,2000,BKN,3000,,,,,MVFR,,,,,,,,,,,,METAR,604.0
UGSB 180730Z 14012KT CAVOK 25/08 Q1014 R13/CLRD70 NOSIG,UGSB,2015-04-18T07:30:00Z,41.62,41.6,25.0,8.0,140,12,,6.21,29.940945,,,,,,TRUE,,,,,CAVOK,,,,,,,,VFR,,,,,,,,,,,,METAR,32.0
UGKO 180730Z 09007KT 060V130 CAVOK 23/06 Q1013 R07/09//70 NOSIG,UGKO,2015-04-18T07:30:00Z,42.18,42.48,23.0,6.0,90,7,,6.21,29.911417,,,,,,TRUE,,,,,CAVOK,,,,,,,,VFR,,,,,,,,,,,,METAR,68.0
UGTB 180730Z 20004KT 150V230 CAVOK 19/05 Q1017 R31L/CLRD80 NOSIG,UGTB,2015-04-18T07:30:00Z,41.67,44.95,19.0,5.0,200,4,,6.21,30.029528,,,,,,TRUE,,,,,CAVOK,,,,,,,,VFR,,,,,,,,,,,,METAR,495.0
WSSS 180730Z 05006KT 020V080 9999 FEW018TCU SCT270 30/24 Q1008 NOSIG,WSSS,2015-04-18T07:30:00Z,1.37,103.97,30.0,24.0,50,6,,6.21,29.763779,,,,,,TRUE,,,,,FEW,1800,SCT,27000,,,,,VFR,,,,,,,,,,,,METAR,16.0
KUZA 180730Z AUTO 20003KT 1 3/4SM BR OVC100 16/16 A2998 RMK AO2 T01560156,KUZA,2015-04-18T07:30:00Z,34.98,-81.05,15.6,15.6,200,3,,1.75,29.97933,,,TRUE,TRUE,,,,,,BR,OVC,10000,,,,,,,IFR,,,,,,,,,,,,SPECI,202.0
KTOI 180730Z AUTO 00000KT 10SM BKN003 OVC016 17/17 A2995 RMK AO2 T01720167,KTOI,2015-04-18T07:30:00Z,31.85,-86.02,17.2,16.7,0,0,,10.0,29.949802,,,TRUE,TRUE,,,,,,,BKN,300,OVC,1600,,,,,LIFR,,,,,,,,,,,,SPECI,118.0
KTCL 180730Z AUTO 05006KT 10SM OVC010 18/16 A2997 RMK AO2 CIG 007V012 T01780161,KTCL,2015-04-18T07:30:00Z,33.22,-87.62,17.8,16.1,50,6,,10.0,29.970472,,,TRUE,TRUE,,,,,,,OVC,1000,,,,,,,MVFR,,,,,,,,,,,,SPECI,49.0
KLAR 180730Z AUTO 00000KT 3/4SM BR VV002 M03/M03 A3001 RMK AO2 PRESFR I1000 T10331033,KLAR,2015-04-18T07:30:00Z,41.32,-105.67,-3.3,-3.3,0,0,,0.75,30.008858,,,TRUE,TRUE,,,,,,BR,OVX,0,,,,,,,LIFR,,,,,,,,,,,200,SPECI,2216.0
KABI 180730Z 13010KT 1 3/4SM BR OVC002 16/16 A2994 RMK AO2 T01610156,KABI,2015-04-18T07:30:00Z,32.42,-99.68,16.1,15.6,130,10,,1.75,29.940945,,,,TRUE,,,,,,BR,OVC,200,,,,,,,LIFR,,,,,,,,,,,,SPECI,548.0
PHMK 180730Z AUTO 05013G18KT 10SM OVC015 23/19 A3010 RMK AO2 TSNO,PHMK,2015-04-18T07:30:00Z,21.15,-157.1,23.0,19.0,50,13,18,10.0,30.100393,,,TRUE,TRUE,,,TRUE,,,,OVC,1500,,,,,,,MVFR,,,,,,,,,,,,METAR,141.0
PHLI 180730Z 06013KT 10SM SCT021 BKN028 OVC065 24/19 A3014 RMK AO2,PHLI,2015-04-18T07:30:00Z,21.97,-159.33,24.0,19.0,60,13,,10.0,30.138779,,,,TRUE,,,,,,,SCT,2100,BKN,2800,OVC,6500,,,MVFR,,,,,,,,,,,,SPECI,45.0
PASN 180730Z AUTO 01030G38KT 10SM OVC009 M06/M09 A2954 RMK AO2 PK WND 01038/0727 T10611089 TSNO,PASN,2015-04-18T07:30:00Z,57.15,-170.22,-6.1,-8.9,10,30,38,10.0,29.53937,,,TRUE,TRUE,,,TRUE,,,,OVC,900,,,,,,,IFR,,,,,,,,,,,,SPECI,29.0
LCPH 180730Z 28008KT 240V310 9999 SCT024 20/13 Q1023,LCPH,2015-04-18T07:30:00Z,34.72,32.47,20.0,13.0,280,8,,6.21,30.206694,,,,,,,,,,,SCT,2400,,,,,,,VFR,,,,,,,,,,,,METAR,8.0
LCLK 180730Z 11006KT 9999 FEW030 20/12 Q1022 NOSIG,LCLK,2015-04-18T07:30:00Z,34.87,33.62,20.0,12.0,110,6,,6.21,30.177166,,,,,,TRUE,,,,,FEW,3000,,,,,,,VFR,,,,,,,,,,,,METAR,2.0
VHHH 180730Z 19013G24KT 130V230 9999 FEW010 SCT020 28/23 Q1007 WS ALL RWY NOSIG,VHHH,2015-04-18T07:30:00Z,22.32,113.92,28.0,23.0,190,13,24,6.21,29.734253,,,,,,TRUE,,,,,FEW,1000,SCT,2000,,,,,VFR,,,,,,,,,,,,METAR,9.0
KQFX 180730Z AUTO 28003KT 9999 BKN030 23/M03 A2990 RMK A02 TSNO,KQFX,2015-04-18T07:30:00Z,100.65,-1000.65,23.0,-3.0,280,3,,6.21,29.899607,,,TRUE,TRUE,,,TRUE,,,,BKN,3000,,,,,,,MVFR,,,,,,,,,,,,METAR,999.0
KQFV 180730Z AUTO 30004KT 9999 CLR 23/M08 A2989 RMK A02 TSNO,KQFV,2015-04-18T07:30:00Z,100.65,-1000.65,23.0,-8.0,300,4,,6.21,29.890747,,,TRUE,TRUE,,,TRUE,,,,CLR,,,,,,,,VFR,,,,,,,,,,,,METAR,999.0
KQFU 180730Z AUTO 33003KT 9999 // CLR 23/M07 A2990 RMK A02 TSNO,KQFU,2015-04-18T07:30:00Z,100.65,-1000.65,23.0,-7.0,330,3,,6.21,29.899607,,,TRUE,TRUE,,,TRUE,,,,CLR,,,,,,,,VFR,,,,,,,,,,,,METAR,999.0
KQFT 180730Z AUTO 22004KT 9999 FEW035 23/M05 A2987 RMK A02 TSNO,KQFT,2015-04-18T07:30:00Z,100.65,-1000.65,23.0,-5.0,220,4,,6.21,29.870079,,,TRUE,TRUE,,,TRUE,,,,FEW,3500,,,,,,,VFR,,,,,,,,,,,,METAR,999.0
KQFB 180730Z AUTO 24001KT 9999 BKN085 21/M03 A2998 RMK A02 TSNO,KQFB,2015-04-18T07:30:00Z,100.65,-1000.65,21.0,-3.0,240,1,,6.21,29.97933,,,TRUE,TRUE,,,TRUE,,,,BKN,8500,,,,,,,VFR,,,,,,,,,,,,METAR,999.0
KQEY 180730Z AUTO 07002KT 9999 BKN070 20/M02 A2991 RMK A02 TSNO,KQEY,2015-04-18T07:30:00Z,100.65,-1000.65,20.0,-2.0,70,2,,6.21,29.911417,,,TRUE,TRUE,,,TRUE,,,,BKN,7000,,,,,,,VFR,,,,,,,,,,,,METAR,999.0
KQEX 180730Z AUTO 19005KT 9999 CLR 21/M05 A2995 RMK A02 TSNO,KQEX,2015-04-18T07:30:00Z,100.65,-1000.65,21.0,-5.0,190,5,,6.21,29.949802,,,TRUE,TRUE,,,TRUE,,,,CLR,,,,,,,,VFR,,,,,,,,,,,,METAR,999.0
KQEW 180730Z AUTO 12001KT 9999 FEW075 SCT140 19/M03 A2992 RMK A02 TSNO,KQEW,2015-04-18T07:30:00Z,100.65,-1000.65,19.0,-3.0,120,1,,6.21,29.920275,,,TRUE,TRUE,,,TRUE,,,,FEW,7500,SCT,14000,,,,,VFR,,,,,,,,,,,,METAR,999.0
KQEV 180730Z AUTO 08003KT 9999 CLR 21/M02 A2990 RMK A02 TSNO,KQEV,2015-04-18T07:30:00Z,100.65,-1000.65,21.0,-2.0,80,3,,6.21,29.899607,,,TRUE,TRUE,,,TRUE,,,,CLR,,,,,,,,VFR,,,,,,,,,,,,METAR,999.0
KQES 180730Z AUTO 9999 // BKN070 19/M01 A2993 RMK A02 TSNO,KQES,2015-04-18T07:30:00Z,100.65,-1000.65,19.0,-1.0,,,,6.21,29.929134,,,TRUE,TRUE,,,TRUE,,,,BKN,7000,,,,,,,VFR,,,,,,,,,,,,METAR,999.0
KQER 180730Z AUTO 34003KT 8000 /OVC016 21/M03 A2988 RMK A02 TSNO,KQER,2015-04-18T07:30:00Z,100.65,-1000.65,21.0,-3.0,340,3,,4.97,29.878937,,,TRUE,TRUE,,,TRUE,,,,OVC,1600,,,,,,,MVFR,,,,,,,,,,,,METAR,999.0
KQEQ 180730Z AUTO 27002KT 9999 SCT120 23/M07 A2976 RMK A02 TSNO,KQEQ,2015-04-18T07:30:00Z,100.65,-1000.65,23.0,-7.0,270,2,,6.21,29.760826,,,TRUE,TRUE,,,TRUE,,,,SCT,12000,,,,,,,VFR,,,,,,,,,,,,METAR,999.0
KQEP 180730Z AUTO 16004KT 9999 CLR 23/M07 A2985 RMK A02 TSNO,KQEP,2015-04-18T07:30:00Z,100.65,-1000.65,23.0,-7.0,160,4,,6.21,29.84941,,,TRUE,TRUE,,,TRUE,,,,CLR,,,,,,,,VFR,,,,,,,,,,,,METAR,999.0
KQEN 180730Z AUTO 9999 CLR M03/M05 / RMK A02 TSNO,KQEN,2015-04-18T07:30:00Z,100.65,-1000.65,-3.0,-5.0,,,,6.21,,,,TRUE,TRUE,,,TRUE,,,,CLR,,,,,,,,VFR,,,,,,,,,,,,METAR,999.0
KQEL 180730Z AUTO 22004KT 9999 FEW130 24/M05 A2992 RMK A02 TSNO,KQEL,2015-04-18T07:30:00Z,100.65,-1000.65,24.0,-5.0,220,4,,6.21,29.920275,,,TRUE,TRUE,,,TRUE,,,,FEW,13000,,,,,,,VFR,,,,,,,,,,,,METAR,999.0
KQEJ 180730Z AUTO 21001KT 9999 CLR 23/M07 A2986 RMK A02 TSNO,KQEJ,2015-04-18T07:30:00Z,100.65,-1000.65,23.0,-7.0,210,1,,6.21,29.861221,,,TRUE,TRUE,,,TRUE,,,,CLR,,,,,,,,VFR,,,,,,,,,,,,METAR,999.0
KQEI 180730Z AUTO 32003KT 9999 CLR 23/M09 A2991 RMK A02 TSNO,KQEI,2015-04-18T07:30:00Z,100.65,-1000.65,23.0,-9.0,320,3,,6.21,29.911417,,,TRUE,TRUE,,,TRUE,,,,CLR,,,,,,,,VFR,,,,,,,,,,,,METAR,999.0
GMTT 180730Z 20006KT 5000 SCT010 BKN016 14/13 Q1017 NOSIG,GMTT,2015-04-18T07:30:00Z,35.72,-5.9,14.0,13.0,200,6,,3.11,30.029528,,,,,,TRUE,,,,,SCT,1000,BKN,1600,,,,,MVFR,,,,,,,,,,,,METAR,21.0
GMMX 180730Z 34004KT 250V040 8000 FEW100 BKN200 15/13 Q1016 PROB30 TEMPO 3000 BR,GMMX,2015-04-18T07:30:00Z,31.62,-8.02,15.0,13.0,340,4,,4.97,30.0,,,,,,,,,,,FEW,10000,BKN,20000,,,,,MVFR,,,,,,,,,,,,METAR,466.0
GMMN 180730Z 11003KT 9999 BKN016 14/13 Q1018 NOSIG,GMMN,2015-04-18T07:30:00Z,33.37,-7.57,14.0,13.0,110,3,,6.21,30.059055,,,,,,TRUE,,,,,BKN,1600,,,,,,,MVFR,,,,,,,,,,,,METAR,206.0
GMME 180730Z 16001KT 5000 FEW010 SCT016 BKN200 15/14 Q1017 NOSIG,GMME,2015-04-18T07:30:00Z,34.03,-6.77,15.0,14.0,160,1,,3.11,30.029528,,,,,,TRUE,,,,,FEW,1000,SCT,1600,BKN,20000,,,MVFR,,,,,,,,,,,,METAR,75.0
GMAD 180730Z 21003KT 180V250 9999 SCT016 SCT100 16/14 Q1014 NOSIG,GMAD,2015-04-18T07:30:00Z,30.32,-9.42,16.0,14.0,210,3,,6.21,29.940945,,,,,,TRUE,,,,,SCT,1600,SCT,10000,,,,,VFR,,,,,,,,,,,,METAR,74.0
FMCZ 180730Z VRB03KT 9999 FEW023 31/24 Q1014 NOSIG,FMCZ,2015-04-18T07:30:00Z,-12.8,45.27,31.0,24.0,0,3,,6.21,29.940945,,,,,,TRUE,,,,,FEW,2300,,,,,,,VFR,,,,,,,,,,,,METAR,7.0
EPZG 180730Z 34009KT 310V030 9999 BKN021 06/01 Q1023,EPZG,2015-04-18T07:30:00Z,52.13,15.8,6.0,1.0,340,9,,6.21,30.206694,,,,,,,,,,,BKN,2100,,,,,,,MVFR,,,,,,,,,,,,METAR,59.0
EPWR 180730Z 34008KT 9999 BKN020 BKN040 04/01 Q1021,EPWR,2015-04-18T07:30:00Z,51.1,16.87,4.0,1.0,340,8,,6.21,30.147638,,,,,,,,,,,BKN,2000,BKN,4000,,,,,MVFR,,,,,,,,,,,,METAR,121.0
EPSC 180730Z 34005KT 9999 FEW013 06/03 Q1023,EPSC,2015-04-18T07:30:00Z,53.58,14.9,6.0,3.0,340,5,,6.21,30.206694,,,,,,,,,,,FEW,1300,,,,,,,VFR,,,,,,,,,,,,METAR,3.0
EPMO 180730Z 33013KT 9999 SCT017 BKN042 05/02 Q1016,EPMO,2015-04-18T07:30:00Z,52.45,20.65,5.0,2.0,330,13,,6.21,30.0,,,,,,,,,,,SCT,1700,BKN,4200,,,,,VFR,,,,,,,,,,,,METAR,104.0
EPLB 180730Z 31009KT 9999 FEW010 BKN013CB OVC038 03/01 Q1014,EPLB,2015-04-18T07:30:00Z,51.23,22.72,3.0,1.0,310,9,,6.21,29.940945,,,,,,,,,,,FEW,1000,BKN,1300,OVC,3800,,,MVFR,,,,,,,,,,,,METAR,206.0
EPKT 180730Z 32012KT 9999 SCT015 BKN036 03/M01 Q1018,EPKT,2015-04-18T07:30:00Z,50.47,19.08,3.0,-1.0,320,12,,6.21,30.059055,,,,,,,,,,,SCT,1500,BKN,3600,,,,,VFR,,,,,,,,,,,,METAR,284.0
EPBY 180730Z 32010KT 9999 BKN017 05/02 Q1019,EPBY,2015-04-18T07:30:00Z,53.1,18.0,5.0,2.0,320,10,,6.21,30.088583,,,,,,,,,,,BKN,1700,,,,,,,MVFR,,,,,,,,,,,,METAR,71.0
EPWA 180730Z 33015KT 9999 BKN023 06/M00 Q1015 NOSIG,EPWA,2015-04-18T07:30:00Z,52.17,20.97,6.0,0.0,330,15,,6.21,29.970472,,,,,,TRUE,,,,,BKN,2300,,,,,,,MVFR,,,,,,,,,,,,METAR,107.0
EPRZ 180730Z 34011KT 300V010 9999 FEW020TCU BKN023 05/M01 Q1015,EPRZ,2015-04-18T07:30:00Z,50.1,22.05,5.0,-1.0,340,11,,6.21,29.970472,,,,,,,,,,,FEW,2000,BKN,2300,,,,,MVFR,,,,,,,,,,,,METAR,202.0
EPPO 180730Z 35012KT 9999 SCT023 06/M01 Q1021,EPPO,2015-04-18T07:30:00Z,52.42,16.82,6.0,-1.0,350,12,,6.21,30.147638,,,,,,,,,,,SCT,2300,,,,,,,VFR,,,,,,,,,,,,METAR,92.0
EPLL 180730Z 34012KT 9999 BKN015 03/M00 Q1018,EPLL,2015-04-18T07:30:00Z,51.72,19.4,3.0,0.0,340,12,,6.21,30.059055,,,,,,,,,,,BKN,1500,,,,,,,MVFR,,,,,,,,,,,,METAR,184.0
EPKK 180730Z 34008KT 9999 BKN026 04/M02 Q1017,EPKK,2015-04-18T07:30:00Z,50.07,19.8,4.0,-2.0,340,8,,6.21,30.029528,,,,,,,,,,,BKN,2600,,,,,,,MVFR,,,,,,,,,,,,METAR,237.0
EPGD 180730Z 36012KT 9999 SCT015 FEW030TCU 04/02 Q1019,EPGD,2015-04-18T07:30:00Z,54.37,18.47,4.0,2.0,360,12,,6.21,30.088583,,,,,,,,,,,SCT,1500,FEW,3000,,,,,VFR,,,,,,,,,,,,METAR,138.0
VOCL 180730Z 30006KT 8000 FEW015 34/24 Q1008 NOSIG,VOCL,2015-04-18T07:30:00Z,11.13,75.95,34.0,24.0,300,6,,4.97,29.763779,,,,,,TRUE,,,,,FEW,1500,,,,,,,MVFR,,,,,,,,,,,,METAR,104.0
CWPF 180730Z AUTO 36004KT 09/07 RMK AO1 T00930072,CWPF,2015-04-18T07:30:00Z,48.43,-123.43,9.3,7.2,360,4,,,,,,TRUE,TRUE,,,,,,,,,,,,,,,,,,,,,,,,,,,METAR,12.0
DIAP 180730Z VRB02KT 8000 FEW012 27/26 Q1012 NOSIG,DIAP,2015-04-18T07:30:00Z,5.25,-3.92,27.0,26.0,0,2,,4.97,29.88189,,,,,,TRUE,,,,,FEW,1200,,,,,,,MVFR,,,,,,,,,,,,SPECI,8.0
UBBG 180730Z 31005KT 9999 FEW100 19/08 Q1015 R30/CLRD70 NOSIG,UBBG,2015-04-18T07:30:00Z,40.73,46.32,19.0,8.0,310,5,,6.21,29.970472,,,,,,TRUE,,,,,FEW,10000,,,,,,,VFR,,,,,,,,,,,,SPECI,330.0
LUBL 180730Z 32009KT 270V040 8000 -SHRA BKN007 OVC021CB 07/05 Q1008,LUBL,2015-04-18T07:30:00Z,47.83,27.78,7.0,5.0,320,9,,4.97,29.763779,,,,,,,,,,-SHRA,BKN,700,OVC,2100,,,,,IFR,,,,,,,,,,,,METAR,232.0
LHBP 180730Z 32014KT CAVOK 10/00 Q1014 NOSIG,LHBP,2015-04-18T07:30:00Z,47.42,19.27,10.0,0.0,320,14,,6.21,29.940945,,,,,,TRUE,,,,,CAVOK,,,,,,,,VFR,,,,,,,,,,,,METAR,185.0
LDRI 180730Z 13011KT 090V160 5000 RA BR FEW017 FEW023TCU BKN023 OVC033 13/13 Q1014,LDRI,2015-04-18T07:30:00Z,45.22,14.57,13.0,13.0,130,11,,3.11,29.940945,,,,,,,,,,RA BR,FEW,1700,FEW,2300,BKN,2300,OVC,3300,MVFR,,,,,,,,,,,,METAR,85.0
UBBB 180730Z 18017KT 8000 OVC004 12/11 Q1015 88CLRD70 NOSIG,UBBB,2015-04-18T07:30:00Z,40.45,50.07,12.0,11.0,180,17,,4.97,29.970472,,,,,,TRUE,,,,,OVC,400,,,,,,,LIFR,,,,,,,,,,,,SPECI,-6.0
TFFR 180730Z AUTO 11003KT 9999 ///TCU 24/20 Q1015,TFFR,2015-04-18T07:30:00Z,16.27,-61.53,24.0,20.0,110,3,,6.21,29.970472,,,TRUE,,,,,,,,,,,,,,,,,,,,,,,,,,,,METAR,11.0
LBGO 180730Z AUTO 29010KT 9999 BKN093/// 20/10 Q1009 NOSIG,LBGO,2015-04-18T07:30:00Z,43.15,25.72,20.0,10.0,290,10,,6.21,29.793306,,,TRUE,,,TRUE,,,,,,,,,,,,,,,,,,,,,,,,,METAR,86.0
LBPD 180730Z AUTO 30009KT 9999 SCT110/// 21/06 Q1011 NOSIG,LBPD,2015-04-18T07:30:00Z,42.13,24.8,21.0,6.0,300,9,,6.21,29.852362,,,TRUE,,,TRUE,,,,,,,,,,,,,,,,,,,,,,,,,METAR,185.0
LBBG 180730Z 25013KT 9999 FEW047 18/13 Q1010 NOSIG,LBBG,2015-04-18T07:30:00Z,42.57,27.52,18.0,13.0,250,13,,6.21,29.822834,,,,,,TRUE,,,,,FEW,4700,,,,,,,VFR,,,,,,,,,,,,METAR,28.0
LBWN 180730Z 28017KT CAVOK 21/07 Q1008 NOSIG,LBWN,2015-04-18T07:30:00Z,43.22,27.82,21.0,7.0,280,17,,6.21,29.763779,,,,,,TRUE,,,,,CAVOK,,,,,,,,VFR,,,,,,,,,,,,METAR,43.0
LBSF 180730Z 26016KT CAVOK 18/05 Q1012 NOSIG,LBSF,2015-04-18T07:30:00Z,42.65,23.38,18.0,5.0,260,16,,6.21,29.88189,,,,,,TRUE,,,,,CAVOK,,,,,,,,VFR,,,,,,,,,,,,METAR,595.0
LZTT 180730Z 04011KT 010V110 9999 -SHSN FEW026 BKN046 03/M02 Q1012 NOSIG,LZTT,2015-04-18T07:30:00Z,49.07,20.25,3.0,-2.0,40,11,,6.21,29.88189,,,,,,TRUE,,,,-SHSN,FEW,2600,BKN,4600,,,,,VFR,,,,,,,,,,,,METAR,707.0
LZKZ 180730Z 36014KT 9999 BKN040 07/M01 Q1013 NOSIG,LZKZ,2015-04-18T07:30:00Z,48.67,21.23,7.0,-1.0,360,14,,6.21,29.911417,,,,,,TRUE,,,,,BKN,4000,,,,,,,VFR,,,,,,,,,,,,METAR,232.0
LZIB 180730Z 35010KT 9999 FEW024 08/01 Q1018 NOSIG,LZIB,2015-04-18T07:30:00Z,48.17,17.22,8.0,1.0,350,10,,6.21,30.059055,,,,,,TRUE,,,,,FEW,2400,,,,,,,VFR,,,,,,,,,,,,METAR,134.0
LZZI 180730Z 02007KT 340V050 9999 BKN030 05/M01 Q1017,LZZI,2015-04-18T07:30:00Z,49.23,18.62,5.0,-1.0,20,7,,6.21,30.029528,,,,,,,,,,,BKN,3000,,,,,,,MVFR,,,,,,,,,,,,METAR,311.0
LZSL 180730Z 01013KT 340V050 9999 SCT054 08/M03 Q1014,LZSL,2015-04-18T07:30:00Z,48.63,19.13,8.0,-3.0,10,13,,6.21,29.940945,,,,,,,,,,,SCT,5400,,,,,,,VFR,,,,,,,,,,,,METAR,313.0
LZPP 180730Z 35014KT 320V020 9999 FEW028 09/01 Q1017,LZPP,2015-04-18T07:30:00Z,48.62,17.83,9.0,1.0,350,14,,6.21,30.029528,,,,,,,,,,,FEW,2800,,,,,,,VFR,,,,,,,,,,,,METAR,161.0
VOBL 180730Z 05008KT 020V090 9999 SCT015 SCT020 33/18 Q1014 NOSIG,VOBL,2015-04-18T07:30:00Z,13.2,77.7,33.0,18.0,50,8,,6.21,29.940945,,,,,,TRUE,,,,,SCT,1500,SCT,2000,,,,,VFR,,,,,,,,,,,,METAR,915.0
NWWW 180730Z AUTO 11010KT 9999 BKN060 23/15 Q1018,NWWW,2015-04-18T07:30:00Z,-22.02,166.22,23.0,15.0,110,10,,6.21,30.059055,,,TRUE,,,,,,,,BKN,6000,,,,,,,VFR,,,,,,,,,,,,METAR,16.0
UKDR 180730Z 01005MPS 9999 -SHRA SCT033CB OVC100 09/08 Q1004 36290157 NOSIG,UKDR,2015-04-18T07:30:00Z,48.05,33.22,9.0,8.0,10,10,,6.21,29.64567,,,,,,TRUE,,,,-SHRA,SCT,3300,OVC,10000,,,,,VFR,,,,,,,,,,,,METAR,124.0
UKLL 180730Z 33004MPS 290V360 9999 SCT026CB BKN026 05/01 Q1012 31CLRD80 NOSIG,UKLL,2015-04-18T07:30:00Z,49.82,23.93,5.0,1.0,330,8,,6.21,29.88189,,,,,,TRUE,,,,,SCT,2600,BKN,2600,,,,,MVFR,,,,,,,,,,,,METAR,325.0
UKDD 180730Z 01006MPS 9999 -SHRA SCT004 BKN022CB 09/08 Q1002 08210358 TEMPO 1500 SHRA BKN012CB,UKDD,2015-04-18T07:30:00Z,48.37,35.1,9.0,8.0,10,12,,6.21,29.586615,,,,,,,,,,-SHRA,SCT,400,BKN,2200,,,,,MVFR,,,,,,,,,,,,METAR,149.0
UKDE 180730Z 04003MPS 010V100 9999 BKN015 11/09 Q1001 02CLRD70 NOSIG,UKDE,2015-04-18T07:30:00Z,47.87,35.32,11.0,9.0,40,6,,6.21,29.557087,,,,,,TRUE,,,,,BKN,1500,,,,,,,MVFR,,,,,,,,,,,,METAR,113.0
UKOO 180730Z 36006MPS 9999 BKN009 OVC053 10/08 Q1006 34090060 NOSIG,UKOO,2015-04-18T07:30:00Z,46.42,30.68,10.0,8.0,360,12,,6.21,29.704725,,,,,,TRUE,,,,,BKN,900,OVC,5300,,,,,IFR,,,,,,,,,,,,METAR,35.0
UKHH 180730Z 21003MPS 9999 -RA OVC040 08/06 Q1004 25290063 TEMPO VRB08G16MPS,UKHH,2015-04-18T07:30:00Z,49.92,36.28,8.0,6.0,210,6,,6.21,29.64567,,,,,,,,,,-RA,OVC,4000,,,,,,,VFR,,,,,,,,,,,,METAR,155.0
UKBB 180730Z 36005MPS CAVOK 10/00 Q1006 88CLRD95 NOSIG,UKBB,2015-04-18T07:30:00Z,50.33,30.9,10.0,0.0,360,10,,6.21,29.704725,,,,,,TRUE,,,,,CAVOK,,,,,,,,VFR,,,,,,,,,,,,METAR,119.0
TFFF 180730Z AUTO 08005KT 9999 -RA OVC017/// ///TCU 25/23 Q1015,TFFF,2015-04-18T07:30:00Z,14.6,-61.0,25.0,23.0,80,5,,6.21,29.970472,,,TRUE,,,,,,,-RA,,,,,,,,,,,,,,,,,,,,,METAR,5.0
FMMI 180730Z 13008KT 090V180 9999 FEW020 24/18 Q1024 NOSIG,FMMI,2015-04-18T07:30:00Z,-18.8,47.47,24.0,18.0,130,8,,6.21,30.236221,,,,,,TRUE,,,,,FEW,2000,,,,,,,VFR,,,,,,,,,,,,METAR,1276.0
YMLT 180730Z AUTO 34012KT 8000 -SHRA SCT010 BKN015 OVC023 13/12 Q1005,YMLT,2015-04-18T07:30:00Z,-41.52,147.18,13.0,12.0,340,12,,4.97,29.675198,,,TRUE,,,,,,,-SHRA,SCT,1000,BKN,1500,OVC,2300,,,MVFR,,,,,,,,,,,,SPECI,178.0
YGTH 180730Z AUTO 25014KT 9999 -SHRA BKN005 OVC008 OVC013 16/15 Q1015,YGTH,2015-04-18T07:30:00Z,-34.25,146.07,16.0,15.0,250,14,,6.21,29.970472,,,TRUE,,,,,,,-SHRA,BKN,500,OVC,800,OVC,1300,,,IFR,,,,,,,,,,,,SPECI,134.0
LUKK 180730Z 01009KT 9999 -SHRA BKN004 OVC017CB 09/07 Q1007 R08/290152 NOSIG,LUKK,2015-04-18T07:30:00Z,46.93,28.93,9.0,7.0,10,9,,6.21,29.734253,,,,,,TRUE,,,,-SHRA,BKN,400,OVC,1700,,,,,LIFR,,,,,,,,,,,,METAR,122.0
VOCB 180730Z 00000KT 5000 HZ FEW015 32/19 Q1010 NOSIG,VOCB,2015-04-18T07:30:00Z,11.02,77.03,32.0,19.0,0,0,,3.11,29.822834,,,,,,TRUE,,,,HZ,FEW,1500,,,,,,,MVFR,,,,,,,,,,,,METAR,399.0
SOCA 180730Z AUTO 08003KT 9999 FEW019/// SCT049/// 25/23 Q1011,SOCA,2015-04-18T07:30:00Z,4.82,-52.37,25.0,23.0,80,3,,6.21,29.852362,,,TRUE,,,,,,,,,,,,,,,,,,,,,,,,,,,,SPECI,9.0
DXXX 180730Z VRB01KT 6000 FEW012 28/26 Q1012 NOSIG,DXXX,2015-04-18T07:30:00Z,6.17,1.25,28.0,26.0,0,1,,3.73,29.88189,,,,,,TRUE,,,,,FEW,1200,,,,,,,MVFR,,,,,,,,,,,,METAR,25.0
HRYR 180730Z 00000KT 9000 -RA FEW020CB BKN025 BKN100 19/19 Q1025 NOSIG,HRYR,2015-04-18T07:30:00Z,-1.97,30.12,19.0,19.0,0,0,,5.59,30.265747,,,,,,TRUE,,,,-RA,FEW,2000,BKN,2500,BKN,10000,,,MVFR,,,,,,,,,,,,METAR,1497.0
LDOS 180730Z 31010KT 6000 -RA SCT030 10/08 Q1015,LDOS,2015-04-18T07:30:00Z,45.47,18.82,10.0,8.0,310,10,,3.73,29.970472,,,,,,,,,,-RA,SCT,3000,,,,,,,MVFR,,,,,,,,,,,,METAR,89.0
LDZD 180730Z VRB02KT 9999 SCT017 BKN050 14/12 Q1014 NOSIG,LDZD,2015-04-18T07:30:00Z,44.1,15.37,14.0,12.0,0,2,,6.21,29.940945,,,,,,TRUE,,,,,SCT,1700,BKN,5000,,,,,VFR,,,,,,,,,,,,METAR,84.0
LDZA 180730Z 06005KT 010V120 6000 -RA SCT025 OVC035 07/05 Q1018 TEMPO RA,LDZA,2015-04-18T07:30:00Z,45.72,16.07,7.0,5.0,60,5,,3.73,30.059055,,,,,,,,,,-RA,SCT,2500,OVC,3500,,,,,MVFR,,,,,,,,,,,,METAR,107.0
LDDU 180730Z 13014KT 9999 SCT015 BKN020 15/13 Q1013 NOSIG,LDDU,2015-04-18T07:30:00Z,42.57,18.27,15.0,13.0,130,14,,6.21,29.911417,,,,,,TRUE,,,,,SCT,1500,BKN,2000,,,,,MVFR,,,,,,,,,,,,METAR,165.0
LDPL 180730Z 10004KT 050V160 4000 BR SCT003 BKN040 14/13 Q1012 BECMG 06015KT 9999 NSW,LDPL,2015-04-18T07:30:00Z,44.88,13.92,14.0,13.0,100,4,,2.49,29.88189,,,,,,,,,,BR,SCT,300,BKN,4000,,,,,IFR,,,,,,,,,,,,METAR,63.0
LDSP 180730Z VRB02KT 9999 SCT070 15/13 Q1014 NOSIG,LDSP,2015-04-18T07:30:00Z,43.52,16.3,15.0,13.0,0,2,,6.21,29.940945,,,,,,TRUE,,,,,SCT,7000,,,,,,,VFR,,,,,,,,,,,,METAR,21.0
YPLM 180730Z AUTO 09012KT //// // BKN009 BKN014 OVC047 22/21 Q1014,YPLM,2015-04-18T07:30:00Z,-22.22,114.07,22.0,21.0,90,12,,,29.940945,,,TRUE,,,,,,,,BKN,900,BKN,1400,OVC,4700,,,,,,,,,,,,,,,SPECI,6.0
HECA 180730Z 04006KT CAVOK 21/06 Q1024 NOSIG,HECA,2015-04-18T07:30:00Z,30.12,31.38,21.0,6.0,40,6,,6.21,30.236221,,,,,,TRUE,,,,,CAVOK,,,,,,,,VFR,,,,,,,,,,,,METAR,74.0
NTAA 180730Z 11002KT 9999 FEW023 26/22 Q1013 NOSIG,NTAA,2015-04-18T07:30:00Z,-17.55,-149.62,26.0,22.0,110,2,,6.21,29.911417,,,,,,TRUE,,,,,FEW,2300,,,,,,,VFR,,,,,,,,,,,,METAR,2.0
UBBN 180730Z 22005KT 9999 FEW050 18/01 Q1017 R14R/CLRD60 NOSIG RMK MT OP QFE688,UBBN,2015-04-18T07:30:00Z,39.18,45.45,18.0,1.0,220,5,,6.21,30.029528,,,,,,TRUE,,,,,FEW,5000,,,,,,,VFR,,,,,,,,,,,,METAR,873.0
GLRB 180730Z 03003KT 2500 BR BKN003 26/25 Q1012,GLRB,2015-04-18T07:30:00Z,6.25,-10.33,26.0,25.0,30,3,,1.55,29.88189,,,,,,,,,,BR,BKN,300,,,,,,,LIFR,,,,,,,,,,,,METAR,18.0
GOOY 180730Z 33007KT 4000 BR SCT006 19/18 Q1012 TEMPO 6000 NSW,GOOY,2015-04-18T07:30:00Z,14.72,-17.5,19.0,18.0,330,7,,2.49,29.88189,,,,,,,,,,BR,SCT,600,,,,,,,IFR,,,,,,,,,,,,METAR,24.0
HSSS 180730Z 01010KT CAVOK Q1016,HSSS,2015-04-18T07:30:00Z,15.58,32.53,,,10,10,,6.21,30.0,,,,,,,,,,,CAVOK,,,,,,,,VFR,,,,,,,,,,,,METAR,380.0
WADL 180730Z 23006KT 190V310 9999 SCT016 30/25 Q1007 NOSIG,WADL,2015-04-18T07:30:00Z,-8.75,116.28,30.0,25.0,230,6,,6.21,29.734253,,,,,,TRUE,,,,,SCT,1600,,,,,,,VFR,,,,,,,,,,,,METAR,97.0
LWSK 180730Z 00000KT CAVOK 16/08 Q1013 NOSIG,LWSK,2015-04-18T07:30:00Z,41.97,21.63,16.0,8.0,0,0,,6.21,29.911417,,,,,,TRUE,,,,,CAVOK,,,,,,,,VFR,,,,,,,,,,,,METAR,239.0
GQNN 180730Z 34006KT 310V010 7000 NSC 20/17 Q1012 NOSIG,GQNN,2015-04-18T07:30:00Z,18.1,-15.93,20.0,17.0,340,6,,4.35,29.88189,,,,,,TRUE,,,,,,,,,,,,,,,,,,,,,,,,,SPECI,3.0
BKPR 180730Z 22008KT 190V250 9999 SCT040 BKN090 16/05 Q1013 NOSIG,BKPR,2015-04-18T07:30:00Z,42.58,21.03,16.0,5.0,220,8,,6.21,29.911417,,,,,,TRUE,,,,,SCT,4000,BKN,9000,,,,,VFR,,,,,,,,,,,,METAR,576.0
LWOH 180730Z 15004KT CAVOK 15/03 Q1014,LWOH,2015-04-18T07:30:00Z,41.18,20.75,15.0,3.0,150,4,,6.21,29.940945,,,,,,,,,,,CAVOK,,,,,,,,VFR,,,,,,,,,,,,METAR,761.0
ZMUB 180730Z 32007MPS 280V010 9999 FEW033 04/M16 Q1019 NOSIG RMK QFE656.5 21 MOP,ZMUB,2015-04-18T07:30:00Z,47.83,106.78,4.0,-16.0,320,14,,6.21,30.088583,,,,,,TRUE,,,,,FEW,3300,,,,,,,VFR,,,,,,,,,,,,SPECI,1330.0
KVAD 180729Z AUTO 12003KT 10SM -DZ SCT012 20/19 A2994 RMK AO2 RAB24E27DZB29,KVAD,2015-04-18T07:29:00Z,30.97,-83.2,20.0,19.0,120,3,,10.0,29.940945,,,TRUE,TRUE,,,,,,-DZ,SCT,1200,,,,,,,VFR,,,,,,,,,,,,SPECI,71.0
KUTS 180729Z AUTO 00000KT 10SM FEW070 20/19 A2989 RMK AO2 T02000189,KUTS,2015-04-18T07:29:00Z,30.75,-95.58,20.0,18.9,0,0,,10.0,29.890747,,,TRUE,TRUE,,,,,,,FEW,7000,,,,,,,VFR,,,,,,,,,,,,SPECI,104.0
KPAH 180729Z AUTO 00000KT 1/2SM FG VV005 15/14 A3000 RMK AO2 T01500139,KPAH,2015-04-18T07:29:00Z,37.07,-88.77,15.0,13.9,0,0,,0.5,30.0,,,TRUE,TRUE,,,,,,FG,OVX,0,,,,,,,LIFR,,,,,,,,,,,500,SPECI,119.0
KHFD 180729Z AUTO 1 3/4SM BR FEW002 06/06 A2995 RMK AO2 VIS 1/2V5 T00610056,KHFD,2015-04-18T07:29:00Z,41.73,-72.65,6.1,5.6,,,,1.75,29.949802,,,TRUE,TRUE,,,,,,BR,FEW,200,,,,,,,IFR,,,,,,,,,,,,SPECI,4.0
KGPT 180729Z AUTO 00000KT 8SM BKN003 21/20 A2991 RMK AO2 T02110200,KGPT,2015-04-18T07:29:00Z,30.42,-89.08,21.1,20.0,0,0,,8.0,29.911417,,,TRUE,TRUE,,,,,,,BKN,300,,,,,,,LIFR,,,,,,,,,,,,SPECI,14.0
KAPA 180729Z 03004KT 10SM -RA SCT007 BKN011 BKN016 03/02 A3001 RMK AO2 RAB00 P0000 T00280022,KAPA,2015-04-18T07:29:00Z,39.57,-104.85,2.8,2.2,30,4,,10.0,30.008858,,,,TRUE,,,,,,-RA,SCT,700,BKN,1100,BKN,1600,,,MVFR,,,,,,0.0050,,,,,,SPECI,1775.0
KEUF 180729Z AUTO 00000KT 2SM BR OVC003 17/17 A2993 RMK AO2 $,KEUF,2015-04-18T07:29:00Z,31.95,-85.13,17.0,17.0,0,0,,2.0,29.929134,,,TRUE,TRUE,TRUE,,,,,BR,OVC,300,,,,,,,LIFR,,,,,,,,,,,,SPECI,87.0
CYNM 180729Z AUTO 13007KT 9SM -SN OVC055 M01/M02 A2984 RMK ICG PAST HR SLP122,CYNM,2015-04-18T07:29:00Z,49.77,-77.82,-1.0,-2.0,130,7,,9.0,29.840551,1012.2,,TRUE,,,,,,,-SN,OVC,5500,,,,,,,VFR,,,,,,,,,,,,SPECI,281.0
PAIW 180728Z AUTO 36019KT 3/4SM -SN BR M15/M16 A3001 RMK AO2 P0000 FZRANO $,PAIW,2015-04-18T07:28:00Z,65.62,-168.1,-15.0,-16.0,360,19,,0.75,30.008858,,,TRUE,TRUE,TRUE,,,TRUE,,-SN BR,,,,,,,,,,,,,,,0.0050,,,,,,SPECI,7.0
PWAK 180728Z AUTO 08015KT 9999 SCT022 BKN032 26/22 A2998 RMK AO2,PWAK,2015-04-18T07:28:00Z,19.28,166.65,26.0,22.0,80,15,,6.21,29.97933,,,TRUE,TRUE,,,,,,,SCT,2200,BKN,3200,,,,,VFR,,,,,,,,,,,,SPECI,4.0
PGUA 180728Z AUTO 07014KT 10SM SCT017 27/23 A2989 RMK AO2 $,PGUA,2015-04-18T07:28:00Z,13.57,144.92,27.0,23.0,70,14,,10.0,29.890747,,,TRUE,TRUE,TRUE,,,,,,SCT,1700,,,,,,,VFR,,,,,,,,,,,,SPECI,187.0
KWRI 180728Z AUTO 00000KT 5SM R24/5000FT BR CLR 12/12 A2994 RMK AO2,KWRI,2015-04-18T07:28:00Z,40.02,-74.58,12.0,12.0,0,0,,5.0,29.940945,,,TRUE,TRUE,,,,,,BR,CLR,,,,,,,,MVFR,,,,,,,,,,,,SPECI,41.0
KSVN 180728Z AUTO 14002KT 9SM R28/5500FT -RA BKN003 20/20 A2996 RMK AO2 CIG 003V007,KSVN,2015-04-18T07:28:00Z,32.02,-81.15,20.0,20.0,140,2,,9.0,29.958662,,,TRUE,TRUE,,,,,,-RA,BKN,300,,,,,,,LIFR,,,,,,,,,,,,SPECI,13.0
KPAM 180728Z AUTO 00000KT 3/4SM R14/2400FT BR CLR 21/21 A2993 RMK AO2 VIS 3/4V6 $,KPAM,2015-04-18T07:28:00Z,30.07,-85.57,21.0,21.0,0,0,,0.75,29.929134,,,TRUE,TRUE,TRUE,,,,,BR,CLR,,,,,,,,LIFR,,,,,,,,,,,,SPECI,5.0
KOZR 180728Z AUTO 35003KT 10SM BKN006 16/14 A2993 RMK AO2 CIG 006V008,KOZR,2015-04-18T07:28:00Z,31.28,-85.72,16.0,14.0,350,3,,10.0,29.929134,,,TRUE,TRUE,,,,,,,BKN,600,,,,,,,IFR,,,,,,,,,,,,SPECI,93.0
KMMT 180728Z AUTO 26002KT 3SM R32/5500FT BR FEW017 BKN024 18/18 A2999 RMK AO2 PRESRR,KMMT,2015-04-18T07:28:00Z,33.92,-80.78,18.0,18.0,260,2,,3.0,29.991142,,,TRUE,TRUE,,,,,,BR,FEW,1700,BKN,2400,,,,,MVFR,,,,,,,,,,,,SPECI,77.0
KIAB 180728Z AUTO 08003KT 10SM TS OVC050 17/15 A2994 RMK AO2 LTG DSNT W-S DZE04RAB09E28 TSB21,KIAB,2015-04-18T07:28:00Z,37.62,-97.27,17.0,15.0,80,3,,10.0,29.940945,,,TRUE,TRUE,,,,,,TS,OVC,5000,,,,,,,VFR,,,,,,,,,,,,SPECI,418.0
KHUA 180728Z AUTO 05005KT 4SM BR FEW001 OVC010 15/15 A2998 RMK AO2,KHUA,2015-04-18T07:28:00Z,34.68,-86.68,15.0,15.0,50,5,,4.0,29.97933,,,TRUE,TRUE,,,,,,BR,FEW,100,OVC,1000,,,,,MVFR,,,,,,,,,,,,SPECI,209.0
KAFF 180728Z AUTO 34007KT 10SM SCT045 BKN055 00/00 A3000 RMK AO2,KAFF,2015-04-18T07:28:00Z,38.97,-104.82,0.0,0.0,340,7,,10.0,30.0,,,TRUE,TRUE,,,,,,,SCT,4500,BKN,5500,,,,,VFR,,,,,,,,,,,,SPECI,2003.0
KSTS 180728Z 17004KT 10SM -RA OVC004 09/08 A3004 RMK AO2 RAB20 P0000,KSTS,2015-04-18T07:28:00Z,38.5,-122.82,9.0,8.0,170,4,,10.0,30.041338,,,,TRUE,,,,,,-RA,OVC,400,,,,,,,LIFR,,,,,,0.0050,,,,,,SPECI,39.0
KM19 180728Z AUTO 00000KT 1SM BR CLR 18/18 A3000 RMK AO2,KM19,2015-04-18T07:28:00Z,35.65,-91.17,18.0,18.0,0,0,,1.0,30.0,,,TRUE,TRUE,,,,,,BR,CLR,,,,,,,,IFR,,,,,,,,,,,,SPECI,73.0
KLBF 180728Z AUTO 08005KT 6SM +RA BR SCT012 BKN019 OVC033 11/09 A2998 RMK AO2 LTG DSNT N-E P0010 T01060094,KLBF,2015-04-18T07:28:00Z,41.12,-100.67,10.6,9.4,80,5,,6.0,29.97933,,,TRUE,TRUE,,,,,,+RA BR,SCT,1200,BKN,1900,OVC,3300,,,MVFR,,,,,,0.1,,,,,,SPECI,847.0
KIJD 180728Z AUTO 00000KT 8SM SCT001 07/06 A2994 RMK AO2 T00670056,KIJD,2015-04-18T07:28:00Z,41.75,-72.18,6.7,5.6,0,0,,8.0,29.940945,,,TRUE,TRUE,,,,,,,SCT,100,,,,,,,VFR,,,,,,,,,,,,SPECI,75.0
KFFC 180728Z AUTO 00000KT 5SM -RA BR OVC004 17/17 A2997 RMK AO2 RAB26 P0000 T01720167,KFFC,2015-04-18T07:28:00Z,33.35,-84.57,17.2,16.7,0,0,,5.0,29.970472,,,TRUE,TRUE,,,,,,-RA BR,OVC,400,,,,,,,LIFR,,,,,,0.0050,,,,,,SPECI,262.0
KDRO 180728Z AUTO 26003KT 2SM -SN BR FEW015 OVC030 00/M01 A3002 RMK AO2 P0000 T00001006,KDRO,2015-04-18T07:28:00Z,37.15,-107.77,0.0,-0.6,260,3,,2.0,30.02067,,,TRUE,TRUE,,,,,,-SN BR,FEW,1500,OVC,3000,,,,,IFR,,,,,,0.0050,,,,,,SPECI,2035.0
KAIA 180728Z AUTO 13012KT 6SM RA BR FEW008 BKN014 OVC046 08/07 A3001 RMK AO2 WSHFT 0714 P0012 T00780072,KAIA,2015-04-18T07:28:00Z,42.05,-102.8,7.8,7.2,130,12,,6.0,30.008858,,,TRUE,TRUE,,,,,,RA BR,FEW,800,BKN,1400,OVC,4600,,,MVFR,,,,,,0.12,,,,,,SPECI,1196.0
KAGS 180728Z AUTO 00000KT 4SM BR OVC005 19/18 A2997 RMK AO2 RAE28 CIG 003V007 P0000 T01890183,KAGS,2015-04-18T07:28:00Z,33.37,-81.97,18.9,18.3,0,0,,4.0,29.970472,,,TRUE,TRUE,,,,,,BR,OVC,500,,,,,,,IFR,,,,,,0.0050,,,,,,SPECI,44.0
CYQX 180728Z 16005KT 3SM -SN BKN009 BKN016 OVC025 M01/M01 A2954 RMK SF5SC2SC1 SLP011,CYQX,2015-04-18T07:28:00Z,48.95,-54.58,-1.0,-1.0,160,5,,3.0,29.53937,1001.1,,,,,,,,,-SN,BKN,900,BKN,1600,OVC,2500,,,IFR,,,,,,,,,,,,METAR,151.0
CYYG 180727Z 34012G18KT 15SM FEW020 SCT052 BKN120 02/M01 A2977 RMK SC1SC3AC1 SLP081,CYYG,2015-04-18T07:27:00Z,46.27,-63.12,2.0,-1.0,340,12,18,15.0,29.769686,1008.1,,,,,,,,,,FEW,2000,SCT,5200,BKN,12000,,,VFR,,,,,,,,,,,,SPECI,54.0
KDYS 180727Z AUTO 14005KT 10SM BKN006 15/14 A2993 RMK AO2 CIG 006V012 $,KDYS,2015-04-18T07:27:00Z,32.42,-99.83,15.0,14.0,140,5,,10.0,29.929134,,,TRUE,TRUE,TRUE,,,,,,BKN,600,,,,,,,IFR,,,,,,,,,,,,SPECI,545.0
BGTL 180727Z AUTO 12025KT 0800 HZ FEW004 M18/M21 A2967 RMK AO2 SNE02 RVRNO,BGTL,2015-04-18T07:27:00Z,76.53,-68.7,-18.0,-21.0,120,25,,0.5,29.66929,,,TRUE,TRUE,,,,,,HZ,FEW,400,,,,,,,LIFR,,,,,,,,,,,,METAR,77.0
PPIZ 180727Z AUTO 1SM BR OVC005 M17/M19 A3004 RMK AO2 TSNO CIG 004V009 $,PPIZ,2015-04-18T07:27:00Z,69.73,-163.0,-17.0,-19.0,,,,1.0,30.041338,,,TRUE,TRUE,TRUE,,TRUE,,,BR,OVC,500,,,,,,,IFR,,,,,,,,,,,,METAR,8.0
PAVA 180727Z AUTO 01031G37KT 3/4SM -SN BR VV003 M09/M11 A2969 RMK AO2 PK WND 01037/0718 P0000 FZRANO,PAVA,2015-04-18T07:27:00Z,61.53,-165.6,-9.0,-11.0,10,31,37,0.75,29.68996,,,TRUE,TRUE,,,,TRUE,,-SN BR,OVX,0,,,,,,,LIFR,,,,,,0.0050,,,,,300,SPECI,23.0
KSBY 180727Z AUTO 00000KT 1/4SM FG VV005 14/14 A2995 RMK AO2 T01440144,KSBY,2015-04-18T07:27:00Z,38.33,-75.5,14.4,14.4,0,0,,0.25,29.949802,,,TRUE,TRUE,,,,,,FG,OVX,0,,,,,,,LIFR,,,,,,,,,,,500,METAR,19.0
KMCB 180727Z AUTO 00000KT 10SM BKN006 19/19 A2995 RMK AO2 T01940189,KMCB,2015-04-18T07:27:00Z,31.18,-90.47,19.4,18.9,0,0,,10.0,29.949802,,,TRUE,TRUE,,,,,,,BKN,600,,,,,,,IFR,,,,,,,,,,,,METAR,124.0
KLBX 180727Z AUTO 10006KT 9SM VCTS RA BKN110 19/19 A2989 RMK AO2 LTG DSNT S AND SW PRESFR P0005 T01890189 $,KLBX,2015-04-18T07:27:00Z,29.12,-95.47,18.9,18.9,100,6,,9.0,29.890747,,,TRUE,TRUE,TRUE,,,,,VCTS RA,BKN,11000,,,,,,,VFR,,,,,,0.05,,,,,,METAR,6.0
KGSP 180727Z AUTO 00000KT 2SM BR SCT002 OVC090 16/16 A2999 RMK AO2 VIS 1V5 T01610161,KGSP,2015-04-18T07:27:00Z,34.9,-82.22,16.1,16.1,0,0,,2.0,29.991142,,,TRUE,TRUE,,,,,,BR,SCT,200,OVC,9000,,,,,IFR,,,,,,,,,,,,SPECI,287.0
KFIG 180727Z AUTO 00000KT 1/2SM FG VV004 07/06 A3003 RMK AO2 T00720061,KFIG,2015-04-18T07:27:00Z,41.05,-78.42,7.2,6.1,0,0,,0.5,30.029528,,,TRUE,TRUE,,,,,,FG,OVX,0,,,,,,,LIFR,,,,,,,,,,,400,METAR,462.0
KFFT 180727Z AUTO 00000KT 3/4SM BR 11/10 A3004 RMK AO2 T01110100 $,KFFT,2015-04-18T07:27:00Z,38.18,-84.9,11.1,10.0,0,0,,0.75,30.041338,,,TRUE,TRUE,TRUE,,,,,BR,,,,,,,,,,,,,,,,,,,,,METAR,236.0
KEQY 180727Z AUTO 18003KT 2SM BR FEW002 OVC100 17/16 A2996 RMK AO2 RAE10 P0000 T01670156,KEQY,2015-04-18T07:27:00Z,35.02,-80.62,16.7,15.6,180,3,,2.0,29.958662,,,TRUE,TRUE,,,,,,BR,FEW,200,OVC,10000,,,,,IFR,,,,,,0.0050,,,,,,METAR,212.0
KDDC 180727Z AUTO 15008KT 7SM SCT009 13/12 A2994 RMK AO2 T01330117,KDDC,2015-04-18T07:27:00Z,37.77,-99.97,13.3,11.7,150,8,,7.0,29.940945,,,TRUE,TRUE,,,,,,,SCT,900,,,,,,,VFR,,,,,,,,,,,,METAR,789.0
KCKB 180727Z AUTO 19004KT 1/2SM FG VV001 10/09 A3001 RMK AO2 T01000094 TSNO RVRNO,KCKB,2015-04-18T07:27:00Z,39.3,-80.22,10.0,9.4,190,4,,0.5,30.008858,,,TRUE,TRUE,,,TRUE,,,FG,OVX,0,,,,,,,LIFR,,,,,,,,,,,100,METAR,360.0
KAMA 180727Z AUTO 19008KT 10SM OVC007 13/12 A2998 RMK AO2 CIG 004V010 T01330122,KAMA,2015-04-18T07:27:00Z,35.22,-101.72,13.3,12.2,190,8,,10.0,29.97933,,,TRUE,TRUE,,,,,,,OVC,700,,,,,,,IFR,,,,,,,,,,,,METAR,1093.0
CYTE 180727Z AUTO 21007KT 2 1/2SM -SN BKN026 BKN130 M08/M09 A2976 RMK VIS VRB 1 1/2-3 SLP083,CYTE,2015-04-18T07:27:00Z,64.22,-76.52,-8.0,-9.0,210,7,,2.5,29.760826,1008.3,,TRUE,,,,,,,-SN,BKN,2600,BKN,13000,,,,,IFR,,,,,,,,,,,,SPECI,47.0
KQBL 180726Z AUTO 36001KT 2 3/4SM BR FEW005 SCT014 BKN017 22/21 A2993 RMK AO2,KQBL,2015-04-18T07:26:00Z,100.65,-1000.65,22.0,21.0,360,1,,2.75,29.929134,,,TRUE,TRUE,,,,,,BR,FEW,500,SCT,1400,BKN,1700,,,IFR,,,,,,,,,,,,SPECI,999.0
KFEW 180726Z AUTO 33009KT 4SM BR OVC002 01/00 A2998 RMK AO2 $,KFEW,2015-04-18T07:26:00Z,41.13,-104.87,1.0,0.0,330,9,,4.0,29.97933,,,TRUE,TRUE,TRUE,,,,,BR,OVC,200,,,,,,,LIFR,,,,,,,,,,,,SPECI,1878.0
KW29 180726Z AUTO 00000KT 4SM BR 13/13 A2998 RMK AO1,KW29,2015-04-18T07:26:00Z,38.98,-76.33,13.0,13.0,0,0,,4.0,29.97933,,,TRUE,TRUE,,,,,,BR,,,,,,,,,,,,,,,,,,,,,METAR,15.0
KCGE 180726Z AUTO 00000KT 1 1/4SM BKN001 15/13 A2996 RMK AO1 VIS 1/2V4,KCGE,2015-04-18T07:26:00Z,38.53,-76.03,15.0,13.0,0,0,,1.25,29.958662,,,TRUE,TRUE,,,,,,,BKN,100,,,,,,,LIFR,,,,,,,,,,,,METAR,6.0
KCBE 180726Z AUTO 00000KT 7SM CLR 11/10 A3006 RMK AO1,KCBE,2015-04-18T07:26:00Z,39.62,-78.77,11.0,10.0,0,0,,7.0,30.059055,,,TRUE,TRUE,,,,,,,CLR,,,,,,,,VFR,,,,,,,,,,,,METAR,236.0
K2W6 180726Z AUTO 00000KT 1/2SM VV005 15/13 A2998 RMK AO1,K2W6,2015-04-18T07:26:00Z,38.32,-76.55,15.0,13.0,0,0,,0.5,29.97933,,,TRUE,TRUE,,,,,,,OVX,0,,,,,,,LIFR,,,,,,,,,,,500,METAR,44.0
KTAN 180726Z AUTO 00000KT 9SM BKN001 06/05 A2991 RMK AO2 T00560050,KTAN,2015-04-18T07:26:00Z,41.88,-71.02,5.6,5.0,0,0,,9.0,29.911417,,,TRUE,TRUE,,,,,,,BKN,100,,,,,,,LIFR,,,,,,,,,,,,METAR,7.0
KPSF 180726Z AUTO 00000KT 1/4SM FG VV005 03/03 A2994 RMK AO2 T00280028,KPSF,2015-04-18T07:26:00Z,42.43,-73.28,2.8,2.8,0,0,,0.25,29.940945,,,TRUE,TRUE,,,,,,FG,OVX,0,,,,,,,LIFR,,,,,,,,,,,500,METAR,355.0
KPQL 180726Z AUTO 06004KT 9SM SCT004 21/20 A2990 RMK AO2 T02060200 TSNO,KPQL,2015-04-18T07:26:00Z,30.47,-88.53,20.6,20.0,60,4,,9.0,29.899607,,,TRUE,TRUE,,,TRUE,,,,SCT,400,,,,,,,VFR,,,,,,,,,,,,METAR,6.0
KOXB 180726Z AUTO 09004KT 1/2SM FG VV004 13/13 A2996 RMK AO2 RAE00 P0000 T01330133 TSNO,KOXB,2015-04-18T07:26:00Z,38.32,-75.12,13.3,13.3,90,4,,0.5,29.958662,,,TRUE,TRUE,,,TRUE,,,FG,OVX,0,,,,,,,LIFR,,,,,,0.0050,,,,,400,METAR,3.0
KOWD 180726Z AUTO 00000KT 3/4SM BR VV002 05/04 A2991 RMK AO2 VIS 1/4V5 T00500044,KOWD,2015-04-18T07:26:00Z,42.18,-71.17,5.0,4.4,0,0,,0.75,29.911417,,,TRUE,TRUE,,,,,,BR,OVX,0,,,,,,,LIFR,,,,,,,,,,,200,METAR,19.0
KMOB 180726Z AUTO 08004KT 3SM BR OVC002 20/20 A2992 RMK AO2 T02000200,KMOB,2015-04-18T07:26:00Z,30.68,-88.25,20.0,20.0,80,4,,3.0,29.920275,,,TRUE,TRUE,,,,,,BR,OVC,200,,,,,,,LIFR,,,,,,,,,,,,METAR,63.0
KICT 180726Z 12008KT 10SM OVC047 18/14 A2993 RMK AO2 RAB0656RAEMMB09E23 TSB0658E23 LGTICCG N-SE CB N-SE MOVG NE TS N-SE MOVG NE P0000 T01780144 $,KICT,2015-04-18T07:26:00Z,37.65,-97.43,17.8,14.4,120,8,,10.0,29.929134,,,,TRUE,TRUE,,,,,,OVC,4700,,,,,,,VFR,,,,,,0.0050,,,,,,METAR,407.0
KGMU 180726Z AUTO 33003KT 10SM -RA FEW005 BKN085 OVC110 17/16 A3000 RMK AO2 RAB22 P0000 T01670156,KGMU,2015-04-18T07:26:00Z,34.85,-82.35,16.7,15.6,330,3,,10.0,30.0,,,TRUE,TRUE,,,,,,-RA,FEW,500,BKN,8500,OVC,11000,,,VFR,,,,,,0.0050,,,,,,METAR,315.0
KGED 180726Z AUTO 00000KT 1 1/4SM BR BKN007 16/16 A2997 RMK AO2 T01610156,KGED,2015-04-18T07:26:00Z,38.68,-75.37,16.1,15.6,0,0,,1.25,29.970472,,,TRUE,TRUE,,,,,,BR,BKN,700,,,,,,,IFR,,,,,,,,,,,,METAR,19.0
KCUT 180726Z AUTO 08005KT 3SM -RA BR OVC003 05/04 A3008 RMK AO2 RAB0657 P0002 T00500039,KCUT,2015-04-18T07:26:00Z,43.73,-103.62,5.0,3.9,80,5,,3.0,30.079725,,,TRUE,TRUE,,,,,,-RA BR,OVC,300,,,,,,,LIFR,,,,,,0.02,,,,,,METAR,1725.0
KBRO 180726Z 04005KT 4SM BR BKN009 BKN018 24/23 A2983 RMK AO2 T02440233,KBRO,2015-04-18T07:26:00Z,25.92,-97.42,24.4,23.3,40,5,,4.0,29.828741,,,,TRUE,,,,,,BR,BKN,900,BKN,1800,,,,,IFR,,,,,,,,,,,,SPECI,7.0
KAPC 180726Z AUTO 24004KT 10SM BKN010 09/08 A3005 RMK AO2 T00940078,KAPC,2015-04-18T07:26:00Z,38.2,-122.28,9.4,7.8,240,4,,10.0,30.050198,,,TRUE,TRUE,,,,,,,BKN,1000,,,,,,,MVFR,,,,,,,,,,,,METAR,13.0
KAKH 180726Z AUTO 00000KT 2SM BR BKN003 OVC100 17/15 A2998 RMK AO2 RAE0657 P0000 T01670150,KAKH,2015-04-18T07:26:00Z,35.2,-81.15,16.7,15.0,0,0,,2.0,29.97933,,,TRUE,TRUE,,,,,,BR,BKN,300,OVC,10000,,,,,LIFR,,,,,,0.0050,,,,,,METAR,243.0
CYRT 180726Z 34019KT 6SM IC BLSN FEW015 SCT250 M18/M22 A3009 RMK SC1CI3 SLP192,CYRT,2015-04-18T07:26:00Z,62.82,-92.12,-18.0,-22.0,340,19,,6.0,30.088583,1019.2,,,,,,,,,IC BLSN,FEW,1500,SCT,25000,,,,,VFR,,,,,,,,,,,,SPECI,32.0
K2DP 180726Z AUTO 16001KT 1 1/4SM BR SCT004 BKN041 16/15 A2997 RMK AO2 VIS 1V1 7/8 $,K2DP,2015-04-18T07:26:00Z,35.68,-75.9,16.0,15.0,160,1,,1.25,29.970472,,,TRUE,TRUE,TRUE,,,,,BR,SCT,400,BKN,4100,,,,,IFR,,,,,,,,,,,,SPECI,3.0
CZPC 180726Z AUTO 22013KT 9SM FEW060 SCT074 BKN100 BKN140 08/02 A3003 RMK SLP173,CZPC,2015-04-18T07:26:00Z,49.52,-114.0,8.0,2.0,220,13,,9.0,30.029528,1017.3,,TRUE,,,,,,,,FEW,6000,SCT,7400,BKN,10000,BKN,14000,VFR,,,,,,,,,,,,SPECI,1190.0
EBDT 180725Z AUTO 04005KT 9999 NCD 07/03 Q1027 BLU,EBDT,2015-04-18T07:25:00Z,51.02,5.07,7.0,3.0,40,5,,6.21,30.324802,,,TRUE,,,,,,,,,,,,,,,,,,,,,,,,,,,,SPECI,54.0
EBLB 180725Z AUTO 06007KT 9999 NCD 05/00 Q1025 BLU,EBLB,2015-04-18T07:25:00Z,50.47,6.17,5.0,0.0,60,7,,6.21,30.265747,,,TRUE,,,,,,,,,,,,,,,,,,,,,,,,,,,,SPECI,570.0
EBFS 180725Z AUTO 07007KT 9999 NCD 06/01 Q1025 BLU,EBFS,2015-04-18T07:25:00Z,50.22,4.65,6.0,1.0,70,7,,6.21,30.265747,,,TRUE,,,,,,,,,,,,,,,,,,,,,,,,,,,,SPECI,299.0
EBFN 180725Z 07012KT 9999 FEW200 09/04 Q1028 BLU,EBFN,2015-04-18T07:25:00Z,51.07,2.63,9.0,4.0,70,12,,6.21,30.35433,,,,,,,,,,,FEW,20000,,,,,,,VFR,,,,,,,,,,,,METAR,9.0
EBCV 180725Z AUTO 05012KT 9999 NCD 07/02 Q1027 BLU,EBCV,2015-04-18T07:25:00Z,50.57,3.82,7.0,2.0,50,12,,6.21,30.324802,,,TRUE,,,,,,,,,,,,,,,,,,,,,,,,,,,,SPECI,63.0
EBBL 180725Z 06008KT 9999 SKC 08/03 Q1027 BLU,EBBL,2015-04-18T07:25:00Z,51.17,5.47,8.0,3.0,60,8,,6.21,30.324802,,,,,,,,,,,SKC,,,,,,,,VFR,,,,,,,,,,,,METAR,64.0
EBBE 180725Z AUTO 06007KT 9999 NCD 06/02 Q1027 BLU,EBBE,2015-04-18T07:25:00Z,50.75,4.77,6.0,2.0,60,7,,6.21,30.324802,,,TRUE,,,,,,,,,,,,,,,,,,,,,,,,,,,,SPECI,127.0
EHFS 180725Z AUTO 05012KT 9999 NCD 09/05 Q1027,EHFS,2015-04-18T07:25:00Z,51.45,3.6,9.0,5.0,50,12,,6.21,30.324802,,,TRUE,,,,,,,,,,,,,,,,,,,,,,,,,,,,METAR,32.0
EHEH 180725Z AUTO 05008KT 9999 FEW160 08/03 Q1027 BLU 04010KT CAVOK,EHEH,2015-04-18T07:25:00Z,51.45,5.38,8.0,3.0,50,8,,6.21,30.324802,,,TRUE,,,,,,,,FEW,16000,,,,,,,VFR,,,,,,,,,,,,METAR,22.0
KFDK 180725Z AUTO 00000KT 5SM HZ CLR 11/08 A3002 RMK AO2,KFDK,2015-04-18T07:25:00Z,39.42,-77.37,11.0,8.0,0,0,,5.0,30.02067,,,TRUE,TRUE,,,,,,HZ,CLR,,,,,,,,MVFR,,,,,,,,,,,,METAR,92.0
KDMW 180725Z AUTO 32003KT 7SM CLR 14/11 A3000 RMK AO2,KDMW,2015-04-18T07:25:00Z,39.6,-77.0,14.0,11.0,320,3,,7.0,30.0,,,TRUE,TRUE,,,,,,,CLR,,,,,,,,VFR,,,,,,,,,,,,METAR,241.0
KCGS 180725Z AUTO 00000KT 10SM CLR 13/13 A2998 RMK AO1,KCGS,2015-04-18T07:25:00Z,38.98,-76.92,13.0,13.0,0,0,,10.0,29.97933,,,TRUE,TRUE,,,,,,,CLR,,,,,,,,VFR,,,,,,,,,,,,METAR,15.0
K2G4 180725Z AUTO 00000KT 10SM CLR 11/ A3005 RMK AO1,K2G4,2015-04-18T07:25:00Z,39.58,-79.33,11.0,,0,0,,10.0,30.050198,,,TRUE,TRUE,,,,,,,CLR,,,,,,,,VFR,,,,,,,,,,,,METAR,894.0
EHPG 180725Z AUTO 04018KT 9999 NCD 09/06 Q1028,EHPG,2015-04-18T07:25:00Z,52.37,3.35,9.0,6.0,40,18,,6.21,30.35433,,,TRUE,,,,,,,,,,,,,,,,,,,,,,,,,,,,METAR,50.0
EHMG 180725Z AUTO 03012KT 9999 SCT006/// 07/05 Q1029,EHMG,2015-04-18T07:25:00Z,53.62,4.97,7.0,5.0,30,12,,6.21,30.383858,,,TRUE,,,,,,,,,,,,,,,,,,,,,,,,,,,,METAR,50.0
EHMA 180725Z AUTO VRB13KT 9999 FEW006/// BKN007/// 07/05 Q1029,EHMA,2015-04-18T07:25:00Z,53.5,5.95,7.0,5.0,0,13,,6.21,30.383858,,,TRUE,,,,,,,,,,,,,,,,,,,,,,,,,,,,METAR,50.0
EHKV 180725Z AUTO 03015KT 9999 NCD 07/06 Q1030,EHKV,2015-04-18T07:25:00Z,53.27,3.63,7.0,6.0,30,15,,6.21,30.413385,,,TRUE,,,,,,,,,,,,,,,,,,,,,,,,,,,,METAR,50.0
EHJA 180725Z AUTO 02014KT 9999 FEW011/// 07/04 Q1030,EHJA,2015-04-18T07:25:00Z,53.82,2.95,7.0,4.0,20,14,,6.21,30.413385,,,TRUE,,,,,,,,,,,,,,,,,,,,,,,,,,,,METAR,50.0
EHFZ 180725Z AUTO 03012KT 9999 FEW010/// 08/05 Q1030,EHFZ,2015-04-18T07:25:00Z,54.12,4.02,8.0,5.0,30,12,,6.21,30.413385,,,TRUE,,,,,,,,,,,,,,,,,,,,,,,,,,,,METAR,50.0
EHFD 180725Z AUTO 35010KT 310V070 9999 SCT014/// 07/03 Q1030,EHFD,2015-04-18T07:25:00Z,54.85,4.7,7.0,3.0,350,10,,6.21,30.413385,,,TRUE,,,,,,,,,,,,,,,,,,,,,,,,,,,,METAR,50.0
EHDV 180725Z AUTO 02011KT 9999 NSC 08/04 Q1030,EHDV,2015-04-18T07:25:00Z,54.32,2.93,8.0,4.0,20,11,,6.21,30.413385,,,TRUE,,,,,,,,,,,,,,,,,,,,,,,,,,,,METAR,50.0
EHAK 180725Z AUTO 36014KT 340V060 9999 OVC018/// 06/01 Q1030,EHAK,2015-04-18T07:25:00Z,55.42,3.82,6.0,1.0,360,14,,6.21,30.413385,,,TRUE,,,,,,,,,,,,,,,,,,,,,,,,,,,,METAR,50.0
OPLA 180725Z 35005KT 6000 FEW040 SCT100 34/16 Q1005,OPLA,2015-04-18T07:25:00Z,31.52,74.4,34.0,16.0,350,5,,3.73,29.675198,,,,,,,,,,,FEW,4000,SCT,10000,,,,,MVFR,,,,,,,,,,,,METAR,217.0
OPKC 180725Z 24013KT 7000 NSC 35/20 Q1007 NOSIG,OPKC,2015-04-18T07:25:00Z,24.88,67.17,35.0,20.0,240,13,,4.35,29.734253,,,,,,TRUE,,,,,,,,,,,,,,,,,,,,,,,,,METAR,22.0
KRWI 180725Z AUTO 00000KT 1 3/4SM BR CLR 17/17 A2998 RMK AO2 T01720167,KRWI,2015-04-18T07:25:00Z,35.85,-77.9,17.2,16.7,0,0,,1.75,29.97933,,,TRUE,TRUE,,,,,,BR,CLR,,,,,,,,IFR,,,,,,,,,,,,SPECI,47.0
KMGW 180725Z AUTO 00000KT 3/4SM BR VV002 12/09 A3003 RMK AO2 T01170094 TSNO,KMGW,2015-04-18T07:25:00Z,39.65,-79.92,11.7,9.4,0,0,,0.75,30.029528,,,TRUE,TRUE,,,TRUE,,,BR,OVX,0,,,,,,,LIFR,,,,,,,,,,,200,SPECI,378.0
KEWN 180725Z AUTO 00000KT 1 3/4SM BR CLR 18/17 A2997 RMK AO2 VIS 3/4V5 T01830172,KEWN,2015-04-18T07:25:00Z,35.07,-77.05,18.3,17.2,0,0,,1.75,29.970472,,,TRUE,TRUE,,,,,,BR,CLR,,,,,,,,IFR,,,,,,,,,,,,SPECI,3.0
EHRD 180725Z AUTO 06011KT 9999 NCD 08/04 Q1028 NOSIG,EHRD,2015-04-18T07:25:00Z,51.95,4.45,8.0,4.0,60,11,,6.21,30.35433,,,TRUE,,,TRUE,,,,,,,,,,,,,,,,,,,,,,,,,METAR,-5.0
EHGG 180725Z AUTO 03007KT 360V060 9999 NCD 09/04 Q1028 NOSIG,EHGG,2015-04-18T07:25:00Z,53.12,6.57,9.0,4.0,30,7,,6.21,30.35433,,,TRUE,,,TRUE,,,,,,,,,,,,,,,,,,,,,,,,,METAR,4.0
EHBK 180725Z AUTO 05008KT 020V090 9999 NCD 06/03 Q1026 NOSIG,EHBK,2015-04-18T07:25:00Z,50.92,5.77,6.0,3.0,50,8,,6.21,30.295275,,,TRUE,,,TRUE,,,,,,,,,,,,,,,,,,,,,,,,,METAR,116.0
EHAM 180725Z 07008KT 020V110 CAVOK 10/03 Q1028 NOSIG,EHAM,2015-04-18T07:25:00Z,52.32,4.78,10.0,3.0,70,8,,6.21,30.35433,,,,,,TRUE,,,,,CAVOK,,,,,,,,VFR,,,,,,,,,,,,METAR,9.0
KWLD 180725Z AUTO -TSRA BKN037 OVC050 17/16 A2995 RMK AO2 LTG DSNT N AND SE RAB07 TSB19 T01720156 PNO $,KWLD,2015-04-18T07:25:00Z,37.17,-97.03,17.2,15.6,,,,,29.949802,,,TRUE,TRUE,TRUE,,,,,-TSRA,BKN,3700,OVC,5000,,,,,,,,,,,,,,,,,SPECI,350.0
EHWO 180725Z AUTO 06008KT 9999 NCD 08/04 Q1027 BLU,EHWO,2015-04-18T07:25:00Z,51.45,4.32,8.0,4.0,60,8,,6.21,30.324802,,,TRUE,,,,,,,,,,,,,,,,,,,,,,,,,,,,METAR,17.0
EHVL 180725Z AUTO 02013KT 9999 FEW007 09/06 Q1029 BLU,EHVL,2015-04-18T07:25:00Z,53.23,4.92,9.0,6.0,20,13,,6.21,30.383858,,,TRUE,,,,,,,,FEW,700,,,,,,,VFR,,,,,,,,,,,,METAR,5.0
EHVK 180725Z AUTO 06008KT 9999 NCD 08/03 Q1028 BLU,EHVK,2015-04-18T07:25:00Z,51.63,5.7,8.0,3.0,60,8,,6.21,30.35433,,,TRUE,,,,,,,,,,,,,,,,,,,,,,,,,,,,METAR,21.0
EHLW 180725Z AUTO 03008KT 9999 BKN360 09/06 Q1029 BLU,EHLW,2015-04-18T07:25:00Z,53.22,5.75,9.0,6.0,30,8,,6.21,30.383858,,,TRUE,,,,,,,,BKN,36000,,,,,,,VFR,,,,,,,,,,,,METAR,2.0
EHKD 180725Z AUTO 03008KT 9999 SCT390 09/06 Q1029 BLU 03010KT CAVOK,EHKD,2015-04-18T07:25:00Z,52.92,4.77,9.0,6.0,30,8,,6.21,30.383858,,,TRUE,,,,,,,,SCT,39000,,,,,,,VFR,,,,,,,,,,,,METAR,14.0
EHGR 180725Z AUTO 06008KT 9999 FEW110 SCT190 BKN380 08/04 Q1028 BLU,EHGR,2015-04-18T07:25:00Z,51.57,4.92,8.0,4.0,60,8,,6.21,30.35433,,,TRUE,,,,,,,,FEW,11000,SCT,19000,BKN,38000,,,VFR,,,,,,,,,,,,METAR,13.0
CYNA 180725Z AUTO 36017G24KT 9SM OVC060 M03/M06 A2976 RMK SLP078,CYNA,2015-04-18T07:25:00Z,50.17,-61.82,-3.0,-6.0,360,17,24,9.0,29.760826,1007.8,,TRUE,,,,,,,,OVC,6000,,,,,,,VFR,,,,,,,,,,,,SPECI,11.0
CYAY 180725Z AUTO 03019G24KT 2SM -SN OVC024 M05/M06 A2972 RMK SLP065,CYAY,2015-04-18T07:25:00Z,51.38,-56.07,-5.0,-6.0,30,19,24,2.0,29.719488,1006.5,,TRUE,,,,,,,-SN,OVC,2400,,,,,,,IFR,,,,,,,,,,,,SPECI,28.0
EHDL 180725Z AUTO 05009KT 9999 NCD 08/02 Q1028 BLU,EHDL,2015-04-18T07:25:00Z,52.07,5.87,8.0,2.0,50,9,,6.21,30.35433,,,TRUE,,,,,,,,,,,,,,,,,,,,,,,,,,,,METAR,52.0
KFME 180724Z AUTO 00000KT 5SM CLR 12/11 A3001 RMK AO1,KFME,2015-04-18T07:24:00Z,39.08,-76.77,12.0,11.0,0,0,,5.0,30.008858,,,TRUE,TRUE,,,,,,,CLR,,,,,,,,MVFR,,,,,,,,,,,,METAR,46.0
KTDR 180724Z AUTO 00000KT 7/8SM BR FEW016 20/21 A2993 RMK AO2 VIS 7/8V2 TSNO $,KTDR,2015-04-18T07:24:00Z,30.05,-85.52,20.0,21.0,0,0,,0.88,29.929134,,,TRUE,TRUE,TRUE,,TRUE,,,BR,FEW,1600,,,,,,,LIFR,,,,,,,,,,,,SPECI,5.0
KLHW 180724Z AUTO 00000KT 10SM SCT002 BKN010 20/19 A2996 RMK AO2 RAE14DZB14E19 CIG 002V010,KLHW,2015-04-18T07:24:00Z,31.87,-81.57,20.0,19.0,0,0,,10.0,29.958662,,,TRUE,TRUE,,,,,,,SCT,200,BKN,1000,,,,,MVFR,,,,,,,,,,,,SPECI,14.0
GMFM 180724Z 00000KT 2000 BR BKN010 11/10 Q1018 B3,GMFM,2015-04-18T07:24:00Z,33.87,-5.52,11.0,10.0,0,0,,1.24,30.059055,,,,,,,,,,BR,BKN,1000,,,,,,,IFR,,,,,,,,,,,,METAR,549.0
TXKF 180724Z 16009KT 9000 -SHRA SCT015 BKN033 20/17 Q1018 ,TXKF,2015-04-18T07:24:00Z,32.37,-64.68,20.0,17.0,160,9,,5.59,30.059055,,,,,,,,,,-SHRA,SCT,1500,BKN,3300,,,,,VFR,,,,,,,,,,,,SPECI,6.0
KPHL 180724Z 00000KT 7SM BKN060 16/13 A2998 RMK AO2 T01560128 $,KPHL,2015-04-18T07:24:00Z,39.87,-75.23,15.6,12.8,0,0,,7.0,29.97933,,,,TRUE,TRUE,,,,,,BKN,6000,,,,,,,VFR,,,,,,,,,,,,SPECI,18.0
KCUB 180724Z AUTO 00000KT 6SM BR SCT006 OVC030 19/18 A3000 RMK AO2 T01890178,KCUB,2015-04-18T07:24:00Z,33.97,-81.0,18.9,17.8,0,0,,6.0,30.0,,,TRUE,TRUE,,,,,,BR,SCT,600,OVC,3000,,,,,MVFR,,,,,,,,,,,,SPECI,56.0
KAAF 180724Z AUTO 00000KT 10SM BKN011 BKN018 BKN035 24/22 A2993 RMK AO2 CIG 008V013 T02440217,KAAF,2015-04-18T07:24:00Z,29.73,-85.03,24.4,21.7,0,0,,10.0,29.929134,,,TRUE,TRUE,,,,,,,BKN,1100,BKN,1800,BKN,3500,,,MVFR,,,,,,,,,,,,SPECI,5.0
CYYU 180724Z 34014G23KT 7SM -RASG SCT007 OVC012 02/01 A2993 RMK SC4SC4 PRESRR SLP142,CYYU,2015-04-18T07:24:00Z,49.42,-82.47,2.0,1.0,340,14,23,7.0,29.929134,1014.2,,,,,,,,,-RA -SG,SCT,700,OVC,1200,,,,,MVFR,,,,,,,,,,,,SPECI,227.0
CYQW 180724Z AUTO 02009KT 9SM SCT055 BKN079 OVC093 08/06 A2989 RMK PRESFR SLP132,CYQW,2015-04-18T07:24:00Z,52.77,-108.25,8.0,6.0,20,9,,9.0,29.890747,1013.2,,TRUE,,,,,,,,SCT,5500,BKN,7900,OVC,9300,,,VFR,,,,,,,,,,,,SPECI,548.0
LIYW 180723Z AUTO 05006KT 9999 -RA OVC043 14/14 A2991 RMK AO2 RAE06DZB06E08RAB08E13DZB13E20RAB23,LIYW,2015-04-18T07:23:00Z,46.02,12.62,14.0,14.0,50,6,,6.21,29.911417,,,TRUE,TRUE,,,,,,-RA,OVC,4300,,,,,,,VFR,,,,,,,,,,,,METAR,126.0
KQYV 180723Z AUTO 29004KT 9999 FEW019 SCT022 BKN028 BKN055 06/00 A2977 RMK AO2 CIG 028V055,KQYV,2015-04-18T07:23:00Z,,,6.0,0.0,290,4,,6.21,29.769686,,,TRUE,TRUE,,,,,,,FEW,1900,SCT,2200,BKN,2800,BKN,5500,MVFR,,,,,,,,,,,,SPECI,
PAKF 180723Z AUTO 34004KT 6SM -RA BR OVC013 03/02 A2904 RMK AO2 P0001 $,PAKF,2015-04-18T07:23:00Z,54.85,-163.42,3.0,2.0,340,4,,6.0,29.040354,,,TRUE,TRUE,TRUE,,,,,-RA BR,OVC,1300,,,,,,,MVFR,,,,,,0.01,,,,,,SPECI,6.0
KRVS 180723Z AUTO 00000KT 10SM OVC046 18/17 A2993 RMK AO2 LTG DSNT W AND NW T01780167,KRVS,2015-04-18T07:23:00Z,36.05,-95.98,17.8,16.7,0,0,,10.0,29.929134,,,TRUE,TRUE,,,,,,,OVC,4600,,,,,,,VFR,,,,,,,,,,,,SPECI,200.0
KLCH 180723Z AUTO 34005KT 1 3/4SM VCTS +RA BR SCT036 BKN047 OVC060 19/19 A2994 RMK AO2 LTG DSNT ALQDS TSE06 P0030 T01940194,KLCH,2015-04-18T07:23:00Z,30.13,-93.22,19.4,19.4,340,5,,1.75,29.940945,,,TRUE,TRUE,,,,,,VCTS +RA BR,SCT,3600,BKN,4700,OVC,6000,,,IFR,,,,,,0.3,,,,,,SPECI,4.0
KEKQ 180723Z AUTO 00000KT M1/4SM FG CLR 12/12 A3007 RMK AO2,KEKQ,2015-04-18T07:23:00Z,36.85,-84.85,12.0,12.0,0,0,,0.25,30.070866,,,TRUE,TRUE,,,,,,FG,CLR,,,,,,,,LIFR,,,,,,,,,,,,SPECI,294.0
KCPR 180723Z AUTO 17005KT 3SM BR BKN002 OVC008 03/02 A3008 RMK AO2 T00280022,KCPR,2015-04-18T07:23:00Z,42.9,-106.47,2.8,2.2,170,5,,3.0,30.079725,,,TRUE,TRUE,,,,,,BR,BKN,200,OVC,800,,,,,LIFR,,,,,,,,,,,,SPECI,1621.0
KCEW 180723Z AUTO 00000KT 1/2SM FG VV001 19/19 A2994 RMK AO2 T01890189 $,KCEW,2015-04-18T07:23:00Z,30.78,-86.52,18.9,18.9,0,0,,0.5,29.940945,,,TRUE,TRUE,TRUE,,,,,FG,OVX,0,,,,,,,LIFR,,,,,,,,,,,100,SPECI,55.0
KAVL 180723Z AUTO 01003KT 9SM -RA OVC003 16/14 A3003 RMK AO2 RAB16 P0000 T01560144,KAVL,2015-04-18T07:23:00Z,35.43,-82.53,15.6,14.4,10,3,,9.0,30.029528,,,TRUE,TRUE,,,,,,-RA,OVC,300,,,,,,,LIFR,,,,,,0.0050,,,,,,SPECI,670.0
KRND 180723Z AUTO 05004KT 10SM BKN009 19/19 A2989 RMK AO2,KRND,2015-04-18T07:23:00Z,29.52,-98.27,19.0,19.0,50,4,,10.0,29.890747,,,TRUE,TRUE,,,,,,,BKN,900,,,,,,,IFR,,,,,,,,,,,,SPECI,232.0
CYMH 180723Z AUTO 01008KT 3SM -SN FEW008 OVC150 M07/M08 A2982 RMK SLP097,CYMH,2015-04-18T07:23:00Z,52.28,-55.85,-7.0,-8.0,10,8,,3.0,29.819881,1009.7,,TRUE,,,,,,,-SN,FEW,800,OVC,15000,,,,,MVFR,,,,,,,,,,,,METAR,11.0
PAEH 180722Z AUTO 05010KT 10SM OVC019 01/M01 A2928 RMK AO2 SLP925,PAEH,2015-04-18T07:22:00Z,58.65,-162.07,1.0,-1.0,50,10,,10.0,29.279528,992.5,,TRUE,TRUE,,,,,,,OVC,1900,,,,,,,MVFR,,,,,,,,,,,,SPECI,161.0
KSMQ 180722Z AUTO 00000KT 3SM BR BKN075 08/07 A2996 RMK AO2 T00780067 TSNO,KSMQ,2015-04-18T07:22:00Z,40.62,-74.67,7.8,6.7,0,0,,3.0,29.958662,,,TRUE,TRUE,,,TRUE,,,BR,BKN,7500,,,,,,,MVFR,,,,,,,,,,,,SPECI,30.0
KORE 180722Z AUTO 00000KT 10SM SCT002 02/02 A2994 RMK AO2 T00220017,KORE,2015-04-18T07:22:00Z,42.57,-72.28,2.2,1.7,0,0,,10.0,29.940945,,,TRUE,TRUE,,,,,,,SCT,200,,,,,,,VFR,,,,,,,,,,,,SPECI,164.0
KMQY 180722Z AUTO 00000KT 1/2SM FG BKN045 13/13 A3003 RMK AO2,KMQY,2015-04-18T07:22:00Z,36.02,-86.52,13.0,13.0,0,0,,0.5,30.029528,,,TRUE,TRUE,,,,,,FG,BKN,4500,,,,,,,LIFR,,,,,,,,,,,,SPECI,166.0
KEET 180722Z AUTO VRB03KT 6SM BR OVC004 17/16 A2996 RMK AO2 T01720161,KEET,2015-04-18T07:22:00Z,33.18,-86.78,17.2,16.1,0,3,,6.0,29.958662,,,TRUE,TRUE,,,,,,BR,OVC,400,,,,,,,LIFR,,,,,,,,,,,,SPECI,173.0
KBKB 180722Z AUTO 00000KT 3SM -RA BR OVC110 21/19 A2991 RMK AO2 P0001 T02110189,KBKB,2015-04-18T07:22:00Z,31.0,-92.92,21.1,18.9,0,0,,3.0,29.911417,,,TRUE,TRUE,,,,,,-RA BR,OVC,11000,,,,,,,MVFR,,,,,,0.01,,,,,,SPECI,94.0
YSDU 180722Z AUTO 26011KT 9999 // SCT015 BKN027 BKN038 18/17 Q1015,YSDU,2015-04-18T07:22:00Z,-32.22,148.57,18.0,17.0,260,11,,6.21,29.970472,,,TRUE,,,,,,,,SCT,1500,BKN,2700,BKN,3800,,,MVFR,,,,,,,,,,,,SPECI,275.0
YMAV 180721Z AUTO 24021KT 9999 // SCT054 OVC068 18/10 Q1011,YMAV,2015-04-18T07:21:00Z,-38.03,144.48,18.0,10.0,240,21,,6.21,29.852362,,,TRUE,,,,,,,,SCT,5400,OVC,6800,,,,,VFR,,,,,,,,,,,,SPECI,8.0
CYAT 180721Z AUTO 36006KT 9SM OVC005 M02/M02 A3005 RMK SLP177,CYAT,2015-04-18T07:21:00Z,52.93,-82.43,-2.0,-2.0,360,6,,9.0,30.050198,1017.7,,TRUE,,,,,,,,OVC,500,,,,,,,IFR,,,,,,,,,,,,SPECI,9.0
RJOZ 180721Z 20008KT 9999 FEW030 BKN080 BKN120 17/11 Q1016 RMK 1CU030 5AC080 7AC120 A3002,RJOZ,2015-04-18T07:21:00Z,34.03,131.05,17.0,11.0,200,8,,6.21,30.0,,,,,,,,,,,FEW,3000,BKN,8000,BKN,12000,,,VFR,,,,,,,,,,,,METAR,7.0
KQGX 180721Z AUTO 24005KT 9999 FEW200 36/10 A2986 RMK AO2 DZB13E21 CHINO RWY13 $,KQGX,2015-04-18T07:21:00Z,100.65,-1000.65,36.0,10.0,240,5,,6.21,29.861221,,,TRUE,TRUE,TRUE,,,,,,FEW,20000,,,,,,,VFR,,,,,,,,,,,,SPECI,999.0
KPOB 180721Z AUTO 21002KT 10SM CLR 19/17 A2996 RMK AO2,KPOB,2015-04-18T07:21:00Z,35.17,-79.02,19.0,17.0,210,2,,10.0,29.958662,,,TRUE,TRUE,,,,,,,CLR,,,,,,,,VFR,,,,,,,,,,,,SPECI,66.0
KWVI 180721Z AUTO 10003KT 6SM BR OVC004 11/09 A3009 RMK AO2 T01110094,KWVI,2015-04-18T07:21:00Z,36.93,-121.78,11.1,9.4,100,3,,6.0,30.088583,,,TRUE,TRUE,,,,,,BR,OVC,400,,,,,,,LIFR,,,,,,,,,,,,SPECI,43.0
KOGB 180721Z AUTO 33003KT 6SM -RA BR BKN005 BKN042 OVC110 19/18 A2997 RMK AO2 CIG 002V008 P0004 T01890178 $,KOGB,2015-04-18T07:21:00Z,33.47,-80.85,18.9,17.8,330,3,,6.0,29.970472,,,TRUE,TRUE,TRUE,,,,,-RA BR,BKN,500,BKN,4200,OVC,11000,,,IFR,,,,,,0.04,,,,,,SPECI,59.0
KGVL 180721Z AUTO 05004KT 5SM BR OVC005 17/16 A3002 RMK AO2 RAE03 P0000 T01670156,KGVL,2015-04-18T07:21:00Z,34.27,-83.83,16.7,15.6,50,4,,5.0,30.02067,,,TRUE,TRUE,,,,,,BR,OVC,500,,,,,,,IFR,,,,,,0.0050,,,,,,SPECI,386.0
TJNR 180721Z AUTO 10007KT 10SM BKN020 OVC090 25/22 A3003 RMK AO2 T02500222 $,TJNR,2015-04-18T07:21:00Z,18.25,-65.63,25.0,22.2,100,7,,10.0,30.029528,,,TRUE,TRUE,TRUE,,,,,,BKN,2000,OVC,9000,,,,,MVFR,,,,,,,,,,,,SPECI,12.0
EYVI 180720Z 35011KT 8000 OVC008 03/01 Q1011 NOSIG,EYVI,2015-04-18T07:20:00Z,54.63,25.28,3.0,1.0,350,11,,4.97,29.852362,,,,,,TRUE,,,,,OVC,800,,,,,,,IFR,,,,,,,,,,,,METAR,197.0
EYSA 180720Z 34012KT 9999 FEW012 BKN071 05/01 Q1014,EYSA,2015-04-18T07:20:00Z,55.9,23.4,5.0,1.0,340,12,,6.21,29.940945,,,,,,,,,,,FEW,1200,BKN,7100,,,,,VFR,,,,,,,,,,,,METAR,135.0
PKWA 180720Z AUTO 12014KT 10SM CLR 28/24 A2977 RMK AO2 T02810238,PKWA,2015-04-18T07:20:00Z,8.72,167.72,28.1,23.8,120,14,,10.0,29.769686,,,TRUE,TRUE,,,,,,,CLR,,,,,,,,VFR,,,,,,,,,,,,SPECI,8.0
VECC 180720Z 17013KT 6000 FEW020 35/23 Q1004 BECMG 5000 HZ,VECC,2015-04-18T07:20:00Z,22.65,88.43,35.0,23.0,170,13,,3.73,29.64567,,,,,,,,,,,FEW,2000,,,,,,,MVFR,,,,,,,,,,,,METAR,6.0
EETN 180720Z 03008KT 9999 FEW040 05/M03 Q1014 NOSIG,EETN,2015-04-18T07:20:00Z,59.4,24.82,5.0,-3.0,30,8,,6.21,29.940945,,,,,,TRUE,,,,,FEW,4000,,,,,,,VFR,,,,,,,,,,,,METAR,40.0
EYPA 180720Z 36006KT 330V030 9999 SCT009 BKN011 06/03 Q1017,EYPA,2015-04-18T07:20:00Z,55.97,21.08,6.0,3.0,360,6,,6.21,30.029528,,,,,,,,,,,SCT,900,BKN,1100,,,,,MVFR,,,,,,,,,,,,METAR,10.0
EYKA 180720Z 01005KT 280V060 9999 BKN010 OVC015 04/00 Q1013,EYKA,2015-04-18T07:20:00Z,54.97,24.08,4.0,0.0,10,5,,6.21,29.911417,,,,,,,,,,,BKN,1000,OVC,1500,,,,,MVFR,,,,,,,,,,,,METAR,77.0
EKVG 180720Z AUTO 30004KT 9999NDV BKN017/// 07/06 Q1032 RMK BKN022/// WIND 850FT 29010KT,EKVG,2015-04-18T07:20:00Z,62.07,-7.3,7.0,6.0,300,4,,,30.47244,,,TRUE,,,,,,,,,,,,,,,,,,,,,,,,,,,,SPECI,85.0
EVRA 180720Z 36012KT 9999 SCT011 BKN048 05/02 Q1014 NOSIG,EVRA,2015-04-18T07:20:00Z,56.92,23.97,5.0,2.0,360,12,,6.21,29.940945,,,,,,TRUE,,,,,SCT,1100,BKN,4800,,,,,VFR,,,,,,,,,,,,METAR,10.0
KGOO 180720Z AUTO 00000KT 10SM CLR 14/00 A3010 RMK AO1,KGOO,2015-04-18T07:20:00Z,39.22,-121.0,14.0,0.0,0,0,,10.0,30.100393,,,TRUE,TRUE,,,,,,,CLR,,,,,,,,VFR,,,,,,,,,,,,SPECI,962.0
KS39 180720Z AUTO 00000KT 10SM CLR 08/00 A3021 RMK AO2,KS39,2015-04-18T07:20:00Z,44.28,-120.9,8.0,0.0,0,0,,10.0,30.209646,,,TRUE,TRUE,,,,,,,CLR,,,,,,,,VFR,,,,,,,,,,,,SPECI,991.0
EGPU 180720Z AUTO 13007KT 9999 NCD 09/05 Q1032,EGPU,2015-04-18T07:20:00Z,56.5,-6.87,9.0,5.0,130,7,,6.21,30.47244,,,TRUE,,,,,,,,,,,,,,,,,,,,,,,,,,,,METAR,12.0
LGRX 180720Z 18005KT CAVOK 21/08 Q1018,LGRX,2015-04-18T07:20:00Z,38.17,21.42,21.0,8.0,180,5,,6.21,30.059055,,,,,,,,,,,CAVOK,,,,,,,,VFR,,,,,,,,,,,,METAR,15.0
ENVH 180720Z AUTO 34016KT 9999NDV BKN019/// 06/02 Q1030 W///S3,ENVH,2015-04-18T07:20:00Z,56.27,3.38,6.0,2.0,340,16,,,30.413385,,,TRUE,,,,,,,,,,,,,,,,,,,,,,,,,,,,METAR,4.0
LTFJ 180720Z 24019KT CAVOK 20/07 Q1013 NOSIG,LTFJ,2015-04-18T07:20:00Z,40.9,29.3,20.0,7.0,240,19,,6.21,29.911417,,,,,,TRUE,,,,,CAVOK,,,,,,,,VFR,,,,,,,,,,,,METAR,98.0
LTFE 180720Z 00000KT CAVOK 20/11 Q1021 BECMG TL0900 26012KT,LTFE,2015-04-18T07:20:00Z,37.25,27.67,20.0,11.0,0,0,,6.21,30.147638,,,,,,,,,,,CAVOK,,,,,,,,VFR,,,,,,,,,,,,SPECI,6.0
LTFC 180720Z 21005KT 170V240 CAVOK 14/04 Q1022,LTFC,2015-04-18T07:20:00Z,37.87,30.38,14.0,4.0,210,5,,6.21,30.177166,,,,,,,,,,,CAVOK,,,,,,,,VFR,,,,,,,,,,,,METAR,864.0
LTCS 180720Z 25006KT 200V300 CAVOK 18/11 Q1021,LTCS,2015-04-18T07:20:00Z,37.45,38.9,18.0,11.0,250,6,,6.21,30.147638,,,,,,,,,,,CAVOK,,,,,,,,VFR,,,,,,,,,,,,METAR,825.0
LTCG 180720Z 09005KT CAVOK 19/08 Q1012 NOSIG,LTCG,2015-04-18T07:20:00Z,41.0,39.8,19.0,8.0,90,5,,6.21,29.88189,,,,,,TRUE,,,,,CAVOK,,,,,,,,VFR,,,,,,,,,,,,METAR,30.0
LTBS 180720Z 23004KT 190V260 CAVOK 19/10 Q1022 NOSIG,LTBS,2015-04-18T07:20:00Z,36.7,28.77,19.0,10.0,230,4,,6.21,30.177166,,,,,,TRUE,,,,,CAVOK,,,,,,,,VFR,,,,,,,,,,,,METAR,2.0
LTBR 180720Z 26002KT CAVOK 17/11 Q1014 NOSIG,LTBR,2015-04-18T07:20:00Z,40.25,29.57,17.0,11.0,260,2,,6.21,29.940945,,,,,,TRUE,,,,,CAVOK,,,,,,,,VFR,,,,,,,,,,,,METAR,232.0
LTBJ 180720Z 16009KT 9999 FEW030 BKN200 17/11 Q1019 NOSIG,LTBJ,2015-04-18T07:20:00Z,38.28,27.15,17.0,11.0,160,9,,6.21,30.088583,,,,,,TRUE,,,,,FEW,3000,BKN,20000,,,,,VFR,,,,,,,,,,,,METAR,120.0
LTBA 180720Z 21011KT CAVOK 16/09 Q1014 NOSIG,LTBA,2015-04-18T07:20:00Z,40.97,28.82,16.0,9.0,210,11,,6.21,29.940945,,,,,,TRUE,,,,,CAVOK,,,,,,,,VFR,,,,,,,,,,,,METAR,37.0
LTAZ 180720Z 29006KT 260V350 CAVOK 18/01 Q1019,LTAZ,2015-04-18T07:20:00Z,38.77,34.55,18.0,1.0,290,6,,6.21,30.088583,,,,,,,,,,,CAVOK,,,,,,,,VFR,,,,,,,,,,,,METAR,945.0
LTAJ 180720Z 25009KT 220V280 CAVOK 20/05 Q1020 NOSIG,LTAJ,2015-04-18T07:20:00Z,36.95,37.48,20.0,5.0,250,9,,6.21,30.11811,,,,,,TRUE,,,,,CAVOK,,,,,,,,VFR,,,,,,,,,,,,METAR,855.0
LTAI 180720Z 06004KT 340V130 9999 SCT030 BKN100 19/12 Q1022 NOSIG,LTAI,2015-04-18T07:20:00Z,36.9,30.8,19.0,12.0,60,4,,6.21,30.177166,,,,,,TRUE,,,,,SCT,3000,BKN,10000,,,,,VFR,,,,,,,,,,,,METAR,54.0
LTAF 180720Z 16003KT 100V210 9999 SCT040 19/12 Q1021 NOSIG,LTAF,2015-04-18T07:20:00Z,36.97,35.28,19.0,12.0,160,3,,6.21,30.147638,,,,,,TRUE,,,,,SCT,4000,,,,,,,VFR,,,,,,,,,,,,METAR,20.0
LTAC 180720Z 23018KT 9999 FEW040 SCT200 15/04 Q1017 NOSIG,LTAC,2015-04-18T07:20:00Z,40.12,32.97,15.0,4.0,230,18,,6.21,30.029528,,,,,,TRUE,,,,,FEW,4000,SCT,20000,,,,,VFR,,,,,,,,,,,,METAR,949.0
ENSL 180720Z 32013KT 9999 BKN035 08/05 Q1031 W06/S3,ENSL,2015-04-18T07:20:00Z,58.37,1.9,8.0,5.0,320,13,,6.21,30.442913,,,,,,,,,,,BKN,3500,,,,,,,VFR,,,,,,,,,,,,METAR,50.0
LCEN 180720Z 00000KT CAVOK 21/10 Q1022 NOSIG,LCEN,2015-04-18T07:20:00Z,35.13,33.5,21.0,10.0,0,0,,6.21,30.177166,,,,,,TRUE,,,,,CAVOK,,,,,,,,VFR,,,,,,,,,,,,METAR,91.0
LTCJ 180720Z 27003KT 210V340 CAVOK 17/09 Q1019,LTCJ,2015-04-18T07:20:00Z,37.93,41.12,17.0,9.0,270,3,,6.21,30.088583,,,,,,,,,,,CAVOK,,,,,,,,VFR,,,,,,,,,,,,METAR,540.0
LTCC 180720Z VRB03KT CAVOK 18/11 Q1019 NOSIG,LTCC,2015-04-18T07:20:00Z,37.87,40.2,18.0,11.0,0,3,,6.21,30.088583,,,,,,TRUE,,,,,CAVOK,,,,,,,,VFR,,,,,,,,,,,,METAR,677.0
LTBU 180720Z 21014KT CAVOK 18/11 Q1014,LTBU,2015-04-18T07:20:00Z,41.12,27.92,18.0,11.0,210,14,,6.21,29.940945,,,,,,,,,,,CAVOK,,,,,,,,VFR,,,,,,,,,,,,METAR,173.0
LTAU 180720Z 00000KT 9999 FEW040 16/08 Q1019 NOSIG,LTAU,2015-04-18T07:20:00Z,38.77,35.47,16.0,8.0,0,0,,6.21,30.088583,,,,,,TRUE,,,,,FEW,4000,,,,,,,VFR,,,,,,,,,,,,METAR,1054.0
LTAT 180720Z VRB02KT CAVOK 18/09 Q1019 NOSIG,LTAT,2015-04-18T07:20:00Z,38.42,38.07,18.0,9.0,0,2,,6.21,30.088583,,,,,,TRUE,,,,,CAVOK,,,,,,,,VFR,,,,,,,,,,,,METAR,849.0
LTAP 180720Z 22014KT CAVOK 19/06 Q1014 NOSIG,LTAP,2015-04-18T07:20:00Z,40.83,35.52,19.0,6.0,220,14,,6.21,29.940945,,,,,,TRUE,,,,,CAVOK,,,,,,,,VFR,,,,,,,,,,,,METAR,535.0
LTAG 180720Z 14003KT 9999 SCT035 19/12 Q1022 NOSIG,LTAG,2015-04-18T07:20:00Z,37.0,35.42,19.0,12.0,140,3,,6.21,30.177166,,,,,,TRUE,,,,,SCT,3500,,,,,,,VFR,,,,,,,,,,,,METAR,66.0
ETHS 180720Z 03004KT 9999 FEW240 07/02 Q1027 BLU+,ETHS,2015-04-18T07:20:00Z,52.92,10.18,7.0,2.0,30,4,,6.21,30.324802,,,,,,,,,,,FEW,24000,,,,,,,VFR,,,,,,,,,,,,METAR,88.0
EGPI 180720Z /////KT CAVOK 08/04 Q1032,EGPI,2015-04-18T07:20:00Z,55.68,-6.25,8.0,4.0,,,,6.21,30.47244,,,,,,,,,,,CAVOK,,,,,,,,VFR,,,,,,,,,,,,METAR,18.0
EGBE 180720Z 04013KT 9999 FEW016 06/04 Q1030,EGBE,2015-04-18T07:20:00Z,52.37,-1.47,6.0,4.0,40,13,,6.21,30.413385,,,,,,,,,,,FEW,1600,,,,,,,VFR,,,,,,,,,,,,METAR,82.0
EGJA 180720Z 08019KT 9999 FEW015 09/06 Q1022,EGJA,2015-04-18T07:20:00Z,49.72,-2.2,9.0,6.0,80,19,,6.21,30.177166,,,,,,,,,,,FEW,1500,,,,,,,VFR,,,,,,,,,,,,METAR,71.0
LGLM 180720Z 20013G23KT 9999 FEW018 SCT080 BKN180 18/14 Q1014,LGLM,2015-04-18T07:20:00Z,39.92,25.23,18.0,14.0,200,13,23,6.21,29.940945,,,,,,,,,,,FEW,1800,SCT,8000,BKN,18000,,,VFR,,,,,,,,,,,,METAR,5.0
ESGP 180720Z 26005KT CAVOK 08/03 Q1025,ESGP,2015-04-18T07:20:00Z,57.77,11.87,8.0,3.0,260,5,,6.21,30.265747,,,,,,,,,,,CAVOK,,,,,,,,VFR,,,,,,,,,,,,METAR,53.0
EFKT 180720Z AUTO 36004KT 320V060 9999 FEW021 OVC040 04/00 Q1015,EFKT,2015-04-18T07:20:00Z,67.7,24.85,4.0,0.0,360,4,,6.21,29.970472,,,TRUE,,,,,,,,FEW,2100,OVC,4000,,,,,VFR,,,,,,,,,,,,SPECI,643.0
EFKS 180720Z AUTO 29002KT 2700 -SHRA OVC008 01/M01 Q1013,EFKS,2015-04-18T07:20:00Z,66.0,29.23,1.0,-1.0,290,2,,1.68,29.911417,,,TRUE,,,,,,,-SHRA,OVC,800,,,,,,,IFR,,,,,,,,,,,,SPECI,263.0
EFKI 180720Z AUTO 34004KT 310V030 9999 OVC029 03/M01 Q1014,EFKI,2015-04-18T07:20:00Z,64.27,27.67,3.0,-1.0,340,4,,6.21,29.940945,,,TRUE,,,,,,,,OVC,2900,,,,,,,MVFR,,,,,,,,,,,,SPECI,136.0
EFKE 180720Z AUTO 36004KT 320V030 CAVOK 04/00 Q1016,EFKE,2015-04-18T07:20:00Z,65.77,24.57,4.0,0.0,360,4,,6.21,30.0,,,TRUE,,,,,,,,CAVOK,,,,,,,,VFR,,,,,,,,,,,,SPECI,15.0
EFIV 180720Z AUTO 32006KT 290V010 9999 OVC036 03/M01 Q1015,EFIV,2015-04-18T07:20:00Z,68.62,27.42,3.0,-1.0,320,6,,6.21,29.970472,,,TRUE,,,,,,,,OVC,3600,,,,,,,VFR,,,,,,,,,,,,SPECI,148.0
EFET 180720Z VRB01KT 9999 FEW039 04/M02 Q1015,EFET,2015-04-18T07:20:00Z,68.37,23.43,4.0,-2.0,0,1,,6.21,29.970472,,,,,,,,,,,FEW,3900,,,,,,,VFR,,,,,,,,,,,,SPECI,306.0
EGBJ 180720Z 06006KT 010V090 9999 FEW027 07/03 Q1028,EGBJ,2015-04-18T07:20:00Z,51.9,-2.17,7.0,3.0,60,6,,6.21,30.35433,,,,,,,,,,,FEW,2700,,,,,,,VFR,,,,,,,,,,,,METAR,29.0
LGMK 180720Z 20007KT CAVOK 17/12 Q1018,LGMK,2015-04-18T07:20:00Z,37.43,25.35,17.0,12.0,200,7,,6.21,30.059055,,,,,,,,,,,CAVOK,,,,,,,,VFR,,,,,,,,,,,,METAR,123.0
LGKP 180720Z 22011KT 9999 FEW010 SCT018 16/12 Q1021,LGKP,2015-04-18T07:20:00Z,35.42,27.15,16.0,12.0,220,11,,6.21,30.147638,,,,,,,,,,,FEW,1000,SCT,1800,,,,,VFR,,,,,,,,,,,,METAR,20.0
LGBL 180720Z 12005KT CAVOK 19/07 Q1015,LGBL,2015-04-18T07:20:00Z,39.22,22.8,19.0,7.0,120,5,,6.21,29.970472,,,,,,,,,,,CAVOK,,,,,,,,VFR,,,,,,,,,,,,METAR,26.0
LGTS 180720Z VRB02KT CAVOK 21/05 Q1013 NOSIG,LGTS,2015-04-18T07:20:00Z,40.52,22.97,21.0,5.0,0,2,,6.21,29.911417,,,,,,TRUE,,,,,CAVOK,,,,,,,,VFR,,,,,,,,,,,,METAR,7.0
LGSA 180720Z 15004KT CAVOK 22/08 Q1019,LGSA,2015-04-18T07:20:00Z,35.53,24.13,22.0,8.0,150,4,,6.21,30.088583,,,,,,,,,,,CAVOK,,,,,,,,VFR,,,,,,,,,,,,METAR,135.0
LGKO 180720Z 15011KT 9999 FEW020 SCT180 18/13 Q1021,LGKO,2015-04-18T07:20:00Z,36.8,27.08,18.0,13.0,150,11,,6.21,30.147638,,,,,,,,,,,FEW,2000,SCT,18000,,,,,VFR,,,,,,,,,,,,METAR,125.0
LGKL 180720Z 00000KT CAVOK 18/08 Q1020,LGKL,2015-04-18T07:20:00Z,37.07,22.02,18.0,8.0,0,0,,6.21,30.11811,,,,,,,,,,,CAVOK,,,,,,,,VFR,,,,,,,,,,,,METAR,8.0
LGAD 180720Z 00000KT CAVOK 17/07 Q1018,LGAD,2015-04-18T07:20:00Z,37.92,21.27,17.0,7.0,0,0,,6.21,30.059055,,,,,,,,,,,CAVOK,,,,,,,,VFR,,,,,,,,,,,,METAR,12.0
LGSR 180720Z 23016KT 9999 SCT020 SCT180 21/07 Q1019,LGSR,2015-04-18T07:20:00Z,36.4,25.48,21.0,7.0,230,16,,6.21,30.088583,,,,,,,,,,,SCT,2000,SCT,18000,,,,,VFR,,,,,,,,,,,,METAR,40.0
LGPZ 180720Z 06007KT 9999 FEW030 17/10 Q1018,LGPZ,2015-04-18T07:20:00Z,38.92,20.77,17.0,10.0,60,7,,6.21,30.059055,,,,,,,,,,,FEW,3000,,,,,,,VFR,,,,,,,,,,,,METAR,4.0
LGMT 180720Z 15010KT 120V220 9999 FEW020 BKN180 18/11 Q1018,LGMT,2015-04-18T07:20:00Z,39.05,26.6,18.0,11.0,150,10,,6.21,30.059055,,,,,,,,,,,FEW,2000,BKN,18000,,,,,VFR,,,,,,,,,,,,METAR,17.0
LGKV 180720Z 10004KT 9999 FEW008 BKN180 14/13 Q1013,LGKV,2015-04-18T07:20:00Z,40.92,24.62,14.0,13.0,100,4,,6.21,29.911417,,,,,,,,,,,FEW,800,BKN,18000,,,,,VFR,,,,,,,,,,,,METAR,5.0
LGIO 180720Z 11004KT 070V150 CAVOK 16/04 Q1017,LGIO,2015-04-18T07:20:00Z,39.7,20.82,16.0,4.0,110,4,,6.21,30.029528,,,,,,,,,,,CAVOK,,,,,,,,VFR,,,,,,,,,,,,METAR,476.0
LGEL 180720Z 21004KT CAVOK 20/05 Q1017,LGEL,2015-04-18T07:20:00Z,38.07,23.55,20.0,5.0,210,4,,6.21,30.029528,,,,,,,,,,,CAVOK,,,,,,,,VFR,,,,,,,,,,,,METAR,31.0
LGAL 180720Z 20011KT 9999 FEW018 17/13 Q1013,LGAL,2015-04-18T07:20:00Z,40.85,25.95,17.0,13.0,200,11,,6.21,29.911417,,,,,,,,,,,FEW,1800,,,,,,,VFR,,,,,,,,,,,,METAR,3.0
LIML 180720Z 11004KT 070V150 7000 NSC 14/13 Q1013 NOSIG,LIML,2015-04-18T07:20:00Z,45.47,9.27,14.0,13.0,110,4,,4.35,29.911417,,,,,,TRUE,,,,,,,,,,,,,,,,,,,,,,,,,METAR,103.0
LIEE 180720Z 30009KT CAVOK 14/12 Q1017,LIEE,2015-04-18T07:20:00Z,39.25,9.07,14.0,12.0,300,9,,6.21,30.029528,,,,,,,,,,,CAVOK,,,,,,,,VFR,,,,,,,,,,,,METAR,4.0
ETSN 180720Z AUTO 01009KT //// // ////// 06/M01 Q1022 ///,ETSN,2015-04-18T07:20:00Z,48.72,11.22,6.0,-1.0,10,9,,,30.177166,,,TRUE,,,,,,,,,,,,,,,,,,,,,,,,,,,,METAR,387.0
ETSL 180720Z 02008KT 9999 FEW010 BKN050 06/M00 Q1021 BLU,ETSL,2015-04-18T07:20:00Z,48.17,10.87,6.0,0.0,20,8,,6.21,30.147638,,,,,,,,,,,FEW,1000,BKN,5000,,,,,VFR,,,,,,,,,,,,METAR,562.0
ETSI 180720Z AUTO 02008KT 4900 // ////// 07/M00 Q1022 ///,ETSI,2015-04-18T07:20:00Z,48.72,11.52,7.0,0.0,20,8,,3.04,30.177166,,,TRUE,,,,,,,,,,,,,,,,,,,,,,,,,,,,METAR,370.0
ETSB 180720Z AUTO 07009KT 9000 // ////// 06/M00 Q1024 ///,ETSB,2015-04-18T07:20:00Z,50.17,7.07,6.0,0.0,70,9,,5.59,30.236221,,,TRUE,,,,,,,,,,,,,,,,,,,,,,,,,,,,METAR,486.0
ETSA 180720Z AUTO 03007KT 9999 // ////// 05/00 Q1021 ///,ETSA,2015-04-18T07:20:00Z,48.07,10.9,5.0,0.0,30,7,,6.21,30.147638,,,TRUE,,,,,,,,,,,,,,,,,,,,,,,,,,,,METAR,628.0
ETNN 180720Z AUTO 03001KT 8000 // ////// 07/01 Q1026 ///,ETNN,2015-04-18T07:20:00Z,50.82,6.67,7.0,1.0,30,1,,4.97,30.295275,,,TRUE,,,,,,,,,,,,,,,,,,,,,,,,,,,,METAR,135.0
ETHN 180720Z 04005KT 9999 FEW020 05/M00 Q1023 BLU+,ETHN,2015-04-18T07:20:00Z,49.38,9.97,5.0,0.0,40,5,,6.21,30.206694,,,,,,,,,,,FEW,2000,,,,,,,VFR,,,,,,,,,,,,METAR,473.0
ETHL 180720Z 06012KT 9999 FEW050 SCT280 06/00 Q1021 BLU+,ETHL,2015-04-18T07:20:00Z,48.22,9.92,6.0,0.0,60,12,,6.21,30.147638,,,,,,,,,,,FEW,5000,SCT,28000,,,,,VFR,,,,,,,,,,,,METAR,549.0
ETHA 180720Z AUTO 07009KT //// // ////// 04/00 Q1021 ///,ETHA,2015-04-18T07:20:00Z,47.82,10.87,4.0,0.0,70,9,,,30.147638,,,TRUE,,,,,,,,,,,,,,,,,,,,,,,,,,,,METAR,760.0
ETWM 180720Z AUTO 02005KT 9999 // ////// 08/04 Q1028 ///,ETWM,2015-04-18T07:20:00Z,52.72,7.33,8.0,4.0,20,5,,6.21,30.35433,,,TRUE,,,,,,,,,,,,,,,,,,,,,,,,,,,,METAR,21.0
ETSH 180720Z 35006KT 9999 FEW018 06/01 Q1025 BLU+,ETSH,2015-04-18T07:20:00Z,51.77,13.17,6.0,1.0,350,6,,6.21,30.265747,,,,,,,,,,,FEW,1800,,,,,,,VFR,,,,,,,,,,,,METAR,79.0
ETNW 180720Z AUTO VRB02KT 9000 // ////// 07/02 Q1027 ///,ETNW,2015-04-18T07:20:00Z,52.45,9.42,7.0,2.0,0,2,,5.59,30.324802,,,TRUE,,,,,,,,,,,,,,,,,,,,,,,,,,,,METAR,70.0
ETNT 180720Z 02004KT 9999 FEW016 08/04 Q1028 BLU+,ETNT,2015-04-18T07:20:00Z,53.53,7.67,8.0,4.0,20,4,,6.21,30.35433,,,,,,,,,,,FEW,1600,,,,,,,VFR,,,,,,,,,,,,METAR,12.0
ETNS 180720Z AUTO 03006KT 9000 // ////// 08/02 Q1027 ///,ETNS,2015-04-18T07:20:00Z,54.47,9.52,8.0,2.0,30,6,,5.59,30.324802,,,TRUE,,,,,,,,,,,,,,,,,,,,,,,,,,,,METAR,25.0
ETNL 180720Z 36008KT 9999 FEW018 07/01 Q1025 BLU+,ETNL,2015-04-18T07:20:00Z,53.92,12.27,7.0,1.0,360,8,,6.21,30.265747,,,,,,,,,,,FEW,1800,,,,,,,VFR,,,,,,,,,,,,METAR,40.0
ETNH 180720Z 07006KT 9999 SCT200 09/01 Q1027 BLU+BLU+,ETNH,2015-04-18T07:20:00Z,54.32,9.55,9.0,1.0,70,6,,6.21,30.324802,,,,,,,,,,,SCT,20000,,,,,,,VFR,,,,,,,,,,,,METAR,17.0
ETMN 180720Z 05006KT 9999 FEW210 08/03 Q1028 BLU+,ETMN,2015-04-18T07:20:00Z,53.77,8.67,8.0,3.0,50,6,,6.21,30.35433,,,,,,,,,,,FEW,21000,,,,,,,VFR,,,,,,,,,,,,METAR,31.0
ETML 180720Z AUTO 36008KT //// // ////// 07/03 Q1027 ///,ETML,2015-04-18T07:20:00Z,,,7.0,3.0,360,8,,,30.324802,,,TRUE,,,,,,,,,,,,,,,,,,,,,,,,,,,,METAR,
ETHF 180720Z 36004KT 9999 SCT021 07/02 Q1026 BLU+,ETHF,2015-04-18T07:20:00Z,51.12,9.27,7.0,2.0,360,4,,6.21,30.295275,,,,,,,,,,,SCT,2100,,,,,,,VFR,,,,,,,,,,,,METAR,181.0
ETHE 180720Z AUTO 36003KT //// // ////// 08/02 Q1027 ///,ETHE,2015-04-18T07:20:00Z,52.28,7.37,8.0,2.0,360,3,,,30.324802,,,TRUE,,,,,,,,,,,,,,,,,,,,,,,,,,,,METAR,49.0
ETHC 180720Z 03005KT 9999 FEW250 07/02 Q1027 BLU+,ETHC,2015-04-18T07:20:00Z,52.6,10.02,7.0,2.0,30,5,,6.21,30.324802,,,,,,,,,,,FEW,25000,,,,,,,VFR,,,,,,,,,,,,METAR,52.0
ETHB 180720Z 05002KT 9999 FEW020 07/02 Q1027 BLU+,ETHB,2015-04-18T07:20:00Z,52.27,9.07,7.0,2.0,50,2,,6.21,30.324802,,,,,,,,,,,FEW,2000,,,,,,,VFR,,,,,,,,,,,,METAR,78.0
ETGG 180720Z VRB02KT 9999 FEW100 07/02 Q1027 BLU+,ETGG,2015-04-18T07:20:00Z,54.83,9.5,7.0,2.0,0,2,,6.21,30.324802,,,,,,,,,,,FEW,10000,,,,,,,VFR,,,,,,,,,,,,METAR,33.0
ENNA 180720Z 18008KT 9999 FEW009 OVC021 04/02 Q1015 RMK WIND 1800FT 28014KT,ENNA,2015-04-18T07:20:00Z,70.07,24.97,4.0,2.0,180,8,,6.21,29.970472,,,,,,,,,,,FEW,900,OVC,2100,,,,,MVFR,,,,,,,,,,,,METAR,8.0
ENML 180720Z VRB02KT 9999 FEW030 BKN050 06/03 Q1029,ENML,2015-04-18T07:20:00Z,62.75,7.27,6.0,3.0,0,2,,6.21,30.383858,,,,,,,,,,,FEW,3000,BKN,5000,,,,,VFR,,,,,,,,,,,,METAR,3.0
ENKR 180720Z 34005KT 9999 SCT049 04/M01 Q1014 RMK WIND 731FT 32005KT,ENKR,2015-04-18T07:20:00Z,69.72,29.88,4.0,-1.0,340,5,,6.21,29.940945,,,,,,,,,,,SCT,4900,,,,,,,VFR,,,,,,,,,,,,METAR,91.0
ENKB 180720Z 24009KT 9999 FEW016 BKN051 06/01 Q1028,ENKB,2015-04-18T07:20:00Z,63.12,7.82,6.0,1.0,240,9,,6.21,30.35433,,,,,,,,,,,FEW,1600,BKN,5100,,,,,VFR,,,,,,,,,,,,METAR,62.0
ENFL 180720Z 06005KT 010V110 CAVOK 06/01 Q1030,ENFL,2015-04-18T07:20:00Z,61.57,5.02,6.0,1.0,60,5,,6.21,30.413385,,,,,,,,,,,CAVOK,,,,,,,,VFR,,,,,,,,,,,,METAR,9.0
ENFB 180720Z AUTO 31015KT 9999NDV OVC041/// 09/07 Q1031 W///S/,ENFB,2015-04-18T07:20:00Z,61.2,1.83,9.0,7.0,310,15,,,30.442913,,,TRUE,,,,,,,,,,,,,,,,,,,,,,,,,,,,METAR,10.0
ENHE 180720Z 27025KT 9999 FEW010 BKN039 07/06 Q1022 W///S4,ENHE,2015-04-18T07:20:00Z,65.33,2.33,7.0,6.0,270,25,,6.21,30.177166,,,,,,,,,,,FEW,1000,BKN,3900,,,,,VFR,,,,,,,,,,,,METAR,1.0
ENGC 180720Z 32013KT 9999 BKN040 08/07 Q1030 W06/S3,ENGC,2015-04-18T07:20:00Z,61.02,2.02,8.0,7.0,320,13,,6.21,30.413385,,,,,,,,,,,BKN,4000,,,,,,,VFR,,,,,,,,,,,,METAR,10.0
ENDR 180720Z AUTO 24024KT 07/06 Q1025,ENDR,2015-04-18T07:20:00Z,64.35,7.8,7.0,6.0,240,24,,,30.265747,,,TRUE,,,,,,,,,,,,,,,,,,,,,,,,,,,,METAR,50.0
EGNT 180720Z VRB02KT 9999 FEW012 06/06 Q1032,EGNT,2015-04-18T07:20:00Z,55.02,-1.7,6.0,6.0,0,2,,6.21,30.47244,,,,,,,,,,,FEW,1200,,,,,,,VFR,,,,,,,,,,,,METAR,81.0
EFVR 180720Z AUTO 9999 OVC041 ///// Q////,EFVR,2015-04-18T07:20:00Z,62.17,27.87,,,,,,6.21,,,,TRUE,,,,,,,,OVC,4100,,,,,,,VFR,,,,,,,,,,,,METAR,87.0
EFUT 180720Z AUTO 35009KT 310V020 CAVOK 04/M06 Q1014,EFUT,2015-04-18T07:20:00Z,60.88,26.92,4.0,-6.0,350,9,,6.21,29.940945,,,TRUE,,,,,,,,CAVOK,,,,,,,,VFR,,,,,,,,,,,,METAR,100.0
EFSA 180720Z AUTO 31007KT 270V350 9999 BKN042 03/M03 Q1013,EFSA,2015-04-18T07:20:00Z,61.95,28.93,3.0,-3.0,310,7,,6.21,29.911417,,,TRUE,,,,,,,,BKN,4200,,,,,,,VFR,,,,,,,,,,,,METAR,95.0
EFMI 180720Z AUTO 33003KT 9999 OVC038 03/M03 Q1014,EFMI,2015-04-18T07:20:00Z,61.68,27.2,3.0,-3.0,330,3,,6.21,29.940945,,,TRUE,,,,,,,,OVC,3800,,,,,,,VFR,,,,,,,,,,,,METAR,138.0
EFLP 180720Z AUTO 03009KT 360V060 9999 FEW029 SCT033 03/M04 Q1013,EFLP,2015-04-18T07:20:00Z,61.07,28.13,3.0,-4.0,30,9,,6.21,29.911417,,,TRUE,,,,,,,,FEW,2900,SCT,3300,,,,,VFR,,,,,,,,,,,,METAR,106.0
EFJO 180720Z AUTO 34009KT 280V020 CAVOK 03/M03 Q1012,EFJO,2015-04-18T07:20:00Z,62.67,29.62,3.0,-3.0,340,9,,6.21,29.88189,,,TRUE,,,,,,,,CAVOK,,,,,,,,VFR,,,,,,,,,,,,METAR,117.0
ENLA 180720Z AUTO 36017KT 9999NDV BKN027/// 08/03 Q1030 W///S3,ENLA,2015-04-18T07:20:00Z,59.1,2.83,8.0,3.0,360,17,,,30.413385,,,TRUE,,,,,,,,,,,,,,,,,,,,,,,,,,,,METAR,4.0
ENHM 180720Z 34011KT 9999 BKN040 07/03 Q1031 W08/S3,ENHM,2015-04-18T07:20:00Z,59.57,2.23,7.0,3.0,340,11,,6.21,30.442913,,,,,,,,,,,BKN,4000,,,,,,,VFR,,,,,,,,,,,,METAR,10.0
ENQA 180720Z AUTO 34010KT 9999NDV BKN045/// 06/04 Q1030 W04/S3,ENQA,2015-04-18T07:20:00Z,60.65,3.72,6.0,4.0,340,10,,,30.413385,,,TRUE,,,,,,,,,,,,,,,,,,,,,,,,,,,,METAR,20.0
ENQC 180720Z AUTO 32008KT 9999NDV BKN047/// 08/03 Q1030 W///S3,ENQC,2015-04-18T07:20:00Z,60.88,3.62,8.0,3.0,320,8,,,30.413385,,,TRUE,,,,,,,,,,,,,,,,,,,,,,,,,,,,METAR,20.0
ENSE 180720Z AUTO 30013KT 9999NDV OVC043/// 08/06 Q1030 W///S3,ENSE,2015-04-18T07:20:00Z,61.45,2.15,8.0,6.0,300,13,,,30.413385,,,TRUE,,,,,,,,,,,,,,,,,,,,,,,,,,,,METAR,10.0
ENQR 180720Z AUTO 28010KT 9999NDV OVC043/// 08/06 Q1030 W///S3,ENQR,2015-04-18T07:20:00Z,61.35,2.22,8.0,6.0,280,10,,,30.413385,,,TRUE,,,,,,,,,,,,,,,,,,,,,,,,,,,,METAR,10.0
ENNE 180720Z 27022KT 9999 VCSH FEW015 SCT040 06/05 Q1021 W///S4,ENNE,2015-04-18T07:20:00Z,66.03,8.08,6.0,5.0,270,22,,6.21,30.147638,,,,,,,,,,VCSH,FEW,1500,SCT,4000,,,,,VFR,,,,,,,,,,,,METAR,10.0
ENNM 180720Z 25007KT 9999 -RADZ FEW013 SCT015 BKN022 05/03 Q1025,ENNM,2015-04-18T07:20:00Z,64.47,11.57,5.0,3.0,250,7,,6.21,30.265747,,,,,,,,,,-RA -DZ,FEW,1300,SCT,1500,BKN,2200,,,MVFR,,,,,,,,,,,,METAR,2.0
ENZV 180720Z 35012KT 9999 BKN006 05/05 Q1028 TEMPO BKN012,ENZV,2015-04-18T07:20:00Z,58.87,5.62,5.0,5.0,350,12,,6.21,30.35433,,,,,,,,,,,BKN,600,,,,,,,IFR,,,,,,,,,,,,METAR,9.0
ENVA 180720Z 26007KT 9999 BKN020 BKN210 05/02 Q1027 NOSIG RMK WIND 670FT 27012KT,ENVA,2015-04-18T07:20:00Z,63.47,10.92,5.0,2.0,260,7,,6.21,30.324802,,,,,,TRUE,,,,,BKN,2000,BKN,21000,,,,,MVFR,,,,,,,,,,,,METAR,17.0
ENOL 180720Z 25011KT 9999 FEW014 BKN030 06/03 Q1027 NOSIG,ENOL,2015-04-18T07:20:00Z,63.7,9.58,6.0,3.0,250,11,,6.21,30.324802,,,,,,TRUE,,,,,FEW,1400,BKN,3000,,,,,MVFR,,,,,,,,,,,,METAR,7.0
ENGM 180720Z 00000KT CAVOK 04/M02 Q1024 NOSIG,ENGM,2015-04-18T07:20:00Z,60.2,11.1,4.0,-2.0,0,0,,6.21,30.236221,,,,,,TRUE,,,,,CAVOK,,,,,,,,VFR,,,,,,,,,,,,METAR,204.0
ENDU 180720Z 23006KT 9999 FEW020 BKN035 05/M00 Q1018 NOSIG,ENDU,2015-04-18T07:20:00Z,69.03,18.55,5.0,0.0,230,6,,6.21,30.059055,,,,,,TRUE,,,,,FEW,2000,BKN,3500,,,,,VFR,,,,,,,,,,,,METAR,79.0
ENBO 180720Z 21013KT 9999 -RA FEW009 BKN020 05/04 Q1020 TEMPO BKN012,ENBO,2015-04-18T07:20:00Z,67.27,14.37,5.0,4.0,210,13,,6.21,30.11811,,,,,,,,,,-RA,FEW,900,BKN,2000,,,,,MVFR,,,,,,,,,,,,METAR,13.0
ENBR 180720Z 34009KT 9999 FEW007 SCT010 05/04 Q1029 NOSIG RMK WIND 1200FT 35014KT,ENBR,2015-04-18T07:20:00Z,60.28,5.22,5.0,4.0,340,9,,6.21,30.383858,,,,,,TRUE,,,,,FEW,700,SCT,1000,,,,,VFR,,,,,,,,,,,,METAR,50.0
ENAN 180720Z 22013KT 9999 FEW015 BKN02505/03 Q1017 NOSIG,ENAN,2015-04-18T07:20:00Z,69.28,16.13,5.0,3.0,220,13,,6.21,30.029528,,,,,,TRUE,,,,,FEW,1500,,,,,,,VFR,,,,,,,,,,,,METAR,14.0
ENTO 180720Z 20003KT 130V230 CAVOK 09/M00 Q1025,ENTO,2015-04-18T07:20:00Z,59.2,10.27,9.0,0.0,200,3,,6.21,30.265747,,,,,,,,,,,CAVOK,,,,,,,,VFR,,,,,,,,,,,,METAR,88.0
ENTC 180720Z 19012KT 9999 SCT011 BKN025 04/01 Q1017 TEMPO 4000 RADZ BKN010 RMK WIND 2600FT 20013KT,ENTC,2015-04-18T07:20:00Z,69.68,18.92,4.0,1.0,190,12,,6.21,30.029528,,,,,,,,,,,SCT,1100,BKN,2500,,,,,MVFR,,,1.3,,,,,,,,,METAR,10.0
ENRY 180720Z 31003KT 260V020 CAVOK 08/00 Q1025,ENRY,2015-04-18T07:20:00Z,59.37,10.77,8.0,0.0,310,3,,6.21,30.265747,,,,,,,,,,,CAVOK,,,,,,,,VFR,,,,,,,,,,,,METAR,53.0
ENRO 180720Z AUTO VRB06KT 9999NDV BKN021/// OVC025/// 01/M03 Q1024,ENRO,2015-04-18T07:20:00Z,62.57,11.33,1.0,-3.0,0,6,,,30.236221,,,TRUE,,,,,,,,,,,,,,,,,,,,,,,,,,,,METAR,626.0
ENHD 180720Z 36011KT 9999 FEW011 SCT200 06/04 Q1028,ENHD,2015-04-18T07:20:00Z,59.35,5.22,6.0,4.0,360,11,,6.21,30.35433,,,,,,,,,,,FEW,1100,SCT,20000,,,,,VFR,,,,,,,,,,,,METAR,24.0
ENCN 180720Z VRB02KT CAVOK 06/M00 Q1026,ENCN,2015-04-18T07:20:00Z,58.2,8.07,6.0,0.0,0,2,,6.21,30.295275,,,,,,,,,,,CAVOK,,,,,,,,VFR,,,,,,,,,,,,METAR,17.0
ENAL 180720Z 15008G20KT 9999 BKN040 06/03 Q1029,ENAL,2015-04-18T07:20:00Z,62.57,6.12,6.0,3.0,150,8,20,6.21,30.383858,,,,,,,,,,,BKN,4000,,,,,,,VFR,,,,,,,,,,,,METAR,22.0
EDJA 180720Z 07009KT 9999 FEW020 05/00 Q1021,EDJA,2015-04-18T07:20:00Z,47.98,10.23,5.0,0.0,70,9,,6.21,30.147638,,,,,,,,,,,FEW,2000,,,,,,,VFR,,,,,,,,,,,,METAR,633.0
EDHK 180720Z 36008KT CAVOK 07/04 Q1027,EDHK,2015-04-18T07:20:00Z,54.38,10.15,7.0,4.0,360,8,,6.21,30.324802,,,,,,,,,,,CAVOK,,,,,,,,VFR,,,,,,,,,,,,METAR,31.0
EDAH 180720Z 36010KT 330V030 9999 BKN038 06/01 Q1024,EDAH,2015-04-18T07:20:00Z,53.87,14.15,6.0,1.0,360,10,,6.21,30.236221,,,,,,,,,,,BKN,3800,,,,,,,VFR,,,,,,,,,,,,METAR,28.0
ENSD 180720Z 15008KT 9999 FEW015 SCT038 05/02 Q1030 RMK WIND 1138FT 18008KT,ENSD,2015-04-18T07:20:00Z,61.82,6.12,5.0,2.0,150,8,,6.21,30.413385,,,,,,,,,,,FEW,1500,SCT,3800,,,,,VFR,,,,,,,,,,,,METAR,60.0
LGRP 180720Z 11006KT 9999 FEW018 18/11 Q1020 NOSIG,LGRP,2015-04-18T07:20:00Z,36.4,28.08,18.0,11.0,110,6,,6.21,30.11811,,,,,,TRUE,,,,,FEW,1800,,,,,,,VFR,,,,,,,,,,,,METAR,5.0
LGKR 180720Z 13007KT 9999 BKN035 18/11 Q1017 NOSIG,LGKR,2015-04-18T07:20:00Z,39.62,19.92,18.0,11.0,130,7,,6.21,30.029528,,,,,,TRUE,,,,,BKN,3500,,,,,,,VFR,,,,,,,,,,,,METAR,2.0
LGIR 180720Z 16014KT CAVOK 21/08 Q1020 NOSIG,LGIR,2015-04-18T07:20:00Z,35.32,25.17,21.0,8.0,160,14,,6.21,30.11811,,,,,,TRUE,,,,,CAVOK,,,,,,,,VFR,,,,,,,,,,,,METAR,39.0
LGAV 180720Z 17014KT 9999 FEW025 19/07 Q1017 NOSIG,LGAV,2015-04-18T07:20:00Z,37.93,23.95,19.0,7.0,170,14,,6.21,30.029528,,,,,,TRUE,,,,,FEW,2500,,,,,,,VFR,,,,,,,,,,,,METAR,94.0
EDLV 180720Z 05004KT 350V110 CAVOK 07/03 Q1028,EDLV,2015-04-18T07:20:00Z,51.6,6.15,7.0,3.0,50,4,,6.21,30.35433,,,,,,,,,,,CAVOK,,,,,,,,VFR,,,,,,,,,,,,METAR,32.0
EDFM 180720Z 36007KT CAVOK 09/01 Q1024,EDFM,2015-04-18T07:20:00Z,49.47,8.52,9.0,1.0,360,7,,6.21,30.236221,,,,,,,,,,,CAVOK,,,,,,,,VFR,,,,,,,,,,,,METAR,100.0
EDFE 180720Z 02009KT CAVOK 08/01 Q1025,EDFE,2015-04-18T07:20:00Z,49.97,8.63,8.0,1.0,20,9,,6.21,30.265747,,,,,,,,,,,CAVOK,,,,,,,,VFR,,,,,,,,,,,,METAR,118.0
EDGS 180720Z 07010KT 040V100 9999 SCT015 05/02 Q1024,EDGS,2015-04-18T07:20:00Z,50.7,8.08,5.0,2.0,70,10,,6.21,30.236221,,,,,,,,,,,SCT,1500,,,,,,,VFR,,,,,,,,,,,,METAR,602.0
ENST 180720Z 20008KT 9999 -SHRA FEW007 SCT012 BKN020 05/04 Q1022 RMK WIND 300FT 20009KT,ENST,2015-04-18T07:20:00Z,65.97,12.47,5.0,4.0,200,8,,6.21,30.177166,,,,,,,,,,-SHRA,FEW,700,SCT,1200,BKN,2000,,,MVFR,,,0.9,,,,,,,,,METAR,17.0
ENRM 180720Z 25013KT 9999 FEW005 SCT020 BKN038 06/04 Q1024,ENRM,2015-04-18T07:20:00Z,64.83,11.13,6.0,4.0,250,13,,6.21,30.236221,,,,,,,,,,,FEW,500,SCT,2000,BKN,3800,,,VFR,,,,,,,,,,,,METAR,14.0
LIMW 180720Z AUTO VRB02KT 9999 FEW082 SCT110 11/07 Q1013,LIMW,2015-04-18T07:20:00Z,45.73,7.37,11.0,7.0,0,2,,6.21,29.911417,,,TRUE,,,,,,,,FEW,8200,SCT,11000,,,,,VFR,,,,,,,,,,,,METAR,546.0
LIRQ 180720Z VRB02KT 8000 -DZ BKN018 OVC070 14/12 Q1014 REDZ,LIRQ,2015-04-18T07:20:00Z,43.78,11.18,14.0,12.0,0,2,,4.97,29.940945,,,,,,,,,,-DZ,BKN,1800,OVC,7000,,,,,MVFR,,,,,,,,,,,,METAR,38.0
LIRN 180720Z 20005KT 160V240 8000 FEW020 BKN040 18/14 Q1015,LIRN,2015-04-18T07:20:00Z,40.88,14.3,18.0,14.0,200,5,,4.97,29.970472,,,,,,,,,,,FEW,2000,BKN,4000,,,,,MVFR,,,,,,,,,,,,METAR,72.0
LIRF 180720Z 16005KT 110V200 9999 SCT010 SCT015 17/14 Q1015 NOSIG,LIRF,2015-04-18T07:20:00Z,41.78,12.22,17.0,14.0,160,5,,6.21,29.970472,,,,,,TRUE,,,,,SCT,1000,SCT,1500,,,,,VFR,,,,,,,,,,,,METAR,3.0
LIMJ 180720Z 11004KT 080V140 9999 FEW013 SCT030 BKN070 16/13 Q1013,LIMJ,2015-04-18T07:20:00Z,44.42,8.83,16.0,13.0,110,4,,6.21,29.911417,,,,,,,,,,,FEW,1300,SCT,3000,BKN,7000,,,VFR,,,,,,,,,,,,METAR,3.0
LIMF 180720Z VRB01KT 6000 NSC 14/10 Q1012,LIMF,2015-04-18T07:20:00Z,45.22,7.65,14.0,10.0,0,1,,3.73,29.88189,,,,,,,,,,,,,,,,,,,,,,,,,,,,,,,METAR,287.0
LIME 180720Z 00000KT 9999 BKN025 13/10 Q1013,LIME,2015-04-18T07:20:00Z,45.67,9.68,13.0,10.0,0,0,,6.21,29.911417,,,,,,,,,,,BKN,2500,,,,,,,MVFR,,,,,,,,,,,,METAR,237.0
LIMC 180720Z VRB01KT CAVOK 15/10 Q1013 NOSIG,LIMC,2015-04-18T07:20:00Z,45.62,8.72,15.0,10.0,0,1,,6.21,29.911417,,,,,,TRUE,,,,,CAVOK,,,,,,,,VFR,,,,,,,,,,,,METAR,211.0
LIEO 180720Z 23013KT CAVOK 18/11 Q1015,LIEO,2015-04-18T07:20:00Z,40.88,9.52,18.0,11.0,230,13,,6.21,29.970472,,,,,,,,,,,CAVOK,,,,,,,,VFR,,,,,,,,,,,,METAR,13.0
LIEA 180720Z 19007KT 9999 FEW015 16/14 Q1016,LIEA,2015-04-18T07:20:00Z,40.62,8.27,16.0,14.0,190,7,,6.21,30.0,,,,,,,,,,,FEW,1500,,,,,,,VFR,,,,,,,,,,,,METAR,23.0
LIPZ 180720Z 29005KT 260V330 3000 BR BKN004 13/12 Q1012,LIPZ,2015-04-18T07:20:00Z,45.5,12.35,13.0,12.0,290,5,,1.86,29.88189,,,,,,,,,,BR,BKN,400,,,,,,,LIFR,,,,,,,,,,,,METAR,6.0
LIPQ 180720Z VRB01KT 9000 FEW030 SCT045 BKN060 13/12 Q1012,LIPQ,2015-04-18T07:20:00Z,45.82,13.47,13.0,12.0,0,1,,5.59,29.88189,,,,,,,,,,,FEW,3000,SCT,4500,BKN,6000,,,VFR,,,,,,,,,,,,METAR,12.0
LIPE 180720Z VRB02KT 9999 BKN060 16/12 Q1013,LIPE,2015-04-18T07:20:00Z,44.52,11.3,16.0,12.0,0,2,,6.21,29.911417,,,,,,,,,,,BKN,6000,,,,,,,VFR,,,,,,,,,,,,METAR,42.0
LICJ 180720Z 02008KT CAVOK 17/15 Q1016,LICJ,2015-04-18T07:20:00Z,38.17,13.08,17.0,15.0,20,8,,6.21,30.0,,,,,,,,,,,CAVOK,,,,,,,,VFR,,,,,,,,,,,,METAR,34.0
LICC 180720Z 23004KT 200V260 CAVOK 16/09 Q1014,LICC,2015-04-18T07:20:00Z,37.47,15.05,16.0,9.0,230,4,,6.21,29.940945,,,,,,,,,,,CAVOK,,,,,,,,VFR,,,,,,,,,,,,METAR,17.0
LIBD 180720Z VRB01KT CAVOK 20/10 Q1013,LIBD,2015-04-18T07:20:00Z,41.12,16.77,20.0,10.0,0,1,,6.21,29.911417,,,,,,,,,,,CAVOK,,,,,,,,VFR,,,,,,,,,,,,METAR,44.0
ELLX 180720Z 05011KT CAVOK 07/01 Q1023 NOSIG,ELLX,2015-04-18T07:20:00Z,49.63,6.2,7.0,1.0,50,11,,6.21,30.206694,,,,,,TRUE,,,,,CAVOK,,,,,,,,VFR,,,,,,,,,,,,METAR,379.0
EBOS 180720Z 07011KT CAVOK 08/04 Q1028 NOSIG,EBOS,2015-04-18T07:20:00Z,51.2,2.87,8.0,4.0,70,11,,6.21,30.35433,,,,,,TRUE,,,,,CAVOK,,,,,,,,VFR,,,,,,,,,,,,METAR,5.0
EBLG 180720Z 05006KT CAVOK 07/02 Q1026 NOSIG,EBLG,2015-04-18T07:20:00Z,50.63,5.45,7.0,2.0,50,6,,6.21,30.295275,,,,,,TRUE,,,,,CAVOK,,,,,,,,VFR,,,,,,,,,,,,METAR,178.0
EBCI 180720Z 05010KT CAVOK 06/01 Q1026 NOSIG,EBCI,2015-04-18T07:20:00Z,50.47,4.45,6.0,1.0,50,10,,6.21,30.295275,,,,,,TRUE,,,,,CAVOK,,,,,,,,VFR,,,,,,,,,,,,METAR,192.0
EBBR 180720Z 06005KT 040V100 CAVOK 06/03 Q1027 NOSIG,EBBR,2015-04-18T07:20:00Z,50.9,4.5,6.0,3.0,60,5,,6.21,30.324802,,,,,,TRUE,,,,,CAVOK,,,,,,,,VFR,,,,,,,,,,,,METAR,58.0
EBAW 180720Z 08006KT CAVOK 08/04 Q1028 NOSIG,EBAW,2015-04-18T07:20:00Z,51.2,4.47,8.0,4.0,80,6,,6.21,30.35433,,,,,,TRUE,,,,,CAVOK,,,,,,,,VFR,,,,,,,,,,,,METAR,14.0
ENRA 180720Z 25002KT 9999 -RADZ FEW008 SCT014 BKN020 03/02 Q1021,ENRA,2015-04-18T07:20:00Z,66.37,14.3,3.0,2.0,250,2,,6.21,30.147638,,,,,,,,,,-RA -DZ,FEW,800,SCT,1400,BKN,2000,,,MVFR,,,,,,,,,,,,METAR,70.0
ENBN 180720Z 24008KT 9999 VCSH FEW009 SCT023 BKN028 06/04 Q1023,ENBN,2015-04-18T07:20:00Z,65.47,12.22,6.0,4.0,240,8,,6.21,30.206694,,,,,,,,,,VCSH,FEW,900,SCT,2300,BKN,2800,,,MVFR,,,,,,,,,,,,METAR,9.0
LOWK 180720Z 08008KT 9999 FEW004 BKN075 09/06 Q1015 NOSIG,LOWK,2015-04-18T07:20:00Z,46.65,14.32,9.0,6.0,80,8,,6.21,29.970472,,,,,,TRUE,,,,,FEW,400,BKN,7500,,,,,VFR,,,,,,,,,,,,METAR,441.0
LOWG 180720Z 20004KT 170V230 9999 FEW007 SCT012 OVC022 07/05 Q1017 NOSIG,LOWG,2015-04-18T07:20:00Z,47.0,15.42,7.0,5.0,200,4,,6.21,30.029528,,,,,,TRUE,,,,,FEW,700,SCT,1200,OVC,2200,,,MVFR,,,,,,,,,,,,METAR,347.0
LOWI 180720Z 06004KT 020V110 9999 FEW010 SCT015 BKN030 06/04 Q1019 NOSIG,LOWI,2015-04-18T07:20:00Z,47.27,11.33,6.0,4.0,60,4,,6.21,30.088583,,,,,,TRUE,,,,,FEW,1000,SCT,1500,BKN,3000,,,MVFR,,,,,,,,,,,,METAR,581.0
LOWS 180720Z 31007KT 9999 FEW010 SCT025 BKN036 05/03 Q1021 NOSIG,LOWS,2015-04-18T07:20:00Z,47.78,13.02,5.0,3.0,310,7,,6.21,30.147638,,,,,,TRUE,,,,,FEW,1000,SCT,2500,BKN,3600,,,VFR,,,,,,,,,,,,METAR,450.0
LOWL 180720Z 30007KT 9999 FEW040 SCT070 07/01 Q1021 NOSIG,LOWL,2015-04-18T07:20:00Z,48.22,14.18,7.0,1.0,300,7,,6.21,30.147638,,,,,,TRUE,,,,,FEW,4000,SCT,7000,,,,,VFR,,,,,,,,,,,,METAR,313.0
LOWW 180720Z 33011KT 9999 FEW035 SCT220 BKN300 07/02 Q1018 NOSIG,LOWW,2015-04-18T07:20:00Z,48.12,16.57,7.0,2.0,330,11,,6.21,30.059055,,,,,,TRUE,,,,,FEW,3500,SCT,22000,BKN,30000,,,VFR,,,,,,,,,,,,METAR,190.0
EFSI 180720Z AUTO 31007KT 270V360 9999 FEW037 BKN065 03/01 Q1017,EFSI,2015-04-18T07:20:00Z,62.7,22.83,3.0,1.0,310,7,,6.21,30.029528,,,TRUE,,,,,,,,FEW,3700,BKN,6500,,,,,VFR,,,,,,,,,,,,METAR,91.0
EFPO 180720Z AUTO 02005KT 340V100 CAVOK 05/M02 Q1017,EFPO,2015-04-18T07:20:00Z,61.47,21.8,5.0,-2.0,20,5,,6.21,30.029528,,,TRUE,,,,,,,,CAVOK,,,,,,,,VFR,,,,,,,,,,,,METAR,17.0
EFMA 180720Z AUTO 35013KT CAVOK 06/02 Q1017,EFMA,2015-04-18T07:20:00Z,60.12,19.88,6.0,2.0,350,13,,6.21,30.029528,,,TRUE,,,,,,,,CAVOK,,,,,,,,VFR,,,,,,,,,,,,METAR,6.0
EFKK 180720Z AUTO 35005KT 310V020 9999 BKN046 04/M00 Q1017,EFKK,2015-04-18T07:20:00Z,63.72,23.13,4.0,0.0,350,5,,6.21,30.029528,,,TRUE,,,,,,,,BKN,4600,,,,,,,VFR,,,,,,,,,,,,METAR,25.0
EFHF 180720Z 34007KT 310V020 9999 FEW030 BKN047 05/M02 Q1015,EFHF,2015-04-18T07:20:00Z,60.25,25.05,5.0,-2.0,340,7,,6.21,29.970472,,,,,,,,,,,FEW,3000,BKN,4700,,,,,VFR,,,,,,,,,,,,METAR,28.0
EFHA 180720Z AUTO 35008KT 9999 FEW016 OVC037 02/M01 Q1015,EFHA,2015-04-18T07:20:00Z,61.85,24.8,2.0,-1.0,350,8,,6.21,29.970472,,,TRUE,,,,,,,,FEW,1600,OVC,3700,,,,,VFR,,,,,,,,,,,,METAR,145.0
EGPO 180720Z VRB02KT 9999 FEW000 SCT002 BKN004 08/05 Q1033,EGPO,2015-04-18T07:20:00Z,58.22,-6.32,8.0,5.0,0,2,,6.21,30.501968,,,,,,,,,,,FEW,0,SCT,200,BKN,400,,,LIFR,,,,,,,,,,,,METAR,13.0
EGPM 180720Z AUTO 28005KT 260V320 9999 OVC039/// 09/08 Q1032,EGPM,2015-04-18T07:20:00Z,60.42,-1.3,9.0,8.0,280,5,,6.21,30.47244,,,TRUE,,,,,,,,,,,,,,,,,,,,,,,,,,,,METAR,22.0
EGPL 180720Z 08003KT 9999 FEW035 09/08 Q1033,EGPL,2015-04-18T07:20:00Z,57.47,-7.37,9.0,8.0,80,3,,6.21,30.501968,,,,,,,,,,,FEW,3500,,,,,,,VFR,,,,,,,,,,,,METAR,6.0
EGPC 180720Z AUTO 00000KT 0750 FG FEW000/// 05/05 Q1033,EGPC,2015-04-18T07:20:00Z,58.45,-3.07,5.0,5.0,0,0,,0.47,30.501968,,,TRUE,,,,,,,FG,,,,,,,,,,,,,,,,,,,,,METAR,39.0
EGPA 180720Z 02001KT CAVOK 08/07 Q1033,EGPA,2015-04-18T07:20:00Z,58.95,-2.88,8.0,7.0,20,1,,6.21,30.501968,,,,,,,,,,,CAVOK,,,,,,,,VFR,,,,,,,,,,,,METAR,21.0
EGCC 180720Z 07007KT 9999 FEW032 07/02 Q1031 NOSIG,EGCC,2015-04-18T07:20:00Z,53.35,-2.27,7.0,2.0,70,7,,6.21,30.442913,,,,,,TRUE,,,,,FEW,3200,,,,,,,VFR,,,,,,,,,,,,METAR,78.0
EGSS 180720Z 06012KT 9999 FEW006 06/05 Q1028,EGSS,2015-04-18T07:20:00Z,51.88,0.22,6.0,5.0,60,12,,6.21,30.35433,,,,,,,,,,,FEW,600,,,,,,,VFR,,,,,,,,,,,,METAR,106.0
EGPK 180720Z 00000KT 9999 FEW020 06/02 Q1033,EGPK,2015-04-18T07:20:00Z,55.5,-4.57,6.0,2.0,0,0,,6.21,30.501968,,,,,,,,,,,FEW,2000,,,,,,,VFR,,,,,,,,,,,,METAR,20.0
EGPH 180720Z 30002KT 9999 FEW010 BKN019 06/04 Q1034,EGPH,2015-04-18T07:20:00Z,55.95,-3.35,6.0,4.0,300,2,,6.21,30.531496,,,,,,,,,,,FEW,1000,BKN,1900,,,,,MVFR,,,,,,,,,,,,METAR,41.0
EGPF 180720Z AUTO 10004KT 070V140 9999 OVC012 06/04 Q1034,EGPF,2015-04-18T07:20:00Z,55.87,-4.42,6.0,4.0,100,4,,6.21,30.531496,,,TRUE,,,,,,,,OVC,1200,,,,,,,MVFR,,,,,,,,,,,,METAR,8.0
EGLL 180720Z 07009KT 9999 FEW020 07/03 Q1028,EGLL,2015-04-18T07:20:00Z,51.48,-0.45,7.0,3.0,70,9,,6.21,30.35433,,,,,,,,,,,FEW,2000,,,,,,,VFR,,,,,,,,,,,,METAR,24.0
EGKK 180720Z 05010KT 9999 FEW012 07/05 Q1027,EGKK,2015-04-18T07:20:00Z,51.13,-0.17,7.0,5.0,50,10,,6.21,30.324802,,,,,,,,,,,FEW,1200,,,,,,,VFR,,,,,,,,,,,,METAR,62.0
EGBB 180720Z 05011KT 9999 SCT012 06/03 Q1029,EGBB,2015-04-18T07:20:00Z,52.47,-1.75,6.0,3.0,50,11,,6.21,30.383858,,,,,,,,,,,SCT,1200,,,,,,,VFR,,,,,,,,,,,,METAR,99.0
EGPD 180720Z 30001KT CAVOK 04/03 Q1033 NOSIG,EGPD,2015-04-18T07:20:00Z,57.2,-2.22,4.0,3.0,300,1,,6.21,30.501968,,,,,,TRUE,,,,,CAVOK,,,,,,,,VFR,,,,,,,,,,,,METAR,65.0
EGNX 180720Z 05012KT CAVOK 06/04 Q1030,EGNX,2015-04-18T07:20:00Z,52.82,-1.32,6.0,4.0,50,12,,6.21,30.413385,,,,,,,,,,,CAVOK,,,,,,,,VFR,,,,,,,,,,,,METAR,94.0
EGNM 180720Z 06008KT 020V110 9999 FEW014 05/04 Q1031,EGNM,2015-04-18T07:20:00Z,53.87,-1.63,5.0,4.0,60,8,,6.21,30.442913,,,,,,,,,,,FEW,1400,,,,,,,VFR,,,,,,,,,,,,METAR,208.0
EGLC 180720Z 07013KT 9999 FEW012 08/04 Q1028,EGLC,2015-04-18T07:20:00Z,51.5,0.05,8.0,4.0,70,13,,6.21,30.35433,,,,,,,,,,,FEW,1200,,,,,,,VFR,,,,,,,,,,,,METAR,5.0
EGGW 180720Z 05009KT 010V090 CAVOK 06/04 Q1028,EGGW,2015-04-18T07:20:00Z,51.87,-0.37,6.0,4.0,50,9,,6.21,30.35433,,,,,,,,,,,CAVOK,,,,,,,,VFR,,,,,,,,,,,,METAR,160.0
EGFF 180720Z AUTO 07018KT 9999 BKN017 06/02 Q1027,EGFF,2015-04-18T07:20:00Z,51.38,-3.35,6.0,2.0,70,18,,6.21,30.324802,,,TRUE,,,,,,,,BKN,1700,,,,,,,MVFR,,,,,,,,,,,,METAR,67.0
EGAC 180720Z 07012KT 9999 FEW011 SCT025 07/03 Q1032,EGAC,2015-04-18T07:20:00Z,54.62,-5.87,7.0,3.0,70,12,,6.21,30.47244,,,,,,,,,,,FEW,1100,SCT,2500,,,,,VFR,,,,,,,,,,,,METAR,5.0
EGAA 180720Z 07008KT 9999 FEW008 BKN013 06/05 Q1031,EGAA,2015-04-18T07:20:00Z,54.63,-6.22,6.0,5.0,70,8,,6.21,30.442913,,,,,,,,,,,FEW,800,BKN,1300,,,,,MVFR,,,,,,,,,,,,METAR,81.0
EGPB 180720Z 25002KT 9999 FEW009 BKN040 08/07 Q1033 NOSIG,EGPB,2015-04-18T07:20:00Z,59.87,-1.3,8.0,7.0,250,2,,6.21,30.501968,,,,,,TRUE,,,,,FEW,900,BKN,4000,,,,,VFR,,,,,,,,,,,,METAR,5.0
EGSH 180720Z 05010KT 9999 FEW007 08/06 Q1030 NOSIG,EGSH,2015-04-18T07:20:00Z,52.68,1.28,8.0,6.0,50,10,,6.21,30.413385,,,,,,TRUE,,,,,FEW,700,,,,,,,VFR,,,,,,,,,,,,METAR,36.0
EGNV 180720Z VRB02KT 9999 FEW030 05/04 Q1032,EGNV,2015-04-18T07:20:00Z,54.52,-1.42,5.0,4.0,0,2,,6.21,30.47244,,,,,,,,,,,FEW,3000,,,,,,,VFR,,,,,,,,,,,,METAR,37.0
EGNS 180720Z 09015KT 9999 FEW020 07/02 Q1031 NOSIG,EGNS,2015-04-18T07:20:00Z,54.08,-4.63,7.0,2.0,90,15,,6.21,30.442913,,,,,,TRUE,,,,,FEW,2000,,,,,,,VFR,,,,,,,,,,,,METAR,17.0
EGHI 180720Z 05008KT 010V110 9999 FEW018 07/03 Q1027,EGHI,2015-04-18T07:20:00Z,50.95,-1.35,7.0,3.0,50,8,,6.21,30.324802,,,,,,,,,,,FEW,1800,,,,,,,VFR,,,,,,,,,,,,METAR,14.0
EGGP 180720Z 08009KT CAVOK 07/03 Q1031,EGGP,2015-04-18T07:20:00Z,53.32,-2.85,7.0,3.0,80,9,,6.21,30.442913,,,,,,,,,,,CAVOK,,,,,,,,VFR,,,,,,,,,,,,METAR,26.0
EGGD 180720Z 07015KT 9999 SCT011 05/02 Q1027,EGGD,2015-04-18T07:20:00Z,51.37,-2.72,5.0,2.0,70,15,,6.21,30.324802,,,,,,,,,,,SCT,1100,,,,,,,VFR,,,,,,,,,,,,METAR,189.0
EGSC 180720Z 04005KT 360V090 9999 FEW005 05/04 Q1029,EGSC,2015-04-18T07:20:00Z,52.2,0.17,5.0,4.0,40,5,,6.21,30.383858,,,,,,,,,,,FEW,500,,,,,,,VFR,,,,,,,,,,,,METAR,15.0
EGCN 180720Z 01006KT CAVOK 06/05 Q1033,EGCN,2015-04-18T07:20:00Z,53.48,-1.0,6.0,5.0,10,6,,6.21,30.501968,,,,,,,,,,,CAVOK,,,,,,,,VFR,,,,,,,,,,,,METAR,17.0
ESSL 180720Z AUTO 32008KT 9999NDV NCD 06/01 Q1022,ESSL,2015-04-18T07:20:00Z,58.38,15.67,6.0,1.0,320,8,,,30.177166,,,TRUE,,,,,,,,,,,,,,,,,,,,,,,,,,,,METAR,52.0
ESPE 180720Z AUTO 29006KT 9999 OVC050/// 04/M01 Q1018,ESPE,2015-04-18T07:20:00Z,65.88,20.15,4.0,-1.0,290,6,,6.21,30.059055,,,TRUE,,,,,,,,,,,,,,,,,,,,,,,,,,,,METAR,182.0
ESPA 180720Z 32008KT CAVOK 04/M00 Q1017,ESPA,2015-04-18T07:20:00Z,65.53,22.12,4.0,0.0,320,8,,6.21,30.029528,,,,,,,,,,,CAVOK,,,,,,,,VFR,,,,,,,,,,,,METAR,34.0
ESIB 180720Z AUTO 34003KT 310V010 9999 // NCD 07/01 Q1024,ESIB,2015-04-18T07:20:00Z,58.42,12.68,7.0,1.0,340,3,,6.21,30.236221,,,TRUE,,,,,,,,,,,,,,,,,,,,,,,,,,,,METAR,74.0
ESCF 180720Z AUTO 34006KT 310V010 9999 NCD 06/02 Q1022,ESCF,2015-04-18T07:20:00Z,58.38,15.52,6.0,2.0,340,6,,6.21,30.177166,,,TRUE,,,,,,,,,,,,,,,,,,,,,,,,,,,,METAR,117.0
ESUT 180720Z AUTO 30008KT 9999 OVC025/// 02/M01 Q1019,ESUT,2015-04-18T07:20:00Z,65.8,15.08,2.0,-1.0,300,8,,6.21,30.088583,,,TRUE,,,,,,,,,,,,,,,,,,,,,,,,,,,,METAR,463.0
ESNZ 180720Z 31012KT 9999 BKN017 03/M01 Q1022,ESNZ,2015-04-18T07:20:00Z,63.17,14.5,3.0,-1.0,310,12,,6.21,30.177166,,,,,,,,,,,BKN,1700,,,,,,,MVFR,,,,,,,,,,,,METAR,370.0
ESNU 180720Z 01004KT 340V080 CAVOK 04/M02 Q1019 R14/09//95,ESNU,2015-04-18T07:20:00Z,63.78,20.27,4.0,-2.0,10,4,,6.21,30.088583,,,,,,,,,,,CAVOK,,,,,,,,VFR,,,,,,,,,,,,METAR,14.0
ESNS 180720Z 30006KT 270V340 CAVOK 06/00 Q1018,ESNS,2015-04-18T07:20:00Z,64.62,21.07,6.0,0.0,300,6,,6.21,30.059055,,,,,,,,,,,CAVOK,,,,,,,,VFR,,,,,,,,,,,,METAR,49.0
ESNQ 180720Z 31004KT CAVOK 03/M01 Q1016,ESNQ,2015-04-18T07:20:00Z,67.82,20.32,3.0,-1.0,310,4,,6.21,30.0,,,,,,,,,,,CAVOK,,,,,,,,VFR,,,,,,,,,,,,METAR,452.0
ESNO 180720Z AUTO 32010KT 9999 SCT051/// 05/M02 Q1019,ESNO,2015-04-18T07:20:00Z,63.38,18.97,5.0,-2.0,320,10,,6.21,30.088583,,,TRUE,,,,,,,,,,,,,,,,,,,,,,,,,,,,METAR,103.0
ESNN 180720Z 32011KT CAVOK 07/M01 Q1020 R16/CLRD//,ESNN,2015-04-18T07:20:00Z,62.52,17.43,7.0,-1.0,320,11,,6.21,30.11811,,,,,,,,,,,CAVOK,,,,,,,,VFR,,,,,,,,,,,,METAR,10.0
ESNK 180720Z AUTO 31010KT 9999 FEW062/// 07/M00 Q1020,ESNK,2015-04-18T07:20:00Z,63.03,17.77,7.0,0.0,310,10,,6.21,30.11811,,,TRUE,,,,,,,,,,,,,,,,,,,,,,,,,,,,METAR,19.0
ESNG 180720Z AUTO 27005KT 9999 NCD 04/M02 Q1016,ESNG,2015-04-18T07:20:00Z,67.13,20.82,4.0,-2.0,270,5,,6.21,30.0,,,TRUE,,,,,,,,,,,,,,,,,,,,,,,,,,,,METAR,310.0
ESUD 180720Z AUTO 30007KT 280V340 9999 ////// 04/M02 Q1019,ESUD,2015-04-18T07:20:00Z,64.97,17.7,4.0,-2.0,300,7,,6.21,30.088583,,,TRUE,,,,,,,,,,,,,,,,,,,,,,,,,,,,METAR,279.0
ESNX 180720Z AUTO 31010KT 9999NDV OVC039/// 02/M02 Q1017,ESNX,2015-04-18T07:20:00Z,65.58,19.28,2.0,-2.0,310,10,,,30.029528,,,TRUE,,,,,,,,,,,,,,,,,,,,,,,,,,,,METAR,379.0
ESNL 180720Z AUTO 30012KT 9999 BKN039/// 05/M02 Q1019,ESNL,2015-04-18T07:20:00Z,64.55,18.72,5.0,-2.0,300,12,,6.21,30.088583,,,TRUE,,,,,,,,,,,,,,,,,,,,,,,,,,,,METAR,214.0
ESGR 180720Z AUTO 31006KT 9999 NCD 06/01 Q1023,ESGR,2015-04-18T07:20:00Z,58.45,13.97,6.0,1.0,310,6,,6.21,30.206694,,,TRUE,,,,,,,,,,,,,,,,,,,,,,,,,,,,METAR,105.0
EGTE 180720Z 06014KT 9999 FEW033 06/03 Q1025,EGTE,2015-04-18T07:20:00Z,50.72,-3.42,6.0,3.0,60,14,,6.21,30.265747,,,,,,,,,,,FEW,3300,,,,,,,VFR,,,,,,,,,,,,METAR,30.0
EGJJ 180720Z 08016KT CAVOK 09/05 Q1021 NOSIG,EGJJ,2015-04-18T07:20:00Z,49.22,-2.2,9.0,5.0,80,16,,6.21,30.147638,,,,,,TRUE,,,,,CAVOK,,,,,,,,VFR,,,,,,,,,,,,METAR,84.0
EGJB 180720Z 07013KT 9999 FEW014 09/07 Q1022,EGJB,2015-04-18T07:20:00Z,49.42,-2.6,9.0,7.0,70,13,,6.21,30.177166,,,,,,,,,,,FEW,1400,,,,,,,VFR,,,,,,,,,,,,METAR,102.0
EGHQ 180720Z 08011KT 050V110 9999 FEW015 06/03 Q1023,EGHQ,2015-04-18T07:20:00Z,50.43,-5.0,6.0,3.0,80,11,,6.21,30.206694,,,,,,,,,,,FEW,1500,,,,,,,VFR,,,,,,,,,,,,METAR,119.0
EGHE 180720Z 08024KT 8000 VCSH BKN016 09/07 Q1021,EGHE,2015-04-18T07:20:00Z,49.92,-6.28,9.0,7.0,80,24,,4.97,30.147638,,,,,,,,,,VCSH,BKN,1600,,,,,,,MVFR,,,,,,,,,,,,METAR,31.0
EGPN 180720Z 24004KT 7000 BKN006 06/05 Q1033,EGPN,2015-04-18T07:20:00Z,56.45,-3.02,6.0,5.0,240,4,,4.35,30.501968,,,,,,,,,,,BKN,600,,,,,,,IFR,,,,,,,,,,,,METAR,4.0
EGPE 180720Z 25006KT 9999 FEW002 06/04 Q1033,EGPE,2015-04-18T07:20:00Z,57.52,-4.03,6.0,4.0,250,6,,6.21,30.501968,,,,,,,,,,,FEW,200,,,,,,,VFR,,,,,,,,,,,,METAR,9.0
EGNR 180720Z VRB01KT 9999 FEW015 06/03 Q1031,EGNR,2015-04-18T07:20:00Z,53.17,-2.97,6.0,3.0,0,1,,6.21,30.442913,,,,,,,,,,,FEW,1500,,,,,,,VFR,,,,,,,,,,,,METAR,10.0
EGNJ 180720Z 05008KT 020V080 9999 SCT020 08/04 Q1032,EGNJ,2015-04-18T07:20:00Z,53.57,-0.35,8.0,4.0,50,8,,6.21,30.47244,,,,,,,,,,,SCT,2000,,,,,,,VFR,,,,,,,,,,,,METAR,31.0
EGNH 180720Z 06009KT 9999 FEW019 06/03 Q1031,EGNH,2015-04-18T07:20:00Z,53.77,-3.02,6.0,3.0,60,9,,6.21,30.442913,,,,,,,,,,,FEW,1900,,,,,,,VFR,,,,,,,,,,,,METAR,10.0
EGAE 180720Z 07008KT 9999 FEW030 08/05 Q1031,EGAE,2015-04-18T07:20:00Z,55.03,-7.15,8.0,5.0,70,8,,6.21,30.442913,,,,,,,,,,,FEW,3000,,,,,,,VFR,,,,,,,,,,,,METAR,9.0
ESSV 180720Z 34010KT CAVOK 05/03 Q1020,ESSV,2015-04-18T07:20:00Z,57.67,18.35,5.0,3.0,340,10,,6.21,30.11811,,,,,,,,,,,CAVOK,,,,,,,,VFR,,,,,,,,,,,,METAR,47.0
ESSP 180720Z 32005KT 290V360 CAVOK 06/00 Q1021,ESSP,2015-04-18T07:20:00Z,58.57,16.25,6.0,0.0,320,5,,6.21,30.147638,,,,,,,,,,,CAVOK,,,,,,,,VFR,,,,,,,,,,,,METAR,8.0
ESSD 180720Z AUTO 35011KT 9999 NCD 05/M02 Q1021,ESSD,2015-04-18T07:20:00Z,60.42,15.5,5.0,-2.0,350,11,,6.21,30.147638,,,TRUE,,,,,,,,,,,,,,,,,,,,,,,,,,,,METAR,161.0
ESSB 180720Z 33008KT CAVOK 06/01 Q1020,ESSB,2015-04-18T07:20:00Z,59.35,17.93,6.0,1.0,330,8,,6.21,30.11811,,,,,,,,,,,CAVOK,,,,,,,,VFR,,,,,,,,,,,,METAR,11.0
ESSA 180720Z 35009KT CAVOK 06/01 Q1020 NOSIG,ESSA,2015-04-18T07:20:00Z,59.63,17.93,6.0,1.0,350,9,,6.21,30.11811,,,,,,TRUE,,,,,CAVOK,,,,,,,,VFR,,,,,,,,,,,,METAR,61.0
ESOW 180720Z AUTO 36012KT 9999 NCD 06/00 Q1021,ESOW,2015-04-18T07:20:00Z,59.57,16.62,6.0,0.0,360,12,,6.21,30.147638,,,TRUE,,,,,,,,,,,,,,,,,,,,,,,,,,,,METAR,31.0
ESOK 180720Z AUTO 33006KT 290V010 9999 NCD 06/00 Q1023,ESOK,2015-04-18T07:20:00Z,59.45,13.33,6.0,0.0,330,6,,6.21,30.206694,,,TRUE,,,,,,,,,,,,,,,,,,,,,,,,,,,,METAR,107.0
ESOE 180720Z AUTO 35008KT 9999NDV NCD 08/02 Q1022,ESOE,2015-04-18T07:20:00Z,59.22,15.05,8.0,2.0,350,8,,,30.177166,,,TRUE,,,,,,,,,,,,,,,,,,,,,,,,,,,,METAR,57.0
ESKN 180720Z 33009KT CAVOK 06/00 Q1021,ESKN,2015-04-18T07:20:00Z,58.78,16.9,6.0,0.0,330,9,,6.21,30.147638,,,,,,,,,,,CAVOK,,,,,,,,VFR,,,,,,,,,,,,METAR,43.0
EGTK 180720Z 06009KT 030V090 CAVOK 06/04 Q1028,EGTK,2015-04-18T07:20:00Z,51.83,-1.32,6.0,4.0,60,9,,6.21,30.35433,,,,,,,,,,,CAVOK,,,,,,,,VFR,,,,,,,,,,,,METAR,82.0
EGTC 180720Z 06012KT 7000 BKN007 05/04 Q1028,EGTC,2015-04-18T07:20:00Z,52.07,-0.62,5.0,4.0,60,12,,4.35,30.35433,,,,,,,,,,,BKN,700,,,,,,,IFR,,,,,,,,,,,,METAR,111.0
EGMD 180720Z 07019KT 9999 SCT019 10/06 Q1027,EGMD,2015-04-18T07:20:00Z,50.95,0.92,10.0,6.0,70,19,,6.21,30.324802,,,,,,,,,,,SCT,1900,,,,,,,VFR,,,,,,,,,,,,METAR,3.0
EGMC 180720Z 05010KT 010V080 9999 FEW016 08/05 Q1028,EGMC,2015-04-18T07:20:00Z,51.57,0.7,8.0,5.0,50,10,,6.21,30.35433,,,,,,,,,,,FEW,1600,,,,,,,VFR,,,,,,,,,,,,METAR,15.0
EGLF 180720Z 07013KT 9999 SCT012 07/04 Q1027,EGLF,2015-04-18T07:20:00Z,51.28,-0.77,7.0,4.0,70,13,,6.21,30.324802,,,,,,,,,,,SCT,1200,,,,,,,VFR,,,,,,,,,,,,METAR,65.0
EGKB 180720Z 06008KT 030V140 9999 BKN006 05/04 Q1027,EGKB,2015-04-18T07:20:00Z,51.32,0.02,5.0,4.0,60,8,,6.21,30.324802,,,,,,,,,,,BKN,600,,,,,,,IFR,,,,,,,,,,,,METAR,183.0
EGHH 180720Z 07011KT 9999 FEW018 07/03 Q1026,EGHH,2015-04-18T07:20:00Z,50.78,-1.83,7.0,3.0,70,11,,6.21,30.295275,,,,,,,,,,,FEW,1800,,,,,,,VFR,,,,,,,,,,,,METAR,11.0
LSZC 180720Z AUTO VRB03KT 9999 -RA BKN011 SCT017 07/05 Q1019,LSZC,2015-04-18T07:20:00Z,46.97,8.38,7.0,5.0,0,3,,6.21,30.088583,,,TRUE,,,,,,,-RA,BKN,1100,SCT,1700,,,,,MVFR,,,,,,,,,,,,METAR,450.0
LSZR 180720Z 03007KT 340V050 9999 FEW030 BKN050 BKN090 07/02 Q1020 NOSIG RMK C,LSZR,2015-04-18T07:20:00Z,47.48,9.57,7.0,2.0,30,7,,6.21,30.11811,,,,,,TRUE,,,,,FEW,3000,BKN,5000,BKN,9000,,,VFR,,,,,,,,,,,,METAR,398.0
LSZG 180720Z 08014KT 9999 FEW022 BKN047 08/04 Q1019 NOSIG,LSZG,2015-04-18T07:20:00Z,47.17,7.42,8.0,4.0,80,14,,6.21,30.088583,,,,,,TRUE,,,,,FEW,2200,BKN,4700,,,,,VFR,,,,,,,,,,,,METAR,430.0
LSGS 180720Z 26006KT 230V300 9999 SCT015 BKN065 12/09 Q1016,LSGS,2015-04-18T07:20:00Z,46.22,7.32,12.0,9.0,260,6,,6.21,30.0,,,,,,,,,,,SCT,1500,BKN,6500,,,,,VFR,,,,,,,,,,,,METAR,481.0
LSGC 180720Z 05006KT 020V090 2000 OVC003 05/04 Q1017,LSGC,2015-04-18T07:20:00Z,47.08,6.8,5.0,4.0,50,6,,1.24,30.029528,,,,,,,,,,,OVC,300,,,,,,,LIFR,,,,,,,,,,,,METAR,1027.0
EKRN 180720Z 34009KT 300V010 9999 NSC 06/01 Q1024,EKRN,2015-04-18T07:20:00Z,55.07,14.75,6.0,1.0,340,9,,6.21,30.236221,,,,,,,,,,,,,,,,,,,,,,,,,,,,,,,METAR,16.0
EKEB 180720Z AUTO 28005KT 9999NDV NCD 07/05 Q1028,EKEB,2015-04-18T07:20:00Z,55.52,8.55,7.0,5.0,280,5,,,30.35433,,,TRUE,,,,,,,,,,,,,,,,,,,,,,,,,,,,METAR,29.0
EKAH 180720Z AUTO 27003KT 9999NDV NCD 07/03 Q1027,EKAH,2015-04-18T07:20:00Z,56.28,10.62,7.0,3.0,270,3,,,30.324802,,,TRUE,,,,,,,,,,,,,,,,,,,,,,,,,,,,METAR,25.0
EKRK 180720Z AUTO 35009KT 320V020 9999NDV FEW180/// 08/01 Q1026,EKRK,2015-04-18T07:20:00Z,55.57,12.12,8.0,1.0,350,9,,,30.295275,,,TRUE,,,,,,,,,,,,,,,,,,,,,,,,,,,,METAR,44.0
EKYT 180720Z 24004KT 210V270 CAVOK 09/05 Q1026 RMK FEW220,EKYT,2015-04-18T07:20:00Z,57.1,9.87,9.0,5.0,240,4,,6.21,30.295275,,,,,,,,,,,CAVOK,,,,,,,,VFR,,,,,,,,,,,,METAR,3.0
EKCH 180720Z 35008KT CAVOK 07/01 Q1026 NOSIG,EKCH,2015-04-18T07:20:00Z,55.62,12.67,7.0,1.0,350,8,,6.21,30.295275,,,,,,TRUE,,,,,CAVOK,,,,,,,,VFR,,,,,,,,,,,,METAR,5.0
EKOD 180720Z 01003KT CAVOK 09/06 Q1027,EKOD,2015-04-18T07:20:00Z,55.47,10.32,9.0,6.0,10,3,,6.21,30.324802,,,,,,,,,,,CAVOK,,,,,,,,VFR,,,,,,,,,,,,METAR,17.0
EKVD 180720Z AUTO VRB02KT //// ///////// 08/03 Q1027,EKVD,2015-04-18T07:20:00Z,55.42,9.32,8.0,3.0,0,2,,,30.324802,,,TRUE,,,,,,,,,,,,,,,,,,,,,,,,,,,,METAR,45.0
CWZQ 180720Z AUTO 19007KT 03/02 RMK AO1 T00340017,CWZQ,2015-04-18T07:20:00Z,46.53,-61.05,3.4,1.7,190,7,,,,,,TRUE,TRUE,,,,,,,,,,,,,,,,,,,,,,,,,,,METAR,17.0
KGYI 180720Z AUTO 23007KT 10SM -RA OVC100 19/16 A2996 RMK AO2 T01890156,KGYI,2015-04-18T07:20:00Z,33.72,-96.67,18.9,15.6,230,7,,10.0,29.958662,,,TRUE,TRUE,,,,,,-RA,OVC,10000,,,,,,,VFR,,,,,,,,,,,,SPECI,228.0
EFVA 180720Z AUTO 36006KT 9999 BKN045/// OVC064/// 03/00 Q1018 R16/0/0095,EFVA,2015-04-18T07:20:00Z,63.03,21.77,3.0,0.0,360,6,,6.21,30.059055,,,TRUE,,,,,,,,,,,,,,,,,,,,,,,,,,,,METAR,4.0
EFTU 180720Z AUTO 01007KT 340V060 9999 FEW018/// 04/M01 Q1016 R08/0/0095,EFTU,2015-04-18T07:20:00Z,60.52,22.27,4.0,-1.0,10,7,,6.21,30.0,,,TRUE,,,,,,,,,,,,,,,,,,,,,,,,,,,,METAR,59.0
EFTP 180720Z AUTO 36006KT 9999 BKN032 02/M01 Q1016,EFTP,2015-04-18T07:20:00Z,61.42,23.62,2.0,-1.0,360,6,,6.21,30.0,,,TRUE,,,,,,,,BKN,3200,,,,,,,VFR,,,,,,,,,,,,METAR,112.0
EFRO 180720Z AUTO 34008KT 9999 OVC044 03/M01 Q1015,EFRO,2015-04-18T07:20:00Z,66.57,25.82,3.0,-1.0,340,8,,6.21,29.970472,,,TRUE,,,,,,,,OVC,4400,,,,,,,VFR,,,,,,,,,,,,METAR,201.0
EFOU 180720Z AUTO 28007KT 9999 OVC038/// 03/M01 Q1016,EFOU,2015-04-18T07:20:00Z,64.92,25.37,3.0,-1.0,280,7,,6.21,30.0,,,TRUE,,,,,,,,,,,,,,,,,,,,,,,,,,,,METAR,15.0
EFKU 180720Z AUTO 33009KT 9999 FEW014 OVC042 02/M01 Q1014,EFKU,2015-04-18T07:20:00Z,63.02,27.8,2.0,-1.0,330,9,,6.21,29.940945,,,TRUE,,,,,,,,FEW,1400,OVC,4200,,,,,VFR,,,,,,,,,,,,METAR,102.0
EFJY 180720Z AUTO 35010KT 9999 OVC022 02/M02 Q1015,EFJY,2015-04-18T07:20:00Z,62.4,25.68,2.0,-2.0,350,10,,6.21,29.970472,,,TRUE,,,,,,,,OVC,2200,,,,,,,MVFR,,,,,,,,,,,,METAR,145.0
EFHK 180720Z 32007KT 9999 FEW020 BKN046 05/M01 Q1015 NOSIG,EFHK,2015-04-18T07:20:00Z,60.32,24.97,5.0,-1.0,320,7,,6.21,29.970472,,,,,,TRUE,,,,,FEW,2000,BKN,4600,,,,,VFR,,,,,,,,,,,,METAR,56.0
EDDW 180720Z 04007KT 010V070 CAVOK 08/03 Q1027 NOSIG,EDDW,2015-04-18T07:20:00Z,53.03,8.8,8.0,3.0,40,7,,6.21,30.324802,,,,,,TRUE,,,,,CAVOK,,,,,,,,VFR,,,,,,,,,,,,METAR,5.0
EDDP 180720Z 01006KT 9999 SCT015 05/02 Q1025 NOSIG,EDDP,2015-04-18T07:20:00Z,51.43,12.23,5.0,2.0,10,6,,6.21,30.265747,,,,,,TRUE,,,,,SCT,1500,,,,,,,VFR,,,,,,,,,,,,METAR,149.0
EDDG 180720Z 35004KT 330V030 CAVOK 08/02 Q1027 NOSIG,EDDG,2015-04-18T07:20:00Z,52.13,7.7,8.0,2.0,350,4,,6.21,30.324802,,,,,,TRUE,,,,,CAVOK,,,,,,,,VFR,,,,,,,,,,,,METAR,52.0
EDDC 180720Z 02006KT 9999 BKN017 04/M00 Q1024 NOSIG,EDDC,2015-04-18T07:20:00Z,51.13,13.75,4.0,0.0,20,6,,6.21,30.236221,,,,,,TRUE,,,,,BKN,1700,,,,,,,MVFR,,,,,,,,,,,,METAR,226.0
EDDN 180720Z 05007KT 340V140 9999 FEW025 06/M00 Q1023 NOSIG,EDDN,2015-04-18T07:20:00Z,49.5,11.08,6.0,0.0,50,7,,6.21,30.206694,,,,,,TRUE,,,,,FEW,2500,,,,,,,VFR,,,,,,,,,,,,METAR,312.0
EDDL 180720Z 04008KT CAVOK 08/03 Q1027 NOSIG,EDDL,2015-04-18T07:20:00Z,51.3,6.77,8.0,3.0,40,8,,6.21,30.324802,,,,,,TRUE,,,,,CAVOK,,,,,,,,VFR,,,,,,,,,,,,METAR,44.0
ESTL 180720Z AUTO 32006KT 9999NDV NCD 06/01 Q1025,ESTL,2015-04-18T07:20:00Z,56.07,13.2,6.0,1.0,320,6,,,30.265747,,,TRUE,,,,,,,,,,,,,,,,,,,,,,,,,,,,METAR,43.0
ESTA 180720Z 33010KT CAVOK 08/M01 Q1025,ESTA,2015-04-18T07:20:00Z,56.28,12.83,8.0,-1.0,330,10,,6.21,30.265747,,,,,,,,,,,CAVOK,,,,,,,,VFR,,,,,,,,,,,,METAR,47.0
ESMX 180720Z AUTO 31009KT 9999 SCT045/// 06/M00 Q1023,ESMX,2015-04-18T07:20:00Z,56.92,14.72,6.0,0.0,310,9,,6.21,30.206694,,,TRUE,,,,,,,,,,,,,,,,,,,,,,,,,,,,METAR,186.0
ESMT 180720Z AUTO 33009KT 9999 NCD 07/01 Q1025,ESMT,2015-04-18T07:20:00Z,56.67,12.82,7.0,1.0,330,9,,6.21,30.265747,,,TRUE,,,,,,,,,,,,,,,,,,,,,,,,,,,,METAR,30.0
ESMS 180720Z 34009KT CAVOK 06/00 Q1025,ESMS,2015-04-18T07:20:00Z,55.53,13.37,6.0,0.0,340,9,,6.21,30.265747,,,,,,,,,,,CAVOK,,,,,,,,VFR,,,,,,,,,,,,METAR,106.0
ESMQ 180720Z AUTO 34008KT 9999 SCT053/// 07/M00 Q1022,ESMQ,2015-04-18T07:20:00Z,56.68,16.3,7.0,0.0,340,8,,6.21,30.177166,,,TRUE,,,,,,,,,,,,,,,,,,,,,,,,,,,,METAR,16.0
ESMK 180720Z AUTO 34011KT 9999 NCD 06/01 Q1024,ESMK,2015-04-18T07:20:00Z,55.92,14.07,6.0,1.0,340,11,,6.21,30.236221,,,TRUE,,,,,,,,,,,,,,,,,,,,,,,,,,,,METAR,23.0
ESGJ 180720Z AUTO 33009KT 9999 NCD 06/01 Q1023,ESGJ,2015-04-18T07:20:00Z,57.77,14.07,6.0,1.0,330,9,,6.21,30.206694,,,TRUE,,,,,,,,,,,,,,,,,,,,,,,,,,,,METAR,232.0
ESGG 180720Z 30006KT 270V340 CAVOK 08/M00 Q1024,ESGG,2015-04-18T07:20:00Z,57.67,12.3,8.0,0.0,300,6,,6.21,30.236221,,,,,,,,,,,CAVOK,,,,,,,,VFR,,,,,,,,,,,,METAR,169.0
EKBI 180720Z AUTO 35002KT 9999NDV NCD 08/03 Q1027,EKBI,2015-04-18T07:20:00Z,55.72,9.15,8.0,3.0,350,2,,,30.324802,,,TRUE,,,,,,,,,,,,,,,,,,,,,,,,,,,,SPECI,66.0
EDMO 180720Z 05006KT 360V080 CAVOK 05/00 Q1021 RMK CTR CLSD,EDMO,2015-04-18T07:20:00Z,48.07,11.27,5.0,0.0,50,6,,6.21,30.147638,,,,,,,,,,,CAVOK,,,,,,,,VFR,,,,,,,,,,,,SPECI,600.0
EDLW 180720Z VRB03KT CAVOK 07/02 Q1027 RMK ATIS I,EDLW,2015-04-18T07:20:00Z,51.52,7.62,7.0,2.0,0,3,,6.21,30.324802,,,,,,,,,,,CAVOK,,,,,,,,VFR,,,,,,,,,,,,SPECI,127.0
EDLP 180720Z 11003KT 340V160 CAVOK 05/01 Q1026 RMK ATIS DEL,EDLP,2015-04-18T07:20:00Z,51.62,8.62,5.0,1.0,110,3,,6.21,30.295275,,,,,,,,,,,CAVOK,,,,,,,,VFR,,,,,,,,,,,,SPECI,213.0
EDLN 180720Z 06007KT 350V090 CAVOK 08/03 Q1027 RMK ATIS D,EDLN,2015-04-18T07:20:00Z,51.23,6.5,8.0,3.0,60,7,,6.21,30.324802,,,,,,,,,,,CAVOK,,,,,,,,VFR,,,,,,,,,,,,SPECI,38.0
EDHL 180720Z 36004KT 290V070 CAVOK 08/03 Q1027 RMK ATIS GOL,EDHL,2015-04-18T07:20:00Z,53.8,10.72,8.0,3.0,360,4,,6.21,30.324802,,,,,,,,,,,CAVOK,,,,,,,,VFR,,,,,,,,,,,,SPECI,16.0
EDHI 180720Z VRB02KT CAVOK 08/05 Q1027,EDHI,2015-04-18T07:20:00Z,53.53,9.83,8.0,5.0,0,2,,6.21,30.324802,,,,,,,,,,,CAVOK,,,,,,,,VFR,,,,,,,,,,,,METAR,13.0
EDFH 180720Z 04008KT 9999 FEW020 05/01 Q1024,EDFH,2015-04-18T07:20:00Z,49.95,7.27,5.0,1.0,40,8,,6.21,30.236221,,,,,,,,,,,FEW,2000,,,,,,,VFR,,,,,,,,,,,,METAR,498.0
EDDV 180720Z 04003KT 350V090 CAVOK 07/03 Q1027 NOSIG,EDDV,2015-04-18T07:20:00Z,52.47,9.68,7.0,3.0,40,3,,6.21,30.324802,,,,,,TRUE,,,,,CAVOK,,,,,,,,VFR,,,,,,,,,,,,METAR,54.0
EDDT 180720Z 33006KT 9999 SCT015 06/02 Q1025 NOSIG,EDDT,2015-04-18T07:20:00Z,52.57,13.32,6.0,2.0,330,6,,6.21,30.265747,,,,,,TRUE,,,,,SCT,1500,,,,,,,VFR,,,,,,,,,,,,METAR,37.0
EDDS 180720Z 06004KT 340V110 CAVOK 08/01 Q1022 NOSIG,EDDS,2015-04-18T07:20:00Z,48.67,9.22,8.0,1.0,60,4,,6.21,30.177166,,,,,,TRUE,,,,,CAVOK,,,,,,,,VFR,,,,,,,,,,,,METAR,419.0
EDDR 180720Z 04010KT CAVOK 07/00 Q1023 NOSIG,EDDR,2015-04-18T07:20:00Z,49.22,7.1,7.0,0.0,40,10,,6.21,30.206694,,,,,,TRUE,,,,,CAVOK,,,,,,,,VFR,,,,,,,,,,,,METAR,320.0
EDDM 180720Z 01006KT 270V080 CAVOK 06/01 Q1022 NOSIG,EDDM,2015-04-18T07:20:00Z,48.35,11.82,6.0,1.0,10,6,,6.21,30.177166,,,,,,TRUE,,,,,CAVOK,,,,,,,,VFR,,,,,,,,,,,,METAR,447.0
EDDK 180720Z 04007KT 360V060 CAVOK 08/01 Q1026 NOSIG,EDDK,2015-04-18T07:20:00Z,50.87,7.15,8.0,1.0,40,7,,6.21,30.295275,,,,,,TRUE,,,,,CAVOK,,,,,,,,VFR,,,,,,,,,,,,METAR,99.0
EDDH 180720Z 36005KT 330V040 CAVOK 08/03 Q1027 NOSIG,EDDH,2015-04-18T07:20:00Z,53.63,10.0,8.0,3.0,360,5,,6.21,30.324802,,,,,,TRUE,,,,,CAVOK,,,,,,,,VFR,,,,,,,,,,,,METAR,16.0
EDDF 180720Z 03013KT 9999 FEW029 09/01 Q1025 NOSIG,EDDF,2015-04-18T07:20:00Z,50.05,8.6,9.0,1.0,30,13,,6.21,30.265747,,,,,,TRUE,,,,,FEW,2900,,,,,,,VFR,,,,,,,,,,,,METAR,113.0
EDDE 180720Z 01006KT 9999 SCT018 04/00 Q1025 NOSIG,EDDE,2015-04-18T07:20:00Z,50.98,10.97,4.0,0.0,10,6,,6.21,30.265747,,,,,,TRUE,,,,,SCT,1800,,,,,,,VFR,,,,,,,,,,,,METAR,323.0
EDDB 180720Z 35007KT 9999 FEW020 06/01 Q1025 NOSIG,EDDB,2015-04-18T07:20:00Z,52.38,13.53,6.0,1.0,350,7,,6.21,30.265747,,,,,,TRUE,,,,,FEW,2000,,,,,,,VFR,,,,,,,,,,,,METAR,48.0
EKSP 180720Z 31001KT CAVOK 08/02 Q1027 RMK FEW210,EKSP,2015-04-18T07:20:00Z,55.22,9.27,8.0,2.0,310,1,,6.21,30.324802,,,,,,,,,,,CAVOK,,,,,,,,VFR,,,,,,,,,,,,METAR,40.0
EKKA 180720Z AUTO VRB01KT 9999NDV NCD 10/04 Q1027,EKKA,2015-04-18T07:20:00Z,56.3,9.12,10.0,4.0,0,1,,,30.324802,,,TRUE,,,,,,,,,,,,,,,,,,,,,,,,,,,,METAR,52.0
KMMK 180720Z AUTO 00000KT 1 3/4SM BR CLR 07/06 A2995 RMK AO2 VIS 1V5 T00670061 TSNO,KMMK,2015-04-18T07:20:00Z,41.52,-72.83,6.7,6.1,0,0,,1.75,29.949802,,,TRUE,TRUE,,,TRUE,,,BR,CLR,,,,,,,,IFR,,,,,,,,,,,,SPECI,31.0
KEEO 180720Z AUTO 10SM BKN008 OVC013 03/01 A3004 RMK AO2 CIG 006V011 T00280011,KEEO,2015-04-18T07:20:00Z,40.05,-107.88,2.8,1.1,,,,10.0,30.041338,,,TRUE,TRUE,,,,,,,BKN,800,OVC,1300,,,,,IFR,,,,,,,,,,,,SPECI,1930.0
KBFM 180720Z AUTO 04005KT 10SM FEW005 21/19 A2993 RMK AO2 T02060189,KBFM,2015-04-18T07:20:00Z,30.62,-88.07,20.6,18.9,40,5,,10.0,29.929134,,,TRUE,TRUE,,,,,,,FEW,500,,,,,,,VFR,,,,,,,,,,,,SPECI,20.0
KACK 180720Z AUTO 25004KT 1 3/4SM BR CLR 06/06 A2991 RMK AO2 T00610056,KACK,2015-04-18T07:20:00Z,41.25,-70.07,6.1,5.6,250,4,,1.75,29.911417,,,TRUE,TRUE,,,,,,BR,CLR,,,,,,,,IFR,,,,,,,,,,,,SPECI,16.0
KABY 180720Z AUTO 19004KT 2 1/2SM BR BKN005 OVC013 21/19 A2995 RMK AO2 T02060194,KABY,2015-04-18T07:20:00Z,31.53,-84.2,20.6,19.4,190,4,,2.5,29.949802,,,TRUE,TRUE,,,,,,BR,BKN,500,OVC,1300,,,,,IFR,,,,,,,,,,,,SPECI,58.0
LLBG 180720Z VRB02KT 9999 FEW025 20/11 Q1024 NOSIG,LLBG,2015-04-18T07:20:00Z,32.0,34.88,20.0,11.0,0,2,,6.21,30.236221,,,,,,TRUE,,,,,FEW,2500,,,,,,,VFR,,,,,,,,,,,,METAR,49.0
EVVA 180720Z AUTO 35010KT 9999 FEW011 06/04 Q1017,EVVA,2015-04-18T07:20:00Z,57.35,21.55,6.0,4.0,350,10,,6.21,30.029528,,,TRUE,,,,,,,,FEW,1100,,,,,,,VFR,,,,,,,,,,,,METAR,6.0
LSZA 180720Z VRB01KT CAVOK 13/09 Q1013 NOSIG,LSZA,2015-04-18T07:20:00Z,46.0,8.92,13.0,9.0,0,1,,6.21,29.911417,,,,,,TRUE,,,,,CAVOK,,,,,,,,VFR,,,,,,,,,,,,METAR,276.0
LSZB 180720Z VRB02KT 9999 FEW010 SCT013 BKN025 07/05 Q1018 NOSIG,LSZB,2015-04-18T07:20:00Z,46.92,7.5,7.0,5.0,0,2,,6.21,30.059055,,,,,,TRUE,,,,,FEW,1000,SCT,1300,BKN,2500,,,MVFR,,,,,,,,,,,,METAR,505.0
LSGG 180720Z 05007KT 9999 FEW010 SCT020 BKN040 10/08 Q1017 NOSIG,LSGG,2015-04-18T07:20:00Z,46.25,6.12,10.0,8.0,50,7,,6.21,30.029528,,,,,,TRUE,,,,,FEW,1000,SCT,2000,BKN,4000,,,VFR,,,,,,,,,,,,METAR,416.0
LSZH 180720Z 03008KT 340V070 9999 FEW024 SCT240 07/02 Q1021 NOSIG,LSZH,2015-04-18T07:20:00Z,47.48,8.53,7.0,2.0,30,8,,6.21,30.147638,,,,,,TRUE,,,,,FEW,2400,SCT,24000,,,,,VFR,,,,,,,,,,,,METAR,432.0
KPDK 180720Z AUTO 00000KT 6SM BR BKN004 OVC055 17/16 A2999 RMK AO2 T01670161 TSNO,KPDK,2015-04-18T07:20:00Z,33.88,-84.3,16.7,16.1,0,0,,6.0,29.991142,,,TRUE,TRUE,,,TRUE,,,BR,BKN,400,OVC,5500,,,,,LIFR,,,,,,,,,,,,SPECI,302.0
KBWG 180720Z AUTO 12003KT 3SM BR CLR 12/11 A3002 RMK AO2 T01220111,KBWG,2015-04-18T07:20:00Z,36.97,-86.42,12.2,11.1,120,3,,3.0,30.02067,,,TRUE,TRUE,,,,,,BR,CLR,,,,,,,,MVFR,,,,,,,,,,,,SPECI,168.0
KBHM 180720Z 03003KT 3SM BR OVC005 16/16 A2999 RMK AO2 T01610161,KBHM,2015-04-18T07:20:00Z,33.57,-86.75,16.1,16.1,30,3,,3.0,29.991142,,,,TRUE,,,,,,BR,OVC,500,,,,,,,IFR,,,,,,,,,,,,SPECI,197.0
K1M4 180720Z AUTO 00000KT 1/2SM FG 15/15 A3002 RMK AO2 $,K1M4,2015-04-18T07:20:00Z,34.28,-87.6,15.0,15.0,0,0,,0.5,30.02067,,,TRUE,TRUE,TRUE,,,,,FG,,,,,,,,,,,,,,,,,,,,,SPECI,284.0
EDSB 180720Z 02008KT CAVOK 08/00 Q1023,EDSB,2015-04-18T07:20:00Z,48.78,8.08,8.0,0.0,20,8,,6.21,30.206694,,,,,,,,,,,CAVOK,,,,,,,,VFR,,,,,,,,,,,,SPECI,124.0
EDOP 180720Z 34006KT 290V020 CAVOK 06/04 Q1026,EDOP,2015-04-18T07:20:00Z,53.43,11.78,6.0,4.0,340,6,,6.21,30.295275,,,,,,,,,,,CAVOK,,,,,,,,VFR,,,,,,,,,,,,SPECI,51.0
EDMA 180720Z 03008KT CAVOK 07/M00 Q1022 RMK ATIS FOX,EDMA,2015-04-18T07:20:00Z,48.42,10.92,7.0,0.0,30,8,,6.21,30.177166,,,,,,,,,,,CAVOK,,,,,,,,VFR,,,,,,,,,,,,SPECI,463.0
EDXW 180720Z 34007KT CAVOK 08/04 Q1028 RMK ATIS FOX,EDXW,2015-04-18T07:20:00Z,54.92,8.33,8.0,4.0,340,7,,6.21,30.35433,,,,,,,,,,,CAVOK,,,,,,,,VFR,,,,,,,,,,,,METAR,20.0
EDVK 180720Z 33007KT 9999 FEW016 05/01 Q1026 RMK ATIS I,EDVK,2015-04-18T07:20:00Z,51.38,9.37,5.0,1.0,330,7,,6.21,30.295275,,,,,,,,,,,FEW,1600,,,,,,,VFR,,,,,,,,,,,,METAR,285.0
EDNY 180720Z 05008KT 010V070 9999 FEW057 07/01 Q1021 RMK ATIS H,EDNY,2015-04-18T07:20:00Z,47.67,9.52,7.0,1.0,50,8,,6.21,30.147638,,,,,,,,,,,FEW,5700,,,,,,,VFR,,,,,,,,,,,,METAR,424.0
K05U 180720Z AUTO 22005KT 10SM CLR M01/M12 A3018 RMK AO1,K05U,2015-04-18T07:20:00Z,39.6,-116.0,-1.0,-12.0,220,5,,10.0,30.180119,,,TRUE,TRUE,,,,,,,CLR,,,,,,,,VFR,,,,,,,,,,,,SPECI,1816.0
KUKT 180720Z AUTO 00000KT 7SM CLR 09/09 A2999 RMK AO1,KUKT,2015-04-18T07:20:00Z,40.43,-75.38,9.0,9.0,0,0,,7.0,29.991142,,,TRUE,TRUE,,,,,,,CLR,,,,,,,,VFR,,,,,,,,,,,,SPECI,160.0
LATI 180720Z VRB02KT CAVOK 18/09 Q1014 NOSIG,LATI,2015-04-18T07:20:00Z,41.42,19.72,18.0,9.0,0,2,,6.21,29.940945,,,,,,TRUE,,,,,CAVOK,,,,,,,,VFR,,,,,,,,,,,,METAR,90.0
KVKS 180720Z AUTO 00000KT 10SM SCT007 19/19 A2993 RMK A01,KVKS,2015-04-18T07:20:00Z,,,19.0,19.0,0,0,,10.0,29.929134,,,TRUE,TRUE,,,,,,,SCT,700,,,,,,,VFR,,,,,,,,,,,,SPECI,
KRKS 180719Z AUTO 32006KT 10SM BKN010 OVC039 02/01 A3009 RMK AO2 T00220006,KRKS,2015-04-18T07:19:00Z,41.6,-109.07,2.2,0.6,320,6,,10.0,30.088583,,,TRUE,TRUE,,,,,,,BKN,1000,OVC,3900,,,,,MVFR,,,,,,,,,,,,SPECI,2060.0
KMAI 180719Z AUTO 00000KT 3SM BR OVC012 19/19 A2992 RMK AO2 RAE04 P0000 T01890189,KMAI,2015-04-18T07:19:00Z,30.83,-85.18,18.9,18.9,0,0,,3.0,29.920275,,,TRUE,TRUE,,,,,,BR,OVC,1200,,,,,,,MVFR,,,,,,0.0050,,,,,,SPECI,32.0
KCHO 180719Z AUTO 00000KT 3SM BR CLR 16/14 A2999 RMK AO2 T01560144,KCHO,2015-04-18T07:19:00Z,38.13,-78.45,15.6,14.4,0,0,,3.0,29.991142,,,TRUE,TRUE,,,,,,BR,CLR,,,,,,,,MVFR,,,,,,,,,,,,SPECI,192.0
KNBC 180719Z AUTO 00000KT 3SM -RA BR FEW006 SCT075 OVC090 20/19 A2998 RMK AO2 P0003 T02000194,KNBC,2015-04-18T07:19:00Z,32.47,-80.72,20.0,19.4,0,0,,3.0,29.97933,,,TRUE,TRUE,,,,,,-RA BR,FEW,600,SCT,7500,OVC,9000,,,MVFR,,,,,,0.03,,,,,,SPECI,12.0
KPKV 180719Z AUTO 10016G22KT 10SM CLR 21/20 A2980 RMK AO2,KPKV,2015-04-18T07:19:00Z,28.65,-96.68,21.0,20.0,100,16,22,10.0,29.799213,,,TRUE,TRUE,,,,,,,CLR,,,,,,,,VFR,,,,,,,,,,,,SPECI,9.0
KDNL 180719Z AUTO 03004KT 3/4SM BR BKN003 OVC007 19/18 A2998 RMK AO2 RAE05 P0000 T01890178,KDNL,2015-04-18T07:19:00Z,33.47,-82.03,18.9,17.8,30,4,,0.75,29.97933,,,TRUE,TRUE,,,,,,BR,BKN,300,OVC,700,,,,,LIFR,,,,,,0.0050,,,,,,SPECI,130.0
KLSF 180719Z AUTO 30002KT 10SM OVC004 18/18 A2993 RMK AO2 RAB15E19,KLSF,2015-04-18T07:19:00Z,32.32,-84.97,18.0,18.0,300,2,,10.0,29.929134,,,TRUE,TRUE,,,,,,,OVC,400,,,,,,,LIFR,,,,,,,,,,,,SPECI,71.0
KSLH 180719Z AUTO 21003KT 10SM CLR 02/M01 A2993 RMK AO2 T00211011,KSLH,2015-04-18T07:19:00Z,45.65,-84.52,2.1,-1.1,210,3,,10.0,29.929134,,,TRUE,TRUE,,,,,,,CLR,,,,,,,,VFR,,,,,,,,,,,,SPECI,195.0
KBGD 180718Z AUTO VRB04KT 10SM BKN009 13/12 A2996 RMK AO2 CIG 008V012 T01330117,KBGD,2015-04-18T07:18:00Z,35.7,-101.4,13.3,11.7,0,4,,10.0,29.958662,,,TRUE,TRUE,,,,,,,BKN,900,,,,,,,IFR,,,,,,,,,,,,SPECI,927.0
KEWB 180718Z AUTO 00000KT 1 1/2SM R05/2000VP6000FT BR CLR 07/07 A2990 RMK AO2 VIS 3/4V5 T00720072,KEWB,2015-04-18T07:18:00Z,41.68,-70.95,7.2,7.2,0,0,,1.5,29.899607,,,TRUE,TRUE,,,,,,BR,CLR,,,,,,,,IFR,,,,,,,,,,,,SPECI,23.0
KECP 180718Z AUTO 00000KT 6SM BR BKN016 22/21 A2992 RMK AO2 T02170211,KECP,2015-04-18T07:18:00Z,30.35,-85.8,21.7,21.1,0,0,,6.0,29.920275,,,TRUE,TRUE,,,,,,BR,BKN,1600,,,,,,,MVFR,,,,,,,,,,,,SPECI,21.0
KSAW 180718Z AUTO 36014KT 10SM CLR 06/01 A3008 RMK AO2,KSAW,2015-04-18T07:18:00Z,46.35,-87.4,6.0,1.0,360,14,,10.0,30.079725,,,TRUE,TRUE,,,,,,,CLR,,,,,,,,VFR,,,,,,,,,,,,SPECI,372.0
KNPA 180718Z AUTO 00000KT 1/4SM FG VV005 19/19 A2991 RMK AO2 T01890189 $,KNPA,2015-04-18T07:18:00Z,30.35,-87.32,18.9,18.9,0,0,,0.25,29.911417,,,TRUE,TRUE,TRUE,,,,,FG,OVX,0,,,,,,,LIFR,,,,,,,,,,,500,SPECI,9.0
KHRT 180718Z AUTO 00000KT 10SM FEW008 OVC017 22/18 A2991 RMK AO2,KHRT,2015-04-18T07:18:00Z,30.42,-86.67,22.0,18.0,0,0,,10.0,29.911417,,,TRUE,TRUE,,,,,,,FEW,800,OVC,1700,,,,,MVFR,,,,,,,,,,,,SPECI,12.0
YSWG 180718Z AUTO 28009KT 9999 // SCT007 SCT013 SCT031 17/16 Q1013,YSWG,2015-04-18T07:18:00Z,-35.13,147.47,17.0,16.0,280,9,,6.21,29.911417,,,TRUE,,,,,,,,SCT,700,SCT,1300,SCT,3100,,,VFR,,,,,,,,,,,,SPECI,213.0
KSJX 180718Z AUTO 28006KT 10SM CLR 06/00 A2996 RMK AO2 T00560000,KSJX,2015-04-18T07:18:00Z,45.7,-85.57,5.6,0.0,280,6,,10.0,29.958662,,,TRUE,TRUE,,,,,,,CLR,,,,,,,,VFR,,,,,,,,,,,,SPECI,204.0
KBDU 180718Z AUTO 34004KT 10SM OVC032 05/02 A3002 RMK AO2,KBDU,2015-04-18T07:18:00Z,40.03,-105.23,5.0,2.0,340,4,,10.0,30.02067,,,TRUE,TRUE,,,,,,,OVC,3200,,,,,,,VFR,,,,,,,,,,,,SPECI,1612.0
KFTG 180718Z AUTO 00000KT 10SM CLR 03/03 A3002 RMK AO2,KFTG,2015-04-18T07:18:00Z,39.78,-104.55,3.0,3.0,0,0,,10.0,30.02067,,,TRUE,TRUE,,,,,,,CLR,,,,,,,,VFR,,,,,,,,,,,,SPECI,1675.0
KATT 180717Z AUTO 01003KT 10SM BKN021 18/18 A2991 RMK AO2 T01830178 $,KATT,2015-04-18T07:17:00Z,30.32,-97.77,18.3,17.8,10,3,,10.0,29.911417,,,TRUE,TRUE,TRUE,,,,,,BKN,2100,,,,,,,MVFR,,,,,,,,,,,,SPECI,201.0
KHFF 180717Z AUTO 16001KT 6SM -RA OVC090 18/17 A3000 RMK AO2 RAB17 TSNO $,KHFF,2015-04-18T07:17:00Z,35.02,-79.5,18.0,17.0,160,1,,6.0,30.0,,,TRUE,TRUE,TRUE,,TRUE,,,-RA,OVC,9000,,,,,,,VFR,,,,,,,,,,,,SPECI,115.0
RKPC 180717Z 03007KT 350V060 4000 -RA FEW010 BKN025 OVC080 17/15 Q1010 WS R13 R31 NOSIG,RKPC,2015-04-18T07:17:00Z,33.5,126.48,17.0,15.0,30,7,,2.49,29.822834,,,,,,TRUE,,,,-RA,FEW,1000,BKN,2500,OVC,8000,,,IFR,,,,,,,,,,,,SPECI,27.0
KNSE 180717Z AUTO 00000KT 1/2SM FG VV001 18/18 A2992 RMK AO2 T01830178,KNSE,2015-04-18T07:17:00Z,30.73,-87.02,18.3,17.8,0,0,,0.5,29.920275,,,TRUE,TRUE,,,,,,FG,OVX,0,,,,,,,LIFR,,,,,,,,,,,100,SPECI,61.0
KSKF 180717Z AUTO 04005KT 10SM FEW006 19/19 A2987 RMK AO2 $,KSKF,2015-04-18T07:17:00Z,29.37,-98.57,19.0,19.0,40,5,,10.0,29.870079,,,TRUE,TRUE,TRUE,,,,,,FEW,600,,,,,,,VFR,,,,,,,,,,,,SPECI,210.0
KTUP 180717Z AUTO 00000KT 6SM BR BKN005 16/14 A2998 RMK AO2 T01560144,KTUP,2015-04-18T07:17:00Z,34.27,-88.77,15.6,14.4,0,0,,6.0,29.97933,,,TRUE,TRUE,,,,,,BR,BKN,500,,,,,,,IFR,,,,,,,,,,,,SPECI,105.0
KMNH 180717Z AUTO 30004KT 1 3/4SM BR BKN001 OVC007 00/00 A3001 RMK AO2,KMNH,2015-04-18T07:17:00Z,39.22,-104.65,0.0,0.0,300,4,,1.75,30.008858,,,TRUE,TRUE,,,,,,BR,BKN,100,OVC,700,,,,,LIFR,,,,,,,,,,,,SPECI,2152.0
K4BM 180717Z AUTO 08004KT 4SM -SN OVC003 M07/M08 A3005 RMK AO2,K4BM,2015-04-18T07:17:00Z,39.05,-105.52,-7.0,-8.0,80,4,,4.0,30.050198,,,TRUE,TRUE,,,,,,-SN,OVC,300,,,,,,,LIFR,,,,,,,,,,,,SPECI,3438.0
K04V 180717Z AUTO 32010G14KT 10SM CLR M03/M07 A3005 RMK AO2,K04V,2015-04-18T07:17:00Z,38.1,-106.17,-3.0,-7.0,320,10,14,10.0,30.050198,,,TRUE,TRUE,,,,,,,CLR,,,,,,,,VFR,,,,,,,,,,,,SPECI,2385.0
KJMR 180717Z AUTO 04003KT 10SM CLR 10/M03 A3010 RMK AO2,KJMR,2015-04-18T07:17:00Z,45.88,-93.27,10.0,-3.0,40,3,,10.0,30.100393,,,TRUE,TRUE,,,,,,,CLR,,,,,,,,VFR,,,,,,,,,,,,SPECI,309.0
KDLZ 180717Z AUTO 00000KT 10SM CLR 08/05 A3003 RMK AO2,KDLZ,2015-04-18T07:17:00Z,40.28,-83.12,8.0,5.0,0,0,,10.0,30.029528,,,TRUE,TRUE,,,,,,,CLR,,,,,,,,VFR,,,,,,,,,,,,SPECI,289.0
KCPW 180717Z AUTO 22004KT 10SM SCT002 BKN070 M12/M12 A3003 RMK AO2,KCPW,2015-04-18T07:17:00Z,37.45,-106.8,-12.0,-12.0,220,4,,10.0,30.029528,,,TRUE,TRUE,,,,,,,SCT,200,BKN,7000,,,,,VFR,,,,,,,,,,,,SPECI,3584.0
FABL 180716Z VRB03KT CAVOK 12/02 Q1027 NOSIG,FABL,2015-04-18T07:16:00Z,-29.1,26.3,12.0,2.0,0,3,,6.21,30.324802,,,,,,TRUE,,,,,CAVOK,,,,,,,,VFR,,,,,,,,,,,,SPECI,1348.0
CWHN 180716Z AUTO 30004KT 9SM BKN032 OVC048 OVC089 05/02 A2989,CWHN,2015-04-18T07:16:00Z,54.88,-109.97,5.0,2.0,300,4,,9.0,29.890747,,,TRUE,,,,,,,,BKN,3200,OVC,4800,OVC,8900,,,VFR,,,,,,,,,,,,SPECI,636.0
PATC 180716Z AUTO 03027KT 1/2SM -SN BKN005 M16/M17 A2991 RMK AO2 PK WND 02030/0659 SLP140,PATC,2015-04-18T07:16:00Z,65.57,-167.92,-16.0,-17.0,30,27,,0.5,29.911417,1014.0,,TRUE,TRUE,,,,,,-SN,BKN,500,,,,,,,LIFR,,,,,,,,,,,,SPECI,83.0
KAVC 180716Z AUTO 00000KT 5SM CLR 14/14 A3003 RMK AO2 T01390136,KAVC,2015-04-18T07:16:00Z,36.68,-78.03,13.9,13.6,0,0,,5.0,30.029528,,,TRUE,TRUE,,,,,,,CLR,,,,,,,,MVFR,,,,,,,,,,,,SPECI,135.0
KTTF 180716Z AUTO 00000KT 10SM CLR 09/08 A2999 RMK AO2,KTTF,2015-04-18T07:16:00Z,41.93,-83.42,9.0,8.0,0,0,,10.0,29.991142,,,TRUE,TRUE,,,,,,,CLR,,,,,,,,VFR,,,,,,,,,,,,SPECI,188.0
KTOR 180716Z AUTO 28006KT 4SM RA BR FEW008 OVC014 05/04 A3003 RMK AO2 P0005 T00500044,KTOR,2015-04-18T07:16:00Z,42.07,-104.15,5.0,4.4,280,6,,4.0,30.029528,,,TRUE,TRUE,,,,,,RA BR,FEW,800,OVC,1400,,,,,MVFR,,,,,,0.05,,,,,,SPECI,1277.0
KPHN 180716Z AUTO 00000KT 10SM CLR 07/07 A2998 RMK AO2,KPHN,2015-04-18T07:16:00Z,42.92,-82.52,7.0,7.0,0,0,,10.0,29.97933,,,TRUE,TRUE,,,,,,,CLR,,,,,,,,VFR,,,,,,,,,,,,SPECI,198.0
KMCD 180716Z AUTO 22008KT 10SM CLR 08/00 A2992 RMK AO2 T00781001,KMCD,2015-04-18T07:16:00Z,45.85,-84.63,7.8,-0.1,220,8,,10.0,29.920275,,,TRUE,TRUE,,,,,,,CLR,,,,,,,,VFR,,,,,,,,,,,,SPECI,226.0
K1J0 180716Z AUTO 00000KT 3/4SM BR VV002 18/18 A2993 RMK AO2 T01830183 PNO $,K1J0,2015-04-18T07:16:00Z,30.85,-85.6,18.3,18.3,0,0,,0.75,29.929134,,,TRUE,TRUE,TRUE,,,,,BR,OVX,0,,,,,,,LIFR,,,,,,,,,,,200,SPECI,26.0
PAWS 180716Z AUTO 09014G24KT 10SM CLR 05/M08 A2980 RMK AO1,PAWS,2015-04-18T07:16:00Z,61.57,-149.53,5.0,-8.0,90,14,24,10.0,29.799213,,,TRUE,TRUE,,,,,,,CLR,,,,,,,,VFR,,,,,,,,,,,,SPECI,107.0
PAWN 180716Z AUTO 00000KT 10SM OVC031 M11/M14 A2985 RMK AO1,PAWN,2015-04-18T07:16:00Z,67.57,-162.98,-11.0,-14.0,0,0,,10.0,29.84941,,,TRUE,TRUE,,,,,,,OVC,3100,,,,,,,VFR,,,,,,,,,,,,SPECI,30.0
PAWG 180716Z AUTO 13009KT 10SM BKN031 OVC038 05/02 A3048 RMK AO1,PAWG,2015-04-18T07:16:00Z,56.48,-132.37,5.0,2.0,130,9,,10.0,30.481298,,,TRUE,TRUE,,,,,,,BKN,3100,OVC,3800,,,,,VFR,,,,,,,,,,,,SPECI,11.0
PAVD 180716Z 00000KT 10SM BKN070 OVC085 02/00 A3003 RMK AO1,PAVD,2015-04-18T07:16:00Z,61.13,-146.25,2.0,0.0,0,0,,10.0,30.029528,,,,TRUE,,,,,,,BKN,7000,OVC,8500,,,,,VFR,,,,,,,,,,,,SPECI,37.0
PAUN 180716Z AUTO 00000KT 10SM CLR M07/M09 A2973 RMK AO1,PAUN,2015-04-18T07:16:00Z,63.88,-160.8,-7.0,-9.0,0,0,,10.0,29.731298,,,TRUE,TRUE,,,,,,,CLR,,,,,,,,VFR,,,,,,,,,,,,SPECI,6.0
PATG 180716Z AUTO 03014KT 10SM FEW035 OVC055 01/M01 A2928 RMK AO1,PATG,2015-04-18T07:16:00Z,59.05,-160.38,1.0,-1.0,30,14,,10.0,29.279528,,,TRUE,TRUE,,,,,,,FEW,3500,OVC,5500,,,,,VFR,,,,,,,,,,,,SPECI,4.0
PASX 180716Z AUTO 07007KT 10SM FEW039 OVC049 03/M02 A2968 RMK AO1,PASX,2015-04-18T07:16:00Z,60.48,-151.03,3.0,-2.0,70,7,,10.0,29.681103,,,TRUE,TRUE,,,,,,,FEW,3900,OVC,4900,,,,,VFR,,,,,,,,,,,,SPECI,32.0
PASM 180716Z AUTO 01008KT 10SM FEW036 BKN055 BKN070 M07/M09 A2961 RMK AO1,PASM,2015-04-18T07:16:00Z,62.07,-163.3,-7.0,-9.0,10,8,,10.0,29.610237,,,TRUE,TRUE,,,,,,,FEW,3600,BKN,5500,BKN,7000,,,VFR,,,,,,,,,,,,SPECI,92.0
PASL 180716Z AUTO 00000KT 10SM FEW055 OVC070 03/M06 A2956 RMK AO1,PASL,2015-04-18T07:16:00Z,61.72,-157.15,3.0,-6.0,0,0,,10.0,29.56004,,,TRUE,TRUE,,,,,,,FEW,5500,OVC,7000,,,,,VFR,,,,,,,,,,,,SPECI,55.0
PASK 180716Z AUTO 00000KT 9SM OVC017 M12/M14 A2994 RMK AO1,PASK,2015-04-18T07:16:00Z,66.6,-160.0,-12.0,-14.0,0,0,,9.0,29.940945,,,TRUE,TRUE,,,,,,,OVC,1700,,,,,,,MVFR,,,,,,,,,,,,SPECI,8.0
PASD 180716Z AUTO 00000KT 10SM 04/04 A2908 RMK AO1,PASD,2015-04-18T07:16:00Z,55.33,-160.5,4.0,4.0,0,0,,10.0,29.078741,,,TRUE,TRUE,,,,,,,,,,,,,,,,,,,,,,,,,,,SPECI,7.0
PASA 180716Z AUTO 02012G15KT 10SM OVC018 A2999 RMK AO1,PASA,2015-04-18T07:16:00Z,63.68,-170.5,,,20,12,15,10.0,29.991142,,,TRUE,TRUE,,,,,,,OVC,1800,,,,,,,MVFR,,,,,,,,,,,,SPECI,16.0
PARC 180716Z AUTO 00000KT 10SM OVC040 M04/M06 A2991 RMK AO1,PARC,2015-04-18T07:16:00Z,68.12,-145.58,-4.0,-6.0,0,0,,10.0,29.911417,,,TRUE,TRUE,,,,,,,OVC,4000,,,,,,,VFR,,,,,,,,,,,,SPECI,636.0
PAPO 180716Z AUTO 35006KT 10SM SCT095 M13/M15 A2994 RMK AO1,PAPO,2015-04-18T07:16:00Z,68.35,-166.8,-13.0,-15.0,350,6,,10.0,29.940945,,,TRUE,TRUE,,,,,,,SCT,9500,,,,,,,VFR,,,,,,,,,,,,SPECI,6.0
PAPH 180716Z AUTO 06004KT 10SM BKN033 BKN040 OVC046 03/M02 A2913 RMK AO1,PAPH,2015-04-18T07:16:00Z,56.95,-158.62,3.0,-2.0,60,4,,10.0,29.128937,,,TRUE,TRUE,,,,,,,BKN,3300,BKN,4000,OVC,4600,,,VFR,,,,,,,,,,,,SPECI,29.0
PANV 180716Z AUTO 03013G17KT 10SM FEW060 BKN100 M01/M07 A2958 RMK AO1,PANV,2015-04-18T07:16:00Z,62.65,-160.18,-1.0,-7.0,30,13,17,10.0,29.58071,,,TRUE,TRUE,,,,,,,FEW,6000,BKN,10000,,,,,VFR,,,,,,,,,,,,SPECI,99.0
PANI 180716Z AUTO 08008KT 10SM FEW060 OVC070 04/M04 A2952 RMK AO1,PANI,2015-04-18T07:16:00Z,61.58,-159.53,4.0,-4.0,80,8,,10.0,29.518702,,,TRUE,TRUE,,,,,,,FEW,6000,OVC,7000,,,,,VFR,,,,,,,,,,,,SPECI,26.0
PAMY 180716Z AUTO 02021G29KT 4SM FEW010 OVC023 M07/M11 A2962 RMK AO1,PAMY,2015-04-18T07:16:00Z,60.37,-166.27,-7.0,-11.0,20,21,29,4.0,29.619095,,,TRUE,TRUE,,,,,,,FEW,1000,OVC,2300,,,,,MVFR,,,,,,,,,,,,SPECI,13.0
PAMM 180716Z AUTO 15004KT 10SM BKN120 06/01 A3050 RMK AO1,PAMM,2015-04-18T07:16:00Z,55.13,-131.58,6.0,1.0,150,4,,10.0,30.499016,,,TRUE,TRUE,,,,,,,BKN,12000,,,,,,,VFR,,,,,,,,,,,,SPECI,1.0
PAMH 180716Z AUTO 00000KT 10SM CLR 03/M06 A2972 RMK AO1,PAMH,2015-04-18T07:16:00Z,63.9,-152.32,3.0,-6.0,0,0,,10.0,29.719488,,,TRUE,TRUE,,,,,,,CLR,,,,,,,,VFR,,,,,,,,,,,,SPECI,214.0
PAMD 180716Z AUTO 10040G51KT 2 1/2SM SCT011 OVC019 04/03 A2982 RMK AO1,PAMD,2015-04-18T07:16:00Z,59.43,-146.3,4.0,3.0,100,40,51,2.5,29.819881,,,TRUE,TRUE,,,,,,,SCT,1100,OVC,1900,,,,,IFR,,,,,,,,,,,,SPECI,14.0
PAKP 180716Z AUTO 02003KT 9SM FEW038 SCT045 OVC050 M14/M18 A2983 RMK AO1,PAKP,2015-04-18T07:16:00Z,68.13,-151.73,-14.0,-18.0,20,3,,9.0,29.828741,,,TRUE,TRUE,,,,,,,FEW,3800,SCT,4500,OVC,5000,,,VFR,,,,,,,,,,,,SPECI,642.0
PAKK 180716Z AUTO 36015G20KT 320V020 10SM FEW060 M12/M21 A2976 RMK AO1,PAKK,2015-04-18T07:16:00Z,64.93,-161.15,-12.0,-21.0,360,15,20,10.0,29.760826,,,TRUE,TRUE,,,,,,,FEW,6000,,,,,,,VFR,,,,,,,,,,,,SPECI,47.0
PAIN 180716Z AUTO 20006KT 10SM BKN060 02/M08 A2982 RMK AO1,PAIN,2015-04-18T07:16:00Z,63.73,-148.92,2.0,-8.0,200,6,,10.0,29.819881,,,TRUE,TRUE,,,,,,,BKN,6000,,,,,,,VFR,,,,,,,,,,,,SPECI,524.0
PAII 180716Z AUTO 06006KT 10SM BKN024 OVC075 02/01 A2920 RMK AO1,PAII,2015-04-18T07:16:00Z,58.18,-157.38,2.0,1.0,60,6,,10.0,29.199802,,,TRUE,TRUE,,,,,,,BKN,2400,OVC,7500,,,,,MVFR,,,,,,,,,,,,SPECI,30.0
PAHY 180716Z AUTO 10SM BKN080 OVC090 06/00 A3047 RMK AO1,PAHY,2015-04-18T07:16:00Z,55.2,-132.83,6.0,0.0,,,,10.0,30.469488,,,TRUE,TRUE,,,,,,,BKN,8000,OVC,9000,,,,,VFR,,,,,,,,,,,,SPECI,1.0
PAHL 180716Z AUTO 33004KT 10SM CLR M06/M11 A2982 RMK AO1,PAHL,2015-04-18T07:16:00Z,65.7,-156.35,-6.0,-11.0,330,4,,10.0,29.819881,,,TRUE,TRUE,,,,,,,CLR,,,,,,,,VFR,,,,,,,,,,,,SPECI,65.0
PAGS 180716Z AUTO 14006KT 10SM FEW048 BKN055 BKN070 04/01 A3037 RMK AO1 PNO,PAGS,2015-04-18T07:16:00Z,58.42,-135.73,4.0,1.0,140,6,,10.0,30.369095,,,TRUE,TRUE,,,,,,,FEW,4800,BKN,5500,BKN,7000,,,VFR,,,,,,,,,,,,SPECI,9.0
PAGM 180716Z AUTO 02019KT 5SM BKN018 M14/M17 A3002 RMK AO1,PAGM,2015-04-18T07:16:00Z,63.77,-171.73,-14.0,-17.0,20,19,,5.0,30.02067,,,TRUE,TRUE,,,,,,,BKN,1800,,,,,,,MVFR,,,,,,,,,,,,SPECI,8.0
PAFM 180716Z AUTO 00000KT 10SM OVC022 M10/M13 A2992 RMK AO1,PAFM,2015-04-18T07:16:00Z,67.1,-157.85,-10.0,-13.0,0,0,,10.0,29.920275,,,TRUE,TRUE,,,,,,,OVC,2200,,,,,,,MVFR,,,,,,,,,,,,SPECI,88.0
PAFE 180716Z AUTO 10005KT 10SM CLR 04/02 A3046 RMK AO1,PAFE,2015-04-18T07:16:00Z,56.97,-133.92,4.0,2.0,100,5,,10.0,30.46063,,,TRUE,TRUE,,,,,,,CLR,,,,,,,,VFR,,,,,,,,,,,,SPECI,9.0
PAEM 180716Z AUTO 03019G22KT 10SM OVC010 M08/M11 A2974 RMK AO1,PAEM,2015-04-18T07:16:00Z,62.77,-164.52,-8.0,-11.0,30,19,22,10.0,29.740158,,,TRUE,TRUE,,,,,,,OVC,1000,,,,,,,MVFR,,,,,,,,,,,,SPECI,3.0
PADL 180716Z 06018G25KT 10SM OVC011 02/02 A2927 RMK AO1,PADL,2015-04-18T07:16:00Z,59.05,-158.52,2.0,2.0,60,18,25,10.0,29.27067,,,,TRUE,,,,,,,OVC,1100,,,,,,,MVFR,,,,,,,,,,,,SPECI,26.0
PABV 180716Z AUTO 04017G27KT 10SM BKN090 06/M04 A2977 RMK AO1,PABV,2015-04-18T07:16:00Z,61.42,-149.52,6.0,-4.0,40,17,27,10.0,29.769686,,,TRUE,TRUE,,,,,,,BKN,9000,,,,,,,VFR,,,,,,,,,,,,SPECI,29.0
PABL 180716Z AUTO 33006KT 10SM OVC021 M12/M14 A2991 RMK AO1,PABL,2015-04-18T07:16:00Z,65.98,-161.15,-12.0,-14.0,330,6,,10.0,29.911417,,,TRUE,TRUE,,,,,,,OVC,2100,,,,,,,MVFR,,,,,,,,,,,,SPECI,7.0
PADK 180716Z 02022G26KT 10SM FEW027 OVC050 00/M06 A2956 RMK AO1,PADK,2015-04-18T07:16:00Z,51.88,-176.65,0.0,-6.0,20,22,26,10.0,29.56004,,,,TRUE,,,,,,,FEW,2700,OVC,5000,,,,,VFR,,,,,,,,,,,,SPECI,4.0
PAAK 180716Z 34022G28KT 8SM BKN026 OVC034 01/M05 A2937 RMK AO1,PAAK,2015-04-18T07:16:00Z,52.22,-174.2,1.0,-5.0,340,22,28,8.0,29.371063,,,,TRUE,,,,,,,BKN,2600,OVC,3400,,,,,MVFR,,,,,,,,,,,,SPECI,17.0
PAHP 180716Z AUTO 01023G28KT 2 1/2SM CLR M10/M12 A2967 RMK AO1,PAHP,2015-04-18T07:16:00Z,61.53,-166.15,-10.0,-12.0,10,23,28,2.5,29.66929,,,TRUE,TRUE,,,,,,,CLR,,,,,,,,IFR,,,,,,,,,,,,SPECI,5.0
PAGL 180716Z AUTO 31010KT 10SM OVC026 M11/M14 A2981 RMK AO1,PAGL,2015-04-18T07:16:00Z,64.55,-163.03,-11.0,-14.0,310,10,,10.0,29.811024,,,TRUE,TRUE,,,,,,,OVC,2600,,,,,,,MVFR,,,,,,,,,,,,SPECI,8.0
PFYU 180716Z AUTO 07003KT 10SM CLR 00/M07 A2994 RMK AO1,PFYU,2015-04-18T07:16:00Z,66.57,-145.27,0.0,-7.0,70,3,,10.0,29.940945,,,TRUE,TRUE,,,,,,,CLR,,,,,,,,VFR,,,,,,,,,,,,SPECI,131.0
PAZK 180716Z AUTO 12008KT 10SM CLR M03/M11 A2978 RMK AO1,PAZK,2015-04-18T07:16:00Z,61.93,-147.17,-3.0,-11.0,120,8,,10.0,29.778543,,,TRUE,TRUE,,,,,,,CLR,,,,,,,,VFR,,,,,,,,,,,,SPECI,1003.0
CYZX 180716Z 23002KT 8SM BKN060 05/04 A2980 RMK SC6 WNDY,CYZX,2015-04-18T07:16:00Z,44.98,-64.92,5.0,4.0,230,2,,8.0,29.799213,,,,,,,,,,,BKN,6000,,,,,,,VFR,,,,,,,,,,,,METAR,28.0
CYTL 180716Z AUTO 34003KT 310V010 9SM OVC010 00/00 A3019 RMK SLP236,CYTL,2015-04-18T07:16:00Z,53.82,-89.88,0.0,0.0,340,3,,9.0,30.188976,1023.6,,TRUE,,,,,,,,OVC,1000,,,,,,,MVFR,,,,,,,,,,,,SPECI,224.0
KDRM 180716Z AUTO 21004KT 10SM CLR 04/M01 A2990 RMK AO2 T00441010,KDRM,2015-04-18T07:16:00Z,46.0,-83.75,4.4,-1.0,210,4,,10.0,29.899607,,,TRUE,TRUE,,,,,,,CLR,,,,,,,,VFR,,,,,,,,,,,,SPECI,204.0
KCOQ 180716Z AUTO 06005KT 10SM CLR 09/M03 A3013 RMK AO2,KCOQ,2015-04-18T07:16:00Z,46.7,-92.5,9.0,-3.0,60,5,,10.0,30.129921,,,TRUE,TRUE,,,,,,,CLR,,,,,,,,VFR,,,,,,,,,,,,SPECI,390.0
KAUM 180716Z AUTO 00000KT 10SM CLR 12/04 A3004 RMK AO2,KAUM,2015-04-18T07:16:00Z,43.67,-92.92,12.0,4.0,0,0,,10.0,30.041338,,,TRUE,TRUE,,,,,,,CLR,,,,,,,,VFR,,,,,,,,,,,,SPECI,375.0
K4I3 180716Z AUTO 00000KT 10SM CLR 12/06 A3003 RMK AO2,K4I3,2015-04-18T07:16:00Z,40.33,-82.53,12.0,6.0,0,0,,10.0,30.029528,,,TRUE,TRUE,,,,,,,CLR,,,,,,,,VFR,,,,,,,,,,,,SPECI,363.0
KMQJ 180716Z AUTO 15004KT 10SM CLR 11/05 A3005 RMK AO1,KMQJ,2015-04-18T07:16:00Z,39.85,-85.9,11.0,5.0,150,4,,10.0,30.050198,,,TRUE,TRUE,,,,,,,CLR,,,,,,,,VFR,,,,,,,,,,,,SPECI,263.0
KMGG 180716Z AUTO 31003KT 10SM CLR 05/00 A3007 RMK AO2 T00520000,KMGG,2015-04-18T07:16:00Z,45.23,-93.98,5.2,0.0,310,3,,10.0,30.070866,,,TRUE,TRUE,,,,,,,CLR,,,,,,,,VFR,,,,,,,,,,,,SPECI,313.0
KROS 180716Z AUTO 03005KT 10SM SCT110 11/M02 A3008 RMK AO2 T01061016,KROS,2015-04-18T07:16:00Z,45.7,-92.95,10.6,-1.6,30,5,,10.0,30.079725,,,TRUE,TRUE,,,,,,,SCT,11000,,,,,,,VFR,,,,,,,,,,,,SPECI,281.0
K40B 180716Z AUTO 00000KT M02/M04 A2990 RMK AO1 SLP135 T10221043 51008 P0001,K40B,2015-04-18T07:16:00Z,46.62,-69.52,-2.2,-4.3,0,0,,,29.899607,1013.5,,TRUE,TRUE,,,,,,,,,,,,,,,,0.8,,,,,0.01,,,,,,SPECI,314.0
KBJC 180716Z AUTO 35006KT 10SM OVC019 04/02 A3002 RMK AO2,KBJC,2015-04-18T07:16:00Z,39.9,-105.1,4.0,2.0,350,6,,10.0,30.02067,,,TRUE,TRUE,,,,,,,OVC,1900,,,,,,,MVFR,,,,,,,,,,,,SPECI,1724.0
K33V 180716Z AUTO 32003KT 10SM SCT065 BKN075 OVC100 M01/M03 A3003 RMK AO2,K33V,2015-04-18T07:16:00Z,40.75,-106.28,-1.0,-3.0,320,3,,10.0,30.029528,,,TRUE,TRUE,,,,,,,SCT,6500,BKN,7500,OVC,10000,,,VFR,,,,,,,,,,,,SPECI,2484.0
KXVG 180716Z AUTO 03004KT 10SM CLR 08/M02 A3012 RMK AO2,KXVG,2015-04-18T07:16:00Z,46.98,-94.2,8.0,-2.0,30,4,,10.0,30.121063,,,TRUE,TRUE,,,,,,,CLR,,,,,,,,VFR,,,,,,,,,,,,METAR,407.0
KWWR 180715Z AUTO 13003KT 10SM BKN015 15/13 A2998 RMK AO2,KWWR,2015-04-18T07:15:00Z,36.45,-99.52,15.0,13.0,130,3,,10.0,29.97933,,,TRUE,TRUE,,,,,,,BKN,1500,,,,,,,MVFR,,,,,,,,,,,,SPECI,667.0
KW75 180715Z AUTO 00000KT 10SM BKN100 17/16 A2995 RMK AO1 T01680155,KW75,2015-04-18T07:15:00Z,37.6,-76.45,16.8,15.5,0,0,,10.0,29.949802,,,TRUE,TRUE,,,,,,,BKN,10000,,,,,,,VFR,,,,,,,,,,,,SPECI,9.0
KW22 180715Z AUTO 00000KT 5SM BR CLR 12/12 A3001 RMK AO2,KW22,2015-04-18T07:15:00Z,39.0,-80.27,12.0,12.0,0,0,,5.0,30.008858,,,TRUE,TRUE,,,,,,BR,CLR,,,,,,,,MVFR,,,,,,,,,,,,SPECI,499.0
KVUJ 180715Z AUTO 35003KT 7SM SCT120 16/16 A3002 RMK AO2 T01610161,KVUJ,2015-04-18T07:15:00Z,35.42,-80.15,16.1,16.1,350,3,,7.0,30.02067,,,TRUE,TRUE,,,,,,,SCT,12000,,,,,,,VFR,,,,,,,,,,,,SPECI,186.0
KVJI 180715Z AUTO 00000KT 10SM CLR 14/14 A3005 RMK AO2 T01390136,KVJI,2015-04-18T07:15:00Z,36.67,-82.02,13.9,13.6,0,0,,10.0,30.050198,,,TRUE,TRUE,,,,,,,CLR,,,,,,,,VFR,,,,,,,,,,,,SPECI,631.0
KVES 180715Z AUTO 26004KT 10SM CLR 10/08 A3005 RMK AO2,KVES,2015-04-18T07:15:00Z,40.2,-84.53,10.0,8.0,260,4,,10.0,30.050198,,,TRUE,TRUE,,,,,,,CLR,,,,,,,,VFR,,,,,,,,,,,,SPECI,307.0
KVER 180715Z AUTO 11007KT 10SM CLR 19/13 A2996 RMK AO2 T01870127,KVER,2015-04-18T07:15:00Z,38.95,-92.68,18.7,12.7,110,7,,10.0,29.958662,,,TRUE,TRUE,,,,,,,CLR,,,,,,,,VFR,,,,,,,,,,,,SPECI,218.0
KVDI 180715Z AUTO 13003KT 5SM RA OVC003 19/19 A2997 RMK AO2,KVDI,2015-04-18T07:15:00Z,32.2,-82.37,19.0,19.0,130,3,,5.0,29.970472,,,TRUE,TRUE,,,,,,RA,OVC,300,,,,,,,LIFR,,,,,,,,,,,,SPECI,84.0
KVCV 180715Z AUTO 15008KT 10SM CLR 16/M09 A3008 RMK AO2,KVCV,2015-04-18T07:15:00Z,34.58,-117.38,16.0,-9.0,150,8,,10.0,30.079725,,,TRUE,TRUE,,,,,,,CLR,,,,,,,,VFR,,,,,,,,,,,,SPECI,876.0
KUXL 180715Z AUTO 00000KT 2SM +TSRA SCT008 BKN014 OVC026 20/20 A2996 RMK AO2 LTG DSNT ALQS P0018 T02010200,KUXL,2015-04-18T07:15:00Z,30.13,-93.38,20.1,20.0,0,0,,2.0,29.958662,,,TRUE,TRUE,,,,,,+TSRA,SCT,800,BKN,1400,OVC,2600,,,IFR,,,,,,0.18,,,,,,SPECI,4.0
KUKF 180715Z AUTO 00000KT 10SM OVC095 14/14 A3004 RMK AO2,KUKF,2015-04-18T07:15:00Z,36.22,-81.1,14.0,14.0,0,0,,10.0,30.041338,,,TRUE,TRUE,,,,,,,OVC,9500,,,,,,,VFR,,,,,,,,,,,,SPECI,396.0
KUBE 180715Z AUTO 03008KT 10SM CLR 11/M02 A3007 RMK AO2,KUBE,2015-04-18T07:15:00Z,45.5,-91.98,11.0,-2.0,30,8,,10.0,30.070866,,,TRUE,TRUE,,,,,,,CLR,,,,,,,,VFR,,,,,,,,,,,,SPECI,379.0
KU68 180715Z AUTO 04006KT 10SM CLR 06/M04 A3003 RMK AO2,KU68,2015-04-18T07:15:00Z,44.92,-108.45,6.0,-4.0,40,6,,10.0,30.029528,,,TRUE,TRUE,,,,,,,CLR,,,,,,,,VFR,,,,,,,,,,,,SPECI,1247.0
KTZR 180715Z AUTO 00000KT 10SM CLR 08/07 A3003 RMK AO2 T00840067,KTZR,2015-04-18T07:15:00Z,39.9,-83.13,8.4,6.7,0,0,,10.0,30.029528,,,TRUE,TRUE,,,,,,,CLR,,,,,,,,VFR,,,,,,,,,,,,SPECI,276.0
KTVK 180715Z AUTO 10005KT 10SM CLR 17/12 A3001 RMK AO2,KTVK,2015-04-18T07:15:00Z,40.68,-92.9,17.0,12.0,100,5,,10.0,30.008858,,,TRUE,TRUE,,,,,,,CLR,,,,,,,,VFR,,,,,,,,,,,,SPECI,314.0
KTRK 180715Z AUTO 00000KT 10SM CLR 00/M03 A3023 RMK AO2,KTRK,2015-04-18T07:15:00Z,39.32,-120.12,0.0,-3.0,0,0,,10.0,30.230314,,,TRUE,TRUE,,,,,,,CLR,,,,,,,,VFR,,,,,,,,,,,,SPECI,1798.0
KTOC 180715Z AUTO 00000KT 5SM BR SCT060 OVC080 16/16 A3000 RMK AO2 T01640164,KTOC,2015-04-18T07:15:00Z,34.6,-83.3,16.4,16.4,0,0,,5.0,30.0,,,TRUE,TRUE,,,,,,BR,SCT,6000,OVC,8000,,,,,MVFR,,,,,,,,,,,,SPECI,304.0
KTNU 180715Z AUTO 04005KT 10SM BKN075 17/10 A3000 RMK AO2 PWINO,KTNU,2015-04-18T07:15:00Z,41.67,-93.02,17.0,10.0,40,5,,10.0,30.0,,,TRUE,TRUE,,,,,TRUE,,BKN,7500,,,,,,,VFR,,,,,,,,,,,,SPECI,290.0
KTIP 180715Z AUTO 00000KT 10SM BKN075 15/11 A3004 RMK AO2 T01460110,KTIP,2015-04-18T07:15:00Z,40.28,-88.15,14.6,11.0,0,0,,10.0,30.041338,,,TRUE,TRUE,,,,,,,BKN,7500,,,,,,,VFR,,,,,,,,,,,,SPECI,225.0
KTIF 180715Z AUTO 08008KT 7SM BKN022 BKN050 BKN070 11/10 A2998 RMK AO2 LTG DSNT ALQS T01110103,KTIF,2015-04-18T07:15:00Z,41.97,-100.57,11.1,10.3,80,8,,7.0,29.97933,,,TRUE,TRUE,,,,,,,BKN,2200,BKN,5000,BKN,7000,,,MVFR,,,,,,,,,,,,SPECI,892.0
KTFP 180715Z AUTO 12014G18KT 10SM SCT110 23/22 A2982 RMK AO2 LTG DSNT NE AND E T02290216,KTFP,2015-04-18T07:15:00Z,27.92,-97.22,22.9,21.6,120,14,18,10.0,29.819881,,,TRUE,TRUE,,,,,,,SCT,11000,,,,,,,VFR,,,,,,,,,,,,SPECI,6.0
KTDF 180715Z AUTO 00000KT 10SM CLR 15/15 A3000 RMK AO2,KTDF,2015-04-18T07:15:00Z,36.28,-78.98,15.0,15.0,0,0,,10.0,30.0,,,TRUE,TRUE,,,,,,,CLR,,,,,,,,VFR,,,,,,,,,,,,SPECI,186.0
KTAZ 180715Z AUTO 00000KT 10SM CLR 14/12 A3002 RMK AO2,KTAZ,2015-04-18T07:15:00Z,39.53,-89.33,14.0,12.0,0,0,,10.0,30.02067,,,TRUE,TRUE,,,,,,,CLR,,,,,,,,VFR,,,,,,,,,,,,SPECI,190.0
KT82 180715Z AUTO 09003KT 7SM BKN004 17/16 A2993 RMK AO2 P0001 T01670161,KT82,2015-04-18T07:15:00Z,30.25,-98.92,16.7,16.1,90,3,,7.0,29.929134,,,TRUE,TRUE,,,,,,,BKN,400,,,,,,,LIFR,,,,,,0.01,,,,,,SPECI,517.0
KT65 180715Z AUTO 06007KT 7SM OVC008 24/23 A2983 RMK AO2 T02410227,KT65,2015-04-18T07:15:00Z,26.18,-97.97,24.1,22.7,60,7,,7.0,29.828741,,,TRUE,TRUE,,,,,,,OVC,800,,,,,,,IFR,,,,,,,,,,,,SPECI,21.0
KT35 180715Z AUTO 35004KT 10SM SCT018 19/18 A2989 RMK AO2 T01880182,KT35,2015-04-18T07:15:00Z,30.88,-96.97,18.8,18.2,350,4,,10.0,29.890747,,,TRUE,TRUE,,,,,,,SCT,1800,,,,,,,VFR,,,,,,,,,,,,SPECI,123.0
KT20 180715Z AUTO 05004KT 5SM VCTS BR OVC007 20/20 A2987 RMK AO2 LTG DSNT E T01980197,KT20,2015-04-18T07:15:00Z,29.52,-97.47,19.8,19.7,50,4,,5.0,29.870079,,,TRUE,TRUE,,,,,,VCTS BR,OVC,700,,,,,,,IFR,,,,,,,,,,,,SPECI,108.0
KSVH 180715Z AUTO 28003KT 1/2SM FG OVC002 16/16 A2997 RMK AO2 T01600160,KSVH,2015-04-18T07:15:00Z,35.75,-80.95,16.0,16.0,280,3,,0.5,29.970472,,,TRUE,TRUE,,,,,,FG,OVC,200,,,,,,,LIFR,,,,,,,,,,,,SPECI,294.0
KSRR 180715Z AUTO 33006KT 10SM CLR 05/M11 A3008 RMK AO2,KSRR,2015-04-18T07:15:00Z,33.47,-105.52,5.0,-11.0,330,6,,10.0,30.079725,,,TRUE,TRUE,,,,,,,CLR,,,,,,,,VFR,,,,,,,,,,,,SPECI,2076.0
KSOA 180715Z AUTO 00000KT 10SM FEW029 14/14 A2998 RMK AO2,KSOA,2015-04-18T07:15:00Z,30.58,-100.65,14.0,14.0,0,0,,10.0,29.97933,,,TRUE,TRUE,,,,,,,FEW,2900,,,,,,,VFR,,,,,,,,,,,,SPECI,652.0
KSNK 180715Z AUTO 16005KT 10SM CLR A2996 RMK AO2 TSNO,KSNK,2015-04-18T07:15:00Z,32.7,-100.95,,,160,5,,10.0,29.958662,,,TRUE,TRUE,,,TRUE,,,,CLR,,,,,,,,VFR,,,,,,,,,,,,SPECI,741.0
KSME 180715Z AUTO 00000KT 3/4SM BR BKN003 12/12 A3006 RMK AO2,KSME,2015-04-18T07:15:00Z,37.05,-84.62,12.0,12.0,0,0,,0.75,30.059055,,,TRUE,TRUE,,,,,,BR,BKN,300,,,,,,,LIFR,,,,,,,,,,,,SPECI,283.0
KSLB 180715Z AUTO 05009KT 10SM SCT070 15/07 A3002 RMK AO2,KSLB,2015-04-18T07:15:00Z,42.6,-95.22,15.0,7.0,50,9,,10.0,30.02067,,,TRUE,TRUE,,,,,,,SCT,7000,,,,,,,VFR,,,,,,,,,,,,SPECI,454.0
KSHL 180715Z AUTO 05009KT 10SM CLR 11/M00 A3001 RMK AO2,KSHL,2015-04-18T07:15:00Z,43.22,-95.82,11.0,0.0,50,9,,10.0,30.008858,,,TRUE,TRUE,,,,,,,CLR,,,,,,,,VFR,,,,,,,,,,,,SPECI,432.0
KSHD 180715Z AUTO 00000KT 7SM CLR 12/11 A3003 RMK AO2 T01190111,KSHD,2015-04-18T07:15:00Z,38.27,-78.9,11.9,11.1,0,0,,7.0,30.029528,,,TRUE,TRUE,,,,,,,CLR,,,,,,,,VFR,,,,,,,,,,,,SPECI,366.0
KSFQ 180715Z AUTO 00000KT 3/4SM BR VV005 15/15 A2997 RMK AO2 T01480146,KSFQ,2015-04-18T07:15:00Z,36.68,-76.6,14.8,14.6,0,0,,0.75,29.970472,,,TRUE,TRUE,,,,,,BR,OVX,0,,,,,,,LIFR,,,,,,,,,,,500,SPECI,22.0
KSDA 180715Z AUTO 00000KT 10SM SCT090 17/13 A2997 RMK AO2,KSDA,2015-04-18T07:15:00Z,40.75,-95.42,17.0,13.0,0,0,,10.0,29.970472,,,TRUE,TRUE,,,,,,,SCT,9000,,,,,,,VFR,,,,,,,,,,,,SPECI,296.0
KSCR 180715Z AUTO 00000KT 10SM CLR 15/15 A2997 RMK AO2 T01510151,KSCR,2015-04-18T07:15:00Z,35.7,-79.5,15.1,15.1,0,0,,10.0,29.970472,,,TRUE,TRUE,,,,,,,CLR,,,,,,,,VFR,,,,,,,,,,,,SPECI,188.0
KRUQ 180715Z AUTO 31003KT 4SM BR OVC005 15/15 A2998 RMK AO2 T01530153,KRUQ,2015-04-18T07:15:00Z,35.65,-80.52,15.3,15.3,310,3,,4.0,29.97933,,,TRUE,TRUE,,,,,,BR,OVC,500,,,,,,,IFR,,,,,,,,,,,,SPECI,236.0
KRSN 180715Z AUTO 00000KT 10SM CLR 19/15 A2998 RMK AO2 T01850154,KRSN,2015-04-18T07:15:00Z,32.52,-92.58,18.5,15.4,0,0,,10.0,29.97933,,,TRUE,TRUE,,,,,,,CLR,,,,,,,,VFR,,,,,,,,,,,,SPECI,95.0
KRRL 180715Z AUTO 01007KT 10SM CLR 09/M01 A3004 RMK AO2 T00941009,KRRL,2015-04-18T07:15:00Z,45.2,-89.72,9.4,-0.9,10,7,,10.0,30.041338,,,TRUE,TRUE,,,,,,,CLR,,,,,,,,VFR,,,,,,,,,,,,SPECI,401.0
KRPH 180715Z AUTO 00000KT 7SM OVC050 15/15 A2994 RMK AO2 T01530153,KRPH,2015-04-18T07:15:00Z,33.12,-98.55,15.3,15.3,0,0,,7.0,29.940945,,,TRUE,TRUE,,,,,,,OVC,5000,,,,,,,VFR,,,,,,,,,,,,SPECI,342.0
KRPD 180715Z AUTO 36005KT 10SM CLR 06/01 A3008 RMK AO2 T00560007,KRPD,2015-04-18T07:15:00Z,45.42,-91.77,5.6,0.7,360,5,,10.0,30.079725,,,TRUE,TRUE,,,,,,,CLR,,,,,,,,VFR,,,,,,,,,,,,SPECI,338.0
KRNH 180715Z AUTO 00000KT 10SM CLR 05/03 A3007 RMK AO2 T00490032,KRNH,2015-04-18T07:15:00Z,45.15,-92.53,4.9,3.2,0,0,,10.0,30.070866,,,TRUE,TRUE,,,,,,,CLR,,,,,,,,VFR,,,,,,,,,,,,SPECI,304.0
KRMN 180715Z AUTO 33005KT 10SM SCT055 17/ A3002 RMK AO2 T0165,KRMN,2015-04-18T07:15:00Z,38.4,-77.45,16.5,,330,5,,10.0,30.02067,,,TRUE,TRUE,,,,,,,SCT,5500,,,,,,,VFR,,,,,,,,,,,,SPECI,65.0
KRHP 180715Z AUTO 00000KT 10SM BKN005 BKN009 OVC046 15/15 A3004 RMK AO2 T01510151,KRHP,2015-04-18T07:15:00Z,35.18,-83.85,15.1,15.1,0,0,,10.0,30.041338,,,TRUE,TRUE,,,,,,,BKN,500,BKN,900,OVC,4600,,,IFR,,,,,,,,,,,,SPECI,518.0
KRFI 180715Z AUTO 00000KT 5SM OVC110 20/20 A2993 RMK AO2 T02000200,KRFI,2015-04-18T07:15:00Z,32.15,-94.85,20.0,20.0,0,0,,5.0,29.929134,,,TRUE,TRUE,,,,,,,OVC,11000,,,,,,,MVFR,,,,,,,,,,,,SPECI,135.0
KRDK 180715Z AUTO 10008KT 10SM OVC090 18/13 A2997 RMK AO2,KRDK,2015-04-18T07:15:00Z,41.02,-95.27,18.0,13.0,100,8,,10.0,29.970472,,,TRUE,TRUE,,,,,,,OVC,9000,,,,,,,VFR,,,,,,,,,,,,SPECI,318.0
KRCZ 180715Z AUTO 00000KT 5SM BR SCT120 17/17 A2997 RMK AO2 T01730170,KRCZ,2015-04-18T07:15:00Z,34.88,-79.77,17.3,17.0,0,0,,5.0,29.970472,,,TRUE,TRUE,,,,,,BR,SCT,12000,,,,,,,MVFR,,,,,,,,,,,,SPECI,109.0
KRCR 180715Z AUTO 22004KT 10SM SCT075 SCT090 17/08 A3004 RMK AO2,KRCR,2015-04-18T07:15:00Z,41.07,-86.18,17.0,8.0,220,4,,10.0,30.041338,,,TRUE,TRUE,,,,,,,SCT,7500,SCT,9000,,,,,VFR,,,,,,,,,,,,SPECI,241.0
KPXE 180715Z AUTO 00000KT 3SM +RA BKN003 BKN008 20/19 A2995 RMK AO2 T02000190,KPXE,2015-04-18T07:15:00Z,32.52,-83.77,20.0,19.0,0,0,,3.0,29.949802,,,TRUE,TRUE,,,,,,+RA,BKN,300,BKN,800,,,,,LIFR,,,,,,,,,,,,SPECI,127.0
KPVW 180715Z AUTO 15006KT 10SM CLR 11/10 A2996 RMK AO2 T01120095,KPVW,2015-04-18T07:15:00Z,34.17,-101.72,11.2,9.5,150,6,,10.0,29.958662,,,TRUE,TRUE,,,,,,,CLR,,,,,,,,VFR,,,,,,,,,,,,SPECI,1028.0
KPVB 180715Z AUTO 36004KT 10SM CLR 16/06 A3002 RMK AO1 T01620060,KPVB,2015-04-18T07:15:00Z,42.68,-90.43,16.2,6.0,360,4,,10.0,30.02067,,,TRUE,TRUE,,,,,,,CLR,,,,,,,,VFR,,,,,,,,,,,,SPECI,313.0
KPTB 180715Z AUTO 00000KT 3/4SM BR BKN003 BKN120 15/14 A2997 RMK AO2 T01490143,KPTB,2015-04-18T07:15:00Z,37.17,-77.52,14.9,14.3,0,0,,0.75,29.970472,,,TRUE,TRUE,,,,,,BR,BKN,300,BKN,12000,,,,,LIFR,,,,,,,,,,,,SPECI,59.0
KPRS 180715Z AUTO 35006KT 10SM CLR 20/03 A2995 RMK AO2 T01960030,KPRS,2015-04-18T07:15:00Z,29.63,-104.35,19.6,3.0,350,6,,10.0,29.949802,,,TRUE,TRUE,,,,,,,CLR,,,,,,,,VFR,,,,,,,,,,,,SPECI,896.0
KPRG 180715Z AUTO 00000KT 10SM CLR 13/11 A3005 RMK AO2 T01260113,KPRG,2015-04-18T07:15:00Z,39.7,-87.67,12.6,11.3,0,0,,10.0,30.050198,,,TRUE,TRUE,,,,,,,CLR,,,,,,,,VFR,,,,,,,,,,,,SPECI,199.0
KPPA 180715Z AUTO 18010KT 10SM SCT016 13/12 A2997 RMK AO2 T01260117,KPPA,2015-04-18T07:15:00Z,35.62,-101.0,12.6,11.7,180,10,,10.0,29.970472,,,TRUE,TRUE,,,,,,,SCT,1600,,,,,,,VFR,,,,,,,,,,,,SPECI,989.0
KPOY 180715Z AUTO 00000KT 10SM CLR 08/M03 A3003 RMK AO2,KPOY,2015-04-18T07:15:00Z,44.87,-108.8,8.0,-3.0,0,0,,10.0,30.029528,,,TRUE,TRUE,,,,,,,CLR,,,,,,,,VFR,,,,,,,,,,,,SPECI,1552.0
KPNT 180715Z AUTO 19005KT 10SM SCT100 17/12 A3004 RMK AO2 T01650115,KPNT,2015-04-18T07:15:00Z,40.92,-88.62,16.5,11.5,190,5,,10.0,30.041338,,,TRUE,TRUE,,,,,,,SCT,10000,,,,,,,VFR,,,,,,,,,,,,SPECI,201.0
KPGV 180715Z AUTO 00000KT 10SM BKN035 18/18 A2999 RMK AO2,KPGV,2015-04-18T07:15:00Z,35.62,-77.4,18.0,18.0,0,0,,10.0,29.991142,,,TRUE,TRUE,,,,,,,BKN,3500,,,,,,,VFR,,,,,,,,,,,,SPECI,8.0
KPEA 180715Z AUTO 13003KT 10SM SCT060 SCT080 15/12 A3001 RMK AO2 T01500123,KPEA,2015-04-18T07:15:00Z,41.4,-92.95,15.0,12.3,130,3,,10.0,30.008858,,,TRUE,TRUE,,,,,,,SCT,6000,SCT,8000,,,,,VFR,,,,,,,,,,,,SPECI,270.0
KOOA 180715Z AUTO 15006KT 10SM CLR 15/10 A3000 RMK AO2 T01510096,KOOA,2015-04-18T07:15:00Z,41.23,-92.5,15.1,9.6,150,6,,10.0,30.0,,,TRUE,TRUE,,,,,,,CLR,,,,,,,,VFR,,,,,,,,,,,,SPECI,256.0
KOLY 180715Z AUTO 00000KT 7SM CLR 12/11 A3003 RMK AO2,KOLY,2015-04-18T07:15:00Z,38.72,-88.18,12.0,11.0,0,0,,7.0,30.029528,,,TRUE,TRUE,,,,,,,CLR,,,,,,,,VFR,,,,,,,,,,,,SPECI,147.0
KOKM 180715Z AUTO 00000KT 10SM -RA SCT045 BKN055 OVC100 18/17 A2994 RMK AO2 LTG DSNT ALQS T01760170,KOKM,2015-04-18T07:15:00Z,35.67,-95.95,17.6,17.0,0,0,,10.0,29.940945,,,TRUE,TRUE,,,,,,-RA,SCT,4500,BKN,5500,OVC,10000,,,VFR,,,,,,,,,,,,SPECI,220.0
KNY0 180715Z AUTO 26005KT 1 1/2SM SCT003 06/05 A2995 RMK AO2 T00560053,KNY0,2015-04-18T07:15:00Z,42.98,-74.33,5.6,5.3,260,5,,1.5,29.949802,,,TRUE,TRUE,,,,,,,SCT,300,,,,,,,IFR,,,,,,,,,,,,SPECI,271.0
KMWK 180715Z AUTO 00000KT 16/14 A3001 RMK AO2 T01550143 PWINO,KMWK,2015-04-18T07:15:00Z,36.47,-80.55,15.5,14.3,0,0,,,30.008858,,,TRUE,TRUE,,,,,TRUE,,,,,,,,,,,,,,,,,,,,,,SPECI,380.0
KMMU 180715Z AUTO 00000KT 5SM BR CLR 09/07 A2997 RMK AO2,KMMU,2015-04-18T07:15:00Z,40.78,-74.42,9.0,7.0,0,0,,5.0,29.970472,,,TRUE,TRUE,,,,,,BR,CLR,,,,,,,,MVFR,,,,,,,,,,,,SPECI,57.0
KMFV 180715Z AUTO 25006KT 10SM SCT095 BKN120 16/14 A2995 RMK AO2,KMFV,2015-04-18T07:15:00Z,37.63,-75.77,16.0,14.0,250,6,,10.0,29.949802,,,TRUE,TRUE,,,,,,,SCT,9500,BKN,12000,,,,,VFR,,,,,,,,,,,,SPECI,15.0
KLOT 180715Z AUTO 23004KT 10SM BKN075 BKN100 15/09 A3002 RMK AO2 T01480086,KLOT,2015-04-18T07:15:00Z,41.6,-88.1,14.8,8.6,230,4,,10.0,30.02067,,,TRUE,TRUE,,,,,,,BKN,7500,BKN,10000,,,,,VFR,,,,,,,,,,,,SPECI,205.0
KLHZ 180715Z AUTO 00000KT 7SM CLR 16/16 A2999 RMK AO2,KLHZ,2015-04-18T07:15:00Z,36.02,-78.33,16.0,16.0,0,0,,7.0,29.991142,,,TRUE,TRUE,,,,,,,CLR,,,,,,,,VFR,,,,,,,,,,,,SPECI,113.0
KL38 180715Z AUTO 21003KT 7SM VCTSRA BKN032 BKN037 OVC080 22/22 A2995 RMK AO2 LTG DSNT ALQS P0005 T02200220,KL38,2015-04-18T07:15:00Z,30.17,-90.93,22.0,22.0,210,3,,7.0,29.949802,,,TRUE,TRUE,,,,,,VCTSRA,BKN,3200,BKN,3700,OVC,8000,,,VFR,,,,,,0.05,,,,,,SPECI,4.0
KJYO 180715Z AUTO 00000KT 10SM CLR 15/13 A3000 RMK AO2,KJYO,2015-04-18T07:15:00Z,39.07,-77.57,15.0,13.0,0,0,,10.0,30.0,,,TRUE,TRUE,,,,,,,CLR,,,,,,,,VFR,,,,,,,,,,,,SPECI,119.0
KJOT 180715Z AUTO 00000KT 10SM CLR 13/10 A3002 RMK AO2 T01320097,KJOT,2015-04-18T07:15:00Z,41.52,-88.18,13.2,9.7,0,0,,10.0,30.02067,,,TRUE,TRUE,,,,,,,CLR,,,,,,,,VFR,,,,,,,,,,,,SPECI,177.0
KIYA 180715Z AUTO 01003KT 10SM SCT065 BKN090 OVC120 20/20 A2992 RMK AO2 LTG DSNT N THRU SE P0001 T02000198,KIYA,2015-04-18T07:15:00Z,29.98,-92.08,20.0,19.8,10,3,,10.0,29.920275,,,TRUE,TRUE,,,,,,,SCT,6500,BKN,9000,OVC,12000,,,VFR,,,,,,0.01,,,,,,SPECI,5.0
KIWA 180715Z AUTO 12008KT 10SM CLR 15/M04 A2998 RMK AO2,KIWA,2015-04-18T07:15:00Z,33.3,-111.65,15.0,-4.0,120,8,,10.0,29.97933,,,TRUE,TRUE,,,,,,,CLR,,,,,,,,VFR,,,,,,,,,,,,SPECI,412.0
KIOB 180715Z AUTO 00000KT 4SM BR CLR 11/11 A3007 RMK AO2,KIOB,2015-04-18T07:15:00Z,38.05,-83.98,11.0,11.0,0,0,,4.0,30.070866,,,TRUE,TRUE,,,,,,BR,CLR,,,,,,,,MVFR,,,,,,,,,,,,SPECI,311.0
KIKK 180715Z AUTO 20004KT 10SM SCT100 14/10 A3003 RMK AO2 T01350096,KIKK,2015-04-18T07:15:00Z,41.07,-87.85,13.5,9.6,200,4,,10.0,30.029528,,,TRUE,TRUE,,,,,,,SCT,10000,,,,,,,VFR,,,,,,,,,,,,SPECI,192.0
KI16 180715Z AUTO 10SM CLR 11/11 A3008 RMK AO2 T01120112,KI16,2015-04-18T07:15:00Z,37.6,-81.57,11.2,11.2,,,,10.0,30.079725,,,TRUE,TRUE,,,,,,,CLR,,,,,,,,VFR,,,,,,,,,,,,SPECI,544.0
KHZR 180715Z AUTO 26004KT 5SM TSRA SCT040 BKN090 OVC110 22/21 A2997 RMK AO2 LTG DSNT ALQS P0003 T02150210,KHZR,2015-04-18T07:15:00Z,30.72,-91.48,21.5,21.0,260,4,,5.0,29.970472,,,TRUE,TRUE,,,,,,TSRA,SCT,4000,BKN,9000,OVC,11000,,,MVFR,,,,,,0.03,,,,,,SPECI,12.0
KHWY 180715Z AUTO 00000KT 10SM BKN060 14/14 A2999 RMK AO2 T01400140,KHWY,2015-04-18T07:15:00Z,38.58,-77.72,14.0,14.0,0,0,,10.0,29.991142,,,TRUE,TRUE,,,,,,,BKN,6000,,,,,,,VFR,,,,,,,,,,,,SPECI,103.0
KHRX 180715Z AUTO 32005KT 10SM CLR 01/M03 A2999 RMK AO2 T00071030,KHRX,2015-04-18T07:15:00Z,34.87,-102.33,0.7,-3.0,320,5,,10.0,29.991142,,,TRUE,TRUE,,,,,,,CLR,,,,,,,,VFR,,,,,,,,,,,,SPECI,1154.0
KHQU 180715Z AUTO 00000KT 3SM SCT001 OVC021 19/19 A3003 RMK AO1 T01870187,KHQU,2015-04-18T07:15:00Z,33.53,-82.52,18.7,18.7,0,0,,3.0,30.029528,,,TRUE,TRUE,,,,,,,SCT,100,OVC,2100,,,,,MVFR,,,,,,,,,,,,SPECI,152.0
KHMZ 180715Z AUTO 00000KT 4SM BR CLR 06/05 A3002 RMK AO2 T00590050,KHMZ,2015-04-18T07:15:00Z,,,5.9,5.0,0,0,,4.0,30.02067,,,TRUE,TRUE,,,,,,BR,CLR,,,,,,,,MVFR,,,,,,,,,,,,SPECI,
KHII 180715Z AUTO 15004KT 10SM CLR 20/M07 A2993 RMK AO2,KHII,2015-04-18T07:15:00Z,34.57,-114.37,20.0,-7.0,150,4,,10.0,29.929134,,,TRUE,TRUE,,,,,,,CLR,,,,,,,,VFR,,,,,,,,,,,,SPECI,238.0
KHBV 180715Z AUTO 05003KT 4SM BR 20/19 A2985 RMK AO2 T02000194,KHBV,2015-04-18T07:15:00Z,27.35,-98.73,20.0,19.4,50,3,,4.0,29.84941,,,TRUE,TRUE,,,,,,BR,,,,,,,,,,,,,,,,,,,,,SPECI,202.0
KGVT 180715Z AUTO 35006KT 10SM RA SCT047 BKN070 OVC095 17/16 A2994 RMK AO2 P0002,KGVT,2015-04-18T07:15:00Z,33.07,-96.07,17.0,16.0,350,6,,10.0,29.940945,,,TRUE,TRUE,,,,,,RA,SCT,4700,BKN,7000,OVC,9500,,,VFR,,,,,,0.02,,,,,,SPECI,163.0
KGLE 180715Z AUTO 26007KT 10SM -RA SCT070 BKN080 OVC100 16/16 A2999 RMK AO2 P0001 T01620156,KGLE,2015-04-18T07:15:00Z,33.65,-97.2,16.2,15.6,260,7,,10.0,29.991142,,,TRUE,TRUE,,,,,,-RA,SCT,7000,BKN,8000,OVC,10000,,,VFR,,,,,,0.01,,,,,,SPECI,256.0
KGHG 180715Z AUTO 27004KT 10SM CLR 11/09 A2991 RMK AO2,KGHG,2015-04-18T07:15:00Z,42.1,-70.67,11.0,9.0,270,4,,10.0,29.911417,,,TRUE,TRUE,,,,,,,CLR,,,,,,,,VFR,,,,,,,,,,,,SPECI,4.0
KFXY 180715Z AUTO 00000KT 10SM SCT085 12/06 A3004 RMK AO2,KFXY,2015-04-18T07:15:00Z,43.23,-93.62,12.0,6.0,0,0,,10.0,30.041338,,,TRUE,TRUE,,,,,,,SCT,8500,,,,,,,VFR,,,,,,,,,,,,SPECI,375.0
KFWC 180715Z AUTO 00000KT 4SM BR CLR 14/13 A3000 RMK AO1 T01370133,KFWC,2015-04-18T07:15:00Z,38.38,-88.42,13.7,13.3,0,0,,4.0,30.0,,,TRUE,TRUE,,,,,,BR,CLR,,,,,,,,MVFR,,,,,,,,,,,,SPECI,133.0
KFSW 180715Z AUTO 12003KT 10SM CLR 17/12 A3001 RMK AO2,KFSW,2015-04-18T07:15:00Z,40.67,-91.32,17.0,12.0,120,3,,10.0,30.008858,,,TRUE,TRUE,,,,,,,CLR,,,,,,,,VFR,,,,,,,,,,,,SPECI,221.0
KFFA 180715Z AUTO 00000KT 5SM BR CLR 18/17 A2996 RMK AO2 T01780170,KFFA,2015-04-18T07:15:00Z,36.02,-75.67,17.8,17.0,0,0,,5.0,29.958662,,,TRUE,TRUE,,,,,,BR,CLR,,,,,,,,MVFR,,,,,,,,,,,,SPECI,4.0
KF17 180715Z AUTO 06003KT 10SM -RA OVC100 20/20 A2990 RMK AO2 T01980195,KF17,2015-04-18T07:15:00Z,31.83,-94.15,19.8,19.5,60,3,,10.0,29.899607,,,TRUE,TRUE,,,,,,-RA,OVC,10000,,,,,,,VFR,,,,,,,,,,,,SPECI,97.0
KEZF 180715Z AUTO 32004KT 10SM CLR 17/17 A2997 RMK AO2 T01680168,KEZF,2015-04-18T07:15:00Z,38.27,-77.45,16.8,16.8,320,4,,10.0,29.970472,,,TRUE,TRUE,,,,,,,CLR,,,,,,,,VFR,,,,,,,,,,,,SPECI,26.0
KEXX 180715Z AUTO 00000KT 3SM BR CLR 15/15 A2997 RMK AO2 T01530150,KEXX,2015-04-18T07:15:00Z,35.78,-80.3,15.3,15.0,0,0,,3.0,29.970472,,,TRUE,TRUE,,,,,,BR,CLR,,,,,,,,MVFR,,,,,,,,,,,,SPECI,223.0
KENL 180715Z AUTO 00000KT 7SM CLR 12/11 A3000 RMK AO2 T01200108,KENL,2015-04-18T07:15:00Z,38.52,-89.1,12.0,10.8,0,0,,7.0,30.0,,,TRUE,TRUE,,,,,,,CLR,,,,,,,,VFR,,,,,,,,,,,,SPECI,163.0
KEMV 180715Z AUTO 00000KT 2SM BR CLR 13/13 A2998 RMK AO2,KEMV,2015-04-18T07:15:00Z,36.68,-77.48,13.0,13.0,0,0,,2.0,29.97933,,,TRUE,TRUE,,,,,,BR,CLR,,,,,,,,IFR,,,,,,,,,,,,SPECI,39.0
KELA 180715Z AUTO 35006KT 10SM SCT014 19/19 A2985 RMK AO2 LTG DSNT SE T01930186,KELA,2015-04-18T07:15:00Z,29.6,-96.32,19.3,18.6,350,6,,10.0,29.84941,,,TRUE,TRUE,,,,,,,SCT,1400,,,,,,,VFR,,,,,,,,,,,,SPECI,56.0
KEBS 180715Z AUTO 03003KT 10SM CLR 13/07 A2999 RMK AO2,KEBS,2015-04-18T07:15:00Z,42.42,-93.87,13.0,7.0,30,3,,10.0,29.991142,,,TRUE,TRUE,,,,,,,CLR,,,,,,,,VFR,,,,,,,,,,,,SPECI,342.0
KEBA 180715Z AUTO 00000KT 3SM -DZ SCT002 BKN007 OVC036 20/20 A3001 RMK AO2 T01970195,KEBA,2015-04-18T07:15:00Z,,,19.7,19.5,0,0,,3.0,30.008858,,,TRUE,TRUE,,,,,,-DZ,SCT,200,BKN,700,OVC,3600,,,IFR,,,,,,,,,,,,SPECI,
KDWX 180715Z AUTO 00000KT 10SM BKN100 M01/M02 A3006 RMK AO2 T10101025,KDWX,2015-04-18T07:15:00Z,41.03,-107.5,-1.0,-2.5,0,0,,10.0,30.059055,,,TRUE,TRUE,,,,,,,BKN,10000,,,,,,,VFR,,,,,,,,,,,,SPECI,1996.0
KD25 180715Z AUTO 04010G16KT 10SM CLR 09/00 A3009 RMK AO2 T00861005,KD25,2015-04-18T07:15:00Z,46.12,-89.88,8.6,-0.5,40,10,16,10.0,30.088583,,,TRUE,TRUE,,,,,,,CLR,,,,,,,,VFR,,,,,,,,,,,,SPECI,491.0
KCXU 180715Z AUTO 00000KT 5SM OVC003 21/21 A2994 RMK AO2 T02050205,KCXU,2015-04-18T07:15:00Z,,,20.5,20.5,0,0,,5.0,29.940945,,,TRUE,TRUE,,,,,,,OVC,300,,,,,,,LIFR,,,,,,,,,,,,SPECI,
KCXE 180715Z AUTO 00000KT 7SM CLR 16/16 A2997 RMK AO1 T01610161,KCXE,2015-04-18T07:15:00Z,36.78,-78.5,16.1,16.1,0,0,,7.0,29.970472,,,TRUE,TRUE,,,,,,,CLR,,,,,,,,VFR,,,,,,,,,,,,SPECI,153.0
KCWA 180715Z AUTO 34005KT 10SM CLR 11/00 A3003 RMK AO2,KCWA,2015-04-18T07:15:00Z,44.78,-89.67,11.0,0.0,340,5,,10.0,30.029528,,,TRUE,TRUE,,,,,,,CLR,,,,,,,,VFR,,,,,,,,,,,,SPECI,389.0
KCVC 180715Z AUTO 05004KT 10SM OVC004 18/17 A2997 RMK AO2,KCVC,2015-04-18T07:15:00Z,33.63,-83.85,18.0,17.0,50,4,,10.0,29.970472,,,TRUE,TRUE,,,,,,,OVC,400,,,,,,,LIFR,,,,,,,,,,,,SPECI,247.0
KCQF 180715Z AUTO 05003KT 1/4SM FG OVC003 20/20 A2992 RMK AO2,KCQF,2015-04-18T07:15:00Z,30.47,-87.88,20.0,20.0,50,3,,0.25,29.920275,,,TRUE,TRUE,,,,,,FG,OVC,300,,,,,,,LIFR,,,,,,,,,,,,SPECI,28.0
KCQB 180715Z AUTO 22005KT 4SM +RA SCT020 BKN026 OVC050 18/18 A2994 RMK AO2,KCQB,2015-04-18T07:15:00Z,35.72,-96.82,18.0,18.0,220,5,,4.0,29.940945,,,TRUE,TRUE,,,,,,+RA,SCT,2000,BKN,2600,OVC,5000,,,MVFR,,,,,,,,,,,,SPECI,300.0
KCMY 180715Z AUTO 00000KT 10SM CLR 06/03 A3005 RMK AO2 T00590033,KCMY,2015-04-18T07:15:00Z,43.97,-90.73,5.9,3.3,0,0,,10.0,30.050198,,,TRUE,TRUE,,,,,,,CLR,,,,,,,,VFR,,,,,,,,,,,,SPECI,256.0
KCKP 180715Z AUTO 01003KT 10SM OVC070 12/09 A3001 RMK AO2 T01240089,KCKP,2015-04-18T07:15:00Z,42.73,-95.55,12.4,8.9,10,3,,10.0,30.008858,,,TRUE,TRUE,,,,,,,OVC,7000,,,,,,,VFR,,,,,,,,,,,,SPECI,374.0
KC75 180715Z AUTO 00000KT 10SM BKN095 17/11 A3001 RMK AO2 T01700114,KC75,2015-04-18T07:15:00Z,41.02,-89.38,17.0,11.4,0,0,,10.0,30.008858,,,TRUE,TRUE,,,,,,,BKN,9500,,,,,,,VFR,,,,,,,,,,,,SPECI,173.0
KC29 180715Z AUTO 00000KT 10SM CLR 10/07 A3002 RMK AO1 T00990070,KC29,2015-04-18T07:15:00Z,43.12,-89.53,9.9,7.0,0,0,,10.0,30.02067,,,TRUE,TRUE,,,,,,,CLR,,,,,,,,VFR,,,,,,,,,,,,SPECI,283.0
KC09 180715Z AUTO 00000KT 10SM CLR 14/09 A2999 RMK AO2 T01380087,KC09,2015-04-18T07:15:00Z,41.43,-88.42,13.8,8.7,0,0,,10.0,29.991142,,,TRUE,TRUE,,,,,,,CLR,,,,,,,,VFR,,,,,,,,,,,,SPECI,178.0
KBWD 180715Z AUTO 00000KT 3SM BR CLR 16/16 A2994 RMK AO2,KBWD,2015-04-18T07:15:00Z,31.8,-98.95,16.0,16.0,0,0,,3.0,29.940945,,,TRUE,TRUE,,,,,,BR,CLR,,,,,,,,MVFR,,,,,,,,,,,,SPECI,423.0
KBQP 180715Z AUTO 06003KT 10SM CLR 19/18 A2994 RMK AO2 T01880180,KBQP,2015-04-18T07:15:00Z,32.75,-91.88,18.8,18.0,60,3,,10.0,29.940945,,,TRUE,TRUE,,,,,,,CLR,,,,,,,,VFR,,,,,,,,,,,,SPECI,51.0
KBPG 180715Z AUTO 28005KT 10SM CLR 16/13 A2998 RMK AO2 T01560130,KBPG,2015-04-18T07:15:00Z,32.22,-101.52,15.6,13.0,280,5,,10.0,29.97933,,,TRUE,TRUE,,,,,,,CLR,,,,,,,,VFR,,,,,,,,,,,,SPECI,784.0
KBMC 180715Z AUTO 34003KT 10SM CLR 09/04 A3005 RMK AO1 T00880042,KBMC,2015-04-18T07:15:00Z,41.55,-112.07,8.8,4.2,340,3,,10.0,30.050198,,,TRUE,TRUE,,,,,,,CLR,,,,,,,,VFR,,,,,,,,,,,,SPECI,1288.0
KBIJ 180715Z AUTO 00000KT 10SM OVC004 19/19 A2994 RMK AO2,KBIJ,2015-04-18T07:15:00Z,31.4,-84.9,19.0,19.0,0,0,,10.0,29.940945,,,TRUE,TRUE,,,,,,,OVC,400,,,,,,,LIFR,,,,,,,,,,,,SPECI,65.0
KAVQ 180715Z AUTO 00000KT 10SM CLR 14/M07 A3001 RMK AO2 T01351074,KAVQ,2015-04-18T07:15:00Z,32.4,-111.22,13.5,-7.4,0,0,,10.0,30.008858,,,TRUE,TRUE,,,,,,,CLR,,,,,,,,VFR,,,,,,,,,,,,SPECI,619.0
KASL 180715Z AUTO 00000KT 7SM SCT029 BKN048 OVC050 20/19 A2995 RMK AO1 P0001 T02030187,KASL,2015-04-18T07:15:00Z,32.52,-94.3,20.3,18.7,0,0,,7.0,29.949802,,,TRUE,TRUE,,,,,,,SCT,2900,BKN,4800,OVC,5000,,,VFR,,,,,,0.01,,,,,,SPECI,109.0
KAQR 180715Z AUTO 00000KT 10SM SCT120 16/16 A2994 RMK AO2 LTG DSNT NW,KAQR,2015-04-18T07:15:00Z,34.4,-96.15,16.0,16.0,0,0,,10.0,29.940945,,,TRUE,TRUE,,,,,,,SCT,12000,,,,,,,VFR,,,,,,,,,,,,SPECI,189.0
KA08 180715Z AUTO 00000KT 4SM OVC011 16/16 A2996 RMK AO2 T01640161 PWINO,KA08,2015-04-18T07:15:00Z,32.52,-87.38,16.4,16.1,0,0,,4.0,29.958662,,,TRUE,TRUE,,,,,TRUE,,OVC,1100,,,,,,,MVFR,,,,,,,,,,,,SPECI,69.0
K9V9 180715Z AUTO 03006KT 10SM OVC080 13/02 A3003 RMK AO2 T01300018,K9V9,2015-04-18T07:15:00Z,43.77,-99.32,13.0,1.8,30,6,,10.0,30.029528,,,TRUE,TRUE,,,,,,,OVC,8000,,,,,,,VFR,,,,,,,,,,,,SPECI,519.0
K8A0 180715Z AUTO 06003KT 4SM BR SCT002 OVC009 15/15 A2999 RMK AO2,K8A0,2015-04-18T07:15:00Z,34.23,-86.25,15.0,15.0,60,3,,4.0,29.991142,,,TRUE,TRUE,,,,,,BR,SCT,200,OVC,900,,,,,IFR,,,,,,,,,,,,SPECI,315.0
K7L2 180715Z AUTO 08009G14KT 10SM CLR 09/M04 A3009 RMK AO2,K7L2,2015-04-18T07:15:00Z,46.22,-100.25,9.0,-4.0,80,9,14,10.0,30.088583,,,TRUE,TRUE,,,,,,,CLR,,,,,,,,VFR,,,,,,,,,,,,SPECI,543.0
K3K3 180715Z AUTO 00000KT 10SM CLR 06/04 A2993 RMK AO2,K3K3,2015-04-18T07:15:00Z,38.0,-101.75,6.0,4.0,0,0,,10.0,29.929134,,,TRUE,TRUE,,,,,,,CLR,,,,,,,,VFR,,,,,,,,,,,,METAR,1013.0
K3AU 180715Z AUTO 10003KT 10SM BKN085 OVC110 16/13 A2993 RMK AO2,K3AU,2015-04-18T07:15:00Z,37.67,-97.08,16.0,13.0,100,3,,10.0,29.929134,,,TRUE,TRUE,,,,,,,BKN,8500,OVC,11000,,,,,VFR,,,,,,,,,,,,SPECI,405.0
K0F2 180715Z AUTO 10004KT 10SM -VCTSRA SCT037 SCT050 OVC085 16/15 A2995 RMK AO2 LTG DSNT SW THRU NW P0006 T01550150,K0F2,2015-04-18T07:15:00Z,33.6,-97.78,15.5,15.0,100,4,,10.0,29.949802,,,TRUE,TRUE,,,,,,VCTS -RA,SCT,3700,SCT,5000,OVC,8500,,,VFR,,,,,,0.06,,,,,,SPECI,336.0
LMML 180715Z 35005KT CAVOK 19/14 Q1014 NOSIG,LMML,2015-04-18T07:15:00Z,35.85,14.47,19.0,14.0,350,5,,6.21,29.940945,,,,,,TRUE,,,,,CAVOK,,,,,,,,VFR,,,,,,,,,,,,METAR,91.0
KNOW 180715Z AUTO 28007KT 10SM CLR 10/07 A3032 RMK AO2 T00960072,KNOW,2015-04-18T07:15:00Z,,,9.6,7.2,280,7,,10.0,30.318897,,,TRUE,TRUE,,,,,,,CLR,,,,,,,,VFR,,,,,,,,,,,,METAR,
KSPF 180715Z AUTO 14006KT 10SM SCT050 OVC075 09/04 A3008 RMK AO2,KSPF,2015-04-18T07:15:00Z,44.47,-103.77,9.0,4.0,140,6,,10.0,30.079725,,,TRUE,TRUE,,,,,,,SCT,5000,OVC,7500,,,,,VFR,,,,,,,,,,,,SPECI,1188.0
KS25 180715Z AUTO 11009KT 10SM CLR 06/M03 A3004 RMK AO2,KS25,2015-04-18T07:15:00Z,47.8,-103.25,6.0,-3.0,110,9,,10.0,30.041338,,,TRUE,TRUE,,,,,,,CLR,,,,,,,,VFR,,,,,,,,,,,,SPECI,644.0
KRCM 180715Z AUTO 05004KT 10SM CLR 17/13 A2995 RMK AO2,KRCM,2015-04-18T07:15:00Z,38.78,-93.8,17.0,13.0,50,4,,10.0,29.949802,,,TRUE,TRUE,,,,,,,CLR,,,,,,,,VFR,,,,,,,,,,,,SPECI,244.0
KRCE 180715Z AUTO 27006KT 10SM CLR 15/15 A2995 RMK AO2 LTG DSNT NE AND E,KRCE,2015-04-18T07:15:00Z,35.48,-97.82,15.0,15.0,270,6,,10.0,29.949802,,,TRUE,TRUE,,,,,,,CLR,,,,,,,,VFR,,,,,,,,,,,,SPECI,413.0
KPLU 180715Z AUTO 00000KT 10SM OVC060 10/08 A3031 RMK AO2,KPLU,2015-04-18T07:15:00Z,47.1,-122.28,10.0,8.0,0,0,,10.0,30.31004,,,TRUE,TRUE,,,,,,,OVC,6000,,,,,,,VFR,,,,,,,,,,,,SPECI,164.0
KPBX 180715Z AUTO 00000KT 10SM CLR 15/13 A3003 RMK AO2 T01480133,KPBX,2015-04-18T07:15:00Z,37.57,-82.57,14.8,13.3,0,0,,10.0,30.029528,,,TRUE,TRUE,,,,,,,CLR,,,,,,,,VFR,,,,,,,,,,,,SPECI,449.0
KOZA 180715Z AUTO 00000KT 10SM OVC017 16/13 A2998 RMK AO2,KOZA,2015-04-18T07:15:00Z,30.73,-101.2,16.0,13.0,0,0,,10.0,29.97933,,,TRUE,TRUE,,,,,,,OVC,1700,,,,,,,MVFR,,,,,,,,,,,,SPECI,726.0
KOXV 180715Z AUTO 11004KT 10SM OVC160 17/10 A2998 RMK AO2,KOXV,2015-04-18T07:15:00Z,41.28,-93.12,17.0,10.0,110,4,,10.0,29.97933,,,TRUE,TRUE,,,,,,,OVC,16000,,,,,,,VFR,,,,,,,,,,,,SPECI,283.0
KOSA 180715Z AUTO 26023G27KT 1 1/4SM BKN007 BKN014 OVC033 19/19 A2998 RMK AO1 P0025 T01910185,KOSA,2015-04-18T07:15:00Z,33.1,-94.97,19.1,18.5,260,23,27,1.25,29.97933,,,TRUE,TRUE,,,,,,,BKN,700,BKN,1400,OVC,3300,,,IFR,,,,,,0.25,,,,,,SPECI,111.0
KORC 180715Z AUTO 07007KT 10SM CLR 14/00 A3002 RMK AO2,KORC,2015-04-18T07:15:00Z,42.97,-96.07,14.0,0.0,70,7,,10.0,30.02067,,,TRUE,TRUE,,,,,,,CLR,,,,,,,,VFR,,,,,,,,,,,,SPECI,431.0
KOPL 180715Z AUTO 12007KT 7SM VCTS SCT027 BKN044 BKN060 A2995 RMK AO2 LTG DSNT ALQS P0005,KOPL,2015-04-18T07:15:00Z,30.55,-92.1,,,120,7,,7.0,29.949802,,,TRUE,TRUE,,,,,,VCTS,SCT,2700,BKN,4400,BKN,6000,,,VFR,,,,,,0.05,,,,,,SPECI,23.0
KONM 180715Z AUTO 31005KT 10SM CLR 05/M07 A3005 RMK AO2 T00481072,KONM,2015-04-18T07:15:00Z,34.02,-106.9,4.8,-7.2,310,5,,10.0,30.050198,,,TRUE,TRUE,,,,,,,CLR,,,,,,,,VFR,,,,,,,,,,,,SPECI,1410.0
KONL 180715Z AUTO 30003KT 10SM BKN050 BKN065 OVC075 13/10 A3001 RMK AO2 LTG DSNT S AND SW T01310095,KONL,2015-04-18T07:15:00Z,42.47,-98.67,13.1,9.5,300,3,,10.0,30.008858,,,TRUE,TRUE,,,,,,,BKN,5000,BKN,6500,OVC,7500,,,VFR,,,,,,,,,,,,SPECI,619.0
KOMH 180715Z AUTO 00000KT 1SM BR VV007 13/12 A3000 RMK AO2,KOMH,2015-04-18T07:15:00Z,38.25,-78.05,13.0,12.0,0,0,,1.0,30.0,,,TRUE,TRUE,,,,,,BR,OVX,0,,,,,,,LIFR,,,,,,,,,,,700,SPECI,142.0
KOLZ 180715Z AUTO 06003KT 10SM BKN075 OVC180 14/08 A3003 RMK AO2,KOLZ,2015-04-18T07:15:00Z,42.67,-91.97,14.0,8.0,60,3,,10.0,30.029528,,,TRUE,TRUE,,,,,,,BKN,7500,OVC,18000,,,,,VFR,,,,,,,,,,,,SPECI,328.0
KOLG 180715Z AUTO 03008KT 10SM CLR 10/M01 A3011 RMK AO1,KOLG,2015-04-18T07:15:00Z,46.3,-91.82,10.0,-1.0,30,8,,10.0,30.109253,,,TRUE,TRUE,,,,,,,CLR,,,,,,,,VFR,,,,,,,,,,,,SPECI,336.0
KOJA 180715Z AUTO 14003KT 1/2SM FG OVC001 14/14 A2997 RMK AO2,KOJA,2015-04-18T07:15:00Z,35.55,-98.67,14.0,14.0,140,3,,0.5,29.970472,,,TRUE,TRUE,,,,,,FG,OVC,100,,,,,,,LIFR,,,,,,,,,,,,SPECI,490.0
KOGA 180715Z AUTO 00000KT 10SM -RA SCT048 OVC055 09/09 A2998 RMK AO2 LTG DSNT NE AND E P0001 T00920088,KOGA,2015-04-18T07:15:00Z,41.12,-101.77,9.2,8.8,0,0,,10.0,29.97933,,,TRUE,TRUE,,,,,,-RA,SCT,4800,OVC,5500,,,,,VFR,,,,,,0.01,,,,,,SPECI,999.0
KOEO 180715Z AUTO 00000KT 10SM CLR 05/01 A3010 RMK AO2 T00490006,KOEO,2015-04-18T07:15:00Z,45.32,-92.7,4.9,0.6,0,0,,10.0,30.100393,,,TRUE,TRUE,,,,,,,CLR,,,,,,,,VFR,,,,,,,,,,,,SPECI,275.0
KMXO 180715Z AUTO 00000KT 10SM CLR 11/11 A3001 RMK AO2,KMXO,2015-04-18T07:15:00Z,42.22,-91.17,11.0,11.0,0,0,,10.0,30.008858,,,TRUE,TRUE,,,,,,,CLR,,,,,,,,VFR,,,,,,,,,,,,SPECI,259.0
KMWC 180715Z AUTO 00000KT 7SM CLR 09/04 A3001 RMK AO2,KMWC,2015-04-18T07:15:00Z,43.12,-88.03,9.0,4.0,0,0,,7.0,30.008858,,,TRUE,TRUE,,,,,,,CLR,,,,,,,,VFR,,,,,,,,,,,,SPECI,227.0
KMUT 180715Z AUTO 00000KT 10SM CLR 13/10 A3001 RMK AO2,KMUT,2015-04-18T07:15:00Z,41.37,-91.15,13.0,10.0,0,0,,10.0,30.008858,,,TRUE,TRUE,,,,,,,CLR,,,,,,,,VFR,,,,,,,,,,,,SPECI,167.0
KMRN 180715Z AUTO 00000KT 5SM BR OVC004 15/15 A3004 RMK AO2 T01540154,KMRN,2015-04-18T07:15:00Z,35.82,-81.62,15.4,15.4,0,0,,5.0,30.041338,,,TRUE,TRUE,,,,,,BR,OVC,400,,,,,,,LIFR,,,,,,,,,,,,SPECI,387.0
KMPZ 180715Z AUTO 09004KT 10SM CLR 15/10 A3000 RMK AO2 T01460099,KMPZ,2015-04-18T07:15:00Z,40.95,-91.52,14.6,9.9,90,4,,10.0,30.0,,,TRUE,TRUE,,,,,,,CLR,,,,,,,,VFR,,,,,,,,,,,,SPECI,224.0
KMOR 180715Z AUTO 00000KT 10SM CLR 14/13 A3003 RMK,KMOR,2015-04-18T07:15:00Z,36.18,-83.37,14.0,13.0,0,0,,10.0,30.029528,,,TRUE,,,,,,,,CLR,,,,,,,,VFR,,,,,,,,,,,,METAR,400.0
KMNE 180715Z AUTO 11004KT 10SM CLR 20/17 A2995 RMK AO2 T02030170,KMNE,2015-04-18T07:15:00Z,32.65,-93.3,20.3,17.0,110,4,,10.0,29.949802,,,TRUE,TRUE,,,,,,,CLR,,,,,,,,VFR,,,,,,,,,,,,SPECI,85.0
KMLJ 180715Z AUTO 00000KT 10SM OVC006 18/18 A2997 RMK AO2,KMLJ,2015-04-18T07:15:00Z,33.15,-83.23,18.0,18.0,0,0,,10.0,29.970472,,,TRUE,TRUE,,,,,,,OVC,600,,,,,,,IFR,,,,,,,,,,,,SPECI,117.0
KMLE 180715Z AUTO 00000KT 10SM BKN100 17/14 A2996 RMK AO2 T01720141,KMLE,2015-04-18T07:15:00Z,41.2,-96.12,17.2,14.1,0,0,,10.0,29.958662,,,TRUE,TRUE,,,,,,,BKN,10000,,,,,,,VFR,,,,,,,,,,,,SPECI,320.0
KMER 180715Z AUTO 00000KT 10SM CLR 13/06 A3002 RMK AO1,KMER,2015-04-18T07:15:00Z,37.38,-120.57,13.0,6.0,0,0,,10.0,30.02067,,,TRUE,TRUE,,,,,,,CLR,,,,,,,,VFR,,,,,,,,,,,,SPECI,57.0
KMDD 180715Z AUTO 00000KT 10SM SCT120 15/09 A2997 RMK AO2 T01510091,KMDD,2015-04-18T07:15:00Z,32.03,-102.1,15.1,9.1,0,0,,10.0,29.970472,,,TRUE,TRUE,,,,,,,SCT,12000,,,,,,,VFR,,,,,,,,,,,,SPECI,854.0
KLUA 180715Z AUTO 00000KT 10SM CLR 13/13 A3001 RMK AO2,KLUA,2015-04-18T07:15:00Z,38.67,-78.5,13.0,13.0,0,0,,10.0,30.008858,,,TRUE,TRUE,,,,,,,CLR,,,,,,,,VFR,,,,,,,,,,,,SPECI,275.0
KLSB 180715Z AUTO 27007KT 10SM CLR 05/M13 A3006 RMK AO2,KLSB,2015-04-18T07:15:00Z,32.33,-108.7,5.0,-13.0,270,7,,10.0,30.059055,,,TRUE,TRUE,,,,,,,CLR,,,,,,,,VFR,,,,,,,,,,,,SPECI,1307.0
KLRU 180715Z AUTO 31008KT 10SM CLR 08/M14 A3003 RMK AO2 T00831140,KLRU,2015-04-18T07:15:00Z,32.27,-106.92,8.3,-14.0,310,8,,10.0,30.029528,,,TRUE,TRUE,,,,,,,CLR,,,,,,,,VFR,,,,,,,,,,,,SPECI,1358.0
KLRJ 180715Z AUTO 03005KT 10SM BKN070 BKN080 OVC090 14/07 A3002 RMK AO2,KLRJ,2015-04-18T07:15:00Z,42.77,-96.2,14.0,7.0,30,5,,10.0,30.02067,,,TRUE,TRUE,,,,,,,BKN,7000,BKN,8000,OVC,9000,,,VFR,,,,,,,,,,,,SPECI,365.0
KLNN 180715Z AUTO 00000KT 10SM 08/07 A2998 RMK AO1 T00800068,KLNN,2015-04-18T07:15:00Z,41.67,-81.37,8.0,6.8,0,0,,10.0,29.97933,,,TRUE,TRUE,,,,,,,,,,,,,,,,,,,,,,,,,,,SPECI,191.0
KLKU 180715Z AUTO 35003KT 10SM CLR 16/16 A2997 RMK AO2,KLKU,2015-04-18T07:15:00Z,38.02,-77.97,16.0,16.0,350,3,,10.0,29.970472,,,TRUE,TRUE,,,,,,,CLR,,,,,,,,VFR,,,,,,,,,,,,SPECI,150.0
KLGC 180715Z AUTO 00000KT 2SM BR OVC004 19/19 A2996 RMK AO2 T01880187,KLGC,2015-04-18T07:15:00Z,33.0,-85.07,18.8,18.7,0,0,,2.0,29.958662,,,TRUE,TRUE,,,,,,BR,OVC,400,,,,,,,LIFR,,,,,,,,,,,,SPECI,211.0
KLCQ 180715Z AUTO 00000KT 3SM BR OVC004 20/20 A2996 RMK AO2,KLCQ,2015-04-18T07:15:00Z,30.18,-82.58,20.0,20.0,0,0,,3.0,29.958662,,,TRUE,TRUE,,,,,,BR,OVC,400,,,,,,,LIFR,,,,,,,,,,,,SPECI,61.0
KLCK 180715Z AUTO 00000KT 10SM CLR 10/07 A3003 RMK AO2 T00950071,KLCK,2015-04-18T07:15:00Z,39.82,-82.92,9.5,7.1,0,0,,10.0,30.029528,,,TRUE,TRUE,,,,,,,CLR,,,,,,,,VFR,,,,,,,,,,,,SPECI,227.0
KLCG 180715Z AUTO 04004KT 10SM SCT060 SCT070 OVC110 14/12 A2999 RMK AO2 T01380121,KLCG,2015-04-18T07:15:00Z,42.25,-96.98,13.8,12.1,40,4,,10.0,29.991142,,,TRUE,TRUE,,,,,,,SCT,6000,SCT,7000,OVC,11000,,,VFR,,,,,,,,,,,,SPECI,436.0
KLAM 180715Z AUTO 14007KT 2 1/2SM -SN BKN015 OVC026 00/M01 A3005 RMK AO2 VIS 2V5 T00021011,KLAM,2015-04-18T07:15:00Z,35.87,-106.27,0.2,-1.1,140,7,,2.5,30.050198,,,TRUE,TRUE,,,,,,-SN,BKN,1500,OVC,2600,,,,,IFR,,,,,,,,,,,,SPECI,2179.0
KL35 180715Z AUTO 00000KT 10SM CLR 00/M11 A3022 RMK AO2,KL35,2015-04-18T07:15:00Z,34.27,-116.85,0.0,-11.0,0,0,,10.0,30.221457,,,TRUE,TRUE,,,,,,,CLR,,,,,,,,VFR,,,,,,,,,,,,SPECI,2059.0
KJZP 180715Z AUTO 00000KT 2SM HZ SCT003 OVC012 17/11 A3004 RMK AO2 VIS 3/4V5 T01700107,KJZP,2015-04-18T07:15:00Z,,,17.0,10.7,0,0,,2.0,30.041338,,,TRUE,TRUE,,,,,,HZ,SCT,300,OVC,1200,,,,,IFR,,,,,,,,,,,,SPECI,
KJGG 180715Z AUTO 00000KT 10SM CLR 18/17 A2996 RMK AO1,KJGG,2015-04-18T07:15:00Z,37.23,-76.72,18.0,17.0,0,0,,10.0,29.958662,,,TRUE,TRUE,,,,,,,CLR,,,,,,,,VFR,,,,,,,,,,,,SPECI,15.0
KJES 180715Z AUTO 10003KT 7SM SCT048 OVC070 21/20 A2997 RMK AO2,KJES,2015-04-18T07:15:00Z,31.55,-81.88,21.0,20.0,100,3,,7.0,29.970472,,,TRUE,TRUE,,,,,,,SCT,4800,OVC,7000,,,,,VFR,,,,,,,,,,,,SPECI,33.0
KISO 180715Z AUTO 19003KT 10SM CLR 17/17 A2998 RMK AO2 T01710167,KISO,2015-04-18T07:15:00Z,35.32,-77.62,17.1,16.7,190,3,,10.0,29.97933,,,TRUE,TRUE,,,,,,,CLR,,,,,,,,VFR,,,,,,,,,,,,SPECI,29.0
KINJ 180715Z AUTO 35004KT 10SM SCT009 18/16 A2993 RMK AO2 T01780163,KINJ,2015-04-18T07:15:00Z,32.08,-97.1,17.8,16.3,350,4,,10.0,29.929134,,,TRUE,TRUE,,,,,,,SCT,900,,,,,,,VFR,,,,,,,,,,,,SPECI,209.0
KIKV 180715Z AUTO 00000KT 10SM SCT070 BKN090 17/11 A3000 RMK AO2,KIKV,2015-04-18T07:15:00Z,41.68,-93.57,17.0,11.0,0,0,,10.0,30.0,,,TRUE,TRUE,,,,,,,SCT,7000,BKN,9000,,,,,VFR,,,,,,,,,,,,SPECI,275.0
KIJX 180715Z AUTO 16004KT 10SM CLR 16/13 A3002 RMK AO2 T01620125,KIJX,2015-04-18T07:15:00Z,39.77,-90.25,16.2,12.5,160,4,,10.0,30.02067,,,TRUE,TRUE,,,,,,,CLR,,,,,,,,VFR,,,,,,,,,,,,SPECI,190.0
KIIY 180715Z AUTO 00000KT 1 1/4SM DZ OVC002 19/ A2999 RMK AO2,KIIY,2015-04-18T07:15:00Z,33.78,-82.82,19.0,,0,0,,1.25,29.991142,,,TRUE,TRUE,,,,,,DZ,OVC,200,,,,,,,LIFR,,,,,,,,,,,,SPECI,197.0
KIIB 180715Z AUTO 03004KT 10SM CLR 12/07 A3002 RMK AO2,KIIB,2015-04-18T07:15:00Z,42.45,-91.95,12.0,7.0,30,4,,10.0,30.02067,,,TRUE,TRUE,,,,,,,CLR,,,,,,,,VFR,,,,,,,,,,,,SPECI,298.0
KIDP 180715Z AUTO 00000KT 10SM SCT110 16/15 A2993 RMK AO2 LTG DSNT S AND W,KIDP,2015-04-18T07:15:00Z,37.17,-95.78,16.0,15.0,0,0,,10.0,29.929134,,,TRUE,TRUE,,,,,,,SCT,11000,,,,,,,VFR,,,,,,,,,,,,SPECI,251.0
KIBM 180715Z AUTO 35008KT 10SM -RA SCT028 SCT050 OVC070 04/04 A3001 RMK AO2 P0001 T00430037,KIBM,2015-04-18T07:15:00Z,41.18,-103.68,4.3,3.7,350,8,,10.0,30.008858,,,TRUE,TRUE,,,,,,-RA,SCT,2800,SCT,5000,OVC,7000,,,VFR,,,,,,0.01,,,,,,SPECI,1501.0
KI75 180715Z AUTO 08003KT 10SM SCT060 BKN065 OVC120 18/12 A2999 RMK AO2 T01750120,KI75,2015-04-18T07:15:00Z,41.05,-93.68,17.5,12.0,80,3,,10.0,29.991142,,,TRUE,TRUE,,,,,,,SCT,6000,BKN,6500,OVC,12000,,,VFR,,,,,,,,,,,,SPECI,339.0
KHSP 180715Z AUTO 00000KT 10SM CLR 13/09 A3007 RMK AO2 T01300085,KHSP,2015-04-18T07:15:00Z,37.95,-79.82,13.0,8.5,0,0,,10.0,30.070866,,,TRUE,TRUE,,,,,,,CLR,,,,,,,,VFR,,,,,,,,,,,,SPECI,1156.0
KHNR 180715Z AUTO 00000KT BKN055 BKN065 OVC110 15/14 A3003 RMK AO2,KHNR,2015-04-18T07:15:00Z,41.58,-95.33,15.0,14.0,0,0,,,30.029528,,,TRUE,TRUE,,,,,,,BKN,5500,BKN,6500,OVC,11000,,,,,,,,,,,,,,,SPECI,375.0
KHJH 180715Z AUTO 00000KT 10SM SCT050 SCT055 BKN080 14/12 A2995 RMK AO2 LTG DSNT W T01350119,KHJH,2015-04-18T07:15:00Z,40.15,-97.58,13.5,11.9,0,0,,10.0,29.949802,,,TRUE,TRUE,,,,,,,SCT,5000,SCT,5500,BKN,8000,,,VFR,,,,,,,,,,,,SPECI,447.0
KHHW 180715Z AUTO 27006KT 10SM OVC034 18/16 A2995 RMK AO2 T01800163,KHHW,2015-04-18T07:15:00Z,34.03,-95.55,18.0,16.3,270,6,,10.0,29.949802,,,TRUE,TRUE,,,,,,,OVC,3400,,,,,,,VFR,,,,,,,,,,,,SPECI,144.0
KHDE 180715Z AUTO 17008KT 5SM TSRA SCT014 BKN027 OVC031 13/12 A2995 RMK AO2 LTG DSNT ALQS P0003 T01330122,KHDE,2015-04-18T07:15:00Z,40.45,-99.32,13.3,12.2,170,8,,5.0,29.949802,,,TRUE,TRUE,,,,,,TSRA,SCT,1400,BKN,2700,OVC,3100,,,MVFR,,,,,,0.03,,,,,,SPECI,705.0
KHDC 180715Z AUTO 00000KT 10SM -VCTSRA CLR 21/19 A2995 RMK AO2 LTG DSNT W AND NW,KHDC,2015-04-18T07:15:00Z,30.52,-90.42,21.0,19.0,0,0,,10.0,29.949802,,,TRUE,TRUE,,,,,,VCTS -RA,CLR,,,,,,,,VFR,,,,,,,,,,,,SPECI,13.0
KHBI 180715Z AUTO 00000KT 7SM CLR 16/16 A3000 RMK AO2 T01600160,KHBI,2015-04-18T07:15:00Z,35.65,-79.9,16.0,16.0,0,0,,7.0,30.0,,,TRUE,TRUE,,,,,,,CLR,,,,,,,,VFR,,,,,,,,,,,,SPECI,205.0
KGZL 180715Z AUTO 11003KT 10SM BKN060 19/17 A2995 RMK AO2 LTG DSNT NW,KGZL,2015-04-18T07:15:00Z,35.28,-95.1,19.0,17.0,110,3,,10.0,29.949802,,,TRUE,TRUE,,,,,,,BKN,6000,,,,,,,VFR,,,,,,,,,,,,SPECI,183.0
KGUR 180715Z AUTO 32007KT 10SM 08/07 A3007 RMK AO2 T00770065 PWINO,KGUR,2015-04-18T07:15:00Z,42.25,-104.72,7.7,6.5,320,7,,10.0,30.070866,,,TRUE,TRUE,,,,,TRUE,,,,,,,,,,,,,,,,,,,,,,SPECI,1358.0
KGCD 180715Z AUTO 00000KT 10SM CLR 12/M01 A3019 RMK AO2 T01201006,KGCD,2015-04-18T07:15:00Z,44.38,-118.97,12.0,-0.6,0,0,,10.0,30.188976,,,TRUE,TRUE,,,,,,,CLR,,,,,,,,VFR,,,,,,,,,,,,SPECI,1127.0
KGBG 180715Z AUTO 00000KT 10SM SCT065 SCT085 14/11 A3001 RMK AO2 T01350110,KGBG,2015-04-18T07:15:00Z,40.93,-90.43,13.5,11.0,0,0,,10.0,30.008858,,,TRUE,TRUE,,,,,,,SCT,6500,SCT,8500,,,,,VFR,,,,,,,,,,,,SPECI,233.0
KBVN 180715Z AUTO 07007KT 10SM BKN050 BKN070 14/09 A2998 RMK AO2 LTG DSNT SW T01430093,KBVN,2015-04-18T07:15:00Z,41.73,-98.05,14.3,9.3,70,7,,10.0,29.97933,,,TRUE,TRUE,,,,,,,BKN,5000,BKN,7000,,,,,VFR,,,,,,,,,,,,SPECI,551.0
KBQK 180715Z AUTO 00000KT 7SM OVC090 19/18 A2998 RMK AO1,KBQK,2015-04-18T07:15:00Z,31.25,-81.47,19.0,18.0,0,0,,7.0,29.97933,,,TRUE,TRUE,,,,,,,OVC,9000,,,,,,,VFR,,,,,,,,,,,,SPECI,8.0
KBNW 180715Z AUTO 05007KT 10SM CLR 15/08 A2999 RMK AO2,KBNW,2015-04-18T07:15:00Z,42.03,-93.83,15.0,8.0,50,7,,10.0,29.991142,,,TRUE,TRUE,,,,,,,CLR,,,,,,,,VFR,,,,,,,,,,,,SPECI,354.0
KBMT 180715Z AUTO 13006KT 7SM RA SCT009 BKN095 OVC110 20/20 A2989 RMK AO2 LTG DSNT E THRU S T02000197,KBMT,2015-04-18T07:15:00Z,30.07,-94.22,20.0,19.7,130,6,,7.0,29.890747,,,TRUE,TRUE,,,,,,RA,SCT,900,BKN,9500,OVC,11000,,,VFR,,,,,,,,,,,,SPECI,10.0
KBKT 180715Z AUTO 20003KT 1 1/2SM SCT085 14/14 A2997 RMK AO1 T01430139,KBKT,2015-04-18T07:15:00Z,37.07,-77.95,14.3,13.9,200,3,,1.5,29.970472,,,TRUE,TRUE,,,,,,,SCT,8500,,,,,,,IFR,,,,,,,,,,,,SPECI,134.0
KBIE 180715Z AUTO 09003KT 10SM SCT038 BKN046 15/13 A2997 RMK AO2 T01520127,KBIE,2015-04-18T07:15:00Z,40.28,-96.75,15.2,12.7,90,3,,10.0,29.970472,,,TRUE,TRUE,,,,,,,SCT,3800,BKN,4600,,,,,VFR,,,,,,,,,,,,SPECI,403.0
KBGE 180715Z AUTO 00000KT 1/2SM FG OVC002 20/19 A2993 RMK AO2,KBGE,2015-04-18T07:15:00Z,30.97,-84.63,20.0,19.0,0,0,,0.5,29.929134,,,TRUE,TRUE,,,,,,FG,OVC,200,,,,,,,LIFR,,,,,,,,,,,,SPECI,43.0
KBCK 180715Z AUTO 00000KT 10SM CLR 04/04 A3004 RMK AO2 T00370036,KBCK,2015-04-18T07:15:00Z,44.25,-90.85,3.7,3.6,0,0,,10.0,30.041338,,,TRUE,TRUE,,,,,,,CLR,,,,,,,,VFR,,,,,,,,,,,,SPECI,255.0
KAZE 180715Z AUTO 00000KT 5SM BR OVC002 21/21 A2994 RMK AO2 T02050205,KAZE,2015-04-18T07:15:00Z,31.88,-82.65,20.5,20.5,0,0,,5.0,29.940945,,,TRUE,TRUE,,,,,,BR,OVC,200,,,,,,,LIFR,,,,,,,,,,,,SPECI,78.0
KAXA 180715Z AUTO 04006KT 10SM SCT075 13/06 A3003 RMK AO2,KAXA,2015-04-18T07:15:00Z,43.07,-94.27,13.0,6.0,40,6,,10.0,30.029528,,,TRUE,TRUE,,,,,,,SCT,7500,,,,,,,VFR,,,,,,,,,,,,SPECI,372.0
KAWG 180715Z AUTO 00000KT 10SM FEW060 14/12 A3000 RMK AO2,KAWG,2015-04-18T07:15:00Z,41.27,-91.67,14.0,12.0,0,0,,10.0,30.0,,,TRUE,TRUE,,,,,,,FEW,6000,,,,,,,VFR,,,,,,,,,,,,SPECI,230.0
KAUH 180715Z AUTO 11005KT 10SM SCT040 BKN048 OVC060 13/13 A2997 RMK AO2 LTG DSNT SW AND W T01300125,KAUH,2015-04-18T07:15:00Z,40.88,-98.0,13.0,12.5,110,5,,10.0,29.970472,,,TRUE,TRUE,,,,,,,SCT,4000,BKN,4800,OVC,6000,,,VFR,,,,,,,,,,,,SPECI,550.0
KATW 180715Z AUTO 33009KT 10SM CLR 13/04 A3000 RMK AO2,KATW,2015-04-18T07:15:00Z,44.27,-88.52,13.0,4.0,330,9,,10.0,30.0,,,TRUE,TRUE,,,,,,,CLR,,,,,,,,VFR,,,,,,,,,,,,SPECI,280.0
KARM 180715Z AUTO 11016G25KT 10SM -VCTSRA SCT046 SCT060 SCT070 19/19 A2983 RMK AO2 LTG DSNT NE AND SE P0001 T01890186,KARM,2015-04-18T07:15:00Z,29.25,-96.15,18.9,18.6,110,16,25,10.0,29.828741,,,TRUE,TRUE,,,,,,VCTS -RA,SCT,4600,SCT,6000,SCT,7000,,,VFR,,,,,,0.01,,,,,,SPECI,31.0
KALX 180715Z AUTO 00000KT 2SM BR OVC004 18/16 A2996 RMK AO2 T01800157,KALX,2015-04-18T07:15:00Z,32.92,-85.97,18.0,15.7,0,0,,2.0,29.958662,,,TRUE,TRUE,,,,,,BR,OVC,400,,,,,,,LIFR,,,,,,,,,,,,SPECI,209.0
KAJR 180715Z AUTO 00000KT 7SM OVC070 16/16 A3002 RMK AO2 T01550155,KAJR,2015-04-18T07:15:00Z,,,15.5,15.5,0,0,,7.0,30.02067,,,TRUE,TRUE,,,,,,,OVC,7000,,,,,,,VFR,,,,,,,,,,,,SPECI,
KAIO 180715Z AUTO 00000KT 10SM BKN060 BKN075 OVC085 18/13 A2999 RMK AO2,KAIO,2015-04-18T07:15:00Z,41.38,-95.03,18.0,13.0,0,0,,10.0,29.991142,,,TRUE,TRUE,,,,,,,BKN,6000,BKN,7500,OVC,8500,,,VFR,,,,,,,,,,,,SPECI,360.0
KAHQ 180715Z AUTO 06004KT 10SM BKN060 BKN080 OVC110 16/12 A2996 RMK AO2 T01630124,KAHQ,2015-04-18T07:15:00Z,41.23,-96.6,16.3,12.4,60,4,,10.0,29.958662,,,TRUE,TRUE,,,,,,,BKN,6000,BKN,8000,OVC,11000,,,VFR,,,,,,,,,,,,SPECI,374.0
KAFP 180715Z AUTO 00000KT 3SM -RA OVC110 17/17 A2997 RMK AO2 T01730167,KAFP,2015-04-18T07:15:00Z,35.02,-80.08,17.3,16.7,0,0,,3.0,29.970472,,,TRUE,TRUE,,,,,,-RA,OVC,11000,,,,,,,MVFR,,,,,,,,,,,,SPECI,92.0
KAFO 180715Z AUTO 20005KT 10SM CLR 02/00 A3010 RMK AO2,KAFO,2015-04-18T07:15:00Z,42.72,-110.95,2.0,0.0,200,5,,10.0,30.100393,,,TRUE,TRUE,,,,,,,CLR,,,,,,,,VFR,,,,,,,,,,,,SPECI,1897.0
KAFK 180715Z AUTO 12007KT 10SM CLR 17/12 A2996 RMK AO2 T01670117,KAFK,2015-04-18T07:15:00Z,40.6,-95.85,16.7,11.7,120,7,,10.0,29.958662,,,TRUE,TRUE,,,,,,,CLR,,,,,,,,VFR,,,,,,,,,,,,SPECI,354.0
KADU 180715Z AUTO 00000KT 10SM -RA SCT065 BKN080 BKN110 15/12 A3000 RMK AO2,KADU,2015-04-18T07:15:00Z,41.7,-94.92,15.0,12.0,0,0,,10.0,30.0,,,TRUE,TRUE,,,,,,-RA,SCT,6500,BKN,8000,BKN,11000,,,VFR,,,,,,,,,,,,SPECI,392.0
KADS 180715Z AUTO 07004KT 10SM OVC090 A2995 RMK AO2,KADS,2015-04-18T07:15:00Z,32.97,-96.82,,,70,4,,10.0,29.949802,,,TRUE,TRUE,,,,,,,OVC,9000,,,,,,,VFR,,,,,,,,,,,,SPECI,196.0
KADM 180715Z AUTO 06003KT 10SM BKN120 16/16 A2994 RMK AO2 P0002 T01590156,KADM,2015-04-18T07:15:00Z,34.28,-97.02,15.9,15.6,60,3,,10.0,29.940945,,,TRUE,TRUE,,,,,,,BKN,12000,,,,,,,VFR,,,,,,0.02,,,,,,SPECI,232.0
KADH 180715Z AUTO 00000KT 7SM -RA SCT035 BKN070 OVC100 15/15 A2995 RMK AO2 LTG DSNT N THRU E P0002,KADH,2015-04-18T07:15:00Z,34.8,-96.67,15.0,15.0,0,0,,7.0,29.949802,,,TRUE,TRUE,,,,,,-RA,SCT,3500,BKN,7000,OVC,10000,,,VFR,,,,,,0.02,,,,,,SPECI,308.0
K9A5 180715Z AUTO 00000KT 3SM SCT016 OVC024 17/14 A3003 RMK AO2 T01680136,K9A5,2015-04-18T07:15:00Z,,,16.8,13.6,0,0,,3.0,30.029528,,,TRUE,TRUE,,,,,,,SCT,1600,OVC,2400,,,,,MVFR,,,,,,,,,,,,SPECI,
K6R3 180715Z AUTO 00000KT 7SM BKN010 BKN075 20/20 A2991 RMK AO2 LTG DSNT S T02000197,K6R3,2015-04-18T07:15:00Z,30.35,-95.0,20.0,19.7,0,0,,7.0,29.911417,,,TRUE,TRUE,,,,,,,BKN,1000,BKN,7500,,,,,MVFR,,,,,,,,,,,,SPECI,46.0
K6B0 180715Z AUTO 00000KT 10SM OVC038 09/05 A2992 RMK AO2 T00860050,K6B0,2015-04-18T07:15:00Z,43.98,-73.1,8.6,5.0,0,0,,10.0,29.920275,,,TRUE,TRUE,,,,,,,OVC,3800,,,,,,,VFR,,,,,,,,,,,,SPECI,149.0
K66R 180715Z AUTO 02006KT 10SM VCTS BKN008 BKN012 OVC022 19/19 A2986 RMK AO2 LTG DSNT SE T01910187,K66R,2015-04-18T07:15:00Z,29.65,-96.52,19.1,18.7,20,6,,10.0,29.861221,,,TRUE,TRUE,,,,,,VCTS,BKN,800,BKN,1200,OVC,2200,,,IFR,,,,,,,,,,,,SPECI,74.0
K5M9 180715Z AUTO 00000KT 4SM BR CLR 15/14 A3001 RMK AO2 T01450143,K5M9,2015-04-18T07:15:00Z,37.33,-88.12,14.5,14.3,0,0,,4.0,30.008858,,,TRUE,TRUE,,,,,,BR,CLR,,,,,,,,MVFR,,,,,,,,,,,,SPECI,199.0
K5C1 180715Z AUTO 00000KT 10SM BKN006 OVC011 17/16 A2993 RMK AO1,K5C1,2015-04-18T07:15:00Z,29.72,-98.7,17.0,16.0,0,0,,10.0,29.929134,,,TRUE,TRUE,,,,,,,BKN,600,OVC,1100,,,,,IFR,,,,,,,,,,,,SPECI,423.0
K4M9 180715Z AUTO 36004KT 4SM BR 17/17 A3000 RMK AO2,K4M9,2015-04-18T07:15:00Z,36.4,-90.65,17.0,17.0,360,4,,4.0,30.0,,,TRUE,TRUE,,,,,,BR,,,,,,,,,,,,,,,,,,,,,SPECI,90.0
KFWS 180715Z AUTO 00000KT 4SM BR SCT080 17/16 A2995 RMK AO2 T01700163,KFWS,2015-04-18T07:15:00Z,32.57,-97.3,17.0,16.3,0,0,,4.0,29.949802,,,TRUE,TRUE,,,,,,BR,SCT,8000,,,,,,,MVFR,,,,,,,,,,,,SPECI,208.0
KFQD 180715Z AUTO 00000KT 7SM SCT006 BKN110 16/16 A3001 RMK AO2 T01620162,KFQD,2015-04-18T07:15:00Z,35.42,-81.93,16.2,16.2,0,0,,7.0,30.008858,,,TRUE,TRUE,,,,,,,SCT,600,BKN,11000,,,,,VFR,,,,,,,,,,,,SPECI,329.0
KFIN 180715Z AUTO 00000KT 7SM SCT095 SCT120 19/19 A2997 RMK AO2 T01920190,KFIN,2015-04-18T07:15:00Z,29.47,-81.2,19.2,19.0,0,0,,7.0,29.970472,,,TRUE,TRUE,,,,,,,SCT,9500,SCT,12000,,,,,VFR,,,,,,,,,,,,SPECI,10.0
KFHB 180715Z AUTO 00000KT 5SM CLR 22/20 A2995 RMK AO1,KFHB,2015-04-18T07:15:00Z,30.62,-81.47,22.0,20.0,0,0,,5.0,29.949802,,,TRUE,TRUE,,,,,,,CLR,,,,,,,,MVFR,,,,,,,,,,,,SPECI,5.0
KFFL 180715Z AUTO 10003KT 10SM FEW070 16/10 A3000 RMK AO2,KFFL,2015-04-18T07:15:00Z,41.03,-91.97,16.0,10.0,100,3,,10.0,30.0,,,TRUE,TRUE,,,,,,,FEW,7000,,,,,,,VFR,,,,,,,,,,,,SPECI,244.0
KF70 180715Z AUTO 00000KT 10SM CLR 14/01 A3006 RMK AO1,KF70,2015-04-18T07:15:00Z,33.57,-117.13,14.0,1.0,0,0,,10.0,30.059055,,,TRUE,TRUE,,,,,,,CLR,,,,,,,,VFR,,,,,,,,,,,,SPECI,412.0
KF05 180715Z AUTO 00000KT 10SM CLR 14/12 A2996 RMK AO1 T01420117,KF05,2015-04-18T07:15:00Z,34.23,-99.28,14.2,11.7,0,0,,10.0,29.958662,,,TRUE,TRUE,,,,,,,CLR,,,,,,,,VFR,,,,,,,,,,,,SPECI,386.0
KETC 180715Z AUTO 00000KT 7SM SCT029 SCT035 16/16 A2998 RMK AO2 T01640159,KETC,2015-04-18T07:15:00Z,35.93,-77.55,16.4,15.9,0,0,,7.0,29.97933,,,TRUE,TRUE,,,,,,,SCT,2900,SCT,3500,,,,,VFR,,,,,,,,,,,,SPECI,17.0
KERV 180715Z AUTO 00000KT 7SM SCT013 SCT021 16/16 A2993 RMK AO2 T01620155,KERV,2015-04-18T07:15:00Z,29.98,-99.08,16.2,15.5,0,0,,7.0,29.929134,,,TRUE,TRUE,,,,,,,SCT,1300,SCT,2100,,,,,VFR,,,,,,,,,,,,SPECI,510.0
KEOK 180715Z AUTO 07003KT 10SM CLR 14/12 A3000 RMK AO2,KEOK,2015-04-18T07:15:00Z,40.47,-91.42,14.0,12.0,70,3,,10.0,30.0,,,TRUE,TRUE,,,,,,,CLR,,,,,,,,VFR,,,,,,,,,,,,SPECI,205.0
KEFK 180715Z AUTO 35005KT 10SM CLR 03/M03 A2995 RMK AO2 T00301035,KEFK,2015-04-18T07:15:00Z,44.88,-72.23,3.0,-3.5,350,5,,10.0,29.949802,,,TRUE,TRUE,,,,,,,CLR,,,,,,,,VFR,,,,,,,,,,,,SPECI,284.0
KECU 180715Z AUTO 08006KT 9SM OVC008 16/15 A2995 RMK AO2,KECU,2015-04-18T07:15:00Z,29.95,-100.17,16.0,15.0,80,6,,9.0,29.949802,,,TRUE,TRUE,,,,,,,OVC,800,,,,,,,IFR,,,,,,,,,,,,SPECI,725.0
KE38 180715Z AUTO 24003KT 10SM SCT090 OVC110 16/01 A3009 RMK AO2 T01570013,KE38,2015-04-18T07:15:00Z,30.38,-103.68,15.7,1.3,240,3,,10.0,30.088583,,,TRUE,TRUE,,,,,,,SCT,9000,OVC,11000,,,,,VFR,,,,,,,,,,,,SPECI,1376.0
KDUB 180715Z AUTO 30006KT 10SM CLR M01/M05 A3011 RMK AO2,KDUB,2015-04-18T07:15:00Z,43.55,-109.68,-1.0,-5.0,300,6,,10.0,30.109253,,,TRUE,TRUE,,,,,,,CLR,,,,,,,,VFR,,,,,,,,,,,,SPECI,2224.0
KDKR 180715Z AUTO 00000KT 6SM BR BKN022 BKN030 21/21 A2995 RMK AO2,KDKR,2015-04-18T07:15:00Z,31.3,-95.4,21.0,21.0,0,0,,6.0,29.949802,,,TRUE,TRUE,,,,,,BR,BKN,2200,BKN,3000,,,,,MVFR,,,,,,,,,,,,SPECI,106.0
KDEH 180715Z AUTO 00000KT 9SM FEW048 FEW055 13/07 A3003 RMK AO2,KDEH,2015-04-18T07:15:00Z,43.27,-91.72,13.0,7.0,0,0,,9.0,30.029528,,,TRUE,TRUE,,,,,,,FEW,4800,FEW,5500,,,,,VFR,,,,,,,,,,,,SPECI,353.0
KDCY 180715Z AUTO 00000KT 7SM CLR 12/10 A3002 RMK AO2 T01210101,KDCY,2015-04-18T07:15:00Z,38.7,-87.13,12.1,10.1,0,0,,7.0,30.02067,,,TRUE,TRUE,,,,,,,CLR,,,,,,,,VFR,,,,,,,,,,,,SPECI,144.0
KDBN 180715Z AUTO 09003KT 7SM OVC005 14/14 A2997 RMK AO2,KDBN,2015-04-18T07:15:00Z,32.57,-82.98,14.0,14.0,90,3,,7.0,29.970472,,,TRUE,TRUE,,,,,,,OVC,500,,,,,,,IFR,,,,,,,,,,,,SPECI,94.0
KD50 180715Z AUTO 13007KT 10SM CLR 04/M02 A3007 RMK AO2,KD50,2015-04-18T07:15:00Z,48.93,-103.3,4.0,-2.0,130,7,,10.0,30.070866,,,TRUE,TRUE,,,,,,,CLR,,,,,,,,VFR,,,,,,,,,,,,SPECI,595.0
KCTZ 180715Z AUTO 00000KT 7SM SCT032 19/19 A2998 RMK AO2 T01880188,KCTZ,2015-04-18T07:15:00Z,34.98,-78.37,18.8,18.8,0,0,,7.0,29.97933,,,TRUE,TRUE,,,,,,,SCT,3200,,,,,,,VFR,,,,,,,,,,,,SPECI,45.0
KCSQ 180715Z AUTO 09005KT 6SM -RA FEW035 SCT050 BKN070 16/13 A3000 RMK AO2,KCSQ,2015-04-18T07:15:00Z,41.02,-94.37,16.0,13.0,90,5,,6.0,30.0,,,TRUE,TRUE,,,,,,-RA,FEW,3500,SCT,5000,BKN,7000,,,VFR,,,,,,,,,,,,SPECI,394.0
KCPT 180715Z AUTO 07003KT 8SM BKN013 BKN120 18/18 A2994 RMK AO2,KCPT,2015-04-18T07:15:00Z,32.35,-97.43,18.0,18.0,70,3,,8.0,29.940945,,,TRUE,TRUE,,,,,,,BKN,1300,BKN,12000,,,,,MVFR,,,,,,,,,,,,SPECI,260.0
KCPC 180715Z AUTO 00000KT 5SM -DZ OVC095 19/18 A2997 RMK AO2 T01860180,KCPC,2015-04-18T07:15:00Z,34.28,-78.72,18.6,18.0,0,0,,5.0,29.970472,,,TRUE,TRUE,,,,,,-DZ,OVC,9500,,,,,,,MVFR,,,,,,,,,,,,SPECI,29.0
KCOM 180715Z AUTO 00000KT 1/4SM FG OVC003 16/16 A2996 RMK AO2 T01600160,KCOM,2015-04-18T07:15:00Z,31.83,-99.4,16.0,16.0,0,0,,0.25,29.958662,,,TRUE,TRUE,,,,,,FG,OVC,300,,,,,,,LIFR,,,,,,,,,,,,SPECI,517.0
KCNC 180715Z AUTO 12005KT 10SM FEW055 BKN075 OVC130 17/11 A2999 RMK AO2,KCNC,2015-04-18T07:15:00Z,41.02,-93.37,17.0,11.0,120,5,,10.0,29.991142,,,TRUE,TRUE,,,,,,,FEW,5500,BKN,7500,OVC,13000,,,VFR,,,,,,,,,,,,SPECI,320.0
KCIN 180715Z AUTO 00000KT 10SM BKN047 BKN055 BKN120 15/07 A3000 RMK AO2,KCIN,2015-04-18T07:15:00Z,42.03,-94.77,15.0,7.0,0,0,,10.0,30.0,,,TRUE,TRUE,,,,,,,BKN,4700,BKN,5500,BKN,12000,,,VFR,,,,,,,,,,,,SPECI,375.0
KCHK 180715Z AUTO 25004KT 5SM BR CLR 15/15 A2994 RMK AO2,KCHK,2015-04-18T07:15:00Z,35.1,-97.97,15.0,15.0,250,4,,5.0,29.940945,,,TRUE,TRUE,,,,,,BR,CLR,,,,,,,,MVFR,,,,,,,,,,,,SPECI,351.0
KCFD 180715Z AUTO 10003KT 10SM SCT013 BKN038 20/20 A2990 RMK AO2 LTG DSNT S T01980197,KCFD,2015-04-18T07:15:00Z,30.72,-96.33,19.8,19.7,100,3,,10.0,29.899607,,,TRUE,TRUE,,,,,,,SCT,1300,BKN,3800,,,,,VFR,,,,,,,,,,,,SPECI,112.0
KCBF 180715Z AUTO 11005KT 10SM FEW047 SCT080 OVC090 18/14 A2997 RMK AO2,KCBF,2015-04-18T07:15:00Z,41.27,-95.77,18.0,14.0,110,5,,10.0,29.970472,,,TRUE,TRUE,,,,,,,FEW,4700,SCT,8000,OVC,9000,,,VFR,,,,,,,,,,,,SPECI,382.0
KCAV 180715Z AUTO 08008KT 10SM CLR 12/08 A3002 RMK AO2,KCAV,2015-04-18T07:15:00Z,42.75,-93.77,12.0,8.0,80,8,,10.0,30.02067,,,TRUE,TRUE,,,,,,,CLR,,,,,,,,VFR,,,,,,,,,,,,SPECI,354.0
KC35 180715Z AUTO 00000KT 10SM CLR 10/08 A3003 RMK AO2 T01000078,KC35,2015-04-18T07:15:00Z,43.53,-89.98,10.0,7.8,0,0,,10.0,30.029528,,,TRUE,TRUE,,,,,,,CLR,,,,,,,,VFR,,,,,,,,,,,,SPECI,276.0
KBYY 180715Z AUTO 11008KT 10SM RA SCT080 SCT090 OVC110 20/20 A2988 RMK AO2 P0003 T02010201,KBYY,2015-04-18T07:15:00Z,28.97,-95.87,20.1,20.1,110,8,,10.0,29.878937,,,TRUE,TRUE,,,,,,RA,SCT,8000,SCT,9000,OVC,11000,,,VFR,,,,,,0.03,,,,,,SPECI,14.0
KBVS 180715Z AUTO 33010KT 10SM FEW060 11/02 A3033 RMK A01,KBVS,2015-04-18T07:15:00Z,48.47,-122.42,11.0,2.0,330,10,,10.0,30.33071,,,TRUE,TRUE,,,,,,,FEW,6000,,,,,,,VFR,,,,,,,,,,,,SPECI,43.0
KDLP 180715Z AUTO VRB04KT 10SM BKN004 BKN048 BKN060 24/22 A2991 RMK A01,KDLP,2015-04-18T07:15:00Z,29.12,-89.55,24.0,22.0,0,4,,10.0,29.911417,,,TRUE,TRUE,,,,,,,BKN,400,BKN,4800,BKN,6000,,,LIFR,,,,,,,,,,,,SPECI,36.0
KE16 180715Z AUTO 00000KT 10SM SCT017 10/07 A3010 RMK AO2,KE16,2015-04-18T07:15:00Z,37.08,-121.6,10.0,7.0,0,0,,10.0,30.100393,,,TRUE,TRUE,,,,,,,SCT,1700,,,,,,,VFR,,,,,,,,,,,,SPECI,86.0
KEHC 180715Z AUTO 12011KT 4SM BR FEW015 BKN029 OVC049 24/23 A2987 RMK A01,KEHC,2015-04-18T07:15:00Z,28.43,-92.88,24.0,23.0,120,11,,4.0,29.870079,,,TRUE,TRUE,,,,,,BR,FEW,1500,BKN,2900,OVC,4900,,,MVFR,,,,,,,,,,,,SPECI,31.0
KEDU 180715Z AUTO 00000KT 10SM CLR 13/06 A2998 RMK AO1,KEDU,2015-04-18T07:15:00Z,38.53,-121.78,13.0,6.0,0,0,,10.0,29.97933,,,TRUE,TRUE,,,,,,,CLR,,,,,,,,VFR,,,,,,,,,,,,SPECI,21.0
KEMK 180715Z AUTO 3SM BR BKN012 BKN019 OVC029 25/24 A2984 RMK A01,KEMK,2015-04-18T07:15:00Z,27.82,-94.32,25.0,24.0,,,,3.0,29.840551,,,TRUE,TRUE,,,,,,BR,BKN,1200,BKN,1900,OVC,2900,,,MVFR,,,,,,,,,,,,SPECI,26.0
KEIR 180715Z AUTO 14004KT 7SM FEW006 SCT010 BKN024 24/23 A2991 RMK A01,KEIR,2015-04-18T07:15:00Z,28.63,-91.48,24.0,23.0,140,4,,7.0,29.911417,,,TRUE,TRUE,,,,,,,FEW,600,SCT,1000,BKN,2400,,,MVFR,,,,,,,,,,,,SPECI,28.0
KFOT 180715Z AUTO 29003KT 7SM OVC009 10/09 A3013 RMK AO1,KFOT,2015-04-18T07:15:00Z,40.55,-124.13,10.0,9.0,290,3,,7.0,30.129921,,,TRUE,TRUE,,,,,,,OVC,900,,,,,,,IFR,,,,,,,,,,,,SPECI,120.0
KEQA 180715Z AUTO 11005KT 10SM SCT110 16/15 A2993 RMK AO2,KEQA,2015-04-18T07:15:00Z,37.78,-96.82,16.0,15.0,110,5,,10.0,29.929134,,,TRUE,TRUE,,,,,,,SCT,11000,,,,,,,VFR,,,,,,,,,,,,SPECI,420.0
KGUL 180715Z AUTO 5SM BR FEW011 FEW018 OVC024 25/24 A2987 RMK A01,KGUL,2015-04-18T07:15:00Z,27.3,-93.53,25.0,24.0,,,,5.0,29.870079,,,TRUE,TRUE,,,,,,BR,FEW,1100,FEW,1800,OVC,2400,,,MVFR,,,,,,,,,,,,SPECI,30.0
KGRY 180715Z AUTO 21012KT 9SM SCT016 BKN020 OVC065 26/23 A2991 RMK A01,KGRY,2015-04-18T07:15:00Z,27.63,-90.45,26.0,23.0,210,12,,9.0,29.911417,,,TRUE,TRUE,,,,,,,SCT,1600,BKN,2000,OVC,6500,,,MVFR,,,,,,,,,,,,SPECI,58.0
KGHB 180715Z AUTO 16007KT 6SM BR SCT010 BKN025 OVC070 25/25 A2989 RMK A01,KGHB,2015-04-18T07:15:00Z,27.83,-91.98,25.0,25.0,160,7,,6.0,29.890747,,,TRUE,TRUE,,,,,,BR,SCT,1000,BKN,2500,OVC,7000,,,MVFR,,,,,,,,,,,,SPECI,30.0
KGBK 180715Z AUTO 15012KT 10SM FEW013 FEW070 SCT075 25/24 A2989 RMK A01,KGBK,2015-04-18T07:15:00Z,27.2,-92.2,25.0,24.0,150,12,,10.0,29.890747,,,TRUE,TRUE,,,,,,,FEW,1300,FEW,7000,SCT,7500,,,VFR,,,,,,,,,,,,SPECI,59.0
KFTN 180715Z AUTO 35004KT 5SM BR 18/18 A2986 RMK A01,KFTN,2015-04-18T07:15:00Z,28.22,-100.02,18.0,18.0,350,4,,5.0,29.861221,,,TRUE,TRUE,,,,,,BR,,,,,,,,,,,,,,,,,,,,,SPECI,236.0
KHHV 180715Z AUTO 16006KT 3SM BR SCT005 SCT011 BKN019 25/25 A2987 RMK A01,KHHV,2015-04-18T07:15:00Z,26.93,-94.68,25.0,25.0,160,6,,3.0,29.870079,,,TRUE,TRUE,,,,,,BR,SCT,500,SCT,1100,BKN,1900,,,MVFR,,,,,,,,,,,,SPECI,25.0
KHQI 180715Z AUTO 12008KT 4SM BR SCT012 BKN034 OVC046 25/25 A2987 RMK A01,KHQI,2015-04-18T07:15:00Z,27.93,-93.67,25.0,25.0,120,8,,4.0,29.870079,,,TRUE,TRUE,,,,,,BR,SCT,1200,BKN,3400,OVC,4600,,,MVFR,,,,,,,,,,,,SPECI,26.0
KIFP 180715Z AUTO 11003KT 10SM CLR 20/M06 A2992 RMK AO2,KIFP,2015-04-18T07:15:00Z,35.15,-114.57,20.0,-6.0,110,3,,10.0,29.920275,,,TRUE,TRUE,,,,,,,CLR,,,,,,,,VFR,,,,,,,,,,,,SPECI,212.0
KIKT 180715Z AUTO 11012KT 9SM SCT016 BKN038 OVC095 25/23 A2992 RMK A01,KIKT,2015-04-18T07:15:00Z,28.52,-88.28,25.0,23.0,110,12,,9.0,29.920275,,,TRUE,TRUE,,,,,,,SCT,1600,BKN,3800,OVC,9500,,,VFR,,,,,,,,,,,,SPECI,25.0
KIPN 180715Z AUTO 10009KT 10SM SCT015 BKN022 OVC075 25/23 A2994 RMK A01,KIPN,2015-04-18T07:15:00Z,28.08,-87.98,25.0,23.0,100,9,,10.0,29.940945,,,TRUE,TRUE,,,,,,,SCT,1500,BKN,2200,OVC,7500,,,MVFR,,,,,,,,,,,,SPECI,41.0
KJTC 180715Z AUTO 25007KT 10SM CLR 00/M08 A3012 RMK AO2,KJTC,2015-04-18T07:15:00Z,34.13,-109.32,0.0,-8.0,250,7,,10.0,30.121063,,,TRUE,TRUE,,,,,,,CLR,,,,,,,,VFR,,,,,,,,,,,,METAR,2150.0
KLRO 180715Z AUTO 00000KT 2SM RA BKN003 OVC009 20/19 A2999 RMK AO2 P0001,KLRO,2015-04-18T07:15:00Z,32.9,-79.78,20.0,19.0,0,0,,2.0,29.991142,,,TRUE,TRUE,,,,,,RA,BKN,300,OVC,900,,,,,LIFR,,,,,,0.01,,,,,,SPECI,4.0
KMCJ 180715Z AUTO 12015G19KT 7SM FEW003 20/20 A2983 RMK AO1,KMCJ,2015-04-18T07:15:00Z,29.72,-95.4,20.0,20.0,120,15,19,7.0,29.828741,,,TRUE,TRUE,,,,,,,FEW,300,,,,,,,VFR,,,,,,,,,,,,SPECI,69.0
KMDJ 180715Z AUTO 13010KT 10SM FEW014 FEW049 OVC070 25/23 A2994 RMK A01,KMDJ,2015-04-18T07:15:00Z,28.65,-89.8,25.0,23.0,130,10,,10.0,29.940945,,,TRUE,TRUE,,,,,,,FEW,1400,FEW,4900,OVC,7000,,,VFR,,,,,,,,,,,,SPECI,31.0
KMEV 180715Z AUTO 12005KT 10SM CLR 03/M13 A3017 RMK AO2,KMEV,2015-04-18T07:15:00Z,38.98,-119.75,3.0,-13.0,120,5,,10.0,30.171259,,,TRUE,TRUE,,,,,,,CLR,,,,,,,,VFR,,,,,,,,,,,,SPECI,1439.0
KMGR 180715Z AUTO 00000KT 2 1/2SM BR OVC002 20/ A2995 RMK AO2,KMGR,2015-04-18T07:15:00Z,31.08,-83.8,20.0,,0,0,,2.5,29.949802,,,TRUE,TRUE,,,,,,BR,OVC,200,,,,,,,LIFR,,,,,,,,,,,,SPECI,90.0
KMHV 180715Z AUTO 30016G21KT 10SM CLR 19/M08 A3005 RMK AO1,KMHV,2015-04-18T07:15:00Z,35.07,-118.15,19.0,-8.0,300,16,21,10.0,30.050198,,,TRUE,TRUE,,,,,,,CLR,,,,,,,,VFR,,,,,,,,,,,,SPECI,849.0
KMIS 180715Z AUTO 19008KT 9SM FEW028 FEW070 25/21 A2992 RMK A01,KMIS,2015-04-18T07:15:00Z,29.3,-88.85,25.0,21.0,190,8,,9.0,29.920275,,,TRUE,TRUE,,,,,,,FEW,2800,FEW,7000,,,,,VFR,,,,,,,,,,,,SPECI,32.0
KMVH 180715Z AUTO 35004KT 10SM CLR 07/M04 A3002 RMK A01,KMVH,2015-04-18T07:15:00Z,46.83,-108.93,7.0,-4.0,350,4,,10.0,30.02067,,,TRUE,TRUE,,,,,,,CLR,,,,,,,,VFR,,,,,,,,,,,,SPECI,1355.0
KN38 180715Z AUTO 31004KT 10SM CLR 09/06 A3003 RMK AO2,KN38,2015-04-18T07:15:00Z,41.73,-77.4,9.0,6.0,310,4,,10.0,30.029528,,,TRUE,TRUE,,,,,,,CLR,,,,,,,,VFR,,,,,,,,,,,,SPECI,577.0
KO69 180715Z AUTO 34003KT 5SM OVC004 09/09 A3008 RMK AO1,KO69,2015-04-18T07:15:00Z,38.25,-122.6,9.0,9.0,340,3,,5.0,30.079725,,,TRUE,TRUE,,,,,,,OVC,400,,,,,,,LIFR,,,,,,,,,,,,SPECI,28.0
KOKV 180715Z AUTO 32003KT 10SM CLR 13/10 A3000 RMK AO2,KOKV,2015-04-18T07:15:00Z,39.13,-78.15,13.0,10.0,320,3,,10.0,30.0,,,TRUE,TRUE,,,,,,,CLR,,,,,,,,VFR,,,,,,,,,,,,SPECI,222.0
KOLE 180715Z AUTO 20004KT 10SM CLR 07/07 A3000 RMK AO2,KOLE,2015-04-18T07:15:00Z,42.23,-78.37,7.0,7.0,200,4,,10.0,30.0,,,TRUE,TRUE,,,,,,,CLR,,,,,,,,VFR,,,,,,,,,,,,SPECI,651.0
KONP 180715Z AUTO 01004KT 7SM SCT010 09/08 A3032 RMK AO2,KONP,2015-04-18T07:15:00Z,44.57,-124.03,9.0,8.0,10,4,,7.0,30.318897,,,TRUE,TRUE,,,,,,,SCT,1000,,,,,,,VFR,,,,,,,,,,,,SPECI,48.0
KP08 180715Z AUTO 00000KT 10SM CLR 15/M09 A2998 RMK AO2,KP08,2015-04-18T07:15:00Z,32.93,-111.43,15.0,-9.0,0,0,,10.0,29.97933,,,TRUE,TRUE,,,,,,,CLR,,,,,,,,VFR,,,,,,,,,,,,SPECI,481.0
KPVF 180715Z AUTO 10004KT 10SM FEW042 15/00 A3009 RMK AO1,KPVF,2015-04-18T07:15:00Z,38.72,-120.75,15.0,0.0,100,4,,10.0,30.088583,,,TRUE,TRUE,,,,,,,FEW,4200,,,,,,,VFR,,,,,,,,,,,,SPECI,789.0
PAAD 180715Z AUTO 06012KT 10SM CLR M18/M20 A3012 RMK AO2,PAAD,2015-04-18T07:15:00Z,70.13,-146.28,-18.0,-20.0,60,12,,10.0,30.121063,,,TRUE,TRUE,,,,,,,CLR,,,,,,,,VFR,,,,,,,,,,,,SPECI,8.0
KRNV 180715Z AUTO 07005KT 10SM CLR 18/18 A2996 RMK AO2 T01770177,KRNV,2015-04-18T07:15:00Z,33.77,-90.75,17.7,17.7,70,5,,10.0,29.958662,,,TRUE,TRUE,,,,,,,CLR,,,,,,,,VFR,,,,,,,,,,,,SPECI,41.0
KRTS 180715Z AUTO 36006KT 10SM CLR 04/M15 A3016 RMK AO2,KRTS,2015-04-18T07:15:00Z,39.67,-119.88,4.0,-15.0,360,6,,10.0,30.159449,,,TRUE,TRUE,,,,,,,CLR,,,,,,,,VFR,,,,,,,,,,,,SPECI,1540.0
KSPR 180715Z AUTO 14008KT 10SM BKN022 OVC026 25/22 A2989 RMK A01,KSPR,2015-04-18T07:15:00Z,28.6,-91.2,25.0,22.0,140,8,,10.0,29.890747,,,TRUE,TRUE,,,,,,,BKN,2200,OVC,2600,,,,,MVFR,,,,,,,,,,,,SPECI,31.0
KSIF 180715Z AUTO 00000KT 10SM SCT095 16/16 A2998 RMK AO2 T01630161,KSIF,2015-04-18T07:15:00Z,36.43,-79.85,16.3,16.1,0,0,,10.0,29.97933,,,TRUE,TRUE,,,,,,,SCT,9500,,,,,,,VFR,,,,,,,,,,,,SPECI,211.0
KSCF 180715Z AUTO 06008KT 6SM BR 24/22 A2990 RMK A01,KSCF,2015-04-18T07:15:00Z,29.12,-91.87,24.0,22.0,60,8,,6.0,29.899607,,,TRUE,TRUE,,,,,,BR,,,,,,,,,,,,,,,,,,,,,SPECI,8.0
KSAA 180715Z AUTO 27004KT 7SM OVC003 M01/M01 A3006 RMK AO2,KSAA,2015-04-18T07:15:00Z,41.45,-106.83,-1.0,-1.0,270,4,,7.0,30.059055,,,TRUE,TRUE,,,,,,,OVC,300,,,,,,,LIFR,,,,,,,,,,,,SPECI,2138.0
KVKY 180715Z AUTO VRB04KT 10SM OVC027 23/22 A2992 RMK A01,KVKY,2015-04-18T07:15:00Z,29.25,-88.43,23.0,22.0,0,4,,10.0,29.920275,,,TRUE,TRUE,,,,,,,OVC,2700,,,,,,,MVFR,,,,,,,,,,,,SPECI,32.0
KVOA 180715Z AUTO 15007KT 10SM FEW008 SCT041 BKN046 26/23 A2992 RMK A01,KVOA,2015-04-18T07:15:00Z,29.23,-87.78,26.0,23.0,150,7,,10.0,29.920275,,,TRUE,TRUE,,,,,,,FEW,800,SCT,4100,BKN,4600,,,VFR,,,,,,,,,,,,SPECI,53.0
KVQT 180715Z AUTO 16010KT 6SM BR OVC043 25/24 A2989 RMK A01,KVQT,2015-04-18T07:15:00Z,28.27,-92.27,25.0,24.0,160,10,,6.0,29.890747,,,TRUE,TRUE,,,,,,BR,OVC,4300,,,,,,,VFR,,,,,,,,,,,,SPECI,25.0
KXIH 180715Z AUTO 05012KT 8SM FEW010 SCT034 BKN070 21/19 A2992 RMK A01,KXIH,2015-04-18T07:15:00Z,29.18,-94.52,21.0,19.0,50,12,,8.0,29.920275,,,TRUE,TRUE,,,,,,,FEW,1000,SCT,3400,BKN,7000,,,VFR,,,,,,,,,,,,SPECI,75.0
KXPY 180715Z AUTO 15007KT 10SM BKN060 BKN075 OVC095 24/22 A2993 RMK A01,KXPY,2015-04-18T07:15:00Z,29.12,-90.2,24.0,22.0,150,7,,10.0,29.929134,,,TRUE,TRUE,,,,,,,BKN,6000,BKN,7500,OVC,9500,,,VFR,,,,,,,,,,,,SPECI,2.0
KRBO 180715Z 10SM CLR 21/21 A2984 RMK AO2 LTG DSNT E T02100210,KRBO,2015-04-18T07:15:00Z,27.78,-97.68,21.0,21.0,,,,10.0,29.840551,,,,TRUE,,,,,,,CLR,,,,,,,,VFR,,,,,,,,,,,,SPECI,24.0
KRPJ 180715Z AUTO 00000KT 10SM SCT080 11/08 A3002 RMK AO2 T01100075,KRPJ,2015-04-18T07:15:00Z,41.88,-89.08,11.0,7.5,0,0,,10.0,30.02067,,,TRUE,TRUE,,,,,,,SCT,8000,,,,,,,VFR,,,,,,,,,,,,SPECI,238.0
KSFY 180715Z AUTO 00000KT 10SM CLR 12/10 A3001 RMK AO2 T01200095,KSFY,2015-04-18T07:15:00Z,42.05,-90.12,12.0,9.5,0,0,,10.0,30.008858,,,TRUE,TRUE,,,,,,,CLR,,,,,,,,VFR,,,,,,,,,,,,SPECI,188.0
KSLR 180715Z AUTO 24004KT 7SM RA 18/17 A2999 RMK AO2 LTG DSNT E P0001 T01820171,KSLR,2015-04-18T07:15:00Z,33.17,-95.62,18.2,17.1,240,4,,7.0,29.991142,,,TRUE,TRUE,,,,,,RA,,,,,,,,,,,,,,,0.01,,,,,,SPECI,149.0
KSUN 180715Z AUTO 32010KT 10SM CLR 06/M03 A3009 RMK AO2,KSUN,2015-04-18T07:15:00Z,43.5,-114.28,6.0,-3.0,320,10,,10.0,30.088583,,,TRUE,TRUE,,,,,,,CLR,,,,,,,,VFR,,,,,,,,,,,,SPECI,1620.0
KSUT 180715Z AUTO 00000KT 10SM OVC110 19/18 A2996 RMK AO2 T01900182,KSUT,2015-04-18T07:15:00Z,33.93,-78.08,19.0,18.2,0,0,,10.0,29.958662,,,TRUE,TRUE,,,,,,,OVC,11000,,,,,,,VFR,,,,,,,,,,,,SPECI,8.0
KSWW 180715Z AUTO 14007KT 7SM BKN004 15/15 A2997 RMK AO2 T01520152,KSWW,2015-04-18T07:15:00Z,32.47,-100.47,15.2,15.2,140,7,,7.0,29.970472,,,TRUE,TRUE,,,,,,,BKN,400,,,,,,,LIFR,,,,,,,,,,,,SPECI,727.0
KTKV 180715Z AUTO 00000KT 10SM CLR 09/M02 A3007 RMK AO2 T00921024,KTKV,2015-04-18T07:15:00Z,45.47,-89.82,9.2,-2.4,0,0,,10.0,30.070866,,,TRUE,TRUE,,,,,,,CLR,,,,,,,,VFR,,,,,,,,,,,,SPECI,453.0
KTBR 180715Z AUTO 00000KT 5SM BR 19/19 A2997 RMK AO2 T01900190,KTBR,2015-04-18T07:15:00Z,32.48,-81.73,19.0,19.0,0,0,,5.0,29.970472,,,TRUE,TRUE,,,,,,BR,,,,,,,,,,,,,,,,,,,,,SPECI,57.0
KTNB 180715Z AUTO 00000KT 7SM SCT085 11/11 A3006 RMK AO2 T01130113,KTNB,2015-04-18T07:15:00Z,36.2,-81.65,11.3,11.3,0,0,,7.0,30.059055,,,TRUE,TRUE,,,,,,,SCT,8500,,,,,,,VFR,,,,,,,,,,,,SPECI,911.0
KTYQ 180715Z AUTO 00000KT 10SM CLR 12/08 A3006 RMK AO2 T01150077,KTYQ,2015-04-18T07:15:00Z,40.03,-86.25,11.5,7.7,0,0,,10.0,30.059055,,,TRUE,TRUE,,,,,,,CLR,,,,,,,,VFR,,,,,,,,,,,,SPECI,281.0
KUNV 180715Z AUTO 00000KT 10SM CLR 11/07 A3002 RMK AO2 T01110066,KUNV,2015-04-18T07:15:00Z,40.85,-77.83,11.1,6.6,0,0,,10.0,30.02067,,,TRUE,TRUE,,,,,,,CLR,,,,,,,,VFR,,,,,,,,,,,,SPECI,378.0
KVBW 180715Z AUTO 00000KT 5SM CLR 10/10 A3002 RMK AO2 T01030100,KVBW,2015-04-18T07:15:00Z,38.37,-78.97,10.3,10.0,0,0,,5.0,30.02067,,,TRUE,TRUE,,,,,,,CLR,,,,,,,,MVFR,,,,,,,,,,,,METAR,355.0
KW63 180715Z AUTO 00000KT 7SM CLR 15/15 A2997 RMK AO1,KW63,2015-04-18T07:15:00Z,36.6,-78.55,15.0,15.0,0,0,,7.0,29.970472,,,TRUE,TRUE,,,,,,,CLR,,,,,,,,VFR,,,,,,,,,,,,SPECI,129.0
KWDR 180715Z AUTO 00000KT 5SM +DZ OVC005 17/17 A3002 RMK AO1,KWDR,2015-04-18T07:15:00Z,33.98,-83.67,17.0,17.0,0,0,,5.0,30.02067,,,TRUE,TRUE,,,,,,+DZ,OVC,500,,,,,,,IFR,,,,,,,,,,,,SPECI,287.0
KXLL 180715Z AUTO 00000KT 7SM CLR 11/10 A3000 RMK AO2,KXLL,2015-04-18T07:15:00Z,40.57,-75.48,11.0,10.0,0,0,,7.0,30.0,,,TRUE,TRUE,,,,,,,CLR,,,,,,,,VFR,,,,,,,,,,,,SPECI,122.0
KGYB 180715Z AUTO 10009KT 10SM OVC008 19/19 A2991 RMK AO2 T01930185,KGYB,2015-04-18T07:15:00Z,30.17,-96.98,19.3,18.5,100,9,,10.0,29.911417,,,TRUE,TRUE,,,,,,,OVC,800,,,,,,,IFR,,,,,,,,,,,,SPECI,148.0
KHNZ 180715Z AUTO 00000KT 3SM BR CLR 16/15 A2997 RMK AO2 T01580149,KHNZ,2015-04-18T07:15:00Z,36.37,-78.53,15.8,14.9,0,0,,3.0,29.970472,,,TRUE,TRUE,,,,,,BR,CLR,,,,,,,,MVFR,,,,,,,,,,,,SPECI,161.0
KHOE 180715Z AUTO 00000KT 10SM SCT016 BKN048 OVC055 21/20 A2997 RMK AO2,KHOE,2015-04-18T07:15:00Z,31.05,-82.78,21.0,20.0,0,0,,10.0,29.970472,,,TRUE,TRUE,,,,,,,SCT,1600,BKN,4800,OVC,5500,,,VFR,,,,,,,,,,,,SPECI,57.0
LHUD 180715Z 36007KT CAVOK 10/05 Q1014,LHUD,2015-04-18T07:15:00Z,46.25,20.1,10.0,5.0,360,7,,6.21,29.940945,,,,,,,,,,,CAVOK,,,,,,,,VFR,,,,,,,,,,,,METAR,84.0
LHSM 180715Z 35013KT 9999 FEW024 BKN083 09/03 Q1017,LHSM,2015-04-18T07:15:00Z,46.68,17.17,9.0,3.0,350,13,,6.21,30.029528,,,,,,,,,,,FEW,2400,BKN,8300,,,,,VFR,,,,,,,,,,,,METAR,125.0
LHPR 180715Z 33017KT CAVOK 09/02 Q1017,LHPR,2015-04-18T07:15:00Z,47.63,17.82,9.0,2.0,330,17,,6.21,30.029528,,,,,,,,,,,CAVOK,,,,,,,,VFR,,,,,,,,,,,,METAR,129.0
LHPP 180715Z 33010KT 9999 FEW010 OVC083 09/04 Q1016 NOSIG,LHPP,2015-04-18T07:15:00Z,45.98,18.23,9.0,4.0,330,10,,6.21,30.0,,,,,,TRUE,,,,,FEW,1000,OVC,8300,,,,,VFR,,,,,,,,,,,,METAR,305.0
LHPA 180715Z 34008MPS 9999 FEW023 BKN200 08/03 Q1017 NOSIG RMK BLU,LHPA,2015-04-18T07:15:00Z,47.35,17.5,8.0,3.0,340,16,,6.21,30.029528,,,,,,TRUE,,,,,FEW,2300,BKN,20000,,,,,VFR,,,,,,,,,,,,METAR,148.0
LHDC 180715Z 36012KT 9999 SCT033 OVC083 09/00 Q1013,LHDC,2015-04-18T07:15:00Z,47.47,21.62,9.0,0.0,360,12,,6.21,29.911417,,,,,,,,,,,SCT,3300,OVC,8300,,,,,VFR,,,,,,,,,,,,METAR,112.0
KVQQ 180715Z AUTO 00000KT 2 1/2SM BR OVC002 19/19 A2997 RMK AO2,KVQQ,2015-04-18T07:15:00Z,30.22,-81.88,19.0,19.0,0,0,,2.5,29.970472,,,TRUE,TRUE,,,,,,BR,OVC,200,,,,,,,LIFR,,,,,,,,,,,,SPECI,25.0
KD60 180715Z AUTO 08006KT 10SM CLR 04/M04 A3010 RMK AO2,KD60,2015-04-18T07:15:00Z,48.38,-102.9,4.0,-4.0,80,6,,10.0,30.100393,,,TRUE,TRUE,,,,,,,CLR,,,,,,,,VFR,,,,,,,,,,,,SPECI,693.0
KO22 180715Z AUTO 04003KT 10SM CLR 10/05 A3006 RMK AO1,KO22,2015-04-18T07:15:00Z,38.03,-120.42,10.0,5.0,40,3,,10.0,30.059055,,,TRUE,TRUE,,,,,,,CLR,,,,,,,,VFR,,,,,,,,,,,,METAR,646.0
KFYG 180715Z AUTO 00000KT 10SM BKN050 15/14 A3000 RMK AO2,KFYG,2015-04-18T07:15:00Z,38.58,-91.0,15.0,14.0,0,0,,10.0,30.0,,,TRUE,TRUE,,,,,,,BKN,5000,,,,,,,VFR,,,,,,,,,,,,METAR,149.0
KSNC 180715Z AUTO 32007KT 10SM CLR 12/08 A2994 RMK AO2,KSNC,2015-04-18T07:15:00Z,41.38,-72.5,12.0,8.0,320,7,,10.0,29.940945,,,TRUE,TRUE,,,,,,,CLR,,,,,,,,VFR,,,,,,,,,,,,SPECI,127.0
KO54 180715Z AUTO 03003KT 10SM SCT019 10/04 A3009 RMK AO1,KO54,2015-04-18T07:15:00Z,40.75,-122.92,10.0,4.0,30,3,,10.0,30.088583,,,TRUE,TRUE,,,,,,,SCT,1900,,,,,,,VFR,,,,,,,,,,,,SPECI,717.0
K4A6 180715Z AUTO 00000KT 1/4SM FG OVC002 15/15 A3002 RMK AO2,K4A6,2015-04-18T07:15:00Z,34.68,-86.0,15.0,15.0,0,0,,0.25,30.02067,,,TRUE,TRUE,,,,,,FG,OVC,200,,,,,,,LIFR,,,,,,,,,,,,SPECI,198.0
KEGV 180715Z AUTO 02009KT 10SM CLR 09/M03 A3008 RMK AO2 T00901029,KEGV,2015-04-18T07:15:00Z,45.93,-89.27,9.0,-2.9,20,9,,10.0,30.079725,,,TRUE,TRUE,,,,,,,CLR,,,,,,,,VFR,,,,,,,,,,,,SPECI,500.0
LHSN 180715Z 02010KT CAVOK 10/03 Q1013 NOSIG RMK BLU,LHSN,2015-04-18T07:15:00Z,47.12,20.23,10.0,3.0,20,10,,6.21,29.911417,,,,,,TRUE,,,,,CAVOK,,,,,,,,VFR,,,,,,,,,,,,METAR,98.0
LIRP 180715Z 09003KT 8000 SCT025 BKN050 14/13 Q1014 NOSIG,LIRP,2015-04-18T07:15:00Z,43.67,10.37,14.0,13.0,90,3,,4.97,29.940945,,,,,,TRUE,,,,,SCT,2500,BKN,5000,,,,,MVFR,,,,,,,,,,,,METAR,2.0
LIRA 180715Z 16007KT 9999 SCT018 SCT025 15/11 Q1014,LIRA,2015-04-18T07:15:00Z,41.8,12.58,15.0,11.0,160,7,,6.21,29.940945,,,,,,,,,,,SCT,1800,SCT,2500,,,,,VFR,,,,,,,,,,,,METAR,101.0
LIPX 180715Z 07001KT 4000 BR SCT035 14/09 Q1013,LIPX,2015-04-18T07:15:00Z,45.38,10.87,14.0,9.0,70,1,,2.49,29.911417,,,,,,,,,,BR,SCT,3500,,,,,,,IFR,,,,,,,,,,,,METAR,68.0
LIPR 180715Z 35001KT 9000 NSC 15/14 Q1012,LIPR,2015-04-18T07:15:00Z,44.02,12.62,15.0,14.0,350,1,,5.59,29.88189,,,,,,,,,,,,,,,,,,,,,,,,,,,,,,,METAR,13.0
LIPH 180715Z /////KT 7000 BKN010 BKN030 14/11 Q1013,LIPH,2015-04-18T07:15:00Z,45.63,12.17,14.0,11.0,,,,4.35,29.911417,,,,,,,,,,,BKN,1000,BKN,3000,,,,,MVFR,,,,,,,,,,,,METAR,23.0
LIBR 180715Z 14005KT 6000 SCT008 BKN018 17/15 Q1014 NOSIG,LIBR,2015-04-18T07:15:00Z,40.65,17.95,17.0,15.0,140,5,,3.73,29.940945,,,,,,TRUE,,,,,SCT,800,BKN,1800,,,,,MVFR,,,,,,,,,,,,METAR,10.0
KUOX 180715Z AUTO 00000KT 5SM BR CLR 15/15 A3001 RMK AO2 PWINO PNO,KUOX,2015-04-18T07:15:00Z,34.38,-89.53,15.0,15.0,0,0,,5.0,30.008858,,,TRUE,TRUE,,,,,TRUE,BR,CLR,,,,,,,,MVFR,,,,,,,,,,,,SPECI,137.0
KBXK 180715Z AUTO 33005KT 10SM CLR 16/M07 A2995 RMK AO1,KBXK,2015-04-18T07:15:00Z,33.42,-112.68,16.0,-7.0,330,5,,10.0,29.949802,,,TRUE,TRUE,,,,,,,CLR,,,,,,,,VFR,,,,,,,,,,,,SPECI,315.0
K2J9 180715Z AUTO 27003KT 1 3/4SM OVC003 21/21 A2996 RMK AO1,K2J9,2015-04-18T07:15:00Z,30.6,-84.55,21.0,21.0,270,3,,1.75,29.958662,,,TRUE,TRUE,,,,,,,OVC,300,,,,,,,LIFR,,,,,,,,,,,,SPECI,69.0
K20U 180715Z AUTO 15005KT 10SM FEW048 04/M03 A3005 RMK AO2,K20U,2015-04-18T07:15:00Z,46.93,-103.98,4.0,-3.0,150,5,,10.0,30.050198,,,TRUE,TRUE,,,,,,,FEW,4800,,,,,,,VFR,,,,,,,,,,,,SPECI,840.0
KY19 180715Z AUTO 10011KT 10SM CLR 07/M02 A3010 RMK AO2,KY19,2015-04-18T07:15:00Z,46.77,-100.9,7.0,-2.0,100,11,,10.0,30.100393,,,TRUE,TRUE,,,,,,,CLR,,,,,,,,VFR,,,,,,,,,,,,SPECI,593.0
KVNC 180715Z AUTO 04003KT 10SM SCT013 23/23 A2998 RMK AO2,KVNC,2015-04-18T07:15:00Z,27.07,-82.43,23.0,23.0,40,3,,10.0,29.97933,,,TRUE,TRUE,,,,,,,SCT,1300,,,,,,,VFR,,,,,,,,,,,,SPECI,6.0
KTMA 180715Z AUTO 00000KT 7SM OVC009 19/19 A2995 RMK AO2 T01940191,KTMA,2015-04-18T07:15:00Z,31.43,-83.48,19.4,19.1,0,0,,7.0,29.949802,,,TRUE,TRUE,,,,,,,OVC,900,,,,,,,IFR,,,,,,,,,,,,SPECI,109.0
KMAN 180715Z AUTO 00000KT 10SM CLR 12/00 A3006 RMK AO1,KMAN,2015-04-18T07:15:00Z,43.58,-116.52,12.0,0.0,0,0,,10.0,30.059055,,,TRUE,TRUE,,,,,,,CLR,,,,,,,,VFR,,,,,,,,,,,,SPECI,774.0
KCKM 180715Z AUTO 00000KT 17/17 A2999 RMK AO1,KCKM,2015-04-18T07:15:00Z,34.3,-90.52,17.0,17.0,0,0,,,29.991142,,,TRUE,TRUE,,,,,,,,,,,,,,,,,,,,,,,,,,,SPECI,53.0
KBUU 180715Z AUTO 00000KT 7SM CLR 07/06 A3001 RMK AO2 T00720062,KBUU,2015-04-18T07:15:00Z,42.68,-88.3,7.2,6.2,0,0,,7.0,30.008858,,,TRUE,TRUE,,,,,,,CLR,,,,,,,,VFR,,,,,,,,,,,,SPECI,237.0
KASJ 180715Z AUTO 00000KT 1/2SM FG 15/15 A2997 RMK AO2 T01490145,KASJ,2015-04-18T07:15:00Z,36.28,-77.17,14.9,14.5,0,0,,0.5,29.970472,,,TRUE,TRUE,,,,,,FG,,,,,,,,,,,,,,,,,,,,,SPECI,21.0
KACJ 180715Z AUTO 18004KT 5SM BR OVC003 18/18 A2995 RMK AO2,KACJ,2015-04-18T07:15:00Z,32.12,-84.18,18.0,18.0,180,4,,5.0,29.949802,,,TRUE,TRUE,,,,,,BR,OVC,300,,,,,,,LIFR,,,,,,,,,,,,SPECI,143.0
K28J 180715Z AUTO 00000KT 9SM BKN005 BKN038 20/20 A2998 RMK AO2,K28J,2015-04-18T07:15:00Z,29.65,-81.58,20.0,20.0,0,0,,9.0,29.97933,,,TRUE,TRUE,,,,,,,BKN,500,BKN,3800,,,,,IFR,,,,,,,,,,,,SPECI,15.0
K1F0 180715Z AUTO 00000KT 10SM OVC110 15/15 A2996 RMK AO2,K1F0,2015-04-18T07:15:00Z,34.15,-97.12,15.0,15.0,0,0,,10.0,29.958662,,,TRUE,TRUE,,,,,,,OVC,11000,,,,,,,VFR,,,,,,,,,,,,SPECI,257.0
KMYZ 180715Z AUTO 12005KT 10SM CLR 15/14 A2996 RMK AO2 LTG DSNT W,KMYZ,2015-04-18T07:15:00Z,39.25,-96.63,15.0,14.0,120,5,,10.0,29.958662,,,TRUE,TRUE,,,,,,,CLR,,,,,,,,VFR,,,,,,,,,,,,SPECI,319.0
KMTV 180715Z AUTO 00000KT 1SM BR OVC003 14/14 A3001 RMK AO2 T01410141,KMTV,2015-04-18T07:15:00Z,36.63,-80.02,14.1,14.1,0,0,,1.0,30.008858,,,TRUE,TRUE,,,,,,BR,OVC,300,,,,,,,LIFR,,,,,,,,,,,,SPECI,287.0
KMKJ 180715Z AUTO 00000KT 10SM CLR 12/11 A3008 RMK AO2 T01210109,KMKJ,2015-04-18T07:15:00Z,36.88,-81.33,12.1,10.9,0,0,,10.0,30.079725,,,TRUE,TRUE,,,,,,,CLR,,,,,,,,VFR,,,,,,,,,,,,SPECI,780.0
KMGC 180715Z AUTO 21003KT 10SM BKN075 BKN090 15/05 A3002 RMK AO2,KMGC,2015-04-18T07:15:00Z,41.7,-86.82,15.0,5.0,210,3,,10.0,30.02067,,,TRUE,TRUE,,,,,,,BKN,7500,BKN,9000,,,,,VFR,,,,,,,,,,,,SPECI,200.0
KMDZ 180715Z AUTO 34007KT 10SM CLR 06/M01 A3005 RMK AO2 T00641007,KMDZ,2015-04-18T07:15:00Z,45.1,-90.3,6.4,-0.7,340,7,,10.0,30.050198,,,TRUE,TRUE,,,,,,,CLR,,,,,,,,VFR,,,,,,,,,,,,SPECI,448.0
KLWB 180715Z AUTO 00000KT 10SM CLR 11/10 A3005 RMK AO2 T01120096,KLWB,2015-04-18T07:15:00Z,37.87,-80.4,11.2,9.6,0,0,,10.0,30.050198,,,TRUE,TRUE,,,,,,,CLR,,,,,,,,VFR,,,,,,,,,,,,SPECI,702.0
KLNL 180715Z AUTO 01009G16KT 10SM CLR 09/M01 A3009 RMK AO2 T00871010,KLNL,2015-04-18T07:15:00Z,46.15,-89.22,8.7,-1.0,10,9,16,10.0,30.088583,,,TRUE,TRUE,,,,,,,CLR,,,,,,,,VFR,,,,,,,,,,,,SPECI,520.0
KIZA 180715Z AUTO 11003KT 10SM CLR 10/00 A3007 RMK AO2,KIZA,2015-04-18T07:15:00Z,34.6,-120.07,10.0,0.0,110,3,,10.0,30.070866,,,TRUE,TRUE,,,,,,,CLR,,,,,,,,VFR,,,,,,,,,,,,SPECI,205.0
KIFA 180715Z AUTO 00000KT 10SM CLR 11/07 A3003 RMK AO2 T01070067,KIFA,2015-04-18T07:15:00Z,42.47,-93.27,10.7,6.7,0,0,,10.0,30.029528,,,TRUE,TRUE,,,,,,,CLR,,,,,,,,VFR,,,,,,,,,,,,SPECI,347.0
KHHG 180715Z AUTO 00000KT 10SM CLR 12/06 A3004 RMK AO2 T01170057,KHHG,2015-04-18T07:15:00Z,40.85,-85.45,11.7,5.7,0,0,,10.0,30.041338,,,TRUE,TRUE,,,,,,,CLR,,,,,,,,VFR,,,,,,,,,,,,SPECI,246.0
KHFJ 180715Z AUTO 13007KT 10SM BKN033 16/15 A2997 RMK AO2,KHFJ,2015-04-18T07:15:00Z,36.9,-94.02,16.0,15.0,130,7,,10.0,29.970472,,,TRUE,TRUE,,,,,,,BKN,3300,,,,,,,VFR,,,,,,,,,,,,SPECI,401.0
KGVE 180715Z AUTO 00000KT 4SM BR CLR 13/13 A2998 RMK AO1 T01260125,KGVE,2015-04-18T07:15:00Z,38.15,-78.17,12.6,12.5,0,0,,4.0,29.97933,,,TRUE,TRUE,,,,,,BR,CLR,,,,,,,,MVFR,,,,,,,,,,,,SPECI,138.0
KGOP 180715Z AUTO 00000KT 10SM CLR 18/18 A2995 RMK AO2,KGOP,2015-04-18T07:15:00Z,31.42,-97.8,18.0,18.0,0,0,,10.0,29.949802,,,TRUE,TRUE,,,,,,,CLR,,,,,,,,VFR,,,,,,,,,,,,SPECI,276.0
KGGP 180715Z AUTO 16003KT 10SM SCT090 11/07 A3005 RMK AO2,KGGP,2015-04-18T07:15:00Z,40.72,-86.37,11.0,7.0,160,3,,10.0,30.050198,,,TRUE,TRUE,,,,,,,SCT,9000,,,,,,,VFR,,,,,,,,,,,,SPECI,225.0
KFZG 180715Z AUTO 00000KT 10SM SCT008 BKN015 OVC021 21/19 A2997 RMK AO2 T02060191 PWINO,KFZG,2015-04-18T07:15:00Z,31.68,-83.27,20.6,19.1,0,0,,10.0,29.970472,,,TRUE,TRUE,,,,,TRUE,,SCT,800,BKN,1500,OVC,2100,,,MVFR,,,,,,,,,,,,SPECI,111.0
KFVX 180715Z AUTO 32003KT 10SM OVC065 19/19 A2996 RMK AO2 T01850185,KFVX,2015-04-18T07:15:00Z,37.35,-78.42,18.5,18.5,320,3,,10.0,29.958662,,,TRUE,TRUE,,,,,,,OVC,6500,,,,,,,VFR,,,,,,,,,,,,SPECI,125.0
KFKN 180715Z AUTO 00000KT 1 3/4SM BR BKN005 A2997 RMK AO2 VIS 1/4V5,KFKN,2015-04-18T07:15:00Z,36.7,-76.9,,,0,0,,1.75,29.970472,,,TRUE,TRUE,,,,,,BR,BKN,500,,,,,,,IFR,,,,,,,,,,,,SPECI,12.0
KEFT 180715Z AUTO 32005KT 10SM CLR 17/07 A3001 RMK AO2,KEFT,2015-04-18T07:15:00Z,42.62,-89.6,17.0,7.0,320,5,,10.0,30.008858,,,TRUE,TRUE,,,,,,,CLR,,,,,,,,VFR,,,,,,,,,,,,SPECI,331.0
KDTA 180715Z AUTO 26007KT 10SM BKN110 06/M02 A3006 RMK AO1 T00641018,KDTA,2015-04-18T07:15:00Z,39.38,-112.5,6.4,-1.8,260,7,,10.0,30.059055,,,TRUE,TRUE,,,,,,,BKN,11000,,,,,,,VFR,,,,,,,,,,,,SPECI,1402.0
KDNN 180715Z AUTO 00000KT 5SM BR OVC004 15/15 A3002 RMK AO2,KDNN,2015-04-18T07:15:00Z,34.72,-84.87,15.0,15.0,0,0,,5.0,30.02067,,,TRUE,TRUE,,,,,,BR,OVC,400,,,,,,,LIFR,,,,,,,,,,,,SPECI,216.0
KCWV 180715Z AUTO 00000KT 5SM -RA OVC001 19/19 A2997 RMK AO2,KCWV,2015-04-18T07:15:00Z,32.2,-81.87,19.0,19.0,0,0,,5.0,29.970472,,,TRUE,TRUE,,,,,,-RA,OVC,100,,,,,,,LIFR,,,,,,,,,,,,SPECI,33.0
KCVB 180715Z AUTO 00000KT 7SM CLR 18/18 A2991 RMK AO2 LTG DSNT SE T01820180,KCVB,2015-04-18T07:15:00Z,29.35,-98.85,18.2,18.0,0,0,,7.0,29.911417,,,TRUE,TRUE,,,,,,,CLR,,,,,,,,VFR,,,,,,,,,,,,SPECI,235.0
KCJR 180715Z AUTO 00000KT 7SM BKN060 17/16 A2999 RMK AO2,KCJR,2015-04-18T07:15:00Z,38.53,-77.87,17.0,16.0,0,0,,7.0,29.991142,,,TRUE,TRUE,,,,,,,BKN,6000,,,,,,,VFR,,,,,,,,,,,,SPECI,97.0
KCBK 180715Z AUTO 07005KT 10SM SCT120 10/09 A2993 RMK AO2,KCBK,2015-04-18T07:15:00Z,39.43,-101.05,10.0,9.0,70,5,,10.0,29.929134,,,TRUE,TRUE,,,,,,,SCT,12000,,,,,,,VFR,,,,,,,,,,,,SPECI,971.0
KARV 180715Z AUTO 01009G16KT 10SM CLR 11/M01 A3008 RMK AO2 T01101008,KARV,2015-04-18T07:15:00Z,45.92,-89.72,11.0,-0.8,10,9,16,10.0,30.079725,,,TRUE,TRUE,,,,,,,CLR,,,,,,,,VFR,,,,,,,,,,,,SPECI,496.0
KAQO 180715Z AUTO 00000KT 10SM BKN018 16/16 A2996 RMK AO2,KAQO,2015-04-18T07:15:00Z,30.78,-98.67,16.0,16.0,0,0,,10.0,29.958662,,,TRUE,TRUE,,,,,,,BKN,1800,,,,,,,MVFR,,,,,,,,,,,,SPECI,336.0
KACP 180715Z AUTO 07003KT 4SM -RA SCT044 SCT060 OVC100 21/20 A2993 RMK AO2 LTG DSNT E AND SW T02050198,KACP,2015-04-18T07:15:00Z,30.75,-92.68,20.5,19.8,70,3,,4.0,29.929134,,,TRUE,TRUE,,,,,,-RA,SCT,4400,SCT,6000,OVC,10000,,,MVFR,,,,,,,,,,,,SPECI,33.0
K3T5 180715Z AUTO 12004KT 10SM BKN007 BKN024 OVC032 21/20 A2986 RMK AO2 T02060200,K3T5,2015-04-18T07:15:00Z,29.9,-96.95,20.6,20.0,120,4,,10.0,29.861221,,,TRUE,TRUE,,,,,,,BKN,700,BKN,2400,OVC,3200,,,IFR,,,,,,,,,,,,SPECI,99.0
K3N8 180715Z AUTO 06006KT 10SM CLR 04/M03 A3012 RMK AO2 T00431032,K3N8,2015-04-18T07:15:00Z,47.25,-95.88,4.3,-3.2,60,6,,10.0,30.121063,,,TRUE,TRUE,,,,,,,CLR,,,,,,,,VFR,,,,,,,,,,,,SPECI,383.0
KY51 180715Z AUTO 03005KT 10SM CLR 14/04 A3004 RMK AO1 T01360041,KY51,2015-04-18T07:15:00Z,43.58,-90.9,13.6,4.1,30,5,,10.0,30.041338,,,TRUE,TRUE,,,,,,,CLR,,,,,,,,VFR,,,,,,,,,,,,SPECI,394.0
KY49 180715Z AUTO 06005KT 10SM CLR 07/M02 A3013 RMK AO2 T00741016,KY49,2015-04-18T07:15:00Z,47.13,-94.65,7.4,-1.6,60,5,,10.0,30.129921,,,TRUE,TRUE,,,,,,,CLR,,,,,,,,VFR,,,,,,,,,,,,SPECI,416.0
KY23 180715Z AUTO 00000KT 10SM CLR 07/05 A3006 RMK AO2 T00690049,KY23,2015-04-18T07:15:00Z,45.3,-91.63,6.9,4.9,0,0,,10.0,30.059055,,,TRUE,TRUE,,,,,,,CLR,,,,,,,,VFR,,,,,,,,,,,,SPECI,322.0
KWDG 180715Z AUTO 24003KT 10SM BKN110 16/15 A2993 RMK AO2 LTG DSNT N THRU SE,KWDG,2015-04-18T07:15:00Z,36.37,-97.77,16.0,15.0,240,3,,10.0,29.929134,,,TRUE,TRUE,,,,,,,BKN,11000,,,,,,,VFR,,,,,,,,,,,,SPECI,356.0
KW99 180715Z AUTO 00000KT 3SM BR CLR 09/07 A3004 RMK AO2 T00860068,KW99,2015-04-18T07:15:00Z,39.0,-79.15,8.6,6.8,0,0,,3.0,30.041338,,,TRUE,TRUE,,,,,,BR,CLR,,,,,,,,MVFR,,,,,,,,,,,,SPECI,293.0
KW81 180715Z AUTO 00000KT 10SM CLR 16/15 A2997 RMK AO1 T01600152,KW81,2015-04-18T07:15:00Z,37.18,-78.1,16.0,15.2,0,0,,10.0,29.970472,,,TRUE,TRUE,,,,,,,CLR,,,,,,,,VFR,,,,,,,,,,,,SPECI,129.0
KW78 180715Z AUTO 00000KT 7SM BKN110 15/14 A2998 RMK AO1 T01470140,KW78,2015-04-18T07:15:00Z,36.68,-78.85,14.7,14.0,0,0,,7.0,29.97933,,,TRUE,TRUE,,,,,,,BKN,11000,,,,,,,VFR,,,,,,,,,,,,SPECI,129.0
KVYS 180715Z AUTO 20003KT 10SM CLR 17/09 A3002 RMK AO2 T01650090,KVYS,2015-04-18T07:15:00Z,41.35,-89.15,16.5,9.0,200,3,,10.0,30.02067,,,TRUE,TRUE,,,,,,,CLR,,,,,,,,VFR,,,,,,,,,,,,SPECI,199.0
KVVG 180715Z AUTO 00000KT 9SM 21/21 A2987 RMK A01,KVVG,2015-04-18T07:15:00Z,28.95,-81.97,21.0,21.0,0,0,,9.0,29.870079,,,TRUE,TRUE,,,,,,,,,,,,,,,,,,,,,,,,,,,SPECI,27.0
KUNU 180715Z AUTO 00000KT 10SM CLR 11/06 A3003 RMK AO2 T01110062,KUNU,2015-04-18T07:15:00Z,43.42,-88.7,11.1,6.2,0,0,,10.0,30.029528,,,TRUE,TRUE,,,,,,,CLR,,,,,,,,VFR,,,,,,,,,,,,SPECI,285.0
KUES 180715Z AUTO 00000KT 10SM CLR 08/05 A3002 RMK AO2,KUES,2015-04-18T07:15:00Z,43.05,-88.25,8.0,5.0,0,0,,10.0,30.02067,,,TRUE,TRUE,,,,,,,CLR,,,,,,,,VFR,,,,,,,,,,,,SPECI,278.0
KTGI 180715Z AUTO 22006KT 10SM SCT060 14/13 A2995 RMK AO1 T01400132,KTGI,2015-04-18T07:15:00Z,37.82,-75.98,14.0,13.2,220,6,,10.0,29.949802,,,TRUE,TRUE,,,,,,,SCT,6000,,,,,,,VFR,,,,,,,,,,,,METAR,2.0
KSYF 180715Z AUTO 27004KT 10SM SCT120 09/07 A2996 RMK AO2 T00940065,KSYF,2015-04-18T07:15:00Z,39.77,-101.8,9.4,6.5,270,4,,10.0,29.958662,,,TRUE,TRUE,,,,,,,SCT,12000,,,,,,,VFR,,,,,,,,,,,,SPECI,1025.0
KSUW 180715Z AUTO 06009G15KT 10SM CLR 09/00 A3014 RMK AO2 T00850000,KSUW,2015-04-18T07:15:00Z,46.68,-92.1,8.5,0.0,60,9,15,10.0,30.138779,,,TRUE,TRUE,,,,,,,CLR,,,,,,,,VFR,,,,,,,,,,,,SPECI,206.0
KSTE 180715Z AUTO 04004KT 10SM CLR 04/02 A3003 RMK AO2 T00370021,KSTE,2015-04-18T07:15:00Z,44.55,-89.53,3.7,2.1,40,4,,10.0,30.029528,,,TRUE,TRUE,,,,,,,CLR,,,,,,,,VFR,,,,,,,,,,,,SPECI,338.0
KSEZ 180715Z AUTO 03007KT 10SM CLR 10/M02 A3007 RMK AO2,KSEZ,2015-04-18T07:15:00Z,34.85,-111.78,10.0,-2.0,30,7,,10.0,30.070866,,,TRUE,TRUE,,,,,,,CLR,,,,,,,,VFR,,,,,,,,,,,,SPECI,1473.0
KSEE 180715Z AUTO 00000KT 10SM CLR 14/00 A3006 RMK AO2,KSEE,2015-04-18T07:15:00Z,32.82,-116.97,14.0,0.0,0,0,,10.0,30.059055,,,TRUE,TRUE,,,,,,,CLR,,,,,,,,VFR,,,,,,,,,,,,SPECI,117.0
KSBO 180715Z AUTO 00000KT 10SM OVC003 20/20 A2997 RMK AO2,KSBO,2015-04-18T07:15:00Z,32.62,-82.37,20.0,20.0,0,0,,10.0,29.970472,,,TRUE,TRUE,,,,,,,OVC,300,,,,,,,LIFR,,,,,,,,,,,,SPECI,100.0
KRYV 180715Z AUTO 00000KT 10SM CLR 09/08 A3001 RMK AO2 T00870076,KRYV,2015-04-18T07:15:00Z,43.17,-88.72,8.7,7.6,0,0,,10.0,30.008858,,,TRUE,TRUE,,,,,,,CLR,,,,,,,,VFR,,,,,,,,,,,,SPECI,254.0
KRWV 180715Z AUTO 07004KT 6SM BR BKN016 BKN022 19/19 A2991 RMK AO2,KRWV,2015-04-18T07:15:00Z,30.52,-96.7,19.0,19.0,70,4,,6.0,29.911417,,,TRUE,TRUE,,,,,,BR,BKN,1600,BKN,2200,,,,,MVFR,,,,,,,,,,,,SPECI,119.0
KPYX 180715Z AUTO 18009KT 10SM SCT090 12/11 A2994 RMK AO2 T01200105,KPYX,2015-04-18T07:15:00Z,36.42,-100.75,12.0,10.5,180,9,,10.0,29.940945,,,TRUE,TRUE,,,,,,,SCT,9000,,,,,,,VFR,,,,,,,,,,,,SPECI,889.0
KPSK 180715Z AUTO 00000KT 10SM CLR 13/12 A3004 RMK AO2 T01320116,KPSK,2015-04-18T07:15:00Z,37.12,-80.67,13.2,11.6,0,0,,10.0,30.041338,,,TRUE,TRUE,,,,,,,CLR,,,,,,,,VFR,,,,,,,,,,,,SPECI,642.0
KPNA 180715Z AUTO 33004KT 10SM CLR M02/M03 A3011 RMK AO2,KPNA,2015-04-18T07:15:00Z,42.8,-109.8,-2.0,-3.0,330,4,,10.0,30.109253,,,TRUE,TRUE,,,,,,,CLR,,,,,,,,VFR,,,,,,,,,,,,SPECI,2160.0
KOCQ 180715Z AUTO 00000KT 10SM CLR 02/02 A3000 RMK AO1 T00240024,KOCQ,2015-04-18T07:15:00Z,44.87,-87.92,2.4,2.4,0,0,,10.0,30.0,,,TRUE,TRUE,,,,,,,CLR,,,,,,,,VFR,,,,,,,,,,,,SPECI,183.0
KMZZ 180715Z AUTO 00000KT 10SM CLR 11/08 A3005 RMK AO2 T01100075,KMZZ,2015-04-18T07:15:00Z,40.48,-85.68,11.0,7.5,0,0,,10.0,30.050198,,,TRUE,TRUE,,,,,,,CLR,,,,,,,,VFR,,,,,,,,,,,,SPECI,262.0
LHKE 180715Z 02004KT 9999 BKN030 OVC083 10/04 Q1014 NOSIG RMK BLU,LHKE,2015-04-18T07:15:00Z,46.92,19.75,10.0,4.0,20,4,,6.21,29.940945,,,,,,TRUE,,,,,BKN,3000,OVC,8300,,,,,MVFR,,,,,,,,,,,,METAR,115.0
KGPM 180715Z AUTO 06003KT 10SM CLR 18/18 A2994 RMK AO2 T01750175,KGPM,2015-04-18T07:15:00Z,32.7,-97.05,17.5,17.5,60,3,,10.0,29.940945,,,TRUE,TRUE,,,,,,,CLR,,,,,,,,VFR,,,,,,,,,,,,SPECI,180.0
KGNT 180715Z AUTO 00000KT 10SM OVC090 M01/M07 A3006 RMK AO2 T10121066,KGNT,2015-04-18T07:15:00Z,35.17,-107.9,-1.2,-6.6,0,0,,10.0,30.059055,,,TRUE,TRUE,,,,,,,OVC,9000,,,,,,,VFR,,,,,,,,,,,,SPECI,1987.0
KGNC 180715Z AUTO 22004KT 10SM CLR 09/01 A3000 RMK AO2 T00940013,KGNC,2015-04-18T07:15:00Z,32.68,-102.65,9.4,1.3,220,4,,10.0,30.0,,,TRUE,TRUE,,,,,,,CLR,,,,,,,,VFR,,,,,,,,,,,,SPECI,1010.0
KGMJ 180715Z AUTO 00000KT 10SM BKN049 BKN065 17/17 A2996 RMK AO2 LTG DSNT W,KGMJ,2015-04-18T07:15:00Z,36.6,-94.73,17.0,17.0,0,0,,10.0,29.958662,,,TRUE,TRUE,,,,,,,BKN,4900,BKN,6500,,,,,VFR,,,,,,,,,,,,SPECI,254.0
KGDJ 180715Z AUTO 11004KT 7SM 18/17 A2995 RMK AO2 T01770165,KGDJ,2015-04-18T07:15:00Z,32.45,-97.82,17.7,16.5,110,4,,7.0,29.949802,,,TRUE,TRUE,,,,,,,,,,,,,,,,,,,,,,,,,,,SPECI,237.0
KGAO 180715Z AUTO 00000KT 4SM BR SCT055 SCT120 22/21 A2991 RMK AO2 LTG DSNT SW THRU NW T02220214,KGAO,2015-04-18T07:15:00Z,29.45,-90.27,22.2,21.4,0,0,,4.0,29.911417,,,TRUE,TRUE,,,,,,BR,SCT,5500,SCT,12000,,,,,MVFR,,,,,,,,,,,,SPECI,1.0
KFYJ 180715Z AUTO 00000KT 10SM SCT047 SCT120 16/15 A2997 RMK AO2 T01610146,KFYJ,2015-04-18T07:15:00Z,37.52,-76.77,16.1,14.6,0,0,,10.0,29.970472,,,TRUE,TRUE,,,,,,,SCT,4700,SCT,12000,,,,,VFR,,,,,,,,,,,,SPECI,7.0
KFET 180715Z AUTO 00000KT 10SM DZ SCT050 BKN075 OVC090 17/14 A2998 RMK AO2 T01670138,KFET,2015-04-18T07:15:00Z,41.45,-96.52,16.7,13.8,0,0,,10.0,29.97933,,,TRUE,TRUE,,,,,,DZ,SCT,5000,BKN,7500,OVC,9000,,,VFR,,,,,,,,,,,,SPECI,367.0
KFBR 180715Z AUTO 18008KT 10SM CLR 02/02 A3014 RMK AO2 T00160016,KFBR,2015-04-18T07:15:00Z,41.4,-110.4,1.6,1.6,180,8,,10.0,30.138779,,,TRUE,TRUE,,,,,,,CLR,,,,,,,,VFR,,,,,,,,,,,,SPECI,2144.0
KF44 180715Z AUTO 07004KT 10SM SCT075 SCT090 BKN120 18/17 A2989 RMK AO2,KF44,2015-04-18T07:15:00Z,32.17,-95.83,18.0,17.0,70,4,,10.0,29.890747,,,TRUE,TRUE,,,,,,,SCT,7500,SCT,9000,BKN,12000,,,VFR,,,,,,,,,,,,SPECI,135.0
KEZM 180715Z AUTO 13004KT 10SM OVC003 20/20 A2997 RMK AO2 T01950195,KEZM,2015-04-18T07:15:00Z,32.22,-83.13,19.5,19.5,130,4,,10.0,29.970472,,,TRUE,TRUE,,,,,,,OVC,300,,,,,,,LIFR,,,,,,,,,,,,SPECI,93.0
KEHO 180715Z AUTO 00000KT 3SM -RA OVC110 16/16 A3000 RMK AO2 T01600160,KEHO,2015-04-18T07:15:00Z,35.25,-81.6,16.0,16.0,0,0,,3.0,30.0,,,TRUE,TRUE,,,,,,-RA,OVC,11000,,,,,,,MVFR,,,,,,,,,,,,SPECI,258.0
KE11 180715Z AUTO 00000KT 10SM SCT090 BKN120 13/01 A2999 RMK AO2 T01260009,KE11,2015-04-18T07:15:00Z,32.33,-102.53,12.6,0.9,0,0,,10.0,29.991142,,,TRUE,TRUE,,,,,,,SCT,9000,BKN,12000,,,,,VFR,,,,,,,,,,,,SPECI,967.0
KDZJ 180715Z AUTO 00000KT 1/4SM HZ 15/12 A3004 RMK AO2 T01510117,KDZJ,2015-04-18T07:15:00Z,34.85,-84.0,15.1,11.7,0,0,,0.25,30.041338,,,TRUE,TRUE,,,,,,HZ,,,,,,,,,,,,,,,,,,,,,SPECI,582.0
KDVK 180715Z AUTO 00000KT 7SM CLR 11/11 A3006 RMK AO2,KDVK,2015-04-18T07:15:00Z,37.58,-84.77,11.0,11.0,0,0,,7.0,30.059055,,,TRUE,TRUE,,,,,,,CLR,,,,,,,,VFR,,,,,,,,,,,,SPECI,312.0
KDUC 180715Z AUTO 15004KT 10SM BKN110 16/15 A2996 RMK AO2 LTG DSNT S,KDUC,2015-04-18T07:15:00Z,34.47,-97.97,16.0,15.0,150,4,,10.0,29.958662,,,TRUE,TRUE,,,,,,,BKN,11000,,,,,,,VFR,,,,,,,,,,,,SPECI,339.0
KDQH 180715Z AUTO 15005KT 10SM SCT029 BKN045 OVC060 21/20 A2997 RMK AO2,KDQH,2015-04-18T07:15:00Z,31.48,-82.87,21.0,20.0,150,5,,10.0,29.970472,,,TRUE,TRUE,,,,,,,SCT,2900,BKN,4500,OVC,6000,,,VFR,,,,,,,,,,,,SPECI,78.0
KDNV 180715Z AUTO 00000KT 10SM CLR 13/09 A3001 RMK AO2 T01250091,KDNV,2015-04-18T07:15:00Z,40.2,-87.6,12.5,9.1,0,0,,10.0,30.008858,,,TRUE,TRUE,,,,,,,CLR,,,,,,,,VFR,,,,,,,,,,,,SPECI,212.0
KDLL 180715Z AUTO 00000KT 10SM CLR 11/05 A3003 RMK AO2 T01060054,KDLL,2015-04-18T07:15:00Z,43.52,-89.77,10.6,5.4,0,0,,10.0,30.029528,,,TRUE,TRUE,,,,,,,CLR,,,,,,,,VFR,,,,,,,,,,,,SPECI,299.0
KDKB 180715Z AUTO 25003KT 10SM SCT075 15/07 A3002 RMK AO2 T01510074,KDKB,2015-04-18T07:15:00Z,41.93,-88.7,15.1,7.4,250,3,,10.0,30.02067,,,TRUE,TRUE,,,,,,,SCT,7500,,,,,,,VFR,,,,,,,,,,,,SPECI,279.0
KCZT 180715Z AUTO 36003KT 5SM BR OVC006 18/18 A2985 RMK AO2,KCZT,2015-04-18T07:15:00Z,28.52,-99.82,18.0,18.0,360,3,,5.0,29.84941,,,TRUE,TRUE,,,,,,BR,OVC,600,,,,,,,IFR,,,,,,,,,,,,SPECI,183.0
K54J 180715Z AUTO 00000KT 1 3/4SM BR OVC001 19/19 A2994 RMK AO2 T01900190,K54J,2015-04-18T07:15:00Z,30.73,-86.15,19.0,19.0,0,0,,1.75,29.940945,,,TRUE,TRUE,,,,,,BR,OVC,100,,,,,,,LIFR,,,,,,,,,,,,SPECI,88.0
K40J 180715Z AUTO 15003KT 5SM BR SCT070 22/21 A2995 RMK AO2 T02150210,K40J,2015-04-18T07:15:00Z,30.07,-83.57,21.5,21.0,150,3,,5.0,29.949802,,,TRUE,TRUE,,,,,,BR,SCT,7000,,,,,,,MVFR,,,,,,,,,,,,SPECI,13.0
K3R7 180715Z AUTO 32004KT 10SM -RA SCT070 OVC085 20/19 A2995 RMK AO2 LTG DSNT ALQS T01990188,K3R7,2015-04-18T07:15:00Z,30.25,-92.67,19.9,18.8,320,4,,10.0,29.949802,,,TRUE,TRUE,,,,,,-RA,SCT,7000,OVC,8500,,,,,VFR,,,,,,,,,,,,SPECI,7.0
K3LF 180715Z AUTO 14004KT 10SM CLR 14/12 A3002 RMK AO2 T01430116,K3LF,2015-04-18T07:15:00Z,39.17,-89.67,14.3,11.6,140,4,,10.0,30.02067,,,TRUE,TRUE,,,,,,,CLR,,,,,,,,VFR,,,,,,,,,,,,SPECI,210.0
K2I0 180715Z AUTO 00000KT 4SM BR CLR 15/15 A3001 RMK AO2 T01520146,K2I0,2015-04-18T07:15:00Z,37.35,-87.4,15.2,14.6,0,0,,4.0,30.008858,,,TRUE,TRUE,,,,,,BR,CLR,,,,,,,,MVFR,,,,,,,,,,,,SPECI,134.0
K2G9 180715Z AUTO 22003KT 5SM BR CLR 06/05 A3004 RMK AO2,K2G9,2015-04-18T07:15:00Z,40.03,-79.02,6.0,5.0,220,3,,5.0,30.041338,,,TRUE,TRUE,,,,,,BR,CLR,,,,,,,,MVFR,,,,,,,,,,,,METAR,693.0
K1L0 180715Z AUTO 26004KT 7SM RA SCT035 SCT055 BKN080 24/22 A2995 RMK AO2 LTG DSNT S THRU NW P0003 T02350221,K1L0,2015-04-18T07:15:00Z,30.08,-90.58,23.5,22.1,260,4,,7.0,29.949802,,,TRUE,TRUE,,,,,,RA,SCT,3500,SCT,5500,BKN,8000,,,VFR,,,,,,0.03,,,,,,SPECI,2.0
K1II 180715Z AUTO 00000KT 10SM CLR 09/07 A3006 RMK AO2,K1II,2015-04-18T07:15:00Z,39.33,-86.03,9.0,7.0,0,0,,10.0,30.059055,,,TRUE,TRUE,,,,,,,CLR,,,,,,,,VFR,,,,,,,,,,,,SPECI,214.0
K1H2 180715Z AUTO 00000KT 7SM CLR 12/11 A3004 RMK AO2 T01240106,K1H2,2015-04-18T07:15:00Z,39.07,-88.53,12.4,10.6,0,0,,7.0,30.041338,,,TRUE,TRUE,,,,,,,CLR,,,,,,,,VFR,,,,,,,,,,,,SPECI,179.0
K1A6 180715Z AUTO 00000KT 10SM CLR 13/13 A3005 RMK AO2 T01250125,K1A6,2015-04-18T07:15:00Z,36.62,-83.73,12.5,12.5,0,0,,10.0,30.050198,,,TRUE,TRUE,,,,,,,CLR,,,,,,,,VFR,,,,,,,,,,,,SPECI,352.0
K1A5 180715Z AUTO 00000KT 7SM 14/14 A3006 RMK AO2 T01370137,K1A5,2015-04-18T07:15:00Z,35.22,-83.42,13.7,13.7,0,0,,7.0,30.059055,,,TRUE,TRUE,,,,,,,,,,,,,,,,,,,,,,,,,,,SPECI,616.0
K18A 180715Z AUTO 00000KT 1/2SM DZ 17/17 A3001 RMK AO2 T01660166,K18A,2015-04-18T07:15:00Z,,,16.6,16.6,0,0,,0.5,30.008858,,,TRUE,TRUE,,,,,,DZ,,,,,,,,,,,,,,,,,,,,,SPECI,
K0VG 180715Z AUTO 00000KT 5SM BR FEW050 12/12 A3005 RMK AO2,K0VG,2015-04-18T07:15:00Z,36.65,-83.22,12.0,12.0,0,0,,5.0,30.050198,,,TRUE,TRUE,,,,,,BR,FEW,5000,,,,,,,MVFR,,,,,,,,,,,,SPECI,430.0
K0V4 180715Z AUTO 00000KT 1SM VV007 15/15 A2998 RMK AO1 T01480148,K0V4,2015-04-18T07:15:00Z,37.15,-79.02,14.8,14.8,0,0,,1.0,29.97933,,,TRUE,TRUE,,,,,,,OVX,0,,,,,,,LIFR,,,,,,,,,,,700,SPECI,182.0
K0E0 180715Z AUTO 01003KT 10SM CLR 00/M05 A3005 RMK AO2 T10041052,K0E0,2015-04-18T07:15:00Z,34.98,-106.0,-0.4,-5.2,10,3,,10.0,30.050198,,,TRUE,TRUE,,,,,,,CLR,,,,,,,,VFR,,,,,,,,,,,,SPECI,1890.0
KRAS 180715Z AUTO 09010G18KT 7SM SCT006 BKN060 OVC110 22/21 A2984 RMK AO2 LTG DSNT NE AND E T02180211,KRAS,2015-04-18T07:15:00Z,27.82,-97.08,21.8,21.1,90,10,18,7.0,29.840551,,,TRUE,TRUE,,,,,,,SCT,600,BKN,6000,OVC,11000,,,VFR,,,,,,,,,,,,SPECI,2.0
KPUJ 180715Z AUTO 06003KT 1/2SM FG OVC002 17/17 A2999 RMK AO2,KPUJ,2015-04-18T07:15:00Z,33.92,-84.93,17.0,17.0,60,3,,0.5,29.991142,,,TRUE,TRUE,,,,,,FG,OVC,200,,,,,,,LIFR,,,,,,,,,,,,SPECI,393.0
KPTT 180715Z AUTO 16004KT 10SM BKN027 BKN032 OVC050 15/12 A2996 RMK AO2 LTG DSNT E AND SE,KPTT,2015-04-18T07:15:00Z,37.7,-98.75,15.0,12.0,160,4,,10.0,29.958662,,,TRUE,TRUE,,,,,,,BKN,2700,BKN,3200,OVC,5000,,,MVFR,,,,,,,,,,,,SPECI,595.0
KPTS 180715Z AUTO 00000KT 10SM CLR 17/17 A2995 RMK AO2 T01680169,KPTS,2015-04-18T07:15:00Z,37.45,-94.73,16.8,16.9,0,0,,10.0,29.949802,,,TRUE,TRUE,,,,,,,CLR,,,,,,,,VFR,,,,,,,,,,,,SPECI,290.0
KPPQ 180715Z AUTO 00000KT 10SM CLR 16/12 A3003 RMK AO2 T01620123,KPPQ,2015-04-18T07:15:00Z,39.63,-90.78,16.2,12.3,0,0,,10.0,30.029528,,,TRUE,TRUE,,,,,,,CLR,,,,,,,,VFR,,,,,,,,,,,,SPECI,216.0
KPMV 180715Z AUTO 12005KT 10SM CLR 16/12 A2997 RMK AO2 T01640120,KPMV,2015-04-18T07:15:00Z,40.95,-95.92,16.4,12.0,120,5,,10.0,29.970472,,,TRUE,TRUE,,,,,,,CLR,,,,,,,,VFR,,,,,,,,,,,,SPECI,367.0
KPEQ 180715Z AUTO 18003KT 10SM SCT120 13/M02 A2996 RMK AO2 T01291020,KPEQ,2015-04-18T07:15:00Z,31.38,-103.52,12.9,-2.0,180,3,,10.0,29.958662,,,TRUE,TRUE,,,,,,,SCT,12000,,,,,,,VFR,,,,,,,,,,,,SPECI,797.0
KPDC 180715Z AUTO 00000KT 10SM CLR 11/07 A3003 RMK AO2 T01100066,KPDC,2015-04-18T07:15:00Z,43.02,-91.12,11.0,6.6,0,0,,10.0,30.029528,,,TRUE,TRUE,,,,,,,CLR,,,,,,,,VFR,,,,,,,,,,,,SPECI,201.0
KOUN 180715Z AUTO 00000KT 10SM CLR 16/15 A2994 RMK AO2 LTG DSNT E,KOUN,2015-04-18T07:15:00Z,35.25,-97.47,16.0,15.0,0,0,,10.0,29.940945,,,TRUE,TRUE,,,,,,,CLR,,,,,,,,VFR,,,,,,,,,,,,SPECI,357.0
KOPN 180715Z AUTO 06004KT 10SM OVC004 18/18 A2997 RMK AO2,KOPN,2015-04-18T07:15:00Z,32.95,-84.27,18.0,18.0,60,4,,10.0,29.970472,,,TRUE,TRUE,,,,,,,OVC,400,,,,,,,LIFR,,,,,,,,,,,,SPECI,243.0
KOKZ 180715Z AUTO 07005KT 5SM BR OVC004 17/17 A2997 RMK AO2 T01670167,KOKZ,2015-04-18T07:15:00Z,32.97,-82.83,16.7,16.7,70,5,,5.0,29.970472,,,TRUE,TRUE,,,,,,BR,OVC,400,,,,,,,LIFR,,,,,,,,,,,,SPECI,134.0
KOCW 180715Z AUTO 00000KT 10SM 17/17 A2998 RMK AO2 T01730166,KOCW,2015-04-18T07:15:00Z,35.57,-77.05,17.3,16.6,0,0,,10.0,29.97933,,,TRUE,TRUE,,,,,,,,,,,,,,,,,,,,,,,,,,,SPECI,12.0
KMWO 180715Z AUTO 00000KT 10SM CLR 10/06 A3007 RMK AO2 T00960062,KMWO,2015-04-18T07:15:00Z,39.53,-84.4,9.6,6.2,0,0,,10.0,30.070866,,,TRUE,TRUE,,,,,,,CLR,,,,,,,,VFR,,,,,,,,,,,,SPECI,198.0
KMWA 180715Z AUTO 00000KT 3SM BR CLR 15/15 A3001 RMK AO2,KMWA,2015-04-18T07:15:00Z,37.77,-89.02,15.0,15.0,0,0,,3.0,30.008858,,,TRUE,TRUE,,,,,,BR,CLR,,,,,,,,MVFR,,,,,,,,,,,,SPECI,144.0
KMQS 180715Z AUTO 33005KT 10SM CLR 13/10 A2999 RMK AO2,KMQS,2015-04-18T07:15:00Z,39.98,-75.87,13.0,10.0,330,5,,10.0,29.991142,,,TRUE,TRUE,,,,,,,CLR,,,,,,,,VFR,,,,,,,,,,,,SPECI,201.0
KMDQ 180715Z AUTO 00000KT 1SM BR OVC001 13/12 A3002 RMK AO2,KMDQ,2015-04-18T07:15:00Z,34.87,-86.55,13.0,12.0,0,0,,1.0,30.02067,,,TRUE,TRUE,,,,,,BR,OVC,100,,,,,,,LIFR,,,,,,,,,,,,SPECI,230.0
KMCX 180715Z AUTO 00000KT 10SM OVC080 12/10 A3003 RMK AO2 T01160103,KMCX,2015-04-18T07:15:00Z,40.72,-86.77,11.6,10.3,0,0,,10.0,30.029528,,,TRUE,TRUE,,,,,,,OVC,8000,,,,,,,VFR,,,,,,,,,,,,SPECI,206.0
KM30 180715Z AUTO 00000KT 4SM BR CLR 15/15 A3000 RMK AO2 T01530153,KM30,2015-04-18T07:15:00Z,37.18,-88.75,15.3,15.3,0,0,,4.0,30.0,,,TRUE,TRUE,,,,,,BR,CLR,,,,,,,,MVFR,,,,,,,,,,,,SPECI,117.0
KLXN 180715Z AUTO 15003KT 4SM +TSRA SCT013 BKN038 OVC045 12/11 A2997 RMK AO2 LTG DSNT ALQS P0008 T01230108,KLXN,2015-04-18T07:15:00Z,40.78,-99.77,12.3,10.8,150,3,,4.0,29.970472,,,TRUE,TRUE,,,,,,+TSRA,SCT,1300,BKN,3800,OVC,4500,,,MVFR,,,,,,0.08,,,,,,SPECI,734.0
KLUD 180715Z AUTO 06003KT 10SM BKN080 16/16 A2995 RMK AO2 T01610161,KLUD,2015-04-18T07:15:00Z,33.25,-97.58,16.1,16.1,60,3,,10.0,29.949802,,,TRUE,TRUE,,,,,,,BKN,8000,,,,,,,VFR,,,,,,,,,,,,SPECI,319.0
KLNP 180715Z AUTO 00000KT 10SM BKN060 15/10 A3008 RMK AO2,KLNP,2015-04-18T07:15:00Z,36.97,-82.52,15.0,10.0,0,0,,10.0,30.079725,,,TRUE,TRUE,,,,,,,BKN,6000,,,,,,,VFR,,,,,,,,,,,,SPECI,817.0
KLHM 180715Z AUTO 11006KT 10SM CLR 15/05 A2998 RMK AO1,KLHM,2015-04-18T07:15:00Z,38.92,-121.35,15.0,5.0,110,6,,10.0,29.97933,,,TRUE,TRUE,,,,,,,CLR,,,,,,,,VFR,,,,,,,,,,,,SPECI,37.0
KLAL 180715Z AUTO 00000KT 4SM BR CLR 21/20 A2998 RMK AO2,KLAL,2015-04-18T07:15:00Z,27.97,-82.02,21.0,20.0,0,0,,4.0,29.97933,,,TRUE,TRUE,,,,,,BR,CLR,,,,,,,,MVFR,,,,,,,,,,,,SPECI,43.0
KJYR 180715Z AUTO 00000KT 10SM OVC047 14/13 A2997 RMK AO2 LTG DSNT SW AND W,KJYR,2015-04-18T07:15:00Z,40.9,-97.62,14.0,13.0,0,0,,10.0,29.970472,,,TRUE,TRUE,,,,,,,OVC,4700,,,,,,,VFR,,,,,,,,,,,,SPECI,509.0
KJYL 180715Z AUTO 11003KT 5SM RA SCT001 BKN005 OVC070 19/19 A2998 RMK AO2 T01900190,KJYL,2015-04-18T07:15:00Z,32.65,-81.6,19.0,19.0,110,3,,5.0,29.97933,,,TRUE,TRUE,,,,,,RA,SCT,100,BKN,500,OVC,7000,,,IFR,,,,,,,,,,,,SPECI,57.0
KJXI 180715Z AUTO 28004KT 10SM -RA SCT007 BKN011 OVC110 19/19 A2993 RMK AO2 LTG DSNT N T01900185,KJXI,2015-04-18T07:15:00Z,32.7,-94.95,19.0,18.5,280,4,,10.0,29.929134,,,TRUE,TRUE,,,,,,-RA,SCT,700,BKN,1100,OVC,11000,,,MVFR,,,,,,,,,,,,SPECI,127.0
KJVL 180715Z AUTO 00000KT 10SM CLR 11/06 A3001 RMK AO2,KJVL,2015-04-18T07:15:00Z,42.62,-89.05,11.0,6.0,0,0,,10.0,30.008858,,,TRUE,TRUE,,,,,,,CLR,,,,,,,,VFR,,,,,,,,,,,,SPECI,246.0
KJAS 180715Z AUTO 10004KT 10SM -DZ BKN090 BKN120 22/20 A2992 RMK AO2 T02160204,KJAS,2015-04-18T07:15:00Z,30.88,-94.03,21.6,20.4,100,4,,10.0,29.920275,,,TRUE,TRUE,,,,,,-DZ,BKN,9000,BKN,12000,,,,,VFR,,,,,,,,,,,,SPECI,65.0
KIXA 180715Z AUTO 00000KT 10SM CLR 15/15 A2997 RMK AO2,KIXA,2015-04-18T07:15:00Z,36.33,-77.63,15.0,15.0,0,0,,10.0,29.970472,,,TRUE,TRUE,,,,,,,CLR,,,,,,,,VFR,,,,,,,,,,,,SPECI,44.0
KIPJ 180715Z AUTO 00000KT 4SM BR SCT004 OVC110 16/16 A2998 RMK AO2 T01610156,KIPJ,2015-04-18T07:15:00Z,35.48,-81.17,16.1,15.6,0,0,,4.0,29.97933,,,TRUE,TRUE,,,,,,BR,SCT,400,OVC,11000,,,,,MVFR,,,,,,,,,,,,SPECI,267.0
KIER 180715Z AUTO 00000KT 7SM RA SCT043 BKN065 OVC110 21/21 A2993 RMK AO2 P0001 T02080206,KIER,2015-04-18T07:15:00Z,31.73,-93.1,20.8,20.6,0,0,,7.0,29.929134,,,TRUE,TRUE,,,,,,RA,SCT,4300,BKN,6500,OVC,11000,,,VFR,,,,,,0.01,,,,,,SPECI,37.0
KHZL 180715Z AUTO 00000KT 1/2SM FG VV005 08/08 A3003 RMK AO2,KHZL,2015-04-18T07:15:00Z,40.98,-76.0,8.0,8.0,0,0,,0.5,30.029528,,,TRUE,TRUE,,,,,,FG,OVX,0,,,,,,,LIFR,,,,,,,,,,,500,SPECI,489.0
KHVE 180715Z AUTO 00000KT 10SM SCT049 BKN070 OVC085 06/06 A3005 RMK AO2,KHVE,2015-04-18T07:15:00Z,38.42,-110.7,6.0,6.0,0,0,,10.0,30.050198,,,TRUE,TRUE,,,,,,,SCT,4900,BKN,7000,OVC,8500,,,VFR,,,,,,,,,,,,SPECI,1350.0
KBBD 180715Z AUTO 10004KT 10SM CLR 14/14 A2993 RMK,KBBD,2015-04-18T07:15:00Z,31.18,-99.32,14.0,14.0,100,4,,10.0,29.929134,,,TRUE,,,,,,,,CLR,,,,,,,,VFR,,,,,,,,,,,,METAR,557.0
KAYS 180715Z AUTO 00000KT 10SM OVC065 22/21 A2997 RMK AO2 T02200205,KAYS,2015-04-18T07:15:00Z,31.25,-82.4,22.0,20.5,0,0,,10.0,29.970472,,,TRUE,TRUE,,,,,,,OVC,6500,,,,,,,VFR,,,,,,,,,,,,SPECI,46.0
KAXX 180715Z AUTO 00000KT 10SM CLR M07/M10 A3003 RMK AO2 T10681104,KAXX,2015-04-18T07:15:00Z,36.42,-105.28,-6.8,-10.4,0,0,,10.0,30.029528,,,TRUE,TRUE,,,,,,,CLR,,,,,,,,VFR,,,,,,,,,,,,SPECI,2548.0
KAVK 180715Z AUTO 16005KT 10SM OVC120 15/15 A2996 RMK AO2,KAVK,2015-04-18T07:15:00Z,36.77,-98.67,15.0,15.0,160,5,,10.0,29.958662,,,TRUE,TRUE,,,,,,,OVC,12000,,,,,,,VFR,,,,,,,,,,,,SPECI,449.0
KATP 180715Z AUTO 19008G14KT 130V220 10SM FEW016 M40/ A2990 RMK A01,KATP,2015-04-18T07:15:00Z,27.2,-90.03,-40.0,,190,8,14,10.0,29.899607,,,TRUE,TRUE,,,,,,,FEW,1600,,,,,,,VFR,,,,,,,,,,,,SPECI,62.0
KANW 180715Z AUTO 03007KT 10SM BKN060 OVC070 11/11 A3002 RMK AO2 LTG DSNT SE AND S T01100105,KANW,2015-04-18T07:15:00Z,42.57,-100.0,11.0,10.5,30,7,,10.0,30.02067,,,TRUE,TRUE,,,,,,,BKN,6000,OVC,7000,,,,,VFR,,,,,,,,,,,,SPECI,789.0
KALN 180715Z AUTO 00000KT 7SM CLR 14/13 A3001 RMK AO2 T01380131,KALN,2015-04-18T07:15:00Z,38.88,-90.03,13.8,13.1,0,0,,7.0,30.008858,,,TRUE,TRUE,,,,,,,CLR,,,,,,,,VFR,,,,,,,,,,,,SPECI,166.0
KAIB 180715Z AUTO 00000KT 1/2SM -SN BKN001 OVC011 00/00 A3009 RMK AO2,KAIB,2015-04-18T07:15:00Z,38.23,-108.57,0.0,0.0,0,0,,0.5,30.088583,,,TRUE,TRUE,,,,,,-SN,BKN,100,OVC,1100,,,,,LIFR,,,,,,,,,,,,SPECI,1811.0
K82C 180715Z AUTO 29003KT 10SM CLR 14/05 A3002 RMK AO2 T01400049,K82C,2015-04-18T07:15:00Z,43.83,-90.13,14.0,4.9,290,3,,10.0,30.02067,,,TRUE,TRUE,,,,,,,CLR,,,,,,,,VFR,,,,,,,,,,,,METAR,276.0
K7W4 180715Z AUTO 00000KT 10SM SCT055 OVC065 14/14 A2997 RMK AO1 T01400137,K7W4,2015-04-18T07:15:00Z,37.97,-77.75,14.0,13.7,0,0,,10.0,29.970472,,,TRUE,TRUE,,,,,,,SCT,5500,OVC,6500,,,,,VFR,,,,,,,,,,,,SPECI,106.0
K6A2 180715Z AUTO 05003KT 3/4SM OVC002 17/17 A2997 RMK AO2,K6A2,2015-04-18T07:15:00Z,33.23,-84.27,17.0,17.0,50,3,,0.75,29.970472,,,TRUE,TRUE,,,,,,,OVC,200,,,,,,,LIFR,,,,,,,,,,,,SPECI,292.0
K65S 180715Z AUTO 35011KT 10SM FEW090 10/03 A3005 RMK AO2,K65S,2015-04-18T07:15:00Z,48.73,-116.3,10.0,3.0,350,11,,10.0,30.050198,,,TRUE,TRUE,,,,,,,FEW,9000,,,,,,,VFR,,,,,,,,,,,,SPECI,713.0
K5T9 180715Z AUTO 00000KT 10SM OVC006 18/17 A2989 RMK A01,K5T9,2015-04-18T07:15:00Z,28.85,-100.52,18.0,17.0,0,0,,10.0,29.890747,,,TRUE,TRUE,,,,,,,OVC,600,,,,,,,IFR,,,,,,,,,,,,METAR,270.0
K4A9 180715Z AUTO 00000KT 10SM OVC012 15/13 A3001 RMK AO2,K4A9,2015-04-18T07:15:00Z,34.47,-85.72,15.0,13.0,0,0,,10.0,30.008858,,,TRUE,TRUE,,,,,,,OVC,1200,,,,,,,MVFR,,,,,,,,,,,,SPECI,267.0
K49A 180715Z AUTO 00000KT 1/4SM HZ OVC001 A3004 RMK AO2,K49A,2015-04-18T07:15:00Z,,,,,0,0,,0.25,30.041338,,,TRUE,TRUE,,,,,,HZ,OVC,100,,,,,,,LIFR,,,,,,,,,,,,SPECI,
K3D2 180715Z AUTO 29006KT 10SM CLR 08/02 A2997 RMK AO2 T00840021,K3D2,2015-04-18T07:15:00Z,45.13,-87.18,8.4,2.1,290,6,,10.0,29.970472,,,TRUE,TRUE,,,,,,,CLR,,,,,,,,VFR,,,,,,,,,,,,METAR,234.0
K36U 180715Z AUTO 09006KT 10SM OVC060 06/01 A3008 RMK AO2,K36U,2015-04-18T07:15:00Z,40.48,-111.43,6.0,1.0,90,6,,10.0,30.079725,,,TRUE,TRUE,,,,,,,OVC,6000,,,,,,,VFR,,,,,,,,,,,,SPECI,1718.0
K2D5 180715Z AUTO 04011KT 10SM 07/M04 A3009 RMK AO2,K2D5,2015-04-18T07:15:00Z,46.17,-98.08,7.0,-4.0,40,11,,10.0,30.088583,,,TRUE,TRUE,,,,,,,,,,,,,,,,,,,,,,,,,,,SPECI,407.0
K19A 180715Z AUTO 00000KT 1/2SM DZ OVC001 17/17 A3000 RMK AO2,K19A,2015-04-18T07:15:00Z,34.18,-83.57,17.0,17.0,0,0,,0.5,30.0,,,TRUE,TRUE,,,,,,DZ,OVC,100,,,,,,,LIFR,,,,,,,,,,,,SPECI,290.0
K11R 180715Z AUTO 13005KT 10SM SCT018 BKN037 BKN048 21/20 A2989 RMK AO2 LTG DSNT SE T02070201,K11R,2015-04-18T07:15:00Z,30.22,-96.37,20.7,20.1,130,5,,10.0,29.890747,,,TRUE,TRUE,,,,,,,SCT,1800,BKN,3700,BKN,4800,,,VFR,,,,,,,,,,,,SPECI,94.0
KXSA 180715Z AUTO 00000KT 10SM CLR 15/13 A2997 RMK AO2 T01460128,KXSA,2015-04-18T07:15:00Z,37.87,-76.9,14.6,12.8,0,0,,10.0,29.970472,,,TRUE,TRUE,,,,,,,CLR,,,,,,,,VFR,,,,,,,,,,,,SPECI,42.0
KXBP 180715Z AUTO 08003KT 5SM BR SCT110 16/16 A2996 RMK AO2 LTG DSNT N T01550155,KXBP,2015-04-18T07:15:00Z,33.18,-97.83,15.5,15.5,80,3,,5.0,29.958662,,,TRUE,TRUE,,,,,,BR,SCT,11000,,,,,,,MVFR,,,,,,,,,,,,SPECI,260.0
KW96 180715Z AUTO 00000KT 1SM VV007 15/15 A2996 RMK AO1 T01490149,KW96,2015-04-18T07:15:00Z,37.5,-77.12,14.9,14.9,0,0,,1.0,29.958662,,,TRUE,TRUE,,,,,,,OVX,0,,,,,,,LIFR,,,,,,,,,,,700,SPECI,37.0
KW43 180715Z AUTO 21003KT 10SM SCT110 05/03 A3008 RMK AO2,KW43,2015-04-18T07:15:00Z,44.67,-104.57,5.0,3.0,210,3,,10.0,30.079725,,,TRUE,TRUE,,,,,,,SCT,11000,,,,,,,VFR,,,,,,,,,,,,SPECI,1300.0
KW13 180715Z AUTO 22003KT 10SM CLR 12/12 A3002 RMK AO1 T01190115,KW13,2015-04-18T07:15:00Z,38.08,-78.95,11.9,11.5,220,3,,10.0,30.02067,,,TRUE,TRUE,,,,,,,CLR,,,,,,,,VFR,,,,,,,,,,,,SPECI,443.0
KVTI 180715Z AUTO 00000KT 7SM CLR 13/10 A3001 RMK AO2 T01300100,KVTI,2015-04-18T07:15:00Z,42.22,-92.02,13.0,10.0,0,0,,7.0,30.008858,,,TRUE,TRUE,,,,,,,CLR,,,,,,,,VFR,,,,,,,,,,,,SPECI,255.0
KTMK 180715Z AUTO 00000KT 7SM CLR 08/07 A3033 RMK AO2,KTMK,2015-04-18T07:15:00Z,45.42,-123.82,8.0,7.0,0,0,,7.0,30.33071,,,TRUE,TRUE,,,,,,,CLR,,,,,,,,VFR,,,,,,,,,,,,SPECI,11.0
KSNL 180715Z AUTO 16004KT VCTS OVC095 17/13 A2996 RMK AO2 LTG DSNT N THRU E,KSNL,2015-04-18T07:15:00Z,35.35,-96.95,17.0,13.0,160,4,,,29.958662,,,TRUE,TRUE,,,,,,VCTS,OVC,9500,,,,,,,,,,,,,,,,,,,SPECI,327.0
KSLO 180715Z AUTO 00000KT 5SM BR CLR 14/12 A3002 RMK AO2 T01360120,KSLO,2015-04-18T07:15:00Z,38.65,-88.97,13.6,12.0,0,0,,5.0,30.02067,,,TRUE,TRUE,,,,,,BR,CLR,,,,,,,,MVFR,,,,,,,,,,,,SPECI,175.0
KSJS 180715Z AUTO 00000KT 10SM CLR 17/12 A3003 RMK AO2 T01680120,KSJS,2015-04-18T07:15:00Z,37.75,-82.63,16.8,12.0,0,0,,10.0,30.029528,,,TRUE,TRUE,,,,,,,CLR,,,,,,,,VFR,,,,,,,,,,,,SPECI,372.0
KSEP 180715Z AUTO 00000KT 5SM SCT014 BKN120 17/15 A2997 RMK AO2 T01650152,KSEP,2015-04-18T07:15:00Z,32.22,-98.17,16.5,15.2,0,0,,5.0,29.970472,,,TRUE,TRUE,,,,,,,SCT,1400,BKN,12000,,,,,MVFR,,,,,,,,,,,,SPECI,402.0
KSCD 180715Z AUTO 00000KT 3SM BR BKN003 OVC011 16/16 A2997 RMK AO2 T01610161,KSCD,2015-04-18T07:15:00Z,33.17,-86.3,16.1,16.1,0,0,,3.0,29.970472,,,TRUE,TRUE,,,,,,BR,BKN,300,OVC,1100,,,,,LIFR,,,,,,,,,,,,SPECI,173.0
KSAR 180715Z AUTO 00000KT 10SM CLR 16/14 A3002 RMK AO2 T01630142,KSAR,2015-04-18T07:15:00Z,38.15,-89.7,16.3,14.2,0,0,,10.0,30.02067,,,TRUE,TRUE,,,,,,,CLR,,,,,,,,VFR,,,,,,,,,,,,SPECI,164.0
KRYW 180715Z AUTO 06003KT 10SM SCT026 18/17 A2992 RMK AO2 LTG DSNT SE T01750166,KRYW,2015-04-18T07:15:00Z,30.5,-97.97,17.5,16.6,60,3,,10.0,29.920275,,,TRUE,TRUE,,,,,,,SCT,2600,,,,,,,VFR,,,,,,,,,,,,SPECI,376.0
KRSV 180715Z AUTO 00000KT 7SM CLR 11/11 A3004 RMK AO2 T01110105,KRSV,2015-04-18T07:15:00Z,39.02,-87.65,11.1,10.5,0,0,,7.0,30.041338,,,TRUE,TRUE,,,,,,,CLR,,,,,,,,VFR,,,,,,,,,,,,SPECI,141.0
KRKR 180715Z AUTO 00000KT 10SM CLR 19/16 A2994 RMK AO2 T01910161,KRKR,2015-04-18T07:15:00Z,35.02,-94.62,19.1,16.1,0,0,,10.0,29.940945,,,TRUE,TRUE,,,,,,,CLR,,,,,,,,VFR,,,,,,,,,,,,SPECI,138.0
KPVJ 180715Z AUTO 00000KT 10SM BKN095 18/12 A2993 RMK AO2 LTG DSNT N T01780117,KPVJ,2015-04-18T07:15:00Z,34.72,-97.22,17.8,11.7,0,0,,10.0,29.929134,,,TRUE,TRUE,,,,,,,BKN,9500,,,,,,,VFR,,,,,,,,,,,,SPECI,295.0
KPSN 180715Z AUTO 09010G16KT 10SM -RA BKN120 19/18 A2989 RMK AO2 T01950187,KPSN,2015-04-18T07:15:00Z,31.78,-95.7,19.5,18.7,90,10,16,10.0,29.890747,,,TRUE,TRUE,,,,,,-RA,BKN,12000,,,,,,,VFR,,,,,,,,,,,,SPECI,129.0
KPRO 180715Z AUTO 09003KT 10SM OVC100 15/10 A3000 RMK AO2 T01490096,KPRO,2015-04-18T07:15:00Z,41.83,-94.17,14.9,9.6,90,3,,10.0,30.0,,,TRUE,TRUE,,,,,,,OVC,10000,,,,,,,VFR,,,,,,,,,,,,SPECI,308.0
KPCZ 180715Z AUTO 00000KT 10SM CLR 10/06 A3001 RMK AO2 T01010058,KPCZ,2015-04-18T07:15:00Z,44.33,-89.02,10.1,5.8,0,0,,10.0,30.008858,,,TRUE,TRUE,,,,,,,CLR,,,,,,,,VFR,,,,,,,,,,,,SPECI,252.0
KPBH 180715Z AUTO 01008KT 10SM CLR 10/M02 A3006 RMK AO2 T00951021,KPBH,2015-04-18T07:15:00Z,45.7,-90.4,9.5,-2.1,10,8,,10.0,30.059055,,,TRUE,TRUE,,,,,,,CLR,,,,,,,,VFR,,,,,,,,,,,,SPECI,449.0
KOXI 180715Z AUTO 00000KT 10SM CLR 12/00 A3002 RMK AO1,KOXI,2015-04-18T07:15:00Z,41.33,-86.67,12.0,0.0,0,0,,10.0,30.02067,,,TRUE,TRUE,,,,,,,CLR,,,,,,,,VFR,,,,,,,,,,,,SPECI,209.0
KOWP 180715Z AUTO 27003KT 5SM +TSRA SCT034 BKN048 OVC055 19/16 A2994 RMK AO2 LTG DSNT S THRU NW T01930161,KOWP,2015-04-18T07:15:00Z,36.18,-96.15,19.3,16.1,270,3,,5.0,29.940945,,,TRUE,TRUE,,,,,,+TSRA,SCT,3400,BKN,4800,OVC,5500,,,MVFR,,,,,,,,,,,,SPECI,272.0
KORG 180715Z AUTO 09003KT 10SM -VCTSRA SCT008 SCT030 SCT040 20/19 A2993 RMK AO2 LTG DSNT E THRU S T01990185,KORG,2015-04-18T07:15:00Z,30.07,-93.8,19.9,18.5,90,3,,10.0,29.929134,,,TRUE,TRUE,,,,,,VCTS -RA,SCT,800,SCT,3000,SCT,4000,,,VFR,,,,,,,,,,,,SPECI,4.0
KMQI 180715Z AUTO 00000KT 10SM SCT060 18/17 A2998 RMK AO2 T01750172,KMQI,2015-04-18T07:15:00Z,35.92,-75.7,17.5,17.2,0,0,,10.0,29.97933,,,TRUE,TRUE,,,,,,,SCT,6000,,,,,,,VFR,,,,,,,,,,,,SPECI,4.0
KMQB 180715Z AUTO 00000KT 10SM CLR 14/10 A3004 RMK AO2 T01350101,KMQB,2015-04-18T07:15:00Z,40.52,-90.65,13.5,10.1,0,0,,10.0,30.041338,,,TRUE,TRUE,,,,,,,CLR,,,,,,,,VFR,,,,,,,,,,,,SPECI,215.0
KMNZ 180715Z AUTO 22003KT 7SM CLR 18/18 A2995 RMK AO2 T01790179,KMNZ,2015-04-18T07:15:00Z,31.67,-98.15,17.9,17.9,220,3,,7.0,29.949802,,,TRUE,TRUE,,,,,,,CLR,,,,,,,,VFR,,,,,,,,,,,,SPECI,396.0
KMMH 180715Z AUTO 27003KT 10SM CLR 02/M16 A3026 RMK AO1,KMMH,2015-04-18T07:15:00Z,37.62,-118.82,2.0,-16.0,270,3,,10.0,30.259842,,,TRUE,TRUE,,,,,,,CLR,,,,,,,,VFR,,,,,,,,,,,,SPECI,2173.0
KEHY 180715Z AUTO 08003KT 5SM BR OVC003 00/M01 A3003 RMK AO2,KEHY,2015-04-18T07:15:00Z,41.73,-106.47,0.0,-1.0,80,3,,5.0,30.029528,,,TRUE,TRUE,,,,,,BR,OVC,300,,,,,,,LIFR,,,,,,,,,,,,SPECI,2225.0
KEDN 180715Z AUTO 35003KT 10SM CLR 15/15 A2994 RMK AO2,KEDN,2015-04-18T07:15:00Z,31.3,-85.9,15.0,15.0,350,3,,10.0,29.940945,,,TRUE,TRUE,,,,,,,CLR,,,,,,,,VFR,,,,,,,,,,,,SPECI,110.0
KEDE 180715Z AUTO 00000KT 10SM SCT032 16/16 A2997 RMK AO2 T01630156,KEDE,2015-04-18T07:15:00Z,36.02,-76.57,16.3,15.6,0,0,,10.0,29.970472,,,TRUE,TRUE,,,,,,,SCT,3200,,,,,,,VFR,,,,,,,,,,,,SPECI,6.0
KECS 180715Z AUTO 35004KT 10SM SCT038 BKN048 BKN070 06/06 A3007 RMK AO2,KECS,2015-04-18T07:15:00Z,43.88,-104.32,6.0,6.0,350,4,,10.0,30.070866,,,TRUE,TRUE,,,,,,,SCT,3800,BKN,4800,BKN,7000,,,VFR,,,,,,,,,,,,SPECI,1273.0
KEBG 180715Z AUTO 08005KT 10SM -DZ OVC017 24/21 A2983 RMK AO2 T02390211,KEBG,2015-04-18T07:15:00Z,26.45,-98.13,23.9,21.1,80,5,,10.0,29.828741,,,TRUE,TRUE,,,,,,-DZ,OVC,1700,,,,,,,MVFR,,,,,,,,,,,,SPECI,24.0
KDZB 180715Z AUTO 00000KT 10SM CLR 17/16 A2992 RMK AO2 T01680162,KDZB,2015-04-18T07:15:00Z,30.53,-98.37,16.8,16.2,0,0,,10.0,29.920275,,,TRUE,TRUE,,,,,,,CLR,,,,,,,,VFR,,,,,,,,,,,,SPECI,334.0
KDVO 180715Z AUTO 35005KT 10SM CLR 07/07 A3006 RMK AO2,KDVO,2015-04-18T07:15:00Z,38.15,-122.55,7.0,7.0,350,5,,10.0,30.059055,,,TRUE,TRUE,,,,,,,CLR,,,,,,,,VFR,,,,,,,,,,,,SPECI,1.0
KDUX 180715Z AUTO 24009KT 10SM CLR 07/07 A2997 RMK AO2 T00720065,KDUX,2015-04-18T07:15:00Z,35.85,-102.02,7.2,6.5,240,9,,10.0,29.970472,,,TRUE,TRUE,,,,,,,CLR,,,,,,,,VFR,,,,,,,,,,,,SPECI,1129.0
KDUA 180715Z AUTO 11006KT 10SM -RA SCT040 BKN050 OVC110 16/16 A2993 RMK AO2 P0003,KDUA,2015-04-18T07:15:00Z,33.95,-96.4,16.0,16.0,110,6,,10.0,29.929134,,,TRUE,TRUE,,,,,,-RA,SCT,4000,BKN,5000,OVC,11000,,,VFR,,,,,,0.03,,,,,,SPECI,213.0
KDRI 180715Z AUTO 12004KT 10SM -RA SCT015 BKN030 OVC050 21/20 A2994 RMK AO2 LTG DSNT S P0001 T02050197,KDRI,2015-04-18T07:15:00Z,30.83,-93.33,20.5,19.7,120,4,,10.0,29.940945,,,TRUE,TRUE,,,,,,-RA,SCT,1500,BKN,3000,OVC,5000,,,MVFR,,,,,,0.01,,,,,,SPECI,63.0
KDPL 180715Z AUTO 00000KT 10SM BKN038 18/17 A2999 RMK AO2 T01800174,KDPL,2015-04-18T07:15:00Z,35.0,-77.97,18.0,17.4,0,0,,10.0,29.991142,,,TRUE,TRUE,,,,,,,BKN,3800,,,,,,,VFR,,,,,,,,,,,,SPECI,42.0
KDNS 180715Z AUTO 00000KT 10SM FEW055 FEW075 BKN110 13/11 A2998 RMK AO2,KDNS,2015-04-18T07:15:00Z,41.97,-95.37,13.0,11.0,0,0,,10.0,29.97933,,,TRUE,TRUE,,,,,,,FEW,5500,FEW,7500,BKN,11000,,,VFR,,,,,,,,,,,,SPECI,388.0
KCWF 180715Z AUTO 00000KT 3SM RA SCT005 BKN014 OVC029 19/18 A2995 RMK AO2 LTG DSNT ALQS P0017 T01920187,KCWF,2015-04-18T07:15:00Z,30.22,-93.15,19.2,18.7,0,0,,3.0,29.949802,,,TRUE,TRUE,,,,,,RA,SCT,500,BKN,1400,OVC,2900,,,MVFR,,,,,,0.17,,,,,,SPECI,4.0
KCUL 180715Z AUTO 00000KT 1/4SM FG VV002 13/11 A3001 RMK AO2 T01310114,KCUL,2015-04-18T07:15:00Z,38.08,-88.12,13.1,11.4,0,0,,0.25,30.008858,,,TRUE,TRUE,,,,,,FG,OVX,0,,,,,,,LIFR,,,,,,,,,,,200,SPECI,118.0
KCNI 180715Z AUTO 00000KT 1 1/4SM BR OVC002 17/15 A3001 RMK AO2,KCNI,2015-04-18T07:15:00Z,34.32,-84.42,17.0,15.0,0,0,,1.25,30.008858,,,TRUE,TRUE,,,,,,BR,OVC,200,,,,,,,LIFR,,,,,,,,,,,,SPECI,372.0
KCMD 180715Z AUTO 06004KT 7SM OVC008 16/15 A3000 RMK AO2 T01600153,KCMD,2015-04-18T07:15:00Z,34.27,-86.85,16.0,15.3,60,4,,7.0,30.0,,,TRUE,TRUE,,,,,,,OVC,800,,,,,,,IFR,,,,,,,,,,,,SPECI,294.0
KCLK 180715Z AUTO 15003KT 5SM BR SCT110 13/12 A2996 RMK AO2,KCLK,2015-04-18T07:15:00Z,35.53,-98.93,13.0,12.0,150,3,,5.0,29.958662,,,TRUE,TRUE,,,,,,BR,SCT,11000,,,,,,,MVFR,,,,,,,,,,,,SPECI,492.0
KCKF 180715Z AUTO 22004KT 7SM -RA BKN006 OVC011 21/20 A2995 RMK AO2 T02080200,KCKF,2015-04-18T07:15:00Z,31.98,-83.77,20.8,20.0,220,4,,7.0,29.949802,,,TRUE,TRUE,,,,,,-RA,BKN,600,OVC,1100,,,,,IFR,,,,,,,,,,,,SPECI,91.0
KCDA 180715Z AUTO 30004KT 10SM CLR 06/M06 A2994 RMK AO2 T00611063,KCDA,2015-04-18T07:15:00Z,44.57,-72.02,6.1,-6.3,300,4,,10.0,29.940945,,,TRUE,TRUE,,,,,,,CLR,,,,,,,,VFR,,,,,,,,,,,,SPECI,363.0
KCCY 180715Z AUTO 05005KT 10SM BKN080 OVC130 14/07 A3004 RMK AO2,KCCY,2015-04-18T07:15:00Z,43.07,-92.62,14.0,7.0,50,5,,10.0,30.041338,,,TRUE,TRUE,,,,,,,BKN,8000,OVC,13000,,,,,VFR,,,,,,,,,,,,SPECI,343.0
KBEA 180715Z AUTO 16007KT 7SM OVC006 21/21 A2985 RMK AO2 LTG DSNT E T02050205,KBEA,2015-04-18T07:15:00Z,28.37,-97.78,20.5,20.5,160,7,,7.0,29.84941,,,TRUE,TRUE,,,,,,,OVC,600,,,,,,,IFR,,,,,,,,,,,,SPECI,82.0
KBCB 180715Z AUTO 00000KT 10SM CLR 11/10 A3006 RMK AO2 T01050096,KBCB,2015-04-18T07:15:00Z,37.22,-80.42,10.5,9.6,0,0,,10.0,30.059055,,,TRUE,TRUE,,,,,,,CLR,,,,,,,,VFR,,,,,,,,,,,,SPECI,650.0
KAZC 180715Z AUTO 00000KT 10SM CLR 04/M01 A3010 RMK AO2 T00431015,KAZC,2015-04-18T07:15:00Z,36.97,-113.02,4.3,-1.5,0,0,,10.0,30.100393,,,TRUE,TRUE,,,,,,,CLR,,,,,,,,VFR,,,,,,,,,,,,SPECI,1486.0
KAUN 180715Z AUTO 09006KT 10SM CLR 16/04 A3005 RMK AO1,KAUN,2015-04-18T07:15:00Z,38.95,-121.08,16.0,4.0,90,6,,10.0,30.050198,,,TRUE,TRUE,,,,,,,CLR,,,,,,,,VFR,,,,,,,,,,,,SPECI,467.0
KASW 180715Z AUTO 00000KT 10SM SCT075 11/08 A3004 RMK AO2,KASW,2015-04-18T07:15:00Z,41.27,-85.83,11.0,8.0,0,0,,10.0,30.041338,,,TRUE,TRUE,,,,,,,SCT,7500,,,,,,,VFR,,,,,,,,,,,,SPECI,259.0
KAJG 180715Z AUTO 00000KT 10SM CLR 15/12 A3003 RMK AO2,KAJG,2015-04-18T07:15:00Z,38.62,-87.73,15.0,12.0,0,0,,10.0,30.029528,,,TRUE,TRUE,,,,,,,CLR,,,,,,,,VFR,,,,,,,,,,,,SPECI,131.0
KAAA 180715Z AUTO 00000KT 10SM CLR 13/09 A3002 RMK AO2 T01260089,KAAA,2015-04-18T07:15:00Z,40.17,-89.33,12.6,8.9,0,0,,10.0,30.02067,,,TRUE,TRUE,,,,,,,CLR,,,,,,,,VFR,,,,,,,,,,,,SPECI,182.0
K8W2 180715Z AUTO 25003KT 7SM CLR 10/09 A3000 RMK AO1 T01010094,K8W2,2015-04-18T07:15:00Z,38.65,-78.7,10.1,9.4,250,3,,7.0,30.0,,,TRUE,TRUE,,,,,,,CLR,,,,,,,,VFR,,,,,,,,,,,,SPECI,297.0
K5R8 180715Z AUTO 12003KT 10SM VCTSRA SCT070 BKN090 OVC120 19/19 A2994 RMK AO2 LTG DSNT S AND SW P0004 T01880188,K5R8,2015-04-18T07:15:00Z,30.43,-93.47,18.8,18.8,120,3,,10.0,29.940945,,,TRUE,TRUE,,,,,,VCTSRA,SCT,7000,BKN,9000,OVC,12000,,,VFR,,,,,,0.04,,,,,,SPECI,24.0
K5A6 180715Z AUTO 00000KT 2SM BR CLR 16/15 A2998 RMK AO2 T01560154,K5A6,2015-04-18T07:15:00Z,33.47,-89.73,15.6,15.4,0,0,,2.0,29.97933,,,TRUE,TRUE,,,,,,BR,CLR,,,,,,,,IFR,,,,,,,,,,,,SPECI,111.0
K4O4 180715Z AUTO 07004KT 10SM BKN039 18/17 A2995 RMK AO2,K4O4,2015-04-18T07:15:00Z,33.92,-94.87,18.0,17.0,70,4,,10.0,29.949802,,,TRUE,TRUE,,,,,,,BKN,3900,,,,,,,VFR,,,,,,,,,,,,SPECI,144.0
K3J7 180715Z AUTO 00000KT 4SM +DZ SCT001 OVC014 10/ A2995 RMK AO2,K3J7,2015-04-18T07:15:00Z,33.6,-83.13,10.0,,0,0,,4.0,29.949802,,,TRUE,TRUE,,,,,,+DZ,SCT,100,OVC,1400,,,,,MVFR,,,,,,,,,,,,SPECI,206.0
K3I2 180715Z AUTO 00000KT 10SM CLR 12/10 A3003 RMK AO2,K3I2,2015-04-18T07:15:00Z,38.92,-82.1,12.0,10.0,0,0,,10.0,30.029528,,,TRUE,TRUE,,,,,,,CLR,,,,,,,,VFR,,,,,,,,,,,,SPECI,196.0
K1K1 180715Z AUTO 09003KT 10SM BKN080 BKN120 16/14 A2993 RMK AO2 T01550140,K1K1,2015-04-18T07:15:00Z,37.77,-97.12,15.5,14.0,90,3,,10.0,29.929134,,,TRUE,TRUE,,,,,,,BKN,8000,BKN,12000,,,,,VFR,,,,,,,,,,,,SPECI,416.0
K1A9 180715Z AUTO 00000KT 10SM OVC003 17/17 A2995 RMK AO2 T01680168,K1A9,2015-04-18T07:15:00Z,32.43,-86.52,16.8,16.8,0,0,,10.0,29.949802,,,TRUE,TRUE,,,,,,,OVC,300,,,,,,,LIFR,,,,,,,,,,,,SPECI,69.0
KLXY 180715Z AUTO 28004KT 10SM SCT024 19/18 A2991 RMK AO2 T01910180,KLXY,2015-04-18T07:15:00Z,31.63,-96.52,19.1,18.0,280,4,,10.0,29.911417,,,TRUE,TRUE,,,,,,,SCT,2400,,,,,,,VFR,,,,,,,,,,,,SPECI,166.0
KLVL 180715Z AUTO 00000KT 7SM BKN055 15/15 A2996 RMK AO1 T01540154,KLVL,2015-04-18T07:15:00Z,36.78,-77.8,15.4,15.4,0,0,,7.0,29.958662,,,TRUE,TRUE,,,,,,,BKN,5500,,,,,,,VFR,,,,,,,,,,,,SPECI,100.0
KLUM 180715Z AUTO 23003KT 10SM CLR 08/03 A3005 RMK AO2 T00800026,KLUM,2015-04-18T07:15:00Z,44.9,-91.87,8.0,2.6,230,3,,10.0,30.050198,,,TRUE,TRUE,,,,,,,CLR,,,,,,,,VFR,,,,,,,,,,,,SPECI,273.0
KLOM 180715Z AUTO 00000KT 7SM CLR 11/11 A2997 RMK AO1,KLOM,2015-04-18T07:15:00Z,40.13,-75.27,11.0,11.0,0,0,,7.0,29.970472,,,TRUE,TRUE,,,,,,,CLR,,,,,,,,VFR,,,,,,,,,,,,SPECI,92.0
KLNC 180715Z AUTO 00000KT 7SM SCT120 16/15 A2994 RMK AO2 T01620153,KLNC,2015-04-18T07:15:00Z,32.58,-96.72,16.2,15.3,0,0,,7.0,29.940945,,,TRUE,TRUE,,,,,,,SCT,12000,,,,,,,VFR,,,,,,,,,,,,SPECI,153.0
KLHB 180715Z AUTO 00000KT 10SM SCT025 20/19 A2990 RMK AO2 LTG DSNT SE T01950188,KLHB,2015-04-18T07:15:00Z,30.87,-96.62,19.5,18.8,0,0,,10.0,29.899607,,,TRUE,TRUE,,,,,,,SCT,2500,,,,,,,VFR,,,,,,,,,,,,SPECI,87.0
KL18 180715Z AUTO 02004KT 10SM CLR 15/M01 A3004 RMK AO2,KL18,2015-04-18T07:15:00Z,33.35,-117.25,15.0,-1.0,20,4,,10.0,30.041338,,,TRUE,TRUE,,,,,,,CLR,,,,,,,,VFR,,,,,,,,,,,,SPECI,216.0
KJWY 180715Z AUTO 02003KT 10SM SCT110 17/17 A2994 RMK AO2 T01700170,KJWY,2015-04-18T07:15:00Z,32.45,-96.92,17.0,17.0,20,3,,10.0,29.940945,,,TRUE,TRUE,,,,,,,SCT,11000,,,,,,,VFR,,,,,,,,,,,,SPECI,217.0
KJWG 180715Z AUTO 00000KT 7SM OVC100 15/15 A2997 RMK AO2 T01500150,KJWG,2015-04-18T07:15:00Z,35.87,-98.42,15.0,15.0,0,0,,7.0,29.970472,,,TRUE,TRUE,,,,,,,OVC,10000,,,,,,,VFR,,,,,,,,,,,,SPECI,472.0
KJSO 180715Z AUTO 00000KT 10SM -RA BKN090 OVC120 20/18 A2995 RMK AO2 P0001 T01970187,KJSO,2015-04-18T07:15:00Z,31.87,-95.22,19.7,18.7,0,0,,10.0,29.949802,,,TRUE,TRUE,,,,,,-RA,BKN,9000,OVC,12000,,,,,VFR,,,,,,0.01,,,,,,SPECI,206.0
KJQF 180715Z AUTO 00000KT 10SM SCT100 16/16 A3000 RMK AO2,KJQF,2015-04-18T07:15:00Z,35.38,-80.72,16.0,16.0,0,0,,10.0,30.0,,,TRUE,TRUE,,,,,,,SCT,10000,,,,,,,VFR,,,,,,,,,,,,SPECI,210.0
KJKA 180715Z AUTO 00000KT 1/2SM FG OVC003 20/20 A2992 RMK AO2 T01960196,KJKA,2015-04-18T07:15:00Z,30.28,-87.67,19.6,19.6,0,0,,0.5,29.920275,,,TRUE,TRUE,,,,,,FG,OVC,300,,,,,,,LIFR,,,,,,,,,,,,SPECI,5.0
KJFZ 180715Z AUTO 00000KT 10SM CLR 16/10 A3005 RMK AO2 T01570097,KJFZ,2015-04-18T07:15:00Z,37.07,-81.8,15.7,9.7,0,0,,10.0,30.050198,,,TRUE,TRUE,,,,,,,CLR,,,,,,,,VFR,,,,,,,,,,,,SPECI,809.0
KIGQ 180715Z AUTO 00000KT 10SM SCT075 SCT095 13/07 A3002 RMK AO2 T01310071,KIGQ,2015-04-18T07:15:00Z,41.53,-87.53,13.1,7.1,0,0,,10.0,30.02067,,,TRUE,TRUE,,,,,,,SCT,7500,SCT,9500,,,,,VFR,,,,,,,,,,,,SPECI,188.0
KI39 180715Z AUTO 28004KT 7SM CLR 13/12 A3005 RMK AO2,KI39,2015-04-18T07:15:00Z,37.63,-84.33,13.0,12.0,280,4,,7.0,30.050198,,,TRUE,TRUE,,,,,,,CLR,,,,,,,,VFR,,,,,,,,,,,,SPECI,306.0
KI35 180715Z AUTO 00000KT 10SM OVC065 14/14 A3004 RMK AO1,KI35,2015-04-18T07:15:00Z,36.87,-83.37,14.0,14.0,0,0,,10.0,30.041338,,,TRUE,TRUE,,,,,,,OVC,6500,,,,,,,VFR,,,,,,,,,,,,SPECI,473.0
KHUM 180715Z AUTO 34009KT 7SM -RA BKN085 BKN120 23/22 A2990 RMK AO2 LTG DSNT ALQS T02250221,KHUM,2015-04-18T07:15:00Z,29.57,-90.67,22.5,22.1,340,9,,7.0,29.899607,,,TRUE,TRUE,,,,,,-RA,BKN,8500,BKN,12000,,,,,VFR,,,,,,,,,,,,SPECI,3.0
KHSB 180715Z AUTO 00000KT 7SM CLR 15/15 A3002 RMK AO2 T01500147,KHSB,2015-04-18T07:15:00Z,37.82,-88.55,15.0,14.7,0,0,,7.0,30.02067,,,TRUE,TRUE,,,,,,,CLR,,,,,,,,VFR,,,,,,,,,,,,SPECI,121.0
KHRJ 180715Z AUTO 00000KT 10SM SCT030 18/18 A2998 RMK AO2 T01790179,KHRJ,2015-04-18T07:15:00Z,35.38,-78.73,17.9,17.9,0,0,,10.0,29.97933,,,TRUE,TRUE,,,,,,,SCT,3000,,,,,,,VFR,,,,,,,,,,,,SPECI,60.0
KHQZ 180715Z AUTO 34003KT 10SM CLR 17/17 A2994 RMK AO1 T01700166,KHQZ,2015-04-18T07:15:00Z,32.75,-96.53,17.0,16.6,340,3,,10.0,29.940945,,,TRUE,TRUE,,,,,,,CLR,,,,,,,,VFR,,,,,,,,,,,,SPECI,136.0
KHLX 180715Z AUTO 00000KT 1/4SM FG OVC002 14/14 A3005 RMK AO2 T01410140,KHLX,2015-04-18T07:15:00Z,36.77,-80.82,14.1,14.0,0,0,,0.25,30.050198,,,TRUE,TRUE,,,,,,FG,OVC,200,,,,,,,LIFR,,,,,,,,,,,,SPECI,834.0
KHHF 180715Z AUTO 21005KT 10SM BKN017 15/14 A2995 RMK AO2 T01500136,KHHF,2015-04-18T07:15:00Z,35.9,-100.4,15.0,13.6,210,5,,10.0,29.949802,,,TRUE,TRUE,,,,,,,BKN,1700,,,,,,,MVFR,,,,,,,,,,,,SPECI,712.0
KGYY 180715Z AUTO 22003KT 10SM SCT080 SCT095 17/06 A3002 RMK AO2 T01670055,KGYY,2015-04-18T07:15:00Z,41.62,-87.42,16.7,5.5,220,3,,10.0,30.02067,,,TRUE,TRUE,,,,,,,SCT,8000,SCT,9500,,,,,VFR,,,,,,,,,,,,SPECI,180.0
KGWW 180715Z AUTO 00000KT 10SM SCT031 BKN085 18/18 A2998 RMK AO2 T01790177,KGWW,2015-04-18T07:15:00Z,35.47,-77.97,17.9,17.7,0,0,,10.0,29.97933,,,TRUE,TRUE,,,,,,,SCT,3100,BKN,8500,,,,,VFR,,,,,,,,,,,,SPECI,41.0
KGWB 180715Z AUTO 00000KT 10SM SCT070 12/07 A3004 RMK AO2,KGWB,2015-04-18T07:15:00Z,41.3,-85.07,12.0,7.0,0,0,,10.0,30.041338,,,TRUE,TRUE,,,,,,,SCT,7000,,,,,,,VFR,,,,,,,,,,,,SPECI,269.0
KGIC 180715Z AUTO 22004KT 10SM CLR 07/01 A3019 RMK AO1 T00680007,KGIC,2015-04-18T07:15:00Z,45.95,-116.12,6.8,0.7,220,4,,10.0,30.188976,,,TRUE,TRUE,,,,,,,CLR,,,,,,,,VFR,,,,,,,,,,,,SPECI,1009.0
KGGI 180715Z AUTO 05004KT 10SM CLR 14/10 A3001 RMK AO2 T01400099,KGGI,2015-04-18T07:15:00Z,41.72,-92.73,14.0,9.9,50,4,,10.0,30.008858,,,TRUE,TRUE,,,,,,,CLR,,,,,,,,VFR,,,,,,,,,,,,SPECI,307.0
KGEV 180715Z AUTO 00000KT 10SM CLR 14/10 A3006 RMK AO2 T01410100,KGEV,2015-04-18T07:15:00Z,36.43,-81.42,14.1,10.0,0,0,,10.0,30.059055,,,TRUE,TRUE,,,,,,,CLR,,,,,,,,VFR,,,,,,,,,,,,SPECI,969.0
KGCM 180715Z AUTO 00000KT 10SM CLR 17/15 A2996 RMK AO2 LTG DSNT SW AND W,KGCM,2015-04-18T07:15:00Z,36.3,-95.48,17.0,15.0,0,0,,10.0,29.958662,,,TRUE,TRUE,,,,,,,CLR,,,,,,,,VFR,,,,,,,,,,,,SPECI,221.0
KFSO 180715Z AUTO 04003KT 10SM SCT090 06/M04 A2996 RMK AO2 T00641037,KFSO,2015-04-18T07:15:00Z,44.93,-73.1,6.4,-3.7,40,3,,10.0,29.958662,,,TRUE,TRUE,,,,,,,SCT,9000,,,,,,,VFR,,,,,,,,,,,,SPECI,70.0
KFRR 180715Z AUTO 00000KT 10SM SCT060 12/12 A3000 RMK AO1,KFRR,2015-04-18T07:15:00Z,38.92,-78.25,12.0,12.0,0,0,,10.0,30.0,,,TRUE,TRUE,,,,,,,SCT,6000,,,,,,,VFR,,,,,,,,,,,,SPECI,216.0
KFOA 180715Z AUTO 01003KT 5SM BR CLR 13/12 A3003 RMK AO2 T01250118,KFOA,2015-04-18T07:15:00Z,38.67,-88.45,12.5,11.8,10,3,,5.0,30.029528,,,TRUE,TRUE,,,,,,BR,CLR,,,,,,,,MVFR,,,,,,,,,,,,SPECI,144.0
KFEP 180715Z AUTO 00000KT 10SM CLR 11/08 A3003 RMK AO2 T01110076,KFEP,2015-04-18T07:15:00Z,42.25,-89.58,11.1,7.6,0,0,,10.0,30.029528,,,TRUE,TRUE,,,,,,,CLR,,,,,,,,VFR,,,,,,,,,,,,SPECI,262.0
KF46 180715Z AUTO 03005KT 10SM SCT100 SCT120 17/17 A2993 RMK AO2 T01710167,KF46,2015-04-18T07:15:00Z,32.93,-96.43,17.1,16.7,30,5,,10.0,29.929134,,,TRUE,TRUE,,,,,,,SCT,10000,SCT,12000,,,,,VFR,,,,,,,,,,,,SPECI,176.0
KEZS 180715Z AUTO 00000KT 10SM CLR 08/06 A3001 RMK AO2 T00760057,KEZS,2015-04-18T07:15:00Z,44.78,-88.57,7.6,5.7,0,0,,10.0,30.008858,,,TRUE,TRUE,,,,,,,CLR,,,,,,,,VFR,,,,,,,,,,,,SPECI,248.0
KEYF 180715Z AUTO 00000KT 7SM -RA SCT028 SCT050 BKN120 19/19 A2998 RMK AO2 T01900190,KEYF,2015-04-18T07:15:00Z,34.6,-78.58,19.0,19.0,0,0,,7.0,29.97933,,,TRUE,TRUE,,,,,,-RA,SCT,2800,SCT,5000,BKN,12000,,,VFR,,,,,,,,,,,,SPECI,41.0
KELK 180715Z AUTO 18004KT 5SM BR CLR 12/12 A3000 RMK AO2,KELK,2015-04-18T07:15:00Z,35.43,-99.4,12.0,12.0,180,4,,5.0,30.0,,,TRUE,TRUE,,,,,,BR,CLR,,,,,,,,MVFR,,,,,,,,,,,,SPECI,610.0
PAUT 180715Z AUTO 10SM -DZ BKN013 OVC040 02/01 A2899 RMK AO2 T00220010,PAUT,2015-04-18T07:15:00Z,54.15,-165.6,2.2,1.0,,,,10.0,28.990158,,,TRUE,TRUE,,,,,,-DZ,BKN,1300,OVC,4000,,,,,MVFR,,,,,,,,,,,,SPECI,25.0
KW31 180715Z AUTO 32003KT 10SM SCT065 16/15 A2997 RMK AO1 T01550147,KW31,2015-04-18T07:15:00Z,36.95,-78.18,15.5,14.7,320,3,,10.0,29.970472,,,TRUE,TRUE,,,,,,,SCT,6500,,,,,,,VFR,,,,,,,,,,,,SPECI,162.0
KVWU 180715Z AUTO 05008KT 10SM CLR 03/M01 A3017 RMK AO2,KVWU,2015-04-18T07:15:00Z,48.15,-94.52,3.0,-1.0,50,8,,10.0,30.171259,,,TRUE,TRUE,,,,,,,CLR,,,,,,,,VFR,,,,,,,,,,,,SPECI,360.0
KTTA 180715Z AUTO 00000KT 3SM BR CLR 16/16 A2997 RMK AO2 T01640164,KTTA,2015-04-18T07:15:00Z,35.58,-79.1,16.4,16.4,0,0,,3.0,29.970472,,,TRUE,TRUE,,,,,,BR,CLR,,,,,,,,MVFR,,,,,,,,,,,,SPECI,75.0
KTBX 180715Z AUTO 19011G14KT M1/4SM -SN OVC002 01/01 A3019 RMK AO2,KTBX,2015-04-18T07:15:00Z,43.47,-108.23,1.0,1.0,190,11,14,0.25,30.188976,,,TRUE,TRUE,,,,,,-SN,OVC,200,,,,,,,LIFR,,,,,,,,,,,,SPECI,2225.0
KSZT 180715Z AUTO 26004KT 10SM CLR 06/03 A3006 RMK AO2,KSZT,2015-04-18T07:15:00Z,48.3,-116.57,6.0,3.0,260,4,,10.0,30.059055,,,TRUE,TRUE,,,,,,,CLR,,,,,,,,VFR,,,,,,,,,,,,SPECI,648.0
KRCX 180715Z AUTO 02011KT 10SM CLR 12/M01 A3008 RMK AO2 T01151012,KRCX,2015-04-18T07:15:00Z,45.5,-91.0,11.5,-1.2,20,11,,10.0,30.079725,,,TRUE,TRUE,,,,,,,CLR,,,,,,,,VFR,,,,,,,,,,,,SPECI,377.0
KPEZ 180715Z AUTO 02004KT 10SM OVC011 19/18 A2988 RMK AO2 LTG DSNT E T01850178,KPEZ,2015-04-18T07:15:00Z,28.95,-98.52,18.5,17.8,20,4,,10.0,29.878937,,,TRUE,TRUE,,,,,,,OVC,1100,,,,,,,MVFR,,,,,,,,,,,,SPECI,132.0
KOBE 180715Z AUTO 00000KT 10SM CLR 21/20 A2999 RMK AO2,KOBE,2015-04-18T07:15:00Z,27.27,-80.85,21.0,20.0,0,0,,10.0,29.991142,,,TRUE,TRUE,,,,,,,CLR,,,,,,,,VFR,,,,,,,,,,,,SPECI,11.0
KMKN 180715Z AUTO 13003KT 7SM SCT008 OVC016 16/16 A2995 RMK AO2 T01560156,KMKN,2015-04-18T07:15:00Z,31.92,-98.6,15.6,15.6,130,3,,7.0,29.949802,,,TRUE,TRUE,,,,,,,SCT,800,OVC,1600,,,,,MVFR,,,,,,,,,,,,SPECI,423.0
KJSV 180715Z AUTO 07008KT 10SM CLR 20/17 A2995 RMK AO2,KJSV,2015-04-18T07:15:00Z,35.43,-94.8,20.0,17.0,70,8,,10.0,29.949802,,,TRUE,TRUE,,,,,,,CLR,,,,,,,,VFR,,,,,,,,,,,,SPECI,161.0
KJNX 180715Z AUTO 00000KT 7SM CLR 17/17 A2997 RMK AO2,KJNX,2015-04-18T07:15:00Z,35.53,-78.38,17.0,17.0,0,0,,7.0,29.970472,,,TRUE,TRUE,,,,,,,CLR,,,,,,,,VFR,,,,,,,,,,,,SPECI,50.0
KICL 180715Z AUTO 00000KT 10SM FEW049 SCT060 OVC075 17/15 A2999 RMK AO2,KICL,2015-04-18T07:15:00Z,40.72,-95.02,17.0,15.0,0,0,,10.0,29.991142,,,TRUE,TRUE,,,,,,,FEW,4900,SCT,6000,OVC,7500,,,VFR,,,,,,,,,,,,SPECI,303.0
KFWZ 180715Z AUTO 36009KT 10SM 00/00 A3006 RMK AO2,KFWZ,2015-04-18T07:15:00Z,42.52,-108.78,0.0,0.0,360,9,,10.0,30.059055,,,TRUE,TRUE,,,,,,,,,,,,,,,,,,,,,,,,,,,SPECI,2588.0
KFKR 180715Z AUTO 00000KT 10SM CLR 11/09 A3006 RMK AO2 T01070088,KFKR,2015-04-18T07:15:00Z,40.27,-86.57,10.7,8.8,0,0,,10.0,30.059055,,,TRUE,TRUE,,,,,,,CLR,,,,,,,,VFR,,,,,,,,,,,,SPECI,262.0
KCLI 180715Z AUTO 28003KT 10SM CLR 08/04 A3001 RMK AO2,KCLI,2015-04-18T07:15:00Z,44.62,-88.73,8.0,4.0,280,3,,10.0,30.008858,,,TRUE,TRUE,,,,,,,CLR,,,,,,,,VFR,,,,,,,,,,,,SPECI,250.0
KBXA 180715Z AUTO 00000KT 10SM 20/19 A2994 RMK AO2 LTG DSNT NW T02040185,KBXA,2015-04-18T07:15:00Z,30.82,-89.87,20.4,18.5,0,0,,10.0,29.940945,,,TRUE,TRUE,,,,,,,,,,,,,,,,,,,,,,,,,,,SPECI,36.0
KBPC 180715Z AUTO 18003KT 10SM BKN012 OVC018 13/12 A2997 RMK AO2,KBPC,2015-04-18T07:15:00Z,35.88,-101.03,13.0,12.0,180,3,,10.0,29.970472,,,TRUE,TRUE,,,,,,,BKN,1200,OVC,1800,,,,,MVFR,,,,,,,,,,,,SPECI,845.0
KAXS 180715Z AUTO 11006KT 7SM CLR 15/14 A2997 RMK AO2 T01450135,KAXS,2015-04-18T07:15:00Z,34.7,-99.33,14.5,13.5,110,6,,7.0,29.970472,,,TRUE,TRUE,,,,,,,CLR,,,,,,,,VFR,,,,,,,,,,,,SPECI,437.0
KASN 180715Z AUTO 00000KT 10SM 18/16 A2999 RMK AO2 T01750163,KASN,2015-04-18T07:15:00Z,33.57,-86.05,17.5,16.3,0,0,,10.0,29.991142,,,TRUE,TRUE,,,,,,,,,,,,,,,,,,,,,,,,,,,SPECI,162.0
KAJL 180715Z AUTO 00000KT 10SM CLR M03/M06 A3017 RMK AO2 T10311063,KAJL,2015-04-18T07:15:00Z,43.67,-110.03,-3.1,-6.3,0,0,,10.0,30.171259,,,TRUE,TRUE,,,,,,,CLR,,,,,,,,VFR,,,,,,,,,,,,SPECI,3161.0
K82V 180715Z AUTO 35006KT 10SM -DZ SCT028 SCT035 OVC050 02/02 A3003 RMK AO2,K82V,2015-04-18T07:15:00Z,41.15,-104.13,2.0,2.0,350,6,,10.0,30.029528,,,TRUE,TRUE,,,,,,-DZ,SCT,2800,SCT,3500,OVC,5000,,,VFR,,,,,,,,,,,,SPECI,1570.0
PADQ 180715Z 06019KT 6SM -RA OVC009 05/04 A2926 RMK AO2 PK WND 07028/0659 P0001 T00500039,PADQ,2015-04-18T07:15:00Z,57.75,-152.5,5.0,3.9,60,19,,6.0,29.258858,,,,TRUE,,,,,,-RA,OVC,900,,,,,,,IFR,,,,,,0.01,,,,,,SPECI,34.0
KTPF 180715Z AUTO 09004KT 10SM SCT014 SCT024 25/22 A2997 RMK AO2,KTPF,2015-04-18T07:15:00Z,27.92,-82.45,25.0,22.0,90,4,,10.0,29.970472,,,TRUE,TRUE,,,,,,,SCT,1400,SCT,2400,,,,,VFR,,,,,,,,,,,,SPECI,3.0
KTME 180715Z AUTO 09007KT 10SM -RA SCT036 BKN050 OVC120 19/19 A2984 RMK AO2,KTME,2015-04-18T07:15:00Z,29.8,-95.9,19.0,19.0,90,7,,10.0,29.840551,,,TRUE,TRUE,,,,,,-RA,SCT,3600,BKN,5000,OVC,12000,,,VFR,,,,,,,,,,,,SPECI,51.0
KSTF 180715Z AUTO 00000KT 7SM CLR 15/15 A2998 RMK AO2,KSTF,2015-04-18T07:15:00Z,33.43,-88.85,15.0,15.0,0,0,,7.0,29.97933,,,TRUE,TRUE,,,,,,,CLR,,,,,,,,VFR,,,,,,,,,,,,SPECI,102.0
KRZL 180715Z AUTO 22004KT 10SM SCT075 13/08 A3004 RMK AO2,KRZL,2015-04-18T07:15:00Z,40.95,-87.18,13.0,8.0,220,4,,10.0,30.041338,,,TRUE,TRUE,,,,,,,SCT,7500,,,,,,,VFR,,,,,,,,,,,,SPECI,213.0
KRNC 180715Z AUTO 00000KT 1/2SM OVC001 13/13 A3003 RMK,KRNC,2015-04-18T07:15:00Z,35.7,-85.85,13.0,13.0,0,0,,0.5,30.029528,,,TRUE,,,,,,,,OVC,100,,,,,,,LIFR,,,,,,,,,,,,METAR,315.0
KPCM 180715Z AUTO 00000KT 3SM BR CLR 22/22 A2999 RMK AO2,KPCM,2015-04-18T07:15:00Z,28.0,-82.17,22.0,22.0,0,0,,3.0,29.991142,,,TRUE,TRUE,,,,,,BR,CLR,,,,,,,,MVFR,,,,,,,,,,,,SPECI,47.0
KNQA 180715Z AUTO 00000KT 8SM CLR 16/16 A2999 RMK,KNQA,2015-04-18T07:15:00Z,35.35,-89.87,16.0,16.0,0,0,,8.0,29.991142,,,TRUE,,,,,,,,CLR,,,,,,,,VFR,,,,,,,,,,,,METAR,86.0
KMNI 180715Z AUTO 00000KT 3SM -RA OVC016 18/17 A2997 RMK AO2 P0001,KMNI,2015-04-18T07:15:00Z,33.58,-80.22,18.0,17.0,0,0,,3.0,29.970472,,,TRUE,TRUE,,,,,,-RA,OVC,1600,,,,,,,MVFR,,,,,,0.01,,,,,,SPECI,32.0
KLBE 180715Z AUTO 00000KT 5SM BR CLR 07/07 A3004 RMK AO2,KLBE,2015-04-18T07:15:00Z,40.27,-79.4,7.0,7.0,0,0,,5.0,30.041338,,,TRUE,TRUE,,,,,,BR,CLR,,,,,,,,MVFR,,,,,,,,,,,,SPECI,361.0
KIDI 180715Z AUTO 00000KT 8SM FEW049 BKN055 07/06 A3006 RMK A01,KIDI,2015-04-18T07:15:00Z,40.62,-79.08,7.0,6.0,0,0,,8.0,30.059055,,,TRUE,TRUE,,,,,,,FEW,4900,BKN,5500,,,,,VFR,,,,,,,,,,,,SPECI,429.0
KHZE 180715Z AUTO 36003KT 10SM CLR 03/M03 A3010 RMK AO2,KHZE,2015-04-18T07:15:00Z,47.28,-101.58,3.0,-3.0,360,3,,10.0,30.100393,,,TRUE,TRUE,,,,,,,CLR,,,,,,,,VFR,,,,,,,,,,,,SPECI,553.0
KHXD 180715Z AUTO 00000KT 1 1/4SM -RA SCT001 20/20 A3000 RMK AO2 P0002,KHXD,2015-04-18T07:15:00Z,32.22,-80.7,20.0,20.0,0,0,,1.25,30.0,,,TRUE,TRUE,,,,,,-RA,SCT,100,,,,,,,IFR,,,,,,0.02,,,,,,SPECI,6.0
KHAE 180715Z AUTO 15003KT 10SM CLR 18/10 A3001 RMK AO2,KHAE,2015-04-18T07:15:00Z,39.73,-91.45,18.0,10.0,150,3,,10.0,30.008858,,,TRUE,TRUE,,,,,,,CLR,,,,,,,,VFR,,,,,,,,,,,,SPECI,234.0
KGWR 180715Z AUTO 01009KT CLR 07/M06 A3011 RMK A01 P000,KGWR,2015-04-18T07:15:00Z,46.22,-97.65,7.0,-6.0,10,9,,,30.109253,,,TRUE,TRUE,,,,,,,CLR,,,,,,,,,,,,,,,,,,,,SPECI,386.0
KFWB 180715Z AUTO 00000KT 10SM FEW037 BKN044 16/15 A3000 RMK AO2,KFWB,2015-04-18T07:15:00Z,36.7,-93.4,16.0,15.0,0,0,,10.0,30.0,,,TRUE,TRUE,,,,,,,FEW,3700,BKN,4400,,,,,VFR,,,,,,,,,,,,SPECI,406.0
KFGX 180715Z AUTO 30005KT 2SM BR CLR 13/13 A3006 RMK AO2 T01270125,KFGX,2015-04-18T07:15:00Z,38.55,-83.75,12.7,12.5,300,5,,2.0,30.059055,,,TRUE,TRUE,,,,,,BR,CLR,,,,,,,,IFR,,,,,,,,,,,,SPECI,278.0
KETH 180715Z AUTO 01005KT 10SM CLR 07/M05 A3010 RMK AO2,KETH,2015-04-18T07:15:00Z,45.78,-96.55,7.0,-5.0,10,5,,10.0,30.100393,,,TRUE,TRUE,,,,,,,CLR,,,,,,,,VFR,,,,,,,,,,,,SPECI,313.0
KE80 180715Z AUTO 31006KT 10SM CLR 03/M06 A3005 RMK AO2 T00281058,KE80,2015-04-18T07:15:00Z,34.65,-106.83,2.8,-5.8,310,6,,10.0,30.050198,,,TRUE,TRUE,,,,,,,CLR,,,,,,,,VFR,,,,,,,,,,,,SPECI,1582.0
KDYA 180715Z AUTO 00000KT 10SM 18/ A2997 RMK AO2 T0177,KDYA,2015-04-18T07:15:00Z,32.47,-87.95,17.7,,0,0,,10.0,29.970472,,,TRUE,TRUE,,,,,,,,,,,,,,,,,,,,,,,,,,,SPECI,34.0
KDED 180715Z AUTO 00000KT A2997 RMK AO1,KDED,2015-04-18T07:15:00Z,29.07,-81.28,,,0,0,,,29.970472,,,TRUE,TRUE,,,,,,,,,,,,,,,,,,,,,,,,,,,SPECI,24.0
KDCM 180715Z AUTO 00000KT 1 1/2SM BR BKN001 OVC095 17/17 A2998 RMK AO2,KDCM,2015-04-18T07:15:00Z,34.78,-81.2,17.0,17.0,0,0,,1.5,29.97933,,,TRUE,TRUE,,,,,,BR,BKN,100,OVC,9500,,,,,LIFR,,,,,,,,,,,,SPECI,200.0
KCLS 180715Z AUTO 00000KT 10SM CLR 08/08 A3031 RMK AO2,KCLS,2015-04-18T07:15:00Z,46.68,-122.98,8.0,8.0,0,0,,10.0,30.31004,,,TRUE,TRUE,,,,,,,CLR,,,,,,,,VFR,,,,,,,,,,,,SPECI,54.0
KCIC 180715Z AUTO 06006KT 5SM CLR 19/02 A3000 RMK AO1,KCIC,2015-04-18T07:15:00Z,39.78,-121.83,19.0,2.0,60,6,,5.0,30.0,,,TRUE,TRUE,,,,,,,CLR,,,,,,,,MVFR,,,,,,,,,,,,SPECI,73.0
KCFJ 180715Z AUTO 00000KT 10SM CLR 10/07 A3005 RMK AO2 T00990065,KCFJ,2015-04-18T07:15:00Z,,,9.9,6.5,0,0,,10.0,30.050198,,,TRUE,TRUE,,,,,,,CLR,,,,,,,,VFR,,,,,,,,,,,,SPECI,
KCCA 180715Z AUTO 00000KT 3SM BR SCT001 14/14 A3002 RMK AO2,KCCA,2015-04-18T07:15:00Z,35.6,-92.45,14.0,14.0,0,0,,3.0,30.02067,,,TRUE,TRUE,,,,,,BR,SCT,100,,,,,,,MVFR,,,,,,,,,,,,SPECI,157.0
KBBG 180715Z AUTO 00000KT 10SM BKN046 BKN080 16/15 A3001 RMK AO2,KBBG,2015-04-18T07:15:00Z,36.53,-93.2,16.0,15.0,0,0,,10.0,30.008858,,,TRUE,TRUE,,,,,,,BKN,4600,BKN,8000,,,,,VFR,,,,,,,,,,,,SPECI,397.0
KANK 180715Z AUTO 31005KT 10SM OVC080 M03/M07 A3013 RMK AO1 T10261071,KANK,2015-04-18T07:15:00Z,38.53,-106.05,-2.6,-7.1,310,5,,10.0,30.129921,,,TRUE,TRUE,,,,,,,OVC,8000,,,,,,,VFR,,,,,,,,,,,,SPECI,2293.0
KALM 180715Z AUTO 05005KT 10SM CLR 09/M10 A3002 RMK AO2,KALM,2015-04-18T07:15:00Z,32.82,-105.97,9.0,-10.0,50,5,,10.0,30.02067,,,TRUE,TRUE,,,,,,,CLR,,,,,,,,VFR,,,,,,,,,,,,SPECI,1279.0
KAKQ 180715Z AUTO 00000KT 3SM BR BKN110 16/15 A2996 RMK AO2 T01610150 TSNO $,KAKQ,2015-04-18T07:15:00Z,36.98,-77.0,16.1,15.0,0,0,,3.0,29.958662,,,TRUE,TRUE,TRUE,,TRUE,,,BR,BKN,11000,,,,,,,MVFR,,,,,,,,,,,,SPECI,34.0
KAJZ 180715Z AUTO 23005KT 10SM BKN002 OVC006 02/02 A3007 RMK AO2 T00170015,KAJZ,2015-04-18T07:15:00Z,38.78,-108.07,1.7,1.5,230,5,,10.0,30.070866,,,TRUE,TRUE,,,,,,,BKN,200,OVC,600,,,,,LIFR,,,,,,,,,,,,SPECI,1583.0
K46D 180715Z AUTO 09006KT 10SM CLR 05/M03 A3014 RMK AO2,K46D,2015-04-18T07:15:00Z,47.45,-99.15,5.0,-3.0,90,6,,10.0,30.138779,,,TRUE,TRUE,,,,,,,CLR,,,,,,,,VFR,,,,,,,,,,,,SPECI,490.0
K42J 180715Z AUTO 14003KT 4SM OVC004 21/21 A2998 RMK AO1 TSNO,K42J,2015-04-18T07:15:00Z,29.85,-82.05,21.0,21.0,140,3,,4.0,29.97933,,,TRUE,TRUE,,,TRUE,,,,OVC,400,,,,,,,LIFR,,,,,,,,,,,,SPECI,60.0
YPAD 180715Z 20017G27KT 4000 -SHRA FEW015 BKN022 15/12 Q1018 FM0715 20018G30KT 9999 -SHRA SCT015 BKN025 FM0900 19012KT 9999 BKN030 INTER 0715/0900 5000 SHRA BKN012,YPAD,2015-04-18T07:15:00Z,-34.95,138.52,15.0,12.0,200,17,27,2.49,30.059055,,,,,,,,,,-SHRA,FEW,1500,BKN,2200,,,,,IFR,,,1.8,,,,,,,,,SPECI,4.0
KFSE 180715Z AUTO 05006KT 10SM CLR 04/M04 A3014 RMK AO2,KFSE,2015-04-18T07:15:00Z,47.58,-95.77,4.0,-4.0,50,6,,10.0,30.138779,,,TRUE,TRUE,,,,,,,CLR,,,,,,,,VFR,,,,,,,,,,,,SPECI,389.0
KFPK 180715Z AUTO 00000KT 10SM CLR 06/05 A3000 RMK AO2 T00640048,KFPK,2015-04-18T07:15:00Z,42.57,-84.82,6.4,4.8,0,0,,10.0,30.0,,,TRUE,TRUE,,,,,,,CLR,,,,,,,,VFR,,,,,,,,,,,,SPECI,272.0
KFOD 180715Z AUTO 08004KT 10SM CLR 13/07 A3002 RMK AO1,KFOD,2015-04-18T07:15:00Z,42.53,-94.17,13.0,7.0,80,4,,10.0,30.02067,,,TRUE,TRUE,,,,,,,CLR,,,,,,,,VFR,,,,,,,,,,,,SPECI,355.0
KFLP 180715Z 00000KT 7SM CLR 16/ A2998 RMK AO1,KFLP,2015-04-18T07:15:00Z,36.28,-92.58,16.0,,0,0,,7.0,29.97933,,,,TRUE,,,,,,,CLR,,,,,,,,VFR,,,,,,,,,,,,SPECI,219.0
KFAM 180715Z AUTO 20003KT 10SM CLR 16/14 A3006 RMK AO1,KFAM,2015-04-18T07:15:00Z,37.77,-90.42,16.0,14.0,200,3,,10.0,30.059055,,,TRUE,TRUE,,,,,,,CLR,,,,,,,,VFR,,,,,,,,,,,,SPECI,288.0
KEWK 180715Z AUTO 12004KT 10SM BKN080 OVC100 16/12 A2995 RMK AO1 LTG DSNT S,KEWK,2015-04-18T07:15:00Z,38.03,-97.27,16.0,12.0,120,4,,10.0,29.949802,,,TRUE,TRUE,,,,,,,BKN,8000,OVC,10000,,,,,VFR,,,,,,,,,,,,SPECI,467.0
KEUL 180715Z AUTO 29013KT 10SM CLR 11/M01 A3006 RMK AO1,KEUL,2015-04-18T07:15:00Z,43.62,-116.62,11.0,-1.0,290,13,,10.0,30.059055,,,TRUE,TRUE,,,,,,,CLR,,,,,,,,VFR,,,,,,,,,,,,SPECI,740.0
KENV 180715Z AUTO 00000KT 10SM CLR 14/M08 A3006 RMK AO1,KENV,2015-04-18T07:15:00Z,40.72,-114.02,14.0,-8.0,0,0,,10.0,30.059055,,,TRUE,TRUE,,,,,,,CLR,,,,,,,,VFR,,,,,,,,,,,,SPECI,1292.0
KEAR 180715Z 09008KT 10SM SCT034 BKN049 BKN100 13/11 A2995 RMK AO1 LTG DSNT ALQDS,KEAR,2015-04-18T07:15:00Z,40.72,-99.0,13.0,11.0,90,8,,10.0,29.949802,,,,TRUE,,,,,,,SCT,3400,BKN,4900,BKN,10000,,,VFR,,,,,,,,,,,,SPECI,649.0
KDYR 180715Z 00000KT 9SM CLR 15/08 A3000 RMK AO1,KDYR,2015-04-18T07:15:00Z,36.0,-89.4,15.0,8.0,0,0,,9.0,30.0,,,,TRUE,,,,,,,CLR,,,,,,,,VFR,,,,,,,,,,,,SPECI,103.0
KDUH 180715Z AUTO 00000KT 7SM CLR 10/06 A3001 RMK AO2,KDUH,2015-04-18T07:15:00Z,41.73,-83.65,10.0,6.0,0,0,,7.0,30.008858,,,TRUE,TRUE,,,,,,,CLR,,,,,,,,VFR,,,,,,,,,,,,SPECI,204.0
KDTL 180715Z AUTO 08006KT 10SM CLR 09/M02 A3012 RMK AO2,KDTL,2015-04-18T07:15:00Z,46.82,-95.87,9.0,-2.0,80,6,,10.0,30.121063,,,TRUE,TRUE,,,,,,,CLR,,,,,,,,VFR,,,,,,,,,,,,SPECI,426.0
KCWI 180715Z AUTO 00000KT 10SM CLR 13/08 A3004 RMK AO1,KCWI,2015-04-18T07:15:00Z,41.82,-90.32,13.0,8.0,0,0,,10.0,30.041338,,,TRUE,TRUE,,,,,,,CLR,,,,,,,,VFR,,,,,,,,,,,,SPECI,216.0
KCVX 180715Z AUTO 00000KT 10SM CLR 04/01 A2998 RMK AO2 T00410010,KCVX,2015-04-18T07:15:00Z,45.3,-85.27,4.1,1.0,0,0,,10.0,29.97933,,,TRUE,TRUE,,,,,,,CLR,,,,,,,,VFR,,,,,,,,,,,,SPECI,204.0
KCVO 180715Z AUTO 31005KT 10SM CLR 09/07 A3027 RMK AO1,KCVO,2015-04-18T07:15:00Z,44.5,-123.27,9.0,7.0,310,5,,10.0,30.268702,,,TRUE,TRUE,,,,,,,CLR,,,,,,,,VFR,,,,,,,,,,,,SPECI,75.0
KCVN 180715Z AUTO 33007KT 10SM CLR 06/M08 A2999 RMK AO1,KCVN,2015-04-18T07:15:00Z,34.42,-103.07,6.0,-8.0,330,7,,10.0,29.991142,,,TRUE,TRUE,,,,,,,CLR,,,,,,,,VFR,,,,,,,,,,,,SPECI,1284.0
KCQM 180715Z AUTO 03006KT 10SM CLR 04/M01 A3018 RMK AO2,KCQM,2015-04-18T07:15:00Z,47.82,-92.68,4.0,-1.0,30,6,,10.0,30.180119,,,TRUE,TRUE,,,,,,,CLR,,,,,,,,VFR,,,,,,,,,,,,SPECI,404.0
KCOE 180715Z AUTO 17008KT 10SM CLR 09/02 A3010 RMK AO1,KCOE,2015-04-18T07:15:00Z,47.77,-116.82,9.0,2.0,170,8,,10.0,30.100393,,,TRUE,TRUE,,,,,,,CLR,,,,,,,,VFR,,,,,,,,,,,,SPECI,707.0
KCKN 180715Z AUTO 09006KT 10SM CLR 05/M02 A3015 RMK AO2,KCKN,2015-04-18T07:15:00Z,47.85,-96.62,5.0,-2.0,90,6,,10.0,30.15059,,,TRUE,TRUE,,,,,,,CLR,,,,,,,,VFR,,,,,,,,,,,,SPECI,273.0
KCBG 180715Z AUTO 00000KT 10SM CLR 12/01 A3006 RMK AO2,KCBG,2015-04-18T07:15:00Z,45.57,-93.27,12.0,1.0,0,0,,10.0,30.059055,,,TRUE,TRUE,,,,,,,CLR,,,,,,,,VFR,,,,,,,,,,,,SPECI,287.0
KCAD 180715Z AUTO 00000KT 10SM CLR 05/03 A2998 RMK AO2 T00480031,KCAD,2015-04-18T07:15:00Z,44.27,-85.42,4.8,3.1,0,0,,10.0,29.97933,,,TRUE,TRUE,,,,,,,CLR,,,,,,,,VFR,,,,,,,,,,,,SPECI,398.0
KBVX 180715Z AUTO 00000KT 10SM CLR 16/15 A3000 RMK AO1,KBVX,2015-04-18T07:15:00Z,35.73,-91.65,16.0,15.0,0,0,,10.0,30.0,,,TRUE,TRUE,,,,,,,CLR,,,,,,,,VFR,,,,,,,,,,,,SPECI,141.0
KBDH 180715Z AUTO 00000KT 10SM CLR 06/M01 A3008 RMK AO2,KBDH,2015-04-18T07:15:00Z,45.12,-95.13,6.0,-1.0,0,0,,10.0,30.079725,,,TRUE,TRUE,,,,,,,CLR,,,,,,,,VFR,,,,,,,,,,,,SPECI,247.0
KAWO 180715Z AUTO 32006KT 10SM CLR 08/05 A3034 RMK AO1,KAWO,2015-04-18T07:15:00Z,48.17,-122.17,8.0,5.0,320,6,,10.0,30.339567,,,TRUE,TRUE,,,,,,,CLR,,,,,,,,VFR,,,,,,,,,,,,SPECI,42.0
KARG 180715Z AUTO 35005KT 5SM CLR 16/14 A2999 RMK AO1,KARG,2015-04-18T07:15:00Z,36.12,-90.92,16.0,14.0,350,5,,5.0,29.991142,,,TRUE,TRUE,,,,,,,CLR,,,,,,,,MVFR,,,,,,,,,,,,SPECI,83.0
KAIZ 180715Z AUTO 15004KT 10SM CLR 18/13 A2999 RMK AO1,KAIZ,2015-04-18T07:15:00Z,38.1,-92.53,18.0,13.0,150,4,,10.0,29.991142,,,TRUE,TRUE,,,,,,,CLR,,,,,,,,VFR,,,,,,,,,,,,SPECI,265.0
KADC 180715Z AUTO 05004KT 10SM CLR 08/M05 A3011 RMK AO2,KADC,2015-04-18T07:15:00Z,46.45,-95.22,8.0,-5.0,50,4,,10.0,30.109253,,,TRUE,TRUE,,,,,,,CLR,,,,,,,,VFR,,,,,,,,,,,,SPECI,418.0
KVLL 180715Z AUTO 28003KT 10SM CLR 13/05 A3000 RMK AO2 T01260050,KVLL,2015-04-18T07:15:00Z,42.55,-83.18,12.6,5.0,280,3,,10.0,30.0,,,TRUE,TRUE,,,,,,,CLR,,,,,,,,VFR,,,,,,,,,,,,SPECI,222.0
KVBT 180715Z AUTO 12004KT 10SM CLR 17/15 A2999 RMK AO1,KVBT,2015-04-18T07:15:00Z,36.35,-94.22,17.0,15.0,120,4,,10.0,29.991142,,,TRUE,TRUE,,,,,,,CLR,,,,,,,,VFR,,,,,,,,,,,,SPECI,395.0
KSMN 180715Z AUTO 18004KT 10SM CLR 07/M04 A3008 RMK AO1,KSMN,2015-04-18T07:15:00Z,45.12,-113.87,7.0,-4.0,180,4,,10.0,30.079725,,,TRUE,TRUE,,,,,,,CLR,,,,,,,,VFR,,,,,,,,,,,,SPECI,1233.0
KSLG 180715Z AUTO 10004KT 10SM CLR 17/13 A2998 RMK AO1,KSLG,2015-04-18T07:15:00Z,36.2,-94.47,17.0,13.0,100,4,,10.0,29.97933,,,TRUE,TRUE,,,,,,,CLR,,,,,,,,VFR,,,,,,,,,,,,SPECI,300.0
KSGU 180715Z AUTO 13005KT 10SM CLR 12/M03 A3003 RMK AO1,KSGU,2015-04-18T07:15:00Z,37.07,-113.52,12.0,-3.0,130,5,,10.0,30.029528,,,TRUE,TRUE,,,,,,,CLR,,,,,,,,VFR,,,,,,,,,,,,SPECI,896.0
KSGT 180715Z AUTO 12004KT 10SM CLR 19/16 A2999 RMK AO1,KSGT,2015-04-18T07:15:00Z,34.6,-91.57,19.0,16.0,120,4,,10.0,29.991142,,,TRUE,TRUE,,,,,,,CLR,,,,,,,,VFR,,,,,,,,,,,,SPECI,68.0
KSEM 180715Z AUTO 02005KT 7SM OVC004 17/16 A2996 RMK AO2,KSEM,2015-04-18T07:15:00Z,32.35,-86.98,17.0,16.0,20,5,,7.0,29.958662,,,TRUE,TRUE,,,,,,,OVC,400,,,,,,,LIFR,,,,,,,,,,,,SPECI,51.0
KPWT 180715Z AUTO 00000KT 10SM SCT050 08/06 A3034 RMK AO1,KPWT,2015-04-18T07:15:00Z,47.5,-122.75,8.0,6.0,0,0,,10.0,30.339567,,,TRUE,TRUE,,,,,,,SCT,5000,,,,,,,VFR,,,,,,,,,,,,SPECI,147.0
KPVU 180715Z AUTO 34006KT 10SM FEW090 09/02 A3004 RMK AO1,KPVU,2015-04-18T07:15:00Z,40.22,-111.72,9.0,2.0,340,6,,10.0,30.041338,,,TRUE,TRUE,,,,,,,FEW,9000,,,,,,,VFR,,,,,,,,,,,,SPECI,1369.0
KOZW 180715Z AUTO 00000KT 10SM CLR 10/04 A3000 RMK AO2 T00970043,KOZW,2015-04-18T07:15:00Z,42.62,-83.97,9.7,4.3,0,0,,10.0,30.0,,,TRUE,TRUE,,,,,,,CLR,,,,,,,,VFR,,,,,,,,,,,,SPECI,293.0
KOWA 180715Z AUTO 00000KT 10SM CLR 06/02 A3005 RMK AO2,KOWA,2015-04-18T07:15:00Z,44.12,-93.25,6.0,2.0,0,0,,10.0,30.050198,,,TRUE,TRUE,,,,,,,CLR,,,,,,,,VFR,,,,,,,,,,,,SPECI,350.0
KOTH 180715Z 36005KT 10SM CLR 11/10 A3028 RMK AO1,KOTH,2015-04-18T07:15:00Z,43.42,-124.25,11.0,10.0,360,5,,10.0,30.280512,,,,TRUE,,,,,,,CLR,,,,,,,,VFR,,,,,,,,,,,,SPECI,4.0
KOLU 180715Z AUTO 07005KT 10SM SCT048 BKN055 OVC100 16/09 A2999 RMK AO1,KOLU,2015-04-18T07:15:00Z,41.45,-97.32,16.0,9.0,70,5,,10.0,29.991142,,,TRUE,TRUE,,,,,,,SCT,4800,BKN,5500,OVC,10000,,,VFR,,,,,,,,,,,,SPECI,440.0
KMRF 180715Z AUTO 20011G17KT 150V210 10SM BKN090 OVC110 14/01 A3008 RMK AO1,KMRF,2015-04-18T07:15:00Z,30.37,-104.02,14.0,1.0,200,11,17,10.0,30.079725,,,TRUE,TRUE,,,,,,,BKN,9000,OVC,11000,,,,,VFR,,,,,,,,,,,,SPECI,1481.0
KMOP 180715Z AUTO 00000KT 10SM CLR 08/05 A2997 RMK AO2 T00800054,KMOP,2015-04-18T07:15:00Z,43.62,-84.73,8.0,5.4,0,0,,10.0,29.970472,,,TRUE,TRUE,,,,,,,CLR,,,,,,,,VFR,,,,,,,,,,,,SPECI,230.0
KMGN 180715Z AUTO 00000KT 10SM CLR 02/00 A2995 RMK AO2 T00251006,KMGN,2015-04-18T07:15:00Z,45.43,-84.92,2.5,-0.6,0,0,,10.0,29.949802,,,TRUE,TRUE,,,,,,,CLR,,,,,,,,VFR,,,,,,,,,,,,SPECI,209.0
KLWA 180715Z AUTO 00000KT 10SM CLR 10/07 A3001 RMK AO2 T00960069,KLWA,2015-04-18T07:15:00Z,42.35,-86.25,9.6,6.9,0,0,,10.0,30.008858,,,TRUE,TRUE,,,,,,,CLR,,,,,,,,VFR,,,,,,,,,,,,SPECI,203.0
KLKV 180715Z 34009KT 10SM CLR 07/M07 A3020 RMK AO1,KLKV,2015-04-18T07:15:00Z,42.17,-120.4,7.0,-7.0,340,9,,10.0,30.200787,,,,TRUE,,,,,,,CLR,,,,,,,,VFR,,,,,,,,,,,,SPECI,1441.0
KLGD 180715Z AUTO 34006KT 10SM CLR 09/M02 A3014 RMK AO1,KLGD,2015-04-18T07:15:00Z,45.27,-118.0,9.0,-2.0,340,6,,10.0,30.138779,,,TRUE,TRUE,,,,,,,CLR,,,,,,,,VFR,,,,,,,,,,,,SPECI,827.0
KLDM 180715Z AUTO 25004KT 7SM CLR 11/05 A3000 RMK AO2 T01050054,KLDM,2015-04-18T07:15:00Z,43.97,-86.4,10.5,5.4,250,4,,7.0,30.0,,,TRUE,TRUE,,,,,,,CLR,,,,,,,,VFR,,,,,,,,,,,,SPECI,197.0
KLBL 180715Z AUTO 21003KT 10SM FEW011 11/08 A2995 RMK AO1,KLBL,2015-04-18T07:15:00Z,37.03,-100.97,11.0,8.0,210,3,,10.0,29.949802,,,TRUE,TRUE,,,,,,,FEW,1100,,,,,,,VFR,,,,,,,,,,,,SPECI,879.0
KKLS 180715Z 00000KT 10SM CLR 10/06 A3034 RMK AO1,KKLS,2015-04-18T07:15:00Z,46.12,-122.9,10.0,6.0,0,0,,10.0,30.339567,,,,TRUE,,,,,,,CLR,,,,,,,,VFR,,,,,,,,,,,,SPECI,5.0
KJYG 180715Z AUTO 00000KT 10SM CLR 08/M01 A3005 RMK AO2,KJYG,2015-04-18T07:15:00Z,43.98,-94.55,8.0,-1.0,0,0,,10.0,30.050198,,,TRUE,TRUE,,,,,,,CLR,,,,,,,,VFR,,,,,,,,,,,,SPECI,325.0
KHYS 180715Z 30015KT 10SM OVC023 12/07 A2996 RMK AO1 LTG DSNT NW,KHYS,2015-04-18T07:15:00Z,38.85,-99.27,12.0,7.0,300,15,,10.0,29.958662,,,,TRUE,,,,,,,OVC,2300,,,,,,,MVFR,,,,,,,,,,,,SPECI,609.0
KHAF 180715Z AUTO 00000KT 4SM BR OVC005 10/09 A3010 RMK AO2,KHAF,2015-04-18T07:15:00Z,37.52,-122.5,10.0,9.0,0,0,,4.0,30.100393,,,TRUE,TRUE,,,,,,BR,OVC,500,,,,,,,IFR,,,,,,,,,,,,SPECI,21.0
KGBD 180715Z AUTO 17007KT 10SM FEW031 OVC090 15/12 A2994 RMK AO1,KGBD,2015-04-18T07:15:00Z,38.35,-98.87,15.0,12.0,170,7,,10.0,29.940945,,,TRUE,TRUE,,,,,,,FEW,3100,OVC,9000,,,,,VFR,,,,,,,,,,,,SPECI,575.0
KPAN 180715Z AUTO 00000KT 10SM CLR 08/M05 A3009 RMK AO2,KPAN,2015-04-18T07:15:00Z,34.25,-111.33,8.0,-5.0,0,0,,10.0,30.088583,,,TRUE,TRUE,,,,,,,CLR,,,,,,,,VFR,,,,,,,,,,,,SPECI,1572.0
KOXC 180715Z 33004KT 10SM CLR 09/05 A2997 RMK AO1,KOXC,2015-04-18T07:15:00Z,41.47,-73.13,9.0,5.0,330,4,,10.0,29.970472,,,,TRUE,,,,,,,CLR,,,,,,,,VFR,,,,,,,,,,,,SPECI,222.0
KOTG 180715Z AUTO 00000KT 10SM SCT100 10/M06 A3006 RMK AO1,KOTG,2015-04-18T07:15:00Z,43.63,-95.57,10.0,-6.0,0,0,,10.0,30.059055,,,TRUE,TRUE,,,,,,,SCT,10000,,,,,,,VFR,,,,,,,,,,,,SPECI,480.0
KOKK 180715Z AUTO 00000KT 10SM CLR 11/08 A3005 RMK AO1,KOKK,2015-04-18T07:15:00Z,40.53,-86.07,11.0,8.0,0,0,,10.0,30.050198,,,TRUE,TRUE,,,,,,,CLR,,,,,,,,VFR,,,,,,,,,,,,SPECI,253.0
KOCH 180715Z AUTO 03003KT 3SM SCT030 BKN043 OVC090 20/19 A2992 RMK AO1,KOCH,2015-04-18T07:15:00Z,31.57,-94.72,20.0,19.0,30,3,,3.0,29.920275,,,TRUE,TRUE,,,,,,,SCT,3000,BKN,4300,OVC,9000,,,MVFR,,,,,,,,,,,,SPECI,108.0
KOCF 180715Z AUTO 00000KT 8SM CLR 21/19 A2997 RMK AO1,KOCF,2015-04-18T07:15:00Z,29.17,-82.22,21.0,19.0,0,0,,8.0,29.970472,,,TRUE,TRUE,,,,,,,CLR,,,,,,,,VFR,,,,,,,,,,,,SPECI,27.0
KOAJ 180715Z AUTO 00000KT 7SM BKN044 17/14 A2999 RMK AO1,KOAJ,2015-04-18T07:15:00Z,34.82,-77.62,17.0,14.0,0,0,,7.0,29.991142,,,TRUE,TRUE,,,,,,,BKN,4400,,,,,,,VFR,,,,,,,,,,,,SPECI,29.0
KMYR 180715Z AUTO 00000KT 10SM OVC090 20/18 A2999 RMK AO1,KMYR,2015-04-18T07:15:00Z,33.67,-78.92,20.0,18.0,0,0,,10.0,29.991142,,,TRUE,TRUE,,,,,,,OVC,9000,,,,,,,VFR,,,,,,,,,,,,SPECI,8.0
KMVN 180715Z AUTO 00000KT 1 1/4SM CLR 11/08 A3001 RMK AO1,KMVN,2015-04-18T07:15:00Z,38.32,-88.87,11.0,8.0,0,0,,1.25,30.008858,,,TRUE,TRUE,,,,,,,CLR,,,,,,,,IFR,,,,,,,,,,,,SPECI,146.0
KMSV 180715Z AUTO 28003KT 7SM CLR 07/07 A3000 RMK AO1,KMSV,2015-04-18T07:15:00Z,41.7,-74.78,7.0,7.0,280,3,,7.0,30.0,,,TRUE,TRUE,,,,,,,CLR,,,,,,,,VFR,,,,,,,,,,,,SPECI,428.0
KMRC 180715Z AUTO 26003KT M1/4SM OVC001 14/00 A3000 RMK,KMRC,2015-04-18T07:15:00Z,35.55,-87.18,14.0,0.0,260,3,,0.25,30.0,,,TRUE,,,,,,,,OVC,100,,,,,,,LIFR,,,,,,,,,,,,METAR,208.0
KMNM 180715Z AUTO 32003KT 10SM CLR 03/01 A2999 RMK AO1,KMNM,2015-04-18T07:15:00Z,45.12,-87.62,3.0,1.0,320,3,,10.0,29.991142,,,TRUE,TRUE,,,,,,,CLR,,,,,,,,VFR,,,,,,,,,,,,SPECI,191.0
KMML 180715Z AUTO 29004KT 10SM CLR 07/M07 A3005 RMK AO1,KMML,2015-04-18T07:15:00Z,44.45,-95.82,7.0,-7.0,290,4,,10.0,30.050198,,,TRUE,TRUE,,,,,,,CLR,,,,,,,,VFR,,,,,,,,,,,,SPECI,359.0
KMKY 180715Z AUTO 00000KT 10SM CLR 22/20 A2997 RMK AO1,KMKY,2015-04-18T07:15:00Z,26.0,-81.67,22.0,20.0,0,0,,10.0,29.970472,,,TRUE,TRUE,,,,,,,CLR,,,,,,,,VFR,,,,,,,,,,,,SPECI,2.0
KMKT 180715Z AUTO 02005KT 10SM CLR 14/M02 A3004 RMK AO1,KMKT,2015-04-18T07:15:00Z,44.22,-93.92,14.0,-2.0,20,5,,10.0,30.041338,,,TRUE,TRUE,,,,,,,CLR,,,,,,,,VFR,,,,,,,,,,,,SPECI,311.0
KMKS 180715Z AUTO 00000KT 4SM -RA SCT003 BKN030 OVC038 20/19 A2999 RMK AO2 P0003,KMKS,2015-04-18T07:15:00Z,33.18,-80.03,20.0,19.0,0,0,,4.0,29.991142,,,TRUE,TRUE,,,,,,-RA,SCT,300,BKN,3000,OVC,3800,,,MVFR,,,,,,0.03,,,,,,SPECI,23.0
KMJX 180715Z AUTO 00000KT 10SM CLR 09/08 A2998 RMK AO1,KMJX,2015-04-18T07:15:00Z,39.93,-74.3,9.0,8.0,0,0,,10.0,29.97933,,,TRUE,TRUE,,,,,,,CLR,,,,,,,,VFR,,,,,,,,,,,,SPECI,25.0
KMBL 180715Z AUTO 00000KT 10SM CLR 05/02 A3001 RMK AO1,KMBL,2015-04-18T07:15:00Z,44.27,-86.25,5.0,2.0,0,0,,10.0,30.008858,,,TRUE,TRUE,,,,,,,CLR,,,,,,,,VFR,,,,,,,,,,,,SPECI,189.0
KM91 180715Z AUTO 00000KT 2SM CLR 13/13 A3002 RMK,KM91,2015-04-18T07:15:00Z,36.53,-86.92,13.0,13.0,0,0,,2.0,30.02067,,,TRUE,,,,,,,,CLR,,,,,,,,IFR,,,,,,,,,,,,METAR,215.0
KLXL 180715Z AUTO 00000KT 10SM CLR 08/M02 A3009 RMK AO2,KLXL,2015-04-18T07:15:00Z,45.95,-94.33,8.0,-2.0,0,0,,10.0,30.088583,,,TRUE,TRUE,,,,,,,CLR,,,,,,,,VFR,,,,,,,,,,,,SPECI,342.0
KLUX 180715Z AUTO 00000KT 5SM DZ SCT034 BKN060 OVC075 16/16 A2999 RMK AO2 P0001,KLUX,2015-04-18T07:15:00Z,34.5,-81.95,16.0,16.0,0,0,,5.0,29.991142,,,TRUE,TRUE,,,,,,DZ,SCT,3400,BKN,6000,OVC,7500,,,MVFR,,,,,,0.01,,,,,,SPECI,213.0
KLQK 180715Z AUTO 00000KT 1/2SM RA BKN001 OVC005 16/16 A3000 RMK AO2 T01570157,KLQK,2015-04-18T07:15:00Z,34.82,-82.7,15.7,15.7,0,0,,0.5,30.0,,,TRUE,TRUE,,,,,,RA,BKN,100,OVC,500,,,,,LIFR,,,,,,,,,,,,SPECI,309.0
KLPC 180715Z AUTO 00000KT 10SM FEW007 08/04 A3008 RMK AO1,KLPC,2015-04-18T07:15:00Z,34.67,-120.47,8.0,4.0,0,0,,10.0,30.079725,,,TRUE,TRUE,,,,,,,FEW,700,,,,,,,VFR,,,,,,,,,,,,SPECI,27.0
KLMO 180715Z AUTO 00000KT 10SM BKN039 OVC110 06/02 A3003 RMK AO2 T00600021,KLMO,2015-04-18T07:15:00Z,40.17,-105.17,6.0,2.1,0,0,,10.0,30.029528,,,TRUE,TRUE,,,,,,,BKN,3900,OVC,11000,,,,,VFR,,,,,,,,,,,,SPECI,1541.0
KSRB 180715Z AUTO 00000KT 8SM CLR 12/12 A3002 RMK,KSRB,2015-04-18T07:15:00Z,36.05,-85.53,12.0,12.0,0,0,,8.0,30.02067,,,TRUE,,,,,,,,CLR,,,,,,,,VFR,,,,,,,,,,,,METAR,313.0
KSQI 180715Z AUTO 00000KT 10SM CLR 11/08 A3001 RMK AO1,KSQI,2015-04-18T07:15:00Z,41.75,-89.67,11.0,8.0,0,0,,10.0,30.008858,,,TRUE,TRUE,,,,,,,CLR,,,,,,,,VFR,,,,,,,,,,,,SPECI,197.0
KSPA 180715Z AUTO 33003KT 1/4SM FG OVC001 17/17 A3000 RMK AO2,KSPA,2015-04-18T07:15:00Z,34.92,-81.93,17.0,17.0,330,3,,0.25,30.0,,,TRUE,TRUE,,,,,,FG,OVC,100,,,,,,,LIFR,,,,,,,,,,,,SPECI,303.0
KSOW 180715Z AUTO 20005KT 10SM CLR 04/M08 A3010 RMK AO2,KSOW,2015-04-18T07:15:00Z,34.27,-110.0,4.0,-8.0,200,5,,10.0,30.100393,,,TRUE,TRUE,,,,,,,CLR,,,,,,,,VFR,,,,,,,,,,,,SPECI,1954.0
KSOP 180715Z AUTO 00000KT 10SM CLR 18/16 A2998 RMK AO1,KSOP,2015-04-18T07:15:00Z,35.22,-79.4,18.0,16.0,0,0,,10.0,29.97933,,,TRUE,TRUE,,,,,,,CLR,,,,,,,,VFR,,,,,,,,,,,,SPECI,141.0
KSNH 180715Z AUTO 00000KT 4SM CLR 14/00 A2999 RMK,KSNH,2015-04-18T07:15:00Z,35.17,-88.22,14.0,0.0,0,0,,4.0,29.991142,,,TRUE,,,,,,,,CLR,,,,,,,,MVFR,,,,,,,,,,,,METAR,144.0
KSMS 180715Z AUTO 00000KT 2SM BR FEW045 OVC070 19/19 A2997 RMK AO2,KSMS,2015-04-18T07:15:00Z,34.0,-80.37,19.0,19.0,0,0,,2.0,29.970472,,,TRUE,TRUE,,,,,,BR,FEW,4500,OVC,7000,,,,,IFR,,,,,,,,,,,,SPECI,56.0
KSFZ 180715Z 30006KT 10SM CLR 11/05 A2991 RMK AO1,KSFZ,2015-04-18T07:15:00Z,41.92,-71.5,11.0,5.0,300,6,,10.0,29.911417,,,,TRUE,,,,,,,CLR,,,,,,,,VFR,,,,,,,,,,,,SPECI,134.0
KSFM 180715Z AUTO 00000KT 10SM CLR 05/02 A2989 RMK AO1,KSFM,2015-04-18T07:15:00Z,43.38,-70.72,5.0,2.0,0,0,,10.0,29.890747,,,TRUE,TRUE,,,,,,,CLR,,,,,,,,VFR,,,,,,,,,,,,SPECI,74.0
KSDY 180715Z AUTO 00000KT 10SM CLR 05/M03 A3004 RMK AO1,KSDY,2015-04-18T07:15:00Z,47.7,-104.2,5.0,-3.0,0,0,,10.0,30.041338,,,TRUE,TRUE,,,,,,,CLR,,,,,,,,VFR,,,,,,,,,,,,SPECI,605.0
KSBS 180715Z AUTO 11003KT 10SM BKN120 00/M04 A3002 RMK AO1 T00001045,KSBS,2015-04-18T07:15:00Z,40.52,-106.87,0.0,-4.5,110,3,,10.0,30.02067,,,TRUE,TRUE,,,,,,,BKN,12000,,,,,,,VFR,,,,,,,,,,,,SPECI,2096.0
KRZT 180715Z AUTO 00000KT 10SM CLR 08/07 A3003 RMK AO2,KRZT,2015-04-18T07:15:00Z,39.43,-83.02,8.0,7.0,0,0,,10.0,30.029528,,,TRUE,TRUE,,,,,,,CLR,,,,,,,,VFR,,,,,,,,,,,,SPECI,221.0
KRUT 180715Z AUTO 13009KT 10SM CLR 05/03 A2993 RMK AO1,KRUT,2015-04-18T07:15:00Z,43.52,-72.95,5.0,3.0,130,9,,10.0,29.929134,,,TRUE,TRUE,,,,,,,CLR,,,,,,,,VFR,,,,,,,,,,,,SPECI,240.0
KRUG 180715Z AUTO 10010KT 10SM CLR 03/M02 A3013 RMK AO2,KRUG,2015-04-18T07:15:00Z,48.38,-100.02,3.0,-2.0,100,10,,10.0,30.129921,,,TRUE,TRUE,,,,,,,CLR,,,,,,,,VFR,,,,,,,,,,,,SPECI,472.0
KRKD 180715Z AUTO 00000KT 10SM CLR 10/03 A2987 RMK AO1,KRKD,2015-04-18T07:15:00Z,44.07,-69.08,10.0,3.0,0,0,,10.0,29.870079,,,TRUE,TRUE,,,,,,,CLR,,,,,,,,VFR,,,,,,,,,,,,SPECI,17.0
KRCV 180715Z AUTO 26006KT 10SM CLR M04/M06 A3003 RMK AO2 T10371058,KRCV,2015-04-18T07:15:00Z,37.72,-106.35,-3.7,-5.8,260,6,,10.0,30.029528,,,TRUE,TRUE,,,,,,,CLR,,,,,,,,VFR,,,,,,,,,,,,SPECI,2424.0
KRBW 180715Z AUTO 00000KT 7SM RA SCT009 BKN015 OVC039 18/18 A2999 RMK AO2,KRBW,2015-04-18T07:15:00Z,32.92,-80.63,18.0,18.0,0,0,,7.0,29.991142,,,TRUE,TRUE,,,,,,RA,SCT,900,BKN,1500,OVC,3900,,,MVFR,,,,,,,,,,,,SPECI,31.0
KPWG 180715Z AUTO 00000KT 10SM OVC110 18/15 A2993 RMK AO1,KPWG,2015-04-18T07:15:00Z,31.47,-97.32,18.0,15.0,0,0,,10.0,29.929134,,,TRUE,TRUE,,,,,,,OVC,11000,,,,,,,VFR,,,,,,,,,,,,SPECI,180.0
KPVG 180715Z AUTO 00000KT 4SM CLR 14/13 A2997 RMK AO1,KPVG,2015-04-18T07:15:00Z,36.78,-76.45,14.0,13.0,0,0,,4.0,29.970472,,,TRUE,TRUE,,,,,,,CLR,,,,,,,,MVFR,,,,,,,,,,,,SPECI,7.0
KPVE 180715Z AUTO 00000KT M1/4SM OVC001 13/12 A2999 RMK,KPVE,2015-04-18T07:15:00Z,35.65,-88.2,13.0,12.0,0,0,,0.25,29.991142,,,TRUE,,,,,,,,OVC,100,,,,,,,LIFR,,,,,,,,,,,,METAR,149.0
KPVC 180715Z 27008KT 10SM CLR 09/07 A2990 RMK AO1,KPVC,2015-04-18T07:15:00Z,42.07,-70.22,9.0,7.0,270,8,,10.0,29.899607,,,,TRUE,,,,,,,CLR,,,,,,,,VFR,,,,,,,,,,,,SPECI,2.0
KPTV 180715Z AUTO 16008KT 10SM CLR 14/01 A3003 RMK AO1,KPTV,2015-04-18T07:15:00Z,36.02,-119.07,14.0,1.0,160,8,,10.0,30.029528,,,TRUE,TRUE,,,,,,,CLR,,,,,,,,VFR,,,,,,,,,,,,SPECI,135.0
KPTN 180715Z AUTO 01005KT 10SM VCTS FEW036 BKN100 21/20 A2990 RMK AO1 LTG DSNT ALQDS,KPTN,2015-04-18T07:15:00Z,29.72,-91.32,21.0,20.0,10,5,,10.0,29.899607,,,TRUE,TRUE,,,,,,VCTS,FEW,3600,BKN,10000,,,,,VFR,,,,,,,,,,,,SPECI,3.0
KPSO 180715Z AUTO 03003KT 10SM BKN100 M03/M07 A3003 RMK AO2 T10301075,KPSO,2015-04-18T07:15:00Z,37.28,-107.05,-3.0,-7.5,30,3,,10.0,30.029528,,,TRUE,TRUE,,,,,,,BKN,10000,,,,,,,VFR,,,,,,,,,,,,SPECI,2334.0
KPRX 180715Z 10SM CLR 18/14 A2997 RMK AO1 LTG DSNT NW,KPRX,2015-04-18T07:15:00Z,33.62,-95.45,18.0,14.0,,,,10.0,29.970472,,,,TRUE,,,,,,,CLR,,,,,,,,VFR,,,,,,,,,,,,SPECI,167.0
KPQI 180715Z AUTO 32007KT 10SM CLR 02/M05 A2989 RMK AO1,KPQI,2015-04-18T07:15:00Z,46.67,-68.03,2.0,-5.0,320,7,,10.0,29.890747,,,TRUE,TRUE,,,,,,,CLR,,,,,,,,VFR,,,,,,,,,,,,SPECI,146.0
KPOV 180715Z AUTO 00000KT 7SM CLR 07/ A3002 RMK AO2 T0070,KPOV,2015-04-18T07:15:00Z,41.22,-81.25,7.0,,0,0,,7.0,30.02067,,,TRUE,TRUE,,,,,,,CLR,,,,,,,,VFR,,,,,,,,,,,,SPECI,365.0
KPIB 180715Z AUTO 05005KT 7SM OVC006 18/16 A2995 RMK AO1,KPIB,2015-04-18T07:15:00Z,31.47,-89.32,18.0,16.0,50,5,,7.0,29.949802,,,TRUE,TRUE,,,,,,,OVC,600,,,,,,,IFR,,,,,,,,,,,,SPECI,91.0
KPHT 180715Z AUTO 09003KT 4SM CLR 11/11 A3001 RMK,KPHT,2015-04-18T07:15:00Z,36.33,-88.38,11.0,11.0,90,3,,4.0,30.008858,,,TRUE,,,,,,,,CLR,,,,,,,,MVFR,,,,,,,,,,,,METAR,177.0
KYKN 180715Z AUTO 05006KT 10SM BKN110 13/07 A3001 RMK AO1,KYKN,2015-04-18T07:15:00Z,42.92,-97.37,13.0,7.0,50,6,,10.0,30.008858,,,TRUE,TRUE,,,,,,,BKN,11000,,,,,,,VFR,,,,,,,,,,,,SPECI,398.0
KWVL 180715Z 36008KT 10SM CLR 08/M03 A2987 RMK AO1,KWVL,2015-04-18T07:15:00Z,44.52,-69.67,8.0,-3.0,360,8,,10.0,29.870079,,,,TRUE,,,,,,,CLR,,,,,,,,VFR,,,,,,,,,,,,SPECI,101.0
KVTP 180715Z AUTO 10SM CLR M07/M11 A3001 RMK AO2,KVTP,2015-04-18T07:15:00Z,37.5,-105.17,-7.0,-11.0,,,,10.0,30.008858,,,TRUE,TRUE,,,,,,,CLR,,,,,,,,VFR,,,,,,,,,,,,SPECI,3114.0
KVIS 180715Z AUTO 00000KT 10SM CLR 15/04 A3002 RMK AO1,KVIS,2015-04-18T07:15:00Z,36.32,-119.4,15.0,4.0,0,0,,10.0,30.02067,,,TRUE,TRUE,,,,,,,CLR,,,,,,,,VFR,,,,,,,,,,,,SPECI,89.0
KUYF 180715Z AUTO 25004KT 10SM CLR 08/05 A3004 RMK AO2,KUYF,2015-04-18T07:15:00Z,39.93,-83.47,8.0,5.0,250,4,,10.0,30.041338,,,TRUE,TRUE,,,,,,,CLR,,,,,,,,VFR,,,,,,,,,,,,SPECI,330.0
KUTA 180715Z AUTO 00000KT 7SM CLR 16/16 A3000 RMK AO2,KUTA,2015-04-18T07:15:00Z,34.68,-90.35,16.0,16.0,0,0,,7.0,30.0,,,TRUE,TRUE,,,,,,,CLR,,,,,,,,VFR,,,,,,,,,,,,SPECI,59.0
KUDG 180715Z AUTO 36004KT 8SM SCT110 18/16 A2999 RMK AO1,KUDG,2015-04-18T07:15:00Z,34.45,-79.88,18.0,16.0,360,4,,8.0,29.991142,,,TRUE,TRUE,,,,,,,SCT,11000,,,,,,,VFR,,,,,,,,,,,,SPECI,59.0
KUCY 180715Z AUTO 00000KT 1/2SM VV005 14/00 A2999 RMK,KUCY,2015-04-18T07:15:00Z,36.38,-88.98,14.0,0.0,0,0,,0.5,29.991142,,,TRUE,,,,,,,,OVX,0,,,,,,,LIFR,,,,,,,,,,,500,METAR,104.0
KTVF 180715Z AUTO 06011KT 10SM CLR 05/M02 A3015 RMK AO1,KTVF,2015-04-18T07:15:00Z,48.07,-96.17,5.0,-2.0,60,11,,10.0,30.15059,,,TRUE,TRUE,,,,,,,CLR,,,,,,,,VFR,,,,,,,,,,,,SPECI,340.0
KTSP 180715Z AUTO 32004KT 10SM CLR 09/M06 A3014 RMK AO2,KTSP,2015-04-18T07:15:00Z,35.13,-118.43,9.0,-6.0,320,4,,10.0,30.138779,,,TRUE,TRUE,,,,,,,CLR,,,,,,,,VFR,,,,,,,,,,,,SPECI,1220.0
KTPL 180715Z AUTO 36003KT 10SM FEW026 FEW100 17/14 A2991 RMK AO1,KTPL,2015-04-18T07:15:00Z,31.13,-97.4,17.0,14.0,360,3,,10.0,29.911417,,,TRUE,TRUE,,,,,,,FEW,2600,FEW,10000,,,,,VFR,,,,,,,,,,,,SPECI,208.0
KTHA 180715Z AUTO 00000KT 10SM OVC031 15/14 A3003 RMK,KTHA,2015-04-18T07:15:00Z,35.38,-86.25,15.0,14.0,0,0,,10.0,30.029528,,,TRUE,,,,,,,,OVC,3100,,,,,,,VFR,,,,,,,,,,,,METAR,331.0
KTEX 180715Z AUTO 00000KT 10SM SCT012 BKN045 OVC050 M04/M05 A3004 RMK AO2 T10381048,KTEX,2015-04-18T07:15:00Z,37.95,-107.9,-3.8,-4.8,0,0,,10.0,30.041338,,,TRUE,TRUE,,,,,,,SCT,1200,BKN,4500,OVC,5000,,,VFR,,,,,,,,,,,,SPECI,2769.0
KSYI 180715Z AUTO 00000KT 4SM SCT028 OVC037 14/14 A3003 RMK,KSYI,2015-04-18T07:15:00Z,35.57,-86.45,14.0,14.0,0,0,,4.0,30.029528,,,TRUE,,,,,,,,SCT,2800,OVC,3700,,,,,MVFR,,,,,,,,,,,,METAR,245.0
KSVC 180715Z AUTO 36010KT 10SM 02/M14 A3009 RMK AO2,KSVC,2015-04-18T07:15:00Z,32.63,-108.15,2.0,-14.0,360,10,,10.0,30.088583,,,TRUE,TRUE,,,,,,,,,,,,,,,,,,,,,,,,,,,SPECI,1659.0
KSUE 180715Z AUTO 00000KT 10SM CLR 07/02 A3001 RMK AO1,KSUE,2015-04-18T07:15:00Z,44.85,-87.42,7.0,2.0,0,0,,10.0,30.008858,,,TRUE,TRUE,,,,,,,CLR,,,,,,,,VFR,,,,,,,,,,,,SPECI,221.0
KSUA 180715Z AUTO 24003KT 10SM CLR 22/20 A2998 RMK AO2,KSUA,2015-04-18T07:15:00Z,27.18,-80.22,22.0,20.0,240,3,,10.0,29.97933,,,TRUE,TRUE,,,,,,,CLR,,,,,,,,VFR,,,,,,,,,,,,SPECI,6.0
KBID 180715Z AUTO 31006KT 10SM CLR 11/08 A2993 RMK AO1,KBID,2015-04-18T07:15:00Z,41.17,-71.58,11.0,8.0,310,6,,10.0,29.929134,,,TRUE,TRUE,,,,,,,CLR,,,,,,,,VFR,,,,,,,,,,,,SPECI,33.0
KBHB 180715Z 00000KT 10SM CLR 08/05 A2987 RMK AO1,KBHB,2015-04-18T07:15:00Z,44.45,-68.37,8.0,5.0,0,0,,10.0,29.870079,,,,TRUE,,,,,,,CLR,,,,,,,,VFR,,,,,,,,,,,,SPECI,26.0
KBGF 180715Z AUTO 00000KT 10SM CLR 12/12 A3003 RMK,KBGF,2015-04-18T07:15:00Z,35.18,-86.07,12.0,12.0,0,0,,10.0,30.029528,,,TRUE,,,,,,,,CLR,,,,,,,,VFR,,,,,,,,,,,,METAR,299.0
KBDN 180715Z AUTO 00000KT 10SM CLR 05/00 A3022 RMK AO2,KBDN,2015-04-18T07:15:00Z,44.1,-121.2,5.0,0.0,0,0,,10.0,30.221457,,,TRUE,TRUE,,,,,,,CLR,,,,,,,,VFR,,,,,,,,,,,,SPECI,1055.0
KBAC 180715Z AUTO 06008KT 10SM FEW039 SCT045 07/M03 A3013 RMK AO2,KBAC,2015-04-18T07:15:00Z,46.93,-98.02,7.0,-3.0,60,8,,10.0,30.129921,,,TRUE,TRUE,,,,,,,FEW,3900,SCT,4500,,,,,VFR,,,,,,,,,,,,SPECI,684.0
KAUO 180715Z AUTO 00000KT 1 1/2SM OVC003 16/14 A2998 RMK AO1,KAUO,2015-04-18T07:15:00Z,32.62,-85.42,16.0,14.0,0,0,,1.5,29.97933,,,TRUE,TRUE,,,,,,,OVC,300,,,,,,,LIFR,,,,,,,,,,,,SPECI,236.0
KATS 180715Z AUTO 29008KT 10SM CLR 08/M03 A2998 RMK AO2,KATS,2015-04-18T07:15:00Z,32.85,-104.47,8.0,-3.0,290,8,,10.0,29.97933,,,TRUE,TRUE,,,,,,,CLR,,,,,,,,VFR,,,,,,,,,,,,SPECI,1081.0
KAQX 180715Z AUTO 00000KT 3SM BR FEW003 BKN021 OVC095 19/19 A2996 RMK AO2,KAQX,2015-04-18T07:15:00Z,32.98,-81.27,19.0,19.0,0,0,,3.0,29.958662,,,TRUE,TRUE,,,,,,BR,FEW,300,BKN,2100,OVC,9500,,,MVFR,,,,,,,,,,,,SPECI,49.0
KAQP 180715Z AUTO 06004KT 10SM CLR 05/M02 A3007 RMK AO2,KAQP,2015-04-18T07:15:00Z,45.22,-96.0,5.0,-2.0,60,4,,10.0,30.070866,,,TRUE,TRUE,,,,,,,CLR,,,,,,,,VFR,,,,,,,,,,,,SPECI,311.0
KAFJ 180715Z AUTO 00000KT 4SM CLR 07/06 A3004 RMK AO1,KAFJ,2015-04-18T07:15:00Z,40.12,-80.27,7.0,6.0,0,0,,4.0,30.041338,,,TRUE,TRUE,,,,,,,CLR,,,,,,,,MVFR,,,,,,,,,,,,SPECI,361.0
KAEJ 180715Z AUTO 30011KT 10SM BKN070 M04/M09 A3005 RMK AO2 T10401090,KAEJ,2015-04-18T07:15:00Z,38.82,-106.12,-4.0,-9.0,300,11,,10.0,30.050198,,,TRUE,TRUE,,,,,,,BKN,7000,,,,,,,VFR,,,,,,,,,,,,SPECI,2422.0
KAEG 180715Z AUTO 34003KT 10SM CLR 01/M03 A3005 RMK AO2 T00131029,KAEG,2015-04-18T07:15:00Z,35.13,-106.8,1.3,-2.9,340,3,,10.0,30.050198,,,TRUE,TRUE,,,,,,,CLR,,,,,,,,VFR,,,,,,,,,,,,SPECI,1779.0
K9D7 180715Z AUTO 09007KT 10SM CLR 03/M03 A3015 RMK AO2,K9D7,2015-04-18T07:15:00Z,48.48,-99.23,3.0,-3.0,90,7,,10.0,30.15059,,,TRUE,TRUE,,,,,,,CLR,,,,,,,,VFR,,,,,,,,,,,,SPECI,452.0
K96D 180715Z AUTO 22004KT 10SM CLR 00/00 A3019 RMK AO2,K96D,2015-04-18T07:15:00Z,48.93,-97.9,0.0,0.0,220,4,,10.0,30.188976,,,TRUE,TRUE,,,,,,,CLR,,,,,,,,VFR,,,,,,,,,,,,SPECI,290.0
K7N0 180715Z AUTO 00000KT A2991 RMK AO1,K7N0,2015-04-18T07:15:00Z,29.95,-90.07,,,0,0,,,29.911417,,,TRUE,TRUE,,,,,,,,,,,,,,,,,,,,,,,,,,,SPECI,0.0
K7BM 180715Z AUTO 27006KT 10SM BKN050 M03/M10 A3003 RMK AO2,K7BM,2015-04-18T07:15:00Z,38.78,-106.22,-3.0,-10.0,270,6,,10.0,30.029528,,,TRUE,TRUE,,,,,,,BKN,5000,,,,,,,VFR,,,,,,,,,,,,SPECI,2995.0
K6L4 180715Z AUTO 00000KT 10SM CLR 16/13 A2999 RMK AO2,K6L4,2015-04-18T07:15:00Z,37.85,-81.92,16.0,13.0,0,0,,10.0,29.991142,,,TRUE,TRUE,,,,,,,CLR,,,,,,,,VFR,,,,,,,,,,,,SPECI,508.0
K4I7 180715Z AUTO 00000KT 10SM CLR 12/06 A3005 RMK AO2,K4I7,2015-04-18T07:15:00Z,39.63,-86.82,12.0,6.0,0,0,,10.0,30.050198,,,TRUE,TRUE,,,,,,,CLR,,,,,,,,VFR,,,,,,,,,,,,SPECI,257.0
K2C8 180715Z AUTO 36004KT 10SM CLR 01/M03 A3018 RMK AO2,K2C8,2015-04-18T07:15:00Z,48.78,-97.63,1.0,-3.0,360,4,,10.0,30.180119,,,TRUE,TRUE,,,,,,,CLR,,,,,,,,VFR,,,,,,,,,,,,SPECI,272.0
K20V 180715Z AUTO 00000KT 10SM CLR M01/M05 A3004 RMK AO2,K20V,2015-04-18T07:15:00Z,40.05,-106.37,-1.0,-5.0,0,0,,10.0,30.041338,,,TRUE,TRUE,,,,,,,CLR,,,,,,,,VFR,,,,,,,,,,,,SPECI,2259.0
K1V6 180715Z AUTO 28007KT 10SM CLR 02/00 A2999 RMK AO2,K1V6,2015-04-18T07:15:00Z,38.43,-105.1,2.0,0.0,280,7,,10.0,29.991142,,,TRUE,TRUE,,,,,,,CLR,,,,,,,,VFR,,,,,,,,,,,,SPECI,1658.0
K1R7 180715Z AUTO 00000KT OVC001 19/19 A2995 RMK AO2 LTG DSNT S AND SW,K1R7,2015-04-18T07:15:00Z,31.6,-90.42,19.0,19.0,0,0,,,29.949802,,,TRUE,TRUE,,,,,,,OVC,100,,,,,,,,,,,,,,,,,,,SPECI,149.0
K14Y 180715Z AUTO 35005KT 10SM CLR 08/M02 A3010 RMK AO2,K14Y,2015-04-18T07:15:00Z,45.9,-94.87,8.0,-2.0,350,5,,10.0,30.100393,,,TRUE,TRUE,,,,,,,CLR,,,,,,,,VFR,,,,,,,,,,,,SPECI,406.0
K0A9 180715Z AUTO 00000KT 10SM CLR 12/11 A3004 RMK,K0A9,2015-04-18T07:15:00Z,36.37,-82.17,12.0,11.0,0,0,,10.0,30.041338,,,TRUE,,,,,,,,CLR,,,,,,,,VFR,,,,,,,,,,,,METAR,486.0
K08D 180715Z AUTO 12003KT 10SM CLR 05/M02 A3010 RMK AO2,K08D,2015-04-18T07:15:00Z,48.3,-102.4,5.0,-2.0,120,3,,10.0,30.100393,,,TRUE,TRUE,,,,,,,CLR,,,,,,,,VFR,,,,,,,,,,,,SPECI,684.0
K06D 180715Z AUTO 00000KT 10SM CLR 02/M03 A3017 RMK AO2,K06D,2015-04-18T07:15:00Z,48.88,-99.62,2.0,-3.0,0,0,,10.0,30.171259,,,TRUE,TRUE,,,,,,,CLR,,,,,,,,VFR,,,,,,,,,,,,SPECI,556.0
KLEW 180715Z AUTO 36003KT 10SM CLR 04/01 A2989 RMK AO1,KLEW,2015-04-18T07:15:00Z,44.03,-70.27,4.0,1.0,360,3,,10.0,29.890747,,,TRUE,TRUE,,,,,,,CLR,,,,,,,,VFR,,,,,,,,,,,,SPECI,88.0
KLCI 180715Z AUTO 25005KT 10SM CLR 06/02 A2989 RMK AO1,KLCI,2015-04-18T07:15:00Z,43.57,-71.42,6.0,2.0,250,5,,10.0,29.890747,,,TRUE,TRUE,,,,,,,CLR,,,,,,,,VFR,,,,,,,,,,,,SPECI,166.0
KJVW 180715Z AUTO 11003KT 9SM OVC010 20/17 A2994 RMK AO2,KJVW,2015-04-18T07:15:00Z,32.3,-90.42,20.0,17.0,110,3,,9.0,29.940945,,,TRUE,TRUE,,,,,,,OVC,1000,,,,,,,MVFR,,,,,,,,,,,,SPECI,76.0
KJHW 180715Z 17005KT 10SM CLR 08/06 A3001 RMK AO1,KJHW,2015-04-18T07:15:00Z,42.13,-79.27,8.0,6.0,170,5,,10.0,30.008858,,,,TRUE,,,,,,,CLR,,,,,,,,VFR,,,,,,,,,,,,SPECI,525.0
KJHN 180715Z AUTO 28007KT 10SM CLR 05/02 A2993 RMK AO2 T00510020,KJHN,2015-04-18T07:15:00Z,37.58,-101.73,5.1,2.0,280,7,,10.0,29.929134,,,TRUE,TRUE,,,,,,,CLR,,,,,,,,VFR,,,,,,,,,,,,METAR,1013.0
KJAC 180715Z 01011KT 10SM CLR 02/M04 A3009 RMK AO1,KJAC,2015-04-18T07:15:00Z,43.62,-110.73,2.0,-4.0,10,11,,10.0,30.088583,,,,TRUE,,,,,,,CLR,,,,,,,,VFR,,,,,,,,,,,,SPECI,1961.0
KIWD 180715Z AUTO 02007KT 10SM CLR 08/M01 A3010 RMK AO1,KIWD,2015-04-18T07:15:00Z,46.52,-90.12,8.0,-1.0,20,7,,10.0,30.100393,,,TRUE,TRUE,,,,,,,CLR,,,,,,,,VFR,,,,,,,,,,,,SPECI,375.0
KINF 180715Z AUTO 00000KT 5SM HZ SCT120 A2998 RMK AO2,KINF,2015-04-18T07:15:00Z,28.8,-82.32,,,0,0,,5.0,29.97933,,,TRUE,TRUE,,,,,,HZ,SCT,12000,,,,,,,MVFR,,,,,,,,,,,,SPECI,15.0
KILE 180715Z AUTO 33004KT 10SM CLR 18/14 A2991 RMK AO1,KILE,2015-04-18T07:15:00Z,31.07,-97.67,18.0,14.0,330,4,,10.0,29.911417,,,TRUE,TRUE,,,,,,,CLR,,,,,,,,VFR,,,,,,,,,,,,SPECI,258.0
KI67 180715Z AUTO 00000KT 10SM CLR 10/08 A3005 RMK AO1,KI67,2015-04-18T07:15:00Z,39.25,-84.78,10.0,8.0,0,0,,10.0,30.050198,,,TRUE,TRUE,,,,,,,CLR,,,,,,,,VFR,,,,,,,,,,,,SPECI,178.0
KHYW 180715Z AUTO 00000KT 5SM -RA SCT100 18/ A2998 RMK AO2,KHYW,2015-04-18T07:15:00Z,33.83,-79.12,18.0,,0,0,,5.0,29.97933,,,TRUE,TRUE,,,,,,-RA,SCT,10000,,,,,,,MVFR,,,,,,,,,,,,SPECI,11.0
KHYI 180715Z 03008KT 10SM OVC011 19/18 A2989 RMK AO1,KHYI,2015-04-18T07:15:00Z,29.88,-97.87,19.0,18.0,30,8,,10.0,29.890747,,,,TRUE,,,,,,,OVC,1100,,,,,,,MVFR,,,,,,,,,,,,SPECI,182.0
KHVS 180715Z AUTO 00000KT 7SM OVC070 17/17 A2998 RMK AO2 P0001,KHVS,2015-04-18T07:15:00Z,34.4,-80.12,17.0,17.0,0,0,,7.0,29.97933,,,TRUE,TRUE,,,,,,,OVC,7000,,,,,,,VFR,,,,,,0.01,,,,,,SPECI,111.0
KHOB 180715Z AUTO 00000KT 10SM CLR 07/04 A3000 RMK AO2,KHOB,2015-04-18T07:15:00Z,32.67,-103.22,7.0,4.0,0,0,,10.0,30.0,,,TRUE,TRUE,,,,,,,CLR,,,,,,,,VFR,,,,,,,,,,,,SPECI,1115.0
KHNB 180715Z AUTO 12003KT 4SM CLR 14/12 A3003 RMK AO1,KHNB,2015-04-18T07:15:00Z,38.25,-86.95,14.0,12.0,120,3,,4.0,30.029528,,,TRUE,TRUE,,,,,,,CLR,,,,,,,,MVFR,,,,,,,,,,,,SPECI,161.0
KHEZ 180715Z AUTO 17003KT 10SM CLR 19/17 A2995 RMK AO1,KHEZ,2015-04-18T07:15:00Z,31.62,-91.3,19.0,17.0,170,3,,10.0,29.949802,,,TRUE,TRUE,,,,,,,CLR,,,,,,,,VFR,,,,,,,,,,,,SPECI,83.0
KHEQ 180715Z AUTO 32011G14KT 10SM CLR 08/06 A2999 RMK AO2 LTG DSNT NE AND E,KHEQ,2015-04-18T07:15:00Z,40.57,-102.28,8.0,6.0,320,11,14,10.0,29.991142,,,TRUE,TRUE,,,,,,,CLR,,,,,,,,VFR,,,,,,,,,,,,SPECI,1137.0
KHEF 180715Z 00000KT 10SM CLR 13/13 A2999 RMK AO1,KHEF,2015-04-18T07:15:00Z,38.72,-77.52,13.0,13.0,0,0,,10.0,29.991142,,,,TRUE,,,,,,,CLR,,,,,,,,VFR,,,,,,,,,,,,SPECI,59.0
KGYH 180715Z AUTO 31003KT 1 1/4SM RA BKN002 OVC022 15/15 A2999 RMK AO2 P0001,KGYH,2015-04-18T07:15:00Z,34.75,-82.38,15.0,15.0,310,3,,1.25,29.991142,,,TRUE,TRUE,,,,,,RA,BKN,200,OVC,2200,,,,,LIFR,,,,,,0.01,,,,,,SPECI,292.0
KGXY 180715Z 00000KT 10SM BKN090 04/M01 A3005 RMK AO1,KGXY,2015-04-18T07:15:00Z,40.42,-104.62,4.0,-1.0,0,0,,10.0,30.050198,,,,TRUE,,,,,,,BKN,9000,,,,,,,VFR,,,,,,,,,,,,SPECI,1420.0
KGUC 180715Z 18004KT 10SM CLR M06/M09 A3008 RMK AO1,KGUC,2015-04-18T07:15:00Z,38.52,-106.92,-6.0,-9.0,180,4,,10.0,30.079725,,,,TRUE,,,,,,,CLR,,,,,,,,VFR,,,,,,,,,,,,SPECI,2339.0
KGTU 180715Z 31004KT 10SM SCT015 18/17 A2992 RMK AO1,KGTU,2015-04-18T07:15:00Z,30.68,-97.68,18.0,17.0,310,4,,10.0,29.920275,,,,TRUE,,,,,,,SCT,1500,,,,,,,VFR,,,,,,,,,,,,SPECI,240.0
KGTR 180715Z 00000KT 10SM CLR 17/15 A2996 RMK AO1,KGTR,2015-04-18T07:15:00Z,33.45,-88.57,17.0,15.0,0,0,,10.0,29.958662,,,,TRUE,,,,,,,CLR,,,,,,,,VFR,,,,,,,,,,,,SPECI,80.0
KGPZ 180715Z AUTO 01006KT 10SM CLR 07/M03 A3014 RMK AO1,KGPZ,2015-04-18T07:15:00Z,47.22,-93.52,7.0,-3.0,10,6,,10.0,30.138779,,,TRUE,TRUE,,,,,,,CLR,,,,,,,,VFR,,,,,,,,,,,,SPECI,413.0
KGKT 180715Z AUTO 15003KT 10SM SCT100 16/15 A3001 RMK,KGKT,2015-04-18T07:15:00Z,35.85,-83.53,16.0,15.0,150,3,,10.0,30.008858,,,TRUE,,,,,,,,SCT,10000,,,,,,,VFR,,,,,,,,,,,,METAR,309.0
KGDV 180715Z AUTO 19004KT 10SM CLR 08/M02 A3004 RMK AO1,KGDV,2015-04-18T07:15:00Z,47.12,-104.78,8.0,-2.0,190,4,,10.0,30.041338,,,TRUE,TRUE,,,,,,,CLR,,,,,,,,VFR,,,,,,,,,,,,SPECI,749.0
KGAI 180715Z AUTO 00000KT 10SM CLR 13/10 A3003 RMK AO1,KGAI,2015-04-18T07:15:00Z,39.17,-77.17,13.0,10.0,0,0,,10.0,30.029528,,,TRUE,TRUE,,,,,,,CLR,,,,,,,,VFR,,,,,,,,,,,,SPECI,165.0
KGAF 180715Z AUTO 01006KT 10SM CLR 02/M02 A3018 RMK AO2,KGAF,2015-04-18T07:15:00Z,48.4,-97.37,2.0,-2.0,10,6,,10.0,30.180119,,,TRUE,TRUE,,,,,,,CLR,,,,,,,,VFR,,,,,,,,,,,,SPECI,252.0
KGAD 180715Z 04005KT 5SM OVC004 17/14 A2997 RMK AO1,KGAD,2015-04-18T07:15:00Z,33.97,-86.07,17.0,14.0,40,5,,5.0,29.970472,,,,TRUE,,,,,,,OVC,400,,,,,,,LIFR,,,,,,,,,,,,SPECI,173.0
KFYM 180715Z AUTO 00000KT M1/4SM OVC001 14/14 A3002 RMK,KFYM,2015-04-18T07:15:00Z,35.07,-86.57,14.0,14.0,0,0,,0.25,30.02067,,,TRUE,,,,,,,,OVC,100,,,,,,,LIFR,,,,,,,,,,,,METAR,300.0
KFRM 180715Z AUTO 35005KT 10SM CLR 10/M01 A3003 RMK AO1,KFRM,2015-04-18T07:15:00Z,43.63,-94.42,10.0,-1.0,350,5,,10.0,30.029528,,,TRUE,TRUE,,,,,,,CLR,,,,,,,,VFR,,,,,,,,,,,,SPECI,354.0
KFNL 180715Z AUTO 03007KT 10SM CLR 04/01 A3003 RMK AO1,KFNL,2015-04-18T07:15:00Z,40.45,-105.02,4.0,1.0,30,7,,10.0,30.029528,,,TRUE,TRUE,,,,,,,CLR,,,,,,,,VFR,,,,,,,,,,,,SPECI,1529.0
KFMM 180715Z AUTO 00000KT 10SM SCT110 04/03 A3002 RMK AO2 T00370026,KFMM,2015-04-18T07:15:00Z,40.33,-103.8,3.7,2.6,0,0,,10.0,30.02067,,,TRUE,TRUE,,,,,,,SCT,11000,,,,,,,VFR,,,,,,,,,,,,SPECI,1393.0
KFMH 180715Z AUTO 31006KT 8SM CLR 09/09 A2990 RMK AO2,KFMH,2015-04-18T07:15:00Z,41.63,-70.52,9.0,9.0,310,6,,8.0,29.899607,,,TRUE,TRUE,,,,,,,CLR,,,,,,,,VFR,,,,,,,,,,,,SPECI,40.0
KFLY 180715Z AUTO 34010KT 10SM CLR 00/00 A3001 RMK AO2 T00011005,KFLY,2015-04-18T07:15:00Z,38.95,-104.57,0.1,-0.5,340,10,,10.0,30.008858,,,TRUE,TRUE,,,,,,,CLR,,,,,,,,VFR,,,,,,,,,,,,SPECI,2096.0
KFKL 180715Z AUTO 13003KT 10SM CLR 07/04 A3003 RMK AO1,KFKL,2015-04-18T07:15:00Z,41.37,-79.87,7.0,4.0,130,3,,10.0,30.029528,,,TRUE,TRUE,,,,,,,CLR,,,,,,,,VFR,,,,,,,,,,,,SPECI,469.0
KFKA 180715Z AUTO 01004KT 10SM CLR 13/04 A3005 RMK AO2 T01280040,KFKA,2015-04-18T07:15:00Z,43.68,-92.17,12.8,4.0,10,4,,10.0,30.050198,,,TRUE,TRUE,,,,,,,CLR,,,,,,,,VFR,,,,,,,,,,,,SPECI,389.0
KESC 180715Z AUTO 35008KT 10SM CLR 08/01 A3002 RMK AO1,KESC,2015-04-18T07:15:00Z,45.75,-87.08,8.0,1.0,350,8,,10.0,30.02067,,,TRUE,TRUE,,,,,,,CLR,,,,,,,,VFR,,,,,,,,,,,,SPECI,187.0
KEOE 180715Z AUTO 00000KT 3SM RA SCT001 OVC060 16/16 A3001 RMK AO2,KEOE,2015-04-18T07:15:00Z,34.32,-81.63,16.0,16.0,0,0,,3.0,30.008858,,,TRUE,TRUE,,,,,,RA,SCT,100,OVC,6000,,,,,MVFR,,,,,,,,,,,,SPECI,174.0
KEIK 180715Z AUTO 00000KT 10SM SCT027 BKN038 OVC043 05/02 A3002 RMK AO2 T00460024,KEIK,2015-04-18T07:15:00Z,40.02,-105.05,4.6,2.4,0,0,,10.0,30.02067,,,TRUE,TRUE,,,,,,,SCT,2700,BKN,3800,OVC,4300,,,VFR,,,,,,,,,,,,SPECI,1564.0
KEHR 180715Z AUTO 00000KT 3SM CLR 12/11 A3000 RMK AO1,KEHR,2015-04-18T07:15:00Z,37.82,-87.67,12.0,11.0,0,0,,3.0,30.0,,,TRUE,TRUE,,,,,,,CLR,,,,,,,,MVFR,,,,,,,,,,,,SPECI,117.0
KEGE 180715Z AUTO 00000KT 10SM BKN009 OVC016 M01/M01 A3006 RMK AO1,KEGE,2015-04-18T07:15:00Z,39.63,-106.92,-1.0,-1.0,0,0,,10.0,30.059055,,,TRUE,TRUE,,,,,,,BKN,900,OVC,1600,,,,,IFR,,,,,,,,,,,,SPECI,1993.0
KEEN 180715Z AUTO 00000KT M1/4SM OVC001 04/03 A2994 RMK AO1,KEEN,2015-04-18T07:15:00Z,42.88,-72.27,4.0,3.0,0,0,,0.25,29.940945,,,TRUE,TRUE,,,,,,,OVC,100,,,,,,,LIFR,,,,,,,,,,,,SPECI,149.0
KDWU 180715Z AUTO 00000KT 10SM CLR 11/11 A3001 RMK AO1,KDWU,2015-04-18T07:15:00Z,38.55,-82.73,11.0,11.0,0,0,,10.0,30.008858,,,TRUE,TRUE,,,,,,,CLR,,,,,,,,VFR,,,,,,,,,,,,SPECI,166.0
KDVL 180715Z AUTO 08005KT 10SM CLR 03/M02 A3014 RMK AO1,KDVL,2015-04-18T07:15:00Z,48.12,-98.92,3.0,-2.0,80,5,,10.0,30.138779,,,TRUE,TRUE,,,,,,,CLR,,,,,,,,VFR,,,,,,,,,,,,SPECI,443.0
KD57 180715Z AUTO 06004KT 10SM CLR 03/M03 A3008 RMK AO2,KD57,2015-04-18T07:15:00Z,46.82,-101.87,3.0,-3.0,60,4,,10.0,30.079725,,,TRUE,TRUE,,,,,,,CLR,,,,,,,,VFR,,,,,,,,,,,,SPECI,637.0
KCQW 180715Z AUTO 00000KT 3SM BR BKN100 17/17 A2997 RMK AO2,KCQW,2015-04-18T07:15:00Z,34.72,-79.95,17.0,17.0,0,0,,3.0,29.970472,,,TRUE,TRUE,,,,,,BR,BKN,10000,,,,,,,MVFR,,,,,,,,,,,,SPECI,73.0
KCOD 180715Z 22008KT 10SM CLR 06/M01 A3004 RMK AO1,KCOD,2015-04-18T07:15:00Z,44.52,-109.02,6.0,-1.0,220,8,,10.0,30.041338,,,,TRUE,,,,,,,CLR,,,,,,,,VFR,,,,,,,,,,,,SPECI,1553.0
KCMR 180715Z AUTO 16005KT 10SM CLR 00/M04 A3019 RMK AO2,KCMR,2015-04-18T07:15:00Z,35.3,-112.2,0.0,-4.0,160,5,,10.0,30.188976,,,TRUE,TRUE,,,,,,,CLR,,,,,,,,VFR,,,,,,,,,,,,SPECI,2036.0
KCKI 180715Z AUTO 00000KT 4SM -RA OVC035 20/ A2998 RMK AO2 P0001,KCKI,2015-04-18T07:15:00Z,33.72,-79.85,20.0,,0,0,,4.0,29.97933,,,TRUE,TRUE,,,,,,-RA,OVC,3500,,,,,,,MVFR,,,,,,0.01,,,,,,SPECI,21.0
KCIU 180715Z AUTO 30008KT 10SM FEW110 04/M02 A2994 RMK AO1,KCIU,2015-04-18T07:15:00Z,46.25,-84.47,4.0,-2.0,300,8,,10.0,29.940945,,,TRUE,TRUE,,,,,,,FEW,11000,,,,,,,VFR,,,,,,,,,,,,SPECI,244.0
KCGZ 180715Z AUTO 00000KT 10SM CLR 14/M07 A2996 RMK AO1,KCGZ,2015-04-18T07:15:00Z,32.95,-111.77,14.0,-7.0,0,0,,10.0,29.958662,,,TRUE,TRUE,,,,,,,CLR,,,,,,,,VFR,,,,,,,,,,,,SPECI,446.0
KCGC 180715Z AUTO 14003KT 7SM SCT120 21/20 A2996 RMK AO2,KCGC,2015-04-18T07:15:00Z,28.87,-82.57,21.0,20.0,140,3,,7.0,29.958662,,,TRUE,TRUE,,,,,,,SCT,12000,,,,,,,VFR,,,,,,,,,,,,SPECI,3.0
KCCU 180715Z AUTO 28008KT 10SM BKN046 OVC060 M06/M13 A3003 RMK AO2,KCCU,2015-04-18T07:15:00Z,39.48,-106.15,-6.0,-13.0,280,8,,10.0,30.029528,,,TRUE,TRUE,,,,,,,BKN,4600,OVC,6000,,,,,VFR,,,,,,,,,,,,SPECI,3680.0
KBVU 180715Z AUTO 08005KT 10SM CLR 17/M05 A2995 RMK AO2,KBVU,2015-04-18T07:15:00Z,35.95,-114.87,17.0,-5.0,80,5,,10.0,29.949802,,,TRUE,TRUE,,,,,,,CLR,,,,,,,,VFR,,,,,,,,,,,,SPECI,671.0
KBTP 180715Z AUTO 00000KT 10SM CLR 07/04 A3004 RMK AO1,KBTP,2015-04-18T07:15:00Z,40.77,-79.95,7.0,4.0,0,0,,10.0,30.041338,,,TRUE,TRUE,,,,,,,CLR,,,,,,,,VFR,,,,,,,,,,,,SPECI,380.0
KBNL 180715Z AUTO 10003KT 6SM BR BKN002 OVC006 19/19 A2996 RMK AO2 P0001,KBNL,2015-04-18T07:15:00Z,33.25,-81.38,19.0,19.0,100,3,,6.0,29.958662,,,TRUE,TRUE,,,,,,BR,BKN,200,OVC,600,,,,,LIFR,,,,,,0.01,,,,,,SPECI,75.0
KBLM 180715Z AUTO 36003KT 10SM CLR 13/08 A2997 RMK AO1,KBLM,2015-04-18T07:15:00Z,40.17,-74.12,13.0,8.0,360,3,,10.0,29.970472,,,TRUE,TRUE,,,,,,,CLR,,,,,,,,VFR,,,,,,,,,,,,SPECI,48.0
KBKX 180715Z AUTO 00000KT 10SM CLR 06/M01 A3006 RMK AO1,KBKX,2015-04-18T07:15:00Z,44.28,-96.82,6.0,-1.0,0,0,,10.0,30.059055,,,TRUE,TRUE,,,,,,,CLR,,,,,,,,VFR,,,,,,,,,,,,SPECI,502.0
KRQO 180715Z AUTO 18004KT 15/13 A2995 RMK AO2 PWINO,KRQO,2015-04-18T07:15:00Z,35.47,-98.0,15.0,13.0,180,4,,,29.949802,,,TRUE,TRUE,,,,,TRUE,,,,,,,,,,,,,,,,,,,,,,METAR,432.0
KN03 180715Z AUTO 00000KT 1 1/4SM BR VV007 02/02 A3000 RMK AO2,KN03,2015-04-18T07:15:00Z,42.6,-76.22,2.0,2.0,0,0,,1.25,30.0,,,TRUE,TRUE,,,,,,BR,OVX,0,,,,,,,LIFR,,,,,,,,,,,700,METAR,366.0
KMEZ 180715Z AUTO 00000KT 7SM SCT036 SCT048 18/17 A2998 RMK AO2,KMEZ,2015-04-18T07:15:00Z,34.55,-94.2,18.0,17.0,0,0,,7.0,29.97933,,,TRUE,TRUE,,,,,,,SCT,3600,SCT,4800,,,,,VFR,,,,,,,,,,,,METAR,329.0
KM25 180715Z AUTO 00000KT 5SM BR CLR 14/14 A3002 RMK AO2,KM25,2015-04-18T07:15:00Z,36.77,-88.58,14.0,14.0,0,0,,5.0,30.02067,,,TRUE,TRUE,,,,,,BR,CLR,,,,,,,,MVFR,,,,,,,,,,,,METAR,160.0
KLKR 180715Z AUTO 00000KT 3/4SM -RA BKN001 17/17 A2998 RMK AO2,KLKR,2015-04-18T07:15:00Z,34.72,-80.85,17.0,17.0,0,0,,0.75,29.97933,,,TRUE,TRUE,,,,,,-RA,BKN,100,,,,,,,LIFR,,,,,,,,,,,,METAR,149.0
KJZI 180715Z AUTO 00000KT 1 3/4SM RA BKN001 BKN010 OVC018 20/20 A2999 RMK A02 P000,KJZI,2015-04-18T07:15:00Z,32.7,-80.0,20.0,20.0,0,0,,1.75,29.991142,,,TRUE,TRUE,,,,,,RA,BKN,100,BKN,1000,OVC,1800,,,LIFR,,,,,,,,,,,,METAR,6.0
KGLY 180715Z AUTO 16003KT 10SM CLR 17/15 A2996 RMK AO2,KGLY,2015-04-18T07:15:00Z,38.35,-93.68,17.0,15.0,160,3,,10.0,29.958662,,,TRUE,TRUE,,,,,,,CLR,,,,,,,,VFR,,,,,,,,,,,,METAR,251.0
KEDC 180715Z AUTO 33005KT 10SM FEW019 SCT025 SCT035 18/18 A2992 RMK AO2,KEDC,2015-04-18T07:15:00Z,30.4,-97.57,18.0,18.0,330,5,,10.0,29.920275,,,TRUE,TRUE,,,,,,,FEW,1900,SCT,2500,SCT,3500,,,VFR,,,,,,,,,,,,METAR,189.0
KD55 180715Z AUTO 08006KT 10SM CLR 02/M02 A3016 RMK AO2,KD55,2015-04-18T07:15:00Z,48.75,-98.4,2.0,-2.0,80,6,,10.0,30.159449,,,TRUE,TRUE,,,,,,,CLR,,,,,,,,VFR,,,,,,,,,,,,METAR,491.0
KBOW 180715Z AUTO 00000KT 10SM CLR 19/ A2999 RMK AO2,KBOW,2015-04-18T07:15:00Z,27.93,-81.77,19.0,,0,0,,10.0,29.991142,,,TRUE,TRUE,,,,,,,CLR,,,,,,,,VFR,,,,,,,,,,,,METAR,39.0
KBBP 180715Z AUTO 00000KT 2SM -DZ OVC100 05/M06 A2997 RMK AO2,KBBP,2015-04-18T07:15:00Z,34.62,-79.73,5.0,-6.0,0,0,,2.0,29.970472,,,TRUE,TRUE,,,,,,-DZ,OVC,10000,,,,,,,IFR,,,,,,,,,,,,METAR,45.0
KARW 180715Z AUTO 00000KT 1 3/4SM RA BKN003 BKN016 OVC046 20/20 A2998 RMK AO2 P0002,KARW,2015-04-18T07:15:00Z,32.42,-80.63,20.0,20.0,0,0,,1.75,29.97933,,,TRUE,TRUE,,,,,,RA,BKN,300,BKN,1600,OVC,4600,,,LIFR,,,,,,0.02,,,,,,METAR,4.0
K1P1 180715Z AUTO 00000KT 10SM OVC046 02/02 A2991 RMK AO2 T00200020,K1P1,2015-04-18T07:15:00Z,43.78,-71.75,2.0,2.0,0,0,,10.0,29.911417,,,TRUE,TRUE,,,,,,,OVC,4600,,,,,,,VFR,,,,,,,,,,,,METAR,154.0
KVBS 180715Z AUTO 14009KT 10SM OVC034 22/22 A2990 RMK A01,KVBS,2015-04-18T07:15:00Z,29.48,-93.63,22.0,22.0,140,9,,10.0,29.899607,,,TRUE,TRUE,,,,,,,OVC,3400,,,,,,,VFR,,,,,,,,,,,,SPECI,31.0
KVAF 180715Z AUTO 19009KT 3SM BR SCT005 BKN034 OVC055 25/25 A2985 RMK A01,KVAF,2015-04-18T07:15:00Z,27.35,-94.63,25.0,25.0,190,9,,3.0,29.84941,,,TRUE,TRUE,,,,,,BR,SCT,500,BKN,3400,OVC,5500,,,MVFR,,,,,,,,,,,,SPECI,46.0
KUSE 180715Z AUTO 28003KT 10SM FEW075 11/07 A3002 RMK AO2,KUSE,2015-04-18T07:15:00Z,41.62,-84.13,11.0,7.0,280,3,,10.0,30.02067,,,TRUE,TRUE,,,,,,,FEW,7500,,,,,,,VFR,,,,,,,,,,,,SPECI,238.0
KTVI 180715Z AUTO 00000KT 4SM BR OVC005 20/20 A2995 RMK AO2,KTVI,2015-04-18T07:15:00Z,30.9,-83.88,20.0,20.0,0,0,,4.0,29.949802,,,TRUE,TRUE,,,,,,BR,OVC,500,,,,,,,IFR,,,,,,,,,,,,SPECI,80.0
KTQH 180715Z AUTO 00000KT 10SM SCT039 SCT045 17/15 A2995 RMK AO2,KTQH,2015-04-18T07:15:00Z,35.93,-95.0,17.0,15.0,0,0,,10.0,29.949802,,,TRUE,TRUE,,,,,,,SCT,3900,SCT,4500,,,,,VFR,,,,,,,,,,,,SPECI,266.0
KSQE 180715Z AUTO VRB05KT 10SM FEW015 SCT075 BKN085 26/23 A2991 RMK A01,KSQE,2015-04-18T07:15:00Z,28.07,-90.82,26.0,23.0,0,5,,10.0,29.911417,,,TRUE,TRUE,,,,,,,FEW,1500,SCT,7500,BKN,8500,,,VFR,,,,,,,,,,,,SPECI,0.0
KCIR 180715Z AUTO 00000KT 1/4SM FG VV002 15/15 A3001 RMK AO2 T01470147,KCIR,2015-04-18T07:15:00Z,37.07,-89.22,14.7,14.7,0,0,,0.25,30.008858,,,TRUE,TRUE,,,,,,FG,OVX,0,,,,,,,LIFR,,,,,,,,,,,200,SPECI,98.0
KCEY 180715Z AUTO 00000KT 10SM CLR 14/14 A3001 RMK AO1,KCEY,2015-04-18T07:15:00Z,36.67,-88.37,14.0,14.0,0,0,,10.0,30.008858,,,TRUE,TRUE,,,,,,,CLR,,,,,,,,VFR,,,,,,,,,,,,SPECI,176.0
KCDH 180715Z AUTO 00000KT 10SM CLR 18/15 A2995 RMK AO2,KCDH,2015-04-18T07:15:00Z,33.62,-92.77,18.0,15.0,0,0,,10.0,29.949802,,,TRUE,TRUE,,,,,,,CLR,,,,,,,,VFR,,,,,,,,,,,,SPECI,35.0
KCCO 180715Z AUTO 07003KT 7SM OVC004 17/17 A2997 RMK AO2 T01720172,KCCO,2015-04-18T07:15:00Z,33.32,-84.77,17.2,17.2,70,3,,7.0,29.970472,,,TRUE,TRUE,,,,,,,OVC,400,,,,,,,LIFR,,,,,,,,,,,,SPECI,296.0
KBTA 180715Z AUTO 04004KT 10SM SCT060 SCT080 OVC085 17/12 A2997 RMK AO2 T01680115,KBTA,2015-04-18T07:15:00Z,41.42,-96.12,16.8,11.5,40,4,,10.0,29.970472,,,TRUE,TRUE,,,,,,,SCT,6000,SCT,8000,OVC,8500,,,VFR,,,,,,,,,,,,SPECI,396.0
KBKS 180715Z AUTO 12004KT 7SM OVC005 21/20 A2984 RMK AO1 T02070197,KBKS,2015-04-18T07:15:00Z,27.2,-98.12,20.7,19.7,120,4,,7.0,29.840551,,,TRUE,TRUE,,,,,,,OVC,500,,,,,,,IFR,,,,,,,,,,,,SPECI,34.0
KBKD 180715Z AUTO 00000KT 10SM CLR 15/15 A2995 RMK AO2 T01520150,KBKD,2015-04-18T07:15:00Z,32.72,-98.88,15.2,15.0,0,0,,10.0,29.949802,,,TRUE,TRUE,,,,,,,CLR,,,,,,,,VFR,,,,,,,,,,,,SPECI,392.0
KBHC 180715Z AUTO 16003KT 7SM SCT060 BKN070 OVC085 21/20 A2996 RMK AO2,KBHC,2015-04-18T07:15:00Z,31.72,-82.4,21.0,20.0,160,3,,7.0,29.958662,,,TRUE,TRUE,,,,,,,SCT,6000,BKN,7000,OVC,8500,,,VFR,,,,,,,,,,,,SPECI,61.0
KBDG 180715Z AUTO 05003KT 10SM OVC006 02/01 A3009 RMK AO1 T00150013,KBDG,2015-04-18T07:15:00Z,37.58,-109.47,1.5,1.3,50,3,,10.0,30.088583,,,TRUE,TRUE,,,,,,,OVC,600,,,,,,,IFR,,,,,,,,,,,,SPECI,1788.0
KBBF 180715Z AUTO 04023KT 2 1/2SM BR FEW004 SCT014 BKN055 22/21 A2983 RMK A01,KBBF,2015-04-18T07:15:00Z,27.83,-96.02,22.0,21.0,40,23,,2.5,29.828741,,,TRUE,TRUE,,,,,,BR,FEW,400,SCT,1400,BKN,5500,,,IFR,,,,,,,,,,,,SPECI,36.0
KCPK 180715Z AUTO 00000KT 7SM CLR 17/16 A2997 RMK AO2,KCPK,2015-04-18T07:15:00Z,36.67,-76.32,17.0,16.0,0,0,,7.0,29.970472,,,TRUE,TRUE,,,,,,,CLR,,,,,,,,VFR,,,,,,,,,,,,SPECI,6.0
KCLW 180715Z AUTO 00000KT 10SM CLR 22/21 A2997 RMK AO2,KCLW,2015-04-18T07:15:00Z,27.98,-82.75,22.0,21.0,0,0,,10.0,29.970472,,,TRUE,TRUE,,,,,,,CLR,,,,,,,,VFR,,,,,,,,,,,,SPECI,22.0
KCRX 180715Z AUTO 00000KT 4SM BR CLR 16/15 A2997 RMK AO2,KCRX,2015-04-18T07:15:00Z,34.92,-88.6,16.0,15.0,0,0,,4.0,29.970472,,,TRUE,TRUE,,,,,,BR,CLR,,,,,,,,MVFR,,,,,,,,,,,,SPECI,130.0
KCWC 180715Z AUTO 05003KT 10SM VCTS SCT030 BKN080 OVC090 16/15 A2996 RMK AO2 T01550145,KCWC,2015-04-18T07:15:00Z,33.85,-98.48,15.5,14.5,50,3,,10.0,29.958662,,,TRUE,TRUE,,,,,,VCTS,SCT,3000,BKN,8000,OVC,9000,,,VFR,,,,,,,,,,,,SPECI,305.0
KCUH 180715Z AUTO 15006KT 10SM SCT009 SCT070 BKN080 18/16 A2993 RMK AO2,KCUH,2015-04-18T07:15:00Z,35.95,-96.77,18.0,16.0,150,6,,10.0,29.929134,,,TRUE,TRUE,,,,,,,SCT,900,SCT,7000,BKN,8000,,,VFR,,,,,,,,,,,,SPECI,279.0
KCVW 180715Z AUTO 04006KT 10SM BKN034 OVC042 21/20 A2994 RMK A01,KCVW,2015-04-18T07:15:00Z,29.78,-93.3,21.0,20.0,40,6,,10.0,29.940945,,,TRUE,TRUE,,,,,,,BKN,3400,OVC,4200,,,,,VFR,,,,,,,,,,,,SPECI,1.0
KCZL 180715Z AUTO 02003KT 5SM HZ SCT004 BKN011 OVC016 16/13 A3001 RMK AO2 T01600131,KCZL,2015-04-18T07:15:00Z,,,16.0,13.1,20,3,,5.0,30.008858,,,TRUE,TRUE,,,,,,HZ,SCT,400,BKN,1100,OVC,1600,,,MVFR,,,,,,,,,,,,SPECI,
EGQS 180714Z 26002KT 9999 2000S PRFG FEW001 BKN004 05/05 Q1033 YLO2 BECMG 9999 NSW BLU,EGQS,2015-04-18T07:14:00Z,57.72,-3.32,5.0,5.0,260,2,,6.21,30.501968,,,,,,,,,,PRFG,FEW,100,BKN,400,,,,,LIFR,,,,,,,,,,,,METAR,13.0
KFKS 180714Z AUTO 00000KT 10SM CLR 08/02 A2999 RMK AO2 T00800019,KFKS,2015-04-18T07:14:00Z,44.63,-86.2,8.0,1.9,0,0,,10.0,29.991142,,,TRUE,TRUE,,,,,,,CLR,,,,,,,,VFR,,,,,,,,,,,,SPECI,193.0
KERY 180714Z AUTO 27012G16KT 10SM CLR 06/00 A2996 RMK AO2 T00610003,KERY,2015-04-18T07:14:00Z,46.3,-85.45,6.1,0.3,270,12,16,10.0,29.958662,,,TRUE,TRUE,,,,,,,CLR,,,,,,,,VFR,,,,,,,,,,,,SPECI,265.0
KCNB 180714Z AUTO 23003KT 10SM CLR 05/M04 A3006 RMK AO2 T00531037,KCNB,2015-04-18T07:14:00Z,44.73,-96.27,5.3,-3.7,230,3,,10.0,30.059055,,,TRUE,TRUE,,,,,,,CLR,,,,,,,,VFR,,,,,,,,,,,,SPECI,364.0
KCKC 180714Z AUTO 35013KT 10SM CLR 02/M03 A3015 RMK AO2,KCKC,2015-04-18T07:14:00Z,47.83,-90.37,2.0,-3.0,350,13,,10.0,30.15059,,,TRUE,TRUE,,,,,,,CLR,,,,,,,,VFR,,,,,,,,,,,,SPECI,548.0
KCFS 180714Z AUTO 00000KT 10SM CLR 07/06 A2997 RMK AO2 T00650060,KCFS,2015-04-18T07:14:00Z,43.47,-83.45,6.5,6.0,0,0,,10.0,29.970472,,,TRUE,TRUE,,,,,,,CLR,,,,,,,,VFR,,,,,,,,,,,,SPECI,214.0
KCFE 180714Z AUTO 00000KT 10SM CLR 06/00 A3007 RMK AO2 T00621002,KCFE,2015-04-18T07:14:00Z,45.17,-93.85,6.2,-0.2,0,0,,10.0,30.070866,,,TRUE,TRUE,,,,,,,CLR,,,,,,,,VFR,,,,,,,,,,,,SPECI,295.0
KBFW 180714Z AUTO 36006KT 10SM CLR 07/M01 A3013 RMK AO2,KBFW,2015-04-18T07:14:00Z,47.25,-91.4,7.0,-1.0,360,6,,10.0,30.129921,,,TRUE,TRUE,,,,,,,CLR,,,,,,,,VFR,,,,,,,,,,,,SPECI,331.0
KBAX 180714Z AUTO 00000KT 10SM CLR 05/04 A2996 RMK AO2 T00540035,KBAX,2015-04-18T07:14:00Z,43.78,-82.98,5.4,3.5,0,0,,10.0,29.958662,,,TRUE,TRUE,,,,,,,CLR,,,,,,,,VFR,,,,,,,,,,,,SPECI,234.0
KACB 180714Z AUTO 00000KT 10SM CLR 04/03 A2998 RMK AO2 T00400026,KACB,2015-04-18T07:14:00Z,44.98,-85.2,4.0,2.6,0,0,,10.0,29.97933,,,TRUE,TRUE,,,,,,,CLR,,,,,,,,VFR,,,,,,,,,,,,SPECI,190.0
KRQB 180714Z AUTO 00000KT 10SM CLR 07/04 A2999 RMK AO2 T00660040,KRQB,2015-04-18T07:14:00Z,43.72,-85.5,6.6,4.0,0,0,,10.0,29.991142,,,TRUE,TRUE,,,,,,,CLR,,,,,,,,VFR,,,,,,,,,,,,SPECI,302.0
KRNP 180714Z AUTO 00000KT 10SM CLR 08/06 A2999 RMK AO2 T00830058,KRNP,2015-04-18T07:14:00Z,43.0,-84.13,8.3,5.8,0,0,,10.0,29.991142,,,TRUE,TRUE,,,,,,,CLR,,,,,,,,VFR,,,,,,,,,,,,SPECI,224.0
KOEB 180714Z AUTO 00000KT 10SM CLR 09/07 A3002 RMK AO2 T00910067,KOEB,2015-04-18T07:14:00Z,41.92,-85.03,9.1,6.7,0,0,,10.0,30.02067,,,TRUE,TRUE,,,,,,,CLR,,,,,,,,VFR,,,,,,,,,,,,SPECI,292.0
KJYM 180714Z AUTO 00000KT 10SM CLR 12/06 A3002 RMK AO2 T01150059,KJYM,2015-04-18T07:14:00Z,41.92,-84.58,11.5,5.9,0,0,,10.0,30.02067,,,TRUE,TRUE,,,,,,,CLR,,,,,,,,VFR,,,,,,,,,,,,SPECI,360.0
KISQ 180714Z AUTO 30009KT 10SM CLR 07/02 A2999 RMK AO2 T00740021,KISQ,2015-04-18T07:14:00Z,45.97,-86.17,7.4,2.1,300,9,,10.0,29.991142,,,TRUE,TRUE,,,,,,,CLR,,,,,,,,VFR,,,,,,,,,,,,SPECI,209.0
KIRS 180714Z AUTO 00000KT 10SM CLR 12/07 A3002 RMK AO2,KIRS,2015-04-18T07:14:00Z,41.8,-85.43,12.0,7.0,0,0,,10.0,30.02067,,,TRUE,TRUE,,,,,,,CLR,,,,,,,,VFR,,,,,,,,,,,,SPECI,282.0
KHYX 180714Z AUTO 00000KT 10SM CLR 08/05 A2997 RMK AO2,KHYX,2015-04-18T07:14:00Z,43.43,-83.87,8.0,5.0,0,0,,10.0,29.970472,,,TRUE,TRUE,,,,,,,CLR,,,,,,,,VFR,,,,,,,,,,,,SPECI,183.0
KHAI 180714Z AUTO 00000KT 10SM CLR 12/08 A3003 RMK AO2 T01190077,KHAI,2015-04-18T07:14:00Z,41.97,-85.6,11.9,7.7,0,0,,10.0,30.029528,,,TRUE,TRUE,,,,,,,CLR,,,,,,,,VFR,,,,,,,,,,,,SPECI,251.0
KGOV 180714Z AUTO 00000KT 10SM CLR 03/00 A2999 RMK AO2 T00250004,KGOV,2015-04-18T07:14:00Z,44.68,-84.73,2.5,0.4,0,0,,10.0,29.991142,,,TRUE,TRUE,,,,,,,CLR,,,,,,,,VFR,,,,,,,,,,,,SPECI,353.0
KONZ 180714Z AUTO 00000KT 4SM BR CLR 08/07 A2999 RMK AO2,KONZ,2015-04-18T07:14:00Z,42.1,-83.15,8.0,7.0,0,0,,4.0,29.991142,,,TRUE,TRUE,,,,,,BR,CLR,,,,,,,,MVFR,,,,,,,,,,,,SPECI,180.0
KMVE 180714Z AUTO 00000KT 10SM CLR 08/M07 A3007 RMK AO2,KMVE,2015-04-18T07:14:00Z,44.97,-95.72,8.0,-7.0,0,0,,10.0,30.070866,,,TRUE,TRUE,,,,,,,CLR,,,,,,,,VFR,,,,,,,,,,,,SPECI,315.0
KMRT 180714Z AUTO 00000KT 10SM CLR 09/06 A3003 RMK AO2 T00850055,KMRT,2015-04-18T07:14:00Z,40.22,-83.35,8.5,5.5,0,0,,10.0,30.029528,,,TRUE,TRUE,,,,,,,CLR,,,,,,,,VFR,,,,,,,,,,,,SPECI,312.0
KLYV 180714Z AUTO 04007KT 10SM SCT100 12/M03 A3004 RMK AO2,KLYV,2015-04-18T07:14:00Z,43.62,-96.22,12.0,-3.0,40,7,,10.0,30.041338,,,TRUE,TRUE,,,,,,,SCT,10000,,,,,,,VFR,,,,,,,,,,,,SPECI,436.0
KRRT 180714Z AUTO 06006KT 10SM CLR 02/M01 A3021 RMK AO2,KRRT,2015-04-18T07:14:00Z,48.93,-95.33,2.0,-1.0,60,6,,10.0,30.209646,,,TRUE,TRUE,,,,,,,CLR,,,,,,,,VFR,,,,,,,,,,,,SPECI,327.0
KROX 180714Z AUTO 05006KT 10SM CLR 00/M03 A3020 RMK AO2,KROX,2015-04-18T07:14:00Z,48.85,-95.7,0.0,-3.0,50,6,,10.0,30.200787,,,TRUE,TRUE,,,,,,,CLR,,,,,,,,VFR,,,,,,,,,,,,SPECI,323.0
KPWC 180714Z AUTO 02004KT 10SM CLR 08/M03 A3015 RMK AO2,KPWC,2015-04-18T07:14:00Z,46.72,-94.37,8.0,-3.0,20,4,,10.0,30.15059,,,TRUE,TRUE,,,,,,,CLR,,,,,,,,VFR,,,,,,,,,,,,SPECI,395.0
KPQN 180714Z AUTO 06005KT 10SM CLR 11/M08 A3004 RMK AO2,KPQN,2015-04-18T07:14:00Z,43.97,-96.32,11.0,-8.0,60,5,,10.0,30.041338,,,TRUE,TRUE,,,,,,,CLR,,,,,,,,VFR,,,,,,,,,,,,SPECI,529.0
KPNM 180714Z AUTO 00000KT 10SM CLR 07/M01 A3008 RMK AO2,KPNM,2015-04-18T07:14:00Z,45.57,-93.6,7.0,-1.0,0,0,,10.0,30.079725,,,TRUE,TRUE,,,,,,,CLR,,,,,,,,VFR,,,,,,,,,,,,SPECI,298.0
KTWM 180714Z AUTO 04006KT 10SM CLR 09/01 A3013 RMK AO2,KTWM,2015-04-18T07:14:00Z,47.03,-91.75,9.0,1.0,40,6,,10.0,30.129921,,,TRUE,TRUE,,,,,,,CLR,,,,,,,,VFR,,,,,,,,,,,,SPECI,328.0
KTEW 180714Z AUTO 00000KT 10SM CLR 09/05 A3001 RMK AO2 T00850046,KTEW,2015-04-18T07:14:00Z,42.57,-84.42,8.5,4.6,0,0,,10.0,30.008858,,,TRUE,TRUE,,,,,,,CLR,,,,,,,,VFR,,,,,,,,,,,,SPECI,280.0
KSYN 180714Z AUTO 15003KT 10SM CLR 06/03 A3004 RMK AO2 T00640025,KSYN,2015-04-18T07:14:00Z,44.47,-93.02,6.4,2.5,150,3,,10.0,30.041338,,,TRUE,TRUE,,,,,,,CLR,,,,,,,,VFR,,,,,,,,,,,,SPECI,280.0
KBFD 180714Z AUTO 00000KT 2SM BR CLR 03/02 A3002 RMK AO2 VIS 3/4V5 T00330022 TSNO,KBFD,2015-04-18T07:14:00Z,41.8,-78.63,3.3,2.2,0,0,,2.0,30.02067,,,TRUE,TRUE,,,TRUE,,,BR,CLR,,,,,,,,IFR,,,,,,,,,,,,SPECI,647.0
KBBB 180714Z AUTO 00000KT 10SM CLR 03/M01 A3007 RMK AO2,KBBB,2015-04-18T07:14:00Z,45.32,-95.65,3.0,-1.0,0,0,,10.0,30.070866,,,TRUE,TRUE,,,,,,,CLR,,,,,,,,VFR,,,,,,,,,,,,SPECI,317.0
KANE 180714Z AUTO 00000KT 10SM CLR 07/02 A3006 RMK AO2,KANE,2015-04-18T07:14:00Z,45.15,-93.22,7.0,2.0,0,0,,10.0,30.059055,,,TRUE,TRUE,,,,,,,CLR,,,,,,,,VFR,,,,,,,,,,,,SPECI,278.0
K9MN 180714Z AUTO 00000KT 10SM CLR 13/05 A3005 RMK AO1 T01320052,K9MN,2015-04-18T07:14:00Z,44.02,-92.48,13.2,5.2,0,0,,10.0,30.050198,,,TRUE,TRUE,,,,,,,CLR,,,,,,,,VFR,,,,,,,,,,,,SPECI,355.0
K5SM 180714Z AUTO 07003KT 10SM BKN110 M07/M08 A3007 RMK AO2,K5SM,2015-04-18T07:14:00Z,39.43,-107.38,-7.0,-8.0,70,3,,10.0,30.070866,,,TRUE,TRUE,,,,,,,BKN,11000,,,,,,,VFR,,,,,,,,,,,,SPECI,3232.0
K0CO 180714Z AUTO 05005KT 1/4SM SN OVC001 M11/M15 A3005 RMK AO2,K0CO,2015-04-18T07:14:00Z,39.8,-105.77,-11.0,-15.0,50,5,,0.25,30.050198,,,TRUE,TRUE,,,,,,SN,OVC,100,,,,,,,LIFR,,,,,,,,,,,,SPECI,3807.0
KIMS 180714Z AUTO 00000KT 10SM CLR 12/09 A3008 RMK AO1,KIMS,2015-04-18T07:14:00Z,38.75,-85.47,12.0,9.0,0,0,,10.0,30.079725,,,TRUE,TRUE,,,,,,,CLR,,,,,,,,VFR,,,,,,,,,,,,SPECI,250.0
KI69 180714Z AUTO 00000KT 10SM CLR 12/06 A3005 RMK AO1,KI69,2015-04-18T07:14:00Z,39.08,-84.22,12.0,6.0,0,0,,10.0,30.050198,,,TRUE,TRUE,,,,,,,CLR,,,,,,,,VFR,,,,,,,,,,,,SPECI,255.0
KHZX 180714Z AUTO 04004KT 10SM CLR 09/M02 A3012 RMK AO2,KHZX,2015-04-18T07:14:00Z,46.62,-93.32,9.0,-2.0,40,4,,10.0,30.121063,,,TRUE,TRUE,,,,,,,CLR,,,,,,,,VFR,,,,,,,,,,,,SPECI,374.0
KHCO 180714Z AUTO 07009KT 10SM CLR 04/M02 A3017 RMK AO2,KHCO,2015-04-18T07:14:00Z,48.75,-96.93,4.0,-2.0,70,9,,10.0,30.171259,,,TRUE,TRUE,,,,,,,CLR,,,,,,,,VFR,,,,,,,,,,,,SPECI,250.0
KGYL 180714Z AUTO 00000KT 10SM CLR 08/03 A3005 RMK AO2 T00810027,KGYL,2015-04-18T07:14:00Z,44.77,-94.08,8.1,2.7,0,0,,10.0,30.050198,,,TRUE,TRUE,,,,,,,CLR,,,,,,,,VFR,,,,,,,,,,,,SPECI,302.0
KGHW 180714Z AUTO 02007KT 10SM CLR 09/M03 A3010 RMK AO2,KGHW,2015-04-18T07:14:00Z,45.63,-95.32,9.0,-3.0,20,7,,10.0,30.100393,,,TRUE,TRUE,,,,,,,CLR,,,,,,,,VFR,,,,,,,,,,,,SPECI,425.0
KFGN 180714Z AUTO 00000KT 10SM CLR 03/M01 A3020 RMK AO2,KFGN,2015-04-18T07:14:00Z,49.32,-94.9,3.0,-1.0,0,0,,10.0,30.200787,,,TRUE,TRUE,,,,,,,CLR,,,,,,,,VFR,,,,,,,,,,,,SPECI,328.0
KFFM 180714Z AUTO 08009KT 10SM CLR 11/M06 A3010 RMK AO2,KFFM,2015-04-18T07:14:00Z,46.28,-96.15,11.0,-6.0,80,9,,10.0,30.100393,,,TRUE,TRUE,,,,,,,CLR,,,,,,,,VFR,,,,,,,,,,,,SPECI,361.0
KFBL 180714Z AUTO 00000KT 10SM CLR 07/03 A3005 RMK AO2,KFBL,2015-04-18T07:14:00Z,44.33,-93.32,7.0,3.0,0,0,,10.0,30.050198,,,TRUE,TRUE,,,,,,,CLR,,,,,,,,VFR,,,,,,,,,,,,SPECI,322.0
KDYT 180714Z AUTO 07010KT 10SM CLR 07/02 A3015 RMK AO2,KDYT,2015-04-18T07:14:00Z,46.72,-92.03,7.0,2.0,70,10,,10.0,30.15059,,,TRUE,TRUE,,,,,,,CLR,,,,,,,,VFR,,,,,,,,,,,,SPECI,186.0
KD95 180714Z AUTO 00000KT 10SM CLR 06/05 A2998 RMK AO2 T00600047,KD95,2015-04-18T07:14:00Z,43.07,-83.27,6.0,4.7,0,0,,10.0,29.97933,,,TRUE,TRUE,,,,,,,CLR,,,,,,,,VFR,,,,,,,,,,,,SPECI,255.0
KCOT 180714Z AUTO 00000KT 8SM OVC015 19/18 A2985 RMK AO2 T01940183,KCOT,2015-04-18T07:14:00Z,28.45,-99.22,19.4,18.3,0,0,,8.0,29.84941,,,TRUE,TRUE,,,,,,,OVC,1500,,,,,,,MVFR,,,,,,,,,,,,SPECI,140.0
K0J4 180714Z AUTO 00000KT 10SM SCT001 17/16 A2995 RMK AO2,K0J4,2015-04-18T07:14:00Z,31.05,-86.32,17.0,16.0,0,0,,10.0,29.949802,,,TRUE,TRUE,,,,,,,SCT,100,,,,,,,VFR,,,,,,,,,,,,SPECI,96.0
KLOR 180714Z AUTO 00000KT 1/2SM FG VV003 16/16 A2993 RMK AO2 T01610156 $,KLOR,2015-04-18T07:14:00Z,31.35,-85.75,16.1,15.6,0,0,,0.5,29.929134,,,TRUE,TRUE,TRUE,,,,,FG,OVX,0,,,,,,,LIFR,,,,,,,,,,,300,SPECI,74.0
KFFX 180713Z AUTO 35003KT 10SM BKN080 08/05 A3000 RMK AO2 T00790049,KFFX,2015-04-18T07:13:00Z,43.43,-86.0,7.9,4.9,350,3,,10.0,30.0,,,TRUE,TRUE,,,,,,,BKN,8000,,,,,,,VFR,,,,,,,,,,,,SPECI,236.0
KPZQ 180713Z AUTO 21007KT 10SM CLR 08/04 A2994 RMK AO2 T00780042,KPZQ,2015-04-18T07:13:00Z,45.4,-83.82,7.8,4.2,210,7,,10.0,29.940945,,,TRUE,TRUE,,,,,,,CLR,,,,,,,,VFR,,,,,,,,,,,,SPECI,204.0
KOVL 180713Z AUTO 01003KT 10SM CLR 05/M06 A3005 RMK AO2,KOVL,2015-04-18T07:13:00Z,44.78,-95.03,5.0,-6.0,10,3,,10.0,30.050198,,,TRUE,TRUE,,,,,,,CLR,,,,,,,,VFR,,,,,,,,,,,,SPECI,328.0
KOSC 180713Z AUTO 29003KT 10SM BKN090 01/00 A2995 RMK AO2 T00180005,KOSC,2015-04-18T07:13:00Z,44.45,-83.4,1.8,0.5,290,3,,10.0,29.949802,,,TRUE,TRUE,,,,,,,BKN,9000,,,,,,,VFR,,,,,,,,,,,,SPECI,193.0
KONA 180713Z AUTO 00000KT 10SM CLR 10/07 A3005 RMK AO2,KONA,2015-04-18T07:13:00Z,44.07,-91.7,10.0,7.0,0,0,,10.0,30.050198,,,TRUE,TRUE,,,,,,,CLR,,,,,,,,VFR,,,,,,,,,,,,SPECI,200.0
KMOX 180713Z AUTO 07008KT 10SM CLR 06/M05 A3007 RMK AO2,KMOX,2015-04-18T07:13:00Z,45.57,-95.97,6.0,-5.0,70,8,,10.0,30.070866,,,TRUE,TRUE,,,,,,,CLR,,,,,,,,VFR,,,,,,,,,,,,SPECI,344.0
KMJQ 180713Z AUTO 04009KT 10SM CLR 10/M02 A3005 RMK AO2,KMJQ,2015-04-18T07:13:00Z,43.63,-94.97,10.0,-2.0,40,9,,10.0,30.050198,,,TRUE,TRUE,,,,,,,CLR,,,,,,,,VFR,,,,,,,,,,,,SPECI,441.0
KLVN 180713Z AUTO 00000KT 10SM CLR 06/03 A3005 RMK AO2,KLVN,2015-04-18T07:13:00Z,44.63,-93.23,6.0,3.0,0,0,,10.0,30.050198,,,TRUE,TRUE,,,,,,,CLR,,,,,,,,VFR,,,,,,,,,,,,SPECI,293.0
KSAZ 180713Z AUTO 00000KT 10SM CLR 09/M06 A3012 RMK AO2,KSAZ,2015-04-18T07:13:00Z,46.37,-94.8,9.0,-6.0,0,0,,10.0,30.121063,,,TRUE,TRUE,,,,,,,CLR,,,,,,,,VFR,,,,,,,,,,,,SPECI,392.0
KRMY 180713Z AUTO 00000KT 10SM CLR 08/06 A3001 RMK AO2 T00750055,KRMY,2015-04-18T07:13:00Z,42.23,-84.95,7.5,5.5,0,0,,10.0,30.008858,,,TRUE,TRUE,,,,,,,CLR,,,,,,,,VFR,,,,,,,,,,,,SPECI,287.0
KPEX 180713Z AUTO 00000KT 10SM CLR 05/M03 A3009 RMK AO2 T00501031,KPEX,2015-04-18T07:13:00Z,45.37,-94.73,5.0,-3.1,0,0,,10.0,30.088583,,,TRUE,TRUE,,,,,,,CLR,,,,,,,,VFR,,,,,,,,,,,,SPECI,360.0
KY70 180713Z AUTO 23005KT 10SM CLR 11/05 A2999 RMK AO2 T01100050,KY70,2015-04-18T07:13:00Z,42.93,-85.07,11.0,5.0,230,5,,10.0,29.991142,,,TRUE,TRUE,,,,,,,CLR,,,,,,,,VFR,,,,,,,,,,,,SPECI,250.0
KVVV 180713Z AUTO 36005KT 10SM CLR 08/M05 A3006 RMK AO2,KVVV,2015-04-18T07:13:00Z,45.3,-96.42,8.0,-5.0,360,5,,10.0,30.059055,,,TRUE,TRUE,,,,,,,CLR,,,,,,,,VFR,,,,,,,,,,,,SPECI,335.0
KULM 180713Z AUTO 04003KT 10SM CLR 14/M06 A3004 RMK AO2,KULM,2015-04-18T07:13:00Z,44.32,-94.5,14.0,-6.0,40,3,,10.0,30.041338,,,TRUE,TRUE,,,,,,,CLR,,,,,,,,VFR,,,,,,,,,,,,SPECI,308.0
KTOB 180713Z AUTO 03005KT 10SM SCT100 14/00 A3005 RMK AO2,KTOB,2015-04-18T07:13:00Z,44.02,-92.82,14.0,0.0,30,5,,10.0,30.050198,,,TRUE,TRUE,,,,,,,SCT,10000,,,,,,,VFR,,,,,,,,,,,,SPECI,398.0
KAIT 180713Z AUTO 04003KT 10SM CLR 09/M06 A3010 RMK AO2,KAIT,2015-04-18T07:13:00Z,46.53,-93.67,9.0,-6.0,40,3,,10.0,30.100393,,,TRUE,TRUE,,,,,,,CLR,,,,,,,,VFR,,,,,,,,,,,,SPECI,367.0
KAEL 180713Z AUTO 00000KT 10SM CLR 10/06 A3004 RMK AO2,KAEL,2015-04-18T07:13:00Z,43.68,-93.37,10.0,6.0,0,0,,10.0,30.041338,,,TRUE,TRUE,,,,,,,CLR,,,,,,,,VFR,,,,,,,,,,,,SPECI,383.0
K04W 180713Z AUTO 04005KT 10SM CLR 11/M02 A3010 RMK AO2,K04W,2015-04-18T07:13:00Z,46.02,-92.9,11.0,-2.0,40,5,,10.0,30.100393,,,TRUE,TRUE,,,,,,,CLR,,,,,,,,VFR,,,,,,,,,,,,SPECI,311.0
KLJF 180713Z AUTO 34006KT 10SM CLR 07/03 A3008 RMK AO2,KLJF,2015-04-18T07:13:00Z,45.1,-94.52,7.0,3.0,340,6,,10.0,30.079725,,,TRUE,TRUE,,,,,,,CLR,,,,,,,,VFR,,,,,,,,,,,,SPECI,348.0
KIKW 180713Z AUTO 00000KT 10SM CLR 07/04 A2997 RMK AO2 T00730040,KIKW,2015-04-18T07:13:00Z,43.67,-84.27,7.3,4.0,0,0,,10.0,29.970472,,,TRUE,TRUE,,,,,,,CLR,,,,,,,,VFR,,,,,,,,,,,,SPECI,194.0
KGDB 180713Z AUTO 00000KT 10SM CLR 06/M06 A3007 RMK AO2 T00611064,KGDB,2015-04-18T07:13:00Z,44.75,-95.55,6.1,-6.4,0,0,,10.0,30.070866,,,TRUE,TRUE,,,,,,,CLR,,,,,,,,VFR,,,,,,,,,,,,SPECI,319.0
KELO 180713Z AUTO 02003KT 10SM CLR 03/M01 A3018 RMK AO2,KELO,2015-04-18T07:13:00Z,47.82,-91.82,3.0,-1.0,20,3,,10.0,30.180119,,,TRUE,TRUE,,,,,,,CLR,,,,,,,,VFR,,,,,,,,,,,,SPECI,443.0
KDXX 180713Z AUTO 00000KT 10SM CLR 04/M04 A3006 RMK AO2,KDXX,2015-04-18T07:13:00Z,44.98,-96.18,4.0,-4.0,0,0,,10.0,30.059055,,,TRUE,TRUE,,,,,,,CLR,,,,,,,,VFR,,,,,,,,,,,,SPECI,330.0
KBLV 180713Z 00000KT 3SM R14L/4000FT BR CLR 15/15 A3000 RMK AO2A,KBLV,2015-04-18T07:13:00Z,38.53,-89.83,15.0,15.0,0,0,,3.0,30.0,,,,TRUE,,,,,,BR,CLR,,,,,,,,MVFR,,,,,,,,,,,,SPECI,138.0
KORB 180713Z AUTO 00000KT 10SM CLR 03/M02 A3017 RMK AO2,KORB,2015-04-18T07:13:00Z,48.02,-92.87,3.0,-2.0,0,0,,10.0,30.171259,,,TRUE,TRUE,,,,,,,CLR,,,,,,,,VFR,,,,,,,,,,,,METAR,397.0
KMRY 180713Z AUTO 00000KT 7SM BKN005 09/08 A3009 RMK AO2,KMRY,2015-04-18T07:13:00Z,36.58,-121.85,9.0,8.0,0,0,,7.0,30.088583,,,TRUE,TRUE,,,,,,,BKN,500,,,,,,,IFR,,,,,,,,,,,,METAR,66.0
KFOZ 180713Z AUTO 04007KT 10SM CLR 05/M01 A3016 RMK AO2,KFOZ,2015-04-18T07:13:00Z,47.77,-93.65,5.0,-1.0,40,7,,10.0,30.159449,,,TRUE,TRUE,,,,,,,CLR,,,,,,,,VFR,,,,,,,,,,,,METAR,411.0
KDVP 180713Z AUTO 00000KT 10SM CLR 10/M06 A3006 RMK AO2 T00971057,KDVP,2015-04-18T07:13:00Z,43.98,-95.78,9.7,-5.7,0,0,,10.0,30.059055,,,TRUE,TRUE,,,,,,,CLR,,,,,,,,VFR,,,,,,,,,,,,METAR,495.0
K79J 180713Z AUTO 00000KT 1/2SM FG VV001 18/16 A2994 RMK AO2 RAE12 P0000 $,K79J,2015-04-18T07:13:00Z,31.32,-86.4,18.0,16.0,0,0,,0.5,29.940945,,,TRUE,TRUE,TRUE,,,,,FG,OVX,0,,,,,,,LIFR,,,,,,0.0050,,,,,100,SPECI,94.0
RJTK 180712Z 21027G38KT 9999 FEW020 BKN200 16/08 Q1015 RMK 1CU020 5CI200 A2997,RJTK,2015-04-18T07:12:00Z,35.38,139.92,16.0,8.0,210,27,38,6.21,29.970472,,,,,,,,,,,FEW,2000,BKN,20000,,,,,VFR,,,,,,,,,,,,SPECI,6.0
RJSS 180712Z 26026G36KT 9999 FEW030 BKN/// 18/M05 Q1012 RMK 1CU030 A2990,RJSS,2015-04-18T07:12:00Z,38.12,140.92,18.0,-5.0,260,26,36,6.21,29.88189,,,,,,,,,,,FEW,3000,,,,,,,VFR,,,,,,,,,,,,SPECI,5.0
KMZH 180712Z AUTO 00000KT 10SM CLR 10/M03 A3009 RMK AO2,KMZH,2015-04-18T07:12:00Z,46.42,-92.8,10.0,-3.0,0,0,,10.0,30.088583,,,TRUE,TRUE,,,,,,,CLR,,,,,,,,VFR,,,,,,,,,,,,SPECI,328.0
KPCW 180712Z AUTO 26005KT 10SM CLR 14/08 A3000 RMK AO2 $,KPCW,2015-04-18T07:12:00Z,41.52,-82.87,14.0,8.0,260,5,,10.0,30.0,,,TRUE,TRUE,TRUE,,,,,,CLR,,,,,,,,VFR,,,,,,,,,,,,SPECI,178.0
KY63 180712Z AUTO 07008KT 10SM CLR 12/M01 A3008 RMK AO2 T01151011,KY63,2015-04-18T07:12:00Z,45.98,-96.0,11.5,-1.1,70,8,,10.0,30.079725,,,TRUE,TRUE,,,,,,,CLR,,,,,,,,VFR,,,,,,,,,,,,SPECI,367.0
KAXV 180712Z AUTO 00000KT 10SM CLR 10/07 A3005 RMK AO2,KAXV,2015-04-18T07:12:00Z,40.5,-84.3,10.0,7.0,0,0,,10.0,30.050198,,,TRUE,TRUE,,,,,,,CLR,,,,,,,,VFR,,,,,,,,,,,,SPECI,279.0
KHCD 180712Z AUTO 00000KT 10SM CLR 06/01 A3007 RMK AO2 T00560007,KHCD,2015-04-18T07:12:00Z,44.87,-94.38,5.6,0.7,0,0,,10.0,30.070866,,,TRUE,TRUE,,,,,,,CLR,,,,,,,,VFR,,,,,,,,,,,,SPECI,323.0
KD39 180712Z AUTO 04003KT 10SM CLR 11/M02 A3009 RMK AO2 T01051023,KD39,2015-04-18T07:12:00Z,45.7,-94.93,10.5,-2.3,40,3,,10.0,30.088583,,,TRUE,TRUE,,,,,,,CLR,,,,,,,,VFR,,,,,,,,,,,,SPECI,380.0
PATO 180712Z AUTO 09032G53KT 1 1/4SM -SN BR SQ OVC008 02/00 RMK AO2 PK WND 07053/0705 P0006 T00220000 TSNO $,PATO,2015-04-18T07:12:00Z,60.78,-148.85,2.2,0.0,90,32,53,1.25,,,,TRUE,TRUE,TRUE,,TRUE,,,-SN BR SQ,OVC,800,,,,,,,IFR,,,,,,0.06,,,,,,METAR,31.0
KRIL 180712Z AUTO 07004KT 10SM BKN016 OVC024 02/00 A3006 RMK AO2 T00170000,KRIL,2015-04-18T07:12:00Z,39.53,-107.73,1.7,0.0,70,4,,10.0,30.059055,,,TRUE,TRUE,,,,,,,BKN,1600,OVC,2400,,,,,MVFR,,,,,,,,,,,,METAR,1678.0
KGIF 180712Z AUTO 08004KT 9SM BKN004 23/22 A2999 RMK AO2 T02280217,KGIF,2015-04-18T07:12:00Z,28.07,-81.75,22.8,21.7,80,4,,9.0,29.991142,,,TRUE,TRUE,,,,,,,BKN,400,,,,,,,LIFR,,,,,,,,,,,,METAR,43.0
CYIO 180712Z AUTO 11005KT 6SM -SN SCT034 OVC090 M21/M23 A2968 RMK SLP058,CYIO,2015-04-18T07:12:00Z,72.67,-77.97,-21.0,-23.0,110,5,,6.0,29.681103,1005.8,,TRUE,,,,,,,-SN,SCT,3400,OVC,9000,,,,,VFR,,,,,,,,,,,,SPECI,57.0
KAMN 180711Z AUTO 00000KT 10SM CLR 09/06 A2999 RMK AO2 T00860062,KAMN,2015-04-18T07:11:00Z,43.32,-84.68,8.6,6.2,0,0,,10.0,29.991142,,,TRUE,TRUE,,,,,,,CLR,,,,,,,,VFR,,,,,,,,,,,,SPECI,230.0
KRGK 180711Z AUTO 35003KT 10SM CLR 07/02 A3005 RMK AO2,KRGK,2015-04-18T07:11:00Z,44.58,-92.48,7.0,2.0,350,3,,10.0,30.050198,,,TRUE,TRUE,,,,,,,CLR,,,,,,,,VFR,,,,,,,,,,,,SPECI,239.0
KSGS 180711Z AUTO 00000KT 10SM CLR 09/01 A3005 RMK AO2 T00910013,KSGS,2015-04-18T07:11:00Z,44.87,-93.03,9.1,1.3,0,0,,10.0,30.050198,,,TRUE,TRUE,,,,,,,CLR,,,,,,,,VFR,,,,,,,,,,,,SPECI,250.0
KJKJ 180711Z AUTO 01007KT 10SM CLR 05/M06 A3012 RMK AO2,KJKJ,2015-04-18T07:11:00Z,46.83,-96.67,5.0,-6.0,10,7,,10.0,30.121063,,,TRUE,TRUE,,,,,,,CLR,,,,,,,,VFR,,,,,,,,,,,,SPECI,280.0
KEVM 180711Z AUTO 04010G15KT 10SM CLR 06/M01 A3015 RMK AO2,KEVM,2015-04-18T07:11:00Z,47.42,-92.5,6.0,-1.0,40,10,15,10.0,30.15059,,,TRUE,TRUE,,,,,,,CLR,,,,,,,,VFR,,,,,,,,,,,,SPECI,421.0
KBJI 180711Z AUTO 06005KT 10SM CLR 04/M02 A3014 RMK AO2 T00351025,KBJI,2015-04-18T07:11:00Z,47.5,-94.92,3.5,-2.5,60,5,,10.0,30.138779,,,TRUE,TRUE,,,,,,,CLR,,,,,,,,VFR,,,,,,,,,,,,SPECI,420.0
VCRI 180710Z 16006KT 100V210 9999 SCT016 SCT280 32/25 Q1008 NOSIG,VCRI,2015-04-18T07:10:00Z,6.28,81.13,32.0,25.0,160,6,,6.21,29.763779,,,,,,TRUE,,,,,SCT,1600,SCT,28000,,,,,VFR,,,,,,,,,,,,METAR,7.0
VCBI 180710Z 26008KT 240V320 9999 FEW016 32/24 Q1008 NOSIG,VCBI,2015-04-18T07:10:00Z,7.17,79.87,32.0,24.0,260,8,,6.21,29.763779,,,,,,TRUE,,,,,FEW,1600,,,,,,,VFR,,,,,,,,,,,,METAR,8.0
KMCC 180710Z AUTO 15006KT 10SM CLR 15/05 A3001 RMK AO2,KMCC,2015-04-18T07:10:00Z,38.67,-121.4,15.0,5.0,150,6,,10.0,30.008858,,,TRUE,TRUE,,,,,,,CLR,,,,,,,,VFR,,,,,,,,,,,,SPECI,23.0
VABB 180710Z 26010KT 2500 HZ NSC 32/27 Q1009 NOSIG,VABB,2015-04-18T07:10:00Z,19.1,72.87,32.0,27.0,260,10,,1.55,29.793306,,,,,,TRUE,,,,HZ,,,,,,,,,,,,,,,,,,,,,METAR,8.0
VOHS 180710Z 09009KT 6000 NSC 36/15 Q1012 NOSIG,VOHS,2015-04-18T07:10:00Z,17.23,78.43,36.0,15.0,90,9,,3.73,29.88189,,,,,,TRUE,,,,,,,,,,,,,,,,,,,,,,,,,METAR,1.0
VOMM 180710Z 06003KT 9999 FEW020 35/21 Q1007 NOSIG,VOMM,2015-04-18T07:10:00Z,13.0,80.17,35.0,21.0,60,3,,6.21,29.734253,,,,,,TRUE,,,,,FEW,2000,,,,,,,VFR,,,,,,,,,,,,METAR,16.0
VOTR 180710Z 30006KT 8000 FEW016 32/23 Q1008 NOSIG,VOTR,2015-04-18T07:10:00Z,10.77,78.72,32.0,23.0,300,6,,4.97,29.763779,,,,,,TRUE,,,,,FEW,1600,,,,,,,MVFR,,,,,,,,,,,,METAR,88.0
K8S0 180710Z 25007KT ,K8S0,2015-04-18T07:10:00Z,48.6,-113.12,,,250,7,,,,,,,,,,,,,,,,,,,,,,,,,,,,,,,,,,METAR,1419.0
KRZN 180710Z AUTO 05007KT 10SM CLR 12/M05 A3009 RMK AO2 T01201046,KRZN,2015-04-18T07:10:00Z,45.82,-92.37,12.0,-4.6,50,7,,10.0,30.088583,,,TRUE,TRUE,,,,,,,CLR,,,,,,,,VFR,,,,,,,,,,,,SPECI,301.0
KMRJ 180710Z AUTO 34003KT 10SM CLR 12/06 A3003 RMK AO2,KMRJ,2015-04-18T07:10:00Z,42.88,-90.23,12.0,6.0,340,3,,10.0,30.029528,,,TRUE,TRUE,,,,,,,CLR,,,,,,,,VFR,,,,,,,,,,,,SPECI,359.0
KGLW 180710Z AUTO 00000KT 1 3/4SM BR VV007 12/12 A3003 RMK AO2 T01230123,KGLW,2015-04-18T07:10:00Z,37.03,-85.95,12.3,12.3,0,0,,1.75,30.029528,,,TRUE,TRUE,,,,,,BR,OVX,0,,,,,,,LIFR,,,,,,,,,,,700,SPECI,218.0
KETB 180710Z AUTO 00000KT 10SM CLR 09/05 A3001 RMK AO2,KETB,2015-04-18T07:10:00Z,43.42,-88.13,9.0,5.0,0,0,,10.0,30.008858,,,TRUE,TRUE,,,,,,,CLR,,,,,,,,VFR,,,,,,,,,,,,SPECI,270.0
KBWP 180710Z AUTO 03006KT 10SM CLR 08/M07 A3009 RMK AO1,KBWP,2015-04-18T07:10:00Z,46.25,-96.62,8.0,-7.0,30,6,,10.0,30.088583,,,TRUE,TRUE,,,,,,,CLR,,,,,,,,VFR,,,,,,,,,,,,SPECI,295.0
KAIG 180710Z AUTO 30005KT 10SM CLR 05/01 A3004 RMK AO2 T00480013,KAIG,2015-04-18T07:10:00Z,45.15,-89.12,4.8,1.3,300,5,,10.0,30.041338,,,TRUE,TRUE,,,,,,,CLR,,,,,,,,VFR,,,,,,,,,,,,SPECI,464.0
K6I2 180710Z AUTO 36003KT 5SM BR CLR 14/13 A3004 RMK AO2,K6I2,2015-04-18T07:10:00Z,37.63,-85.25,14.0,13.0,360,3,,5.0,30.041338,,,TRUE,TRUE,,,,,,BR,CLR,,,,,,,,MVFR,,,,,,,,,,,,SPECI,264.0
KEDJ 180710Z AUTO 00000KT 10SM CLR 10/04 A3005 RMK AO1,KEDJ,2015-04-18T07:10:00Z,40.37,-83.82,10.0,4.0,0,0,,10.0,30.050198,,,TRUE,TRUE,,,,,,,CLR,,,,,,,,VFR,,,,,,,,,,,,SPECI,342.0
KMDS 180710Z AUTO 05006KT 10SM SCT120 09/M06 A3005 RMK AO2,KMDS,2015-04-18T07:10:00Z,44.02,-97.08,9.0,-6.0,50,6,,10.0,30.050198,,,TRUE,TRUE,,,,,,,SCT,12000,,,,,,,VFR,,,,,,,,,,,,SPECI,524.0
KSTK 180710Z AUTO 01014G22KT 10SM -DZ SCT035 BKN048 OVC060 06/04 A2998 RMK AO2,KSTK,2015-04-18T07:10:00Z,40.62,-103.27,6.0,4.0,10,14,22,10.0,29.97933,,,TRUE,TRUE,,,,,,-DZ,SCT,3500,BKN,4800,OVC,6000,,,VFR,,,,,,,,,,,,SPECI,1231.0
KSQL 180710Z AUTO 35003KT 10SM CLR 12/08 A3008 RMK AO2,KSQL,2015-04-18T07:10:00Z,37.52,-122.25,12.0,8.0,350,3,,10.0,30.079725,,,TRUE,TRUE,,,,,,,CLR,,,,,,,,VFR,,,,,,,,,,,,SPECI,1.0
KSYM 180710Z AUTO 00000KT 6SM BR FEW050 14/13 A3006 RMK AO2,KSYM,2015-04-18T07:10:00Z,38.22,-83.58,14.0,13.0,0,0,,6.0,30.059055,,,TRUE,TRUE,,,,,,BR,FEW,5000,,,,,,,VFR,,,,,,,,,,,,SPECI,313.0
K21D 180710Z AUTO 00000KT 10SM CLR 06/03 A3006 RMK AO2,K21D,2015-04-18T07:10:00Z,45.0,-92.85,6.0,3.0,0,0,,10.0,30.059055,,,TRUE,TRUE,,,,,,,CLR,,,,,,,,VFR,,,,,,,,,,,,SPECI,285.0
KCVH 180710Z AUTO 21003KT 7SM CLR 09/07 A3009 RMK AO1,KCVH,2015-04-18T07:10:00Z,36.9,-121.42,9.0,7.0,210,3,,7.0,30.088583,,,TRUE,TRUE,,,,,,,CLR,,,,,,,,VFR,,,,,,,,,,,,SPECI,70.0
KCEZ 180710Z AUTO 00000KT 1 1/4SM -SN BR BKN003 OVC011 01/00 A3002 RMK AO2 P0001 T00060000,KCEZ,2015-04-18T07:10:00Z,37.3,-108.63,0.6,0.0,0,0,,1.25,30.02067,,,TRUE,TRUE,,,,,,-SN BR,BKN,300,OVC,1100,,,,,LIFR,,,,,,0.01,,,,,,SPECI,1797.0
KALI 180710Z AUTO 14008KT 10SM SCT006 21/19 A2984 RMK AO2 T02060189,KALI,2015-04-18T07:10:00Z,27.73,-98.02,20.6,18.9,140,8,,10.0,29.840551,,,TRUE,TRUE,,,,,,,SCT,600,,,,,,,VFR,,,,,,,,,,,,SPECI,53.0
CWUW 180710Z AUTO 23004KT 8SM FEW017 FEW021 SCT095 M21/ A2959 RMK ICG PAST HR,CWUW,2015-04-18T07:10:00Z,68.65,-71.17,-21.0,,230,4,,8.0,29.589567,,,TRUE,,,,,,,,FEW,1700,FEW,2100,SCT,9500,,,VFR,,,,,,,,,,,,SPECI,527.0
MMMY 180710Z 11007KT 1/2SM FG VV002 23/23 A2983 RMK 8////,MMMY,2015-04-18T07:10:00Z,25.77,-100.08,23.0,23.0,110,7,,0.5,29.828741,,,,,,,,,,FG,OVX,0,,,,,,,LIFR,,,,,,,,,,,200,SPECI,387.0
LIRI 180710Z 20008KT 7000 SCT020 BKN040 16/13 Q1016,LIRI,2015-04-18T07:10:00Z,40.62,14.92,16.0,13.0,200,8,,4.35,30.0,,,,,,,,,,,SCT,2000,BKN,4000,,,,,MVFR,,,,,,,,,,,,SPECI,40.0
YCNM 180710Z AUTO 25021KT 250V360 //// // ////// 21/18 Q1015,YCNM,2015-04-18T07:10:00Z,-30.98,148.38,21.0,18.0,250,21,,,29.970472,,,TRUE,,,,,,,,,,,,,,,,,,,,,,,,,,,,SPECI,184.0
KMTJ 180709Z AUTO 00000KT 10SM BKN003 OVC012 00/00 A3008 RMK AO2 SNE0656 P0000 T00000000,KMTJ,2015-04-18T07:09:00Z,38.5,-107.9,0.0,0.0,0,0,,10.0,30.079725,,,TRUE,TRUE,,,,,,,BKN,300,OVC,1200,,,,,LIFR,,,,,,0.0050,,,,,,METAR,1750.0
KGNV 180709Z AUTO 00000KT 5SM BR BKN005 OVC110 21/20 A2997 RMK AO2 T02060200 $,KGNV,2015-04-18T07:09:00Z,29.7,-82.28,20.6,20.0,0,0,,5.0,29.970472,,,TRUE,TRUE,TRUE,,,,,BR,BKN,500,OVC,11000,,,,,IFR,,,,,,,,,,,,METAR,45.0
KNFE 180709Z AUTO 00000KT 1 3/4SM HZ CLR 17/13 A2996 RMK AO2 T01670133,KNFE,2015-04-18T07:09:00Z,36.7,-76.13,16.7,13.3,0,0,,1.75,29.958662,,,TRUE,TRUE,,,,,,HZ,CLR,,,,,,,,IFR,,,,,,,,,,,,SPECI,5.0
KTKC 180708Z AUTO 00000KT 10SM CLR 10/M05 A3005 RMK AO2 T00991046,KTKC,2015-04-18T07:08:00Z,44.25,-95.62,9.9,-4.6,0,0,,10.0,30.050198,,,TRUE,TRUE,,,,,,,CLR,,,,,,,,VFR,,,,,,,,,,,,SPECI,408.0
LIRV 180708Z 06004KT 030V090 0900 FG FEW010 SCT030 12/10 Q1015 RMK BKN MON E SE INVIS NC VIS MIN 0900 AMB,LIRV,2015-04-18T07:08:00Z,42.42,12.07,12.0,10.0,60,4,,0.56,29.970472,,,,,,,,,,FG,FEW,1000,SCT,3000,,,,,LIFR,,,,,,,,,,,,METAR,300.0
PAIK 180708Z AUTO 00000KT 10SM BKN017 OVC055 M10/M13 A2993 RMK AO2 FZRANO,PAIK,2015-04-18T07:08:00Z,66.98,-160.43,-10.0,-13.0,0,0,,10.0,29.929134,,,TRUE,TRUE,,,,TRUE,,,BKN,1700,OVC,5500,,,,,MVFR,,,,,,,,,,,,METAR,51.0
PADM 180708Z AUTO 03013KT 10SM FEW024 BKN036 01/M04 A2960 RMK AO2 TSNO $,PADM,2015-04-18T07:08:00Z,61.87,-162.03,1.0,-4.0,30,13,,10.0,29.601377,,,TRUE,TRUE,TRUE,,TRUE,,,,FEW,2400,BKN,3600,,,,,VFR,,,,,,,,,,,,METAR,31.0
KDTS 180708Z AUTO 00000KT 10SM SCT010 OVC022 23/22 A2992 RMK AO2 T02280217 TSNO,KDTS,2015-04-18T07:08:00Z,30.4,-86.47,22.8,21.7,0,0,,10.0,29.920275,,,TRUE,TRUE,,,TRUE,,,,SCT,1000,OVC,2200,,,,,MVFR,,,,,,,,,,,,SPECI,5.0
KCBM 180708Z AUTO 01004KT 10SM OVC002 16/16 A2997 RMK AO2,KCBM,2015-04-18T07:08:00Z,33.63,-88.45,16.0,16.0,10,4,,10.0,29.970472,,,TRUE,TRUE,,,,,,,OVC,200,,,,,,,LIFR,,,,,,,,,,,,SPECI,67.0
CWND M02/M02 RMK 0625Z 1034 T10151015,CWND,2015-04-18T07:08:00Z,69.63,-135.43,-1.5,-1.5,,,,,,,,,,,,,,,,,,,,,,,,,,,,,,,,,,,,METAR,12.0
KSFO 180707Z 29010KT 9SM FEW003 11/11 A3007 RMK AO2,KSFO,2015-04-18T07:07:00Z,37.62,-122.37,11.0,11.0,290,10,,9.0,30.070866,,,,TRUE,,,,,,,FEW,300,,,,,,,VFR,,,,,,,,,,,,SPECI,3.0
KPGD 180707Z AUTO 06004KT 4SM BR BKN009 BKN017 OVC070 21/21 A3000 RMK AO2 T02110211,KPGD,2015-04-18T07:07:00Z,26.92,-82.0,21.1,21.1,60,4,,4.0,30.0,,,TRUE,TRUE,,,,,,BR,BKN,900,BKN,1700,OVC,7000,,,IFR,,,,,,,,,,,,SPECI,7.0
KHKY 180707Z AUTO 00000KT 3/4SM BR VV002 16/16 A2998 RMK AO2 T01610156,KHKY,2015-04-18T07:07:00Z,35.75,-81.38,16.1,15.6,0,0,,0.75,29.97933,,,TRUE,TRUE,,,,,,BR,OVX,0,,,,,,,LIFR,,,,,,,,,,,200,SPECI,354.0
KGAG 180707Z AUTO 22006KT 10SM FEW016 14/13 A2994 RMK AO2 T01440133,KGAG,2015-04-18T07:07:00Z,36.3,-99.77,14.4,13.3,220,6,,10.0,29.940945,,,TRUE,TRUE,,,,,,,FEW,1600,,,,,,,VFR,,,,,,,,,,,,SPECI,668.0
KDHN 180707Z AUTO 35003KT 1/4SM FG VV002 16/16 A2996 RMK AO2 T01610161,KDHN,2015-04-18T07:07:00Z,31.32,-85.45,16.1,16.1,350,3,,0.25,29.958662,,,TRUE,TRUE,,,,,,FG,OVX,0,,,,,,,LIFR,,,,,,,,,,,200,SPECI,113.0
KMIV 180706Z AUTO 00000KT 1/4SM FG VV003 12/12 A2996 RMK AO2 T01220122,KMIV,2015-04-18T07:06:00Z,39.37,-75.08,12.2,12.2,0,0,,0.25,29.958662,,,TRUE,TRUE,,,,,,FG,OVX,0,,,,,,,LIFR,,,,,,,,,,,300,SPECI,23.0
KDGW 180706Z AUTO 32006KT 10SM OVC013 03/03 A3008 RMK AO2 T00280028,KDGW,2015-04-18T07:06:00Z,42.8,-105.38,2.8,2.8,320,6,,10.0,30.079725,,,TRUE,TRUE,,,,,,,OVC,1300,,,,,,,MVFR,,,,,,,,,,,,SPECI,1499.0
KCEU 180706Z AUTO 00000KT 3/4SM BR BKN002 OVC080 17/16 A3000 RMK AO2 RAE0655 P0000 T01720156,KCEU,2015-04-18T07:06:00Z,34.67,-82.88,17.2,15.6,0,0,,0.75,30.0,,,TRUE,TRUE,,,,,,BR,BKN,200,OVC,8000,,,,,LIFR,,,,,,0.0050,,,,,,SPECI,268.0
CYHK 180706Z AUTO 29012KT 6SM -SN BKN025 OVC031 M17/M18 A2994 RMK SLP145,CYHK,2015-04-18T07:06:00Z,68.62,-95.83,-17.0,-18.0,290,12,,6.0,29.940945,1014.5,,TRUE,,,,,,,-SN,BKN,2500,OVC,3100,,,,,MVFR,,,,,,,,,,,,SPECI,46.0
CYMM 180706Z AUTO 25004KT 9SM -RA BKN015 OVC030 04/04 A2988 RMK SLP133,CYMM,2015-04-18T07:06:00Z,56.65,-111.22,4.0,4.0,250,4,,9.0,29.878937,1013.3,,TRUE,,,,,,,-RA,BKN,1500,OVC,3000,,,,,MVFR,,,,,,,,,,,,SPECI,369.0
CYYC 180705Z 35016G21KT 6SM -RA BR FEW020 OVC042 08/M00 A3009 RMK SC2SC6 PRESRR SLP201,CYYC,2015-04-18T07:05:00Z,51.12,-114.02,8.0,0.0,350,16,21,6.0,30.088583,1020.1,,,,,,,,,-RA BR,FEW,2000,OVC,4200,,,,,VFR,,,,,,,,,,,,SPECI,1084.0
KO86 180705Z AUTO 23003KT 10SM CLR 09/03 A3011 RMK AO1,KO86,2015-04-18T07:05:00Z,40.98,-122.7,9.0,3.0,230,3,,10.0,30.109253,,,TRUE,TRUE,,,,,,,CLR,,,,,,,,VFR,,,,,,,,,,,,SPECI,729.0
MUCL 180705Z AUTO VRB01KT 24/21 Q1015,MUCL,2015-04-18T07:05:00Z,21.63,-81.55,24.0,21.0,0,1,,,29.970472,,,TRUE,,,,,,,,,,,,,,,,,,,,,,,,,,,,METAR,5.0
KMKL 180705Z AUTO 08003KT 3/4SM BR VV001 12/12 A2999 RMK AO2 T01220117,KMKL,2015-04-18T07:05:00Z,35.6,-88.92,12.2,11.7,80,3,,0.75,29.991142,,,TRUE,TRUE,,,,,,BR,OVX,0,,,,,,,LIFR,,,,,,,,,,,100,METAR,128.0
KLFT 180705Z AUTO 23004KT 9SM -RA FEW008 SCT065 BKN120 22/21 A2994 RMK AO2 LTG DSNT NW-E P0001 T02170211,KLFT,2015-04-18T07:05:00Z,30.2,-92.0,21.7,21.1,230,4,,9.0,29.940945,,,TRUE,TRUE,,,,,,-RA,FEW,800,SCT,6500,BKN,12000,,,VFR,,,,,,0.01,,,,,,METAR,11.0
KLFK 180704Z AUTO 01003KT 7SM SCT012 OVC090 22/19 A2991 RMK AO2 T02170194,KLFK,2015-04-18T07:04:00Z,31.23,-94.75,21.7,19.4,10,3,,7.0,29.911417,,,TRUE,TRUE,,,,,,,SCT,1200,OVC,9000,,,,,VFR,,,,,,,,,,,,METAR,88.0
RJSH 180704Z 22010KT 9999 FEW015 BKN030 FEW035CB BKN100 10/07 Q1009 RETS RMK 1CU015 6CU030 1CB035 7AC100 A2981 CB 15KM E MOV E,RJSH,2015-04-18T07:04:00Z,40.53,141.47,10.0,7.0,220,10,,6.21,29.793306,,,,,,,,,,,FEW,1500,BKN,3000,FEW,3500,BKN,10000,MVFR,,,,,,,,,,,,SPECI,49.0
RJCT 180704Z 29010G21KT 9999 -SHRA SCT030 BKN040 BKN050 08/02 Q1007 RMK 3CU030 5CU040 6CU050 A2975 W/E,RJCT,2015-04-18T07:04:00Z,42.88,143.17,8.0,2.0,290,10,21,6.21,29.734253,,,,,,,,,,-SHRA,SCT,3000,BKN,4000,BKN,5000,,,VFR,,,,,,,,,,,,METAR,84.0
KHSV 180703Z AUTO 02005KT 1/4SM R18R/1600V3000FT FG VV002 16/14 A3000 RMK AO2 PRESFR T01560139 $,KHSV,2015-04-18T07:03:00Z,34.65,-86.78,15.6,13.9,20,5,,0.25,30.0,,,TRUE,TRUE,TRUE,,,,,FG,OVX,0,,,,,,,LIFR,,,,,,,,,,,200,SPECI,191.0
KARA 180703Z AUTO 15003KT 9SM -RA BKN110 21/20 A2994 RMK AO2 LTG DSNT N-E P0001 T02110200,KARA,2015-04-18T07:03:00Z,30.03,-91.88,21.1,20.0,150,3,,9.0,29.940945,,,TRUE,TRUE,,,,,,-RA,BKN,11000,,,,,,,VFR,,,,,,0.01,,,,,,SPECI,18.0
KEND 180703Z AUTO 23004KT 10SM FEW019 SCT100 16/15 A2994 RMK AO2 DZE01 $,KEND,2015-04-18T07:03:00Z,36.32,-97.92,16.0,15.0,230,4,,10.0,29.940945,,,TRUE,TRUE,TRUE,,,,,,FEW,1900,SCT,10000,,,,,VFR,,,,,,,,,,,,SPECI,398.0
KDOV 180703Z AUTO VRB01KT 9SM CLR 14/14 A2993 RMK AO2,KDOV,2015-04-18T07:03:00Z,39.12,-75.47,14.0,14.0,0,1,,9.0,29.929134,,,TRUE,TRUE,,,,,,,CLR,,,,,,,,VFR,,,,,,,,,,,,SPECI,9.0
GMFF 180702Z 00000KT 0400 R27/N R09/0650N FG BKN003 SCT230 11/10 Q1018 NOSIG M2M3,GMFF,2015-04-18T07:02:00Z,33.92,-4.97,11.0,10.0,0,0,,0.25,30.059055,,,,,,TRUE,,,,FG,BKN,300,SCT,23000,,,,,LIFR,,,,,,,,,,,,METAR,579.0
KDCU 180702Z AUTO 05004KT 3SM BR SCT002 15/15 A3000 RMK AO2 T01500150,KDCU,2015-04-18T07:02:00Z,34.65,-86.95,15.0,15.0,50,4,,3.0,30.0,,,TRUE,TRUE,,,,,,BR,SCT,200,,,,,,,MVFR,,,,,,,,,,,,SPECI,176.0
KMYP 180701Z AUTO M10/M11 A3012 RMK AO2 PWINO,KMYP,2015-04-18T07:01:00Z,38.48,-106.32,-10.0,-11.0,,,,,30.121063,,,TRUE,TRUE,,,,,TRUE,,,,,,,,,,,,,,,,,,,,,,SPECI,3667.0
KMWM 180701Z AUTO 03005KT 10SM CLR 12/M04 A3005 RMK AO2,KMWM,2015-04-18T07:01:00Z,43.9,-95.1,12.0,-4.0,30,5,,10.0,30.050198,,,TRUE,TRUE,,,,,,,CLR,,,,,,,,VFR,,,,,,,,,,,,SPECI,430.0
RJTT 180701Z 20018G28KT CAVOK 18/08 Q1014 RMK A2995,RJTT,2015-04-18T07:01:00Z,35.53,139.77,18.0,8.0,200,18,28,6.21,29.940945,,,,,,,,,,,CAVOK,,,,,,,,VFR,,,,,,,,,,,,SPECI,8.0
KDEN 180701Z 04004KT 10SM FEW007 SCT018 OVC150 03/02 A3001 RMK AO2 T00330022 $,KDEN,2015-04-18T07:01:00Z,39.85,-104.65,3.3,2.2,40,4,,10.0,30.008858,,,,TRUE,TRUE,,,,,,FEW,700,SCT,1800,OVC,15000,,,VFR,,,,,,,,,,,,METAR,1640.0
KCYS 180701Z AUTO 33005KT 3/4SM BR OVC002 01/00 A3003 RMK AO2 T00060000 RVRNO,KCYS,2015-04-18T07:01:00Z,41.15,-104.8,0.6,0.0,330,5,,0.75,30.029528,,,TRUE,TRUE,,,,,,BR,OVC,200,,,,,,,LIFR,,,,,,,,,,,,METAR,1868.0
KBTR 180701Z 00000KT 2 1/2SM -RA BR FEW075 FEW095 BKN120 21/21 A2996 RMK AO2 P0001 T02110206,KBTR,2015-04-18T07:01:00Z,30.53,-91.15,21.1,20.6,0,0,,2.5,29.958662,,,,TRUE,,,,,,-RA BR,FEW,7500,FEW,9500,BKN,12000,,,IFR,,,,,,0.01,,,,,,METAR,21.0
KAEX 180701Z 08003KT 5SM -RA BR FEW075 OVC110 21/21 A2993 RMK AO2 P0000 T02110206,KAEX,2015-04-18T07:01:00Z,31.33,-92.57,21.1,20.6,80,3,,5.0,29.929134,,,,TRUE,,,,,,-RA BR,FEW,7500,OVC,11000,,,,,MVFR,,,,,,0.0050,,,,,,METAR,27.0
PABA 180701Z AUTO 08008KT 9SM -SN OVC011 M22/M24 A3016 RMK AO2 SNB0634 SLP212 P0000 T12171239 FZRANO,PABA,2015-04-18T07:01:00Z,70.13,-143.58,-21.7,-23.9,80,8,,9.0,30.159449,1021.2,,TRUE,TRUE,,,,TRUE,,-SN,OVC,1100,,,,,,,MVFR,,,,,,0.0050,,,,,,METAR,2.0
NFNA 180700Z 14007KT 9999 BKN020 BKN048 26/23 Q1015 ,NFNA,2015-04-18T07:00:00Z,-18.05,178.57,26.0,23.0,140,7,,6.21,29.970472,,,,,,,,,,,BKN,2000,BKN,4800,,,,,MVFR,,,,,,,,,,,,METAR,5.0
WMKA 180700Z 22004KT 140V290 9999 FEW017CB SCT020 BKN300 33/26 Q1008,WMKA,2015-04-18T07:00:00Z,6.2,100.4,33.0,26.0,220,4,,6.21,29.763779,,,,,,,,,,,FEW,1700,SCT,2000,BKN,30000,,,VFR,,,,,,,,,,,,METAR,5.0
WMBA 180700Z 18003KT 9999 FEW022 BKN280 32/26 Q1008,WMBA,2015-04-18T07:00:00Z,4.22,100.7,32.0,26.0,180,3,,6.21,29.763779,,,,,,,,,,,FEW,2200,BKN,28000,,,,,VFR,,,,,,,,,,,,METAR,8.0
WMAU 180700Z 05005KT 9999 FEW020 SCT140 BKN270 32/26 Q//// QFF1008,WMAU,2015-04-18T07:00:00Z,2.38,103.88,32.0,26.0,50,5,,6.21,,,,,,,,,,,,FEW,2000,SCT,14000,BKN,27000,,,VFR,,,,,,,,,,,,METAR,45.0
WMKI 180700Z 23004KT 9999 FEW017CB BKN290 33/25 Q1008,WMKI,2015-04-18T07:00:00Z,4.57,101.08,33.0,25.0,230,4,,6.21,29.763779,,,,,,,,,,,FEW,1700,BKN,29000,,,,,VFR,,,,,,,,,,,,METAR,39.0
WMKE 180700Z 13005KT 9999 FEW018 BKN270 33/25 Q1008,WMKE,2015-04-18T07:00:00Z,4.53,103.43,33.0,25.0,130,5,,6.21,29.763779,,,,,,,,,,,FEW,1800,BKN,27000,,,,,VFR,,,,,,,,,,,,METAR,5.0
WMKD 180700Z 10007KT 030V200 9999 SCT019 BKN280 34/25 Q1008 NOSIG,WMKD,2015-04-18T07:00:00Z,3.77,103.22,34.0,25.0,100,7,,6.21,29.763779,,,,,,TRUE,,,,,SCT,1900,BKN,28000,,,,,VFR,,,,,,,,,,,,METAR,16.0
WMKC 180700Z 06012KT 010V070 9999 FEW018 BKN280 33/27 Q1008,WMKC,2015-04-18T07:00:00Z,6.17,102.27,33.0,27.0,60,12,,6.21,29.763779,,,,,,,,,,,FEW,1800,BKN,28000,,,,,VFR,,,,,,,,,,,,METAR,5.0
WMKB 180700Z 29006KT 240V340 9000 FEW017CB SCT150 BKN280 32/26 Q1008 NOSIG,WMKB,2015-04-18T07:00:00Z,5.47,100.37,32.0,26.0,290,6,,5.59,29.763779,,,,,,TRUE,,,,,FEW,1700,SCT,15000,BKN,28000,,,VFR,,,,,,,,,,,,METAR,4.0
VRMM 180700Z 30010KT 9999 SCT019 32/25 Q1010 NOSIG,VRMM,2015-04-18T07:00:00Z,4.2,73.52,32.0,25.0,300,10,,6.21,29.822834,,,,,,TRUE,,,,,SCT,1900,,,,,,,VFR,,,,,,,,,,,,METAR,2.0
HEMA 180700Z 35021G35KT CAVOK 24/09 Q1019 NOSIG,HEMA,2015-04-18T07:00:00Z,25.55,34.58,24.0,9.0,350,21,35,6.21,30.088583,,,,,,TRUE,,,,,CAVOK,,,,,,,,VFR,,,,,,,,,,,,METAR,77.0
HESG 180700Z 34016KT CAVOK 22/01 Q1020 NOSIG,HESG,2015-04-18T07:00:00Z,26.33,31.75,22.0,1.0,340,16,,6.21,30.11811,,,,,,TRUE,,,,,CAVOK,,,,,,,,VFR,,,,,,,,,,,,METAR,70.0
HESC 180700Z 05006KT CAVOK 15/01 Q1027 NOSIG,HESC,2015-04-18T07:00:00Z,28.68,34.07,15.0,1.0,50,6,,6.21,30.324802,,,,,,TRUE,,,,,CAVOK,,,,,,,,VFR,,,,,,,,,,,,METAR,1332.0
HEBL 180700Z 36008KT CAVOK 23/01 Q1019 NOSIG,HEBL,2015-04-18T07:00:00Z,22.38,31.62,23.0,1.0,360,8,,6.21,30.088583,,,,,,TRUE,,,,,CAVOK,,,,,,,,VFR,,,,,,,,,,,,METAR,188.0
HEBA 180700Z 00000KT CAVOK 19/08 Q1024 NOSIG,HEBA,2015-04-18T07:00:00Z,30.92,29.7,19.0,8.0,0,0,,6.21,30.236221,,,,,,TRUE,,,,,CAVOK,,,,,,,,VFR,,,,,,,,,,,,METAR,54.0
HEAT 180700Z 34013KT CAVOK 19/03 Q1023 NOSIG,HEAT,2015-04-18T07:00:00Z,27.05,31.02,19.0,3.0,340,13,,6.21,30.206694,,,,,,TRUE,,,,,CAVOK,,,,,,,,VFR,,,,,,,,,,,,METAR,70.0
HESH 180700Z 01020KT CAVOK 24/08 Q1019 NOSIG,HESH,2015-04-18T07:00:00Z,27.97,34.38,24.0,8.0,10,20,,6.21,30.088583,,,,,,TRUE,,,,,CAVOK,,,,,,,,VFR,,,,,,,,,,,,METAR,50.0
HEPS 180700Z 04003KT CAVOK 19/14 Q1024 NOSIG,HEPS,2015-04-18T07:00:00Z,31.28,32.25,19.0,14.0,40,3,,6.21,30.236221,,,,,,TRUE,,,,,CAVOK,,,,,,,,VFR,,,,,,,,,,,,METAR,6.0
HEGN 180700Z 35017KT CAVOK 23/07 Q1021 NOSIG,HEGN,2015-04-18T07:00:00Z,27.18,33.8,23.0,7.0,350,17,,6.21,30.147638,,,,,,TRUE,,,,,CAVOK,,,,,,,,VFR,,,,,,,,,,,,METAR,14.0
HEAR 180700Z 19004KT CAVOK 20/20 Q1024 NOSIG,HEAR,2015-04-18T07:00:00Z,31.07,33.82,20.0,20.0,190,4,,6.21,30.236221,,,,,,TRUE,,,,,CAVOK,,,,,,,,VFR,,,,,,,,,,,,METAR,32.0
HESN 180700Z 36009KT CAVOK 23/M01 Q1019 NOSIG,HESN,2015-04-18T07:00:00Z,23.97,32.82,23.0,-1.0,360,9,,6.21,30.088583,,,,,,TRUE,,,,,CAVOK,,,,,,,,VFR,,,,,,,,,,,,METAR,194.0
HELX 180700Z 00000KT CAVOK 22/06 Q1020 NOSIG,HELX,2015-04-18T07:00:00Z,25.67,32.7,22.0,6.0,0,0,,6.21,30.11811,,,,,,TRUE,,,,,CAVOK,,,,,,,,VFR,,,,,,,,,,,,METAR,88.0
HEAX 180700Z 11002KT 6000 NSC 19/14 Q1024 NOSIG,HEAX,2015-04-18T07:00:00Z,31.18,29.93,19.0,14.0,110,2,,3.73,30.236221,,,,,,TRUE,,,,,,,,,,,,,,,,,,,,,,,,,SPECI,7.0
HEMM 180700Z 22008KT CAVOK 22/05 Q1024 NOSIG,HEMM,2015-04-18T07:00:00Z,31.32,27.22,22.0,5.0,220,8,,6.21,30.236221,,,,,,TRUE,,,,,CAVOK,,,,,,,,VFR,,,,,,,,,,,,METAR,30.0
HKMU 180700Z 00000KT 9999 SCT025 BKN090 25/18,HKMU,2015-04-18T07:00:00Z,-2.27,37.82,25.0,18.0,0,0,,6.21,,,,,,,,,,,,SCT,2500,BKN,9000,,,,,VFR,,,,,,,,,,,,METAR,1000.0
SAOC 180700Z 27003KT CAVOK 08/06 Q1015,SAOC,2015-04-18T07:00:00Z,-33.12,-64.27,8.0,6.0,270,3,,6.21,29.970472,,,,,,,,,,,CAVOK,,,,,,,,VFR,,,,,,,,,,,,METAR,421.0
UCFO 180700Z 29004MPS 4300 -SHRA BR SCT010 BKN033CB OVC100 11/09 Q1018 R12/CLRD70 TEMPO 26008G13MPS 2000 SHRA BR SCT003 BKN010CB,UCFO,2015-04-18T07:00:00Z,40.6,72.8,11.0,9.0,290,8,,2.67,30.059055,,,,,,,,,,-SHRA BR,SCT,1000,BKN,3300,OVC,10000,,,IFR,,,,,,,,,,,,METAR,884.0
UCFM 180700Z 31004MPS 9999 SCT066CB OVC130 16/08 Q1016 R26/CLRD70 NOSIG,UCFM,2015-04-18T07:00:00Z,43.07,74.48,16.0,8.0,310,8,,6.21,30.0,,,,,,TRUE,,,,,SCT,6600,OVC,13000,,,,,VFR,,,,,,,,,,,,METAR,633.0
WBKW 180700Z 34006KT 9999 FEW016CB BKN300 29/24 Q1007 RETS,WBKW,2015-04-18T07:00:00Z,4.32,118.12,29.0,24.0,340,6,,6.21,29.734253,,,,,,,,,,,FEW,1600,BKN,30000,,,,,VFR,,,,,,,,,,,,METAR,20.0
WBKT 180700Z 06008KT 010V120 9999 FEW015 BKN290 31/26 Q1007,WBKT,2015-04-18T07:00:00Z,6.92,116.82,31.0,26.0,60,8,,6.21,29.734253,,,,,,,,,,,FEW,1500,BKN,29000,,,,,VFR,,,,,,,,,,,,METAR,5.0
WBKS 180700Z 08010KT 9999 FEW016 FEW017CB BKN300 32/26 Q1007,WBKS,2015-04-18T07:00:00Z,5.9,118.07,32.0,26.0,80,10,,6.21,29.734253,,,,,,,,,,,FEW,1600,FEW,1700,BKN,30000,,,VFR,,,,,,,,,,,,METAR,13.0
WBKL 180700Z 28006KT 200V350 9999 FEW014 BKN300 33/25 Q1006,WBKL,2015-04-18T07:00:00Z,5.28,115.25,33.0,25.0,280,6,,6.21,29.704725,,,,,,,,,,,FEW,1400,BKN,30000,,,,,VFR,,,,,,,,,,,,METAR,30.0
WBGY 180700Z 26002KT 9999 SCT023 BKN300 34/25 Q1007,WBGY,2015-04-18T07:00:00Z,1.22,111.43,34.0,25.0,260,2,,6.21,29.734253,,,,,,,,,,,SCT,2300,BKN,30000,,,,,VFR,,,,,,,,,,,,METAR,34.0
WBGS 180700Z 27004KT 9999 SCT018 BKN300 34/24 Q1006,WBGS,2015-04-18T07:00:00Z,2.27,111.98,34.0,24.0,270,4,,6.21,29.704725,,,,,,,,,,,SCT,1800,BKN,30000,,,,,VFR,,,,,,,,,,,,METAR,8.0
WBGR 180700Z 29008KT 9999 SCT020 BKN300 32/24 Q1006,WBGR,2015-04-18T07:00:00Z,4.32,113.97,32.0,24.0,290,8,,6.21,29.704725,,,,,,,,,,,SCT,2000,BKN,30000,,,,,VFR,,,,,,,,,,,,METAR,18.0
WBGB 180700Z 32006KT 260V030 9999 FEW016 BKN300 33/26 Q1006,WBGB,2015-04-18T07:00:00Z,3.12,113.02,33.0,26.0,320,6,,6.21,29.704725,,,,,,,,,,,FEW,1600,BKN,30000,,,,,VFR,,,,,,,,,,,,METAR,5.0
WMKN 180700Z 08007KT 9999 FEW020 BKN300 32/26 Q1008,WMKN,2015-04-18T07:00:00Z,5.37,103.08,32.0,26.0,80,7,,6.21,29.763779,,,,,,,,,,,FEW,2000,BKN,30000,,,,,VFR,,,,,,,,,,,,METAR,6.0
WMKM 180700Z 21006KT 140V290 9999 FEW022 SCT150 BKN280 33/26 Q1008,WMKM,2015-04-18T07:00:00Z,2.27,102.25,33.0,26.0,210,6,,6.21,29.763779,,,,,,,,,,,FEW,2200,SCT,15000,BKN,28000,,,VFR,,,,,,,,,,,,METAR,9.0
WMKL 180700Z 24004KT 9999 FEW022 BKN280 32/26 Q1008,WMKL,2015-04-18T07:00:00Z,6.32,99.72,32.0,26.0,240,4,,6.21,29.763779,,,,,,,,,,,FEW,2200,BKN,28000,,,,,VFR,,,,,,,,,,,,METAR,7.0
UTDK 180700Z 25003MPS 9999 -SHRA FEW015 BKN050CB OVC090 15/12 Q1018 0129//50 RMK QFE706/0941,UTDK,2015-04-18T07:00:00Z,37.98,69.8,15.0,12.0,250,6,,6.21,30.059055,,,,,,,,,,-SHRA,FEW,1500,BKN,5000,OVC,9000,,,VFR,,,,,,,,,,,,METAR,699.0
UTDD 180700Z VRB01MPS 8000 FEW005 BKN036CB OVC053 13/11 Q1018 R09/29//50 TEMPO TSRA RMK QBB150 QFE695/0927,UTDD,2015-04-18T07:00:00Z,38.53,68.82,13.0,11.0,0,2,,4.97,30.059055,,,,,,,,,,,FEW,500,BKN,3600,OVC,5300,,,MVFR,,,,,,,,,,,,METAR,803.0
LERI 180700Z 00000KT CAVOK 11/11 Q1015 NOSIG,LERI,2015-04-18T07:00:00Z,37.95,-1.22,11.0,11.0,0,0,,6.21,29.970472,,,,,,TRUE,,,,,CAVOK,,,,,,,,VFR,,,,,,,,,,,,METAR,75.0
LEGT 180700Z 22004KT 150V270 9000 FEW040TCU 11/08 Q1015,LEGT,2015-04-18T07:00:00Z,40.28,-3.72,11.0,8.0,220,4,,5.59,29.970472,,,,,,,,,,,FEW,4000,,,,,,,VFR,,,,,,,,,,,,METAR,612.0
LEGA 180700Z 18004KT CAVOK 10/08 Q1017,LEGA,2015-04-18T07:00:00Z,37.12,-3.62,10.0,8.0,180,4,,6.21,30.029528,,,,,,,,,,,CAVOK,,,,,,,,VFR,,,,,,,,,,,,METAR,686.0
RPLI 180700Z 32010KT 9999 FEW019 SCT290 32/25 Q1010 NOSIG RMK A2983,RPLI,2015-04-18T07:00:00Z,18.17,120.52,32.0,25.0,320,10,,6.21,29.822834,,,,,,TRUE,,,,,FEW,1900,SCT,29000,,,,,VFR,,,,,,,,,,,,METAR,5.0
LERT 180700Z VRB01KT CAVOK 13/10 Q1017 NOSIG,LERT,2015-04-18T07:00:00Z,36.63,-6.33,13.0,10.0,0,1,,6.21,30.029528,,,,,,TRUE,,,,,CAVOK,,,,,,,,VFR,,,,,,,,,,,,METAR,26.0
TTCP 180700Z 08015KT 9999 FEW016 26/21 Q1014 NOSIG,TTCP,2015-04-18T07:00:00Z,11.15,-60.85,26.0,21.0,80,15,,6.21,29.940945,,,,,,TRUE,,,,,FEW,1600,,,,,,,VFR,,,,,,,,,,,,METAR,8.0
TTPP 180700Z 10007KT 9999 FEW016 25/23 Q1013 NOSIG,TTPP,2015-04-18T07:00:00Z,10.58,-61.35,25.0,23.0,100,7,,6.21,29.911417,,,,,,TRUE,,,,,FEW,1600,,,,,,,VFR,,,,,,,,,,,,METAR,15.0
ZYHB 180700Z 34005MPS 300V020 CAVOK 14/M08 Q1012 BECMG TL0830 26004MPS,ZYHB,2015-04-18T07:00:00Z,45.62,126.25,14.0,-8.0,340,10,,6.21,29.88189,,,,,,,,,,,CAVOK,,,,,,,,VFR,,,,,,,,,,,,METAR,140.0
ZYCC 180700Z VRB02MPS CAVOK 17/M15 Q1012 NOSIG,ZYCC,2015-04-18T07:00:00Z,43.98,125.68,17.0,-15.0,0,4,,6.21,29.88189,,,,,,TRUE,,,,,CAVOK,,,,,,,,VFR,,,,,,,,,,,,METAR,238.0
ZUCK 180700Z 36005MPS 8000 SCT040 21/16 Q1002 NOSIG,ZUCK,2015-04-18T07:00:00Z,29.72,106.63,21.0,16.0,360,10,,4.97,29.586615,,,,,,TRUE,,,,,SCT,4000,,,,,,,MVFR,,,,,,,,,,,,METAR,351.0
ZSOF 180700Z 12003MPS 090V170 5000 HZ NSC 25/17 Q1004 NOSIG,ZSOF,2015-04-18T07:00:00Z,31.78,117.3,25.0,17.0,120,6,,3.11,29.64567,,,,,,TRUE,,,,HZ,,,,,,,,,,,,,,,,,,,,,METAR,33.0
ZSNJ 180700Z 14002MPS 100V170 8000 BKN018 25/17 Q1004 NOSIG,ZSNJ,2015-04-18T07:00:00Z,31.75,118.87,25.0,17.0,140,4,,4.97,29.64567,,,,,,TRUE,,,,,BKN,1800,,,,,,,MVFR,,,,,,,,,,,,METAR,33.0
ZLLL 180700Z 11001MPS 9999 SCT020 09/01 Q1017 NOSIG,ZLLL,2015-04-18T07:00:00Z,36.52,103.62,9.0,1.0,110,2,,6.21,30.029528,,,,,,TRUE,,,,,SCT,2000,,,,,,,VFR,,,,,,,,,,,,METAR,1947.0
ZJSY 180700Z 14003MPS 080V180 9999 FEW021 SCT040 29/23 Q1008 NOSIG,ZJSY,2015-04-18T07:00:00Z,18.3,109.42,29.0,23.0,140,6,,6.21,29.763779,,,,,,TRUE,,,,,FEW,2100,SCT,4000,,,,,VFR,,,,,,,,,,,,METAR,27.0
ZJHK 180700Z 16004MPS 130V210 CAVOK 34/19 Q1005 NOSIG,ZJHK,2015-04-18T07:00:00Z,19.93,110.47,34.0,19.0,160,8,,6.21,29.675198,,,,,,TRUE,,,,,CAVOK,,,,,,,,VFR,,,,,,,,,,,,METAR,23.0
ZHHH 180700Z 34002MPS 300V030 3000 BR SCT025 OVC040 23/19 Q1003 NOSIG,ZHHH,2015-04-18T07:00:00Z,30.78,114.22,23.0,19.0,340,4,,1.86,29.616142,,,,,,TRUE,,,,BR,SCT,2500,OVC,4000,,,,,IFR,,,,,,,,,,,,METAR,23.0
ZHCC 180700Z 34004MPS 310V010 4000 -RA HZ OVC040 17/10 Q1006 NOSIG,ZHCC,2015-04-18T07:00:00Z,34.52,113.83,17.0,10.0,340,8,,2.49,29.704725,,,,,,TRUE,,,,-RA HZ,OVC,4000,,,,,,,IFR,,,,,,,,,,,,METAR,111.0
ZGHA 180700Z 13003MPS 100V160 CAVOK 27/17 Q1002 NOSIG,ZGHA,2015-04-18T07:00:00Z,28.18,113.22,27.0,17.0,130,6,,6.21,29.586615,,,,,,TRUE,,,,,CAVOK,,,,,,,,VFR,,,,,,,,,,,,METAR,66.0
ZBHH 180700Z 13002MPS 9999 SCT030 10/07 Q1014 NOSIG,ZBHH,2015-04-18T07:00:00Z,40.85,111.82,10.0,7.0,130,4,,6.21,29.940945,,,,,,TRUE,,,,,SCT,3000,,,,,,,VFR,,,,,,,,,,,,METAR,1065.0
SGES 180700Z 27006KT 210V340 7000 FEW005 OVC013 20/20 Q1012,SGES,2015-04-18T07:00:00Z,-25.45,-54.85,20.0,20.0,270,6,,4.35,29.88189,,,,,,,,,,,FEW,500,OVC,1300,,,,,MVFR,,,,,,,,,,,,METAR,849.0
SGAS 180700Z 21006KT 9999 BKN003 OVC010 20/20 Q1012,SGAS,2015-04-18T07:00:00Z,-25.25,-57.52,20.0,20.0,210,6,,6.21,29.88189,,,,,,,,,,,BKN,300,OVC,1000,,,,,LIFR,,,,,,,,,,,,METAR,101.0
RPVM 180700Z 03009KT 9999 FEW020 SCT300 31/24 Q1010 RMK A2983,RPVM,2015-04-18T07:00:00Z,10.32,123.98,31.0,24.0,30,9,,6.21,29.822834,,,,,,,,,,,FEW,2000,SCT,30000,,,,,VFR,,,,,,,,,,,,METAR,10.0
RPLL 180700Z 13013KT 090V190 9999 FEW025 34/22 Q1009 NOSIG RMK A2980,RPLL,2015-04-18T07:00:00Z,14.52,121.0,34.0,22.0,130,13,,6.21,29.793306,,,,,,TRUE,,,,,FEW,2500,,,,,,,VFR,,,,,,,,,,,,METAR,21.0
UTDL 180700Z 24007G10MPS 9999 -SHRA SCT053CB OVC100 16/08 Q1018 NOSIG RMK QFE726/0968 8819//60,UTDL,2015-04-18T07:00:00Z,40.22,69.7,16.0,8.0,240,14,19,6.21,30.059055,,,,,,TRUE,,,,-SHRA,SCT,5300,OVC,10000,,,,,VFR,,,,,,,,,,,,METAR,442.0
UTDT 180700Z 17005MPS 140V200 9999 FEW016 SCT040CB OVC100 18/12 Q1017 35CLRD70 RMK QFE723/0964,UTDT,2015-04-18T07:00:00Z,37.87,68.87,18.0,12.0,170,10,,6.21,30.029528,,,,,,,,,,,FEW,1600,SCT,4000,OVC,10000,,,VFR,,,,,,,,,,,,METAR,449.0
MGPB 180700Z 00000KT 9999 FEW016 25/24 Q1011 A2985,MGPB,2015-04-18T07:00:00Z,15.72,-88.58,25.0,24.0,0,0,,6.21,29.852362,,,,,,,,,,,FEW,1600,,,,,,,VFR,,,,,,,,,,,,METAR,10.0
MGMM 180700Z 09004KT CAVOK 25/21 Q1013 A2991,MGMM,2015-04-18T07:00:00Z,17.07,-89.15,25.0,21.0,90,4,,6.21,29.911417,,,,,,,,,,,CAVOK,,,,,,,,VFR,,,,,,,,,,,,METAR,105.0
MGSJ 180700Z 00000KT 9999 -DZ FEW018 BKN090 25/25 Q1012 A2988,MGSJ,2015-04-18T07:00:00Z,13.92,-90.83,25.0,25.0,0,0,,6.21,29.88189,,,,,,,,,,-DZ,FEW,1800,BKN,9000,,,,,VFR,,,,,,,,,,,,METAR,9.0
UBBL 180700Z 16009KT 7000 SCT005 BKN200 15/13 Q1017 R33/CLRD70 RMK MT OBSC,UBBL,2015-04-18T07:00:00Z,38.75,48.82,15.0,13.0,160,9,,4.35,30.029528,,,,,,,,,,,SCT,500,BKN,20000,,,,,MVFR,,,,,,,,,,,,METAR,10.0
MYNN 180700Z 00000KT 9999 FEW018 SCT030 25/21 A3000,MYNN,2015-04-18T07:00:00Z,25.03,-77.47,25.0,21.0,0,0,,6.21,30.0,,,,,,,,,,,FEW,1800,SCT,3000,,,,,VFR,,,,,,,,,,,,METAR,3.0
GVBA 180700Z 02012KT 9999 BKN015 20/16 Q1016 NOSIG,GVBA,2015-04-18T07:00:00Z,16.13,-22.88,20.0,16.0,20,12,,6.21,30.0,,,,,,TRUE,,,,,BKN,1500,,,,,,,MVFR,,,,,,,,,,,,METAR,22.0
FDND 180700Z AUTO /////KT //// // ////// 18/11 Q1025,FDND,2015-04-18T07:00:00Z,-26.97,31.97,18.0,11.0,,,,,30.265747,,,TRUE,,,,,,,,,,,,,,,,,,,,,,,,,,,,METAR,207.0
FDBB 180700Z AUTO 00000KT //// // ////// 19/14 Q1024,FDBB,2015-04-18T07:00:00Z,-26.85,31.92,19.0,14.0,0,0,,,30.236221,,,TRUE,,,,,,,,,,,,,,,,,,,,,,,,,,,,METAR,94.0
FDLB 180700Z AUTO 35002KT //// // ////// 19/11 Q1028,FDLB,2015-04-18T07:00:00Z,,,19.0,11.0,350,2,,,30.35433,,,TRUE,,,,,,,,,,,,,,,,,,,,,,,,,,,,METAR,
FDNY 180700Z AUTO 06001KT //// // ////// 18/10 Q1035,FDNY,2015-04-18T07:00:00Z,-26.12,31.45,18.0,10.0,60,1,,,30.561024,,,TRUE,,,,,,,,,,,,,,,,,,,,,,,,,,,,METAR,320.0
FDJR 180700Z AUTO 04002KT //// // ////// 14/10 Q1027,FDJR,2015-04-18T07:00:00Z,-27.17,31.43,14.0,10.0,40,2,,,30.324802,,,TRUE,,,,,,,,,,,,,,,,,,,,,,,,,,,,METAR,701.0
VOCI 180700Z 25008KT 8000 FEW018 33/21 Q1008 NOSIG,VOCI,2015-04-18T07:00:00Z,10.15,76.4,33.0,21.0,250,8,,4.97,29.763779,,,,,,TRUE,,,,,FEW,1800,,,,,,,MVFR,,,,,,,,,,,,METAR,8.0
FMEE 180700Z 10011KT 9000 FEW023 BKN066 29/22 Q1016 NOSIG,FMEE,2015-04-18T07:00:00Z,-20.87,55.52,29.0,22.0,100,11,,5.59,30.0,,,,,,TRUE,,,,,FEW,2300,BKN,6600,,,,,VFR,,,,,,,,,,,,METAR,25.0
FMEP 180700Z AUTO 14014KT 9999 FEW040/// SCT047/// BKN054/// 28/23 Q1016,FMEP,2015-04-18T07:00:00Z,-21.32,55.42,28.0,23.0,140,14,,6.21,30.0,,,TRUE,,,,,,,,,,,,,,,,,,,,,,,,,,,,METAR,53.0
RJFM 180700Z 12006KT 9999 FEW030 BKN/// 20/13 Q1016,RJFM,2015-04-18T07:00:00Z,31.87,131.43,20.0,13.0,120,6,,6.21,30.0,,,,,,,,,,,FEW,3000,,,,,,,VFR,,,,,,,,,,,,METAR,9.0
RJFK 180700Z 12008KT 9999 FEW025 SCT050 BKN110 20/12 Q1016 RMK 2CU025 3SC050 5AC110 A3002,RJFK,2015-04-18T07:00:00Z,31.8,130.72,20.0,12.0,120,8,,6.21,30.0,,,,,,,,,,,FEW,2500,SCT,5000,BKN,11000,,,VFR,,,,,,,,,,,,METAR,275.0
RJFO 180700Z 13014KT 9999 FEW040 BKN080 BKN100 17/11 Q1015,RJFO,2015-04-18T07:00:00Z,33.47,131.72,17.0,11.0,130,14,,6.21,29.970472,,,,,,,,,,,FEW,4000,BKN,8000,BKN,10000,,,VFR,,,,,,,,,,,,METAR,8.0
RJFR 180700Z VRB02KT 9999 FEW030 SCT070 BKN120 15/09 Q1016,RJFR,2015-04-18T07:00:00Z,33.82,131.03,15.0,9.0,0,2,,6.21,30.0,,,,,,,,,,,FEW,3000,SCT,7000,BKN,12000,,,VFR,,,,,,,,,,,,METAR,6.0
RJFT 180700Z 24003KT 200V300 9999 SCT050 BKN120 21/04 Q1015,RJFT,2015-04-18T07:00:00Z,32.82,130.83,21.0,4.0,240,3,,6.21,29.970472,,,,,,,,,,,SCT,5000,BKN,12000,,,,,VFR,,,,,,,,,,,,METAR,196.0
FOOG 180700Z /////KT 9999 FEW010 FEW020CB 27/24 Q1013,FOOG,2015-04-18T07:00:00Z,-0.7,8.75,27.0,24.0,,,,6.21,29.911417,,,,,,,,,,,FEW,1000,FEW,2000,,,,,VFR,,,,,,,,,,,,SPECI,4.0
FOON 180700Z /////KT 8000 SCT005 SCT010 22/21 Q1013,FOON,2015-04-18T07:00:00Z,-1.63,13.42,22.0,21.0,,,,4.97,29.911417,,,,,,,,,,,SCT,500,SCT,1000,,,,,MVFR,,,,,,,,,,,,SPECI,441.0
FPST 180700Z 18004KT 9999 FEW020CB BKN040 25/22 Q1013 NOSIG,FPST,2015-04-18T07:00:00Z,0.37,6.72,25.0,22.0,180,4,,6.21,29.911417,,,,,,TRUE,,,,,FEW,2000,BKN,4000,,,,,VFR,,,,,,,,,,,,METAR,13.0
CWIY 180700Z AUTO 30003KT M01/M04 RMK AO1 SLP126 T10051039 51017,CWIY,2015-04-18T07:00:00Z,47.13,-67.82,-0.5,-3.9,300,3,,,,1012.6,,TRUE,TRUE,,,,,,,,,,,,,,,,1.7,,,,,,,,,,,METAR,241.0
CWFJ 180700Z AUTO 26006KT 10/M02 RMK AO1 T01031021,CWFJ,2015-04-18T07:00:00Z,49.2,-113.27,10.3,-2.1,260,6,,,,,,TRUE,TRUE,,,,,,,,,,,,,,,,,,,,,,,,,,,METAR,1136.0
SBAN 180700Z 08002KT CAVOK 17/16 Q1018,SBAN,2015-04-18T07:00:00Z,-16.22,-48.97,17.0,16.0,80,2,,6.21,30.059055,,,,,,,,,,,CAVOK,,,,,,,,VFR,,,,,,,,,,,,METAR,1137.0
SBME 180700Z 36002KT CAVOK 22/22 Q1014,SBME,2015-04-18T07:00:00Z,-22.35,-41.77,22.0,22.0,360,2,,6.21,29.940945,,,,,,,,,,,CAVOK,,,,,,,,VFR,,,,,,,,,,,,METAR,2.0
CXSL 180700Z AUTO 29009KT 04/01 RMK AO1 T00390009,CXSL,2015-04-18T07:00:00Z,54.28,-112.5,3.9,0.9,290,9,,,,,,TRUE,TRUE,,,,,,,,,,,,,,,,,,,,,,,,,,,METAR,680.0
CPXL 180700Z AUTO 32006KT 10/01 RMK AO1 PK WND 29018/0602 T00990007,CPXL,2015-04-18T07:00:00Z,49.87,-111.38,9.9,0.7,320,6,,,,,,TRUE,TRUE,,,,,,,,,,,,,,,,,,,,,,,,,,,METAR,799.0
CPSV 180700Z AUTO 32015KT 12/02 RMK AO1 PK WND 31022/0600 T01180021,CPSV,2015-04-18T07:00:00Z,49.92,-110.92,11.8,2.1,320,15,,,,,,TRUE,TRUE,,,,,,,,,,,,,,,,,,,,,,,,,,,METAR,766.0
CPST 180700Z AUTO 36008KT 04/M01 RMK AO1 T00401010,CPST,2015-04-18T07:00:00Z,51.03,-113.28,4.0,-1.0,360,8,,,,,,TRUE,TRUE,,,,,,,,,,,,,,,,,,,,,,,,,,,METAR,967.0
CPFI 180700Z AUTO 36008KT 08/M01 RMK AO1 PK WND 34017/0609 T00771010,CPFI,2015-04-18T07:00:00Z,49.8,-112.03,7.7,-1.0,360,8,,,,,,TRUE,TRUE,,,,,,,,,,,,,,,,,,,,,,,,,,,METAR,833.0
CWDZ 180700Z AUTO 33005KT 05/01 RMK AO1 T00520007,CWDZ,2015-04-18T07:00:00Z,51.42,-112.67,5.2,0.7,330,5,,,,,,TRUE,TRUE,,,,,,,,,,,,,,,,,,,,,,,,,,,METAR,678.0
CWDK 180700Z AUTO 01007KT 08/M03 RMK AO1 SLP170 T00761029 53014,CWDK,2015-04-18T07:00:00Z,50.02,-113.62,7.6,-2.9,10,7,,,,1017.0,,TRUE,TRUE,,,,,,,,,,,,,,,,1.4,,,,,,,,,,,METAR,1012.0
CWDJ 180700Z AUTO 15017G23KT 08/M02 RMK AO1 PK WND 15023/0652 SLP163 T00801019 56019,CWDJ,2015-04-18T07:00:00Z,50.4,-104.58,8.0,-1.9,150,17,23,,,1016.3,,TRUE,TRUE,,,,,,,,,,,,,,,,-1.9,,,,,,,,,,,METAR,573.0
CWCJ 180700Z AUTO 02006G16KT 05/02 RMK AO1 SOG 05 1038 SLP185 T00450016,CWCJ,2015-04-18T07:00:00Z,48.6,-86.28,4.5,1.6,20,6,16,,,1018.5,,TRUE,TRUE,,,,,,,,,,,,,,,,,,,,,,,,,,,METAR,206.0
CWCF 180700Z AUTO 00000KT M02/M03 RMK AO1 SOG 02 3006 SLP231 T10231029,CWCF,2015-04-18T07:00:00Z,52.35,-97.03,-2.3,-2.9,0,0,,,,1023.1,,TRUE,TRUE,,,,,,,,,,,,,,,,,,,,,,,,,,,METAR,222.0
CWBZ 180700Z AUTO 08005KT 08/M01 RMK AO1 SLP145 T00761007 50006,CWBZ,2015-04-18T07:00:00Z,45.12,-74.27,7.6,-0.7,80,5,,,,1014.5,,TRUE,TRUE,,,,,,,,,,,,,,,,0.6,,,,,,,,,,,METAR,49.0
CWBT 180700Z AUTO 32002KT M02/M07 RMK AO1 SLP107 T10231072 52021,CWBT,2015-04-18T07:00:00Z,50.27,-64.23,-2.3,-7.2,320,2,,,,1010.7,,TRUE,TRUE,,,,,,,,,,,,,,,,2.1,,,,,,,,,,,METAR,11.0
CWBS 180700Z AUTO 01007KT 04/M02 RMK AO1 T00441016,CWBS,2015-04-18T07:00:00Z,46.18,-72.92,4.4,-1.6,10,7,,,,,,TRUE,TRUE,,,,,,,,,,,,,,,,,,,,,,,,,,,METAR,16.0
CWBA 180700Z AUTO 17004KT M00/M02 RMK AO1 T10031020,CWBA,2015-04-18T07:00:00Z,46.72,-79.1,-0.3,-2.0,170,4,,,,,,TRUE,TRUE,,,,,,,,,,,,,,,,,,,,,,,,,,,METAR,181.0
CWAQ 180700Z AUTO 15009KT 06/M04 RMK AO1 SLP159 T00621035 58012,CWAQ,2015-04-18T07:00:00Z,49.05,-105.48,6.2,-3.5,150,9,,,,1015.9,,TRUE,TRUE,,,,,,,,,,,,,,,,-1.2,,,,,,,,,,,METAR,756.0
CWAF 180700Z AUTO 03/M02 RMK AO1 T00261017,CWAF,2015-04-18T07:00:00Z,48.07,-69.53,2.6,-1.7,,,,,,,,TRUE,TRUE,,,,,,,,,,,,,,,,,,,,,,,,,,,METAR,5.0
CMFM 180700Z AUTO 36003KT M03/M06 RMK AO1 SOG 19 0011 SLP130 T10341058,CMFM,2015-04-18T07:00:00Z,47.32,-71.15,-3.4,-5.8,360,3,,,,1013.0,,TRUE,TRUE,,,,,,,,,,,,,,,,,,,,,,,,,,,METAR,672.0
CWXA 180700Z AUTO 25004KT 04/01 RMK AO1 SLP185 T00400005 53030,CWXA,2015-04-18T07:00:00Z,51.07,-115.07,4.0,0.5,250,4,,,,1018.5,,TRUE,TRUE,,,,,,,,,,,,,,,,3.0,,,,,,,,,,,METAR,1298.0
CWWK 180700Z AUTO 02001KT 10/05 RMK AO1 SOG 00 1017 SLP266 T01010050,CWWK,2015-04-18T07:00:00Z,49.02,-122.78,10.1,5.0,20,1,,,,1026.6,,TRUE,TRUE,,,,,,,,,,,,,,,,,,,,,,,,,,,METAR,15.0
CWWF 180700Z AUTO 16010KT 05/M01 RMK AO1 SLP186 T00531013 56010,CWWF,2015-04-18T07:00:00Z,49.7,-103.8,5.3,-1.3,160,10,,,,1018.6,,TRUE,TRUE,,,,,,,,,,,,,,,,-1.0,,,,,,,,,,,METAR,589.0
CWWA 180700Z AUTO 03001KT 09/03 RMK AO1 SLP259 T00850031 51016,CWWA,2015-04-18T07:00:00Z,49.35,-123.17,8.5,3.1,30,1,,,,1025.9,,TRUE,TRUE,,,,,,,,,,,,,,,,1.6,,,,,,,,,,,METAR,178.0
CWVU 180700Z AUTO 33010G15KT 06/05 RMK AO1 SLP107 T00620049 52011,CWVU,2015-04-18T07:00:00Z,44.28,-66.33,6.2,4.9,330,10,15,,,1010.7,,TRUE,TRUE,,,,,,,,,,,,,,,,1.1,,,,,,,,,,,METAR,16.0
CWVQ 180700Z AUTO 06006KT 08/M04 RMK AO1 SLP148 T00781038 51009,CWVQ,2015-04-18T07:00:00Z,45.42,-73.92,7.8,-3.8,60,6,,,,1014.8,,TRUE,TRUE,,,,,,,,,,,,,,,,0.9,,,,,,,,,,,METAR,39.0
CWVP 180700Z AUTO 30009G15KT 10/M06 RMK AO1 SLP130 T01011055 55000,CWVP,2015-04-18T07:00:00Z,49.63,-109.52,10.1,-5.5,300,9,15,,,1013.0,,TRUE,TRUE,,,,,,,,,,,,,,,,0.0,,,,,,,,,,,METAR,1271.0
CWVN 180700Z AUTO 22003KT 07/M03 RMK AO1 SLP137 T00661029 56017,CWVN,2015-04-18T07:00:00Z,49.07,-107.57,6.6,-2.9,220,3,,,,1013.7,,TRUE,TRUE,,,,,,,,,,,,,,,,-1.7,,,,,,,,,,,METAR,785.0
CWVI 180700Z AUTO 30012KT 05/02 RMK AO1 PK WND 29020/0620 SLP169 T00510015 53022,CWVI,2015-04-18T07:00:00Z,53.52,-112.1,5.1,1.5,300,12,,,,1016.9,,TRUE,TRUE,,,,,,,,,,,,,,,,2.2,,,,,,,,,,,METAR,639.0
CWVF 180700Z AUTO 31025KT 12/04 RMK AO1 PK WND 31032/0615 T01170043,CWVF,2015-04-18T07:00:00Z,49.1,-123.3,11.7,4.3,310,25,,,,,,TRUE,TRUE,,,,,,,,,,,,,,,,,,,,,,,,,,,METAR,1.0
CWUX 180700Z AUTO 28007KT M00/M04 RMK AO1 SLP155 T10021035 51003,CWUX,2015-04-18T07:00:00Z,48.3,-70.93,-0.2,-3.5,280,7,,,,1015.5,,TRUE,TRUE,,,,,,,,,,,,,,,,0.3,,,,,,,,,,,METAR,135.0
CWUS 180700Z AUTO 31007KT 13/01 RMK AO1 SLP236 T01280005 51026,CWUS,2015-04-18T07:00:00Z,49.57,-119.65,12.8,0.5,310,7,,,,1023.6,,TRUE,TRUE,,,,,,,,,,,,,,,,2.6,,,,,,,,,,,METAR,454.0
CWTY 180700Z AUTO 06004KT 03/M02 RMK AO1 SLP159 T00311023 51018,CWTY,2015-04-18T07:00:00Z,46.35,-72.52,3.1,-2.3,60,4,,,,1015.9,,TRUE,TRUE,,,,,,,,,,,,,,,,1.8,,,,,,,,,,,METAR,6.0
CWTT 180700Z AUTO 25001KT 04/M03 RMK AO1 T00361028,CWTT,2015-04-18T07:00:00Z,45.27,-72.17,3.6,-2.8,250,1,,,,,,TRUE,TRUE,,,,,,,,,,,,,,,,,,,,,,,,,,,METAR,209.0
CWTN 180700Z AUTO 36007KT 02/M05 RMK AO1 SLP148 T00171046 50009,CWTN,2015-04-18T07:00:00Z,47.07,-70.78,1.7,-4.6,360,7,,,,1014.8,,TRUE,TRUE,,,,,,,,,,,,,,,,0.9,,,,,,,,,,,METAR,6.0
CWTG 180700Z AUTO 01004KT M00/M08 RMK AO1 SLP135 T10021080 51021,CWTG,2015-04-18T07:00:00Z,49.32,-67.37,-0.2,-8.0,10,4,,,,1013.5,,TRUE,TRUE,,,,,,,,,,,,,,,,2.1,,,,,,,,,,,METAR,5.0
CWTA 180700Z AUTO 03003KT 08/M04 RMK AO1 SLP147 T00761038 51009,CWTA,2015-04-18T07:00:00Z,45.5,-73.58,7.6,-3.8,30,3,,,,1014.7,,TRUE,TRUE,,,,,,,,,,,,,,,,0.9,,,,,,,,,,,METAR,63.0
CWJH 180700Z AUTO 09001KT 03/M02 RMK AO1 SLP178 T00271020 58003,CWJH,2015-04-18T07:00:00Z,56.32,-103.27,2.7,-2.0,90,1,,,,1017.8,,TRUE,TRUE,,,,,,,,,,,,,,,,-0.3,,,,,,,,,,,METAR,344.0
CWJB 180700Z AUTO 04003KT 02/M04 RMK AO1 T00181038,CWJB,2015-04-18T07:00:00Z,46.78,-71.27,1.8,-3.8,40,3,,,,,,TRUE,TRUE,,,,,,,,,,,,,,,,,,,,,,,,,,,METAR,91.0
CWIZ 180700Z AUTO 04006KT 06/M02 RMK AO1 T00641022,CWIZ,2015-04-18T07:00:00Z,45.28,-73.33,6.4,-2.2,40,6,,,,,,TRUE,TRUE,,,,,,,,,,,,,,,,,,,,,,,,,,,METAR,45.0
CWIW 180700Z AUTO 16015KT 07/M02 RMK AO1 PK WND 15022/0628 SLP139 T00731019 58028,CWIW,2015-04-18T07:00:00Z,51.67,-105.4,7.3,-1.9,160,15,,,,1013.9,,TRUE,TRUE,,,,,,,,,,,,,,,,-2.8,,,,,,,,,,,METAR,526.0
CWIT 180700Z AUTO 05003KT 05/M02 RMK AO1 SLP146 T00481021 51011,CWIT,2015-04-18T07:00:00Z,45.17,-73.67,4.8,-2.1,50,3,,,,1014.6,,TRUE,TRUE,,,,,,,,,,,,,,,,1.1,,,,,,,,,,,METAR,52.0
CWIS 180700Z AUTO 16003KT M04/M07 RMK AO1 SOG 26 0006 SLP130 T10431066,CWIS,2015-04-18T07:00:00Z,47.28,-70.63,-4.3,-6.6,160,3,,,,1013.0,,TRUE,TRUE,,,,,,,,,,,,,,,,,,,,,,,,,,,METAR,719.0
CWIP 180700Z AUTO 34007KT M01/ RMK AO1 T1006,CWIP,2015-04-18T07:00:00Z,50.17,-66.43,-0.6,,340,7,,,,,,TRUE,TRUE,,,,,,,,,,,,,,,,,,,,,,,,,,,METAR,25.0
CWII 180700Z AUTO 14003KT M00/M02 RMK AO1 T10011015,CWII,2015-04-18T07:00:00Z,50.7,-96.57,-0.1,-1.5,140,3,,,,,,TRUE,TRUE,,,,,,,,,,,,,,,,,,,,,,,,,,,METAR,220.0
CWIG 180700Z AUTO 02008KT RMK AO1,CWIG,2015-04-18T07:00:00Z,47.07,-70.53,,,20,8,,,,,,TRUE,TRUE,,,,,,,,,,,,,,,,,,,,,,,,,,,METAR,18.0
CWHV 180700Z AUTO 16002KT M00/M03 RMK AO1 SLP138 T10041028 51015,CWHV,2015-04-18T07:00:00Z,46.2,-70.77,-0.4,-2.8,160,2,,,,1013.8,,TRUE,TRUE,,,,,,,,,,,,,,,,1.5,,,,,,,,,,,METAR,229.0
CWHQ 180700Z AUTO 34004KT 01/M04 RMK AO1 T00051036,CWHQ,2015-04-18T07:00:00Z,46.68,-71.97,0.5,-3.6,340,4,,,,,,TRUE,TRUE,,,,,,,,,,,,,,,,,,,,,,,,,,,METAR,55.0
CWHM 180700Z AUTO 07004KT 03/M03 RMK AO1 T00291029,CWHM,2015-04-18T07:00:00Z,45.72,-73.37,2.9,-2.9,70,4,,,,,,TRUE,TRUE,,,,,,,,,,,,,,,,,,,,,,,,,,,METAR,192.0
CWHL 180700Z AUTO 07004KT 06/04 RMK AO1 SLP320 T00630039 52004,CWHL,2015-04-18T07:00:00Z,54.17,-130.35,6.3,3.9,70,4,,,,1032.0,,TRUE,TRUE,,,,,,,,,,,,,,,,0.4,,,,,,,,,,,METAR,5.0
CWGX 180700Z AUTO 09003KT M03/M05 RMK AO1 SLP236 T10331047 51012,CWGX,2015-04-18T07:00:00Z,56.35,-94.7,-3.3,-4.7,90,3,,,,1023.6,,TRUE,TRUE,,,,,,,,,,,,,,,,1.2,,,,,,,,,,,METAR,145.0
CWGW 180700Z AUTO 07004KT 07/02 RMK AO1 PK WND 33017/0620 SLP180 T00700018 53013,CWGW,2015-04-18T07:00:00Z,49.75,-114.9,7.0,1.8,70,4,,,,1018.0,,TRUE,TRUE,,,,,,,,,,,,,,,,1.3,,,,,,,,,,,METAR,1137.0
CWGT 180700Z AUTO 31021KT 11/04 RMK AO1 PK WND 32023/0657 SLP270 T01080042 50009,CWGT,2015-04-18T07:00:00Z,49.48,-124.43,10.8,4.2,310,21,,,,1027.0,,TRUE,TRUE,,,,,,,,,,,,,,,,0.9,,,,,,,,,,,METAR,5.0
CWGR 180700Z AUTO 35014KT M00/M00 RMK AO1 PK WND 34018/0624 SLP051 T10011001 53011,CWGR,2015-04-18T07:00:00Z,47.42,-61.8,-0.1,-0.1,350,14,,,,1005.1,,TRUE,TRUE,,,,,,,,,,,,,,,,1.1,,,,,,,,,,,METAR,60.0
CXKE 180700Z AUTO 03001KT 06/M03 RMK AO1 SLP138 T00611026 58001,CXKE,2015-04-18T07:00:00Z,45.0,-75.63,6.1,-2.6,30,1,,,,1013.8,,TRUE,TRUE,,,,,,,,,,,,,,,,-0.1,,,,,,,,,,,METAR,99.0
CXHM 180700Z AUTO 28002KT 10/06 RMK AO1 SLP140 T00980060 58010,CXHM,2015-04-18T07:00:00Z,43.28,-79.9,9.8,6.0,280,2,,,,1014.0,,TRUE,TRUE,,,,,,,,,,,,,,,,-1.0,,,,,,,,,,,METAR,107.0
CWZS 180700Z AUTO 34007KT 01/M07 RMK AO1 SLP124 T00081068 51024,CWZS,2015-04-18T07:00:00Z,48.47,-67.43,0.8,-6.8,340,7,,,,1012.4,,TRUE,TRUE,,,,,,,,,,,,,,,,2.4,,,,,,,,,,,METAR,166.0
CWZO 180700Z AUTO 17008KT RMK AO1,CWZO,2015-04-18T07:00:00Z,48.55,-123.23,,,170,8,,,,,,TRUE,TRUE,,,,,,,,,,,,,,,,,,,,,,,,,,,METAR,1.0
CWZA 180700Z AUTO 21001KT 07/05 RMK AO1 SLP267 T00720053 53017,CWZA,2015-04-18T07:00:00Z,49.25,-121.77,7.2,5.3,210,1,,,,1026.7,,TRUE,TRUE,,,,,,,,,,,,,,,,1.7,,,,,,,,,,,METAR,15.0
CWYY 180700Z AUTO 33001KT 13/02 RMK AO1 SLP227 T01290024 51034,CWYY,2015-04-18T07:00:00Z,49.03,-119.43,12.9,2.4,330,1,,,,1022.7,,TRUE,TRUE,,,,,,,,,,,,,,,,3.4,,,,,,,,,,,METAR,283.0
CWYJ 180700Z AUTO 25002KT 08/07 RMK AO1 SLP264 T00830070 51009,CWYJ,2015-04-18T07:00:00Z,48.45,-123.3,8.3,7.0,250,2,,,,1026.4,,TRUE,TRUE,,,,,,,,,,,,,,,,0.9,,,,,,,,,,,METAR,39.0
CXZU 180700Z AUTO 03/01 RMK AO1 27 0625Z 1034 SLP218 T00250005,CXZU,2015-04-18T07:00:00Z,54.15,-115.78,2.5,0.5,,,,,,1021.8,,TRUE,TRUE,,,,,,,,,,,,,,,,,,,,,,,,,,,METAR,785.0
CXWN 180700Z AUTO 05002KT 04/M01 RMK AO1 SLP234 T00381012 51009,CXWN,2015-04-18T07:00:00Z,49.88,-97.13,3.8,-1.2,50,2,,,,1023.4,,TRUE,TRUE,,,,,,,,,,,,,,,,0.9,,,,,,,,,,,METAR,230.0
CXSH 180700Z AUTO 01005KT 02/M04 RMK AO1 SLP150 T00191035 50009,CXSH,2015-04-18T07:00:00Z,46.58,-72.73,1.9,-3.5,10,5,,,,1015.0,,TRUE,TRUE,,,,,,,,,,,,,,,,0.9,,,,,,,,,,,METAR,110.0
CXQT 180700Z AUTO 35001KT 04/M00 RMK AO1 T00421001,CXQT,2015-04-18T07:00:00Z,48.43,-89.22,4.2,-0.1,350,1,,,,,,TRUE,TRUE,,,,,,,,,,,,,,,,,,,,,,,,,,,METAR,183.0
CXOX 180700Z AUTO 14009KT 06/01 RMK AO1 SOG 00 5008 SLP168 T00550009,CXOX,2015-04-18T07:00:00Z,55.15,-105.27,5.5,0.9,140,9,,,,1016.8,,TRUE,TRUE,,,,,,,,,,,,,,,,,,,,,,,,,,,METAR,379.0
CXMM 180700Z AUTO 27004KT 04/03 RMK AO1 SLP115 T00380034 55002,CXMM,2015-04-18T07:00:00Z,56.65,-111.22,3.8,3.4,270,4,,,,1011.5,,TRUE,TRUE,,,,,,,,,,,,,,,,-0.2,,,,,,,,,,,METAR,369.0
CXMI 180700Z AUTO 33004KT 05/04 RMK AO1 SLP071 T00460043 55000,CXMI,2015-04-18T07:00:00Z,44.6,-63.53,4.6,4.3,330,4,,,,1007.1,,TRUE,TRUE,,,,,,,,,,,,,,,,0.0,,,,,,,,,,,METAR,15.0
CXMD 180700Z AUTO 02002KT 01/M03 RMK AO1 SOG 02 7001 SLP228 T00141029,CXMD,2015-04-18T07:00:00Z,49.22,-98.08,1.4,-2.9,20,2,,,,1022.8,,TRUE,TRUE,,,,,,,,,,,,,,,,,,,,,,,,,,,METAR,301.0
CXIB 180700Z AUTO 22001KT 05/01 RMK AO1 SLP033 T00520005 55008,CXIB,2015-04-18T07:00:00Z,46.67,-60.38,5.2,0.5,220,1,,,,1003.3,,TRUE,TRUE,,,,,,,,,,,,,,,,-0.8,,,,,,,,,,,METAR,8.0
CXHF 180700Z AUTO 01/M03 RMK AO1 T00131027,CXHF,2015-04-18T07:00:00Z,45.83,-75.65,1.3,-2.7,,,,,,,,TRUE,TRUE,,,,,,,,,,,,,,,,,,,,,,,,,,,METAR,190.0
CXGH 180700Z AUTO 24004KT 01/M01 RMK AO1 T00091011,CXGH,2015-04-18T07:00:00Z,50.63,-97.0,0.9,-1.1,240,4,,,,,,TRUE,TRUE,,,,,,,,,,,,,,,,,,,,,,,,,,,METAR,217.0
CXET 180700Z AUTO 13004KT 04/02 RMK AO1 SLP143 T00430021 58011,CXET,2015-04-18T07:00:00Z,44.23,-79.78,4.3,2.1,130,4,,,,1014.3,,TRUE,TRUE,,,,,,,,,,,,,,,,-1.1,,,,,,,,,,,METAR,251.0
CXEC 180700Z AUTO 30013G18KT 06/01 RMK AO1 PK WND 31018/0630 SLP195 T00580005 53023,CXEC,2015-04-18T07:00:00Z,53.57,-113.52,5.8,0.5,300,13,18,,,1019.5,,TRUE,TRUE,,,,,,,,,,,,,,,,2.3,,,,,,,,,,,METAR,671.0
CXEA 180700Z AUTO 16001KT M02/M03 RMK AO1 SLP239 T10221033 53010,CXEA,2015-04-18T07:00:00Z,50.63,-93.22,-2.2,-3.3,160,1,,,,1023.9,,TRUE,TRUE,,,,,,,,,,,,,,,,1.0,,,,,,,,,,,METAR,355.0
CXDW 180700Z AUTO 22003KT M01/M04 RMK AO1 T10121035,CXDW,2015-04-18T07:00:00Z,49.4,-98.32,-1.2,-3.5,220,3,,,,,,TRUE,TRUE,,,,,,,,,,,,,,,,,,,,,,,,,,,METAR,341.0
CXCK 180700Z AUTO 16007G23KT 02/M09 RMK AO1 PK WND 23023/0650 SLP218 T00201091 53025,CXCK,2015-04-18T07:00:00Z,62.12,-136.2,2.0,-9.1,160,7,23,,,1021.8,,TRUE,TRUE,,,,,,,,,,,,,,,,2.5,,,,,,,,,,,METAR,540.0
CXCH 180700Z AUTO 02/01 RMK AO1 SOG 41 T00190005,CXCH,2015-04-18T07:00:00Z,46.63,-60.95,1.9,0.5,,,,,,,,TRUE,TRUE,,,,,,,,,,,,,,,,,,,,,,,,,,,METAR,44.0
CXCA 180700Z AUTO 02007KT 04/01 RMK AO1 PK WND 00019/0603 SLP210 T00380005 51028,CXCA,2015-04-18T07:00:00Z,49.15,-88.35,3.8,0.5,20,7,,,,1021.0,,TRUE,TRUE,,,,,,,,,,,,,,,,2.8,,,,,,,,,,,METAR,228.0
CXBO 180700Z AUTO 01002KT RMK AO1,CXBO,2015-04-18T07:00:00Z,46.83,-71.2,,,10,2,,,,,,TRUE,TRUE,,,,,,,,,,,,,,,,,,,,,,,,,,,METAR,100.0
CXKT 180700Z AUTO 15004KT 05/04 RMK AO1 SOG 10 1013 SLP079 T00510039,CXKT,2015-04-18T07:00:00Z,45.07,-64.48,5.1,3.9,150,4,,,,1007.9,,TRUE,TRUE,,,,,,,,,,,,,,,,,,,,,,,,,,,METAR,49.0
CXBK 180700Z AUTO 14017KT 06/M02 RMK AO1 SOG 01 7020 PK WND 14022/0647 SLP154 T00571021,CXBK,2015-04-18T07:00:00Z,50.2,-104.7,5.7,-2.1,140,17,,,,1015.4,,TRUE,TRUE,,,,,,,,,,,,,,,,,,,,,,,,,,,METAR,580.0
CWSF 180700Z AUTO 32012KT M00/M03 RMK AO1 PK WND 33017/0639 SLP115 T10041031 51018,CWSF,2015-04-18T07:00:00Z,49.25,-65.32,-0.4,-3.1,320,12,,,,1011.5,,TRUE,TRUE,,,,,,,,,,,,,,,,1.8,,,,,,,,,,,METAR,29.0
CWNH 180700Z AUTO 32004KT 02/M04 RMK AO1 SLP146 T00171036 51013,CWNH,2015-04-18T07:00:00Z,47.78,-69.53,1.7,-3.6,320,4,,,,1014.6,,TRUE,TRUE,,,,,,,,,,,,,,,,1.3,,,,,,,,,,,METAR,148.0
CWWE 180700Z AUTO 30010KT 06/06 RMK AO1 SLP078 T00580057 57004,CWWE,2015-04-18T07:00:00Z,43.97,-64.67,5.8,5.7,300,10,,,,1007.8,,TRUE,TRUE,,,,,,,,,,,,,,,,-0.4,,,,,,,,,,,METAR,9.0
CWPK 180700Z AUTO 00000KT M05/M06 RMK AO1 SLP153 T10501061 57011,CWPK,2015-04-18T07:00:00Z,47.92,-74.62,-5.0,-6.1,0,0,,,,1015.3,,TRUE,TRUE,,,,,,,,,,,,,,,,-1.1,,,,,,,,,,,METAR,442.0
CWDM 180700Z AUTO 03016KT M02/M04 RMK AO1 SOG 84 3018 PK WND 02022/0609 SLP057 T10221039,CWDM,2015-04-18T07:00:00Z,50.47,-59.62,-2.2,-3.9,30,16,,,,1005.7,,TRUE,TRUE,,,,,,,,,,,,,,,,,,,,,,,,,,,METAR,6.0
CWER 180700Z AUTO 01007KT RMK AO1,CWER,2015-04-18T07:00:00Z,47.0,-70.82,,,10,7,,,,,,TRUE,TRUE,,,,,,,,,,,,,,,,,,,,,,,,,,,METAR,5.0
CWEP 180700Z AUTO 30014KT 02/M00 RMK AO1 PK WND 30018/0616 SLP057 T00181004 53014,CWEP,2015-04-18T07:00:00Z,46.45,-61.97,1.8,-0.4,300,14,,,,1005.7,,TRUE,TRUE,,,,,,,,,,,,,,,,1.4,,,,,,,,,,,METAR,11.0
CWBY 180700Z AUTO 02008KT 01/M08 RMK AO1 SOG 11 2024 SLP101 T00051076,CWBY,2015-04-18T07:00:00Z,49.82,-64.28,0.5,-7.6,20,8,,,,1010.1,,TRUE,TRUE,,,,,,,,,,,,,,,,,,,,,,,,,,,METAR,53.0
CWSS 180700Z AUTO 30004KT 05/01 RMK AO1 SOG 00 3024 SLP107 T00460009,CWSS,2015-04-18T07:00:00Z,45.2,-67.25,4.6,0.9,300,4,,,,1010.7,,TRUE,TRUE,,,,,,,,,,,,,,,,,,,,,,,,,,,METAR,26.0
CWRN 180700Z AUTO 23006KT 02/ RMK AO1 T0018,CWRN,2015-04-18T07:00:00Z,45.35,-60.98,1.8,,230,6,,,,,,TRUE,TRUE,,,,,,,,,,,,,,,,,,,,,,,,,,,METAR,8.0
CWBV 180700Z AUTO 27008KT 02/02 RMK AO1 SLP068 T00210021 53004,CWBV,2015-04-18T07:00:00Z,44.82,-62.32,2.1,2.1,270,8,,,,1006.8,,TRUE,TRUE,,,,,,,,,,,,,,,,0.4,,,,,,,,,,,METAR,10.0
CWPZ 180700Z AUTO 11001KT M02/M04 RMK AO1 SLP312 T10191035 51017,CWPZ,2015-04-18T07:00:00Z,54.38,-125.97,-1.9,-3.5,110,1,,,,1031.2,,TRUE,TRUE,,,,,,,,,,,,,,,,1.7,,,,,,,,,,,METAR,713.0
CWPR 180700Z AUTO 12003KT 06/01 RMK AO1 SLP248 T00640005 53022,CWPR,2015-04-18T07:00:00Z,49.47,-120.52,6.4,0.5,120,3,,,,1024.8,,TRUE,TRUE,,,,,,,,,,,,,,,,2.2,,,,,,,,,,,METAR,700.0
CWPE 180700Z AUTO 32006KT 05/03 RMK AO1 SLP098 T00520026 51020,CWPE,2015-04-18T07:00:00Z,45.07,-66.47,5.2,2.6,320,6,,,,1009.8,,TRUE,TRUE,,,,,,,,,,,,,,,,2.0,,,,,,,,,,,METAR,1.0
CWPD 180700Z AUTO 03003KT M04/M06 RMK AO1 SLP124 T10431059 53008,CWPD,2015-04-18T07:00:00Z,47.57,-71.22,-4.3,-5.9,30,3,,,,1012.4,,TRUE,TRUE,,,,,,,,,,,,,,,,0.8,,,,,,,,,,,METAR,803.0
CWOE 180700Z AUTO 31012KT 10/M00 RMK AO1 SOG 00 3005 PK WND 31017/0620 SLP141 T01031002,CWOE,2015-04-18T07:00:00Z,49.12,-110.47,10.3,-0.2,310,12,,,,1014.1,,TRUE,TRUE,,,,,,,,,,,,,,,,,,,,,,,,,,,METAR,935.0
CWOD 180700Z AUTO 01006KT M00/M05 RMK AO1 SLP151 T10041053 50000,CWOD,2015-04-18T07:00:00Z,48.85,-72.55,-0.4,-5.3,10,6,,,,1015.1,,TRUE,TRUE,,,,,,,,,,,,,,,,0.0,,,,,,,,,,,METAR,137.0
CWOC 180700Z AUTO 33008KT 02/M06 RMK AO1 SLP101 T00231060 51024,CWOC,2015-04-18T07:00:00Z,48.02,-65.32,2.3,-6.0,330,8,,,,1010.1,,TRUE,TRUE,,,,,,,,,,,,,,,,2.4,,,,,,,,,,,METAR,47.0
CWNP 180700Z AUTO 11002KT 07/04 RMK AO1 SLP229 T00740039 51034,CWNP,2015-04-18T07:00:00Z,50.27,-117.82,7.4,3.9,110,2,,,,1022.9,,TRUE,TRUE,,,,,,,,,,,,,,,,3.4,,,,,,,,,,,METAR,524.0
CWNM 180700Z AUTO 23004KT 07/03 RMK AO1 SLP203 T00710032 51034,CWNM,2015-04-18T07:00:00Z,49.5,-117.28,7.1,3.2,230,4,,,,1020.3,,TRUE,TRUE,,,,,,,,,,,,,,,,3.4,,,,,,,,,,,METAR,535.0
CWNK 180700Z AUTO 04002KT M00/M02 RMK AO1 T10011020,CWNK,2015-04-18T07:00:00Z,49.5,-98.03,-0.1,-2.0,40,2,,,,,,TRUE,TRUE,,,,,,,,,,,,,,,,,,,,,,,,,,,METAR,268.0
CWNE 180700Z AUTO 34014KT 01/M01 RMK AO1 PK WND 00019/0634 SLP082 T00081010 53023,CWNE,2015-04-18T07:00:00Z,47.07,-64.0,0.8,-1.0,340,14,,,,1008.2,,TRUE,TRUE,,,,,,,,,,,,,,,,2.3,,,,,,,,,,,METAR,15.0
CWMT 180700Z AUTO 05002KT M02/M04 RMK AO1 SLP197 T10191043 52018,CWMT,2015-04-18T07:00:00Z,63.13,-117.25,-1.9,-4.3,50,2,,,,1019.7,,TRUE,TRUE,,,,,,,,,,,,,,,,1.8,,,,,,,,,,,METAR,271.0
CZEL 180700Z AUTO 02003KT 05/03 RMK AO1 SLP152 T00450027 57012,CZEL,2015-04-18T07:00:00Z,43.65,-80.42,4.5,2.7,20,3,,,,1015.2,,TRUE,TRUE,,,,,,,,,,,,,,,,-1.2,,,,,,,,,,,METAR,376.0
DAAD 180700Z 00000KT CAVOK 16/05 Q1015,DAAD,2015-04-18T07:00:00Z,35.32,4.2,16.0,5.0,0,0,,6.21,29.970472,,,,,,,,,,,CAVOK,,,,,,,,VFR,,,,,,,,,,,,METAR,461.0
DAUZ 180700Z 07005KT CAVOK 19/M08 Q1021,DAUZ,2015-04-18T07:00:00Z,28.05,9.62,19.0,-8.0,70,5,,6.21,30.147638,,,,,,,,,,,CAVOK,,,,,,,,VFR,,,,,,,,,,,,METAR,562.0
DAOO 180700Z 24004KT 7000 BKN010 SCT233 14/13 Q1016,DAOO,2015-04-18T07:00:00Z,35.62,-0.6,14.0,13.0,240,4,,4.35,30.0,,,,,,,,,,,BKN,1000,SCT,23300,,,,,MVFR,,,,,,,,,,,,METAR,90.0
DAON 180700Z 00000KT 9999 FEW026 BKN233 13/12 Q1016,DAON,2015-04-18T07:00:00Z,35.02,-1.47,13.0,12.0,0,0,,6.21,30.0,,,,,,,,,,,FEW,2600,BKN,23300,,,,,VFR,,,,,,,,,,,,METAR,247.0
DABS 180700Z 00000KT CAVOK 13/09 Q1018,DABS,2015-04-18T07:00:00Z,35.43,8.12,13.0,9.0,0,0,,6.21,30.059055,,,,,,,,,,,CAVOK,,,,,,,,VFR,,,,,,,,,,,,METAR,813.0
DABC 180700Z 14003KT 9999 FEW040 12/11 Q1017,DABC,2015-04-18T07:00:00Z,36.27,6.62,12.0,11.0,140,3,,6.21,30.029528,,,,,,,,,,,FEW,4000,,,,,,,VFR,,,,,,,,,,,,METAR,694.0
DABB 180700Z 23002KT 9999 FEW033 BKN233 14/12 Q1015,DABB,2015-04-18T07:00:00Z,36.82,7.82,14.0,12.0,230,2,,6.21,29.970472,,,,,,,,,,,FEW,3300,BKN,23300,,,,,VFR,,,,,,,,,,,,METAR,4.0
DAAT 180700Z 00000KT CAVOK 19/M13 Q1027,DAAT,2015-04-18T07:00:00Z,22.82,5.47,19.0,-13.0,0,0,,6.21,30.324802,,,,,,,,,,,CAVOK,,,,,,,,VFR,,,,,,,,,,,,METAR,1377.0
DAAG 180700Z 19004KT 160V220 6000 NSC 15/13 Q1014,DAAG,2015-04-18T07:00:00Z,36.72,3.22,15.0,13.0,190,4,,3.73,29.940945,,,,,,,,,,,,,,,,,,,,,,,,,,,,,,,METAR,25.0
FGBT 180700Z 12003KT 090V150 9999 FEW010 FEW020CB 27/24 Q1013 NOSIG,FGBT,2015-04-18T07:00:00Z,1.88,9.8,27.0,24.0,120,3,,6.21,29.911417,,,,,,TRUE,,,,,FEW,1000,FEW,2000,,,,,VFR,,,,,,,,,,,,METAR,8.0
FGSL 180700Z 00000KT 7000 FEW008 26/24 Q1013 NOSIG,FGSL,2015-04-18T07:00:00Z,3.75,8.72,26.0,24.0,0,0,,4.35,29.911417,,,,,,TRUE,,,,,FEW,800,,,,,,,MVFR,,,,,,,,,,,,METAR,56.0
LFSX 180700Z AUTO 00000KT 6000 FEW004 BKN018 08/07 Q1019,LFSX,2015-04-18T07:00:00Z,47.77,6.33,8.0,7.0,0,0,,3.73,30.088583,,,TRUE,,,,,,,,FEW,400,BKN,1800,,,,,MVFR,,,,,,,,,,,,METAR,273.0
CWJX 180700Z AUTO 31015G28KT 11/04 RMK AO1 PK WND 31028/0656 SLP107 T01110039 53008,CWJX,2015-04-18T07:00:00Z,50.88,-109.5,11.1,3.9,310,15,28,,,1010.7,,TRUE,TRUE,,,,,,,,,,,,,,,,0.8,,,,,,,,,,,METAR,672.0
CXCS 180700Z AUTO 32011KT 04/02 RMK AO1 T00430020,CXCS,2015-04-18T07:00:00Z,51.93,-110.72,4.3,2.0,320,11,,,,,,TRUE,TRUE,,,,,,,,,,,,,,,,,,,,,,,,,,,METAR,772.0
CXCD 180700Z AUTO 27010KT 03/M00 RMK AO1 T00271003,CXCD,2015-04-18T07:00:00Z,56.32,-119.75,2.7,-0.3,270,10,,,,,,TRUE,TRUE,,,,,,,,,,,,,,,,,,,,,,,,,,,METAR,630.0
CXBA 180700Z AUTO 32008KT 05/04 RMK AO1 T00490042,CXBA,2015-04-18T07:00:00Z,52.12,-110.1,4.9,4.2,320,8,,,,,,TRUE,TRUE,,,,,,,,,,,,,,,,,,,,,,,,,,,METAR,687.0
CXAJ 180700Z AUTO 28012KT 04/02 RMK AO1 PK WND 28020/0639 T00350018,CXAJ,2015-04-18T07:00:00Z,54.77,-112.82,3.5,1.8,280,12,,,,,,TRUE,TRUE,,,,,,,,,,,,,,,,,,,,,,,,,,,METAR,574.0
CXAG 180700Z AUTO 31009KT 03/01 RMK AO1 T00270010,CXAG,2015-04-18T07:00:00Z,53.92,-112.28,2.7,1.0,310,9,,,,,,TRUE,TRUE,,,,,,,,,,,,,,,,,,,,,,,,,,,METAR,625.0
SULS 180700Z 30015KT 9999 FEW017 14/08 Q1009,SULS,2015-04-18T07:00:00Z,-34.87,-55.1,14.0,8.0,300,15,,6.21,29.793306,,,,,,,,,,,FEW,1700,,,,,,,VFR,,,,,,,,,,,,METAR,30.0
CYZS 180700Z 34010KT 15SM -SN FEW007 OVC025 M11/M14 A2978 RMK ST1SC7 SLP093,CYZS,2015-04-18T07:00:00Z,64.2,-83.37,-11.0,-14.0,340,10,,15.0,29.778543,1009.3,,,,,,,,,-SN,FEW,700,OVC,2500,,,,,MVFR,,,,,,,,,,,,METAR,64.0
OJAQ 180700Z 36015KT CAVOK 20/09 Q1023 NOSIG,OJAQ,2015-04-18T07:00:00Z,29.62,35.02,20.0,9.0,360,15,,6.21,30.206694,,,,,,TRUE,,,,,CAVOK,,,,,,,,VFR,,,,,,,,,,,,METAR,51.0
CXTH 180700Z AUTO 29013KT 03/02 RMK AO1 PK WND 29017/0650 T00330023,CXTH,2015-04-18T07:00:00Z,53.63,-111.68,3.3,2.3,290,13,,,,,,TRUE,TRUE,,,,,,,,,,,,,,,,,,,,,,,,,,,METAR,678.0
CXFM 180700Z AUTO 32011KT 10/M01 RMK AO1 T00961012,CXFM,2015-04-18T07:00:00Z,49.48,-111.48,9.6,-1.2,320,11,,,,,,TRUE,TRUE,,,,,,,,,,,,,,,,,,,,,,,,,,,METAR,881.0
CXDB 180700Z AUTO 24008KT 02/M03 RMK AO1 T00221030,CXDB,2015-04-18T07:00:00Z,49.05,-112.82,2.2,-3.0,240,8,,,,,,TRUE,TRUE,,,,,,,,,,,,,,,,,,,,,,,,,,,METAR,1310.0
CXAK 180700Z AUTO 32009KT 04/02 RMK AO1 T00440020,CXAK,2015-04-18T07:00:00Z,52.35,-112.6,4.4,2.0,320,9,,,,,,TRUE,TRUE,,,,,,,,,,,,,,,,,,,,,,,,,,,METAR,795.0
CPRY 180700Z AUTO 24003KT 05/M02 RMK AO1 T00471017,CPRY,2015-04-18T07:00:00Z,49.48,-112.68,4.7,-1.7,240,3,,,,,,TRUE,TRUE,,,,,,,,,,,,,,,,,,,,,,,,,,,METAR,937.0
CPRO 180700Z AUTO 29002KT 03/01 RMK AO1 T00320007,CPRO,2015-04-18T07:00:00Z,50.83,-112.05,3.2,0.7,290,2,,,,,,TRUE,TRUE,,,,,,,,,,,,,,,,,,,,,,,,,,,METAR,714.0
CXWM 180700Z AUTO 33013KT 08/M03 RMK AO1 PK WND 32019/0648 T00771033,CXWM,2015-04-18T07:00:00Z,49.5,-112.12,7.7,-3.3,330,13,,,,,,TRUE,TRUE,,,,,,,,,,,,,,,,,,,,,,,,,,,METAR,944.0
VTCT 180700Z 10007KT CAVOK 35/21 Q1007 A2975,VTCT,2015-04-18T07:00:00Z,19.95,99.88,35.0,21.0,100,7,,6.21,29.734253,,,,,,,,,,,CAVOK,,,,,,,,VFR,,,,,,,,,,,,METAR,390.0
VTSB 180700Z 10005KT 9999 FEW020 34/23 Q1007 A2975,VTSB,2015-04-18T07:00:00Z,9.12,99.13,34.0,23.0,100,5,,6.21,29.734253,,,,,,,,,,,FEW,2000,,,,,,,VFR,,,,,,,,,,,,METAR,11.0
TNCM 180700Z 10007KT 060V130 9999 BKN017TCU 25/21 Q1016 A3002,TNCM,2015-04-18T07:00:00Z,18.05,-63.12,25.0,21.0,100,7,,6.21,30.0,,,,,,,,,,,BKN,1700,,,,,,,MVFR,,,,,,,,,,,,METAR,4.0
DIBK 180700Z 22008KT 8000 NSC 24/22 Q1015 NOSIG,DIBK,2015-04-18T07:00:00Z,7.72,-5.07,24.0,22.0,220,8,,4.97,29.970472,,,,,,TRUE,,,,,,,,,,,,,,,,,,,,,,,,,METAR,376.0
CWHO 180700Z AUTO 20003KT M10/M13 RMK AO1 SLP152 T10951128 53006,CWHO,2015-04-18T07:00:00Z,55.45,-60.22,-9.5,-12.8,200,3,,,,1015.2,,TRUE,TRUE,,,,,,,,,,,,,,,,0.6,,,,,,,,,,,METAR,8.0
CXTV 180700Z AUTO 05005KT M14/M16 RMK AO1 SLP217 T11401162 53009,CXTV,2015-04-18T07:00:00Z,68.75,-133.5,-14.0,-16.2,50,5,,,,1021.7,,TRUE,TRUE,,,,,,,,,,,,,,,,0.9,,,,,,,,,,,METAR,85.0
CXPA 180700Z AUTO 28006KT 02/00 RMK AO1 T00180000,CXPA,2015-04-18T07:00:00Z,55.62,-118.3,1.8,0.0,280,6,,,,,,TRUE,TRUE,,,,,,,,,,,,,,,,,,,,,,,,,,,METAR,621.0
CXOY 180700Z AUTO 35014KT 07/04 RMK AO1 PK WND 35023/0616 T00670039,CXOY,2015-04-18T07:00:00Z,51.38,-110.35,6.7,3.9,350,14,,,,,,TRUE,TRUE,,,,,,,,,,,,,,,,,,,,,,,,,,,METAR,767.0
CXKM 180700Z AUTO 30014KT 03/02 RMK AO1 PK WND 30018/0656 T00340016,CXKM,2015-04-18T07:00:00Z,52.82,-111.85,3.4,1.6,300,14,,,,,,TRUE,TRUE,,,,,,,,,,,,,,,,,,,,,,,,,,,METAR,675.0
CXHR 180700Z AUTO 34013KT 05/01 RMK AO1 PK WND 33019/0604 T00480014,CXHR,2015-04-18T07:00:00Z,51.18,-112.5,4.8,1.4,340,13,,,,,,TRUE,TRUE,,,,,,,,,,,,,,,,,,,,,,,,,,,METAR,971.0
CXDP 180700Z AUTO 27009KT 04/M01 RMK AO1 T00371006,CXDP,2015-04-18T07:00:00Z,54.32,-113.95,3.7,-0.6,270,9,,,,,,TRUE,TRUE,,,,,,,,,,,,,,,,,,,,,,,,,,,METAR,614.0
CXBR 180700Z AUTO 24015KT 09/M02 RMK AO1 PK WND 22021/0644 T00941015,CXBR,2015-04-18T07:00:00Z,49.62,-113.82,9.4,-1.5,240,15,,,,,,TRUE,TRUE,,,,,,,,,,,,,,,,,,,,,,,,,,,METAR,1073.0
CXAF 180700Z AUTO 30012KT 05/M01 RMK AO1 PK WND 31017/0650 T00451008,CXAF,2015-04-18T07:00:00Z,54.28,-112.97,4.5,-0.8,300,12,,,,,,TRUE,TRUE,,,,,,,,,,,,,,,,,,,,,,,,,,,METAR,664.0
CWJU 180700Z AUTO 18005KT 06/02 RMK AO1 SLP320 T00560024 51008,CWJU,2015-04-18T07:00:00Z,54.25,-133.07,5.6,2.4,180,5,,,,1032.0,,TRUE,TRUE,,,,,,,,,,,,,,,,0.8,,,,,,,,,,,METAR,41.0
CXSC 180700Z AUTO 30011KT 12/01 RMK AO1 PK WND 30023/0610 T01160005,CXSC,2015-04-18T07:00:00Z,50.3,-110.08,11.6,0.5,300,11,,,,,,TRUE,TRUE,,,,,,,,,,,,,,,,,,,,,,,,,,,METAR,800.0
CAHR 180700Z AUTO 34009KT 02/M01 RMK AO1 PK WND 31017/0631 SLP076 T00171006 53024,CAHR,2015-04-18T07:00:00Z,46.35,-63.17,1.7,-0.6,340,9,,,,1007.6,,TRUE,TRUE,,,,,,,,,,,,,,,,2.4,,,,,,,,,,,METAR,53.0
CWZV 180700Z AUTO 30011KT 07/02 RMK AO1 SLP325 T00690023 51005,CWZV,2015-04-18T07:00:00Z,51.93,-131.02,6.9,2.3,300,11,,,,1032.5,,TRUE,TRUE,,,,,,,,,,,,,,,,0.5,,,,,,,,,,,METAR,92.0
CWZL 180700Z AUTO 27007KT 06/03 RMK AO1 SLP330 T00640029 51007,CWZL,2015-04-18T07:00:00Z,53.03,-131.6,6.4,2.9,270,7,,,,1033.0,,TRUE,TRUE,,,,,,,,,,,,,,,,0.7,,,,,,,,,,,METAR,17.0
CWWL 180700Z AUTO 10003KT 07/03 RMK AO1 SLP320 T00720029 53007,CWWL,2015-04-18T07:00:00Z,53.5,-130.63,7.2,2.9,100,3,,,,1032.0,,TRUE,TRUE,,,,,,,,,,,,,,,,0.7,,,,,,,,,,,METAR,17.0
CWRU 180700Z AUTO 35020KT 08/04 RMK AO1 PK WND 35023/0602 SLP298 T00760041 50009,CWRU,2015-04-18T07:00:00Z,50.12,-127.93,7.6,4.1,350,20,,,,1029.8,,TRUE,TRUE,,,,,,,,,,,,,,,,0.9,,,,,,,,,,,METAR,98.0
CWQS 180700Z AUTO 15008KT 07/03 RMK AO1 SLP321 T00720032 50004,CWQS,2015-04-18T07:00:00Z,53.32,-132.77,7.2,3.2,150,8,,,,1032.1,,TRUE,TRUE,,,,,,,,,,,,,,,,0.4,,,,,,,,,,,METAR,14.0
CWME 180700Z AUTO 15001KT 05/04 RMK AO1 SLP315 T00530040 50006,CWME,2015-04-18T07:00:00Z,52.18,-127.47,5.3,4.0,150,1,,,,1031.5,,TRUE,TRUE,,,,,,,,,,,,,,,,0.6,,,,,,,,,,,METAR,32.0
CWCT 180700Z AUTO 31011KT 03/02 RMK AO1 SLP172 T00270016 53027,CWCT,2015-04-18T07:00:00Z,52.07,-111.47,2.7,1.6,310,11,,,,1017.2,,TRUE,TRUE,,,,,,,,,,,,,,,,2.7,,,,,,,,,,,METAR,791.0
CWHP 180700Z AUTO 35018G24KT M01/M02 RMK AO1 PK WND 35024/0650 SLP060 T10141017 53024,CWHP,2015-04-18T07:00:00Z,49.07,-61.7,-1.4,-1.7,350,18,24,,,1006.0,,TRUE,TRUE,,,,,,,,,,,,,,,,2.4,,,,,,,,,,,METAR,4.0
CWWX 180700Z AUTO 29003KT 01/M00 RMK AO1 SLP134 T00141001 58012,CWWX,2015-04-18T07:00:00Z,45.32,-81.73,1.4,-0.1,290,3,,,,1013.4,,TRUE,TRUE,,,,,,,,,,,,,,,,-1.2,,,,,,,,,,,METAR,181.0
VTSG 180700Z 15004K 090V220 9999 FEW020 34/12 Q1008 A2979,VTSG,2015-04-18T07:00:00Z,8.1,98.98,34.0,12.0,,,,6.21,29.763779,,,,,,,,,,,FEW,2000,,,,,,,VFR,,,,,,,,,,,,METAR,25.0
UTFF 180700Z 27007KT 9999 -SHRA BKN050CB BKN100 13/10 Q1018 R18/19//60,UTFF,2015-04-18T07:00:00Z,40.37,71.77,13.0,10.0,270,7,,6.21,30.059055,,,,,,,,,,-SHRA,BKN,5000,BKN,10000,,,,,VFR,,,,,,,,,,,,METAR,577.0
CTNK 180700Z AUTO 00000KT M02/M03 RMK AO1 SLP142 T10221034 58012,CTNK,2015-04-18T07:00:00Z,45.53,-78.27,-2.2,-3.4,0,0,,,,1014.2,,TRUE,TRUE,,,,,,,,,,,,,,,,-1.2,,,,,,,,,,,METAR,410.0
CXSR 180700Z AUTO 28009G15KT 00/M01 RMK AO1 SOG 20 2019 SLP235 T00001006,CXSR,2015-04-18T07:00:00Z,55.7,-119.23,0.0,-0.6,280,9,15,,,1023.5,,TRUE,TRUE,,,,,,,,,,,,,,,,,,,,,,,,,,,METAR,1015.0
CXLL 180700Z AUTO 00000KT M01/M04 RMK AO1 SOG 28 3023 SLP189 T10121038,CXLL,2015-04-18T07:00:00Z,61.12,-122.85,-1.2,-3.8,0,0,,,,1018.9,,TRUE,TRUE,,,,,,,,,,,,,,,,,,,,,,,,,,,METAR,183.0
CXHA 180700Z AUTO 22003KT 07/05 RMK AO1 SLP153 T00710053 55005,CXHA,2015-04-18T07:00:00Z,42.03,-82.9,7.1,5.3,220,3,,,,1015.3,,TRUE,TRUE,,,,,,,,,,,,,,,,-0.5,,,,,,,,,,,METAR,191.0
CXDI 180700Z AUTO 20001KT 05/05 RMK AO1 SLP148 T00530053 56011,CXDI,2015-04-18T07:00:00Z,42.87,-80.55,5.3,5.3,200,1,,,,1014.8,,TRUE,TRUE,,,,,,,,,,,,,,,,-1.1,,,,,,,,,,,METAR,232.0
CWNC 180700Z AUTO 29005KT 07/04 RMK AO1 SLP143 T00740037 55004,CWNC,2015-04-18T07:00:00Z,43.95,-78.17,7.4,3.7,290,5,,,,1014.3,,TRUE,TRUE,,,,,,,,,,,,,,,,-0.4,,,,,,,,,,,METAR,78.0
CWXL 180700Z AUTO 33009KT 10/M00 RMK AO1 PK WND 33020/0612 T00981002,CWXL,2015-04-18T07:00:00Z,49.73,-111.45,9.8,-0.2,330,9,,,,,,TRUE,TRUE,,,,,,,,,,,,,,,,,,,,,,,,,,,METAR,817.0
CWIJ 180700Z AUTO 27002KT M19/M22 RMK AO1 SOG 74 2014 SLP246 T11941217,CWIJ,2015-04-18T07:00:00Z,65.77,-111.23,-19.4,-21.7,270,2,,,,1024.6,,TRUE,TRUE,,,,,,,,,,,,,,,,,,,,,,,,,,,METAR,500.0
CZSM 180700Z AUTO 04002KT 05/M06 RMK AO1 SOG 04 3007 SLP142 T00491061,CZSM,2015-04-18T07:00:00Z,60.03,-111.93,4.9,-6.1,40,2,,,,1014.2,,TRUE,TRUE,,,,,,,,,,,,,,,,,,,,,,,,,,,METAR,203.0
CWEK 180700Z AUTO 26003KT 07/ RMK AO1 T0073,CWEK,2015-04-18T07:00:00Z,54.58,-130.7,7.3,,260,3,,,,,,TRUE,TRUE,,,,,,,,,,,,,,,,,,,,,,,,,,,METAR,8.0
CWOY 180700Z AUTO 15010KT 06/M03 RMK AO1 SLP157 T00611032 58029,CWOY,2015-04-18T07:00:00Z,51.77,-104.2,6.1,-3.2,150,10,,,,1015.7,,TRUE,TRUE,,,,,,,,,,,,,,,,-2.9,,,,,,,,,,,METAR,560.0
CWKX 180700Z AUTO 07001KT M03/M05 RMK AO1 SOG 16 1019 SLP302 T10261053,CWKX,2015-04-18T07:00:00Z,58.43,-130.02,-2.6,-5.3,70,1,,,,1030.2,,TRUE,TRUE,,,,,,,,,,,,,,,,,,,,,,,,,,,METAR,793.0
CWXC 180700Z AUTO 35002KT 01/M05 RMK AO1 SLP139 T00051046 50002,CWXC,2015-04-18T07:00:00Z,48.88,-71.03,0.5,-4.6,350,2,,,,1013.9,,TRUE,TRUE,,,,,,,,,,,,,,,,0.2,,,,,,,,,,,METAR,300.0
CZMJ 180700Z AUTO 16016KT 10/M03 RMK AO1 PK WND 16020/0657 SLP154 T00971032 58023,CZMJ,2015-04-18T07:00:00Z,50.33,-105.57,9.7,-3.2,160,16,,,,1015.4,,TRUE,TRUE,,,,,,,,,,,,,,,,-2.3,,,,,,,,,,,METAR,577.0
CXYH 180700Z AUTO 03002KT 01/M06 RMK AO1 SOG 16 1022 SLP176 T00121059,CXYH,2015-04-18T07:00:00Z,61.25,-123.75,1.2,-5.9,30,2,,,,1017.6,,TRUE,TRUE,,,,,,,,,,,,,,,,,,,,,,,,,,,METAR,204.0
CXVN 180700Z AUTO 20003KT 09/07 RMK AO1 SLP142 T00930067 57008,CXVN,2015-04-18T07:00:00Z,43.18,-79.4,9.3,6.7,200,3,,,,1014.2,,TRUE,TRUE,,,,,,,,,,,,,,,,-0.8,,,,,,,,,,,METAR,79.0
CXTO 180700Z AUTO 11/05 RMK AO1 SLP145 T01120049 58009,CXTO,2015-04-18T07:00:00Z,43.67,-79.4,11.2,4.9,,,,,,1014.5,,TRUE,TRUE,,,,,,,,,,,,,,,,-0.9,,,,,,,,,,,METAR,113.0
CXRB 180700Z AUTO 35008KT M23/M26 RMK AO1 SOG 10 2023 SLP064 T12311255,CXRB,2015-04-18T07:00:00Z,74.72,-94.98,-23.1,-25.5,350,8,,,,1006.4,,TRUE,TRUE,,,,,,,,,,,,,,,,,,,,,,,,,,,METAR,68.0
CXPC 180700Z AUTO 01/01 RMK AO1 SLP139 T00130006 55012,CXPC,2015-04-18T07:00:00Z,45.35,-80.05,1.3,0.6,,,,,,1013.9,,TRUE,TRUE,,,,,,,,,,,,,,,,-1.2,,,,,,,,,,,METAR,176.0
CXDK 180700Z AUTO 09002KT M02/M05 RMK AO1 SLP196 T10181054 53024,CXDK,2015-04-18T07:00:00Z,61.27,-124.47,-1.8,-5.4,90,2,,,,1019.6,,TRUE,TRUE,,,,,,,,,,,,,,,,2.4,,,,,,,,,,,METAR,283.0
FEFT 180700Z 00000KT 9999 FEW007 SCT150 BKN300 23/23 Q1013,FEFT,2015-04-18T07:00:00Z,4.25,15.8,23.0,23.0,0,0,,6.21,29.911417,,,,,,,,,,,FEW,700,SCT,15000,BKN,30000,,,VFR,,,,,,,,,,,,METAR,583.0
FEFF 180700Z 17006KT 9999 FEW013 BKN300 26/22 Q1014 NOSIG,FEFF,2015-04-18T07:00:00Z,4.4,18.52,26.0,22.0,170,6,,6.21,29.940945,,,,,,TRUE,,,,,FEW,1300,BKN,30000,,,,,VFR,,,,,,,,,,,,METAR,366.0
FCPP 180700Z VRB02KT 9999 FEW016 FEW030CB 27/24 Q1014 NOSIG,FCPP,2015-04-18T07:00:00Z,-4.82,11.9,27.0,24.0,0,2,,6.21,29.940945,,,,,,TRUE,,,,,FEW,1600,FEW,3000,,,,,VFR,,,,,,,,,,,,METAR,17.0
FCBB 180700Z VRB01KT 9999 FEW013 26/22 Q1016 NOSIG,FCBB,2015-04-18T07:00:00Z,-4.25,15.25,26.0,22.0,0,1,,6.21,30.0,,,,,,TRUE,,,,,FEW,1300,,,,,,,VFR,,,,,,,,,,,,METAR,316.0
VIAR 180700Z 33009KT 4500 DU SCT040 BKN200 34/17 Q1005,VIAR,2015-04-18T07:00:00Z,31.7,74.8,34.0,17.0,330,9,,2.8,29.675198,,,,,,,,,,DU,SCT,4000,BKN,20000,,,,,IFR,,,,,,,,,,,,METAR,234.0
VILK 180700Z 29008KT 5000 HZ NSC 36/17 Q1003 NOSIG,VILK,2015-04-18T07:00:00Z,26.75,80.87,36.0,17.0,290,8,,3.11,29.616142,,,,,,TRUE,,,,HZ,,,,,,,,,,,,,,,,,,,,,METAR,128.0
VIDP 180700Z 30007KT 3500 HZ NSC 34/16 Q1005 NOSIG,VIDP,2015-04-18T07:00:00Z,28.57,77.12,34.0,16.0,300,7,,2.17,29.675198,,,,,,TRUE,,,,HZ,,,,,,,,,,,,,,,,,,,,,METAR,233.0
TAPA 180700Z 10008KT 9999 SCT018 25/21 Q1016 NOSIG,TAPA,2015-04-18T07:00:00Z,17.12,-61.78,25.0,21.0,100,8,,6.21,30.0,,,,,,TRUE,,,,,SCT,1800,,,,,,,VFR,,,,,,,,,,,,METAR,14.0
FNSU 180700Z VRB02KT 9999 FEW012 BKN070 26/22 Q1017,FNSU,2015-04-18T07:00:00Z,-11.17,13.85,26.0,22.0,0,2,,6.21,30.029528,,,,,,,,,,,FEW,1200,BKN,7000,,,,,VFR,,,,,,,,,,,,METAR,11.0
FNKU 180700Z 35005KT 9999 FEW014 SCT100 19/15 Q////,FNKU,2015-04-18T07:00:00Z,-12.37,16.93,19.0,15.0,350,5,,6.21,,,,,,,,,,,,FEW,1400,SCT,10000,,,,,VFR,,,,,,,,,,,,METAR,1699.0
FNUB 180700Z 20005KT CAVOK 24/15 Q1026,FNUB,2015-04-18T07:00:00Z,-14.93,13.57,24.0,15.0,200,5,,6.21,30.295275,,,,,,,,,,,CAVOK,,,,,,,,VFR,,,,,,,,,,,,METAR,1761.0
FNUG 180700Z 00000KT 9999 BKN015 21/20 Q1017,FNUG,2015-04-18T07:00:00Z,-7.6,15.28,21.0,20.0,0,0,,6.21,30.029528,,,,,,,,,,,BKN,1500,,,,,,,MVFR,,,,,,,,,,,,METAR,829.0
FNBG 180700Z 00000KT 9999 FEW020 BKN100 26/23 Q1015,FNBG,2015-04-18T07:00:00Z,-12.62,13.4,26.0,23.0,0,0,,6.21,29.970472,,,,,,,,,,,FEW,2000,BKN,10000,,,,,VFR,,,,,,,,,,,,METAR,36.0
OEYN 180700Z 09002KT CAVOK 27/09 Q1013 NOSIG,OEYN,2015-04-18T07:00:00Z,24.13,38.07,27.0,9.0,90,2,,6.21,29.911417,,,,,,TRUE,,,,,CAVOK,,,,,,,,VFR,,,,,,,,,,,,METAR,8.0
OEWJ 180700Z 06008KT CAVOK 33/09 Q1015 NOSIG,OEWJ,2015-04-18T07:00:00Z,26.18,36.47,33.0,9.0,60,8,,6.21,29.970472,,,,,,TRUE,,,,,CAVOK,,,,,,,,VFR,,,,,,,,,,,,METAR,16.0
OETR 180700Z 06010KT CAVOK 20/04 Q1023,OETR,2015-04-18T07:00:00Z,31.7,38.73,20.0,4.0,60,10,,6.21,30.206694,,,,,,,,,,,CAVOK,,,,,,,,VFR,,,,,,,,,,,,METAR,855.0
OETB 180700Z 02005KT CAVOK 19/04 Q1023 NOSIG,OETB,2015-04-18T07:00:00Z,28.37,36.62,19.0,4.0,20,5,,6.21,30.206694,,,,,,TRUE,,,,,CAVOK,,,,,,,,VFR,,,,,,,,,,,,METAR,770.0
OESK 180700Z 00000KT CAVOK 22/M03 Q1023 NOSIG,OESK,2015-04-18T07:00:00Z,29.77,40.1,22.0,-3.0,0,0,,6.21,30.206694,,,,,,TRUE,,,,,CAVOK,,,,,,,,VFR,,,,,,,,,,,,METAR,684.0
OERR 180700Z 06006KT CAVOK 24/08 Q1021 NOSIG,OERR,2015-04-18T07:00:00Z,30.88,41.12,24.0,8.0,60,6,,6.21,30.147638,,,,,,TRUE,,,,,CAVOK,,,,,,,,VFR,,,,,,,,,,,,METAR,552.0
OERF 180700Z 32007KT CAVOK 20/08 Q1020,OERF,2015-04-18T07:00:00Z,29.62,43.47,20.0,8.0,320,7,,6.21,30.11811,,,,,,,,,,,CAVOK,,,,,,,,VFR,,,,,,,,,,,,METAR,447.0
OEPA 180700Z 36010KT 9999 BKN035 25/18 Q1018 NOSIG,OEPA,2015-04-18T07:00:00Z,28.32,46.12,25.0,18.0,360,10,,6.21,30.059055,,,,,,TRUE,,,,,BKN,3500,,,,,,,VFR,,,,,,,,,,,,METAR,355.0
VTSC 180700Z 06009KT 030V110 9999 FEW022 32/26 Q1008 A2978 RWY20 INFO E,VTSC,2015-04-18T07:00:00Z,6.52,101.75,32.0,26.0,60,9,,6.21,29.763779,,,,,,,,,,,FEW,2200,,,,,,,VFR,,,,,,,,,,,,SPECI,6.0
SBTE 180700Z 33003KT 9999 FEW012 25/24 Q1010,SBTE,2015-04-18T07:00:00Z,-5.03,-42.82,25.0,24.0,330,3,,6.21,29.822834,,,,,,,,,,,FEW,1200,,,,,,,VFR,,,,,,,,,,,,METAR,69.0
SBSV 180700Z 12005KT 9999 SCT015 27/23 Q1012,SBSV,2015-04-18T07:00:00Z,-12.9,-38.32,27.0,23.0,120,5,,6.21,29.88189,,,,,,,,,,,SCT,1500,,,,,,,VFR,,,,,,,,,,,,METAR,6.0
SBRF 180700Z 22005KT 9999 FEW023 24/22 Q1011,SBRF,2015-04-18T07:00:00Z,-8.13,-34.92,24.0,22.0,220,5,,6.21,29.852362,,,,,,,,,,,FEW,2300,,,,,,,VFR,,,,,,,,,,,,METAR,19.0
SBQV 180700Z 12006KT 9999 SCT010 21/20 1018,SBQV,2015-04-18T07:00:00Z,-14.87,-40.87,21.0,20.0,120,6,,6.21,,,,,,,,,,,,SCT,1000,,,,,,,VFR,,,,,,,,,,,,SPECI,893.0
SBPL 180700Z 14005KT CAVOK 26/23 Q1013,SBPL,2015-04-18T07:00:00Z,-9.37,-40.57,26.0,23.0,140,5,,6.21,29.911417,,,,,,,,,,,CAVOK,,,,,,,,VFR,,,,,,,,,,,,METAR,375.0
SBNT 180700Z 22005KT 9999 SCT020 25/22 Q1011,SBNT,2015-04-18T07:00:00Z,-5.92,-35.25,25.0,22.0,220,5,,6.21,29.852362,,,,,,,,,,,SCT,2000,,,,,,,VFR,,,,,,,,,,,,METAR,49.0
SBMO 180700Z 34004KT 9999 SCT020 22/21 Q1013,SBMO,2015-04-18T07:00:00Z,-9.52,-35.77,22.0,21.0,340,4,,6.21,29.911417,,,,,,,,,,,SCT,2000,,,,,,,VFR,,,,,,,,,,,,METAR,115.0
SBKG 180700Z 10004KT 9999 FEW010 21/20 Q1014,SBKG,2015-04-18T07:00:00Z,-7.27,-35.87,21.0,20.0,100,4,,6.21,29.940945,,,,,,,,,,,FEW,1000,,,,,,,VFR,,,,,,,,,,,,METAR,560.0
SBJU 180700Z 00000KT 9999 FEW020 26/24 Q1016,SBJU,2015-04-18T07:00:00Z,-7.22,-39.27,26.0,24.0,0,0,,6.21,30.0,,,,,,,,,,,FEW,2000,,,,,,,VFR,,,,,,,,,,,,METAR,409.0
SBJP 180700Z 23003KT 9999 BKN020 23/21 Q1012,SBJP,2015-04-18T07:00:00Z,-7.15,-34.95,23.0,21.0,230,3,,6.21,29.88189,,,,,,,,,,,BKN,2000,,,,,,,MVFR,,,,,,,,,,,,METAR,7.0
SBIL 180700Z 23003KT 9000 VCSH SCT020 SCT035 25/23 Q1013,SBIL,2015-04-18T07:00:00Z,-14.8,-39.02,25.0,23.0,230,3,,5.59,29.911417,,,,,,,,,,VCSH,SCT,2000,SCT,3500,,,,,VFR,,,,,,,,,,,,METAR,5.0
SBFZ 180700Z 16005KT 9999 SCT017 26/23 Q1010,SBFZ,2015-04-18T07:00:00Z,-3.77,-38.52,26.0,23.0,160,5,,6.21,29.822834,,,,,,,,,,,SCT,1700,,,,,,,VFR,,,,,,,,,,,,METAR,25.0
SBAR 180700Z 10005KT 9999 SCT015 26/23 Q1012,SBAR,2015-04-18T07:00:00Z,-10.97,-37.07,26.0,23.0,100,5,,6.21,29.88189,,,,,,,,,,,SCT,1500,,,,,,,VFR,,,,,,,,,,,,METAR,9.0
SBVT 180700Z 34002KT 9999 SCT020 SCT070 22/20 Q1015,SBVT,2015-04-18T07:00:00Z,-20.27,-40.27,22.0,20.0,340,2,,6.21,29.970472,,,,,,,,,,,SCT,2000,SCT,7000,,,,,VFR,,,,,,,,,,,,METAR,4.0
SBUR 180700Z 04006KT CAVOK 23/18 Q1016,SBUR,2015-04-18T07:00:00Z,-19.77,-47.97,23.0,18.0,40,6,,6.21,30.0,,,,,,,,,,,CAVOK,,,,,,,,VFR,,,,,,,,,,,,METAR,807.0
SBUL 180700Z 03006KT CAVOK 20/17 Q1017,SBUL,2015-04-18T07:00:00Z,-18.87,-48.22,20.0,17.0,30,6,,6.21,30.029528,,,,,,,,,,,CAVOK,,,,,,,,VFR,,,,,,,,,,,,METAR,922.0
SBSR 180700Z 00000KT CAVOK 24/18 Q1016,SBSR,2015-04-18T07:00:00Z,-20.8,-49.4,24.0,18.0,0,0,,6.21,30.0,,,,,,,,,,,CAVOK,,,,,,,,VFR,,,,,,,,,,,,METAR,543.0
SBSP 180700Z AUTO 04005KT 010V080 CAVOK 19/16 Q1017,SBSP,2015-04-18T07:00:00Z,-23.62,-46.63,19.0,16.0,40,5,,6.21,30.029528,,,TRUE,,,,,,,,CAVOK,,,,,,,,VFR,,,,,,,,,,,,METAR,803.0
SBSC 180700Z 03004KT 8000 BKN025 20/19 Q1015,SBSC,2015-04-18T07:00:00Z,-22.92,-43.72,20.0,19.0,30,4,,4.97,29.970472,,,,,,,,,,,BKN,2500,,,,,,,MVFR,,,,,,,,,,,,METAR,3.0
SBRP 180700Z 07003KT CAVOK 21/19 Q1014,SBRP,2015-04-18T07:00:00Z,-21.12,-47.77,21.0,19.0,70,3,,6.21,29.940945,,,,,,,,,,,CAVOK,,,,,,,,VFR,,,,,,,,,,,,METAR,549.0
SBKP 180700Z 13005KT CAVOK 19/18 Q1015,SBKP,2015-04-18T07:00:00Z,-23.0,-47.12,19.0,18.0,130,5,,6.21,29.970472,,,,,,,,,,,CAVOK,,,,,,,,VFR,,,,,,,,,,,,METAR,661.0
SBGR 180700Z 07008KT 4000 BR NSC 18/18 Q1016,SBGR,2015-04-18T07:00:00Z,-23.42,-46.47,18.0,18.0,70,8,,2.49,30.0,,,,,,,,,,BR,,,,,,,,,,,,,,,,,,,,,SPECI,750.0
SBGL 180700Z 08002KT 9999 SCT010 23/21 Q1014,SBGL,2015-04-18T07:00:00Z,-22.82,-43.25,23.0,21.0,80,2,,6.21,29.940945,,,,,,,,,,,SCT,1000,,,,,,,VFR,,,,,,,,,,,,METAR,6.0
SBDN 180700Z 14008KT CAVOK 23/18 Q1013,SBDN,2015-04-18T07:00:00Z,-22.18,-51.43,23.0,18.0,140,8,,6.21,29.911417,,,,,,,,,,,CAVOK,,,,,,,,VFR,,,,,,,,,,,,METAR,435.0
SBCF 180700Z 13005KT CAVOK 20/17 Q1018,SBCF,2015-04-18T07:00:00Z,-19.63,-43.97,20.0,17.0,130,5,,6.21,30.059055,,,,,,,,,,,CAVOK,,,,,,,,VFR,,,,,,,,,,,,METAR,828.0
SBBH 180700Z 10005KT 9999 SCT023 20/17 Q1018,SBBH,2015-04-18T07:00:00Z,-19.85,-43.95,20.0,17.0,100,5,,6.21,30.059055,,,,,,,,,,,SCT,2300,,,,,,,VFR,,,,,,,,,,,,METAR,785.0
SBAF 180700Z 32005KT 9999 FEW020 22/19 Q1014,SBAF,2015-04-18T07:00:00Z,-22.87,-43.37,22.0,19.0,320,5,,6.21,29.940945,,,,,,,,,,,FEW,2000,,,,,,,VFR,,,,,,,,,,,,METAR,34.0
SBPJ 180700Z 11003KT 9999 VCTS FEW025 FEW027CB 23/23 Q1012,SBPJ,2015-04-18T07:00:00Z,-10.28,-48.37,23.0,23.0,110,3,,6.21,29.88189,,,,,,,,,,VCTS,FEW,2500,FEW,2700,,,,,VFR,,,,,,,,,,,,METAR,236.0
SBGO 180700Z 00000KT CAVOK 21/19 Q1016,SBGO,2015-04-18T07:00:00Z,-16.62,-49.22,21.0,19.0,0,0,,6.21,30.0,,,,,,,,,,,CAVOK,,,,,,,,VFR,,,,,,,,,,,,METAR,747.0
SBCY 180700Z 32002KT CAVOK 23/22 Q1012,SBCY,2015-04-18T07:00:00Z,-15.65,-56.12,23.0,22.0,320,2,,6.21,29.88189,,,,,,,,,,,CAVOK,,,,,,,,VFR,,,,,,,,,,,,METAR,182.0
SBCG 180700Z 05005KT 9999 FEW040 FEW050TCU SCT100 21/20 Q1014,SBCG,2015-04-18T07:00:00Z,-20.47,-54.67,21.0,20.0,50,5,,6.21,29.940945,,,,,,,,,,,FEW,4000,FEW,5000,SCT,10000,,,VFR,,,,,,,,,,,,METAR,567.0
SBBR 180700Z 00000KT CAVOK 19/17 Q1018,SBBR,2015-04-18T07:00:00Z,-15.87,-47.92,19.0,17.0,0,0,,6.21,30.059055,,,,,,,,,,,CAVOK,,,,,,,,VFR,,,,,,,,,,,,METAR,1061.0
SBSN 180700Z 00000KT 5000 -RA SCT013 OVC100 23/23 Q1011 RETS,SBSN,2015-04-18T07:00:00Z,-2.42,-54.78,23.0,23.0,0,0,,3.11,29.852362,,,,,,,,,,-RA,SCT,1300,OVC,10000,,,,,MVFR,,,,,,,,,,,,METAR,72.0
SBSL 180700Z 08003KT 9999 FEW017 26/23 Q1010,SBSL,2015-04-18T07:00:00Z,-2.6,-44.22,26.0,23.0,80,3,,6.21,29.822834,,,,,,,,,,,FEW,1700,,,,,,,VFR,,,,,,,,,,,,METAR,53.0
SBRB 180700Z 25002KT 5000 BR SCT002 21/20 Q1012,SBRB,2015-04-18T07:00:00Z,-10.0,-67.78,21.0,20.0,250,2,,3.11,29.88189,,,,,,,,,,BR,SCT,200,,,,,,,MVFR,,,,,,,,,,,,METAR,143.0
SBPV 180700Z 12002KT 9999 FEW015 SCT100 24/23 Q1010,SBPV,2015-04-18T07:00:00Z,-8.72,-63.9,24.0,23.0,120,2,,6.21,29.822834,,,,,,,,,,,FEW,1500,SCT,10000,,,,,VFR,,,,,,,,,,,,METAR,88.0
SBMQ 180700Z 30003KT 9999 -RA BKN006 25/25 Q1010,SBMQ,2015-04-18T07:00:00Z,0.05,-51.07,25.0,25.0,300,3,,6.21,29.822834,,,,,,,,,,-RA,BKN,600,,,,,,,IFR,,,,,,,,,,,,METAR,15.0
SBMA 180700Z 35004KT CAVOK 25/24 Q1010,SBMA,2015-04-18T07:00:00Z,-5.37,-49.13,25.0,24.0,350,4,,6.21,29.822834,,,,,,,,,,,CAVOK,,,,,,,,VFR,,,,,,,,,,,,METAR,102.0
SBEG 180700Z 00000KT 9999 FEW010 25/22 Q1012,SBEG,2015-04-18T07:00:00Z,-3.02,-60.03,25.0,22.0,0,0,,6.21,29.88189,,,,,,,,,,,FEW,1000,,,,,,,VFR,,,,,,,,,,,,METAR,2.0
SBBV 180700Z 00000KT 9999 FEW010 SCT020 BKN070 23/21 Q1013,SBBV,2015-04-18T07:00:00Z,2.85,-60.7,23.0,21.0,0,0,,6.21,29.911417,,,,,,,,,,,FEW,1000,SCT,2000,BKN,7000,,,VFR,,,,,,,,,,,,METAR,140.0
SBBE 180700Z 10002KT CAVOK 25/23 Q1010,SBBE,2015-04-18T07:00:00Z,-1.37,-48.47,25.0,23.0,100,2,,6.21,29.822834,,,,,,,,,,,CAVOK,,,,,,,,VFR,,,,,,,,,,,,METAR,16.0
SBPK 180700Z 27007KT CAVOK 16/16 Q1012,SBPK,2015-04-18T07:00:00Z,-31.72,-52.33,16.0,16.0,270,7,,6.21,29.88189,,,,,,,,,,,CAVOK,,,,,,,,VFR,,,,,,,,,,,,METAR,13.0
SBPA 180700Z 29003KT 7000 FEW014 BKN080 20/19 Q1012,SBPA,2015-04-18T07:00:00Z,-30.0,-51.17,20.0,19.0,290,3,,4.35,29.88189,,,,,,,,,,,FEW,1400,BKN,8000,,,,,MVFR,,,,,,,,,,,,METAR,3.0
SBLO 180700Z 16003KT CAVOK 22/19 Q1015,SBLO,2015-04-18T07:00:00Z,-23.32,-51.12,22.0,19.0,160,3,,6.21,29.970472,,,,,,,,,,,CAVOK,,,,,,,,VFR,,,,,,,,,,,,METAR,570.0
SBFL 180700Z 36005KT 9999 SCT010 BKN015 BKN060 24/22 Q1013,SBFL,2015-04-18T07:00:00Z,-27.67,-48.53,24.0,22.0,360,5,,6.21,29.911417,,,,,,,,,,,SCT,1000,BKN,1500,BKN,6000,,,MVFR,,,,,,,,,,,,METAR,5.0
SBFI 180700Z 02006KT 9999 FEW015 20/19 Q1010,SBFI,2015-04-18T07:00:00Z,-25.6,-54.48,20.0,19.0,20,6,,6.21,29.822834,,,,,,,,,,,FEW,1500,,,,,,,VFR,,,,,,,,,,,,METAR,243.0
SBCT 180700Z 31003KT 9999 OVC008 18/17 Q1018,SBCT,2015-04-18T07:00:00Z,-25.52,-49.17,18.0,17.0,310,3,,6.21,30.059055,,,,,,,,,,,OVC,800,,,,,,,IFR,,,,,,,,,,,,METAR,908.0
HDAM 180700Z 08009KT CAVOK 30/23 Q1015,HDAM,2015-04-18T07:00:00Z,11.55,43.17,30.0,23.0,80,9,,6.21,29.970472,,,,,,,,,,,CAVOK,,,,,,,,VFR,,,,,,,,,,,,METAR,49.0
KMWS 180700Z 02003G06KT 12/M08 RMK SNOW DEPTH 2.00,KMWS,2015-04-18T07:00:00Z,34.23,-118.05,12.0,-8.0,20,3,6,,,,,,,,,,,,,,,,,,,,,,,,,,,,,,,,,SPECI,1739.0
FQVL 180700Z 18007KT 150V230 9999 SCT020 BKN080 25/21 Q1020,FQVL,2015-04-18T07:00:00Z,-22.0,35.32,25.0,21.0,180,7,,6.21,30.11811,,,,,,,,,,,SCT,2000,BKN,8000,,,,,VFR,,,,,,,,,,,,METAR,21.0
FLSK 180700Z 08005KT 9999 FEW010 BKN100 BKN300 22/18 Q1022,FLSK,2015-04-18T07:00:00Z,-13.0,28.67,22.0,18.0,80,5,,6.21,30.177166,,,,,,,,,,,FEW,1000,BKN,10000,BKN,30000,,,VFR,,,,,,,,,,,,METAR,1261.0
YSNW 180700Z AUTO 00000KT 9999 // NCD 22/20 Q1011,YSNW,2015-04-18T07:00:00Z,-34.95,150.52,22.0,20.0,0,0,,6.21,29.852362,,,TRUE,,,,,,,,,,,,,,,,,,,,,,,,,,,,METAR,110.0
YRMD 180700Z AUTO 20007KT //// // ////// 34/11 Q1012,YRMD,2015-04-18T07:00:00Z,-20.7,143.12,34.0,11.0,200,7,,,29.88189,,,TRUE,,,,,,,,,,,,,,,,,,,,,,,,,,,,METAR,207.0
YBPN 180700Z AUTO 11009KT 9999 // NCD 27/20 Q1015,YBPN,2015-04-18T07:00:00Z,-20.5,148.55,27.0,20.0,110,9,,6.21,29.970472,,,TRUE,,,,,,,,,,,,,,,,,,,,,,,,,,,,METAR,25.0
YBOK 180700Z AUTO 05013KT 9999 // BKN055 21/16 Q1020,YBOK,2015-04-18T07:00:00Z,-27.42,151.72,21.0,16.0,50,13,,6.21,30.11811,,,TRUE,,,,,,,,BKN,5500,,,,,,,VFR,,,,,,,,,,,,METAR,407.0
YBNA 180700Z AUTO 03008KT 9999 // NCD 24/18 Q1019,YBNA,2015-04-18T07:00:00Z,-28.83,153.57,24.0,18.0,30,8,,6.21,30.088583,,,TRUE,,,,,,,,,,,,,,,,,,,,,,,,,,,,METAR,2.0
YBMK 180700Z AUTO 10011KT 9999 // SCT024 SCT031 BKN039 27/21 Q1015,YBMK,2015-04-18T07:00:00Z,-21.17,149.17,27.0,21.0,100,11,,6.21,29.970472,,,TRUE,,,,,,,,SCT,2400,SCT,3100,BKN,3900,,,VFR,,,,,,,,,,,,METAR,31.0
YBHI 180700Z AUTO 22009KT 9999 // NCD 17/11 Q1018,YBHI,2015-04-18T07:00:00Z,-32.0,141.47,17.0,11.0,220,9,,6.21,30.059055,,,TRUE,,,,,,,,,,,,,,,,,,,,,,,,,,,,METAR,292.0
YESP 180700Z AUTO 11012KT 9999 // BKN030 OVC040 17/10 Q1027,YESP,2015-04-18T07:00:00Z,-33.68,121.82,17.0,10.0,110,12,,6.21,30.324802,,,TRUE,,,,,,,,BKN,3000,OVC,4000,,,,,MVFR,,,,,,,,,,,,METAR,143.0
YEML 180700Z AUTO 10013KT 9999 // SCT049 BKN058 BKN084 28/18 Q1016,YEML,2015-04-18T07:00:00Z,-23.57,148.18,28.0,18.0,100,13,,6.21,30.0,,,TRUE,,,,,,,,SCT,4900,BKN,5800,BKN,8400,,,VFR,,,,,,,,,,,,METAR,190.0
YDBY 180700Z AUTO 36003KT //// // ////// 34/21 Q1009,YDBY,2015-04-18T07:00:00Z,-17.37,123.67,34.0,21.0,360,3,,,29.793306,,,TRUE,,,,,,,,,,,,,,,,,,,,,,,,,,,,METAR,7.0
YCOM 180700Z AUTO 33011G21KT 9999 // SCT039 OVC091 OVC110 17/10 Q1013,YCOM,2015-04-18T07:00:00Z,-36.3,148.97,17.0,10.0,330,11,21,6.21,29.911417,,,TRUE,,,,,,,,SCT,3900,OVC,9100,OVC,11000,,,VFR,,,,,,,,,,,,METAR,941.0
YCDU 180700Z AUTO 25014KT 9999 // BKN059 20/14 Q1022,YCDU,2015-04-18T07:00:00Z,-32.12,133.7,20.0,14.0,250,14,,6.21,30.177166,,,TRUE,,,,,,,,BKN,5900,,,,,,,VFR,,,,,,,,,,,,METAR,15.0
YPBO 180700Z AUTO 08007KT 9999 -RA OVC065 19/19 Q1018,YPBO,2015-04-18T07:00:00Z,-23.2,117.75,19.0,19.0,80,7,,6.21,30.059055,,,TRUE,,,,,,,-RA,OVC,6500,,,,,,,VFR,,,,,,,,,,,,METAR,1292.0
YOLD 180700Z AUTO 21013KT 9999 // NCD 21/09 Q1020,YOLD,2015-04-18T07:00:00Z,-30.48,136.88,21.0,9.0,210,13,,6.21,30.11811,,,TRUE,,,,,,,,,,,,,,,,,,,,,,,,,,,,METAR,105.0
YNWN 180700Z AUTO 11010KT 110V170 //// // OVC055 24/09 Q1019,YNWN,2015-04-18T07:00:00Z,-23.42,119.8,24.0,9.0,110,10,,,30.088583,,,TRUE,,,,,,,,OVC,5500,,,,,,,,,,,,,,,,,,,METAR,525.0
YNTN 180700Z AUTO 17008KT //// // ////// 36/16 Q1009,YNTN,2015-04-18T07:00:00Z,-17.68,141.07,36.0,16.0,170,8,,,29.793306,,,TRUE,,,,,,,,,,,,,,,,,,,,,,,,,,,,METAR,22.0
YNBR 180700Z AUTO 36013KT //// // ////// 26/15 Q1016,YNBR,2015-04-18T07:00:00Z,-30.32,149.83,26.0,15.0,360,13,,,30.0,,,TRUE,,,,,,,,,,,,,,,,,,,,,,,,,,,,METAR,240.0
YNAR 180700Z AUTO 28007KT //// // ////// 17/17 Q1014,YNAR,2015-04-18T07:00:00Z,-34.7,146.52,17.0,17.0,280,7,,,29.940945,,,TRUE,,,,,,,,,,,,,,,,,,,,,,,,,,,,METAR,145.0
YMTG 180700Z AUTO 24008KT 9999 // SCT025 BKN041 BKN049 12/11 Q1014,YMTG,2015-04-18T07:00:00Z,-37.75,140.78,12.0,11.0,240,8,,6.21,29.940945,,,TRUE,,,,,,,,SCT,2500,BKN,4100,BKN,4900,,,VFR,,,,,,,,,,,,METAR,65.0
YLIS 180700Z AUTO 06011KT 9999 // SCT046 24/18 Q1018,YLIS,2015-04-18T07:00:00Z,-28.83,153.27,24.0,18.0,60,11,,6.21,30.059055,,,TRUE,,,,,,,,SCT,4600,,,,,,,VFR,,,,,,,,,,,,METAR,11.0
YLEC 180700Z AUTO 20016KT //// // ////// 18/09 Q1019,YLEC,2015-04-18T07:00:00Z,-30.6,138.43,18.0,9.0,200,16,,,30.088583,,,TRUE,,,,,,,,,,,,,,,,,,,,,,,,,,,,METAR,262.0
YKRY 180700Z AUTO 09007KT //// // ////// 22/17 Q1020,YKRY,2015-04-18T07:00:00Z,-26.57,151.83,22.0,17.0,90,7,,,30.11811,,,TRUE,,,,,,,,,,,,,,,,,,,,,,,,,,,,METAR,434.0
YHUG 180700Z AUTO 20004KT 160V230 //// // ////// 35/08 Q1013,YHUG,2015-04-18T07:00:00Z,-20.82,144.23,35.0,8.0,200,4,,,29.911417,,,TRUE,,,,,,,,,,,,,,,,,,,,,,,,,,,,METAR,318.0
YGTE 180700Z AUTO 10009KT 9999 // SCT041 32/22 Q1010,YGTE,2015-04-18T07:00:00Z,-13.97,136.45,32.0,22.0,100,9,,6.21,29.822834,,,TRUE,,,,,,,,SCT,4100,,,,,,,VFR,,,,,,,,,,,,METAR,14.0
YGLA 180700Z AUTO 08010KT 9999 // SCT030 SCT040 OVC066 26/19 Q1017,YGLA,2015-04-18T07:00:00Z,-23.87,151.22,26.0,19.0,80,10,,6.21,30.029528,,,TRUE,,,,,,,,SCT,3000,SCT,4000,OVC,6600,,,VFR,,,,,,,,,,,,METAR,52.0
YGFN 180700Z AUTO 05009KT 9999 // NCD 24/18 Q1018,YGFN,2015-04-18T07:00:00Z,-29.77,153.03,24.0,18.0,50,9,,6.21,30.059055,,,TRUE,,,,,,,,,,,,,,,,,,,,,,,,,,,,METAR,34.0
FQIN 180700Z 18004KT 9999 BKN020 BKN025 25/22 Q1022,FQIN,2015-04-18T07:00:00Z,-23.87,35.37,25.0,22.0,180,4,,6.21,30.177166,,,,,,,,,,,BKN,2000,BKN,2500,,,,,MVFR,,,,,,,,,,,,METAR,15.0
HETR 180700Z 32020KT CAVOK 21/12 Q1020,HETR,2015-04-18T07:00:00Z,28.22,33.65,21.0,12.0,320,20,,6.21,30.11811,,,,,,,,,,,CAVOK,,,,,,,,VFR,,,,,,,,,,,,METAR,35.0
CWDV 180700Z AUTO 18002KT M01/M02 RMK AO1 SOG 02 1022 SLP231 T10141019,CWDV,2015-04-18T07:00:00Z,49.02,-90.47,-1.4,-1.9,180,2,,,,1023.1,,TRUE,TRUE,,,,,,,,,,,,,,,,,,,,,,,,,,,METAR,489.0
CWWZ 180700Z AUTO 16004KT 08/06 RMK AO1 SLP148 T00810055 58009,CWWZ,2015-04-18T07:00:00Z,43.25,-79.22,8.1,5.5,160,4,,,,1014.8,,TRUE,TRUE,,,,,,,,,,,,,,,,-0.9,,,,,,,,,,,METAR,79.0
CZDB 180700Z AUTO 00000KT 01/M00 RMK AO1 SOG 67 6002 SLP076 T00061004,CZDB,2015-04-18T07:00:00Z,45.42,-63.47,0.6,-0.4,0,0,,,,1007.6,,TRUE,TRUE,,,,,,,,,,,,,,,,,,,,,,,,,,,METAR,38.0
CWRA 180700Z AUTO 27007KT 02/ RMK AO1 SLP024 T0019 58013,CWRA,2015-04-18T07:00:00Z,46.63,-53.07,1.9,,270,7,,,,1002.4,,TRUE,TRUE,,,,,,,,,,,,,,,,-1.3,,,,,,,,,,,METAR,28.0
CWDO 180700Z AUTO 13003KT M00/M01 RMK AO1 SOG 40 6007 SLP012 T10031012,CWDO,2015-04-18T07:00:00Z,49.67,-54.78,-0.3,-1.2,130,3,,,,1001.2,,TRUE,TRUE,,,,,,,,,,,,,,,,,,,,,,,,,,,METAR,92.0
CWHT 180700Z AUTO 04005KT M01/M09 RMK AO1 SOG 01 1009 SLP221 T10061086,CWHT,2015-04-18T07:00:00Z,60.77,-137.58,-0.6,-8.6,40,5,,,,1022.1,,TRUE,TRUE,,,,,,,,,,,,,,,,,,,,,,,,,,,METAR,599.0
CWGY 180700Z AUTO 30008KT 06/03 RMK AO1 PK WND 31018/0605 SLP150 T00570029 53038,CWGY,2015-04-18T07:00:00Z,51.67,-110.2,5.7,2.9,300,8,,,,1015.0,,TRUE,TRUE,,,,,,,,,,,,,,,,3.8,,,,,,,,,,,METAR,707.0
CWBO 180700Z AUTO 34005KT 05/M00 RMK AO1 SOG 02 1034 SLP161 T00541004,CWBO,2015-04-18T07:00:00Z,50.53,-111.83,5.4,-0.4,340,5,,,,1016.1,,TRUE,TRUE,,,,,,,,,,,,,,,,,,,,,,,,,,,METAR,747.0
CXKA 180700Z AUTO 32015G21KT 03/02 RMK AO1 PK WND 32025/0626 SLP125 T00270015 53019,CXKA,2015-04-18T07:00:00Z,49.4,-82.45,2.7,1.5,320,15,21,,,1012.5,,TRUE,TRUE,,,,,,,,,,,,,,,,1.9,,,,,,,,,,,METAR,218.0
CWYL 180700Z AUTO 24007KT M00/00 RMK AO1 SOG 51 3002 SLP209 T10010000,CWYL,2015-04-18T07:00:00Z,51.45,-116.32,-0.1,0.0,240,7,,,,1020.9,,TRUE,TRUE,,,,,,,,,,,,,,,,,,,,,,,,,,,METAR,1615.0
CXTP 180700Z AUTO 22002KT M00/M02 RMK AO1 SOG 27 8012 SLP008 T10021020,CXTP,2015-04-18T07:00:00Z,48.55,-53.97,-0.2,-2.0,220,2,,,,1000.8,,TRUE,TRUE,,,,,,,,,,,,,,,,,,,,,,,,,,,METAR,107.0
CXRH 180700Z AUTO 25003KT M01/M01 RMK AO1 SOG 59 T10061011,CXRH,2015-04-18T07:00:00Z,49.57,-57.88,-0.6,-1.1,250,3,,,,,,TRUE,TRUE,,,,,,,,,,,,,,,,,,,,,,,,,,,METAR,68.0
CXMY 180700Z AUTO 02/02 RMK AO1 T00210018,CXMY,2015-04-18T07:00:00Z,44.98,-62.48,2.1,1.8,,,,,,,,TRUE,TRUE,,,,,,,,,,,,,,,,,,,,,,,,,,,METAR,40.0
CXDE 180700Z AUTO 30003KT M13/M14 RMK AO1 SOG 08 3010 SLP217 T11251139,CXDE,2015-04-18T07:00:00Z,65.22,-123.43,-12.5,-13.9,300,3,,,,1021.7,,TRUE,TRUE,,,,,,,,,,,,,,,,,,,,,,,,,,,METAR,213.0
CZZJ 180700Z AUTO 29007G16KT 05/M06 RMK AO1 SOG 01 1033 SLP230 T00461063,CZZJ,2015-04-18T07:00:00Z,53.58,-116.47,4.6,-6.3,290,7,16,,,1023.0,,TRUE,TRUE,,,,,,,,,,,,,,,,,,,,,,,,,,,METAR,927.0
CZTB 180700Z AUTO 01005KT 04/M00 RMK AO1 SLP220 T00421004 51034,CZTB,2015-04-18T07:00:00Z,48.37,-89.32,4.2,-0.4,10,5,,,,1022.0,,TRUE,TRUE,,,,,,,,,,,,,,,,3.4,,,,,,,,,,,METAR,199.0
CZRP 180700Z AUTO 28014KT M13/M14 RMK AO1 PK WND 27017/0645 SLP085 T11261135 53016,CZRP,2015-04-18T07:00:00Z,75.37,-105.72,-12.6,-13.5,280,14,,,,1008.5,,TRUE,TRUE,,,,,,,,,,,,,,,,1.6,,,,,,,,,,,METAR,12.0
CXSE 180700Z AUTO 27017KT M13/M14 RMK AO1 PK WND 27019/0653 SLP103 T11271143 53015,CXSE,2015-04-18T07:00:00Z,73.77,-105.28,-12.7,-14.3,270,17,,,,1010.3,,TRUE,TRUE,,,,,,,,,,,,,,,,1.5,,,,,,,,,,,METAR,11.0
CXKI 180700Z AUTO 05/M03 RMK AO1 SOG 00 6020 SLP111 T00511030,CXKI,2015-04-18T07:00:00Z,48.22,-80.0,5.1,-3.0,,,,,,1011.1,,TRUE,TRUE,,,,,,,,,,,,,,,,,,,,,,,,,,,METAR,324.0
CWGD 180700Z AUTO 15004KT 07/05 RMK AO1 SLP143 T00730047 58010,CWGD,2015-04-18T07:00:00Z,43.77,-81.72,7.3,4.7,150,4,,,,1014.3,,TRUE,TRUE,,,,,,,,,,,,,,,,-1.0,,,,,,,,,,,METAR,214.0
CWFF 180700Z AUTO 11007KT 09/M03 RMK AO1 SOG 00 6027 SLP151 T00861027,CWFF,2015-04-18T07:00:00Z,52.82,-104.58,8.6,-2.7,110,7,,,,1015.1,,TRUE,TRUE,,,,,,,,,,,,,,,,,,,,,,,,,,,METAR,490.0
CWEZ 180700Z AUTO 28003KT 11/03 RMK AO1 SLP261 T01140026 51011,CWEZ,2015-04-18T07:00:00Z,48.78,-123.05,11.4,2.6,280,3,,,,1026.1,,TRUE,TRUE,,,,,,,,,,,,,,,,1.1,,,,,,,,,,,METAR,7.0
CWEB 180700Z AUTO 31018KT 09/05 RMK AO1 1PAST HR 0001 PK WND 30024/0621 SLP274 P0000 T00920054 50001,CWEB,2015-04-18T07:00:00Z,49.38,-126.55,9.2,5.4,310,18,,,,1027.4,,TRUE,TRUE,,,,,,,,,,,,,,,,0.1,,,,,0.0050,,,,,,METAR,7.0
CWRY 180700Z AUTO 33013KT 08/M01 RMK AO1 SLP153 T00791006 51011,CWRY,2015-04-18T07:00:00Z,49.12,-112.03,7.9,-0.6,330,13,,,,1015.3,,TRUE,TRUE,,,,,,,,,,,,,,,,1.1,,,,,,,,,,,METAR,1050.0
CWRT 180700Z AUTO 25001KT 03/M02 RMK AO1 T00291023,CWRT,2015-04-18T07:00:00Z,49.62,-114.47,2.9,-2.3,250,1,,,,,,TRUE,TRUE,,,,,,,,,,,,,,,,,,,,,,,,,,,METAR,1303.0
CZEV 180700Z AUTO 01003KT M11/M13 RMK AO1 SOG 48 1012 SLP216 T11141131,CZEV,2015-04-18T07:00:00Z,68.32,-133.52,-11.4,-13.1,10,3,,,,1021.6,,TRUE,TRUE,,,,,,,,,,,,,,,,,,,,,,,,,,,METAR,103.0
CWNQ 180700Z AUTO 03004KT 03/M03 RMK AO1 SLP155 T00251029 51016,CWNQ,2015-04-18T07:00:00Z,46.22,-72.65,2.5,-2.9,30,4,,,,1015.5,,TRUE,TRUE,,,,,,,,,,,,,,,,1.6,,,,,,,,,,,METAR,10.0
EIWF 180700Z 10014G26KT CAVOK 08/05 Q1027,EIWF,2015-04-18T07:00:00Z,52.18,-7.08,8.0,5.0,100,14,26,6.21,30.324802,,,,,,,,,,,CAVOK,,,,,,,,VFR,,,,,,,,,,,,METAR,36.0
EISG 180700Z 09010KT CAVOK 08/04 Q1029,EISG,2015-04-18T07:00:00Z,54.28,-8.6,8.0,4.0,90,10,,6.21,30.383858,,,,,,,,,,,CAVOK,,,,,,,,VFR,,,,,,,,,,,,METAR,3.0
FNCA 180700Z 09004KT 9999 FEW020 FEW026CB SCT090 27/25 Q1014,FNCA,2015-04-18T07:00:00Z,-5.58,12.18,27.0,25.0,90,4,,6.21,29.940945,,,,,,,,,,,FEW,2000,FEW,2600,SCT,9000,,,VFR,,,,,,,,,,,,METAR,20.0
VTPO 180700Z 20006KT 8000 NSC 36/21 Q1005,VTPO,2015-04-18T07:00:00Z,17.23,99.82,36.0,21.0,200,6,,4.97,29.675198,,,,,,,,,,,,,,,,,,,,,,,,,,,,,,,SPECI,54.0
VTST 180700Z 25003KT 9999 SCT020 35/21 Q1006 RWY08 INFO H,VTST,2015-04-18T07:00:00Z,7.52,99.62,35.0,21.0,250,3,,6.21,29.704725,,,,,,,,,,,SCT,2000,,,,,,,VFR,,,,,,,,,,,,SPECI,16.0
MKJS 180700Z 15004KT 9999 FEW022 25/54 Q1014,MKJS,2015-04-18T07:00:00Z,18.5,-77.92,25.0,0.0,150,4,,6.21,29.940945,,,,,,,,,,,FEW,2200,,,,,,,VFR,,,,,,,,,,,,METAR,1.0
FNGI 180700Z 18004KT 9999 FEW012 23/09 Q1020,FNGI,2015-04-18T07:00:00Z,-17.05,15.68,23.0,9.0,180,4,,6.21,30.11811,,,,,,,,,,,FEW,1200,,,,,,,VFR,,,,,,,,,,,,METAR,1087.0
FSPP 180700Z 19006KT //// //// 30/23 Q1014,FSPP,2015-04-18T07:00:00Z,-4.32,55.7,30.0,23.0,190,6,,,29.940945,,,,,,,,,,,,,,,,,,,,,,,,,,,,,,,METAR,4.0
NSFA 180700Z 00000KT 9999 FEW019CB FEW020 BKN040 OVC140 23/23 Q1012,NSFA,2015-04-18T07:00:00Z,-13.83,-172.0,23.0,23.0,0,0,,6.21,29.88189,,,,,,,,,,,FEW,1900,FEW,2000,BKN,4000,OVC,14000,VFR,,,,,,,,,,,,METAR,5.0
CYFS 180700Z 33002KT 15SM SKC 02/M04 A3006 RMK AURBO SLP187,CYFS,2015-04-18T07:00:00Z,61.75,-121.22,2.0,-4.0,330,2,,15.0,30.059055,1018.7,,,,,,,,,,SKC,,,,,,,,VFR,,,,,,,,,,,,SPECI,169.0
CYEN 180700Z 11009KT 15SM SKC 03/M02 A3007 RMK SLP197,CYEN,2015-04-18T07:00:00Z,49.22,-102.97,3.0,-2.0,110,9,,15.0,30.070866,1019.7,,,,,,,,,,SKC,,,,,,,,VFR,,,,,,,,,,,,SPECI,581.0
NGTT 180700Z VRB01KT 9999 FEW016 SCT300 29/25 Q1007,NGTT,2015-04-18T07:00:00Z,1.35,172.92,29.0,25.0,0,1,,6.21,29.734253,,,,,,,,,,,FEW,1600,SCT,30000,,,,,VFR,,,,,,,,,,,,METAR,2.0
PLCH 180700Z 00000KT 9999 FEW020 27/24 Q1009,PLCH,2015-04-18T07:00:00Z,1.98,-157.35,27.0,24.0,0,0,,6.21,29.793306,,,,,,,,,,,FEW,2000,,,,,,,VFR,,,,,,,,,,,,METAR,3.0
FQLC 180700Z 06009KT 9999 SCT005 SCT014 FEW018CB 19/18 Q1025 RMK CB TO NW,FQLC,2015-04-18T07:00:00Z,-13.27,35.25,19.0,18.0,60,9,,6.21,30.265747,,,,,,,,,,,SCT,500,SCT,1400,FEW,1800,,,VFR,,,,,,,,,,,,METAR,1365.0
UTTT 180700Z 23007KT 180V280 9999 SCT046 BKN100 17/08 Q1018 R88/70D TEMPO BKN003CB,UTTT,2015-04-18T07:00:00Z,41.27,69.27,17.0,8.0,230,7,,6.21,30.059055,,,,,,,,,,,SCT,4600,BKN,10000,,,,,VFR,,,,,,,,,,,,METAR,489.0
UTST 180700Z 24011KT 9999 FEW015 BKN043CB BKN100 17/12 Q1018 R88/CLRD70 NOSIG,UTST,2015-04-18T07:00:00Z,37.28,67.32,17.0,12.0,240,11,,6.21,30.059055,,,,,,TRUE,,,,,FEW,1500,BKN,4300,BKN,10000,,,VFR,,,,,,,,,,,,METAR,302.0
UTSS 180700Z 27010KT 9999 FEW060CB 17/04 Q1018 R88/70D NOSIG,UTSS,2015-04-18T07:00:00Z,39.7,66.98,17.0,4.0,270,10,,6.21,30.059055,,,,,,TRUE,,,,,FEW,6000,,,,,,,VFR,,,,,,,,,,,,METAR,724.0
UTSK 180700Z 30003KT 190V350 9999 SCT050CB BKN100 19/07 Q1019 R16/CLRD70,UTSK,2015-04-18T07:00:00Z,38.83,65.77,19.0,7.0,300,3,,6.21,30.088583,,,,,,,,,,,SCT,5000,BKN,10000,,,,,VFR,,,,,,,,,,,,METAR,1365.0
UTSB 180700Z 28005KT CAVOK 17/M01 Q1019 R01/CLRD70 NOSIG,UTSB,2015-04-18T07:00:00Z,39.77,64.48,17.0,-1.0,280,5,,6.21,30.088583,,,,,,TRUE,,,,,CAVOK,,,,,,,,VFR,,,,,,,,,,,,METAR,226.0
UTNU 180700Z 03007KT CAVOK 16/00 Q1019 R31/CLRD70 NOSIG,UTNU,2015-04-18T07:00:00Z,41.58,60.63,16.0,0.0,30,7,,6.21,30.088583,,,,,,TRUE,,,,,CAVOK,,,,,,,,VFR,,,,,,,,,,,,METAR,98.0
UTNN 180700Z 36004KT CAVOK 16/02 Q1020 R33/CLRD60 NOSIG,UTNN,2015-04-18T07:00:00Z,42.48,59.63,16.0,2.0,360,4,,6.21,30.11811,,,,,,TRUE,,,,,CAVOK,,,,,,,,VFR,,,,,,,,,,,,METAR,67.0
FKYS 180700Z 21003K 190V240 8000 SCT003 BKN010 21/19 Q1018 NOSIG,FKYS,2015-04-18T07:00:00Z,3.82,11.52,21.0,19.0,,,,4.97,30.059055,,,,,,TRUE,,,,,SCT,300,BKN,1000,,,,,MVFR,,,-0.3,,,,,,,,,SPECI,760.0
FKKL 180700Z 04014KT 3500 HZ NSC 29/M07 Q1015,FKKL,2015-04-18T07:00:00Z,10.45,14.25,29.0,-7.0,40,14,,2.17,29.970472,,,,,,,,,,HZ,,,,,,,,,,,,,,,,,,,,,METAR,424.0
FTTA 180700Z 00000KT CAVOK 30/03 Q1016,FTTA,2015-04-18T07:00:00Z,9.15,18.37,30.0,3.0,0,0,,6.21,30.0,,,,,,,,,,,CAVOK,,,,,,,,VFR,,,,,,,,,,,,METAR,365.0
FTTD 180700Z 36010KT CAVOK 30/M01 Q1014,FTTD,2015-04-18T07:00:00Z,8.62,16.07,30.0,-1.0,360,10,,6.21,29.940945,,,,,,,,,,,CAVOK,,,,,,,,VFR,,,,,,,,,,,,METAR,422.0
WIPP 180700Z 31006KT 9999 BKN013 FEW020CB 33/25 Q1007 NOSIG,WIPP,2015-04-18T07:00:00Z,-2.88,104.7,33.0,25.0,310,6,,6.21,29.734253,,,,,,TRUE,,,,,BKN,1300,FEW,2000,,,,,MVFR,,,,,,,,,,,,METAR,10.0
WALL 180700Z 07010KT 9999 FEW020 32/26 Q1006 NOSIG,WALL,2015-04-18T07:00:00Z,-1.27,116.9,32.0,26.0,70,10,,6.21,29.704725,,,,,,TRUE,,,,,FEW,2000,,,,,,,VFR,,,,,,,,,,,,METAR,3.0
WIOO 180700Z 25018KT 0500 FEW010CB BKN011 27/24 Q1007 BECMG FM0800 27006KT 5000 -TSRA,WIOO,2015-04-18T07:00:00Z,-0.15,109.4,27.0,24.0,250,18,,0.31,29.734253,,,,,,,,,,,FEW,1000,BKN,1100,,,,,LIFR,,,,,,,,,,,,METAR,3.0
WIEE 180700Z VRB04KT 9999 FEW020 SCT120 30/25 Q1008,WIEE,2015-04-18T07:00:00Z,,,30.0,25.0,0,4,,6.21,29.763779,,,,,,,,,,,FEW,2000,SCT,12000,,,,,VFR,,,,,,,,,,,,METAR,
WAMM 180700Z 32005KT 250V010 9000 FEW018CB SCT019 31/25 Q1008 RMK CB TO SE/E,WAMM,2015-04-18T07:00:00Z,1.55,124.92,31.0,25.0,320,5,,5.59,29.763779,,,,,,,,,,,FEW,1800,SCT,1900,,,,,VFR,,,,,,,,,,,,METAR,80.0
WADD 180700Z 13005KT 080V190 9999 FEW017CB FEW018 30/23 Q1007 NOSIG RMK CB TO N,WADD,2015-04-18T07:00:00Z,-8.73,115.17,30.0,23.0,130,5,,6.21,29.734253,,,,,,TRUE,,,,,FEW,1700,FEW,1800,,,,,VFR,,,,,,,,,,,,METAR,216.0
WAAA 180700Z 26007KT 9999 FEW020 32/24 Q1007,WAAA,2015-04-18T07:00:00Z,-5.07,119.53,32.0,24.0,260,7,,6.21,29.734253,,,,,,,,,,,FEW,2000,,,,,,,VFR,,,,,,,,,,,,METAR,14.0
WIDD 180700Z 07006KT 020V150 9999 SCT017 SCT050 BKN085 33/22 Q1008,WIDD,2015-04-18T07:00:00Z,1.12,104.12,33.0,22.0,70,6,,6.21,29.763779,,,,,,,,,,,SCT,1700,SCT,5000,BKN,8500,,,VFR,,,,,,,,,,,,METAR,38.0
WARR 180700Z 08008KT 040V120 9000 FEW018 FEW020CB 32/23 Q1006 NOSIG,WARR,2015-04-18T07:00:00Z,-7.37,112.78,32.0,23.0,80,8,,5.59,29.704725,,,,,,TRUE,,,,,FEW,1800,FEW,2000,,,,,VFR,,,,,,,,,,,,METAR,2.0
WIMM 180700Z 06012KT 9999 SCT018 33/26 Q1008 NOSIG,WIMM,2015-04-18T07:00:00Z,3.57,98.67,33.0,26.0,60,12,,6.21,29.763779,,,,,,TRUE,,,,,SCT,1800,,,,,,,VFR,,,,,,,,,,,,METAR,25.0
WIHH 180700Z 05007KT 4000 -TSRA FEW016CB SCT017 28/26 Q1009 RMK/CB TO NE,WIHH,2015-04-18T07:00:00Z,-6.25,106.88,28.0,26.0,50,7,,2.49,29.793306,,,,,,,,,,-TSRA,FEW,1600,SCT,1700,,,,,IFR,,,,,,,,,,,,METAR,25.0
OKBK 180700Z 35015KT 7000 NSC 27/04 Q1016 NOSIG,OKBK,2015-04-18T07:00:00Z,29.22,47.97,27.0,4.0,350,15,,4.35,30.0,,,,,,TRUE,,,,,,,,,,,,,,,,,,,,,,,,,METAR,55.0
OTBD 180700Z 30011KT 260V340 CAVOK 31/14 Q1012 NOSIG,OTBD,2015-04-18T07:00:00Z,25.25,51.57,31.0,14.0,300,11,,6.21,29.88189,,,,,,TRUE,,,,,CAVOK,,,,,,,,VFR,,,,,,,,,,,,METAR,10.0
OBBI 180700Z 32020KT CAVOK 28/16 Q1013 NOSIG,OBBI,2015-04-18T07:00:00Z,26.27,50.63,28.0,16.0,320,20,,6.21,29.911417,,,,,,TRUE,,,,,CAVOK,,,,,,,,VFR,,,,,,,,,,,,METAR,2.0
YPWR 180700Z AUTO 21012KT 9999 // SCT044 20/07 Q1020,YPWR,2015-04-18T07:00:00Z,-31.12,136.82,20.0,7.0,210,12,,6.21,30.11811,,,TRUE,,,,,,,,SCT,4400,,,,,,,VFR,,,,,,,,,,,,METAR,167.0
YGEL 180700Z 08012KT CAVOK 30/07 Q1017,YGEL,2015-04-18T07:00:00Z,-28.8,114.7,30.0,7.0,80,12,,6.21,30.029528,,,,,,,,,,,CAVOK,,,,,,,,VFR,,,,,,,,,,,,METAR,37.0
UAKD 180700Z 23004G09MPS 7000 BKN050 16/06 Q1014 R04/0///65 NOSIG RMK QFE728/0970,UAKD,2015-04-18T07:00:00Z,47.7,67.73,16.0,6.0,230,8,17,4.35,29.940945,,,,,,TRUE,,,,,BKN,5000,,,,,,,MVFR,,,,,,,,,,,,METAR,381.0
UACP 180700Z 23008MPS 9999 BKN007 OVC023CB 07/06 Q1001 R23/2/0555 NOSIG RMK QFE739/0985,UACP,2015-04-18T07:00:00Z,54.78,69.18,7.0,6.0,230,16,,6.21,29.557087,,,,,,TRUE,,,,,BKN,700,OVC,2300,,,,,IFR,,,,,,,,,,,,METAR,142.0
LOWZ 180700Z 36004KT 15KM BKN015SC 06/03 Q1017 RMK OVC,LOWZ,2015-04-18T07:00:00Z,47.3,12.78,6.0,3.0,360,4,,9.32,30.029528,,,,,,,,,,,,,,,,,,,,,,,,,,,,,,,METAR,754.0
LOIH 180700Z 35002KT 25KM FEW010SC BKN020SC 08/04 Q1018 RMK BKN,LOIH,2015-04-18T07:00:00Z,47.38,9.7,8.0,4.0,350,2,,15.53,30.059055,,,,,,,,,,,,,,,,,,,,,,,,,,,,,,,METAR,418.0
LOAV 180700Z 33015G25KT 25KM SCT025CU BKN300CI 09/M00 Q1019 RMK BKN,LOAV,2015-04-18T07:00:00Z,47.97,16.27,9.0,0.0,330,15,25,15.53,30.088583,,,,,,,,,,,SCT,2500,,,,,,,VFR,,,,,,,,,,,,METAR,233.0
LOAN 180700Z 33010G20KT 30KM FEW020CU BKN300CI RMK BKN,LOAN,2015-04-18T07:00:00Z,47.85,16.25,,,330,10,20,18.64,,,,,,,,,,,,FEW,2000,,,,,,,VFR,,,,,,,,,,,,METAR,272.0
OETF 180700Z 12007KT CAVOK 23/07 Q1021 NOSIG,OETF,2015-04-18T07:00:00Z,21.47,40.53,23.0,7.0,120,7,,6.21,30.147638,,,,,,TRUE,,,,,CAVOK,,,,,,,,VFR,,,,,,,,,,,,METAR,1449.0
UMKK 180700Z 01007MPS 9999 SCT012 06/02 Q1017 R06/19//60 NOSIG RMK QFE761/1015,UMKK,2015-04-18T07:00:00Z,54.88,20.6,6.0,2.0,10,14,,6.21,30.029528,,,,,,TRUE,,,,,SCT,1200,,,,,,,VFR,,,,,,,,,,,,METAR,21.0
ULOO 180700Z 35003MPS P6000 SCT031CB OVC040 03/00 Q1011 19190055 NOSIG RMK QFE754,ULOO,2015-04-18T07:00:00Z,57.78,28.4,3.0,0.0,350,6,,3.73,29.852362,,,,,,TRUE,,,,,SCT,3100,OVC,4000,,,,,MVFR,,,,,,19.19,,,,,,METAR,47.0
UUYY 180700Z 34003G06MPS 6000 -SHRA BKN010 OVC016CB 03/02 Q0991 NOSIG 0129//51 RMK QFE734/0979,UUYY,2015-04-18T07:00:00Z,61.65,50.82,3.0,2.0,340,6,12,3.73,29.26181,,,,,,TRUE,,,,-SHRA,BKN,1000,OVC,1600,,,,,MVFR,,,,,,,,,,,,METAR,119.0
UUOO 180700Z 10004MPS CAVOK 09/00 Q1004 NOSIG RMK 12190055,UUOO,2015-04-18T07:00:00Z,51.82,39.23,9.0,0.0,100,8,,6.21,29.64567,,,,,,TRUE,,,,,CAVOK,,,,,,,,VFR,,,,,,,,,,,,METAR,157.0
ULMM 180700Z 15004MPS 8000 -SHSN BKN018CB M01/M06 Q1014 NOSIG RMK QFE754 13190060,ULMM,2015-04-18T07:00:00Z,68.78,32.75,-1.0,-6.0,150,8,,4.97,29.940945,,,,,,TRUE,,,,-SHSN,BKN,1800,,,,,,,MVFR,,,,,,,,,,,,METAR,51.0
ULAA 180700Z 02006G10MPS 330V080 9999 BKN030CB M02/M09 Q1009 08CLRD70 TEMPO 3000 -SHSN BKN007CB RMK QFE755/1007,ULAA,2015-04-18T07:00:00Z,64.6,40.72,-2.0,-9.0,20,12,19,6.21,29.793306,,,,,,,,,,,BKN,3000,,,,,,,MVFR,,,,,,,,,,,,METAR,19.0
HKVO 180700Z 23022KT 9999 FEW024 SCT100 BKN300 27/20,HKVO,2015-04-18T07:00:00Z,-3.38,38.53,27.0,20.0,230,22,,6.21,,,,,,,,,,,,FEW,2400,SCT,10000,BKN,30000,,,VFR,,,,,,,,,,,,METAR,579.0
HKRE 180700Z 00000KT 9999 BKN021 BKN090 20/17 Q1025,HKRE,2015-04-18T07:00:00Z,-1.28,36.87,20.0,17.0,0,0,,6.21,30.265747,,,,,,,,,,,BKN,2100,BKN,9000,,,,,MVFR,,,,,,,,,,,,METAR,1627.0
HKNW 180700Z 18005KT 9999 BKN021 19/17 Q1024,HKNW,2015-04-18T07:00:00Z,-1.32,36.82,19.0,17.0,180,5,,6.21,30.236221,,,,,,,,,,,BKN,2100,,,,,,,MVFR,,,,,,,,,,,,METAR,1679.0
HKNK 180700Z 00000KT 9999 -RA SCT008 BKN020 OVC090 17/15,HKNK,2015-04-18T07:00:00Z,-0.3,36.17,17.0,15.0,0,0,,6.21,,,,,,,,,,,-RA,SCT,800,BKN,2000,OVC,9000,,,MVFR,,,,,,,,,,,,METAR,1901.0
HKMO 180700Z 20005KT 9999 BKN022 30/24 Q1015 NOSIG,HKMO,2015-04-18T07:00:00Z,-4.02,39.62,30.0,24.0,200,5,,6.21,29.970472,,,,,,TRUE,,,,,BKN,2200,,,,,,,MVFR,,,,,,,,,,,,METAR,55.0
HKML 180700Z 18010KT 9999 FEW023TCU SCT250 27/25 Q1014,HKML,2015-04-18T07:00:00Z,-3.22,40.1,27.0,25.0,180,10,,6.21,29.940945,,,,,,,,,,,FEW,2300,SCT,25000,,,,,VFR,,,,,,,,,,,,METAR,23.0
HKKT 180700Z 00000KT 9999 FEW021 BKN270 22/17,HKKT,2015-04-18T07:00:00Z,0.97,34.97,22.0,17.0,0,0,,6.21,,,,,,,,,,,,FEW,2100,BKN,27000,,,,,VFR,,,,,,,,,,,,METAR,1850.0
HKKI 180700Z 00000KT 9999 FEW023CB SCT090 23/19 Q1021,HKKI,2015-04-18T07:00:00Z,-0.1,34.75,23.0,19.0,0,0,,6.21,30.147638,,,,,,,,,,,FEW,2300,SCT,9000,,,,,VFR,,,,,,,,,,,,METAR,1146.0
HKJK 180700Z 21004KT 9999 OVC017 20/16 Q1024 NOSIG,HKJK,2015-04-18T07:00:00Z,-1.32,36.92,20.0,16.0,210,4,,6.21,30.236221,,,,,,TRUE,,,,,OVC,1700,,,,,,,MVFR,,,,,,,,,,,,METAR,1624.0
HKEL 180700Z 09006KT 9999 FEW020CB BKN080 19/12 Q1027,HKEL,2015-04-18T07:00:00Z,0.4,35.23,19.0,12.0,90,6,,6.21,30.324802,,,,,,,,,,,FEW,2000,BKN,8000,,,,,VFR,,,,,,,,,,,,METAR,2133.0
GGOV 180700Z 28004KT 6000 NSC 22/20 Q1012 NOSIG,GGOV,2015-04-18T07:00:00Z,11.87,-15.65,22.0,20.0,280,4,,3.73,29.88189,,,,,,TRUE,,,,,,,,,,,,,,,,,,,,,,,,,METAR,36.0
SAWE 180700Z VRB02KT CAVOK M01/M02 Q0998,SAWE,2015-04-18T07:00:00Z,-53.78,-67.75,-1.0,-2.0,0,2,,6.21,29.468504,,,,,,,,,,,CAVOK,,,,,,,,VFR,,,,,,,,,,,,METAR,22.0
YPTN 180700Z AUTO 10010KT 9999 // SCT071 35/17 Q1009,YPTN,2015-04-18T07:00:00Z,-14.52,132.38,35.0,17.0,100,10,,6.21,29.793306,,,TRUE,,,,,,,,SCT,7100,,,,,,,VFR,,,,,,,,,,,,METAR,109.0
YSSY 180700Z 01015KT CAVOK 26/15 Q1012 TEMPO 0945/1000 VRB20G45KT 2000 TSRA BKN010 SCT040CB,YSSY,2015-04-18T07:00:00Z,-33.95,151.17,26.0,15.0,10,15,,6.21,29.88189,,,,,,,,,,,CAVOK,,,,,,,,VFR,,,,,,,,,,,,METAR,3.0
YPPH 180700Z 11009KT CAVOK 27/06 Q1021,YPPH,2015-04-18T07:00:00Z,-31.93,115.98,27.0,6.0,110,9,,6.21,30.147638,,,,,,,,,,,CAVOK,,,,,,,,VFR,,,,,,,,,,,,METAR,13.0
YPKU 180700Z AUTO 19003KT 9999 // NCD 35/19 Q1008,YPKU,2015-04-18T07:00:00Z,-15.77,128.68,35.0,19.0,190,3,,6.21,29.763779,,,TRUE,,,,,,,,,,,,,,,,,,,,,,,,,,,,METAR,45.0
YPJT 180700Z AUTO 13009KT 9999 // NCD 26/06 Q1022,YPJT,2015-04-18T07:00:00Z,-32.1,115.88,26.0,6.0,130,9,,6.21,30.177166,,,TRUE,,,,,,,,,,,,,,,,,,,,,,,,,,,,METAR,30.0
YHID 180700Z AUTO 05007KT 9999 // NCD 30/23 Q1008,YHID,2015-04-18T07:00:00Z,-10.58,142.3,30.0,23.0,50,7,,6.21,29.763779,,,TRUE,,,,,,,,,,,,,,,,,,,,,,,,,,,,METAR,13.0
YPDN 180700Z 34008KT 9999 FEW030 SCT350 32/24 Q1008 TEMPO 0800/1000 VRB20G35KT 1000 TSRA BKN010 SCT020CB,YPDN,2015-04-18T07:00:00Z,-12.42,130.9,32.0,24.0,340,8,,6.21,29.763779,,,,,,,,,,,FEW,3000,SCT,35000,,,,,VFR,,,,,,,,,,,,METAR,30.0
YCFS 180700Z AUTO 02014KT 9999 // NCD 24/19 Q1018,YCFS,2015-04-18T07:00:00Z,-30.32,153.12,24.0,19.0,20,14,,6.21,30.059055,,,TRUE,,,,,,,,,,,,,,,,,,,,,,,,,,,,METAR,5.0
YPCC 180700Z 32014KT 9999 FEW018 31/25 Q1007,YPCC,2015-04-18T07:00:00Z,-12.17,96.82,31.0,25.0,320,14,,6.21,29.734253,,,,,,,,,,,FEW,1800,,,,,,,VFR,,,,,,,,,,,,METAR,3.0
YPXM 180700Z AUTO 27003KT 9999 // SCT013 27/24 Q1011,YPXM,2015-04-18T07:00:00Z,-10.45,105.67,27.0,24.0,270,3,,6.21,29.852362,,,TRUE,,,,,,,,SCT,1300,,,,,,,VFR,,,,,,,,,,,,METAR,259.0
AYNZ 180700Z 27010KT 9999 SCT018 BKN140 29/23 Q10008,AYNZ,2015-04-18T07:00:00Z,-6.57,146.72,29.0,23.0,270,10,,6.21,,,,,,,,,,,,SCT,1800,BKN,14000,,,,,VFR,,,,,,,,,,,,METAR,70.0
AYPY 180700Z 19003KT 9999 FEW018 SCT140 BKN300 29/23 Q1007,AYPY,2015-04-18T07:00:00Z,-9.42,147.22,29.0,23.0,190,3,,6.21,29.734253,,,,,,,,,,,FEW,1800,SCT,14000,BKN,30000,,,VFR,,,,,,,,,,,,METAR,47.0
FYWW 180700Z 10002KT CAVOK 18/07 Q1024,FYWW,2015-04-18T07:00:00Z,-22.57,17.1,18.0,7.0,100,2,,6.21,30.236221,,,,,,,,,,,CAVOK,,,,,,,,VFR,,,,,,,,,,,,METAR,1725.0
FYWH 180700Z 34004KT CAVOK 17/10 Q1025 NOSIG,FYWH,2015-04-18T07:00:00Z,-22.47,17.47,17.0,10.0,340,4,,6.21,30.265747,,,,,,TRUE,,,,,CAVOK,,,,,,,,VFR,,,,,,,,,,,,METAR,1700.0
FYWB 180700Z 05003KT 9999 OVC005 10/09 Q1018,FYWB,2015-04-18T07:00:00Z,-22.98,14.65,10.0,9.0,50,3,,6.21,30.059055,,,,,,,,,,,OVC,500,,,,,,,IFR,,,,,,,,,,,,METAR,46.0
FYRN 180700Z 05006KT CAVOK 21/14 Q1021,FYRN,2015-04-18T07:00:00Z,-20.02,13.85,21.0,14.0,50,6,,6.21,30.147638,,,,,,,,,,,CAVOK,,,,,,,,VFR,,,,,,,,,,,,METAR,756.0
FYOW 180700Z AUTO 07002KT //// // ////// 20/M00 Q1022,FYOW,2015-04-18T07:00:00Z,-20.43,16.67,20.0,0.0,70,2,,,30.177166,,,TRUE,,,,,,,,,,,,,,,,,,,,,,,,,,,,METAR,1481.0
FYOO 180700Z AUTO 14005KT //// // ////// 22/06 Q1021,FYOO,2015-04-18T07:00:00Z,-19.15,15.92,22.0,6.0,140,5,,,30.147638,,,TRUE,,,,,,,,,,,,,,,,,,,,,,,,,,,,METAR,1192.0
FYOA 180700Z 00000KT CAVOK 24/06 Q1019,FYOA,2015-04-18T07:00:00Z,-17.88,15.97,24.0,6.0,0,0,,6.21,30.088583,,,,,,,,,,,CAVOK,,,,,,,,VFR,,,,,,,,,,,,METAR,1095.0
FYML 180700Z AUTO 18001KT //// // ////// 17/M02 Q1024,FYML,2015-04-18T07:00:00Z,-24.6,17.93,17.0,-2.0,180,1,,,30.236221,,,TRUE,,,,,,,,,,,,,,,,,,,,,,,,,,,,METAR,1113.0
FYLZ 180700Z AUTO 22008G45KT //// // ////// 10/10 Q1016,FYLZ,2015-04-18T07:00:00Z,-26.67,15.25,10.0,10.0,220,8,45,,30.0,,,TRUE,,,,,,,,,,,,,,,,,,,,,,,,,,,,METAR,130.0
FYKT 180700Z 09009KT CAVOK 18/M05 Q1022,FYKT,2015-04-18T07:00:00Z,-26.52,18.12,18.0,-5.0,90,9,,6.21,30.177166,,,,,,,,,,,CAVOK,,,,,,,,VFR,,,,,,,,,,,,METAR,1061.0
FYGF 180700Z 27002KT 9999 SCT020 20/13 Q1025,FYGF,2015-04-18T07:00:00Z,-19.6,18.12,20.0,13.0,270,2,,6.21,30.265747,,,,,,,,,,,SCT,2000,,,,,,,VFR,,,,,,,,,,,,METAR,1400.0
FYGB 180700Z AUTO 05007KT //// // ////// 20/13 Q1025,FYGB,2015-04-18T07:00:00Z,-22.5,18.97,20.0,13.0,50,7,,,30.265747,,,TRUE,,,,,,,,,,,,,,,,,,,,,,,,,,,,METAR,1442.0
OEKK 180700Z 33008KT 9999 BKN035 23/13 Q1020,OEKK,2015-04-18T07:00:00Z,27.88,45.52,23.0,13.0,330,8,,6.21,30.11811,,,,,,,,,,,BKN,3500,,,,,,,VFR,,,,,,,,,,,,METAR,413.0
OEKJ 180700Z 04018KT 5000 BLDU SKC 29/M01 Q1019,OEKJ,2015-04-18T07:00:00Z,24.07,47.58,29.0,-1.0,40,18,,3.11,30.088583,,,,,,,,,,BLDU,SKC,,,,,,,,MVFR,,,,,,,,,,,,METAR,503.0
OEHL 180700Z 07012KT CAVOK 22/00 Q1023,OEHL,2015-04-18T07:00:00Z,27.42,41.67,22.0,0.0,70,12,,6.21,30.206694,,,,,,,,,,,CAVOK,,,,,,,,VFR,,,,,,,,,,,,METAR,1013.0
OEGT 180700Z 30008KT CAVOK 19/02 Q1023 NOSIG,OEGT,2015-04-18T07:00:00Z,31.42,37.27,19.0,2.0,300,8,,6.21,30.206694,,,,,,TRUE,,,,,CAVOK,,,,,,,,VFR,,,,,,,,,,,,METAR,499.0
OEGS 180700Z 04012KT 7000 BKN040 23/10 Q1020,OEGS,2015-04-18T07:00:00Z,26.3,43.77,23.0,10.0,40,12,,4.35,30.11811,,,,,,,,,,,BKN,4000,,,,,,,MVFR,,,,,,,,,,,,METAR,650.0
OEGN 180700Z 25010KT 9999 SCT030 SCT100 32/25 Q1014 NOSIG,OEGN,2015-04-18T07:00:00Z,16.88,42.57,32.0,25.0,250,10,,6.21,29.940945,,,,,,TRUE,,,,,SCT,3000,SCT,10000,,,,,VFR,,,,,,,,,,,,METAR,3.0
OEDM 180700Z 05021KT 5000 BLDU SKC 23/M01 Q1018,OEDM,2015-04-18T07:00:00Z,24.45,44.12,23.0,-1.0,50,21,,3.11,30.059055,,,,,,,,,,BLDU,SKC,,,,,,,,MVFR,,,,,,,,,,,,METAR,922.0
OEBH 180700Z 05007KT CAVOK 27/10 Q1019 NOSIG,OEBH,2015-04-18T07:00:00Z,19.97,42.62,27.0,10.0,50,7,,6.21,30.088583,,,,,,TRUE,,,,,CAVOK,,,,,,,,VFR,,,,,,,,,,,,METAR,1157.0
OEBA 180700Z 13004KT CAVOK 24/13 Q1022 NOSIG,OEBA,2015-04-18T07:00:00Z,20.3,41.62,24.0,13.0,130,4,,6.21,30.177166,,,,,,TRUE,,,,,CAVOK,,,,,,,,VFR,,,,,,,,,,,,METAR,1656.0
OEAR 180700Z 35004KT CAVOK 28/13 Q1014,OEAR,2015-04-18T07:00:00Z,,,28.0,13.0,350,4,,6.21,29.940945,,,,,,,,,,,CAVOK,,,,,,,,VFR,,,,,,,,,,,,METAR,
OEAH 180700Z 36024KT 3000 BLSA SKC 30/06 Q1014 NOSIG,OEAH,2015-04-18T07:00:00Z,25.27,49.47,30.0,6.0,360,24,,1.86,29.940945,,,,,,TRUE,,,,BLSA,SKC,,,,,,,,IFR,,,,,,,,,,,,METAR,172.0
OEAB 180700Z 23004KT CAVOK 24/04 Q1026 NOSIG,OEAB,2015-04-18T07:00:00Z,18.22,42.63,24.0,4.0,230,4,,6.21,30.295275,,,,,,TRUE,,,,,CAVOK,,,,,,,,VFR,,,,,,,,,,,,METAR,2084.0
GOGS 180700Z 32006KT 9999 SCT010 21/20 Q1013,GOGS,2015-04-18T07:00:00Z,12.4,-16.75,21.0,20.0,320,6,,6.21,29.911417,,,,,,,,,,,SCT,1000,,,,,,,VFR,,,,,,,,,,,,METAR,13.0
GFLL 180700Z 30005KT 9999 BKN012 26/23 Q1012,GFLL,2015-04-18T07:00:00Z,8.62,-13.18,26.0,23.0,300,5,,6.21,29.88189,,,,,,,,,,,BKN,1200,,,,,,,MVFR,,,,,,,,,,,,METAR,27.0
GABS 180700Z 07006KT 8000 NSC 24/M01 Q1013 NOSIG,GABS,2015-04-18T07:00:00Z,12.52,-7.95,24.0,-1.0,70,6,,4.97,29.911417,,,,,,TRUE,,,,,,,,,,,,,,,,,,,,,,,,,METAR,381.0
VTUI 180700Z 21004KT 8000 SCT030 39/22 Q1006 A2973 INFO G RWY23,VTUI,2015-04-18T07:00:00Z,17.2,104.12,39.0,22.0,210,4,,4.97,29.704725,,,,,,,,,,,SCT,3000,,,,,,,MVFR,,,,,,,,,,,,METAR,172.0
VTPH 180700Z 14015KT CAVOK 33/25 Q1008 NOSIG,VTPH,2015-04-18T07:00:00Z,12.63,99.95,33.0,25.0,140,15,,6.21,29.763779,,,,,,TRUE,,,,,CAVOK,,,,,,,,VFR,,,,,,,,,,,,METAR,6.0
URFF 180700Z 20010MPS 170V240 CAVOK 16/10 Q1005 19010095 NOSIG,URFF,2015-04-18T07:00:00Z,45.03,33.98,16.0,10.0,200,19,,6.21,29.675198,,,,,,TRUE,,,,,CAVOK,,,,,,,,VFR,,,,,,,,,,,,METAR,188.0
URWW 180700Z 17005MPS 9999 SCT012 SCT033 11/07 Q1006 NOSIG RMK SC060,URWW,2015-04-18T07:00:00Z,48.78,44.33,11.0,7.0,170,10,,6.21,29.704725,,,,,,TRUE,,,,,SCT,1200,SCT,3300,,,,,VFR,,,,,,,,,,,,METAR,147.0
URWI 180700Z 25009MPS CAVOK 18/01 Q1009 NOSIG,URWI,2015-04-18T07:00:00Z,46.37,44.33,18.0,1.0,250,17,,6.21,29.793306,,,,,,TRUE,,,,,CAVOK,,,,,,,,VFR,,,,,,,,,,,,METAR,150.0
URWA 180700Z 25008G11MPS CAVOK 20/04 Q1011 NOSIG RMK QFE760/1013 SC070,URWA,2015-04-18T07:00:00Z,46.28,48.02,20.0,4.0,250,16,21,6.21,29.852362,,,,,,TRUE,,,,,CAVOK,,,,,,,,VFR,,,,,,,,,,,,METAR,-20.0
URSS 180700Z 07004MPS 9999 SCT050CB BKN110 17/07 Q1012 NOSIG RMK R02/07003MPS QFE758 06000070 02//////,URSS,2015-04-18T07:00:00Z,43.45,39.95,17.0,7.0,70,8,,6.21,29.88189,,,,,,TRUE,,,,,SCT,5000,BKN,11000,,,,,VFR,,,,,,,,,,,,METAR,16.0
URRR 180700Z 23010G14MPS CAVOK 18/07 Q1005 22CLRD70 NOSIG,URRR,2015-04-18T07:00:00Z,47.25,39.82,18.0,7.0,230,19,27,6.21,29.675198,,,,,,TRUE,,,,,CAVOK,,,,,,,,VFR,,,,,,,,,,,,METAR,77.0
URMT 180700Z 16002MPS CAVOK 21/02 Q1010 R25/010070 NOSIG RMK QFE719,URMT,2015-04-18T07:00:00Z,45.12,42.12,21.0,2.0,160,4,,6.21,29.822834,,,,,,TRUE,,,,,CAVOK,,,,,,,,VFR,,,,,,,,,,,,METAR,453.0
URMO 180700Z 33002MPS 9999 FEW230 20/01 Q1011 NOSIG RMK QFE715/0953 SC070,URMO,2015-04-18T07:00:00Z,43.2,44.6,20.0,1.0,330,4,,6.21,29.852362,,,,,,TRUE,,,,,FEW,23000,,,,,,,VFR,,,,,,,,,,,,METAR,510.0
URMN 180700Z 08002MPS 9999 BKN260 21/03 Q1011 NOSIG RMK QFE721 SC07,URMN,2015-04-18T07:00:00Z,43.52,43.63,21.0,3.0,80,4,,6.21,29.852362,,,,,,TRUE,,,,,BKN,26000,,,,,,,VFR,,,,,,,,,,,,METAR,445.0
URMM 180700Z 12006MPS 9999 SKC 23/03 Q1010 R12/000070 NOSIG RMK QFE729/0973,URMM,2015-04-18T07:00:00Z,44.22,43.1,23.0,3.0,120,12,,6.21,29.822834,,,,,,TRUE,,,,,SKC,,,,,,,,VFR,,,,,,,,,,,,METAR,314.0
URML 180700Z 12005MPS 9999 SKC 13/09 Q1013 NOSIG RMK QFE759/1013 SC070,URML,2015-04-18T07:00:00Z,42.82,47.65,13.0,9.0,120,10,,6.21,29.911417,,,,,,TRUE,,,,,SKC,,,,,,,,VFR,,,,,,,,,,,,METAR,4.0
URKK 180700Z 22010G15MPS CAVOK 21/05 Q1009 NOSIG RMK QFE753 SC070,URKK,2015-04-18T07:00:00Z,45.03,39.15,21.0,5.0,220,19,29,6.21,29.793306,,,,,,TRUE,,,,,CAVOK,,,,,,,,VFR,,,,,,,,,,,,METAR,34.0
URKA 180700Z 20011G15MPS CAVOK 17/04 Q1008 NOSIG RMK QFE751/1002 SC070,URKA,2015-04-18T07:00:00Z,45.0,37.35,17.0,4.0,200,21,29,6.21,29.763779,,,,,,TRUE,,,,,CAVOK,,,,,,,,VFR,,,,,,,,,,,,METAR,53.0
DFFD 180700Z 00000KT 4000 DU NSC 26/00 Q1014 BECMG 2500 DU,DFFD,2015-04-18T07:00:00Z,12.33,-1.52,26.0,0.0,0,0,,2.49,29.940945,,,,,,,,,,DU,,,,,,,,,,,,,,,,,,,,,METAR,306.0
DFOO 180700Z 12004KT 6000 NSC 27/07 Q1014,DFOO,2015-04-18T07:00:00Z,11.17,-4.32,27.0,7.0,120,4,,3.73,29.940945,,,,,,,,,,,,,,,,,,,,,,,,,,,,,,,METAR,460.0
FTTC 180700Z 06014KT CAVOK 26/M08 Q1017,FTTC,2015-04-18T07:00:00Z,13.83,20.85,26.0,-8.0,60,14,,6.21,30.029528,,,,,,,,,,,CAVOK,,,,,,,,VFR,,,,,,,,,,,,METAR,549.0
FTTJ 180700Z 05018KT 6000 NSC 28/02 Q1014 NOSIG,FTTJ,2015-04-18T07:00:00Z,12.12,15.02,28.0,2.0,50,18,,3.73,29.940945,,,,,,TRUE,,,,,,,,,,,,,,,,,,,,,,,,,METAR,295.0
DBBB 180700Z 23009KT 6000 SCT012 29/25 Q1011 NOSIG,DBBB,2015-04-18T07:00:00Z,6.33,2.37,29.0,25.0,230,9,,3.73,29.852362,,,,,,TRUE,,,,,SCT,1200,,,,,,,MVFR,,,,,,,,,,,,METAR,9.0
DXNG 180700Z 04004KT 7000 NSC 25/16 Q1016 NOSIG,DXNG,2015-04-18T07:00:00Z,9.77,1.1,25.0,16.0,40,4,,4.35,30.0,,,,,,TRUE,,,,,,,,,,,,,,,,,,,,,,,,,SPECI,343.0
DGAA 180700Z 28007KT 6000 NSC 27/25 Q1012 NOSIG,DGAA,2015-04-18T07:00:00Z,5.58,-0.17,27.0,25.0,280,7,,3.73,29.88189,,,,,,TRUE,,,,,,,,,,,,,,,,,,,,,,,,,METAR,69.0
DRZR 180700Z 04010KT 1000 DU NSC 26/M06 Q1017,DRZR,2015-04-18T07:00:00Z,13.77,8.97,26.0,-6.0,40,10,,0.62,30.029528,,,,,,,,,,DU,,,,,,,,,,,,,,,,,,,,,METAR,453.0
DRZA 180700Z 10014KT CAVOK 24/M14 Q1019,DRZA,2015-04-18T07:00:00Z,16.97,8.0,24.0,-14.0,100,14,,6.21,30.088583,,,,,,,,,,,CAVOK,,,,,,,,VFR,,,,,,,,,,,,METAR,502.0
DRRT 180700Z 10016KT 0800 BLSA NSC 26/M08 Q1016,DRRT,2015-04-18T07:00:00Z,14.9,5.25,26.0,-8.0,100,16,,0.5,30.0,,,,,,,,,,BLSA,,,,,,,,,,,,,,,,,,,,,METAR,391.0
DRRN 180700Z 07011KT 1800 DU NSC 27/M11 Q1014 TEMPO 1400,DRRN,2015-04-18T07:00:00Z,13.47,2.17,27.0,-11.0,70,11,,1.12,29.940945,,,,,,,,,,DU,,,,,,,,,,,,,,,,,,,,,METAR,227.0
DRRM 180700Z 08006KT 0300 DU NSC 26/M08 Q1017,DRRM,2015-04-18T07:00:00Z,13.5,7.12,26.0,-8.0,80,6,,0.19,30.029528,,,,,,,,,,DU,,,,,,,,,,,,,,,,,,,,,METAR,373.0
EIDL 180700Z 05007KT CAVOK 08/04 Q1032,EIDL,2015-04-18T07:00:00Z,55.05,-8.33,8.0,4.0,50,7,,6.21,30.47244,,,,,,,,,,,CAVOK,,,,,,,,VFR,,,,,,,,,,,,METAR,9.0
UHWW 180700Z 01005MPS 9999 SCT100 16/M06 Q1009 NOSIG RMK 530005 QFE756/1008 57CLRD70,UHWW,2015-04-18T07:00:00Z,43.4,132.15,16.0,-6.0,10,10,,6.21,29.793306,,,,,,TRUE,,,,,SCT,10000,,,,,,,VFR,0.0,,,,,,,,,,,METAR,184.0
UHSS 180700Z 02005MPS 6000 -SHRASN SCT006 BKN016CB 01/00 Q1009 NOSIG RMK MT OBSC QFE755/1007 01250350,UHSS,2015-04-18T07:00:00Z,46.88,142.72,1.0,0.0,20,10,,3.73,29.793306,,,,,,TRUE,,,,-SHRA -SHSN,SCT,600,BKN,1600,,,,,MVFR,,,,,,,,,,,,METAR,31.0
UHPP 180700Z 17004MPS 9999 FEW040 BKN230 00/M04 Q1022 NOSIG RMK MT OBSC QFE763/1018 SC070,UHPP,2015-04-18T07:00:00Z,53.17,158.45,0.0,-4.0,170,8,,6.21,30.177166,,,,,,TRUE,,,,,FEW,4000,BKN,23000,,,,,VFR,,,,,,,,,,,,METAR,40.0
UHMM 180700Z 22004MPS 9999 OVC026 M03/M07 Q1021 NOSIG RMK QFE750 88CLRD65 MT OBSC,UHMM,2015-04-18T07:00:00Z,59.92,150.72,-3.0,-7.0,220,8,,6.21,30.147638,,,,,,TRUE,,,,,OVC,2600,,,,,,,MVFR,,,,,,,,,,,,METAR,118.0
UHMA 180700Z 35004MPS 9999 FEW200 M22/M25 Q1024 NOSIG RMK QFE764/1019,UHMA,2015-04-18T07:00:00Z,64.73,177.73,-22.0,-25.0,350,8,,6.21,30.236221,,,,,,TRUE,,,,,FEW,20000,,,,,,,VFR,,,,,,,,,,,,METAR,62.0
UHBB 180700Z VRB02MPS 9999 SCT033 BKN200 11/M03 Q1010 NOSIG RMK QFE740/0987 36090060,UHBB,2015-04-18T07:00:00Z,50.43,127.42,11.0,-3.0,0,4,,6.21,29.822834,,,,,,TRUE,,,,,SCT,3300,BKN,20000,,,,,VFR,,,,,,,,,,,,METAR,195.0
YSRI 180700Z AUTO 02006KT 9999 // NCD 23/17 Q1012,YSRI,2015-04-18T07:00:00Z,-33.6,150.77,23.0,17.0,20,6,,6.21,29.88189,,,TRUE,,,,,,,,,,,,,,,,,,,,,,,,,,,,METAR,21.0
YSNF 180700Z 00000KT 9999 FEW035 18/13 Q1024,YSNF,2015-04-18T07:00:00Z,-29.02,167.92,18.0,13.0,0,0,,6.21,30.236221,,,,,,,,,,,FEW,3500,,,,,,,VFR,,,,,,,,,,,,METAR,109.0
YSCB 180700Z 32010KT 9999 FEW030 OVC120 19/14 Q1013 FM0700 32010KT 9999 -SHRA FEW025 BKN035 FM0700 MOD TURB BLW 5000FT,YSCB,2015-04-18T07:00:00Z,-35.28,149.17,19.0,14.0,320,10,,6.21,29.911417,,,,,,,,,,,FEW,3000,OVC,12000,,,,,VFR,,,,,,,,,,,,METAR,577.0
YPPD 180700Z AUTO 12011KT //// // NCD 30/12 Q1012,YPPD,2015-04-18T07:00:00Z,-20.37,118.62,30.0,12.0,120,11,,,29.88189,,,TRUE,,,,,,,,,,,,,,,,,,,,,,,,,,,,METAR,6.0
YPKG 180700Z AUTO 16009KT 9999 // NCD 23/03 Q1024,YPKG,2015-04-18T07:00:00Z,-30.77,121.45,23.0,3.0,160,9,,6.21,30.236221,,,TRUE,,,,,,,,,,,,,,,,,,,,,,,,,,,,METAR,360.0
YPGV 180700Z 16008KT 9999 FEW021 SCT023 30/24 Q1010,YPGV,2015-04-18T07:00:00Z,-12.27,136.82,30.0,24.0,160,8,,6.21,29.822834,,,,,,,,,,,FEW,2100,SCT,2300,,,,,VFR,,,,,,,,,,,,METAR,55.0
YPEA 180700Z AUTO 07007KT 9999 // NCD 26/06 Q1021,YPEA,2015-04-18T07:00:00Z,-31.67,116.02,26.0,6.0,70,7,,6.21,30.147638,,,TRUE,,,,,,,,,,,,,,,,,,,,,,,,,,,,METAR,49.0
YMHB 180700Z 30005KT 230V340 9999 VCSH FEW015 SCT035 BKN056 13/08 Q1004,YMHB,2015-04-18T07:00:00Z,-42.82,147.52,13.0,8.0,300,5,,6.21,29.64567,,,,,,,,,,VCSH,FEW,1500,SCT,3500,BKN,5600,,,VFR,,,,,,,,,,,,METAR,27.0
YFRT 180700Z AUTO 190//KT //// // ////// 22/08 Q1023,YFRT,2015-04-18T07:00:00Z,-30.83,128.12,22.0,8.0,,,,,30.206694,,,TRUE,,,,,,,,,,,,,,,,,,,,,,,,,,,,METAR,156.0
YCIN 180700Z AUTO 13005KT 080V190 //// // BKN061 35/20 Q1008,YCIN,2015-04-18T07:00:00Z,-17.58,123.83,35.0,20.0,130,5,,,29.763779,,,TRUE,,,,,,,,BKN,6100,,,,,,,,,,,,,,,,,,,METAR,91.0
YBRM 180700Z 20005KT CAVOK 35/18 Q1009,YBRM,2015-04-18T07:00:00Z,-17.93,122.22,35.0,18.0,200,5,,6.21,29.793306,,,,,,,,,,,CAVOK,,,,,,,,VFR,,,,,,,,,,,,METAR,9.0
YBRK 180700Z 10009KT 9999 FEW025 25/19 Q1017 RMK DIST SHRA S,YBRK,2015-04-18T07:00:00Z,-23.37,150.47,25.0,19.0,100,9,,6.21,30.029528,,,,,,,,,,,FEW,2500,,,,,,,VFR,,,,,,,,,,,,SPECI,14.0
YBMA 180700Z AUTO 16011KT 9999 // NCD 32/13 Q1014,YBMA,2015-04-18T07:00:00Z,-20.67,139.47,32.0,13.0,160,11,,6.21,29.940945,,,TRUE,,,,,,,,,,,,,,,,,,,,,,,,,,,,METAR,344.0
YBHM 180700Z AUTO 12013KT 9999 // NCD 26/20 Q1015,YBHM,2015-04-18T07:00:00Z,-20.35,148.95,26.0,20.0,120,13,,6.21,29.970472,,,TRUE,,,,,,,,,,,,,,,,,,,,,,,,,,,,METAR,5.0
UEEE 180700Z 28004MPS CAVOK 02/M15 Q1016 NOSIG RMK QFE753 2309//60,UEEE,2015-04-18T07:00:00Z,62.08,129.77,2.0,-15.0,280,8,,6.21,30.0,,,,,,TRUE,,,,,CAVOK,,,,,,,,VFR,,,,,,,,,,,,METAR,103.0
UIUU 180700Z 31009MPS 270V340 9999 BKN035CB 05/M11 Q1020 TEMPO 30010G16MPS RMK QFE720/0961 26CLRD60,UIUU,2015-04-18T07:00:00Z,51.8,107.45,5.0,-11.0,310,17,,6.21,30.11811,,,,,,,,,,,BKN,3500,,,,,,,VFR,,,,,,,,,,,,METAR,515.0
USCM 180700Z 27009G14MPS 9999 BKN030CB 09/M01 Q0999 NOSIG 19090065 RMK QFE712,USCM,2015-04-18T07:00:00Z,53.4,58.75,9.0,-1.0,270,17,27,6.21,29.498032,,,,,,TRUE,,,,,BKN,3000,,,,,,,MVFR,,,,,,,,,,,,METAR,435.0
UIII 180700Z 29004G08MPS 220V330 9999 SCT033CB BKN100 OVC200 05/M12 Q1021 TEMPO 2000 SHSN RMK QFE721/0962 30CLRD60,UIII,2015-04-18T07:00:00Z,52.27,104.4,5.0,-12.0,290,8,16,6.21,30.147638,,,,,,,,,,,SCT,3300,BKN,10000,OVC,20000,,,VFR,,,,,,,,,,,,METAR,513.0
UIBB 180700Z 30005G10MPS 9999 BKN040 03/M10 Q1019 NOSIG RMK QFE721/0961 30CLRD60,UIBB,2015-04-18T07:00:00Z,56.37,101.7,3.0,-10.0,300,10,19,6.21,30.088583,,,,,,TRUE,,,,,BKN,4000,,,,,,,VFR,,,,,,,,,,,,METAR,490.0
UIAA 180700Z 29012MPS 9999 SCT040CB BKN100 04/M10 Q1009 NOSIG RMK QFE699 29CLRD70,UIAA,2015-04-18T07:00:00Z,52.02,113.32,4.0,-10.0,290,23,,6.21,29.793306,,,,,,TRUE,,,,,SCT,4000,BKN,10000,,,,,VFR,,,,,,,,,,,,METAR,685.0
UWWW 180700Z 26005G09MPS 230V320 9999 SCT033 BKN200 10/M00 Q1003 23120055 15//99// NOSIG RMK QFE741/0988,UWWW,2015-04-18T07:00:00Z,53.5,50.17,10.0,0.0,260,10,17,6.21,29.616142,,,,,,TRUE,,,,,SCT,3300,BKN,20000,,,,,VFR,,,,,,,,,,,,METAR,146.0
UWSS 180700Z 28003MPS CAVOK 10/M01 Q1006 300///60 NOSIG RMK QFE741,UWSS,2015-04-18T07:00:00Z,51.57,46.07,10.0,-1.0,280,6,,6.21,29.704725,,,,,,TRUE,,,,,CAVOK,,,,,,,,VFR,,,,,,,,,,,,METAR,166.0
UWOO 180700Z 25009G12MPS P5000 BKN033CB OVC070 12/02 Q1005 26290054 NOSIG RMK QFE743/0991,UWOO,2015-04-18T07:00:00Z,51.8,55.47,12.0,2.0,250,17,23,3.11,29.675198,,,,,,TRUE,,,,,BKN,3300,OVC,7000,,,,,MVFR,,,,,,26.29,,,,,,METAR,109.0
UWOR 180700Z 25008G13MPS 9999 OVC023CB 11/07 Q1005 25150063 NOSIG RMK QFE731/0974,UWOR,2015-04-18T07:00:00Z,51.07,58.6,11.0,7.0,250,16,25,6.21,29.675198,,,,,,TRUE,,,,,OVC,2300,,,,,,,MVFR,,,,,,,,,,,,METAR,277.0
UWLW 180700Z 30006MPS 8000 BKN033 08/02 Q1002 20CLRD60 NOSIG RMK QFE746,UWLW,2015-04-18T07:00:00Z,54.4,48.8,8.0,2.0,300,12,,4.97,29.586615,,,,,,TRUE,,,,,BKN,3300,,,,,,,MVFR,,,,,,,,,,,,METAR,66.0
UWKS 180700Z 26007MPS 9999 FEW013CB BKN066 06/M01 Q0999 NOSIG RMK QFE735 24150060,UWKS,2015-04-18T07:00:00Z,56.08,47.35,6.0,-1.0,260,14,,6.21,29.498032,,,,,,TRUE,,,,,FEW,1300,BKN,6600,,,,,VFR,,,,,,,,,,,,METAR,170.0
UWKE 180700Z 23008G11MPS 9999 SCT020 06/M00 Q0998 NOSIG RMK QFE732/0976 21090070,UWKE,2015-04-18T07:00:00Z,55.57,52.08,6.0,0.0,230,16,21,6.21,29.468504,,,,,,TRUE,,,,,SCT,2000,,,,,,,VFR,,,-9.0,,,,,,,,,METAR,196.0
UWKD 180700Z 27009G12MPS 9999 FEW033 FEW070 07/01 Q0999 R29/70D NOSIG RMK QFE738/0985,UWKD,2015-04-18T07:00:00Z,55.62,49.28,7.0,1.0,270,17,23,6.21,29.498032,,,,,,TRUE,,,,,FEW,3300,FEW,7000,,,,,VFR,,,,,,,,,,,,METAR,126.0
USPP 180700Z 22006MPS 9999 BKN011CB OVC073 03/02 Q0992 21290150 NOSIG RMK QFE734/0978,USPP,2015-04-18T07:00:00Z,57.92,56.02,3.0,2.0,220,12,,6.21,29.291338,,,,,,TRUE,,,,,BKN,1100,OVC,7300,,,,,MVFR,,,-29.0,,,,,,,,,METAR,123.0
UUMO 180700Z 28003MPS 9999 SCT040 SCT080 06/03 Q1004 NOSIG RMK QFE738/0984 26290050,UUMO,2015-04-18T07:00:00Z,55.52,37.5,6.0,3.0,280,6,,6.21,29.64567,,,,,,TRUE,,,,,SCT,4000,SCT,8000,,,,,VFR,,,,,,,,,,,,METAR,174.0
UUWW 180700Z VRB02MPS 9999 SCT043 BKN100 06/03 Q1004 NOSIG,UUWW,2015-04-18T07:00:00Z,55.6,37.27,6.0,3.0,0,4,,6.21,29.64567,,,,,,TRUE,,,,,SCT,4300,BKN,10000,,,,,VFR,,,,,,,,,,,,METAR,203.0
UUEE 180700Z 29004MPS 270V360 9999 SCT031 FEW100 SCT200 07/00 Q1003 NOSIG,UUEE,2015-04-18T07:00:00Z,55.97,37.42,7.0,0.0,290,8,,6.21,29.616142,,,,,,TRUE,,,,,SCT,3100,FEW,10000,SCT,20000,,,VFR,,,,,,,,,,,,METAR,190.0
UUDL 180700Z 28003MPS 9999 -SHRA BKN011CB OVC017 02/00 Q1002 NOSIG RMK QFE743 23000060,UUDL,2015-04-18T07:00:00Z,57.57,40.17,2.0,0.0,280,6,,6.21,29.586615,,,,,,TRUE,,,,-SHRA,BKN,1100,OVC,1700,,,,,MVFR,,,,,,,,,,,,METAR,88.0
UUDD 180700Z 20002MPS 170V230 9999 SCT033CB BKN100 07/02 Q1004 NOSIG,UUDD,2015-04-18T07:00:00Z,55.4,37.9,7.0,2.0,200,4,,6.21,29.64567,,,,,,TRUE,,,,,SCT,3300,BKN,10000,,,,,VFR,,,,,,,,,,,,METAR,168.0
UUBW 180700Z 29003MPS 240V330 9999 SCT030 BKN100 09/01 Q1004 NOSIG RMK SC0.60,UUBW,2015-04-18T07:00:00Z,55.55,38.15,9.0,1.0,290,6,,6.21,29.64567,,,,,,TRUE,,,,,SCT,3000,BKN,10000,,,,,VFR,,,,,,,,,,,,METAR,115.0
ULLI 180700Z 34005MPS 9999 SCT022 03/M06 Q1011 88090070 NOSIG,ULLI,2015-04-18T07:00:00Z,59.8,30.27,3.0,-6.0,340,10,,6.21,29.852362,,,,,,TRUE,,,,,SCT,2200,,,,,,,VFR,,,,,,,,,,,,METAR,4.0
USHH 180700Z 05003MPS 9999 BKN006 OVC080 02/01 Q0997 TEMPO 1000 BR BKN003 RMK QBB180 QFE744 06////60,USHH,2015-04-18T07:00:00Z,61.03,69.08,2.0,1.0,50,6,,6.21,29.438976,,,,,,,,,,,BKN,600,OVC,8000,,,,,IFR,,,,,,,,,,,,METAR,23.0
USTR 180700Z 25008G11MPS 9999 BKN036CB 08/00 Q0997 NOSIG RMK QFE738/0984 21290060 12290060,USTR,2015-04-18T07:00:00Z,57.17,65.32,8.0,0.0,250,16,21,6.21,29.438976,,,,,,TRUE,,,,,BKN,3600,,,,,,,VFR,,,-29.0,,,,,,,,,METAR,115.0
UNTT 180700Z 21004MPS CAVOK 11/M05 Q1015 NOSIG RMK QFE746 21190055,UNTT,2015-04-18T07:00:00Z,56.38,85.22,11.0,-5.0,210,8,,6.21,29.970472,,,,,,TRUE,,,,,CAVOK,,,,,,,,VFR,,,-19.0,,,,,,,,,METAR,182.0
UNOO 180700Z 19008G12MPS 9999 SCT033CB BKN050 13/04 Q1004 25CLRD60 TEMPO 18017MPS RMK QFE745,UNOO,2015-04-18T07:00:00Z,54.97,73.32,13.0,4.0,190,16,23,6.21,29.64567,,,,,,,,,,,SCT,3300,BKN,5000,,,,,VFR,,,,,,,,,,,,METAR,95.0
UNNT 180700Z 18005MPS 9999 FEW033 SCT200 15/01 Q1015 25090070 16090070 NOSIG RMK QFE751/1001,UNNT,2015-04-18T07:00:00Z,55.02,82.63,15.0,1.0,180,10,,6.21,29.970472,,,,,,TRUE,,,,,FEW,3300,SCT,20000,,,,,VFR,,,,,,,,,,,,METAR,111.0
UNKL 180700Z 17003G08MPS 100V230 CAVOK 11/M10 Q1020 NOSIG RMK QFE739 29////65,UNKL,2015-04-18T07:00:00Z,56.17,92.48,11.0,-10.0,170,6,16,6.21,30.11811,,,,,,TRUE,,,,,CAVOK,,,,,,,,VFR,,,,,,,,,,,,METAR,276.0
UNEE 180700Z 14002MPS CAVOK 10/M04 Q1017 NOSIG RMK QFE739 23CLRD60,UNEE,2015-04-18T07:00:00Z,55.27,86.08,10.0,-4.0,140,4,,6.21,30.029528,,,,,,TRUE,,,,,CAVOK,,,,,,,,VFR,,,,,,,,,,,,METAR,260.0
UNBB 180700Z 19005MPS 150V220 CAVOK 13/M03 Q1016 NOSIG RMK QFE740/0986 24CLRD66,UNBB,2015-04-18T07:00:00Z,53.37,83.53,13.0,-3.0,190,10,,6.21,30.0,,,,,,TRUE,,,,,CAVOK,,,,,,,,VFR,,,,,,,,,,,,METAR,255.0
UNAA 180700Z VRB03MPS CAVOK 13/M09 Q1019 NOSIG RMK QFE742 20090065,UNAA,2015-04-18T07:00:00Z,53.75,91.4,13.0,-9.0,0,6,,6.21,30.088583,,,,,,TRUE,,,,,CAVOK,,,,,,,,VFR,,,9.0,,,,,,,,,METAR,245.0
UWGG 180700Z 25004MPS 210V280 9999 SCT033 BKN100 07/M00 Q1001 NOSIG 18090060 RMK QFE744,UWGG,2015-04-18T07:00:00Z,56.23,43.78,7.0,0.0,250,8,,6.21,29.557087,,,,,,TRUE,,,,,SCT,3300,BKN,10000,,,,,VFR,,,,,,,,,,,,METAR,73.0
UUOB 180700Z 28003MPS CAVOK 09/03 Q1003 29090060 NOSIG,UUOB,2015-04-18T07:00:00Z,50.65,36.58,9.0,3.0,280,6,,6.21,29.616142,,,,,,TRUE,,,,,CAVOK,,,,,,,,VFR,,,,,,,,,,,,METAR,224.0
UUBP 180700Z VRB02MPS 9999 BKN020 08/01 Q1005 NOSIG SC070 RMK QFE736,UUBP,2015-04-18T07:00:00Z,53.22,34.18,8.0,1.0,0,4,,6.21,29.675198,,,,,,TRUE,,,,,BKN,2000,,,,,,,MVFR,,,,,,,,,,,,METAR,202.0
ULWC 180700Z 33006G09MPS 9999 BKN013CB OVC/// M01/M03 Q1004 TEMPO 1000 SHSN BKN003 RMK QFE743/0991 SC057,ULWC,2015-04-18T07:00:00Z,59.28,38.02,-1.0,-3.0,330,12,17,6.21,29.64567,,,,,,,,,,,BKN,1300,,,,,,,MVFR,,,,,,,,,,,,METAR,115.0
USSS 180700Z 24007MPS CAVOK 07/M01 Q0996 7619//50 NOSIG RMK QFE726,USSS,2015-04-18T07:00:00Z,56.75,60.82,7.0,-1.0,240,14,,6.21,29.409449,,,,,,TRUE,,,,,CAVOK,,,,,,,,VFR,,,,,,,,,,,,METAR,233.0
USRR 180700Z 10006MPS 1400 BR OVC001 03/03 Q1001 TEMPO 0300 FG VV001 RMK QBB050 OBST OBSC QFE745 07////55,USRR,2015-04-18T07:00:00Z,61.33,73.42,3.0,3.0,100,12,,0.87,29.557087,,,,,,,,,,BR,OVC,100,,,,,,,LIFR,,,,,,,,,,,,METAR,44.0
USNN 180700Z 11003MPS CAVOK 08/01 Q1003 NOSIG RMK QFE747 210///65,USNN,2015-04-18T07:00:00Z,60.95,76.48,8.0,1.0,110,6,,6.21,29.616142,,,,,,TRUE,,,,,CAVOK,,,,,,,,VFR,,,,,,,,,,,,METAR,54.0
USCC 180700Z 20007MPS 9999 BKN033CB OVC070 08/M02 Q0998 27290050 NOSIG RMK QFE729,USCC,2015-04-18T07:00:00Z,55.3,61.5,8.0,-2.0,200,14,,6.21,29.468504,,,,,,TRUE,,,,,BKN,3300,OVC,7000,,,,,VFR,,,,,,,,,,,,METAR,234.0
UWUU 180700Z 24008G11MPS 9999 BKN026 08/01 Q1000 642///50 NOSIG RMK QFE740/0987,UWUU,2015-04-18T07:00:00Z,54.57,55.87,8.0,1.0,240,16,21,6.21,29.52756,,,,,,TRUE,,,,,BKN,2600,,,,,,,MVFR,,,,,,,,,,,,METAR,137.0
FQNP 180700Z /////KT 9999 BKN020 27/22 Q1019,FQNP,2015-04-18T07:00:00Z,-15.08,39.27,27.0,22.0,,,,6.21,30.088583,,,,,,,,,,,BKN,2000,,,,,,,MVFR,,,,,,,,,,,,METAR,441.0
FQQL 180700Z 13008KT 9999 SCT020 29/24 Q1018,FQQL,2015-04-18T07:00:00Z,-17.87,36.87,29.0,24.0,130,8,,6.21,30.059055,,,,,,,,,,,SCT,2000,,,,,,,VFR,,,,,,,,,,,,METAR,16.0
NZCH 180700Z AUTO 06003KT 9999 NCD 10/08 Q1025 NOSIG,NZCH,2015-04-18T07:00:00Z,-43.47,172.55,10.0,8.0,60,3,,6.21,30.265747,,,TRUE,,,TRUE,,,,,,,,,,,,,,,,,,,,,,,,,METAR,34.0
NZWN 180700Z AUTO 17014KT 9999 OVC042/// 13/11 Q1025 NOSIG,NZWN,2015-04-18T07:00:00Z,-41.32,174.8,13.0,11.0,170,14,,6.21,30.265747,,,TRUE,,,TRUE,,,,,,,,,,,,,,,,,,,,,,,,,METAR,7.0
NZAA 180700Z AUTO 16010KT 9999 -SHRA FEW035/// BKN060/// 13/11 Q1019 TEMPO 6000 SHRA,NZAA,2015-04-18T07:00:00Z,-37.02,174.8,13.0,11.0,160,10,,6.21,30.088583,,,TRUE,,,,,,,-SHRA,,,,,,,,,,,,,,,,,,,,,METAR,6.0
RJNK 180700Z 25012KT 9999 FEW180 BKN210 19/M05 Q1016,RJNK,2015-04-18T07:00:00Z,36.37,136.42,19.0,-5.0,250,12,,6.21,30.0,,,,,,,,,,,FEW,18000,BKN,21000,,,,,VFR,,,,,,,,,,,,METAR,9.0
RJAW 180700Z 08014KT 9999 SCT020 25/18 Q1017 RMK 3CU020 A3004,RJAW,2015-04-18T07:00:00Z,24.77,141.32,25.0,18.0,80,14,,6.21,30.029528,,,,,,,,,,,SCT,2000,,,,,,,VFR,,,,,,,,,,,,METAR,116.0
SLCB 180700Z 00000KT 9999 FEW027 SCT200 12/08 Q1025,SLCB,2015-04-18T07:00:00Z,-17.42,-66.18,12.0,8.0,0,0,,6.21,30.265747,,,,,,,,,,,FEW,2700,SCT,20000,,,,,VFR,,,,,,,,,,,,METAR,2548.0
VVPQ 180700Z 22008KT 9999 FEW017 32/23 Q1010 NOSIG,VVPQ,2015-04-18T07:00:00Z,10.23,103.97,32.0,23.0,220,8,,6.21,29.822834,,,,,,TRUE,,,,,FEW,1700,,,,,,,VFR,,,,,,,,,,,,METAR,4.0
VVCT 180700Z VRB01KT 9999 BKN015 33/21 Q1008 NOSIG,VVCT,2015-04-18T07:00:00Z,10.08,105.72,33.0,21.0,0,1,,6.21,29.763779,,,,,,TRUE,,,,,BKN,1500,,,,,,,MVFR,,,,,,,,,,,,METAR,3.0
VVCR 180700Z 15011KT CAVOK 34/23 Q1009 NOSIG,VVCR,2015-04-18T07:00:00Z,12.0,109.22,34.0,23.0,150,11,,6.21,29.793306,,,,,,TRUE,,,,,CAVOK,,,,,,,,VFR,,,,,,,,,,,,METAR,12.0
VVPB 180700Z 08007KT 9999 FEW020 BKN270 35/24 Q1006 NOSIG,VVPB,2015-04-18T07:00:00Z,16.38,107.7,35.0,24.0,80,7,,6.21,29.704725,,,,,,TRUE,,,,,FEW,2000,BKN,27000,,,,,VFR,,,,,,,,,,,,METAR,17.0
VVDN 180700Z 11010KT 5000 BR FEW015 BKN270 32/26 Q1006 NOSIG,VVDN,2015-04-18T07:00:00Z,16.02,108.2,32.0,26.0,110,10,,3.11,29.704725,,,,,,TRUE,,,,BR,FEW,1500,BKN,27000,,,,,MVFR,,,,,,,,,,,,METAR,7.0
VVNB 180700Z 09009KT 040V130 8000 SCT026 BKN200 31/24 Q1004 NOSIG,VVNB,2015-04-18T07:00:00Z,21.22,105.8,31.0,24.0,90,9,,4.97,29.64567,,,,,,TRUE,,,,,SCT,2600,BKN,20000,,,,,MVFR,,,,,,,,,,,,METAR,12.0
VVTS 180700Z 18006KT 130V250 9999 SCT020 34/19 Q1008 NOSIG,VVTS,2015-04-18T07:00:00Z,10.82,106.67,34.0,19.0,180,6,,6.21,29.763779,,,,,,TRUE,,,,,SCT,2000,,,,,,,VFR,,,,,,,,,,,,METAR,19.0
VDSR 180700Z 27004KT 210V300 9999 SCT017 SCT050 38/20 Q1006,VDSR,2015-04-18T07:00:00Z,13.42,103.83,38.0,20.0,270,4,,6.21,29.704725,,,,,,,,,,,SCT,1700,SCT,5000,,,,,VFR,,,,,,,,,,,,METAR,15.0
VDPP 180700Z VRB03KT 9999 SCT020 36/21 Q1007,VDPP,2015-04-18T07:00:00Z,11.55,104.83,36.0,21.0,0,3,,6.21,29.734253,,,,,,,,,,,SCT,2000,,,,,,,VFR,,,,,,,,,,,,METAR,10.0
VYYY 180700Z 18010KT 9000 SCT018 FEW025CB 37/21 Q1009,VYYY,2015-04-18T07:00:00Z,16.9,96.13,37.0,21.0,180,10,,5.59,29.793306,,,,,,,,,,,SCT,1800,FEW,2500,,,,,VFR,,,,,,,,,,,,METAR,33.0
VTSP 180700Z 25008KT 9999 SCT020 SCT120 BKN300 34/23 Q1009 A2980,VTSP,2015-04-18T07:00:00Z,8.12,98.32,34.0,23.0,250,8,,6.21,29.793306,,,,,,,,,,,SCT,2000,SCT,12000,BKN,30000,,,VFR,,,,,,,,,,,,METAR,10.0
VTSS 180700Z 22005KT 9999 SCT020 SCT120 BKN300 36/23 Q1007 A2975 NOSIG,VTSS,2015-04-18T07:00:00Z,6.92,100.38,36.0,23.0,220,5,,6.21,29.734253,,,,,,TRUE,,,,,SCT,2000,SCT,12000,BKN,30000,,,VFR,,,,,,,,,,,,METAR,35.0
VTBU 180700Z 20004KT 9999 FEW020 SCT300 31/21 Q1009 A2982,VTBU,2015-04-18T07:00:00Z,12.68,101.0,31.0,21.0,200,4,,6.21,29.793306,,,,,,,,,,,FEW,2000,SCT,30000,,,,,VFR,,,,,,,,,,,,METAR,5.0
VTCC 180700Z 16009KT 9999 FEW035 36/16 Q1009 A2979 NOSIG,VTCC,2015-04-18T07:00:00Z,18.77,98.97,36.0,16.0,160,9,,6.21,29.793306,,,,,,TRUE,,,,,FEW,3500,,,,,,,VFR,,,,,,,,,,,,METAR,314.0
VTBD 180700Z 19012KT 9999 FEW020 BKN300 35/23 Q1008 NOSIG,VTBD,2015-04-18T07:00:00Z,13.92,100.6,35.0,23.0,190,12,,6.21,29.763779,,,,,,TRUE,,,,,FEW,2000,BKN,30000,,,,,VFR,,,,,,,,,,,,METAR,3.0
VTBS 180700Z 19012KT 9999 FEW025 SCT300 34/19 Q1009 NOSIG,VTBS,2015-04-18T07:00:00Z,13.68,100.75,34.0,19.0,190,12,,6.21,29.793306,,,,,,TRUE,,,,,FEW,2500,SCT,30000,,,,,VFR,,,,,,,,,,,,METAR,2.0
LFQG 180700Z AUTO 05009KT 9999 FEW031 OVC120 12/10 Q1018,LFQG,2015-04-18T07:00:00Z,47.0,3.1,12.0,10.0,50,9,,6.21,30.059055,,,TRUE,,,,,,,,FEW,3100,OVC,12000,,,,,VFR,,,,,,,,,,,,METAR,181.0
LFLW 180700Z AUTO 11003KT 9999 NSC 06/06 Q1016,LFLW,2015-04-18T07:00:00Z,44.88,2.42,6.0,6.0,110,3,,6.21,30.0,,,TRUE,,,,,,,,,,,,,,,,,,,,,,,,,,,,METAR,639.0
UMMG 180700Z 33006G09MPS 9999 BKN009 OVC066 03/02 Q1012 NOSIG,UMMG,2015-04-18T07:00:00Z,53.6,24.05,3.0,2.0,330,12,17,6.21,29.88189,,,,,,TRUE,,,,,BKN,900,OVC,6600,,,,,IFR,,,,,,,,,,,,METAR,135.0
UMOO 180700Z 32002MPS 6000 OVC008 03/02 Q1007 NOSIG,UMOO,2015-04-18T07:00:00Z,53.95,30.1,3.0,2.0,320,4,,3.73,29.734253,,,,,,TRUE,,,,,OVC,800,,,,,,,IFR,,,,,,,,,,,,METAR,194.0
UMMS 180700Z 34005MPS 8000 -SHRA BKN006 BKN017CB 03/02 Q1008 R31/D NOSIG RMK QBB200,UMMS,2015-04-18T07:00:00Z,53.88,28.03,3.0,2.0,340,10,,4.97,29.763779,,,,,,TRUE,,,,-SHRA,BKN,600,BKN,1700,,,,,IFR,,,,,,,,,,,,METAR,205.0
UMMM 180700Z 33003MPS 9999 -RA BKN014 BKN100 04/01 Q1008 R30/190060 NOSIG RMK QFE737,UMMM,2015-04-18T07:00:00Z,53.87,27.52,4.0,1.0,330,6,,6.21,29.763779,,,,,,TRUE,,,,-RA,BKN,1400,BKN,10000,,,,,MVFR,,,,,,,,,,,,METAR,234.0
UMGG 180700Z 31003MPS 9999 OVC005 04/02 Q1007 R28/D NOSIG RMK QBB160,UMGG,2015-04-18T07:00:00Z,52.53,31.02,4.0,2.0,310,6,,6.21,29.734253,,,,,,TRUE,,,,,OVC,500,,,,,,,IFR,,,,,,,,,,,,METAR,144.0
OERY 180700Z 05012KT 8000 SKC 27/04 Q1019,OERY,2015-04-18T07:00:00Z,24.72,46.72,27.0,4.0,50,12,,4.97,30.088583,,,,,,,,,,,SKC,,,,,,,,MVFR,,,,,,,,,,,,METAR,612.0
EIME 180700Z 08013KT 9999 FEW015 BKN016 07/04 Q1029,EIME,2015-04-18T07:00:00Z,53.3,-6.45,7.0,4.0,80,13,,6.21,30.383858,,,,,,,,,,,FEW,1500,BKN,1600,,,,,MVFR,,,,,,,,,,,,METAR,93.0
EIKY 180700Z 09009KT 9999 FEW030 09/05 Q1025,EIKY,2015-04-18T07:00:00Z,52.18,-9.52,9.0,5.0,90,9,,6.21,30.265747,,,,,,,,,,,FEW,3000,,,,,,,VFR,,,,,,,,,,,,METAR,34.0
DAUT 180700Z 21009KT 7000 NSC 25/M02 Q1015,DAUT,2015-04-18T07:00:00Z,29.25,0.27,25.0,-2.0,210,9,,4.35,29.970472,,,,,,,,,,,,,,,,,,,,,,,,,,,,,,,METAR,312.0
DAUO 180700Z 100//KT 9000 FEW050 SCT233 22/05 Q1013,DAUO,2015-04-18T07:00:00Z,33.5,6.78,22.0,5.0,,,,5.59,29.911417,,,,,,,,,,,FEW,5000,SCT,23300,,,,,VFR,,,,,,,,,,,,METAR,63.0
DAUL 180700Z 09002KT 9999 FEW033 SCT080 BKN200 19/M00 Q1016,DAUL,2015-04-18T07:00:00Z,33.77,2.92,19.0,0.0,90,2,,6.21,30.0,,,,,,,,,,,FEW,3300,SCT,8000,BKN,20000,,,VFR,,,,,,,,,,,,METAR,765.0
DAUK 180700Z 00000KT CAVOK 22/05 Q1014,DAUK,2015-04-18T07:00:00Z,33.08,6.12,22.0,5.0,0,0,,6.21,29.940945,,,,,,,,,,,CAVOK,,,,,,,,VFR,,,,,,,,,,,,METAR,85.0
DAUI 180700Z 00000KT 9000 NSC 21/M08 Q1018,DAUI,2015-04-18T07:00:00Z,27.25,2.52,21.0,-8.0,0,0,,5.59,30.059055,,,,,,,,,,,,,,,,,,,,,,,,,,,,,,,METAR,269.0
DAUG 180700Z 00000KT 9999 FEW046 SCT233 23/M06 Q1016,DAUG,2015-04-18T07:00:00Z,32.37,3.82,23.0,-6.0,0,0,,6.21,30.0,,,,,,,,,,,FEW,4600,SCT,23300,,,,,VFR,,,,,,,,,,,,METAR,450.0
DAUB 180700Z 00000KT CAVOK 22/04 Q1013,DAUB,2015-04-18T07:00:00Z,34.78,5.72,22.0,4.0,0,0,,6.21,29.911417,,,,,,,,,,,CAVOK,,,,,,,,VFR,,,,,,,,,,,,METAR,87.0
DAUA 180700Z 16011KT 7000 NSC 24/M08 Q1017,DAUA,2015-04-18T07:00:00Z,27.83,-0.18,24.0,-8.0,160,11,,4.35,30.029528,,,,,,,,,,,,,,,,,,,,,,,,,,,,,,,METAR,263.0
DAOV 180700Z 00000KT CAVOK 14/09 Q1016,DAOV,2015-04-18T07:00:00Z,35.2,0.15,14.0,9.0,0,0,,6.21,30.0,,,,,,,,,,,CAVOK,,,,,,,,VFR,,,,,,,,,,,,METAR,514.0
DAOR 180700Z 19004KT 4000 BLDU SCT040 SCT100 23/07 Q1018,DAOR,2015-04-18T07:00:00Z,31.65,-2.27,23.0,7.0,190,4,,2.49,30.059055,,,,,,,,,,BLDU,SCT,4000,SCT,10000,,,,,IFR,,,,,,,,,,,,METAR,773.0
DAOI 180700Z 08008KT 5000 SCT013 SCT020 14/13 Q1015,DAOI,2015-04-18T07:00:00Z,36.22,1.32,14.0,13.0,80,8,,3.11,29.970472,,,,,,,,,,,SCT,1300,SCT,2000,,,,,MVFR,,,,,,,,,,,,METAR,143.0
DAOF 180700Z 00000KT 9999 SCT046 BKN100 24/00 Q1015,DAOF,2015-04-18T07:00:00Z,27.7,-8.17,24.0,0.0,0,0,,6.21,29.970472,,,,,,,,,,,SCT,4600,BKN,10000,,,,,VFR,,,,,,,,,,,,METAR,431.0
DAOB 180700Z 23006KT CAVOK 12/10 Q1016,DAOB,2015-04-18T07:00:00Z,35.33,1.47,12.0,10.0,230,6,,6.21,30.0,,,,,,,,,,,CAVOK,,,,,,,,VFR,,,,,,,,,,,,METAR,989.0
DAFH 180700Z 00000KT 9999 FEW033 BKN233 23/M08 Q1017,DAFH,2015-04-18T07:00:00Z,32.93,3.32,23.0,-8.0,0,0,,6.21,30.029528,,,,,,,,,,,FEW,3300,BKN,23300,,,,,VFR,,,,,,,,,,,,METAR,774.0
DAEN 180700Z /////KT 8000 SCT040 BKN080 28/M07 Q1017,DAEN,2015-04-18T07:00:00Z,29.73,6.72,28.0,-7.0,,,,4.97,30.029528,,,,,,,,,,,SCT,4000,BKN,8000,,,,,MVFR,,,,,,,,,,,,METAR,252.0
DAEF 180700Z 07006KT CAVOK 23/// Q1020,DAEF,2015-04-18T07:00:00Z,28.43,7.55,,,70,6,,6.21,30.11811,,,,,,,,,,,CAVOK,,,,,,,,VFR,,,,,,,,,,,,METAR,472.0
DABT 180700Z 00000KT CAVOK 11/09 Q1017,DABT,2015-04-18T07:00:00Z,35.75,6.32,11.0,9.0,0,0,,6.21,30.029528,,,,,,,,,,,CAVOK,,,,,,,,VFR,,,,,,,,,,,,METAR,1052.0
DAAY 180700Z 25018KT 6000 NSC 20/05 Q1018,DAAY,2015-04-18T07:00:00Z,33.53,-0.25,20.0,5.0,250,18,,3.73,30.059055,,,,,,,,,,,,,,,,,,,,,,,,,,,,,,,METAR,1149.0
DAAV 180700Z 00000KT CAVOK 15/14 Q1013,DAAV,2015-04-18T07:00:00Z,36.8,5.88,15.0,14.0,0,0,,6.21,29.911417,,,,,,,,,,,CAVOK,,,,,,,,VFR,,,,,,,,,,,,METAR,11.0
DAAS 180700Z 30004KT 9999 FEW030 SCT233 17/08 Q1018,DAAS,2015-04-18T07:00:00Z,36.18,5.33,17.0,8.0,300,4,,6.21,30.059055,,,,,,,,,,,FEW,3000,SCT,23300,,,,,VFR,,,,,,,,,,,,METAR,1038.0
DAAP 180700Z 00000KT CAVOK 23/M01 Q1020,DAAP,2015-04-18T07:00:00Z,26.72,8.62,23.0,-1.0,0,0,,6.21,30.11811,,,,,,,,,,,CAVOK,,,,,,,,VFR,,,,,,,,,,,,METAR,558.0
DAAJ 180700Z 00000KT CAVOK 17/M03 Q1026,DAAJ,2015-04-18T07:00:00Z,24.28,9.47,17.0,-3.0,0,0,,6.21,30.295275,,,,,,,,,,,CAVOK,,,,,,,,VFR,,,,,,,,,,,,METAR,968.0
DAAE 180700Z 26004KT 7000 NSC 15/13 Q1014,DAAE,2015-04-18T07:00:00Z,36.72,5.07,15.0,13.0,260,4,,4.35,29.940945,,,,,,,,,,,,,,,,,,,,,,,,,,,,,,,METAR,2.0
CWSD 180700Z AUTO 36012KT 03/M01 RMK AO1 SOG 31 3021 SLP082 T00281006,CWSD,2015-04-18T07:00:00Z,46.42,-63.85,2.8,-0.6,360,12,,,,1008.2,,TRUE,TRUE,,,,,,,,,,,,,,,,,,,,,,,,,,,METAR,24.0
CWRZ 180700Z AUTO 35010G15KT 01/M06 RMK AO1 PK WND 34018/0637 SLP092 T00091059 53025,CWRZ,2015-04-18T07:00:00Z,48.42,-64.32,0.9,-5.9,350,10,15,,,1009.2,,TRUE,TRUE,,,,,,,,,,,,,,,,2.5,,,,,,,,,,,METAR,16.0
CWRK 180700Z AUTO 00000KT M02/M02 RMK AO1 SLP142 T10181021 58010,CWRK,2015-04-18T07:00:00Z,45.07,-77.87,-1.8,-2.1,0,0,,,,1014.2,,TRUE,TRUE,,,,,,,,,,,,,,,,-1.0,,,,,,,,,,,METAR,331.0
CWRJ 180700Z AUTO 09004KT 11/M01 RMK AO1 SOG 02 5015 PK WND 23031/0622 SLP097 T01051014,CWRJ,2015-04-18T07:00:00Z,51.57,-107.92,10.5,-1.4,90,4,,,,1009.7,,TRUE,TRUE,,,,,,,,,,,,,,,,,,,,,,,,,,,METAR,586.0
CWQV 180700Z AUTO 28010KT 02/M04 RMK AO1 T00151035,CWQV,2015-04-18T07:00:00Z,48.27,-70.12,1.5,-3.5,280,10,,,,,,TRUE,TRUE,,,,,,,,,,,,,,,,,,,,,,,,,,,METAR,1.0
CWQR 180700Z AUTO 02011KT M01/ RMK AO1 T1007,CWQR,2015-04-18T07:00:00Z,50.22,-64.22,-0.7,,20,11,,,,,,TRUE,TRUE,,,,,,,,,,,,,,,,,,,,,,,,,,,METAR,9.0
CWQO 180700Z AUTO 33010KT 04/M02 RMK AO1 T00351022,CWQO,2015-04-18T07:00:00Z,48.42,-68.9,3.5,-2.2,330,10,,,,,,TRUE,TRUE,,,,,,,,,,,,,,,,,,,,,,,,,,,METAR,1.0
CWQK 180700Z AUTO 27011KT 10/08 RMK AO1 PK WND 27017/0623 SLP267 T01020075 52011,CWQK,2015-04-18T07:00:00Z,48.3,-123.53,10.2,7.5,270,11,,,,1026.7,,TRUE,TRUE,,,,,,,,,,,,,,,,1.1,,,,,,,,,,,METAR,5.0
CWQH 180700Z AUTO 31002KT 05/M04 RMK AO1 SOG 00 T00471041,CWQH,2015-04-18T07:00:00Z,45.37,-71.82,4.7,-4.1,310,2,,,,,,TRUE,TRUE,,,,,,,,,,,,,,,,,,,,,,,,,,,METAR,181.0
CWRM 180700Z AUTO 31006KT 04/M00 RMK AO1 SOG 00 1029 PK WND 33023/0602 SLP202 T00381004,CWRM,2015-04-18T07:00:00Z,52.42,-114.92,3.8,-0.4,310,6,,,,1020.2,,TRUE,TRUE,,,,,,,,,,,,,,,,,,,,,,,,,,,METAR,988.0
CWZW 180700Z AUTO 36003KT M02/M08 RMK AO1 SOG 06 1020 SLP269 T10181079,CWZW,2015-04-18T07:00:00Z,60.17,-132.73,-1.8,-7.9,360,3,,,,1026.9,,TRUE,TRUE,,,,,,,,,,,,,,,,,,,,,,,,,,,METAR,705.0
CWVT 180700Z AUTO 15006KT 05/03 RMK AO1 SOG 00 6015 SLP148 T00530028,CWVT,2015-04-18T07:00:00Z,55.82,-108.42,5.3,2.8,150,6,,,,1014.8,,TRUE,TRUE,,,,,,,,,,,,,,,,,,,,,,,,,,,METAR,434.0
CWZG 180700Z AUTO 23003KT 01/01 RMK AO1 5PAST HR 1030 SLP206 P0002 T00090007 50005,CWZG,2015-04-18T07:00:00Z,51.2,-115.53,0.9,0.7,230,3,,,,1020.6,,TRUE,TRUE,,,,,,,,,,,,,,,,0.5,,,,,0.02,,,,,,METAR,1397.0
CWRO 180700Z AUTO 11005KT 07/04 RMK AO1 SLP320 T00660043 51005,CWRO,2015-04-18T07:00:00Z,54.17,-131.67,6.6,4.3,110,5,,,,1032.0,,TRUE,TRUE,,,,,,,,,,,,,,,,0.5,,,,,,,,,,,METAR,7.0
CWLP 180700Z AUTO 32012KT 09/06 RMK AO1 PK WND 32019/0605 SLP313 T00860057 51005,CWLP,2015-04-18T07:00:00Z,50.93,-127.63,8.6,5.7,320,12,,,,1031.3,,TRUE,TRUE,,,,,,,,,,,,,,,,0.5,,,,,,,,,,,METAR,17.0
CWJD 180700Z AUTO 22002KT M00/M02 RMK AO1 SOG 01 3001 SLP219 T10031024,CWJD,2015-04-18T07:00:00Z,53.17,-99.27,-0.3,-2.4,220,2,,,,1021.9,,TRUE,TRUE,,,,,,,,,,,,,,,,,,,,,,,,,,,METAR,223.0
CWEQ 180700Z AUTO 05003KT 03/M01 RMK AO1 SLP208 T00341006 58002,CWEQ,2015-04-18T07:00:00Z,52.12,-101.22,3.4,-0.6,50,3,,,,1020.8,,TRUE,TRUE,,,,,,,,,,,,,,,,-0.2,,,,,,,,,,,METAR,335.0
CWKO 180700Z AUTO 13010KT 06/M04 RMK AO1 SLP164 T00551038 58013,CWKO,2015-04-18T07:00:00Z,49.17,-105.97,5.5,-3.8,130,10,,,,1016.4,,TRUE,TRUE,,,,,,,,,,,,,,,,-1.3,,,,,,,,,,,METAR,917.0
CWEH 180700Z AUTO 30011KT 08/M02 RMK AO1 PK WND 27020/0645 SLP136 T00761023 55002,CWEH,2015-04-18T07:00:00Z,49.42,-108.97,7.6,-2.3,300,11,,,,1013.6,,TRUE,TRUE,,,,,,,,,,,,,,,,-0.2,,,,,,,,,,,METAR,1078.0
CWDC 180700Z AUTO 06005KT 01/M04 RMK AO1 SOG 08 1003 SLP159 T00141035,CWDC,2015-04-18T07:00:00Z,59.57,-108.47,1.4,-3.5,60,5,,,,1015.9,,TRUE,TRUE,,,,,,,,,,,,,,,,,,,,,,,,,,,METAR,318.0
CWLB 180700Z AUTO 28012G20KT 05/02 RMK AO1 SOG 00 1015 PK WND 28023/0627 SLP163 T00490018,CWLB,2015-04-18T07:00:00Z,54.77,-112.02,4.9,1.8,280,12,20,,,1016.3,,TRUE,TRUE,,,,,,,,,,,,,,,,,,,,,,,,,,,METAR,567.0
CXZV 180700Z AUTO 32005KT M03/M09 RMK AO1 SLP129 T10321092 51017,CXZV,2015-04-18T07:00:00Z,50.22,-66.25,-3.2,-9.2,320,5,,,,1012.9,,TRUE,TRUE,,,,,,,,,,,,,,,,1.7,,,,,,,,,,,METAR,52.0
CXTD 180700Z AUTO 25008KT 07/04 RMK AO1 SOG 04 5001 SLP067 T00650042,CXTD,2015-04-18T07:00:00Z,45.62,-61.68,6.5,4.2,250,8,,,,1006.7,,TRUE,TRUE,,,,,,,,,,,,,,,,,,,,,,,,,,,METAR,68.0
CXRL 180700Z AUTO 04/01 RMK AO1 T00360014,CXRL,2015-04-18T07:00:00Z,54.5,-111.7,3.6,1.4,,,,,,,,TRUE,TRUE,,,,,,,,,,,,,,,,,,,,,,,,,,,METAR,585.0
CXLB 180700Z AUTO 30006KT 05/ RMK AO1 SLP078 T0052 53001,CXLB,2015-04-18T07:00:00Z,44.37,-64.3,5.2,,300,6,,,,1007.8,,TRUE,TRUE,,,,,,,,,,,,,,,,0.1,,,,,,,,,,,METAR,4.0
CXCP 180700Z AUTO 01013KT 07/M02 RMK AO1 T00671017,CXCP,2015-04-18T07:00:00Z,50.28,-113.35,6.7,-1.7,10,13,,,,,,TRUE,TRUE,,,,,,,,,,,,,,,,,,,,,,,,,,,METAR,1006.0
SLVR 180700Z 29005KT 2000 BR BKN005 OVC015 23/22 Q1012,SLVR,2015-04-18T07:00:00Z,-17.63,-63.12,23.0,22.0,290,5,,1.24,29.88189,,,,,,,,,,BR,BKN,500,OVC,1500,,,,,IFR,,,,,,,,,,,,METAR,373.0
SLLP 180700Z VRB02KT 4000E VCFG FEW002 SCT010 BKN200 04/03Q1036,SLLP,2015-04-18T07:00:00Z,-16.52,-68.17,,,0,2,,2.49,30.590551,,,,,,,,,,VCFG,FEW,200,SCT,1000,BKN,20000,,,IFR,,,,,,,,,,,,SPECI,4014.0
UMII 180700Z 36004MPS P6000 BKN008 03/02 Q1007 NOSIG,UMII,2015-04-18T07:00:00Z,55.13,30.35,3.0,2.0,360,8,,3.73,29.734253,,,,,,TRUE,,,,,BKN,800,,,,,,,IFR,,,,,,,,,,,,METAR,208.0
CZSP 180700Z AUTO 31007KT 01/M01 RMK AO1 SOG 56 3024 SLP076 T00121007,CZSP,2015-04-18T07:00:00Z,46.45,-62.58,1.2,-0.7,310,7,,,,1007.6,,TRUE,TRUE,,,,,,,,,,,,,,,,,,,,,,,,,,,METAR,30.0
CZCR 180700Z AUTO 33008KT 03/M05 RMK AO1 SOG 01 1023 SLP113 T00271051,CZCR,2015-04-18T07:00:00Z,47.97,-66.32,2.7,-5.1,330,8,,,,1011.3,,TRUE,TRUE,,,,,,,,,,,,,,,,,,,,,,,,,,,METAR,38.0
CXNP 180700Z AUTO 20002KT 02/02 RMK AO1 SLP084 T00210021 51012,CXNP,2015-04-18T07:00:00Z,45.75,-64.23,2.1,2.1,200,2,,,,1008.4,,TRUE,TRUE,,,,,,,,,,,,,,,,1.2,,,,,,,,,,,METAR,20.0
CWXI 180700Z AUTO M04/M05 RMK AO1 SLP043 T10351052 53012,CWXI,2015-04-18T07:00:00Z,51.02,-57.1,-3.5,-5.2,,,,,,1004.3,,TRUE,TRUE,,,,,,,,,,,,,,,,1.2,,,,,,,,,,,METAR,6.0
CWBK 180700Z AUTO 29012KT 01/01 RMK AO1 SOG 49 3008 PK WND 29017/0631 SLP065 T00140009,CWBK,2015-04-18T07:00:00Z,45.77,-62.67,1.4,0.9,290,12,,,,1006.5,,TRUE,TRUE,,,,,,,,,,,,,,,,,,,,,,,,,,,METAR,2.0
CWAR 180700Z AUTO 20011KT 01/01 RMK AO1 SLP015 T00110008 57018,CWAR,2015-04-18T07:00:00Z,47.28,-54.0,1.1,0.8,200,11,,,,1001.5,,TRUE,TRUE,,,,,,,,,,,,,,,,-1.8,,,,,,,,,,,METAR,16.0
CERM 180700Z AUTO 32003KT 03/M04 RMK AO1 SOG 01 1015 SLP128 T00251039,CERM,2015-04-18T07:00:00Z,47.42,-68.32,2.5,-3.9,320,3,,,,1012.8,,TRUE,TRUE,,,,,,,,,,,,,,,,,,,,,,,,,,,METAR,154.0
DAUH 180700Z 21007KT 6000 FEW040 25/01 Q1014,DAUH,2015-04-18T07:00:00Z,31.67,6.15,25.0,1.0,210,7,,3.73,29.940945,,,,,,,,,,,FEW,4000,,,,,,,MVFR,,,,,,,,,,,,METAR,142.0
DAOY 180700Z /////KT 9999 FEW030 BKN233 18/M01 Q1018,DAOY,2015-04-18T07:00:00Z,33.72,1.08,18.0,-1.0,,,,6.21,30.059055,,,,,,,,,,,FEW,3000,BKN,23300,,,,,VFR,,,,,,,,,,,,METAR,1347.0
UTAT 180700Z VRB02MPS CAVOK 16/04 Q1020 99GLRD70 NOSIG,UTAT,2015-04-18T07:00:00Z,41.77,59.83,16.0,4.0,0,4,,6.21,30.11811,,,,,,TRUE,,,,,CAVOK,,,,,,,,VFR,,,,,,,,,,,,METAR,83.0
UTAM 180700Z 00000MPS CAVOK 18/08 Q1019 NOSIG,UTAM,2015-04-18T07:00:00Z,37.62,61.9,18.0,8.0,0,0,,6.21,30.088583,,,,,,TRUE,,,,,CAVOK,,,,,,,,VFR,,,,,,,,,,,,METAR,222.0
UTAV 180700Z 01003PS CAVOK 18/01 Q1019 NOSIG,UTAV,2015-04-18T07:00:00Z,39.08,63.62,18.0,1.0,,,,6.21,30.088583,,,,,,TRUE,,,,,CAVOK,,,,,,,,VFR,,,,,,,,,,,,METAR,192.0
UTAK 180700Z 15008MPS CAVOK 15/09 Q1018 R16/CLRD70 NOSIG,UTAK,2015-04-18T07:00:00Z,40.05,53.0,15.0,9.0,150,16,,6.21,30.059055,,,,,,TRUE,,,,,CAVOK,,,,,,,,VFR,,,,,,,,,,,,METAR,85.0
RPMD 180700Z 06007KT 9999 FEW015CB BKN290 33/23 Q1007 NOSIG RMK A2974 CB N,RPMD,2015-04-18T07:00:00Z,7.12,125.65,33.0,23.0,60,7,,6.21,29.734253,,,,,,TRUE,,,,,FEW,1500,BKN,29000,,,,,VFR,,,,,,,,,,,,METAR,18.0
VMMC 180700Z 16013KT 9000 FEW008 SCT018 BKN045 25/23 Q1008 NOSIG,VMMC,2015-04-18T07:00:00Z,22.15,113.58,25.0,23.0,160,13,,5.59,29.763779,,,,,,TRUE,,,,,FEW,800,SCT,1800,BKN,4500,,,VFR,,,,,,,,,,,,METAR,6.0
RCNN 180700Z 19020KT 9999 FEW010 BKN200 31/23 Q1009 NOSIG RMK A2981,RCNN,2015-04-18T07:00:00Z,22.93,120.2,31.0,23.0,190,20,,6.21,29.793306,,,,,,TRUE,,,,,FEW,1000,BKN,20000,,,,,VFR,,,,,,,,,,,,METAR,19.0
RCMQ 180700Z 24012KT 9999 FEW010 SCT016 BKN060 28/23 Q1010 NOSIG RMK A2983,RCMQ,2015-04-18T07:00:00Z,24.27,120.62,28.0,23.0,240,12,,6.21,29.822834,,,,,,TRUE,,,,,FEW,1000,SCT,1600,BKN,6000,,,VFR,,,,,,,,,,,,METAR,5.0
RCSS 180700Z 30008KT 5000 HZ FEW018 BKN035 BKN050 28/20 Q1009 NOSIG RMK 32006KT/R10 A2981,RCSS,2015-04-18T07:00:00Z,25.07,121.53,28.0,20.0,300,8,,3.11,29.793306,,,,,,TRUE,,,,HZ,FEW,1800,BKN,3500,BKN,5000,,,MVFR,,,,,,,,,,,,METAR,6.0
RCKH 180700Z 18018G30KT 140V230 9999 FEW018 SCT026 BKN300 30/24 Q1010 NOSIG RMK 15013G26KT/R27 A2984,RCKH,2015-04-18T07:00:00Z,22.57,120.33,30.0,24.0,180,18,30,6.21,29.822834,,,,,,TRUE,,,,,FEW,1800,SCT,2600,BKN,30000,,,VFR,,,,,,,,,,,,METAR,9.0
RCTP 180700Z 28008KT 250V350 9000 FEW010 FEW012CB BKN018 BKN030 27/23 Q1010 NOSIG RMK CB NE-E-SE A2983,RCTP,2015-04-18T07:00:00Z,25.07,121.22,27.0,23.0,280,8,,5.59,29.822834,,,,,,TRUE,,,,,FEW,1000,FEW,1200,BKN,1800,BKN,3000,MVFR,,,,,,,,,,,,METAR,33.0
VTSM 180700Z 16009KT 9999 FEW020 BKN300 32/24 Q1010 A2984,VTSM,2015-04-18T07:00:00Z,9.55,100.07,32.0,24.0,160,9,,6.21,29.822834,,,,,,,,,,,FEW,2000,BKN,30000,,,,,VFR,,,,,,,,,,,,METAR,17.0
VTSH 180700Z 06008KT 8000 FEW020 BKN300 34/23 Q1008 A2979,VTSH,2015-04-18T07:00:00Z,7.2,100.58,34.0,23.0,60,8,,4.97,29.763779,,,,,,,,,,,FEW,2000,BKN,30000,,,,,MVFR,,,,,,,,,,,,METAR,5.0
VTSF 180700Z 08010KT 050V120 9999 FEW018 BKN300 32/26 Q1008 A2979 INFO H / RWY 19,VTSF,2015-04-18T07:00:00Z,8.53,99.95,32.0,26.0,80,10,,6.21,29.763779,,,,,,,,,,,FEW,1800,BKN,30000,,,,,VFR,,,,,,,,,,,,METAR,4.0
VTPP 180700Z 24008KT 8000 NSC 37/21 Q1007,VTPP,2015-04-18T07:00:00Z,16.78,100.28,37.0,21.0,240,8,,4.97,29.734253,,,,,,,,,,,,,,,,,,,,,,,,,,,,,,,METAR,44.0
VTCP 180700Z 23002KT 6000 FEW025 BKN300 38/16 Q1006 A2973 RWY19 INFO G,VTCP,2015-04-18T07:00:00Z,18.13,100.17,38.0,16.0,230,2,,3.73,29.704725,,,,,,,,,,,FEW,2500,BKN,30000,,,,,MVFR,,,,,,,,,,,,METAR,162.0
VTCN 180700Z 23007KT 9999 FEW025 38/15 Q1005 A2971 RWY/02 INFO/G,VTCN,2015-04-18T07:00:00Z,18.82,100.77,38.0,15.0,230,7,,6.21,29.675198,,,,,,,,,,,FEW,2500,,,,,,,VFR,,,,,,,,,,,,METAR,201.0
VTCL 180700Z 24009KT 180V270 9999 FEW025 38/14 Q1007 A2975 INFO: H,VTCL,2015-04-18T07:00:00Z,18.27,99.52,38.0,14.0,240,9,,6.21,29.734253,,,,,,,,,,,FEW,2500,,,,,,,VFR,,,,,,,,,,,,METAR,242.0
VTCH 180700Z 25006KT 200V360 8000 SCT025 38/15 Q1006 A2973 INFO: H,VTCH,2015-04-18T07:00:00Z,19.3,97.98,38.0,15.0,250,6,,4.97,29.704725,,,,,,,,,,,SCT,2500,,,,,,,MVFR,,,,,,,,,,,,METAR,269.0
DAUU 180700Z 00000KT 6000 NSC 24/M05 Q1013,DAUU,2015-04-18T07:00:00Z,31.92,5.4,24.0,-5.0,0,0,,3.73,29.911417,,,,,,,,,,,,,,,,,,,,,,,,,,,,,,,METAR,141.0
VTUU 180700Z 21005KT 8000 FEW023 BKN300 38/21 Q1006 A2972 NOSIG,VTUU,2015-04-18T07:00:00Z,15.25,104.87,38.0,21.0,210,5,,4.97,29.704725,,,,,,TRUE,,,,,FEW,2300,BKN,30000,,,,,MVFR,,,,,,,,,,,,METAR,127.0
VTUL 180700Z 16006KT 080V230 4000 HZ FEW028 39/19 Q1007 A2973,VTUL,2015-04-18T07:00:00Z,17.43,101.72,39.0,19.0,160,6,,2.49,29.734253,,,,,,,,,,HZ,FEW,2800,,,,,,,IFR,,,,,,,,,,,,METAR,254.0
VTUK 180700Z VRB07KT 9999 FEW025 40/15 Q1007 A2973 INF O I RWY03,VTUK,2015-04-18T07:00:00Z,16.47,102.78,40.0,15.0,0,7,,6.21,29.734253,,,,,,,,,,,FEW,2500,,,,,,,VFR,,,,,,,,,,,,METAR,204.0
VTUD 180700Z 26009KT 230V310 8000 FEW045 38/19 Q1006 A2972 INFO I RWY30,VTUD,2015-04-18T07:00:00Z,17.37,102.78,38.0,19.0,260,9,,4.97,29.704725,,,,,,,,,,,FEW,4500,,,,,,,MVFR,,,,,,,,,,,,METAR,182.0
VTBO 180700Z 24012KT 8000 FEW022 33/23 Q1009,VTBO,2015-04-18T07:00:00Z,12.28,102.32,33.0,23.0,240,12,,4.97,29.793306,,,,,,,,,,,FEW,2200,,,,,,,MVFR,,,,,,,,,,,,METAR,32.0
CYZV 180700Z 28003KT 15SM FEW040 M04/M10 A2991 RMK SC1 SC TR SLP131,CYZV,2015-04-18T07:00:00Z,50.22,-66.27,-4.0,-10.0,280,3,,15.0,29.911417,1013.1,,,,,,,,,,FEW,4000,,,,,,,VFR,,,,,,,,,,,,METAR,55.0
CYZF 180700Z 07007KT 15SM SKC M00/M05 A3007 RMK SLP197,CYZF,2015-04-18T07:00:00Z,62.47,-114.45,0.0,-5.0,70,7,,15.0,30.070866,1019.7,,,,,,,,,,SKC,,,,,,,,VFR,,,,,,,,,,,,METAR,206.0
CYYZ 180700Z 30005KT 15SM SKC 11/05 A2996 RMK SLP147,CYYZ,2015-04-18T07:00:00Z,43.67,-79.62,11.0,5.0,300,5,,15.0,29.958662,1014.7,,,,,,,,,,SKC,,,,,,,,VFR,,,,,,,,,,,,METAR,173.0
CYYT 180700Z 25007KT 15SM OVC070 01/M02 A2958 RMK AC8 SLP022,CYYT,2015-04-18T07:00:00Z,47.62,-52.72,1.0,-2.0,250,7,,15.0,29.58071,1002.2,,,,,,,,,,OVC,7000,,,,,,,VFR,,,,,,,,,,,,METAR,140.0
CYYR 180700Z 32007KT 15SM BKN028 M09/M14 A2993 RMK SC6 SLP139,CYYR,2015-04-18T07:00:00Z,53.32,-60.42,-9.0,-14.0,320,7,,15.0,29.929134,1013.9,,,,,,,,,,BKN,2800,,,,,,,MVFR,,,,,,,,,,,,METAR,49.0
CYYQ 180700Z 35009KT 15SM SKC M09/M12 A3022 RMK SLP236,CYYQ,2015-04-18T07:00:00Z,58.75,-94.07,-9.0,-12.0,350,9,,15.0,30.221457,1023.6,,,,,,,,,,SKC,,,,,,,,VFR,,,,,,,,,,,,METAR,29.0
CYYJ 180700Z 30003KT 250V320 30SM SCT250 10/05 A3032 RMK CI4 SLP266,CYYJ,2015-04-18T07:00:00Z,48.63,-123.42,10.0,5.0,300,3,,30.0,30.318897,1026.6,,,,,,,,,,SCT,25000,,,,,,,VFR,,,,,,,,,,,,METAR,19.0
CYXX 180700Z 17006KT 10SM SKC 06/02 A3031 RMK SLP266,CYXX,2015-04-18T07:00:00Z,49.03,-122.38,6.0,2.0,170,6,,10.0,30.31004,1026.6,,,,,,,,,,SKC,,,,,,,,VFR,,,,,,,,,,,,METAR,58.0
CYWG 180700Z 05006KT 15SM SKC 01/M03 A3022 RMK SLP241,CYWG,2015-04-18T07:00:00Z,49.88,-97.22,1.0,-3.0,50,6,,15.0,30.221457,1024.1,,,,,,,,,,SKC,,,,,,,,VFR,,,,,,,,,,,,METAR,239.0
CYVR 180700Z 30020G28KT 20SM SKC 11/06 A3030 RMK SLP259,CYVR,2015-04-18T07:00:00Z,49.17,-123.17,11.0,6.0,300,20,28,20.0,30.301182,1025.9,,,,,,,,,,SKC,,,,,,,,VFR,,,,,,,,,,,,METAR,2.0
CYUL 180700Z 05008KT 15SM BKN095 07/M03 A2997 RMK AC7 SLP149,CYUL,2015-04-18T07:00:00Z,45.47,-73.73,7.0,-3.0,50,8,,15.0,29.970472,1014.9,,,,,,,,,,BKN,9500,,,,,,,VFR,,,,,,,,,,,,METAR,36.0
CYTR 180700Z 30005KT 15SM SKC 08/02 A2995 RMK SLP144,CYTR,2015-04-18T07:00:00Z,44.12,-77.52,8.0,2.0,300,5,,15.0,29.949802,1014.4,,,,,,,,,,SKC,,,,,,,,VFR,,,,,,,,,,,,METAR,86.0
CYQY 180700Z 27009KT 15SM FEW052 FEW062 BKN080 OVC090 05/02 A2964 RMK SC1SC1AC3AC3 SLP038,CYQY,2015-04-18T07:00:00Z,46.17,-60.03,5.0,2.0,270,9,,15.0,29.639763,1003.8,,,,,,,,,,FEW,5200,FEW,6200,BKN,8000,OVC,9000,VFR,,,,,,,,,,,,METAR,62.0
CYQQ 180700Z 34009G16KT 20SM SKC 10/01 A3036 RMK SLP281,CYQQ,2015-04-18T07:00:00Z,49.72,-124.9,10.0,1.0,340,9,16,20.0,30.360237,1028.1,,,,,,,,,,SKC,,,,,,,,VFR,,,,,,,,,,,,METAR,24.0
CYQM 180700Z 36011KT 15SM FEW035 FEW100 04/M00 A2979 RMK SC1AC2 SC TR SLP091,CYQM,2015-04-18T07:00:00Z,46.12,-64.67,4.0,0.0,360,11,,15.0,29.790354,1009.1,,,,,,,,,,FEW,3500,FEW,10000,,,,,VFR,,,,,,,,,,,,METAR,71.0
CYQG 180700Z 25003KT 12SM SKC 09/06 A2999 RMK SLP156,CYQG,2015-04-18T07:00:00Z,42.27,-82.97,9.0,6.0,250,3,,12.0,29.991142,1015.6,,,,,,,,,,SKC,,,,,,,,VFR,,,,,,,,,,,,METAR,190.0
CYQB 180700Z 33007KT 15SM SKC 00/M05 A2996 RMK SLP147,CYQB,2015-04-18T07:00:00Z,46.78,-71.37,0.0,-5.0,330,7,,15.0,29.958662,1014.7,,,,,,,,,,SKC,,,,,,,,VFR,,,,,,,,,,,,METAR,73.0
CYOW 180700Z 03008KT 15SM SCT070 08/M04 A2996 RMK AC4 SLP145,CYOW,2015-04-18T07:00:00Z,45.32,-75.67,8.0,-4.0,30,8,,15.0,29.958662,1014.5,,,,,,,,,,SCT,7000,,,,,,,VFR,,,,,,,,,,,,METAR,114.0
CYMX 180700Z 05003KT 020V080 25SM FEW100 05/M05 A2998 RMK AC2 SLP153,CYMX,2015-04-18T07:00:00Z,45.67,-74.02,5.0,-5.0,50,3,,25.0,29.97933,1015.3,,,,,,,,,,FEW,10000,,,,,,,VFR,,,,,,,,,,,,METAR,82.0
CYJT 180700Z 06002KT 12SM FEW008 OVC019 M01/M02 A2960 RMK SF1SC7 SLP024,CYJT,2015-04-18T07:00:00Z,48.55,-58.57,-1.0,-2.0,60,2,,12.0,29.601377,1002.4,,,,,,,,,,FEW,800,OVC,1900,,,,,MVFR,,,,,,,,,,,,METAR,26.0
CYHZ 180700Z 31009KT 15SM SCT100 03/02 A2974 RMK AC3 SLP076,CYHZ,2015-04-18T07:00:00Z,44.87,-63.5,3.0,2.0,310,9,,15.0,29.740158,1007.6,,,,,,,,,,SCT,10000,,,,,,,VFR,,,,,,,,,,,,METAR,145.0
CYGL 180700Z 07002KT 15SM SCT240 M08/M10 A2998 RMK CI3 SLP166,CYGL,2015-04-18T07:00:00Z,53.62,-77.7,-8.0,-10.0,70,2,,15.0,29.97933,1016.6,,,,,,,,,,SCT,24000,,,,,,,VFR,,,,,,,,,,,,METAR,195.0
CYFC 180700Z AUTO 32007KT 9SM CLR 05/M01 A2985 RMK SLP109,CYFC,2015-04-18T07:00:00Z,45.87,-66.52,5.0,-1.0,320,7,,9.0,29.84941,1010.9,,TRUE,,,,,,,,CLR,,,,,,,,VFR,,,,,,,,,,,,METAR,20.0
CYFB 180700Z 00000KT 15SM -SN BKN048 M16/M19 A2988 RMK SC7 SLP122,CYFB,2015-04-18T07:00:00Z,63.75,-68.55,-16.0,-19.0,0,0,,15.0,29.878937,1012.2,,,,,,,,,-SN,BKN,4800,,,,,,,VFR,,,,,,,,,,,,METAR,34.0
CYEG 180700Z 31017G24KT 15SM BKN190 06/M01 A3007 RMK AC6 VIRGA SLP199,CYEG,2015-04-18T07:00:00Z,53.28,-113.57,6.0,-1.0,310,17,24,15.0,30.070866,1019.9,,,,,,,,,,BKN,19000,,,,,,,VFR,,,,,,,,,,,,METAR,723.0
CYBG 180700Z 27008KT 25SM OVC035 01/M05 A2998 RMK SC8 SLP159,CYBG,2015-04-18T07:00:00Z,48.33,-70.98,1.0,-5.0,270,8,,25.0,29.97933,1015.9,,,,,,,,,,OVC,3500,,,,,,,VFR,,,,,,,,,,,,METAR,159.0
CYZT 180700Z 20005KT 15SM SKC 05/04 A3046 RMK SLP316,CYZT,2015-04-18T07:00:00Z,50.67,-127.37,5.0,4.0,200,5,,15.0,30.46063,1031.6,,,,,,,,,,SKC,,,,,,,,VFR,,,,,,,,,,,,METAR,22.0
CYZP 180700Z AUTO 24004KT 9SM CLR 05/01 A3050 RMK SLP327,CYZP,2015-04-18T07:00:00Z,53.25,-131.82,5.0,1.0,240,4,,9.0,30.499016,1032.7,,TRUE,,,,,,,,CLR,,,,,,,,VFR,,,,,,,,,,,,METAR,6.0
CYXS 180700Z AUTO 18005KT 9SM CLR M02/M05 A3034 RMK SLP299,CYXS,2015-04-18T07:00:00Z,53.9,-122.68,-2.0,-5.0,180,5,,9.0,30.339567,1029.9,,TRUE,,,,,,,,CLR,,,,,,,,VFR,,,,,,,,,,,,METAR,691.0
CYXE 180700Z 16017G23KT 15SM SCT110 OVC220 12/M04 A2983 RMK AC3CI5 SLP112 DENSITY ALT 1700FT,CYXE,2015-04-18T07:00:00Z,52.17,-106.7,12.0,-4.0,160,17,23,15.0,29.828741,1011.2,,,,,,,,,,SCT,11000,OVC,22000,,,,,VFR,,,,,,,,,,,,METAR,504.0
CYXC 180700Z 35012G18KT 25SM SCT110 08/01 A3007 RMK AC4 SLP187,CYXC,2015-04-18T07:00:00Z,49.6,-115.77,8.0,1.0,350,12,18,25.0,30.070866,1018.7,,,,,,,,,,SCT,11000,,,,,,,VFR,,,,,,,,,,,,METAR,939.0
CYVL 180700Z AUTO 23009KT 9SM FEW075 SCT095 M08/M11 A3005 RMK SLP202,CYVL,2015-04-18T07:00:00Z,67.02,-126.13,-8.0,-11.0,230,9,,9.0,30.050198,1020.2,,TRUE,,,,,,,,FEW,7500,SCT,9500,,,,,VFR,,,,,,,,,,,,METAR,259.0
CYRV 180700Z AUTO 30006KT 9SM CLR 05/04 A3023 RMK SLP250,CYRV,2015-04-18T07:00:00Z,50.97,-118.17,5.0,4.0,300,6,,9.0,30.230314,1025.0,,TRUE,,,,,,,,CLR,,,,,,,,VFR,,,,,,,,,,,,METAR,443.0
CYQZ 180700Z AUTO 35007KT 9SM CLR 03/M06 A3037 RMK SLP300,CYQZ,2015-04-18T07:00:00Z,53.02,-122.52,3.0,-6.0,350,7,,9.0,30.369095,1030.0,,TRUE,,,,,,,,CLR,,,,,,,,VFR,,,,,,,,,,,,METAR,545.0
CYQD 180700Z 15008KT 15SM OVC075 05/00 A3008 RMK AC8 SLP195,CYQD,2015-04-18T07:00:00Z,53.97,-101.08,5.0,0.0,150,8,,15.0,30.079725,1019.5,,,,,,,,,,OVC,7500,,,,,,,VFR,,,,,,,,,,,,METAR,271.0
CYPR 180700Z AUTO 08006KT 9SM BKN160 05/04 A3049 RMK SLP326,CYPR,2015-04-18T07:00:00Z,54.28,-130.42,5.0,4.0,80,6,,9.0,30.490158,1032.6,,TRUE,,,,,,,,BKN,16000,,,,,,,VFR,,,,,,,,,,,,METAR,34.0
CYKY 180700Z 01020G28KT 15SM -SHRA OVC030 08/06 A2986 RMK SC8 CVCTV CLD EMBD PRESRR SLP120,CYKY,2015-04-18T07:00:00Z,51.52,-109.17,8.0,6.0,10,20,28,15.0,29.861221,1012.0,,,,,,,,,-SHRA,OVC,3000,,,,,,,MVFR,,,,,,,,,,,,METAR,694.0
CYIV 180700Z 11002KT 15SM FEW040 M01/M02 A3020 RMK SC1 SLP238,CYIV,2015-04-18T07:00:00Z,53.85,-94.65,-1.0,-2.0,110,2,,15.0,30.200787,1023.8,,,,,,,,,,FEW,4000,,,,,,,VFR,,,,,,,,,,,,METAR,237.0
CYHE 180700Z AUTO 00000KT 9SM CLR 09/06 A3031 RMK SLP265,CYHE,2015-04-18T07:00:00Z,49.37,-121.5,9.0,6.0,0,0,,9.0,30.31004,1026.5,,TRUE,,,,,,,,CLR,,,,,,,,VFR,,,,,,,,,,,,METAR,39.0
CYEV 180700Z 06003KT 15SM SCT021 M13/M15 A3014 RMK SC4 SLP215,CYEV,2015-04-18T07:00:00Z,68.32,-133.5,-13.0,-15.0,60,3,,15.0,30.138779,1021.5,,,,,,,,,,SCT,2100,,,,,,,VFR,,,,,,,,,,,,METAR,68.0
CYDQ 180700Z AUTO 30002KT 9SM FEW055 SCT076 SCT110 02/01 A3020 RMK SLP252,CYDQ,2015-04-18T07:00:00Z,55.75,-120.17,2.0,1.0,300,2,,9.0,30.200787,1025.2,,TRUE,,,,,,,,FEW,5500,SCT,7600,SCT,11000,,,VFR,,,,,,,,,,,,METAR,655.0
CYDB 180700Z AUTO 13011G20KT 9SM BKN180 OVC200 M01/M11 A3000 RMK SLP200,CYDB,2015-04-18T07:00:00Z,61.37,-139.05,-1.0,-11.0,130,11,20,9.0,30.0,1020.0,,TRUE,,,,,,,,BKN,18000,OVC,20000,,,,,VFR,,,,,,,,,,,,METAR,801.0
CYXH 180700Z AUTO 31011G19KT 9SM BKN120 BKN140 13/01 A2993 RMK PRESRR SLP137 DENSITY ALT 2600FT,CYXH,2015-04-18T07:00:00Z,50.02,-110.72,13.0,1.0,310,11,19,9.0,29.929134,1013.7,,TRUE,,,,,,,,BKN,12000,BKN,14000,,,,,VFR,,,,,,,,,,,,METAR,716.0
CYUX 180700Z AUTO 26010KT 9SM CLR M25/M27 A2976 RMK SLP080,CYUX,2015-04-18T07:00:00Z,68.77,-81.25,-25.0,-27.0,260,10,,9.0,29.760826,1008.0,,TRUE,,,,,,,,CLR,,,,,,,,VFR,,,,,,,,,,,,METAR,8.0
CYTH 180700Z VRB02KT 15SM SCT180 01/M06 A3014 RMK CI3 SLP217,CYTH,2015-04-18T07:00:00Z,55.78,-97.87,1.0,-6.0,0,2,,15.0,30.138779,1021.7,,,,,,,,,,SCT,18000,,,,,,,VFR,,,,,,,,,,,,METAR,218.0
CYSM 180700Z VRB02KT 15SM SCT080 06/M06 A2994 RMK AC4 SLP148,CYSM,2015-04-18T07:00:00Z,60.03,-111.97,6.0,-6.0,0,2,,15.0,29.940945,1014.8,,,,,,,,,,SCT,8000,,,,,,,VFR,,,,,,,,,,,,METAR,203.0
CYSF 180700Z AUTO 11003KT 9SM FEW090 M01/M04 A2996 RMK SLP158,CYSF,2015-04-18T07:00:00Z,59.25,-105.82,-1.0,-4.0,110,3,,9.0,29.958662,1015.8,,TRUE,,,,,,,,FEW,9000,,,,,,,VFR,,,,,,,,,,,,METAR,250.0
CYQV 180700Z AUTO 14013G19KT 9SM CLR 06/01 A3008 RMK SLP203,CYQV,2015-04-18T07:00:00Z,51.27,-102.47,6.0,1.0,140,13,19,9.0,30.079725,1020.3,,TRUE,,,,,,,,CLR,,,,,,,,VFR,,,,,,,,,,,,METAR,498.0
CYPE 180700Z 28010KT 15SM SKC 01/M01 A3011 RMK SLP222,CYPE,2015-04-18T07:00:00Z,56.22,-117.45,1.0,-1.0,280,10,,15.0,30.109253,1022.2,,,,,,,,,,SKC,,,,,,,,VFR,,,,,,,,,,,,METAR,571.0
CYOD 180700Z 28007KT 15SM FEW037 FEW070 BKN220 06/03 A2992 RMK SC1AC1CI2 SLP149,CYOD,2015-04-18T07:00:00Z,54.4,-110.28,6.0,3.0,280,7,,15.0,29.920275,1014.9,,,,,,,,,,FEW,3700,FEW,7000,BKN,22000,,,VFR,,,,,,,,,,,,METAR,544.0
CYEK 180700Z AUTO 32012KT 9SM CLR M16/M19 A3018 RMK SLP223,CYEK,2015-04-18T07:00:00Z,61.1,-94.07,-16.0,-19.0,320,12,,9.0,30.180119,1022.3,,TRUE,,,,,,,,CLR,,,,,,,,VFR,,,,,,,,,,,,METAR,10.0
CYED 180700Z AUTO 28009KT 9SM CLR 05/M00 A3004 RMK SLP190,CYED,2015-04-18T07:00:00Z,53.67,-113.47,5.0,0.0,280,9,,9.0,30.041338,1019.0,,TRUE,,,,,,,,CLR,,,,,,,,VFR,,,,,,,,,,,,METAR,688.0
CYCY 180700Z AUTO 27006KT 9SM SCT055 BKN072 BKN086 OVC210 M20/M23 A2964 RMK SLP041,CYCY,2015-04-18T07:00:00Z,70.47,-68.52,-20.0,-23.0,270,6,,9.0,29.639763,1004.1,,TRUE,,,,,,,,SCT,5500,BKN,7200,BKN,8600,OVC,21000,VFR,,,,,,,,,,,,METAR,26.0
CYBW 180700Z AUTO 02012G19KT 9SM -RA BKN036 OVC043 05/01 A3009 RMK SLP201,CYBW,2015-04-18T07:00:00Z,51.1,-114.37,5.0,1.0,20,12,19,9.0,30.088583,1020.1,,TRUE,,,,,,,-RA,BKN,3600,OVC,4300,,,,,VFR,,,,,,,,,,,,METAR,1200.0
CWVD 180700Z AUTO 14006KT M14/ A2952 RMK SLP061,CWVD,2015-04-18T07:00:00Z,67.52,-63.77,-14.0,,140,6,,,29.518702,1006.1,,TRUE,,,,,,,,,,,,,,,,,,,,,,,,,,,,METAR,573.0
CWRF 180700Z AUTO ///// M20/ A2972 RMK SLP113,CWRF,2015-04-18T07:00:00Z,69.42,-89.72,-20.0,,,,,,29.719488,1011.3,,TRUE,,,,,,,,,,,,,,,,,,,,,,,,,,,,METAR,325.0
CZCP 180700Z AUTO 06004KT 9SM OVC028 M14/ A3015 RMK SLP223,CZCP,2015-04-18T07:00:00Z,70.17,-124.72,-14.0,,60,4,,9.0,30.15059,1022.3,,TRUE,,,,,,,,OVC,2800,,,,,,,MVFR,,,,,,,,,,,,METAR,93.0
CZBF 180700Z 32005KT 290V010 15SM OVC050 04/M04 A2983 RMK SC8 SLP102,CZBF,2015-04-18T07:00:00Z,47.62,-65.75,4.0,-4.0,320,5,,15.0,29.828741,1010.2,,,,,,,,,,OVC,5000,,,,,,,VFR,,,,,,,,,,,,METAR,59.0
CWZZ 180700Z AUTO 23005KT M13/ A2979 RMK SLP134,CWZZ,2015-04-18T07:00:00Z,58.32,-62.57,-13.0,,230,5,,,29.790354,1013.4,,TRUE,,,,,,,,,,,,,,,,,,,,,,,,,,,,METAR,483.0
CWYK 180700Z AUTO ///// M12/ A2968 RMK SLP118,CWYK,2015-04-18T07:00:00Z,57.12,-61.47,-12.0,,,,,,29.681103,1011.8,,TRUE,,,,,,,,,,,,,,,,,,,,,,,,,,,,METAR,834.0
CWVH 180700Z AUTO 04010KT M13/ A3010 RMK SLP225,CWVH,2015-04-18T07:00:00Z,68.9,-133.93,-13.0,,40,10,,,30.100393,1022.5,,TRUE,,,,,,,,,,,,,,,,,,,,,,,,,,,,METAR,261.0
CWUP 180700Z AUTO ///// M17/ A2956 RMK SLP056,CWUP,2015-04-18T07:00:00Z,68.47,-66.82,-17.0,,,,,,29.56004,1005.6,,TRUE,,,,,,,,,,,,,,,,,,,,,,,,,,,,METAR,390.0
CWRX 180700Z AUTO 21009KT M17/ A2969,CWRX,2015-04-18T07:00:00Z,69.07,-79.02,-17.0,,210,9,,,29.68996,,,TRUE,,,,,,,,,,,,,,,,,,,,,,,,,,,,METAR,41.0
CWPX 180700Z AUTO 32022KT M18/ A3003 RMK SLP195,CWPX,2015-04-18T07:00:00Z,69.02,-107.82,-18.0,,320,22,,,30.029528,1019.5,,TRUE,,,,,,,,,,,,,,,,,,,,,,,,,,,,METAR,165.0
CWOB 180700Z AUTO 36004KT M12/ A2969 RMK SLP106,CWOB,2015-04-18T07:00:00Z,63.32,-64.15,-12.0,,360,4,,,29.68996,1010.6,,TRUE,,,,,,,,,,,,,,,,,,,,,,,,,,,,METAR,367.0
CWLY 180700Z AUTO 00000KT 9SM CLR 12/02 A3029 RMK PRESRR SLP258,CWLY,2015-04-18T07:00:00Z,50.22,-121.58,12.0,2.0,0,0,,9.0,30.28937,1025.8,,TRUE,,,,,,,,CLR,,,,,,,,VFR,,,,,,,,,,,,METAR,229.0
CWLX 180700Z AUTO 12008KT M22/ A2970 RMK SLP083,CWLX,2015-04-18T07:00:00Z,68.9,-75.15,-22.0,,120,8,,,29.698818,1008.3,,TRUE,,,,,,,,,,,,,,,,,,,,,,,,,,,,METAR,162.0
CWLI 180700Z AUTO 03013KT M17/ A3014 RMK SLP224,CWLI,2015-04-18T07:00:00Z,69.58,-130.9,-17.0,,30,13,,,30.138779,1022.4,,TRUE,,,,,,,,,,,,,,,,,,,,,,,,,,,,METAR,102.0
CWKW 180700Z AUTO ///// M15/ A2975 RMK SLP128,CWKW,2015-04-18T07:00:00Z,59.97,-64.17,-15.0,,,,,,29.749016,1012.8,,TRUE,,,,,,,,,,,,,,,,,,,,,,,,,,,,METAR,551.0
CWKM 180700Z AUTO 10017KT M11/ A3013 RMK SLP208,CWKM,2015-04-18T07:00:00Z,69.6,-140.17,-11.0,,100,17,,,30.129921,1020.8,,TRUE,,,,,,,,,,,,,,,,,,,,,,,,,,,,METAR,13.0
CWIL 180700Z AUTO 27016KT M19/ A2997 RMK SLP158,CWIL,2015-04-18T07:00:00Z,68.32,-100.07,-19.0,,270,16,,,29.970472,1015.8,,TRUE,,,,,,,,,,,,,,,,,,,,,,,,,,,,METAR,36.0
CWCA 180700Z 33009KT 15SM FEW020 BKN070 M07/M09 A2987 RMK SC2AS5 SLP115,CWCA,2015-04-18T07:00:00Z,53.7,-57.02,-7.0,-9.0,330,9,,15.0,29.870079,1011.5,,,,,,,,,,FEW,2000,BKN,7000,,,,,VFR,,,,,,,,,,,,METAR,14.0
CZUM 180700Z AUTO VRB02KT 9SM CLR M21/M23 A2988 RMK SLP158,CZUM,2015-04-18T07:00:00Z,53.53,-64.08,-21.0,-23.0,0,2,,9.0,29.878937,1015.8,,TRUE,,,,,,,,CLR,,,,,,,,VFR,,,,,,,,,,,,METAR,440.0
CYPD 180700Z AUTO 29010KT 9SM FEW065 SCT077 BKN100 05/03 A2968 RMK SLP052,CYPD,2015-04-18T07:00:00Z,45.67,-61.37,5.0,3.0,290,10,,9.0,29.681103,1005.2,,TRUE,,,,,,,,FEW,6500,SCT,7700,BKN,10000,,,VFR,,,,,,,,,,,,METAR,114.0
CWYM 180700Z AUTO ///// M18/ A2954 RMK SLP072,CWYM,2015-04-18T07:00:00Z,64.95,-63.57,-18.0,,,,,,29.53937,1007.2,,TRUE,,,,,,,,,,,,,,,,,,,,,,,,,,,,METAR,583.0
CWXR 180700Z AUTO 19012KT M15/ A3013 RMK SLP216,CWXR,2015-04-18T07:00:00Z,69.27,-119.22,-15.0,,190,12,,,30.129921,1021.6,,TRUE,,,,,,,,,,,,,,,,,,,,,,,,,,,,METAR,69.0
CWTU 180700Z AUTO 31017KT M12/ A2972 RMK SLP116,CWTU,2015-04-18T07:00:00Z,54.72,-58.35,-12.0,,310,17,,,29.719488,1011.6,,TRUE,,,,,,,,,,,,,,,,,,,,,,,,,,,,METAR,683.0
CWSA 180700Z AUTO 26012G17KT 3/8SM -RA VV002 07/ A2973 RMK SLP067,CWSA,2015-04-18T07:00:00Z,43.93,-60.0,7.0,,260,12,17,0.38,29.731298,1006.7,,TRUE,,,,,,,-RA,OVX,0,,,,,,,LIFR,,,,,,,,,,,200,METAR,4.0
CWRH 180700Z AUTO ///// M12/ A2977 RMK SLP124,CWRH,2015-04-18T07:00:00Z,61.57,-64.65,-12.0,,,,,,29.769686,1012.4,,TRUE,,,,,,,,,,,,,,,,,,,,,,,,,,,,METAR,369.0
CWKP 180700Z AUTO 03002KT M12/ A3005 RMK SLP215,CWKP,2015-04-18T07:00:00Z,69.67,-121.67,-12.0,,30,2,,,30.050198,1021.5,,TRUE,,,,,,,,,,,,,,,,,,,,,,,,,,,,METAR,330.0
CWFD 180700Z AUTO 03004KT 9SM CLR M16/ A2940 RMK SLP039,CWFD,2015-04-18T07:00:00Z,66.57,-61.58,-16.0,,30,4,,9.0,29.40059,1003.9,,TRUE,,,,,,,,CLR,,,,,,,,VFR,,,,,,,,,,,,METAR,393.0
CWEU 180700Z 15019G25KT 1 1/2SM -SN DRSN OVC070 M20/M26 A2958 RMK AS8 SLP020,CWEU,2015-04-18T07:00:00Z,80.0,-85.92,-20.0,-26.0,150,19,25,1.5,29.58071,1002.0,,,,,,,,,-SN DRSN,OVC,7000,,,,,,,IFR,,,,,,,,,,,,METAR,10.0
CYWK 180700Z AUTO 06004KT 9SM CLR M13/M16 A2989 RMK SLP161,CYWK,2015-04-18T07:00:00Z,52.92,-66.87,-13.0,-16.0,60,4,,9.0,29.890747,1016.1,,TRUE,,,,,,,,CLR,,,,,,,,VFR,,,,,,,,,,,,METAR,551.0
CYUY 180700Z VRB06KT 15SM OVC100 02/M03 A2988 RMK AC8 SLP130,CYUY,2015-04-18T07:00:00Z,48.2,-78.82,2.0,-3.0,0,6,,15.0,29.878937,1013.0,,,,,,,,,,OVC,10000,,,,,,,VFR,,,,,,,,,,,,METAR,301.0
CYQI 180700Z 30006KT 6SM BR SCT006 03/03 A2981 RMK SF3 SLP096,CYQI,2015-04-18T07:00:00Z,43.83,-66.08,3.0,3.0,300,6,,6.0,29.811024,1009.6,,,,,,,,,BR,SCT,600,,,,,,,VFR,,,,,,,,,,,,METAR,43.0
CYPX 180700Z AUTO 18016KT 9SM -SN OVC011 M10/M11 A2989 RMK SLP123,CYPX,2015-04-18T07:00:00Z,60.03,-77.27,-10.0,-11.0,180,16,,9.0,29.890747,1012.3,,TRUE,,,,,,,-SN,OVC,1100,,,,,,,MVFR,,,,,,,,,,,,METAR,23.0
CYPH 180700Z AUTO 20012KT 9SM OVC055 M10/M12 A2994 RMK SLP141,CYPH,2015-04-18T07:00:00Z,58.45,-78.08,-10.0,-12.0,200,12,,9.0,29.940945,1014.1,,TRUE,,,,,,,,OVC,5500,,,,,,,VFR,,,,,,,,,,,,METAR,3.0
CYOY 180700Z AUTO 07002KT 9SM FEW089 M01/M05 A2995 RMK SLP150,CYOY,2015-04-18T07:00:00Z,46.88,-71.5,-1.0,-5.0,70,2,,9.0,29.949802,1015.0,,TRUE,,,,,,,,FEW,8900,,,,,,,VFR,,,,,,,,,,,,METAR,168.0
CYGV 180700Z AUTO 01011G16KT 9SM CLR M02/M08 A2981 RMK SLP096,CYGV,2015-04-18T07:00:00Z,50.27,-63.62,-2.0,-8.0,10,11,16,9.0,29.811024,1009.6,,TRUE,,,,,,,,CLR,,,,,,,,VFR,,,,,,,,,,,,METAR,33.0
CYBX 180700Z 05024KT 4SM -SN DRSN OVC012 M05/M07 A2971 RMK SC8 SLP065,CYBX,2015-04-18T07:00:00Z,51.45,-57.17,-5.0,-7.0,50,24,,4.0,29.71063,1006.5,,,,,,,,,-SN DRSN,OVC,1200,,,,,,,MVFR,,,,,,,,,,,,METAR,35.0
CYAH 180700Z AUTO 07005KT 9SM CLR M13/M15 A2997 RMK SLP175,CYAH,2015-04-18T07:00:00Z,53.75,-73.67,-13.0,-15.0,70,5,,9.0,29.970472,1017.5,,TRUE,,,,,,,,CLR,,,,,,,,VFR,,,,,,,,,,,,METAR,306.0
CZSJ 180700Z AUTO 00000KT 9SM CLR M03/M03 A3019 RMK SLP240,CZSJ,2015-04-18T07:00:00Z,53.07,-93.35,-3.0,-3.0,0,0,,9.0,30.188976,1024.0,,TRUE,,,,,,,,CLR,,,,,,,,VFR,,,,,,,,,,,,METAR,290.0
CZMD 180700Z AUTO 01005KT 9SM SCT008 00/M01 A3019 RMK SLP236,CZMD,2015-04-18T07:00:00Z,53.43,-91.77,0.0,-1.0,10,5,,9.0,30.188976,1023.6,,TRUE,,,,,,,,SCT,800,,,,,,,VFR,,,,,,,,,,,,METAR,278.0
CYYH 180700Z 31017G24KT 12SM -SN DRSN BKN030 M15/M17 A2986 RMK SC7 OCNL BLSN SLP116,CYYH,2015-04-18T07:00:00Z,69.53,-93.57,-15.0,-17.0,310,17,24,12.0,29.861221,1011.6,,,,,,,,,-SN DRSN,BKN,3000,,,,,,,MVFR,,,,,,,,,,,,METAR,28.0
CYYB 180700Z AUTO 14006KT 9SM CLR 02/M03 A2990 RMK SLP135,CYYB,2015-04-18T07:00:00Z,46.35,-79.42,2.0,-3.0,140,6,,9.0,29.899607,1013.5,,TRUE,,,,,,,,CLR,,,,,,,,VFR,,,,,,,,,,,,METAR,371.0
CYXU 180700Z 22003KT 15SM SKC 09/07 A2998 RMK SLP152,CYXU,2015-04-18T07:00:00Z,43.02,-81.15,9.0,7.0,220,3,,15.0,29.97933,1015.2,,,,,,,,,,SKC,,,,,,,,VFR,,,,,,,,,,,,METAR,278.0
CYXL 180700Z 20003KT 15SM SKC M04/M05 A3020 RMK SLP243,CYXL,2015-04-18T07:00:00Z,50.12,-91.9,-4.0,-5.0,200,3,,15.0,30.200787,1024.3,,,,,,,,,,SKC,,,,,,,,VFR,,,,,,,,,,,,METAR,390.0
CYVQ 180700Z VRB02KT 30SM SKC M06/M08 A3010 RMK SLP199,CYVQ,2015-04-18T07:00:00Z,65.27,-126.78,-6.0,-8.0,0,2,,30.0,30.100393,1019.9,,,,,,,,,,SKC,,,,,,,,VFR,,,,,,,,,,,,METAR,74.0
CYVO 180700Z AUTO 18007KT 9SM OVC100 00/M03 A2988 RMK SLP134,CYVO,2015-04-18T07:00:00Z,48.07,-77.77,0.0,-3.0,180,7,,9.0,29.878937,1013.4,,TRUE,,,,,,,,OVC,10000,,,,,,,VFR,,,,,,,,,,,,METAR,337.0
CYSC 180700Z AUTO 00000KT 9SM CLR 00/M05 A2994 RMK SLP145,CYSC,2015-04-18T07:00:00Z,45.43,-71.68,0.0,-5.0,0,0,,9.0,29.940945,1014.5,,TRUE,,,,,,,,CLR,,,,,,,,VFR,,,,,,,,,,,,METAR,241.0
CYSB 180700Z 18007KT 15SM FEW140 03/M05 A2987 RMK AC1 SLP123,CYSB,2015-04-18T07:00:00Z,46.63,-80.8,3.0,-5.0,180,7,,15.0,29.870079,1012.3,,,,,,,,,,FEW,14000,,,,,,,VFR,,,,,,,,,,,,METAR,348.0
CYRQ 180700Z AUTO VRB03KT 9SM CLR 02/M04 A2999 RMK SLP157,CYRQ,2015-04-18T07:00:00Z,46.35,-72.68,2.0,-4.0,0,3,,9.0,29.991142,1015.7,,TRUE,,,,,,,,CLR,,,,,,,,VFR,,,,,,,,,,,,METAR,61.0
CYRB 180700Z 35005KT 310V040 15SM FEW110 SCT250 M23/M25 A2972 RMK AC2CI2 SLP074,CYRB,2015-04-18T07:00:00Z,74.72,-94.97,-23.0,-25.0,350,5,,15.0,29.719488,1007.4,,,,,,,,,,FEW,11000,SCT,25000,,,,,VFR,,,,,,,,,,,,METAR,67.0
CYQK 180700Z 12006KT 15SM SKC 02/M02 A3020 RMK SLP236,CYQK,2015-04-18T07:00:00Z,49.77,-94.37,2.0,-2.0,120,6,,15.0,30.200787,1023.6,,,,,,,,,,SKC,,,,,,,,VFR,,,,,,,,,,,,METAR,411.0
CYQA 180700Z AUTO 19002KT 9SM CLR M00/M00 A2994 RMK SLP145,CYQA,2015-04-18T07:00:00Z,44.97,-79.28,0.0,0.0,190,2,,9.0,29.940945,1014.5,,TRUE,,,,,,,,CLR,,,,,,,,VFR,,,,,,,,,,,,METAR,282.0
CYPO 180700Z AUTO 32005KT 9SM SCT065 M03/M04 A3013 RMK SLP208,CYPO,2015-04-18T07:00:00Z,54.98,-85.43,-3.0,-4.0,320,5,,9.0,30.129921,1020.8,,TRUE,,,,,,,,SCT,6500,,,,,,,VFR,,,,,,,,,,,,METAR,53.0
CYOO 180700Z AUTO 36003KT 9SM CLR 05/02 A2997 RMK SLP150,CYOO,2015-04-18T07:00:00Z,43.92,-78.9,5.0,2.0,360,3,,9.0,29.970472,1015.0,,TRUE,,,,,,,,CLR,,,,,,,,VFR,,,,,,,,,,,,METAR,139.0
CYLH 180700Z AUTO 36005KT 9SM BKN022 01/M01 A3016 RMK SLP225,CYLH,2015-04-18T07:00:00Z,52.2,-87.93,1.0,-1.0,360,5,,9.0,30.159449,1022.5,,TRUE,,,,,,,,BKN,2200,,,,,,,MVFR,,,,,,,,,,,,METAR,254.0
CYKZ 180700Z 00000KT 15SM SKC 07/04 A2997 RMK SLP150,CYKZ,2015-04-18T07:00:00Z,43.87,-79.37,7.0,4.0,0,0,,15.0,29.970472,1015.0,,,,,,,,,,SKC,,,,,,,,VFR,,,,,,,,,,,,METAR,198.0
CYKP 180700Z AUTO 33009KT 9SM OVC025 01/M01 A3010 RMK SLP200,CYKP,2015-04-18T07:00:00Z,51.67,-85.9,1.0,-1.0,330,9,,9.0,30.100393,1020.0,,TRUE,,,,,,,,OVC,2500,,,,,,,MVFR,,,,,,,,,,,,METAR,179.0
CYKL 180700Z AUTO 00000KT 9SM CLR M19/M21 A2992 RMK SLP176,CYKL,2015-04-18T07:00:00Z,54.78,-66.82,-19.0,-21.0,0,0,,9.0,29.920275,1017.6,,TRUE,,,,,,,,CLR,,,,,,,,VFR,,,,,,,,,,,,METAR,521.0
CYKF 180700Z AUTO 00000KT 8SM CLR 05/04 A2997 RMK SLP152,CYKF,2015-04-18T07:00:00Z,43.47,-80.38,5.0,4.0,0,0,,8.0,29.970472,1015.2,,TRUE,,,,,,,,CLR,,,,,,,,VFR,,,,,,,,,,,,METAR,317.0
CYHM 180700Z 25004KT 15SM MIFG SKC 08/07 A2998 RMK SLP152,CYHM,2015-04-18T07:00:00Z,43.17,-79.93,8.0,7.0,250,4,,15.0,29.97933,1015.2,,,,,,,,,MIFG,SKC,,,,,,,,VFR,,,,,,,,,,,,METAR,238.0
CYGQ 180700Z 34006KT 320V020 12SM SCT007 OVC015 03/02 A3012 RMK SF4SC4 SLP209,CYGQ,2015-04-18T07:00:00Z,49.77,-86.92,3.0,2.0,340,6,,12.0,30.121063,1020.9,,,,,,,,,,SCT,700,OVC,1500,,,,,MVFR,,,,,,,,,,,,METAR,351.0
CYER 180700Z AUTO 30005KT 9SM FEW045 M05/M05 A3016 RMK SLP215,CYER,2015-04-18T07:00:00Z,56.02,-87.68,-5.0,-5.0,300,5,,9.0,30.159449,1021.5,,TRUE,,,,,,,,FEW,4500,,,,,,,VFR,,,,,,,,,,,,METAR,16.0
CYCK 180700Z AUTO 20005KT 6SM BR CLR 08/06 A2998 RMK SLP155,CYCK,2015-04-18T07:00:00Z,42.3,-82.08,8.0,6.0,200,5,,6.0,29.97933,1015.5,,TRUE,,,,,,,BR,CLR,,,,,,,,VFR,,,,,,,,,,,,METAR,198.0
CYBN 180700Z AUTO 19002KT 9SM CLR 00/M00 A2995 RMK SLP149,CYBN,2015-04-18T07:00:00Z,44.27,-79.92,0.0,0.0,190,2,,9.0,29.949802,1014.9,,TRUE,,,,,,,,CLR,,,,,,,,VFR,,,,,,,,,,,,METAR,223.0
CYBC 180700Z AUTO 35003KT 9SM BKN050 01/M07 A2993 RMK SLP136,CYBC,2015-04-18T07:00:00Z,49.12,-68.2,1.0,-7.0,350,3,,9.0,29.929134,1013.6,,TRUE,,,,,,,,BKN,5000,,,,,,,VFR,,,,,,,,,,,,METAR,22.0
CZVL 180700Z AUTO 29011G18KT 9SM FEW190 05/M01 A3006 RMK SLP195,CZVL,2015-04-18T07:00:00Z,53.67,-113.85,5.0,-1.0,290,11,18,9.0,30.059055,1019.5,,TRUE,,,,,,,,FEW,19000,,,,,,,VFR,,,,,,,,,,,,METAR,686.0
CYZH 180700Z AUTO 29019G29KT 9SM SCT019 BKN028 BKN033 04/02 A3003 RMK PRESRR SLP190,CYZH,2015-04-18T07:00:00Z,55.28,-114.77,4.0,2.0,290,19,29,9.0,30.029528,1019.0,,TRUE,,,,,,,,SCT,1900,BKN,2800,BKN,3300,,,MVFR,,,,,,,,,,,,METAR,581.0
CYYN 180700Z AUTO 19017G23KT 9SM BKN120 11/M03 A2985 RMK SLP113 DENSITY ALT 2800FT,CYYN,2015-04-18T07:00:00Z,50.27,-107.67,11.0,-3.0,190,17,23,9.0,29.84941,1011.3,,TRUE,,,,,,,,BKN,12000,,,,,,,VFR,,,,,,,,,,,,METAR,818.0
CYYL 180700Z AUTO 14004KT 9SM BKN120 03/M04 A3004 RMK SLP190,CYYL,2015-04-18T07:00:00Z,56.87,-101.07,3.0,-4.0,140,4,,9.0,30.041338,1019.0,,TRUE,,,,,,,,BKN,12000,,,,,,,VFR,,,,,,,,,,,,METAR,357.0
CYVC 180700Z 12011KT 090V160 15SM -RA OVC040 07/01 A3000 RMK SC8 SLP173,CYVC,2015-04-18T07:00:00Z,55.15,-105.27,7.0,1.0,120,11,,15.0,30.0,1017.3,,,,,,,,,-RA,OVC,4000,,,,,,,VFR,,,,,,,,,,,,METAR,379.0
CYQR 180700Z 14018G23KT 15SM FEW250 08/M01 A3000 RMK CI1 SLP171,CYQR,2015-04-18T07:00:00Z,50.43,-104.67,8.0,-1.0,140,18,23,15.0,30.0,1017.1,,,,,,,,,,FEW,25000,,,,,,,VFR,,,,,,,,,,,,METAR,577.0
CYQL 180700Z AUTO 01010KT 330V040 9SM CLR 09/M03 A3000 RMK PRESRR SLP167,CYQL,2015-04-18T07:00:00Z,49.63,-112.8,9.0,-3.0,10,10,,9.0,30.0,1016.7,,TRUE,,,,,,,,CLR,,,,,,,,VFR,,,,,,,,,,,,METAR,929.0
CYQF 180700Z 34018G29KT 15SM BKN070 OVC110 06/00 A3008 RMK AC6AC2 SLP207,CYQF,2015-04-18T07:00:00Z,52.17,-113.9,6.0,0.0,340,18,29,15.0,30.079725,1020.7,,,,,,,,,,BKN,7000,OVC,11000,,,,,VFR,,,,,,,,,,,,METAR,905.0
CYPY 180700Z AUTO VRB02KT 9SM OVC085 06/03 A2994 RMK SLP148,CYPY,2015-04-18T07:00:00Z,58.77,-111.12,6.0,3.0,0,2,,9.0,29.940945,1014.8,,TRUE,,,,,,,,OVC,8500,,,,,,,VFR,,,,,,,,,,,,METAR,232.0
CYPA 180700Z 09009KT 15SM OVC095 09/M02 A2992 RMK AC8 SLP144,CYPA,2015-04-18T07:00:00Z,53.22,-105.67,9.0,-2.0,90,9,,15.0,29.920275,1014.4,,,,,,,,,,OVC,9500,,,,,,,VFR,,,,,,,,,,,,METAR,428.0
CYOJ 180700Z AUTO 28004KT 190V330 9SM BKN100 BKN120 06/M03 A3005 RMK SLP191,CYOJ,2015-04-18T07:00:00Z,58.62,-117.17,6.0,-3.0,280,4,,9.0,30.050198,1019.1,,TRUE,,,,,,,,BKN,10000,BKN,12000,,,,,VFR,,,,,,,,,,,,METAR,338.0
CYNE 180700Z AUTO 19005KT 9SM BKN150 BKN170 01/M01 A3014 RMK SLP218,CYNE,2015-04-18T07:00:00Z,53.97,-97.82,1.0,-1.0,190,5,,9.0,30.138779,1021.8,,TRUE,,,,,,,,BKN,15000,BKN,17000,,,,,VFR,,,,,,,,,,,,METAR,223.0
CYLL 180700Z AUTO 27009KT 9SM CLR 02/02 A2992 RMK SLP151,CYLL,2015-04-18T07:00:00Z,53.32,-110.07,2.0,2.0,270,9,,9.0,29.920275,1015.1,,TRUE,,,,,,,,CLR,,,,,,,,VFR,,,,,,,,,,,,METAR,669.0
CYKJ 180700Z AUTO 00000KT 9SM FEW065 OVC083 03/M03 A2996 RMK SLP164,CYKJ,2015-04-18T07:00:00Z,57.25,-105.62,3.0,-3.0,0,0,,9.0,29.958662,1016.4,,TRUE,,,,,,,,FEW,6500,OVC,8300,,,,,VFR,,,,,,,,,,,,METAR,509.0
CYGX 180700Z 09003KT 060V130 15SM SKC M03/M05 A3020 RMK SLP238,CYGX,2015-04-18T07:00:00Z,56.35,-94.7,-3.0,-5.0,90,3,,15.0,30.200787,1023.8,,,,,,,,,,SKC,,,,,,,,VFR,,,,,,,,,,,,METAR,145.0
CYET 180700Z AUTO 29012G17KT 9SM CLR 04/M06 A3014 RMK SLP232,CYET,2015-04-18T07:00:00Z,53.57,-116.47,4.0,-6.0,290,12,17,9.0,30.138779,1023.2,,TRUE,,,,,,,,CLR,,,,,,,,VFR,,,,,,,,,,,,METAR,925.0
CYDN 180700Z AUTO 19003KT 130V280 9SM CLR 03/M01 A3015 RMK SLP221,CYDN,2015-04-18T07:00:00Z,51.1,-100.03,3.0,-1.0,190,3,,9.0,30.15059,1022.1,,TRUE,,,,,,,,CLR,,,,,,,,VFR,,,,,,,,,,,,METAR,305.0
CYBU 180700Z AUTO 11010KT 9SM FEW070 OVC092 08/M03 A2997 RMK SLP161,CYBU,2015-04-18T07:00:00Z,53.32,-104.0,8.0,-3.0,110,10,,9.0,29.970472,1016.1,,TRUE,,,,,,,,FEW,7000,OVC,9200,,,,,VFR,,,,,,,,,,,,METAR,374.0
CYBR 180700Z 08007KT 15SM SKC 01/M01 A3017 RMK SLP231,CYBR,2015-04-18T07:00:00Z,49.92,-99.95,1.0,-1.0,80,7,,15.0,30.171259,1023.1,,,,,,,,,,SKC,,,,,,,,VFR,,,,,,,,,,,,METAR,409.0
CYBQ 180700Z AUTO 11006KT 9SM CLR M05/M07 A3012 RMK SLP220,CYBQ,2015-04-18T07:00:00Z,58.7,-98.5,-5.0,-7.0,110,6,,9.0,30.121063,1022.0,,TRUE,,,,,,,,CLR,,,,,,,,VFR,,,,,,,,,,,,METAR,262.0
CYBK 180700Z 18008KT 150V220 15SM DRSN SCT030 M15/M18 A3014 RMK SC4 SLP209,CYBK,2015-04-18T07:00:00Z,64.28,-96.07,-15.0,-18.0,180,8,,15.0,30.138779,1020.9,,,,,,,,,DRSN,SCT,3000,,,,,,,VFR,,,,,,,,,,,,METAR,18.0
CYAB 180700Z VRB03KT 3SM -SN BR OVC015 M18/M21 A2965 RMK FG1SC7 CALLOUT SLP043,CYAB,2015-04-18T07:00:00Z,73.0,-85.05,-18.0,-21.0,0,3,,3.0,29.648623,1004.3,,,,,,,,,-SN BR,OVC,1500,,,,,,,MVFR,,,,,,,,,,,,METAR,22.0
CYSJ 180700Z 34014KT 15SM FEW120 05/01 A2981 RMK AC2 SLP097,CYSJ,2015-04-18T07:00:00Z,45.32,-65.87,5.0,1.0,340,14,,15.0,29.811024,1009.7,,,,,,,,,,FEW,12000,,,,,,,VFR,,,,,,,,,,,,METAR,109.0
CYGW 180700Z AUTO 13005KT 9SM OVC120 M14/M15 A3002 RMK SLP166,CYGW,2015-04-18T07:00:00Z,55.27,-77.77,-14.0,-15.0,130,5,,9.0,30.02067,1016.6,,TRUE,,,,,,,,OVC,12000,,,,,,,VFR,,,,,,,,,,,,METAR,12.0
CYDF 180700Z 03005KT 12SM -SN SCT010 OVC015 00/M01 A2959 RMK SC4SC4 SLP020,CYDF,2015-04-18T07:00:00Z,49.22,-57.4,0.0,-1.0,30,5,,12.0,29.589567,1002.0,,,,,,,,,-SN,SCT,1000,OVC,1500,,,,,MVFR,,,,,,,,,,,,METAR,22.0
CYCX 180700Z 32009KT 15SM FEW070 05/M02 A2985 RMK AC2 DA-869FT SLP109,CYCX,2015-04-18T07:00:00Z,45.82,-66.42,5.0,-2.0,320,9,,15.0,29.84941,1010.9,,,,,,,,,,FEW,7000,,,,,,,VFR,,,,,,,,,,,,METAR,51.0
CYZR 180700Z AUTO 20004KT 9SM CLR 10/07 A2997 RMK SLP150,CYZR,2015-04-18T07:00:00Z,43.0,-82.3,10.0,7.0,200,4,,9.0,29.970472,1015.0,,TRUE,,,,,,,,CLR,,,,,,,,VFR,,,,,,,,,,,,METAR,181.0
CYZE 180700Z AUTO 16003KT 9SM CLR 01/M01 A2991 RMK ICG INTMT SLP134,CYZE,2015-04-18T07:00:00Z,45.87,-82.57,1.0,-1.0,160,3,,9.0,29.911417,1013.4,,TRUE,,,,,,,,CLR,,,,,,,,VFR,,,,,,,,,,,,METAR,193.0
CYYY 180700Z 07009KT 30SM OVC040 02/M05 A2992 RMK SC8 SLP134,CYYY,2015-04-18T07:00:00Z,48.6,-68.22,2.0,-5.0,70,9,,30.0,29.920275,1013.4,,,,,,,,,,OVC,4000,,,,,,,VFR,,,,,,,,,,,,METAR,52.0
CYXR 180700Z AUTO 15005KT 9SM OVC095 01/M02 A2986 RMK SLP121,CYXR,2015-04-18T07:00:00Z,47.7,-79.83,1.0,-2.0,150,5,,9.0,29.861221,1012.1,,TRUE,,,,,,,,OVC,9500,,,,,,,VFR,,,,,,,,,,,,METAR,243.0
CYWA 180700Z AUTO 00000KT 9SM SCT072 M00/M03 A2994 RMK SLP144,CYWA,2015-04-18T07:00:00Z,45.95,-77.32,0.0,-3.0,0,0,,9.0,29.940945,1014.4,,TRUE,,,,,,,,SCT,7200,,,,,,,VFR,,,,,,,,,,,,METAR,130.0
CYVV 180700Z 17005KT 15SM SKC 05/03 A2994 RMK SLP145,CYVV,2015-04-18T07:00:00Z,44.75,-81.08,5.0,3.0,170,5,,15.0,29.940945,1014.5,,,,,,,,,,SKC,,,,,,,,VFR,,,,,,,,,,,,METAR,222.0
CYVP 180700Z 22002KT 15SM FEW030 SCT080 M11/M15 A3002 RMK SC1AS2 SLP169,CYVP,2015-04-18T07:00:00Z,58.12,-68.42,-11.0,-15.0,220,2,,15.0,30.02067,1016.9,,,,,,,,,,FEW,3000,SCT,8000,,,,,VFR,,,,,,,,,,,,METAR,60.0
CYTZ 180700Z AUTO 31003KT 9SM CLR 11/05 A2997 RMK SLP148,CYTZ,2015-04-18T07:00:00Z,43.63,-79.4,11.0,5.0,310,3,,9.0,29.970472,1014.8,,TRUE,,,,,,,,CLR,,,,,,,,VFR,,,,,,,,,,,,METAR,77.0
CYTS 180700Z 25007KT 15SM -RA BKN056 07/M01 A2985 RMK SC7 SLP118,CYTS,2015-04-18T07:00:00Z,48.57,-81.37,7.0,-1.0,250,7,,15.0,29.84941,1011.8,,,,,,,,,-RA,BKN,5600,,,,,,,VFR,,,,,,,,,,,,METAR,295.0
CYRJ 180700Z 33004KT 25SM OVC035 M00/M05 A2999 RMK SC8 SLP164,CYRJ,2015-04-18T07:00:00Z,48.52,-72.27,0.0,-5.0,330,4,,25.0,29.991142,1016.4,,,,,,,,,,OVC,3500,,,,,,,VFR,,,,,,,,,,,,METAR,179.0
CYQT 180700Z 01004KT 330V040 15SM FEW028 05/M00 A3017 RMK SC2 SLP221,CYQT,2015-04-18T07:00:00Z,48.37,-89.32,5.0,0.0,10,4,,15.0,30.171259,1022.1,,,,,,,,,,FEW,2800,,,,,,,VFR,,,,,,,,,,,,METAR,199.0
CYPQ 180700Z AUTO VRB02KT 9SM CLR 03/03 A2996 RMK SLP148,CYPQ,2015-04-18T07:00:00Z,44.22,-78.37,3.0,3.0,0,2,,9.0,29.958662,1014.8,,TRUE,,,,,,,,CLR,,,,,,,,VFR,,,,,,,,,,,,METAR,191.0
CYHU 180700Z AUTO 04006KT 9SM FEW095 02/M04 A2998 RMK SLP152,CYHU,2015-04-18T07:00:00Z,45.52,-73.42,2.0,-4.0,40,6,,9.0,29.97933,1015.2,,TRUE,,,,,,,,FEW,9500,,,,,,,VFR,,,,,,,,,,,,METAR,27.0
CYHD 180700Z AUTO 00000KT 9SM CLR M01/M02 A3019 RMK SLP238,CYHD,2015-04-18T07:00:00Z,49.82,-92.75,-1.0,-2.0,0,0,,9.0,30.188976,1023.8,,TRUE,,,,,,,,CLR,,,,,,,,VFR,,,,,,,,,,,,METAR,413.0
CYGP 180700Z 31009KT 15SM BKN040 01/M06 A2982 RMK SC6 SLP100,CYGP,2015-04-18T07:00:00Z,48.77,-64.47,1.0,-6.0,310,9,,15.0,29.819881,1010.0,,,,,,,,,,BKN,4000,,,,,,,VFR,,,,,,,,,,,,METAR,33.0
CYAM 180700Z 30004KT 260V350 15SM FEW110 03/M03 A2994 RMK AC1 SLP147,CYAM,2015-04-18T07:00:00Z,46.47,-84.52,3.0,-3.0,300,4,,15.0,29.940945,1014.7,,,,,,,,,,FEW,11000,,,,,,,VFR,,,,,,,,,,,,METAR,192.0
CYWE 180700Z AUTO 04004KT 9SM CLR M11/M14 A3009 RMK SLP225,CYWE,2015-04-18T07:00:00Z,64.18,-114.08,-11.0,-14.0,40,4,,9.0,30.088583,1022.5,,TRUE,,,,,,,,CLR,,,,,,,,VFR,,,,,,,,,,,,METAR,371.0
CYVM 180700Z AUTO 08003KT 9SM CLR M22/M26 A2974 RMK SLP071,CYVM,2015-04-18T07:00:00Z,67.53,-64.02,-22.0,-26.0,80,3,,9.0,29.740158,1007.1,,TRUE,,,,,,,,CLR,,,,,,,,VFR,,,,,,,,,,,,METAR,6.0
CYHY 180700Z 31004KT 280V040 15SM OVC030 M01/M03 A3004 RMK SC8 SLP181,CYHY,2015-04-18T07:00:00Z,60.82,-115.77,-1.0,-3.0,310,4,,15.0,30.041338,1018.1,,,,,,,,,,OVC,3000,,,,,,,MVFR,,,,,,,,,,,,METAR,166.0
CYCO 180700Z CCA 20007KT 12SM IC FEW011 FEW030 FEW090 M16/M17 A3022 RMK ST1SC1AC1 ST TR SC TR SLP235,CYCO,2015-04-18T07:00:00Z,67.82,-115.15,-16.0,-17.0,200,7,,12.0,30.221457,1023.5,,,,,,,,,IC,FEW,1100,FEW,3000,FEW,9000,,,VFR,,,,,,,,,,,,SPECI,22.0
CYCB 180700Z 26010KT 15SM SKC M20/M23 A3006 RMK SLP183,CYCB,2015-04-18T07:00:00Z,69.08,-105.12,-20.0,-23.0,260,10,,15.0,30.059055,1018.3,,,,,,,,,,SKC,,,,,,,,VFR,,,,,,,,,,,,METAR,27.0
CYZY 180700Z AUTO 15003KT 9SM CLR M01/M04 A3029 RMK SLP287,CYZY,2015-04-18T07:00:00Z,55.28,-123.12,-1.0,-4.0,150,3,,9.0,30.28937,1028.7,,TRUE,,,,,,,,CLR,,,,,,,,VFR,,,,,,,,,,,,METAR,690.0
CYYF 180700Z 02008KT 330V040 15SM FEW080 13/01 A3022 RMK AC1 SLP235,CYYF,2015-04-18T07:00:00Z,49.47,-119.58,13.0,1.0,20,8,,15.0,30.221457,1023.5,,,,,,,,,,FEW,8000,,,,,,,VFR,,,,,,,,,,,,METAR,344.0
CYYE 180700Z 23006KT 15SM SKC 03/M05 A3016 RMK SLP232,CYYE,2015-04-18T07:00:00Z,58.82,-122.57,3.0,-5.0,230,6,,15.0,30.159449,1023.2,,,,,,,,,,SKC,,,,,,,,VFR,,,,,,,,,,,,METAR,382.0
CYYD 180700Z AUTO 28003KT 270V330 9SM CLR 02/M00 A3040 RMK SLP312,CYYD,2015-04-18T07:00:00Z,54.82,-127.18,2.0,0.0,280,3,,9.0,30.398623,1031.2,,TRUE,,,,,,,,CLR,,,,,,,,VFR,,,,,,,,,,,,METAR,523.0
CYXY 180700Z 16007G16KT 130V190 15SM FEW080 FEW210 01/M10 A3016 RMK AC1CI1 SLP249,CYXY,2015-04-18T07:00:00Z,60.72,-135.07,1.0,-10.0,160,7,16,15.0,30.159449,1024.9,,,,,,,,,,FEW,8000,FEW,21000,,,,,VFR,,,,,,,,,,,,METAR,703.0
CYXT 180700Z VRB02KT 15SM FEW035 BKN120 04/01 A3048 RMK SC2AC3 SLP329,CYXT,2015-04-18T07:00:00Z,54.47,-128.57,4.0,1.0,0,2,,15.0,30.481298,1032.9,,,,,,,,,,FEW,3500,BKN,12000,,,,,VFR,,,,,,,,,,,,METAR,217.0
CYXJ 180700Z 22007KT 15SM FEW060 BKN110 01/M01 A3019 RMK SC2AC3 SLP252,CYXJ,2015-04-18T07:00:00Z,56.25,-120.73,1.0,-1.0,220,7,,15.0,30.188976,1025.2,,,,,,,,,,FEW,6000,BKN,11000,,,,,VFR,,,,,,,,,,,,METAR,695.0
CYWL 180700Z 31007KT 15SM FEW140 01/M08 A3034 RMK AC1 SLP295,CYWL,2015-04-18T07:00:00Z,52.18,-122.07,1.0,-8.0,310,7,,15.0,30.339567,1029.5,,,,,,,,,,FEW,14000,,,,,,,VFR,,,,,,,,,,,,METAR,940.0
CYQU 180700Z 27023G32KT 15SM -SHRA FEW015 BKN040TCU OVC070 03/01 A3021 RMK CF2TCU4AC2 PRESRR SLP254,CYQU,2015-04-18T07:00:00Z,55.18,-118.88,3.0,1.0,270,23,32,15.0,30.209646,1025.4,,,,,,,,,-SHRA,FEW,1500,BKN,4000,OVC,7000,,,VFR,,,,,,,,,,,,METAR,669.0
CYQH 180700Z VRB02KT 30SM FEW035 M03/M07 A3022 RMK SC2 SLP269,CYQH,2015-04-18T07:00:00Z,60.12,-128.82,-3.0,-7.0,0,2,,30.0,30.221457,1026.9,,,,,,,,,,FEW,3500,,,,,,,VFR,,,,,,,,,,,,METAR,690.0
CYMA 180700Z VRB02KT 20SM FEW045 M02/M05 A3004 RMK SC1 SLP203,CYMA,2015-04-18T07:00:00Z,63.62,-135.87,-2.0,-5.0,0,2,,20.0,30.041338,1020.3,,,,,,,,,,FEW,4500,,,,,,,VFR,,,,,,,,,,,,METAR,504.0
CYLW 180700Z AUTO 00000KT 9SM CLR 06/M00 A3024 RMK SLP246,CYLW,2015-04-18T07:00:00Z,49.95,-119.37,6.0,0.0,0,0,,9.0,30.239174,1024.6,,TRUE,,,,,,,,CLR,,,,,,,,VFR,,,,,,,,,,,,METAR,430.0
CYKA 180700Z 29016KT 40SM SKC 11/M07 A3030 RMK SLP267,CYKA,2015-04-18T07:00:00Z,50.7,-120.45,11.0,-7.0,290,16,,40.0,30.301182,1026.7,,,,,,,,,,SKC,,,,,,,,VFR,,,,,,,,,,,,METAR,346.0
CYIN 180700Z AUTO 28007KT 9SM CLR 02/M09 A3033 RMK SLP282,CYIN,2015-04-18T07:00:00Z,51.27,-121.68,2.0,-9.0,280,7,,9.0,30.33071,1028.2,,TRUE,,,,,,,,CLR,,,,,,,,VFR,,,,,,,,,,,,METAR,1128.0
CYDL 180700Z AUTO VRB02KT 9SM CLR M03/M05 A3029 RMK SLP285,CYDL,2015-04-18T07:00:00Z,58.42,-130.02,-3.0,-5.0,0,2,,9.0,30.28937,1028.5,,TRUE,,,,,,,,CLR,,,,,,,,VFR,,,,,,,,,,,,METAR,816.0
CBBC 180700Z AUTO 35002KT 9SM CLR 02/02 A3047 RMK SLP320,CBBC,2015-04-18T07:00:00Z,52.18,-128.15,2.0,2.0,350,2,,9.0,30.469488,1032.0,,TRUE,,,,,,,,CLR,,,,,,,,VFR,,,,,,,,,,,,METAR,43.0
CWSG 180700Z AUTO 01013KT 01/M04 RMK AO1 PK WND 02022/0620 SLP131 T00051042 53021,CWSG,2015-04-18T07:00:00Z,49.12,-66.65,0.5,-4.2,10,13,,,,1013.1,,TRUE,TRUE,,,,,,,,,,,,,,,,2.1,,,,,,,,,,,METAR,5.0
SBMN 180700Z 05003KT 9999 FEW015 25/23 Q1011,SBMN,2015-04-18T07:00:00Z,-3.13,-59.97,25.0,23.0,50,3,,6.21,29.852362,,,,,,,,,,,FEW,1500,,,,,,,VFR,,,,,,,,,,,,METAR,84.0
GVAC 180700Z 02011KT 9999 SCT015 20/16 Q1016 NOSIG,GVAC,2015-04-18T07:00:00Z,16.72,-22.93,20.0,16.0,20,11,,6.21,30.0,,,,,,TRUE,,,,,SCT,1500,,,,,,,VFR,,,,,,,,,,,,METAR,55.0
MGGT 180700Z 18004KT 6000 FEW004 SCT014 19/19 Q1024 A3024 BR FEW080,MGGT,2015-04-18T07:00:00Z,14.57,-90.53,19.0,19.0,180,4,,3.73,30.236221,,,,,,,,,,BR,FEW,400,SCT,1400,FEW,8000,,,MVFR,,,,,,,,,,,,METAR,1509.0
NFTF 180700Z 11007KT 9999 SCT016 BKN120 25/20 Q1017,NFTF,2015-04-18T07:00:00Z,-21.23,-175.15,25.0,20.0,110,7,,6.21,30.029528,,,,,,,,,,,SCT,1600,BKN,12000,,,,,VFR,,,,,,,,,,,,METAR,38.0
SBSJ 180700Z 00000KT 9999 SCT008 BKN020 19/17 Q1018,SBSJ,2015-04-18T07:00:00Z,-23.22,-45.87,19.0,17.0,0,0,,6.21,30.059055,,,,,,,,,,,SCT,800,BKN,2000,,,,,MVFR,,,,,,,,,,,,METAR,646.0
OPSK 180700Z 05008KT 5000 HZ NSC 41/19 Q1003 RH.28 PC,OPSK,2015-04-18T07:00:00Z,27.72,68.8,41.0,19.0,50,8,,3.11,29.616142,,,,,,,,,,HZ,,,,,,,,,,,,,,,,,,,,,METAR,58.0
NGFU 180700Z 06006KT 9999 SCT019TCU BKN310 29/25 Q1009,NGFU,2015-04-18T07:00:00Z,-8.52,179.22,29.0,25.0,60,6,,6.21,29.793306,,,,,,,,,,,SCT,1900,BKN,31000,,,,,VFR,,,,,,,,,,,,METAR,1.0
UBEE 180700Z 35006KT CAVOK 18/11 Q1015 R30/CLRD70 NOSIG,UBEE,2015-04-18T07:00:00Z,40.63,47.15,18.0,11.0,350,6,,6.21,29.970472,,,,,,TRUE,,,,,CAVOK,,,,,,,,VFR,,,,,,,,,,,,METAR,15.0
FDSK 180700Z VRB00KT 9999 BKN034 19/12 Q1025 NOSIG,FDSK,2015-04-18T07:00:00Z,-26.35,31.72,19.0,12.0,0,0,,6.21,30.265747,,,,,,TRUE,,,,,BKN,3400,,,,,,,VFR,,,,,,,,,,,,METAR,324.0
SVMG 180700Z /////KT 9999 FEW010 24/23 Q1012 NOSIG,SVMG,2015-04-18T07:00:00Z,10.92,-63.97,24.0,23.0,,,,6.21,29.88189,,,,,,TRUE,,,,,FEW,1000,,,,,,,VFR,,,,,,,,,,,,METAR,23.0
OSKL 180700Z VRB01KT CAVOK 21/11 Q1018,OSKL,2015-04-18T07:00:00Z,37.03,41.2,21.0,11.0,0,1,,6.21,30.059055,,,,,,,,,,,CAVOK,,,,,,,,VFR,,,,,,,,,,,,METAR,455.0
OSLK 180700Z 22010KT 8000 FEW026 SCT030 19/14 Q1023,OSLK,2015-04-18T07:00:00Z,35.4,35.95,19.0,14.0,220,10,,4.97,30.206694,,,,,,,,,,,FEW,2600,SCT,3000,,,,,MVFR,,,,,,,,,,,,METAR,7.0
OSDI 180700Z 25004KT CAVOK 15/06 Q1024,OSDI,2015-04-18T07:00:00Z,33.42,36.52,15.0,6.0,250,4,,6.21,30.236221,,,,,,,,,,,CAVOK,,,,,,,,VFR,,,,,,,,,,,,METAR,605.0
OJAM 180700Z 02005KT 6000 NSC 17/M02 Q1025 NOSIG,OJAM,2015-04-18T07:00:00Z,31.97,35.97,17.0,-2.0,20,5,,3.73,30.265747,,,,,,TRUE,,,,,,,,,,,,,,,,,,,,,,,,,METAR,773.0
OJAI 180700Z 00000KT 7000 NSC 16/01 Q1024 NOSIG,OJAI,2015-04-18T07:00:00Z,31.72,36.0,16.0,1.0,0,0,,4.35,30.236221,,,,,,TRUE,,,,,,,,,,,,,,,,,,,,,,,,,METAR,730.0
MDST 180700Z 11006KT 9999 FEW018 23/20 Q1015 NOSIG,MDST,2015-04-18T07:00:00Z,19.4,-70.6,23.0,20.0,110,6,,6.21,29.970472,,,,,,TRUE,,,,,FEW,1800,,,,,,,VFR,,,,,,,,,,,,METAR,184.0
MDSD 180700Z 04004KT 9999 SCT016 22/21 Q1016 NOSIG,MDSD,2015-04-18T07:00:00Z,18.42,-69.67,22.0,21.0,40,4,,6.21,30.0,,,,,,TRUE,,,,,SCT,1600,,,,,,,VFR,,,,,,,,,,,,METAR,18.0
MDPC 180700Z 00000KT 9999 FEW018 23/22 Q1016 NOSIG,MDPC,2015-04-18T07:00:00Z,18.57,-68.37,23.0,22.0,0,0,,6.21,30.0,,,,,,TRUE,,,,,FEW,1800,,,,,,,VFR,,,,,,,,,,,,METAR,12.0
OIMC 180700Z 00000KT 9999 SCT040 BKN190 18/06 Q1019,OIMC,2015-04-18T07:00:00Z,36.5,61.07,18.0,6.0,0,0,,6.21,30.088583,,,,,,,,,,,SCT,4000,BKN,19000,,,,,VFR,,,,,,,,,,,,METAR,288.0
RJFU 180700Z 31003KT 270V360 9999 FEW040 SCT050 BKN080 19/10 Q1015,RJFU,2015-04-18T07:00:00Z,32.92,129.92,19.0,10.0,310,3,,6.21,29.970472,,,,,,,,,,,FEW,4000,SCT,5000,BKN,8000,,,VFR,,,,,,,,,,,,METAR,5.0
RJGG 180700Z 14010KT CAVOK 18/01 Q1017 NOSIG,RJGG,2015-04-18T07:00:00Z,34.87,136.8,18.0,1.0,140,10,,6.21,30.029528,,,,,,TRUE,,,,,CAVOK,,,,,,,,VFR,,,,,,,,,,,,METAR,5.0
RJNW 180700Z 26014KT CAVOK 14/02 Q1016,RJNW,2015-04-18T07:00:00Z,37.3,136.97,14.0,2.0,260,14,,6.21,30.0,,,,,,,,,,,CAVOK,,,,,,,,VFR,,,,,,,,,,,,METAR,219.0
RJNT 180700Z 27010KT 240V320 CAVOK 19/M03 Q1015,RJNT,2015-04-18T07:00:00Z,36.63,137.17,19.0,-3.0,270,10,,6.21,29.970472,,,,,,,,,,,CAVOK,,,,,,,,VFR,,,,,,,,,,,,METAR,27.0
RJKA 180700Z 19015KT 9999 FEW020 BKN/// 24/18 Q1015,RJKA,2015-04-18T07:00:00Z,28.42,129.72,24.0,18.0,190,15,,6.21,29.970472,,,,,,,,,,,FEW,2000,,,,,,,VFR,,,,,,,,,,,,METAR,7.0
RJNS 180700Z 22018KT 9999 FEW030 BKN/// 17/07 Q1016,RJNS,2015-04-18T07:00:00Z,34.8,138.18,17.0,7.0,220,18,,6.21,30.0,,,,,,,,,,,FEW,3000,,,,,,,VFR,,,,,,,,,,,,METAR,135.0
RJOM 180700Z 25003KT 200V330 9999 FEW030 SCT110 BKN/// 18/07 Q1016,RJOM,2015-04-18T07:00:00Z,33.82,132.68,18.0,7.0,250,3,,6.21,30.0,,,,,,,,,,,FEW,3000,SCT,11000,,,,,VFR,,,,,,,,,,,,METAR,7.0
RJOK 180700Z 14005KT 9999 FEW030 SCT050 19/11 Q1018,RJOK,2015-04-18T07:00:00Z,33.52,133.67,19.0,11.0,140,5,,6.21,30.059055,,,,,,,,,,,FEW,3000,SCT,5000,,,,,VFR,,,,,,,,,,,,METAR,10.0
RJOH 180700Z 34008KT 9999 FEW140 BKN150 BKN200 20/M09 Q1015,RJOH,2015-04-18T07:00:00Z,35.47,133.25,20.0,-9.0,340,8,,6.21,29.970472,,,,,,,,,,,FEW,14000,BKN,15000,BKN,20000,,,VFR,,,,,,,,,,,,METAR,9.0
RJOC 180700Z 27008KT CAVOK 18/01 Q1015,RJOC,2015-04-18T07:00:00Z,35.42,132.87,18.0,1.0,270,8,,6.21,29.970472,,,,,,,,,,,CAVOK,,,,,,,,VFR,,,,,,,,,,,,METAR,5.0
RJOB 180700Z 15006KT 110V190 CAVOK 19/01 Q1016,RJOB,2015-04-18T07:00:00Z,34.75,133.83,19.0,1.0,150,6,,6.21,30.0,,,,,,,,,,,CAVOK,,,,,,,,VFR,,,,,,,,,,,,METAR,242.0
RJOA 180700Z 19007KT 160V230 CAVOK 18/04 Q1016,RJOA,2015-04-18T07:00:00Z,34.42,132.92,18.0,4.0,190,7,,6.21,30.0,,,,,,,,,,,CAVOK,,,,,,,,VFR,,,,,,,,,,,,METAR,6.0
RJOO 180700Z 24015KT CAVOK 21/04 Q1016 RMK A3002,RJOO,2015-04-18T07:00:00Z,34.77,135.43,21.0,4.0,240,15,,6.21,30.0,,,,,,,,,,,CAVOK,,,,,,,,VFR,,,,,,,,,,,,METAR,15.0
RJBB 180700Z 22016KT CAVOK 19/06 Q1016 NOSIG,RJBB,2015-04-18T07:00:00Z,34.42,135.25,19.0,6.0,220,16,,6.21,30.0,,,,,,TRUE,,,,,CAVOK,,,,,,,,VFR,,,,,,,,,,,,METAR,8.0
RJAF 180700Z 28014G25KT 9999 FEW080 BKN180 19/M09 Q1014,RJAF,2015-04-18T07:00:00Z,36.17,137.92,19.0,-9.0,280,14,25,6.21,29.940945,,,,,,,,,,,FEW,8000,BKN,18000,,,,,VFR,,,,,,,,,,,,METAR,660.0
RJAA 180700Z 21014G24KT 190V250 CAVOK 18/03 Q1014 WS R16L NOSIG,RJAA,2015-04-18T07:00:00Z,35.77,140.37,18.0,3.0,210,14,24,6.21,29.940945,,,,,,TRUE,,,,,CAVOK,,,,,,,,VFR,,,,,,,,,,,,METAR,44.0
RJOT 180700Z 04005KT 010V070 CAVOK 18/05 Q1016,RJOT,2015-04-18T07:00:00Z,34.22,134.02,18.0,5.0,40,5,,6.21,30.0,,,,,,,,,,,CAVOK,,,,,,,,VFR,,,,,,,,,,,,METAR,188.0
RJOR 180700Z 34004KT CAVOK 17/04 Q1016,RJOR,2015-04-18T07:00:00Z,35.52,134.17,17.0,4.0,340,4,,6.21,30.0,,,,,,,,,,,CAVOK,,,,,,,,VFR,,,,,,,,,,,,METAR,18.0
RJBE 180700Z 24013KT CAVOK 17/10 Q1017,RJBE,2015-04-18T07:00:00Z,34.63,135.23,17.0,10.0,240,13,,6.21,30.029528,,,,,,,,,,,CAVOK,,,,,,,,VFR,,,,,,,,,,,,METAR,5.0
RJBD 180700Z 16009KT 140V210 9999 FEW040 SCT140 20/10 Q1018,RJBD,2015-04-18T07:00:00Z,33.67,135.37,20.0,10.0,160,9,,6.21,30.059055,,,,,,,,,,,FEW,4000,SCT,14000,,,,,VFR,,,,,,,,,,,,METAR,108.0
RJCM 180700Z 04005KT 010V080 9999 -SHRA FEW020 SCT040 08/02 Q1006,RJCM,2015-04-18T07:00:00Z,43.88,144.17,8.0,2.0,40,5,,6.21,29.704725,,,,,,,,,,-SHRA,FEW,2000,SCT,4000,,,,,VFR,,,,,,,,,,,,METAR,36.0
RJCK 180700Z 22010KT 9999 FEW020 SCT040 09/01 Q1005,RJCK,2015-04-18T07:00:00Z,43.02,144.18,9.0,1.0,220,10,,6.21,29.675198,,,,,,,,,,,FEW,2000,SCT,4000,,,,,VFR,,,,,,,,,,,,METAR,98.0
RJCH 180700Z 24016KT 9999 FEW010 SCT080 10/07 Q1007,RJCH,2015-04-18T07:00:00Z,41.77,140.82,10.0,7.0,240,16,,6.21,29.734253,,,,,,,,,,,FEW,1000,SCT,8000,,,,,VFR,,,,,,,,,,,,METAR,36.0
RJCC 180700Z 16009KT 110V200 9999 FEW020 SCT110 BKN/// 11/01 Q1006,RJCC,2015-04-18T07:00:00Z,42.77,141.67,11.0,1.0,160,9,,6.21,29.704725,,,,,,,,,,,FEW,2000,SCT,11000,,,,,VFR,,,,,,,,,,,,METAR,30.0
RJCB 180700Z 32015G25KT 9999 FEW020 SCT040 08/M00 Q1006,RJCB,2015-04-18T07:00:00Z,42.72,143.22,8.0,0.0,320,15,25,6.21,29.704725,,,,,,,,,,,FEW,2000,SCT,4000,,,,,VFR,,,,,,,,,,,,METAR,152.0
RJBT 180700Z 01008KT 340V040 CAVOK 19/M07 Q1015,RJBT,2015-04-18T07:00:00Z,35.5,134.8,19.0,-7.0,10,8,,6.21,29.970472,,,,,,,,,,,CAVOK,,,,,,,,VFR,,,,,,,,,,,,METAR,210.0
RJCN 180700Z 15004KT 9999 FEW040 BKN080 04/03 Q1006,RJCN,2015-04-18T07:00:00Z,43.57,144.97,4.0,3.0,150,4,,6.21,29.704725,,,,,,,,,,,FEW,4000,BKN,8000,,,,,VFR,,,,,,,,,,,,METAR,70.0
RJFG 180700Z 13011KT 9999 FEW017 BKN/// 21/17 Q1017,RJFG,2015-04-18T07:00:00Z,30.62,130.98,21.0,17.0,130,11,,6.21,30.029528,,,,,,,,,,,FEW,1700,,,,,,,VFR,,,,,,,,,,,,METAR,95.0
RJFF 180700Z 29008KT CAVOK 20/02 Q1015 RMK 5AC080 A2999,RJFF,2015-04-18T07:00:00Z,33.57,130.43,20.0,2.0,290,8,,6.21,29.970472,,,,,,,,,,,CAVOK,,,,,,,,VFR,,,,,,,,,,,,METAR,12.0
RJFS 180700Z 29003KT 210V340 9999 -RA FEW040 BKN070 OVC100 19/08 Q1015,RJFS,2015-04-18T07:00:00Z,33.15,130.3,19.0,8.0,290,3,,6.21,29.970472,,,,,,,,,,-RA,FEW,4000,BKN,7000,OVC,10000,,,VFR,,,,,,,,,,,,METAR,5.0
RJEC 180700Z 31011KT 9999 FEW035 SCT060 10/M02 Q1005,RJEC,2015-04-18T07:00:00Z,43.67,142.43,10.0,-2.0,310,11,,6.21,29.675198,,,,,,,,,,,FEW,3500,SCT,6000,,,,,VFR,,,,,,,,,,,,METAR,211.0
RJEB 180700Z 10008KT 9999 FEW040 SCT080 06/02 Q1006,RJEB,2015-04-18T07:00:00Z,44.3,143.4,6.0,2.0,100,8,,6.21,29.704725,,,,,,,,,,,FEW,4000,SCT,8000,,,,,VFR,,,,,,,,,,,,METAR,25.0
RJDT 180700Z 13004KT 070V190 9999 -SHRA FEW030 SCT040 BKN050 16/07 Q1015,RJDT,2015-04-18T07:00:00Z,34.27,129.32,16.0,7.0,130,4,,6.21,29.970472,,,,,,,,,,-SHRA,FEW,3000,SCT,4000,BKN,5000,,,VFR,,,,,,,,,,,,METAR,66.0
RJDC 180700Z 06011KT 9999 FEW040 SCT080 BKN110 17/08 Q1015,RJDC,2015-04-18T07:00:00Z,33.92,131.27,17.0,8.0,60,11,,6.21,29.970472,,,,,,,,,,,FEW,4000,SCT,8000,BKN,11000,,,VFR,,,,,,,,,,,,METAR,8.0
RJCW 180700Z 36005KT 9999 FEW015 BKN090 BKN/// 07/04 Q1006,RJCW,2015-04-18T07:00:00Z,45.38,141.8,7.0,4.0,360,5,,6.21,29.704725,,,,,,,,,,,FEW,1500,BKN,9000,,,,,VFR,,,,,,,,,,,,METAR,11.0
RJSF 180700Z 23010KT 200V260 9999 FEW020 BKN/// 16/01 Q1013,RJSF,2015-04-18T07:00:00Z,37.22,140.42,16.0,1.0,230,10,,6.21,29.911417,,,,,,,,,,,FEW,2000,,,,,,,VFR,,,,,,,,,,,,METAR,375.0
RJSC 180700Z 25011KT 9999 FEW040 BKN100 15/00 Q1013,RJSC,2015-04-18T07:00:00Z,38.42,140.37,15.0,0.0,250,11,,6.21,29.911417,,,,,,,,,,,FEW,4000,BKN,10000,,,,,VFR,,,,,,,,,,,,METAR,108.0
RJSA 180700Z 24011KT 9999 FEW030 11/04 Q1009,RJSA,2015-04-18T07:00:00Z,40.72,140.68,11.0,4.0,240,11,,6.21,29.793306,,,,,,,,,,,FEW,3000,,,,,,,VFR,,,,,,,,,,,,METAR,201.0
RJOY 180700Z 29010KT CAVOK 20/04 Q1016,RJOY,2015-04-18T07:00:00Z,34.6,135.58,20.0,4.0,290,10,,6.21,30.0,,,,,,,,,,,CAVOK,,,,,,,,VFR,,,,,,,,,,,,METAR,13.0
RJOW 180700Z 35003KT 280V030 CAVOK 17/01 Q1015,RJOW,2015-04-18T07:00:00Z,34.67,131.8,17.0,1.0,350,3,,6.21,29.970472,,,,,,,,,,,CAVOK,,,,,,,,VFR,,,,,,,,,,,,METAR,54.0
RJSI 180700Z 21009KT 190V250 9999 VCSH FEW020 SCT030 BKN040 13/03 Q1011,RJSI,2015-04-18T07:00:00Z,39.42,141.12,13.0,3.0,210,9,,6.21,29.852362,,,,,,,,,,VCSH,FEW,2000,SCT,3000,BKN,4000,,,VFR,,,,,,,,,,,,METAR,93.0
RJSR 180700Z 26011KT 220V300 9999 FEW015 SCT020 BKN030 11/06 Q1011,RJSR,2015-04-18T07:00:00Z,40.18,140.37,11.0,6.0,260,11,,6.21,29.852362,,,,,,,,,,,FEW,1500,SCT,2000,BKN,3000,,,MVFR,,,,,,,,,,,,METAR,87.0
RJSK 180700Z 28019KT 9999 FEW015 BKN020 10/06 Q1012,RJSK,2015-04-18T07:00:00Z,39.62,140.22,10.0,6.0,280,19,,6.21,29.88189,,,,,,,,,,,FEW,1500,BKN,2000,,,,,MVFR,,,,,,,,,,,,METAR,96.0
RJTO 180700Z 23014KT 9999 FEW025 BKN/// 17/10 Q1016,RJTO,2015-04-18T07:00:00Z,34.77,139.37,17.0,10.0,230,14,,6.21,30.0,,,,,,,,,,,FEW,2500,,,,,,,VFR,,,,,,,,,,,,METAR,41.0
RJTI 180700Z VRB11KT CAVOK 17/06 Q1014,RJTI,2015-04-18T07:00:00Z,35.63,139.83,17.0,6.0,0,11,,6.21,29.940945,,,,,,,,,,,CAVOK,,,,,,,,VFR,,,,,,,,,,,,METAR,8.0
RJTF 180700Z 19015KT 9999 FEW030 BKN/// 18/06 Q1013,RJTF,2015-04-18T07:00:00Z,35.67,139.52,18.0,6.0,190,15,,6.21,29.911417,,,,,,,,,,,FEW,3000,,,,,,,VFR,,,,,,,,,,,,METAR,44.0
RJSY 180700Z 25020KT 9999 FEW025 SCT/// 13/07 Q1013,RJSY,2015-04-18T07:00:00Z,38.82,139.77,13.0,7.0,250,20,,6.21,29.911417,,,,,,,,,,,FEW,2500,,,,,,,VFR,,,,,,,,,,,,METAR,22.0
RJSN 180700Z 26019KT CAVOK 15/06 Q1015,RJSN,2015-04-18T07:00:00Z,37.95,139.12,15.0,6.0,260,19,,6.21,29.970472,,,,,,,,,,,CAVOK,,,,,,,,VFR,,,,,,,,,,,,METAR,4.0
ROIG 180700Z 15013KT 9999 SCT011 BKN018 26/23 Q1012,ROIG,2015-04-18T07:00:00Z,24.32,124.17,26.0,23.0,150,13,,6.21,29.88189,,,,,,,,,,,SCT,1100,BKN,1800,,,,,MVFR,,,,,,,,,,,,METAR,7.0
ROAH 180700Z 15011KT CAVOK 24/16 Q1014 RMK A2997,ROAH,2015-04-18T07:00:00Z,26.17,127.65,24.0,16.0,150,11,,6.21,29.940945,,,,,,,,,,,CAVOK,,,,,,,,VFR,,,,,,,,,,,,METAR,8.0
ROMY 180700Z 15015KT 9999 SCT013 BKN080 BKN/// 26/21 Q1013,ROMY,2015-04-18T07:00:00Z,24.77,125.27,26.0,21.0,150,15,,6.21,29.911417,,,,,,,,,,,SCT,1300,BKN,8000,,,,,VFR,,,,,,,,,,,,METAR,41.0
RORS 180700Z 15017KT 9999 FEW013 SCT029 BKN070 26/22 Q1013,RORS,2015-04-18T07:00:00Z,24.82,125.15,26.0,22.0,150,17,,6.21,29.911417,,,,,,,,,,,FEW,1300,SCT,2900,BKN,7000,,,VFR,,,,,,,,,,,,METAR,16.0
RJAH 180700Z 21017KT 9999 FEW030 BKN230 18/04 Q1013,RJAH,2015-04-18T07:00:00Z,36.17,140.42,18.0,4.0,210,17,,6.21,29.911417,,,,,,,,,,,FEW,3000,BKN,23000,,,,,VFR,,,,,,,,,,,,METAR,35.0
FAEL 180700Z 26009KT 9999 SCT014 BKN025 17/16 Q1026,FAEL,2015-04-18T07:00:00Z,-33.02,27.82,17.0,16.0,260,9,,6.21,30.295275,,,,,,,,,,,SCT,1400,BKN,2500,,,,,MVFR,,,,,,,,,,,,METAR,125.0
FACT 180700Z VRB02KT CAVOK 17/10 Q1023 NOSIG,FACT,2015-04-18T07:00:00Z,-33.97,18.6,17.0,10.0,0,2,,6.21,30.206694,,,,,,TRUE,,,,,CAVOK,,,,,,,,VFR,,,,,,,,,,,,METAR,42.0
FAOR 180700Z 36013KT 9000 BKN005 13/11 Q1029 BECMG BKN010,FAOR,2015-04-18T07:00:00Z,-26.12,28.22,13.0,11.0,360,13,,5.59,30.383858,,,,,,,,,,,BKN,500,,,,,,,IFR,,,,,,,,,,,,METAR,1700.0
FALE 180700Z 25005KT 210V270 CAVOK 20/09 Q1024 NOSIG,FALE,2015-04-18T07:00:00Z,-29.62,31.12,20.0,9.0,250,5,,6.21,30.236221,,,,,,TRUE,,,,,CAVOK,,,,,,,,VFR,,,,,,,,,,,,METAR,109.0
FALA 180700Z 24004KT 190V270 9000 BKN010 15/14 Q1028 NOSIG,FALA,2015-04-18T07:00:00Z,-25.92,27.92,15.0,14.0,240,4,,5.59,30.35433,,,,,,TRUE,,,,,BKN,1000,,,,,,,MVFR,,,,,,,,,,,,METAR,1377.0
FAKN 180700Z 07001KT 5000 BCFG SCT010 OVC020 16/12 Q1027 NOSIG,FAKN,2015-04-18T07:00:00Z,-25.38,31.1,16.0,12.0,70,1,,3.11,30.324802,,,,,,TRUE,,,,BCFG,SCT,1000,OVC,2000,,,,,MVFR,,,,,,,,,,,,METAR,862.0
FAGG 180700Z 09009KT 9999 SCT048 16/12 Q1027,FAGG,2015-04-18T07:00:00Z,-34.0,22.37,16.0,12.0,90,9,,6.21,30.324802,,,,,,,,,,,SCT,4800,,,,,,,VFR,,,,,,,,,,,,METAR,193.0
LKPD 180700Z VRB07KT 9999 SCT029 BKN041 06/M02 Q1020 NOSIG RMK BLACK,LKPD,2015-04-18T07:00:00Z,50.02,15.73,6.0,-2.0,0,7,,6.21,30.11811,,,,,,TRUE,,,,,SCT,2900,BKN,4100,,,,,VFR,,,,,,,,,,,,METAR,226.0
LKNA 180700Z 33011KT 9999 FEW014 BKN038 04/01 Q1018 NOSIG RMK BLU BLU,LKNA,2015-04-18T07:00:00Z,49.17,16.12,4.0,1.0,330,11,,6.21,30.059055,,,,,,TRUE,,,,,FEW,1400,BKN,3800,,,,,VFR,,,,,,,,,,,,METAR,472.0
LKLN 180700Z AUTO 30002KT 9999 FEW029 BKN035 OVC050 02/M00 Q1022,LKLN,2015-04-18T07:00:00Z,49.68,13.27,2.0,0.0,300,2,,6.21,30.177166,,,TRUE,,,,,,,,FEW,2900,BKN,3500,OVC,5000,,,VFR,,,,,,,,,,,,METAR,362.0
LKKB 180700Z 33009KT 9999 SCT034 BKN060 05/02 Q1021 NOSIG,LKKB,2015-04-18T07:00:00Z,50.12,14.53,5.0,2.0,330,9,,6.21,30.147638,,,,,,TRUE,,,,,SCT,3400,BKN,6000,,,,,VFR,,,,,,,,,,,,METAR,286.0
LKCV 180700Z 33005KT 9999 FEW015 BKN036 06/02 Q1021 NOSIG RMK BLU BLU,LKCV,2015-04-18T07:00:00Z,49.93,15.38,6.0,2.0,330,5,,6.21,30.147638,,,,,,TRUE,,,,,FEW,1500,BKN,3600,,,,,VFR,,,,,,,,,,,,METAR,242.0
FBSP 180700Z 07006KT 9999 OVC020 19/17 Q1025,FBSP,2015-04-18T07:00:00Z,-22.05,27.82,19.0,17.0,70,6,,6.21,30.265747,,,,,,,,,,,OVC,2000,,,,,,,MVFR,,,,,,,,,,,,METAR,892.0
FBMN 180700Z 07013KT CAVOK 24/17 Q1021,FBMN,2015-04-18T07:00:00Z,-19.97,23.42,24.0,17.0,70,13,,6.21,30.147638,,,,,,,,,,,CAVOK,,,,,,,,VFR,,,,,,,,,,,,METAR,900.0
FBKE 180700Z 12008KT 9999 BKN020 22/20 Q1022,FBKE,2015-04-18T07:00:00Z,-17.82,25.17,22.0,20.0,120,8,,6.21,30.177166,,,,,,,,,,,BKN,2000,,,,,,,MVFR,,,,,,,,,,,,METAR,1000.0
FBFT 180700Z 10011KT 080V140 9999 OVC015 18/16 Q1024,FBFT,2015-04-18T07:00:00Z,-21.17,27.48,18.0,16.0,100,11,,6.21,30.236221,,,,,,,,,,,OVC,1500,,,,,,,MVFR,,,,,,,,,,,,METAR,1000.0
FAPP 180700Z 04009KT 8000 OVC010 14/11 Q1026 NOSIG,FAPP,2015-04-18T07:00:00Z,-23.83,29.45,14.0,11.0,40,9,,4.97,30.295275,,,,,,TRUE,,,,,OVC,1000,,,,,,,MVFR,,,,,,,,,,,,METAR,1242.0
FAPE 180700Z VRB02KT 9999 FEW030 18/14 Q1028 NOSIG,FAPE,2015-04-18T07:00:00Z,-33.97,25.6,18.0,14.0,0,2,,6.21,30.35433,,,,,,TRUE,,,,,FEW,3000,,,,,,,VFR,,,,,,,,,,,,METAR,60.0
CWSL 180700Z AUTO 09001KT 06/02 RMK AO1 SLP252 T00560020 51036,CWSL,2015-04-18T07:00:00Z,50.7,-119.27,5.6,2.0,90,1,,,,1025.2,,TRUE,TRUE,,,,,,,,,,,,,,,,3.6,,,,,,,,,,,METAR,351.0
CWLM 180700Z AUTO 27006KT 09/07 RMK AO1 SLP266 T00940071 51009,CWLM,2015-04-18T07:00:00Z,48.42,-123.32,9.4,7.1,270,6,,,,1026.6,,TRUE,TRUE,,,,,,,,,,,,,,,,0.9,,,,,,,,,,,METAR,70.0
CWLE 180700Z AUTO 17018KT 09/M02 RMK AO1 PK WND 17026/0622 SLP111 T00921016 56028,CWLE,2015-04-18T07:00:00Z,50.95,-107.15,9.2,-1.6,170,18,,,,1011.1,,TRUE,TRUE,,,,,,,,,,,,,,,,-2.8,,,,,,,,,,,METAR,665.0
CWLC 180700Z AUTO 10005KT 07/04 RMK AO1 T00700040,CWLC,2015-04-18T07:00:00Z,54.3,-130.62,7.0,4.0,100,5,,,,,,TRUE,TRUE,,,,,,,,,,,,,,,,,,,,,,,,,,,METAR,27.0
CWKH 180700Z AUTO 09/04 RMK AO1 SLP253 T00920043 51006,CWKH,2015-04-18T07:00:00Z,48.57,-123.55,9.2,4.3,,,,,,1025.3,,TRUE,TRUE,,,,,,,,,,,,,,,,0.6,,,,,,,,,,,METAR,366.0
CWKG 180700Z AUTO 27002KT 02/02 RMK AO1 SOG 29 2004 SLP087 T00230021,CWKG,2015-04-18T07:00:00Z,44.43,-65.2,2.3,2.1,270,2,,,,1008.7,,TRUE,TRUE,,,,,,,,,,,,,,,,,,,,,,,,,,,METAR,165.0
CWJW 180700Z AUTO 06001KT M01/M02 RMK AO1 SOG 00 1030 SLP241 T10111021,CWJW,2015-04-18T07:00:00Z,52.93,-118.03,-1.1,-2.1,60,1,,,,1024.1,,TRUE,TRUE,,,,,,,,,,,,,,,,,,,,,,,,,,,METAR,1020.0
CWJV 180700Z AUTO 03002KT 07/01 RMK AO1 SLP244 T00660014 53029,CWJV,2015-04-18T07:00:00Z,50.22,-119.18,6.6,1.4,30,2,,,,1024.4,,TRUE,TRUE,,,,,,,,,,,,,,,,2.9,,,,,,,,,,,METAR,556.0
CWJT 180700Z AUTO 01002KT M02/M04 RMK AO1 SLP148 T10201035 50003,CWJT,2015-04-18T07:00:00Z,46.07,-74.57,-2.0,-3.5,10,2,,,,1014.8,,TRUE,TRUE,,,,,,,,,,,,,,,,0.3,,,,,,,,,,,METAR,239.0
CWJR 180700Z AUTO 30005KT 10/04 RMK AO1 SLP192 T01040039 53023,CWJR,2015-04-18T07:00:00Z,49.07,-116.5,10.4,3.9,300,5,,,,1019.2,,TRUE,TRUE,,,,,,,,,,,,,,,,2.3,,,,,,,,,,,METAR,646.0
CWJO 180700Z AUTO 29009KT 01/M05 RMK AO1 SLP166 T00061048 51003,CWJO,2015-04-18T07:00:00Z,48.43,-71.15,0.6,-4.8,290,9,,,,1016.6,,TRUE,TRUE,,,,,,,,,,,,,,,,0.3,,,,,,,,,,,METAR,133.0
CWJI 180700Z AUTO 16008KT 06/M03 RMK AO1 SLP156 T00621030 58015,CWJI,2015-04-18T07:00:00Z,49.72,-105.92,6.2,-3.0,160,8,,,,1015.6,,TRUE,TRUE,,,,,,,,,,,,,,,,-1.5,,,,,,,,,,,METAR,724.0
CWST 180700Z AUTO 02004KT 01/M03 RMK AO1 SOG 00 1008 SLP145 T00141032,CWST,2015-04-18T07:00:00Z,47.35,-70.02,1.4,-3.2,20,4,,,,1014.5,,TRUE,TRUE,,,,,,,,,,,,,,,,,,,,,,,,,,,METAR,31.0
CWSR 180700Z AUTO 20005KT 09/M03 RMK AO1 SOG 00 6004 SLP117 T00941033,CWSR,2015-04-18T07:00:00Z,53.37,-107.53,9.4,-3.3,200,5,,,,1011.7,,TRUE,TRUE,,,,,,,,,,,,,,,,,,,,,,,,,,,METAR,584.0
CWSP 180700Z AUTO 30005KT 09/08 RMK AO1 SLP271 T00930077 51008,CWSP,2015-04-18T07:00:00Z,48.38,-123.92,9.3,7.7,300,5,,,,1027.1,,TRUE,TRUE,,,,,,,,,,,,,,,,0.8,,,,,,,,,,,METAR,21.0
CWMJ 180700Z AUTO 00000KT M01/M05 RMK AO1 SLP148 T10131050 58005,CWMJ,2015-04-18T07:00:00Z,46.27,-76.0,-1.3,-5.0,0,0,,,,1014.8,,TRUE,TRUE,,,,,,,,,,,,,,,,-0.5,,,,,,,,,,,METAR,200.0
CWMM 180700Z AUTO 10001KT 07/04 RMK AO1 SOG 00 3014 T00740041,CWMM,2015-04-18T07:00:00Z,49.22,-122.68,7.4,4.1,100,1,,,,,,TRUE,TRUE,,,,,,,,,,,,,,,,,,,,,,,,,,,METAR,5.0
CWMQ 180700Z AUTO 25007KT 12/M02 RMK AO1 SLP134 T01221023 53015,CWMQ,2015-04-18T07:00:00Z,49.9,-109.47,12.2,-2.3,250,7,,,,1013.4,,TRUE,TRUE,,,,,,,,,,,,,,,,1.5,,,,,,,,,,,METAR,767.0
CWBU 180700Z AUTO 14009KT 08/M03 RMK AO1 SOG 00 6023 SLP159 T00781030,CWBU,2015-04-18T07:00:00Z,53.33,-104.02,7.8,-3.0,140,9,,,,1015.9,,TRUE,TRUE,,,,,,,,,,,,,,,,,,,,,,,,,,,METAR,373.0
CWIK 180700Z AUTO 14009KT 05/M01 RMK AO1 SLP198 T00461006 58010,CWIK,2015-04-18T07:00:00Z,50.37,-102.58,4.6,-0.6,140,9,,,,1019.8,,TRUE,TRUE,,,,,,,,,,,,,,,,-1.0,,,,,,,,,,,METAR,602.0
CWEL 180700Z AUTO 31023KT 11/04 RMK AO1 PK WND 32028/0633 SLP267 T01140036 51016,CWEL,2015-04-18T07:00:00Z,49.22,-123.78,11.4,3.6,310,23,,,,1026.7,,TRUE,TRUE,,,,,,,,,,,,,,,,1.6,,,,,,,,,,,METAR,5.0
CWEW 180700Z AUTO 04003KT 04/M04 RMK AO1 SLP161 T00411036 51006,CWEW,2015-04-18T07:00:00Z,45.82,-73.43,4.1,-3.6,40,3,,,,1016.1,,TRUE,TRUE,,,,,,,,,,,,,,,,0.6,,,,,,,,,,,METAR,21.0
CWFQ 180700Z AUTO 03006KT 05/M05 RMK AO1 SOG 00 0006 SLP137 T00521052,CWFQ,2015-04-18T07:00:00Z,45.03,-72.82,5.2,-5.2,30,6,,,,1013.7,,TRUE,TRUE,,,,,,,,,,,,,,,,,,,,,,,,,,,METAR,152.0
CWGB 180700Z AUTO 27021KT 11/05 RMK AO1 PK WND 28028/0613 SLP267 T01100049 51010,CWGB,2015-04-18T07:00:00Z,49.35,-124.17,11.0,4.9,270,21,,,,1026.7,,TRUE,TRUE,,,,,,,,,,,,,,,,1.0,,,,,,,,,,,METAR,5.0
CWGL 180700Z AUTO 17004KT 01/M00 RMK AO1 SLP146 T00061002 56010,CWGL,2015-04-18T07:00:00Z,44.52,-79.22,0.6,-0.2,170,4,,,,1014.6,,TRUE,TRUE,,,,,,,,,,,,,,,,-1.0,,,,,,,,,,,METAR,221.0
CWGM 180700Z AUTO 24005KT 06/M02 RMK AO1 T00551018,CWGM,2015-04-18T07:00:00Z,49.13,-113.78,5.5,-1.8,240,5,,,,,,TRUE,TRUE,,,,,,,,,,,,,,,,,,,,,,,,,,,METAR,1296.0
SUMU 180700Z 30008KT CAVOK 14/08 Q1011,SUMU,2015-04-18T07:00:00Z,-34.82,-56.0,14.0,8.0,300,8,,6.21,29.852362,,,,,,,,,,,CAVOK,,,,,,,,VFR,,,,,,,,,,,,METAR,32.0
GBYD 180700Z VRB02KT 9999 SCT010 20/18 Q1011,GBYD,2015-04-18T07:00:00Z,13.33,-16.65,20.0,18.0,0,2,,6.21,29.852362,,,,,,,,,,,SCT,1000,,,,,,,VFR,,,,,,,,,,,,METAR,36.0
ORER 180700Z 36004KT 7000 NSC 21/09 Q1019 NOSIG,ORER,2015-04-18T07:00:00Z,36.23,43.97,21.0,9.0,360,4,,4.35,30.088583,,,,,,TRUE,,,,,,,,,,,,,,,,,,,,,,,,,METAR,409.0
RPLC 180700Z 10006KT 9999 BKN025 34/20 Q1010 NOSIG RMK A2983,RPLC,2015-04-18T07:00:00Z,15.17,120.58,34.0,20.0,100,6,,6.21,29.822834,,,,,,TRUE,,,,,BKN,2500,,,,,,,MVFR,,,,,,,,,,,,METAR,196.0
LEMO 180700Z 00000KT 9000 NSC 13/13 Q1016 NOSIG,LEMO,2015-04-18T07:00:00Z,37.17,-5.62,13.0,13.0,0,0,,5.59,30.0,,,,,,TRUE,,,,,,,,,,,,,,,,,,,,,,,,,METAR,88.0
ZBAA 180700Z 08002MPS 050V130 5000 HZ NSC 21/11 Q1010 NOSIG,ZBAA,2015-04-18T07:00:00Z,40.07,116.58,21.0,11.0,80,4,,3.11,29.822834,,,,,,TRUE,,,,HZ,,,,,,,,,,,,,,,,,,,,,METAR,30.0
"RPMZ 180700Z 25006KT 9999 FEW017CB FEW018 34/27 Q1009 RMK A2980 CB N, NE",RPMZ,2015-04-18T07:00:00Z,6.92,122.07,34.0,27.0,250,6,,6.21,29.793306,,,,,,,,,,,FEW,1700,FEW,1800,,,,,VFR,,,,,,,,,,,,METAR,6.0
CWPO 180700Z AUTO 08007KT 01/M02 RMK AO1 SOG 02 8001 SLP230 T00071021,CWPO,2015-04-18T07:00:00Z,49.2,-98.9,0.7,-2.1,80,7,,,,1023.0,,TRUE,TRUE,,,,,,,,,,,,,,,,,,,,,,,,,,,METAR,470.0
CWDQ 180700Z AUTO 09001KT M03/M05 RMK AO1 SLP163 T10251050 53001,CWDQ,2015-04-18T07:00:00Z,47.42,-72.78,-2.5,-5.0,90,1,,,,1016.3,,TRUE,TRUE,,,,,,,,,,,,,,,,0.1,,,,,,,,,,,METAR,169.0
CWBE 180700Z AUTO 30004KT 03/M02 RMK AO1 SLP138 T00321020 58014,CWBE,2015-04-18T07:00:00Z,45.98,-81.48,3.2,-2.0,300,4,,,,1013.8,,TRUE,TRUE,,,,,,,,,,,,,,,,-1.4,,,,,,,,,,,METAR,196.0
CWAJ 180700Z AUTO 24004KT 07/06 RMK AO1 SLP155 T00720058 56009,CWAJ,2015-04-18T07:00:00Z,42.25,-81.9,7.2,5.8,240,4,,,,1015.5,,TRUE,TRUE,,,,,,,,,,,,,,,,-0.9,,,,,,,,,,,METAR,178.0
CWWB 180700Z AUTO 25002KT 11/07 RMK AO1 SLP147 T01050067 56009,CWWB,2015-04-18T07:00:00Z,43.3,-79.78,10.5,6.7,250,2,,,,1014.7,,TRUE,TRUE,,,,,,,,,,,,,,,,-0.9,,,,,,,,,,,METAR,76.0
CWPC 180700Z AUTO 15003KT 03/02 RMK AO1 SLP161 T00320022 57011,CWPC,2015-04-18T07:00:00Z,42.87,-79.25,3.2,2.2,150,3,,,,1016.1,,TRUE,TRUE,,,,,,,,,,,,,,,,-1.1,,,,,,,,,,,METAR,184.0
CWLS 180700Z AUTO 10003KT 05/03 RMK AO1 SLP152 T00520033 58013,CWLS,2015-04-18T07:00:00Z,43.97,-80.75,5.2,3.3,100,3,,,,1015.2,,TRUE,TRUE,,,,,,,,,,,,,,,,-1.3,,,,,,,,,,,METAR,415.0
CTRA 180700Z AUTO 05003KT 01/M02 RMK AO1 SLP222 T00071015 51009,CTRA,2015-04-18T07:00:00Z,49.67,-93.73,0.7,-1.5,50,3,,,,1022.2,,TRUE,TRUE,,,,,,,,,,,,,,,,0.9,,,,,,,,,,,METAR,435.0
CWNZ 180700Z AUTO 01007KT 02/02 RMK AO1 2PAST HR 1036 SLP164 P0001 T00220018 50002,CWNZ,2015-04-18T07:00:00Z,49.75,-84.17,2.2,1.8,10,7,,,,1016.4,,TRUE,TRUE,,,,,,,,,,,,,,,,0.2,,,,,0.01,,,,,,METAR,256.0
CXBI 180700Z AUTO 00000KT 03/02 RMK AO1 SLP149 T00330022 58010,CXBI,2015-04-18T07:00:00Z,44.48,-79.55,3.3,2.2,0,0,,,,1014.9,,TRUE,TRUE,,,,,,,,,,,,,,,,-1.0,,,,,,,,,,,METAR,289.0
CXZC 180700Z AUTO 04005KT M01/M01 RMK AO1 7PAST HR SOG 28 3004 SLP135 P0003 T10081011 50007,CXZC,2015-04-18T07:00:00Z,51.3,-80.62,-0.8,-1.1,40,5,,,,1013.5,,TRUE,TRUE,,,,,,,,,,,,,,,,0.7,,,,,0.03,,,,,,METAR,9.0
RKSS 180700Z 23002KT 9999 FEW030 BKN120 23/M14 Q1012 NOSIG,RKSS,2015-04-18T07:00:00Z,37.53,126.78,23.0,-14.0,230,2,,6.21,29.88189,,,,,,TRUE,,,,,FEW,3000,BKN,12000,,,,,VFR,,,,,,,,,,,,METAR,19.0
RKSI 180700Z 30007KT 9999 SCT030 BKN110 17/M04 Q1012 NOSIG,RKSI,2015-04-18T07:00:00Z,37.47,126.45,17.0,-4.0,300,7,,6.21,29.88189,,,,,,TRUE,,,,,SCT,3000,BKN,11000,,,,,VFR,,,,,,,,,,,,METAR,7.0
GCGM 180700Z VRB02KT 9999 FEW030 14/10 Q1018 RMK CAB09 30003KT 260V330,GCGM,2015-04-18T07:00:00Z,28.03,-17.22,14.0,10.0,0,2,,6.21,30.059055,,,,,,,,,,,FEW,3000,,,,,,,VFR,,,,,,,,,,,,METAR,219.0
GCHI 180700Z 04014KT 9999 FEW021 18/13 Q1018,GCHI,2015-04-18T07:00:00Z,27.82,-17.87,18.0,13.0,40,14,,6.21,30.059055,,,,,,,,,,,FEW,2100,,,,,,,VFR,,,,,,,,,,,,METAR,30.0
LETO 180700Z 01002KT 9999 SCT050 09/08 Q1015 NOSIG,LETO,2015-04-18T07:00:00Z,40.47,-3.47,9.0,8.0,10,2,,6.21,29.970472,,,,,,TRUE,,,,,SCT,5000,,,,,,,VFR,,,,,,,,,,,,METAR,608.0
LELN 180700Z 18005KT 9999 FEW040 05/03 Q1014,LELN,2015-04-18T07:00:00Z,42.57,-5.65,5.0,3.0,180,5,,6.21,29.940945,,,,,,,,,,,FEW,4000,,,,,,,VFR,,,,,,,,,,,,METAR,914.0
LELC 180700Z 00000KT CAVOK 13/12 Q1015 NOSIG,LELC,2015-04-18T07:00:00Z,37.77,-0.8,13.0,12.0,0,0,,6.21,29.970472,,,,,,TRUE,,,,,CAVOK,,,,,,,,VFR,,,,,,,,,,,,METAR,3.0
LEBZ 180700Z 25004KT CAVOK 10/08 Q1017,LEBZ,2015-04-18T07:00:00Z,38.87,-6.82,10.0,8.0,250,4,,6.21,30.029528,,,,,,,,,,,CAVOK,,,,,,,,VFR,,,,,,,,,,,,METAR,192.0
LEAB 180700Z 14006KT CAVOK 12/09 Q1016 NOSIG,LEAB,2015-04-18T07:00:00Z,38.95,-1.85,12.0,9.0,140,6,,6.21,30.0,,,,,,TRUE,,,,,CAVOK,,,,,,,,VFR,,,,,,,,,,,,METAR,704.0
OITM 180700Z 28004KT 6000 FEW031TCU 15/02 Q1020,OITM,2015-04-18T07:00:00Z,37.35,46.15,15.0,2.0,280,4,,3.73,30.11811,,,,,,,,,,,FEW,3100,,,,,,,MVFR,,,,,,,,,,,,METAR,1340.0
OITK 180700Z 02004KT 9999 FEW035 17/01 Q1018,OITK,2015-04-18T07:00:00Z,38.42,44.98,17.0,1.0,20,4,,6.21,30.059055,,,,,,,,,,,FEW,3500,,,,,,,VFR,,,,,,,,,,,,METAR,1107.0
OINE 180700Z 30004KT CAVOK 18/10 Q1016,OINE,2015-04-18T07:00:00Z,37.38,55.45,18.0,10.0,300,4,,6.21,30.0,,,,,,,,,,,CAVOK,,,,,,,,VFR,,,,,,,,,,,,METAR,130.0
OIMQ 180700Z 15008KT 9999 SCT035 BKN170 20/04 Q1016,OIMQ,2015-04-18T07:00:00Z,35.23,58.47,20.0,4.0,150,8,,6.21,30.0,,,,,,,,,,,SCT,3500,BKN,17000,,,,,VFR,,,,,,,,,,,,METAR,1140.0
OIMD 180700Z 34004KT 9999 SCT035 BKN100 23/06 Q1012,OIMD,2015-04-18T07:00:00Z,34.38,58.63,23.0,6.0,340,4,,6.21,29.88189,,,,,,,,,,,SCT,3500,BKN,10000,,,,,VFR,,,,,,,,,,,,METAR,1100.0
RKNY 180700Z 12007KT CAVOK 20/M03 Q1010 NOSIG,RKNY,2015-04-18T07:00:00Z,38.07,128.67,20.0,-3.0,120,7,,6.21,29.822834,,,,,,TRUE,,,,,CAVOK,,,,,,,,VFR,,,,,,,,,,,,METAR,74.0
RKJB 180700Z 11011KT 9999 BKN030 OVC080 18/05 Q1011 NOSIG,RKJB,2015-04-18T07:00:00Z,34.98,126.38,18.0,5.0,110,11,,6.21,29.852362,,,,,,TRUE,,,,,BKN,3000,OVC,8000,,,,,MVFR,,,,,,,,,,,,METAR,2.0
RKTN 180700Z 30004KT CAVOK 21/M00 Q1013 NOSIG,RKTN,2015-04-18T07:00:00Z,35.88,128.65,21.0,0.0,300,4,,6.21,29.911417,,,,,,TRUE,,,,,CAVOK,,,,,,,,VFR,,,,,,,,,,,,METAR,35.0
RKTU 180700Z 23006KT CAVOK 17/05 Q1012 NOSIG,RKTU,2015-04-18T07:00:00Z,36.7,127.5,17.0,5.0,230,6,,6.21,29.88189,,,,,,TRUE,,,,,CAVOK,,,,,,,,VFR,,,,,,,,,,,,METAR,66.0
RKPK 180700Z 20010KT CAVOK 18/M04 Q1015 NOSIG,RKPK,2015-04-18T07:00:00Z,35.17,128.92,18.0,-4.0,200,10,,6.21,29.970472,,,,,,TRUE,,,,,CAVOK,,,,,,,,VFR,,,,,,,,,,,,METAR,15.0
ZSSS 180700Z 16003MPS CAVOK 25/16 Q1005 NOSIG,ZSSS,2015-04-18T07:00:00Z,31.2,121.33,25.0,16.0,160,6,,6.21,29.675198,,,,,,TRUE,,,,,CAVOK,,,,,,,,VFR,,,,,,,,,,,,METAR,7.0
ZSPD 180700Z 20005MPS CAVOK 24/15 Q1006 NOSIG,ZSPD,2015-04-18T07:00:00Z,31.15,121.8,24.0,15.0,200,10,,6.21,29.704725,,,,,,TRUE,,,,,CAVOK,,,,,,,,VFR,,,,,,,,,,,,METAR,4.0
ZSHC 180700Z 26002MPS 210V350 9999 FEW040 28/11 Q1005 NOSIG,ZSHC,2015-04-18T07:00:00Z,30.22,120.43,28.0,11.0,260,4,,6.21,29.675198,,,,,,TRUE,,,,,FEW,4000,,,,,,,VFR,,,,,,,,,,,,METAR,43.0
ZGGG 180700Z 15006MPS 8000 BKN036 28/23 Q1006 NOSIG,ZGGG,2015-04-18T07:00:00Z,23.4,113.3,28.0,23.0,150,12,,4.97,29.704725,,,,,,TRUE,,,,,BKN,3600,,,,,,,MVFR,,,,,,,,,,,,METAR,15.0
ZBYN 180700Z 01003MPS 6000 -RA BKN033 12/08 Q1010 NOSIG,ZBYN,2015-04-18T07:00:00Z,37.77,112.63,12.0,8.0,10,6,,3.73,29.822834,,,,,,TRUE,,,,-RA,BKN,3300,,,,,,,MVFR,,,,,,,,,,,,METAR,779.0
ZBTJ 180700Z 09005MPS 8000 NSC 16/07 Q1010 NOSIG,ZBTJ,2015-04-18T07:00:00Z,39.12,117.35,16.0,7.0,90,10,,4.97,29.822834,,,,,,TRUE,,,,,,,,,,,,,,,,,,,,,,,,,METAR,3.0
ZBSJ 180700Z 34003MPS 3000 -RA BR OVC046 15/13 Q1010 BECMG 2500 -RA BR,ZBSJ,2015-04-18T07:00:00Z,38.28,114.7,15.0,13.0,340,6,,1.86,29.822834,,,,,,,,,,-RA BR,OVC,4600,,,,,,,IFR,,,,,,,,,,,,METAR,71.0
UAAA 180700Z 04004MPS 9999 SCT050CB BKN100 17/05 Q1015 R88/65D TEMPO TS,UAAA,2015-04-18T07:00:00Z,43.35,77.03,17.0,5.0,40,8,,6.21,29.970472,,,,,,,,,,,SCT,5000,BKN,10000,,,,,VFR,,,,,,,,,,,,METAR,847.0
MROC 180700Z 09005KT CAVOK 21/16 A3001 NOSIG,MROC,2015-04-18T07:00:00Z,10.0,-84.22,21.0,16.0,90,5,,6.21,30.008858,,,,,,TRUE,,,,,CAVOK,,,,,,,,VFR,,,,,,,,,,,,METAR,920.0
WMSA 180700Z 26001KT 9999 FEW020 SCT140 BKN280 35/22 Q1008,WMSA,2015-04-18T07:00:00Z,3.13,101.55,35.0,22.0,260,1,,6.21,29.763779,,,,,,,,,,,FEW,2000,SCT,14000,BKN,28000,,,VFR,,,,,,,,,,,,METAR,27.0
WMKJ 180700Z 33001KT 9999 TS FEW010 FEW017CB SCT018 BKN280 34/27 Q1008,WMKJ,2015-04-18T07:00:00Z,1.62,103.67,34.0,27.0,330,1,,6.21,29.763779,,,,,,,,,,TS,FEW,1000,FEW,1700,SCT,1800,BKN,28000,VFR,,,,,,,,,,,,METAR,40.0
WMKP 180700Z 21009KT 9999 FEW017CB BKN280 32/25 Q1008 NOSIG,WMKP,2015-04-18T07:00:00Z,5.28,100.27,32.0,25.0,210,9,,6.21,29.763779,,,,,,TRUE,,,,,FEW,1700,BKN,28000,,,,,VFR,,,,,,,,,,,,METAR,4.0
WMKK 180700Z 20006KT 140V260 9999 FEW018 BKN280 33/26 Q1007 NOSIG,WMKK,2015-04-18T07:00:00Z,2.75,101.72,33.0,26.0,200,6,,6.21,29.734253,,,,,,TRUE,,,,,FEW,1800,BKN,28000,,,,,VFR,,,,,,,,,,,,METAR,22.0
WBSB 180700Z 32009KT 9000 FEW016 FEW017CB BKN300 32/25 Q1007 NOSIG,WBSB,2015-04-18T07:00:00Z,4.92,114.92,32.0,25.0,320,9,,5.59,29.734253,,,,,,TRUE,,,,,FEW,1600,FEW,1700,BKN,30000,,,VFR,,,,,,,,,,,,METAR,15.0
WBKK 180700Z 33007KT 250V030 9999 TS FEW015 FEW016CB SCT140 BKN280 31/27 Q1007 NOSIG,WBKK,2015-04-18T07:00:00Z,5.92,116.03,31.0,27.0,330,7,,6.21,29.734253,,,,,,TRUE,,,,TS,FEW,1500,FEW,1600,SCT,14000,BKN,28000,VFR,,,,,,,,,,,,METAR,3.0
WBGG 180700Z 03005KT 350V070 9999 SCT020 BKN300 33/26 Q1007 NOSIG,WBGG,2015-04-18T07:00:00Z,1.47,110.35,33.0,26.0,30,5,,6.21,29.734253,,,,,,TRUE,,,,,SCT,2000,BKN,30000,,,,,VFR,,,,,,,,,,,,METAR,27.0
SAZM 180700Z 27015KT 9999 BKN005 13/10 Q1005,SAZM,2015-04-18T07:00:00Z,-37.92,-57.57,13.0,10.0,270,15,,6.21,29.675198,,,,,,,,,,,BKN,500,,,,,,,IFR,,,,,,,,,,,,METAR,21.0
SAWG 180700Z 00000KT 9999 FEW002 SCT070 06/04 Q0998,SAWG,2015-04-18T07:00:00Z,-51.62,-69.32,6.0,4.0,0,0,,6.21,29.468504,,,,,,,,,,,FEW,200,SCT,7000,,,,,VFR,,,,,,,,,,,,METAR,19.0
SAVC 180700Z 36004KT 9999 RA FEW015 OVC080 11/10 Q1001,SAVC,2015-04-18T07:00:00Z,-45.77,-67.47,11.0,10.0,360,4,,6.21,29.557087,,,,,,,,,,RA,FEW,1500,OVC,8000,,,,,VFR,,,,,,,,,,,,METAR,46.0
LPPD 180700Z 29022KT 8000 -RADZ FEW006 BKN012 13/12 Q1014,LPPD,2015-04-18T07:00:00Z,37.72,-25.68,13.0,12.0,290,22,,4.97,29.940945,,,,,,,,,,-RA -DZ,FEW,600,BKN,1200,,,,,MVFR,,,,,,,,,,,,METAR,72.0
LPLA 180700Z /////KT 9999 FEW020 SCT025 13/12 Q1015,LPLA,2015-04-18T07:00:00Z,38.77,-27.1,13.0,12.0,,,,6.21,29.970472,,,,,,,,,,,FEW,2000,SCT,2500,,,,,VFR,,,,,,,,,,,,METAR,55.0
LPHR 180700Z 26010G23KT 240V300 9999 FEW012 BKN030 13/10 Q1015,LPHR,2015-04-18T07:00:00Z,38.52,-28.72,13.0,10.0,260,10,23,6.21,29.970472,,,,,,,,,,,FEW,1200,BKN,3000,,,,,MVFR,,,,,,,,,,,,METAR,41.0
LPAZ 180700Z 20019KT 9999 FEW008 SCT014 BKN039 16/14 Q1016,LPAZ,2015-04-18T07:00:00Z,36.97,-25.17,16.0,14.0,200,19,,6.21,30.0,,,,,,,,,,,FEW,800,SCT,1400,BKN,3900,,,VFR,,,,,,,,,,,,METAR,100.0
FLHN 180700Z 10008KT 9999 SCT010 21/18 Q1023,FLHN,2015-04-18T07:00:00Z,-17.82,25.82,21.0,18.0,100,8,,6.21,30.206694,,,,,,,,,,,SCT,1000,,,,,,,VFR,,,,,,,,,,,,METAR,986.0
LPPT 180700Z 28005KT 9999 FEW020 12/09 Q1017,LPPT,2015-04-18T07:00:00Z,38.77,-9.12,12.0,9.0,280,5,,6.21,30.029528,,,,,,,,,,,FEW,2000,,,,,,,VFR,,,,,,,,,,,,METAR,123.0
LPPS 180700Z 35003KT 9999 FEW015 12/11 Q1020,LPPS,2015-04-18T07:00:00Z,33.07,-16.35,12.0,11.0,350,3,,6.21,30.11811,,,,,,,,,,,FEW,1500,,,,,,,VFR,,,,,,,,,,,,METAR,82.0
LPPR 180700Z 21008KT 180V240 9999 -SHRA FEW015 SCT025CB BKN035 11/09 Q1014,LPPR,2015-04-18T07:00:00Z,41.22,-8.67,11.0,9.0,210,8,,6.21,29.940945,,,,,,,,,,-SHRA,FEW,1500,SCT,2500,BKN,3500,,,VFR,,,,,,,,,,,,METAR,73.0
LPMA 180700Z 35005KT 9999 FEW015 15/12 Q1020,LPMA,2015-04-18T07:00:00Z,32.7,-16.77,15.0,12.0,350,5,,6.21,30.11811,,,,,,,,,,,FEW,1500,,,,,,,VFR,,,,,,,,,,,,METAR,55.0
LPFR 180700Z 30007KT 9999 FEW040 13/08 Q1017,LPFR,2015-04-18T07:00:00Z,37.02,-7.97,13.0,8.0,300,7,,6.21,30.029528,,,,,,,,,,,FEW,4000,,,,,,,VFR,,,,,,,,,,,,METAR,4.0
LPBJ 180700Z 20003KT 9999 FEW028 09/08 Q1018,LPBJ,2015-04-18T07:00:00Z,38.08,-7.93,9.0,8.0,200,3,,6.21,30.059055,,,,,,,,,,,FEW,2800,,,,,,,VFR,,,,,,,,,,,,METAR,247.0
FAKM 180700Z 14005KT CAVOK 10/02 Q1026,FAKM,2015-04-18T07:00:00Z,-28.8,24.77,10.0,2.0,140,5,,6.21,30.295275,,,,,,,,,,,CAVOK,,,,,,,,VFR,,,,,,,,,,,,METAR,1192.0
UDSG 180700Z 00000MPS 9999 NSC 14/M01 Q1019 R02/CLRD70 NOSIG,UDSG,2015-04-18T07:00:00Z,40.75,43.87,14.0,-1.0,0,0,,6.21,30.088583,,,,,,TRUE,,,,,,,,,,,,,,,,,,,,,,,,,METAR,1524.0
UDYZ 180700Z VRB01MPS 9999 SKC 17/04 Q1017 R09/010070 NOSIG,UDYZ,2015-04-18T07:00:00Z,40.15,44.4,17.0,4.0,0,2,,6.21,30.029528,,,,,,TRUE,,,,,SKC,,,,,,,,VFR,,,,,,,,,,,,METAR,865.0
LELO 180700Z VRB02KT 9999 FEW035 11/11 Q1014,LELO,2015-04-18T07:00:00Z,42.45,-2.32,11.0,11.0,0,2,,6.21,29.940945,,,,,,,,,,,FEW,3500,,,,,,,VFR,,,,,,,,,,,,METAR,363.0
LEBT 180700Z AUTO 00000KT CAVOK 15/10 Q1016,LEBT,2015-04-18T07:00:00Z,39.58,-0.45,15.0,10.0,0,0,,6.21,30.0,,,TRUE,,,,,,,,CAVOK,,,,,,,,VFR,,,,,,,,,,,,METAR,50.0
LEAO 180700Z VRB02KT 9999 FEW045 12/09 Q1016,LEAO,2015-04-18T07:00:00Z,38.95,-3.73,12.0,9.0,0,2,,6.21,30.0,,,,,,,,,,,FEW,4500,,,,,,,VFR,,,,,,,,,,,,METAR,629.0
FVHA 180700Z 18006KT 130V200 8000 -RA BKN009 OVC080 17/17 Q1027 NOSIG,FVHA,2015-04-18T07:00:00Z,-17.92,31.12,17.0,17.0,180,6,,4.97,30.324802,,,,,,TRUE,,,,-RA,BKN,900,OVC,8000,,,,,IFR,,,,,,,,,,,,METAR,1503.0
GEML 180700Z 31002KT 9999 FEW017 15/12 Q1016,GEML,2015-04-18T07:00:00Z,35.27,-2.95,15.0,12.0,310,2,,6.21,30.0,,,,,,,,,,,FEW,1700,,,,,,,VFR,,,,,,,,,,,,METAR,55.0
LEBA 180700Z 21001KT 9999 FEW045 13/12 Q1016,LEBA,2015-04-18T07:00:00Z,37.85,-4.82,13.0,12.0,210,1,,6.21,30.0,,,,,,,,,,,FEW,4500,,,,,,,VFR,,,,,,,,,,,,METAR,92.0
LEBG 180700Z 00000KT 9999 FEW045 10/08 Q1014,LEBG,2015-04-18T07:00:00Z,42.37,-3.62,10.0,8.0,0,0,,6.21,29.940945,,,,,,,,,,,FEW,4500,,,,,,,VFR,,,,,,,,,,,,METAR,891.0
ZUUU 180700Z 35004MPS 310V030 9999 BKN040 20/14 Q1004 NOSIG,ZUUU,2015-04-18T07:00:00Z,30.58,103.95,20.0,14.0,350,8,,6.21,29.64567,,,,,,TRUE,,,,,BKN,4000,,,,,,,VFR,,,,,,,,,,,,METAR,508.0
ZUGY 180700Z 18006MPS 120V220 CAVOK 32/16 Q1003 NOSIG,ZUGY,2015-04-18T07:00:00Z,26.53,106.8,32.0,16.0,180,12,,6.21,29.616142,,,,,,TRUE,,,,,CAVOK,,,,,,,,VFR,,,,,,,,,,,,METAR,1074.0
ZSQD 180700Z 15006MPS 9999 BKN030 16/11 Q1008 NOSIG,ZSQD,2015-04-18T07:00:00Z,36.27,120.38,16.0,11.0,150,12,,6.21,29.763779,,,,,,TRUE,,,,,BKN,3000,,,,,,,MVFR,,,,,,,,,,,,METAR,77.0
ZSNB 180700Z 08001MPS 8000 FEW033 22/18 Q1006 NOSIG,ZSNB,2015-04-18T07:00:00Z,29.83,121.47,22.0,18.0,80,2,,4.97,29.704725,,,,,,TRUE,,,,,FEW,3300,,,,,,,MVFR,,,,,,,,,,,,METAR,4.0
ZSFZ 180700Z VRB01MPS 4500 BR NSC 20/17 Q1009 NOSIG,ZSFZ,2015-04-18T07:00:00Z,25.93,119.67,20.0,17.0,0,2,,2.8,29.793306,,,,,,TRUE,,,,BR,,,,,,,,,,,,,,,,,,,,,METAR,85.0
ZSAM 180700Z 19004MPS 160V230 9999 BKN030 28/21 Q1009 NOSIG,ZSAM,2015-04-18T07:00:00Z,24.53,118.13,28.0,21.0,190,8,,6.21,29.793306,,,,,,TRUE,,,,,BKN,3000,,,,,,,MVFR,,,,,,,,,,,,METAR,139.0
ZPPP 180700Z 24012G17MPS 210V270 9999 SCT030 25/08 Q1015 NOSIG,ZPPP,2015-04-18T07:00:00Z,25.0,102.75,25.0,8.0,240,23,33,6.21,29.970472,,,,,,TRUE,,,,,SCT,3000,,,,,,,VFR,,,,,,,,,,,,METAR,1892.0
ZLXY 180700Z 26006MPS 8000 -RA OVC050 14/11 Q1011 NOSIG,ZLXY,2015-04-18T07:00:00Z,34.43,108.75,14.0,11.0,260,12,,4.97,29.852362,,,,,,TRUE,,,,-RA,OVC,5000,,,,,,,MVFR,,,,,,,,,,,,METAR,479.0
ZGSZ 180700Z 16007MPS 9999 BKN040 26/23 Q1007 NOSIG,ZGSZ,2015-04-18T07:00:00Z,22.63,113.8,26.0,23.0,160,14,,6.21,29.734253,,,,,,TRUE,,,,,BKN,4000,,,,,,,VFR,,,,,,,,,,,,METAR,18.0
ZGOW 180700Z 15005MPS 8000 SCT023 BKN040 27/23 Q1009 NOSIG,ZGOW,2015-04-18T07:00:00Z,23.55,116.5,27.0,23.0,150,10,,4.97,29.793306,,,,,,TRUE,,,,,SCT,2300,BKN,4000,,,,,MVFR,,,,,,,,,,,,METAR,3.0
ZGNN 180700Z 14006MPS 9999 FEW030 33/24 Q1002 NOSIG,ZGNN,2015-04-18T07:00:00Z,22.62,108.17,33.0,24.0,140,12,,6.21,29.586615,,,,,,TRUE,,,,,FEW,3000,,,,,,,VFR,,,,,,,,,,,,METAR,73.0
ZGKL 180700Z VRB01MPS 2500 BR BKN023 OVC040 20/19 Q1004 NOSIG,ZGKL,2015-04-18T07:00:00Z,25.22,110.03,20.0,19.0,0,2,,1.55,29.64567,,,,,,TRUE,,,,BR,BKN,2300,OVC,4000,,,,,IFR,,,,,,,,,,,,METAR,166.0
FNLU 180700Z 04004KT 9999 FEW023 BKN100 25/23 Q1013 NOSIG,FNLU,2015-04-18T07:00:00Z,-8.83,13.22,25.0,23.0,40,4,,6.21,29.911417,,,,,,TRUE,,,,,FEW,2300,BKN,10000,,,,,VFR,,,,,,,,,,,,METAR,70.0
DTTG 180700Z 11010KT 8000 NSC 19/10 Q1017 NOSIG,DTTG,2015-04-18T07:00:00Z,33.73,9.92,19.0,10.0,110,10,,4.97,30.029528,,,,,,TRUE,,,,,,,,,,,,,,,,,,,,,,,,,METAR,5.0
DTTZ 180700Z 10020KT CAVOK 20/09 Q1014 NOSIG,DTTZ,2015-04-18T07:00:00Z,33.92,8.08,20.0,9.0,100,20,,6.21,29.940945,,,,,,TRUE,,,,,CAVOK,,,,,,,,VFR,,,,,,,,,,,,METAR,93.0
DTTX 180700Z 34005KT 280V360 9999 SCT030 17/11 Q1017,DTTX,2015-04-18T07:00:00Z,34.72,10.67,17.0,11.0,340,5,,6.21,30.029528,,,,,,,,,,,SCT,3000,,,,,,,VFR,,,,,,,,,,,,METAR,23.0
DTTJ 180700Z 01007KT 7000 NSC 19/13 Q1016 NOSIG,DTTJ,2015-04-18T07:00:00Z,33.87,10.77,19.0,13.0,10,7,,4.35,30.0,,,,,,TRUE,,,,,,,,,,,,,,,,,,,,,,,,,METAR,4.0
DTTF 180700Z 03014KT 8000 FEW030 16/10 Q1016 NOSIG,DTTF,2015-04-18T07:00:00Z,34.42,8.82,16.0,10.0,30,14,,4.97,30.0,,,,,,TRUE,,,,,FEW,3000,,,,,,,MVFR,,,,,,,,,,,,METAR,314.0
DTTA 180700Z 00000KT 9999 FEW030 18/11 Q1017 NOSIG,DTTA,2015-04-18T07:00:00Z,36.85,10.22,18.0,11.0,0,0,,6.21,30.029528,,,,,,TRUE,,,,,FEW,3000,,,,,,,VFR,,,,,,,,,,,,METAR,4.0
DTNH 180700Z 19004KT CAVOK 17/11 Q1016,DTNH,2015-04-18T07:00:00Z,36.07,10.43,17.0,11.0,190,4,,6.21,30.0,,,,,,,,,,,CAVOK,,,,,,,,VFR,,,,,,,,,,,,METAR,2.0
DTMB 180700Z 31005KT 270V340 6000 NSC 18/14 Q1016,DTMB,2015-04-18T07:00:00Z,35.77,10.75,18.0,14.0,310,5,,3.73,30.0,,,,,,,,,,,,,,,,,,,,,,,,,,,,,,,METAR,2.0
DTKA 180700Z 05007KT CAVOK 15/09 Q1016 NOSIG,DTKA,2015-04-18T07:00:00Z,36.98,8.88,15.0,9.0,50,7,,6.21,30.0,,,,,,TRUE,,,,,CAVOK,,,,,,,,VFR,,,,,,,,,,,,METAR,21.0
GMMH 180700Z 01021KT 8000 BKN016 17/15 Q1016 NOSIG,GMMH,2015-04-18T07:00:00Z,23.72,-15.93,17.0,15.0,10,21,,4.97,30.0,,,,,,TRUE,,,,,BKN,1600,,,,,,,MVFR,,,,,,,,,,,,METAR,11.0
GMAG 180700Z 28004KT 4000 BR BKN006 15/14 Q1014 NOSIG,GMAG,2015-04-18T07:00:00Z,29.03,-10.05,15.0,14.0,280,4,,2.49,29.940945,,,,,,TRUE,,,,BR,BKN,600,,,,,,,IFR,,,,,,,,,,,,METAR,333.0
DTTR 180700Z 14006KT CAVOK 24/M14 Q1017,DTTR,2015-04-18T07:00:00Z,31.7,9.27,24.0,-14.0,140,6,,6.21,30.029528,,,,,,,,,,,CAVOK,,,,,,,,VFR,,,,,,,,,,,,METAR,259.0
DTTN 180700Z 22004KT CAVOK 13/12 Q1018,DTTN,2015-04-18T07:00:00Z,36.47,8.8,13.0,12.0,220,4,,6.21,30.059055,,,,,,,,,,,CAVOK,,,,,,,,VFR,,,,,,,,,,,,METAR,144.0
DTTL 180700Z VRB06KT CAVOK 18/13 Q1016,DTTL,2015-04-18T07:00:00Z,36.85,11.07,18.0,13.0,0,6,,6.21,30.0,,,,,,,,,,,CAVOK,,,,,,,,VFR,,,,,,,,,,,,METAR,30.0
DTTK 180700Z 00000KT CAVOK 17/12 Q1017,DTTK,2015-04-18T07:00:00Z,35.67,10.08,17.0,12.0,0,0,,6.21,30.029528,,,,,,,,,,,CAVOK,,,,,,,,VFR,,,,,,,,,,,,METAR,68.0
DTTD 180700Z 20008KT 8000 FEW030 27/M10 Q1017 RMK SIROCCO,DTTD,2015-04-18T07:00:00Z,32.32,10.4,27.0,-10.0,200,8,,4.97,30.029528,,,,,,,,,,,FEW,3000,,,,,,,MVFR,,,,,,,,,,,,METAR,301.0
DTTB 180700Z 18002KT CAVOK 16/12 Q1017,DTTB,2015-04-18T07:00:00Z,37.25,9.8,16.0,12.0,180,2,,6.21,30.029528,,,,,,,,,,,CAVOK,,,,,,,,VFR,,,,,,,,,,,,METAR,3.0
RPLB 180700Z 10008KT 9999 FEW025 SCT300 36/20 Q1008 NOSIG RMK A2977,RPLB,2015-04-18T07:00:00Z,14.8,120.27,36.0,20.0,100,8,,6.21,29.763779,,,,,,TRUE,,,,,FEW,2500,SCT,30000,,,,,VFR,,,,,,,,,,,,METAR,17.0
ZYTX 180700Z 24004MPS CAVOK 22/M03 Q1010 NOSIG,ZYTX,2015-04-18T07:00:00Z,41.63,123.48,22.0,-3.0,240,8,,6.21,29.822834,,,,,,TRUE,,,,,CAVOK,,,,,,,,VFR,,,,,,,,,,,,METAR,35.0
ZYTL 180700Z 11006MPS CAVOK 14/05 Q1012 NOSIG,ZYTL,2015-04-18T07:00:00Z,38.97,121.53,14.0,5.0,110,12,,6.21,29.88189,,,,,,TRUE,,,,,CAVOK,,,,,,,,VFR,,,,,,,,,,,,METAR,97.0
ZWWW 180700Z 35003MPS 240V050 CAVOK 18/00 Q1016 NOSIG,ZWWW,2015-04-18T07:00:00Z,43.88,87.47,18.0,0.0,350,6,,6.21,30.0,,,,,,TRUE,,,,,CAVOK,,,,,,,,VFR,,,,,,,,,,,,METAR,654.0
ZWSH 180700Z 10006MPS 070V140 6000 BKN040 19/M07 Q1014 NOSIG,ZWSH,2015-04-18T07:00:00Z,39.55,76.02,19.0,-7.0,100,12,,3.73,29.940945,,,,,,TRUE,,,,,BKN,4000,,,,,,,MVFR,,,,,,,,,,,,METAR,1291.0
UACK 180700Z 24010MPS 9999 OVC016CB 08/05 Q1004 R20/190060 NOSIG RMK QFE730/0973,UACK,2015-04-18T07:00:00Z,53.32,69.58,8.0,5.0,240,19,,6.21,29.64567,,,,,,TRUE,,,,,OVC,1600,,,,,,,MVFR,,,,,,,,,,,,METAR,2547.0
UACC 180700Z 21012MPS 9999 FEW026 BKN160 15/03 Q1010 R22/0/0070 NOSIG RMK QFE726/0969,UACC,2015-04-18T07:00:00Z,51.02,71.47,15.0,3.0,210,23,,6.21,29.822834,,,,,,TRUE,,,,,FEW,2600,BKN,16000,,,,,VFR,,,,,,,,,,,,METAR,355.0
UADD 180700Z 36002MPS 9999 NSC 15/05 Q1017 R13/0///65 NOSIG RMK QFE705/0941,UADD,2015-04-18T07:00:00Z,42.85,71.3,15.0,5.0,360,4,,6.21,30.029528,,,,,,TRUE,,,,,,,,,,,,,,,,,,,,,,,,,METAR,665.0
UAAH 180700Z 20005MPS CAVOK 17/03 Q1015 R05/0///60 NOSIG RMK QFE724/0966,UAAH,2015-04-18T07:00:00Z,46.9,75.0,17.0,3.0,200,10,,6.21,29.970472,,,,,,TRUE,,,,,CAVOK,,,,,,,,VFR,,,,,,,,,,,,METAR,441.0
UAOO 180700Z 35002MPS 9999 BKN033CB 17/07 Q1018 R24/CLRD70 NOSIG RMK QFE752/1002,UAOO,2015-04-18T07:00:00Z,44.7,65.6,17.0,7.0,350,4,,6.21,30.059055,,,,,,TRUE,,,,,BKN,3300,,,,,,,VFR,,,,,,,,,,,,METAR,129.0
UAKK 180700Z 23005MPS 190V290 CAVOK 11/02 Q1014 R23/0///70 NOSIG RMK QFE714/0952,UAKK,2015-04-18T07:00:00Z,49.67,73.33,11.0,2.0,230,10,,6.21,29.940945,,,,,,TRUE,,,,,CAVOK,,,,,,,,VFR,,,,,,,,,,,,METAR,538.0
UAII 180700Z 25002MPS 200V310 9999 BKN040CB OVC100 17/08 Q1018 R10/0///70 NOSIG RMK QFE728/0971,UAII,2015-04-18T07:00:00Z,42.37,69.48,17.0,8.0,250,4,,6.21,30.059055,,,,,,TRUE,,,,,BKN,4000,OVC,10000,,,,,VFR,,,,,,,,,,,,METAR,422.0
UAUU 180700Z 22009MPS 9999 BKN029CB OVC200 12/03 Q1002 R33/220050 NOSIG RMK QFE736/0981,UAUU,2015-04-18T07:00:00Z,53.2,63.55,12.0,3.0,220,17,,6.21,29.586615,,,,,,TRUE,,,,,BKN,2900,OVC,20000,,,,,MVFR,,,,,,,,,,,,METAR,182.0
UATT 180700Z 23010MPS 9999 BKN018CB 11/09 Q1007 R31/19//55 NOSIG RMK QFE735/0981,UATT,2015-04-18T07:00:00Z,50.25,57.2,11.0,9.0,230,19,,6.21,29.734253,,,,,,TRUE,,,,,BKN,1800,,,,,,,MVFR,,,,,,,,,,,,METAR,227.0
UATG 180700Z 23012MPS CAVOK 15/08 Q1012 R14/CLRD70 NOSIG RMK QFE761/1014,UATG,2015-04-18T07:00:00Z,47.12,51.83,15.0,8.0,230,23,,6.21,29.88189,,,,,,TRUE,,,,,CAVOK,,,,,,,,VFR,,,,,,,,,,,,METAR,-22.0
UATE 180700Z 18007MPS 9999 FEW006 12/07 Q1016 R12/0///70 NOSIG RMK QBB200 QFE760/1014,UATE,2015-04-18T07:00:00Z,43.87,51.1,12.0,7.0,180,14,,6.21,30.0,,,,,,TRUE,,,,,FEW,600,,,,,,,VFR,,,,,,,,,,,,METAR,22.0
UARR 180700Z 25004MPS 220V280 CAVOK 11/01 Q1007 R22/190065 NOSIG RMK QFE752/1002,UARR,2015-04-18T07:00:00Z,51.15,51.53,11.0,1.0,250,8,,6.21,29.734253,,,,,,TRUE,,,,,CAVOK,,,,,,,,VFR,,,,,,,,,,,,METAR,38.0
UASS 180700Z 19004MPS 150V220 CAVOK 16/03 Q1015 R26/0///60 NOSIG RMK QFE743/0991,UASS,2015-04-18T07:00:00Z,50.35,80.23,16.0,3.0,190,8,,6.21,29.970472,,,,,,TRUE,,,,,CAVOK,,,,,,,,VFR,,,,,,,,,,,,METAR,232.0
UASP 180700Z 22007MPS 9999 BKN040CB 14/M00 Q1012 R21/0///70 NOSIG RMK QFE748/0997,UASP,2015-04-18T07:00:00Z,52.2,77.07,14.0,0.0,220,14,,6.21,29.88189,,,,,,TRUE,,,,,BKN,4000,,,,,,,VFR,,,,,,,,,,,,METAR,125.0
UASK 180700Z 16005MPS 110V190 9999 BKN052CB BKN092 16/01 Q1017 R12/090060 NOSIG RMK QFE737/0983,UASK,2015-04-18T07:00:00Z,50.03,82.5,16.0,1.0,160,10,,6.21,30.029528,,,,,,TRUE,,,,,BKN,5200,BKN,9200,,,,,VFR,,,,,,,,,,,,METAR,286.0
GVNP 180700Z 02006KT 9999 FEW015 SCT200 20/17 Q1015 NOSIG,GVNP,2015-04-18T07:00:00Z,14.95,-23.48,20.0,17.0,20,6,,6.21,29.970472,,,,,,TRUE,,,,,FEW,1500,SCT,20000,,,,,VFR,,,,,,,,,,,,METAR,70.0
NFFN 180700Z 11008KT 9999 SCT030 26/22 Q1013 NOSIG,NFFN,2015-04-18T07:00:00Z,-17.75,177.45,26.0,22.0,110,8,,6.21,29.911417,,,,,,TRUE,,,,,SCT,3000,,,,,,,VFR,,,,,,,,,,,,METAR,18.0
GVSV 180700Z 07018KT 9999 SCT020 BKN200 20/14 Q1016 NOSIG,GVSV,2015-04-18T07:00:00Z,16.83,-25.07,20.0,14.0,70,18,,6.21,30.0,,,,,,TRUE,,,,,SCT,2000,BKN,20000,,,,,VFR,,,,,,,,,,,,METAR,20.0
ORBI 180700Z 32014KT CAVOK 25/05 Q1018 NOSIG,ORBI,2015-04-18T07:00:00Z,33.27,44.23,25.0,5.0,320,14,,6.21,30.059055,,,,,,TRUE,,,,,CAVOK,,,,,,,,VFR,,,,,,,,,,,,METAR,35.0
SBPS 180700Z 25004KT 9999 SCT020 24/23 Q1014,SBPS,2015-04-18T07:00:00Z,-16.43,-39.07,24.0,23.0,250,4,,6.21,29.940945,,,,,,,,,,,SCT,2000,,,,,,,VFR,,,,,,,,,,,,METAR,51.0
TBPB 180700Z 08019KT 9999 FEW018 BKN100 26/22 Q1014 NOSIG,TBPB,2015-04-18T07:00:00Z,13.07,-59.48,26.0,22.0,80,19,,6.21,29.940945,,,,,,TRUE,,,,,FEW,1800,BKN,10000,,,,,VFR,,,,,,,,,,,,METAR,52.0
NCPY 180700Z AUTO ///// //// ///// 28/23 Q1009,NCPY,2015-04-18T07:00:00Z,-9.02,-158.07,28.0,23.0,,,,,29.793306,,,TRUE,,,,,,,,,,,,,,,,,,,,,,,,,,,,METAR,2.0
NCMH 180700Z AUTO NIL,NCMH,2015-04-18T07:00:00Z,-10.38,-161.0,,,,,,,,,,TRUE,,,,,,,,,,,,,,,,,,,,,,,,,,,,METAR,0.0
NCAI 180700Z AUTO 12006KT //// ///// 25/21 Q1014,NCAI,2015-04-18T07:00:00Z,-18.82,-159.77,25.0,21.0,120,6,,,29.940945,,,TRUE,,,,,,,,,,,,,,,,,,,,,,,,,,,,METAR,6.0
NCRG 180700Z 17002KT 9999 VCSH SCT020 25/21 Q1015,NCRG,2015-04-18T07:00:00Z,-21.2,-159.82,25.0,21.0,170,2,,6.21,29.970472,,,,,,,,,,VCSH,SCT,2000,,,,,,,VFR,,,,,,,,,,,,METAR,7.0
OPPS 180700Z 00000KT 3600 HZ SCT100 BKN230 29/18 Q1006,OPPS,2015-04-18T07:00:00Z,34.02,71.52,29.0,18.0,0,0,,2.24,29.704725,,,,,,,,,,HZ,SCT,10000,BKN,23000,,,,,IFR,,,,,,,,,,,,METAR,360.0
TGPY 180700Z 08014KT 9999 FEW018 27/23 Q1013,TGPY,2015-04-18T07:00:00Z,12.0,-61.78,27.0,23.0,80,14,,6.21,29.911417,,,,,,,,,,,FEW,1800,,,,,,,VFR,,,,,,,,,,,,METAR,7.0
ORNI 180700Z 31015KT 7000 NSC 26/03 Q1018 NOSIG,ORNI,2015-04-18T07:00:00Z,31.98,44.4,26.0,3.0,310,15,,4.35,30.059055,,,,,,TRUE,,,,,,,,,,,,,,,,,,,,,,,,,METAR,53.0
SKBQ 180700Z 12004KT CAVOK 25/24 A2986,SKBQ,2015-04-18T07:00:00Z,10.9,-74.77,25.0,24.0,120,4,,6.21,29.861221,,,,,,,,,,,CAVOK,,,,,,,,VFR,,,,,,,,,,,,METAR,10.0
MPTO 180700Z 00000KT 9999 FEW020 25/24 Q1011 NOSIG,MPTO,2015-04-18T07:00:00Z,9.05,-79.37,25.0,24.0,0,0,,6.21,29.852362,,,,,,TRUE,,,,,FEW,2000,,,,,,,VFR,,,,,,,,,,,,METAR,45.0
OPRN 180700Z 23008KT 6000 SCT100 BKN200 27/13 Q1008.1/29.77,OPRN,2015-04-18T07:00:00Z,33.62,73.08,27.0,13.0,230,8,,3.73,,,,,,,,,,,,SCT,10000,BKN,20000,,,,,MVFR,,,,,,,,,,,,SPECI,508.0
SAZS 180700Z 32020KT 9999 BKN030 BKN100 05/01 Q1007,SAZS,2015-04-18T07:00:00Z,-41.13,-71.17,5.0,1.0,320,20,,6.21,29.734253,,,,,,,,,,,BKN,3000,BKN,10000,,,,,MVFR,,,,,,,,,,,,METAR,840.0
KONX 180700Z AUTO 00000KT 10SM SCT040 SCT048 18/17 A2997 RMK AO2 T01790166,KONX,2015-04-18T07:00:00Z,36.4,-76.02,17.9,16.6,0,0,,10.0,29.970472,,,TRUE,TRUE,,,,,,,SCT,4000,SCT,4800,,,,,VFR,,,,,,,,,,,,METAR,5.0
SPIM 180700Z 17008KT 8000 OVC005 20/19 Q1011 NOSIG RMK PP000,SPIM,2015-04-18T07:00:00Z,-12.02,-77.12,20.0,19.0,170,8,,4.97,29.852362,,,,,,TRUE,,,,,OVC,500,,,,,,,IFR,,,,,,,,,,,,METAR,13.0
LEVS 180700Z 18003KT 150V210 9999 SCT050 11/09 Q1015,LEVS,2015-04-18T07:00:00Z,40.37,-3.77,11.0,9.0,180,3,,6.21,29.970472,,,,,,,,,,,SCT,5000,,,,,,,VFR,,,,,,,,,,,,METAR,687.0
LEVD 180700Z 27006KT 9999 FEW027 SCT032 07/04 Q1015,LEVD,2015-04-18T07:00:00Z,41.72,-4.83,7.0,4.0,270,6,,6.21,29.970472,,,,,,,,,,,FEW,2700,SCT,3200,,,,,VFR,,,,,,,,,,,,METAR,854.0
LEVX 180700Z 18004KT 150V230 2400 -SHRA BR SCT003 BKN014TCU BKN025 08/08 Q1014 TEMPO NSW,LEVX,2015-04-18T07:00:00Z,42.22,-8.62,8.0,8.0,180,4,,1.49,29.940945,,,,,,,,,,-SHRA BR,SCT,300,BKN,1400,BKN,2500,,,IFR,,,,,,,,,,,,METAR,256.0
LEIB 180700Z 00000KT CAVOK 16/13 Q1015 NOSIG,LEIB,2015-04-18T07:00:00Z,38.87,1.37,16.0,13.0,0,0,,6.21,29.970472,,,,,,TRUE,,,,,CAVOK,,,,,,,,VFR,,,,,,,,,,,,METAR,12.0
LEAL 180700Z 00000KT CAVOK 16/11 Q1015 NOSIG,LEAL,2015-04-18T07:00:00Z,38.27,-0.55,16.0,11.0,0,0,,6.21,29.970472,,,,,,TRUE,,,,,CAVOK,,,,,,,,VFR,,,,,,,,,,,,METAR,31.0
LEVC 180700Z 29003KT 260V320 CAVOK 14/10 Q1016 NOSIG,LEVC,2015-04-18T07:00:00Z,39.5,-0.47,14.0,10.0,290,3,,6.21,30.0,,,,,,TRUE,,,,,CAVOK,,,,,,,,VFR,,,,,,,,,,,,METAR,62.0
LEMG 180700Z 28004KT 9000 FEW045 13/12 Q1016 NOSIG,LEMG,2015-04-18T07:00:00Z,36.67,-4.5,13.0,12.0,280,4,,5.59,30.0,,,,,,TRUE,,,,,FEW,4500,,,,,,,VFR,,,,,,,,,,,,METAR,7.0
LEZL 180700Z VRB01KT CAVOK 13/10 Q1016 NOSIG,LEZL,2015-04-18T07:00:00Z,37.42,-5.9,13.0,10.0,0,1,,6.21,30.0,,,,,,TRUE,,,,,CAVOK,,,,,,,,VFR,,,,,,,,,,,,METAR,31.0
LEPA 180700Z 04003KT 010V070 9999 0500N BCFG FEW001 13/13 Q1016 NOSIG,LEPA,2015-04-18T07:00:00Z,39.53,2.72,13.0,13.0,40,3,,6.21,30.0,,,,,,TRUE,,,,BCFG,FEW,100,,,,,,,VFR,,,,,,,,,,,,METAR,8.0
LEBL 180700Z 32006KT 8000 FEW050 14/10 Q1016 NOSIG,LEBL,2015-04-18T07:00:00Z,41.27,2.07,14.0,10.0,320,6,,4.97,30.0,,,,,,TRUE,,,,,FEW,5000,,,,,,,MVFR,,,,,,,,,,,,METAR,6.0
LEMD 180700Z 00000KT 9999 FEW050 10/07 Q1015 NOSIG,LEMD,2015-04-18T07:00:00Z,40.48,-3.57,10.0,7.0,0,0,,6.21,29.970472,,,,,,TRUE,,,,,FEW,5000,,,,,,,VFR,,,,,,,,,,,,METAR,582.0
LEGR 180700Z VRB01KT 8000 NSC 10/09 Q1017,LEGR,2015-04-18T07:00:00Z,37.17,-3.77,10.0,9.0,0,1,,4.97,30.029528,,,,,,,,,,,,,,,,,,,,,,,,,,,,,,,METAR,559.0
LEAM 180700Z 33004KT 9999 FEW015 17/12 Q1015,LEAM,2015-04-18T07:00:00Z,36.85,-2.37,17.0,12.0,330,4,,6.21,29.970472,,,,,,,,,,,FEW,1500,,,,,,,VFR,,,,,,,,,,,,METAR,21.0
LEMH 180700Z 00000KT 0500 R01/0650U FG VV001 13/13 Q1016,LEMH,2015-04-18T07:00:00Z,39.87,4.22,13.0,13.0,0,0,,0.31,30.0,,,,,,,,,,FG,OVX,0,,,,,,,LIFR,,,,,,,,,,,100,METAR,82.0
LERS 180700Z 02004KT 340V040 9999 FEW052 14/11 Q1016,LERS,2015-04-18T07:00:00Z,41.13,1.17,14.0,11.0,20,4,,6.21,30.0,,,,,,,,,,,FEW,5200,,,,,,,VFR,,,,,,,,,,,,METAR,76.0
LEVT 180700Z VRB02KT 9999 FEW070 10/10 Q1014,LEVT,2015-04-18T07:00:00Z,42.87,-2.72,10.0,10.0,0,2,,6.21,29.940945,,,,,,,,,,,FEW,7000,,,,,,,VFR,,,,,,,,,,,,METAR,509.0
LESO 180700Z 19003KT CAVOK 12/12 Q1014,LESO,2015-04-18T07:00:00Z,43.35,-1.8,12.0,12.0,190,3,,6.21,29.940945,,,,,,,,,,,CAVOK,,,,,,,,VFR,,,,,,,,,,,,METAR,8.0
LEZG 180700Z 09004KT 9999 SCT080 13/10 Q1015,LEZG,2015-04-18T07:00:00Z,41.67,-1.02,13.0,10.0,90,4,,6.21,29.970472,,,,,,,,,,,SCT,8000,,,,,,,VFR,,,,,,,,,,,,METAR,258.0
LEST 180700Z 16006KT 9999 SCT035 SCT042 07/06 Q1013 TEMPO RA,LEST,2015-04-18T07:00:00Z,42.88,-8.42,7.0,6.0,160,6,,6.21,29.911417,,,,,,,,,,,SCT,3500,SCT,4200,,,,,VFR,,,,,,,,,,,,METAR,367.0
LEGE 180700Z 00000KT 9000 FEW012 12/12 Q1016,LEGE,2015-04-18T07:00:00Z,41.88,2.77,12.0,12.0,0,0,,5.59,30.0,,,,,,,,,,,FEW,1200,,,,,,,VFR,,,,,,,,,,,,METAR,129.0
LECO 180700Z VRB02KT 9999 SCT028 SCT048 10/07 Q1014 NOSIG,LECO,2015-04-18T07:00:00Z,43.28,-8.37,10.0,7.0,0,2,,6.21,29.940945,,,,,,TRUE,,,,,SCT,2800,SCT,4800,,,,,VFR,,,,,,,,,,,,METAR,103.0
LEBB 180700Z 14005KT 110V170 9999 FEW015 13/12 Q1013 NOSIG,LEBB,2015-04-18T07:00:00Z,43.28,-2.92,13.0,12.0,140,5,,6.21,29.911417,,,,,,TRUE,,,,,FEW,1500,,,,,,,VFR,,,,,,,,,,,,METAR,34.0
LEAS 180700Z 23008KT 9999 FEW022 SCT060 10/09 Q1014 NOSIG,LEAS,2015-04-18T07:00:00Z,43.53,-6.02,10.0,9.0,230,8,,6.21,29.940945,,,,,,TRUE,,,,,FEW,2200,SCT,6000,,,,,VFR,,,,,,,,,,,,METAR,134.0
OITZ 180700Z 30006KT 8000 SCT040 13/01 Q1019,OITZ,2015-04-18T07:00:00Z,36.77,48.37,13.0,1.0,300,6,,4.97,30.088583,,,,,,,,,,,SCT,4000,,,,,,,MVFR,,,,,,,,,,,,METAR,1663.0
OISY 180700Z 00000KT 6000 -RA SCT040 OVC080 11/07 Q1024,OISY,2015-04-18T07:00:00Z,30.7,51.55,11.0,7.0,0,0,,3.73,30.236221,,,,,,,,,,-RA,SCT,4000,OVC,8000,,,,,MVFR,,,,,,,,,,,,METAR,1811.0
OINR 180700Z 08012KT 4000 HZ FEW035TCU 15/11 Q1016,OINR,2015-04-18T07:00:00Z,36.88,50.67,15.0,11.0,80,12,,2.49,30.0,,,,,,,,,,HZ,FEW,3500,,,,,,,IFR,,,,,,,,,,,,METAR,-20.0
OINN 180700Z 08010KT 6000 FEW025 15/10 Q1016,OINN,2015-04-18T07:00:00Z,36.67,51.47,15.0,10.0,80,10,,3.73,30.0,,,,,,,,,,,FEW,2500,,,,,,,MVFR,,,,,,,,,,,,METAR,-19.0
OIKQ 180700Z 22012KT 5000 HZ SKC 31/25 Q1008,OIKQ,2015-04-18T07:00:00Z,26.75,55.9,31.0,25.0,220,12,,3.11,29.763779,,,,,,,,,,HZ,SKC,,,,,,,,MVFR,,,,,,,,,,,,METAR,12.0
OICI 180700Z 31010KT CAVOK 17/M01 Q1020 A3013,OICI,2015-04-18T07:00:00Z,33.58,46.4,17.0,-1.0,310,10,,6.21,30.11811,,,,,,,,,,,CAVOK,,,,,,,,VFR,,,,,,,,,,,,METAR,1343.0
OIAM 180700Z 33012KT 9999 FEW040 BKN100 27/14 Q1013,OIAM,2015-04-18T07:00:00Z,30.55,49.15,27.0,14.0,330,12,,6.21,29.911417,,,,,,,,,,,FEW,4000,BKN,10000,,,,,VFR,,,,,,,,,,,,METAR,4.0
OIAG 180700Z 32014KT 9999 FEW035CB BKN040 26/06 Q1014,OIAG,2015-04-18T07:00:00Z,30.77,49.67,26.0,6.0,320,14,,6.21,29.940945,,,,,,,,,,,FEW,3500,BKN,4000,,,,,VFR,,,,,,,,,,,,METAR,29.0
OIZI 180700Z 25006KT CAVOK 34/00 Q1012,OIZI,2015-04-18T07:00:00Z,27.23,60.72,34.0,0.0,250,6,,6.21,29.88189,,,,,,,,,,,CAVOK,,,,,,,,VFR,,,,,,,,,,,,METAR,591.0
OIZB 180700Z 36021KT 6000 NSC 30/10 Q1014,OIZB,2015-04-18T07:00:00Z,31.1,61.55,30.0,10.0,360,21,,3.73,29.940945,,,,,,,,,,,,,,,,,,,,,,,,,,,,,,,METAR,489.0
OING 180700Z 03008KT 8000 FEW040 20/13 Q1018,OING,2015-04-18T07:00:00Z,36.9,54.4,20.0,13.0,30,8,,4.97,30.059055,,,,,,,,,,,FEW,4000,,,,,,,MVFR,,,,,,,,,,,,METAR,155.0
OIBS 180700Z 24012KT CAVOK 31/20 Q1009,OIBS,2015-04-18T07:00:00Z,25.9,54.55,31.0,20.0,240,12,,6.21,29.793306,,,,,,,,,,,CAVOK,,,,,,,,VFR,,,,,,,,,,,,METAR,14.0
OIBJ 180700Z 22006KT 7000 NSC 32/04 Q1014,OIBJ,2015-04-18T07:00:00Z,27.82,52.35,32.0,4.0,220,6,,4.35,29.940945,,,,,,,,,,,,,,,,,,,,,,,,,,,,,,,METAR,663.0
OIZJ 180700Z 27006KT 8000 SKC 32/22 Q1007,OIZJ,2015-04-18T07:00:00Z,25.65,57.8,32.0,22.0,270,6,,4.97,29.734253,,,,,,,,,,,SKC,,,,,,,,MVFR,,,,,,,,,,,,METAR,4.0
OIMN 180700Z 18002KT 7000 FEW020 FEW045TCU 16/07 Q1018,OIMN,2015-04-18T07:00:00Z,37.48,57.3,16.0,7.0,180,2,,4.35,30.059055,,,,,,,,,,,FEW,2000,FEW,4500,,,,,MVFR,,,,,,,,,,,,METAR,1074.0
OIMB 180700Z 14004KT 9999 FEW030 OVC090 17/09 Q1019,OIMB,2015-04-18T07:00:00Z,32.9,59.28,17.0,9.0,140,4,,6.21,30.088583,,,,,,,,,,,FEW,3000,OVC,9000,,,,,VFR,,,,,,,,,,,,METAR,1491.0
OIIP 180700Z 32014KT 5000 DU SKC 17/00 Q1016,OIIP,2015-04-18T07:00:00Z,35.78,50.83,17.0,0.0,320,14,,3.11,30.0,,,,,,,,,,DU,SKC,,,,,,,,MVFR,,,,,,,,,,,,METAR,1271.0
OIFS 180700Z 19016KT 9999 FEW035 BKN190 14/04 Q1019,OIFS,2015-04-18T07:00:00Z,32.32,50.85,14.0,4.0,190,16,,6.21,30.088583,,,,,,,,,,,FEW,3500,BKN,19000,,,,,VFR,,,,,,,,,,,,METAR,2078.0
OIBV 180700Z 29019KT 6000 SKC 30/17 Q1009,OIBV,2015-04-18T07:00:00Z,26.82,53.35,30.0,17.0,290,19,,3.73,29.793306,,,,,,,,,,,SKC,,,,,,,,MVFR,,,,,,,,,,,,METAR,24.0
OIBA 180700Z 26006KT 8000 SKC 30/22 Q1008,OIBA,2015-04-18T07:00:00Z,25.88,55.03,30.0,22.0,260,6,,4.97,29.763779,,,,,,,,,,,SKC,,,,,,,,MVFR,,,,,,,,,,,,METAR,7.0
LRTR 180700Z 34009KT 310V020 9999 FEW013 BKN030 11/08 Q1011 R11/290095,LRTR,2015-04-18T07:00:00Z,45.82,21.33,11.0,8.0,340,9,,6.21,29.852362,,,,,,,,,,,FEW,1300,BKN,3000,,,,,MVFR,,,,,,,,,,,,METAR,88.0
LRBS 180700Z 27017KT 240V310 CAVOK 18/08 Q1007 NOSIG,LRBS,2015-04-18T07:00:00Z,44.5,26.08,18.0,8.0,270,17,,6.21,29.734253,,,,,,TRUE,,,,,CAVOK,,,,,,,,VFR,,,,,,,,,,,,METAR,91.0
LRSB 180700Z 27010KT 9999 -RA SCT033 OVC040 12/08 Q1008 R27/29//95,LRSB,2015-04-18T07:00:00Z,45.78,24.08,12.0,8.0,270,10,,6.21,29.763779,,,,,,,,,,-RA,SCT,3300,OVC,4000,,,,,VFR,,,,,,,,,,,,METAR,444.0
LROP 180700Z 26020KT 9999 FEW050CB 17/09 Q1007 NOSIG,LROP,2015-04-18T07:00:00Z,44.57,26.1,17.0,9.0,260,20,,6.21,29.734253,,,,,,TRUE,,,,,FEW,5000,,,,,,,VFR,,,,,,,,,,,,METAR,95.0
LRCK 180700Z 25013KT CAVOK 18/11 Q1006 NOSIG,LRCK,2015-04-18T07:00:00Z,44.37,28.48,18.0,11.0,250,13,,6.21,29.704725,,,,,,TRUE,,,,,CAVOK,,,,,,,,VFR,,,,,,,,,,,,METAR,108.0
LFRU 180700Z AUTO 08013KT 5000 -RA BR OVC007/// ///TCU 09/08 Q1018,LFRU,2015-04-18T07:00:00Z,48.6,-3.82,9.0,8.0,80,13,,3.11,30.059055,,,TRUE,,,,,,,-RA BR,,,,,,,,,,,,,,,,,,,,,METAR,86.0
LFRK 180700Z AUTO 08011KT 9999 NSC 09/03 Q1022,LFRK,2015-04-18T07:00:00Z,49.17,-0.45,9.0,3.0,80,11,,6.21,30.177166,,,TRUE,,,,,,,,,,,,,,,,,,,,,,,,,,,,METAR,67.0
LFRG 180700Z AUTO 10008KT 070V150 9999 NSC 08/03 Q1022,LFRG,2015-04-18T07:00:00Z,49.37,0.15,8.0,3.0,100,8,,6.21,30.177166,,,TRUE,,,,,,,,,,,,,,,,,,,,,,,,,,,,METAR,146.0
LFRC 180700Z AUTO 07017KT 9999 NSC 08/05 Q1022,LFRC,2015-04-18T07:00:00Z,49.63,-1.47,8.0,5.0,70,17,,6.21,30.177166,,,TRUE,,,,,,,,,,,,,,,,,,,,,,,,,,,,METAR,138.0
LFPN 180700Z AUTO 06010KT CAVOK 09/01 Q1022,LFPN,2015-04-18T07:00:00Z,48.75,2.12,9.0,1.0,60,10,,6.21,30.177166,,,TRUE,,,,,,,,CAVOK,,,,,,,,VFR,,,,,,,,,,,,METAR,164.0
LFOT 180700Z AUTO 06008KT 030V090 9000 OVC019 09/06 Q1018,LFOT,2015-04-18T07:00:00Z,47.43,0.72,9.0,6.0,60,8,,5.59,30.059055,,,TRUE,,,,,,,,OVC,1900,,,,,,,MVFR,,,,,,,,,,,,METAR,108.0
LFMH 180700Z VRB03KT 9999 BKN016 11/09 Q1017 NOSIG,LFMH,2015-04-18T07:00:00Z,45.52,4.28,11.0,9.0,0,3,,6.21,30.029528,,,,,,TRUE,,,,,BKN,1600,,,,,,,MVFR,,,,,,,,,,,,METAR,402.0
LFMD 180700Z AUTO 00000KT 9999 BKN017 15/12 Q1012,LFMD,2015-04-18T07:00:00Z,43.53,6.95,15.0,12.0,0,0,,6.21,29.88189,,,TRUE,,,,,,,,BKN,1700,,,,,,,MVFR,,,,,,,,,,,,METAR,9.0
LFJR 180700Z AUTO 07008KT 9999 OVC018 10/05 Q1018,LFJR,2015-04-18T07:00:00Z,47.57,-0.3,10.0,5.0,70,8,,6.21,30.059055,,,TRUE,,,,,,,,OVC,1800,,,,,,,MVFR,,,,,,,,,,,,METAR,60.0
LFGJ 180700Z AUTO 03013KT 9999 NSC 10/07 Q1018,LFGJ,2015-04-18T07:00:00Z,47.05,5.43,10.0,7.0,30,13,,6.21,30.059055,,,TRUE,,,,,,,,,,,,,,,,,,,,,,,,,,,,METAR,196.0
LFBE 180700Z AUTO 05004KT 0350 R28/0650N FG VV/// 08/08 Q1016,LFBE,2015-04-18T07:00:00Z,44.82,0.52,8.0,8.0,50,4,,0.22,30.0,,,TRUE,,,,,,,FG,OVX,0,,,,,,,LIFR,,,,,,,,,,,,METAR,52.0
LFBA 180700Z AUTO VRB01KT 9000 FEW003 BKN120 OVC140 09/09 Q1015,LFBA,2015-04-18T07:00:00Z,44.17,0.6,9.0,9.0,0,1,,5.59,29.970472,,,TRUE,,,,,,,,FEW,300,BKN,12000,OVC,14000,,,VFR,,,,,,,,,,,,METAR,60.0
LFTH 180700Z AUTO 29004KT 260V330 9999 NSC 18/09 Q1013,LFTH,2015-04-18T07:00:00Z,43.1,6.15,18.0,9.0,290,4,,6.21,29.911417,,,TRUE,,,,,,,,,,,,,,,,,,,,,,,,,,,,METAR,4.0
LFST 180700Z AUTO 04009KT 9999 NSC 09/02 Q1023,LFST,2015-04-18T07:00:00Z,48.53,7.62,9.0,2.0,40,9,,6.21,30.206694,,,TRUE,,,,,,,,,,,,,,,,,,,,,,,,,,,,METAR,154.0
LFSG 180700Z AUTO 05012KT 9999 NSC 06/01 Q1021,LFSG,2015-04-18T07:00:00Z,48.33,6.07,6.0,1.0,50,12,,6.21,30.147638,,,TRUE,,,,,,,,,,,,,,,,,,,,,,,,,,,,METAR,330.0
LFSB 180700Z 34006KT 9999 FEW011 SCT020 BKN043 07/05 Q1021 NOSIG,LFSB,2015-04-18T07:00:00Z,47.6,7.52,7.0,5.0,340,6,,6.21,30.147638,,,,,,TRUE,,,,,FEW,1100,SCT,2000,BKN,4300,,,VFR,,,,,,,,,,,,METAR,271.0
LFRZ 180700Z AUTO 08011KT 9999 BKN017 OVC022 11/08 Q1017,LFRZ,2015-04-18T07:00:00Z,47.32,-2.17,11.0,8.0,80,11,,6.21,30.029528,,,TRUE,,,,,,,,BKN,1700,OVC,2200,,,,,MVFR,,,,,,,,,,,,METAR,4.0
LFRV 180700Z AUTO 07012KT 9999 BKN016 OVC021 09/08 Q1017,LFRV,2015-04-18T07:00:00Z,47.72,-2.72,9.0,8.0,70,12,,6.21,30.029528,,,TRUE,,,,,,,,BKN,1600,OVC,2100,,,,,MVFR,,,,,,,,,,,,METAR,133.0
LFRO 180700Z AUTO 07011KT 040V100 6000 -RA BKN009/// BKN027/// BKN040/// ///CB 09/07 Q1019,LFRO,2015-04-18T07:00:00Z,48.75,-3.47,9.0,7.0,70,11,,3.73,30.088583,,,TRUE,,,,,,,-RA,,,,,,,,,,,,,,,,,,,,,METAR,89.0
LFRN 180700Z AUTO 08007KT 9999 OVC027/// ///TCU 10/07 Q1019,LFRN,2015-04-18T07:00:00Z,48.07,-1.72,10.0,7.0,80,7,,6.21,30.088583,,,TRUE,,,,,,,,,,,,,,,,,,,,,,,,,,,,METAR,37.0
LFRM 180700Z AUTO 07010KT 9999 NSC 10/03 Q1019,LFRM,2015-04-18T07:00:00Z,47.95,0.2,10.0,3.0,70,10,,6.21,30.088583,,,TRUE,,,,,,,,,,,,,,,,,,,,,,,,,,,,METAR,52.0
LFRI 180700Z AUTO 06006KT 3900 BR OVC005 12/12 Q1017,LFRI,2015-04-18T07:00:00Z,46.7,-1.37,12.0,12.0,60,6,,2.42,30.029528,,,TRUE,,,,,,,BR,OVC,500,,,,,,,IFR,,,,,,,,,,,,METAR,91.0
LFRD 180700Z AUTO 08013KT 9999 NSC 10/06 Q1019,LFRD,2015-04-18T07:00:00Z,48.58,-2.07,10.0,6.0,80,13,,6.21,30.088583,,,TRUE,,,,,,,,,,,,,,,,,,,,,,,,,,,,METAR,59.0
LFOV 180700Z AUTO 07012KT 9999 OVC049 10/04 Q1019,LFOV,2015-04-18T07:00:00Z,48.03,-0.75,10.0,4.0,70,12,,6.21,30.088583,,,TRUE,,,,,,,,OVC,4900,,,,,,,VFR,,,,,,,,,,,,METAR,101.0
LFMK 180700Z AUTO 00000KT 9999 NSC 12/11 Q1015,LFMK,2015-04-18T07:00:00Z,43.22,2.32,12.0,11.0,0,0,,6.21,29.970472,,,TRUE,,,,,,,,,,,,,,,,,,,,,,,,,,,,METAR,130.0
LFMI 180700Z AUTO 34010KT 9999 NSC 15/12 Q1014,LFMI,2015-04-18T07:00:00Z,43.52,4.92,15.0,12.0,340,10,,6.21,29.940945,,,TRUE,,,,,,,,,,,,,,,,,,,,,,,,,,,,METAR,24.0
LFTW 180700Z AUTO 31004KT 9999 NSC 14/10 Q1015,LFTW,2015-04-18T07:00:00Z,43.75,4.42,14.0,10.0,310,4,,6.21,29.970472,,,TRUE,,,,,,,,,,,,,,,,,,,,,,,,,,,,METAR,96.0
LFSD 180700Z AUTO 35010KT 9999 NSC 08/04 Q1019,LFSD,2015-04-18T07:00:00Z,47.27,5.07,8.0,4.0,350,10,,6.21,30.088583,,,TRUE,,,,,,,,,,,,,,,,,,,,,,,,,,,,METAR,227.0
LFRT 180700Z AUTO 07009KT 6000 FEW012/// SCT029/// ///CB 09/07 Q1019,LFRT,2015-04-18T07:00:00Z,48.52,-2.85,9.0,7.0,70,9,,3.73,30.088583,,,TRUE,,,,,,,,,,,,,,,,,,,,,,,,,,,,METAR,136.0
LFRQ 180700Z AUTO 08009KT 9000 OVC010 09/08 Q1018,LFRQ,2015-04-18T07:00:00Z,47.97,-4.17,9.0,8.0,80,9,,5.59,30.059055,,,TRUE,,,,,,,,OVC,1000,,,,,,,MVFR,,,,,,,,,,,,METAR,94.0
LFRH 180700Z AUTO 07010KT 9999 OVC017 09/08 Q1017,LFRH,2015-04-18T07:00:00Z,47.77,-3.45,9.0,8.0,70,10,,6.21,30.029528,,,TRUE,,,,,,,,OVC,1700,,,,,,,MVFR,,,,,,,,,,,,METAR,44.0
LFPT 180700Z AUTO 00000KT 9999 NSC 08/02 Q1023,LFPT,2015-04-18T07:00:00Z,49.1,2.03,8.0,2.0,0,0,,6.21,30.206694,,,TRUE,,,,,,,,,,,,,,,,,,,,,,,,,,,,METAR,99.0
LFPM 180700Z AUTO 07009KT 9999 NSC 10/02 Q1022,LFPM,2015-04-18T07:00:00Z,48.62,2.67,10.0,2.0,70,9,,6.21,30.177166,,,TRUE,,,,,,,,,,,,,,,,,,,,,,,,,,,,METAR,92.0
LFLN 180700Z AUTO 03010KT 9999 BKN024 OVC100 11/09 Q1017,LFLN,2015-04-18T07:00:00Z,46.42,4.02,11.0,9.0,30,10,,6.21,30.029528,,,TRUE,,,,,,,,BKN,2400,OVC,10000,,,,,MVFR,,,,,,,,,,,,METAR,244.0
LFGA 180700Z AUTO 02008KT 9999 NSC 08/02 Q1022,LFGA,2015-04-18T07:00:00Z,48.1,7.35,8.0,2.0,20,8,,6.21,30.177166,,,TRUE,,,,,,,,,,,,,,,,,,,,,,,,,,,,METAR,191.0
LFBU 180700Z AUTO VRB03KT 6000 NSC 11/10 Q1016,LFBU,2015-04-18T07:00:00Z,45.72,0.22,11.0,10.0,0,3,,3.73,30.0,,,TRUE,,,,,,,,,,,,,,,,,,,,,,,,,,,,METAR,133.0
LFAT 180700Z AUTO 03008KT 9999 NSC 08/02 Q1026,LFAT,2015-04-18T07:00:00Z,50.52,1.62,8.0,2.0,30,8,,6.21,30.295275,,,TRUE,,,,,,,,,,,,,,,,,,,,,,,,,,,,METAR,14.0
LFAQ 180700Z AUTO 05014KT 9999 NSC 06/02 Q1025,LFAQ,2015-04-18T07:00:00Z,49.97,2.7,6.0,2.0,50,14,,6.21,30.265747,,,TRUE,,,,,,,,,,,,,,,,,,,,,,,,,,,,METAR,111.0
OITT 180700Z 23004KT 700 CHECK TEXT NEW ENDING ADDED VABBYFYX,OITT,2015-04-18T07:00:00Z,38.13,46.23,,,230,4,,,,,,,,,,,,,VA,,,,,,,,,,,,,,,,,,,,,METAR,1361.0
OISS 180700Z 00000KT 4000 DU NSC 26/01 Q1017 A3005,OISS,2015-04-18T07:00:00Z,29.52,52.57,26.0,1.0,0,0,,2.49,30.029528,,,,,,,,,,DU,,,,,,,,,,,,,,,,,,,,,METAR,1491.0
OIMM 180700Z 15006KT 9999 FEW040 BKN200 18/04 Q1018 A3007,OIMM,2015-04-18T07:00:00Z,36.23,59.62,18.0,4.0,150,6,,6.21,30.059055,,,,,,,,,,,FEW,4000,BKN,20000,,,,,VFR,,,,,,,,,,,,METAR,980.0
OIKK 180700Z 25008KT 5000 HZ FEW040 SCT100 25/01 Q1020 A3013,OIKK,2015-04-18T07:00:00Z,30.25,56.97,25.0,1.0,250,8,,3.11,30.11811,,,,,,,,,,HZ,FEW,4000,SCT,10000,,,,,MVFR,,,,,,,,,,,,METAR,1754.0
OIKB 180700Z 36004KT 5000 HZ SKC 34/19 Q1008 A2978 NOSIG,OIKB,2015-04-18T07:00:00Z,27.22,56.37,34.0,19.0,360,4,,3.11,29.763779,,,,,,TRUE,,,,HZ,SKC,,,,,,,,MVFR,,,,,,,,,,,,METAR,10.0
OIII 180700Z 27013KT 5000 HZ NSC 19/M03 Q1016 A3000,OIII,2015-04-18T07:00:00Z,35.68,51.3,19.0,-3.0,270,13,,3.11,30.0,,,,,,,,,,HZ,,,,,,,,,,,,,,,,,,,,,METAR,1191.0
OIFM 180700Z 11006KT 9999 FEW035 16/07 Q1018 A3007,OIFM,2015-04-18T07:00:00Z,32.75,51.87,16.0,7.0,110,6,,6.21,30.059055,,,,,,,,,,,FEW,3500,,,,,,,VFR,,,,,,,,,,,,METAR,1542.0
OIAW 180700Z 33006KT CAVOK 26/12 Q1013,OIAW,2015-04-18T07:00:00Z,31.32,48.77,26.0,12.0,330,6,,6.21,29.911417,,,,,,,,,,,CAVOK,,,,,,,,VFR,,,,,,,,,,,,METAR,22.0
OITL 180700Z 25004KT 9999 FEW035 15/04 Q1019,OITL,2015-04-18T07:00:00Z,38.33,48.42,15.0,4.0,250,4,,6.21,30.088583,,,,,,,,,,,FEW,3500,,,,,,,VFR,,,,,,,,,,,,METAR,1316.0
OISR 180700Z 00000KT CAVOK 35/10 Q1012,OISR,2015-04-18T07:00:00Z,27.37,53.2,35.0,10.0,0,0,,6.21,29.88189,,,,,,,,,,,CAVOK,,,,,,,,VFR,,,,,,,,,,,,METAR,408.0
OINZ 180700Z 06006KT CAVOK 18/11 Q1016,OINZ,2015-04-18T07:00:00Z,36.63,53.2,18.0,11.0,60,6,,6.21,30.0,,,,,,,,,,,CAVOK,,,,,,,,VFR,,,,,,,,,,,,METAR,11.0
OIHH 180700Z 35004KT 5000 DU FEW040 13/M03 Q1020,OIHH,2015-04-18T07:00:00Z,34.87,48.55,13.0,-3.0,350,4,,3.11,30.11811,,,,,,,,,,DU,FEW,4000,,,,,,,MVFR,,,,,,,,,,,,METAR,1757.0
OICS 180700Z 23002KT 7000 FEW040 14/M01 Q1020,OICS,2015-04-18T07:00:00Z,35.25,47.02,14.0,-1.0,230,2,,4.35,30.11811,,,,,,,,,,,FEW,4000,,,,,,,MVFR,,,,,,,,,,,,METAR,1373.0
OICK 180700Z 00000KT CAVOK 17/05 Q1019,OICK,2015-04-18T07:00:00Z,33.43,48.28,17.0,5.0,0,0,,6.21,30.088583,,,,,,,,,,,CAVOK,,,,,,,,VFR,,,,,,,,,,,,METAR,1155.0
OIBB 180700Z 31016KT CAVOK 26/16 Q1011 A2988,OIBB,2015-04-18T07:00:00Z,28.97,50.82,26.0,16.0,310,16,,6.21,29.852362,,,,,,,,,,,CAVOK,,,,,,,,VFR,,,,,,,,,,,,METAR,19.0
LRTM 180700Z 29011KT 9999 -RA SCT016 SCT047 11/08 Q1008 R07/29//95,LRTM,2015-04-18T07:00:00Z,46.47,24.42,11.0,8.0,290,11,,6.21,29.763779,,,,,,,,,,-RA,SCT,1600,SCT,4700,,,,,VFR,,,,,,,,,,,,METAR,309.0
LRSM 180700Z 35013KT CAVOK 10/04 Q1010 R01/25//95,LRSM,2015-04-18T07:00:00Z,47.7,22.88,10.0,4.0,350,13,,6.21,29.822834,,,,,,,,,,,CAVOK,,,,,,,,VFR,,,,,,,,,,,,METAR,124.0
LROD 180700Z 36010KT 340V040 CAVOK 09/03 Q1012,LROD,2015-04-18T07:00:00Z,47.03,21.92,9.0,3.0,360,10,,6.21,29.88189,,,,,,,,,,,CAVOK,,,,,,,,VFR,,,,,,,,,,,,METAR,140.0
LRCL 180700Z 29019KT 9999 FEW016 SCT058 10/07 Q1009 R07/19//95,LRCL,2015-04-18T07:00:00Z,46.78,23.68,10.0,7.0,290,19,,6.21,29.793306,,,,,,,,,,,FEW,1600,SCT,5800,,,,,VFR,,,,,,,,,,,,METAR,413.0
LRBM 180700Z 30006KT 260V330 9999 FEW020 11/06 Q1009,LRBM,2015-04-18T07:00:00Z,47.67,23.47,11.0,6.0,300,6,,6.21,29.793306,,,,,,,,,,,FEW,2000,,,,,,,VFR,,,,,,,,,,,,METAR,185.0
LRAR 180700Z 36014KT 9999 FEW010 SCT045 10/05 Q1012 R09/19//95,LRAR,2015-04-18T07:00:00Z,46.18,21.27,10.0,5.0,360,14,,6.21,29.88189,,,,,,,,,,,FEW,1000,SCT,4500,,,,,VFR,,,,,,,,,,,,METAR,118.0
OIYY 180700Z 31014KT 9999 FEW035 SCT090 OVC200 20/06 Q1020,OIYY,2015-04-18T07:00:00Z,31.9,54.28,20.0,6.0,310,14,,6.21,30.11811,,,,,,,,,,,FEW,3500,SCT,9000,OVC,20000,,,VFR,,,,,,,,,,,,METAR,1236.0
OITR 180700Z 27004KT 6000 SKC 17/M02 Q1019,OITR,2015-04-18T07:00:00Z,37.67,45.07,17.0,-2.0,270,4,,3.73,30.088583,,,,,,,,,,,SKC,,,,,,,,MVFR,,,,,,,,,,,,METAR,1312.0
OIIE 180700Z 33014KT 8000 NSC 21/M00 Q1015 NOSIG,OIIE,2015-04-18T07:00:00Z,35.42,51.15,21.0,0.0,330,14,,4.97,29.970472,,,,,,TRUE,,,,,,,,,,,,,,,,,,,,,,,,,METAR,1008.0
OIGG 180700Z 00000KT 1500 BR BKN010 OVC070 14/13 Q1018,OIGG,2015-04-18T07:00:00Z,37.33,49.6,14.0,13.0,0,0,,0.93,30.059055,,,,,,,,,,BR,BKN,1000,OVC,7000,,,,,LIFR,,,,,,,,,,,,METAR,-13.0
OICC 180700Z 16004KT 8000 SKC 16/M03 Q1020 A3013 NOSIG,OICC,2015-04-18T07:00:00Z,34.33,47.17,16.0,-3.0,160,4,,4.97,30.11811,,,,,,TRUE,,,,,SKC,,,,,,,,MVFR,,,,,,,,,,,,METAR,1322.0
OIBK 180700Z 29010KT 5000 HZ SKC 31/20 Q1009,OIBK,2015-04-18T07:00:00Z,26.53,53.98,31.0,20.0,290,10,,3.11,29.793306,,,,,,,,,,HZ,SKC,,,,,,,,MVFR,,,,,,,,,,,,METAR,30.0
OIAA 180700Z 31020KT 9999 FEW040 BKN100 26/06 Q1014,OIAA,2015-04-18T07:00:00Z,30.37,48.25,26.0,6.0,310,20,,6.21,29.940945,,,,,,,,,,,FEW,4000,BKN,10000,,,,,VFR,,,,,,,,,,,,METAR,11.0
LRTC 180700Z VRB01KT CAVOK 17/08 Q1006,LRTC,2015-04-18T07:00:00Z,45.07,28.72,17.0,8.0,0,1,,6.21,29.704725,,,,,,,,,,,CAVOK,,,,,,,,VFR,,,,,,,,,,,,METAR,6.0
LRSV 180700Z 34016KT 7000 -RA FEW008 BKN030 06/06 Q1009,LRSV,2015-04-18T07:00:00Z,47.68,26.35,6.0,6.0,340,16,,4.35,29.793306,,,,,,,,,,-RA,FEW,800,BKN,3000,,,,,MVFR,,,,,,,,,,,,METAR,351.0
LRIA 180700Z 34008KT 9999 -RA SCT005 BKN042 09/08 Q1008,LRIA,2015-04-18T07:00:00Z,47.17,27.62,9.0,8.0,340,8,,6.21,29.763779,,,,,,,,,,-RA,SCT,500,BKN,4200,,,,,VFR,,,,,,,,,,,,METAR,104.0
LRCV 180700Z 26016KT CAVOK 17/08 Q1008,LRCV,2015-04-18T07:00:00Z,44.32,23.88,17.0,8.0,260,16,,6.21,29.763779,,,,,,,,,,,CAVOK,,,,,,,,VFR,,,,,,,,,,,,METAR,191.0
LRBC 180700Z 35012KT 8000 -RA BKN009 OVC021 10/09 Q1008,LRBC,2015-04-18T07:00:00Z,46.52,26.92,10.0,9.0,350,12,,4.97,29.763779,,,,,,,,,,-RA,BKN,900,OVC,2100,,,,,IFR,,,,,,,,,,,,METAR,185.0
LFSN 180700Z AUTO 05012KT 9999 NSC 08/01 Q1022,LFSN,2015-04-18T07:00:00Z,48.67,6.22,8.0,1.0,50,12,,6.21,30.177166,,,TRUE,,,,,,,,,,,,,,,,,,,,,,,,,,,,METAR,217.0
LFQB 180700Z AUTO 06009KT 020V090 9999 NSC 09/03 Q1021,LFQB,2015-04-18T07:00:00Z,48.32,4.02,9.0,3.0,60,9,,6.21,30.147638,,,TRUE,,,,,,,,,,,,,,,,,,,,,,,,,,,,METAR,118.0
LFQA 180700Z AUTO 06010KT 9999 NSC 08/02 Q1023,LFQA,2015-04-18T07:00:00Z,49.2,4.15,8.0,2.0,60,10,,6.21,30.206694,,,TRUE,,,,,,,,,,,,,,,,,,,,,,,,,,,,METAR,95.0
LFPB 180700Z AUTO 06012KT 9999 NSC 09/02 Q1023,LFPB,2015-04-18T07:00:00Z,48.97,2.45,9.0,2.0,60,12,,6.21,30.206694,,,TRUE,,,,,,,,,,,,,,,,,,,,,,,,,,,,METAR,65.0
LFOP 180700Z AUTO 07010KT 9999 NSC 08/02 Q1023,LFOP,2015-04-18T07:00:00Z,49.37,1.17,8.0,2.0,70,10,,6.21,30.206694,,,TRUE,,,,,,,,,,,,,,,,,,,,,,,,,,,,METAR,157.0
LFOK 180700Z AUTO 05010KT 9999 NSC 07/02 Q1022,LFOK,2015-04-18T07:00:00Z,48.78,4.18,7.0,2.0,50,10,,6.21,30.177166,,,TRUE,,,,,,,,,,,,,,,,,,,,,,,,,,,,METAR,162.0
LFOH 180700Z AUTO 08012KT 9999 NSC 08/02 Q1023,LFOH,2015-04-18T07:00:00Z,49.52,0.07,8.0,2.0,80,12,,6.21,30.206694,,,TRUE,,,,,,,,,,,,,,,,,,,,,,,,,,,,METAR,103.0
LFOB 180700Z AUTO 06010KT 9999 NSC 08/02 Q1024,LFOB,2015-04-18T07:00:00Z,49.47,2.12,8.0,2.0,60,10,,6.21,30.236221,,,TRUE,,,,,,,,,,,,,,,,,,,,,,,,,,,,METAR,111.0
LFMU 180700Z AUTO 31003KT 290V350 9999 NSC 14/10 Q1015,LFMU,2015-04-18T07:00:00Z,43.32,3.35,14.0,10.0,310,3,,6.21,29.970472,,,TRUE,,,,,,,,,,,,,,,,,,,,,,,,,,,,METAR,17.0
LFMT 180700Z 27003KT CAVOK 14/09 Q1015 NOSIG,LFMT,2015-04-18T07:00:00Z,43.57,3.97,14.0,9.0,270,3,,6.21,29.970472,,,,,,TRUE,,,,,CAVOK,,,,,,,,VFR,,,,,,,,,,,,METAR,6.0
LFLY 180700Z AUTO 36005KT 330V040 9999 OVC011 13/10 Q1017,LFLY,2015-04-18T07:00:00Z,45.72,4.95,13.0,10.0,360,5,,6.21,30.029528,,,TRUE,,,,,,,,OVC,1100,,,,,,,MVFR,,,,,,,,,,,,METAR,201.0
LFLU 180700Z AUTO 34008KT 7000 BKN035 13/12 Q1015,LFLU,2015-04-18T07:00:00Z,44.92,4.98,13.0,12.0,340,8,,4.35,29.970472,,,TRUE,,,,,,,,BKN,3500,,,,,,,MVFR,,,,,,,,,,,,METAR,160.0
LFLS 180700Z AUTO 02007KT 9999 BKN010 BKN025 OVC031 12/11 Q1016,LFLS,2015-04-18T07:00:00Z,45.37,5.32,12.0,11.0,20,7,,6.21,30.0,,,TRUE,,,,,,,,BKN,1000,BKN,2500,OVC,3100,,,MVFR,,,,,,,,,,,,METAR,386.0
LFLP 180700Z AUTO 31004KT 290V360 9999 FEW009/// SCT016/// OVC025/// ///TCU 11/09 Q1016,LFLP,2015-04-18T07:00:00Z,45.92,6.08,11.0,9.0,310,4,,6.21,30.0,,,TRUE,,,,,,,,,,,,,,,,,,,,,,,,,,,,METAR,463.0
LFJL 180700Z AUTO 05012KT 9999 NSC 08/01 Q1022,LFJL,2015-04-18T07:00:00Z,48.97,6.25,8.0,1.0,50,12,,6.21,30.177166,,,TRUE,,,,,,,,,,,,,,,,,,,,,,,,,,,,METAR,264.0
LFCR 180700Z AUTO VRB03KT 0350 R31/0700U FG VV/// 08/07 Q1016,LFCR,2015-04-18T07:00:00Z,44.38,2.47,8.0,7.0,0,3,,0.22,30.0,,,TRUE,,,,,,,FG,OVX,0,,,,,,,LIFR,,,,,,,,,,,,METAR,580.0
LFYR 180700Z AUTO 05009KT 020V080 9999 FEW019 SCT026 BKN032 10/07 Q1018,LFYR,2015-04-18T07:00:00Z,47.32,1.67,10.0,7.0,50,9,,6.21,30.059055,,,TRUE,,,,,,,,FEW,1900,SCT,2600,BKN,3200,,,VFR,,,,,,,,,,,,METAR,86.0
LFSO 180700Z AUTO 05014KT 9999 NSC 07/00 Q1021,LFSO,2015-04-18T07:00:00Z,48.57,5.97,7.0,0.0,50,14,,6.21,30.147638,,,TRUE,,,,,,,,,,,,,,,,,,,,,,,,,,,,METAR,350.0
LFSI 180700Z AUTO 07012KT 040V100 9999 NSC 09/01 Q1022,LFSI,2015-04-18T07:00:00Z,48.62,4.9,9.0,1.0,70,12,,6.21,30.177166,,,TRUE,,,,,,,,,,,,,,,,,,,,,,,,,,,,METAR,140.0
NVVV 180700Z 08010KT 9999 SCT020 BKN040 25/23 Q1013 RMK NIL,NVVV,2015-04-18T07:00:00Z,-17.68,168.3,25.0,23.0,80,10,,6.21,29.911417,,,,,,,,,,,SCT,2000,BKN,4000,,,,,VFR,,,,,,,,,,,,METAR,21.0
LFPV 180700Z AUTO 06013KT 9999 NSC 09/01 Q1022,LFPV,2015-04-18T07:00:00Z,48.77,2.2,9.0,1.0,60,13,,6.21,30.177166,,,TRUE,,,,,,,,,,,,,,,,,,,,,,,,,,,,METAR,179.0
LFPC 180700Z AUTO 05007KT 9999 NSC 08/02 Q1023,LFPC,2015-04-18T07:00:00Z,49.25,2.52,8.0,2.0,50,7,,6.21,30.206694,,,TRUE,,,,,,,,,,,,,,,,,,,,,,,,,,,,METAR,88.0
LFOA 180700Z AUTO 06014KT 6000 FEW023 BKN110 OVC150 11/10 Q1018,LFOA,2015-04-18T07:00:00Z,47.03,2.63,11.0,10.0,60,14,,3.73,30.059055,,,TRUE,,,,,,,,FEW,2300,BKN,11000,OVC,15000,,,MVFR,,,,,,,,,,,,METAR,179.0
LFMY 180700Z AUTO 35007KT 320V020 9999 NSC 14/11 Q1014,LFMY,2015-04-18T07:00:00Z,43.6,5.08,14.0,11.0,350,7,,6.21,29.940945,,,TRUE,,,,,,,,,,,,,,,,,,,,,,,,,,,,METAR,60.0
LFMO 180700Z AUTO 31008KT 9999 NSC 14/12 Q1015,LFMO,2015-04-18T07:00:00Z,44.12,4.87,14.0,12.0,310,8,,6.21,29.970472,,,TRUE,,,,,,,,,,,,,,,,,,,,,,,,,,,,METAR,55.0
LFMC 180700Z AUTO 26009KT 220V280 9999 ////// 16/09 Q1012,LFMC,2015-04-18T07:00:00Z,43.37,6.37,16.0,9.0,260,9,,6.21,29.88189,,,TRUE,,,,,,,,,,,,,,,,,,,,,,,,,,,,METAR,78.0
LFKS 180700Z AUTO 02005KT 9999 FEW015 17/13 Q1014,LFKS,2015-04-18T07:00:00Z,41.92,9.4,17.0,13.0,20,5,,6.21,29.940945,,,TRUE,,,,,,,,FEW,1500,,,,,,,VFR,,,,,,,,,,,,METAR,22.0
LFBY 180700Z AUTO 08006KT 050V110 8000 // ////// 13/12 Q1014,LFBY,2015-04-18T07:00:00Z,43.67,-1.07,13.0,12.0,80,6,,4.97,29.940945,,,TRUE,,,,,,,,,,,,,,,,,,,,,,,,,,,,METAR,32.0
LFBM 180700Z AUTO 11006KT 080V140 9999 FEW033/// OVC074/// ///CB 11/10 Q1015,LFBM,2015-04-18T07:00:00Z,43.92,-0.5,11.0,10.0,110,6,,6.21,29.970472,,,TRUE,,,,,,,,,,,,,,,,,,,,,,,,,,,,METAR,63.0
LFBG 180700Z AUTO 04004KT 0650 R23/1100D FG VV/// 09/09 Q1017,LFBG,2015-04-18T07:00:00Z,45.67,-0.32,9.0,9.0,40,4,,0.4,30.029528,,,TRUE,,,,,,,FG,OVX,0,,,,,,,LIFR,,,,,,,,,,,,METAR,31.0
LFBC 180700Z AUTO 03004KT 010V080 9999 NSC 10/09 Q1015,LFBC,2015-04-18T07:00:00Z,44.52,-1.12,10.0,9.0,30,4,,6.21,29.970472,,,TRUE,,,,,,,,,,,,,,,,,,,,,,,,,,,,METAR,33.0
LJCE 180700Z 09010KT 9999 -RA FEW010 BKN017 OVC027 07/05 Q1018,LJCE,2015-04-18T07:00:00Z,45.9,15.52,7.0,5.0,90,10,,6.21,30.059055,,,,,,,,,,-RA,FEW,1000,BKN,1700,OVC,2700,,,MVFR,,,,,,,,,,,,METAR,155.0
LFRL 180700Z AUTO 08011KT 050V110 9999 OVC012 09/08 Q1018,LFRL,2015-04-18T07:00:00Z,48.27,-4.42,9.0,8.0,80,11,,6.21,30.059055,,,TRUE,,,,,,,,OVC,1200,,,,,,,MVFR,,,,,,,,,,,,METAR,82.0
LFRJ 180700Z AUTO 09016KT 8000 -RA SCT009/// BKN013/// BKN036/// ///TCU 09/08 Q1018,LFRJ,2015-04-18T07:00:00Z,48.52,-4.15,9.0,8.0,90,16,,4.97,30.059055,,,TRUE,,,,,,,-RA,,,,,,,,,,,,,,,,,,,,,METAR,115.0
LFOJ 180700Z AUTO 06017KT 9999 NSC 09/03 Q1020,LFOJ,2015-04-18T07:00:00Z,47.97,1.75,9.0,3.0,60,17,,6.21,30.11811,,,TRUE,,,,,,,,,,,,,,,,,,,,,,,,,,,,METAR,125.0
LFOE 180700Z AUTO 07010KT 9999 NSC 08/02 Q1022,LFOE,2015-04-18T07:00:00Z,49.02,1.22,8.0,2.0,70,10,,6.21,30.177166,,,TRUE,,,,,,,,,,,,,,,,,,,,,,,,,,,,METAR,146.0
LFOC 180700Z AUTO 05015KT 9999 NSC 09/03 Q1020,LFOC,2015-04-18T07:00:00Z,48.03,1.37,9.0,3.0,50,15,,6.21,30.11811,,,TRUE,,,,,,,,,,,,,,,,,,,,,,,,,,,,METAR,127.0
LJPZ 180700Z 00000KT 9999 FEW036 BKN050 14/12 Q1013,LJPZ,2015-04-18T07:00:00Z,45.47,13.62,14.0,12.0,0,0,,6.21,29.911417,,,,,,,,,,,FEW,3600,BKN,5000,,,,,VFR,,,,,,,,,,,,METAR,2.0
LJMB 180700Z 05005KT 350V120 9999 -RA FEW016 OVC033 07/02 Q1018,LJMB,2015-04-18T07:00:00Z,46.47,15.67,7.0,2.0,50,5,,6.21,30.059055,,,,,,,,,,-RA,FEW,1600,OVC,3300,,,,,VFR,,,,,,,,,,,,METAR,265.0
LJLJ 180700Z 13013KT 8000 RA FEW005 BKN027 OVC055 06/05 Q1015 NOSIG,LJLJ,2015-04-18T07:00:00Z,46.22,14.47,6.0,5.0,130,13,,4.97,29.970472,,,,,,TRUE,,,,RA,FEW,500,BKN,2700,OVC,5500,,,MVFR,,,,,,,,,,,,METAR,385.0
LFSL 180700Z AUTO VRB02KT 9999 BKN003 09/08 Q1016,LFSL,2015-04-18T07:00:00Z,45.03,1.48,9.0,8.0,0,2,,6.21,30.0,,,TRUE,,,,,,,,BKN,300,,,,,,,LIFR,,,,,,,,,,,,METAR,310.0
LFMV 180700Z AUTO 34009KT 320V020 9999 NSC 14/12 Q1014,LFMV,2015-04-18T07:00:00Z,43.9,4.9,14.0,12.0,340,9,,6.21,29.940945,,,TRUE,,,,,,,,,,,,,,,,,,,,,,,,,,,,METAR,38.0
LFMP 180700Z AUTO 00000KT 9999 NSC 15/10 Q1015,LFMP,2015-04-18T07:00:00Z,42.72,2.87,15.0,10.0,0,0,,6.21,29.970472,,,TRUE,,,,,,,,,,,,,,,,,,,,,,,,,,,,METAR,48.0
LFLC 180700Z 11002KT 9999 FEW016 BKN024 BKN030 11/09 Q1017 NOSIG,LFLC,2015-04-18T07:00:00Z,45.77,3.17,11.0,9.0,110,2,,6.21,30.029528,,,,,,TRUE,,,,,FEW,1600,BKN,2400,BKN,3000,,,MVFR,,,,,,,,,,,,METAR,330.0
LFKJ 180700Z 04003KT 360V070 9999 FEW010 SCT020 16/12 Q1015 NOSIG,LFKJ,2015-04-18T07:00:00Z,41.92,8.8,16.0,12.0,40,3,,6.21,29.970472,,,,,,TRUE,,,,,FEW,1000,SCT,2000,,,,,VFR,,,,,,,,,,,,METAR,9.0
LFKF 180700Z AUTO 23010KT 210V280 9999 FEW027/// 18/13 Q1015,LFKF,2015-04-18T07:00:00Z,41.5,9.08,18.0,13.0,230,10,,6.21,29.970472,,,TRUE,,,,,,,,,,,,,,,,,,,,,,,,,,,,METAR,23.0
LFKC 180700Z 19011KT 9999 FEW066 SCT250 20/08 Q1013 NOSIG,LFKC,2015-04-18T07:00:00Z,42.52,8.8,20.0,8.0,190,11,,6.21,29.911417,,,,,,TRUE,,,,,FEW,6600,SCT,25000,,,,,VFR,,,,,,,,,,,,METAR,58.0
LFKB 180700Z 00000KT 9999 FEW023 15/12 Q1014 NOSIG,LFKB,2015-04-18T07:00:00Z,42.53,9.47,15.0,12.0,0,0,,6.21,29.940945,,,,,,TRUE,,,,,FEW,2300,,,,,,,VFR,,,,,,,,,,,,METAR,12.0
LFLX 180700Z 08004KT 050V120 1600 -RA BR OVC002 12/12 Q1017 NOSIG,LFLX,2015-04-18T07:00:00Z,46.85,1.72,12.0,12.0,80,4,,0.99,30.029528,,,,,,TRUE,,,,-RA BR,OVC,200,,,,,,,LIFR,,,,,,,,,,,,METAR,157.0
LFML 180700Z 31009KT CAVOK 15/12 Q1014 NOSIG,LFML,2015-04-18T07:00:00Z,43.45,5.22,15.0,12.0,310,9,,6.21,29.940945,,,,,,TRUE,,,,,CAVOK,,,,,,,,VFR,,,,,,,,,,,,METAR,36.0
LFLB 180700Z 36003KT 4000 -RA BR FEW005 SCT026 BKN040 12/12 Q1016 NOSIG,LFLB,2015-04-18T07:00:00Z,45.63,5.87,12.0,12.0,360,3,,2.49,30.0,,,,,,TRUE,,,,-RA BR,FEW,500,SCT,2600,BKN,4000,,,IFR,,,,,,,,,,,,METAR,239.0
LFCK 180700Z AUTO 07003KT 9999 NSC 12/08 Q1016,LFCK,2015-04-18T07:00:00Z,43.55,2.28,12.0,8.0,70,3,,6.21,30.0,,,TRUE,,,,,,,,,,,,,,,,,,,,,,,,,,,,METAR,240.0
LFBZ 180700Z AUTO 10007KT 9999 NSC 13/12 Q1013,LFBZ,2015-04-18T07:00:00Z,43.47,-1.52,13.0,12.0,100,7,,6.21,29.911417,,,TRUE,,,,,,,,,,,,,,,,,,,,,,,,,,,,METAR,71.0
LFBT 180700Z AUTO VRB02KT 8000 SCT002 BKN110 10/10 Q1014,LFBT,2015-04-18T07:00:00Z,43.17,0.0,10.0,10.0,0,2,,4.97,29.940945,,,TRUE,,,,,,,,SCT,200,BKN,11000,,,,,MVFR,,,,,,,,,,,,METAR,363.0
LFBP 180700Z AUTO 10004KT 070V140 9999 NSC 13/12 Q1014,LFBP,2015-04-18T07:00:00Z,43.37,-0.42,13.0,12.0,100,4,,6.21,29.940945,,,TRUE,,,,,,,,,,,,,,,,,,,,,,,,,,,,METAR,185.0
LFBO 180700Z AUTO VRB02KT 9999 NSC 11/11 Q1015,LFBO,2015-04-18T07:00:00Z,43.62,1.37,11.0,11.0,0,2,,6.21,29.970472,,,TRUE,,,,,,,,,,,,,,,,,,,,,,,,,,,,METAR,153.0
LFBL 180700Z AUTO 07005KT 8000 NSC 09/09 Q1016,LFBL,2015-04-18T07:00:00Z,45.87,1.17,9.0,9.0,70,5,,4.97,30.0,,,TRUE,,,,,,,,,,,,,,,,,,,,,,,,,,,,METAR,402.0
LFBI 180700Z AUTO 03005KT 2200 BR OVC006 11/10 Q1017,LFBI,2015-04-18T07:00:00Z,46.57,0.32,11.0,10.0,30,5,,1.37,30.029528,,,TRUE,,,,,,,BR,OVC,600,,,,,,,IFR,,,,,,,,,,,,METAR,120.0
LFBH 180700Z AUTO 10006KT 6000 FEW035 11/11 Q1016,LFBH,2015-04-18T07:00:00Z,46.18,-1.2,11.0,11.0,100,6,,3.73,30.0,,,TRUE,,,,,,,,FEW,3500,,,,,,,MVFR,,,,,,,,,,,,METAR,10.0
LFBD 180700Z AUTO 04006KT 9999 NSC 11/09 Q1015,LFBD,2015-04-18T07:00:00Z,44.82,-0.7,11.0,9.0,40,6,,6.21,29.970472,,,TRUE,,,,,,,,,,,,,,,,,,,,,,,,,,,,METAR,61.0
LFMN 180700Z 32003KT 9999 SCT013 BKN026 BKN260 15/11 Q1012 NOSIG,LFMN,2015-04-18T07:00:00Z,43.63,7.2,15.0,11.0,320,3,,6.21,29.88189,,,,,,TRUE,,,,,SCT,1300,BKN,2600,BKN,26000,,,MVFR,,,,,,,,,,,,METAR,10.0
LFRS 180700Z 07011KT 040V100 9999 BKN015 12/08 Q1017 NOSIG,LFRS,2015-04-18T07:00:00Z,47.17,-1.6,12.0,8.0,70,11,,6.21,30.029528,,,,,,TRUE,,,,,BKN,1500,,,,,,,MVFR,,,,,,,,,,,,METAR,27.0
LFRB 180700Z 07011KT 6000 BKN008 SCT018 OVC026 09/08 Q1018 NOSIG,LFRB,2015-04-18T07:00:00Z,48.45,-4.42,9.0,8.0,70,11,,3.73,30.059055,,,,,,TRUE,,,,,BKN,800,SCT,1800,OVC,2600,,,IFR,,,,,,,,,,,,METAR,103.0
LFQQ 180700Z 04011KT CAVOK 06/02 Q1026 NOSIG,LFQQ,2015-04-18T07:00:00Z,50.57,3.1,6.0,2.0,40,11,,6.21,30.295275,,,,,,TRUE,,,,,CAVOK,,,,,,,,VFR,,,,,,,,,,,,METAR,52.0
LFPO 180700Z 07011KT CAVOK 09/02 Q1022 NOSIG,LFPO,2015-04-18T07:00:00Z,48.72,2.38,9.0,2.0,70,11,,6.21,30.177166,,,,,,TRUE,,,,,CAVOK,,,,,,,,VFR,,,,,,,,,,,,METAR,96.0
LFPG 180700Z 06015KT CAVOK 09/01 Q1023 NOSIG,LFPG,2015-04-18T07:00:00Z,49.02,2.52,9.0,1.0,60,15,,6.21,30.206694,,,,,,TRUE,,,,,CAVOK,,,,,,,,VFR,,,,,,,,,,,,METAR,109.0
LFLL 180700Z 34008KT 9999 SCT005 BKN008 12/10 Q1016 NOSIG,LFLL,2015-04-18T07:00:00Z,45.72,5.07,12.0,10.0,340,8,,6.21,30.0,,,,,,TRUE,,,,,SCT,500,BKN,800,,,,,IFR,,,,,,,,,,,,METAR,240.0
TNCE 180700Z AUTO 07008KT //// ////// 25/21 Q1016,TNCE,2015-04-18T07:00:00Z,17.47,-62.97,25.0,21.0,70,8,,,30.0,,,TRUE,,,,,,,,,,,,,,,,,,,,,,,,,,,,METAR,39.0
TNCC 180700Z 11011KT 9999 FEW016 26/23 Q1013 NOSIG,TNCC,2015-04-18T07:00:00Z,12.2,-68.97,26.0,23.0,110,11,,6.21,29.911417,,,,,,TRUE,,,,,FEW,1600,,,,,,,VFR,,,,,,,,,,,,METAR,9.0
SAZN 180700Z 00000KT CAVOK 08/07 Q1011,SAZN,2015-04-18T07:00:00Z,-38.95,-68.15,8.0,7.0,0,0,,6.21,29.852362,,,,,,,,,,,CAVOK,,,,,,,,VFR,,,,,,,,,,,,METAR,271.0
SASJ 180700Z 00000KT 9999 SCT040 17/16 Q1019,SASJ,2015-04-18T07:00:00Z,-24.37,-65.1,17.0,16.0,0,0,,6.21,30.088583,,,,,,,,,,,SCT,4000,,,,,,,VFR,,,,,,,,,,,,METAR,1167.0
SASA 180700Z 02005KT 9999 OVC020 17/14 Q1021,SASA,2015-04-18T07:00:00Z,-24.85,-65.47,17.0,14.0,20,5,,6.21,30.147638,,,,,,,,,,,OVC,2000,,,,,,,MVFR,,,,,,,,,,,,METAR,1216.0
SARP 180700Z 18006KT 9999 OVC008 20/19 Q1014,SARP,2015-04-18T07:00:00Z,-27.38,-55.97,20.0,19.0,180,6,,6.21,29.940945,,,,,,,,,,,OVC,800,,,,,,,IFR,,,,,,,,,,,,METAR,125.0
SARL 180700Z 23003KT 0200 FG NSC 15/15 Q1015,SARL,2015-04-18T07:00:00Z,-29.67,-57.13,15.0,15.0,230,3,,0.12,29.970472,,,,,,,,,,FG,,,,,,,,,,,,,,,,,,,,,METAR,70.0
SARI 180700Z 18007KT 9999 SCT020 BKN100 19/19 Q1014,SARI,2015-04-18T07:00:00Z,-25.72,-54.47,19.0,19.0,180,7,,6.21,29.940945,,,,,,,,,,,SCT,2000,BKN,10000,,,,,VFR,,,,,,,,,,,,METAR,270.0
SARF 180700Z 23008KT 3000 DZ OVC003 20/20 Q1014,SARF,2015-04-18T07:00:00Z,-26.22,-58.22,20.0,20.0,230,8,,1.86,29.940945,,,,,,,,,,DZ,OVC,300,,,,,,,LIFR,,,,,,,,,,,,METAR,60.0
SARC 180700Z 18004KT 0300 FG SCT004 BKN200 16/16 Q1015,SARC,2015-04-18T07:00:00Z,-27.43,-58.77,16.0,16.0,180,4,,0.19,29.970472,,,,,,,,,,FG,SCT,400,BKN,20000,,,,,LIFR,,,,,,,,,,,,METAR,62.0
SANT 180700Z 36004KT 9999 BKN040 16/14 Q1019,SANT,2015-04-18T07:00:00Z,-26.85,-65.08,16.0,14.0,360,4,,6.21,30.088583,,,,,,,,,,,BKN,4000,,,,,,,VFR,,,,,,,,,,,,METAR,450.0
SAME 180700Z 00000KT CAVOK 11/06 Q1015,SAME,2015-04-18T07:00:00Z,-32.82,-68.77,11.0,6.0,0,0,,6.21,29.970472,,,,,,,,,,,CAVOK,,,,,,,,VFR,,,,,,,,,,,,METAR,704.0
SAEZ 180700Z 30008KT CAVOK 13/07 Q1012,SAEZ,2015-04-18T07:00:00Z,-34.82,-58.52,13.0,7.0,300,8,,6.21,29.88189,,,,,,,,,,,CAVOK,,,,,,,,VFR,,,,,,,,,,,,METAR,20.0
SACO 180700Z 32006KT CAVOK 12/07 Q1018,SACO,2015-04-18T07:00:00Z,-31.32,-64.22,12.0,7.0,320,6,,6.21,30.059055,,,,,,,,,,,CAVOK,,,,,,,,VFR,,,,,,,,,,,,METAR,474.0
SABE 180700Z 29008KT CAVOK 14/06 Q1013,SABE,2015-04-18T07:00:00Z,-34.57,-58.42,14.0,6.0,290,8,,6.21,29.911417,,,,,,,,,,,CAVOK,,,,,,,,VFR,,,,,,,,,,,,METAR,6.0
SAAR 180700Z 32003KT CAVOK 09/07 Q1015,SAAR,2015-04-18T07:00:00Z,-32.92,-60.77,9.0,7.0,320,3,,6.21,29.970472,,,,,,,,,,,CAVOK,,,,,,,,VFR,,,,,,,,,,,,METAR,25.0
FQPB 180700Z 18006KT 9999 FEW020 29/25 Q1017,FQPB,2015-04-18T07:00:00Z,-12.97,40.5,29.0,25.0,180,6,,6.21,30.029528,,,,,,,,,,,FEW,2000,,,,,,,VFR,,,,,,,,,,,,METAR,50.0
KHLC 180700Z AUTO 28011KT 6SM -RA BR SCT019 BKN060 OVC075 12/10 A2997 RMK AO2 LTG DSNT N-SE P0001 T01220100 $,KHLC,2015-04-18T07:00:00Z,39.37,-99.83,12.2,10.0,280,11,,6.0,29.970472,,,TRUE,TRUE,TRUE,,,,,-RA BR,SCT,1900,BKN,6000,OVC,7500,,,VFR,,,,,,0.01,,,,,,METAR,669.0
SADF 180700Z 27006KT CAVOK 12/08 Q1013,SADF,2015-04-18T07:00:00Z,-34.45,-58.58,12.0,8.0,270,6,,6.21,29.911417,,,,,,,,,,,CAVOK,,,,,,,,VFR,,,,,,,,,,,,METAR,4.0
BIRK 180700Z 13013G23KT 9999 BKN021 06/01 Q1025,BIRK,2015-04-18T07:00:00Z,64.13,-21.93,6.0,1.0,130,13,23,6.21,30.265747,,,,,,,,,,,BKN,2100,,,,,,,MVFR,,,,,,,,,,,,METAR,61.0
BIEG 180700Z 16003KT CAVOK 04/M02 Q1025,BIEG,2015-04-18T07:00:00Z,65.27,-14.4,4.0,-2.0,160,3,,6.21,30.265747,,,,,,,,,,,CAVOK,,,,,,,,VFR,,,,,,,,,,,,METAR,38.0
BIAR 180700Z 17014KT CAVOK 08/M03 Q1022,BIAR,2015-04-18T07:00:00Z,65.67,-18.07,8.0,-3.0,170,14,,6.21,30.177166,,,,,,,,,,,CAVOK,,,,,,,,VFR,,,,,,,,,,,,METAR,27.0
SAWH 180700Z 32005KT 9999 BKN030 05/00 Q0999,SAWH,2015-04-18T07:00:00Z,-54.85,-68.3,5.0,0.0,320,5,,6.21,29.498032,,,,,,,,,,,BKN,3000,,,,,,,MVFR,,,,,,,,,,,,METAR,14.0
YMOR 180700Z AUTO 36007KT 9999 // SCT058 BKN094 27/14 Q1016,YMOR,2015-04-18T07:00:00Z,-29.5,149.85,27.0,14.0,360,7,,6.21,30.0,,,TRUE,,,,,,,,SCT,5800,BKN,9400,,,,,VFR,,,,,,,,,,,,METAR,214.0
YMML 180700Z 30013KT CAVOK 20/06 Q1011 FM0830 23016G28KT 9999 SHRA SCT015 BKN025 BKN040 INTER 0800/1000 4000 SHRA BKN010 FM0800 MOD TURB BLW 5000FT,YMML,2015-04-18T07:00:00Z,-37.67,144.82,20.0,6.0,300,13,,6.21,29.852362,,,,,,,,,,,CAVOK,,,,,,,,VFR,,,,,,,,,,,,METAR,141.0
YMIA 180700Z AUTO 28007KT 9999 // OVC059 19/11 Q1015,YMIA,2015-04-18T07:00:00Z,-34.23,142.08,19.0,11.0,280,7,,6.21,29.970472,,,TRUE,,,,,,,,OVC,5900,,,,,,,VFR,,,,,,,,,,,,METAR,51.0
YMER 180700Z AUTO 00000KT 9999 // SCT100 19/17 Q1009,YMER,2015-04-18T07:00:00Z,-36.92,149.9,19.0,17.0,0,0,,6.21,29.793306,,,TRUE,,,,,,,,SCT,10000,,,,,,,VFR,,,,,,,,,,,,METAR,2.0
YMEN 180700Z AUTO 30010KT 9999 // SCT062 BKN073 20/08 Q1010,YMEN,2015-04-18T07:00:00Z,-37.72,144.9,20.0,8.0,300,10,,6.21,29.822834,,,TRUE,,,,,,,,SCT,6200,BKN,7300,,,,,VFR,,,,,,,,,,,,METAR,86.0
YMEK 180700Z AUTO 07010KT 9999 // NCD 23/06 Q1020,YMEK,2015-04-18T07:00:00Z,-26.62,118.55,23.0,6.0,70,10,,6.21,30.11811,,,TRUE,,,,,,,,,,,,,,,,,,,,,,,,,,,,METAR,522.0
YMDG 180700Z AUTO 35010KT //// // OVC047 23/14 Q1015,YMDG,2015-04-18T07:00:00Z,-32.57,149.62,23.0,14.0,350,10,,,29.970472,,,TRUE,,,,,,,,OVC,4700,,,,,,,,,,,,,,,,,,,METAR,471.0
YMAY 180700Z AUTO 30006KT 9999 // SCT021 BKN030 OVC037 17/17 Q1012,YMAY,2015-04-18T07:00:00Z,-36.07,146.93,17.0,17.0,300,6,,6.21,29.88189,,,TRUE,,,,,,,,SCT,2100,BKN,3000,OVC,3700,,,MVFR,,,,,,,,,,,,METAR,171.0
YLRE 180700Z 26004KT CAVOK 32/12 Q1014,YLRE,2015-04-18T07:00:00Z,-23.43,144.28,32.0,12.0,260,4,,6.21,29.940945,,,,,,,,,,,CAVOK,,,,,,,,VFR,,,,,,,,,,,,METAR,193.0
FMSD 180700Z 06010KT 9999 SCT016 SCT043 27/23 Q1018,FMSD,2015-04-18T07:00:00Z,-25.02,46.95,27.0,23.0,60,10,,6.21,30.059055,,,,,,,,,,,SCT,1600,SCT,4300,,,,,VFR,,,,,,,,,,,,METAR,9.0
FMNM 180700Z 14006KT 9999 FEW020 SCT100 30/19 Q1015 NOSIG,FMNM,2015-04-18T07:00:00Z,-15.67,46.35,30.0,19.0,140,6,,6.21,29.970472,,,,,,TRUE,,,,,FEW,2000,SCT,10000,,,,,VFR,,,,,,,,,,,,METAR,18.0
FMMT 180700Z 22006KT 9999 BKN017TCU 29/23 Q1017 NOSIG,FMMT,2015-04-18T07:00:00Z,-18.12,49.38,29.0,23.0,220,6,,6.21,30.029528,,,,,,TRUE,,,,,BKN,1700,,,,,,,MVFR,,,,,,,,,,,,METAR,6.0
FMCH 180700Z 20006KT 9999 FEW022TCU SCT025 30/25 Q1016 NOSIG,FMCH,2015-04-18T07:00:00Z,-11.52,43.27,30.0,25.0,200,6,,6.21,30.0,,,,,,TRUE,,,,,FEW,2200,SCT,2500,,,,,VFR,,,,,,,,,,,,METAR,29.0
SKCL 180700Z 07004KT 9999 SCT017 BKN090 20/19 A2999,SKCL,2015-04-18T07:00:00Z,3.53,-76.37,20.0,19.0,70,4,,6.21,29.991142,,,,,,,,,,,SCT,1700,BKN,9000,,,,,VFR,,,,,,,,,,,,METAR,969.0
OMSJ 180700Z 27004KT CAVOK 36/09 Q1010,OMSJ,2015-04-18T07:00:00Z,25.32,55.52,36.0,9.0,270,4,,6.21,29.822834,,,,,,,,,,,CAVOK,,,,,,,,VFR,,,,,,,,,,,,METAR,33.0
OMFJ 180700Z 28013KT 250V310 7000 NSC 40/M00 Q1009 A2979,OMFJ,2015-04-18T07:00:00Z,25.1,56.32,40.0,0.0,280,13,,4.35,29.793306,,,,,,,,,,,,,,,,,,,,,,,,,,,,,,,METAR,28.0
OMDW 180700Z 26006KT 220V300 CAVOK 35/09 Q1011 NOSIG,OMDW,2015-04-18T07:00:00Z,24.9,55.17,35.0,9.0,260,6,,6.21,29.852362,,,,,,TRUE,,,,,CAVOK,,,,,,,,VFR,,,,,,,,,,,,METAR,25.0
OMDB 180700Z 23004KT 150V270 CAVOK 35/09 Q1010 NOSIG,OMDB,2015-04-18T07:00:00Z,25.25,55.37,35.0,9.0,230,4,,6.21,29.822834,,,,,,TRUE,,,,,CAVOK,,,,,,,,VFR,,,,,,,,,,,,METAR,5.0
OMAL 180700Z 34010KT 290V020 CAVOK 37/05 Q1012 A2990 NOSIG,OMAL,2015-04-18T07:00:00Z,24.25,55.6,37.0,5.0,340,10,,6.21,29.88189,,,,,,TRUE,,,,,CAVOK,,,,,,,,VFR,,,,,,,,,,,,METAR,262.0
OMAD 180700Z 23006KT 190V270 CAVOK 33/11 Q1010 A2985 BECMG 30012KT,OMAD,2015-04-18T07:00:00Z,24.42,54.47,33.0,11.0,230,6,,6.21,29.822834,,,,,,,,,,,CAVOK,,,,,,,,VFR,,,,,,,,,,,,METAR,3.0
OMAA 180700Z 23005KT 190V280 9000 NSC 35/12 Q1010 A2984 BECMG 30012KT,OMAA,2015-04-18T07:00:00Z,24.42,54.63,35.0,12.0,230,5,,5.59,29.822834,,,,,,,,,,,,,,,,,,,,,,,,,,,,,,,METAR,27.0
HUEN 180700Z 25006KT 9999 SCT019 FEW021CB BKN120 22/20 Q1020,HUEN,2015-04-18T07:00:00Z,0.03,32.45,22.0,20.0,250,6,,6.21,30.11811,,,,,,,,,,,SCT,1900,FEW,2100,BKN,12000,,,VFR,,,,,,,,,,,,METAR,1155.0
UMBB 180700Z 30006G09MPS 8000 OVC011CB 03/M01 Q1012 NOSIG,UMBB,2015-04-18T07:00:00Z,52.12,23.9,3.0,-1.0,300,12,17,4.97,29.88189,,,,,,TRUE,,,,,OVC,1100,,,,,,,MVFR,,,,,,,,,,,,METAR,143.0
TNCA 180700Z 09015KT 9999 FEW019 27/23 Q1012 A2989 NOSIG,TNCA,2015-04-18T07:00:00Z,12.5,-70.0,27.0,23.0,90,15,,6.21,29.88189,,,,,,TRUE,,,,,FEW,1900,,,,,,,VFR,,,,,,,,,,,,METAR,18.0
FNSO 180700Z 06005KT 9999 SCT012 BKN100 26/23 Q1014,FNSO,2015-04-18T07:00:00Z,-6.13,12.37,26.0,23.0,60,5,,6.21,29.940945,,,,,,,,,,,SCT,1200,BKN,10000,,,,,VFR,,,,,,,,,,,,METAR,5.0
FBSK 180700Z 07007KT 9999 BKN015 18/16 Q1024 NOSIG,FBSK,2015-04-18T07:00:00Z,-24.55,25.92,18.0,16.0,70,7,,6.21,30.236221,,,,,,TRUE,,,,,BKN,1500,,,,,,,MVFR,,,,,,,,,,,,METAR,1005.0
KTVR 180700Z AUTO 07005KT 10SM OVC009 19/18 A2994 RMK AO2 T01940178,KTVR,2015-04-18T07:00:00Z,32.35,-91.03,19.4,17.8,70,5,,10.0,29.940945,,,TRUE,TRUE,,,,,,,OVC,900,,,,,,,IFR,,,,,,,,,,,,METAR,26.0
KHKA 180700Z AUTO 00000KT 1/2SM FG VV003 14/14 A2999 RMK AO2 T01440144,KHKA,2015-04-18T07:00:00Z,35.93,-89.83,14.4,14.4,0,0,,0.5,29.991142,,,TRUE,TRUE,,,,,,FG,OVX,0,,,,,,,LIFR,,,,,,,,,,,300,METAR,78.0
GMMI 180700Z VRB08KT 5000 FEW016 SCT200 14/12 Q1015 NOSIG,GMMI,2015-04-18T07:00:00Z,31.4,-9.68,14.0,12.0,0,8,,3.11,29.970472,,,,,,TRUE,,,,,FEW,1600,SCT,20000,,,,,MVFR,,,,,,,,,,,,METAR,8.0
GMTN 180700Z 20004KT 4000 BR NSC 12/10 Q1016 NOSIG,GMTN,2015-04-18T07:00:00Z,35.57,-5.32,12.0,10.0,200,4,,2.49,30.0,,,,,,TRUE,,,,BR,,,,,,,,,,,,,,,,,,,,,SPECI,10.0
GMTA 180700Z VRB02KT 8000 NSC 15/14 Q1015 NOSIG,GMTA,2015-04-18T07:00:00Z,35.17,-3.85,15.0,14.0,0,2,,4.97,29.970472,,,,,,TRUE,,,,,,,,,,,,,,,,,,,,,,,,,SPECI,14.0
GMMZ 180700Z 31005KT 9999 SCT040 BKN200 18/M07 Q1019 NOSIG,GMMZ,2015-04-18T07:00:00Z,30.92,-6.9,18.0,-7.0,310,5,,6.21,30.088583,,,,,,TRUE,,,,,SCT,4000,BKN,20000,,,,,VFR,,,,,,,,,,,,METAR,1140.0
GMMW 180700Z VRB02KT CAVOK 12/11 Q1015 NOSIG,GMMW,2015-04-18T07:00:00Z,34.98,-3.02,12.0,11.0,0,2,,6.21,29.970472,,,,,,TRUE,,,,,CAVOK,,,,,,,,VFR,,,,,,,,,,,,METAR,175.0
GMML 180700Z 03009KT 9999 BKN020 17/13 Q1016 NOSIG,GMML,2015-04-18T07:00:00Z,27.13,-13.23,17.0,13.0,30,9,,6.21,30.0,,,,,,TRUE,,,,,BKN,2000,,,,,,,MVFR,,,,,,,,,,,,METAR,6.0
GMMC 180700Z /////KT 8000 BKN016 SCT026 17/14 Q1017,GMMC,2015-04-18T07:00:00Z,33.57,-7.67,17.0,14.0,,,,4.97,30.029528,,,,,,,,,,,BKN,1600,SCT,2600,,,,,MVFR,,,,,,,,,,,,METAR,62.0
GMMB 180700Z 08001KT 5000 SCT016 SCT200 13/13 Q1018 NOSIG,GMMB,2015-04-18T07:00:00Z,33.65,-7.63,13.0,13.0,80,1,,3.11,30.059055,,,,,,TRUE,,,,,SCT,1600,SCT,20000,,,,,MVFR,,,,,,,,,,,,METAR,191.0
GMFO 180700Z 19004KT CAVOK 13/12 Q1016 NOSIG,GMFO,2015-04-18T07:00:00Z,34.77,-1.92,13.0,12.0,190,4,,6.21,30.0,,,,,,TRUE,,,,,CAVOK,,,,,,,,VFR,,,,,,,,,,,,METAR,470.0
GMFK 180700Z 32003KT 260V360 9999 BKN030 SCT080 22/M02 Q1018 NOSIG,GMFK,2015-04-18T07:00:00Z,31.95,-4.4,22.0,-2.0,320,3,,6.21,30.059055,,,,,,TRUE,,,,,BKN,3000,SCT,8000,,,,,MVFR,,,,,,,,,,,,METAR,1045.0
GMAT 180700Z 02010KT 6000 OVC013 16/13 Q1015 NOSIG,GMAT,2015-04-18T07:00:00Z,28.43,-11.15,16.0,13.0,20,10,,3.73,29.970472,,,,,,TRUE,,,,,OVC,1300,,,,,,,MVFR,,,,,,,,,,,,METAR,200.0
WAJJ 180700Z 25002KT 9999 SCT014TCU 28/24 Q1007,WAJJ,2015-04-18T07:00:00Z,-2.58,140.52,28.0,24.0,250,2,,6.21,29.734253,,,,,,,,,,,SCT,1400,,,,,,,VFR,,,,,,,,,,,,METAR,88.0
LDLO 180700Z 17008KT 6000 -RA BKN015 OVC030 14/14 Q1013,LDLO,2015-04-18T07:00:00Z,44.57,14.4,14.0,14.0,170,8,,3.73,29.911417,,,,,,,,,,-RA,BKN,1500,OVC,3000,,,,,MVFR,,,,,,,,,,,,METAR,46.0
YBDV 180700Z AUTO 20014KT //// // ////// 25/12 Q1017,YBDV,2015-04-18T07:00:00Z,-25.9,139.35,25.0,12.0,200,14,,,30.029528,,,TRUE,,,,,,,,,,,,,,,,,,,,,,,,,,,,METAR,47.0
YBCV 180700Z AUTO 32007KT 9999 // NCD 30/13 Q1015,YBCV,2015-04-18T07:00:00Z,-26.38,146.27,30.0,13.0,320,7,,6.21,29.970472,,,TRUE,,,,,,,,,,,,,,,,,,,,,,,,,,,,METAR,304.0
YBCS 180700Z 16008KT 8000 -SHRA FEW005 SCT025 BKN035 25/24 Q1013 INTER 0700/1000 4000 SHRA FEW012 BKN018,YBCS,2015-04-18T07:00:00Z,-16.87,145.75,25.0,24.0,160,8,,4.97,29.911417,,,,,,,,,,-SHRA,FEW,500,SCT,2500,BKN,3500,,,MVFR,,,,,,,,,,,,METAR,7.0
YBCG 180700Z AUTO 03012KT 9999 // SCT027 BKN040 BKN055 25/19 Q1019,YBCG,2015-04-18T07:00:00Z,-28.17,153.5,25.0,19.0,30,12,,6.21,30.088583,,,TRUE,,,,,,,,SCT,2700,BKN,4000,BKN,5500,,,VFR,,,,,,,,,,,,METAR,6.0
YBBN 180700Z 03009KT 9999 FEW030 BKN300 24/19 Q1019 NOSIG,YBBN,2015-04-18T07:00:00Z,-27.38,153.13,24.0,19.0,30,9,,6.21,30.088583,,,,,,TRUE,,,,,FEW,3000,BKN,30000,,,,,VFR,,,,,,,,,,,,METAR,5.0
YBAS 180700Z 15007KT 9999 FEW032 SCT074 BKN175 19/12 Q1020,YBAS,2015-04-18T07:00:00Z,-23.8,133.9,19.0,12.0,150,7,,6.21,30.11811,,,,,,,,,,,FEW,3200,SCT,7400,BKN,17500,,,VFR,,,,,,,,,,,,METAR,541.0
YAYE 180700Z AUTO 10011KT 9999 // NCD 26/05 Q1019,YAYE,2015-04-18T07:00:00Z,-25.18,130.98,26.0,5.0,100,11,,6.21,30.088583,,,TRUE,,,,,,,,,,,,,,,,,,,,,,,,,,,,METAR,496.0
YARG 180700Z AUTO 04006KT 9999 // SCT079 BKN094 36/16 Q1009,YARG,2015-04-18T07:00:00Z,-16.63,128.45,36.0,16.0,40,6,,6.21,29.793306,,,TRUE,,,,,,,,SCT,7900,BKN,9400,,,,,VFR,,,,,,,,,,,,METAR,165.0
YAMB 180700Z AUTO 04009KT 9999 // SCT064 BKN088 25/16 Q1018,YAMB,2015-04-18T07:00:00Z,-27.63,152.72,25.0,16.0,40,9,,6.21,30.059055,,,TRUE,,,,,,,,SCT,6400,BKN,8800,,,,,VFR,,,,,,,,,,,,METAR,28.0
YABA 180700Z 06011KT 9999 BKN032 17/09 Q1027,YABA,2015-04-18T07:00:00Z,-34.93,117.8,17.0,9.0,60,11,,6.21,30.324802,,,,,,,,,,,BKN,3200,,,,,,,VFR,,,,,,,,,,,,METAR,69.0
SCTE 180700Z 01022G33KT 5000 -RADZ BKN030 OVC080 12/09 Q1006 NOSIG,SCTE,2015-04-18T07:00:00Z,-41.42,-73.07,12.0,9.0,10,22,33,3.11,29.704725,,,,,,TRUE,,,,-RA -DZ,BKN,3000,OVC,8000,,,,,MVFR,,,,,,,,,,,,METAR,86.0
SCQP 180700Z 00000KT CAVOK 05/05 Q1013,SCQP,2015-04-18T07:00:00Z,-38.92,-72.65,5.0,5.0,0,0,,6.21,29.911417,,,,,,,,,,,CAVOK,,,,,,,,VFR,,,,,,,,,,,,METAR,97.0
UHHH 180700Z 01006MPS 9999 SCT033CB BKN100 08/01 Q1009 NOSIG RMK QFE751/1001 55090060,UHHH,2015-04-18T07:00:00Z,48.52,135.18,8.0,1.0,10,12,,6.21,29.793306,,,,,,TRUE,,,,,SCT,3300,BKN,10000,,,,,VFR,-9.0,,,,,,,,,,,METAR,72.0
FSIA 180700Z 12007KT 9999 FEW020 32/25 Q1012 NOSIG,FSIA,2015-04-18T07:00:00Z,-4.67,55.52,32.0,25.0,120,7,,6.21,29.88189,,,,,,TRUE,,,,,FEW,2000,,,,,,,VFR,,,,,,,,,,,,METAR,3.0
MKJP 180700Z 04005KT 9999 FEW024 26/22 Q1014,MKJP,2015-04-18T07:00:00Z,17.92,-76.78,26.0,22.0,40,5,,6.21,29.940945,,,,,,,,,,,FEW,2400,,,,,,,VFR,,,,,,,,,,,,METAR,3.0
SKRG 180700Z 00000KT 8000 OVC010 15/14 A3030 RMK HZ,SKRG,2015-04-18T07:00:00Z,6.17,-75.42,15.0,14.0,0,0,,4.97,30.301182,,,,,,,,,,,OVC,1000,,,,,,,MVFR,,,,,,,,,,,,METAR,2137.0
YCCY 180700Z AUTO 21012KT //// // ////// 34/12 Q1012,YCCY,2015-04-18T07:00:00Z,-20.67,140.5,34.0,12.0,210,12,,,29.88189,,,TRUE,,,,,,,,,,,,,,,,,,,,,,,,,,,,METAR,570.0
YCBP 180700Z AUTO 20014KT //// // NCD 22/04 Q1021,YCBP,2015-04-18T07:00:00Z,-29.03,134.72,22.0,4.0,200,14,,,30.147638,,,TRUE,,,,,,,,,,,,,,,,,,,,,,,,,,,,METAR,226.0
YCBB 180700Z AUTO 36014KT //// // ////// 22/14 Q1016,YCBB,2015-04-18T07:00:00Z,-31.33,149.27,22.0,14.0,360,14,,,30.0,,,TRUE,,,,,,,,,,,,,,,,,,,,,,,,,,,,METAR,645.0
YCBA 180700Z AUTO 32005KT //// // ////// 18/18 Q1016,YCBA,2015-04-18T07:00:00Z,-31.53,145.8,18.0,18.0,320,5,,,30.0,,,TRUE,,,,,,,,,,,,,,,,,,,,,,,,,,,,METAR,221.0
YCAS 180700Z AUTO 07008KT //// // ////// 25/18 Q1018,YCAS,2015-04-18T07:00:00Z,-28.88,153.07,25.0,18.0,70,8,,,30.059055,,,TRUE,,,,,,,,,,,,,,,,,,,,,,,,,,,,METAR,26.0
YCAR 180700Z AUTO 05005KT 9999 // SCT041 SCT047 28/18 Q1014,YCAR,2015-04-18T07:00:00Z,-24.88,113.67,28.0,18.0,50,5,,6.21,29.940945,,,TRUE,,,,,,,,SCT,4100,SCT,4700,,,,,VFR,,,,,,,,,,,,METAR,8.0
YBWX 180700Z AUTO 11011KT //// // ////// 26/20 Q1012,YBWX,2015-04-18T07:00:00Z,-20.88,115.4,26.0,20.0,110,11,,,29.88189,,,TRUE,,,,,,,,,,,,,,,,,,,,,,,,,,,,METAR,6.0
YBWP 180700Z AUTO 17002KT 9999 // SCT045 OVC066 30/24 Q1008,YBWP,2015-04-18T07:00:00Z,-12.68,141.92,30.0,24.0,170,2,,6.21,29.763779,,,TRUE,,,,,,,,SCT,4500,OVC,6600,,,,,VFR,,,,,,,,,,,,METAR,12.0
YBUD 180700Z AUTO 07008KT 9999 // SCT063 25/19 Q1018,YBUD,2015-04-18T07:00:00Z,-24.9,152.32,25.0,19.0,70,8,,6.21,30.059055,,,TRUE,,,,,,,,SCT,6300,,,,,,,VFR,,,,,,,,,,,,METAR,82.0
YBTL 180700Z 10012KT 9999 FEW025 SCT070 BKN350 28/21 Q1014 RMK DISTANT SHOWERS,YBTL,2015-04-18T07:00:00Z,-19.25,146.75,28.0,21.0,100,12,,6.21,29.940945,,,,,,,,,,,FEW,2500,SCT,7000,BKN,35000,,,VFR,,,,,,,,,,,,SPECI,6.0
SCTN 180700Z AUTO 36025G43KT 9999 RA FEW032 OVC036 13/11 Q1001,SCTN,2015-04-18T07:00:00Z,-42.92,-72.7,13.0,11.0,360,25,43,6.21,29.557087,,,TRUE,,,,,,,RA,FEW,3200,OVC,3600,,,,,VFR,,,,,,,,,,,,METAR,4.0
SCPQ 180700Z AUTO 36017KT 4100 RA BKN003 OVC008 10/10 Q1001,SCPQ,2015-04-18T07:00:00Z,-42.33,-73.72,10.0,10.0,360,17,,2.55,29.557087,,,TRUE,,,,,,,RA,BKN,300,OVC,800,,,,,LIFR,,,,,,,,,,,,METAR,5.0
SCIP 180700Z 33005KT 9999 SCT020 BKN250 24/19 Q1020 NOSIG,SCIP,2015-04-18T07:00:00Z,-27.17,-109.43,24.0,19.0,330,5,,6.21,30.11811,,,,,,TRUE,,,,,SCT,2000,BKN,25000,,,,,VFR,,,,,,,,,,,,METAR,69.0
SCEL 180700Z 09002KT 7000 SKC 09/03 Q1015 NOSIG,SCEL,2015-04-18T07:00:00Z,-33.37,-70.77,9.0,3.0,90,2,,4.35,29.970472,,,,,,TRUE,,,,,SKC,,,,,,,,MVFR,,,,,,,,,,,,METAR,476.0
SCCI 180700Z 25004KT 9999 BKN030 04/04 Q0999 NOSIG,SCCI,2015-04-18T07:00:00Z,-53.0,-70.83,4.0,4.0,250,4,,6.21,29.498032,,,,,,TRUE,,,,,BKN,3000,,,,,,,MVFR,,,,,,,,,,,,METAR,37.0
SCVD 180700Z AUTO 06004KT 9999 // SCT036 BKN053 12/08 Q1011,SCVD,2015-04-18T07:00:00Z,-39.65,-73.07,12.0,8.0,60,4,,6.21,29.852362,,,TRUE,,,,,,,,SCT,3600,BKN,5300,,,,,VFR,,,,,,,,,,,,METAR,14.0
SCSE 180700Z 31003KT 5000 BR OVC007 13/12 Q1012,SCSE,2015-04-18T07:00:00Z,-29.92,-71.2,13.0,12.0,310,3,,3.11,29.88189,,,,,,,,,,BR,OVC,700,,,,,,,IFR,,,,,,,,,,,,METAR,146.0
SCDA 180700Z 23003KT 9999 OVC030 21/15 Q1014,SCDA,2015-04-18T07:00:00Z,-20.52,-70.17,21.0,15.0,230,3,,6.21,29.940945,,,,,,,,,,,OVC,3000,,,,,,,MVFR,,,,,,,,,,,,METAR,52.0
SCAT 180700Z AUTO 02005KT 330V040 5000 // ///004 14/12 Q1014,SCAT,2015-04-18T07:00:00Z,-27.27,-70.77,14.0,12.0,20,5,,3.11,29.940945,,,TRUE,,,,,,,,,,,,,,,,,,,,,,,,,,,,METAR,204.0
SCIE 180700Z 15001KT CAVOK 07/06 Q1015,SCIE,2015-04-18T07:00:00Z,-36.77,-73.07,7.0,6.0,150,1,,6.21,29.970472,,,,,,,,,,,CAVOK,,,,,,,,VFR,,,,,,,,,,,,METAR,16.0
SCCF 180700Z 10013KT CAVOK 08/M09 Q1025,SCCF,2015-04-18T07:00:00Z,-22.5,-68.9,8.0,-9.0,100,13,,6.21,30.265747,,,,,,,,,,,CAVOK,,,,,,,,VFR,,,,,,,,,,,,METAR,2312.0
SCBA 180700Z AUTO 13005KT 9999 -DZ FEW030 BKN038 OVC043 07/05 Q0998,SCBA,2015-04-18T07:00:00Z,-45.92,-71.67,7.0,5.0,130,5,,6.21,29.468504,,,TRUE,,,,,,,-DZ,FEW,3000,BKN,3800,OVC,4300,,,VFR,,,,,,,,,,,,METAR,524.0
SCAR 180700Z 10002KT 9999 OVC036 21/14 Q1013,SCAR,2015-04-18T07:00:00Z,-18.35,-70.32,21.0,14.0,100,2,,6.21,29.911417,,,,,,,,,,,OVC,3600,,,,,,,VFR,,,,,,,,,,,,METAR,59.0
SCFA 180700Z 30002KT 9999 BKN020 18/13 Q1013 NOSIG,SCFA,2015-04-18T07:00:00Z,-23.42,-70.42,18.0,13.0,300,2,,6.21,29.911417,,,,,,TRUE,,,,,BKN,2000,,,,,,,MVFR,,,,,,,,,,,,METAR,120.0
UKLN 180700Z 27003MPS 210V310 9999 -SHRA BKN023CB BKN100 07/05 Q1010 33290260 NOSIG,UKLN,2015-04-18T07:00:00Z,48.27,25.98,7.0,5.0,270,6,,6.21,29.822834,,,,,,TRUE,,,,-SHRA,BKN,2300,BKN,10000,,,,,MVFR,,,,,,,,,,,,METAR,252.0
UKKM 180700Z AUTO 34004MPS 9999 NCD 09/00 Q1007,UKKM,2015-04-18T07:00:00Z,50.6,30.2,9.0,0.0,340,8,,6.21,29.734253,,,TRUE,,,,,,,,,,,,,,,,,,,,,,,,,,,,METAR,157.0
UKKK 180700Z 35004MPS 320V040 CAVOK 09/01 Q1007 26CLRD70 NOSIG,UKKK,2015-04-18T07:00:00Z,50.4,30.45,9.0,1.0,350,8,,6.21,29.734253,,,,,,TRUE,,,,,CAVOK,,,,,,,,VFR,,,,,,,,,,,,METAR,179.0
UKLU 180700Z 35005G10MPS 9999 SCT040 BKN200 09/M02 Q1013 NOSIG,UKLU,2015-04-18T07:00:00Z,48.63,22.27,9.0,-2.0,350,10,19,6.21,29.911417,,,,,,TRUE,,,,,SCT,4000,BKN,20000,,,,,VFR,,,,,,,,,,,,METAR,117.0
UKON 180700Z 35007MPS 9999 BKN008 BKN026CB 10/09 Q1005 NOSIG,UKON,2015-04-18T07:00:00Z,47.05,31.92,10.0,9.0,350,14,,6.21,29.675198,,,,,,TRUE,,,,,BKN,800,BKN,2600,,,,,IFR,,,,,,,,,,,,METAR,56.0
UKLI 180700Z 32004MPS 280V010 9999 BKN040 BKN100 07/03 Q1011 28290065 NOSIG,UKLI,2015-04-18T07:00:00Z,48.88,24.68,7.0,3.0,320,8,,6.21,29.852362,,,,,,TRUE,,,,,BKN,4000,BKN,10000,,,,,VFR,,,,,,,,,,,,METAR,280.0
UKLR 180700Z 32005MPS 9999 FEW021CB SCT021 BKN100 05/00 Q1010 NOSIG,UKLR,2015-04-18T07:00:00Z,50.6,26.13,5.0,0.0,320,10,,6.21,29.822834,,,,,,TRUE,,,,,FEW,2100,SCT,2100,BKN,10000,,,VFR,,,,,,,,,,,,METAR,230.0
FWCL 180700Z 04004KT 9999 BKN020 25/20 Q1022 NOSIG,FWCL,2015-04-18T07:00:00Z,-15.67,34.97,25.0,20.0,40,4,,6.21,30.177166,,,,,,TRUE,,,,,BKN,2000,,,,,,,MVFR,,,,,,,,,,,,METAR,767.0
FIMR 180700Z 12016KT 9999 SCT018 28/23 Q1015,FIMR,2015-04-18T07:00:00Z,-19.75,63.37,28.0,23.0,120,16,,6.21,29.970472,,,,,,,,,,,SCT,1800,,,,,,,VFR,,,,,,,,,,,,METAR,31.0
FDMS 180700Z 00000KT 9999 SCT025 BKN030 16/13 Q1026 NOSIG,FDMS,2015-04-18T07:00:00Z,-26.52,31.3,16.0,13.0,0,0,,6.21,30.295275,,,,,,TRUE,,,,,SCT,2500,BKN,3000,,,,,MVFR,,,,,,,,,,,,METAR,641.0
WSSL 180700Z VRB04KT 9999 FEW014 SCT018TCU FEW020CB 33/23 Q1008 RMK 0630Z Q1008,WSSL,2015-04-18T07:00:00Z,1.42,103.87,33.0,23.0,0,4,,6.21,29.763779,,,,,,,,,,,FEW,1400,SCT,1800,FEW,2000,,,VFR,,,,,,,,,,,,METAR,14.0
SKSP 180700Z 06005KT 9999 FEW014 BKN080 27/24 A2988,SKSP,2015-04-18T07:00:00Z,12.57,-81.72,27.0,24.0,60,5,,6.21,29.878937,,,,,,,,,,,FEW,1400,BKN,8000,,,,,VFR,,,,,,,,,,,,METAR,-2.0
UBBY 180700Z 27005KT 9999 NSC 17/09 Q1019 R33/////// NOSIG RMK MT OP,UBBY,2015-04-18T07:00:00Z,41.57,46.67,17.0,9.0,270,5,,6.21,30.088583,,,,,,TRUE,,,,,,,,,,,,,,,,,,,,,,,,,METAR,390.0
LRCT 180700Z 31013KT 9999 SCT050 BKN080 10/06 Q1008 BLU BLU,LRCT,2015-04-18T07:00:00Z,46.5,23.88,10.0,6.0,310,13,,6.21,29.763779,,,,,,,,,,,SCT,5000,BKN,8000,,,,,VFR,,,,,,,,,,,,METAR,331.0
UTAA 180700Z 12003MPS 070V160 9999 FEW050CB SCT050 BKN100 19/03 Q1018 R12/CLRD70 NOSIG,UTAA,2015-04-18T07:00:00Z,37.98,58.37,19.0,3.0,120,6,,6.21,30.059055,,,,,,TRUE,,,,,FEW,5000,SCT,5000,BKN,10000,,,VFR,,,,,,,,,,,,METAR,210.0
WSAP 180700Z 13005KT 9999 FEW018TCU BKN300 33/23 Q1008,WSAP,2015-04-18T07:00:00Z,1.37,103.92,33.0,23.0,130,5,,6.21,29.763779,,,,,,,,,,,FEW,1800,BKN,30000,,,,,VFR,,,,,,,,,,,,METAR,32.0
SEGU 180700Z 24005KT 9999 SCT023 BKN100 26/24 Q1010 NOSIG RMK A2983,SEGU,2015-04-18T07:00:00Z,-2.13,-79.87,26.0,24.0,240,5,,6.21,29.822834,,,,,,TRUE,,,,,SCT,2300,BKN,10000,,,,,VFR,,,,,,,,,,,,METAR,9.0
SELT 180700Z 00000KT 9999 FEW030 10/09 Q1031,SELT,2015-04-18T07:00:00Z,-0.92,-78.62,10.0,9.0,0,0,,6.21,30.442913,,,,,,,,,,,FEW,3000,,,,,,,VFR,,,,,,,,,,,,METAR,2785.0
SEMT 180700Z VRB02KT 9999 FEW020 24/23 Q1010,SEMT,2015-04-18T07:00:00Z,-0.95,-80.67,24.0,23.0,0,2,,6.21,29.822834,,,,,,,,,,,FEW,2000,,,,,,,VFR,,,,,,,,,,,,METAR,14.0
SEQM 180700Z 00000KT 9999 SCT080 12/10 Q1026 NOSIG RMK A3030,SEQM,2015-04-18T07:00:00Z,-0.12,-78.35,12.0,10.0,0,0,,6.21,30.295275,,,,,,TRUE,,,,,SCT,8000,,,,,,,VFR,,,,,,,,,,,,METAR,2400.0
YWLM 180700Z AUTO 04007KT 9999 // NCD 23/18 Q1014,YWLM,2015-04-18T07:00:00Z,-32.8,151.83,23.0,18.0,40,7,,6.21,29.940945,,,TRUE,,,,,,,,,,,,,,,,,,,,,,,,,,,,METAR,9.0
YWHA 180700Z AUTO 29010KT 9999 // SCT050 SCT070 21/11 Q1018,YWHA,2015-04-18T07:00:00Z,-33.07,137.52,21.0,11.0,290,10,,6.21,30.059055,,,TRUE,,,,,,,,SCT,5000,SCT,7000,,,,,VFR,,,,,,,,,,,,METAR,13.0
YWGT 180700Z AUTO 28005KT //// // ////// 16/13 Q1013,YWGT,2015-04-18T07:00:00Z,-36.42,146.3,16.0,13.0,280,5,,,29.911417,,,TRUE,,,,,,,,,,,,,,,,,,,,,,,,,,,,METAR,153.0
YTRE 180700Z AUTO 03006KT 9999 // NCD 24/17 Q1015,YTRE,2015-04-18T07:00:00Z,-31.88,152.52,24.0,17.0,30,6,,6.21,29.970472,,,TRUE,,,,,,,,,,,,,,,,,,,,,,,,,,,,METAR,12.0
YTNK 180700Z AUTO 09012KT 9999 // SCT045 OVC052 29/16 Q1015,YTNK,2015-04-18T07:00:00Z,-19.63,134.18,29.0,16.0,90,12,,6.21,29.970472,,,TRUE,,,,,,,,SCT,4500,OVC,5200,,,,,VFR,,,,,,,,,,,,METAR,377.0
YTEF 180700Z AUTO 15012KT //// // ////// 29/10 Q1015,YTEF,2015-04-18T07:00:00Z,-21.72,122.23,29.0,10.0,150,12,,,29.970472,,,TRUE,,,,,,,,,,,,,,,,,,,,,,,,,,,,METAR,296.0
YSTW 180700Z AUTO 34010KT 9999 // NCD 24/12 Q1017,YSTW,2015-04-18T07:00:00Z,-31.07,150.85,24.0,12.0,340,10,,6.21,30.029528,,,TRUE,,,,,,,,,,,,,,,,,,,,,,,,,,,,METAR,410.0
SMJP 180700Z VRB02KT 9999 SCT005 SCT020 23/22 Q1012 NOSIG,SMJP,2015-04-18T07:00:00Z,5.45,-55.17,23.0,22.0,0,2,,6.21,29.88189,,,,,,TRUE,,,,,SCT,500,SCT,2000,,,,,VFR,,,,,,,,,,,,METAR,16.0
SPZO 180700Z 27004KT 9999 SCT043 BKN080 08/06 Q1031 RMK -RA QUAD NE PP000,SPZO,2015-04-18T07:00:00Z,-13.55,-71.97,8.0,6.0,270,4,,6.21,30.442913,,,,,,,,,,,SCT,4300,BKN,8000,,,,,VFR,,,,,,,,,,,,METAR,3249.0
SPTN 180700Z 00000KT 9999 OVC040 18/16 Q1015 RMK PP000,SPTN,2015-04-18T07:00:00Z,-18.07,-70.28,18.0,16.0,0,0,,6.21,29.970472,,,,,,,,,,,OVC,4000,,,,,,,VFR,,,,,,,,,,,,METAR,458.0
SPSO 180700Z 23011KT CAVOK 20/18 Q1010 RMK PP000,SPSO,2015-04-18T07:00:00Z,-13.73,-76.22,20.0,18.0,230,11,,6.21,29.822834,,,,,,,,,,,CAVOK,,,,,,,,VFR,,,,,,,,,,,,METAR,10.0
SPRU 180700Z 00000KT 5000 BR SCT010 OVC130 20/18 Q1011 RMK PP000,SPRU,2015-04-18T07:00:00Z,-8.08,-79.12,20.0,18.0,0,0,,3.11,29.852362,,,,,,,,,,BR,SCT,1000,OVC,13000,,,,,MVFR,,,,,,,,,,,,METAR,30.0
SPQU 180700Z 35005KT 9999 FEW100 13/01 Q1024 RMK PP000,SPQU,2015-04-18T07:00:00Z,-16.33,-71.57,13.0,1.0,350,5,,6.21,30.236221,,,,,,,,,,,FEW,10000,,,,,,,VFR,,,,,,,,,,,,METAR,2554.0
SPQT 180700Z 00000KT 9999 SCT015 BKN100 24/23 Q1011 RMK PP000,SPQT,2015-04-18T07:00:00Z,-3.78,-73.32,24.0,23.0,0,0,,6.21,29.852362,,,,,,,,,,,SCT,1500,BKN,10000,,,,,VFR,,,,,,,,,,,,METAR,126.0
SPHI 180700Z 18008KT CAVOK 22/19 Q1011 RMK PP000,SPHI,2015-04-18T07:00:00Z,-6.77,-79.82,22.0,19.0,180,8,,6.21,29.852362,,,,,,,,,,,CAVOK,,,,,,,,VFR,,,,,,,,,,,,METAR,34.0
SPCL 180700Z 12005KT 9999 SCT017 BKN100 24/23 Q1012 RMK PP000,SPCL,2015-04-18T07:00:00Z,-8.38,-74.58,24.0,23.0,120,5,,6.21,29.88189,,,,,,,,,,,SCT,1700,BKN,10000,,,,,VFR,,,,,,,,,,,,METAR,149.0
LDSB 180700Z 11006KT 9999 FEW010 BKN050 10/// Q1014,LDSB,2015-04-18T07:00:00Z,43.28,16.68,,,110,6,,6.21,29.940945,,,,,,,,,,,FEW,1000,BKN,5000,,,,,VFR,,,,,,,,,,,,METAR,542.0
FNBC 180700Z 05008KT 0200 FG OVC010 22/22 Q1016,FNBC,2015-04-18T07:00:00Z,-6.27,14.25,22.0,22.0,50,8,,0.12,30.0,,,,,,,,,,FG,OVC,1000,,,,,,,LIFR,,,,,,,,,,,,METAR,567.0
FIMP 180700Z 13012KT 9999 BKN016 27/24 Q1017,FIMP,2015-04-18T07:00:00Z,-20.42,57.67,27.0,24.0,130,12,,6.21,30.029528,,,,,,,,,,,BKN,1600,,,,,,,MVFR,,,,,,,,,,,,METAR,57.0
UBBQ 180700Z 29004KT 250V340 9999 NSC 17/10 Q1015 R34/CLRD70 NOSIG RMK MT OP,UBBQ,2015-04-18T07:00:00Z,40.82,47.72,17.0,10.0,290,4,,6.21,29.970472,,,,,,TRUE,,,,,,,,,,,,,,,,,,,,,,,,,METAR,338.0
OERK 180700Z 04013KT CAVOK 26/01 Q1019 NOSIG,OERK,2015-04-18T07:00:00Z,24.95,46.72,26.0,1.0,40,13,,6.21,30.088583,,,,,,TRUE,,,,,CAVOK,,,,,,,,VFR,,,,,,,,,,,,METAR,612.0
OEMA 180700Z 06017KT 2000 BLDU SKC 24/M01 Q1021 NOSIG,OEMA,2015-04-18T07:00:00Z,24.55,39.7,24.0,-1.0,60,17,,1.24,30.147638,,,,,,TRUE,,,,BLDU,SKC,,,,,,,,IFR,,,,,,,,,,,,METAR,631.0
OEJN 180700Z 32008KT CAVOK 27/12 Q1014 NOSIG,OEJN,2015-04-18T07:00:00Z,21.68,39.15,27.0,12.0,320,8,,6.21,29.940945,,,,,,TRUE,,,,,CAVOK,,,,,,,,VFR,,,,,,,,,,,,METAR,15.0
OEDR 180700Z 35022G33KT 7000 SKC 31/09 Q1011 NOSIG,OEDR,2015-04-18T07:00:00Z,26.27,50.17,31.0,9.0,350,22,33,4.35,29.852362,,,,,,TRUE,,,,,SKC,,,,,,,,MVFR,,,,,,,,,,,,METAR,17.0
OEDF 180700Z 35021KT 3000 BLDU SKC 30/07 Q1013 NOSIG,OEDF,2015-04-18T07:00:00Z,26.47,49.8,30.0,7.0,350,21,,1.86,29.911417,,,,,,TRUE,,,,BLDU,SKC,,,,,,,,IFR,,,,,,,,,,,,METAR,22.0
MUVR 180700Z AUTO 17001KT 21/19 Q1015,MUVR,2015-04-18T07:00:00Z,23.03,-81.43,21.0,19.0,170,1,,,29.970472,,,TRUE,,,,,,,,,,,,,,,,,,,,,,,,,,,,METAR,65.0
AGGH 180700Z 11006KT 9999 FEW018 SCT110 BKN300 28/24 Q1008,AGGH,2015-04-18T07:00:00Z,-9.42,160.05,28.0,24.0,110,6,,6.21,29.763779,,,,,,,,,,,FEW,1800,SCT,11000,BKN,30000,,,VFR,,,,,,,,,,,,METAR,9.0
ORMM 180700Z 30018KT CAVOK 29/05 Q1015 NOSIG,ORMM,2015-04-18T07:00:00Z,30.57,47.67,29.0,5.0,300,18,,6.21,29.970472,,,,,,TRUE,,,,,CAVOK,,,,,,,,VFR,,,,,,,,,,,,METAR,2.0
WIII 180700Z 32010KT 9000 SCT020 32/24 Q1007 NOSIG,WIII,2015-04-18T07:00:00Z,-6.13,106.67,32.0,24.0,320,10,,5.59,29.734253,,,,,,TRUE,,,,,SCT,2000,,,,,,,VFR,,,,,,,,,,,,METAR,8.0
SKCG 180700Z 00000KT CAVOK 26/24 A2982,SKCG,2015-04-18T07:00:00Z,10.43,-75.52,26.0,24.0,0,0,,6.21,29.819881,,,,,,,,,,,CAVOK,,,,,,,,VFR,,,,,,,,,,,,METAR,1.0
SKBO 180700Z VRB02KT 8000 RA FEW010 BKN017 11/10 A3034,SKBO,2015-04-18T07:00:00Z,4.7,-74.12,11.0,10.0,0,2,,4.97,30.339567,,,,,,,,,,RA,FEW,1000,BKN,1700,,,,,MVFR,,,,,,,,,,,,METAR,2548.0
LETL 180700Z AUTO 14006KT 110V170 CAVOK 10/07 Q1016,LETL,2015-04-18T07:00:00Z,40.42,-1.22,10.0,7.0,140,6,,6.21,30.0,,,TRUE,,,,,,,,CAVOK,,,,,,,,VFR,,,,,,,,,,,,METAR,1013.0
LEAG 180700Z AUTO 00000KT 9999 FEW041 14/11 Q1016,LEAG,2015-04-18T07:00:00Z,,,14.0,11.0,0,0,,6.21,30.0,,,TRUE,,,,,,,,FEW,4100,,,,,,,VFR,,,,,,,,,,,,METAR,
LEXJ 180700Z 26004KT 9999 FEW012 SCT020 12/11 Q1013,LEXJ,2015-04-18T07:00:00Z,43.42,-3.82,12.0,11.0,260,4,,6.21,29.911417,,,,,,,,,,,FEW,1200,SCT,2000,,,,,VFR,,,,,,,,,,,,METAR,6.0
LEPP 180700Z VRB01KT 9999 FEW052 09/09 Q1014,LEPP,2015-04-18T07:00:00Z,42.77,-1.65,9.0,9.0,0,1,,6.21,29.940945,,,,,,,,,,,FEW,5200,,,,,,,VFR,,,,,,,,,,,,METAR,459.0
LELL 180700Z VRB01KT 9999 FEW065 13/11 Q1016,LELL,2015-04-18T07:00:00Z,41.52,2.1,13.0,11.0,0,1,,6.21,30.0,,,,,,,,,,,FEW,6500,,,,,,,VFR,,,,,,,,,,,,METAR,250.0
LEJR 180700Z 00000KT 9999 FEW035 11/11 Q1016,LEJR,2015-04-18T07:00:00Z,36.75,-6.07,11.0,11.0,0,0,,6.21,30.0,,,,,,,,,,,FEW,3500,,,,,,,VFR,,,,,,,,,,,,METAR,30.0
LESA 180700Z 00000KT CAVOK 07/04 Q1015,LESA,2015-04-18T07:00:00Z,40.95,-5.5,7.0,4.0,0,0,,6.21,29.970472,,,,,,,,,,,CAVOK,,,,,,,,VFR,,,,,,,,,,,,METAR,795.0
GCFV 180700Z 36010KT 9999 FEW020 SCT032 17/12 Q1017,GCFV,2015-04-18T07:00:00Z,28.43,-13.87,17.0,12.0,360,10,,6.21,30.029528,,,,,,,,,,,FEW,2000,SCT,3200,,,,,VFR,,,,,,,,,,,,METAR,23.0
GCRR 180700Z 36012KT 310V020 9999 FEW025 SCT035 17/12 Q1017,GCRR,2015-04-18T07:00:00Z,28.93,-13.58,17.0,12.0,360,12,,6.21,30.029528,,,,,,,,,,,FEW,2500,SCT,3500,,,,,VFR,,,,,,,,,,,,METAR,40.0
GCTS 180700Z 36009KT 9999 FEW025 16/07 Q1018 NOSIG,GCTS,2015-04-18T07:00:00Z,28.05,-16.57,16.0,7.0,360,9,,6.21,30.059055,,,,,,TRUE,,,,,FEW,2500,,,,,,,VFR,,,,,,,,,,,,METAR,72.0
GCXO 180700Z 31007KT 290V350 9999 FEW003 BKN010 12/10 Q1019 NOSIG,GCXO,2015-04-18T07:00:00Z,28.48,-16.35,12.0,10.0,310,7,,6.21,30.088583,,,,,,TRUE,,,,,FEW,300,BKN,1000,,,,,MVFR,,,,,,,,,,,,METAR,632.0
GCLP 180700Z 35012KT 9999 FEW021 17/11 Q1018 NOSIG,GCLP,2015-04-18T07:00:00Z,27.92,-15.37,17.0,11.0,350,12,,6.21,30.059055,,,,,,TRUE,,,,,FEW,2100,,,,,,,VFR,,,,,,,,,,,,METAR,25.0
GCLA 180700Z 31005KT 9999 BKN050 18/08 Q1019,GCLA,2015-04-18T07:00:00Z,28.62,-17.75,18.0,8.0,310,5,,6.21,30.088583,,,,,,,,,,,BKN,5000,,,,,,,VFR,,,,,,,,,,,,METAR,31.0
TLPL 180700Z 11020KT 9999 SCT023 BKN280 27/23 Q1015 NOSIG,TLPL,2015-04-18T07:00:00Z,13.75,-60.95,27.0,23.0,110,20,,6.21,29.970472,,,,,,TRUE,,,,,SCT,2300,BKN,28000,,,,,VFR,,,,,,,,,,,,METAR,3.0
GUCY 180700Z 29004KT 5000 BR SCT110 26/22 Q1013 NOSIG,GUCY,2015-04-18T07:00:00Z,9.57,-13.62,26.0,22.0,290,4,,3.11,29.911417,,,,,,TRUE,,,,BR,SCT,11000,,,,,,,MVFR,,,,,,,,,,,,METAR,26.0
OIBL 180700Z 11010KT 5000 HZ SKC 31/21 Q1009,OIBL,2015-04-18T07:00:00Z,26.53,54.82,31.0,21.0,110,10,,3.11,29.793306,,,,,,,,,,HZ,SKC,,,,,,,,MVFR,,,,,,,,,,,,METAR,14.0
OIBQ 180700Z 31016KT CAVOK 24/18 Q1012,OIBQ,2015-04-18T07:00:00Z,29.27,50.32,24.0,18.0,310,16,,6.21,29.88189,,,,,,,,,,,CAVOK,,,,,,,,VFR,,,,,,,,,,,,METAR,6.0
OIIK 180700Z 00000KT 7000 FEW040 19/03 Q1017,OIIK,2015-04-18T07:00:00Z,36.25,50.05,19.0,3.0,0,0,,4.35,30.029528,,,,,,,,,,,FEW,4000,,,,,,,MVFR,,,,,,,,,,,,METAR,1278.0
FKKN 180700Z 00000KT CAVOK 21/12 Q1019,FKKN,2015-04-18T07:00:00Z,7.33,13.57,21.0,12.0,0,0,,6.21,30.088583,,,,,,,,,,,CAVOK,,,,,,,,VFR,,,,,,,,,,,,METAR,1104.0
FKKD 180700Z 00000KT 9999 TS BKN013 FEW016CB 28/26 Q1012 BECMG NSW BKN16 FEW020CB,FKKD,2015-04-18T07:00:00Z,4.0,9.72,28.0,26.0,0,0,,6.21,29.88189,,,,,,,,,,TS,BKN,1300,FEW,1600,,,,,MVFR,,,,,,,,,,,,METAR,9.0
FKKR 180700Z 22004KT 8000 NSC 28/01 Q1012 NOSIG,FKKR,2015-04-18T07:00:00Z,9.32,13.37,28.0,1.0,220,4,,4.97,29.88189,,,,,,TRUE,,,,,,,,,,,,,,,,,,,,,,,,,METAR,244.0
LECV 180700Z VRB02KT 9999 FEW020TCU SCT063 11/07 Q1015,LECV,2015-04-18T07:00:00Z,40.63,-3.72,11.0,7.0,0,2,,6.21,29.970472,,,,,,,,,,,FEW,2000,SCT,6300,,,,,VFR,,,,,,,,,,,,METAR,710.0
OLBA 180700Z 22008KT 8000 FEW026 19/14 Q1025,OLBA,2015-04-18T07:00:00Z,33.82,35.47,19.0,14.0,220,8,,4.97,30.265747,,,,,,,,,,,FEW,2600,,,,,,,MVFR,,,,,,,,,,,,METAR,19.0
KTIK 180659Z AUTO VRB05KT 10SM CLR 18/15 A2993 RMK AO2 LTG DSNT NE,KTIK,2015-04-18T06:59:00Z,35.42,-97.37,18.0,15.0,0,5,,10.0,29.929134,,,TRUE,TRUE,,,,,,,CLR,,,,,,,,VFR,,,,,,,,,,,,SPECI,394.0
KNOG 180659Z AUTO 15008KT 10SM FEW005 SCT009 SCT015 20/19 A2986 RMK AO2 T02000189 TSNO $,KNOG,2015-04-18T06:59:00Z,27.9,-98.05,20.0,18.9,150,8,,10.0,29.861221,,,TRUE,TRUE,TRUE,,TRUE,,,,FEW,500,SCT,900,SCT,1500,,,VFR,,,,,,,,,,,,METAR,78.0
KNGU 180659Z 20004KT 10SM BKN240 20/17 A2997 RMK AO2 SLP148 T02000167,KNGU,2015-04-18T06:59:00Z,36.92,-76.27,20.0,16.7,200,4,,10.0,29.970472,1014.8,,,TRUE,,,,,,,BKN,24000,,,,,,,VFR,,,,,,,,,,,,SPECI,5.0
EGVA 180658Z AUTO 07011KT 9999 SCT012 05/03 A3034 RMK AO2 SLP280 T00520031 $,EGVA,2015-04-18T06:58:00Z,51.67,-1.77,5.2,3.1,70,11,,6.21,30.339567,1028.0,,TRUE,TRUE,TRUE,,,,,,SCT,1200,,,,,,,VFR,,,,,,,,,,,,METAR,87.0
EGUN 180658Z AUTO 05008KT 9999 CLR 06/05 A3039 RMK AO2 SLP295 T00560045,EGUN,2015-04-18T06:58:00Z,52.37,0.47,5.6,4.5,50,8,,6.21,30.389763,1029.5,,TRUE,TRUE,,,,,,,CLR,,,,,,,,VFR,,,,,,,,,,,,METAR,10.0
EGUL 180658Z AUTO 05007KT 9999 CLR 06/05 A3038 RMK AO2 SLP291 T00600045,EGUL,2015-04-18T06:58:00Z,52.42,0.57,6.0,4.5,50,7,,6.21,30.380905,1029.1,,TRUE,TRUE,,,,,,,CLR,,,,,,,,VFR,,,,,,,,,,,,METAR,10.0
KCVS 180658Z AUTO 35010KT 10SM CLR 08/M08 A2999 RMK AO2 SLP125 T00771084 402010043 $,KCVS,2015-04-18T06:58:00Z,34.37,-103.32,7.7,-8.4,350,10,,10.0,29.991142,1012.5,,TRUE,TRUE,TRUE,,,,,,CLR,,,,,,,,VFR,,,,20.1,4.3,,,,,,,SPECI,1309.0
ROTM 180658Z 14013G20KT 9000 HZ OVC200 24/18 A2999 RMK SLP141 XWND ADV T02440183,ROTM,2015-04-18T06:58:00Z,26.27,127.75,24.4,18.3,140,13,20,5.59,29.991142,1014.1,,,,,,,,,HZ,OVC,20000,,,,,,,VFR,,,,,,,,,,,,METAR,75.0
KGSB 180658Z AUTO 00000KT 10SM SCT032 BKN180 19/18 A2996 RMK AO2 RAB11E12 SLP148 P0000 T01880180 $,KGSB,2015-04-18T06:58:00Z,35.32,-77.97,18.8,18.0,0,0,,10.0,29.958662,1014.8,,TRUE,TRUE,TRUE,,,,,,SCT,3200,BKN,18000,,,,,VFR,,,,,,0.0050,,,,,,METAR,33.0
RKSO 180658Z 23007KT 7SM BKN080 BKN095 OVC180 22/M03 A2989 RMK AO2A SLP125 T02171031 $,RKSO,2015-04-18T06:58:00Z,37.07,127.02,21.7,-3.1,230,7,,7.0,29.890747,1012.5,,,TRUE,TRUE,,,,,,BKN,8000,BKN,9500,OVC,18000,,,VFR,,,,,,,,,,,,METAR,12.0
KFBG 180658Z AUTO 33004KT 10SM CLR 19/18 A2997 RMK AO2 SLP150 T01880175 $,KFBG,2015-04-18T06:58:00Z,35.12,-78.92,18.8,17.5,330,4,,10.0,29.970472,1015.0,,TRUE,TRUE,TRUE,,,,,,CLR,,,,,,,,VFR,,,,,,,,,,,,METAR,74.0
RODN 180658Z AUTO 13013G19KT 9SM OVC190 24/18 A2997 RMK AO2 SLP155 T02350180,RODN,2015-04-18T06:58:00Z,26.35,127.77,23.5,18.0,130,13,19,9.0,29.970472,1015.5,,TRUE,TRUE,,,,,,,OVC,19000,,,,,,,VFR,,,,,,,,,,,,METAR,45.0
RKSG 180658Z AUTO 21005KT 10SM BKN080 20/M04 A2990 RMK AO2 SLP128 T02011036 $,RKSG,2015-04-18T06:58:00Z,36.97,127.02,20.1,-3.6,210,5,,10.0,29.899607,1012.8,,TRUE,TRUE,TRUE,,,,,,BKN,8000,,,,,,,VFR,,,,,,,,,,,,METAR,16.0
RKJK 180658Z AUTO 05006KT 10SM BKN070 OVC080 21/04 A2987 RMK AO2 SLP119 T02080044 $,RKJK,2015-04-18T06:58:00Z,35.9,126.62,20.8,4.4,50,6,,10.0,29.870079,1011.9,,TRUE,TRUE,TRUE,,,,,,BKN,7000,OVC,8000,,,,,VFR,,,,,,,,,,,,METAR,9.0
PAED 180658Z AUTO 36008KT 10SM OVC075 05/M05 A2975 RMK AO2 SLP071 T00491054,PAED,2015-04-18T06:58:00Z,61.25,-149.8,4.9,-5.4,360,8,,10.0,29.749016,1007.1,,TRUE,TRUE,,,,,,,OVC,7500,,,,,,,VFR,,,,,,,,,,,,METAR,59.0
KMGE 180658Z AUTO 05003KT 10SM OVC003 17/17 A2999 RMK AO2 SLP153 T01650165 $,KMGE,2015-04-18T06:58:00Z,33.92,-84.52,16.5,16.5,50,3,,10.0,29.991142,1015.3,,TRUE,TRUE,TRUE,,,,,,OVC,300,,,,,,,LIFR,,,,,,,,,,,,SPECI,326.0
KHLR 180658Z AUTO 33002KT 10SM BKN100 OVC170 17/17 A2992 RMK AO2 SLP124 T01740169,KHLR,2015-04-18T06:58:00Z,31.13,-97.72,17.4,16.9,330,2,,10.0,29.920275,1012.4,,TRUE,TRUE,,,,,,,BKN,10000,OVC,17000,,,,,VFR,,,,,,,,,,,,METAR,283.0
KGRK 180658Z AUTO 33005KT 10SM OVC170 18/17 A2991 RMK AO2 SLP122 T01750170,KGRK,2015-04-18T06:58:00Z,31.07,-97.83,17.5,17.0,330,5,,10.0,29.911417,1012.2,,TRUE,TRUE,,,,,,,OVC,17000,,,,,,,VFR,,,,,,,,,,,,METAR,309.0
KEGI 180658Z AUTO 02002KT 1/4SM FG VV001 20/20 A2992 RMK AO2 SLP133 T02000195 RVRNO $,KEGI,2015-04-18T06:58:00Z,30.63,-86.52,20.0,19.5,20,2,,0.25,29.920275,1013.3,,TRUE,TRUE,TRUE,,,,,FG,OVX,0,,,,,,,LIFR,,,,,,,,,,,100,METAR,59.0
KBIX 180658Z AUTO 05006KT 10SM FEW190 21/21 A2989 RMK AO2 SLP125 T02120212,KBIX,2015-04-18T06:58:00Z,30.42,-88.92,21.2,21.2,50,6,,10.0,29.890747,1012.5,,TRUE,TRUE,,,,,,,FEW,19000,,,,,,,VFR,,,,,,,,,,,,METAR,10.0
PAEI 180658Z AUTO 12007KT 060V140 10SM CLR 04/M08 A2985 RMK AO2 SLP115 T00411080 CHINO RWY14 $,PAEI,2015-04-18T06:58:00Z,64.67,-147.1,4.1,-8.0,120,7,,10.0,29.84941,1011.5,,TRUE,TRUE,TRUE,,,,,,CLR,,,,,,,,VFR,,,,,,,,,,,,METAR,167.0
KMUI 180658Z AUTO 07002KT 10SM CLR 15/09 A2999 RMK AO2 SLP157 T01530086,KMUI,2015-04-18T06:58:00Z,40.42,-76.57,15.3,8.6,70,2,,10.0,29.991142,1015.7,,TRUE,TRUE,,,,,,,CLR,,,,,,,,VFR,,,,,,,,,,,,METAR,149.0
KMCF 180658Z AUTO 00000KT 10SM CLR 23/22 A2997 RMK AO2 SLP152 T02260224,KMCF,2015-04-18T06:58:00Z,27.85,-82.52,22.6,22.4,0,0,,10.0,29.970472,1015.2,,TRUE,TRUE,,,,,,,CLR,,,,,,,,VFR,,,,,,,,,,,,METAR,4.0
KGUS 180658Z AUTO 19004KT 10SM CLR 13/08 A3004 RMK AO2 SLP173 T01260077,KGUS,2015-04-18T06:58:00Z,40.63,-86.15,12.6,7.7,190,4,,10.0,30.041338,1017.3,,TRUE,TRUE,,,,,,,CLR,,,,,,,,VFR,,,,,,,,,,,,METAR,247.0
KFTK 180658Z AUTO 00000KT 5SM R18/5000FT BR CLR 13/13 A3002 RMK AO2 SLP165 T01330127,KFTK,2015-04-18T06:58:00Z,37.88,-85.97,13.3,12.7,0,0,,5.0,30.02067,1016.5,,TRUE,TRUE,,,,,,BR,CLR,,,,,,,,MVFR,,,,,,,,,,,,METAR,230.0
KFFO 180658Z AUTO 27002KT 10SM CLR 10/07 A3004 RMK AO2 SLP174 T01010070,KFFO,2015-04-18T06:58:00Z,39.82,-84.03,10.1,7.0,270,2,,10.0,30.041338,1017.4,,TRUE,TRUE,,,,,,,CLR,,,,,,,,VFR,,,,,,,,,,,,METAR,251.0
KDAA 180658Z AUTO 29002KT 10SM SCT070 16/14 A2998 RMK AO2 SLP155 T01580142,KDAA,2015-04-18T06:58:00Z,38.72,-77.17,15.8,14.2,290,2,,10.0,29.97933,1015.5,,TRUE,TRUE,,,,,,,SCT,7000,,,,,,,VFR,,,,,,,,,,,,METAR,21.0
KCOF 180658Z AUTO 06004KT 10SM FEW120 25/23 A2996 RMK AO2 SLP150 T02460233 $,KCOF,2015-04-18T06:58:00Z,28.23,-80.6,24.6,23.3,60,4,,10.0,29.958662,1015.0,,TRUE,TRUE,TRUE,,,,,,FEW,12000,,,,,,,VFR,,,,,,,,,,,,METAR,3.0
KBAD 180658Z AUTO 00000KT 10SM FEW042 21/19 A2993 RMK AO2 SLP137 T02060187,KBAD,2015-04-18T06:58:00Z,32.5,-93.67,20.6,18.7,0,0,,10.0,29.929134,1013.7,,TRUE,TRUE,,,,,,,FEW,4200,,,,,,,VFR,,,,,,,,,,,,METAR,51.0
KSSC 180658Z AUTO 00000KT 10SM BKN039 OVC070 18/18 A2996 RMK AO2 DZE24 SLP146 P0000 T01820176 $,KSSC,2015-04-18T06:58:00Z,33.97,-80.47,18.2,17.6,0,0,,10.0,29.958662,1014.6,,TRUE,TRUE,TRUE,,,,,,BKN,3900,OVC,7000,,,,,VFR,,,,,,0.0050,,,,,,METAR,74.0
KRCA 180658Z AUTO 22002KT 10SM OVC044 09/08 A3007 RMK AO2 SLP184 T00930079 401500013 $,KRCA,2015-04-18T06:58:00Z,44.13,-103.08,9.3,7.9,220,2,,10.0,30.070866,1018.4,,TRUE,TRUE,TRUE,,,,,,OVC,4400,,,,,,,VFR,,,,15.0,1.3,,,,,,,METAR,999.0
KVOK 180658Z AUTO 27004KT 10SM CLR 08/08 A3003 RMK AO2 SLP171 T00830083,KVOK,2015-04-18T06:58:00Z,43.92,-90.27,8.3,8.3,270,4,,10.0,30.029528,1017.1,,TRUE,TRUE,,,,,,,CLR,,,,,,,,VFR,,,,,,,,,,,,METAR,277.0
KTTS 180658Z AUTO 00000KT 8SM SCT110 OVC180 22/21 A2996 RMK AO2 SLP150 T02200213,KTTS,2015-04-18T06:58:00Z,28.62,-80.72,22.0,21.3,0,0,,8.0,29.958662,1015.0,,TRUE,TRUE,,,,,,,SCT,11000,OVC,18000,,,,,VFR,,,,,,,,,,,,METAR,3.0
KOFF 180658Z AUTO 09005KT 10SM SCT055 OVC100 17/13 A2996 RMK AO2 SLP144 T01740129 $,KOFF,2015-04-18T06:58:00Z,41.12,-95.92,17.4,12.9,90,5,,10.0,29.958662,1014.4,,TRUE,TRUE,TRUE,,,,,,SCT,5500,OVC,10000,,,,,VFR,,,,,,,,,,,,METAR,319.0
KHST 180658Z AUTO 16003KT 10SM CLR 22/22 A2998 RMK AO2 DZB20E29 SLP155 P0000 T02190216,KHST,2015-04-18T06:58:00Z,25.47,-80.37,21.9,21.6,160,3,,10.0,29.97933,1015.5,,TRUE,TRUE,,,,,,,CLR,,,,,,,,VFR,,,,,,0.0050,,,,,,METAR,2.0
KHOP 180658Z AUTO 11002KT 7SM CLR 14/14 A3001 RMK AO2 SLP162 T01420139,KHOP,2015-04-18T06:58:00Z,36.67,-87.5,14.2,13.9,110,2,,7.0,30.008858,1016.2,,TRUE,TRUE,,,,,,,CLR,,,,,,,,VFR,,,,,,,,,,,,METAR,174.0
KGTB 180658Z AUTO 24006KT 10SM CLR 08/08 A2992 RMK AO2 SLP134 T00780077,KGTB,2015-04-18T06:58:00Z,44.07,-75.72,7.8,7.7,240,6,,10.0,29.920275,1013.4,,TRUE,TRUE,,,,,,,CLR,,,,,,,,VFR,,,,,,,,,,,,METAR,207.0
ETOU 180658Z AUTO 03009KT 9999 CLR 09/02 A3026 RMK AO2 SLP251 T00880015 $,ETOU,2015-04-18T06:58:00Z,50.03,8.32,8.8,1.5,30,9,,6.21,30.259842,1025.1,,TRUE,TRUE,TRUE,,,,,,CLR,,,,,,,,VFR,,,,,,,,,,,,METAR,141.0
ETAR 180658Z AUTO 05002KT 9999 CLR 07/01 A3023 RMK AO2 SLP244 T00650012 $,ETAR,2015-04-18T06:58:00Z,49.42,7.58,6.5,1.2,50,2,,6.21,30.230314,1024.4,,TRUE,TRUE,TRUE,,,,,,CLR,,,,,,,,VFR,,,,,,,,,,,,METAR,238.0
ETAD 180658Z AUTO 07009KT 9999 CLR 07/01 A3024 RMK AO2 SLP238 T00660005,ETAD,2015-04-18T06:58:00Z,49.98,6.7,6.6,0.5,70,9,,6.21,30.239174,1023.8,,TRUE,TRUE,,,,,,,CLR,,,,,,,,VFR,,,,,,,,,,,,METAR,365.0
KSZL 180658Z AUTO 10003KT 10SM CLR 18/13 A2995 RMK AO2 SLP139 T01800131 $,KSZL,2015-04-18T06:58:00Z,38.72,-93.53,18.0,13.1,100,3,,10.0,29.949802,1013.9,,TRUE,TRUE,TRUE,,,,,,CLR,,,,,,,,VFR,,,,,,,,,,,,METAR,265.0
KRDR 180658Z AUTO 02003KT 10SM CLR 00/M03 A3015 RMK AO2 SLP218 T00001035,KRDR,2015-04-18T06:58:00Z,47.97,-97.4,0.0,-3.5,20,3,,10.0,30.15059,1021.8,,TRUE,TRUE,,,,,,,CLR,,,,,,,,VFR,,,,,,,,,,,,METAR,278.0
KMIB 180658Z AUTO 14005KT 10SM CLR 02/M03 A3011 RMK AO2 SLP208 T00241026 $,KMIB,2015-04-18T06:58:00Z,48.42,-101.33,2.4,-2.6,140,5,,10.0,30.109253,1020.8,,TRUE,TRUE,TRUE,,,,,,CLR,,,,,,,,VFR,,,,,,,,,,,,METAR,508.0
KLTS 180658Z AUTO 09006KT 9SM CLR 12/12 A2994 RMK AO2 SLP134 T01200120 $,KLTS,2015-04-18T06:58:00Z,34.67,-99.27,12.0,12.0,90,6,,9.0,29.940945,1013.4,,TRUE,TRUE,TRUE,,,,,,CLR,,,,,,,,VFR,,,,,,,,,,,,METAR,420.0
KLFI 180658Z AUTO 21004KT 10SM CLR 18/16 A2995 RMK AO2 DZB0558E45DZB51 SLP149 P0000 T01760162,KLFI,2015-04-18T06:58:00Z,37.07,-76.37,17.6,16.2,210,4,,10.0,29.949802,1014.9,,TRUE,TRUE,,,,,,,CLR,,,,,,,,VFR,,,,,,0.0050,,,,,,SPECI,3.0
KFAF 180658Z AUTO 00000KT 10SM FEW090 18/18 A2994 RMK AO2 SLP142 T01750175 $,KFAF,2015-04-18T06:58:00Z,37.12,-76.62,17.5,17.5,0,0,,10.0,29.940945,1014.2,,TRUE,TRUE,TRUE,,,,,,FEW,9000,,,,,,,VFR,,,,,,,,,,,,METAR,4.0
KADW 180658Z AUTO 35005KT 10SM CLR 15/13 A2997 RMK AO2 SLP154 T01540132,KADW,2015-04-18T06:58:00Z,38.82,-76.87,15.4,13.2,350,5,,10.0,29.970472,1015.4,,TRUE,TRUE,,,,,,,CLR,,,,,,,,VFR,,,,,,,,,,,,METAR,86.0
KSLI 180658Z AUTO 14005KT 10SM CLR 15/10 A3003 RMK AO2 SLP172 T01530100,KSLI,2015-04-18T06:58:00Z,33.77,-118.03,15.3,10.0,140,5,,10.0,30.029528,1017.2,,TRUE,TRUE,,,,,,,CLR,,,,,,,,VFR,,,,,,,,,,,,SPECI,11.0
KMUO 180658Z AUTO 35007KT 10SM CLR 10/M01 A3003 RMK AO2 SLP161 T00981013 402261018 $,KMUO,2015-04-18T06:58:00Z,43.03,-115.87,9.8,-1.3,350,7,,10.0,30.029528,1016.1,,TRUE,TRUE,TRUE,,,,,,CLR,,,,,,,,VFR,,,,22.6,-1.8,,,,,,,METAR,913.0
KLUF 180658Z AUTO 36004KT 10SM CLR 18/00 A2993 RMK AO2 SLP128 T01770002 402760097 $,KLUF,2015-04-18T06:58:00Z,33.52,-112.37,17.7,0.2,360,4,,10.0,29.929134,1012.8,,TRUE,TRUE,TRUE,,,,,,CLR,,,,,,,,VFR,,,,27.6,9.7,,,,,,,METAR,332.0
KHMN 180658Z AUTO 00000KT 10SM CLR 11/M09 A3000 RMK AO2 SLP117 T01131095 402041019 $,KHMN,2015-04-18T06:58:00Z,32.85,-106.08,11.3,-9.5,0,0,,10.0,30.0,1011.7,,TRUE,TRUE,TRUE,,,,,,CLR,,,,,,,,VFR,,,,20.4,-1.9,,,,,,,METAR,1248.0
KFHU 180658Z AUTO 27008KT 10SM CLR 10/M09 A3010 RMK AO2 SLP190 T00981090 401930052,KFHU,2015-04-18T06:58:00Z,31.58,-110.35,9.8,-9.0,270,8,,10.0,30.100393,1019.0,,TRUE,TRUE,,,,,,,CLR,,,,,,,,VFR,,,,19.3,5.2,,,,,,,METAR,1438.0
KEDW 180658Z AUTO 21009KT 10SM CLR 15/M05 A3002 RMK AO2 SLP152 T01461049,KEDW,2015-04-18T06:58:00Z,34.88,-117.87,14.6,-4.9,210,9,,10.0,30.02067,1015.2,,TRUE,TRUE,,,,,,,CLR,,,,,,,,VFR,,,,,,,,,,,,METAR,702.0
KDMA 180658Z AUTO 14006KT 10SM CLR 11/M09 A3003 RMK AO2 SLP145 T01081089 402300053 $,KDMA,2015-04-18T06:58:00Z,32.17,-110.87,10.8,-8.9,140,6,,10.0,30.029528,1014.5,,TRUE,TRUE,TRUE,,,,,,CLR,,,,,,,,VFR,,,,23.0,5.3,,,,,,,METAR,824.0
KBKF 180658Z 02007KT 10SM FEW007 OVC010 04/04 A3003 RMK AO2A SLP156 T00350035 400940001,KBKF,2015-04-18T06:58:00Z,39.72,-104.75,3.5,3.5,20,7,,10.0,30.029528,1015.6,,,TRUE,,,,,,,FEW,700,OVC,1000,,,,,MVFR,,,,9.4,0.1,,,,,,,METAR,1726.0
KBIF 180658Z AUTO VRB04KT 10SM CLR 17/M15 A3000 RMK AO2 SLP111 T01691155 402130045,KBIF,2015-04-18T06:58:00Z,31.85,-106.38,16.9,-15.5,0,4,,10.0,30.0,1011.1,,TRUE,TRUE,,,,,,,CLR,,,,,,,,VFR,,,,21.3,4.5,,,,,,,METAR,1203.0
ETIK 180658Z AUTO VRB04KT 9999 FEW070 05/01 A3023 RMK AO2 SLP247 T00520010,ETIK,2015-04-18T06:58:00Z,49.47,10.37,5.2,1.0,0,4,,6.21,30.230314,1024.7,,TRUE,TRUE,,,,,,,FEW,7000,,,,,,,VFR,,,,,,,,,,,,METAR,325.0
ETIH 180658Z AUTO VRB05KT 9999 CLR 05/M01 A3019 RMK AO2 SLP235 T00471008,ETIH,2015-04-18T06:58:00Z,49.22,11.82,4.7,-0.8,0,5,,6.21,30.188976,1023.5,,TRUE,TRUE,,,,,,,CLR,,,,,,,,VFR,,,,,,,,,,,,METAR,442.0
ETIC 180658Z AUTO 36007KT 9999 SCT026 SCT033 04/M01 A3019 RMK AO2 SLP237 T00421015,ETIC,2015-04-18T06:58:00Z,49.7,11.93,4.2,-1.5,360,7,,6.21,30.188976,1023.7,,TRUE,TRUE,,,,,,,SCT,2600,SCT,3300,,,,,VFR,,,,,,,,,,,,METAR,415.0
ETEB 180658Z AUTO 01007KT 9999 BKN070 05/00 A3020 RMK AO2 SLP250 T00480002,ETEB,2015-04-18T06:58:00Z,49.32,10.62,4.8,0.2,10,7,,6.21,30.200787,1025.0,,TRUE,TRUE,,,,,,,BKN,7000,,,,,,,VFR,,,,,,,,,,,,METAR,467.0
KVBG 180658Z AUTO 02003KT 10SM CLR 10/09 A3007 RMK AO2 SLP185 T00950085 TSNO $,KVBG,2015-04-18T06:58:00Z,34.73,-120.58,9.5,8.5,20,3,,10.0,30.070866,1018.5,,TRUE,TRUE,TRUE,,TRUE,,,,CLR,,,,,,,,VFR,,,,,,,,,,,,SPECI,112.0
KTCM 180658Z AUTO 36002KT 10SM OVC060 12/08 A3030 RMK AO2 SLP265 T01200084 $,KTCM,2015-04-18T06:58:00Z,47.12,-122.47,12.0,8.4,360,2,,10.0,30.301182,1026.5,,TRUE,TRUE,TRUE,,,,,,OVC,6000,,,,,,,VFR,,,,,,,,,,,,SPECI,98.0
KSUU 180658Z AUTO 24018G23KT 10SM CLR 13/08 A2998 RMK AO2 SLP159 T01310084 PWINO $,KSUU,2015-04-18T06:58:00Z,38.27,-121.92,13.1,8.4,240,18,23,10.0,29.97933,1015.9,,TRUE,TRUE,TRUE,,,,TRUE,,CLR,,,,,,,,VFR,,,,,,,,,,,,SPECI,19.0
KRIV 180658Z AUTO 00000KT 10SM CLR 12/M04 A3005 RMK AO2 SLP166 T01231036,KRIV,2015-04-18T06:58:00Z,33.87,-117.27,12.3,-3.6,0,0,,10.0,30.050198,1016.6,,TRUE,TRUE,,,,,,,CLR,,,,,,,,VFR,,,,,,,,,,,,SPECI,469.0
KINS 180658Z AUTO 27007KT 10SM CLR 17/M11 A2999 RMK AO2 SLP121 T01691115,KINS,2015-04-18T06:58:00Z,36.58,-115.67,16.9,-11.5,270,7,,10.0,29.991142,1012.1,,TRUE,TRUE,,,,,,,CLR,,,,,,,,VFR,,,,,,,,,,,,METAR,955.0
KHIF 180658Z AUTO 11014KT 10SM CLR 09/03 A3004 RMK AO2 SLP143 T00900026 401680046,KHIF,2015-04-18T06:58:00Z,41.12,-111.97,9.0,2.6,110,14,,10.0,30.041338,1014.3,,TRUE,TRUE,,,,,,,CLR,,,,,,,,VFR,,,,16.8,4.6,,,,,,,METAR,1459.0
KGXF 180658Z AUTO 17007KT 9SM CLR 17/M08 A2995 RMK AO2 SLP134 T01701083 402830085 $,KGXF,2015-04-18T06:58:00Z,32.87,-112.72,17.0,-8.3,170,7,,9.0,29.949802,1013.4,,TRUE,TRUE,TRUE,,,,,,CLR,,,,,,,,VFR,,,,28.3,8.5,,,,,,,METAR,262.0
KLSV 180658Z AUTO 05005KT 10SM CLR 17/M06 A2993 RMK AO2 SLP121 T01731064,KLSV,2015-04-18T06:58:00Z,36.22,-115.02,17.3,-6.4,50,5,,10.0,29.929134,1012.1,,TRUE,TRUE,,,,,,,CLR,,,,,,,,VFR,,,,,,,,,,,,METAR,570.0
KGRF 180658Z AUTO 32005KT 10SM CLR 10/07 A3030 RMK AO2 SLP265 T00960074 PWINO $,KGRF,2015-04-18T06:58:00Z,47.07,-122.57,9.6,7.4,320,5,,10.0,30.301182,1026.5,,TRUE,TRUE,TRUE,,,,TRUE,,CLR,,,,,,,,VFR,,,,,,,,,,,,METAR,92.0
KFCS 180658Z AUTO 33007KT 10SM CLR 01/M01 A2999 RMK AO2 SLP174 T00131006,KFCS,2015-04-18T06:58:00Z,38.67,-104.77,1.3,-0.6,330,7,,10.0,29.991142,1017.4,,TRUE,TRUE,,,,,,,CLR,,,,,,,,VFR,,,,,,,,,,,,METAR,1789.0
KBAB 180658Z 04007KT 10SM CLR 15/05 A2998 RMK AO2A SLP155 T01500049 $,KBAB,2015-04-18T06:58:00Z,39.12,-121.42,15.0,4.9,40,7,,10.0,29.97933,1015.5,,,TRUE,TRUE,,,,,,CLR,,,,,,,,VFR,,,,,,,,,,,,METAR,34.0
KQSA 180658Z 07001KT 9999 FEW060 BKN120 OVC180 21/06 A2998 RMK AO2A SLP071 T02110055 $,KQSA,2015-04-18T06:58:00Z,100.65,-1000.65,21.1,5.5,70,1,,6.21,29.97933,1007.1,,,TRUE,TRUE,,,,,,FEW,6000,BKN,12000,OVC,18000,,,VFR,,,,,,,,,,,,METAR,999.0
KQIR 180658Z 34020KT 9000 HZ CLR 31/13 A2990 RMK AO2A SLP126 T03060133,KQIR,2015-04-18T06:58:00Z,100.65,-1000.65,30.6,13.3,340,20,,5.59,29.899607,1012.6,,,TRUE,,,,,,HZ,CLR,,,,,,,,VFR,,,,,,,,,,,,METAR,999.0
RJTY 180658Z AUTO 18013KT 10SM CLR 19/07 A2995 RMK AO2 SLP146 T01920067 $,RJTY,2015-04-18T06:58:00Z,35.75,139.33,19.2,6.7,180,13,,10.0,29.949802,1014.6,,TRUE,TRUE,TRUE,,,,,,CLR,,,,,,,,VFR,,,,,,,,,,,,METAR,139.0
PFSH 180658Z AUTO 02021KT 10SM CLR M13/M14 A2978 RMK AO2 SLP100 T11281144 FZRANO,PFSH,2015-04-18T06:58:00Z,64.37,-161.22,-12.8,-14.4,20,21,,10.0,29.778543,1010.0,,TRUE,TRUE,,,,TRUE,,,CLR,,,,,,,,VFR,,,,,,,,,,,,METAR,7.0
PFNO 180658Z AUTO 20003KT 10SM OVC019 M11/M13 A2993 RMK AO2 SLP137 T11111133 FZRANO,PFNO,2015-04-18T06:58:00Z,66.82,-161.02,-11.1,-13.3,200,3,,10.0,29.929134,1013.7,,TRUE,TRUE,,,,TRUE,,,OVC,1900,,,,,,,MVFR,,,,,,,,,,,,METAR,17.0
KSGJ 180658Z AUTO 00000KT 6SM BR FEW110 20/19 A2998 RMK AO2 SLP150 T02000194,KSGJ,2015-04-18T06:58:00Z,29.97,-81.32,20.0,19.4,0,0,,6.0,29.97933,1015.0,,TRUE,TRUE,,,,,,BR,FEW,11000,,,,,,,VFR,,,,,,,,,,,,METAR,3.0
KMRH 180658Z AUTO 00000KT 10SM FEW120 18/18 A2996 RMK AO2 RAB20E34 SLP147 P0000 T01830178 TSNO,KMRH,2015-04-18T06:58:00Z,34.73,-76.65,18.3,17.8,0,0,,10.0,29.958662,1014.7,,TRUE,TRUE,,,TRUE,,,,FEW,12000,,,,,,,VFR,,,,,,0.0050,,,,,,METAR,3.0
KMEI 180658Z AUTO 05004KT 10SM OVC013 18/17 A2997 RMK AO2 SLP144 T01830167 $,KMEI,2015-04-18T06:58:00Z,32.33,-88.75,18.3,16.7,50,4,,10.0,29.970472,1014.4,,TRUE,TRUE,TRUE,,,,,,OVC,1300,,,,,,,MVFR,,,,,,,,,,,,METAR,89.0
PHNY 180658Z AUTO 05009KT 10SM SCT033 20/17 A3013 RMK AO2 SLP184 T02000172,PHNY,2015-04-18T06:58:00Z,20.77,-156.93,20.0,17.2,50,9,,10.0,30.129921,1018.4,,TRUE,TRUE,,,,,,,SCT,3300,,,,,,,VFR,,,,,,,,,,,,METAR,399.0
PFEL 180658Z AUTO 01012KT 10SM OVC030 M09/M12 A2979 RMK AO2 SNE19 SLP092 P0000 T10891117 FZRANO,PFEL,2015-04-18T06:58:00Z,64.62,-162.27,-8.9,-11.7,10,12,,10.0,29.790354,1009.2,,TRUE,TRUE,,,,TRUE,,,OVC,3000,,,,,,,MVFR,,,,,,0.0050,,,,,,METAR,49.0
PATE 180658Z AUTO 04014KT 9SM -SN OVC032 M14/M16 A2990 RMK AO2 SNB35 SLP139 P0000 T11441161 FZRANO,PATE,2015-04-18T06:58:00Z,65.23,-166.33,-14.4,-16.1,40,14,,9.0,29.899607,1013.9,,TRUE,TRUE,,,,TRUE,,-SN,OVC,3200,,,,,,,VFR,,,,,,0.0050,,,,,,METAR,90.0
PAGA 180658Z AUTO 36006KT 10SM FEW070 M02/M07 A2979 RMK AO2 SLP095 T10221072 FZRANO,PAGA,2015-04-18T06:58:00Z,64.73,-156.93,-2.2,-7.2,360,6,,10.0,29.790354,1009.5,,TRUE,TRUE,,,,TRUE,,,FEW,7000,,,,,,,VFR,,,,,,,,,,,,METAR,46.0
PHHI 180658Z VRB02KT 10SM FEW035 SCT050 22/16 A3016 RMK AO2A SLP203 WND DATA ESTMD ALSTG/SLP ESTMD $,PHHI,2015-04-18T06:58:00Z,21.48,-158.05,22.0,16.0,0,2,,10.0,30.159449,1020.3,,,TRUE,TRUE,,,,,,FEW,3500,SCT,5000,,,,,VFR,,,,,,,,,,,,METAR,255.0
KSKA 180658Z AUTO 24007KT 10SM CLR 10/02 A3008 RMK AO2 SLP188 T00950022,KSKA,2015-04-18T06:58:00Z,47.62,-117.65,9.5,2.2,240,7,,10.0,30.079725,1018.8,,TRUE,TRUE,,,,,,,CLR,,,,,,,,VFR,,,,,,,,,,,,METAR,750.0
KPSM 180658Z 27006KT 10SM CLR 10/07 A2988 RMK AO2A SLP121 T00960066,KPSM,2015-04-18T06:58:00Z,43.07,-70.82,9.6,6.6,270,6,,10.0,29.878937,1012.1,,,TRUE,,,,,,,CLR,,,,,,,,VFR,,,,,,,,,,,,METAR,31.0
KFSI 180658Z AUTO 17006KT 10SM OVC095 16/14 A2995 RMK AO2 SLP138 T01640144,KFSI,2015-04-18T06:58:00Z,34.65,-98.4,16.4,14.4,170,6,,10.0,29.949802,1013.8,,TRUE,TRUE,,,,,,,OVC,9500,,,,,,,VFR,,,,,,,,,,,,METAR,362.0
KFRI 180658Z AUTO 15006KT 10SM CLR 18/15 A2994 RMK AO2 SLP131 T01810153,KFRI,2015-04-18T06:58:00Z,39.03,-96.77,18.1,15.3,150,6,,10.0,29.940945,1013.1,,TRUE,TRUE,,,,,,,CLR,,,,,,,,VFR,,,,,,,,,,,,METAR,325.0
KDLF 180658Z AUTO 03003KT 10SM OVC014 17/14 A2989 RMK AO2 SLP112 T01650140 $,KDLF,2015-04-18T06:58:00Z,29.37,-100.77,16.5,14.0,30,3,,10.0,29.890747,1011.2,,TRUE,TRUE,TRUE,,,,,,OVC,1400,,,,,,,MVFR,,,,,,,,,,,,METAR,330.0
MUCF 180658Z AUTO 09002KT 24/23 Q1015,MUCF,2015-04-18T06:58:00Z,22.13,-80.4,24.0,23.0,90,2,,,29.970472,,,TRUE,,,,,,,,,,,,,,,,,,,,,,,,,,,,METAR,39.0
KXMR 180658Z AUTO 06003KT 10SM CLR 23/23 A2996 RMK AO2 SLP148 T02330226 $,KXMR,2015-04-18T06:58:00Z,28.47,-80.57,23.3,22.6,60,3,,10.0,29.958662,1014.8,,TRUE,TRUE,TRUE,,,,,,CLR,,,,,,,,VFR,,,,,,,,,,,,SPECI,3.0
KTBN 180658Z AUTO 14007KT 10SM CLR 16/16 A3000 RMK AO2 SLP154 T01640162,KTBN,2015-04-18T06:58:00Z,37.72,-92.12,16.4,16.2,140,7,,10.0,30.0,1015.4,,TRUE,TRUE,,,,,,,CLR,,,,,,,,VFR,,,,,,,,,,,,METAR,353.0
KPOE 180658Z AUTO 12004KT 5SM -RA BR BKN085 21/20 A2993 RMK AO2 LTG DSNT E SLP135 P0003 T02050197,KPOE,2015-04-18T06:58:00Z,31.05,-93.2,20.5,19.7,120,4,,5.0,29.929134,1013.5,,TRUE,TRUE,,,,,,-RA BR,BKN,8500,,,,,,,MVFR,,,,,,0.03,,,,,,METAR,101.0
KMXF 180658Z AUTO 02002KT 10SM OVC006 18/17 A2994 RMK AO2 SLP141 T01780173,KMXF,2015-04-18T06:58:00Z,32.37,-86.37,17.8,17.3,20,2,,10.0,29.940945,1014.1,,TRUE,TRUE,,,,,,,OVC,600,,,,,,,IFR,,,,,,,,,,,,METAR,51.0
KLRF 180658Z AUTO 00000KT 10SM CLR 16/16 A2999 RMK AO2 SLP157 T01600159,KLRF,2015-04-18T06:58:00Z,34.92,-92.15,16.0,15.9,0,0,,10.0,29.991142,1015.7,,TRUE,TRUE,,,,,,,CLR,,,,,,,,VFR,,,,,,,,,,,,METAR,95.0
KROG 180657Z AUTO 10006KT 10SM CLR 17/16 A3000 RMK AO2 SLP147 T01670156 TSNO PNO $,KROG,2015-04-18T06:57:00Z,36.37,-94.08,16.7,15.6,100,6,,10.0,30.0,1014.7,,TRUE,TRUE,TRUE,,TRUE,,,,CLR,,,,,,,,VFR,,,,,,,,,,,,SPECI,415.0
PHNG 180657Z AUTO 08010G17KT SCT023 SCT034 24/19 A3009 RMK AO2 SLP185 T02440189 $,PHNG,2015-04-18T06:57:00Z,21.43,-157.77,24.4,18.9,80,10,17,,30.088583,1018.5,,TRUE,TRUE,TRUE,,,,,,SCT,2300,SCT,3400,,,,,,,,,,,,,,,,,METAR,3.0
PAGH 180657Z AUTO 00000KT 10SM CLR M10/M12 A2991 RMK AO2 SLP164 T11001122 FZRANO,PAGH,2015-04-18T06:57:00Z,66.88,-157.17,-10.0,-12.2,0,0,,10.0,29.911417,1016.4,,TRUE,TRUE,,,,TRUE,,,CLR,,,,,,,,VFR,,,,,,,,,,,,METAR,60.0
KNJM 180657Z AUTO 00000KT 9SM CLR 18/17 A2997 RMK AO2 RAB13E28 SLP152 P0000 T01830172,KNJM,2015-04-18T06:57:00Z,34.67,-77.02,18.3,17.2,0,0,,9.0,29.970472,1015.2,,TRUE,TRUE,,,,,,,CLR,,,,,,,,VFR,,,,,,0.0050,,,,,,METAR,7.0
KNSI 180657Z AUTO 28014KT 10SM CLR A3004 RMK AO2 SLPNO $,KNSI,2015-04-18T06:57:00Z,33.22,-119.45,,,280,14,,10.0,30.041338,,,TRUE,TRUE,TRUE,,,,,,CLR,,,,,,,,VFR,,,,,,,,,,,,SPECI,154.0
KNYL 180657Z AUTO 18004KT 10SM CLR 19/01 A2995 RMK AO2 SLP140 T01890011 403060128,KNYL,2015-04-18T06:57:00Z,32.63,-114.62,18.9,1.1,180,4,,10.0,29.949802,1014.0,,TRUE,TRUE,,,,,,,CLR,,,,,,,,VFR,,,,30.6,12.8,,,,,,,SPECI,65.0
KFLG 180657Z AUTO 00000KT 10SM CLR M01/M04 A3012 RMK AO2 SLP161 T10061044 400941078 TSNO,KFLG,2015-04-18T06:57:00Z,35.13,-111.67,-0.6,-4.4,0,0,,10.0,30.121063,1016.1,,TRUE,TRUE,,,TRUE,,,,CLR,,,,,,,,VFR,,,,9.4,-7.8,,,,,,,SPECI,2134.0
PAPN 180656Z AUTO 00000KT BKN070 03/01 A2916 RMK AO2 PWINO TSNO T00330005 BKN V SCT SLP875 $,PAPN,2015-04-18T06:56:00Z,57.58,-157.57,3.3,0.5,0,0,,,29.161417,987.5,,TRUE,TRUE,TRUE,,TRUE,,TRUE,,BKN,7000,,,,,,,,,,,,,,,,,,,METAR,18.0
KQHY 180656Z AUTO 10001KT 6SM BR OVC006 21/21 A2995 RMK AO2 SLP148 T02120212,KQHY,2015-04-18T06:56:00Z,100.65,-1000.65,21.2,21.2,100,1,,6.0,29.949802,1014.8,,TRUE,TRUE,,,,,,BR,OVC,600,,,,,,,IFR,,,,,,,,,,,,METAR,999.0
KNJK 180656Z AUTO 19008KT 10SM CLR 20/M03 A2994 RMK AO2 SLP154 T02001033,KNJK,2015-04-18T06:56:00Z,32.82,-115.67,20.0,-3.3,190,8,,10.0,29.940945,1015.4,,TRUE,TRUE,,,,,,,CLR,,,,,,,,VFR,,,,,,,,,,,,METAR,-13.0
PHSF 180656Z AUTO 12007KT 8SM CLR 10/06 A3036 RMK AO2 SLP181 T01000059 $,PHSF,2015-04-18T06:56:00Z,19.77,-155.55,10.0,5.9,120,7,,8.0,30.360237,1018.1,,TRUE,TRUE,TRUE,,,,,,CLR,,,,,,,,VFR,,,,,,,,,,,,METAR,1887.0
KMHS 180656Z AUTO VRB05KT 10SM CLR 15/01 A3015 RMK AO2 SLP199 T01500011,KMHS,2015-04-18T06:56:00Z,41.32,-122.32,15.0,1.1,0,5,,10.0,30.15059,1019.9,,TRUE,TRUE,,,,,,,CLR,,,,,,,,VFR,,,,,,,,,,,,METAR,1078.0
KALK 180656Z AUTO 25008KT 10SM CLR 08/M08 A3012 RMK AO2 SLP137 T00831083 402000022,KALK,2015-04-18T06:56:00Z,31.6,-110.43,8.3,-8.3,250,8,,10.0,30.121063,1013.7,,TRUE,TRUE,,,,,,,CLR,,,,,,,,VFR,,,,20.0,2.2,,,,,,,METAR,1453.0
KNLC 180656Z AUTO 26006KT 10SM CLR 14/M04 A3001 RMK AO2 SLP163 T01441039 $,KNLC,2015-04-18T06:56:00Z,36.32,-119.95,14.4,-3.9,260,6,,10.0,30.008858,1016.3,,TRUE,TRUE,TRUE,,,,,,CLR,,,,,,,,VFR,,,,,,,,,,,,METAR,72.0
KNRS 180656Z AUTO 00000KT CLR 13/05 A3005 RMK AO2 SLP175 T01330050 $,KNRS,2015-04-18T06:56:00Z,32.57,-117.12,13.3,5.0,0,0,,,30.050198,1017.5,,TRUE,TRUE,TRUE,,,,,,CLR,,,,,,,,,,,,,,,,,,,,METAR,7.0
KNBT 180656Z AUTO 33003KT 10SM CLR A2997 RMK AO2 SLP155 PNO $,KNBT,2015-04-18T06:56:00Z,35.02,-76.47,,,330,3,,10.0,29.970472,1015.5,,TRUE,TRUE,TRUE,,,,,,CLR,,,,,,,,VFR,,,,,,,,,,,,METAR,5.0
K8D3 180656Z AUTO 33009KT 08/M03 A3008 RMK AO1 SLP181 T00831028,K8D3,2015-04-18T06:56:00Z,45.67,-96.98,8.3,-2.8,330,9,,,30.079725,1018.1,,TRUE,TRUE,,,,,,,,,,,,,,,,,,,,,,,,,,,METAR,354.0
KNCA 180656Z AUTO 00000KT 10SM FEW070 18/17 A2996 RMK AO2 SLP148 T01780167,KNCA,2015-04-18T06:56:00Z,34.72,-77.45,17.8,16.7,0,0,,10.0,29.958662,1014.8,,TRUE,TRUE,,,,,,,FEW,7000,,,,,,,VFR,,,,,,,,,,,,SPECI,8.0
K2WX 180656Z AUTO 17005KT 08/M02 A3001 RMK AO1 SLP163 T00781022 401891011 $,K2WX,2015-04-18T06:56:00Z,45.6,-103.55,7.8,-2.2,170,5,,,30.008858,1016.3,,TRUE,TRUE,TRUE,,,,,,,,,,,,,,,,,,18.9,-1.1,,,,,,,METAR,915.0
KNTU 180656Z 23004KT 10SM FEW280 17/15 A2995 RMK AO2 SLP146 T01720150 $,KNTU,2015-04-18T06:56:00Z,36.82,-76.02,17.2,15.0,230,4,,10.0,29.949802,1014.6,,,TRUE,TRUE,,,,,,FEW,28000,,,,,,,VFR,,,,,,,,,,,,METAR,7.0
KP28 180656Z AUTO 13006KT 17/13 A2994 RMK AO1 SLP128 T01670133,KP28,2015-04-18T06:56:00Z,37.28,-98.55,16.7,13.3,130,6,,,29.940945,1012.8,,TRUE,TRUE,,,,,,,,,,,,,,,,,,,,,,,,,,,METAR,469.0
KNMM 180656Z AUTO 05003KT 6SM BR BKN007 OVC012 18/17 A2997 RMK AO2 CIG 005V011 SLP159 T01830167,KNMM,2015-04-18T06:56:00Z,32.53,-88.57,18.3,16.7,50,3,,6.0,29.970472,1015.9,,TRUE,TRUE,,,,,,BR,BKN,700,OVC,1200,,,,,IFR,,,,,,,,,,,,SPECI,97.0
KD07 180656Z AUTO 21007KT 09/02 A3007 RMK AO1 SLP185 T00890022 401940011 $,KD07,2015-04-18T06:56:00Z,45.03,-102.02,8.9,2.2,210,7,,,30.070866,1018.5,,TRUE,TRUE,TRUE,,,,,,,,,,,,,,,,,,19.4,1.1,,,,,,,METAR,784.0
KSPD 180656Z AUTO 31006KT 03/00 A2995 RMK AO1 SLP115 T00280000 401890011,KSPD,2015-04-18T06:56:00Z,37.28,-102.62,2.8,0.0,310,6,,,29.949802,1011.5,,TRUE,TRUE,,,,,,,,,,,,,,,,,,,18.9,1.1,,,,,,,METAR,1335.0
KNGP 180656Z AUTO 10011KT SCT100 21/ A2985 RMK AO2 TSE24 SLP107 T0211 $,KNGP,2015-04-18T06:56:00Z,27.68,-97.27,21.1,,100,11,,,29.84941,1010.7,,TRUE,TRUE,TRUE,,,,,,SCT,10000,,,,,,,,,,,,,,,,,,,METAR,6.0
KNQI 180656Z AUTO 11004KT 10SM CLR 21/20 A2986 RMK AO2 SLP109 T02060200 TSNO $,KNQI,2015-04-18T06:56:00Z,27.5,-97.82,20.6,20.0,110,4,,10.0,29.861221,1010.9,,TRUE,TRUE,TRUE,,TRUE,,,,CLR,,,,,,,,VFR,,,,,,,,,,,,METAR,15.0
KHND 180656Z AUTO 18010KT 10SM CLR 19/M11 A2997 RMK AO2 SLP134 T01891106 402610089,KHND,2015-04-18T06:56:00Z,35.98,-115.13,18.9,-10.6,180,10,,10.0,29.970472,1013.4,,TRUE,TRUE,,,,,,,CLR,,,,,,,,VFR,,,,26.1,8.9,,,,,,,METAR,749.0
MMGL 180656Z 28003KT 10SM FEW300 18/09 A3014 RMK 8/001,MMGL,2015-04-18T06:56:00Z,20.52,-103.32,18.0,9.0,280,3,,10.0,30.138779,,,,,,,,,,,FEW,30000,,,,,,,VFR,,,,,,,,,,,,METAR,1528.0
KNID 180656Z AUTO 19008KT 10SM CLR 14/M07 A2999 RMK AO2 SLP146 T01441072,KNID,2015-04-18T06:56:00Z,35.67,-117.67,14.4,-7.2,190,8,,10.0,29.991142,1014.6,,TRUE,TRUE,,,,,,,CLR,,,,,,,,VFR,,,,,,,,,,,,SPECI,696.0
KSXT 180656Z AUTO 35008G18KT 310V040 10SM CLR 09/06 A3020 RMK AO2 SLP206 T00890061,KSXT,2015-04-18T06:56:00Z,42.6,-123.37,8.9,6.1,350,8,18,10.0,30.200787,1020.6,,TRUE,TRUE,,,,,,,CLR,,,,,,,,VFR,,,,,,,,,,,,SPECI,1170.0
KNFL 180656Z AUTO 19006KT 10SM CLR 08/M14 A3010 RMK AO2 SLP160 T00781144,KNFL,2015-04-18T06:56:00Z,39.42,-118.7,7.8,-14.4,190,6,,10.0,30.100393,1016.0,,TRUE,TRUE,,,,,,,CLR,,,,,,,,VFR,,,,,,,,,,,,METAR,1199.0
KNXP 180656Z AUTO 32004KT 10SM CLR 17/M12 A3008 RMK AO2 SLP157 T01671117 $,KNXP,2015-04-18T06:56:00Z,34.28,-116.17,16.7,-11.7,320,4,,10.0,30.079725,1015.7,,TRUE,TRUE,TRUE,,,,,,CLR,,,,,,,,VFR,,,,,,,,,,,,METAR,626.0
PASY 180656Z AUTO 34020KT 10SM CLR 00/M07 A2988 RMK AO2 PK WND 33028/0626 SLP120 T00001067 TSNO,PASY,2015-04-18T06:56:00Z,52.72,174.12,0.0,-6.7,340,20,,10.0,29.878937,1012.0,,TRUE,TRUE,,,TRUE,,,,CLR,,,,,,,,VFR,,,,,,,,,,,,METAR,31.0
KNUW 180656Z 00000KT 10SM FEW025 FEW050 08/06 A3034 RMK AO2 SLP277 T00830061 VISNO E $,KNUW,2015-04-18T06:56:00Z,48.35,-122.65,8.3,6.1,0,0,,10.0,30.339567,1027.7,,,TRUE,TRUE,,,,,,FEW,2500,FEW,5000,,,,,VFR,,,,,,,,,,,,SPECI,14.0
KAQV 180656Z AUTO 00000KT 7SM -RA OVC110 21/19 A2992 RMK AO2 SLP129 P0002 T02110194,KAQV,2015-04-18T06:56:00Z,31.4,-93.3,21.1,19.4,0,0,,7.0,29.920275,1012.9,,TRUE,TRUE,,,,,,-RA,OVC,11000,,,,,,,VFR,,,,,,0.02,,,,,,METAR,111.0
KPRN 180656Z AUTO 00000KT 10SM OVC004 18/17 A2995 RMK AO2 SLP138 T01780167,KPRN,2015-04-18T06:56:00Z,31.85,-86.62,17.8,16.7,0,0,,10.0,29.949802,1013.8,,TRUE,TRUE,,,,,,,OVC,400,,,,,,,LIFR,,,,,,,,,,,,METAR,138.0
KNDZ 180656Z AUTO 00000KT 1/4SM FG VV002 19/18 A2993 RMK AO2 SLP121 T01940183 $,KNDZ,2015-04-18T06:56:00Z,30.7,-87.02,19.4,18.3,0,0,,0.25,29.929134,1012.1,,TRUE,TRUE,TRUE,,,,,FG,OVX,0,,,,,,,LIFR,,,,,,,,,,,200,METAR,54.0
KP53 180656Z AUTO 32016G24KT 06/00 A3006 RMK AO1 PK WND 31027/0607 SLP183 T00610000,KP53,2015-04-18T06:56:00Z,46.42,-86.65,6.1,0.0,320,16,24,,30.059055,1018.3,,TRUE,TRUE,,,,,,,,,,,,,,,,,,,,,,,,,,,METAR,187.0
KNYG 180656Z AUTO 31006KT 10SM OVC060 18/16 A2999 RMK AO2 SLP155 T01780156,KNYG,2015-04-18T06:56:00Z,38.5,-77.28,17.8,15.6,310,6,,10.0,29.991142,1015.5,,TRUE,TRUE,,,,,,,OVC,6000,,,,,,,VFR,,,,,,,,,,,,METAR,4.0
KGNR 180656Z AUTO 33010KT 02/M03 A2986 RMK AO1 SLP120 T00221028,KGNR,2015-04-18T06:56:00Z,45.47,-69.55,2.2,-2.8,330,10,,,29.861221,1012.0,,TRUE,TRUE,,,,,,,,,,,,,,,,,,,,,,,,,,,SPECI,427.0
KABH 180656Z AUTO 01011KT 10SM CLR A2998 RMK AO2 SLPNO $,KABH,2015-04-18T06:56:00Z,38.75,-104.3,,,10,11,,10.0,29.97933,,,TRUE,TRUE,TRUE,,,,,,CLR,,,,,,,,VFR,,,,,,,,,,,,METAR,1840.0
KNXF 180656Z AUTO 13003KT 9SM CLR 15/02 A3003 RMK AO2 SLP254 T01500022 $,KNXF,2015-04-18T06:56:00Z,33.28,-117.45,15.0,2.2,130,3,,9.0,30.029528,1025.4,,TRUE,TRUE,TRUE,,,,,,CLR,,,,,,,,VFR,,,,,,,,,,,,METAR,27.0
KQFS 180656Z AUTO 00000KT 9999 M 21/00 A2993 RMK AO2 SLPNO T02131001 $,KQFS,2015-04-18T06:56:00Z,100.65,-1000.65,21.3,-0.1,0,0,,6.21,29.929134,,,TRUE,TRUE,TRUE,,,,,,,,,,,,,,,,,,,,,,,,,,METAR,999.0
KQRH 180656Z AUTO 12004KT 9999 CLR 31/20 A2996 RMK AO2 SLP138 T03070195,KQRH,2015-04-18T06:56:00Z,100.65,-1000.65,30.7,19.5,120,4,,6.21,29.958662,1013.8,,TRUE,TRUE,,,,,,,CLR,,,,,,,,VFR,,,,,,,,,,,,METAR,999.0
KINW 180656Z AUTO 24009KT 10SM CLR 07/M03 A3004 RMK AO2 SLP146 T00721028 401720011,KINW,2015-04-18T06:56:00Z,35.03,-110.72,7.2,-2.8,240,9,,10.0,30.041338,1014.6,,TRUE,TRUE,,,,,,,CLR,,,,,,,,VFR,,,,17.2,1.1,,,,,,,SPECI,1490.0
KJAX 180656Z 00000KT 9SM FEW065 SCT170 BKN250 18/18 A2996 RMK AO2 SLP145 T01830178,KJAX,2015-04-18T06:56:00Z,30.5,-81.68,18.3,17.8,0,0,,9.0,29.958662,1014.5,,,TRUE,,,,,,,FEW,6500,SCT,17000,BKN,25000,,,VFR,,,,,,,,,,,,SPECI,10.0
KISP 180656Z AUTO 34006KT 10SM CLR 12/08 A2994 RMK AO2 SLP137 T01170083,KISP,2015-04-18T06:56:00Z,40.8,-73.1,11.7,8.3,340,6,,10.0,29.940945,1013.7,,TRUE,TRUE,,,,,,,CLR,,,,,,,,VFR,,,,,,,,,,,,METAR,43.0
KJMS 180656Z AUTO 05007KT 10SM CLR 04/M04 A3012 RMK AO2 SLP203 T00441039,KJMS,2015-04-18T06:56:00Z,46.93,-98.67,4.4,-3.9,50,7,,10.0,30.121063,1020.3,,TRUE,TRUE,,,,,,,CLR,,,,,,,,VFR,,,,,,,,,,,,METAR,455.0
KLAS 180656Z 18008KT 10SM CLR 20/M09 A2990 RMK AO2 SLP109 T02001094 $,KLAS,2015-04-18T06:56:00Z,36.07,-115.17,20.0,-9.4,180,8,,10.0,29.899607,1010.9,,,TRUE,TRUE,,,,,,CLR,,,,,,,,VFR,,,,,,,,,,,,METAR,636.0
KJXN 180656Z 24004KT 10SM CLR 09/05 A3001 RMK AO2 SLP161 T00890050,KJXN,2015-04-18T06:56:00Z,42.27,-84.47,8.9,5.0,240,4,,10.0,30.008858,1016.1,,,TRUE,,,,,,,CLR,,,,,,,,VFR,,,,,,,,,,,,METAR,305.0
KLNR 180656Z AUTO 24004KT 10SM CLR 08/06 A3002 RMK AO2 SLP160 T00830061,KLNR,2015-04-18T06:56:00Z,43.22,-90.18,8.3,6.1,240,4,,10.0,30.02067,1016.0,,TRUE,TRUE,,,,,,,CLR,,,,,,,,VFR,,,,,,,,,,,,METAR,217.0
KLRD 180656Z AUTO 06003KT 10SM CLR 19/19 A2986 RMK AO2 T01940188 SLP100,KLRD,2015-04-18T06:56:00Z,27.55,-99.47,19.4,18.8,60,3,,10.0,29.861221,1010.0,,TRUE,TRUE,,,,,,,CLR,,,,,,,,VFR,,,,,,,,,,,,METAR,155.0
KLWS 180656Z AUTO 23003KT 10SM CLR 12/03 A3011 RMK AO2 SLP196 T01220028 $,KLWS,2015-04-18T06:56:00Z,46.37,-117.02,12.2,2.8,230,3,,10.0,30.109253,1019.6,,TRUE,TRUE,TRUE,,,,,,CLR,,,,,,,,VFR,,,,,,,,,,,,SPECI,438.0
KMDT 180656Z 00000KT 7SM SCT250 11/09 A2998 RMK AO2 SLP153 T01060089 $,KMDT,2015-04-18T06:56:00Z,40.2,-76.77,10.6,8.9,0,0,,7.0,29.97933,1015.3,,,TRUE,TRUE,,,,,,SCT,25000,,,,,,,VFR,,,,,,,,,,,,METAR,95.0
KMTW 180656Z AUTO 27006KT 10SM CLR 13/06 A2999 RMK AO2 SLP179 T01280061,KMTW,2015-04-18T06:56:00Z,44.12,-87.67,12.8,6.1,270,6,,10.0,29.991142,1017.9,,TRUE,TRUE,,,,,,,CLR,,,,,,,,VFR,,,,,,,,,,,,METAR,198.0
KNUQ 180656Z 00000KT 10SM CLR 12/09 A3008 RMK AO2 SLP188 T01220089,KNUQ,2015-04-18T06:56:00Z,37.4,-122.05,12.2,8.9,0,0,,10.0,30.079725,1018.8,,,TRUE,,,,,,,CLR,,,,,,,,VFR,,,,,,,,,,,,METAR,12.0
KOWB 180656Z AUTO 00000KT 4SM BR CLR 16/15 A3002 RMK AO2 TSNO T01550150 SLP164,KOWB,2015-04-18T06:56:00Z,37.72,-87.17,15.5,15.0,0,0,,4.0,30.02067,1016.4,,TRUE,TRUE,,,TRUE,,,BR,CLR,,,,,,,,MVFR,,,,,,,,,,,,METAR,124.0
KAND 180656Z AUTO 00000KT 1SM BR VV003 17/17 A3000 RMK AO2 RAE05 SLP152 P0000 T01720167,KAND,2015-04-18T06:56:00Z,34.5,-82.72,17.2,16.7,0,0,,1.0,30.0,1015.2,,TRUE,TRUE,,,,,,BR,OVX,0,,,,,,,LIFR,,,,,,0.0050,,,,,300,METAR,239.0
KAJO 180656Z AUTO 00000KT 10SM CLR 11/M01 A3004 RMK AO2 T01051005 SLP168 $,KAJO,2015-04-18T06:56:00Z,33.9,-117.6,10.5,-0.5,0,0,,10.0,30.041338,1016.8,,TRUE,TRUE,TRUE,,,,,,CLR,,,,,,,,VFR,,,,,,,,,,,,METAR,163.0
KADF 180656Z AUTO 00000KT 10SM FEW035 19/19 A2998 RMK AO2 T01940194 SLP163,KADF,2015-04-18T06:56:00Z,34.1,-93.07,19.4,19.4,0,0,,10.0,29.97933,1016.3,,TRUE,TRUE,,,,,,,FEW,3500,,,,,,,VFR,,,,,,,,,,,,METAR,56.0
PACM 180656Z AUTO 30006KT 10SM OVC013 M09/M11 A2978 RMK AO2 FZRANO TSNO T10941111 SNE10 P0000 SLP079 $,PACM,2015-04-18T06:56:00Z,61.85,-165.57,-9.4,-11.1,300,6,,10.0,29.778543,1007.9,,TRUE,TRUE,TRUE,,TRUE,TRUE,,,OVC,1300,,,,,,,MVFR,,,,,,0.0050,,,,,,METAR,4.0
KY50 180656Z AUTO 00000KT 10SM CLR 07/06 A3003 RMK AO2 TSNO T00720055 SLP165,KY50,2015-04-18T06:56:00Z,44.03,-89.3,7.2,5.5,0,0,,10.0,30.029528,1016.5,,TRUE,TRUE,,,TRUE,,,,CLR,,,,,,,,VFR,,,,,,,,,,,,METAR,262.0
KWJF 180656Z AUTO 24007KT 10SM CLR 16/M06 A3006 RMK AO2 SLP166 T01561056,KWJF,2015-04-18T06:56:00Z,34.72,-118.22,15.6,-5.6,240,7,,10.0,30.059055,1016.6,,TRUE,TRUE,,,,,,,CLR,,,,,,,,VFR,,,,,,,,,,,,METAR,715.0
KVPZ 180656Z AUTO 21004KT 10SM CLR 13/07 A3003 RMK AO2 SLP167 T01330072 TSNO,KVPZ,2015-04-18T06:56:00Z,41.45,-87.0,13.3,7.2,210,4,,10.0,30.029528,1016.7,,TRUE,TRUE,,,TRUE,,,,CLR,,,,,,,,VFR,,,,,,,,,,,,METAR,231.0
KUKI 180656Z AUTO 00000KT 10SM CLR 13/06 A3004 RMK AO2 SLP166 T01330061,KUKI,2015-04-18T06:56:00Z,39.12,-123.2,13.3,6.1,0,0,,10.0,30.041338,1016.6,,TRUE,TRUE,,,,,,,CLR,,,,,,,,VFR,,,,,,,,,,,,METAR,187.0
KUCP 180656Z AUTO 00000KT 10SM CLR 08/08 A3003 RMK AO2 T00770077 SLP185,KUCP,2015-04-18T06:56:00Z,41.03,-80.42,7.7,7.7,0,0,,10.0,30.029528,1018.5,,TRUE,TRUE,,,,,,,CLR,,,,,,,,VFR,,,,,,,,,,,,METAR,327.0
KTPH 180656Z AUTO 01013KT 10SM CLR 09/M13 A3014 RMK AO2 SLP166 T00941133,KTPH,2015-04-18T06:56:00Z,38.05,-117.08,9.4,-13.3,10,13,,10.0,30.138779,1016.6,,TRUE,TRUE,,,,,,,CLR,,,,,,,,VFR,,,,,,,,,,,,METAR,1652.0
KSLE 180656Z AUTO 27005KT 10SM CLR 10/07 A3025 RMK AO2 SLP244 T01000067,KSLE,2015-04-18T06:56:00Z,44.9,-123.0,10.0,6.7,270,5,,10.0,30.250984,1024.4,,TRUE,TRUE,,,,,,,CLR,,,,,,,,VFR,,,,,,,,,,,,METAR,59.0
KSHV 180656Z 00000KT 10SM FEW042 BKN065 BKN095 OVC140 21/19 A2993 RMK AO2 RAB36E48 SLP132 P0000 T02060189,KSHV,2015-04-18T06:56:00Z,32.45,-93.83,20.6,18.9,0,0,,10.0,29.929134,1013.2,,,TRUE,,,,,,,FEW,4200,BKN,6500,BKN,9500,OVC,14000,VFR,,,,,,0.0050,,,,,,SPECI,83.0
KSGH 180656Z AUTO 00000KT 7SM CLR 11/06 A3005 RMK AO2 T01050061 SLP172,KSGH,2015-04-18T06:56:00Z,39.83,-83.83,10.5,6.1,0,0,,7.0,30.050198,1017.2,,TRUE,TRUE,,,,,,,CLR,,,,,,,,VFR,,,,,,,,,,,,METAR,321.0
KSDF 180656Z 00000KT 6SM BR CLR 16/14 A3004 RMK AO2 SLP168 T01610139,KSDF,2015-04-18T06:56:00Z,38.18,-85.73,16.1,13.9,0,0,,6.0,30.041338,1016.8,,,TRUE,,,,,,BR,CLR,,,,,,,,VFR,,,,,,,,,,,,METAR,146.0
KSBP 180656Z AUTO 00000KT 10SM CLR 11/06 A3007 RMK AO2 SLP182 T01110056,KSBP,2015-04-18T06:56:00Z,35.23,-120.63,11.1,5.6,0,0,,10.0,30.070866,1018.2,,TRUE,TRUE,,,,,,,CLR,,,,,,,,VFR,,,,,,,,,,,,METAR,59.0
KRDM 180656Z AUTO 00000KT 10SM CLR 06/M01 A3021 RMK AO2 SLP224 T00611011,KRDM,2015-04-18T06:56:00Z,44.25,-121.15,6.1,-1.1,0,0,,10.0,30.209646,1022.4,,TRUE,TRUE,,,,,,,CLR,,,,,,,,VFR,,,,,,,,,,,,METAR,938.0
KART 180656Z AUTO 00000KT 3SM BR CLR 07/06 A2994 RMK AO2 SLP138 T00670056,KART,2015-04-18T06:56:00Z,43.98,-76.03,6.7,5.6,0,0,,3.0,29.940945,1013.8,,TRUE,TRUE,,,,,,BR,CLR,,,,,,,,MVFR,,,,,,,,,,,,METAR,100.0
KBED 180656Z AUTO 25003KT 10SM CLR 07/06 A2990 RMK AO2 SLP139 T00720061 TSNO,KBED,2015-04-18T06:56:00Z,42.47,-71.3,7.2,6.1,250,3,,10.0,29.899607,1013.9,,TRUE,TRUE,,,TRUE,,,,CLR,,,,,,,,VFR,,,,,,,,,,,,METAR,50.0
KBIH 180656Z AUTO 00000KT 10SM CLR 12/M16 A3010 RMK AO2 SLP159 T01171156,KBIH,2015-04-18T06:56:00Z,37.37,-118.35,11.7,-15.6,0,0,,10.0,30.100393,1015.9,,TRUE,TRUE,,,,,,,CLR,,,,,,,,VFR,,,,,,,,,,,,SPECI,1253.0
KBJJ 180656Z AUTO 00000KT 8SM CLR 08/07 A3003 RMK AO2 SLP168 T00780067 TSNO,KBJJ,2015-04-18T06:56:00Z,40.87,-81.88,7.8,6.7,0,0,,8.0,30.029528,1016.8,,TRUE,TRUE,,,TRUE,,,,CLR,,,,,,,,VFR,,,,,,,,,,,,METAR,343.0
KBMI 180656Z AUTO 19004KT 10SM FEW070 15/12 A3005 RMK AO2 T01500116 SLP167,KBMI,2015-04-18T06:56:00Z,40.47,-88.92,15.0,11.6,190,4,,10.0,30.050198,1016.7,,TRUE,TRUE,,,,,,,FEW,7000,,,,,,,VFR,,,,,,,,,,,,METAR,267.0
KBOK 180656Z AUTO 00000KT 4SM BR CLR 09/09 A3014 RMK AO2 T00940094 401660077 SLP208,KBOK,2015-04-18T06:56:00Z,42.07,-124.28,9.4,9.4,0,0,,4.0,30.138779,1020.8,,TRUE,TRUE,,,,,,BR,CLR,,,,,,,,MVFR,,,,16.6,7.7,,,,,,,METAR,140.0
KBZN 180656Z AUTO 14007KT 10SM CLR 03/M03 A3006 RMK AO2 SLP181 T00281033 401781050,KBZN,2015-04-18T06:56:00Z,45.78,-111.17,2.8,-3.3,140,7,,10.0,30.059055,1018.1,,TRUE,TRUE,,,,,,,CLR,,,,,,,,VFR,,,,17.8,-5.0,,,,,,,SPECI,1361.0
KCAE 180656Z 00000KT 6SM BR OVC004 19/18 A2996 RMK AO2 SLP143 T01940178,KCAE,2015-04-18T06:56:00Z,33.93,-81.12,19.4,17.8,0,0,,6.0,29.958662,1014.3,,,TRUE,,,,,,BR,OVC,400,,,,,,,LIFR,,,,,,,,,,,,SPECI,70.0
KCEC 180656Z AUTO 21003KT 5SM BR OVC011 10/09 A3014 RMK AO2 SLP207 T01000094,KCEC,2015-04-18T06:56:00Z,41.77,-124.22,10.0,9.4,210,3,,5.0,30.138779,1020.7,,TRUE,TRUE,,,,,,BR,OVC,1100,,,,,,,MVFR,,,,,,,,,,,,METAR,17.0
KCGI 180656Z AUTO 24003KT 3SM BR CLR 14/14 A3001 RMK AO2 T01390139 TSNO,KCGI,2015-04-18T06:56:00Z,37.23,-89.58,13.9,13.9,240,3,,3.0,30.008858,,,TRUE,TRUE,,,TRUE,,,BR,CLR,,,,,,,,MVFR,,,,,,,,,,,,SPECI,102.0
KCHS 180656Z 00000KT 4SM RA BR SCT025 BKN045 19/19 A2999 RMK AO2 RAB33 SLP156 P0003 T01940189,KCHS,2015-04-18T06:56:00Z,32.9,-80.03,19.4,18.9,0,0,,4.0,29.991142,1015.6,,,TRUE,,,,,,RA BR,SCT,2500,BKN,4500,,,,,MVFR,,,,,,0.03,,,,,,SPECI,13.0
KCTB 180656Z AUTO VRB05KT 10SM BKN085 07/M02 A3001 RMK AO2 WSHFT 0606 SLP155 T00721017 402110000,KCTB,2015-04-18T06:56:00Z,48.6,-112.37,7.2,-1.7,0,5,,10.0,30.008858,1015.5,,TRUE,TRUE,,,,,,,BKN,8500,,,,,,,VFR,,,,21.1,,,,,,,,METAR,1175.0
KCXY 180656Z AUTO 28003KT 10SM CLR 12/09 A2999 RMK AO2 SLP156 T01170089,KCXY,2015-04-18T06:56:00Z,40.22,-76.85,11.7,8.9,280,3,,10.0,29.991142,1015.6,,TRUE,TRUE,,,,,,,CLR,,,,,,,,VFR,,,,,,,,,,,,METAR,106.0
KDAY 180656Z 26005KT 10SM CLR 12/06 A3006 RMK AO2 SLP174 T01220056,KDAY,2015-04-18T06:56:00Z,39.9,-84.22,12.2,5.6,260,5,,10.0,30.059055,1017.4,,,TRUE,,,,,,,CLR,,,,,,,,VFR,,,,,,,,,,,,METAR,305.0
KSRC 180656Z AUTO 00000KT 4SM BR CLR 15/14 A3002 RMK AO2 SLP169 T01500144 TSNO,KSRC,2015-04-18T06:56:00Z,35.22,-91.73,15.0,14.4,0,0,,4.0,30.02067,1016.9,,TRUE,TRUE,,,TRUE,,,BR,CLR,,,,,,,,MVFR,,,,,,,,,,,,METAR,80.0
PHBK 180656Z AUTO 11003KT 10SM CLR 23/17 A3009 RMK AO2 SLP190 T02330167,PHBK,2015-04-18T06:56:00Z,22.03,-159.78,23.3,16.7,110,3,,10.0,30.088583,1019.0,,TRUE,TRUE,,,,,,,CLR,,,,,,,,VFR,,,,,,,,,,,,METAR,8.0
KNTD 180656Z AUTO 36003KT 10SM CLR 14/08 A3002 RMK AO2 SLP168 T01390083 CHINO N $,KNTD,2015-04-18T06:56:00Z,34.12,-119.12,13.9,8.3,360,3,,10.0,30.02067,1016.8,,TRUE,TRUE,TRUE,,,,,,CLR,,,,,,,,VFR,,,,,,,,,,,,METAR,4.0
KP60 180656Z AUTO 00000KT M03/M06 A3016 RMK AO1 SLP191 T10281061 401171078 $,KP60,2015-04-18T06:56:00Z,44.55,-110.42,-2.8,-6.1,0,0,,,30.159449,1019.1,,TRUE,TRUE,TRUE,,,,,,,,,,,,,,,,,,11.7,-7.8,,,,,,,SPECI,2388.0
KGNA 180656Z AUTO 15006KT 06/M01 A3017 RMK AO1 SLP224 T00611006,KGNA,2015-04-18T06:56:00Z,47.75,-90.35,6.1,-0.6,150,6,,,30.171259,1022.4,,TRUE,TRUE,,,,,,,,,,,,,,,,,,,,,,,,,,,SPECI,185.0
KDIJ 180656Z AUTO 00000KT 9SM CLR 01/M04 A3009 RMK AO2 T00111044 SLP152,KDIJ,2015-04-18T06:56:00Z,43.75,-111.1,1.1,-4.4,0,0,,9.0,30.088583,1015.2,,TRUE,TRUE,,,,,,,CLR,,,,,,,,VFR,,,,,,,,,,,,METAR,1899.0
KDIK 180656Z AUTO 12009KT 10SM CLR 06/M04 A3006 RMK AO2 SLP178 T00561039 402111028,KDIK,2015-04-18T06:56:00Z,46.8,-102.8,5.6,-3.9,120,9,,10.0,30.059055,1017.8,,TRUE,TRUE,,,,,,,CLR,,,,,,,,VFR,,,,21.1,-2.8,,,,,,,METAR,788.0
KDUG 180656Z AUTO 36009KT 10SM CLR 08/M08 A3007 RMK AO2 SLP145 T00781083 402171011,KDUG,2015-04-18T06:56:00Z,31.47,-109.58,7.8,-8.3,360,9,,10.0,30.070866,1014.5,,TRUE,TRUE,,,,,,,CLR,,,,,,,,VFR,,,,21.7,-1.1,,,,,,,METAR,1265.0
KEAU 180656Z AUTO 00000KT 10SM CLR 07/M01 A3003 RMK AO2 SLP170 T00721006,KEAU,2015-04-18T06:56:00Z,44.87,-91.47,7.2,-0.6,0,0,,10.0,30.029528,1017.0,,TRUE,TRUE,,,,,,,CLR,,,,,,,,VFR,,,,,,,,,,,,METAR,276.0
KEED 180656Z AUTO 00000KT 10SM CLR 22/M11 A2993 RMK AO2 SLP109 T02171111 $,KEED,2015-04-18T06:56:00Z,34.77,-114.62,21.7,-11.1,0,0,,10.0,29.929134,1010.9,,TRUE,TRUE,TRUE,,,,,,CLR,,,,,,,,VFR,,,,,,,,,,,,METAR,302.0
KEKO 180656Z AUTO 00000KT 10SM CLR 05/M06 A3012 RMK AO2 SLPNO T00501056,KEKO,2015-04-18T06:56:00Z,40.82,-115.78,5.0,-5.6,0,0,,10.0,30.121063,,,TRUE,TRUE,,,,,,,CLR,,,,,,,,VFR,,,,,,,,,,,,METAR,1547.0
K1QW 180656Z AUTO 27029G34KT 10SM CLR 09/M02 A3013 RMK AO2 PK WND 27035/06 SLP202 T00851023,K1QW,2015-04-18T06:56:00Z,46.8,-120.17,8.5,-2.3,270,29,34,10.0,30.129921,1020.2,,TRUE,TRUE,,,,,,,CLR,,,,,,,,VFR,,,,,,,,,,,,METAR,928.0
K4MR 180656Z AUTO 29009KT 10SM CLR 06/M09 A3001 RMK AO2 SLP137 T00591091 401870008 $,K4MR,2015-04-18T06:56:00Z,34.3,-103.8,5.9,-9.1,290,9,,10.0,30.008858,1013.7,,TRUE,TRUE,TRUE,,,,,,CLR,,,,,,,,VFR,,,,18.7,0.8,,,,,,,METAR,1326.0
KMEH 180656Z AUTO 00000KT 10SM CLR 01/M01 A3019 RMK AO2 SLP224 T00111011,KMEH,2015-04-18T06:56:00Z,45.52,-118.42,1.1,-1.1,0,0,,10.0,30.188976,1022.4,,TRUE,TRUE,,,,,,,CLR,,,,,,,,VFR,,,,,,,,,,,,SPECI,1136.0
KCWN 180656Z AUTO 32011G18KT 10SM SCT033 03/M04 A2969 RMK AO2 SLP046 T00251037 400730003 $,KCWN,2015-04-18T06:56:00Z,38.75,-104.85,2.5,-3.7,320,11,18,10.0,29.68996,1004.6,,TRUE,TRUE,TRUE,,,,,,SCT,3300,,,,,,,VFR,,,,7.3,0.3,,,,,,,METAR,2040.0
PAVC 180656Z AUTO 08007KT -RA OVC014 03/01 A2906 RMK AO2 TSNO T00270011 P0000 SLP844 $,PAVC,2015-04-18T06:56:00Z,55.12,-162.27,2.7,1.1,80,7,,,29.061024,984.4,,TRUE,TRUE,TRUE,,TRUE,,,-RA,OVC,1400,,,,,,,,,,,,,0.0050,,,,,,METAR,47.0
PARY 180656Z AUTO 09007KT 10SM CLR 01/M02 A2975 RMK AO2 TSNO T00051022 SLP088 $,PARY,2015-04-18T06:56:00Z,64.73,-155.47,0.5,-2.2,90,7,,10.0,29.749016,1008.8,,TRUE,TRUE,TRUE,,TRUE,,,,CLR,,,,,,,,VFR,,,,,,,,,,,,METAR,199.0
PARS 180656Z AUTO 03010G16KT 10SM FEW050 BKN075 OVC085 02/M03 A2955 RMK AO2 TSNO T00161033 UPB0558E04 P0000 SLP013 $,PARS,2015-04-18T06:56:00Z,61.77,-161.32,1.6,-3.3,30,10,16,10.0,29.551182,1001.3,,TRUE,TRUE,TRUE,,TRUE,,,,FEW,5000,BKN,7500,OVC,8500,,,VFR,,,,,,0.0050,,,,,,METAR,16.0
PAPM 180656Z AUTO 36015KT 10SM UP FEW040 SCT049 02/M02 A2931 RMK AO2 TSNO T00221016 UPB0558E00B29 P0000 SLP926 $,PAPM,2015-04-18T06:56:00Z,59.02,-161.82,2.2,-1.6,360,15,,10.0,29.309055,992.6,,TRUE,TRUE,TRUE,,TRUE,,,UP,FEW,4000,SCT,4900,,,,,VFR,,,,,,0.0050,,,,,,METAR,5.0
PAOU 180656Z AUTO 09006KT OVC004 02/02 A2908 RMK AO2 TSNO T00220022 SLP850 $,PAOU,2015-04-18T06:56:00Z,56.0,-161.17,2.2,2.2,90,6,,,29.078741,985.0,,TRUE,TRUE,TRUE,,TRUE,,,,OVC,400,,,,,,,,,,,,,,,,,,,METAR,4.0
PAOO 180656Z AUTO 10SM SCT055 A2956 RMK AO2 TSNO SLPNO $,PAOO,2015-04-18T06:56:00Z,60.53,-165.12,,,,,,10.0,29.56004,,,TRUE,TRUE,TRUE,,TRUE,,,,SCT,5500,,,,,,,VFR,,,,,,,,,,,,METAR,18.0
PAOH 180656Z AUTO 10006KT 10SM FEW060 02/02 A3039 RMK AO2 TSNO T00220022 SLP292 $,PAOH,2015-04-18T06:56:00Z,58.1,-135.45,2.2,2.2,100,6,,10.0,30.389763,1029.2,,TRUE,TRUE,TRUE,,TRUE,,,,FEW,6000,,,,,,,VFR,,,,,,,,,,,,METAR,9.0
PAMO 180656Z AUTO 35017KT 10SM BKN050 M08/M10 A2964 RMK AO2 TSNO T10831100 BKN V OVC SLP924 $,PAMO,2015-04-18T06:56:00Z,62.1,-163.68,-8.3,-10.0,350,17,,10.0,29.639763,992.4,,TRUE,TRUE,TRUE,,TRUE,,,,BKN,5000,,,,,,,VFR,,,,,,,,,,,,METAR,103.0
PAMK 180656Z AUTO 05008KT 10SM FEW010 SCT070 BKN080 M10/M12 A2974 RMK AO2 PWINO TSNO T11001116 BKN V SCT SLP078 $,PAMK,2015-04-18T06:56:00Z,63.48,-162.12,-10.0,-11.6,50,8,,10.0,29.740158,1007.8,,TRUE,TRUE,TRUE,,TRUE,,TRUE,,FEW,1000,SCT,7000,BKN,8000,,,VFR,,,,,,,,,,,,METAR,28.0
PALG 180656Z AUTO 03012G17KT FEW039 BKN090 03/M04 RMK AO2 PWINO TSNO T00331044 BKN V OVC SLPNO $,PALG,2015-04-18T06:56:00Z,61.53,-160.33,3.3,-4.4,30,12,17,,,,,TRUE,TRUE,TRUE,,TRUE,,TRUE,,FEW,3900,BKN,9000,,,,,,,,,,,,,,,,,METAR,17.0
PAKI 180656Z AUTO 33025G32KT CLR M08/M10 RMK AO2 PWINO TSNO T10831100 PK WND 33032/0606 SLPNO $,PAKI,2015-04-18T06:56:00Z,59.93,-164.03,-8.3,-10.0,330,25,32,,,,,TRUE,TRUE,TRUE,,TRUE,,TRUE,,CLR,,,,,,,,,,,,,,,,,,,,METAR,4.0
PAKH 180656Z AUTO 08009KT OVC021 05/03 RMK AO2 PWINO TSNO T00500027 SLPNO $,PAKH,2015-04-18T06:56:00Z,56.93,-154.18,5.0,2.7,80,9,,,,,,TRUE,TRUE,TRUE,,TRUE,,TRUE,,OVC,2100,,,,,,,,,,,,,,,,,,,METAR,14.0
PAIG 180656Z AUTO 05026G31KT UP OVC018 02/00 A2932 RMK AO2 TSNO T00160000 OVC V BKN UPB0558 P0000 PK WND 06038/0624 SLP932 $,PAIG,2015-04-18T06:56:00Z,59.32,-155.9,1.6,0.0,50,26,31,,29.320866,993.2,,TRUE,TRUE,TRUE,,TRUE,,,UP,OVC,1800,,,,,,,,,,,,,0.0050,,,,,,METAR,28.0
PAHC 180656Z AUTO 36009KT 10SM SCT070 02/M04 A2957 RMK AO2 TSNO T00221038 SLP016 $,PAHC,2015-04-18T06:56:00Z,62.18,-159.78,2.2,-3.8,360,9,,10.0,29.568897,1001.6,,TRUE,TRUE,TRUE,,TRUE,,,,SCT,7000,,,,,,,VFR,,,,,,,,,,,,METAR,21.0
PAFS 180656Z AUTO 07007KT 10SM FEW100 04/M07 A2967 RMK AO2 TSNO T00441066 SLP057 $,PAFS,2015-04-18T06:56:00Z,63.02,-154.35,4.4,-6.6,70,7,,10.0,29.66929,1005.7,,TRUE,TRUE,TRUE,,TRUE,,,,FEW,10000,,,,,,,VFR,,,,,,,,,,,,METAR,126.0
PADU 180656Z AUTO 04023G31KT 7SM -RA BKN013 OVC019 03/01 A2902 RMK AO2 PK WND 03035/0619 SLP832 P0006 T00330006,PADU,2015-04-18T06:56:00Z,53.9,-166.53,3.3,0.6,40,23,31,7.0,29.019686,983.2,,TRUE,TRUE,,,,,,-RA,BKN,1300,OVC,1900,,,,,MVFR,,,,,,0.06,,,,,,METAR,4.0
PMDY 180656Z AUTO 00000KT BKN038 21/17 A3015 RMK AO2 PWINO TSNO T02110172 SLP518 $,PMDY,2015-04-18T06:56:00Z,28.22,-177.37,21.1,17.2,0,0,,,30.15059,1051.8,,TRUE,TRUE,TRUE,,TRUE,,TRUE,,BKN,3800,,,,,,,,,,,,,,,,,,,METAR,4.0
KIGX 180656Z AUTO 00000KT 10SM CLR 17/15 A2998 RMK AO2 SLP147 T01720150 TSNO,KIGX,2015-04-18T06:56:00Z,35.93,-79.07,17.2,15.0,0,0,,10.0,29.97933,1014.7,,TRUE,TRUE,,,TRUE,,,,CLR,,,,,,,,VFR,,,,,,,,,,,,METAR,155.0
KSHM 180656Z AUTO 33009G16KT 10SM FEW100 02/M01 A3000 RMK AO2 SLP159 T00161006,KSHM,2015-04-18T06:56:00Z,38.8,-104.52,1.6,-0.6,330,9,16,10.0,30.0,1015.9,,TRUE,TRUE,,,,,,,FEW,10000,,,,,,,VFR,,,,,,,,,,,,METAR,1900.0
KGFA 180656Z AUTO 23003KT 10SM CLR 10/00 A2999 RMK AO2 SLP160 T01021005 402000001 TSNO $,KGFA,2015-04-18T06:56:00Z,47.5,-111.17,10.2,-0.5,230,3,,10.0,29.991142,1016.0,,TRUE,TRUE,TRUE,,TRUE,,,,CLR,,,,,,,,VFR,,,,20.0,0.1,,,,,,,METAR,1075.0
K1YT 180656Z AUTO 35007KT 10SM CLR 13/M01 A3019 RMK AO2 SLPNO T01281011,K1YT,2015-04-18T06:56:00Z,46.67,-120.45,12.8,-1.1,350,7,,10.0,30.188976,,,TRUE,TRUE,,,,,,,CLR,,,,,,,,VFR,,,,,,,,,,,,METAR,438.0
TJSJ 180656Z 00000KT 10SM FEW070 24/22 A3002 RMK AO2 SLP163 T02390222 $,TJSJ,2015-04-18T06:56:00Z,18.43,-66.02,23.9,22.2,0,0,,10.0,30.02067,1016.3,,,TRUE,TRUE,,,,,,FEW,7000,,,,,,,VFR,,,,,,,,,,,,METAR,21.0
PPIT 180656Z AUTO 04015KT 10SM FEW049 BKN060 OVC095 01/M02 A2948 RMK AO2 PK WND 03027/0602 SLP983 T00061017 FZRANO,PPIT,2015-04-18T06:56:00Z,60.9,-162.43,0.6,-1.7,40,15,,10.0,29.480314,998.3,,TRUE,TRUE,,,,TRUE,,,FEW,4900,BKN,6000,OVC,9500,,,VFR,,,,,,,,,,,,METAR,4.0
PFWS 180656Z AUTO 07013KT 10SM FEW028 OVC050 02/00 A2923 RMK AO2 RAE46 SLP902 P0000 T00220000 FZRANO,PFWS,2015-04-18T06:56:00Z,58.7,-157.0,2.2,0.0,70,13,,10.0,29.22933,990.2,,TRUE,TRUE,,,,TRUE,,,FEW,2800,OVC,5000,,,,,VFR,,,,,,0.0050,,,,,,METAR,49.0
PFKW 180656Z AUTO 04014G19KT 10SM SCT085 02/M03 A2945 RMK AO2 SLP974 T00221028 FZRANO $,PFKW,2015-04-18T06:56:00Z,60.8,-161.43,2.2,-2.8,40,14,19,10.0,29.450787,997.4,,TRUE,TRUE,TRUE,,,TRUE,,,SCT,8500,,,,,,,VFR,,,,,,,,,,,,METAR,8.0
PFCL 180656Z AUTO 06021G28KT 10SM -RA OVC011 02/01 A2924 RMK AO2 PK WND 06030/0633 RAB0557E21B42SNE0557 SLP904 P0000 T00170006 FZRANO,PFCL,2015-04-18T06:56:00Z,58.83,-158.53,1.7,0.6,60,21,28,10.0,29.241142,990.4,,TRUE,TRUE,,,,TRUE,,-RA,OVC,1100,,,,,,,MVFR,,,,,,0.0050,,,,,,METAR,24.0
PATQ 180656Z AUTO 06014KT 10SM OVC085 M17/M18 A3015 RMK AO2 TSNO T11661183 SLP216 $,PATQ,2015-04-18T06:56:00Z,70.47,-157.43,-16.6,-18.3,60,14,,10.0,30.15059,1021.6,,TRUE,TRUE,TRUE,,TRUE,,,,OVC,8500,,,,,,,VFR,,,,,,,,,,,,METAR,29.0
PAQH 180656Z AUTO 36013KT 10SM BKN085 OVC100 02/M02 A2935 RMK AO2 SLP940 T00221022 FZRANO,PAQH,2015-04-18T06:56:00Z,59.75,-161.85,2.2,-2.2,360,13,,10.0,29.350393,994.0,,TRUE,TRUE,,,,TRUE,,,BKN,8500,OVC,10000,,,,,VFR,,,,,,,,,,,,METAR,13.0
PANA 180656Z AUTO 04012G18KT 10SM BKN080 BKN100 02/M03 A2944 RMK AO2 SLP971 T00221028 FZRANO,PANA,2015-04-18T06:56:00Z,60.68,-161.98,2.2,-2.8,40,12,18,10.0,29.438976,997.1,,TRUE,TRUE,,,,TRUE,,,BKN,8000,BKN,10000,,,,,VFR,,,,,,,,,,,,METAR,5.0
PAHX 180656Z AUTO 02010KT 10SM BKN100 BKN120 01/M04 A2962 RMK AO2 SLP032 T00111039 FZRANO,PAHX,2015-04-18T06:56:00Z,62.7,-159.57,1.1,-3.9,20,10,,10.0,29.619095,1003.2,,TRUE,TRUE,,,,TRUE,,,BKN,10000,BKN,12000,,,,,VFR,,,,,,,,,,,,METAR,24.0
PAGN 180656Z AUTO 00000KT 10SM FEW050 04/02 A3039 RMK AO2 TSNO T00440016 SLP293 $,PAGN,2015-04-18T06:56:00Z,57.5,-134.58,4.4,1.6,0,0,,10.0,30.389763,1029.3,,TRUE,TRUE,TRUE,,TRUE,,,,FEW,5000,,,,,,,VFR,,,,,,,,,,,,METAR,2.0
KHYA 180656Z AUTO 30005KT 10SM CLR 12/09 A2989 RMK AO2 SLP121 T01170094,KHYA,2015-04-18T06:56:00Z,41.67,-70.27,11.7,9.4,300,5,,10.0,29.890747,1012.1,,TRUE,TRUE,,,,,,,CLR,,,,,,,,VFR,,,,,,,,,,,,METAR,22.0
KHWV 180656Z AUTO 34004KT 10SM CLR 11/09 A2996 RMK AO2 SLP145 T01060089 TSNO,KHWV,2015-04-18T06:56:00Z,40.82,-72.87,10.6,8.9,340,4,,10.0,29.958662,1014.5,,TRUE,TRUE,,,TRUE,,,,CLR,,,,,,,,VFR,,,,,,,,,,,,METAR,21.0
KHPN 180656Z 35003KT 10SM CLR 11/07 A2995 RMK AO2 SLP142 T01060072,KHPN,2015-04-18T06:56:00Z,41.07,-73.7,10.6,7.2,350,3,,10.0,29.949802,1014.2,,,TRUE,,,,,,,CLR,,,,,,,,VFR,,,,,,,,,,,,METAR,121.0
KGRD 180656Z AUTO 00000KT 3SM BR OVC050 17/16 A3000 RMK AO2 RAE03 SLP154 P0000 T01720161,KGRD,2015-04-18T06:56:00Z,34.25,-82.15,17.2,16.1,0,0,,3.0,30.0,1015.4,,TRUE,TRUE,,,,,,BR,OVC,5000,,,,,,,MVFR,,,,,,0.0050,,,,,,METAR,185.0
KGON 180656Z AUTO 35005KT 6SM BR CLR 07/07 A2992 RMK AO2 SLP131 T00720067,KGON,2015-04-18T06:56:00Z,41.33,-72.05,7.2,6.7,350,5,,6.0,29.920275,1013.1,,TRUE,TRUE,,,,,,BR,CLR,,,,,,,,VFR,,,,,,,,,,,,METAR,3.0
KFSD 180656Z 03005KT 10SM SCT110 09/M01 A3002 RMK AO2 SLP166 T00941011,KFSD,2015-04-18T06:56:00Z,43.58,-96.75,9.4,-1.1,30,5,,10.0,30.02067,1016.6,,,TRUE,,,,,,,SCT,11000,,,,,,,VFR,,,,,,,,,,,,SPECI,436.0
KELZ 180656Z AUTO 27004KT 10SM CLR 10/04 A3002 RMK AO2 SLP166 T01000039,KELZ,2015-04-18T06:56:00Z,42.1,-77.98,10.0,3.9,270,4,,10.0,30.02067,1016.6,,TRUE,TRUE,,,,,,,CLR,,,,,,,,VFR,,,,,,,,,,,,METAR,646.0
MUGM 180656Z 07003KT 9999 SCT030 27/22 A2998 RMK SLP151 VCSH SW T02670217,MUGM,2015-04-18T06:56:00Z,19.9,-75.2,26.7,21.7,70,3,,6.21,29.97933,1015.1,,,,,,,,,,SCT,3000,,,,,,,VFR,,,,,,,,,,,,METAR,17.0
PANW 180656Z AUTO 07017G26KT 10SM OVC013 02/M01 A2933 RMK AO2 TSNO T00161005 PK WND 06033/0618 SLP911 $,PANW,2015-04-18T06:56:00Z,59.45,-157.37,1.6,-0.5,70,17,26,10.0,29.329725,991.1,,TRUE,TRUE,TRUE,,TRUE,,,,OVC,1300,,,,,,,MVFR,,,,,,,,,,,,METAR,92.0
PAFB 180656Z AUTO 07008KT 10SM CLR 03/M06 A2985 RMK SLP115 T00331061 $ VIA AUTODIAL,PAFB,2015-04-18T06:56:00Z,64.83,-147.62,3.3,-6.1,70,8,,10.0,29.84941,1011.5,,TRUE,,TRUE,,,,,,CLR,,,,,,,,VFR,,,,,,,,,,,,METAR,137.0
KM63 180656Z AUTO 02007KT 10SM CLR 11/M12 A3000 RMK AO2 LTG DSNT SW SLP116 T01101116 401960035,KM63,2015-04-18T06:56:00Z,32.05,-106.15,11.0,-11.6,20,7,,10.0,30.0,1011.6,,TRUE,TRUE,,,,,,,CLR,,,,,,,,VFR,,,,19.6,3.5,,,,,,,METAR,1283.0
KQTZ 180655Z 34008G15KT 9999 CLR 25/02 A3007 RMK SLP180 WND/ALSTG/SLP ESTMD,KQTZ,2015-04-18T06:55:00Z,100.65,-1000.65,25.0,2.0,340,8,15,6.21,30.070866,1018.0,,,,,,,,,,CLR,,,,,,,,VFR,,,,,,,,,,,,METAR,999.0
LIVE 180655Z /////KT 9999 BKN030 05/03 Q1014 RMK BKN VIS MIN 9999,LIVE,2015-04-18T06:55:00Z,46.85,10.5,5.0,3.0,,,,6.21,29.940945,,,,,,,,,,,BKN,3000,,,,,,,MVFR,,,,,,,,,,,,SPECI,1800.0
LIRE 180655Z 12007KT 9999 FEW010 SCT020 16/13 Q1014 RMK BKN VIS MIN 9999 WIND THR31 /////KT BLU,LIRE,2015-04-18T06:55:00Z,41.63,12.42,16.0,13.0,120,7,,6.21,29.940945,,,,,,,,,,,FEW,1000,SCT,2000,,,,,VFR,,,,,,,,,,,,SPECI,12.0
LIQC 180655Z ///02KT 9999 BKN026 15/13 Q1015 RMK BKN QUK 1 QUL 0 VIS MAR 15 KM VIS MIN 9999,LIQC,2015-04-18T06:55:00Z,40.55,14.2,15.0,13.0,,,,6.21,29.970472,,,,,,,,,,,BKN,2600,,,,,,,MVFR,,,,,,,,,,,,SPECI,269.0
LICF 180655Z 05005KT CAVOK 18/11 Q1015 RMK FEW FEW200 QUK 1 QUL 0 VIS MAR 20 KM MON LIB NC VIS MIN 9999,LICF,2015-04-18T06:55:00Z,38.2,15.55,18.0,11.0,50,5,,6.21,29.970472,,,,,,,,,,,CAVOK,,,,,,,,VFR,,,,,,,,,,,,SPECI,51.0
LIBY 180655Z 18010KT 8000 BKN015 14/12 Q1013 RMK BKN SCT080 QUK 2 QUL 1 S VIS MAR 8 KM VIS MIN 8000,LIBY,2015-04-18T06:55:00Z,39.82,18.35,14.0,12.0,180,10,,4.97,29.911417,,,,,,,,,,,BKN,1500,,,,,,,MVFR,,,,,,,,,,,,SPECI,112.0
LIMY 180655Z 10003KT 5000 BR NSC 09/07 Q1013 RMK SCT SCT190 VAL FOSCHIA VIS MIN 4000NE,LIMY,2015-04-18T06:55:00Z,44.25,7.78,9.0,7.0,100,3,,3.11,29.911417,,,,,,,,,,BR,,,,,,,,,,,,,,,,,,,,,METAR,1742.0
LIMV 180655Z /////KT 7000 SCT008 12/11 Q1013 RMK SCT MON GEN INC VAL FOSCHIA VIS MIN 7000,LIMV,2015-04-18T06:55:00Z,44.55,8.92,12.0,11.0,,,,4.35,29.911417,,,,,,,,,,,SCT,800,,,,,,,MVFR,,,,,,,,,,,,METAR,475.0
LIMU 180655Z 02012KT 9999 FEW015 15/10 Q1013 RMK BKN QUK 2 QUL 1 SE VIS MAR 12 KM VIS MIN 9999,LIMU,2015-04-18T06:55:00Z,43.95,8.17,15.0,10.0,20,12,,6.21,29.911417,,,,,,,,,,,FEW,1500,,,,,,,VFR,,,,,,,,,,,,METAR,221.0
LIMH 180655Z /////KT 0800 FZFG VV/// M08/M09 Q1016 RMK MON INVIS VAL INVIS VIS MIN 0800,LIMH,2015-04-18T06:55:00Z,45.93,7.7,-8.0,-9.0,,,,0.5,30.0,,,,,,,,,,FZFG,OVX,0,,,,,,,LIFR,,,,,,,,,,,,METAR,3488.0
LIVT 180655Z 00000KT 9999 -DZ FEW010 BKN025 14/12 Q1012 RMK OVC QUK 0 QUL 0 VIS MAR 12 KM VIS MIN 9999,LIVT,2015-04-18T06:55:00Z,45.68,13.75,14.0,12.0,0,0,,6.21,29.88189,,,,,,,,,,-DZ,FEW,1000,BKN,2500,,,,,MVFR,,,,,,,,,,,,METAR,20.0
LIVR 180655Z 33005KT 9999 FEW030 02/M02 Q1012 RMK BKN BKN060 MON LIB VIS MIN 9999,LIVR,2015-04-18T06:55:00Z,46.28,11.77,2.0,-2.0,330,5,,6.21,29.88189,,,,,,,,,,,FEW,3000,,,,,,,VFR,,,,,,,,,,,,METAR,2006.0
LIVO 180655Z 00000KT 9999 -RA OVC005 08/07 Q1012 RMK OVC VIS MIN 9999,LIVO,2015-04-18T06:55:00Z,46.5,13.57,8.0,7.0,0,0,,6.21,29.88189,,,,,,,,,,-RA,OVC,500,,,,,,,IFR,,,,,,,,,,,,METAR,778.0
LIVF 180655Z 22007KT 9999 SCT019 13/10 Q1013 RMK SCT MON S W CIME INC NC VAL NIL VIS MIN 9999,LIVF,2015-04-18T06:55:00Z,43.52,12.72,13.0,10.0,220,7,,6.21,29.911417,,,,,,,,,,,SCT,1900,,,,,,,VFR,,,,,,,,,,,,METAR,574.0
LIVD 180655Z 30005KT 9999 SCT025 08/05 Q1014 RMK BKN VIS MIN 9999,LIVD,2015-04-18T06:55:00Z,46.72,12.22,8.0,5.0,300,5,,6.21,29.940945,,,,,,,,,,,SCT,2500,,,,,,,VFR,,,,,,,,,,,,METAR,1226.0
LIRX 180655Z 16013KT 0000 FG VV/// 13/12 Q1013 RMK VIS MIN 0000 VIS MAR 40 M,LIRX,2015-04-18T06:55:00Z,42.73,10.38,13.0,12.0,160,13,,0.0,29.911417,,,,,,,,,,FG,OVX,0,,,,,,,LIFR,,,,,,,,,,,,METAR,297.0
LIRT 180655Z 29015KT 9999 SCT015 08/05 Q1014 RMK SCT MON LIB VAL NIL VIS MIN 9999,LIRT,2015-04-18T06:55:00Z,41.03,15.22,8.0,5.0,290,15,,6.21,29.940945,,,,,,,,,,,SCT,1500,,,,,,,VFR,,,,,,,,,,,,METAR,1093.0
LIRK 180655Z AUTO 29007KT 260V330 //// 04/04 Q1016,LIRK,2015-04-18T06:55:00Z,42.47,12.97,4.0,4.0,290,7,,,30.0,,,TRUE,,,,,,,,,,,,,,,,,,,,,,,,,,,,METAR,1875.0
LIQO 180655Z VRB02KT 9000 NSC 12/10 Q1015 RMK SKC VAL FOSCHIA NC VIS MIN 9000,LIQO,2015-04-18T06:55:00Z,42.37,11.17,12.0,10.0,0,2,,5.59,29.970472,,,,,,,,,,,,,,,,,,,,,,,,,,,,,,,METAR,632.0
LIED 180655Z 30002KT 7000 FEW002 13/11 Q1015 RMK BKN BKN200 VIS MIN 7000 WIND THR35 29003KT WIND THR17 31004KT WHT,LIED,2015-04-18T06:55:00Z,39.35,8.97,13.0,11.0,300,2,,4.35,29.970472,,,,,,,,,,,FEW,200,,,,,,,MVFR,,,,,,,,,,,,METAR,28.0
LIEB 180655Z 11003KT CAVOK 19/11 Q1015 RMK SCT SCT200 QUK 2 QUL 0 VIS MAR 30 KM MON LIB VIS MIN 9999,LIEB,2015-04-18T06:55:00Z,39.93,9.72,19.0,11.0,110,3,,6.21,29.970472,,,,,,,,,,,CAVOK,,,,,,,,VFR,,,,,,,,,,,,METAR,156.0
LIBV 180655Z 20005KT 8000 NSC 14/12 Q1013 RMK SKC VIS MIN 8000 WIND THR32 19005KT WIND THR14 20005KT BLU,LIBV,2015-04-18T06:55:00Z,40.77,16.92,14.0,12.0,200,5,,4.97,29.911417,,,,,,,,,,,,,,,,,,,,,,0.5,,,,,,,,,METAR,350.0
LIBQ 180655Z 26026KT CAVOK 08/04 Q1015 RMK SKC MON LIB VAL NIL VIS MIN 9999,LIBQ,2015-04-18T06:55:00Z,39.32,16.38,8.0,4.0,260,26,,6.21,29.970472,,,,,,,,,,,CAVOK,,,,,,,,VFR,,,,,,,,,,,,METAR,1720.0
LIBN 180655Z 16010KT 8000 NSC 18/17 Q1014 RMK FEW FEW200 VIS MIN 8000 WIND THR14 16011KT BLU,LIBN,2015-04-18T06:55:00Z,40.22,18.13,18.0,17.0,160,10,,4.97,29.940945,,,,,,,,,,,,,,,,,,,,,,,,,,,,,,,METAR,61.0
LIPA 180655Z 07002KT 9999 -RA SCT030 SCT040 BKN080 13/12 Q1013 RMK OVC VIS MIN 9999 WIND THR05 04007KT WIND THR23 03007KT A2992 BLU,LIPA,2015-04-18T06:55:00Z,46.02,12.58,13.0,12.0,70,2,,6.21,29.911417,,,,,,,,,,-RA,SCT,3000,SCT,4000,BKN,8000,,,VFR,,,,,,,,,,,,METAR,126.0
LIVC 180655Z 27029KT 0000 -RA FG VV000 05/03 Q1015 RMK MON INVIS VAL INVIS,LIVC,2015-04-18T06:55:00Z,44.2,10.68,5.0,3.0,270,29,,0.0,29.970472,,,,,,,,,,-RA FG,OVX,0,,,,,,,LIFR,,,,,,,,,,,0,METAR,2173.0
LIPS 180655Z 35003KT 8000 SCT015 BKN060 12/10 Q1012 RMK OVC VIS MIN 8000 WIND THR26 /////KT WIND THR08 34004KT BLU,LIPS,2015-04-18T06:55:00Z,45.67,12.08,12.0,10.0,350,3,,4.97,29.88189,,,,,,,,,,,SCT,1500,BKN,6000,,,,,MVFR,,,,,,,,,,,,METAR,41.0
LIPI 180655Z 05007KT 8000 FEW035 SCT050 BKN070 13/10 Q1013 RMK OVC VIS MIN 8000 WIND THR06 03006KT BLU,LIPI,2015-04-18T06:55:00Z,45.97,13.05,13.0,10.0,50,7,,4.97,29.911417,,,,,,,,,,,FEW,3500,SCT,5000,BKN,7000,,,MVFR,,,,,,,,,,,,METAR,53.0
LIMK 180655Z 18002KT 6000 NSC 10/10 Q1012 RMK FEW FEW200 VAL FOSCHIA VIS MIN 6000,LIMK,2015-04-18T06:55:00Z,45.02,7.72,10.0,10.0,180,2,,3.73,29.88189,,,,,,,,,,,,,,,,,,,,,,,,,,,,,,,METAR,710.0
LIVP 180655Z 01011KT 9999 FEW010 00/M01 Q1012 RMK BKN BKN080 MON LIB VAL CLD SCT VIS MIN 9999,LIVP,2015-04-18T06:55:00Z,46.15,11.03,0.0,-1.0,10,11,,6.21,29.88189,,,,,,,,,,,FEW,1000,,,,,,,VFR,,,,,,,,,,,,METAR,2129.0
KQL5 180655Z VRB03KT 9999 SCT100 BKN150 28/09 A2979 RMK SLP057 T02810094,KQL5,2015-04-18T06:55:00Z,100.65,-1000.65,28.1,9.4,0,3,,6.21,29.790354,1005.7,,,,,,,,,,SCT,10000,BKN,15000,,,,,VFR,,,,,,,,,,,,METAR,999.0
EHSA 180655Z AUTO ///// //// ///////// ///// Q//// W///H12,EHSA,2015-04-18T06:55:00Z,52.0,3.28,,,,,,,,,,TRUE,,,,,,,,,,,,,,,,,,,,,,,,,,,,METAR,50.0
EHSC 180655Z AUTO 07016G17KT 9999 ///////// 08/06 Q1028 W08/H11,EHSC,2015-04-18T06:55:00Z,51.93,3.67,8.0,6.0,70,16,17,6.21,30.35433,,,TRUE,,,,,,,,,,,,,,,,,,,,,,,,,,,,METAR,50.0
EHJR 180655Z AUTO 02015G17KT //// ///////// 08/05 Q1030 W08/H13,EHJR,2015-04-18T06:55:00Z,53.22,3.22,8.0,5.0,20,15,17,,30.413385,,,TRUE,,,,,,,,,,,,,,,,,,,,,,,,,,,,METAR,50.0
LICZ 180655Z 27003KT CAVOK 14/06 Q1015 RMK SKC VIS MIN 9999 WIND THR28 25004KT A2999 BLU,LICZ,2015-04-18T06:55:00Z,37.38,14.92,14.0,6.0,270,3,,6.21,29.970472,,,,,,,,,,,CAVOK,,,,,,,,VFR,,,,,,,,,,,,METAR,22.0
KQXT 180655Z 36009G18KT 9999 CLR 31/06 A2991 RMK SLP081 WND DATA ESTMD ALSTG/SLP ESTMD Q1012,KQXT,2015-04-18T06:55:00Z,100.65,-1000.65,31.0,6.0,360,9,18,6.21,29.911417,1008.1,,,,,,,,,,CLR,,,,,,,,VFR,,,,,,,,,,,,METAR,999.0
KQTH 180655Z VRB02KT 9999 CLR 33/03 A3002 RMK AO2A SLP136 T03340026 $,KQTH,2015-04-18T06:55:00Z,100.65,-1000.65,33.4,2.6,0,2,,6.21,30.02067,1013.6,,,TRUE,TRUE,,,,,,CLR,,,,,,,,VFR,,,,,,,,,,,,METAR,999.0
KQSF 180655Z AUTO VRB06KT 9000 HZ FEW150 19/02 A3010 RMK AO2 SLP140 T01860016,KQSF,2015-04-18T06:55:00Z,100.65,-1000.65,18.6,1.6,0,6,,5.59,30.100393,1014.0,,TRUE,TRUE,,,,,,HZ,FEW,15000,,,,,,,VFR,,,,,,,,,,,,METAR,999.0
KQQY 180655Z AUTO 00000KT 8000 BR OVC120 22/22 A2999 RMK AO2 SLP136 T02240218 $,KQQY,2015-04-18T06:55:00Z,100.65,-1000.65,22.4,21.8,0,0,,4.97,29.991142,1013.6,,TRUE,TRUE,TRUE,,,,,BR,OVC,12000,,,,,,,MVFR,,,,,,,,,,,,METAR,999.0
KQFQ 180655Z AUTO 00000KT 10SM BKN120 22/M06 A2987 RMK AO2 SLP113 T02221059 $,KQFQ,2015-04-18T06:55:00Z,100.65,-1000.65,22.2,-5.9,0,0,,10.0,29.870079,1011.3,,TRUE,TRUE,TRUE,,,,,,BKN,12000,,,,,,,VFR,,,,,,,,,,,,METAR,999.0
KQFG 180655Z AUTO 25008KT 210V290 9999 FEW170 28/05 A2982 RMK AO2 SLP062 T02840051,KQFG,2015-04-18T06:55:00Z,100.65,-1000.65,28.4,5.1,250,8,,6.21,29.819881,1006.2,,TRUE,TRUE,,,,,,,FEW,17000,,,,,,,VFR,,,,,,,,,,,,METAR,999.0
KQFA 180655Z AUTO 00000KT 9999 BKN120 22/M06 A2987 RMK AO2 SLP113 T02221059 $,KQFA,2015-04-18T06:55:00Z,100.65,-1000.65,22.2,-5.9,0,0,,6.21,29.870079,1011.3,,TRUE,TRUE,TRUE,,,,,,BKN,12000,,,,,,,VFR,,,,,,,,,,,,METAR,999.0
KQCL 180655Z AUTO VRB06KT 9999 FEW170 28/09 A2989 RMK AO2 SLP069 T02780088,KQCL,2015-04-18T06:55:00Z,100.65,-1000.65,27.8,8.8,0,6,,6.21,29.890747,1006.9,,TRUE,TRUE,,,,,,,FEW,17000,,,,,,,VFR,,,,,,,,,,,,METAR,999.0
KQAJ 180655Z 34015G23KT 9000 HZ SCT150 BKN180 27/03 A3002 RMK SLP158 T02710030,KQAJ,2015-04-18T06:55:00Z,100.65,-1000.65,27.1,3.0,340,15,23,5.59,30.02067,1015.8,,,,,,,,,HZ,SCT,15000,BKN,18000,,,,,VFR,,,,,,,,,,,,METAR,999.0
KNKX 180655Z 00000KT 10SM CLR 13/05 A3004 RMK AO2 SLP165 T01330050 $,KNKX,2015-04-18T06:55:00Z,32.87,-117.13,13.3,5.0,0,0,,10.0,30.041338,1016.5,,,TRUE,TRUE,,,,,,CLR,,,,,,,,VFR,,,,,,,,,,,,METAR,146.0
KNBG 180655Z AUTO 00000KT 6SM BR BKN080 22/20 A2991 RMK AO2 SLP126 T02170200 $,KNBG,2015-04-18T06:55:00Z,29.82,-90.02,21.7,20.0,0,0,,6.0,29.911417,1012.6,,TRUE,TRUE,TRUE,,,,,BR,BKN,8000,,,,,,,VFR,,,,,,,,,,,,SPECI,1.0
KGPI 180655Z VRB03KT 10SM CLR 04/00 A3004 RMK AO2 SLP177 T00390000 402001033,KGPI,2015-04-18T06:55:00Z,48.32,-114.25,3.9,0.0,0,3,,10.0,30.041338,1017.7,,,TRUE,,,,,,,CLR,,,,,,,,VFR,,,,20.0,-3.3,,,,,,,METAR,908.0
KBYS 180655Z AUTO 26010KT 10SM CLR 19/M10 A2999 RMK AO2 SLP126 T01911098 $,KBYS,2015-04-18T06:55:00Z,35.28,-116.62,19.1,-9.8,260,10,,10.0,29.991142,1012.6,,TRUE,TRUE,TRUE,,,,,,CLR,,,,,,,,VFR,,,,,,,,,,,,METAR,716.0
LIMS 180655Z 14004KT 9999 SCT050 14/14 Q1012 RMK SCT VIS MIN 9999 WIND THR30 10004KT BLU,LIMS,2015-04-18T06:55:00Z,44.92,9.72,14.0,14.0,140,4,,6.21,29.88189,,,,,,,,,,,SCT,5000,,,,,,,VFR,,0.4,,,,,,,,,,METAR,138.0
LIRS 180655Z 14002KT 5000 NSC 16/13 Q1014 RMK SKC VIS MIN 5000 WIND THR03 15002KT WIND THR21 15003KT WHT,LIRS,2015-04-18T06:55:00Z,42.75,11.07,16.0,13.0,140,2,,3.11,29.940945,,,,,,,,,,,,,,,,,,,,,,,,,,,,,,,SPECI,7.0
LIRM 180655Z 24007KT 5000 BR SCT020 SCT040 18/15 Q1015 RMK BKN VIS MIN 5000 WIND THR06 24007KT WHT,LIRM,2015-04-18T06:55:00Z,41.03,14.07,18.0,15.0,240,7,,3.11,29.970472,,,,,,,,,,BR,SCT,2000,SCT,4000,,,,,MVFR,,,,,,,,,,,,METAR,10.0
LIRL 180655Z 15005KT 9999 SCT025 BKN035 16/15 Q1014 RMK BKN MON LIB NC VIS MIN 9999 WIND THR30 15005KT BLU,LIRL,2015-04-18T06:55:00Z,41.53,12.9,16.0,15.0,150,5,,6.21,29.940945,,,,,,,,,,,SCT,2500,BKN,3500,,,,,VFR,,,,,,,,,,,,METAR,26.0
LIRH 180655Z 19002KT 9999 SCT020 13/09 Q1015 RMK SCT MON CIME INC NC VIS MIN 9999 WIND THR16 00000KT BLU,LIRH,2015-04-18T06:55:00Z,41.65,13.3,13.0,9.0,190,2,,6.21,29.970472,,,,,,,,,,,SCT,2000,,,,,,,VFR,,,,,,,,,,,,METAR,181.0
LIPF 180655Z 00000KT 3000 BR SCT025 SCT030 13/12 Q1013 RMK BKN VIS MIN 3000,LIPF,2015-04-18T06:55:00Z,44.82,11.62,13.0,12.0,0,0,,1.86,29.911417,,,,,,,,,,BR,SCT,2500,SCT,3000,,,,,IFR,,,,,,,,,,,,METAR,10.0
LIPC 180655Z 00000KT CAVOK 14/12 Q1013 RMK BKN BKN070 VIS MIN 9999 WIND THR11 29001KT BLU,LIPC,2015-04-18T06:55:00Z,44.22,12.3,14.0,12.0,0,0,,6.21,29.911417,,,,,,,,,,,CAVOK,,,,,,,,VFR,,,,,,,,,,,,METAR,10.0
OAHR 180655Z 03005KT 9999 FEW050 SCT120 19/12 Q1018 RMK BKN BKN160 VIS MIN 9999 BLU,OAHR,2015-04-18T06:55:00Z,34.22,62.22,19.0,12.0,30,5,,6.21,30.059055,,,,,,,,,,,FEW,5000,SCT,12000,,,,,VFR,,,,,,,,,,,,METAR,964.0
MMMX 180655Z 04002KT 6SM FEW090 16/08 A3029 NOSIG RMK 8/030 HZY FU,MMMX,2015-04-18T06:55:00Z,19.42,-99.08,16.0,8.0,40,2,,6.0,30.28937,,,,,,TRUE,,,,,FEW,9000,,,,,,,VFR,,,,,,,,,,,,METAR,2238.0
K9L2 180655Z AUTO 19003KT 10SM CLR 13/M08 A3002 RMK AO2 SLP158 T01331083 TSNO $,K9L2,2015-04-18T06:55:00Z,34.97,-117.87,13.3,-8.3,190,3,,10.0,30.02067,1015.8,,TRUE,TRUE,TRUE,,TRUE,,,,CLR,,,,,,,,VFR,,,,,,,,,,,,METAR,701.0
KAST 180655Z AUTO 33009KT 10SM CLR 10/07 A3033 RMK AO2 SLP270 T01000072,KAST,2015-04-18T06:55:00Z,46.15,-123.88,10.0,7.2,330,9,,10.0,30.33071,1027.0,,TRUE,TRUE,,,,,,,CLR,,,,,,,,VFR,,,,,,,,,,,,METAR,3.0
KANJ 180655Z AUTO 33005KT 10SM FEW110 03/M03 A2993 RMK AO2 SLP139 T00331028,KANJ,2015-04-18T06:55:00Z,46.47,-84.37,3.3,-2.8,330,5,,10.0,29.929134,1013.9,,TRUE,TRUE,,,,,,,FEW,11000,,,,,,,VFR,,,,,,,,,,,,METAR,218.0
KAAT 180655Z AUTO 03003KT 10SM CLR 12/M02 A3016 RMK AO2 SLP188 T01171022,KAAT,2015-04-18T06:55:00Z,41.48,-120.57,11.7,-2.2,30,3,,10.0,30.159449,1018.8,,TRUE,TRUE,,,,,,,CLR,,,,,,,,VFR,,,,,,,,,,,,METAR,1331.0
KCAO 180655Z AUTO 25006KT 10SM CLR 04/M09 A2996 RMK AO2 SLP120 T00441089 401830044,KCAO,2015-04-18T06:55:00Z,36.45,-103.15,4.4,-8.9,250,6,,10.0,29.958662,1012.0,,TRUE,TRUE,,,,,,,CLR,,,,,,,,VFR,,,,18.3,4.4,,,,,,,METAR,1514.0
KCNK 180655Z AUTO 14005KT 10SM FEW070 14/13 A2995 RMK AO2 SLP133 T01390133,KCNK,2015-04-18T06:55:00Z,39.55,-97.65,13.9,13.3,140,5,,10.0,29.949802,1013.3,,TRUE,TRUE,,,,,,,FEW,7000,,,,,,,VFR,,,,,,,,,,,,METAR,447.0
KCMA 180655Z 29003KT 10SM CLR 13/06 A3002 RMK AO2 SLP172 T01330056,KCMA,2015-04-18T06:55:00Z,34.22,-119.1,13.3,5.6,290,3,,10.0,30.02067,1017.2,,,TRUE,,,,,,,CLR,,,,,,,,VFR,,,,,,,,,,,,METAR,23.0
KDLH 180655Z 04010KT 10SM CLR 09/M02 A3012 RMK AO2 SLP203 T00891017,KDLH,2015-04-18T06:55:00Z,46.85,-92.2,8.9,-1.7,40,10,,10.0,30.121063,1020.3,,,TRUE,,,,,,,CLR,,,,,,,,VFR,,,,,,,,,,,,METAR,435.0
KEAT 180655Z AUTO 31019G27KT 10SM CLR 15/M01 A3014 RMK AO2 PK WND 29029/0643 SLP205 T01501011,KEAT,2015-04-18T06:55:00Z,47.4,-120.2,15.0,-1.1,310,19,27,10.0,30.138779,1020.5,,TRUE,TRUE,,,,,,,CLR,,,,,,,,VFR,,,,,,,,,,,,METAR,377.0
KHON 180655Z AUTO 11004KT 10SM CLR 11/M02 A3005 RMK AO2 SLP173 T01061017,KHON,2015-04-18T06:55:00Z,44.38,-98.23,10.6,-1.7,110,4,,10.0,30.050198,1017.3,,TRUE,TRUE,,,,,,,CLR,,,,,,,,VFR,,,,,,,,,,,,METAR,390.0
KMKG 180655Z AUTO 00000KT 9SM BKN085 08/04 A3000 RMK AO2 SLP160 T00780044,KMKG,2015-04-18T06:55:00Z,43.17,-86.23,7.8,4.4,0,0,,9.0,30.0,1016.0,,TRUE,TRUE,,,,,,,BKN,8500,,,,,,,VFR,,,,,,,,,,,,METAR,191.0
KLXV 180655Z AUTO 00000KT 3SM -SN BR OVC031 M08/M10 A3004 RMK AO2 P0000 T10781100,KLXV,2015-04-18T06:55:00Z,39.23,-106.32,-7.8,-10.0,0,0,,3.0,30.041338,,,TRUE,TRUE,,,,,,-SN BR,OVC,3100,,,,,,,MVFR,,,,,,0.0050,,,,,,METAR,3028.0
KLLJ 180655Z AUTO 00000KT 10SM CLR 07/M04 A3010 RMK AO2 SLP165 T00671039 402111039,KLLJ,2015-04-18T06:55:00Z,44.52,-114.22,6.7,-3.9,0,0,,10.0,30.100393,1016.5,,TRUE,TRUE,,,,,,,CLR,,,,,,,,VFR,,,,21.1,-3.9,,,,,,,METAR,1536.0
KLIC 180655Z AUTO 35007KT 10SM CLR 02/01 A3000 RMK AO2 RAE07 SLP139 P0000 T00220006 401500022,KLIC,2015-04-18T06:55:00Z,39.27,-103.67,2.2,0.6,350,7,,10.0,30.0,1013.9,,TRUE,TRUE,,,,,,,CLR,,,,,,,,VFR,,,,15.0,2.2,0.0050,,,,,,METAR,1630.0
KIRK 180655Z AUTO 09004KT 10SM CLR 16/13 A3001 RMK AO2 SLP159 T01610128,KIRK,2015-04-18T06:55:00Z,40.1,-92.55,16.1,12.8,90,4,,10.0,30.008858,1015.9,,TRUE,TRUE,,,,,,,CLR,,,,,,,,VFR,,,,,,,,,,,,METAR,293.0
KINL 180655Z AUTO 00000KT 10SM CLR M01/M03 A3020 RMK AO2 SLP236 T10111033 $,KINL,2015-04-18T06:55:00Z,48.57,-93.4,-1.1,-3.3,0,0,,10.0,30.200787,1023.6,,TRUE,TRUE,TRUE,,,,,,CLR,,,,,,,,VFR,,,,,,,,,,,,METAR,360.0
MMZC 180655Z 00000KT 10SM SKC 11/01 A3026,MMZC,2015-04-18T06:55:00Z,22.9,-102.68,11.0,1.0,0,0,,10.0,30.259842,,,,,,,,,,,SKC,,,,,,,,VFR,,,,,,,,,,,,METAR,2177.0
KQWM 180655Z 34019G26KT 9000 HZ SCT150 27/M02 A3004 RMK SLP165 QNH1017,KQWM,2015-04-18T06:55:00Z,100.65,-1000.65,27.0,-2.0,340,19,26,5.59,30.041338,1016.5,,,,,,,,,HZ,SCT,15000,,,,,,,VFR,,,,,,,,,,,,METAR,999.0
KQTI 180655Z 35009G13KT 9999 FEW170 25/04 A3006 RMK AO2A SLP177 T02520038 PWINO $,KQTI,2015-04-18T06:55:00Z,,,25.2,3.8,350,9,13,6.21,30.059055,1017.7,,,TRUE,TRUE,,,,TRUE,,FEW,17000,,,,,,,VFR,,,,,,,,,,,,METAR,
KQSN 180655Z AUTO VRB03KT FEW120 19/M02 A3004 RMK AO2 SLP107 T01901018 PWINO $,KQSN,2015-04-18T06:55:00Z,100.65,-1000.65,19.0,-1.8,0,3,,,30.041338,1010.7,,TRUE,TRUE,TRUE,,,,TRUE,,FEW,12000,,,,,,,,,,,,,,,,,,,METAR,999.0
KQLP 180655Z AUTO 20009KT 19/13 Q1028 RMK AO2 SLP214 T01910131 PWINO PNO TSNO $,KQLP,2015-04-18T06:55:00Z,100.65,-1000.65,19.1,13.1,200,9,,,30.35433,1021.4,,TRUE,TRUE,TRUE,,TRUE,,TRUE,,,,,,,,,,,,,,,,,,,,,,METAR,999.0
KQHN 180655Z VRB06KT 9999 CLR 30/02 A2991 RMK SLP041 Q1013 DA5865,KQHN,2015-04-18T06:55:00Z,100.65,-1000.65,30.0,2.0,0,6,,6.21,29.911417,1004.1,,,,,,,,,,CLR,,,,,,,,VFR,,,,,,,,,,,,METAR,999.0
KUGN 180655Z AUTO 25004KT 7SM CLR 12/07 A3000 RMK AO2 SLP153 T01220072,KUGN,2015-04-18T06:55:00Z,42.42,-87.87,12.2,7.2,250,4,,7.0,30.0,1015.3,,TRUE,TRUE,,,,,,,CLR,,,,,,,,VFR,,,,,,,,,,,,METAR,222.0
KSCK 180655Z AUTO 26007KT 10SM CLR 18/00 A2999 RMK AO2 SLP156 T01780000,KSCK,2015-04-18T06:55:00Z,37.88,-121.22,17.8,0.0,260,7,,10.0,29.991142,1015.6,,TRUE,TRUE,,,,,,,CLR,,,,,,,,VFR,,,,,,,,,,,,METAR,10.0
KRNO 180655Z 26005KT 10SM CLR 12/M12 A3015 RMK AO2 SLP176 T01221117 $,KRNO,2015-04-18T06:55:00Z,39.5,-119.77,12.2,-11.7,260,5,,10.0,30.15059,1017.6,,,TRUE,TRUE,,,,,,CLR,,,,,,,,VFR,,,,,,,,,,,,METAR,1342.0
KPHP 180655Z AUTO 00000KT 10SM OVC065 11/08 A3006 RMK AO2 SLP170 T01060083 401940011,KPHP,2015-04-18T06:55:00Z,44.05,-101.6,10.6,8.3,0,0,,10.0,30.059055,1017.0,,TRUE,TRUE,,,,,,,OVC,6500,,,,,,,VFR,,,,19.4,1.1,,,,,,,METAR,672.0
OPNH 180655Z 13503KT 5000M HZ NSC 41/17 Q1004,OPNH,2015-04-18T06:55:00Z,26.22,68.37,41.0,17.0,135,3,,3.11,29.64567,,,,,,,,,,HZ,,,,,,,,,,,,,,,,,,,,,SPECI,38.0
PATL 180655Z AUTO 09009KT 10SM BKN090 03/M05 A2964 RMK AO2 SLP049 T00301055 $,PATL,2015-04-18T06:55:00Z,62.9,-155.97,3.0,-5.5,90,9,,10.0,29.639763,1004.9,,TRUE,TRUE,TRUE,,,,,,BKN,9000,,,,,,,VFR,,,,,,,,,,,,METAR,294.0
PASV 180655Z AUTO 05008KT 10SM OVC100 03/M09 A2943 RMK AO2 SLP984 T00271091,PASV,2015-04-18T06:55:00Z,61.1,-155.57,2.7,-9.1,50,8,,10.0,29.430119,998.4,,TRUE,TRUE,,,,,,,OVC,10000,,,,,,,VFR,,,,,,,,,,,,METAR,484.0
PALU 180655Z AUTO 12007KT 10SM -SHSN BKN010 M14/M16 A3000 RMK AO2 SHSNB0611 SLP157 P0000 T11411158,PALU,2015-04-18T06:55:00Z,68.88,-166.13,-14.1,-15.8,120,7,,10.0,30.0,1015.7,,TRUE,TRUE,,,,,,-SHSN,BKN,1000,,,,,,,MVFR,,,,,,0.0050,,,,,,METAR,3.0
PACZ 180655Z AUTO 05030KT 1/4SM SN FZFG BKN004 M10/M10 A2966 RMK AO2 PK WND 04036/0556 SNB0455 SLP057 P0000 T10961104 $,PACZ,2015-04-18T06:55:00Z,61.78,-166.03,-9.6,-10.4,50,30,,0.25,29.660433,1005.7,,TRUE,TRUE,TRUE,,,,,SN FZFG,BKN,400,,,,,,,LIFR,,,,,,0.0050,,,,,,METAR,146.0
KVPS 180655Z 21004KT 10SM BKN010 22/21 A2993 RMK AO2A SLP141 T02190211 $,KVPS,2015-04-18T06:55:00Z,30.47,-86.52,21.9,21.1,210,4,,10.0,29.929134,1014.1,,,TRUE,TRUE,,,,,,BKN,1000,,,,,,,MVFR,,,,,,,,,,,,METAR,26.0
KGXA 180655Z AUTO 20005KT 10SM CLR 14/M10 A3006 RMK AO2 SLP161 T01361096 TSNO $,KGXA,2015-04-18T06:55:00Z,34.57,-117.67,13.6,-9.6,200,5,,10.0,30.059055,1016.1,,TRUE,TRUE,TRUE,,TRUE,,,,CLR,,,,,,,,VFR,,,,,,,,,,,,METAR,923.0
KQBF 180655Z AUTO 05001KT 2 1/2SM HZ CLR 27/M06 A3010 RMK AO2 SLP172 T02671058 $,KQBF,2015-04-18T06:55:00Z,100.65,-1000.65,26.7,-5.8,50,1,,2.5,30.100393,1017.2,,TRUE,TRUE,TRUE,,,,,HZ,CLR,,,,,,,,IFR,,,,,,,,,,,,METAR,999.0
KQGV 180655Z 32025G34KT 9000 DU SCT120 28/M03 A3002 RMK SLPNO QNH1017 PA +381,KQGV,2015-04-18T06:55:00Z,100.65,-1000.65,28.0,-3.0,320,25,34,5.59,30.02067,,,,,,,,,,DU,SCT,12000,,,,,,,VFR,,,,,,,,,,,,METAR,999.0
OPMT 180655Z 00000KT 5000 HZ NSC 36/17 Q1003 NOSIG,OPMT,2015-04-18T06:55:00Z,30.18,71.42,36.0,17.0,0,0,,3.11,29.616142,,,,,,TRUE,,,,HZ,,,,,,,,,,,,,,,,,,,,,METAR,123.0
RJOI 180655Z 10005KT 9999 FEW120 SCT230 19/09 A3002 RMK SLP164 T01940094,RJOI,2015-04-18T06:55:00Z,34.13,132.22,19.4,9.4,100,5,,6.21,30.02067,1016.4,,,,,,,,,,FEW,12000,SCT,23000,,,,,VFR,,,,,,,,,,,,METAR,2.0
FJDG 180655Z 14007KT 9999 FEW020 BKN250 33/26 A2979 RMK SLP085 T03260267,FJDG,2015-04-18T06:55:00Z,-7.32,72.42,32.6,26.7,140,7,,6.21,29.790354,1008.5,,,,,,,,,,FEW,2000,BKN,25000,,,,,VFR,,,,,,,,,,,,METAR,3.0
MUHA 180655Z 04003KT 9000 NSC 24/20 Q1015,MUHA,2015-04-18T06:55:00Z,22.97,-82.42,24.0,20.0,40,3,,5.59,29.970472,,,,,,,,,,,,,,,,,,,,,,,,,,,,,,,METAR,64.0
LICT 180655Z 21003KT 9999 FEW002 15/13 Q1015 RMK SCT SCT200 VIS MIN 7000W WIND THR13 /////KT WHT,LICT,2015-04-18T06:55:00Z,37.92,12.5,15.0,13.0,210,3,,6.21,29.970472,,,,,,,,,,,FEW,200,,,,,,,VFR,,,,,,,,,,,,METAR,7.0
LICG 180655Z /////KT 0200 FG BKN003 14/14 Q1015,LICG,2015-04-18T06:55:00Z,36.82,11.97,14.0,14.0,,,,0.12,29.970472,,,,,,,,,,FG,BKN,300,,,,,,,LIFR,,,,,,,,,,,,METAR,191.0
PTKR 180654Z 08007KT 15SM SCT020 BKN350 31/24 A2981 RMK SLP096 T03110235,PTKR,2015-04-18T06:54:00Z,7.33,134.48,31.1,23.5,80,7,,15.0,29.811024,1009.6,,,,,,,,,,SCT,2000,BKN,35000,,,,,VFR,,,,,,,,,,,,METAR,30.0
PGUM 180654Z 06014KT 10SM SCT022 29/23 A2987 RMK AO2 SLP107 T02890228,PGUM,2015-04-18T06:54:00Z,13.48,144.8,28.9,22.8,60,14,,10.0,29.870079,1010.7,,,TRUE,,,,,,,SCT,2200,,,,,,,VFR,,,,,,,,,,,,METAR,91.0
KACY 180654Z 00000KT 10SM SCT060 OVC070 16/14 A2996 RMK AO2 SLP144 T01560139,KACY,2015-04-18T06:54:00Z,39.45,-74.57,15.6,13.9,0,0,,10.0,29.958662,1014.4,,,TRUE,,,,,,,SCT,6000,OVC,7000,,,,,VFR,,,,,,,,,,,,SPECI,23.0
K12N 180654Z AUTO 00000KT 09/08 A2998 RMK AO1 SLP152 T00890083,K12N,2015-04-18T06:54:00Z,41.02,-74.73,8.9,8.3,0,0,,,29.97933,1015.2,,TRUE,TRUE,,,,,,,,,,,,,,,,,,,,,,,,,,,METAR,177.0
KMTP 180654Z AUTO 29004KT 11/09 A2995 RMK AO1 SLP140 T01060089,KMTP,2015-04-18T06:54:00Z,41.07,-71.92,10.6,8.9,290,4,,,29.949802,1014.0,,TRUE,TRUE,,,,,,,,,,,,,,,,,,,,,,,,,,,METAR,2.0
KMQE 180654Z AUTO 30010KT 09/07 A2990 RMK AO1 SLP134 T00940067,KMQE,2015-04-18T06:54:00Z,42.22,-71.12,9.4,6.7,300,10,,,29.899607,1013.4,,TRUE,TRUE,,,,,,,,,,,,,,,,,,,,,,,,,,,METAR,199.0
KNKT 180654Z 34003KT 10SM BKN110 18/17 A2998 RMK AO2 SLP148 T01830167,KNKT,2015-04-18T06:54:00Z,34.9,-76.88,18.3,16.7,340,3,,10.0,29.97933,1014.8,,,TRUE,,,,,,,BKN,11000,,,,,,,VFR,,,,,,,,,,,,METAR,9.0
K1V4 180654Z AUTO 03/02 A2991 RMK AO1 SLP130 T00330017,K1V4,2015-04-18T06:54:00Z,44.42,-72.02,3.3,1.7,,,,,29.911417,1013.0,,TRUE,TRUE,,,,,,,,,,,,,,,,,,,,,,,,,,,METAR,210.0
KMOT 180654Z AUTO 13007KT 10SM CLR 04/M03 A3011 RMK AO2 SLP203 T00441028,KMOT,2015-04-18T06:54:00Z,48.25,-101.27,4.4,-2.8,130,7,,10.0,30.109253,1020.3,,TRUE,TRUE,,,,,,,CLR,,,,,,,,VFR,,,,,,,,,,,,METAR,519.0
KIMT 180654Z AUTO 35009KT 10SM CLR 09/01 A3003 RMK AO2 SLP171 T00940006 TSNO,KIMT,2015-04-18T06:54:00Z,45.82,-88.12,9.4,0.6,350,9,,10.0,30.029528,1017.1,,TRUE,TRUE,,,TRUE,,,,CLR,,,,,,,,VFR,,,,,,,,,,,,METAR,349.0
KPLN 180654Z AUTO 00000KT 10SM CLR 01/M02 A2995 RMK AO2 SLP144 T00111017,KPLN,2015-04-18T06:54:00Z,45.57,-84.8,1.1,-1.7,0,0,,10.0,29.949802,1014.4,,TRUE,TRUE,,,,,,,CLR,,,,,,,,VFR,,,,,,,,,,,,METAR,217.0
KAPN 180654Z AUTO 00000KT 10SM CLR 02/01 A2996 RMK AO2 SLP149 T00220011,KAPN,2015-04-18T06:54:00Z,45.07,-83.57,2.2,1.1,0,0,,10.0,29.958662,1014.9,,TRUE,TRUE,,,,,,,CLR,,,,,,,,VFR,,,,,,,,,,,,SPECI,210.0
KNFG 180654Z AUTO 00000KT 7SM CLR 12/00 A3004 RMK AO2 SLP170 T01220000 $,KNFG,2015-04-18T06:54:00Z,33.28,-117.33,12.2,0.0,0,0,,7.0,30.041338,1017.0,,TRUE,TRUE,TRUE,,,,,,CLR,,,,,,,,VFR,,,,,,,,,,,,SPECI,24.0
KNAK 180654Z AUTO 00000KT 5SM BR CLR 14/13 A2998 RMK AO2 SLP152 T01390133,KNAK,2015-04-18T06:54:00Z,38.98,-76.48,13.9,13.3,0,0,,5.0,29.97933,1015.2,,TRUE,TRUE,,,,,,BR,CLR,,,,,,,,MVFR,,,,,,,,,,,,METAR,2.0
KSBN 180654Z 22006KT 9SM CLR 13/07 A3003 RMK AO2 SLP168 T01280067,KSBN,2015-04-18T06:54:00Z,41.7,-86.32,12.8,6.7,220,6,,9.0,30.029528,1016.8,,,TRUE,,,,,,,CLR,,,,,,,,VFR,,,,,,,,,,,,METAR,237.0
KTAD 180654Z AUTO 11010KT 10SM FEW015 BKN046 OVC070 04/M02 A3001 RMK AO2 SLP132 T00441022 401440006,KTAD,2015-04-18T06:54:00Z,37.27,-104.33,4.4,-2.2,110,10,,10.0,30.008858,1013.2,,TRUE,TRUE,,,,,,,FEW,1500,BKN,4600,OVC,7000,,,VFR,,,,14.4,0.6,,,,,,,METAR,1756.0
KSYR 180654Z 24007KT 10SM CLR 09/07 A2996 RMK AO2 VIS 2 NW SLP143 T00890067,KSYR,2015-04-18T06:54:00Z,43.12,-76.1,8.9,6.7,240,7,,10.0,29.958662,1014.3,,,TRUE,,,,,,,CLR,,,,,,,,VFR,,,,,,,,,,,,SPECI,127.0
KSUS 180654Z AUTO 00000KT 7SM CLR 14/13 A3000 RMK AO2 SLP154 T01440133,KSUS,2015-04-18T06:54:00Z,38.65,-90.65,14.4,13.3,0,0,,7.0,30.0,1015.4,,TRUE,TRUE,,,,,,,CLR,,,,,,,,VFR,,,,,,,,,,,,METAR,141.0
KSJN 180654Z AUTO 22008KT 10SM CLR 05/M05 A3005 RMK AO2 SLP144 T00501050 401390000,KSJN,2015-04-18T06:54:00Z,34.52,-109.38,5.0,-5.0,220,8,,10.0,30.050198,1014.4,,TRUE,TRUE,,,,,,,CLR,,,,,,,,VFR,,,,13.9,,,,,,,,METAR,1745.0
KSET 180654Z AUTO 03003KT 6SM BR CLR 14/14 A3001 RMK AO2 SLP158 T01440139,KSET,2015-04-18T06:54:00Z,38.93,-90.43,14.4,13.9,30,3,,6.0,30.008858,1015.8,,TRUE,TRUE,,,,,,BR,CLR,,,,,,,,VFR,,,,,,,,,,,,METAR,134.0
PGSN 180654Z 07015KT 10SM FEW018 28/23 A2988 RMK AO2 SLP139 T02780228,PGSN,2015-04-18T06:54:00Z,15.12,145.72,27.8,22.8,70,15,,10.0,29.878937,1013.9,,,TRUE,,,,,,,FEW,1800,,,,,,,VFR,,,,,,,,,,,,METAR,65.0
PHOG 180654Z 05013G22KT 10SM FEW040 24/19 A3009 RMK AO2 SLP193 T02390189,PHOG,2015-04-18T06:54:00Z,20.9,-156.43,23.9,18.9,50,13,22,10.0,30.088583,1019.3,,,TRUE,,,,,,,FEW,4000,,,,,,,VFR,,,,,,,,,,,,METAR,12.0
KWAL 180654Z 01003KT 10SM OVC075 16/15 A2996 RMK AO2 SLP143 T01560150,KWAL,2015-04-18T06:54:00Z,37.93,-75.47,15.6,15.0,10,3,,10.0,29.958662,1014.3,,,TRUE,,,,,,,OVC,7500,,,,,,,VFR,,,,,,,,,,,,METAR,14.0
KVTA 180654Z AUTO 00000KT 10SM CLR 08/07 A3002 RMK AO2 SLP163 T00830067,KVTA,2015-04-18T06:54:00Z,40.02,-82.47,8.3,6.7,0,0,,10.0,30.02067,1016.3,,TRUE,TRUE,,,,,,,CLR,,,,,,,,VFR,,,,,,,,,,,,METAR,268.0
KVSF 180654Z AUTO 00000KT 10SM BKN080 04/03 A2993 RMK AO2 SLP136 T00440028 TSNO,KVSF,2015-04-18T06:54:00Z,43.35,-72.52,4.4,2.8,0,0,,10.0,29.929134,1013.6,,TRUE,TRUE,,,TRUE,,,,BKN,8000,,,,,,,VFR,,,,,,,,,,,,METAR,175.0
PAKN 180654Z 08015G24KT 10SM SCT028 BKN060 OVC070 04/00 A2918 RMK AO2 SLP883 T00440000,PAKN,2015-04-18T06:54:00Z,58.68,-156.65,4.4,0.0,80,15,24,10.0,29.179134,988.3,,,TRUE,,,,,,,SCT,2800,BKN,6000,OVC,7000,,,VFR,,,,,,,,,,,,METAR,17.0
PAHN 180654Z AUTO 10006KT 10SM FEW070 05/01 A3035 RMK AO2 SLP279 T00500011 TSNO,PAHN,2015-04-18T06:54:00Z,59.25,-135.52,5.0,1.1,100,6,,10.0,30.351377,1027.9,,TRUE,TRUE,,,TRUE,,,,FEW,7000,,,,,,,VFR,,,,,,,,,,,,METAR,5.0
KUIN 180654Z AUTO 18006KT 10SM CLR 18/12 A3001 RMK AO2 SLP157 T01780117,KUIN,2015-04-18T06:54:00Z,39.95,-91.2,17.8,11.7,180,6,,10.0,30.008858,1015.7,,TRUE,TRUE,,,,,,,CLR,,,,,,,,VFR,,,,,,,,,,,,METAR,234.0
KRST 180654Z AUTO 02005KT 10SM CLR 14/02 A3006 RMK AO2 SLP175 T01440022,KRST,2015-04-18T06:54:00Z,43.9,-92.5,14.4,2.2,20,5,,10.0,30.059055,1017.5,,TRUE,TRUE,,,,,,,CLR,,,,,,,,VFR,,,,,,,,,,,,METAR,403.0
KMVL 180654Z AUTO 03005KT 10SM BKN090 07/01 A2994 RMK AO2 SLP142 T00670011 TSNO,KMVL,2015-04-18T06:54:00Z,44.53,-72.62,6.7,1.1,30,5,,10.0,29.940945,1014.2,,TRUE,TRUE,,,TRUE,,,,BKN,9000,,,,,,,VFR,,,,,,,,,,,,METAR,234.0
KMKC 180654Z AUTO 06004KT 10SM CLR 18/14 A2994 RMK AO2 SLP134 T01830139,KMKC,2015-04-18T06:54:00Z,39.12,-94.6,18.3,13.9,60,4,,10.0,29.940945,1013.4,,TRUE,TRUE,,,,,,,CLR,,,,,,,,VFR,,,,,,,,,,,,METAR,227.0
KMGJ 180654Z AUTO 24006KT 10SM CLR 07/05 A2996 RMK AO2 SLP146 T00670050 TSNO $,KMGJ,2015-04-18T06:54:00Z,41.52,-74.27,6.7,5.0,240,6,,10.0,29.958662,1014.6,,TRUE,TRUE,TRUE,,TRUE,,,,CLR,,,,,,,,VFR,,,,,,,,,,,,METAR,108.0
KMFI 180654Z AUTO 35007KT 10SM CLR 12/01 A3003 RMK AO2 SLP167 T01170006,KMFI,2015-04-18T06:54:00Z,,,11.7,0.6,350,7,,10.0,30.029528,1016.7,,TRUE,TRUE,,,,,,,CLR,,,,,,,,VFR,,,,,,,,,,,,METAR,
KMEM 180654Z 00000KT 9SM OVC250 17/15 A2999 RMK AO2 SLP152 T01720150,KMEM,2015-04-18T06:54:00Z,35.07,-89.98,17.2,15.0,0,0,,9.0,29.991142,1015.2,,,TRUE,,,,,,,OVC,25000,,,,,,,VFR,,,,,,,,,,,,METAR,86.0
KLYH 180654Z AUTO 34003KT 10SM CLR 14/13 A3000 RMK AO2 SLP150 T01390133,KLYH,2015-04-18T06:54:00Z,37.32,-79.2,13.9,13.3,340,3,,10.0,30.0,1015.0,,TRUE,TRUE,,,,,,,CLR,,,,,,,,VFR,,,,,,,,,,,,METAR,295.0
KLWT 180654Z AUTO 13006KT 10SM CLR 06/M03 A2999 RMK AO2 SLP143 T00561028 401941017,KLWT,2015-04-18T06:54:00Z,47.03,-109.47,5.6,-2.8,130,6,,10.0,29.991142,1014.3,,TRUE,TRUE,,,,,,,CLR,,,,,,,,VFR,,,,19.4,-1.7,,,,,,,METAR,1270.0
KLWM 180654Z AUTO 21004KT 10SM CLR 08/06 A2992 RMK AO2 SLP132 T00830061,KLWM,2015-04-18T06:54:00Z,42.72,-71.13,8.3,6.1,210,4,,10.0,29.920275,1013.2,,TRUE,TRUE,,,,,,,CLR,,,,,,,,VFR,,,,,,,,,,,,METAR,54.0
KLEX 180654Z 35003KT 10SM CLR 12/12 A3005 RMK AO2 SLP173 T01220122,KLEX,2015-04-18T06:54:00Z,38.03,-84.6,12.2,12.2,350,3,,10.0,30.050198,1017.3,,,TRUE,,,,,,,CLR,,,,,,,,VFR,,,,,,,,,,,,METAR,300.0
KLBT 180654Z AUTO 00000KT 4SM -RA BR OVC110 18/18 A2997 RMK AO2 SLP149 P0003 T01830178,KLBT,2015-04-18T06:54:00Z,34.6,-79.07,18.3,17.8,0,0,,4.0,29.970472,1014.9,,TRUE,TRUE,,,,,,-RA BR,OVC,11000,,,,,,,MVFR,,,,,,0.03,,,,,,METAR,37.0
KROC 180654Z 23004KT 9SM CLR 07/06 A2998 RMK AO2 SLP157 T00720056,KROC,2015-04-18T06:54:00Z,43.12,-77.68,7.2,5.6,230,4,,9.0,29.97933,1015.7,,,TRUE,,,,,,,CLR,,,,,,,,VFR,,,,,,,,,,,,METAR,178.0
KROA 180654Z 26005KT 10SM CLR 15/13 A3002 RMK AO2 SLP155 T01500128,KROA,2015-04-18T06:54:00Z,37.32,-79.97,15.0,12.8,260,5,,10.0,30.02067,1015.5,,,TRUE,,,,,,,CLR,,,,,,,,VFR,,,,,,,,,,,,METAR,362.0
KRIC 180654Z 00000KT 7SM R34/6000VP6000FT MIFG SCT085 17/16 A2997 RMK AO2 SLP150 T01720161,KRIC,2015-04-18T06:54:00Z,37.52,-77.32,17.2,16.1,0,0,,7.0,29.970472,1015.0,,,TRUE,,,,,,MIFG,SCT,8500,,,,,,,VFR,,,,,,,,,,,,METAR,50.0
KRFD 180654Z 00000KT 10SM CLR 13/09 A3003 RMK AO2 SLP167 T01330089,KRFD,2015-04-18T06:54:00Z,42.2,-89.1,13.3,8.9,0,0,,10.0,30.029528,1016.7,,,TRUE,,,,,,,CLR,,,,,,,,VFR,,,,,,,,,,,,METAR,221.0
KRDG 180654Z AUTO 32004KT 10SM CLR 12/09 A2998 RMK AO2 SLP156 T01220094,KRDG,2015-04-18T06:54:00Z,40.37,-75.97,12.2,9.4,320,4,,10.0,29.97933,1015.6,,TRUE,TRUE,,,,,,,CLR,,,,,,,,VFR,,,,,,,,,,,,METAR,109.0
KRBL 180654Z AUTO 31006KT 10SM CLR 13/08 A3001 RMK AO2 SLP159 T01330078,KRBL,2015-04-18T06:54:00Z,40.15,-122.25,13.3,7.8,310,6,,10.0,30.008858,1015.9,,TRUE,TRUE,,,,,,,CLR,,,,,,,,VFR,,,,,,,,,,,,METAR,104.0
KPTW 180654Z AUTO 00000KT 10SM CLR 11/10 A2999 RMK AO2 SLP153 T01110100,KPTW,2015-04-18T06:54:00Z,40.23,-75.55,11.1,10.0,0,0,,10.0,29.991142,1015.3,,TRUE,TRUE,,,,,,,CLR,,,,,,,,VFR,,,,,,,,,,,,METAR,92.0
KPNE 180654Z 01004KT 10SM SCT065 15/11 A2998 RMK AO2 SLP153 T01500106,KPNE,2015-04-18T06:54:00Z,40.08,-75.02,15.0,10.6,10,4,,10.0,29.97933,1015.3,,,TRUE,,,,,,,SCT,6500,,,,,,,VFR,,,,,,,,,,,,METAR,28.0
KPIA 180654Z AUTO 00000KT 10SM SCT065 19/11 A3002 RMK AO2 SLP162 T01890111,KPIA,2015-04-18T06:54:00Z,40.67,-89.68,18.9,11.1,0,0,,10.0,30.02067,1016.2,,TRUE,TRUE,,,,,,,SCT,6500,,,,,,,VFR,,,,,,,,,,,,METAR,205.0
KPHF 180654Z 24003KT 10SM CLR 19/16 A2996 RMK AO2 SLP143 T01940161,KPHF,2015-04-18T06:54:00Z,37.13,-76.5,19.4,16.1,240,3,,10.0,29.958662,1014.3,,,TRUE,,,,,,,CLR,,,,,,,,VFR,,,,,,,,,,,,METAR,12.0
KORH 180654Z AUTO 29011KT 10SM CLR 10/06 A2992 RMK AO2 SLP136 T01000056,KORH,2015-04-18T06:54:00Z,42.27,-71.87,10.0,5.6,290,11,,10.0,29.920275,1013.6,,TRUE,TRUE,,,,,,,CLR,,,,,,,,VFR,,,,,,,,,,,,METAR,304.0
KOLS 180654Z AUTO 00000KT 10SM CLR 08/M07 A3008 RMK AO2 SLP148 T00831072 402220011,KOLS,2015-04-18T06:54:00Z,31.42,-110.85,8.3,-7.2,0,0,,10.0,30.079725,1014.8,,TRUE,TRUE,,,,,,,CLR,,,,,,,,VFR,,,,22.2,1.1,,,,,,,METAR,1184.0
KOLM 180654Z AUTO 36003KT 10SM CLR 08/06 A3031 RMK AO2 SLP264 T00830056,KOLM,2015-04-18T06:54:00Z,46.97,-122.9,8.3,5.6,360,3,,10.0,30.31004,1026.4,,TRUE,TRUE,,,,,,,CLR,,,,,,,,VFR,,,,,,,,,,,,METAR,58.0
KOFP 180654Z AUTO 00000KT 1/2SM FG SCT003 BKN110 16/15 A2998 RMK AO2 SLP150 T01560150 $,KOFP,2015-04-18T06:54:00Z,37.7,-77.43,15.6,15.0,0,0,,0.5,29.97933,1015.0,,TRUE,TRUE,TRUE,,,,,FG,SCT,300,BKN,11000,,,,,LIFR,,,,,,,,,,,,METAR,62.0
KDEC 180654Z AUTO 00000KT 10SM CLR 14/11 A3003 RMK AO2 SLP167 T01390106 TSNO,KDEC,2015-04-18T06:54:00Z,39.83,-88.85,13.9,10.6,0,0,,10.0,30.029528,1016.7,,TRUE,TRUE,,,TRUE,,,,CLR,,,,,,,,VFR,,,,,,,,,,,,METAR,207.0
KDDH 180654Z AUTO 15004KT 7SM CLR 04/04 A2994 RMK AO2 SLP142 T00440039,KDDH,2015-04-18T06:54:00Z,42.9,-73.25,4.4,3.9,150,4,,7.0,29.940945,1014.2,,TRUE,TRUE,,,,,,,CLR,,,,,,,,VFR,,,,,,,,,,,,METAR,244.0
KCRW 180654Z 00000KT 10SM CLR 14/12 A3000 RMK AO2 SLP154 T01390122,KCRW,2015-04-18T06:54:00Z,38.38,-81.58,13.9,12.2,0,0,,10.0,30.0,1015.4,,,TRUE,,,,,,,CLR,,,,,,,,VFR,,,,,,,,,,,,METAR,309.0
KCOU 180654Z AUTO 12006KT 10SM CLR 19/13 A2999 RMK AO2 SLP147 T01890133,KCOU,2015-04-18T06:54:00Z,38.82,-92.22,18.9,13.3,120,6,,10.0,29.991142,1014.7,,TRUE,TRUE,,,,,,,CLR,,,,,,,,VFR,,,,,,,,,,,,METAR,271.0
KCOS 180654Z 33012KT 10SM BKN040 BKN150 03/M01 A3001 RMK AO2 SLP156 T00281006 401110006,KCOS,2015-04-18T06:54:00Z,38.82,-104.68,2.8,-0.6,330,12,,10.0,30.008858,1015.6,,,TRUE,,,,,,,BKN,4000,BKN,15000,,,,,VFR,,,,11.1,0.6,,,,,,,METAR,1856.0
KCAR 180654Z AUTO 30006KT 10SM CLR 01/M04 A2989 RMK AO2 SLP127 T00111039,KCAR,2015-04-18T06:54:00Z,46.87,-68.02,1.1,-3.9,300,6,,10.0,29.890747,1012.7,,TRUE,TRUE,,,,,,,CLR,,,,,,,,VFR,,,,,,,,,,,,METAR,191.0
KBWI 180654Z 29003KT 10SM FEW060 SCT250 14/13 A2998 RMK AO2 SLP150 T01440128 $,KBWI,2015-04-18T06:54:00Z,39.17,-76.68,14.4,12.8,290,3,,10.0,29.97933,1015.0,,,TRUE,TRUE,,,,,,FEW,6000,SCT,25000,,,,,VFR,,,,,,,,,,,,METAR,59.0
KBUY 180654Z AUTO 23004KT 9SM CLR 17/16 A2997 RMK AO2 SLP145 T01670161,KBUY,2015-04-18T06:54:00Z,36.05,-79.47,16.7,16.1,230,4,,9.0,29.970472,1014.5,,TRUE,TRUE,,,,,,,CLR,,,,,,,,VFR,,,,,,,,,,,,METAR,180.0
KBUF 180654Z 22006KT 6SM BR CLR 08/06 A2999 RMK AO2 SLP158 T00780061,KBUF,2015-04-18T06:54:00Z,42.93,-78.73,7.8,6.1,220,6,,6.0,29.991142,1015.8,,,TRUE,,,,,,BR,CLR,,,,,,,,VFR,,,,,,,,,,,,METAR,211.0
KBTV 180654Z 33006KT 10SM CLR 08/01 A2993 RMK AO2 SLP136 T00830011,KBTV,2015-04-18T06:54:00Z,44.47,-73.15,8.3,1.1,330,6,,10.0,29.929134,1013.6,,,TRUE,,,,,,,CLR,,,,,,,,VFR,,,,,,,,,,,,METAR,105.0
KBOS 180654Z 29009KT 10SM CLR 12/07 A2991 RMK AO2 SLP128 T01220072,KBOS,2015-04-18T06:54:00Z,42.37,-71.02,12.2,7.2,290,9,,10.0,29.911417,1012.8,,,TRUE,,,,,,,CLR,,,,,,,,VFR,,,,,,,,,,,,METAR,6.0
KAVP 180654Z AUTO 11005KT 10SM CLR 10/07 A2999 RMK AO2 SLP154 T01000072,KAVP,2015-04-18T06:54:00Z,41.33,-75.72,10.0,7.2,110,5,,10.0,29.991142,1015.4,,TRUE,TRUE,,,,,,,CLR,,,,,,,,VFR,,,,,,,,,,,,METAR,291.0
KAUW 180654Z AUTO 32005KT 10SM CLR 11/02 A3002 RMK AO2 SLP167 T01060022,KAUW,2015-04-18T06:54:00Z,44.93,-89.62,10.6,2.2,320,5,,10.0,30.02067,1016.7,,TRUE,TRUE,,,,,,,CLR,,,,,,,,VFR,,,,,,,,,,,,METAR,362.0
KALO 180654Z 02004KT 10SM CLR 12/08 A3002 RMK AO2 SLP162 T01170078,KALO,2015-04-18T06:54:00Z,42.55,-92.4,11.7,7.8,20,4,,10.0,30.02067,1016.2,,,TRUE,,,,,,,CLR,,,,,,,,VFR,,,,,,,,,,,,METAR,264.0
KAKR 180654Z AUTO 00000KT 7SM CLR 09/06 A3001 RMK AO2 SLP161 T00890061,KAKR,2015-04-18T06:54:00Z,41.03,-81.47,8.9,6.1,0,0,,7.0,30.008858,1016.1,,TRUE,TRUE,,,,,,,CLR,,,,,,,,VFR,,,,,,,,,,,,METAR,363.0
KAAO 180654Z AUTO 10003KT 10SM VCTS BKN080 BKN090 16/14 A2993 RMK AO2 LTG DSNT S AND SW RAB23E33 SLP129 P0000 T01610139,KAAO,2015-04-18T06:54:00Z,37.75,-97.22,16.1,13.9,100,3,,10.0,29.929134,1012.9,,TRUE,TRUE,,,,,,VCTS,BKN,8000,BKN,9000,,,,,VFR,,,,,,0.0050,,,,,,METAR,434.0
KFZY 180654Z AUTO 00000KT 8SM CLR 06/04 A2997 RMK AO2 SLP149 T00610044,KFZY,2015-04-18T06:54:00Z,43.35,-76.38,6.1,4.4,0,0,,8.0,29.970472,1014.9,,TRUE,TRUE,,,,,,,CLR,,,,,,,,VFR,,,,,,,,,,,,METAR,138.0
KFWA 180654Z 26005KT 10SM BKN080 13/08 A3004 RMK AO2 SLP170 T01330078,KFWA,2015-04-18T06:54:00Z,40.98,-85.18,13.3,7.8,260,5,,10.0,30.041338,1017.0,,,TRUE,,,,,,,BKN,8000,,,,,,,VFR,,,,,,,,,,,,METAR,248.0
KEUG 180654Z AUTO 33006KT 10SM CLR 10/07 A3025 RMK AO2 SLP244 T01000072,KEUG,2015-04-18T06:54:00Z,44.13,-123.22,10.0,7.2,330,6,,10.0,30.250984,1024.4,,TRUE,TRUE,,,,,,,CLR,,,,,,,,VFR,,,,,,,,,,,,METAR,114.0
KECG 180654Z AUTO 00000KT 10SM BKN032 17/17 A2997 RMK AO2 SLP149 T01720167 TSNO,KECG,2015-04-18T06:54:00Z,36.27,-76.18,17.2,16.7,0,0,,10.0,29.970472,1014.9,,TRUE,TRUE,,,TRUE,,,,BKN,3200,,,,,,,VFR,,,,,,,,,,,,METAR,11.0
KDYL 180654Z AUTO 00000KT 10SM CLR 12/11 A2997 RMK AO2 SLP148 T01170106,KDYL,2015-04-18T06:54:00Z,40.33,-75.12,11.7,10.6,0,0,,10.0,29.970472,1014.8,,TRUE,TRUE,,,,,,,CLR,,,,,,,,VFR,,,,,,,,,,,,METAR,117.0
KDSV 180654Z AUTO 15004KT 10SM CLR 08/05 A3000 RMK AO2 SLP168 T00830050,KDSV,2015-04-18T06:54:00Z,42.57,-77.72,8.3,5.0,150,4,,10.0,30.0,1016.8,,TRUE,TRUE,,,,,,,CLR,,,,,,,,VFR,,,,,,,,,,,,METAR,198.0
KDSM 180654Z 24006KT 10SM -RA BKN060 OVC080 19/12 A3000 RMK AO2 RAB36 SLP153 OCNL LTGIC DSNT S CB DSNT S MOV N P0000 T01890122,KDSM,2015-04-18T06:54:00Z,41.53,-93.67,18.9,12.2,240,6,,10.0,30.0,1015.3,,,TRUE,,,,,,-RA,BKN,6000,OVC,8000,,,,,VFR,,,,,,0.0050,,,,,,METAR,295.0
KLAF 180654Z AUTO 00000KT 10SM CLR 11/08 A3004 RMK AO2 SLP169 T01060083 TSNO,KLAF,2015-04-18T06:54:00Z,40.42,-86.93,10.6,8.3,0,0,,10.0,30.041338,1016.9,,TRUE,TRUE,,,TRUE,,,,CLR,,,,,,,,VFR,,,,,,,,,,,,METAR,182.0
KJST 180654Z AUTO 20003KT 10SM CLR 10/06 A3004 RMK AO2 SLP171 T01000061,KJST,2015-04-18T06:54:00Z,40.32,-78.83,10.0,6.1,200,3,,10.0,30.041338,1017.1,,TRUE,TRUE,,,,,,,CLR,,,,,,,,VFR,,,,,,,,,,,,METAR,694.0
KJAN 180654Z AUTO 08006KT 10SM OVC006 19/17 A2995 RMK AO2 SLP139 T01890172,KJAN,2015-04-18T06:54:00Z,32.32,-90.08,18.9,17.2,80,6,,10.0,29.949802,1013.9,,TRUE,TRUE,,,,,,,OVC,600,,,,,,,IFR,,,,,,,,,,,,METAR,91.0
KIZG 180654Z AUTO 00000KT 10SM CLR 08/03 A2989 RMK AO2 SLP123 T00780028,KIZG,2015-04-18T06:54:00Z,43.98,-70.95,7.8,2.8,0,0,,10.0,29.890747,1012.3,,TRUE,TRUE,,,,,,,CLR,,,,,,,,VFR,,,,,,,,,,,,METAR,135.0
KISW 180654Z AUTO 24003KT 10SM CLR 09/03 A3004 RMK AO2 SLP171 T00940028,KISW,2015-04-18T06:54:00Z,44.37,-89.83,9.4,2.8,240,3,,10.0,30.041338,1017.1,,TRUE,TRUE,,,,,,,CLR,,,,,,,,VFR,,,,,,,,,,,,METAR,307.0
KIPT 180654Z AUTO 00000KT 10SM CLR 09/07 A3000 RMK AO2 SLP159 T00940072,KIPT,2015-04-18T06:54:00Z,41.25,-76.92,9.4,7.2,0,0,,10.0,30.0,1015.9,,TRUE,TRUE,,,,,,,CLR,,,,,,,,VFR,,,,,,,,,,,,METAR,164.0
KINT 180654Z AUTO 22003KT 9SM BKN070 17/16 A2999 RMK AO2 SLP147 T01670156,KINT,2015-04-18T06:54:00Z,36.13,-80.22,16.7,15.6,220,3,,9.0,29.991142,1014.7,,TRUE,TRUE,,,,,,,BKN,7000,,,,,,,VFR,,,,,,,,,,,,METAR,291.0
KIND 180654Z 00000KT 10SM CLR 14/08 A3004 RMK AO2 SLP168 T01390078,KIND,2015-04-18T06:54:00Z,39.72,-86.3,13.9,7.8,0,0,,10.0,30.041338,1016.8,,,TRUE,,,,,,,CLR,,,,,,,,VFR,,,,,,,,,,,,METAR,241.0
KILN 180654Z AUTO 00000KT 10SM CLR 11/07 A3004 RMK AO2 SLP172 T01110067,KILN,2015-04-18T06:54:00Z,39.43,-83.8,11.1,6.7,0,0,,10.0,30.041338,1017.2,,TRUE,TRUE,,,,,,,CLR,,,,,,,,VFR,,,,,,,,,,,,METAR,322.0
KHWD 180654Z AUTO 31004KT 9SM CLR 10/08 A3007 RMK AO2 SLP192 T01000083,KHWD,2015-04-18T06:54:00Z,37.67,-122.12,10.0,8.3,310,4,,9.0,30.070866,1019.2,,TRUE,TRUE,,,,,,,CLR,,,,,,,,VFR,,,,,,,,,,,,METAR,21.0
KGSO 180654Z 00000KT 7SM BKN150 OVC200 16/16 A2998 RMK AO2 SLP144 T01610156,KGSO,2015-04-18T06:54:00Z,36.1,-79.95,16.1,15.6,0,0,,7.0,29.97933,1014.4,,,TRUE,,,,,,,BKN,15000,OVC,20000,,,,,VFR,,,,,,,,,,,,METAR,275.0
KGCK 180654Z 00000KT 10SM CLR 07/06 A2993 RMK AO2 SLP123 T00720061,KGCK,2015-04-18T06:54:00Z,37.92,-100.72,7.2,6.1,0,0,,10.0,29.929134,1012.3,,,TRUE,,,,,,,CLR,,,,,,,,VFR,,,,,,,,,,,,METAR,877.0
KBFL 180654Z AUTO 05005KT 10SM CLR 17/M01 A3002 RMK AO2 SLP162 T01721006,KBFL,2015-04-18T06:54:00Z,35.43,-119.05,17.2,-0.6,50,5,,10.0,30.02067,1016.2,,TRUE,TRUE,,,,,,,CLR,,,,,,,,VFR,,,,,,,,,,,,METAR,151.0
KGCN 180654Z AUTO 00000KT 10SM CLR M03/M05 A3011 RMK AO2 SLP181 T10281050 401171061,KGCN,2015-04-18T06:54:00Z,35.95,-112.15,-2.8,-5.0,0,0,,10.0,30.109253,1018.1,,TRUE,TRUE,,,,,,,CLR,,,,,,,,VFR,,,,11.7,-6.1,,,,,,,METAR,2016.0
KTQE 180654Z AUTO 32005KT 10SM OVC090 17/09 A2998 RMK AO2 SLP141 T01670094,KTQE,2015-04-18T06:54:00Z,41.77,-96.18,16.7,9.4,320,5,,10.0,29.97933,1014.1,,TRUE,TRUE,,,,,,,OVC,9000,,,,,,,VFR,,,,,,,,,,,,SPECI,312.0
KLNK 180654Z AUTO 00000KT 10SM OVC055 17/13 A2997 RMK AO2 SLP141 T01720128,KLNK,2015-04-18T06:54:00Z,40.85,-96.77,17.2,12.8,0,0,,10.0,29.970472,1014.1,,TRUE,TRUE,,,,,,,OVC,5500,,,,,,,VFR,,,,,,,,,,,,METAR,364.0
KDMH 180654Z AUTO 18/12 A2998 RMK AO1 SLP151 T01780122,KDMH,2015-04-18T06:54:00Z,39.28,-76.62,17.8,12.2,,,,,29.97933,1015.1,,TRUE,TRUE,,,,,,,,,,,,,,,,,,,,,,,,,,,SPECI,5.0
KRSP 180654Z AUTO 10SM CLR 13/08 A3002 RMK AO2 SLP165 T01330078 $,KRSP,2015-04-18T06:54:00Z,39.65,-77.47,13.3,7.8,,,,10.0,30.02067,1016.5,,TRUE,TRUE,TRUE,,,,,,CLR,,,,,,,,VFR,,,,,,,,,,,,SPECI,561.0
KFNB 180653Z AUTO 08003KT 10SM CLR 16/13 A2995 RMK AO2 SLP136 T01560128,KFNB,2015-04-18T06:53:00Z,40.07,-95.58,15.6,12.8,80,3,,10.0,29.949802,1013.6,,TRUE,TRUE,,,,,,,CLR,,,,,,,,VFR,,,,,,,,,,,,METAR,300.0
KMHE 180653Z AUTO 04004KT 10SM CLR 13/M02 A3004 RMK AO2 SLP167 T01331022,KMHE,2015-04-18T06:53:00Z,43.77,-98.02,13.3,-2.2,40,4,,10.0,30.041338,1016.7,,TRUE,TRUE,,,,,,,CLR,,,,,,,,VFR,,,,,,,,,,,,METAR,397.0
KPNC 180653Z AUTO 13007KT 10SM SCT065 18/15 A2994 RMK AO2 SLP128 T01830150 TSNO,KPNC,2015-04-18T06:53:00Z,36.73,-97.1,18.3,15.0,130,7,,10.0,29.940945,1012.8,,TRUE,TRUE,,,TRUE,,,,SCT,6500,,,,,,,VFR,,,,,,,,,,,,METAR,308.0
KRHI 180653Z AUTO 02006KT 10SM CLR 11/M02 A3006 RMK AO2 SLP180 T01061022,KRHI,2015-04-18T06:53:00Z,45.63,-89.48,10.6,-2.2,20,6,,10.0,30.059055,1018.0,,TRUE,TRUE,,,,,,,CLR,,,,,,,,VFR,,,,,,,,,,,,METAR,485.0
KNUI 180653Z AUTO 00000KT 7SM CLR 15/14 A2995 RMK AO2 SLP142 T01500139,KNUI,2015-04-18T06:53:00Z,38.15,-76.43,15.0,13.9,0,0,,7.0,29.949802,1014.2,,TRUE,TRUE,,,,,,,CLR,,,,,,,,VFR,,,,,,,,,,,,METAR,7.0
KMWT 180653Z AUTO 00000KT 10SM CLR 18/16 A2996 RMK AO2 SLP138 T01780161,KMWT,2015-04-18T06:53:00Z,34.55,-93.58,17.8,16.1,0,0,,10.0,29.958662,1013.8,,TRUE,TRUE,,,,,,,CLR,,,,,,,,VFR,,,,,,,,,,,,METAR,214.0
KP92 180653Z AUTO VRB03KT 22/21 A2992 RMK AO1 SLP130 P0063 T02170211,KP92,2015-04-18T06:53:00Z,29.57,-91.53,21.7,21.1,0,3,,,29.920275,1013.0,,TRUE,TRUE,,,,,,,,,,,,,,,,,,,,,0.63,,,,,,METAR,1.0
KOQT 180653Z AUTO 00000KT 9SM FEW100 16/14 A3003 RMK AO2 SLP160 T01560144,KOQT,2015-04-18T06:53:00Z,36.02,-84.23,15.6,14.4,0,0,,9.0,30.029528,1016.0,,TRUE,TRUE,,,,,,,FEW,10000,,,,,,,VFR,,,,,,,,,,,,METAR,277.0
KCTY 180653Z AUTO A2996 RMK AO1 SLP146 PNO $,KCTY,2015-04-18T06:53:00Z,29.63,-83.1,,,,,,,29.958662,1014.6,,TRUE,TRUE,TRUE,,,,,,,,,,,,,,,,,,,,,,,,,,METAR,13.0
KHEY 180653Z AUTO 34003KT OVC001 15/15 A2989 RMK AO2 SLP010 T01500150 $,KHEY,2015-04-18T06:53:00Z,31.35,-85.65,15.0,15.0,340,3,,,29.890747,1001.0,,TRUE,TRUE,TRUE,,,,,,OVC,100,,,,,,,,,,,,,,,,,,,METAR,97.0
KTCS 180653Z AUTO 31008KT 10SM CLR 09/M09 A3004 RMK AO2 SLP126 T00941089 401890017 TSNO,KTCS,2015-04-18T06:53:00Z,33.23,-107.27,9.4,-8.9,310,8,,10.0,30.041338,1012.6,,TRUE,TRUE,,,TRUE,,,,CLR,,,,,,,,VFR,,,,18.9,1.7,,,,,,,SPECI,1469.0
KNIP 180653Z 21003KT 7SM BKN007 OVC130 22/19 A2997 RMK AO2 SLP144 T02220194,KNIP,2015-04-18T06:53:00Z,30.22,-81.67,22.2,19.4,210,3,,7.0,29.970472,1014.4,,,TRUE,,,,,,,BKN,700,OVC,13000,,,,,IFR,,,,,,,,,,,,METAR,7.0
KP68 180653Z AUTO 16004KT 02/M09 A3016 RMK AO1 SLP178 T00171089,KP68,2015-04-18T06:53:00Z,39.6,-116.0,1.7,-8.9,160,4,,,30.159449,1017.8,,TRUE,TRUE,,,,,,,,,,,,,,,,,,,,,,,,,,,METAR,1809.0
KDUJ 180653Z AUTO 00000KT 10SM CLR 11/07 A3002 RMK AO2 SLP165 T01060067,KDUJ,2015-04-18T06:53:00Z,41.17,-78.9,10.6,6.7,0,0,,10.0,30.02067,1016.5,,TRUE,TRUE,,,,,,,CLR,,,,,,,,VFR,,,,,,,,,,,,METAR,554.0
KDTW 180653Z 00000KT 10SM CLR 11/07 A3000 RMK AO2 SLP157 T01110067,KDTW,2015-04-18T06:53:00Z,42.23,-83.33,11.1,6.7,0,0,,10.0,30.0,1015.7,,,TRUE,,,,,,,CLR,,,,,,,,VFR,,,,,,,,,,,,METAR,195.0
PAOM 180653Z 00000KT 10SM FEW032 FEW046 SCT065 SCT150 BKN180 M11/M14 A2982,PAOM,2015-04-18T06:53:00Z,64.5,-165.43,-11.0,-14.0,0,0,,10.0,29.819881,,,,,,,,,,,FEW,3200,FEW,4600,SCT,6500,SCT,15000,VFR,,,,,,,,,,,,METAR,11.0
KDVT 180653Z 09006KT 10SM CLR 19/M06 A2995 RMK AO2 SLP124 T01891056 402610111,KDVT,2015-04-18T06:53:00Z,33.68,-112.07,18.9,-5.6,90,6,,10.0,29.949802,1012.4,,,TRUE,,,,,,,CLR,,,,,,,,VFR,,,,26.1,11.1,,,,,,,METAR,443.0
KDWH 180653Z 00000KT 10SM -RA OVC009 21/19 A2990 RMK AO2 RAB11 SLP121 P0002 T02060194,KDWH,2015-04-18T06:53:00Z,30.07,-95.55,20.6,19.4,0,0,,10.0,29.899607,1012.1,,,TRUE,,,,,,-RA,OVC,900,,,,,,,IFR,,,,,,0.02,,,,,,METAR,46.0
KDXR 180653Z AUTO 00000KT 3SM BR CLR 07/04 A2998 RMK AO2 SLP150 T00670044 PWINO,KDXR,2015-04-18T06:53:00Z,41.37,-73.48,6.7,4.4,0,0,,3.0,29.97933,1015.0,,TRUE,TRUE,,,,,TRUE,BR,CLR,,,,,,,,MVFR,,,,,,,,,,,,METAR,139.0
KEMP 180653Z AUTO 18003KT 10SM CLR 16/14 A2995 RMK AO2 SLP138 T01560144,KEMP,2015-04-18T06:53:00Z,38.33,-96.2,15.6,14.4,180,3,,10.0,29.949802,1013.8,,TRUE,TRUE,,,,,,,CLR,,,,,,,,VFR,,,,,,,,,,,,METAR,367.0
KELN 180653Z AUTO 30023G30KT 10SM CLR 12/M01 A3017 RMK AO2 PK WND 31031/0642 SLP214 T01221011,KELN,2015-04-18T06:53:00Z,47.03,-120.53,12.2,-1.1,300,23,30,10.0,30.171259,1021.4,,TRUE,TRUE,,,,,,,CLR,,,,,,,,VFR,,,,,,,,,,,,METAR,519.0
KELM 180653Z AUTO 23006KT 10SM CLR 06/05 A3000 RMK AO2 SLP159 T00610050,KELM,2015-04-18T06:53:00Z,42.15,-76.9,6.1,5.0,230,6,,10.0,30.0,1015.9,,TRUE,TRUE,,,,,,,CLR,,,,,,,,VFR,,,,,,,,,,,,METAR,302.0
KELD 180653Z AUTO 06003KT 10SM CLR 19/17 A2995 RMK AO2 SLP140 T01890167,KELD,2015-04-18T06:53:00Z,33.22,-92.82,18.9,16.7,60,3,,10.0,29.949802,1014.0,,TRUE,TRUE,,,,,,,CLR,,,,,,,,VFR,,,,,,,,,,,,METAR,81.0
KPBF 180653Z AUTO 05004KT 10SM CLR 18/17 A2998 RMK AO2 SLP149 T01830167,KPBF,2015-04-18T06:53:00Z,34.18,-91.93,18.3,16.7,50,4,,10.0,29.97933,1014.9,,TRUE,TRUE,,,,,,,CLR,,,,,,,,VFR,,,,,,,,,,,,METAR,62.0
KPMD 180653Z AUTO 22009KT 10SM CLR 14/M07 A3007 RMK AO2 SLP162 T01441072,KPMD,2015-04-18T06:53:00Z,34.63,-118.08,14.4,-7.2,220,9,,10.0,30.070866,1016.2,,TRUE,TRUE,,,,,,,CLR,,,,,,,,VFR,,,,,,,,,,,,METAR,780.0
KESF 180653Z AUTO 00000KT 10SM RA FEW060 SCT085 OVC110 20/19 A2996 RMK AO2 LTG DSNT SE-SW RAB11 SLP142 P0004 T02000194,KESF,2015-04-18T06:53:00Z,31.4,-92.28,20.0,19.4,0,0,,10.0,29.958662,1014.2,,TRUE,TRUE,,,,,,RA,FEW,6000,SCT,8500,OVC,11000,,,VFR,,,,,,0.04,,,,,,METAR,28.0
KEVW 180653Z AUTO 09003KT 10SM CLR 02/M02 A3012 RMK AO2 SLP178 T00171017 400721017,KEVW,2015-04-18T06:53:00Z,41.27,-111.03,1.7,-1.7,90,3,,10.0,30.121063,1017.8,,TRUE,TRUE,,,,,,,CLR,,,,,,,,VFR,,,,7.2,-1.7,,,,,,,METAR,2177.0
KEYE 180653Z AUTO 00000KT 10SM CLR 13/10 A3004 RMK AO2 SLP170 T01330100,KEYE,2015-04-18T06:53:00Z,39.83,-86.3,13.3,10.0,0,0,,10.0,30.041338,1017.0,,TRUE,TRUE,,,,,,,CLR,,,,,,,,VFR,,,,,,,,,,,,METAR,248.0
KEYW 180653Z AUTO 14008KT 10SM FEW017 26/23 A2999 RMK AO2 SLP153 T02610228,KEYW,2015-04-18T06:53:00Z,24.55,-81.75,26.1,22.8,140,8,,10.0,29.991142,1015.3,,TRUE,TRUE,,,,,,,FEW,1700,,,,,,,VFR,,,,,,,,,,,,METAR,5.0
KFAR 180653Z AUTO 04007KT 10SM CLR 08/M05 A3012 RMK AO2 SLP200 T00831050 TSNO,KFAR,2015-04-18T06:53:00Z,46.93,-96.82,8.3,-5.0,40,7,,10.0,30.121063,1020.0,,TRUE,TRUE,,,TRUE,,,,CLR,,,,,,,,VFR,,,,,,,,,,,,METAR,277.0
KFAY 180653Z AUTO 00000KT 9SM CLR 19/18 A2997 RMK AO2 SLP143 T01890178,KFAY,2015-04-18T06:53:00Z,34.98,-78.88,18.9,17.8,0,0,,9.0,29.970472,1014.3,,TRUE,TRUE,,,,,,,CLR,,,,,,,,VFR,,,,,,,,,,,,METAR,55.0
KFCM 180653Z AUTO 19004KT 10SM CLR 12/M01 A3005 RMK AO2 SLP173 T01171006,KFCM,2015-04-18T06:53:00Z,44.83,-93.47,11.7,-0.6,190,4,,10.0,30.050198,1017.3,,TRUE,TRUE,,,,,,,CLR,,,,,,,,VFR,,,,,,,,,,,,METAR,280.0
KFDR 180653Z AUTO 13004KT 10SM CLR 13/12 A2993 RMK AO2 SLP126 T01330122,KFDR,2015-04-18T06:53:00Z,34.35,-98.98,13.3,12.2,130,4,,10.0,29.929134,1012.6,,TRUE,TRUE,,,,,,,CLR,,,,,,,,VFR,,,,,,,,,,,,METAR,386.0
KFDY 180653Z AUTO 22004KT 10SM CLR 13/05 A3001 RMK AO2 SLP157 T01280050,KFDY,2015-04-18T06:53:00Z,41.02,-83.67,12.8,5.0,220,4,,10.0,30.008858,1015.7,,TRUE,TRUE,,,,,,,CLR,,,,,,,,VFR,,,,,,,,,,,,METAR,247.0
KFHR 180653Z AUTO 00000KT 10SM CLR 07/05 A3033 RMK AO2 SLP272 T00670050,KFHR,2015-04-18T06:53:00Z,48.52,-123.03,6.7,5.0,0,0,,10.0,30.33071,1027.2,,TRUE,TRUE,,,,,,,CLR,,,,,,,,VFR,,,,,,,,,,,,METAR,32.0
KFLD 180653Z AUTO 00000KT 10SM CLR 11/06 A3000 RMK AO2 SLP159 T01110056,KFLD,2015-04-18T06:53:00Z,43.77,-88.48,11.1,5.6,0,0,,10.0,30.0,1015.9,,TRUE,TRUE,,,,,,,CLR,,,,,,,,VFR,,,,,,,,,,,,METAR,240.0
KABR 180653Z AUTO 05006KT 10SM CLR 09/M02 A3008 RMK AO2 SLP185 T00941022,KABR,2015-04-18T06:53:00Z,45.45,-98.42,9.4,-2.2,50,6,,10.0,30.079725,1018.5,,TRUE,TRUE,,,,,,,CLR,,,,,,,,VFR,,,,,,,,,,,,METAR,397.0
KADG 180653Z AUTO 00000KT 10SM CLR 11/07 A3002 RMK AO2 SLP164 T01060067 TSNO,KADG,2015-04-18T06:53:00Z,41.87,-84.08,10.6,6.7,0,0,,10.0,30.02067,1016.4,,TRUE,TRUE,,,TRUE,,,,CLR,,,,,,,,VFR,,,,,,,,,,,,METAR,241.0
KAFW 180653Z 06003KT 10SM BKN095 OVC120 17/16 A2993 RMK AO2 RAE05 PRESFR SLP130 P0000 T01670161,KAFW,2015-04-18T06:53:00Z,32.97,-97.32,16.7,16.1,60,3,,10.0,29.929134,1013.0,,,TRUE,,,,,,,BKN,9500,OVC,12000,,,,,VFR,,,,,,0.0050,,,,,,METAR,233.0
KAGC 180653Z AUTO 17006KT 7SM CLR 12/07 A3002 RMK AO2 SLP167 T01220072 TSNO,KAGC,2015-04-18T06:53:00Z,40.35,-79.92,12.2,7.2,170,6,,7.0,30.02067,1016.7,,TRUE,TRUE,,,TRUE,,,,CLR,,,,,,,,VFR,,,,,,,,,,,,METAR,389.0
KAKO 180653Z AUTO 35012KT 10SM OVC004 05/05 A3001 RMK AO2 SLP154 T00500050 401330050,KAKO,2015-04-18T06:53:00Z,40.17,-103.22,5.0,5.0,350,12,,10.0,30.008858,1015.4,,TRUE,TRUE,,,,,,,OVC,400,,,,,,,LIFR,,,,13.3,5.0,,,,,,,METAR,1421.0
KALW 180653Z AUTO 10004KT 10SM CLR 12/04 A3013 RMK AO2 SLP204 T01220039,KALW,2015-04-18T06:53:00Z,46.1,-118.28,12.2,3.9,100,4,,10.0,30.129921,1020.4,,TRUE,TRUE,,,,,,,CLR,,,,,,,,VFR,,,,,,,,,,,,METAR,363.0
KAMG 180653Z AUTO 11003KT 5SM BR BKN055 OVC080 20/19 A2996 RMK AO2 SLP143 T02000194,KAMG,2015-04-18T06:53:00Z,31.53,-82.5,20.0,19.4,110,3,,5.0,29.958662,1014.3,,TRUE,TRUE,,,,,,BR,BKN,5500,OVC,8000,,,,,MVFR,,,,,,,,,,,,METAR,59.0
KAMW 180653Z AUTO 00000KT 9SM CLR 14/09 A3000 RMK AO2 SLP152 T01440094,KAMW,2015-04-18T06:53:00Z,41.98,-93.62,14.4,9.4,0,0,,9.0,30.0,1015.2,,TRUE,TRUE,,,,,,,CLR,,,,,,,,VFR,,,,,,,,,,,,METAR,279.0
KANB 180653Z AUTO 05003KT 5SM BR OVC012 17/16 A2998 RMK AO2 SLP148 T01720161,KANB,2015-04-18T06:53:00Z,33.58,-85.85,17.2,16.1,50,3,,5.0,29.97933,1014.8,,TRUE,TRUE,,,,,,BR,OVC,1200,,,,,,,MVFR,,,,,,,,,,,,METAR,183.0
KAOH 180653Z AUTO 22005KT 10SM CLR 13/05 A3003 RMK AO2 SLP167 T01330050,KAOH,2015-04-18T06:53:00Z,40.7,-84.02,13.3,5.0,220,5,,10.0,30.029528,1016.7,,TRUE,TRUE,,,,,,,CLR,,,,,,,,VFR,,,,,,,,,,,,METAR,296.0
KAOO 180653Z AUTO 00000KT 10SM CLR 11/07 A3003 RMK AO2 SLP168 T01060072,KAOO,2015-04-18T06:53:00Z,40.3,-78.32,10.6,7.2,0,0,,10.0,30.029528,1016.8,,TRUE,TRUE,,,,,,,CLR,,,,,,,,VFR,,,,,,,,,,,,METAR,455.0
KAPF 180653Z AUTO 00000KT 10SM CLR 24/22 A2997 RMK AO2 SLP147 T02390222,KAPF,2015-04-18T06:53:00Z,26.15,-81.77,23.9,22.2,0,0,,10.0,29.970472,1014.7,,TRUE,TRUE,,,,,,,CLR,,,,,,,,VFR,,,,,,,,,,,,METAR,3.0
KARB 180653Z AUTO 00000KT 10SM CLR 09/06 A3000 RMK AO2 SLP157 T00890061,KARB,2015-04-18T06:53:00Z,42.22,-83.73,8.9,6.1,0,0,,10.0,30.0,1015.7,,TRUE,TRUE,,,,,,,CLR,,,,,,,,VFR,,,,,,,,,,,,METAR,251.0
KASD 180653Z AUTO 21003KT 10SM CLR 22/22 A2992 RMK AO2 SLP132 T02220222,KASD,2015-04-18T06:53:00Z,30.35,-89.82,22.2,22.2,210,3,,10.0,29.920275,1013.2,,TRUE,TRUE,,,,,,,CLR,,,,,,,,VFR,,,,,,,,,,,,METAR,9.0
KASE 180653Z AUTO VRB06KT 10SM CLR M05/M08 A3003 RMK AO2 SLP158 T10501083 400171056,KASE,2015-04-18T06:53:00Z,39.23,-106.87,-5.0,-8.3,0,6,,10.0,30.029528,1015.8,,TRUE,TRUE,,,,,,,CLR,,,,,,,,VFR,,,,1.7,-5.6,,,,,,,METAR,2354.0
KASX 180653Z AUTO 06009KT 10SM CLR 08/00 A3014 RMK AO2 SLP209 T00830000,KASX,2015-04-18T06:53:00Z,46.55,-90.92,8.3,0.0,60,9,,10.0,30.138779,1020.9,,TRUE,TRUE,,,,,,,CLR,,,,,,,,VFR,,,,,,,,,,,,METAR,251.0
KATY 180653Z AUTO 01003KT 10SM CLR 04/M03 A3007 RMK AO2 SLP185 T00391033,KATY,2015-04-18T06:53:00Z,44.9,-97.15,3.9,-3.3,10,3,,10.0,30.070866,1018.5,,TRUE,TRUE,,,,,,,CLR,,,,,,,,VFR,,,,,,,,,,,,METAR,532.0
KAUG 180653Z AUTO 35005KT 10SM CLR 08/01 A2989 RMK AO2 SLP123 T00780011,KAUG,2015-04-18T06:53:00Z,44.32,-69.8,7.8,1.1,350,5,,10.0,29.890747,1012.3,,TRUE,TRUE,,,,,,,CLR,,,,,,,,VFR,,,,,,,,,,,,METAR,109.0
KAUS 180653Z 32006KT 10SM FEW014 SCT039 SCT150 18/18 A2989 RMK AO2 SLP116 T01780178,KAUS,2015-04-18T06:53:00Z,30.18,-97.68,17.8,17.8,320,6,,10.0,29.890747,1011.6,,,TRUE,,,,,,,FEW,1400,SCT,3900,SCT,15000,,,VFR,,,,,,,,,,,,METAR,166.0
KEPH 180653Z AUTO 30010KT 10SM CLR 14/M02 A3012 RMK AO2 SLP197 T01441017,KEPH,2015-04-18T06:53:00Z,47.3,-119.52,14.4,-1.7,300,10,,10.0,30.121063,1019.7,,TRUE,TRUE,,,,,,,CLR,,,,,,,,VFR,,,,,,,,,,,,METAR,383.0
KENW 180653Z AUTO 26004KT 5SM HZ CLR 10/07 A3000 RMK AO2 SLP158 T01000067,KENW,2015-04-18T06:53:00Z,42.6,-87.93,10.0,6.7,260,4,,5.0,30.0,1015.8,,TRUE,TRUE,,,,,,HZ,CLR,,,,,,,,MVFR,,,,,,,,,,,,METAR,219.0
KAWM 180653Z AUTO 00000KT 8SM CLR 16/16 A2998 RMK AO2 SLP148 T01610161,KAWM,2015-04-18T06:53:00Z,35.13,-90.23,16.1,16.1,0,0,,8.0,29.97933,1014.8,,TRUE,TRUE,,,,,,,CLR,,,,,,,,VFR,,,,,,,,,,,,METAR,65.0
KCRS 180653Z AUTO 31006KT 10SM CLR 19/17 A2993 RMK AO2 RAE0554 SLP131 P0000 T01890172,KCRS,2015-04-18T06:53:00Z,32.03,-96.4,18.9,17.2,310,6,,10.0,29.929134,1013.1,,TRUE,TRUE,,,,,,,CLR,,,,,,,,VFR,,,,,,0.0050,,,,,,METAR,133.0
KCSM 180653Z AUTO 20007KT 10SM CLR 13/12 A2997 RMK AO2 SLP136 T01330122,KCSM,2015-04-18T06:53:00Z,35.35,-99.2,13.3,12.2,200,7,,10.0,29.970472,1013.6,,TRUE,TRUE,,,,,,,CLR,,,,,,,,VFR,,,,,,,,,,,,METAR,588.0
KCSV 180653Z AUTO 00000KT 6SM BR FEW027 14/12 A3005 RMK AO2 SLP162 T01390122,KCSV,2015-04-18T06:53:00Z,35.95,-85.08,13.9,12.2,0,0,,6.0,30.050198,1016.2,,TRUE,TRUE,,,,,,BR,FEW,2700,,,,,,,VFR,,,,,,,,,,,,METAR,570.0
KCXO 180653Z AUTO 00000KT 8SM FEW017 BKN060 OVC095 20/19 A2991 RMK AO2 RAB29E48 SLP126 P0001 T02000189,KCXO,2015-04-18T06:53:00Z,30.35,-95.42,20.0,18.9,0,0,,8.0,29.911417,1012.6,,TRUE,TRUE,,,,,,,FEW,1700,BKN,6000,OVC,9500,,,VFR,,,,,,0.01,,,,,,METAR,75.0
KDAB 180653Z 00000KT 6SM BR OVC120 21/21 A2997 RMK AO2 SLP148 T02060206,KDAB,2015-04-18T06:53:00Z,29.18,-81.07,20.6,20.6,0,0,,6.0,29.970472,1014.8,,,TRUE,,,,,,BR,OVC,12000,,,,,,,VFR,,,,,,,,,,,,SPECI,9.0
KDAL 180653Z 00000KT 10SM BKN085 OVC160 18/17 A2994 RMK AO2 SLP135 T01780167,KDAL,2015-04-18T06:53:00Z,32.85,-96.85,17.8,16.7,0,0,,10.0,29.940945,1013.5,,,TRUE,,,,,,,BKN,8500,OVC,16000,,,,,VFR,,,,,,,,,,,,METAR,158.0
KLAN 180653Z 00000KT 10SM CLR 11/06 A3000 RMK AO2 SLP159 T01060056,KLAN,2015-04-18T06:53:00Z,42.78,-84.58,10.6,5.6,0,0,,10.0,30.0,1015.9,,,TRUE,,,,,,,CLR,,,,,,,,VFR,,,,,,,,,,,,METAR,264.0
KDAN 180653Z AUTO 23003KT 10SM OVC100 16/15 A2997 RMK AO2 SLP141 T01610150,KDAN,2015-04-18T06:53:00Z,36.57,-79.33,16.1,15.0,230,3,,10.0,29.970472,1014.1,,TRUE,TRUE,,,,,,,OVC,10000,,,,,,,VFR,,,,,,,,,,,,METAR,175.0
KDBQ 180653Z AUTO 00000KT 10SM CLR 14/08 A3002 RMK AO2 SLP163 T01390078,KDBQ,2015-04-18T06:53:00Z,42.4,-90.7,13.9,7.8,0,0,,10.0,30.02067,1016.3,,TRUE,TRUE,,,,,,,CLR,,,,,,,,VFR,,,,,,,,,,,,METAR,326.0
KDEQ 180653Z AUTO 09005KT 10SM CLR 20/17 A2994 RMK AO2 SLP133 T02000172,KDEQ,2015-04-18T06:53:00Z,34.05,-94.4,20.0,17.2,90,5,,10.0,29.940945,1013.3,,TRUE,TRUE,,,,,,,CLR,,,,,,,,VFR,,,,,,,,,,,,METAR,106.0
KDET 180653Z AUTO 00000KT 10SM CLR 10/06 A3000 RMK AO2 SLP157 T01000061,KDET,2015-04-18T06:53:00Z,42.4,-83.02,10.0,6.1,0,0,,10.0,30.0,1015.7,,TRUE,TRUE,,,,,,,CLR,,,,,,,,VFR,,,,,,,,,,,,METAR,190.0
KDFI 180653Z AUTO 21003KT 10SM CLR 11/07 A3002 RMK AO2 SLP165 T01060067 $,KDFI,2015-04-18T06:53:00Z,41.33,-84.43,10.6,6.7,210,3,,10.0,30.02067,1016.5,,TRUE,TRUE,TRUE,,,,,,CLR,,,,,,,,VFR,,,,,,,,,,,,METAR,219.0
KDFW 180653Z 00000KT 10SM FEW065 SCT080 BKN110 OVC250 17/16 A2994 RMK AO2 SLP132 T01720161,KDFW,2015-04-18T06:53:00Z,32.9,-97.02,17.2,16.1,0,0,,10.0,29.940945,1013.2,,,TRUE,,,,,,,FEW,6500,SCT,8000,BKN,11000,OVC,25000,VFR,,,,,,,,,,,,METAR,174.0
KDEW 180653Z AUTO 03003KT 10SM CLR 05/01 A3008 RMK AO2 SLP190 T00500011,KDEW,2015-04-18T06:53:00Z,47.97,-117.43,5.0,1.1,30,3,,10.0,30.079725,1019.0,,TRUE,TRUE,,,,,,,CLR,,,,,,,,VFR,,,,,,,,,,,,METAR,674.0
KDHT 180653Z AUTO 00000KT 10SM CLR 08/M04 A2999 RMK AO2 SLP127 T00781044,KDHT,2015-04-18T06:53:00Z,36.02,-102.55,7.8,-4.4,0,0,,10.0,29.991142,1012.7,,TRUE,TRUE,,,,,,,CLR,,,,,,,,VFR,,,,,,,,,,,,METAR,1217.0
KDKK 180653Z AUTO 00000KT 10SM CLR 06/04 A2999 RMK AO2 SLP157 T00560044,KDKK,2015-04-18T06:53:00Z,42.5,-79.28,5.6,4.4,0,0,,10.0,29.991142,1015.7,,TRUE,TRUE,,,,,,,CLR,,,,,,,,VFR,,,,,,,,,,,,METAR,202.0
KDLN 180653Z AUTO 19006KT 10SM CLR 03/M03 A3007 RMK AO2 SLP166 T00331033 401831028,KDLN,2015-04-18T06:53:00Z,45.25,-112.55,3.3,-3.3,190,6,,10.0,30.070866,1016.6,,TRUE,TRUE,,,,,,,CLR,,,,,,,,VFR,,,,18.3,-2.8,,,,,,,METAR,1591.0
KDMN 180653Z AUTO 32009KT 10SM CLR 08/M13 A3003 RMK AO2 SLP126 T00831128 402061022,KDMN,2015-04-18T06:53:00Z,32.27,-107.72,8.3,-12.8,320,9,,10.0,30.029528,1012.6,,TRUE,TRUE,,,,,,,CLR,,,,,,,,VFR,,,,20.6,-2.2,,,,,,,METAR,1311.0
KDLS 180653Z AUTO 33011KT 10SM CLR 16/05 A3016 RMK AO2 SLP211 T01610050,KDLS,2015-04-18T06:53:00Z,45.62,-121.17,16.1,5.0,330,11,,10.0,30.159449,1021.1,,TRUE,TRUE,,,,,,,CLR,,,,,,,,VFR,,,,,,,,,,,,METAR,71.0
KDMO 180653Z AUTO 13004KT 10SM CLR 18/13 A2997 RMK AO2 SLP143 T01780128 TSNO,KDMO,2015-04-18T06:53:00Z,38.72,-93.17,17.8,12.8,130,4,,10.0,29.970472,1014.3,,TRUE,TRUE,,,TRUE,,,,CLR,,,,,,,,VFR,,,,,,,,,,,,METAR,274.0
KDRT 180653Z AUTO 07003KT 10SM OVC018 18/17 A2990 RMK AO2 SLP110 T01830167,KDRT,2015-04-18T06:53:00Z,29.37,-100.92,18.3,16.7,70,3,,10.0,29.899607,1011.0,,TRUE,TRUE,,,,,,,OVC,1800,,,,,,,MVFR,,,,,,,,,,,,METAR,313.0
KBCE 180653Z AUTO 32006KT 10SM CLR 02/M03 A3011 RMK AO2 SLP148 T00221033 400781106 TSNO,KBCE,2015-04-18T06:53:00Z,37.7,-112.15,2.2,-3.3,320,6,,10.0,30.109253,1014.8,,TRUE,TRUE,,,TRUE,,,,CLR,,,,,,,,VFR,,,,7.8,-10.6,,,,,,,METAR,2312.0
KBDE 180653Z AUTO 09003KT 10SM CLR 02/M02 A3020 RMK AO2 SLP234 T00221017 TSNO,KBDE,2015-04-18T06:53:00Z,48.73,-94.62,2.2,-1.7,90,3,,10.0,30.200787,1023.4,,TRUE,TRUE,,,TRUE,,,,CLR,,,,,,,,VFR,,,,,,,,,,,,METAR,329.0
KBBW 180653Z AUTO 07011KT 9SM FEW041 BKN070 13/11 A2996 RMK AO2 SLP138 T01330111,KBBW,2015-04-18T06:53:00Z,41.43,-99.63,13.3,11.1,70,11,,9.0,29.958662,1013.8,,TRUE,TRUE,,,,,,,FEW,4100,BKN,7000,,,,,VFR,,,,,,,,,,,,METAR,776.0
KBAF 180653Z AUTO 03003KT 10SM CLR 11/07 A2993 RMK AO2 SLP138 T01110067,KBAF,2015-04-18T06:53:00Z,42.17,-72.72,11.1,6.7,30,3,,10.0,29.929134,1013.8,,TRUE,TRUE,,,,,,,CLR,,,,,,,,VFR,,,,,,,,,,,,METAR,83.0
KAZO 180653Z AUTO 20003KT 10SM CLR 10/07 A3002 RMK AO2 SLP164 T01000067,KAZO,2015-04-18T06:53:00Z,42.23,-85.55,10.0,6.7,200,3,,10.0,30.02067,1016.4,,TRUE,TRUE,,,,,,,CLR,,,,,,,,VFR,,,,,,,,,,,,METAR,272.0
KAXN 180653Z AUTO 04009KT 10SM CLR 11/M03 A3009 RMK AO2 SLP192 T01111033,KAXN,2015-04-18T06:53:00Z,45.87,-95.4,11.1,-3.3,40,9,,10.0,30.088583,1019.2,,TRUE,TRUE,,,,,,,CLR,,,,,,,,VFR,,,,,,,,,,,,METAR,433.0
KDTO 180653Z AUTO 00000KT 8SM BKN080 OVC110 17/16 A2996 RMK AO2 LTG DSNT NW SLP140 T01670161,KDTO,2015-04-18T06:53:00Z,33.2,-97.2,16.7,16.1,0,0,,8.0,29.958662,1014.0,,TRUE,TRUE,,,,,,,BKN,8000,OVC,11000,,,,,VFR,,,,,,,,,,,,METAR,196.0
KDTN 180653Z AUTO 00000KT 10SM SCT042 21/17 A2994 RMK AO2 SLP135 T02060172,KDTN,2015-04-18T06:53:00Z,32.55,-93.75,20.6,17.2,0,0,,10.0,29.940945,1013.5,,TRUE,TRUE,,,,,,,SCT,4200,,,,,,,VFR,,,,,,,,,,,,METAR,53.0
KBEH 180653Z AUTO 15003KT 10SM CLR 10/07 A3001 RMK AO2 SLP162 T01000072,KBEH,2015-04-18T06:53:00Z,42.13,-86.42,10.0,7.2,150,3,,10.0,30.008858,1016.2,,TRUE,TRUE,,,,,,,CLR,,,,,,,,VFR,,,,,,,,,,,,METAR,191.0
KBFF 180653Z AUTO 26010KT 7SM -RA FEW007 OVC039 06/06 A3004 RMK AO2 SLP169 P0021 T00560056 400890056 $,KBFF,2015-04-18T06:53:00Z,41.87,-103.58,5.6,5.6,260,10,,7.0,30.041338,1016.9,,TRUE,TRUE,TRUE,,,,,-RA,FEW,700,OVC,3900,,,,,VFR,,,,8.9,5.6,0.21,,,,,,METAR,1203.0
KBTM 180653Z AUTO 11006KT 10SM CLR 02/M03 A3010 RMK AO2 SLP181 T00221028 401781050,KBTM,2015-04-18T06:53:00Z,45.97,-112.5,2.2,-2.8,110,6,,10.0,30.100393,1018.1,,TRUE,TRUE,,,,,,,CLR,,,,,,,,VFR,,,,17.8,-5.0,,,,,,,METAR,1688.0
KBTL 180653Z 00000KT 10SM CLR 11/06 A3002 RMK AO2 SLP163 T01060056,KBTL,2015-04-18T06:53:00Z,42.32,-85.23,10.6,5.6,0,0,,10.0,30.02067,1016.3,,,TRUE,,,,,,,CLR,,,,,,,,VFR,,,,,,,,,,,,METAR,290.0
KBRL 180653Z AUTO 00000KT 10SM CLR 15/11 A3000 RMK AO2 SLP156 T01500111,KBRL,2015-04-18T06:53:00Z,40.77,-91.13,15.0,11.1,0,0,,10.0,30.0,1015.6,,TRUE,TRUE,,,,,,,CLR,,,,,,,,VFR,,,,,,,,,,,,METAR,211.0
KBRD 180653Z AUTO 03008KT 10SM CLR 10/M05 A3011 RMK AO2 SLP196 T01001050,KBRD,2015-04-18T06:53:00Z,46.4,-94.13,10.0,-5.0,30,8,,10.0,30.109253,1019.6,,TRUE,TRUE,,,,,,,CLR,,,,,,,,VFR,,,,,,,,,,,,METAR,372.0
KBPT 180653Z AUTO 00000KT 10SM FEW110 21/20 A2992 RMK AO2 LTG DSNT NE-SE RAE50 TSB14E29 SLP131 P0022 T02060200,KBPT,2015-04-18T06:53:00Z,29.95,-94.03,20.6,20.0,0,0,,10.0,29.920275,1013.1,,TRUE,TRUE,,,,,,,FEW,11000,,,,,,,VFR,,,,,,0.22,,,,,,METAR,5.0
KBPK 180653Z AUTO 11003KT 8SM CLR 17/16 A3000 RMK AO2 SLP150 T01670161,KBPK,2015-04-18T06:53:00Z,36.37,-92.47,16.7,16.1,110,3,,8.0,30.0,1015.0,,TRUE,TRUE,,,,,,,CLR,,,,,,,,VFR,,,,,,,,,,,,METAR,280.0
KBPI 180653Z AUTO 08003KT 10SM CLR M03/M04 A3010 RMK AO2 SLP158 T10281044 401671061,KBPI,2015-04-18T06:53:00Z,42.58,-110.1,-2.8,-4.4,80,3,,10.0,30.100393,1015.8,,TRUE,TRUE,,,,,,,CLR,,,,,,,,VFR,,,,16.7,-6.1,,,,,,,METAR,2117.0
KBOI 180653Z 26006KT 10SM CLR 12/01 A3004 RMK AO2 SLP161 T01220006 402220039,KBOI,2015-04-18T06:53:00Z,43.57,-116.23,12.2,0.6,260,6,,10.0,30.041338,1016.1,,,TRUE,,,,,,,CLR,,,,,,,,VFR,,,,22.2,3.9,,,,,,,METAR,875.0
KBNO 180653Z AUTO 29013KT 10SM CLR 10/M02 A3016 RMK AO2 SLP193 T01001022,KBNO,2015-04-18T06:53:00Z,43.6,-118.95,10.0,-2.2,290,13,,10.0,30.159449,1019.3,,TRUE,TRUE,,,,,,,CLR,,,,,,,,VFR,,,,,,,,,,,,METAR,1264.0
KBNA 180653Z 00000KT 8SM FEW150 16/15 A3002 RMK AO2 SLP162 T01560150,KBNA,2015-04-18T06:53:00Z,36.12,-86.68,15.6,15.0,0,0,,8.0,30.02067,1016.2,,,TRUE,,,,,,,FEW,15000,,,,,,,VFR,,,,,,,,,,,,METAR,210.0
KBMQ 180653Z AUTO 00000KT 10SM CLR 17/16 A2995 RMK AO2 SLP129 T01670156,KBMQ,2015-04-18T06:53:00Z,30.73,-98.23,16.7,15.6,0,0,,10.0,29.949802,1012.9,,TRUE,TRUE,,,,,,,CLR,,,,,,,,VFR,,,,,,,,,,,,METAR,389.0
KBMG 180653Z AUTO 00000KT 10SM CLR 11/09 A3005 RMK AO2 SLP171 T01110089,KBMG,2015-04-18T06:53:00Z,39.15,-86.62,11.1,8.9,0,0,,10.0,30.050198,1017.1,,TRUE,TRUE,,,,,,,CLR,,,,,,,,VFR,,,,,,,,,,,,METAR,257.0
KBLI 180653Z AUTO 00000KT 10SM CLR 09/03 A3032 RMK AO2 SLP275 T00890028,KBLI,2015-04-18T06:53:00Z,48.8,-122.53,8.9,2.8,0,0,,10.0,30.318897,1027.5,,TRUE,TRUE,,,,,,,CLR,,,,,,,,VFR,,,,,,,,,,,,METAR,50.0
KBKV 180653Z AUTO 14005KT 8SM CLR 22/21 A2998 RMK AO2 SLP148 T02220211,KBKV,2015-04-18T06:53:00Z,28.47,-82.45,22.2,21.1,140,5,,8.0,29.97933,1014.8,,TRUE,TRUE,,,,,,,CLR,,,,,,,,VFR,,,,,,,,,,,,METAR,20.0
KBKL 180653Z 15009KT 10SM CLR 14/08 A2998 RMK AO2 SLP154 T01390083,KBKL,2015-04-18T06:53:00Z,41.53,-81.67,13.9,8.3,150,9,,10.0,29.97933,1015.4,,,TRUE,,,,,,,CLR,,,,,,,,VFR,,,,,,,,,,,,METAR,184.0
KBKE 180653Z AUTO 26007KT 10SM CLR 06/M01 A3016 RMK AO2 SLP209 T00561011 TSNO,KBKE,2015-04-18T06:53:00Z,44.85,-117.82,5.6,-1.1,260,7,,10.0,30.159449,1020.9,,TRUE,TRUE,,,TRUE,,,,CLR,,,,,,,,VFR,,,,,,,,,,,,METAR,1024.0
KBIV 180653Z AUTO 00000KT 10SM CLR 12/07 A3001 RMK AO2 SLP161 T01170067,KBIV,2015-04-18T06:53:00Z,42.75,-86.1,11.7,6.7,0,0,,10.0,30.008858,1016.1,,TRUE,TRUE,,,,,,,CLR,,,,,,,,VFR,,,,,,,,,,,,METAR,208.0
KBIL 180653Z 22007KT 10SM CLR 08/01 A3000 RMK AO2 SLP155 T00780011 401890006,KBIL,2015-04-18T06:53:00Z,45.8,-108.55,7.8,1.1,220,7,,10.0,30.0,1015.5,,,TRUE,,,,,,,CLR,,,,,,,,VFR,,,,18.9,0.6,,,,,,,METAR,1091.0
KBGR 180653Z 34006KT 10SM CLR 06/02 A2989 RMK AO2 SLP120 T00610017,KBGR,2015-04-18T06:53:00Z,44.8,-68.82,6.1,1.7,340,6,,10.0,29.890747,1012.0,,,TRUE,,,,,,,CLR,,,,,,,,VFR,,,,,,,,,,,,METAR,57.0
KBGM 180653Z AUTO 24004KT 10SM CLR 08/07 A2998 RMK AO2 SLP153 T00830067,KBGM,2015-04-18T06:53:00Z,42.22,-75.98,8.3,6.7,240,4,,10.0,29.97933,1015.3,,TRUE,TRUE,,,,,,,CLR,,,,,,,,VFR,,,,,,,,,,,,METAR,490.0
KBFI 180653Z 00000KT 10SM SCT065 13/07 A3031 RMK AO2 SLP265 T01280067,KBFI,2015-04-18T06:53:00Z,47.55,-122.32,12.8,6.7,0,0,,10.0,30.31004,1026.5,,,TRUE,,,,,,,SCT,6500,,,,,,,VFR,,,,,,,,,,,,METAR,4.0
KBVO 180653Z AUTO 00000KT 10SM FEW060 SCT100 16/16 A2994 RMK AO2 SLP131 T01560156,KBVO,2015-04-18T06:53:00Z,36.77,-96.02,15.6,15.6,0,0,,10.0,29.940945,1013.1,,TRUE,TRUE,,,,,,,FEW,6000,SCT,10000,,,,,VFR,,,,,,,,,,,,METAR,210.0
KBUR 180653Z 00000KT 10SM CLR 17/M04 A3002 RMK AO2 SLP153 T01721044,KBUR,2015-04-18T06:53:00Z,34.2,-118.37,17.2,-4.4,0,0,,10.0,30.02067,1015.3,,,TRUE,,,,,,,CLR,,,,,,,,VFR,,,,,,,,,,,,METAR,217.0
KLAW 180653Z AUTO 00000KT 10SM OVC095 15/14 A2996 RMK AO2 SLP139 T01500139 TSNO,KLAW,2015-04-18T06:53:00Z,34.55,-98.42,15.0,13.9,0,0,,10.0,29.958662,1013.9,,TRUE,TRUE,,,TRUE,,,,OVC,9500,,,,,,,VFR,,,,,,,,,,,,METAR,337.0
KLAA 180653Z AUTO 23003KT 10SM CLR 04/02 A2995 RMK AO2 SLP124 T00440022 402110039,KLAA,2015-04-18T06:53:00Z,38.07,-102.68,4.4,2.2,230,3,,10.0,29.949802,1012.4,,TRUE,TRUE,,,,,,,CLR,,,,,,,,VFR,,,,21.1,3.9,,,,,,,METAR,1119.0
KOSU 180653Z AUTO 30004KT 10SM CLR 11/06 A3003 RMK AO2 SLP165 T01110061,KOSU,2015-04-18T06:53:00Z,40.08,-83.08,11.1,6.1,300,4,,10.0,30.029528,1016.5,,TRUE,TRUE,,,,,,,CLR,,,,,,,,VFR,,,,,,,,,,,,METAR,280.0
KOSH 180653Z 27006KT 10SM CLR 14/06 A3000 RMK AO2 SLP152 T01440061,KOSH,2015-04-18T06:53:00Z,43.97,-88.55,14.4,6.1,270,6,,10.0,30.0,1015.2,,,TRUE,,,,,,,CLR,,,,,,,,VFR,,,,,,,,,,,,METAR,248.0
KORL 180653Z AUTO 00000KT 8SM FEW005 OVC110 22/21 A2999 RMK AO2 SLP157 T02220211,KORL,2015-04-18T06:53:00Z,28.55,-81.33,22.2,21.1,0,0,,8.0,29.991142,1015.7,,TRUE,TRUE,,,,,,,FEW,500,OVC,11000,,,,,VFR,,,,,,,,,,,,METAR,37.0
KOPF 180653Z AUTO 00000KT 10SM CLR 24/22 A2998 RMK AO2 SLP154 T02440217,KOPF,2015-04-18T06:53:00Z,25.92,-80.28,24.4,21.7,0,0,,10.0,29.97933,1015.4,,TRUE,TRUE,,,,,,,CLR,,,,,,,,VFR,,,,,,,,,,,,METAR,16.0
KONT 180653Z 00000KT 10SM CLR 17/M01 A3004 RMK AO2 SLP162 T01721006,KONT,2015-04-18T06:53:00Z,34.05,-117.58,17.2,-0.6,0,0,,10.0,30.041338,1016.2,,,TRUE,,,,,,,CLR,,,,,,,,VFR,,,,,,,,,,,,METAR,274.0
KONO 180653Z AUTO 30013KT 10SM CLR 15/M01 A3007 RMK AO2 SLP177 T01501011 402390000,KONO,2015-04-18T06:53:00Z,44.02,-117.02,15.0,-1.1,300,13,,10.0,30.070866,1017.7,,TRUE,TRUE,,,,,,,CLR,,,,,,,,VFR,,,,23.9,,,,,,,,METAR,667.0
KOMK 180653Z AUTO 33009KT 10SM CLR 13/M04 A3017 RMK AO2 SLP217 T01331039,KOMK,2015-04-18T06:53:00Z,48.47,-119.52,13.3,-3.9,330,9,,10.0,30.171259,1021.7,,TRUE,TRUE,,,,,,,CLR,,,,,,,,VFR,,,,,,,,,,,,METAR,395.0
KOLF 180653Z AUTO 05006KT 10SM CLR 06/M02 A3000 RMK AO2 SLP164 T00561017 402281033,KOLF,2015-04-18T06:53:00Z,48.1,-105.58,5.6,-1.7,50,6,,10.0,30.0,1016.4,,TRUE,TRUE,,,,,,,CLR,,,,,,,,VFR,,,,22.8,-3.3,,,,,,,METAR,604.0
KOJC 180653Z AUTO 09004KT 10SM CLR 17/15 A2995 RMK AO2 SLP135 T01720150,KOJC,2015-04-18T06:53:00Z,38.85,-94.73,17.2,15.0,90,4,,10.0,29.949802,1013.5,,TRUE,TRUE,,,,,,,CLR,,,,,,,,VFR,,,,,,,,,,,,METAR,326.0
KOGD 180653Z 16005KT 10SM CLR 09/03 A3003 RMK AO2 SLP141 T00890028 401830039,KOGD,2015-04-18T06:53:00Z,41.2,-112.02,8.9,2.8,160,5,,10.0,30.029528,1014.1,,,TRUE,,,,,,,CLR,,,,,,,,VFR,,,,18.3,3.9,,,,,,,METAR,1353.0
KODX 180653Z AUTO 00000KT 10SM FEW065 BKN090 13/11 A2997 RMK AO2 LTG DSNT NW RAB0559E09 SLP150 P0000 T01280106,KODX,2015-04-18T06:53:00Z,41.62,-98.95,12.8,10.6,0,0,,10.0,29.970472,1015.0,,TRUE,TRUE,,,,,,,FEW,6500,BKN,9000,,,,,VFR,,,,,,0.0050,,,,,,METAR,631.0
KODO 180653Z AUTO 00000KT 10SM CLR 13/01 A2998 RMK AO2 SLP120 T01280006,KODO,2015-04-18T06:53:00Z,31.92,-102.4,12.8,0.6,0,0,,10.0,29.97933,1012.0,,TRUE,TRUE,,,,,,,CLR,,,,,,,,VFR,,,,,,,,,,,,METAR,902.0
KNEW 180653Z AUTO 00000KT 10SM SCT110 25/22 A2992 RMK AO2 SLP125 T02500217 TSNO,KNEW,2015-04-18T06:53:00Z,30.05,-90.03,25.0,21.7,0,0,,10.0,29.920275,1012.5,,TRUE,TRUE,,,TRUE,,,,SCT,11000,,,,,,,VFR,,,,,,,,,,,,METAR,3.0
KMYF 180653Z AUTO 34004KT 10SM CLR 17/06 A3004 RMK AO2 SLP168 T01670061 TSNO,KMYF,2015-04-18T06:53:00Z,32.82,-117.13,16.7,6.1,340,4,,10.0,30.041338,1016.8,,TRUE,TRUE,,,TRUE,,,,CLR,,,,,,,,VFR,,,,,,,,,,,,METAR,136.0
KMWL 180653Z AUTO 00000KT 9SM FEW075 16/15 A2993 RMK AO2 SLP126 T01560150,KMWL,2015-04-18T06:53:00Z,32.78,-98.07,15.6,15.0,0,0,,9.0,29.929134,1012.6,,TRUE,TRUE,,,,,,,FEW,7500,,,,,,,VFR,,,,,,,,,,,,METAR,284.0
KMVY 180653Z AUTO 31005KT 9SM CLR 10/10 A2991 RMK AO2 SLP127 T01000100,KMVY,2015-04-18T06:53:00Z,41.4,-70.62,10.0,10.0,310,5,,9.0,29.911417,1012.7,,TRUE,TRUE,,,,,,,CLR,,,,,,,,VFR,,,,,,,,,,,,METAR,16.0
KMTO 180653Z AUTO 00000KT 10SM CLR 13/11 A3002 RMK AO2 SLP164 T01330106,KMTO,2015-04-18T06:53:00Z,39.47,-88.27,13.3,10.6,0,0,,10.0,30.02067,1016.4,,TRUE,TRUE,,,,,,,CLR,,,,,,,,VFR,,,,,,,,,,,,METAR,214.0
KMTH 180653Z AUTO 15005KT 10SM SCT021 27/23 A2999 RMK AO2 SLP154 T02670228,KMTH,2015-04-18T06:53:00Z,24.73,-81.05,26.7,22.8,150,5,,10.0,29.991142,1015.4,,TRUE,TRUE,,,,,,,SCT,2100,,,,,,,VFR,,,,,,,,,,,,METAR,2.0
KMSY 180653Z 00000KT 9SM -RA FEW015 SCT065 OVC110 23/21 A2991 RMK AO2 RAB40 SLP133 P0001 T02330211,KMSY,2015-04-18T06:53:00Z,30.0,-90.25,23.3,21.1,0,0,,9.0,29.911417,1013.3,,,TRUE,,,,,,-RA,FEW,1500,SCT,6500,OVC,11000,,,VFR,,,,,,0.01,,,,,,METAR,5.0
KMSS 180653Z AUTO 00000KT 7SM OVC080 07/05 A2995 RMK AO2 SLP145 T00670050,KMSS,2015-04-18T06:53:00Z,44.93,-74.85,6.7,5.0,0,0,,7.0,29.949802,1014.5,,TRUE,TRUE,,,,,,,OVC,8000,,,,,,,VFR,,,,,,,,,,,,METAR,66.0
KMSP 180653Z 00000KT 10SM FEW250 12/01 A3005 RMK AO2 SLP177 T01170006,KMSP,2015-04-18T06:53:00Z,44.88,-93.23,11.7,0.6,0,0,,10.0,30.050198,1017.7,,,TRUE,,,,,,,FEW,25000,,,,,,,VFR,,,,,,,,,,,,METAR,265.0
KMSO 180653Z AUTO 25007KT 10SM CLR 08/M01 A3008 RMK AO2 SLP187 T00831011 402171017,KMSO,2015-04-18T06:53:00Z,46.92,-114.1,8.3,-1.1,250,7,,10.0,30.079725,1018.7,,TRUE,TRUE,,,,,,,CLR,,,,,,,,VFR,,,,21.7,-1.7,,,,,,,METAR,975.0
KMSN 180653Z 10SM CLR 11/07 A3001 RMK AO2 SLP161 T01060072,KMSN,2015-04-18T06:53:00Z,43.13,-89.35,10.6,7.2,,,,10.0,30.008858,1016.1,,,TRUE,,,,,,,CLR,,,,,,,,VFR,,,,,,,,,,,,METAR,261.0
KMSL 180653Z AUTO 00000KT 1/2SM FG VV002 14/13 A3001 RMK AO2 SLP158 T01390128,KMSL,2015-04-18T06:53:00Z,34.75,-87.6,13.9,12.8,0,0,,0.5,30.008858,1015.8,,TRUE,TRUE,,,,,,FG,OVX,0,,,,,,,LIFR,,,,,,,,,,,200,METAR,164.0
KMRB 180653Z AUTO 29003KT 9SM CLR 13/10 A3000 RMK AO2 SLP158 T01280100 TSNO,KMRB,2015-04-18T06:53:00Z,39.4,-77.98,12.8,10.0,290,3,,9.0,30.0,1015.8,,TRUE,TRUE,,,TRUE,,,,CLR,,,,,,,,VFR,,,,,,,,,,,,METAR,164.0
KMPO 180653Z AUTO 32007KT 10SM CLR 09/06 A2999 RMK AO2 SLP156 T00890061 $,KMPO,2015-04-18T06:53:00Z,41.13,-75.38,8.9,6.1,320,7,,10.0,29.991142,1015.6,,TRUE,TRUE,TRUE,,,,,,CLR,,,,,,,,VFR,,,,,,,,,,,,METAR,577.0
KMNN 180653Z AUTO 00000KT 10SM CLR 12/06 A3003 RMK AO2 SLP168 T01170056 TSNO $,KMNN,2015-04-18T06:53:00Z,40.62,-83.07,11.7,5.6,0,0,,10.0,30.029528,1016.8,,TRUE,TRUE,TRUE,,TRUE,,,,CLR,,,,,,,,VFR,,,,,,,,,,,,METAR,301.0
KMMV 180653Z AUTO 26003KT 10SM CLR 10/07 A3027 RMK AO2 SLP250 T01000067,KMMV,2015-04-18T06:53:00Z,45.2,-123.13,10.0,6.7,260,3,,10.0,30.268702,1025.0,,TRUE,TRUE,,,,,,,CLR,,,,,,,,VFR,,,,,,,,,,,,METAR,48.0
KMLU 180653Z AUTO 06003KT 10SM CLR 19/18 A2994 RMK AO2 SLP137 T01940178,KMLU,2015-04-18T06:53:00Z,32.52,-92.03,19.4,17.8,60,3,,10.0,29.940945,1013.7,,TRUE,TRUE,,,,,,,CLR,,,,,,,,VFR,,,,,,,,,,,,METAR,29.0
KMLT 180653Z AUTO 36005KT 10SM CLR 05/M02 A2991 RMK AO2 SLP134 T00501022,KMLT,2015-04-18T06:53:00Z,45.65,-68.7,5.0,-2.2,360,5,,10.0,29.911417,1013.4,,TRUE,TRUE,,,,,,,CLR,,,,,,,,VFR,,,,,,,,,,,,METAR,123.0
KMLS 180653Z AUTO 15006KT 10SM CLR 08/M02 A3001 RMK AO2 SLP159 T00831017 402061006,KMLS,2015-04-18T06:53:00Z,46.43,-105.88,8.3,-1.7,150,6,,10.0,30.008858,1015.9,,TRUE,TRUE,,,,,,,CLR,,,,,,,,VFR,,,,20.6,-0.6,,,,,,,METAR,801.0
KMLP 180653Z AUTO 32005KT 10SM CLR 04/M01 A3015 RMK AO2 SLP149 T00441011 $,KMLP,2015-04-18T06:53:00Z,47.45,-115.67,4.4,-1.1,320,5,,10.0,30.15059,1014.9,,TRUE,TRUE,TRUE,,,,,,CLR,,,,,,,,VFR,,,,,,,,,,,,METAR,1837.0
KMLC 180653Z AUTO 23005KT 10SM FEW100 18/14 A2995 RMK AO2 LTG DSNT SW-N RAB18E35 SLP135 P0000 T01830144,KMLC,2015-04-18T06:53:00Z,34.88,-95.78,18.3,14.4,230,5,,10.0,29.949802,1013.5,,TRUE,TRUE,,,,,,,FEW,10000,,,,,,,VFR,,,,,,0.0050,,,,,,METAR,232.0
KMLB 180653Z AUTO 00000KT 10SM FEW012 SCT120 23/23 A2997 RMK AO2 SLP146 T02330228,KMLB,2015-04-18T06:53:00Z,28.1,-80.65,23.3,22.8,0,0,,10.0,29.970472,1014.6,,TRUE,TRUE,,,,,,,FEW,1200,SCT,12000,,,,,VFR,,,,,,,,,,,,METAR,11.0
KMKO 180653Z AUTO 16005KT 10SM CLR 19/17 A2994 RMK AO2 LTG DSNT SW SLP131 T01890172,KMKO,2015-04-18T06:53:00Z,35.65,-95.37,18.9,17.2,160,5,,10.0,29.940945,1013.1,,TRUE,TRUE,,,,,,,CLR,,,,,,,,VFR,,,,,,,,,,,,METAR,185.0
KMIW 180653Z AUTO 06006KT 10SM CLR 14/08 A3000 RMK AO2 SLP157 T01440083,KMIW,2015-04-18T06:53:00Z,42.12,-92.92,14.4,8.3,60,6,,10.0,30.0,1015.7,,TRUE,TRUE,,,,,,,CLR,,,,,,,,VFR,,,,,,,,,,,,METAR,296.0
KMIE 180653Z AUTO 00000KT 10SM CLR 12/07 A3005 RMK AO2 SLP170 T01170072,KMIE,2015-04-18T06:53:00Z,40.23,-85.4,11.7,7.2,0,0,,10.0,30.050198,1017.0,,TRUE,TRUE,,,,,,,CLR,,,,,,,,VFR,,,,,,,,,,,,METAR,285.0
KMIA 180653Z VRB04KT 10SM FEW030 FEW070 SCT250 25/22 A2998 RMK AO2 SLP152 T02500217,KMIA,2015-04-18T06:53:00Z,25.8,-80.28,25.0,21.7,0,4,,10.0,29.97933,1015.2,,,TRUE,,,,,,,FEW,3000,FEW,7000,SCT,25000,,,VFR,,,,,,,,,,,,METAR,3.0
KMHT 180653Z 14003KT 10SM CLR 08/05 A2989 RMK AO2 SLP136 T00780050,KMHT,2015-04-18T06:53:00Z,42.93,-71.43,7.8,5.0,140,3,,10.0,29.890747,1013.6,,,TRUE,,,,,,,CLR,,,,,,,,VFR,,,,,,,,,,,,METAR,81.0
KMGY 180653Z AUTO 00000KT 10SM CLR 12/06 A3004 RMK AO2 SLP169 T01170056,KMGY,2015-04-18T06:53:00Z,39.6,-84.23,11.7,5.6,0,0,,10.0,30.041338,1016.9,,TRUE,TRUE,,,,,,,CLR,,,,,,,,VFR,,,,,,,,,,,,METAR,289.0
KMGM 180653Z AUTO 36003KT 10SM BKN007 OVC010 18/17 A2995 RMK AO2 CIG 005V010 SLP140 T01830167,KMGM,2015-04-18T06:53:00Z,32.3,-86.4,18.3,16.7,360,3,,10.0,29.949802,1014.0,,TRUE,TRUE,,,,,,,BKN,700,OVC,1000,,,,,IFR,,,,,,,,,,,,METAR,63.0
KMFR 180653Z AUTO 15004KT 10SM CLR 13/06 A3016 RMK AO2 SLP210 T01280061,KMFR,2015-04-18T06:53:00Z,42.38,-122.87,12.8,6.1,150,4,,10.0,30.159449,1021.0,,TRUE,TRUE,,,,,,,CLR,,,,,,,,VFR,,,,,,,,,,,,METAR,396.0
KMFE 180653Z AUTO 08003KT 6SM -RA BR BKN012 BKN018 BKN120 26/24 A2985 RMK AO2 RAB27 SLP105 P0000 T02610239,KMFE,2015-04-18T06:53:00Z,26.18,-98.25,26.1,23.9,80,3,,6.0,29.84941,1010.5,,TRUE,TRUE,,,,,,-RA BR,BKN,1200,BKN,1800,BKN,12000,,,MVFR,,,,,,0.0050,,,,,,METAR,38.0
KMDW 180653Z 21006KT 10SM SCT080 BKN095 18/09 A3001 RMK AO2 SLP154 T01830089,KMDW,2015-04-18T06:53:00Z,41.78,-87.75,18.3,8.9,210,6,,10.0,30.008858,1015.4,,,TRUE,,,,,,,SCT,8000,BKN,9500,,,,,VFR,,,,,,,,,,,,METAR,188.0
KMCO 180653Z 02004KT 9SM SCT004 BKN110 BKN170 22/22 A2999 RMK AO2 SLP154 T02220217,KMCO,2015-04-18T06:53:00Z,28.42,-81.33,22.2,21.7,20,4,,9.0,29.991142,1015.4,,,TRUE,,,,,,,SCT,400,BKN,11000,BKN,17000,,,VFR,,,,,,,,,,,,METAR,29.0
KMCN 180653Z AUTO 06003KT 9SM OVC007 18/17 A2995 RMK AO2 RAB20E35 SLP137 P0000 T01780172 TSNO,KMCN,2015-04-18T06:53:00Z,32.68,-83.65,17.8,17.2,60,3,,9.0,29.949802,1013.7,,TRUE,TRUE,,,TRUE,,,,OVC,700,,,,,,,IFR,,,,,,0.0050,,,,,,METAR,109.0
KMCK 180653Z AUTO 00000KT 10SM BKN075 OVC100 11/09 A2997 RMK AO2 RAB34E46 SLP141 P0000 T01110094,KMCK,2015-04-18T06:53:00Z,40.2,-100.58,11.1,9.4,0,0,,10.0,29.970472,1014.1,,TRUE,TRUE,,,,,,,BKN,7500,OVC,10000,,,,,VFR,,,,,,0.0050,,,,,,METAR,782.0
KMCI 180653Z 09008KT 10SM OVC150 18/14 A2996 RMK AO2 SLP137 T01780139,KMCI,2015-04-18T06:53:00Z,39.3,-94.73,17.8,13.9,90,8,,10.0,29.958662,1013.7,,,TRUE,,,,,,,OVC,15000,,,,,,,VFR,,,,,,,,,,,,METAR,320.0
KMBS 180653Z 21004KT 10SM CLR 10/05 A2998 RMK AO2 SLP150 T01000050,KMBS,2015-04-18T06:53:00Z,43.53,-84.08,10.0,5.0,210,4,,10.0,29.97933,1015.0,,,TRUE,,,,,,,CLR,,,,,,,,VFR,,,,,,,,,,,,METAR,202.0
KMAF 180653Z AUTO VRB03KT 10SM SCT120 13/08 A2997 RMK AO2 SLP114 T01330083 $,KMAF,2015-04-18T06:53:00Z,31.95,-102.2,13.3,8.3,0,3,,10.0,29.970472,1011.4,,TRUE,TRUE,TRUE,,,,,,SCT,12000,,,,,,,VFR,,,,,,,,,,,,METAR,874.0
KLXT 180653Z AUTO 06005KT 10SM CLR 17/14 A2996 RMK AO2 SLP140 T01720139,KLXT,2015-04-18T06:53:00Z,38.97,-94.37,17.2,13.9,60,5,,10.0,29.958662,1014.0,,TRUE,TRUE,,,,,,,CLR,,,,,,,,VFR,,,,,,,,,,,,METAR,306.0
KJLN 180653Z AUTO 17006KT 10SM CLR 17/15 A2996 RMK AO2 SLP139 T01670150,KJLN,2015-04-18T06:53:00Z,37.15,-94.5,16.7,15.0,170,6,,10.0,29.958662,1013.9,,TRUE,TRUE,,,,,,,CLR,,,,,,,,VFR,,,,,,,,,,,,METAR,299.0
KJKL 180653Z AUTO 00000KT 10SM CLR 16/12 A3004 RMK AO2 SLP162 T01610117,KJKL,2015-04-18T06:53:00Z,37.6,-83.32,16.1,11.7,0,0,,10.0,30.041338,1016.2,,TRUE,TRUE,,,,,,,CLR,,,,,,,,VFR,,,,,,,,,,,,METAR,416.0
KJER 180653Z AUTO 16007KT 10SM CLR 08/M03 A3003 RMK AO2 SLP158 T00831028 401940011,KJER,2015-04-18T06:53:00Z,42.72,-114.45,8.3,-2.8,160,7,,10.0,30.029528,1015.8,,TRUE,TRUE,,,,,,,CLR,,,,,,,,VFR,,,,19.4,1.1,,,,,,,METAR,1222.0
KJEF 180653Z AUTO 12007KT 10SM CLR 18/14 A2998 RMK AO2 SLP139 T01830139,KJEF,2015-04-18T06:53:00Z,38.6,-92.15,18.3,13.9,120,7,,10.0,29.97933,1013.9,,TRUE,TRUE,,,,,,,CLR,,,,,,,,VFR,,,,,,,,,,,,METAR,168.0
KJBR 180653Z AUTO 03003KT 5SM BR CLR 14/14 A2997 RMK AO2 SLP148 T01440144,KJBR,2015-04-18T06:53:00Z,35.83,-90.65,14.4,14.4,30,3,,5.0,29.970472,1014.8,,TRUE,TRUE,,,,,,BR,CLR,,,,,,,,MVFR,,,,,,,,,,,,METAR,79.0
KIXD 180653Z AUTO 10004KT 10SM CLR 18/14 A2997 RMK AO2 SLP139 T01780144,KIXD,2015-04-18T06:53:00Z,38.82,-94.88,17.8,14.4,100,4,,10.0,29.970472,1013.9,,TRUE,TRUE,,,,,,,CLR,,,,,,,,VFR,,,,,,,,,,,,METAR,342.0
KITR 180653Z AUTO 01007KT 10SM BKN013 07/06 A2996 RMK AO2 SLP124 T00720056 401720072,KITR,2015-04-18T06:53:00Z,39.23,-102.28,7.2,5.6,10,7,,10.0,29.958662,1012.4,,TRUE,TRUE,,,,,,,BKN,1300,,,,,,,MVFR,,,,17.2,7.2,,,,,,,METAR,1279.0
KIPL 180653Z AUTO 20006KT 10SM CLR 20/M02 A2993 RMK AO2 SLP136 T02001022,KIPL,2015-04-18T06:53:00Z,32.83,-115.58,20.0,-2.2,200,6,,10.0,29.929134,1013.6,,TRUE,TRUE,,,,,,,CLR,,,,,,,,VFR,,,,,,,,,,,,METAR,-17.0
KINK 180653Z AUTO 00000KT 10SM CLR 15/M09 A2996 RMK AO2 SLP110 T01501094,KINK,2015-04-18T06:53:00Z,31.78,-103.2,15.0,-9.4,0,0,,10.0,29.958662,1011.0,,TRUE,TRUE,,,,,,,CLR,,,,,,,,VFR,,,,,,,,,,,,METAR,855.0
KIML 180653Z AUTO 13008KT 10SM -RA SCT055 OVC080 09/08 A2998 RMK AO2 RAB05 SLP146 P0001 T00940078 401780094 $,KIML,2015-04-18T06:53:00Z,40.52,-101.62,9.4,7.8,130,8,,10.0,29.97933,1014.6,,TRUE,TRUE,TRUE,,,,,-RA,SCT,5500,OVC,8000,,,,,VFR,,,,17.8,9.4,0.01,,,,,,METAR,998.0
KILM 180653Z AUTO 00000KT 10SM OVC070 19/18 A2996 RMK AO2 SLP145 T01890183,KILM,2015-04-18T06:53:00Z,34.27,-77.9,18.9,18.3,0,0,,10.0,29.958662,1014.5,,TRUE,TRUE,,,,,,,OVC,7000,,,,,,,VFR,,,,,,,,,,,,METAR,9.0
KIDA 180653Z AUTO 21006KT 10SM CLR 07/M02 A3005 RMK AO2 SLP159 T00721017 402001033,KIDA,2015-04-18T06:53:00Z,43.52,-112.07,7.2,-1.7,210,6,,10.0,30.050198,1015.9,,TRUE,TRUE,,,,,,,CLR,,,,,,,,VFR,,,,20.0,-3.3,,,,,,,METAR,1453.0
KICR 180653Z AUTO 03006KT 10SM OVC070 12/09 A3003 RMK AO2 SLP166 T01170094,KICR,2015-04-18T06:53:00Z,43.38,-99.85,11.7,9.4,30,6,,10.0,30.029528,1016.6,,TRUE,TRUE,,,,,,,OVC,7000,,,,,,,VFR,,,,,,,,,,,,METAR,621.0
KIAG 180653Z AUTO 18004KT 5SM BR CLR 04/03 A2998 RMK AO2 SLP157 T00390028,KIAG,2015-04-18T06:53:00Z,43.12,-78.93,3.9,2.8,180,4,,5.0,29.97933,1015.7,,TRUE,TRUE,,,,,,BR,CLR,,,,,,,,MVFR,,,,,,,,,,,,METAR,182.0
KHZY 180653Z AUTO 00000KT 10SM CLR 09/07 A3002 RMK AO2 SLP163 T00890067,KHZY,2015-04-18T06:53:00Z,41.78,-80.7,8.9,6.7,0,0,,10.0,30.02067,1016.3,,TRUE,TRUE,,,,,,,CLR,,,,,,,,VFR,,,,,,,,,,,,METAR,276.0
KHYR 180653Z AUTO 04014G21KT 10SM CLR 11/M03 A3009 RMK AO2 SLP189 T01111028,KHYR,2015-04-18T06:53:00Z,46.02,-91.45,11.1,-2.8,40,14,21,10.0,30.088583,1018.9,,TRUE,TRUE,,,,,,,CLR,,,,,,,,VFR,,,,,,,,,,,,METAR,370.0
KHWO 180653Z AUTO 00000KT 10SM CLR 25/22 RMK AO2 SLPNO T02500217 $,KHWO,2015-04-18T06:53:00Z,26.0,-80.23,25.0,21.7,0,0,,10.0,,,,TRUE,TRUE,TRUE,,,,,,CLR,,,,,,,,VFR,,,,,,,,,,,,METAR,2.0
KHVR 180653Z AUTO 00000KT 10SM CLR 05/M01 A2993 RMK AO2 SLP138 T00501006 402171006,KHVR,2015-04-18T06:53:00Z,48.55,-109.77,5.0,-0.6,0,0,,10.0,29.929134,1013.8,,TRUE,TRUE,,,,,,,CLR,,,,,,,,VFR,,,,21.7,-0.6,,,,,,,METAR,787.0
KHVN 180653Z AUTO 00000KT 10SM CLR 09/06 A2995 RMK AO2 SLP141 T00890061,KHVN,2015-04-18T06:53:00Z,41.27,-72.87,8.9,6.1,0,0,,10.0,29.949802,1014.1,,TRUE,TRUE,,,,,,,CLR,,,,,,,,VFR,,,,,,,,,,,,METAR,4.0
KHUL 180653Z AUTO 34007KT 10SM CLR 02/M03 A2988 RMK AO2 SLP121 T00221033,KHUL,2015-04-18T06:53:00Z,46.12,-67.8,2.2,-3.3,340,7,,10.0,29.878937,1012.1,,TRUE,TRUE,,,,,,,CLR,,,,,,,,VFR,,,,,,,,,,,,METAR,150.0
KHUF 180653Z 00000KT 10SM CLR 12/09 A3004 RMK AO2 SLP171 T01170094,KHUF,2015-04-18T06:53:00Z,39.45,-87.3,11.7,9.4,0,0,,10.0,30.041338,1017.1,,,TRUE,,,,,,,CLR,,,,,,,,VFR,,,,,,,,,,,,METAR,179.0
KHSI 180653Z AUTO 07006KT 10SM BKN036 BKN090 13/12 A2996 RMK AO2 SLP138 T01330117,KHSI,2015-04-18T06:53:00Z,40.6,-98.43,13.3,11.7,70,6,,10.0,29.958662,1013.8,,TRUE,TRUE,,,,,,,BKN,3600,BKN,9000,,,,,VFR,,,,,,,,,,,,METAR,591.0
KHRI 180653Z AUTO 14005KT 10SM CLR 09/03 A3013 RMK AO2 SLP200 T00940028,KHRI,2015-04-18T06:53:00Z,45.83,-119.27,9.4,2.8,140,5,,10.0,30.129921,1020.0,,TRUE,TRUE,,,,,,,CLR,,,,,,,,VFR,,,,,,,,,,,,METAR,195.0
KHQM 180653Z AUTO 00000KT 8SM CLR 09/06 A3032 RMK AO2 SLP270 T00890061,KHQM,2015-04-18T06:53:00Z,46.97,-123.93,8.9,6.1,0,0,,8.0,30.318897,1027.0,,TRUE,TRUE,,,,,,,CLR,,,,,,,,VFR,,,,,,,,,,,,METAR,7.0
KHOU 180653Z 13008KT 9SM -RA FEW006 SCT040 BKN090 OVC130 21/20 A2989 RMK AO2 SLP125 TS MOV NE P0015 T02060200,KHOU,2015-04-18T06:53:00Z,29.63,-95.28,20.6,20.0,130,8,,9.0,29.890747,1012.5,,,TRUE,,,,,,-RA,FEW,600,SCT,4000,BKN,9000,OVC,13000,VFR,,,,,,0.15,,,,,,METAR,36.0
KPSP 180653Z 21004KT 10SM CLR 22/M03 A2997 RMK AO2 SLP147 T02171028,KPSP,2015-04-18T06:53:00Z,33.82,-116.5,21.7,-2.8,210,4,,10.0,29.970472,1014.7,,,TRUE,,,,,,,CLR,,,,,,,,VFR,,,,,,,,,,,,METAR,135.0
KPSC 180653Z AUTO 31009KT 10SM CLR 13/02 A3013 RMK AO2 SLP203 T01280022,KPSC,2015-04-18T06:53:00Z,46.27,-119.12,12.8,2.2,310,9,,10.0,30.129921,1020.3,,TRUE,TRUE,,,,,,,CLR,,,,,,,,VFR,,,,,,,,,,,,METAR,121.0
KPRC 180653Z AUTO 18005KT 10SM CLR 07/M04 A3008 RMK AO2 SLP144 T00671044 401721006,KPRC,2015-04-18T06:53:00Z,34.65,-112.42,6.7,-4.4,180,5,,10.0,30.079725,1014.4,,TRUE,TRUE,,,,,,,CLR,,,,,,,,VFR,,,,17.2,-0.6,,,,,,,METAR,1524.0
KPOU 180653Z AUTO 00000KT 9SM CLR 08/06 A2996 RMK AO2 SLP141 T00780061,KPOU,2015-04-18T06:53:00Z,41.63,-73.88,7.8,6.1,0,0,,9.0,29.958662,1014.1,,TRUE,TRUE,,,,,,,CLR,,,,,,,,VFR,,,,,,,,,,,,METAR,46.0
KPOF 180653Z AUTO 33003KT 5SM BR CLR 14/13 A3000 RMK AO2 SLP157 T01440133,KPOF,2015-04-18T06:53:00Z,36.77,-90.32,14.4,13.3,330,3,,5.0,30.0,1015.7,,TRUE,TRUE,,,,,,BR,CLR,,,,,,,,MVFR,,,,,,,,,,,,METAR,99.0
KPNS 180653Z AUTO 00000KT 10SM FEW013 21/20 A2992 RMK AO2 SLP134 T02060200,KPNS,2015-04-18T06:53:00Z,30.48,-87.18,20.6,20.0,0,0,,10.0,29.920275,1013.4,,TRUE,TRUE,,,,,,,FEW,1300,,,,,,,VFR,,,,,,,,,,,,METAR,38.0
KPMP 180653Z AUTO 23003KT 10SM FEW036 26/ A2998 RMK AO2 SLP153 T0256 $,KPMP,2015-04-18T06:53:00Z,26.25,-80.12,25.6,,230,3,,10.0,29.97933,1015.3,,TRUE,TRUE,TRUE,,,,,,FEW,3600,,,,,,,VFR,,,,,,,,,,,,METAR,6.0
KPKD 180653Z AUTO 03007KT 10SM CLR 09/M04 A3011 RMK AO2 SLP198 T00941044,KPKD,2015-04-18T06:53:00Z,46.9,-95.07,9.4,-4.4,30,7,,10.0,30.109253,1019.8,,TRUE,TRUE,,,,,,,CLR,,,,,,,,VFR,,,,,,,,,,,,METAR,442.0
KPKB 180653Z AUTO 00000KT 9SM CLR 12/09 A3003 RMK AO2 SLP167 T01170094,KPKB,2015-04-18T06:53:00Z,39.35,-81.42,11.7,9.4,0,0,,9.0,30.029528,1016.7,,TRUE,TRUE,,,,,,,CLR,,,,,,,,VFR,,,,,,,,,,,,METAR,262.0
KPIR 180653Z AUTO 33007KT 10SM OVC070 12/09 A3005 RMK AO2 RAE05 SLP171 P0000 T01170089,KPIR,2015-04-18T06:53:00Z,44.38,-100.28,11.7,8.9,330,7,,10.0,30.050198,1017.1,,TRUE,TRUE,,,,,,,OVC,7000,,,,,,,VFR,,,,,,0.0050,,,,,,METAR,526.0
KPIL 180653Z AUTO 05005KT 5SM BR BKN010 24/23 A2984 RMK AO2 SLP105 T02440233,KPIL,2015-04-18T06:53:00Z,26.17,-97.33,24.4,23.3,50,5,,5.0,29.840551,1010.5,,TRUE,TRUE,,,,,,BR,BKN,1000,,,,,,,MVFR,,,,,,,,,,,,METAR,5.0
KPIH 180653Z AUTO 21008KT 10SM CLR 10/M05 A3005 RMK AO2 SLP155 T01001050 401941011,KPIH,2015-04-18T06:53:00Z,42.92,-112.57,10.0,-5.0,210,8,,10.0,30.050198,1015.5,,TRUE,TRUE,,,,,,,CLR,,,,,,,,VFR,,,,19.4,-1.1,,,,,,,METAR,1359.0
KPIE 180653Z AUTO 00000KT 10SM CLR 23/22 A2997 RMK AO2 SLP149 T02280217,KPIE,2015-04-18T06:53:00Z,27.92,-82.68,22.8,21.7,0,0,,10.0,29.970472,1014.9,,TRUE,TRUE,,,,,,,CLR,,,,,,,,VFR,,,,,,,,,,,,METAR,4.0
KPHD 180653Z AUTO 00000KT 6SM HZ CLR 09/07 A3003 RMK AO2 SLP167 T00940067,KPHD,2015-04-18T06:53:00Z,40.47,-81.42,9.4,6.7,0,0,,6.0,30.029528,1016.7,,TRUE,TRUE,,,,,,HZ,CLR,,,,,,,,VFR,,,,,,,,,,,,METAR,272.0
KPGA 180653Z AUTO 00000KT 10SM SCT080 BKN100 12/01 A3002 RMK AO2 SLP136 T01170011 401610044 TSNO,KPGA,2015-04-18T06:53:00Z,36.92,-111.45,11.7,1.1,0,0,,10.0,30.02067,1013.6,,TRUE,TRUE,,,TRUE,,,,SCT,8000,BKN,10000,,,,,VFR,,,,16.1,4.4,,,,,,,METAR,1307.0
KPEO 180653Z AUTO 23006KT 10SM CLR 08/05 A2998 RMK AO2 SLP155 T00780050,KPEO,2015-04-18T06:53:00Z,42.65,-77.05,7.8,5.0,230,6,,10.0,29.97933,1015.5,,TRUE,TRUE,,,,,,,CLR,,,,,,,,VFR,,,,,,,,,,,,METAR,256.0
KPDX 180653Z 30005KT 10SM CLR 12/07 A3026 RMK AO2 SLP246 T01220072,KPDX,2015-04-18T06:53:00Z,45.6,-122.62,12.2,7.2,300,5,,10.0,30.259842,1024.6,,,TRUE,,,,,,,CLR,,,,,,,,VFR,,,,,,,,,,,,METAR,7.0
KPDT 180653Z AUTO 03005KT 10SM CLR 07/03 A3015 RMK AO2 SLP205 T00720028,KPDT,2015-04-18T06:53:00Z,45.7,-118.83,7.2,2.8,30,5,,10.0,30.15059,1020.5,,TRUE,TRUE,,,,,,,CLR,,,,,,,,VFR,,,,,,,,,,,,METAR,462.0
KPBI 180653Z 19004KT 10SM FEW034 FEW060 24/22 A2998 RMK AO2 SLP152 T02440217 $,KPBI,2015-04-18T06:53:00Z,26.68,-80.1,24.4,21.7,190,4,,10.0,29.97933,1015.2,,,TRUE,TRUE,,,,,,FEW,3400,FEW,6000,,,,,VFR,,,,,,,,,,,,METAR,6.0
KPBG 180653Z AUTO 36010KT 10SM BKN045 BKN090 08/M03 A2996 RMK AO2 SLP144 T00831028,KPBG,2015-04-18T06:53:00Z,44.65,-73.47,8.3,-2.8,360,10,,10.0,29.958662,1014.4,,TRUE,TRUE,,,,,,,BKN,4500,BKN,9000,,,,,VFR,,,,,,,,,,,,METAR,72.0
KPAE 180653Z AUTO 01006KT 10SM CLR 09/07 A3032 RMK AO2 SLP268 T00940067,KPAE,2015-04-18T06:53:00Z,47.92,-122.28,9.4,6.7,10,6,,10.0,30.318897,1026.8,,TRUE,TRUE,,,,,,,CLR,,,,,,,,VFR,,,,,,,,,,,,METAR,180.0
KOVS 180653Z AUTO 00000KT 10SM CLR 09/07 A3003 RMK AO2 SLP167 T00890067,KOVS,2015-04-18T06:53:00Z,43.15,-90.68,8.9,6.7,0,0,,10.0,30.029528,1016.7,,TRUE,TRUE,,,,,,,CLR,,,,,,,,VFR,,,,,,,,,,,,METAR,202.0
KOTM 180653Z AUTO 11004KT 10SM SCT065 17/10 A3000 RMK AO2 SLP152 T01670100,KOTM,2015-04-18T06:53:00Z,41.1,-92.45,16.7,10.0,110,4,,10.0,30.0,1015.2,,TRUE,TRUE,,,,,,,SCT,6500,,,,,,,VFR,,,,,,,,,,,,METAR,256.0
KGLH 180653Z AUTO 07004KT 10SM CLR 19/17 A2996 RMK AO2 SLP149 T01940172,KGLH,2015-04-18T06:53:00Z,33.5,-90.98,19.4,17.2,70,4,,10.0,29.958662,1014.9,,TRUE,TRUE,,,,,,,CLR,,,,,,,,VFR,,,,,,,,,,,,METAR,45.0
KGLD 180653Z AUTO 15006KT 10SM CLR 08/08 A2995 RMK AO2 SLP126 T00830078 401890078,KGLD,2015-04-18T06:53:00Z,39.37,-101.7,8.3,7.8,150,6,,10.0,29.949802,1012.6,,TRUE,TRUE,,,,,,,CLR,,,,,,,,VFR,,,,18.9,7.8,,,,,,,METAR,1113.0
KGKY 180653Z AUTO 00000KT 10SM OVC100 18/16 A2993 RMK AO2 RAE18 SLP130 P0002 T01830161,KGKY,2015-04-18T06:53:00Z,32.67,-97.1,18.3,16.1,0,0,,10.0,29.929134,1013.0,,TRUE,TRUE,,,,,,,OVC,10000,,,,,,,VFR,,,,,,0.02,,,,,,METAR,192.0
KGKJ 180653Z AUTO 15003KT 10SM CLR 11/07 A3001 RMK AO2 SLP162 T01110067 TSNO,KGKJ,2015-04-18T06:53:00Z,41.63,-80.22,11.1,6.7,150,3,,10.0,30.008858,1016.2,,TRUE,TRUE,,,TRUE,,,,CLR,,,,,,,,VFR,,,,,,,,,,,,METAR,428.0
KGJT 180653Z AUTO 07004KT 5SM BR FEW004 BKN019 01/01 A3006 RMK AO2 SLP190 T00060006 400331006,KGJT,2015-04-18T06:53:00Z,39.12,-108.52,0.6,0.6,70,4,,5.0,30.059055,1019.0,,TRUE,TRUE,,,,,,BR,FEW,400,BKN,1900,,,,,MVFR,,,,3.3,-0.6,,,,,,,METAR,1475.0
KGGW 180653Z AUTO 11012KT 10SM CLR 07/M03 A2996 RMK AO2 SLP150 T00671028 402170006 TSNO,KGGW,2015-04-18T06:53:00Z,48.22,-106.62,6.7,-2.8,110,12,,10.0,29.958662,1015.0,,TRUE,TRUE,,,TRUE,,,,CLR,,,,,,,,VFR,,,,21.7,0.6,,,,,,,METAR,694.0
KGGG 180653Z AUTO 05003KT 7SM -RA FEW049 OVC110 21/19 A2992 RMK AO2 SLP127 P0001 T02060194,KGGG,2015-04-18T06:53:00Z,32.38,-94.72,20.6,19.4,50,3,,7.0,29.920275,1012.7,,TRUE,TRUE,,,,,,-RA,FEW,4900,OVC,11000,,,,,VFR,,,,,,0.01,,,,,,METAR,107.0
KGFL 180653Z AUTO 01003KT 10SM CLR 07/04 A2993 RMK AO2 SLP137 T00720044,KGFL,2015-04-18T06:53:00Z,43.33,-73.62,7.2,4.4,10,3,,10.0,29.929134,1013.7,,TRUE,TRUE,,,,,,,CLR,,,,,,,,VFR,,,,,,,,,,,,METAR,103.0
KGFK 180653Z AUTO 02004KT 10SM CLR 01/M03 A3015 RMK AO2 SLP215 T00061033 TSNO,KGFK,2015-04-18T06:53:00Z,47.95,-97.18,0.6,-3.3,20,4,,10.0,30.15059,1021.5,,TRUE,TRUE,,,TRUE,,,,CLR,,,,,,,,VFR,,,,,,,,,,,,METAR,258.0
KGEZ 180653Z AUTO 34003KT 10SM CLR 13/07 A3005 RMK AO2 SLP172 T01280072,KGEZ,2015-04-18T06:53:00Z,39.58,-85.8,12.8,7.2,340,3,,10.0,30.050198,1017.2,,TRUE,TRUE,,,,,,,CLR,,,,,,,,VFR,,,,,,,,,,,,METAR,245.0
KGEY 180653Z AUTO 11004KT 10SM CLR 07/M03 A3004 RMK AO2 SLP167 T00721028 401831022,KGEY,2015-04-18T06:53:00Z,44.52,-108.08,7.2,-2.8,110,4,,10.0,30.041338,1016.7,,TRUE,TRUE,,,,,,,CLR,,,,,,,,VFR,,,,18.3,-2.2,,,,,,,METAR,1191.0
KGEG 180653Z 24009KT 10SM CLR 11/02 A3008 RMK AO2 SLP185 T01060022,KGEG,2015-04-18T06:53:00Z,47.62,-117.53,10.6,2.2,240,9,,10.0,30.079725,1018.5,,,TRUE,,,,,,,CLR,,,,,,,,VFR,,,,,,,,,,,,METAR,735.0
KGCC 180653Z AUTO 21008KT 10SM SCT080 07/04 A3007 RMK AO2 SLP170 T00670039 401671039,KGCC,2015-04-18T06:53:00Z,44.33,-105.55,6.7,3.9,210,8,,10.0,30.070866,1017.0,,TRUE,TRUE,,,,,,,SCT,8000,,,,,,,VFR,,,,16.7,-3.9,,,,,,,METAR,1320.0
KFYV 180653Z AUTO 00000KT 10SM CLR 15/15 A2998 RMK AO2 SLP141 T01500150,KFYV,2015-04-18T06:53:00Z,36.02,-94.17,15.0,15.0,0,0,,10.0,29.97933,1014.1,,TRUE,TRUE,,,,,,,CLR,,,,,,,,VFR,,,,,,,,,,,,METAR,379.0
KFXE 180653Z 22003KT 10SM BKN036 25/23 A2998 RMK AO2 SLP154 T02500228,KFXE,2015-04-18T06:53:00Z,26.2,-80.18,25.0,22.8,220,3,,10.0,29.97933,1015.4,,,TRUE,,,,,,,BKN,3600,,,,,,,VFR,,,,,,,,,,,,METAR,6.0
KFWN 180653Z AUTO 00000KT 9SM CLR 08/07 A2999 RMK AO2 SLP154 T00780067,KFWN,2015-04-18T06:53:00Z,41.2,-74.63,7.8,6.7,0,0,,9.0,29.991142,1015.4,,TRUE,TRUE,,,,,,,CLR,,,,,,,,VFR,,,,,,,,,,,,METAR,133.0
KFUL 180653Z 00000KT 10SM CLR 17/03 A3002 RMK AO2 SLP165 T01720033,KFUL,2015-04-18T06:53:00Z,33.87,-117.98,17.2,3.3,0,0,,10.0,30.02067,1016.5,,,TRUE,,,,,,,CLR,,,,,,,,VFR,,,,,,,,,,,,METAR,35.0
KFTY 180653Z AUTO 00000KT 3SM -RA BR BKN004 OVC015 17/16 A2999 RMK AO2 RAE23B39 SLP149 P0004 T01670161,KFTY,2015-04-18T06:53:00Z,33.78,-84.52,16.7,16.1,0,0,,3.0,29.991142,1014.9,,TRUE,TRUE,,,,,,-RA BR,BKN,400,OVC,1500,,,,,LIFR,,,,,,0.04,,,,,,METAR,263.0
KFTW 180653Z 18004KT 10SM BKN090 OVC110 18/17 A2993 RMK AO2 SLP131 T01780167,KFTW,2015-04-18T06:53:00Z,32.83,-97.37,17.8,16.7,180,4,,10.0,29.929134,1013.1,,,TRUE,,,,,,,BKN,9000,OVC,11000,,,,,VFR,,,,,,,,,,,,METAR,214.0
KFST 180653Z AUTO 17005KT 10SM FEW110 17/02 A2999 RMK AO2 SLP116 T01670017,KFST,2015-04-18T06:53:00Z,30.92,-102.92,16.7,1.7,170,5,,10.0,29.991142,1011.6,,TRUE,TRUE,,,,,,,FEW,11000,,,,,,,VFR,,,,,,,,,,,,METAR,918.0
KFSM 180653Z 06005KT 10SM FEW055 BKN070 19/17 A2995 RMK AO2 SLP139 T01940172,KFSM,2015-04-18T06:53:00Z,35.33,-94.37,19.4,17.2,60,5,,10.0,29.949802,1013.9,,,TRUE,,,,,,,FEW,5500,BKN,7000,,,,,VFR,,,,,,,,,,,,METAR,140.0
KFRG 180653Z AUTO 32003KT 10SM CLR 14/09 A2995 RMK AO2 SLP142 T01390089,KFRG,2015-04-18T06:53:00Z,40.73,-73.42,13.9,8.9,320,3,,10.0,29.949802,1014.2,,TRUE,TRUE,,,,,,,CLR,,,,,,,,VFR,,,,,,,,,,,,METAR,21.0
KFPR 180653Z 00000KT 10SM CLR 22/21 A2997 RMK AO2 SLP146 T02170206,KFPR,2015-04-18T06:53:00Z,27.5,-80.38,21.7,20.6,0,0,,10.0,29.970472,1014.6,,,TRUE,,,,,,,CLR,,,,,,,,VFR,,,,,,,,,,,,METAR,13.0
KFOK 180653Z 35006KT 10SM CLR 11/09 A2996 RMK AO2 SLP143 T01110089,KFOK,2015-04-18T06:53:00Z,40.85,-72.62,11.1,8.9,350,6,,10.0,29.958662,1014.3,,,TRUE,,,,,,,CLR,,,,,,,,VFR,,,,,,,,,,,,METAR,33.0
KFOE 180653Z AUTO 00000KT 10SM CLR 16/13 A2996 RMK AO2 SLP137 T01560128,KFOE,2015-04-18T06:53:00Z,38.93,-95.65,15.6,12.8,0,0,,10.0,29.958662,1013.7,,TRUE,TRUE,,,,,,,CLR,,,,,,,,VFR,,,,,,,,,,,,METAR,320.0
KFNT 180653Z AUTO 23003KT 10SM CLR 09/04 A2999 RMK AO2 SLP155 T00890044,KFNT,2015-04-18T06:53:00Z,42.97,-83.75,8.9,4.4,230,3,,10.0,29.991142,1015.5,,TRUE,TRUE,,,,,,,CLR,,,,,,,,VFR,,,,,,,,,,,,METAR,233.0
KFMY 180653Z AUTO 00000KT 10SM CLR 23/22 A2997 RMK AO2 SLP150 T02280222,KFMY,2015-04-18T06:53:00Z,26.58,-81.87,22.8,22.2,0,0,,10.0,29.970472,1015.0,,TRUE,TRUE,,,,,,,CLR,,,,,,,,VFR,,,,,,,,,,,,METAR,4.0
KFMN 180653Z AUTO 17003KT 1 1/2SM -SN BR BKN006 OVC009 00/00 A3002 RMK AO2 RAE24SNB24 SLP165 P0010 T00000000 400831061,KFMN,2015-04-18T06:53:00Z,36.75,-108.23,0.0,0.0,170,3,,1.5,30.02067,1016.5,,TRUE,TRUE,,,,,,-SN BR,BKN,600,OVC,900,,,,,IFR,,,,8.3,-6.1,0.1,,,,,,METAR,1685.0
KFLO 180653Z AUTO 35003KT 7SM -RA FEW043 BKN070 OVC080 19/18 A2998 RMK AO2 SLP149 P0000 T01940183,KFLO,2015-04-18T06:53:00Z,34.18,-79.73,19.4,18.3,350,3,,7.0,29.97933,1014.9,,TRUE,TRUE,,,,,,-RA,FEW,4300,BKN,7000,OVC,8000,,,VFR,,,,,,0.0050,,,,,,METAR,44.0
KFLL 180653Z 22003KT 10SM CLR 26/22 A2997 RMK AO2 SLP149 T02560217,KFLL,2015-04-18T06:53:00Z,26.07,-80.15,25.6,21.7,220,3,,10.0,29.970472,1014.9,,,TRUE,,,,,,,CLR,,,,,,,,VFR,,,,,,,,,,,,METAR,3.0
KHOT 180653Z AUTO 07004KT 10SM CLR 18/16 A2998 RMK AO2 SLP146 T01780156,KHOT,2015-04-18T06:53:00Z,34.48,-93.1,17.8,15.6,70,4,,10.0,29.97933,1014.6,,TRUE,TRUE,,,,,,,CLR,,,,,,,,VFR,,,,,,,,,,,,METAR,162.0
KHLN 180653Z AUTO 24003KT 10SM CLR 08/M04 A3003 RMK AO2 SLP176 T00831039 402061022,KHLN,2015-04-18T06:53:00Z,46.6,-111.98,8.3,-3.9,240,3,,10.0,30.029528,1017.6,,TRUE,TRUE,,,,,,,CLR,,,,,,,,VFR,,,,20.6,-2.2,,,,,,,METAR,1182.0
KHLG 180653Z AUTO 00000KT 10SM CLR 14/08 A3002 RMK AO2 SLP166 T01390078,KHLG,2015-04-18T06:53:00Z,40.17,-80.65,13.9,7.8,0,0,,10.0,30.02067,1016.6,,TRUE,TRUE,,,,,,,CLR,,,,,,,,VFR,,,,,,,,,,,,METAR,372.0
KHKS 180653Z AUTO 07005KT 10SM OVC007 19/17 A2995 RMK AO2 SLP134 T01890172,KHKS,2015-04-18T06:53:00Z,32.33,-90.22,18.9,17.2,70,5,,10.0,29.949802,1013.4,,TRUE,TRUE,,,,,,,OVC,700,,,,,,,IFR,,,,,,,,,,,,METAR,108.0
KHIO 180653Z AUTO 28006KT 10SM CLR 11/06 A3026 RMK AO2 SLP246 T01060056,KHIO,2015-04-18T06:53:00Z,45.55,-122.95,10.6,5.6,280,6,,10.0,30.259842,1024.6,,TRUE,TRUE,,,,,,,CLR,,,,,,,,VFR,,,,,,,,,,,,METAR,68.0
KHIB 180653Z AUTO 04006KT 10SM CLR 07/M02 A3014 RMK AO2 SLP210 T00671017,KHIB,2015-04-18T06:53:00Z,47.38,-92.83,6.7,-1.7,40,6,,10.0,30.138779,1021.0,,TRUE,TRUE,,,,,,,CLR,,,,,,,,VFR,,,,,,,,,,,,METAR,412.0
KHHR 180653Z AUTO 24003KT 10SM CLR 18/08 A3002 RMK AO2 SLP164 T01780083 $,KHHR,2015-04-18T06:53:00Z,33.92,-118.33,17.8,8.3,240,3,,10.0,30.02067,1016.4,,TRUE,TRUE,TRUE,,,,,,CLR,,,,,,,,VFR,,,,,,,,,,,,METAR,18.0
KHGR 180653Z AUTO 00000KT 8SM CLR 14/09 A3001 RMK AO2 SLP167 T01440089,KHGR,2015-04-18T06:53:00Z,39.7,-77.73,14.4,8.9,0,0,,8.0,30.008858,1016.7,,TRUE,TRUE,,,,,,,CLR,,,,,,,,VFR,,,,,,,,,,,,METAR,224.0
KHEI 180653Z AUTO 26004KT 10SM CLR 01/M04 A3007 RMK AO2 SLP191 T00061039 402061056,KHEI,2015-04-18T06:53:00Z,46.02,-102.65,0.6,-3.9,260,4,,10.0,30.070866,1019.1,,TRUE,TRUE,,,,,,,CLR,,,,,,,,VFR,,,,20.6,-5.6,,,,,,,METAR,828.0
KHBR 180653Z AUTO 21004KT 6SM BR CLR 13/12 A2996 RMK AO2 RAB43RAEMM SLP139 P0000 T01280122 $,KHBR,2015-04-18T06:53:00Z,34.98,-99.05,12.8,12.2,210,4,,6.0,29.958662,1013.9,,TRUE,TRUE,TRUE,,,,,BR,CLR,,,,,,,,VFR,,,,,,0.0050,,,,,,METAR,473.0
KHBG 180653Z AUTO 03004KT 9SM OVC008 19/18 A2995 RMK AO2 SLP139 T01940183,KHBG,2015-04-18T06:53:00Z,31.27,-89.25,19.4,18.3,30,4,,9.0,29.949802,1013.9,,TRUE,TRUE,,,,,,,OVC,800,,,,,,,IFR,,,,,,,,,,,,METAR,44.0
KHAO 180653Z AUTO 26004KT 8SM CLR 10/09 A3007 RMK AO2 SLP179 T01000089,KHAO,2015-04-18T06:53:00Z,39.37,-84.52,10.0,8.9,260,4,,8.0,30.070866,1017.9,,TRUE,TRUE,,,,,,,CLR,,,,,,,,VFR,,,,,,,,,,,,METAR,188.0
KGZH 180653Z AUTO 00000KT 10SM OVC008 19/18 A2995 RMK AO2 SLP140 T01940183 $,KGZH,2015-04-18T06:53:00Z,31.42,-87.05,19.4,18.3,0,0,,10.0,29.949802,1014.0,,TRUE,TRUE,TRUE,,,,,,OVC,800,,,,,,,IFR,,,,,,,,,,,,METAR,78.0
KGWO 180653Z AUTO 00000KT 10SM CLR 17/16 A2998 RMK AO2 SLP150 T01720156,KGWO,2015-04-18T06:53:00Z,33.5,-90.08,17.2,15.6,0,0,,10.0,29.97933,1015.0,,TRUE,TRUE,,,,,,,CLR,,,,,,,,VFR,,,,,,,,,,,,METAR,44.0
KGUY 180653Z AUTO 21003KT 10SM SCT011 10/09 A2994 RMK AO2 SLP111 T01000094,KGUY,2015-04-18T06:53:00Z,36.68,-101.5,10.0,9.4,210,3,,10.0,29.940945,1011.1,,TRUE,TRUE,,,,,,,SCT,1100,,,,,,,VFR,,,,,,,,,,,,METAR,948.0
KGUP 180653Z AUTO 21006KT 10SM OVC080 04/M06 A3005 RMK AO2 SLP139 T00441056 401001039,KGUP,2015-04-18T06:53:00Z,35.52,-108.8,4.4,-5.6,210,6,,10.0,30.050198,1013.9,,TRUE,TRUE,,,,,,,OVC,8000,,,,,,,VFR,,,,10.0,-3.9,,,,,,,METAR,1971.0
KGTF 180653Z 23006KT 10SM CLR 04/M03 A2999 RMK AO2 SLP161 T00391028 402001006,KGTF,2015-04-18T06:53:00Z,47.47,-111.38,3.9,-2.8,230,6,,10.0,29.991142,1016.1,,,TRUE,,,,,,,CLR,,,,,,,,VFR,,,,20.0,-0.6,,,,,,,METAR,1119.0
KGSH 180653Z AUTO 19003KT 10SM CLR 11/07 A3003 RMK AO2 SLP166 T01110072,KGSH,2015-04-18T06:53:00Z,41.53,-85.78,11.1,7.2,190,3,,10.0,30.029528,1016.6,,TRUE,TRUE,,,,,,,CLR,,,,,,,,VFR,,,,,,,,,,,,METAR,252.0
KGRR 180653Z AUTO 19003KT 10SM CLR 09/05 A3000 RMK AO2 SLP158 T00940050,KGRR,2015-04-18T06:53:00Z,42.88,-85.52,9.4,5.0,190,3,,10.0,30.0,1015.8,,TRUE,TRUE,,,,,,,CLR,,,,,,,,VFR,,,,,,,,,,,,METAR,237.0
KGRI 180653Z AUTO 06003KT 8SM SCT038 BKN055 12/11 A2998 RMK AO2 SLP151 T01220111,KGRI,2015-04-18T06:53:00Z,40.97,-98.32,12.2,11.1,60,3,,8.0,29.97933,1015.1,,TRUE,TRUE,,,,,,,SCT,3800,BKN,5500,,,,,VFR,,,,,,,,,,,,METAR,561.0
KGRB 180653Z AUTO 05009KT 10SM CLR 09/06 A3000 RMK AO2 SLP159 T00940061,KGRB,2015-04-18T06:53:00Z,44.48,-88.13,9.4,6.1,50,9,,10.0,30.0,1015.9,,TRUE,TRUE,,,,,,,CLR,,,,,,,,VFR,,,,,,,,,,,,METAR,208.0
KGOK 180653Z AUTO 00000KT 10SM CLR 16/15 A2993 RMK AO2 LTG DSNT E RAB0559E19 SLP130 P0000 T01610150,KGOK,2015-04-18T06:53:00Z,35.85,-97.4,16.1,15.0,0,0,,10.0,29.929134,1013.0,,TRUE,TRUE,,,,,,,CLR,,,,,,,,VFR,,,,,,0.0050,,,,,,METAR,324.0
KGLR 180653Z AUTO 00000KT 10SM CLR 04/02 A2997 RMK AO2 SLP153 T00390017,KGLR,2015-04-18T06:53:00Z,45.02,-84.68,3.9,1.7,0,0,,10.0,29.970472,1015.3,,TRUE,TRUE,,,,,,,CLR,,,,,,,,VFR,,,,,,,,,,,,METAR,407.0
KNQX 180653Z AUTO 14010KT 10SM FEW018 26/22 A2998 RMK AO2 SLP152 T02560222 $,KNQX,2015-04-18T06:53:00Z,24.57,-81.67,25.6,22.2,140,10,,10.0,29.97933,1015.2,,TRUE,TRUE,TRUE,,,,,,FEW,1800,,,,,,,VFR,,,,,,,,,,,,SPECI,2.0
KCRQ 180653Z AUTO 13003KT 10SM CLR 16/06 A3002 RMK AO2 SLP164 T01610061 TSNO,KCRQ,2015-04-18T06:53:00Z,33.13,-117.28,16.1,6.1,130,3,,10.0,30.02067,1016.4,,TRUE,TRUE,,,TRUE,,,,CLR,,,,,,,,VFR,,,,,,,,,,,,METAR,99.0
KCRG 180653Z AUTO 11003KT 5SM BR CLR 19/18 A2996 RMK AO2 SLP143 T01890178,KCRG,2015-04-18T06:53:00Z,30.33,-81.52,18.9,17.8,110,3,,5.0,29.958662,1014.3,,TRUE,TRUE,,,,,,BR,CLR,,,,,,,,MVFR,,,,,,,,,,,,METAR,13.0
KCRE 180653Z AUTO 00000KT 10SM -RA OVC110 19/19 A2997 RMK AO1 RAB34 SLP149 P0000 T01940189,KCRE,2015-04-18T06:53:00Z,33.82,-78.72,19.4,18.9,0,0,,10.0,29.970472,1014.9,,TRUE,TRUE,,,,,,-RA,OVC,11000,,,,,,,VFR,,,,,,0.0050,,,,,,METAR,10.0
KCPS 180653Z AUTO 00000KT 8SM CLR 16/14 A3001 RMK AO2 SLP158 T01560139,KCPS,2015-04-18T06:53:00Z,38.57,-90.15,15.6,13.9,0,0,,8.0,30.008858,1015.8,,TRUE,TRUE,,,,,,,CLR,,,,,,,,VFR,,,,,,,,,,,,METAR,126.0
KCNY 180653Z AUTO 00000KT 10SM -RA OVC049 05/05 A3003 RMK AO2 RAE0557B15 SLP169 P0000 T00500050 400560000,KCNY,2015-04-18T06:53:00Z,38.77,-109.75,5.0,5.0,0,0,,10.0,30.029528,1016.9,,TRUE,TRUE,,,,,,-RA,OVC,4900,,,,,,,VFR,,,,5.6,,0.0050,,,,,,METAR,1390.0
KCNO 180653Z AUTO 03003KT 7SM CLR 14/02 A3005 RMK AO2 SLP170 T01440022,KCNO,2015-04-18T06:53:00Z,33.98,-117.62,14.4,2.2,30,3,,7.0,30.050198,1017.0,,TRUE,TRUE,,,,,,,CLR,,,,,,,,VFR,,,,,,,,,,,,METAR,207.0
KCNM 180653Z AUTO 26008KT 10SM CLR 12/M05 A2997 RMK AO2 SLP113 T01171050 402610061 $,KCNM,2015-04-18T06:53:00Z,32.33,-104.25,11.7,-5.0,260,8,,10.0,29.970472,1011.3,,TRUE,TRUE,TRUE,,,,,,CLR,,,,,,,,VFR,,,,26.1,6.1,,,,,,,METAR,985.0
KCMX 180653Z AUTO 02009G18KT 10SM CLR 05/00 A3011 RMK AO2 PK WND 01028/0604 SLP200 T00500000,KCMX,2015-04-18T06:53:00Z,47.17,-88.48,5.0,0.0,20,9,18,10.0,30.109253,1020.0,,TRUE,TRUE,,,,,,,CLR,,,,,,,,VFR,,,,,,,,,,,,METAR,326.0
KCMI 180653Z AUTO 16004KT 10SM CLR 13/09 A3003 RMK AO2 SLP167 T01330089,KCMI,2015-04-18T06:53:00Z,40.03,-88.27,13.3,8.9,160,4,,10.0,30.029528,1016.7,,TRUE,TRUE,,,,,,,CLR,,,,,,,,VFR,,,,,,,,,,,,METAR,228.0
KCLM 180653Z AUTO VRB03KT 10SM CLR 08/06 A3032 RMK AO2 SLP269 T00830056,KCLM,2015-04-18T06:53:00Z,48.12,-123.5,8.3,5.6,0,3,,10.0,30.318897,1026.9,,TRUE,TRUE,,,,,,,CLR,,,,,,,,VFR,,,,,,,,,,,,METAR,85.0
KCLL 180653Z AUTO 07006KT 8SM BKN020 21/19 A2988 RMK AO2 SLP113 T02060194,KCLL,2015-04-18T06:53:00Z,30.58,-96.37,20.6,19.4,70,6,,8.0,29.878937,1011.3,,TRUE,TRUE,,,,,,,BKN,2000,,,,,,,MVFR,,,,,,,,,,,,METAR,96.0
KCHA 180653Z AUTO 05003KT 5SM BR BKN002 BKN050 OVC060 16/15 A3002 RMK AO2 SLP160 T01610150,KCHA,2015-04-18T06:53:00Z,35.03,-85.2,16.1,15.0,50,3,,5.0,30.02067,1016.0,,TRUE,TRUE,,,,,,BR,BKN,200,BKN,5000,OVC,6000,,,LIFR,,,,,,,,,,,,METAR,210.0
KCDW 180653Z AUTO 00000KT 10SM CLR 11/08 A2997 RMK AO2 SLP155 T01110078 TSNO,KCDW,2015-04-18T06:53:00Z,40.88,-74.28,11.1,7.8,0,0,,10.0,29.970472,1015.5,,TRUE,TRUE,,,TRUE,,,,CLR,,,,,,,,VFR,,,,,,,,,,,,METAR,64.0
KCDS 180653Z AUTO 10005KT 10SM CLR 14/13 A2996 RMK AO2 SLP131 T01390133,KCDS,2015-04-18T06:53:00Z,34.43,-100.28,13.9,13.3,100,5,,10.0,29.958662,1013.1,,TRUE,TRUE,,,,,,,CLR,,,,,,,,VFR,,,,,,,,,,,,METAR,594.0
KCDR 180653Z AUTO 03005KT 6SM BR FEW004 BKN017 OVC070 09/08 A3004 RMK AO2 SLP184 T00890078 400890067,KCDR,2015-04-18T06:53:00Z,42.83,-103.1,8.9,7.8,30,5,,6.0,30.041338,1018.4,,TRUE,TRUE,,,,,,BR,FEW,400,BKN,1700,OVC,7000,,,MVFR,,,,8.9,6.7,,,,,,,METAR,1010.0
KCDC 180653Z AUTO 29008KT 10SM CLR 01/M03 A3008 RMK AO2 SLP166 T00111028 401501033,KCDC,2015-04-18T06:53:00Z,37.7,-113.1,1.1,-2.8,290,8,,10.0,30.079725,1016.6,,TRUE,TRUE,,,,,,,CLR,,,,,,,,VFR,,,,15.0,-3.3,,,,,,,METAR,1714.0
KCAG 180653Z AUTO 24010KT 10SM OVC018 02/01 A3003 RMK AO2 SLP160 T00220006 401280000,KCAG,2015-04-18T06:53:00Z,40.5,-107.52,2.2,0.6,240,10,,10.0,30.029528,1016.0,,TRUE,TRUE,,,,,,,OVC,1800,,,,,,,MVFR,,,,12.8,,,,,,,,METAR,1887.0
KBYG 180653Z AUTO 16011KT 10SM CLR 07/02 A3006 RMK AO2 SLP159 T00720022 401610000,KBYG,2015-04-18T06:53:00Z,44.38,-106.72,7.2,2.2,160,11,,10.0,30.059055,1015.9,,TRUE,TRUE,,,,,,,CLR,,,,,,,,VFR,,,,16.1,,,,,,,,METAR,1497.0
KBVY 180653Z AUTO 30005KT 10SM CLR 11/06 A2990 RMK AO2 SLP120 T01060061,KBVY,2015-04-18T06:53:00Z,42.58,-70.92,10.6,6.1,300,5,,10.0,29.899607,1012.0,,TRUE,TRUE,,,,,,,CLR,,,,,,,,VFR,,,,,,,,,,,,METAR,28.0
KIWI 180653Z AUTO 00000KT 10SM CLR 04/03 A2989 RMK AO2 SLP122 T00390028,KIWI,2015-04-18T06:53:00Z,43.97,-69.72,3.9,2.8,0,0,,10.0,29.890747,1012.2,,TRUE,TRUE,,,,,,,CLR,,,,,,,,VFR,,,,,,,,,,,,METAR,20.0
KELY 180653Z AUTO 12003KT 10SM CLR 00/M13 A3015 RMK AO2 SLP170 T00001128,KELY,2015-04-18T06:53:00Z,39.3,-114.85,0.0,-12.8,120,3,,10.0,30.15059,1017.0,,TRUE,TRUE,,,,,,,CLR,,,,,,,,VFR,,,,,,,,,,,,METAR,1906.0
KBYI 180653Z AUTO 21007KT 10SM CLR 04/M03 A3003 RMK AO2 SLP156 T00441033 401941017,KBYI,2015-04-18T06:53:00Z,42.55,-113.77,4.4,-3.3,210,7,,10.0,30.029528,1015.6,,TRUE,TRUE,,,,,,,CLR,,,,,,,,VFR,,,,19.4,-1.7,,,,,,,METAR,1264.0
PTTP 180653Z 07004KT 15SM SCT018 OVC300 29/25 A2978 RMK SLP083 T02880247,PTTP,2015-04-18T06:53:00Z,6.97,158.22,28.8,24.7,70,4,,15.0,29.778543,1008.3,,,,,,,,,,SCT,1800,OVC,30000,,,,,VFR,,,,,,,,,,,,METAR,2.0
KLEB 180653Z AUTO 00000KT 10SM BKN045 BKN055 05/03 A2991 RMK AO2 SLP128 T00500033,KLEB,2015-04-18T06:53:00Z,43.63,-72.3,5.0,3.3,0,0,,10.0,29.911417,1012.8,,TRUE,TRUE,,,,,,,BKN,4500,BKN,5500,,,,,VFR,,,,,,,,,,,,METAR,171.0
KLEE 180653Z AUTO 14006KT 10SM OVC100 22/21 A2998 RMK AO2 SLP152 T02220206,KLEE,2015-04-18T06:53:00Z,28.82,-81.82,22.2,20.6,140,6,,10.0,29.97933,1015.2,,TRUE,TRUE,,,,,,,OVC,10000,,,,,,,VFR,,,,,,,,,,,,METAR,23.0
KLGB 180653Z 00000KT 10SM CLR 18/04 A3003 RMK AO2 SLP167 T01830044,KLGB,2015-04-18T06:53:00Z,33.82,-118.15,18.3,4.4,0,0,,10.0,30.029528,1016.7,,,TRUE,,,,,,,CLR,,,,,,,,VFR,,,,,,,,,,,,METAR,10.0
KLHQ 180653Z AUTO 21003KT 10SM CLR 09/07 A3003 RMK AO2 SLP166 T00890067,KLHQ,2015-04-18T06:53:00Z,39.75,-82.67,8.9,6.7,210,3,,10.0,30.029528,1016.6,,TRUE,TRUE,,,,,,,CLR,,,,,,,,VFR,,,,,,,,,,,,METAR,260.0
KLHX 180653Z AUTO 00000KT 10SM CLR 06/02 A2998 RMK AO2 SLP128 T00560022 401780056,KLHX,2015-04-18T06:53:00Z,38.05,-103.52,5.6,2.2,0,0,,10.0,29.97933,1012.8,,TRUE,TRUE,,,,,,,CLR,,,,,,,,VFR,,,,17.8,5.6,,,,,,,METAR,1277.0
KLLQ 180653Z AUTO 06003KT 10SM CLR 18/17 A2996 RMK AO2 SLP143 T01780172,KLLQ,2015-04-18T06:53:00Z,33.63,-91.75,17.8,17.2,60,3,,10.0,29.958662,1014.3,,TRUE,TRUE,,,,,,,CLR,,,,,,,,VFR,,,,,,,,,,,,METAR,83.0
KLMT 180653Z AUTO 36006KT 10SM CLR 10/03 A3018 RMK AO2 SLP197 T01000033,KLMT,2015-04-18T06:53:00Z,42.15,-121.72,10.0,3.3,360,6,,10.0,30.180119,1019.7,,TRUE,TRUE,,,,,,,CLR,,,,,,,,VFR,,,,,,,,,,,,METAR,1246.0
KLNS 180653Z AUTO 29005KT 6SM BR CLR 11/09 A2998 RMK AO2 SLP152 T01060089,KLNS,2015-04-18T06:53:00Z,40.12,-76.3,10.6,8.9,290,5,,6.0,29.97933,1015.2,,TRUE,TRUE,,,,,,BR,CLR,,,,,,,,VFR,,,,,,,,,,,,METAR,125.0
KLOU 180653Z AUTO 00000KT 6SM BR CLR 15/13 A3005 RMK AO2 SLP171 T01500133,KLOU,2015-04-18T06:53:00Z,38.22,-85.67,15.0,13.3,0,0,,6.0,30.050198,1017.1,,TRUE,TRUE,,,,,,BR,CLR,,,,,,,,VFR,,,,,,,,,,,,METAR,164.0
KLPR 180653Z AUTO 00000KT 10SM CLR 11/06 A3001 RMK AO2 SLP160 T01110061 TSNO,KLPR,2015-04-18T06:53:00Z,41.35,-82.18,11.1,6.1,0,0,,10.0,30.008858,1016.0,,TRUE,TRUE,,,TRUE,,,,CLR,,,,,,,,VFR,,,,,,,,,,,,METAR,241.0
KLOZ 180653Z AUTO 00000KT 8SM CLR 14/11 A3004 RMK AO2 SLP164 T01390106,KLOZ,2015-04-18T06:53:00Z,37.08,-84.07,13.9,10.6,0,0,,8.0,30.041338,1016.4,,TRUE,TRUE,,,,,,,CLR,,,,,,,,VFR,,,,,,,,,,,,METAR,362.0
KLVM 180653Z AUTO 31007KT 10SM CLR 02/M06 A3005 RMK AO2 SLP167 T00221056 401941050,KLVM,2015-04-18T06:53:00Z,45.7,-110.43,2.2,-5.6,310,7,,10.0,30.050198,1016.7,,TRUE,TRUE,,,,,,,CLR,,,,,,,,VFR,,,,19.4,-5.0,,,,,,,METAR,1418.0
KLUK 180653Z AUTO 00000KT 10SM CLR 11/11 A3006 RMK AO2 SLP177 T01110106,KLUK,2015-04-18T06:53:00Z,39.1,-84.42,11.1,10.6,0,0,,10.0,30.059055,1017.7,,TRUE,TRUE,,,,,,,CLR,,,,,,,,VFR,,,,,,,,,,,,METAR,155.0
KLWV 180653Z AUTO 00000KT 9SM CLR 13/12 A3003 RMK AO2 SLP168 T01330122,KLWV,2015-04-18T06:53:00Z,38.77,-87.6,13.3,12.2,0,0,,9.0,30.029528,1016.8,,TRUE,TRUE,,,,,,,CLR,,,,,,,,VFR,,,,,,,,,,,,METAR,131.0
KLVS 180653Z AUTO 27007KT 10SM CLR M01/M05 A3001 RMK AO2 SLP128 T10111050 401111061,KLVS,2015-04-18T06:53:00Z,35.65,-105.13,-1.1,-5.0,270,7,,10.0,30.008858,1012.8,,TRUE,TRUE,,,,,,,CLR,,,,,,,,VFR,,,,11.1,-6.1,,,,,,,METAR,2091.0
KLAX 180653Z 24008KT 10SM CLR 16/09 A3002 RMK AO2 SLP162 T01610094,KLAX,2015-04-18T06:53:00Z,33.93,-118.38,16.1,9.4,240,8,,10.0,30.02067,1016.2,,,TRUE,,,,,,,CLR,,,,,,,,VFR,,,,,,,,,,,,METAR,46.0
KLBB 180653Z 17003KT 10SM FEW030 13/11 A2998 RMK AO2 SLP116 T01280111,KLBB,2015-04-18T06:53:00Z,33.67,-101.82,12.8,11.1,170,3,,10.0,29.97933,1011.6,,,TRUE,,,,,,,FEW,3000,,,,,,,VFR,,,,,,,,,,,,METAR,993.0
KLND 180653Z AUTO 33005KT 10SM BKN032 04/02 A3009 RMK AO2 SLP177 T00390017 401330006,KLND,2015-04-18T06:53:00Z,42.82,-108.73,3.9,1.7,330,5,,10.0,30.088583,1017.7,,TRUE,TRUE,,,,,,,BKN,3200,,,,,,,VFR,,,,13.3,0.6,,,,,,,METAR,1694.0
KLIT 180653Z 00000KT 10SM FEW120 OVC250 18/16 A2999 RMK AO2 SLP155 T01830161,KLIT,2015-04-18T06:53:00Z,34.73,-92.23,18.3,16.1,0,0,,10.0,29.991142,1015.5,,,TRUE,,,,,,,FEW,12000,OVC,25000,,,,,VFR,,,,,,,,,,,,METAR,79.0
KLWD 180653Z AUTO 13004KT 10SM FEW060 BKN100 19/12 A2999 RMK AO2 SLP149 T01890117,KLWD,2015-04-18T06:53:00Z,40.63,-93.9,18.9,11.7,130,4,,10.0,29.991142,1014.9,,TRUE,TRUE,,,,,,,FEW,6000,BKN,10000,,,,,VFR,,,,,,,,,,,,METAR,346.0
KPSX 180653Z AUTO 10010G19KT 10SM -RA FEW090 BKN110 21/19 A2987 RMK AO2 TSB06E21 PRESFR SLP113 P0004 T02060194,KPSX,2015-04-18T06:53:00Z,28.72,-96.25,20.6,19.4,100,10,19,10.0,29.870079,1011.3,,TRUE,TRUE,,,,,,-RA,FEW,9000,BKN,11000,,,,,VFR,,,,,,0.04,,,,,,METAR,5.0
KPUB 180653Z AUTO 33007KT 10SM SCT120 04/02 A2998 RMK AO2 SLP138 T00440017 401390033,KPUB,2015-04-18T06:53:00Z,38.28,-104.5,4.4,1.7,330,7,,10.0,29.97933,1013.8,,TRUE,TRUE,,,,,,,SCT,12000,,,,,,,VFR,,,,13.9,3.3,,,,,,,METAR,1420.0
KPTK 180653Z AUTO 28003KT 10SM CLR 12/06 A2999 RMK AO2 SLP154 T01170061 $,KPTK,2015-04-18T06:53:00Z,42.67,-83.42,11.7,6.1,280,3,,10.0,29.991142,1015.4,,TRUE,TRUE,TRUE,,,,,,CLR,,,,,,,,VFR,,,,,,,,,,,,METAR,299.0
KPUC 180653Z AUTO 00000KT 10SM OVC080 05/01 A3004 RMK AO2 SLP162 T00500006 401390006 TSNO $,KPUC,2015-04-18T06:53:00Z,39.62,-110.75,5.0,0.6,0,0,,10.0,30.041338,1016.2,,TRUE,TRUE,TRUE,,TRUE,,,,OVC,8000,,,,,,,VFR,,,,13.9,0.6,,,,,,,METAR,2091.0
KPUW 180653Z AUTO 00000KT 10SM CLR 07/02 A3014 RMK AO2 SLP209 T00670022,KPUW,2015-04-18T06:53:00Z,46.75,-117.12,6.7,2.2,0,0,,10.0,30.138779,1020.9,,TRUE,TRUE,,,,,,,CLR,,,,,,,,VFR,,,,,,,,,,,,METAR,773.0
KPWA 180653Z AUTO 23008KT 10SM CLR 18/15 A2993 RMK AO2 SLP127 T01780150,KPWA,2015-04-18T06:53:00Z,35.53,-97.65,17.8,15.0,230,8,,10.0,29.929134,1012.7,,TRUE,TRUE,,,,,,,CLR,,,,,,,,VFR,,,,,,,,,,,,METAR,397.0
KRAC 180653Z AUTO 27004KT 5SM HZ CLR 11/06 A3001 RMK AO2 SLP164 T01110061,KRAC,2015-04-18T06:53:00Z,42.77,-87.82,11.1,6.1,270,4,,5.0,30.008858,1016.4,,TRUE,TRUE,,,,,,HZ,CLR,,,,,,,,MVFR,,,,,,,,,,,,METAR,203.0
KRAL 180653Z AUTO 02004KT 10SM CLR 17/M02 A3004 RMK AO2 SLP159 T01671022,KRAL,2015-04-18T06:53:00Z,33.95,-117.45,16.7,-2.2,20,4,,10.0,30.041338,1015.9,,TRUE,TRUE,,,,,,,CLR,,,,,,,,VFR,,,,,,,,,,,,METAR,252.0
KRBG 180653Z AUTO 36005KT 10SM CLR 15/09 A3022 RMK AO2 SLP231 T01500089,KRBG,2015-04-18T06:53:00Z,43.23,-123.35,15.0,8.9,360,5,,10.0,30.221457,1023.1,,TRUE,TRUE,,,,,,,CLR,,,,,,,,VFR,,,,,,,,,,,,METAR,154.0
KRBD 180653Z 00000KT 10SM SCT090 OVC110 17/16 A2994 RMK AO2 RAB38E51 SLP133 P0000 T01670161,KRBD,2015-04-18T06:53:00Z,32.68,-96.87,16.7,16.1,0,0,,10.0,29.940945,1013.3,,,TRUE,,,,,,,SCT,9000,OVC,11000,,,,,VFR,,,,,,0.0050,,,,,,METAR,203.0
KRKP 180653Z AUTO 10017KT 10SM -RA 23/21 A2982 RMK AO2 PK WND 08026/0621 RAE07B35 SLP098 P0000 T02280206 $,KRKP,2015-04-18T06:53:00Z,28.08,-97.05,22.8,20.6,100,17,,10.0,29.819881,1009.8,,TRUE,TRUE,TRUE,,,,,-RA,,,,,,,,,,,,,,,0.0050,,,,,,METAR,6.0
KRIW 180653Z AUTO 02005KT 10SM CLR 04/01 A3011 RMK AO2 SLP179 T00390011 401440000,KRIW,2015-04-18T06:53:00Z,43.07,-108.47,3.9,1.1,20,5,,10.0,30.109253,1017.9,,TRUE,TRUE,,,,,,,CLR,,,,,,,,VFR,,,,14.4,,,,,,,,SPECI,1697.0
KRME 180653Z AUTO 00000KT 5SM BR FEW006 04/03 A2997 RMK AO2 SLP151 T00440033,KRME,2015-04-18T06:53:00Z,43.22,-75.4,4.4,3.3,0,0,,5.0,29.970472,1015.1,,TRUE,TRUE,,,,,,BR,FEW,600,,,,,,,MVFR,,,,,,,,,,,,METAR,154.0
KRMG 180653Z AUTO 00000KT 8SM SCT014 OVC021 17/16 A3000 RMK AO2 SLP152 T01670161,KRMG,2015-04-18T06:53:00Z,34.35,-85.17,16.7,16.1,0,0,,8.0,30.0,1015.2,,TRUE,TRUE,,,,,,,SCT,1400,OVC,2100,,,,,MVFR,,,,,,,,,,,,SPECI,193.0
KRNM 180653Z AUTO 00000KT 10SM CLR 08/M04 A3006 RMK AO2 SLP170 T00781039,KRNM,2015-04-18T06:53:00Z,33.03,-116.92,7.8,-3.9,0,0,,10.0,30.059055,1017.0,,TRUE,TRUE,,,,,,,CLR,,,,,,,,VFR,,,,,,,,,,,,SPECI,427.0
KRNT 180653Z AUTO 31004KT 10SM CLR 12/07 A3031 RMK AO2 SLP268 T01170072,KRNT,2015-04-18T06:53:00Z,47.5,-122.22,11.7,7.2,310,4,,10.0,30.31004,1026.8,,TRUE,TRUE,,,,,,,CLR,,,,,,,,VFR,,,,,,,,,,,,METAR,21.0
KRXE 180653Z AUTO 20006KT 10SM CLR 08/M04 A3004 RMK AO2 SLP154 T00781039 402001028,KRXE,2015-04-18T06:53:00Z,43.83,-111.8,7.8,-3.9,200,6,,10.0,30.041338,1015.4,,TRUE,TRUE,,,,,,,CLR,,,,,,,,VFR,,,,20.0,-2.8,,,,,,,METAR,1480.0
KRWL 180653Z AUTO 03008KT 10SM SCT005 OVC018 00/M01 A3008 RMK AO2 SLP188 T00001006 400280000 $,KRWL,2015-04-18T06:53:00Z,41.78,-107.2,0.0,-0.6,30,8,,10.0,30.079725,1018.8,,TRUE,TRUE,TRUE,,,,,,SCT,500,OVC,1800,,,,,MVFR,,,,2.8,,,,,,,,METAR,2077.0
KRWF 180653Z AUTO 35004KT 10SM CLR 13/M07 A3005 RMK AO2 SLP173 T01281067,KRWF,2015-04-18T06:53:00Z,44.55,-95.08,12.8,-6.7,350,4,,10.0,30.050198,1017.3,,TRUE,TRUE,,,,,,,CLR,,,,,,,,VFR,,,,,,,,,,,,METAR,311.0
KRUE 180653Z AUTO 11003KT 10SM CLR 18/17 A2999 RMK AO2 SLP149 T01830167,KRUE,2015-04-18T06:53:00Z,35.25,-93.1,18.3,16.7,110,3,,10.0,29.991142,1014.9,,TRUE,TRUE,,,,,,,CLR,,,,,,,,VFR,,,,,,,,,,,,METAR,115.0
KRTN 180653Z AUTO 36007KT 10SM CLR 01/M05 A2999 RMK AO2 SLP123 T00111050 401331011,KRTN,2015-04-18T06:53:00Z,36.73,-104.5,1.1,-5.0,360,7,,10.0,29.991142,1012.3,,TRUE,TRUE,,,,,,,CLR,,,,,,,,VFR,,,,13.3,-1.1,,,,,,,METAR,1936.0
KRSW 180653Z AUTO 07003KT 10SM CLR 22/21 A2998 RMK AO2 SLP148 T02220206,KRSW,2015-04-18T06:53:00Z,26.53,-81.75,22.2,20.6,70,3,,10.0,29.97933,1014.8,,TRUE,TRUE,,,,,,,CLR,,,,,,,,VFR,,,,,,,,,,,,METAR,10.0
KSAV 180653Z AUTO 11003KT 5SM RA BR BKN003 BKN022 OVC090 20/19 A2998 RMK AO2 SLP151 P0009 T02000189 TSNO,KSAV,2015-04-18T06:53:00Z,32.12,-81.2,20.0,18.9,110,3,,5.0,29.97933,1015.1,,TRUE,TRUE,,,TRUE,,,RA BR,BKN,300,BKN,2200,OVC,9000,,,LIFR,,,,,,0.09,,,,,,SPECI,14.0
KSBA 180653Z 13005KT 10SM CLR 15/11 A3000 RMK AO2 SLP159 T01500106,KSBA,2015-04-18T06:53:00Z,34.43,-119.85,15.0,10.6,130,5,,10.0,30.0,1015.9,,,TRUE,,,,,,,CLR,,,,,,,,VFR,,,,,,,,,,,,METAR,3.0
KTLH 180653Z AUTO 17003KT 9SM BKN007 BKN048 23/22 A2993 RMK AO2 CIG 004V013 SLP134 T02330222 $,KTLH,2015-04-18T06:53:00Z,30.4,-84.35,23.3,22.2,170,3,,9.0,29.929134,1013.4,,TRUE,TRUE,TRUE,,,,,,BKN,700,BKN,4800,,,,,IFR,,,,,,,,,,,,SPECI,19.0
KTMB 180653Z AUTO 19004KT 10SM SCT055 24/22 A2998 RMK AO2 SLP152 T02390217,KTMB,2015-04-18T06:53:00Z,25.65,-80.43,23.9,21.7,190,4,,10.0,29.97933,1015.2,,TRUE,TRUE,,,,,,,SCT,5500,,,,,,,VFR,,,,,,,,,,,,SPECI,2.0
KUAO 180653Z AUTO 06004KT 10SM CLR 12/06 A3027 RMK AO2 SLP249 T01170056,KUAO,2015-04-18T06:53:00Z,45.25,-122.77,11.7,5.6,60,4,,10.0,30.268702,1024.9,,TRUE,TRUE,,,,,,,CLR,,,,,,,,VFR,,,,,,,,,,,,SPECI,59.0
KUIL 180653Z AUTO 00000KT 8SM OVC012 08/07 A3034 RMK AO2 SLP274 T00830072,KUIL,2015-04-18T06:53:00Z,47.93,-124.55,8.3,7.2,0,0,,8.0,30.339567,1027.4,,TRUE,TRUE,,,,,,,OVC,1200,,,,,,,MVFR,,,,,,,,,,,,SPECI,54.0
KUUU 180653Z AUTO 00000KT 10SM CLR 09/09 A2992 RMK AO2 SLP130 T00890089,KUUU,2015-04-18T06:53:00Z,41.53,-71.28,8.9,8.9,0,0,,10.0,29.920275,1013.0,,TRUE,TRUE,,,,,,,CLR,,,,,,,,VFR,,,,,,,,,,,,SPECI,51.0
KVEL 180653Z AUTO 17005KT 10SM BKN044 07/01 A3005 RMK AO2 SLP157 T00670006 401110050,KVEL,2015-04-18T06:53:00Z,40.45,-109.52,6.7,0.6,170,5,,10.0,30.050198,1015.7,,TRUE,TRUE,,,,,,,BKN,4400,,,,,,,VFR,,,,11.1,5.0,,,,,,,SPECI,1604.0
KVGT 180653Z 36005KT 10SM CLR 17/M09 A2993 RMK AO2 SLP139 T01721089,KVGT,2015-04-18T06:53:00Z,36.22,-115.2,17.2,-8.9,360,5,,10.0,29.929134,1013.9,,,TRUE,,,,,,,CLR,,,,,,,,VFR,,,,,,,,,,,,SPECI,671.0
KVIH 180653Z AUTO 16008KT 10SM 17/13 A3000 RMK AO2 SLP150 T01720133 $,KVIH,2015-04-18T06:53:00Z,38.13,-91.77,17.2,13.3,160,8,,10.0,30.0,1015.0,,TRUE,TRUE,TRUE,,,,,,,,,,,,,,,,,,,,,,,,,,SPECI,333.0
KVPC 180653Z AUTO 00000KT 8SM BKN007 OVC012 17/16 A3000 RMK AO2 CIG 005V009 SLP149 T01670156,KVPC,2015-04-18T06:53:00Z,34.13,-84.85,16.7,15.6,0,0,,8.0,30.0,1014.9,,TRUE,TRUE,,,,,,,BKN,700,OVC,1200,,,,,IFR,,,,,,,,,,,,SPECI,222.0
KVRB 180653Z AUTO 00000KT 10SM SCT080 23/21 A2997 RMK AO2 SLP147 T02280206,KVRB,2015-04-18T06:53:00Z,27.65,-80.42,22.8,20.6,0,0,,10.0,29.970472,1014.7,,TRUE,TRUE,,,,,,,SCT,8000,,,,,,,VFR,,,,,,,,,,,,SPECI,10.0
KVUO 180653Z AUTO 34003KT 10SM CLR 12/07 A3026 RMK AO2 SLP247 T01220067,KVUO,2015-04-18T06:53:00Z,45.62,-122.65,12.2,6.7,340,3,,10.0,30.259842,1024.7,,TRUE,TRUE,,,,,,,CLR,,,,,,,,VFR,,,,,,,,,,,,SPECI,8.0
PASI 180653Z 11009KT 10SM FEW041 BKN048 OVC100 06/02 A3039 RMK AO2 SLP290 T00610017,PASI,2015-04-18T06:53:00Z,57.07,-135.35,6.1,1.7,110,9,,10.0,30.389763,1029.0,,,TRUE,,,,,,,FEW,4100,BKN,4800,OVC,10000,,,VFR,,,,,,,,,,,,SPECI,5.0
PASO 180653Z AUTO 02009G18KT 3SM RA BR OVC020 03/02 A2950 RMK AO2 SLP990 P0007 T00330017 TSNO,PASO,2015-04-18T06:53:00Z,59.45,-151.7,3.3,1.7,20,9,18,3.0,29.500984,999.0,,TRUE,TRUE,,,TRUE,,,RA BR,OVC,2000,,,,,,,MVFR,,,,,,0.07,,,,,,SPECI,9.0
PATK 180653Z AUTO 29003KT 10SM OVC090 04/M04 A2983 RMK AO2 SLP106 T00441039 TSNO,PATK,2015-04-18T06:53:00Z,62.3,-150.1,4.4,-3.9,290,3,,10.0,29.828741,1010.6,,TRUE,TRUE,,,TRUE,,,,OVC,9000,,,,,,,VFR,,,,,,,,,,,,SPECI,109.0
KCQC 180653Z AUTO 30011KT 10SM CLR 00/M04 A3001 RMK AO2 SLP141 T00001044 401061061,KCQC,2015-04-18T06:53:00Z,35.0,-105.67,0.0,-4.4,300,11,,10.0,30.008858,1014.1,,TRUE,TRUE,,,,,,,CLR,,,,,,,,VFR,,,,10.6,-6.1,,,,,,,METAR,2160.0
K6R6 180653Z AUTO 04004KT 19/17 A2993 RMK AO1 SLP102 T01940172,K6R6,2015-04-18T06:53:00Z,30.05,-102.22,19.4,17.2,40,4,,,29.929134,1010.2,,TRUE,TRUE,,,,,,,,,,,,,,,,,,,,,,,,,,,METAR,701.0
KRSL 180653Z AUTO 18006KT 10SM SCT060 BKN080 14/13 A2992 RMK AO2 SLP123 T01440128,KRSL,2015-04-18T06:53:00Z,38.87,-98.82,14.4,12.8,180,6,,10.0,29.920275,1012.3,,TRUE,TRUE,,,,,,,SCT,6000,BKN,8000,,,,,VFR,,,,,,,,,,,,METAR,567.0
FASB 180653Z 07016G27KT CAVOK 15/00 Q1023,FASB,2015-04-18T06:53:00Z,-29.68,17.93,15.0,0.0,70,16,27,6.21,30.206694,,,,,,,,,,,CAVOK,,,,,,,,VFR,,,,,,,,,,,,SPECI,813.0
KMIC 180653Z AUTO 00000KT 9SM CLR 08/01 A3005 RMK AO2 SLP175 T00830011,KMIC,2015-04-18T06:53:00Z,45.07,-93.35,8.3,1.1,0,0,,9.0,30.050198,1017.5,,TRUE,TRUE,,,,,,,CLR,,,,,,,,VFR,,,,,,,,,,,,METAR,265.0
KMCW 180653Z AUTO 02003KT 10SM BKN080 12/06 A3005 RMK AO2 SLP168 T01170061,KMCW,2015-04-18T06:53:00Z,43.15,-93.33,11.7,6.1,20,3,,10.0,30.050198,1016.8,,TRUE,TRUE,,,,,,,BKN,8000,,,,,,,VFR,,,,,,,,,,,,METAR,369.0
KFVE 180653Z AUTO 33009KT 10SM OVC045 01/M05 A2988 RMK AO2 SLP120 T00111050,KFVE,2015-04-18T06:53:00Z,47.28,-68.3,1.1,-5.0,330,9,,10.0,29.878937,1012.0,,TRUE,TRUE,,,,,,,OVC,4500,,,,,,,VFR,,,,,,,,,,,,METAR,301.0
KSMF 180653Z 17006KT 10SM CLR 15/06 A2998 RMK AO2 SLP153 T01500056,KSMF,2015-04-18T06:53:00Z,38.7,-121.6,15.0,5.6,170,6,,10.0,29.97933,1015.3,,,TRUE,,,,,,,CLR,,,,,,,,VFR,,,,,,,,,,,,METAR,6.0
KSJC 180653Z 00000KT 10SM CLR 13/09 A3007 RMK AO2 SLP182 T01280094,KSJC,2015-04-18T06:53:00Z,37.37,-121.92,12.8,9.4,0,0,,10.0,30.070866,1018.2,,,TRUE,,,,,,,CLR,,,,,,,,VFR,,,,,,,,,,,,METAR,24.0
KSIY 180653Z AUTO 01008KT 10SM CLR 12/03 A3016 RMK AO2 SLP213 T01170033,KSIY,2015-04-18T06:53:00Z,41.77,-122.47,11.7,3.3,10,8,,10.0,30.159449,1021.3,,TRUE,TRUE,,,,,,,CLR,,,,,,,,VFR,,,,,,,,,,,,METAR,807.0
KSAC 180653Z AUTO 21004KT 10SM CLR 16/06 A3000 RMK AO2 SLP157 T01560061,KSAC,2015-04-18T06:53:00Z,38.5,-121.5,15.6,6.1,210,4,,10.0,30.0,1015.7,,TRUE,TRUE,,,,,,,CLR,,,,,,,,VFR,,,,,,,,,,,,METAR,11.0
KRDD 180653Z AUTO 00000KT 10SM CLR 16/07 A3000 RMK AO2 SLP155 T01560072,KRDD,2015-04-18T06:53:00Z,40.52,-122.3,15.6,7.2,0,0,,10.0,30.0,1015.5,,TRUE,TRUE,,,,,,,CLR,,,,,,,,VFR,,,,,,,,,,,,METAR,155.0
KPRB 180653Z AUTO 29006KT 10SM CLR 14/M01 A3006 RMK AO2 SLP175 T01391006 TSNO,KPRB,2015-04-18T06:53:00Z,35.67,-120.63,13.9,-0.6,290,6,,10.0,30.059055,1017.5,,TRUE,TRUE,,,TRUE,,,,CLR,,,,,,,,VFR,,,,,,,,,,,,METAR,245.0
KOVE 180653Z AUTO 08007KT 10SM CLR 19/05 A3001 RMK AO2 SLP162 T01890050 $,KOVE,2015-04-18T06:53:00Z,39.5,-121.62,18.9,5.0,80,7,,10.0,30.008858,1016.2,,TRUE,TRUE,TRUE,,,,,,CLR,,,,,,,,VFR,,,,,,,,,,,,METAR,58.0
KOAK 180653Z 30010KT 10SM FEW007 SCT150 10/08 A3007 RMK AO2 SLP183 T01000083,KOAK,2015-04-18T06:53:00Z,37.72,-122.23,10.0,8.3,300,10,,10.0,30.070866,1018.3,,,TRUE,,,,,,,FEW,700,SCT,15000,,,,,VFR,,,,,,,,,,,,METAR,26.0
KMYV 180653Z AUTO 05003KT 10SM CLR 16/07 A2999 RMK AO2 SLP159 T01560067,KMYV,2015-04-18T06:53:00Z,39.1,-121.57,15.6,6.7,50,3,,10.0,29.991142,1015.9,,TRUE,TRUE,,,,,,,CLR,,,,,,,,VFR,,,,,,,,,,,,METAR,21.0
KMOD 180653Z AUTO 04003KT 10SM CLR 18/01 A3000 RMK AO2 SLP158 T01780011,KMOD,2015-04-18T06:53:00Z,37.62,-120.95,17.8,1.1,40,3,,10.0,30.0,1015.8,,TRUE,TRUE,,,,,,,CLR,,,,,,,,VFR,,,,,,,,,,,,METAR,29.0
KMCE 180653Z AUTO 23003KT 10SM CLR 14/04 A3001 RMK AO2 SLP160 T01390044,KMCE,2015-04-18T06:53:00Z,37.28,-120.5,13.9,4.4,230,3,,10.0,30.008858,1016.0,,TRUE,TRUE,,,,,,,CLR,,,,,,,,VFR,,,,,,,,,,,,METAR,47.0
KMAE 180653Z AUTO 31004KT 10SM CLR 16/04 A3002 RMK AO2 SLP162 T01560044,KMAE,2015-04-18T06:53:00Z,36.98,-120.12,15.6,4.4,310,4,,10.0,30.02067,1016.2,,TRUE,TRUE,,,,,,,CLR,,,,,,,,VFR,,,,,,,,,,,,METAR,77.0
KVCB 180653Z AUTO 22006KT 10SM CLR 16/07 A3000 RMK AO2 SLP158 T01560067,KVCB,2015-04-18T06:53:00Z,38.38,-121.95,15.6,6.7,220,6,,10.0,30.0,1015.8,,TRUE,TRUE,,,,,,,CLR,,,,,,,,VFR,,,,,,,,,,,,METAR,33.0
KTVL 180653Z AUTO 18003KT 10SM CLR 03/M03 A3021 RMK AO2 SLP199 T00331028,KTVL,2015-04-18T06:53:00Z,38.9,-120.0,3.3,-2.8,180,3,,10.0,30.209646,1019.9,,TRUE,TRUE,,,,,,,CLR,,,,,,,,VFR,,,,,,,,,,,,METAR,1924.0
KSNS 180653Z 30005KT 7SM OVC005 11/08 A3009 RMK AO2 SLP199 T01110083,KSNS,2015-04-18T06:53:00Z,36.67,-121.6,11.1,8.3,300,5,,7.0,30.088583,1019.9,,,TRUE,,,,,,,OVC,500,,,,,,,IFR,,,,,,,,,,,,METAR,30.0
PASC 180653Z 05013KT 8SM CLR M18/M21 A3013 RMK AO2 SLP203 I1000 T11781206,PASC,2015-04-18T06:53:00Z,70.2,-148.47,-17.8,-20.6,50,13,,8.0,30.129921,1020.3,,,TRUE,,,,,,,CLR,,,,,,,,VFR,,,,,,,,,,,,METAR,15.0
PAPB 180653Z AUTO 02029G43KT 9SM -SN OVC013 M03/M06 A2945 RMK AO2 PK WND 02044/0624 SLP960 P0000 T10331061 TSNO $,PAPB,2015-04-18T06:53:00Z,56.58,-169.67,-3.3,-6.1,20,29,43,9.0,29.450787,996.0,,TRUE,TRUE,TRUE,,TRUE,,,-SN,OVC,1300,,,,,,,MVFR,,,,,,0.0050,,,,,,METAR,35.0
PAOT 180653Z 09003KT 10SM OVC026 M10/M13 A2991 RMK AO2 SLP127 T11001128,PAOT,2015-04-18T06:53:00Z,66.87,-162.58,-10.0,-12.8,90,3,,10.0,29.911417,1012.7,,,TRUE,,,,,,,OVC,2600,,,,,,,MVFR,,,,,,,,,,,,METAR,3.0
PAOR 180653Z 07005KT 10SM SCT090 SCT140 BKN190 M02/M09 A2995 RMK AO2 SLP167 T10221089 PNO,PAOR,2015-04-18T06:53:00Z,62.97,-141.93,-2.2,-8.9,70,5,,10.0,29.949802,1016.7,,,TRUE,,,,,,,SCT,9000,SCT,14000,BKN,19000,,,VFR,,,,,,,,,,,,METAR,523.0
PANT 180653Z AUTO 00000KT 10SM SCT120 05/03 A3048 RMK AO2 SLP322 T00500033 TSNO,PANT,2015-04-18T06:53:00Z,55.03,-131.57,5.0,3.3,0,0,,10.0,30.481298,1032.2,,TRUE,TRUE,,,TRUE,,,,SCT,12000,,,,,,,VFR,,,,,,,,,,,,SPECI,36.0
PANN 180653Z AUTO 00000KT 10SM CLR 03/M09 A2981 RMK AO2 SLP104 T00331089 TSNO,PANN,2015-04-18T06:53:00Z,64.55,-149.08,3.3,-8.9,0,0,,10.0,29.811024,1010.4,,TRUE,TRUE,,,TRUE,,,,CLR,,,,,,,,VFR,,,,,,,,,,,,SPECI,110.0
PANC 180653Z 29008KT 10SM FEW030 BKN075 BKN140 OVC200 04/M02 A2977 RMK AO2 SLP082 T00391022,PANC,2015-04-18T06:53:00Z,61.17,-150.02,3.9,-2.2,290,8,,10.0,29.769686,1008.2,,,TRUE,,,,,,,FEW,3000,BKN,7500,BKN,14000,OVC,20000,VFR,,,,,,,,,,,,SPECI,38.0
PAMR 180653Z 00000KT 10SM BKN080 OVC130 06/M05 A2976 RMK AO2 SLP081 T00561050,PAMR,2015-04-18T06:53:00Z,61.22,-149.85,5.6,-5.0,0,0,,10.0,29.760826,1008.1,,,TRUE,,,,,,,BKN,8000,OVC,13000,,,,,VFR,,,,,,,,,,,,METAR,41.0
PAMC 180653Z AUTO 10014G19KT 10SM BKN110 04/M06 A2963 RMK AO2 SLP040 T00441061 TSNO,PAMC,2015-04-18T06:53:00Z,62.97,-155.62,4.4,-6.1,100,14,19,10.0,29.630905,1004.0,,TRUE,TRUE,,,TRUE,,,,BKN,11000,,,,,,,VFR,,,,,,,,,,,,SPECI,103.0
PALH 180653Z 29008KT 10SM OVC070 04/M02 A2978 RMK AO2 SLP083 T00391022,PALH,2015-04-18T06:53:00Z,61.18,-149.97,3.9,-2.2,290,8,,10.0,29.778543,1008.3,,,TRUE,,,,,,,OVC,7000,,,,,,,VFR,,,,,,,,,,,,METAR,22.0
PAKW 180653Z AUTO 00000KT 10SM OVC095 05/02 A3045 RMK AO2 SLP311 T00500022 TSNO,PAKW,2015-04-18T06:53:00Z,55.58,-133.07,5.0,2.2,0,0,,10.0,30.448818,1031.1,,TRUE,TRUE,,,TRUE,,,,OVC,9500,,,,,,,VFR,,,,,,,,,,,,METAR,15.0
PAKV 180653Z AUTO 03005KT 10SM FEW019 M04/M09 A2981 RMK AO1 SLP098 T10441089 TSNO,PAKV,2015-04-18T06:53:00Z,64.33,-158.75,-4.4,-8.9,30,5,,10.0,29.811024,1009.8,,TRUE,TRUE,,,TRUE,,,,FEW,1900,,,,,,,VFR,,,,,,,,,,,,SPECI,61.0
PAKT 180653Z AUTO 00000KT 10SM BKN045 05/02 A3048 RMK AO2 SLP324 T00500017 TSNO,PAKT,2015-04-18T06:53:00Z,55.35,-131.7,5.0,1.7,0,0,,10.0,30.481298,1032.4,,TRUE,TRUE,,,TRUE,,,,BKN,4500,,,,,,,VFR,,,,,,,,,,,,SPECI,28.0
PAJN 180653Z 09005KT 10SM FEW050 BKN060 OVC130 03/02 A3040 RMK AO2 SLP293 T00330022,PAJN,2015-04-18T06:53:00Z,58.37,-134.58,3.3,2.2,90,5,,10.0,30.398623,1029.3,,,TRUE,,,,,,,FEW,5000,BKN,6000,OVC,13000,,,VFR,,,,,,,,,,,,SPECI,5.0
PAHO 180653Z AUTO 06015G20KT 6SM -RA BR OVC019 05/03 A2954 RMK AO2 SLP003 P0005 T00500028 TSNO,PAHO,2015-04-18T06:53:00Z,59.63,-151.5,5.0,2.8,60,15,20,6.0,29.53937,1000.3,,TRUE,TRUE,,,TRUE,,,-RA BR,OVC,1900,,,,,,,MVFR,,,,,,0.05,,,,,,SPECI,28.0
PAGY 180653Z AUTO 20007G16KT 10SM BKN080 06/M01 A3034 RMK AO2 SLP273 T00611006 TSNO,PAGY,2015-04-18T06:53:00Z,59.47,-135.3,6.1,-0.6,200,7,16,10.0,30.339567,1027.3,,TRUE,TRUE,,,TRUE,,,,BKN,8000,,,,,,,VFR,,,,,,,,,,,,SPECI,5.0
PAGK 180653Z AUTO 16008KT 10SM CLR 01/M08 A2997 RMK AO2 SLP172 T00061078 TSNO,PAGK,2015-04-18T06:53:00Z,62.15,-145.45,0.6,-7.8,160,8,,10.0,29.970472,1017.2,,TRUE,TRUE,,,TRUE,,,,CLR,,,,,,,,VFR,,,,,,,,,,,,SPECI,481.0
PAFA 180653Z 06005KT 10SM FEW100 SCT200 02/M06 A2985 RMK AO2 SLP116 T00221061 $,PAFA,2015-04-18T06:53:00Z,64.8,-147.88,2.2,-6.1,60,5,,10.0,29.84941,1011.6,,,TRUE,TRUE,,,,,,FEW,10000,SCT,20000,,,,,VFR,,,,,,,,,,,,SPECI,132.0
PAEN 180653Z AUTO 03013KT 10SM BKN055 OVC070 03/M02 A2970 RMK AO2 SLP060 T00281022 TSNO,PAEN,2015-04-18T06:53:00Z,60.57,-151.25,2.8,-2.2,30,13,,10.0,29.698818,1006.0,,TRUE,TRUE,,,TRUE,,,,BKN,5500,OVC,7000,,,,,VFR,,,,,,,,,,,,SPECI,27.0
PAEG 180653Z AUTO 00000KT 10SM SCT100 M01/M08 A2995 RMK AO2 SLP150 T10061083 TSNO $,PAEG,2015-04-18T06:53:00Z,64.78,-141.15,-0.6,-8.3,0,0,,10.0,29.949802,1015.0,,TRUE,TRUE,TRUE,,TRUE,,,,SCT,10000,,,,,,,VFR,,,,,,,,,,,,SPECI,268.0
PADE 180653Z AUTO 27010KT 5SM HZ OVC028 M12/M15 A2991 RMK AO2 SNE20 SLP128 P0000 T11221150 TSNO,PADE,2015-04-18T06:53:00Z,66.07,-162.77,-12.2,-15.0,270,10,,5.0,29.911417,1012.8,,TRUE,TRUE,,,TRUE,,,HZ,OVC,2800,,,,,,,MVFR,,,,,,0.0050,,,,,,SPECI,5.0
PACV 180653Z 10016G35KT 10SM FEW036 OVC048 04/M02 A3004 RMK AO2 PK WND 11035/0652 RAB0558E10B41E53 SLP174 P0000 T00441022 $,PACV,2015-04-18T06:53:00Z,60.5,-145.5,4.4,-2.2,100,16,35,10.0,30.041338,1017.4,,,TRUE,TRUE,,,,,,FEW,3600,OVC,4800,,,,,VFR,,,,,,0.0050,,,,,,SPECI,12.0
PACD 180653Z AUTO 00000KT 10SM FEW011 OVC033 02/02 A2904 RMK AO2 RAE06B34E50 SLP835 P0000 T00220022 TSNO,PACD,2015-04-18T06:53:00Z,55.2,-162.72,2.2,2.2,0,0,,10.0,29.040354,983.5,,TRUE,TRUE,,,TRUE,,,,FEW,1100,OVC,3300,,,,,VFR,,,,,,0.0050,,,,,,SPECI,30.0
PABT 180653Z 03004KT 10SM FEW019 FEW044 SCT110 M01/M03 A2989 RMK AO2 SLP136 T10111028 PNO,PABT,2015-04-18T06:53:00Z,66.92,-151.52,-1.1,-2.8,30,4,,10.0,29.890747,1013.6,,,TRUE,,,,,,,FEW,1900,FEW,4400,SCT,11000,,,VFR,,,,,,,,,,,,SPECI,195.0
PABI 180653Z AUTO 17023G29KT 10SM CLR 04/M10 A2990 RMK AO2 PK WND 18037/0605 SLP140 T00391100 TSNO,PABI,2015-04-18T06:53:00Z,64.0,-145.73,3.9,-10.0,170,23,29,10.0,29.899607,1014.0,,TRUE,TRUE,,,TRUE,,,,CLR,,,,,,,,VFR,,,,,,,,,,,,METAR,386.0
PABE 180653Z 02015KT 10SM FEW085 01/M03 A2946 RMK AO2 SLP980 T00061028,PABE,2015-04-18T06:53:00Z,60.78,-161.85,0.6,-2.8,20,15,,10.0,29.459646,998.0,,,TRUE,,,,,,,FEW,8500,,,,,,,VFR,,,,,,,,,,,,SPECI,41.0
PAAQ 180653Z AUTO 13021G29KT 10SM FEW080 04/M04 A2982 RMK AO2 PK WND 14034/0640 SLP103 T00391039 TSNO,PAAQ,2015-04-18T06:53:00Z,61.6,-149.08,3.9,-3.9,130,21,29,10.0,29.819881,1010.3,,TRUE,TRUE,,,TRUE,,,,FEW,8000,,,,,,,VFR,,,,,,,,,,,,SPECI,73.0
KZZV 180653Z AUTO 00000KT 9SM CLR 10/08 A3002 RMK AO2 SLP163 T01000078 TSNO,KZZV,2015-04-18T06:53:00Z,39.95,-81.9,10.0,7.8,0,0,,9.0,30.02067,1016.3,,TRUE,TRUE,,,TRUE,,,,CLR,,,,,,,,VFR,,,,,,,,,,,,METAR,268.0
KYKM 180653Z AUTO 33013G20KT 10SM CLR 16/M01 A3019 RMK AO2 SLP220 T01611006,KYKM,2015-04-18T06:53:00Z,46.57,-120.53,16.1,-0.6,330,13,20,10.0,30.188976,1022.0,,TRUE,TRUE,,,,,,,CLR,,,,,,,,VFR,,,,,,,,,,,,METAR,324.0
KYIP 180653Z AUTO 25003KT 9SM CLR 11/06 A3000 RMK AO2 SLP154 T01110061 TSNO,KYIP,2015-04-18T06:53:00Z,42.23,-83.53,11.1,6.1,250,3,,9.0,30.0,1015.4,,TRUE,TRUE,,,TRUE,,,,CLR,,,,,,,,VFR,,,,,,,,,,,,METAR,215.0
KXNA 180653Z AUTO 09003KT 10SM CLR 17/15 A2998 RMK AO2 SLP142 T01670150,KXNA,2015-04-18T06:53:00Z,36.28,-94.3,16.7,15.0,90,3,,10.0,29.97933,1014.2,,TRUE,TRUE,,,,,,,CLR,,,,,,,,VFR,,,,,,,,,,,,METAR,392.0
KWST 180653Z AUTO 34003KT 10SM CLR 11/08 A2993 RMK AO2 SLP133 T01060083,KWST,2015-04-18T06:53:00Z,41.35,-71.8,10.6,8.3,340,3,,10.0,29.929134,1013.3,,TRUE,TRUE,,,,,,,CLR,,,,,,,,VFR,,,,,,,,,,,,METAR,21.0
KWRL 180653Z AUTO 17008KT 10SM CLR 05/01 A3004 RMK AO2 SLP170 T00500011 401671050,KWRL,2015-04-18T06:53:00Z,43.97,-107.95,5.0,1.1,170,8,,10.0,30.041338,1017.0,,TRUE,TRUE,,,,,,,CLR,,,,,,,,VFR,,,,16.7,-5.0,,,,,,,METAR,1271.0
KLVK 180653Z AUTO 00000KT 10SM CLR 13/03 A3004 RMK AO2 SLP169 T01330028,KLVK,2015-04-18T06:53:00Z,37.7,-121.82,13.3,2.8,0,0,,10.0,30.041338,1016.9,,TRUE,TRUE,,,,,,,CLR,,,,,,,,VFR,,,,,,,,,,,,SPECI,117.0
KLOL 180653Z AUTO 26004KT 10SM CLR 04/M14 A3010 RMK AO2 SLP182 T00441139,KLOL,2015-04-18T06:53:00Z,40.07,-118.57,4.4,-13.9,260,4,,10.0,30.100393,1018.2,,TRUE,TRUE,,,,,,,CLR,,,,,,,,VFR,,,,,,,,,,,,SPECI,1189.0
KHJO 180653Z AUTO 32007KT 10SM CLR 20/02 A3001 RMK AO2 SLP162 T02000022,KHJO,2015-04-18T06:53:00Z,36.32,-119.62,20.0,2.2,320,7,,10.0,30.008858,1016.2,,TRUE,TRUE,,,,,,,CLR,,,,,,,,VFR,,,,,,,,,,,,SPECI,74.0
KFAT 180653Z 29006KT 10SM CLR 18/03 A3001 RMK AO2 SLP160 T01780028,KFAT,2015-04-18T06:53:00Z,36.78,-119.72,17.8,2.8,290,6,,10.0,30.008858,1016.0,,,TRUE,,,,,,,CLR,,,,,,,,VFR,,,,,,,,,,,,SPECI,104.0
KCCR 180653Z 31005KT 10SM CLR 13/07 A3003 RMK AO2 SLP155 T01280067,KCCR,2015-04-18T06:53:00Z,38.0,-122.05,12.8,6.7,310,5,,10.0,30.029528,1015.5,,,TRUE,,,,,,,CLR,,,,,,,,VFR,,,,,,,,,,,,SPECI,11.0
KACV 180653Z AUTO 14006KT 7SM OVC009 11/09 A3011 RMK AO2 SLP203 T01110094 $,KACV,2015-04-18T06:53:00Z,40.98,-124.1,11.1,9.4,140,6,,7.0,30.109253,1020.3,,TRUE,TRUE,TRUE,,,,,,OVC,900,,,,,,,IFR,,,,,,,,,,,,SPECI,67.0
PHKO 180653Z 06003KT 10SM SCT035 27/14 A3003 RMK AO2 SLP171 T02670144,PHKO,2015-04-18T06:53:00Z,19.73,-156.05,26.7,14.4,60,3,,10.0,30.029528,1017.1,,,TRUE,,,,,,,SCT,3500,,,,,,,VFR,,,,,,,,,,,,METAR,27.0
PHTO 180653Z 25008KT 7SM -RA FEW028 FEW042 BKN065 21/18 A3013 RMK AO2 RAE21B50 SLP201 P0001 T02060178,PHTO,2015-04-18T06:53:00Z,19.72,-155.05,20.6,17.8,250,8,,7.0,30.129921,1020.1,,,TRUE,,,,,,-RA,FEW,2800,FEW,4200,BKN,6500,,,VFR,,,,,,0.01,,,,,,METAR,12.0
PHNL 180653Z 06013KT 10SM FEW034 24/18 A3009 RMK AO2 SLP190 T02440183,PHNL,2015-04-18T06:53:00Z,21.33,-157.92,24.4,18.3,60,13,,10.0,30.088583,1019.0,,,TRUE,,,,,,,FEW,3400,,,,,,,VFR,,,,,,,,,,,,METAR,4.0
KTKI 180653Z AUTO 07003KT 10SM SCT120 17/16 A2995 RMK AO2 RAE16 SLP142 P0000 T01670161,KTKI,2015-04-18T06:53:00Z,33.18,-96.58,16.7,16.1,70,3,,10.0,29.949802,1014.2,,TRUE,TRUE,,,,,,,SCT,12000,,,,,,,VFR,,,,,,0.0050,,,,,,SPECI,179.0
KTIW 180653Z AUTO 01006KT 10SM OVC055 12/07 A3031 RMK AO2 SLP262 T01220067,KTIW,2015-04-18T06:53:00Z,47.27,-122.58,12.2,6.7,10,6,,10.0,30.31004,1026.2,,TRUE,TRUE,,,,,,,OVC,5500,,,,,,,VFR,,,,,,,,,,,,SPECI,89.0
KTHV 180653Z AUTO 00000KT 5SM BR CLR 08/07 A2999 RMK AO2 SLP158 T00780067,KTHV,2015-04-18T06:53:00Z,39.92,-76.88,7.8,6.7,0,0,,5.0,29.991142,1015.8,,TRUE,TRUE,,,,,,BR,CLR,,,,,,,,MVFR,,,,,,,,,,,,SPECI,144.0
KTDZ 180653Z AUTO 23005KT 10SM CLR 13/04 A3001 RMK AO2 SLP161 T01280039 TSNO,KTDZ,2015-04-18T06:53:00Z,41.57,-83.48,12.8,3.9,230,5,,10.0,30.008858,1016.1,,TRUE,TRUE,,,TRUE,,,,CLR,,,,,,,,VFR,,,,,,,,,,,,SPECI,189.0
KTCC 180653Z AUTO 25003KT 10SM CLR 06/M09 A2998 RMK AO2 SLP126 T00561094 402061006,KTCC,2015-04-18T06:53:00Z,35.18,-103.6,5.6,-9.4,250,3,,10.0,29.97933,1012.6,,TRUE,TRUE,,,,,,,CLR,,,,,,,,VFR,,,,20.6,-0.6,,,,,,,SPECI,1235.0
KSWO 180653Z AUTO 12007KT 10SM FEW120 16/14 A2993 RMK AO2 SLP128 T01610144 TSNO,KSWO,2015-04-18T06:53:00Z,36.17,-97.08,16.1,14.4,120,7,,10.0,29.929134,1012.8,,TRUE,TRUE,,,TRUE,,,,FEW,12000,,,,,,,VFR,,,,,,,,,,,,SPECI,290.0
KSTP 180653Z AUTO 00000KT 8SM CLR 09/04 A3006 RMK AO2 SLP177 T00940039,KSTP,2015-04-18T06:53:00Z,44.93,-93.05,9.4,3.9,0,0,,8.0,30.059055,1017.7,,TRUE,TRUE,,,,,,,CLR,,,,,,,,VFR,,,,,,,,,,,,SPECI,219.0
KSTJ 180653Z AUTO 14003KT 10SM CLR 18/13 A2996 RMK AO2 SLP139 T01780133,KSTJ,2015-04-18T06:53:00Z,39.77,-94.92,17.8,13.3,140,3,,10.0,29.958662,1013.9,,TRUE,TRUE,,,,,,,CLR,,,,,,,,VFR,,,,,,,,,,,,SPECI,247.0
KSTC 180653Z AUTO 01006KT 10SM CLR 09/M02 A3006 RMK AO2 SLP190 T00941022,KSTC,2015-04-18T06:53:00Z,45.55,-94.05,9.4,-2.2,10,6,,10.0,30.059055,1019.0,,TRUE,TRUE,,,,,,,CLR,,,,,,,,VFR,,,,,,,,,,,,SPECI,314.0
KSSI 180653Z AUTO 00000KT 10SM BKN100 19/19 A2997 RMK AO2 SLP148 T01940189,KSSI,2015-04-18T06:53:00Z,31.15,-81.38,19.4,18.9,0,0,,10.0,29.970472,1014.8,,TRUE,TRUE,,,,,,,BKN,10000,,,,,,,VFR,,,,,,,,,,,,SPECI,6.0
KSRQ 180653Z AUTO 00000KT 10SM SCT013 23/22 A2996 RMK AO2 SLP145 T02330222,KSRQ,2015-04-18T06:53:00Z,27.4,-82.57,23.3,22.2,0,0,,10.0,29.958662,1014.5,,TRUE,TRUE,,,,,,,SCT,1300,,,,,,,VFR,,,,,,,,,,,,SPECI,18.0
KSPW 180653Z AUTO 05006KT 10SM CLR 12/01 A3003 RMK AO2 SLP167 T01220011 TSNO,KSPW,2015-04-18T06:53:00Z,43.17,-95.22,12.2,1.1,50,6,,10.0,30.029528,1016.7,,TRUE,TRUE,,,TRUE,,,,CLR,,,,,,,,VFR,,,,,,,,,,,,SPECI,403.0
KSPG 180653Z AUTO 03003KT 10SM FEW075 25/23 A2996 RMK AO2 SLP143 T02500228,KSPG,2015-04-18T06:53:00Z,27.77,-82.63,25.0,22.8,30,3,,10.0,29.958662,1014.3,,TRUE,TRUE,,,,,,,FEW,7500,,,,,,,VFR,,,,,,,,,,,,METAR,2.0
KSPB 180653Z AUTO 32008KT 10SM CLR 13/06 A3026 RMK AO2 SLP245 T01280056,KSPB,2015-04-18T06:53:00Z,45.77,-122.87,12.8,5.6,320,8,,10.0,30.259842,1024.5,,TRUE,TRUE,,,,,,,CLR,,,,,,,,VFR,,,,,,,,,,,,METAR,14.0
KSNY 180653Z AUTO 32014KT 10SM -RA OVC040 05/04 A3002 RMK AO2 SLP159 P0003 T00500039 401220050,KSNY,2015-04-18T06:53:00Z,41.1,-102.98,5.0,3.9,320,14,,10.0,30.02067,1015.9,,TRUE,TRUE,,,,,,-RA,OVC,4000,,,,,,,VFR,,,,12.2,5.0,0.03,,,,,,METAR,1307.0
KSNA 180653Z AUTO 00000KT 10SM CLR 17/09 A3003 RMK AO2 SLP168 T01670094 TSNO,KSNA,2015-04-18T06:53:00Z,33.67,-117.87,16.7,9.4,0,0,,10.0,30.029528,1016.8,,TRUE,TRUE,,,TRUE,,,,CLR,,,,,,,,VFR,,,,,,,,,,,,METAR,16.0
KSLN 180653Z AUTO 13005KT 10SM OVC085 17/14 A2994 RMK AO2 SLP129 T01720139,KSLN,2015-04-18T06:53:00Z,38.78,-97.65,17.2,13.9,130,5,,10.0,29.940945,1012.9,,TRUE,TRUE,,,,,,,OVC,8500,,,,,,,VFR,,,,,,,,,,,,METAR,385.0
KSLC 180653Z 24007KT 10SM FEW100 09/03 A3003 RMK AO2 SLP146 T00940028 401670033,KSLC,2015-04-18T06:53:00Z,40.77,-111.97,9.4,2.8,240,7,,10.0,30.029528,1014.6,,,TRUE,,,,,,,FEW,10000,,,,,,,VFR,,,,16.7,3.3,,,,,,,METAR,1286.0
KSHR 180653Z AUTO VRB03KT 10SM CLR 02/M01 A3002 RMK AO2 SLP165 T00221011 401721039,KSHR,2015-04-18T06:53:00Z,44.77,-106.97,2.2,-1.1,0,3,,10.0,30.02067,1016.5,,TRUE,TRUE,,,,,,,CLR,,,,,,,,VFR,,,,17.2,-3.9,,,,,,,METAR,1202.0
KSHN 180653Z AUTO 28003KT 10SM CLR 08/07 A3030 RMK AO2 SLP261 T00830067,KSHN,2015-04-18T06:53:00Z,47.23,-123.13,8.3,6.7,280,3,,10.0,30.301182,1026.1,,TRUE,TRUE,,,,,,,CLR,,,,,,,,VFR,,,,,,,,,,,,METAR,82.0
KSGR 180653Z AUTO 13009KT 10SM -RA BKN120 21/19 A2987 RMK AO2 SLP116 P0007 T02060189,KSGR,2015-04-18T06:53:00Z,29.62,-95.65,20.6,18.9,130,9,,10.0,29.870079,1011.6,,TRUE,TRUE,,,,,,-RA,BKN,12000,,,,,,,VFR,,,,,,0.07,,,,,,METAR,2.0
KSFF 180653Z AUTO 27005KT 10SM CLR 11/03 A3009 RMK AO2 SLP185 T01110028,KSFF,2015-04-18T06:53:00Z,47.68,-117.32,11.1,2.8,270,5,,10.0,30.088583,1018.5,,TRUE,TRUE,,,,,,,CLR,,,,,,,,VFR,,,,,,,,,,,,METAR,609.0
KSFB 180653Z AUTO 00000KT 10SM BKN110 22/21 A2998 RMK AO2 SLP149 T02220206,KSFB,2015-04-18T06:53:00Z,28.77,-81.22,22.2,20.6,0,0,,10.0,29.97933,1014.9,,TRUE,TRUE,,,,,,,BKN,11000,,,,,,,VFR,,,,,,,,,,,,METAR,17.0
KSEG 180653Z AUTO 00000KT 7SM CLR 08/07 A3001 RMK AO2 SLP161 T00780072,KSEG,2015-04-18T06:53:00Z,40.82,-76.87,7.8,7.2,0,0,,7.0,30.008858,1016.1,,TRUE,TRUE,,,,,,,CLR,,,,,,,,VFR,,,,,,,,,,,,METAR,134.0
KSEA 180653Z 02007KT 10SM FEW060 12/07 A3031 RMK AO2 SLP271 T01220067 $,KSEA,2015-04-18T06:53:00Z,47.45,-122.32,12.2,6.7,20,7,,10.0,30.31004,1027.1,,,TRUE,TRUE,,,,,,FEW,6000,,,,,,,VFR,,,,,,,,,,,,SPECI,136.0
KSDM 180653Z AUTO 00000KT 10SM CLR 17/M01 A3004 RMK AO2 SLP169 T01671006,KSDM,2015-04-18T06:53:00Z,32.58,-117.0,16.7,-0.6,0,0,,10.0,30.041338,1016.9,,TRUE,TRUE,,,,,,,CLR,,,,,,,,VFR,,,,,,,,,,,,SPECI,159.0
KSDL 180653Z 00000KT 10SM CLR 19/M06 A2997 RMK AO2 SLP132 T01941061 402560106,KSDL,2015-04-18T06:53:00Z,33.62,-111.92,19.4,-6.1,0,0,,10.0,29.970472,1013.2,,,TRUE,,,,,,,CLR,,,,,,,,VFR,,,,25.6,10.6,,,,,,,METAR,447.0
KSBM 180653Z AUTO 28006KT 10SM CLR 11/06 A3000 RMK AO2 SLP159 T01060056,KSBM,2015-04-18T06:53:00Z,43.78,-87.85,10.6,5.6,280,6,,10.0,30.0,1015.9,,TRUE,TRUE,,,,,,,CLR,,,,,,,,VFR,,,,,,,,,,,,METAR,232.0
PHJR 180653Z 06004KT 10SM CLR 24/17 A3010 RMK AO2 SLP200 T02390172,PHJR,2015-04-18T06:53:00Z,21.32,-158.07,23.9,17.2,60,4,,10.0,30.100393,1020.0,,,TRUE,,,,,,,CLR,,,,,,,,VFR,,,,,,,,,,,,METAR,15.0
PAYA 180653Z AUTO 08009G15KT 10SM FEW025 BKN120 03/01 A3028 RMK AO2 RAB29E39UPB30E38 SLP254 P0000 T00280006 TSNO,PAYA,2015-04-18T06:53:00Z,59.52,-139.67,2.8,0.6,80,9,15,10.0,30.280512,1025.4,,TRUE,TRUE,,,TRUE,,,,FEW,2500,BKN,12000,,,,,VFR,,,,,,0.0050,,,,,,SPECI,11.0
PAWD 180653Z AUTO 07007KT 7SM -RA OVC015 02/01 A2975 RMK AO2 SLP075 P0005 T00220011 TSNO,PAWD,2015-04-18T06:53:00Z,60.12,-149.42,2.2,1.1,70,7,,7.0,29.749016,1007.5,,TRUE,TRUE,,,TRUE,,,-RA,OVC,1500,,,,,,,MVFR,,,,,,0.05,,,,,,SPECI,23.0
PAVL 180653Z AUTO 00000KT 10SM SCT039 OVC046 M12/M16 A2992 RMK AO2 SLP131 T11171156 TSNO,PAVL,2015-04-18T06:53:00Z,67.73,-164.55,-11.7,-15.6,0,0,,10.0,29.920275,1013.1,,TRUE,TRUE,,,TRUE,,,,SCT,3900,OVC,4600,,,,,VFR,,,,,,,,,,,,SPECI,3.0
KTYS 180653Z 00000KT 10SM SCT085 BKN250 16/15 A3001 RMK AO2 RAB36E49 SLP156 P0000 T01610150 $,KTYS,2015-04-18T06:53:00Z,35.82,-83.98,16.1,15.0,0,0,,10.0,30.008858,1015.6,,,TRUE,TRUE,,,,,,SCT,8500,BKN,25000,,,,,VFR,,,,,,0.0050,,,,,,SPECI,302.0
KTYR 180653Z AUTO 34005KT 10SM -RA OVC100 20/18 A2994 RMK AO2 RAE36B52 SLP132 P0001 T02000178,KTYR,2015-04-18T06:53:00Z,32.37,-95.4,20.0,17.8,340,5,,10.0,29.940945,1013.2,,TRUE,TRUE,,,,,,-RA,OVC,10000,,,,,,,VFR,,,,,,0.01,,,,,,SPECI,165.0
KTXK 180653Z AUTO 11004KT 10SM FEW041 19/18 A2995 RMK AO2 SLP136 T01940178,KTXK,2015-04-18T06:53:00Z,33.45,-93.98,19.4,17.8,110,4,,10.0,29.949802,1013.6,,TRUE,TRUE,,,,,,,FEW,4100,,,,,,,VFR,,,,,,,,,,,,SPECI,111.0
KTWF 180653Z AUTO 19014KT 10SM CLR 12/M03 A3004 RMK AO2 SLP137 T01171033 402060022,KTWF,2015-04-18T06:53:00Z,42.48,-114.48,11.7,-3.3,190,14,,10.0,30.041338,1013.7,,TRUE,TRUE,,,,,,,CLR,,,,,,,,VFR,,,,20.6,2.2,,,,,,,SPECI,1266.0
KTVC 180653Z 00000KT 10SM CLR 04/03 A2998 RMK AO2 SLP156 T00440028,KTVC,2015-04-18T06:53:00Z,44.73,-85.57,4.4,2.8,0,0,,10.0,29.97933,1015.6,,,TRUE,,,,,,,CLR,,,,,,,,VFR,,,,,,,,,,,,SPECI,190.0
KTUS 180653Z 15005KT 10SM CLR 12/M08 A3005 RMK AO2 SLP148 T01221083 402440067,KTUS,2015-04-18T06:53:00Z,32.13,-110.95,12.2,-8.3,150,5,,10.0,30.050198,1014.8,,,TRUE,,,,,,,CLR,,,,,,,,VFR,,,,24.4,6.7,,,,,,,SPECI,776.0
KTUL 180653Z 00000KT 10SM SCT047 SCT100 BKN120 OVC140 18/17 A2992 RMK AO2 SLP124 FRQ LTGIC DSNT SW-W CB DSNT SW-W MOV N T01830167,KTUL,2015-04-18T06:53:00Z,36.2,-95.88,18.3,16.7,0,0,,10.0,29.920275,1012.4,,,TRUE,,,,,,,SCT,4700,SCT,10000,BKN,12000,OVC,14000,VFR,,,,,,,,,,,,SPECI,207.0
KTTN 180653Z AUTO 33005KT 10SM BKN060 14/11 A2997 RMK AO2 SLP140 T01390106,KTTN,2015-04-18T06:53:00Z,40.28,-74.82,13.9,10.6,330,5,,10.0,29.970472,1014.0,,TRUE,TRUE,,,,,,,BKN,6000,,,,,,,VFR,,,,,,,,,,,,SPECI,59.0
KTTD 180653Z AUTO 00000KT 10SM CLR 12/07 A3025 RMK AO2 SLP243 T01220067,KTTD,2015-04-18T06:53:00Z,45.55,-122.42,12.2,6.7,0,0,,10.0,30.250984,1024.3,,TRUE,TRUE,,,,,,,CLR,,,,,,,,VFR,,,,,,,,,,,,SPECI,14.0
KTRL 180653Z AUTO 33007KT 10SM -RA OVC110 18/17 A2994 RMK AO2 SLP134 P0001 T01830172,KTRL,2015-04-18T06:53:00Z,32.72,-96.27,18.3,17.2,330,7,,10.0,29.940945,1013.4,,TRUE,TRUE,,,,,,-RA,OVC,11000,,,,,,,VFR,,,,,,0.01,,,,,,SPECI,145.0
KTRI 180653Z 00000KT 10SM CLR 14/13 A3003 RMK AO2 SLP148 T01390133,KTRI,2015-04-18T06:53:00Z,36.48,-82.4,13.9,13.3,0,0,,10.0,30.029528,1014.8,,,TRUE,,,,,,,CLR,,,,,,,,VFR,,,,,,,,,,,,SPECI,474.0
KTPA 180653Z 00000KT 10SM FEW085 24/21 A2998 RMK AO2 SLP151 T02390211,KTPA,2015-04-18T06:53:00Z,27.97,-82.53,23.9,21.1,0,0,,10.0,29.97933,1015.1,,,TRUE,,,,,,,FEW,8500,,,,,,,VFR,,,,,,,,,,,,SPECI,11.0
KTOP 180653Z AUTO 00000KT 10SM CLR 16/14 A2996 RMK AO2 SLP141 T01560139,KTOP,2015-04-18T06:53:00Z,39.07,-95.63,15.6,13.9,0,0,,10.0,29.958662,1014.1,,TRUE,TRUE,,,,,,,CLR,,,,,,,,VFR,,,,,,,,,,,,SPECI,268.0
KRQE 180653Z AUTO 00000KT 10SM FEW060 SCT070 BKN095 02/M02 A3004 RMK AO2 SLP136 T00171022 401001078 TSNO,KRQE,2015-04-18T06:53:00Z,35.65,-109.07,1.7,-2.2,0,0,,10.0,30.041338,1013.6,,TRUE,TRUE,,,TRUE,,,,FEW,6000,SCT,7000,BKN,9500,,,VFR,,,,10.0,-7.8,,,,,,,SPECI,2055.0
PAWI 180653Z AUTO 06015KT 7SM FEW002 OVC090 M16/M19 A3014 RMK SLP206 T11611189 TSNO VIA AUTODIAL,PAWI,2015-04-18T06:53:00Z,70.62,-159.85,-16.1,-18.9,60,15,,7.0,30.138779,1020.6,,TRUE,,,,TRUE,,,,FEW,200,OVC,9000,,,,,VFR,,,,,,,,,,,,METAR,27.0
PAQT 180653Z AUTO 03008KT 10SM CLR M19/M22 A3016 RMK SLP215 T11941222 TSNO VIA AUTODIAL,PAQT,2015-04-18T06:53:00Z,70.22,-151.0,-19.4,-22.2,30,8,,10.0,30.159449,1021.5,,TRUE,,,,TRUE,,,,CLR,,,,,,,,VFR,,,,,,,,,,,,METAR,12.0
PABR 180653Z 04011KT 10SM BKN095 M19/M22 A3020 RMK SLP229 T11941217 VIA AUTODIAL,PABR,2015-04-18T06:53:00Z,71.28,-156.8,-19.4,-21.7,40,11,,10.0,30.200787,1022.9,,,,,,,,,,BKN,9500,,,,,,,VFR,,,,,,,,,,,,METAR,7.0
PAIL 180653Z AUTO 07022G33KT 10SM CLR 03/00 A2938 RMK PK WND 07035/0634 SLP951 T00280000 TSNO PNO $ VIA AUTODIAL,PAIL,2015-04-18T06:53:00Z,59.75,-154.92,2.8,0.0,70,22,33,10.0,29.379921,995.1,,TRUE,,TRUE,,TRUE,,,,CLR,,,,,,,,VFR,,,,,,,,,,,,METAR,49.0
KRYT 180653Z AUTO 00000KT 9SM CLR 12/09 A3000 RMK AO2 SLP153 T01170089 $,KRYT,2015-04-18T06:53:00Z,39.73,-77.43,11.7,8.9,0,0,,9.0,30.0,1015.3,,TRUE,TRUE,TRUE,,,,,,CLR,,,,,,,,VFR,,,,,,,,,,,,METAR,274.0
KCFV 180652Z AUTO 9SM CLR 17/16 A2994 RMK AO2 SLP135 T01670161,KCFV,2015-04-18T06:52:00Z,37.08,-95.57,16.7,16.1,,,,9.0,29.940945,1013.5,,TRUE,TRUE,,,,,,,CLR,,,,,,,,VFR,,,,,,,,,,,,METAR,225.0
KCNU 180652Z AUTO 18004KT 10SM CLR 17/16 A2995 RMK AO2 SLP135 T01670161,KCNU,2015-04-18T06:52:00Z,37.67,-95.48,16.7,16.1,180,4,,10.0,29.949802,1013.5,,TRUE,TRUE,,,,,,,CLR,,,,,,,,VFR,,,,,,,,,,,,METAR,297.0
KDCA 180652Z 00000KT 10SM FEW250 18/14 A2998 RMK AO2 SLP152 T01780139,KDCA,2015-04-18T06:52:00Z,38.85,-77.03,17.8,13.9,0,0,,10.0,29.97933,1015.2,,,TRUE,,,,,,,FEW,25000,,,,,,,VFR,,,,,,,,,,,,METAR,18.0
KHUT 180652Z AUTO 12004KT 10SM FEW070 SCT120 16/13 A2994 RMK AO2 SLP121 T01610133,KHUT,2015-04-18T06:52:00Z,38.07,-97.87,16.1,13.3,120,4,,10.0,29.940945,1012.1,,TRUE,TRUE,,,,,,,FEW,7000,SCT,12000,,,,,VFR,,,,,,,,,,,,METAR,467.0
KIAD 180652Z 00000KT 10SM BKN220 13/12 A2999 RMK AO2 SLP153 T01280117,KIAD,2015-04-18T06:52:00Z,38.93,-77.45,12.8,11.7,0,0,,10.0,29.991142,1015.3,,,TRUE,,,,,,,BKN,22000,,,,,,,VFR,,,,,,,,,,,,METAR,93.0
KISN 180652Z AUTO VRB03KT 10SM CLR 10/M03 A3006 RMK AO2 SLP181 T01001033,KISN,2015-04-18T06:52:00Z,48.17,-103.63,10.0,-3.3,0,3,,10.0,30.059055,1018.1,,TRUE,TRUE,,,,,,,CLR,,,,,,,,VFR,,,,,,,,,,,,METAR,579.0
KLWC 180652Z AUTO 00000KT 10SM FEW041 14/13 A2996 RMK AO2 SLP140 T01440128,KLWC,2015-04-18T06:52:00Z,39.02,-95.22,14.4,12.8,0,0,,10.0,29.958662,1014.0,,TRUE,TRUE,,,,,,,FEW,4100,,,,,,,VFR,,,,,,,,,,,,METAR,253.0
KMBG 180652Z AUTO 00000KT 10SM CLR 06/M03 A3004 RMK AO2 SLP174 T00561028,KMBG,2015-04-18T06:52:00Z,45.55,-100.42,5.6,-2.8,0,0,,10.0,30.041338,1017.4,,TRUE,TRUE,,,,,,,CLR,,,,,,,,VFR,,,,,,,,,,,,METAR,510.0
KMEB 180652Z AUTO 28004KT 3SM BR BKN120 17/17 A2999 RMK AO2 SLP153 T01720167,KMEB,2015-04-18T06:52:00Z,34.78,-79.37,17.2,16.7,280,4,,3.0,29.991142,1015.3,,TRUE,TRUE,,,,,,BR,BKN,12000,,,,,,,MVFR,,,,,,,,,,,,METAR,67.0
KMDH 180652Z AUTO 00000KT 7SM CLR 14/14 A3000 RMK AO2 SLP157 T01440139,KMDH,2015-04-18T06:52:00Z,37.78,-89.25,14.4,13.9,0,0,,7.0,30.0,1015.7,,TRUE,TRUE,,,,,,,CLR,,,,,,,,VFR,,,,,,,,,,,,METAR,130.0
KMHK 180652Z AUTO 00000KT 8SM FEW055 16/14 A2994 RMK AO2 SLP135 T01560139 TSNO,KMHK,2015-04-18T06:52:00Z,39.13,-96.68,15.6,13.9,0,0,,8.0,29.940945,1013.5,,TRUE,TRUE,,,TRUE,,,,FEW,5500,,,,,,,VFR,,,,,,,,,,,,METAR,317.0
KOKC 180652Z 31005KT 10SM FEW042 SCT100 OVC180 18/14 A2993 RMK AO2 SLP125 OCNL LTGIC DSNT E CB DSNT E T01780144 $,KOKC,2015-04-18T06:52:00Z,35.38,-97.6,17.8,14.4,310,5,,10.0,29.929134,1012.5,,,TRUE,TRUE,,,,,,FEW,4200,SCT,10000,OVC,18000,,,VFR,,,,,,,,,,,,METAR,390.0
KOMA 180652Z 12007KT 10SM BKN055 OVC090 19/12 A2997 RMK AO2 SLP143 T01940122,KOMA,2015-04-18T06:52:00Z,41.32,-95.9,19.4,12.2,120,7,,10.0,29.970472,1014.3,,,TRUE,,,,,,,BKN,5500,OVC,9000,,,,,VFR,,,,,,,,,,,,METAR,312.0
KPPF 180652Z AUTO 00000KT 10SM CLR 17/16 A2996 RMK AO2 SLP137 T01670161,KPPF,2015-04-18T06:52:00Z,37.33,-95.5,16.7,16.1,0,0,,10.0,29.958662,1013.7,,TRUE,TRUE,,,,,,,CLR,,,,,,,,VFR,,,,,,,,,,,,METAR,274.0
KSGF 180652Z 16009KT 10SM SCT070 18/15 A2998 RMK AO2 SLP142 T01780150,KSGF,2015-04-18T06:52:00Z,37.23,-93.38,17.8,15.0,160,9,,10.0,29.97933,1014.2,,,TRUE,,,,,,,SCT,7000,,,,,,,VFR,,,,,,,,,,,,METAR,390.0
KSPI 180652Z AUTO 20003KT 10SM CLR 14/11 A3002 RMK AO2 SLP163 T01440111,KSPI,2015-04-18T06:52:00Z,39.85,-89.68,14.4,11.1,200,3,,10.0,30.02067,1016.3,,TRUE,TRUE,,,,,,,CLR,,,,,,,,VFR,,,,,,,,,,,,METAR,181.0
KSPS 180652Z AUTO 00000KT 10SM OVC085 14/13 A2995 RMK AO2 SLP136 T01440133,KSPS,2015-04-18T06:52:00Z,33.98,-98.5,14.4,13.3,0,0,,10.0,29.949802,1013.6,,TRUE,TRUE,,,,,,,OVC,8500,,,,,,,VFR,,,,,,,,,,,,METAR,308.0
KSUX 180652Z 02005KT 10SM SCT075 BKN100 16/09 A3000 RMK AO2 SLP153 T01610094,KSUX,2015-04-18T06:52:00Z,42.38,-96.38,16.1,9.4,20,5,,10.0,30.0,1015.3,,,TRUE,,,,,,,SCT,7500,BKN,10000,,,,,VFR,,,,,,,,,,,,METAR,338.0
KVTN 180652Z AUTO 04007KT 10SM FEW070 OVC110 11/08 A3003 RMK AO2 SLP171 T01060083,KVTN,2015-04-18T06:52:00Z,42.87,-100.55,10.6,8.3,40,7,,10.0,30.029528,1017.1,,TRUE,TRUE,,,,,,,FEW,7000,OVC,11000,,,,,VFR,,,,,,,,,,,,METAR,788.0
KNZY 180652Z 30003KT 10SM CLR 17/09 A3003 RMK AO2 SLP168 T01670094 $,KNZY,2015-04-18T06:52:00Z,32.7,-117.22,16.7,9.4,300,3,,10.0,30.029528,1016.8,,,TRUE,TRUE,,,,,,CLR,,,,,,,,VFR,,,,,,,,,,,,METAR,8.0
NSTU 180652Z 14008KT 10SM SCT017CB BKN035 OVC110 28/25 A2987 RMK OCNL LTGIC NW AND DSNT NE CB NW AND DSNT NE SLP115 T02800252,NSTU,2015-04-18T06:52:00Z,-14.33,-170.72,28.0,25.2,140,8,,10.0,29.870079,1011.5,,,,,,,,,,SCT,1700,BKN,3500,OVC,11000,,,VFR,,,,,,,,,,,,METAR,3.0
KBML 180652Z AUTO 00000KT 10SM CLR M01/M03 A2991 RMK AO2 SLP138 T10061028,KBML,2015-04-18T06:52:00Z,44.58,-71.18,-0.6,-2.8,0,0,,10.0,29.911417,1013.8,,TRUE,TRUE,,,,,,,CLR,,,,,,,,VFR,,,,,,,,,,,,METAR,345.0
KOKB 180652Z AUTO 00000KT 10SM CLR 11/04 A3002 RMK AO2 SLP167 T01110044,KOKB,2015-04-18T06:52:00Z,33.22,-117.35,11.1,4.4,0,0,,10.0,30.02067,1016.7,,TRUE,TRUE,,,,,,,CLR,,,,,,,,VFR,,,,,,,,,,,,METAR,8.0
KMWH 180652Z AUTO 36006KT 10SM CLR 13/00 A3015 RMK AO2 SLP209 T01280000,KMWH,2015-04-18T06:52:00Z,47.2,-119.32,12.8,0.0,360,6,,10.0,30.15059,1020.9,,TRUE,TRUE,,,,,,,CLR,,,,,,,,VFR,,,,,,,,,,,,METAR,362.0
KMLI 180652Z AUTO 00000KT 10SM CLR 12/08 A3001 RMK AO2 SLP159 T01170083,KMLI,2015-04-18T06:52:00Z,41.45,-90.52,11.7,8.3,0,0,,10.0,30.008858,1015.9,,TRUE,TRUE,,,,,,,CLR,,,,,,,,VFR,,,,,,,,,,,,METAR,184.0
KMLF 180652Z AUTO 23007KT 10SM CLR 03/M02 A3006 RMK AO2 SLP162 T00331017 401721022 TSNO,KMLF,2015-04-18T06:52:00Z,38.42,-113.02,3.3,-1.7,230,7,,10.0,30.059055,1016.2,,TRUE,TRUE,,,TRUE,,,,CLR,,,,,,,,VFR,,,,17.2,-2.2,,,,,,,METAR,1534.0
KMKE 180652Z 00000KT 7SM FEW250 10/05 A3000 RMK AO2 SLP161 T01000050,KMKE,2015-04-18T06:52:00Z,42.95,-87.9,10.0,5.0,0,0,,7.0,30.0,1016.1,,,TRUE,,,,,,,FEW,25000,,,,,,,VFR,,,,,,,,,,,,METAR,206.0
KMFD 180652Z 18005KT 10SM CLR 11/06 A3003 RMK AO2 SLP166 T01060061,KMFD,2015-04-18T06:52:00Z,40.82,-82.52,10.6,6.1,180,5,,10.0,30.029528,1016.6,,,TRUE,,,,,,,CLR,,,,,,,,VFR,,,,,,,,,,,,METAR,395.0
KIOW 180652Z AUTO 00000KT 10SM CLR 13/10 A3002 RMK AO2 SLP164 T01330100,KIOW,2015-04-18T06:52:00Z,41.63,-91.55,13.3,10.0,0,0,,10.0,30.02067,1016.4,,TRUE,TRUE,,,,,,,CLR,,,,,,,,VFR,,,,,,,,,,,,METAR,198.0
KIEN 180652Z AUTO 08010KT 10SM -RA OVC055 09/08 A3005 RMK AO2 SLP175 P0004 T00940078 401000061,KIEN,2015-04-18T06:52:00Z,43.03,-102.52,9.4,7.8,80,10,,10.0,30.050198,1017.5,,TRUE,TRUE,,,,,,-RA,OVC,5500,,,,,,,VFR,,,,10.0,6.1,0.04,,,,,,METAR,998.0
KHIE 180652Z AUTO 00000KT 10SM SCT080 01/M01 A2992 RMK AO2 SLP138 T00111006 TSNO,KHIE,2015-04-18T06:52:00Z,44.37,-71.55,1.1,-0.6,0,0,,10.0,29.920275,1013.8,,TRUE,TRUE,,,TRUE,,,,SCT,8000,,,,,,,VFR,,,,,,,,,,,,METAR,318.0
KFIT 180652Z AUTO 01005KT 10SM CLR 11/06 A2993 RMK AO2 SLP135 T01110056,KFIT,2015-04-18T06:52:00Z,42.55,-71.75,11.1,5.6,10,5,,10.0,29.929134,1013.5,,TRUE,TRUE,,,,,,,CLR,,,,,,,,VFR,,,,,,,,,,,,METAR,103.0
KDVN 180652Z AUTO 00000KT 10SM CLR 13/07 A3002 RMK AO2 SLP163 T01280072,KDVN,2015-04-18T06:52:00Z,41.62,-90.58,12.8,7.2,0,0,,10.0,30.02067,1016.3,,TRUE,TRUE,,,,,,,CLR,,,,,,,,VFR,,,,,,,,,,,,METAR,230.0
KDPA 180652Z AUTO 00000KT 10SM CLR 14/09 A3001 RMK AO2 SLP159 T01390089,KDPA,2015-04-18T06:52:00Z,41.92,-88.25,13.9,8.9,0,0,,10.0,30.008858,1015.9,,TRUE,TRUE,,,,,,,CLR,,,,,,,,VFR,,,,,,,,,,,,METAR,231.0
KCVG 180652Z 00000KT 10SM FEW250 14/06 A3005 RMK AO2 SLP171 T01440061,KCVG,2015-04-18T06:52:00Z,39.05,-84.67,14.4,6.1,0,0,,10.0,30.050198,1017.1,,,TRUE,,,,,,,FEW,25000,,,,,,,VFR,,,,,,,,,,,,METAR,269.0
KCQX 180652Z AUTO 30003KT 5SM BR CLR 08/08 A2991 RMK AO2 SLP129 T00780078,KCQX,2015-04-18T06:52:00Z,41.68,-70.0,7.8,7.8,300,3,,5.0,29.911417,1012.9,,TRUE,TRUE,,,,,,BR,CLR,,,,,,,,MVFR,,,,,,,,,,,,METAR,19.0
KCLT 180652Z 00000KT 7SM -RA BKN110 OVC130 16/15 A2998 RMK AO2 SLP146 P0001 T01610150,KCLT,2015-04-18T06:52:00Z,35.22,-80.95,16.1,15.0,0,0,,7.0,29.97933,1014.6,,,TRUE,,,,,,-RA,BKN,11000,OVC,13000,,,,,VFR,,,,,,0.01,,,,,,METAR,220.0
KCID 180652Z AUTO 36005KT 10SM CLR 14/09 A3000 RMK AO2 SLP156 T01440094,KCID,2015-04-18T06:52:00Z,41.88,-91.72,14.4,9.4,360,5,,10.0,30.0,1015.6,,TRUE,TRUE,,,,,,,CLR,,,,,,,,VFR,,,,,,,,,,,,METAR,264.0
KBLH 180652Z AUTO 22008KT 10SM CLR 22/M06 A2993 RMK AO2 SLP130 T02221056,KBLH,2015-04-18T06:52:00Z,33.62,-114.72,22.2,-5.6,220,8,,10.0,29.929134,1013.0,,TRUE,TRUE,,,,,,,CLR,,,,,,,,VFR,,,,,,,,,,,,METAR,119.0
KBLF 180652Z AUTO 00000KT 10SM CLR 16/10 A3006 RMK AO2 SLP150 T01560100,KBLF,2015-04-18T06:52:00Z,37.3,-81.2,15.6,10.0,0,0,,10.0,30.059055,1015.0,,TRUE,TRUE,,,,,,,CLR,,,,,,,,VFR,,,,,,,,,,,,METAR,873.0
KATL 180652Z 07006KT 2SM -RA BR BKN004 BKN015 OVC024 17/16 A2999 RMK AO2 SFC VIS 4 SLP150 CIG 003V005 P0003 T01720161,KATL,2015-04-18T06:52:00Z,33.63,-84.45,17.2,16.1,70,6,,2.0,29.991142,1015.0,,,TRUE,,,,,,-RA BR,BKN,400,BKN,1500,OVC,2400,,,LIFR,,,,,,0.03,,,,,,METAR,296.0
KARR 180652Z AUTO 14003KT 8SM FEW075 12/07 A3002 RMK AO2 SLP163 T01170072,KARR,2015-04-18T06:52:00Z,41.77,-88.48,11.7,7.2,140,3,,8.0,30.02067,1016.3,,TRUE,TRUE,,,,,,,FEW,7500,,,,,,,VFR,,,,,,,,,,,,METAR,215.0
KALS 180652Z AUTO 06004KT 10SM CLR M04/M07 A3002 RMK AO2 SLP161 T10441067 400721050,KALS,2015-04-18T06:52:00Z,37.43,-105.87,-4.4,-6.7,60,4,,10.0,30.02067,1016.1,,TRUE,TRUE,,,,,,,CLR,,,,,,,,VFR,,,,7.2,-5.0,,,,,,,METAR,2299.0
KAFN 180652Z AUTO 16005KT 10SM CLR 05/04 A2993 RMK AO2 SLP143 T00500039,KAFN,2015-04-18T06:52:00Z,42.8,-72.0,5.0,3.9,160,5,,10.0,29.929134,1014.3,,TRUE,TRUE,,,,,,,CLR,,,,,,,,VFR,,,,,,,,,,,,METAR,313.0
KTRM 180652Z AUTO 30007KT 10SM CLR 18/00 A2993 RMK AO2 SLP136 T01830000 TSNO,KTRM,2015-04-18T06:52:00Z,33.63,-116.17,18.3,0.0,300,7,,10.0,29.929134,1013.6,,TRUE,TRUE,,,TRUE,,,,CLR,,,,,,,,VFR,,,,,,,,,,,,METAR,-35.0
KTOL 180652Z AUTO 00000KT 10SM CLR 11/06 A3001 RMK AO2 SLP159 T01060056 $,KTOL,2015-04-18T06:52:00Z,41.58,-83.8,10.6,5.6,0,0,,10.0,30.008858,1015.9,,TRUE,TRUE,TRUE,,,,,,CLR,,,,,,,,VFR,,,,,,,,,,,,METAR,210.0
KRAP 180652Z AUTO 00000KT 10SM OVC046 09/07 A3008 RMK AO2 SLP186 T00890067 401560006,KRAP,2015-04-18T06:52:00Z,44.05,-103.05,8.9,6.7,0,0,,10.0,30.079725,1018.6,,TRUE,TRUE,,,,,,,OVC,4600,,,,,,,VFR,,,,15.6,0.6,,,,,,,METAR,965.0
KPYM 180652Z AUTO 27004KT 10SM CLR 10/09 A2991 RMK AO2 SLP128 T01000089,KPYM,2015-04-18T06:52:00Z,41.92,-70.73,10.0,8.9,270,4,,10.0,29.911417,1012.8,,TRUE,TRUE,,,,,,,CLR,,,,,,,,VFR,,,,,,,,,,,,METAR,43.0
KPWK 180652Z AUTO 00000KT 10SM CLR 13/08 A3001 RMK AO2 SLP161 T01280083,KPWK,2015-04-18T06:52:00Z,42.12,-87.9,12.8,8.3,0,0,,10.0,30.008858,1016.1,,TRUE,TRUE,,,,,,,CLR,,,,,,,,VFR,,,,,,,,,,,,METAR,203.0
KNRB 180652Z AUTO 00000KT 7SM FEW070 19/18 A2996 RMK AO2 SLP144 T01890183,KNRB,2015-04-18T06:52:00Z,30.38,-81.42,18.9,18.3,0,0,,7.0,29.958662,1014.4,,TRUE,TRUE,,,,,,,FEW,7000,,,,,,,VFR,,,,,,,,,,,,SPECI,5.0
KP69 180652Z AUTO 34003KT 07/05 A3016 RMK AO1 SLP211 T00720050,KP69,2015-04-18T06:52:00Z,46.15,-115.6,7.2,5.0,340,3,,,30.159449,1021.1,,TRUE,TRUE,,,,,,,,,,,,,,,,,,,,,,,,,,,METAR,480.0
KNHK 180652Z AUTO 00000KT 10SM CLR 14/13 A2996 RMK AO2 SLP144 T01440133,KNHK,2015-04-18T06:52:00Z,38.27,-76.4,14.4,13.3,0,0,,10.0,29.958662,1014.4,,TRUE,TRUE,,,,,,,CLR,,,,,,,,VFR,,,,,,,,,,,,METAR,12.0
KBLU 180652Z AUTO 01003KT 10SM CLR 14/M04 A3018 RMK AO2 SLP153 T01441039,KBLU,2015-04-18T06:52:00Z,39.28,-120.7,14.4,-3.9,10,3,,10.0,30.180119,1015.3,,TRUE,TRUE,,,,,,,CLR,,,,,,,,VFR,,,,,,,,,,,,METAR,1609.0
KN60 180652Z AUTO 13007KT 06/M03 A3011 RMK AO1 SLP198 T00611028,KN60,2015-04-18T06:52:00Z,47.65,-101.43,6.1,-2.8,130,7,,,30.109253,1019.8,,TRUE,TRUE,,,,,,,,,,,,,,,,,,,,,,,,,,,METAR,582.0
KCDJ 180652Z AUTO 07004KT 16/15 A3000 RMK AO1 SLP151 P0022 T01610150,KCDJ,2015-04-18T06:52:00Z,39.82,-93.58,16.1,15.0,70,4,,,30.0,1015.1,,TRUE,TRUE,,,,,,,,,,,,,,,,,,,,,0.22,,,,,,METAR,234.0
KEST 180652Z AUTO 02008KT 10SM CLR 09/01 A3004 RMK AO2 SLP169 T00940011 $,KEST,2015-04-18T06:52:00Z,43.4,-94.75,9.4,1.1,20,8,,10.0,30.041338,1016.9,,TRUE,TRUE,TRUE,,,,,,CLR,,,,,,,,VFR,,,,,,,,,,,,METAR,401.0
KAQW 180652Z AUTO 00000KT 5SM BR CLR 03/02 A2997 RMK AO2 SLP151 T00330022,KAQW,2015-04-18T06:52:00Z,42.7,-73.17,3.3,2.2,0,0,,5.0,29.970472,1015.1,,TRUE,TRUE,,,,,,BR,CLR,,,,,,,,MVFR,,,,,,,,,,,,METAR,199.0
KBIS 180652Z AUTO 08006KT 10SM CLR 06/M02 A3011 RMK AO2 SLP200 T00611017,KBIS,2015-04-18T06:52:00Z,46.77,-100.75,6.1,-1.7,80,6,,10.0,30.109253,1020.0,,TRUE,TRUE,,,,,,,CLR,,,,,,,,VFR,,,,,,,,,,,,METAR,505.0
KBDR 180652Z AUTO 03003KT 10SM CLR 11/08 A2995 RMK AO2 SLP142 T01110083,KBDR,2015-04-18T06:52:00Z,41.17,-73.13,11.1,8.3,30,3,,10.0,29.949802,1014.2,,TRUE,TRUE,,,,,,,CLR,,,,,,,,VFR,,,,,,,,,,,,METAR,7.0
PATA 180652Z AUTO 06009KT 10SM CLR 02/M05 A2980 RMK AO2 SLP096 T00221050 TSNO PNO,PATA,2015-04-18T06:52:00Z,65.17,-152.1,2.2,-5.0,60,9,,10.0,29.799213,1009.6,,TRUE,TRUE,,,TRUE,,,,CLR,,,,,,,,VFR,,,,,,,,,,,,METAR,67.0
PKMR 180652Z 08008KT 15SM FEW014 SCT045 BKN110 OVC300 28/24 A2977 RMK SLP083 T02750243,PKMR,2015-04-18T06:52:00Z,7.08,171.38,27.5,24.3,80,8,,15.0,29.769686,1008.3,,,,,,,,,,FEW,1400,SCT,4500,BKN,11000,OVC,30000,VFR,,,,,,,,,,,,METAR,4.0
KCZZ 180652Z AUTO 06004KT 07/M06 A3006 RMK AO1 SLP156 T00721061,KCZZ,2015-04-18T06:52:00Z,32.63,-116.47,7.2,-6.1,60,4,,,30.059055,1015.6,,TRUE,TRUE,,,,,,,,,,,,,,,,,,,,,,,,,,,METAR,807.0
KNFW 180652Z AUTO 19004KT 10SM SCT070 BKN100 18/17 A2998 RMK AO2 SLP137 T01830172 $,KNFW,2015-04-18T06:52:00Z,32.78,-97.43,18.3,17.2,190,4,,10.0,29.97933,1013.7,,TRUE,TRUE,TRUE,,,,,,SCT,7000,BKN,10000,,,,,VFR,,,,,,,,,,,,METAR,198.0
KBAN 180652Z AUTO 00000KT 10SM CLR 01/M12 A3023 RMK AO2 SLP204 T00061122,KBAN,2015-04-18T06:52:00Z,38.35,-119.52,0.6,-12.2,0,0,,10.0,30.230314,1020.4,,TRUE,TRUE,,,,,,,CLR,,,,,,,,VFR,,,,,,,,,,,,METAR,2057.0
KABQ 180652Z 36006KT 10SM FEW090 FEW130 BKN200 06/M02 A3005 RMK AO2 SLP145 T00611017 401281011,KABQ,2015-04-18T06:52:00Z,35.05,-106.62,6.1,-1.7,360,6,,10.0,30.050198,1014.5,,,TRUE,,,,,,,FEW,9000,FEW,13000,BKN,20000,,,VFR,,,,12.8,-1.1,,,,,,,METAR,1618.0
KDRA 180652Z AUTO 01007KT 10SM CLR 14/M11 A3000 RMK AO2 SLP128 T01391106,KDRA,2015-04-18T06:52:00Z,36.62,-116.03,13.9,-10.6,10,7,,10.0,30.0,1012.8,,TRUE,TRUE,,,,,,,CLR,,,,,,,,VFR,,,,,,,,,,,,METAR,1006.0
KREO 180652Z AUTO 01005KT 11/M05 A3011 RMK AO1 SLP178 T01061050 $,KREO,2015-04-18T06:52:00Z,42.58,-117.87,10.6,-5.0,10,5,,,30.109253,1017.8,,TRUE,TRUE,TRUE,,,,,,,,,,,,,,,,,,,,,,,,,,SPECI,1235.0
KP59 180651Z AUTO 02015KT 03/01 A3010 RMK AO1 SLP199 T00330006,KP59,2015-04-18T06:51:00Z,47.47,-87.88,3.3,0.6,20,15,,,30.100393,1019.9,,TRUE,TRUE,,,,,,,,,,,,,,,,,,,,,,,,,,,METAR,190.0
KIGM 180651Z AUTO 00000KT 10SM CLR 07/M07 A3002 RMK AO2 SLP125 T00671072 402220022 TSNO $,KIGM,2015-04-18T06:51:00Z,35.25,-113.93,6.7,-7.2,0,0,,10.0,30.02067,1012.5,,TRUE,TRUE,TRUE,,TRUE,,,,CLR,,,,,,,,VFR,,,,22.2,2.2,,,,,,,METAR,1032.0
KHTS 180651Z 00000KT 10SM CLR 14/11 A3001 RMK AO2 SLP156 T01440106,KHTS,2015-04-18T06:51:00Z,38.37,-82.55,14.4,10.6,0,0,,10.0,30.008858,1015.6,,,TRUE,,,,,,,CLR,,,,,,,,VFR,,,,,,,,,,,,METAR,254.0
KHSE 180651Z AUTO 03003KT 10SM CLR 17/16 A2997 RMK AO2 SLP149 T01720161 TSNO,KHSE,2015-04-18T06:51:00Z,35.23,-75.62,17.2,16.1,30,3,,10.0,29.970472,1014.9,,TRUE,TRUE,,,TRUE,,,,CLR,,,,,,,,VFR,,,,,,,,,,,,METAR,3.0
KHDO 180651Z AUTO 02007KT 10SM CLR 17/17 A2991 RMK AO2 SLP117 T01720167,KHDO,2015-04-18T06:51:00Z,29.37,-99.17,17.2,16.7,20,7,,10.0,29.911417,1011.7,,TRUE,TRUE,,,,,,,CLR,,,,,,,,VFR,,,,,,,,,,,,METAR,282.0
KEWR 180651Z 36007KT 10SM FEW070 SCT250 14/08 A2996 RMK AO2 SLP146 T01440083,KEWR,2015-04-18T06:51:00Z,40.68,-74.17,14.4,8.3,360,7,,10.0,29.958662,1014.6,,,TRUE,,,,,,,FEW,7000,SCT,25000,,,,,VFR,,,,,,,,,,,,METAR,7.0
KERI 180651Z 17007KT 10SM CLR 11/06 A2999 RMK AO2 SLP156 T01060056,KERI,2015-04-18T06:51:00Z,42.08,-80.18,10.6,5.6,170,7,,10.0,29.991142,1015.6,,,TRUE,,,,,,,CLR,,,,,,,,VFR,,,,,,,,,,,,METAR,222.0
KELP 180651Z 12006KT 10SM FEW090 SCT140 13/M12 A3000 RMK AO2 SLP112 T01331117 402170061 $,KELP,2015-04-18T06:51:00Z,31.82,-106.38,13.3,-11.7,120,6,,10.0,30.0,1011.2,,,TRUE,TRUE,,,,,,FEW,9000,SCT,14000,,,,,VFR,,,,21.7,6.1,,,,,,,METAR,1197.0
KEKN 180651Z AUTO 00000KT 1/4SM FG VV002 09/09 A3005 RMK AO2 SLP181 T00940089 TSNO,KEKN,2015-04-18T06:51:00Z,38.88,-79.85,9.4,8.9,0,0,,0.25,30.050198,1018.1,,TRUE,TRUE,,,TRUE,,,FG,OVX,0,,,,,,,LIFR,,,,,,,,,,,200,METAR,603.0
KDAW 180651Z AUTO VRB04KT 10SM CLR 11/06 A2989 RMK AO2 SLP119 T01060056,KDAW,2015-04-18T06:51:00Z,43.28,-70.92,10.6,5.6,0,4,,10.0,29.890747,1011.9,,TRUE,TRUE,,,,,,,CLR,,,,,,,,VFR,,,,,,,,,,,,METAR,100.0
KCSG 180651Z AUTO 00000KT 10SM OVC005 17/17 A2994 RMK AO2 SLP137 T01720167,KCSG,2015-04-18T06:51:00Z,32.52,-84.95,17.2,16.7,0,0,,10.0,29.940945,1013.7,,TRUE,TRUE,,,,,,,OVC,500,,,,,,,IFR,,,,,,,,,,,,METAR,135.0
KCRP 180651Z 13007KT 10SM FEW010 SCT075 OVC120 21/19 A2985 RMK AO2 RAB35E41 SLP107 OCNL LTGIC DSNT E CB DSNT E P0000 T02060194 $,KCRP,2015-04-18T06:51:00Z,27.77,-97.5,20.6,19.4,130,7,,10.0,29.84941,1010.7,,,TRUE,TRUE,,,,,,FEW,1000,SCT,7500,OVC,12000,,,VFR,,,,,,0.0050,,,,,,METAR,14.0
KCON 180651Z AUTO 00000KT 10SM CLR 04/03 A2991 RMK AO2 SLP130 T00440033,KCON,2015-04-18T06:51:00Z,43.2,-71.5,4.4,3.3,0,0,,10.0,29.911417,1013.0,,TRUE,TRUE,,,,,,,CLR,,,,,,,,VFR,,,,,,,,,,,,METAR,103.0
KCMH 180651Z 00000KT 10SM SCT220 10/07 A3002 RMK AO2 SLP163 T01000067,KCMH,2015-04-18T06:51:00Z,40.0,-82.88,10.0,6.7,0,0,,10.0,30.02067,1016.3,,,TRUE,,,,,,,SCT,22000,,,,,,,VFR,,,,,,,,,,,,METAR,247.0
KCLE 180651Z 19004KT 10SM CLR 09/07 A3002 RMK AO2 SLP166 T00940067,KCLE,2015-04-18T06:51:00Z,41.42,-81.85,9.4,6.7,190,4,,10.0,30.02067,1016.6,,,TRUE,,,,,,,CLR,,,,,,,,VFR,,,,,,,,,,,,METAR,233.0
KCAK 180651Z 15004KT 10SM CLR 13/07 A3002 RMK AO2 SLP163 T01280067,KCAK,2015-04-18T06:51:00Z,40.92,-81.45,12.8,6.7,150,4,,10.0,30.02067,1016.3,,,TRUE,,,,,,,CLR,,,,,,,,VFR,,,,,,,,,,,,METAR,377.0
KBKW 180651Z AUTO 00000KT 10SM CLR 11/09 A3005 RMK AO2 SLP155 T01110094,KBKW,2015-04-18T06:51:00Z,37.8,-81.12,11.1,9.4,0,0,,10.0,30.050198,1015.5,,TRUE,TRUE,,,,,,,CLR,,,,,,,,VFR,,,,,,,,,,,,METAR,764.0
KBHK 180651Z AUTO 10003KT 10SM CLR 04/M02 A3007 RMK AO2 SLP182 T00441017 402001033,KBHK,2015-04-18T06:51:00Z,46.35,-104.25,4.4,-1.7,100,3,,10.0,30.070866,1018.2,,TRUE,TRUE,,,,,,,CLR,,,,,,,,VFR,,,,20.0,-3.3,,,,,,,METAR,902.0
KBDL 180651Z 16004KT 10SM CLR 09/06 A2994 RMK AO2 SLP137 T00940061,KBDL,2015-04-18T06:51:00Z,41.93,-72.68,9.4,6.1,160,4,,10.0,29.940945,1013.7,,,TRUE,,,,,,,CLR,,,,,,,,VFR,,,,,,,,,,,,METAR,60.0
KBAZ 180651Z AUTO 05007KT 10SM OVC010 20/18 A2987 RMK AO2 SLP108 T02000183,KBAZ,2015-04-18T06:51:00Z,29.72,-98.05,20.0,18.3,50,7,,10.0,29.870079,1010.8,,TRUE,TRUE,,,,,,,OVC,1000,,,,,,,MVFR,,,,,,,,,,,,METAR,195.0
KAVX 180651Z AUTO 26009KT 10SM CLR 16/M01 A3007 RMK AO2 SLP162 T01561006,KAVX,2015-04-18T06:51:00Z,33.4,-118.42,15.6,-0.6,260,9,,10.0,30.070866,1016.2,,TRUE,TRUE,,,,,,,CLR,,,,,,,,VFR,,,,,,,,,,,,METAR,482.0
KASH 180651Z AUTO 00000KT 10SM CLR 06/06 A2992 RMK AO2 T00610055 SLP380 $,KASH,2015-04-18T06:51:00Z,42.78,-71.52,6.1,5.5,0,0,,10.0,29.920275,1038.0,,TRUE,TRUE,TRUE,,,,,,CLR,,,,,,,,VFR,,,,,,,,,,,,METAR,61.0
KALB 180651Z 19003KT 10SM CLR 07/05 A2995 RMK AO2 SLP143 T00720050,KALB,2015-04-18T06:51:00Z,42.75,-73.8,7.2,5.0,190,3,,10.0,29.949802,1014.3,,,TRUE,,,,,,,CLR,,,,,,,,VFR,,,,,,,,,,,,METAR,92.0
KACT 180651Z 29004KT 10SM OVC110 19/18 A2993 RMK AO2 SLP128 T01890178,KACT,2015-04-18T06:51:00Z,31.62,-97.23,18.9,17.8,290,4,,10.0,29.929134,1012.8,,,TRUE,,,,,,,OVC,11000,,,,,,,VFR,,,,,,,,,,,,METAR,151.0
KABE 180651Z 00000KT 10SM CLR 11/09 A2999 RMK AO2 SLP153 T01060089,KABE,2015-04-18T06:51:00Z,40.65,-75.45,10.6,8.9,0,0,,10.0,29.991142,1015.3,,,TRUE,,,,,,,CLR,,,,,,,,VFR,,,,,,,,,,,,METAR,114.0
KYNG 180651Z 00000KT 10SM CLR 09/07 A3002 RMK AO2 SLP165 T00890072,KYNG,2015-04-18T06:51:00Z,41.25,-80.67,8.9,7.2,0,0,,10.0,30.02067,1016.5,,,TRUE,,,,,,,CLR,,,,,,,,VFR,,,,,,,,,,,,METAR,360.0
KVNY 180651Z 34003KT 10SM CLR 17/M03 A3002 RMK AO2 SLP157 T01721033,KVNY,2015-04-18T06:51:00Z,34.22,-118.48,17.2,-3.3,340,3,,10.0,30.02067,1015.7,,,TRUE,,,,,,,CLR,,,,,,,,VFR,,,,,,,,,,,,METAR,245.0
KVCT 180651Z AUTO 12013G23KT 10SM CLR 20/19 A2980 RMK AO2 PK WND 11029/0608 RAE19 SLP089 P0002 T02000194 TSNO,KVCT,2015-04-18T06:51:00Z,28.87,-96.93,20.0,19.4,120,13,23,10.0,29.799213,1008.9,,TRUE,TRUE,,,TRUE,,,,CLR,,,,,,,,VFR,,,,,,0.02,,,,,,METAR,31.0
KTEB 180651Z 00000KT 10SM CLR 14/08 A2995 RMK AO2 SLP143 T01440078,KTEB,2015-04-18T06:51:00Z,40.87,-74.05,14.4,7.8,0,0,,10.0,29.949802,1014.3,,,TRUE,,,,,,,CLR,,,,,,,,VFR,,,,,,,,,,,,METAR,7.0
KSTL 180651Z 18003KT 9SM SCT150 20/13 A3001 RMK AO2 SLP154 T02000128,KSTL,2015-04-18T06:51:00Z,38.75,-90.37,20.0,12.8,180,3,,9.0,30.008858,1015.4,,,TRUE,,,,,,,SCT,15000,,,,,,,VFR,,,,,,,,,,,,METAR,171.0
KSMX 180651Z AUTO 00000KT 9SM CLR 12/07 A3008 RMK AO2 SLP186 T01220072 TSNO,KSMX,2015-04-18T06:51:00Z,34.9,-120.45,12.2,7.2,0,0,,9.0,30.079725,1018.6,,TRUE,TRUE,,,TRUE,,,,CLR,,,,,,,,VFR,,,,,,,,,,,,METAR,74.0
KSMO 180651Z AUTO 00000KT 10SM CLR 16/08 A3001 RMK AO2 SLP161 T01610083,KSMO,2015-04-18T06:51:00Z,34.02,-118.45,16.1,8.3,0,0,,10.0,30.008858,1016.1,,TRUE,TRUE,,,,,,,CLR,,,,,,,,VFR,,,,,,,,,,,,METAR,57.0
KSLK 180651Z AUTO 00000KT 10SM BKN065 00/M01 A2991 RMK AO2 SLP138 T00001006,KSLK,2015-04-18T06:51:00Z,44.4,-74.2,0.0,-0.6,0,0,,10.0,29.911417,1013.8,,TRUE,TRUE,,,,,,,BKN,6500,,,,,,,VFR,,,,,,,,,,,,METAR,498.0
KSJT 180651Z 13003KT 10SM CLR 14/12 A2994 RMK AO2 SLP125 T01390122,KSJT,2015-04-18T06:51:00Z,31.37,-100.5,13.9,12.2,130,3,,10.0,29.940945,1012.5,,,TRUE,,,,,,,CLR,,,,,,,,VFR,,,,,,,,,,,,METAR,576.0
KSAT 180651Z 02003KT 10SM SCT007 20/18 A2989 RMK AO2 SLP105 T02000183,KSAT,2015-04-18T06:51:00Z,29.53,-98.47,20.0,18.3,20,3,,10.0,29.890747,1010.5,,,TRUE,,,,,,,SCT,700,,,,,,,VFR,,,,,,,,,,,,METAR,243.0
KSAN 180651Z 00000KT 10SM FEW010 18/07 A3005 RMK AO2 SLP174 T01830067,KSAN,2015-04-18T06:51:00Z,32.73,-117.18,18.3,6.7,0,0,,10.0,30.050198,1017.4,,,TRUE,,,,,,,FEW,1000,,,,,,,VFR,,,,,,,,,,,,METAR,12.0
KROW 180651Z AUTO 33007KT 10SM CLR 09/M02 A3000 RMK AO2 SLP120 T00941022 402330056,KROW,2015-04-18T06:51:00Z,33.3,-104.5,9.4,-2.2,330,7,,10.0,30.0,1012.0,,TRUE,TRUE,,,,,,,CLR,,,,,,,,VFR,,,,23.3,5.6,,,,,,,METAR,1112.0
KRDU 180651Z 00000KT 10SM OVC200 18/16 A2999 RMK AO2 SLP152 T01780161 $,KRDU,2015-04-18T06:51:00Z,35.9,-78.78,17.8,16.1,0,0,,10.0,29.991142,1015.2,,,TRUE,TRUE,,,,,,OVC,20000,,,,,,,VFR,,,,,,,,,,,,METAR,130.0
KPWM 180651Z AUTO 33007KT 10SM CLR 11/06 A2988 RMK AO2 SLP120 T01060061,KPWM,2015-04-18T06:51:00Z,43.65,-70.3,10.6,6.1,330,7,,10.0,29.878937,1012.0,,TRUE,TRUE,,,,,,,CLR,,,,,,,,VFR,,,,,,,,,,,,METAR,15.0
KPVD 180651Z AUTO 30004KT 10SM CLR 12/08 A2992 RMK AO2 SLP132 T01220078,KPVD,2015-04-18T06:51:00Z,41.72,-71.43,12.2,7.8,300,4,,10.0,29.920275,1013.2,,TRUE,TRUE,,,,,,,CLR,,,,,,,,VFR,,,,,,,,,,,,METAR,16.0
KPIT 180651Z 00000KT 10SM FEW250 10/07 A3002 RMK AO2 SLP171 T01000072,KPIT,2015-04-18T06:51:00Z,40.5,-80.27,10.0,7.2,0,0,,10.0,30.02067,1017.1,,,TRUE,,,,,,,FEW,25000,,,,,,,VFR,,,,,,,,,,,,METAR,357.0
KPHX 180651Z 10005KT 10SM CLR 21/M06 A2993 RMK AO2 SLP123 T02111061 402780128,KPHX,2015-04-18T06:51:00Z,33.43,-112.02,21.1,-6.1,100,5,,10.0,29.929134,1012.3,,,TRUE,,,,,,,CLR,,,,,,,,VFR,,,,27.8,12.8,,,,,,,METAR,336.0
KOXR 180651Z AUTO 36003KT 10SM CLR 14/08 A3002 RMK AO2 SLP164 T01440083,KOXR,2015-04-18T06:51:00Z,34.2,-119.2,14.4,8.3,360,3,,10.0,30.02067,1016.4,,TRUE,TRUE,,,,,,,CLR,,,,,,,,VFR,,,,,,,,,,,,METAR,20.0
KJFK 180651Z 00000KT 10SM CLR 13/07 A2997 RMK AO2 SLP147 T01280067,KJFK,2015-04-18T06:51:00Z,40.63,-73.77,12.8,6.7,0,0,,10.0,29.970472,1014.7,,,TRUE,,,,,,,CLR,,,,,,,,VFR,,,,,,,,,,,,METAR,9.0
KJCT 180651Z AUTO 00000KT 10SM BKN014 14/13 A2995 RMK AO2 SLP116 T01390133,KJCT,2015-04-18T06:51:00Z,30.5,-99.77,13.9,13.3,0,0,,10.0,29.949802,1011.6,,TRUE,TRUE,,,,,,,BKN,1400,,,,,,,MVFR,,,,,,,,,,,,METAR,522.0
KILG 180651Z AUTO 31003KT 10SM CLR 15/13 A2997 RMK AO2 SLP149 T01500133,KILG,2015-04-18T06:51:00Z,39.67,-75.6,15.0,13.3,310,3,,10.0,29.970472,1014.9,,TRUE,TRUE,,,,,,,CLR,,,,,,,,VFR,,,,,,,,,,,,METAR,28.0
KSAD 180651Z AUTO 33009KT 10SM CLR 13/M09 A3002 RMK AO2 SLP134 T01281094 402330017,KSAD,2015-04-18T06:51:00Z,32.85,-109.63,12.8,-9.4,330,9,,10.0,30.02067,1013.4,,TRUE,TRUE,,,,,,,CLR,,,,,,,,VFR,,,,23.3,1.7,,,,,,,METAR,962.0
KP58 180651Z AUTO 00000KT 05/03 A2994 RMK AO1 SLP142 T00500033,KP58,2015-04-18T06:51:00Z,44.02,-82.8,5.0,3.3,0,0,,,29.940945,1014.2,,TRUE,TRUE,,,,,,,,,,,,,,,,,,,,,,,,,,,METAR,179.0
KBVE 180651Z AUTO 00000KT 10SM CLR 22/20 A2993 RMK AO2 SLP133 T02220200,KBVE,2015-04-18T06:51:00Z,29.32,-89.4,22.2,20.0,0,0,,10.0,29.929134,1013.3,,TRUE,TRUE,,,,,,,CLR,,,,,,,,VFR,,,,,,,,,,,,METAR,1.0
KSNT 180651Z AUTO 15003KT 00/M05 A3017 RMK AO1 SLP163 T00001050 401831072,KSNT,2015-04-18T06:51:00Z,44.17,-114.93,0.0,-5.0,150,3,,,30.171259,1016.3,,TRUE,TRUE,,,,,,,,,,,,,,,,,,,18.3,-7.2,,,,,,,METAR,1980.0
KMPV 180651Z AUTO 30004KT 10SM CLR 09/03 A2995 RMK AO2 SLP144 T00890033,KMPV,2015-04-18T06:51:00Z,44.2,-72.57,8.9,3.3,300,4,,10.0,29.949802,1014.4,,TRUE,TRUE,,,,,,,CLR,,,,,,,,VFR,,,,,,,,,,,,METAR,343.0
KNYC 180651Z AUTO 00000KT 10SM SCT070 16/07 A2999 RMK AO2 SLP146 T01610072 $,KNYC,2015-04-18T06:51:00Z,40.78,-73.97,16.1,7.2,0,0,,10.0,29.991142,1014.6,,TRUE,TRUE,TRUE,,,,,,SCT,7000,,,,,,,VFR,,,,,,,,,,,,METAR,11.0
KQAY 180651Z AUTO 28013KT 8000 HZ CLR 26/04 A3000 RMK AO2 SLP157 $,KQAY,2015-04-18T06:51:00Z,100.65,-1000.65,26.0,4.0,280,13,,4.97,30.0,1015.7,,TRUE,TRUE,TRUE,,,,,HZ,CLR,,,,,,,,MVFR,,,,,,,,,,,,SPECI,999.0
PTKK 180651Z 03007KT 14SM -SHRA SCT013CB BKN120 OVC280 27/25 A2977 RMK SHRAB30 CB ALQDS MOV SW SLP083 T02710249,PTKK,2015-04-18T06:51:00Z,7.47,151.85,27.1,24.9,30,7,,14.0,29.769686,1008.3,,,,,,,,,-SHRA,SCT,1300,BKN,12000,OVC,28000,,,VFR,,,,,,,,,,,,METAR,2.0
KLGA 180651Z 32006KT 10SM SCT070 14/07 A2995 RMK AO2 SLP143 T01440067 $,KLGA,2015-04-18T06:51:00Z,40.78,-73.88,14.4,6.7,320,6,,10.0,29.949802,1014.3,,,TRUE,TRUE,,,,,,SCT,7000,,,,,,,VFR,,,,,,,,,,,,METAR,11.0
KLGU 180651Z AUTO VRB04KT 10SM CLR 08/01 A3004 RMK AO2 SLP155 T00780011 401830000,KLGU,2015-04-18T06:51:00Z,41.78,-111.85,7.8,1.1,0,4,,10.0,30.041338,1015.5,,TRUE,TRUE,,,,,,,CLR,,,,,,,,VFR,,,,18.3,,,,,,,,METAR,1355.0
KORD 180651Z 22004KT 10SM BKN070 18/08 A3000 RMK AO2 SLP156 T01780078,KORD,2015-04-18T06:51:00Z,41.98,-87.93,17.8,7.8,220,4,,10.0,30.0,1015.6,,,TRUE,,,,,,,BKN,7000,,,,,,,VFR,,,,,,,,,,,,METAR,200.0
KMYL 180651Z AUTO 35006KT 10SM CLR 06/00 A3013 RMK AO2 SLP186 T00610000 401831039,KMYL,2015-04-18T06:51:00Z,44.9,-116.1,6.1,0.0,350,6,,10.0,30.129921,1018.6,,TRUE,TRUE,,,,,,,CLR,,,,,,,,VFR,,,,18.3,-3.9,,,,,,,METAR,1533.0
KORF 180651Z AUTO 22006KT 10SM CLR 17/15 A2996 RMK AO2 SLP144 T01670150 TSNO,KORF,2015-04-18T06:51:00Z,36.9,-76.2,16.7,15.0,220,6,,10.0,29.958662,1014.4,,TRUE,TRUE,,,TRUE,,,,CLR,,,,,,,,VFR,,,,,,,,,,,,METAR,14.0
MUHG 180651Z 09005KT CAVOK 23/20 Q1015,MUHG,2015-04-18T06:51:00Z,20.77,-76.32,23.0,20.0,90,5,,6.21,29.970472,,,,,,,,,,,CAVOK,,,,,,,,VFR,,,,,,,,,,,,METAR,106.0
KGDP 180651Z AUTO 20007KT 10SM BKN110 12/M15 A3007 RMK AO2 SLP126 T01171150 402000072,KGDP,2015-04-18T06:51:00Z,31.83,-104.82,11.7,-15.0,200,7,,10.0,30.070866,1012.6,,TRUE,TRUE,,,,,,,BKN,11000,,,,,,,VFR,,,,20.0,7.2,,,,,,,METAR,1692.0
VGEG 180650Z 21010KT 5000 HZ FEW018 SCT120 33/24 Q1008 NOSIG,VGEG,2015-04-18T06:50:00Z,22.27,91.82,33.0,24.0,210,10,,3.11,29.763779,,,,,,TRUE,,,,HZ,FEW,1800,SCT,12000,,,,,MVFR,,,,,,,,,,,,METAR,6.0
LOXZ 180650Z 08010KT 25KM SCT040SC BKN050SC 06/00 Q1016 RMK BKN,LOXZ,2015-04-18T06:50:00Z,47.2,14.75,6.0,0.0,80,10,,15.53,30.0,,,,,,,,,,,,,,,,,,,,,,,,,,,,,,,METAR,682.0
ENHF 180650Z 22015KT 9999 SCT010 BKN015 04/03 Q1014 RMK WIND 1254FT 26019KT,ENHF,2015-04-18T06:50:00Z,70.67,23.67,4.0,3.0,220,15,,6.21,29.940945,,,,,,,,,,,SCT,1000,BKN,1500,,,,,MVFR,,,,,,,,,,,,METAR,81.0
ENBV 180650Z 28008KT 9999 FEW018 BKN036 04/M01 Q1014,ENBV,2015-04-18T06:50:00Z,70.87,29.02,4.0,-1.0,280,8,,6.21,29.940945,,,,,,,,,,,FEW,1800,BKN,3600,,,,,VFR,,,,,,,,,,,,METAR,13.0
ENSB 180650Z 12005KT 9999 FEW030 BKN060 M02/M08 Q1002 RMK WIND 1400FT 08007KT,ENSB,2015-04-18T06:50:00Z,78.25,15.47,-2.0,-8.0,120,5,,6.21,29.586615,,,,,,,,,,,FEW,3000,BKN,6000,,,,,VFR,,,,,,,,,,,,METAR,29.0
ENOA 180650Z 31007KT 9999 BKN045 07/04 Q1030 W///S3,ENOA,2015-04-18T06:50:00Z,60.5,2.83,7.0,4.0,310,7,,6.21,30.413385,,,,,,,,,,,BKN,4500,,,,,,,VFR,,,,,,,,,,,,METAR,5.0
ENEV 180650Z 24008KT 200V260 9999 -RA BKN018 04/01 Q1019 RMK WIND 1400FT 23015KT,ENEV,2015-04-18T06:50:00Z,68.52,16.67,4.0,1.0,240,8,,6.21,30.088583,,,,,,,,,,-RA,BKN,1800,,,,,,,MVFR,,,,,,,,,,,,METAR,26.0
ENBL 180650Z 01008KT 9999 FEW015 03/M00 Q1028,ENBL,2015-04-18T06:50:00Z,61.4,5.77,3.0,0.0,10,8,,6.21,30.35433,,,,,,,,,,,FEW,1500,,,,,,,VFR,,,,,,,,,,,,METAR,150.0
ENNK 180650Z 20008KT 9999 FEW020 BKN030 05/01 Q1019,ENNK,2015-04-18T06:50:00Z,68.47,17.38,5.0,1.0,200,8,,6.21,30.088583,,,,,,,,,,,FEW,2000,BKN,3000,,,,,MVFR,,,,,,,,,,,,METAR,23.0
ENLK 180650Z 09002KT 9999 FEW005 SCT010 BKN020 05/04 Q1019,ENLK,2015-04-18T06:50:00Z,68.15,13.62,5.0,4.0,90,2,,6.21,30.088583,,,,,,,,,,,FEW,500,SCT,1000,BKN,2000,,,MVFR,,,,,,,,,,,,METAR,26.0
ENBS 180650Z 30010KT 9999 FEW015 BKN035 02/M05 Q1013,ENBS,2015-04-18T06:50:00Z,70.62,29.72,2.0,-5.0,300,10,,6.21,29.911417,,,,,,,,,,,FEW,1500,BKN,3500,,,,,VFR,,,,,,,,,,,,METAR,10.0
EEPU 180650Z 34006KT CAVOK 04/01 Q1014,EEPU,2015-04-18T06:50:00Z,58.42,24.47,4.0,1.0,340,6,,6.21,29.940945,,,,,,,,,,,CAVOK,,,,,,,,VFR,,,,,,,,,,,,METAR,14.0
EETU 180650Z 35010KT 320V020 9999 FEW021CB BKN028 04/M01 Q1012,EETU,2015-04-18T06:50:00Z,58.32,26.68,4.0,-1.0,350,10,,6.21,29.88189,,,,,,,,,,,FEW,2100,BKN,2800,,,,,MVFR,,,,,,,,,,,,METAR,67.0
EEKE 180650Z 33007KT 280V360 CAVOK 06/03 Q1016 R17/0///95,EEKE,2015-04-18T06:50:00Z,58.23,22.52,6.0,3.0,330,7,,6.21,30.0,,,,,,,,,,,CAVOK,,,,,,,,VFR,,,,,,,,,,,,METAR,4.0
EEKA 180650Z 33013KT 9999 BKN011 04/02 Q1016,EEKA,2015-04-18T06:50:00Z,58.98,22.83,4.0,2.0,330,13,,6.21,30.0,,,,,,,,,,,BKN,1100,,,,,,,MVFR,,,,,,,,,,,,METAR,4.0
ENSS 180650Z 33013KT 9999 FEW015 BKN045 04/01 Q1014 RMK WIND 500FT 34015KT,ENSS,2015-04-18T06:50:00Z,70.33,31.05,4.0,1.0,330,13,,6.21,29.940945,,,,,,,,,,,FEW,1500,BKN,4500,,,,,VFR,,,,,,,,,,,,METAR,12.0
ENSG 180650Z 00000KT CAVOK 01/M03 Q1027 RMK WIND 3901FT 28013KT,ENSG,2015-04-18T06:50:00Z,61.13,7.12,1.0,-3.0,0,0,,6.21,30.324802,,,,,,,,,,,CAVOK,,,,,,,,VFR,,,,,,,,,,,,METAR,497.0
ENOV 180650Z VRB02KT 9999 FEW025 BKN045 04/02 Q1029 RMK WIND 2175FT 16008KT,ENOV,2015-04-18T06:50:00Z,62.17,6.07,4.0,2.0,0,2,,6.21,30.383858,,,,,,,,,,,FEW,2500,BKN,4500,,,,,VFR,,,,,,,,,,,,METAR,74.0
ENVD 180650Z 290008KT 9999 FEW020 04/M00 Q1014,ENVD,2015-04-18T06:50:00Z,70.07,29.85,4.0,0.0,290,8,,6.21,29.940945,,,,,,,,,,,FEW,2000,,,,,,,VFR,,,,,,,,,,,,METAR,39.0
ENRS 180650Z 22010KT 9999 VCSH FEW014 SCT035 BKN060 05/04 Q1020,ENRS,2015-04-18T06:50:00Z,67.52,12.08,5.0,4.0,220,10,,6.21,30.11811,,,,,,,,,,VCSH,FEW,1400,SCT,3500,BKN,6000,,,VFR,,,,,,,,,,,,METAR,4.0
ENMS 180650Z VRB02KT 9999 -DZ FEW008 BKN025 03/02 Q1022 RMK WIND 412FT VRB02KT,ENMS,2015-04-18T06:50:00Z,65.78,13.22,3.0,2.0,0,2,,6.21,30.177166,,,,,,,,,,-DZ,FEW,800,BKN,2500,,,,,MVFR,,,,,,,,,,,,METAR,70.0
LIPB 180650Z VRB01KT 9999 FEW060 SCT100 12/10 Q1013,LIPB,2015-04-18T06:50:00Z,46.47,11.32,12.0,10.0,0,1,,6.21,29.911417,,,,,,,,,,,FEW,6000,SCT,10000,,,,,VFR,,,,,,,,,,,,METAR,241.0
OIBP 180650Z 28004KT 9000 NSC 34/18 Q1009 A2981,OIBP,2015-04-18T06:50:00Z,27.38,52.73,34.0,18.0,280,4,,5.59,29.793306,,,,,,,,,,,,,,,,,,,,,,,,,,,,,,,METAR,9.0
EGUO 180650Z 07010KT 8000 HZ BKN018 04/02 Q1028 WHT,EGUO,2015-04-18T06:50:00Z,51.43,-2.28,4.0,2.0,70,10,,4.97,30.35433,,,,,,,,,,HZ,BKN,1800,,,,,,,MVFR,,,,,,,,,,,,METAR,13.0
EGUB 180650Z 09007KT CAVOK // Q1028 BLU NOSIG,EGUB,2015-04-18T06:50:00Z,51.62,-1.07,,,90,7,,6.21,30.35433,,,,,,TRUE,,,,,CAVOK,,,,,,,,VFR,,,,,,,,,,,,SPECI,63.0
LIPU 180650Z VRB03KT 3000 BR SCT010 BKN030 14/12 Q1012,LIPU,2015-04-18T06:50:00Z,45.38,11.83,14.0,12.0,0,3,,1.86,29.88189,,,,,,,,,,BR,SCT,1000,BKN,3000,,,,,IFR,,,,,,,,,,,,METAR,14.0
EGYM 180650Z AUTO 04006KT 9999 NCD 07/05 Q1030,EGYM,2015-04-18T06:50:00Z,52.63,0.57,7.0,5.0,40,6,,6.21,30.413385,,,TRUE,,,,,,,,,,,,,,,,,,,,,,,,,,,,METAR,23.0
EGXZ 180650Z AUTO 32005KT 9999 NCD 03/02 Q1032,EGXZ,2015-04-18T06:50:00Z,54.2,-1.38,3.0,2.0,320,5,,6.21,30.47244,,,TRUE,,,,,,,,,,,,,,,,,,,,,,,,,,,,METAR,28.0
EGXU 180650Z AUTO 31005KT 9999 // NCD 04/02 Q1032,EGXU,2015-04-18T06:50:00Z,54.05,-1.25,4.0,2.0,310,5,,6.21,30.47244,,,TRUE,,,,,,,,,,,,,,,,,,,,,,,,,,,,METAR,16.0
EGXT 180650Z AUTO 04010KT 9999 NCD 05/04 Q1029,EGXT,2015-04-18T06:50:00Z,52.62,-0.47,5.0,4.0,40,10,,6.21,30.383858,,,TRUE,,,,,,,,,,,,,,,,,,,,,,,,,,,,METAR,84.0
EGXS 180650Z AUTO 05014KT 9999 // BKN014/// 07/04 Q1031,EGXS,2015-04-18T06:50:00Z,53.48,0.15,7.0,4.0,50,14,,6.21,30.442913,,,TRUE,,,,,,,,,,,,,,,,,,,,,,,,,,,,METAR,3.0
EGXP 180650Z AUTO 04008KT 9999 // NCD 06/03 Q1030,EGXP,2015-04-18T06:50:00Z,53.3,-0.55,6.0,3.0,40,8,,6.21,30.413385,,,TRUE,,,,,,,,,,,,,,,,,,,,,,,,,,,,METAR,61.0
EGXD 180650Z AUTO 33005KT 9999 // SCT001/// 03/03 Q1032,EGXD,2015-04-18T06:50:00Z,54.13,-1.42,3.0,3.0,330,5,,6.21,30.47244,,,TRUE,,,,,,,,,,,,,,,,,,,,,,,,,,,,METAR,35.0
EGVP 180650Z AUTO 06013KT 9999 // BKN013/// 06/03 Q1027,EGVP,2015-04-18T06:50:00Z,51.13,-1.57,6.0,3.0,60,13,,6.21,30.324802,,,TRUE,,,,,,,,,,,,,,,,,,,,,,,,,,,,METAR,91.0
EGUW 180650Z AUTO 05010KT 9999 NCD 06/05 Q1029,EGUW,2015-04-18T06:50:00Z,52.12,0.97,6.0,5.0,50,10,,6.21,30.383858,,,TRUE,,,,,,,,,,,,,,,,,,,,,,,,,,,,METAR,87.0
EGQK 180650Z AUTO 23004KT 0350 FG BKN001/// 04/04 Q1033,EGQK,2015-04-18T06:50:00Z,57.65,-3.57,4.0,4.0,230,4,,0.22,30.501968,,,TRUE,,,,,,,FG,,,,,,,,,,,,,,,,,,,,,METAR,7.0
EGOW 180650Z 09012KT 9999 CAVOK 06/02 Q1031 BLU,EGOW,2015-04-18T06:50:00Z,53.58,-3.05,6.0,2.0,90,12,,6.21,30.442913,,,,,,,,,,,CAVOK,,,,,,,,VFR,,,,,,,,,,,,METAR,12.0
EGOV 180650Z AUTO 07018KT 9999 NCD 06/01 Q1029,EGOV,2015-04-18T06:50:00Z,53.25,-4.53,6.0,1.0,70,18,,6.21,30.383858,,,TRUE,,,,,,,,,,,,,,,,,,,,,,,,,,,,METAR,11.0
EGOS 180650Z AUTO 05005KT 9999 FEW019/// 05/03 Q1030,EGOS,2015-04-18T06:50:00Z,52.8,-2.67,5.0,3.0,50,5,,6.21,30.413385,,,TRUE,,,,,,,,,,,,,,,,,,,,,,,,,,,,METAR,76.0
EGOP 180650Z AUTO 08007KT 9999 // NCD 07/01 Q1027,EGOP,2015-04-18T06:50:00Z,51.72,-4.32,7.0,1.0,80,7,,6.21,30.324802,,,TRUE,,,,,,,,,,,,,,,,,,,,,,,,,,,,METAR,6.0
EGOM 180650Z AUTO 05006KT 9999 BKN010/// 03/03 Q1031,EGOM,2015-04-18T06:50:00Z,55.05,-2.55,3.0,3.0,50,6,,6.21,30.442913,,,TRUE,,,,,,,,,,,,,,,,,,,,,,,,,,,,METAR,325.0
EGDY 180650Z AUTO 06014KT 9999 NCD 06/02 Q1026,EGDY,2015-04-18T06:50:00Z,51.0,-2.62,6.0,2.0,60,14,,6.21,30.295275,,,TRUE,,,,,,,,,,,,,,,,,,,,,,,,,,,,METAR,23.0
EGDX 180650Z AUTO 08018KT 9999 BKN018/// 06/02 Q1026,EGDX,2015-04-18T06:50:00Z,51.4,-3.43,6.0,2.0,80,18,,6.21,30.295275,,,TRUE,,,,,,,,,,,,,,,,,,,,,,,,,,,,METAR,50.0
EEEI 180650Z 06004KT 010V100 9999 FEW021 05/M00 Q1015 R24/190095 NOSIG,EEEI,2015-04-18T06:50:00Z,59.27,24.2,5.0,0.0,60,4,,6.21,29.970472,,,,,,TRUE,,,,,FEW,2100,,,,,,,VFR,,,,,,,,,,,,METAR,20.0
LSZL 180650Z AUTO VRB02KT 9999NDV NCD 13/09 Q1012 RMK BLU,LSZL,2015-04-18T06:50:00Z,46.17,8.88,13.0,9.0,0,2,,,29.88189,,,TRUE,,,,,,,,,,,,,,,,,,,,,,,,,,,,SPECI,600.0
LSZS 180650Z VRB01KT 9999 FEW010 BKN038 04/04 Q1015,LSZS,2015-04-18T06:50:00Z,46.53,9.88,4.0,4.0,0,1,,6.21,29.970472,,,,,,,,,,,FEW,1000,BKN,3800,,,,,VFR,,,,,,,,,,,,METAR,1706.0
LSMS 180650Z 23004KT 9999 SCT015 BKN065 11/09 Q1016,LSMS,2015-04-18T06:50:00Z,46.22,7.32,11.0,9.0,230,4,,6.21,30.0,,,,,,,,,,,SCT,1500,BKN,6500,,,,,VFR,,,,,,,,,,,,METAR,481.0
LSMP 180650Z AUTO 06011KT 9000NDV SCT012 BKN017 08/06 Q1018 RMK GRN,LSMP,2015-04-18T06:50:00Z,46.82,6.92,8.0,6.0,60,11,,,30.059055,,,TRUE,,,,,,,,SCT,1200,BKN,1700,,,,,,,,,,,,,,,,,METAR,491.0
LSMD 180650Z AUTO VRB02KT 9999NDV FEW044 BKN052 BKN064 06/03 Q1020 RMK WHT,LSMD,2015-04-18T06:50:00Z,47.4,8.65,6.0,3.0,0,2,,,30.11811,,,TRUE,,,,,,,,FEW,4400,BKN,5200,BKN,6400,,,,,,,,,,,,,,,METAR,448.0
LSMA 180650Z AUTO 07012KT 9999NDV -RA SCT025 BKN032 OVC040 07/05 Q1019 RMK WHT,LSMA,2015-04-18T06:50:00Z,46.95,8.28,7.0,5.0,70,12,,,30.088583,,,TRUE,,,,,,,-RA,SCT,2500,BKN,3200,OVC,4000,,,,,,,,,,,,,,,METAR,444.0
HLLM 180650Z 27001KT 5000 HZ NSC 23/10 Q1017,HLLM,2015-04-18T06:50:00Z,32.9,13.28,23.0,10.0,270,1,,3.11,30.029528,,,,,,,,,,HZ,,,,,,,,,,,,,,,,,,,,,METAR,11.0
EKSB 180650Z 36005KT CAVOK 08/04 Q1027,EKSB,2015-04-18T06:50:00Z,54.97,9.8,8.0,4.0,360,5,,6.21,30.324802,,,,,,,,,,,CAVOK,,,,,,,,VFR,,,,,,,,,,,,METAR,23.0
EGYP 180650Z 26006KT CAVOK 04/01 Q1000 BLU,EGYP,2015-04-18T06:50:00Z,-51.82,-58.45,4.0,1.0,260,6,,6.21,29.52756,,,,,,,,,,,CAVOK,,,,,,,,VFR,,,,,,,,,,,,METAR,74.0
LGSK 180650Z 00000KT CAVOK 20/08 Q1015,LGSK,2015-04-18T06:50:00Z,39.18,23.5,20.0,8.0,0,0,,6.21,29.970472,,,,,,,,,,,CAVOK,,,,,,,,VFR,,,,,,,,,,,,METAR,15.0
LGZA 180650Z 18012KT 9999 SCT010 18/16 Q1018,LGZA,2015-04-18T06:50:00Z,37.75,20.87,18.0,16.0,180,12,,6.21,30.059055,,,,,,,,,,,SCT,1000,,,,,,,VFR,,,,,,,,,,,,METAR,3.0
LGHI 180650Z 19012KT 9999 FEW020 SCT100 BKN180 18/13 Q1017,LGHI,2015-04-18T06:50:00Z,38.32,26.12,18.0,13.0,190,12,,6.21,30.029528,,,,,,,,,,,FEW,2000,SCT,10000,BKN,18000,,,VFR,,,,,,,,,,,,METAR,4.0
LGKC 180650Z /////KT 9999 FEW014 17/06 Q1020,LGKC,2015-04-18T06:50:00Z,36.28,23.02,17.0,6.0,,,,6.21,30.11811,,,,,,,,,,,FEW,1400,,,,,,,VFR,,,,,,,,,,,,METAR,319.0
LGKF 180650Z 14007KT CAVOK 19/11 Q1018,LGKF,2015-04-18T06:50:00Z,38.12,20.5,19.0,11.0,140,7,,6.21,30.059055,,,,,,,,,,,CAVOK,,,,,,,,VFR,,,,,,,,,,,,METAR,18.0
LGKZ 180650Z 14005KT 9999 FEW070 SCT170 17/M01 Q1015,LGKZ,2015-04-18T06:50:00Z,40.28,21.83,17.0,-1.0,140,5,,6.21,29.970472,,,,,,,,,,,FEW,7000,SCT,17000,,,,,VFR,,,,,,,,,,,,METAR,628.0
LGSO 180650Z 22011KT CAVOK 18/13 Q1018,LGSO,2015-04-18T06:50:00Z,37.42,24.95,18.0,13.0,220,11,,6.21,30.059055,,,,,,,,,,,CAVOK,,,,,,,,VFR,,,,,,,,,,,,METAR,72.0
LGNX 180650Z 18012KT 9999 FEW018 SCT080 19/13 Q1019,LGNX,2015-04-18T06:50:00Z,37.08,25.37,19.0,13.0,180,12,,6.21,30.088583,,,,,,,,,,,FEW,1800,SCT,8000,,,,,VFR,,,,,,,,,,,,METAR,4.0
LGSM 180650Z 15011KT 9999 FEW018 SCT100 15/11 Q1020,LGSM,2015-04-18T06:50:00Z,37.68,26.92,15.0,11.0,150,11,,6.21,30.11811,,,,,,,,,,,FEW,1800,SCT,10000,,,,,VFR,,,,,,,,,,,,METAR,6.0
BGBW 180650Z 07004KT 9999 BKN160 M13/M22 Q1002,BGBW,2015-04-18T06:50:00Z,61.17,-45.42,-13.0,-22.0,70,4,,6.21,29.586615,,,,,,,,,,,BKN,16000,,,,,,,VFR,,,,,,,,,,,,METAR,26.0
BGKK 180650Z AUTO 08021KT 1700NDV -SN VV010/// M01/M03 Q1005,BGKK,2015-04-18T06:50:00Z,65.57,-37.13,-1.0,-3.0,80,21,,,29.675198,,,TRUE,,,,,,,-SN,,,,,,,,,,,,,,,,,,,,,METAR,34.0
BGJN 180650Z AUTO 10012KT 9999NDV -SG SCT039/// BKN044/// BKN050/// M13/M18 Q1012,BGJN,2015-04-18T06:50:00Z,69.25,-51.07,-13.0,-18.0,100,12,,,29.88189,,,TRUE,,,,,,,-SG,,,,,,,,,,,,,,,,,,,,,METAR,25.0
BGGH 180650Z AUTO 23012KT 9999NDV NCD M10/M17 Q1008,BGGH,2015-04-18T06:50:00Z,64.2,-51.68,-10.0,-17.0,230,12,,,29.763779,,,TRUE,,,,,,,,,,,,,,,,,,,,,,,,,,,,METAR,70.0
BGSF 180650Z AUTO 06006KT 9999NDV NCD M21/M23 Q1012,BGSF,2015-04-18T06:50:00Z,67.0,-50.72,-21.0,-23.0,60,6,,,29.88189,,,TRUE,,,,,,,,,,,,,,,,,,,,,,,,,,,,METAR,53.0
PTYA 180650Z 05009KT 12SM FEW018 SCT300 30/23 A2980 RMK SLP093 T02960227,PTYA,2015-04-18T06:50:00Z,9.48,138.08,29.6,22.7,50,9,,12.0,29.799213,1009.3,,,,,,,,,,FEW,1800,SCT,30000,,,,,VFR,,,,,,,,,,,,METAR,17.0
LLSD 180650Z 26005KT 9999 FEW015 SCT020 17/13 Q1023,LLSD,2015-04-18T06:50:00Z,32.12,34.78,17.0,13.0,260,5,,6.21,30.206694,,,,,,,,,,,FEW,1500,SCT,2000,,,,,VFR,,,,,,,,,,,,METAR,14.0
LLIB 180650Z VRB03KT 9999 FEW030 16/11 Q1024,LLIB,2015-04-18T06:50:00Z,32.98,35.57,16.0,11.0,0,3,,6.21,30.236221,,,,,,,,,,,FEW,3000,,,,,,,VFR,,,,,,,,,,,,METAR,282.0
LLHA 180650Z 34007KT 9999 FEW025 19/13 Q1024,LLHA,2015-04-18T06:50:00Z,32.78,35.02,19.0,13.0,340,7,,6.21,30.236221,,,,,,,,,,,FEW,2500,,,,,,,VFR,,,,,,,,,,,,METAR,8.0
LLET 180650Z 03017KT CAVOK 23/10 Q1023,LLET,2015-04-18T06:50:00Z,29.55,34.95,23.0,10.0,30,17,,6.21,30.206694,,,,,,,,,,,CAVOK,,,,,,,,VFR,,,,,,,,,,,,METAR,13.0
FADY 180650Z 10013KT 9999 FEW020 10/05 Q1027,FADY,2015-04-18T06:50:00Z,-30.67,23.98,10.0,5.0,100,13,,6.21,30.324802,,,,,,,,,,,FEW,2000,,,,,,,VFR,,,,,,,,,,,,SPECI,384.0
KDAG 180650Z AUTO 28011KT 10SM CLR 20/M10 A3001 RMK AO2 SLP141 T02001100,KDAG,2015-04-18T06:50:00Z,34.85,-116.78,20.0,-10.0,280,11,,10.0,30.008858,1014.1,,TRUE,TRUE,,,,,,,CLR,,,,,,,,VFR,,,,,,,,,,,,METAR,587.0
OAKB 180650Z 34011KT 9999 FEW100 BKN140 OVC160 19/04 Q1017 NOSIG RMK BLU BLU,OAKB,2015-04-18T06:50:00Z,34.55,69.22,19.0,4.0,340,11,,6.21,30.029528,,,,,,TRUE,,,,,FEW,10000,BKN,14000,OVC,16000,,,VFR,,,,,,,,,,,,METAR,1791.0
PGRO 180650Z 07013KT 7SM SCT020 27/23 A2989,PGRO,2015-04-18T06:50:00Z,14.18,145.25,27.0,23.0,70,13,,7.0,29.890747,,,,,,,,,,,SCT,2000,,,,,,,VFR,,,,,,,,,,,,METAR,185.0
PTRO 180650Z 07008KT 15SM SCT017TCU BKN120 BKN300 30/25 A2982 RMK TCU VC ALQDS,PTRO,2015-04-18T06:50:00Z,7.37,134.55,30.0,25.0,70,8,,15.0,29.819881,,,,,,,,,,,SCT,1700,BKN,12000,BKN,30000,,,VFR,,,,,,,,,,,,METAR,54.0
LCRA 180650Z 27011KT 9999 FEW040 18/12 Q1023 NOSIG,LCRA,2015-04-18T06:50:00Z,34.57,32.97,18.0,12.0,270,11,,6.21,30.206694,,,,,,TRUE,,,,,FEW,4000,,,,,,,VFR,,,,,,,,,,,,METAR,23.0
EGWU 180650Z 07009KT 9999 FEW015 06/02 Q1028 NOSIG,EGWU,2015-04-18T06:50:00Z,51.55,-0.42,6.0,2.0,70,9,,6.21,30.35433,,,,,,TRUE,,,,,FEW,1500,,,,,,,VFR,,,,,,,,,,,,METAR,40.0
OAMS 180650Z 28008KT 9999 SCT020 BKN200 19/14 Q1019 BLU+ BLU,OAMS,2015-04-18T06:50:00Z,36.7,67.2,19.0,14.0,280,8,,6.21,30.088583,,,,,,,,,,,SCT,2000,BKN,20000,,,,,VFR,,,,,,,,,,,,METAR,378.0
LXGB 180650Z 26005KT 9999 FEW030 SCT250 14/11 Q1017 NOSIG,LXGB,2015-04-18T06:50:00Z,36.13,-5.33,14.0,11.0,260,5,,6.21,30.029528,,,,,,TRUE,,,,,FEW,3000,SCT,25000,,,,,VFR,,,,,,,,,,,,METAR,5.0
LIMZ 180650Z VRB01KT 7000 NSC 12/10 Q1013,LIMZ,2015-04-18T06:50:00Z,44.53,7.62,12.0,10.0,0,1,,4.35,29.911417,,,,,,,,,,,,,,,,,,,,,,,,,,,,,,,METAR,380.0
LIMP 180650Z VRB02KT 9999 BKN050 14/12 Q1013,LIMP,2015-04-18T06:50:00Z,44.82,10.3,14.0,12.0,0,2,,6.21,29.911417,,,,,,,,,,,BKN,5000,,,,,,,VFR,,,,,,,,,,,,METAR,50.0
LIMG 180650Z VRB02KT 9000 FEW020 BKN035 15/14 Q1012,LIMG,2015-04-18T06:50:00Z,44.03,8.12,15.0,14.0,0,2,,5.59,29.88189,,,,,,,,,,,FEW,2000,BKN,3500,,,,,VFR,,,,,,,,,,,,METAR,49.0
LIMA 180650Z 00000KT 7000 NSC 12/10 Q1013,LIMA,2015-04-18T06:50:00Z,45.08,7.6,12.0,10.0,0,0,,4.35,29.911417,,,,,,,,,,,,,,,,,,,,,,,,,,,,,,,METAR,287.0
ENAT 180650Z 06004KT 9999 FEW008 BKN047 05/02 Q1015 RMK WIND 700FT 15003KT,ENAT,2015-04-18T06:50:00Z,69.97,23.37,5.0,2.0,60,4,,6.21,29.970472,,,,,,,,,,,FEW,800,BKN,4700,,,,,VFR,,,,,,,,,,,,METAR,3.0
LIBG 180650Z 00000KT 9999 FEW028 15/15 Q1013,LIBG,2015-04-18T06:50:00Z,40.52,17.38,15.0,15.0,0,0,,6.21,29.911417,,,,,,,,,,,FEW,2800,,,,,,,VFR,,,,,,,,,,,,METAR,69.0
LIBF 180650Z 31003KT 260V350 CAVOK 18/12 Q1013,LIBF,2015-04-18T06:50:00Z,41.42,15.52,18.0,12.0,310,3,,6.21,29.911417,,,,,,,,,,,CAVOK,,,,,,,,VFR,,,,,,,,,,,,METAR,80.0
LIBC 180650Z 23013KT CAVOK 18/10 Q1014,LIBC,2015-04-18T06:50:00Z,39.0,17.07,18.0,10.0,230,13,,6.21,29.940945,,,,,,,,,,,CAVOK,,,,,,,,VFR,,,,,,,,,,,,METAR,161.0
LIRU 180650Z 00000KT 8000 FEW025 15/12 Q1014,LIRU,2015-04-18T06:50:00Z,41.95,12.5,15.0,12.0,0,0,,4.97,29.940945,,,,,,,,,,,FEW,2500,,,,,,,MVFR,,,,,,,,,,,,METAR,24.0
LIPY 180650Z 20004KT 160V220 9999 FEW040 SCT070 16/11 Q1013,LIPY,2015-04-18T06:50:00Z,43.62,13.37,16.0,11.0,200,4,,6.21,29.911417,,,,,,,,,,,FEW,4000,SCT,7000,,,,,VFR,,,,,,,,,,,,METAR,10.0
LIPO 180650Z 12002KT 5000 BR BKN035 12/11 Q1013,LIPO,2015-04-18T06:50:00Z,45.42,10.33,12.0,11.0,120,2,,3.11,29.911417,,,,,,,,,,BR,BKN,3500,,,,,,,MVFR,,,,,,,,,,,,METAR,109.0
EGYD 180650Z 03007KT CAVOK 05/03 Q1031 BLU NOSIG,EGYD,2015-04-18T06:50:00Z,53.03,-0.5,5.0,3.0,30,7,,6.21,30.442913,,,,,,TRUE,,,,,CAVOK,,,,,,,,VFR,,,,,,,,,,,,METAR,67.0
EGXW 180650Z 04009KT 9999 FEW020 05/03 Q1031 BLU NOSIG,EGXW,2015-04-18T06:50:00Z,53.18,-0.52,5.0,3.0,40,9,,6.21,30.442913,,,,,,TRUE,,,,,FEW,2000,,,,,,,VFR,,,,,,,,,,,,METAR,70.0
EGXV 180650Z AUTO 36003KT 9999 BKN022/// 06/05 Q1031,EGXV,2015-04-18T06:50:00Z,53.87,-0.45,6.0,5.0,360,3,,6.21,30.442913,,,TRUE,,,,,,,,,,,,,,,,,,,,,,,,,,,,METAR,6.0
EGXE 180650Z 32003KT 8000 BR FEW020 04/03 Q1032 BLU NOSIG,EGXE,2015-04-18T06:50:00Z,54.28,-1.52,4.0,3.0,320,3,,4.97,30.47244,,,,,,TRUE,,,,BR,FEW,2000,,,,,,,MVFR,,,,,,,,,,,,METAR,40.0
EGXC 180650Z 04008KT 9999 FEW015 07/04 Q1031 BLU,EGXC,2015-04-18T06:50:00Z,53.1,-0.17,7.0,4.0,40,8,,6.21,30.442913,,,,,,,,,,,FEW,1500,,,,,,,VFR,,,,,,,,,,,,METAR,7.0
EGVO 180650Z 05012KT 9999 BKN010 06/03 Q1027 GRN,EGVO,2015-04-18T06:50:00Z,51.23,-0.95,6.0,3.0,50,12,,6.21,30.324802,,,,,,,,,,,BKN,1000,,,,,,,MVFR,,,,,,,,,,,,METAR,123.0
EGVN 180650Z 07010KT 9999 FEW012 06/02 Q1028 BLU NOSIG,EGVN,2015-04-18T06:50:00Z,51.77,-1.58,6.0,2.0,70,10,,6.21,30.35433,,,,,,TRUE,,,,,FEW,1200,,,,,,,VFR,,,,,,,,,,,,METAR,88.0
EGQM 180650Z AUTO 32002KT 9999 SCT011/// 06/06 Q1033,EGQM,2015-04-18T06:50:00Z,55.42,-1.6,6.0,6.0,320,2,,6.21,30.501968,,,TRUE,,,,,,,,,,,,,,,,,,,,,,,,,,,,SPECI,23.0
EGQL 180650Z 32004KT 9999 FEW016 06/05 Q1033 BLU,EGQL,2015-04-18T06:50:00Z,56.38,-2.87,6.0,5.0,320,4,,6.21,30.501968,,,,,,,,,,,FEW,1600,,,,,,,VFR,,,,,,,,,,,,METAR,12.0
EGDR 180650Z 08023G37KT 9999 HZ FEW014 OVC015 08/05 Q1022 WHT,EGDR,2015-04-18T06:50:00Z,50.08,-5.25,8.0,5.0,80,23,37,6.21,30.177166,,,,,,,,,,HZ,FEW,1400,OVC,1500,,,,,MVFR,,,,,,,,,,,,METAR,82.0
EGDM 180650Z 06013KT 9999 FEW014 06/02 Q1026 BLU,EGDM,2015-04-18T06:50:00Z,51.17,-1.75,6.0,2.0,60,13,,6.21,30.295275,,,,,,,,,,,FEW,1400,,,,,,,VFR,,,,,,,,,,,,METAR,124.0
LGPA 180650Z 19006KT 9999 FEW030 19/13 Q1019,LGPA,2015-04-18T06:50:00Z,37.0,25.13,19.0,13.0,190,6,,6.21,30.088583,,,,,,,,,,,FEW,3000,,,,,,,VFR,,,,,,,,,,,,METAR,36.0
LSMM 180650Z AUTO 06016KT 9999NDV -RA FEW020 SCT024 OVC038 07/05 Q1018 RMK WHT,LSMM,2015-04-18T06:50:00Z,46.75,8.12,7.0,5.0,60,16,,,30.059055,,,TRUE,,,,,,,-RA,FEW,2000,SCT,2400,OVC,3800,,,,,,,,,,,,,,,METAR,577.0
KEFD 180650Z 11011KT 7SM -RA FEW005 SCT040 BKN090 OVC120 21/20 A2990,KEFD,2015-04-18T06:50:00Z,29.6,-95.17,21.0,20.0,110,11,,7.0,29.899607,,,,,,,,,,-RA,FEW,500,SCT,4000,BKN,9000,OVC,12000,VFR,,,,,,,,,,,,METAR,10.0
TJPS 180650Z 00000KT 8SM FEW025 SCT050 23/19 A2999,TJPS,2015-04-18T06:50:00Z,18.02,-66.57,23.0,19.0,0,0,,8.0,29.991142,,,,,,,,,,,FEW,2500,SCT,5000,,,,,VFR,,,,,,,,,,,,METAR,9.0
VNKT 180650Z 28003KT 9000 FEW020 SCT030 22/13 Q1011 NOSIG,VNKT,2015-04-18T06:50:00Z,27.68,85.37,22.0,13.0,280,3,,5.59,29.852362,,,,,,TRUE,,,,,FEW,2000,SCT,3000,,,,,VFR,,,,,,,,,,,,METAR,1337.0
VGHS 180650Z 25010KT 4000 HZ SCT100 34/19 Q1006 NOSIG,VGHS,2015-04-18T06:50:00Z,23.85,90.4,34.0,19.0,250,10,,2.49,29.704725,,,,,,TRUE,,,,HZ,SCT,10000,,,,,,,IFR,,,,,,,,,,,,METAR,10.0
VEPT 180650Z 08006KT 4000 HZ NSC 33/20 Q1003 NOSIG,VEPT,2015-04-18T06:50:00Z,25.6,85.08,33.0,20.0,80,6,,2.49,29.616142,,,,,,TRUE,,,,HZ,,,,,,,,,,,,,,,,,,,,,METAR,60.0
LTFG 180650Z VRB03KT 9999 SCT030 20/14 Q1022,LTFG,2015-04-18T06:50:00Z,36.3,32.3,20.0,14.0,0,3,,6.21,30.177166,,,,,,,,,,,SCT,3000,,,,,,,VFR,,,,,,,,,,,,METAR,95.0
LTFD 180650Z 29010KT 9999 FEW035 BKN180 18/10 Q1018,LTFD,2015-04-18T06:50:00Z,39.55,27.02,18.0,10.0,290,10,,6.21,30.059055,,,,,,,,,,,FEW,3500,BKN,18000,,,,,VFR,,,,,,,,,,,,METAR,16.0
LTCV 180650Z VRB02KT CAVOK 18/12 Q1019,LTCV,2015-04-18T06:50:00Z,37.37,42.07,18.0,12.0,0,2,,6.21,30.088583,,,,,,,,,,,CAVOK,,,,,,,,VFR,,,,,,,,,,,,METAR,621.0
LTCU 180650Z VRB02KT 9999 FEW035 13/06 Q1021,LTCU,2015-04-18T06:50:00Z,38.87,40.58,13.0,6.0,0,2,,6.21,30.147638,,,,,,,,,,,FEW,3500,,,,,,,VFR,,,,,,,,,,,,METAR,1061.0
LTCT 180650Z VRB03KT CAVOK 17/03 Q1018,LTCT,2015-04-18T06:50:00Z,39.98,43.87,17.0,3.0,0,3,,6.21,30.059055,,,,,,,,,,,CAVOK,,,,,,,,VFR,,,,,,,,,,,,METAR,946.0
LTCR 180650Z 19005KT 160V220 CAVOK 19/11 Q1019,LTCR,2015-04-18T06:50:00Z,37.22,40.63,19.0,11.0,190,5,,6.21,30.088583,,,,,,,,,,,CAVOK,,,,,,,,VFR,,,,,,,,,,,,METAR,527.0
LTCP 180650Z 13004KT 070V210 CAVOK 17/10 Q1019,LTCP,2015-04-18T06:50:00Z,37.73,38.47,17.0,10.0,130,4,,6.21,30.088583,,,,,,,,,,,CAVOK,,,,,,,,VFR,,,,,,,,,,,,METAR,676.0
LTCO 180650Z VRB03KT 9999 FEW035 12/01 Q1021,LTCO,2015-04-18T06:50:00Z,39.65,43.03,12.0,1.0,0,3,,6.21,30.147638,,,,,,,,,,,FEW,3500,,,,,,,VFR,,,,,,,,,,,,METAR,1665.0
LTCN 180650Z 28020KT CAVOK 18/09 Q1020,LTCN,2015-04-18T06:50:00Z,37.53,36.95,18.0,9.0,280,20,,6.21,30.11811,,,,,,,,,,,CAVOK,,,,,,,,VFR,,,,,,,,,,,,METAR,526.0
LTCK 180650Z VRB01KT 9999 FEW040 14/03 Q1021,LTCK,2015-04-18T06:50:00Z,38.75,41.67,14.0,3.0,0,1,,6.21,30.147638,,,,,,,,,,,FEW,4000,,,,,,,VFR,,,,,,,,,,,,METAR,1266.0
LTBH 180650Z 20014KT 170V230 CAVOK 18/10 Q1014,LTBH,2015-04-18T06:50:00Z,40.13,26.42,18.0,10.0,200,14,,6.21,29.940945,,,,,,,,,,,CAVOK,,,,,,,,VFR,,,,,,,,,,,,METAR,3.0
LTAW 180650Z 00000KT CAVOK 17/07 Q1017,LTAW,2015-04-18T06:50:00Z,40.28,36.37,17.0,7.0,0,0,,6.21,30.029528,,,,,,,,,,,CAVOK,,,,,,,,VFR,,,,,,,,,,,,METAR,608.0
LTAS 180650Z VRB02KT 9999 FEW035 SCT100 BKN180 19/09 Q1012,LTAS,2015-04-18T06:50:00Z,41.52,32.08,19.0,9.0,0,2,,6.21,29.88189,,,,,,,,,,,FEW,3500,SCT,10000,BKN,18000,,,VFR,,,,,,,,,,,,METAR,136.0
LTCE 180650Z 27014KT 240V300 9999 FEW030 12/M02 Q1021 NOSIG,LTCE,2015-04-18T06:50:00Z,39.95,41.17,12.0,-2.0,270,14,,6.21,30.147638,,,,,,TRUE,,,,,FEW,3000,,,,,,,VFR,,,,,,,,,,,,METAR,1758.0
LTBQ 180650Z 27008KT CAVOK 22/08 Q1013 NOSIG,LTBQ,2015-04-18T06:50:00Z,40.72,30.07,22.0,8.0,270,8,,6.21,29.911417,,,,,,TRUE,,,,,CAVOK,,,,,,,,VFR,,,,,,,,,,,,METAR,50.0
LTBF 180650Z 22005KT 160V270 CAVOK 17/07 Q1017 NOSIG,LTBF,2015-04-18T06:50:00Z,39.62,27.92,17.0,7.0,220,5,,6.21,30.029528,,,,,,TRUE,,,,,CAVOK,,,,,,,,VFR,,,,,,,,,,,,METAR,102.0
LTAN 180650Z 10005KT CAVOK 14/04 Q1020 NOSIG,LTAN,2015-04-18T06:50:00Z,37.97,32.53,14.0,4.0,100,5,,6.21,30.11811,,,,,,TRUE,,,,,CAVOK,,,,,,,,VFR,,,,,,,,,,,,METAR,1006.0
LTFH 180650Z 30009KT 270V330 CAVOK 23/07 Q1012 NOSIG,LTFH,2015-04-18T06:50:00Z,41.27,36.55,23.0,7.0,300,9,,6.21,29.88189,,,,,,TRUE,,,,,CAVOK,,,,,,,,VFR,,,,,,,,,,,,METAR,5.0
LTDA 180650Z 21016KT CAVOK 20/13 Q1021,LTDA,2015-04-18T06:50:00Z,36.37,36.28,20.0,13.0,210,16,,6.21,30.147638,,,,,,,,,,,CAVOK,,,,,,,,VFR,,,,,,,,,,,,METAR,82.0
LTCI 180650Z 30006KT 9999 FEW040 11/02 Q1021 NOSIG,LTCI,2015-04-18T06:50:00Z,38.45,43.32,11.0,2.0,300,6,,6.21,30.147638,,,,,,TRUE,,,,,FEW,4000,,,,,,,VFR,,,,,,,,,,,,METAR,1661.0
LTCF 180650Z 26007KT 220V300 9999 FEW040 13/M04 Q1020,LTCF,2015-04-18T06:50:00Z,40.57,43.12,13.0,-4.0,260,7,,6.21,30.11811,,,,,,,,,,,FEW,4000,,,,,,,VFR,,,,,,,,,,,,METAR,1795.0
LTCD 180650Z VRB01KT CAVOK 15/01 Q1020 NOSIG,LTCD,2015-04-18T06:50:00Z,39.72,39.5,15.0,1.0,0,1,,6.21,30.11811,,,,,,TRUE,,,,,CAVOK,,,,,,,,VFR,,,,,,,,,,,,METAR,1215.0
LTCA 180650Z 09005KT 060V120 CAVOK 15/07 Q1020 NOSIG,LTCA,2015-04-18T06:50:00Z,38.6,39.27,15.0,7.0,90,5,,6.21,30.11811,,,,,,TRUE,,,,,CAVOK,,,,,,,,VFR,,,,,,,,,,,,METAR,882.0
LTBY 180650Z 36003KT CAVOK 16/04 Q1018,LTBY,2015-04-18T06:50:00Z,39.82,30.52,16.0,4.0,360,3,,6.21,30.059055,,,,,,,,,,,CAVOK,,,,,,,,VFR,,,,,,,,,,,,METAR,789.0
LTAY 180650Z 05004KT 020V080 CAVOK 15/01 Q1021,LTAY,2015-04-18T06:50:00Z,37.77,29.68,15.0,1.0,50,4,,6.21,30.147638,,,,,,,,,,,CAVOK,,,,,,,,VFR,,,,,,,,,,,,METAR,849.0
LTAR 180650Z 21014KT CAVOK 11/02 Q1020,LTAR,2015-04-18T06:50:00Z,39.8,36.9,11.0,2.0,210,14,,6.21,30.11811,,,,,,,,,,,CAVOK,,,,,,,,VFR,,,,,,,,,,,,METAR,1271.0
OOSA 180650Z 16006KT 120V200 CAVOK 32/17 Q1012 NOSIG,OOSA,2015-04-18T06:50:00Z,17.02,54.07,32.0,17.0,160,6,,6.21,29.88189,,,,,,TRUE,,,,,CAVOK,,,,,,,,VFR,,,,,,,,,,,,METAR,20.0
OOMS 180650Z 34008KT CAVOK 37/12 Q1009 NOSIG,OOMS,2015-04-18T06:50:00Z,23.57,58.27,37.0,12.0,340,8,,6.21,29.793306,,,,,,TRUE,,,,,CAVOK,,,,,,,,VFR,,,,,,,,,,,,METAR,8.0
MUCU 180650Z 04005KT 9000 FEW020 23/19 Q1015,MUCU,2015-04-18T06:50:00Z,19.97,-75.83,23.0,19.0,40,5,,5.59,29.970472,,,,,,,,,,,FEW,2000,,,,,,,VFR,,,,,,,,,,,,METAR,76.0
MUCM 180650Z 06005KT 9000 FEW020 22/20 Q1016,MUCM,2015-04-18T06:50:00Z,21.42,-77.85,22.0,20.0,60,5,,5.59,30.0,,,,,,,,,,,FEW,2000,,,,,,,VFR,,,,,,,,,,,,METAR,122.0
MUCC 180650Z 10003KT 9000 FEW020 23/22 Q1015,MUCC,2015-04-18T06:50:00Z,22.47,-78.33,23.0,22.0,100,3,,5.59,29.970472,,,,,,,,,,,FEW,2000,,,,,,,VFR,,,,,,,,,,,,METAR,4.0
MUSC 180650Z VRB01KT 9000 NSC 21/18 Q1016,MUSC,2015-04-18T06:50:00Z,22.5,-79.95,21.0,18.0,0,1,,5.59,30.0,,,,,,,,,,,,,,,,,,,,,,,,,,,,,,,METAR,103.0
LICR 180650Z 36019KT CAVOK 19/09 Q1014,LICR,2015-04-18T06:50:00Z,38.07,15.65,19.0,9.0,360,19,,6.21,29.940945,,,,,,,,,,,CAVOK,,,,,,,,VFR,,,,,,,,,,,,METAR,21.0
LICD 180650Z 34011KT 7000 FEW005 15/15 Q1016,LICD,2015-04-18T06:50:00Z,35.5,12.62,15.0,15.0,340,11,,4.35,30.0,,,,,,,,,,,FEW,500,,,,,,,MVFR,,,,,,,,,,,,METAR,20.0
LICB 180650Z VRB02KT CAVOK 21/09 Q1014,LICB,2015-04-18T06:50:00Z,37.0,14.62,21.0,9.0,0,2,,6.21,29.940945,,,,,,,,,,,CAVOK,,,,,,,,VFR,,,,,,,,,,,,METAR,220.0
LICA 180650Z VRB03KT 8000 NSC 16/14 Q1016,LICA,2015-04-18T06:50:00Z,38.88,16.25,16.0,14.0,0,3,,4.97,30.0,,,,,,,,,,,,,,,,,,,,,,,,,,,,,,,METAR,15.0
LIRZ 180650Z VRB01KT 9000 FEW030 SCT040 12/11 Q1015,LIRZ,2015-04-18T06:50:00Z,43.1,12.5,12.0,11.0,0,1,,5.59,29.970472,,,,,,,,,,,FEW,3000,SCT,4000,,,,,VFR,,,,,,,,,,,,METAR,205.0
LIBP 180650Z VRB02KT 9999 SCT080 13/11 Q1014,LIBP,2015-04-18T06:50:00Z,42.42,14.18,13.0,11.0,0,2,,6.21,29.940945,,,,,,,,,,,SCT,8000,,,,,,,VFR,,,,,,,,,,,,METAR,11.0
LSME 180649Z AUTO 02008KT 350V060 9999NDV OVC018 06/04 Q1020 RMK GRN,LSME,2015-04-18T06:49:00Z,47.1,8.3,6.0,4.0,20,8,,,30.11811,,,TRUE,,,,,,,,OVC,1800,,,,,,,,,,,,,,,,,,,METAR,427.0
KMWN 180649Z 31031KT 1/16SM FZFG VV001 M02/M02 RMK FZFG INTMT,KMWN,2015-04-18T06:49:00Z,44.27,-71.3,-2.0,-2.0,310,31,,0.06,,,,,,,,,,,FZFG,OVX,0,,,,,,,LIFR,,,,,,,,,,,100,SPECI,1910.0
MMTP 180648Z 00000KT 10SM OVC040 24/23 A2992 RMK 8/6//,MMTP,2015-04-18T06:48:00Z,14.77,-92.37,24.0,23.0,0,0,,10.0,29.920275,,,,,,,,,,,OVC,4000,,,,,,,VFR,,,,,,,,,,,,METAR,29.0
KJDN 180648Z AUTO 17003KT 09/M01 A2999 RMK AO1 SLP156 T00891011 402111050,KJDN,2015-04-18T06:48:00Z,47.33,-106.95,8.9,-1.1,170,3,,,29.991142,1015.6,,TRUE,TRUE,,,,,,,,,,,,,,,,,,,21.1,-5.0,,,,,,,SPECI,801.0
KSDB 180648Z AUTO 35011G18KT 10SM CLR 15/M06 A3014 RMK AO2 SLP160 T01501056,KSDB,2015-04-18T06:48:00Z,34.75,-118.72,15.0,-5.6,350,11,18,10.0,30.138779,1016.0,,TRUE,TRUE,,,,,,,CLR,,,,,,,,VFR,,,,,,,,,,,,SPECI,1377.0
MMTO 180648Z 00000KT 5SM SCT015 11/03 A3038 RMK 8/400 HZ,MMTO,2015-04-18T06:48:00Z,19.35,-99.57,11.0,3.0,0,0,,5.0,30.380905,,,,,,,,,,,SCT,1500,,,,,,,MVFR,,,,,,,,,,,,METAR,2576.0
KCQT 180647Z AUTO 00000KT 10SM CLR 17/07 A3001 RMK AO2 SLP159 T01720067,KCQT,2015-04-18T06:47:00Z,34.02,-118.28,17.2,6.7,0,0,,10.0,30.008858,1015.9,,TRUE,TRUE,,,,,,,CLR,,,,,,,,VFR,,,,,,,,,,,,SPECI,56.0
RJOP 180646Z 17021G31KT 9999 FEW030 SCT140 BKN250 20/09 Q1016 RMK 1CU030 4AC140 A3001,RJOP,2015-04-18T06:46:00Z,34.0,134.62,20.0,9.0,170,21,31,6.21,30.0,,,,,,,,,,,FEW,3000,SCT,14000,BKN,25000,,,VFR,,,,,,,,,,,,METAR,6.0
RJTC 180646Z 18017KT 9999 FEW030 BKN230 19/06 Q1013 RMK 1CU030 6CI230 A2992,RJTC,2015-04-18T06:46:00Z,35.7,139.4,19.0,6.0,180,17,,6.21,29.911417,,,,,,,,,,,FEW,3000,BKN,23000,,,,,VFR,,,,,,,,,,,,METAR,98.0
MMSP 180646Z 02005KT 10SM FEW090 SCT210 19/07 A3016 RMK 8/031 SC,MMSP,2015-04-18T06:46:00Z,22.25,-100.93,19.0,7.0,20,5,,10.0,30.159449,,,,,,,,,,,FEW,9000,SCT,21000,,,,,VFR,,,,,,,,,,,,METAR,1903.0
MMMD 180645Z 12012KT 7SM SKC 27/20 A2988,MMMD,2015-04-18T06:45:00Z,20.95,-89.65,27.0,20.0,120,12,,7.0,29.878937,,,,,,,,,,,SKC,,,,,,,,VFR,,,,,,,,,,,,METAR,10.0
KSWF 180645Z 00000KT 10SM SKC 08/06 A2998,KSWF,2015-04-18T06:45:00Z,41.5,-74.08,8.0,6.0,0,0,,10.0,29.97933,,,,,,,,,,,SKC,,,,,,,,VFR,,,,,,,,,,,,METAR,150.0
MMQT 180645Z 10004KT 7SM SCT120 15/10 A3025 RMK 8/030,MMQT,2015-04-18T06:45:00Z,20.62,-100.18,15.0,10.0,100,4,,7.0,30.250984,,,,,,,,,,,SCT,12000,,,,,,,VFR,,,,,,,,,,,,METAR,1813.0
MMUN 180644Z 13010KT 7SM FEW015 26/23 A2994 RMK 8/500,MMUN,2015-04-18T06:44:00Z,21.02,-86.85,26.0,23.0,130,10,,7.0,29.940945,,,,,,,,,,,FEW,1500,,,,,,,VFR,,,,,,,,,,,,METAR,10.0
MMMZ 180644Z 01006KT 10SM FEW032 BKN070 OVC200 20/18 A2992 RMK 8/477,MMMZ,2015-04-18T06:44:00Z,23.17,-106.27,20.0,18.0,10,6,,10.0,29.920275,,,,,,,,,,,FEW,3200,BKN,7000,OVC,20000,,,VFR,,,,,,,,,,,,METAR,10.0
MMLO 180643Z 04004KT 8SM FEW100 SCT200 15/03 A3023 RMK 8/038 HZY,MMLO,2015-04-18T06:43:00Z,21.0,-101.47,15.0,3.0,40,4,,8.0,30.230314,,,,,,,,,,,FEW,10000,SCT,20000,,,,,VFR,,,,,,,,,,,,METAR,1819.0
FACV 180642Z 10013KT 9999 FEW019 12/04 Q1026,FACV,2015-04-18T06:42:00Z,-31.5,19.72,12.0,4.0,100,13,,6.21,30.295275,,,,,,,,,,,FEW,1900,,,,,,,VFR,,,,,,,,,,,,SPECI,977.0
MMCV 180641Z 30004KT 4SM SKC 24/24 A2982 RMK HZY,MMCV,2015-04-18T06:41:00Z,23.72,-98.97,24.0,24.0,300,4,,4.0,29.819881,,,,,,,,,,,SKC,,,,,,,,MVFR,,,,,,,,,,,,SPECI,238.0
MMRX 180641Z 03002KT 6SM BKN006 OVC010 23/21 A2984 RMK 8/5// HZY FU,MMRX,2015-04-18T06:41:00Z,26.02,-98.22,23.0,21.0,30,2,,6.0,29.840551,,,,,,,,,,,BKN,600,OVC,1000,,,,,IFR,,,,,,,,,,,,SPECI,39.0
RJFE 180641Z 15006KT 110V200 7000 FEW005 SCT006 BKN007 18/17 Q1014 RMK 1ST005 3ST006 5ST007 A2996,RJFE,2015-04-18T06:41:00Z,32.67,128.82,18.0,17.0,150,6,,4.35,29.940945,,,,,,,,,,,FEW,500,SCT,600,BKN,700,,,IFR,,,,,,,,,,,,METAR,80.0
MMVR 180641Z 00000KT 6SM SCT015 BKN200 25/24 A2980 RMK 8/108,MMVR,2015-04-18T06:41:00Z,19.15,-96.18,25.0,24.0,0,0,,6.0,29.799213,,,,,,,,,,,SCT,1500,BKN,20000,,,,,VFR,,,,,,,,,,,,METAR,16.0
MMAA 180641Z 34002KT 7SM SKC 25/23 A2988 RMK HZY,MMAA,2015-04-18T06:41:00Z,16.75,-99.75,25.0,23.0,340,2,,7.0,29.878937,,,,,,,,,,,SKC,,,,,,,,VFR,,,,,,,,,,,,METAR,5.0
MMPR 180641Z 36003KT 10SM SCT030 BKN150 24/22 A2990 RMK 8/57/ HZY,MMPR,2015-04-18T06:41:00Z,20.67,-105.25,24.0,22.0,360,3,,10.0,29.899607,,,,,,,,,,,SCT,3000,BKN,15000,,,,,VFR,,,,,,,,,,,,METAR,6.0
VOTV 180640Z 270/12KT 5000 HZ FEW015 FEW025TCU 31/25 Q1009 NOSIG,VOTV,2015-04-18T06:40:00Z,8.47,76.95,31.0,25.0,,,,3.11,29.793306,,,,,,TRUE,,,,HZ,FEW,1500,FEW,2500,,,,,MVFR,,,,,,,,,,,,METAR,8.0
MMCZ 180640Z 13005KT 7SM FEW015 23/22 A2994 RMK 8/100,MMCZ,2015-04-18T06:40:00Z,20.52,-86.92,23.0,22.0,130,5,,7.0,29.940945,,,,,,,,,,,FEW,1500,,,,,,,VFR,,,,,,,,,,,,METAR,5.0
MMHO 180640Z 00000KT 10SM SKC 18/02 A2998 RMK HZY,MMHO,2015-04-18T06:40:00Z,29.08,-111.05,18.0,2.0,0,0,,10.0,29.97933,,,,,,,,,,,SKC,,,,,,,,VFR,,,,,,,,,,,,METAR,184.0
MMTJ 180640Z 27006KT 6SM SKC 17/M03 A3007,MMTJ,2015-04-18T06:40:00Z,32.53,-116.97,17.0,-3.0,270,6,,6.0,30.070866,,,,,,,,,,,SKC,,,,,,,,VFR,,,,,,,,,,,,METAR,152.0
VOHY 180640Z 11006KT 6000 FEW020 36/11 Q1013 NOSIG,VOHY,2015-04-18T06:40:00Z,17.45,78.45,36.0,11.0,110,6,,3.73,29.911417,,,,,,TRUE,,,,,FEW,2000,,,,,,,MVFR,,,,,,,,,,,,METAR,545.0
VANP 180640Z 29008KT 6000 NSC 38/17 Q1008 NOSIG,VANP,2015-04-18T06:40:00Z,21.08,79.05,38.0,17.0,290,8,,3.73,29.763779,,,,,,TRUE,,,,,,,,,,,,,,,,,,,,,,,,,SPECI,310.0
VAAH 180640Z 25007KT 5000 FU NSC 40/14 Q1007 NOSIG,VAAH,2015-04-18T06:40:00Z,23.07,72.62,40.0,14.0,250,7,,3.11,29.734253,,,,,,TRUE,,,,FU,,,,,,,,,,,,,,,,,,,,,SPECI,55.0
KBQX 180640Z AUTO 02016KT 4SM BR BKN014 BKN032 OVC075 22/20 A2991 RMK A01,KBQX,2015-04-18T06:40:00Z,28.5,-95.72,22.0,20.0,20,16,,4.0,29.911417,,,TRUE,TRUE,,,,,,BR,BKN,1400,BKN,3200,OVC,7500,,,MVFR,,,,,,,,,,,,SPECI,34.0
RJTE 180636Z 22015G25KT 180V240 9999 FEW020 SCT230 17/08 Q1016 RMK 1CU020 A3002,RJTE,2015-04-18T06:36:00Z,34.97,139.82,17.0,8.0,220,15,25,6.21,30.0,,,,,,,,,,,FEW,2000,SCT,23000,,,,,VFR,,,,,,,,,,,,METAR,6.0
KAPY 180635Z AUTO 00000KT 7SM CLR 21/21 A2983 RMK AO2 T02150215,KAPY,2015-04-18T06:35:00Z,26.97,-99.25,21.5,21.5,0,0,,7.0,29.828741,,,TRUE,TRUE,,,,,,,CLR,,,,,,,,VFR,,,,,,,,,,,,METAR,129.0
WAHS 180630Z 34008KT 9000 FEW017CB FEW018 32/25 Q1007 NOSIG,WAHS,2015-04-18T06:30:00Z,,,32.0,25.0,340,8,,5.59,29.734253,,,,,,TRUE,,,,,FEW,1700,FEW,1800,,,,,VFR,,,,,,,,,,,,METAR,
VYMD 180630Z 17007G15KT 7000 BKN020 FEW025CB 39/20 Q1007,VYMD,2015-04-18T06:30:00Z,21.7,95.98,39.0,20.0,170,7,15,4.35,29.734253,,,,,,,,,,,BKN,2000,FEW,2500,,,,,MVFR,,,,,,,,,,,,METAR,91.0
OIZH 180630Z 02014KT 7000 NSC 22/07 Q1019 A3010,OIZH,2015-04-18T06:30:00Z,29.47,60.92,22.0,7.0,20,14,,4.35,30.088583,,,,,,,,,,,,,,,,,,,,,,,,,,,,,,,SPECI,1370.0
WAOO 180630Z 27008KT 9999 SCT015 33/24 Q1007 NOSIG,WAOO,2015-04-18T06:30:00Z,-3.45,114.77,33.0,24.0,270,8,,6.21,29.734253,,,,,,TRUE,,,,,SCT,1500,,,,,,,VFR,,,,,,,,,,,,METAR,20.0
UTSA 180630Z 25003KT 170V340 9999 NSC 16/04 Q1019 R25/CLRD70 NOSIG,UTSA,2015-04-18T06:30:00Z,40.12,65.17,16.0,4.0,250,3,,6.21,30.088583,,,,,,TRUE,,,,,,,,,,,,,,,,,,,,,,,,,METAR,346.0
WIBB 180630Z 08005KT 9999 SCT015 33/23 Q1008 NOSIG,WIBB,2015-04-18T06:30:00Z,0.47,101.45,33.0,23.0,80,5,,6.21,29.763779,,,,,,TRUE,,,,,SCT,1500,,,,,,,VFR,,,,,,,,,,,,METAR,31.0
VIJP 180630Z 27007KT 4000 HZ NSC 37/12 Q1007 NOSIG,VIJP,2015-04-18T06:30:00Z,26.82,75.78,37.0,12.0,270,7,,2.49,29.734253,,,,,,TRUE,,,,HZ,,,,,,,,,,,,,,,,,,,,,SPECI,390.0
VLVT 180630Z 16004KT 5000 HZ NSC 35/22 Q1007 NOSIG,VLVT,2015-04-18T06:30:00Z,17.98,102.57,35.0,22.0,160,4,,3.11,29.734253,,,,,,TRUE,,,,HZ,,,,,,,,,,,,,,,,,,,,,METAR,171.0
KMHR 180625Z 12004KT 10SM SKC 12/07 A3000 RMK LAST,KMHR,2015-04-18T06:25:00Z,38.53,-121.28,12.0,7.0,120,4,,10.0,30.0,,,,,,,,,,,SKC,,,,,,,,VFR,,,,,,,,,,,,SPECI,29.0
ENEK 180620Z 34019KT 9999 BKN018 06/02 Q1030 W08/S3,ENEK,2015-04-18T06:20:00Z,56.53,3.25,6.0,2.0,340,19,,6.21,30.413385,,,,,,,,,,,BKN,1800,,,,,,,MVFR,,,,,,,,,,,,SPECI,3.0
