No errors
No warnings
196 ms
data source=metars
4565 results
raw_text,station_id,observation_time,latitude,longitude,temp_c,dewpoint_c,wind_dir_degrees,wind_speed_kt,wind_gust_kt,visibility_statute_mi,altim_in_hg,sea_level_pressure_mb,corrected,auto,auto_station,maintenance_indicator_on,no_signal,lightning_sensor_off,freezing_rain_sensor_off,present_weather_sensor_off,wx_string,sky_cover,cloud_base_ft_agl,sky_cover,cloud_base_ft_agl,sky_cover,cloud_base_ft_agl,sky_cover,cloud_base_ft_agl,flight_category,three_hr_pressure_tendency_mb,maxT_c,minT_c,maxT24hr_c,minT24hr_c,precip_in,pcp3hr_in,pcp6hr_in,pcp24hr_in,snow_in,vert_vis_ft,metar_type,elevation_m
CYWE 120604Z AUTO 07005KT 9SM SCT055 BKN069 BKN080 OVC120 M28/M32 A3004 RMK SLP236,CYWE,2015-02-12T06:04:00Z,64.18,-114.08,-28.0,-32.0,70,5,,9.0,30.041338,1023.6,,TRUE,,,,,,,,SCT,5500,BKN,6900,BKN,8000,OVC,12000,VFR,,,,,,,,,,,,SPECI,371.0
CYVL 120603Z AUTO 03005KT 6SM HZ M38/M42 A3016 RMK CLD MISG SLP271,CYVL,2015-02-12T06:03:00Z,67.02,-126.13,-38.0,-42.0,30,5,,6.0,30.159449,1027.1,,TRUE,,,,,,,HZ,,,,,,,,,,,,,,,,,,,,,SPECI,259.0
CYNM 120603Z AUTO 33013G18KT 5SM -SN BKN048 OVC060 M21/M24 A2985 RMK SLP139,CYNM,2015-02-12T06:03:00Z,49.77,-77.82,-21.0,-24.0,330,13,18,5.0,29.84941,1013.9,,TRUE,,,,,,,-SN,BKN,4800,OVC,6000,,,,,MVFR,,,,,,,,,,,,SPECI,281.0
CYZE 120603Z AUTO 01019G25KT 3SM -SN BKN031 OVC080 M13/M16 A2986 RMK ICG SLP125,CYZE,2015-02-12T06:03:00Z,45.87,-82.57,-13.0,-16.0,10,19,25,3.0,29.861221,1012.5,,TRUE,,,,,,,-SN,BKN,3100,OVC,8000,,,,,MVFR,,,,,,,,,,,,SPECI,193.0
PATC 120602Z AUTO 03031KT 1 3/4SM BR CLR M25/M27 A2987 RMK AO2 PK WND 04032/0556 SLP128,PATC,2015-02-12T06:02:00Z,65.57,-167.92,-25.0,-27.0,30,31,,1.75,29.870079,1012.8,,TRUE,TRUE,,,,,,BR,CLR,,,,,,,,IFR,,,,,,,,,,,,SPECI,83.0
CYYN 120602Z AUTO 16022G27KT 5SM -SN OVC021 M15/M17 A3020 RMK PRESFR SLP297,CYYN,2015-02-12T06:02:00Z,50.27,-107.67,-15.0,-17.0,160,22,27,5.0,30.200787,1029.7,,TRUE,,,,,,,-SN,OVC,2100,,,,,,,MVFR,,,,,,,,,,,,SPECI,818.0
CZUM 120602Z AUTO 12002KT 5SM -SN OVC041 M27/M30 A3001 RMK SLP221,CZUM,2015-02-12T06:02:00Z,53.53,-64.08,-27.0,-30.0,120,2,,5.0,30.008858,1022.1,,TRUE,,,,,,,-SN,OVC,4100,,,,,,,MVFR,,,,,,,,,,,,SPECI,440.0
CYRQ 120602Z AUTO 06009KT 2SM -SN OVC024 M14/M17 A2981 RMK VIS VRB 1 1/2-2 1/2 SLP101,CYRQ,2015-02-12T06:02:00Z,46.35,-72.68,-14.0,-17.0,60,9,,2.0,29.811024,1010.1,,TRUE,,,,,,,-SN,OVC,2400,,,,,,,IFR,,,,,,,,,,,,SPECI,61.0
CYZY 120602Z AUTO VRB02KT 8SM -FZRA OVC011 M00/M00 A2999 RMK ICG SLP197,CYZY,2015-02-12T06:02:00Z,55.28,-123.12,0.0,0.0,0,2,,8.0,29.991142,1019.7,,TRUE,,,,,,,-FZRA,OVC,1100,,,,,,,MVFR,,,,,,,,,,,,SPECI,690.0
YMER 120602Z AUTO 15008KT 8000 // BKN013 20/18 Q1025,YMER,2015-02-12T06:02:00Z,-36.92,149.9,20.0,18.0,150,8,,4.97,30.265747,,,TRUE,,,,,,,,BKN,1300,,,,,,,MVFR,,,,,,,,,,,,SPECI,2.0
CYKL 120602Z AUTO 09004KT 080V160 4SM -SN OVC042 M27/M30 A2992 RMK SLP202,CYKL,2015-02-12T06:02:00Z,54.78,-66.82,-27.0,-30.0,90,4,,4.0,29.920275,1020.2,,TRUE,,,,,,,-SN,OVC,4200,,,,,,,MVFR,,,,,,,,,,,,SPECI,521.0
KGFA 120601Z AUTO 26003KT 5SM BR SCT004 BKN110 M03/M03 A3017 RMK AO2,KGFA,2015-02-12T06:01:00Z,47.5,-111.17,-3.0,-3.0,260,3,,5.0,30.171259,,,TRUE,TRUE,,,,,,BR,SCT,400,BKN,11000,,,,,MVFR,,,,,,,,,,,,SPECI,1075.0
ETAD 120601Z AUTO 00000KT 0400 R23/0350 FZFG VV001 M01/M02 A3016 RMK AO2,ETAD,2015-02-12T06:01:00Z,49.98,6.7,-1.0,-2.0,0,0,,0.25,30.159449,,,TRUE,TRUE,,,,,,FZFG,OVX,0,,,,,,,LIFR,,,,,,,,,,,100,SPECI,365.0
KBLF 120601Z AUTO 27008KT 10SM OVC016 01/M03 A2990 RMK AO2 T00111033,KBLF,2015-02-12T06:01:00Z,37.3,-81.2,1.1,-3.3,270,8,,10.0,29.899607,,,TRUE,TRUE,,,,,,,OVC,1600,,,,,,,MVFR,,,,,,,,,,,,SPECI,873.0
PAKF 120601Z AUTO 30003KT 6SM -RA BR BKN005 OVC011 02/01 A2918 RMK AO2 SLP976 P0005 60017 T00170006 10039 20017 56005 FZRANO $,PAKF,2015-02-12T06:01:00Z,54.85,-163.42,1.7,0.6,300,3,,6.0,29.179134,997.6,,TRUE,TRUE,TRUE,,,TRUE,,-RA BR,BKN,500,OVC,1100,,,,,IFR,-0.5,3.9,1.7,,,0.05,,0.17,,,,METAR,6.0
PAIK 120601Z AUTO 00000KT 10SM CLR M29/M33 A2993 RMK AO2 SLP186 T12941328 11256 21294 53001 FZRANO,PAIK,2015-02-12T06:01:00Z,66.98,-160.43,-29.4,-32.8,0,0,,10.0,29.929134,1018.6,,TRUE,TRUE,,,,TRUE,,,CLR,,,,,,,,VFR,0.1,-25.6,-29.4,,,,,,,,,SPECI,51.0
PABA 120601Z AUTO 06009KT 10SM M29/M32 A3024 RMK AO2 SLP239 T12941322 11289 21294 55005 FZRANO $,PABA,2015-02-12T06:01:00Z,70.13,-143.58,-29.4,-32.2,60,9,,10.0,30.239174,1023.9,,TRUE,TRUE,TRUE,,,TRUE,,,,,,,,,,,,-0.5,-28.9,-29.4,,,,,,,,,SPECI,2.0
LEGR 120601Z 00000KT 3200 -RA FEW015 SCT030 BKN035 07/07 Q1017,LEGR,2015-02-12T06:01:00Z,37.17,-3.77,7.0,7.0,0,0,,1.99,30.029528,,,,,,,,,,-RA,FEW,1500,SCT,3000,BKN,3500,,,IFR,,,,,,,,,,,,SPECI,559.0
KMQI 120601Z AUTO 20003KT 10SM CLR M02/M03 A2998 RMK AO2,KMQI,2015-02-12T06:01:00Z,35.92,-75.7,-2.0,-3.0,200,3,,10.0,29.97933,,,TRUE,TRUE,,,,,,,CLR,,,,,,,,VFR,,,,,,,,,,,,SPECI,4.0
WSAP 120600Z 04012KT 9999 SCT023 BKN350 32/21 Q1010,WSAP,2015-02-12T06:00:00Z,1.37,103.92,32.0,21.0,40,12,,6.21,29.822834,,,,,,,,,,,SCT,2300,BKN,35000,,,,,VFR,,,,,,,,,,,,METAR,32.0
SVMG 120600Z /////KT 9999 FEW010 27/24 Q1011 NOSIG,SVMG,2015-02-12T06:00:00Z,10.92,-63.97,27.0,24.0,,,,6.21,29.852362,,,,,,TRUE,,,,,FEW,1000,,,,,,,VFR,,,,,,,,,,,,METAR,23.0
SCBA 120600Z AUTO 30019KT CAVOK 06/00 Q1013,SCBA,2015-02-12T06:00:00Z,-45.92,-71.67,6.0,0.0,300,19,,6.21,29.911417,,,TRUE,,,,,,,,CAVOK,,,,,,,,VFR,,,,,,,,,,,,METAR,524.0
SCTE 120600Z 20002KT 6000 VCFG BKN050 10/09 Q1022 NOSIG,SCTE,2015-02-12T06:00:00Z,-41.42,-73.07,10.0,9.0,200,2,,3.73,30.177166,,,,,,TRUE,,,,VCFG,BKN,5000,,,,,,,MVFR,,,,,,,,,,,,METAR,86.0
UBBL 120600Z 32007KT 5000 -DZ OVC009 08/07 Q1019 R33/CLRD60 RMK MT OBSC,UBBL,2015-02-12T06:00:00Z,38.75,48.82,8.0,7.0,320,7,,3.11,30.088583,,,,,,,,,,-DZ,OVC,900,,,,,,,IFR,,,,,,,,,,,,METAR,10.0
SCRM 120600Z 00000KT 0500 FG OVC002 01/01 Q0980,SCRM,2015-02-12T06:00:00Z,-62.18,-58.98,1.0,1.0,0,0,,0.31,28.937008,,,,,,,,,,FG,OVC,200,,,,,,,LIFR,,,,,,,,,,,,METAR,45.0
SCPQ 120600Z AUTO 20003KT 9999 SCT042 08/06 Q1022,SCPQ,2015-02-12T06:00:00Z,-42.33,-73.72,8.0,6.0,200,3,,6.21,30.177166,,,TRUE,,,,,,,,SCT,4200,,,,,,,VFR,,,,,,,,,,,,METAR,5.0
SCIP 120600Z 10010KT 9999 SCT020 23/17 Q1024 NOSIG,SCIP,2015-02-12T06:00:00Z,-27.17,-109.43,23.0,17.0,100,10,,6.21,30.236221,,,,,,TRUE,,,,,SCT,2000,,,,,,,VFR,,,,,,,,,,,,METAR,69.0
SCEL 120600Z 18005KT CAVOK 20/07 Q1016 NOSIG,SCEL,2015-02-12T06:00:00Z,-33.37,-70.77,20.0,7.0,180,5,,6.21,30.0,,,,,,TRUE,,,,,CAVOK,,,,,,,,VFR,,,,,,,,,,,,METAR,476.0
SCCI 120600Z 25015KT 9999 SCT030 07/02 Q1004 NOSIG,SCCI,2015-02-12T06:00:00Z,-53.0,-70.83,7.0,2.0,250,15,,6.21,29.64567,,,,,,TRUE,,,,,SCT,3000,,,,,,,VFR,,,,,,,,,,,,METAR,37.0
SCSE 120600Z 27005KT CAVOK 16/15 Q1014,SCSE,2015-02-12T06:00:00Z,-29.92,-71.2,16.0,15.0,270,5,,6.21,29.940945,,,,,,,,,,,CAVOK,,,,,,,,VFR,,,,,,,,,,,,METAR,146.0
SCDA 120600Z 19009KT CAVOK 22/15 Q1014,SCDA,2015-02-12T06:00:00Z,-20.52,-70.17,22.0,15.0,190,9,,6.21,29.940945,,,,,,,,,,,CAVOK,,,,,,,,VFR,,,,,,,,,,,,METAR,52.0
SCAT 120600Z VRB02KT CAVOK 18/14 Q1016,SCAT,2015-02-12T06:00:00Z,-27.27,-70.77,18.0,14.0,0,2,,6.21,30.0,,,,,,,,,,,CAVOK,,,,,,,,VFR,,,,,,,,,,,,METAR,204.0
SCIE 120600Z 21007KT CAVOK 14/10 Q1018,SCIE,2015-02-12T06:00:00Z,-36.77,-73.07,14.0,10.0,210,7,,6.21,30.059055,,,,,,,,,,,CAVOK,,,,,,,,VFR,,,,,,,,,,,,METAR,16.0
SCCF 120600Z 18005KT CAVOK 13/07 Q1027,SCCF,2015-02-12T06:00:00Z,-22.5,-68.9,13.0,7.0,180,5,,6.21,30.324802,,,,,,,,,,,CAVOK,,,,,,,,VFR,,,,,,,,,,,,METAR,2312.0
SCAR 120600Z 35004KT CAVOK 23/18 Q1013,SCAR,2015-02-12T06:00:00Z,-18.35,-70.32,23.0,18.0,350,4,,6.21,29.911417,,,,,,,,,,,CAVOK,,,,,,,,VFR,,,,,,,,,,,,METAR,59.0
SCFA 120600Z 19004KT 9999 BKN013 19/17 Q1013 NOSIG,SCFA,2015-02-12T06:00:00Z,-23.42,-70.42,19.0,17.0,190,4,,6.21,29.911417,,,,,,TRUE,,,,,BKN,1300,,,,,,,MVFR,,,,,,,,,,,,METAR,120.0
YCCY 120600Z AUTO 11014KT //// // ////// 37/10 Q1008,YCCY,2015-02-12T06:00:00Z,-20.67,140.5,37.0,10.0,110,14,,,29.763779,,,TRUE,,,,,,,,,,,,,,,,,,,,,,,,,,,,METAR,570.0
YCBP 120600Z AUTO 13011KT 060V150 //// // NCD 41/M06 Q1012,YCBP,2015-02-12T06:00:00Z,-29.03,134.72,41.0,-6.0,130,11,,,29.88189,,,TRUE,,,,,,,,,,,,,,,,,,,,,,,,,,,,METAR,226.0
YCBB 120600Z AUTO 19010KT //// // ////// 23/16 Q1019,YCBB,2015-02-12T06:00:00Z,-31.33,149.27,23.0,16.0,190,10,,,30.088583,,,TRUE,,,,,,,,,,,,,,,,,,,,,,,,,,,,METAR,645.0
YCBA 120600Z AUTO 15009KT //// // ////// 35/11 Q1015,YCBA,2015-02-12T06:00:00Z,-31.53,145.8,35.0,11.0,150,9,,,29.970472,,,TRUE,,,,,,,,,,,,,,,,,,,,,,,,,,,,METAR,221.0
YCAS 120600Z AUTO 11014KT //// // ////// 28/19 Q1018,YCAS,2015-02-12T06:00:00Z,-28.88,153.07,28.0,19.0,110,14,,,30.059055,,,TRUE,,,,,,,,,,,,,,,,,,,,,,,,,,,,METAR,26.0
YCAR 120600Z AUTO 22016KT 9999 // ////// 33/23 Q1006,YCAR,2015-02-12T06:00:00Z,-24.88,113.67,33.0,23.0,220,16,,6.21,29.704725,,,TRUE,,,,,,,,,,,,,,,,,,,,,,,,,,,,METAR,8.0
YBWX 120600Z AUTO 23011KT //// // ////// 36/22 Q1008,YBWX,2015-02-12T06:00:00Z,-20.88,115.4,36.0,22.0,230,11,,,29.763779,,,TRUE,,,,,,,,,,,,,,,,,,,,,,,,,,,,METAR,6.0
YBWP 120600Z AUTO 02004KT 9999 // SCT024 BKN046 OVC054 24/23 Q1005,YBWP,2015-02-12T06:00:00Z,-12.68,141.92,24.0,23.0,20,4,,6.21,29.675198,,,TRUE,,,,,,,,SCT,2400,BKN,4600,OVC,5400,,,VFR,,,,,,,,,,,,METAR,12.0
YBUD 120600Z AUTO 11018KT 9999 // SCT037 29/18 Q1014,YBUD,2015-02-12T06:00:00Z,-24.9,152.32,29.0,18.0,110,18,,6.21,29.940945,,,TRUE,,,,,,,,SCT,3700,,,,,,,VFR,,,,,,,,,,,,METAR,82.0
YBTL 120600Z 07018KT 9999 FEW042 31/22 Q1008,YBTL,2015-02-12T06:00:00Z,-19.25,146.75,31.0,22.0,70,18,,6.21,29.763779,,,,,,,,,,,FEW,4200,,,,,,,VFR,,,,,,,,,,,,METAR,6.0
FBSK 120600Z 09007KT CAVOK 24/14 Q1020 NOSIG,FBSK,2015-02-12T06:00:00Z,-24.55,25.92,24.0,14.0,90,7,,6.21,30.11811,,,,,,TRUE,,,,,CAVOK,,,,,,,,VFR,,,,,,,,,,,,METAR,1005.0
LKTB 120600Z 11006KT 6000 OVC017 01/M01 Q1026 R28/21//95 NOSIG,LKTB,2015-02-12T06:00:00Z,49.13,16.68,1.0,-1.0,110,6,,3.73,30.295275,,,,,,TRUE,,,,,OVC,1700,,,,,,,MVFR,,,,,,,,,,,,METAR,246.0
LKPR 120600Z 18005KT 150V210 9999 OVC009 M01/M03 Q1024 NOSIG,LKPR,2015-02-12T06:00:00Z,50.1,14.27,-1.0,-3.0,180,5,,6.21,30.236221,,,,,,TRUE,,,,,OVC,900,,,,,,,IFR,,,,,,,,,,,,METAR,365.0
LKMT 120600Z 24010KT 9999 SCT017 OVC021 01/M01 Q1026 NOSIG,LKMT,2015-02-12T06:00:00Z,49.67,18.12,1.0,-1.0,240,10,,6.21,30.295275,,,,,,TRUE,,,,,SCT,1700,OVC,2100,,,,,MVFR,,,,,,,,,,,,METAR,256.0
LKKV 120600Z 10005KT 0800 R29/2000D FZFG BKN002 M04/M04 Q1022 R29///////,LKKV,2015-02-12T06:00:00Z,50.2,12.92,-4.0,-4.0,100,5,,0.5,30.177166,,,,,,,,,,FZFG,BKN,200,,,,,,,LIFR,,,,,,,,,,,,METAR,604.0
LYVR 120600Z 00000KT CAVOK M04/M05 Q1029 NOSIG,LYVR,2015-02-12T06:00:00Z,45.13,21.32,-4.0,-5.0,0,0,,6.21,30.383858,,,,,,TRUE,,,,,CAVOK,,,,,,,,VFR,,,,,,,,,,,,METAR,85.0
LYUZ 120600Z VRB01KT 0200 FZFG VV001 M06/M06 Q1023 R10///////,LYUZ,2015-02-12T06:00:00Z,43.9,19.7,-6.0,-6.0,0,1,,0.12,30.206694,,,,,,,,,,FZFG,OVX,0,,,,,,,LIFR,,,,,,,,,,,100,METAR,904.0
LYTV 120600Z VRB07KT CAVOK 06/M09 Q1023 NOSIG,LYTV,2015-02-12T06:00:00Z,42.38,18.72,6.0,-9.0,0,7,,6.21,30.206694,,,,,,TRUE,,,,,CAVOK,,,,,,,,VFR,,,,,,,,,,,,METAR,5.0
LYPG 120600Z VRB01KT CAVOK 03/M09 Q1024 NOSIG,LYPG,2015-02-12T06:00:00Z,42.37,19.25,3.0,-9.0,0,1,,6.21,30.236221,,,,,,TRUE,,,,,CAVOK,,,,,,,,VFR,,,,,,,,,,,,METAR,43.0
LYNI 120600Z VRB01KT CAVOK M06/M09 Q1029,LYNI,2015-02-12T06:00:00Z,43.32,21.88,-6.0,-9.0,0,1,,6.21,30.383858,,,,,,,,,,,CAVOK,,,,,,,,VFR,,,,,,,,,,,,METAR,202.0
LYKV 120600Z 00000KT 2500 BR NSC M06/M06 Q1029 NOSIG,LYKV,2015-02-12T06:00:00Z,43.82,20.58,-6.0,-6.0,0,0,,1.55,30.383858,,,,,,TRUE,,,,BR,,,,,,,,,,,,,,,,,,,,,METAR,209.0
LYBT 120600Z 11003KT 0800 FZFG NSC M05/M06 Q1029 TEMPO 0500,LYBT,2015-02-12T06:00:00Z,44.93,20.25,-5.0,-6.0,110,3,,0.5,30.383858,,,,,,,,,,FZFG,,,,,,,,,,,,,,,,,,,,,METAR,80.0
LYBE 120600Z 13005KT 3000 BR NSC M04/M05 Q1029 TEMPO 1500,LYBE,2015-02-12T06:00:00Z,44.82,20.28,-4.0,-5.0,130,5,,1.86,30.383858,,,,,,,,,,BR,,,,,,,,,,,,,,,,,,,,,METAR,99.0
EPWA 120600Z 20007KT 9999 OVC012 01/M01 Q1026 NOSIG,EPWA,2015-02-12T06:00:00Z,52.17,20.97,1.0,-1.0,200,7,,6.21,30.295275,,,,,,TRUE,,,,,OVC,1200,,,,,,,MVFR,,,,,,,,,,,,METAR,107.0
EPRZ 120600Z 18003KT 9999 OVC015 01/M01 Q1028,EPRZ,2015-02-12T06:00:00Z,50.1,22.05,1.0,-1.0,180,3,,6.21,30.35433,,,,,,,,,,,OVC,1500,,,,,,,MVFR,,,,,,,,,,,,METAR,202.0
EPPO 120600Z 21005KT 150V230 9999 BKN016 03/M01 Q1025,EPPO,2015-02-12T06:00:00Z,52.42,16.82,3.0,-1.0,210,5,,6.21,30.265747,,,,,,,,,,,BKN,1600,,,,,,,MVFR,,,,,,,,,,,,METAR,92.0
EPLL 120600Z 18006KT 9999 OVC013 01/M01 Q1026,EPLL,2015-02-12T06:00:00Z,51.72,19.4,1.0,-1.0,180,6,,6.21,30.295275,,,,,,,,,,,OVC,1300,,,,,,,MVFR,,,,,,,,,,,,METAR,184.0
EPKK 120600Z 05002KT 3500 BR BKN020 01/M00 Q1026,EPKK,2015-02-12T06:00:00Z,50.07,19.8,1.0,0.0,50,2,,2.17,30.295275,,,,,,,,,,BR,BKN,2000,,,,,,,IFR,,,,,,,,,,,,METAR,237.0
EPGD 120600Z 24005KT 180V280 6000 OVC006 M00/M01 Q1023,EPGD,2015-02-12T06:00:00Z,54.37,18.47,0.0,-1.0,240,5,,3.73,30.206694,,,,,,,,,,,OVC,600,,,,,,,IFR,,,,,,,,,,,,METAR,138.0
LQTZ 120600Z VRB02KT 0100 DZ FG VV002 00/00 Q1027,LQTZ,2015-02-12T06:00:00Z,44.47,18.73,0.0,0.0,0,2,,0.06,30.324802,,,,,,,,,,DZ FG,OVX,0,,,,,,,LIFR,,,,,,,,,,,200,METAR,306.0
LQSA 120600Z VRB02KT 9999 FEW025 BKN040 M01/M01 Q1026 NOSIG,LQSA,2015-02-12T06:00:00Z,43.82,18.32,-1.0,-1.0,0,2,,6.21,30.295275,,,,,,TRUE,,,,,FEW,2500,BKN,4000,,,,,VFR,,,,,,,,,,,,METAR,511.0
LQBK 120600Z 14003KT 1700 -DZ BR BKN004 OVC015 01/00 Q1027 NOSIG,LQBK,2015-02-12T06:00:00Z,44.93,17.3,1.0,0.0,140,3,,1.06,30.324802,,,,,,TRUE,,,,-DZ BR,BKN,400,OVC,1500,,,,,LIFR,,,,,,,,,,,,METAR,122.0
EPZG 120600Z 12002KT 8000 BKN019 01/M00 Q1025,EPZG,2015-02-12T06:00:00Z,52.13,15.8,1.0,0.0,120,2,,4.97,30.265747,,,,,,,,,,,BKN,1900,,,,,,,MVFR,,,,,,,,,,,,METAR,59.0
EPWR 120600Z 15005KT CAVOK M00/M02 Q1024,EPWR,2015-02-12T06:00:00Z,51.1,16.87,0.0,-2.0,150,5,,6.21,30.236221,,,,,,,,,,,CAVOK,,,,,,,,VFR,,,,,,,,,,,,METAR,121.0
EPSC 120600Z 18005KT 9999 BKN009 01/M00 Q1024,EPSC,2015-02-12T06:00:00Z,53.58,14.9,1.0,0.0,180,5,,6.21,30.236221,,,,,,,,,,,BKN,900,,,,,,,IFR,,,,,,,,,,,,METAR,3.0
GBYD 120600Z 00000KT 9000 NSC 17/16 Q1012,GBYD,2015-02-12T06:00:00Z,13.33,-16.65,17.0,16.0,0,0,,5.59,29.88189,,,,,,,,,,,,,,,,,,,,,,,,,,,,,,,METAR,36.0
GLRB 120600Z 00000KT 9999 BKN011 FEW022 CB 23/22 Q1013 RMK CB-/S/SW,GLRB,2015-02-12T06:00:00Z,6.25,-10.33,23.0,22.0,0,0,,6.21,29.911417,,,,,,,,,,,BKN,1100,FEW,2200,,,,,MVFR,,,,,,,,,,,,METAR,18.0
WAMM 120600Z 30007KT 220V360 9999 SCT021 31/24 Q1009 NOSIG,WAMM,2015-02-12T06:00:00Z,1.55,124.92,31.0,24.0,300,7,,6.21,29.793306,,,,,,TRUE,,,,,SCT,2100,,,,,,,VFR,,,,,,,,,,,,METAR,80.0
SBSL 120600Z 05005KT 9999 SCT017 27/22 Q1012,SBSL,2015-02-12T06:00:00Z,-2.6,-44.22,27.0,22.0,50,5,,6.21,29.88189,,,,,,,,,,,SCT,1700,,,,,,,VFR,,,,,,,,,,,,METAR,53.0
ZMUB 120600Z VRB01MPS 8000NW NSC M08/M16 Q1013 NOSIG RMK QFE652.8 50 NW MO,ZMUB,2015-02-12T06:00:00Z,47.83,106.78,-8.0,-16.0,0,2,,4.97,29.911417,,,,,,TRUE,,,,,,,,,,,,,,,,,,,,,,,,,METAR,1330.0
LWSK 120600Z 34002KT CAVOK M06/M08 Q1028 NOSIG,LWSK,2015-02-12T06:00:00Z,41.97,21.63,-6.0,-8.0,340,2,,6.21,30.35433,,,,,,TRUE,,,,,CAVOK,,,,,,,,VFR,,,,,,,,,,,,METAR,239.0
SBPS 120600Z 27003KT CAVOK 22/22 Q1016,SBPS,2015-02-12T06:00:00Z,-16.43,-39.07,22.0,22.0,270,3,,6.21,30.0,,,,,,,,,,,CAVOK,,,,,,,,VFR,,,,,,,,,,,,METAR,51.0
SVBC 120600Z 00000KT 9999 SCT010 25/25 Q1013,SVBC,2015-02-12T06:00:00Z,10.12,-64.67,25.0,25.0,0,0,,6.21,29.911417,,,,,,,,,,,SCT,1000,,,,,,,VFR,,,,,,,,,,,,METAR,7.0
KESN 120600Z AUTO 20004KT 10SM SCT110 00/00 A2995 RMK AO2 T00001005,KESN,2015-02-12T06:00:00Z,38.8,-76.07,0.0,-0.5,200,4,,10.0,29.949802,,,TRUE,TRUE,,,,,,,SCT,11000,,,,,,,VFR,,,,,,,,,,,,SPECI,22.0
SBBV 120600Z 06004KT CAVOK 25/20 Q1011,SBBV,2015-02-12T06:00:00Z,2.85,-60.7,25.0,20.0,60,4,,6.21,29.852362,,,,,,,,,,,CAVOK,,,,,,,,VFR,,,,,,,,,,,,METAR,140.0
OYRN 120600Z 05009KT 020V080 9999 SCT020 26/18 Q1019,OYRN,2015-02-12T06:00:00Z,14.67,49.38,26.0,18.0,50,9,,6.21,30.088583,,,,,,,,,,,SCT,2000,,,,,,,VFR,,,,,,,,,,,,METAR,17.0
SCTN 120600Z AUTO 22005KT 190V250 9999 FEW023 12/09 Q1021,SCTN,2015-02-12T06:00:00Z,-42.92,-72.7,12.0,9.0,220,5,,6.21,30.147638,,,TRUE,,,,,,,,FEW,2300,,,,,,,VFR,,,,,,,,,,,,METAR,4.0
SBMO 120600Z 07004KT 9999 SCT020 23/23 Q1015,SBMO,2015-02-12T06:00:00Z,-9.52,-35.77,23.0,23.0,70,4,,6.21,29.970472,,,,,,,,,,,SCT,2000,,,,,,,VFR,,,,,,,,,,,,METAR,115.0
SBRF 120600Z 12007KT 9999 BKN020 27/24 Q1014,SBRF,2015-02-12T06:00:00Z,-8.13,-34.92,27.0,24.0,120,7,,6.21,29.940945,,,,,,,,,,,BKN,2000,,,,,,,MVFR,,,,,,,,,,,,METAR,19.0
TGPY 120600Z 12014KT 9999 FEW019 26/24 Q1011,TGPY,2015-02-12T06:00:00Z,12.0,-61.78,26.0,24.0,120,14,,6.21,29.852362,,,,,,,,,,,FEW,1900,,,,,,,VFR,,,,,,,,,,,,METAR,7.0
EIKN 120600Z 16007KT 9999 OVC047 04/02 Q1016 NOSIG,EIKN,2015-02-12T06:00:00Z,53.92,-8.82,4.0,2.0,160,7,,6.21,30.0,,,,,,TRUE,,,,,OVC,4700,,,,,,,VFR,,,,,,,,,,,,METAR,64.0
EICK 120600Z 14004KT 9999 SCT018 BKN050 05/04 Q1017 NOSIG,EICK,2015-02-12T06:00:00Z,51.85,-8.47,5.0,4.0,140,4,,6.21,30.029528,,,,,,TRUE,,,,,SCT,1800,BKN,5000,,,,,VFR,,,,,,,,,,,,METAR,162.0
EINN 120600Z 11008KT 9000 NSC 05/03 Q1017 NOSIG,EINN,2015-02-12T06:00:00Z,52.7,-8.92,5.0,3.0,110,8,,5.59,30.029528,,,,,,TRUE,,,,,,,,,,,,,,,,,,,,,,,,,METAR,20.0
EIDW 120600Z 00000KT 9999 FEW015 BKN040 03/02 Q1018 NOSIG,EIDW,2015-02-12T06:00:00Z,53.42,-6.25,3.0,2.0,0,0,,6.21,30.059055,,,,,,TRUE,,,,,FEW,1500,BKN,4000,,,,,VFR,,,,,,,,,,,,METAR,85.0
BIRK 120600Z 31012KT 9999 FEW032 SCT039 M03/M09 Q1010 RESHGS,BIRK,2015-02-12T06:00:00Z,64.13,-21.93,-3.0,-9.0,310,12,,6.21,29.822834,,,,,,,,,,,FEW,3200,SCT,3900,,,,,VFR,,,,,,,,,,,,METAR,61.0
BIKF 120600Z 32012KT 9999 VCSH FEW014CB SCT037 BKN190 M04/M10 Q1010 R29/720155,BIKF,2015-02-12T06:00:00Z,63.98,-22.6,-4.0,-10.0,320,12,,6.21,29.822834,,,,,,,,,,VCSH,FEW,1400,SCT,3700,BKN,19000,,,VFR,,,,,,,,,,,,METAR,54.0
BIEG 120600Z 24014KT 9999 FEW060 M06/M11 Q1009,BIEG,2015-02-12T06:00:00Z,65.27,-14.4,-6.0,-11.0,240,14,,6.21,29.793306,,,,,,,,,,,FEW,6000,,,,,,,VFR,,,,,,,,,,,,METAR,38.0
BIAR 120600Z 24003KT 190V340 9999 OVC055 M05/M10 Q1008,BIAR,2015-02-12T06:00:00Z,65.67,-18.07,-5.0,-10.0,240,3,,6.21,29.763779,,,,,,,,,,,OVC,5500,,,,,,,VFR,,,,,,,,,,,,METAR,27.0
AGGH 120600Z 14002KT 9999 HZ FEW017 FEW019CB SCT032 OVC100 28/24 Q1007,AGGH,2015-02-12T06:00:00Z,-9.42,160.05,28.0,24.0,140,2,,6.21,29.734253,,,,,,,,,,HZ,FEW,1700,FEW,1900,SCT,3200,OVC,10000,VFR,,,,,,,,,,,,METAR,9.0
KTDR 120600Z AUTO M 1 3/8SM BCFG CLR 07/08 A3007 RMK AO2 VIS 3/16V1 3/8 $,KTDR,2015-02-12T06:00:00Z,30.05,-85.52,7.0,8.0,,,,1.38,30.070866,,,TRUE,TRUE,TRUE,,,,,BCFG,CLR,,,,,,,,IFR,,,,,,,,,,,,SPECI,5.0
KSKA 120600Z AUTO 01004KT 10SM BKN100 OVC210 06/06 A3026 RMK AO2 UPE00,KSKA,2015-02-12T06:00:00Z,47.62,-117.65,6.0,6.0,10,4,,10.0,30.259842,,,TRUE,TRUE,,,,,,,BKN,10000,OVC,21000,,,,,VFR,,,,,,,,,,,,SPECI,750.0
SMJP 120600Z 00000KT 9999 FEW012 SCT035 25/24 Q1013 NOSIG,SMJP,2015-02-12T06:00:00Z,5.45,-55.17,25.0,24.0,0,0,,6.21,29.911417,,,,,,TRUE,,,,,FEW,1200,SCT,3500,,,,,VFR,,,,,,,,,,,,METAR,16.0
SBSP 120600Z 03002KT CAVOK 24/20 Q1019,SBSP,2015-02-12T06:00:00Z,-23.62,-46.63,24.0,20.0,30,2,,6.21,30.088583,,,,,,,,,,,CAVOK,,,,,,,,VFR,,,,,,,,,,,,METAR,803.0
SBKP 120600Z 05003KT CAVOK 23/20 Q1018,SBKP,2015-02-12T06:00:00Z,-23.0,-47.12,23.0,20.0,50,3,,6.21,30.059055,,,,,,,,,,,CAVOK,,,,,,,,VFR,,,,,,,,,,,,METAR,661.0
SBPA 120600Z 18003KT 9999 SCT030 24/23 Q1010,SBPA,2015-02-12T06:00:00Z,-30.0,-51.17,24.0,23.0,180,3,,6.21,29.822834,,,,,,,,,,,SCT,3000,,,,,,,VFR,,,,,,,,,,,,METAR,3.0
MNMG 120600Z 13004KT 9999 FEW020 25/18 Q1012 A2990 NOSIG,MNMG,2015-02-12T06:00:00Z,12.15,-86.17,25.0,18.0,130,4,,6.21,29.88189,,,,,,TRUE,,,,,FEW,2000,,,,,,,VFR,,,,,,,,,,,,METAR,59.0
SBMA 120600Z 24001KT CAVOK 24/23 Q1012,SBMA,2015-02-12T06:00:00Z,-5.37,-49.13,24.0,23.0,240,1,,6.21,29.88189,,,,,,,,,,,CAVOK,,,,,,,,VFR,,,,,,,,,,,,METAR,102.0
SBCY 120600Z 36002KT CAVOK 24/23 Q1013,SBCY,2015-02-12T06:00:00Z,-15.65,-56.12,24.0,23.0,360,2,,6.21,29.911417,,,,,,,,,,,CAVOK,,,,,,,,VFR,,,,,,,,,,,,METAR,182.0
OSKL 120600Z 00000KT 2000 HZ SCT026 BKN100 05/03 Q1013,OSKL,2015-02-12T06:00:00Z,37.03,41.2,5.0,3.0,0,0,,1.24,29.911417,,,,,,,,,,HZ,SCT,2600,BKN,10000,,,,,IFR,,,,,,,,,,,,METAR,455.0
OSLK 120600Z 15015KT 8000 SCT026CB BKN030 BKN100 09/05 Q1012,OSLK,2015-02-12T06:00:00Z,35.4,35.95,9.0,5.0,150,15,,4.97,29.88189,,,,,,,,,,,SCT,2600,BKN,3000,BKN,10000,,,MVFR,,,,,,,,,,,,METAR,7.0
SBPK 120600Z 26004KT 9999 SCT007 OVC018 21/21 Q1012,SBPK,2015-02-12T06:00:00Z,-31.72,-52.33,21.0,21.0,260,4,,6.21,29.88189,,,,,,,,,,,SCT,700,OVC,1800,,,,,MVFR,,,,,,,,,,,,METAR,13.0
FQCH 120600Z /////KT 9999 FEW015 24/19 Q1019,FQCH,2015-02-12T06:00:00Z,-19.15,33.43,24.0,19.0,,,,6.21,30.088583,,,,,,,,,,,FEW,1500,,,,,,,VFR,,,,,,,,,,,,METAR,732.0
KQEI 120600Z AUTO 03012G24KT 9999 CLR 00/M21 A2982 RMK A02 TSNO,KQEI,2015-02-12T06:00:00Z,100.65,-1000.65,0.0,-21.0,30,12,24,6.21,29.819881,,,TRUE,TRUE,,,TRUE,,,,CLR,,,,,,,,VFR,,,,,,,,,,,,METAR,999.0
KQEJ 120600Z AUTO 29007G19KT 9999 CLR 00/M20 A2979 RMK A02 TSNO,KQEJ,2015-02-12T06:00:00Z,100.65,-1000.65,0.0,-20.0,290,7,19,6.21,29.790354,,,TRUE,TRUE,,,TRUE,,,,CLR,,,,,,,,VFR,,,,,,,,,,,,METAR,999.0
KQEL 120600Z AUTO 32003KT 9999 CLR 01/M20 A2992 RMK A02 TSNO,KQEL,2015-02-12T06:00:00Z,100.65,-1000.65,1.0,-20.0,320,3,,6.21,29.920275,,,TRUE,TRUE,,,TRUE,,,,CLR,,,,,,,,VFR,,,,,,,,,,,,METAR,999.0
KQEN 120600Z AUTO 9999 CLR M05/M19 / RMK A02 TSNO,KQEN,2015-02-12T06:00:00Z,100.65,-1000.65,-5.0,-19.0,,,,6.21,,,,TRUE,TRUE,,,TRUE,,,,CLR,,,,,,,,VFR,,,,,,,,,,,,METAR,999.0
KQEP 120600Z AUTO 28014G21KT 9999 CLR 01/M16 A2986 RMK A02 TSNO,KQEP,2015-02-12T06:00:00Z,100.65,-1000.65,1.0,-16.0,280,14,21,6.21,29.861221,,,TRUE,TRUE,,,TRUE,,,,CLR,,,,,,,,VFR,,,,,,,,,,,,METAR,999.0
KQEQ 120600Z AUTO 31011G25KT 9999 CLR 01/M20 A2980 RMK A02 TSNO,KQEQ,2015-02-12T06:00:00Z,100.65,-1000.65,1.0,-20.0,310,11,25,6.21,29.799213,,,TRUE,TRUE,,,TRUE,,,,CLR,,,,,,,,VFR,,,,,,,,,,,,METAR,999.0
KQER 120600Z AUTO 8000 /CLR M06/M11 / RMK A02 TSNO,KQER,2015-02-12T06:00:00Z,100.65,-1000.65,-6.0,-11.0,,,,4.97,,,,TRUE,TRUE,,,TRUE,,,,CLR,,,,,,,,MVFR,,,,,,,,,,,,METAR,999.0
KQES 120600Z AUTO 9999 SCT046 01/M10 A3002 RMK A02 TSNO,KQES,2015-02-12T06:00:00Z,100.65,-1000.65,1.0,-10.0,,,,6.21,30.02067,,,TRUE,TRUE,,,TRUE,,,,SCT,4600,,,,,,,VFR,,,,,,,,,,,,METAR,999.0
KQEV 120600Z AUTO 32006G17KT 9999 CLR 04/M13 A2994 RMK A02 TSNO,KQEV,2015-02-12T06:00:00Z,100.65,-1000.65,4.0,-13.0,320,6,17,6.21,29.940945,,,TRUE,TRUE,,,TRUE,,,,CLR,,,,,,,,VFR,,,,,,,,,,,,METAR,999.0
KQEW 120600Z AUTO 28012G18KT 9999 CLR 03/M14 A2984 RMK A02 TSNO,KQEW,2015-02-12T06:00:00Z,100.65,-1000.65,3.0,-14.0,280,12,18,6.21,29.840551,,,TRUE,TRUE,,,TRUE,,,,CLR,,,,,,,,VFR,,,,,,,,,,,,METAR,999.0
KQEY 120600Z AUTO 29007G20KT 9999 CLR 03/M14 A2989 RMK A02 TSNO,KQEY,2015-02-12T06:00:00Z,100.65,-1000.65,3.0,-14.0,290,7,20,6.21,29.890747,,,TRUE,TRUE,,,TRUE,,,,CLR,,,,,,,,VFR,,,,,,,,,,,,METAR,999.0
KQFB 120600Z AUTO 31010G21KT 9999 CLR 05/M14 A2986 RMK A02 TSNO,KQFB,2015-02-12T06:00:00Z,100.65,-1000.65,5.0,-14.0,310,10,21,6.21,29.861221,,,TRUE,TRUE,,,TRUE,,,,CLR,,,,,,,,VFR,,,,,,,,,,,,METAR,999.0
KQEX 120600Z AUTO 31010G19KT 9999 CLR 05/M13 A2988 RMK A02 TSNO,KQEX,2015-02-12T06:00:00Z,100.65,-1000.65,5.0,-13.0,310,10,19,6.21,29.878937,,,TRUE,TRUE,,,TRUE,,,,CLR,,,,,,,,VFR,,,,,,,,,,,,METAR,999.0
KQFU 120600Z AUTO 08005G17KT 9999 CLR 01/M20 A2992 RMK A02 TSNO,KQFU,2015-02-12T06:00:00Z,100.65,-1000.65,1.0,-20.0,80,5,17,6.21,29.920275,,,TRUE,TRUE,,,TRUE,,,,CLR,,,,,,,,VFR,,,,,,,,,,,,METAR,999.0
KQFT 120600Z AUTO 22008G16KT 9999 CLR 02/M17 A2989 RMK A02 TSNO,KQFT,2015-02-12T06:00:00Z,100.65,-1000.65,2.0,-17.0,220,8,16,6.21,29.890747,,,TRUE,TRUE,,,TRUE,,,,CLR,,,,,,,,VFR,,,,,,,,,,,,METAR,999.0
KQFV 120600Z AUTO 30008G16KT 9999 CLR M01/M20 A2982 RMK A02 TSNO,KQFV,2015-02-12T06:00:00Z,100.65,-1000.65,-1.0,-20.0,300,8,16,6.21,29.819881,,,TRUE,TRUE,,,TRUE,,,,CLR,,,,,,,,VFR,,,,,,,,,,,,METAR,999.0
UHHH 120600Z 25005MPS 9999 SCT036 BKN100 M12/M14 Q1010 NOSIG,UHHH,2015-02-12T06:00:00Z,48.52,135.18,-12.0,-14.0,250,10,,6.21,29.822834,,,,,,TRUE,,,,,SCT,3600,BKN,10000,,,,,VFR,,,,,,,,,,,,METAR,72.0
UGKO 120600Z VRB02KT 5000 BR NSC 07/06 Q1014 NOSIG,UGKO,2015-02-12T06:00:00Z,42.18,42.48,7.0,6.0,0,2,,3.11,29.940945,,,,,,TRUE,,,,BR,,,,,,,,,,,,,,,,,,,,,METAR,68.0
UGSB 120600Z 21006KT 9999 -RA SCT013 BKN024 08/08 Q1017 R13/29//55 NOSIG,UGSB,2015-02-12T06:00:00Z,41.62,41.6,8.0,8.0,210,6,,6.21,30.029528,,,,,,TRUE,,,,-RA,SCT,1300,BKN,2400,,,,,MVFR,,,,,,,,,,,,METAR,32.0
UGTB 120600Z 15003KT 090V180 9000 -RA BKN015 OVC027 04/03 Q1019 R13R/290067 NOSIG,UGTB,2015-02-12T06:00:00Z,41.67,44.95,4.0,3.0,150,3,,5.59,30.088583,,,,,,TRUE,,,,-RA,BKN,1500,OVC,2700,,,,,MVFR,,,,,,,,,,,,METAR,495.0
GMTT 120600Z 13003KT 100V180 8000 SCT010 BKN016 11/09 Q1017 RERA NOSIG,GMTT,2015-02-12T06:00:00Z,35.72,-5.9,11.0,9.0,130,3,,4.97,30.029528,,,,,,TRUE,,,,,SCT,1000,BKN,1600,,,,,MVFR,,,,,,,,,,,,METAR,21.0
GMMX 120600Z 00000KT 9999 SCT026 SCT090 10/07 Q1017 NOSIG,GMMX,2015-02-12T06:00:00Z,31.62,-8.02,10.0,7.0,0,0,,6.21,30.029528,,,,,,TRUE,,,,,SCT,2600,SCT,9000,,,,,VFR,,,,,,,,,,,,METAR,466.0
GMMN 120600Z 11005KT 9999 BKN016 SCT080 09/09 Q1018 NOSIG,GMMN,2015-02-12T06:00:00Z,33.37,-7.57,9.0,9.0,110,5,,6.21,30.059055,,,,,,TRUE,,,,,BKN,1600,SCT,8000,,,,,MVFR,,,,,,,,,,,,METAR,206.0
GMME 120600Z 12003KT 090V170 5000 SCT006 BKN016 11/10 Q1016 RERA NOSIG,GMME,2015-02-12T06:00:00Z,34.03,-6.77,11.0,10.0,120,3,,3.11,30.0,,,,,,TRUE,,,,,SCT,600,BKN,1600,,,,,MVFR,,,,,,,,,,,,METAR,75.0
GMFF 120600Z 25005KT 9999 SCT033 BKN100 10/08 Q1017 RERA NOSIG,GMFF,2015-02-12T06:00:00Z,33.92,-4.97,10.0,8.0,250,5,,6.21,30.029528,,,,,,TRUE,,,,,SCT,3300,BKN,10000,,,,,VFR,,,,,,,,,,,,METAR,579.0
GMAD 120600Z 10002KT CAVOK 10/07 Q1018 NOSIG,GMAD,2015-02-12T06:00:00Z,30.32,-9.42,10.0,7.0,100,2,,6.21,30.059055,,,,,,TRUE,,,,,CAVOK,,,,,,,,VFR,,,,,,,,,,,,METAR,74.0
SBRB 120600Z 00000KT 3000 BR SCT001 BKN100 22/21 Q1014,SBRB,2015-02-12T06:00:00Z,-10.0,-67.78,22.0,21.0,0,0,,1.86,29.940945,,,,,,,,,,BR,SCT,100,BKN,10000,,,,,IFR,,,,,,,,,,,,METAR,143.0
KQFX 120600Z AUTO 35007G15KT 9999 CLR 03/M16 A2989 RMK A02 TSNO,KQFX,2015-02-12T06:00:00Z,100.65,-1000.65,3.0,-16.0,350,7,15,6.21,29.890747,,,TRUE,TRUE,,,TRUE,,,,CLR,,,,,,,,VFR,,,,,,,,,,,,METAR,999.0
OIBB 120600Z 17027KT 9999 SCT040 OVC100 27/08 Q1013 A2992,OIBB,2015-02-12T06:00:00Z,28.97,50.82,27.0,8.0,170,27,,6.21,29.911417,,,,,,,,,,,SCT,4000,OVC,10000,,,,,VFR,,,,,,,,,,,,METAR,19.0
OIBP 120600Z 11004KT 8000 NSC 27/11 Q1017 A3004,OIBP,2015-02-12T06:00:00Z,27.38,52.73,27.0,11.0,110,4,,4.97,30.029528,,,,,,,,,,,,,,,,,,,,,,,,,,,,,,,METAR,9.0
OICK 120600Z 24014KT 9000 SCT040TCU BKN090 16/06 Q1013 RESHRA,OICK,2015-02-12T06:00:00Z,33.43,48.28,16.0,6.0,240,14,,5.59,29.911417,,,,,,,,,,,SCT,4000,BKN,9000,,,,,VFR,,,,,,,,,,,,METAR,1155.0
OIHH 120600Z 07006KT 8000 FEW010 FEW030CB SCT035 BKN090 08/05 Q1013 RESHRA,OIHH,2015-02-12T06:00:00Z,34.87,48.55,8.0,5.0,70,6,,4.97,29.911417,,,,,,,,,,,FEW,1000,FEW,3000,SCT,3500,BKN,9000,MVFR,,,,,,,,,,,,METAR,1757.0
OICS 120600Z 01006KT 3000 -RA BR FEW020 FEW035TCU SCT040 BKN090 04/02 Q1012,OICS,2015-02-12T06:00:00Z,35.25,47.02,4.0,2.0,10,6,,1.86,29.88189,,,,,,,,,,-RA BR,FEW,2000,FEW,3500,SCT,4000,BKN,9000,IFR,,,,,,,,,,,,METAR,1373.0
OIZH 120600Z 23012KT CAVOK 23/M01 Q1021 A3016 NOSIG,OIZH,2015-02-12T06:00:00Z,29.47,60.92,23.0,-1.0,230,12,,6.21,30.147638,,,,,,TRUE,,,,,CAVOK,,,,,,,,VFR,,,,,,,,,,,,METAR,1370.0
SBPV 120600Z 00000KT 9999 SCT004 FEW020TCU BKN070 24/23 Q1012,SBPV,2015-02-12T06:00:00Z,-8.72,-63.9,24.0,23.0,0,0,,6.21,29.88189,,,,,,,,,,,SCT,400,FEW,2000,BKN,7000,,,VFR,,,,,,,,,,,,METAR,88.0
OINZ 120600Z 17004KT 1200 BR VCFG OVC010 09/09 Q1016,OINZ,2015-02-12T06:00:00Z,36.63,53.2,9.0,9.0,170,4,,0.75,30.0,,,,,,,,,,BR VCFG,OVC,1000,,,,,,,LIFR,,,,,,,,,,,,METAR,11.0
OISR 120600Z 00000KT CAVOK 20/11 Q1020,OISR,2015-02-12T06:00:00Z,27.37,53.2,20.0,11.0,0,0,,6.21,30.11811,,,,,,,,,,,CAVOK,,,,,,,,VFR,,,,,,,,,,,,METAR,408.0
OIAM 120600Z 19008KT 8000 FEW040 BKN100 22/18 Q1012,OIAM,2015-02-12T06:00:00Z,30.55,49.15,22.0,18.0,190,8,,4.97,29.88189,,,,,,,,,,,FEW,4000,BKN,10000,,,,,MVFR,,,,,,,,,,,,METAR,4.0
OITL 120600Z 06012KT 0500 FG SCT004 OVC080 02/01 Q1014,OITL,2015-02-12T06:00:00Z,38.33,48.42,2.0,1.0,60,12,,0.31,29.940945,,,,,,,,,,FG,SCT,400,OVC,8000,,,,,LIFR,,,,,,,,,,,,METAR,1316.0
OICI 120600Z 14006KT 4000 -RA FEW035CB SCT040 BKN080 12/07 Q1012 A2990,OICI,2015-02-12T06:00:00Z,33.58,46.4,12.0,7.0,140,6,,2.49,29.88189,,,,,,,,,,-RA,FEW,3500,SCT,4000,BKN,8000,,,IFR,,,,,,,,,,,,METAR,1343.0
OINN 120600Z 00000KT 8000 BKN020 OVC080 10/10 Q1016,OINN,2015-02-12T06:00:00Z,36.67,51.47,10.0,10.0,0,0,,4.97,30.0,,,,,,,,,,,BKN,2000,OVC,8000,,,,,MVFR,,,,,,,,,,,,METAR,-19.0
OINR 120600Z 33004KT 6000 OVC007 11/10 Q1016 REDZ,OINR,2015-02-12T06:00:00Z,36.88,50.67,11.0,10.0,330,4,,3.73,30.0,,,,,,,,,,,OVC,700,,,,,,,IFR,,,,,,,,,,,,METAR,-20.0
OIKQ 120600Z 09008KT 2500 BR NSC 23/21 Q1018,OIKQ,2015-02-12T06:00:00Z,26.75,55.9,23.0,21.0,90,8,,1.55,30.059055,,,,,,,,,,BR,,,,,,,,,,,,,,,,,,,,,METAR,12.0
OISL 120600Z 00000KT CAVOK 17/09 Q1020,OISL,2015-02-12T06:00:00Z,27.67,54.37,17.0,9.0,0,0,,6.21,30.11811,,,,,,,,,,,CAVOK,,,,,,,,VFR,,,,,,,,,,,,METAR,805.0
OISY 120600Z 00000KT 4000 -RA FEW035CB SCT040 OVC070 11/05 Q1023,OISY,2015-02-12T06:00:00Z,30.7,51.55,11.0,5.0,0,0,,2.49,30.206694,,,,,,,,,,-RA,FEW,3500,SCT,4000,OVC,7000,,,IFR,,,,,,,,,,,,METAR,1811.0
OITZ 120600Z 10008KT 5000 SHSNRA SCT025 SCT030CB BKN035 OVC080 01/00 Q1014,OITZ,2015-02-12T06:00:00Z,36.77,48.37,1.0,0.0,100,8,,3.11,29.940945,,,,,,,,,,SHSN SHRA,SCT,2500,SCT,3000,BKN,3500,OVC,8000,MVFR,,,,,,,,,,,,METAR,1663.0
RPMZ 120600Z 18002KT 9999 SCT017CB 34/25 Q1010 RMK A2983 CB N QDS OVHD,RPMZ,2015-02-12T06:00:00Z,6.92,122.07,34.0,25.0,180,2,,6.21,29.822834,,,,,,,,,,,SCT,1700,,,,,,,VFR,,,,,,,,,,,,METAR,6.0
OIBJ 120600Z 18012KT CAVOK 24/09 Q1020,OIBJ,2015-02-12T06:00:00Z,27.82,52.35,24.0,9.0,180,12,,6.21,30.11811,,,,,,,,,,,CAVOK,,,,,,,,VFR,,,,,,,,,,,,METAR,663.0
WSSS 120600Z 05012KT 010V080 9999 FEW024 BKN300 30/21 Q1011 NOSIG,WSSS,2015-02-12T06:00:00Z,1.37,103.97,30.0,21.0,50,12,,6.21,29.852362,,,,,,TRUE,,,,,FEW,2400,BKN,30000,,,,,VFR,,,,,,,,,,,,METAR,16.0
OIBS 120600Z 11010KT 5000 HZ SKC 24/20 Q1018,OIBS,2015-02-12T06:00:00Z,25.9,54.55,24.0,20.0,110,10,,3.11,30.059055,,,,,,,,,,HZ,SKC,,,,,,,,MVFR,,,,,,,,,,,,METAR,14.0
OING 120600Z 00000KT 0200 -DZ FG OVC002 09/09 Q1018,OING,2015-02-12T06:00:00Z,36.9,54.4,9.0,9.0,0,0,,0.12,30.059055,,,,,,,,,,-DZ FG,OVC,200,,,,,,,LIFR,,,,,,,,,,,,METAR,155.0
OIZB 120600Z 00000KT CAVOK 22/06 Q1018,OIZB,2015-02-12T06:00:00Z,31.1,61.55,22.0,6.0,0,0,,6.21,30.059055,,,,,,,,,,,CAVOK,,,,,,,,VFR,,,,,,,,,,,,METAR,489.0
OIZI 120600Z 00000KT CAVOK 21/05 Q1020,OIZI,2015-02-12T06:00:00Z,27.23,60.72,21.0,5.0,0,0,,6.21,30.11811,,,,,,,,,,,CAVOK,,,,,,,,VFR,,,,,,,,,,,,METAR,591.0
GMAG 120600Z ///02KT CAVOK 07/05 Q1019 NOSIG,GMAG,2015-02-12T06:00:00Z,29.03,-10.05,7.0,5.0,,,,6.21,30.088583,,,,,,TRUE,,,,,CAVOK,,,,,,,,VFR,,,,,,,,,,,,METAR,333.0
GMFK 120600Z 23002KT 9999 SCT026 08/05 Q1019 NOSIG,GMFK,2015-02-12T06:00:00Z,31.95,-4.4,8.0,5.0,230,2,,6.21,30.088583,,,,,,TRUE,,,,,SCT,2600,,,,,,,VFR,,,,,,,,,,,,METAR,1045.0
GMAT 120600Z 02004KT 8000 FEW016 10/09 Q1015 NOSIG,GMAT,2015-02-12T06:00:00Z,28.43,-11.15,10.0,9.0,20,4,,4.97,29.970472,,,,,,TRUE,,,,,FEW,1600,,,,,,,MVFR,,,,,,,,,,,,METAR,200.0
GMFM 120600Z 14032KT 6000 SCT013 BKN020 09/08 Q1016 RERA NOSIG,GMFM,2015-02-12T06:00:00Z,33.87,-5.52,9.0,8.0,140,32,,3.73,30.0,,,,,,TRUE,,,,,SCT,1300,BKN,2000,,,,,MVFR,,,,,,,,,,,,METAR,549.0
GMFO 120600Z 24004KT 6000 SCT006 SCT230 06/06 Q1016 NOSIG,GMFO,2015-02-12T06:00:00Z,34.77,-1.92,6.0,6.0,240,4,,3.73,30.0,,,,,,TRUE,,,,,SCT,600,SCT,23000,,,,,MVFR,,,,,,,,,,,,METAR,470.0
GMMB 120600Z AUTO 11007KT //// NCD 10/10 Q1018,GMMB,2015-02-12T06:00:00Z,33.65,-7.63,10.0,10.0,110,7,,,30.059055,,,TRUE,,,,,,,,,,,,,,,,,,,,,,,,,,,,METAR,191.0
GMMI 120600Z AUTO 20006KT 9999NDV NCD 11/10 Q1017 NOSIG,GMMI,2015-02-12T06:00:00Z,31.4,-9.68,11.0,10.0,200,6,,,30.029528,,,TRUE,,,TRUE,,,,,,,,,,,,,,,,,,,,,,,,,METAR,8.0
GMML 120600Z 02004KT 6000 SCT020 12/11 Q1018 NOSIG,GMML,2015-02-12T06:00:00Z,27.13,-13.23,12.0,11.0,20,4,,3.73,30.059055,,,,,,TRUE,,,,,SCT,2000,,,,,,,MVFR,,,,,,,,,,,,METAR,6.0
SBFI 120600Z 00000KT 9999 SCT020 25/24 Q1012,SBFI,2015-02-12T06:00:00Z,-25.6,-54.48,25.0,24.0,0,0,,6.21,29.88189,,,,,,,,,,,SCT,2000,,,,,,,VFR,,,,,,,,,,,,METAR,243.0
OIYY 120600Z 06006KT 9999 FEW040 SCT100 BKN200 21/M03 Q1017,OIYY,2015-02-12T06:00:00Z,31.9,54.28,21.0,-3.0,60,6,,6.21,30.029528,,,,,,,,,,,FEW,4000,SCT,10000,BKN,20000,,,VFR,,,,,,,,,,,,METAR,1236.0
OIIE 120600Z 33004KT 5000 RA FEW035 OVC090 08/06 Q1015 TEMPO 4000 RA,OIIE,2015-02-12T06:00:00Z,35.42,51.15,8.0,6.0,330,4,,3.11,29.970472,,,,,,,,,,RA,FEW,3500,OVC,9000,,,,,MVFR,,,,,,,,,,,,METAR,1008.0
OIGG 120600Z 00000KT 2500 RA BKN005 FEW010CB OVC070 10/09 Q1017,OIGG,2015-02-12T06:00:00Z,37.33,49.6,10.0,9.0,0,0,,1.55,30.029528,,,,,,,,,,RA,BKN,500,FEW,1000,OVC,7000,,,IFR,,,,,,,,,,,,METAR,-13.0
OICC 120600Z 11006KT 5000 DU FEW035CB SCT040 BKN090 13/04 Q1013 A2993 TEMPO 3000 DU,OICC,2015-02-12T06:00:00Z,34.33,47.17,13.0,4.0,110,6,,3.11,29.911417,,,,,,,,,,DU,FEW,3500,SCT,4000,BKN,9000,,,MVFR,,,,,,,,,,,,METAR,1322.0
OIBK 120600Z 12014KT 6000 NSC 25/20 Q1017,OIBK,2015-02-12T06:00:00Z,26.53,53.98,25.0,20.0,120,14,,3.73,30.029528,,,,,,,,,,,,,,,,,,,,,,,,,,,,,,,METAR,30.0
FDSK 120600Z 03003KT 9999 SCT035 26/21 Q1019 NOSIG,FDSK,2015-02-12T06:00:00Z,-26.35,31.72,26.0,21.0,30,3,,6.21,30.088583,,,,,,TRUE,,,,,SCT,3500,,,,,,,VFR,,,,,,,,,,,,METAR,324.0
KEDU 120600Z AUTO 00000KT 10SM CLR 10/08 A3020 RMK AO1,KEDU,2015-02-12T06:00:00Z,38.53,-121.78,10.0,8.0,0,0,,10.0,30.200787,,,TRUE,TRUE,,,,,,,CLR,,,,,,,,VFR,,,,,,,,,,,,METAR,21.0
OYSD 120600Z 18003KT CAVOK 18/M13 Q////,OYSD,2015-02-12T06:00:00Z,,,18.0,-13.0,180,3,,6.21,,,,,,,,,,,,CAVOK,,,,,,,,VFR,,,,,,,,,,,,METAR,
OYMT 120600Z 09004KT CAVOK 22/07 Q////,OYMT,2015-02-12T06:00:00Z,,,22.0,7.0,90,4,,6.21,,,,,,,,,,,,CAVOK,,,,,,,,VFR,,,,,,,,,,,,METAR,
OYMK 120600Z 18018KT CAVOK 25/21 Q////,OYMK,2015-02-12T06:00:00Z,13.32,43.27,25.0,21.0,180,18,,6.21,,,,,,,,,,,,CAVOK,,,,,,,,VFR,,,,,,,,,,,,METAR,3.0
OYIB 120600Z 00000KT CAVOK 19/01 Q////,OYIB,2015-02-12T06:00:00Z,13.97,44.17,19.0,1.0,0,0,,6.21,,,,,,,,,,,,CAVOK,,,,,,,,VFR,,,,,,,,,,,,METAR,1920.0
OYHJ 120600Z 16004KT CAVOK 19/13 Q////,OYHJ,2015-02-12T06:00:00Z,15.7,43.6,19.0,13.0,160,4,,6.21,,,,,,,,,,,,CAVOK,,,,,,,,VFR,,,,,,,,,,,,METAR,1760.0
OYDM 120600Z 00000KT CAVOK 18/01 Q////,OYDM,2015-02-12T06:00:00Z,14.53,44.43,18.0,1.0,0,0,,6.21,,,,,,,,,,,,CAVOK,,,,,,,,VFR,,,,,,,,,,,,METAR,2425.0
OYAR 120600Z 00000KT CAVOK 13/M01 Q////,OYAR,2015-02-12T06:00:00Z,14.58,49.25,13.0,-1.0,0,0,,6.21,,,,,,,,,,,,CAVOK,,,,,,,,VFR,,,,,,,,,,,,METAR,25.0
NFTL 120600Z 00000KT 9999 FEW010 SCT280 29/25 Q1009,NFTL,2015-02-12T06:00:00Z,-19.78,-174.33,29.0,25.0,0,0,,6.21,29.793306,,,,,,,,,,,FEW,1000,SCT,28000,,,,,VFR,,,,,,,,,,,,METAR,3.0
NFTF 120600Z 00000KT 9999 FEW010 SCT016TCU BKN290 28/25 Q1010,NFTF,2015-02-12T06:00:00Z,-21.23,-175.15,28.0,25.0,0,0,,6.21,29.822834,,,,,,,,,,,FEW,1000,SCT,1600,BKN,29000,,,VFR,,,,,,,,,,,,METAR,38.0
NFTV 120600Z 00000KT 9999 FEW018 BKN290 28/25 Q1010 METAR ,NFTV,2015-02-12T06:00:00Z,-18.58,-173.97,28.0,25.0,0,0,,6.21,29.822834,,,,,,,,,,,FEW,1800,BKN,29000,,,,,VFR,,,,,,,,,,,,METAR,71.0
OYTZ 120600Z 11005KT 9999 FEW010 18/14 Q1022,OYTZ,2015-02-12T06:00:00Z,13.67,44.12,18.0,14.0,110,5,,6.21,30.177166,,,,,,,,,,,FEW,1000,,,,,,,VFR,,,,,,,,,,,,METAR,1385.0
OYSH 120600Z 00000KT CAVOK 19/06 Q1026,OYSH,2015-02-12T06:00:00Z,16.97,43.72,19.0,6.0,0,0,,6.21,30.295275,,,,,,,,,,,CAVOK,,,,,,,,VFR,,,,,,,,,,,,METAR,1890.0
TNCA 120600Z VRB01KT 9999 SCT018 26/24 Q1011 A2988 NOSIG,TNCA,2015-02-12T06:00:00Z,12.5,-70.0,26.0,24.0,0,1,,6.21,29.852362,,,,,,TRUE,,,,,SCT,1800,,,,,,,VFR,,,,,,,,,,,,METAR,18.0
UMII 120600Z 22005G08MPS 0900 FZDZ FZFG VV002 M01/M01 Q1023 TEMPO 0700 RMK QBB060,UMII,2015-02-12T06:00:00Z,55.13,30.35,-1.0,-1.0,220,10,16,0.56,30.206694,,,,,,,,,,FZDZ FZFG,OVX,0,,,,,,,LIFR,,,,,,,,,,,200,SPECI,208.0
UKDR 120600Z 03005MPS CAVOK M06/M09 Q1026 3609//65 NOSIG,UKDR,2015-02-12T06:00:00Z,48.05,33.22,-6.0,-9.0,30,10,,6.21,30.295275,,,,,,TRUE,,,,,CAVOK,,,,,,,,VFR,,,,,,,,,,,,METAR,124.0
ORBI 120600Z 33019KT 9000 FEW035 OVC100 14/03 Q1015,ORBI,2015-02-12T06:00:00Z,33.27,44.23,14.0,3.0,330,19,,5.59,29.970472,,,,,,,,,,,FEW,3500,OVC,10000,,,,,VFR,,,,,,,,,,,,METAR,35.0
FMCZ 120600Z 22007KT 9999 FEW022 BKN300 30/24 Q1012 NOSIG,FMCZ,2015-02-12T06:00:00Z,-12.8,45.27,30.0,24.0,220,7,,6.21,29.88189,,,,,,TRUE,,,,,FEW,2200,BKN,30000,,,,,VFR,,,,,,,,,,,,METAR,7.0
GQPP 120600Z 35010KT 8000 NSC 13/09 Q1016 NOSIG,GQPP,2015-02-12T06:00:00Z,20.92,-17.02,13.0,9.0,350,10,,4.97,30.0,,,,,,TRUE,,,,,,,,,,,,,,,,,,,,,,,,,METAR,3.0
SBCT 120600Z 03003KT 9999 FEW030 21/19 Q1018,SBCT,2015-02-12T06:00:00Z,-25.52,-49.17,21.0,19.0,30,3,,6.21,30.059055,,,,,,,,,,,FEW,3000,,,,,,,VFR,,,,,,,,,,,,METAR,908.0
NTAA 120600Z 06012KT 9999 VCSH FEW016 SCT020 BKN090 27/23 Q1011 TEMPO 01016G26KT 2000 TSRA BKN020CB,NTAA,2015-02-12T06:00:00Z,-17.55,-149.62,27.0,23.0,60,12,,6.21,29.852362,,,,,,,,,,VCSH,FEW,1600,SCT,2000,BKN,9000,,,VFR,,,,,,,,,,,,METAR,2.0
GMMZ 120600Z VRB04KT CAVOK 11/02 Q1017 NOSIG,GMMZ,2015-02-12T06:00:00Z,30.92,-6.9,11.0,2.0,0,4,,6.21,30.029528,,,,,,TRUE,,,,,CAVOK,,,,,,,,VFR,,,,,,,,,,,,METAR,1140.0
GMMW 120600Z 28003KT 4000 BR FEW010 BKN100 05/05 Q1016 NOSIG,GMMW,2015-02-12T06:00:00Z,34.98,-3.02,5.0,5.0,280,3,,2.49,30.0,,,,,,TRUE,,,,BR,FEW,1000,BKN,10000,,,,,IFR,,,,,,,,,,,,METAR,175.0
GMTA 120600Z 16002KT 9999 SCT023 BKN100 12/11 Q1016 NOSIG,GMTA,2015-02-12T06:00:00Z,35.17,-3.85,12.0,11.0,160,2,,6.21,30.0,,,,,,TRUE,,,,,SCT,2300,BKN,10000,,,,,VFR,,,,,,,,,,,,METAR,14.0
GMTN 120600Z AUTO 20003KT 1100NDV R24/1300V1700N /// 11/09 Q1016,GMTN,2015-02-12T06:00:00Z,35.57,-5.32,11.0,9.0,200,3,,1.06,30.0,,,TRUE,,,,,,,,,,,,,,,,,,,,,,,,,,,,METAR,10.0
OIFS 120600Z 17016KT 6000 -RA FEW025 SCT035 OVC070 08/05 Q1018,OIFS,2015-02-12T06:00:00Z,32.32,50.85,8.0,5.0,170,16,,3.73,30.059055,,,,,,,,,,-RA,FEW,2500,SCT,3500,OVC,7000,,,MVFR,,,,,,,,,,,,METAR,2078.0
OIMB 120600Z 12006KT CAVOK 18/M00 Q1020,OIMB,2015-02-12T06:00:00Z,32.9,59.28,18.0,0.0,120,6,,6.21,30.11811,,,,,,,,,,,CAVOK,,,,,,,,VFR,,,,,,,,,,,,METAR,1491.0
OIMN 120600Z 09006KT 9999 FEW025 BKN180 10/07 Q1017,OIMN,2015-02-12T06:00:00Z,37.48,57.3,10.0,7.0,90,6,,6.21,30.029528,,,,,,,,,,,FEW,2500,BKN,18000,,,,,VFR,,,,,,,,,,,,METAR,1074.0
PABE 120600Z 03019KT 4SM -SN BLSN SCT023 SCT033 OVC044 M14/M17 A2949 RMK AO2 P0000 T11391167,PABE,2015-02-12T06:00:00Z,60.78,-161.85,-13.9,-16.7,30,19,,4.0,29.489174,,,,TRUE,,,,,,-SN BLSN,SCT,2300,SCT,3300,OVC,4400,,,MVFR,,,,,,0.0050,,,,,,SPECI,41.0
OIZJ 120600Z 09004KT 6000 SKC 23/21 Q1018,OIZJ,2015-02-12T06:00:00Z,25.65,57.8,23.0,21.0,90,4,,3.73,30.059055,,,,,,,,,,,SKC,,,,,,,,MVFR,,,,,,,,,,,,METAR,4.0
PADQ 120600Z 18004KT 10SM FEW006 SCT019 BKN030 03/03 A2949 RMK AO2 T00280028,PADQ,2015-02-12T06:00:00Z,57.75,-152.5,2.8,2.8,180,4,,10.0,29.489174,,,,TRUE,,,,,,,FEW,600,SCT,1900,BKN,3000,,,MVFR,,,,,,,,,,,,SPECI,34.0
KADG 120600Z AUTO 31009KT 2SM -SN BKN027 OVC047 M03/M06 A2994 RMK AO2 P0000 T10331061 TSNO,KADG,2015-02-12T06:00:00Z,41.87,-84.08,-3.3,-6.1,310,9,,2.0,29.940945,,,TRUE,TRUE,,,TRUE,,,-SN,BKN,2700,OVC,4700,,,,,IFR,,,,,,0.0050,,,,,,SPECI,241.0
KAGC 120600Z 23010KT 3SM HZ OVC007 00/M03 A2983 RMK AO2 CIG 005V011 T00001028,KAGC,2015-02-12T06:00:00Z,40.35,-79.92,0.0,-2.8,230,10,,3.0,29.828741,,,,TRUE,,,,,,HZ,OVC,700,,,,,,,IFR,,,,,,,,,,,,SPECI,389.0
KBEH 120600Z AUTO 33007G18KT 5SM -SN SCT026 BKN031 OVC040 M04/M08 A3003 RMK AO2 P0000 T10441083,KBEH,2015-02-12T06:00:00Z,42.13,-86.42,-4.4,-8.3,330,7,18,5.0,30.029528,,,TRUE,TRUE,,,,,,-SN,SCT,2600,BKN,3100,OVC,4000,,,MVFR,,,,,,0.0050,,,,,,SPECI,191.0
KBKV 120600Z AUTO 00000KT 5SM BR CLR 04/04 A3009 RMK AO2 T00440044,KBKV,2015-02-12T06:00:00Z,28.47,-82.45,4.4,4.4,0,0,,5.0,30.088583,,,TRUE,TRUE,,,,,,BR,CLR,,,,,,,,MVFR,,,,,,,,,,,,SPECI,20.0
KCUT 120600Z AUTO 00000KT 1SM BR VV002 M06/M07 A3029 RMK AO2 T10561067,KCUT,2015-02-12T06:00:00Z,43.73,-103.62,-5.6,-6.7,0,0,,1.0,30.28937,,,TRUE,TRUE,,,,,,BR,OVX,0,,,,,,,LIFR,,,,,,,,,,,200,SPECI,1725.0
FDMS 120600Z 00000KT 9999 SCT035 23/20 Q1020 NOSIG,FDMS,2015-02-12T06:00:00Z,-26.52,31.3,23.0,20.0,0,0,,6.21,30.11811,,,,,,TRUE,,,,,SCT,3500,,,,,,,VFR,,,,,,,,,,,,METAR,641.0
KGRY 120600Z AUTO VRB05KT 10SM CLR 20/11 A3011 RMK A01,KGRY,2015-02-12T06:00:00Z,27.63,-90.45,20.0,11.0,0,5,,10.0,30.109253,,,TRUE,TRUE,,,,,,,CLR,,,,,,,,VFR,,,,,,,,,,,,METAR,58.0
LRCT 120600Z VRB01KT 0100 FZFG VV001 M11/M12 Q1029 RED RED,LRCT,2015-02-12T06:00:00Z,46.5,23.88,-11.0,-12.0,0,1,,0.06,30.383858,,,,,,,,,,FZFG,OVX,0,,,,,,,LIFR,,,,,,,,,,,100,METAR,331.0
LUKK 120600Z 35006KT CAVOK M02/M11 Q1028 R26/110060 NOSIG,LUKK,2015-02-12T06:00:00Z,46.93,28.93,-2.0,-11.0,350,6,,6.21,30.35433,,,,,,TRUE,,,,,CAVOK,,,,,,,,VFR,,,,,,,,,,,,METAR,122.0
SBJP 120600Z 17005KT 9999 SCT020 25/22 Q1014,SBJP,2015-02-12T06:00:00Z,-7.15,-34.95,25.0,22.0,170,5,,6.21,29.940945,,,,,,,,,,,SCT,2000,,,,,,,VFR,,,,,,,,,,,,METAR,7.0
LDSP 120600Z 03007KT 350V080 CAVOK 08/M03 Q1024 NOSIG,LDSP,2015-02-12T06:00:00Z,43.52,16.3,8.0,-3.0,30,7,,6.21,30.236221,,,,,,TRUE,,,,,CAVOK,,,,,,,,VFR,,,,,,,,,,,,METAR,21.0
LDDU 120600Z 02019KT 350V060 CAVOK 06/M06 Q1023 NOSIG,LDDU,2015-02-12T06:00:00Z,42.57,18.27,6.0,-6.0,20,19,,6.21,30.206694,,,,,,TRUE,,,,,CAVOK,,,,,,,,VFR,,,,,,,,,,,,METAR,165.0
LDPL 120600Z 06007KT CAVOK 03/00 Q1024 NOSI,LDPL,2015-02-12T06:00:00Z,44.88,13.92,3.0,0.0,60,7,,6.21,30.236221,,,,,,,,,,,CAVOK,,,,,,,,VFR,,,,,,,,,,,,METAR,63.0
UBBG 120600Z 10007KT 0150 R12/0150 DZ FG VV001 05/04 Q1017 R12/190065 NOSIG,UBBG,2015-02-12T06:00:00Z,40.73,46.32,5.0,4.0,100,7,,0.09,30.029528,,,,,,TRUE,,,,DZ FG,OVX,0,,,,,,,LIFR,,,,,,,,,,,100,METAR,330.0
SBGL 120600Z 07008KT CAVOK 25/21 Q1012,SBGL,2015-02-12T06:00:00Z,-22.82,-43.25,25.0,21.0,70,8,,6.21,29.88189,,,,,,,,,,,CAVOK,,,,,,,,VFR,,,,,,,,,,,,METAR,6.0
UBEE 120600Z 15004KT 3000 BR OVC006 07/06 Q1019 R30/290260 NOSIG,UBEE,2015-02-12T06:00:00Z,40.63,47.15,7.0,6.0,150,4,,1.86,30.088583,,,,,,TRUE,,,,BR,OVC,600,,,,,,,IFR,,,,,,,,,,,,METAR,15.0
SOCA 120600Z AUTO 18001KT 9999 FEW010/// BKN015/// BKN023/// 24/23 Q1012,SOCA,2015-02-12T06:00:00Z,4.82,-52.37,24.0,23.0,180,1,,6.21,29.88189,,,TRUE,,,,,,,,,,,,,,,,,,,,,,,,,,,,METAR,9.0
SBRP 120600Z 05002KT CAVOK 21/20 Q1017,SBRP,2015-02-12T06:00:00Z,-21.12,-47.77,21.0,20.0,50,2,,6.21,30.029528,,,,,,,,,,,CAVOK,,,,,,,,VFR,,,,,,,,,,,,METAR,549.0
MDST 120600Z 28003KT 9999 BKN016 21/19 Q1013 NOSIG,MDST,2015-02-12T06:00:00Z,19.4,-70.6,21.0,19.0,280,3,,6.21,29.911417,,,,,,TRUE,,,,,BKN,1600,,,,,,,MVFR,,,,,,,,,,,,METAR,184.0
MDPP 120600Z 30010KT 9999 BKN016 23/19 Q1013 NOSIG,MDPP,2015-02-12T06:00:00Z,19.75,-70.57,23.0,19.0,300,10,,6.21,29.911417,,,,,,TRUE,,,,,BKN,1600,,,,,,,MVFR,,,,,,,,,,,,METAR,5.0
MDPC 120600Z 03008KT 9999 BKN018 24/20 Q1013,MDPC,2015-02-12T06:00:00Z,18.57,-68.37,24.0,20.0,30,8,,6.21,29.911417,,,,,,,,,,,BKN,1800,,,,,,,MVFR,,,,,,,,,,,,METAR,12.0
MDSD 120600Z 04005KT 9999 BKN016 22/21 Q1013,MDSD,2015-02-12T06:00:00Z,18.42,-69.67,22.0,21.0,40,5,,6.21,29.911417,,,,,,,,,,,BKN,1600,,,,,,,MVFR,,,,,,,,,,,,METAR,18.0
YAYE 120600Z AUTO 09015G26KT 9999 // NCD 40/M07 Q1012,YAYE,2015-02-12T06:00:00Z,-25.18,130.98,40.0,-7.0,90,15,26,6.21,29.88189,,,TRUE,,,,,,,,,,,,,,,,,,,,,,,,,,,,METAR,496.0
PKWA 120600Z AUTO 07011KT 10SM CLR 29/22 A2977 RMK AO2 T02940217,PKWA,2015-02-12T06:00:00Z,8.72,167.72,29.4,21.7,70,11,,10.0,29.769686,,,TRUE,TRUE,,,,,,,CLR,,,,,,,,VFR,,,,,,,,,,,,METAR,8.0
OMAA 120600Z 15009KT CAVOK 25/11 Q1017 A3005 NOSIG,OMAA,2015-02-12T06:00:00Z,24.42,54.63,25.0,11.0,150,9,,6.21,30.029528,,,,,,TRUE,,,,,CAVOK,,,,,,,,VFR,,,,,,,,,,,,METAR,27.0
YCOM 120600Z AUTO 10008KT //// // OVC016 17/15 Q1026,YCOM,2015-02-12T06:00:00Z,-36.3,148.97,17.0,15.0,100,8,,,30.295275,,,TRUE,,,,,,,,OVC,1600,,,,,,,,,,,,,,,,,,,SPECI,941.0
OMAL 120600Z 16013KT CAVOK 25/12 Q1020 A3012 NOSIG,OMAL,2015-02-12T06:00:00Z,24.25,55.6,25.0,12.0,160,13,,6.21,30.11811,,,,,,TRUE,,,,,CAVOK,,,,,,,,VFR,,,,,,,,,,,,METAR,262.0
OMFJ 120600Z 19002KT 6000 NSC 26/18 Q1018 A3008,OMFJ,2015-02-12T06:00:00Z,25.1,56.32,26.0,18.0,190,2,,3.73,30.059055,,,,,,,,,,,,,,,,,,,,,,,,,,,,,,,METAR,28.0
OMDW 120600Z 16016KT CAVOK 26/11 Q1019 NOSIG,OMDW,2015-02-12T06:00:00Z,24.9,55.17,26.0,11.0,160,16,,6.21,30.088583,,,,,,TRUE,,,,,CAVOK,,,,,,,,VFR,,,,,,,,,,,,METAR,25.0
OMDB 120600Z 15007KT 090V180 CAVOK 26/10 Q1018 NOSIG,OMDB,2015-02-12T06:00:00Z,25.25,55.37,26.0,10.0,150,7,,6.21,30.059055,,,,,,TRUE,,,,,CAVOK,,,,,,,,VFR,,,,,,,,,,,,METAR,5.0
OMRK 120600Z 22004KT CAVOK 28/12 Q1019 A3009,OMRK,2015-02-12T06:00:00Z,25.62,55.92,28.0,12.0,220,4,,6.21,30.088583,,,,,,,,,,,CAVOK,,,,,,,,VFR,,,,,,,,,,,,METAR,31.0
OMSJ 120600Z 16008KT CAVOK 27/10 Q1018,OMSJ,2015-02-12T06:00:00Z,25.32,55.52,27.0,10.0,160,8,,6.21,30.059055,,,,,,,,,,,CAVOK,,,,,,,,VFR,,,,,,,,,,,,METAR,33.0
SBMQ 120600Z 02006KT 9999 SCT015 26/25 Q1011,SBMQ,2015-02-12T06:00:00Z,0.05,-51.07,26.0,25.0,20,6,,6.21,29.852362,,,,,,,,,,,SCT,1500,,,,,,,VFR,,,,,,,,,,,,METAR,15.0
SBGO 120600Z 11004KT CAVOK 21/19 Q1018,SBGO,2015-02-12T06:00:00Z,-16.62,-49.22,21.0,19.0,110,4,,6.21,30.059055,,,,,,,,,,,CAVOK,,,,,,,,VFR,,,,,,,,,,,,METAR,747.0
SPZO 120600Z 26004KT 220V290 8000 -RA FEW030 SCT036 BKN070 10/06 Q1034 RMK PP018,SPZO,2015-02-12T06:00:00Z,-13.55,-71.97,10.0,6.0,260,4,,4.97,30.531496,,,,,,,,,,-RA,FEW,3000,SCT,3600,BKN,7000,,,MVFR,,,,,,,,,,,,METAR,3249.0
SPTN 120600Z 00000KT 9999 SCT150 20/17 Q1013 RMK PP000,SPTN,2015-02-12T06:00:00Z,-18.07,-70.28,20.0,17.0,0,0,,6.21,29.911417,,,,,,,,,,,SCT,15000,,,,,,,VFR,,,,,,,,,,,,METAR,458.0
SPSO 120600Z VRB01KT CAVOK 23/20 Q1011 RMK SCT230 PP000,SPSO,2015-02-12T06:00:00Z,-13.73,-76.22,23.0,20.0,0,1,,6.21,29.852362,,,,,,,,,,,CAVOK,,,,,,,,VFR,,,,,,,,,,,,METAR,10.0
SPRU 120600Z 12010KT 6000 OVC012 21/20 Q1011 RMK PP000,SPRU,2015-02-12T06:00:00Z,-8.08,-79.12,21.0,20.0,120,10,,3.73,29.852362,,,,,,,,,,,OVC,1200,,,,,,,MVFR,,,,,,,,,,,,METAR,30.0
SPQU 120600Z 00000KT 9999 SCT020 BKN110 13/12 Q1027 RMK PP000,SPQU,2015-02-12T06:00:00Z,-16.33,-71.57,13.0,12.0,0,0,,6.21,30.324802,,,,,,,,,,,SCT,2000,BKN,11000,,,,,VFR,,,,,,,,,,,,METAR,2554.0
SPQT 120600Z 00000KT CAVOK 25/24 Q1010 RMK PP000,SPQT,2015-02-12T06:00:00Z,-3.78,-73.32,25.0,24.0,0,0,,6.21,29.822834,,,,,,,,,,,CAVOK,,,,,,,,VFR,,,,,,,,,,,,METAR,126.0
LDOS 120600Z 11007KT 0100 FG VV002 00/00 Q1028,LDOS,2015-02-12T06:00:00Z,45.47,18.82,0.0,0.0,110,7,,0.06,30.35433,,,,,,,,,,FG,OVX,0,,,,,,,LIFR,,,,,,,,,,,200,METAR,89.0
LDZD 120600Z 08009KT 020V120 CAVOK 06/M02 Q1024 NOSIG,LDZD,2015-02-12T06:00:00Z,44.1,15.37,6.0,-2.0,80,9,,6.21,30.236221,,,,,,TRUE,,,,,CAVOK,,,,,,,,VFR,,,,,,,,,,,,METAR,84.0
LDZA 120600Z 17001KT 3500 BR FEW026 00/M00 Q1027 NOSIG,LDZA,2015-02-12T06:00:00Z,45.72,16.07,0.0,0.0,170,1,,2.17,30.324802,,,,,,TRUE,,,,BR,FEW,2600,,,,,,,IFR,,,,,,,,,,,,METAR,107.0
VOCB 120600Z 02006KT 5000 HZ FEW015 SCT018 29/20 Q1016 NOSIG,VOCB,2015-02-12T06:00:00Z,11.02,77.03,29.0,20.0,20,6,,3.11,30.0,,,,,,TRUE,,,,HZ,FEW,1500,SCT,1800,,,,,MVFR,,,,,,,,,,,,METAR,399.0
HSSS 120600Z 34013KT 6000 SA 18/M6 Q1018 NOSIG,HSSS,2015-02-12T06:00:00Z,15.58,32.53,18.0,,340,13,,3.73,30.059055,,,,,,TRUE,,,,SA,,,,,,,,,,,,,,,,,,,,,METAR,380.0
TFFF 120600Z AUTO 09003KT 9999 NSC 22/22 Q1013,TFFF,2015-02-12T06:00:00Z,14.6,-61.0,22.0,22.0,90,3,,6.21,29.911417,,,TRUE,,,,,,,,,,,,,,,,,,,,,,,,,,,,METAR,5.0
NWWW 120600Z AUTO 12015KT 9999 // FEW010 OVC042 27/24 Q1008,NWWW,2015-02-12T06:00:00Z,-22.02,166.22,27.0,24.0,120,15,,6.21,29.763779,,,TRUE,,,,,,,,FEW,1000,OVC,4200,,,,,VFR,,,,,,,,,,,,METAR,16.0
LZSL 120600Z 00000KT 4500 BR OVC013 M00/M01 Q1027,LZSL,2015-02-12T06:00:00Z,48.63,19.13,0.0,-1.0,0,0,,2.8,30.324802,,,,,,,,,,BR,OVC,1300,,,,,,,IFR,,,,,,,,,,,,METAR,313.0
LZPP 120600Z 00000KT 3000 BR SCT008 OVC020 M02/M02 Q1028,LZPP,2015-02-12T06:00:00Z,48.62,17.83,-2.0,-2.0,0,0,,1.86,30.35433,,,,,,,,,,BR,SCT,800,OVC,2000,,,,,IFR,,,,,,,,,,,,METAR,161.0
LZZI 120600Z VRB01KT 3400 BR SCT014 OVC020 M00/M01 Q1027,LZZI,2015-02-12T06:00:00Z,49.23,18.62,0.0,-1.0,0,1,,2.11,30.324802,,,,,,,,,,BR,SCT,1400,OVC,2000,,,,,IFR,,,,,,,,,,,,METAR,311.0
LZIB 120600Z 04003KT 3000 BR OVC019 M00/M01 Q1028 R04/71//95 R13/////95 TEMPO 3000 BR,LZIB,2015-02-12T06:00:00Z,48.17,17.22,0.0,-1.0,40,3,,1.86,30.35433,,,,,,,,,,BR,OVC,1900,,,,,,,IFR,,,,,,,,,,,,METAR,134.0
LHBP 120600Z 07005KT 9999 BKN025 02/01 Q1028 NOSIG,LHBP,2015-02-12T06:00:00Z,47.42,19.27,2.0,1.0,70,5,,6.21,30.35433,,,,,,TRUE,,,,,BKN,2500,,,,,,,MVFR,,,,,,,,,,,,METAR,185.0
LZTT 120600Z 14002KT 9999 FEW005 OVC020 M01/M02 Q1025 NOSIG,LZTT,2015-02-12T06:00:00Z,49.07,20.25,-1.0,-2.0,140,2,,6.21,30.265747,,,,,,TRUE,,,,,FEW,500,OVC,2000,,,,,MVFR,,,,,,,,,,,,METAR,707.0
LZKZ 120600Z VRB02KT 9999 BKN025 M01/M01 Q1028 NOSIG,LZKZ,2015-02-12T06:00:00Z,48.67,21.23,-1.0,-1.0,0,2,,6.21,30.35433,,,,,,TRUE,,,,,BKN,2500,,,,,,,MVFR,,,,,,,,,,,,METAR,232.0
FDMV 120600Z AUTO 08002KT //// // ////// 27/21 Q1024,FDMV,2015-02-12T06:00:00Z,,,27.0,21.0,80,2,,,30.236221,,,TRUE,,,,,,,,,,,,,,,,,,,,,,,,,,,,METAR,
LBPD 120600Z 25004KT 9999 OVC048 M02/M08 Q1026 NOSIG,LBPD,2015-02-12T06:00:00Z,42.13,24.8,-2.0,-8.0,250,4,,6.21,30.295275,,,,,,TRUE,,,,,OVC,4800,,,,,,,VFR,,,,,,,,,,,,METAR,185.0
UBBQ 120600Z 00000KT 9999 OVC010 05/04 Q1018 R16/////// NOSIG RMK MT OBSC,UBBQ,2015-02-12T06:00:00Z,40.82,47.72,5.0,4.0,0,0,,6.21,30.059055,,,,,,TRUE,,,,,OVC,1000,,,,,,,MVFR,,,,,,,,,,,,METAR,338.0
LBGO 120600Z 01002KT 9999 OVC047 M02/M06 Q1029 NOSIG,LBGO,2015-02-12T06:00:00Z,43.15,25.72,-2.0,-6.0,10,2,,6.21,30.383858,,,,,,TRUE,,,,,OVC,4700,,,,,,,VFR,,,,,,,,,,,,METAR,86.0
SKBQ 120600Z 02012KT 9999 FEW012 BKN080 26/23 A2990,SKBQ,2015-02-12T06:00:00Z,10.9,-74.77,26.0,23.0,20,12,,6.21,29.899607,,,,,,,,,,,FEW,1200,BKN,8000,,,,,VFR,,,,,,,,,,,,METAR,10.0
TFFR 120600Z AUTO 00000KT 9999 NSC 22/21 Q1013,TFFR,2015-02-12T06:00:00Z,16.27,-61.53,22.0,21.0,0,0,,6.21,29.911417,,,TRUE,,,,,,,,,,,,,,,,,,,,,,,,,,,,METAR,11.0
SBPL 120600Z 11009KT CAVOK 26/20 Q1015,SBPL,2015-02-12T06:00:00Z,-9.37,-40.57,26.0,20.0,110,9,,6.21,29.970472,,,,,,,,,,,CAVOK,,,,,,,,VFR,,,,,,,,,,,,METAR,375.0
OERY 120600Z 18005KT 6000 FEW040 SCT100 26/08 Q1017,OERY,2015-02-12T06:00:00Z,24.72,46.72,26.0,8.0,180,5,,3.73,30.029528,,,,,,,,,,,FEW,4000,SCT,10000,,,,,MVFR,,,,,,,,,,,,METAR,612.0
OERK 120600Z 34003KT 8000 NSC 24/04 Q1017 TEMPO 6000,OERK,2015-02-12T06:00:00Z,24.95,46.72,24.0,4.0,340,3,,4.97,30.029528,,,,,,,,,,,,,,,,,,,,,,,,,,,,,,,METAR,612.0
OEMA 120600Z 29008KT 7000 SKC 16/M07 Q1020 NOSIG,OEMA,2015-02-12T06:00:00Z,24.55,39.7,16.0,-7.0,290,8,,4.35,30.11811,,,,,,TRUE,,,,,SKC,,,,,,,,MVFR,,,,,,,,,,,,METAR,631.0
OEJN 120600Z 02013KT 8000 NSC 22/08 Q1017 NOSIG,OEJN,2015-02-12T06:00:00Z,21.68,39.15,22.0,8.0,20,13,,4.97,30.029528,,,,,,TRUE,,,,,,,,,,,,,,,,,,,,,,,,,METAR,15.0
OEDR 120600Z 17011KT CAVOK 24/08 Q1013 NOSIG,OEDR,2015-02-12T06:00:00Z,26.27,50.17,24.0,8.0,170,11,,6.21,29.911417,,,,,,TRUE,,,,,CAVOK,,,,,,,,VFR,,,,,,,,,,,,METAR,17.0
OEDF 120600Z 16017KT CAVOK 24/04 Q1013 NOSIG,OEDF,2015-02-12T06:00:00Z,26.47,49.8,24.0,4.0,160,17,,6.21,29.911417,,,,,,TRUE,,,,,CAVOK,,,,,,,,VFR,,,,,,,,,,,,METAR,22.0
SPCL 120600Z 06003KT 8000 SCT013 BKN080 23/22 Q1013 RMK BCFG/SW PP000,SPCL,2015-02-12T06:00:00Z,-8.38,-74.58,23.0,22.0,60,3,,4.97,29.911417,,,,,,,,,,,SCT,1300,BKN,8000,,,,,MVFR,,,,,,,,,,,,METAR,149.0
YHID 120600Z AUTO 29006KT 9999 // BKN014 28/24 Q1005,YHID,2015-02-12T06:00:00Z,-10.58,142.3,28.0,24.0,290,6,,6.21,29.675198,,,TRUE,,,,,,,,BKN,1400,,,,,,,MVFR,,,,,,,,,,,,SPECI,13.0
SBSV 120600Z 08005KT 9999 SCT017 25/21 Q1015,SBSV,2015-02-12T06:00:00Z,-12.9,-38.32,25.0,21.0,80,5,,6.21,29.970472,,,,,,,,,,,SCT,1700,,,,,,,VFR,,,,,,,,,,,,METAR,6.0
FIMP 120600Z 11010KT 9999 SCT020 29/21 Q1015,FIMP,2015-02-12T06:00:00Z,-20.42,57.67,29.0,21.0,110,10,,6.21,29.970472,,,,,,,,,,,SCT,2000,,,,,,,VFR,,,,,,,,,,,,METAR,57.0
GVSV 120600Z VRB02KT 9999 SCT018 BKN022 19/14 Q1017 NOSIG,GVSV,2015-02-12T06:00:00Z,16.83,-25.07,19.0,14.0,0,2,,6.21,30.029528,,,,,,TRUE,,,,,SCT,1800,BKN,2200,,,,,MVFR,,,,,,,,,,,,METAR,20.0
LBSF 120600Z VRB02KT 5000 BR FEW034 BKN065 M07/M10 Q1025 NOSIG,LBSF,2015-02-12T06:00:00Z,42.65,23.38,-7.0,-10.0,0,2,,3.11,30.265747,,,,,,TRUE,,,,BR,FEW,3400,BKN,6500,,,,,MVFR,,,,,,,,,,,,METAR,595.0
LBBG 120600Z 36016G29KT 9999 FEW021 BKN036 OVC049 M01/M04 Q1024 NOSIG,LBBG,2015-02-12T06:00:00Z,42.57,27.52,-1.0,-4.0,360,16,29,6.21,30.236221,,,,,,TRUE,,,,,FEW,2100,BKN,3600,OVC,4900,,,VFR,,,,,,,,,,,,METAR,28.0
LBWN 120600Z 29010KT 250V330 9999 -SN FEW018 SCT021 BKN045 M02/M04 Q1025 R09/41//94 NOSIG,LBWN,2015-02-12T06:00:00Z,43.22,27.82,-2.0,-4.0,290,10,,6.21,30.265747,,,,,,TRUE,,,,-SN,FEW,1800,SCT,2100,BKN,4500,,,VFR,,,,,,,,,,,,METAR,43.0
SKBO 120600Z 04004KT 9999 BKN015 10/10 A3034,SKBO,2015-02-12T06:00:00Z,4.7,-74.12,10.0,10.0,40,4,,6.21,30.339567,,,,,,,,,,,BKN,1500,,,,,,,MVFR,,,,,,,,,,,,METAR,2548.0
UTAA 120600Z 03003MPS 9999 SCT004 OVC022 10/08 Q1019 R12/290060 NOSIG,UTAA,2015-02-12T06:00:00Z,37.98,58.37,10.0,8.0,30,6,,6.21,30.088583,,,,,,TRUE,,,,,SCT,400,OVC,2200,,,,,MVFR,,,,,,,,,,,,SPECI,210.0
SCVD 120600Z AUTO VRB02KT 9999 SCT032 BKN051 15/13 Q1020,SCVD,2015-02-12T06:00:00Z,-39.65,-73.07,15.0,13.0,0,2,,6.21,30.11811,,,TRUE,,,,,,,,SCT,3200,BKN,5100,,,,,VFR,,,,,,,,,,,,METAR,14.0
SKCL 120600Z 05004KT 9999 FEW030 SCT300 21/18 A2996,SKCL,2015-02-12T06:00:00Z,3.53,-76.37,21.0,18.0,50,4,,6.21,29.958662,,,,,,,,,,,FEW,3000,SCT,30000,,,,,VFR,,,,,,,,,,,,METAR,969.0
SKRG 120600Z 00000KT 8000 BKN015 BKN200 15/14 A3029 RMK HZ,SKRG,2015-02-12T06:00:00Z,6.17,-75.42,15.0,14.0,0,0,,4.97,30.28937,,,,,,,,,,,BKN,1500,BKN,20000,,,,,MVFR,,,,,,,,,,,,METAR,2137.0
SKSP 120600Z 06005KT 9999 FEW017 26/22 A2991,SKSP,2015-02-12T06:00:00Z,12.57,-81.72,26.0,22.0,60,5,,6.21,29.911417,,,,,,,,,,,FEW,1700,,,,,,,VFR,,,,,,,,,,,,METAR,-2.0
LUBL 120600Z AUTO 34009KT 9999 ///084 M04/M09 Q1029,LUBL,2015-02-12T06:00:00Z,47.83,27.78,-4.0,-9.0,340,9,,6.21,30.383858,,,TRUE,,,,,,,,,,,,,,,,,,,,,,,,,,,,METAR,232.0
UBBY 120600Z VRB03KT 9999 -RA OVC035 05/03 Q1021 R33/////// NOSIG RMK MT OP,UBBY,2015-02-12T06:00:00Z,41.57,46.67,5.0,3.0,0,3,,6.21,30.147638,,,,,,TRUE,,,,-RA,OVC,3500,,,,,,,VFR,,,,,,,,,,,,METAR,390.0
OYAT 120600Z 13016KT CAVOK 23/05 Q1021,OYAT,2015-02-12T06:00:00Z,14.55,46.83,23.0,5.0,130,16,,6.21,30.147638,,,,,,,,,,,CAVOK,,,,,,,,VFR,,,,,,,,,,,,METAR,1039.0
SEQM 120600Z 08002KT 9999 BCFG SCT003 SCT013 14/13 Q1026 NOSIG RMK A3031,SEQM,2015-02-12T06:00:00Z,-0.12,-78.35,14.0,13.0,80,2,,6.21,30.295275,,,,,,TRUE,,,,BCFG,SCT,300,SCT,1300,,,,,VFR,,,,,,,,,,,,METAR,2400.0
SELT 120600Z 21004KT 9999 SCT030 12/10 Q1030,SELT,2015-02-12T06:00:00Z,-0.92,-78.62,12.0,10.0,210,4,,6.21,30.413385,,,,,,,,,,,SCT,3000,,,,,,,VFR,,,,,,,,,,,,METAR,2785.0
SEMT 120600Z 22004KT 9999 FEW026 24/23 Q1012,SEMT,2015-02-12T06:00:00Z,-0.95,-80.67,24.0,23.0,220,4,,6.21,29.88189,,,,,,,,,,,FEW,2600,,,,,,,VFR,,,,,,,,,,,,METAR,14.0
SEGU 120600Z 23007KT 9999 FEW010 SCT023 BKN100 26/21 Q1011 NOSIG RMK A2986,SEGU,2015-02-12T06:00:00Z,-2.13,-79.87,26.0,21.0,230,7,,6.21,29.852362,,,,,,TRUE,,,,,FEW,1000,SCT,2300,BKN,10000,,,VFR,,,,,,,,,,,,METAR,9.0
UKLI 120600Z 16002MPS 1600 BR OVC003 M01/M02 Q1029 NOSIG,UKLI,2015-02-12T06:00:00Z,48.88,24.68,-1.0,-2.0,160,4,,0.99,30.383858,,,,,,TRUE,,,,BR,OVC,300,,,,,,,LIFR,,,,,,,,,,,,METAR,280.0
UKLR 120600Z 23001MPS 1900 BR OVC003 M01/M01 Q1029 NOSIG,UKLR,2015-02-12T06:00:00Z,50.6,26.13,-1.0,-1.0,230,2,,1.18,30.383858,,,,,,TRUE,,,,BR,OVC,300,,,,,,,LIFR,,,,,,,,,,,,METAR,230.0
VOBL 120600Z VRB02KT 9999 FEW012 29/15 Q1019 NOSIG,VOBL,2015-02-12T06:00:00Z,13.2,77.7,29.0,15.0,0,2,,6.21,30.088583,,,,,,TRUE,,,,,FEW,1200,,,,,,,VFR,,,,,,,,,,,,METAR,915.0
UKON 120600Z 01006MPS CAVOK M04/M07 Q1026 NOSIG,UKON,2015-02-12T06:00:00Z,47.05,31.92,-4.0,-7.0,10,12,,6.21,30.295275,,,,,,TRUE,,,,,CAVOK,,,,,,,,VFR,,,,,,,,,,,,METAR,56.0
UKLU 120600Z 00000MPS 9999 FEW040 SCT200 M04/M04 Q1030 NOSIG,UKLU,2015-02-12T06:00:00Z,48.63,22.27,-4.0,-4.0,0,0,,6.21,30.413385,,,,,,TRUE,,,,,FEW,4000,SCT,20000,,,,,VFR,,,,,,,,,,,,METAR,117.0
UKKK 120600Z 25002MPS 9000 OVC004 M02/M03 Q1029 26190060 TEMPO 2000 -FZDZ BR OVC002,UKKK,2015-02-12T06:00:00Z,50.4,30.45,-2.0,-3.0,250,4,,5.59,30.383858,,,,,,,,,,,OVC,400,,,,,,,LIFR,,,,,,,,,,,,METAR,179.0
UKLN 120600Z 23002MPS 4000 BR FEW100 M07/M07 Q1029 15////// NOSIG,UKLN,2015-02-12T06:00:00Z,48.27,25.98,-7.0,-7.0,230,4,,2.49,30.383858,,,,,,TRUE,,,,BR,FEW,10000,,,,,,,IFR,,,,,,,,,,,,METAR,252.0
UKKM 120600Z VRB01MPS 1100 R15/1100 -FZDZ BR OVC002 M01/M01 Q1029,UKKM,2015-02-12T06:00:00Z,50.6,30.2,-1.0,-1.0,0,2,,0.68,30.383858,,,,,,,,,,-FZDZ BR,OVC,200,,,,,,,LIFR,,,,,,,,,,,,METAR,157.0
NCRG 120600Z 11010KT 9999 SCT018 26/22 Q1012,NCRG,2015-02-12T06:00:00Z,-21.2,-159.82,26.0,22.0,110,10,,6.21,29.88189,,,,,,,,,,,SCT,1800,,,,,,,VFR,,,,,,,,,,,,METAR,7.0
NCPY 120600Z AUTO 11003KT //// ///// 28/24 Q1009,NCPY,2015-02-12T06:00:00Z,-9.02,-158.07,28.0,24.0,110,3,,,29.793306,,,TRUE,,,,,,,,,,,,,,,,,,,,,,,,,,,,METAR,2.0
NCMH 120600Z AUTO 04004KT //// ///// 28/24 Q1008,NCMH,2015-02-12T06:00:00Z,-10.38,-161.0,28.0,24.0,40,4,,,29.763779,,,TRUE,,,,,,,,,,,,,,,,,,,,,,,,,,,,METAR,0.0
NCAI 120600Z AUTO 09006KT //// ///// 25/22 Q1011,NCAI,2015-02-12T06:00:00Z,-18.82,-159.77,25.0,22.0,90,6,,,29.852362,,,TRUE,,,,,,,,,,,,,,,,,,,,,,,,,,,,METAR,6.0
VHHH 120600Z 28005KT 2800 HZ FEW022 20/09 Q1017 NOSIG,VHHH,2015-02-12T06:00:00Z,22.32,113.92,20.0,9.0,280,5,,1.74,30.029528,,,,,,TRUE,,,,HZ,FEW,2200,,,,,,,IFR,,,,,,,,,,,,METAR,9.0
HRYR 120600Z 00000KT 8000 SCT025 20/17 Q1022 NOSIG,HRYR,2015-02-12T06:00:00Z,-1.97,30.12,20.0,17.0,0,0,,4.97,30.177166,,,,,,TRUE,,,,,SCT,2500,,,,,,,MVFR,,,,,,,,,,,,METAR,1497.0
OYSN 120600Z 21003KT 160V250 CAVOK 19/M03 Q1028 NOSIG,OYSN,2015-02-12T06:00:00Z,15.48,44.22,19.0,-3.0,210,3,,6.21,30.35433,,,,,,TRUE,,,,,CAVOK,,,,,,,,VFR,,,,,,,,,,,,METAR,2190.0
FDJR 120600Z AUTO 32002KT //// // ////// 26/22 Q1021,FDJR,2015-02-12T06:00:00Z,-27.17,31.43,26.0,22.0,320,2,,,30.147638,,,TRUE,,,,,,,,,,,,,,,,,,,,,,,,,,,,METAR,701.0
OPSK 120600Z 13004KT 4000 HZ NSC 23/12 Q1018 RH48 PC,OPSK,2015-02-12T06:00:00Z,27.72,68.8,23.0,12.0,130,4,,2.49,30.059055,,,,,,,,,,HZ,,,,,,,,,,,,,,,,,,,,,METAR,58.0
SVMI 120600Z 00000KT 9999 FEW016 27/23 Q1015 NOSIG,SVMI,2015-02-12T06:00:00Z,10.58,-67.0,27.0,23.0,0,0,,6.21,29.970472,,,,,,TRUE,,,,,FEW,1600,,,,,,,VFR,,,,,,,,,,,,METAR,48.0
SBCF 120600Z 15002KT CAVOK 20/18 Q1020,SBCF,2015-02-12T06:00:00Z,-19.63,-43.97,20.0,18.0,150,2,,6.21,30.11811,,,,,,,,,,,CAVOK,,,,,,,,VFR,,,,,,,,,,,,METAR,828.0
OYSQ 120600Z 08012KT 9999 SCT18 25/20 Q1016,OYSQ,2015-02-12T06:00:00Z,12.62,53.88,25.0,20.0,80,12,,6.21,30.0,,,,,,,,,,,,,,,,,,,,,,,,,,,,,,,METAR,45.0
OYAA 120600Z 09017KT 9999 FEW018TCU BKN025 26/18 Q1018 NOSIG,OYAA,2015-02-12T06:00:00Z,12.83,45.02,26.0,18.0,90,17,,6.21,30.059055,,,,,,TRUE,,,,,FEW,1800,BKN,2500,,,,,MVFR,,,,,,,,,,,,METAR,3.0
SBEG 120600Z 00000KT CAVOK 24/22 Q1011,SBEG,2015-02-12T06:00:00Z,-3.02,-60.03,24.0,22.0,0,0,,6.21,29.852362,,,,,,,,,,,CAVOK,,,,,,,,VFR,,,,,,,,,,,,METAR,2.0
MHLC 120600Z 00000KT 9999 FEW020 20/19 Q1015 A2997 NOSIG,MHLC,2015-02-12T06:00:00Z,15.75,-86.85,20.0,19.0,0,0,,6.21,29.970472,,,,,,TRUE,,,,,FEW,2000,,,,,,,VFR,,,,,,,,,,,,METAR,15.0
OYHD 120600Z 19007KT 130V250 6000 SCT030 26/21 Q1016,OYHD,2015-02-12T06:00:00Z,14.75,42.97,26.0,21.0,190,7,,3.73,30.0,,,,,,,,,,,SCT,3000,,,,,,,MVFR,,,,,,,,,,,,METAR,115.0
MGGT 120600Z 02006KT 7000 OVC014 16/13 Q1025 A3027 BR,MGGT,2015-02-12T06:00:00Z,14.57,-90.53,16.0,13.0,20,6,,4.35,30.265747,,,,,,,,,,BR,OVC,1400,,,,,,,MVFR,,,,,,,,,,,,METAR,1509.0
MYNN 120600Z 06004KT 9999 FEW018 SCT030 21/14 A2999,MYNN,2015-02-12T06:00:00Z,25.03,-77.47,21.0,14.0,60,4,,6.21,29.991142,,,,,,,,,,,FEW,1800,SCT,3000,,,,,VFR,,,,,,,,,,,,METAR,3.0
TBPB 120600Z 12011KT 9999 SCT018 SCT300 26/23 Q1013 NOSIG,TBPB,2015-02-12T06:00:00Z,13.07,-59.48,26.0,23.0,120,11,,6.21,29.911417,,,,,,TRUE,,,,,SCT,1800,SCT,30000,,,,,VFR,,,,,,,,,,,,METAR,52.0
NFFN 120600Z 05004KT 5000 -RA FEW025 SCT048 BKN100 26/25 Q1006 TEMPO 3000 +SHRA,NFFN,2015-02-12T06:00:00Z,-17.75,177.45,26.0,25.0,50,4,,3.11,29.704725,,,,,,,,,,-RA,FEW,2500,SCT,4800,BKN,10000,,,MVFR,,,,,,,,,,,,SPECI,18.0
GVAC 120600Z 03005KT 9999 BKN015 BKN018 18/14 Q1017 NOSIG,GVAC,2015-02-12T06:00:00Z,16.72,-22.93,18.0,14.0,30,5,,6.21,30.029528,,,,,,TRUE,,,,,BKN,1500,BKN,1800,,,,,MVFR,,,,,,,,,,,,METAR,55.0
UBBN 120600Z 15010KT 9999 SCT040 OVC080 04/02 Q1012 R14R/CLRD60 NOSIG RMK MT OP QFE684,UBBN,2015-02-12T06:00:00Z,39.18,45.45,4.0,2.0,150,10,,6.21,29.88189,,,,,,TRUE,,,,,SCT,4000,OVC,8000,,,,,VFR,,,,,,,,,,,,METAR,873.0
OYSY 120600Z 05005KT 020V090 CAVOK 22/08 Q1019,OYSY,2015-02-12T06:00:00Z,15.97,48.78,22.0,8.0,50,5,,6.21,30.088583,,,,,,,,,,,CAVOK,,,,,,,,VFR,,,,,,,,,,,,METAR,701.0
MPTO 120600Z 00000KT 9999 FEW020 24/20 Q1011 NOSIG,MPTO,2015-02-12T06:00:00Z,9.05,-79.37,24.0,20.0,0,0,,6.21,29.852362,,,,,,TRUE,,,,,FEW,2000,,,,,,,VFR,,,,,,,,,,,,METAR,45.0
NGFU 120600Z VRB03KT 9999 FEW019TCU BKN310 31/25 Q1006,NGFU,2015-02-12T06:00:00Z,-8.52,179.22,31.0,25.0,0,3,,6.21,29.704725,,,,,,,,,,,FEW,1900,BKN,31000,,,,,VFR,,,,,,,,,,,,METAR,1.0
FDOT 120600Z AUTO /////KT //// // ////// 25/18 Q1020,FDOT,2015-02-12T06:00:00Z,-26.7,31.43,25.0,18.0,,,,,30.11811,,,TRUE,,,,,,,,,,,,,,,,,,,,,,,,,,,,METAR,341.0
FDLB 120600Z AUTO 29001KT //// // ////// 27/19 Q1021,FDLB,2015-02-12T06:00:00Z,,,27.0,19.0,290,1,,,30.147638,,,TRUE,,,,,,,,,,,,,,,,,,,,,,,,,,,,METAR,
FDND 120600Z AUTO /////KT //// // ////// 26/18 Q1018,FDND,2015-02-12T06:00:00Z,-26.97,31.97,26.0,18.0,,,,,30.059055,,,TRUE,,,,,,,,,,,,,,,,,,,,,,,,,,,,METAR,207.0
FDBB 120600Z AUTO 00000KT //// // ////// 27/21 Q1017,FDBB,2015-02-12T06:00:00Z,-26.85,31.92,27.0,21.0,0,0,,,30.029528,,,TRUE,,,,,,,,,,,,,,,,,,,,,,,,,,,,METAR,94.0
GQNN 120600Z 34006KT 310V010 8000 TSRA FEW046CB SCT100 18/14 Q1013 NOSIG,GQNN,2015-02-12T06:00:00Z,18.1,-15.93,18.0,14.0,340,6,,4.97,29.911417,,,,,,TRUE,,,,TSRA,FEW,4600,SCT,10000,,,,,MVFR,,,,,,,,,,,,METAR,3.0
FDNY 120600Z AUTO 10002KT //// // ////// 25/19 Q1028,FDNY,2015-02-12T06:00:00Z,-26.12,31.45,25.0,19.0,100,2,,,30.35433,,,TRUE,,,,,,,,,,,,,,,,,,,,,,,,,,,,METAR,320.0
SBMN 120600Z 13002KT CAVOK 25/24 Q1011,SBMN,2015-02-12T06:00:00Z,-3.13,-59.97,25.0,24.0,130,2,,6.21,29.852362,,,,,,,,,,,CAVOK,,,,,,,,VFR,,,,,,,,,,,,METAR,84.0
SBCG 120600Z 35002KT 9999 FEW025 FEW030TCU SCT100 21/20 Q1014,SBCG,2015-02-12T06:00:00Z,-20.47,-54.67,21.0,20.0,350,2,,6.21,29.940945,,,,,,,,,,,FEW,2500,FEW,3000,SCT,10000,,,VFR,,,,,,,,,,,,METAR,567.0
FMMI 120600Z 14007KT 090V180 9999 FEW017 BKN020 21/21 Q1022 NOSIG,FMMI,2015-02-12T06:00:00Z,-18.8,47.47,21.0,21.0,140,7,,6.21,30.177166,,,,,,TRUE,,,,,FEW,1700,BKN,2000,,,,,MVFR,,,,,,,,,,,,METAR,1276.0
SPIM 120600Z 15013KT 9999 BKN025 24/20 Q1012 NOSIG RMK PP000,SPIM,2015-02-12T06:00:00Z,-12.02,-77.12,24.0,20.0,150,13,,6.21,29.88189,,,,,,TRUE,,,,,BKN,2500,,,,,,,MVFR,,,,,,,,,,,,METAR,13.0
OKBK 120600Z 29011KT 4000 -HZ FEW040 BKN080 22/13 Q1012 NOSIG,OKBK,2015-02-12T06:00:00Z,29.22,47.97,22.0,13.0,290,11,,2.49,29.88189,,,,,,TRUE,,,,-HZ,FEW,4000,BKN,8000,,,,,IFR,,,,,,,,,,,,METAR,55.0
KRKP 120600Z AUTO 08007KT 10SM BKN026 BKN037 18/16 A3014 RMK AO2 T01830161,KRKP,2015-02-12T06:00:00Z,28.08,-97.05,18.3,16.1,80,7,,10.0,30.138779,,,TRUE,TRUE,,,,,,,BKN,2600,BKN,3700,,,,,MVFR,,,,,,,,,,,,SPECI,6.0
OIBL 120600Z 09008KT 7000 NSC 24/18 Q1018,OIBL,2015-02-12T06:00:00Z,26.53,54.82,24.0,18.0,90,8,,4.35,30.059055,,,,,,,,,,,,,,,,,,,,,,,,,,,,,,,METAR,14.0
SBCB 120600Z 06015KT CAVOK 25/24 Q1014,SBCB,2015-02-12T06:00:00Z,-22.92,-42.08,25.0,24.0,60,15,,6.21,29.940945,,,,,,,,,,,CAVOK,,,,,,,,VFR,,,,,,,,,,,,METAR,4.0
SBGR 120600Z 08004KT CAVOK 22/21 Q1018,SBGR,2015-02-12T06:00:00Z,-23.42,-46.47,22.0,21.0,80,4,,6.21,30.059055,,,,,,,,,,,CAVOK,,,,,,,,VFR,,,,,,,,,,,,METAR,750.0
FDMY 120600Z AUTO 36002KT //// // ////// ///// Q1026,FDMY,2015-02-12T06:00:00Z,-25.87,31.52,,,360,2,,,30.295275,,,TRUE,,,,,,,,,,,,,,,,,,,,,,,,,,,,METAR,480.0
FDST 120600Z AUTO 00000KT //// // ////// 24/18 Q1019,FDST,2015-02-12T06:00:00Z,-26.43,31.95,24.0,18.0,0,0,,,30.088583,,,TRUE,,,,,,,,,,,,,,,,,,,,,,,,,,,,METAR,667.0
GOOY 120600Z 34009KT CAVOK 18/17 Q1013 NOSIG,GOOY,2015-02-12T06:00:00Z,14.72,-17.5,18.0,17.0,340,9,,6.21,29.911417,,,,,,TRUE,,,,,CAVOK,,,,,,,,VFR,,,,,,,,,,,,METAR,24.0
OYMB 120600Z 15004KT CAVOK 21/07 Q1016,OYMB,2015-02-12T06:00:00Z,15.47,45.32,21.0,7.0,150,4,,6.21,30.0,,,,,,,,,,,CAVOK,,,,,,,,VFR,,,,,,,,,,,,METAR,1000.0
OSDI 120600Z 22007KT 9999 FEW026 SCT030 BKN100 03/01 Q1016,OSDI,2015-02-12T06:00:00Z,33.42,36.52,3.0,1.0,220,7,,6.21,30.0,,,,,,,,,,,FEW,2600,SCT,3000,BKN,10000,,,VFR,,,,,,,,,,,,METAR,605.0
NFNA 120600Z 35005KT 40KM SCT020TCU SCT048 BKN100 28/24 Q1006 RMK RR NIL ,NFNA,2015-02-12T06:00:00Z,-18.05,178.57,28.0,24.0,350,5,,24.86,29.704725,,,,,,,,,,,SCT,2000,SCT,4800,BKN,10000,,,VFR,,,,,,,,,,,,METAR,5.0
OPPS 120600Z 00000KT 3600 HZ FEW100 BKN220 19/06 Q1019.5,OPPS,2015-02-12T06:00:00Z,34.02,71.52,19.0,6.0,0,0,,2.24,30.103346,,,,,,,,,,HZ,FEW,10000,BKN,22000,,,,,IFR,,,,,,,,,,,,METAR,360.0
OIBQ 120600Z 18018KT 8000 FEW040 BKN100 BKN190 24/17 Q1012,OIBQ,2015-02-12T06:00:00Z,29.27,50.32,24.0,17.0,180,18,,4.97,29.88189,,,,,,,,,,,FEW,4000,BKN,10000,BKN,19000,,,MVFR,,,,,,,,,,,,METAR,6.0
OIIK 120600Z 15002KT 8000 FEW030CB SCT035 BKN090 08/06 Q1015,OIIK,2015-02-12T06:00:00Z,36.25,50.05,8.0,6.0,150,2,,4.97,29.970472,,,,,,,,,,,FEW,3000,SCT,3500,BKN,9000,,,MVFR,,,,,,,,,,,,METAR,1278.0
OINE 120600Z 35006KT 9999 FEW035 BKN200 12/11 Q1014,OINE,2015-02-12T06:00:00Z,37.38,55.45,12.0,11.0,350,6,,6.21,29.940945,,,,,,,,,,,FEW,3500,BKN,20000,,,,,VFR,,,,,,,,,,,,METAR,130.0
OITK 120600Z 01002KT 8000 FEW040 BKN100 03/00 Q1011,OITK,2015-02-12T06:00:00Z,38.42,44.98,3.0,0.0,10,2,,4.97,29.852362,,,,,,,,,,,FEW,4000,BKN,10000,,,,,MVFR,,,,,,,,,,,,METAR,1107.0
OITM 120600Z 16006KT 6000 FEW035TCU OVC080 03/00 Q1014,OITM,2015-02-12T06:00:00Z,37.35,46.15,3.0,0.0,160,6,,3.73,29.940945,,,,,,,,,,,FEW,3500,OVC,8000,,,,,MVFR,,,,,,,,,,,,METAR,1340.0
YABA 120600Z 12015KT 9999 SCT020 OVC250 24/16 Q1015,YABA,2015-02-12T06:00:00Z,-34.93,117.8,24.0,16.0,120,15,,6.21,29.970472,,,,,,,,,,,SCT,2000,OVC,25000,,,,,VFR,,,,,,,,,,,,METAR,69.0
YAMB 120600Z 09013KT 9999 FEW050 29/15 Q1016,YAMB,2015-02-12T06:00:00Z,-27.63,152.72,29.0,15.0,90,13,,6.21,30.0,,,,,,,,,,,FEW,5000,,,,,,,VFR,,,,,,,,,,,,METAR,28.0
YARG 120600Z AUTO 23012KT 9999 // NCD 37/16 Q1007,YARG,2015-02-12T06:00:00Z,-16.63,128.45,37.0,16.0,230,12,,6.21,29.734253,,,TRUE,,,,,,,,,,,,,,,,,,,,,,,,,,,,METAR,165.0
YBAS 120600Z AUTO 11013KT 9999 // NCD 37/04 Q1012,YBAS,2015-02-12T06:00:00Z,-23.8,133.9,37.0,4.0,110,13,,6.21,29.88189,,,TRUE,,,,,,,,,,,,,,,,,,,,,,,,,,,,METAR,541.0
YBBN 120600Z 12010KT 9999 SCT031 27/19 Q1017 NOSIG,YBBN,2015-02-12T06:00:00Z,-27.38,153.13,27.0,19.0,120,10,,6.21,30.029528,,,,,,TRUE,,,,,SCT,3100,,,,,,,VFR,,,,,,,,,,,,METAR,5.0
YBCG 120600Z AUTO 12013KT 9999 // NCD 27/19 Q1018,YBCG,2015-02-12T06:00:00Z,-28.17,153.5,27.0,19.0,120,13,,6.21,30.059055,,,TRUE,,,,,,,,,,,,,,,,,,,,,,,,,,,,METAR,6.0
BKPR 120600Z VRB02KT 6000 FEW020 M07/M09 Q1026 NOSIG RMK 17010095,BKPR,2015-02-12T06:00:00Z,42.58,21.03,-7.0,-9.0,0,2,,3.73,30.295275,,,,,,TRUE,,,,,FEW,2000,,,,,,,MVFR,,,,,,,,,,,,SPECI,576.0
KMVH 120600Z AUTO 30003KT 10SM FEW120 M02/M04 A3018 RMK A01,KMVH,2015-02-12T06:00:00Z,46.83,-108.93,-2.0,-4.0,300,3,,10.0,30.180119,,,TRUE,TRUE,,,,,,,FEW,12000,,,,,,,VFR,,,,,,,,,,,,METAR,1355.0
OITT 120600Z 06004KT 5000 BR FEW030 FEW035CB OVC090 02/00 Q1014 A2996 TEMPO 3000 SNRA BR,OITT,2015-02-12T06:00:00Z,38.13,46.23,2.0,0.0,60,4,,3.11,29.940945,,,,,,,,,,BR,FEW,3000,FEW,3500,OVC,9000,,,MVFR,,,,,,,,,,,,METAR,1361.0
OISS 120600Z 09006KT 5000 DU FEW040 BKN190 16/04 Q1022 A3019,OISS,2015-02-12T06:00:00Z,29.52,52.57,16.0,4.0,90,6,,3.11,30.177166,,,,,,,,,,DU,FEW,4000,BKN,19000,,,,,MVFR,,,,,,,,,,,,METAR,1491.0
OIMM 120600Z 03006KT 9999 FEW040 13/08 Q1016 A3001,OIMM,2015-02-12T06:00:00Z,36.23,59.62,13.0,8.0,30,6,,6.21,30.0,,,,,,,,,,,FEW,4000,,,,,,,VFR,,,,,,,,,,,,METAR,980.0
OIKK 120600Z 00000KT 9999 FEW040 BKN180 10/M01 Q1025 A3027,OIKK,2015-02-12T06:00:00Z,30.25,56.97,10.0,-1.0,0,0,,6.21,30.265747,,,,,,,,,,,FEW,4000,BKN,18000,,,,,VFR,,,,,,,,,,,,METAR,1754.0
OIKB 120600Z 02004KT 3500 BR NSC 23/20 Q1018 A3006 NOSIG,OIKB,2015-02-12T06:00:00Z,27.22,56.37,23.0,20.0,20,4,,2.17,30.059055,,,,,,TRUE,,,,BR,,,,,,,,,,,,,,,,,,,,,METAR,10.0
OIII 120600Z 00000KT 7000 -SHRA SCT025 FEW030CB OVC100 12/02 Q1015 A2999 NOSIG,OIII,2015-02-12T06:00:00Z,35.68,51.3,12.0,2.0,0,0,,4.35,29.970472,,,,,,TRUE,,,,-SHRA,SCT,2500,FEW,3000,OVC,10000,,,MVFR,,,,,,,,,,,,METAR,1191.0
OIFM 120600Z 20014KT 7000 SCT035 BKN100 14/04 Q1017 A3004,OIFM,2015-02-12T06:00:00Z,32.75,51.87,14.0,4.0,200,14,,4.35,30.029528,,,,,,,,,,,SCT,3500,BKN,10000,,,,,MVFR,,,,,,,,,,,,METAR,1542.0
OIAW 120600Z 17008KT 6000 FEW040 BKN100 22/15 Q1011,OIAW,2015-02-12T06:00:00Z,31.32,48.77,22.0,15.0,170,8,,3.73,29.852362,,,,,,,,,,,FEW,4000,BKN,10000,,,,,MVFR,,,,,,,,,,,,METAR,22.0
WSSL 120600Z 35009KT 320V020 9999 SCT020 BKN300 31/20 Q1010 RMK 0530Z Q1011,WSSL,2015-02-12T06:00:00Z,1.42,103.87,31.0,20.0,350,9,,6.21,29.822834,,,,,,,,,,,SCT,2000,BKN,30000,,,,,VFR,,,,,,,,,,,,METAR,14.0
GVNP 120600Z 01010KT 9999 -TSRA BKN019CB 20/17 Q1017 NOSIG,GVNP,2015-02-12T06:00:00Z,14.95,-23.48,20.0,17.0,10,10,,6.21,30.029528,,,,,,TRUE,,,,-TSRA,BKN,1900,,,,,,,MVFR,,,,,,,,,,,,METAR,70.0
YBCS 120600Z 15015KT 9999 VCSH FEW025 BKN060 29/23 Q1007 INTER 0630/0900 14018G28KT 3000 SHRA BKN018,YBCS,2015-02-12T06:00:00Z,-16.87,145.75,29.0,23.0,150,15,,6.21,29.734253,,,,,,,,,,VCSH,FEW,2500,BKN,6000,,,,,VFR,,,,,,,,,,,,METAR,7.0
YBCV 120600Z AUTO 12017KT 9999 // NCD 34/03 Q1013,YBCV,2015-02-12T06:00:00Z,-26.38,146.27,34.0,3.0,120,17,,6.21,29.911417,,,TRUE,,,,,,,,,,,,,,,,,,,,,,,,,,,,METAR,304.0
YBDV 120600Z AUTO 10014KT //// // ////// 40/07 Q1010,YBDV,2015-02-12T06:00:00Z,-25.9,139.35,40.0,7.0,100,14,,,29.822834,,,TRUE,,,,,,,,,,,,,,,,,,,,,,,,,,,,METAR,47.0
SBTE 120600Z 00000KT CAVOK 24/24 Q1011,SBTE,2015-02-12T06:00:00Z,-5.03,-42.82,24.0,24.0,0,0,,6.21,29.852362,,,,,,,,,,,CAVOK,,,,,,,,VFR,,,,,,,,,,,,METAR,69.0
OPNH 120600Z 04502KTS 3000M FU NSC 22/10 Q1018,OPNH,2015-02-12T06:00:00Z,26.22,68.37,22.0,10.0,45,2,,1.86,30.059055,,,,,,,,,,FU,,,,,,,,,,,,,,,,,,,,,METAR,38.0
LQMO 120600Z VRB02KT 9999 FEW050 00/M03 Q1024,LQMO,2015-02-12T06:00:00Z,43.28,17.83,0.0,-3.0,0,2,,6.21,30.236221,,,,,,,,,,,FEW,5000,,,,,,,VFR,,,,,,,,,,,,METAR,48.0
OPRN 120600Z 23004KT 4000 HZ SCT200 18/07 Q1020.2/30.12,OPRN,2015-02-12T06:00:00Z,33.62,73.08,18.0,7.0,230,4,,2.49,,,,,,,,,,,HZ,SCT,20000,,,,,,,IFR,,,,,,,,,,,,METAR,508.0
SBFL 120600Z 35005KT 9999 FEW020 25/22 Q1011,SBFL,2015-02-12T06:00:00Z,-27.67,-48.53,25.0,22.0,350,5,,6.21,29.852362,,,,,,,,,,,FEW,2000,,,,,,,VFR,,,,,,,,,,,,METAR,5.0
SPHI 120600Z 15007KT 120V180 9999 FEW010 23/21 Q1011 RMK PP000,SPHI,2015-02-12T06:00:00Z,-6.77,-79.82,23.0,21.0,150,7,,6.21,29.852362,,,,,,,,,,,FEW,1000,,,,,,,VFR,,,,,,,,,,,,METAR,34.0
WAJJ 120600Z 29023KT 9999 SCT014 31/20 Q1004,WAJJ,2015-02-12T06:00:00Z,-2.58,140.52,31.0,20.0,290,23,,6.21,29.64567,,,,,,,,,,,SCT,1400,,,,,,,VFR,,,,,,,,,,,,METAR,88.0
SBSJ 120600Z 03004KT 9999 FEW020 24/21 Q1018,SBSJ,2015-02-12T06:00:00Z,-23.22,-45.87,24.0,21.0,30,4,,6.21,30.059055,,,,,,,,,,,FEW,2000,,,,,,,VFR,,,,,,,,,,,,METAR,646.0
SKCG 120600Z 01006KT 9999 BKN070 26/22 A2986,SKCG,2015-02-12T06:00:00Z,10.43,-75.52,26.0,22.0,10,6,,6.21,29.861221,,,,,,,,,,,BKN,7000,,,,,,,VFR,,,,,,,,,,,,METAR,1.0
TAPA 120600Z 22003KT 9999 FEW019 23/22 Q1013 NOSIG,TAPA,2015-02-12T06:00:00Z,17.12,-61.78,23.0,22.0,220,3,,6.21,29.911417,,,,,,TRUE,,,,,FEW,1900,,,,,,,VFR,,,,,,,,,,,,METAR,14.0
MKJS 120600Z 02006KT 9999 FEW022 23/16 Q1013,MKJS,2015-02-12T06:00:00Z,18.5,-77.92,23.0,16.0,20,6,,6.21,29.911417,,,,,,,,,,,FEW,2200,,,,,,,VFR,,,,,,,,,,,,METAR,1.0
EPBY 120600Z 20004KT 160V230 9999 OVC013 02/M00 Q1025,EPBY,2015-02-12T06:00:00Z,53.1,18.0,2.0,0.0,200,4,,6.21,30.265747,,,,,,,,,,,OVC,1300,,,,,,,MVFR,,,,,,,,,,,,METAR,71.0
UBBB 120600Z 03008KT 9999 BKN007 OVC022 06/05 Q1021 88290065 NOSIG,UBBB,2015-02-12T06:00:00Z,40.45,50.07,6.0,5.0,30,8,,6.21,30.147638,,,,,,TRUE,,,,,BKN,700,OVC,2200,,,,,IFR,,,,,,,,,,,,METAR,-6.0
MHTG 120600Z 36003KT 9999 BKN028 20/14 Q1019 A3009 NOSIG,MHTG,2015-02-12T06:00:00Z,14.07,-87.22,20.0,14.0,360,3,,6.21,30.088583,,,,,,TRUE,,,,,BKN,2800,,,,,,,MVFR,,,,,,,,,,,,METAR,1004.0
MHLM 120600Z 16003KT 9999 FEW025 20/20 Q1015 A2997 NOSIG,MHLM,2015-02-12T06:00:00Z,15.45,-87.93,20.0,20.0,160,3,,6.21,29.970472,,,,,,TRUE,,,,,FEW,2500,,,,,,,VFR,,,,,,,,,,,,METAR,26.0
MGSJ 120600Z 00000KT 9000 SKC 23/20 Q1014 A2994 BR,MGSJ,2015-02-12T06:00:00Z,13.92,-90.83,23.0,20.0,0,0,,5.59,29.940945,,,,,,,,,,BR,SKC,,,,,,,,VFR,,,,,,,,,,,,METAR,9.0
MGPB 120600Z 00000KT CAVOK 19/18 Q1015 A2997,MGPB,2015-02-12T06:00:00Z,15.72,-88.58,19.0,18.0,0,0,,6.21,29.970472,,,,,,,,,,,CAVOK,,,,,,,,VFR,,,,,,,,,,,,METAR,10.0
MGHT 120600Z 00000KT 9999 OVC018 16/13 QFE 818/4,MGHT,2015-02-12T06:00:00Z,15.32,-91.5,16.0,13.0,0,0,,6.21,,,,,,,,,,,,OVC,1800,,,,,,,MVFR,,,,,,,,,,,,METAR,1901.0
MGMM 120600Z 00000KT CAVOK 17/15 Q1017 A3003,MGMM,2015-02-12T06:00:00Z,17.07,-89.15,17.0,15.0,0,0,,6.21,30.029528,,,,,,,,,,,CAVOK,,,,,,,,VFR,,,,,,,,,,,,METAR,105.0
SBAR 120600Z 09008KT 9999 FEW017 27/22 Q1014,SBAR,2015-02-12T06:00:00Z,-10.97,-37.07,27.0,22.0,90,8,,6.21,29.940945,,,,,,,,,,,FEW,1700,,,,,,,VFR,,,,,,,,,,,,METAR,9.0
SBNT 120600Z 14011KT 9999 SCT027 26/21 Q1014,SBNT,2015-02-12T06:00:00Z,-5.92,-35.25,26.0,21.0,140,11,,6.21,29.940945,,,,,,,,,,,SCT,2700,,,,,,,VFR,,,,,,,,,,,,METAR,49.0
FQQL 120600Z 06002KT 9999 FEW020 SCT/// 28/25 Q1012,FQQL,2015-02-12T06:00:00Z,-17.87,36.87,28.0,25.0,60,2,,6.21,29.88189,,,,,,,,,,,FEW,2000,,,,,,,VFR,,,,,,,,,,,,METAR,16.0
FQMA 120600Z 15005KT 9999 SCT020 28/22 Q1017 NOSIG,FQMA,2015-02-12T06:00:00Z,-25.92,32.57,28.0,22.0,150,5,,6.21,30.029528,,,,,,TRUE,,,,,SCT,2000,,,,,,,VFR,,,,,,,,,,,,METAR,44.0
EPKT 120600Z 14006KT 5000 BR OVC017 01/M01 Q1025,EPKT,2015-02-12T06:00:00Z,50.47,19.08,1.0,-1.0,140,6,,3.11,30.265747,,,,,,,,,,BR,OVC,1700,,,,,,,MVFR,,,,,,,,,,,,METAR,284.0
EPMO 120600Z 19005KT 8000 OVC016 01/M00 Q1026,EPMO,2015-02-12T06:00:00Z,52.45,20.65,1.0,0.0,190,5,,4.97,30.295275,,,,,,,,,,,OVC,1600,,,,,,,MVFR,,,,,,,,,,,,METAR,104.0
UKBB 120600Z 20002MPS 9999 OVC007 M05/M07 Q1029 18811050 68811095 TEMPO 2000 BR,UKBB,2015-02-12T06:00:00Z,50.33,30.9,-5.0,-7.0,200,4,,6.21,30.383858,,,,,,,,,,,OVC,700,,,,,,,IFR,,,,,,,,0.0,,,,METAR,119.0
UKDE 120600Z 01005MPS CAVOK M05/M08 Q1026 02710370 NOSIG,UKDE,2015-02-12T06:00:00Z,47.87,35.32,-5.0,-8.0,10,10,,6.21,30.295275,,,,,,TRUE,,,,,CAVOK,,,,,,,,VFR,,,,,,,,,,,,METAR,113.0
SBFZ 120600Z 13014KT 9999 SCT020 27/21 Q1012,SBFZ,2015-02-12T06:00:00Z,-3.77,-38.52,27.0,21.0,130,14,,6.21,29.88189,,,,,,,,,,,SCT,2000,,,,,,,VFR,,,,,,,,,,,,METAR,25.0
SBSN 120600Z 12003KT 9999 FEW015 FEW025TCU BKN100 24/23 Q1011,SBSN,2015-02-12T06:00:00Z,-2.42,-54.78,24.0,23.0,120,3,,6.21,29.852362,,,,,,,,,,,FEW,1500,FEW,2500,BKN,10000,,,VFR,,,,,,,,,,,,METAR,72.0
MMSD 120600Z RTD 28005KT 15SM FEW280 19/14 A2994 RMK SLP133 52010 919 8/008,MMSD,2015-02-12T06:00:00Z,23.13,-109.7,19.0,14.0,280,5,,15.0,29.940945,1013.3,,,,,,,,,,FEW,28000,,,,,,,VFR,1.0,,,,,,,,,,,METAR,109.0
SBVT 120600Z 32004KT CAVOK 24/21 Q1016,SBVT,2015-02-12T06:00:00Z,-20.27,-40.27,24.0,21.0,320,4,,6.21,30.0,,,,,,,,,,,CAVOK,,,,,,,,VFR,,,,,,,,,,,,METAR,4.0
UKHH 120600Z 35002MPS 4900 BR NSC M10/M12 Q1028 25710560 TEMPO 2100 BKN007,UKHH,2015-02-12T06:00:00Z,49.92,36.28,-10.0,-12.0,350,4,,3.04,30.35433,,,,,,,,,,BR,,,,,,,,,,,,,,,,,,,,,METAR,155.0
UKOO 120600Z 02007MPS CAVOK M03/M07 Q1026 34090060 NOSIG,UKOO,2015-02-12T06:00:00Z,46.42,30.68,-3.0,-7.0,20,14,,6.21,30.295275,,,,,,TRUE,,,,,CAVOK,,,,,,,,VFR,,,,,,,,,,,,METAR,35.0
UKDD 120600Z 03007MPS CAVOK M06/M08 Q1026 08090070 NOSIG,UKDD,2015-02-12T06:00:00Z,48.37,35.1,-6.0,-8.0,30,14,,6.21,30.295275,,,,,,TRUE,,,,,CAVOK,,,,,,,,VFR,,,,,,,,,,,,METAR,149.0
UKLL 120600Z 14002MPS 2800 BR OVC003 00/00 Q1028 13290060 NOSIG,UKLL,2015-02-12T06:00:00Z,49.82,23.93,0.0,0.0,140,4,,1.74,30.35433,,,,,,TRUE,,,,BR,OVC,300,,,,,,,LIFR,,,,,,,,,,,,METAR,325.0
CYHK 120559Z AUTO 23007KT 5SM -SN BKN042 OVC075 M33/M37 A3018 RMK SLP228,CYHK,2015-02-12T05:59:00Z,68.62,-95.83,-33.0,-37.0,230,7,,5.0,30.180119,1022.8,,TRUE,,,,,,,-SN,BKN,4200,OVC,7500,,,,,MVFR,,,,,,,,,,,,SPECI,46.0
CYPR 120559Z AUTO 13012G17KT 6SM -RA BR OVC034 08/06 A2981 RMK PCPN 1.5MM PAST HR SLP096,CYPR,2015-02-12T05:59:00Z,54.28,-130.42,8.0,6.0,130,12,17,6.0,29.811024,1009.6,,TRUE,,,,,,,-RA BR,OVC,3400,,,,,,,VFR,,,,,,,,,,,,SPECI,34.0
CYDL 120559Z AUTO 17011KT 5SM BR CLR M16/M18 A2983 RMK SLP160,CYDL,2015-02-12T05:59:00Z,58.42,-130.02,-16.0,-18.0,170,11,,5.0,29.828741,1016.0,,TRUE,,,,,,,BR,CLR,,,,,,,,MVFR,,,,,,,,,,,,SPECI,816.0
CYOO 120559Z AUTO 29009KT 250V310 6SM -SN FEW018 OVC024 M03/M04 A2976 RMK SLP084,CYOO,2015-02-12T05:59:00Z,43.92,-78.9,-3.0,-4.0,290,9,,6.0,29.760826,1008.4,,TRUE,,,,,,,-SN,FEW,1800,OVC,2400,,,,,MVFR,,,,,,,,,,,,SPECI,139.0
EHVK 120559Z AUTO 14002KT 2200 BR OVC003 M02/M02 Q1021 YLO,EHVK,2015-02-12T05:59:00Z,51.63,5.7,-2.0,-2.0,140,2,,1.37,30.147638,,,TRUE,,,,,,,BR,OVC,300,,,,,,,LIFR,,,,,,,,,,,,SPECI,21.0
PANW 120559Z AUTO 01011KT 3SM -SN BR SCT001 BKN010 OVC023 M10/M12 A2949 RMK AO2 TSNO CIG 009V015 P0000 $,PANW,2015-02-12T05:59:00Z,59.45,-157.37,-10.0,-12.0,10,11,,3.0,29.489174,,,TRUE,TRUE,TRUE,,TRUE,,,-SN BR,SCT,100,BKN,1000,OVC,2300,,,MVFR,,,,,,0.0050,,,,,,SPECI,92.0
CWFD 120559Z AUTO 35021G27KT 1SM FEW062 FEW072 FEW080 M29/ A2939,CWFD,2015-02-12T05:59:00Z,66.57,-61.58,-29.0,,350,21,27,1.0,29.388779,,,TRUE,,,,,,,,FEW,6200,FEW,7200,FEW,8000,,,IFR,,,,,,,,,,,,SPECI,393.0
KNGU 120559Z 16004KT 10SM CLR 01/M03 A2996 RMK AO2 SLP145 T00111028 10011 20000 58013,KNGU,2015-02-12T05:59:00Z,36.92,-76.27,1.1,-2.8,160,4,,10.0,29.958662,1014.5,,,TRUE,,,,,,,CLR,,,,,,,,VFR,-1.3,1.1,0.0,,,,,,,,,METAR,5.0
PAKI 120559Z AUTO 01024G29KT 2SM -SN BR FEW004 SCT025 BKN031 M13/M16 A2949 RMK AO2 TSNO P0000 PK WND 36029/0559 $,PAKI,2015-02-12T05:59:00Z,59.93,-164.03,-13.0,-16.0,10,24,29,2.0,29.489174,,,TRUE,TRUE,TRUE,,TRUE,,,-SN BR,FEW,400,SCT,2500,BKN,3100,,,IFR,,,,,,0.0050,,,,,,METAR,4.0
HLLM 120750Z CALM 6000 FEW020 07/05 Q1021 ,HLLM,2015-02-12T05:58:08Z,32.9,13.28,7.0,5.0,,,,3.73,30.147638,,,,,,,,,,,FEW,2000,,,,,,,MVFR,,,,,,,,,,,,METAR,11.0
KHOP 120558Z AUTO 31012KT 8SM OVC027 01/M04 A3018 RMK AO2 OVC V BKN SLP225 T00121044 10084 20010 401061048 51009,KHOP,2015-02-12T05:58:00Z,36.67,-87.5,1.2,-4.4,310,12,,8.0,30.180119,1022.5,,TRUE,TRUE,,,,,,,OVC,2700,,,,,,,MVFR,0.9,8.4,1.0,10.6,-4.8,,,,,,,METAR,174.0
KLFI 120558Z AUTO 19006KT 10SM CLR 00/M03 A2995 RMK AO2 SLP149 60000 T10021026 10004 21008 57011 $,KLFI,2015-02-12T05:58:00Z,37.07,-76.37,-0.2,-2.6,190,6,,10.0,29.949802,1014.9,,TRUE,TRUE,TRUE,,,,,,CLR,,,,,,,,VFR,-1.1,0.4,-0.8,,,,,0.0050,,,,METAR,3.0
KDOV 120558Z AUTO 18004KT 10SM OVC120 M02/M03 A2992 RMK AO2 SLP135 T10201030 11013 21027 57019 $,KDOV,2015-02-12T05:58:00Z,39.12,-75.47,-2.0,-3.0,180,4,,10.0,29.920275,1013.5,,TRUE,TRUE,TRUE,,,,,,OVC,12000,,,,,,,VFR,-1.9,-1.3,-2.7,,,,,,,,,METAR,9.0
K0J4 120558Z AUTO 00000KT 10SM CLR 06/03 A3009 RMK AO2 SLP188 T00560028 10122 20056 56002 $,K0J4,2015-02-12T05:58:00Z,31.05,-86.32,5.6,2.8,0,0,,10.0,30.088583,1018.8,,TRUE,TRUE,TRUE,,,,,,CLR,,,,,,,,VFR,-0.2,12.2,5.6,,,,,,,,,METAR,96.0
KEUF 120558Z AUTO VRB03KT 10SM CLR 10/02 A3004 RMK AO2 SLP171 T01000017 10111 20056 402061022 56001 PWINO,KEUF,2015-02-12T05:58:00Z,31.95,-85.13,10.0,1.7,0,3,,10.0,30.041338,1017.1,,TRUE,TRUE,,,,,TRUE,,CLR,,,,,,,,VFR,-0.1,11.1,5.6,20.6,-2.2,,,,,,,METAR,87.0
K1J0 120558Z AUTO 00000KT 9SM CLR 06/05 A3008 RMK AO2 SLP171 T00610050 10133 20061 56002,K1J0,2015-02-12T05:58:00Z,30.85,-85.6,6.1,5.0,0,0,,9.0,30.079725,1017.1,,TRUE,TRUE,,,,,,,CLR,,,,,,,,VFR,-0.2,13.3,6.1,,,,,,,,,METAR,26.0
KWRI 120558Z AUTO 00000KT 10SM OVC130 M04/M07 A2989 RMK AO2 SLP127 T10411068 11032 21051 57017,KWRI,2015-02-12T05:58:00Z,40.02,-74.58,-4.1,-6.8,0,0,,10.0,29.890747,1012.7,,TRUE,TRUE,,,,,,,OVC,13000,,,,,,,VFR,-1.7,-3.2,-5.1,,,,,,,,,METAR,41.0
KTIK 120558Z AUTO 02010KT 10SM OVC085 03/M05 A3040 RMK AO2 SLP305 60000 T00271052 10059 20024 401210024 52015 $,KTIK,2015-02-12T05:58:00Z,35.42,-97.37,2.7,-5.2,20,10,,10.0,30.398623,1030.5,,TRUE,TRUE,TRUE,,,,,,OVC,8500,,,,,,,VFR,1.5,5.9,2.4,12.1,2.4,,,0.0050,,,,METAR,394.0
KPAM 120558Z AUTO 00000KT 10SM CLR 08/07 A3007 RMK AO2 VIS 1 3/4 RWY14 SLP186 T00760072 10121 20074 57007 $,KPAM,2015-02-12T05:58:00Z,30.07,-85.57,7.6,7.2,0,0,,10.0,30.070866,1018.6,,TRUE,TRUE,TRUE,,,,,,CLR,,,,,,,,VFR,-0.7,12.1,7.4,,,,,,,,,METAR,5.0
KOZR 120558Z AUTO 00000KT 10SM CLR 07/03 A3006 RMK AO2 SLP182 T00650026 10135 20065 401861011 53001,KOZR,2015-02-12T05:58:00Z,31.28,-85.72,6.5,2.6,0,0,,10.0,30.059055,1018.2,,TRUE,TRUE,,,,,,,CLR,,,,,,,,VFR,0.1,13.5,6.5,18.6,-1.1,,,,,,,METAR,93.0
KGUS 120558Z AUTO 29016G23KT 10SM UP FEW026 OVC042 M04/M08 A3003 RMK AO2 UPE0517B0547 SLP181 P0000 60000 T10421078 11001 21042 52004,KGUS,2015-02-12T05:58:00Z,40.63,-86.15,-4.2,-7.8,290,16,23,10.0,30.029528,1018.1,,TRUE,TRUE,,,,,,UP,FEW,2600,OVC,4200,,,,,VFR,0.4,-0.1,-4.2,,,0.0050,,0.0050,,,,METAR,247.0
KPHN 120558Z AUTO 32010G17KT 4SM -SN SCT010 BKN014 OVC040 M06/M08 A2990 RMK AO2,KPHN,2015-02-12T05:58:00Z,42.92,-82.52,-6.0,-8.0,320,10,17,4.0,29.899607,,,TRUE,TRUE,,,,,,-SN,SCT,1000,BKN,1400,OVC,4000,,,MVFR,,,,,,,,,,,,METAR,198.0
KSGJ 120558Z AUTO 25006KT 10SM CLR 08/07 A3007 RMK AO2 SLP181 T00830072 10111 20061 56005,KSGJ,2015-02-12T05:58:00Z,29.97,-81.32,8.3,7.2,250,6,,10.0,30.070866,1018.1,,TRUE,TRUE,,,,,,,CLR,,,,,,,,VFR,-0.5,11.1,6.1,,,,,,,,,METAR,3.0
KMRH 120558Z AUTO 00000KT 10SM CLR M01/M02 A3000 RMK AO2 SLP158 I1001 I6/// T10111022 10022 21017 58010 TSNO,KMRH,2015-02-12T05:58:00Z,34.73,-76.65,-1.1,-2.2,0,0,,10.0,30.0,1015.8,,TRUE,TRUE,,,TRUE,,,,CLR,,,,,,,,VFR,-1.0,2.2,-1.7,,,,,,,,,METAR,3.0
KMEI 120558Z AUTO 00000KT 10SM CLR 05/02 A3013 RMK AO2 SLP202 T00500022 10122 20050 402001022 50006,KMEI,2015-02-12T05:58:00Z,32.33,-88.75,5.0,2.2,0,0,,10.0,30.129921,1020.2,,TRUE,TRUE,,,,,,,CLR,,,,,,,,VFR,0.6,12.2,5.0,20.0,-2.2,,,,,,,METAR,89.0
KCMH 120558Z 29008KT 4SM -FZDZSN BR SCT014 BKN019 OVC038 M01/M02 A2994 RMK AO2 FZDZB54 P0000,KCMH,2015-02-12T05:58:00Z,40.0,-82.88,-1.0,-2.0,290,8,,4.0,29.940945,,,,TRUE,,,,,,-FZDZ SN BR,SCT,1400,BKN,1900,OVC,3800,,,MVFR,,,,,,0.0050,,,,,,METAR,247.0
PAIW 120558Z AUTO 06019KT 7SM CLR M23/M26 A2999 RMK AO2 SNE29 SLP156 P0000 60000 T12331256 11228 21239 58004 FZRANO,PAIW,2015-02-12T05:58:00Z,65.62,-168.1,-23.3,-25.6,60,19,,7.0,29.991142,1015.6,,TRUE,TRUE,,,,TRUE,,,CLR,,,,,,,,VFR,-0.4,-22.8,-23.9,,,0.0050,,,,,,SPECI,7.0
CYPQ 120558Z AUTO 23003KT 210V280 5SM -SN FEW015 BKN028 BKN036 OVC080 M04/M04 A2972 RMK SLP074,CYPQ,2015-02-12T05:58:00Z,44.22,-78.37,-4.0,-4.0,230,3,,5.0,29.719488,1007.4,,TRUE,,,,,,,-SN,FEW,1500,BKN,2800,BKN,3600,OVC,8000,MVFR,,,,,,,,,,,,SPECI,191.0
KGRF 120558Z AUTO 14005KT 10SM BKN130 BKN160 09/09 A3019 RMK AO2 SLPNO T00850085 10119 20084 50007 $,KGRF,2015-02-12T05:58:00Z,47.07,-122.57,8.5,8.5,140,5,,10.0,30.188976,,,TRUE,TRUE,TRUE,,,,,,BKN,13000,BKN,16000,,,,,VFR,0.7,11.9,8.4,,,,,,,,,METAR,92.0
KFCS 120558Z AUTO 32004KT 10SM CLR M01/M03 A3038 RMK AO2 SLP328 T10121030 10046 21016 50006 $,KFCS,2015-02-12T05:58:00Z,38.67,-104.77,-1.2,-3.0,320,4,,10.0,30.380905,1032.8,,TRUE,TRUE,TRUE,,,,,,CLR,,,,,,,,VFR,0.6,4.6,-1.6,,,,,,,,,METAR,1789.0
CYQZ 120558Z AUTO 17007KT 6SM -RA BR SCT021 OVC035 02/02 A3007 RMK SLP209,CYQZ,2015-02-12T05:58:00Z,53.02,-122.52,2.0,2.0,170,7,,6.0,30.070866,1020.9,,TRUE,,,,,,,-RA BR,SCT,2100,OVC,3500,,,,,VFR,,,,,,,,,,,,SPECI,545.0
KLUF 120558Z AUTO 36008KT 10SM CLR 16/M01 A3011 RMK AO2 SLP189 T01641010 10258 20152 51014 $,KLUF,2015-02-12T05:58:00Z,33.52,-112.37,16.4,-1.0,360,8,,10.0,30.109253,1018.9,,TRUE,TRUE,TRUE,,,,,,CLR,,,,,,,,VFR,1.4,25.8,15.2,,,,,,,,,METAR,332.0
KHUA 120558Z AUTO 05003KT 10SM CLR 05/M01 A3008 RMK AO2 SLP189 T00491008 10101 20036 401361043 50000,KHUA,2015-02-12T05:58:00Z,34.68,-86.68,4.9,-0.8,50,3,,10.0,30.079725,1018.9,,TRUE,TRUE,,,,,,,CLR,,,,,,,,VFR,0.0,10.1,3.6,13.6,-4.3,,,,,,,METAR,209.0
KFRI 120558Z AUTO 00000KT 10SM CLR M05/M05 A3046 RMK AO2 SLP326 T10521053 10019 21053 400401053 52017,KFRI,2015-02-12T05:58:00Z,39.03,-96.77,-5.2,-5.3,0,0,,10.0,30.46063,1032.6,,TRUE,TRUE,,,,,,,CLR,,,,,,,,VFR,1.7,1.9,-5.3,4.0,-5.3,,,,,,,METAR,325.0
KBKF 120558Z 19010KT 10SM CLR 01/M02 A3035 RMK AO2A SLP283 T00061017 10063 20001 58003,KBKF,2015-02-12T05:58:00Z,39.72,-104.75,0.6,-1.7,190,10,,10.0,30.351377,1028.3,,,TRUE,,,,,,,CLR,,,,,,,,VFR,-0.3,6.3,0.1,,,,,,,,,METAR,1726.0
KBAB 120558Z AUTO 06005KT 10SM CLR 09/09 A3019 RMK AO2 SLP301 T00940094 10164 20088 52009 $,KBAB,2015-02-12T05:58:00Z,39.12,-121.42,9.4,9.4,60,5,,10.0,30.188976,1030.1,,TRUE,TRUE,TRUE,,,,,,CLR,,,,,,,,VFR,0.9,16.4,8.8,,,,,,,,,METAR,34.0
KQGX 120558Z 14015KT 9999 CLR 26/13 A2997 RMK AO2A SLPNO RVRNO PNO VISNO RWY13 CHINO RWY13 ALSTG ESTMD $,KQGX,2015-02-12T05:58:00Z,100.65,-1000.65,26.0,13.0,140,15,,6.21,29.970472,,,,TRUE,TRUE,,,,,,CLR,,,,,,,,VFR,,,,,,,,,,,,METAR,999.0
KQSA 120558Z 24005KT 8000 HZ FEW060 SCT090 BKN130 09/00 A3023 RMK AO2A SLP186 T00860003 10086 20011 51011 $,KQSA,2015-02-12T05:58:00Z,100.65,-1000.65,8.6,0.3,240,5,,4.97,30.230314,1018.6,,,TRUE,TRUE,,,,,HZ,FEW,6000,SCT,9000,BKN,13000,,,MVFR,1.1,8.6,1.1,,,,,,,,,METAR,999.0
KMCF 120558Z AUTO 03003KT 10SM CLR 09/07 A3009 RMK AO2 SLP193 T00880074 10138 20088 50004,KMCF,2015-02-12T05:58:00Z,27.85,-82.52,8.8,7.4,30,3,,10.0,30.088583,1019.3,,TRUE,TRUE,,,,,,,CLR,,,,,,,,VFR,0.4,13.8,8.8,,,,,,,,,METAR,4.0
KLSV 120558Z AUTO 34004KT 10SM CLR 15/M04 A3027 RMK AO2 SLP241 52013,KLSV,2015-02-12T05:58:00Z,36.22,-115.02,15.0,-4.0,340,4,,10.0,30.268702,1024.1,,TRUE,TRUE,,,,,,,CLR,,,,,,,,VFR,1.3,,,,,,,,,,,METAR,570.0
KLRF 120558Z AUTO 32008KT 10SM BKN120 BKN150 06/M02 A3027 RMK AO2 SLP254 T00591021 10109 20058 401721020,KLRF,2015-02-12T05:58:00Z,34.92,-92.15,5.9,-2.1,320,8,,10.0,30.268702,1025.4,,TRUE,TRUE,,,,,,,BKN,12000,BKN,15000,,,,,VFR,,10.9,5.8,17.2,-2.0,,,,,,,METAR,95.0
KDMA 120558Z AUTO 07006KT 10SM CLR 16/00 A3013 RMK AO2 SLP178 T01630002 10220 20163 52021 $,KDMA,2015-02-12T05:58:00Z,32.17,-110.87,16.3,0.2,70,6,,10.0,30.129921,1017.8,,TRUE,TRUE,TRUE,,,,,,CLR,,,,,,,,VFR,2.1,22.0,16.3,,,,,,,,,METAR,824.0
KHIF 120558Z AUTO 11009KT 10SM CLR 04/M04 A3038 RMK AO2 SLP285 T00351040 10098 20023 58005,KHIF,2015-02-12T05:58:00Z,41.12,-111.97,3.5,-4.0,110,9,,10.0,30.380905,1028.5,,TRUE,TRUE,,,,,,,CLR,,,,,,,,VFR,-0.5,9.8,2.3,,,,,,,,,METAR,1459.0
KFFO 120558Z 27012KT 10SM SCT013 OVC025 00/M03 A2998 RMK AO2A SCT V BKN SLP162 60001 T10051028 10018 21005 57004,KFFO,2015-02-12T05:58:00Z,39.82,-84.03,-0.5,-2.8,270,12,,10.0,29.97933,1016.2,,,TRUE,,,,,,,SCT,1300,OVC,2500,,,,,MVFR,-0.4,1.8,-0.5,,,,,,,,,SPECI,251.0
KGTB 120558Z 23012KT 5SM -SN BLSN OVC007 M02/M03 A2970 RMK AO2A SNB0523 SLP067 P0000 60000 T10211030 11021 21058 57021,KGTB,2015-02-12T05:58:00Z,44.07,-75.72,-2.1,-3.0,230,12,,5.0,29.698818,1006.7,,,TRUE,,,,,,-SN BLSN,OVC,700,,,,,,,IFR,-2.1,-2.1,-5.8,,,0.0050,,,,,,SPECI,207.0
KMUO 120558Z 13006KT 10SM OVC180 05/02 A3034 RMK AO2A SLP284 5//// PA +2610 DA +2010,KMUO,2015-02-12T05:58:00Z,43.03,-115.87,5.0,2.0,130,6,,10.0,30.339567,1028.4,,,TRUE,,,,,,,OVC,18000,,,,,,,VFR,,,,,,,,,,,,SPECI,913.0
KPSM 120558Z 29004KT 10SM SCT150 BKN200 M13/M18 A2991 RMK AO2A SLP134 4/025 T11351183 11084 21153 57017,KPSM,2015-02-12T05:58:00Z,43.07,-70.82,-13.5,-18.3,290,4,,10.0,29.911417,1013.4,,,TRUE,,,,,,,SCT,15000,BKN,20000,,,,,VFR,-1.7,-8.4,-15.3,,,,,,,25.0,,SPECI,31.0
PFNO 120558Z AUTO 02006KT 10SM CLR M29/M32 A2993 RMK AO2 SLP137 T12891317 11250 21289 53001 FZRANO,PFNO,2015-02-12T05:58:00Z,66.82,-161.02,-28.9,-31.7,20,6,,10.0,29.929134,1013.7,,TRUE,TRUE,,,,TRUE,,,CLR,,,,,,,,VFR,0.1,-25.0,-28.9,,,,,,,,,METAR,17.0
PFSH 120558Z AUTO 01021KT 10SM BKN060 OVC075 M17/M21 A2976 RMK AO2 PK WND 01026/0546 SLP091 60000 T11671206 11156 21167 53005 FZRANO,PFSH,2015-02-12T05:58:00Z,64.37,-161.22,-16.7,-20.6,10,21,,10.0,29.760826,1009.1,,TRUE,TRUE,,,,TRUE,,,BKN,6000,OVC,7500,,,,,VFR,0.5,-15.6,-16.7,,,,,0.0050,,,,METAR,7.0
KINS 120558Z AUTO 00000KT 10SM CLR 09/M05 A3031 RMK AO2 SLP246 T00901050 10195 20089 51011,KINS,2015-02-12T05:58:00Z,36.58,-115.67,9.0,-5.0,0,0,,10.0,30.31004,1024.6,,TRUE,TRUE,,,,,,,CLR,,,,,,,,VFR,1.1,19.5,8.9,,,,,,,,,METAR,955.0
KIAB 120558Z AUTO 01003KT 10SM CLR M01/M07 A3042 RMK AO2 SLP315 T10101071 10028 21028 400551028 51010,KIAB,2015-02-12T05:58:00Z,37.62,-97.27,-1.0,-7.1,10,3,,10.0,30.41929,1031.5,,TRUE,TRUE,,,,,,,CLR,,,,,,,,VFR,1.0,2.8,-2.8,5.5,-2.8,,,,,,,METAR,418.0
KHMN 120558Z AUTO VRB01KT 10SM CLR 07/M03 A3030 RMK AO2 SLP226 T00711028 10116 20062 53008 $,KHMN,2015-02-12T05:58:00Z,32.85,-106.08,7.1,-2.8,0,1,,10.0,30.301182,1022.6,,TRUE,TRUE,TRUE,,,,,,CLR,,,,,,,,VFR,0.8,11.6,6.2,,,,,,,,,METAR,1248.0
KVAD 120558Z AUTO 23007KT 10SM CLR 09/07 A3003 RMK AO2 SLP171 T00940069 10123 20067 57007 $,KVAD,2015-02-12T05:58:00Z,30.97,-83.2,9.4,6.9,230,7,,10.0,30.029528,1017.1,,TRUE,TRUE,TRUE,,,,,,CLR,,,,,,,,VFR,-0.7,12.3,6.7,,,,,,,,,METAR,71.0
KTCM 120558Z AUTO 19005KT 10SM SCT100 09/09 A3019 RMK AO2 SLP229 T00910091 10123 20085 50005 $,KTCM,2015-02-12T05:58:00Z,47.12,-122.47,9.1,9.1,190,5,,10.0,30.188976,1022.9,,TRUE,TRUE,TRUE,,,,,,SCT,10000,,,,,,,VFR,0.5,12.3,8.5,,,,,,,,,METAR,98.0
KSUU 120558Z AUTO 05004KT 10SM CLR 10/09 A3018 RMK AO2 SLP227 T00970085 10171 20097 52010 $,KSUU,2015-02-12T05:58:00Z,38.27,-121.92,9.7,8.5,50,4,,10.0,30.180119,1022.7,,TRUE,TRUE,TRUE,,,,,,CLR,,,,,,,,VFR,1.0,17.1,9.7,,,,,,,,,METAR,19.0
KSKF 120558Z AUTO 08004KT 10SM CLR 15/11 A3016 RMK AO2 SLP210 T01520113 10216 20144 402350067 52019 $,KSKF,2015-02-12T05:58:00Z,29.37,-98.57,15.2,11.3,80,4,,10.0,30.159449,1021.0,,TRUE,TRUE,TRUE,,,,,,CLR,,,,,,,,VFR,1.9,21.6,14.4,23.5,6.7,,,,,,,METAR,210.0
KQIR 120558Z 15016KT 9999 CLR 24/12 A2999 RMK AO2A SLP157 T02380116 10238 20180 51016 $,KQIR,2015-02-12T05:58:00Z,100.65,-1000.65,23.8,11.6,150,16,,6.21,29.991142,1015.7,,,TRUE,TRUE,,,,,,CLR,,,,,,,,VFR,1.6,23.8,18.0,,,,,,,,,METAR,999.0
MUCF 120558Z AUTO 06007KT 14/11 Q1016,MUCF,2015-02-12T05:58:00Z,22.13,-80.4,14.0,11.0,60,7,,,30.0,,,TRUE,,,,,,,,,,,,,,,,,,,,,,,,,,,,METAR,39.0
KBLV 120558Z AUTO 31009KT 10SM CLR M03/M06 A3026 RMK AO2 SLP254 T10271061 10011 21038 400751038 52004,KBLV,2015-02-12T05:58:00Z,38.53,-89.83,-2.7,-6.1,310,9,,10.0,30.259842,1025.4,,TRUE,TRUE,,,,,,,CLR,,,,,,,,VFR,0.4,1.1,-3.8,7.5,-3.8,,,,,,,METAR,138.0
KFAF 120558Z AUTO 20007KT 10SM CLR 00/M01 A2992 RMK AO2 SLP135 T00011008 10012 21008 57013 $,KFAF,2015-02-12T05:58:00Z,37.12,-76.62,0.1,-0.8,200,7,,10.0,29.920275,1013.5,,TRUE,TRUE,TRUE,,,,,,CLR,,,,,,,,VFR,-1.3,1.2,-0.8,,,,,,,,,METAR,4.0
KOFF 120558Z 36011G26KT 10SM SCT028 M08/M13 A3052 RMK AO2A PK WND 34031/46 SLP356 T10781135 11008 21078 400401078 52039,KOFF,2015-02-12T05:58:00Z,41.12,-95.92,-7.8,-13.5,360,11,26,10.0,30.519686,1035.6,,,TRUE,,,,,,,SCT,2800,,,,,,,VFR,3.9,-0.8,-7.8,4.0,-7.8,,,,,,,METAR,319.0
KMUI 120558Z AUTO 05002KT 10SM OVC036 M02/M07 A2987 RMK AO2 SLP123 60001 T10161074 11005 21020 57015,KMUI,2015-02-12T05:58:00Z,40.42,-76.57,-1.6,-7.4,50,2,,10.0,29.870079,1012.3,,TRUE,TRUE,,,,,,,OVC,3600,,,,,,,VFR,-1.5,-0.5,-2.0,,,,,0.01,,,,METAR,149.0
KAFF 120558Z AUTO 35006KT 10SM CLR M04/M05 A3038 RMK AO2 SLP319 T10371048 10038 21038 50004,KAFF,2015-02-12T05:58:00Z,38.97,-104.82,-3.7,-4.8,350,6,,10.0,30.380905,1031.9,,TRUE,TRUE,,,,,,,CLR,,,,,,,,VFR,0.4,3.8,-3.8,,,,,,,,,METAR,2003.0
RJTY 120558Z AUTO 00000KT 10SM CLR 12/M03 A2961 RMK AO2 SLP035 60000 T01171032 10118 20055 57025,RJTY,2015-02-12T05:58:00Z,35.75,139.33,11.7,-3.2,0,0,,10.0,29.610237,1003.5,,TRUE,TRUE,,,,,,,CLR,,,,,,,,VFR,-2.5,11.8,5.5,,,,,0.0050,,,,METAR,139.0
RODN 120558Z AUTO 32011KT 10SM FEW055 19/06 A2997 RMK AO2 SLP156 T01860059 10190 20141 57015 $,RODN,2015-02-12T05:58:00Z,26.35,127.77,18.6,5.9,320,11,,10.0,29.970472,1015.6,,TRUE,TRUE,TRUE,,,,,,FEW,5500,,,,,,,VFR,-1.5,19.0,14.1,,,,,,,,,METAR,45.0
PHHI 120558Z AUTO 28002KT 10SM CLR 18/15 A2993 RMK AO2 SLP130 T01830145 10239 20183 52009 $,PHHI,2015-02-12T05:58:00Z,21.48,-158.05,18.3,14.5,280,2,,10.0,29.929134,1013.0,,TRUE,TRUE,TRUE,,,,,,CLR,,,,,,,,VFR,0.9,23.9,18.3,,,,,,,,,METAR,255.0
PGUA 120558Z AUTO 01020G23KT 10SM CLR 27/19 A2982 RMK AO2 SLP088 T02730188 10281 20264 56012 $,PGUA,2015-02-12T05:58:00Z,13.57,144.92,27.3,18.8,10,20,23,10.0,29.819881,1008.8,,TRUE,TRUE,TRUE,,,,,,CLR,,,,,,,,VFR,-1.2,28.1,26.4,,,,,,,,,SPECI,187.0
PAEI 120558Z AUTO 33003KT 10SM SCT080 M13/M15 A2973 RMK AO2 SLP084 T11321153 11119 21134 52012 $,PAEI,2015-02-12T05:58:00Z,64.67,-147.1,-13.2,-15.3,330,3,,10.0,29.731298,1008.4,,TRUE,TRUE,TRUE,,,,,,SCT,8000,,,,,,,VFR,1.2,-11.9,-13.4,,,,,,,,,METAR,167.0
PAED 120558Z AUTO 00000KT 10SM FEW055 BKN080 BKN100 M04/M08 A2960 RMK AO2 SLP022 T10451081 11004 21053 52021,PAED,2015-02-12T05:58:00Z,61.25,-149.8,-4.5,-8.1,0,0,,10.0,29.601377,1002.2,,TRUE,TRUE,,,,,,,FEW,5500,BKN,8000,BKN,10000,,,VFR,2.1,-0.4,-5.3,,,,,,,,,METAR,59.0
KSSC 120558Z AUTO 00000KT 10SM CLR 04/02 A2994 RMK AO2 SLP141 T00380018 10081 20026 57014 $,KSSC,2015-02-12T05:58:00Z,33.97,-80.47,3.8,1.8,0,0,,10.0,29.940945,1014.1,,TRUE,TRUE,TRUE,,,,,,CLR,,,,,,,,VFR,-1.4,8.1,2.6,,,,,,,,,METAR,74.0
KPOE 120558Z AUTO 11002KT 10SM CLR 11/07 A3015 RMK AO2 SLP211 T01060073 10195 20100 402380045 52009,KPOE,2015-02-12T05:58:00Z,31.05,-93.2,10.6,7.3,110,2,,10.0,30.15059,1021.1,,TRUE,TRUE,,,,,,,CLR,,,,,,,,VFR,0.9,19.5,10.0,23.8,4.5,,,,,,,METAR,101.0
KRIV 120558Z 33003KT 10SM CLR 13/M06 A3014 RMK AO2A SLPNO T01311059 10244 20128 52012,KRIV,2015-02-12T05:58:00Z,33.87,-117.27,13.1,-5.9,330,3,,10.0,30.138779,,,,TRUE,,,,,,,CLR,,,,,,,,VFR,1.2,24.4,12.8,,,,,,,,,METAR,469.0
KRCA 120558Z 11007KT 10SM OVC010 M08/M11 A3045 RMK AO2A SLP363 T10811107 11013 21081 50004 $,KRCA,2015-02-12T05:58:00Z,44.13,-103.08,-8.1,-10.7,110,7,,10.0,30.448818,1036.3,,,TRUE,TRUE,,,,,,OVC,1000,,,,,,,MVFR,0.4,-1.3,-8.1,,,,,,,,,METAR,999.0
KSLI 120558Z 06007KT 10SM CLR 21/M04 A3006 RMK AO2A SLP182 T02141036 10290 20213 52013,KSLI,2015-02-12T05:58:00Z,33.77,-118.03,21.4,-3.6,60,7,,10.0,30.059055,1018.2,,,TRUE,,,,,,,CLR,,,,,,,,VFR,1.3,29.0,21.3,,,,,,,,,METAR,11.0
KVOK 120558Z AUTO 33016G19KT 3SM R27/4000FT -SN BR OVC017 M11/M12 A3023 RMK AO2 SLP256 P0000 60000 T11131124 11086 21113 410031113 52023,KVOK,2015-02-12T05:58:00Z,43.92,-90.27,-11.3,-12.4,330,16,19,3.0,30.230314,1025.6,,TRUE,TRUE,,,,,,-SN BR,OVC,1700,,,,,,,MVFR,2.3,-8.6,-11.3,-0.3,-11.3,0.0050,,0.0050,,,,METAR,277.0
KSZL 120558Z 32007KT 10SM OVC060 M02/M07 A3037 RMK AO2A SLP297 T10211067 11012 21033 50007 $,KSZL,2015-02-12T05:58:00Z,38.72,-93.53,-2.1,-6.7,320,7,,10.0,30.369095,1029.7,,,TRUE,TRUE,,,,,,OVC,6000,,,,,,,VFR,0.7,-1.2,-3.3,,,,,,,,,METAR,265.0
PAGA 120558Z AUTO 04004KT 10SM FEW110 M18/M21 A2978 RMK AO2 SLP091 T11831211 11128 21183 53004 FZRANO,PAGA,2015-02-12T05:58:00Z,64.73,-156.93,-18.3,-21.1,40,4,,10.0,29.778543,1009.1,,TRUE,TRUE,,,,TRUE,,,FEW,11000,,,,,,,VFR,0.4,-12.8,-18.3,,,,,,,,,SPECI,46.0
PATE 120558Z AUTO 08009KT 10SM CLR M23/M27 A2986 RMK AO2 SLP127 T12281267 11206 21228 55001 FZRANO,PATE,2015-02-12T05:58:00Z,65.23,-166.33,-22.8,-26.7,80,9,,10.0,29.861221,1012.7,,TRUE,TRUE,,,,TRUE,,,CLR,,,,,,,,VFR,-0.1,-20.6,-22.8,,,,,,,,,METAR,90.0
PAWM 120558Z AUTO 34008KT 10SM OVC075 M14/M22 A2974 RMK AO2 SLP081 T11441217 11100 21144 53004 FZRANO,PAWM,2015-02-12T05:58:00Z,64.68,-163.42,-14.4,-21.7,340,8,,10.0,29.740158,1008.1,,TRUE,TRUE,,,,TRUE,,,OVC,7500,,,,,,,VFR,0.4,-10.0,-14.4,,,,,,,,,METAR,82.0
PFKT 120558Z AUTO 04024G29KT 10SM CLR M21/M26 A2990 RMK AO2 PK WND 02031/0509 SLP127 60000 T12111261 11161 21211 51005 FZRANO,PFKT,2015-02-12T05:58:00Z,65.33,-166.47,-21.1,-26.1,40,24,29,10.0,29.899607,1012.7,,TRUE,TRUE,,,,TRUE,,,CLR,,,,,,,,VFR,0.5,-16.1,-21.1,,,,,0.0050,,,,METAR,9.0
KMIB 120558Z AUTO 29001KT 10SM CLR M23/M26 A3066 RMK AO2 SLP439 T12321261 11202 21237 411401237 53002 $,KMIB,2015-02-12T05:58:00Z,48.42,-101.33,-23.2,-26.1,290,1,,10.0,30.661417,1043.9,,TRUE,TRUE,TRUE,,,,,,CLR,,,,,,,,VFR,0.2,-20.2,-23.7,-14.0,-23.7,,,,,,,METAR,508.0
KFTK 120558Z AUTO 30008KT 10SM OVC023 M01/M05 A3010 RMK AO2 SLP201 T10061053 10059 21006 50005,KFTK,2015-02-12T05:58:00Z,37.88,-85.97,-0.6,-5.3,300,8,,10.0,30.100393,1020.1,,TRUE,TRUE,,,,,,,OVC,2300,,,,,,,MVFR,0.5,5.9,-0.6,,,,,,,,,METAR,230.0
KBIF 120558Z 05014G20KT 10SM FEW070 FEW180 06/M01 A3037 RMK AO2A PK WND 06028/0459 SLP258 T00601012 10107 20060 50019,KBIF,2015-02-12T05:58:00Z,31.85,-106.38,6.0,-1.2,50,14,20,10.0,30.369095,1025.8,,,TRUE,,,,,,,FEW,7000,FEW,18000,,,,,VFR,1.9,10.7,6.0,,,,,,,,,METAR,1203.0
KADW 120558Z AUTO 21005KT 10SM OVC065 00/M03 A2989 RMK AO2 SLP131 T10021033 10009 21008 57012 $,KADW,2015-02-12T05:58:00Z,38.82,-76.87,-0.2,-3.3,210,5,,10.0,29.890747,1013.1,,TRUE,TRUE,TRUE,,,,,,OVC,6500,,,,,,,VFR,-1.2,0.9,-0.8,,,,,,,,,METAR,86.0
KMTC 120558Z AUTO 29010KT 8SM R19/5500FT -SN BKN021 OVC037 M03/M05 A2987 RMK AO2 UPB0500E0515SNB0526 CIG 017V023 BKN V OVC SLP126 P0000 60000 T10311049 11001 21031 53000,KMTC,2015-02-12T05:58:00Z,42.62,-82.82,-3.1,-4.9,290,10,,8.0,29.870079,1012.6,,TRUE,TRUE,,,,,,-SN,BKN,2100,OVC,3700,,,,,MVFR,0.0,-0.1,-3.1,,,0.0050,,0.0050,,,,METAR,177.0
KMMT 120558Z AUTO 06001KT 10SM CLR 02/01 A2996 RMK AO2 SLP149 60000 T00150011 10076 20009 57015 $,KMMT,2015-02-12T05:58:00Z,33.92,-80.78,1.5,1.1,60,1,,10.0,29.958662,1014.9,,TRUE,TRUE,TRUE,,,,,,CLR,,,,,,,,VFR,-1.5,7.6,0.9,,,,,0.0050,,,,METAR,77.0
KLSF 120558Z AUTO 13003KT 10SM CLR 03/02 A3004 RMK AO2 SLP176 T00290016 10112 20029 54000,KLSF,2015-02-12T05:58:00Z,32.32,-84.97,2.9,1.6,130,3,,10.0,30.041338,1017.6,,TRUE,TRUE,,,,,,,CLR,,,,,,,,VFR,,11.2,2.9,,,,,,,,,METAR,71.0
KLHW 120558Z AUTO 00000KT 10SM CLR 05/04 A2999 RMK AO2 UPB10E20 SLP159 P0000 60000 T00510040 10106 20050 57008,KLHW,2015-02-12T05:58:00Z,31.87,-81.57,5.1,4.0,0,0,,10.0,29.991142,1015.9,,TRUE,TRUE,,,,,,,CLR,,,,,,,,VFR,-0.8,10.6,5.0,,,0.0050,,0.0050,,,,METAR,14.0
KDLF 120558Z AUTO 02013KT 10SM SCT060 SCT200 16/07 A3020 RMK AO2 SLP219 T01590067 10234 20155 52036 $,KDLF,2015-02-12T05:58:00Z,29.37,-100.77,15.9,6.7,20,13,,10.0,30.200787,1021.9,,TRUE,TRUE,TRUE,,,,,,SCT,6000,SCT,20000,,,,,VFR,3.6,23.4,15.5,,,,,,,,,METAR,330.0
KCEF 120558Z AUTO 14002KT 10SM CLR M14/M17 A2990 RMK AO2 SLP136 T11421170 11053 21147 57013,KCEF,2015-02-12T05:58:00Z,42.2,-72.52,-14.2,-17.0,140,2,,10.0,29.899607,1013.6,,TRUE,TRUE,,,,,,,CLR,,,,,,,,VFR,-1.3,-5.3,-14.7,,,,,,,,,METAR,75.0
KBIX 120558Z AUTO 33001KT 10SM CLR 09/09 A3009 RMK AO2 SLP192 T00940088 10116 20083 401530020 57005,KBIX,2015-02-12T05:58:00Z,30.42,-88.92,9.4,8.8,330,1,,10.0,30.088583,1019.2,,TRUE,TRUE,,,,,,,CLR,,,,,,,,VFR,-0.5,11.6,8.3,15.3,2.0,,,,,,,METAR,10.0
KSVN 120558Z AUTO 20002KT 10SM CLR 06/06 A2999 RMK AO2 SLP159 T00610060 10102 20059 57011 $,KSVN,2015-02-12T05:58:00Z,32.02,-81.15,6.1,6.0,200,2,,10.0,29.991142,1015.9,,TRUE,TRUE,TRUE,,,,,,CLR,,,,,,,,VFR,-1.1,10.2,5.9,,,,,,,,,METAR,13.0
KRDR 120558Z AUTO 35007KT 10SM CLR M23/M27 A3072 RMK AO2 SNE0506 SLP436 P0000 60000 T12341273 11188 21234 411111234 50007,KRDR,2015-02-12T05:58:00Z,47.97,-97.4,-23.4,-27.3,350,7,,10.0,30.720472,1043.6,,TRUE,TRUE,,,,,,,CLR,,,,,,,,VFR,0.7,-18.8,-23.4,-11.1,-23.4,0.0050,,0.0050,,,,METAR,278.0
KPOB 120558Z AUTO 03002KT 10SM CLR M01/M02 A2994 RMK AO2 SLP143 T10071019 10061 21009 57013,KPOB,2015-02-12T05:58:00Z,35.17,-79.02,-0.7,-1.9,30,2,,10.0,29.940945,1014.3,,TRUE,TRUE,,,,,,,CLR,,,,,,,,VFR,-1.3,6.1,-0.9,,,,,,,,,METAR,66.0
ETIH 120558Z AUTO 13005KT 0400 -FZDZ FZFG VV001 M01/M02 A3023 RMK AO2 SLP266 T10151016 11014 21017 57006 RVRNO,ETIH,2015-02-12T05:58:00Z,49.22,11.82,-1.5,-1.6,130,5,,0.25,30.230314,1026.6,,TRUE,TRUE,,,,,,-FZDZ FZFG,OVX,0,,,,,,,LIFR,-0.6,-1.4,-1.7,,,,,,,,100,METAR,442.0
RKSG 120558Z AUTO 31016G23KT 10SM CLR 02/M11 A2996 RMK AO2 SLP150 T00191112 10026 21012 55005 $,RKSG,2015-02-12T05:58:00Z,36.97,127.02,1.9,-11.2,310,16,23,10.0,29.958662,1015.0,,TRUE,TRUE,TRUE,,,,,,CLR,,,,,,,,VFR,-0.5,2.6,-1.2,,,,,,,,,METAR,16.0
BGTL 120558Z AUTO 00000KT 9999 CLR M29/M33 A2981 RMK AO2 SLP090 55004,BGTL,2015-02-12T05:58:00Z,76.53,-68.7,-29.0,-33.0,0,0,,6.21,29.811024,1009.0,,TRUE,TRUE,,,,,,,CLR,,,,,,,,VFR,-0.4,,,,,,,,,,,METAR,77.0
KSLH 120558Z AUTO 32013G20KT 10SM SCT020 SCT040 BKN047 M13/M16 A2998 RMK AO2 T11321165,KSLH,2015-02-12T05:58:00Z,45.65,-84.52,-13.2,-16.5,320,13,20,10.0,29.97933,,,TRUE,TRUE,,,,,,,SCT,2000,SCT,4000,BKN,4700,,,VFR,,,,,,,,,,,,METAR,195.0
ETOU 120558Z AUTO 11003KT 9999 OVC006 00/00 A3022 RMK AO2 SLP243 56004,ETOU,2015-02-12T05:58:00Z,50.03,8.32,0.0,0.0,110,3,,6.21,30.221457,1024.3,,TRUE,TRUE,,,,,,,OVC,600,,,,,,,IFR,-0.4,,,,,,,,,,,METAR,141.0
KEDW 120558Z 36006KT 50SM BKN300 10/M04 A3024 RMK AO2A SLP237 T00971036 10215 20089 51010,KEDW,2015-02-12T05:58:00Z,34.88,-117.87,9.7,-3.6,360,6,,50.0,30.239174,1023.7,,,TRUE,,,,,,,BKN,30000,,,,,,,VFR,1.0,21.5,8.9,,,,,,,,,METAR,702.0
KBAD 120558Z AUTO 02002KT 10SM CLR 10/05 A3020 RMK AO2 SLP229 T01000054 10165 20096 402080036 52015,KBAD,2015-02-12T05:58:00Z,32.5,-93.67,10.0,5.4,20,2,,10.0,30.200787,1022.9,,TRUE,TRUE,,,,,,,CLR,,,,,,,,VFR,1.5,16.5,9.6,20.8,3.6,,,,,,,METAR,51.0
KFBG 120558Z AUTO 00000KT 10SM CLR 02/00 A2994 RMK AO2 SLPNO T00150002 10059 20012 57013,KFBG,2015-02-12T05:58:00Z,35.12,-78.92,1.5,0.2,0,0,,10.0,29.940945,,,TRUE,TRUE,,,,,,,CLR,,,,,,,,VFR,-1.3,5.9,1.2,,,,,,,,,METAR,74.0
KGRK 120558Z AUTO 01011G17KT 10SM CLR 12/04 A3025 RMK AO2 SLP241 T01200036 10204 20120 402280071 52021 $,KGRK,2015-02-12T05:58:00Z,31.07,-97.83,12.0,3.6,10,11,17,10.0,30.250984,1024.1,,TRUE,TRUE,TRUE,,,,,,CLR,,,,,,,,VFR,2.1,20.4,12.0,22.8,7.1,,,,,,,METAR,309.0
KHLR 120558Z AUTO 36014G19KT 10SM FEW050 OVC060 13/04 A3025 RMK AO2 PK WND 02026/01 LTG DSNT N SLP240 60000 T01250035 10209 20125 402300074 52025,KHLR,2015-02-12T05:58:00Z,31.13,-97.72,12.5,3.5,360,14,19,10.0,30.250984,1024.0,,TRUE,TRUE,,,,,,,FEW,5000,OVC,6000,,,,,VFR,2.5,20.9,12.5,23.0,7.4,,,,,,,SPECI,283.0
KRND 120558Z AUTO 04002KT 10SM CLR 13/10 A3017 RMK AO2 SLP213 T01320102 10210 20130 402370068 52019,KRND,2015-02-12T05:58:00Z,29.52,-98.27,13.2,10.2,40,2,,10.0,30.171259,1021.3,,TRUE,TRUE,,,,,,,CLR,,,,,,,,VFR,1.9,21.0,13.0,23.7,6.8,,,,,,,METAR,232.0
KWRB 120558Z AUTO 34002KT 10SM CLR 06/03 A2997 RMK AO2 SLP151 T00590033 10129 20059 55015,KWRB,2015-02-12T05:58:00Z,32.62,-83.58,5.9,3.3,340,2,,10.0,29.970472,1015.1,,TRUE,TRUE,,,,,,,CLR,,,,,,,,VFR,-1.5,12.9,5.9,,,,,,,,,METAR,90.0
KTTS 120558Z AUTO 25002KT 10SM CLR 07/06 A3005 RMK AO2 SLP179 T00720063 10110 20068 55004,KTTS,2015-02-12T05:58:00Z,28.62,-80.72,7.2,6.3,250,2,,10.0,30.050198,1017.9,,TRUE,TRUE,,,,,,,CLR,,,,,,,,VFR,-0.4,11.0,6.8,,,,,,,,,METAR,3.0
KXMR 120558Z AUTO 28001KT 10SM CLR 06/04 A3005 RMK AO2 SLP179 T00560039 10119 20055 56004 $,KXMR,2015-02-12T05:58:00Z,28.47,-80.57,5.6,3.9,280,1,,10.0,30.050198,1017.9,,TRUE,TRUE,TRUE,,,,,,CLR,,,,,,,,VFR,-0.4,11.9,5.5,,,,,,,,,METAR,3.0
PWAK 120558Z AUTO 03004KT 9999 OVC040 27/23 A2984 RMK AO2 SLP111 T02720233 10284 20268 53003,PWAK,2015-02-12T05:58:00Z,19.28,166.65,27.2,23.3,30,4,,6.21,29.840551,1011.1,,TRUE,TRUE,,,,,,,OVC,4000,,,,,,,VFR,0.3,28.4,26.8,,,,,,,,,SPECI,4.0
RKJK 120558Z AUTO 31018G23KT 8SM CLR 04/M08 A2999 RMK AO2 PK WND 31027/23 SLP161 60000 T00371083 10042 20015 55005 $,RKJK,2015-02-12T05:58:00Z,35.9,126.62,3.7,-8.3,310,18,23,8.0,29.991142,1016.1,,TRUE,TRUE,TRUE,,,,,,CLR,,,,,,,,VFR,-0.5,4.2,1.5,,,,,0.0050,,,,METAR,9.0
ROTM 120558Z 30010KT 9000 HZ BKN060 18/06 A2998 RMK SLP139 T01780061 10179 20141 57010,ROTM,2015-02-12T05:58:00Z,26.27,127.75,17.8,6.1,300,10,,5.59,29.97933,1013.9,,,,,,,,,HZ,BKN,6000,,,,,,,VFR,-1.0,17.9,14.1,,,,,,,,,METAR,75.0
CWOB 120558Z AUTO 03006KT M32/ A2971,CWOB,2015-02-12T05:58:00Z,63.32,-64.15,-32.0,,30,6,,,29.71063,,,TRUE,,,,,,,,,,,,,,,,,,,,,,,,,,,,SPECI,367.0
ETIK 120558Z AUTO VRB04KT 9999 OVC006 M01/M01 A3022 RMK AO2 SLP254 T10111011 11003 21011 55003,ETIK,2015-02-12T05:58:00Z,49.47,10.37,-1.1,-1.1,0,4,,6.21,30.221457,1025.4,,TRUE,TRUE,,,,,,,OVC,600,,,,,,,IFR,-0.3,-0.3,-1.1,,,,,,,,,METAR,325.0
PFEL 120558Z AUTO 01020G25KT 9SM -SN SCT060 OVC090 M14/M23 A2976 RMK AO2 PK WND 36028/0515 SNB47 SLP082 P0000 60000 T11441228 11122 21144 51002 FZRANO,PFEL,2015-02-12T05:58:00Z,64.62,-162.27,-14.4,-22.8,10,20,25,9.0,29.760826,1008.2,,TRUE,TRUE,,,,TRUE,,-SN,SCT,6000,OVC,9000,,,,,VFR,0.2,-12.2,-14.4,,,0.0050,,0.0050,,,,METAR,49.0
KTBN 120558Z AUTO 30009KT 10SM CLR M03/M06 A3030 RMK AO2 SLP275 T10351063 10017 21036 400521036 53002,KTBN,2015-02-12T05:58:00Z,37.72,-92.12,-3.5,-6.3,300,9,,10.0,30.301182,1027.5,,TRUE,TRUE,,,,,,,CLR,,,,,,,,VFR,0.2,1.7,-3.6,5.2,-3.6,,,,,,,METAR,353.0
ETAR 120558Z AUTO 09003KT 9000 BR OVC006 00/M01 A3019 RMK AO2 SLP241 T10011013 10009 21001 57003 $,ETAR,2015-02-12T05:58:00Z,49.42,7.58,-0.1,-1.3,90,3,,5.59,30.188976,1024.1,,TRUE,TRUE,TRUE,,,,,BR,OVC,600,,,,,,,IFR,-0.3,0.9,-0.1,,,,,,,,,METAR,238.0
KCOF 120558Z AUTO 00000KT 10SM CLR 14/09 A3006 RMK AO2 SLP184 T01370088 10142 20130 57003,KCOF,2015-02-12T05:58:00Z,28.23,-80.6,13.7,8.8,0,0,,10.0,30.059055,1018.4,,TRUE,TRUE,,,,,,,CLR,,,,,,,,VFR,-0.3,14.2,13.0,,,,,,,,,METAR,3.0
KCBM 120558Z AUTO 33001KT 10SM CLR 05/01 A3013 RMK AO2 SLP206 T00500008 10104 20031 401581037 50006 $,KCBM,2015-02-12T05:58:00Z,33.63,-88.45,5.0,0.8,330,1,,10.0,30.129921,1020.6,,TRUE,TRUE,TRUE,,,,,,CLR,,,,,,,,VFR,0.6,10.4,3.1,15.8,-3.7,,,,,,,METAR,67.0
KDAA 120558Z AUTO 15003KT 10SM SCT065 00/M03 A2992 RMK AO2 SLP136 T00031030 10019 20000 57008,KDAA,2015-02-12T05:58:00Z,38.72,-77.17,0.3,-3.0,150,3,,10.0,29.920275,1013.6,,TRUE,TRUE,,,,,,,SCT,6500,,,,,,,VFR,-0.8,1.9,0.0,,,,,,,,,METAR,21.0
KEND 120558Z AUTO 01005KT 10SM CLR M02/M06 A3042 RMK AO2 SLP312 T10161065 10050 21019 52014 $,KEND,2015-02-12T05:58:00Z,36.32,-97.92,-1.6,-6.5,10,5,,10.0,30.41929,1031.2,,TRUE,TRUE,TRUE,,,,,,CLR,,,,,,,,VFR,1.4,5.0,-1.9,,,,,,,,,METAR,398.0
KDYS 120558Z AUTO 03014G19KT 10SM BKN060 07/M04 A3037 RMK AO2 PK WND 03027/32 SLP275 T00691038 10108 20069 401830061 51019 $,KDYS,2015-02-12T05:58:00Z,32.42,-99.83,6.9,-3.8,30,14,19,10.0,30.369095,1027.5,,TRUE,TRUE,TRUE,,,,,,BKN,6000,,,,,,,VFR,1.9,10.8,6.9,18.3,6.1,,,,,,,METAR,545.0
KFSI 120558Z AUTO 01009KT 10SM BKN110 OVC140 04/M03 A3038 RMK AO2 SLP291 T00351028 10074 20018 401250018 50007,KFSI,2015-02-12T05:58:00Z,34.65,-98.4,3.5,-2.8,10,9,,10.0,30.380905,1029.1,,TRUE,TRUE,,,,,,,BKN,11000,OVC,14000,,,,,VFR,0.7,7.4,1.8,12.5,1.8,,,,,,,METAR,362.0
KGSB 120558Z AUTO 13003KT 10SM CLR 01/01 A2994 RMK AO2 SLP142 T00100007 10046 20010 57013 $,KGSB,2015-02-12T05:58:00Z,35.32,-77.97,1.0,0.7,130,3,,10.0,29.940945,1014.2,,TRUE,TRUE,TRUE,,,,,,CLR,,,,,,,,VFR,-1.3,4.6,1.0,,,,,,,,,METAR,33.0
KHRT 120558Z AUTO 34003KT 10SM CLR 07/04 A3007 RMK AO2 SLP185 T00650043 10125 20065 401420000 58001 $,KHRT,2015-02-12T05:58:00Z,30.42,-86.67,6.5,4.3,340,3,,10.0,30.070866,1018.5,,TRUE,TRUE,TRUE,,,,,,CLR,,,,,,,,VFR,-0.1,12.5,6.5,14.2,,,,,,,,METAR,12.0
KHST 120558Z AUTO 31005KT 10SM FEW050 14/12 A3002 RMK AO2 SLP169 T01410118 10189 20134 58001,KHST,2015-02-12T05:58:00Z,25.47,-80.37,14.1,11.8,310,5,,10.0,30.02067,1016.9,,TRUE,TRUE,,,,,,,FEW,5000,,,,,,,VFR,-0.1,18.9,13.4,,,,,,,,,METAR,2.0
KMGE 120558Z AUTO 28006KT 10SM CLR 07/M01 A3001 RMK AO2 SLP164 T00691011 10111 20052 55003 $,KMGE,2015-02-12T05:58:00Z,33.92,-84.52,6.9,-1.1,280,6,,10.0,30.008858,1016.4,,TRUE,TRUE,TRUE,,,,,,CLR,,,,,,,,VFR,-0.3,11.1,5.2,,,,,,,,,METAR,326.0
KMXF 120558Z AUTO 26002KT 10SM CLR 04/02 A3006 RMK AO2 SLP182 T00400021 10134 20040 401731018 56003,KMXF,2015-02-12T05:58:00Z,32.37,-86.37,4.0,2.1,260,2,,10.0,30.059055,1018.2,,TRUE,TRUE,,,,,,,CLR,,,,,,,,VFR,-0.3,13.4,4.0,17.3,-1.8,,,,,,,METAR,51.0
KROG 120557Z AUTO 36006KT 10SM CLR M02/M06 A3037 RMK AO2 SLP291 T10221056 10039 21028 53013 TSNO,KROG,2015-02-12T05:57:00Z,36.37,-94.08,-2.2,-5.6,360,6,,10.0,30.369095,1029.1,,TRUE,TRUE,,,TRUE,,,,CLR,,,,,,,,VFR,1.3,3.9,-2.8,,,,,,,,,METAR,415.0
KFLG 120557Z AUTO 04008KT 10SM CLR 01/M04 A3038 RMK AO2 SLP256 T00111039 10094 20011 53011 TSNO,KFLG,2015-02-12T05:57:00Z,35.13,-111.67,1.1,-3.9,40,8,,10.0,30.380905,1025.6,,TRUE,TRUE,,,TRUE,,,,CLR,,,,,,,,VFR,1.1,9.4,1.1,,,,,,,,,METAR,2134.0
PAVA 120557Z AUTO 03024KT 10SM FEW075 M14/M18 A2967 RMK AO2 PK WND 02031/0539 SLP051 T11441178 11139 21156 53002 FZRANO,PAVA,2015-02-12T05:57:00Z,61.53,-165.6,-14.4,-17.8,30,24,,10.0,29.66929,1005.1,,TRUE,TRUE,,,,TRUE,,,FEW,7500,,,,,,,VFR,0.2,-13.9,-15.6,,,,,,,,,METAR,23.0
PAGH 120557Z AUTO 00000KT 10SM CLR M29/M33 A2992 RMK AO2 SLP171 T12941328 11267 21294 51005 FZRANO,PAGH,2015-02-12T05:57:00Z,66.88,-157.17,-29.4,-32.8,0,0,,10.0,29.920275,1017.1,,TRUE,TRUE,,,,TRUE,,,CLR,,,,,,,,VFR,0.5,-26.7,-29.4,,,,,,,,,METAR,60.0
CYSF 120557Z AUTO 07005KT 9SM -SN BKN050 OVC075 M24/M28 A3027 RMK SLP289,CYSF,2015-02-12T05:57:00Z,59.25,-105.82,-24.0,-28.0,70,5,,9.0,30.268702,1028.9,,TRUE,,,,,,,-SN,BKN,5000,OVC,7500,,,,,VFR,,,,,,,,,,,,SPECI,250.0
CWLY 120557Z AUTO 00000KT 9SM BKN023 OVC090 04/03 A3016 RMK SLP219,CWLY,2015-02-12T05:57:00Z,50.22,-121.58,4.0,3.0,0,0,,9.0,30.159449,1021.9,,TRUE,,,,,,,,BKN,2300,OVC,9000,,,,,MVFR,,,,,,,,,,,,SPECI,229.0
KNSI 120557Z AUTO 01009KT 10SM CLR 00/ A3007 RMK AO2 SLP178 T0000 51007 $,KNSI,2015-02-12T05:57:00Z,33.22,-119.45,0.0,,10,9,,10.0,30.070866,1017.8,,TRUE,TRUE,TRUE,,,,,,CLR,,,,,,,,VFR,0.7,,,,,,,,,,,METAR,154.0
KCAD 120557Z AUTO 30013G20KT 7SM SCT027 BKN036 M12/M16 A2995 RMK AO2,KCAD,2015-02-12T05:57:00Z,44.27,-85.42,-12.0,-16.0,300,13,20,7.0,29.949802,,,TRUE,TRUE,,,,,,,SCT,2700,BKN,3600,,,,,VFR,,,,,,,,,,,,METAR,398.0
KNYL 120557Z 35007KT 10SM FEW200 FEW300 21/M03 A3008 RMK AO2 SLP185 LAST T02111033 10283 20211 50008,KNYL,2015-02-12T05:57:00Z,32.63,-114.62,21.1,-3.3,350,7,,10.0,30.079725,1018.5,,,TRUE,,,,,,,FEW,20000,FEW,30000,,,,,VFR,0.8,28.3,21.1,,,,,,,,,METAR,65.0
PHNG 120557Z AUTO 35005KT CLR 21/15 A2989 RMK AO2 SLP117 T02110150 10267 20206 51016 $ ,PHNG,2015-02-12T05:57:00Z,21.43,-157.77,21.1,15.0,350,5,,,29.890747,1011.7,,TRUE,TRUE,TRUE,,,,,,CLR,,,,,,,,,1.6,26.7,20.6,,,,,,,,,METAR,3.0
CWCL 120557Z AUTO 19004KT 3/8SM 02/00 A3009,CWCL,2015-02-12T05:57:00Z,51.13,-121.5,2.0,0.0,190,4,,0.38,30.088583,,,TRUE,,,,,,,,,,,,,,,,,,,,,,,,,,,,SPECI,1057.0
KSAW 120557Z AUTO 01023G30KT OVC002 M14/M16 A3009 RMK AO2 T11361157 PWINO,KSAW,2015-02-12T05:57:00Z,46.35,-87.4,-13.6,-15.7,10,23,30,,30.088583,,,TRUE,TRUE,,,,,TRUE,,OVC,200,,,,,,,,,,,,,,,,,,,METAR,372.0
KNJM 120557Z AUTO 00000KT 6SM BR CLR M02/M03 A3000 RMK AO2 SLP161 T10171028 10022 21022 58010,KNJM,2015-02-12T05:57:00Z,34.67,-77.02,-1.7,-2.8,0,0,,6.0,30.0,1016.1,,TRUE,TRUE,,,,,,BR,CLR,,,,,,,,VFR,-1.0,2.2,-2.2,,,,,,,,,METAR,7.0
ETHS 120556Z 14004KT 0900 R27/2900N FZFG BKN001 M00/M01 Q1023 RED YLO TEMPO RED,ETHS,2015-02-12T05:56:00Z,52.92,10.18,0.0,-1.0,140,4,,0.56,30.206694,,,,,,,,,,FZFG,BKN,100,,,,,,,LIFR,,,,,,,,,,,,SPECI,88.0
KAVC 120556Z AUTO 18006KT 10SM CLR 00/M02 A2997 RMK AO2 T00001020 10027 21015,KAVC,2015-02-12T05:56:00Z,36.68,-78.03,0.0,-2.0,180,6,,10.0,29.970472,,,TRUE,TRUE,,,,,,,CLR,,,,,,,,VFR,,2.7,-1.5,,,,,,,,,METAR,135.0
K2WX 120556Z AUTO 12010KT M11/M14 A3038 RMK AO1 SLP341 T11111139 11067 21111 58006,K2WX,2015-02-12T05:56:00Z,45.6,-103.55,-11.1,-13.9,120,10,,,30.380905,1034.1,,TRUE,TRUE,,,,,,,,,,,,,,,,-0.6,-6.7,-11.1,,,,,,,,,METAR,915.0
PAMH 120556Z AUTO 04003KT 9SM FEW031 BKN055 OVC065 M15/M20 A2968 RMK AO1 11130 21150 52014,PAMH,2015-02-12T05:56:00Z,63.9,-152.32,-15.0,-20.0,40,3,,9.0,29.681103,,,TRUE,TRUE,,,,,,,FEW,3100,BKN,5500,OVC,6500,,,VFR,1.4,-13.0,-15.0,,,,,,,,,METAR,214.0
PAMD 120556Z 12009KT 6SM BKN011 OVC019 05/04 A2964 RMK AO1 10060 20040 52017,PAMD,2015-02-12T05:56:00Z,59.43,-146.3,5.0,4.0,120,9,,6.0,29.639763,,,,TRUE,,,,,,,BKN,1100,OVC,1900,,,,,MVFR,1.7,6.0,4.0,,,,,,,,,METAR,14.0
PAKP 120556Z AUTO 34003KT 10SM CLR M29/ A2977 RMK AO1 11260 21310 54000,PAKP,2015-02-12T05:56:00Z,68.13,-151.73,-29.0,,340,3,,10.0,29.769686,,,TRUE,TRUE,,,,,,,CLR,,,,,,,,VFR,,-26.0,-31.0,,,,,,,,,METAR,642.0
KADF 120556Z AUTO 03005KT 10SM CLR 08/04 A3025 RMK AO2 51023 T00770044 10150 20050 401770011 SLP259,KADF,2015-02-12T05:56:00Z,34.1,-93.07,7.7,4.4,30,5,,10.0,30.250984,1025.9,,TRUE,TRUE,,,,,,,CLR,,,,,,,,VFR,2.3,15.0,5.0,17.7,1.1,,,,,,,METAR,56.0
PAPO 120556Z AUTO 32006KT 10SM CLR M23/ A2994 RMK AO1 11230 21240 57003,PAPO,2015-02-12T05:56:00Z,68.35,-166.8,-23.0,,320,6,,10.0,29.940945,,,TRUE,TRUE,,,,,,,CLR,,,,,,,,VFR,-0.3,-23.0,-24.0,,,,,,,,,METAR,6.0
PAPH 120556Z AUTO 12011KT 10SM SCT120 04/M01 A2932 RMK AO1 10060 20030 52014,PAPH,2015-02-12T05:56:00Z,56.95,-158.62,4.0,-1.0,120,11,,10.0,29.320866,,,TRUE,TRUE,,,,,,,SCT,12000,,,,,,,VFR,1.4,6.0,3.0,,,,,,,,,METAR,29.0
PAPG 120556Z 27003KT 10SM OVC036 03/01 A2980 RMK AO1 -SHRA,PAPG,2015-02-12T05:56:00Z,56.82,-132.97,3.0,1.0,270,3,,10.0,29.799213,,,,TRUE,,,,,,,OVC,3600,,,,,,,VFR,,,,,,,,,,,,METAR,15.0
PANV 120556Z AUTO 04010G17KT 10SM FEW100 M16/M24 A2962 RMK AO1 11150 21160 52007,PANV,2015-02-12T05:56:00Z,62.65,-160.18,-16.0,-24.0,40,10,17,10.0,29.619095,,,TRUE,TRUE,,,,,,,FEW,10000,,,,,,,VFR,0.7,-15.0,-16.0,,,,,,,,,METAR,99.0
PANI 120556Z AUTO 03006KT 3SM FEW016 BKN025 OVC055 M13/M30 A2958 RMK AO1 11130 21130 52003,PANI,2015-02-12T05:56:00Z,61.58,-159.53,-13.0,-30.0,30,6,,3.0,29.58071,,,TRUE,TRUE,,,,,,,FEW,1600,BKN,2500,OVC,5500,,,MVFR,0.3,-13.0,-13.0,,,,,,,,,METAR,26.0
PAMY 120556Z AUTO 04013KT 10SM FEW047 M12/M18 A2960 RMK AO1 11120 21140 54000,PAMY,2015-02-12T05:56:00Z,60.37,-166.27,-12.0,-18.0,40,13,,10.0,29.601377,,,TRUE,TRUE,,,,,,,FEW,4700,,,,,,,VFR,,-12.0,-14.0,,,,,,,,,METAR,13.0
PAMM 120556Z AUTO 09016G20KT 10SM BKN028 BKN035 OVC047 08/04 A2981 RMK AO1 P0009 60016 10090 20070 57010,PAMM,2015-02-12T05:56:00Z,55.13,-131.58,8.0,4.0,90,16,20,10.0,29.811024,,,TRUE,TRUE,,,,,,,BKN,2800,BKN,3500,OVC,4700,,,MVFR,-1.0,9.0,7.0,,,0.09,,0.16,,,,METAR,1.0
PFYU 120556Z 05009KT 10SM CLR M19/M25 A2997 RMK AO1 11190 21190 52007,PFYU,2015-02-12T05:56:00Z,66.57,-145.27,-19.0,-25.0,50,9,,10.0,29.970472,,,,TRUE,,,,,,,CLR,,,,,,,,VFR,0.7,-19.0,-19.0,,,,,,,,,METAR,131.0
PAZK 120556Z AUTO 07005KT 10SM CLR M17/M19 A2953 RMK AO1 11130 21170 52024,PAZK,2015-02-12T05:56:00Z,61.93,-147.17,-17.0,-19.0,70,5,,10.0,29.530512,,,TRUE,TRUE,,,,,,,CLR,,,,,,,,VFR,2.4,-13.0,-17.0,,,,,,,,,METAR,1003.0
PAWS 120556Z AUTO 08003KT 10SM BKN070 OVC095 M01/M10 A2959 RMK AO1 10000 21020 52024,PAWS,2015-02-12T05:56:00Z,61.57,-149.53,-1.0,-10.0,80,3,,10.0,29.589567,,,TRUE,TRUE,,,,,,,BKN,7000,OVC,9500,,,,,VFR,2.4,0.0,-2.0,,,,,,,,,METAR,107.0
PAWG 120556Z 30005KT 7SM OVC045 02/M01 A2984 RMK AO1 WEA:NONE MJ 60002 10060 20020 57014,PAWG,2015-02-12T05:56:00Z,56.48,-132.37,2.0,-1.0,300,5,,7.0,29.840551,,,,TRUE,,,,,,,OVC,4500,,,,,,,VFR,-1.4,6.0,2.0,,,,,0.02,,,,METAR,11.0
PAVD 120556Z 00000KT 10SM FEW020 BKN045 OVC075 M05/M08 A2974 RMK AO1 0547Z WEA: -SN SNB15 TWR WND 00000KT 60001 11040 21060 52027,PAVD,2015-02-12T05:56:00Z,61.13,-146.25,-5.0,-8.0,0,0,,10.0,29.740158,,,,TRUE,,,,,,-SN,FEW,2000,BKN,4500,OVC,7500,,,VFR,2.7,-4.0,-6.0,,,,,0.01,,,,METAR,37.0
PAUN 120556Z AUTO 08009KT 10SM CLR M13/M24 A2972 RMK AO1 11110 21140 52007,PAUN,2015-02-12T05:56:00Z,63.88,-160.8,-13.0,-24.0,80,9,,10.0,29.719488,,,TRUE,TRUE,,,,,,,CLR,,,,,,,,VFR,0.7,-11.0,-14.0,,,,,,,,,METAR,6.0
PATG 120556Z AUTO 03013KT 10SM M01/M02 A2940 RMK AO1 10000 21010 52010,PATG,2015-02-12T05:56:00Z,59.05,-160.38,-1.0,-2.0,30,13,,10.0,29.40059,,,TRUE,TRUE,,,,,,,,,,,,,,,,1.0,0.0,-1.0,,,,,,,,,METAR,4.0
PASX 120556Z AUTO 00000KT 10SM BKN070 OVC080 M03/M08 A2958 RMK AO1 10030 21030 52020,PASX,2015-02-12T05:56:00Z,60.48,-151.03,-3.0,-8.0,0,0,,10.0,29.58071,,,TRUE,TRUE,,,,,,,BKN,7000,OVC,8000,,,,,VFR,2.0,3.0,-3.0,,,,,,,,,METAR,32.0
PASM 120556Z AUTO 05011KT 10SM CLR M14/M21 A2959 RMK AO1 11120 21140 52003,PASM,2015-02-12T05:56:00Z,62.07,-163.3,-14.0,-21.0,50,11,,10.0,29.589567,,,TRUE,TRUE,,,,,,,CLR,,,,,,,,VFR,0.3,-12.0,-14.0,,,,,,,,,METAR,92.0
PASL 120556Z AUTO 00000KT 10SM OVC045 M13/M21 A2967 RMK AO1 11120 21130 52010,PASL,2015-02-12T05:56:00Z,61.72,-157.15,-13.0,-21.0,0,0,,10.0,29.66929,,,TRUE,TRUE,,,,,,,OVC,4500,,,,,,,VFR,1.0,-12.0,-13.0,,,,,,,,,METAR,55.0
PASK 120556Z AUTO 00000KT 10SM CLR A2993 RMK AO1 52003,PASK,2015-02-12T05:56:00Z,66.6,-160.0,,,0,0,,10.0,29.929134,,,TRUE,TRUE,,,,,,,CLR,,,,,,,,VFR,0.3,,,,,,,,,,,METAR,8.0
PASD 120556Z AUTO 00000KT 10SM FEW017 OVC024 06/05 A2925 RMK AO1 60002 10070 20060 52014,PASD,2015-02-12T05:56:00Z,55.33,-160.5,6.0,5.0,0,0,,10.0,29.25,,,TRUE,TRUE,,,,,,,FEW,1700,OVC,2400,,,,,MVFR,1.4,7.0,6.0,,,,,0.02,,,,METAR,7.0
PASA 120556Z AUTO 03008KT 10SM CLR M17/M29 A2996 RMK AO1 11150 21170 52003,PASA,2015-02-12T05:56:00Z,63.68,-170.5,-17.0,-29.0,30,8,,10.0,29.958662,,,TRUE,TRUE,,,,,,,CLR,,,,,,,,VFR,0.3,-15.0,-17.0,,,,,,,,,METAR,16.0
PARC 120556Z AUTO 07006KT 10SM CLR M27/ A2987 RMK AO1 11250 21270 52003,PARC,2015-02-12T05:56:00Z,68.12,-145.58,-27.0,,70,6,,10.0,29.870079,,,TRUE,TRUE,,,,,,,CLR,,,,,,,,VFR,0.3,-25.0,-27.0,,,,,,,,,METAR,636.0
KP53 120556Z AUTO 36029G35KT M12/M15 A3013 RMK AO1 PK WND 36035/0555 SLP214 P0001 60004 T11221150 11100 21122 51030,KP53,2015-02-12T05:56:00Z,46.42,-86.65,-12.2,-15.0,360,29,35,,30.129921,1021.4,,TRUE,TRUE,,,,,,,,,,,,,,,,3.0,-10.0,-12.2,,,0.01,,,,,,SPECI,187.0
KP60 120556Z AUTO 00000KT M06/M08 A3039 RMK AO1 SLP327 T10611078 10000 21078 58005,KP60,2015-02-12T05:56:00Z,44.55,-110.42,-6.1,-7.8,0,0,,,30.389763,1032.7,,TRUE,TRUE,,,,,,,,,,,,,,,,-0.5,0.0,-7.8,,,,,,,,,METAR,2388.0
KNTU 120556Z 19003KT 10SM CLR M01/M04 A2995 RMK AO2 SLP145 T10061039 10006 21028 58011,KNTU,2015-02-12T05:56:00Z,36.82,-76.02,-0.6,-3.9,190,3,,10.0,29.949802,1014.5,,,TRUE,,,,,,,CLR,,,,,,,,VFR,-1.1,0.6,-2.8,,,,,,,,,METAR,7.0
KNOG 120556Z AUTO 04007KT 10SM CLR 14/13 A3015 RMK AO2 SLP188 T01390133 10217 20139 402610083 51021 $,KNOG,2015-02-12T05:56:00Z,27.9,-98.05,13.9,13.3,40,7,,10.0,30.15059,1018.8,,TRUE,TRUE,TRUE,,,,,,CLR,,,,,,,,VFR,2.1,21.7,13.9,26.1,8.3,,,,,,,METAR,78.0
KNCA 120556Z AUTO 00000KT 6SM BR CLR M01/M02 A2998 RMK AO2 SLP156 T10111022 10044 21017 58011,KNCA,2015-02-12T05:56:00Z,34.72,-77.45,-1.1,-2.2,0,0,,6.0,29.97933,1015.6,,TRUE,TRUE,,,,,,BR,CLR,,,,,,,,VFR,-1.1,4.4,-1.7,,,,,,,,,METAR,8.0
KP28 120556Z AUTO 00000KT M03/M07 A3043 RMK AO1 SLP318 T10331067 10050 21039 400721039 50010,KP28,2015-02-12T05:56:00Z,37.28,-98.55,-3.3,-6.7,0,0,,,30.431103,1031.8,,TRUE,TRUE,,,,,,,,,,,,,,,,1.0,5.0,-3.9,7.2,-3.9,,,,,,,METAR,469.0
KNTD 120556Z 06012KT 10SM FEW250 23/M02 A3008 RMK AO2 SLP187 T02281017 10294 20222 51007 $,KNTD,2015-02-12T05:56:00Z,34.12,-119.12,22.8,-1.7,60,12,,10.0,30.079725,1018.7,,,TRUE,TRUE,,,,,,FEW,25000,,,,,,,VFR,0.7,29.4,22.2,,,,,,,,,METAR,4.0
KGNR 120556Z AUTO 13003KT M17/M21 A2978 RMK AO1 SLP120 T11721211 11133 21172 58023,KGNR,2015-02-12T05:56:00Z,45.47,-69.55,-17.2,-21.1,130,3,,,29.778543,1012.0,,TRUE,TRUE,,,,,,,,,,,,,,,,-2.3,-13.3,-17.2,,,,,,,,,METAR,427.0
KNID 120556Z 21009KT 10SM FEW270 08/M01 A3025 RMK AO2 SLP245 T00831011 10217 20083 51008,KNID,2015-02-12T05:56:00Z,35.67,-117.67,8.3,-1.1,210,9,,10.0,30.250984,1024.5,,,TRUE,,,,,,,FEW,27000,,,,,,,VFR,0.8,21.7,8.3,,,,,,,,,METAR,696.0
KNBC 120556Z AUTO 21005KT 9SM CLR 07/05 A3000 RMK AO2 SLP159 T00670050 10111 20056 58011,KNBC,2015-02-12T05:56:00Z,32.47,-80.72,6.7,5.0,210,5,,9.0,30.0,1015.9,,TRUE,TRUE,,,,,,,CLR,,,,,,,,VFR,-1.1,11.1,5.6,,,,,,,,,METAR,12.0
K2DP 120556Z AUTO 21002KT 10SM CLR M02/M03 A2998 RMK AO2 SLPNO T10251026 10023 21026 57012,K2DP,2015-02-12T05:56:00Z,35.68,-75.9,-2.5,-2.6,210,2,,10.0,29.97933,,,TRUE,TRUE,,,,,,,CLR,,,,,,,,VFR,-1.2,2.3,-2.6,,,,,,,,,METAR,3.0
KNDZ 120556Z AUTO 30004KT 8SM CLR 09/05 A3009 RMK AO2 SLP176 T00940050 10128 20094 402111011 58001 $,KNDZ,2015-02-12T05:56:00Z,30.7,-87.02,9.4,5.0,300,4,,8.0,30.088583,1017.6,,TRUE,TRUE,TRUE,,,,,,CLR,,,,,,,,VFR,-0.1,12.8,9.4,21.1,-1.1,,,,,,,METAR,54.0
KNSE 120556Z AUTO 29005KT 9SM CLR 08/04 A3009 RMK AO2 SLP175 T00780044 10111 20072 402111017 58001 $,KNSE,2015-02-12T05:56:00Z,30.73,-87.02,7.8,4.4,290,5,,9.0,30.088583,1017.5,,TRUE,TRUE,TRUE,,,,,,CLR,,,,,,,,VFR,-0.1,11.1,7.2,21.1,-1.7,,,,,,,METAR,61.0
KNPA 120556Z AUTO 31003KT 5SM BR CLR 07/06 A3009 RMK AO2 SLP190 T00670056 10111 20050 401561011 58001,KNPA,2015-02-12T05:56:00Z,30.35,-87.32,6.7,5.6,310,3,,5.0,30.088583,1019.0,,TRUE,TRUE,,,,,,BR,CLR,,,,,,,,MVFR,-0.1,11.1,5.0,15.6,-1.1,,,,,,,METAR,9.0
K79J 120556Z AUTO 00000KT 10SM CLR 08/02 A3007 RMK AO2 SLP181 T00830022 10156 20078 56002,K79J,2015-02-12T05:56:00Z,31.32,-86.4,8.3,2.2,0,0,,10.0,30.070866,1018.1,,TRUE,TRUE,,,,,,,CLR,,,,,,,,VFR,-0.2,15.6,7.8,,,,,,,,,METAR,94.0
KMEH 120556Z AUTO 00000KT 10SM OVC120 06/02 A3027 RMK AO2 SLP262 T00560017 10083 20050 50000,KMEH,2015-02-12T05:56:00Z,45.52,-118.42,5.6,1.7,0,0,,10.0,30.268702,1026.2,,TRUE,TRUE,,,,,,,OVC,12000,,,,,,,VFR,0.0,8.3,5.0,,,,,,,,,METAR,1136.0
KNXP 120556Z 26010KT 10SM CLR 14/M05 A3030 RMK AO2 SLP238 T01391050 10217 20139 50008,KNXP,2015-02-12T05:56:00Z,34.28,-116.17,13.9,-5.0,260,10,,10.0,30.301182,1023.8,,,TRUE,,,,,,,CLR,,,,,,,,VFR,0.8,21.7,13.9,,,,,,,,,METAR,626.0
KNUW 120556Z 00000KT 10SM FEW030 SCT110 BKN150 09/07 A3020 RMK AO2 SLP228 T00940072 10106 20089 53004 VISNO E $,KNUW,2015-02-12T05:56:00Z,48.35,-122.65,9.4,7.2,0,0,,10.0,30.200787,1022.8,,,TRUE,TRUE,,,,,,FEW,3000,SCT,11000,BKN,15000,,,VFR,0.4,10.6,8.9,,,,,,,,,METAR,14.0
KSPD 120556Z AUTO 29003KT M08/M11 A3043 RMK AO1 SLP326 T10831106 10061 21083 50012,KSPD,2015-02-12T05:56:00Z,37.28,-102.62,-8.3,-10.6,290,3,,,30.431103,1032.6,,TRUE,TRUE,,,,,,,,,,,,,,,,1.2,6.1,-8.3,,,,,,,,,METAR,1335.0
KD07 120556Z AUTO 08012KT M15/M18 A3054 RMK AO1 SLP398 T11501183 11067 21150 50007,KD07,2015-02-12T05:56:00Z,45.03,-102.02,-15.0,-18.3,80,12,,,30.540354,1039.8,,TRUE,TRUE,,,,,,,,,,,,,,,,0.7,-6.7,-15.0,,,,,,,,,METAR,784.0
KHFF 120556Z AUTO 06001KT 10SM CLR M01/M01 A2997 RMK AO2 SLP153 T10111015 10054 21011 57013,KHFF,2015-02-12T05:56:00Z,35.02,-79.5,-1.1,-1.5,60,1,,10.0,29.970472,1015.3,,TRUE,TRUE,,,,,,,CLR,,,,,,,,VFR,-1.3,5.4,-1.1,,,,,,,,,METAR,115.0
PHBK 120556Z AUTO 34012KT 8SM FEW030 SCT035 OVC049 22/14 A2992 RMK AO2 SLP134 T02220144 10250 20217 53015,PHBK,2015-02-12T05:56:00Z,22.03,-159.78,22.2,14.4,340,12,,8.0,29.920275,1013.4,,TRUE,TRUE,,,,,,,FEW,3000,SCT,3500,OVC,4900,,,VFR,1.5,25.0,21.7,,,,,,,,,SPECI,8.0
KALK 120556Z AUTO 08016G26KT 10SM CLR 09/00 A3023 RMK AO2 PK WND 08026/0550 SLP177 T00890000 10172 20083 51020,KALK,2015-02-12T05:56:00Z,31.6,-110.43,8.9,0.0,80,16,26,10.0,30.230314,1017.7,,TRUE,TRUE,,,,,,,CLR,,,,,,,,VFR,2.0,17.2,8.3,,,,,,,,,METAR,1453.0
KNRS 120556Z 05008KT 10SM FEW200 20/M05 A3004 RMK AO2 SLP171 T02001050 10250 20139 51005 $,KNRS,2015-02-12T05:56:00Z,32.57,-117.12,20.0,-5.0,50,8,,10.0,30.041338,1017.1,,,TRUE,TRUE,,,,,,FEW,20000,,,,,,,VFR,0.5,25.0,13.9,,,,,,,,,METAR,7.0
KNFE 120556Z AUTO 18004KT 10SM CLR 00/M04 A2996 RMK AO2 SLP147 T00001044 10011 21011 58010 FZRANO $,KNFE,2015-02-12T05:56:00Z,36.7,-76.13,0.0,-4.4,180,4,,10.0,29.958662,1014.7,,TRUE,TRUE,TRUE,,,TRUE,,,CLR,,,,,,,,VFR,-1.0,1.1,-1.1,,,,,,,,,METAR,5.0
KNBT 120556Z AUTO A2998 RMK AO2 SLP158 6//// 58010 PWINO PNO $,KNBT,2015-02-12T05:56:00Z,35.02,-76.47,,,,,,,29.97933,1015.8,,TRUE,TRUE,TRUE,,,,TRUE,,,,,,,,,,,-1.0,,,,,,,,,,,METAR,5.0
KNFL 120556Z 24004KT 10SM CLR 03/M01 A3033 RMK AO2 SLP229 T00281011 10133 20028 51010,KNFL,2015-02-12T05:56:00Z,39.42,-118.7,2.8,-1.1,240,4,,10.0,30.33071,1022.9,,,TRUE,,,,,,,CLR,,,,,,,,VFR,1.0,13.3,2.8,,,,,,,,,METAR,1199.0
KSXT 120556Z AUTO 13007KT 10SM CLR 09/00 A3024 RMK AO2 SLP229 T00890000 10111 20089 53004,KSXT,2015-02-12T05:56:00Z,42.6,-123.37,8.9,0.0,130,7,,10.0,30.239174,1022.9,,TRUE,TRUE,,,,,,,CLR,,,,,,,,VFR,0.4,11.1,8.9,,,,,,,,,METAR,1170.0
KGNA 120556Z AUTO VRB05KT M18/M24 A3044 RMK AO1 SLP332 T11831244 11144 21183 410331183 53034,KGNA,2015-02-12T05:56:00Z,47.75,-90.35,-18.3,-24.4,0,5,,,30.43996,1033.2,,TRUE,TRUE,,,,,,,,,,,,,,,,3.4,-14.4,-18.3,-3.3,-18.3,,,,,,,METAR,185.0
KABH 120556Z AUTO 18005KT 10SM CLR M17/ A3039 RMK AO2 SLPNO T1172 50004 $,KABH,2015-02-12T05:56:00Z,38.75,-104.3,-17.2,,180,5,,10.0,30.389763,,,TRUE,TRUE,TRUE,,,,,,CLR,,,,,,,,VFR,0.4,,,,,,,,,,,METAR,1840.0
KNYG 120556Z AUTO 15004KT 10SM BKN060 01/M03 A2993 RMK AO2 SLP135 T00061028 10028 20006 56009,KNYG,2015-02-12T05:56:00Z,38.5,-77.28,0.6,-2.8,150,4,,10.0,29.929134,1013.5,,TRUE,TRUE,,,,,,,BKN,6000,,,,,,,VFR,-0.9,2.8,0.6,,,,,,,,,METAR,4.0
KGXF 120556Z 33004KT 10SM CLR 17/M01 A3010 RMK AO2A SLP188 T01661010 10261 20154 51012 LAST,KGXF,2015-02-12T05:56:00Z,32.87,-112.72,16.6,-1.0,330,4,,10.0,30.100393,1018.8,,,TRUE,,,,,,,CLR,,,,,,,,VFR,1.2,26.1,15.4,,,,,,,,,METAR,262.0
KNLC 120556Z VRB04KT 8SM BKN220 09/05 A3020 RMK AO2 SLP226 RH/71 T00940050 10194 20094 53011 $,KNLC,2015-02-12T05:56:00Z,36.32,-119.95,9.4,5.0,0,4,,8.0,30.200787,1022.6,,,TRUE,TRUE,,,,,,BKN,22000,,,,,,,VFR,1.1,19.4,9.4,,,,,,,,,SPECI,72.0
KQHY 120556Z AUTO 34002KT 10SM CLR 08/07 A3009 RMK AO2 SLP196 T00760068 10122 20075 58002,KQHY,2015-02-12T05:56:00Z,100.65,-1000.65,7.6,6.8,340,2,,10.0,30.088583,1019.6,,TRUE,TRUE,,,,,,,CLR,,,,,,,,VFR,-0.2,12.2,7.5,,,,,,,,,METAR,999.0
KQBL 120556Z AUTO 33001KT 8SM CLR 08/07 A3009 RMK AO2 SLP195 T00790067 10123 20074,KQBL,2015-02-12T05:56:00Z,100.65,-1000.65,7.9,6.7,330,1,,8.0,30.088583,1019.5,,TRUE,TRUE,,,,,,,CLR,,,,,,,,VFR,,12.3,7.4,,,,,,,,,METAR,999.0
KMHS 120556Z AUTO 05003KT 7SM CLR 04/02 A3026 RMK AO2 SLP273 T00390017 10117 20039 52004,KMHS,2015-02-12T05:56:00Z,41.32,-122.32,3.9,1.7,50,3,,7.0,30.259842,1027.3,,TRUE,TRUE,,,,,,,CLR,,,,,,,,VFR,0.4,11.7,3.9,,,,,,,,,METAR,1078.0
KDUG 120556Z AUTO 08019G31KT 10SM CLR 11/00 A3020 RMK AO2 PK WND 08036/0501 SLP186 T01060000 10200 20106 51017,KDUG,2015-02-12T05:56:00Z,31.47,-109.58,10.6,0.0,80,19,31,10.0,30.200787,1018.6,,TRUE,TRUE,,,,,,,CLR,,,,,,,,VFR,1.7,20.0,10.6,,,,,,,,,METAR,1265.0
K8D3 120556Z AUTO 36016KT M19/M23 A3066 RMK AO1 SLP431 T11941228 11150 21194 410891194 53016,K8D3,2015-02-12T05:56:00Z,45.67,-96.98,-19.4,-22.8,360,16,,,30.661417,1043.1,,TRUE,TRUE,,,,,,,,,,,,,,,,1.6,-15.0,-19.4,-8.9,-19.4,,,,,,,METAR,354.0
KEAU 120556Z AUTO 34010G18KT 10SM FEW032 M15/M21 A3036 RMK AO2 SLP300 60000 T11501211 11100 21150 410281150 53040,KEAU,2015-02-12T05:56:00Z,44.87,-91.47,-15.0,-21.1,340,10,18,10.0,30.360237,1030.0,,TRUE,TRUE,,,,,,,FEW,3200,,,,,,,VFR,4.0,-10.0,-15.0,-2.8,-15.0,,,0.0050,,,,METAR,276.0
KELZ 120556Z AUTO 24006KT 10SM OVC016 M02/M04 A2971 RMK AO2 SNE24 SLP085 P0000 60001 T10221044 11017 21022 58014,KELZ,2015-02-12T05:56:00Z,42.1,-77.98,-2.2,-4.4,240,6,,10.0,29.71063,1008.5,,TRUE,TRUE,,,,,,,OVC,1600,,,,,,,MVFR,-1.4,-1.7,-2.2,,,0.0050,,0.01,,,,METAR,646.0
KEKQ 120556Z AUTO 30006KT 10SM BKN023 OVC029 04/01 A3007 RMK AO2 58004 T00440005 10055 21016 SLP191,KEKQ,2015-02-12T05:56:00Z,36.85,-84.85,4.4,0.5,300,6,,10.0,30.070866,1019.1,,TRUE,TRUE,,,,,,,BKN,2300,OVC,2900,,,,,MVFR,-0.4,5.5,-1.6,,,,,,,,,METAR,294.0
KEKO 120556Z AUTO 09004KT 10SM CLR 02/M03 A3037 RMK AO2 SLP295 T00171028 10122 20011 51006,KEKO,2015-02-12T05:56:00Z,40.82,-115.78,1.7,-2.8,90,4,,10.0,30.369095,1029.5,,TRUE,TRUE,,,,,,,CLR,,,,,,,,VFR,0.6,12.2,1.1,,,,,,,,,METAR,1547.0
KEED 120556Z AUTO 36014KT 10SM CLR 21/M06 A3019 RMK AO2 SLP202 T02061061 10250 20194 $,KEED,2015-02-12T05:56:00Z,34.77,-114.62,20.6,-6.1,360,14,,10.0,30.188976,1020.2,,TRUE,TRUE,TRUE,,,,,,CLR,,,,,,,,VFR,,25.0,19.4,,,,,,,,,METAR,302.0
MUGM 120556Z 33010KT 9999 SCT040 20/15 A2996 RMK SLP146 T02000150,MUGM,2015-02-12T05:56:00Z,19.9,-75.2,20.0,15.0,330,10,,6.21,29.958662,1014.6,,,,,,,,,,SCT,4000,,,,,,,VFR,,,,,,,,,,,,METAR,17.0
KFSD 120556Z 36016G22KT 10SM CLR M16/M21 A3058 RMK AO2 SLP387 60000 T11561206 11072 21156 410441156 51020,KFSD,2015-02-12T05:56:00Z,43.58,-96.75,-15.6,-20.6,360,16,22,10.0,30.578741,1038.7,,,TRUE,,,,,,,CLR,,,,,,,,VFR,2.0,-7.2,-15.6,-4.4,-15.6,,,0.0050,,,,METAR,436.0
KNXF 120556Z AUTO 03010KT 10SM CLR 22/M07 A3004 RMK AO2 SLP256 T02221067 10261 20200 51006 $,KNXF,2015-02-12T05:56:00Z,33.28,-117.45,22.2,-6.7,30,10,,10.0,30.041338,1025.6,,TRUE,TRUE,TRUE,,,,,,CLR,,,,,,,,VFR,0.6,26.1,20.0,,,,,,,,,METAR,27.0
KNJK 120556Z 25009KT 10SM FEW180 FEW250 14/M04 A3010 RMK AO2 SLP209 T01391044 10283 20133 50010 $,KNJK,2015-02-12T05:56:00Z,32.82,-115.67,13.9,-4.4,250,9,,10.0,30.100393,1020.9,,,TRUE,TRUE,,,,,,FEW,18000,FEW,25000,,,,,VFR,1.0,28.3,13.3,,,,,,,,,METAR,-13.0
KCWN 120556Z AUTO 19005KT 10SM CLR 00/M02 A3007 RMK AO2 SLP206 T00041020 10024 21007 50006,KCWN,2015-02-12T05:56:00Z,38.75,-104.85,0.4,-2.0,190,5,,10.0,30.070866,1020.6,,TRUE,TRUE,,,,,,,CLR,,,,,,,,VFR,0.6,2.4,-0.7,,,,,,,,,METAR,2040.0
K4MR 120556Z AUTO 29003KT 10SM BKN065 02/M03 A3044 RMK AO2 SLP313 T00191030 10021 20013 50005,K4MR,2015-02-12T05:56:00Z,34.3,-103.8,1.9,-3.0,290,3,,10.0,30.43996,1031.3,,TRUE,TRUE,,,,,,,BKN,6500,,,,,,,VFR,0.5,2.1,1.3,,,,,,,,,METAR,1326.0
K1YT 120556Z AUTO 17003KT 10SM BKN110 07/05 A3026 RMK AO2 SLPNO T00680054 10103 20066 53004,K1YT,2015-02-12T05:56:00Z,46.67,-120.45,6.8,5.4,170,3,,10.0,30.259842,,,TRUE,TRUE,,,,,,,BKN,11000,,,,,,,VFR,0.4,10.3,6.6,,,,,,,,,METAR,438.0
K1QW 120556Z AUTO 25005KT M /// /// M 06/04 A3022 RMK AO2 SLPNO T00580041 10064 20049 53002 $,K1QW,2015-02-12T05:56:00Z,46.8,-120.17,5.8,4.1,250,5,,,30.221457,,,TRUE,TRUE,TRUE,,,,,,,,,,,,,,,0.2,6.4,4.9,,,,,,,,,METAR,928.0
KFEW 120556Z AUTO 31003KT 10SM BKN170 M03/M06 A3028 RMK AO2 SLP273 T10351059 10071 21051 57009 $,KFEW,2015-02-12T05:56:00Z,41.13,-104.87,-3.5,-5.9,310,3,,10.0,30.280512,1027.3,,TRUE,TRUE,TRUE,,,,,,BKN,17000,,,,,,,VFR,-0.9,7.1,-5.1,,,,,,,,,METAR,1878.0
KM63 120556Z AUTO 01037G49KT 10SM CLR 05/M01 A3024 RMK AO2 PK WND 02049/14 SLP211 T00491006 10085 20048 50016,KM63,2015-02-12T05:56:00Z,32.05,-106.15,4.9,-0.6,10,37,49,10.0,30.239174,1021.1,,TRUE,TRUE,,,,,,,CLR,,,,,,,,VFR,1.6,8.5,4.8,,,,,,,,,METAR,1283.0
KSHM 120556Z AUTO 25005KT 10SM CLR M01/M03 A3039 RMK AO2 SLP321 T10081031 10043 21009 50002,KSHM,2015-02-12T05:56:00Z,38.8,-104.52,-0.8,-3.1,250,5,,10.0,30.389763,1032.1,,TRUE,TRUE,,,,,,,CLR,,,,,,,,VFR,0.2,4.3,-0.9,,,,,,,,,METAR,1900.0
PHSF 120556Z AUTO 36010G15KT 10SM CLR 13/M24 A3023 RMK AO2 SLP131 T01281237 10192 20119 52009 $,PHSF,2015-02-12T05:56:00Z,19.77,-155.55,12.8,-23.7,360,10,15,10.0,30.230314,1013.1,,TRUE,TRUE,TRUE,,,,,,CLR,,,,,,,,VFR,0.9,19.2,11.9,,,,,,,,,METAR,1887.0
K14Y 120556Z AUTO 31010G15KT 10SM CLR M21/M24 A3053 RMK AO2,K14Y,2015-02-12T05:56:00Z,45.9,-94.87,-21.0,-24.0,310,10,15,10.0,30.528543,,,TRUE,TRUE,,,,,,,CLR,,,,,,,,VFR,,,,,,,,,,,,METAR,406.0
KHND 120556Z 17005KT 10SM CLR 11/M03 A3030 RMK AO2 SLP258 T01061028 10200 20106 51012,KHND,2015-02-12T05:56:00Z,35.98,-115.13,10.6,-2.8,170,5,,10.0,30.301182,1025.8,,,TRUE,,,,,,,CLR,,,,,,,,VFR,1.2,20.0,10.6,,,,,,,,,METAR,749.0
KGRD 120556Z AUTO 23006KT 10SM CLR 06/02 A2994 RMK AO2 SLP140 T00610017 10100 20061 56013,KGRD,2015-02-12T05:56:00Z,34.25,-82.15,6.1,1.7,230,6,,10.0,29.940945,1014.0,,TRUE,TRUE,,,,,,,CLR,,,,,,,,VFR,-1.3,10.0,6.1,,,,,,,,,METAR,185.0
KGON 120556Z AUTO 35003KT 10SM CLR M09/M11 A2993 RMK AO2 SLP134 T10941111 11061 21106 56011,KGON,2015-02-12T05:56:00Z,41.33,-72.05,-9.4,-11.1,350,3,,10.0,29.929134,1013.4,,TRUE,TRUE,,,,,,,CLR,,,,,,,,VFR,-1.1,-6.1,-10.6,,,,,,,,,METAR,3.0
KHPN 120556Z 09003KT 10SM BKN100 BKN120 M06/M11 A2987 RMK AO2 SLP126 T10611106 11050 21083 58014,KHPN,2015-02-12T05:56:00Z,41.07,-73.7,-6.1,-10.6,90,3,,10.0,29.870079,1012.6,,,TRUE,,,,,,,BKN,10000,BKN,12000,,,,,VFR,-1.4,-5.0,-8.3,,,,,,,,,METAR,121.0
KHYA 120556Z AUTO 35007KT 10SM OVC018 M02/M05 A2985 RMK AO2 SLP108 T10221050 11017 21022 56014,KHYA,2015-02-12T05:56:00Z,41.67,-70.27,-2.2,-5.0,350,7,,10.0,29.84941,1010.8,,TRUE,TRUE,,,,,,,OVC,1800,,,,,,,MVFR,-1.4,-1.7,-2.2,,,,,,,,,METAR,22.0
KHWV 120556Z AUTO 00000KT 8SM CLR M09/M12 A2993 RMK AO2 SLP136 I1001 I6001 T10941117 11050 21094 56011 TSNO,KHWV,2015-02-12T05:56:00Z,40.82,-72.87,-9.4,-11.7,0,0,,8.0,29.929134,1013.6,,TRUE,TRUE,,,TRUE,,,,CLR,,,,,,,,VFR,-1.1,-5.0,-9.4,,,,,,,,,METAR,21.0
KIGX 120556Z AUTO 00000KT 10SM CLR 01/M01 A2993 RMK AO2 SLP134 T00111006 10050 20011 58012,KIGX,2015-02-12T05:56:00Z,35.93,-79.07,1.1,-0.6,0,0,,10.0,29.929134,1013.4,,TRUE,TRUE,,,,,,,CLR,,,,,,,,VFR,-1.2,5.0,1.1,,,,,,,,,METAR,155.0
KINW 120556Z AUTO 07007KT 10SM CLR 07/M01 A3036 RMK AO2 SLP261 T00671011 10156 20061 51007,KINW,2015-02-12T05:56:00Z,35.03,-110.72,6.7,-1.1,70,7,,10.0,30.360237,1026.1,,TRUE,TRUE,,,,,,,CLR,,,,,,,,VFR,0.7,15.6,6.1,,,,,,,,,METAR,1490.0
KBED 120556Z 00000KT 10SM CLR M16/M17 A2992 RMK AO2 SLP150 T11561172 11094 21178 56016,KBED,2015-02-12T05:56:00Z,42.47,-71.3,-15.6,-17.2,0,0,,10.0,29.920275,1015.0,,,TRUE,,,,,,,CLR,,,,,,,,VFR,-1.6,-9.4,-17.8,,,,,,,,,METAR,50.0
KBIH 120556Z AUTO 35006KT 10SM CLR 04/M08 A3034 RMK AO2 SLP258 T00441083 10206 20039 53014,KBIH,2015-02-12T05:56:00Z,37.37,-118.35,4.4,-8.3,350,6,,10.0,30.339567,1025.8,,TRUE,TRUE,,,,,,,CLR,,,,,,,,VFR,1.4,20.6,3.9,,,,,,,,,METAR,1253.0
KBJJ 120556Z AUTO 31013KT 8SM SCT018 BKN026 OVC042 M02/M05 A2990 RMK AO2 SLP136 60000 I6009 T10171050 10000 21017 58002 TSNO,KBJJ,2015-02-12T05:56:00Z,40.87,-81.88,-1.7,-5.0,310,13,,8.0,29.899607,1013.6,,TRUE,TRUE,,,TRUE,,,,SCT,1800,BKN,2600,OVC,4200,,,MVFR,-0.2,0.0,-1.7,,,,,0.0050,,,,METAR,343.0
KBMI 120556Z AUTO 32016KT 10SM SCT021 M07/M11 A3019 RMK AO2 53006 T10721111 11027 21072 400161072 SLP243,KBMI,2015-02-12T05:56:00Z,40.47,-88.92,-7.2,-11.1,320,16,,10.0,30.188976,1024.3,,TRUE,TRUE,,,,,,,SCT,2100,,,,,,,VFR,0.6,-2.7,-7.2,1.6,-7.2,,,,,,,METAR,267.0
KBOK 120556Z AUTO 00000KT 10SM CLR 08/08 A3023 RMK AO2 53004 60000 T00770077 10133 20077 SLP240,KBOK,2015-02-12T05:56:00Z,42.07,-124.28,7.7,7.7,0,0,,10.0,30.230314,1024.0,,TRUE,TRUE,,,,,,,CLR,,,,,,,,VFR,0.4,13.3,7.7,,,,,0.0050,,,,METAR,140.0
KBZN 120556Z 00000KT 10SM BKN100 01/M03 A3025 RMK AO2 SLP264 T00061028 10100 21017 56004,KBZN,2015-02-12T05:56:00Z,45.78,-111.17,0.6,-2.8,0,0,,10.0,30.250984,1026.4,,,TRUE,,,,,,,BKN,10000,,,,,,,VFR,-0.4,10.0,-1.7,,,,,,,,,METAR,1361.0
KQRH 120556Z AUTO 10010G15KT 9999 FEW019 BKN050 27/20 A3008 RMK AO2 SLP179 T02670197 10268 20251 52020,KQRH,2015-02-12T05:56:00Z,100.65,-1000.65,26.7,19.7,100,10,15,6.21,30.079725,1017.9,,TRUE,TRUE,,,,,,,FEW,1900,BKN,5000,,,,,VFR,2.0,26.8,25.1,,,,,,,,,METAR,999.0
KCAE 120556Z 00000KT 10SM CLR 03/00 A2995 RMK AO2 SLP142 T00280000 10100 20022 56016,KCAE,2015-02-12T05:56:00Z,33.93,-81.12,2.8,0.0,0,0,,10.0,29.949802,1014.2,,,TRUE,,,,,,,CLR,,,,,,,,VFR,-1.6,10.0,2.2,,,,,,,,,METAR,70.0
KCEC 120556Z AUTO 00000KT 4SM BR FEW006 SCT009 08/07 A3024 RMK AO2 SLP240 T00780072 10133 20078 53005,KCEC,2015-02-12T05:56:00Z,41.77,-124.22,7.8,7.2,0,0,,4.0,30.239174,1024.0,,TRUE,TRUE,,,,,,BR,FEW,600,SCT,900,,,,,MVFR,0.5,13.3,7.8,,,,,,,,,METAR,17.0
KCHS 120556Z 20004KT 10SM CLR 05/04 A2999 RMK AO2 SLP156 T00500039 10100 20044 58012,KCHS,2015-02-12T05:56:00Z,32.9,-80.03,5.0,3.9,200,4,,10.0,29.991142,1015.6,,,TRUE,,,,,,,CLR,,,,,,,,VFR,-1.2,10.0,4.4,,,,,,,,,METAR,13.0
KCTB 120556Z AUTO 16003KT 2 1/2SM BR OVC002 M04/M06 A3013 RMK AO2 SLP249 I6000 T10441056 11044 21050 56023,KCTB,2015-02-12T05:56:00Z,48.6,-112.37,-4.4,-5.6,160,3,,2.5,30.129921,1024.9,,TRUE,TRUE,,,,,,BR,OVC,200,,,,,,,LIFR,-2.3,-4.4,-5.0,,,,,,,,,METAR,1175.0
KCXY 120556Z AUTO 00000KT 10SM OVC041 M01/M06 A2987 RMK AO2 SLP119 T10061061 10006 21006 57015,KCXY,2015-02-12T05:56:00Z,40.22,-76.85,-0.6,-6.1,0,0,,10.0,29.870079,1011.9,,TRUE,TRUE,,,,,,,OVC,4100,,,,,,,VFR,-1.5,0.6,-0.6,,,,,,,,,METAR,106.0
KDAY 120556Z 29016G22KT 6SM -SN BKN014 OVC020 M01/M03 A2999 RMK AO2 SNB28 SLP164 P0000 60001 T10061033 10017 21006 55002,KDAY,2015-02-12T05:56:00Z,39.9,-84.22,-0.6,-3.3,290,16,22,6.0,29.991142,1016.4,,,TRUE,,,,,,-SN,BKN,1400,OVC,2000,,,,,MVFR,-0.2,1.7,-0.6,,,0.0050,,0.01,,,,METAR,305.0
KDIJ 120556Z AUTO 22003KT 8SM FEW100 M03/M06 A3040 RMK AO2 58001 T10271055 10055 21044 400611061 SLP297,KDIJ,2015-02-12T05:56:00Z,43.75,-111.1,-2.7,-5.5,220,3,,8.0,30.398623,1029.7,,TRUE,TRUE,,,,,,,FEW,10000,,,,,,,VFR,-0.1,5.5,-4.4,6.1,-6.1,,,,,,,METAR,1899.0
K04V 120556Z AUTO 31009KT 10SM CLR M01/M05 A3041 RMK AO2,K04V,2015-02-12T05:56:00Z,38.1,-106.17,-1.0,-5.0,310,9,,10.0,30.410433,,,TRUE,TRUE,,,,,,,CLR,,,,,,,,VFR,,,,,,,,,,,,METAR,2385.0
K1M4 120556Z AUTO 00000KT 10SM 04/M01 A3012 RMK AO2 50000 T00381011 10088 20033 SLP211 $,K1M4,2015-02-12T05:56:00Z,34.28,-87.6,3.8,-1.1,0,0,,10.0,30.121063,1021.1,,TRUE,TRUE,TRUE,,,,,,,,,,,,,,,0.0,8.8,3.3,,,,,,,,,METAR,284.0
KAJO 120556Z AUTO 12008KT 10SM CLR 21/M06 A3012 RMK AO2 51014 T02051055 10277 20205 SLP192 $,KAJO,2015-02-12T05:56:00Z,33.9,-117.6,20.5,-5.5,120,8,,10.0,30.121063,1019.2,,TRUE,TRUE,TRUE,,,,,,CLR,,,,,,,,VFR,1.4,27.7,20.5,,,,,,,,,METAR,163.0
KAND 120556Z AUTO 27004KT 10SM CLR 07/01 A2993 RMK AO2 SLP133 T00670011 10111 20056 58010,KAND,2015-02-12T05:56:00Z,34.5,-82.72,6.7,1.1,270,4,,10.0,29.929134,1013.3,,TRUE,TRUE,,,,,,,CLR,,,,,,,,VFR,-1.0,11.1,5.6,,,,,,,,,METAR,239.0
CYVO 120556Z AUTO 34016G23KT 1 3/4SM -SN FEW014 OVC024 M14/M16 A2972 RMK SLP097,CYVO,2015-02-12T05:56:00Z,48.07,-77.77,-14.0,-16.0,340,16,23,1.75,29.719488,1009.7,,TRUE,,,,,,,-SN,FEW,1400,OVC,2400,,,,,IFR,,,,,,,,,,,,SPECI,337.0
KSJX 120556Z AUTO 34010G17KT 10SM BKN030 BKN037 M13/M17 A3003 RMK AO2 T11281168 11084 21128,KSJX,2015-02-12T05:56:00Z,45.7,-85.57,-12.8,-16.8,340,10,17,10.0,30.029528,,,TRUE,TRUE,,,,,,,BKN,3000,BKN,3700,,,,,MVFR,,-8.4,-12.8,,,,,,,,,METAR,204.0
KNMM 120556Z AUTO 32006KT 10SM CLR 07/02 A3013 RMK AO2 SLP214 T00670022 10150 20056 401941028 50005 $,KNMM,2015-02-12T05:56:00Z,32.53,-88.57,6.7,2.2,320,6,,10.0,30.129921,1021.4,,TRUE,TRUE,TRUE,,,,,,CLR,,,,,,,,VFR,0.5,15.0,5.6,19.4,-2.8,,,,,,,METAR,97.0
PASY 120556Z AUTO 03006KT 10SM OVC037 01/M11 A3001 RMK AO2 SLP163 T00061111 10011 20006 53002 TSNO $,PASY,2015-02-12T05:56:00Z,52.72,174.12,0.6,-11.1,30,6,,10.0,30.008858,1016.3,,TRUE,TRUE,TRUE,,TRUE,,,,OVC,3700,,,,,,,VFR,0.2,1.1,0.6,,,,,,,,,METAR,31.0
KCOQ 120556Z AUTO 33009KT 7SM SCT011 M19/M22 A3042 RMK AO2,KCOQ,2015-02-12T05:56:00Z,46.7,-92.5,-19.0,-22.0,330,9,,7.0,30.41929,,,TRUE,TRUE,,,,,,,SCT,1100,,,,,,,VFR,,,,,,,,,,,,METAR,390.0
EHEH 120556Z AUTO 15003KT 0200 R21/0075 FZFG OVC000 M02/M02 Q1021 RED VRB02KT 0150 FZFG BKN001,EHEH,2015-02-12T05:56:00Z,51.45,5.38,-2.0,-2.0,150,3,,0.12,30.147638,,,TRUE,,,,,,,FZFG FZFG,OVC,0,BKN,100,,,,,LIFR,,,,,,,,,,,,METAR,22.0
PHNY 120556Z AUTO 34005KT 10SM SCT029 BKN039 18/14 A2998 RMK AO2 TSNO 51016 T01830138 10244 20183 SLP139 $,PHNY,2015-02-12T05:56:00Z,20.77,-156.93,18.3,13.8,340,5,,10.0,29.97933,1013.9,,TRUE,TRUE,TRUE,,TRUE,,,,SCT,2900,BKN,3900,,,,,VFR,1.6,24.4,18.3,,,,,,,,,SPECI,399.0
PMDY 120556Z AUTO 22005KT 2 1/2SM HZ FEW100 17/10 A2990 RMK AO2 TSNO 56016 T01660100 10183 20166 SLP437 $,PMDY,2015-02-12T05:56:00Z,28.22,-177.37,16.6,10.0,220,5,,2.5,29.899607,1043.7,,TRUE,TRUE,TRUE,,TRUE,,,HZ,FEW,10000,,,,,,,IFR,-1.6,18.3,16.6,,,,,,,,,METAR,4.0
PACM 120556Z AUTO 30005KT 10SM CLR M16/M19 A2973 RMK AO2 FZRANO TSNO 53003 T11611188 11155 21172 SLP062 $,PACM,2015-02-12T05:56:00Z,61.85,-165.57,-16.1,-18.8,300,5,,10.0,29.731298,1006.2,,TRUE,TRUE,TRUE,,TRUE,TRUE,,,CLR,,,,,,,,VFR,0.3,-15.5,-17.2,,,,,,,,,METAR,4.0
PADM 120556Z AUTO 04016G20KT 10SM -SN OVC050 M14/M21 A2961 RMK AO2 TSNO 53001 60000 T11381205 11127 21138 SNB30 P0000 SLP016 $,PADM,2015-02-12T05:56:00Z,61.87,-162.03,-13.8,-20.5,40,16,20,10.0,29.610237,1001.6,,TRUE,TRUE,TRUE,,TRUE,,,-SN,OVC,5000,,,,,,,VFR,0.1,-12.7,-13.8,,,0.0050,,0.0050,,,,METAR,31.0
KSXS 120556Z AUTO 31004KT 10SM CLR 08/02 A3007 RMK AO2 SLP185 T00840020 10136 20073 401891006 56002,KSXS,2015-02-12T05:56:00Z,31.37,-85.85,8.4,2.0,310,4,,10.0,30.070866,1018.5,,TRUE,TRUE,,,,,,,CLR,,,,,,,,VFR,-0.2,13.6,7.3,18.9,-0.6,,,,,,,METAR,122.0
PAFS 120556Z AUTO 04009KT 10SM CLR M14/M19 A2965 RMK AO2 TSNO 53007 60000 T11441194 11133 21144 SNE53 P0000 SLP060 $,PAFS,2015-02-12T05:56:00Z,63.02,-154.35,-14.4,-19.4,40,9,,10.0,29.648623,1006.0,,TRUE,TRUE,TRUE,,TRUE,,,,CLR,,,,,,,,VFR,0.7,-13.3,-14.4,,,0.0050,,0.0050,,,,METAR,126.0
PADU 120556Z AUTO 33017KT 9SM -SN BR OVC013 02/M01 A2925 RMK AO2 SLP909 6//// T00171006 10017 20011 53003 PNO $,PADU,2015-02-12T05:56:00Z,53.9,-166.53,1.7,-0.6,330,17,,9.0,29.25,990.9,,TRUE,TRUE,TRUE,,,,,-SN BR,OVC,1300,,,,,,,MVFR,0.3,1.7,1.1,,,,,,,,,METAR,4.0
PAGN 120556Z AUTO 00000KT 10SM OVC028 03/02 A2979 RMK AO2 TSNO 58000 T00270022 10044 20022 SLP090 $,PAGN,2015-02-12T05:56:00Z,57.5,-134.58,2.7,2.2,0,0,,10.0,29.790354,1009.0,,TRUE,TRUE,TRUE,,TRUE,,,,OVC,2800,,,,,,,MVFR,0.0,4.4,2.2,,,,,,,,,METAR,2.0
PAHC 120556Z AUTO 01008KT 10SM OVC029 M14/M21 A2961 RMK AO2 TSNO 51001 T11441211 11144 21150 SLP034 $,PAHC,2015-02-12T05:56:00Z,62.18,-159.78,-14.4,-21.1,10,8,,10.0,29.610237,1003.4,,TRUE,TRUE,TRUE,,TRUE,,,,OVC,2900,,,,,,,MVFR,0.1,-14.4,-15.0,,,,,,,,,METAR,21.0
PAIG 120556Z AUTO 07009KT BKN038 BKN046 BKN060 01/M01 A2946 RMK AO2 TSNO 53015 T00111011 10022 20005 SLP980 $,PAIG,2015-02-12T05:56:00Z,59.32,-155.9,1.1,-1.1,70,9,,,29.459646,998.0,,TRUE,TRUE,TRUE,,TRUE,,,,BKN,3800,BKN,4600,BKN,6000,,,,1.5,2.2,0.5,,,,,,,,,METAR,28.0
PAKH 120556Z AUTO 09012KT 04/03 RMK AO2 PWINO TSNO 5//// 60004 T00440033 10055 20044 P0001 SLPNO $,PAKH,2015-02-12T05:56:00Z,56.93,-154.18,4.4,3.3,90,12,,,,,,TRUE,TRUE,TRUE,,TRUE,,TRUE,,,,,,,,,,,,5.5,4.4,,,0.01,,0.04,,,,METAR,14.0
PAMB 120556Z AUTO 04018KT UP BKN003 BKN013 OVC031 M06/M06 A2939 RMK AO2 TSNO 51007 60000 T10551055 11050 21061 UPE07B38 P0000 SLP955 $,PAMB,2015-02-12T05:56:00Z,58.98,-159.05,-5.5,-5.5,40,18,,,29.388779,995.5,,TRUE,TRUE,TRUE,,TRUE,,,UP,BKN,300,BKN,1300,OVC,3100,,,,0.7,-5.0,-6.1,,,0.0050,,0.0050,,,,METAR,16.0
PALG 120556Z AUTO VRB06KT BKN046 M13/M18 RMK AO2 PWINO TSNO 5//// T11271183 11127 21138 SLPNO $,PALG,2015-02-12T05:56:00Z,61.53,-160.33,-12.7,-18.3,0,6,,,,,,TRUE,TRUE,TRUE,,TRUE,,TRUE,,BKN,4600,,,,,,,,,-12.7,-13.8,,,,,,,,,METAR,17.0
PAMK 120556Z AUTO 04014KT 10SM CLR M15/M18 A2968 RMK AO2 TSNO 53003 T11501183 11150 21155 SLP058 $,PAMK,2015-02-12T05:56:00Z,63.48,-162.12,-15.0,-18.3,40,14,,10.0,29.681103,1005.8,,TRUE,TRUE,TRUE,,TRUE,,,,CLR,,,,,,,,VFR,0.3,-15.0,-15.5,,,,,,,,,METAR,28.0
PAMO 120556Z AUTO 36008KT 10SM CLR M15/M18 A2962 RMK AO2 TSNO 53007 T11501183 11138 21155 SLP918 $,PAMO,2015-02-12T05:56:00Z,62.1,-163.68,-15.0,-18.3,360,8,,10.0,29.619095,991.8,,TRUE,TRUE,TRUE,,TRUE,,,,CLR,,,,,,,,VFR,0.7,-13.8,-15.5,,,,,,,,,METAR,103.0
PANA 120556Z AUTO 04010G16KT 7SM -SN OVC018 M14/M16 A2949 RMK AO2 SLP987 P0000 60000 T11391161 11133 21139 53003 FZRANO,PANA,2015-02-12T05:56:00Z,60.68,-161.98,-13.9,-16.1,40,10,16,7.0,29.489174,998.7,,TRUE,TRUE,,,,TRUE,,-SN,OVC,1800,,,,,,,MVFR,0.3,-13.3,-13.9,,,0.0050,,0.0050,,,,METAR,5.0
PAOH 120556Z AUTO 00000KT 5SM -RA BR FEW004 OVC008 01/01 A2981 RMK AO2 TSNO 51005 60001 T00110011 10033 20011 P0000 SLP097 $,PAOH,2015-02-12T05:56:00Z,58.1,-135.45,1.1,1.1,0,0,,5.0,29.811024,1009.7,,TRUE,TRUE,TRUE,,TRUE,,,-RA BR,FEW,400,OVC,800,,,,,IFR,0.5,3.3,1.1,,,0.0050,,0.01,,,,METAR,9.0
PAOO 120556Z AUTO 35019G25KT BKN045 M14/M18 A2956 RMK AO2 TSNO 53003 T11381177 11133 21150 PK WND 35029/0512 SLP012 $,PAOO,2015-02-12T05:56:00Z,60.53,-165.12,-13.8,-17.7,350,19,25,,29.56004,1001.2,,TRUE,TRUE,TRUE,,TRUE,,,,BKN,4500,,,,,,,,0.3,-13.3,-15.0,,,,,,,,,METAR,18.0
PAOU 120556Z AUTO 00000KT 10SM FEW060 01/01 A2924 RMK AO2 TSNO 53012 T00110011 10016 20005 SLP905 $,PAOU,2015-02-12T05:56:00Z,56.0,-161.17,1.1,1.1,0,0,,10.0,29.241142,990.5,,TRUE,TRUE,TRUE,,TRUE,,,,FEW,6000,,,,,,,VFR,1.2,1.6,0.5,,,,,,,,,METAR,4.0
PAPM 120556Z AUTO 34009KT 2 1/2SM -SN BR OVC004 M06/M07 A2940 RMK AO2 TSNO 51006 60001 T10551066 11055 21083 P0001 SLP954 $,PAPM,2015-02-12T05:56:00Z,59.02,-161.82,-5.5,-6.6,340,9,,2.5,29.40059,995.4,,TRUE,TRUE,TRUE,,TRUE,,,-SN BR,OVC,400,,,,,,,LIFR,0.6,-5.5,-8.3,,,0.01,,0.01,,,,METAR,5.0
PAPN 120556Z AUTO 11014KT 10SM FEW060 A2936 RMK AO2 PWINO TSNO 51010 SLPNO $,PAPN,2015-02-12T05:56:00Z,57.58,-157.57,,,110,14,,10.0,29.359253,,,TRUE,TRUE,TRUE,,TRUE,,TRUE,,FEW,6000,,,,,,,VFR,1.0,,,,,,,,,,,METAR,18.0
PAQH 120556Z AUTO 36011KT 6SM -SN BR OVC034 M11/M13 A2944 RMK AO2 SLP970 P0000 60000 T11111128 11111 21122 51006 FZRANO,PAQH,2015-02-12T05:56:00Z,59.75,-161.85,-11.1,-12.8,360,11,,6.0,29.438976,997.0,,TRUE,TRUE,,,,TRUE,,-SN BR,OVC,3400,,,,,,,VFR,0.6,-11.1,-12.2,,,0.0050,,0.0050,,,,METAR,13.0
KAQV 120556Z AUTO 00000KT 10SM CLR 09/07 A3016 RMK AO2 SLP211 T00890067 10189 20089 402500033 51012,KAQV,2015-02-12T05:56:00Z,31.4,-93.3,8.9,6.7,0,0,,10.0,30.159449,1021.1,,TRUE,TRUE,,,,,,,CLR,,,,,,,,VFR,1.2,18.9,8.9,25.0,3.3,,,,,,,METAR,111.0
KPRN 120556Z AUTO 33005KT 10SM CLR 08/01 A3007 RMK AO2 SLP181 T00780006 10150 20050 401941022 56003,KPRN,2015-02-12T05:56:00Z,31.85,-86.62,7.8,0.6,330,5,,10.0,30.070866,1018.1,,TRUE,TRUE,,,,,,,CLR,,,,,,,,VFR,-0.3,15.0,5.0,19.4,-2.2,,,,,,,METAR,138.0
PARS 120556Z AUTO 05011G15KT 2SM -SN BR BKN003 OVC012 M14/M17 A2959 RMK AO2 TSNO 51004 60000 T11441166 11133 21144 P0000 SLP025 $,PARS,2015-02-12T05:56:00Z,61.77,-161.32,-14.4,-16.6,50,11,15,2.0,29.589567,1002.5,,TRUE,TRUE,TRUE,,TRUE,,,-SN BR,BKN,300,OVC,1200,,,,,LIFR,0.4,-13.3,-14.4,,,0.0050,,0.0050,,,,METAR,16.0
PARY 120556Z AUTO 10SM FEW085 OVC110 M16/M21 A2971 RMK AO2 TSNO 53006 T11611211 11150 21161 SLP081 $,PARY,2015-02-12T05:56:00Z,64.73,-155.47,-16.1,-21.1,,,,10.0,29.71063,1008.1,,TRUE,TRUE,TRUE,,TRUE,,,,FEW,8500,OVC,11000,,,,,VFR,0.6,-15.0,-16.1,,,,,,,,,METAR,199.0
PATQ 120556Z AUTO 07011KT 4SM HZ CLR M34/ A3026 RMK AO2 TSNO 58002 T1344 11333 21350 SLP258 $,PATQ,2015-02-12T05:56:00Z,70.47,-157.43,-34.4,,70,11,,4.0,30.259842,1025.8,,TRUE,TRUE,TRUE,,TRUE,,,HZ,CLR,,,,,,,,MVFR,-0.2,-33.3,-35.0,,,,,,,,,METAR,29.0
PAVC 120556Z AUTO 08009KT 10SM -RA OVC010 04/03 A2920 RMK AO2 TSNO 51015 60005 T00440033 10055 20038 CIG 007V012 P0002 SLP891 $,PAVC,2015-02-12T05:56:00Z,55.12,-162.27,4.4,3.3,80,9,,10.0,29.199802,989.1,,TRUE,TRUE,TRUE,,TRUE,,,-RA,OVC,1000,,,,,,,MVFR,1.5,5.5,3.8,,,0.02,,0.05,,,,METAR,47.0
PFCL 120556Z AUTO 04013G20KT 9SM -SN OVC029 M06/M07 A2944 RMK AO2 SLP973 P0000 60000 T10561067 11050 21056 51009 FZRANO,PFCL,2015-02-12T05:56:00Z,58.83,-158.53,-5.6,-6.7,40,13,20,9.0,29.438976,997.3,,TRUE,TRUE,,,,TRUE,,-SN,OVC,2900,,,,,,,MVFR,0.9,-5.0,-5.6,,,0.0050,,0.0050,,,,METAR,24.0
PFKW 120556Z AUTO 03011KT 5SM -SN BR OVC026 M13/M15 A2949 RMK AO2 SLP986 P0000 60000 T11281150 11122 21128 53004 FZRANO,PFKW,2015-02-12T05:56:00Z,60.8,-161.43,-12.8,-15.0,30,11,,5.0,29.489174,998.6,,TRUE,TRUE,,,,TRUE,,-SN BR,OVC,2600,,,,,,,MVFR,0.4,-12.2,-12.8,,,0.0050,,0.0050,,,,METAR,8.0
PPIT 120556Z AUTO 04022G26KT 5SM -SN BR OVC042 M14/M16 A2954 RMK AO2 PK WND 04028/0528 SLP003 P0000 60000 T11391161 11139 21144 53004 FZRANO,PPIT,2015-02-12T05:56:00Z,60.9,-162.43,-13.9,-16.1,40,22,26,5.0,29.53937,1000.3,,TRUE,TRUE,,,,TRUE,,-SN BR,OVC,4200,,,,,,,MVFR,0.4,-13.9,-14.4,,,0.0050,,0.0050,,,,METAR,4.0
PPIZ 120556Z AUTO 00000KT CLR M30/M33 A3014 RMK AO2 TSNO 53012 60000 T13001333 11283 21305 SNE43 P0000 SLP209 $,PPIZ,2015-02-12T05:56:00Z,69.73,-163.0,-30.0,-33.3,0,0,,,30.138779,1020.9,,TRUE,TRUE,TRUE,,TRUE,,,,CLR,,,,,,,,,1.2,-28.3,-30.5,,,0.0050,,0.0050,,,,METAR,8.0
KSBP 120556Z AUTO 12005KT 10SM CLR 12/08 A3010 RMK AO2 SLP193 T01220083 10233 20122 51010,KSBP,2015-02-12T05:56:00Z,35.23,-120.63,12.2,8.3,120,5,,10.0,30.100393,1019.3,,TRUE,TRUE,,,,,,,CLR,,,,,,,,VFR,1.0,23.3,12.2,,,,,,,,,METAR,59.0
KSDF 120556Z COR 30011KT 8SM BKN028 OVC030 01/M05 A3012 RMK AO2 SLP201 T00061050 10061 20006 53006,KSDF,2015-02-12T05:56:00Z,38.18,-85.73,0.6,-5.0,300,11,,8.0,30.121063,1020.1,TRUE,,TRUE,,,,,,,BKN,2800,OVC,3000,,,,,MVFR,0.6,6.1,0.6,,,,,,,,,METAR,146.0
KMQJ 120556Z AUTO 27018G21KT 10SM BKN023 M03/M10 A3007 RMK AO1,KMQJ,2015-02-12T05:56:00Z,39.85,-85.9,-3.0,-10.0,270,18,21,10.0,30.070866,,,TRUE,TRUE,,,,,,,BKN,2300,,,,,,,MVFR,,,,,,,,,,,,METAR,263.0
KSFO 120556Z 16004KT 10SM BKN180 15/11 A3018 RMK AO2 SLP220 T01500111 10189 20150 51011,KSFO,2015-02-12T05:56:00Z,37.62,-122.37,15.0,11.1,160,4,,10.0,30.180119,1022.0,,,TRUE,,,,,,,BKN,18000,,,,,,,VFR,1.1,18.9,15.0,,,,,,,,,METAR,3.0
KSGH 120556Z AUTO 28012KT 8SM OVC012 M01/M02 A2998 RMK AO2 56005 60000 T10111022 10011 21011 SLP161,KSGH,2015-02-12T05:56:00Z,39.83,-83.83,-1.1,-2.2,280,12,,8.0,29.97933,1016.1,,TRUE,TRUE,,,,,,,OVC,1200,,,,,,,MVFR,-0.5,1.1,-1.1,,,,,0.0050,,,,METAR,321.0
KSHV 120556Z 00000KT 10SM CLR 09/05 A3020 RMK AO2 SLP225 T00940050 10172 20094 402110044 51015,KSHV,2015-02-12T05:56:00Z,32.45,-93.83,9.4,5.0,0,0,,10.0,30.200787,1022.5,,,TRUE,,,,,,,CLR,,,,,,,,VFR,1.5,17.2,9.4,21.1,4.4,,,,,,,METAR,83.0
KSLE 120556Z AUTO 00000KT 7SM FEW120 07/06 A3022 RMK AO2 SLP235 T00720056 10122 20067 51008,KSLE,2015-02-12T05:56:00Z,44.9,-123.0,7.2,5.6,0,0,,7.0,30.221457,1023.5,,TRUE,TRUE,,,,,,,FEW,12000,,,,,,,VFR,0.8,12.2,6.7,,,,,,,,,METAR,59.0
KTPH 120556Z AUTO 01008KT 10SM CLR 03/M11 A3038 RMK AO2 SLP279 T00331111 10150 20033 51005,KTPH,2015-02-12T05:56:00Z,38.05,-117.08,3.3,-11.1,10,8,,10.0,30.380905,1027.9,,TRUE,TRUE,,,,,,,CLR,,,,,,,,VFR,0.5,15.0,3.3,,,,,,,,,METAR,1652.0
KUCP 120556Z AUTO 27008KT 2SM -SN BR BKN013 OVC020 M01/M02 A2986 RMK AO2 56010 60000 T10111016 10005 21011 FZRAE07SNB18 P0000 SLP137,KUCP,2015-02-12T05:56:00Z,41.03,-80.42,-1.1,-1.6,270,8,,2.0,29.861221,1013.7,,TRUE,TRUE,,,,,,-SN BR,BKN,1300,OVC,2000,,,,,IFR,-1.0,0.5,-1.1,,,0.0050,,0.0050,,,,METAR,327.0
KUKI 120556Z AUTO 00000KT 10SM CLR 09/07 A3021 RMK AO2 SLP229 T00940072 10194 20094 53009,KUKI,2015-02-12T05:56:00Z,39.12,-123.2,9.4,7.2,0,0,,10.0,30.209646,1022.9,,TRUE,TRUE,,,,,,,CLR,,,,,,,,VFR,0.9,19.4,9.4,,,,,,,,,METAR,187.0
KVPZ 120556Z AUTO 31008G17KT 10SM OVC032 M05/M11 A3007 RMK AO2 SLP191 T10501111 11006 21050 400171050 50004 TSNO,KVPZ,2015-02-12T05:56:00Z,41.45,-87.0,-5.0,-11.1,310,8,17,10.0,30.070866,1019.1,,TRUE,TRUE,,,TRUE,,,,OVC,3200,,,,,,,VFR,0.4,-0.6,-5.0,1.7,-5.0,,,,,,,METAR,231.0
KWJF 120556Z AUTO 00000KT 10SM CLR 06/M04 A3026 RMK AO2 SLP251 T00561039 10206 20056 51013,KWJF,2015-02-12T05:56:00Z,34.72,-118.22,5.6,-3.9,0,0,,10.0,30.259842,1025.1,,TRUE,TRUE,,,,,,,CLR,,,,,,,,VFR,1.3,20.6,5.6,,,,,,,,,METAR,715.0
KY50 120556Z AUTO 35015G18KT 10SM BKN038 M11/M18 A3020 RMK AO2 TSNO 53024 T11111183 11066 21111 410111111 SLP240,KY50,2015-02-12T05:56:00Z,44.03,-89.3,-11.1,-18.3,350,15,18,10.0,30.200787,1024.0,,TRUE,TRUE,,,TRUE,,,,BKN,3800,,,,,,,VFR,2.4,-6.6,-11.1,-1.1,-11.1,,,,,,,METAR,262.0
PAHX 120556Z AUTO 04013KT 10SM OVC075 M16/M21 A2966 RMK AO2 SLP045 T11561211 11139 21156 50002 FZRANO,PAHX,2015-02-12T05:56:00Z,62.7,-159.57,-15.6,-21.1,40,13,,10.0,29.660433,1004.5,,TRUE,TRUE,,,,TRUE,,,OVC,7500,,,,,,,VFR,0.2,-13.9,-15.6,,,,,,,,,METAR,24.0
KISP 120556Z AUTO 00000KT 10SM FEW120 M07/M11 A2989 RMK AO2 SLP124 T10721106 11033 21072 58016,KISP,2015-02-12T05:56:00Z,40.8,-73.1,-7.2,-10.6,0,0,,10.0,29.890747,1012.4,,TRUE,TRUE,,,,,,,FEW,12000,,,,,,,VFR,-1.6,-3.3,-7.2,,,,,,,,,METAR,43.0
KITH 120556Z AUTO 17006KT 10SM OVC022 M01/M03 A2975 RMK AO2 58017 60000 T10111033 11005 21016 SNB0459E24 P0000 SLP087,KITH,2015-02-12T05:56:00Z,42.47,-76.45,-1.1,-3.3,170,6,,10.0,29.749016,1008.7,,TRUE,TRUE,,,,,,,OVC,2200,,,,,,,MVFR,-1.7,-0.5,-1.6,,,0.0050,,0.0050,,,,METAR,335.0
KJAX 120556Z 20003KT 10SM CLR 07/07 A3004 RMK AO2 SLP173 T00720067 10117 20056 58007,KJAX,2015-02-12T05:56:00Z,30.5,-81.68,7.2,6.7,200,3,,10.0,30.041338,1017.3,,,TRUE,,,,,,,CLR,,,,,,,,VFR,-0.7,11.7,5.6,,,,,,,,,METAR,10.0
KART 120556Z AUTO 21010KT 2 1/2SM -FZRA BR OVC009 M01/M03 A2972 RMK AO2 UPB52E54FZRAB54SNB04E33B40E41 CIG 007V014 SLP073 P0000 60003 I1001 I6001 T10111028 11011 21044 56023,KART,2015-02-12T05:56:00Z,43.98,-76.03,-1.1,-2.8,210,10,,2.5,29.719488,1007.3,,TRUE,TRUE,,,,,,-FZRA BR,OVC,900,,,,,,,IFR,-2.3,-1.1,-4.4,,,0.0050,,0.03,,,,METAR,100.0
PAHP 120556Z AUTO 06019KT 10SM BKN070 M14/M19 A2965 RMK AO1 11120 21140 54000,PAHP,2015-02-12T05:56:00Z,61.53,-166.15,-14.0,-19.0,60,19,,10.0,29.648623,,,TRUE,TRUE,,,,,,,BKN,7000,,,,,,,VFR,,-12.0,-14.0,,,,,,,,,METAR,5.0
PAGL 120556Z AUTO 01006KT 10SM OVC080 M13/M22 A2977 RMK AO1 11110 21130 52003,PAGL,2015-02-12T05:56:00Z,64.55,-163.03,-13.0,-22.0,10,6,,10.0,29.769686,,,TRUE,TRUE,,,,,,,OVC,8000,,,,,,,VFR,0.3,-11.0,-13.0,,,,,,,,,METAR,8.0
PADK 120556Z AUTO 02016G26KT 10SM OVC037 01/M08 A2971 RMK AO1 10020 20010 52014,PADK,2015-02-12T05:56:00Z,51.88,-176.65,1.0,-8.0,20,16,26,10.0,29.71063,,,TRUE,TRUE,,,,,,,OVC,3700,,,,,,,VFR,1.4,2.0,1.0,,,,,,,,,METAR,4.0
PAAK 120556Z 34021G29KT 9SM BKN025 OVC029 00/M06 A2953 RMK AO1 10010 20000 52010,PAAK,2015-02-12T05:56:00Z,52.22,-174.2,0.0,-6.0,340,21,29,9.0,29.530512,,,,TRUE,,,,,,,BKN,2500,OVC,2900,,,,,MVFR,1.0,1.0,0.0,,,,,,,,,METAR,17.0
KWMC 120556Z AUTO 15005KT 10SM CLR 02/M01 A3035 RMK AO2 SLP279 T00171011 10122 20011 51009,KWMC,2015-02-12T05:56:00Z,40.9,-117.8,1.7,-1.1,150,5,,10.0,30.351377,1027.9,,TRUE,TRUE,,,,,,,CLR,,,,,,,,VFR,0.9,12.2,1.1,,,,,,,,,METAR,1310.0
KSRC 120556Z AUTO 36009KT 10SM CLR 04/M03 A3029 RMK AO2 SLP265 T00391028 10133 20039 51022 TSNO,KSRC,2015-02-12T05:56:00Z,35.22,-91.73,3.9,-2.8,360,9,,10.0,30.28937,1026.5,,TRUE,TRUE,,,TRUE,,,,CLR,,,,,,,,VFR,2.2,13.3,3.9,,,,,,,,,METAR,80.0
KJXN 120556Z 29009KT 2SM -SN OVC017 M04/M07 A2992 RMK AO2 SLP142 P0000 60000 T10391067 11017 21039 55001,KJXN,2015-02-12T05:56:00Z,42.27,-84.47,-3.9,-6.7,290,9,,2.0,29.920275,1014.2,,,TRUE,,,,,,-SN,OVC,1700,,,,,,,IFR,-0.1,-1.7,-3.9,,,0.0050,,0.0050,,,,METAR,305.0
KQFS 120556Z AUTO 28009G22KT 9999 M 05/M15 A2983 RMK AO2 LTG DSNT S SLPNO T00511149 10054 20014 57016 $,KQFS,2015-02-12T05:56:00Z,100.65,-1000.65,5.1,-14.9,280,9,22,6.21,29.828741,,,TRUE,TRUE,TRUE,,,,,,,,,,,,,,,-1.6,5.4,1.4,,,,,,,,,METAR,999.0
KLNR 120556Z AUTO 32014G19KT 3SM -SN OVC036 M10/M14 A3023 RMK AO2 SNB18 SLP244 P0000 60000 T11001144 11061 21100 400061100 53018,KLNR,2015-02-12T05:56:00Z,43.22,-90.18,-10.0,-14.4,320,14,19,3.0,30.230314,1024.4,,TRUE,TRUE,,,,,,-SN,OVC,3600,,,,,,,MVFR,1.8,-6.1,-10.0,0.6,-10.0,0.0050,,0.0050,,,,METAR,217.0
KLAS 120556Z 19008KT 10SM SCT250 14/M04 A3024 RMK AO2 SLP232 T01391039 10217 20139 51011,KLAS,2015-02-12T05:56:00Z,36.07,-115.17,13.9,-3.9,190,8,,10.0,30.239174,1023.2,,,TRUE,,,,,,,SCT,25000,,,,,,,VFR,1.1,21.7,13.9,,,,,,,,,METAR,636.0
KAUM 120556Z AUTO 33015G21KT 10SM CLR M17/M21 A3039 RMK AO2,KAUM,2015-02-12T05:56:00Z,43.67,-92.92,-17.0,-21.0,330,15,21,10.0,30.389763,,,TRUE,TRUE,,,,,,,CLR,,,,,,,,VFR,,,,,,,,,,,,METAR,375.0
KLRD 120556Z AUTO 09008KT 10SM SCT060 17/14 A3015 RMK AO2 51033 T01720138 10250 20172 402720122 SLP200,KLRD,2015-02-12T05:56:00Z,27.55,-99.47,17.2,13.8,90,8,,10.0,30.15059,1020.0,,TRUE,TRUE,,,,,,,SCT,6000,,,,,,,VFR,3.3,25.0,17.2,27.2,12.2,,,,,,,METAR,155.0
KM19 120556Z AUTO 34010KT 10SM CLR 01/M03 A3028 RMK AO2 50009 T00111027 10105 20011 401441027 SLP255,KM19,2015-02-12T05:56:00Z,35.65,-91.17,1.1,-2.7,340,10,,10.0,30.280512,1025.5,,TRUE,TRUE,,,,,,,CLR,,,,,,,,VFR,0.9,10.5,1.1,14.4,-2.7,,,,,,,METAR,73.0
KMDT 120556Z 00000KT 10SM BKN040 OVC050 M01/M06 A2986 RMK AO2 SLP117 60000 T10061061 10000 21022 58015,KMDT,2015-02-12T05:56:00Z,40.2,-76.77,-0.6,-6.1,0,0,,10.0,29.861221,1011.7,,,TRUE,,,,,,,BKN,4000,OVC,5000,,,,,VFR,-1.5,0.0,-2.2,,,,,0.0050,,,,METAR,95.0
KMOB 120556Z AUTO 27004KT 10SM CLR 07/06 A3010 RMK AO2 SLP192 T00720056 10133 20056 401941006 58002,KMOB,2015-02-12T05:56:00Z,30.68,-88.25,7.2,5.6,270,4,,10.0,30.100393,1019.2,,TRUE,TRUE,,,,,,,CLR,,,,,,,,VFR,-0.2,13.3,5.6,19.4,-0.6,,,,,,,METAR,63.0
KMQY 120556Z AUTO 33010KT 10SM OVC043 04/00 A3013 RMK AO2 50006 T00440000 10094 20000 401161066 SLP215,KMQY,2015-02-12T05:56:00Z,36.02,-86.52,4.4,0.0,330,10,,10.0,30.129921,1021.5,,TRUE,TRUE,,,,,,,OVC,4300,,,,,,,VFR,0.6,9.4,0.0,11.6,-6.6,,,,,,,METAR,166.0
KMTW 120556Z AUTO 35017KT 6SM -SN OVC043 M11/M14 A3014 RMK AO2 PK WND 34026/0544 SNB10 SLP233 P0000 6//// T11061144 11044 21106 400001106 51021 FZRANO,KMTW,2015-02-12T05:56:00Z,44.12,-87.67,-10.6,-14.4,350,17,,6.0,30.138779,1023.3,,TRUE,TRUE,,,,TRUE,,-SN,OVC,4300,,,,,,,VFR,2.1,-4.4,-10.6,,-10.6,0.0050,,,,,,METAR,198.0
KLWS 120556Z 08003KT 10SM BKN120 10/06 A3025 RMK AO2 SLP248 T01000056 10128 20083 58001,KLWS,2015-02-12T05:56:00Z,46.37,-117.02,10.0,5.6,80,3,,10.0,30.250984,1024.8,,,TRUE,,,,,,,BKN,12000,,,,,,,VFR,-0.1,12.8,8.3,,,,,,,,,METAR,438.0
KOWB 120556Z AUTO 31012KT 10SM OVC024 00/M05 A3018 RMK AO2 TSNO 53003 T00001050 10050 20000 401051033 SLP224,KOWB,2015-02-12T05:56:00Z,37.72,-87.17,0.0,-5.0,310,12,,10.0,30.180119,1022.4,,TRUE,TRUE,,,TRUE,,,,OVC,2400,,,,,,,MVFR,0.3,5.0,0.0,10.5,-3.3,,,,,,,METAR,124.0
KOSU 120556Z AUTO 32006KT 3SM -FZRA BR SCT008 BKN013 OVC019 M01/M02 A2994 RMK AO2 P0000 I1000 T10061017,KOSU,2015-02-12T05:56:00Z,40.08,-83.08,-0.6,-1.7,320,6,,3.0,29.940945,,,TRUE,TRUE,,,,,,-FZRA BR,SCT,800,BKN,1300,OVC,1900,,,MVFR,,,,,,0.0050,,,,,,METAR,280.0
KOFK 120556Z AUTO 34018G27KT 10SM CLR M12/M18 A3055 RMK AO2 PK WND 35031/0524 UPE05 SLP375 P0000 60000 T11171178 10000 21117 400171117 51035,KOFK,2015-02-12T05:56:00Z,41.98,-97.43,-11.7,-17.8,340,18,27,10.0,30.549213,1037.5,,TRUE,TRUE,,,,,,,CLR,,,,,,,,VFR,3.5,0.0,-11.7,1.7,-11.7,0.0050,,0.0050,,,,METAR,470.0
KNUQ 120556Z 28004KT 10SM CLR 14/08 A3019 RMK AO2 SLP226 T01440083 10194 20144 51013,KNUQ,2015-02-12T05:56:00Z,37.4,-122.05,14.4,8.3,280,4,,10.0,30.188976,1022.6,,,TRUE,,,,,,,CLR,,,,,,,,VFR,1.3,19.4,14.4,,,,,,,,,METAR,12.0
KRDM 120556Z AUTO 00000KT 10SM CLR 04/00 A3025 RMK AO2 SLP252 T00390000 10156 20022 53006,KRDM,2015-02-12T05:56:00Z,44.25,-121.15,3.9,0.0,0,0,,10.0,30.250984,1025.2,,TRUE,TRUE,,,,,,,CLR,,,,,,,,VFR,0.6,15.6,2.2,,,,,,,,,METAR,938.0
TJSJ 120556Z 00000KT 10SM SCT050 26/22 A2992 RMK AO2 SLP129 T02560217 10283 20250 58008,TJSJ,2015-02-12T05:56:00Z,18.43,-66.02,25.6,21.7,0,0,,10.0,29.920275,1012.9,,,TRUE,,,,,,,SCT,5000,,,,,,,VFR,-0.8,28.3,25.0,,,,,,,,,METAR,21.0
PFWS 120556Z AUTO 04008KT 10SM BKN100 M04/M04 A2944 RMK AO2 SLP976 60000 T10391044 11028 21039 51009 FZRANO,PFWS,2015-02-12T05:56:00Z,58.7,-157.0,-3.9,-4.4,40,8,,10.0,29.438976,997.6,,TRUE,TRUE,,,,TRUE,,,BKN,10000,,,,,,,VFR,0.9,-2.8,-3.9,,,,,0.0050,,,,METAR,49.0
KDIK 120556Z AUTO 12009KT 10SM CLR M17/M20 A3050 RMK AO2 SLP388 T11721200 11122 21172 58004,KDIK,2015-02-12T05:56:00Z,46.8,-102.8,-17.2,-20.0,120,9,,10.0,30.499016,1038.8,,TRUE,TRUE,,,,,,,CLR,,,,,,,,VFR,-0.4,-12.2,-17.2,,,,,,,,,METAR,788.0
KETH 120556Z AUTO 33010KT 10SM CLR M22/M24 A3067 RMK AO2,KETH,2015-02-12T05:56:00Z,45.78,-96.55,-22.0,-24.0,330,10,,10.0,30.670275,,,TRUE,TRUE,,,,,,,CLR,,,,,,,,VFR,,,,,,,,,,,,METAR,313.0
KJMS 120556Z AUTO 34006KT 10SM CLR M22/M25 A3067 RMK AO2 SLP431 T12171250 11172 21228 411061228 53014,KJMS,2015-02-12T05:56:00Z,46.93,-98.67,-21.7,-25.0,340,6,,10.0,30.670275,1043.1,,TRUE,TRUE,,,,,,,CLR,,,,,,,,VFR,1.4,-17.2,-22.8,-10.6,-22.8,,,,,,,METAR,455.0
PAGM 120556Z AUTO 01023KT 10SM FEW016 M14/M18 A2995 RMK AO1 11140 21140 57007,PAGM,2015-02-12T05:56:00Z,63.77,-171.73,-14.0,-18.0,10,23,,10.0,29.949802,,,TRUE,TRUE,,,,,,,FEW,1600,,,,,,,VFR,-0.7,-14.0,-14.0,,,,,,,,,METAR,8.0
PAFM 120556Z AUTO 03009KT 10SM CLR M24/M32 A2992 RMK AO1 11220 21270 52007,PAFM,2015-02-12T05:56:00Z,67.1,-157.85,-24.0,-32.0,30,9,,10.0,29.920275,,,TRUE,TRUE,,,,,,,CLR,,,,,,,,VFR,0.7,-22.0,-27.0,,,,,,,,,METAR,88.0
PAFE 120556Z AUTO 11003KT 10SM SCT024 OVC030 06/04 A2982 RMK AO1 60003 10060 20060 57003,PAFE,2015-02-12T05:56:00Z,56.97,-133.92,6.0,4.0,110,3,,10.0,29.819881,,,TRUE,TRUE,,,,,,,SCT,2400,OVC,3000,,,,,MVFR,-0.3,6.0,6.0,,,,,0.03,,,,METAR,9.0
PABV 120556Z AUTO 00000KT 10SM BKN075 OVC095 M04/M06 A2961 RMK AO1 10000 21050 52020,PABV,2015-02-12T05:56:00Z,61.42,-149.52,-4.0,-6.0,0,0,,10.0,29.610237,,,TRUE,TRUE,,,,,,,BKN,7500,OVC,9500,,,,,VFR,2.0,0.0,-5.0,,,,,,,,,METAR,29.0
PABL 120556Z AUTO 34007KT 10SM OVC080 M26/M29 A2993 RMK AO1 11240 21260 52003,PABL,2015-02-12T05:56:00Z,65.98,-161.15,-26.0,-29.0,340,7,,10.0,29.929134,,,TRUE,TRUE,,,,,,,OVC,8000,,,,,,,VFR,0.3,-24.0,-26.0,,,,,,,,,METAR,7.0
PAHL 120556Z AUTO 06013KT 020V090 10SM FEW060 OVC075 M15/M24 A2981 RMK AO1 11150 21160 52003,PAHL,2015-02-12T05:56:00Z,65.7,-156.35,-15.0,-24.0,60,13,,10.0,29.811024,,,TRUE,TRUE,,,,,,,FEW,6000,OVC,7500,,,,,VFR,0.3,-15.0,-16.0,,,,,,,,,METAR,65.0
PAHY 120556Z AUTO 10SM SCT026 BKN050 OVC070 08/04 A2974 RMK AO1 P0005 60010 10090 20080 57010,PAHY,2015-02-12T05:56:00Z,55.2,-132.83,8.0,4.0,,,,10.0,29.740158,,,TRUE,TRUE,,,,,,,SCT,2600,BKN,5000,OVC,7000,,,VFR,-1.0,9.0,8.0,,,0.05,,0.1,,,,METAR,1.0
PAII 120556Z AUTO 08005KT 10SM SCT095 00/M01 A2942 RMK AO1 60005 10020 21010 52014,PAII,2015-02-12T05:56:00Z,58.18,-157.38,0.0,-1.0,80,5,,10.0,29.421259,,,TRUE,TRUE,,,,,,,SCT,9500,,,,,,,VFR,1.4,2.0,-1.0,,,,,0.05,,,,METAR,30.0
PAIN 120556Z AUTO 00000KT 10SM FEW049 SCT100 M17/M18 A2959 RMK AO1 11140 21170 52017,PAIN,2015-02-12T05:56:00Z,63.73,-148.92,-17.0,-18.0,0,0,,10.0,29.589567,,,TRUE,TRUE,,,,,,,FEW,4900,SCT,10000,,,,,VFR,1.7,-14.0,-17.0,,,,,,,,,METAR,524.0
PAJC 120556Z AUTO 14008G14KT 9SM SCT021 BKN025 OVC039 06/01 A2932 RMK AO1 P0001 60016 10060 20040 52017,PAJC,2015-02-12T05:56:00Z,56.32,-158.37,6.0,1.0,140,8,14,9.0,29.320866,,,TRUE,TRUE,,,,,,,SCT,2100,BKN,2500,OVC,3900,,,MVFR,1.7,6.0,4.0,,,0.01,,0.16,,,,METAR,15.0
PAJZ 120556Z AUTO 32006KT 8SM -SN FEW002 BKN023 OVC032 M11/M13 A2954 RMK AO2 TSNO 51009 60000 T11051127 11088 21105 P0000 SLP997 $,PAJZ,2015-02-12T05:56:00Z,59.73,-157.27,-10.5,-12.7,320,6,,8.0,29.53937,999.7,,TRUE,TRUE,TRUE,,TRUE,,,-SN,FEW,200,BKN,2300,OVC,3200,,,MVFR,0.9,-8.8,-10.5,,,0.0050,,0.0050,,,,METAR,82.0
PAKK 120556Z AUTO 01014G19KT 330V060 10SM OVC100 A2973 RMK AO1 52007,PAKK,2015-02-12T05:56:00Z,64.93,-161.15,,,10,14,19,10.0,29.731298,,,TRUE,TRUE,,,,,,,OVC,10000,,,,,,,VFR,0.7,,,,,,,,,,,METAR,47.0
KONA 120556Z AUTO 33014G22KT 10SM SCT022 BKN027 OVC034 M12/M17 A3038 RMK AO2,KONA,2015-02-12T05:56:00Z,44.07,-91.7,-12.0,-17.0,330,14,22,10.0,30.380905,,,TRUE,TRUE,,,,,,,SCT,2200,BKN,2700,OVC,3400,,,MVFR,,,,,,,,,,,,METAR,200.0
KLYV 120556Z AUTO 35015G23KT 10SM CLR M15/M20 A3056 RMK AO2,KLYV,2015-02-12T05:56:00Z,43.62,-96.22,-15.0,-20.0,350,15,23,10.0,30.561024,,,TRUE,TRUE,,,,,,,CLR,,,,,,,,VFR,,,,,,,,,,,,METAR,436.0
KNQI 120556Z 04005KT 9SM FEW015 SCT250 15/14 A3013 RMK SLP199 LAST T01500144 10211 20144 402500078 53018,KNQI,2015-02-12T05:56:00Z,27.5,-97.82,15.0,14.4,40,5,,9.0,30.129921,1019.9,,,,,,,,,,FEW,1500,SCT,25000,,,,,VFR,1.8,21.1,14.4,25.0,7.8,,,,,,,METAR,15.0
KPOV 120556Z AUTO 29011G16KT 5SM -SN M02/ A2986 RMK AO2 T1020,KPOV,2015-02-12T05:56:00Z,41.22,-81.25,-2.0,,290,11,16,5.0,29.861221,,,TRUE,TRUE,,,,,,-SN,,,,,,,,,,,,,,,,,,,,,METAR,365.0
KXVG 120556Z AUTO 35004KT 10SM SCT019 M21/M24 A3052 RMK AO2,KXVG,2015-02-12T05:56:00Z,46.98,-94.2,-21.0,-24.0,350,4,,10.0,30.519686,,,TRUE,TRUE,,,,,,,SCT,1900,,,,,,,VFR,,,,,,,,,,,,METAR,407.0
KBDU 120556Z AUTO 22004KT 10SM CLR 03/M02 A3033 RMK AO2,KBDU,2015-02-12T05:56:00Z,40.03,-105.23,3.0,-2.0,220,4,,10.0,30.33071,,,TRUE,TRUE,,,,,,,CLR,,,,,,,,VFR,,,,,,,,,,,,METAR,1612.0
KRYV 120555Z AUTO 33011G16KT 10SM OVC043 M10/M15 A3014 RMK AO2 T11001147 11056 21100 410021100,KRYV,2015-02-12T05:55:00Z,43.17,-88.72,-10.0,-14.7,330,11,16,10.0,30.138779,,,TRUE,TRUE,,,,,,,OVC,4300,,,,,,,VFR,,-5.6,-10.0,-0.2,-10.0,,,,,,,SPECI,254.0
KRCR 120555Z AUTO 27010KT 10SM SCT011 SCT021 BKN037 M02/M05 A3004 RMK AO2,KRCR,2015-02-12T05:55:00Z,41.07,-86.18,-2.0,-5.0,270,10,,10.0,30.041338,,,TRUE,TRUE,,,,,,,SCT,1100,SCT,2100,BKN,3700,,,VFR,,,,,,,,,,,,SPECI,241.0
KSBO 120555Z AUTO 00000KT 10SM CLR 07/06 A3000 RMK AO2,KSBO,2015-02-12T05:55:00Z,32.62,-82.37,7.0,6.0,0,0,,10.0,30.0,,,TRUE,TRUE,,,,,,,CLR,,,,,,,,VFR,,,,,,,,,,,,SPECI,100.0
KC35 120555Z AUTO 32010G15KT 3SM -SN BKN020 BKN027 OVC033 M11/M14 A3021 RMK AO2 T11111140 11068 21111 410051111,KC35,2015-02-12T05:55:00Z,43.53,-89.98,-11.1,-14.0,320,10,15,3.0,30.209646,,,TRUE,TRUE,,,,,,-SN,BKN,2000,BKN,2700,OVC,3300,,,MVFR,,-6.8,-11.1,-0.5,-11.1,,,,,,,SPECI,276.0
KBWP 120555Z AUTO 36011G19KT 10SM OVC010 M20/M24 A3066 RMK AO1,KBWP,2015-02-12T05:55:00Z,46.25,-96.62,-20.0,-24.0,360,11,19,10.0,30.661417,,,TRUE,TRUE,,,,,,,OVC,1000,,,,,,,MVFR,,,,,,,,,,,,SPECI,295.0
KBQP 120555Z AUTO 00000KT 10SM CLR 06/03 A3020 RMK AO2 T00620034 10137 20057 402001004,KBQP,2015-02-12T05:55:00Z,32.75,-91.88,6.2,3.4,0,0,,10.0,30.200787,,,TRUE,TRUE,,,,,,,CLR,,,,,,,,VFR,,13.7,5.7,20.0,-0.4,,,,,,,SPECI,51.0
KBMC 120555Z AUTO 00000KT 10SM CLR 03/M01 A3040 RMK AO1 T00251008 10181 21077,KBMC,2015-02-12T05:55:00Z,41.55,-112.07,2.5,-0.8,0,0,,10.0,30.398623,,,TRUE,TRUE,,,,,,,CLR,,,,,,,,VFR,,18.1,-7.7,,,,,,,,,SPECI,1288.0
KBKD 120555Z AUTO 02011G22KT 10SM BKN065 OVC080 07/M04 A3039 RMK AO2 T00721041 10130 20072 401950072,KBKD,2015-02-12T05:55:00Z,32.72,-98.88,7.2,-4.1,20,11,22,10.0,30.389763,,,TRUE,TRUE,,,,,,,BKN,6500,OVC,8000,,,,,VFR,,13.0,7.2,19.5,7.2,,,,,,,SPECI,392.0
KAZE 120555Z AUTO 00000KT 10SM CLR 08/08 A3000 RMK AO2 T00790079 10328 21054 403281054,KAZE,2015-02-12T05:55:00Z,31.88,-82.65,7.9,7.9,0,0,,10.0,30.0,,,TRUE,TRUE,,,,,,,CLR,,,,,,,,VFR,,32.8,-5.4,32.8,-5.4,,,,,,,SPECI,78.0
KASJ 120555Z AUTO 18003KT 10SM CLR M02/M03 A2996 RMK AO2 T10201033 10014 21022 400611022,KASJ,2015-02-12T05:55:00Z,36.28,-77.17,-2.0,-3.3,180,3,,10.0,29.958662,,,TRUE,TRUE,,,,,,,CLR,,,,,,,,VFR,,1.4,-2.2,6.1,-2.2,,,,,,,SPECI,21.0
KARV 120555Z AUTO 35014G19KT 10SM CLR M16/M19 A3020 RMK AO2 T11561195 11115 21156 410431156,KARV,2015-02-12T05:55:00Z,45.92,-89.72,-15.6,-19.5,350,14,19,10.0,30.200787,,,TRUE,TRUE,,,,,,,CLR,,,,,,,,VFR,,-11.5,-15.6,-4.3,-15.6,,,,,,,SPECI,496.0
KAQR 120555Z AUTO 01008G14KT 10SM BKN060 BKN075 04/M03 A3037 RMK AO2,KAQR,2015-02-12T05:55:00Z,34.4,-96.15,4.0,-3.0,10,8,14,10.0,30.369095,,,TRUE,TRUE,,,,,,,BKN,6000,BKN,7500,,,,,VFR,,,,,,,,,,,,SPECI,189.0
KAFO 120555Z AUTO 00000KT 10SM CLR M05/M06 A3040 RMK AO2,KAFO,2015-02-12T05:55:00Z,42.72,-110.95,-5.0,-6.0,0,0,,10.0,30.398623,,,TRUE,TRUE,,,,,,,CLR,,,,,,,,VFR,,,,,,,,,,,,SPECI,1897.0
KACP 120555Z AUTO 00000KT 7SM SCT015 SCT020 06/05 A3016 RMK AO2 T00600052 10147 20060,KACP,2015-02-12T05:55:00Z,30.75,-92.68,6.0,5.2,0,0,,7.0,30.159449,,,TRUE,TRUE,,,,,,,SCT,1500,SCT,2000,,,,,VFR,,14.7,6.0,,,,,,,,,SPECI,33.0
KACJ 120555Z AUTO 31005KT 10SM CLR 08/02 A3005 RMK AO2,KACJ,2015-02-12T05:55:00Z,32.12,-84.18,8.0,2.0,310,5,,10.0,30.050198,,,TRUE,TRUE,,,,,,,CLR,,,,,,,,VFR,,,,,,,,,,,,SPECI,143.0
K9V9 120555Z AUTO 03009KT 10SM CLR M15/M19 A3064 RMK AO2 T11501194 11055 21150 410151150,K9V9,2015-02-12T05:55:00Z,43.77,-99.32,-15.0,-19.4,30,9,,10.0,30.640747,,,TRUE,TRUE,,,,,,,CLR,,,,,,,,VFR,,-5.5,-15.0,-1.5,-15.0,,,,,,,SPECI,519.0
K8A0 120555Z AUTO 33004KT 10SM CLR 06/01 A3006 RMK AO2,K8A0,2015-02-12T05:55:00Z,34.23,-86.25,6.0,1.0,330,4,,10.0,30.059055,,,TRUE,TRUE,,,,,,,CLR,,,,,,,,VFR,,,,,,,,,,,,SPECI,315.0
K5R8 120555Z AUTO 00000KT 10SM CLR 08/08 A3016 RMK AO2 6//// T00820082,K5R8,2015-02-12T05:55:00Z,30.43,-93.47,8.2,8.2,0,0,,10.0,30.159449,,,TRUE,TRUE,,,,,,,CLR,,,,,,,,VFR,,,,,,,,,,,,SPECI,24.0
K3N8 120555Z AUTO 36008KT 10SM CLR M24/M27 A3061 RMK AO2 T12401266 11202 21240 411051240,K3N8,2015-02-12T05:55:00Z,47.25,-95.88,-24.0,-26.6,360,8,,10.0,30.611221,,,TRUE,TRUE,,,,,,,CLR,,,,,,,,VFR,,-20.2,-24.0,-10.5,-24.0,,,,,,,SPECI,383.0
K3K3 120555Z AUTO 00000KT 10SM CLR M02/M07 A3042 RMK AO2,K3K3,2015-02-12T05:55:00Z,38.0,-101.75,-2.0,-7.0,0,0,,10.0,30.41929,,,TRUE,TRUE,,,,,,,CLR,,,,,,,,VFR,,,,,,,,,,,,METAR,1013.0
K2J9 120555Z AUTO 28004KT 10SM BKN026 OVC065 06/05 A3008 RMK AO1,K2J9,2015-02-12T05:55:00Z,30.6,-84.55,6.0,5.0,280,4,,10.0,30.079725,,,TRUE,TRUE,,,,,,,BKN,2600,OVC,6500,,,,,MVFR,,,,,,,,,,,,SPECI,69.0
K2C8 120555Z AUTO 34007KT 10SM CLR M22/M25 A3072 RMK AO2,K2C8,2015-02-12T05:55:00Z,48.78,-97.63,-22.0,-25.0,340,7,,10.0,30.720472,,,TRUE,TRUE,,,,,,,CLR,,,,,,,,VFR,,,,,,,,,,,,SPECI,272.0
K28J 120555Z AUTO 00000KT 10SM FEW014 04/04 A3008 RMK AO2,K28J,2015-02-12T05:55:00Z,29.65,-81.58,4.0,4.0,0,0,,10.0,30.079725,,,TRUE,TRUE,,,,,,,FEW,1400,,,,,,,VFR,,,,,,,,,,,,SPECI,15.0
K1F0 120555Z AUTO 36006KT 10SM CLR 04/M02 A3038 RMK AO2,K1F0,2015-02-12T05:55:00Z,34.15,-97.12,4.0,-2.0,360,6,,10.0,30.380905,,,TRUE,TRUE,,,,,,,CLR,,,,,,,,VFR,,,,,,,,,,,,SPECI,257.0
KGXA 120555Z AUTO 13007KT 10SM CLR 11/M08 A3025 RMK AO2 SLP244 T01051076 10198 20097 51006 TSNO $,KGXA,2015-02-12T05:55:00Z,34.57,-117.67,10.5,-7.6,130,7,,10.0,30.250984,1024.4,,TRUE,TRUE,TRUE,,TRUE,,,,CLR,,,,,,,,VFR,0.6,19.8,9.7,,,,,,,,,METAR,923.0
KRPH 120555Z AUTO 34010KT 10SM SCT100 05/M02 A3038 RMK AO2 T00521022 10115 20052 401840052,KRPH,2015-02-12T05:55:00Z,33.12,-98.55,5.2,-2.2,340,10,,10.0,30.380905,,,TRUE,TRUE,,,,,,,SCT,10000,,,,,,,VFR,,11.5,5.2,18.4,5.2,,,,,,,METAR,342.0
KRHP 120555Z AUTO 00000KT 10SM CLR M01/M02 A3000 RMK AO2 T10131017 10075 21015 401451030,KRHP,2015-02-12T05:55:00Z,35.18,-83.85,-1.3,-1.7,0,0,,10.0,30.0,,,TRUE,TRUE,,,,,,,CLR,,,,,,,,VFR,,7.5,-1.5,14.5,-3.0,,,,,,,METAR,518.0
KRFI 120555Z AUTO 35008KT 10SM CLR 11/05 A3024 RMK AO2 T01130051 10181 20113 402210075,KRFI,2015-02-12T05:55:00Z,32.15,-94.85,11.3,5.1,350,8,,10.0,30.239174,,,TRUE,TRUE,,,,,,,CLR,,,,,,,,VFR,,18.1,11.3,22.1,7.5,,,,,,,METAR,135.0
KPYX 120555Z AUTO 28007KT 10SM CLR M04/M07 A3043 RMK AO2 T10421070 10055 21045 400601045,KPYX,2015-02-12T05:55:00Z,36.42,-100.75,-4.2,-7.0,280,7,,10.0,30.431103,,,TRUE,TRUE,,,,,,,CLR,,,,,,,,VFR,,5.5,-4.5,6.0,-4.5,,,,,,,METAR,889.0
KPTT 120555Z AUTO 22003KT 10SM CLR M03/M06 A3041 RMK AO2,KPTT,2015-02-12T05:55:00Z,37.7,-98.75,-3.0,-6.0,220,3,,10.0,30.410433,,,TRUE,TRUE,,,,,,,CLR,,,,,,,,VFR,,,,,,,,,,,,METAR,595.0
KPTS 120555Z AUTO 01004KT 10SM CLR M02/M05 A3040 RMK AO2 T10171052,KPTS,2015-02-12T05:55:00Z,37.45,-94.73,-1.7,-5.2,10,4,,10.0,30.398623,,,TRUE,TRUE,,,,,,,CLR,,,,,,,,VFR,,,,,,,,,,,,METAR,290.0
KPSN 120555Z AUTO 35007KT 10SM CLR 11/05 A3025 RMK AO2 T01130053,KPSN,2015-02-12T05:55:00Z,31.78,-95.7,11.3,5.3,350,7,,10.0,30.250984,,,TRUE,TRUE,,,,,,,CLR,,,,,,,,VFR,,,,,,,,,,,,METAR,129.0
KPPQ 120555Z AUTO 31016G23KT 10SM OVC027 M02/M07 A3026 RMK AO2 T10251072 10000 21030 400291030,KPPQ,2015-02-12T05:55:00Z,39.63,-90.78,-2.5,-7.2,310,16,23,10.0,30.259842,,,TRUE,TRUE,,,,,,,OVC,2700,,,,,,,MVFR,,0.0,-3.0,2.9,-3.0,,,,,,,METAR,216.0
KPPO 120555Z AUTO 30010G18KT 10SM -SN OVC033 M04/M09 A3005 RMK AO2 T10361091 10001 21036 400281040,KPPO,2015-02-12T05:55:00Z,41.57,-86.73,-3.6,-9.1,300,10,18,10.0,30.050198,,,TRUE,TRUE,,,,,,-SN,OVC,3300,,,,,,,VFR,,0.1,-3.6,2.8,-4.0,,,,,,,METAR,248.0
KPMV 120555Z AUTO 33024G31KT 10SM BKN025 OVC030 M06/M12 A3048 RMK AO2 T10621119 11011 21062 400321062,KPMV,2015-02-12T05:55:00Z,40.95,-95.92,-6.2,-11.9,330,24,31,10.0,30.481298,,,TRUE,TRUE,,,,,,,BKN,2500,OVC,3000,,,,,MVFR,,-1.1,-6.2,3.2,-6.2,,,,,,,METAR,367.0
KPDC 120555Z AUTO 31011G22KT 5SM HZ BKN023 BKN030 OVC070 M11/M16 A3029 RMK AO2 T11111158 11073 21111 400121111,KPDC,2015-02-12T05:55:00Z,43.02,-91.12,-11.1,-15.8,310,11,22,5.0,30.28937,,,TRUE,TRUE,,,,,,HZ,BKN,2300,BKN,3000,OVC,7000,,,MVFR,,-7.3,-11.1,1.2,-11.1,,,,,,,METAR,201.0
KOPN 120555Z AUTO 32006KT 10SM CLR 11/01 A3002 RMK AO2,KOPN,2015-02-12T05:55:00Z,32.95,-84.27,11.0,1.0,320,6,,10.0,30.02067,,,TRUE,TRUE,,,,,,,CLR,,,,,,,,VFR,,,,,,,,,,,,METAR,243.0
KONP 120555Z AUTO 00000KT 10SM CLR 08/07 A3024 RMK AO2,KONP,2015-02-12T05:55:00Z,44.57,-124.03,8.0,7.0,0,0,,10.0,30.239174,,,TRUE,TRUE,,,,,,,CLR,,,,,,,,VFR,,,,,,,,,,,,METAR,48.0
KOKV 120555Z AUTO 00000KT 7SM OVC046 02/M02 A2986 RMK AO2,KOKV,2015-02-12T05:55:00Z,39.13,-78.15,2.0,-2.0,0,0,,7.0,29.861221,,,TRUE,TRUE,,,,,,,OVC,4600,,,,,,,VFR,,,,,,,,,,,,METAR,222.0
KOCW 120555Z AUTO 00000KT 10SM CLR 00/M02 A2998 RMK AO2 T00001019 10010 21024 400521024,KOCW,2015-02-12T05:55:00Z,35.57,-77.05,0.0,-1.9,0,0,,10.0,29.97933,,,TRUE,TRUE,,,,,,,CLR,,,,,,,,VFR,,1.0,-2.4,5.2,-2.4,,,,,,,METAR,12.0
KF70 120555Z AUTO 36003KT 10SM CLR 12/M02 A3013 RMK AO1,KF70,2015-02-12T05:55:00Z,33.57,-117.13,12.0,-2.0,360,3,,10.0,30.129921,,,TRUE,TRUE,,,,,,,CLR,,,,,,,,VFR,,,,,,,,,,,,METAR,412.0
KF46 120555Z AUTO 35012G17KT 10SM CLR 07/01 A3030 RMK AO2 T00740005 10160 20074 401920074,KF46,2015-02-12T05:55:00Z,32.93,-96.43,7.4,0.5,350,12,17,10.0,30.301182,,,TRUE,TRUE,,,,,,,CLR,,,,,,,,VFR,,16.0,7.4,19.2,7.4,,,,,,,METAR,176.0
KEZS 120555Z AUTO 36011G19KT 10SM BKN039 M11/M19 A3021 RMK AO2 T11141191 11051 21114 410021114,KEZS,2015-02-12T05:55:00Z,44.78,-88.57,-11.4,-19.1,360,11,19,10.0,30.209646,,,TRUE,TRUE,,,,,,,BKN,3900,,,,,,,VFR,,-5.1,-11.4,-0.2,-11.4,,,,,,,METAR,248.0
KEZF 120555Z AUTO 00000KT 10SM SCT060 01/M02 A2990 RMK AO2 T00061018 10044 20006 400901013,KEZF,2015-02-12T05:55:00Z,38.27,-77.45,0.6,-1.8,0,0,,10.0,29.899607,,,TRUE,TRUE,,,,,,,SCT,6000,,,,,,,VFR,,4.4,0.6,9.0,-1.3,,,,,,,METAR,26.0
KEYF 120555Z AUTO 16003KT 7SM CLR 03/02 A2997 RMK AO2 T00250020 10052 20025 401100015,KEYF,2015-02-12T05:55:00Z,34.6,-78.58,2.5,2.0,160,3,,7.0,29.970472,,,TRUE,TRUE,,,,,,,CLR,,,,,,,,VFR,,5.2,2.5,11.0,1.5,,,,,,,METAR,41.0
KEXX 120555Z AUTO 00000KT 10SM CLR 01/00 A2992 RMK AO2 T00061005 10069 20006 401211033,KEXX,2015-02-12T05:55:00Z,35.78,-80.3,0.6,-0.5,0,0,,10.0,29.920275,,,TRUE,TRUE,,,,,,,CLR,,,,,,,,VFR,,6.9,0.6,12.1,-3.3,,,,,,,METAR,223.0
KEOK 120555Z AUTO 34012G18KT 4SM -SN BKN025 OVC029 M04/M08 A3028 RMK AO2,KEOK,2015-02-12T05:55:00Z,40.47,-91.42,-4.0,-8.0,340,12,18,4.0,30.280512,,,TRUE,TRUE,,,,,,-SN,BKN,2500,OVC,2900,,,,,MVFR,,,,,,,,,,,,METAR,205.0
KY51 120555Z AUTO 32015G23KT 2SM BKN020 OVC026 M12/M15 A3022 RMK AO1 T11251147 11095 21125 400001125,KY51,2015-02-12T05:55:00Z,43.58,-90.9,-12.5,-14.7,320,15,23,2.0,30.221457,,,TRUE,TRUE,,,,,,,BKN,2000,OVC,2600,,,,,IFR,,-9.5,-12.5,,-12.5,,,,,,,METAR,394.0
KXLL 120555Z AUTO 19005KT 10SM BKN070 OVC085 M01/M08 A2988 RMK AO2,KXLL,2015-02-12T05:55:00Z,40.57,-75.48,-1.0,-8.0,190,5,,10.0,29.878937,,,TRUE,TRUE,,,,,,,BKN,7000,OVC,8500,,,,,VFR,,,,,,,,,,,,METAR,122.0
KXBP 120555Z AUTO 36009KT 10SM BKN075 06/00 A3039 RMK AO2 T00621001 10143 20062 401870062,KXBP,2015-02-12T05:55:00Z,33.18,-97.83,6.2,-0.1,360,9,,10.0,30.389763,,,TRUE,TRUE,,,,,,,BKN,7500,,,,,,,VFR,,14.3,6.2,18.7,6.2,,,,,,,METAR,260.0
KWDR 120555Z AUTO 28006KT 10SM CLR 09/02 A3000 RMK AO1,KWDR,2015-02-12T05:55:00Z,33.98,-83.67,9.0,2.0,280,6,,10.0,30.0,,,TRUE,TRUE,,,,,,,CLR,,,,,,,,VFR,,,,,,,,,,,,METAR,287.0
KW96 120555Z AUTO 17003KT 10SM CLR M01/M03 A2991 RMK AO1 T10081030 10027 21011,KW96,2015-02-12T05:55:00Z,37.5,-77.12,-0.8,-3.0,170,3,,10.0,29.911417,,,TRUE,TRUE,,,,,,,CLR,,,,,,,,VFR,,2.7,-1.1,,,,,,,,,METAR,37.0
KVES 120555Z AUTO 29016G23KT 10SM -SN OVC013 M01/M02 A2998 RMK AO2,KVES,2015-02-12T05:55:00Z,40.2,-84.53,-1.0,-2.0,290,16,23,10.0,29.97933,,,TRUE,TRUE,,,,,,-SN,OVC,1300,,,,,,,MVFR,,,,,,,,,,,,METAR,307.0
KTQH 120555Z AUTO 35007KT 10SM CLR M01/M05 A3041 RMK AO2,KTQH,2015-02-12T05:55:00Z,35.93,-95.0,-1.0,-5.0,350,7,,10.0,30.410433,,,TRUE,TRUE,,,,,,,CLR,,,,,,,,VFR,,,,,,,,,,,,METAR,266.0
KTOC 120555Z AUTO 24005KT 10SM CLR 04/00 A2995 RMK AO2 T00400000 10116 20040 401661002,KTOC,2015-02-12T05:55:00Z,34.6,-83.3,4.0,0.0,240,5,,10.0,29.949802,,,TRUE,TRUE,,,,,,,CLR,,,,,,,,VFR,,11.6,4.0,16.6,-0.2,,,,,,,METAR,304.0
KTNB 120555Z AUTO 29017G31KT 10SM CLR 02/M04 A2987 RMK AO2 T00221045 10062 20022 401021075,KTNB,2015-02-12T05:55:00Z,36.2,-81.65,2.2,-4.5,290,17,31,10.0,29.870079,,,TRUE,TRUE,,,,,,,CLR,,,,,,,,VFR,,6.2,2.2,10.2,-7.5,,,,,,,METAR,911.0
KTKV 120555Z AUTO 35006G14KT 10SM SCT023 SCT030 M15/M20 A3021 RMK AO2 T11551205 11120 21155 410481155,KTKV,2015-02-12T05:55:00Z,45.47,-89.82,-15.5,-20.5,350,6,14,10.0,30.209646,,,TRUE,TRUE,,,,,,,SCT,2300,SCT,3000,,,,,VFR,,-12.0,-15.5,-4.8,-15.5,,,,,,,METAR,453.0
KTIP 120555Z AUTO 31016G22KT 10SM CLR M06/M10 A3016 RMK AO2 T10581100 11007 21058 400301058,KTIP,2015-02-12T05:55:00Z,40.28,-88.15,-5.8,-10.0,310,16,22,10.0,30.159449,,,TRUE,TRUE,,,,,,,CLR,,,,,,,,VFR,,-0.7,-5.8,3.0,-5.8,,,,,,,METAR,225.0
KT82 120555Z AUTO 04013G19KT 10SM CLR 12/06 A3023 RMK AO2 T01230062 10201 20098 402260028,KT82,2015-02-12T05:55:00Z,30.25,-98.92,12.3,6.2,40,13,19,10.0,30.230314,,,TRUE,TRUE,,,,,,,CLR,,,,,,,,VFR,,20.1,9.8,22.6,2.8,,,,,,,METAR,517.0
KT20 120555Z AUTO 00000KT 10SM CLR 14/13 A3017 RMK AO2 T01430130 10224 20138 402460127,KT20,2015-02-12T05:55:00Z,29.52,-97.47,14.3,13.0,0,0,,10.0,30.171259,,,TRUE,TRUE,,,,,,,CLR,,,,,,,,VFR,,22.4,13.8,24.6,12.7,,,,,,,METAR,108.0
KSLR 120555Z AUTO 35012KT 10SM CLR 08/01 A3032 RMK AO2 T00760010 10157 20076 401820062,KSLR,2015-02-12T05:55:00Z,33.17,-95.62,7.6,1.0,350,12,,10.0,30.318897,,,TRUE,TRUE,,,,,,,CLR,,,,,,,,VFR,,15.7,7.6,18.2,6.2,,,,,,,METAR,149.0
KSIF 120555Z AUTO 24003KT 10SM CLR M02/M03 A2991 RMK AO2 T10161026 10032 21016 401151054,KSIF,2015-02-12T05:55:00Z,36.43,-79.85,-1.6,-2.6,240,3,,10.0,29.911417,,,TRUE,TRUE,,,,,,,CLR,,,,,,,,VFR,,3.2,-1.6,11.5,-5.4,,,,,,,METAR,211.0
KSHD 120555Z AUTO 00000KT 7SM OVC050 01/M02 A2987 RMK AO2 T00101016 10046 20001 400861006,KSHD,2015-02-12T05:55:00Z,38.27,-78.9,1.0,-1.6,0,0,,7.0,29.870079,,,TRUE,TRUE,,,,,,,OVC,5000,,,,,,,VFR,,4.6,0.1,8.6,-0.6,,,,,,,METAR,366.0
KSFY 120555Z AUTO 30010G20KT 5SM -SN SCT028 BKN039 OVC060 M09/M13 A3023 RMK AO2 T10921135 11048 21092 400121092,KSFY,2015-02-12T05:55:00Z,42.05,-90.12,-9.2,-13.5,300,10,20,5.0,30.230314,,,TRUE,TRUE,,,,,,-SN,SCT,2800,BKN,3900,OVC,6000,,,MVFR,,-4.8,-9.2,1.2,-9.2,,,,,,,METAR,188.0
KSEP 120555Z AUTO 36014G21KT 10SM OVC065 08/01 A3035 RMK AO2 T00810010 10161 20081 402310081,KSEP,2015-02-12T05:55:00Z,32.22,-98.17,8.1,1.0,360,14,21,10.0,30.351377,,,TRUE,TRUE,,,,,,,OVC,6500,,,,,,,VFR,,16.1,8.1,23.1,8.1,,,,,,,METAR,402.0
KRPJ 120555Z AUTO 30011KT 10SM OVC065 M09/M13 A3017 RMK AO2 T10951132 11056 21097 400031097,KRPJ,2015-02-12T05:55:00Z,41.88,-89.08,-9.5,-13.2,300,11,,10.0,30.171259,,,TRUE,TRUE,,,,,,,OVC,6500,,,,,,,VFR,,-5.6,-9.7,0.3,-9.7,,,,,,,METAR,238.0
KELK 120555Z AUTO 36009KT 10SM SCT120 A3041 RMK AO2,KELK,2015-02-12T05:55:00Z,35.43,-99.4,,,360,9,,10.0,30.410433,,,TRUE,TRUE,,,,,,,SCT,12000,,,,,,,VFR,,,,,,,,,,,,METAR,610.0
KELA 120555Z AUTO 00000KT 5SM BR SCT044 13/13 A3017 RMK AO2 T01290127 10212 20126 402430109,KELA,2015-02-12T05:55:00Z,29.6,-96.32,12.9,12.7,0,0,,5.0,30.171259,,,TRUE,TRUE,,,,,,BR,SCT,4400,,,,,,,MVFR,,21.2,12.6,24.3,10.9,,,,,,,METAR,56.0
KEFK 120555Z AUTO 17008KT 10SM SCT120 M08/M15 A2977 RMK AO2 T10801150 11074 21140,KEFK,2015-02-12T05:55:00Z,44.88,-72.23,-8.0,-15.0,170,8,,10.0,29.769686,,,TRUE,TRUE,,,,,,,SCT,12000,,,,,,,VFR,,-7.4,-14.0,,,,,,,,,METAR,284.0
KEBS 120555Z AUTO 34024G33KT 10SM BKN021 OVC027 M15/M20 A3044 RMK AO2,KEBS,2015-02-12T05:55:00Z,42.42,-93.87,-15.0,-20.0,340,24,33,10.0,30.43996,,,TRUE,TRUE,,,,,,,BKN,2100,OVC,2700,,,,,MVFR,,,,,,,,,,,,METAR,342.0
KE38 120555Z AUTO 02016G20KT 5SM OVC011 04/02 A3042 RMK AO2 T00380020 10106 20038 401930038,KE38,2015-02-12T05:55:00Z,30.38,-103.68,3.8,2.0,20,16,20,5.0,30.41929,,,TRUE,TRUE,,,,,,,OVC,1100,,,,,,,MVFR,,10.6,3.8,19.3,3.8,,,,,,,METAR,1376.0
KDZB 120555Z AUTO 01006KT 10SM CLR 13/04 A3026 RMK AO2 T01330044 10220 20133 402460052,KDZB,2015-02-12T05:55:00Z,30.53,-98.37,13.3,4.4,10,6,,10.0,30.259842,,,TRUE,TRUE,,,,,,,CLR,,,,,,,,VFR,,22.0,13.3,24.6,5.2,,,,,,,METAR,334.0
KDWX 120555Z AUTO 09005KT 10SM CLR 00/M05 A3043 RMK AO2 T10051046 10143 21180,KDWX,2015-02-12T05:55:00Z,41.03,-107.5,-0.5,-4.6,90,5,,10.0,30.431103,,,TRUE,TRUE,,,,,,,CLR,,,,,,,,VFR,,14.3,-18.0,,,,,,,,,METAR,1996.0
KDUB 120555Z AUTO 34009KT 10SM CLR 00/M08 A3032 RMK AO2,KDUB,2015-02-12T05:55:00Z,43.55,-109.68,0.0,-8.0,340,9,,10.0,30.318897,,,TRUE,TRUE,,,,,,,CLR,,,,,,,,VFR,,,,,,,,,,,,METAR,2224.0
KDNS 120555Z AUTO 36016G28KT 10SM SCT023 BKN029 BKN037 M13/M20 A3050 RMK AO2,KDNS,2015-02-12T05:55:00Z,41.97,-95.37,-13.0,-20.0,360,16,28,10.0,30.499016,,,TRUE,TRUE,,,,,,,SCT,2300,BKN,2900,BKN,3700,,,MVFR,,,,,,,,,,,,METAR,388.0
KDEH 120555Z AUTO 33022G28KT 10SM FEW018 SCT042 OVC075 M15/M19 A3029 RMK AO2,KDEH,2015-02-12T05:55:00Z,43.27,-91.72,-15.0,-19.0,330,22,28,10.0,30.28937,,,TRUE,TRUE,,,,,,,FEW,1800,SCT,4200,OVC,7500,,,VFR,,,,,,,,,,,,METAR,353.0
KDBN 120555Z AUTO 26003KT 10SM CLR A3002 RMK AO2,KDBN,2015-02-12T05:55:00Z,32.57,-82.98,,,260,3,,10.0,30.02067,,,TRUE,TRUE,,,,,,,CLR,,,,,,,,VFR,,,,,,,,,,,,METAR,94.0
KCWC 120555Z AUTO 36008KT 10SM OVC110 07/M03 A3042 RMK AO2 T00651027 10100 20063 401690063,KCWC,2015-02-12T05:55:00Z,33.85,-98.48,6.5,-2.7,360,8,,10.0,30.41929,,,TRUE,TRUE,,,,,,,OVC,11000,,,,,,,VFR,,10.0,6.3,16.9,6.3,,,,,,,METAR,305.0
KCVB 120555Z AUTO 00000KT 7SM CLR 12/09 A3019 RMK AO2 T01220088 10218 20121 402390049,KCVB,2015-02-12T05:55:00Z,29.35,-98.85,12.2,8.8,0,0,,7.0,30.188976,,,TRUE,TRUE,,,,,,,CLR,,,,,,,,VFR,,21.8,12.1,23.9,4.9,,,,,,,METAR,235.0
KCTZ 120555Z AUTO 00000KT 7SM CLR 02/02 A2997 RMK AO2 T00200017 10040 20016 401030015,KCTZ,2015-02-12T05:55:00Z,34.98,-78.37,2.0,1.7,0,0,,7.0,29.970472,,,TRUE,TRUE,,,,,,,CLR,,,,,,,,VFR,,4.0,1.6,10.3,1.5,,,,,,,METAR,45.0
KCTJ 120555Z AUTO 32004KT 10SM CLR 07/00 A3007 RMK AO2,KCTJ,2015-02-12T05:55:00Z,33.63,-85.15,7.0,0.0,320,4,,10.0,30.070866,,,TRUE,TRUE,,,,,,,CLR,,,,,,,,VFR,,,,,,,,,,,,METAR,354.0
KCSQ 120555Z AUTO 35022G34KT 7SM -SN FEW012 SCT018 BKN036 M08/M12 A3042 RMK AO2,KCSQ,2015-02-12T05:55:00Z,41.02,-94.37,-8.0,-12.0,350,22,34,7.0,30.41929,,,TRUE,TRUE,,,,,,-SN,FEW,1200,SCT,1800,BKN,3600,,,VFR,,,,,,,,,,,,METAR,394.0
KCQF 120555Z AUTO 00000KT 1 1/4SM BR VV007 05/05 A3009 RMK AO2,KCQF,2015-02-12T05:55:00Z,30.47,-87.88,5.0,5.0,0,0,,1.25,30.088583,,,TRUE,TRUE,,,,,,BR,OVX,0,,,,,,,LIFR,,,,,,,,,,,700,METAR,28.0
KCQB 120555Z AUTO 04008KT 10SM CLR 02/M02 A3043 RMK AO2,KCQB,2015-02-12T05:55:00Z,35.72,-96.82,2.0,-2.0,40,8,,10.0,30.431103,,,TRUE,TRUE,,,,,,,CLR,,,,,,,,VFR,,,,,,,,,,,,METAR,300.0
KCPT 120555Z AUTO 36020G28KT 10SM OVC070 08/01 A3033 RMK AO2,KCPT,2015-02-12T05:55:00Z,32.35,-97.43,8.0,1.0,360,20,28,10.0,30.33071,,,TRUE,TRUE,,,,,,,OVC,7000,,,,,,,VFR,,,,,,,,,,,,METAR,260.0
KCPC 120555Z AUTO 00000KT 10SM CLR 02/01 A2998 RMK AO2 T00220011 10056 20019 401060017,KCPC,2015-02-12T05:55:00Z,34.28,-78.72,2.2,1.1,0,0,,10.0,29.97933,,,TRUE,TRUE,,,,,,,CLR,,,,,,,,VFR,,5.6,1.9,10.6,1.7,,,,,,,METAR,29.0
KCOM 120555Z AUTO 01018G26KT 10SM BKN044 OVC110 08/00 A3034 RMK AO2 T00760000 10160 20075 402050060,KCOM,2015-02-12T05:55:00Z,31.83,-99.4,7.6,0.0,10,18,26,10.0,30.339567,,,TRUE,TRUE,,,,,,,BKN,4400,OVC,11000,,,,,VFR,,16.0,7.5,20.5,6.0,,,,,,,METAR,517.0
KCNC 120555Z AUTO 35021G30KT 7SM -SN FEW012 SCT020 BKN033 M09/M12 A3038 RMK AO2,KCNC,2015-02-12T05:55:00Z,41.02,-93.37,-9.0,-12.0,350,21,30,7.0,30.380905,,,TRUE,TRUE,,,,,,-SN,FEW,1200,SCT,2000,BKN,3300,,,VFR,,,,,,,,,,,,METAR,320.0
KCMY 120555Z AUTO 34011G17KT 7SM -SN SCT001 BKN006 BKN012 M11/M15 A3028 RMK AO2 T11151153 11080 21115 410021115,KCMY,2015-02-12T05:55:00Z,43.97,-90.73,-11.5,-15.3,340,11,17,7.0,30.280512,,,TRUE,TRUE,,,,,,-SN,SCT,100,BKN,600,BKN,1200,,,IFR,,-8.0,-11.5,-0.2,-11.5,,,,,,,METAR,256.0
KCJR 120555Z AUTO 00000KT 10SM SCT075 M01/M04 A2990 RMK AO2,KCJR,2015-02-12T05:55:00Z,38.53,-77.87,-1.0,-4.0,0,0,,10.0,29.899607,,,TRUE,TRUE,,,,,,,SCT,7500,,,,,,,VFR,,,,,,,,,,,,METAR,97.0
KCIN 120555Z AUTO 35022G30KT 10SM SCT027 SCT032 SCT041 M14/M19 A3049 RMK AO2,KCIN,2015-02-12T05:55:00Z,42.03,-94.77,-14.0,-19.0,350,22,30,10.0,30.490158,,,TRUE,TRUE,,,,,,,SCT,2700,SCT,3200,SCT,4100,,,VFR,,,,,,,,,,,,METAR,375.0
KCHK 120555Z AUTO 35005KT 10SM OVC100 01/M02 A3042 RMK AO2,KCHK,2015-02-12T05:55:00Z,35.1,-97.97,1.0,-2.0,350,5,,10.0,30.41929,,,TRUE,TRUE,,,,,,,OVC,10000,,,,,,,VFR,,,,,,,,,,,,METAR,351.0
KCFD 120555Z AUTO 02003KT 10SM SCT047 OVC055 14/10 A3023 RMK AO2 T01360095 10214 20134 402360125,KCFD,2015-02-12T05:55:00Z,30.72,-96.33,13.6,9.5,20,3,,10.0,30.230314,,,TRUE,TRUE,,,,,,,SCT,4700,OVC,5500,,,,,VFR,,21.4,13.4,23.6,12.5,,,,,,,METAR,112.0
KCBF 120555Z AUTO 35021G30KT 10SM FEW024 SCT029 M10/M16 A3049 RMK AO2,KCBF,2015-02-12T05:55:00Z,41.27,-95.77,-10.0,-16.0,350,21,30,10.0,30.490158,,,TRUE,TRUE,,,,,,,FEW,2400,SCT,2900,,,,,VFR,,,,,,,,,,,,METAR,382.0
KCAV 120555Z AUTO 34024G35KT 9SM FEW012 BKN019 BKN024 M15/M20 A3044 RMK AO2,KCAV,2015-02-12T05:55:00Z,42.75,-93.77,-15.0,-20.0,340,24,35,9.0,30.43996,,,TRUE,TRUE,,,,,,,FEW,1200,BKN,1900,BKN,2400,,,MVFR,,,,,,,,,,,,METAR,354.0
KC09 120555Z AUTO 30016G21KT 10SM CLR M09/M12 A3015 RMK AO2 T10951123 11033 21095 400131095,KC09,2015-02-12T05:55:00Z,41.43,-88.42,-9.5,-12.3,300,16,21,10.0,30.15059,,,TRUE,TRUE,,,,,,,CLR,,,,,,,,VFR,,-3.3,-9.5,1.3,-9.5,,,,,,,METAR,178.0
KBQK 120555Z AUTO 00000KT 7SM CLR 07/06 A3003 RMK AO1,KBQK,2015-02-12T05:55:00Z,31.25,-81.47,7.0,6.0,0,0,,7.0,30.029528,,,TRUE,TRUE,,,,,,,CLR,,,,,,,,VFR,,,,,,,,,,,,METAR,8.0
KBPG 120555Z AUTO 03012G19KT 10SM OVC050 08/M05 A3038 RMK AO2 T00771054 10106 20077 401720077,KBPG,2015-02-12T05:55:00Z,32.22,-101.52,7.7,-5.4,30,12,19,10.0,30.380905,,,TRUE,TRUE,,,,,,,OVC,5000,,,,,,,VFR,,10.6,7.7,17.2,7.7,,,,,,,METAR,784.0
KBNW 120555Z AUTO 34019G33KT 10SM BKN022 BKN027 M14/M19 A3043 RMK AO2,KBNW,2015-02-12T05:55:00Z,42.03,-93.83,-14.0,-19.0,340,19,33,10.0,30.431103,,,TRUE,TRUE,,,,,,,BKN,2200,BKN,2700,,,,,MVFR,,,,,,,,,,,,METAR,354.0
KBMT 120555Z AUTO 00000KT 10SM CLR 08/08 A3015 RMK AO2 T00810076 10170 20074 402270043,KBMT,2015-02-12T05:55:00Z,30.07,-94.22,8.1,7.6,0,0,,10.0,30.15059,,,TRUE,TRUE,,,,,,,CLR,,,,,,,,VFR,,17.0,7.4,22.7,4.3,,,,,,,METAR,10.0
KBKT 120555Z AUTO 18006KT 10SM CLR 00/M02 A2989 RMK AO1 T10011018 10040 21001,KBKT,2015-02-12T05:55:00Z,37.07,-77.95,-0.1,-1.8,180,6,,10.0,29.890747,,,TRUE,TRUE,,,,,,,CLR,,,,,,,,VFR,,4.0,-0.1,,,,,,,,,METAR,134.0
KBIJ 120555Z AUTO 00000KT 10SM CLR 07/06 A3006 RMK AO2,KBIJ,2015-02-12T05:55:00Z,31.4,-84.9,7.0,6.0,0,0,,10.0,30.059055,,,TRUE,TRUE,,,,,,,CLR,,,,,,,,VFR,,,,,,,,,,,,METAR,65.0
KBIE 120555Z AUTO 01016G22KT 10SM BKN037 OVC048 M02/M08 A3048 RMK AO2 T10231080 11006 21055,KBIE,2015-02-12T05:55:00Z,40.28,-96.75,-2.3,-8.0,10,16,22,10.0,30.481298,,,TRUE,TRUE,,,,,,,BKN,3700,OVC,4800,,,,,VFR,,-0.6,-5.5,,,,,,,,,METAR,403.0
KAXH 120555Z AUTO 00000KT 1/2SM FG BKN003 12/12 A3016 RMK AO2 T01240124 10211 20124,KAXH,2015-02-12T05:55:00Z,29.52,-95.48,12.4,12.4,0,0,,0.5,30.159449,,,TRUE,TRUE,,,,,,FG,BKN,300,,,,,,,LIFR,,21.1,12.4,,,,,,,,,METAR,21.0
KAXA 120555Z AUTO 35022G30KT 6SM HZ OVC017 M16/ A3047 RMK AO2,KAXA,2015-02-12T05:55:00Z,43.07,-94.27,-16.0,,350,22,30,6.0,30.469488,,,TRUE,TRUE,,,,,,HZ,OVC,1700,,,,,,,MVFR,,,,,,,,,,,,METAR,372.0
KAWG 120555Z AUTO 33022G36KT 10SM OVC034 M09/M14 A3033 RMK AO2,KAWG,2015-02-12T05:55:00Z,41.27,-91.67,-9.0,-14.0,330,22,36,10.0,30.33071,,,TRUE,TRUE,,,,,,,OVC,3400,,,,,,,VFR,,,,,,,,,,,,METAR,230.0
KATW 120555Z AUTO 35017G22KT 4SM -SN SCT025 BKN033 OVC065 M11/M16 A3016 RMK AO2,KATW,2015-02-12T05:55:00Z,44.27,-88.52,-11.0,-16.0,350,17,22,4.0,30.159449,,,TRUE,TRUE,,,,,,-SN,SCT,2500,BKN,3300,OVC,6500,,,MVFR,,,,,,,,,,,,METAR,280.0
KASL 120555Z AUTO 34009KT CLR 12/07 A3024 RMK AO1 T01180068 10198 20102 402300055,KASL,2015-02-12T05:55:00Z,32.52,-94.3,11.8,6.8,340,9,,,30.239174,,,TRUE,TRUE,,,,,,,CLR,,,,,,,,,,19.8,10.2,23.0,5.5,,,,,,,METAR,109.0
KARM 120555Z AUTO 00000KT 7SM CLR 12/12 A3017 RMK AO2 T01210116 10201 20121 402480097,KARM,2015-02-12T05:55:00Z,29.25,-96.15,12.1,11.6,0,0,,7.0,30.171259,,,TRUE,TRUE,,,,,,,CLR,,,,,,,,VFR,,20.1,12.1,24.8,9.7,,,,,,,METAR,31.0
KALX 120555Z AUTO 00000KT 7SM CLR 03/00 A3006 RMK AO2 T00261005 10123 20026,KALX,2015-02-12T05:55:00Z,32.92,-85.97,2.6,-0.5,0,0,,7.0,30.059055,,,TRUE,TRUE,,,,,,,CLR,,,,,,,,VFR,,12.3,2.6,,,,,,,,,METAR,209.0
KAIO 120555Z AUTO 35022G27KT 10SM FEW015 FEW021 SCT026 M11/M16 A3049 RMK AO2,KAIO,2015-02-12T05:55:00Z,41.38,-95.03,-11.0,-16.0,350,22,27,10.0,30.490158,,,TRUE,TRUE,,,,,,,FEW,1500,FEW,2100,SCT,2600,,,VFR,,,,,,,,,,,,METAR,360.0
KAHQ 120555Z AUTO 10SM BKN027 M09/M15 A3054 RMK AO2 T10881152 10000 21088 400371088,KAHQ,2015-02-12T05:55:00Z,41.23,-96.6,-8.8,-15.2,,,,10.0,30.540354,,,TRUE,TRUE,,,,,,,BKN,2700,,,,,,,MVFR,,0.0,-8.8,3.7,-8.8,,,,,,,METAR,374.0
KAFP 120555Z AUTO 00000KT 10SM CLR 01/M01 A2994 RMK AO2 T00051010 10060 20005 401251012,KAFP,2015-02-12T05:55:00Z,35.02,-80.08,0.5,-1.0,0,0,,10.0,29.940945,,,TRUE,TRUE,,,,,,,CLR,,,,,,,,VFR,,6.0,0.5,12.5,-1.2,,,,,,,METAR,92.0
KAFK 120555Z AUTO 34018G26KT 10SM SCT028 SCT043 M05/M12 A3047 RMK AO2 T10551125 11010 21055 400381055,KAFK,2015-02-12T05:55:00Z,40.6,-95.85,-5.5,-12.5,340,18,26,10.0,30.469488,,,TRUE,TRUE,,,,,,,SCT,2800,SCT,4300,,,,,VFR,,-1.0,-5.5,3.8,-5.5,,,,,,,METAR,354.0
KADU 120555Z AUTO 35016G23KT 10SM CLR M12/M18 A3049 RMK AO2,KADU,2015-02-12T05:55:00Z,41.7,-94.92,-12.0,-18.0,350,16,23,10.0,30.490158,,,TRUE,TRUE,,,,,,,CLR,,,,,,,,VFR,,,,,,,,,,,,METAR,392.0
KADS 120555Z AUTO 35012G21KT 10SM CLR 08/00 A3035 RMK AO2 T00751003 10165 20075 401980075,KADS,2015-02-12T05:55:00Z,32.97,-96.82,7.5,-0.3,350,12,21,10.0,30.351377,,,TRUE,TRUE,,,,,,,CLR,,,,,,,,VFR,,16.5,7.5,19.8,7.5,,,,,,,METAR,196.0
KA08 120555Z AUTO 31004KT 10SM CLR 04/01 A3009 RMK AO2 T00380010 10132 20030 401641033,KA08,2015-02-12T05:55:00Z,32.52,-87.38,3.8,1.0,310,4,,10.0,30.088583,,,TRUE,TRUE,,,,,,,CLR,,,,,,,,VFR,,13.2,3.0,16.4,-3.3,,,,,,,METAR,69.0
K6B0 120555Z AUTO 15004KT 10SM SCT100 M05/M14 A2979 RMK AO2 T10511138 11051 21092,K6B0,2015-02-12T05:55:00Z,43.98,-73.1,-5.1,-13.8,150,4,,10.0,29.790354,,,TRUE,TRUE,,,,,,,SCT,10000,,,,,,,VFR,,-5.1,-9.2,,,,,,,,,METAR,149.0
K66R 120555Z AUTO 00000KT 4SM BR SCT039 12/12 A3017 RMK AO2 T01240121 10222 20122 402360112,K66R,2015-02-12T05:55:00Z,29.65,-96.52,12.4,12.1,0,0,,4.0,30.171259,,,TRUE,TRUE,,,,,,BR,SCT,3900,,,,,,,MVFR,,22.2,12.2,23.6,11.2,,,,,,,METAR,74.0
K54J 120555Z AUTO 31004KT 10SM CLR 08/05 A3008 RMK AO2 T00750052 10109 20075,K54J,2015-02-12T05:55:00Z,30.73,-86.15,7.5,5.2,310,4,,10.0,30.079725,,,TRUE,TRUE,,,,,,,CLR,,,,,,,,VFR,,10.9,7.5,,,,,,,,,METAR,88.0
K3R7 120555Z AUTO 00000KT 5SM BR CLR 11/10 A3015 RMK AO2 T01110103 10190 20107 402190047,K3R7,2015-02-12T05:55:00Z,30.25,-92.67,11.1,10.3,0,0,,5.0,30.15059,,,TRUE,TRUE,,,,,,BR,CLR,,,,,,,,MVFR,,19.0,10.7,21.9,4.7,,,,,,,METAR,7.0
K3LF 120555Z AUTO 31011G17KT 10SM CLR M04/M08 A3023 RMK AO2 T10401080 11010 21040 400311040,K3LF,2015-02-12T05:55:00Z,39.17,-89.67,-4.0,-8.0,310,11,17,10.0,30.230314,,,TRUE,TRUE,,,,,,,CLR,,,,,,,,VFR,,-1.0,-4.0,3.1,-4.0,,,,,,,METAR,210.0
K36U 120555Z AUTO 00000KT 10SM CLR M01/M04 A3043 RMK AO2,K36U,2015-02-12T05:55:00Z,40.48,-111.43,-1.0,-4.0,0,0,,10.0,30.431103,,,TRUE,TRUE,,,,,,,CLR,,,,,,,,VFR,,,,,,,,,,,,METAR,1718.0
K2G9 120555Z AUTO 26015G19KT 10SM OVC009 M01/M03 A2979 RMK AO2,K2G9,2015-02-12T05:55:00Z,40.03,-79.02,-1.0,-3.0,260,15,19,10.0,29.790354,,,TRUE,TRUE,,,,,,,OVC,900,,,,,,,IFR,,,,,,,,,,,,METAR,693.0
K1L0 120555Z AUTO 28003KT 10SM CLR 12/08 A3013 RMK AO2 T01240076 10179 20096 402150056,K1L0,2015-02-12T05:55:00Z,30.08,-90.58,12.4,7.6,280,3,,10.0,30.129921,,,TRUE,TRUE,,,,,,,CLR,,,,,,,,VFR,,17.9,9.6,21.5,5.6,,,,,,,METAR,2.0
K1H2 120555Z AUTO 30017KT 10SM BKN022 M03/M08 A3021 RMK AO2 T10261080 10000 21026 400521026,K1H2,2015-02-12T05:55:00Z,39.07,-88.53,-2.6,-8.0,300,17,,10.0,30.209646,,,TRUE,TRUE,,,,,,,BKN,2200,,,,,,,MVFR,,0.0,-2.6,5.2,-2.6,,,,,,,METAR,179.0
K1A6 120555Z AUTO 00000KT 10SM OVC033 02/M01 A3002 RMK AO2 T00171009 10050 20000 401211060,K1A6,2015-02-12T05:55:00Z,36.62,-83.73,1.7,-0.9,0,0,,10.0,30.02067,,,TRUE,TRUE,,,,,,,OVC,3300,,,,,,,VFR,,5.0,0.0,12.1,-6.0,,,,,,,METAR,352.0
K0VG 120555Z AUTO 24007KT 10SM OVC035 04/M02 A3002 RMK AO2,K0VG,2015-02-12T05:55:00Z,36.65,-83.22,4.0,-2.0,240,7,,10.0,30.02067,,,TRUE,TRUE,,,,,,,OVC,3500,,,,,,,VFR,,,,,,,,,,,,METAR,430.0
K0V4 120555Z AUTO 00000KT 7SM CLR M01/M01 A2989 RMK AO1 T10131015 10071 21016,K0V4,2015-02-12T05:55:00Z,37.15,-79.02,-1.3,-1.5,0,0,,7.0,29.890747,,,TRUE,TRUE,,,,,,,CLR,,,,,,,,VFR,,7.1,-1.6,,,,,,,,,METAR,182.0
K0F2 120555Z AUTO 35008G15KT 10SM OVC085 05/M02 A3037 RMK AO2 T00481020 10108 20047 401830047,K0F2,2015-02-12T05:55:00Z,33.6,-97.78,4.8,-2.0,350,8,15,10.0,30.369095,,,TRUE,TRUE,,,,,,,OVC,8500,,,,,,,VFR,,10.8,4.7,18.3,4.7,,,,,,,METAR,336.0
KL35 120555Z AUTO 00000KT 10SM CLR 00/M08 A3036 RMK AO2,KL35,2015-02-12T05:55:00Z,34.27,-116.85,0.0,-8.0,0,0,,10.0,30.360237,,,TRUE,TRUE,,,,,,,CLR,,,,,,,,VFR,,,,,,,,,,,,SPECI,2059.0
KJYO 120555Z AUTO 00000KT 10SM OVC050 02/M02 A2989 RMK AO2,KJYO,2015-02-12T05:55:00Z,39.07,-77.57,2.0,-2.0,0,0,,10.0,29.890747,,,TRUE,TRUE,,,,,,,OVC,5000,,,,,,,VFR,,,,,,,,,,,,SPECI,119.0
KJOT 120555Z AUTO 29010KT 10SM CLR M09/M13 A3015 RMK AO2 T10901134 11022 21090 400151090,KJOT,2015-02-12T05:55:00Z,41.52,-88.18,-9.0,-13.4,290,10,,10.0,30.15059,,,TRUE,TRUE,,,,,,,CLR,,,,,,,,VFR,,-2.2,-9.0,1.5,-9.0,,,,,,,SPECI,177.0
KJES 120555Z AUTO 00000KT 5SM BR CLR 05/05 A3002 RMK AO2,KJES,2015-02-12T05:55:00Z,31.55,-81.88,5.0,5.0,0,0,,5.0,30.02067,,,TRUE,TRUE,,,,,,BR,CLR,,,,,,,,MVFR,,,,,,,,,,,,SPECI,33.0
KIYA 120555Z AUTO 00000KT 2 1/2SM BR CLR 08/08 A3015 RMK AO2 T00820080 10155 20082,KIYA,2015-02-12T05:55:00Z,29.98,-92.08,8.2,8.0,0,0,,2.5,30.15059,,,TRUE,TRUE,,,,,,BR,CLR,,,,,,,,IFR,,15.5,8.2,,,,,,,,,SPECI,5.0
KHWY 120555Z AUTO 00000KT 10SM SCT080 M02/M03 A2989 RMK AO2 T10161028 10048 21020 400871050,KHWY,2015-02-12T05:55:00Z,38.58,-77.72,-1.6,-2.8,0,0,,10.0,29.890747,,,TRUE,TRUE,,,,,,,SCT,8000,,,,,,,VFR,,4.8,-2.0,8.7,-5.0,,,,,,,SPECI,103.0
KHRX 120555Z AUTO 34005KT 10SM OVC095 02/00 A3044 RMK AO2 T00181003 10027 20015 400630015,KHRX,2015-02-12T05:55:00Z,34.87,-102.33,1.8,-0.3,340,5,,10.0,30.43996,,,TRUE,TRUE,,,,,,,OVC,9500,,,,,,,VFR,,2.7,1.5,6.3,1.5,,,,,,,SPECI,1154.0
KHII 120555Z AUTO 35008KT 10SM CLR 19/M04 A3017 RMK AO2,KHII,2015-02-12T05:55:00Z,34.57,-114.37,19.0,-4.0,350,8,,10.0,30.171259,,,TRUE,TRUE,,,,,,,CLR,,,,,,,,VFR,,,,,,,,,,,,SPECI,238.0
KHHG 120555Z AUTO 27011G17KT 10SM -SN SCT031 OVC050 M03/M08 A3000 RMK AO2 T10311085 10000 21031,KHHG,2015-02-12T05:55:00Z,40.85,-85.45,-3.1,-8.5,270,11,17,10.0,30.0,,,TRUE,TRUE,,,,,,-SN,SCT,3100,OVC,5000,,,,,VFR,,0.0,-3.1,,,,,,,,,SPECI,246.0
KHFJ 120555Z AUTO 35008KT 10SM CLR M03/M06 A3036 RMK AO2,KHFJ,2015-02-12T05:55:00Z,36.9,-94.02,-3.0,-6.0,350,8,,10.0,30.360237,,,TRUE,TRUE,,,,,,,CLR,,,,,,,,VFR,,,,,,,,,,,,SPECI,401.0
KHDC 120555Z AUTO 00000KT 10SM CLR 09/05 A3014 RMK AO2,KHDC,2015-02-12T05:55:00Z,30.52,-90.42,9.0,5.0,0,0,,10.0,30.138779,,,TRUE,TRUE,,,,,,,CLR,,,,,,,,VFR,,,,,,,,,,,,SPECI,13.0
KGVE 120555Z AUTO 00000KT 10SM CLR M03/M05 A2986 RMK AO1 T10321046 10032 21032,KGVE,2015-02-12T05:55:00Z,38.15,-78.17,-3.2,-4.6,0,0,,10.0,29.861221,,,TRUE,TRUE,,,,,,,CLR,,,,,,,,VFR,,3.2,-3.2,,,,,,,,,SPECI,138.0
KGOP 120555Z AUTO 01009KT 10SM CLR 11/04 A3030 RMK AO2,KGOP,2015-02-12T05:55:00Z,31.42,-97.8,11.0,4.0,10,9,,10.0,30.301182,,,TRUE,TRUE,,,,,,,CLR,,,,,,,,VFR,,,,,,,,,,,,SPECI,276.0
KGGP 120555Z AUTO 29014G19KT 10SM OVC039 M04/M07 A3007 RMK AO2,KGGP,2015-02-12T05:55:00Z,40.72,-86.37,-4.0,-7.0,290,14,19,10.0,30.070866,,,TRUE,TRUE,,,,,,,OVC,3900,,,,,,,VFR,,,,,,,,,,,,SPECI,225.0
KGCD 120555Z AUTO 08007KT 10SM CLR 06/02 A3030 RMK AO2 T00600020 10111 20060,KGCD,2015-02-12T05:55:00Z,44.38,-118.97,6.0,2.0,80,7,,10.0,30.301182,,,TRUE,TRUE,,,,,,,CLR,,,,,,,,VFR,,11.1,6.0,,,,,,,,,SPECI,1127.0
KFZG 120555Z AUTO 24003KT 10SM CLR 09/06 A3004 RMK AO2 T00930062 10130 20075 401860020,KFZG,2015-02-12T05:55:00Z,31.68,-83.27,9.3,6.2,240,3,,10.0,30.041338,,,TRUE,TRUE,,,,,,,CLR,,,,,,,,VFR,,13.0,7.5,18.6,2.0,,,,,,,SPECI,111.0
KLNL 120555Z AUTO 36011G19KT 7SM -SN SCT018 BKN034 M16/M19 A3019 RMK AO2 T11651195 11121 21165 410471165,KLNL,2015-02-12T05:55:00Z,46.15,-89.22,-16.5,-19.5,360,11,19,7.0,30.188976,,,TRUE,TRUE,,,,,,-SN,SCT,1800,BKN,3400,,,,,VFR,,-12.1,-16.5,-4.7,-16.5,,,,,,,SPECI,520.0
KLHZ 120555Z AUTO 19003KT 10SM CLR 00/M01 A2994 RMK AO2,KLHZ,2015-02-12T05:55:00Z,36.02,-78.33,0.0,-1.0,190,3,,10.0,29.940945,,,TRUE,TRUE,,,,,,,CLR,,,,,,,,VFR,,,,,,,,,,,,SPECI,113.0
KVDF 120555Z AUTO 09003KT 5SM BR CLR 08/06 A3010 RMK AO2,KVDF,2015-02-12T05:55:00Z,28.02,-82.33,8.0,6.0,90,3,,5.0,30.100393,,,TRUE,TRUE,,,,,,BR,CLR,,,,,,,,MVFR,,,,,,,,,,,,METAR,7.0
KUYF 120555Z AUTO 31009KT 5SM UP BKN014 OVC019 M01/M02 A2994 RMK AO2,KUYF,2015-02-12T05:55:00Z,39.93,-83.47,-1.0,-2.0,310,9,,5.0,29.940945,,,TRUE,TRUE,,,,,,UP,BKN,1400,OVC,1900,,,,,MVFR,,,,,,,,,,,,METAR,330.0
KLDJ 120555Z AUTO 00000KT 10SM OVC090 00/M05 A2994 RMK AO2 T10031055 10003 21011 400341025,KLDJ,2015-02-12T05:55:00Z,40.62,-74.25,-0.3,-5.5,0,0,,10.0,29.940945,,,TRUE,TRUE,,,,,,,OVC,9000,,,,,,,VFR,,0.3,-1.1,3.4,-2.5,,,,,,,METAR,7.0
KCKI 120555Z AUTO 00000KT 10SM CLR 05/05 A2998 RMK AO2,KCKI,2015-02-12T05:55:00Z,33.72,-79.85,5.0,5.0,0,0,,10.0,29.97933,,,TRUE,TRUE,,,,,,,CLR,,,,,,,,VFR,,,,,,,,,,,,METAR,21.0
KLUX 120555Z AUTO 20005KT 10SM CLR 05/05 A2993 RMK AO2,KLUX,2015-02-12T05:55:00Z,34.5,-81.95,5.0,5.0,200,5,,10.0,29.929134,,,TRUE,TRUE,,,,,,,CLR,,,,,,,,VFR,,,,,,,,,,,,METAR,213.0
KLQK 120555Z AUTO 10SM CLR 01/01 A2992 RMK AO2 T00080008 10199 21101 401991101,KLQK,2015-02-12T05:55:00Z,34.82,-82.7,0.8,0.8,,,,10.0,29.920275,,,TRUE,TRUE,,,,,,,CLR,,,,,,,,VFR,,19.9,-10.1,19.9,-10.1,,,,,,,METAR,309.0
KJFX 120555Z AUTO 00000KT 9SM CLR 01/00 A3011 RMK A02 P-128,KJFX,2015-02-12T05:55:00Z,33.9,-87.32,1.0,0.0,0,0,,9.0,30.109253,,,TRUE,TRUE,,,,,,,CLR,,,,,,,,VFR,,,,,,,,,,,,METAR,148.0
KGPH 120555Z AUTO 31006KT 10SM M01/M06 A3040 RMK AO2,KGPH,2015-02-12T05:55:00Z,39.33,-94.32,-1.0,-6.0,310,6,,10.0,30.398623,,,TRUE,TRUE,,,,,,,,,,,,,,,,,,,,,,,,,,,METAR,235.0
KGGE 120555Z AUTO 00000KT 10SM CLR 00/00 A3001 RMK AO2,KGGE,2015-02-12T05:55:00Z,33.32,-79.32,0.0,0.0,0,0,,10.0,30.008858,,,TRUE,TRUE,,,,,,,CLR,,,,,,,,VFR,,,,,,,,,,,,METAR,12.0
KCLS 120555Z AUTO 00000KT 10SM FEW049 SCT080 OVC110 10/10 A3019 RMK AO2,KCLS,2015-02-12T05:55:00Z,46.68,-122.98,10.0,10.0,0,0,,10.0,30.188976,,,TRUE,TRUE,,,,,,,FEW,4900,SCT,8000,OVC,11000,,,VFR,,,,,,,,,,,,METAR,54.0
KAIK 120555Z AUTO 00000KT 10SM CLR 02/02 A2998 RMK AO2 PNO,KAIK,2015-02-12T05:55:00Z,33.65,-81.68,2.0,2.0,0,0,,10.0,29.97933,,,TRUE,TRUE,,,,,,,CLR,,,,,,,,VFR,,,,,,,,,,,,METAR,161.0
K4I7 120555Z AUTO 32008G14KT 10SM OVC025 M03/M10 A3011 RMK AO2,K4I7,2015-02-12T05:55:00Z,39.63,-86.82,-3.0,-10.0,320,8,14,10.0,30.109253,,,TRUE,TRUE,,,,,,,OVC,2500,,,,,,,MVFR,,,,,,,,,,,,METAR,257.0
KLRO 120555Z AUTO 00000KT 10SM CLR 03/03 A3000 RMK AO2,KLRO,2015-02-12T05:55:00Z,32.9,-79.78,3.0,3.0,0,0,,10.0,30.0,,,TRUE,TRUE,,,,,,,CLR,,,,,,,,VFR,,,,,,,,,,,,METAR,4.0
KBDN 120555Z AUTO 17004KT 10SM CLR 04/00 A3026 RMK AO2,KBDN,2015-02-12T05:55:00Z,44.1,-121.2,4.0,0.0,170,4,,10.0,30.259842,,,TRUE,TRUE,,,,,,,CLR,,,,,,,,VFR,,,,,,,,,,,,METAR,1055.0
KM40 120555Z AUTO 00000KT 10SM CLR 03/03 A3015 RMK AO2,KM40,2015-02-12T05:55:00Z,33.87,-88.48,3.0,3.0,0,0,,10.0,30.15059,,,TRUE,TRUE,,,,,,,CLR,,,,,,,,VFR,,,,,,,,,,,,METAR,69.0
KIMM 120555Z AUTO 00000KT 5SM CLR 08/ A3008 RMK A01 P000,KIMM,2015-02-12T05:55:00Z,26.43,-81.4,8.0,,0,0,,5.0,30.079725,,,TRUE,TRUE,,,,,,,CLR,,,,,,,,MVFR,,,,,,,,,,,,METAR,12.0
KGLY 120555Z AUTO 31005KT 10SM BKN055 M02/M06 A3040 RMK AO2,KGLY,2015-02-12T05:55:00Z,38.35,-93.68,-2.0,-6.0,310,5,,10.0,30.398623,,,TRUE,TRUE,,,,,,,BKN,5500,,,,,,,VFR,,,,,,,,,,,,METAR,251.0
K24J 120555Z AUTO 00000KT 1 3/4SM CLR 06/06 A3008 RMK AO1,K24J,2015-02-12T05:55:00Z,30.3,-83.03,6.0,6.0,0,0,,1.75,30.079725,,,TRUE,TRUE,,,,,,,CLR,,,,,,,,IFR,,,,,,,,,,,,SPECI,32.0
KDCM 120555Z AUTO 20003KT 10SM CLR 05/02 A2993 RMK AO2,KDCM,2015-02-12T05:55:00Z,34.78,-81.2,5.0,2.0,200,3,,10.0,29.929134,,,TRUE,TRUE,,,,,,,CLR,,,,,,,,VFR,,,,,,,,,,,,METAR,200.0
K1S5 120555Z AUTO 00000KT 10SM SCT120 05/04 A3028 RMK AO2 T00450037 10097 20036 400970007,K1S5,2015-02-12T05:55:00Z,46.33,-119.97,4.5,3.7,0,0,,10.0,30.280512,,,TRUE,TRUE,,,,,,,SCT,12000,,,,,,,VFR,,9.7,3.6,9.7,0.7,,,,,,,METAR,234.0
KAZC 120555Z AUTO 12003KT 10SM CLR 03/M05 A3041 RMK AO2 T00291052 10221 21186 402211186,KAZC,2015-02-12T05:55:00Z,36.97,-113.02,2.9,-5.2,120,3,,10.0,30.410433,,,TRUE,TRUE,,,,,,,CLR,,,,,,,,VFR,,22.1,-18.6,22.1,-18.6,,,,,,,METAR,1486.0
KAXS 120555Z AUTO 35004KT 10SM CLR 03/M03 A3045 RMK AO2 T00331032 10088 20032 401260032,KAXS,2015-02-12T05:55:00Z,34.7,-99.33,3.3,-3.2,350,4,,10.0,30.448818,,,TRUE,TRUE,,,,,,,CLR,,,,,,,,VFR,,8.8,3.2,12.6,3.2,,,,,,,METAR,437.0
KASW 120555Z AUTO 30012G22KT 10SM -SN SCT021 OVC028 M03/M07 A3001 RMK AO2,KASW,2015-02-12T05:55:00Z,41.27,-85.83,-3.0,-7.0,300,12,22,10.0,30.008858,,,TRUE,TRUE,,,,,,-SN,SCT,2100,OVC,2800,,,,,MVFR,,,,,,,,,,,,METAR,259.0
KASN 120555Z AUTO 00000KT 10SM CLR 03/01 A3008 RMK AO2 T00280011 10136 20028 401691035,KASN,2015-02-12T05:55:00Z,33.57,-86.05,2.8,1.1,0,0,,10.0,30.079725,,,TRUE,TRUE,,,,,,,CLR,,,,,,,,VFR,,13.6,2.8,16.9,-3.5,,,,,,,METAR,162.0
KALN 120555Z AUTO 30011G14KT 10SM CLR M02/M06 A3026 RMK AO2 T10251065 10003 21025 400471025,KALN,2015-02-12T05:55:00Z,38.88,-90.03,-2.5,-6.5,300,11,14,10.0,30.259842,,,TRUE,TRUE,,,,,,,CLR,,,,,,,,VFR,,0.3,-2.5,4.7,-2.5,,,,,,,METAR,166.0
KAJL 120555Z AUTO 26014KT 10SM CLR M07/M10 A3035 RMK AO2 T10751102 11041 21075 410281092,KAJL,2015-02-12T05:55:00Z,43.67,-110.03,-7.5,-10.2,260,14,,10.0,30.351377,,,TRUE,TRUE,,,,,,,CLR,,,,,,,,VFR,,-4.1,-7.5,-2.8,-9.2,,,,,,,METAR,3161.0
KAIB 120555Z AUTO 11008KT 10SM CLR 01/M06 A3044 RMK AO2,KAIB,2015-02-12T05:55:00Z,38.23,-108.57,1.0,-6.0,110,8,,10.0,30.43996,,,TRUE,TRUE,,,,,,,CLR,,,,,,,,VFR,,,,,,,,,,,,METAR,1811.0
KADM 120555Z AUTO 34009KT 10SM CLR 04/M01 A3039 RMK AO2 T00401010 10094 20040 401710040,KADM,2015-02-12T05:55:00Z,34.28,-97.02,4.0,-1.0,340,9,,10.0,30.389763,,,TRUE,TRUE,,,,,,,CLR,,,,,,,,VFR,,9.4,4.0,17.1,4.0,,,,,,,METAR,232.0
K8W2 120555Z AUTO 00000KT 5SM OVC048 01/M01 A2986 RMK AO1 T00061007 10032 20000,K8W2,2015-02-12T05:55:00Z,38.65,-78.7,0.6,-0.7,0,0,,5.0,29.861221,,,TRUE,TRUE,,,,,,,OVC,4800,,,,,,,MVFR,,3.2,0.0,,,,,,,,,METAR,297.0
K82V 120555Z AUTO 21003KT 10SM CLR M04/M06 A3033 RMK AO2,K82V,2015-02-12T05:55:00Z,41.15,-104.13,-4.0,-6.0,210,3,,10.0,30.33071,,,TRUE,TRUE,,,,,,,CLR,,,,,,,,VFR,,,,,,,,,,,,METAR,1570.0
K7W4 120555Z AUTO 00000KT 10SM CLR M01/M03 A2988 RMK AO1 T10081034 10044 21008,K7W4,2015-02-12T05:55:00Z,37.97,-77.75,-0.8,-3.4,0,0,,10.0,29.878937,,,TRUE,TRUE,,,,,,,CLR,,,,,,,,VFR,,4.4,-0.8,,,,,,,,,METAR,106.0
K6A2 120555Z AUTO 31007KT 10SM CLR 08/02 A3001 RMK AO2,K6A2,2015-02-12T05:55:00Z,33.23,-84.27,8.0,2.0,310,7,,10.0,30.008858,,,TRUE,TRUE,,,,,,,CLR,,,,,,,,VFR,,,,,,,,,,,,METAR,292.0
K4O4 120555Z AUTO 33007KT 10SM CLR 05/00 A3027 RMK AO2,K4O4,2015-02-12T05:55:00Z,33.92,-94.87,5.0,0.0,330,7,,10.0,30.268702,,,TRUE,TRUE,,,,,,,CLR,,,,,,,,VFR,,,,,,,,,,,,METAR,144.0
K4M9 120555Z AUTO 33009KT 10SM CLR 01/M04 A3028 RMK AO2,K4M9,2015-02-12T05:55:00Z,36.4,-90.65,1.0,-4.0,330,9,,10.0,30.280512,,,TRUE,TRUE,,,,,,,CLR,,,,,,,,VFR,,,,,,,,,,,,METAR,90.0
K46D 120555Z AUTO 10SM CLR M22/M24 A3068 RMK AO2,K46D,2015-02-12T05:55:00Z,47.45,-99.15,-22.0,-24.0,,,,10.0,30.679134,,,TRUE,TRUE,,,,,,,CLR,,,,,,,,VFR,,,,,,,,,,,,METAR,490.0
K42J 120555Z AUTO 00000KT 9SM CLR 05/04 A3006 RMK AO1 TSNO,K42J,2015-02-12T05:55:00Z,29.85,-82.05,5.0,4.0,0,0,,9.0,30.059055,,,TRUE,TRUE,,,TRUE,,,,CLR,,,,,,,,VFR,,,,,,,,,,,,METAR,60.0
K3J7 120555Z AUTO 26004KT 10SM CLR 10/03 A2994 RMK AO2,K3J7,2015-02-12T05:55:00Z,33.6,-83.13,10.0,3.0,260,4,,10.0,29.940945,,,TRUE,TRUE,,,,,,,CLR,,,,,,,,VFR,,,,,,,,,,,,METAR,206.0
K3I2 120555Z AUTO 23004KT 5SM BR SCT026 OVC033 01/01 A2998 RMK AO2,K3I2,2015-02-12T05:55:00Z,38.92,-82.1,1.0,1.0,230,4,,5.0,29.97933,,,TRUE,TRUE,,,,,,BR,SCT,2600,OVC,3300,,,,,MVFR,,,,,,,,,,,,METAR,196.0
K3D2 120555Z AUTO 33013G19KT 10SM CLR M14/M20 A3011 RMK AO2 T11391196 11072 21139 410111139,K3D2,2015-02-12T05:55:00Z,45.13,-87.18,-13.9,-19.6,330,13,19,10.0,30.109253,,,TRUE,TRUE,,,,,,,CLR,,,,,,,,VFR,,-7.2,-13.9,-1.1,-13.9,,,,,,,METAR,234.0
K2D5 120555Z AUTO 33010KT 10SM M20/M24 A3068 RMK AO2,K2D5,2015-02-12T05:55:00Z,46.17,-98.08,-20.0,-24.0,330,10,,10.0,30.679134,,,TRUE,TRUE,,,,,,,,,,,,,,,,,,,,,,,,,,,METAR,407.0
K1K1 120555Z AUTO 35003KT 10SM CLR M04/M07 A3043 RMK AO2 T10401075 10023 21041 400391041,K1K1,2015-02-12T05:55:00Z,37.77,-97.12,-4.0,-7.5,350,3,,10.0,30.431103,,,TRUE,TRUE,,,,,,,CLR,,,,,,,,VFR,,2.3,-4.1,3.9,-4.1,,,,,,,METAR,416.0
K1A9 120555Z AUTO 32005KT 10SM CLR 09/01 A3006 RMK AO2 T00910007 10128 20035 401751033,K1A9,2015-02-12T05:55:00Z,32.43,-86.52,9.1,0.7,320,5,,10.0,30.059055,,,TRUE,TRUE,,,,,,,CLR,,,,,,,,VFR,,12.8,3.5,17.5,-3.3,,,,,,,METAR,69.0
KRCX 120555Z AUTO 33011G20KT 10SM CLR M15/M19 A3031 RMK AO2 T11461189 11095 21146 410371146,KRCX,2015-02-12T05:55:00Z,45.5,-91.0,-14.6,-18.9,330,11,20,10.0,30.31004,,,TRUE,TRUE,,,,,,,CLR,,,,,,,,VFR,,-9.5,-14.6,-3.7,-14.6,,,,,,,METAR,377.0
KRBW 120555Z AUTO 00000KT 10SM CLR 04/ A2999 RMK AO2,KRBW,2015-02-12T05:55:00Z,32.92,-80.63,4.0,,0,0,,10.0,29.991142,,,TRUE,TRUE,,,,,,,CLR,,,,,,,,VFR,,,,,,,,,,,,METAR,31.0
KPVJ 120555Z AUTO 36010G16KT 10SM CLR 03/M04 A3040 RMK AO2 T00291040 10075 20027 401390027,KPVJ,2015-02-12T05:55:00Z,34.72,-97.22,2.9,-4.0,360,10,16,10.0,30.398623,,,TRUE,TRUE,,,,,,,CLR,,,,,,,,VFR,,7.5,2.7,13.9,2.7,,,,,,,METAR,295.0
KPVE 120555Z AUTO 34009KT 10SM FEW023 OVC043 04/M01 A3014 RMK,KPVE,2015-02-12T05:55:00Z,35.65,-88.2,4.0,-1.0,340,9,,10.0,30.138779,,,TRUE,,,,,,,,FEW,2300,OVC,4300,,,,,VFR,,,,,,,,,,,,METAR,149.0
KPUJ 120555Z AUTO 31009KT 10SM CLR 08/00 A3002 RMK AO2,KPUJ,2015-02-12T05:55:00Z,33.92,-84.93,8.0,0.0,310,9,,10.0,30.02067,,,TRUE,TRUE,,,,,,,CLR,,,,,,,,VFR,,,,,,,,,,,,METAR,393.0
KPRO 120555Z AUTO 34024G30KT 10SM M13/M18 A3048 RMK AO2 T11271183 11037 21127,KPRO,2015-02-12T05:55:00Z,41.83,-94.17,-12.7,-18.3,340,24,30,10.0,30.481298,,,TRUE,TRUE,,,,,,,,,,,,,,,,,-3.7,-12.7,,,,,,,,,METAR,308.0
KPKV 120555Z AUTO 06003KT 7SM CLR 15/15 A3016 RMK AO2 T01500145 10196 20150 402420105,KPKV,2015-02-12T05:55:00Z,28.65,-96.68,15.0,14.5,60,3,,7.0,30.159449,,,TRUE,TRUE,,,,,,,CLR,,,,,,,,VFR,,19.6,15.0,24.2,10.5,,,,,,,METAR,9.0
KPEZ 120555Z AUTO 00000KT 10SM CLR 12/10 A3017 RMK AO2 T01200104 10227 20120 402460075,KPEZ,2015-02-12T05:55:00Z,28.95,-98.52,12.0,10.4,0,0,,10.0,30.171259,,,TRUE,TRUE,,,,,,,CLR,,,,,,,,VFR,,22.7,12.0,24.6,7.5,,,,,,,METAR,132.0
KPBH 120555Z AUTO 35009G15KT 10SM SCT022 M16/M20 A3024 RMK AO2 T11571197 11120 21158 410551158,KPBH,2015-02-12T05:55:00Z,45.7,-90.4,-15.7,-19.7,350,9,15,10.0,30.239174,,,TRUE,TRUE,,,,,,,SCT,2200,,,,,,,VFR,,-12.0,-15.8,-5.5,-15.8,,,,,,,METAR,449.0
KOWP 120555Z AUTO 01006KT 10SM CLR 00/M05 A3043 RMK AO2 T00031051 10080 20003 401190003,KOWP,2015-02-12T05:55:00Z,36.18,-96.15,0.3,-5.1,10,6,,10.0,30.431103,,,TRUE,TRUE,,,,,,,CLR,,,,,,,,VFR,,8.0,0.3,11.9,0.3,,,,,,,METAR,272.0
KORG 120555Z AUTO 00000KT 2 1/2SM BR CLR 08/08 A3016 RMK AO2 T00780078 10170 20078 402250056,KORG,2015-02-12T05:55:00Z,30.07,-93.8,7.8,7.8,0,0,,2.5,30.159449,,,TRUE,TRUE,,,,,,BR,CLR,,,,,,,,IFR,,17.0,7.8,22.5,5.6,,,,,,,METAR,4.0
KONX 120555Z AUTO 00000KT 10SM CLR M01/M02 A2997 RMK AO2 T10101019 10030 21016,KONX,2015-02-12T05:55:00Z,36.4,-76.02,-1.0,-1.9,0,0,,10.0,29.970472,,,TRUE,TRUE,,,,,,,CLR,,,,,,,,VFR,,3.0,-1.6,,,,,,,,,METAR,5.0
KOKZ 120555Z AUTO 00000KT 10SM CLR 04/04 A2998 RMK AO2 6//// T00410035 10106 20040 401660001 PNO,KOKZ,2015-02-12T05:55:00Z,32.97,-82.83,4.1,3.5,0,0,,10.0,29.97933,,,TRUE,TRUE,,,,,,,CLR,,,,,,,,VFR,,10.6,4.0,16.6,0.1,,,,,,,METAR,134.0
KOBE 120555Z AUTO 31003KT 10SM CLR 07/07 A3008 RMK AO2,KOBE,2015-02-12T05:55:00Z,27.27,-80.85,7.0,7.0,310,3,,10.0,30.079725,,,TRUE,TRUE,,,,,,,CLR,,,,,,,,VFR,,,,,,,,,,,,METAR,11.0
KMRC 120555Z AUTO 00000KT BKN042 03/03 A3010 RMK,KMRC,2015-02-12T05:55:00Z,35.55,-87.18,3.0,3.0,0,0,,,30.100393,,,TRUE,,,,,,,,BKN,4200,,,,,,,,,,,,,,,,,,,METAR,208.0
KMQB 120555Z AUTO 33023G28KT 10SM OVC024 M06/M09 A3029 RMK AO2 T10591094 11035 21059 400151059,KMQB,2015-02-12T05:55:00Z,40.52,-90.65,-5.9,-9.4,330,23,28,10.0,30.28937,,,TRUE,TRUE,,,,,,,OVC,2400,,,,,,,MVFR,,-3.5,-5.9,1.5,-5.9,,,,,,,METAR,215.0
KMMI 120555Z AUTO 00000KT 10SM CLR M01/M02 A3006 RMK,KMMI,2015-02-12T05:55:00Z,35.4,-84.57,-1.0,-2.0,0,0,,10.0,30.059055,,,TRUE,,,,,,,,CLR,,,,,,,,VFR,,,,,,,,,,,,METAR,266.0
KMMH 120555Z AUTO 33003KT 10SM CLR 00/M07 A3044 RMK AO1,KMMH,2015-02-12T05:55:00Z,37.62,-118.82,0.0,-7.0,330,3,,10.0,30.43996,,,TRUE,TRUE,,,,,,,CLR,,,,,,,,VFR,,,,,,,,,,,,METAR,2173.0
KMKN 120555Z AUTO 01016G22KT 10SM CLR 07/02 A3034 RMK AO2 T00720018 10175 20072 402280072,KMKN,2015-02-12T05:55:00Z,31.92,-98.6,7.2,1.8,10,16,22,10.0,30.339567,,,TRUE,TRUE,,,,,,,CLR,,,,,,,,VFR,,17.5,7.2,22.8,7.2,,,,,,,METAR,423.0
KMFV 120555Z AUTO 17003KT 7SM CLR M02/M03 A2994 RMK AO2,KMFV,2015-02-12T05:55:00Z,37.63,-75.77,-2.0,-3.0,170,3,,7.0,29.940945,,,TRUE,TRUE,,,,,,,CLR,,,,,,,,VFR,,,,,,,,,,,,METAR,15.0
KMER 120555Z AUTO 08005KT 09/09 A3020 RMK AO1,KMER,2015-02-12T05:55:00Z,37.38,-120.57,9.0,9.0,80,5,,,30.200787,,,TRUE,TRUE,,,,,,,,,,,,,,,,,,,,,,,,,,,METAR,57.0
KMDQ 120555Z AUTO 00000KT 10SM CLR 00/M02 A3009 RMK AO2,KMDQ,2015-02-12T05:55:00Z,34.87,-86.55,0.0,-2.0,0,0,,10.0,30.088583,,,TRUE,TRUE,,,,,,,CLR,,,,,,,,VFR,,,,,,,,,,,,METAR,230.0
KMCX 120555Z AUTO 29014G18KT 10SM OVC033 M05/M09 A3008 RMK AO2 T10551090 11005 21055,KMCX,2015-02-12T05:55:00Z,40.72,-86.77,-5.5,-9.0,290,14,18,10.0,30.079725,,,TRUE,TRUE,,,,,,,OVC,3300,,,,,,,VFR,,-0.5,-5.5,,,,,,,,,METAR,206.0
KMCJ 120555Z AUTO 00000KT 6SM CLR 15/12 A3012 RMK AO1,KMCJ,2015-02-12T05:55:00Z,29.72,-95.4,15.0,12.0,0,0,,6.0,30.121063,,,TRUE,TRUE,,,,,,,CLR,,,,,,,,VFR,,,,,,,,,,,,METAR,69.0
KMCD 120555Z AUTO 34012G20KT 10SM SCT012 OVC018 M13/M16 A2997 RMK AO2 T11351165 11086 21135,KMCD,2015-02-12T05:55:00Z,45.85,-84.63,-13.5,-16.5,340,12,20,10.0,29.970472,,,TRUE,TRUE,,,,,,,SCT,1200,OVC,1800,,,,,MVFR,,-8.6,-13.5,,,,,,,,,METAR,226.0
KLXY 120555Z AUTO 36008G18KT 10SM BKN070 11/05 A3025 RMK AO2 T01070046 10202 20107 402270085,KLXY,2015-02-12T05:55:00Z,31.63,-96.52,10.7,4.6,360,8,18,10.0,30.250984,,,TRUE,TRUE,,,,,,,BKN,7000,,,,,,,VFR,,20.2,10.7,22.7,8.5,,,,,,,METAR,166.0
KLHM 120555Z AUTO 06003KT 10SM CLR 07/07 A3020 RMK AO1,KLHM,2015-02-12T05:55:00Z,38.92,-121.35,7.0,7.0,60,3,,10.0,30.200787,,,TRUE,TRUE,,,,,,,CLR,,,,,,,,VFR,,,,,,,,,,,,METAR,37.0
KLHB 120555Z AUTO 34011G20KT 10SM BKN055 14/07 A3023 RMK AO2 T01380073 10220 20137 402400113,KLHB,2015-02-12T05:55:00Z,30.87,-96.62,13.8,7.3,340,11,20,10.0,30.230314,,,TRUE,TRUE,,,,,,,BKN,5500,,,,,,,VFR,,22.0,13.7,24.0,11.3,,,,,,,METAR,87.0
KLBE 120555Z AUTO 23008KT 7SM OVC015 00/M01 A2986 RMK AO2,KLBE,2015-02-12T05:55:00Z,40.27,-79.4,0.0,-1.0,230,8,,7.0,29.861221,,,TRUE,TRUE,,,,,,,OVC,1500,,,,,,,MVFR,,,,,,,,,,,,METAR,361.0
KL18 120555Z AUTO 04004KT 10SM CLR 21/M08 A3007 RMK AO2,KL18,2015-02-12T05:55:00Z,33.35,-117.25,21.0,-8.0,40,4,,10.0,30.070866,,,TRUE,TRUE,,,,,,,CLR,,,,,,,,VFR,,,,,,,,,,,,METAR,216.0
KJQF 120555Z AUTO 00000KT 10SM CLR 04/01 A2996 RMK AO2,KJQF,2015-02-12T05:55:00Z,35.38,-80.72,4.0,1.0,0,0,,10.0,29.958662,,,TRUE,TRUE,,,,,,,CLR,,,,,,,,VFR,,,,,,,,,,,,METAR,210.0
KJNX 120555Z AUTO 00000KT 10SM CLR 00/M01 A2995 RMK AO2,KJNX,2015-02-12T05:55:00Z,35.53,-78.38,0.0,-1.0,0,0,,10.0,29.949802,,,TRUE,TRUE,,,,,,,CLR,,,,,,,,VFR,,,,,,,,,,,,METAR,50.0
KJKA 120555Z AUTO 00000KT 10SM CLR 08/08 A3010 RMK AO2 T00820077 10108 20058,KJKA,2015-02-12T05:55:00Z,30.28,-87.67,8.2,7.7,0,0,,10.0,30.100393,,,TRUE,TRUE,,,,,,,CLR,,,,,,,,VFR,,10.8,5.8,,,,,,,,,METAR,5.0
KJDD 120555Z AUTO 34009KT 10SM CLR 08/02 A3029 RMK AO2,KJDD,2015-02-12T05:55:00Z,32.75,-95.5,8.0,2.0,340,9,,10.0,30.28937,,,TRUE,TRUE,,,,,,,CLR,,,,,,,,VFR,,,,,,,,,,,,METAR,132.0
K5A6 120555Z AUTO 36003KT 10SM CLR 07/01 A3015 RMK AO2 T00690005 10126 20055 401601023,K5A6,2015-02-12T05:55:00Z,33.47,-89.73,6.9,0.5,360,3,,10.0,30.15059,,,TRUE,TRUE,,,,,,,CLR,,,,,,,,VFR,,12.6,5.5,16.0,-2.3,,,,,,,METAR,111.0
KZPH 120555Z AUTO 00000KT 10SM CLR 06/06 A3010 RMK AO2,KZPH,2015-02-12T05:55:00Z,28.23,-82.15,6.0,6.0,0,0,,10.0,30.100393,,,TRUE,TRUE,,,,,,,CLR,,,,,,,,VFR,,,,,,,,,,,,METAR,26.0
KW75 120555Z AUTO 15006KT 10SM CLR M01/M03 A2993 RMK AO1 T10091026 11007 21030,KW75,2015-02-12T05:55:00Z,37.6,-76.45,-0.9,-2.6,150,6,,10.0,29.929134,,,TRUE,TRUE,,,,,,,CLR,,,,,,,,VFR,,-0.7,-3.0,,,,,,,,,METAR,9.0
KW63 120555Z AUTO 21005KT 10SM CLR 01/00 A2990 RMK AO1,KW63,2015-02-12T05:55:00Z,36.6,-78.55,1.0,0.0,210,5,,10.0,29.899607,,,TRUE,TRUE,,,,,,,CLR,,,,,,,,VFR,,,,,,,,,,,,METAR,129.0
KW31 120555Z AUTO 00000KT 10SM CLR 01/M01 A2988 RMK AO1 T00111015 10048 20011,KW31,2015-02-12T05:55:00Z,36.95,-78.18,1.1,-1.5,0,0,,10.0,29.878937,,,TRUE,TRUE,,,,,,,CLR,,,,,,,,VFR,,4.8,1.1,,,,,,,,,METAR,162.0
KW13 120555Z AUTO 23007KT 10SM BKN055 04/M04 A2985 RMK AO1 T00421041 10052 20025,KW13,2015-02-12T05:55:00Z,38.08,-78.95,4.2,-4.1,230,7,,10.0,29.84941,,,TRUE,TRUE,,,,,,,BKN,5500,,,,,,,VFR,,5.2,2.5,,,,,,,,,METAR,443.0
KVTI 120555Z AUTO 33019G26KT 10SM CLR M12/M18 A3035 RMK AO2 T11221176 11065 21122 400251122,KVTI,2015-02-12T05:55:00Z,42.22,-92.02,-12.2,-17.6,330,19,26,10.0,30.351377,,,TRUE,TRUE,,,,,,,CLR,,,,,,,,VFR,,-6.5,-12.2,2.5,-12.2,,,,,,,METAR,255.0
KVDI 120555Z AUTO 23004KT 10SM CLR 07/06 A3000 RMK AO2,KVDI,2015-02-12T05:55:00Z,32.2,-82.37,7.0,6.0,230,4,,10.0,30.0,,,TRUE,TRUE,,,,,,,CLR,,,,,,,,VFR,,,,,,,,,,,,METAR,84.0
KUCY 120555Z AUTO 34008KT 10SM CLR M01/M04 A3021 RMK,KUCY,2015-02-12T05:55:00Z,36.38,-88.98,-1.0,-4.0,340,8,,10.0,30.209646,,,TRUE,,,,,,,,CLR,,,,,,,,VFR,,,,,,,,,,,,METAR,104.0
KTTA 120555Z AUTO 00000KT 7SM CLR M01/M01 A2994 RMK AO2 T10111011 10043 21011 401151014,KTTA,2015-02-12T05:55:00Z,35.58,-79.1,-1.1,-1.1,0,0,,7.0,29.940945,,,TRUE,TRUE,,,,,,,CLR,,,,,,,,VFR,,4.3,-1.1,11.5,-1.4,,,,,,,METAR,75.0
KTPF 120555Z AUTO 00000KT 10SM CLR 12/09 A3009 RMK AO2,KTPF,2015-02-12T05:55:00Z,27.92,-82.45,12.0,9.0,0,0,,10.0,30.088583,,,TRUE,TRUE,,,,,,,CLR,,,,,,,,VFR,,,,,,,,,,,,METAR,3.0
KTHA 120555Z AUTO 36005KT 10SM CLR 02/M01 A3009 RMK,KTHA,2015-02-12T05:55:00Z,35.38,-86.25,2.0,-1.0,360,5,,10.0,30.088583,,,TRUE,,,,,,,,CLR,,,,,,,,VFR,,,,,,,,,,,,METAR,331.0
KTBX 120555Z AUTO 14010KT 10SM CLR 00/M04 A3035 RMK AO2,KTBX,2015-02-12T05:55:00Z,43.47,-108.23,0.0,-4.0,140,10,,10.0,30.351377,,,TRUE,TRUE,,,,,,,CLR,,,,,,,,VFR,,,,,,,,,,,,METAR,2225.0
KSZT 120555Z AUTO 00000KT 1/4SM FG OVC003 03/03 A3028 RMK AO2,KSZT,2015-02-12T05:55:00Z,48.3,-116.57,3.0,3.0,0,0,,0.25,30.280512,,,TRUE,TRUE,,,,,,FG,OVC,300,,,,,,,LIFR,,,,,,,,,,,,METAR,648.0
KSYI 120555Z AUTO 35005KT 10SM SCT042 02/00 A3011 RMK,KSYI,2015-02-12T05:55:00Z,35.57,-86.45,2.0,0.0,350,5,,10.0,30.109253,,,TRUE,,,,,,,,SCT,4200,,,,,,,VFR,,,,,,,,,,,,METAR,245.0
KSVC 120555Z AUTO 07010KT 10SM CLR 05/M02 A3033 RMK AO2,KSVC,2015-02-12T05:55:00Z,32.63,-108.15,5.0,-2.0,70,10,,10.0,30.33071,,,TRUE,TRUE,,,,,,,CLR,,,,,,,,VFR,,,,,,,,,,,,METAR,1659.0
KSUN 120555Z AUTO 30007KT 10SM CLR 01/M01 A3039 RMK AO2,KSUN,2015-02-12T05:55:00Z,43.5,-114.28,1.0,-1.0,300,7,,10.0,30.389763,,,TRUE,TRUE,,,,,,,CLR,,,,,,,,VFR,,,,,,,,,,,,METAR,1620.0
KSTF 120555Z AUTO 00000KT 10SM CLR 05/01 A3014 RMK AO2,KSTF,2015-02-12T05:55:00Z,33.43,-88.85,5.0,1.0,0,0,,10.0,30.138779,,,TRUE,TRUE,,,,,,,CLR,,,,,,,,VFR,,,,,,,,,,,,METAR,102.0
KSOW 120555Z AUTO 02004KT 10SM CLR M01/M05 A3033 RMK AO2,KSOW,2015-02-12T05:55:00Z,34.27,-110.0,-1.0,-5.0,20,4,,10.0,30.33071,,,TRUE,TRUE,,,,,,,CLR,,,,,,,,VFR,,,,,,,,,,,,METAR,1954.0
KSNL 120555Z AUTO 02010KT 10SM OVC110 03/M02 A3042 RMK AO2,KSNL,2015-02-12T05:55:00Z,35.35,-96.95,3.0,-2.0,20,10,,10.0,30.41929,,,TRUE,TRUE,,,,,,,OVC,11000,,,,,,,VFR,,,,,,,,,,,,METAR,327.0
KSMS 120555Z AUTO 00000KT 9SM CLR 02/01 A2997 RMK AO2,KSMS,2015-02-12T05:55:00Z,34.0,-80.37,2.0,1.0,0,0,,9.0,29.970472,,,TRUE,TRUE,,,,,,,CLR,,,,,,,,VFR,,,,,,,,,,,,METAR,56.0
KSLO 120555Z AUTO 30010G15KT 10SM CLR M02/M06 A3022 RMK AO2 T10171065 10012 21017 400841017,KSLO,2015-02-12T05:55:00Z,38.65,-88.97,-1.7,-6.5,300,10,15,10.0,30.221457,,,TRUE,TRUE,,,,,,,CLR,,,,,,,,VFR,,1.2,-1.7,8.4,-1.7,,,,,,,METAR,175.0
KSAR 120555Z AUTO 30008G14KT 10SM CLR M02/M06 A3026 RMK AO2 T10201060 10021 21020,KSAR,2015-02-12T05:55:00Z,38.15,-89.7,-2.0,-6.0,300,8,14,10.0,30.259842,,,TRUE,TRUE,,,,,,,CLR,,,,,,,,VFR,,2.1,-2.0,,,,,,,,,METAR,164.0
KRSV 120555Z AUTO 31015G21KT 10SM OVC026 M02/M06 A3019 RMK AO2 T10221065 10002 21023 400471056,KRSV,2015-02-12T05:55:00Z,39.02,-87.65,-2.2,-6.5,310,15,21,10.0,30.188976,,,TRUE,TRUE,,,,,,,OVC,2600,,,,,,,MVFR,,0.2,-2.3,4.7,-5.6,,,,,,,METAR,141.0
KRSN 120555Z AUTO 00000KT 10SM CLR 07/06 A3022 RMK AO2 T00660056 10143 20065 402050005,KRSN,2015-02-12T05:55:00Z,32.52,-92.58,6.6,5.6,0,0,,10.0,30.221457,,,TRUE,TRUE,,,,,,,CLR,,,,,,,,VFR,,14.3,6.5,20.5,0.5,,,,,,,METAR,95.0
KRPD 120555Z AUTO 33011G16KT 10SM CLR M16/M21 A3038 RMK AO2 T11641212 11100 21164 410371164,KRPD,2015-02-12T05:55:00Z,45.42,-91.77,-16.4,-21.2,330,11,16,10.0,30.380905,,,TRUE,TRUE,,,,,,,CLR,,,,,,,,VFR,,-10.0,-16.4,-3.7,-16.4,,,,,,,METAR,338.0
KRKR 120555Z AUTO 34007KT 10SM OVC110 05/M04 A3035 RMK AO2 T00501040 10108 20046 401760016,KRKR,2015-02-12T05:55:00Z,35.02,-94.62,5.0,-4.0,340,7,,10.0,30.351377,,,TRUE,TRUE,,,,,,,OVC,11000,,,,,,,VFR,,10.8,4.6,17.6,1.6,,,,,,,METAR,138.0
KLWB 120555Z AUTO 28004KT 10SM OVC024 02/M02 A2990 RMK AO2 T00201022 10050 20020,KLWB,2015-02-12T05:55:00Z,37.87,-80.4,2.0,-2.2,280,4,,10.0,29.899607,,,TRUE,TRUE,,,,,,,OVC,2400,,,,,,,MVFR,,5.0,2.0,,,,,,,,,SPECI,702.0
KLOT 120555Z AUTO 30011KT 10SM OVC100 M09/M13 A3013 RMK AO2 T10911130 11025 21091 400151091,KLOT,2015-02-12T05:55:00Z,41.6,-88.1,-9.1,-13.0,300,11,,10.0,30.129921,,,TRUE,TRUE,,,,,,,OVC,10000,,,,,,,VFR,,-2.5,-9.1,1.5,-9.1,,,,,,,SPECI,205.0
KLNP 120555Z AUTO 24008KT 10SM OVC022 02/M02 A2995 RMK AO2,KLNP,2015-02-12T05:55:00Z,36.97,-82.52,2.0,-2.0,240,8,,10.0,29.949802,,,TRUE,TRUE,,,,,,,OVC,2200,,,,,,,MVFR,,,,,,,,,,,,SPECI,817.0
KY49 120555Z AUTO 31003KT 10SM CLR M22/M25 A3053 RMK AO2 T12211250 11182 21221 410531221,KY49,2015-02-12T05:55:00Z,47.13,-94.65,-22.1,-25.0,310,3,,10.0,30.528543,,,TRUE,TRUE,,,,,,,CLR,,,,,,,,VFR,,-18.2,-22.1,-5.3,-22.1,,,,,,,SPECI,416.0
K1R7 120555Z AUTO 00000KT CLR 08/04 A3016 RMK AO2,K1R7,2015-02-12T05:55:00Z,31.6,-90.42,8.0,4.0,0,0,,,30.159449,,,TRUE,TRUE,,,,,,,CLR,,,,,,,,,,,,,,,,,,,,METAR,149.0
EHGR 120555Z AUTO 14002KT 2800 BR OVC016 01/00 Q1021 YLO,EHGR,2015-02-12T05:55:00Z,51.57,4.92,1.0,0.0,140,2,,1.74,30.147638,,,TRUE,,,,,,,BR,OVC,1600,,,,,,,IFR,,,,,,,,,,,,METAR,13.0
PAUT 120555Z AUTO 32019G23KT 4SM BR BKN004 OVC011 02/02 A2917 RMK AO2 T00200016 10020 20013,PAUT,2015-02-12T05:55:00Z,54.15,-165.6,2.0,1.6,320,19,23,4.0,29.170275,,,TRUE,TRUE,,,,,,BR,BKN,400,OVC,1100,,,,,LIFR,,2.0,1.3,,,,,,,,,METAR,25.0
KGWR 120555Z AUTO 32011KT 10SM SCT012 M19/M23 A3069 RMK A01 P000,KGWR,2015-02-12T05:55:00Z,46.22,-97.65,-19.0,-23.0,320,11,,10.0,30.690945,,,TRUE,TRUE,,,,,,,SCT,1200,,,,,,,VFR,,,,,,,,,,,,METAR,386.0
KFDW 120555Z AUTO 18005KT 10SM CLR 07/03 A2994 RMK AO1,KFDW,2015-02-12T05:55:00Z,34.32,-81.12,7.0,3.0,180,5,,10.0,29.940945,,,TRUE,TRUE,,,,,,,CLR,,,,,,,,VFR,,,,,,,,,,,,METAR,176.0
KO54 120555Z AUTO 00000KT 5SM CLR 04/04 A3026 RMK AO1,KO54,2015-02-12T05:55:00Z,40.75,-122.92,4.0,4.0,0,0,,5.0,30.259842,,,TRUE,TRUE,,,,,,,CLR,,,,,,,,MVFR,,,,,,,,,,,,SPECI,717.0
K96D 120555Z AUTO 31006KT M24/M27 A3073 RMK AO2,K96D,2015-02-12T05:55:00Z,48.93,-97.9,-24.0,-27.0,310,6,,,30.72933,,,TRUE,TRUE,,,,,,,,,,,,,,,,,,,,,,,,,,,SPECI,290.0
K4A6 120555Z AUTO 00000KT 10SM CLR 01/M01 A3008 RMK AO2,K4A6,2015-02-12T05:55:00Z,34.68,-86.0,1.0,-1.0,0,0,,10.0,30.079725,,,TRUE,TRUE,,,,,,,CLR,,,,,,,,VFR,,,,,,,,,,,,SPECI,198.0
K20U 120555Z AUTO 13012G16KT 10SM FEW006 SCT014 M14/M16 A3046 RMK AO2,K20U,2015-02-12T05:55:00Z,46.93,-103.98,-14.0,-16.0,130,12,16,10.0,30.46063,,,TRUE,TRUE,,,,,,,FEW,600,SCT,1400,,,,,VFR,,,,,,,,,,,,SPECI,840.0
KVPS 120555Z 36002KT 10SM BKN250 07/05 A3007 RMK AO2A SLP189 T00740054 10118 20069 401441001 57002 $,KVPS,2015-02-12T05:55:00Z,30.47,-86.52,7.4,5.4,360,2,,10.0,30.070866,1018.9,,,TRUE,TRUE,,,,,,BKN,25000,,,,,,,VFR,-0.2,11.8,6.9,14.4,-0.1,,,,,,,METAR,26.0
K9L2 120555Z AUTO 33006KT 10SM CLR 07/M04 A3025 RMK AO2 SLP243 T00721044 10217 20072 51010 TSNO $,K9L2,2015-02-12T05:55:00Z,34.97,-117.87,7.2,-4.4,330,6,,10.0,30.250984,1024.3,,TRUE,TRUE,TRUE,,TRUE,,,,CLR,,,,,,,,VFR,1.0,21.7,7.2,,,,,,,,,METAR,701.0
KIXA 120555Z AUTO 18005KT 10SM CLR 00/M01 A2995 RMK AO2,KIXA,2015-02-12T05:55:00Z,36.33,-77.63,0.0,-1.0,180,5,,10.0,29.949802,,,TRUE,TRUE,,,,,,,CLR,,,,,,,,VFR,,,,,,,,,,,,METAR,44.0
KIPJ 120555Z AUTO 24003KT 10SM CLR 03/00 A2992 RMK AO2 T00291001 10079 20007 401331042,KIPJ,2015-02-12T05:55:00Z,35.48,-81.17,2.9,-0.1,240,3,,10.0,29.920275,,,TRUE,TRUE,,,,,,,CLR,,,,,,,,VFR,,7.9,0.7,13.3,-4.2,,,,,,,METAR,267.0
KIGQ 120555Z AUTO 28008KT 10SM BKN034 BKN090 M07/M12 A3011 RMK AO2 T10711116 11008 21071 400251071,KIGQ,2015-02-12T05:55:00Z,41.53,-87.53,-7.1,-11.6,280,8,,10.0,30.109253,,,TRUE,TRUE,,,,,,,BKN,3400,BKN,9000,,,,,VFR,,-0.8,-7.1,2.5,-7.1,,,,,,,METAR,188.0
KIFA 120555Z AUTO 33026G33KT 10SM SCT013 BKN022 BKN029 M15/M19 A3041 RMK AO2 T11471192 11061 21147 400171147,KIFA,2015-02-12T05:55:00Z,42.47,-93.27,-14.7,-19.2,330,26,33,10.0,30.410433,,,TRUE,TRUE,,,,,,,SCT,1300,BKN,2200,BKN,2900,,,MVFR,,-6.1,-14.7,1.7,-14.7,,,,,,,METAR,347.0
KICL 120555Z AUTO 33019G34KT 10SM OVC034 M05/M11 A3046 RMK AO2,KICL,2015-02-12T05:55:00Z,40.72,-95.02,-5.0,-11.0,330,19,34,10.0,30.46063,,,TRUE,TRUE,,,,,,,OVC,3400,,,,,,,VFR,,,,,,,,,,,,METAR,303.0
KI39 120555Z AUTO 28009KT 10SM OVC021 02/M02 A3003 RMK AO2,KI39,2015-02-12T05:55:00Z,37.63,-84.33,2.0,-2.0,280,9,,10.0,30.029528,,,TRUE,TRUE,,,,,,,OVC,2100,,,,,,,MVFR,,,,,,,,,,,,METAR,306.0
KHZE 120555Z AUTO 11003KT 10SM CLR M21/M25 A3065 RMK AO2,KHZE,2015-02-12T05:55:00Z,47.28,-101.58,-21.0,-25.0,110,3,,10.0,30.649607,,,TRUE,TRUE,,,,,,,CLR,,,,,,,,VFR,,,,,,,,,,,,METAR,553.0
KHSB 120555Z AUTO 30009KT 10SM CLR M02/M05 A3024 RMK AO2 T10161052 10040 21023 401021039,KHSB,2015-02-12T05:55:00Z,37.82,-88.55,-1.6,-5.2,300,9,,10.0,30.239174,,,TRUE,TRUE,,,,,,,CLR,,,,,,,,VFR,,4.0,-2.3,10.2,-3.9,,,,,,,METAR,121.0
KHAE 120555Z AUTO 32020G27KT 10SM OVC030 M02/M10 A3029 RMK AO2,KHAE,2015-02-12T05:55:00Z,39.73,-91.45,-2.0,-10.0,320,20,27,10.0,30.28937,,,TRUE,TRUE,,,,,,,OVC,3000,,,,,,,MVFR,,,,,,,,,,,,METAR,234.0
FJDG 120555Z 35008KT 9999 FEW020 BKN220 31/26 A2987 RMK SLP112 8/202 T03090262 10309 20274 50000,FJDG,2015-02-12T05:55:00Z,-7.32,72.42,30.9,26.2,350,8,,6.21,29.870079,1011.2,,,,,,,,,,FEW,2000,BKN,22000,,,,,VFR,0.0,30.9,27.4,,,,,,,,,METAR,3.0
KBEA 120555Z AUTO 07005KT 7SM BKN034 16/16 A3015 RMK AO2 T01600160 10215 20150 402500080,KBEA,2015-02-12T05:55:00Z,28.37,-97.78,16.0,16.0,70,5,,7.0,30.15059,,,TRUE,TRUE,,,,,,,BKN,3400,,,,,,,VFR,,21.5,15.0,25.0,8.0,,,,,,,METAR,82.0
KBCK 120555Z AUTO 35009KT 10SM SCT026 SCT032 SCT047 M12/M17 A3029 RMK AO2 T11201175 11089 21120 410061120,KBCK,2015-02-12T05:55:00Z,44.25,-90.85,-12.0,-17.5,350,9,,10.0,30.28937,,,TRUE,TRUE,,,,,,,SCT,2600,SCT,3200,SCT,4700,,,VFR,,-8.9,-12.0,-0.6,-12.0,,,,,,,METAR,255.0
KBCB 120555Z AUTO 29010G15KT 10SM BKN025 OVC031 02/M03 A2992 RMK AO2 T00231032 10071 20021,KBCB,2015-02-12T05:55:00Z,37.22,-80.42,2.3,-3.2,290,10,15,10.0,29.920275,,,TRUE,TRUE,,,,,,,BKN,2500,OVC,3100,,,,,MVFR,,7.1,2.1,,,,,,,,,METAR,650.0
KJZI 120555Z AUTO 00000KT 7SM CLR 05/04 A3000 RMK A02 P000,KJZI,2015-02-12T05:55:00Z,32.7,-80.0,5.0,4.0,0,0,,7.0,30.0,,,TRUE,TRUE,,,,,,,CLR,,,,,,,,VFR,,,,,,,,,,,,METAR,6.0
KF17 120555Z AUTO 33003KT 10SM CLR 08/06 A3020 RMK AO2 T00810055 10186 20076 402210033,KF17,2015-02-12T05:55:00Z,31.83,-94.15,8.1,5.5,330,3,,10.0,30.200787,,,TRUE,TRUE,,,,,,,CLR,,,,,,,,VFR,,18.6,7.6,22.1,3.3,,,,,,,METAR,97.0
K3AU 120555Z AUTO 36003KT 10SM CLR M04/M07 A3043 RMK AO2,K3AU,2015-02-12T05:55:00Z,37.67,-97.08,-4.0,-7.0,360,3,,10.0,30.431103,,,TRUE,TRUE,,,,,,,CLR,,,,,,,,VFR,,,,,,,,,,,,METAR,405.0
KSWW 120555Z AUTO 03010KT 10SM OVC060 07/M03 A3040 RMK AO2 T00711032 10100 20071 401660067,KSWW,2015-02-12T05:55:00Z,32.47,-100.47,7.1,-3.2,30,10,,10.0,30.398623,,,TRUE,TRUE,,,,,,,OVC,6000,,,,,,,VFR,,10.0,7.1,16.6,6.7,,,,,,,SPECI,727.0
KSUW 120555Z AUTO 36006KT 10SM CLR M17/M22 A3049 RMK AO2 T11721225 11120 21172 410351172,KSUW,2015-02-12T05:55:00Z,46.68,-92.1,-17.2,-22.5,360,6,,10.0,30.490158,,,TRUE,TRUE,,,,,,,CLR,,,,,,,,VFR,,-12.0,-17.2,-3.5,-17.2,,,,,,,SPECI,206.0
KSTE 120555Z AUTO 33009G15KT 10SM SCT020 SCT026 BKN034 M13/M19 A3020 RMK AO2 T11351190 11092 21135 410401135,KSTE,2015-02-12T05:55:00Z,44.55,-89.53,-13.5,-19.0,330,9,15,10.0,30.200787,,,TRUE,TRUE,,,,,,,SCT,2000,SCT,2600,BKN,3400,,,VFR,,-9.2,-13.5,-4.0,-13.5,,,,,,,SPECI,338.0
KSRR 120555Z AUTO 14011KT 10SM -SN OVC016 M02/M04 A3043 RMK AO2,KSRR,2015-02-12T05:55:00Z,33.47,-105.52,-2.0,-4.0,140,11,,10.0,30.431103,,,TRUE,TRUE,,,,,,-SN,OVC,1600,,,,,,,MVFR,,,,,,,,,,,,SPECI,2076.0
KSFQ 120555Z AUTO 00000KT 10SM CLR M02/M03 A2996 RMK AO2 T10201031 11001 21026,KSFQ,2015-02-12T05:55:00Z,36.68,-76.6,-2.0,-3.1,0,0,,10.0,29.958662,,,TRUE,TRUE,,,,,,,CLR,,,,,,,,VFR,,-0.1,-2.6,,,,,,,,,SPECI,22.0
KSEE 120555Z AUTO 00000KT 10SM CLR 14/M01 A3007 RMK AO2,KSEE,2015-02-12T05:55:00Z,32.82,-116.97,14.0,-1.0,0,0,,10.0,30.070866,,,TRUE,TRUE,,,,,,,CLR,,,,,,,,VFR,,,,,,,,,,,,SPECI,117.0
KORS 120555Z AUTO 00000KT 10SM CLR 09/08 A3019 RMK AO2,KORS,2015-02-12T05:55:00Z,48.7,-122.92,9.0,8.0,0,0,,10.0,30.188976,,,TRUE,TRUE,,,,,,,CLR,,,,,,,,VFR,,,,,,,,,,,,METAR,9.0
KCBK 120555Z AUTO 25006KT 10SM CLR M03/M06 A3036 RMK AO2,KCBK,2015-02-12T05:55:00Z,39.43,-101.05,-3.0,-6.0,250,6,,10.0,30.360237,,,TRUE,TRUE,,,,,,,CLR,,,,,,,,VFR,,,,,,,,,,,,SPECI,971.0
KC75 120555Z AUTO 31020G28KT 10SM BKN025 BKN110 M09/M14 A3023 RMK AO2 T10891137 11041 21089 400151089,KC75,2015-02-12T05:55:00Z,41.02,-89.38,-8.9,-13.7,310,20,28,10.0,30.230314,,,TRUE,TRUE,,,,,,,BKN,2500,BKN,11000,,,,,MVFR,,-4.1,-8.9,1.5,-8.9,,,,,,,SPECI,173.0
KD25 120555Z AUTO 35008G18KT 10SM CLR M17/M21 A3022 RMK AO2 T11701207 11133 21170 410581170,KD25,2015-02-12T05:55:00Z,46.12,-89.88,-17.0,-20.7,350,8,18,10.0,30.221457,,,TRUE,TRUE,,,,,,,CLR,,,,,,,,VFR,,-13.3,-17.0,-5.8,-17.0,,,,,,,SPECI,491.0
KCXE 120555Z AUTO 00000KT 10SM CLR 02/00 A2990 RMK AO1 T00160003 10037 20010,KCXE,2015-02-12T05:55:00Z,36.78,-78.5,1.6,0.3,0,0,,10.0,29.899607,,,TRUE,TRUE,,,,,,,CLR,,,,,,,,VFR,,3.7,1.0,,,,,,,,,SPECI,153.0
KCWF 120555Z AUTO 35004KT 7SM CLR 11/10 A3015 RMK AO2 T01080100 10177 20101 402260055,KCWF,2015-02-12T05:55:00Z,30.22,-93.15,10.8,10.0,350,4,,7.0,30.15059,,,TRUE,TRUE,,,,,,,CLR,,,,,,,,VFR,,17.7,10.1,22.6,5.5,,,,,,,SPECI,4.0
KCKP 120555Z AUTO 35017G23KT 10SM CLR M15/M20 A3053 RMK AO2 T11461198 11050 21146 400041146,KCKP,2015-02-12T05:55:00Z,42.73,-95.55,-14.6,-19.8,350,17,23,10.0,30.528543,,,TRUE,TRUE,,,,,,,CLR,,,,,,,,VFR,,-5.0,-14.6,0.4,-14.6,,,,,,,SPECI,374.0
KCCA 120555Z AUTO 31005KT 7SM CLR 03/M04 A3032 RMK AO2,KCCA,2015-02-12T05:55:00Z,35.6,-92.45,3.0,-4.0,310,5,,7.0,30.318897,,,TRUE,TRUE,,,,,,,CLR,,,,,,,,VFR,,,,,,,,,,,,SPECI,157.0
KE11 120555Z AUTO 02010G17KT 10SM OVC041 06/M05 A3041 RMK AO2 T00551048 10072 20055,KE11,2015-02-12T05:55:00Z,32.33,-102.53,5.5,-4.8,20,10,17,10.0,30.410433,,,TRUE,TRUE,,,,,,,OVC,4100,,,,,,,VFR,,7.2,5.5,,,,,,,,,SPECI,967.0
KDTA 120555Z AUTO 16008KT 10SM CLR 02/M03 A3042 RMK AO1 T00171032 10199 21183,KDTA,2015-02-12T05:55:00Z,39.38,-112.5,1.7,-3.2,160,8,,10.0,30.41929,,,TRUE,TRUE,,,,,,,CLR,,,,,,,,VFR,,19.9,-18.3,,,,,,,,,SPECI,1402.0
KDNN 120555Z AUTO 00000KT 10SM CLR 03/00 A3005 RMK AO2,KDNN,2015-02-12T05:55:00Z,34.72,-84.87,3.0,0.0,0,0,,10.0,30.050198,,,TRUE,TRUE,,,,,,,CLR,,,,,,,,VFR,,,,,,,,,,,,SPECI,216.0
KDED 120555Z AUTO 00000KT 10SM CLR A3008 RMK AO1,KDED,2015-02-12T05:55:00Z,29.07,-81.28,,,0,0,,10.0,30.079725,,,TRUE,TRUE,,,,,,,CLR,,,,,,,,VFR,,,,,,,,,,,,SPECI,24.0
KDCY 120555Z AUTO 31015G22KT 10SM OVC025 M01/M07 A3016 RMK AO2 T10141075 10015 21014 400681026,KDCY,2015-02-12T05:55:00Z,38.7,-87.13,-1.4,-7.5,310,15,22,10.0,30.159449,,,TRUE,TRUE,,,,,,,OVC,2500,,,,,,,MVFR,,1.5,-1.4,6.8,-2.6,,,,,,,SPECI,144.0
KTBR 120555Z AUTO 00000KT 10SM CLR 03/03 A2999 RMK AO2 T00310031 10076 20030 401600010,KTBR,2015-02-12T05:55:00Z,32.48,-81.73,3.1,3.1,0,0,,10.0,29.991142,,,TRUE,TRUE,,,,,,,CLR,,,,,,,,VFR,,7.6,3.0,16.0,1.0,,,,,,,SPECI,57.0
KSYF 120555Z AUTO 23010KT 10SM CLR M01/M06 A3035 RMK AO2 T10151063 10068 21017 400981017,KSYF,2015-02-12T05:55:00Z,39.77,-101.8,-1.5,-6.3,230,10,,10.0,30.351377,,,TRUE,TRUE,,,,,,,CLR,,,,,,,,VFR,,6.8,-1.7,9.8,-1.7,,,,,,,SPECI,1025.0
KTFP 120555Z AUTO 05003KT 10SM CLR 16/15 A3013 RMK AO2 T01580150,KTFP,2015-02-12T05:55:00Z,27.92,-97.22,15.8,15.0,50,3,,10.0,30.129921,,,TRUE,TRUE,,,,,,,CLR,,,,,,,,VFR,,,,,,,,,,,,SPECI,6.0
KUES 120555Z AUTO 32008KT 10SM OVC038 M10/M15 A3013 RMK AO2,KUES,2015-02-12T05:55:00Z,43.05,-88.25,-10.0,-15.0,320,8,,10.0,30.129921,,,TRUE,TRUE,,,,,,,OVC,3800,,,,,,,VFR,,,,,,,,,,,,SPECI,278.0
KTMA 120555Z AUTO 23004KT 10SM CLR 08/05 A3004 RMK AO2,KTMA,2015-02-12T05:55:00Z,31.43,-83.48,8.0,5.0,230,4,,10.0,30.041338,,,TRUE,TRUE,,,,,,,CLR,,,,,,,,VFR,,,,,,,,,,,,SPECI,109.0
KUKF 120555Z AUTO 26004KT 10SM CLR 01/M03 A2996 RMK AO2,KUKF,2015-02-12T05:55:00Z,36.22,-81.1,1.0,-3.0,260,4,,10.0,29.958662,,,TRUE,TRUE,,,,,,,CLR,,,,,,,,VFR,,,,,,,,,,,,SPECI,396.0
KUNU 120555Z AUTO 33009G18KT 10SM SCT044 BKN070 OVC095 M10/M15 A3015 RMK AO2 T11041148 11064 21104 410081104,KUNU,2015-02-12T05:55:00Z,43.42,-88.7,-10.4,-14.8,330,9,18,10.0,30.15059,,,TRUE,TRUE,,,,,,,SCT,4400,BKN,7000,OVC,9500,,,VFR,,-6.4,-10.4,-0.8,-10.4,,,,,,,SPECI,285.0
KQVF 120555Z AUTO 09001KT 9999 FEW018 SCT030 28/22 A3001 RMK AO2 SLP161 T02790219 10279 20246 51025 $,KQVF,2015-02-12T05:55:00Z,100.65,-1000.65,27.9,21.9,90,1,,6.21,30.008858,1016.1,,TRUE,TRUE,TRUE,,,,,,FEW,1800,SCT,3000,,,,,VFR,2.5,27.9,24.6,,,,,,,,,METAR,999.0
KQND 120555Z AUTO VRB03KT CLR 21/M05 A2990 RMK AO2 SLP110 T02141053 10331 20267 52011 PWINO TSNO $,KQND,2015-02-12T05:55:00Z,100.65,-1000.65,21.4,-5.3,0,3,,,29.899607,1011.0,,TRUE,TRUE,TRUE,,TRUE,,TRUE,,CLR,,,,,,,,,1.1,33.1,26.7,,,,,,,,,METAR,999.0
KQL5 120555Z 35001KT 4000 HZ SCT150 BKN200 17/02 A3017 RMK SLP217 T01720015 10106 20065 50008,KQL5,2015-02-12T05:55:00Z,100.65,-1000.65,17.2,1.5,350,1,,2.49,30.171259,1021.7,,,,,,,,,HZ,SCT,15000,BKN,20000,,,,,IFR,0.8,10.6,6.5,,,,,,,,,METAR,999.0
KQGV 120555Z 29024G35KT 0300 BLDU VV002 21/M06 A2992 RMK SLPNO QNH1013 PA +465 51031,KQGV,2015-02-12T05:55:00Z,100.65,-1000.65,21.0,-6.0,290,24,35,0.19,29.920275,,,,,,,,,,BLDU,OVX,0,,,,,,,LIFR,3.1,,,,,,,,,,200,METAR,999.0
KQCL 120555Z AUTO 13002KT 17/M01 A3020 RMK AO2 SLP224 T01731012 10063 20039 50002 PWINO TSNO $,KQCL,2015-02-12T05:55:00Z,100.65,-1000.65,17.3,-1.2,130,2,,,30.200787,1022.4,,TRUE,TRUE,TRUE,,TRUE,,TRUE,,,,,,,,,,,0.2,6.3,3.9,,,,,,,,,METAR,999.0
KNKX 120555Z 07007KT 10SM CLR 20/M09 A3005 RMK AO2 SLP168 T02001089 10278 20156 51006,KNKX,2015-02-12T05:55:00Z,32.87,-117.13,20.0,-8.9,70,7,,10.0,30.050198,1016.8,,,TRUE,,,,,,,CLR,,,,,,,,VFR,0.6,27.8,15.6,,,,,,,,,METAR,146.0
KQLP 120555Z AUTO 35005KT 20/07 Q1026 RMK AO2 SLP190 T01960072 PWINO TSNO $,KQLP,2015-02-12T05:55:00Z,100.65,-1000.65,19.6,7.2,350,5,,,30.295275,1019.0,,TRUE,TRUE,TRUE,,TRUE,,TRUE,,,,,,,,,,,,,,,,,,,,,,METAR,999.0
TXKF 120555Z 32027G37KT 9999 VCSH FEW023 SCT045 18/13 Q1000 ,TXKF,2015-02-12T05:55:00Z,32.37,-64.68,18.0,13.0,320,27,37,6.21,29.52756,,,,,,,,,,VCSH,FEW,2300,SCT,4500,,,,,VFR,,,,,,,,,,,,METAR,6.0
PAEH 120555Z AUTO 00000KT 2 1/2SM -SN BR OVC014 M05/M05 A2937 RMK AO2 SNB0503 SLP958 P0001 60007 T10501051 11049 21077 52004,PAEH,2015-02-12T05:55:00Z,58.65,-162.07,-5.0,-5.1,0,0,,2.5,29.371063,995.8,,TRUE,TRUE,,,,,,-SN BR,OVC,1400,,,,,,,IFR,0.4,-4.9,-7.7,,,0.01,,0.07,,,,METAR,161.0
PACZ 120555Z AUTO 05027KT 10SM BKN070 M15/M19 A2956 RMK AO2 PK WND 05033/0513 SLP029 T11471189 11158 21180 50009,PACZ,2015-02-12T05:55:00Z,61.78,-166.03,-14.7,-18.9,50,27,,10.0,29.56004,1002.9,,TRUE,TRUE,,,,,,,BKN,7000,,,,,,,VFR,0.9,-15.8,-18.0,,,,,,,,,METAR,146.0
MUHA 120555Z 13003KT 9000 NSC 11/08 Q1017,MUHA,2015-02-12T05:55:00Z,22.97,-82.42,11.0,8.0,130,3,,5.59,30.029528,,,,,,,,,,,,,,,,,,,,,,,,,,,,,,,METAR,64.0
PASV 120555Z AUTO 00000KT 10SM BKN041 BKN120 M13/M15 A2947 RMK AO2 SLP034 T11281149 11119 21176 52014,PASV,2015-02-12T05:55:00Z,61.1,-155.57,-12.8,-14.9,0,0,,10.0,29.471457,1003.4,,TRUE,TRUE,,,,,,,BKN,4100,BKN,12000,,,,,VFR,1.4,-11.9,-17.6,,,,,,,,,METAR,484.0
PALU 120555Z AUTO 12008KT 10SM FEW120 M26/M30 A3002 RMK AO2 SLP166 T12621300 11246 21289 53003,PALU,2015-02-12T05:55:00Z,68.88,-166.13,-26.2,-30.0,120,8,,10.0,30.02067,1016.6,,TRUE,TRUE,,,,,,,FEW,12000,,,,,,,VFR,0.3,-24.6,-28.9,,,,,,,,,METAR,3.0
PAIM 120555Z AUTO 10014G32KT 10SM CLR M16/M24 A2976 RMK AO2 PK WND 12033/0545 SLP125 T11601244 11154 21163 53006,PAIM,2015-02-12T05:55:00Z,66.0,-153.7,-16.0,-24.4,100,14,32,10.0,29.760826,1012.5,,TRUE,TRUE,,,,,,,CLR,,,,,,,,VFR,0.6,-15.4,-16.3,,,,,,,,,METAR,389.0
NZSP 120555Z 04015KT 9999 FEW080 BKN200 M05/M18 A2893 RMK SLP801,NZSP,2015-02-12T05:55:00Z,-89.98,179.98,-5.0,-18.0,40,15,,6.21,28.931103,980.1,,,,,,,,,,FEW,8000,BKN,20000,,,,,VFR,,,,,,,,,,,,METAR,2830.0
PATL 120555Z AUTO 13003KT 10SM BKN075 BKN100 M17/M21 A2964 RMK AO2 SLP076 T11711215 11160 21179 52007 $,PATL,2015-02-12T05:55:00Z,62.9,-155.97,-17.1,-21.5,130,3,,10.0,29.639763,1007.6,,TRUE,TRUE,TRUE,,,,,,BKN,7500,BKN,10000,,,,,VFR,0.7,-16.0,-17.9,,,,,,,,,METAR,294.0
KDUC 120555Z AUTO 36004KT 10SM CLR 02/M02 A3041 RMK AO2,KDUC,2015-02-12T05:55:00Z,34.47,-97.97,2.0,-2.0,360,4,,10.0,30.410433,,,TRUE,TRUE,,,,,,,CLR,,,,,,,,VFR,,,,,,,,,,,,METAR,339.0
KDUA 120555Z AUTO 35007KT 10SM CLR 05/00 A3035 RMK AO2,KDUA,2015-02-12T05:55:00Z,33.95,-96.4,5.0,0.0,350,7,,10.0,30.351377,,,TRUE,TRUE,,,,,,,CLR,,,,,,,,VFR,,,,,,,,,,,,METAR,213.0
KDRI 120555Z AUTO 00000KT 10SM CLR 10/08 A3017 RMK AO2 T00960077 10175 20089 402380046,KDRI,2015-02-12T05:55:00Z,30.83,-93.33,9.6,7.7,0,0,,10.0,30.171259,,,TRUE,TRUE,,,,,,,CLR,,,,,,,,VFR,,17.5,8.9,23.8,4.6,,,,,,,METAR,63.0
KDQH 120555Z AUTO 00000KT 10SM CLR 07/06 A3004 RMK AO2,KDQH,2015-02-12T05:55:00Z,31.48,-82.87,7.0,6.0,0,0,,10.0,30.041338,,,TRUE,TRUE,,,,,,,CLR,,,,,,,,VFR,,,,,,,,,,,,METAR,78.0
KDNV 120555Z AUTO 31017G21KT 10SM CLR M07/M10 A3011 RMK AO2 T10661102 11016 21066 400211066,KDNV,2015-02-12T05:55:00Z,40.2,-87.6,-6.6,-10.2,310,17,21,10.0,30.109253,,,TRUE,TRUE,,,,,,,CLR,,,,,,,,VFR,,-1.6,-6.6,2.1,-6.6,,,,,,,METAR,212.0
KEDN 120555Z AUTO 00000KT 10SM CLR 05/03 A3006 RMK AO2,KEDN,2015-02-12T05:55:00Z,31.3,-85.9,5.0,3.0,0,0,,10.0,30.059055,,,TRUE,TRUE,,,,,,,CLR,,,,,,,,VFR,,,,,,,,,,,,METAR,110.0
KECS 120555Z AUTO 17008KT 7SM OVC005 M03/M03 A3037 RMK AO2,KECS,2015-02-12T05:55:00Z,43.88,-104.32,-3.0,-3.0,170,8,,7.0,30.369095,,,TRUE,TRUE,,,,,,,OVC,500,,,,,,,IFR,,,,,,,,,,,,METAR,1273.0
KEBG 120555Z AUTO 09003KT 10SM SCT040 16/14 A3010 RMK AO2 T01570139 10236 20157,KEBG,2015-02-12T05:55:00Z,26.45,-98.13,15.7,13.9,90,3,,10.0,30.100393,,,TRUE,TRUE,,,,,,,SCT,4000,,,,,,,VFR,,23.6,15.7,,,,,,,,,METAR,24.0
KE16 120555Z AUTO 00000KT 10SM CLR 13/09 A3020 RMK AO2,KE16,2015-02-12T05:55:00Z,37.08,-121.6,13.0,9.0,0,0,,10.0,30.200787,,,TRUE,TRUE,,,,,,,CLR,,,,,,,,VFR,,,,,,,,,,,,METAR,86.0
KDVO 120555Z AUTO 00000KT 10/10 A3020 RMK AO2,KDVO,2015-02-12T05:55:00Z,38.15,-122.55,10.0,10.0,0,0,,,30.200787,,,TRUE,TRUE,,,,,,,,,,,,,,,,,,,,,,,,,,,METAR,1.0
KDUX 120555Z AUTO 29006KT 10SM CLR M02/M05 A3044 RMK AO2 T10251046 10027 21031 400541031,KDUX,2015-02-12T05:55:00Z,35.85,-102.02,-2.5,-4.6,290,6,,10.0,30.43996,,,TRUE,TRUE,,,,,,,CLR,,,,,,,,VFR,,2.7,-3.1,5.4,-3.1,,,,,,,METAR,1129.0
KEHO 120555Z AUTO 00000KT 10SM CLR 04/00 A2992 RMK AO2 T00420002 10110 20024 401301031,KEHO,2015-02-12T05:55:00Z,35.25,-81.6,4.2,0.2,0,0,,10.0,29.920275,,,TRUE,TRUE,,,,,,,CLR,,,,,,,,VFR,,11.0,2.4,13.0,-3.1,,,,,,,METAR,258.0
KMTV 120555Z AUTO 00000KT 10SM CLR M01/M01 A2993 RMK AO2 T10151015 10064 21018 401301043,KMTV,2015-02-12T05:55:00Z,36.63,-80.02,-1.5,-1.5,0,0,,10.0,29.929134,,,TRUE,TRUE,,,,,,,CLR,,,,,,,,VFR,,6.4,-1.8,13.0,-4.3,,,,,,,SPECI,287.0
KMWC 120555Z AUTO 34014KT 10SM SCT032 OVC044 M08/M15 A3012 RMK AO2,KMWC,2015-02-12T05:55:00Z,43.12,-88.03,-8.0,-15.0,340,14,,10.0,30.121063,,,TRUE,TRUE,,,,,,,SCT,3200,OVC,4400,,,,,VFR,,,,,,,,,,,,SPECI,227.0
K06D 120555Z AUTO 31007KT CLR M26/M29 RMK AO2 PWINO PNO TSNO,K06D,2015-02-12T05:55:00Z,48.88,-99.62,-26.0,-29.0,310,7,,,,,,TRUE,TRUE,,,TRUE,,TRUE,,CLR,,,,,,,,,,,,,,,,,,,,SPECI,556.0
KOLY 120555Z AUTO 30015G19KT 10SM OVC022 M02/M06 A3020 RMK AO2,KOLY,2015-02-12T05:55:00Z,38.72,-88.18,-2.0,-6.0,300,15,19,10.0,30.200787,,,TRUE,TRUE,,,,,,,OVC,2200,,,,,,,MVFR,,,,,,,,,,,,SPECI,147.0
KOCQ 120555Z AUTO 33007KT 10SM CLR M13/M20 A3019 RMK AO1 T11321205 11065 21132 410071132,KOCQ,2015-02-12T05:55:00Z,44.87,-87.92,-13.2,-20.5,330,7,,10.0,30.188976,,,TRUE,TRUE,,,,,,,CLR,,,,,,,,VFR,,-6.5,-13.2,-0.7,-13.2,,,,,,,SPECI,183.0
KNY0 120555Z AUTO 06003KT 10SM OVC024 M08/M13 A2977 RMK AO2 T10801132 11074 21087 410481151,KNY0,2015-02-12T05:55:00Z,42.98,-74.33,-8.0,-13.2,60,3,,10.0,29.769686,,,TRUE,TRUE,,,,,,,OVC,2400,,,,,,,MVFR,,-7.4,-8.7,-4.8,-15.1,,,,,,,SPECI,271.0
KMZZ 120555Z AUTO 28015KT 10SM SCT015 BKN028 OVC041 M03/M06 A3003 RMK AO2 T10321056 10110 21192 401101192,KMZZ,2015-02-12T05:55:00Z,40.48,-85.68,-3.2,-5.6,280,15,,10.0,30.029528,,,TRUE,TRUE,,,,,,,SCT,1500,BKN,2800,OVC,4100,,,MVFR,,11.0,-19.2,11.0,-19.2,,,,,,,SPECI,262.0
KMYZ 120555Z AUTO 01012KT 10SM OVC049 M01/M05 A3045 RMK AO2,KMYZ,2015-02-12T05:55:00Z,39.25,-96.63,-1.0,-5.0,10,12,,10.0,30.448818,,,TRUE,TRUE,,,,,,,OVC,4900,,,,,,,VFR,,,,,,,,,,,,SPECI,319.0
KMWK 120555Z AUTO 00000KT 10SM CLR 00/M02 A2992 RMK AO2 T00041017 10088 20004 401221025,KMWK,2015-02-12T05:55:00Z,36.47,-80.55,0.4,-1.7,0,0,,10.0,29.920275,,,TRUE,TRUE,,,,,,,CLR,,,,,,,,VFR,,8.8,0.4,12.2,-2.5,,,,,,,SPECI,380.0
K3T5 120555Z AUTO 00000KT 10SM CLR 15/14 A3016 RMK AO2 T01450138 10220 20138 402420138,K3T5,2015-02-12T05:55:00Z,29.9,-96.95,14.5,13.8,0,0,,10.0,30.159449,,,TRUE,TRUE,,,,,,,CLR,,,,,,,,VFR,,22.0,13.8,24.2,13.8,,,,,,,SPECI,99.0
KFHB 120555Z AUTO 23005KT 10SM CLR 11/08 A3003 RMK AO1,KFHB,2015-02-12T05:55:00Z,30.62,-81.47,11.0,8.0,230,5,,10.0,30.029528,,,TRUE,TRUE,,,,,,,CLR,,,,,,,,VFR,,,,,,,,,,,,METAR,5.0
KFET 120555Z AUTO 35015G22KT 10SM SCT028 M10/M15 A3055 RMK AO2 T10981154 10001 21098 400401098,KFET,2015-02-12T05:55:00Z,41.45,-96.52,-9.8,-15.4,350,15,22,10.0,30.549213,,,TRUE,TRUE,,,,,,,SCT,2800,,,,,,,VFR,,0.1,-9.8,4.0,-9.8,,,,,,,METAR,367.0
KF44 120555Z AUTO 35008KT 10SM CLR 09/03 A3026 RMK AO2,KF44,2015-02-12T05:55:00Z,32.17,-95.83,9.0,3.0,350,8,,10.0,30.259842,,,TRUE,TRUE,,,,,,,CLR,,,,,,,,VFR,,,,,,,,,,,,METAR,135.0
KF05 120555Z AUTO 33004KT 10SM SCT120 05/M04 A3044 RMK AO1 T00541045 10275 20045 402750045,KF05,2015-02-12T05:55:00Z,34.23,-99.28,5.4,-4.5,330,4,,10.0,30.43996,,,TRUE,TRUE,,,,,,,SCT,12000,,,,,,,VFR,,27.5,4.5,27.5,4.5,,,,,,,METAR,386.0
KEZM 120555Z AUTO 00000KT 10SM CLR 08/08 A3003 RMK AO2 T00840075 10116 20049 401780008,KEZM,2015-02-12T05:55:00Z,32.22,-83.13,8.4,7.5,0,0,,10.0,30.029528,,,TRUE,TRUE,,,,,,,CLR,,,,,,,,VFR,,11.6,4.9,17.8,0.8,,,,,,,METAR,93.0
KETC 120555Z AUTO 17004KT 10SM CLR 00/M01 A2998 RMK AO2 T00001014 10241 21105,KETC,2015-02-12T05:55:00Z,35.93,-77.55,0.0,-1.4,170,4,,10.0,29.97933,,,TRUE,TRUE,,,,,,,CLR,,,,,,,,VFR,,24.1,-10.5,,,,,,,,,METAR,17.0
KERV 120555Z AUTO 02012G19KT 10SM SCT065 14/08 A3022 RMK AO2 T01350083 10205 20110 402330040,KERV,2015-02-12T05:55:00Z,29.98,-99.08,13.5,8.3,20,12,19,10.0,30.221457,,,TRUE,TRUE,,,,,,,SCT,6500,,,,,,,VFR,,20.5,11.0,23.3,4.0,,,,,,,METAR,510.0
KEQA 120555Z AUTO 03003KT 10SM CLR M04/M07 A3042 RMK AO2,KEQA,2015-02-12T05:55:00Z,37.78,-96.82,-4.0,-7.0,30,3,,10.0,30.41929,,,TRUE,TRUE,,,,,,,CLR,,,,,,,,VFR,,,,,,,,,,,,METAR,420.0
KAIG 120555Z AUTO 36015KT 10SM CLR M16/M21 A3016 RMK AO2 T11641210 11118 21165,KAIG,2015-02-12T05:55:00Z,45.15,-89.12,-16.4,-21.0,360,15,,10.0,30.159449,,,TRUE,TRUE,,,,,,,CLR,,,,,,,,VFR,,-11.8,-16.5,,,,,,,,,SPECI,464.0
KANK 120555Z AUTO 00000KT 10SM CLR M04/M06 A3049 RMK AO1 T10451061 10020 21059,KANK,2015-02-12T05:55:00Z,38.53,-106.05,-4.5,-6.1,0,0,,10.0,30.490158,,,TRUE,TRUE,,,,,,,CLR,,,,,,,,VFR,,2.0,-5.9,,,,,,,,,SPECI,2293.0
KBUU 120555Z AUTO 34013G16KT 10SM CLR M10/M16 A3012 RMK AO2 T11031160 11052 21103 400061103,KBUU,2015-02-12T05:55:00Z,42.68,-88.3,-10.3,-16.0,340,13,16,10.0,30.121063,,,TRUE,TRUE,,,,,,,CLR,,,,,,,,VFR,,-5.2,-10.3,0.6,-10.3,,,,,,,SPECI,237.0
KBBF 120555Z AUTO 14010KT 10SM CLR 21/15 A3011 RMK A01,KBBF,2015-02-12T05:55:00Z,27.83,-96.02,21.0,15.0,140,10,,10.0,30.109253,,,TRUE,TRUE,,,,,,,CLR,,,,,,,,VFR,,,,,,,,,,,,METAR,36.0
KGUL 120555Z AUTO 10SM CLR 20/13 A3012 RMK A01,KGUL,2015-02-12T05:55:00Z,27.3,-93.53,20.0,13.0,,,,10.0,30.121063,,,TRUE,TRUE,,,,,,,CLR,,,,,,,,VFR,,,,,,,,,,,,METAR,30.0
KGHB 120555Z AUTO 00000KT 10SM FEW022 20/12 A3013 RMK A01,KGHB,2015-02-12T05:55:00Z,27.83,-91.98,20.0,12.0,0,0,,10.0,30.129921,,,TRUE,TRUE,,,,,,,FEW,2200,,,,,,,VFR,,,,,,,,,,,,METAR,30.0
KGBK 120555Z AUTO VRB04KT 10SM SCT030 20/13 A3011 RMK A01,KGBK,2015-02-12T05:55:00Z,27.2,-92.2,20.0,13.0,0,4,,10.0,30.109253,,,TRUE,TRUE,,,,,,,SCT,3000,,,,,,,VFR,,,,,,,,,,,,METAR,59.0
KEMK 120555Z AUTO 10008KT 10SM CLR 20/15 A3011 RMK A01,KEMK,2015-02-12T05:55:00Z,27.82,-94.32,20.0,15.0,100,8,,10.0,30.109253,,,TRUE,TRUE,,,,,,,CLR,,,,,,,,VFR,,,,,,,,,,,,METAR,26.0
KEIR 120555Z AUTO 04006KT 10SM OVC018 16/13 A3014 RMK A01,KEIR,2015-02-12T05:55:00Z,28.63,-91.48,16.0,13.0,40,6,,10.0,30.138779,,,TRUE,TRUE,,,,,,,OVC,1800,,,,,,,MVFR,,,,,,,,,,,,METAR,28.0
KEHC 120555Z AUTO 08004KT 10SM CLR 18/11 A3012 RMK A01,KEHC,2015-02-12T05:55:00Z,28.43,-92.88,18.0,11.0,80,4,,10.0,30.121063,,,TRUE,TRUE,,,,,,,CLR,,,,,,,,VFR,,,,,,,,,,,,METAR,31.0
KDLP 120555Z AUTO 00000KT 10SM OVC020 15/11 A3011 RMK A01,KDLP,2015-02-12T05:55:00Z,29.12,-89.55,15.0,11.0,0,0,,10.0,30.109253,,,TRUE,TRUE,,,,,,,OVC,2000,,,,,,,MVFR,,,,,,,,,,,,METAR,36.0
KCVW 120555Z AUTO 32004KT M1/4SM FG OVC001 11/11 A3017 RMK A01,KCVW,2015-02-12T05:55:00Z,29.78,-93.3,11.0,11.0,320,4,,0.25,30.171259,,,TRUE,TRUE,,,,,,FG,OVC,100,,,,,,,LIFR,,,,,,,,,,,,METAR,1.0
KCRH 120555Z AUTO 03003KT 10SM OVC020 17/14 A3014 RMK A01,KCRH,2015-02-12T05:55:00Z,28.92,-93.3,17.0,14.0,30,3,,10.0,30.138779,,,TRUE,TRUE,,,,,,,OVC,2000,,,,,,,MVFR,,,,,,,,,,,,METAR,34.0
KBQX 120555Z AUTO 09005KT 10SM CLR 19/16 A3014 RMK A01,KBQX,2015-02-12T05:55:00Z,28.5,-95.72,19.0,16.0,90,5,,10.0,30.138779,,,TRUE,TRUE,,,,,,,CLR,,,,,,,,VFR,,,,,,,,,,,,METAR,34.0
KHQI 120555Z AUTO 09005KT 10SM CLR 20/15 A3013 RMK A01,KHQI,2015-02-12T05:55:00Z,27.93,-93.67,20.0,15.0,90,5,,10.0,30.129921,,,TRUE,TRUE,,,,,,,CLR,,,,,,,,VFR,,,,,,,,,,,,METAR,26.0
KHHV 120555Z AUTO 10010KT 10SM CLR 21/14 A3012 RMK A01,KHHV,2015-02-12T05:55:00Z,26.93,-94.68,21.0,14.0,100,10,,10.0,30.121063,,,TRUE,TRUE,,,,,,,CLR,,,,,,,,VFR,,,,,,,,,,,,METAR,25.0
KGVX 120555Z AUTO 03006KT 8SM CLR 17/16 A3014 RMK A01,KGVX,2015-02-12T05:55:00Z,28.58,-94.98,17.0,16.0,30,6,,8.0,30.138779,,,TRUE,TRUE,,,,,,,CLR,,,,,,,,VFR,,,,,,,,,,,,METAR,39.0
KFHU 120555Z 09008KT 10SM CLR 10/01 A3022 RMK SLP205 52020,KFHU,2015-02-12T05:55:00Z,31.58,-110.35,10.0,1.0,90,8,,10.0,30.221457,1020.5,,,,,,,,,,CLR,,,,,,,,VFR,2.0,,,,,,,,,,,METAR,1438.0
K5H4 120555Z AUTO 00000KT 10SM CLR M24/M27 A3067 RMK AO2,K5H4,2015-02-12T05:55:00Z,47.78,-99.93,-24.0,-27.0,0,0,,10.0,30.670275,,,TRUE,TRUE,,,,,,,CLR,,,,,,,,VFR,,,,,,,,,,,,METAR,490.0
K7L2 120555Z AUTO 04004KT 10SM CLR M19/M22 A3065 RMK AO2,K7L2,2015-02-12T05:55:00Z,46.22,-100.25,-19.0,-22.0,40,4,,10.0,30.649607,,,TRUE,TRUE,,,,,,,CLR,,,,,,,,VFR,,,,,,,,,,,,METAR,543.0
KCKM 120555Z AUTO 35014G20KT 10SM CLR 06/02 A3022 RMK AO1,KCKM,2015-02-12T05:55:00Z,34.3,-90.52,6.0,2.0,350,14,20,10.0,30.221457,,,TRUE,TRUE,,,,,,,CLR,,,,,,,,VFR,,,,,,,,,,,,METAR,53.0
KEOE 120555Z AUTO 22006KT 10SM CLR 05/03 A2996 RMK AO2,KEOE,2015-02-12T05:55:00Z,34.32,-81.63,5.0,3.0,220,6,,10.0,29.958662,,,TRUE,TRUE,,,,,,,CLR,,,,,,,,VFR,,,,,,,,,,,,METAR,174.0
KFFA 120555Z AUTO 00000KT 00/M01 A2996 RMK AO2 T00001006 10348 21086 PWINO,KFFA,2015-02-12T05:55:00Z,36.02,-75.67,0.0,-0.6,0,0,,,29.958662,,,TRUE,TRUE,,,,,TRUE,,,,,,,,,,,,34.8,-8.6,,,,,,,,,METAR,4.0
KFFL 120555Z AUTO 34027G35KT 10SM -SN OVC026 M08/M14 A3032 RMK AO2,KFFL,2015-02-12T05:55:00Z,41.03,-91.97,-8.0,-14.0,340,27,35,10.0,30.318897,,,TRUE,TRUE,,,,,,-SN,OVC,2600,,,,,,,MVFR,,,,,,,,,,,,METAR,244.0
KFKN 120555Z AUTO 17004KT 10SM CLR M02/M03 A2995 RMK AO2 T10171030 10013 21022,KFKN,2015-02-12T05:55:00Z,36.7,-76.9,-1.7,-3.0,170,4,,10.0,29.949802,,,TRUE,TRUE,,,,,,,CLR,,,,,,,,VFR,,1.3,-2.2,,,,,,,,,METAR,12.0
KFOA 120555Z AUTO 31015G22KT 10SM CLR M03/M07 A3021 RMK AO2 T10281068 10002 21028 400721038,KFOA,2015-02-12T05:55:00Z,38.67,-88.45,-2.8,-6.8,310,15,22,10.0,30.209646,,,TRUE,TRUE,,,,,,,CLR,,,,,,,,VFR,,0.2,-2.8,7.2,-3.8,,,,,,,METAR,144.0
KFSW 120555Z AUTO 34020G26KT 10SM OVC028 M06/M10 A3029 RMK AO2,KFSW,2015-02-12T05:55:00Z,40.67,-91.32,-6.0,-10.0,340,20,26,10.0,30.28937,,,TRUE,TRUE,,,,,,,OVC,2800,,,,,,,MVFR,,,,,,,,,,,,METAR,221.0
KFQD 120555Z AUTO 00000KT 10SM CLR 04/00 A2993 RMK AO2 T00351002 10110 20003 401371030,KFQD,2015-02-12T05:55:00Z,35.42,-81.93,3.5,-0.2,0,0,,10.0,29.929134,,,TRUE,TRUE,,,,,,,CLR,,,,,,,,VFR,,11.0,0.3,13.7,-3.0,,,,,,,METAR,329.0
KGBG 120555Z AUTO 29018G27KT 10SM -SN OVC021 M08/M11 A3025 RMK AO2 T10801111 11045 21080 400101080,KGBG,2015-02-12T05:55:00Z,40.93,-90.43,-8.0,-11.1,290,18,27,10.0,30.250984,,,TRUE,TRUE,,,,,,-SN,OVC,2100,,,,,,,MVFR,,-4.5,-8.0,1.0,-8.0,,,,,,,METAR,233.0
KGMJ 120555Z AUTO 01004KT 10SM CLR 00/M05 A3043 RMK AO2,KGMJ,2015-02-12T05:55:00Z,36.6,-94.73,0.0,-5.0,10,4,,10.0,30.431103,,,TRUE,TRUE,,,,,,,CLR,,,,,,,,VFR,,,,,,,,,,,,METAR,254.0
KGHG 120555Z AUTO 29004KT 10SM OVC001 M03/M07 A2991 RMK AO2,KGHG,2015-02-12T05:55:00Z,42.1,-70.67,-3.0,-7.0,290,4,,10.0,29.911417,,,TRUE,TRUE,,,,,,,OVC,100,,,,,,,LIFR,,,,,,,,,,,,METAR,4.0
KGGI 120555Z AUTO 32026G36KT 10SM SCT043 M13/M18 A3038 RMK AO2 T11301182 11055 21130 400201130,KGGI,2015-02-12T05:55:00Z,41.72,-92.73,-13.0,-18.2,320,26,36,10.0,30.380905,,,TRUE,TRUE,,,,,,,SCT,4300,,,,,,,VFR,,-5.5,-13.0,2.0,-13.0,,,,,,,METAR,307.0
KGNT 120555Z AUTO 19007KT 10SM CLR 00/M02 A3043 RMK AO2 T10031020 10040 21015,KGNT,2015-02-12T05:55:00Z,35.17,-107.9,-0.3,-2.0,190,7,,10.0,30.431103,,,TRUE,TRUE,,,,,,,CLR,,,,,,,,VFR,,4.0,-1.5,,,,,,,,,METAR,1987.0
KGUR 120555Z AUTO 11006KT 10SM CLR 03/00 A3037 RMK AO2 T00250000 10130 20025 401670011 PWINO,KGUR,2015-02-12T05:55:00Z,42.25,-104.72,2.5,0.0,110,6,,10.0,30.369095,,,TRUE,TRUE,,,,,TRUE,,CLR,,,,,,,,VFR,,13.0,2.5,16.7,1.1,,,,,,,METAR,1358.0
KGYI 120555Z AUTO 34010KT 10SM CLR 06/01 A3035 RMK AO2 T00600005 10130 20056 401840056,KGYI,2015-02-12T05:55:00Z,33.72,-96.67,6.0,0.5,340,10,,10.0,30.351377,,,TRUE,TRUE,,,,,,,CLR,,,,,,,,VFR,,13.0,5.6,18.4,5.6,,,,,,,METAR,228.0
KGYH 120555Z AUTO 31003KT 10SM CLR 03/00 A2993 RMK AO2,KGYH,2015-02-12T05:55:00Z,34.75,-82.38,3.0,0.0,310,3,,10.0,29.929134,,,TRUE,TRUE,,,,,,,CLR,,,,,,,,VFR,,,,,,,,,,,,METAR,292.0
KH21 120555Z AUTO 28007KT 10SM CLR M02/M06 A3035 RMK AO2,KH21,2015-02-12T05:55:00Z,37.97,-92.68,-2.0,-6.0,280,7,,10.0,30.351377,,,TRUE,TRUE,,,,,,,CLR,,,,,,,,VFR,,,,,,,,,,,,METAR,324.0
KHDE 120555Z AUTO 03009KT 10SM CLR M03/M07 A3044 RMK AO2 T10271070 10035 21035 400651035,KHDE,2015-02-12T05:55:00Z,40.45,-99.32,-2.7,-7.0,30,9,,10.0,30.43996,,,TRUE,TRUE,,,,,,,CLR,,,,,,,,VFR,,3.5,-3.5,6.5,-3.5,,,,,,,METAR,705.0
KHHW 120555Z AUTO 36011KT 10SM CLR 06/M03 A3030 RMK AO2 T00601030 10135 20060 402020060,KHHW,2015-02-12T05:55:00Z,34.03,-95.55,6.0,-3.0,360,11,,10.0,30.301182,,,TRUE,TRUE,,,,,,,CLR,,,,,,,,VFR,,13.5,6.0,20.2,6.0,,,,,,,METAR,144.0
EHWO 120555Z AUTO 09001KT 2500 BR OVC017 02/01 Q1021 YLO,EHWO,2015-02-12T05:55:00Z,51.45,4.32,2.0,1.0,90,1,,1.55,30.147638,,,TRUE,,,,,,,BR,OVC,1700,,,,,,,IFR,,,,,,,,,,,,METAR,17.0
EHVL 120555Z AUTO 18004KT //// // OVC009 03/01 Q1021 RE//,EHVL,2015-02-12T05:55:00Z,53.23,4.92,3.0,1.0,180,4,,,30.147638,,,TRUE,,,,,,,,OVC,900,,,,,,,,,,,,,,,,,,,METAR,5.0
KXIH 120555Z AUTO 07005KT 3SM BR FEW036 15/14 A3014 RMK A01,KXIH,2015-02-12T05:55:00Z,29.18,-94.52,15.0,14.0,70,5,,3.0,30.138779,,,TRUE,TRUE,,,,,,BR,FEW,3600,,,,,,,MVFR,,,,,,,,,,,,METAR,75.0
KVQT 120555Z AUTO 06003KT 10SM CLR 18/10 A3013 RMK A01,KVQT,2015-02-12T05:55:00Z,28.27,-92.27,18.0,10.0,60,3,,10.0,30.129921,,,TRUE,TRUE,,,,,,,CLR,,,,,,,,VFR,,,,,,,,,,,,METAR,25.0
KVOA 120555Z AUTO 32006KT 10SM SCT026 BKN055 16/08 A3009 RMK A01,KVOA,2015-02-12T05:55:00Z,29.23,-87.78,16.0,8.0,320,6,,10.0,30.088583,,,TRUE,TRUE,,,,,,,SCT,2600,BKN,5500,,,,,VFR,,,,,,,,,,,,METAR,53.0
KVKY 120555Z AUTO 33006KT 10SM CLR 16/08 A3011 RMK A01,KVKY,2015-02-12T05:55:00Z,29.25,-88.43,16.0,8.0,330,6,,10.0,30.109253,,,TRUE,TRUE,,,,,,,CLR,,,,,,,,VFR,,,,,,,,,,,,METAR,32.0
KVBS 120555Z AUTO 00000KT 10SM CLR 15/15 A3013 RMK A01,KVBS,2015-02-12T05:55:00Z,29.48,-93.63,15.0,15.0,0,0,,10.0,30.129921,,,TRUE,TRUE,,,,,,,CLR,,,,,,,,VFR,,,,,,,,,,,,METAR,31.0
KVAF 120555Z AUTO 11008KT 10SM CLR 20/15 A3012 RMK A01,KVAF,2015-02-12T05:55:00Z,27.35,-94.63,20.0,15.0,110,8,,10.0,30.121063,,,TRUE,TRUE,,,,,,,CLR,,,,,,,,VFR,,,,,,,,,,,,METAR,46.0
KSQE 120555Z AUTO 07007KT 10SM CLR 18/11 A3012 RMK A01,KSQE,2015-02-12T05:55:00Z,28.07,-90.82,18.0,11.0,70,7,,10.0,30.121063,,,TRUE,TRUE,,,,,,,CLR,,,,,,,,VFR,,,,,,,,,,,,METAR,0.0
KSPR 120555Z AUTO 05006KT 10SM CLR 17/10 A3012 RMK A01,KSPR,2015-02-12T05:55:00Z,28.6,-91.2,17.0,10.0,50,6,,10.0,30.121063,,,TRUE,TRUE,,,,,,,CLR,,,,,,,,VFR,,,,,,,,,,,,METAR,31.0
KMZG 120555Z AUTO 11014KT 10SM CLR 20/16 A3012 RMK A01,KMZG,2015-02-12T05:55:00Z,27.73,-96.18,20.0,16.0,110,14,,10.0,30.121063,,,TRUE,TRUE,,,,,,,CLR,,,,,,,,VFR,,,,,,,,,,,,METAR,29.0
KMIS 120555Z AUTO 33003KT 10SM CLR 19/11 A3011 RMK A01,KMIS,2015-02-12T05:55:00Z,29.3,-88.85,19.0,11.0,330,3,,10.0,30.109253,,,TRUE,TRUE,,,,,,,CLR,,,,,,,,VFR,,,,,,,,,,,,METAR,32.0
KMDJ 120555Z AUTO 01005KT 10SM 17/06 A3015 RMK A01,KMDJ,2015-02-12T05:55:00Z,28.65,-89.8,17.0,6.0,10,5,,10.0,30.15059,,,TRUE,TRUE,,,,,,,,,,,,,,,,,,,,,,,,,,,METAR,31.0
KIPN 120555Z AUTO 02005KT 10SM BKN021 19/11 A3010 RMK A01,KIPN,2015-02-12T05:55:00Z,28.08,-87.98,19.0,11.0,20,5,,10.0,30.100393,,,TRUE,TRUE,,,,,,,BKN,2100,,,,,,,MVFR,,,,,,,,,,,,METAR,41.0
KIKT 120555Z AUTO 02006KT 10SM CLR 17/11 A3009 RMK A01,KIKT,2015-02-12T05:55:00Z,28.52,-88.28,17.0,11.0,20,6,,10.0,30.088583,,,TRUE,TRUE,,,,,,,CLR,,,,,,,,VFR,,,,,,,,,,,,METAR,25.0
KHJH 120555Z AUTO 02014G18KT 10SM OVC045 M01/M07 A3048 RMK AO2 T10131075 10010 21041 400361041,KHJH,2015-02-12T05:55:00Z,40.15,-97.58,-1.3,-7.5,20,14,18,10.0,30.481298,,,TRUE,TRUE,,,,,,,OVC,4500,,,,,,,VFR,,1.0,-4.1,3.6,-4.1,,,,,,,METAR,447.0
KHLX 120555Z AUTO 29013G18KT 10SM OVC036 03/M02 A2989 RMK AO2 T00271025 10071 20027,KHLX,2015-02-12T05:55:00Z,36.77,-80.82,2.7,-2.5,290,13,18,10.0,29.890747,,,TRUE,TRUE,,,,,,,OVC,3600,,,,,,,VFR,,7.1,2.7,,,,,,,,,METAR,834.0
KHNR 120555Z AUTO 35018G26KT 10SM CLR M12/M17 A3054 RMK AO2,KHNR,2015-02-12T05:55:00Z,41.58,-95.33,-12.0,-17.0,350,18,26,10.0,30.540354,,,TRUE,TRUE,,,,,,,CLR,,,,,,,,VFR,,,,,,,,,,,,METAR,375.0
KHSP 120555Z AUTO 29018G25KT 10SM OVC008 M01/M03 A2977 RMK AO2 T10121032 10027 21012,KHSP,2015-02-12T05:55:00Z,37.95,-79.82,-1.2,-3.2,290,18,25,10.0,29.769686,,,TRUE,TRUE,,,,,,,OVC,800,,,,,,,IFR,,2.7,-1.2,,,,,,,,,METAR,1156.0
KHUM 120555Z AUTO 00000KT 3/4SM BR VV005 09/09 A3013 RMK AO2 T00890088 10152 20082,KHUM,2015-02-12T05:55:00Z,29.57,-90.67,8.9,8.8,0,0,,0.75,30.129921,,,TRUE,TRUE,,,,,,BR,OVX,0,,,,,,,LIFR,,15.2,8.2,,,,,,,,500,METAR,3.0
KHZR 120555Z AUTO 00000KT 10SM CLR 11/07 A3014 RMK AO2 T01050066 10181 20096 402130022,KHZR,2015-02-12T05:55:00Z,30.72,-91.48,10.5,6.6,0,0,,10.0,30.138779,,,TRUE,TRUE,,,,,,,CLR,,,,,,,,VFR,,18.1,9.6,21.3,2.2,,,,,,,METAR,12.0
KI75 120555Z AUTO 33023G32KT 10SM BKN021 OVC030 M08/M12 A3040 RMK AO2 T10821121 11030 21082 400371082,KI75,2015-02-12T05:55:00Z,41.05,-93.68,-8.2,-12.1,330,23,32,10.0,30.398623,,,TRUE,TRUE,,,,,,,BKN,2100,OVC,3000,,,,,MVFR,,-3.0,-8.2,3.7,-8.2,,,,,,,METAR,339.0
KI35 120555Z AUTO 26003KT 10SM OVC030 03/M02 A2999 RMK AO1,KI35,2015-02-12T05:55:00Z,36.87,-83.37,3.0,-2.0,260,3,,10.0,29.991142,,,TRUE,TRUE,,,,,,,OVC,3000,,,,,,,MVFR,,,,,,,,,,,,METAR,473.0
KIDP 120555Z AUTO 00000KT 10SM CLR M04/M06 A3044 RMK AO2,KIDP,2015-02-12T05:55:00Z,37.17,-95.78,-4.0,-6.0,0,0,,10.0,30.43996,,,TRUE,TRUE,,,,,,,CLR,,,,,,,,VFR,,,,,,,,,,,,METAR,251.0
KIIB 120555Z AUTO 32022G29KT 4SM HZ SCT012 OVC055 M13/M16 A3032 RMK AO2,KIIB,2015-02-12T05:55:00Z,42.45,-91.95,-13.0,-16.0,320,22,29,4.0,30.318897,,,TRUE,TRUE,,,,,,HZ,SCT,1200,OVC,5500,,,,,MVFR,,,,,,,,,,,,METAR,298.0
KSOA 120555Z AUTO 02016G21KT CLR 09/02 A3034 RMK AO2,KSOA,2015-02-12T05:55:00Z,30.58,-100.65,9.0,2.0,20,16,21,,30.339567,,,TRUE,TRUE,,,,,,,CLR,,,,,,,,,,,,,,,,,,,,METAR,652.0
KT35 120555Z AUTO 01013G18KT 10SM BKN065 13/05 A3024 RMK AO2 T01340050 10213 20134 402380108,KT35,2015-02-12T05:55:00Z,30.88,-96.97,13.4,5.0,10,13,18,10.0,30.239174,,,TRUE,TRUE,,,,,,,BKN,6500,,,,,,,VFR,,21.3,13.4,23.8,10.8,,,,,,,METAR,123.0
KSVH 120555Z AUTO 00000KT 10SM CLR 02/M01 A2991 RMK AO2 T00171011 10081 21009,KSVH,2015-02-12T05:55:00Z,35.75,-80.95,1.7,-1.1,0,0,,10.0,29.911417,,,TRUE,TRUE,,,,,,,CLR,,,,,,,,VFR,,8.1,-0.9,,,,,,,,,METAR,294.0
KT65 120555Z AUTO 00000KT 7SM SCT041 16/14 A3009 RMK AO2 T01570140 10220 20157 402600125,KT65,2015-02-12T05:55:00Z,26.18,-97.97,15.7,14.0,0,0,,7.0,30.088583,,,TRUE,TRUE,,,,,,,SCT,4100,,,,,,,VFR,,22.0,15.7,26.0,12.5,,,,,,,METAR,21.0
KTAZ 120555Z AUTO 31014G21KT 10SM BKN024 M04/M08 A3022 RMK AO2,KTAZ,2015-02-12T05:55:00Z,39.53,-89.33,-4.0,-8.0,310,14,21,10.0,30.221457,,,TRUE,TRUE,,,,,,,BKN,2400,,,,,,,MVFR,,,,,,,,,,,,METAR,190.0
KTDF 120555Z AUTO 00000KT 10SM CLR M01/M01 A2993 RMK AO2,KTDF,2015-02-12T05:55:00Z,36.28,-78.98,-1.0,-1.0,0,0,,10.0,29.929134,,,TRUE,TRUE,,,,,,,CLR,,,,,,,,VFR,,,,,,,,,,,,METAR,186.0
KTIF 120555Z AUTO 03010G14KT 10SM OVC018 M05/M09 A3048 RMK AO2 T10551090 10041 21055 400891055,KTIF,2015-02-12T05:55:00Z,41.97,-100.57,-5.5,-9.0,30,10,14,10.0,30.481298,,,TRUE,TRUE,,,,,,,OVC,1800,,,,,,,MVFR,,4.1,-5.5,8.9,-5.5,,,,,,,METAR,892.0
KTNU 120555Z AUTO 33030G38KT 10SM SCT042 M13/M19 A3041 RMK AO2,KTNU,2015-02-12T05:55:00Z,41.67,-93.02,-13.0,-19.0,330,30,38,10.0,30.410433,,,TRUE,TRUE,,,,,,,SCT,4200,,,,,,,VFR,,,,,,,,,,,,METAR,290.0
KTRK 120555Z AUTO 00000KT 10SM CLR 00/M01 A3036 RMK AO2,KTRK,2015-02-12T05:55:00Z,39.32,-120.12,0.0,-1.0,0,0,,10.0,30.360237,,,TRUE,TRUE,,,,,,,CLR,,,,,,,,VFR,,,,,,,,,,,,METAR,1798.0
KUBE 120555Z AUTO 34016G23KT 10SM CLR M17/M22 A3036 RMK AO2,KUBE,2015-02-12T05:55:00Z,45.5,-91.98,-17.0,-22.0,340,16,23,10.0,30.360237,,,TRUE,TRUE,,,,,,,CLR,,,,,,,,VFR,,,,,,,,,,,,METAR,379.0
KU68 120555Z AUTO 08004KT 10SM CLR 03/01 A3026 RMK AO2 PWINO,KU68,2015-02-12T05:55:00Z,44.92,-108.45,3.0,1.0,80,4,,10.0,30.259842,,,TRUE,TRUE,,,,,TRUE,,CLR,,,,,,,,VFR,,,,,,,,,,,,METAR,1247.0
KTZR 120555Z AUTO 28007KT 7SM UP SCT010 OVC022 A2996 RMK AO2,KTZR,2015-02-12T05:55:00Z,39.9,-83.13,,,280,7,,7.0,29.958662,,,TRUE,TRUE,,,,,,UP,SCT,1000,OVC,2200,,,,,MVFR,,,,,,,,,,,,METAR,276.0
KTVI 120555Z AUTO 25004KT 10SM CLR 10/08 A3006 RMK AO2,KTVI,2015-02-12T05:55:00Z,30.9,-83.88,10.0,8.0,250,4,,10.0,30.059055,,,TRUE,TRUE,,,,,,,CLR,,,,,,,,VFR,,,,,,,,,,,,METAR,80.0
KUNV 120555Z AUTO 22007KT 10SM OVC022 00/M02 A2980 RMK AO2 T00041017 10005 20000,KUNV,2015-02-12T05:55:00Z,40.85,-77.83,0.4,-1.7,220,7,,10.0,29.799213,,,TRUE,TRUE,,,,,,,OVC,2200,,,,,,,MVFR,,0.5,0.0,,,,,,,,,METAR,378.0
KUXL 120555Z AUTO 32003KT 1/4SM FG VV002 09/09 A3015 RMK AO2 T00880088 10160 20086 402360065,KUXL,2015-02-12T05:55:00Z,30.13,-93.38,8.8,8.8,320,3,,0.25,30.15059,,,TRUE,TRUE,,,,,,FG,OVX,0,,,,,,,LIFR,,16.0,8.6,23.6,6.5,,,,,,200,METAR,4.0
KVBW 120555Z AUTO 00000KT 5SM OVC050 00/M01 A2985 RMK AO2 T00001012 10036 21006 400671015,KVBW,2015-02-12T05:55:00Z,38.37,-78.97,0.0,-1.2,0,0,,5.0,29.84941,,,TRUE,TRUE,,,,,,,OVC,5000,,,,,,,MVFR,,3.6,-0.6,6.7,-1.5,,,,,,,METAR,355.0
KVNC 120555Z AUTO 35004KT 10SM CLR 12/09 A3010 RMK AO2,KVNC,2015-02-12T05:55:00Z,27.07,-82.43,12.0,9.0,350,4,,10.0,30.100393,,,TRUE,TRUE,,,,,,,CLR,,,,,,,,VFR,,,,,,,,,,,,METAR,6.0
KVUJ 120555Z AUTO 00000KT 10SM CLR 00/00 A2997 RMK AO2 T10051005 10045 21010,KVUJ,2015-02-12T05:55:00Z,35.42,-80.15,-0.5,-0.5,0,0,,10.0,29.970472,,,TRUE,TRUE,,,,,,,CLR,,,,,,,,VFR,,4.5,-1.0,,,,,,,,,METAR,186.0
KOMH 120555Z AUTO 00000KT 10SM CLR M02/M03 A2989 RMK AO2,KOMH,2015-02-12T05:55:00Z,38.25,-78.05,-2.0,-3.0,0,0,,10.0,29.890747,,,TRUE,TRUE,,,,,,,CLR,,,,,,,,VFR,,,,,,,,,,,,METAR,142.0
KSCR 120555Z AUTO 00000KT 10SM CLR M01/M01 A2993 RMK AO2 T10101012 10035 21010 401071010,KSCR,2015-02-12T05:55:00Z,35.7,-79.5,-1.0,-1.2,0,0,,10.0,29.929134,,,TRUE,TRUE,,,,,,,CLR,,,,,,,,VFR,,3.5,-1.0,10.7,-1.0,,,,,,,METAR,188.0
KONL 120555Z AUTO 36015G19KT 10SM OVC021 M10/M14 A3057 RMK AO2 T11041138 11001 21105 400171105,KONL,2015-02-12T05:55:00Z,42.47,-98.67,-10.4,-13.8,360,15,19,10.0,30.569881,,,TRUE,TRUE,,,,,,,OVC,2100,,,,,,,MVFR,,-0.1,-10.5,1.7,-10.5,,,,,,,METAR,619.0
KONM 120555Z AUTO 31003KT 10SM 04/M01 A3042 RMK AO2 T00401008 10085 20040 401050040,KONM,2015-02-12T05:55:00Z,34.02,-106.9,4.0,-0.8,310,3,,10.0,30.41929,,,TRUE,TRUE,,,,,,,,,,,,,,,,,8.5,4.0,10.5,4.0,,,,,,,METAR,1410.0
KORC 120555Z AUTO 34012G22KT 10SM CLR M14/M20 A3053 RMK AO2,KORC,2015-02-12T05:55:00Z,42.97,-96.07,-14.0,-20.0,340,12,22,10.0,30.528543,,,TRUE,TRUE,,,,,,,CLR,,,,,,,,VFR,,,,,,,,,,,,METAR,431.0
KOPL 120555Z AUTO 24004KT 10SM CLR 09/07 A3014 RMK AO2 T00860068 10183 20083 402200027,KOPL,2015-02-12T05:55:00Z,30.55,-92.1,8.6,6.8,240,4,,10.0,30.138779,,,TRUE,TRUE,,,,,,,CLR,,,,,,,,VFR,,18.3,8.3,22.0,2.7,,,,,,,METAR,23.0
KOUN 120555Z AUTO 01010KT 10SM OVC100 02/M03 A3042 RMK AO2,KOUN,2015-02-12T05:55:00Z,35.25,-97.47,2.0,-3.0,10,10,,10.0,30.41929,,,TRUE,TRUE,,,,,,,OVC,10000,,,,,,,VFR,,,,,,,,,,,,METAR,357.0
KOSA 120555Z AUTO 33008KT 10SM CLR 08/03 A3028 RMK AO1 T00810027 10160 20081 401840053,KOSA,2015-02-12T05:55:00Z,33.1,-94.97,8.1,2.7,330,8,,10.0,30.280512,,,TRUE,TRUE,,,,,,,CLR,,,,,,,,VFR,,16.0,8.1,18.4,5.3,,,,,,,METAR,111.0
KOXV 120555Z AUTO 34023G31KT 9SM FEW015 SCT022 BKN028 M10/M16 A3038 RMK AO2,KOXV,2015-02-12T05:55:00Z,41.28,-93.12,-10.0,-16.0,340,23,31,9.0,30.380905,,,TRUE,TRUE,,,,,,,FEW,1500,SCT,2200,BKN,2800,,,MVFR,,,,,,,,,,,,METAR,283.0
KPEA 120555Z AUTO 34028G35KT 7SM SCT034 BKN043 M11/M16 A3041 RMK AO2 T11071165 11041 21107,KPEA,2015-02-12T05:55:00Z,41.4,-92.95,-10.7,-16.5,340,28,35,7.0,30.410433,,,TRUE,TRUE,,,,,,,SCT,3400,BKN,4300,,,,,VFR,,-4.1,-10.7,,,,,,,,,METAR,270.0
KPBX 120555Z AUTO 24004KT 10SM SCT019 OVC034 03/M01 A2996 RMK AO2 T00261015 10026 20006,KPBX,2015-02-12T05:55:00Z,37.57,-82.57,2.6,-1.5,240,4,,10.0,29.958662,,,TRUE,TRUE,,,,,,,SCT,1900,OVC,3400,,,,,VFR,,2.6,0.6,,,,,,,,,METAR,449.0
KPEQ 120555Z AUTO 33008KT 10SM OVC043 08/01 A3045 RMK AO2 T00800005 10093 20080 401760044,KPEQ,2015-02-12T05:55:00Z,31.38,-103.52,8.0,0.5,330,8,,10.0,30.448818,,,TRUE,TRUE,,,,,,,OVC,4300,,,,,,,VFR,,9.3,8.0,17.6,4.4,,,,,,,METAR,797.0
KPLU 120555Z AUTO 00000KT 10SM BKN100 BKN120 09/09 A3019 RMK AO2,KPLU,2015-02-12T05:55:00Z,47.1,-122.28,9.0,9.0,0,0,,10.0,30.188976,,,TRUE,TRUE,,,,,,,BKN,10000,BKN,12000,,,,,VFR,,,,,,,,,,,,METAR,164.0
KPNT 120555Z AUTO 30014G20KT 10SM CLR M08/M11 A3019 RMK AO2 T10801110 11027 21080 400181080,KPNT,2015-02-12T05:55:00Z,40.92,-88.62,-8.0,-11.0,300,14,20,10.0,30.188976,,,TRUE,TRUE,,,,,,,CLR,,,,,,,,VFR,,-2.7,-8.0,1.8,-8.0,,,,,,,METAR,201.0
KPOY 120555Z AUTO 13009KT 10SM BKN120 02/M03 A3024 RMK AO2,KPOY,2015-02-12T05:55:00Z,44.87,-108.8,2.0,-3.0,130,9,,10.0,30.239174,,,TRUE,TRUE,,,,,,,BKN,12000,,,,,,,VFR,,,,,,,,,,,,METAR,1552.0
KPPA 120555Z AUTO 33006KT 10SM CLR M01/M04 A3044 RMK AO2 T10111045 10031 21012 400571012,KPPA,2015-02-12T05:55:00Z,35.62,-101.0,-1.1,-4.5,330,6,,10.0,30.43996,,,TRUE,TRUE,,,,,,,CLR,,,,,,,,VFR,,3.1,-1.2,5.7,-1.2,,,,,,,METAR,989.0
KPRG 120555Z AUTO 33008G15KT 10SM BKN025 BKN030 M04/M08 A3017 RMK AO2 T10421077 11005 21043 400231043,KPRG,2015-02-12T05:55:00Z,39.7,-87.67,-4.2,-7.7,330,8,15,10.0,30.171259,,,TRUE,TRUE,,,,,,,BKN,2500,BKN,3000,,,,,MVFR,,-0.5,-4.3,2.3,-4.3,,,,,,,METAR,199.0
KPTB 120555Z AUTO 18004KT 10SM CLR 00/M01 A2991 RMK AO2 T00011012 10031 21010,KPTB,2015-02-12T05:55:00Z,37.17,-77.52,0.1,-1.2,180,4,,10.0,29.911417,,,TRUE,TRUE,,,,,,,CLR,,,,,,,,VFR,,3.1,-1.0,,,,,,,,,METAR,59.0
KPRS 120555Z AUTO 36018G25KT 10SM CLR 10/03 A3026 RMK AO2 T00980030 10215 20098 402790098,KPRS,2015-02-12T05:55:00Z,29.63,-104.35,9.8,3.0,360,18,25,10.0,30.259842,,,TRUE,TRUE,,,,,,,CLR,,,,,,,,VFR,,21.5,9.8,27.9,9.8,,,,,,,METAR,896.0
KPVB 120555Z AUTO 29018G22KT 4SM BKN027 OVC033 M11/M14 A3020 RMK AO1 T11101140 11070 21110 400051110,KPVB,2015-02-12T05:55:00Z,42.68,-90.43,-11.0,-14.0,290,18,22,4.0,30.200787,,,TRUE,TRUE,,,,,,,BKN,2700,OVC,3300,,,,,MVFR,,-7.0,-11.0,0.5,-11.0,,,,,,,METAR,313.0
KPVW 120555Z AUTO 35006KT 10SM OVC075 03/M02 A3041 RMK AO2 T00301021 10043 20030 401000030,KPVW,2015-02-12T05:55:00Z,34.17,-101.72,3.0,-2.1,350,6,,10.0,30.410433,,,TRUE,TRUE,,,,,,,OVC,7500,,,,,,,VFR,,4.3,3.0,10.0,3.0,,,,,,,METAR,1028.0
KPXE 120555Z AUTO 28004KT 10SM CLR 10/02 A3002 RMK AO2 T01000023 10161 20100 401930016,KPXE,2015-02-12T05:55:00Z,32.52,-83.77,10.0,2.3,280,4,,10.0,30.02067,,,TRUE,TRUE,,,,,,,CLR,,,,,,,,VFR,,16.1,10.0,19.3,1.6,,,,,,,METAR,127.0
KRDK 120555Z AUTO 4SM -SN FEW014 BKN019 OVC031 M08/M12 A3049 RMK AO2,KRDK,2015-02-12T05:55:00Z,41.02,-95.27,-8.0,-12.0,,,,4.0,30.490158,,,TRUE,TRUE,,,,,,-SN,FEW,1400,BKN,1900,OVC,3100,,,MVFR,,,,,,,,,,,,METAR,318.0
KRMN 120555Z AUTO 00000KT 10SM SCT060 00/M03 A2994 RMK AO2 T10021030 10036 21004 400861025,KRMN,2015-02-12T05:55:00Z,38.4,-77.45,-0.2,-3.0,0,0,,10.0,29.940945,,,TRUE,TRUE,,,,,,,SCT,6000,,,,,,,VFR,,3.6,-0.4,8.6,-2.5,,,,,,,METAR,65.0
KRNH 120555Z AUTO 35013G21KT 10SM CLR M17/M22 A3043 RMK AO2 T11671217 11111 21167 410361167,KRNH,2015-02-12T05:55:00Z,45.15,-92.53,-16.7,-21.7,350,13,21,10.0,30.431103,,,TRUE,TRUE,,,,,,,CLR,,,,,,,,VFR,,-11.1,-16.7,-3.6,-16.7,,,,,,,METAR,304.0
KRRL 120555Z AUTO 01016G21KT 10SM CLR M14/M21 A3020 RMK AO2 T11451207 11095 21145 410381145,KRRL,2015-02-12T05:55:00Z,45.2,-89.72,-14.5,-20.7,10,16,21,10.0,30.200787,,,TRUE,TRUE,,,,,,,CLR,,,,,,,,VFR,,-9.5,-14.5,-3.8,-14.5,,,,,,,METAR,401.0
KPWT 120555Z AUTO 00000KT 10SM OVC120 09/09 A3022 RMK AO1 10130 20090 52010,KPWT,2015-02-12T05:55:00Z,47.5,-122.75,9.0,9.0,0,0,,10.0,30.221457,,,TRUE,TRUE,,,,,,,OVC,12000,,,,,,,VFR,1.0,13.0,9.0,,,,,,,,,METAR,147.0
KPWG 120555Z AUTO 01012KT 10SM CLR 12/01 A3029 RMK AO1 10210 20120 402400070 52024,KPWG,2015-02-12T05:55:00Z,31.47,-97.32,12.0,1.0,10,12,,10.0,30.28937,,,TRUE,TRUE,,,,,,,CLR,,,,,,,,VFR,2.4,21.0,12.0,24.0,7.0,,,,,,,METAR,180.0
KPVU 120555Z AUTO 15007KT 10SM CLR 03/M02 A3042 RMK AO1 10110 20020 52007,KPVU,2015-02-12T05:55:00Z,40.22,-111.72,3.0,-2.0,150,7,,10.0,30.41929,,,TRUE,TRUE,,,,,,,CLR,,,,,,,,VFR,0.7,11.0,2.0,,,,,,,,,METAR,1369.0
KPVG 120555Z AUTO 18004KT 10SM CLR M02/M04 A2997 RMK AO1 11020 21040 57014,KPVG,2015-02-12T05:55:00Z,36.78,-76.45,-2.0,-4.0,180,4,,10.0,29.970472,,,TRUE,TRUE,,,,,,,CLR,,,,,,,,VFR,-1.4,-2.0,-4.0,,,,,,,,,METAR,7.0
KPVC 120555Z 36011G14KT 10SM OVC021 M02/M07 A2987 RMK AO1 11020 21030 57017,KPVC,2015-02-12T05:55:00Z,42.07,-70.22,-2.0,-7.0,360,11,14,10.0,29.870079,,,,TRUE,,,,,,,OVC,2100,,,,,,,MVFR,-1.7,-2.0,-3.0,,,,,,,,,METAR,2.0
KRUQ 120555Z AUTO 00000KT 10SM CLR 01/M01 A2992 RMK AO2 60001 T00051007 10074 20000 401201028,KRUQ,2015-02-12T05:55:00Z,35.65,-80.52,0.5,-0.7,0,0,,10.0,29.920275,,,TRUE,TRUE,,,,,,,CLR,,,,,,,,VFR,,7.4,0.0,12.0,-2.8,,,0.01,,,,METAR,236.0
KSDA 120555Z AUTO 35024G30KT 10SM FEW022 OVC031 M05/M10 A3048 RMK AO2,KSDA,2015-02-12T05:55:00Z,40.75,-95.42,-5.0,-10.0,350,24,30,10.0,30.481298,,,TRUE,TRUE,,,,,,,FEW,2200,OVC,3100,,,,,VFR,,,,,,,,,,,,METAR,296.0
KSEZ 120555Z AUTO 09014KT 10SM CLR 10/M01 A3032 RMK AO2,KSEZ,2015-02-12T05:55:00Z,34.85,-111.78,10.0,-1.0,90,14,,10.0,30.318897,,,TRUE,TRUE,,,,,,,CLR,,,,,,,,VFR,,,,,,,,,,,,METAR,1473.0
KSME 120555Z AUTO 33007KT 10SM OVC025 03/00 A3005 RMK AO2,KSME,2015-02-12T05:55:00Z,37.05,-84.62,3.0,0.0,330,7,,10.0,30.050198,,,TRUE,TRUE,,,,,,,OVC,2500,,,,,,,MVFR,,,,,,,,,,,,METAR,283.0
KSLB 120555Z AUTO 34018G31KT 10SM CLR M15/M20 A3049 RMK AO2,KSLB,2015-02-12T05:55:00Z,42.6,-95.22,-15.0,-20.0,340,18,31,10.0,30.490158,,,TRUE,TRUE,,,,,,,CLR,,,,,,,,VFR,,,,,,,,,,,,METAR,454.0
KSHL 120555Z AUTO 34020G26KT 10SM CLR M16/M21 A3052 RMK AO2,KSHL,2015-02-12T05:55:00Z,43.22,-95.82,-16.0,-21.0,340,20,26,10.0,30.519686,,,TRUE,TRUE,,,,,,,CLR,,,,,,,,VFR,,,,,,,,,,,,METAR,432.0
KSNK 120555Z AUTO 02011G18KT 10SM OVC070 06/M04 A3039 RMK AO2 T00581044 TSNO,KSNK,2015-02-12T05:55:00Z,32.7,-100.95,5.8,-4.4,20,11,18,10.0,30.389763,,,TRUE,TRUE,,,TRUE,,,,OVC,7000,,,,,,,VFR,,,,,,,,,,,,METAR,741.0
KIJX 120555Z AUTO 32020G25KT 10SM OVC024 M02/M07 A3024 RMK AO2 T10251074 11001 21030 400381030,KIJX,2015-02-12T05:55:00Z,39.77,-90.25,-2.5,-7.4,320,20,25,10.0,30.239174,,,TRUE,TRUE,,,,,,,OVC,2400,,,,,,,MVFR,,-0.1,-3.0,3.8,-3.0,,,,,,,METAR,190.0
KIKK 120555Z AUTO 30012G17KT 10SM CLR M07/M11 A3014 RMK AO2 T10751112 11013 21075 400131075,KIKK,2015-02-12T05:55:00Z,41.07,-87.85,-7.5,-11.2,300,12,17,10.0,30.138779,,,TRUE,TRUE,,,,,,,CLR,,,,,,,,VFR,,-1.3,-7.5,1.3,-7.5,,,,,,,METAR,192.0
KINJ 120555Z AUTO 35015KT 10SM SCT060 09/03 A3030 RMK AO2 T00870025 10180 20087,KINJ,2015-02-12T05:55:00Z,32.08,-97.1,8.7,2.5,350,15,,10.0,30.301182,,,TRUE,TRUE,,,,,,,SCT,6000,,,,,,,VFR,,18.0,8.7,,,,,,,,,METAR,209.0
KIKV 120555Z AUTO 34021G33KT 10SM FEW022 M12/M19 A3045 RMK AO2,KIKV,2015-02-12T05:55:00Z,41.68,-93.57,-12.0,-19.0,340,21,33,10.0,30.448818,,,TRUE,TRUE,,,,,,,FEW,2200,,,,,,,VFR,,,,,,,,,,,,METAR,275.0
KMLE 120555Z AUTO 34016G24KT 320V020 10SM BKN029 M08/M15 A3054 RMK AO2 T10811148 10000 21081 400451081,KMLE,2015-02-12T05:55:00Z,41.2,-96.12,-8.1,-14.8,340,16,24,10.0,30.540354,,,TRUE,TRUE,,,,,,,BKN,2900,,,,,,,MVFR,,0.0,-8.1,4.5,-8.1,,,,,,,METAR,320.0
KMPZ 120555Z AUTO 33022G32KT 10SM OVC027 M08/M13 A3031 RMK AO2 T10831134 11041 21083 400181083,KMPZ,2015-02-12T05:55:00Z,40.95,-91.52,-8.3,-13.4,330,22,32,10.0,30.31004,,,TRUE,TRUE,,,,,,,OVC,2700,,,,,,,MVFR,,-4.1,-8.3,1.8,-8.3,,,,,,,METAR,224.0
KMLJ 120555Z AUTO 00000KT 10SM CLR 04/04 A2999 RMK AO2,KMLJ,2015-02-12T05:55:00Z,33.15,-83.23,4.0,4.0,0,0,,10.0,29.991142,,,TRUE,TRUE,,,,,,,CLR,,,,,,,,VFR,,,,,,,,,,,,METAR,117.0
KMRN 120555Z AUTO 00000KT 10SM CLR M01/M02 A2996 RMK AO2 T10101017 10046 21012 401471059,KMRN,2015-02-12T05:55:00Z,35.82,-81.62,-1.0,-1.7,0,0,,10.0,29.958662,,,TRUE,TRUE,,,,,,,CLR,,,,,,,,VFR,,4.6,-1.2,14.7,-5.9,,,,,,,METAR,387.0
KMWA 120555Z AUTO 30003KT 10SM CLR M01/M05 A3025 RMK AO2,KMWA,2015-02-12T05:55:00Z,37.77,-89.02,-1.0,-5.0,300,3,,10.0,30.250984,,,TRUE,TRUE,,,,,,,CLR,,,,,,,,VFR,,,,,,,,,,,,METAR,144.0
KMUT 120555Z AUTO 30026G35KT 10SM FEW005 SCT033 BKN043 M09/M16 A3033 RMK AO2,KMUT,2015-02-12T05:55:00Z,41.37,-91.15,-9.0,-16.0,300,26,35,10.0,30.33071,,,TRUE,TRUE,,,,,,,FEW,500,SCT,3300,BKN,4300,,,VFR,,,,,,,,,,,,METAR,167.0
KOEO 120555Z AUTO 33011KT 10SM CLR M16/M21 A3048 RMK AO2 T11641215 11110 21164 410301164,KOEO,2015-02-12T05:55:00Z,45.32,-92.7,-16.4,-21.5,330,11,,10.0,30.481298,,,TRUE,TRUE,,,,,,,CLR,,,,,,,,VFR,,-11.0,-16.4,-3.0,-16.4,,,,,,,METAR,275.0
KMXO 120555Z AUTO 31022G29KT 8SM -SN FEW013 SCT020 OVC046 M12/M16 A3027 RMK AO2,KMXO,2015-02-12T05:55:00Z,42.22,-91.17,-12.0,-16.0,310,22,29,8.0,30.268702,,,TRUE,TRUE,,,,,,-SN,FEW,1300,SCT,2000,OVC,4600,,,VFR,,,,,,,,,,,,METAR,259.0
KOGA 120555Z AUTO 07007KT 10SM CLR M01/M04 A3038 RMK AO2 T10101040 10080 21011,KOGA,2015-02-12T05:55:00Z,41.12,-101.77,-1.0,-4.0,70,7,,10.0,30.380905,,,TRUE,TRUE,,,,,,,CLR,,,,,,,,VFR,,8.0,-1.1,,,,,,,,,METAR,999.0
KOKM 120555Z AUTO 01013G16KT 10SM CLR 01/M05 A3042 RMK AO2 T00121046 10065 20012 401210011,KOKM,2015-02-12T05:55:00Z,35.67,-95.95,1.2,-4.6,10,13,16,10.0,30.41929,,,TRUE,TRUE,,,,,,,CLR,,,,,,,,VFR,,6.5,1.2,12.1,1.1,,,,,,,METAR,220.0
KOLG 120555Z AUTO 34005KT 10SM OVC029 M17/M21 A3040 RMK AO1,KOLG,2015-02-12T05:55:00Z,46.3,-91.82,-17.0,-21.0,340,5,,10.0,30.398623,,,TRUE,TRUE,,,,,,,OVC,2900,,,,,,,MVFR,,,,,,,,,,,,METAR,336.0
KOLZ 120555Z AUTO 33028G36KT 5SM HZ BKN013 BKN018 OVC055 M14/M18 A3032 RMK AO2,KOLZ,2015-02-12T05:55:00Z,42.67,-91.97,-14.0,-18.0,330,28,36,5.0,30.318897,,,TRUE,TRUE,,,,,,HZ,BKN,1300,BKN,1800,OVC,5500,,,MVFR,,,,,,,,,,,,METAR,328.0
EBFN 120555Z VRB02KT 2500 BR BKN019 02/01 Q1021 YLO YLO,EBFN,2015-02-12T05:55:00Z,51.07,2.63,2.0,1.0,0,2,,1.55,30.147638,,,,,,,,,,BR,BKN,1900,,,,,,,IFR,,,,,,,,,,,,METAR,9.0
EBFS 120555Z 10005KT 3000 SKC M01/M02 Q1020 YLO YLO TEMPO AMB,EBFS,2015-02-12T05:55:00Z,50.22,4.65,-1.0,-2.0,100,5,,1.86,30.11811,,,,,,,,,,,SKC,,,,,,,,IFR,,,,,,,,,,,,METAR,299.0
EBBL 120555Z VRB01KT 0300 FZFG BKN002 M04/M05 Q1022 RED RED,EBBL,2015-02-12T05:55:00Z,51.17,5.47,-4.0,-5.0,0,1,,0.19,30.177166,,,,,,,,,,FZFG,BKN,200,,,,,,,LIFR,,,,,,,,,,,,METAR,64.0
KDKR 120555Z AUTO 36005KT 10SM CLR 14/09 A3024 RMK AO2,KDKR,2015-02-12T05:55:00Z,31.3,-95.4,14.0,9.0,360,5,,10.0,30.239174,,,TRUE,TRUE,,,,,,,CLR,,,,,,,,VFR,,,,,,,,,,,,SPECI,106.0
EHFS 120555Z AUTO 29001KT 7000 OVC017/// 03/00 Q1021,EHFS,2015-02-12T05:55:00Z,51.45,3.6,3.0,0.0,290,1,,4.35,30.147638,,,TRUE,,,,,,,,,,,,,,,,,,,,,,,,,,,,METAR,32.0
KFOT 120555Z AUTO 14006KT 9SM CLR 08/08 A3023 RMK AO1,KFOT,2015-02-12T05:55:00Z,40.55,-124.13,8.0,8.0,140,6,,9.0,30.230314,,,TRUE,TRUE,,,,,,,CLR,,,,,,,,VFR,,,,,,,,,,,,METAR,120.0
KFKR 120555Z AUTO 27018G22KT 10SM BKN023 M04/M08 A3009 RMK AO2 T10451076 11003 21045 400171045,KFKR,2015-02-12T05:55:00Z,40.27,-86.57,-4.5,-7.6,270,18,22,10.0,30.088583,,,TRUE,TRUE,,,,,,,BKN,2300,,,,,,,MVFR,,-0.3,-4.5,1.7,-4.5,,,,,,,METAR,262.0
KLEW 120555Z AUTO 00000KT 10SM CLR M16/M20 A2989 RMK AO1 11090 21170 57024,KLEW,2015-02-12T05:55:00Z,44.03,-70.27,-16.0,-20.0,0,0,,10.0,29.890747,,,TRUE,TRUE,,,,,,,CLR,,,,,,,,VFR,-2.4,-9.0,-17.0,,,,,,,,,METAR,88.0
KBBP 120555Z AUTO 00000KT 10SM CLR 02/02 A2996 RMK AO2,KBBP,2015-02-12T05:55:00Z,34.62,-79.73,2.0,2.0,0,0,,10.0,29.958662,,,TRUE,TRUE,,,,,,,CLR,,,,,,,,VFR,,,,,,,,,,,,METAR,45.0
CZPC 120555Z AUTO 24033G40KT 9SM BKN130 06/M00 A3002 RMK PRESFR SLP212,CZPC,2015-02-12T05:55:00Z,49.52,-114.0,6.0,0.0,240,33,40,9.0,30.02067,1021.2,,TRUE,,,,,,,,BKN,13000,,,,,,,VFR,,,,,,,,,,,,SPECI,1190.0
CYXR 120555Z AUTO 32018G26KT 9SM BKN046 OVC060 M20/M23 A2989 RMK PRESRR SLP146,CYXR,2015-02-12T05:55:00Z,47.7,-79.83,-20.0,-23.0,320,18,26,9.0,29.890747,1014.6,,TRUE,,,,,,,,BKN,4600,OVC,6000,,,,,VFR,,,,,,,,,,,,SPECI,243.0
CYKF 120555Z AUTO 33014G20KT 3SM -SN BKN015 OVC021 M05/M07 A2978 RMK SLP099,CYKF,2015-02-12T05:55:00Z,43.47,-80.38,-5.0,-7.0,330,14,20,3.0,29.778543,1009.9,,TRUE,,,,,,,-SN,BKN,1500,OVC,2100,,,,,MVFR,,,,,,,,,,,,SPECI,317.0
NZPG 120555Z 06012KT 9999 FEW040 SCT080 BKN190 M09/M13 A2897 RMK SLP812 LSR11 GRID23012KT SDG/HDG,NZPG,2015-02-12T05:55:00Z,-77.95,166.52,-9.0,-13.0,60,12,,6.21,28.969488,981.2,,,,,,,,,,FEW,4000,SCT,8000,BKN,19000,,,VFR,,,,,,,,,,,,METAR,5.0
KQFQ 120555Z AUTO 26008G20KT 200V290 10SM CLR 01/M19 A2989 RMK AO2 SLP126 T00121190 10020 21039 56008 $,KQFQ,2015-02-12T05:55:00Z,100.65,-1000.65,1.2,-19.0,260,8,20,10.0,29.890747,1012.6,,TRUE,TRUE,TRUE,,,,,,CLR,,,,,,,,VFR,-0.8,2.0,-3.9,,,,,,,,,METAR,999.0
KQAJ 120555Z 29009G15KT 4800 BLDU BKN030 22/06 A2992 RMK SLP126 T02220063 10222 201169 51045,KQAJ,2015-02-12T05:55:00Z,100.65,-1000.65,22.2,6.3,290,9,15,2.98,29.920275,1012.6,,,,,,,,,BLDU,BKN,3000,,,,,,,IFR,4.5,22.2,11.6,,,,,,,,,METAR,999.0
EHKD 120555Z AUTO 14003KT 4100 BR OVC009 03/01 Q1021 GRN,EHKD,2015-02-12T05:55:00Z,52.92,4.77,3.0,1.0,140,3,,2.55,30.147638,,,TRUE,,,,,,,BR,OVC,900,,,,,,,IFR,,,,,,,,,,,,METAR,14.0
KRKD 120555Z AUTO 36005KT 9SM OVC019 M10/M13 A2991 RMK AO1 11080 21100 57017,KRKD,2015-02-12T05:55:00Z,44.07,-69.08,-10.0,-13.0,360,5,,9.0,29.911417,,,TRUE,TRUE,,,,,,,OVC,1900,,,,,,,MVFR,-1.7,-8.0,-10.0,,,,,,,,,METAR,17.0
KRUT 120555Z 13009KT 10SM OVC110 M07/M14 A2979 RMK AO1 11070 21110 57017,KRUT,2015-02-12T05:55:00Z,43.52,-72.95,-7.0,-14.0,130,9,,10.0,29.790354,,,,TRUE,,,,,,,OVC,11000,,,,,,,VFR,-1.7,-7.0,-11.0,,,,,,,,,METAR,240.0
KSBS 120555Z AUTO 00000KT 10SM CLR M04/M08 A3042 RMK AO1 T10391080 10043 21049,KSBS,2015-02-12T05:55:00Z,40.52,-106.87,-3.9,-8.0,0,0,,10.0,30.41929,,,TRUE,TRUE,,,,,,,CLR,,,,,,,,VFR,,4.3,-4.9,,,,,,,,,METAR,2096.0
KRQO 120555Z AUTO 02008KT 10SM SCT120 02/M04 A3042 RMK AO2,KRQO,2015-02-12T05:55:00Z,35.47,-98.0,2.0,-4.0,20,8,,10.0,30.41929,,,TRUE,TRUE,,,,,,,SCT,12000,,,,,,,VFR,,,,,,,,,,,,METAR,432.0
KFGX 120555Z AUTO 31009G15KT 7SM BKN009 OVC013 00/M01 A3002 RMK AO2 T00001013 10045 20000 400631085,KFGX,2015-02-12T05:55:00Z,38.55,-83.75,0.0,-1.3,310,9,15,7.0,30.02067,,,TRUE,TRUE,,,,,,,BKN,900,OVC,1300,,,,,IFR,,4.5,0.0,6.3,-8.5,,,,,,,SPECI,278.0
KGLW 120555Z AUTO 29008KT 10SM OVC023 02/M03 A3011 RMK AO2 T00181026 10074 20018,KGLW,2015-02-12T05:55:00Z,37.03,-85.95,1.8,-2.6,290,8,,10.0,30.109253,,,TRUE,TRUE,,,,,,,OVC,2300,,,,,,,MVFR,,7.4,1.8,,,,,,,,,SPECI,218.0
KHBV 120555Z AUTO 06005KT 7SM CLR A3014 RMK AO2,KHBV,2015-02-12T05:55:00Z,27.35,-98.73,,,60,5,,7.0,30.138779,,,TRUE,TRUE,,,,,,,CLR,,,,,,,,VFR,,,,,,,,,,,,SPECI,202.0
KHOE 120555Z AUTO 00000KT 10SM CLR 08/07 A3004 RMK AO2,KHOE,2015-02-12T05:55:00Z,31.05,-82.78,8.0,7.0,0,0,,10.0,30.041338,,,TRUE,TRUE,,,,,,,CLR,,,,,,,,VFR,,,,,,,,,,,,SPECI,57.0
KSDY 120555Z AUTO 11004KT 10SM CLR M16/M20 A3057 RMK AO1 11130 21160 57014,KSDY,2015-02-12T05:55:00Z,47.7,-104.2,-16.0,-20.0,110,4,,10.0,30.569881,,,TRUE,TRUE,,,,,,,CLR,,,,,,,,VFR,-1.4,-13.0,-16.0,,,,,,,,,METAR,605.0
KSEM 120555Z AUTO 00000KT 10SM 03/01 A3008 RMK AO2,KSEM,2015-02-12T05:55:00Z,32.35,-86.98,3.0,1.0,0,0,,10.0,30.079725,,,TRUE,TRUE,,,,,,,,,,,,,,,,,,,,,,,,,,,METAR,51.0
KSFZ 120555Z 00000KT 10SM CLR M14/M19 A2988 RMK AO1 11100 21150 57017,KSFZ,2015-02-12T05:55:00Z,41.92,-71.5,-14.0,-19.0,0,0,,10.0,29.878937,,,,TRUE,,,,,,,CLR,,,,,,,,VFR,-1.7,-10.0,-15.0,,,,,,,,,METAR,134.0
KSFM 120555Z AUTO 27004KT 10SM CLR M18/M21 A2991 RMK AO1 11120 21180 57020,KSFM,2015-02-12T05:55:00Z,43.38,-70.72,-18.0,-21.0,270,4,,10.0,29.911417,,,TRUE,TRUE,,,,,,,CLR,,,,,,,,VFR,-2.0,-12.0,-18.0,,,,,,,,,METAR,74.0
KSGU 120555Z AUTO 02007KT 10SM CLR 12/M03 A3037 RMK AO1 10190 20110 52027,KSGU,2015-02-12T05:55:00Z,37.07,-113.52,12.0,-3.0,20,7,,10.0,30.369095,,,TRUE,TRUE,,,,,,,CLR,,,,,,,,VFR,2.7,19.0,11.0,,,,,,,,,METAR,896.0
KSGT 120555Z AUTO 35013KT 10SM CLR 05/M02 A3026 RMK AO1 10120 20050 52024,KSGT,2015-02-12T05:55:00Z,34.6,-91.57,5.0,-2.0,350,13,,10.0,30.259842,,,TRUE,TRUE,,,,,,,CLR,,,,,,,,VFR,2.4,12.0,5.0,,,,,,,,,METAR,68.0
KVTP 120555Z AUTO 00000KT 10SM CLR M05/M07 A3042 RMK AO2,KVTP,2015-02-12T05:55:00Z,37.5,-105.17,-5.0,-7.0,0,0,,10.0,30.41929,,,TRUE,TRUE,,,,,,,CLR,,,,,,,,VFR,,,,,,,,,,,,METAR,3114.0
KWWD 120555Z AUTO 00000KT 10SM FEW055 SCT120 M02/M06 A2991 RMK AO1 11010 21030 57017,KWWD,2015-02-12T05:55:00Z,39.02,-74.92,-2.0,-6.0,0,0,,10.0,29.911417,,,TRUE,TRUE,,,,,,,FEW,5500,SCT,12000,,,,,VFR,-1.7,-1.0,-3.0,,,,,,,,,METAR,7.0
KWVL 120555Z 02007KT CLR M14/M22 A2988 RMK AO1 11100 21140 57024,KWVL,2015-02-12T05:55:00Z,44.52,-69.67,-14.0,-22.0,20,7,,,29.878937,,,,TRUE,,,,,,,CLR,,,,,,,,,-2.4,-10.0,-14.0,,,,,,,,,METAR,101.0
KYKN 120555Z AUTO 34018KT 10SM CLR M14/M20 A3063 RMK AO1 52024,KYKN,2015-02-12T05:55:00Z,42.92,-97.37,-14.0,-20.0,340,18,,10.0,30.628937,,,TRUE,TRUE,,,,,,,CLR,,,,,,,,VFR,2.4,,,,,,,,,,,METAR,398.0
K7N0 120555Z AUTO 00000KT 10SM CLR A3012 RMK AO1 52003,K7N0,2015-02-12T05:55:00Z,29.95,-90.07,,,0,0,,10.0,30.121063,,,TRUE,TRUE,,,,,,,CLR,,,,,,,,VFR,0.3,,,,,,,,,,,METAR,0.0
KNBG 120555Z AUTO 20003KT 7SM CLR 07/06 A3011 RMK AO2 SLP196 T00720056 10150 20072 402060028 51003 $,KNBG,2015-02-12T05:55:00Z,29.82,-90.02,7.2,5.6,200,3,,7.0,30.109253,1019.6,,TRUE,TRUE,TRUE,,,,,,CLR,,,,,,,,VFR,0.3,15.0,7.2,20.6,2.8,,,,,,,METAR,1.0
KFYJ 120555Z AUTO 16007KT 10SM CLR 01/M02 A2994 RMK AO2 T00121018 10021 21002 400721005,KFYJ,2015-02-12T05:55:00Z,37.52,-76.77,1.2,-1.8,160,7,,10.0,29.940945,,,TRUE,TRUE,,,,,,,CLR,,,,,,,,VFR,,2.1,-0.2,7.2,-0.5,,,,,,,METAR,7.0
KGDJ 120555Z AUTO 35014G17KT 10SM OVC080 10/02 A3036 RMK AO2 T00980023 10170 20098 402200070,KGDJ,2015-02-12T05:55:00Z,32.45,-97.82,9.8,2.3,350,14,17,10.0,30.360237,,,TRUE,TRUE,,,,,,,OVC,8000,,,,,,,VFR,,17.0,9.8,22.0,7.0,,,,,,,METAR,237.0
PAFB 120555Z 06006KT 7SM -SN OVC050 M12/M16 A2973 RMK SLP081 60000 4/013 52010,PAFB,2015-02-12T05:55:00Z,64.83,-147.62,-12.0,-16.0,60,6,,7.0,29.731298,1008.1,,,,,,,,,-SN,OVC,5000,,,,,,,VFR,1.0,,,,,,,0.0050,,13.0,,METAR,137.0
EHDL 120555Z AUTO 13003KT 2100 BR OVC003 00/M00 Q1021 YLO,EHDL,2015-02-12T05:55:00Z,52.07,5.87,0.0,0.0,130,3,,1.3,30.147638,,,TRUE,,,,,,,BR,OVC,300,,,,,,,LIFR,,,,,,,,,,,,METAR,52.0
EHLW 120555Z AUTO 15004KT 3200 R23/P3000 BR OVC006 02/01 Q1022 YLO,EHLW,2015-02-12T05:55:00Z,53.22,5.75,2.0,1.0,150,4,,1.99,30.177166,,,TRUE,,,,,,,BR,OVC,600,,,,,,,IFR,,,,,,,,,,,,METAR,2.0
EHAM 120555Z 14003KT 5000 BR OVC013 03/02 Q1021 BECMG 4000,EHAM,2015-02-12T05:55:00Z,52.32,4.78,3.0,2.0,140,3,,3.11,30.147638,,,,,,,,,,BR,OVC,1300,,,,,,,MVFR,,,,,,,,,,,,METAR,9.0
EHBK 120555Z AUTO 15004KT 6000 NCD M00/M02 Q1021 TEMPO 4000,EHBK,2015-02-12T05:55:00Z,50.92,5.77,0.0,-2.0,150,4,,3.73,30.147638,,,TRUE,,,,,,,,,,,,,,,,,,,,,,,,,,,,METAR,116.0
NZWD 120555Z 02006KT 9999 FEW070 FEW100 SCT200 M10/M13 A2897 RMK SLP811 GRID19006KT SDG/HDG,NZWD,2015-02-12T05:55:00Z,-77.87,167.07,-10.0,-13.0,20,6,,6.21,28.969488,981.1,,,,,,,,,,FEW,7000,FEW,10000,SCT,20000,,,VFR,,,,,,,,,,,,METAR,22.0
KGNC 120555Z AUTO 02009G16KT 10SM OVC048 04/M02 A3041 RMK AO2 T00431021 10070 20043 401280043,KGNC,2015-02-12T05:55:00Z,32.68,-102.65,4.3,-2.1,20,9,16,10.0,30.410433,,,TRUE,TRUE,,,,,,,OVC,4800,,,,,,,VFR,,7.0,4.3,12.8,4.3,,,,,,,METAR,1010.0
KGLE 120555Z AUTO 33012KT 10SM CLR 05/M02 A3038 RMK AO2 T00531017 10128 20052 401750052,KGLE,2015-02-12T05:55:00Z,33.65,-97.2,5.3,-1.7,330,12,,10.0,30.380905,,,TRUE,TRUE,,,,,,,CLR,,,,,,,,VFR,,12.8,5.2,17.5,5.2,,,,,,,METAR,256.0
KGIC 120555Z AUTO 11007KT 7SM OVC110 05/02 A3031 RMK AO1 T00540019 10166 21185,KGIC,2015-02-12T05:55:00Z,45.95,-116.12,5.4,1.9,110,7,,7.0,30.31004,,,TRUE,TRUE,,,,,,,OVC,11000,,,,,,,VFR,,16.6,-18.5,,,,,,,,,METAR,1009.0
KGWW 120555Z AUTO 17004KT 7SM CLR 01/M01 A2996 RMK AO2 T00051007 10030 20005 400900002,KGWW,2015-02-12T05:55:00Z,35.47,-77.97,0.5,-0.7,170,4,,7.0,29.958662,,,TRUE,TRUE,,,,,,,CLR,,,,,,,,VFR,,3.0,0.5,9.0,0.2,,,,,,,METAR,41.0
KGYY 120555Z AUTO 30009KT 10SM BKN036 OVC100 M05/M12 A3011 RMK AO2 T10471125 10001 21047 400361047,KGYY,2015-02-12T05:55:00Z,41.62,-87.42,-4.7,-12.5,300,9,,10.0,30.109253,,,TRUE,TRUE,,,,,,,BKN,3600,OVC,10000,,,,,VFR,,0.1,-4.7,3.6,-4.7,,,,,,,METAR,180.0
KHBI 120555Z AUTO 21003KT 10SM CLR 01/M01 A2995 RMK AO2 T00091008 10066 20009 401101020,KHBI,2015-02-12T05:55:00Z,35.65,-79.9,0.9,-0.8,210,3,,10.0,29.949802,,,TRUE,TRUE,,,,,,,CLR,,,,,,,,VFR,,6.6,0.9,11.0,-2.0,,,,,,,METAR,205.0
KHHF 120555Z AUTO 00000KT 10SM CLR M02/M04 A3044 RMK AO2 T10181040 10062 21035 400651035,KHHF,2015-02-12T05:55:00Z,35.9,-100.4,-1.8,-4.0,0,0,,10.0,30.43996,,,TRUE,TRUE,,,,,,,CLR,,,,,,,,VFR,,6.2,-3.5,6.5,-3.5,,,,,,,METAR,712.0
KGWB 120555Z AUTO 29013G18KT 10SM -SN SCT020 SCT025 OVC029 M02/M06 A2998 RMK AO2,KGWB,2015-02-12T05:55:00Z,41.3,-85.07,-2.0,-6.0,290,13,18,10.0,29.97933,,,TRUE,TRUE,,,,,,-SN,SCT,2000,SCT,2500,OVC,2900,,,MVFR,,,,,,,,,,,,METAR,269.0
KGVT 120555Z AUTO 34011KT 10SM CLR 07/00 A3031 RMK AO2,KGVT,2015-02-12T05:55:00Z,33.07,-96.07,7.0,0.0,340,11,,10.0,30.31004,,,TRUE,TRUE,,,,,,,CLR,,,,,,,,VFR,,,,,,,,,,,,METAR,163.0
KGOO 120555Z AUTO 00000KT 10SM CLR 13/01 A3025 RMK AO1,KGOO,2015-02-12T05:55:00Z,39.22,-121.0,13.0,1.0,0,0,,10.0,30.250984,,,TRUE,TRUE,,,,,,,CLR,,,,,,,,VFR,,,,,,,,,,,,METAR,962.0
KHNZ 120555Z AUTO 00000KT 10SM CLR 01/M02 A2991 RMK AO2 T00051016 10045 20001 400951015,KHNZ,2015-02-12T05:55:00Z,36.37,-78.53,0.5,-1.6,0,0,,10.0,29.911417,,,TRUE,TRUE,,,,,,,CLR,,,,,,,,VFR,,4.5,0.1,9.5,-1.5,,,,,,,METAR,161.0
KHQZ 120555Z AUTO 35013KT 10SM CLR 08/01 A3032 RMK AO1 T00770005 10165 20077 401950071,KHQZ,2015-02-12T05:55:00Z,32.75,-96.53,7.7,0.5,350,13,,10.0,30.318897,,,TRUE,TRUE,,,,,,,CLR,,,,,,,,VFR,,16.5,7.7,19.5,7.1,,,,,,,METAR,136.0
KHQU 120555Z AUTO 00000KT 10SM CLR 04/04 A3001 RMK AO1 T00420042 10112 20038 401710000,KHQU,2015-02-12T05:55:00Z,33.53,-82.52,4.2,4.2,0,0,,10.0,30.008858,,,TRUE,TRUE,,,,,,,CLR,,,,,,,,VFR,,11.2,3.8,17.1,,,,,,,,METAR,152.0
KHRJ 120555Z AUTO 00000KT 10SM CLR 02/00 A2995 RMK AO2 T00191001 10072 20018 401150001,KHRJ,2015-02-12T05:55:00Z,35.38,-78.73,1.9,-0.1,0,0,,10.0,29.949802,,,TRUE,TRUE,,,,,,,CLR,,,,,,,,VFR,,7.2,1.8,11.5,0.1,,,,,,,METAR,60.0
KHVE 120555Z AUTO 00000KT 10SM CLR 00/M05 A3041 RMK AO2,KHVE,2015-02-12T05:55:00Z,38.42,-110.7,0.0,-5.0,0,0,,10.0,30.410433,,,TRUE,TRUE,,,,,,,CLR,,,,,,,,VFR,,,,,,,,,,,,METAR,1350.0
KIER 120555Z AUTO 00000KT 10SM CLR 09/07 A3019 RMK AO2 T00890067 10170 20079 402330025,KIER,2015-02-12T05:55:00Z,31.73,-93.1,8.9,6.7,0,0,,10.0,30.188976,,,TRUE,TRUE,,,,,,,CLR,,,,,,,,VFR,,17.0,7.9,23.3,2.5,,,,,,,METAR,37.0
KIBM 120555Z AUTO 05007KT 10SM CLR M01/M04 A3034 RMK AO2 T10091044 10079 21034,KIBM,2015-02-12T05:55:00Z,41.18,-103.68,-0.9,-4.4,50,7,,10.0,30.339567,,,TRUE,TRUE,,,,,,,CLR,,,,,,,,VFR,,7.9,-3.4,,,,,,,,,METAR,1501.0
KI16 120555Z AUTO 10SM OVC033 01/01 A2999 RMK AO2 T00130008 10016 21002 400521022,KI16,2015-02-12T05:55:00Z,37.6,-81.57,1.3,0.8,,,,10.0,29.991142,,,TRUE,TRUE,,,,,,,OVC,3300,,,,,,,VFR,,1.6,-0.2,5.2,-2.2,,,,,,,METAR,544.0
KIFP 120555Z AUTO 03014KT 10SM CLR 21/M05 A3021 RMK AO2 PWINO,KIFP,2015-02-12T05:55:00Z,35.15,-114.57,21.0,-5.0,30,14,,10.0,30.209646,,,TRUE,TRUE,,,,,TRUE,,CLR,,,,,,,,VFR,,,,,,,,,,,,METAR,212.0
KIIY 120555Z AUTO 26006KT 10SM CLR 09/04 A2995 RMK AO2,KIIY,2015-02-12T05:55:00Z,33.78,-82.82,9.0,4.0,260,6,,10.0,29.949802,,,TRUE,TRUE,,,,,,,CLR,,,,,,,,VFR,,,,,,,,,,,,METAR,197.0
KBBD 120555Z AUTO 35014KT 10SM FEW036 08/02 A3031 RMK,KBBD,2015-02-12T05:55:00Z,31.18,-99.32,8.0,2.0,350,14,,10.0,30.31004,,,TRUE,,,,,,,,FEW,3600,,,,,,,VFR,,,,,,,,,,,,METAR,557.0
KINF 120555Z AUTO 00000KT 10SM CLR 05/03 A3008 RMK AO2,KINF,2015-02-12T05:55:00Z,28.8,-82.32,5.0,3.0,0,0,,10.0,30.079725,,,TRUE,TRUE,,,,,,,CLR,,,,,,,,VFR,,,,,,,,,,,,METAR,15.0
KBDG 120555Z AUTO 02008KT 10SM CLR 02/M03 A3047 RMK AO1 T00171031 10160 21148,KBDG,2015-02-12T05:55:00Z,37.58,-109.47,1.7,-3.1,20,8,,10.0,30.469488,,,TRUE,TRUE,,,,,,,CLR,,,,,,,,VFR,,16.0,-14.8,,,,,,,,,METAR,1788.0
KBHC 120555Z AUTO 00000KT 5SM BR CLR 07/06 A3001 RMK AO2,KBHC,2015-02-12T05:55:00Z,31.72,-82.4,7.0,6.0,0,0,,5.0,30.008858,,,TRUE,TRUE,,,,,,BR,CLR,,,,,,,,MVFR,,,,,,,,,,,,METAR,61.0
OPMT 120555Z 18006KT 3500 HZ FEW120 21/05 Q1019 TEMPO 4000,OPMT,2015-02-12T05:55:00Z,30.18,71.42,21.0,5.0,180,6,,2.17,30.088583,,,,,,,,,,HZ,FEW,12000,,,,,,,IFR,,,,,,,,,,,,METAR,123.0
KBVN 120555Z AUTO 02016KT 10SM -SN OVC021 M08/M13 A3054 RMK AO2 T10851131 10000 21085 400331085,KBVN,2015-02-12T05:55:00Z,41.73,-98.05,-8.5,-13.1,20,16,,10.0,30.540354,,,TRUE,TRUE,,,,,,-SN,OVC,2100,,,,,,,MVFR,,0.0,-8.5,3.3,-8.5,,,,,,,METAR,551.0
KLWA 120555Z AUTO 35012G19KT 4SM -SN BKN020 OVC026 M04/M08 A3001 RMK AO2 T10361077 10000 21036 400161042,KLWA,2015-02-12T05:55:00Z,42.35,-86.25,-3.6,-7.7,350,12,19,4.0,30.008858,,,TRUE,TRUE,,,,,,-SN,BKN,2000,OVC,2600,,,,,MVFR,,0.0,-3.6,1.6,-4.2,,,,,,,METAR,203.0
KLPC 120555Z AUTO 08006KT 10SM CLR 11/05 A3011 RMK AO1 10230 20110 52010,KLPC,2015-02-12T05:55:00Z,34.67,-120.47,11.0,5.0,80,6,,10.0,30.109253,,,TRUE,TRUE,,,,,,,CLR,,,,,,,,VFR,1.0,23.0,11.0,,,,,,,,,METAR,27.0
KLKV 120555Z 35007KT 10SM CLR 01/M02 A3031 RMK AO1 10120 20010 52010,KLKV,2015-02-12T05:55:00Z,42.17,-120.4,1.0,-2.0,350,7,,10.0,30.31004,,,,TRUE,,,,,,,CLR,,,,,,,,VFR,1.0,12.0,1.0,,,,,,,,,METAR,1441.0
KLKR 120555Z AUTO 00000KT 10SM -RA CLR 04/03 A2994 RMK AO2,KLKR,2015-02-12T05:55:00Z,34.72,-80.85,4.0,3.0,0,0,,10.0,29.940945,,,TRUE,TRUE,,,,,,-RA,CLR,,,,,,,,VFR,,,,,,,,,,,,METAR,149.0
KLGD 120555Z AUTO 15008G14KT 10SM CLR 09/M01 A3029 RMK AO1 10110 20090 52003,KLGD,2015-02-12T05:55:00Z,45.27,-118.0,9.0,-1.0,150,8,14,10.0,30.28937,,,TRUE,TRUE,,,,,,,CLR,,,,,,,,VFR,0.3,11.0,9.0,,,,,,,,,METAR,827.0
KCQM 120555Z AUTO 34006KT 10SM BKN020 M21/M24 A3048 RMK AO2,KCQM,2015-02-12T05:55:00Z,47.82,-92.68,-21.0,-24.0,340,6,,10.0,30.481298,,,TRUE,TRUE,,,,,,,BKN,2000,,,,,,,MVFR,,,,,,,,,,,,METAR,404.0
KCQW 120555Z AUTO 00000KT 8SM CLR 00/00 A2995 RMK AO2,KCQW,2015-02-12T05:55:00Z,34.72,-79.95,0.0,0.0,0,0,,8.0,29.949802,,,TRUE,TRUE,,,,,,,CLR,,,,,,,,VFR,,,,,,,,,,,,METAR,73.0
KCVN 120555Z AUTO 05003KT 10SM OVC090 02/M03 A3043 RMK AO1 10020 20010 52003,KCVN,2015-02-12T05:55:00Z,34.42,-103.07,2.0,-3.0,50,3,,10.0,30.431103,,,TRUE,TRUE,,,,,,,OVC,9000,,,,,,,VFR,0.3,2.0,1.0,,,,,,,,,METAR,1284.0
KCVO 120555Z AUTO 00000KT 1/2SM OVC005 07/05 A3024 RMK AO1 10120 20070 52007,KCVO,2015-02-12T05:55:00Z,44.5,-123.27,7.0,5.0,0,0,,0.5,30.239174,,,TRUE,TRUE,,,,,,,OVC,500,,,,,,,LIFR,0.7,12.0,7.0,,,,,,,,,METAR,75.0
KCWI 120555Z AUTO 32024G27KT 10SM OVC027 M11/M16 A3027 RMK AO1 11070 21110 52020,KCWI,2015-02-12T05:55:00Z,41.82,-90.32,-11.0,-16.0,320,24,27,10.0,30.268702,,,TRUE,TRUE,,,,,,,OVC,2700,,,,,,,MVFR,2.0,-7.0,-11.0,,,,,,,,,METAR,216.0
KD57 120555Z AUTO 11005KT 10SM CLR M19/M23 A3060 RMK AO2,KD57,2015-02-12T05:55:00Z,46.82,-101.87,-19.0,-23.0,110,5,,10.0,30.59941,,,TRUE,TRUE,,,,,,,CLR,,,,,,,,VFR,,,,,,,,,,,,METAR,637.0
KDTL 120555Z AUTO 34008KT 10SM CLR M22/M24 A3060 RMK AO2,KDTL,2015-02-12T05:55:00Z,46.82,-95.87,-22.0,-24.0,340,8,,10.0,30.59941,,,TRUE,TRUE,,,,,,,CLR,,,,,,,,VFR,,,,,,,,,,,,METAR,426.0
KDYR 120555Z 35010G15KT 10SM CLR 02/M08 A3024 RMK AO1 10090 20020 52007,KDYR,2015-02-12T05:55:00Z,36.0,-89.4,2.0,-8.0,350,10,15,10.0,30.239174,,,,TRUE,,,,,,,CLR,,,,,,,,VFR,0.7,9.0,2.0,,,,,,,,,METAR,103.0
KDWU 120555Z AUTO 28005KT 10SM FEW021 BKN030 OVC035 03/01 A2996 RMK AO1 10040 20030 57010,KDWU,2015-02-12T05:55:00Z,38.55,-82.73,3.0,1.0,280,5,,10.0,29.958662,,,TRUE,TRUE,,,,,,,FEW,2100,BKN,3000,OVC,3500,,,MVFR,-1.0,4.0,3.0,,,,,,,,,METAR,166.0
KDVL 120555Z AUTO 31006KT 10SM CLR M24/M28 A3067 RMK AO1 11190 21240 411301240 52010,KDVL,2015-02-12T05:55:00Z,48.12,-98.92,-24.0,-28.0,310,6,,10.0,30.670275,,,TRUE,TRUE,,,,,,,CLR,,,,,,,,VFR,1.0,-19.0,-24.0,-13.0,-24.0,,,,,,,METAR,443.0
KE80 120555Z AUTO 28006KT 10SM OVC065 03/01 A3042 RMK AO2 T00300006 10086 20005 401070005,KE80,2015-02-12T05:55:00Z,34.65,-106.83,3.0,0.6,280,6,,10.0,30.41929,,,TRUE,TRUE,,,,,,,OVC,6500,,,,,,,VFR,,8.6,0.5,10.7,0.5,,,,,,,METAR,1582.0
KEAR 120555Z 03015KT 10SM BKN035 M03/M09 A3047 RMK AO1 10030 21030 52024,KEAR,2015-02-12T05:55:00Z,40.72,-99.0,-3.0,-9.0,30,15,,10.0,30.469488,,,,TRUE,,,,,,,BKN,3500,,,,,,,VFR,2.4,3.0,-3.0,,,,,,,,,METAR,649.0
KEDC 120555Z AUTO 02018G24KT 10SM SCT037 BKN046 OVC060 14/05 A3022 RMK AO2,KEDC,2015-02-12T05:55:00Z,30.4,-97.57,14.0,5.0,20,18,24,10.0,30.221457,,,TRUE,TRUE,,,,,,,SCT,3700,BKN,4600,OVC,6000,,,VFR,,,,,,,,,,,,METAR,189.0
KEHR 120555Z AUTO 29009KT 10SM CLR M02/M07 A3020 RMK AO1 10040 21020 401101060 54000,KEHR,2015-02-12T05:55:00Z,37.82,-87.67,-2.0,-7.0,290,9,,10.0,30.200787,,,TRUE,TRUE,,,,,,,CLR,,,,,,,,VFR,,4.0,-2.0,11.0,-6.0,,,,,,,METAR,117.0
KEEN 120555Z AUTO 00000KT 10SM CLR M12/M16 A2987 RMK AO1 11070 21120 57014,KEEN,2015-02-12T05:55:00Z,42.88,-72.27,-12.0,-16.0,0,0,,10.0,29.870079,,,TRUE,TRUE,,,,,,,CLR,,,,,,,,VFR,-1.4,-7.0,-12.0,,,,,,,,,METAR,149.0
KENV 120555Z AUTO 00000KT 10SM CLR 02/M04 A3040 RMK AO1 10100 20020 54000,KENV,2015-02-12T05:55:00Z,40.72,-114.02,2.0,-4.0,0,0,,10.0,30.398623,,,TRUE,TRUE,,,,,,,CLR,,,,,,,,VFR,,10.0,2.0,,,,,,,,,METAR,1292.0
KGDV 120555Z AUTO 09005KT 10SM CLR M13/M16 A3047 RMK AO1 11100 21140 57014,KGDV,2015-02-12T05:55:00Z,47.12,-104.78,-13.0,-16.0,90,5,,10.0,30.469488,,,TRUE,TRUE,,,,,,,CLR,,,,,,,,VFR,-1.4,-10.0,-14.0,,,,,,,,,METAR,749.0
KGKT 120555Z AUTO 00000KT 10SM CLR M01/M02 A3003 RMK,KGKT,2015-02-12T05:55:00Z,35.85,-83.53,-1.0,-2.0,0,0,,10.0,30.029528,,,TRUE,,,,,,,,CLR,,,,,,,,VFR,,,,,,,,,,,,METAR,309.0
KGOV 120555Z AUTO 31013KT 5SM -SN SCT013 SCT018 OVC038 M12/M15 A2993 RMK AO2 T11181153 11062 21118 410211118,KGOV,2015-02-12T05:55:00Z,44.68,-84.73,-11.8,-15.3,310,13,,5.0,29.929134,,,TRUE,TRUE,,,,,,-SN,SCT,1300,SCT,1800,OVC,3800,,,MVFR,,-6.2,-11.8,-2.1,-11.8,,,,,,,METAR,353.0
KGPZ 120555Z AUTO 34013KT 10SM OVC021 M21/M24 A3046 RMK AO1 11160 21210 410501210 52024,KGPZ,2015-02-12T05:55:00Z,47.22,-93.52,-21.0,-24.0,340,13,,10.0,30.46063,,,TRUE,TRUE,,,,,,,OVC,2100,,,,,,,MVFR,2.4,-16.0,-21.0,-5.0,-21.0,,,,,,,METAR,413.0
KBHB 120555Z 36008KT 10SM OVC014 M14/M17 A2994 RMK AO1 11120 21140 57017,KBHB,2015-02-12T05:55:00Z,44.45,-68.37,-14.0,-17.0,360,8,,10.0,29.940945,,,,TRUE,,,,,,,OVC,1400,,,,,,,MVFR,-1.7,-12.0,-14.0,,,,,,,,,METAR,26.0
KGTR 120555Z AUTO 33005KT 10SM CLR 06/01 A3013 RMK AO1 10130 20060 52007,KGTR,2015-02-12T05:55:00Z,33.45,-88.57,6.0,1.0,330,5,,10.0,30.129921,,,TRUE,TRUE,,,,,,,CLR,,,,,,,,VFR,0.7,13.0,6.0,,,,,,,,,METAR,80.0
KGTU 120555Z 01010G18KT 10SM BKN055 14/04 A3025 RMK AO1 10230 20140 402400090 52034,KGTU,2015-02-12T05:55:00Z,30.68,-97.68,14.0,4.0,10,10,18,10.0,30.250984,,,,TRUE,,,,,,,BKN,5500,,,,,,,VFR,3.4,23.0,14.0,24.0,9.0,,,,,,,METAR,240.0
KGUC 120555Z 03003KT 10SM CLR M07/M11 A3048 RMK AO1 10040 21080 52017,KGUC,2015-02-12T05:55:00Z,38.52,-106.92,-7.0,-11.0,30,3,,10.0,30.481298,,,,TRUE,,,,,,,CLR,,,,,,,,VFR,1.7,4.0,-8.0,,,,,,,,,METAR,2339.0
KGXY 120555Z AUTO 00000KT 10SM CLR M02/M08 A3033 RMK AO1 10090 21030 57010,KGXY,2015-02-12T05:55:00Z,40.42,-104.62,-2.0,-8.0,0,0,,10.0,30.33071,,,TRUE,TRUE,,,,,,,CLR,,,,,,,,VFR,-1.0,9.0,-3.0,,,,,,,,,METAR,1420.0
KHEQ 120555Z AUTO 07010KT 10SM CLR 01/M02 A3038 RMK AO2,KHEQ,2015-02-12T05:55:00Z,40.57,-102.28,1.0,-2.0,70,10,,10.0,30.380905,,,TRUE,TRUE,,,,,,,CLR,,,,,,,,VFR,,,,,,,,,,,,METAR,1137.0
KHEF 120555Z 16003KT 10SM BKN085 M01/M02 A2990 RMK AO1 10030 21010 57010,KHEF,2015-02-12T05:55:00Z,38.72,-77.52,-1.0,-2.0,160,3,,10.0,29.899607,,,,TRUE,,,,,,,BKN,8500,,,,,,,VFR,-1.0,3.0,-1.0,,,,,,,,,METAR,59.0
KHDN 120555Z AUTO 11007KT 10SM CLR M03/M09 A3041 RMK AO1 10060 21030 54000,KHDN,2015-02-12T05:55:00Z,40.47,-107.22,-3.0,-9.0,110,7,,10.0,30.410433,,,TRUE,TRUE,,,,,,,CLR,,,,,,,,VFR,,6.0,-3.0,,,,,,,,,METAR,2012.0
KCBG 120555Z AUTO 32007KT 10SM CLR M17/M22 A3048 RMK AO2,KCBG,2015-02-12T05:55:00Z,45.57,-93.27,-17.0,-22.0,320,7,,10.0,30.481298,,,TRUE,TRUE,,,,,,,CLR,,,,,,,,VFR,,,,,,,,,,,,METAR,287.0
KBVX 120555Z AUTO 32006KT 10SM CLR 02/M04 A3028 RMK AO1 10130 20020 52007,KBVX,2015-02-12T05:55:00Z,35.73,-91.65,2.0,-4.0,320,6,,10.0,30.280512,,,TRUE,TRUE,,,,,,,CLR,,,,,,,,VFR,0.7,13.0,2.0,,,,,,,,,METAR,141.0
KBVU 120555Z AUTO 36007KT 10SM CLR 15/M04 A3028 RMK AO2,KBVU,2015-02-12T05:55:00Z,35.95,-114.87,15.0,-4.0,360,7,,10.0,30.280512,,,TRUE,TRUE,,,,,,,CLR,,,,,,,,VFR,,,,,,,,,,,,METAR,671.0
KBTP 120555Z AUTO 24009KT 10SM BKN008 OVC014 00/M02 A2984 RMK AO1 10010 20000 57017,KBTP,2015-02-12T05:55:00Z,40.77,-79.95,0.0,-2.0,240,9,,10.0,29.840551,,,TRUE,TRUE,,,,,,,BKN,800,OVC,1400,,,,,IFR,-1.7,1.0,0.0,,,,,,,,,METAR,380.0
KBOW 120555Z AUTO 00000KT 10SM CLR 07/07 A3009 RMK AO2,KBOW,2015-02-12T05:55:00Z,27.93,-81.77,7.0,7.0,0,0,,10.0,30.088583,,,TRUE,TRUE,,,,,,,CLR,,,,,,,,VFR,,,,,,,,,,,,METAR,39.0
KBLM 120555Z AUTO 00000KT 10SM BKN080 OVC110 M04/M09 A2990 RMK AO1 11030 21060 57010,KBLM,2015-02-12T05:55:00Z,40.17,-74.12,-4.0,-9.0,0,0,,10.0,29.899607,,,TRUE,TRUE,,,,,,,BKN,8000,OVC,11000,,,,,VFR,-1.0,-3.0,-6.0,,,,,,,,,METAR,48.0
KBID 120555Z AUTO 35008KT 10SM OVC026 M04/M08 A2989 RMK AO1 11040 21050 57010,KBID,2015-02-12T05:55:00Z,41.17,-71.58,-4.0,-8.0,350,8,,10.0,29.890747,,,TRUE,TRUE,,,,,,,OVC,2600,,,,,,,MVFR,-1.0,-4.0,-5.0,,,,,,,,,METAR,33.0
KHEZ 120555Z AUTO 02003KT 10SM CLR 08/03 A3017 RMK AO1 10170 20080 52010,KHEZ,2015-02-12T05:55:00Z,31.62,-91.3,8.0,3.0,20,3,,10.0,30.171259,,,TRUE,TRUE,,,,,,,CLR,,,,,,,,VFR,1.0,17.0,8.0,,,,,,,,,METAR,83.0
KL38 120555Z AUTO 00000KT 10SM CLR 11/07 A3013 RMK AO2 T01140073 10181 20100 402220036,KL38,2015-02-12T05:55:00Z,30.17,-90.93,11.4,7.3,0,0,,10.0,30.129921,,,TRUE,TRUE,,,,,,,CLR,,,,,,,,VFR,,18.1,10.0,22.2,3.6,,,,,,,SPECI,4.0
KRUG 120555Z AUTO 00000KT 10SM CLR M26/M29 A3068 RMK AO2,KRUG,2015-02-12T05:55:00Z,48.38,-100.02,-26.0,-29.0,0,0,,10.0,30.679134,,,TRUE,TRUE,,,,,,,CLR,,,,,,,,VFR,,,,,,,,,,,,SPECI,472.0
KRWV 120555Z AUTO 35006KT 10SM FEW049 FEW055 14/10 A3024 RMK AO2,KRWV,2015-02-12T05:55:00Z,30.52,-96.7,14.0,10.0,350,6,,10.0,30.239174,,,TRUE,TRUE,,,,,,,FEW,4900,FEW,5500,,,,,VFR,,,,,,,,,,,,SPECI,119.0
KRZN 120555Z AUTO 35008KT 10SM CLR M17/M22 A3044 RMK AO2 T11711220 11109 21171 410381171,KRZN,2015-02-12T05:55:00Z,45.82,-92.37,-17.1,-22.0,350,8,,10.0,30.43996,,,TRUE,TRUE,,,,,,,CLR,,,,,,,,VFR,,-10.9,-17.1,-3.8,-17.1,,,,,,,SPECI,301.0
KTSP 120555Z AUTO 11012G20KT 10SM CLR 11/M07 A3028 RMK AO2,KTSP,2015-02-12T05:55:00Z,35.13,-118.43,11.0,-7.0,110,12,20,10.0,30.280512,,,TRUE,TRUE,,,,,,,CLR,,,,,,,,VFR,,,,,,,,,,,,SPECI,1220.0
KSNC 120555Z AUTO 00000KT 10SM CLR M08/M10 A2990 RMK AO2,KSNC,2015-02-12T05:55:00Z,41.38,-72.5,-8.0,-10.0,0,0,,10.0,29.899607,,,TRUE,TRUE,,,,,,,CLR,,,,,,,,VFR,,,,,,,,,,,,SPECI,127.0
KUOX 120555Z AUTO 36008KT 10SM CLR 04/00 A3019 RMK AO2 PWINO PNO,KUOX,2015-02-12T05:55:00Z,34.38,-89.53,4.0,0.0,360,8,,10.0,30.188976,,,TRUE,TRUE,,,,,TRUE,,CLR,,,,,,,,VFR,,,,,,,,,,,,SPECI,137.0
KC29 120555Z AUTO 33014KT 10SM SCT036 OVC043 M09/M15 A3017 RMK AO1 T10921153 11050 21092 400101092,KC29,2015-02-12T05:55:00Z,43.12,-89.53,-9.2,-15.3,330,14,,10.0,30.171259,,,TRUE,TRUE,,,,,,,SCT,3600,OVC,4300,,,,,VFR,,-5.0,-9.2,1.0,-9.2,,,,,,,METAR,283.0
KCIC 120555Z AUTO 00000KT 10SM CLR 10/10 A3021 RMK AO1,KCIC,2015-02-12T05:55:00Z,39.78,-121.83,10.0,10.0,0,0,,10.0,30.209646,,,TRUE,TRUE,,,,,,,CLR,,,,,,,,VFR,,,,,,,,,,,,METAR,73.0
KCIR 120555Z AUTO 32009KT 10SM CLR 01/M04 A3025 RMK AO2 T00101045 10074 20008 401381037,KCIR,2015-02-12T05:55:00Z,37.07,-89.22,1.0,-4.5,320,9,,10.0,30.250984,,,TRUE,TRUE,,,,,,,CLR,,,,,,,,VFR,,7.4,0.8,13.8,-3.7,,,,,,,METAR,98.0
KCLW 120555Z AUTO 00000KT 10SM CLR 10/06 A3008 RMK AO2,KCLW,2015-02-12T05:55:00Z,27.98,-82.75,10.0,6.0,0,0,,10.0,30.079725,,,TRUE,TRUE,,,,,,,CLR,,,,,,,,VFR,,,,,,,,,,,,METAR,22.0
KCMD 120555Z AUTO 00000KT 10SM CLR 05/M01 A3010 RMK AO2 T00471013,KCMD,2015-02-12T05:55:00Z,34.27,-86.85,4.7,-1.3,0,0,,10.0,30.100393,,,TRUE,TRUE,,,,,,,CLR,,,,,,,,VFR,,,,,,,,,,,,METAR,294.0
KCNI 120555Z AUTO 29006KT 10SM CLR 07/M05 A3001 RMK AO2,KCNI,2015-02-12T05:55:00Z,34.32,-84.42,7.0,-5.0,290,6,,10.0,30.008858,,,TRUE,TRUE,,,,,,,CLR,,,,,,,,VFR,,,,,,,,,,,,METAR,372.0
KCPK 120555Z AUTO 00000KT 10SM CLR M01/M02 A2996 RMK AO2,KCPK,2015-02-12T05:55:00Z,36.67,-76.32,-1.0,-2.0,0,0,,10.0,29.958662,,,TRUE,TRUE,,,,,,,CLR,,,,,,,,VFR,,,,,,,,,,,,METAR,6.0
KCRX 120555Z AUTO 32006G11KT 10SM CLR 05/01 A3015 RMK AO2,KCRX,2015-02-12T05:55:00Z,34.92,-88.6,5.0,1.0,320,6,11,10.0,30.15059,,,TRUE,TRUE,,,,,,,CLR,,,,,,,,VFR,,,,,,,,,,,,METAR,130.0
KCUH 120555Z AUTO 02007KT 10SM CLR 00/M03 A3044 RMK AO2,KCUH,2015-02-12T05:55:00Z,35.95,-96.77,0.0,-3.0,20,7,,10.0,30.43996,,,TRUE,TRUE,,,,,,,CLR,,,,,,,,VFR,,,,,,,,,,,,METAR,279.0
KCXP 120555Z AUTO 00000KT 10SM CLR 04/00 A3035 RMK AO2,KCXP,2015-02-12T05:55:00Z,39.18,-119.73,4.0,0.0,0,0,,10.0,30.351377,,,TRUE,TRUE,,,,,,,CLR,,,,,,,,VFR,,,,,,,,,,,,METAR,1435.0
KD50 120555Z AUTO 17006KT 10SM CLR M21/M24 A3058 RMK AO2,KD50,2015-02-12T05:55:00Z,48.93,-103.3,-21.0,-24.0,170,6,,10.0,30.578741,,,TRUE,TRUE,,,,,,,CLR,,,,,,,,VFR,,,,,,,,,,,,METAR,595.0
KLCI 120555Z AUTO 00000KT 10SM CLR M16/M18 A2987 RMK AO1 11100 21170 57017,KLCI,2015-02-12T05:55:00Z,43.57,-71.42,-16.0,-18.0,0,0,,10.0,29.870079,,,TRUE,TRUE,,,,,,,CLR,,,,,,,,VFR,-1.7,-10.0,-17.0,,,,,,,,,METAR,166.0
KLBL 120555Z AUTO 26008KT 10SM CLR M04/M09 A3043 RMK AO1 10070 21050 52003,KLBL,2015-02-12T05:55:00Z,37.03,-100.97,-4.0,-9.0,260,8,,10.0,30.431103,,,TRUE,TRUE,,,,,,,CLR,,,,,,,,VFR,0.3,7.0,-5.0,,,,,,,,,METAR,879.0
KKLS 120555Z 00000KT 10SM OVC110 10/07 A3025 RMK AO1 10130 20100 52010,KKLS,2015-02-12T05:55:00Z,46.12,-122.9,10.0,7.0,0,0,,10.0,30.250984,,,,TRUE,,,,,,,OVC,11000,,,,,,,VFR,1.0,13.0,10.0,,,,,,,,,METAR,5.0
KJYG 120555Z AUTO 33019G22KT 10SM SCT020 M17/M20 A3052 RMK AO2,KJYG,2015-02-12T05:55:00Z,43.98,-94.55,-17.0,-20.0,330,19,22,10.0,30.519686,,,TRUE,TRUE,,,,,,,SCT,2000,,,,,,,VFR,,,,,,,,,,,,METAR,325.0
KJHW 120555Z 1 3/4SM OVC004 M02/M03 A2973 RMK AO1 11020 21020 57017,KJHW,2015-02-12T05:55:00Z,42.13,-79.27,-2.0,-3.0,,,,1.75,29.731298,,,,TRUE,,,,,,,OVC,400,,,,,,,LIFR,-1.7,-2.0,-2.0,,,,,,,,,METAR,525.0
KJHN 120555Z AUTO 22007KT 10SM CLR M02/M07 A3043 RMK AO2 T10191072 10070 21028 400951028,KJHN,2015-02-12T05:55:00Z,37.58,-101.73,-1.9,-7.2,220,7,,10.0,30.431103,,,TRUE,TRUE,,,,,,,CLR,,,,,,,,VFR,,7.0,-2.8,9.5,-2.8,,,,,,,METAR,1013.0
KJAC 120555Z AUTO 01005KT 10SM OVC100 M04/M06 A3039 RMK AO1 10010 21060 54000,KJAC,2015-02-12T05:55:00Z,43.62,-110.73,-4.0,-6.0,10,5,,10.0,30.389763,,,TRUE,TRUE,,,,,,,OVC,10000,,,,,,,VFR,,1.0,-6.0,,,,,,,,,METAR,1961.0
KIWD 120555Z AUTO 36010KT 340V040 2SM BKN006 BKN015 OVC022 M15/M17 A3028 RMK AO1 11120 21150 410501150 52034,KIWD,2015-02-12T05:55:00Z,46.52,-90.12,-15.0,-17.0,360,10,,2.0,30.280512,,,TRUE,TRUE,,,,,,,BKN,600,BKN,1500,OVC,2200,,,IFR,3.4,-12.0,-15.0,-5.0,-15.0,,,,,,,METAR,375.0
KIWA 120555Z 05005KT 20SM SKC 19/M01 A3014,KIWA,2015-02-12T05:55:00Z,33.3,-111.65,19.0,-1.0,50,5,,20.0,30.138779,,,,,,,,,,,SKC,,,,,,,,VFR,,,,,,,,,,,,METAR,412.0
KDKB 120555Z AUTO 30013KT 10SM SCT030 OVC095 M10/M14 A3013 RMK AO2 T11011136 11059 21101 400001101,KDKB,2015-02-12T05:55:00Z,41.93,-88.7,-10.1,-13.6,300,13,,10.0,30.129921,,,TRUE,TRUE,,,,,,,SCT,3000,OVC,9500,,,,,VFR,,-5.9,-10.1,,-10.1,,,,,,,METAR,279.0
K0E0 120555Z AUTO 00000KT 10SM BKN018 OVC050 00/M02 A3045 RMK AO2 T10021018 10043 21005 400821026,K0E0,2015-02-12T05:55:00Z,34.98,-106.0,-0.2,-1.8,0,0,,10.0,30.448818,,,TRUE,TRUE,,,,,,,BKN,1800,OVC,5000,,,,,MVFR,,4.3,-0.5,8.2,-2.6,,,,,,,METAR,1890.0
K11R 120555Z AUTO 00000KT 10SM CLR 14/12 A3019 RMK AO2 T01350121 10226 20135 402450135,K11R,2015-02-12T05:55:00Z,30.22,-96.37,13.5,12.1,0,0,,10.0,30.188976,,,TRUE,TRUE,,,,,,,CLR,,,,,,,,VFR,,22.6,13.5,24.5,13.5,,,,,,,METAR,94.0
K19A 120555Z AUTO 28005KT 10SM CLR 07/02 A2996 RMK AO2,K19A,2015-02-12T05:55:00Z,34.18,-83.57,7.0,2.0,280,5,,10.0,29.958662,,,TRUE,TRUE,,,,,,,CLR,,,,,,,,VFR,,,,,,,,,,,,METAR,290.0
KILE 120555Z 01012G18KT 10SM SCT060 12/02 A3025 RMK AO1 10210 20120 402300060 52024,KILE,2015-02-12T05:55:00Z,31.07,-97.67,12.0,2.0,10,12,18,10.0,30.250984,,,,TRUE,,,,,,,SCT,6000,,,,,,,VFR,2.4,21.0,12.0,23.0,6.0,,,,,,,METAR,258.0
KI67 120555Z AUTO 32009G17KT 10SM OVC028 00/M06 A3005 RMK AO1,KI67,2015-02-12T05:55:00Z,39.25,-84.78,0.0,-6.0,320,9,17,10.0,30.050198,,,TRUE,TRUE,,,,,,,OVC,2800,,,,,,,MVFR,,,,,,,,,,,,METAR,178.0
KHYX 120555Z AUTO 31015KT 10SM SCT040 OVC048 M06/M12 A2995 RMK AO2,KHYX,2015-02-12T05:55:00Z,43.43,-83.87,-6.0,-12.0,310,15,,10.0,29.949802,,,TRUE,TRUE,,,,,,,SCT,4000,OVC,4800,,,,,VFR,,,,,,,,,,,,METAR,183.0
KHYW 120555Z AUTO 00000KT 5SM BR CLR 00/00 A2999 RMK AO2,KHYW,2015-02-12T05:55:00Z,33.83,-79.12,0.0,0.0,0,0,,5.0,29.991142,,,TRUE,TRUE,,,,,,BR,CLR,,,,,,,,MVFR,,,,,,,,,,,,METAR,11.0
KHYS 120555Z AUTO 07009KT 10SM CLR M04/M10 A3040 RMK AO1 10060 21040 52010,KHYS,2015-02-12T05:55:00Z,38.85,-99.27,-4.0,-10.0,70,9,,10.0,30.398623,,,TRUE,TRUE,,,,,,,CLR,,,,,,,,VFR,1.0,6.0,-4.0,,,,,,,,,METAR,609.0
KHYI 120555Z 03016G21KT 10SM BKN039 OVC048 16/08 A3021 RMK AO1 10210 20130 402400090 52027,KHYI,2015-02-12T05:55:00Z,29.88,-97.87,16.0,8.0,30,16,21,10.0,30.209646,,,,TRUE,,,,,,,BKN,3900,OVC,4800,,,,,VFR,2.7,21.0,13.0,24.0,9.0,,,,,,,METAR,182.0
KHXD 120555Z AUTO 18003KT 2 1/2SM BR CLR 07/07 A3002 RMK AO2 P0000,KHXD,2015-02-12T05:55:00Z,32.22,-80.7,7.0,7.0,180,3,,2.5,30.02067,,,TRUE,TRUE,,,,,,BR,CLR,,,,,,,,IFR,,,,,,0.0050,,,,,,METAR,6.0
KHVS 120555Z AUTO 00000KT 10SM CLR 03/01 A2996 RMK AO2,KHVS,2015-02-12T05:55:00Z,34.4,-80.12,3.0,1.0,0,0,,10.0,29.958662,,,TRUE,TRUE,,,,,,,CLR,,,,,,,,VFR,,,,,,,,,,,,METAR,111.0
KHNB 120555Z AUTO 31014G20KT 10SM OVC026 M01/M07 A3017 RMK AO1 10040 21010 400901040 54000,KHNB,2015-02-12T05:55:00Z,38.25,-86.95,-1.0,-7.0,310,14,20,10.0,30.171259,,,TRUE,TRUE,,,,,,,OVC,2600,,,,,,,MVFR,,4.0,-1.0,9.0,-4.0,,,,,,,METAR,161.0
K1P1 120555Z AUTO 00000KT 7SM SCT120 M15/M15 A2989 RMK AO2 T11551155 11100 21156,K1P1,2015-02-12T05:55:00Z,43.78,-71.75,-15.5,-15.5,0,0,,7.0,29.890747,,,TRUE,TRUE,,,,,,,SCT,12000,,,,,,,VFR,,-10.0,-15.6,,,,,,,,,METAR,154.0
K0CO 120555Z AUTO 31024G27KT 10SM CLR M10/M13 A3041 RMK AO2,K0CO,2015-02-12T05:55:00Z,39.8,-105.77,-10.0,-13.0,310,24,27,10.0,30.410433,,,TRUE,TRUE,,,,,,,CLR,,,,,,,,VFR,,,,,,,,,,,,METAR,3807.0
K0A9 120555Z AUTO 00000KT 10SM OVC050 M01/M03 A2998 RMK,K0A9,2015-02-12T05:55:00Z,36.37,-82.17,-1.0,-3.0,0,0,,10.0,29.97933,,,TRUE,,,,,,,,OVC,5000,,,,,,,VFR,,,,,,,,,,,,METAR,486.0
K1A5 120555Z AUTO 00000KT 10SM 03/M03 A2999 RMK AO2 T00271028 10063 21006 401611045,K1A5,2015-02-12T05:55:00Z,35.22,-83.42,2.7,-2.8,0,0,,10.0,29.991142,,,TRUE,TRUE,,,,,,,,,,,,,,,,,6.3,-0.6,16.1,-4.5,,,,,,,METAR,616.0
K1II 120555Z AUTO 31010G18KT 10SM OVC028 M01/M07 A3009 RMK AO2,K1II,2015-02-12T05:55:00Z,39.33,-86.03,-1.0,-7.0,310,10,18,10.0,30.088583,,,TRUE,TRUE,,,,,,,OVC,2800,,,,,,,MVFR,,,,,,,,,,,,METAR,214.0
K40J 120555Z AUTO 00000KT 5SM BR CLR 08/08 A3007 RMK AO2 T00780077 10105 20065,K40J,2015-02-12T05:55:00Z,30.07,-83.57,7.8,7.7,0,0,,5.0,30.070866,,,TRUE,TRUE,,,,,,BR,CLR,,,,,,,,MVFR,,10.5,6.5,,,,,,,,,METAR,13.0
K2I0 120555Z AUTO 32011G18KT 10SM OVC026 01/M05 A3020 RMK AO2 T00071048 10073 20007,K2I0,2015-02-12T05:55:00Z,37.35,-87.4,0.7,-4.8,320,11,18,10.0,30.200787,,,TRUE,TRUE,,,,,,,OVC,2600,,,,,,,MVFR,,7.3,0.7,,,,,,,,,METAR,134.0
K5C1 120555Z AUTO 36006KT 10SM BKN040 10/07 A3022 RMK AO1,K5C1,2015-02-12T05:55:00Z,29.72,-98.7,10.0,7.0,360,6,,10.0,30.221457,,,TRUE,TRUE,,,,,,,BKN,4000,,,,,,,VFR,,,,,,,,,,,,METAR,423.0
K4A9 120555Z AUTO 00000KT 10SM CLR 00/M03 A3006 RMK AO2,K4A9,2015-02-12T05:55:00Z,34.47,-85.72,0.0,-3.0,0,0,,10.0,30.059055,,,TRUE,TRUE,,,,,,,CLR,,,,,,,,VFR,,,,,,,,,,,,METAR,267.0
K5T9 120555Z AUTO 07007KT 10SM FEW055 16/10 A3016 RMK A01,K5T9,2015-02-12T05:55:00Z,28.85,-100.52,16.0,10.0,70,7,,10.0,30.159449,,,TRUE,TRUE,,,,,,,FEW,5500,,,,,,,VFR,,,,,,,,,,,,METAR,270.0
K65S 120555Z AUTO 00000KT 5SM BR FEW120 04/04 A3024 RMK AO2,K65S,2015-02-12T05:55:00Z,48.73,-116.3,4.0,4.0,0,0,,5.0,30.239174,,,TRUE,TRUE,,,,,,BR,FEW,12000,,,,,,,MVFR,,,,,,,,,,,,METAR,713.0
K20V 120555Z AUTO 00000KT 10SM CLR M06/M09 A3046 RMK AO2,K20V,2015-02-12T05:55:00Z,40.05,-106.37,-6.0,-9.0,0,0,,10.0,30.46063,,,TRUE,TRUE,,,,,,,CLR,,,,,,,,VFR,,,,,,,,,,,,METAR,2259.0
K1V6 120555Z AUTO 28005KT 10SM CLR 01/00 A3039 RMK AO2,K1V6,2015-02-12T05:55:00Z,38.43,-105.1,1.0,0.0,280,5,,10.0,30.389763,,,TRUE,TRUE,,,,,,,CLR,,,,,,,,VFR,,,,,,,,,,,,METAR,1658.0
KCDN 120555Z AUTO 00000KT 10SM CLR 02/00 A2996 RMK AO2 TSNO,KCDN,2015-02-12T05:55:00Z,34.28,-80.57,2.0,0.0,0,0,,10.0,29.958662,,,TRUE,TRUE,,,TRUE,,,,CLR,,,,,,,,VFR,,,,,,,,,,,,METAR,92.0
KCCU 120555Z AUTO 25009KT 10SM CLR M05/M13 A3046 RMK AO2,KCCU,2015-02-12T05:55:00Z,39.48,-106.15,-5.0,-13.0,250,9,,10.0,30.46063,,,TRUE,TRUE,,,,,,,CLR,,,,,,,,VFR,,,,,,,,,,,,METAR,3680.0
KPQI 120555Z AUTO 00000KT 10SM CLR M19/M25 A2995 RMK AO1 11140 21210 57014,KPQI,2015-02-12T05:55:00Z,46.67,-68.03,-19.0,-25.0,0,0,,10.0,29.949802,,,TRUE,TRUE,,,,,,,CLR,,,,,,,,VFR,-1.4,-14.0,-21.0,,,,,,,,,METAR,146.0
K82C 120555Z AUTO 34011G19KT 5SM -SN SCT020 SCT026 OVC044 M11/M14 A3022 RMK AO2 T11061142 11074 21106 400001106,K82C,2015-02-12T05:55:00Z,43.83,-90.13,-10.6,-14.2,340,11,19,5.0,30.221457,,,TRUE,TRUE,,,,,,-SN,SCT,2000,SCT,2600,OVC,4400,,,MVFR,,-7.4,-10.6,,-10.6,,,,,,,METAR,276.0
KAAA 120555Z AUTO 30008G19KT 10SM SCT022 M05/M09 A3023 RMK AO2 T10501088 11008 21050 400351050,KAAA,2015-02-12T05:55:00Z,40.17,-89.33,-5.0,-8.8,300,8,19,10.0,30.230314,,,TRUE,TRUE,,,,,,,SCT,2200,,,,,,,VFR,,-0.8,-5.0,3.5,-5.0,,,,,,,METAR,182.0
KADH 120555Z AUTO 35006KT 10SM CLR 02/M02 A3039 RMK AO2,KADH,2015-02-12T05:55:00Z,34.8,-96.67,2.0,-2.0,350,6,,10.0,30.389763,,,TRUE,TRUE,,,,,,,CLR,,,,,,,,VFR,,,,,,,,,,,,METAR,308.0
KAEJ 120555Z AUTO 25005KT 10SM CLR M07/M09 A3042 RMK AO2 T10701086 10022 21070 400361070,KAEJ,2015-02-12T05:55:00Z,38.82,-106.12,-7.0,-8.6,250,5,,10.0,30.41929,,,TRUE,TRUE,,,,,,,CLR,,,,,,,,VFR,,2.2,-7.0,3.6,-7.0,,,,,,,METAR,2422.0
KAJG 120555Z AUTO 32014KT 10SM SCT025 00/M06 A3018 RMK AO2,KAJG,2015-02-12T05:55:00Z,38.62,-87.73,0.0,-6.0,320,14,,10.0,30.180119,,,TRUE,TRUE,,,,,,,SCT,2500,,,,,,,VFR,,,,,,,,,,,,METAR,131.0
KAJZ 120555Z AUTO 00000KT 7SM CLR 02/M06 A3041 RMK AO2 T00181059 10141 20015 401551031,KAJZ,2015-02-12T05:55:00Z,38.78,-108.07,1.8,-5.9,0,0,,7.0,30.410433,,,TRUE,TRUE,,,,,,,CLR,,,,,,,,VFR,,14.1,1.5,15.5,-3.1,,,,,,,METAR,1583.0
KALM 120555Z AUTO 10SM CLR 04/M03 A3032 RMK AO2,KALM,2015-02-12T05:55:00Z,32.82,-105.97,4.0,-3.0,,,,10.0,30.318897,,,TRUE,TRUE,,,,,,,CLR,,,,,,,,VFR,,,,,,,,,,,,METAR,1279.0
KANW 120555Z AUTO 03012KT 7SM -SN OVC013 M10/M12 A3052 RMK AO2 T10971124 10000 21097 400261097,KANW,2015-02-12T05:55:00Z,42.57,-100.0,-9.7,-12.4,30,12,,7.0,30.519686,,,TRUE,TRUE,,,,,,-SN,OVC,1300,,,,,,,MVFR,,0.0,-9.7,2.6,-9.7,,,,,,,METAR,789.0
KAPY 120555Z AUTO 09006KT 10SM OVC055 17/13 A3011 RMK AO2 T01780138,KAPY,2015-02-12T05:55:00Z,26.97,-99.25,17.8,13.8,90,6,,10.0,30.109253,,,TRUE,TRUE,,,,,,,OVC,5500,,,,,,,VFR,,,,,,,,,,,,METAR,129.0
KAUH 120555Z AUTO 01016G20KT 10SM SCT027 OVC038 M04/M09 A3049 RMK AO2 T10401093 10002 21040 400471040,KAUH,2015-02-12T05:55:00Z,40.88,-98.0,-4.0,-9.3,10,16,20,10.0,30.490158,,,TRUE,TRUE,,,,,,,SCT,2700,OVC,3800,,,,,VFR,,0.2,-4.0,4.7,-4.0,,,,,,,METAR,550.0
KAUN 120555Z AUTO 00000KT 10SM CLR 12/08 A3022 RMK AO1,KAUN,2015-02-12T05:55:00Z,38.95,-121.08,12.0,8.0,0,0,,10.0,30.221457,,,TRUE,TRUE,,,,,,,CLR,,,,,,,,VFR,,,,,,,,,,,,METAR,467.0
KAVK 120555Z AUTO 35006KT 10SM CLR M03/M06 A3044 RMK AO2,KAVK,2015-02-12T05:55:00Z,36.77,-98.67,-3.0,-6.0,350,6,,10.0,30.43996,,,TRUE,TRUE,,,,,,,CLR,,,,,,,,VFR,,,,,,,,,,,,METAR,449.0
KAVQ 120555Z AUTO 00000KT 10SM CLR 13/00 A3010 RMK AO2 T01301004,KAVQ,2015-02-12T05:55:00Z,32.4,-111.22,13.0,-0.4,0,0,,10.0,30.100393,,,TRUE,TRUE,,,,,,,CLR,,,,,,,,VFR,,,,,,,,,,,,METAR,619.0
KAXX 120555Z AUTO 00000KT 10SM SCT001 M13/M14 A3044 RMK AO2 T11311143 10008 21134 400191134,KAXX,2015-02-12T05:55:00Z,36.42,-105.28,-13.1,-14.3,0,0,,10.0,30.43996,,,TRUE,TRUE,,,,,,,SCT,100,,,,,,,VFR,,0.8,-13.4,1.9,-13.4,,,,,,,METAR,2548.0
KMRF 120555Z AUTO 02021G25KT 10SM OVC012 03/01 A3033 RMK AO1 10090 20030 52014,KMRF,2015-02-12T05:55:00Z,30.37,-104.02,3.0,1.0,20,21,25,10.0,30.33071,,,TRUE,TRUE,,,,,,,OVC,1200,,,,,,,MVFR,1.4,9.0,3.0,,,,,,,,,METAR,1481.0
KVBG 120555Z AUTO 11007KT 10SM CLR 12/07 A3011 RMK AO2 SLP186 T01220072 10217 20122 51008 TSNO $,KVBG,2015-02-12T05:55:00Z,34.73,-120.58,12.2,7.2,110,7,,10.0,30.109253,1018.6,,TRUE,TRUE,TRUE,,TRUE,,,,CLR,,,,,,,,VFR,0.8,21.7,12.2,,,,,,,,,METAR,112.0
KOAJ 120555Z AUTO 00000KT 4SM CLR M02/M04 A2999 RMK AO1 10020 21020 57010,KOAJ,2015-02-12T05:55:00Z,34.82,-77.62,-2.0,-4.0,0,0,,4.0,29.991142,,,TRUE,TRUE,,,,,,,CLR,,,,,,,,MVFR,-1.0,2.0,-2.0,,,,,,,,,METAR,29.0
KMYR 120555Z AUTO 00000KT 10SM CLR 03/02 A3001 RMK AO1 10070 20030 57014,KMYR,2015-02-12T05:55:00Z,33.67,-78.92,3.0,2.0,0,0,,10.0,30.008858,,,TRUE,TRUE,,,,,,,CLR,,,,,,,,VFR,-1.4,7.0,3.0,,,,,,,,,METAR,8.0
KMVN 120555Z AUTO 30003KT 10SM BKN022 M02/M08 A3022 RMK AO1 10020 21020 400901060 57003,KMVN,2015-02-12T05:55:00Z,38.32,-88.87,-2.0,-8.0,300,3,,10.0,30.221457,,,TRUE,TRUE,,,,,,,BKN,2200,,,,,,,MVFR,-0.3,2.0,-2.0,9.0,-6.0,,,,,,,METAR,146.0
KMSV 120555Z AUTO 00000KT 10SM BKN038 OVC080 M06/M11 A2979 RMK AO1 11050 21070 57020,KMSV,2015-02-12T05:55:00Z,41.7,-74.78,-6.0,-11.0,0,0,,10.0,29.790354,,,TRUE,TRUE,,,,,,,BKN,3800,OVC,8000,,,,,VFR,-2.0,-5.0,-7.0,,,,,,,,,METAR,428.0
KHOB 120555Z AUTO 36013KT 10SM OVC042 03/00 A3043 RMK AO2,KHOB,2015-02-12T05:55:00Z,32.67,-103.22,3.0,0.0,360,13,,10.0,30.431103,,,TRUE,TRUE,,,,,,,OVC,4200,,,,,,,VFR,,,,,,,,,,,,METAR,1115.0
KSMN 120555Z AUTO 00000KT 10SM CLR 01/M02 A3035 RMK AO1 10080 20000 52007,KSMN,2015-02-12T05:55:00Z,45.12,-113.87,1.0,-2.0,0,0,,10.0,30.351377,,,TRUE,TRUE,,,,,,,CLR,,,,,,,,VFR,0.7,8.0,0.0,,,,,,,,,METAR,1233.0
KSLG 120555Z AUTO 01007KT 10SM CLR M02/M08 A3039 RMK AO1 10030 21020 52020,KSLG,2015-02-12T05:55:00Z,36.2,-94.47,-2.0,-8.0,10,7,,10.0,30.389763,,,TRUE,TRUE,,,,,,,CLR,,,,,,,,VFR,2.0,3.0,-2.0,,,,,,,,,METAR,300.0
KSKX 120555Z AUTO 00000KT 10SM CLR M03/M07 A3043 RMK AO1 10050 21030 52014,KSKX,2015-02-12T05:55:00Z,36.45,-105.67,-3.0,-7.0,0,0,,10.0,30.431103,,,TRUE,TRUE,,,,,,,CLR,,,,,,,,VFR,1.4,5.0,-3.0,,,,,,,,,METAR,2161.0
KSNH 120555Z AUTO 36007KT 10SM CLR 04/M01 A3015 RMK,KSNH,2015-02-12T05:55:00Z,35.17,-88.22,4.0,-1.0,360,7,,10.0,30.15059,,,TRUE,,,,,,,,CLR,,,,,,,,VFR,,,,,,,,,,,,METAR,144.0
KSOP 120555Z AUTO 23004KT 10SM CLR 03/M01 A2994 RMK AO1 10050 20010 57014,KSOP,2015-02-12T05:55:00Z,35.22,-79.4,3.0,-1.0,230,4,,10.0,29.940945,,,TRUE,TRUE,,,,,,,CLR,,,,,,,,VFR,-1.4,5.0,1.0,,,,,,,,,METAR,141.0
KSQI 120555Z AUTO 31014G18KT 10SM FEW023 BKN030 OVC055 M09/M13 A3021 RMK AO1 11060 21090 400101090 52017,KSQI,2015-02-12T05:55:00Z,41.75,-89.67,-9.0,-13.0,310,14,18,10.0,30.209646,,,TRUE,TRUE,,,,,,,FEW,2300,BKN,3000,OVC,5500,,,MVFR,1.7,-6.0,-9.0,1.0,-9.0,,,,,,,METAR,197.0
KSPL 120555Z AUTO 16005KT 8SM BKN040 18/17 A3009 RMK AO1,KSPL,2015-02-12T05:55:00Z,26.07,-97.15,18.0,17.0,160,5,,8.0,30.088583,,,TRUE,TRUE,,,,,,,BKN,4000,,,,,,,VFR,,,,,,,,,,,,METAR,4.0
KBAC 120555Z AUTO 32009KT 10SM -SN OVC007 M22/M25 A3068 RMK AO2 P0001,KBAC,2015-02-12T05:55:00Z,46.93,-98.02,-22.0,-25.0,320,9,,10.0,30.679134,,,TRUE,TRUE,,,,,,-SN,OVC,700,,,,,,,IFR,,,,,,0.01,,,,,,METAR,684.0
KAYS 120555Z AUTO 00000KT 10SM CLR 10/08 A3003 RMK AO2 T00950075 10129 20068,KAYS,2015-02-12T05:55:00Z,31.25,-82.4,9.5,7.5,0,0,,10.0,30.029528,,,TRUE,TRUE,,,,,,,CLR,,,,,,,,VFR,,12.9,6.8,,,,,,,,,METAR,46.0
KATP 120555Z AUTO 12009KT 10SM FEW030 20/12 A3010 RMK A01,KATP,2015-02-12T05:55:00Z,27.2,-90.03,20.0,12.0,120,9,,10.0,30.100393,,,TRUE,TRUE,,,,,,,FEW,3000,,,,,,,VFR,,,,,,,,,,,,METAR,62.0
KESC 120555Z AUTO 31008G14KT 3SM SCT012 BKN019 OVC027 M13/M17 A3009 RMK AO1 11080 21130 410101130 52020,KESC,2015-02-12T05:55:00Z,45.75,-87.08,-13.0,-17.0,310,8,14,3.0,30.088583,,,TRUE,TRUE,,,,,,,SCT,1200,BKN,1900,OVC,2700,,,MVFR,2.0,-8.0,-13.0,-1.0,-13.0,,,,,,,METAR,187.0
KERY 120555Z AUTO 35015KT 1 1/2SM BR OVC011 M16/M18 A3002 RMK AO2 T11611180 11110 21161 410301161,KERY,2015-02-12T05:55:00Z,46.3,-85.45,-16.1,-18.0,350,15,,1.5,30.02067,,,TRUE,TRUE,,,,,,BR,OVC,1100,,,,,,,IFR,,-11.0,-16.1,-3.0,-16.1,,,,,,,METAR,265.0
KCOE 120555Z AUTO 04006KT 10SM OVC110 04/03 A3027 RMK AO1 10090 20040 52003,KCOE,2015-02-12T05:55:00Z,47.77,-116.82,4.0,3.0,40,6,,10.0,30.268702,,,TRUE,TRUE,,,,,,,OVC,11000,,,,,,,VFR,0.3,9.0,4.0,,,,,,,,,METAR,707.0
KCOD 120555Z 00000KT OVC120 03/M02 A3024 RMK AO1 10070 20020 57007,KCOD,2015-02-12T05:55:00Z,44.52,-109.02,3.0,-2.0,0,0,,,30.239174,,,,TRUE,,,,,,,OVC,12000,,,,,,,,-0.7,7.0,2.0,,,,,,,,,METAR,1553.0
KCIU 120555Z AUTO 34015G19KT 8SM OVC023 M16/M18 A2996 RMK AO1 11090 21160 410201160 52037,KCIU,2015-02-12T05:55:00Z,46.25,-84.47,-16.0,-18.0,340,15,19,8.0,29.958662,,,TRUE,TRUE,,,,,,,OVC,2300,,,,,,,MVFR,3.7,-9.0,-16.0,-2.0,-16.0,,,,,,,METAR,244.0
KCGZ 120555Z AUTO 04009KT 10SM CLR 19/M01 A3011 RMK AO1 10240 20170 52014,KCGZ,2015-02-12T05:55:00Z,32.95,-111.77,19.0,-1.0,40,9,,10.0,30.109253,,,TRUE,TRUE,,,,,,,CLR,,,,,,,,VFR,1.4,24.0,17.0,,,,,,,,,METAR,446.0
KCFS 120555Z AUTO 32011KT 10SM SCT030 SCT043 OVC050 M07/M13 A2993 RMK AO2 T10751126 11020 21075 410031082,KCFS,2015-02-12T05:55:00Z,43.47,-83.45,-7.5,-12.6,320,11,,10.0,29.929134,,,TRUE,TRUE,,,,,,,SCT,3000,SCT,4300,OVC,5000,,,VFR,,-2.0,-7.5,-0.3,-8.2,,,,,,,METAR,214.0
KCEY 120555Z AUTO 36010KT 10SM CLR 00/M05 A3021 RMK AO1,KCEY,2015-02-12T05:55:00Z,36.67,-88.37,0.0,-5.0,360,10,,10.0,30.209646,,,TRUE,TRUE,,,,,,,CLR,,,,,,,,VFR,,,,,,,,,,,,METAR,176.0
KFYM 120555Z AUTO 36006KT 10SM CLR 04/M02 A3008 RMK,KFYM,2015-02-12T05:55:00Z,35.07,-86.57,4.0,-2.0,360,6,,10.0,30.079725,,,TRUE,,,,,,,,CLR,,,,,,,,VFR,,,,,,,,,,,,METAR,300.0
KFSE 120555Z AUTO 33007KT 7SM OVC005 M26/M29 A3062 RMK AO2,KFSE,2015-02-12T05:55:00Z,47.58,-95.77,-26.0,-29.0,330,7,,7.0,30.620079,,,TRUE,TRUE,,,,,,,OVC,500,,,,,,,IFR,,,,,,,,,,,,METAR,389.0
KFRM 120555Z AUTO 33020G27KT 10SM OVC015 M17/M21 A3047 RMK AO1 11090 21170 410101170 52030,KFRM,2015-02-12T05:55:00Z,43.63,-94.42,-17.0,-21.0,330,20,27,10.0,30.469488,,,TRUE,TRUE,,,,,,,OVC,1500,,,,,,,MVFR,3.0,-9.0,-17.0,-1.0,-17.0,,,,,,,METAR,354.0
KFPK 120555Z AUTO 32011G17KT 5SM -SN SCT020 OVC038 M05/M08 A2993 RMK AO2 T10481082 11022 21048 400001084,KFPK,2015-02-12T05:55:00Z,42.57,-84.82,-4.8,-8.2,320,11,17,5.0,29.929134,,,TRUE,TRUE,,,,,,-SN,SCT,2000,OVC,3800,,,,,MVFR,,-2.2,-4.8,,-8.4,,,,,,,METAR,272.0
KFOD 120555Z AUTO 34014G26KT 10SM BKN022 M15/M21 A3048 RMK AO1 11050 21150 52041,KFOD,2015-02-12T05:55:00Z,42.53,-94.17,-15.0,-21.0,340,14,26,10.0,30.481298,,,TRUE,TRUE,,,,,,,BKN,2200,,,,,,,MVFR,4.1,-5.0,-15.0,,,,,,,,,METAR,355.0
KFNL 120555Z AUTO 00000KT 10SM CLR 02/M04 A3035 RMK AO1 10080 20000 57010,KFNL,2015-02-12T05:55:00Z,40.45,-105.02,2.0,-4.0,0,0,,10.0,30.351377,,,TRUE,TRUE,,,,,,,CLR,,,,,,,,VFR,-1.0,8.0,0.0,,,,,,,,,METAR,1529.0
KFMM 120555Z AUTO 26005KT 10SM CLR M01/M06 A3035 RMK AO2 T10111056 10086 21016 401081035,KFMM,2015-02-12T05:55:00Z,40.33,-103.8,-1.1,-5.6,260,5,,10.0,30.351377,,,TRUE,TRUE,,,,,,,CLR,,,,,,,,VFR,,8.6,-1.6,10.8,-3.5,,,,,,,METAR,1393.0
KFMH 120555Z AUTO 31006G12KT 10SM OVC017 M06/M08 A2988 RMK AO2,KFMH,2015-02-12T05:55:00Z,41.63,-70.52,-6.0,-8.0,310,6,12,10.0,29.878937,,,TRUE,TRUE,,,,,,,OVC,1700,,,,,,,MVFR,,,,,,,,,,,,METAR,40.0
KFLP 120555Z 33013G18KT 10SM CLR 00/M07 A3032 RMK AO1 10070 20000 52003,KFLP,2015-02-12T05:55:00Z,36.28,-92.58,0.0,-7.0,330,13,18,10.0,30.318897,,,,TRUE,,,,,,,CLR,,,,,,,,VFR,0.3,7.0,0.0,,,,,,,,,METAR,219.0
KFKL 120555Z AUTO 27011G23KT 5SM OVC008 M02/M04 A2981 RMK AO1 11010 21020 57014,KFKL,2015-02-12T05:55:00Z,41.37,-79.87,-2.0,-4.0,270,11,23,5.0,29.811024,,,TRUE,TRUE,,,,,,,OVC,800,,,,,,,IFR,-1.4,-1.0,-2.0,,,,,,,,,METAR,469.0
KFCI 120555Z AUTO 17006KT 10SM CLR 00/M08 A2991 RMK AO1 10030 20000 57017,KFCI,2015-02-12T05:55:00Z,37.4,-77.52,0.0,-8.0,170,6,,10.0,29.911417,,,TRUE,TRUE,,,,,,,CLR,,,,,,,,VFR,-1.7,3.0,0.0,,,,,,,,,METAR,72.0
KFAM 120555Z AUTO 30007KT 10SM CLR M03/M07 A3028 RMK AO1 10020 21030 54000,KFAM,2015-02-12T05:55:00Z,37.77,-90.42,-3.0,-7.0,300,7,,10.0,30.280512,,,TRUE,TRUE,,,,,,,CLR,,,,,,,,VFR,,2.0,-3.0,,,,,,,,,METAR,288.0
KEWK 120555Z AUTO 03005KT 10SM CLR M03/M09 A3043 RMK AO1 10020 21030 52014,KEWK,2015-02-12T05:55:00Z,38.03,-97.27,-3.0,-9.0,30,5,,10.0,30.431103,,,TRUE,TRUE,,,,,,,CLR,,,,,,,,VFR,1.4,2.0,-3.0,,,,,,,,,METAR,467.0
KEUL 120555Z AUTO 00000KT 10SM CLR 06/02 A3035 RMK AO1 10130 20060 54000,KEUL,2015-02-12T05:55:00Z,43.62,-116.62,6.0,2.0,0,0,,10.0,30.351377,,,TRUE,TRUE,,,,,,,CLR,,,,,,,,VFR,,13.0,6.0,,,,,,,,,METAR,740.0
PAAD 120555Z AUTO 07015KT 10SM FEW028 SCT038 M28/M32 A3021 RMK AO2,PAAD,2015-02-12T05:55:00Z,70.13,-146.28,-28.0,-32.0,70,15,,10.0,30.209646,,,TRUE,TRUE,,,,,,,FEW,2800,SCT,3800,,,,,VFR,,,,,,,,,,,,METAR,8.0
KEGI 120555Z 00000KT 10SM CLR 07/06 A3008 RMK AO2A SLP189 T00720054 10103 20055 401851034 52003 $,KEGI,2015-02-12T05:55:00Z,30.63,-86.52,7.2,5.4,0,0,,10.0,30.079725,1018.9,,,TRUE,TRUE,,,,,,CLR,,,,,,,,VFR,0.3,10.3,5.5,18.5,-3.4,,,,,,,METAR,59.0
KGBD 120555Z AUTO 23003KT 10SM CLR M03/M08 A3041 RMK AO1 10040 21050 52010,KGBD,2015-02-12T05:55:00Z,38.35,-98.87,-3.0,-8.0,230,3,,10.0,30.410433,,,TRUE,TRUE,,,,,,,CLR,,,,,,,,VFR,1.0,4.0,-5.0,,,,,,,,,METAR,575.0
KGAI 120555Z AUTO 00000KT 10SM OVC060 01/M06 A2991 RMK AO1 10020 21010 57014,KGAI,2015-02-12T05:55:00Z,39.17,-77.17,1.0,-6.0,0,0,,10.0,29.911417,,,TRUE,TRUE,,,,,,,OVC,6000,,,,,,,VFR,-1.4,2.0,-1.0,,,,,,,,,METAR,165.0
KGAD 120555Z 00000KT 10SM CLR A3006 RMK AO1 54000,KGAD,2015-02-12T05:55:00Z,33.97,-86.07,,,0,0,,10.0,30.059055,,,,TRUE,,,,,,,CLR,,,,,,,,VFR,,,,,,,,,,,,METAR,173.0
KIRS 120555Z AUTO 00000KT 10SM -SN SCT025 OVC050 M04/M08 A2997 RMK AO2,KIRS,2015-02-12T05:55:00Z,41.8,-85.43,-4.0,-8.0,0,0,,10.0,29.970472,,,TRUE,TRUE,,,,,,-SN,SCT,2500,OVC,5000,,,,,VFR,,,,,,,,,,,,METAR,282.0
KHZL 120555Z AUTO 20003KT 10SM OVC018 M01/M07 A2981 RMK AO2,KHZL,2015-02-12T05:55:00Z,40.98,-76.0,-1.0,-7.0,200,3,,10.0,29.811024,,,TRUE,TRUE,,,,,,,OVC,1800,,,,,,,MVFR,,,,,,,,,,,,METAR,489.0
KSAA 120555Z AUTO 10SM CLR M03/M06 A3038 RMK AO2,KSAA,2015-02-12T05:55:00Z,41.45,-106.83,-3.0,-6.0,,,,10.0,30.380905,,,TRUE,TRUE,,,,,,,CLR,,,,,,,,VFR,,,,,,,,,,,,METAR,2138.0
KSCD 120555Z AUTO 00000KT 10SM CLR 01/01 A3008 RMK AO2 T00120005 10096 20011 401621035,KSCD,2015-02-12T05:55:00Z,33.17,-86.3,1.2,0.5,0,0,,10.0,30.079725,,,TRUE,TRUE,,,,,,,CLR,,,,,,,,VFR,,9.6,1.1,16.2,-3.5,,,,,,,METAR,173.0
KSJS 120555Z AUTO 28005KT 10SM SCT018 BKN023 OVC032 03/M01 A2997 RMK AO2 T00301008 10030 20011,KSJS,2015-02-12T05:55:00Z,37.75,-82.63,3.0,-0.8,280,5,,10.0,29.970472,,,TRUE,TRUE,,,,,,,SCT,1800,BKN,2300,OVC,3200,,,MVFR,,3.0,1.1,,,,,,,,,METAR,372.0
KSUT 120555Z AUTO 00000KT 10SM CLR 02/01 A3000 RMK AO2 T00200007 10042 20015 400930015,KSUT,2015-02-12T05:55:00Z,33.93,-78.08,2.0,0.7,0,0,,10.0,30.0,,,TRUE,TRUE,,,,,,,CLR,,,,,,,,VFR,,4.2,1.5,9.3,1.5,,,,,,,METAR,8.0
KTMK 120555Z AUTO 00000KT 10SM OVC110 A3023 RMK AO2,KTMK,2015-02-12T05:55:00Z,45.42,-123.82,,,0,0,,10.0,30.230314,,,TRUE,TRUE,,,,,,,OVC,11000,,,,,,,VFR,,,,,,,,,,,,METAR,11.0
KTYQ 120555Z AUTO 30011G19KT 10SM OVC021 M04/M09 A3008 RMK AO2 T10401087 11003 21040,KTYQ,2015-02-12T05:55:00Z,40.03,-86.25,-4.0,-8.7,300,11,19,10.0,30.079725,,,TRUE,TRUE,,,,,,,OVC,2100,,,,,,,MVFR,,-0.3,-4.0,,,,,,,,,METAR,281.0
KPTV 120555Z AUTO 14006KT 3SM CLR 09/07 A3021 RMK AO1 10190 20090 52014,KPTV,2015-02-12T05:55:00Z,36.02,-119.07,9.0,7.0,140,6,,3.0,30.209646,,,TRUE,TRUE,,,,,,,CLR,,,,,,,,MVFR,1.4,19.0,9.0,,,,,,,,,METAR,135.0
KPTN 120555Z AUTO 00000KT 9SM CLR 09/07 A3015 RMK AO1 10160 20090 52010,KPTN,2015-02-12T05:55:00Z,29.72,-91.32,9.0,7.0,0,0,,9.0,30.15059,,,TRUE,TRUE,,,,,,,CLR,,,,,,,,VFR,1.0,16.0,9.0,,,,,,,,,METAR,3.0
KPSO 120555Z AUTO 00000KT 10SM CLR M03/M03 A3044 RMK AO2 T10271033 10063 21027 401011027,KPSO,2015-02-12T05:55:00Z,37.28,-107.05,-2.7,-3.3,0,0,,10.0,30.43996,,,TRUE,TRUE,,,,,,,CLR,,,,,,,,VFR,,6.3,-2.7,10.1,-2.7,,,,,,,METAR,2334.0
KPRX 120555Z AUTO 35013KT 10SM CLR 06/M02 A3029 RMK AO1 10140 20060 401900050 52014,KPRX,2015-02-12T05:55:00Z,33.62,-95.45,6.0,-2.0,350,13,,10.0,30.28937,,,TRUE,TRUE,,,,,,,CLR,,,,,,,,VFR,1.4,14.0,6.0,19.0,5.0,,,,,,,METAR,167.0
KUSE 120555Z AUTO 30007KT 3SM -SN FEW004 BKN017 OVC023 M03/M04 A2994 RMK AO2,KUSE,2015-02-12T05:55:00Z,41.62,-84.13,-3.0,-4.0,300,7,,3.0,29.940945,,,TRUE,TRUE,,,,,,-SN,FEW,400,BKN,1700,OVC,2300,,,MVFR,,,,,,,,,,,,METAR,238.0
KUVA 120555Z AUTO 06005KT 10SM CLR 13/10 A3018 RMK AO2 T01340095 10226 20133 402360089,KUVA,2015-02-12T05:55:00Z,29.22,-99.75,13.4,9.5,60,5,,10.0,30.180119,,,TRUE,TRUE,,,,,,,CLR,,,,,,,,VFR,,22.6,13.3,23.6,8.9,,,,,,,METAR,287.0
KVCV 120555Z AUTO 00000KT 10SM CLR 11/M07 A3027 RMK AO2,KVCV,2015-02-12T05:55:00Z,34.58,-117.38,11.0,-7.0,0,0,,10.0,30.268702,,,TRUE,TRUE,,,,,,,CLR,,,,,,,,VFR,,,,,,,,,,,,METAR,876.0
KVKS 120555Z AUTO 00000KT 10SM BKN046 08/03 A3018 RMK A01,KVKS,2015-02-12T05:55:00Z,,,8.0,3.0,0,0,,10.0,30.180119,,,TRUE,TRUE,,,,,,,BKN,4600,,,,,,,VFR,,,,,,,,,,,,METAR,
KW43 120555Z AUTO 00000KT 10SM SCT012 M03/M05 A3033 RMK AO2,KW43,2015-02-12T05:55:00Z,44.67,-104.57,-3.0,-5.0,0,0,,10.0,30.33071,,,TRUE,TRUE,,,,,,,SCT,1200,,,,,,,VFR,,,,,,,,,,,,METAR,1300.0
KJAS 120555Z AUTO 00000KT 10SM CLR 08/07 A3019 RMK AO2 T00820068,KJAS,2015-02-12T05:55:00Z,30.88,-94.03,8.2,6.8,0,0,,10.0,30.188976,,,TRUE,TRUE,,,,,,,CLR,,,,,,,,VFR,,,,,,,,,,,,METAR,65.0
KJFZ 120555Z AUTO 25007KT 10SM OVC023 02/M03 A2993 RMK AO2 T00151027 10052 20013,KJFZ,2015-02-12T05:55:00Z,37.07,-81.8,1.5,-2.7,250,7,,10.0,29.929134,,,TRUE,TRUE,,,,,,,OVC,2300,,,,,,,MVFR,,5.2,1.3,,,,,,,,,METAR,809.0
KVJI 120555Z AUTO 32003KT 10SM OVC031 05/M01 A2995 RMK AO2 T00511015 10075 20036 401051020,KVJI,2015-02-12T05:55:00Z,36.67,-82.02,5.1,-1.5,320,3,,10.0,29.949802,,,TRUE,TRUE,,,,,,,OVC,3100,,,,,,,VFR,,7.5,3.6,10.5,-2.0,,,,,,,METAR,631.0
KN03 120555Z AUTO 22005KT 7SM OVC023 M01/M02 A2974 RMK AO2,KN03,2015-02-12T05:55:00Z,42.6,-76.22,-1.0,-2.0,220,5,,7.0,29.740158,,,TRUE,TRUE,,,,,,,OVC,2300,,,,,,,MVFR,,,,,,,,,,,,METAR,366.0
KOLV 120555Z AUTO 36009G16KT 10SM CLR 03/02 A3021 RMK A01 P000,KOLV,2015-02-12T05:55:00Z,34.98,-89.78,3.0,2.0,360,9,16,10.0,30.209646,,,TRUE,TRUE,,,,,,,CLR,,,,,,,,VFR,,,,,,,,,,,,METAR,122.0
KJSO 120555Z AUTO 36005KT 10SM CLR 11/06 A3024 RMK AO2 T01190060,KJSO,2015-02-12T05:55:00Z,31.87,-95.22,11.9,6.0,360,5,,10.0,30.239174,,,TRUE,TRUE,,,,,,,CLR,,,,,,,,VFR,,,,,,,,,,,,METAR,206.0
KQAY 120555Z AUTO 24008KT 4000 BR SCT008 BKN010 21/16 A2990 RMK AO2 SLP123 T02090156 10197 20194 51032 $,KQAY,2015-02-12T05:55:00Z,100.65,-1000.65,20.9,15.6,240,8,,2.49,29.899607,1012.3,,TRUE,TRUE,TRUE,,,,,BR,SCT,800,BKN,1000,,,,,IFR,3.2,19.7,19.4,,,,,,,,,METAR,999.0
KCAO 120555Z AUTO 34004KT 10SM CLR 00/M05 A3043 RMK AO2 SLP318 T00001050 10061 21017 53008,KCAO,2015-02-12T05:55:00Z,36.45,-103.15,0.0,-5.0,340,4,,10.0,30.431103,1031.8,,TRUE,TRUE,,,,,,,CLR,,,,,,,,VFR,0.8,6.1,-1.7,,,,,,,,,METAR,1514.0
KBPT 120555Z 33003KT 1 3/4SM BR CLR 08/07 A3015 RMK AO2 T00830072,KBPT,2015-02-12T05:55:00Z,29.95,-94.03,8.3,7.2,330,3,,1.75,30.15059,,,,TRUE,,,,,,BR,CLR,,,,,,,,IFR,,,,,,,,,,,,METAR,5.0
KAST 120555Z AUTO 19003KT 10SM OVC095 10/09 A3020 RMK AO2 SLP227 T01000089 10122 20100 53007,KAST,2015-02-12T05:55:00Z,46.15,-123.88,10.0,8.9,190,3,,10.0,30.200787,1022.7,,TRUE,TRUE,,,,,,,OVC,9500,,,,,,,VFR,0.7,12.2,10.0,,,,,,,,,METAR,3.0
KANJ 120555Z AUTO 01010G26KT 8SM OVC055 M17/M23 A2999 RMK AO2 PK WND 36026/0548 SLP170 60001 T11671228 11094 21167 51047,KANJ,2015-02-12T05:55:00Z,46.47,-84.37,-16.7,-22.8,10,10,26,8.0,29.991142,1017.0,,TRUE,TRUE,,,,,,,OVC,5500,,,,,,,VFR,4.7,-9.4,-16.7,,,,,0.01,,,,METAR,218.0
KAMG 120555Z AUTO 00000KT 4SM BR CLR 06/04 A3002 RMK AO2 T00560044,KAMG,2015-02-12T05:55:00Z,31.53,-82.5,5.6,4.4,0,0,,4.0,30.02067,,,TRUE,TRUE,,,,,,BR,CLR,,,,,,,,MVFR,,,,,,,,,,,,METAR,59.0
KAAT 120555Z AUTO 00000KT 10SM CLR 06/00 A3029 RMK AO2 SLP252 T00610000 10144 20056 50010,KAAT,2015-02-12T05:55:00Z,41.48,-120.57,6.1,0.0,0,0,,10.0,30.28937,1025.2,,TRUE,TRUE,,,,,,,CLR,,,,,,,,VFR,1.0,14.4,5.6,,,,,,,,,METAR,1331.0
KUGN 120555Z AUTO 31008G16KT 10SM OVC110 M09/M16 A3010 RMK AO2 SLP208 T10891156 11017 21089 400221089 51010,KUGN,2015-02-12T05:55:00Z,42.42,-87.87,-8.9,-15.6,310,8,16,10.0,30.100393,1020.8,,TRUE,TRUE,,,,,,,OVC,11000,,,,,,,VFR,1.0,-1.7,-8.9,2.2,-8.9,,,,,,,METAR,222.0
KJSV 120555Z AUTO 35006KT 10SM CLR 03/M03 A3038 RMK AO2,KJSV,2015-02-12T05:55:00Z,35.43,-94.8,3.0,-3.0,350,6,,10.0,30.380905,,,TRUE,TRUE,,,,,,,CLR,,,,,,,,VFR,,,,,,,,,,,,METAR,161.0
KJTC 120555Z AUTO 09006KT 10SM CLR 00/M04 A3037 RMK AO2,KJTC,2015-02-12T05:55:00Z,34.13,-109.32,0.0,-4.0,90,6,,10.0,30.369095,,,TRUE,TRUE,,,,,,,CLR,,,,,,,,VFR,,,,,,,,,,,,METAR,2150.0
KJVL 120555Z AUTO 33012G18KT 10SM SCT043 OVC100 M08/M15 A3015 RMK AO2,KJVL,2015-02-12T05:55:00Z,42.62,-89.05,-8.0,-15.0,330,12,18,10.0,30.15059,,,TRUE,TRUE,,,,,,,SCT,4300,OVC,10000,,,,,VFR,,,,,,,,,,,,METAR,246.0
KJWG 120555Z AUTO 36007KT 10SM CLR M02/M04 A3043 RMK AO2 T10161045 10055 21016 400921016,KJWG,2015-02-12T05:55:00Z,35.87,-98.42,-1.6,-4.5,360,7,,10.0,30.431103,,,TRUE,TRUE,,,,,,,CLR,,,,,,,,VFR,,5.5,-1.6,9.2,-1.6,,,,,,,METAR,472.0
KJXI 120555Z AUTO 32009G15KT 10SM CLR 09/04 A3025 RMK AO2 T00860036 10162 20086 401960051,KJXI,2015-02-12T05:55:00Z,32.7,-94.95,8.6,3.6,320,9,15,10.0,30.250984,,,TRUE,TRUE,,,,,,,CLR,,,,,,,,VFR,,16.2,8.6,19.6,5.1,,,,,,,METAR,127.0
KJYL 120555Z AUTO 00000KT 7SM CLR 05/05 A3000 RMK AO2 T00450045 10092 20042 401550025,KJYL,2015-02-12T05:55:00Z,32.65,-81.6,4.5,4.5,0,0,,7.0,30.0,,,TRUE,TRUE,,,,,,,CLR,,,,,,,,VFR,,9.2,4.2,15.5,2.5,,,,,,,METAR,57.0
KGZL 120555Z AUTO 36012G16KT 10SM FEW026 OVC110 03/M07 A3039 RMK AO2,KGZL,2015-02-12T05:55:00Z,35.28,-95.1,3.0,-7.0,360,12,16,10.0,30.389763,,,TRUE,TRUE,,,,,,,FEW,2600,OVC,11000,,,,,VFR,,,,,,,,,,,,METAR,183.0
KGPM 120555Z AUTO 34015G19KT 10SM CLR 08/01 A3034 RMK AO2 T00810011 10173 20081,KGPM,2015-02-12T05:55:00Z,32.7,-97.05,8.1,1.1,340,15,19,10.0,30.339567,,,TRUE,TRUE,,,,,,,CLR,,,,,,,,VFR,,17.3,8.1,,,,,,,,,METAR,180.0
KGEV 120555Z AUTO 29019G28KT 10SM CLR 03/M06 A2988 RMK AO2 T00301058 10070 20030 401101057,KGEV,2015-02-12T05:55:00Z,36.43,-81.42,3.0,-5.8,290,19,28,10.0,29.878937,,,TRUE,TRUE,,,,,,,CLR,,,,,,,,VFR,,7.0,3.0,11.0,-5.7,,,,,,,METAR,969.0
KGCM 120555Z AUTO 02004KT 10SM CLR M02/M05 A3045 RMK AO2,KGCM,2015-02-12T05:55:00Z,36.3,-95.48,-2.0,-5.0,20,4,,10.0,30.448818,,,TRUE,TRUE,,,,,,,CLR,,,,,,,,VFR,,,,,,,,,,,,METAR,221.0
KFWZ 120555Z AUTO 25016KT 10SM SCT120 00/M10 A3025 RMK AO2,KFWZ,2015-02-12T05:55:00Z,42.52,-108.78,0.0,-10.0,250,16,,10.0,30.250984,,,TRUE,TRUE,,,,,,,SCT,12000,,,,,,,VFR,,,,,,,,,,,,METAR,2588.0
KFVX 120555Z AUTO 22005KT 10SM CLR 03/M01 A2987 RMK AO2 T00281007 10052 20016,KFVX,2015-02-12T05:55:00Z,37.35,-78.42,2.8,-0.7,220,5,,10.0,29.870079,,,TRUE,TRUE,,,,,,,CLR,,,,,,,,VFR,,5.2,1.6,,,,,,,,,METAR,125.0
KFRR 120555Z AUTO 00000KT 10SM OVC050 01/M01 A2986 RMK AO1,KFRR,2015-02-12T05:55:00Z,38.92,-78.25,1.0,-1.0,0,0,,10.0,29.861221,,,TRUE,TRUE,,,,,,,OVC,5000,,,,,,,VFR,,,,,,,,,,,,METAR,216.0
KFKS 120555Z AUTO 34011G19KT 7SM OVC030 M10/M14 A3006 RMK AO2 T10971138 11040 21097 410061097,KFKS,2015-02-12T05:55:00Z,44.63,-86.2,-9.7,-13.8,340,11,19,7.0,30.059055,,,TRUE,TRUE,,,,,,,OVC,3000,,,,,,,MVFR,,-4.0,-9.7,-0.6,-9.7,,,,,,,METAR,193.0
KFEP 120555Z AUTO 31014KT 7SM -SN BKN032 BKN060 OVC075 M10/M13 A3019 RMK AO2 T10981135 11064 21100 400001100,KFEP,2015-02-12T05:55:00Z,42.25,-89.58,-9.8,-13.5,310,14,,7.0,30.188976,,,TRUE,TRUE,,,,,,-SN,BKN,3200,BKN,6000,OVC,7500,,,VFR,,-6.4,-10.0,,-10.0,,,,,,,METAR,262.0
KFBR 120555Z AUTO 24008KT 10SM CLR 01/M03 A3044 RMK AO2 T00101030 10064 20000 400701042,KFBR,2015-02-12T05:55:00Z,41.4,-110.4,1.0,-3.0,240,8,,10.0,30.43996,,,TRUE,TRUE,,,,,,,CLR,,,,,,,,VFR,,6.4,0.0,7.0,-4.2,,,,,,,METAR,2144.0
KEHY 120555Z AUTO 28009KT 10SM CLR 01/M05 A3032 RMK AO2,KEHY,2015-02-12T05:55:00Z,41.73,-106.47,1.0,-5.0,280,9,,10.0,30.318897,,,TRUE,TRUE,,,,,,,CLR,,,,,,,,VFR,,,,,,,,,,,,METAR,2225.0
KEDE 120555Z AUTO 19005KT 10SM CLR 00/M01 A2997 RMK AO2 T00001015 10004 21020 400361020,KEDE,2015-02-12T05:55:00Z,36.02,-76.57,0.0,-1.5,190,5,,10.0,29.970472,,,TRUE,TRUE,,,,,,,CLR,,,,,,,,VFR,,0.4,-2.0,3.6,-2.0,,,,,,,METAR,6.0
KDVK 120555Z AUTO 30006KT 10SM OVC018 02/M01 A3005 RMK AO2,KDVK,2015-02-12T05:55:00Z,37.58,-84.77,2.0,-1.0,300,6,,10.0,30.050198,,,TRUE,TRUE,,,,,,,OVC,1800,,,,,,,MVFR,,,,,,,,,,,,METAR,312.0
KDPL 120555Z AUTO 00000KT 7SM CLR M01/M01 A2998 RMK AO2 T10121013 10024 21012 400901012,KDPL,2015-02-12T05:55:00Z,35.0,-77.97,-1.2,-1.3,0,0,,7.0,29.97933,,,TRUE,TRUE,,,,,,,CLR,,,,,,,,VFR,,2.4,-1.2,9.0,-1.2,,,,,,,METAR,42.0
KCZT 120555Z AUTO 11006KT 10SM OVC065 17/12 A3015 RMK AO2,KCZT,2015-02-12T05:55:00Z,28.52,-99.82,17.0,12.0,110,6,,10.0,30.15059,,,TRUE,TRUE,,,,,,,OVC,6500,,,,,,,VFR,,,,,,,,,,,,METAR,183.0
KCWV 120555Z AUTO 00000KT 10SM CLR 03/03 A3000 RMK AO2,KCWV,2015-02-12T05:55:00Z,32.2,-81.87,3.0,3.0,0,0,,10.0,30.0,,,TRUE,TRUE,,,,,,,CLR,,,,,,,,VFR,,,,,,,,,,,,METAR,33.0
KCWA 120555Z AUTO 33014G18KT 10SM SCT031 SCT037 M13/M17 A3020 RMK AO2,KCWA,2015-02-12T05:55:00Z,44.78,-89.67,-13.0,-17.0,330,14,18,10.0,30.200787,,,TRUE,TRUE,,,,,,,SCT,3100,SCT,3700,,,,,VFR,,,,,,,,,,,,METAR,389.0
KCVC 120555Z AUTO 29005KT 10SM CLR 07/01 A2998 RMK AO2,KCVC,2015-02-12T05:55:00Z,33.63,-83.85,7.0,1.0,290,5,,10.0,29.97933,,,TRUE,TRUE,,,,,,,CLR,,,,,,,,VFR,,,,,,,,,,,,METAR,247.0
KCUL 120555Z AUTO 27010G15KT 10SM SCT025 M02/M04 A3021 RMK AO2 T10171039 10038 21023 401071040,KCUL,2015-02-12T05:55:00Z,38.08,-88.12,-1.7,-3.9,270,10,15,10.0,30.209646,,,TRUE,TRUE,,,,,,,SCT,2500,,,,,,,VFR,,3.8,-2.3,10.7,-4.0,,,,,,,METAR,118.0
KCLK 120555Z AUTO 34007KT 10SM CLR 01/M03 A3043 RMK AO2,KCLK,2015-02-12T05:55:00Z,35.53,-98.93,1.0,-3.0,340,7,,10.0,30.431103,,,TRUE,TRUE,,,,,,,CLR,,,,,,,,VFR,,,,,,,,,,,,METAR,492.0
KCLI 120555Z AUTO 36012G21KT 10SM SCT030 SCT035 BKN042 M11/M19 A3019 RMK AO2,KCLI,2015-02-12T05:55:00Z,44.62,-88.73,-11.0,-19.0,360,12,21,10.0,30.188976,,,TRUE,TRUE,,,,,,,SCT,3000,SCT,3500,BKN,4200,,,VFR,,,,,,,,,,,,METAR,250.0
KCKF 120555Z AUTO 00000KT 7SM CLR 07/05 A3004 RMK AO2 T00650052 10136 20062 401860011,KCKF,2015-02-12T05:55:00Z,31.98,-83.77,6.5,5.2,0,0,,7.0,30.041338,,,TRUE,TRUE,,,,,,,CLR,,,,,,,,VFR,,13.6,6.2,18.6,1.1,,,,,,,METAR,91.0
KCGC 120555Z AUTO 00000KT 10SM CLR 05/03 A3007 RMK AO2,KCGC,2015-02-12T05:55:00Z,28.87,-82.57,5.0,3.0,0,0,,10.0,30.070866,,,TRUE,TRUE,,,,,,,CLR,,,,,,,,VFR,,,,,,,,,,,,METAR,3.0
KCDH 120555Z AUTO 9SM CLR 05/04 A3022 RMK AO2,KCDH,2015-02-12T05:55:00Z,33.62,-92.77,5.0,4.0,,,,9.0,30.221457,,,TRUE,TRUE,,,,,,,CLR,,,,,,,,VFR,,,,,,,,,,,,METAR,35.0
KCCY 120555Z AUTO 33023G30KT 10SM OVC014 M15/M20 A3037 RMK AO2,KCCY,2015-02-12T05:55:00Z,43.07,-92.62,-15.0,-20.0,330,23,30,10.0,30.369095,,,TRUE,TRUE,,,,,,,OVC,1400,,,,,,,MVFR,,,,,,,,,,,,METAR,343.0
KBYY 120555Z AUTO 00000KT 1/2SM FG BKN005 12/12 A3015 RMK AO2 T01250125,KBYY,2015-02-12T05:55:00Z,28.97,-95.87,12.5,12.5,0,0,,0.5,30.15059,,,TRUE,TRUE,,,,,,FG,BKN,500,,,,,,,LIFR,,,,,,,,,,,,METAR,14.0
KBXK 120555Z AUTO 06011G14KT 10SM CLR 21/M04 A3011 RMK AO1,KBXK,2015-02-12T05:55:00Z,33.42,-112.68,21.0,-4.0,60,11,14,10.0,30.109253,,,TRUE,TRUE,,,,,,,CLR,,,,,,,,VFR,,,,,,,,,,,,METAR,315.0
KBXA 120555Z AUTO 00000KT 10SM 09/06 A3014 RMK AO2 T00850055 10167 20080 402270005,KBXA,2015-02-12T05:55:00Z,30.82,-89.87,8.5,5.5,0,0,,10.0,30.138779,,,TRUE,TRUE,,,,,,,,,,,,,,,,,16.7,8.0,22.7,0.5,,,,,,,METAR,36.0
KBVS 120555Z AUTO 00000KT 10SM SCT120 08/08 A3020 RMK A01 P000,KBVS,2015-02-12T05:55:00Z,48.47,-122.42,8.0,8.0,0,0,,10.0,30.200787,,,TRUE,TRUE,,,,,,,SCT,12000,,,,,,,VFR,,,,,,,,,,,,METAR,43.0
KBTA 120555Z AUTO 34018G29KT 10SM CLR M10/M16 A3051 RMK AO2 T10971161 11005 21097 400381097,KBTA,2015-02-12T05:55:00Z,41.42,-96.12,-9.7,-16.1,340,18,29,10.0,30.510826,,,TRUE,TRUE,,,,,,,CLR,,,,,,,,VFR,,-0.5,-9.7,3.8,-9.7,,,,,,,METAR,396.0
KBPC 120555Z AUTO 25004KT 10SM CLR M03/M05 A3045 RMK AO2,KBPC,2015-02-12T05:55:00Z,35.88,-101.03,-3.0,-5.0,250,4,,10.0,30.448818,,,TRUE,TRUE,,,,,,,CLR,,,,,,,,VFR,,,,,,,,,,,,METAR,845.0
KBNL 120555Z AUTO 00000KT 03/03 A2998 RMK AO2,KBNL,2015-02-12T05:55:00Z,33.25,-81.38,3.0,3.0,0,0,,,29.97933,,,TRUE,TRUE,,,,,,,,,,,,,,,,,,,,,,,,,,,METAR,75.0
KBKS 120555Z AUTO 03003KT 10SM SCT033 OVC039 16/15 A3012 RMK AO1 T01610150 10221 20155 402660108,KBKS,2015-02-12T05:55:00Z,27.2,-98.12,16.1,15.0,30,3,,10.0,30.121063,,,TRUE,TRUE,,,,,,,SCT,3300,OVC,3900,,,,,VFR,,22.1,15.5,26.6,10.8,,,,,,,METAR,34.0
KBGE 120555Z AUTO 25003KT 10SM CLR 08/07 A3006 RMK AO2,KBGE,2015-02-12T05:55:00Z,30.97,-84.63,8.0,7.0,250,3,,10.0,30.059055,,,TRUE,TRUE,,,,,,,CLR,,,,,,,,VFR,,,,,,,,,,,,METAR,43.0
EHRD 120555Z AUTO 12003KT 060V140 4000 BR OVC016 03/01 Q1021 NOSIG,EHRD,2015-02-12T05:55:00Z,51.95,4.45,3.0,1.0,120,3,,2.49,30.147638,,,TRUE,,,TRUE,,,,BR,OVC,1600,,,,,,,IFR,,,,,,,,,,,,METAR,-5.0
EHGG 120555Z AUTO 20004KT 160V240 4300 BR OVC008 02/01 Q1022 NOSIG,EHGG,2015-02-12T05:55:00Z,53.12,6.57,2.0,1.0,200,4,,2.67,30.177166,,,TRUE,,,TRUE,,,,BR,OVC,800,,,,,,,IFR,,,,,,,,,,,,METAR,4.0
KQEA 120555Z AUTO 20003KT 10SM FEW038 SCT050 BKN070 BKN085 31/19 A2981 RMK AO2 SLP094 T03110186 10297 20237 58027,KQEA,2015-02-12T05:55:00Z,100.65,-1000.65,31.1,18.6,200,3,,10.0,29.811024,1009.4,,TRUE,TRUE,,,,,,,FEW,3800,SCT,5000,BKN,7000,BKN,8500,VFR,-2.7,29.7,23.7,,,,,,,,,METAR,999.0
KQFG 120555Z AUTO VRB03KT 9999 FEW240 15/01 A3021 RMK AO2 SLP227 T01470005 10140 20081 50009,KQFG,2015-02-12T05:55:00Z,100.65,-1000.65,14.7,0.5,0,3,,6.21,30.209646,1022.7,,TRUE,TRUE,,,,,,,FEW,24000,,,,,,,VFR,0.9,14.0,8.1,,,,,,,,,METAR,999.0
KQHN 120555Z VRB03KT 9999 CLR 18/04 A3018 RMK SLP178 Q1022 DA4244,KQHN,2015-02-12T05:55:00Z,100.65,-1000.65,18.0,4.0,0,3,,6.21,30.180119,1017.8,,,,,,,,,,CLR,,,,,,,,VFR,,,,,,,,,,,,METAR,999.0
KQQY 120555Z AUTO 00000KT 9999 BKN120 24/22 A2995 RMK AO2 SLP117 T02420218 10279 20240 58008,KQQY,2015-02-12T05:55:00Z,100.65,-1000.65,24.2,21.8,0,0,,6.21,29.949802,1011.7,,TRUE,TRUE,,,,,,,BKN,12000,,,,,,,VFR,-0.8,27.9,24.0,,,,,,,,,METAR,999.0
KQSF 120555Z AUTO 01003KT 4800 FEW120 10/M04 A3030 RMK AO2 SLP282 T00951042 10072 20034 51011,KQSF,2015-02-12T05:55:00Z,100.65,-1000.65,9.5,-4.2,10,3,,2.98,30.301182,1028.2,,TRUE,TRUE,,,,,,,FEW,12000,,,,,,,IFR,1.1,7.2,3.4,,,,,,,,,METAR,999.0
KQTH 120555Z 16010KT 9999 CLR 24/12 A3017 RMK AO2A SLP202 T02390116 51014,KQTH,2015-02-12T05:55:00Z,100.65,-1000.65,23.9,11.6,160,10,,6.21,30.171259,1020.2,,,TRUE,,,,,,,CLR,,,,,,,,VFR,1.4,,,,,,,,,,,METAR,999.0
KQTZ 120555Z 36013G17KT 4400 DU HZ BKN040 14/02 A3000 RMK DU BKN040 SLP143 WND DATA ESTMD ALSTG/SLP ESTMD 51029,KQTZ,2015-02-12T05:55:00Z,100.65,-1000.65,14.0,2.0,360,13,17,2.73,30.0,1014.3,,,,,,,,,DU HZ,BKN,4000,,,,,,,IFR,2.9,,,,,,,,,,,METAR,999.0
KQWM 120555Z 28023G30KT 1200 BLDU BKN030 OVC190 19/M04 A2993 RMK DU BKN030 SLP131 QNH1013,KQWM,2015-02-12T05:55:00Z,100.65,-1000.65,19.0,-4.0,280,23,30,0.75,29.929134,1013.1,,,,,,,,,BLDU,BKN,3000,OVC,19000,,,,,LIFR,,,,,,,,,,,,METAR,999.0
KQXT 120555Z 07003KT 9999 FEW200 22/04 A3012 RMK SLP181 WND DATA ESTMD ALSTG/SLP ESTMD Q1020 50014,KQXT,2015-02-12T05:55:00Z,100.65,-1000.65,22.0,4.0,70,3,,6.21,30.121063,1018.1,,,,,,,,,,FEW,20000,,,,,,,VFR,1.4,,,,,,,,,,,METAR,999.0
KRZT 120555Z AUTO 30013KT 5SM BR BKN014 OVC026 00/M01 A2997 RMK AO2,KRZT,2015-02-12T05:55:00Z,39.43,-83.02,0.0,-1.0,300,13,,5.0,29.970472,,,TRUE,TRUE,,,,,,BR,BKN,1400,OVC,2600,,,,,MVFR,,,,,,,,,,,,METAR,221.0
KRZR 120555Z AUTO 00000KT 10SM CLR M01/M03 A3005 RMK,KRZR,2015-02-12T05:55:00Z,35.22,-84.8,-1.0,-3.0,0,0,,10.0,30.050198,,,TRUE,,,,,,,,CLR,,,,,,,,VFR,,,,,,,,,,,,METAR,263.0
KCMA 120555Z 07009KT 10SM CLR 19/M03 A3009 RMK AO2 SLP195 T01941028 10278 20194 51009,KCMA,2015-02-12T05:55:00Z,34.22,-119.1,19.4,-2.8,70,9,,10.0,30.088583,1019.5,,,TRUE,,,,,,,CLR,,,,,,,,VFR,0.9,27.8,19.4,,,,,,,,,METAR,23.0
KLNN 120555Z AUTO 30009G15KT 7SM BKN010 BKN036 OVC055 M02/M03 A2988 RMK AO1 T10171031 10000 21017,KLNN,2015-02-12T05:55:00Z,41.67,-81.37,-1.7,-3.1,300,9,15,7.0,29.878937,,,TRUE,TRUE,,,,,,,BKN,1000,BKN,3600,OVC,5500,,,MVFR,,0.0,-1.7,,,,,,,,,METAR,191.0
KLNC 120555Z AUTO 35013G17KT 10SM CLR 08/00 A3032 RMK AO2 T00780001 10163 20077 402020058,KLNC,2015-02-12T05:55:00Z,32.58,-96.72,7.8,0.1,350,13,17,10.0,30.318897,,,TRUE,TRUE,,,,,,,CLR,,,,,,,,VFR,,16.3,7.7,20.2,5.8,,,,,,,METAR,153.0
KLAL 120555Z AUTO 00000KT 10SM CLR 07/06 A3009 RMK AO2,KLAL,2015-02-12T05:55:00Z,27.97,-82.02,7.0,6.0,0,0,,10.0,30.088583,,,TRUE,TRUE,,,,,,,CLR,,,,,,,,VFR,,,,,,,,,,,,METAR,43.0
KRNO 120555Z VRB03KT 10SM BKN200 07/01 A3033 RMK AO2 SLP262 T00670011 10156 20067 50005,KRNO,2015-02-12T05:55:00Z,39.5,-119.77,6.7,1.1,0,3,,10.0,30.33071,1026.2,,,TRUE,,,,,,,BKN,20000,,,,,,,VFR,0.5,15.6,6.7,,,,,,,,,METAR,1342.0
KMOP 120555Z AUTO 32009G18KT 10SM OVC048 M08/M13 A2996 RMK AO2 T10781130 11021 21078 400001078,KMOP,2015-02-12T05:55:00Z,43.62,-84.73,-7.8,-13.0,320,9,18,10.0,29.958662,,,TRUE,TRUE,,,,,,,OVC,4800,,,,,,,VFR,,-2.1,-7.8,,-7.8,,,,,,,METAR,230.0
KMNM 120555Z AUTO 34014G19KT 310V010 10SM CLR M14/M21 A3016 RMK AO1 11080 21140 410101140 52030,KMNM,2015-02-12T05:55:00Z,45.12,-87.62,-14.0,-21.0,340,14,19,10.0,30.159449,,,TRUE,TRUE,,,,,,,CLR,,,,,,,,VFR,3.0,-8.0,-14.0,-1.0,-14.0,,,,,,,METAR,191.0
KMNH 120555Z AUTO 22008KT 10SM CLR M02/M03 A3036 RMK AO2,KMNH,2015-02-12T05:55:00Z,39.22,-104.65,-2.0,-3.0,220,8,,10.0,30.360237,,,TRUE,TRUE,,,,,,,CLR,,,,,,,,VFR,,,,,,,,,,,,METAR,2152.0
KMML 120555Z AUTO 36019G25KT 10SM CLR M18/M23 A3058 RMK AO1 11120 21180 410601180 52024,KMML,2015-02-12T05:55:00Z,44.45,-95.82,-18.0,-23.0,360,19,25,10.0,30.578741,,,TRUE,TRUE,,,,,,,CLR,,,,,,,,VFR,2.4,-12.0,-18.0,-6.0,-18.0,,,,,,,METAR,359.0
KMKY 120555Z AUTO 01005KT 10SM CLR A3005 RMK AO1 57003,KMKY,2015-02-12T05:55:00Z,26.0,-81.67,,,10,5,,10.0,30.050198,,,TRUE,TRUE,,,,,,,CLR,,,,,,,,VFR,-0.3,,,,,,,,,,,METAR,2.0
KMKT 120555Z AUTO 34017G22KT 10SM CLR M17/M22 A3048 RMK AO1 52034,KMKT,2015-02-12T05:55:00Z,44.22,-93.92,-17.0,-22.0,340,17,22,10.0,30.481298,,,TRUE,TRUE,,,,,,,CLR,,,,,,,,VFR,3.4,,,,,,,,,,,METAR,311.0
KMJX 120555Z AUTO 00000KT 10SM OVC080 M05/M07 A2990 RMK AO1 11040 21080 57017,KMJX,2015-02-12T05:55:00Z,39.93,-74.3,-5.0,-7.0,0,0,,10.0,29.899607,,,TRUE,TRUE,,,,,,,OVC,8000,,,,,,,VFR,-1.7,-4.0,-8.0,,,,,,,,,METAR,25.0
KMGN 120555Z AUTO 30010G20KT 4SM -SN SCT009 SCT016 BKN031 M12/M17 A2999 RMK AO2 T11251173,KMGN,2015-02-12T05:55:00Z,45.43,-84.92,-12.5,-17.3,300,10,20,4.0,29.991142,,,TRUE,TRUE,,,,,,-SN,SCT,900,SCT,1600,BKN,3100,,,MVFR,,,,,,,,,,,,METAR,209.0
KMEZ 120555Z AUTO 33006KT 10SM CLR 06/00 A3028 RMK AO2,KMEZ,2015-02-12T05:55:00Z,34.55,-94.2,6.0,0.0,330,6,,10.0,30.280512,,,TRUE,TRUE,,,,,,,CLR,,,,,,,,VFR,,,,,,,,,,,,METAR,329.0
KMBL 120555Z AUTO 35013G24KT 2 1/2SM SCT029 OVC035 M09/M16 A3006 RMK AO1 VIS 1 1/2V5 11030 21090 410101090 52020,KMBL,2015-02-12T05:55:00Z,44.27,-86.25,-9.0,-16.0,350,13,24,2.5,30.059055,,,TRUE,TRUE,,,,,,,SCT,2900,OVC,3500,,,,,IFR,2.0,-3.0,-9.0,-1.0,-9.0,,,,,,,METAR,189.0
KM91 120555Z AUTO 36009KT 330V060 10SM OVC024 02/M02 A3014 RMK,KM91,2015-02-12T05:55:00Z,36.53,-86.92,2.0,-2.0,360,9,,10.0,30.138779,,,TRUE,,,,,,,,OVC,2400,,,,,,,MVFR,,,,,,,,,,,,METAR,215.0
KAUO 120555Z AUTO 10SM CLR RMK AO1,KAUO,2015-02-12T05:55:00Z,32.62,-85.42,,,,,,10.0,,,,TRUE,TRUE,,,,,,,CLR,,,,,,,,VFR,,,,,,,,,,,,METAR,236.0
KATS 120555Z AUTO 33013KT 10SM FEW040 OVC050 04/04 A3048 RMK AO2,KATS,2015-02-12T05:55:00Z,32.85,-104.47,4.0,4.0,330,13,,10.0,30.481298,,,TRUE,TRUE,,,,,,,FEW,4000,OVC,5000,,,,,VFR,,,,,,,,,,,,METAR,1081.0
KARG 120555Z AUTO 32010KT 10SM CLR 00/M05 A3027 RMK AO1 10120 20000 52003,KARG,2015-02-12T05:55:00Z,36.12,-90.92,0.0,-5.0,320,10,,10.0,30.268702,,,TRUE,TRUE,,,,,,,CLR,,,,,,,,VFR,0.3,12.0,0.0,,,,,,,,,METAR,83.0
KAQX 120555Z AUTO 00000KT 10SM CLR 05/04 A2998 RMK AO2,KAQX,2015-02-12T05:55:00Z,32.98,-81.27,5.0,4.0,0,0,,10.0,29.97933,,,TRUE,TRUE,,,,,,,CLR,,,,,,,,VFR,,,,,,,,,,,,METAR,49.0
KAQP 120555Z AUTO 34018KT 10SM CLR M19/M23 A3062 RMK AO2,KAQP,2015-02-12T05:55:00Z,45.22,-96.0,-19.0,-23.0,340,18,,10.0,30.620079,,,TRUE,TRUE,,,,,,,CLR,,,,,,,,VFR,,,,,,,,,,,,METAR,311.0
KAIZ 120555Z AUTO 28006KT 10SM CLR M03/M08 A3034 RMK AO1 10020 21030 52003,KAIZ,2015-02-12T05:55:00Z,38.1,-92.53,-3.0,-8.0,280,6,,10.0,30.339567,,,TRUE,TRUE,,,,,,,CLR,,,,,,,,VFR,0.3,2.0,-3.0,,,,,,,,,METAR,265.0
KAFJ 120555Z AUTO 24009KT 7SM OVC012 00/M02 A2988 RMK AO1 10020 20000 57014,KAFJ,2015-02-12T05:55:00Z,40.12,-80.27,0.0,-2.0,240,9,,7.0,29.878937,,,TRUE,TRUE,,,,,,,OVC,1200,,,,,,,MVFR,-1.4,2.0,0.0,,,,,,,,,METAR,361.0
KAEG 120555Z AUTO 15004KT 10SM BKN044 01/M02 A3042 RMK AO2 T00111018 10074 20003,KAEG,2015-02-12T05:55:00Z,35.13,-106.8,1.1,-1.8,150,4,,10.0,30.41929,,,TRUE,TRUE,,,,,,,BKN,4400,,,,,,,VFR,,7.4,0.3,,,,,,,,,METAR,1779.0
KACQ 120555Z AUTO 33018G23KT 10SM CLR M16/M20 A3047 RMK AO2,KACQ,2015-02-12T05:55:00Z,44.07,-93.55,-16.0,-20.0,330,18,23,10.0,30.469488,,,TRUE,TRUE,,,,,,,CLR,,,,,,,,VFR,,,,,,,,,,,,METAR,343.0
K6L4 120555Z AUTO 22003KT 10SM OVC049 02/M01 A2993 RMK AO2,K6L4,2015-02-12T05:55:00Z,37.85,-81.92,2.0,-1.0,220,3,,10.0,29.929134,,,TRUE,TRUE,,,,,,,OVC,4900,,,,,,,VFR,,,,,,,,,,,,METAR,508.0
K5SM 120555Z AUTO 00000KT 10SM CLR M02/M09 RMK AO2,K5SM,2015-02-12T05:55:00Z,39.43,-107.38,-2.0,-9.0,0,0,,10.0,,,,TRUE,TRUE,,,,,,,CLR,,,,,,,,VFR,,,,,,,,,,,,METAR,3232.0
K4I3 120555Z AUTO 31011KT 10SM SCT008 BKN014 BKN024 M01/M03 A2991 RMK AO2,K4I3,2015-02-12T05:55:00Z,40.33,-82.53,-1.0,-3.0,310,11,,10.0,29.911417,,,TRUE,TRUE,,,,,,,SCT,800,BKN,1400,BKN,2400,,,MVFR,,,,,,,,,,,,METAR,363.0
K4BM 120555Z AUTO 00000KT 10SM BKN110 M04/M17 A3045 RMK AO2,K4BM,2015-02-12T05:55:00Z,39.05,-105.52,-4.0,-17.0,0,0,,10.0,30.448818,,,TRUE,TRUE,,,,,,,BKN,11000,,,,,,,VFR,,,,,,,,,,,,METAR,3438.0
K33V 120555Z AUTO 12007KT 10SM CLR M07/M10 A3041 RMK AO2,K33V,2015-02-12T05:55:00Z,40.75,-106.28,-7.0,-10.0,120,7,,10.0,30.410433,,,TRUE,TRUE,,,,,,,CLR,,,,,,,,VFR,,,,,,,,,,,,METAR,2484.0
KOZA 120555Z AUTO 02018G24KT 10SM SCT080 08/01 A3035 RMK AO2,KOZA,2015-02-12T05:55:00Z,30.73,-101.2,8.0,1.0,20,18,24,10.0,30.351377,,,TRUE,TRUE,,,,,,,SCT,8000,,,,,,,VFR,,,,,,,,,,,,SPECI,726.0
KOOA 120555Z AUTO 34024G32KT 10SM BKN024 OVC031 M10/M13 A3036 RMK AO2 T10961134 11047 21096 400161096,KOOA,2015-02-12T05:55:00Z,41.23,-92.5,-9.6,-13.4,340,24,32,10.0,30.360237,,,TRUE,TRUE,,,,,,,BKN,2400,OVC,3100,,,,,MVFR,,-4.7,-9.6,1.6,-9.6,,,,,,,SPECI,256.0
KFXY 120555Z AUTO 33022G29KT 10SM SCT018 SCT024 M15/M21 A3043 RMK AO2,KFXY,2015-02-12T05:55:00Z,43.23,-93.62,-15.0,-21.0,330,22,29,10.0,30.431103,,,TRUE,TRUE,,,,,,,SCT,1800,SCT,2400,,,,,VFR,,,,,,,,,,,,SPECI,375.0
KFWS 120555Z AUTO 36016G22KT 10SM SCT065 OVC075 08/00 A3035 RMK AO2 T00820001 10165 20082 402020070,KFWS,2015-02-12T05:55:00Z,32.57,-97.3,8.2,0.1,360,16,22,10.0,30.351377,,,TRUE,TRUE,,,,,,,SCT,6500,OVC,7500,,,,,VFR,,16.5,8.2,20.2,7.0,,,,,,,SPECI,208.0
KENL 120555Z AUTO 32009G16KT 10SM CLR M02/M07 A3023 RMK AO2 T10231067 10005 21023 400701041,KENL,2015-02-12T05:55:00Z,38.52,-89.1,-2.3,-6.7,320,9,16,10.0,30.230314,,,TRUE,TRUE,,,,,,,CLR,,,,,,,,VFR,,0.5,-2.3,7.0,-4.1,,,,,,,SPECI,163.0
KEMV 120555Z AUTO 14005KT 10SM CLR 00/M02 A2995 RMK AO2,KEMV,2015-02-12T05:55:00Z,36.68,-77.48,0.0,-2.0,140,5,,10.0,29.949802,,,TRUE,TRUE,,,,,,,CLR,,,,,,,,VFR,,,,,,,,,,,,SPECI,39.0
KEMM 120555Z AUTO 35003KT 10SM CLR M03/M06 A3040 RMK AO2,KEMM,2015-02-12T05:55:00Z,41.82,-110.55,-3.0,-6.0,350,3,,10.0,30.398623,,,TRUE,TRUE,,,,,,,CLR,,,,,,,,VFR,,,,,,,,,,,,SPECI,2220.0
KVYS 120555Z AUTO 30016G21KT 10SM CLR M09/M12 A3020 RMK AO2 T10871120 11042 21087 400171087,KVYS,2015-02-12T05:55:00Z,41.35,-89.15,-8.7,-12.0,300,16,21,10.0,30.200787,,,TRUE,TRUE,,,,,,,CLR,,,,,,,,VFR,,-4.2,-8.7,1.7,-8.7,,,,,,,SPECI,199.0
KVVG 120555Z AUTO 00000KT 9SM 07/06 A2998 RMK A01,KVVG,2015-02-12T05:55:00Z,28.95,-81.97,7.0,6.0,0,0,,9.0,29.97933,,,TRUE,TRUE,,,,,,,,,,,,,,,,,,,,,,,,,,,SPECI,27.0
KVER 120555Z AUTO 30008KT 10SM OVC060 M01/M06 A3035 RMK AO2 T10141064 10203 21166 402031166,KVER,2015-02-12T05:55:00Z,38.95,-92.68,-1.4,-6.4,300,8,,10.0,30.351377,,,TRUE,TRUE,,,,,,,OVC,6000,,,,,,,VFR,,20.3,-16.6,20.3,-16.6,,,,,,,SPECI,218.0
KLOM 120555Z AUTO 00000KT 10SM CLR M01/M05 A2989 RMK AO1,KLOM,2015-02-12T05:55:00Z,40.13,-75.27,-1.0,-5.0,0,0,,10.0,29.890747,,,TRUE,TRUE,,,,,,,CLR,,,,,,,,VFR,,,,,,,,,,,,METAR,92.0
KLUA 120555Z AUTO 00000KT 10SM OVC050 02/00 A2986 RMK AO2,KLUA,2015-02-12T05:55:00Z,38.67,-78.5,2.0,0.0,0,0,,10.0,29.861221,,,TRUE,TRUE,,,,,,,OVC,5000,,,,,,,VFR,,,,,,,,,,,,METAR,275.0
KLUD 120555Z AUTO 34011G16KT 10SM CLR 06/M02 A3036 RMK AO2 T00551018 10132 20055 401810055,KLUD,2015-02-12T05:55:00Z,33.25,-97.58,5.5,-1.8,340,11,16,10.0,30.360237,,,TRUE,TRUE,,,,,,,CLR,,,,,,,,VFR,,13.2,5.5,18.1,5.5,,,,,,,METAR,319.0
KLUM 120555Z AUTO 32011G16KT 10SM CLR M15/M20 A3039 RMK AO2 T11501201 11100 21150 410221150,KLUM,2015-02-12T05:55:00Z,44.9,-91.87,-15.0,-20.1,320,11,16,10.0,30.389763,,,TRUE,TRUE,,,,,,,CLR,,,,,,,,VFR,,-10.0,-15.0,-2.2,-15.0,,,,,,,METAR,273.0
KCDA 120555Z AUTO 12008KT 10SM CLR M10/M16 A2979 RMK AO2 T11001162 11070 21105,KCDA,2015-02-12T05:55:00Z,44.57,-72.02,-10.0,-16.2,120,8,,10.0,29.790354,,,TRUE,TRUE,,,,,,,CLR,,,,,,,,VFR,,-7.0,-10.5,,,,,,,,,METAR,363.0
KCCO 120555Z AUTO 31005KT 10SM CLR 09/01 A3003 RMK AO2 T00850010 10134 20085 401721010,KCCO,2015-02-12T05:55:00Z,33.32,-84.77,8.5,1.0,310,5,,10.0,30.029528,,,TRUE,TRUE,,,,,,,CLR,,,,,,,,VFR,,13.4,8.5,17.2,-1.0,,,,,,,METAR,296.0
KM30 120555Z AUTO 32005KT 10SM CLR M01/M04 A3024 RMK AO2 T10101045 10063 21012 401221041,KM30,2015-02-12T05:55:00Z,37.18,-88.75,-1.0,-4.5,320,5,,10.0,30.239174,,,TRUE,TRUE,,,,,,,CLR,,,,,,,,VFR,,6.3,-1.2,12.2,-4.1,,,,,,,METAR,117.0
KCNK 120555Z AUTO 35006KT 10SM CLR M03/M06 A3046 RMK AO2 SLP328 T10281061 10011 21039 400441039 51019,KCNK,2015-02-12T05:55:00Z,39.55,-97.65,-2.8,-6.1,350,6,,10.0,30.46063,1032.8,,TRUE,TRUE,,,,,,,CLR,,,,,,,,VFR,1.9,1.1,-3.9,4.4,-3.9,,,,,,,METAR,447.0
KMAN 120555Z AUTO 13003KT 10SM CLR 06/06 A3034 RMK AO1,KMAN,2015-02-12T05:55:00Z,43.58,-116.52,6.0,6.0,130,3,,10.0,30.339567,,,TRUE,TRUE,,,,,,,CLR,,,,,,,,VFR,,,,,,,,,,,,METAR,774.0
KMCC 120555Z AUTO 30003KT 10SM CLR 10/09 A3022 RMK AO2,KMCC,2015-02-12T05:55:00Z,38.67,-121.4,10.0,9.0,300,3,,10.0,30.221457,,,TRUE,TRUE,,,,,,,CLR,,,,,,,,VFR,,,,,,,,,,,,METAR,23.0
KMEV 120555Z AUTO 12006KT 10SM CLR 02/00 A3036 RMK AO2,KMEV,2015-02-12T05:55:00Z,38.98,-119.75,2.0,0.0,120,6,,10.0,30.360237,,,TRUE,TRUE,,,,,,,CLR,,,,,,,,VFR,,,,,,,,,,,,METAR,1439.0
KMGR 120555Z AUTO 26003KT 10SM CLR 09/08 A3005 RMK AO2,KMGR,2015-02-12T05:55:00Z,31.08,-83.8,9.0,8.0,260,3,,10.0,30.050198,,,TRUE,TRUE,,,,,,,CLR,,,,,,,,VFR,,,,,,,,,,,,METAR,90.0
KMHV 120555Z AUTO 35006KT 10SM CLR 09/M05 A3028 RMK AO1,KMHV,2015-02-12T05:55:00Z,35.07,-118.15,9.0,-5.0,350,6,,10.0,30.280512,,,TRUE,TRUE,,,,,,,CLR,,,,,,,,VFR,,,,,,,,,,,,METAR,849.0
KMMU 120555Z AUTO 00000KT 10SM SCT080 OVC100 M03/M08 A2990 RMK AO2,KMMU,2015-02-12T05:55:00Z,40.78,-74.42,-3.0,-8.0,0,0,,10.0,29.899607,,,TRUE,TRUE,,,,,,,SCT,8000,OVC,10000,,,,,VFR,,,,,,,,,,,,METAR,57.0
KMNZ 120555Z AUTO 36012G16KT 10SM SCT065 09/04 A3031 RMK AO2 T00910036 10188 20091 402470072,KMNZ,2015-02-12T05:55:00Z,31.67,-98.15,9.1,3.6,360,12,16,10.0,30.31004,,,TRUE,TRUE,,,,,,,SCT,6500,,,,,,,VFR,,18.8,9.1,24.7,7.2,,,,,,,METAR,396.0
KMOR 120555Z AUTO 30005KT 10SM CLR 05/M01 A3002 RMK,KMOR,2015-02-12T05:55:00Z,36.18,-83.37,5.0,-1.0,300,5,,10.0,30.02067,,,TRUE,,,,,,,,CLR,,,,,,,,VFR,,,,,,,,,,,,METAR,400.0
KMQS 120555Z AUTO 17003KT 10SM BKN065 M01/M04 A2987 RMK AO2,KMQS,2015-02-12T05:55:00Z,39.98,-75.87,-1.0,-4.0,170,3,,10.0,29.870079,,,TRUE,TRUE,,,,,,,BKN,6500,,,,,,,VFR,,,,,,,,,,,,METAR,201.0
KMWO 120555Z AUTO 28010G14KT 10SM OVC040 01/M04 A3004 RMK AO2 T00121045 10026 20012,KMWO,2015-02-12T05:55:00Z,39.53,-84.4,1.2,-4.5,280,10,14,10.0,30.041338,,,TRUE,TRUE,,,,,,,OVC,4000,,,,,,,VFR,,2.6,1.2,,,,,,,,,METAR,198.0
KLZZ 120555Z AUTO 02007KT 10SM CLR 12/05 A3026 RMK AO2 T01160045 10215 20116 402420058,KLZZ,2015-02-12T05:55:00Z,31.1,-98.2,11.6,4.5,20,7,,10.0,30.259842,,,TRUE,TRUE,,,,,,,CLR,,,,,,,,VFR,,21.5,11.6,24.2,5.8,,,,,,,METAR,371.0
KLVL 120555Z AUTO 16003KT 10SM CLR 00/M01 A2991 RMK AO1 T00001015 10032 21003,KLVL,2015-02-12T05:55:00Z,36.78,-77.8,0.0,-1.5,160,3,,10.0,29.911417,,,TRUE,TRUE,,,,,,,CLR,,,,,,,,VFR,,3.2,-0.3,,,,,,,,,METAR,100.0
KN38 120555Z AUTO 22007G13KT 10SM OVC015 M01/M03 A2974 RMK AO2,KN38,2015-02-12T05:55:00Z,41.73,-77.4,-1.0,-3.0,220,7,13,10.0,29.740158,,,TRUE,TRUE,,,,,,,OVC,1500,,,,,,,MVFR,,,,,,,,,,,,METAR,577.0
KRAS 120555Z AUTO 06007KT 10SM CLR 17/16 A3013 RMK AO2 T01680160 10182 20166 402130141,KRAS,2015-02-12T05:55:00Z,27.82,-97.08,16.8,16.0,60,7,,10.0,30.129921,,,TRUE,TRUE,,,,,,,CLR,,,,,,,,VFR,,18.2,16.6,21.3,14.1,,,,,,,SPECI,2.0
KPSK 120555Z AUTO 26005G15KT 10SM OVC024 03/M01 A2993 RMK AO2 T00341010 10062 20025 401331060,KPSK,2015-02-12T05:55:00Z,37.12,-80.67,3.4,-1.0,260,5,15,10.0,29.929134,,,TRUE,TRUE,,,,,,,OVC,2400,,,,,,,MVFR,,6.2,2.5,13.3,-6.0,,,,,,,SPECI,642.0
KPNA 120555Z AUTO 30006KT 10SM CLR M08/M10 A3041 RMK AO2,KPNA,2015-02-12T05:55:00Z,42.8,-109.8,-8.0,-10.0,300,6,,10.0,30.410433,,,TRUE,TRUE,,,,,,,CLR,,,,,,,,VFR,,,,,,,,,,,,SPECI,2160.0
KPGV 120555Z AUTO 19004KT 10SM CLR 00/M01 A2999 RMK AO2,KPGV,2015-02-12T05:55:00Z,35.62,-77.4,0.0,-1.0,190,4,,10.0,29.991142,,,TRUE,TRUE,,,,,,,CLR,,,,,,,,VFR,,,,,,,,,,,,SPECI,8.0
KRCE 120555Z AUTO 03009KT 10SM 02/M04 A3043 RMK AO2,KRCE,2015-02-12T05:55:00Z,35.48,-97.82,2.0,-4.0,30,9,,10.0,30.431103,,,TRUE,TRUE,,,,,,,,,,,,,,,,,,,,,,,,,,,METAR,413.0
KPVF 120555Z AUTO 11005KT 10SM SCT041 14/02 A3025 RMK AO1,KPVF,2015-02-12T05:55:00Z,38.72,-120.75,14.0,2.0,110,5,,10.0,30.250984,,,TRUE,TRUE,,,,,,,SCT,4100,,,,,,,VFR,,,,,,,,,,,,METAR,789.0
KPCZ 120555Z AUTO 32011KT 10SM SCT039 M10/M17 A3019 RMK AO2 T11051175 11062 21105,KPCZ,2015-02-12T05:55:00Z,44.33,-89.02,-10.5,-17.5,320,11,,10.0,30.188976,,,TRUE,TRUE,,,,,,,SCT,3900,,,,,,,VFR,,-6.2,-10.5,,,,,,,,,METAR,252.0
KOXI 120555Z AUTO 32012KT 10SM OVC034 M04/M16 A3005 RMK AO1,KOXI,2015-02-12T05:55:00Z,41.33,-86.67,-4.0,-16.0,320,12,,10.0,30.050198,,,TRUE,TRUE,,,,,,,OVC,3400,,,,,,,VFR,,,,,,,,,,,,METAR,209.0
KOLE 120555Z AUTO 25003KT 10SM OVC009 M02/M02 A2969 RMK AO2,KOLE,2015-02-12T05:55:00Z,42.23,-78.37,-2.0,-2.0,250,3,,10.0,29.68996,,,TRUE,TRUE,,,,,,,OVC,900,,,,,,,IFR,,,,,,,,,,,,METAR,651.0
KOJA 120555Z AUTO 02005KT 10SM SCT100 SCT120 01/M05 A3042 RMK AO2,KOJA,2015-02-12T05:55:00Z,35.55,-98.67,1.0,-5.0,20,5,,10.0,30.41929,,,TRUE,TRUE,,,,,,,SCT,10000,SCT,12000,,,,,VFR,,,,,,,,,,,,METAR,490.0
KO69 120555Z AUTO 00000KT 10SM CLR 09/08 A3021 RMK AO1,KO69,2015-02-12T05:55:00Z,38.25,-122.6,9.0,8.0,0,0,,10.0,30.209646,,,TRUE,TRUE,,,,,,,CLR,,,,,,,,VFR,,,,,,,,,,,,METAR,28.0
KRCZ 120555Z AUTO 19005KT 10SM 04/01 A2994 RMK AO2 T00410006 10075 20041 401180000,KRCZ,2015-02-12T05:55:00Z,34.88,-79.77,4.1,0.6,190,5,,10.0,29.940945,,,TRUE,TRUE,,,,,,,,,,,,,,,,,7.5,4.1,11.8,,,,,,,,METAR,109.0
KRCM 120555Z AUTO 30006KT 10SM OVC060 M02/M06 A3039 RMK AO2,KRCM,2015-02-12T05:55:00Z,38.78,-93.8,-2.0,-6.0,300,6,,10.0,30.389763,,,TRUE,TRUE,,,,,,,OVC,6000,,,,,,,VFR,,,,,,,,,,,,METAR,244.0
KRNV 120555Z AUTO 34009KT 10SM CLR 06/03 A3020 RMK AO2 T00630030 10116 20052 401611005,KRNV,2015-02-12T05:55:00Z,33.77,-90.75,6.3,3.0,340,9,,10.0,30.200787,,,TRUE,TRUE,,,,,,,CLR,,,,,,,,VFR,,11.6,5.2,16.1,-0.5,,,,,,,METAR,41.0
KRNC 120555Z AUTO 31004KT 10SM CLR 01/M01 A3008 RMK,KRNC,2015-02-12T05:55:00Z,35.7,-85.85,1.0,-1.0,310,4,,10.0,30.079725,,,TRUE,,,,,,,,CLR,,,,,,,,VFR,,,,,,,,,,,,METAR,315.0
KS39 120555Z AUTO 00000KT 10SM CLR 08/02 A3027 RMK AO2,KS39,2015-02-12T05:55:00Z,44.28,-120.9,8.0,2.0,0,0,,10.0,30.268702,,,TRUE,TRUE,,,,,,,CLR,,,,,,,,VFR,,,,,,,,,,,,METAR,991.0
KS25 120555Z AUTO 13011KT 10SM CLR M18/M22 A3054 RMK AO2,KS25,2015-02-12T05:55:00Z,47.8,-103.25,-18.0,-22.0,130,11,,10.0,30.540354,,,TRUE,TRUE,,,,,,,CLR,,,,,,,,VFR,,,,,,,,,,,,METAR,644.0
KRZL 120555Z AUTO 29014G20KT 10SM OVC036 M06/M08 A3011 RMK AO2,KRZL,2015-02-12T05:55:00Z,40.95,-87.18,-6.0,-8.0,290,14,20,10.0,30.109253,,,TRUE,TRUE,,,,,,,OVC,3600,,,,,,,VFR,,,,,,,,,,,,METAR,213.0
KRTS 120555Z AUTO 36003KT 10SM CLR 03/00 A3034 RMK AO2,KRTS,2015-02-12T05:55:00Z,39.67,-119.88,3.0,0.0,360,3,,10.0,30.339567,,,TRUE,TRUE,,,,,,,CLR,,,,,,,,VFR,,,,,,,,,,,,METAR,1540.0
OPLA 120555Z 28009KT 5000 FU NSC 18/08 Q1019/A30.09 NOSIG,OPLA,2015-02-12T05:55:00Z,31.52,74.4,18.0,8.0,280,9,,3.11,,,,,,,TRUE,,,,FU,,,,,,,,,,,,,,,,,,,,,METAR,217.0
OPKC 120555Z 30003KT 2000 HZ NSC 26/12 Q1018 BECMG 3000,OPKC,2015-02-12T05:55:00Z,24.88,67.17,26.0,12.0,300,3,,1.24,30.059055,,,,,,,,,,HZ,,,,,,,,,,,,,,,,,,,,,METAR,22.0
EHAK 120555Z AUTO 28012KT 9999 OVC016/// 05/01 Q1019,EHAK,2015-02-12T05:55:00Z,55.42,3.82,5.0,1.0,280,12,,6.21,30.088583,,,TRUE,,,,,,,,,,,,,,,,,,,,,,,,,,,,METAR,50.0
EHDV 120555Z AUTO 25007KT 9999 OVC018/// 05/01 Q1020,EHDV,2015-02-12T05:55:00Z,54.32,2.93,5.0,1.0,250,7,,6.21,30.11811,,,TRUE,,,,,,,,,,,,,,,,,,,,,,,,,,,,METAR,50.0
EHFZ 120555Z AUTO 20008KT 180V250 9000 OVC015/// 05/01 Q1020,EHFZ,2015-02-12T05:55:00Z,54.12,4.02,5.0,1.0,200,8,,5.59,30.11811,,,TRUE,,,,,,,,,,,,,,,,,,,,,,,,,,,,METAR,50.0
EHFD 120555Z AUTO 23013KT 9999 OVC015/// 05/01 Q1020,EHFD,2015-02-12T05:55:00Z,54.85,4.7,5.0,1.0,230,13,,6.21,30.11811,,,TRUE,,,,,,,,,,,,,,,,,,,,,,,,,,,,METAR,50.0
EHJA 120555Z AUTO 21005KT 9999 OVC017/// 05/01 Q1020,EHJA,2015-02-12T05:55:00Z,53.82,2.95,5.0,1.0,210,5,,6.21,30.11811,,,TRUE,,,,,,,,,,,,,,,,,,,,,,,,,,,,METAR,50.0
EHMA 120555Z AUTO 21003KT 170V240 6000 OVC007/// 03/01 Q1021,EHMA,2015-02-12T05:55:00Z,53.5,5.95,3.0,1.0,210,3,,3.73,30.147638,,,TRUE,,,,,,,,,,,,,,,,,,,,,,,,,,,,METAR,50.0
EHKV 120555Z AUTO 19004KT 170V230 8000 OVC012/// 05/02 Q1020,EHKV,2015-02-12T05:55:00Z,53.27,3.63,5.0,2.0,190,4,,4.97,30.11811,,,TRUE,,,,,,,,,,,,,,,,,,,,,,,,,,,,METAR,50.0
EHMG 120555Z AUTO 19006KT 4600 BR OVC008/// 03/01 Q1021,EHMG,2015-02-12T05:55:00Z,53.62,4.97,3.0,1.0,190,6,,2.86,30.147638,,,TRUE,,,,,,,BR,,,,,,,,,,,,,,,,,,,,,METAR,50.0
EHQE 120555Z AUTO 19005KT 160V220 5000 OVC008/// 03/01 Q////,EHQE,2015-02-12T05:55:00Z,52.92,4.15,3.0,1.0,190,5,,3.11,,,,TRUE,,,,,,,,,,,,,,,,,,,,,,,,,,,,METAR,50.0
EHPG 120555Z AUTO 18005KT 120V250 7000 OVC011/// 04/01 Q1020,EHPG,2015-02-12T05:55:00Z,52.37,3.35,4.0,1.0,180,5,,4.35,30.11811,,,TRUE,,,,,,,,,,,,,,,,,,,,,,,,,,,,METAR,50.0
KEAT 120555Z AUTO 00000KT 10SM SCT120 08/06 A3026 RMK AO2 SLP251 T00830061 10106 20083 56002,KEAT,2015-02-12T05:55:00Z,47.4,-120.2,8.3,6.1,0,0,,10.0,30.259842,1025.1,,TRUE,TRUE,,,,,,,SCT,12000,,,,,,,VFR,-0.2,10.6,8.3,,,,,,,,,METAR,377.0
KDLH 120555Z 35011G22KT 9SM -SN SCT021 M19/M24 A3038 RMK AO2 SNB26 SLP331 P0000 60000 T11891239 11139 21189 410441189 53025,KDLH,2015-02-12T05:55:00Z,46.85,-92.2,-18.9,-23.9,350,11,22,9.0,30.380905,1033.1,,,TRUE,,,,,,-SN,SCT,2100,,,,,,,VFR,2.5,-13.9,-18.9,-4.4,-18.9,0.0050,,0.0050,,,,METAR,435.0
KGPI 120555Z 00000KT 7SM OVC110 01/00 A3025 RMK AO2 VIS 2 1/2 NE SLP269 T00060000 10056 20006 55000,KGPI,2015-02-12T05:55:00Z,48.32,-114.25,0.6,0.0,0,0,,7.0,30.250984,1026.9,,,TRUE,,,,,,,OVC,11000,,,,,,,VFR,0.0,5.6,0.6,,,,,,,,,METAR,908.0
KIRK 120555Z AUTO 31014KT 10SM BKN029 OVC035 M03/M08 A3031 RMK AO2 SLP279 T10331078 11022 21044 400281044 58001,KIRK,2015-02-12T05:55:00Z,40.1,-92.55,-3.3,-7.8,310,14,,10.0,30.31004,1027.9,,TRUE,TRUE,,,,,,,BKN,2900,OVC,3500,,,,,MVFR,-0.1,-2.2,-4.4,2.8,-4.4,,,,,,,METAR,293.0
KINL 120555Z AUTO 01009G17KT 10SM CLR M21/M25 A3053 RMK AO2 SLP377 60000 T12111250 11167 21217 410561217 51019,KINL,2015-02-12T05:55:00Z,48.57,-93.4,-21.1,-25.0,10,9,17,10.0,30.528543,1037.7,,TRUE,TRUE,,,,,,,CLR,,,,,,,,VFR,1.9,-16.7,-21.7,-5.6,-21.7,,,0.0050,,,,METAR,360.0
KHON 120555Z AUTO 36012KT 10SM CLR M17/M22 A3066 RMK AO2 SLP413 T11671217 11094 21167 410561167 51015,KHON,2015-02-12T05:55:00Z,44.38,-98.23,-16.7,-21.7,360,12,,10.0,30.661417,1041.3,,TRUE,TRUE,,,,,,,CLR,,,,,,,,VFR,1.5,-9.4,-16.7,-5.6,-16.7,,,,,,,METAR,390.0
KY23 120555Z AUTO 32005KT 10SM SCT024 M17/M21 A3036 RMK AO2 T11671207 11105 21167,KY23,2015-02-12T05:55:00Z,45.3,-91.63,-16.7,-20.7,320,5,,10.0,30.360237,,,TRUE,TRUE,,,,,,,SCT,2400,,,,,,,VFR,,-10.5,-16.7,,,,,,,,,SPECI,322.0
KY19 120555Z AUTO 06004KT 10SM CLR M20/M23 A3064 RMK AO2,KY19,2015-02-12T05:55:00Z,46.77,-100.9,-20.0,-23.0,60,4,,10.0,30.640747,,,TRUE,TRUE,,,,,,,CLR,,,,,,,,VFR,,,,,,,,,,,,SPECI,593.0
KXSA 120555Z AUTO 14004KT 10SM CLR 00/M03 A2992 RMK AO2 T10051035 10008 21007 400651010,KXSA,2015-02-12T05:55:00Z,37.87,-76.9,-0.5,-3.5,140,4,,10.0,29.920275,,,TRUE,TRUE,,,,,,,CLR,,,,,,,,VFR,,0.8,-0.7,6.5,-1.0,,,,,,,SPECI,42.0
KWWR 120555Z AUTO 26006KT 10SM CLR M02/M06 A3045 RMK AO2,KWWR,2015-02-12T05:55:00Z,36.45,-99.52,-2.0,-6.0,260,6,,10.0,30.448818,,,TRUE,TRUE,,,,,,,CLR,,,,,,,,VFR,,,,,,,,,,,,SPECI,667.0
KWDG 120555Z AUTO 35005KT 10SM CLR M02/M05 A3044 RMK AO2,KWDG,2015-02-12T05:55:00Z,36.37,-97.77,-2.0,-5.0,350,5,,10.0,30.43996,,,TRUE,TRUE,,,,,,,CLR,,,,,,,,VFR,,,,,,,,,,,,SPECI,356.0
KW99 120555Z AUTO 26005KT 10SM OVC037 04/M05 A2988 RMK AO2 T00441046 10058 20032 400711011,KW99,2015-02-12T05:55:00Z,39.0,-79.15,4.4,-4.6,260,5,,10.0,29.878937,,,TRUE,TRUE,,,,,,,OVC,3700,,,,,,,VFR,,5.8,3.2,7.1,-1.1,,,,,,,SPECI,293.0
KW81 120555Z AUTO 00000KT 10SM CLR 00/M03 A2988 RMK AO1 T10041028 10035 21013,KW81,2015-02-12T05:55:00Z,37.18,-78.1,-0.4,-2.8,0,0,,10.0,29.878937,,,TRUE,TRUE,,,,,,,CLR,,,,,,,,VFR,,3.5,-1.3,,,,,,,,,SPECI,129.0
KW78 120555Z AUTO 23003KT 10SM CLR M02/M03 A2990 RMK AO1 T10161027 10049 21016,KW78,2015-02-12T05:55:00Z,36.68,-78.85,-1.6,-2.7,230,3,,10.0,29.899607,,,TRUE,TRUE,,,,,,,CLR,,,,,,,,VFR,,4.9,-1.6,,,,,,,,,SPECI,129.0
KW22 120555Z AUTO 21006KT 5SM BR OVC015 M01/M02 A2989 RMK AO2,KW22,2015-02-12T05:55:00Z,39.0,-80.27,-1.0,-2.0,210,6,,5.0,29.890747,,,TRUE,TRUE,,,,,,BR,OVC,1500,,,,,,,MVFR,,,,,,,,,,,,SPECI,499.0
KMNE 120555Z AUTO 00000KT 10SM CLR 08/05 A3020 RMK AO2 T00810051 10176 20080 402100043,KMNE,2015-02-12T05:55:00Z,32.65,-93.3,8.1,5.1,0,0,,10.0,30.200787,,,TRUE,TRUE,,,,,,,CLR,,,,,,,,VFR,,17.6,8.0,21.0,4.3,,,,,,,SPECI,85.0
KMKJ 120555Z AUTO 29013G23KT 10SM BKN021 OVC035 03/M01 A2993 RMK AO2 T00331015 10058 20032,KMKJ,2015-02-12T05:55:00Z,36.88,-81.33,3.3,-1.5,290,13,23,10.0,29.929134,,,TRUE,TRUE,,,,,,,BKN,2100,OVC,3500,,,,,MVFR,,5.8,3.2,,,,,,,,,SPECI,780.0
KMGC 120555Z AUTO 32012G16KT 10SM -SN OVC033 M04/M11 A3007 RMK AO2,KMGC,2015-02-12T05:55:00Z,41.7,-86.82,-4.0,-11.0,320,12,16,10.0,30.070866,,,TRUE,TRUE,,,,,,-SN,OVC,3300,,,,,,,VFR,,,,,,,,,,,,SPECI,200.0
KMDZ 120555Z AUTO 33013G19KT 10SM BKN026 M15/M19 A3021 RMK AO2 T11511193 11102 21152,KMDZ,2015-02-12T05:55:00Z,45.1,-90.3,-15.1,-19.3,330,13,19,10.0,30.209646,,,TRUE,TRUE,,,,,,,BKN,2600,,,,,,,MVFR,,-10.2,-15.2,,,,,,,,,SPECI,448.0
KMDD 120555Z AUTO 01008KT 10SM SCT040 OVC080 07/M02 A3039 RMK AO2 T00661019 10096 20066 401680066,KMDD,2015-02-12T05:55:00Z,32.03,-102.1,6.6,-1.9,10,8,,10.0,30.389763,,,TRUE,TRUE,,,,,,,SCT,4000,OVC,8000,,,,,VFR,,9.6,6.6,16.8,6.6,,,,,,,SPECI,854.0
KLIC 120555Z AUTO 35004KT 10SM CLR M07/M10 A3039 RMK AO2 SLP311 T10721100 10061 21083 50001,KLIC,2015-02-12T05:55:00Z,39.27,-103.67,-7.2,-10.0,350,4,,10.0,30.389763,1031.1,,TRUE,TRUE,,,,,,,CLR,,,,,,,,VFR,0.1,6.1,-8.3,,,,,,,,,METAR,1630.0
KMKG 120555Z AUTO 32013KT 10SM OVC044 M06/M13 A3003 RMK AO2 UPE06 SLP179 P0000 60003 T10611128 11006 21067 51017,KMKG,2015-02-12T05:55:00Z,43.17,-86.23,-6.1,-12.8,320,13,,10.0,30.029528,1017.9,,TRUE,TRUE,,,,,,,OVC,4400,,,,,,,VFR,1.7,-0.6,-6.7,,,0.0050,,0.03,,,,METAR,191.0
KLLJ 120555Z AUTO 00000KT 10SM FEW120 00/M02 A3036 RMK AO2 SLP295 T00001022 10067 21006 50000,KLLJ,2015-02-12T05:55:00Z,44.52,-114.22,0.0,-2.2,0,0,,10.0,30.360237,1029.5,,TRUE,TRUE,,,,,,,FEW,12000,,,,,,,VFR,0.0,6.7,-0.6,,,,,,,,,METAR,1536.0
KSCK 120555Z AUTO 00000KT 10SM CLR 12/09 A3020 RMK AO2 SLP225 T01170089 10194 20117 51015,KSCK,2015-02-12T05:55:00Z,37.88,-121.22,11.7,8.9,0,0,,10.0,30.200787,1022.5,,TRUE,TRUE,,,,,,,CLR,,,,,,,,VFR,1.5,19.4,11.7,,,,,,,,,METAR,10.0
KPHP 120555Z AUTO 07014KT 10SM OVC020 M12/M17 A3058 RMK AO2 SLP390 T11171167 11011 21117 51014,KPHP,2015-02-12T05:55:00Z,44.05,-101.6,-11.7,-16.7,70,14,,10.0,30.578741,1039.0,,TRUE,TRUE,,,,,,,OVC,2000,,,,,,,MVFR,1.4,-1.1,-11.7,,,,,,,,,METAR,672.0
KOWA 120555Z AUTO 33016G23KT 10SM CLR M17/M21 A3043 RMK AO2,KOWA,2015-02-12T05:55:00Z,44.12,-93.25,-17.0,-21.0,330,16,23,10.0,30.431103,,,TRUE,TRUE,,,,,,,CLR,,,,,,,,VFR,,,,,,,,,,,,METAR,350.0
KBYS 120555Z AUTO 34005KT 10SM CLR 14/M07 A3024 RMK AO2 SLP236 T01391066 10198 20134 51005 $,KBYS,2015-02-12T05:55:00Z,35.28,-116.62,13.9,-6.6,340,5,,10.0,30.239174,1023.6,,TRUE,TRUE,TRUE,,,,,,CLR,,,,,,,,VFR,0.5,19.8,13.4,,,,,,,,,METAR,716.0
KMGG 120555Z AUTO 32010G17KT 10SM CLR M17/M21 A3052 RMK AO2 T11731210 11125 21173 410171173,KMGG,2015-02-12T05:55:00Z,45.23,-93.98,-17.3,-21.0,320,10,17,10.0,30.519686,,,TRUE,TRUE,,,,,,,CLR,,,,,,,,VFR,,-12.5,-17.3,-1.7,-17.3,,,,,,,METAR,313.0
KHCO 120555Z AUTO 34004KT 10SM CLR M24/M28 A3070 RMK AO2,KHCO,2015-02-12T05:55:00Z,48.75,-96.93,-24.0,-28.0,340,4,,10.0,30.699802,,,TRUE,TRUE,,,,,,,CLR,,,,,,,,VFR,,,,,,,,,,,,METAR,250.0
KFKA 120555Z AUTO 34018G23KT 10SM SCT014 BKN020 BKN050 M16/M20 A3032 RMK AO2 T11641200 11113 21164 400051164,KFKA,2015-02-12T05:55:00Z,43.68,-92.17,-16.4,-20.0,340,18,23,10.0,30.318897,,,TRUE,TRUE,,,,,,,SCT,1400,BKN,2000,BKN,5000,,,MVFR,,-11.3,-16.4,0.5,-16.4,,,,,,,METAR,389.0
KCVH 120555Z AUTO 08003KT 10SM CLR 11/11 A3019 RMK AO1,KCVH,2015-02-12T05:55:00Z,36.9,-121.42,11.0,11.0,80,3,,10.0,30.188976,,,TRUE,TRUE,,,,,,,CLR,,,,,,,,VFR,,,,,,,,,,,,METAR,70.0
KOTH 120555Z 14004KT 1/2SM OVC002 08/08 A3022 RMK AO1 10130 20070 57003,KOTH,2015-02-12T05:55:00Z,43.42,-124.25,8.0,8.0,140,4,,0.5,30.221457,,,,TRUE,,,,,,,OVC,200,,,,,,,LIFR,-0.3,13.0,7.0,,,,,,,,,METAR,4.0
KOTG 120555Z AUTO 33018G26KT 10SM FEW015 M17/M21 A3050 RMK AO1 52020,KOTG,2015-02-12T05:55:00Z,43.63,-95.57,-17.0,-21.0,330,18,26,10.0,30.499016,,,TRUE,TRUE,,,,,,,FEW,1500,,,,,,,VFR,2.0,,,,,,,,,,,METAR,480.0
KOLU 120555Z AUTO 01021G26KT 9SM BKN025 M09/M16 A3056 RMK AO1 11010 21090 52037,KOLU,2015-02-12T05:55:00Z,41.45,-97.32,-9.0,-16.0,10,21,26,9.0,30.561024,,,TRUE,TRUE,,,,,,,BKN,2500,,,,,,,MVFR,3.7,-1.0,-9.0,,,,,,,,,METAR,440.0
KOKK 120555Z AUTO 29019G24KT 10SM FEW023 SCT030 OVC039 M04/M08 A3004 RMK AO1 10000 21040 54000,KOKK,2015-02-12T05:55:00Z,40.53,-86.07,-4.0,-8.0,290,19,24,10.0,30.041338,,,TRUE,TRUE,,,,,,,FEW,2300,SCT,3000,OVC,3900,,,VFR,,0.0,-4.0,,,,,,,,,METAR,253.0
KOEB 120555Z AUTO 29010G16KT 7SM -SN SCT017 SCT037 OVC049 M04/M07 A2995 RMK AO2 T10401070 11013 21040 400031083,KOEB,2015-02-12T05:55:00Z,41.92,-85.03,-4.0,-7.0,290,10,16,7.0,29.949802,,,TRUE,TRUE,,,,,,-SN,SCT,1700,SCT,3700,OVC,4900,,,VFR,,-1.3,-4.0,0.3,-8.3,,,,,,,METAR,292.0
KOCH 120555Z AUTO 01005KT 10SM CLR 11/06 A3021 RMK AO1 10190 20110 402300060 52017,KOCH,2015-02-12T05:55:00Z,31.57,-94.72,11.0,6.0,10,5,,10.0,30.209646,,,TRUE,TRUE,,,,,,,CLR,,,,,,,,VFR,1.7,19.0,11.0,23.0,6.0,,,,,,,METAR,108.0
KOCF 120555Z AUTO 00000KT 10SM CLR 05/03 A3007 RMK AO1 10140 20050 57003,KOCF,2015-02-12T05:55:00Z,29.17,-82.22,5.0,3.0,0,0,,10.0,30.070866,,,TRUE,TRUE,,,,,,,CLR,,,,,,,,VFR,-0.3,14.0,5.0,,,,,,,,,METAR,27.0
KVLL 120555Z AUTO 30009G14KT 10SM SCT037 OVC060 M02/M06 A2991 RMK AO2 T10241063 10002 21024,KVLL,2015-02-12T05:55:00Z,42.55,-83.18,-2.4,-6.3,300,9,14,10.0,29.911417,,,TRUE,TRUE,,,,,,,SCT,3700,OVC,6000,,,,,VFR,,0.2,-2.4,,,,,,,,,METAR,222.0
KVIS 120555Z AUTO 00000KT 5SM CLR 11/07 A3020 RMK AO1 10180 20110 52017,KVIS,2015-02-12T05:55:00Z,36.32,-119.4,11.0,7.0,0,0,,5.0,30.200787,,,TRUE,TRUE,,,,,,,CLR,,,,,,,,MVFR,1.7,18.0,11.0,,,,,,,,,METAR,89.0
KVBT 120555Z AUTO 01009KT 10SM CLR M02/M07 A3037 RMK AO1 10040 21020 52014,KVBT,2015-02-12T05:55:00Z,36.35,-94.22,-2.0,-7.0,10,9,,10.0,30.369095,,,TRUE,TRUE,,,,,,,CLR,,,,,,,,VFR,1.4,4.0,-2.0,,,,,,,,,METAR,395.0
KUTA 120555Z AUTO 36012KT 10SM CLR 05/00 A3023 RMK AO2,KUTA,2015-02-12T05:55:00Z,34.68,-90.35,5.0,0.0,360,12,,10.0,30.230314,,,TRUE,TRUE,,,,,,,CLR,,,,,,,,VFR,,,,,,,,,,,,METAR,59.0
KUKT 120555Z AUTO 18003KT 10SM FEW042 BKN070 OVC090 M03/M07 A2988 RMK AO1,KUKT,2015-02-12T05:55:00Z,40.43,-75.38,-3.0,-7.0,180,3,,10.0,29.878937,,,TRUE,TRUE,,,,,,,FEW,4200,BKN,7000,OVC,9000,,,VFR,,,,,,,,,,,,METAR,160.0
KUDG 120555Z AUTO 21005KT 10SM CLR 03/00 A2997 RMK AO1 10070 20020 57014,KUDG,2015-02-12T05:55:00Z,34.45,-79.88,3.0,0.0,210,5,,10.0,29.970472,,,TRUE,TRUE,,,,,,,CLR,,,,,,,,VFR,-1.4,7.0,2.0,,,,,,,,,METAR,59.0
KTVF 120555Z AUTO 01010KT 10SM CLR M23/M24 A3062 RMK AO1 11190 21230 411101230 52003,KTVF,2015-02-12T05:55:00Z,48.07,-96.17,-23.0,-24.0,10,10,,10.0,30.620079,,,TRUE,TRUE,,,,,,,CLR,,,,,,,,VFR,0.3,-19.0,-23.0,-11.0,-23.0,,,,,,,METAR,340.0
KTPL 120555Z AUTO 36015G22KT 10SM BKN050 12/02 A3025 RMK AO1 10190 20120 402300080 52024,KTPL,2015-02-12T05:55:00Z,31.13,-97.4,12.0,2.0,360,15,22,10.0,30.250984,,,TRUE,TRUE,,,,,,,BKN,5000,,,,,,,VFR,2.4,19.0,12.0,23.0,8.0,,,,,,,METAR,208.0
KTME 120555Z AUTO 35003KT 3SM BR OVC044 12/11 A3018 RMK AO2,KTME,2015-02-12T05:55:00Z,29.8,-95.9,12.0,11.0,350,3,,3.0,30.180119,,,TRUE,TRUE,,,,,,BR,OVC,4400,,,,,,,MVFR,,,,,,,,,,,,METAR,51.0
KTEX 120555Z AUTO 12004KT 10SM CLR M02/M08 A3046 RMK AO2 T10221080 10037 21022,KTEX,2015-02-12T05:55:00Z,37.95,-107.9,-2.2,-8.0,120,4,,10.0,30.46063,,,TRUE,TRUE,,,,,,,CLR,,,,,,,,VFR,,3.7,-2.2,,,,,,,,,METAR,2769.0
KSUE 120555Z AUTO 33015KT 10SM CLR M14/M21 A3016 RMK AO1 11060 21140 410101140 52030,KSUE,2015-02-12T05:55:00Z,44.85,-87.42,-14.0,-21.0,330,15,,10.0,30.159449,,,TRUE,TRUE,,,,,,,CLR,,,,,,,,VFR,3.0,-6.0,-14.0,-1.0,-14.0,,,,,,,METAR,221.0
KSUA 120555Z AUTO 32004KT 10SM CLR 13/09 A3006 RMK AO2,KSUA,2015-02-12T05:55:00Z,27.18,-80.22,13.0,9.0,320,4,,10.0,30.059055,,,TRUE,TRUE,,,,,,,CLR,,,,,,,,VFR,,,,,,,,,,,,METAR,6.0
KSRB 120555Z AUTO 00000KT 10SM SCT045 M02/M03 A3005 RMK,KSRB,2015-02-12T05:55:00Z,36.05,-85.53,-2.0,-3.0,0,0,,10.0,30.050198,,,TRUE,,,,,,,,SCT,4500,,,,,,,VFR,,,,,,,,,,,,METAR,313.0
KOXC 120555Z 13004KT 10SM SCT013 BKN120 M09/M16 A2986 RMK AO1 11040 21090 57017,KOXC,2015-02-12T05:55:00Z,41.47,-73.13,-9.0,-16.0,130,4,,10.0,29.861221,,,,TRUE,,,,,,,SCT,1300,BKN,12000,,,,,VFR,-1.7,-4.0,-9.0,,,,,,,,,METAR,222.0
KPAN 120555Z AUTO VRB03KT 10SM CLR 09/M03 A3030 RMK AO2,KPAN,2015-02-12T05:55:00Z,34.25,-111.33,9.0,-3.0,0,3,,10.0,30.301182,,,TRUE,TRUE,,,,,,,CLR,,,,,,,,VFR,,,,,,,,,,,,METAR,1572.0
KPHT 120555Z AUTO 35011KT 10SM FEW025 00/M05 A3020 RMK,KPHT,2015-02-12T05:55:00Z,36.33,-88.38,0.0,-5.0,350,11,,10.0,30.200787,,,TRUE,,,,,,,,FEW,2500,,,,,,,VFR,,,,,,,,,,,,METAR,177.0
KPIB 120555Z AUTO 34009KT 10SM CLR 12/02 A3013 RMK AO1 10140 20070 52003,KPIB,2015-02-12T05:55:00Z,31.47,-89.32,12.0,2.0,340,9,,10.0,30.129921,,,TRUE,TRUE,,,,,,,CLR,,,,,,,,VFR,0.3,14.0,7.0,,,,,,,,,METAR,91.0
KFSO 120555Z AUTO 00000KT 10SM SCT040 SCT047 BKN090 M13/M16 A2979 RMK AO2 T11301164 11126 21147,KFSO,2015-02-12T05:55:00Z,44.93,-73.1,-13.0,-16.4,0,0,,10.0,29.790354,,,TRUE,TRUE,,,,,,,SCT,4000,SCT,4700,BKN,9000,,,VFR,,-12.6,-14.7,,,,,,,,,METAR,70.0
KLXN 120555Z AUTO 04008KT 10SM SCT024 M02/M06 A3045 RMK AO2 T10191062 10058 21019 400811026,KLXN,2015-02-12T05:55:00Z,40.78,-99.77,-1.9,-6.2,40,8,,10.0,30.448818,,,TRUE,TRUE,,,,,,,SCT,2400,,,,,,,VFR,,5.8,-1.9,8.1,-2.6,,,,,,,METAR,734.0
KLSB 120555Z AUTO 14009KT 10SM CLR 05/00 A3029 RMK AO2,KLSB,2015-02-12T05:55:00Z,32.33,-108.7,5.0,0.0,140,9,,10.0,30.28937,,,TRUE,TRUE,,,,,,,CLR,,,,,,,,VFR,,,,,,,,,,,,METAR,1307.0
KLRU 120555Z AUTO 21006KT 10SM CLR 05/M01 A3036 RMK AO2 T00471015 10125 20047,KLRU,2015-02-12T05:55:00Z,32.27,-106.92,4.7,-1.5,210,6,,10.0,30.360237,,,TRUE,TRUE,,,,,,,CLR,,,,,,,,VFR,,12.5,4.7,,,,,,,,,METAR,1358.0
KLRJ 120555Z AUTO 35012G23KT 10SM CLR M14/M19 A3058 RMK AO2,KLRJ,2015-02-12T05:55:00Z,42.77,-96.2,-14.0,-19.0,350,12,23,10.0,30.578741,,,TRUE,TRUE,,,,,,,CLR,,,,,,,,VFR,,,,,,,,,,,,METAR,365.0
KLKU 120555Z AUTO 12003KT 10SM CLR 00/M03 A2986 RMK AO2,KLKU,2015-02-12T05:55:00Z,38.02,-77.97,0.0,-3.0,120,3,,10.0,29.861221,,,TRUE,TRUE,,,,,,,CLR,,,,,,,,VFR,,,,,,,,,,,,METAR,150.0
KLGC 120555Z AUTO 00000KT 10SM CLR 03/02 A3004 RMK AO2 T00310024 10126 20031 401911011,KLGC,2015-02-12T05:55:00Z,33.0,-85.07,3.1,2.4,0,0,,10.0,30.041338,,,TRUE,TRUE,,,,,,,CLR,,,,,,,,VFR,,12.6,3.1,19.1,-1.1,,,,,,,METAR,211.0
KLCQ 120555Z AUTO 24003KT 10SM CLR 06/05 A3006 RMK AO2,KLCQ,2015-02-12T05:55:00Z,30.18,-82.58,6.0,5.0,240,3,,10.0,30.059055,,,TRUE,TRUE,,,,,,,CLR,,,,,,,,VFR,,,,,,,,,,,,METAR,61.0
KLCK 120555Z AUTO 30009KT 10SM OVC018 00/M02 A2995 RMK AO2 T10021021,KLCK,2015-02-12T05:55:00Z,39.82,-82.92,-0.2,-2.1,300,9,,10.0,29.949802,,,TRUE,TRUE,,,,,,,OVC,1800,,,,,,,MVFR,,,,,,,,,,,,METAR,227.0
KLCG 120555Z AUTO 35015G18KT 10SM CLR M13/M19 A3057 RMK AO2 T11271186 11017 21127 400071127,KLCG,2015-02-12T05:55:00Z,42.25,-96.98,-12.7,-18.6,350,15,18,10.0,30.569881,,,TRUE,TRUE,,,,,,,CLR,,,,,,,,VFR,,-1.7,-12.7,0.7,-12.7,,,,,,,METAR,436.0
KLAM 120555Z AUTO 18009KT 10SM CLR 00/M01 A3042 RMK AO2 T00021013 10060 20002 400930000,KLAM,2015-02-12T05:55:00Z,35.87,-106.27,0.2,-1.3,180,9,,10.0,30.41929,,,TRUE,TRUE,,,,,,,CLR,,,,,,,,VFR,,6.0,0.2,9.3,,,,,,,,METAR,2179.0
KJYR 120555Z AUTO 02021G26KT 10SM BKN027 OVC039 M05/M09 A3050 RMK AO2,KJYR,2015-02-12T05:55:00Z,40.9,-97.62,-5.0,-9.0,20,21,26,10.0,30.499016,,,TRUE,TRUE,,,,,,,BKN,2700,OVC,3900,,,,,MVFR,,,,,,,,,,,,METAR,509.0
KJWY 120555Z AUTO 35015G21KT 10SM SCT070 08/03 A3032 RMK AO2 T00760026 10162 20076 402110075,KJWY,2015-02-12T05:55:00Z,32.45,-96.92,7.6,2.6,350,15,21,10.0,30.318897,,,TRUE,TRUE,,,,,,,SCT,7000,,,,,,,VFR,,16.2,7.6,21.1,7.5,,,,,,,METAR,217.0
KJGG 120555Z AUTO 17008KT 10SM 02/M01 A2995 RMK AO1,KJGG,2015-02-12T05:55:00Z,37.23,-76.72,2.0,-1.0,170,8,,10.0,29.949802,,,TRUE,TRUE,,,,,,,,,,,,,,,,,,,,,,,,,,,METAR,15.0
KIZA 120555Z AUTO 06005KT 10SM CLR 12/07 A3012 RMK AO2,KIZA,2015-02-12T05:55:00Z,34.6,-120.07,12.0,7.0,60,5,,10.0,30.121063,,,TRUE,TRUE,,,,,,,CLR,,,,,,,,VFR,,,,,,,,,,,,METAR,205.0
KISO 120555Z AUTO 19003KT 10SM CLR 00/M02 A2998 RMK AO2 T10021016 10048 21002 400861002,KISO,2015-02-12T05:55:00Z,35.32,-77.62,-0.2,-1.6,190,3,,10.0,29.97933,,,TRUE,TRUE,,,,,,,CLR,,,,,,,,VFR,,4.8,-0.2,8.6,-0.2,,,,,,,METAR,29.0
KIOB 120555Z AUTO 32009KT 7SM -RA BKN015 OVC028 01/00 A3003 RMK AO2,KIOB,2015-02-12T05:55:00Z,38.05,-83.98,1.0,0.0,320,9,,7.0,30.029528,,,TRUE,TRUE,,,,,,-RA,BKN,1500,OVC,2800,,,,,MVFR,,,,,,,,,,,,METAR,311.0
KROS 120555Z AUTO 33006KT 10SM BKN110 M18/M22 A3048 RMK AO2 T11781220 11115 21178 410351178,KROS,2015-02-12T05:55:00Z,45.7,-92.95,-17.8,-22.0,330,6,,10.0,30.481298,,,TRUE,TRUE,,,,,,,BKN,11000,,,,,,,VFR,,-11.5,-17.8,-3.5,-17.8,,,,,,,METAR,281.0
KAWO 120555Z AUTO 00000KT 10SM FEW120 09/07 A3018 RMK AO1 10140 20090 57003,KAWO,2015-02-12T05:55:00Z,48.17,-122.17,9.0,7.0,0,0,,10.0,30.180119,,,TRUE,TRUE,,,,,,,FEW,12000,,,,,,,VFR,-0.3,14.0,9.0,,,,,,,,,METAR,42.0
KGAO 120555Z AUTO 00000KT 5SM BR CLR 09/08 A3014 RMK AO2 T00940084 10152 20080 402050052,KGAO,2015-02-12T05:55:00Z,29.45,-90.27,9.4,8.4,0,0,,5.0,30.138779,,,TRUE,TRUE,,,,,,BR,CLR,,,,,,,,MVFR,,15.2,8.0,20.5,5.2,,,,,,,METAR,1.0
KFWC 120555Z AUTO 31008G14KT 10SM CLR M02/M06 A3020 RMK AO1 T10201065 10015 21022 400821040,KFWC,2015-02-12T05:55:00Z,38.38,-88.42,-2.0,-6.5,310,8,14,10.0,30.200787,,,TRUE,TRUE,,,,,,,CLR,,,,,,,,VFR,,1.5,-2.2,8.2,-4.0,,,,,,,METAR,133.0
KBGF 120555Z AUTO 35008KT 10SM CLR 02/M01 A3009 RMK,KBGF,2015-02-12T05:55:00Z,35.18,-86.07,2.0,-1.0,350,8,,10.0,30.088583,,,TRUE,,,,,,,,CLR,,,,,,,,VFR,,,,,,,,,,,,METAR,299.0
K6R3 120554Z AUTO 00000KT 7SM 08/08 A3018 RMK AO2,K6R3,2015-02-12T05:54:00Z,30.35,-95.0,8.0,8.0,0,0,,7.0,30.180119,,,TRUE,TRUE,,,,,,,,,,,,,,,,,,,,,,,,,,,SPECI,46.0
KTGI 120554Z AUTO 19011KT 10SM CLR 01/M01 A2993 RMK AO1,KTGI,2015-02-12T05:54:00Z,37.82,-75.98,1.0,-1.0,190,11,,10.0,29.929134,,,TRUE,TRUE,,,,,,,CLR,,,,,,,,VFR,,,,,,,,,,,,METAR,2.0
ETEB 120554Z AUTO 16008KT 1200 BR VV002 M02/M02 A3019 RMK AO2 DZE0512B0517 RVRNO,ETEB,2015-02-12T05:54:00Z,49.32,10.62,-2.0,-2.0,160,8,,0.75,30.188976,,,TRUE,TRUE,,,,,,BR,OVX,0,,,,,,,LIFR,,,,,,,,,,,200,SPECI,467.0
KTTF 120554Z AUTO 27008KT 10SM OVC060 M02/M06 A2991 RMK AO2,KTTF,2015-02-12T05:54:00Z,41.93,-83.42,-2.0,-6.0,270,8,,10.0,29.911417,,,TRUE,TRUE,,,,,,,OVC,6000,,,,,,,VFR,,,,,,,,,,,,METAR,188.0
PTTP 120554Z 08006KT 15SM BKN018 OVC300 29/23 A2976 RMK SLP078 60013 8/101 T02880229 10297 20274 55003,PTTP,2015-02-12T05:54:00Z,6.97,158.22,28.8,22.9,80,6,,15.0,29.760826,1007.8,,,,,,,,,,BKN,1800,OVC,30000,,,,,MVFR,-0.3,29.7,27.4,,,,,0.13,,,,METAR,2.0
KISW 120554Z AUTO 34018G25KT 10SM SCT065 BKN080 BKN110 M12/M19 A3023 RMK AO2 SNB11E28 SLP256 P0000 60000 T11221194 11083 21122 410281122 53028,KISW,2015-02-12T05:54:00Z,44.37,-89.83,-12.2,-19.4,340,18,25,10.0,30.230314,1025.6,,TRUE,TRUE,,,,,,,SCT,6500,BKN,8000,BKN,11000,,,VFR,2.8,-8.3,-12.2,-2.8,-12.2,0.0050,,0.0050,,,,METAR,307.0
KRSP 120554Z AUTO 10SM OVC028 01/M04 RMK AO2 SLPNO 60000 T00061044 10017 21006 $,KRSP,2015-02-12T05:54:00Z,39.65,-77.47,0.6,-4.4,,,,10.0,,,,TRUE,TRUE,TRUE,,,,,,OVC,2800,,,,,,,MVFR,,1.7,-0.6,,,,,0.0050,,,,METAR,561.0
KRBL 120554Z AUTO 29003KT 10SM CLR 09/07 A3021 RMK AO2 SLP228 T00940072 10189 20094 51010,KRBL,2015-02-12T05:54:00Z,40.15,-122.25,9.4,7.2,290,3,,10.0,30.209646,1022.8,,TRUE,TRUE,,,,,,,CLR,,,,,,,,VFR,1.0,18.9,9.4,,,,,,,,,METAR,104.0
KPZQ 120554Z AUTO 29011G18KT 1SM SN OVC004 M12/M13 A2992 RMK AO2 T11161130,KPZQ,2015-02-12T05:54:00Z,45.4,-83.82,-11.6,-13.0,290,11,18,1.0,29.920275,,,TRUE,TRUE,,,,,,SN,OVC,400,,,,,,,LIFR,,,,,,,,,,,,METAR,204.0
PGUM 120554Z 01014G22KT 10SM CLR 29/18 A2982 RMK AO2 SLP089 T02940178 10306 20283 56011 $,PGUM,2015-02-12T05:54:00Z,13.48,144.8,29.4,17.8,10,14,22,10.0,29.819881,1008.9,,,TRUE,TRUE,,,,,,CLR,,,,,,,,VFR,-1.1,30.6,28.3,,,,,,,,,METAR,91.0
KNAK 120554Z AUTO 18005KT 10SM BKN075 00/M04 A2991 RMK AO2 SLP129 T00001044 10017 21006 56015,KNAK,2015-02-12T05:54:00Z,38.98,-76.48,0.0,-4.4,180,5,,10.0,29.911417,1012.9,,TRUE,TRUE,,,,,,,BKN,7500,,,,,,,VFR,-1.5,1.7,-0.6,,,,,,,,,METAR,2.0
KNFG 120554Z 06004KT 10SM FEW250 16/M03 A3005 RMK AO2 SLP175 T01611028 10294 20111 51007 $,KNFG,2015-02-12T05:54:00Z,33.28,-117.33,16.1,-2.8,60,4,,10.0,30.050198,1017.5,,,TRUE,TRUE,,,,,,FEW,25000,,,,,,,VFR,0.7,29.4,11.1,,,,,,,,,METAR,24.0
KMTP 120554Z AUTO 01004KT M03/M07 A2993 RMK AO1 SLP134 T10281072 11022 21033 56008,KMTP,2015-02-12T05:54:00Z,41.07,-71.92,-2.8,-7.2,10,4,,,29.929134,1013.4,,TRUE,TRUE,,,,,,,,,,,,,,,,-0.8,-2.2,-3.3,,,,,,,,,METAR,2.0
KRFD 120554Z 32013KT 10SM -SN FEW050 OVC080 M08/M14 A3017 RMK AO2 SNB46 SLP229 4/005 P0000 60000 T10831144 11050 21089 400111089 53012,KRFD,2015-02-12T05:54:00Z,42.2,-89.1,-8.3,-14.4,320,13,,10.0,30.171259,1022.9,,,TRUE,,,,,,-SN,FEW,5000,OVC,8000,,,,,VFR,1.2,-5.0,-8.9,1.1,-8.9,0.0050,,0.0050,,5.0,,METAR,221.0
KRDG 120554Z 00000KT 10SM OVC047 M01/M08 A2987 RMK AO2 SLP123 T10111078 11006 21017 56015,KRDG,2015-02-12T05:54:00Z,40.37,-75.97,-1.1,-7.8,0,0,,10.0,29.870079,1012.3,,,TRUE,,,,,,,OVC,4700,,,,,,,VFR,-1.5,-0.6,-1.7,,,,,,,,,METAR,109.0
KRIC 120554Z 17005KT 10SM FEW250 00/M03 A2990 RMK AO2 SLP131 T00001033 10039 21006 56016,KRIC,2015-02-12T05:54:00Z,37.52,-77.32,0.0,-3.3,170,5,,10.0,29.899607,1013.1,,,TRUE,,,,,,,FEW,25000,,,,,,,VFR,-1.6,3.9,-0.6,,,,,,,,,METAR,50.0
KRNP 120554Z AUTO 31010KT 10SM OVC055 M05/M09 A2994 RMK AO2 T10551093,KRNP,2015-02-12T05:54:00Z,43.0,-84.13,-5.5,-9.3,310,10,,10.0,29.940945,,,TRUE,TRUE,,,,,,,OVC,5500,,,,,,,VFR,,,,,,,,,,,,METAR,224.0
KROA 120554Z 29012G20KT 10SM BKN036 BKN130 06/M03 A2992 RMK AO2 SLP132 T00611028 10078 20022 57003,KROA,2015-02-12T05:54:00Z,37.32,-79.97,6.1,-2.8,290,12,20,10.0,29.920275,1013.2,,,TRUE,,,,,,,BKN,3600,BKN,13000,,,,,VFR,-0.3,7.8,2.2,,,,,,,,,METAR,362.0
KROC 120554Z 26010KT 9SM -SN BKN042 OVC055 M01/M04 A2976 RMK AO2 SLP088 4/018 P0000 60003 T10111039 10000 21028 56009,KROC,2015-02-12T05:54:00Z,43.12,-77.68,-1.1,-3.9,260,10,,9.0,29.760826,1008.8,,,TRUE,,,,,,-SN,BKN,4200,OVC,5500,,,,,VFR,-0.9,0.0,-2.8,,,0.0050,,0.03,,18.0,,METAR,178.0
KSBN 120554Z AUTO 31012KT 6SM -SN FEW030 OVC038 M04/M09 A3003 RMK AO2 SLP178 P0000 60000 T10391089 11006 21039 50008 TSNO,KSBN,2015-02-12T05:54:00Z,41.7,-86.32,-3.9,-8.9,310,12,,6.0,30.029528,1017.8,,TRUE,TRUE,,,TRUE,,,-SN,FEW,3000,OVC,3800,,,,,VFR,0.8,-0.6,-3.9,,,0.0050,,0.0050,,,,METAR,237.0
KSBY 120554Z AUTO 18004KT 10SM FEW110 M01/M04 A2993 RMK AO2 SLP138 T10111039 10000 21017 58016,KSBY,2015-02-12T05:54:00Z,38.33,-75.5,-1.1,-3.9,180,4,,10.0,29.929134,1013.8,,TRUE,TRUE,,,,,,,FEW,11000,,,,,,,VFR,-1.6,0.0,-1.7,,,,,,,,,METAR,19.0
KRST 120554Z 34022G31KT 10SM FEW017 SCT023 M17/M21 A3035 RMK AO2 PK WND 34031/0546 UPE05B15E42SNB05E15 SLP309 P0000 60000 T11671206 11117 21167 400061167 53033,KRST,2015-02-12T05:54:00Z,43.9,-92.5,-16.7,-20.6,340,22,31,10.0,30.351377,1030.9,,,TRUE,,,,,,,FEW,1700,SCT,2300,,,,,VFR,3.3,-11.7,-16.7,0.6,-16.7,0.0050,,0.0050,,,,METAR,403.0
KRQB 120554Z AUTO 35012G17KT 7SM -SN BKN026 OVC049 M09/M12 A2998 RMK AO2 T10901125 11029 21090 410071090,KRQB,2015-02-12T05:54:00Z,43.72,-85.5,-9.0,-12.5,350,12,17,7.0,29.97933,,,TRUE,TRUE,,,,,,-SN,BKN,2600,OVC,4900,,,,,MVFR,,-2.9,-9.0,-0.7,-9.0,,,,,,,METAR,302.0
KSET 120554Z AUTO 31009KT 10SM CLR M03/M07 A3027 RMK AO2 SLP254 T10281072 10000 21028 400561033 50004,KSET,2015-02-12T05:54:00Z,38.93,-90.43,-2.8,-7.2,310,9,,10.0,30.268702,1025.4,,TRUE,TRUE,,,,,,,CLR,,,,,,,,VFR,0.4,0.0,-2.8,5.6,-3.3,,,,,,,METAR,134.0
KVTA 120554Z AUTO 31009KT 6SM BR FEW015 BKN025 OVC029 00/M02 A2993 RMK AO2 FZRAB14E37 SLP141 P0000 60000 I1002 I6002 T00001022 10022 20000 56009,KVTA,2015-02-12T05:54:00Z,40.02,-82.47,0.0,-2.2,310,9,,6.0,29.929134,1014.1,,TRUE,TRUE,,,,,,BR,FEW,1500,BKN,2500,OVC,2900,,,MVFR,-0.9,2.2,0.0,,,0.0050,,0.0050,,,,METAR,268.0
KVSF 120554Z AUTO 28004KT 7SM BKN110 M14/M16 A2986 RMK AO2 SLP125 T11391156 11094 21139 58013 TSNO,KVSF,2015-02-12T05:54:00Z,43.35,-72.52,-13.9,-15.6,280,4,,7.0,29.861221,1012.5,,TRUE,TRUE,,,TRUE,,,,BKN,11000,,,,,,,VFR,-1.3,-9.4,-13.9,,,,,,,,,METAR,175.0
KWAL 120554Z AUTO 24004KT 9SM CLR M03/M04 A2995 RMK AO2 SLP139 T10281039 11011 21044 57010,KWAL,2015-02-12T05:54:00Z,37.93,-75.47,-2.8,-3.9,240,4,,9.0,29.949802,1013.9,,TRUE,TRUE,,,,,,,CLR,,,,,,,,VFR,-1.0,-1.1,-4.4,,,,,,,,,METAR,14.0
KWLD 120554Z AUTO 00000KT 10SM CLR M06/M08 A3044 RMK AO2 SLP319 T10561083 10017 21056 400781056 50012,KWLD,2015-02-12T05:54:00Z,37.17,-97.03,-5.6,-8.3,0,0,,10.0,30.43996,1031.9,,TRUE,TRUE,,,,,,,CLR,,,,,,,,VFR,1.2,1.7,-5.6,7.8,-5.6,,,,,,,METAR,350.0
KACY 120554Z 00000KT 10SM FEW120 M04/M07 A2991 RMK AO2 SLP129 T10441067 11033 21067 58014,KACY,2015-02-12T05:54:00Z,39.45,-74.57,-4.4,-6.7,0,0,,10.0,29.911417,1012.9,,,TRUE,,,,,,,FEW,12000,,,,,,,VFR,-1.4,-3.3,-6.7,,,,,,,,,METAR,23.0
K04W 120554Z AUTO 35010G15KT 10SM CLR M17/M21 A3046 RMK AO2,K04W,2015-02-12T05:54:00Z,46.02,-92.9,-17.0,-21.0,350,10,15,10.0,30.46063,,,TRUE,TRUE,,,,,,,CLR,,,,,,,,VFR,,,,,,,,,,,,METAR,311.0
EGUL 120554Z AUTO 01001KT 9999 OVC024 02/02 A3013 RMK AO2 UPE0507B0545E0554 VISNO RWY06 CHINO RWY06 $,EGUL,2015-02-12T05:54:00Z,52.42,0.57,2.0,2.0,10,1,,6.21,30.129921,,,TRUE,TRUE,TRUE,,,,,,OVC,2400,,,,,,,MVFR,,,,,,,,,,,,METAR,10.0
KLEX 120554Z 29013G17KT 9SM BKN010 OVC014 01/M01 A3004 RMK AO2 CIG 008V013 SLP178 T00061011 10061 20006 58002,KLEX,2015-02-12T05:54:00Z,38.03,-84.6,0.6,-1.1,290,13,17,9.0,30.041338,1017.8,,,TRUE,,,,,,,BKN,1000,OVC,1400,,,,,MVFR,-0.2,6.1,0.6,,,,,,,,,METAR,300.0
KLNK 120554Z AUTO 36022G26KT 10SM BKN033 M06/M11 A3052 RMK AO2 PK WND 36030/0521 SLP352 T10561106 11006 21056 400391056 53031,KLNK,2015-02-12T05:54:00Z,40.85,-96.77,-5.6,-10.6,360,22,26,10.0,30.519686,1035.2,,TRUE,TRUE,,,,,,,BKN,3300,,,,,,,VFR,3.1,-0.6,-5.6,3.9,-5.6,,,,,,,METAR,364.0
KLMO 120554Z AUTO 00000KT 10SM CLR M01/M05 A3036 RMK AO2 T10111048,KLMO,2015-02-12T05:54:00Z,40.17,-105.17,-1.1,-4.8,0,0,,10.0,30.360237,,,TRUE,TRUE,,,,,,,CLR,,,,,,,,VFR,,,,,,,,,,,,METAR,1541.0
PHMK 120554Z AUTO 32003KT 10SM SCT035 OVC050 20/16 A2994 RMK AO2 RAB20E36 SLP143 P0000 60002 T02000156 10256 20200 51018 TSNO,PHMK,2015-02-12T05:54:00Z,21.15,-157.1,20.0,15.6,320,3,,10.0,29.940945,1014.3,,TRUE,TRUE,,,TRUE,,,,SCT,3500,OVC,5000,,,,,VFR,1.8,25.6,20.0,,,0.0050,,0.02,,,,METAR,141.0
PHOG 120554Z 34009KT 10SM SCT070 23/16 A2993 RMK AO2 SLP139 T02280156 10283 20228 53021 $,PHOG,2015-02-12T05:54:00Z,20.9,-156.43,22.8,15.6,340,9,,10.0,29.929134,1013.9,,,TRUE,TRUE,,,,,,SCT,7000,,,,,,,VFR,2.1,28.3,22.8,,,,,,,,,METAR,12.0
PGSN 120554Z 02012G20KT 10SM CLR 28/16 A2982 RMK AO2 SLP118 6//// T02780156 10294 20278 56012,PGSN,2015-02-12T05:54:00Z,15.12,145.72,27.8,15.6,20,12,20,10.0,29.819881,1011.8,,,TRUE,,,,,,,CLR,,,,,,,,VFR,-1.2,29.4,27.8,,,,,,,,,METAR,65.0
KCOS 120554Z 00000KT 10SM CLR M02/M04 A3040 RMK AO2 SLP317 T10171039 10050 21022 50005,KCOS,2015-02-12T05:54:00Z,38.82,-104.68,-1.7,-3.9,0,0,,10.0,30.398623,1031.7,,,TRUE,,,,,,,CLR,,,,,,,,VFR,0.5,5.0,-2.2,,,,,,,,,METAR,1856.0
KCOU 120554Z AUTO 31014KT 10SM OVC060 M02/M07 A3032 RMK AO2 SLP274 T10221067 10000 21033 400441033 50004 $,KCOU,2015-02-12T05:54:00Z,38.82,-92.22,-2.2,-6.7,310,14,,10.0,30.318897,1027.4,,TRUE,TRUE,TRUE,,,,,,OVC,6000,,,,,,,VFR,0.4,0.0,-3.3,4.4,-3.3,,,,,,,METAR,271.0
KNKT 120554Z 13003KT 7SM CLR M02/M03 A3000 RMK AO2 SLP155 I1000 I6000 T10171033 10022 21022 58008 $,KNKT,2015-02-12T05:54:00Z,34.9,-76.88,-1.7,-3.3,130,3,,7.0,30.0,1015.5,,,TRUE,TRUE,,,,,,CLR,,,,,,,,VFR,-0.8,2.2,-2.2,,,,,,,,,METAR,9.0
K1V4 120554Z AUTO M13/M16 A2981 RMK AO1 SLP114 T11331156 11089 21139 56013,K1V4,2015-02-12T05:54:00Z,44.42,-72.02,-13.3,-15.6,,,,,29.811024,1011.4,,TRUE,TRUE,,,,,,,,,,,,,,,,-1.3,-8.9,-13.9,,,,,,,,,METAR,210.0
KMQE 120554Z AUTO 31006KT M09/M13 A2986 RMK AO1 SLP133 T10941133 11083 21094 56018,KMQE,2015-02-12T05:54:00Z,42.22,-71.12,-9.4,-13.3,310,6,,,29.861221,1013.3,,TRUE,TRUE,,,,,,,,,,,,,,,,-1.8,-8.3,-9.4,,,,,,,,,METAR,199.0
K12N 120554Z AUTO 00000KT M04/M09 A2986 RMK AO1 SLP124 T10391094 11039 21089 56015,K12N,2015-02-12T05:54:00Z,41.02,-74.73,-3.9,-9.4,0,0,,,29.861221,1012.4,,TRUE,TRUE,,,,,,,,,,,,,,,,-1.5,-3.9,-8.9,,,,,,,,,METAR,177.0
KCRW 120554Z 24004KT 10SM SCT027 OVC034 02/M02 A2995 RMK AO2 SLP147 T00171022 10022 20011 58019,KCRW,2015-02-12T05:54:00Z,38.38,-81.58,1.7,-2.2,240,4,,10.0,29.949802,1014.7,,,TRUE,,,,,,,SCT,2700,OVC,3400,,,,,VFR,-1.9,2.2,1.1,,,,,,,,,METAR,309.0
KCVX 120554Z AUTO 34018G25KT 5SM HZ BKN027 OVC035 M11/M16 A3004 RMK AO2 T11101156 11067 21110 410201110,KCVX,2015-02-12T05:54:00Z,45.3,-85.27,-11.0,-15.6,340,18,25,5.0,30.041338,,,TRUE,TRUE,,,,,,HZ,BKN,2700,OVC,3500,,,,,MVFR,,-6.7,-11.0,-2.0,-11.0,,,,,,,METAR,204.0
KDDH 120554Z AUTO 00000KT 10SM BKN100 M09/M15 A2979 RMK AO2 SLP101 T10891150 11050 21122 58016,KDDH,2015-02-12T05:54:00Z,42.9,-73.25,-8.9,-15.0,0,0,,10.0,29.790354,1010.1,,TRUE,TRUE,,,,,,,BKN,10000,,,,,,,VFR,-1.6,-5.0,-12.2,,,,,,,,,METAR,244.0
KDEC 120554Z AUTO 31009KT 10SM CLR M06/M09 A3019 RMK AO2 SLP229 T10561094 11011 21056 400331056 58001 TSNO,KDEC,2015-02-12T05:54:00Z,39.83,-88.85,-5.6,-9.4,310,9,,10.0,30.188976,1022.9,,TRUE,TRUE,,,TRUE,,,,CLR,,,,,,,,VFR,-0.1,-1.1,-5.6,3.3,-5.6,,,,,,,METAR,207.0
KDRM 120554Z AUTO 01011G19KT 7SM SCT013 BKN085 OVC110 M14/M18 A2993 RMK AO2 T11411180,KDRM,2015-02-12T05:54:00Z,46.0,-83.75,-14.1,-18.0,10,11,19,7.0,29.929134,,,TRUE,TRUE,,,,,,,SCT,1300,BKN,8500,OVC,11000,,,VFR,,,,,,,,,,,,METAR,204.0
KDSM 120554Z 35022G29KT 10SM FEW020 FEW040 M11/M19 A3044 RMK AO2 PK WND 33033/0523 SNE40 SLP323 4/001 P0000 60000 T11061194 11033 21106 400391106 53037,KDSM,2015-02-12T05:54:00Z,41.53,-93.67,-10.6,-19.4,350,22,29,10.0,30.43996,1032.3,,,TRUE,,,,,,,FEW,2000,FEW,4000,,,,,VFR,3.7,-3.3,-10.6,3.9,-10.6,0.0050,,0.0050,,1.0,,METAR,295.0
KDSV 120554Z AUTO 31010KT 10SM OVC023 01/M04 A2976 RMK AO2 SLP095 60003 T00061039 10011 21011 56012,KDSV,2015-02-12T05:54:00Z,42.57,-77.72,0.6,-3.9,310,10,,10.0,29.760826,1009.5,,TRUE,TRUE,,,,,,,OVC,2300,,,,,,,MVFR,-1.2,1.1,-1.1,,,,,0.03,,,,METAR,198.0
KDYL 120554Z AUTO 16003KT 10SM SCT095 SCT120 M04/M07 A2988 RMK AO2 SLP126 T10391067 11028 21039 58016,KDYL,2015-02-12T05:54:00Z,40.33,-75.12,-3.9,-6.7,160,3,,10.0,29.878937,1012.6,,TRUE,TRUE,,,,,,,SCT,9500,SCT,12000,,,,,VFR,-1.6,-2.8,-3.9,,,,,,,,,METAR,117.0
KDUH 120554Z AUTO 27007KT 10SM OVC060 M01/M06 A2994 RMK AO2,KDUH,2015-02-12T05:54:00Z,41.73,-83.65,-1.0,-6.0,270,7,,10.0,29.940945,,,TRUE,TRUE,,,,,,,OVC,6000,,,,,,,VFR,,,,,,,,,,,,METAR,204.0
KECG 120554Z 16004KT 10SM CLR M01/M03 A2997 RMK AO2 SLP147 T10061028 10017 21028 58013 $,KECG,2015-02-12T05:54:00Z,36.27,-76.18,-0.6,-2.8,160,4,,10.0,29.970472,1014.7,,,TRUE,TRUE,,,,,,CLR,,,,,,,,VFR,-1.3,1.7,-2.8,,,,,,,,,METAR,11.0
KEIK 120554Z AUTO 18003KT 10SM CLR 00/M02 A3034 RMK AO2 T10021022,KEIK,2015-02-12T05:54:00Z,40.02,-105.05,-0.2,-2.2,180,3,,10.0,30.339567,,,TRUE,TRUE,,,,,,,CLR,,,,,,,,VFR,,,,,,,,,,,,METAR,1564.0
KGCN 120554Z 00000KT 10SM CLR M02/M06 A3039 RMK AO2 SLP275 T10221061 10094 21022 53007,KGCN,2015-02-12T05:54:00Z,35.95,-112.15,-2.2,-6.1,0,0,,10.0,30.389763,1027.5,,,TRUE,,,,,,,CLR,,,,,,,,VFR,0.7,9.4,-2.2,,,,,,,,,METAR,2016.0
KGED 120554Z AUTO 19005KT 10SM BKN110 M02/M04 A2992 RMK AO2 SLP133 T10221044 11011 21039 58018,KGED,2015-02-12T05:54:00Z,38.68,-75.37,-2.2,-4.4,190,5,,10.0,29.920275,1013.3,,TRUE,TRUE,,,,,,,BKN,11000,,,,,,,VFR,-1.8,-1.1,-3.9,,,,,,,,,METAR,19.0
KGSO 120554Z 22005KT 10SM CLR 03/M01 A2990 RMK AO2 SLP127 T00331011 10083 20022 58010 $,KGSO,2015-02-12T05:54:00Z,36.1,-79.95,3.3,-1.1,220,5,,10.0,29.899607,1012.7,,,TRUE,TRUE,,,,,,CLR,,,,,,,,VFR,-1.0,8.3,2.2,,,,,,,,,METAR,275.0
KAPN 120554Z AUTO 29009G16KT 10SM FEW025 FEW032 BKN042 M12/M16 A2990 RMK AO2 SLP139 T11171161 11044 21117 51003,KAPN,2015-02-12T05:54:00Z,45.07,-83.57,-11.7,-16.1,290,9,16,10.0,29.899607,1013.9,,TRUE,TRUE,,,,,,,FEW,2500,FEW,3200,BKN,4200,,,VFR,0.3,-4.4,-11.7,,,,,,,,,METAR,210.0
KHAI 120554Z AUTO 30009KT 7SM -SN SCT013 SCT022 OVC050 M04/M07 A2998 RMK AO2 T10391068,KHAI,2015-02-12T05:54:00Z,41.97,-85.6,-3.9,-6.8,300,9,,7.0,29.97933,,,TRUE,TRUE,,,,,,-SN,SCT,1300,SCT,2200,OVC,5000,,,VFR,,,,,,,,,,,,METAR,251.0
KCAR 120554Z AUTO 00000KT 10SM CLR M18/M24 A2994 RMK AO2 SLP159 T11831244 11150 21194 58013,KCAR,2015-02-12T05:54:00Z,46.87,-68.02,-18.3,-24.4,0,0,,10.0,29.940945,1015.9,,TRUE,TRUE,,,,,,,CLR,,,,,,,,VFR,-1.3,-15.0,-19.4,,,,,,,,,METAR,191.0
KBWI 120554Z 00000KT 10SM BKN070 01/M06 A2989 RMK AO2 SLP122 T00061056 10011 20000 58015,KBWI,2015-02-12T05:54:00Z,39.17,-76.68,0.6,-5.6,0,0,,10.0,29.890747,1012.2,,,TRUE,,,,,,,BKN,7000,,,,,,,VFR,-1.5,1.1,0.0,,,,,,,,,METAR,59.0
KBUY 120554Z AUTO 00000KT 10SM CLR 00/M02 A2991 RMK AO2 SLP131 T00001022 10078 20000 58012,KBUY,2015-02-12T05:54:00Z,36.05,-79.47,0.0,-2.2,0,0,,10.0,29.911417,1013.1,,TRUE,TRUE,,,,,,,CLR,,,,,,,,VFR,-1.2,7.8,0.0,,,,,,,,,METAR,180.0
KBUF 120554Z 27007KT 7SM -SN FEW010 BKN014 OVC050 M02/M04 A2977 RMK AO2 SLP089 4/021 P0000 60002 I6000 T10221044 11006 21022 58008,KBUF,2015-02-12T05:54:00Z,42.93,-78.73,-2.2,-4.4,270,7,,7.0,29.769686,1008.9,,,TRUE,,,,,,-SN,FEW,1000,BKN,1400,OVC,5000,,,MVFR,-0.8,-0.6,-2.2,,,0.0050,,0.02,,21.0,,METAR,211.0
KBTV 120554Z 13003KT 10SM SCT075 OVC090 M09/M14 A2978 RMK AO2 SLP090 T10891139 11067 21117 58017,KBTV,2015-02-12T05:54:00Z,44.47,-73.15,-8.9,-13.9,130,3,,10.0,29.778543,1009.0,,,TRUE,,,,,,,SCT,7500,OVC,9000,,,,,VFR,-1.7,-6.7,-11.7,,,,,,,,,METAR,105.0
KBOS 120554Z 30011KT 10SM OVC027 M08/M13 A2992 RMK AO2 SLP132 T10831128 11061 21083 56019,KBOS,2015-02-12T05:54:00Z,42.37,-71.02,-8.3,-12.8,300,11,,10.0,29.920275,1013.2,,,TRUE,,,,,,,OVC,2700,,,,,,,MVFR,-1.9,-6.1,-8.3,,,,,,,,,METAR,6.0
KBJC 120554Z AUTO 23004KT 10SM CLR 01/M01 A3035 RMK AO2,KBJC,2015-02-12T05:54:00Z,39.9,-105.1,1.0,-1.0,230,4,,10.0,30.351377,,,TRUE,TRUE,,,,,,,CLR,,,,,,,,VFR,,,,,,,,,,,,METAR,1724.0
KPNE 120554Z VRB03KT 10SM SCT100 M02/M08 A2992 RMK AO2 SLP133 T10171078 10006 21017 56020,KPNE,2015-02-12T05:54:00Z,40.08,-75.02,-1.7,-7.8,0,3,,10.0,29.920275,1013.3,,,TRUE,,,,,,,SCT,10000,,,,,,,VFR,-2.0,0.6,-1.7,,,,,,,,,METAR,28.0
KLDM 120554Z AUTO 36016G25KT 3SM -SN SCT019 BKN028 OVC034 M08/M13 A3006 RMK AO2 T10771126,KLDM,2015-02-12T05:54:00Z,43.97,-86.4,-7.7,-12.6,360,16,25,3.0,30.059055,,,TRUE,TRUE,,,,,,-SN,SCT,1900,BKN,2800,OVC,3400,,,MVFR,,,,,,,,,,,,METAR,197.0
KLBT 120554Z AUTO 15003KT 10SM CLR 03/01 A2996 RMK AO2 SLP146 T00280006 10061 20017 58009,KLBT,2015-02-12T05:54:00Z,34.6,-79.07,2.8,0.6,150,3,,10.0,29.958662,1014.6,,TRUE,TRUE,,,,,,,CLR,,,,,,,,VFR,-0.9,6.1,1.7,,,,,,,,,METAR,37.0
KLAF 120554Z AUTO 29016G22KT 10SM FEW034 M07/M11 A3011 RMK AO2 SLP203 T10671106 11011 21067 51006 TSNO,KLAF,2015-02-12T05:54:00Z,40.42,-86.93,-6.7,-10.6,290,16,22,10.0,30.109253,1020.3,,TRUE,TRUE,,,TRUE,,,,FEW,3400,,,,,,,VFR,0.6,-1.1,-6.7,,,,,,,,,METAR,182.0
KJYM 120554Z AUTO 30010G15KT 2SM -SN SCT009 BKN016 OVC029 M04/M05 A2992 RMK AO2 VIS 1V4 T10381051,KJYM,2015-02-12T05:54:00Z,41.92,-84.58,-3.8,-5.1,300,10,15,2.0,29.920275,,,TRUE,TRUE,,,,,,-SN,SCT,900,BKN,1600,OVC,2900,,,IFR,,,,,,,,,,,,METAR,360.0
KJST 120554Z AUTO 26013G23KT 6SM BR OVC007 M02/M03 A2976 RMK AO2 SLP104 60000 I1000 I6000 T10171033 10000 21017 58014,KJST,2015-02-12T05:54:00Z,40.32,-78.83,-1.7,-3.3,260,13,23,6.0,29.760826,1010.4,,TRUE,TRUE,,,,,,BR,OVC,700,,,,,,,IFR,-1.4,0.0,-1.7,,,,,0.0050,,,,METAR,694.0
KJAN 120554Z AUTO 34006KT 10SM CLR 09/03 A3016 RMK AO2 SLP210 T00890028 10150 20083 402001011 50006,KJAN,2015-02-12T05:54:00Z,32.32,-90.08,8.9,2.8,340,6,,10.0,30.159449,1021.0,,TRUE,TRUE,,,,,,,CLR,,,,,,,,VFR,0.6,15.0,8.3,20.0,-1.1,,,,,,,METAR,91.0
KIZG 120554Z AUTO 00000KT 10SM CLR M18/M21 A2990 RMK AO2 SLP136 T11781206 11117 21194 58019,KIZG,2015-02-12T05:54:00Z,43.98,-70.95,-17.8,-20.6,0,0,,10.0,29.899607,1013.6,,TRUE,TRUE,,,,,,,CLR,,,,,,,,VFR,-1.9,-11.7,-19.4,,,,,,,,,METAR,135.0
KIND 120554Z 30014G22KT 10SM OVC023 M04/M09 A3009 RMK AO2 PK WND 28026/0503 SLP196 60001 I6000 T10391089 11006 21039 53001,KIND,2015-02-12T05:54:00Z,39.72,-86.3,-3.9,-8.9,300,14,22,10.0,30.088583,1019.6,,,TRUE,,,,,,,OVC,2300,,,,,,,MVFR,0.1,-0.6,-3.9,,,,,0.01,,,,METAR,241.0
KIMT 120554Z AUTO 33012G23KT 9SM CLR M16/M21 A3015 RMK AO2 SLP235 60000 T11561211 11106 21156 410281156 51030,KIMT,2015-02-12T05:54:00Z,45.82,-88.12,-15.6,-21.1,330,12,23,9.0,30.15059,1023.5,,TRUE,TRUE,,,,,,,CLR,,,,,,,,VFR,3.0,-10.6,-15.6,-2.8,-15.6,,,0.0050,,,,METAR,349.0
KILN 120554Z AUTO 28010G17KT 9SM SCT014 OVC027 M01/M03 A2997 RMK AO2 SLP174 60000 I6000 T10111033 10022 21011 56002,KILN,2015-02-12T05:54:00Z,39.43,-83.8,-1.1,-3.3,280,10,17,9.0,29.970472,1017.4,,TRUE,TRUE,,,,,,,SCT,1400,OVC,2700,,,,,MVFR,-0.2,2.2,-1.1,,,,,0.0050,,,,METAR,322.0
KHWD 120554Z AUTO 07004KT 10SM CLR 15/09 A3018 RMK AO2 SLP229 T01500089 10189 20150 51012,KHWD,2015-02-12T05:54:00Z,37.67,-122.12,15.0,8.9,70,4,,10.0,30.180119,1022.9,,TRUE,TRUE,,,,,,,CLR,,,,,,,,VFR,1.2,18.9,15.0,,,,,,,,,METAR,21.0
KMOT 120554Z AUTO 00000KT 10SM CLR M22/M27 A3065 RMK AO2 SLP433 T12221267 11200 21239 411331239 56000,KMOT,2015-02-12T05:54:00Z,48.25,-101.27,-22.2,-26.7,0,0,,10.0,30.649607,1043.3,,TRUE,TRUE,,,,,,,CLR,,,,,,,,VFR,0.0,-20.0,-23.9,-13.3,-23.9,,,,,,,METAR,519.0
KMRY 120554Z 07003KT 10SM CLR 12/08 A3015 RMK AO2 SLP221 T01220078 10233 20122 51015,KMRY,2015-02-12T05:54:00Z,36.58,-121.85,12.2,7.8,70,3,,10.0,30.15059,1022.1,,,TRUE,,,,,,,CLR,,,,,,,,VFR,1.5,23.3,12.2,,,,,,,,,METAR,66.0
KMVL 120554Z AUTO 00000KT 10SM OVC100 M10/M14 A2979 RMK AO2 SLP102 T11001144 11089 21128 57013 TSNO,KMVL,2015-02-12T05:54:00Z,44.53,-72.62,-10.0,-14.4,0,0,,10.0,29.790354,1010.2,,TRUE,TRUE,,,TRUE,,,,OVC,10000,,,,,,,VFR,-1.3,-8.9,-12.8,,,,,,,,,METAR,234.0
KSJN 120554Z AUTO 09004KT 10SM CLR 02/M02 A3035 RMK AO2 SLP255 60000 T00221017 10083 20022 51004,KSJN,2015-02-12T05:54:00Z,34.52,-109.38,2.2,-1.7,90,4,,10.0,30.351377,1025.5,,TRUE,TRUE,,,,,,,CLR,,,,,,,,VFR,0.4,8.3,2.2,,,,,0.0050,,,,METAR,1745.0
KEUG 120554Z 22004KT 1SM R16R/2000VP6000FT BR FEW002 06/04 A3023 RMK AO2 SLP239 T00560044 10122 20050 51005,KEUG,2015-02-12T05:54:00Z,44.13,-123.22,5.6,4.4,220,4,,1.0,30.230314,1023.9,,,TRUE,,,,,,BR,FEW,200,,,,,,,IFR,0.5,12.2,5.0,,,,,,,,,METAR,114.0
KCKN 120554Z AUTO 03007KT 10SM CLR M23/M26 A3067 RMK AO2,KCKN,2015-02-12T05:54:00Z,47.85,-96.62,-23.0,-26.0,30,7,,10.0,30.670275,,,TRUE,TRUE,,,,,,,CLR,,,,,,,,VFR,,,,,,,,,,,,METAR,273.0
KCEU 120554Z AUTO 29005KT 10SM CLR 09/M03 A2994 RMK AO2 SLP135 T00891033 10122 20067 58009,KCEU,2015-02-12T05:54:00Z,34.67,-82.88,8.9,-3.3,290,5,,10.0,29.940945,1013.5,,TRUE,TRUE,,,,,,,CLR,,,,,,,,VFR,-0.9,12.2,6.7,,,,,,,,,METAR,268.0
KFZY 120554Z AUTO 00000KT 4SM UP BR OVC016 M04/M05 A2975 RMK AO2 UPB45FZRAE31 SLP082 P0000 60002 I1000 I6002 T10391050 11028 21044 58013,KFZY,2015-02-12T05:54:00Z,43.35,-76.38,-3.9,-5.0,0,0,,4.0,29.749016,1008.2,,TRUE,TRUE,,,,,,BR UP,OVC,1600,,,,,,,MVFR,-1.3,-2.8,-4.4,,,0.0050,,0.02,,,,METAR,138.0
KFWA 120554Z 27012KT 3SM -SN BKN020 BKN027 OVC034 M03/M06 A2999 RMK AO2 SLP163 P0000 60000 I6000 T10281056 10000 21028 56004,KFWA,2015-02-12T05:54:00Z,40.98,-85.18,-2.8,-5.6,270,12,,3.0,29.991142,1016.3,,,TRUE,,,,,,-SN,BKN,2000,BKN,2700,OVC,3400,,,MVFR,-0.4,0.0,-2.8,,,0.0050,,0.0050,,,,METAR,248.0
KFIG 120554Z AUTO 22005KT 6SM BR OVC014 M01/M02 A2978 RMK AO2 UPB38E47 SLP100 P0000 60000 I1001 I6001 T10061017 10006 21006 58015,KFIG,2015-02-12T05:54:00Z,41.05,-78.42,-0.6,-1.7,220,5,,6.0,29.778543,1010.0,,TRUE,TRUE,,,,,,BR,OVC,1400,,,,,,,MVFR,-1.5,0.6,-0.6,,,0.0050,,0.0050,,,,METAR,462.0
KEWN 120554Z AUTO 00000KT 8SM CLR M02/M04 A3000 RMK AO2 SLP157 T10221044 10028 21022 58009,KEWN,2015-02-12T05:54:00Z,35.07,-77.05,-2.2,-4.4,0,0,,8.0,30.0,1015.7,,TRUE,TRUE,,,,,,,CLR,,,,,,,,VFR,-0.9,2.8,-2.2,,,,,,,,,METAR,3.0
KEVV 120554Z AUTO 29007KT 10SM FEW027 M01/M06 A3019 RMK AO2 SLP227 T10111061 10044 21011 401061033 50001,KEVV,2015-02-12T05:54:00Z,38.05,-87.52,-1.1,-6.1,290,7,,10.0,30.188976,1022.7,,TRUE,TRUE,,,,,,,FEW,2700,,,,,,,VFR,0.1,4.4,-1.1,10.6,-3.3,,,,,,,METAR,117.0
KINT 120554Z AUTO 00000KT 10SM CLR 03/M02 A2992 RMK AO2 SLP133 T00281017 10094 20017 58009,KINT,2015-02-12T05:54:00Z,36.13,-80.22,2.8,-1.7,0,0,,10.0,29.920275,1013.3,,TRUE,TRUE,,,,,,,CLR,,,,,,,,VFR,-0.9,9.4,1.7,,,,,,,,,METAR,291.0
KGCK 120554Z AUTO 26007KT 10SM CLR M03/M08 A3040 RMK AO2 SLP313 T10331078 10067 21033 400941033 52001,KGCK,2015-02-12T05:54:00Z,37.92,-100.72,-3.3,-7.8,260,7,,10.0,30.398623,1031.3,,TRUE,TRUE,,,,,,,CLR,,,,,,,,VFR,0.1,6.7,-3.3,9.4,-3.3,,,,,,,METAR,877.0
KIPT 120554Z AUTO 00000KT 10SM OVC033 M01/M06 A2982 RMK AO2 SLP103 T10061056 10006 21011 58016,KIPT,2015-02-12T05:54:00Z,41.25,-76.92,-0.6,-5.6,0,0,,10.0,29.819881,1010.3,,TRUE,TRUE,,,,,,,OVC,3300,,,,,,,VFR,-1.6,0.6,-1.1,,,,,,,,,METAR,164.0
KI69 120554Z AUTO 28012G18KT 10SM UP OVC019 00/M02 A3001 RMK AO1,KI69,2015-02-12T05:54:00Z,39.08,-84.22,0.0,-2.0,280,12,18,10.0,30.008858,,,TRUE,TRUE,,,,,,UP,OVC,1900,,,,,,,MVFR,,,,,,,,,,,,METAR,255.0
KPTW 120554Z AUTO 00000KT 10SM SCT048 OVC070 M02/M06 A2990 RMK AO2 SLP125 T10221056 11017 21039 58012,KPTW,2015-02-12T05:54:00Z,40.23,-75.55,-2.2,-5.6,0,0,,10.0,29.899607,1012.5,,TRUE,TRUE,,,,,,,SCT,4800,OVC,7000,,,,,VFR,-1.2,-1.7,-3.9,,,,,,,,,METAR,92.0
KPSF 120554Z AUTO 00000KT 10SM SCT090 OVC110 M11/M14 A2979 RMK AO2 SLP108 T11111144 11072 21128 58013,KPSF,2015-02-12T05:54:00Z,42.43,-73.28,-11.1,-14.4,0,0,,10.0,29.790354,1010.8,,TRUE,TRUE,,,,,,,SCT,9000,OVC,11000,,,,,VFR,-1.3,-7.2,-12.8,,,,,,,,,METAR,355.0
KRKS 120554Z AUTO 22009KT 10SM CLR M02/M06 A3039 RMK AO2 SLP307 T10171061 10061 21017 58001,KRKS,2015-02-12T05:54:00Z,41.6,-109.07,-1.7,-6.1,220,9,,10.0,30.389763,1030.7,,TRUE,TRUE,,,,,,,CLR,,,,,,,,VFR,-0.1,6.1,-1.7,,,,,,,,,METAR,2060.0
KISQ 120554Z AUTO 35012G21KT 7SM CLR M13/M17 A3005 RMK AO2 T11331167,KISQ,2015-02-12T05:54:00Z,45.97,-86.17,-13.3,-16.7,350,12,21,7.0,30.050198,,,TRUE,TRUE,,,,,,,CLR,,,,,,,,VFR,,,,,,,,,,,,METAR,209.0
PAKN 120554Z 35005KT 10SM SCT030 BKN100 M01/M03 A2940 RMK AO2 SLP957 60000 I6000 T10111028 10011 21011 51010,PAKN,2015-02-12T05:54:00Z,58.68,-156.65,-1.1,-2.8,350,5,,10.0,29.40059,995.7,,,TRUE,,,,,,,SCT,3000,BKN,10000,,,,,VFR,1.0,1.1,-1.1,,,,,0.0050,,,,METAR,17.0
PAHN 120554Z AUTO 30013KT 3SM -SN BR OVC023 M02/M03 A2984 RMK AO2 UPB0457E52SNE0457B52 SLP107 P0000 60001 T10171033 11017 21039 51011 TSNO,PAHN,2015-02-12T05:54:00Z,59.25,-135.52,-1.7,-3.3,300,13,,3.0,29.840551,1010.7,,TRUE,TRUE,,,TRUE,,,-SN BR,OVC,2300,,,,,,,MVFR,1.1,-1.7,-3.9,,,0.0050,,0.01,,,,METAR,5.0
KMKC 120554Z 32008G14KT 10SM OVC060 M01/M07 A3041 RMK AO2 SLP302 T10061067 10000 21017 400561017 50004,KMKC,2015-02-12T05:54:00Z,39.12,-94.6,-0.6,-6.7,320,8,14,10.0,30.410433,1030.2,,,TRUE,,,,,,,OVC,6000,,,,,,,VFR,0.4,0.0,-1.7,5.6,-1.7,,,,,,,METAR,227.0
KMIV 120554Z AUTO 00000KT 10SM BKN120 M02/M05 A2991 RMK AO2 SLP128 T10221050 11022 21039 56019,KMIV,2015-02-12T05:54:00Z,39.37,-75.08,-2.2,-5.0,0,0,,10.0,29.911417,1012.8,,TRUE,TRUE,,,,,,,BKN,12000,,,,,,,VFR,-1.9,-2.2,-3.9,,,,,,,,,METAR,23.0
KMGJ 120554Z AUTO 00000KT 10SM BKN080 OVC095 M08/M12 A2985 RMK AO2 SLP113 T10831117 11067 21111 58017 TSNO,KMGJ,2015-02-12T05:54:00Z,41.52,-74.27,-8.3,-11.7,0,0,,10.0,29.84941,1011.3,,TRUE,TRUE,,,TRUE,,,,BKN,8000,OVC,9500,,,,,VFR,-1.7,-6.7,-11.1,,,,,,,,,METAR,108.0
KMFI 120554Z AUTO 33014KT 10SM CLR M14/M19 A3022 RMK AO2 SLP260 60000 T11391189 11100 21139 410331139 53031,KMFI,2015-02-12T05:54:00Z,,,-13.9,-18.9,330,14,,10.0,30.221457,1026.0,,TRUE,TRUE,,,,,,,CLR,,,,,,,,VFR,3.1,-10.0,-13.9,-3.3,-13.9,,,0.0050,,,,METAR,
KMEM 120554Z 01011KT 10SM FEW022 05/01 A3021 RMK AO2 SLP230 T00500006 10100 20050 401440000 51015,KMEM,2015-02-12T05:54:00Z,35.07,-89.98,5.0,0.6,10,11,,10.0,30.209646,1023.0,,,TRUE,,,,,,,FEW,2200,,,,,,,VFR,1.5,10.0,5.0,14.4,,,,,,,,METAR,86.0
KLYH 120554Z AUTO 23006KT 10SM CLR 04/M03 A2988 RMK AO2 SLP122 T00391033 10050 21017 57010 $,KLYH,2015-02-12T05:54:00Z,37.32,-79.2,3.9,-3.3,230,6,,10.0,29.878937,1012.2,,TRUE,TRUE,TRUE,,,,,,CLR,,,,,,,,VFR,-1.0,5.0,-1.7,,,,,,,,,METAR,295.0
KLWT 120554Z AUTO 12005KT 10SM CLR M02/M04 A3014 RMK AO2 SLP244 T10171044 11017 21033 58028,KLWT,2015-02-12T05:54:00Z,47.03,-109.47,-1.7,-4.4,120,5,,10.0,30.138779,1024.4,,TRUE,TRUE,,,,,,,CLR,,,,,,,,VFR,-2.8,-1.7,-3.3,,,,,,,,,METAR,1270.0
KLWM 120554Z 00000KT 10SM CLR M16/M18 A2994 RMK AO2 SLP140 I6000 T11561178 11089 21167 56020,KLWM,2015-02-12T05:54:00Z,42.72,-71.13,-15.6,-17.8,0,0,,10.0,29.940945,1014.0,,,TRUE,,,,,,,CLR,,,,,,,,VFR,-2.0,-8.9,-16.7,,,,,,,,,METAR,54.0
KAVP 120554Z 23003KT 10SM BKN027 BKN045 OVC055 M01/M07 A2980 RMK AO2 SLP098 T10061072 10000 21011 56016,KAVP,2015-02-12T05:54:00Z,41.33,-75.72,-0.6,-7.2,230,3,,10.0,29.799213,1009.8,,,TRUE,,,,,,,BKN,2700,BKN,4500,OVC,5500,,,MVFR,-1.6,0.0,-1.1,,,,,,,,,METAR,291.0
KAVL 120554Z AUTO 33013KT 10SM CLR 05/M02 A2995 RMK AO2 SLP140 T00501022 10094 20044 58008,KAVL,2015-02-12T05:54:00Z,35.43,-82.53,5.0,-2.2,330,13,,10.0,29.949802,1014.0,,TRUE,TRUE,,,,,,,CLR,,,,,,,,VFR,-0.8,9.4,4.4,,,,,,,,,METAR,670.0
KAUW 120554Z AUTO 36011G18KT 10SM FEW015 BKN035 OVC042 M13/M18 A3019 RMK AO2 SNB19E40 SLP250 P0000 60000 T11331183 11083 21133 410331133 53028,KAUW,2015-02-12T05:54:00Z,44.93,-89.62,-13.3,-18.3,360,11,18,10.0,30.188976,1025.0,,TRUE,TRUE,,,,,,,FEW,1500,BKN,3500,OVC,4200,,,VFR,2.8,-8.3,-13.3,-3.3,-13.3,0.0050,,0.0050,,,,METAR,362.0
KAPC 120554Z AUTO 00000KT 10SM CLR 09/08 A3019 RMK AO2 SLP215 T00940078 10172 20089 51011,KAPC,2015-02-12T05:54:00Z,38.2,-122.28,9.4,7.8,0,0,,10.0,30.188976,1021.5,,TRUE,TRUE,,,,,,,CLR,,,,,,,,VFR,1.1,17.2,8.9,,,,,,,,,METAR,13.0
KALO 120554Z 33024G35KT 10SM BKN030 OVC060 M14/M19 A3037 RMK AO2 PK WND 32036/0538 SLP301 60000 T11441189 11078 21144 400171144 51029,KALO,2015-02-12T05:54:00Z,42.55,-92.4,-14.4,-18.9,330,24,35,10.0,30.369095,1030.1,,,TRUE,,,,,,,BKN,3000,OVC,6000,,,,,MVFR,2.9,-7.8,-14.4,1.7,-14.4,,,0.0050,,,,METAR,264.0
KAKR 120554Z AUTO 30009KT 9SM SCT018 BKN024 OVC038 M01/M04 A2987 RMK AO2 SLP125 60000 I6011 T10061039 10011 21006 58002 $,KAKR,2015-02-12T05:54:00Z,41.03,-81.47,-0.6,-3.9,300,9,,9.0,29.870079,1012.5,,TRUE,TRUE,TRUE,,,,,,SCT,1800,BKN,2400,OVC,3800,,,MVFR,-0.2,1.1,-0.6,,,,,0.0050,,,,METAR,363.0
KAKQ 120554Z AUTO 18004KT 10SM CLR M01/M03 A2994 RMK AO2 SLP140 T10061033 10017 21017 57015 TSNO,KAKQ,2015-02-12T05:54:00Z,36.98,-77.0,-0.6,-3.3,180,4,,10.0,29.940945,1014.0,,TRUE,TRUE,,,TRUE,,,,CLR,,,,,,,,VFR,-1.5,1.7,-1.7,,,,,,,,,METAR,34.0
KAKH 120554Z AUTO 00000KT 10SM CLR 04/00 A2993 RMK AO2 SLP136 T00390000 10083 20022 56011,KAKH,2015-02-12T05:54:00Z,35.2,-81.15,3.9,0.0,0,0,,10.0,29.929134,1013.6,,TRUE,TRUE,,,,,,,CLR,,,,,,,,VFR,-1.1,8.3,2.2,,,,,,,,,METAR,243.0
KAAO 120554Z AUTO 36005KT 10SM CLR M02/M08 A3042 RMK AO2 SLP315 T10221078 10017 21039 400501039 51011,KAAO,2015-02-12T05:54:00Z,37.75,-97.22,-2.2,-7.8,360,5,,10.0,30.41929,1031.5,,TRUE,TRUE,,,,,,,CLR,,,,,,,,VFR,1.1,1.7,-3.9,5.0,-3.9,,,,,,,METAR,434.0
K7BM 120554Z AUTO 28003KT 10SM CLR M01/M11 A3042 RMK AO2,K7BM,2015-02-12T05:54:00Z,38.78,-106.22,-1.0,-11.0,280,3,,10.0,30.41929,,,TRUE,TRUE,,,,,,,CLR,,,,,,,,VFR,,,,,,,,,,,,METAR,2995.0
KDMH 120554Z AUTO 01/M06 A2990 RMK AO1 SLP124 T00111056 10022 20011 58014,KDMH,2015-02-12T05:54:00Z,39.28,-76.62,1.1,-5.6,,,,,29.899607,1012.4,,TRUE,TRUE,,,,,,,,,,,,,,,,-1.4,2.2,1.1,,,,,,,,,METAR,5.0
KMZH 120554Z AUTO 35007G14KT 10SM CLR M18/M22 A3044 RMK AO2,KMZH,2015-02-12T05:54:00Z,46.42,-92.8,-18.0,-22.0,350,7,14,10.0,30.43996,,,TRUE,TRUE,,,,,,,CLR,,,,,,,,VFR,,,,,,,,,,,,METAR,328.0
KONZ 120554Z AUTO 27008KT 10SM OVC060 M02/M06 A2990 RMK AO2,KONZ,2015-02-12T05:54:00Z,42.1,-83.15,-2.0,-6.0,270,8,,10.0,29.899607,,,TRUE,TRUE,,,,,,,OVC,6000,,,,,,,VFR,,,,,,,,,,,,METAR,180.0
KBKB 120554Z AUTO 00000KT 10SM CLR 10/06 A3014 RMK AO2 SLP233 T01000061 10183 20100 402560039 51008,KBKB,2015-02-12T05:54:00Z,31.0,-92.92,10.0,6.1,0,0,,10.0,30.138779,1023.3,,TRUE,TRUE,,,,,,,CLR,,,,,,,,VFR,0.8,18.3,10.0,25.6,3.9,,,,,,,METAR,94.0
KMVE 120554Z AUTO 01014KT 10SM CLR M20/M23 A3061 RMK AO2,KMVE,2015-02-12T05:54:00Z,44.97,-95.72,-20.0,-23.0,10,14,,10.0,30.611221,,,TRUE,TRUE,,,,,,,CLR,,,,,,,,VFR,,,,,,,,,,,,METAR,315.0
KLXL 120554Z AUTO 33007KT 10SM CLR M19/M23 A3053 RMK AO2,KLXL,2015-02-12T05:54:00Z,45.95,-94.33,-19.0,-23.0,330,7,,10.0,30.528543,,,TRUE,TRUE,,,,,,,CLR,,,,,,,,VFR,,,,,,,,,,,,METAR,342.0
KGYL 120554Z AUTO 34013G21KT 10SM CLR M17/M20 A3051 RMK AO2 T11661202 11125 21166 410301166,KGYL,2015-02-12T05:54:00Z,44.77,-94.08,-16.6,-20.2,340,13,21,10.0,30.510826,,,TRUE,TRUE,,,,,,,CLR,,,,,,,,VFR,,-12.5,-16.6,-3.0,-16.6,,,,,,,METAR,302.0
KFGN 120554Z AUTO 32012KT 10SM CLR M26/M28 A3061 RMK AO2,KFGN,2015-02-12T05:54:00Z,49.32,-94.9,-26.0,-28.0,320,12,,10.0,30.611221,,,TRUE,TRUE,,,,,,,CLR,,,,,,,,VFR,,,,,,,,,,,,METAR,328.0
KFFM 120554Z AUTO 02008G16KT 10SM CLR M21/M26 A3064 RMK AO2,KFFM,2015-02-12T05:54:00Z,46.28,-96.15,-21.0,-26.0,20,8,16,10.0,30.640747,,,TRUE,TRUE,,,,,,,CLR,,,,,,,,VFR,,,,,,,,,,,,METAR,361.0
KFBL 120554Z AUTO 32017G22KT 10SM CLR M17/M21 A3045 RMK AO2,KFBL,2015-02-12T05:54:00Z,44.33,-93.32,-17.0,-21.0,320,17,22,10.0,30.448818,,,TRUE,TRUE,,,,,,,CLR,,,,,,,,VFR,,,,,,,,,,,,METAR,322.0
KDYT 120554Z AUTO 35015G20KT 10SM CLR M17/M22 A3049 RMK AO2,KDYT,2015-02-12T05:54:00Z,46.72,-92.03,-17.0,-22.0,350,15,20,10.0,30.490158,,,TRUE,TRUE,,,,,,,CLR,,,,,,,,VFR,,,,,,,,,,,,METAR,186.0
KBFW 120554Z AUTO 34009G14KT 320V020 10SM CLR M18/M23 A3038 RMK AO2,KBFW,2015-02-12T05:54:00Z,47.25,-91.4,-18.0,-23.0,340,9,14,10.0,30.380905,,,TRUE,TRUE,,,,,,,CLR,,,,,,,,VFR,,,,,,,,,,,,METAR,331.0
KBBB 120554Z AUTO 01010G15KT 10SM CLR M20/M23 A3058 RMK AO2,KBBB,2015-02-12T05:54:00Z,45.32,-95.65,-20.0,-23.0,10,10,15,10.0,30.578741,,,TRUE,TRUE,,,,,,,CLR,,,,,,,,VFR,,,,,,,,,,,,METAR,317.0
KANE 120554Z AUTO 32014G19KT 10SM SCT030 M16/M21 A3048 RMK AO2,KANE,2015-02-12T05:54:00Z,45.15,-93.22,-16.0,-21.0,320,14,19,10.0,30.481298,,,TRUE,TRUE,,,,,,,SCT,3000,,,,,,,VFR,,,,,,,,,,,,METAR,278.0
KAIT 120554Z AUTO 33008G15KT 10SM OVC023 M18/M22 A3050 RMK AO2,KAIT,2015-02-12T05:54:00Z,46.53,-93.67,-18.0,-22.0,330,8,15,10.0,30.499016,,,TRUE,TRUE,,,,,,,OVC,2300,,,,,,,MVFR,,,,,,,,,,,,METAR,367.0
KORH 120554Z AUTO 25004KT 10SM CLR M12/M16 A2985 RMK AO2 SLP129 T11171161 11083 21128 56013,KORH,2015-02-12T05:54:00Z,42.27,-71.87,-11.7,-16.1,250,4,,10.0,29.84941,1012.9,,TRUE,TRUE,,,,,,,CLR,,,,,,,,VFR,-1.3,-8.3,-12.8,,,,,,,,,METAR,304.0
KOLS 120554Z AUTO 15004KT 10SM CLR 12/M01 A3014 RMK AO2 SLP164 T01221011 10211 20117 53014,KOLS,2015-02-12T05:54:00Z,31.42,-110.85,12.2,-1.1,150,4,,10.0,30.138779,1016.4,,TRUE,TRUE,,,,,,,CLR,,,,,,,,VFR,1.4,21.1,11.7,,,,,,,,,METAR,1184.0
KOLM 120554Z AUTO 00000KT 10SM BKN100 09/08 A3020 RMK AO2 SLP227 T00890078 10122 20089 50006,KOLM,2015-02-12T05:54:00Z,46.97,-122.9,8.9,7.8,0,0,,10.0,30.200787,1022.7,,TRUE,TRUE,,,,,,,BKN,10000,,,,,,,VFR,0.6,12.2,8.9,,,,,,,,,METAR,58.0
KOFP 120554Z AUTO 15004KT 10SM CLR M01/M03 A2991 RMK AO2 SLP128 T10061033 10033 21006 56016,KOFP,2015-02-12T05:54:00Z,37.7,-77.43,-0.6,-3.3,150,4,,10.0,29.911417,1012.8,,TRUE,TRUE,,,,,,,CLR,,,,,,,,VFR,-1.6,3.3,-0.6,,,,,,,,,METAR,62.0
KVAY 120554Z AUTO 00000KT 10SM CLR M03/M07 A2992 RMK AO2 SLP131 T10281067 11022 21039 56019,KVAY,2015-02-12T05:54:00Z,39.93,-74.83,-2.8,-6.7,0,0,,10.0,29.920275,1013.1,,TRUE,TRUE,,,,,,,CLR,,,,,,,,VFR,-1.9,-2.2,-3.9,,,,,,,,,METAR,15.0
KUZA 120554Z AUTO 00000KT 10SM CLR 02/00 A2993 RMK AO2 SLP137 T00220000 10078 20022 58013,KUZA,2015-02-12T05:54:00Z,34.98,-81.05,2.2,0.0,0,0,,10.0,29.929134,1013.7,,TRUE,TRUE,,,,,,,CLR,,,,,,,,VFR,-1.3,7.8,2.2,,,,,,,,,METAR,202.0
KUIN 120554Z AUTO 30020KT 10SM OVC027 M04/M09 A3027 RMK AO2 PK WND 33028/0455 SLP258 T10391094 11017 21044 400171044 50001,KUIN,2015-02-12T05:54:00Z,39.95,-91.2,-3.9,-9.4,300,20,,10.0,30.268702,1025.8,,TRUE,TRUE,,,,,,,OVC,2700,,,,,,,MVFR,0.1,-1.7,-4.4,1.7,-4.4,,,,,,,METAR,234.0
KTQE 120554Z AUTO 35023G30KT 10SM FEW031 M11/M17 A3057 RMK AO2 PK WND 36034/0505 SLP365 T11061172 11006 21106 400331106 51040,KTQE,2015-02-12T05:54:00Z,41.77,-96.18,-10.6,-17.2,350,23,30,10.0,30.569881,1036.5,,TRUE,TRUE,,,,,,,FEW,3100,,,,,,,VFR,4.0,-0.6,-10.6,3.3,-10.6,,,,,,,METAR,312.0
KTAD 120554Z AUTO 24013KT 10SM CLR M01/M04 A3040 RMK AO2 SLP305 T10111044 10056 21011 53004,KTAD,2015-02-12T05:54:00Z,37.27,-104.33,-1.1,-4.4,240,13,,10.0,30.398623,1030.5,,TRUE,TRUE,,,,,,,CLR,,,,,,,,VFR,0.4,5.6,-1.1,,,,,,,,,METAR,1756.0
KSYR 120554Z 10004KT 4SM -SN BR BKN008 OVC014 M07/M07 A2976 RMK AO2 SLP080 4/020 P0000 60005 T10671067 11039 21067 56017,KSYR,2015-02-12T05:54:00Z,43.12,-76.1,-6.7,-6.7,100,4,,4.0,29.760826,1008.0,,,TRUE,,,,,,-SN BR,BKN,800,OVC,1400,,,,,IFR,-1.7,-3.9,-6.7,,,0.0050,,0.05,,20.0,,METAR,127.0
KSUS 120554Z AUTO 30010KT 10SM CLR M02/M08 A3028 RMK AO2 SLP261 T10221078 10011 21022 400561039 50005,KSUS,2015-02-12T05:54:00Z,38.65,-90.65,-2.2,-7.8,300,10,,10.0,30.280512,1026.1,,TRUE,TRUE,,,,,,,CLR,,,,,,,,VFR,0.5,1.1,-2.2,5.6,-3.9,,,,,,,METAR,141.0
KOZW 120554Z AUTO 32010G17KT 10SM OVC055 M05/M09 A2991 RMK AO2 T10471092,KOZW,2015-02-12T05:54:00Z,42.62,-83.97,-4.7,-9.2,320,10,17,10.0,29.911417,,,TRUE,TRUE,,,,,,,OVC,5500,,,,,,,VFR,,,,,,,,,,,,METAR,293.0
KPHF 120554Z 17006KT 10SM CLR 01/M03 A2994 RMK AO2 SLP140 60000 T00111028 10017 21006 56012,KPHF,2015-02-12T05:54:00Z,37.13,-76.5,1.1,-2.8,170,6,,10.0,29.940945,1014.0,,,TRUE,,,,,,,CLR,,,,,,,,VFR,-1.2,1.7,-0.6,,,,,0.0050,,,,METAR,12.0
KPIA 120554Z 32008G17KT 8SM -SN OVC022 M06/M11 A3023 RMK AO2 SNB44 SLP245 P0000 60000 T10611111 11028 21061 400281061 51009,KPIA,2015-02-12T05:54:00Z,40.67,-89.68,-6.1,-11.1,320,8,17,8.0,30.230314,1024.5,,,TRUE,,,,,,-SN,OVC,2200,,,,,,,MVFR,0.9,-2.8,-6.1,2.8,-6.1,0.0050,,0.0050,,,,METAR,205.0
KPHL 120554Z 00000KT 10SM FEW075 SCT100 BKN150 BKN200 M02/M06 A2993 RMK AO2 SLP133 T10171061 10000 21022 56018,KPHL,2015-02-12T05:54:00Z,39.87,-75.23,-1.7,-6.1,0,0,,10.0,29.929134,1013.3,,,TRUE,,,,,,,FEW,7500,SCT,10000,BKN,15000,BKN,20000,VFR,-1.8,0.0,-2.2,,,,,,,,,METAR,18.0
KPLN 120554Z AUTO 31012KT 7SM SCT014 BKN021 OVC030 M13/M17 A2999 RMK AO2 SNB37E47 SLP169 P0000 60000 T11331167 11078 21133 53020,KPLN,2015-02-12T05:54:00Z,45.57,-84.8,-13.3,-16.7,310,12,,7.0,29.991142,1016.9,,TRUE,TRUE,,,,,,,SCT,1400,BKN,2100,OVC,3000,,,MVFR,2.0,-7.8,-13.3,,,0.0050,,0.0050,,,,METAR,217.0
KULM 120554Z AUTO 34019G23KT 10SM CLR M18/M22 A3052 RMK AO2,KULM,2015-02-12T05:54:00Z,44.32,-94.5,-18.0,-22.0,340,19,23,10.0,30.519686,,,TRUE,TRUE,,,,,,,CLR,,,,,,,,VFR,,,,,,,,,,,,METAR,308.0
KTWM 120554Z AUTO 33005KT 10SM CLR M17/M22 A3039 RMK AO2,KTWM,2015-02-12T05:54:00Z,47.03,-91.75,-17.0,-22.0,330,5,,10.0,30.389763,,,TRUE,TRUE,,,,,,,CLR,,,,,,,,VFR,,,,,,,,,,,,METAR,328.0
KTOB 120554Z AUTO 34019G23KT 10SM SCT085 SCT110 M17/M20 A3037 RMK AO2,KTOB,2015-02-12T05:54:00Z,44.02,-92.82,-17.0,-20.0,340,19,23,10.0,30.369095,,,TRUE,TRUE,,,,,,,SCT,8500,SCT,11000,,,,,VFR,,,,,,,,,,,,METAR,398.0
KTEW 120554Z AUTO 34009KT 7SM -SN BKN016 BKN028 OVC035 M05/M09 A2992 RMK AO2 T10471087,KTEW,2015-02-12T05:54:00Z,42.57,-84.42,-4.7,-8.7,340,9,,7.0,29.920275,,,TRUE,TRUE,,,,,,-SN,BKN,1600,BKN,2800,OVC,3500,,,MVFR,,,,,,,,,,,,METAR,280.0
KSYN 120554Z AUTO 33020G24KT 10SM CLR M15/M21 A3043 RMK AO2 T11551207 11109 21155 400101155,KSYN,2015-02-12T05:54:00Z,44.47,-93.02,-15.5,-20.7,330,20,24,10.0,30.431103,,,TRUE,TRUE,,,,,,,CLR,,,,,,,,VFR,,-10.9,-15.5,1.0,-15.5,,,,,,,METAR,280.0
KROX 120554Z AUTO 34004KT 10SM CLR M24/M27 A3064 RMK AO2,KROX,2015-02-12T05:54:00Z,48.85,-95.7,-24.0,-27.0,340,4,,10.0,30.640747,,,TRUE,TRUE,,,,,,,CLR,,,,,,,,VFR,,,,,,,,,,,,METAR,323.0
KRMY 120554Z AUTO 28009KT 5SM -SN BKN017 OVC023 M04/M06 A2993 RMK AO2 T10451065,KRMY,2015-02-12T05:54:00Z,42.23,-84.95,-4.5,-6.5,280,9,,5.0,29.929134,,,TRUE,TRUE,,,,,,-SN,BKN,1700,OVC,2300,,,,,MVFR,,,,,,,,,,,,METAR,287.0
KPQN 120554Z AUTO 35014G21KT 10SM CLR M17/M21 A3052 RMK AO2,KPQN,2015-02-12T05:54:00Z,43.97,-96.32,-17.0,-21.0,350,14,21,10.0,30.519686,,,TRUE,TRUE,,,,,,,CLR,,,,,,,,VFR,,,,,,,,,,,,METAR,529.0
KPNM 120554Z AUTO 33015G19KT 10SM CLR M17/M22 A3049 RMK AO2,KPNM,2015-02-12T05:54:00Z,45.57,-93.6,-17.0,-22.0,330,15,19,10.0,30.490158,,,TRUE,TRUE,,,,,,,CLR,,,,,,,,VFR,,,,,,,,,,,,METAR,298.0
KBAX 120554Z AUTO 31015KT 10SM SCT050 M08/M13 A2990 RMK AO2 T10851127,KBAX,2015-02-12T05:54:00Z,43.78,-82.98,-8.5,-12.7,310,15,,10.0,29.899607,,,TRUE,TRUE,,,,,,,SCT,5000,,,,,,,VFR,,,,,,,,,,,,METAR,234.0
KY70 120554Z AUTO 34012G17KT 10SM -SN SCT034 BKN042 OVC049 M05/M09 A2995 RMK AO2 T10461092,KY70,2015-02-12T05:54:00Z,42.93,-85.07,-4.6,-9.2,340,12,17,10.0,29.949802,,,TRUE,TRUE,,,,,,-SN,SCT,3400,BKN,4200,OVC,4900,,,VFR,,,,,,,,,,,,METAR,250.0
KBFL 120554Z 10004KT 6SM HZ CLR 13/08 A3019 RMK AO2 SLP220 T01280083 10194 20106 53003,KBFL,2015-02-12T05:54:00Z,35.43,-119.05,12.8,8.3,100,4,,6.0,30.188976,1022.0,,,TRUE,,,,,,HZ,CLR,,,,,,,,VFR,0.3,19.4,10.6,,,,,,,,,METAR,151.0
KDRT 120553Z AUTO 35013G21KT 10SM BKN060 OVC085 15/05 A3021 RMK AO2 PK WND 36027/0515 SLP220 T01500050 10244 20150 402610106 51044,KDRT,2015-02-12T05:53:00Z,29.37,-100.92,15.0,5.0,350,13,21,10.0,30.209646,1022.0,,TRUE,TRUE,,,,,,,BKN,6000,OVC,8500,,,,,VFR,4.4,24.4,15.0,26.1,10.6,,,,,,,METAR,313.0
KGRR 120553Z AUTO 33009G21KT 10SM FEW060 M06/M11 A2998 RMK AO2 UPB15E22SNE15 SLP162 P0000 60000 T10611106 11022 21061 53010,KGRR,2015-02-12T05:53:00Z,42.88,-85.52,-6.1,-10.6,330,9,21,10.0,29.97933,1016.2,,TRUE,TRUE,,,,,,,FEW,6000,,,,,,,VFR,1.0,-2.2,-6.1,,,0.0050,,0.0050,,,,METAR,237.0
KGRI 120553Z AUTO 02017G22KT 10SM OVC037 M04/M11 A3050 RMK AO2 SLP359 T10441106 10011 21044 400501044 51027,KGRI,2015-02-12T05:53:00Z,40.97,-98.32,-4.4,-10.6,20,17,22,10.0,30.499016,1035.9,,TRUE,TRUE,,,,,,,OVC,3700,,,,,,,VFR,2.7,1.1,-4.4,5.0,-4.4,,,,,,,METAR,561.0
KGRB 120553Z AUTO 36021G28KT 9SM FEW027 BKN036 OVC090 M12/M19 A3018 RMK AO2 PK WND 01028/0551 SNB13E46 SLP233 P0000 60000 T11171189 11050 21117 410111117 53027,KGRB,2015-02-12T05:53:00Z,44.48,-88.13,-11.7,-18.9,360,21,28,9.0,30.180119,1023.3,,TRUE,TRUE,,,,,,,FEW,2700,BKN,3600,OVC,9000,,,VFR,2.7,-5.0,-11.7,-1.1,-11.7,0.0050,,0.0050,,,,METAR,208.0
KGPT 120553Z AUTO 00000KT 5SM CLR 07/06 A3010 RMK AO2 SLP191 T00670056 10122 20061 401610017 58004,KGPT,2015-02-12T05:53:00Z,30.42,-89.08,6.7,5.6,0,0,,5.0,30.100393,1019.1,,TRUE,TRUE,,,,,,,CLR,,,,,,,,MVFR,-0.4,12.2,6.1,16.1,1.7,,,,,,,METAR,14.0
KGOK 120553Z AUTO 02004KT 10SM CLR 01/M05 A3044 RMK AO2 SLP315 T00061050 10056 20006 401110006 53014,KGOK,2015-02-12T05:53:00Z,35.85,-97.4,0.6,-5.0,20,4,,10.0,30.43996,1031.5,,TRUE,TRUE,,,,,,,CLR,,,,,,,,VFR,1.4,5.6,0.6,11.1,0.6,,,,,,,METAR,324.0
KGNV 120553Z AUTO 28005KT 10SM CLR 07/05 A3007 RMK AO2 SLP181 T00720050 10122 20067 58004,KGNV,2015-02-12T05:53:00Z,29.7,-82.28,7.2,5.0,280,5,,10.0,30.070866,1018.1,,TRUE,TRUE,,,,,,,CLR,,,,,,,,VFR,-0.4,12.2,6.7,,,,,,,,,METAR,45.0
KGMU 120553Z AUTO 33003KT 10SM CLR 07/01 A2993 RMK AO2 SLP136 T00670011 10117 20050 56012,KGMU,2015-02-12T05:53:00Z,34.85,-82.35,6.7,1.1,330,3,,10.0,29.929134,1013.6,,TRUE,TRUE,,,,,,,CLR,,,,,,,,VFR,-1.2,11.7,5.0,,,,,,,,,METAR,315.0
KGLR 120553Z AUTO 31008KT 2 1/2SM -SN BKN020 BKN026 OVC034 M13/M16 A2990 RMK AO2 SLP150 P0000 60000 T11281156 11078 21128 53006,KGLR,2015-02-12T05:53:00Z,45.02,-84.68,-12.8,-15.6,310,8,,2.5,29.899607,1015.0,,TRUE,TRUE,,,,,,-SN,BKN,2000,BKN,2600,OVC,3400,,,IFR,0.6,-7.8,-12.8,,,0.0050,,0.0050,,,,METAR,407.0
KGLH 120553Z AUTO 35005KT 8SM CLR 07/02 A3019 RMK AO2 SLP230 T00670017 10117 20050 401781006 53009,KGLH,2015-02-12T05:53:00Z,33.5,-90.98,6.7,1.7,350,5,,8.0,30.188976,1023.0,,TRUE,TRUE,,,,,,,CLR,,,,,,,,VFR,0.9,11.7,5.0,17.8,-0.6,,,,,,,METAR,45.0
KGLD 120553Z AUTO 25012KT 10SM CLR 00/M07 A3036 RMK AO2 SLP293 T00001067 10072 21033 58004 $,KGLD,2015-02-12T05:53:00Z,39.37,-101.7,0.0,-6.7,250,12,,10.0,30.360237,1029.3,,TRUE,TRUE,TRUE,,,,,,CLR,,,,,,,,VFR,-0.4,7.2,-3.3,,,,,,,,,METAR,1113.0
KGKY 120553Z AUTO 35013KT 10SM OVC070 09/M01 A3033 RMK AO2 SLP266 T00891011 10172 20089 402110067 51026,KGKY,2015-02-12T05:53:00Z,32.67,-97.1,8.9,-1.1,350,13,,10.0,30.33071,1026.6,,TRUE,TRUE,,,,,,,OVC,7000,,,,,,,VFR,2.6,17.2,8.9,21.1,6.7,,,,,,,METAR,192.0
KGKJ 120553Z AUTO 30014G21KT 1/2SM SN FZFG SCT007 BKN010 OVC015 M02/M04 A2980 RMK AO2 SNE0457B13 SLP108 P0001 60004 I6007 T10221044 11006 21022 55007 TSNO,KGKJ,2015-02-12T05:53:00Z,41.63,-80.22,-2.2,-4.4,300,14,21,0.5,29.799213,1010.8,,TRUE,TRUE,,,TRUE,,,SN FZFG,SCT,700,BKN,1000,OVC,1500,,,LIFR,-0.7,-0.6,-2.2,,,0.01,,0.04,,,,METAR,428.0
KGJT 120553Z AUTO 13003KT 10SM CLR 01/M05 A3038 RMK AO2 SLP283 T00061050 10133 20006 51016,KGJT,2015-02-12T05:53:00Z,39.12,-108.52,0.6,-5.0,130,3,,10.0,30.380905,1028.3,,TRUE,TRUE,,,,,,,CLR,,,,,,,,VFR,1.6,13.3,0.6,,,,,,,,,METAR,1475.0
KGIF 120553Z AUTO 00000KT 10SM CLR 10/08 A3010 RMK AO2 SLP190 T01000078 10150 20094 50001,KGIF,2015-02-12T05:53:00Z,28.07,-81.75,10.0,7.8,0,0,,10.0,30.100393,1019.0,,TRUE,TRUE,,,,,,,CLR,,,,,,,,VFR,0.1,15.0,9.4,,,,,,,,,METAR,43.0
KGGW 120553Z AUTO 11018KT 10SM SCT025 OVC070 M13/M17 A3042 RMK AO2 SLP351 T11331172 11100 21133 58015,KGGW,2015-02-12T05:53:00Z,48.22,-106.62,-13.3,-17.2,110,18,,10.0,30.41929,1035.1,,TRUE,TRUE,,,,,,,SCT,2500,OVC,7000,,,,,VFR,-1.5,-10.0,-13.3,,,,,,,,,METAR,694.0
KGGG 120553Z AUTO 33007KT 10SM CLR 11/04 A3023 RMK AO2 SLP235 T01110044 10189 20100 402280061 53022 TSNO,KGGG,2015-02-12T05:53:00Z,32.38,-94.72,11.1,4.4,330,7,,10.0,30.230314,1023.5,,TRUE,TRUE,,,TRUE,,,,CLR,,,,,,,,VFR,2.2,18.9,10.0,22.8,6.1,,,,,,,METAR,107.0
KGFK 120553Z 33009KT 10SM CLR M23/M26 A3072 RMK AO2 SLP430 4/002 T12281261 11189 21228 411111228 53007 $,KGFK,2015-02-12T05:53:00Z,47.95,-97.18,-22.8,-26.1,330,9,,10.0,30.720472,1043.0,,,TRUE,TRUE,,,,,,CLR,,,,,,,,VFR,0.7,-18.9,-22.8,-11.1,-22.8,,,,,2.0,,METAR,258.0
KGEZ 120553Z AUTO 28015G22KT 10SM OVC027 M02/M08 A3007 RMK AO2 PK WND 30026/0542 SLP189 T10171078 10017 21017 55001,KGEZ,2015-02-12T05:53:00Z,39.58,-85.8,-1.7,-7.8,280,15,22,10.0,30.070866,1018.9,,TRUE,TRUE,,,,,,,OVC,2700,,,,,,,MVFR,-0.1,1.7,-1.7,,,,,,,,,METAR,245.0
KGEY 120553Z AUTO 11004KT 10SM CLR 03/M01 A3027 RMK AO2 SLP268 T00281006 10094 20017 57003,KGEY,2015-02-12T05:53:00Z,44.52,-108.08,2.8,-0.6,110,4,,10.0,30.268702,1026.8,,TRUE,TRUE,,,,,,,CLR,,,,,,,,VFR,-0.3,9.4,1.7,,,,,,,,,METAR,1191.0
KGEG 120553Z 01005KT 10SM BKN100 OVC200 06/06 A3027 RMK AO2 SLP263 T00610056 10089 20061 53005,KGEG,2015-02-12T05:53:00Z,47.62,-117.53,6.1,5.6,10,5,,10.0,30.268702,1026.3,,,TRUE,,,,,,,BKN,10000,OVC,20000,,,,,VFR,0.5,8.9,6.1,,,,,,,,,METAR,735.0
KGCC 120553Z AUTO 16004KT 10SM CLR M02/M04 A3030 RMK AO2 SLP282 T10221044 10033 21067 58006 TSNO,KGCC,2015-02-12T05:53:00Z,44.33,-105.55,-2.2,-4.4,160,4,,10.0,30.301182,1028.2,,TRUE,TRUE,,,TRUE,,,,CLR,,,,,,,,VFR,-0.6,3.3,-6.7,,,,,,,,,METAR,1320.0
KGAG 120553Z AUTO 27006KT 10SM CLR M04/M07 A3043 RMK AO2 SLP318 T10441072 10056 21044 400721044 51011,KGAG,2015-02-12T05:53:00Z,36.3,-99.77,-4.4,-7.2,270,6,,10.0,30.431103,1031.8,,TRUE,TRUE,,,,,,,CLR,,,,,,,,VFR,1.1,5.6,-4.4,7.2,-4.4,,,,,,,METAR,668.0
KFYV 120553Z AUTO 36005KT 10SM CLR M02/M05 A3036 RMK AO2 SLP286 T10171050 10039 21017 401281028 53015,KFYV,2015-02-12T05:53:00Z,36.02,-94.17,-1.7,-5.0,360,5,,10.0,30.360237,1028.6,,TRUE,TRUE,,,,,,,CLR,,,,,,,,VFR,1.5,3.9,-1.7,12.8,-2.8,,,,,,,METAR,379.0
KFXE 120553Z VRB03KT 10SM SCT200 14/12 A3003 RMK AO2 SLP172 T01440117 10194 20144 53001,KFXE,2015-02-12T05:53:00Z,26.2,-80.18,14.4,11.7,0,3,,10.0,30.029528,1017.2,,,TRUE,,,,,,,SCT,20000,,,,,,,VFR,0.1,19.4,14.4,,,,,,,,,METAR,6.0
CYYD 120553Z AUTO 16003KT 5SM -SN -UP FEW004 SCT027 OVC032 00/00 A2996 RMK ICG PAST HR SLP167,CYYD,2015-02-12T05:53:00Z,54.82,-127.18,0.0,0.0,160,3,,5.0,29.958662,1016.7,,TRUE,,,,,,,-SN UP,FEW,400,SCT,2700,OVC,3200,,,MVFR,,,,,,,,,,,,SPECI,523.0
KPNC 120553Z AUTO 03004KT 10SM CLR M04/M07 A3044 RMK AO2 SLP315 T10441072 10039 21056 400891056 53013,KPNC,2015-02-12T05:53:00Z,36.73,-97.1,-4.4,-7.2,30,4,,10.0,30.43996,1031.5,,TRUE,TRUE,,,,,,,CLR,,,,,,,,VFR,1.3,3.9,-5.6,8.9,-5.6,,,,,,,METAR,308.0
KVIH 120553Z AUTO 28010KT 10SM CLR M04/M08 A3028 RMK AO2 SLP264 T10391078 10011 21039 400391039 50002,KVIH,2015-02-12T05:53:00Z,38.13,-91.77,-3.9,-7.8,280,10,,10.0,30.280512,1026.4,,TRUE,TRUE,,,,,,,CLR,,,,,,,,VFR,0.2,1.1,-3.9,3.9,-3.9,,,,,,,METAR,333.0
KRVS 120553Z AUTO 36006KT 10SM CLR 00/M06 A3044 RMK AO2 SLP317 T00001056 10072 20000 401170000 51021,KRVS,2015-02-12T05:53:00Z,36.05,-95.98,0.0,-5.6,360,6,,10.0,30.43996,1031.7,,TRUE,TRUE,,,,,,,CLR,,,,,,,,VFR,2.1,7.2,0.0,11.7,,,,,,,,METAR,200.0
KRSL 120553Z AUTO 03007KT 10SM CLR M04/M07 A3042 RMK AO2 SLP320 T10391067 10039 21044 400781044 53016,KRSL,2015-02-12T05:53:00Z,38.87,-98.82,-3.9,-6.7,30,7,,10.0,30.41929,1032.0,,TRUE,TRUE,,,,,,,CLR,,,,,,,,VFR,1.6,3.9,-4.4,7.8,-4.4,,,,,,,METAR,567.0
KDVP 120553Z AUTO 33020G25KT 7SM SCT014 M18/M22 A3051 RMK AO2 T11811218 11099 21181 410461181,KDVP,2015-02-12T05:53:00Z,43.98,-95.78,-18.1,-21.8,330,20,25,7.0,30.510826,,,TRUE,TRUE,,,,,,,SCT,1400,,,,,,,VFR,,-9.9,-18.1,-4.6,-18.1,,,,,,,METAR,495.0
KADC 120553Z AUTO 32008KT 10SM CLR M23/M26 A3055 RMK AO2,KADC,2015-02-12T05:53:00Z,46.45,-95.22,-23.0,-26.0,320,8,,10.0,30.549213,,,TRUE,TRUE,,,,,,,CLR,,,,,,,,VFR,,,,,,,,,,,,METAR,418.0
KDVT 120553Z VRB05KT 10SM CLR 19/M03 A3012 RMK AO2 SLP182 T01941028 10261 20178 51012,KDVT,2015-02-12T05:53:00Z,33.68,-112.07,19.4,-2.8,0,5,,10.0,30.121063,1018.2,,,TRUE,,,,,,,CLR,,,,,,,,VFR,1.2,26.1,17.8,,,,,,,,,METAR,443.0
KOLF 120553Z AUTO 09008KT 10SM CLR M14/M18 A3052 RMK AO2 SLP379 T11391183 11106 21144 58014,KOLF,2015-02-12T05:53:00Z,48.1,-105.58,-13.9,-18.3,90,8,,10.0,30.519686,1037.9,,TRUE,TRUE,,,,,,,CLR,,,,,,,,VFR,-1.4,-10.6,-14.4,,,,,,,,,METAR,604.0
KODX 120553Z AUTO 02014G20KT 10SM OVC020 M07/M11 A3051 RMK AO2 SLP362 T10671111 10017 21067 400391067 51025,KODX,2015-02-12T05:53:00Z,41.62,-98.95,-6.7,-11.1,20,14,20,10.0,30.510826,1036.2,,TRUE,TRUE,,,,,,,OVC,2000,,,,,,,MVFR,2.5,1.7,-6.7,3.9,-6.7,,,,,,,METAR,631.0
KFNB 120553Z AUTO 33016G22KT 10SM OVC040 M01/M09 A3044 RMK AO2 SLP318 T10111089 11006 21028 400391028 51015,KFNB,2015-02-12T05:53:00Z,40.07,-95.58,-1.1,-8.9,330,16,22,10.0,30.43996,1031.8,,TRUE,TRUE,,,,,,,OVC,4000,,,,,,,VFR,1.5,-0.6,-2.8,3.9,-2.8,,,,,,,METAR,300.0
KELY 120553Z AUTO 18012KT 10SM CLR M01/M08 A3041 RMK AO2 SLP295 T10111083 10122 21033 53003,KELY,2015-02-12T05:53:00Z,39.3,-114.85,-1.1,-8.3,180,12,,10.0,30.410433,1029.5,,TRUE,TRUE,,,,,,,CLR,,,,,,,,VFR,0.3,12.2,-3.3,,,,,,,,,METAR,1906.0
KDWH 120553Z 00000KT 9SM 11/09 A3016 RMK AO2 SLP213 T01060094 10206 20106 402390083 51013 $,KDWH,2015-02-12T05:53:00Z,30.07,-95.55,10.6,9.4,0,0,,9.0,30.159449,1021.3,,,TRUE,TRUE,,,,,,,,,,,,,,,1.3,20.6,10.6,23.9,8.3,,,,,,,METAR,46.0
KDUJ 120553Z AUTO 25011KT 2SM -SN BR OVC005 M01/M02 A2975 RMK AO2 SNB35 CIG 004V009 SLP094 P0001 60001 I1001 I6004 T10111022 11006 21011 58017,KDUJ,2015-02-12T05:53:00Z,41.17,-78.9,-1.1,-2.2,250,11,,2.0,29.749016,1009.4,,TRUE,TRUE,,,,,,-SN BR,OVC,500,,,,,,,IFR,-1.7,-0.6,-1.1,,,0.01,,0.01,,,,METAR,554.0
KDTW 120553Z 27015G19KT 3SM -SN SCT020 BKN045 OVC080 M02/M07 A2992 RMK AO2 TWR VIS 4 SNB51 SLP138 P0000 60000 T10221067 10006 21022 55001,KDTW,2015-02-12T05:53:00Z,42.23,-83.33,-2.2,-6.7,270,15,19,3.0,29.920275,1013.8,,,TRUE,,,,,,-SN,SCT,2000,BKN,4500,OVC,8000,,,MVFR,-0.1,0.6,-2.2,,,0.0050,,0.0050,,,,METAR,195.0
KDTO 120553Z AUTO 34010KT 10SM CLR 06/M02 A3035 RMK AO2 SLP277 T00611017 10144 20061 401830061 51020,KDTO,2015-02-12T05:53:00Z,33.2,-97.2,6.1,-1.7,340,10,,10.0,30.351377,1027.7,,TRUE,TRUE,,,,,,,CLR,,,,,,,,VFR,2.0,14.4,6.1,18.3,6.1,,,,,,,METAR,196.0
KDTN 120553Z AUTO 00000KT 10SM CLR 08/04 A3020 RMK AO2 SLP226 T00780044 10178 20078 402060028 51015 TSNO,KDTN,2015-02-12T05:53:00Z,32.55,-93.75,7.8,4.4,0,0,,10.0,30.200787,1022.6,,TRUE,TRUE,,,TRUE,,,,CLR,,,,,,,,VFR,1.5,17.8,7.8,20.6,2.8,,,,,,,METAR,53.0
KHLC 120553Z AUTO 05011KT 10SM CLR M01/M06 A3041 RMK AO2 SLP315 T10111061 10072 21039 401001039 53018,KHLC,2015-02-12T05:53:00Z,39.37,-99.83,-1.1,-6.1,50,11,,10.0,30.410433,1031.5,,TRUE,TRUE,,,,,,,CLR,,,,,,,,VFR,1.8,7.2,-3.9,10.0,-3.9,,,,,,,METAR,669.0
KDTS 120553Z AUTO 30003KT 10SM CLR 11/08 A3008 RMK AO2 SLP185 T01060083 10133 20083 401440044 57002 TSNO,KDTS,2015-02-12T05:53:00Z,30.4,-86.47,10.6,8.3,300,3,,10.0,30.079725,1018.5,,TRUE,TRUE,,,TRUE,,,,CLR,,,,,,,,VFR,-0.2,13.3,8.3,14.4,4.4,,,,,,,METAR,5.0
KLND 120553Z AUTO 26008KT 10SM CLR 03/M04 A3026 RMK AO2 SLP252 T00331044 10089 20033 58005,KLND,2015-02-12T05:53:00Z,42.82,-108.73,3.3,-4.4,260,8,,10.0,30.259842,1025.2,,TRUE,TRUE,,,,,,,CLR,,,,,,,,VFR,-0.5,8.9,3.3,,,,,,,,,METAR,1694.0
KLBF 120553Z AUTO 06009KT 10SM OVC022 M02/M08 A3043 RMK AO2 SLP324 T10171078 10078 21017 401111039 51012 FZRANO $,KLBF,2015-02-12T05:53:00Z,41.12,-100.67,-1.7,-7.8,60,9,,10.0,30.431103,1032.4,,TRUE,TRUE,TRUE,,,TRUE,,,OVC,2200,,,,,,,MVFR,1.2,7.8,-1.7,11.1,-3.9,,,,,,,METAR,847.0
PAWI 120553Z AUTO 05013KT 2 1/2SM HZ SCT002 M33/M37 A3025 RMK SLP245 I1000 I6000 T13281367 11322 21333 53001 TSNO VIA AUTODIAL,PAWI,2015-02-12T05:53:00Z,70.62,-159.85,-32.8,-36.7,50,13,,2.5,30.250984,1024.5,,TRUE,,,,TRUE,,,HZ,SCT,200,,,,,,,IFR,0.1,-32.2,-33.3,,,,,,,,,METAR,27.0
PAEG 120553Z AUTO VRB04KT 10SM OVC075 M17/M25 A2984 RMK SLP132 T11721250 11161 21194 51006 TSNO VIA AUTODIAL,PAEG,2015-02-12T05:53:00Z,64.78,-141.15,-17.2,-25.0,0,4,,10.0,29.840551,1013.2,,TRUE,,,,TRUE,,,,OVC,7500,,,,,,,VFR,0.6,-16.1,-19.4,,,,,,,,,METAR,268.0
KP68 120553Z AUTO 23004KT M01/M07 A3039 RMK AO1 SLP287 T10111067 10139 21022 53004,KP68,2015-02-12T05:53:00Z,39.6,-116.0,-1.1,-6.7,230,4,,,30.389763,1028.7,,TRUE,TRUE,,,,,,,,,,,,,,,,0.4,13.9,-2.2,,,,,,,,,METAR,1809.0
KMHE 120553Z AUTO 35012KT 10SM CLR M16/M21 A3066 RMK AO2 SLP413 60000 T11561206 11067 21156 410331156 51019,KMHE,2015-02-12T05:53:00Z,43.77,-98.02,-15.6,-20.6,350,12,,10.0,30.661417,1041.3,,TRUE,TRUE,,,,,,,CLR,,,,,,,,VFR,1.9,-6.7,-15.6,-3.3,-15.6,,,0.0050,,,,METAR,397.0
PHTO 120553Z 33004KT 10SM OVC050 24/17 A2992 RMK AO2 SLP130 T02390167 10278 20239 53019 $,PHTO,2015-02-12T05:53:00Z,19.72,-155.05,23.9,16.7,330,4,,10.0,29.920275,1013.0,,,TRUE,TRUE,,,,,,OVC,5000,,,,,,,VFR,1.9,27.8,23.9,,,,,,,,,METAR,12.0
K6R6 120553Z AUTO 01017G22KT 11/05 A3029 RMK AO1 SLP236 T01110050 10217 20106 402610100 51028 $,K6R6,2015-02-12T05:53:00Z,30.05,-102.22,11.1,5.0,10,17,22,,30.28937,1023.6,,TRUE,TRUE,TRUE,,,,,,,,,,,,,,,2.8,21.7,10.6,26.1,10.0,,,,,,,METAR,701.0
KP92 120553Z AUTO 00000KT 10/09 A3013 RMK AO1 SLP202 T01000089 10144 20100 401940061 50010,KP92,2015-02-12T05:53:00Z,29.57,-91.53,10.0,8.9,0,0,,,30.129921,1020.2,,TRUE,TRUE,,,,,,,,,,,,,,,,1.0,14.4,10.0,19.4,6.1,,,,,,,METAR,1.0
KCTY 120553Z AUTO 00000KT 03/02 A3006 RMK AO1 SLP180 T00330022 10122 20033 58006,KCTY,2015-02-12T05:53:00Z,29.63,-83.1,3.3,2.2,0,0,,,30.059055,1018.0,,TRUE,TRUE,,,,,,,,,,,,,,,,-0.6,12.2,3.3,,,,,,,,,METAR,13.0
KOQT 120553Z AUTO 00000KT 10SM CLR 02/M02 A3005 RMK AO2 SLP183 T00221017 10094 20022 58001,KOQT,2015-02-12T05:53:00Z,36.02,-84.23,2.2,-1.7,0,0,,10.0,30.050198,1018.3,,TRUE,TRUE,,,,,,,CLR,,,,,,,,VFR,-0.1,9.4,2.2,,,,,,,,,METAR,277.0
KNUI 120553Z AUTO 17005KT 10SM CLR 01/M03 A2992 RMK AO2 SLP130 T00061028 10006 21006 58015,KNUI,2015-02-12T05:53:00Z,38.15,-76.43,0.6,-2.8,170,5,,10.0,29.920275,1013.0,,TRUE,TRUE,,,,,,,CLR,,,,,,,,VFR,-1.5,0.6,-0.6,,,,,,,,,METAR,7.0
KLAX 120553Z 01004KT 10SM FEW250 21/M05 A3007 RMK AO2 SLP181 T02111050 10272 20194 51011 $,KLAX,2015-02-12T05:53:00Z,33.93,-118.38,21.1,-5.0,10,4,,10.0,30.070866,1018.1,,,TRUE,TRUE,,,,,,FEW,25000,,,,,,,VFR,1.1,27.2,19.4,,,,,,,,,METAR,46.0
KMWT 120553Z AUTO VRB03KT 10SM CLR 06/01 A3026 RMK AO2 SLP249 T00610006 10133 20061 401780000 51026,KMWT,2015-02-12T05:53:00Z,34.55,-93.58,6.1,0.6,0,3,,10.0,30.259842,1024.9,,TRUE,TRUE,,,,,,,CLR,,,,,,,,VFR,2.6,13.3,6.1,17.8,,,,,,,,METAR,214.0
KLOR 120553Z AUTO 00000KT 10SM CLR 03/02 A3006 RMK AO2 SLP178 T00330022 10144 20033 401891017 55001,KLOR,2015-02-12T05:53:00Z,31.35,-85.75,3.3,2.2,0,0,,10.0,30.059055,1017.8,,TRUE,TRUE,,,,,,,CLR,,,,,,,,VFR,-0.1,14.4,3.3,18.9,-1.7,,,,,,,METAR,74.0
KTUP 120553Z AUTO 02010KT 10SM CLR 07/00 A3015 RMK AO2 SLP208 T00720000 10128 20056 401611028 50006,KTUP,2015-02-12T05:53:00Z,34.27,-88.77,7.2,0.0,20,10,,10.0,30.15059,1020.8,,TRUE,TRUE,,,,,,,CLR,,,,,,,,VFR,0.6,12.8,5.6,16.1,-2.8,,,,,,,METAR,105.0
KHEY 120553Z AUTO 29003KT 10SM CLR 04/02 A3006 RMK AO2 SLP169 T00440022 10128 20044 401831017 55001,KHEY,2015-02-12T05:53:00Z,31.35,-85.65,4.4,2.2,290,3,,10.0,30.059055,1016.9,,TRUE,TRUE,,,,,,,CLR,,,,,,,,VFR,-0.1,12.8,4.4,18.3,-1.7,,,,,,,METAR,97.0
KCQC 120553Z AUTO 10006KT 1/4SM FZFG VV002 M02/M03 A3041 RMK AO2 SLP309 T10171028 10006 21017 51005,KCQC,2015-02-12T05:53:00Z,35.0,-105.67,-1.7,-2.8,100,6,,0.25,30.410433,1030.9,,TRUE,TRUE,,,,,,FZFG,OVX,0,,,,,,,LIFR,0.5,0.6,-1.7,,,,,,,,200,METAR,2160.0
KBBW 120553Z AUTO 03012KT 10SM OVC029 M04/M09 A3047 RMK AO2 SLP346 T10441094 10033 21044 400611044 51021,KBBW,2015-02-12T05:53:00Z,41.43,-99.63,-4.4,-9.4,30,12,,10.0,30.469488,1034.6,,TRUE,TRUE,,,,,,,OVC,2900,,,,,,,MVFR,2.1,3.3,-4.4,6.1,-4.4,,,,,,,METAR,776.0
KBAF 120553Z 00000KT 10SM CLR M13/M16 A2990 RMK AO2 SLP134 T11281161 11061 21133 58014,KBAF,2015-02-12T05:53:00Z,42.17,-72.72,-12.8,-16.1,0,0,,10.0,29.899607,1013.4,,,TRUE,,,,,,,CLR,,,,,,,,VFR,-1.4,-6.1,-13.3,,,,,,,,,METAR,83.0
KAZO 120553Z AUTO 30009KT 2SM -SN BR FEW019 FEW024 OVC028 M04/M07 A2997 RMK AO2 SLP160 P0000 60000 T10441067 11017 21044 50001,KAZO,2015-02-12T05:53:00Z,42.23,-85.55,-4.4,-6.7,300,9,,2.0,29.970472,1016.0,,TRUE,TRUE,,,,,,-SN BR,FEW,1900,FEW,2400,OVC,2800,,,IFR,0.1,-1.7,-4.4,,,0.0050,,0.0050,,,,METAR,272.0
KAXN 120553Z AUTO 35011KT 10SM CLR M21/M24 A3054 RMK AO2 SLP385 T12111244 11172 21211 410671211 51018,KAXN,2015-02-12T05:53:00Z,45.87,-95.4,-21.1,-24.4,350,11,,10.0,30.540354,1038.5,,TRUE,TRUE,,,,,,,CLR,,,,,,,,VFR,1.8,-17.2,-21.1,-6.7,-21.1,,,,,,,METAR,433.0
KAWM 120553Z AUTO 36011KT 10SM CLR 04/M01 A3023 RMK AO2 SLP237 T00391006 10094 20033 401391033 51018,KAWM,2015-02-12T05:53:00Z,35.13,-90.23,3.9,-0.6,360,11,,10.0,30.230314,1023.7,,TRUE,TRUE,,,,,,,CLR,,,,,,,,VFR,1.8,9.4,3.3,13.9,-3.3,,,,,,,METAR,65.0
KAUS 120553Z 02018KT 10SM BKN042 15/08 A3021 RMK AO2 SLP224 T01500078 10222 20106 402440028 51025,KAUS,2015-02-12T05:53:00Z,30.18,-97.68,15.0,7.8,20,18,,10.0,30.209646,1022.4,,,TRUE,,,,,,,BKN,4200,,,,,,,VFR,2.5,22.2,10.6,24.4,2.8,,,,,,,METAR,166.0
KAUG 120553Z AUTO 02005KT 10SM CLR M14/M20 A2991 RMK AO2 SLP136 T11441200 11100 21144 58022,KAUG,2015-02-12T05:53:00Z,44.32,-69.8,-14.4,-20.0,20,5,,10.0,29.911417,1013.6,,TRUE,TRUE,,,,,,,CLR,,,,,,,,VFR,-2.2,-10.0,-14.4,,,,,,,,,METAR,109.0
KATY 120553Z AUTO 35018KT 10SM OVC015 M19/M23 A3058 RMK AO2 SLP400 T11891228 11144 21189 410781189 53017,KATY,2015-02-12T05:53:00Z,44.9,-97.15,-18.9,-22.8,350,18,,10.0,30.578741,1040.0,,TRUE,TRUE,,,,,,,OVC,1500,,,,,,,MVFR,1.7,-14.4,-18.9,-7.8,-18.9,,,,,,,METAR,532.0
KASX 120553Z AUTO 35016G20KT 8SM OVC038 M15/M18 A3040 RMK AO2 SNE33 SLP315 P0000 60000 T11501183 11111 21150 410391150 51030 $,KASX,2015-02-12T05:53:00Z,46.55,-90.92,-15.0,-18.3,350,16,20,8.0,30.398623,1031.5,,TRUE,TRUE,TRUE,,,,,,OVC,3800,,,,,,,VFR,3.0,-11.1,-15.0,-3.9,-15.0,0.0050,,0.0050,,,,METAR,251.0
KASE 120553Z 22008KT 10SM CLR M03/M10 A3043 RMK AO2 SLP285 T10281100 10044 21039 51009,KASE,2015-02-12T05:53:00Z,39.23,-106.87,-2.8,-10.0,220,8,,10.0,30.431103,1028.5,,,TRUE,,,,,,,CLR,,,,,,,,VFR,0.9,4.4,-3.9,,,,,,,,,METAR,2354.0
KASD 120553Z AUTO 00000KT 9SM CLR 06/04 A3012 RMK AO2 SLP199 T00610044 10139 20061 402060006 53004,KASD,2015-02-12T05:53:00Z,30.35,-89.82,6.1,4.4,0,0,,9.0,30.121063,1019.9,,TRUE,TRUE,,,,,,,CLR,,,,,,,,VFR,0.4,13.9,6.1,20.6,0.6,,,,,,,METAR,9.0
MMMD 120553Z 07004KT 7SM SKC 19/14 A3001 RMK SLP169 52002 917,MMMD,2015-02-12T05:53:00Z,20.95,-89.65,19.0,14.0,70,4,,7.0,30.008858,1016.9,,,,,,,,,,SKC,,,,,,,,VFR,0.2,,,,,,,,,,,METAR,10.0
KNIP 120553Z 25007KT 10SM CLR 10/06 A3006 RMK AO2 SLP174 T01000056 10144 20100 58006,KNIP,2015-02-12T05:53:00Z,30.22,-81.67,10.0,5.6,250,7,,10.0,30.059055,1017.4,,,TRUE,,,,,,,CLR,,,,,,,,VFR,-0.6,14.4,10.0,,,,,,,,,METAR,7.0
PHKO 120553Z 31008KT 10SM CLR 24/16 A2993 RMK AO2 SLP136 T02390161 10272 20239 53018,PHKO,2015-02-12T05:53:00Z,19.73,-156.05,23.9,16.1,310,8,,10.0,29.929134,1013.6,,,TRUE,,,,,,,CLR,,,,,,,,VFR,1.8,27.2,23.9,,,,,,,,,METAR,27.0
KBDE 120553Z AUTO 33011KT 10SM CLR M23/M26 A3058 RMK AO2 SLP394 T12331261 11183 21233 410611233 51017 TSNO,KBDE,2015-02-12T05:53:00Z,48.73,-94.62,-23.3,-26.1,330,11,,10.0,30.578741,1039.4,,TRUE,TRUE,,,TRUE,,,,CLR,,,,,,,,VFR,1.7,-18.3,-23.3,-6.1,-23.3,,,,,,,METAR,329.0
KBCE 120553Z AUTO 33004KT 10SM CLR M03/M07 A3046 RMK AO2 SLP285 T10331072 10094 21044 53011,KBCE,2015-02-12T05:53:00Z,37.7,-112.15,-3.3,-7.2,330,4,,10.0,30.46063,1028.5,,TRUE,TRUE,,,,,,,CLR,,,,,,,,VFR,1.1,9.4,-4.4,,,,,,,,,METAR,2312.0
KBFD 120553Z AUTO VRB05KT 6SM BR OVC008 M02/M04 A2971 RMK AO2 SNE36 CIG 006V010 SLP083 P0000 60000 I6000 T10221044 11011 21022 58016 $,KBFD,2015-02-12T05:53:00Z,41.8,-78.63,-2.2,-4.4,0,5,,6.0,29.71063,1008.3,,TRUE,TRUE,TRUE,,,,,BR,OVC,800,,,,,,,IFR,-1.6,-1.1,-2.2,,,0.0050,,0.0050,,,,METAR,647.0
KBFF 120553Z AUTO 10006KT 10SM CLR M02/M04 A3039 RMK AO2 SLP312 T10221044 10106 21028 51016,KBFF,2015-02-12T05:53:00Z,41.87,-103.58,-2.2,-4.4,100,6,,10.0,30.389763,1031.2,,TRUE,TRUE,,,,,,,CLR,,,,,,,,VFR,1.6,10.6,-2.8,,,,,,,,,METAR,1203.0
KBFI 120553Z 00000KT 10SM SCT120 12/08 A3020 RMK AO2 SLP224 T01170078 10139 20117 51001,KBFI,2015-02-12T05:53:00Z,47.55,-122.32,11.7,7.8,0,0,,10.0,30.200787,1022.4,,,TRUE,,,,,,,SCT,12000,,,,,,,VFR,0.1,13.9,11.7,,,,,,,,,METAR,4.0
KBFM 120553Z AUTO 28004KT 10SM CLR 11/07 A3011 RMK AO2 SLP195 T01060067 10128 20078 401560000 58003,KBFM,2015-02-12T05:53:00Z,30.62,-88.07,10.6,6.7,280,4,,10.0,30.109253,1019.5,,TRUE,TRUE,,,,,,,CLR,,,,,,,,VFR,-0.3,12.8,7.8,15.6,,,,,,,,METAR,20.0
KBPK 120553Z AUTO 33006KT 10SM CLR M01/M06 A3031 RMK AO2 SLP267 T10111056 10067 21011 401441028 53005,KBPK,2015-02-12T05:53:00Z,36.37,-92.47,-1.1,-5.6,330,6,,10.0,30.31004,1026.7,,TRUE,TRUE,,,,,,,CLR,,,,,,,,VFR,0.5,6.7,-1.1,14.4,-2.8,,,,,,,METAR,280.0
KBPI 120553Z AUTO 08005KT 10SM CLR M06/M07 A3040 RMK AO2 SLP313 T10561072 10039 21056 58001,KBPI,2015-02-12T05:53:00Z,42.58,-110.1,-5.6,-7.2,80,5,,10.0,30.398623,1031.3,,TRUE,TRUE,,,,,,,CLR,,,,,,,,VFR,-0.1,3.9,-5.6,,,,,,,,,METAR,2117.0
KBOI 120553Z 14008KT 10SM CLR 08/03 A3033 RMK AO2 SLP272 T00830033 10133 20072 56000,KBOI,2015-02-12T05:53:00Z,43.57,-116.23,8.3,3.3,140,8,,10.0,30.33071,1027.2,,,TRUE,,,,,,,CLR,,,,,,,,VFR,0.0,13.3,7.2,,,,,,,,,METAR,875.0
KBNO 120553Z AUTO 00000KT 10SM CLR 02/M01 A3031 RMK AO2 SLP278 T00171011 10106 20011 53001,KBNO,2015-02-12T05:53:00Z,43.6,-118.95,1.7,-1.1,0,0,,10.0,30.31004,1027.8,,TRUE,TRUE,,,,,,,CLR,,,,,,,,VFR,0.1,10.6,1.1,,,,,,,,,METAR,1264.0
KBNA 120553Z 32013G19KT 10SM FEW027 OVC038 04/M01 A3013 RMK AO2 SLP204 T00441011 10094 20044 401221050 51002,KBNA,2015-02-12T05:53:00Z,36.12,-86.68,4.4,-1.1,320,13,19,10.0,30.129921,1020.4,,,TRUE,,,,,,,FEW,2700,OVC,3800,,,,,VFR,0.2,9.4,4.4,12.2,-5.0,,,,,,,METAR,210.0
KBMQ 120553Z AUTO 03012G19KT 10SM SCT055 12/03 A3026 RMK AO2 SLP237 T01220033 10217 20122 402330089 51023 TSNO,KBMQ,2015-02-12T05:53:00Z,30.73,-98.23,12.2,3.3,30,12,19,10.0,30.259842,1023.7,,TRUE,TRUE,,,TRUE,,,,SCT,5500,,,,,,,VFR,2.3,21.7,12.2,23.3,8.9,,,,,,,METAR,389.0
KBMG 120553Z AUTO 29010KT 10SM OVC025 M02/M07 A3010 RMK AO2 SLP199 T10221072 10006 21022 55003 $,KBMG,2015-02-12T05:53:00Z,39.15,-86.62,-2.2,-7.2,290,10,,10.0,30.100393,1019.9,,TRUE,TRUE,TRUE,,,,,,OVC,2500,,,,,,,MVFR,-0.3,0.6,-2.2,,,,,,,,,METAR,257.0
KBLI 120553Z 00000KT 10SM FEW100 09/07 A3019 RMK AO2 SLP232 T00890072 10122 20083 53008,KBLI,2015-02-12T05:53:00Z,48.8,-122.53,8.9,7.2,0,0,,10.0,30.188976,1023.2,,,TRUE,,,,,,,FEW,10000,,,,,,,VFR,0.8,12.2,8.3,,,,,,,,,METAR,50.0
KBKL 120553Z 26017KT 9SM SCT015 OVC060 M01/M03 A2990 RMK AO2 SNE07 SLP129 P0000 60000 T10111033 10011 21011 50000,KBKL,2015-02-12T05:53:00Z,41.53,-81.67,-1.1,-3.3,260,17,,9.0,29.899607,1012.9,,,TRUE,,,,,,,SCT,1500,OVC,6000,,,,,VFR,0.0,1.1,-1.1,,,0.0050,,0.0050,,,,METAR,184.0
KBKE 120553Z AUTO 21005KT 10SM CLR 03/01 A3035 RMK AO2 SLP292 T00280006 10089 20028 51007 TSNO,KBKE,2015-02-12T05:53:00Z,44.85,-117.82,2.8,0.6,210,5,,10.0,30.351377,1029.2,,TRUE,TRUE,,,TRUE,,,,CLR,,,,,,,,VFR,0.7,8.9,2.8,,,,,,,,,METAR,1024.0
KBIV 120553Z AUTO 35009G20KT 10SM BKN025 OVC034 M05/M11 A3002 RMK AO2 SNE23 SLP175 P0000 60000 T10501106 11006 21050 53010,KBIV,2015-02-12T05:53:00Z,42.75,-86.1,-5.0,-10.6,350,9,20,10.0,30.02067,1017.5,,TRUE,TRUE,,,,,,,BKN,2500,OVC,3400,,,,,MVFR,1.0,-0.6,-5.0,,,0.0050,,0.0050,,,,METAR,208.0
KBIL 120553Z 36003KT 10SM OVC008 M04/M06 A3027 RMK AO2 SLP288 T10391061 11017 21039 58020,KBIL,2015-02-12T05:53:00Z,45.8,-108.55,-3.9,-6.1,360,3,,10.0,30.268702,1028.8,,,TRUE,,,,,,,OVC,800,,,,,,,IFR,-2.0,-1.7,-3.9,,,,,,,,,METAR,1091.0
KBHM 120553Z 00000KT 10SM CLR 03/01 A3010 RMK AO2 SLP193 T00330006 10122 20033 401671033 50000,KBHM,2015-02-12T05:53:00Z,33.57,-86.75,3.3,0.6,0,0,,10.0,30.100393,1019.3,,,TRUE,,,,,,,CLR,,,,,,,,VFR,0.0,12.2,3.3,16.7,-3.3,,,,,,,METAR,197.0
KBGR 120553Z 04007KT 10SM SCT019 M16/M21 A2994 RMK AO2 SLP146 4/049 T11561206 11117 21161 58020,KBGR,2015-02-12T05:53:00Z,44.8,-68.82,-15.6,-20.6,40,7,,10.0,29.940945,1014.6,,,TRUE,,,,,,,SCT,1900,,,,,,,VFR,-2.0,-11.7,-16.1,,,,,,,49.0,,METAR,57.0
KBGM 120553Z AUTO 19005KT 10SM OVC022 M03/M05 A2972 RMK AO2 SLP086 60004 T10331050 11022 21039 58010,KBGM,2015-02-12T05:53:00Z,42.22,-75.98,-3.3,-5.0,190,5,,10.0,29.719488,1008.6,,TRUE,TRUE,,,,,,,OVC,2200,,,,,,,MVFR,-1.0,-2.2,-3.9,,,,,0.04,,,,METAR,490.0
KBTL 120553Z 31012KT 4SM -SN FEW015 BKN021 OVC028 M04/M07 A2995 RMK AO2 SLP155 P0000 60000 T10391072 11011 21039 51003,KBTL,2015-02-12T05:53:00Z,42.32,-85.23,-3.9,-7.2,310,12,,4.0,29.949802,1015.5,,,TRUE,,,,,,-SN,FEW,1500,BKN,2100,OVC,2800,,,MVFR,0.3,-1.1,-3.9,,,0.0050,,0.0050,,,,METAR,290.0
KBRO 120553Z 05006KT 9SM CLR 16/15 A3009 RMK AO2 SLP187 T01610150 10211 20161 402500122 51014,KBRO,2015-02-12T05:53:00Z,25.92,-97.42,16.1,15.0,50,6,,9.0,30.088583,1018.7,,,TRUE,,,,,,,CLR,,,,,,,,VFR,1.4,21.1,16.1,25.0,12.2,,,,,,,METAR,7.0
KBRD 120553Z AUTO 35012KT 7SM BKN020 M19/M23 A3052 RMK AO2 SLP370 60000 T11941233 11161 21194 410391194 51024,KBRD,2015-02-12T05:53:00Z,46.4,-94.13,-19.4,-23.3,350,12,,7.0,30.519686,1037.0,,TRUE,TRUE,,,,,,,BKN,2000,,,,,,,MVFR,2.4,-16.1,-19.4,-3.9,-19.4,,,0.0050,,,,METAR,372.0
KBTR 120553Z AUTO 36003KT 10SM CLR 11/06 A3013 RMK AO2 SLP203 T01110056 10183 20094 402330033 51008 TSNO,KBTR,2015-02-12T05:53:00Z,30.53,-91.15,11.1,5.6,360,3,,10.0,30.129921,1020.3,,TRUE,TRUE,,,TRUE,,,,CLR,,,,,,,,VFR,0.8,18.3,9.4,23.3,3.3,,,,,,,METAR,21.0
KBTM 120553Z AUTO 36003KT 10SM OVC095 02/M03 A3027 RMK AO2 SLP263 T00221033 10078 20022 50002,KBTM,2015-02-12T05:53:00Z,45.97,-112.5,2.2,-3.3,360,3,,10.0,30.268702,1026.3,,TRUE,TRUE,,,,,,,OVC,9500,,,,,,,VFR,0.2,7.8,2.2,,,,,,,,,METAR,1688.0
KBYG 120553Z AUTO 16006KT 10SM CLR M01/M02 A3028 RMK AO2 SLP266 T10111022 10044 21011 58007,KBYG,2015-02-12T05:53:00Z,44.38,-106.72,-1.1,-2.2,160,6,,10.0,30.280512,1026.6,,TRUE,TRUE,,,,,,,CLR,,,,,,,,VFR,-0.7,4.4,-1.1,,,,,,,,,METAR,1497.0
KBWG 120553Z AUTO 31009G19KT 10SM OVC023 02/M04 A3015 RMK AO2 SLP211 T00171039 10089 20017 401111056 51008 $,KBWG,2015-02-12T05:53:00Z,36.97,-86.42,1.7,-3.9,310,9,19,10.0,30.15059,1021.1,,TRUE,TRUE,TRUE,,,,,,OVC,2300,,,,,,,MVFR,0.8,8.9,1.7,11.1,-5.6,,,,,,,METAR,168.0
KBVY 120553Z AUTO 31006KT 10SM OVC028 M11/M16 A2991 RMK AO2 SLP128 T11061156 11100 21156 56019,KBVY,2015-02-12T05:53:00Z,42.58,-70.92,-10.6,-15.6,310,6,,10.0,29.911417,1012.8,,TRUE,TRUE,,,,,,,OVC,2800,,,,,,,MVFR,-1.9,-10.0,-15.6,,,,,,,,,METAR,28.0
KBVO 120553Z AUTO 00000KT 10SM CLR M03/M07 A3045 RMK AO2 SLP314 T10281067 10039 21039 400941039 51015,KBVO,2015-02-12T05:53:00Z,36.77,-96.02,-2.8,-6.7,0,0,,10.0,30.448818,1031.4,,TRUE,TRUE,,,,,,,CLR,,,,,,,,VFR,1.5,3.9,-3.9,9.4,-3.9,,,,,,,METAR,210.0
KCCR 120553Z 00000KT 10SM CLR 11/09 A3020 RMK AO2 SLP212 T01110089 10183 20111 51011,KCCR,2015-02-12T05:53:00Z,38.0,-122.05,11.1,8.9,0,0,,10.0,30.200787,1021.2,,,TRUE,,,,,,,CLR,,,,,,,,VFR,1.1,18.3,11.1,,,,,,,,,METAR,11.0
KCAG 120553Z AUTO 00000KT 10SM CLR M04/M06 A3042 RMK AO2 SLP329 T10441061 10083 21044 50001 $,KCAG,2015-02-12T05:53:00Z,40.5,-107.52,-4.4,-6.1,0,0,,10.0,30.41929,1032.9,,TRUE,TRUE,TRUE,,,,,,CLR,,,,,,,,VFR,0.1,8.3,-4.4,,,,,,,,,METAR,1887.0
KBUR 120553Z 08003KT 10SM CLR 18/M02 A3009 RMK AO2 SLP178 T01831022 10278 20183 51012,KBUR,2015-02-12T05:53:00Z,34.2,-118.37,18.3,-2.2,80,3,,10.0,30.088583,1017.8,,,TRUE,,,,,,,CLR,,,,,,,,VFR,1.2,27.8,18.3,,,,,,,,,METAR,217.0
KCDC 120553Z AUTO 00000KT 10SM CLR M02/M06 A3043 RMK AO2 SLP303 T10171056 10111 21028 53018,KCDC,2015-02-12T05:53:00Z,37.7,-113.1,-1.7,-5.6,0,0,,10.0,30.431103,1030.3,,TRUE,TRUE,,,,,,,CLR,,,,,,,,VFR,1.8,11.1,-2.8,,,,,,,,,METAR,1714.0
KBYI 120553Z AUTO 00000KT 10SM CLR 02/00 A3035 RMK AO2 SLP283 T00170000 10100 20011 56004,KBYI,2015-02-12T05:53:00Z,42.55,-113.77,1.7,0.0,0,0,,10.0,30.351377,1028.3,,TRUE,TRUE,,,,,,,CLR,,,,,,,,VFR,-0.4,10.0,1.1,,,,,,,,,METAR,1264.0
KABY 120553Z AUTO 00000KT 9SM CLR 06/04 A3006 RMK AO2 SLP179 T00560039 10122 20056 55003,KABY,2015-02-12T05:53:00Z,31.53,-84.2,5.6,3.9,0,0,,9.0,30.059055,1017.9,,TRUE,TRUE,,,,,,,CLR,,,,,,,,VFR,-0.3,12.2,5.6,,,,,,,,,METAR,58.0
KABR 120553Z AUTO 01010KT 10SM CLR M18/M23 A3069 RMK AO2 SLP425 60000 T11781228 11133 21178 410671178 53014,KABR,2015-02-12T05:53:00Z,45.45,-98.42,-17.8,-22.8,10,10,,10.0,30.690945,1042.5,,TRUE,TRUE,,,,,,,CLR,,,,,,,,VFR,1.4,-13.3,-17.8,-6.7,-17.8,,,0.0050,,,,METAR,397.0
KAAF 120553Z AUTO 00000KT 10SM CLR 08/05 A3007 RMK AO2 SLP181 T00780050 10133 20078 58007 $,KAAF,2015-02-12T05:53:00Z,29.73,-85.03,7.8,5.0,0,0,,10.0,30.070866,1018.1,,TRUE,TRUE,TRUE,,,,,,CLR,,,,,,,,VFR,-0.7,13.3,7.8,,,,,,,,,METAR,5.0
KACK 120553Z AUTO 35012KT 10SM OVC021 M01/M05 A2984 RMK AO2 SLP105 T10061050 10000 21006 56009,KACK,2015-02-12T05:53:00Z,41.25,-70.07,-0.6,-5.0,350,12,,10.0,29.840551,1010.5,,TRUE,TRUE,,,,,,,OVC,2100,,,,,,,MVFR,-0.9,0.0,-0.6,,,,,,,,,METAR,16.0
KAEX 120553Z 24003KT 9SM CLR 09/06 A3015 RMK AO2 SLPNO T00890061 10189 20089 402220022 51010,KAEX,2015-02-12T05:53:00Z,31.33,-92.57,8.9,6.1,240,3,,9.0,30.15059,,,,TRUE,,,,,,,CLR,,,,,,,,VFR,1.0,18.9,8.9,22.2,2.2,,,,,,,METAR,27.0
KAGS 120553Z AUTO 00000KT 7SM CLR 02/01 A2997 RMK AO2 SLP149 T00170011 10094 20017 56007,KAGS,2015-02-12T05:53:00Z,33.37,-81.97,1.7,1.1,0,0,,7.0,29.970472,1014.9,,TRUE,TRUE,,,,,,,CLR,,,,,,,,VFR,-0.7,9.4,1.7,,,,,,,,,METAR,44.0
KAFW 120553Z 35011KT 10SM FEW075 06/00 A3034 RMK AO2 SLP276 T00610000 10150 20061 401890061 51020,KAFW,2015-02-12T05:53:00Z,32.97,-97.32,6.1,0.0,350,11,,10.0,30.339567,1027.6,,,TRUE,,,,,,,FEW,7500,,,,,,,VFR,2.0,15.0,6.1,18.9,6.1,,,,,,,METAR,233.0
KAIA 120553Z AUTO 06008KT 10SM OVC013 M02/M04 A3038 RMK AO2 SLP307 T10221044 10083 21039 58001,KAIA,2015-02-12T05:53:00Z,42.05,-102.8,-2.2,-4.4,60,8,,10.0,30.380905,1030.7,,TRUE,TRUE,,,,,,,OVC,1300,,,,,,,MVFR,-0.1,8.3,-3.9,,,,,,,,,METAR,1196.0
KAKO 120553Z AUTO 22011KT 10SM CLR 02/M05 A3033 RMK AO2 SLP286 T00171050 10072 20011 58008,KAKO,2015-02-12T05:53:00Z,40.17,-103.22,1.7,-5.0,220,11,,10.0,30.33071,1028.6,,TRUE,TRUE,,,,,,,CLR,,,,,,,,VFR,-0.8,7.2,1.1,,,,,,,,,METAR,1421.0
KALI 120553Z AUTO 02005KT 6SM BR CLR 14/13 A3013 RMK AO2 SLP203 T01440133 10217 20139 402610067 51021,KALI,2015-02-12T05:53:00Z,27.73,-98.02,14.4,13.3,20,5,,6.0,30.129921,1020.3,,TRUE,TRUE,,,,,,BR,CLR,,,,,,,,VFR,2.1,21.7,13.9,26.1,6.7,,,,,,,METAR,53.0
KALW 120553Z AUTO 16004KT 8SM CLR 08/06 A3026 RMK AO2 SLP251 T00830061 10117 20078 55001,KALW,2015-02-12T05:53:00Z,46.1,-118.28,8.3,6.1,160,4,,8.0,30.259842,1025.1,,TRUE,TRUE,,,,,,,CLR,,,,,,,,VFR,-0.1,11.7,7.8,,,,,,,,,METAR,363.0
KAMA 120553Z AUTO 32005KT 10SM SCT100 01/M03 A3044 RMK AO2 SLP314 60000 T00061033 10028 20006 400720006 53007,KAMA,2015-02-12T05:53:00Z,35.22,-101.72,0.6,-3.3,320,5,,10.0,30.43996,1031.4,,TRUE,TRUE,,,,,,,SCT,10000,,,,,,,VFR,0.7,2.8,0.6,7.2,0.6,,,0.0050,,,,METAR,1093.0
KAMW 120553Z AUTO 33024G32KT 10SM BKN029 M13/M19 A3045 RMK AO2 PK WND 34039/0501 SLP325 60000 T11331194 11044 21133 400221133 51043,KAMW,2015-02-12T05:53:00Z,41.98,-93.62,-13.3,-19.4,330,24,32,10.0,30.448818,1032.5,,TRUE,TRUE,,,,,,,BKN,2900,,,,,,,MVFR,4.3,-4.4,-13.3,2.2,-13.3,,,0.0050,,,,METAR,279.0
KANB 120553Z AUTO 24003KT 10SM CLR 02/M01 A3007 RMK AO2 SLP188 T00171006 10094 20017 401671039 50001,KANB,2015-02-12T05:53:00Z,33.58,-85.85,1.7,-0.6,240,3,,10.0,30.070866,1018.8,,TRUE,TRUE,,,,,,,CLR,,,,,,,,VFR,0.1,9.4,1.7,16.7,-3.9,,,,,,,METAR,183.0
KARB 120553Z AUTO 29007KT 10SM FEW023 OVC060 M03/M07 A2991 RMK AO2 SLP138 60000 T10281072 11006 21028 56004,KARB,2015-02-12T05:53:00Z,42.22,-83.73,-2.8,-7.2,290,7,,10.0,29.911417,1013.8,,TRUE,TRUE,,,,,,,FEW,2300,OVC,6000,,,,,VFR,-0.4,-0.6,-2.8,,,,,0.0050,,,,METAR,251.0
KARA 120553Z AUTO 00000KT 5SM BR CLR 11/09 A3015 RMK AO2 SLP210 T01060089 10167 20100 402330061 51012,KARA,2015-02-12T05:53:00Z,30.03,-91.88,10.6,8.9,0,0,,5.0,30.15059,1021.0,,TRUE,TRUE,,,,,,BR,CLR,,,,,,,,MVFR,1.2,16.7,10.0,23.3,6.1,,,,,,,METAR,18.0
KAPF 120553Z AUTO 02004KT 10SM CLR 13/09 A3006 RMK AO2 SLP177 T01280094 10161 20122 55003,KAPF,2015-02-12T05:53:00Z,26.15,-81.77,12.8,9.4,20,4,,10.0,30.059055,1017.7,,TRUE,TRUE,,,,,,,CLR,,,,,,,,VFR,-0.3,16.1,12.2,,,,,,,,,METAR,3.0
KAPA 120553Z 20006KT 10SM CLR 01/M02 A3035 RMK AO2 SLP303 T00061022 10072 20000 58001,KAPA,2015-02-12T05:53:00Z,39.57,-104.85,0.6,-2.2,200,6,,10.0,30.351377,1030.3,,,TRUE,,,,,,,CLR,,,,,,,,VFR,-0.1,7.2,0.0,,,,,,,,,METAR,1775.0
KAOO 120553Z AUTO 27009KT 10SM OVC022 01/M03 A2981 RMK AO2 SLP110 T00061033 10011 20000 58013,KAOO,2015-02-12T05:53:00Z,40.3,-78.32,0.6,-3.3,270,9,,10.0,29.811024,1011.0,,TRUE,TRUE,,,,,,,OVC,2200,,,,,,,MVFR,-1.3,1.1,0.0,,,,,,,,,METAR,455.0
KAOH 120553Z AUTO 31013KT 10SM FEW026 OVC048 M01/M06 A2995 RMK AO2 SLP152 60000 I6003 T10061061 10017 21006 56003,KAOH,2015-02-12T05:53:00Z,40.7,-84.02,-0.6,-6.1,310,13,,10.0,29.949802,1015.2,,TRUE,TRUE,,,,,,,FEW,2600,OVC,4800,,,,,VFR,-0.3,1.7,-0.6,,,,,0.0050,,,,METAR,296.0
KGFL 120553Z AUTO 00000KT 10SM BKN065 OVC085 M09/M13 A2982 RMK AO2 SLP111 T10891133 11089 21111 58017,KGFL,2015-02-12T05:53:00Z,43.33,-73.62,-8.9,-13.3,0,0,,10.0,29.819881,1011.1,,TRUE,TRUE,,,,,,,BKN,6500,OVC,8500,,,,,VFR,-1.7,-8.9,-11.1,,,,,,,,,METAR,103.0
KELD 120553Z AUTO 00000KT 10SM CLR 06/04 A3020 RMK AO2 SLP227 T00610039 10139 20056 401940006 51012,KELD,2015-02-12T05:53:00Z,33.22,-92.82,6.1,3.9,0,0,,10.0,30.200787,1022.7,,TRUE,TRUE,,,,,,,CLR,,,,,,,,VFR,1.2,13.9,5.6,19.4,0.6,,,,,,,METAR,81.0
KEET 120553Z AUTO 00000KT 10SM CLR 07/01 A3008 RMK AO2 SLP185 T00670006 10122 20061 401721011 50000,KEET,2015-02-12T05:53:00Z,33.18,-86.78,6.7,0.6,0,0,,10.0,30.079725,1018.5,,TRUE,TRUE,,,,,,,CLR,,,,,,,,VFR,0.0,12.2,6.1,17.2,-1.1,,,,,,,METAR,173.0
KEEO 120553Z AUTO 13005KT 10SM CLR M01/M06 A3043 RMK AO2 SLP307 T10111061 10100 21022 51008,KEEO,2015-02-12T05:53:00Z,40.05,-107.88,-1.1,-6.1,130,5,,10.0,30.431103,1030.7,,TRUE,TRUE,,,,,,,CLR,,,,,,,,VFR,0.8,10.0,-2.2,,,,,,,,,METAR,1930.0
KECP 120553Z AUTO 00000KT 10SM CLR 06/05 A3007 RMK AO2 SLP194 T00610050 10117 20061 401610011 58003 $,KECP,2015-02-12T05:53:00Z,30.35,-85.8,6.1,5.0,0,0,,10.0,30.070866,1019.4,,TRUE,TRUE,TRUE,,,,,,CLR,,,,,,,,VFR,-0.3,11.7,6.1,16.1,1.1,,,,,,,METAR,21.0
KDXR 120553Z AUTO 00000KT 10SM FEW065 FEW080 BKN110 M07/M11 A2989 RMK AO2 SLP127 T10721111 11033 21089 58010,KDXR,2015-02-12T05:53:00Z,41.37,-73.48,-7.2,-11.1,0,0,,10.0,29.890747,1012.7,,TRUE,TRUE,,,,,,,FEW,6500,FEW,8000,BKN,11000,,,VFR,-1.0,-3.3,-8.9,,,,,,,,,METAR,139.0
KENW 120553Z AUTO 33015G21KT 10SM OVC110 M09/M15 A3010 RMK AO2 SLP205 T10891150 11022 21089 400171089 51012,KENW,2015-02-12T05:53:00Z,42.6,-87.93,-8.9,-15.0,330,15,21,10.0,30.100393,1020.5,,TRUE,TRUE,,,,,,,OVC,11000,,,,,,,VFR,1.2,-2.2,-8.9,1.7,-8.9,,,,,,,METAR,219.0
KEMP 120553Z AUTO 29005KT 10SM CLR M05/M08 A3043 RMK AO2 SLP320 T10501078 10000 21050 400391050 51011,KEMP,2015-02-12T05:53:00Z,38.33,-96.2,-5.0,-7.8,290,5,,10.0,30.431103,1032.0,,TRUE,TRUE,,,,,,,CLR,,,,,,,,VFR,1.1,0.0,-5.0,3.9,-5.0,,,,,,,METAR,367.0
KELN 120553Z AUTO 00000KT 8SM BKN110 07/05 A3025 RMK AO2 SLP252 T00720050 10106 20056 53001,KELN,2015-02-12T05:53:00Z,47.03,-120.53,7.2,5.0,0,0,,8.0,30.250984,1025.2,,TRUE,TRUE,,,,,,,BKN,11000,,,,,,,VFR,0.1,10.6,5.6,,,,,,,,,METAR,519.0
KELM 120553Z AUTO 00000KT 5SM BR OVC026 M02/M02 A2976 RMK AO2 SLP087 60001 T10171022 10011 21017 56017,KELM,2015-02-12T05:53:00Z,42.15,-76.9,-1.7,-2.2,0,0,,5.0,29.760826,1008.7,,TRUE,TRUE,,,,,,BR,OVC,2600,,,,,,,MVFR,-1.7,1.1,-1.7,,,,,0.01,,,,METAR,302.0
KEWB 120553Z AUTO 34004KT 10SM OVC019 M06/M09 A2989 RMK AO2 SLP122 T10611094 11061 21067 56016,KEWB,2015-02-12T05:53:00Z,41.68,-70.95,-6.1,-9.4,340,4,,10.0,29.890747,1012.2,,TRUE,TRUE,,,,,,,OVC,1900,,,,,,,MVFR,-1.6,-6.1,-6.7,,,,,,,,,METAR,23.0
KEVW 120553Z AUTO 18004KT 10SM CLR M01/M04 A3041 RMK AO2 SLP307 T10061044 10067 21006 58004,KEVW,2015-02-12T05:53:00Z,41.27,-111.03,-0.6,-4.4,180,4,,10.0,30.410433,1030.7,,TRUE,TRUE,,,,,,,CLR,,,,,,,,VFR,-0.4,6.7,-0.6,,,,,,,,,METAR,2177.0
KESF 120553Z AUTO 00000KT 10SM CLR 07/06 A3016 RMK AO2 SLP213 T00720056 10161 20072 402390000 51009,KESF,2015-02-12T05:53:00Z,31.4,-92.28,7.2,5.6,0,0,,10.0,30.159449,1021.3,,TRUE,TRUE,,,,,,,CLR,,,,,,,,VFR,0.9,16.1,7.2,23.9,,,,,,,,METAR,28.0
KEQY 120553Z AUTO 22004KT 10SM CLR 05/00 A2992 RMK AO2 SLP146 T00500000 10083 20044 58015,KEQY,2015-02-12T05:53:00Z,35.02,-80.62,5.0,0.0,220,4,,10.0,29.920275,1014.6,,TRUE,TRUE,,,,,,,CLR,,,,,,,,VFR,-1.5,8.3,4.4,,,,,,,,,METAR,212.0
KEPH 120553Z AUTO 00000KT 10SM OVC110 08/06 A3025 RMK AO2 SLP251 T00830061 10111 20072 52007,KEPH,2015-02-12T05:53:00Z,47.3,-119.52,8.3,6.1,0,0,,10.0,30.250984,1025.1,,TRUE,TRUE,,,,,,,OVC,11000,,,,,,,VFR,0.7,11.1,7.2,,,,,,,,,METAR,383.0
KEYW 120553Z AUTO 36007KT 10SM CLR 17/13 A3005 RMK AO2 SLP176 T01720133 10172 20161 53000,KEYW,2015-02-12T05:53:00Z,24.55,-81.75,17.2,13.3,360,7,,10.0,30.050198,1017.6,,TRUE,TRUE,,,,,,,CLR,,,,,,,,VFR,0.0,17.2,16.1,,,,,,,,,METAR,5.0
KEYE 120553Z AUTO 30014G20KT 10SM OVC020 M04/M08 A3008 RMK AO2 SLP194 T10441083 11011 21044 50002 $,KEYE,2015-02-12T05:53:00Z,39.83,-86.3,-4.4,-8.3,300,14,20,10.0,30.079725,1019.4,,TRUE,TRUE,TRUE,,,,,,OVC,2000,,,,,,,MVFR,0.2,-1.1,-4.4,,,,,,,,,METAR,248.0
KDAN 120553Z AUTO 20003KT 10SM CLR 01/M02 A2990 RMK AO2 SLP123 T00111022 10056 20006 58011,KDAN,2015-02-12T05:53:00Z,36.57,-79.33,1.1,-2.2,200,3,,10.0,29.899607,1012.3,,TRUE,TRUE,,,,,,,CLR,,,,,,,,VFR,-1.1,5.6,0.6,,,,,,,,,METAR,175.0
KDAL 120553Z 35012KT 10SM FEW060 08/M01 A3033 RMK AO2 SLP269 T00781006 10172 20078 402060078 51022,KDAL,2015-02-12T05:53:00Z,32.85,-96.85,7.8,-0.6,350,12,,10.0,30.33071,1026.9,,,TRUE,,,,,,,FEW,6000,,,,,,,VFR,2.2,17.2,7.8,20.6,7.8,,,,,,,METAR,158.0
KDAB 120553Z 23004KT 9SM CLR 07/06 A3007 RMK AO2 SLP182 T00720061 10122 20067 55002 $,KDAB,2015-02-12T05:53:00Z,29.18,-81.07,7.2,6.1,230,4,,9.0,30.070866,1018.2,,,TRUE,TRUE,,,,,,CLR,,,,,,,,VFR,-0.2,12.2,6.7,,,,,,,,,METAR,9.0
KD95 120553Z AUTO 34010G15KT 7SM -SN SCT015 BKN021 OVC065 M06/M09 A2991 RMK AO2 T10631090,KD95,2015-02-12T05:53:00Z,43.07,-83.27,-6.3,-9.0,340,10,15,7.0,29.911417,,,TRUE,TRUE,,,,,,-SN,SCT,1500,BKN,2100,OVC,6500,,,MVFR,,,,,,,,,,,,METAR,255.0
KCYS 120553Z AUTO 00000KT 10SM CLR M01/M06 A3033 RMK AO2 SLP283 T10111061 10078 21028 56008,KCYS,2015-02-12T05:53:00Z,41.15,-104.8,-1.1,-6.1,0,0,,10.0,30.33071,1028.3,,TRUE,TRUE,,,,,,,CLR,,,,,,,,VFR,-0.8,7.8,-2.8,,,,,,,,,METAR,1868.0
KCXO 120553Z 32003KT 9SM CLR 08/07 A3018 RMK AO2 SLP217 T00830072 10194 20083 402280072 51013,KCXO,2015-02-12T05:53:00Z,30.35,-95.42,8.3,7.2,320,3,,9.0,30.180119,1021.7,,,TRUE,,,,,,,CLR,,,,,,,,VFR,1.3,19.4,8.3,22.8,7.2,,,,,,,METAR,75.0
KDCU 120553Z AUTO 00000KT 10SM CLR 04/M01 A3010 RMK AO2 SLP194 T00441011 10100 20028 401331050 50000,KDCU,2015-02-12T05:53:00Z,34.65,-86.95,4.4,-1.1,0,0,,10.0,30.100393,1019.4,,TRUE,TRUE,,,,,,,CLR,,,,,,,,VFR,0.0,10.0,2.8,13.3,-5.0,,,,,,,METAR,176.0
KDBQ 120553Z AUTO 32020G25KT 1 3/4SM -SN FEW037 OVC050 M12/M16 A3022 RMK AO2 PK WND 32027/0541 SLP252 P0000 60000 T11221156 11078 21122 400061122 51008,KDBQ,2015-02-12T05:53:00Z,42.4,-90.7,-12.2,-15.6,320,20,25,1.75,30.221457,1025.2,,TRUE,TRUE,,,,,,-SN,FEW,3700,OVC,5000,,,,,IFR,0.8,-7.8,-12.2,0.6,-12.2,0.0050,,0.0050,,,,METAR,326.0
KDEN 120553Z 21011KT 10SM CLR 02/M03 A3034 RMK AO2 SLP272 T00171028 10067 21011 58003,KDEN,2015-02-12T05:53:00Z,39.85,-104.65,1.7,-2.8,210,11,,10.0,30.339567,1027.2,,,TRUE,,,,,,,CLR,,,,,,,,VFR,-0.3,6.7,-1.1,,,,,,,,,METAR,1640.0
KDEQ 120553Z AUTO 31003KT 8SM CLR 06/02 A3025 RMK AO2 SLP241 T00610017 10150 20061 401940039 51017,KDEQ,2015-02-12T05:53:00Z,34.05,-94.4,6.1,1.7,310,3,,8.0,30.250984,1024.1,,TRUE,TRUE,,,,,,,CLR,,,,,,,,VFR,1.7,15.0,6.1,19.4,3.9,,,,,,,METAR,106.0
KDET 120553Z 30012G17KT 260V320 2SM -SN FEW010 BKN018 OVC041 M02/M06 A2990 RMK AO2 SNB29E42B45 SLP134 P0001 60001 T10221061 10011 21022 55000,KDET,2015-02-12T05:53:00Z,42.4,-83.02,-2.2,-6.1,300,12,17,2.0,29.899607,1013.4,,,TRUE,,,,,,-SN,FEW,1000,BKN,1800,OVC,4100,,,IFR,0.0,1.1,-2.2,,,0.01,,0.01,,,,METAR,190.0
KDEW 120553Z AUTO 00000KT 10SM SCT110 05/04 A3028 RMK AO2 SLP264 T00500044 10094 20039 53001,KDEW,2015-02-12T05:53:00Z,47.97,-117.43,5.0,4.4,0,0,,10.0,30.280512,1026.4,,TRUE,TRUE,,,,,,,SCT,11000,,,,,,,VFR,0.1,9.4,3.9,,,,,,,,,METAR,674.0
KDFW 120553Z 35013KT 10SM FEW250 07/M01 A3033 RMK AO2 SLP268 T00721011 10156 20072 401940072 51021,KDFW,2015-02-12T05:53:00Z,32.9,-97.02,7.2,-1.1,350,13,,10.0,30.33071,1026.8,,,TRUE,,,,,,,FEW,25000,,,,,,,VFR,2.1,15.6,7.2,19.4,7.2,,,,,,,METAR,174.0
KDFI 120553Z AUTO VRB05KT 7SM -SN SCT039 OVC049 M02/M06 A2996 RMK AO2 SNE06B27 SLP154 P0000 60000 I6000 T10171056 10006 21017 58006,KDFI,2015-02-12T05:53:00Z,41.33,-84.43,-1.7,-5.6,0,5,,7.0,29.958662,1015.4,,TRUE,TRUE,,,,,,-SN,SCT,3900,OVC,4900,,,,,VFR,-0.6,0.6,-1.7,,,0.0050,,0.0050,,,,METAR,219.0
KDGW 120553Z AUTO 11005KT 10SM CLR M01/M03 A3032 RMK AO2 SLP276 T10061028 10083 21006 58003,KDGW,2015-02-12T05:53:00Z,42.8,-105.38,-0.6,-2.8,110,5,,10.0,30.318897,1027.6,,TRUE,TRUE,,,,,,,CLR,,,,,,,,VFR,-0.3,8.3,-0.6,,,,,,,,,METAR,1499.0
KDHN 120553Z AUTO 26004KT 10SM CLR 08/03 A3009 RMK AO2 SLP188 T00830033 10150 20083 401830006 55000,KDHN,2015-02-12T05:53:00Z,31.32,-85.45,8.3,3.3,260,4,,10.0,30.088583,1018.8,,TRUE,TRUE,,,,,,,CLR,,,,,,,,VFR,0.0,15.0,8.3,18.3,0.6,,,,,,,METAR,113.0
KDHT 120553Z AUTO 31006KT 10SM CLR M02/M04 A3046 RMK AO2 SLP328 T10171044 10056 21017 400781017 53013,KDHT,2015-02-12T05:53:00Z,36.02,-102.55,-1.7,-4.4,310,6,,10.0,30.46063,1032.8,,TRUE,TRUE,,,,,,,CLR,,,,,,,,VFR,1.3,5.6,-1.7,7.8,-1.7,,,,,,,METAR,1217.0
KDKK 120553Z AUTO 28009KT 1 1/4SM -SN BR OVC006 M02/M02 A2979 RMK AO2 SLP096 P0004 60006 I6017 T10221022 11006 21022 56007,KDKK,2015-02-12T05:53:00Z,42.5,-79.28,-2.2,-2.2,280,9,,1.25,29.790354,1009.6,,TRUE,TRUE,,,,,,-SN BR,OVC,600,,,,,,,IFR,-0.7,-0.6,-2.2,,,0.04,,0.06,,,,METAR,202.0
KDLN 120553Z AUTO 22015KT 10SM OVC095 04/M03 A3028 RMK AO2 SLP255 T00391028 10089 20033 53001,KDLN,2015-02-12T05:53:00Z,45.25,-112.55,3.9,-2.8,220,15,,10.0,30.280512,1025.5,,TRUE,TRUE,,,,,,,OVC,9500,,,,,,,VFR,0.1,8.9,3.3,,,,,,,,,METAR,1591.0
KGSH 120553Z AUTO 30016KT 9SM FEW040 OVC046 M04/M08 A3000 RMK AO2 PK WND 31026/0523 SNE25B44E53 SLP168 P0000 60000 T10391083 11006 21039 53004,KGSH,2015-02-12T05:53:00Z,41.53,-85.78,-3.9,-8.3,300,16,,9.0,30.0,1016.8,,TRUE,TRUE,,,,,,,FEW,4000,OVC,4600,,,,,VFR,0.4,-0.6,-3.9,,,0.0050,,0.0050,,,,METAR,252.0
KDRO 120553Z AUTO 06005KT 10SM CLR M03/M04 A3041 RMK AO2 SLP316 T10281044 10094 21028 51010,KDRO,2015-02-12T05:53:00Z,37.15,-107.77,-2.8,-4.4,60,5,,10.0,30.410433,1031.6,,TRUE,TRUE,,,,,,,CLR,,,,,,,,VFR,1.0,9.4,-2.8,,,,,,,,,METAR,2035.0
KDNL 120553Z AUTO 24003KT 10SM CLR 09/04 A2997 RMK AO2 SLP146 T00940039 10133 20089 56013,KDNL,2015-02-12T05:53:00Z,33.47,-82.03,9.4,3.9,240,3,,10.0,29.970472,1014.6,,TRUE,TRUE,,,,,,,CLR,,,,,,,,VFR,-1.3,13.3,8.9,,,,,,,,,METAR,130.0
KDMO 120553Z AUTO 31011KT 10SM OVC060 M02/M07 A3038 RMK AO2 SLP296 T10171067 10000 21028 400391028 51009,KDMO,2015-02-12T05:53:00Z,38.72,-93.17,-1.7,-6.7,310,11,,10.0,30.380905,1029.6,,TRUE,TRUE,,,,,,,OVC,6000,,,,,,,VFR,0.9,0.0,-2.8,3.9,-2.8,,,,,,,METAR,274.0
KDMN 120553Z AUTO 05019G28KT 10SM CLR 07/M01 A3032 RMK AO2 PK WND 04033/0519 SLP231 T00671006 10150 20067 51012,KDMN,2015-02-12T05:53:00Z,32.27,-107.72,6.7,-0.6,50,19,28,10.0,30.318897,1023.1,,TRUE,TRUE,,,,,,,CLR,,,,,,,,VFR,1.2,15.0,6.7,,,,,,,,,METAR,1311.0
KDLS 120553Z AUTO 00000KT 10SM CLR 06/04 A3029 RMK AO2 SLP258 T00610044 10122 20061 53008,KDLS,2015-02-12T05:53:00Z,45.62,-121.17,6.1,4.4,0,0,,10.0,30.28937,1025.8,,TRUE,TRUE,,,,,,,CLR,,,,,,,,VFR,0.8,12.2,6.1,,,,,,,,,METAR,71.0
KHGR 120553Z 24005KT 10SM OVC055 03/M04 A2985 RMK AO2 SLP124 T00281039 10039 20022 56013,KHGR,2015-02-12T05:53:00Z,39.7,-77.73,2.8,-3.9,240,5,,10.0,29.84941,1012.4,,,TRUE,,,,,,,OVC,5500,,,,,,,VFR,-1.3,3.9,2.2,,,,,,,,,METAR,224.0
KHAO 120553Z AUTO 27008KT 10SM OVC024 00/M05 A3004 RMK AO2 SLP179 60000 T00001050 10028 20000 56001,KHAO,2015-02-12T05:53:00Z,39.37,-84.52,0.0,-5.0,270,8,,10.0,30.041338,1017.9,,TRUE,TRUE,,,,,,,OVC,2400,,,,,,,MVFR,-0.1,2.8,0.0,,,,,0.0050,,,,METAR,188.0
KGZH 120553Z AUTO 00000KT 10SM CLR 04/03 A3009 RMK AO2 SLP189 T00390028 10139 20039 401941028 55001,KGZH,2015-02-12T05:53:00Z,31.42,-87.05,3.9,2.8,0,0,,10.0,30.088583,1018.9,,TRUE,TRUE,,,,,,,CLR,,,,,,,,VFR,-0.1,13.9,3.9,19.4,-2.8,,,,,,,METAR,78.0
KGWO 120553Z AUTO 00000KT 10SM CLR 04/02 A3017 RMK AO2 SLP216 T00390017 10133 20039 401611022 52004,KGWO,2015-02-12T05:53:00Z,33.5,-90.08,3.9,1.7,0,0,,10.0,30.171259,1021.6,,TRUE,TRUE,,,,,,,CLR,,,,,,,,VFR,0.4,13.3,3.9,16.1,-2.2,,,,,,,METAR,44.0
KGVL 120553Z AUTO 27006KT 10SM CLR 07/M01 A2998 RMK AO2 SLP148 T00721006 10122 20072 56009,KGVL,2015-02-12T05:53:00Z,34.27,-83.83,7.2,-0.6,270,6,,10.0,29.97933,1014.8,,TRUE,TRUE,,,,,,,CLR,,,,,,,,VFR,-0.9,12.2,7.2,,,,,,,,,METAR,386.0
KGUY 120553Z AUTO 00000KT 10SM CLR M03/M07 A3044 RMK AO2 SLP320 T10331067 10067 21033 400781033 50011,KGUY,2015-02-12T05:53:00Z,36.68,-101.5,-3.3,-6.7,0,0,,10.0,30.43996,1032.0,,TRUE,TRUE,,,,,,,CLR,,,,,,,,VFR,1.1,6.7,-3.3,7.8,-3.3,,,,,,,METAR,948.0
KGUP 120553Z AUTO 00000KT 10SM CLR M03/M04 A3042 RMK AO2 SLP294 T10281044 10083 21028 53008,KGUP,2015-02-12T05:53:00Z,35.52,-108.8,-2.8,-4.4,0,0,,10.0,30.41929,1029.4,,TRUE,TRUE,,,,,,,CLR,,,,,,,,VFR,0.8,8.3,-2.8,,,,,,,,,METAR,1971.0
KGTF 120553Z 24003KT 2SM BR SCT002 OVC100 M03/M03 A3016 RMK AO2 SFC VIS 3 SLP268 T10281028 11028 21033 58018,KGTF,2015-02-12T05:53:00Z,47.47,-111.38,-2.8,-2.8,240,3,,2.0,30.159449,1026.8,,,TRUE,,,,,,BR,SCT,200,OVC,10000,,,,,IFR,-1.8,-2.8,-3.3,,,,,,,,,METAR,1119.0
KGSP 120553Z AUTO 00000KT 10SM CLR 05/02 A2991 RMK AO2 SLP128 T00500017 10111 20028 58012,KGSP,2015-02-12T05:53:00Z,34.9,-82.22,5.0,1.7,0,0,,10.0,29.911417,1012.8,,TRUE,TRUE,,,,,,,CLR,,,,,,,,VFR,-1.2,11.1,2.8,,,,,,,,,METAR,287.0
KHBG 120553Z AUTO 00000KT 10SM CLR 07/04 A3013 RMK AO2 SLP202 T00670039 10161 20061 402111011 51006,KHBG,2015-02-12T05:53:00Z,31.27,-89.25,6.7,3.9,0,0,,10.0,30.129921,1020.2,,TRUE,TRUE,,,,,,,CLR,,,,,,,,VFR,0.6,16.1,6.1,21.1,-1.1,,,,,,,METAR,44.0
KHEI 120553Z AUTO 11009KT 10SM FEW010 M16/M19 A3053 RMK AO2 SLP395 T11611189 11100 21161 51003,KHEI,2015-02-12T05:53:00Z,46.02,-102.65,-16.1,-18.9,110,9,,10.0,30.528543,1039.5,,TRUE,TRUE,,,,,,,FEW,1000,,,,,,,VFR,0.3,-10.0,-16.1,,,,,,,,,METAR,828.0
KHBR 120553Z AUTO 04010KT BKN095 04/M03 A3041 RMK AO2 SLP304 T00391033 10061 20011 401000011 51008,KHBR,2015-02-12T05:53:00Z,34.98,-99.05,3.9,-3.3,40,10,,,30.410433,1030.4,,TRUE,TRUE,,,,,,,BKN,9500,,,,,,,,0.8,6.1,1.1,10.0,1.1,,,,,,,METAR,473.0
KHIB 120553Z AUTO 35013KT 8SM OVC021 M19/M24 A3046 RMK AO2 SLP355 60000 T11891239 11167 21189 410441189 51029,KHIB,2015-02-12T05:53:00Z,47.38,-92.83,-18.9,-23.9,350,13,,8.0,30.46063,1035.5,,TRUE,TRUE,,,,,,,OVC,2100,,,,,,,MVFR,2.9,-16.7,-18.9,-4.4,-18.9,,,0.0050,,,,METAR,412.0
KHHR 120553Z 00000KT 10SM CLR 20/01 A3007 RMK AO2 SLP182 T02000011 10317 20200 51013,KHHR,2015-02-12T05:53:00Z,33.92,-118.33,20.0,1.1,0,0,,10.0,30.070866,1018.2,,,TRUE,,,,,,,CLR,,,,,,,,VFR,1.3,31.7,20.0,,,,,,,,,METAR,18.0
KHFD 120553Z 00000KT 10SM CLR M10/M13 A2993 RMK AO2 SLP134 T11001133 11050 21111 58012,KHFD,2015-02-12T05:53:00Z,41.73,-72.65,-10.0,-13.3,0,0,,10.0,29.929134,1013.4,,,TRUE,,,,,,,CLR,,,,,,,,VFR,-1.2,-5.0,-11.1,,,,,,,,,METAR,4.0
KACV 120553Z AUTO 11003KT 10SM CLR 07/07 A3023 RMK AO2 SLP243 T00670067 10128 20067 53007,KACV,2015-02-12T05:53:00Z,40.98,-124.1,6.7,6.7,110,3,,10.0,30.230314,1024.3,,TRUE,TRUE,,,,,,,CLR,,,,,,,,VFR,0.7,12.8,6.7,,,,,,,,,METAR,67.0
KHIO 120553Z 00000KT 10SM OVC110 09/08 A3023 RMK AO2 SLP237 T00890083 10117 20089 51011,KHIO,2015-02-12T05:53:00Z,45.55,-122.95,8.9,8.3,0,0,,10.0,30.230314,1023.7,,,TRUE,,,,,,,OVC,11000,,,,,,,VFR,1.1,11.7,8.9,,,,,,,,,METAR,68.0
KHOT 120553Z AUTO 01004KT 10SM CLR 08/02 A3026 RMK AO2 SLP245 T00830017 10150 20078 401830011 51023,KHOT,2015-02-12T05:53:00Z,34.48,-93.1,8.3,1.7,10,4,,10.0,30.259842,1024.5,,TRUE,TRUE,,,,,,,CLR,,,,,,,,VFR,2.3,15.0,7.8,18.3,1.1,,,,,,,METAR,162.0
KHLN 120553Z AUTO 00000KT 10SM FEW110 04/01 A3022 RMK AO2 SLP270 T00390011 10094 20033 58001,KHLN,2015-02-12T05:53:00Z,46.6,-111.98,3.9,1.1,0,0,,10.0,30.221457,1027.0,,TRUE,TRUE,,,,,,,FEW,11000,,,,,,,VFR,-0.1,9.4,3.3,,,,,,,,,METAR,1182.0
KHLG 120553Z AUTO 25010G17KT 5SM BR SCT007 BKN011 OVC020 00/M01 A2987 RMK AO2 FZRAE03 CIG 008V015 SLP127 P0000 60000 I1001 I6002 T00001011 10017 20000 58012,KHLG,2015-02-12T05:53:00Z,40.17,-80.65,0.0,-1.1,250,10,17,5.0,29.870079,1012.7,,TRUE,TRUE,,,,,,BR,SCT,700,BKN,1100,OVC,2000,,,MVFR,-1.2,1.7,0.0,,,0.0050,,0.0050,,,,METAR,372.0
KHKY 120553Z AUTO 29003KT 10SM CLR 06/M02 A2991 RMK AO2 SLP119 T00561017 10094 20022 58008,KHKY,2015-02-12T05:53:00Z,35.75,-81.38,5.6,-1.7,290,3,,10.0,29.911417,1011.9,,TRUE,TRUE,,,,,,,CLR,,,,,,,,VFR,-0.8,9.4,2.2,,,,,,,,,METAR,354.0
KHKS 120553Z AUTO 10SM CLR 10/02 A3016 RMK AO2 SLP208 T01000017 10161 20100 402000000 50007 PWINO $,KHKS,2015-02-12T05:53:00Z,32.33,-90.22,10.0,1.7,,,,10.0,30.159449,1020.8,,TRUE,TRUE,TRUE,,,,TRUE,,CLR,,,,,,,,VFR,0.7,16.1,10.0,20.0,,,,,,,,METAR,108.0
KHKA 120553Z AUTO 01013KT 10SM CLR 01/M03 A3024 RMK AO2 SLP242 T00111028 10083 20011 401441039 50006,KHKA,2015-02-12T05:53:00Z,35.93,-89.83,1.1,-2.8,10,13,,10.0,30.239174,1024.2,,TRUE,TRUE,,,,,,,CLR,,,,,,,,VFR,0.6,8.3,1.1,14.4,-3.9,,,,,,,METAR,78.0
KHJO 120553Z AUTO 24003KT 3SM BR CLR 11/10 A3021 RMK AO2 SLP231 T01110100 10189 20106 53015,KHJO,2015-02-12T05:53:00Z,36.32,-119.62,11.1,10.0,240,3,,3.0,30.209646,1023.1,,TRUE,TRUE,,,,,,BR,CLR,,,,,,,,MVFR,1.5,18.9,10.6,,,,,,,,,METAR,74.0
KFAT 120553Z 00000KT 6SM BR FEW150 SCT200 13/11 A3020 RMK AO2 SLP225 T01280106 10206 20122 53012,KFAT,2015-02-12T05:53:00Z,36.78,-119.72,12.8,10.6,0,0,,6.0,30.200787,1022.5,,,TRUE,,,,,,BR,FEW,15000,SCT,20000,,,,,VFR,1.2,20.6,12.2,,,,,,,,,METAR,104.0
KFAR 120553Z AUTO 34009KT 10SM CLR M22/M25 A3068 RMK AO2 SLP418 T12171250 11178 21217 410831217 53005 TSNO,KFAR,2015-02-12T05:53:00Z,46.93,-96.82,-21.7,-25.0,340,9,,10.0,30.679134,1041.8,,TRUE,TRUE,,,TRUE,,,,CLR,,,,,,,,VFR,0.5,-17.8,-21.7,-8.3,-21.7,,,,,,,METAR,277.0
KHQM 120553Z AUTO 00000KT 5SM -RA BR OVC095 11/09 A3021 RMK AO2 SLP232 P0000 60000 T01060094 10133 20100 51011,KHQM,2015-02-12T05:53:00Z,46.97,-123.93,10.6,9.4,0,0,,5.0,30.209646,1023.2,,TRUE,TRUE,,,,,,-RA BR,OVC,9500,,,,,,,MVFR,1.1,13.3,10.0,,,0.0050,,0.0050,,,,METAR,7.0
KHOU 120553Z 00000KT 3SM BR BCFG FEW006 11/11 A3015 RMK AO2 SLP214 VIS SE-S 1/2 T01110111 10178 20106 402220094 51008 $,KHOU,2015-02-12T05:53:00Z,29.63,-95.28,11.1,11.1,0,0,,3.0,30.15059,1021.4,,,TRUE,TRUE,,,,,BR BCFG,FEW,600,,,,,,,MVFR,0.8,17.8,10.6,22.2,9.4,,,,,,,METAR,36.0
KFAY 120553Z AUTO 18004KT 10SM CLR 02/00 A2995 RMK AO2 SLP137 T00220000 10072 20022 58012,KFAY,2015-02-12T05:53:00Z,34.98,-78.88,2.2,0.0,180,4,,10.0,29.949802,1013.7,,TRUE,TRUE,,,,,,,CLR,,,,,,,,VFR,-1.2,7.2,2.2,,,,,,,,,METAR,55.0
KFCM 120553Z AUTO 34013G19KT 10SM CLR M17/M22 A3048 RMK AO2 SLP342 60000 T11671222 11117 21167 410061167 51033,KFCM,2015-02-12T05:53:00Z,44.83,-93.47,-16.7,-22.2,340,13,19,10.0,30.481298,1034.2,,TRUE,TRUE,,,,,,,CLR,,,,,,,,VFR,3.3,-11.7,-16.7,-0.6,-16.7,,,0.0050,,,,METAR,280.0
KFDR 120553Z AUTO 32005KT 10SM FEW110 04/M03 A3040 RMK AO2 SLP293 T00391028 10083 20028 401330028 53008,KFDR,2015-02-12T05:53:00Z,34.35,-98.98,3.9,-2.8,320,5,,10.0,30.398623,1029.3,,TRUE,TRUE,,,,,,,FEW,11000,,,,,,,VFR,0.8,8.3,2.8,13.3,2.8,,,,,,,METAR,386.0
KFFC 120553Z AUTO 30004KT 10SM CLR 04/01 A3003 RMK AO2 SLP170 T00440011 10106 20022 58003,KFFC,2015-02-12T05:53:00Z,33.35,-84.57,4.4,1.1,300,4,,10.0,30.029528,1017.0,,TRUE,TRUE,,,,,,,CLR,,,,,,,,VFR,-0.3,10.6,2.2,,,,,,,,,METAR,262.0
KFDY 120553Z AUTO 29009KT 10SM OVC048 M01/M06 A2994 RMK AO2 SNB18E28 SLP144 P0000 60000 I6000 T10111056 10011 21011 57004,KFDY,2015-02-12T05:53:00Z,41.02,-83.67,-1.1,-5.6,290,9,,10.0,29.940945,1014.4,,TRUE,TRUE,,,,,,,OVC,4800,,,,,,,VFR,-0.4,1.1,-1.1,,,0.0050,,0.0050,,,,METAR,247.0
KFFT 120553Z AUTO 31005KT 10SM BKN017 OVC026 00/M03 A3005 RMK AO2 SLP180 T00001033 10072 20000 56000,KFFT,2015-02-12T05:53:00Z,38.18,-84.9,0.0,-3.3,310,5,,10.0,30.050198,1018.0,,TRUE,TRUE,,,,,,,BKN,1700,OVC,2600,,,,,MVFR,0.0,7.2,0.0,,,,,,,,,METAR,236.0
KFHR 120553Z AUTO 00000KT 10SM BKN110 08/07 A3020 RMK AO2 SLP228 T00830072 10106 20078 53006,KFHR,2015-02-12T05:53:00Z,48.52,-123.03,8.3,7.2,0,0,,10.0,30.200787,1022.8,,TRUE,TRUE,,,,,,,BKN,11000,,,,,,,VFR,0.6,10.6,7.8,,,,,,,,,METAR,32.0
KFLD 120553Z AUTO 34013KT 10SM BKN090 OVC110 M10/M17 A3015 RMK AO2 SLP224 60000 T11001172 11067 21100 410061100 51020,KFLD,2015-02-12T05:53:00Z,43.77,-88.48,-10.0,-17.2,340,13,,10.0,30.15059,1022.4,,TRUE,TRUE,,,,,,,BKN,9000,OVC,11000,,,,,VFR,2.0,-6.7,-10.0,-0.6,-10.0,,,0.0050,,,,METAR,240.0
KFLL 120553Z 31004KT 10SM BKN046 15/12 A3003 RMK AO2 SLP167 T01500122 10189 20144 50001,KFLL,2015-02-12T05:53:00Z,26.07,-80.15,15.0,12.2,310,4,,10.0,30.029528,1016.7,,,TRUE,,,,,,,BKN,4600,,,,,,,VFR,0.1,18.9,14.4,,,,,,,,,METAR,3.0
KFLO 120553Z AUTO 00000KT 10SM CLR 03/00 A2997 RMK AO2 SLP147 T00280000 10078 20022 58010,KFLO,2015-02-12T05:53:00Z,34.18,-79.73,2.8,0.0,0,0,,10.0,29.970472,1014.7,,TRUE,TRUE,,,,,,,CLR,,,,,,,,VFR,-1.0,7.8,2.2,,,,,,,,,METAR,44.0
KFMN 120553Z AUTO 05004KT 10SM CLR 00/M03 A3040 RMK AO2 SLP299 T00001033 10117 21006 53013,KFMN,2015-02-12T05:53:00Z,36.75,-108.23,0.0,-3.3,50,4,,10.0,30.398623,1029.9,,TRUE,TRUE,,,,,,,CLR,,,,,,,,VFR,1.3,11.7,-0.6,,,,,,,,,METAR,1685.0
KFMY 120553Z AUTO 03003KT 10SM CLR 11/09 A3006 RMK AO2 SLP181 T01110089 10150 20111 58000,KFMY,2015-02-12T05:53:00Z,26.58,-81.87,11.1,8.9,30,3,,10.0,30.059055,1018.1,,TRUE,TRUE,,,,,,,CLR,,,,,,,,VFR,0.0,15.0,11.1,,,,,,,,,METAR,4.0
KFNT 120553Z 33011KT 10SM FEW023 OVC060 M05/M11 A2993 RMK AO2 SLP145 60000 T10501106 11011 21050 53010,KFNT,2015-02-12T05:53:00Z,42.97,-83.75,-5.0,-10.6,330,11,,10.0,29.929134,1014.5,,,TRUE,,,,,,,FEW,2300,OVC,6000,,,,,VFR,1.0,-1.1,-5.0,,,,,0.0050,,,,METAR,233.0
KFOK 120553Z AUTO 33003KT 10SM CLR M14/M17 A2994 RMK AO2 SLP138 I6000 T11391167 11067 21139 58007 TSNO,KFOK,2015-02-12T05:53:00Z,40.85,-72.62,-13.9,-16.7,330,3,,10.0,29.940945,1013.8,,TRUE,TRUE,,,TRUE,,,,CLR,,,,,,,,VFR,-0.7,-6.7,-13.9,,,,,,,,,METAR,33.0
KFOE 120553Z AUTO 32005KT 10SM FEW048 SCT070 M04/M07 A3043 RMK AO2 SLP315 T10441072 10000 21050 400501050 51010,KFOE,2015-02-12T05:53:00Z,38.93,-95.65,-4.4,-7.2,320,5,,10.0,30.431103,1031.5,,TRUE,TRUE,,,,,,,FEW,4800,SCT,7000,,,,,VFR,1.0,0.0,-5.0,5.0,-5.0,,,,,,,METAR,320.0
KFOZ 120553Z AUTO 34006KT 10SM SCT022 M21/M24 A3051 RMK AO2,KFOZ,2015-02-12T05:53:00Z,47.77,-93.65,-21.0,-24.0,340,6,,10.0,30.510826,,,TRUE,TRUE,,,,,,,SCT,2200,,,,,,,VFR,,,,,,,,,,,,METAR,411.0
KFPR 120553Z AUTO 00000KT 10SM CLR 07/06 A3005 RMK AO2 SLP176 T00720061 10144 20072 56003,KFPR,2015-02-12T05:53:00Z,27.5,-80.38,7.2,6.1,0,0,,10.0,30.050198,1017.6,,TRUE,TRUE,,,,,,,CLR,,,,,,,,VFR,-0.3,14.4,7.2,,,,,,,,,METAR,13.0
KFRG 120553Z AUTO 08004KT 10SM FEW120 M06/M10 A2991 RMK AO2 SLP129 T10561100 11028 21067 58016,KFRG,2015-02-12T05:53:00Z,40.73,-73.42,-5.6,-10.0,80,4,,10.0,29.911417,1012.9,,TRUE,TRUE,,,,,,,FEW,12000,,,,,,,VFR,-1.6,-2.8,-6.7,,,,,,,,,METAR,21.0
KFST 120553Z AUTO 01013KT 10SM OVC032 08/01 A3039 RMK AO2 SLP270 T00780006 10128 20078 401890078 53011,KFST,2015-02-12T05:53:00Z,30.92,-102.92,7.8,0.6,10,13,,10.0,30.389763,1027.0,,TRUE,TRUE,,,,,,,OVC,3200,,,,,,,VFR,1.1,12.8,7.8,18.9,7.8,,,,,,,METAR,918.0
KFSM 120553Z 36014KT 10SM BKN110 05/M04 A3035 RMK AO2 SLP279 T00501044 10100 20050 401890022 51019 $,KFSM,2015-02-12T05:53:00Z,35.33,-94.37,5.0,-4.4,360,14,,10.0,30.351377,1027.9,,,TRUE,TRUE,,,,,,BKN,11000,,,,,,,VFR,1.9,10.0,5.0,18.9,2.2,,,,,,,METAR,140.0
KFTY 120553Z 26004KT 10SM CLR 07/M01 A3002 RMK AO2 SLP165 T00721011 10128 20061 58004,KFTY,2015-02-12T05:53:00Z,33.78,-84.52,7.2,-1.1,260,4,,10.0,30.02067,1016.5,,,TRUE,,,,,,,CLR,,,,,,,,VFR,-0.4,12.8,6.1,,,,,,,,,METAR,263.0
KFTW 120553Z 35012G17KT 10SM SCT075 08/01 A3034 RMK AO2 SLP273 T00780006 10161 20078 401940078 51024,KFTW,2015-02-12T05:53:00Z,32.83,-97.37,7.8,0.6,350,12,17,10.0,30.339567,1027.3,,,TRUE,,,,,,,SCT,7500,,,,,,,VFR,2.4,16.1,7.8,19.4,7.8,,,,,,,METAR,214.0
KFUL 120553Z 08004KT 10SM CLR 22/M07 A3005 RMK AO2 SLP175 T02171067 10300 20211 51010,KFUL,2015-02-12T05:53:00Z,33.87,-117.98,21.7,-6.7,80,4,,10.0,30.050198,1017.5,,,TRUE,,,,,,,CLR,,,,,,,,VFR,1.0,30.0,21.1,,,,,,,,,METAR,35.0
KFWN 120553Z AUTO 22003KT 10SM OVC090 M07/M12 A2985 RMK AO2 SLP114 T10671122 11050 21100 58017,KFWN,2015-02-12T05:53:00Z,41.2,-74.63,-6.7,-12.2,220,3,,10.0,29.84941,1011.4,,TRUE,TRUE,,,,,,,OVC,9000,,,,,,,VFR,-1.7,-5.0,-10.0,,,,,,,,,METAR,133.0
KJBR 120553Z AUTO 33008KT 10SM CLR 02/M03 A3026 RMK AO2 SLP247 T00171028 10094 20017 401331028 51009,KJBR,2015-02-12T05:53:00Z,35.83,-90.65,1.7,-2.8,330,8,,10.0,30.259842,1024.7,,TRUE,TRUE,,,,,,,CLR,,,,,,,,VFR,0.9,9.4,1.7,13.3,-2.8,,,,,,,METAR,79.0
KJEF 120553Z AUTO 30008KT 10SM BKN060 M02/M07 A3035 RMK AO2 SLP271 T10221067 10011 21028 400441033 50006,KJEF,2015-02-12T05:53:00Z,38.6,-92.15,-2.2,-6.7,300,8,,10.0,30.351377,1027.1,,TRUE,TRUE,,,,,,,BKN,6000,,,,,,,VFR,0.6,1.1,-2.8,4.4,-3.3,,,,,,,METAR,168.0
KJLN 120553Z AUTO 36007KT 10SM CLR M04/M07 A3041 RMK AO2 SLP304 T10391072 10028 21044 400671044 51010,KJLN,2015-02-12T05:53:00Z,37.15,-94.5,-3.9,-7.2,360,7,,10.0,30.410433,1030.4,,TRUE,TRUE,,,,,,,CLR,,,,,,,,VFR,1.0,2.8,-4.4,6.7,-4.4,,,,,,,METAR,299.0
KCNB 120553Z AUTO 33011G17KT 10SM SCT015 M18/M22 A3062 RMK AO2 T11851216 11126 21185 410601185,KCNB,2015-02-12T05:53:00Z,44.73,-96.27,-18.5,-21.6,330,11,17,10.0,30.620079,,,TRUE,TRUE,,,,,,,SCT,1500,,,,,,,VFR,,-12.6,-18.5,-6.0,-18.5,,,,,,,METAR,364.0
KCKC 120553Z AUTO 33012G23KT 7SM SCT095 M23/M27 A3028 RMK AO2,KCKC,2015-02-12T05:53:00Z,47.83,-90.37,-23.0,-27.0,330,12,23,7.0,30.280512,,,TRUE,TRUE,,,,,,,SCT,9500,,,,,,,VFR,,,,,,,,,,,,METAR,548.0
KFVE 120553Z AUTO 12008KT 10SM CLR M18/M24 A2989 RMK AO2 SLP146 T11831239 11144 21183 58019,KFVE,2015-02-12T05:53:00Z,47.28,-68.3,-18.3,-23.9,120,8,,10.0,29.890747,1014.6,,TRUE,TRUE,,,,,,,CLR,,,,,,,,VFR,-1.9,-14.4,-18.3,,,,,,,,,METAR,301.0
KLAR 120553Z AUTO 16004KT 10SM CLR M04/M07 A3034 RMK AO2 SLP280 T10391067 10050 21050 55006,KLAR,2015-02-12T05:53:00Z,41.32,-105.67,-3.9,-6.7,160,4,,10.0,30.339567,1028.0,,TRUE,TRUE,,,,,,,CLR,,,,,,,,VFR,-0.6,5.0,-5.0,,,,,,,,,METAR,2216.0
KLBB 120553Z 02009KT 10SM OVC060 04/M03 A3040 RMK AO2 SLP289 BINOVC SE-S T00391028 10061 20033 401110033 50001,KLBB,2015-02-12T05:53:00Z,33.67,-101.82,3.9,-2.8,20,9,,10.0,30.398623,1028.9,,,TRUE,,,,,,,OVC,6000,,,,,,,VFR,0.1,6.1,3.3,11.1,3.3,,,,,,,METAR,993.0
KLAW 120553Z AUTO 02007KT 10SM OVC100 04/M03 A3040 RMK AO2 SLP297 T00391033 10083 20028 401390028 50006,KLAW,2015-02-12T05:53:00Z,34.55,-98.42,3.9,-3.3,20,7,,10.0,30.398623,1029.7,,TRUE,TRUE,,,,,,,OVC,10000,,,,,,,VFR,0.6,8.3,2.8,13.9,2.8,,,,,,,METAR,337.0
KLBX 120553Z AUTO 00000KT M1/4SM FG VV001 12/12 A3015 RMK AO2 SLP210 T01220122 10172 20111 402220067 51012 $,KLBX,2015-02-12T05:53:00Z,29.12,-95.47,12.2,12.2,0,0,,0.25,30.15059,1021.0,,TRUE,TRUE,TRUE,,,,,FG,OVX,0,,,,,,,LIFR,1.2,17.2,11.1,22.2,6.7,,,,,,100,METAR,6.0
KLCH 120553Z AUTO 33003KT 3/4SM BR CLR 11/10 A3014 RMK AO2 SLP215 T01060100 10161 20089 402280056 51008,KLCH,2015-02-12T05:53:00Z,30.13,-93.22,10.6,10.0,330,3,,0.75,30.138779,1021.5,,TRUE,TRUE,,,,,,BR,CLR,,,,,,,,LIFR,0.8,16.1,8.9,22.8,5.6,,,,,,,METAR,4.0
KLEB 120553Z AUTO 00000KT 10SM SCT110 M15/M17 A2985 RMK AO2 SLP124 I6000 T11501167 11117 21150 58013,KLEB,2015-02-12T05:53:00Z,43.63,-72.3,-15.0,-16.7,0,0,,10.0,29.84941,1012.4,,TRUE,TRUE,,,,,,,SCT,11000,,,,,,,VFR,-1.3,-11.7,-15.0,,,,,,,,,METAR,171.0
KLEE 120553Z AUTO 00000KT 10SM CLR 08/06 A3008 RMK AO2 SLP185 T00780061 10144 20072 58004,KLEE,2015-02-12T05:53:00Z,28.82,-81.82,7.8,6.1,0,0,,10.0,30.079725,1018.5,,TRUE,TRUE,,,,,,,CLR,,,,,,,,VFR,-0.4,14.4,7.2,,,,,,,,,METAR,23.0
KLFK 120553Z AUTO 36004KT 10SM CLR 13/07 A3018 RMK AO2 SLP219 T01330067 10228 20122 402560072 53018,KLFK,2015-02-12T05:53:00Z,31.23,-94.75,13.3,6.7,360,4,,10.0,30.180119,1021.9,,TRUE,TRUE,,,,,,,CLR,,,,,,,,VFR,1.8,22.8,12.2,25.6,7.2,,,,,,,METAR,88.0
KLFT 120553Z AUTO 30005KT 8SM CLR 13/10 A3015 RMK AO2 SLP208 T01330100 10200 20122 402330050 51010,KLFT,2015-02-12T05:53:00Z,30.2,-92.0,13.3,10.0,300,5,,8.0,30.15059,1020.8,,TRUE,TRUE,,,,,,,CLR,,,,,,,,VFR,1.0,20.0,12.2,23.3,5.0,,,,,,,METAR,11.0
KLGB 120553Z AUTO 00000KT 10SM CLR 21/M03 A3006 RMK AO2 SLP179 T02061033 10294 20189 51013 TSNO,KLGB,2015-02-12T05:53:00Z,33.82,-118.15,20.6,-3.3,0,0,,10.0,30.059055,1017.9,,TRUE,TRUE,,,TRUE,,,,CLR,,,,,,,,VFR,1.3,29.4,18.9,,,,,,,,,METAR,10.0
KLHQ 120553Z AUTO 30007KT 6SM BR BKN010 BKN016 OVC022 01/M01 A2994 RMK AO2 SNB30E52 CIG 007V013 SLP146 P0000 60000 T00061011 10022 20006 56013,KLHQ,2015-02-12T05:53:00Z,39.75,-82.67,0.6,-1.1,300,7,,6.0,29.940945,1014.6,,TRUE,TRUE,,,,,,BR,BKN,1000,BKN,1600,OVC,2200,,,MVFR,-1.3,2.2,0.6,,,0.0050,,0.0050,,,,METAR,260.0
KLHX 120553Z AUTO 00000KT 10SM CLR M01/M07 A3041 RMK AO2 SLP302 T10111067 10100 21017 50010,KLHX,2015-02-12T05:53:00Z,38.05,-103.52,-1.1,-6.7,0,0,,10.0,30.410433,1030.2,,TRUE,TRUE,,,,,,,CLR,,,,,,,,VFR,1.0,10.0,-1.7,,,,,,,,,METAR,1277.0
KLOU 120553Z AUTO 29014KT 10SM OVC026 01/M05 A3011 RMK AO2 SLP199 T00061050 10061 20006 53004 TSNO,KLOU,2015-02-12T05:53:00Z,38.22,-85.67,0.6,-5.0,290,14,,10.0,30.109253,1019.9,,TRUE,TRUE,,,TRUE,,,,OVC,2600,,,,,,,MVFR,0.4,6.1,0.6,,,,,,,,,METAR,164.0
KLOL 120553Z AUTO 00000KT 10SM CLR 03/01 A3033 RMK AO2 SLP277 T00330011 10139 20022 51010,KLOL,2015-02-12T05:53:00Z,40.07,-118.57,3.3,1.1,0,0,,10.0,30.33071,1027.7,,TRUE,TRUE,,,,,,,CLR,,,,,,,,VFR,1.0,13.9,2.2,,,,,,,,,METAR,1189.0
KLNS 120553Z AUTO 00000KT 6SM HZ BKN043 OVC055 M01/M04 A2986 RMK AO2 SLP116 T10111044 11011 21017 58015,KLNS,2015-02-12T05:53:00Z,40.12,-76.3,-1.1,-4.4,0,0,,6.0,29.861221,1011.6,,TRUE,TRUE,,,,,,HZ,BKN,4300,OVC,5500,,,,,VFR,-1.5,-1.1,-1.7,,,,,,,,,METAR,125.0
KLMT 120553Z AUTO 00000KT 10SM CLR 02/M01 A3027 RMK AO2 SLP260 T00171006 10100 20017 53001,KLMT,2015-02-12T05:53:00Z,42.15,-121.72,1.7,-0.6,0,0,,10.0,30.268702,1026.0,,TRUE,TRUE,,,,,,,CLR,,,,,,,,VFR,0.1,10.0,1.7,,,,,,,,,METAR,1246.0
KLLQ 120553Z AUTO 01003KT 10SM CLR 05/02 A3020 RMK AO2 SLP228 60000 T00500022 10133 20044 401781006 53012,KLLQ,2015-02-12T05:53:00Z,33.63,-91.75,5.0,2.2,10,3,,10.0,30.200787,1022.8,,TRUE,TRUE,,,,,,,CLR,,,,,,,,VFR,1.2,13.3,4.4,17.8,-0.6,,,0.0050,,,,METAR,83.0
KLIT 120553Z 36014KT 10SM SCT250 07/M02 A3027 RMK AO2 SLP253 T00671022 10128 20067 401780011 51024,KLIT,2015-02-12T05:53:00Z,34.73,-92.23,6.7,-2.2,360,14,,10.0,30.268702,1025.3,,,TRUE,,,,,,,SCT,25000,,,,,,,VFR,2.4,12.8,6.7,17.8,1.1,,,,,,,METAR,79.0
KHRI 120553Z AUTO 18003KT 7SM CLR 06/04 A3026 RMK AO2 SLP250 T00560044 10117 20050 51006,KHRI,2015-02-12T05:53:00Z,45.83,-119.27,5.6,4.4,180,3,,7.0,30.259842,1025.0,,TRUE,TRUE,,,,,,,CLR,,,,,,,,VFR,0.6,11.7,5.0,,,,,,,,,METAR,195.0
KHRO 120553Z AUTO 33009KT 10SM CLR M02/M06 A3032 RMK AO2 SLP272 T10221056 10050 21022 401331022 53008,KHRO,2015-02-12T05:53:00Z,36.27,-93.15,-2.2,-5.6,330,9,,10.0,30.318897,1027.2,,TRUE,TRUE,,,,,,,CLR,,,,,,,,VFR,0.8,5.0,-2.2,13.3,-2.2,,,,,,,METAR,417.0
KHSV 120553Z 33004KT 10SM CLR 06/M02 A3009 RMK AO2 SLP190 LAST T00561017 10106 20044 401501039 50000,KHSV,2015-02-12T05:53:00Z,34.65,-86.78,5.6,-1.7,330,4,,10.0,30.088583,1019.0,,,TRUE,,,,,,,CLR,,,,,,,,VFR,0.0,10.6,4.4,15.0,-3.9,,,,,,,METAR,191.0
KHSI 120553Z AUTO 02017KT 10SM OVC038 M03/M09 A3047 RMK AO2 SLP340 T10281089 10011 21033 400441033 51022,KHSI,2015-02-12T05:53:00Z,40.6,-98.43,-2.8,-8.9,20,17,,10.0,30.469488,1034.0,,TRUE,TRUE,,,,,,,OVC,3800,,,,,,,VFR,2.2,1.1,-3.3,4.4,-3.3,,,,,,,METAR,591.0
KLAN 120553Z 33009KT 10SM SCT042 OVC050 M05/M11 A2994 RMK AO2 SNB0457E17 SLP151 P0000 60000 T10501111 11022 21050 53006,KLAN,2015-02-12T05:53:00Z,42.78,-84.58,-5.0,-11.1,330,9,,10.0,29.940945,1015.1,,,TRUE,,,,,,,SCT,4200,OVC,5000,,,,,VFR,0.6,-2.2,-5.0,,,0.0050,,0.0050,,,,METAR,264.0
KLAA 120553Z AUTO 21005KT 10SM CLR M04/M07 A3040 RMK AO2 SLP308 T10391072 10089 21050 51007,KLAA,2015-02-12T05:53:00Z,38.07,-102.68,-3.9,-7.2,210,5,,10.0,30.398623,1030.8,,TRUE,TRUE,,,,,,,CLR,,,,,,,,VFR,0.7,8.9,-5.0,,,,,,,,,METAR,1119.0
KHTL 120553Z AUTO 32012G17KT 10SM OVC040 M12/M16 A2993 RMK AO2 SLP157 60000 T11171161 11050 21117 51008,KHTL,2015-02-12T05:53:00Z,44.35,-84.67,-11.7,-16.1,320,12,17,10.0,29.929134,1015.7,,TRUE,TRUE,,,,,,,OVC,4000,,,,,,,VFR,0.8,-5.0,-11.7,,,,,0.0050,,,,METAR,351.0
KHUF 120553Z 30015G20KT 10SM OVC026 M03/M08 A3015 RMK AO2 SLP214 T10331083 11006 21033 53000,KHUF,2015-02-12T05:53:00Z,39.45,-87.3,-3.3,-8.3,300,15,20,10.0,30.15059,1021.4,,,TRUE,,,,,,,OVC,2600,,,,,,,MVFR,0.0,-0.6,-3.3,,,,,,,,,METAR,179.0
KHUL 120553Z AUTO 00000KT 10SM CLR M21/M24 A2995 RMK AO2 SLP155 T12111239 11150 21217 56020,KHUL,2015-02-12T05:53:00Z,46.12,-67.8,-21.1,-23.9,0,0,,10.0,29.949802,1015.5,,TRUE,TRUE,,,,,,,CLR,,,,,,,,VFR,-2.0,-15.0,-21.7,,,,,,,,,METAR,150.0
KHVN 120553Z AUTO 00000KT 10SM CLR M08/M13 A2992 RMK AO2 SLP130 T10831128 11033 21083 56015,KHVN,2015-02-12T05:53:00Z,41.27,-72.87,-8.3,-12.8,0,0,,10.0,29.920275,1013.0,,TRUE,TRUE,,,,,,,CLR,,,,,,,,VFR,-1.5,-3.3,-8.3,,,,,,,,,METAR,4.0
KHVR 120553Z AUTO 08006KT 10SM OVC015 M06/M08 A3023 RMK AO2 SLP275 T10561083 11050 21061 58022,KHVR,2015-02-12T05:53:00Z,48.55,-109.77,-5.6,-8.3,80,6,,10.0,30.230314,1027.5,,TRUE,TRUE,,,,,,,OVC,1500,,,,,,,MVFR,-2.2,-5.0,-6.1,,,,,,,,,METAR,787.0
KHWO 120553Z AUTO 33005KT 10SM BKN048 15/12 A3004 RMK AO2 SLP173 T01500122 10189 20144 50001 $,KHWO,2015-02-12T05:53:00Z,26.0,-80.23,15.0,12.2,330,5,,10.0,30.041338,1017.3,,TRUE,TRUE,TRUE,,,,,,BKN,4800,,,,,,,VFR,0.1,18.9,14.4,,,,,,,,,METAR,2.0
KHYR 120553Z AUTO VRB05KT 3SM -SN BKN018 BKN027 M17/M20 A3035 RMK AO2 SNB12E31B51 SLP309 P0000 60000 T11671200 11111 21167 410441167 51030,KHYR,2015-02-12T05:53:00Z,46.02,-91.45,-16.7,-20.0,0,5,,3.0,30.351377,1030.9,,TRUE,TRUE,,,,,,-SN,BKN,1800,BKN,2700,,,,,MVFR,3.0,-11.1,-16.7,-4.4,-16.7,0.0050,,0.0050,,,,METAR,370.0
KHZY 120553Z AUTO 30011G16KT 3SM -SN BR BKN010 BKN022 OVC042 M02/M04 A2986 RMK AO2 SLP121 P0000 60001 I6023 T10221044 10000 21022 55000 $,KHZY,2015-02-12T05:53:00Z,41.78,-80.7,-2.2,-4.4,300,11,16,3.0,29.861221,1012.1,,TRUE,TRUE,TRUE,,,,,-SN BR,BKN,1000,BKN,2200,OVC,4200,,,MVFR,0.0,0.0,-2.2,,,0.0050,,0.01,,,,METAR,276.0
KIAG 120553Z AUTO 28012KT 7SM OVC080 M03/M05 A2977 RMK AO2 SNE31 SLP096 P0000 60000 I6002 T10281050 11017 21028 58008 $,KIAG,2015-02-12T05:53:00Z,43.12,-78.93,-2.8,-5.0,280,12,,7.0,29.769686,1009.6,,TRUE,TRUE,TRUE,,,,,,OVC,8000,,,,,,,VFR,-0.8,-1.7,-2.8,,,0.0050,,0.0050,,,,METAR,182.0
KIAH 120553Z 00000KT 7SM CLR 10/08 A3016 RMK AO2 SLP213 T01000083 10194 20100 402390067 51013,KIAH,2015-02-12T05:53:00Z,30.0,-95.37,10.0,8.3,0,0,,7.0,30.159449,1021.3,,,TRUE,,,,,,,CLR,,,,,,,,VFR,1.3,19.4,10.0,23.9,6.7,,,,,,,METAR,36.0
KICR 120553Z AUTO 04009KT 10SM SCT021 M13/M17 A3060 RMK AO2 SLP396 T11281167 11033 21128 400171128 51008,KICR,2015-02-12T05:53:00Z,43.38,-99.85,-12.8,-16.7,40,9,,10.0,30.59941,1039.6,,TRUE,TRUE,,,,,,,SCT,2100,,,,,,,VFR,0.8,-3.3,-12.8,1.7,-12.8,,,,,,,METAR,621.0
KICT 120553Z 31003KT 10SM CLR M04/M08 A3042 RMK AO2 SLP313 T10441083 10039 21044 400671044 50008 $,KICT,2015-02-12T05:53:00Z,37.65,-97.43,-4.4,-8.3,310,3,,10.0,30.41929,1031.3,,,TRUE,TRUE,,,,,,CLR,,,,,,,,VFR,0.8,3.9,-4.4,6.7,-4.4,,,,,,,METAR,407.0
KIDA 120553Z AUTO 00000KT 10SM CLR 01/M01 A3038 RMK AO2 SLP306 T00061011 10089 20006 55006,KIDA,2015-02-12T05:53:00Z,43.52,-112.07,0.6,-1.1,0,0,,10.0,30.380905,1030.6,,TRUE,TRUE,,,,,,,CLR,,,,,,,,VFR,-0.6,8.9,0.6,,,,,,,,,METAR,1453.0
KILM 120553Z 00000KT 7SM CLR 00/M01 A2999 RMK AO2 SLP155 T00001011 10044 20000 58010,KILM,2015-02-12T05:53:00Z,34.27,-77.9,0.0,-1.1,0,0,,7.0,29.991142,1015.5,,,TRUE,,,,,,,CLR,,,,,,,,VFR,-1.0,4.4,0.0,,,,,,,,,METAR,9.0
KIML 120553Z AUTO 08008KT 10SM CLR M01/M06 A3040 RMK AO2 SLP316 T10111056 10089 21011 53021,KIML,2015-02-12T05:53:00Z,40.52,-101.62,-1.1,-5.6,80,8,,10.0,30.398623,1031.6,,TRUE,TRUE,,,,,,,CLR,,,,,,,,VFR,2.1,8.9,-1.1,,,,,,,,,METAR,998.0
KIMS 120553Z AUTO 29007KT 10SM OVC025 00/M06 A3009 RMK AO1,KIMS,2015-02-12T05:53:00Z,38.75,-85.47,0.0,-6.0,290,7,,10.0,30.088583,,,TRUE,TRUE,,,,,,,OVC,2500,,,,,,,MVFR,,,,,,,,,,,,METAR,250.0
KINK 120553Z AUTO 03013KT 10SM OVC049 08/M02 A3040 RMK AO2 SLP277 T00831022 10089 20078 401780044 51017,KINK,2015-02-12T05:53:00Z,31.78,-103.2,8.3,-2.2,30,13,,10.0,30.398623,1027.7,,TRUE,TRUE,,,,,,,OVC,4900,,,,,,,VFR,1.7,8.9,7.8,17.8,4.4,,,,,,,METAR,855.0
KIPL 120553Z AUTO VRB03KT 10SM CLR 14/M02 A3009 RMK AO2 SLP190 T01441022 10278 20144 50010,KIPL,2015-02-12T05:53:00Z,32.83,-115.58,14.4,-2.2,0,3,,10.0,30.088583,1019.0,,TRUE,TRUE,,,,,,,CLR,,,,,,,,VFR,1.0,27.8,14.4,,,,,,,,,METAR,-17.0
KITR 120553Z AUTO 24008KT 10SM CLR M03/M08 A3036 RMK AO2 SLP298 T10281078 10072 21039 58006,KITR,2015-02-12T05:53:00Z,39.23,-102.28,-2.8,-7.8,240,8,,10.0,30.360237,1029.8,,TRUE,TRUE,,,,,,,CLR,,,,,,,,VFR,-0.6,7.2,-3.9,,,,,,,,,METAR,1279.0
KIWI 120553Z AUTO 00000KT 10SM CLR M14/M18 A2993 RMK AO2 SLP136 T11441183 11122 21167 58021,KIWI,2015-02-12T05:53:00Z,43.97,-69.72,-14.4,-18.3,0,0,,10.0,29.929134,1013.6,,TRUE,TRUE,,,,,,,CLR,,,,,,,,VFR,-2.1,-12.2,-16.7,,,,,,,,,METAR,20.0
KIXD 120553Z AUTO 30007KT 10SM OVC060 M03/M07 A3042 RMK AO2 SLP309 T10281067 11011 21039 400391039 51008,KIXD,2015-02-12T05:53:00Z,38.82,-94.88,-2.8,-6.7,300,7,,10.0,30.41929,1030.9,,TRUE,TRUE,,,,,,,OVC,6000,,,,,,,VFR,0.8,-1.1,-3.9,3.9,-3.9,,,,,,,METAR,342.0
KCDR 120553Z AUTO 03008KT 9SM OVC015 M02/M05 A3043 RMK AO2 SLP338 T10171050 10028 21017 53001,KCDR,2015-02-12T05:53:00Z,42.83,-103.1,-1.7,-5.0,30,8,,9.0,30.431103,1033.8,,TRUE,TRUE,,,,,,,OVC,1500,,,,,,,MVFR,0.1,2.8,-1.7,,,,,,,,,METAR,1010.0
KCDS 120553Z AUTO 34007KT 10SM FEW100 03/M03 A3044 RMK AO2 SLP308 T00331028 10083 20033 401170033 51007,KCDS,2015-02-12T05:53:00Z,34.43,-100.28,3.3,-2.8,340,7,,10.0,30.43996,1030.8,,TRUE,TRUE,,,,,,,FEW,10000,,,,,,,VFR,0.7,8.3,3.3,11.7,3.3,,,,,,,METAR,594.0
KCDW 120553Z AUTO 00000KT 10SM OVC085 M04/M08 A2991 RMK AO2 SLP135 T10391083 11033 21072 58010 TSNO,KCDW,2015-02-12T05:53:00Z,40.88,-74.28,-3.9,-8.3,0,0,,10.0,29.911417,1013.5,,TRUE,TRUE,,,TRUE,,,,OVC,8500,,,,,,,VFR,-1.0,-3.3,-7.2,,,,,,,,,METAR,64.0
KCEW 120553Z AUTO 00000KT 7SM CLR 04/03 A3010 RMK AO2 SLP191 T00390033 10133 20039 402001028 58000,KCEW,2015-02-12T05:53:00Z,30.78,-86.52,3.9,3.3,0,0,,7.0,30.100393,1019.1,,TRUE,TRUE,,,,,,,CLR,,,,,,,,VFR,0.0,13.3,3.9,20.0,-2.8,,,,,,,METAR,55.0
KCEZ 120553Z AUTO 08005KT 10SM CLR M03/M06 A3042 RMK AO2 SLP294 T10331056 10100 21039 51015,KCEZ,2015-02-12T05:53:00Z,37.3,-108.63,-3.3,-5.6,80,5,,10.0,30.41929,1029.4,,TRUE,TRUE,,,,,,,CLR,,,,,,,,VFR,1.5,10.0,-3.9,,,,,,,,,METAR,1797.0
KCGI 120553Z AUTO 33009KT 10SM CLR M01/M05 A3026 RMK AO2 SLP247 T10061050 10056 21006 401221044 51003 TSNO,KCGI,2015-02-12T05:53:00Z,37.23,-89.58,-0.6,-5.0,330,9,,10.0,30.259842,1024.7,,TRUE,TRUE,,,TRUE,,,,CLR,,,,,,,,VFR,0.3,5.6,-0.6,12.2,-4.4,,,,,,,METAR,102.0
KCHA 120553Z AUTO 00000KT 10SM CLR 04/M01 A3006 RMK AO2 SLP180 T00441011 10128 20039 58001,KCHA,2015-02-12T05:53:00Z,35.03,-85.2,4.4,-1.1,0,0,,10.0,30.059055,1018.0,,TRUE,TRUE,,,,,,,CLR,,,,,,,,VFR,-0.1,12.8,3.9,,,,,,,,,METAR,210.0
KCHO 120553Z AUTO 36003KT 10SM FEW065 01/M03 A2986 RMK AO2 SLP111 T00111033 10061 21011 56010,KCHO,2015-02-12T05:53:00Z,38.13,-78.45,1.1,-3.3,360,3,,10.0,29.861221,1011.1,,TRUE,TRUE,,,,,,,FEW,6500,,,,,,,VFR,-1.0,6.1,-1.1,,,,,,,,,METAR,192.0
KCKB 120553Z AUTO 22008KT 10SM FEW017 OVC024 00/M02 A2990 RMK AO2 RAB15E24 SLP131 P0000 60000 T00001022 10017 20000 58017 TSNO,KCKB,2015-02-12T05:53:00Z,39.3,-80.22,0.0,-2.2,220,8,,10.0,29.899607,1013.1,,TRUE,TRUE,,,TRUE,,,,FEW,1700,OVC,2400,,,,,MVFR,-1.7,1.7,0.0,,,0.0050,,0.0050,,,,METAR,360.0
KCLL 120553Z 03008KT 10SM OVC055 15/09 A3021 RMK AO2 SLP226 T01500094 10222 20144 402330133 53024,KCLL,2015-02-12T05:53:00Z,30.58,-96.37,15.0,9.4,30,8,,10.0,30.209646,1022.6,,,TRUE,,,,,,,OVC,5500,,,,,,,VFR,2.4,22.2,14.4,23.3,13.3,,,,,,,METAR,96.0
KCLM 120553Z AUTO 26003KT 10SM BKN100 09/07 A3018 RMK AO2 SLP222 T00890072 10100 20078 53007 $,KCLM,2015-02-12T05:53:00Z,48.12,-123.5,8.9,7.2,260,3,,10.0,30.180119,1022.2,,TRUE,TRUE,TRUE,,,,,,BKN,10000,,,,,,,VFR,0.7,10.0,7.8,,,,,,,,,METAR,85.0
KCMI 120553Z AUTO 30018KT 10SM OVC019 M05/M09 A3015 RMK AO2 SLP219 T10501094 11011 21050 400281050 50000,KCMI,2015-02-12T05:53:00Z,40.03,-88.27,-5.0,-9.4,300,18,,10.0,30.15059,1021.9,,TRUE,TRUE,,,,,,,OVC,1900,,,,,,,MVFR,0.0,-1.1,-5.0,2.8,-5.0,,,,,,,METAR,228.0
KCMX 120553Z AUTO 01014G20KT 1/2SM HZ BKN013 OVC028 M16/M18 A3025 RMK AO2 PK WND 36027/0519 SNEMM SLP270 P0000 60001 T11561183 11133 21156 53029 PWINO FZRANO $,KCMX,2015-02-12T05:53:00Z,47.17,-88.48,-15.6,-18.3,10,14,20,0.5,30.250984,1027.0,,TRUE,TRUE,TRUE,,,TRUE,TRUE,HZ,BKN,1300,OVC,2800,,,,,LIFR,2.9,-13.3,-15.6,,,0.0050,,0.01,,,,METAR,326.0
KCNM 120553Z AUTO 32014KT 10SM OVC046 05/03 A3044 RMK AO2 SLP294 60002 T00500028 10061 20044 50006,KCNM,2015-02-12T05:53:00Z,32.33,-104.25,5.0,2.8,320,14,,10.0,30.43996,1029.4,,TRUE,TRUE,,,,,,,OVC,4600,,,,,,,VFR,0.6,6.1,4.4,,,,,0.02,,,,METAR,985.0
KCNO 120553Z 12007KT 10SM CLR 19/M04 A3011 RMK AO2 SLP191 T01891039 10283 20183 51013,KCNO,2015-02-12T05:53:00Z,33.98,-117.62,18.9,-3.9,120,7,,10.0,30.109253,1019.1,,,TRUE,,,,,,,CLR,,,,,,,,VFR,1.3,28.3,18.3,,,,,,,,,METAR,207.0
KCNY 120553Z AUTO 00000KT 10SM CLR 00/M06 A3037 RMK AO2 SLP286 T00001056 10150 21006 53016,KCNY,2015-02-12T05:53:00Z,38.77,-109.75,0.0,-5.6,0,0,,10.0,30.369095,1028.6,,TRUE,TRUE,,,,,,,CLR,,,,,,,,VFR,1.6,15.0,-0.6,,,,,,,,,METAR,1390.0
KCOT 120553Z AUTO 11009KT 10SM CLR 18/14 A3015 RMK AO2 SLP204 T01780144 10250 20178 402610111 51026,KCOT,2015-02-12T05:53:00Z,28.45,-99.22,17.8,14.4,110,9,,10.0,30.15059,1020.4,,TRUE,TRUE,,,,,,,CLR,,,,,,,,VFR,2.6,25.0,17.8,26.1,11.1,,,,,,,METAR,140.0
KCPR 120553Z AUTO 11004KT 10SM CLR 01/M03 A3028 RMK AO2 SLP259 T00111033 10094 21017 58009,KCPR,2015-02-12T05:53:00Z,42.9,-106.47,1.1,-3.3,110,4,,10.0,30.280512,1025.9,,TRUE,TRUE,,,,,,,CLR,,,,,,,,VFR,-0.9,9.4,-1.7,,,,,,,,,METAR,1621.0
KCPS 120553Z AUTO 30015KT 10SM CLR M01/M07 A3028 RMK AO2 SLP255 T10111067 10017 21017 400671022 51005 TSNO,KCPS,2015-02-12T05:53:00Z,38.57,-90.15,-1.1,-6.7,300,15,,10.0,30.280512,1025.5,,TRUE,TRUE,,,TRUE,,,,CLR,,,,,,,,VFR,0.5,1.7,-1.7,6.7,-2.2,,,,,,,METAR,126.0
KCRE 120553Z 19006KT 10SM CLR 07/04 A2999 RMK AO1 SLP154 T00720044 10078 20039 56013,KCRE,2015-02-12T05:53:00Z,33.82,-78.72,7.2,4.4,190,6,,10.0,29.991142,1015.4,,,TRUE,,,,,,,CLR,,,,,,,,VFR,-1.3,7.8,3.9,,,,,,,,,METAR,10.0
KCRG 120553Z AUTO 00000KT 8SM CLR 07/05 A3005 RMK AO2 SLP175 T00670050 10111 20061 58006,KCRG,2015-02-12T05:53:00Z,30.33,-81.52,6.7,5.0,0,0,,8.0,30.050198,1017.5,,TRUE,TRUE,,,,,,,CLR,,,,,,,,VFR,-0.6,11.1,6.1,,,,,,,,,METAR,13.0
KCRQ 120553Z AUTO 00000KT 10SM CLR 19/M06 A3005 RMK AO2 SLP172 T01941061 10261 20183 53008,KCRQ,2015-02-12T05:53:00Z,33.13,-117.28,19.4,-6.1,0,0,,10.0,30.050198,1017.2,,TRUE,TRUE,,,,,,,CLR,,,,,,,,VFR,0.8,26.1,18.3,,,,,,,,,METAR,99.0
KCRS 120553Z AUTO 36013G20KT 10SM CLR 09/03 A3030 RMK AO2 SLP260 T00940028 10200 20094 402280089 53030,KCRS,2015-02-12T05:53:00Z,32.03,-96.4,9.4,2.8,360,13,20,10.0,30.301182,1026.0,,TRUE,TRUE,,,,,,,CLR,,,,,,,,VFR,3.0,20.0,9.4,22.8,8.9,,,,,,,METAR,133.0
KCSM 120553Z 35010KT 10SM FEW120 02/M04 A3042 RMK AO2 SLP306 60000 T00221039 10061 20022 401000022 51006,KCSM,2015-02-12T05:53:00Z,35.35,-99.2,2.2,-3.9,350,10,,10.0,30.41929,1030.6,,,TRUE,,,,,,,FEW,12000,,,,,,,VFR,0.6,6.1,2.2,10.0,2.2,,,0.0050,,,,METAR,588.0
KCSV 120553Z AUTO 29004KT 8SM CLR 02/M03 A3003 RMK AO2 SLP173 T00171028 10061 20011 401171028 58005,KCSV,2015-02-12T05:53:00Z,35.95,-85.08,1.7,-2.8,290,4,,8.0,30.029528,1017.3,,TRUE,TRUE,,,,,,,CLR,,,,,,,,VFR,-0.5,6.1,1.1,11.7,-2.8,,,,,,,METAR,570.0
KCUB 120553Z AUTO 00000KT 10SM CLR 04/02 A2997 RMK AO2 SLP147 T00390017 10094 20039 58015,KCUB,2015-02-12T05:53:00Z,33.97,-81.0,3.9,1.7,0,0,,10.0,29.970472,1014.7,,TRUE,TRUE,,,,,,,CLR,,,,,,,,VFR,-1.5,9.4,3.9,,,,,,,,,METAR,56.0
KOTM 120553Z AUTO 35024G32KT 6SM -SN SCT020 BKN027 OVC031 M09/M13 A3035 RMK AO2 PK WND 33037/0534 SNE19B50 SLP291 P0000 60000 T10891128 11044 21089 400281089 53021 TSNO,KOTM,2015-02-12T05:53:00Z,41.1,-92.45,-8.9,-12.8,350,24,32,6.0,30.351377,1029.1,,TRUE,TRUE,,,TRUE,,,-SN,SCT,2000,BKN,2700,OVC,3100,,,MVFR,2.1,-4.4,-8.9,2.8,-8.9,0.0050,,0.0050,,,,METAR,256.0
KOVE 120553Z AUTO 00000KT 9SM CLR 11/09 A3021 RMK AO2 SLP231 T01110089 10172 20111 50007,KOVE,2015-02-12T05:53:00Z,39.5,-121.62,11.1,8.9,0,0,,9.0,30.209646,1023.1,,TRUE,TRUE,,,,,,,CLR,,,,,,,,VFR,0.7,17.2,11.1,,,,,,,,,METAR,58.0
KOVS 120553Z AUTO 32008KT 2 1/2SM -SN OVC026 M11/M14 A3027 RMK AO2 SLP263 P0000 60000 T11061144 11072 21106 400171106 53020,KOVS,2015-02-12T05:53:00Z,43.15,-90.68,-10.6,-14.4,320,8,,2.5,30.268702,1026.3,,TRUE,TRUE,,,,,,-SN,OVC,2600,,,,,,,IFR,2.0,-7.2,-10.6,1.7,-10.6,0.0050,,0.0050,,,,METAR,202.0
KOWD 120553Z AUTO 00000KT 10SM OVC025 M11/M14 A2993 RMK AO2 SLP134 I6000 T11111139 11106 21167 56018,KOWD,2015-02-12T05:53:00Z,42.18,-71.17,-11.1,-13.9,0,0,,10.0,29.929134,1013.4,,TRUE,TRUE,,,,,,,OVC,2500,,,,,,,MVFR,-1.8,-10.6,-16.7,,,,,,,,,METAR,19.0
KOXB 120553Z AUTO 23003KT 10SM BKN120 M03/M04 A2994 RMK AO2 SLP139 I6000 T10281044 11011 21044 58011 TSNO,KOXB,2015-02-12T05:53:00Z,38.32,-75.12,-2.8,-4.4,230,3,,10.0,29.940945,1013.9,,TRUE,TRUE,,,TRUE,,,,BKN,12000,,,,,,,VFR,-1.1,-1.1,-4.4,,,,,,,,,METAR,3.0
KPAE 120553Z AUTO 16011KT 10SM SCT120 11/07 A3018 RMK AO2 SLP222 T01110067 10128 20094 58001,KPAE,2015-02-12T05:53:00Z,47.92,-122.28,11.1,6.7,160,11,,10.0,30.180119,1022.2,,TRUE,TRUE,,,,,,,SCT,12000,,,,,,,VFR,-0.1,12.8,9.4,,,,,,,,,METAR,180.0
KPBF 120553Z AUTO 02016G23KT 10SM CLR 07/02 A3024 RMK AO2 SLP239 T00720017 10128 20050 401500006 53023,KPBF,2015-02-12T05:53:00Z,34.18,-91.93,7.2,1.7,20,16,23,10.0,30.239174,1023.9,,TRUE,TRUE,,,,,,,CLR,,,,,,,,VFR,2.3,12.8,5.0,15.0,0.6,,,,,,,METAR,62.0
KPAH 120553Z AUTO 33006KT 10SM CLR M01/M06 A3023 RMK AO2 SLP239 T10061056 10067 21006 401281050 51006,KPAH,2015-02-12T05:53:00Z,37.07,-88.77,-0.6,-5.6,330,6,,10.0,30.230314,1023.9,,TRUE,TRUE,,,,,,,CLR,,,,,,,,VFR,0.6,6.7,-0.6,12.8,-5.0,,,,,,,METAR,119.0
KPBG 120553Z AUTO 00000KT 10SM SCT039 OVC055 M11/M14 A2978 RMK AO2 SLP090 T11111144 11111 21133 58019,KPBG,2015-02-12T05:53:00Z,44.65,-73.47,-11.1,-14.4,0,0,,10.0,29.778543,1009.0,,TRUE,TRUE,,,,,,,SCT,3900,OVC,5500,,,,,VFR,-1.9,-11.1,-13.3,,,,,,,,,METAR,72.0
KPBI 120553Z 33005KT 10SM CLR 12/10 A3003 RMK AO2 SLP167 T01220100 10178 20122 58003,KPBI,2015-02-12T05:53:00Z,26.68,-80.1,12.2,10.0,330,5,,10.0,30.029528,1016.7,,,TRUE,,,,,,,CLR,,,,,,,,VFR,-0.3,17.8,12.2,,,,,,,,,METAR,6.0
KPDK 120553Z AUTO 30009KT 10SM CLR 07/M01 A3000 RMK AO2 SLP163 T00721011 10122 20072 58005,KPDK,2015-02-12T05:53:00Z,33.88,-84.3,7.2,-1.1,300,9,,10.0,30.0,1016.3,,TRUE,TRUE,,,,,,,CLR,,,,,,,,VFR,-0.5,12.2,7.2,,,,,,,,,METAR,302.0
KPDT 120553Z AUTO 32005KT 5SM BR CLR 06/05 A3025 RMK AO2 SLP242 T00610050 10100 20056 51005,KPDT,2015-02-12T05:53:00Z,45.7,-118.83,6.1,5.0,320,5,,5.0,30.250984,1024.2,,TRUE,TRUE,,,,,,BR,CLR,,,,,,,,MVFR,0.5,10.0,5.6,,,,,,,,,METAR,462.0
KPDX 120553Z 11004KT 10SM FEW070 BKN120 11/07 A3024 RMK AO2 SLP238 T01110072 10133 20106 53012,KPDX,2015-02-12T05:53:00Z,45.6,-122.62,11.1,7.2,110,4,,10.0,30.239174,1023.8,,,TRUE,,,,,,,FEW,7000,BKN,12000,,,,,VFR,1.2,13.3,10.6,,,,,,,,,METAR,7.0
KPEO 120553Z AUTO 22007KT 10SM OVC033 01/M04 A2974 RMK AO2 SLP080 60001 T00061039 10006 21006 58016,KPEO,2015-02-12T05:53:00Z,42.65,-77.05,0.6,-3.9,220,7,,10.0,29.740158,1008.0,,TRUE,TRUE,,,,,,,OVC,3300,,,,,,,VFR,-1.6,0.6,-0.6,,,,,0.01,,,,METAR,256.0
KPGA 120553Z AUTO 00000KT 10SM CLR 08/M04 A3037 RMK AO2 SLP263 T00781039 10156 20072 53009 TSNO,KPGA,2015-02-12T05:53:00Z,36.92,-111.45,7.8,-3.9,0,0,,10.0,30.369095,1026.3,,TRUE,TRUE,,,TRUE,,,,CLR,,,,,,,,VFR,0.9,15.6,7.2,,,,,,,,,METAR,1307.0
KPGD 120553Z AUTO 02006KT 10SM CLR 09/08 A3010 RMK AO2 SLP191 T00940083 10144 20094 53003,KPGD,2015-02-12T05:53:00Z,26.92,-82.0,9.4,8.3,20,6,,10.0,30.100393,1019.1,,TRUE,TRUE,,,,,,,CLR,,,,,,,,VFR,0.3,14.4,9.4,,,,,,,,,METAR,7.0
KPHD 120553Z AUTO 30008KT 10SM BKN014 OVC020 01/M02 A2990 RMK AO2 SNB05E27 SLP133 P0002 60004 T00111022 10017 20011 56010,KPHD,2015-02-12T05:53:00Z,40.47,-81.42,1.1,-2.2,300,8,,10.0,29.899607,1013.3,,TRUE,TRUE,,,,,,,BKN,1400,OVC,2000,,,,,MVFR,-1.0,1.7,1.1,,,0.02,,0.04,,,,METAR,272.0
KPIE 120553Z AUTO 33004KT 10SM CLR 11/08 A3009 RMK AO2 SLP189 T01110083 10133 20111 51003,KPIE,2015-02-12T05:53:00Z,27.92,-82.68,11.1,8.3,330,4,,10.0,30.088583,1018.9,,TRUE,TRUE,,,,,,,CLR,,,,,,,,VFR,0.3,13.3,11.1,,,,,,,,,METAR,4.0
KPIH 120553Z AUTO 00000KT 10SM CLR 00/M01 A3038 RMK AO2 SLP303 T00001006 10100 21006 55006,KPIH,2015-02-12T05:53:00Z,42.92,-112.57,0.0,-0.6,0,0,,10.0,30.380905,1030.3,,TRUE,TRUE,,,,,,,CLR,,,,,,,,VFR,-0.6,10.0,-0.6,,,,,,,,,METAR,1359.0
KPIR 120553Z AUTO 03008KT 10SM CLR M16/M19 A3065 RMK AO2 SLP414 60000 T11611194 11072 21161 410221161 51015,KPIR,2015-02-12T05:53:00Z,44.38,-100.28,-16.1,-19.4,30,8,,10.0,30.649607,1041.4,,TRUE,TRUE,,,,,,,CLR,,,,,,,,VFR,1.5,-7.2,-16.1,-2.2,-16.1,,,0.0050,,,,METAR,526.0
KPKB 120553Z AUTO 22004KT 5SM BR SCT021 OVC037 00/M02 A2996 RMK AO2 UPE08 SLP151 P0000 60000 T00001017 10028 20000 58014,KPKB,2015-02-12T05:53:00Z,39.35,-81.42,0.0,-1.7,220,4,,5.0,29.958662,1015.1,,TRUE,TRUE,,,,,,BR,SCT,2100,OVC,3700,,,,,MVFR,-1.4,2.8,0.0,,,0.0050,,0.0050,,,,METAR,262.0
KPKD 120553Z AUTO 34008KT 10SM CLR M22/M25 A3053 RMK AO2 SLP382 T12171250 11183 21217 410441217 51016,KPKD,2015-02-12T05:53:00Z,46.9,-95.07,-21.7,-25.0,340,8,,10.0,30.528543,1038.2,,TRUE,TRUE,,,,,,,CLR,,,,,,,,VFR,1.6,-18.3,-21.7,-4.4,-21.7,,,,,,,METAR,442.0
KPMD 120553Z AUTO 11006KT 10SM CLR 07/M04 A3025 RMK AO2 SLP239 T00721039 10206 20072 51009,KPMD,2015-02-12T05:53:00Z,34.63,-118.08,7.2,-3.9,110,6,,10.0,30.250984,1023.9,,TRUE,TRUE,,,,,,,CLR,,,,,,,,VFR,0.9,20.6,7.2,,,,,,,,,METAR,780.0
KPMP 120553Z 33005KT 10SM FEW044 16/11 A3003 RMK AO2 SLP169 T01560106 10200 20156 57001,KPMP,2015-02-12T05:53:00Z,26.25,-80.12,15.6,10.6,330,5,,10.0,30.029528,1016.9,,,TRUE,,,,,,,FEW,4400,,,,,,,VFR,-0.1,20.0,15.6,,,,,,,,,METAR,6.0
KPNS 120553Z AUTO 30005KT 9SM CLR 10/06 A3009 RMK AO2 SLP190 T01000061 10128 20094 401560011 50000,KPNS,2015-02-12T05:53:00Z,30.48,-87.18,10.0,6.1,300,5,,9.0,30.088583,1019.0,,TRUE,TRUE,,,,,,,CLR,,,,,,,,VFR,0.0,12.8,9.4,15.6,1.1,,,,,,,METAR,38.0
KMFR 120553Z AUTO 00000KT 10SM CLR 07/04 A3025 RMK AO2 SLP250 T00670039 10139 20061 51013,KMFR,2015-02-12T05:53:00Z,42.38,-122.87,6.7,3.9,0,0,,10.0,30.250984,1025.0,,TRUE,TRUE,,,,,,,CLR,,,,,,,,VFR,1.3,13.9,6.1,,,,,,,,,METAR,396.0
KMGM 120553Z AUTO 27004KT 10SM CLR 08/01 A3007 RMK AO2 SLP184 T00830011 10150 20078 401831022 58002,KMGM,2015-02-12T05:53:00Z,32.3,-86.4,8.3,1.1,270,4,,10.0,30.070866,1018.4,,TRUE,TRUE,,,,,,,CLR,,,,,,,,VFR,-0.2,15.0,7.8,18.3,-2.2,,,,,,,METAR,63.0
KMGW 120553Z AUTO 22009KT 10SM OVC016 00/M04 A2989 RMK AO2 SLP132 60000 T00001039 10017 20000 58015 TSNO,KMGW,2015-02-12T05:53:00Z,39.65,-79.92,0.0,-3.9,220,9,,10.0,29.890747,1013.2,,TRUE,TRUE,,,TRUE,,,,OVC,1600,,,,,,,MVFR,-1.5,1.7,0.0,,,,,0.0050,,,,METAR,378.0
KMGY 120553Z AUTO 27009KT 10SM BKN024 OVC030 M01/M05 A2999 RMK AO2 SLP163 T10061050 10017 21006 58002,KMGY,2015-02-12T05:53:00Z,39.6,-84.23,-0.6,-5.0,270,9,,10.0,29.991142,1016.3,,TRUE,TRUE,,,,,,,BKN,2400,OVC,3000,,,,,MVFR,-0.2,1.7,-0.6,,,,,,,,,METAR,289.0
KMHT 120553Z 00000KT 10SM BKN170 BKN220 M14/M17 A2991 RMK AO2 SLP149 T11391167 11067 21144 56018,KMHT,2015-02-12T05:53:00Z,42.93,-71.43,-13.9,-16.7,0,0,,10.0,29.911417,1014.9,,,TRUE,,,,,,,BKN,17000,BKN,22000,,,,,VFR,-1.8,-6.7,-14.4,,,,,,,,,METAR,81.0
KMIA 120553Z 00000KT 10SM BKN050 17/12 A3003 RMK AO2 SLP170 T01670117 10206 20167 50003 $,KMIA,2015-02-12T05:53:00Z,25.8,-80.28,16.7,11.7,0,0,,10.0,30.029528,1017.0,,,TRUE,TRUE,,,,,,BKN,5000,,,,,,,VFR,0.3,20.6,16.7,,,,,,,,,METAR,3.0
KMIE 120553Z AUTO 28013KT 10SM BKN021 OVC028 M02/M07 A3002 RMK AO2 SLP169 I6000 T10221067 10000 21022 56001,KMIE,2015-02-12T05:53:00Z,40.23,-85.4,-2.2,-6.7,280,13,,10.0,30.02067,1016.9,,TRUE,TRUE,,,,,,,BKN,2100,OVC,2800,,,,,MVFR,-0.1,0.0,-2.2,,,,,,,,,METAR,285.0
KMIW 120553Z AUTO 33024G34KT 10SM BKN026 M14/M19 A3040 RMK AO2 PK WND 32038/0513 SLP315 60000 T11391194 11061 21139 400221139 53036,KMIW,2015-02-12T05:53:00Z,42.12,-92.92,-13.9,-19.4,330,24,34,10.0,30.398623,1031.5,,TRUE,TRUE,,,,,,,BKN,2600,,,,,,,MVFR,3.6,-6.1,-13.9,2.2,-13.9,,,0.0050,,,,METAR,296.0
KMKL 120553Z AUTO 33009G18KT 10SM CLR 02/M02 A3020 RMK AO2 SLP226 T00221022 10083 20017 401281056 51009,KMKL,2015-02-12T05:53:00Z,35.6,-88.92,2.2,-2.2,330,9,18,10.0,30.200787,1022.6,,TRUE,TRUE,,,,,,,CLR,,,,,,,,VFR,0.9,8.3,1.7,12.8,-5.6,,,,,,,METAR,128.0
KMKO 120553Z AUTO 36015KT 10SM FEW110 01/M05 A3042 RMK AO2 SLP302 T00111050 10072 20011 401390006 51020,KMKO,2015-02-12T05:53:00Z,35.65,-95.37,1.1,-5.0,360,15,,10.0,30.41929,1030.2,,TRUE,TRUE,,,,,,,FEW,11000,,,,,,,VFR,2.0,7.2,1.1,13.9,0.6,,,,,,,METAR,185.0
KMLB 120553Z AUTO 29003KT 10SM CLR 08/07 A3006 RMK AO2 SLP179 T00830067 10139 20083 57002,KMLB,2015-02-12T05:53:00Z,28.1,-80.65,8.3,6.7,290,3,,10.0,30.059055,1017.9,,TRUE,TRUE,,,,,,,CLR,,,,,,,,VFR,-0.2,13.9,8.3,,,,,,,,,METAR,11.0
KMLC 120553Z AUTO 36011KT 10SM CLR 03/M04 A3038 RMK AO2 SLP287 T00331039 10089 20033 401500033 51020,KMLC,2015-02-12T05:53:00Z,34.88,-95.78,3.3,-3.9,360,11,,10.0,30.380905,1028.7,,TRUE,TRUE,,,,,,,CLR,,,,,,,,VFR,2.0,8.9,3.3,15.0,3.3,,,,,,,METAR,232.0
KMLP 120553Z AUTO 22007KT 10SM SCT095 01/M01 A3025 RMK AO2 SLP218 T00061006 10011 20006 55002,KMLP,2015-02-12T05:53:00Z,47.45,-115.67,0.6,-0.6,220,7,,10.0,30.250984,1021.8,,TRUE,TRUE,,,,,,,SCT,9500,,,,,,,VFR,-0.2,1.1,0.6,,,,,,,,,METAR,1837.0
KMLS 120553Z AUTO 09006KT 10SM FEW017 OVC070 M07/M11 A3038 RMK AO2 SLP327 T10721106 11056 21072 58020,KMLS,2015-02-12T05:53:00Z,46.43,-105.88,-7.2,-10.6,90,6,,10.0,30.380905,1032.7,,TRUE,TRUE,,,,,,,FEW,1700,OVC,7000,,,,,VFR,-2.0,-5.6,-7.2,,,,,,,,,METAR,801.0
KMLT 120553Z AUTO 06005KT 10SM CLR M17/M22 A2995 RMK AO2 SLP158 T11721217 11122 21172 58020,KMLT,2015-02-12T05:53:00Z,45.65,-68.7,-17.2,-21.7,60,5,,10.0,29.949802,1015.8,,TRUE,TRUE,,,,,,,CLR,,,,,,,,VFR,-2.0,-12.2,-17.2,,,,,,,,,METAR,123.0
KMLU 120553Z AUTO 03003KT 10SM CLR 09/04 A3020 RMK AO2 SLP226 T00890039 10150 20083 402000006 51010,KMLU,2015-02-12T05:53:00Z,32.52,-92.03,8.9,3.9,30,3,,10.0,30.200787,1022.6,,TRUE,TRUE,,,,,,,CLR,,,,,,,,VFR,1.0,15.0,8.3,20.0,0.6,,,,,,,METAR,29.0
KMMK 120553Z AUTO 00000KT 10SM CLR M12/M15 A2992 RMK AO2 SLP135 T11221150 11067 21128 56013 TSNO,KMMK,2015-02-12T05:53:00Z,41.52,-72.83,-12.2,-15.0,0,0,,10.0,29.920275,1013.5,,TRUE,TRUE,,,TRUE,,,,CLR,,,,,,,,VFR,-1.3,-6.7,-12.8,,,,,,,,,METAR,31.0
KMMV 120553Z AUTO 13004KT 5SM BR BKN110 08/07 A3024 RMK AO2 SLP239 T00830072 10117 20083 53007 $,KMMV,2015-02-12T05:53:00Z,45.2,-123.13,8.3,7.2,130,4,,5.0,30.239174,1023.9,,TRUE,TRUE,TRUE,,,,,BR,BKN,11000,,,,,,,MVFR,0.7,11.7,8.3,,,,,,,,,METAR,48.0
KMNN 120553Z AUTO 32009KT 9SM OVC048 M01/M06 A2993 RMK AO2 SLP147 60001 I6002 T10111056 10006 21011 58005 TSNO,KMNN,2015-02-12T05:53:00Z,40.62,-83.07,-1.1,-5.6,320,9,,9.0,29.929134,1014.7,,TRUE,TRUE,,,TRUE,,,,OVC,4800,,,,,,,VFR,-0.5,0.6,-1.1,,,,,0.01,,,,METAR,301.0
KMOD 120553Z AUTO 00000KT 10SM CLR 13/09 A3020 RMK AO2 SLP226 T01280089 10206 20122 52014,KMOD,2015-02-12T05:53:00Z,37.62,-120.95,12.8,8.9,0,0,,10.0,30.200787,1022.6,,TRUE,TRUE,,,,,,,CLR,,,,,,,,VFR,1.4,20.6,12.2,,,,,,,,,METAR,29.0
KMPO 120553Z AUTO 24005KT 10SM BKN022 OVC065 M04/M09 A2976 RMK AO2 SLP102 T10391094 11039 21056 56013 $,KMPO,2015-02-12T05:53:00Z,41.13,-75.38,-3.9,-9.4,240,5,,10.0,29.760826,1010.2,,TRUE,TRUE,TRUE,,,,,,BKN,2200,OVC,6500,,,,,MVFR,-1.3,-3.9,-5.6,,,,,,,,,METAR,577.0
KMRB 120553Z AUTO 28003KT 10SM OVC055 03/M03 A2987 RMK AO2 SLP117 T00331028 10039 20011 58012 TSNO,KMRB,2015-02-12T05:53:00Z,39.4,-77.98,3.3,-2.8,280,3,,10.0,29.870079,1011.7,,TRUE,TRUE,,,TRUE,,,,OVC,5500,,,,,,,VFR,-1.2,3.9,1.1,,,,,,,,,METAR,164.0
KMSL 120553Z AUTO 33005KT 10SM CLR 07/M01 A3012 RMK AO2 SLP201 T00671011 10106 20061 401501033 50001,KMSL,2015-02-12T05:53:00Z,34.75,-87.6,6.7,-1.1,330,5,,10.0,30.121063,1020.1,,TRUE,TRUE,,,,,,,CLR,,,,,,,,VFR,0.1,10.6,6.1,15.0,-3.3,,,,,,,METAR,164.0
KMSN 120553Z AUTO 34010KT 10SM SCT036 BKN048 OVC070 M10/M16 A3017 RMK AO2 SLP230 T11001161 11056 21100 400061100 53014,KMSN,2015-02-12T05:53:00Z,43.13,-89.35,-10.0,-16.1,340,10,,10.0,30.171259,1023.0,,TRUE,TRUE,,,,,,,SCT,3600,BKN,4800,OVC,7000,,,VFR,1.4,-5.6,-10.0,0.6,-10.0,,,,,,,METAR,261.0
KMSO 120553Z 06003KT 10SM BKN110 03/01 A3028 RMK AO2 SLP277 T00280011 10061 20022 56009,KMSO,2015-02-12T05:53:00Z,46.92,-114.1,2.8,1.1,60,3,,10.0,30.280512,1027.7,,,TRUE,,,,,,,BKN,11000,,,,,,,VFR,-0.9,6.1,2.2,,,,,,,,,METAR,975.0
KLOZ 120553Z AUTO 29004KT 10SM OVC021 04/M02 A3002 RMK AO2 SLP168 T00391022 10044 20022 58004,KLOZ,2015-02-12T05:53:00Z,37.08,-84.07,3.9,-2.2,290,4,,10.0,30.02067,1016.8,,TRUE,TRUE,,,,,,,OVC,2100,,,,,,,MVFR,-0.4,4.4,2.2,,,,,,,,,METAR,362.0
KLPR 120553Z AUTO 29008KT 9SM BKN019 BKN026 OVC055 M02/M05 A2991 RMK AO2 SNE18 SLP138 P0000 60000 I6008 T10171050 10006 21022 58001 TSNO,KLPR,2015-02-12T05:53:00Z,41.35,-82.18,-1.7,-5.0,290,8,,9.0,29.911417,1013.8,,TRUE,TRUE,,,TRUE,,,,BKN,1900,BKN,2600,OVC,5500,,,MVFR,-0.1,0.6,-2.2,,,0.0050,,0.0050,,,,METAR,241.0
KLSE 120553Z AUTO 33018KT 10SM SCT029 OVC036 M11/M16 A3031 RMK AO2 UPB14E24SNE14 SLP285 P0000 60000 T11111156 11078 21111 400171111 53028,KLSE,2015-02-12T05:53:00Z,43.88,-91.25,-11.1,-15.6,330,18,,10.0,30.31004,1028.5,,TRUE,TRUE,,,,,,,SCT,2900,OVC,3600,,,,,VFR,2.8,-7.8,-11.1,1.7,-11.1,0.0050,,0.0050,,,,METAR,199.0
KLUK 120553Z AUTO 30006G16KT 10SM OVC024 00/M05 A3006 RMK AO2 SLP181 60000 T00001050 10039 20000 55001,KLUK,2015-02-12T05:53:00Z,39.1,-84.42,0.0,-5.0,300,6,16,10.0,30.059055,1018.1,,TRUE,TRUE,,,,,,,OVC,2400,,,,,,,MVFR,-0.1,3.9,0.0,,,,,0.0050,,,,METAR,155.0
KLVM 120553Z AUTO 32013G16KT 10SM CLR 03/M04 A3022 RMK AO2 SLP240 T00331039 10100 21017 56019,KLVM,2015-02-12T05:53:00Z,45.7,-110.43,3.3,-3.9,320,13,16,10.0,30.221457,1024.0,,TRUE,TRUE,,,,,,,CLR,,,,,,,,VFR,-1.9,10.0,-1.7,,,,,,,,,METAR,1418.0
KLVK 120553Z AUTO 00000KT 10SM CLR 12/08 RMK AO2 SLPNO T01220083 10172 20117 $,KLVK,2015-02-12T05:53:00Z,37.7,-121.82,12.2,8.3,0,0,,10.0,,,,TRUE,TRUE,TRUE,,,,,,CLR,,,,,,,,VFR,,17.2,11.7,,,,,,,,,METAR,117.0
KLVJ 120553Z AUTO 00000KT 1/4SM FG VV001 12/12 A3017 RMK AO2 SLP215 T01220117 10194 20106 402330089 53009,KLVJ,2015-02-12T05:53:00Z,29.52,-95.25,12.2,11.7,0,0,,0.25,30.171259,1021.5,,TRUE,TRUE,,,,,,FG,OVX,0,,,,,,,LIFR,0.9,19.4,10.6,23.3,8.9,,,,,,100,METAR,12.0
KLVS 120553Z AUTO 00000KT 10SM CLR M02/M05 A3043 RMK AO2 SLP307 T10221050 10017 21039 51004,KLVS,2015-02-12T05:53:00Z,35.65,-105.13,-2.2,-5.0,0,0,,10.0,30.431103,1030.7,,TRUE,TRUE,,,,,,,CLR,,,,,,,,VFR,0.4,1.7,-3.9,,,,,,,,,METAR,2091.0
KLWD 120553Z AUTO 34019G28KT 10SM SCT034 M06/M12 A3037 RMK AO2 PK WND 34038/0528 SNB18E27 SLP302 P0000 60000 T10611122 11028 21061 400331061 53012,KLWD,2015-02-12T05:53:00Z,40.63,-93.9,-6.1,-12.2,340,19,28,10.0,30.369095,1030.2,,TRUE,TRUE,,,,,,,SCT,3400,,,,,,,VFR,1.2,-2.8,-6.1,3.3,-6.1,0.0050,,0.0050,,,,METAR,346.0
KLWV 120553Z AUTO 32011KT 10SM BKN025 M02/M07 A3018 RMK AO2 SLP224 T10221067 10011 21022 400781056 55001,KLWV,2015-02-12T05:53:00Z,38.77,-87.6,-2.2,-6.7,320,11,,10.0,30.180119,1022.4,,TRUE,TRUE,,,,,,,BKN,2500,,,,,,,MVFR,-0.1,1.1,-2.2,7.8,-5.6,,,,,,,METAR,131.0
KLXT 120553Z AUTO 32010KT 10SM OVC055 M01/M07 A3039 RMK AO2 SLP303 T10111072 11006 21033 400441033 50006,KLXT,2015-02-12T05:53:00Z,38.97,-94.37,-1.1,-7.2,320,10,,10.0,30.389763,1030.3,,TRUE,TRUE,,,,,,,OVC,5500,,,,,,,VFR,0.6,-0.6,-3.3,4.4,-3.3,,,,,,,METAR,306.0
KLXV 120553Z AUTO 05008KT 10SM CLR M09/M16 A3043 RMK AO2 SLP295 T10891161 10011 21100 51007,KLXV,2015-02-12T05:53:00Z,39.23,-106.32,-8.9,-16.1,50,8,,10.0,30.431103,1029.5,,TRUE,TRUE,,,,,,,CLR,,,,,,,,VFR,0.7,1.1,-10.0,,,,,,,,,METAR,3028.0
KMAE 120553Z AUTO 02003KT 7SM CLR 11/09 A3020 RMK AO2 SLP225 T01110089 10200 20106 53011,KMAE,2015-02-12T05:53:00Z,36.98,-120.12,11.1,8.9,20,3,,7.0,30.200787,1022.5,,TRUE,TRUE,,,,,,,CLR,,,,,,,,VFR,1.1,20.0,10.6,,,,,,,,,METAR,77.0
KMAF 120553Z AUTO 02012KT 10SM OVC075 07/M02 A3038 RMK AO2 SLP270 T00671022 10089 20061 401720061 51014,KMAF,2015-02-12T05:53:00Z,31.95,-102.2,6.7,-2.2,20,12,,10.0,30.380905,1027.0,,TRUE,TRUE,,,,,,,OVC,7500,,,,,,,VFR,1.4,8.9,6.1,17.2,6.1,,,,,,,METAR,874.0
KMAI 120553Z AUTO 00000KT 10SM CLR 08/06 A3006 RMK AO2 SLP180 60000 T00830061 10144 20083 402000000 56001,KMAI,2015-02-12T05:53:00Z,30.83,-85.18,8.3,6.1,0,0,,10.0,30.059055,1018.0,,TRUE,TRUE,,,,,,,CLR,,,,,,,,VFR,-0.1,14.4,8.3,20.0,,,,0.0050,,,,METAR,32.0
KMBS 120553Z 32012KT 10SM OVC046 M07/M13 A2996 RMK AO2 SLP153 60000 T10671133 11017 21067 51018,KMBS,2015-02-12T05:53:00Z,43.53,-84.08,-6.7,-13.3,320,12,,10.0,29.958662,1015.3,,,TRUE,,,,,,,OVC,4600,,,,,,,VFR,1.8,-1.7,-6.7,,,,,0.0050,,,,METAR,202.0
KMCB 120553Z AUTO 35007KT 10SM CLR 12/03 A3014 RMK AO2 SLP203 T01170033 10178 20094 402280017 51009 $,KMCB,2015-02-12T05:53:00Z,31.18,-90.47,11.7,3.3,350,7,,10.0,30.138779,1020.3,,TRUE,TRUE,TRUE,,,,,,CLR,,,,,,,,VFR,0.9,17.8,9.4,22.8,1.7,,,,,,,METAR,124.0
KMCN 120553Z AUTO 28006KT 10SM CLR 05/02 A3001 RMK AO2 SLP161 T00500022 10139 20044 56004 TSNO,KMCN,2015-02-12T05:53:00Z,32.68,-83.65,5.0,2.2,280,6,,10.0,30.008858,1016.1,,TRUE,TRUE,,,TRUE,,,,CLR,,,,,,,,VFR,-0.4,13.9,4.4,,,,,,,,,METAR,109.0
KMCK 120553Z AUTO 07007KT 10SM CLR M02/M06 A3042 RMK AO2 SLP320 T10171061 10094 21017 401171022 53025,KMCK,2015-02-12T05:53:00Z,40.2,-100.58,-1.7,-6.1,70,7,,10.0,30.41929,1032.0,,TRUE,TRUE,,,,,,,CLR,,,,,,,,VFR,2.5,9.4,-1.7,11.7,-2.2,,,,,,,METAR,782.0
KMCI 120553Z 32009KT 10SM OVC055 M01/M07 A3040 RMK AO2 SLP302 T10111067 11011 21039 400391039 50007,KMCI,2015-02-12T05:53:00Z,39.3,-94.73,-1.1,-6.7,320,9,,10.0,30.398623,1030.2,,,TRUE,,,,,,,OVC,5500,,,,,,,VFR,0.7,-1.1,-3.9,3.9,-3.9,,,,,,,METAR,320.0
KMCE 120553Z AUTO 35003KT 9SM CLR 12/09 A3019 RMK AO2 SLP225 T01220089 10194 20111 51015,KMCE,2015-02-12T05:53:00Z,37.28,-120.5,12.2,8.9,350,3,,9.0,30.188976,1022.5,,TRUE,TRUE,,,,,,,CLR,,,,,,,,VFR,1.5,19.4,11.1,,,,,,,,,METAR,47.0
KMCO 120553Z 25003KT 10SM CLR 09/08 A3008 RMK AO2 SLP186 T00940078 10156 20089 50001,KMCO,2015-02-12T05:53:00Z,28.42,-81.33,9.4,7.8,250,3,,10.0,30.079725,1018.6,,,TRUE,,,,,,,CLR,,,,,,,,VFR,0.1,15.6,8.9,,,,,,,,,METAR,29.0
KMCW 120553Z AUTO 34025G31KT 10SM BKN017 M16/M21 A3042 RMK AO2 PK WND 33036/0506 UPB02E11 SLP324 P0000 60000 T11611206 11089 21161 400111161 53030 $,KMCW,2015-02-12T05:53:00Z,43.15,-93.33,-16.1,-20.6,340,25,31,10.0,30.41929,1032.4,,TRUE,TRUE,TRUE,,,,,,BKN,1700,,,,,,,MVFR,3.0,-8.9,-16.1,1.1,-16.1,0.0050,,0.0050,,,,METAR,369.0
KMDW 120553Z 31012G18KT 10SM FEW034 BKN100 M06/M12 A3011 RMK AO2 SLP209 4/003 T10611122 11006 21061 400331061 51010,KMDW,2015-02-12T05:53:00Z,41.78,-87.75,-6.1,-12.2,310,12,18,10.0,30.109253,1020.9,,,TRUE,,,,,,,FEW,3400,BKN,10000,,,,,VFR,1.0,-0.6,-6.1,3.3,-6.1,,,,,3.0,,METAR,188.0
KOAK 120553Z 00000KT 10SM BKN180 14/09 A3018 RMK AO2 SLP220 T01390089 10172 20128 51009,KOAK,2015-02-12T05:53:00Z,37.72,-122.23,13.9,8.9,0,0,,10.0,30.180119,1022.0,,,TRUE,,,,,,,BKN,18000,,,,,,,VFR,0.9,17.2,12.8,,,,,,,,,METAR,26.0
KNEW 120553Z 23006KT 9SM CLR 14/09 A3012 RMK AO2 SLP193 T01440094 10156 20122 401720106 51003,KNEW,2015-02-12T05:53:00Z,30.05,-90.03,14.4,9.4,230,6,,9.0,30.121063,1019.3,,,TRUE,,,,,,,CLR,,,,,,,,VFR,0.3,15.6,12.2,17.2,10.6,,,,,,,METAR,3.0
KMYV 120553Z AUTO 00000KT 9SM CLR 09/08 A3021 RMK AO2 SLP232 T00940083 10167 20094 52009,KMYV,2015-02-12T05:53:00Z,39.1,-121.57,9.4,8.3,0,0,,9.0,30.209646,1023.2,,TRUE,TRUE,,,,,,,CLR,,,,,,,,VFR,0.9,16.7,9.4,,,,,,,,,METAR,21.0
KMYF 120553Z 09004KT 10SM CLR 21/M06 A3005 RMK AO2 SLP172 T02111061 10256 20178 51007,KMYF,2015-02-12T05:53:00Z,32.82,-117.13,21.1,-6.1,90,4,,10.0,30.050198,1017.2,,,TRUE,,,,,,,CLR,,,,,,,,VFR,0.7,25.6,17.8,,,,,,,,,METAR,136.0
KMWL 120553Z AUTO 34012KT 10SM OVC080 07/M01 A3035 RMK AO2 SLP274 T00671006 10156 20067 402060067 51021,KMWL,2015-02-12T05:53:00Z,32.78,-98.07,6.7,-0.6,340,12,,10.0,30.351377,1027.4,,TRUE,TRUE,,,,,,,OVC,8000,,,,,,,VFR,2.1,15.6,6.7,20.6,6.7,,,,,,,METAR,284.0
KMVY 120553Z AUTO 33010KT 10SM OVC019 M04/M08 A2988 RMK AO2 SLP119 T10441083 11028 21056 55008,KMVY,2015-02-12T05:53:00Z,41.4,-70.62,-4.4,-8.3,330,10,,10.0,29.878937,1011.9,,TRUE,TRUE,,,,,,,OVC,1900,,,,,,,MVFR,-0.8,-2.8,-5.6,,,,,,,,,METAR,16.0
KMTO 120553Z AUTO 32015KT 10SM BKN018 BKN022 M04/M09 A3017 RMK AO2 SLP223 T10441089 11011 21044 400331044 50003,KMTO,2015-02-12T05:53:00Z,39.47,-88.27,-4.4,-8.9,320,15,,10.0,30.171259,1022.3,,TRUE,TRUE,,,,,,,BKN,1800,BKN,2200,,,,,MVFR,0.3,-1.1,-4.4,3.3,-4.4,,,,,,,METAR,214.0
KMTJ 120553Z AUTO 14009KT 10SM CLR 01/M06 A3042 RMK AO2 SLP288 T00111056 10117 20011 51011,KMTJ,2015-02-12T05:53:00Z,38.5,-107.9,1.1,-5.6,140,9,,10.0,30.41929,1028.8,,TRUE,TRUE,,,,,,,CLR,,,,,,,,VFR,1.1,11.7,1.1,,,,,,,,,METAR,1750.0
KMTH 120553Z AUTO 01007KT 10SM CLR 17/13 A3003 RMK AO2 SLP169 T01720133 10178 20167 57000,KMTH,2015-02-12T05:53:00Z,24.73,-81.05,17.2,13.3,10,7,,10.0,30.029528,1016.9,,TRUE,TRUE,,,,,,,CLR,,,,,,,,VFR,0.0,17.8,16.7,,,,,,,,,METAR,2.0
KMSY 120553Z 24005KT 10SM FEW010 FEW250 11/07 A3012 RMK AO2 SLP201 FU FEW010 T01060067 10161 20100 401940056 50003,KMSY,2015-02-12T05:53:00Z,30.0,-90.25,10.6,6.7,240,5,,10.0,30.121063,1020.1,,,TRUE,,,,,,,FEW,1000,FEW,25000,,,,,VFR,0.3,16.1,10.0,19.4,5.6,,,,,,,METAR,5.0
KMSS 120553Z AUTO 07005KT 5SM -SN BR BKN015 OVC020 M12/M14 A2977 RMK AO2 SLP093 P0000 60002 T11171139 11117 21128 56025,KMSS,2015-02-12T05:53:00Z,44.93,-74.85,-11.7,-13.9,70,5,,5.0,29.769686,1009.3,,TRUE,TRUE,,,,,,-SN BR,BKN,1500,OVC,2000,,,,,MVFR,-2.5,-11.7,-12.8,,,0.0050,,0.02,,,,METAR,66.0
KMSP 120553Z 33018G25KT 10SM SCT029 M17/M22 A3048 RMK AO2 PK WND 33027/0517 SLP342 4/001 60000 T11671217 11117 21167 410111167 51035,KMSP,2015-02-12T05:53:00Z,44.88,-93.23,-16.7,-21.7,330,18,25,10.0,30.481298,1034.2,,,TRUE,,,,,,,SCT,2900,,,,,,,VFR,3.5,-11.7,-16.7,-1.1,-16.7,,,0.0050,,1.0,,METAR,265.0
KRNM 120553Z 08008KT 10SM CLR 19/M10 A3009 RMK AO2 SLP176 T01891100 10244 20189 53006,KRNM,2015-02-12T05:53:00Z,33.03,-116.92,18.9,-10.0,80,8,,10.0,30.088583,1017.6,,,TRUE,,,,,,,CLR,,,,,,,,VFR,0.6,24.4,18.9,,,,,,,,,METAR,427.0
KRMG 120553Z AUTO 00000KT 10SM CLR 03/M01 A3004 RMK AO2 SLP172 T00331011 10106 20033 50003,KRMG,2015-02-12T05:53:00Z,34.35,-85.17,3.3,-1.1,0,0,,10.0,30.041338,1017.2,,TRUE,TRUE,,,,,,,CLR,,,,,,,,VFR,0.3,10.6,3.3,,,,,,,,,METAR,193.0
KRME 120553Z AUTO 11007KT 6SM -SN BR OVC019 M06/M07 A2978 RMK AO2 UPB16E49SNE16B37E43B49 SLP090 P0000 60002 T10611072 11050 21067 58021,KRME,2015-02-12T05:53:00Z,43.22,-75.4,-6.1,-7.2,110,7,,6.0,29.778543,1009.0,,TRUE,TRUE,,,,,,-SN BR,OVC,1900,,,,,,,MVFR,-2.1,-5.0,-6.7,,,0.0050,,0.02,,,,METAR,154.0
KRIW 120553Z AUTO 23005KT 10SM CLR 03/M03 A3027 RMK AO2 SLP255 T00281033 10083 20022 58008,KRIW,2015-02-12T05:53:00Z,43.07,-108.47,2.8,-3.3,230,5,,10.0,30.268702,1025.5,,TRUE,TRUE,,,,,,,CLR,,,,,,,,VFR,-0.8,8.3,2.2,,,,,,,,,METAR,1697.0
KRIL 120553Z AUTO 14003KT 10SM CLR M01/M06 A3042 RMK AO2 SLP303 T10061061 10128 21011 51015,KRIL,2015-02-12T05:53:00Z,39.53,-107.73,-0.6,-6.1,140,3,,10.0,30.41929,1030.3,,TRUE,TRUE,,,,,,,CLR,,,,,,,,VFR,1.5,12.8,-1.1,,,,,,,,,METAR,1678.0
KRHI 120553Z AUTO 35011G16KT 10SM SCT025 M16/M21 A3018 RMK AO2 SLP254 60000 T11611206 11122 21161 410501161 51023,KRHI,2015-02-12T05:53:00Z,45.63,-89.48,-16.1,-20.6,350,11,16,10.0,30.180119,1025.4,,TRUE,TRUE,,,,,,,SCT,2500,,,,,,,VFR,2.3,-12.2,-16.1,-5.0,-16.1,,,0.0050,,,,METAR,485.0
KRDD 120553Z AUTO 00000KT 10SM CLR 11/08 A3020 RMK AO2 SLP226 T01110078 10206 20111 51016,KRDD,2015-02-12T05:53:00Z,40.52,-122.3,11.1,7.8,0,0,,10.0,30.200787,1022.6,,TRUE,TRUE,,,,,,,CLR,,,,,,,,VFR,1.6,20.6,11.1,,,,,,,,,METAR,155.0
KRBG 120553Z AUTO 00000KT 10SM CLR 08/06 A3023 RMK AO2 SLP241 T00780061 10150 20072 53010,KRBG,2015-02-12T05:53:00Z,43.23,-123.35,7.8,6.1,0,0,,10.0,30.230314,1024.1,,TRUE,TRUE,,,,,,,CLR,,,,,,,,VFR,1.0,15.0,7.2,,,,,,,,,METAR,154.0
KRBD 120553Z 35012KT 10SM CLR 08/01 A3031 RMK AO2 SLP262 T00830006 10178 20083 402110078 51023,KRBD,2015-02-12T05:53:00Z,32.68,-96.87,8.3,0.6,350,12,,10.0,30.31004,1026.2,,,TRUE,,,,,,,CLR,,,,,,,,VFR,2.3,17.8,8.3,21.1,7.8,,,,,,,METAR,203.0
KRAL 120553Z AUTO 06005KT 10SM CLR 21/M07 A3012 RMK AO2 SLP185 T02111067 10272 20194 51014,KRAL,2015-02-12T05:53:00Z,33.95,-117.45,21.1,-6.7,60,5,,10.0,30.121063,1018.5,,TRUE,TRUE,,,,,,,CLR,,,,,,,,VFR,1.4,27.2,19.4,,,,,,,,,METAR,252.0
KRAC 120553Z AUTO 33011G17KT 10SM BKN033 OVC042 M08/M15 A3012 RMK AO2 SLP209 T10831150 11028 21083 400171083 52013,KRAC,2015-02-12T05:53:00Z,42.77,-87.82,-8.3,-15.0,330,11,17,10.0,30.121063,1020.9,,TRUE,TRUE,,,,,,,BKN,3300,OVC,4200,,,,,VFR,1.3,-2.8,-8.3,1.7,-8.3,,,,,,,METAR,203.0
KPWA 120553Z AUTO 01010KT 10SM CLR 02/M05 A3042 RMK AO2 SLP308 T00221050 10056 20022 401000022 53016,KPWA,2015-02-12T05:53:00Z,35.53,-97.65,2.2,-5.0,10,10,,10.0,30.41929,1030.8,,TRUE,TRUE,,,,,,,CLR,,,,,,,,VFR,1.6,5.6,2.2,10.0,2.2,,,,,,,METAR,397.0
KPUW 120553Z AUTO 05004KT 10SM OVC110 08/05 A3027 RMK AO2 SLP262 T00780050 10100 20078 53001,KPUW,2015-02-12T05:53:00Z,46.75,-117.12,7.8,5.0,50,4,,10.0,30.268702,1026.2,,TRUE,TRUE,,,,,,,OVC,11000,,,,,,,VFR,0.1,10.0,7.8,,,,,,,,,METAR,773.0
KPUC 120553Z AUTO 00000KT 10SM CLR 01/M09 A3040 RMK AO2 SLP305 T00061094 10128 20006 51014,KPUC,2015-02-12T05:53:00Z,39.62,-110.75,0.6,-9.4,0,0,,10.0,30.398623,1030.5,,TRUE,TRUE,,,,,,,CLR,,,,,,,,VFR,1.4,12.8,0.6,,,,,,,,,METAR,2091.0
KPUB 120553Z 04005KT 10SM CLR 00/M02 A3040 RMK AO2 SLP303 T00001017 10083 21006 51012,KPUB,2015-02-12T05:53:00Z,38.28,-104.5,0.0,-1.7,40,5,,10.0,30.398623,1030.3,,,TRUE,,,,,,,CLR,,,,,,,,VFR,1.2,8.3,-0.6,,,,,,,,,METAR,1420.0
KPTK 120553Z AUTO 30010KT 10SM OVC060 M04/M08 A2988 RMK AO2 SNE29 SLP132 P0000 60000 T10441083 11017 21044 53001,KPTK,2015-02-12T05:53:00Z,42.67,-83.42,-4.4,-8.3,300,10,,10.0,29.878937,1013.2,,TRUE,TRUE,,,,,,,OVC,6000,,,,,,,VFR,0.1,-1.7,-4.4,,,0.0050,,0.0050,,,,METAR,299.0
KPSX 120553Z AUTO 01005KT 3SM BR CLR 13/12 A3015 RMK AO2 SLP210 T01280122 10200 20128 402280106 51008,KPSX,2015-02-12T05:53:00Z,28.72,-96.25,12.8,12.2,10,5,,3.0,30.15059,1021.0,,TRUE,TRUE,,,,,,BR,CLR,,,,,,,,MVFR,0.8,20.0,12.8,22.8,10.6,,,,,,,METAR,5.0
KPSP 120553Z 30007KT 10SM CLR 23/M07 A3016 RMK AO2 SLP211 T02331072 10278 20217 51010,KPSP,2015-02-12T05:53:00Z,33.82,-116.5,23.3,-7.2,300,7,,10.0,30.159449,1021.1,,,TRUE,,,,,,,CLR,,,,,,,,VFR,1.0,27.8,21.7,,,,,,,,,METAR,135.0
KPSC 120553Z 02003KT 10SM CLR 06/06 A3027 RMK AO2 SLP254 T00610056 10117 20061 50003,KPSC,2015-02-12T05:53:00Z,46.27,-119.12,6.1,5.6,20,3,,10.0,30.268702,1025.4,,,TRUE,,,,,,,CLR,,,,,,,,VFR,0.3,11.7,6.1,,,,,,,,,METAR,121.0
KPRC 120553Z AUTO 06005KT 10SM CLR 08/M06 A3031 RMK AO2 SLP223 T00831061 10156 20061 53010 $,KPRC,2015-02-12T05:53:00Z,34.65,-112.42,8.3,-6.1,60,5,,10.0,30.31004,1022.3,,TRUE,TRUE,TRUE,,,,,,CLR,,,,,,,,VFR,1.0,15.6,6.1,,,,,,,,,METAR,1524.0
KPRB 120553Z AUTO 09006KT 10SM CLR 12/08 A3017 RMK AO2 SLP215 T01220078 10217 20122 51011 TSNO $,KPRB,2015-02-12T05:53:00Z,35.67,-120.63,12.2,7.8,90,6,,10.0,30.171259,1021.5,,TRUE,TRUE,TRUE,,TRUE,,,,CLR,,,,,,,,VFR,1.1,21.7,12.2,,,,,,,,,METAR,245.0
KPQL 120553Z AUTO 00000KT CLR 05/04 A3010 RMK AO2 SLP194 T00500044 10122 20044 401831011 58003 TSNO $,KPQL,2015-02-12T05:53:00Z,30.47,-88.53,5.0,4.4,0,0,,,30.100393,1019.4,,TRUE,TRUE,TRUE,,TRUE,,,,CLR,,,,,,,,,-0.3,12.2,4.4,18.3,-1.1,,,,,,,METAR,6.0
KPOU 120553Z AUTO 14003KT 10SM OVC100 M05/M12 A2987 RMK AO2 SLP115 T10501117 11033 21100 58014,KPOU,2015-02-12T05:53:00Z,41.63,-73.88,-5.0,-11.7,140,3,,10.0,29.870079,1011.5,,TRUE,TRUE,,,,,,,OVC,10000,,,,,,,VFR,-1.4,-3.3,-10.0,,,,,,,,,METAR,46.0
KPOF 120553Z AUTO 32008KT 10SM CLR 01/M06 A3027 RMK AO2 SLP252 T00061056 10067 20000 401501039 53010,KPOF,2015-02-12T05:53:00Z,36.77,-90.32,0.6,-5.6,320,8,,10.0,30.268702,1025.2,,TRUE,TRUE,,,,,,,CLR,,,,,,,,VFR,1.0,6.7,0.0,15.0,-3.9,,,,,,,METAR,99.0
KMFE 120553Z 09006KT 10SM FEW037 18/16 A3009 RMK AO2 SLP188 T01830156 10228 20183 402670139 51019,KMFE,2015-02-12T05:53:00Z,26.18,-98.25,18.3,15.6,90,6,,10.0,30.088583,1018.8,,,TRUE,,,,,,,FEW,3700,,,,,,,VFR,1.9,22.8,18.3,26.7,13.9,,,,,,,METAR,38.0
KODO 120553Z AUTO 03010KT 10SM BKN080 06/M03 A3039 RMK AO2 SLP274 T00561028 10083 20056 401720056 53010,KODO,2015-02-12T05:53:00Z,31.92,-102.4,5.6,-2.8,30,10,,10.0,30.389763,1027.4,,TRUE,TRUE,,,,,,,BKN,8000,,,,,,,VFR,1.0,8.3,5.6,17.2,5.6,,,,,,,METAR,902.0
KOGB 120553Z AUTO 00000KT 10SM CLR 03/01 A2998 RMK AO2 SLP150 T00280011 10089 20028 56012,KOGB,2015-02-12T05:53:00Z,33.47,-80.85,2.8,1.1,0,0,,10.0,29.97933,1015.0,,TRUE,TRUE,,,,,,,CLR,,,,,,,,VFR,-1.2,8.9,2.8,,,,,,,,,METAR,59.0
KOGD 120553Z 17007KT 10SM CLR 03/M02 A3038 RMK AO2 SLP283 T00281017 10100 20028 58005,KOGD,2015-02-12T05:53:00Z,41.2,-112.02,2.8,-1.7,170,7,,10.0,30.380905,1028.3,,,TRUE,,,,,,,CLR,,,,,,,,VFR,-0.5,10.0,2.8,,,,,,,,,METAR,1353.0
KOJC 120553Z AUTO 32006KT 10SM OVC060 M02/M07 A3039 RMK AO2 SLP303 T10171067 11006 21033 400441033 50007,KOJC,2015-02-12T05:53:00Z,38.85,-94.73,-1.7,-6.7,320,6,,10.0,30.389763,1030.3,,TRUE,TRUE,,,,,,,OVC,6000,,,,,,,VFR,0.7,-0.6,-3.3,4.4,-3.3,,,,,,,METAR,326.0
KOMK 120553Z AUTO 21007KT 10SM OVC029 08/05 A3025 RMK AO2 SLP250 T00780050 10100 20078 58002,KOMK,2015-02-12T05:53:00Z,48.47,-119.52,7.8,5.0,210,7,,10.0,30.250984,1025.0,,TRUE,TRUE,,,,,,,OVC,2900,,,,,,,MVFR,-0.2,10.0,7.8,,,,,,,,,METAR,395.0
KONO 120553Z AUTO 27005KT 10SM CLR 06/03 A3037 RMK AO2 SLP296 T00610033 10117 20056 53003,KONO,2015-02-12T05:53:00Z,44.02,-117.02,6.1,3.3,270,5,,10.0,30.369095,1029.6,,TRUE,TRUE,,,,,,,CLR,,,,,,,,VFR,0.3,11.7,5.6,,,,,,,,,METAR,667.0
KONT 120553Z 05012G22KT 10SM SCT230 23/M08 A3009 RMK AO2 SLP172 T02331083 10289 20228 51009,KONT,2015-02-12T05:53:00Z,34.05,-117.58,23.3,-8.3,50,12,22,10.0,30.088583,1017.2,,,TRUE,,,,,,,SCT,23000,,,,,,,VFR,0.9,28.9,22.8,,,,,,,,,METAR,274.0
KOPF 120553Z AUTO 34006KT 10SM OVC048 15/12 A3004 RMK AO2 SLP172 T01500122 10189 20150 51002,KOPF,2015-02-12T05:53:00Z,25.92,-80.28,15.0,12.2,340,6,,10.0,30.041338,1017.2,,TRUE,TRUE,,,,,,,OVC,4800,,,,,,,VFR,0.2,18.9,15.0,,,,,,,,,METAR,16.0
KORB 120553Z AUTO 31005KT 10SM CLR M22/M26 A3046 RMK AO2,KORB,2015-02-12T05:53:00Z,48.02,-92.87,-22.0,-26.0,310,5,,10.0,30.46063,,,TRUE,TRUE,,,,,,,CLR,,,,,,,,VFR,,,,,,,,,,,,METAR,397.0
KORL 120553Z AUTO 00000KT 10SM CLR 10/07 A3007 RMK AO2 SLP189 T01000067 10144 20100 58000,KORL,2015-02-12T05:53:00Z,28.55,-81.33,10.0,6.7,0,0,,10.0,30.070866,1018.9,,TRUE,TRUE,,,,,,,CLR,,,,,,,,VFR,0.0,14.4,10.0,,,,,,,,,METAR,37.0
KJKL 120553Z AUTO 26004KT 10SM OVC022 03/M02 A2998 RMK AO2 SLP162 T00281017 10028 20017 58007,KJKL,2015-02-12T05:53:00Z,37.6,-83.32,2.8,-1.7,260,4,,10.0,29.97933,1016.2,,TRUE,TRUE,,,,,,,OVC,2200,,,,,,,MVFR,-0.7,2.8,1.7,,,,,,,,,METAR,416.0
KJER 120553Z AUTO 06010KT 10SM CLR 06/M01 A3034 RMK AO2 SLP282 T00561006 10100 20050 58004,KJER,2015-02-12T05:53:00Z,42.72,-114.45,5.6,-0.6,60,10,,10.0,30.339567,1028.2,,TRUE,TRUE,,,,,,,CLR,,,,,,,,VFR,-0.4,10.0,5.0,,,,,,,,,METAR,1222.0
KOSH 120553Z 33013G21KT 10SM BKN070 BKN085 OVC100 M11/M17 A3016 RMK AO2 SLP233 60000 T11061172 11067 21106 410111106 51022,KOSH,2015-02-12T05:53:00Z,43.97,-88.55,-10.6,-17.2,330,13,21,10.0,30.159449,1023.3,,,TRUE,,,,,,,BKN,7000,BKN,8500,OVC,10000,,,VFR,2.2,-6.7,-10.6,-1.1,-10.6,,,0.0050,,,,METAR,248.0
KRNT 120553Z AUTO 00000KT 10SM BKN110 11/09 A3019 RMK AO2 SLP228 T01110089 10128 20106 50000,KRNT,2015-02-12T05:53:00Z,47.5,-122.22,11.1,8.9,0,0,,10.0,30.188976,1022.8,,TRUE,TRUE,,,,,,,BKN,11000,,,,,,,VFR,0.0,12.8,10.6,,,,,,,,,METAR,21.0
KRQE 120553Z AUTO 00000KT 10SM CLR M02/M05 A3041 RMK AO2 SLP298 6//// T10221050 10083 21022 TSNO $,KRQE,2015-02-12T05:53:00Z,35.65,-109.07,-2.2,-5.0,0,0,,10.0,30.410433,1029.8,,TRUE,TRUE,TRUE,,TRUE,,,,CLR,,,,,,,,VFR,,8.3,-2.2,,,,,,,,,METAR,2055.0
KRSW 120553Z 03003KT 10SM CLR 11/09 A3007 RMK AO2 SLP179 T01110089 10150 20111 58001,KRSW,2015-02-12T05:53:00Z,26.53,-81.75,11.1,8.9,30,3,,10.0,30.070866,1017.9,,,TRUE,,,,,,,CLR,,,,,,,,VFR,-0.1,15.0,11.1,,,,,,,,,METAR,10.0
KRTN 120553Z AUTO 00000KT 10SM CLR M06/M07 A3042 RMK AO2 SLP309 T10611072 10044 21061 53005,KRTN,2015-02-12T05:53:00Z,36.73,-104.5,-6.1,-7.2,0,0,,10.0,30.41929,1030.9,,TRUE,TRUE,,,,,,,CLR,,,,,,,,VFR,0.5,4.4,-6.1,,,,,,,,,METAR,1936.0
KRUE 120553Z AUTO 36010KT 10SM FEW120 06/M03 A3030 RMK AO2 SLP259 T00561033 10139 20056 401891011 51026,KRUE,2015-02-12T05:53:00Z,35.25,-93.1,5.6,-3.3,360,10,,10.0,30.301182,1025.9,,TRUE,TRUE,,,,,,,FEW,12000,,,,,,,VFR,2.6,13.9,5.6,18.9,-1.1,,,,,,,METAR,115.0
KRWF 120553Z AUTO 35011G22KT 10SM CLR M18/M22 A3057 RMK AO2 SLP377 60000 T11781222 11122 21178 410561178 51028,KRWF,2015-02-12T05:53:00Z,44.55,-95.08,-17.8,-22.2,350,11,22,10.0,30.569881,1037.7,,TRUE,TRUE,,,,,,,CLR,,,,,,,,VFR,2.8,-12.2,-17.8,-5.6,-17.8,,,0.0050,,,,METAR,311.0
KRWI 120553Z AUTO 17004KT 8SM CLR 01/M02 A2996 RMK AO2 SLP146 T00061017 10050 20006 58010,KRWI,2015-02-12T05:53:00Z,35.85,-77.9,0.6,-1.7,170,4,,8.0,29.958662,1014.6,,TRUE,TRUE,,,,,,,CLR,,,,,,,,VFR,-1.0,5.0,0.6,,,,,,,,,METAR,47.0
KRWL 120553Z AUTO 25011KT 10SM CLR 02/M06 A3037 RMK AO2 SLP273 T00171056 10061 20006 56003,KRWL,2015-02-12T05:53:00Z,41.78,-107.2,1.7,-5.6,250,11,,10.0,30.369095,1027.3,,TRUE,TRUE,,,,,,,CLR,,,,,,,,VFR,-0.3,6.1,0.6,,,,,,,,,METAR,2077.0
KSEA 120553Z 15004KT 10SM BKN100 OVC200 11/08 A3019 RMK AO2 SLP232 T01110078 10117 20100 50001,KSEA,2015-02-12T05:53:00Z,47.45,-122.32,11.1,7.8,150,4,,10.0,30.188976,1023.2,,,TRUE,,,,,,,BKN,10000,OVC,20000,,,,,VFR,0.1,11.7,10.0,,,,,,,,,METAR,136.0
KSDM 120553Z AUTO 12004KT 10SM CLR 21/M09 A3005 RMK AO2 SLP170 T02061094 10272 20172 51006,KSDM,2015-02-12T05:53:00Z,32.58,-117.0,20.6,-9.4,120,4,,10.0,30.050198,1017.0,,TRUE,TRUE,,,,,,,CLR,,,,,,,,VFR,0.6,27.2,17.2,,,,,,,,,METAR,159.0
KSDL 120553Z 07005KT 10SM CLR 21/M02 A3012 RMK AO2 SLP183 T02061022 10256 20206 50007,KSDL,2015-02-12T05:53:00Z,33.62,-111.92,20.6,-2.2,70,5,,10.0,30.121063,1018.3,,,TRUE,,,,,,,CLR,,,,,,,,VFR,0.7,25.6,20.6,,,,,,,,,METAR,447.0
KSBM 120553Z AUTO 34019G25KT 10SM OVC110 M10/M17 A3012 RMK AO2 SLP212 60000 T11001167 11061 21100 410111100 51016,KSBM,2015-02-12T05:53:00Z,43.78,-87.85,-10.0,-16.7,340,19,25,10.0,30.121063,1021.2,,TRUE,TRUE,,,,,,,OVC,11000,,,,,,,VFR,1.6,-6.1,-10.0,-1.1,-10.0,,,0.0050,,,,METAR,232.0
KSBA 120553Z 00000KT 10SM CLR 13/08 A3008 RMK AO2 SLP187 T01330083 10256 20122 53015,KSBA,2015-02-12T05:53:00Z,34.43,-119.85,13.3,8.3,0,0,,10.0,30.079725,1018.7,,,TRUE,,,,,,,CLR,,,,,,,,VFR,1.5,25.6,12.2,,,,,,,,,METAR,3.0
KSAV 120553Z AUTO 17003KT 10SM CLR 07/04 A3001 RMK AO2 SLP162 T00670044 10128 20061 58010 TSNO,KSAV,2015-02-12T05:53:00Z,32.12,-81.2,6.7,4.4,170,3,,10.0,30.008858,1016.2,,TRUE,TRUE,,,TRUE,,,,CLR,,,,,,,,VFR,-1.0,12.8,6.1,,,,,,,,,METAR,14.0
KSAF 120553Z AUTO 00000KT 10SM CLR 00/M03 A3043 RMK AO2 SLP295 60001 T00001028 10072 21006 51011,KSAF,2015-02-12T05:53:00Z,35.62,-106.1,0.0,-2.8,0,0,,10.0,30.431103,1029.5,,TRUE,TRUE,,,,,,,CLR,,,,,,,,VFR,1.1,7.2,-0.6,,,,,0.01,,,,METAR,1930.0
KSAC 120553Z AUTO 00000KT 10SM CLR 11/08 A3020 RMK AO2 SLP227 T01060083 10172 20106 51013,KSAC,2015-02-12T05:53:00Z,38.5,-121.5,10.6,8.3,0,0,,10.0,30.200787,1022.7,,TRUE,TRUE,,,,,,,CLR,,,,,,,,VFR,1.3,17.2,10.6,,,,,,,,,METAR,11.0
KRXE 120553Z AUTO 02005KT 10SM CLR M01/M02 A3039 RMK AO2 SLP308 T10061017 10072 21006 55003,KRXE,2015-02-12T05:53:00Z,43.83,-111.8,-0.6,-1.7,20,5,,10.0,30.389763,1030.8,,TRUE,TRUE,,,,,,,CLR,,,,,,,,VFR,-0.3,7.2,-0.6,,,,,,,,,METAR,1480.0
KSEG 120553Z AUTO 21004KT 10SM OVC032 00/M06 A2985 RMK AO2 SLP111 T00001061 10011 20000 56015,KSEG,2015-02-12T05:53:00Z,40.82,-76.87,0.0,-6.1,210,4,,10.0,29.84941,1011.1,,TRUE,TRUE,,,,,,,OVC,3200,,,,,,,VFR,-1.5,1.1,0.0,,,,,,,,,METAR,134.0
KSFB 120553Z AUTO 27004KT 10SM CLR 08/06 A3007 RMK AO2 SLP184 T00830061 10122 20078 56001,KSFB,2015-02-12T05:53:00Z,28.77,-81.22,8.3,6.1,270,4,,10.0,30.070866,1018.4,,TRUE,TRUE,,,,,,,CLR,,,,,,,,VFR,-0.1,12.2,7.8,,,,,,,,,METAR,17.0
KAMN 120553Z AUTO 34010KT 7SM -SN SCT029 BKN039 OVC050 M07/M11 A2996 RMK AO2 T10701107,KAMN,2015-02-12T05:53:00Z,43.32,-84.68,-7.0,-10.7,340,10,,7.0,29.958662,,,TRUE,TRUE,,,,,,-SN,SCT,2900,BKN,3900,OVC,5000,,,VFR,,,,,,,,,,,,METAR,230.0
KSFF 120553Z AUTO 00000KT 10SM BKN110 07/05 A3029 RMK AO2 SLP264 T00670050 10111 20061 53003,KSFF,2015-02-12T05:53:00Z,47.68,-117.32,6.7,5.0,0,0,,10.0,30.28937,1026.4,,TRUE,TRUE,,,,,,,BKN,11000,,,,,,,VFR,0.3,11.1,6.1,,,,,,,,,METAR,609.0
KSHN 120553Z AUTO 00000KT 10SM -RA OVC100 09/08 A3018 RMK AO2 RAB16 SLP223 P0000 60000 T00890078 10122 20089 51007,KSHN,2015-02-12T05:53:00Z,47.23,-123.13,8.9,7.8,0,0,,10.0,30.180119,1022.3,,TRUE,TRUE,,,,,,-RA,OVC,10000,,,,,,,VFR,0.7,12.2,8.9,,,0.0050,,0.0050,,,,METAR,82.0
KSGR 120553Z AUTO 00000KT 4SM BR CLR 11/11 A3015 RMK AO2 SLP212 T01110106 10200 20106 402440106 51011,KSGR,2015-02-12T05:53:00Z,29.62,-95.65,11.1,10.6,0,0,,4.0,30.15059,1021.2,,TRUE,TRUE,,,,,,BR,CLR,,,,,,,,MVFR,1.1,20.0,10.6,24.4,10.6,,,,,,,METAR,2.0
KSIY 120553Z AUTO 17003KT 10SM CLR 03/01 A3030 RMK AO2 SLP281 T00280011 10106 20022 53009,KSIY,2015-02-12T05:53:00Z,41.77,-122.47,2.8,1.1,170,3,,10.0,30.301182,1028.1,,TRUE,TRUE,,,,,,,CLR,,,,,,,,VFR,0.9,10.6,2.2,,,,,,,,,METAR,807.0
KSHR 120553Z AUTO 36005KT 10SM FEW008 M02/M04 A3028 RMK AO2 SLP278 T10171039 10028 21017 58015,KSHR,2015-02-12T05:53:00Z,44.77,-106.97,-1.7,-3.9,360,5,,10.0,30.280512,1027.8,,TRUE,TRUE,,,,,,,FEW,800,,,,,,,VFR,-1.5,2.8,-1.7,,,,,,,,,METAR,1202.0
TJNR 120553Z AUTO 00000KT 10SM CLR 22/21 A2994 RMK AO2 SLP137 T02220211 10261 20217 58008 $,TJNR,2015-02-12T05:53:00Z,18.25,-65.63,22.2,21.1,0,0,,10.0,29.940945,1013.7,,TRUE,TRUE,TRUE,,,,,,CLR,,,,,,,,VFR,-0.8,26.1,21.7,,,,,,,,,METAR,12.0
KTRI 120553Z 25006KT 10SM OVC048 06/M02 A2998 RMK AO2 SLP146 T00561017 10067 20006 58005,KTRI,2015-02-12T05:53:00Z,36.48,-82.4,5.6,-1.7,250,6,,10.0,29.97933,1014.6,,,TRUE,,,,,,,OVC,4800,,,,,,,VFR,-0.5,6.7,0.6,,,,,,,,,METAR,474.0
KTPA 120553Z 00000KT 10SM CLR 10/07 A3009 RMK AO2 SLP190 T01000072 10150 20094 51005,KTPA,2015-02-12T05:53:00Z,27.97,-82.53,10.0,7.2,0,0,,10.0,30.088583,1019.0,,,TRUE,,,,,,,CLR,,,,,,,,VFR,0.5,15.0,9.4,,,,,,,,,METAR,11.0
KTOR 120553Z AUTO 08009KT 10SM CLR M02/M04 A3036 RMK AO2 SLP302 T10171039 10106 21022 52012,KTOR,2015-02-12T05:53:00Z,42.07,-104.15,-1.7,-3.9,80,9,,10.0,30.360237,1030.2,,TRUE,TRUE,,,,,,,CLR,,,,,,,,VFR,1.2,10.6,-2.2,,,,,,,,,METAR,1277.0
KTOP 120553Z AUTO 28004KT 10SM FEW070 M03/M07 A3045 RMK AO2 SLP318 T10281072 10000 21044 400441044 51010,KTOP,2015-02-12T05:53:00Z,39.07,-95.63,-2.8,-7.2,280,4,,10.0,30.448818,1031.8,,TRUE,TRUE,,,,,,,FEW,7000,,,,,,,VFR,1.0,0.0,-4.4,4.4,-4.4,,,,,,,METAR,268.0
KTOI 120553Z AUTO 00000KT 10SM CLR 03/01 A3007 RMK AO2 SLP181 T00330006 10128 20028 401941033 56003,KTOI,2015-02-12T05:53:00Z,31.85,-86.02,3.3,0.6,0,0,,10.0,30.070866,1018.1,,TRUE,TRUE,,,,,,,CLR,,,,,,,,VFR,-0.3,12.8,2.8,19.4,-3.3,,,,,,,METAR,118.0
KTMB 120553Z 00000KT 10SM SCT049 13/12 A3003 RMK AO2 SLP168 T01280117 10183 20106 50000,KTMB,2015-02-12T05:53:00Z,25.65,-80.43,12.8,11.7,0,0,,10.0,30.029528,1016.8,,,TRUE,,,,,,,SCT,4900,,,,,,,VFR,0.0,18.3,10.6,,,,,,,,,METAR,2.0
KSLC 120553Z 14006KT 10SM FEW200 04/M01 A3039 RMK AO2 SLP289 T00391006 10100 20033 58006,KSLC,2015-02-12T05:53:00Z,40.77,-111.97,3.9,-0.6,140,6,,10.0,30.389763,1028.9,,,TRUE,,,,,,,FEW,20000,,,,,,,VFR,-0.6,10.0,3.3,,,,,,,,,METAR,1286.0
KSJC 120553Z 00000KT 10SM BKN200 14/09 A3018 RMK AO2 SLP220 T01440094 10189 20139 51015,KSJC,2015-02-12T05:53:00Z,37.37,-121.92,14.4,9.4,0,0,,10.0,30.180119,1022.0,,,TRUE,,,,,,,BKN,20000,,,,,,,VFR,1.5,18.9,13.9,,,,,,,,,METAR,24.0
KTUS 120553Z 05010KT 10SM CLR 17/00 A3015 RMK AO2 SLP181 T01720000 10233 20167 51023,KTUS,2015-02-12T05:53:00Z,32.13,-110.95,17.2,0.0,50,10,,10.0,30.15059,1018.1,,,TRUE,,,,,,,CLR,,,,,,,,VFR,2.3,23.3,16.7,,,,,,,,,METAR,776.0
KTUL 120553Z 36007KT 10SM FEW110 M02/M06 A3044 RMK AO2 SLP311 T10221061 10067 21028 401111028 52025,KTUL,2015-02-12T05:53:00Z,36.2,-95.88,-2.2,-6.1,360,7,,10.0,30.43996,1031.1,,,TRUE,,,,,,,FEW,11000,,,,,,,VFR,2.5,6.7,-2.8,11.1,-2.8,,,,,,,METAR,207.0
KTTN 120553Z AUTO 20005KT 10SM BKN090 M03/M07 A2990 RMK AO2 SLP121 T10281072 11011 21033 56018,KTTN,2015-02-12T05:53:00Z,40.28,-74.82,-2.8,-7.2,200,5,,10.0,29.899607,1012.1,,TRUE,TRUE,,,,,,,BKN,9000,,,,,,,VFR,-1.8,-1.1,-3.3,,,,,,,,,METAR,59.0
KTTD 120553Z 13005KT 10SM SCT120 11/07 A3022 RMK AO2 SLP232 60000 T01110072 10133 20111 51014,KTTD,2015-02-12T05:53:00Z,45.55,-122.42,11.1,7.2,130,5,,10.0,30.221457,1023.2,,,TRUE,,,,,,,SCT,12000,,,,,,,VFR,1.4,13.3,11.1,,,,,0.0050,,,,METAR,14.0
KTRL 120553Z AUTO 35009G18KT 10SM CLR 09/01 A3031 RMK AO2 SLP261 T00890011 10172 20089 402110083 51023,KTRL,2015-02-12T05:53:00Z,32.72,-96.27,8.9,1.1,350,9,18,10.0,30.31004,1026.1,,TRUE,TRUE,,,,,,,CLR,,,,,,,,VFR,2.3,17.2,8.9,21.1,8.3,,,,,,,METAR,145.0
KTVC 120553Z AUTO 33015G22KT 4SM -SN FEW023 OVC039 M09/M13 A3001 RMK AO2 SLP174 P0000 60001 T10941133 11044 21094 51013,KTVC,2015-02-12T05:53:00Z,44.73,-85.57,-9.4,-13.3,330,15,22,4.0,30.008858,1017.4,,TRUE,TRUE,,,,,,-SN,FEW,2300,OVC,3900,,,,,MVFR,1.3,-4.4,-9.4,,,0.0050,,0.01,,,,METAR,190.0
KTCC 120553Z AUTO 30006KT 10SM CLR 01/M01 A3044 RMK AO2 SLP315 T00061011 10039 20000 53005,KTCC,2015-02-12T05:53:00Z,35.18,-103.6,0.6,-1.1,300,6,,10.0,30.43996,1031.5,,TRUE,TRUE,,,,,,,CLR,,,,,,,,VFR,0.5,3.9,0.0,,,,,,,,,METAR,1235.0
KSWO 120553Z AUTO 01008KT 10SM CLR M04/M07 A3044 RMK AO2 SLP314 T10391067 10056 21044 401001044 53017 TSNO,KSWO,2015-02-12T05:53:00Z,36.17,-97.08,-3.9,-6.7,10,8,,10.0,30.43996,1031.4,,TRUE,TRUE,,,TRUE,,,,CLR,,,,,,,,VFR,1.7,5.6,-4.4,10.0,-4.4,,,,,,,METAR,290.0
KSTS 120553Z AUTO 29003KT 8SM CLR 10/09 A3018 RMK AO2 SLP215 T01000094 10189 20100 51012,KSTS,2015-02-12T05:53:00Z,38.5,-122.82,10.0,9.4,290,3,,8.0,30.180119,1021.5,,TRUE,TRUE,,,,,,,CLR,,,,,,,,VFR,1.2,18.9,10.0,,,,,,,,,METAR,39.0
KSTP 120553Z AUTO 32017G23KT 10SM CLR M16/M21 A3050 RMK AO2 PK WND 35026/0505 SLP341 60000 T11611211 11106 21161 410111161 51036,KSTP,2015-02-12T05:53:00Z,44.93,-93.05,-16.1,-21.1,320,17,23,10.0,30.499016,1034.1,,TRUE,TRUE,,,,,,,CLR,,,,,,,,VFR,3.6,-10.6,-16.1,-1.1,-16.1,,,0.0050,,,,METAR,219.0
KSTJ 120553Z AUTO 33020G26KT 10SM BKN042 OVC055 M01/M07 A3043 RMK AO2 PK WND 34027/0537 SLP312 T10111072 11006 21050 400391050 51013,KSTJ,2015-02-12T05:53:00Z,39.77,-94.92,-1.1,-7.2,330,20,26,10.0,30.431103,1031.2,,TRUE,TRUE,,,,,,,BKN,4200,OVC,5500,,,,,VFR,1.3,-0.6,-5.0,3.9,-5.0,,,,,,,METAR,247.0
KSTC 120553Z AUTO 33013G20KT 10SM CLR M19/M23 A3051 RMK AO2 SLP369 T11891228 11150 21189 410221189 51027,KSTC,2015-02-12T05:53:00Z,45.55,-94.05,-18.9,-22.8,330,13,20,10.0,30.510826,1036.9,,TRUE,TRUE,,,,,,,CLR,,,,,,,,VFR,2.7,-15.0,-18.9,-2.2,-18.9,,,,,,,METAR,314.0
KSSI 120553Z AUTO 22006KT 10SM CLR 09/07 A3003 RMK AO2 SLP167 T00940072 10106 20078 58011,KSSI,2015-02-12T05:53:00Z,31.15,-81.38,9.4,7.2,220,6,,10.0,30.029528,1016.7,,TRUE,TRUE,,,,,,,CLR,,,,,,,,VFR,-1.1,10.6,7.8,,,,,,,,,METAR,6.0
KSSF 120553Z AUTO 10004KT 10SM CLR 15/11 A3016 RMK AO2 SLP208 T01500111 10222 20144 402440067 51020,KSSF,2015-02-12T05:53:00Z,29.33,-98.47,15.0,11.1,100,4,,10.0,30.159449,1020.8,,TRUE,TRUE,,,,,,,CLR,,,,,,,,VFR,2.0,22.2,14.4,24.4,6.7,,,,,,,METAR,176.0
KSRQ 120553Z 00000KT 10SM CLR 09/08 A3008 RMK AO2 SLP185 T00940078 10133 20083 53006,KSRQ,2015-02-12T05:53:00Z,27.4,-82.57,9.4,7.8,0,0,,10.0,30.079725,1018.5,,,TRUE,,,,,,,CLR,,,,,,,,VFR,0.6,13.3,8.3,,,,,,,,,METAR,18.0
KSPW 120553Z AUTO 33023G31KT 10SM CLR M15/M21 A3051 RMK AO2 PK WND 34034/0508 SLP358 60000 T11501206 11056 21150 400001150 51022 TSNO,KSPW,2015-02-12T05:53:00Z,43.17,-95.22,-15.0,-20.6,330,23,31,10.0,30.510826,1035.8,,TRUE,TRUE,,,TRUE,,,,CLR,,,,,,,,VFR,2.2,-5.6,-15.0,,-15.0,,,0.0050,,,,METAR,403.0
KSPG 120553Z AUTO 35005KT 10SM CLR 13/08 A3008 RMK AO2 SLP184 T01330083 10150 20128 51005,KSPG,2015-02-12T05:53:00Z,27.77,-82.63,13.3,8.3,350,5,,10.0,30.079725,1018.4,,TRUE,TRUE,,,,,,,CLR,,,,,,,,VFR,0.5,15.0,12.8,,,,,,,,,METAR,2.0
KSPB 120553Z AUTO 00000KT 10SM OVC120 09/08 A3022 RMK AO2 SLP235 T00940083 10133 20083 53011,KSPB,2015-02-12T05:53:00Z,45.77,-122.87,9.4,8.3,0,0,,10.0,30.221457,1023.5,,TRUE,TRUE,,,,,,,OVC,12000,,,,,,,VFR,1.1,13.3,8.3,,,,,,,,,METAR,14.0
KSNY 120553Z AUTO 07010KT 10SM CLR M02/M04 A3037 RMK AO2 SLP304 T10171044 10083 21033 53007,KSNY,2015-02-12T05:53:00Z,41.1,-102.98,-1.7,-4.4,70,10,,10.0,30.369095,1030.4,,TRUE,TRUE,,,,,,,CLR,,,,,,,,VFR,0.7,8.3,-3.3,,,,,,,,,METAR,1307.0
KSNS 120553Z AUTO 00000KT 10SM CLR 13/08 A3015 RMK AO2 SLP220 T01280083 10233 20122 51018,KSNS,2015-02-12T05:53:00Z,36.67,-121.6,12.8,8.3,0,0,,10.0,30.15059,1022.0,,TRUE,TRUE,,,,,,,CLR,,,,,,,,VFR,1.8,23.3,12.2,,,,,,,,,METAR,30.0
KSNA 120553Z 07007KT 10SM CLR 25/M09 A3005 RMK AO2 SLP175 T02501089 10317 20233 51010 $,KSNA,2015-02-12T05:53:00Z,33.67,-117.87,25.0,-8.9,70,7,,10.0,30.050198,1017.5,,,TRUE,TRUE,,,,,,CLR,,,,,,,,VFR,1.0,31.7,23.3,,,,,,,,,METAR,16.0
KSMQ 120553Z AUTO 00000KT 10SM OVC100 M03/M08 A2989 RMK AO2 SLP124 T10281078 11017 21039 58016 TSNO,KSMQ,2015-02-12T05:53:00Z,40.62,-74.67,-2.8,-7.8,0,0,,10.0,29.890747,1012.4,,TRUE,TRUE,,,TRUE,,,,OVC,10000,,,,,,,VFR,-1.6,-1.7,-3.9,,,,,,,,,METAR,30.0
KSMF 120553Z 00000KT 10SM SCT250 10/08 A3020 RMK AO2 SLP224 T01000083 10172 20094 51011,KSMF,2015-02-12T05:53:00Z,38.7,-121.6,10.0,8.3,0,0,,10.0,30.200787,1022.4,,,TRUE,,,,,,,SCT,25000,,,,,,,VFR,1.1,17.2,9.4,,,,,,,,,METAR,6.0
KSLN 120553Z AUTO 32003KT 10SM SCT085 M04/M07 A3046 RMK AO2 SLP326 T10391067 10028 21039 400611039 53013,KSLN,2015-02-12T05:53:00Z,38.78,-97.65,-3.9,-6.7,320,3,,10.0,30.46063,1032.6,,TRUE,TRUE,,,,,,,SCT,8500,,,,,,,VFR,1.3,2.8,-3.9,6.1,-3.9,,,,,,,METAR,385.0
KVGT 120553Z 01005KT 10SM CLR 16/M08 A3027 RMK AO2 SLP259 T01561078 10222 20139 51010,KVGT,2015-02-12T05:53:00Z,36.22,-115.2,15.6,-7.8,10,5,,10.0,30.268702,1025.9,,,TRUE,,,,,,,CLR,,,,,,,,VFR,1.0,22.2,13.9,,,,,,,,,METAR,671.0
KVEL 120553Z AUTO 27004KT 10SM CLR 01/M06 A3041 RMK AO2 SLP296 T00061061 10106 20000 51007,KVEL,2015-02-12T05:53:00Z,40.45,-109.52,0.6,-6.1,270,4,,10.0,30.410433,1029.6,,TRUE,TRUE,,,,,,,CLR,,,,,,,,VFR,0.7,10.6,0.0,,,,,,,,,METAR,1604.0
KVCB 120553Z AUTO 00000KT 10SM CLR 11/08 A3021 RMK AO2 SLP229 T01060078 10189 20100 51010,KVCB,2015-02-12T05:53:00Z,38.38,-121.95,10.6,7.8,0,0,,10.0,30.209646,1022.9,,TRUE,TRUE,,,,,,,CLR,,,,,,,,VFR,1.0,18.9,10.0,,,,,,,,,METAR,33.0
KUUU 120553Z AUTO 35005KT 10SM OVC020 M06/M09 A2990 RMK AO2 SLP126 T10561089 11050 21067 56015,KUUU,2015-02-12T05:53:00Z,41.53,-71.28,-5.6,-8.9,350,5,,10.0,29.899607,1012.6,,TRUE,TRUE,,,,,,,OVC,2000,,,,,,,MVFR,-1.5,-5.0,-6.7,,,,,,,,,METAR,51.0
KUTS 120553Z AUTO 35004KT 10SM CLR 12/09 A3019 RMK AO2 SLP220 T01170094 10200 20117 402330117 51021,KUTS,2015-02-12T05:53:00Z,30.75,-95.58,11.7,9.4,350,4,,10.0,30.188976,1022.0,,TRUE,TRUE,,,,,,,CLR,,,,,,,,VFR,2.1,20.0,11.7,23.3,11.7,,,,,,,METAR,104.0
KUNO 120553Z AUTO 34008G21KT 10SM CLR M03/M07 A3029 RMK AO2 SLP263 T10281072 10028 21028 401171039 53004,KUNO,2015-02-12T05:53:00Z,36.88,-91.9,-2.8,-7.2,340,8,21,10.0,30.28937,1026.3,,TRUE,TRUE,,,,,,,CLR,,,,,,,,VFR,0.4,2.8,-2.8,11.7,-3.9,,,,,,,METAR,372.0
KUIL 120553Z AUTO 00000KT 10SM BKN095 BKN120 11/08 A3018 RMK AO2 SLP221 T01060078 10122 20089 53010,KUIL,2015-02-12T05:53:00Z,47.93,-124.55,10.6,7.8,0,0,,10.0,30.180119,1022.1,,TRUE,TRUE,,,,,,,BKN,9500,BKN,12000,,,,,VFR,1.0,12.2,8.9,,,,,,,,,METAR,54.0
KUAO 120553Z AUTO 00000KT 7SM BKN120 09/08 A3024 RMK AO2 SLP240 T00890078 10106 20083 50009,KUAO,2015-02-12T05:53:00Z,45.25,-122.77,8.9,7.8,0,0,,7.0,30.239174,1024.0,,TRUE,TRUE,,,,,,,BKN,12000,,,,,,,VFR,0.9,10.6,8.3,,,,,,,,,METAR,59.0
KTYS 120553Z 21005KT 10SM FEW150 03/M02 A3004 RMK AO2 SLP176 T00281022 10089 20022 50002,KTYS,2015-02-12T05:53:00Z,35.82,-83.98,2.8,-2.2,210,5,,10.0,30.041338,1017.6,,,TRUE,,,,,,,FEW,15000,,,,,,,VFR,0.2,8.9,2.2,,,,,,,,,METAR,302.0
KTYR 120553Z 34007KT 10SM CLR 10/04 A3025 RMK AO2 SLP242 T01000039 10189 20100 402390078 51024,KTYR,2015-02-12T05:53:00Z,32.37,-95.4,10.0,3.9,340,7,,10.0,30.250984,1024.2,,,TRUE,,,,,,,CLR,,,,,,,,VFR,2.4,18.9,10.0,23.9,7.8,,,,,,,METAR,165.0
KTXK 120553Z AUTO 35006KT 10SM CLR 09/04 A3024 RMK AO2 SLP238 T00890039 10139 20089 401830033 51018,KTXK,2015-02-12T05:53:00Z,33.45,-93.98,8.9,3.9,350,6,,10.0,30.239174,1023.8,,TRUE,TRUE,,,,,,,CLR,,,,,,,,VFR,1.8,13.9,8.9,18.3,3.3,,,,,,,METAR,111.0
KTWF 120553Z AUTO 20006KT 10SM CLR 05/M01 A3035 RMK AO2 SLP265 T00501006 10122 20028 58004,KTWF,2015-02-12T05:53:00Z,42.48,-114.48,5.0,-0.6,200,6,,10.0,30.351377,1026.5,,TRUE,TRUE,,,,,,,CLR,,,,,,,,VFR,-0.4,12.2,2.8,,,,,,,,,METAR,1266.0
KTVR 120553Z AUTO 36005KT 10SM CLR 10/02 A3019 RMK AO2 SLP228 T01000022 10156 20089 401941011 51012,KTVR,2015-02-12T05:53:00Z,32.35,-91.03,10.0,2.2,360,5,,10.0,30.188976,1022.8,,TRUE,TRUE,,,,,,,CLR,,,,,,,,VFR,1.2,15.6,8.9,19.4,-1.1,,,,,,,METAR,26.0
KTVL 120553Z AUTO 00000KT 10SM CLR 01/M02 A3037 RMK AO2 SLP273 T00111017 10122 20011 51013,KTVL,2015-02-12T05:53:00Z,38.9,-120.0,1.1,-1.7,0,0,,10.0,30.369095,1027.3,,TRUE,TRUE,,,,,,,CLR,,,,,,,,VFR,1.3,12.2,1.1,,,,,,,,,METAR,1924.0
KTCL 120553Z AUTO 00000KT 10SM CLR 06/01 A3012 RMK AO2 SLP198 T00610006 10144 20050 401831017 53003,KTCL,2015-02-12T05:53:00Z,33.22,-87.62,6.1,0.6,0,0,,10.0,30.121063,1019.8,,TRUE,TRUE,,,,,,,CLR,,,,,,,,VFR,0.3,14.4,5.0,18.3,-1.7,,,,,,,METAR,49.0
KTCS 120553Z AUTO 02016G21KT 10SM CLR 06/M01 A3036 RMK AO2 SLP250 T00561011 10100 20056 50002 TSNO,KTCS,2015-02-12T05:53:00Z,33.23,-107.27,5.6,-1.1,20,16,21,10.0,30.360237,1025.0,,TRUE,TRUE,,,TRUE,,,,CLR,,,,,,,,VFR,0.2,10.0,5.6,,,,,,,,,METAR,1469.0
KTDZ 120553Z AUTO 27008KT 10SM OVC060 M02/M06 A2994 RMK AO2 SLP147 60001 T10171056 10006 21017 58003 TSNO,KTDZ,2015-02-12T05:53:00Z,41.57,-83.48,-1.7,-5.6,270,8,,10.0,29.940945,1014.7,,TRUE,TRUE,,,TRUE,,,,OVC,6000,,,,,,,VFR,-0.3,0.6,-1.7,,,,,0.01,,,,METAR,189.0
KVLD 120553Z AUTO 00000KT 10SM CLR 08/07 A3005 RMK AO2 SLP183 T00780067 10111 20072 56007 TSNO,KVLD,2015-02-12T05:53:00Z,30.78,-83.27,7.8,6.7,0,0,,10.0,30.050198,1018.3,,TRUE,TRUE,,,TRUE,,,,CLR,,,,,,,,VFR,-0.7,11.1,7.2,,,,,,,,,METAR,62.0
KTLH 120553Z AUTO 00000KT 10SM CLR 09/06 A3006 RMK AO2 SLP177 T00890061 10139 20089 58008 $,KTLH,2015-02-12T05:53:00Z,30.4,-84.35,8.9,6.1,0,0,,10.0,30.059055,1017.7,,TRUE,TRUE,TRUE,,,,,,CLR,,,,,,,,VFR,-0.8,13.9,8.9,,,,,,,,,METAR,19.0
KTKI 120553Z AUTO 36011KT 10SM CLR 07/00 A3033 RMK AO2 SLP277 T00670000 10150 20067 401890061 51016,KTKI,2015-02-12T05:53:00Z,33.18,-96.58,6.7,0.0,360,11,,10.0,30.33071,1027.7,,TRUE,TRUE,,,,,,,CLR,,,,,,,,VFR,1.6,15.0,6.7,18.9,6.1,,,,,,,METAR,179.0
KTIW 120553Z AUTO 22003KT 10SM OVC100 10/08 A3020 RMK AO2 SLP227 T01000078 10111 20094 50003,KTIW,2015-02-12T05:53:00Z,47.27,-122.58,10.0,7.8,220,3,,10.0,30.200787,1022.7,,TRUE,TRUE,,,,,,,OVC,10000,,,,,,,VFR,0.3,11.1,9.4,,,,,,,,,METAR,89.0
KTHV 120553Z AUTO 00000KT 8SM OVC055 M01/M03 A2986 RMK AO2 SLP118 T10061033 10006 21017 58015,KTHV,2015-02-12T05:53:00Z,39.92,-76.88,-0.6,-3.3,0,0,,8.0,29.861221,1011.8,,TRUE,TRUE,,,,,,,OVC,5500,,,,,,,VFR,-1.5,0.6,-1.7,,,,,,,,,METAR,144.0
KVPC 120553Z AUTO 00000KT 10SM CLR 03/M02 A3004 RMK AO2 SLP170 T00331017 10083 20033 50001,KVPC,2015-02-12T05:53:00Z,34.13,-84.85,3.3,-1.7,0,0,,10.0,30.041338,1017.0,,TRUE,TRUE,,,,,,,CLR,,,,,,,,VFR,0.1,8.3,3.3,,,,,,,,,METAR,222.0
KVRB 120553Z 27003KT 10SM CLR 07/06 A3006 RMK AO2 SLP177 T00720061 10139 20072 56003,KVRB,2015-02-12T05:53:00Z,27.65,-80.42,7.2,6.1,270,3,,10.0,30.059055,1017.7,,,TRUE,,,,,,,CLR,,,,,,,,VFR,-0.3,13.9,7.2,,,,,,,,,METAR,10.0
KVUO 120553Z AUTO 00000KT 10SM BKN120 10/06 A3024 RMK AO2 SLP239 T01000061 10133 20100 53015,KVUO,2015-02-12T05:53:00Z,45.62,-122.65,10.0,6.1,0,0,,10.0,30.239174,1023.9,,TRUE,TRUE,,,,,,,BKN,12000,,,,,,,VFR,1.5,13.3,10.0,,,,,,,,,METAR,8.0
KWRL 120553Z AUTO 02003KT 10SM CLR M01/M03 A3026 RMK AO2 SLP274 T10061028 10067 21017 58002,KWRL,2015-02-12T05:53:00Z,43.97,-107.95,-0.6,-2.8,20,3,,10.0,30.259842,1027.4,,TRUE,TRUE,,,,,,,CLR,,,,,,,,VFR,-0.2,6.7,-1.7,,,,,,,,,METAR,1271.0
KWST 120553Z AUTO 01003KT 10SM CLR M08/M11 A2992 RMK AO2 SLP134 T10831111 11050 21089 56012,KWST,2015-02-12T05:53:00Z,41.35,-71.8,-8.3,-11.1,10,3,,10.0,29.920275,1013.4,,TRUE,TRUE,,,,,,,CLR,,,,,,,,VFR,-1.2,-5.0,-8.9,,,,,,,,,METAR,21.0
KWVI 120553Z AUTO 00000KT 10SM CLR 15/09 A3016 RMK AO2 SLP213 T01500089 10250 20150 52016,KWVI,2015-02-12T05:53:00Z,36.93,-121.78,15.0,8.9,0,0,,10.0,30.159449,1021.3,,TRUE,TRUE,,,,,,,CLR,,,,,,,,VFR,1.6,25.0,15.0,,,,,,,,,METAR,43.0
KXNA 120553Z AUTO 36009KT 10SM CLR M02/M06 A3037 RMK AO2 SLP287 T10221056 10033 21022 401171022 53015,KXNA,2015-02-12T05:53:00Z,36.28,-94.3,-2.2,-5.6,360,9,,10.0,30.369095,1028.7,,TRUE,TRUE,,,,,,,CLR,,,,,,,,VFR,1.5,3.3,-2.2,11.7,-2.2,,,,,,,METAR,392.0
KYIP 120553Z AUTO 31013KT 10SM FEW048 OVC060 M01/M07 A2992 RMK AO2 SNB24E36 SLP136 P0000 60000 T10111067 10011 21011 55002 TSNO,KYIP,2015-02-12T05:53:00Z,42.23,-83.53,-1.1,-6.7,310,13,,10.0,29.920275,1013.6,,TRUE,TRUE,,,TRUE,,,,FEW,4800,OVC,6000,,,,,VFR,-0.2,1.1,-1.1,,,0.0050,,0.0050,,,,METAR,215.0
KOVL 120553Z AUTO 34014KT 10SM CLR M18/M21 A3056 RMK AO2,KOVL,2015-02-12T05:53:00Z,44.78,-95.03,-18.0,-21.0,340,14,,10.0,30.561024,,,TRUE,TRUE,,,,,,,CLR,,,,,,,,VFR,,,,,,,,,,,,METAR,328.0
KOSC 120553Z AUTO 29015G20KT 7SM SCT022 OVC030 M10/M15 A2990 RMK AO2 T11001150,KOSC,2015-02-12T05:53:00Z,44.45,-83.4,-10.0,-15.0,290,15,20,7.0,29.899607,,,TRUE,TRUE,,,,,,,SCT,2200,OVC,3000,,,,,MVFR,,,,,,,,,,,,METAR,193.0
PAYA 120553Z AUTO 06004KT 1SM R11/5500V6000FT BR VV004 04/04 A2974 RMK AO2 RAB13E49 SLP072 P0000 60026 T00390039 10050 20039 51007 TSNO,PAYA,2015-02-12T05:53:00Z,59.52,-139.67,3.9,3.9,60,4,,1.0,29.740158,1007.2,,TRUE,TRUE,,,TRUE,,,BR,OVX,0,,,,,,,LIFR,0.7,5.0,3.9,,,0.0050,,0.26,,,400,METAR,11.0
PAWD 120553Z AUTO 00000KT 10SM OVC011 02/M01 A2962 RMK AO2 SLP030 60000 T00221006 10050 20011 51023 TSNO,PAWD,2015-02-12T05:53:00Z,60.12,-149.42,2.2,-0.6,0,0,,10.0,29.619095,1003.0,,TRUE,TRUE,,,TRUE,,,,OVC,1100,,,,,,,MVFR,2.3,5.0,1.1,,,,,0.0050,,,,METAR,23.0
PAVL 120553Z AUTO 07005KT 10SM CLR M28/M32 A2992 RMK AO2 SLP130 T12831317 11239 21294 53002 TSNO,PAVL,2015-02-12T05:53:00Z,67.73,-164.55,-28.3,-31.7,70,5,,10.0,29.920275,1013.0,,TRUE,TRUE,,,TRUE,,,,CLR,,,,,,,,VFR,0.2,-23.9,-29.4,,,,,,,,,METAR,3.0
PATO 120553Z AUTO 09009G18KT 060V130 9SM OVC032 03/01 A2963 RMK AO2 SLP034 T00330011 10033 21011 53021 TSNO,PATO,2015-02-12T05:53:00Z,60.78,-148.85,3.3,1.1,90,9,18,9.0,29.630905,1003.4,,TRUE,TRUE,,,TRUE,,,,OVC,3200,,,,,,,VFR,2.1,3.3,-1.1,,,,,,,,,METAR,31.0
PATK 120553Z AUTO 00000KT 10SM BKN047 OVC065 M03/M09 A2961 RMK AO2 SLP034 T10331094 11011 21044 51025 TSNO,PATK,2015-02-12T05:53:00Z,62.3,-150.1,-3.3,-9.4,0,0,,10.0,29.610237,1003.4,,TRUE,TRUE,,,TRUE,,,,BKN,4700,OVC,6500,,,,,VFR,2.5,-1.1,-4.4,,,,,,,,,METAR,109.0
PASO 120553Z AUTO 00000KT 10SM OVC038 01/01 A2956 RMK AO2 SLP010 T00110006 10022 20000 53018 TSNO,PASO,2015-02-12T05:53:00Z,59.45,-151.7,1.1,0.6,0,0,,10.0,29.56004,1001.0,,TRUE,TRUE,,,TRUE,,,,OVC,3800,,,,,,,VFR,1.8,2.2,0.0,,,,,,,,,METAR,9.0
PASN 120553Z AUTO 01030G38KT 4SM -SN OVC014 M07/M11 A2954 RMK AO2 PK WND 01039/0531 UPB16E31SNE16B31 SLP006 P0000 60000 T10721106 11067 21078 53004 TSNO,PASN,2015-02-12T05:53:00Z,57.15,-170.22,-7.2,-10.6,10,30,38,4.0,29.53937,1000.6,,TRUE,TRUE,,,TRUE,,,-SN,OVC,1400,,,,,,,MVFR,0.4,-6.7,-7.8,,,0.0050,,0.0050,,,,METAR,29.0
PASI 120553Z 00000KT 8SM BKN038 05/04 A2972 RMK AO2 SLP063 60002 T00500044 10072 20039 58010,PASI,2015-02-12T05:53:00Z,57.07,-135.35,5.0,4.4,0,0,,8.0,29.719488,1006.3,,,TRUE,,,,,,,BKN,3800,,,,,,,VFR,-1.0,7.2,3.9,,,,,0.02,,,,METAR,5.0
PASC 120553Z 05017KT 10SM CLR M28/M32 A3021 RMK AO2 SLP234 T12831322 11278 21283 55003,PASC,2015-02-12T05:53:00Z,70.2,-148.47,-28.3,-32.2,50,17,,10.0,30.209646,1023.4,,,TRUE,,,,,,,CLR,,,,,,,,VFR,-0.3,-27.8,-28.3,,,,,,,,,METAR,15.0
PAQT 120553Z AUTO 04011KT 10SM CLR M31/M34 A3025 RMK AO2 SLP245 I1000 I6000 T13061339 11300 21311 55003 TSNO,PAQT,2015-02-12T05:53:00Z,70.22,-151.0,-30.6,-33.9,40,11,,10.0,30.250984,1024.5,,TRUE,TRUE,,,TRUE,,,,CLR,,,,,,,,VFR,-0.3,-30.0,-31.1,,,,,,,,,METAR,12.0
PAPB 120553Z AUTO 02032G38KT 2 1/2SM -SN BR OVC011 M07/M09 A2946 RMK AO2 PK WND 02041/0540 SLP966 P0000 60000 T10721089 11067 21072 50005 TSNO,PAPB,2015-02-12T05:53:00Z,56.58,-169.67,-7.2,-8.9,20,32,38,2.5,29.459646,996.6,,TRUE,TRUE,,,TRUE,,,-SN BR,OVC,1100,,,,,,,IFR,0.5,-6.7,-7.2,,,0.0050,,0.0050,,,,METAR,35.0
PAOT 120553Z 00000KT 10SM CLR M26/M31 A2992 RMK AO2 SLP130 T12561306 11194 21261 55000,PAOT,2015-02-12T05:53:00Z,66.87,-162.58,-25.6,-30.6,0,0,,10.0,29.920275,1013.0,,,TRUE,,,,,,,CLR,,,,,,,,VFR,0.0,-19.4,-26.1,,,,,,,,,METAR,3.0
PAOR 120553Z COR 11003KT 10SM BKN080 BKN110 M21/M24 A2975 RMK AO2 SLP149 4/010 T12111244 11194 21211 51014,PAOR,2015-02-12T05:53:00Z,62.97,-141.93,-21.1,-24.4,110,3,,10.0,29.749016,1014.9,TRUE,,TRUE,,,,,,,BKN,8000,BKN,11000,,,,,VFR,1.4,-19.4,-21.1,,,,,,,10.0,,METAR,523.0
PAOM 120553Z 00000KT 10SM FEW050 FEW090 SCT180 M15/M23 A2976 RMK AO2 SLP078 T11501228 11111 21156 58002,PAOM,2015-02-12T05:53:00Z,64.5,-165.43,-15.0,-22.8,0,0,,10.0,29.760826,1007.8,,,TRUE,,,,,,,FEW,5000,FEW,9000,SCT,18000,,,VFR,-0.2,-11.1,-15.6,,,,,,,,,METAR,11.0
PANT 120553Z AUTO 12010G18KT 5SM RA BR SCT024 OVC035 08/07 A2979 RMK AO2 SLP088 P0011 60021 T00830067 10083 20078 55007 TSNO,PANT,2015-02-12T05:53:00Z,55.03,-131.57,8.3,6.7,120,10,18,5.0,29.790354,1008.8,,TRUE,TRUE,,,TRUE,,,RA BR,SCT,2400,OVC,3500,,,,,MVFR,-0.7,8.3,7.8,,,0.11,,0.21,,,,METAR,36.0
PHJR 120553Z 33003KT 10SM CLR 21/14 A2993 RMK AO2 SLP140 60000 T02060144 10261 20206 52011,PHJR,2015-02-12T05:53:00Z,21.32,-158.07,20.6,14.4,330,3,,10.0,29.929134,1014.0,,,TRUE,,,,,,,CLR,,,,,,,,VFR,1.1,26.1,20.6,,,,,0.0050,,,,METAR,15.0
PHLI 120553Z 30004KT 10SM OVC038 21/12 A2992 RMK AO2 SLP129 T02060122 10261 20206 53016,PHLI,2015-02-12T05:53:00Z,21.97,-159.33,20.6,12.2,300,4,,10.0,29.920275,1012.9,,,TRUE,,,,,,,OVC,3800,,,,,,,VFR,1.6,26.1,20.6,,,,,,,,,METAR,45.0
PHNL 120553Z 34004KT 10SM FEW032 SCT060 22/14 A2991 RMK AO2 SLP129 T02220144 10278 20222 51014,PHNL,2015-02-12T05:53:00Z,21.33,-157.92,22.2,14.4,340,4,,10.0,29.911417,1012.9,,,TRUE,,,,,,,FEW,3200,SCT,6000,,,,,VFR,1.4,27.8,22.2,,,,,,,,,METAR,4.0
PANN 120553Z AUTO 00000KT 8SM OVC050 M14/M18 A2972 RMK AO2 SLP077 60000 T11441183 11117 21150 53013 TSNO,PANN,2015-02-12T05:53:00Z,64.55,-149.08,-14.4,-18.3,0,0,,8.0,29.719488,1007.7,,TRUE,TRUE,,,TRUE,,,,OVC,5000,,,,,,,VFR,1.3,-11.7,-15.0,,,,,0.0050,,,,METAR,110.0
PANC 120553Z 06005KT 10SM BKN070 OVC095 M03/M06 A2960 RMK AO2 SLP025 VIRGA NE 4/005 T10281061 10006 21044 51021,PANC,2015-02-12T05:53:00Z,61.17,-150.02,-2.8,-6.1,60,5,,10.0,29.601377,1002.5,,,TRUE,,,,,,,BKN,7000,OVC,9500,,,,,VFR,2.1,0.6,-4.4,,,,,,,5.0,,METAR,38.0
PAMR 120553Z 00000KT 10SM SCT070 BKN080 OVC100 M04/M08 A2960 RMK AO2 SLP026 T10391078 10006 21056 51021,PAMR,2015-02-12T05:53:00Z,61.22,-149.85,-3.9,-7.8,0,0,,10.0,29.601377,1002.6,,,TRUE,,,,,,,SCT,7000,BKN,8000,OVC,10000,,,VFR,2.1,0.6,-5.6,,,,,,,,,METAR,41.0
PAMC 120553Z AUTO 29003KT 10SM BKN080 M17/M23 A2968 RMK AO2 SLP063 T11721228 11156 21172 51007 TSNO,PAMC,2015-02-12T05:53:00Z,62.97,-155.62,-17.2,-22.8,290,3,,10.0,29.681103,1006.3,,TRUE,TRUE,,,TRUE,,,,BKN,8000,,,,,,,VFR,0.7,-15.6,-17.2,,,,,,,,,METAR,103.0
PALH 120553Z 04003KT 10SM BKN070 OVC090 M03/M07 A2961 RMK AO2 SLP028 T10331067 10006 21044 51020,PALH,2015-02-12T05:53:00Z,61.18,-149.97,-3.3,-6.7,40,3,,10.0,29.610237,1002.8,,,TRUE,,,,,,,BKN,7000,OVC,9000,,,,,VFR,2.0,0.6,-4.4,,,,,,,,,METAR,22.0
PAKW 120553Z AUTO 03009KT 10SM -RA OVC034 07/05 A2973 RMK AO2 RAB48 SLP068 P0000 60000 T00720050 10078 20061 56014 TSNO,PAKW,2015-02-12T05:53:00Z,55.58,-133.07,7.2,5.0,30,9,,10.0,29.731298,1006.8,,TRUE,TRUE,,,TRUE,,,-RA,OVC,3400,,,,,,,VFR,-1.4,7.8,6.1,,,0.0050,,0.0050,,,,METAR,15.0
PAKV 120553Z AUTO 06008KT 10SM FEW110 M14/M21 A2978 RMK AO1 SLP091 T11391211 11139 21150 53003 FZRANO TSNO,PAKV,2015-02-12T05:53:00Z,64.33,-158.75,-13.9,-21.1,60,8,,10.0,29.778543,1009.1,,TRUE,TRUE,,,TRUE,TRUE,,,FEW,11000,,,,,,,VFR,0.3,-13.9,-15.0,,,,,,,,,METAR,61.0
PAKT 120553Z 17007KT 8SM RA OVC026 07/06 A2981 RMK AO2 SLP096 P0012 60049 T00720056 10072 20067 58013,PAKT,2015-02-12T05:53:00Z,55.35,-131.7,7.2,5.6,170,7,,8.0,29.811024,1009.6,,,TRUE,,,,,,RA,OVC,2600,,,,,,,MVFR,-1.3,7.2,6.7,,,0.12,,0.49,,,,METAR,28.0
PAJN 120553Z 14005KT 3SM -DZ BR SCT001 BKN019 OVC034 01/01 A2982 RMK AO2 SLP098 4/004 P0000 60010 T00110011 10022 20011 50003,PAJN,2015-02-12T05:53:00Z,58.37,-134.58,1.1,1.1,140,5,,3.0,29.819881,1009.8,,,TRUE,,,,,,-DZ BR,SCT,100,BKN,1900,OVC,3400,,,MVFR,0.3,2.2,1.1,,,0.0050,,0.1,,4.0,,METAR,5.0
PAIL 120553Z 01006KT 10SM OVC034 M01/M05 A2952 RMK AO2 SLP999 T10111050 10006 21017 53018,PAIL,2015-02-12T05:53:00Z,59.75,-154.92,-1.1,-5.0,10,6,,10.0,29.518702,999.9,,,TRUE,,,,,,,OVC,3400,,,,,,,VFR,1.8,0.6,-1.7,,,,,,,,,METAR,49.0
PAHO 120553Z 03005KT 10SM BKN049 OVC060 02/M02 A2956 RMK AO2 SLP013 T00171022 10050 21006 53016,PAHO,2015-02-12T05:53:00Z,59.63,-151.5,1.7,-2.2,30,5,,10.0,29.56004,1001.3,,,TRUE,,,,,,,BKN,4900,OVC,6000,,,,,VFR,1.6,5.0,-0.6,,,,,,,,,METAR,28.0
PAGY 120553Z AUTO 00000KT 9SM OVC022 M02/M02 A2985 RMK AO2 SLP107 60000 I6000 T10171022 11011 21022 51012 TSNO,PAGY,2015-02-12T05:53:00Z,59.47,-135.3,-1.7,-2.2,0,0,,9.0,29.84941,1010.7,,TRUE,TRUE,,,TRUE,,,,OVC,2200,,,,,,,MVFR,1.2,-1.1,-2.2,,,,,0.0050,,,,METAR,5.0
PAGK 120553Z AUTO 35003KT 10SM OVC018 M14/M18 A2973 RMK AO2 SLP125 60006 T11441178 11144 21156 51022 TSNO,PAGK,2015-02-12T05:53:00Z,62.15,-145.45,-14.4,-17.8,350,3,,10.0,29.731298,1012.5,,TRUE,TRUE,,,TRUE,,,,OVC,1800,,,,,,,MVFR,2.2,-14.4,-15.6,,,,,0.06,,,,METAR,481.0
PAFA 120553Z 02007KT 4SM -SN BR BKN040 OVC055 M12/M15 A2974 RMK AO2 SLP084 T11171150 11111 21122 53013,PAFA,2015-02-12T05:53:00Z,64.8,-147.88,-11.7,-15.0,20,7,,4.0,29.740158,1008.4,,,TRUE,,,,,,-SN BR,BKN,4000,OVC,5500,,,,,MVFR,1.3,-11.1,-12.2,,,,,,,,,METAR,132.0
PAEN 120553Z AUTO 01003KT 10SM OVC080 M04/M07 A2960 RMK AO2 SLP025 T10391072 10028 21050 53022 TSNO,PAEN,2015-02-12T05:53:00Z,60.57,-151.25,-3.9,-7.2,10,3,,10.0,29.601377,1002.5,,TRUE,TRUE,,,TRUE,,,,OVC,8000,,,,,,,VFR,2.2,2.8,-5.0,,,,,,,,,METAR,27.0
PADE 120553Z AUTO 24007KT 10SM CLR M19/M30 A2992 RMK AO2 SLP133 I1000 I6000 T11891300 11156 21200 52002 TSNO,PADE,2015-02-12T05:53:00Z,66.07,-162.77,-18.9,-30.0,240,7,,10.0,29.920275,1013.3,,TRUE,TRUE,,,TRUE,,,,CLR,,,,,,,,VFR,0.2,-15.6,-20.0,,,,,,,,,METAR,5.0
PACV 120553Z 00000KT 10SM OVC035 01/00 A2969 RMK AO2 RAE01 SLP055 P0000 60003 T00060000 10028 20000 51016 $,PACV,2015-02-12T05:53:00Z,60.5,-145.5,0.6,0.0,0,0,,10.0,29.68996,1005.5,,,TRUE,TRUE,,,,,,OVC,3500,,,,,,,VFR,1.6,2.8,0.0,,,0.0050,,0.03,,,,METAR,12.0
PACD 120553Z AUTO 14008KT 10SM BKN090 OVC110 03/03 A2917 RMK AO2 SLP877 6//// T00280028 10033 20006 53008 TSNO,PACD,2015-02-12T05:53:00Z,55.2,-162.72,2.8,2.8,140,8,,10.0,29.170275,987.7,,TRUE,TRUE,,,TRUE,,,,BKN,9000,OVC,11000,,,,,VFR,0.8,3.3,0.6,,,,,,,,,METAR,30.0
PABT 120553Z 00000KT 10SM SCT070 BKN100 M21/M23 A2989 RMK AO2 SLP148 4/017 T12061228 11189 21222 53006 $,PABT,2015-02-12T05:53:00Z,66.92,-151.52,-20.6,-22.8,0,0,,10.0,29.890747,1014.8,,,TRUE,TRUE,,,,,,SCT,7000,BKN,10000,,,,,VFR,0.6,-18.9,-22.2,,,,,,,17.0,,METAR,195.0
PABR 120553Z 05012KT 10SM CLR M29/M33 A3033 RMK AO2 SLP273 I1001 I6006 T12941328 11289 21306 51003,PABR,2015-02-12T05:53:00Z,71.28,-156.8,-29.4,-32.8,50,12,,10.0,30.33071,1027.3,,,TRUE,,,,,,,CLR,,,,,,,,VFR,0.3,-28.9,-30.6,,,,,,,,,METAR,7.0
PABI 120553Z 12015G26KT 10SM SCT055 OVC200 M14/M21 A2967 RMK AO2 PK WND 13029/0504 SLP094 60000 T11441206 11133 21144 53017,PABI,2015-02-12T05:53:00Z,64.0,-145.73,-14.4,-20.6,120,15,26,10.0,29.66929,1009.4,,,TRUE,,,,,,,SCT,5500,OVC,20000,,,,,VFR,1.7,-13.3,-14.4,,,,,0.0050,,,,METAR,386.0
PAAQ 120553Z AUTO 02008KT 10SM FEW065 OVC100 M02/M09 A2959 RMK AO2 SLP025 T10171089 11017 21056 51021 TSNO,PAAQ,2015-02-12T05:53:00Z,61.6,-149.08,-1.7,-8.9,20,8,,10.0,29.589567,1002.5,,TRUE,TRUE,,,TRUE,,,,FEW,6500,OVC,10000,,,,,VFR,2.1,-1.7,-5.6,,,,,,,,,METAR,73.0
KMWM 120553Z AUTO 33024G30KT 7SM CLR M18/M21 A3049 RMK AO2,KMWM,2015-02-12T05:53:00Z,43.9,-95.1,-18.0,-21.0,330,24,30,7.0,30.490158,,,TRUE,TRUE,,,,,,,CLR,,,,,,,,VFR,,,,,,,,,,,,METAR,430.0
KMRT 120553Z AUTO 35004KT 5SM BKN012 OVC019 M01/M04 A2994 RMK AO2 T10111036 10007 21011 400241081,KMRT,2015-02-12T05:53:00Z,40.22,-83.35,-1.1,-3.6,350,4,,5.0,29.940945,,,TRUE,TRUE,,,,,,,BKN,1200,OVC,1900,,,,,MVFR,,0.7,-1.1,2.4,-8.1,,,,,,,METAR,312.0
KMOX 120553Z AUTO 34011KT 10SM CLR M21/M23 A3059 RMK AO2,KMOX,2015-02-12T05:53:00Z,45.57,-95.97,-21.0,-23.0,340,11,,10.0,30.590551,,,TRUE,TRUE,,,,,,,CLR,,,,,,,,VFR,,,,,,,,,,,,METAR,344.0
KMJQ 120553Z AUTO 34014G25KT 7SM SCT011 OVC017 M16/M20 A3049 RMK AO2,KMJQ,2015-02-12T05:53:00Z,43.63,-94.97,-16.0,-20.0,340,14,25,7.0,30.490158,,,TRUE,TRUE,,,,,,,SCT,1100,OVC,1700,,,,,MVFR,,,,,,,,,,,,METAR,441.0
KIKW 120553Z AUTO 31011KT 10SM OVC048 M07/M13 A2995 RMK AO2 T10701135,KIKW,2015-02-12T05:53:00Z,43.67,-84.27,-7.0,-13.5,310,11,,10.0,29.949802,,,TRUE,TRUE,,,,,,,OVC,4800,,,,,,,VFR,,,,,,,,,,,,METAR,194.0
KGHW 120553Z AUTO 34012KT 10SM CLR M21/M24 A3055 RMK AO2,KGHW,2015-02-12T05:53:00Z,45.63,-95.32,-21.0,-24.0,340,12,,10.0,30.549213,,,TRUE,TRUE,,,,,,,CLR,,,,,,,,VFR,,,,,,,,,,,,METAR,425.0
KGDB 120553Z AUTO 33015G22KT 10SM CLR M19/M22 A3060 RMK AO2 T11881221 11132 21188 410661188,KGDB,2015-02-12T05:53:00Z,44.75,-95.55,-18.8,-22.1,330,15,22,10.0,30.59941,,,TRUE,TRUE,,,,,,,CLR,,,,,,,,VFR,,-13.2,-18.8,-6.6,-18.8,,,,,,,METAR,319.0
KDXX 120553Z AUTO 34017G20KT 10SM CLR M17/M21 A3062 RMK AO2,KDXX,2015-02-12T05:53:00Z,44.98,-96.18,-17.0,-21.0,340,17,20,10.0,30.620079,,,TRUE,TRUE,,,,,,,CLR,,,,,,,,VFR,,,,,,,,,,,,METAR,330.0
KAEL 120553Z AUTO 34016G20KT 10SM CLR M17/M20 A3041 RMK AO2,KAEL,2015-02-12T05:53:00Z,43.68,-93.37,-17.0,-20.0,340,16,20,10.0,30.410433,,,TRUE,TRUE,,,,,,,CLR,,,,,,,,VFR,,,,,,,,,,,,METAR,383.0
K9MN 120553Z AUTO 31015G28KT 10SM CLR M16/M21 A3037 RMK AO1 T11611211 11106 21161 400061161,K9MN,2015-02-12T05:53:00Z,44.02,-92.48,-16.1,-21.1,310,15,28,10.0,30.369095,,,TRUE,TRUE,,,,,,,CLR,,,,,,,,VFR,,-10.6,-16.1,0.6,-16.1,,,,,,,METAR,355.0
KZZV 120553Z AUTO 25005KT 4SM BR SCT012 SCT020 OVC032 00/M02 A2991 RMK AO2 SLP135 60000 T00001017 10017 20000 58013,KZZV,2015-02-12T05:53:00Z,39.95,-81.9,0.0,-1.7,250,5,,4.0,29.911417,1013.5,,TRUE,TRUE,,,,,,BR,SCT,1200,SCT,2000,OVC,3200,,,MVFR,-1.3,1.7,0.0,,,,,0.0050,,,,METAR,268.0
KYKM 120553Z 28004KT 10SM OVC110 07/04 A3027 RMK AO2 SLP255 T00720044 10122 20056 53003,KYKM,2015-02-12T05:53:00Z,46.57,-120.53,7.2,4.4,280,4,,10.0,30.268702,1025.5,,,TRUE,,,,,,,OVC,11000,,,,,,,VFR,0.3,12.2,5.6,,,,,,,,,METAR,324.0
KPIL 120553Z AUTO 09005KT 7SM FEW043 18/16 A3008 RMK AO2 SLP187 T01780161 10211 20172 402440117 51013,KPIL,2015-02-12T05:53:00Z,26.17,-97.33,17.8,16.1,90,5,,7.0,30.079725,1018.7,,TRUE,TRUE,,,,,,,FEW,4300,,,,,,,VFR,1.3,21.1,17.2,24.4,11.7,,,,,,,METAR,5.0
KVVV 120553Z AUTO 34012G23KT 10SM CLR M20/M23 A3063 RMK AO2,KVVV,2015-02-12T05:53:00Z,45.3,-96.42,-20.0,-23.0,340,12,23,10.0,30.628937,,,TRUE,TRUE,,,,,,,CLR,,,,,,,,VFR,,,,,,,,,,,,METAR,335.0
KSAZ 120553Z AUTO 33007KT 10SM CLR M22/M25 A3054 RMK AO2,KSAZ,2015-02-12T05:53:00Z,46.37,-94.8,-22.0,-25.0,330,7,,10.0,30.540354,,,TRUE,TRUE,,,,,,,CLR,,,,,,,,VFR,,,,,,,,,,,,METAR,392.0
KRRT 120553Z AUTO 31007KT 10SM CLR M24/M27 A3063 RMK AO2,KRRT,2015-02-12T05:53:00Z,48.93,-95.33,-24.0,-27.0,310,7,,10.0,30.628937,,,TRUE,TRUE,,,,,,,CLR,,,,,,,,VFR,,,,,,,,,,,,METAR,327.0
KPWC 120553Z AUTO 34009KT 10SM SCT021 M21/M23 A3054 RMK AO2,KPWC,2015-02-12T05:53:00Z,46.72,-94.37,-21.0,-23.0,340,9,,10.0,30.540354,,,TRUE,TRUE,,,,,,,SCT,2100,,,,,,,VFR,,,,,,,,,,,,METAR,395.0
KPEX 120553Z AUTO 29011G15KT 10SM CLR M20/M23 A3055 RMK AO2 T12051235 11166 21205 410711205,KPEX,2015-02-12T05:53:00Z,45.37,-94.73,-20.5,-23.5,290,11,15,10.0,30.549213,,,TRUE,TRUE,,,,,,,CLR,,,,,,,,VFR,,-16.6,-20.5,-7.1,-20.5,,,,,,,METAR,360.0
KPCW 120553Z AUTO 28008KT 10SM FEW022 SCT028 OVC060 M01/M04 A2991 RMK AO2,KPCW,2015-02-12T05:53:00Z,41.52,-82.87,-1.0,-4.0,280,8,,10.0,29.911417,,,TRUE,TRUE,,,,,,,FEW,2200,SCT,2800,OVC,6000,,,VFR,,,,,,,,,,,,METAR,178.0
KY63 120553Z AUTO 01009KT 10SM CLR M22/M25 A3058 RMK AO2 T12201250 11175 21221 410871221,KY63,2015-02-12T05:53:00Z,45.98,-96.0,-22.0,-25.0,10,9,,10.0,30.578741,,,TRUE,TRUE,,,,,,,CLR,,,,,,,,VFR,,-17.5,-22.1,-8.7,-22.1,,,,,,,METAR,367.0
KABQ 120552Z 14012KT 10SM FEW035 BKN055 BKN100 06/M02 A3042 RMK AO2 SLP288 MTNS OBSC NE-SE T00561017 10083 20050 51008,KABQ,2015-02-12T05:52:00Z,35.05,-106.62,5.6,-1.7,140,12,,10.0,30.41929,1028.8,,,TRUE,,,,,,,FEW,3500,BKN,5500,BKN,10000,,,VFR,0.8,8.3,5.0,,,,,,,,,METAR,1618.0
CYGW 120552Z AUTO 02004KT 9SM -SN SCT010 SCT014 M31/M34 A3029 RMK SLP259,CYGW,2015-02-12T05:52:00Z,55.27,-77.77,-31.0,-34.0,20,4,,9.0,30.28937,1025.9,,TRUE,,,,,,,-SN,SCT,1000,SCT,1400,,,,,VFR,,,,,,,,,,,,SPECI,12.0
CYMO 120552Z AUTO 34013G20KT 5SM -SN OVC029 M22/M25 A3019 RMK SLP226,CYMO,2015-02-12T05:52:00Z,51.28,-80.62,-22.0,-25.0,340,13,20,5.0,30.188976,1022.6,,TRUE,,,,,,,-SN,OVC,2900,,,,,,,MVFR,,,,,,,,,,,,SPECI,10.0
KVTN 120552Z AUTO 05012KT 4SM -SN OVC014 M10/M13 A3053 RMK AO2 SNB20 SLP378 P0000 60000 T11001133 10006 21100 400391100 53016,KVTN,2015-02-12T05:52:00Z,42.87,-100.55,-10.0,-13.3,50,12,,4.0,30.528543,1037.8,,TRUE,TRUE,,,,,,-SN,OVC,1400,,,,,,,MVFR,1.6,0.6,-10.0,3.9,-10.0,0.0050,,0.0050,,,,METAR,788.0
KSUX 120552Z 35019KT 10SM CLR M12/M19 A3058 RMK AO2 PK WND 35029/0512 SLP376 60000 T11221194 11028 21122 400001122 53018,KSUX,2015-02-12T05:52:00Z,42.38,-96.38,-12.2,-19.4,350,19,,10.0,30.578741,1037.6,,,TRUE,,,,,,,CLR,,,,,,,,VFR,1.8,-2.8,-12.2,,-12.2,,,0.0050,,,,METAR,338.0
KSPI 120552Z AUTO 31014G22KT 10SM OVC024 M04/M09 A3023 RMK AO2 SLP242 T10391089 11011 21044 400331044 50001,KSPI,2015-02-12T05:52:00Z,39.85,-89.68,-3.9,-8.9,310,14,22,10.0,30.230314,1024.2,,TRUE,TRUE,,,,,,,OVC,2400,,,,,,,MVFR,0.1,-1.1,-4.4,3.3,-4.4,,,,,,,METAR,181.0
KNFW 120552Z 34012KT 10SM BKN080 09/00 A3040 RMK AO2 SLP274 T00890000 10167 20089 402000089 51024 $,KNFW,2015-02-12T05:52:00Z,32.78,-97.43,8.9,0.0,340,12,,10.0,30.398623,1027.4,,,TRUE,TRUE,,,,,,BKN,8000,,,,,,,VFR,2.4,16.7,8.9,20.0,8.9,,,,,,,METAR,198.0
KCZZ 120552Z AUTO 08003KT 14/M08 A3013 RMK AO1 SLP177 T01441078 10200 20122 51010,KCZZ,2015-02-12T05:52:00Z,32.63,-116.47,14.4,-7.8,80,3,,,30.129921,1017.7,,TRUE,TRUE,,,,,,,,,,,,,,,,1.0,20.0,12.2,,,,,,,,,METAR,807.0
KDRA 120552Z AUTO 11003KT 10SM CLR 09/M06 A3030 RMK AO2 SLP242 T00941061 10189 20094 51008,KDRA,2015-02-12T05:52:00Z,36.62,-116.03,9.4,-6.1,110,3,,10.0,30.301182,1024.2,,TRUE,TRUE,,,,,,,CLR,,,,,,,,VFR,0.8,18.9,9.4,,,,,,,,,METAR,1006.0
PATA 120552Z 08014KT 10SM SCT070 OVC110 M13/M24 A2982 RMK AO2 SLP105 T11281239 11094 21139 51009,PATA,2015-02-12T05:52:00Z,65.17,-152.1,-12.8,-23.9,80,14,,10.0,29.819881,1010.5,,,TRUE,,,,,,,SCT,7000,OVC,11000,,,,,VFR,0.9,-9.4,-13.9,,,,,,,,,METAR,67.0
PGWT 120552Z 05013KT 7SM FEW160 27/17 A2981,PGWT,2015-02-12T05:52:00Z,14.98,145.62,27.0,17.0,50,13,,7.0,29.811024,,,,,,,,,,,FEW,16000,,,,,,,VFR,,,,,,,,,,,,METAR,82.0
KCDJ 120552Z AUTO 32010KT M01/M07 A3037 RMK AO1 SLP300 T10111072 11006 21022 400391022 50004,KCDJ,2015-02-12T05:52:00Z,39.82,-93.58,-1.1,-7.2,320,10,,,30.369095,1030.0,,TRUE,TRUE,,,,,,,,,,,,,,,,0.4,-0.6,-2.2,3.9,-2.2,,,,,,,METAR,234.0
KN60 120552Z AUTO 04006KT M23/M26 A3061 RMK AO1 PRESFR SLP424 T12331261 11178 21239 411221239 58005,KN60,2015-02-12T05:52:00Z,47.65,-101.43,-23.3,-26.1,40,6,,,30.611221,1042.4,,TRUE,TRUE,,,,,,,,,,,,,,,,-0.5,-17.8,-23.9,-12.2,-23.9,,,,,,,METAR,582.0
KNHK 120552Z AUTO 17003KT 10SM FEW100 M01/M04 A2992 RMK AO2 SLP131 T10111044 10000 21017 56016,KNHK,2015-02-12T05:52:00Z,38.27,-76.4,-1.1,-4.4,170,3,,10.0,29.920275,1013.1,,TRUE,TRUE,,,,,,,FEW,10000,,,,,,,VFR,-1.6,0.0,-1.7,,,,,,,,,METAR,12.0
KBAN 120552Z AUTO 00000KT 10SM CLR 01/M04 A3038 RMK AO2 SLP282 T00111044 10150 20006 53007 $,KBAN,2015-02-12T05:52:00Z,38.35,-119.52,1.1,-4.4,0,0,,10.0,30.380905,1028.2,,TRUE,TRUE,TRUE,,,,,,CLR,,,,,,,,VFR,0.7,15.0,0.6,,,,,,,,,METAR,2057.0
KBLU 120552Z AUTO 00000KT 10SM CLR 11/M06 A3033 RMK AO2 SLP217 T01111056 10139 20089 51010,KBLU,2015-02-12T05:52:00Z,39.28,-120.7,11.1,-5.6,0,0,,10.0,30.33071,1021.7,,TRUE,TRUE,,,,,,,CLR,,,,,,,,VFR,1.0,13.9,8.9,,,,,,,,,METAR,1609.0
KREO 120552Z AUTO VRB03KT 03/M02 A3031 RMK AO1 SLP279 T00281017 10133 20017 53004,KREO,2015-02-12T05:52:00Z,42.58,-117.87,2.8,-1.7,0,3,,,30.31004,1027.9,,TRUE,TRUE,,,,,,,,,,,,,,,,0.4,13.3,1.7,,,,,,,,,METAR,1235.0
KNZY 120552Z 32006KT 10SM FEW220 16/08 A3004 RMK AO2 SLP171 T01610083 10244 20161 52007 $,KNZY,2015-02-12T05:52:00Z,32.7,-117.22,16.1,8.3,320,6,,10.0,30.041338,1017.1,,,TRUE,TRUE,,,,,,FEW,22000,,,,,,,VFR,0.7,24.4,16.1,,,,,,,,,METAR,8.0
KPWK 120552Z AUTO 33008G17KT 10SM OVC100 M08/M14 A3012 RMK AO2 SLP210 T10781144 11017 21078 400281078 53011,KPWK,2015-02-12T05:52:00Z,42.12,-87.9,-7.8,-14.4,330,8,17,10.0,30.121063,1021.0,,TRUE,TRUE,,,,,,,OVC,10000,,,,,,,VFR,1.1,-1.7,-7.8,2.8,-7.8,,,,,,,METAR,203.0
KPPF 120552Z AUTO 00000KT 10SM CLR M06/M08 A3043 RMK AO2 SLP313 T10611078 10022 21061 400781061 51010 TSNO,KPPF,2015-02-12T05:52:00Z,37.33,-95.5,-6.1,-7.8,0,0,,10.0,30.431103,1031.3,,TRUE,TRUE,,,TRUE,,,,CLR,,,,,,,,VFR,1.0,2.2,-6.1,7.8,-6.1,,,,,,,METAR,274.0
KABI 120552Z 01014KT 10SM BKN060 OVC110 07/M03 A3037 RMK AO2 SLP279 T00721028 10117 20072 401890072 51016,KABI,2015-02-12T05:52:00Z,32.42,-99.68,7.2,-2.8,10,14,,10.0,30.369095,1027.9,,,TRUE,,,,,,,BKN,6000,OVC,11000,,,,,VFR,1.6,11.7,7.2,18.9,7.2,,,,,,,METAR,548.0
KTRM 120552Z AUTO 02005KT 10SM CLR 18/M04 A3011 RMK AO2 SLP197 T01781039 10300 20150 53010 TSNO,KTRM,2015-02-12T05:52:00Z,33.63,-116.17,17.8,-3.9,20,5,,10.0,30.109253,1019.7,,TRUE,TRUE,,,TRUE,,,,CLR,,,,,,,,VFR,1.0,30.0,15.0,,,,,,,,,METAR,-35.0
KTOL 120552Z 29009KT 6SM -SN SCT036 OVC050 M03/M06 A2994 RMK AO2 SNB26 SLP147 P0000 60000 T10281056 10000 21028 58003 $,KTOL,2015-02-12T05:52:00Z,41.58,-83.8,-2.8,-5.6,290,9,,6.0,29.940945,1014.7,,,TRUE,TRUE,,,,,-SN,SCT,3600,OVC,5000,,,,,VFR,-0.3,0.0,-2.8,,,0.0050,,0.0050,,,,METAR,210.0
KTAN 120552Z AUTO 30003KT 10SM OVC020 M06/M10 A2990 RMK AO2 SLP125 T10611100 11061 21067 56017,KTAN,2015-02-12T05:52:00Z,41.88,-71.02,-6.1,-10.0,300,3,,10.0,29.899607,1012.5,,TRUE,TRUE,,,,,,,OVC,2000,,,,,,,MVFR,-1.7,-6.1,-6.7,,,,,,,,,METAR,7.0
KSPS 120552Z AUTO 34005KT 10SM OVC100 05/M03 A3041 RMK AO2 SLP296 T00501028 10089 20050 401610050 51009,KSPS,2015-02-12T05:52:00Z,33.98,-98.5,5.0,-2.8,340,5,,10.0,30.410433,1029.6,,TRUE,TRUE,,,,,,,OVC,10000,,,,,,,VFR,0.9,8.9,5.0,16.1,5.0,,,,,,,METAR,308.0
KSGF 120552Z 34008KT 10SM CLR M04/M07 A3035 RMK AO2 SLP288 T10391072 10022 21044 400891044 50011 $,KSGF,2015-02-12T05:52:00Z,37.23,-93.38,-3.9,-7.2,340,8,,10.0,30.351377,1028.8,,,TRUE,TRUE,,,,,,CLR,,,,,,,,VFR,1.1,2.2,-4.4,8.9,-4.4,,,,,,,METAR,390.0
KRAP 120552Z AUTO 11007KT 10SM OVC011 M08/M11 A3047 RMK AO2 SLP365 T10781106 11011 21078 50005,KRAP,2015-02-12T05:52:00Z,44.05,-103.05,-7.8,-10.6,110,7,,10.0,30.469488,1036.5,,TRUE,TRUE,,,,,,,OVC,1100,,,,,,,MVFR,0.5,-1.1,-7.8,,,,,,,,,METAR,965.0
KPYM 120552Z AUTO 31007KT 10SM OVC018 M06/M09 A2989 RMK AO2 SLP125 T10611094 11044 21067 56013,KPYM,2015-02-12T05:52:00Z,41.92,-70.73,-6.1,-9.4,310,7,,10.0,29.890747,1012.5,,TRUE,TRUE,,,,,,,OVC,1800,,,,,,,MVFR,-1.3,-4.4,-6.7,,,,,,,,,METAR,43.0
KARR 120552Z AUTO 29011KT 10SM OVC100 M09/M13 A3014 RMK AO2 SLP216 T10891133 11039 21094 400171094 51011 $,KARR,2015-02-12T05:52:00Z,41.77,-88.48,-8.9,-13.3,290,11,,10.0,30.138779,1021.6,,TRUE,TRUE,TRUE,,,,,,OVC,10000,,,,,,,VFR,1.1,-3.9,-9.4,1.7,-9.4,,,,,,,METAR,215.0
KAQW 120552Z AUTO 12005KT 10SM SCT110 M08/M15 A2983 RMK AO2 SLP112 T10781150 11061 21122 58014,KAQW,2015-02-12T05:52:00Z,42.7,-73.17,-7.8,-15.0,120,5,,10.0,29.828741,1011.2,,TRUE,TRUE,,,,,,,SCT,11000,,,,,,,VFR,-1.4,-6.1,-12.2,,,,,,,,,METAR,199.0
KALS 120552Z AUTO 00000KT 10SM CLR M05/M08 A3041 RMK AO2 SLP311 T10501078 10067 21061 51009,KALS,2015-02-12T05:52:00Z,37.43,-105.87,-5.0,-7.8,0,0,,10.0,30.410433,1031.1,,TRUE,TRUE,,,,,,,CLR,,,,,,,,VFR,0.9,6.7,-6.1,,,,,,,,,METAR,2299.0
KCVG 120552Z 31012KT 10SM OVC020 M01/M06 A3003 RMK AO2 SLP173 60000 T10061061 10033 21006 55001,KCVG,2015-02-12T05:52:00Z,39.05,-84.67,-0.6,-6.1,310,12,,10.0,30.029528,1017.3,,,TRUE,,,,,,,OVC,2000,,,,,,,MVFR,-0.1,3.3,-0.6,,,,,0.0050,,,,METAR,269.0
KCQX 120552Z AUTO 35003KT 10SM OVC020 M02/M06 A2986 RMK AO2 SLP112 T10171056 11011 21017 56012,KCQX,2015-02-12T05:52:00Z,41.68,-70.0,-1.7,-5.6,350,3,,10.0,29.861221,1011.2,,TRUE,TRUE,,,,,,,OVC,2000,,,,,,,MVFR,-1.2,-1.1,-1.7,,,,,,,,,METAR,19.0
KCNU 120552Z AUTO 32004KT 10SM CLR M03/M07 A3043 RMK AO2 SLP311 T10331072 10006 21044 400611044 51012,KCNU,2015-02-12T05:52:00Z,37.67,-95.48,-3.3,-7.2,320,4,,10.0,30.431103,1031.1,,TRUE,TRUE,,,,,,,CLR,,,,,,,,VFR,1.2,0.6,-4.4,6.1,-4.4,,,,,,,METAR,297.0
KCLT 120552Z 34004KT 10SM CLR 03/M01 A2994 RMK AO2 SLP138 T00281011 10094 20022 56010,KCLT,2015-02-12T05:52:00Z,35.22,-80.95,2.8,-1.1,340,4,,10.0,29.940945,1013.8,,,TRUE,,,,,,,CLR,,,,,,,,VFR,-1.0,9.4,2.2,,,,,,,,,METAR,220.0
KOMA 120552Z 35025G32KT 10SM FEW022 SCT029 M09/M15 A3052 RMK AO2 PK WND 35039/0533 SLP352 SNE31 P0000 60000 T10941150 11011 21094 400391094 53040,KOMA,2015-02-12T05:52:00Z,41.32,-95.9,-9.4,-15.0,350,25,32,10.0,30.519686,1035.2,,,TRUE,,,,,,,FEW,2200,SCT,2900,,,,,VFR,4.0,-1.1,-9.4,3.9,-9.4,0.0050,,0.0050,,,,METAR,312.0
KOKC 120552Z 01009KT 10SM OVC085 04/M06 A3041 RMK AO2 SLP298 60000 T00391061 10067 20033 401220033 53014 $,KOKC,2015-02-12T05:52:00Z,35.38,-97.6,3.9,-6.1,10,9,,10.0,30.410433,1029.8,,,TRUE,TRUE,,,,,,OVC,8500,,,,,,,VFR,1.4,6.7,3.3,12.2,3.3,,,0.0050,,,,METAR,390.0
KOKB 120552Z AUTO 00000KT 10SM CLR 09/02 A3005 RMK AO2 SLP174 T00940022 10272 20083 51011,KOKB,2015-02-12T05:52:00Z,33.22,-117.35,9.4,2.2,0,0,,10.0,30.050198,1017.4,,TRUE,TRUE,,,,,,,CLR,,,,,,,,VFR,1.1,27.2,8.3,,,,,,,,,METAR,8.0
KMWH 120552Z AUTO 00000KT 10SM BKN120 07/06 A3027 RMK AO2 SLP256 T00720061 10106 20072 51007,KMWH,2015-02-12T05:52:00Z,47.2,-119.32,7.2,6.1,0,0,,10.0,30.268702,1025.6,,TRUE,TRUE,,,,,,,BKN,12000,,,,,,,VFR,0.7,10.6,7.2,,,,,,,,,METAR,362.0
KMLI 120552Z AUTO 32021G29KT 9SM FEW019 OVC028 M10/M16 A3028 RMK AO2 PK WND 30035/0506 SNB07E43 SLP263 P0000 60000 T11001156 11050 21100 400171100 53020,KMLI,2015-02-12T05:52:00Z,41.45,-90.52,-10.0,-15.6,320,21,29,9.0,30.280512,1026.3,,TRUE,TRUE,,,,,,,FEW,1900,OVC,2800,,,,,MVFR,2.0,-5.0,-10.0,1.7,-10.0,0.0050,,0.0050,,,,METAR,184.0
KMLF 120552Z AUTO 30003KT 10SM CLR M02/M06 A3042 RMK AO2 SLP306 T10171061 10111 21022 51017 TSNO,KMLF,2015-02-12T05:52:00Z,38.42,-113.02,-1.7,-6.1,300,3,,10.0,30.41929,1030.6,,TRUE,TRUE,,,TRUE,,,,CLR,,,,,,,,VFR,1.7,11.1,-2.2,,,,,,,,,METAR,1534.0
KNRB 120552Z AUTO 21006KT 9SM CLR 07/06 A3005 RMK AO2 SLP174 T00720061 10106 20072 58005 $,KNRB,2015-02-12T05:52:00Z,30.38,-81.42,7.2,6.1,210,6,,9.0,30.050198,1017.4,,TRUE,TRUE,TRUE,,,,,,CLR,,,,,,,,VFR,-0.5,10.6,7.2,,,,,,,,,METAR,5.0
KP69 120552Z AUTO 33004KT 06/05 A3033 RMK AO1 SLP280 T00560050 10089 20056 50000,KP69,2015-02-12T05:52:00Z,46.15,-115.6,5.6,5.0,330,4,,,30.33071,1028.0,,TRUE,TRUE,,,,,,,,,,,,,,,,0.0,8.9,5.6,,,,,,,,,METAR,480.0
KGLS 120552Z AUTO 00000KT 1 1/4SM BR CLR 12/12 A3016 RMK AO2 SLP212 T01220122 10161 20122 401940122 51007,KGLS,2015-02-12T05:52:00Z,29.27,-94.87,12.2,12.2,0,0,,1.25,30.159449,1021.2,,TRUE,TRUE,,,,,,BR,CLR,,,,,,,,IFR,0.7,16.1,12.2,19.4,12.2,,,,,,,METAR,6.0
KEST 120552Z AUTO 34023G29KT 9SM BKN018 M17/M21 A3049 RMK AO2 PK WND 34036/0453 SLP354 60000 T11671206 11078 21167 410111167 53015,KEST,2015-02-12T05:52:00Z,43.4,-94.75,-16.7,-20.6,340,23,29,9.0,30.490158,1035.4,,TRUE,TRUE,,,,,,,BKN,1800,,,,,,,MVFR,1.5,-7.8,-16.7,-1.1,-16.7,,,0.0050,,,,METAR,401.0
KDVN 120552Z AUTO 32021G30KT 10SM -SN BKN035 OVC046 M11/M16 A3027 RMK AO2 PK WND 32035/0522 SNB50 SLP263 P0000 60000 T11111161 11067 21111 400061111 53019,KDVN,2015-02-12T05:52:00Z,41.62,-90.58,-11.1,-16.1,320,21,30,10.0,30.268702,1026.3,,TRUE,TRUE,,,,,,-SN,BKN,3500,OVC,4600,,,,,VFR,1.9,-6.7,-11.1,0.6,-11.1,0.0050,,0.0050,,,,METAR,230.0
KDPA 120552Z 33012G21KT 10SM OVC100 M08/M13 A3012 RMK AO2 SLP209 T10831133 11028 21083 400171083 53010,KDPA,2015-02-12T05:52:00Z,41.92,-88.25,-8.3,-13.3,330,12,21,10.0,30.121063,1020.9,,,TRUE,,,,,,,OVC,10000,,,,,,,VFR,1.0,-2.8,-8.3,1.7,-8.3,,,,,,,METAR,231.0
KDDC 120552Z AUTO 22006KT 10SM CLR M02/M08 A3040 RMK AO2 SLP312 T10171078 10061 21022 400941022 50003,KDDC,2015-02-12T05:52:00Z,37.77,-99.97,-1.7,-7.8,220,6,,10.0,30.398623,1031.2,,TRUE,TRUE,,,,,,,CLR,,,,,,,,VFR,0.3,6.1,-2.2,9.4,-2.2,,,,,,,METAR,789.0
KDCA 120552Z 20007KT 10SM BKN065 01/M04 A2992 RMK AO2 SLP130 T00111039 10033 20011 57011,KDCA,2015-02-12T05:52:00Z,38.85,-77.03,1.1,-3.9,200,7,,10.0,29.920275,1013.0,,,TRUE,,,,,,,BKN,6500,,,,,,,VFR,-1.1,3.3,1.1,,,,,,,,,METAR,18.0
ETIC 120552Z AUTO 13004KT 3200 BR OVC002 M02/M02 A3022 RMK AO2 VIS 3200V4000,ETIC,2015-02-12T05:52:00Z,49.7,11.93,-2.0,-2.0,130,4,,1.99,30.221457,,,TRUE,TRUE,,,,,,BR,OVC,200,,,,,,,LIFR,,,,,,,,,,,,SPECI,415.0
KHIE 120552Z AUTO 00000KT 10SM SCT120 M17/M18 A2979 RMK AO2 SLP110 I1000 I6000 T11671183 11122 21172 58013,KHIE,2015-02-12T05:52:00Z,44.37,-71.55,-16.7,-18.3,0,0,,10.0,29.790354,1011.0,,TRUE,TRUE,,,,,,,SCT,12000,,,,,,,VFR,-1.3,-12.2,-17.2,,,,,,,,,METAR,318.0
KIOW 120552Z AUTO 33017G32KT 10SM FEW021 FEW070 M12/M17 A3035 RMK AO2 PK WND 32043/0500 UPB11E16SNE11 SLP289 P0000 60000 T11171172 11056 21117 400221117 53024,KIOW,2015-02-12T05:52:00Z,41.63,-91.55,-11.7,-17.2,330,17,32,10.0,30.351377,1028.9,,TRUE,TRUE,,,,,,,FEW,2100,FEW,7000,,,,,VFR,2.4,-5.6,-11.7,2.2,-11.7,0.0050,,0.0050,,,,METAR,198.0
KIJD 120552Z AUTO 07003KT 8SM CLR M14/M17 A2993 RMK AO2 SLP137 T11441172 11056 21156 58010,KIJD,2015-02-12T05:52:00Z,41.75,-72.18,-14.4,-17.2,70,3,,8.0,29.929134,1013.7,,TRUE,TRUE,,,,,,,CLR,,,,,,,,VFR,-1.0,-5.6,-15.6,,,,,,,,,METAR,75.0
KIEN 120552Z AUTO 08013KT 10SM OVC014 M06/M09 A3044 RMK AO2 SLP340 T10561089 10022 21056 53005,KIEN,2015-02-12T05:52:00Z,43.03,-102.52,-5.6,-8.9,80,13,,10.0,30.43996,1034.0,,TRUE,TRUE,,,,,,,OVC,1400,,,,,,,MVFR,0.5,2.2,-5.6,,,,,,,,,METAR,998.0
KIAD 120552Z 00000KT 10SM FEW048 OVC055 01/M04 A2989 RMK AO2 SLP124 T00111039 10039 20006 58010,KIAD,2015-02-12T05:52:00Z,38.93,-77.45,1.1,-3.9,0,0,,10.0,29.890747,1012.4,,,TRUE,,,,,,,FEW,4800,OVC,5500,,,,,VFR,-1.0,3.9,0.6,,,,,,,,,METAR,93.0
KHUT 120552Z AUTO 00000KT 10SM CLR M06/M09 A3043 RMK AO2 SLP313 T10611094 10044 21067 400781067 51012 $,KHUT,2015-02-12T05:52:00Z,38.07,-97.87,-6.1,-9.4,0,0,,10.0,30.431103,1031.3,,TRUE,TRUE,TRUE,,,,,,CLR,,,,,,,,VFR,1.2,4.4,-6.7,7.8,-6.7,,,,,,,METAR,467.0
KHRL 120552Z 09004KT 8SM SCT031 15/14 A3009 RMK AO2 SLP187 T01500144 10217 20144 402610106 51014,KHRL,2015-02-12T05:52:00Z,26.23,-97.65,15.0,14.4,90,4,,8.0,30.088583,1018.7,,,TRUE,,,,,,,SCT,3100,,,,,,,VFR,1.4,21.7,14.4,26.1,10.6,,,,,,,METAR,10.0
KLWC 120552Z AUTO 29006KT 10SM OVC065 M03/M06 A3043 RMK AO2 SLP313 T10281056 11017 21067 400441067 50008,KLWC,2015-02-12T05:52:00Z,39.02,-95.22,-2.8,-5.6,290,6,,10.0,30.431103,1031.3,,TRUE,TRUE,,,,,,,OVC,6500,,,,,,,VFR,0.8,-1.7,-6.7,4.4,-6.7,,,,,,,METAR,253.0
KISN 120552Z AUTO 13007KT 10SM CLR M18/M23 A3058 RMK AO2 SLP409 T11831228 11167 21194 411171194 58008,KISN,2015-02-12T05:52:00Z,48.17,-103.63,-18.3,-22.8,130,7,,10.0,30.578741,1040.9,,TRUE,TRUE,,,,,,,CLR,,,,,,,,VFR,-0.8,-16.7,-19.4,-11.7,-19.4,,,,,,,METAR,579.0
KMFD 120552Z AUTO 28007KT 10SM OVC037 M02/M05 A2990 RMK AO2 SLP138 T10221050 10000 21022 58003,KMFD,2015-02-12T05:52:00Z,40.82,-82.52,-2.2,-5.0,280,7,,10.0,29.899607,1013.8,,TRUE,TRUE,,,,,,,OVC,3700,,,,,,,VFR,-0.3,0.0,-2.2,,,,,,,,,METAR,395.0
KMEB 120552Z AUTO 00000KT 10SM CLR 02/00 A2996 RMK AO2 SLP147 T00170000 10056 20017 58010,KMEB,2015-02-12T05:52:00Z,34.78,-79.37,1.7,0.0,0,0,,10.0,29.958662,1014.7,,TRUE,TRUE,,,,,,,CLR,,,,,,,,VFR,-1.0,5.6,1.7,,,,,,,,,METAR,67.0
KMDH 120552Z AUTO 30006G18KT 10SM CLR M01/M07 A3025 RMK AO2 SLP246 T10111067 10039 21028 401061056 57001,KMDH,2015-02-12T05:52:00Z,37.78,-89.25,-1.1,-6.7,300,6,18,10.0,30.250984,1024.6,,TRUE,TRUE,,,,,,,CLR,,,,,,,,VFR,-0.1,3.9,-2.8,10.6,-5.6,,,,,,,METAR,130.0
KMBG 120552Z AUTO 02003KT 10SM CLR M17/M21 A3062 RMK AO2 SLP410 T11721211 11106 21172 410671172 50005,KMBG,2015-02-12T05:52:00Z,45.55,-100.42,-17.2,-21.1,20,3,,10.0,30.620079,1041.0,,TRUE,TRUE,,,,,,,CLR,,,,,,,,VFR,0.5,-10.6,-17.2,-6.7,-17.2,,,,,,,METAR,510.0
KMHK 120552Z AUTO 00000KT 10SM CLR M06/M08 A3046 RMK AO2 SLP327 T10611078 10017 21061 400331061 51017 TSNO,KMHK,2015-02-12T05:52:00Z,39.13,-96.68,-6.1,-7.8,0,0,,10.0,30.46063,1032.7,,TRUE,TRUE,,,TRUE,,,,CLR,,,,,,,,VFR,1.7,1.7,-6.1,3.3,-6.1,,,,,,,METAR,317.0
KMKE 120552Z 34012G19KT 9SM FEW029 OVC038 M08/M16 A3011 RMK AO2 SNB37E51 SLP209 4/005 P0000 60000 T10831156 11033 21083 400111083 51009,KMKE,2015-02-12T05:52:00Z,42.95,-87.9,-8.3,-15.6,340,12,19,9.0,30.109253,1020.9,,,TRUE,,,,,,,FEW,2900,OVC,3800,,,,,VFR,0.9,-3.3,-8.3,1.1,-8.3,0.0050,,0.0050,,5.0,,METAR,206.0
KAXV 120552Z AUTO 29006KT 10SM OVC039 00/M03 A2997 RMK AO2,KAXV,2015-02-12T05:52:00Z,40.5,-84.3,0.0,-3.0,290,6,,10.0,29.970472,,,TRUE,TRUE,,,,,,,OVC,3900,,,,,,,VFR,,,,,,,,,,,,METAR,279.0
KBJI 120552Z AUTO 33006KT 10SM CLR M24/M26 A3055 RMK AO2 T12391261,KBJI,2015-02-12T05:52:00Z,47.5,-94.92,-23.9,-26.1,330,6,,10.0,30.549213,,,TRUE,TRUE,,,,,,,CLR,,,,,,,,VFR,,,,,,,,,,,,METAR,420.0
KCKV 120552Z AUTO 32012G22KT 10SM OVC028 01/M04 A3017 RMK AO2 SLP219 T00111044 10078 20011 401111056 50003,KCKV,2015-02-12T05:52:00Z,36.62,-87.42,1.1,-4.4,320,12,22,10.0,30.171259,1021.9,,TRUE,TRUE,,,,,,,OVC,2800,,,,,,,MVFR,0.3,7.8,1.1,11.1,-5.6,,,,,,,METAR,165.0
KCID 120552Z AUTO 32024G35KT 10SM BKN037 OVC045 M13/M18 A3032 RMK AO2 PK WND 31037/0534 SLP282 60000 T11331178 11072 21133 400171133 53017,KCID,2015-02-12T05:52:00Z,41.88,-91.72,-13.3,-17.8,320,24,35,10.0,30.318897,1028.2,,TRUE,TRUE,,,,,,,BKN,3700,OVC,4500,,,,,VFR,1.7,-7.2,-13.3,1.7,-13.3,,,0.0050,,,,METAR,264.0
KCFV 120552Z AUTO 34005KT 10SM CLR M04/M07 A3043 RMK AO2 SLP312 T10391067 10028 21044 400831044 51012,KCFV,2015-02-12T05:52:00Z,37.08,-95.57,-3.9,-6.7,340,5,,10.0,30.431103,1031.2,,TRUE,TRUE,,,,,,,CLR,,,,,,,,VFR,1.2,2.8,-4.4,8.3,-4.4,,,,,,,METAR,225.0
KBML 120552Z AUTO 00000KT 10SM CLR M17/M19 A2980 RMK AO2 SLP116 I6000 T11671194 11144 21178 56015,KBML,2015-02-12T05:52:00Z,44.58,-71.18,-16.7,-19.4,0,0,,10.0,29.799213,1011.6,,TRUE,TRUE,,,,,,,CLR,,,,,,,,VFR,-1.5,-14.4,-17.8,,,,,,,,,METAR,345.0
KBLH 120552Z AUTO 33015KT 10SM CLR 21/M04 A3011 RMK AO2 SLP192 T02061039 10272 20206 51007,KBLH,2015-02-12T05:52:00Z,33.62,-114.72,20.6,-3.9,330,15,,10.0,30.109253,1019.2,,TRUE,TRUE,,,,,,,CLR,,,,,,,,VFR,0.7,27.2,20.6,,,,,,,,,METAR,119.0
KBIS 120552Z AUTO 06005KT 10SM CLR M20/M24 A3068 RMK AO2 SLP436 T12001239 11150 21200 411001200 53003,KBIS,2015-02-12T05:52:00Z,46.77,-100.75,-20.0,-23.9,60,5,,10.0,30.679134,1043.6,,TRUE,TRUE,,,,,,,CLR,,,,,,,,VFR,0.3,-15.0,-20.0,-10.0,-20.0,,,,,,,METAR,505.0
KBDR 120552Z 13005KT 10SM CLR M05/M08 A2991 RMK AO2 SLP129 T10501083 11028 21061 58017,KBDR,2015-02-12T05:52:00Z,41.17,-73.13,-5.0,-8.3,130,5,,10.0,29.911417,1012.9,,,TRUE,,,,,,,CLR,,,,,,,,VFR,-1.7,-2.8,-6.1,,,,,,,,,METAR,7.0
KATL 120552Z 30008KT 10SM BKN250 08/M02 A3001 RMK AO2 SLP164 T00781017 10133 20078 56004,KATL,2015-02-12T05:52:00Z,33.63,-84.45,7.8,-1.7,300,8,,10.0,30.008858,1016.4,,,TRUE,,,,,,,BKN,25000,,,,,,,VFR,-0.4,13.3,7.8,,,,,,,,,METAR,296.0
KFIT 120552Z AUTO 33003KT 9SM CLR M13/M16 A2991 RMK AO2 SLP136 T11331161 11089 21144 56016,KFIT,2015-02-12T05:52:00Z,42.55,-71.75,-13.3,-16.1,330,3,,9.0,29.911417,1013.6,,TRUE,TRUE,,,,,,,CLR,,,,,,,,VFR,-1.6,-8.9,-14.4,,,,,,,,,METAR,103.0
KFLY 120552Z AUTO 27006KT 10SM CLR M02/M03 A3040 RMK AO2 T10221035 10035 21044,KFLY,2015-02-12T05:52:00Z,38.95,-104.57,-2.2,-3.5,270,6,,10.0,30.398623,,,TRUE,TRUE,,,,,,,CLR,,,,,,,,VFR,,3.5,-4.4,,,,,,,,,METAR,2096.0
KORE 120552Z AUTO 26003KT 10SM CLR M14/M16 A2988 RMK AO2 SLP130 T11441161 11089 21144 58014,KORE,2015-02-12T05:52:00Z,42.57,-72.28,-14.4,-16.1,260,3,,10.0,29.878937,1013.0,,TRUE,TRUE,,,,,,,CLR,,,,,,,,VFR,-1.4,-8.9,-14.4,,,,,,,,,METAR,164.0
KAFN 120552Z AUTO 18003KT 10SM CLR M16/M17 A2984 RMK AO2 SLP132 I6000 T11561172 11122 21167 58016,KAFN,2015-02-12T05:52:00Z,42.8,-72.0,-15.6,-17.2,180,3,,10.0,29.840551,1013.2,,TRUE,TRUE,,,,,,,CLR,,,,,,,,VFR,-1.6,-12.2,-16.7,,,,,,,,,METAR,313.0
KLJF 120552Z AUTO 34015KT 10SM CLR M18/M21 A3053 RMK AO2,KLJF,2015-02-12T05:52:00Z,45.1,-94.52,-18.0,-21.0,340,15,,10.0,30.528543,,,TRUE,TRUE,,,,,,,CLR,,,,,,,,VFR,,,,,,,,,,,,METAR,348.0
KHCD 120552Z AUTO 33012G16KT 10SM CLR M17/M21 A3053 RMK AO2 T11751211,KHCD,2015-02-12T05:52:00Z,44.87,-94.38,-17.5,-21.1,330,12,16,10.0,30.528543,,,TRUE,TRUE,,,,,,,CLR,,,,,,,,VFR,,,,,,,,,,,,METAR,323.0
KELO 120552Z AUTO 33004KT 10SM SCT022 M22/M24 A3042 RMK AO2,KELO,2015-02-12T05:52:00Z,47.82,-91.82,-22.0,-24.0,330,4,,10.0,30.41929,,,TRUE,TRUE,,,,,,,SCT,2200,,,,,,,VFR,,,,,,,,,,,,METAR,443.0
KD39 120552Z AUTO 33010KT 10SM CLR M20/M24 A3055 RMK AO2 T12021236 11165 21203 410461203,KD39,2015-02-12T05:52:00Z,45.7,-94.93,-20.2,-23.6,330,10,,10.0,30.549213,,,TRUE,TRUE,,,,,,,CLR,,,,,,,,VFR,,-16.5,-20.3,-4.6,-20.3,,,,,,,METAR,380.0
KTKC 120552Z AUTO 34019G23KT 10SM CLR M18/M21 A3055 RMK AO2 T11761208,KTKC,2015-02-12T05:52:00Z,44.25,-95.62,-17.6,-20.8,340,19,23,10.0,30.549213,,,TRUE,TRUE,,,,,,,CLR,,,,,,,,VFR,,,,,,,,,,,,METAR,408.0
KSAD 120551Z AUTO 14007KT 10SM CLR 13/M01 A3023 RMK AO2 SLP214 T01281011 10189 20122 50015,KSAD,2015-02-12T05:51:00Z,32.85,-109.63,12.8,-1.1,140,7,,10.0,30.230314,1021.4,,TRUE,TRUE,,,,,,,CLR,,,,,,,,VFR,1.5,18.9,12.2,,,,,,,,,METAR,962.0
KATT 120551Z AUTO 03012G20KT 10SM OVC065 15/07 A3022 RMK AO2 SLP227 T01500067 10228 20150 402560106 51024,KATT,2015-02-12T05:51:00Z,30.32,-97.77,15.0,6.7,30,12,20,10.0,30.221457,1022.7,,TRUE,TRUE,,,,,,,OVC,6500,,,,,,,VFR,2.4,22.8,15.0,25.6,10.6,,,,,,,METAR,201.0
KBVE 120551Z AUTO 00000KT 5SM BR CLR 11/09 A3012 RMK AO2 SLP198 T01060089 10133 20094 401560094 58001,KBVE,2015-02-12T05:51:00Z,29.32,-89.4,10.6,8.9,0,0,,5.0,30.121063,1019.8,,TRUE,TRUE,,,,,,BR,CLR,,,,,,,,MVFR,-0.1,13.3,9.4,15.6,9.4,,,,,,,METAR,1.0
KSNT 120551Z AUTO 00000KT M02/M05 A3038 RMK AO1 SLP294 T10171050 10039 21028 50000,KSNT,2015-02-12T05:51:00Z,44.17,-114.93,-1.7,-5.0,0,0,,,30.380905,1029.4,,TRUE,TRUE,,,,,,,,,,,,,,,,0.0,3.9,-2.8,,,,,,,,,METAR,1980.0
KALB 120551Z 17005KT 10SM -SN OVC048 M06/M13 A2983 RMK AO2 SNB36 SLP106 PCPN VRY LGT 4/014 P0000 60000 T10561128 11056 21100 56018,KALB,2015-02-12T05:51:00Z,42.75,-73.8,-5.6,-12.8,170,5,,10.0,29.828741,1010.6,,,TRUE,,,,,,-SN,OVC,4800,,,,,,,VFR,-1.8,-5.6,-10.0,,,0.0050,,0.0050,,14.0,,METAR,92.0
KVWU 120551Z AUTO 00000KT 10SM CLR M23/M26 A3057 RMK AO2,KVWU,2015-02-12T05:51:00Z,48.15,-94.52,-23.0,-26.0,0,0,,10.0,30.569881,,,TRUE,TRUE,,,,,,,CLR,,,,,,,,VFR,,,,,,,,,,,,METAR,360.0
KELP 120551Z 03013KT 10SM FEW060 FEW180 07/M01 A3034 RMK AO2 SLP240 T00671011 10111 20067 51019,KELP,2015-02-12T05:51:00Z,31.82,-106.38,6.7,-1.1,30,13,,10.0,30.339567,1024.0,,,TRUE,,,,,,,FEW,6000,FEW,18000,,,,,VFR,1.9,11.1,6.7,,,,,,,,,METAR,1197.0
KEKN 120551Z AUTO 00000KT 10SM BKN022 OVC028 01/M03 A2988 RMK AO2 SLP138 T00111028 10028 20006 58015 TSNO,KEKN,2015-02-12T05:51:00Z,38.88,-79.85,1.1,-2.8,0,0,,10.0,29.878937,1013.8,,TRUE,TRUE,,,TRUE,,,,BKN,2200,OVC,2800,,,,,MVFR,-1.5,2.8,0.6,,,,,,,,,METAR,603.0
KDAW 120551Z AUTO 31008KT 10SM CLR M14/M19 A2990 RMK AO2 SLP130 T11391194 11078 21139 56018,KDAW,2015-02-12T05:51:00Z,43.28,-70.92,-13.9,-19.4,310,8,,10.0,29.899607,1013.0,,TRUE,TRUE,,,,,,,CLR,,,,,,,,VFR,-1.8,-7.8,-13.9,,,,,,,,,METAR,100.0
KCSG 120551Z 00000KT 10SM CLR 07/02 A3004 RMK AO2 SLP172 T00670017 10150 20067 56001,KCSG,2015-02-12T05:51:00Z,32.52,-84.95,6.7,1.7,0,0,,10.0,30.041338,1017.2,,,TRUE,,,,,,,CLR,,,,,,,,VFR,-0.1,15.0,6.7,,,,,,,,,METAR,135.0
KCRP 120551Z 06007KT 10SM FEW015 FEW030 17/16 A3013 RMK AO2 SLP201 T01720156 10206 20172 402500094 53016,KCRP,2015-02-12T05:51:00Z,27.77,-97.5,17.2,15.6,60,7,,10.0,30.129921,1020.1,,,TRUE,,,,,,,FEW,1500,FEW,3000,,,,,VFR,1.6,20.6,17.2,25.0,9.4,,,,,,,METAR,14.0
KCLE 120551Z 28013G20KT 6SM -SN BKN017 BKN023 OVC055 M02/M04 A2993 RMK AO2 SLP142 4/004 P0000 60001 I6000 T10171044 10006 21017 56000 $,KCLE,2015-02-12T05:51:00Z,41.42,-81.85,-1.7,-4.4,280,13,20,6.0,29.929134,1014.2,,,TRUE,TRUE,,,,,-SN,BKN,1700,BKN,2300,OVC,5500,,,MVFR,0.0,0.6,-1.7,,,0.0050,,0.01,,4.0,,METAR,233.0
KCAK 120551Z 29013G20KT 7SM -SN SCT015 OVC030 M01/M04 A2987 RMK AO2 SLP126 4/003 P0000 60002 T10061044 10006 21006 56006 $,KCAK,2015-02-12T05:51:00Z,40.92,-81.45,-0.6,-4.4,290,13,20,7.0,29.870079,1012.6,,,TRUE,TRUE,,,,,-SN,SCT,1500,OVC,3000,,,,,MVFR,-0.6,0.6,-0.6,,,0.0050,,0.02,,3.0,,METAR,377.0
KBKW 120551Z AUTO 25006KT 10SM OVC024 00/M04 A2990 RMK AO2 SLP147 T00001039 10017 20000 58016,KBKW,2015-02-12T05:51:00Z,37.8,-81.12,0.0,-3.9,250,6,,10.0,29.899607,1014.7,,TRUE,TRUE,,,,,,,OVC,2400,,,,,,,MVFR,-1.6,1.7,0.0,,,,,,,,,METAR,764.0
KBHK 120551Z AUTO 12011KT 10SM SCT014 M11/M14 A3043 RMK AO2 SLP350 T11111139 11083 21117 58013,KBHK,2015-02-12T05:51:00Z,46.35,-104.25,-11.1,-13.9,120,11,,10.0,30.431103,1035.0,,TRUE,TRUE,,,,,,,SCT,1400,,,,,,,VFR,-1.3,-8.3,-11.7,,,,,,,,,METAR,902.0
KBGD 120551Z AUTO 27004KT 10SM CLR 00/M04 A3045 RMK AO2 SLP323 T00001039 10050 20000 400720000 53012,KBGD,2015-02-12T05:51:00Z,35.7,-101.4,0.0,-3.9,270,4,,10.0,30.448818,1032.3,,TRUE,TRUE,,,,,,,CLR,,,,,,,,VFR,1.2,5.0,0.0,7.2,,,,,,,,METAR,927.0
KBDL 120551Z 00000KT 10SM FEW200 SCT220 M10/M14 A2990 RMK AO2 SLP129 4/020 T11001144 11050 21111 58012,KBDL,2015-02-12T05:51:00Z,41.93,-72.68,-10.0,-14.4,0,0,,10.0,29.899607,1012.9,,,TRUE,,,,,,,FEW,20000,SCT,22000,,,,,VFR,-1.2,-5.0,-11.1,,,,,,,20.0,,METAR,60.0
KBAZ 120551Z AUTO 05005KT 10SM SCT048 14/10 A3018 RMK AO2 SLP215 T01440100 10217 20133 402500067 51024,KBAZ,2015-02-12T05:51:00Z,29.72,-98.05,14.4,10.0,50,5,,10.0,30.180119,1021.5,,TRUE,TRUE,,,,,,,SCT,4800,,,,,,,VFR,2.4,21.7,13.3,25.0,6.7,,,,,,,METAR,195.0
KAVX 120551Z AUTO 11010KT 10SM CLR 21/M07 A3012 RMK AO2 SLP175 T02061067 10244 20200 51006,KAVX,2015-02-12T05:51:00Z,33.4,-118.42,20.6,-6.7,110,10,,10.0,30.121063,1017.5,,TRUE,TRUE,,,,,,,CLR,,,,,,,,VFR,0.6,24.4,20.0,,,,,,,,,METAR,482.0
KASH 120551Z 00000KT 10SM CLR M14/M17 A2993 RMK AO2 FZRANO 56018 T11381172 11094 21150 SLP400 $,KASH,2015-02-12T05:51:00Z,42.78,-71.52,-13.8,-17.2,0,0,,10.0,29.929134,1040.0,,,TRUE,TRUE,,,TRUE,,,CLR,,,,,,,,VFR,-1.8,-9.4,-15.0,,,,,,,,,METAR,61.0
KAHN 120551Z AUTO 28004KT 10SM CLR 08/01 A2996 RMK AO2 SLP147 T00830006 10122 20083 58009,KAHN,2015-02-12T05:51:00Z,33.95,-83.33,8.3,0.6,280,4,,10.0,29.958662,1014.7,,TRUE,TRUE,,,,,,,CLR,,,,,,,,VFR,-0.9,12.2,8.3,,,,,,,,,METAR,244.0
KACT 120551Z 36014KT 10SM BKN049 11/04 A3028 RMK AO2 SLP250 T01110044 10194 20111 402220056 51025,KACT,2015-02-12T05:51:00Z,31.62,-97.23,11.1,4.4,360,14,,10.0,30.280512,1025.0,,,TRUE,,,,,,,BKN,4900,,,,,,,VFR,2.5,19.4,11.1,22.2,5.6,,,,,,,METAR,151.0
KABE 120551Z 00000KT 10SM OVC043 M04/M09 A2987 RMK AO2 SLP120 T10391094 11022 21044 56016,KABE,2015-02-12T05:51:00Z,40.65,-75.45,-3.9,-9.4,0,0,,10.0,29.870079,1012.0,,,TRUE,,,,,,,OVC,4300,,,,,,,VFR,-1.6,-2.2,-4.4,,,,,,,,,METAR,114.0
KSMX 120551Z AUTO 13004KT 10SM CLR 12/07 A3011 RMK AO2 SLPNO T01220072 10250 20122 52013 TSNO,KSMX,2015-02-12T05:51:00Z,34.9,-120.45,12.2,7.2,130,4,,10.0,30.109253,,,TRUE,TRUE,,,TRUE,,,,CLR,,,,,,,,VFR,1.3,25.0,12.2,,,,,,,,,METAR,74.0
KYNG 120551Z 29009KT 2 1/2SM -SN BR BKN008 BKN012 OVC023 M02/M03 A2984 RMK AO2 FZDZE40 SLP117 60004 I1000 I6000 4/006 T10171028 10006 21017 56007,KYNG,2015-02-12T05:51:00Z,41.25,-80.67,-1.7,-2.8,290,9,,2.5,29.840551,1011.7,,,TRUE,,,,,,-SN BR,BKN,800,BKN,1200,OVC,2300,,,IFR,-0.7,0.6,-1.7,,,,,0.04,,6.0,,METAR,360.0
KVNY 120551Z AUTO 36012KT 10SM CLR 21/M06 A3009 RMK AO2 SLP180 T02111056 10272 20206 51007,KVNY,2015-02-12T05:51:00Z,34.22,-118.48,21.1,-5.6,360,12,,10.0,30.088583,1018.0,,TRUE,TRUE,,,,,,,CLR,,,,,,,,VFR,0.7,27.2,20.6,,,,,,,,,METAR,245.0
KVCT 120551Z AUTO 03004KT 1/4SM FG VV005 13/13 A3017 RMK AO2 SLP214 T01280128 10206 20128 402500128 51014 $,KVCT,2015-02-12T05:51:00Z,28.87,-96.93,12.8,12.8,30,4,,0.25,30.171259,1021.4,,TRUE,TRUE,TRUE,,,,,FG,OVX,0,,,,,,,LIFR,1.4,20.6,12.8,25.0,12.8,,,,,,500,METAR,31.0
KTEB 120551Z 22006KT 10SM BKN095 BKN110 M03/M08 A2990 RMK AO2 SLP126 T10281083 11011 21044 58011,KTEB,2015-02-12T05:51:00Z,40.87,-74.05,-2.8,-8.3,220,6,,10.0,29.899607,1012.6,,,TRUE,,,,,,,BKN,9500,BKN,11000,,,,,VFR,-1.1,-1.1,-4.4,,,,,,,,,METAR,7.0
KSTL 120551Z 30010KT 10SM CLR M02/M08 A3027 RMK AO2 SLP258 T10171078 10011 21017 400561017 50003,KSTL,2015-02-12T05:51:00Z,38.75,-90.37,-1.7,-7.8,300,10,,10.0,30.268702,1025.8,,,TRUE,,,,,,,CLR,,,,,,,,VFR,0.3,1.1,-1.7,5.6,-1.7,,,,,,,METAR,171.0
KSMO 120551Z AUTO 02006KT 10SM CLR 21/M05 A3008 RMK AO2 SLP182 T02111050 10278 20206 51012,KSMO,2015-02-12T05:51:00Z,34.02,-118.45,21.1,-5.0,20,6,,10.0,30.079725,1018.2,,TRUE,TRUE,,,,,,,CLR,,,,,,,,VFR,1.2,27.8,20.6,,,,,,,,,METAR,57.0
KSLK 120551Z AUTO 23005KT 3SM -SN BR FEW020 SCT026 OVC055 M06/M08 A2965 RMK AO2 SNB0455 SLP064 P0000 60000 T10611083 11061 21083 58018 $,KSLK,2015-02-12T05:51:00Z,44.4,-74.2,-6.1,-8.3,230,5,,3.0,29.648623,1006.4,,TRUE,TRUE,TRUE,,,,,-SN BR,FEW,2000,SCT,2600,OVC,5500,,,MVFR,-1.8,-6.1,-8.3,,,0.0050,,0.0050,,,,METAR,498.0
PTYA 120551Z 06012KT 12SM FEW016 BKN300 30/22 A2978 RMK SLP084 8/101 T03000220 10300 20278 56017,PTYA,2015-02-12T05:51:00Z,9.48,138.08,30.0,22.0,60,12,,12.0,29.778543,1008.4,,,,,,,,,,FEW,1600,BKN,30000,,,,,VFR,-1.7,30.0,27.8,,,,,,,,,METAR,17.0
KNYC 120551Z AUTO 26007KT 10SM OVC100 M02/M08 A2992 RMK AO2 SLP123 T10171078 11011 21022 58013,KNYC,2015-02-12T05:51:00Z,40.78,-73.97,-1.7,-7.8,260,7,,10.0,29.920275,1012.3,,TRUE,TRUE,,,,,,,OVC,10000,,,,,,,VFR,-1.3,-1.1,-2.2,,,,,,,,,METAR,11.0
KHDO 120551Z AUTO 07007KT 10SM CLR 13/09 A3019 RMK AO2 SLP214 T01280089 10217 20111 402390050 51021,KHDO,2015-02-12T05:51:00Z,29.37,-99.17,12.8,8.9,70,7,,10.0,30.188976,1021.4,,TRUE,TRUE,,,,,,,CLR,,,,,,,,VFR,2.1,21.7,11.1,23.9,5.0,,,,,,,METAR,282.0
KHSE 120551Z AUTO 00000KT 10SM CLR M02/M03 A2999 RMK AO2 SLP156 T10171028 10028 21017 58002 TSNO,KHSE,2015-02-12T05:51:00Z,35.23,-75.62,-1.7,-2.8,0,0,,10.0,29.991142,1015.6,,TRUE,TRUE,,,TRUE,,,,CLR,,,,,,,,VFR,-0.2,2.8,-1.7,,,,,,,,,METAR,3.0
PTKK 120551Z 10008KT 15SM FEW014CB BKN120 OVC280 28/26 A2968 RMK CB SE-S AND W MOV W SLP054 60075 8/328 T02840259 10289 20250 55002,PTKK,2015-02-12T05:51:00Z,7.47,151.85,28.4,25.9,100,8,,15.0,29.681103,1005.4,,,,,,,,,,FEW,1400,BKN,12000,OVC,28000,,,VFR,-0.2,28.9,25.0,,,,,0.75,,,,METAR,2.0
KHTS 120551Z 30005KT 4SM -RA BR BKN014 OVC018 01/00 A2997 RMK AO2 RAB31 SLP155 P0000 60000 T00110000 10022 20011 58007,KHTS,2015-02-12T05:51:00Z,38.37,-82.55,1.1,0.0,300,5,,4.0,29.970472,1015.5,,,TRUE,,,,,,-RA BR,BKN,1400,OVC,1800,,,,,MVFR,-0.7,2.2,1.1,,,0.0050,,0.0050,,,,METAR,254.0
KJCT 120551Z AUTO 36006KT 10SM OVC036 10/04 A3029 RMK AO2 SLP234 T01000039 10233 20100 402670039 51036,KJCT,2015-02-12T05:51:00Z,30.5,-99.77,10.0,3.9,360,6,,10.0,30.28937,1023.4,,TRUE,TRUE,,,,,,,OVC,3600,,,,,,,VFR,3.6,23.3,10.0,26.7,3.9,,,,,,,METAR,522.0
KILG 120551Z 17005KT 10SM FEW090 FEW120 M01/M04 A2991 RMK AO2 SLP130 T10111044 10017 21011 58018,KILG,2015-02-12T05:51:00Z,39.67,-75.6,-1.1,-4.4,170,5,,10.0,29.911417,1013.0,,,TRUE,,,,,,,FEW,9000,FEW,12000,,,,,VFR,-1.8,1.7,-1.1,,,,,,,,,METAR,28.0
KIGM 120551Z AUTO VRB04KT 10SM CLR 06/M05 A3029 RMK AO2 SLP223 T00611050 10183 20061 53016,KIGM,2015-02-12T05:51:00Z,35.25,-113.93,6.1,-5.0,0,4,,10.0,30.28937,1022.3,,TRUE,TRUE,,,,,,,CLR,,,,,,,,VFR,1.6,18.3,6.1,,,,,,,,,METAR,1032.0
KP58 120551Z AUTO 30012G23KT M08/M14 A2988 RMK AO1 SLP135 60001 T10831139 11022 21083 52011,KP58,2015-02-12T05:51:00Z,44.02,-82.8,-8.3,-13.9,300,12,23,,29.878937,1013.5,,TRUE,TRUE,,,,,,,,,,,,,,,,1.1,-2.2,-8.3,,,,,0.01,,,,METAR,179.0
KP59 120551Z AUTO 05022G35KT M13/M16 A3027 RMK AO1 PK WND 05037/0505 SLP273 T11281161 11117 21133 53031,KP59,2015-02-12T05:51:00Z,47.47,-87.88,-12.8,-16.1,50,22,35,,30.268702,1027.3,,TRUE,TRUE,,,,,,,,,,,,,,,,3.1,-11.7,-13.3,,,,,,,,,METAR,190.0
KLGA 120551Z 18007KT 10SM BKN100 BKN250 M02/M08 A2990 RMK AO2 SLP125 4/004 T10171078 10000 21022 58014 $,KLGA,2015-02-12T05:51:00Z,40.78,-73.88,-1.7,-7.8,180,7,,10.0,29.899607,1012.5,,,TRUE,TRUE,,,,,,BKN,10000,BKN,25000,,,,,VFR,-1.4,0.0,-2.2,,,,,,,4.0,,METAR,11.0
KJFK 120551Z 00000KT 10SM BKN100 BKN160 OVC250 M03/M08 A2992 RMK AO2 SLP133 4/001 T10281078 11017 21033 58013,KJFK,2015-02-12T05:51:00Z,40.63,-73.77,-2.8,-7.8,0,0,,10.0,29.920275,1013.3,,,TRUE,,,,,,,BKN,10000,BKN,16000,OVC,25000,,,VFR,-1.3,-1.7,-3.3,,,,,,,1.0,,METAR,9.0
KORD 120551Z 32018G22KT 10SM OVC100 M08/M14 A3011 RMK AO2 SLP203 4/006 T10781139 11017 21078 400171078 51011,KORD,2015-02-12T05:51:00Z,41.98,-87.93,-7.8,-13.9,320,18,22,10.0,30.109253,1020.3,,,TRUE,,,,,,,OVC,10000,,,,,,,VFR,1.1,-1.7,-7.8,1.7,-7.8,,,,,6.0,,METAR,200.0
KMYL 120551Z AUTO 00000KT 8SM CLR M01/M02 A3035 RMK AO2 SLP304 T10061017 10050 21006 53005,KMYL,2015-02-12T05:51:00Z,44.9,-116.1,-0.6,-1.7,0,0,,8.0,30.351377,1030.4,,TRUE,TRUE,,,,,,,CLR,,,,,,,,VFR,0.5,5.0,-0.6,,,,,,,,,METAR,1533.0
KMPV 120551Z AUTO 20003KT 10SM BKN110 M09/M16 A2980 RMK AO2 SLP114 T10891161 11083 21106 56017,KMPV,2015-02-12T05:51:00Z,44.2,-72.57,-8.9,-16.1,200,3,,10.0,29.799213,1011.4,,TRUE,TRUE,,,,,,,BKN,11000,,,,,,,VFR,-1.7,-8.3,-10.6,,,,,,,,,METAR,343.0
KLGU 120551Z AUTO 00000KT 10SM CLR 01/M02 A3039 RMK AO2 SLP300 T00111022 10111 20006 58003,KLGU,2015-02-12T05:51:00Z,41.78,-111.85,1.1,-2.2,0,0,,10.0,30.389763,1030.0,,TRUE,TRUE,,,,,,,CLR,,,,,,,,VFR,-0.3,11.1,0.6,,,,,,,,,METAR,1355.0
KPHX 120551Z 09007KT 10SM CLR 21/M01 A3010 RMK AO2 SLP180 T02061011 10267 20200 50014,KPHX,2015-02-12T05:51:00Z,33.43,-112.02,20.6,-1.1,90,7,,10.0,30.100393,1018.0,,,TRUE,,,,,,,CLR,,,,,,,,VFR,1.4,26.7,20.0,,,,,,,,,METAR,336.0
KOXR 120551Z AUTO 07011KT 10SM CLR 23/M04 A3007 RMK AO2 SLP183 T02331039 10283 20178 53005,KOXR,2015-02-12T05:51:00Z,34.2,-119.2,23.3,-3.9,70,11,,10.0,30.070866,1018.3,,TRUE,TRUE,,,,,,,CLR,,,,,,,,VFR,0.5,28.3,17.8,,,,,,,,,METAR,20.0
KORF 120551Z AUTO 18005KT 10SM CLR M01/M03 A2995 RMK AO2 SLP141 T10111033 10006 21028 58011 TSNO,KORF,2015-02-12T05:51:00Z,36.9,-76.2,-1.1,-3.3,180,5,,10.0,29.949802,1014.1,,TRUE,TRUE,,,TRUE,,,,CLR,,,,,,,,VFR,-1.1,0.6,-2.8,,,,,,,,,METAR,14.0
KSAT 120551Z 00000KT 10SM FEW050 FEW250 15/11 A3018 RMK AO2 SLP207 T01500106 10211 20139 402440083 51020,KSAT,2015-02-12T05:51:00Z,29.53,-98.47,15.0,10.6,0,0,,10.0,30.180119,1020.7,,,TRUE,,,,,,,FEW,5000,FEW,25000,,,,,VFR,2.0,21.1,13.9,24.4,8.3,,,,,,,METAR,243.0
KSAN 120551Z 36004KT 10SM FEW200 19/00 A3005 RMK AO2 SLP177 T01890000 10267 20183 53007,KSAN,2015-02-12T05:51:00Z,32.73,-117.18,18.9,0.0,360,4,,10.0,30.050198,1017.7,,,TRUE,,,,,,,FEW,20000,,,,,,,VFR,0.7,26.7,18.3,,,,,,,,,METAR,12.0
KROW 120551Z 32007KT 10SM SCT047 OVC060 03/01 A3046 RMK AO2 SLP298 60003 T00330011 10033 20028 53003,KROW,2015-02-12T05:51:00Z,33.3,-104.5,3.3,1.1,320,7,,10.0,30.46063,1029.8,,,TRUE,,,,,,,SCT,4700,OVC,6000,,,,,VFR,0.3,3.3,2.8,,,,,0.03,,,,METAR,1112.0
KRDU 120551Z 20004KT 10SM FEW250 03/M01 A2993 RMK AO2 SLP137 T00331011 10050 20022 58012,KRDU,2015-02-12T05:51:00Z,35.9,-78.78,3.3,-1.1,200,4,,10.0,29.929134,1013.7,,,TRUE,,,,,,,FEW,25000,,,,,,,VFR,-1.2,5.0,2.2,,,,,,,,,METAR,130.0
KPWM 120551Z AUTO 34005KT 10SM CLR M12/M19 A2992 RMK AO2 SLP134 T11221189 11072 21139 56021,KPWM,2015-02-12T05:51:00Z,43.65,-70.3,-12.2,-18.9,340,5,,10.0,29.920275,1013.4,,TRUE,TRUE,,,,,,,CLR,,,,,,,,VFR,-2.1,-7.2,-13.9,,,,,,,,,METAR,15.0
KPVD 120551Z 31007KT 10SM OVC020 M08/M13 A2992 RMK AO2 SNE04 SLP132 P0000 60000 T10781128 11056 21078 56018 $,KPVD,2015-02-12T05:51:00Z,41.72,-71.43,-7.8,-12.8,310,7,,10.0,29.920275,1013.2,,,TRUE,TRUE,,,,,,OVC,2000,,,,,,,MVFR,-1.8,-5.6,-7.8,,,0.0050,,0.0050,,,,METAR,16.0
KPIT 120551Z 27009KT 6SM -SN BR FEW009 BKN018 OVC033 01/M01 A2984 RMK AO2 SLP124 P0000 60001 T00061011 10022 20000 58015,KPIT,2015-02-12T05:51:00Z,40.5,-80.27,0.6,-1.1,270,9,,6.0,29.840551,1012.4,,,TRUE,,,,,,-SN BR,FEW,900,BKN,1800,OVC,3300,,,MVFR,-1.5,2.2,0.0,,,0.0050,,0.01,,,,METAR,357.0
KSJT 120551Z AUTO 02017KT 10SM OVC043 09/01 A3034 RMK AO2 SLP269 T00940011 10167 20094 402170083 51022,KSJT,2015-02-12T05:51:00Z,31.37,-100.5,9.4,1.1,20,17,,10.0,30.339567,1026.9,,TRUE,TRUE,,,,,,,OVC,4300,,,,,,,VFR,2.2,16.7,9.4,21.7,8.3,,,,,,,METAR,576.0
MUSC 120551Z 25004KT 9000 NSC 10/08 Q1017,MUSC,2015-02-12T05:51:00Z,22.5,-79.95,10.0,8.0,250,4,,5.59,30.029528,,,,,,,,,,,,,,,,,,,,,,,,,,,,,,,METAR,103.0
MUVR 120551Z 17003KT 9000 NSC 09/07 Q1017,MUVR,2015-02-12T05:51:00Z,23.03,-81.43,9.0,7.0,170,3,,5.59,30.029528,,,,,,,,,,,,,,,,,,,,,,,,,,,,,,,METAR,65.0
KRGK 120551Z AUTO 33008G16KT 302V002 10SM CLR M16/M21 A3043 RMK AO2,KRGK,2015-02-12T05:51:00Z,44.58,-92.48,-16.0,-21.0,330,8,16,10.0,30.431103,,,TRUE,TRUE,,,,,,,CLR,,,,,,,,VFR,,,,,,,,,,,,METAR,239.0
KGDP 120551Z AUTO 04040G46KT 10SM OVC011 01/M01 A3030 RMK AO2 PK WND 04046/0538 SLP236 60000 T00111006 10033 20011 58004,KGDP,2015-02-12T05:51:00Z,31.83,-104.82,1.1,-0.6,40,40,46,10.0,30.301182,1023.6,,TRUE,TRUE,,,,,,,OVC,1100,,,,,,,MVFR,-0.4,3.3,1.1,,,,,0.0050,,,,METAR,1692.0
KFFX 120551Z AUTO 32009KT 10SM -SN SCT022 SCT035 OVC046 M07/M10 A3000 RMK AO2 T10731103,KFFX,2015-02-12T05:51:00Z,43.43,-86.0,-7.3,-10.3,320,9,,10.0,30.0,,,TRUE,TRUE,,,,,,-SN,SCT,2200,SCT,3500,OVC,4600,,,VFR,,,,,,,,,,,,METAR,236.0
KEWR 120551Z 22005KT 10SM BKN080 OVC110 M03/M07 A2992 RMK AO2 SLP131 4/006 T10281072 11011 21033 58010,KEWR,2015-02-12T05:51:00Z,40.68,-74.17,-2.8,-7.2,220,5,,10.0,29.920275,1013.1,,,TRUE,,,,,,,BKN,8000,OVC,11000,,,,,VFR,-1.0,-1.1,-3.3,,,,,,,6.0,,METAR,7.0
KERI 120551Z 28011G16KT 1 3/4SM -SN BR OVC005 M02/M04 A2985 RMK AO2 SLP116 P0001 60005 T10221039 10000 21022 53000,KERI,2015-02-12T05:51:00Z,42.08,-80.18,-2.2,-3.9,280,11,16,1.75,29.84941,1011.6,,,TRUE,,,,,,-SN BR,OVC,500,,,,,,,IFR,0.0,0.0,-2.2,,,0.01,,0.05,,,,METAR,222.0
KCON 120551Z AUTO 00000KT 10SM CLR M17/M19 A2991 RMK AO2 SLP137 T11671189 11072 21172 56017,KCON,2015-02-12T05:51:00Z,43.2,-71.5,-16.7,-18.9,0,0,,10.0,29.911417,1013.7,,TRUE,TRUE,,,,,,,CLR,,,,,,,,VFR,-1.7,-7.2,-17.2,,,,,,,,,METAR,103.0
KJKJ 120551Z AUTO 36012KT 10SM OVC005 M22/M23 A3066 RMK AO2,KJKJ,2015-02-12T05:51:00Z,46.83,-96.67,-22.0,-23.0,360,12,,10.0,30.661417,,,TRUE,TRUE,,,,,,,OVC,500,,,,,,,IFR,,,,,,,,,,,,METAR,280.0
KEVM 120551Z AUTO 36006G16KT 330V030 7SM BKN011 BKN021 M19/M23 A3045 RMK AO2,KEVM,2015-02-12T05:51:00Z,47.42,-92.5,-19.0,-23.0,360,6,16,7.0,30.448818,,,TRUE,TRUE,,,,,,,BKN,1100,BKN,2100,,,,,MVFR,,,,,,,,,,,,METAR,421.0
LTCR 120550Z 12008KT 3000 BR BKN040 BKN100 06/02 Q1013,LTCR,2015-02-12T05:50:00Z,37.22,40.63,6.0,2.0,120,8,,1.86,29.911417,,,,,,,,,,BR,BKN,4000,BKN,10000,,,,,IFR,,,,,,,,,,,,METAR,527.0
LTFD 120550Z 06013KT 9999 SCT030 BKN090 02/M04 Q1021,LTFD,2015-02-12T05:50:00Z,39.55,27.02,2.0,-4.0,60,13,,6.21,30.147638,,,,,,,,,,,SCT,3000,BKN,9000,,,,,VFR,,,,,,,,,,,,METAR,16.0
LTFG 120550Z 10004KT 060V140 9999 FEW035 05/04 Q1010,LTFG,2015-02-12T05:50:00Z,36.3,32.3,5.0,4.0,100,4,,6.21,29.822834,,,,,,,,,,,FEW,3500,,,,,,,VFR,,,,,,,,,,,,METAR,95.0
LTAG 120550Z 35008KT 9999 -SHRA BKN030 BKN100 09/06 Q1012 NOSIG,LTAG,2015-02-12T05:50:00Z,37.0,35.42,9.0,6.0,350,8,,6.21,29.88189,,,,,,TRUE,,,,-SHRA,BKN,3000,BKN,10000,,,,,MVFR,,,,,,,,,,,,METAR,66.0
LTFE 120550Z 04010KT CAVOK 05/M03 Q1013 NOSIG,LTFE,2015-02-12T05:50:00Z,37.25,27.67,5.0,-3.0,40,10,,6.21,29.911417,,,,,,TRUE,,,,,CAVOK,,,,,,,,VFR,,,,,,,,,,,,METAR,6.0
LTFC 120550Z 32014KT 9999 SCT035 BKN100 M02/M05 Q1012,LTFC,2015-02-12T05:50:00Z,37.87,30.38,-2.0,-5.0,320,14,,6.21,29.88189,,,,,,,,,,,SCT,3500,BKN,10000,,,,,VFR,,,,,,,,,,,,METAR,864.0
LTCS 120550Z 16006KT 4000 -RA BR SCT005 BKN025 02/02 Q1013,LTCS,2015-02-12T05:50:00Z,37.45,38.9,2.0,2.0,160,6,,2.49,29.911417,,,,,,,,,,-RA BR,SCT,500,BKN,2500,,,,,IFR,,,,,,,,,,,,METAR,825.0
ESGG 120550Z 22013KT 8000 -DZ OVC004 01/00 Q1018 R21/19//95,ESGG,2015-02-12T05:50:00Z,57.67,12.3,1.0,0.0,220,13,,4.97,30.059055,,,,,,,,,,-DZ,OVC,400,,,,,,,LIFR,,,,,,,,,,,,METAR,169.0
EKBI 120550Z AUTO 21006KT 9000NDV OVC012/// 02/00 Q1021,EKBI,2015-02-12T05:50:00Z,55.72,9.15,2.0,0.0,210,6,,,30.147638,,,TRUE,,,,,,,,,,,,,,,,,,,,,,,,,,,,METAR,66.0
EDSB 120550Z 18002KT 0400 R21/0325V0500N FZFG VV/// M02/M02 Q1023,EDSB,2015-02-12T05:50:00Z,48.78,8.08,-2.0,-2.0,180,2,,0.25,30.206694,,,,,,,,,,FZFG,OVX,0,,,,,,,LIFR,,,,,,,,,,,,METAR,124.0
EDMO 120550Z 18003KT 0750 R22/0900V1300U FZFG VV/// M04/M05 Q1022 RMK ATIS Y,EDMO,2015-02-12T05:50:00Z,48.07,11.27,-4.0,-5.0,180,3,,0.47,30.177166,,,,,,,,,,FZFG,OVX,0,,,,,,,LIFR,,,,,,,,,,,,METAR,600.0
EDMA 120550Z 12004KT 080V170 0750 R07/P2000N FZFG OVC001 M02/M02 Q1023 RMK ATIS BRA,EDMA,2015-02-12T05:50:00Z,48.42,10.92,-2.0,-2.0,120,4,,0.47,30.206694,,,,,,,,,,FZFG,OVC,100,,,,,,,LIFR,,,,,,,,,,,,METAR,463.0
EDHI 120550Z VRB03KT 7000 OVC007 02/01 Q1022,EDHI,2015-02-12T05:50:00Z,53.53,9.83,2.0,1.0,0,3,,4.35,30.177166,,,,,,,,,,,OVC,700,,,,,,,IFR,,,,,,,,,,,,METAR,13.0
EDFH 120550Z 14012KT 0150 R21/0400N FZFG VV/// M01/M01 Q1020,EDFH,2015-02-12T05:50:00Z,49.95,7.27,-1.0,-1.0,140,12,,0.09,30.11811,,,,,,,,,,FZFG,OVX,0,,,,,,,LIFR,,,,,,,,,,,,METAR,498.0
EDDV 120550Z VRB02KT 2500 1400E R09L/P2000N R09R/P2000N BCFG BR FEW004 M03/M03 Q1022 TEMPO 0800 FZFG BKN003,EDDV,2015-02-12T05:50:00Z,52.47,9.68,-3.0,-3.0,0,2,,1.55,30.177166,,,,,,,,,,BCFG BR,FEW,400,,,,,,,IFR,,,,,,,,,,,,METAR,54.0
EDDS 120550Z VRB01KT 3500 BCFG BR NSC M04/M04 Q1022 NOSIG,EDDS,2015-02-12T05:50:00Z,48.67,9.22,-4.0,-4.0,0,1,,2.17,30.177166,,,,,,TRUE,,,,BCFG BR,,,,,,,,,,,,,,,,,,,,,METAR,419.0
EDDR 120550Z 09008KT 0200 R27/0650N FZFG VV/// M01/M01 Q1021 NOSIG,EDDR,2015-02-12T05:50:00Z,49.22,7.1,-1.0,-1.0,90,8,,0.12,30.147638,,,,,,TRUE,,,,FZFG,OVX,0,,,,,,,LIFR,,,,,,,,,,,,METAR,320.0
EDDN 120550Z 12007KT 090V150 6000 OVC004 M01/M02 Q1023 NOSIG,EDDN,2015-02-12T05:50:00Z,49.5,11.08,-1.0,-2.0,120,7,,3.73,30.206694,,,,,,TRUE,,,,,OVC,400,,,,,,,LIFR,,,,,,,,,,,,METAR,312.0
EDDM 120550Z 15006KT 0800 R08L/P2000N R08R/2000N FZFG OVC001 M02/M02 Q1023 NOSIG,EDDM,2015-02-12T05:50:00Z,48.35,11.82,-2.0,-2.0,150,6,,0.5,30.206694,,,,,,TRUE,,,,FZFG,OVC,100,,,,,,,LIFR,,,,,,,,,,,,METAR,447.0
EDDG 120550Z 13003KT 5000 BR FEW002 BKN003 M01/M01 Q1022 NOSIG,EDDG,2015-02-12T05:50:00Z,52.13,7.7,-1.0,-1.0,130,3,,3.11,30.177166,,,,,,TRUE,,,,BR,FEW,200,BKN,300,,,,,LIFR,,,,,,,,,,,,METAR,52.0
EDDE 120550Z 27004KT 0700 R28/P2000N FZFG BKN002 M03/M03 Q1022 TEMPO 0300 FZFG BKN001,EDDE,2015-02-12T05:50:00Z,50.98,10.97,-3.0,-3.0,270,4,,0.43,30.177166,,,,,,,,,,FZFG,BKN,200,,,,,,,LIFR,,,,,,,,,,,,METAR,323.0
EDDC 120550Z 15009KT 5000 BR NSC M01/M02 Q1022 TEMPO 4000 BR,EDDC,2015-02-12T05:50:00Z,51.13,13.75,-1.0,-2.0,150,9,,3.11,30.177166,,,,,,,,,,BR,,,,,,,,,,,,,,,,,,,,,METAR,226.0
PKMR 120550Z 08007KT 15SM FEW016 OVC300 29/24 A2975 RMK SLP075 8/108 T02850241 10307 20285 53005,PKMR,2015-02-12T05:50:00Z,7.08,171.38,28.5,24.1,80,7,,15.0,29.749016,1007.5,,,,,,,,,,FEW,1600,OVC,30000,,,,,VFR,0.5,30.7,28.5,,,,,,,,,METAR,4.0
EVVA 120550Z AUTO 22014KT 7000 OVC005 02/02 Q1020,EVVA,2015-02-12T05:50:00Z,57.35,21.55,2.0,2.0,220,14,,4.35,30.11811,,,TRUE,,,,,,,,OVC,500,,,,,,,IFR,,,,,,,,,,,,METAR,6.0
EKSP 120550Z 22005KT 9999 OVC009 02/M00 Q1022 NOSIG,EKSP,2015-02-12T05:50:00Z,55.22,9.27,2.0,0.0,220,5,,6.21,30.177166,,,,,,TRUE,,,,,OVC,900,,,,,,,IFR,,,,,,,,,,,,METAR,40.0
EKKA 120550Z 21005KT 6000 -DZ OVC011 03/02 Q1020,EKKA,2015-02-12T05:50:00Z,56.3,9.12,3.0,2.0,210,5,,3.73,30.11811,,,,,,,,,,-DZ,OVC,1100,,,,,,,MVFR,,,,,,,,,,,,METAR,52.0
KMHR 120550Z 00000KT 10SM BKN150 10/09 A3020,KMHR,2015-02-12T05:50:00Z,38.53,-121.28,10.0,9.0,0,0,,10.0,30.200787,,,,,,,,,,,BKN,15000,,,,,,,VFR,,,,,,,,,,,,METAR,29.0
KDAG 120550Z AUTO 16005KT 10SM CLR 13/M07 A3025 RMK AO2 SLP233 T01281067 10222 20128 51009,KDAG,2015-02-12T05:50:00Z,34.85,-116.78,12.8,-6.7,160,5,,10.0,30.250984,1023.3,,TRUE,TRUE,,,,,,,CLR,,,,,,,,VFR,0.9,22.2,12.8,,,,,,,,,METAR,587.0
LSZA 120550Z 35004KT CAVOK M02/M03 Q1024 NOSIG,LSZA,2015-02-12T05:50:00Z,46.0,8.92,-2.0,-3.0,350,4,,6.21,30.236221,,,,,,TRUE,,,,,CAVOK,,,,,,,,VFR,,,,,,,,,,,,METAR,276.0
LSZB 120550Z VRB01KT 0050 R14/0200N FZFG VV001 M05/M06 Q1022 NOSIG,LSZB,2015-02-12T05:50:00Z,46.92,7.5,-5.0,-6.0,0,1,,0.03,30.177166,,,,,,TRUE,,,,FZFG,OVX,0,,,,,,,LIFR,,,,,,,,,,,100,METAR,505.0
LSGG 120550Z VRB01KT 6000 MIFG NSC M04/M05 Q1023 TEMPO 5000 BR,LSGG,2015-02-12T05:50:00Z,46.25,6.12,-4.0,-5.0,0,1,,3.73,30.206694,,,,,,,,,,MIFG,,,,,,,,,,,,,,,,,,,,,METAR,416.0
LSZH 120550Z 05003KT 020V080 0500 R14/0900D R16/0750N R28/0750N R34/0550N -SN FZFG VV002 M04/M04 Q1023 NOSIG,LSZH,2015-02-12T05:50:00Z,47.48,8.53,-4.0,-4.0,50,3,,0.31,30.206694,,,,,,TRUE,,,,FZFG -SN,OVX,0,,,,,,,LIFR,,,,,,,,,,,200,METAR,432.0
EYSA 120550Z 22011KT 4600 -FZDZ BR OVC003 M01/M01 Q1023 R14L/29//95 R14R/29//95,EYSA,2015-02-12T05:50:00Z,55.9,23.4,-1.0,-1.0,220,11,,2.86,30.206694,,,,,,,,,,-FZDZ BR,OVC,300,,,,,,,LIFR,,,,,,,,,,,,METAR,135.0
EYVI 120550Z 21010KT 1900 -FZDZ BR OVC001 M01/M01 Q1025 R20/2///95 TEMPO 0800 FZDZ FZFG,EYVI,2015-02-12T05:50:00Z,54.63,25.28,-1.0,-1.0,210,10,,1.18,30.265747,,,,,,,,,,-FZDZ BR,OVC,100,,,,,,,LIFR,,,,,,,,,,,,METAR,197.0
FHAW 120550Z 12014KT 9999 SCT016 BKN040 25/22 Q1015 WHT TEMPO FEW016 BLU,FHAW,2015-02-12T05:50:00Z,-7.97,-14.4,25.0,22.0,120,14,,6.21,29.970472,,,,,,,,,,,SCT,1600,BKN,4000,,,,,VFR,,,,,,,,,,,,METAR,79.0
KEGE 120550Z 00000KT 10SM SKC M02/M06 A3046,KEGE,2015-02-12T05:50:00Z,39.63,-106.92,-2.0,-6.0,0,0,,10.0,30.46063,,,,,,,,,,,SKC,,,,,,,,VFR,,,,,,,,,,,,METAR,1993.0
PTKR 120550Z 11006KT 15SM FEW018 SCT340 31/22 A2978 RMK SLP085 8/201 T03100222 10317 20289 57025,PTKR,2015-02-12T05:50:00Z,7.33,134.48,31.0,22.2,110,6,,15.0,29.778543,1008.5,,,,,,,,,,FEW,1800,SCT,34000,,,,,VFR,-2.5,31.7,28.9,,,,,,,,,METAR,30.0
PGRO 120550Z 36016KT 7SM SCT150 28/20 A2983,PGRO,2015-02-12T05:50:00Z,14.18,145.25,28.0,20.0,360,16,,7.0,29.828741,,,,,,,,,,,SCT,15000,,,,,,,VFR,,,,,,,,,,,,METAR,185.0
EYPA 120550Z 23009KT 190V280 9999 OVC006 02/01 Q1023 R19/1///95,EYPA,2015-02-12T05:50:00Z,55.97,21.08,2.0,1.0,230,9,,6.21,30.206694,,,,,,,,,,,OVC,600,,,,,,,IFR,,,,,,,,,,,,METAR,10.0
EETN 120550Z 23018KT 9999 OVC007 01/00 Q1014 R08/19//95 NOSIG,EETN,2015-02-12T05:50:00Z,59.4,24.82,1.0,0.0,230,18,,6.21,29.940945,,,,,,TRUE,,,,,OVC,700,,,,,,,IFR,,,,,,,,,,,,METAR,40.0
EYKA 120550Z 22009KT 170V240 9999 OVC004 M00/M02 Q1025 R08/290095,EYKA,2015-02-12T05:50:00Z,54.97,24.08,0.0,-2.0,220,9,,6.21,30.265747,,,,,,,,,,,OVC,400,,,,,,,LIFR,,,,,,,,,,,,METAR,77.0
EKVG 120550Z AUTO 02002KT 7000NDV -SN FEW009/// SCT012/// OVC026/// M00/M01 Q1013 RMK FEW009/// SCT017/// WIND 850FT 30009KT,EKVG,2015-02-12T05:50:00Z,62.07,-7.3,0.0,-1.0,20,2,,,29.911417,,,TRUE,,,,,,,-SN,,,,,,,,,,,,,,,,,,,,,METAR,85.0
EVRA 120550Z 22009KT 190V260 9999 OVC007 01/01 Q1021 R18/190095 NOSIG,EVRA,2015-02-12T05:50:00Z,56.92,23.97,1.0,1.0,220,9,,6.21,30.147638,,,,,,TRUE,,,,,OVC,700,,,,,,,IFR,,,,,,,,,,,,METAR,10.0
VECC 120550Z 12005KT 3200 HZ NSC 26/10 Q1015 NOSIG,VECC,2015-02-12T05:50:00Z,22.65,88.43,26.0,10.0,120,5,,1.99,29.970472,,,,,,TRUE,,,,HZ,,,,,,,,,,,,,,,,,,,,,METAR,6.0
EDVK 120550Z 19004KT 150V220 3700 BR VV003 M01/M02 Q1022 RMK ATIS C,EDVK,2015-02-12T05:50:00Z,51.38,9.37,-1.0,-2.0,190,4,,2.3,30.177166,,,,,,,,,,BR,OVX,0,,,,,,,LIFR,,,,,,,,,,,300,METAR,285.0
EDVE 120550Z 10004KT 0250 R26/0550N FZFG VV/// M01/M01 Q1022,EDVE,2015-02-12T05:50:00Z,52.32,10.55,-1.0,-1.0,100,4,,0.16,30.177166,,,,,,,,,,FZFG,OVX,0,,,,,,,LIFR,,,,,,,,,,,,METAR,88.0
EDOP 120550Z 16003KT 130V200 7000 OVC007 01/M00 Q1023,EDOP,2015-02-12T05:50:00Z,53.43,11.78,1.0,0.0,160,3,,4.35,30.206694,,,,,,,,,,,OVC,700,,,,,,,IFR,,,,,,,,,,,,METAR,51.0
EDNY 120550Z 05005KT 0550 R24/1200V1900N FZFG VV/// M04/M05 Q1023 RMK ATIS C,EDNY,2015-02-12T05:50:00Z,47.67,9.52,-4.0,-5.0,50,5,,0.34,30.206694,,,,,,,,,,FZFG,OVX,0,,,,,,,LIFR,,,,,,,,,,,,METAR,424.0
EDLW 120550Z VRB03KT 9999 BKN009 M01/M02 Q1022 RMK ATIS D,EDLW,2015-02-12T05:50:00Z,51.52,7.62,-1.0,-2.0,0,3,,6.21,30.177166,,,,,,,,,,,BKN,900,,,,,,,IFR,,,,,,,,,,,,METAR,127.0
EDLP 120550Z VRB02KT CAVOK M04/M04 Q1022 RMK ATIS FOX,EDLP,2015-02-12T05:50:00Z,51.62,8.62,-4.0,-4.0,0,2,,6.21,30.177166,,,,,,,,,,,CAVOK,,,,,,,,VFR,,,,,,,,,,,,METAR,213.0
EDHL 120550Z 21004KT 9999 BKN006 02/01 Q1023 RMK ATIS ALF,EDHL,2015-02-12T05:50:00Z,53.8,10.72,2.0,1.0,210,4,,6.21,30.206694,,,,,,,,,,,BKN,600,,,,,,,IFR,,,,,,,,,,,,METAR,16.0
MSSS 120550Z 00000KT 9999 FEW040 20/18 Q1015 A2999,MSSS,2015-02-12T05:50:00Z,13.7,-89.12,20.0,18.0,0,0,,6.21,29.970472,,,,,,,,,,,FEW,4000,,,,,,,VFR,,,,,,,,,,,,METAR,616.0
MSLP 120550Z 36003KT CAVOK 21/19 Q1012 A2989,MSLP,2015-02-12T05:50:00Z,13.43,-89.05,21.0,19.0,360,3,,6.21,29.88189,,,,,,,,,,,CAVOK,,,,,,,,VFR,,,,,,,,,,,,METAR,25.0
PTRO 120550Z 07008G15KT 15SM SCT016TCU SCT120 BKN300 30/23 A2980 RMK TCU VC W,PTRO,2015-02-12T05:50:00Z,7.37,134.55,30.0,23.0,70,8,15,15.0,29.799213,,,,,,,,,,,SCT,1600,SCT,12000,BKN,30000,,,VFR,,,,,,,,,,,,METAR,54.0
LATI 120550Z VRB03KT CAVOK M03/M07 Q1024 NOSIG,LATI,2015-02-12T05:50:00Z,41.42,19.72,-3.0,-7.0,0,3,,6.21,30.236221,,,,,,TRUE,,,,,CAVOK,,,,,,,,VFR,,,,,,,,,,,,METAR,90.0
ESGJ 120550Z 25014KT 9999 BKN007 01/M00 Q1018 R19/19//70,ESGJ,2015-02-12T05:50:00Z,57.77,14.07,1.0,0.0,250,14,,6.21,30.059055,,,,,,,,,,,BKN,700,,,,,,,IFR,,,,,,,,,,,,METAR,232.0
EGYM 120550Z 31001KT 5000 HZ OVC023 02/00 Q1020 WHT,EGYM,2015-02-12T05:50:00Z,52.63,0.57,2.0,0.0,310,1,,3.11,30.11811,,,,,,,,,,HZ,OVC,2300,,,,,,,MVFR,,,,,,,,,,,,METAR,23.0
EGXW 120550Z 25003KT 7000 HZ OVC021 03/M01 Q1020 WHT,EGXW,2015-02-12T05:50:00Z,53.18,-0.52,3.0,-1.0,250,3,,4.35,30.11811,,,,,,,,,,HZ,OVC,2100,,,,,,,MVFR,,,,,,,,,,,,METAR,70.0
EGXV 120550Z AUTO 02002KT //// OVC027/// 03/01 Q1020,EGXV,2015-02-12T05:50:00Z,53.87,-0.45,3.0,1.0,20,2,,,30.11811,,,TRUE,,,,,,,,,,,,,,,,,,,,,,,,,,,,METAR,6.0
EGXU 120550Z 10002KT 4000 HZ FEW025 OVC038 02/00 Q1020 GRN,EGXU,2015-02-12T05:50:00Z,54.05,-1.25,2.0,0.0,100,2,,2.49,30.11811,,,,,,,,,,HZ,FEW,2500,OVC,3800,,,,,IFR,,,,,,,,,,,,METAR,16.0
EGXE 120550Z 14004KT 3800 -DZ FEW027 OVC038 02/01 Q1019 GRN,EGXE,2015-02-12T05:50:00Z,54.28,-1.52,2.0,1.0,140,4,,2.36,30.088583,,,,,,,,,,-DZ,FEW,2700,OVC,3800,,,,,IFR,,,,,,,,,,,,METAR,40.0
EGXD 120550Z 14002KT 3700 BR OVC040 01/01 Q1020 GRN,EGXD,2015-02-12T05:50:00Z,54.13,-1.42,1.0,1.0,140,2,,2.3,30.11811,,,,,,,,,,BR,OVC,4000,,,,,,,IFR,,,,,,,,,,,,METAR,35.0
EGXC 120550Z 01001KT 5000 HZ OVC023 03/01 Q1020 WHT,EGXC,2015-02-12T05:50:00Z,53.1,-0.17,3.0,1.0,10,1,,3.11,30.11811,,,,,,,,,,HZ,OVC,2300,,,,,,,MVFR,,,,,,,,,,,,METAR,7.0
EGVO 120550Z 02002KT 9999 OVC020 03/M01 Q1020 WHT,EGVO,2015-02-12T05:50:00Z,51.23,-0.95,3.0,-1.0,20,2,,6.21,30.11811,,,,,,,,,,,OVC,2000,,,,,,,MVFR,,,,,,,,,,,,METAR,123.0
EGUW 120550Z 03003KT 7000 HZ OVC015 02/M00 Q1020 WHT TEMPO OVC012 GRN,EGUW,2015-02-12T05:50:00Z,52.12,0.97,2.0,0.0,30,3,,4.35,30.11811,,,,,,,,,,HZ,OVC,1500,,,,,,,MVFR,,,,,,,,,,,,METAR,87.0
EGUB 120550Z 07001KT 6000 HZ OVC022 03/01 Q1020 WHT,EGUB,2015-02-12T05:50:00Z,51.62,-1.07,3.0,1.0,70,1,,3.73,30.11811,,,,,,,,,,HZ,OVC,2200,,,,,,,MVFR,,,,,,,,,,,,METAR,63.0
EGQS 120550Z 19007KT 9999 FEW035 03/01 Q1014 BLU,EGQS,2015-02-12T05:50:00Z,57.72,-3.32,3.0,1.0,190,7,,6.21,29.940945,,,,,,,,,,,FEW,3500,,,,,,,VFR,,,,,,,,,,,,METAR,13.0
EGQM 120550Z AUTO 24009KT 9999 OVC042/// 04/02 Q1018,EGQM,2015-02-12T05:50:00Z,55.42,-1.6,4.0,2.0,240,9,,6.21,30.059055,,,TRUE,,,,,,,,,,,,,,,,,,,,,,,,,,,,METAR,23.0
EGQL 120550Z 27010KT 4500 BR SKC 02/01 Q1016 GRN,EGQL,2015-02-12T05:50:00Z,56.38,-2.87,2.0,1.0,270,10,,2.8,30.0,,,,,,,,,,BR,SKC,,,,,,,,IFR,,,,,,,,,,,,METAR,12.0
EGDY 120550Z 13001KT 7000 HZ OVC029 03/01 Q1020 WHT,EGDY,2015-02-12T05:50:00Z,51.0,-2.62,3.0,1.0,130,1,,4.35,30.11811,,,,,,,,,,HZ,OVC,2900,,,,,,,MVFR,,,,,,,,,,,,METAR,23.0
EGDR 120550Z 10006KT 9999 FEW018 SCT020 OVC035 06/03 Q1018 WHT,EGDR,2015-02-12T05:50:00Z,50.08,-5.25,6.0,3.0,100,6,,6.21,30.059055,,,,,,,,,,,FEW,1800,SCT,2000,OVC,3500,,,VFR,,,,,,,,,,,,METAR,82.0
LTCJ 120550Z 03005KT 2000 DU SCT025 OVC080 05/03 Q1013,LTCJ,2015-02-12T05:50:00Z,37.93,41.12,5.0,3.0,30,5,,1.24,29.911417,,,,,,,,,,DU,SCT,2500,OVC,8000,,,,,IFR,,,,,,,,,,,,METAR,540.0
LTCE 120550Z VRB01KT 3200 BR SCT030 BKN080 M08/M08 Q1012 BECMG 9999 NSW,LTCE,2015-02-12T05:50:00Z,39.95,41.17,-8.0,-8.0,0,1,,1.99,29.88189,,,,,,,,,,BR,SCT,3000,BKN,8000,,,,,IFR,,,,,,,,,,,,METAR,1758.0
LTCC 120550Z 03004KT 360V090 5000 BR SCT040 BKN100 04/03 Q1013 NOSIG,LTCC,2015-02-12T05:50:00Z,37.87,40.2,4.0,3.0,30,4,,3.11,29.911417,,,,,,TRUE,,,,BR,SCT,4000,BKN,10000,,,,,MVFR,,,,,,,,,,,,METAR,677.0
LTBU 120550Z 34019KT 9999 BKN025 BKN090 M01/M04 Q1022,LTBU,2015-02-12T05:50:00Z,41.12,27.92,-1.0,-4.0,340,19,,6.21,30.177166,,,,,,,,,,,BKN,2500,BKN,9000,,,,,MVFR,,,,,,,,,,,,METAR,173.0
LTBQ 120550Z 34001KT 1500 R27/P1500D R09/P1500D -SHSNRA BR SCT010 BKN016 OVC070 02/02 Q1020 BECMG 6000,LTBQ,2015-02-12T05:50:00Z,40.72,30.07,2.0,2.0,340,1,,0.93,30.11811,,,,,,,,,,-SHSN RA BR,SCT,1000,BKN,1600,OVC,7000,,,LIFR,,,,,,,,,,,,METAR,50.0
LTBF 120550Z 36016KT 6000 -SHSN SCT015 BKN030 OVC090 01/M01 Q1021 NOSIG,LTBF,2015-02-12T05:50:00Z,39.62,27.92,1.0,-1.0,360,16,,3.73,30.147638,,,,,,TRUE,,,,-SHSN,SCT,1500,BKN,3000,OVC,9000,,,MVFR,,,,,,,,,,,,METAR,102.0
LTAU 120550Z 00000KT 9999 SCT040 BKN100 00/M01 Q1011 NOSIG,LTAU,2015-02-12T05:50:00Z,38.77,35.47,0.0,-1.0,0,0,,6.21,29.852362,,,,,,TRUE,,,,,SCT,4000,BKN,10000,,,,,VFR,,,,,,,,,,,,METAR,1054.0
LTAT 120550Z 20004KT 6000 -SN SCT012 BKN033 OVC090 01/01 Q1012 NOSIG,LTAT,2015-02-12T05:50:00Z,38.42,38.07,1.0,1.0,200,4,,3.73,29.88189,,,,,,TRUE,,,,-SN,SCT,1200,BKN,3300,OVC,9000,,,MVFR,,,,,,,,,,,,METAR,849.0
LLSD 120550Z /////KT 8000 SCT020 BKN030 10/02 Q1016 RMK RERA,LLSD,2015-02-12T05:50:00Z,32.12,34.78,10.0,2.0,,,,4.97,30.0,,,,,,,,,,,SCT,2000,BKN,3000,,,,,MVFR,,,,,,,,,,,,METAR,14.0
LLIB 120550Z 18006KT 140V200 1200 -RA BR SCT005 BKN012 06/05 Q1016,LLIB,2015-02-12T05:50:00Z,32.98,35.57,6.0,5.0,180,6,,0.75,30.0,,,,,,,,,,-RA BR,SCT,500,BKN,1200,,,,,LIFR,,,,,,,,,,,,METAR,282.0
LLHA 120550Z 14005KT 9999 SCT025 09/07 Q1015 RMK RERA SCT100,LLHA,2015-02-12T05:50:00Z,32.78,35.02,9.0,7.0,140,5,,6.21,29.970472,,,,,,,,,,,SCT,2500,,,,,,,VFR,,,,,,,,,,,,METAR,8.0
LLET 120550Z 27009KT 6000 NSC 14/M05 Q1021,LLET,2015-02-12T05:50:00Z,29.55,34.95,14.0,-5.0,270,9,,3.73,30.147638,,,,,,,,,,,,,,,,,,,,,,,,,,,,,,,METAR,13.0
EKRN 120550Z AUTO 24010KT 200V260 9000NDV OVC004/// 00/M00 Q1023,EKRN,2015-02-12T05:50:00Z,55.07,14.75,0.0,0.0,240,10,,,30.206694,,,TRUE,,,,,,,,,,,,,,,,,,,,,,,,,,,,METAR,16.0
EKEB 120550Z AUTO 18003KT 9000NDV OVC014/// 03/01 Q1021,EKEB,2015-02-12T05:50:00Z,55.52,8.55,3.0,1.0,180,3,,,30.147638,,,TRUE,,,,,,,,,,,,,,,,,,,,,,,,,,,,METAR,29.0
EKAH 120550Z AUTO 24004KT 200V290 9999NDV OVC012/// 03/M01 Q1021,EKAH,2015-02-12T05:50:00Z,56.28,10.62,3.0,-1.0,240,4,,,30.147638,,,TRUE,,,,,,,,,,,,,,,,,,,,,,,,,,,,METAR,25.0
EKRK 120550Z AUTO 22006KT 6000NDV BKN008/// BKN010/// 01/00 Q1022,EKRK,2015-02-12T05:50:00Z,55.57,12.12,1.0,0.0,220,6,,,30.177166,,,TRUE,,,,,,,,,,,,,,,,,,,,,,,,,,,,METAR,44.0
EKYT 120550Z 21010KT 8000 -DZ SCT008 OVC018 04/03 Q1019,EKYT,2015-02-12T05:50:00Z,57.1,9.87,4.0,3.0,210,10,,4.97,30.088583,,,,,,,,,,-DZ,SCT,800,OVC,1800,,,,,MVFR,,,,,,,,,,,,METAR,3.0
EKCH 120550Z 24006KT 210V270 9999 BKN010 01/M01 Q1022 NOSIG,EKCH,2015-02-12T05:50:00Z,55.62,12.67,1.0,-1.0,240,6,,6.21,30.177166,,,,,,TRUE,,,,,BKN,1000,,,,,,,MVFR,,,,,,,,,,,,METAR,5.0
EDDW 120550Z 00000KT 5000 BKN008 02/00 Q1022 TEMPO 3000 BR BKN004,EDDW,2015-02-12T05:50:00Z,53.03,8.8,2.0,0.0,0,0,,3.11,30.177166,,,,,,,,,,,BKN,800,,,,,,,IFR,,,,,,,,,,,,METAR,5.0
EDDP 120550Z 17005KT 0500 R08R/0650N R26R/1200VP2000D FZFG BKN001 M02/M02 Q1023 TEMPO 0300 FZFG,EDDP,2015-02-12T05:50:00Z,51.43,12.23,-2.0,-2.0,170,5,,0.31,30.206694,,,,,,,,,,FZFG,BKN,100,,,,,,,LIFR,,,,,,,,,,,,METAR,149.0
EDDB 120550Z 14006KT 9999 OVC011 02/00 Q1023 BECMG 4500 BR SCT012,EDDB,2015-02-12T05:50:00Z,52.38,13.53,2.0,0.0,140,6,,6.21,30.206694,,,,,,,,,,,OVC,1100,,,,,,,MVFR,,,,,,,,,,,,METAR,48.0
EDDT 120550Z 15005KT 9999 OVC010 02/M00 Q1023 BECMG BKN009,EDDT,2015-02-12T05:50:00Z,52.57,13.32,2.0,0.0,150,5,,6.21,30.206694,,,,,,,,,,,OVC,1000,,,,,,,MVFR,,,,,,,,,,,,METAR,37.0
EDDL 120550Z 15010KT 9999 BKN010 02/M00 Q1022 NOSIG,EDDL,2015-02-12T05:50:00Z,51.3,6.77,2.0,0.0,150,10,,6.21,30.177166,,,,,,TRUE,,,,,BKN,1000,,,,,,,MVFR,,,,,,,,,,,,METAR,44.0
EDDK 120550Z 14006KT 9000 OVC011 02/M00 Q1022 NOSIG,EDDK,2015-02-12T05:50:00Z,50.87,7.15,2.0,0.0,140,6,,5.59,30.177166,,,,,,TRUE,,,,,OVC,1100,,,,,,,MVFR,,,,,,,,,,,,METAR,99.0
EDDH 120550Z 16006KT 120V190 7000 OVC007 02/01 Q1022 NOSIG,EDDH,2015-02-12T05:50:00Z,53.63,10.0,2.0,1.0,160,6,,4.35,30.177166,,,,,,TRUE,,,,,OVC,700,,,,,,,IFR,,,,,,,,,,,,METAR,16.0
EDDF 120550Z 11003KT 070V140 8000 OVC007 01/M00 Q1023 NOSIG,EDDF,2015-02-12T05:50:00Z,50.05,8.6,1.0,0.0,110,3,,4.97,30.206694,,,,,,TRUE,,,,,OVC,700,,,,,,,IFR,,,,,,,,,,,,METAR,113.0
LLBG 120550Z 18013KT 6000 -RA BKN035 09/01 Q1018 NOSIG,LLBG,2015-02-12T05:50:00Z,32.0,34.88,9.0,1.0,180,13,,3.73,30.059055,,,,,,TRUE,,,,-RA,BKN,3500,,,,,,,MVFR,,,,,,,,,,,,METAR,49.0
EKVD 120550Z AUTO 22006KT //// ///////// 02/00 Q1022,EKVD,2015-02-12T05:50:00Z,55.42,9.32,2.0,0.0,220,6,,,30.177166,,,TRUE,,,,,,,,,,,,,,,,,,,,,,,,,,,,METAR,45.0
EKSB 120550Z 19003KT 6000 BKN010 02/M00 Q1022,EKSB,2015-02-12T05:50:00Z,54.97,9.8,2.0,0.0,190,3,,3.73,30.177166,,,,,,,,,,,BKN,1000,,,,,,,MVFR,,,,,,,,,,,,METAR,23.0
BGKK 120550Z AUTO 08018G28KT //// OVC032/// M15/M19 Q1009,BGKK,2015-02-12T05:50:00Z,65.57,-37.13,-15.0,-19.0,80,18,28,,29.793306,,,TRUE,,,,,,,,,,,,,,,,,,,,,,,,,,,,METAR,34.0
BGJN 120550Z AUTO 16004KT 9999NDV SCT023/// M23/M27 Q1004,BGJN,2015-02-12T05:50:00Z,69.25,-51.07,-23.0,-27.0,160,4,,,29.64567,,,TRUE,,,,,,,,,,,,,,,,,,,,,,,,,,,,METAR,25.0
BGSF 120550Z AUTO 05008KT 9999NDV SCT140/// M29/M33 Q1005,BGSF,2015-02-12T05:50:00Z,67.0,-50.72,-29.0,-33.0,50,8,,,29.675198,,,TRUE,,,,,,,,,,,,,,,,,,,,,,,,,,,,METAR,53.0
ESTL 120550Z AUTO 27005KT 220V300 9999NDV OVC010/// 02/M00 Q1022,ESTL,2015-02-12T05:50:00Z,56.07,13.2,2.0,0.0,270,5,,,30.177166,,,TRUE,,,,,,,,,,,,,,,,,,,,,,,,,,,,METAR,43.0
ESTA 120550Z 23007KT 9999 OVC012 02/M00 Q1021,ESTA,2015-02-12T05:50:00Z,56.28,12.83,2.0,0.0,230,7,,6.21,30.147638,,,,,,,,,,,OVC,1200,,,,,,,MVFR,,,,,,,,,,,,METAR,47.0
ESMX 120550Z 26009KT 220V290 9999 OVC008 01/M00 Q1019,ESMX,2015-02-12T05:50:00Z,56.92,14.72,1.0,0.0,260,9,,6.21,30.088583,,,,,,,,,,,OVC,800,,,,,,,IFR,,,,,,,,,,,,METAR,186.0
ESMT 120550Z 25008KT 9999 OVC015 02/M00 Q1021,ESMT,2015-02-12T05:50:00Z,56.67,12.82,2.0,0.0,250,8,,6.21,30.147638,,,,,,,,,,,OVC,1500,,,,,,,MVFR,,,,,,,,,,,,METAR,30.0
ESMS 120550Z 24006KT 7000 BR OVC006 01/M01 Q1022 R17/19//95,ESMS,2015-02-12T05:50:00Z,55.53,13.37,1.0,-1.0,240,6,,4.35,30.177166,,,,,,,,,,BR,OVC,600,,,,,,,IFR,,,,,,,,,,,,METAR,106.0
ESMQ 120550Z 24008KT 9999 OVC010 01/M00 Q1020,ESMQ,2015-02-12T05:50:00Z,56.68,16.3,1.0,0.0,240,8,,6.21,30.11811,,,,,,,,,,,OVC,1000,,,,,,,MVFR,,,,,,,,,,,,METAR,16.0
ESMK 120550Z 26006KT 9999 BKN011 02/M00 Q1021,ESMK,2015-02-12T05:50:00Z,55.92,14.07,2.0,0.0,260,6,,6.21,30.147638,,,,,,,,,,,BKN,1100,,,,,,,MVFR,,,,,,,,,,,,METAR,23.0
ESGP 120550Z 22009KT 8000 BR SCT006 BKN008 OVC019 03/02 Q1019 R19/19//95,ESGP,2015-02-12T05:50:00Z,57.77,11.87,3.0,2.0,220,9,,4.97,30.088583,,,,,,,,,,BR,SCT,600,BKN,800,OVC,1900,,,IFR,,,,,,,,,,,,METAR,53.0
EGPU 120550Z AUTO 21010KT 170V230 9999 FEW024/// SCT029/// BKN044/// 07/06 Q1015,EGPU,2015-02-12T05:50:00Z,56.5,-6.87,7.0,6.0,210,10,,6.21,29.970472,,,TRUE,,,,,,,,,,,,,,,,,,,,,,,,,,,,SPECI,12.0
EGPI 120550Z AUTO 13007KT 6000 NCD 05/04 Q1017,EGPI,2015-02-12T05:50:00Z,55.68,-6.25,5.0,4.0,130,7,,3.73,30.029528,,,TRUE,,,,,,,,,,,,,,,,,,,,,,,,,,,,METAR,18.0
EGTE 120550Z VRB01KT 9999 BKN032 03/01 Q1020,EGTE,2015-02-12T05:50:00Z,50.72,-3.42,3.0,1.0,0,1,,6.21,30.11811,,,,,,,,,,,BKN,3200,,,,,,,VFR,,,,,,,,,,,,METAR,30.0
OAMS 120550Z 06011KT 9000 FEW010 BKN050 BKN100 14/12 Q1020 BLU WHT TEMPO BLU,OAMS,2015-02-12T05:50:00Z,36.7,67.2,14.0,12.0,60,11,,5.59,30.11811,,,,,,,,,,,FEW,1000,BKN,5000,BKN,10000,,,VFR,,,,,,,,,,,,METAR,378.0
ESSL 120550Z 26011KT 9999 OVC012 02/M00 Q1017 R29/09//95,ESSL,2015-02-12T05:50:00Z,58.38,15.67,2.0,0.0,260,11,,6.21,30.029528,,,,,,,,,,,OVC,1200,,,,,,,MVFR,,,,,,,,,,,,METAR,52.0
ESPE 120550Z 28014KT CAVOK 03/M02 Q0993,ESPE,2015-02-12T05:50:00Z,65.88,20.15,3.0,-2.0,280,14,,6.21,29.320866,,,,,,,,,,,CAVOK,,,,,,,,VFR,,,,,,,,,,,,METAR,182.0
ESPA 120550Z 27008KT 9999 SCT036 05/M01 Q0993,ESPA,2015-02-12T05:50:00Z,65.53,22.12,5.0,-1.0,270,8,,6.21,29.320866,,,,,,,,,,,SCT,3600,,,,,,,VFR,,,,,,,,,,,,METAR,34.0
ESIB 120550Z 24014KT 9999 -DZ FEW007 BKN011 03/02 Q1017,ESIB,2015-02-12T05:50:00Z,58.42,12.68,3.0,2.0,240,14,,6.21,30.029528,,,,,,,,,,-DZ,FEW,700,BKN,1100,,,,,MVFR,,,,,,,,,,,,METAR,74.0
ESDF 120550Z 25005KT 9999 OVC010 01/M01 Q1021,ESDF,2015-02-12T05:50:00Z,56.27,15.27,1.0,-1.0,250,5,,6.21,30.147638,,,,,,,,,,,OVC,1000,,,,,,,MVFR,,,,,,,,,,,,METAR,74.0
ESCF 120550Z 25012KT 9999 OVC012 02/01 Q1017,ESCF,2015-02-12T05:50:00Z,58.38,15.52,2.0,1.0,250,12,,6.21,30.029528,,,,,,,,,,,OVC,1200,,,,,,,MVFR,,,,,,,,,,,,METAR,117.0
ESUT 120550Z AUTO 30013KT 2100 -SN FEW015/// SCT032/// BKN064/// M03/M03 Q0997,ESUT,2015-02-12T05:50:00Z,65.8,15.08,-3.0,-3.0,300,13,,1.3,29.438976,,,TRUE,,,,,,,-SN,,,,,,,,,,,,,,,,,,,,,METAR,463.0
ESNZ 120550Z 23006KT CAVOK 03/M06 Q1002,ESNZ,2015-02-12T05:50:00Z,63.17,14.5,3.0,-6.0,230,6,,6.21,29.586615,,,,,,,,,,,CAVOK,,,,,,,,VFR,,,,,,,,,,,,METAR,370.0
ESNU 120550Z 21012KT CAVOK 02/M03 Q1000 R14/71//70,ESNU,2015-02-12T05:50:00Z,63.78,20.27,2.0,-3.0,210,12,,6.21,29.52756,,,,,,,,,,,CAVOK,,,,,,,,VFR,,,,,,,,,,,,METAR,14.0
ESNS 120550Z 23014KT CAVOK 05/M01 Q0996,ESNS,2015-02-12T05:50:00Z,64.62,21.07,5.0,-1.0,230,14,,6.21,29.409449,,,,,,,,,,,CAVOK,,,,,,,,VFR,,,,,,,,,,,,METAR,49.0
ESNQ 120550Z 24016KT CAVOK M04/M08 Q0986,ESNQ,2015-02-12T05:50:00Z,67.82,20.32,-4.0,-8.0,240,16,,6.21,29.114174,,,,,,,,,,,CAVOK,,,,,,,,VFR,,,,,,,,,,,,METAR,452.0
ESNO 120550Z 22010KT CAVOK 01/M04 Q1001,ESNO,2015-02-12T05:50:00Z,63.38,18.97,1.0,-4.0,220,10,,6.21,29.557087,,,,,,,,,,,CAVOK,,,,,,,,VFR,,,,,,,,,,,,METAR,103.0
ESNN 120550Z 00000KT CAVOK M06/M07 Q1005 R16/39//72,ESNN,2015-02-12T05:50:00Z,62.52,17.43,-6.0,-7.0,0,0,,6.21,29.675198,,,,,,,,,,,CAVOK,,,,,,,,VFR,,,,,,,,,,,,METAR,10.0
ESNK 120550Z VRB02KT CAVOK M05/M05 Q1003,ESNK,2015-02-12T05:50:00Z,63.03,17.77,-5.0,-5.0,0,2,,6.21,29.616142,,,,,,,,,,,CAVOK,,,,,,,,VFR,,,,,,,,,,,,METAR,19.0
ESNG 120550Z 28014KT 9999 FEW050 M03/M07 Q0989,ESNG,2015-02-12T05:50:00Z,67.13,20.82,-3.0,-7.0,280,14,,6.21,29.202755,,,,,,,,,,,FEW,5000,,,,,,,VFR,,,,,,,,,,,,METAR,310.0
ESUD 120550Z AUTO 26015KT 9999 NCD 04/M02 Q0996,ESUD,2015-02-12T05:50:00Z,64.97,17.7,4.0,-2.0,260,15,,6.21,29.409449,,,TRUE,,,,,,,,,,,,,,,,,,,,,,,,,,,,METAR,279.0
ESNX 120550Z 27011KT 9999 SCT019 01/M02 Q0993,ESNX,2015-02-12T05:50:00Z,65.58,19.28,1.0,-2.0,270,11,,6.21,29.320866,,,,,,,,,,,SCT,1900,,,,,,,VFR,,,,,,,,,,,,METAR,379.0
ESNL 120550Z 26008KT 230V310 CAVOK 04/M03 Q0997,ESNL,2015-02-12T05:50:00Z,64.55,18.72,4.0,-3.0,260,8,,6.21,29.438976,,,,,,,,,,,CAVOK,,,,,,,,VFR,,,,,,,,,,,,METAR,214.0
ESGR 120550Z AUTO 21008KT 190V250 9999 OVC012/// 03/00 Q1017,ESGR,2015-02-12T05:50:00Z,58.45,13.97,3.0,0.0,210,8,,6.21,30.029528,,,TRUE,,,,,,,,,,,,,,,,,,,,,,,,,,,,METAR,105.0
ESSV 120550Z 25013KT 9999 BKN008 01/01 Q1018 R21/19//61,ESSV,2015-02-12T05:50:00Z,57.67,18.35,1.0,1.0,250,13,,6.21,30.059055,,,,,,,,,,,BKN,800,,,,,,,IFR,,,,,,,,,,,,METAR,47.0
ESSP 120550Z 25013KT 9999 BKN013 02/00 Q1017 R27/190095,ESSP,2015-02-12T05:50:00Z,58.57,16.25,2.0,0.0,250,13,,6.21,30.029528,,,,,,,,,,,BKN,1300,,,,,,,MVFR,,,,,,,,,,,,METAR,8.0
ESSD 120550Z 24013KT 9999 BKN015 02/M01 Q1011,ESSD,2015-02-12T05:50:00Z,60.42,15.5,2.0,-1.0,240,13,,6.21,29.852362,,,,,,,,,,,BKN,1500,,,,,,,MVFR,,,,,,,,,,,,METAR,161.0
ESSB 120550Z 25014KT 9999 BKN012 02/M00 Q1014 R30/19//73,ESSB,2015-02-12T05:50:00Z,59.35,17.93,2.0,0.0,250,14,,6.21,29.940945,,,,,,,,,,,BKN,1200,,,,,,,MVFR,,,,,,,,,,,,METAR,11.0
ESSA 120550Z 25020KT 9999 BKN011 02/00 Q1013 R01L/19//63 R08/19//67 R01R/19//54 NOSIG,ESSA,2015-02-12T05:50:00Z,59.63,17.93,2.0,0.0,250,20,,6.21,29.911417,,,,,,TRUE,,,,,BKN,1100,,,,,,,MVFR,,,,,,,,,,,,METAR,61.0
ESOW 120550Z 24013KT 9999 OVC012 03/M00 Q1014 R19/210195,ESOW,2015-02-12T05:50:00Z,59.57,16.62,3.0,0.0,240,13,,6.21,29.940945,,,,,,,,,,,OVC,1200,,,,,,,MVFR,,,,,,,,,,,,METAR,31.0
ESOK 120550Z 24010KT 9999 OVC014 03/01 Q1014,ESOK,2015-02-12T05:50:00Z,59.45,13.33,3.0,1.0,240,10,,6.21,29.940945,,,,,,,,,,,OVC,1400,,,,,,,MVFR,,,,,,,,,,,,METAR,107.0
ESOE 120550Z 23012KT 9999 BKN013 03/01 Q1015,ESOE,2015-02-12T05:50:00Z,59.22,15.05,3.0,1.0,230,12,,6.21,29.970472,,,,,,,,,,,BKN,1300,,,,,,,MVFR,,,,,,,,,,,,METAR,57.0
ESKN 120550Z 28015KT 9999 BKN014 02/M00 Q1015 R26/09//95,ESKN,2015-02-12T05:50:00Z,58.78,16.9,2.0,0.0,280,15,,6.21,29.970472,,,,,,,,,,,BKN,1400,,,,,,,MVFR,,,,,,,,,,,,METAR,43.0
LSMS 120550Z VRB02KT CAVOK M03/M04 Q1023 RMK GRN,LSMS,2015-02-12T05:50:00Z,46.22,7.32,-3.0,-4.0,0,2,,6.21,30.206694,,,,,,,,,,,CAVOK,,,,,,,,VFR,,,,,,,,,,,,METAR,481.0
LSMP 120550Z 19003KT 170V230 3600 BR OVC001 M03/M04 Q1023 RMK RED,LSMP,2015-02-12T05:50:00Z,46.82,6.92,-3.0,-4.0,190,3,,2.24,30.206694,,,,,,,,,,BR,OVC,100,,,,,,,LIFR,,,,,,,,,,,,METAR,491.0
LSME 120550Z 00000KT 0200 R04/0325N R22/0225N FZFG BKN002 M03/M03 Q1023 RMK RED,LSME,2015-02-12T05:50:00Z,47.1,8.3,-3.0,-3.0,0,0,,0.12,30.206694,,,,,,,,,,FZFG,BKN,200,,,,,,,LIFR,,,,,,,,,,,,METAR,427.0
LSMD 120550Z 00000KT 0300 R11/0325N R29/0325N FZFG VV000 M04/M05 Q1023 RMK RED,LSMD,2015-02-12T05:50:00Z,47.4,8.65,-4.0,-5.0,0,0,,0.19,30.206694,,,,,,,,,,FZFG,OVX,0,,,,,,,LIFR,,,,,,,,,,,0,METAR,448.0
LSMA 120550Z AUTO 19003KT 1900NDV R01/0750V1800U R19/1500VP2000D BR BKN001 M04/M05 Q1023 RMK RED,LSMA,2015-02-12T05:50:00Z,46.95,8.28,-4.0,-5.0,190,3,,,30.206694,,,TRUE,,,,,,,BR,BKN,100,,,,,,,,,,,,,,,,,,,METAR,444.0
EGMC 120550Z 00000KT 9999 OVC019 03/M00 Q1021,EGMC,2015-02-12T05:50:00Z,51.57,0.7,3.0,0.0,0,0,,6.21,30.147638,,,,,,,,,,,OVC,1900,,,,,,,MVFR,,,,,,,,,,,,METAR,15.0
EGHH 120550Z 04003KT 9999 OVC025 03/01 Q1021,EGHH,2015-02-12T05:50:00Z,50.78,-1.83,3.0,1.0,40,3,,6.21,30.147638,,,,,,,,,,,OVC,2500,,,,,,,MVFR,,,,,,,,,,,,METAR,11.0
EFVA 120550Z AUTO 21009KT 180V240 CAVOK 01/M01 Q1003 R16/29//95,EFVA,2015-02-12T05:50:00Z,63.03,21.77,1.0,-1.0,210,9,,6.21,29.616142,,,TRUE,,,,,,,,CAVOK,,,,,,,,VFR,,,,,,,,,,,,METAR,4.0
EFTU 120550Z AUTO 26009KT 220V280 9999 OVC009/// 01/M00 Q1011,EFTU,2015-02-12T05:50:00Z,60.52,22.27,1.0,0.0,260,9,,6.21,29.852362,,,TRUE,,,,,,,,,,,,,,,,,,,,,,,,,,,,METAR,59.0
EFTP 120550Z AUTO 24013KT 9999 SCT009 OVC011 01/00 Q1009,EFTP,2015-02-12T05:50:00Z,61.42,23.62,1.0,0.0,240,13,,6.21,29.793306,,,TRUE,,,,,,,,SCT,900,OVC,1100,,,,,MVFR,,,,,,,,,,,,METAR,112.0
EFRO 120550Z 22012KT 9999 FEW025 BKN032 01/M01 Q0989,EFRO,2015-02-12T05:50:00Z,66.57,25.82,1.0,-1.0,220,12,,6.21,29.202755,,,,,,,,,,,FEW,2500,BKN,3200,,,,,VFR,,,,,,,,,,,,METAR,201.0
EFOU 120550Z AUTO 24016KT 9999 OVC100/// 04/M02 Q0995 R12/19//95,EFOU,2015-02-12T05:50:00Z,64.92,25.37,4.0,-2.0,240,16,,6.21,29.379921,,,TRUE,,,,,,,,,,,,,,,,,,,,,,,,,,,,METAR,15.0
EFKU 120550Z AUTO 22013KT 9999 BKN010 M01/M03 Q1002,EFKU,2015-02-12T05:50:00Z,63.02,27.8,-1.0,-3.0,220,13,,6.21,29.586615,,,TRUE,,,,,,,,BKN,1000,,,,,,,MVFR,,,,,,,,,,,,METAR,102.0
EFJY 120550Z AUTO 23008KT 200V270 9999 OVC009 00/M01 Q1005,EFJY,2015-02-12T05:50:00Z,62.4,25.68,0.0,-1.0,230,8,,6.21,29.675198,,,TRUE,,,,,,,,OVC,900,,,,,,,IFR,,,,,,,,,,,,METAR,145.0
EFHK 120550Z 23016KT 9999 BKN011 02/M01 Q1011 NOSIG,EFHK,2015-02-12T05:50:00Z,60.32,24.97,2.0,-1.0,230,16,,6.21,29.852362,,,,,,TRUE,,,,,BKN,1100,,,,,,,MVFR,,,,,,,,,,,,METAR,56.0
EGSH 120550Z VRB02KT 6000 HZ BKN018 03/01 Q1021 TEMPO 7000 NSW,EGSH,2015-02-12T05:50:00Z,52.68,1.28,3.0,1.0,0,2,,3.73,30.147638,,,,,,,,,,HZ,BKN,1800,,,,,,,MVFR,,,,,,,,,,,,METAR,36.0
EGCN 120550Z 21004KT 170V240 9999 BKN025 04/01 Q1021,EGCN,2015-02-12T05:50:00Z,53.48,-1.0,4.0,1.0,210,4,,6.21,30.147638,,,,,,,,,,,BKN,2500,,,,,,,MVFR,,,,,,,,,,,,METAR,17.0
EGLL 120550Z 36004KT 330V040 8000 OVC022 04/00 Q1021 NOSIG,EGLL,2015-02-12T05:50:00Z,51.48,-0.45,4.0,0.0,360,4,,4.97,30.147638,,,,,,TRUE,,,,,OVC,2200,,,,,,,MVFR,,,,,,,,,,,,METAR,24.0
EGCC 120550Z 00000KT 9000 BKN030 OVC036 03/00 Q1019 NOSIG,EGCC,2015-02-12T05:50:00Z,53.35,-2.27,3.0,0.0,0,0,,5.59,30.088583,,,,,,TRUE,,,,,BKN,3000,OVC,3600,,,,,MVFR,,,,,,,,,,,,METAR,78.0
EGSS 120550Z VRB03KT 9000 OVC018 02/M01 Q1020,EGSS,2015-02-12T05:50:00Z,51.88,0.22,2.0,-1.0,0,3,,5.59,30.11811,,,,,,,,,,,OVC,1800,,,,,,,MVFR,,,,,,,,,,,,METAR,106.0
EGPK 120550Z 12002KT 9999 BKN046 04/02 Q1018,EGPK,2015-02-12T05:50:00Z,55.5,-4.57,4.0,2.0,120,2,,6.21,30.059055,,,,,,,,,,,BKN,4600,,,,,,,VFR,,,,,,,,,,,,METAR,20.0
EGPH 120550Z 26007KT 9999 SCT037 02/00 Q1017,EGPH,2015-02-12T05:50:00Z,55.95,-3.35,2.0,0.0,260,7,,6.21,30.029528,,,,,,,,,,,SCT,3700,,,,,,,VFR,,,,,,,,,,,,METAR,41.0
EGPF 120550Z AUTO VRB02KT 9999 BKN017 05/02 Q1017,EGPF,2015-02-12T05:50:00Z,55.87,-4.42,5.0,2.0,0,2,,6.21,30.029528,,,TRUE,,,,,,,,BKN,1700,,,,,,,MVFR,,,,,,,,,,,,METAR,8.0
EGKK 120550Z 08003KT 6000 BKN018 03/00 Q1020,EGKK,2015-02-12T05:50:00Z,51.13,-0.17,3.0,0.0,80,3,,3.73,30.11811,,,,,,,,,,,BKN,1800,,,,,,,MVFR,,,,,,,,,,,,METAR,62.0
EGBB 120550Z 00000KT 9999 OVC025 04/M01 Q1020,EGBB,2015-02-12T05:50:00Z,52.47,-1.75,4.0,-1.0,0,0,,6.21,30.11811,,,,,,,,,,,OVC,2500,,,,,,,MVFR,,,,,,,,,,,,METAR,99.0
EGPD 120550Z VRB02KT CAVOK M01/M03 Q1016 NOSIG,EGPD,2015-02-12T05:50:00Z,57.2,-2.22,-1.0,-3.0,0,2,,6.21,30.0,,,,,,TRUE,,,,,CAVOK,,,,,,,,VFR,,,,,,,,,,,,METAR,65.0
EGNX 120550Z 22004KT 9999 BKN022 03/M00 Q1020,EGNX,2015-02-12T05:50:00Z,52.82,-1.32,3.0,0.0,220,4,,6.21,30.11811,,,,,,,,,,,BKN,2200,,,,,,,MVFR,,,,,,,,,,,,METAR,94.0
EGNM 120550Z VRB03KT 9999 BKN033 02/01 Q1019,EGNM,2015-02-12T05:50:00Z,53.87,-1.63,2.0,1.0,0,3,,6.21,30.088583,,,,,,,,,,,BKN,3300,,,,,,,VFR,,,,,,,,,,,,METAR,208.0
EGLC 120550Z AUTO VRB03KT 9000 OVC020/// 04/M00 Q1021,EGLC,2015-02-12T05:50:00Z,51.5,0.05,4.0,0.0,0,3,,5.59,30.147638,,,TRUE,,,,,,,,,,,,,,,,,,,,,,,,,,,,METAR,5.0
EGGW 120550Z 00000KT 9999 OVC017 02/M00 Q1020,EGGW,2015-02-12T05:50:00Z,51.87,-0.37,2.0,0.0,0,0,,6.21,30.11811,,,,,,,,,,,OVC,1700,,,,,,,MVFR,,,,,,,,,,,,METAR,160.0
EGFF 120550Z AUTO 10006KT 9999 OVC029 04/01 Q1020,EGFF,2015-02-12T05:50:00Z,51.38,-3.35,4.0,1.0,100,6,,6.21,30.11811,,,TRUE,,,,,,,,OVC,2900,,,,,,,MVFR,,,,,,,,,,,,METAR,67.0
EGAA 120550Z 18006KT 9999 FEW040 BKN048 05/03 Q1017,EGAA,2015-02-12T05:50:00Z,54.63,-6.22,5.0,3.0,180,6,,6.21,30.029528,,,,,,,,,,,FEW,4000,BKN,4800,,,,,VFR,,,,,,,,,,,,METAR,81.0
EGJJ 120550Z 10008KT 6000 BKN020 02/01 Q1020 TEMPO 3000 BR,EGJJ,2015-02-12T05:50:00Z,49.22,-2.2,2.0,1.0,100,8,,3.73,30.11811,,,,,,,,,,,BKN,2000,,,,,,,MVFR,,,,,,,,,,,,METAR,84.0
EGJB 120550Z 07004KT 9999 BKN018 04/02 Q1020,EGJB,2015-02-12T05:50:00Z,49.42,-2.6,4.0,2.0,70,4,,6.21,30.11811,,,,,,,,,,,BKN,1800,,,,,,,MVFR,,,,,,,,,,,,METAR,102.0
EGNJ 120550Z AUTO 18006KT 4200 HZ OVC027/// 03/01 Q1020,EGNJ,2015-02-12T05:50:00Z,53.57,-0.35,3.0,1.0,180,6,,2.61,30.11811,,,TRUE,,,,,,,HZ,,,,,,,,,,,,,,,,,,,,,METAR,31.0
EGPO 120550Z 30004KT 7000 -DZ FEW006 BKN013 06/04 Q1013,EGPO,2015-02-12T05:50:00Z,58.22,-6.32,6.0,4.0,300,4,,4.35,29.911417,,,,,,,,,,-DZ,FEW,600,BKN,1300,,,,,MVFR,,,,,,,,,,,,METAR,13.0
EGPM 120550Z AUTO 02015KT 9999 OVC009/// 03/02 Q1012,EGPM,2015-02-12T05:50:00Z,60.42,-1.3,3.0,2.0,20,15,,6.21,29.88189,,,TRUE,,,,,,,,,,,,,,,,,,,,,,,,,,,,METAR,22.0
EGPL 120550Z AUTO 21009KT 9999 OVC041/// 07/07 Q1013,EGPL,2015-02-12T05:50:00Z,57.47,-7.37,7.0,7.0,210,9,,6.21,29.911417,,,TRUE,,,,,,,,,,,,,,,,,,,,,,,,,,,,METAR,6.0
EGPC 120550Z AUTO 20010KT 170V230 9999 SCT041/// 04/02 Q1013,EGPC,2015-02-12T05:50:00Z,58.45,-3.07,4.0,2.0,200,10,,6.21,29.911417,,,TRUE,,,,,,,,,,,,,,,,,,,,,,,,,,,,METAR,39.0
EGPA 120550Z AUTO 21011KT 9999 BKN018/// 07/05 Q1012,EGPA,2015-02-12T05:50:00Z,58.95,-2.88,7.0,5.0,210,11,,6.21,29.88189,,,TRUE,,,,,,,,,,,,,,,,,,,,,,,,,,,,METAR,21.0
LSZL 120550Z 07001KT CAVOK M01/M02 Q1024 RMK BLU,LSZL,2015-02-12T05:50:00Z,46.17,8.88,-1.0,-2.0,70,1,,6.21,30.236221,,,,,,,,,,,CAVOK,,,,,,,,VFR,,,,,,,,,,,,METAR,600.0
LSZC 120550Z AUTO 22003KT 0100 FZFG VV001 M02/M03 Q1023,LSZC,2015-02-12T05:50:00Z,46.97,8.38,-2.0,-3.0,220,3,,0.06,30.206694,,,TRUE,,,,,,,FZFG,OVX,0,,,,,,,LIFR,,,,,,,,,,,100,METAR,450.0
LSZR 120550Z VRB02KT 0400 R10/1300D FZFG FEW001 M01/M01 Q1023 NOSIG RMK A,LSZR,2015-02-12T05:50:00Z,47.48,9.57,-1.0,-1.0,0,2,,0.25,30.206694,,,,,,TRUE,,,,FZFG,FEW,100,,,,,,,LIFR,,,,,,,,,,,,METAR,398.0
LSZG 120550Z AUTO 34001KT 0200 FZFG VV002 M05/M06 Q1023,LSZG,2015-02-12T05:50:00Z,47.17,7.42,-5.0,-6.0,340,1,,0.12,30.206694,,,TRUE,,,,,,,FZFG,OVX,0,,,,,,,LIFR,,,,,,,,,,,200,METAR,430.0
LSGC 120550Z AUTO VRB01KT CAVOK M07/M09 Q1020,LSGC,2015-02-12T05:50:00Z,47.08,6.8,-7.0,-9.0,0,1,,6.21,30.11811,,,TRUE,,,,,,,,CAVOK,,,,,,,,VFR,,,,,,,,,,,,METAR,1027.0
EGPB 120550Z AUTO 32006KT 230V030 5000 -RA BKN005/// 07/06 Q1011,EGPB,2015-02-12T05:50:00Z,59.87,-1.3,7.0,6.0,320,6,,3.11,29.852362,,,TRUE,,,,,,,-RA,,,,,,,,,,,,,,,,,,,,,METAR,5.0
EGNV 120550Z 20003KT 7000 SCT026 02/01 Q1019,EGNV,2015-02-12T05:50:00Z,54.52,-1.42,2.0,1.0,200,3,,4.35,30.088583,,,,,,,,,,,SCT,2600,,,,,,,MVFR,,,,,,,,,,,,METAR,37.0
EGNT 120550Z VRB02KT 9999 BKN022 03/02 Q1018,EGNT,2015-02-12T05:50:00Z,55.02,-1.7,3.0,2.0,0,2,,6.21,30.059055,,,,,,,,,,,BKN,2200,,,,,,,MVFR,,,,,,,,,,,,METAR,81.0
EGGP 120550Z VRB03KT 9999 OVC037 04/02 Q1019,EGGP,2015-02-12T05:50:00Z,53.32,-2.85,4.0,2.0,0,3,,6.21,30.088583,,,,,,,,,,,OVC,3700,,,,,,,VFR,,,,,,,,,,,,METAR,26.0
EGGD 120550Z 11004KT 9999 BKN025 02/M01 Q1020,EGGD,2015-02-12T05:50:00Z,51.37,-2.72,2.0,-1.0,110,4,,6.21,30.11811,,,,,,,,,,,BKN,2500,,,,,,,MVFR,,,,,,,,,,,,METAR,189.0
KEFD 120550Z 00000KT 1/4SM FG BKN003 13/13 A3016,KEFD,2015-02-12T05:50:00Z,29.6,-95.17,13.0,13.0,0,0,,0.25,30.159449,,,,,,,,,,FG,BKN,300,,,,,,,LIFR,,,,,,,,,,,,METAR,10.0
LGPA 120550Z 03014KT 9999 BKN030 06/00 Q1017,LGPA,2015-02-12T05:50:00Z,37.0,25.13,6.0,0.0,30,14,,6.21,30.029528,,,,,,,,,,,BKN,3000,,,,,,,MVFR,,,,,,,,,,,,METAR,36.0
LGSO 120550Z 34017G27KT 9999 SCT018 BKN025 06/01 Q1017,LGSO,2015-02-12T05:50:00Z,37.42,24.95,6.0,1.0,340,17,27,6.21,30.029528,,,,,,,,,,,SCT,1800,BKN,2500,,,,,MVFR,,,,,,,,,,,,METAR,72.0
LGMK 120550Z 35017G27KT 8000 SCT010 OVC020 05/M00 Q1016,LGMK,2015-02-12T05:50:00Z,37.43,25.35,5.0,0.0,350,17,27,4.97,30.0,,,,,,,,,,,SCT,1000,OVC,2000,,,,,MVFR,,,,,,,,,,,,METAR,123.0
LGKZ 120550Z 34009KT 310V010 9999 FEW070 M05/M10 Q1023,LGKZ,2015-02-12T05:50:00Z,40.28,21.83,-5.0,-10.0,340,9,,6.21,30.206694,,,,,,,,,,,FEW,7000,,,,,,,VFR,,,,,,,,,,,,METAR,628.0
LGKF 120550Z 00000KT 9999 FEW020 03/M07 Q1022,LGKF,2015-02-12T05:50:00Z,38.12,20.5,3.0,-7.0,0,0,,6.21,30.177166,,,,,,,,,,,FEW,2000,,,,,,,VFR,,,,,,,,,,,,METAR,18.0
LGKC 120550Z /////KT 9999 SCT018 02/M02 Q1020,LGKC,2015-02-12T05:50:00Z,36.28,23.02,2.0,-2.0,,,,6.21,30.11811,,,,,,,,,,,SCT,1800,,,,,,,VFR,,,,,,,,,,,,METAR,319.0
LGHI 120550Z 03023KT 9999 FEW018 BKN025 BKN080 06/01 Q1017,LGHI,2015-02-12T05:50:00Z,38.32,26.12,6.0,1.0,30,23,,6.21,30.029528,,,,,,,,,,,FEW,1800,BKN,2500,BKN,8000,,,MVFR,,,,,,,,,,,,METAR,4.0
LGBL 120550Z 29010KT 9999 FEW030 00/M05 Q1025,LGBL,2015-02-12T05:50:00Z,39.22,22.8,0.0,-5.0,290,10,,6.21,30.265747,,,,,,,,,,,FEW,3000,,,,,,,VFR,,,,,,,,,,,,METAR,26.0
LGTS 120550Z VRB03KT CAVOK M04/M07 Q1026 NOSIG,LGTS,2015-02-12T05:50:00Z,40.52,22.97,-4.0,-7.0,0,3,,6.21,30.295275,,,,,,TRUE,,,,,CAVOK,,,,,,,,VFR,,,,,,,,,,,,METAR,7.0
LGSM 120550Z 03015KT 9999 SCT025 05/M00 Q1015,LGSM,2015-02-12T05:50:00Z,37.68,26.92,5.0,0.0,30,15,,6.21,29.970472,,,,,,,,,,,SCT,2500,,,,,,,VFR,,,,,,,,,,,,METAR,6.0
LGSA 120550Z 33008KT 6000 -RA SCT010 FEW018TCU OVC020 02/01 Q1018 RETS,LGSA,2015-02-12T05:50:00Z,35.53,24.13,2.0,1.0,330,8,,3.73,30.059055,,,,,,,,,,-RA,SCT,1000,FEW,1800,OVC,2000,,,MVFR,,,,,,,,,,,,METAR,135.0
LGLM 120550Z 04012G22KT 9999 FEW010 BKN025 04/M03 Q1023,LGLM,2015-02-12T05:50:00Z,39.92,25.23,4.0,-3.0,40,12,22,6.21,30.206694,,,,,,,,,,,FEW,1000,BKN,2500,,,,,MVFR,,,,,,,,,,,,METAR,5.0
LTAP 120550Z 26003KT 5000 -SN FEW002 BKN032 OVC090 00/M00 Q1013 BECMG TL0650 9999 NSW,LTAP,2015-02-12T05:50:00Z,40.83,35.52,0.0,0.0,260,3,,3.11,29.911417,,,,,,,,,,-SN,FEW,200,BKN,3200,OVC,9000,,,MVFR,,,,,,,,,,,,METAR,535.0
LTAN 120550Z 18004KT 9999 -SN SCT030 BKN090 M01/M03 Q1012 NOSIG,LTAN,2015-02-12T05:50:00Z,37.97,32.53,-1.0,-3.0,180,4,,6.21,29.88189,,,,,,TRUE,,,,-SN,SCT,3000,BKN,9000,,,,,VFR,,,,,,,,,,,,METAR,1006.0
ENLA 120550Z AUTO 26012KT 9999NDV OVC025/// 06/03 Q1016 W///S4,ENLA,2015-02-12T05:50:00Z,59.1,2.83,6.0,3.0,260,12,,,30.0,,,TRUE,,,,,,,,,,,,,,,,,,,,,,,,,,,,METAR,4.0
MUCU 120550Z 36009KT 9000 FEW020 19/12 Q1014,MUCU,2015-02-12T05:50:00Z,19.97,-75.83,19.0,12.0,360,9,,5.59,29.940945,,,,,,,,,,,FEW,2000,,,,,,,VFR,,,,,,,,,,,,METAR,76.0
MUHG 120550Z 07002KT 9999 FEW020 14/11 Q1015,MUHG,2015-02-12T05:50:00Z,20.77,-76.32,14.0,11.0,70,2,,6.21,29.970472,,,,,,,,,,,FEW,2000,,,,,,,VFR,,,,,,,,,,,,METAR,106.0
MUCM 120550Z 35003KT 220V020 9000 SKC 15/09 Q1016,MUCM,2015-02-12T05:50:00Z,21.42,-77.85,15.0,9.0,350,3,,5.59,30.0,,,,,,,,,,,SKC,,,,,,,,VFR,,,,,,,,,,,,METAR,122.0
MUCC 120550Z VRB01KT 9000 FEW020 13/11 Q1015,MUCC,2015-02-12T05:50:00Z,22.47,-78.33,13.0,11.0,0,1,,5.59,29.970472,,,,,,,,,,,FEW,2000,,,,,,,VFR,,,,,,,,,,,,METAR,4.0
ENOV 120550Z VRB03KT 8000 RASN FEW005 BKN013 01/M00 Q1011 RMK WIND 2175FT 28019KT,ENOV,2015-02-12T05:50:00Z,62.17,6.07,1.0,0.0,0,3,,4.97,29.852362,,,,,,,,,,RA SN,FEW,500,BKN,1300,,,,,MVFR,,,,,,,,,,,,METAR,74.0
LTCU 120550Z 31003KT 270V360 1200 R12/P2000D -SN SCT006 BKN027 OVC080 00/M00 Q1014,LTCU,2015-02-12T05:50:00Z,38.87,40.58,0.0,0.0,310,3,,0.75,29.940945,,,,,,,,,,-SN,SCT,600,BKN,2700,OVC,8000,,,LIFR,,,,,,,,,,,,METAR,1061.0
KAQO 120550Z AUTO 02008KT 10SM BKN044 OVC050 13/04 A3030 RMK AO2,KAQO,2015-02-12T05:50:00Z,30.78,-98.67,13.0,4.0,20,8,,10.0,30.301182,,,TRUE,TRUE,,,,,,,BKN,4400,OVC,5000,,,,,VFR,,,,,,,,,,,,SPECI,336.0
OOMS 120550Z 00000KT 8000 NSC 26/15 Q1019 NOSIG,OOMS,2015-02-12T05:50:00Z,23.57,58.27,26.0,15.0,0,0,,4.97,30.088583,,,,,,TRUE,,,,,,,,,,,,,,,,,,,,,,,,,METAR,8.0
ENRS 120550Z 30036G48KT 9999 -SHSN FEW008 SCT025 BKN040 M00/M05 Q0996,ENRS,2015-02-12T05:50:00Z,67.52,12.08,0.0,-5.0,300,36,48,6.21,29.409449,,,,,,,,,,-SHSN,FEW,800,SCT,2500,BKN,4000,,,VFR,,,,,,,,,,,,METAR,4.0
VNKT 120550Z 14003KT 5000 HZ FEW020 SCT250 18/04 Q1019 NOSIG,VNKT,2015-02-12T05:50:00Z,27.68,85.37,18.0,4.0,140,3,,3.11,30.088583,,,,,,TRUE,,,,HZ,FEW,2000,SCT,25000,,,,,MVFR,,,,,,,,,,,,METAR,1337.0
VEPT 120550Z 27004KT 3000 HZ FEW020 SCT100 17/09 Q1016 NOSIG,VEPT,2015-02-12T05:50:00Z,25.6,85.08,17.0,9.0,270,4,,1.86,30.0,,,,,,TRUE,,,,HZ,FEW,2000,SCT,10000,,,,,IFR,,,,,,,,,,,,METAR,60.0
LTCP 120550Z 12005KT 7000 -RA FEW010 BKN030 OVC080 04/03 Q1013,LTCP,2015-02-12T05:50:00Z,37.73,38.47,4.0,3.0,120,5,,4.35,29.911417,,,,,,,,,,-RA,FEW,1000,BKN,3000,OVC,8000,,,MVFR,,,,,,,,,,,,METAR,676.0
LTCN 120550Z VRB01KT 6000 SCT030 OVC090 05/04 Q1013,LTCN,2015-02-12T05:50:00Z,37.53,36.95,5.0,4.0,0,1,,3.73,29.911417,,,,,,,,,,,SCT,3000,OVC,9000,,,,,MVFR,,,,,,,,,,,,METAR,526.0
LTCL 120550Z 13001KT 2000 BR SCT040 BKN100 05/03 Q1014,LTCL,2015-02-12T05:50:00Z,37.98,41.83,5.0,3.0,130,1,,1.24,29.940945,,,,,,,,,,BR,SCT,4000,BKN,10000,,,,,IFR,,,,,,,,,,,,METAR,610.0
LTCK 120550Z 32004KT 3500 BR SCT012 BKN030 OVC070 M00/M01 Q1013,LTCK,2015-02-12T05:50:00Z,38.75,41.67,0.0,-1.0,320,4,,2.17,29.911417,,,,,,,,,,BR,SCT,1200,BKN,3000,OVC,7000,,,IFR,,,,,,,,,,,,METAR,1266.0
LTBO 120550Z VRB02KT 9999 SCT040 BKN100 M03/M05 Q1013,LTBO,2015-02-12T05:50:00Z,38.67,29.47,-3.0,-5.0,0,2,,6.21,29.911417,,,,,,,,,,,SCT,4000,BKN,10000,,,,,VFR,,,,,,,,,,,,METAR,919.0
LTBH 120550Z 04009KT 9999 SCT035 BKN100 01/M04 Q1024,LTBH,2015-02-12T05:50:00Z,40.13,26.42,1.0,-4.0,40,9,,6.21,30.236221,,,,,,,,,,,SCT,3500,BKN,10000,,,,,VFR,,,,,,,,,,,,METAR,3.0
LCEN 120550Z 00000KT 9999 FEW025CB SCT030 05/04 Q1009 NOSIG,LCEN,2015-02-12T05:50:00Z,35.13,33.5,5.0,4.0,0,0,,6.21,29.793306,,,,,,TRUE,,,,,FEW,2500,SCT,3000,,,,,VFR,,,,,,,,,,,,METAR,91.0
LGKV 120550Z 00000KT 9999 BKN030 SCT080 M01/M04 Q1024,LGKV,2015-02-12T05:50:00Z,40.92,24.62,-1.0,-4.0,0,0,,6.21,30.236221,,,,,,,,,,,BKN,3000,SCT,8000,,,,,MVFR,,,,,,,,,,,,METAR,5.0
LTBS 120550Z 02006KT CAVOK 06/M02 Q1012 NOSIG,LTBS,2015-02-12T05:50:00Z,36.7,28.77,6.0,-2.0,20,6,,6.21,29.88189,,,,,,TRUE,,,,,CAVOK,,,,,,,,VFR,,,,,,,,,,,,METAR,2.0
LTBR 120550Z 24006KT 9999 FEW015 BKN025 BKN080 02/02 Q1019 NOSIG,LTBR,2015-02-12T05:50:00Z,40.25,29.57,2.0,2.0,240,6,,6.21,30.088583,,,,,,TRUE,,,,,FEW,1500,BKN,2500,BKN,8000,,,MVFR,,,,,,,,,,,,METAR,232.0
LTBJ 120550Z 36017KT 9999 SCT030 03/M02 Q1016 NOSIG,LTBJ,2015-02-12T05:50:00Z,38.28,27.15,3.0,-2.0,360,17,,6.21,30.0,,,,,,TRUE,,,,,SCT,3000,,,,,,,VFR,,,,,,,,,,,,METAR,120.0
LTBA 120550Z 34018KT 6000 -SHSNRA SCT009 BKN025 02/01 Q1021 NOSIG,LTBA,2015-02-12T05:50:00Z,40.97,28.82,2.0,1.0,340,18,,3.73,30.147638,,,,,,TRUE,,,,-SHSN -SHRA,SCT,900,BKN,2500,,,,,MVFR,,,,,,,,,,,,METAR,37.0
LTAZ 120550Z 06004KT 9999 FEW015 SCT035 BKN090 02/M01 Q1011,LTAZ,2015-02-12T05:50:00Z,38.77,34.55,2.0,-1.0,60,4,,6.21,29.852362,,,,,,,,,,,FEW,1500,SCT,3500,BKN,9000,,,VFR,,,,,,,,,,,,METAR,945.0
LTAJ 120550Z 00000KT 7000 SCT010 BKN025 OVC070 04/03 Q1013 TEMPO -SN BR BKN003 BKN012,LTAJ,2015-02-12T05:50:00Z,36.95,37.48,4.0,3.0,0,0,,4.35,29.911417,,,,,,,,,,,SCT,1000,BKN,2500,OVC,7000,,,MVFR,,,,,,,,,,,,METAR,855.0
LTAI 120550Z 32009KT CAVOK 06/M03 Q1012 NOSIG,LTAI,2015-02-12T05:50:00Z,36.9,30.8,6.0,-3.0,320,9,,6.21,29.88189,,,,,,TRUE,,,,,CAVOK,,,,,,,,VFR,,,,,,,,,,,,METAR,54.0
LTAF 120550Z 03007KT 9999 -SHRA SCT035 BKN100 09/06 Q1012 NOSIG,LTAF,2015-02-12T05:50:00Z,36.97,35.28,9.0,6.0,30,7,,6.21,29.88189,,,,,,TRUE,,,,-SHRA,SCT,3500,BKN,10000,,,,,VFR,,,,,,,,,,,,METAR,20.0
LTAC 120550Z 01008KT 9999 BKN030 OVC080 01/M03 Q1012 NOSIG,LTAC,2015-02-12T05:50:00Z,40.12,32.97,1.0,-3.0,10,8,,6.21,29.88189,,,,,,TRUE,,,,,BKN,3000,OVC,8000,,,,,MVFR,,,,,,,,,,,,METAR,949.0
LTFH 120550Z 20004KT 170V240 8000 -RA FEW015 BKN029 OVC080 05/05 Q1016 NOSIG,LTFH,2015-02-12T05:50:00Z,41.27,36.55,5.0,5.0,200,4,,4.97,30.0,,,,,,TRUE,,,,-RA,FEW,1500,BKN,2900,OVC,8000,,,MVFR,,,,,,,,,,,,METAR,5.0
LTDA 120550Z 34003KT 270V010 9999 BKN030 08/07 Q1014,LTDA,2015-02-12T05:50:00Z,36.37,36.28,8.0,7.0,340,3,,6.21,29.940945,,,,,,,,,,,BKN,3000,,,,,,,MVFR,,,,,,,,,,,,METAR,82.0
LTCI 120550Z 16012KT 6000 2900NE DU BKN030 BKN060 01/M08 Q1012 TEMPO 1400 BR,LTCI,2015-02-12T05:50:00Z,38.45,43.32,1.0,-8.0,160,12,,3.73,29.88189,,,,,,,,,,DU,BKN,3000,BKN,6000,,,,,MVFR,,,,,,,,,,,,METAR,1661.0
LTCF 120550Z 27005KT 230V290 9999 BKN025 OVC070 M05/M05 Q1013 RESN,LTCF,2015-02-12T05:50:00Z,40.57,43.12,-5.0,-5.0,270,5,,6.21,29.911417,,,,,,,,,,,BKN,2500,OVC,7000,,,,,MVFR,,,,,,,,,,,,METAR,1795.0
LTCD 120550Z 09003KT 050V140 9999 SCT036 BKN090 03/M01 Q1011 NOSIG,LTCD,2015-02-12T05:50:00Z,39.72,39.5,3.0,-1.0,90,3,,6.21,29.852362,,,,,,TRUE,,,,,SCT,3600,BKN,9000,,,,,VFR,,,,,,,,,,,,METAR,1215.0
LTCA 120550Z 07010KT 9999 FEW023 BKN033 BKN100 04/01 Q1012 NOSIG,LTCA,2015-02-12T05:50:00Z,38.6,39.27,4.0,1.0,70,10,,6.21,29.88189,,,,,,TRUE,,,,,FEW,2300,BKN,3300,BKN,10000,,,VFR,,,,,,,,,,,,METAR,882.0
LTBY 120550Z 36010KT 9999 FEW013 BKN035 BKN100 M00/M03 Q1015,LTBY,2015-02-12T05:50:00Z,39.82,30.52,0.0,-3.0,360,10,,6.21,29.970472,,,,,,,,,,,FEW,1300,BKN,3500,BKN,10000,,,VFR,,,,,,,,,,,,METAR,789.0
LTAY 120550Z 24005KT 9999 SCT030 BKN100 M04/M06 Q1014,LTAY,2015-02-12T05:50:00Z,37.77,29.68,-4.0,-6.0,240,5,,6.21,29.940945,,,,,,,,,,,SCT,3000,BKN,10000,,,,,VFR,,,,,,,,,,,,METAR,849.0
LTAR 120550Z 11005KT 0500 R01/0375U R19/0450U -SN FZFG BKN003 BKN030 OVC080 M01/M02 Q1010,LTAR,2015-02-12T05:50:00Z,39.8,36.9,-1.0,-2.0,110,5,,0.31,29.822834,,,,,,,,,,FZFG -SN,BKN,300,BKN,3000,OVC,8000,,,LIFR,,,,,,,,,,,,METAR,1271.0
LTFJ 120550Z 34011KT 9999 SCT009 BKN025 OVC080 04/03 Q1019 RERA NOSIG,LTFJ,2015-02-12T05:50:00Z,40.9,29.3,4.0,3.0,340,11,,6.21,30.088583,,,,,,TRUE,,,,,SCT,900,BKN,2500,OVC,8000,,,MVFR,,,,,,,,,,,,METAR,98.0
EBBR 120550Z 13004KT 2500 BR NSC M03/M04 Q1021 NOSIG,EBBR,2015-02-12T05:50:00Z,50.9,4.5,-3.0,-4.0,130,4,,1.55,30.147638,,,,,,TRUE,,,,BR,,,,,,,,,,,,,,,,,,,,,METAR,58.0
EBAW 120550Z 11002KT 2800 BR BKN017 01/M00 Q1021 NOSIG,EBAW,2015-02-12T05:50:00Z,51.2,4.47,1.0,0.0,110,2,,1.74,30.147638,,,,,,TRUE,,,,BR,BKN,1700,,,,,,,IFR,,,,,,,,,,,,METAR,14.0
LOXZ 120550Z 19002KT 2500 FZDZ BR SCT003ST OVC010ST M01/M02 Q1025 RMK OVC,LOXZ,2015-02-12T05:50:00Z,47.2,14.75,-1.0,-2.0,190,2,,1.55,30.265747,,,,,,,,,,FZDZ BR,,,,,,,,,,,,,,,,,,,,,METAR,682.0
LOWK 120550Z VRB01KT 9999 FEW012 BKN014 00/M01 Q1026 R10L/19//95 TEMPO BKN015,LOWK,2015-02-12T05:50:00Z,46.65,14.32,0.0,-1.0,0,1,,6.21,30.295275,,,,,,,,,,,FEW,1200,BKN,1400,,,,,MVFR,,,,,,,,,,,,METAR,441.0
LOWG 120550Z 00000KT 6000 FEW009 BKN016 01/M00 Q1026 R17L/19//95 TEMPO BKN012,LOWG,2015-02-12T05:50:00Z,47.0,15.42,1.0,0.0,0,0,,3.73,30.295275,,,,,,,,,,,FEW,900,BKN,1600,,,,,MVFR,,,,,,,,,,,,METAR,347.0
LOWI 120550Z 26003KT 9999 R08/P1500N R26/1100N MIFG FEW001 M08/M09 Q1023 R08/1///95 NOSIG,LOWI,2015-02-12T05:50:00Z,47.27,11.33,-8.0,-9.0,260,3,,6.21,30.206694,,,,,,TRUE,,,,MIFG,FEW,100,,,,,,,VFR,,,,,,,,,,,,METAR,581.0
LOWS 120550Z 23002KT 1400 FZBR FEW001 OVC003 M02/M01 Q1023 TEMPO 0600 FZFG,LOWS,2015-02-12T05:50:00Z,47.78,13.02,-2.0,-1.0,230,2,,0.87,30.206694,,,,,,,,,,FZBR,FEW,100,OVC,300,,,,,LIFR,,,,,,,,,,,,METAR,450.0
LOWL 120550Z 07003KT 8000 FEW008 OVC010 00/M02 Q1025 TEMPO OVC008,LOWL,2015-02-12T05:50:00Z,48.22,14.18,0.0,-2.0,70,3,,4.97,30.265747,,,,,,,,,,,FEW,800,OVC,1000,,,,,MVFR,,,,,,,,,,,,METAR,313.0
LOWW 120550Z 13011KT 9999 OVC019 02/M00 Q1026 R88/29//95 TEMPO 4000 BR,LOWW,2015-02-12T05:50:00Z,48.12,16.57,2.0,0.0,130,11,,6.21,30.295275,,,,,,,,,,,OVC,1900,,,,,,,MVFR,,,,,,,,,,,,METAR,190.0
EGNS 120550Z 26005KT 9999 -RA FEW012 OVC032 06/02 Q1018 NOSIG,EGNS,2015-02-12T05:50:00Z,54.08,-4.63,6.0,2.0,260,5,,6.21,30.059055,,,,,,TRUE,,,,-RA,FEW,1200,OVC,3200,,,,,VFR,,,,,,,,,,,,METAR,17.0
EBLG 120550Z 14008KT 4700 BR NSC M00/M02 Q1020 TEMPO 2000 MIFG,EBLG,2015-02-12T05:50:00Z,50.63,5.45,0.0,-2.0,140,8,,2.92,30.11811,,,,,,,,,,BR,,,,,,,,,,,,,,,,,,,,,METAR,178.0
EBCI 120550Z VRB02KT 3500 BR NSC M01/M02 Q1020 NOSIG,EBCI,2015-02-12T05:50:00Z,50.47,4.45,-1.0,-2.0,0,2,,2.17,30.11811,,,,,,TRUE,,,,BR,,,,,,,,,,,,,,,,,,,,,METAR,192.0
ENTO 120550Z VRB02KT CAVOK M01/M02 Q1014,ENTO,2015-02-12T05:50:00Z,59.2,10.27,-1.0,-2.0,0,2,,6.21,29.940945,,,,,,,,,,,CAVOK,,,,,,,,VFR,,,,,,,,,,,,METAR,88.0
ENTC 120550Z 02008KT 3000 -SN VV013 M04/M05 Q0990 RMK WIND 2600FT 35034G45KT,ENTC,2015-02-12T05:50:00Z,69.68,18.92,-4.0,-5.0,20,8,,1.86,29.232283,,,,,,,,,,-SN,OVX,0,,,,,,,LIFR,,,,,,,,,,,1300,METAR,10.0
ENSB 120550Z 14014G25KT 9999 FEW012 SCT030 M17/M22 Q0985 NOSIG RMK WIND 1400FT 11016KT,ENSB,2015-02-12T05:50:00Z,78.25,15.47,-17.0,-22.0,140,14,25,6.21,29.084646,,,,,,TRUE,,,,,FEW,1200,SCT,3000,,,,,VFR,,-1.6,,,,,,,,,,METAR,29.0
ENRY 120550Z 22008KT CAVOK 02/00 Q1014,ENRY,2015-02-12T05:50:00Z,59.37,10.77,2.0,0.0,220,8,,6.21,29.940945,,,,,,,,,,,CAVOK,,,,,,,,VFR,,,,,,,,,,,,METAR,53.0
ENRO 120550Z 24011KT CAVOK 02/M05 Q1004,ENRO,2015-02-12T05:50:00Z,62.57,11.33,2.0,-5.0,240,11,,6.21,29.64567,,,,,,,,,,,CAVOK,,,,,,,,VFR,,,,,,,,,,,,METAR,626.0
ENHD 120550Z 16008KT 5000 -SHRA FEW009 SCT018 BKN026 04/03 Q1015,ENHD,2015-02-12T05:50:00Z,59.35,5.22,4.0,3.0,160,8,,3.11,29.970472,,,,,,,,,,-SHRA,FEW,900,SCT,1800,BKN,2600,,,MVFR,,,,,,,,,,,,METAR,24.0
ENCN 120550Z 21006KT 9999 FEW013 BKN021 04/02 Q1017,ENCN,2015-02-12T05:50:00Z,58.2,8.07,4.0,2.0,210,6,,6.21,30.029528,,,,,,,,,,,FEW,1300,BKN,2100,,,,,MVFR,,,,,,,,,,,,METAR,17.0
ENAL 120550Z 35004KT 320V020 2500 -SN VV006 00/M00 Q1011,ENAL,2015-02-12T05:50:00Z,62.57,6.12,0.0,0.0,350,4,,1.55,29.852362,,,,,,,,,,-SN,OVX,0,,,,,,,LIFR,,,,,,,,,,,600,METAR,22.0
ENZV 120550Z 16007KT 7000 -DZ FEW015 BKN025 04/03 Q1016 TEMPO 4000 -DZ BR,ENZV,2015-02-12T05:50:00Z,58.87,5.62,4.0,3.0,160,7,,4.35,30.0,,,,,,,,,,-DZ,FEW,1500,BKN,2500,,,,,MVFR,,,,,,,,,,,,METAR,9.0
ENVA 120550Z 25015KT 9999 -DZ FEW008 SCT012 BKN015 02/01 Q1008 TEMPO 2000 SNRA VV007 RMK WIND 670FT 28017KT,ENVA,2015-02-12T05:50:00Z,63.47,10.92,2.0,1.0,250,15,,6.21,29.763779,,,,,,,,,,-DZ,FEW,800,SCT,1200,BKN,1500,,,MVFR,,,,,,,,,,,,METAR,17.0
ENOL 120550Z 30015KT 6000 2000S -SHRASN VV008 01/M00 Q1009 TEMPO 3000,ENOL,2015-02-12T05:50:00Z,63.7,9.58,1.0,0.0,300,15,,3.73,29.793306,,,,,,,,,,-SHRA SN,OVX,0,,,,,,,LIFR,,,,,,,,,,,800,METAR,7.0
ENGM 120550Z VRB02KT 9999 BKN004 M03/M04 Q1012 TEMPO BKN005,ENGM,2015-02-12T05:50:00Z,60.2,11.1,-3.0,-4.0,0,2,,6.21,29.88189,,,,,,,,,,,BKN,400,,,,,,,LIFR,,,,,,,,,,,,METAR,204.0
ENDU 120550Z 30006KT 270V340 1500 5000NW R28/1500N SHSN VV006 M04/M05 Q0989 TEMPO 0800 SHSN VV004,ENDU,2015-02-12T05:50:00Z,69.03,18.55,-4.0,-5.0,300,6,,0.93,29.202755,,,,,,,,,,SHSN,OVX,0,,,,,,,LIFR,,,,,,,,,,,600,METAR,79.0
ENBO 120550Z 26028G42KT 9999 5000W VCSH FEW008 SCT012CB BKN030 00/M01 Q0994 RESHSN TEMPO 30025KT 1000 SHSNGS VV006,ENBO,2015-02-12T05:50:00Z,67.27,14.37,0.0,-1.0,260,28,42,6.21,29.350393,,,,,,,,,,VCSH,FEW,800,SCT,1200,BKN,3000,,,MVFR,,,,,,,,,,,,METAR,13.0
ENBR 120550Z 17013KT 9999 -DZRA FEW006 SCT008 BKN021 04/03 Q1014 TEMPO 4000 DZRA BR BKN007 RMK WIND 1200FT 17017KT,ENBR,2015-02-12T05:50:00Z,60.28,5.22,4.0,3.0,170,13,,6.21,29.940945,,,,,,,,,,-DZ -RA,FEW,600,SCT,800,BKN,2100,,,MVFR,,,,,,,,,,,,METAR,50.0
ENAN 120550Z 35018G29KT 4000 -SHSN FEW012CB BKN035 M03/M08 Q0991 TEMPO 32025G40KT 0500 +SHSNGS VV003,ENAN,2015-02-12T05:50:00Z,69.28,16.13,-3.0,-8.0,350,18,29,2.49,29.26181,,,,,,,,,,-SHSN,FEW,1200,BKN,3500,,,,,IFR,,,,,,,,,,,,METAR,14.0
EGAE 120550Z VRB02KT 9999 OVC048 04/03 Q1016,EGAE,2015-02-12T05:50:00Z,55.03,-7.15,4.0,3.0,0,2,,6.21,30.0,,,,,,,,,,,OVC,4800,,,,,,,VFR,,,,,,,,,,,,METAR,9.0
ENHM 120550Z AUTO 23018KT 9999NDV BKN030/// OVC034/// 06/05 Q1013 W07/S4,ENHM,2015-02-12T05:50:00Z,59.57,2.23,6.0,5.0,230,18,,,29.911417,,,TRUE,,,,,,,,,,,,,,,,,,,,,,,,,,,,METAR,10.0
ENQA 120550Z AUTO 20026KT 9999NDV OVC014/// 06/04 Q1012 W05/S5,ENQA,2015-02-12T05:50:00Z,60.65,3.72,6.0,4.0,200,26,,,29.88189,,,TRUE,,,,,,,,,,,,,,,,,,,,,,,,,,,,METAR,20.0
ENQC 120550Z AUTO 19028KT 9999NDV -SHRA BKN013/// 07/04 Q1010 W///S5,ENQC,2015-02-12T05:50:00Z,60.88,3.62,7.0,4.0,190,28,,,29.822834,,,TRUE,,,,,,,-SHRA,,,,,,,,,,,,,,,,,,,,,METAR,20.0
ENSE 120550Z AUTO 03024KT 8000NDV -SN FEW005/// SCT007/// BKN015/// 02/00 Q1011 W///S5,ENSE,2015-02-12T05:50:00Z,61.45,2.15,2.0,0.0,30,24,,,29.852362,,,TRUE,,,,,,,-SN,,,,,,,,,,,,,,,,,,,,,METAR,10.0
ENQR 120550Z AUTO 04022KT 9999NDV -RA BKN007/// OVC024/// 02/00 Q1011 W///S5,ENQR,2015-02-12T05:50:00Z,61.35,2.22,2.0,0.0,40,22,,,29.852362,,,TRUE,,,,,,,-RA,,,,,,,,,,,,,,,,,,,,,METAR,10.0
ENNE 120550Z AUTO 33040G50KT 4400NDV -SHFZRA -SN BKN013/// BKN023/// M01/M02 Q1004 W///S7,ENNE,2015-02-12T05:50:00Z,66.03,8.08,-1.0,-2.0,330,40,50,,29.64567,,,TRUE,,,,,,,FZRA SH -SN,,,,,,,,,,,,,,,,,,,,,METAR,10.0
EDTY 120550Z 11007KT 4300 BR OVC002 M02/M02 Q1022,EDTY,2015-02-12T05:50:00Z,49.12,9.78,-2.0,-2.0,110,7,,2.67,30.177166,,,,,,,,,,BR,OVC,200,,,,,,,LIFR,,,,,,,,,,,,METAR,400.0
EDJA 120550Z 20003KT 1700 BR VV/// M09/M10 Q1022,EDJA,2015-02-12T05:50:00Z,47.98,10.23,-9.0,-10.0,200,3,,1.06,30.177166,,,,,,,,,,BR,OVX,0,,,,,,,LIFR,,,,,,,,,,,,METAR,633.0
ESGT 120550Z 22011KT 8000 DZ BKN011 03/02 Q1017,ESGT,2015-02-12T05:50:00Z,58.32,12.33,3.0,2.0,220,11,,4.97,30.029528,,,,,,,,,,DZ,BKN,1100,,,,,,,MVFR,,,,,,,,,,,,METAR,41.0
ENNA 120550Z 30015KT 9999 FEW015 SCT025 M05/M08 Q0986 RMK WIND 1800FT 29025KT,ENNA,2015-02-12T05:50:00Z,70.07,24.97,-5.0,-8.0,300,15,,6.21,29.114174,,,,,,,,,,,FEW,1500,SCT,2500,,,,,VFR,,,,,,,,,,,,METAR,8.0
ENML 120550Z 30005KT 230V010 5000 -RASN VV010 02/M00 Q1010,ENML,2015-02-12T05:50:00Z,62.75,7.27,2.0,0.0,300,5,,3.11,29.822834,,,,,,,,,,-RA -SN,OVX,0,,,,,,,LIFR,,,,,,,,,,,1000,METAR,3.0
ENKR 120550Z 29011KT 2000 -SN VV010 M06/M07 Q0983 RMK WIND 731FT 27024KT,ENKR,2015-02-12T05:50:00Z,69.72,29.88,-6.0,-7.0,290,11,,1.24,29.02559,,,,,,,,,,-SN,OVX,0,,,,,,,LIFR,,,,,,,,,,,1000,METAR,91.0
ENKB 120550Z 32009KT 5000 -SNRA VV006 00/M00 Q1010,ENKB,2015-02-12T05:50:00Z,63.12,7.82,0.0,0.0,320,9,,3.11,29.822834,,,,,,,,,,-SN -RA,OVX,0,,,,,,,LIFR,,,,,,,,,,,600,METAR,62.0
ENFL 120550Z 19024KT 9999 -RA FEW006 BKN010 05/03 Q1011,ENFL,2015-02-12T05:50:00Z,61.57,5.02,5.0,3.0,190,24,,6.21,29.852362,,,,,,,,,,-RA,FEW,600,BKN,1000,,,,,MVFR,,,,,,,,,,,,METAR,9.0
ENEV 120550Z 25009KT 9999 VCSH BKN010 M02/M03 Q0990 RMK WIND 1400FT 26017KT,ENEV,2015-02-12T05:50:00Z,68.52,16.67,-2.0,-3.0,250,9,,6.21,29.232283,,,,,,,,,,VCSH,BKN,1000,,,,,,,MVFR,,,,,,,,,,,,METAR,26.0
ENBL 120550Z 21011KT 9999 SCT009 BKN012 02/01 Q1010,ENBL,2015-02-12T05:50:00Z,61.4,5.77,2.0,1.0,210,11,,6.21,29.822834,,,,,,,,,,,SCT,900,BKN,1200,,,,,MVFR,,,,,,,,,,,,METAR,150.0
ENAT 120550Z 32014KT 9999 VCSH FEW009 SCT028 BKN042 M03/M07 Q0987 RMK WIND 700FT 32020KT,ENAT,2015-02-12T05:50:00Z,69.97,23.37,-3.0,-7.0,320,14,,6.21,29.143702,,,,,,,,,,VCSH,FEW,900,SCT,2800,BKN,4200,,,VFR,,,,,,,,,,,,METAR,3.0
ENNM 120550Z 24011KT 2000 SN VV011 00/M00 Q1006,ENNM,2015-02-12T05:50:00Z,64.47,11.57,0.0,0.0,240,11,,1.24,29.704725,,,,,,,,,,SN,OVX,0,,,,,,,LIFR,,,,,,,,,,,1100,METAR,2.0
ENNK 120550Z 24023KT 4000 -SHSN VV015 01/M02 Q0989,ENNK,2015-02-12T05:50:00Z,68.47,17.38,1.0,-2.0,240,23,,2.49,29.202755,,,,,,,,,,-SHSN,OVX,0,,,,,,,LIFR,,,,,,,,,,,1500,METAR,23.0
ENLK 120550Z 27015KT 8000 -SHSN VV012 M01/M05 Q0991,ENLK,2015-02-12T05:50:00Z,68.15,13.62,-1.0,-5.0,270,15,,4.97,29.26181,,,,,,,,,,-SHSN,OVX,0,,,,,,,LIFR,,,,,,,,,,,1200,METAR,26.0
ENHV 120550Z 27027KT 3500 SN BLSN VV011 M04/M07 Q0983,ENHV,2015-02-12T05:50:00Z,71.02,25.97,-4.0,-7.0,270,27,,2.17,29.02559,,,,,,,,,,SN BLSN,OVX,0,,,,,,,LIFR,,,,,,,,,,,1100,METAR,14.0
KQRB 120550Z 04003KT 9999 SCT130 BKN210 22/21 A2992 RMK AO2A SLP133 60079 T02230214 10272 20212 55001,KQRB,2015-02-12T05:50:00Z,100.65,-1000.65,22.3,21.4,40,3,,6.21,29.920275,1013.3,,,TRUE,,,,,,,SCT,13000,BKN,21000,,,,,VFR,-0.1,27.2,21.2,,,,,0.79,,,,METAR,999.0
ENST 120550Z 26016G28KT 9999 VCSH FEW012 SCT025 BKN040 01/M03 Q1002 RMK WIND 300FT 27029G42KT,ENST,2015-02-12T05:50:00Z,65.97,12.47,1.0,-3.0,260,16,28,6.21,29.586615,,,,,,,,,,VCSH,FEW,1200,SCT,2500,BKN,4000,,,VFR,,,,,,,,,,,,METAR,17.0
ENSO 120550Z 17010KT 9999 FEW008 SCT014 BKN035 04/03 Q1015,ENSO,2015-02-12T05:50:00Z,59.78,5.33,4.0,3.0,170,10,,6.21,29.970472,,,,,,,,,,,FEW,800,SCT,1400,BKN,3500,,,VFR,,,,,,,,,,,,METAR,49.0
ENSK 120550Z 21005KT 160V240 9999 7000SW -SHSN FEW010 SCT017 BKN030 M01/M03 Q0990,ENSK,2015-02-12T05:50:00Z,68.57,15.02,-1.0,-3.0,210,5,,6.21,29.232283,,,,,,,,,,-SHSN,FEW,1000,SCT,1700,BKN,3000,,,MVFR,,,,,,,,,,,,METAR,3.0
ENRM 120550Z 27014KT 9999 FEW018 SCT045 02/M05 Q1005,ENRM,2015-02-12T05:50:00Z,64.83,11.13,2.0,-5.0,270,14,,6.21,29.675198,,,,,,,,,,,FEW,1800,SCT,4500,,,,,VFR,,,,,,,,,,,,METAR,14.0
ENMS 120550Z VRB06KT 9999 -SHSN FEW035 SCT050 00/M04 Q1001 RMK WIND 412FT 26010G21KT 200V330,ENMS,2015-02-12T05:50:00Z,65.78,13.22,0.0,-4.0,0,6,,6.21,29.557087,,,,,,,,,,-SHSN,FEW,3500,SCT,5000,,,,,VFR,,,,,,,,,,,,METAR,70.0
ENSR 120550Z 28013KT 4000 -SHSN VV029 M04/M06 Q0988 Q0988 WIND 1119FT 30022KT,ENSR,2015-02-12T05:50:00Z,69.77,20.97,-4.0,-6.0,280,13,,2.49,29.17323,,,,,,,,,,-SHSN,OVX,0,,,,,,,LIFR,,,,,,,,,,,2900,METAR,6.0
ENSN 120550Z 04003KT CAVOK M03/M03 Q1014,ENSN,2015-02-12T05:50:00Z,59.17,9.57,-3.0,-3.0,40,3,,6.21,29.940945,,,,,,,,,,,CAVOK,,,,,,,,VFR,,,,,,,,,,,,METAR,14.0
ENSG 120550Z 24009KT 9999 SCT024 BKN035 02/M01 Q1010 RMK WIND 3901FT 25016KT,ENSG,2015-02-12T05:50:00Z,61.13,7.12,2.0,-1.0,240,9,,6.21,29.822834,,,,,,,,,,,SCT,2400,BKN,3500,,,,,VFR,,,,,,,,,,,,METAR,497.0
ENSD 120550Z VRB05KT 9999 FEW030 BKN040 06/01 Q1010 RMK WIND 1138FT 20011KT,ENSD,2015-02-12T05:50:00Z,61.82,6.12,6.0,1.0,0,5,,6.21,29.822834,,,,,,,,,,,FEW,3000,BKN,4000,,,,,VFR,,,1.1,,,,,,,,,METAR,60.0
ENNO 120550Z VRB01KT 0900 FZFG BKN001 OVC003 M05/M06 Q1016,ENNO,2015-02-12T05:50:00Z,59.57,9.22,-5.0,-6.0,0,1,,0.56,30.0,,,,,,,,,,FZFG,BKN,100,OVC,300,,,,,LIFR,,,,,,,,,,,,METAR,19.0
EDLV 120550Z 15004KT 2700 BR BKN016 M01/M01 Q1022,EDLV,2015-02-12T05:50:00Z,51.6,6.15,-1.0,-1.0,150,4,,1.68,30.177166,,,,,,,,,,BR,BKN,1600,,,,,,,IFR,,,,,,,,,,,,METAR,32.0
EDFM 120550Z VRB01KT 5000 BR OVC010 01/00 Q1023,EDFM,2015-02-12T05:50:00Z,49.47,8.52,1.0,0.0,0,1,,3.11,30.206694,,,,,,,,,,BR,OVC,1000,,,,,,,MVFR,,,,,,,,,,,,METAR,100.0
EEPU 120550Z 21015KT 9999 OVC007 01/01 Q1017,EEPU,2015-02-12T05:50:00Z,58.42,24.47,1.0,1.0,210,15,,6.21,30.029528,,,,,,,,,,,OVC,700,,,,,,,IFR,,,,,,,,,,,,METAR,14.0
EETU 120550Z AUTO 23016KT 9999 OVC006/// 00/M02 Q1016,EETU,2015-02-12T05:50:00Z,58.32,26.68,0.0,-2.0,230,16,,6.21,30.0,,,TRUE,,,,,,,,,,,,,,,,,,,,,,,,,,,,METAR,67.0
EEKE 120550Z 25012KT 220V280 9999 OVC005 02/01 Q1017 R17/190095,EEKE,2015-02-12T05:50:00Z,58.23,22.52,2.0,1.0,250,12,,6.21,30.029528,,,,,,,,,,,OVC,500,,,,,,,IFR,,,,,,,,,,,,METAR,4.0
EEKA 120550Z 24010KT 190V280 9999 OVC006 02/01 Q1015,EEKA,2015-02-12T05:50:00Z,58.98,22.83,2.0,1.0,240,10,,6.21,29.970472,,,,,,,,,,,OVC,600,,,,,,,IFR,,,,,,,,,,,,METAR,4.0
ENFB 120550Z AUTO 03024KT 9000NDV -SHRA BKN008/// OVC027/// 02/02 Q1011 W///S5,ENFB,2015-02-12T05:50:00Z,61.2,1.83,2.0,2.0,30,24,,,29.852362,,,TRUE,,,,,,,-SHRA,,,,,,,,,,,,,,,,,,,,,METAR,10.0
ENSL 120550Z 24015KT 9999 FEW014 BKN041 06/04 Q1015 W05/S4,ENSL,2015-02-12T05:50:00Z,58.37,1.9,6.0,4.0,240,15,,6.21,29.970472,,,,,,,,,,,FEW,1400,BKN,4100,,,,,VFR,,,,,,,,,,,,METAR,50.0
ENOA 120550Z 21025KT 9999 BKN015 06/05 Q1011 W///S5,ENOA,2015-02-12T05:50:00Z,60.5,2.83,6.0,5.0,210,25,,6.21,29.852362,,,,,,,,,,,BKN,1500,,,,,,,MVFR,,,,,,,,,,,,METAR,5.0
ENGC 120550Z 04026KT 9000 -RASN BKN010 03/02 Q1011 W06/S5,ENGC,2015-02-12T05:50:00Z,61.02,2.02,3.0,2.0,40,26,,5.59,29.852362,,,,,,,,,,-RA -SN,BKN,1000,,,,,,,MVFR,,,,,,,,,,,,METAR,10.0
ENDR 120550Z AUTO 31025KT 03/M04 Q1007,ENDR,2015-02-12T05:50:00Z,64.35,7.8,3.0,-4.0,310,25,,,29.734253,,,TRUE,,,,,,,,,,,,,,,,,,,,,,,,,,,,METAR,50.0
LGRP 120550Z 32007KT 9999 FEW018 09/01 Q1011,LGRP,2015-02-12T05:50:00Z,36.4,28.08,9.0,1.0,320,7,,6.21,29.852362,,,,,,,,,,,FEW,1800,,,,,,,VFR,,,,,,,,,,,,METAR,5.0
LGKR 120550Z 00000KT CAVOK 03/M04 Q1022 NOSIG,LGKR,2015-02-12T05:50:00Z,39.62,19.92,3.0,-4.0,0,0,,6.21,30.177166,,,,,,TRUE,,,,,CAVOK,,,,,,,,VFR,,,,,,,,,,,,METAR,2.0
LGAV 120550Z 34010KT 9999 FEW020 SCT030 BKN070 04/M03 Q1021 NOSIG,LGAV,2015-02-12T05:50:00Z,37.93,23.95,4.0,-3.0,340,10,,6.21,30.147638,,,,,,TRUE,,,,,FEW,2000,SCT,3000,BKN,7000,,,VFR,,,,,,,,,,,,METAR,94.0
EFSI 120550Z AUTO 22006KT 150V280 CAVOK 00/M01 Q1004,EFSI,2015-02-12T05:50:00Z,62.7,22.83,0.0,-1.0,220,6,,6.21,29.64567,,,TRUE,,,,,,,,CAVOK,,,,,,,,VFR,,,,,,,,,,,,METAR,91.0
EFPO 120550Z AUTO 22012KT 9999 OVC009/// 02/00 Q1008,EFPO,2015-02-12T05:50:00Z,61.47,21.8,2.0,0.0,220,12,,6.21,29.763779,,,TRUE,,,,,,,,,,,,,,,,,,,,,,,,,,,,METAR,17.0
EFMA 120550Z 23012KT 9999 BKN013 02/01 Q1011,EFMA,2015-02-12T05:50:00Z,60.12,19.88,2.0,1.0,230,12,,6.21,29.852362,,,,,,,,,,,BKN,1300,,,,,,,MVFR,,,,,,,,,,,,METAR,6.0
EFKK 120550Z 21009KT 170V240 CAVOK 01/M02 Q1000,EFKK,2015-02-12T05:50:00Z,63.72,23.13,1.0,-2.0,210,9,,6.21,29.52756,,,,,,,,,,,CAVOK,,,,,,,,VFR,,,,,,,,,,,,METAR,25.0
EFHF 120550Z AUTO 23012G22KT 190V270 9999 OVC011 02/M01 Q1011,EFHF,2015-02-12T05:50:00Z,60.25,25.05,2.0,-1.0,230,12,22,6.21,29.852362,,,TRUE,,,,,,,,OVC,1100,,,,,,,MVFR,,,,,,,,,,,,METAR,28.0
EFHA 120550Z AUTO 22007KT 180V260 9999 OVC009 00/M01 Q1006,EFHA,2015-02-12T05:50:00Z,61.85,24.8,0.0,-1.0,220,7,,6.21,29.704725,,,TRUE,,,,,,,,OVC,900,,,,,,,IFR,,,,,,,,,,,,METAR,145.0
LIPZ 120550Z 01008KT 250V040 8000 NSC 02/00 Q1024,LIPZ,2015-02-12T05:50:00Z,45.5,12.35,2.0,0.0,10,8,,4.97,30.236221,,,,,,,,,,,,,,,,,,,,,,,,,,,,,,,METAR,6.0
LIPQ 120550Z VRB03KT CAVOK 02/M01 Q1024,LIPQ,2015-02-12T05:50:00Z,45.82,13.47,2.0,-1.0,0,3,,6.21,30.236221,,,,,,,,,,,CAVOK,,,,,,,,VFR,,,,,,,,,,,,METAR,12.0
LIPE 120550Z VRB03KT CAVOK 00/M02 Q1024,LIPE,2015-02-12T05:50:00Z,44.52,11.3,0.0,-2.0,0,3,,6.21,30.236221,,,,,,,,,,,CAVOK,,,,,,,,VFR,,,,,,,,,,,,METAR,42.0
LIPB 120550Z VRB02KT CAVOK M02/M03 Q1024,LIPB,2015-02-12T05:50:00Z,46.47,11.32,-2.0,-3.0,0,2,,6.21,30.236221,,,,,,,,,,,CAVOK,,,,,,,,VFR,,,,,,,,,,,,METAR,241.0
LICJ 120550Z 18003KT 130V240 CAVOK 08/05 Q1021,LICJ,2015-02-12T05:50:00Z,38.17,13.08,8.0,5.0,180,3,,6.21,30.147638,,,,,,,,,,,CAVOK,,,,,,,,VFR,,,,,,,,,,,,METAR,34.0
LICC 120550Z 24005KT 9999 FEW030 02/01 Q1021,LICC,2015-02-12T05:50:00Z,37.47,15.05,2.0,1.0,240,5,,6.21,30.147638,,,,,,,,,,,FEW,3000,,,,,,,VFR,,,,,,,,,,,,METAR,17.0
LIBD 120550Z 27003KT 8000 FEW025 SCT035 06/05 Q1023,LIBD,2015-02-12T05:50:00Z,41.12,16.77,6.0,5.0,270,3,,4.97,30.206694,,,,,,,,,,,FEW,2500,SCT,3500,,,,,MVFR,,,,,,,,,,,,METAR,44.0
LIRQ 120550Z 05002KT CAVOK M01/M02 Q1023,LIRQ,2015-02-12T05:50:00Z,43.78,11.18,-1.0,-2.0,50,2,,6.21,30.206694,,,,,,,,,,,CAVOK,,,,,,,,VFR,,,,,,,,,,,,METAR,38.0
LIRN 120550Z VRB02KT CAVOK 03/01 Q1022,LIRN,2015-02-12T05:50:00Z,40.88,14.3,3.0,1.0,0,2,,6.21,30.177166,,,,,,,,,,,CAVOK,,,,,,,,VFR,,,,,,,,,,,,METAR,72.0
LIRF 120550Z VRB02KT 9000 SCT025 SCT040 05/04 Q1023 NOSIG,LIRF,2015-02-12T05:50:00Z,41.78,12.22,5.0,4.0,0,2,,5.59,30.206694,,,,,,TRUE,,,,,SCT,2500,SCT,4000,,,,,VFR,,,,,,,,,,,,METAR,3.0
LIML 120550Z 00000KT 0100 R36/0150V0225N FZFG NSC M02/M02 Q1024 NOSIG,LIML,2015-02-12T05:50:00Z,45.47,9.27,-2.0,-2.0,0,0,,0.06,30.236221,,,,,,TRUE,,,,FZFG,,,,,,,,,,,,,,,,,,,,,METAR,103.0
LIMJ 120550Z 36005KT 320V030 CAVOK 10/00 Q1022,LIMJ,2015-02-12T05:50:00Z,44.42,8.83,10.0,0.0,360,5,,6.21,30.177166,,,,,,,,,,,CAVOK,,,,,,,,VFR,,,,,,,,,,,,METAR,3.0
LIMF 120550Z 00000KT CAVOK 00/M03 Q1023,LIMF,2015-02-12T05:50:00Z,45.22,7.65,0.0,-3.0,0,0,,6.21,30.206694,,,,,,,,,,,CAVOK,,,,,,,,VFR,,,,,,,,,,,,METAR,287.0
LIME 120550Z 03004KT 010V070 7000 NSC 01/M01 Q1024,LIME,2015-02-12T05:50:00Z,45.67,9.68,1.0,-1.0,30,4,,4.35,30.236221,,,,,,,,,,,,,,,,,,,,,,,,,,,,,,,METAR,237.0
LIMC 120550Z 36004KT 330V060 5000 BR NSC 02/M01 Q1024 NOSIG,LIMC,2015-02-12T05:50:00Z,45.62,8.72,2.0,-1.0,360,4,,3.11,30.236221,,,,,,TRUE,,,,BR,,,,,,,,,,,,,,,,,,,,,METAR,211.0
LIEO 120550Z 21002KT 9999 FEW012 01/M01 Q1022,LIEO,2015-02-12T05:50:00Z,40.88,9.52,1.0,-1.0,210,2,,6.21,30.177166,,,,,,,,,,,FEW,1200,,,,,,,VFR,,,,,,,,,,,,METAR,13.0
LIEE 120550Z 36003KT CAVOK 03/03 Q1021,LIEE,2015-02-12T05:50:00Z,39.25,9.07,3.0,3.0,360,3,,6.21,30.147638,,,,,,,,,,,CAVOK,,,,,,,,VFR,,,,,,,,,,,,METAR,4.0
LIEA 120550Z 35005KT CAVOK 05/04 Q1020,LIEA,2015-02-12T05:50:00Z,40.62,8.27,5.0,4.0,350,5,,6.21,30.11811,,,,,,,,,,,CAVOK,,,,,,,,VFR,,,,,,,,,,,,METAR,23.0
ELLX 120550Z VRB03KT 0100 R24/0300N FZFG VV001 M01/M01 Q1021 NOSIG,ELLX,2015-02-12T05:50:00Z,49.63,6.2,-1.0,-1.0,0,3,,0.06,30.147638,,,,,,TRUE,,,,FZFG,OVX,0,,,,,,,LIFR,,,,,,,,,,,100,METAR,379.0
EBOS 120550Z VRB01KT 5000 BR SCT016 BKN018 02/01 Q1021 TEMPO 4000 BR,EBOS,2015-02-12T05:50:00Z,51.2,2.87,2.0,1.0,0,1,,3.11,30.147638,,,,,,,,,,BR,SCT,1600,BKN,1800,,,,,MVFR,,,,,,,,,,,,METAR,5.0
LGKO 120550Z 35011KT 9999 FEW020 05/M01 Q1012,LGKO,2015-02-12T05:50:00Z,36.8,27.08,5.0,-1.0,350,11,,6.21,29.88189,,,,,,,,,,,FEW,2000,,,,,,,VFR,,,,,,,,,,,,METAR,125.0
LGKL 120550Z 00000KT 9999 FEW030 00/M06 Q1022,LGKL,2015-02-12T05:50:00Z,37.07,22.02,0.0,-6.0,0,0,,6.21,30.177166,,,,,,,,,,,FEW,3000,,,,,,,VFR,,,,,,,,,,,,METAR,8.0
LGAD 120550Z 00000KT 9999 FEW020 M01/M05 Q1022,LGAD,2015-02-12T05:50:00Z,37.92,21.27,-1.0,-5.0,0,0,,6.21,30.177166,,,,,,,,,,,FEW,2000,,,,,,,VFR,,,,,,,,,,,,METAR,12.0
LGIR 120550Z 34022KT 9999 FEW018TCU SCT025 07/01 Q1017 NOSIG,LGIR,2015-02-12T05:50:00Z,35.32,25.17,7.0,1.0,340,22,,6.21,30.029528,,,,,,TRUE,,,,,FEW,1800,SCT,2500,,,,,VFR,,,,,,,,,,,,METAR,39.0
EFVR 120550Z AUTO 25008KT 190V290 9999 BKN011 00/M02 Q1005,EFVR,2015-02-12T05:50:00Z,62.17,27.87,0.0,-2.0,250,8,,6.21,29.675198,,,TRUE,,,,,,,,BKN,1100,,,,,,,MVFR,,,,,,,,,,,,METAR,87.0
EFUT 120550Z 24012G22KT 9999 OVC011 02/M00 Q1008,EFUT,2015-02-12T05:50:00Z,60.88,26.92,2.0,0.0,240,12,22,6.21,29.763779,,,,,,,,,,,OVC,1100,,,,,,,MVFR,,,,,,,,,,,,METAR,100.0
EFSA 120550Z AUTO 22008KT 180V280 9999 OVC011 01/M01 Q1005,EFSA,2015-02-12T05:50:00Z,61.95,28.93,1.0,-1.0,220,8,,6.21,29.675198,,,TRUE,,,,,,,,OVC,1100,,,,,,,MVFR,,,,,,,,,,,,METAR,95.0
EFMI 120550Z AUTO 25008KT 210V290 9999 OVC012 01/M01 Q1007,EFMI,2015-02-12T05:50:00Z,61.68,27.2,1.0,-1.0,250,8,,6.21,29.734253,,,TRUE,,,,,,,,OVC,1200,,,,,,,MVFR,,,,,,,,,,,,METAR,138.0
EFLP 120550Z AUTO 23014KT 200V260 9999 BKN011 02/M00 Q1007,EFLP,2015-02-12T05:50:00Z,61.07,28.13,2.0,0.0,230,14,,6.21,29.734253,,,TRUE,,,,,,,,BKN,1100,,,,,,,MVFR,,,,,,,,,,,,METAR,106.0
EFJO 120550Z 23008KT 190V280 9999 OVC009 M01/M02 Q1003,EFJO,2015-02-12T05:50:00Z,62.67,29.62,-1.0,-2.0,230,8,,6.21,29.616142,,,,,,,,,,,OVC,900,,,,,,,IFR,,,,,,,,,,,,METAR,117.0
LGZA 120550Z 02005KT 9999 FEW018 M01/M02 Q1022,LGZA,2015-02-12T05:50:00Z,37.75,20.87,-1.0,-2.0,20,5,,6.21,30.177166,,,,,,,,,,,FEW,1800,,,,,,,VFR,,,,,,,,,,,,METAR,3.0
LGSR 120550Z 34019G29KT 9999 BKN025 BKN080 07/02 Q1015,LGSR,2015-02-12T05:50:00Z,36.4,25.48,7.0,2.0,340,19,29,6.21,29.970472,,,,,,,,,,,BKN,2500,BKN,8000,,,,,MVFR,,,,,,,,,,,,METAR,40.0
LGRX 120550Z 00000KT 9999 FEW020 M01/M03 Q1023,LGRX,2015-02-12T05:50:00Z,38.17,21.42,-1.0,-3.0,0,0,,6.21,30.206694,,,,,,,,,,,FEW,2000,,,,,,,VFR,,,,,,,,,,,,METAR,15.0
LGPZ 120550Z 05006KT 9999 FEW025 03/M05 Q1024,LGPZ,2015-02-12T05:50:00Z,38.92,20.77,3.0,-5.0,50,6,,6.21,30.236221,,,,,,,,,,,FEW,2500,,,,,,,VFR,,,,,,,,,,,,METAR,4.0
LGMT 120550Z /////KT 9999 FEW020 SCT025 05/M00 Q1019,LGMT,2015-02-12T05:50:00Z,39.05,26.6,5.0,0.0,,,,6.21,30.088583,,,,,,,,,,,FEW,2000,SCT,2500,,,,,VFR,,,,,,,,,,,,METAR,17.0
LGIO 120550Z 00000KT 9999 FEW040 M05/M09 Q1022,LGIO,2015-02-12T05:50:00Z,39.7,20.82,-5.0,-9.0,0,0,,6.21,30.177166,,,,,,,,,,,FEW,4000,,,,,,,VFR,,,,,,,,,,,,METAR,476.0
LGEL 120550Z VRB03KT 9999 SCT025 BKN070 04/M04 Q1022,LGEL,2015-02-12T05:50:00Z,38.07,23.55,4.0,-4.0,0,3,,6.21,30.177166,,,,,,,,,,,SCT,2500,BKN,7000,,,,,VFR,,,,,,,,,,,,METAR,31.0
LGAL 120550Z 06007KT 9999 SCT030 BKN090 01/M05 Q1023,LGAL,2015-02-12T05:50:00Z,40.85,25.95,1.0,-5.0,60,7,,6.21,30.206694,,,,,,,,,,,SCT,3000,BKN,9000,,,,,VFR,,,,,,,,,,,,METAR,3.0
VGHS 120550Z 33008KT 4000 HZ NSC 26/11 Q1014 NOSIG,VGHS,2015-02-12T05:50:00Z,23.85,90.4,26.0,11.0,330,8,,2.49,29.940945,,,,,,TRUE,,,,HZ,,,,,,,,,,,,,,,,,,,,,METAR,10.0
KRCV 120550Z AUTO 27010KT 10SM CLR M02/M07 A3042 RMK AO2 T10221066 10041 21034,KRCV,2015-02-12T05:50:00Z,37.72,-106.35,-2.2,-6.6,270,10,,10.0,30.41929,,,TRUE,TRUE,,,,,,,CLR,,,,,,,,VFR,,4.1,-3.4,,,,,,,,,METAR,2424.0
KEFT 120550Z AUTO 33008G15KT 10SM SCT029 OVC042 M09/M13 A3015 RMK AO2,KEFT,2015-02-12T05:50:00Z,42.62,-89.6,-9.0,-13.0,330,8,15,10.0,30.15059,,,TRUE,TRUE,,,,,,,SCT,2900,OVC,4200,,,,,VFR,,,,,,,,,,,,SPECI,331.0
KEGV 120550Z AUTO 36013G20KT 5SM HZ BKN035 M16/M21 A3018 RMK AO2 T11631210 11127 21165 410501165,KEGV,2015-02-12T05:50:00Z,45.93,-89.27,-16.3,-21.0,360,13,20,5.0,30.180119,,,TRUE,TRUE,,,,,,HZ,BKN,3500,,,,,,,MVFR,,-12.7,-16.5,-5.0,-16.5,,,,,,,SPECI,500.0
KETB 120550Z AUTO 34015G21KT 10SM BKN046 BKN075 OVC095 M10/M17 A3012 RMK AO2,KETB,2015-02-12T05:50:00Z,43.42,-88.13,-10.0,-17.0,340,15,21,10.0,30.121063,,,TRUE,TRUE,,,,,,,BKN,4600,BKN,7500,OVC,9500,,,VFR,,,,,,,,,,,,SPECI,270.0
LXGB 120550Z 35003KT 4000 +RA FEW004 SCT010 BKN020 12/11 Q1017,LXGB,2015-02-12T05:50:00Z,36.13,-5.33,12.0,11.0,350,3,,2.49,30.029528,,,,,,,,,,+RA,FEW,400,SCT,1000,BKN,2000,,,IFR,,,,,,,,,,,,METAR,5.0
EGYP 120550Z 29012KT 9999 SCT020 SCT050 BKN120 05/04 Q0987 WHT,EGYP,2015-02-12T05:50:00Z,-51.82,-58.45,5.0,4.0,290,12,,6.21,29.143702,,,,,,,,,,,SCT,2000,SCT,5000,BKN,12000,,,VFR,,,,,,,,,,,,METAR,74.0
K21D 120550Z AUTO 33010KT 10SM CLR M16/M20 A3046 RMK AO2,K21D,2015-02-12T05:50:00Z,45.0,-92.85,-16.0,-20.0,330,10,,10.0,30.46063,,,TRUE,TRUE,,,,,,,CLR,,,,,,,,VFR,,,,,,,,,,,,METAR,285.0
EGVN 120550Z 16001KT 9999 OVC022 03/M01 Q1020 NOSIG,EGVN,2015-02-12T05:50:00Z,51.77,-1.58,3.0,-1.0,160,1,,6.21,30.11811,,,,,,TRUE,,,,,OVC,2200,,,,,,,MVFR,,,,,,,,,,,,METAR,88.0
EFKT 120550Z AUTO 25008KT 9999 FEW039 SCT068 M02/M04 Q0987,EFKT,2015-02-12T05:50:00Z,67.7,24.85,-2.0,-4.0,250,8,,6.21,29.143702,,,TRUE,,,,,,,,FEW,3900,SCT,6800,,,,,VFR,,,,,,,,,,,,METAR,643.0
EFKS 120550Z AUTO 25012KT 220V290 9999 OVC023 02/M02 Q0990,EFKS,2015-02-12T05:50:00Z,66.0,29.23,2.0,-2.0,250,12,,6.21,29.232283,,,TRUE,,,,,,,,OVC,2300,,,,,,,MVFR,,,,,,,,,,,,METAR,263.0
EFKI 120550Z AUTO 23013KT 190V270 CAVOK 02/M02 Q0997,EFKI,2015-02-12T05:50:00Z,64.27,27.67,2.0,-2.0,230,13,,6.21,29.438976,,,TRUE,,,,,,,,CAVOK,,,,,,,,VFR,,,,,,,,,,,,METAR,136.0
EFKE 120550Z AUTO 24008KT 210V280 9999 BKN038 03/M00 Q0993,EFKE,2015-02-12T05:50:00Z,65.77,24.57,3.0,0.0,240,8,,6.21,29.320866,,,TRUE,,,,,,,,BKN,3800,,,,,,,VFR,,,,,,,,,,,,METAR,15.0
VQPR 120550Z 18005KT 8000 SCT030 SCT100 15/M04 Q1018 NOSIG,VQPR,2015-02-12T05:50:00Z,27.4,89.43,15.0,-4.0,180,5,,4.97,30.059055,,,,,,TRUE,,,,,SCT,3000,SCT,10000,,,,,MVFR,,,,,,,,,,,,METAR,2235.0
VGEG 120550Z 36010KT 3200 HZ NSC 27/10 Q1013 NOSIG,VGEG,2015-02-12T05:50:00Z,22.27,91.82,27.0,10.0,360,10,,1.99,29.911417,,,,,,TRUE,,,,HZ,,,,,,,,,,,,,,,,,,,,,METAR,6.0
ENSH 120550Z 24012KT 9999 VCSH FEW007 SCT018 BKN040 M01/M03 Q0991,ENSH,2015-02-12T05:50:00Z,68.25,14.67,-1.0,-3.0,240,12,,6.21,29.26181,,,,,,,,,,VCSH,FEW,700,SCT,1800,BKN,4000,,,VFR,,,,,,,,,,,,METAR,9.0
ENRA 120550Z 25012KT 2000 SHSN VV010 M02/M03 Q0999,ENRA,2015-02-12T05:50:00Z,66.37,14.3,-2.0,-3.0,250,12,,1.24,29.498032,,,,,,,,,,SHSN,OVX,0,,,,,,,LIFR,,,,,,,,,,,1000,METAR,70.0
ENHF 120550Z 25017G28KT 220V280 9999 VCSH BLSN FEW020 BKN046 M04/M09 Q0984 RESG RMK WIND 1254FT 28038KT,ENHF,2015-02-12T05:50:00Z,70.67,23.67,-4.0,-9.0,250,17,28,6.21,29.055119,,,,,,,,,,VCSH BLSN,FEW,2000,BKN,4600,,,,,VFR,,,,,,,,,,,,METAR,81.0
ENBN 120550Z 28019KT 250V310 9999 SCT015 BKN050 01/M03 Q1003,ENBN,2015-02-12T05:50:00Z,65.47,12.22,1.0,-3.0,280,19,,6.21,29.616142,,,,,,,,,,,SCT,1500,BKN,5000,,,,,VFR,,,,,,,,,,,,METAR,9.0
KCPW 120550Z AUTO 01004KT 10SM CLR M07/M13 A3050 RMK AO2,KCPW,2015-02-12T05:50:00Z,37.45,-106.8,-7.0,-13.0,10,4,,10.0,30.499016,,,TRUE,TRUE,,,,,,,CLR,,,,,,,,VFR,,,,,,,,,,,,METAR,3584.0
KEDJ 120550Z AUTO 00000KT 8SM SCT013 BKN024 OVC029 M02/M03 A2995 RMK AO1,KEDJ,2015-02-12T05:50:00Z,40.37,-83.82,-2.0,-3.0,0,0,,8.0,29.949802,,,TRUE,TRUE,,,,,,,SCT,1300,BKN,2400,OVC,2900,,,MVFR,,,,,,,,,,,,METAR,342.0
KMRJ 120550Z AUTO 32012KT 3SM -SN BKN020 OVC028 M10/M13 A3017 RMK AO2,KMRJ,2015-02-12T05:50:00Z,42.88,-90.23,-10.0,-13.0,320,12,,3.0,30.171259,,,TRUE,TRUE,,,,,,-SN,BKN,2000,OVC,2800,,,,,MVFR,,,,,,,,,,,,SPECI,359.0
KTVK 120550Z AUTO 31018G32KT 10SM OVC031 M05/M10 A3034 RMK AO2,KTVK,2015-02-12T05:50:00Z,40.68,-92.9,-5.0,-10.0,310,18,32,10.0,30.339567,,,TRUE,TRUE,,,,,,,OVC,3100,,,,,,,VFR,,,,,,,,,,,,SPECI,314.0
KUNI 120550Z AUTO 27009KT 10SM SCT017 SCT028 OVC036 02/M02 A2994 RMK AO2 T00151017 10026 20015,KUNI,2015-02-12T05:50:00Z,39.22,-82.23,1.5,-1.7,270,9,,10.0,29.940945,,,TRUE,TRUE,,,,,,,SCT,1700,SCT,2800,OVC,3600,,,VFR,,2.6,1.5,,,,,,,,,SPECI,193.0
K6I2 120550Z AUTO 28009G16KT 10SM OVC017 01/M02 A3007 RMK AO2,K6I2,2015-02-12T05:50:00Z,37.63,-85.25,1.0,-2.0,280,9,16,10.0,30.070866,,,TRUE,TRUE,,,,,,,OVC,1700,,,,,,,MVFR,,,,,,,,,,,,METAR,264.0
LCRA 120550Z 23003KT 9999 FEW025CB 08/06 Q1010 NOSIG,LCRA,2015-02-12T05:50:00Z,34.57,32.97,8.0,6.0,230,3,,6.21,29.822834,,,,,,TRUE,,,,,FEW,2500,,,,,,,VFR,,,,,,,,,,,,METAR,23.0
TJPS 120550Z 00000KT 10SM SKC 22/21 A2988,TJPS,2015-02-12T05:50:00Z,18.02,-66.57,22.0,21.0,0,0,,10.0,29.878937,,,,,,,,,,,SKC,,,,,,,,VFR,,,,,,,,,,,,METAR,9.0
NSTU 120550Z VRB03KT 12SM FEW023TCU BKN200 29/24 A2977 RMK TCU W SLP083 8/201 T02880244 10311 20288 52008,NSTU,2015-02-12T05:50:00Z,-14.33,-170.72,28.8,24.4,0,3,,12.0,29.769686,1008.3,,,,,,,,,,FEW,2300,BKN,20000,,,,,VFR,0.8,31.1,28.8,,,,,,,,,METAR,3.0
LTCG 120550Z 31004KT 280V350 9999 SCT015 BKN028 08/05 Q1015 NOSIG,LTCG,2015-02-12T05:50:00Z,41.0,39.8,8.0,5.0,310,4,,6.21,29.970472,,,,,,TRUE,,,,,SCT,1500,BKN,2800,,,,,MVFR,,,,,,,,,,,,METAR,30.0
PADL 120550Z 34012G18KT 4SM -SN BR OVC010 M06/M07 A2945,PADL,2015-02-12T05:50:00Z,59.05,-158.52,-6.0,-7.0,340,12,18,4.0,29.450787,,,,,,,,,,-SN BR,OVC,1000,,,,,,,MVFR,,,,,,,,,,,,METAR,26.0
KQBC 120550Z AUTO 06003KT 9999 SCT130 BKN170 24/19 A2993 RMK AO2 SLP133 60005 T02360194 10276 20236 53004,KQBC,2015-02-12T05:50:00Z,,,23.6,19.4,60,3,,6.21,29.929134,1013.3,,TRUE,TRUE,,,,,,,SCT,13000,BKN,17000,,,,,VFR,0.4,27.6,23.6,,,,,0.05,,,,METAR,
EFIV 120550Z 24007KT 210V270 CAVOK M04/M06 Q0985,EFIV,2015-02-12T05:50:00Z,68.62,27.42,-4.0,-6.0,240,7,,6.21,29.084646,,,,,,,,,,,CAVOK,,,,,,,,VFR,,,,,,,,,,,,METAR,148.0
EFET 120550Z AUTO 25007KT CAVOK M08/M09 Q0986,EFET,2015-02-12T05:50:00Z,68.37,23.43,-8.0,-9.0,250,7,,6.21,29.114174,,,TRUE,,,,,,,,CAVOK,,,,,,,,VFR,,,,,,,,,,,,METAR,306.0
EGHI 120550Z 00000KT 9999 BKN024 03/M01 Q1021,EGHI,2015-02-12T05:50:00Z,50.95,-1.35,3.0,-1.0,0,0,,6.21,30.147638,,,,,,,,,,,BKN,2400,,,,,,,MVFR,,,,,,,,,,,,METAR,14.0
BGGH 120550Z AUTO 34010KT 1600NDV -SN OVC017/// M12/M15 Q1000,BGGH,2015-02-12T05:50:00Z,64.2,-51.68,-12.0,-15.0,340,10,,,29.52756,,,TRUE,,,,,,,-SN,,,,,,,,,,,,,,,,,,,,,METAR,70.0
KO86 120550Z AUTO 00000KT 10SM CLR 05/05 A3028 RMK AO1,KO86,2015-02-12T05:50:00Z,40.98,-122.7,5.0,5.0,0,0,,10.0,30.280512,,,TRUE,TRUE,,,,,,,CLR,,,,,,,,VFR,,,,,,,,,,,,METAR,729.0
KNQA 120550Z 36010KT 10SM FEW250 03/M01 A3023,KNQA,2015-02-12T05:50:00Z,35.35,-89.87,3.0,-1.0,360,10,,10.0,30.230314,,,,,,,,,,,FEW,25000,,,,,,,VFR,,,,,,,,,,,,METAR,86.0
LSMM 120550Z AUTO 00000KT 0650NDV R10/0700V0900U R28/0600N FZFG NCD M11/M12 Q1022 RMK RED,LSMM,2015-02-12T05:50:00Z,46.75,8.12,-11.0,-12.0,0,0,,0.37,30.177166,,,TRUE,,,,,,,FZFG,,,,,,,,,,,,,,,,,,,,,METAR,577.0
KSYM 120550Z AUTO 29006KT 10SM BKN018 OVC024 02/M01 A3002 RMK AO2,KSYM,2015-02-12T05:50:00Z,38.22,-83.58,2.0,-1.0,290,6,,10.0,30.02067,,,TRUE,TRUE,,,,,,,BKN,1800,OVC,2400,,,,,MVFR,,,,,,,,,,,,METAR,313.0
EGPE 120550Z 25010KT 9999 FEW040 05/03 Q1015,EGPE,2015-02-12T05:50:00Z,57.52,-4.03,5.0,3.0,250,10,,6.21,29.970472,,,,,,,,,,,FEW,4000,,,,,,,VFR,,,,,,,,,,,,METAR,9.0
ETNG 120550Z 13003KT 3500 BR M01/M02 Q1021,ETNG,2015-02-12T05:50:00Z,50.97,6.03,-1.0,-2.0,130,3,,2.17,30.147638,,,,,,,,,,BR,,,,,,,,,,,,,,,,,,,,,SPECI,98.0
KMDS 120550Z AUTO 36017G22KT 10SM SCT013 M18/M20 A3056 RMK AO2,KMDS,2015-02-12T05:50:00Z,44.02,-97.08,-18.0,-20.0,360,17,22,10.0,30.561024,,,TRUE,TRUE,,,,,,,SCT,1300,,,,,,,VFR,,,,,,,,,,,,METAR,524.0
KCDD 120550Z AUTO 34007KT 10SM BKN022 M22/M24 A3053 RMK AO2,KCDD,2015-02-12T05:50:00Z,48.27,-92.48,-22.0,-24.0,340,7,,10.0,30.528543,,,TRUE,TRUE,,,,,,,BKN,2200,,,,,,,MVFR,,,,,,,,,,,,METAR,341.0
KDLL 120550Z AUTO 33008KT 4SM -SN SCT018 BKN025 OVC030 M11/M14 A3019 RMK AO2 T11101140 11070 21111 410061111,KDLL,2015-02-12T05:50:00Z,43.52,-89.77,-11.0,-14.0,330,8,,4.0,30.188976,,,TRUE,TRUE,,,,,,-SN,SCT,1800,BKN,2500,OVC,3000,,,MVFR,,-7.0,-11.1,-0.6,-11.1,,,,,,,SPECI,299.0
KSTK 120550Z AUTO 08006KT 10SM CLR M01/M04 A3034 RMK AO2,KSTK,2015-02-12T05:50:00Z,40.62,-103.27,-1.0,-4.0,80,6,,10.0,30.339567,,,TRUE,TRUE,,,,,,,CLR,,,,,,,,VFR,,,,,,,,,,,,METAR,1231.0
KSQL 120550Z AUTO 00000KT 10SM CLR 15/09 A3019 RMK AO2,KSQL,2015-02-12T05:50:00Z,37.52,-122.25,15.0,9.0,0,0,,10.0,30.188976,,,TRUE,TRUE,,,,,,,CLR,,,,,,,,VFR,,,,,,,,,,,,METAR,1.0
KSGS 120550Z AUTO 35012G18KT 10SM CLR M16/M21 A3047 RMK AO2 T11571212,KSGS,2015-02-12T05:50:00Z,44.87,-93.03,-15.7,-21.2,350,12,18,10.0,30.469488,,,TRUE,TRUE,,,,,,,CLR,,,,,,,,VFR,,,,,,,,,,,,METAR,250.0
MMDO 120549Z 21009KT 14SM SCT200 14/06 A3018 RMK SLP113 52011 9// 8/004 RTS,MMDO,2015-02-12T05:49:00Z,24.12,-104.52,14.0,6.0,210,9,,14.0,30.180119,1011.3,,,,,,,,,,SCT,20000,,,,,,,VFR,1.1,,,,,,,,,,,METAR,1857.0
KEHA 120548Z AUTO 25001KT M01/M08 RMK AO1 PK WND 03 000 T10061083,KEHA,2015-02-12T05:48:00Z,37.0,-101.9,-0.6,-8.3,250,1,,,,,,TRUE,TRUE,,,,,,,,,,,,,,,,,,,,,,,,,,,METAR,1099.0
KSDB 120548Z AUTO 07016KT 10SM CLR 12/M07 A3028 RMK AO2 SLP222 T01171072 10167 20117 51008 $,KSDB,2015-02-12T05:48:00Z,34.75,-118.72,11.7,-7.2,70,16,,10.0,30.280512,1022.2,,TRUE,TRUE,TRUE,,,,,,CLR,,,,,,,,VFR,0.8,16.7,11.7,,,,,,,,,METAR,1377.0
KJDN 120548Z AUTO 10010KT M08/M11 A3035 RMK AO1 SLP325 T10781106 11061 21089 58024,KJDN,2015-02-12T05:48:00Z,47.33,-106.95,-7.8,-10.6,100,10,,,30.351377,1032.5,,TRUE,TRUE,,,,,,,,,,,,,,,,-2.4,-6.1,-8.9,,,,,,,,,METAR,801.0
KMTN 120548Z AUTO 00000KT 10SM SCT065 BKN075 01/M01 A2992 RMK AO2,KMTN,2015-02-12T05:48:00Z,39.32,-76.42,1.0,-1.0,0,0,,10.0,29.920275,,,TRUE,TRUE,,,,,,,SCT,6500,BKN,7500,,,,,VFR,,,,,,,,,,,,SPECI,7.0
KHZX 120548Z AUTO 33012G17KT 10SM OVC023 M18/M21 A3049 RMK AO2,KHZX,2015-02-12T05:48:00Z,46.62,-93.32,-18.0,-21.0,330,12,17,10.0,30.490158,,,TRUE,TRUE,,,,,,,OVC,2300,,,,,,,MVFR,,,,,,,,,,,,METAR,374.0
KCQT 120547Z AUTO 00000KT 10SM CLR 19/00 A3007 RMK AO2 SLP180 T01940000 10294 20194 51013,KCQT,2015-02-12T05:47:00Z,34.02,-118.28,19.4,0.0,0,0,,10.0,30.070866,1018.0,,TRUE,TRUE,,,,,,,CLR,,,,,,,,VFR,1.3,29.4,19.4,,,,,,,,,METAR,56.0
CYSM 120547Z 13007KT 090V160 1SM -SN OVC007 M21/M24 A3002 RMK SC8 SLP196,CYSM,2015-02-12T05:47:00Z,60.03,-111.97,-21.0,-24.0,130,7,,1.0,30.02067,1019.6,,,,,,,,,-SN,OVC,700,,,,,,,IFR,,,,,,,,,,,,SPECI,203.0
KRHV 120547Z 00000KT 10SM SKC 14/11 A3018 RMK LAST,KRHV,2015-02-12T05:47:00Z,37.32,-121.82,14.0,11.0,0,0,,10.0,30.180119,,,,,,,,,,,SKC,,,,,,,,VFR,,,,,,,,,,,,SPECI,41.0
MMMA 120547Z 03005KT 7SM FEW020 16/16 A3009 RMK SLP186 52020 9// 8/500 HZY,MMMA,2015-02-12T05:47:00Z,25.77,-97.52,16.0,16.0,30,5,,7.0,30.088583,1018.6,,,,,,,,,,FEW,2000,,,,,,,VFR,2.0,,,,,,,,,,,METAR,8.0
MMTO 120547Z 27004KT 8SM SCT070 BKN200 06/06 A3036 RMK SLP115 57008 915 8/062,MMTO,2015-02-12T05:47:00Z,19.35,-99.57,6.0,6.0,270,4,,8.0,30.360237,1011.5,,,,,,,,,,SCT,7000,BKN,20000,,,,,VFR,-0.8,,,,,,,,,,,METAR,2576.0
FAPP 120546Z 06003KT 9999 FEW020 19/13 Q1022 NOSIG,FAPP,2015-02-12T05:46:00Z,-23.83,29.45,19.0,13.0,60,3,,6.21,30.177166,,,,,,TRUE,,,,,FEW,2000,,,,,,,VFR,,,,,,,,,,,,SPECI,1242.0
MMMX 120546Z 02004KT 10SM FEW080 OVC200 12/05 A3032 NOSIG RMK SLP122 52003 920 8/063 HZY SC BINOVC,MMMX,2015-02-12T05:46:00Z,19.42,-99.08,12.0,5.0,20,4,,10.0,30.318897,1012.2,,,,,TRUE,,,,,FEW,8000,OVC,20000,,,,,VFR,0.3,,,,,,,,,,,METAR,2238.0
MMMZ 120546Z 02006KT 10SM SKC 18/16 A2991 RMK SLP130 52007 910 HZY ISOL CU-CI,MMMZ,2015-02-12T05:46:00Z,23.17,-106.27,18.0,16.0,20,6,,10.0,29.911417,1013.0,,,,,,,,,,SKC,,,,,,,,VFR,0.7,,,,,,,,,,,METAR,10.0
ETHF 120545Z 18008KT 3000 -FZDZ BR OVC004 M00/M01 Q1023 YLO YLO,ETHF,2015-02-12T05:45:00Z,51.12,9.27,0.0,-1.0,180,8,,1.86,30.206694,,,,,,,,,,-FZDZ BR,OVC,400,,,,,,,LIFR,,,,,,,,,,,,SPECI,181.0
LMML 120545Z 28006KT 9999 FEW020 11/08 Q1020 NOSIG,LMML,2015-02-12T05:45:00Z,35.85,14.47,11.0,8.0,280,6,,6.21,30.11811,,,,,,TRUE,,,,,FEW,2000,,,,,,,VFR,,,,,,,,,,,,METAR,91.0
KQAZ 120545Z AUTO 11003KT 9999 CLR 21/M01 A2998 RMK CDP03565 CLR,KQAZ,2015-02-12T05:45:00Z,100.65,-1000.65,21.0,-1.0,110,3,,6.21,29.97933,,,TRUE,,,,,,,,CLR,,,,,,,,VFR,,,,,,,,,,,,METAR,999.0
CMGB 120545Z AUTO 36001KT M12/M16 RMK AO1 SOG 28 6019 SLP098 T11161155,CMGB,2015-02-12T05:45:00Z,45.37,-72.77,-11.6,-15.5,360,1,,,,1009.8,,TRUE,TRUE,,,,,,,,,,,,,,,,,,,,,,,,,,,METAR,86.0
CWPF 120545Z AUTO 03002KT 09/08 RMK AO1 T00930079,CWPF,2015-02-12T05:45:00Z,48.43,-123.43,9.3,7.9,30,2,,,,,,TRUE,TRUE,,,,,,,,,,,,,,,,,,,,,,,,,,,METAR,12.0
KFME 120545Z AUTO 18003KT 10SM SCT050 OVC070 00/M04 A2992 RMK AO1,KFME,2015-02-12T05:45:00Z,39.08,-76.77,0.0,-4.0,180,3,,10.0,29.920275,,,TRUE,TRUE,,,,,,,SCT,5000,OVC,7000,,,,,VFR,,,,,,,,,,,,METAR,46.0
KDMW 120545Z AUTO 21004KT 10SM OVC055 01/M06 A2986 RMK AO2,KDMW,2015-02-12T05:45:00Z,39.6,-77.0,1.0,-6.0,210,4,,10.0,29.861221,,,TRUE,TRUE,,,,,,,OVC,5500,,,,,,,VFR,,,,,,,,,,,,SPECI,241.0
KCGS 120545Z AUTO 17005KT 10SM OVC070 01/M02 A2990 RMK AO1,KCGS,2015-02-12T05:45:00Z,38.98,-76.92,1.0,-2.0,170,5,,10.0,29.899607,,,TRUE,TRUE,,,,,,,OVC,7000,,,,,,,VFR,,,,,,,,,,,,SPECI,15.0
KCGE 120545Z AUTO 14003KT 7SM SCT110 00/M01 A2992 RMK AO1,KCGE,2015-02-12T05:45:00Z,38.53,-76.03,0.0,-1.0,140,3,,7.0,29.920275,,,TRUE,TRUE,,,,,,,SCT,11000,,,,,,,VFR,,,,,,,,,,,,SPECI,6.0
KCBE 120545Z AUTO 26008KT 10SM OVC032 04/M02 A2990 RMK AO1,KCBE,2015-02-12T05:45:00Z,39.62,-78.77,4.0,-2.0,260,8,,10.0,29.899607,,,TRUE,TRUE,,,,,,,OVC,3200,,,,,,,VFR,,,,,,,,,,,,METAR,236.0
K2W6 120545Z AUTO 00000KT 10SM SCT100 00/M03 A2993 RMK AO1,K2W6,2015-02-12T05:45:00Z,38.32,-76.55,0.0,-3.0,0,0,,10.0,29.929134,,,TRUE,TRUE,,,,,,,SCT,10000,,,,,,,VFR,,,,,,,,,,,,SPECI,44.0
K2G4 120545Z AUTO 26012G21KT 222V292 4SM HZ OVC003 M02/ A2978 RMK AO1,K2G4,2015-02-12T05:45:00Z,39.58,-79.33,-2.0,,260,12,21,4.0,29.778543,,,TRUE,TRUE,,,,,,HZ,OVC,300,,,,,,,LIFR,,,,,,,,,,,,SPECI,894.0
CYPY 120545Z AUTO 16006KT 110V210 5/8SM -SN VV008 M17/M19 A3003 RMK PRESFR SLP200,CYPY,2015-02-12T05:45:00Z,58.77,-111.12,-17.0,-19.0,160,6,,0.63,30.029528,1020.0,,TRUE,,,,,,,-SN,OVX,0,,,,,,,LIFR,,,,,,,,,,,800,SPECI,232.0
KSWF 120545Z 00000KT 10SM BKN070 M07/M10 A2986,KSWF,2015-02-12T05:45:00Z,41.5,-74.08,-7.0,-10.0,0,0,,10.0,29.861221,,,,,,,,,,,BKN,7000,,,,,,,VFR,,,,,,,,,,,,METAR,150.0
LHKE 120545Z 00000KT 0150 FZFG SCT050 M04/M04 Q1029 NOSIG RMK RED,LHKE,2015-02-12T05:45:00Z,46.92,19.75,-4.0,-4.0,0,0,,0.09,30.383858,,,,,,TRUE,,,,FZFG,SCT,5000,,,,,,,LIFR,,,,,,,,,,,,METAR,115.0
KMWS 120545Z 08504G05KT 12/M16 RMK SNOW DEPTH 3.00,KMWS,2015-02-12T05:45:00Z,34.23,-118.05,12.0,-16.0,85,4,5,,,,,,,,,,,,,,,,,,,,,,,,,,,,,,,,,METAR,1739.0
LHSN 120545Z 13002KT 0300 FZFG FEW050 M04/M04 Q1029 BECMG 1500 BR RMK RED,LHSN,2015-02-12T05:45:00Z,47.12,20.23,-4.0,-4.0,130,2,,0.19,30.383858,,,,,,,,,,FZFG,FEW,5000,,,,,,,LIFR,,,,,,,,,,,,METAR,98.0
MMMY 120545Z 12006KT 15SM SCT050 15/12 A3007 RMK SLP184 52035 931 8/500,MMMY,2015-02-12T05:45:00Z,25.77,-100.08,15.0,12.0,120,6,,15.0,30.070866,1018.4,,,,,,,,,,SCT,5000,,,,,,,VFR,3.5,,,,,,,,,,,METAR,387.0
MMQT 120545Z 20010KT 7SM -RA BKN020 OVC100 11/09 A3033 RMK 8/47/ -RA B40,MMQT,2015-02-12T05:45:00Z,20.62,-100.18,11.0,9.0,200,10,,7.0,30.33071,,,,,,,,,,-RA,BKN,2000,OVC,10000,,,,,MVFR,,,,,,,,,,,,METAR,1813.0
LHDC 120545Z 12002KT 4000 MIFG NSC M06/M07 Q1030 NOSIG,LHDC,2015-02-12T05:45:00Z,47.47,21.62,-6.0,-7.0,120,2,,2.49,30.413385,,,,,,TRUE,,,,MIFG,,,,,,,,,,,,,,,,,,,,,METAR,112.0
LHBC 120545Z 11002KT 3500 BR NSC M06/M06 Q1030,LHBC,2015-02-12T05:45:00Z,46.68,21.17,-6.0,-6.0,110,2,,2.17,30.413385,,,,,,,,,,BR,,,,,,,,,,,,,,,,,,,,,METAR,86.0
LHPA 120545Z 13001MPS 8000 BKN020 01/M00 Q1028 NOSIG RMK WHT,LHPA,2015-02-12T05:45:00Z,47.35,17.5,1.0,0.0,130,2,,4.97,30.35433,,,,,,TRUE,,,,,BKN,2000,,,,,,,MVFR,,,,,,,,,,,,METAR,148.0
LHPP 120545Z 08005KT 8000 OVC013 02/00 Q1028,LHPP,2015-02-12T05:45:00Z,45.98,18.23,2.0,0.0,80,5,,4.97,30.35433,,,,,,,,,,,OVC,1300,,,,,,,MVFR,,,,,,,,,,,,METAR,305.0
LHPR 120545Z 11003KT 4000 BR OVC020 00/M00 Q1029,LHPR,2015-02-12T05:45:00Z,47.63,17.82,0.0,0.0,110,3,,2.49,30.383858,,,,,,,,,,BR,OVC,2000,,,,,,,IFR,,,,,,,,,,,,METAR,129.0
LHSM 120545Z 00000KT 8000 BKN026 OVC083 01/M01 Q1028,LHSM,2015-02-12T05:45:00Z,46.68,17.17,1.0,-1.0,0,0,,4.97,30.35433,,,,,,,,,,,BKN,2600,OVC,8300,,,,,MVFR,,,,,,,,,,,,METAR,125.0
LHUD 120545Z 13004KT CAVOK M04/M05 Q1029,LHUD,2015-02-12T05:45:00Z,46.25,20.1,-4.0,-5.0,130,4,,6.21,30.383858,,,,,,,,,,,CAVOK,,,,,,,,VFR,,,,,,,,,,,,METAR,84.0
KCFE 120545Z AUTO 33014G19KT 10SM CLR M18/M22 A3052 RMK AO2,KCFE,2015-02-12T05:45:00Z,45.17,-93.85,-18.0,-22.0,330,14,19,10.0,30.519686,,,TRUE,TRUE,,,,,,,CLR,,,,,,,,VFR,,,,,,,,,,,,METAR,295.0
LIPX 120545Z 36005KT 0900 R04/P1500U FZFG NSC M01/M01 Q1025,LIPX,2015-02-12T05:45:00Z,45.38,10.87,-1.0,-1.0,360,5,,0.56,30.265747,,,,,,,,,,FZFG,,,,,,,,,,,,,,,,,,,,,METAR,68.0
LIPR 120545Z 28002KT 0000 R31/0250 FG VV/// 01/01 Q1024,LIPR,2015-02-12T05:45:00Z,44.02,12.62,1.0,1.0,280,2,,0.0,30.236221,,,,,,,,,,FG,OVX,0,,,,,,,LIFR,,,,,,,,,,,,METAR,13.0
LIPH 120545Z /////KT 8000 NSC 01/01 Q1024,LIPH,2015-02-12T05:45:00Z,45.63,12.17,1.0,1.0,,,,4.97,30.236221,,,,,,,,,,,,,,,,,,,,,,,,,,,,,,,METAR,23.0
LIBR 120545Z 04007KT CAVOK 07/M05 Q1023 NOSIG,LIBR,2015-02-12T05:45:00Z,40.65,17.95,7.0,-5.0,40,7,,6.21,30.206694,,,,,,TRUE,,,,,CAVOK,,,,,,,,VFR,,,,,,,,,,,,METAR,10.0
LIRP 120545Z 13006KT CAVOK 02/01 Q1022 NOSIG,LIRP,2015-02-12T05:45:00Z,43.67,10.37,2.0,1.0,130,6,,6.21,30.177166,,,,,,TRUE,,,,,CAVOK,,,,,,,,VFR,,,,,,,,,,,,METAR,2.0
LIRA 120545Z 00000KT 9999 FEW030 03/03 Q1022,LIRA,2015-02-12T05:45:00Z,41.8,12.58,3.0,3.0,0,0,,6.21,30.177166,,,,,,,,,,,FEW,3000,,,,,,,VFR,,,,,,,,,,,,METAR,101.0
KJMR 120545Z AUTO 33013G21KT 10SM CLR M18/M23 A3049 RMK AO2,KJMR,2015-02-12T05:45:00Z,45.88,-93.27,-18.0,-23.0,330,13,21,10.0,30.490158,,,TRUE,TRUE,,,,,,,CLR,,,,,,,,VFR,,,,,,,,,,,,METAR,309.0
KW29 120544Z AUTO 19005KT 10SM 00/M02 A2992 RMK AO1,KW29,2015-02-12T05:44:00Z,38.98,-76.33,0.0,-2.0,190,5,,10.0,29.920275,,,TRUE,TRUE,,,,,,,,,,,,,,,,,,,,,,,,,,,SPECI,15.0
CWSA 120544Z AUTO 04039G48KT 3/4SM FZUP BR SCT008 OVC013 02/01 A2949 RMK ICG SLP987,CWSA,2015-02-12T05:44:00Z,43.93,-60.0,2.0,1.0,40,39,48,0.75,29.489174,998.7,,TRUE,,,,,,,BR UP,SCT,800,OVC,1300,,,,,LIFR,,,,,,,,,,,,SPECI,4.0
MMSP 120544Z 00000KT 10SM SCT025 14/01 A3018 RMK SLP093 52019 906 8/500,MMSP,2015-02-12T05:44:00Z,22.25,-100.93,14.0,1.0,0,0,,10.0,30.180119,1009.3,,,,,,,,,,SCT,2500,,,,,,,VFR,1.9,,,,,,,,,,,METAR,1903.0
MMPR 120544Z 00000KT 12SM FEW020 BKN270 22/21 A2992 RMK SLP129 52002 912 8/508 AC,MMPR,2015-02-12T05:44:00Z,20.67,-105.25,22.0,21.0,0,0,,12.0,29.920275,1012.9,,,,,,,,,,FEW,2000,BKN,27000,,,,,VFR,0.2,,,,,,,,,,,METAR,6.0
MMLO 120544Z 12006KT 8SM SCT080 BKN200 13/05 A3030 RMK SLP145 52009 920 8/038,MMLO,2015-02-12T05:44:00Z,21.0,-101.47,13.0,5.0,120,6,,8.0,30.301182,1014.5,,,,,,,,,,SCT,8000,BKN,20000,,,,,VFR,0.9,,,,,,,,,,,METAR,1819.0
MMAA 120544Z 02003KT 8SM SCT100 OVC300 24/22 A2991 RMK SLP124 52007 908 8/077 HZY,MMAA,2015-02-12T05:44:00Z,16.75,-99.75,24.0,22.0,20,3,,8.0,29.911417,1012.4,,,,,,,,,,SCT,10000,OVC,30000,,,,,VFR,0.7,,,,,,,,,,,METAR,5.0
MMTJ 120543Z 05008KT 8SM SKC 24/M11 A3007 RMK SLP182 52013 937,MMTJ,2015-02-12T05:43:00Z,32.53,-116.97,24.0,-11.0,50,8,,8.0,30.070866,1018.2,,,,,,,,,,SKC,,,,,,,,VFR,1.3,,,,,,,,,,,METAR,152.0
MMAS 120543Z 21007KT 10SM SCT040 BKN210 14/02 A3023 RMK SLP126 8/508,MMAS,2015-02-12T05:43:00Z,21.7,-102.32,14.0,2.0,210,7,,10.0,30.230314,1012.6,,,,,,,,,,SCT,4000,BKN,21000,,,,,VFR,,,,,,,,,,,,METAR,1863.0
MMHO 120543Z 00000KT 10SM SKC 19/08 A2994 RMK SLP124 52002 908,MMHO,2015-02-12T05:43:00Z,29.08,-111.05,19.0,8.0,0,0,,10.0,29.940945,1012.4,,,,,,,,,,SKC,,,,,,,,VFR,0.2,,,,,,,,,,,METAR,184.0
KMYP 120543Z AUTO CLR M07/M10 A3054 RMK AO2 PWINO,KMYP,2015-02-12T05:43:00Z,38.48,-106.32,-7.0,-10.0,,,,,30.540354,,,TRUE,TRUE,,,,,TRUE,,CLR,,,,,,,,,,,,,,,,,,,,METAR,3667.0
FASB 120542Z 12002KT CAVOK 16/08 Q1018,FASB,2015-02-12T05:42:00Z,-29.68,17.93,16.0,8.0,120,2,,6.21,30.059055,,,,,,,,,,,CAVOK,,,,,,,,VFR,,,,,,,,,,,,SPECI,813.0
CYQA 120542Z AUTO 27008KT 6SM -SN BKN010 OVC016 M07/M08 A2972 RMK SLP082,CYQA,2015-02-12T05:42:00Z,44.97,-79.28,-7.0,-8.0,270,8,,6.0,29.719488,1008.2,,TRUE,,,,,,,-SN,BKN,1000,OVC,1600,,,,,MVFR,,,,,,,,,,,,SPECI,282.0
MMRX 120542Z 06006KT 8SM BKN025 17/14 A3008 RMK SLP184 52023 935 8/500 HZY FU,MMRX,2015-02-12T05:42:00Z,26.02,-98.22,17.0,14.0,60,6,,8.0,30.079725,1018.4,,,,,,,,,,BKN,2500,,,,,,,MVFR,2.3,,,,,,,,,,,METAR,39.0
MMMM 120542Z 00000KT 7SM BKN030 BKN070 11/08 A3024 RMK SLP132 52005 923 8/46/,MMMM,2015-02-12T05:42:00Z,19.85,-101.02,11.0,8.0,0,0,,7.0,30.239174,1013.2,,,,,,,,,,BKN,3000,BKN,7000,,,,,MVFR,0.5,,,,,,,,,,,METAR,1833.0
MMUN 120542Z 31003KT 7SM FEW015 16/15 A3001 RMK SLP151 54000 913 8/500,MMUN,2015-02-12T05:42:00Z,21.02,-86.85,16.0,15.0,310,3,,7.0,30.008858,1015.1,,,,,,,,,,FEW,1500,,,,,,,VFR,,,,,,,,,,,,METAR,10.0
MMCE 120542Z 04009KT 7SM SKC 23/17 A2998 RMK SLP149 54000 953,MMCE,2015-02-12T05:42:00Z,18.65,-91.8,23.0,17.0,40,9,,7.0,29.97933,1014.9,,,,,,,,,,SKC,,,,,,,,VFR,,,,,,,,,,,,METAR,2.0
FACV 120542Z 31002KT CAVOK 14/02 Q1017,FACV,2015-02-12T05:42:00Z,-31.5,19.72,14.0,2.0,310,2,,6.21,30.029528,,,,,,,,,,,CAVOK,,,,,,,,VFR,,,,,,,,,,,,SPECI,977.0
RJNG 120541Z 23007KT 9999 FEW020 SCT035 09/01 Q1004 RMK 1CU020 4CU035 A2966,RJNG,2015-02-12T05:41:00Z,35.37,136.87,9.0,1.0,230,7,,6.21,29.64567,,,,,,,,,,,FEW,2000,SCT,3500,,,,,VFR,,,,,,,,,,,,METAR,42.0
MMCV 120541Z 18014KT 8SM SKC 18/12 A3004 RMK SLP176 52013 924 ISOL AC,MMCV,2015-02-12T05:41:00Z,23.72,-98.97,18.0,12.0,180,14,,8.0,30.041338,1017.6,,,,,,,,,,SKC,,,,,,,,VFR,1.3,,,,,,,,,,,METAR,238.0
KBDH 120541Z AUTO 34009KT 10SM CLR M18/M23 A3056 RMK AO2,KBDH,2015-02-12T05:41:00Z,45.12,-95.13,-18.0,-23.0,340,9,,10.0,30.561024,,,TRUE,TRUE,,,,,,,CLR,,,,,,,,VFR,,,,,,,,,,,,METAR,247.0
MMZC 120541Z 17005KT 10SM SKC 14/02 A3022,MMZC,2015-02-12T05:41:00Z,22.9,-102.68,14.0,2.0,170,5,,10.0,30.221457,,,,,,,,,,,SKC,,,,,,,,VFR,,,,,,,,,,,,METAR,2177.0
MMGL 120541Z 00000KT 10SM SCT020 SCT080 OVC300 16/07 A3020 RMK SLP123 52008 927 8/557,MMGL,2015-02-12T05:41:00Z,20.52,-103.32,16.0,7.0,0,0,,10.0,30.200787,1012.3,,,,,,,,,,SCT,2000,SCT,8000,OVC,30000,,,VFR,0.8,,,,,,,,,,,METAR,1528.0
MMVA 120541Z 06007KT 5SM SKC 20/18 A3000 RMK SLP156 52003 9// HZY,MMVA,2015-02-12T05:41:00Z,18.0,-92.82,20.0,18.0,60,7,,5.0,30.0,1015.6,,,,,,,,,,SKC,,,,,,,,MVFR,0.3,,,,,,,,,,,METAR,13.0
MMTP 120541Z 00000KT 10SM BKN100 26/23 A2995 RMK SLP133 52011 913 8/050,MMTP,2015-02-12T05:41:00Z,14.77,-92.37,26.0,23.0,0,0,,10.0,29.949802,1013.3,,,,,,,,,,BKN,10000,,,,,,,VFR,1.1,,,,,,,,,,,METAR,29.0
MMCP 120541Z 04010KT 7SM SKC 19/14 A2999,MMCP,2015-02-12T05:41:00Z,19.82,-90.5,19.0,14.0,40,10,,7.0,29.991142,,,,,,,,,,,SKC,,,,,,,,VFR,,,,,,,,,,,,METAR,5.0
MMCZ 120541Z 00000KT 7SM SKC 16/16 A3000 RMK SLP151 55019 951 RTS,MMCZ,2015-02-12T05:41:00Z,20.52,-86.92,16.0,16.0,0,0,,7.0,30.0,1015.1,,,,,,,,,,SKC,,,,,,,,VFR,-1.9,,,,,,,,,,,METAR,5.0
MMPB 120541Z 01005KT 10SM FEW100 BKN220 11/04 A3030 RMK 8/038,MMPB,2015-02-12T05:41:00Z,19.17,-98.37,11.0,4.0,10,5,,10.0,30.301182,,,,,,,,,,,FEW,10000,BKN,22000,,,,,VFR,,,,,,,,,,,,METAR,2244.0
MMIO 120540Z 00000KT 6SM SCT040 12/08 A3015 RMK 8/500 HZY,MMIO,2015-02-12T05:40:00Z,25.55,-100.93,12.0,8.0,0,0,,6.0,30.15059,,,,,,,,,,,SCT,4000,,,,,,,VFR,,,,,,,,,,,,METAR,1790.0
FAKM 120540Z 36016KT CAVOK 26/10 Q1019,FAKM,2015-02-12T05:40:00Z,-28.8,24.77,26.0,10.0,360,16,,6.21,30.088583,,,,,,,,,,,CAVOK,,,,,,,,VFR,,,,,,,,,,,,SPECI,1192.0
KFDK 120540Z AUTO 00000KT 10SM OVC055 01/M04 A2992 RMK AO2,KFDK,2015-02-12T05:40:00Z,39.42,-77.37,1.0,-4.0,0,0,,10.0,29.920275,,,TRUE,TRUE,,,,,,,OVC,5500,,,,,,,VFR,,,,,,,,,,,,SPECI,92.0
CWZQ 120540Z AUTO 30008KT M05/M08 RMK AO1 T10531081,CWZQ,2015-02-12T05:40:00Z,46.53,-61.05,-5.3,-8.1,300,8,,,,,,TRUE,TRUE,,,,,,,,,,,,,,,,,,,,,,,,,,,METAR,17.0
MMCU 120540Z 36016KT 10SM BKN030 09/00 A3023 RMK SLP171 52017 942 8/500,MMCU,2015-02-12T05:40:00Z,28.7,-105.97,9.0,0.0,360,16,,10.0,30.230314,1017.1,,,,,,,,,,BKN,3000,,,,,,,MVFR,1.7,,,,,,,,,,,METAR,1372.0
MMAN 120540Z 13003KT 8SM FEW050 15/12 A3010 RMK SLP160 52027 938 8/500,MMAN,2015-02-12T05:40:00Z,25.87,-100.23,15.0,12.0,130,3,,8.0,30.100393,1016.0,,,,,,,,,,FEW,5000,,,,,,,VFR,2.7,,,,,,,,,,,METAR,448.0
K8S0 120540Z 23007KT ,K8S0,2015-02-12T05:40:00Z,48.6,-113.12,,,230,7,,,,,,,,,,,,,,,,,,,,,,,,,,,,,,,,,,METAR,1419.0
MMLP 120540Z 00000KT 10SM FEW220 17/12 A2997 RMK SLP147 52007 916 8/001,MMLP,2015-02-12T05:40:00Z,24.07,-110.37,17.0,12.0,0,0,,10.0,29.970472,1014.7,,,,,,,,,,FEW,22000,,,,,,,VFR,0.7,,,,,,,,,,,METAR,21.0
MMCL 120540Z 00000KT 10SM SCT250 20/17 A2991 RMK SLP134 56007 912 8/001 HZY,MMCL,2015-02-12T05:40:00Z,24.77,-107.47,20.0,17.0,0,0,,10.0,29.911417,1013.4,,,,,,,,,,SCT,25000,,,,,,,VFR,-0.7,,,,,,,,,,,METAR,39.0
RCSS 120540Z 28011KT 9999 FEW025 BKN200 19/01 Q1018 WS R28 NOSIG RMK 29010KT/R10 A3006,RCSS,2015-02-12T05:40:00Z,25.07,121.53,19.0,1.0,280,11,,6.21,30.059055,,,,,,TRUE,,,,,FEW,2500,BKN,20000,,,,,VFR,,,,,,,,,,,,SPECI,6.0
VOTV 120540Z 18003KT 5000 HZ FEW015 FEW025TCU 31/25 Q1012 NOSIG,VOTV,2015-02-12T05:40:00Z,8.47,76.95,31.0,25.0,180,3,,3.11,29.88189,,,,,,TRUE,,,,HZ,FEW,1500,FEW,2500,,,,,MVFR,,,,,,,,,,,,METAR,8.0
VOTR 120540Z 04011KT 4000 HZ SCT016 30/20 Q1014 NOSIG,VOTR,2015-02-12T05:40:00Z,10.77,78.72,30.0,20.0,40,11,,2.49,29.940945,,,,,,TRUE,,,,HZ,SCT,1600,,,,,,,IFR,,,,,,,,,,,,METAR,88.0
VOMM 120540Z 02006KT 6000 SCT020 30/20 Q1014 NOSIG,VOMM,2015-02-12T05:40:00Z,13.0,80.17,30.0,20.0,20,6,,3.73,29.940945,,,,,,TRUE,,,,,SCT,2000,,,,,,,MVFR,,,,,,,,,,,,METAR,16.0
VAAH 120540Z 07007KT 5000 FU NSC 26/05 Q1017 NOSIG,VAAH,2015-02-12T05:40:00Z,23.07,72.62,26.0,5.0,70,7,,3.11,30.029528,,,,,,TRUE,,,,FU,,,,,,,,,,,,,,,,,,,,,METAR,55.0
KLVN 120540Z AUTO 34016G20KT 10SM SCT029 M17/M22 A3046 RMK AO2,KLVN,2015-02-12T05:40:00Z,44.63,-93.23,-17.0,-22.0,340,16,20,10.0,30.46063,,,TRUE,TRUE,,,,,,,SCT,2900,,,,,,,VFR,,,,,,,,,,,,METAR,293.0
CYWA 120539Z AUTO 13004KT 4SM -SN OVC018 OVC027 M12/M14 A2973,CYWA,2015-02-12T05:39:00Z,45.95,-77.32,-12.0,-14.0,130,4,,4.0,29.731298,,,TRUE,,,,,,,-SN,OVC,1800,OVC,2700,,,,,MVFR,,,,,,,,,,,,SPECI,130.0
FAMM 120536Z 05008KT 9999 TS FEW040CB BKN080 23/13 Q1022 TEMPO -TSRA,FAMM,2015-02-12T05:36:00Z,-25.8,25.52,23.0,13.0,50,8,,6.21,30.177166,,,,,,,,,,TS,FEW,4000,BKN,8000,,,,,VFR,,,,,,,,,,,,SPECI,1277.0
CYXS 120536Z AUTO 18014KT 9SM -RA SCT007 OVC027 02/01 A3002 RMK SLP200,CYXS,2015-02-12T05:36:00Z,53.9,-122.68,2.0,1.0,180,14,,9.0,30.02067,1020.0,,TRUE,,,,,,,-RA,SCT,700,OVC,2700,,,,,MVFR,,,,,,,,,,,,SPECI,691.0
UMMS 120536Z 24003MPS 0800 R31/0800 FZFG VV002 M02/M02 Q1026 R31/810550 NOSIG,UMMS,2015-02-12T05:36:00Z,53.88,28.03,-2.0,-2.0,240,6,,0.5,30.295275,,,,,,TRUE,,,,FZFG,OVX,0,,,,,,,LIFR,,,,,,,,,,,200,SPECI,205.0
KVQQ 120535Z AUTO 00000KT 3SM BR CLR 03/03 A3006 RMK AO2,KVQQ,2015-02-12T05:35:00Z,30.22,-81.88,3.0,3.0,0,0,,3.0,30.059055,,,TRUE,TRUE,,,,,,BR,CLR,,,,,,,,MVFR,,,,,,,,,,,,METAR,25.0
KSPF 120535Z AUTO 10008KT 10SM BKN008 OVC015 M08/M09 A3038 RMK AO2,KSPF,2015-02-12T05:35:00Z,44.47,-103.77,-8.0,-9.0,100,8,,10.0,30.380905,,,TRUE,TRUE,,,,,,,BKN,800,OVC,1500,,,,,IFR,,,,,,,,,,,,METAR,1188.0
KFWB 120535Z AUTO 36011G18KT 10SM CLR M02/M07 A3034 RMK AO2,KFWB,2015-02-12T05:35:00Z,36.7,-93.4,-2.0,-7.0,360,11,18,10.0,30.339567,,,TRUE,TRUE,,,,,,,CLR,,,,,,,,VFR,,,,,,,,,,,,METAR,406.0
KDYA 120535Z AUTO 00000KT 10SM CLR 04/02 A3011 RMK AO2 T00390022,KDYA,2015-02-12T05:35:00Z,32.47,-87.95,3.9,2.2,0,0,,10.0,30.109253,,,TRUE,TRUE,,,,,,,CLR,,,,,,,,VFR,,,,,,,,,,,,METAR,34.0
KFYG 120535Z AUTO 30010KT 10SM CLR M02/M07 A3030 RMK AO2,KFYG,2015-02-12T05:35:00Z,38.58,-91.0,-2.0,-7.0,300,10,,10.0,30.301182,,,TRUE,TRUE,,,,,,,CLR,,,,,,,,VFR,,,,,,,,,,,,SPECI,149.0
KD60 120535Z AUTO 13004KT 10SM CLR M24/M25 A3059 RMK AO2,KD60,2015-02-12T05:35:00Z,48.38,-102.9,-24.0,-25.0,130,4,,10.0,30.590551,,,TRUE,TRUE,,,,,,,CLR,,,,,,,,VFR,,,,,,,,,,,,SPECI,693.0
KO22 120535Z AUTO 00000KT 10SM CLR 08/05 A3022 RMK AO1,KO22,2015-02-12T05:35:00Z,38.03,-120.42,8.0,5.0,0,0,,10.0,30.221457,,,TRUE,TRUE,,,,,,,CLR,,,,,,,,VFR,,,,,,,,,,,,METAR,646.0
KBBG 120535Z AUTO 34013G18KT 10SM CLR M03/M06 A3034 RMK AO2,KBBG,2015-02-12T05:35:00Z,36.53,-93.2,-3.0,-6.0,340,13,18,10.0,30.339567,,,TRUE,TRUE,,,,,,,CLR,,,,,,,,VFR,,,,,,,,,,,,METAR,397.0
K9D7 120535Z AUTO 33006KT 10SM CLR M27/M30 A3069 RMK AO2,K9D7,2015-02-12T05:35:00Z,48.48,-99.23,-27.0,-30.0,330,6,,10.0,30.690945,,,TRUE,TRUE,,,,,,,CLR,,,,,,,,VFR,,,,,,,,,,,,METAR,452.0
CBBC 120535Z AUTO 13009KT 9SM BKN025 OVC029 08/07 A2998 RMK SLP153,CBBC,2015-02-12T05:35:00Z,52.18,-128.15,8.0,7.0,130,9,,9.0,29.97933,1015.3,,TRUE,,,,,,,,BKN,2500,OVC,2900,,,,,MVFR,,,,,,,,,,,,SPECI,43.0
CYRV 120535Z AUTO 36003KT 310V060 2 1/2SM -RA BR BKN008 OVC012 02/02 A3026 RMK SLP264,CYRV,2015-02-12T05:35:00Z,50.97,-118.17,2.0,2.0,360,3,,2.5,30.259842,1026.4,,TRUE,,,,,,,-RA BR,BKN,800,OVC,1200,,,,,IFR,,,,,,,,,,,,SPECI,443.0
KBWD 120535Z AUTO 36010G19KT 10SM OVC044 08/00 A3033 RMK AO2,KBWD,2015-02-12T05:35:00Z,31.8,-98.95,8.0,0.0,360,10,19,10.0,30.33071,,,TRUE,TRUE,,,,,,,OVC,4400,,,,,,,VFR,,,,,,,,,,,,METAR,423.0
CYYC 120533Z 22009KT 4SM BR FEW006 BKN180 M07/M08 A2998 RMK SF1AC6 SLP225,CYYC,2015-02-12T05:33:00Z,51.12,-114.02,-7.0,-8.0,220,9,,4.0,29.97933,1022.5,,,,,,,,,BR,FEW,600,BKN,18000,,,,,MVFR,,,,,,,,,,,,SPECI,1084.0
CYZR 120533Z AUTO 32016G21KT 6SM -SN FEW011 SCT020 OVC031 M05/M08 A2988 RMK SLP126,CYZR,2015-02-12T05:33:00Z,43.0,-82.3,-5.0,-8.0,320,16,21,6.0,29.878937,1012.6,,TRUE,,,,,,,-SN,FEW,1100,SCT,2000,OVC,3100,,,VFR,,,,,,,,,,,,SPECI,181.0
TISX 120532Z 28003KT 10SM FEW015 SCT019 24/23 A2993 RMK AO2 T02440228,TISX,2015-02-12T05:32:00Z,17.7,-64.8,24.4,22.8,280,3,,10.0,29.929134,,,,TRUE,,,,,,,FEW,1500,SCT,1900,,,,,VFR,,,,,,,,,,,,SPECI,19.0
RJFF 120531Z 28015G25KT 9999 FEW035 11/M02 Q1009 RMK 1CU035 A2981,RJFF,2015-02-12T05:31:00Z,33.57,130.43,11.0,-2.0,280,15,25,6.21,29.793306,,,,,,,,,,,FEW,3500,,,,,,,VFR,,,,,,,,,,,,SPECI,12.0
CYUL 120531Z 02008KT 3SM -SN OVC020 M12/M15 A2981 RMK SN2SC6 SLP096,CYUL,2015-02-12T05:31:00Z,45.47,-73.73,-12.0,-15.0,20,8,,3.0,29.811024,1009.6,,,,,,,,,-SN,OVC,2000,,,,,,,MVFR,,,,,,,,,,,,SPECI,36.0
VVNB 120530Z VRB04KT 9000 NSC 22/11 Q1018 NOSIG,VVNB,2015-02-12T05:30:00Z,21.22,105.8,22.0,11.0,0,4,,5.59,30.059055,,,,,,TRUE,,,,,,,,,,,,,,,,,,,,,,,,,METAR,12.0
UTFF 120530Z 34006KT 300V360 4700 HZ SCT066CB BKN100 10/04 Q1014 R18/CLRD70,UTFF,2015-02-12T05:30:00Z,40.37,71.77,10.0,4.0,340,6,,2.92,29.940945,,,,,,,,,,HZ,SCT,6600,BKN,10000,,,,,IFR,,,,,,,,,,,,METAR,577.0
VVTS 120530Z VRB03KT 9999 FEW020 31/13 Q1012 NOSIG,VVTS,2015-02-12T05:30:00Z,10.82,106.67,31.0,13.0,0,3,,6.21,29.88189,,,,,,TRUE,,,,,FEW,2000,,,,,,,VFR,,,,,,,,,,,,METAR,19.0
VYMD 120530Z 00000KT 7000 FEW020 29/16 Q1012NOSIG,VYMD,2015-02-12T05:30:00Z,21.7,95.98,29.0,16.0,0,0,,4.35,,,,,,,TRUE,,,,,FEW,2000,,,,,,,MVFR,,,,,,,,,,,,SPECI,91.0
VTBU 120530Z 17005KT 3000 HZ FEW020 SCT300 29/20 Q1012 A2991,VTBU,2015-02-12T05:30:00Z,12.68,101.0,29.0,20.0,170,5,,1.86,29.88189,,,,,,,,,,HZ,FEW,2000,SCT,30000,,,,,IFR,,,,,,,,,,,,METAR,5.0
VTCC 120530Z 17005KT 7000 FEW040 SCT120 29/11 Q1014 A2996 NOSIG,VTCC,2015-02-12T05:30:00Z,18.77,98.97,29.0,11.0,170,5,,4.35,29.940945,,,,,,TRUE,,,,,FEW,4000,SCT,12000,,,,,MVFR,,,,,,,,,,,,METAR,314.0
KECU 120530Z AUTO 02011G23KT 10SM FEW050 11/04 A3026 RMK AO2,KECU,2015-02-12T05:30:00Z,29.95,-100.17,11.0,4.0,20,11,23,10.0,30.259842,,,TRUE,TRUE,,,,,,,FEW,5000,,,,,,,VFR,,,,,,,,,,,,SPECI,725.0
VVCR 120530Z 07013KT 9999 FEW017 28/19 Q1016 NOSIG,VVCR,2015-02-12T05:30:00Z,12.0,109.22,28.0,19.0,70,13,,6.21,30.0,,,,,,TRUE,,,,,FEW,1700,,,,,,,VFR,,,,,,,,,,,,METAR,12.0
VVPB 120530Z 01007KT 9999 SCT020 24/19 Q1017 NOSIG,VVPB,2015-02-12T05:30:00Z,16.38,107.7,24.0,19.0,10,7,,6.21,30.029528,,,,,,TRUE,,,,,SCT,2000,,,,,,,VFR,,,,,,,,,,,,METAR,17.0
VVDN 120530Z 11006KT 060V150 7000 FEW015 26/17 Q1017 NOSIG,VVDN,2015-02-12T05:30:00Z,16.02,108.2,26.0,17.0,110,6,,4.35,30.029528,,,,,,TRUE,,,,,FEW,1500,,,,,,,MVFR,,,,,,,,,,,,METAR,7.0
VTSP 120530Z 08013KT 9999 FEW030 30/18 Q1011 A2987 NOSIG,VTSP,2015-02-12T05:30:00Z,8.12,98.32,30.0,18.0,80,13,,6.21,29.852362,,,,,,TRUE,,,,,FEW,3000,,,,,,,VFR,,,,,,,,,,,,METAR,10.0
VTBD 120530Z 20008KT 170V240 9000 FEW020 SCT035 BKN300 30/22 Q1012 NOSIG,VTBD,2015-02-12T05:30:00Z,13.92,100.6,30.0,22.0,200,8,,5.59,29.88189,,,,,,TRUE,,,,,FEW,2000,SCT,3500,BKN,30000,,,VFR,,,,,,,,,,,,METAR,3.0
VTBS 120530Z 20007KT 170V260 9999 SCT025 BKN300 31/20 Q1012 NOSIG,VTBS,2015-02-12T05:30:00Z,13.68,100.75,31.0,20.0,200,7,,6.21,29.88189,,,,,,TRUE,,,,,SCT,2500,BKN,30000,,,,,VFR,,,,,,,,,,,,METAR,2.0
VIJP 120530Z 13004KT 4000 HZ NSC 21/02 Q1019 NOSIG,VIJP,2015-02-12T05:30:00Z,26.82,75.78,21.0,2.0,130,4,,2.49,30.088583,,,,,,TRUE,,,,HZ,,,,,,,,,,,,,,,,,,,,,SPECI,390.0
VDSR 120530Z 15008KT 110V190 9000 FEW017 29/19 Q1012,VDSR,2015-02-12T05:30:00Z,13.42,103.83,29.0,19.0,150,8,,5.59,29.88189,,,,,,,,,,,FEW,1700,,,,,,,VFR,,,,,,,,,,,,METAR,15.0
VDPP 120530Z 17006KT 120V230 9999 SCT017 31/18 Q1012,VDPP,2015-02-12T05:30:00Z,11.55,104.83,31.0,18.0,170,6,,6.21,29.88189,,,,,,,,,,,SCT,1700,,,,,,,VFR,,,,,,,,,,,,METAR,10.0
VILK 120530Z 28003KT 3000 HZ NSC 21/12 Q1017 NOSIG,VILK,2015-02-12T05:30:00Z,26.75,80.87,21.0,12.0,280,3,,1.86,30.029528,,,,,,TRUE,,,,HZ,,,,,,,,,,,,,,,,,,,,,SPECI,128.0
VIDP 120530Z 27006KT 1000 R28/1800 R29/1300 FU NSC 18/12 Q1018 NOSIG,VIDP,2015-02-12T05:30:00Z,28.57,77.12,18.0,12.0,270,6,,0.62,30.059055,,,,,,TRUE,,,,FU,,,,,,,,,,,,,,,,,,,,,METAR,233.0
VTSS 120530Z 08012KT 9999 SCT020 BKN300 30/26 Q1012 A2989 NOSIG,VTSS,2015-02-12T05:30:00Z,6.92,100.38,30.0,26.0,80,12,,6.21,29.88189,,,,,,TRUE,,,,,SCT,2000,BKN,30000,,,,,VFR,,,,,,,,,,,,METAR,35.0
VYYY 120530Z 15005KT 8000 R21/2000N FEW020 SCT110 30/17 Q1013 NOSIG,VYYY,2015-02-12T05:30:00Z,16.9,96.13,30.0,17.0,150,5,,4.97,29.911417,,,,,,TRUE,,,,,FEW,2000,SCT,11000,,,,,MVFR,,,,,,,,,,,,METAR,33.0
OJAI 120530Z 24016KT 0700 SA SCT035 04/M02 Q1016 NOSIG,OJAI,2015-02-12T05:30:00Z,31.72,36.0,4.0,-2.0,240,16,,0.43,30.0,,,,,,TRUE,,,,SA,SCT,3500,,,,,,,LIFR,,,,,,,,,,,,SPECI,730.0
VVPQ 120530Z 09012KT 070V130 9999 SCT017 28/18 Q1013 NOSIG,VVPQ,2015-02-12T05:30:00Z,10.23,103.97,28.0,18.0,90,12,,6.21,29.911417,,,,,,TRUE,,,,,SCT,1700,,,,,,,VFR,,,,,,,,,,,,METAR,4.0
GABS 120530Z 22002KT CAVOK 23/17 Q1012 NOSIG,GABS,2015-02-12T05:30:00Z,12.52,-7.95,23.0,17.0,220,2,,6.21,29.88189,,,,,,TRUE,,,,,CAVOK,,,,,,,,VFR,,,,,,,,,,,,METAR,381.0
URWA 120530Z 06004MPS CAVOK M06/M09 Q1026 NOSIG RMK QFE772/1029 SC060,URWA,2015-02-12T05:30:00Z,46.28,48.02,-6.0,-9.0,60,8,,6.21,30.295275,,,,,,TRUE,,,,,CAVOK,,,,,,,,VFR,,,,,,,,,,,,METAR,-20.0
UMKK 120530Z 25006MPS 210V270 5000 BR OVC007 01/M01 Q1025 R24/19//60 NOSIG RMK QFE767/1023,UMKK,2015-02-12T05:30:00Z,54.88,20.6,1.0,-1.0,250,12,,3.11,30.265747,,,,,,TRUE,,,,BR,OVC,700,,,,,,,IFR,,,,,,,,,,,,METAR,21.0
URFF 120530Z 05010MPS 2300 BR OVC003 M01/M01 Q1018 01810255 NOSIG,URFF,2015-02-12T05:30:00Z,45.03,33.98,-1.0,-1.0,50,19,,1.43,30.059055,,,,,,TRUE,,,,BR,OVC,300,,,,,,,LIFR,,,,,,,,,,,,METAR,188.0
URWW 120530Z VRB01MPS 0400 R11/0400U FZFG BKN002 M11/M12 Q1028 NOSIG RMK QBB070 OBST OBSC 11750157,URWW,2015-02-12T05:30:00Z,48.78,44.33,-11.0,-12.0,0,2,,0.25,30.35433,,,,,,TRUE,,,,FZFG,BKN,200,,,,,,,LIFR,,-75.0,,,,,,,,,,METAR,147.0
URSS 120530Z 09003MPS 9999 -SHRA BKN010 OVC035CB 08/07 Q1014 NOSIG RMK R02/04003MPS MT OBSC QFE759 06290055 02//////,URSS,2015-02-12T05:30:00Z,43.45,39.95,8.0,7.0,90,6,,6.21,29.940945,,,,,,TRUE,,,,-SHRA,BKN,1000,OVC,3500,,,,,MVFR,,,,,,,,,,,,METAR,16.0
URRR 120530Z 07009G12MPS 5000 BR OVC004 M04/M05 Q1026 04CLRD70 TEMPO 0800 FZFG OVC003 RMK QBB130 MAST OBSC,URRR,2015-02-12T05:30:00Z,47.25,39.82,-4.0,-5.0,70,17,23,3.11,30.295275,,,,,,,,,,BR,OVC,400,,,,,,,LIFR,,,,,,,,,,,,METAR,77.0
URMT 120530Z 09004G07MPS 0250 R07/0450N FZDZ FZFG VV001 M02/M02 Q1019 NOSIG RMK QBB040 OBST OBSC QFE724 SC042,URMT,2015-02-12T05:30:00Z,45.12,42.12,-2.0,-2.0,90,8,14,0.16,30.088583,,,,,,TRUE,,,,FZDZ FZFG,OVX,0,,,,,,,LIFR,,,,,,,,,,,100,METAR,453.0
URMO 120530Z 06002MPS 9999 BKN016 OVC100 M01/M02 Q1019 NOSIG RMK QFE720/0961 SC070,URMO,2015-02-12T05:30:00Z,43.2,44.6,-1.0,-2.0,60,4,,6.21,30.088583,,,,,,TRUE,,,,,BKN,1600,OVC,10000,,,,,MVFR,,,,,,,,,,,,METAR,510.0
URMN 120530Z 05001MPS 0300 FZFG VV001 M02/M02 Q1021 NOSIG RMK QBB030 MT OBSC OBST OBSC QFE728 SC04,URMN,2015-02-12T05:30:00Z,43.52,43.63,-2.0,-2.0,50,2,,0.19,30.147638,,,,,,TRUE,,,,FZFG,OVX,0,,,,,,,LIFR,,,,,,,,,,,100,METAR,445.0
URMM 120530Z 10005G07MPS 6000 -SN BKN005 OVC023 M02/M02 Q1020 R12/590137 NOSIG RMK MT OBSC QFE737/0983,URMM,2015-02-12T05:30:00Z,44.22,43.1,-2.0,-2.0,100,10,14,3.73,30.11811,,,,,,TRUE,,,,-SN,BKN,500,OVC,2300,,,,,IFR,,,,,,,,,,,,METAR,314.0
LROD 120530Z 11006KT CAVOK M06/M08 Q1029,LROD,2015-02-12T05:30:00Z,47.03,21.92,-6.0,-8.0,110,6,,6.21,30.383858,,,,,,,,,,,CAVOK,,,,,,,,VFR,,,,,,,,,,,,METAR,140.0
FMEP 120530Z AUTO 12025KT 9999 FEW074/// 28/22 Q1014,FMEP,2015-02-12T05:30:00Z,-21.32,55.42,28.0,22.0,120,25,,6.21,29.940945,,,TRUE,,,,,,,,,,,,,,,,,,,,,,,,,,,,METAR,53.0
FMEE 120530Z 13017KT 9999 FEW023 28/21 Q1014 NOSIG,FMEE,2015-02-12T05:30:00Z,-20.87,55.52,28.0,21.0,130,17,,6.21,29.940945,,,,,,TRUE,,,,,FEW,2300,,,,,,,VFR,,,,,,,,,,,,METAR,25.0
LEBB 120530Z 00000KT CAVOK 05/02 Q1019 NOSIG,LEBB,2015-02-12T05:30:00Z,43.28,-2.92,5.0,2.0,0,0,,6.21,30.088583,,,,,,TRUE,,,,,CAVOK,,,,,,,,VFR,,,,,,,,,,,,METAR,34.0
UDSG 120530Z VRB02MPS 0500 R02/0400V0600N +SN FZFG OVC003 M01/M02 Q1012 R02/29//50 NOSIG,UDSG,2015-02-12T05:30:00Z,40.75,43.87,-1.0,-2.0,0,4,,0.31,29.88189,,,,,,TRUE,,,,+SN FZFG,OVC,300,,,,,,,LIFR,,,,,,,,,,,,METAR,1524.0
UDYZ 120530Z 00000MPS 2000 BR SCT008 BKN033 02/02 Q1013 R09/190065 NOSIG,UDYZ,2015-02-12T05:30:00Z,40.15,44.4,2.0,2.0,0,0,,1.24,29.911417,,,,,,TRUE,,,,BR,SCT,800,BKN,3300,,,,,IFR,,,,,,,,,,,,METAR,865.0
UATT 120530Z 28004MPS 9999 BKN015 M12/M14 Q1019 R31/420255 NOSIG RMK QFE744/0992,UATT,2015-02-12T05:30:00Z,50.25,57.2,-12.0,-14.0,280,8,,6.21,30.088583,,,,,,TRUE,,,,,BKN,1500,,,,,,,MVFR,,,,,,,,,,,,METAR,227.0
UATG 120530Z 05004MPS 1000 R32/1000 BR BKN002 M11/M11 Q1027 R32/CLRD70 TEMPO 0500 FZFG VV002 RMK QBB070 QFE772/1030,UATG,2015-02-12T05:30:00Z,47.12,51.83,-11.0,-11.0,50,8,,0.62,30.324802,,,,,,,,,,BR,BKN,200,,,,,,,LIFR,,,,,,,,,,,,METAR,-22.0
UATE 120530Z 06004MPS 9999 OVC026 02/M01 Q1024 R12/0///70 NOSIG RMK QFE766/1021,UATE,2015-02-12T05:30:00Z,43.87,51.1,2.0,-1.0,60,8,,6.21,30.236221,,,,,,TRUE,,,,,OVC,2600,,,,,,,MVFR,,,,,,,,,,,,METAR,22.0
UARR 120530Z 22002MPS 9999 BKN006 OVC016 M11/M12 Q1024 R22/820555 TEMPO 3000 BR BKN005 RMK QBB190 QFE764/1019,UARR,2015-02-12T05:30:00Z,51.15,51.53,-11.0,-12.0,220,4,,6.21,30.236221,,,,,,,,,,,BKN,600,OVC,1600,,,,,IFR,,,,,,,,,,,,METAR,38.0
UASS 120530Z 27006MPS 8000 OVC006 02/00 Q1004 R26/79//28 NOSIG RMK QBB180 QFE735/0980,UASS,2015-02-12T05:30:00Z,50.35,80.23,2.0,0.0,270,12,,4.97,29.64567,,,,,,TRUE,,,,,OVC,600,,,,,,,IFR,,,,,,,,,,,,METAR,232.0
UASP 120530Z 26004MPS 9999 BKN004 M10/M12 Q1005 R21/3/0150 TEMPO 2000 BR RMK QBB130 IPZ QFE742/0990,UASP,2015-02-12T05:30:00Z,52.2,77.07,-10.0,-12.0,260,8,,6.21,29.675198,,,,,,,,,,,BKN,400,,,,,,,LIFR,,,,,,,,,,,,METAR,125.0
UASK 120530Z 18004MPS 9999 -SHRA OVC023CB 04/01 Q1006 R12/290350 NOSIG RMK QFE729/0972,UASK,2015-02-12T05:30:00Z,50.03,82.5,4.0,1.0,180,8,,6.21,29.704725,,,,,,TRUE,,,,-SHRA,OVC,2300,,,,,,,MVFR,,,,,,,,,,,,METAR,286.0
UAOO 120530Z 31006MPS 9999 OVC005 01/01 Q1015 R24/290060 NOSIG RMK QBB160 QFE750/1000,UAOO,2015-02-12T05:30:00Z,44.7,65.6,1.0,1.0,310,12,,6.21,29.970472,,,,,,TRUE,,,,,OVC,500,,,,,,,IFR,,,,,,,,,,,,METAR,129.0
UAKK 120530Z 27005MPS 0300 R23/0300N FZFG VV002 M03/M04 Q1005 R23/990532 NOSIG RMK QBB060 QFE707/0943,UAKK,2015-02-12T05:30:00Z,49.67,73.33,-3.0,-4.0,270,10,,0.19,29.675198,,,,,,TRUE,,,,FZFG,OVX,0,,,,,,,LIFR,,,,,,,,,,,200,METAR,538.0
UAII 120530Z 31005MPS 1000 R28/1200 BR BKN002 OVC040CB 10/10 Q1014 R28/0///70 TEMPO 0500 FG VV002 RMK QBB070 QFE723/0965,UAII,2015-02-12T05:30:00Z,42.37,69.48,10.0,10.0,310,10,,0.62,29.940945,,,,,,,,,,BR,BKN,200,OVC,4000,,,,,LIFR,,,,,,,,,,,,METAR,422.0
UACP 120530Z 26006MPS 9999 SCT020CB BKN100 M07/M08 Q1001 R23/4/1049 NOSIG RMK QFE738/0985,UACP,2015-02-12T05:30:00Z,54.78,69.18,-7.0,-8.0,260,12,,6.21,29.557087,,,,,,TRUE,,,,,SCT,2000,BKN,10000,,,,,VFR,,,,,,,,,,,,METAR,142.0
UACK 120530Z 28009MPS 9999 -SHSN DRSN OVC028CB M08/M12 Q1002 R20/490542 NOSIG RMK QFE728/0971,UACK,2015-02-12T05:30:00Z,53.32,69.58,-8.0,-12.0,280,17,,6.21,29.586615,,,,,,TRUE,,,,-SHSN DRSN,OVC,2800,,,,,,,MVFR,,,,,,,,,,,,METAR,2547.0
UACC 120530Z 25004MPS 6000 OVC004 M10/M11 Q1006 R22/3/0065 NOSIG RMK QBB140 QFE724/0965,UACC,2015-02-12T05:30:00Z,51.02,71.47,-10.0,-11.0,250,8,,3.73,29.704725,,,,,,TRUE,,,,,OVC,400,,,,,,,LIFR,,,,,,,,,,,,METAR,355.0
UADD 120530Z 22002MPS 200V260 9999 BKN045CB OVC100 11/03 Q1011 R13/290056 NOSIG RMK QFE701/0935,UADD,2015-02-12T05:30:00Z,42.85,71.3,11.0,3.0,220,4,,6.21,29.852362,,,,,,TRUE,,,,,BKN,4500,OVC,10000,,,,,VFR,,,,,,,,,,,,METAR,665.0
UAAH 120530Z 24007MPS 0600 R23/0600D FG VV002 02/02 Q1007 R23/790228 NOSIG RMK QBB060 QFE717/0956,UAAH,2015-02-12T05:30:00Z,46.9,75.0,2.0,2.0,240,14,,0.37,29.734253,,,,,,TRUE,,,,FG,OVX,0,,,,,,,LIFR,,,,,,,,,,,200,METAR,441.0
UAAA 120530Z 15002MPS 5000 FU SCT050 BKN100 08/M00 Q1015 R88/2/0150 NOSIG,UAAA,2015-02-12T05:30:00Z,43.35,77.03,8.0,0.0,150,4,,3.11,29.970472,,,,,,TRUE,,,,FU,SCT,5000,BKN,10000,,,,,MVFR,,,,,,,,,,,,METAR,847.0
GEML 120530Z 00000KT 9999 FEW012 SCT018 10/09 Q1016,GEML,2015-02-12T05:30:00Z,35.27,-2.95,10.0,9.0,0,0,,6.21,30.0,,,,,,,,,,,FEW,1200,SCT,1800,,,,,VFR,,,,,,,,,,,,METAR,55.0
VOCI 120530Z 14004KT 4000 HZ NSC 30/21 Q1013 NOSIG,VOCI,2015-02-12T05:30:00Z,10.15,76.4,30.0,21.0,140,4,,2.49,29.911417,,,,,,TRUE,,,,HZ,,,,,,,,,,,,,,,,,,,,,METAR,8.0
RJTT 120530Z 10007KT 9999 FEW040 11/01 Q1001 BECMG 18010KT RMK 1CU040 A2957 MOD TURB OBS AT 0503Z 5NM S MACRO 6000FT BY B738,RJTT,2015-02-12T05:30:00Z,35.53,139.77,11.0,1.0,100,7,,6.21,29.557087,,,,,,,,,,,FEW,4000,,,,,,,VFR,,,,,,,,,,,,METAR,8.0
RJCC 120530Z 17010KT 9999 -SHSN FEW010 SCT020 00/M05 Q1004 RMK 1ST010 4CU020 A2966,RJCC,2015-02-12T05:30:00Z,42.77,141.67,0.0,-5.0,170,10,,6.21,29.64567,,,,,,,,,,-SHSN,FEW,1000,SCT,2000,,,,,VFR,,,,,,,,,,,,SPECI,30.0
RJAA 120530Z 23007KT 200V280 9999 FEW030 12/M02 Q1001 NOSIG RMK 1CU030 A2958,RJAA,2015-02-12T05:30:00Z,35.77,140.37,12.0,-2.0,230,7,,6.21,29.557087,,,,,,TRUE,,,,,FEW,3000,,,,,,,VFR,,,,,,,,,,,,SPECI,44.0
ZYTX 120530Z 32005MPS 270V360 CAVOK M01/M14 Q1018 NOSIG,ZYTX,2015-02-12T05:30:00Z,41.63,123.48,-1.0,-14.0,320,10,,6.21,30.059055,,,,,,TRUE,,,,,CAVOK,,,,,,,,VFR,,,,,,,,,,,,METAR,35.0
ZYTL 120530Z 34005MPS 290V020 CAVOK M00/M12 Q1020 NOSIG,ZYTL,2015-02-12T05:30:00Z,38.97,121.53,0.0,-12.0,340,10,,6.21,30.11811,,,,,,TRUE,,,,,CAVOK,,,,,,,,VFR,,,,,,,,,,,,METAR,97.0
ZWWW 120530Z 31002MPS 280V350 0800 R25/0700N FZFG NSC M04/M08 Q1012 BECMG TL0620 NSW,ZWWW,2015-02-12T05:30:00Z,43.88,87.47,-4.0,-8.0,310,4,,0.5,29.88189,,,,,,,,,,FZFG,,,,,,,,,,,,,,,,,,,,,SPECI,654.0
ZSSS 120530Z 33004MPS 300V360 2300 HZ NSC 13/01 Q1018 NOSIG,ZSSS,2015-02-12T05:30:00Z,31.2,121.33,13.0,1.0,330,8,,1.43,30.059055,,,,,,TRUE,,,,HZ,,,,,,,,,,,,,,,,,,,,,SPECI,7.0
ZSPD 120530Z 36006MPS 3000 HZ NSC 11/02 Q1018 NOSIG,ZSPD,2015-02-12T05:30:00Z,31.15,121.8,11.0,2.0,360,12,,1.86,30.059055,,,,,,TRUE,,,,HZ,,,,,,,,,,,,,,,,,,,,,SPECI,4.0
ZSHC 120530Z 32004MPS 280V340 CAVOK 16/M11 Q1019 NOSIG,ZSHC,2015-02-12T05:30:00Z,30.22,120.43,16.0,-11.0,320,8,,6.21,30.088583,,,,,,TRUE,,,,,CAVOK,,,,,,,,VFR,,,,,,,,,,,,METAR,43.0
ZGGG 120530Z 06003MPS 030V120 6000 BKN030 22/04 Q1018 NOSIG,ZGGG,2015-02-12T05:30:00Z,23.4,113.3,22.0,4.0,60,6,,3.73,30.059055,,,,,,TRUE,,,,,BKN,3000,,,,,,,MVFR,,,,,,,,,,,,METAR,15.0
ZBYN 120530Z 22002MPS 140V270 CAVOK 06/M16 Q1013 NOSIG,ZBYN,2015-02-12T05:30:00Z,37.77,112.63,6.0,-16.0,220,4,,6.21,29.911417,,,,,,TRUE,,,,,CAVOK,,,,,,,,VFR,,,,,,,,,,,,METAR,779.0
ZBTJ 120530Z 19006MPS CAVOK 04/M08 Q1020 NOSIG,ZBTJ,2015-02-12T05:30:00Z,39.12,117.35,4.0,-8.0,190,12,,6.21,30.11811,,,,,,TRUE,,,,,CAVOK,,,,,,,,VFR,,,,,,,,,,,,METAR,3.0
ZBAA 120530Z VRB02MPS CAVOK 06/M14 Q1019 NOSIG,ZBAA,2015-02-12T05:30:00Z,40.07,116.58,6.0,-14.0,0,4,,6.21,30.088583,,,,,,TRUE,,,,,CAVOK,,,,,,,,VFR,,,,,,,,,,,,METAR,30.0
RKSI 120530Z 33018KT 9999 FEW040 02/M18 Q1015 NOSIG,RKSI,2015-02-12T05:30:00Z,37.47,126.45,2.0,-18.0,330,18,,6.21,29.970472,,,,,,TRUE,,,,,FEW,4000,,,,,,,VFR,,,,,,,,,,,,METAR,7.0
LETL 120530Z AUTO 15004KT 4400 UP SCT013/// OVC021/// 02/02 Q1018,LETL,2015-02-12T05:30:00Z,40.42,-1.22,2.0,2.0,150,4,,2.73,30.059055,,,TRUE,,,,,,,UP,,,,,,,,,,,,,,,,,,,,,METAR,1013.0
LEAG 120530Z AUTO 34005KT 280V050 9999 // BKN009 OVC013 12/09 Q1017,LEAG,2015-02-12T05:30:00Z,,,12.0,9.0,340,5,,6.21,30.029528,,,TRUE,,,,,,,,BKN,900,OVC,1300,,,,,IFR,,,,,,,,,,,,METAR,
LEXJ 120530Z 22006KT CAVOK 09/02 Q1018,LEXJ,2015-02-12T05:30:00Z,43.42,-3.82,9.0,2.0,220,6,,6.21,30.059055,,,,,,,,,,,CAVOK,,,,,,,,VFR,,,,,,,,,,,,METAR,6.0
LEPP 120530Z 07002KT 9000 BKN026 03/03 Q1019,LEPP,2015-02-12T05:30:00Z,42.77,-1.65,3.0,3.0,70,2,,5.59,30.088583,,,,,,,,,,,BKN,2600,,,,,,,MVFR,,,,,,,,,,,,METAR,459.0
LEJR 120530Z VRB01KT 9999 -RA FEW020 OVC025 10/10 Q1017,LEJR,2015-02-12T05:30:00Z,36.75,-6.07,10.0,10.0,0,1,,6.21,30.029528,,,,,,,,,,-RA,FEW,2000,OVC,2500,,,,,MVFR,,,,,,,,,,,,METAR,30.0
GCTS 120530Z 36007KT 9999 FEW030 14/09 Q1019 NOSIG,GCTS,2015-02-12T05:30:00Z,28.05,-16.57,14.0,9.0,360,7,,6.21,30.088583,,,,,,TRUE,,,,,FEW,3000,,,,,,,VFR,,,,,,,,,,,,METAR,72.0
GCLP 120530Z 33005KT 9999 FEW020 14/09 Q1019 NOSIG,GCLP,2015-02-12T05:30:00Z,27.92,-15.37,14.0,9.0,330,5,,6.21,30.088583,,,,,,TRUE,,,,,FEW,2000,,,,,,,VFR,,,,,,,,,,,,METAR,25.0
LECO 120530Z 15005KT 5000 -RA BKN046 06/06 Q1017 NOSIG,LECO,2015-02-12T05:30:00Z,43.28,-8.37,6.0,6.0,150,5,,3.11,30.029528,,,,,,TRUE,,,,-RA,BKN,4600,,,,,,,MVFR,,,,,,,,,,,,METAR,103.0
LEAM 120530Z 32007KT 9999 SCT050 OVC075 12/07 Q1017 RERA,LEAM,2015-02-12T05:30:00Z,36.85,-2.37,12.0,7.0,320,7,,6.21,30.029528,,,,,,,,,,,SCT,5000,OVC,7500,,,,,VFR,,,,,,,,,,,,METAR,21.0
LEMH 120530Z 36003KT 9999 FEW020 06/05 Q1019,LEMH,2015-02-12T05:30:00Z,39.87,4.22,6.0,5.0,360,3,,6.21,30.088583,,,,,,,,,,,FEW,2000,,,,,,,VFR,,,,,,,,,,,,METAR,82.0
LEVT 120530Z 00000KT 7000 FEW050 SCT075 M04/M04 Q1019,LEVT,2015-02-12T05:30:00Z,42.87,-2.72,-4.0,-4.0,0,0,,4.35,30.088583,,,,,,,,,,,FEW,5000,SCT,7500,,,,,MVFR,,,,,,,,,,,,METAR,509.0
LESO 120530Z VRB02KT CAVOK 09/04 Q1019,LESO,2015-02-12T05:30:00Z,43.35,-1.8,9.0,4.0,0,2,,6.21,30.088583,,,,,,,,,,,CAVOK,,,,,,,,VFR,,,,,,,,,,,,METAR,8.0
LEZG 120530Z 00000KT 7000 SCT040 BKN080 02/01 Q1020,LEZG,2015-02-12T05:30:00Z,41.67,-1.02,2.0,1.0,0,0,,4.35,30.11811,,,,,,,,,,,SCT,4000,BKN,8000,,,,,MVFR,,,,,,,,,,,,METAR,258.0
LEST 120530Z VRB01KT 7000 BKN028 05/04 Q1017 TEMPO 3000 RA BKN010,LEST,2015-02-12T05:30:00Z,42.88,-8.42,5.0,4.0,0,1,,4.35,30.029528,,,,,,,,,,,BKN,2800,,,,,,,MVFR,,,,,,,,,,,,METAR,367.0
LEGE 120530Z 03001KT 9999 4000N BCFG NSC M00/M00 Q1020,LEGE,2015-02-12T05:30:00Z,41.88,2.77,0.0,0.0,30,1,,6.21,30.11811,,,,,,,,,,BCFG,,,,,,,,,,,,,,,,,,,,,METAR,129.0
LEAS 120530Z 24004KT CAVOK 05/01 Q1017 NOSIG,LEAS,2015-02-12T05:30:00Z,43.53,-6.02,5.0,1.0,240,4,,6.21,30.029528,,,,,,TRUE,,,,,CAVOK,,,,,,,,VFR,,,,,,,,,,,,METAR,134.0
LEVX 120530Z 21007KT 7000 OVC027 06/06 Q1017 TEMPO 3000 RA,LEVX,2015-02-12T05:30:00Z,42.22,-8.62,6.0,6.0,210,7,,4.35,30.029528,,,,,,,,,,,OVC,2700,,,,,,,MVFR,,,,,,,,,,,,METAR,256.0
LEIB 120530Z 03006KT 9999 FEW022 11/09 Q1019 NOSIG,LEIB,2015-02-12T05:30:00Z,38.87,1.37,11.0,9.0,30,6,,6.21,30.088583,,,,,,TRUE,,,,,FEW,2200,,,,,,,VFR,,,,,,,,,,,,METAR,12.0
LEAL 120530Z 07012KT 9999 FEW013 BKN026 12/09 Q1018 NOSIG,LEAL,2015-02-12T05:30:00Z,38.27,-0.55,12.0,9.0,70,12,,6.21,30.059055,,,,,,TRUE,,,,,FEW,1300,BKN,2600,,,,,MVFR,,,,,,,,,,,,METAR,31.0
LEVC 120530Z 32003KT 290V350 9999 FEW030 BKN040 09/08 Q1019 NOSIG,LEVC,2015-02-12T05:30:00Z,39.5,-0.47,9.0,8.0,320,3,,6.21,30.088583,,,,,,TRUE,,,,,FEW,3000,BKN,4000,,,,,VFR,,,,,,,,,,,,METAR,62.0
LEMG 120530Z 00000KT 6000 -RA FEW014 SCT025TCU BKN050 10/09 Q1017 NOSIG,LEMG,2015-02-12T05:30:00Z,36.67,-4.5,10.0,9.0,0,0,,3.73,30.029528,,,,,,TRUE,,,,-RA,FEW,1400,SCT,2500,BKN,5000,,,MVFR,,,,,,,,,,,,METAR,7.0
LEZL 120530Z 30002KT 9999 SCT044 09/09 Q1017 NOSIG,LEZL,2015-02-12T05:30:00Z,37.42,-5.9,9.0,9.0,300,2,,6.21,30.029528,,,,,,TRUE,,,,,SCT,4400,,,,,,,VFR,,,,,,,,,,,,METAR,31.0
LEPA 120530Z 01002KT 9999 FEW032 03/02 Q1020 NOSIG,LEPA,2015-02-12T05:30:00Z,39.53,2.72,3.0,2.0,10,2,,6.21,30.11811,,,,,,TRUE,,,,,FEW,3200,,,,,,,VFR,,,,,,,,,,,,METAR,8.0
LEBL 120530Z 32007KT 9999 FEW020 05/01 Q1020 NOSIG,LEBL,2015-02-12T05:30:00Z,41.27,2.07,5.0,1.0,320,7,,6.21,30.11811,,,,,,TRUE,,,,,FEW,2000,,,,,,,VFR,,,,,,,,,,,,METAR,6.0
LEMD 120530Z 01003KT 350V050 9999 BKN018 03/02 Q1018 NOSIG,LEMD,2015-02-12T05:30:00Z,40.48,-3.57,3.0,2.0,10,3,,6.21,30.059055,,,,,,TRUE,,,,,BKN,1800,,,,,,,MVFR,,,,,,,,,,,,METAR,582.0
LFRS 120530Z 04003KT 5000 NSC M02/M03 Q1019 NOSIG,LFRS,2015-02-12T05:30:00Z,47.17,-1.6,-2.0,-3.0,40,3,,3.11,30.088583,,,,,,TRUE,,,,,,,,,,,,,,,,,,,,,,,,,METAR,27.0
LFRB 120530Z 06006KT 1600 BR NSC M01/M01 Q1018 NOSIG,LFRB,2015-02-12T05:30:00Z,48.45,-4.42,-1.0,-1.0,60,6,,0.99,30.059055,,,,,,TRUE,,,,BR,,,,,,,,,,,,,,,,,,,,,METAR,103.0
LFQQ 120530Z 08003KT 4000 BR OVC017 02/01 Q1021 NOSIG,LFQQ,2015-02-12T05:30:00Z,50.57,3.1,2.0,1.0,80,3,,2.49,30.147638,,,,,,TRUE,,,,BR,OVC,1700,,,,,,,IFR,,,,,,,,,,,,METAR,52.0
LFPO 120530Z 18002KT 2500 BR NSC M02/M02 Q1020 TEMPO 0400 FG,LFPO,2015-02-12T05:30:00Z,48.72,2.38,-2.0,-2.0,180,2,,1.55,30.11811,,,,,,,,,,BR,,,,,,,,,,,,,,,,,,,,,METAR,96.0
LFPG 120530Z 15002KT 1500 0300NE R27L/1100U R09R/P2000 R26R/1200D R08L/P2000 R26L/0700D R08R/P2000 R27R/P2000U R09L/P2000 BCFG BR FEW000 BKN003 M01/M01 Q1020 TEMPO 0300 FZFG BKN000,LFPG,2015-02-12T05:30:00Z,49.02,2.52,-1.0,-1.0,150,2,,0.93,30.11811,,,,,,,,,,BCFG BR,FEW,0,BKN,300,,,,,LIFR,,,,,,,,,,,,SPECI,109.0
LFMN 120530Z 33010KT CAVOK 07/M00 Q1021 NOSIG,LFMN,2015-02-12T05:30:00Z,43.63,7.2,7.0,0.0,330,10,,6.21,30.147638,,,,,,TRUE,,,,,CAVOK,,,,,,,,VFR,,,,,,,,,,,,METAR,10.0
LFLL 120530Z VRB02KT 8000 NSC 00/M03 Q1021 NOSIG,LFLL,2015-02-12T05:30:00Z,45.72,5.07,0.0,-3.0,0,2,,4.97,30.147638,,,,,,TRUE,,,,,,,,,,,,,,,,,,,,,,,,,SPECI,240.0
LFRL 120530Z AUTO 07005KT 4800 BR NSC 03/01 Q1018,LFRL,2015-02-12T05:30:00Z,48.27,-4.42,3.0,1.0,70,5,,2.98,30.059055,,,TRUE,,,,,,,BR,,,,,,,,,,,,,,,,,,,,,METAR,82.0
LFRJ 120530Z AUTO 08007KT 2500 BR NSC M01/M01 Q1018,LFRJ,2015-02-12T05:30:00Z,48.52,-4.15,-1.0,-1.0,80,7,,1.55,30.059055,,,TRUE,,,,,,,BR,,,,,,,,,,,,,,,,,,,,,METAR,115.0
LFOE 120530Z AUTO 28002KT 0050 R22/0900D FZFG OVC026 M03/M03 Q1020,LFOE,2015-02-12T05:30:00Z,49.02,1.22,-3.0,-3.0,280,2,,0.03,30.11811,,,TRUE,,,,,,,FZFG,OVC,2600,,,,,,,LIFR,,,,,,,,,,,,METAR,146.0
LFOC 120530Z AUTO 18002KT 1000 R28/P2000 BR NSC M06/M07 Q1020,LFOC,2015-02-12T05:30:00Z,48.03,1.37,-6.0,-7.0,180,2,,0.62,30.11811,,,TRUE,,,,,,,BR,,,,,,,,,,,,,,,,,,,,,METAR,127.0
LFTW 120530Z AUTO VRB02KT 2200 BR NSC 01/00 Q1021,LFTW,2015-02-12T05:30:00Z,43.75,4.42,1.0,0.0,0,2,,1.37,30.147638,,,TRUE,,,,,,,BR,,,,,,,,,,,,,,,,,,,,,METAR,96.0
LFSD 120530Z AUTO 00000KT 0350 R35/1100D FZFG FEW013 M05/M06 Q1021,LFSD,2015-02-12T05:30:00Z,47.27,5.07,-5.0,-6.0,0,0,,0.22,30.147638,,,TRUE,,,,,,,FZFG,FEW,1300,,,,,,,LIFR,,,,,,,,,,,,METAR,227.0
LFRQ 120530Z AUTO 05005KT 3900 BR FEW020 02/01 Q1017,LFRQ,2015-02-12T05:30:00Z,47.97,-4.17,2.0,1.0,50,5,,2.42,30.029528,,,TRUE,,,,,,,BR,FEW,2000,,,,,,,IFR,,,,,,,,,,,,METAR,94.0
LFRH 120530Z AUTO 06007KT 4200 BR OVC005 03/01 Q1018,LFRH,2015-02-12T05:30:00Z,47.77,-3.45,3.0,1.0,60,7,,2.61,30.059055,,,TRUE,,,,,,,BR,OVC,500,,,,,,,IFR,,,,,,,,,,,,METAR,44.0
LFPT 120530Z AUTO 00000KT 0050 R05/0300N FZFG VV/// M04/M04 Q1020,LFPT,2015-02-12T05:30:00Z,49.1,2.03,-4.0,-4.0,0,0,,0.03,30.11811,,,TRUE,,,,,,,FZFG,OVX,0,,,,,,,LIFR,,,,,,,,,,,,METAR,99.0
LFPM 120530Z AUTO 00000KT 2200 BR VV/// M03/M04 Q1020,LFPM,2015-02-12T05:30:00Z,48.62,2.67,-3.0,-4.0,0,0,,1.37,30.11811,,,TRUE,,,,,,,BR,OVX,0,,,,,,,LIFR,,,,,,,,,,,,METAR,92.0
LFLN 120530Z AUTO 00000KT 1700 BR NSC M05/M05 Q1020,LFLN,2015-02-12T05:30:00Z,46.42,4.02,-5.0,-5.0,0,0,,1.06,30.11811,,,TRUE,,,,,,,BR,,,,,,,,,,,,,,,,,,,,,METAR,244.0
LFGA 120530Z AUTO 36001KT 0100 R19/0400N FZFG VV/// M01/M02 Q1023,LFGA,2015-02-12T05:30:00Z,48.1,7.35,-1.0,-2.0,360,1,,0.06,30.206694,,,TRUE,,,,,,,FZFG,OVX,0,,,,,,,LIFR,,,,,,,,,,,,METAR,191.0
LFBU 120530Z AUTO 12005KT 9999 NSC 03/M01 Q1019,LFBU,2015-02-12T05:30:00Z,45.72,0.22,3.0,-1.0,120,5,,6.21,30.088583,,,TRUE,,,,,,,,,,,,,,,,,,,,,,,,,,,,METAR,133.0
LFAT 120530Z AUTO 36002KT 4300 BR OVC020 03/01 Q1020,LFAT,2015-02-12T05:30:00Z,50.52,1.62,3.0,1.0,360,2,,2.67,30.11811,,,TRUE,,,,,,,BR,OVC,2000,,,,,,,IFR,,,,,,,,,,,,METAR,14.0
LFAQ 120530Z AUTO 07003KT 1300 R27/P2000 BR NSC M02/M02 Q1020,LFAQ,2015-02-12T05:30:00Z,49.97,2.7,-2.0,-2.0,70,3,,0.81,30.11811,,,TRUE,,,,,,,BR,,,,,,,,,,,,,,,,,,,,,METAR,111.0
LRTM 120530Z 00000KT 4000 BR FEW002 M11/M12 Q1030,LRTM,2015-02-12T05:30:00Z,46.47,24.42,-11.0,-12.0,0,0,,2.49,30.413385,,,,,,,,,,BR,FEW,200,,,,,,,IFR,,,,,,,,,,,,METAR,309.0
LRSM 120530Z 11005KT CAVOK M07/M09 Q1029,LRSM,2015-02-12T05:30:00Z,47.7,22.88,-7.0,-9.0,110,5,,6.21,30.383858,,,,,,,,,,,CAVOK,,,,,,,,VFR,,,,,,,,,,,,METAR,124.0
LRCL 120530Z 11002KT 5000 BR NSC M10/M11 Q1029,LRCL,2015-02-12T05:30:00Z,46.78,23.68,-10.0,-11.0,110,2,,3.11,30.383858,,,,,,,,,,BR,,,,,,,,,,,,,,,,,,,,,METAR,413.0
LRBM 120530Z 06003KT CAVOK M08/M09 Q1030,LRBM,2015-02-12T05:30:00Z,47.67,23.47,-8.0,-9.0,60,3,,6.21,30.413385,,,,,,,,,,,CAVOK,,,,,,,,VFR,,,,,,,,,,,,METAR,185.0
LRAR 120530Z 13006KT CAVOK M04/M09 Q1029,LRAR,2015-02-12T05:30:00Z,46.18,21.27,-4.0,-9.0,130,6,,6.21,30.383858,,,,,,,,,,,CAVOK,,,,,,,,VFR,,,,,,,,,,,,METAR,118.0
LRTC 120530Z AUTO 36014KT 9999NDV BKN120/// M01/M07 Q1026,LRTC,2015-02-12T05:30:00Z,45.07,28.72,-1.0,-7.0,360,14,,,30.295275,,,TRUE,,,,,,,,,,,,,,,,,,,,,,,,,,,,SPECI,6.0
LRSV 120530Z AUTO 34005KT 9999NDV BKN080/// M04/M04 Q1028,LRSV,2015-02-12T05:30:00Z,47.68,26.35,-4.0,-4.0,340,5,,,30.35433,,,TRUE,,,,,,,,,,,,,,,,,,,,,,,,,,,,METAR,351.0
LRIA 120530Z 31006KT CAVOK M03/M09 Q1029 R14/09//95,LRIA,2015-02-12T05:30:00Z,47.17,27.62,-3.0,-9.0,310,6,,6.21,30.383858,,,,,,,,,,,CAVOK,,,,,,,,VFR,,,,,,,,,,,,METAR,104.0
LRCV 120530Z AUTO 27004KT 9000 BKN055 BKN090 M07/M09 Q1028,LRCV,2015-02-12T05:30:00Z,44.32,23.88,-7.0,-9.0,270,4,,5.59,30.35433,,,TRUE,,,,,,,,BKN,5500,BKN,9000,,,,,VFR,,,,,,,,,,,,METAR,191.0
LRBC 120530Z 36005KT CAVOK M01/M05 Q1029 R16/09//95,LRBC,2015-02-12T05:30:00Z,46.52,26.92,-1.0,-5.0,360,5,,6.21,30.383858,,,,,,,,,,,CAVOK,,,,,,,,VFR,,,,,,,,,,,,METAR,185.0
LFYR 120530Z AUTO 00000KT 5000 BR NSC M05/M05 Q1020,LFYR,2015-02-12T05:30:00Z,47.32,1.67,-5.0,-5.0,0,0,,3.11,30.11811,,,TRUE,,,,,,,BR,,,,,,,,,,,,,,,,,,,,,METAR,86.0
LFSX 120530Z AUTO 06006KT 5000 BR NSC M02/M03 Q1021,LFSX,2015-02-12T05:30:00Z,47.77,6.33,-2.0,-3.0,60,6,,3.11,30.147638,,,TRUE,,,,,,,BR,,,,,,,,,,,,,,,,,,,,,METAR,273.0
LFSO 120530Z AUTO 11003KT 0150 FZFG VV/// M03/M03 Q1020,LFSO,2015-02-12T05:30:00Z,48.57,5.97,-3.0,-3.0,110,3,,0.09,30.11811,,,TRUE,,,,,,,FZFG,OVX,0,,,,,,,LIFR,,,,,,,,,,,,METAR,350.0
LFSI 120530Z AUTO 09004KT 4900 BR NSC M03/M04 Q1020,LFSI,2015-02-12T05:30:00Z,48.62,4.9,-3.0,-4.0,90,4,,3.04,30.11811,,,TRUE,,,,,,,BR,,,,,,,,,,,,,,,,,,,,,METAR,140.0
LFSL 120530Z AUTO 00000KT 9999 NSC M01/M03 Q1019,LFSL,2015-02-12T05:30:00Z,45.03,1.48,-1.0,-3.0,0,0,,6.21,30.088583,,,TRUE,,,,,,,,,,,,,,,,,,,,,,,,,,,,SPECI,310.0
LFMV 120530Z AUTO 03004KT 350V060 5000 BR NSC 01/00 Q1021,LFMV,2015-02-12T05:30:00Z,43.9,4.9,1.0,0.0,30,4,,3.11,30.147638,,,TRUE,,,,,,,BR,,,,,,,,,,,,,,,,,,,,,METAR,38.0
LFMP 120530Z AUTO 24004KT 5000 BR NSC 02/01 Q1020,LFMP,2015-02-12T05:30:00Z,42.72,2.87,2.0,1.0,240,4,,3.11,30.11811,,,TRUE,,,,,,,BR,,,,,,,,,,,,,,,,,,,,,SPECI,48.0
LFKJ 120530Z 04004KT CAVOK 05/02 Q1020 NOSIG,LFKJ,2015-02-12T05:30:00Z,41.92,8.8,5.0,2.0,40,4,,6.21,30.11811,,,,,,TRUE,,,,,CAVOK,,,,,,,,VFR,,,,,,,,,,,,METAR,9.0
LFKF 120530Z AUTO 06006KT 010V100 9999 NCD 08/06 Q1021,LFKF,2015-02-12T05:30:00Z,41.5,9.08,8.0,6.0,60,6,,6.21,30.147638,,,TRUE,,,,,,,,,,,,,,,,,,,,,,,,,,,,SPECI,23.0
LFKB 120530Z 24005KT CAVOK 05/02 Q1021 NOSIG,LFKB,2015-02-12T05:30:00Z,42.53,9.47,5.0,2.0,240,5,,6.21,30.147638,,,,,,TRUE,,,,,CAVOK,,,,,,,,VFR,,,,,,,,,,,,METAR,12.0
LFML 120530Z 00000KT 3000 BR NSC 02/01 Q1020 NOSIG,LFML,2015-02-12T05:30:00Z,43.45,5.22,2.0,1.0,0,0,,1.86,30.11811,,,,,,TRUE,,,,BR,,,,,,,,,,,,,,,,,,,,,SPECI,36.0
LFLB 120530Z 00000KT 8000 MIFG NSC M04/M04 Q1023 NOSIG,LFLB,2015-02-12T05:30:00Z,45.63,5.87,-4.0,-4.0,0,0,,4.97,30.206694,,,,,,TRUE,,,,MIFG,,,,,,,,,,,,,,,,,,,,,SPECI,239.0
LFCK 120530Z AUTO 13008KT 9999 NSC 03/02 Q1020,LFCK,2015-02-12T05:30:00Z,43.55,2.28,3.0,2.0,130,8,,6.21,30.11811,,,TRUE,,,,,,,,,,,,,,,,,,,,,,,,,,,,METAR,240.0
LFBZ 120530Z AUTO 20004KT 140V280 9999 FEW056 OVC072 08/04 Q1019,LFBZ,2015-02-12T05:30:00Z,43.47,-1.52,8.0,4.0,200,4,,6.21,30.088583,,,TRUE,,,,,,,,FEW,5600,OVC,7200,,,,,VFR,,,,,,,,,,,,METAR,71.0
LFBT 120530Z AUTO 19005KT 9999 NSC 02/M01 Q1019,LFBT,2015-02-12T05:30:00Z,43.17,0.0,2.0,-1.0,190,5,,6.21,30.088583,,,TRUE,,,,,,,,,,,,,,,,,,,,,,,,,,,,SPECI,363.0
LFBP 120530Z AUTO 13004KT 9999 NSC 04/00 Q1019,LFBP,2015-02-12T05:30:00Z,43.37,-0.42,4.0,0.0,130,4,,6.21,30.088583,,,TRUE,,,,,,,,,,,,,,,,,,,,,,,,,,,,METAR,185.0
LFBO 120530Z AUTO 19003KT 6000 OVC006 05/04 Q1020,LFBO,2015-02-12T05:30:00Z,43.62,1.37,5.0,4.0,190,3,,3.73,30.11811,,,TRUE,,,,,,,,OVC,600,,,,,,,IFR,,,,,,,,,,,,METAR,153.0
LFBL 120530Z AUTO 05003KT 9999 NSC 02/M02 Q1019,LFBL,2015-02-12T05:30:00Z,45.87,1.17,2.0,-2.0,50,3,,6.21,30.088583,,,TRUE,,,,,,,,,,,,,,,,,,,,,,,,,,,,METAR,402.0
LFBI 120530Z AUTO 00000KT 5000 BR NSC M02/M03 Q1019,LFBI,2015-02-12T05:30:00Z,46.57,0.32,-2.0,-3.0,0,0,,3.11,30.088583,,,TRUE,,,,,,,BR,,,,,,,,,,,,,,,,,,,,,METAR,120.0
LFBH 120530Z AUTO 15007KT 9999 NSC 05/M00 Q1019,LFBH,2015-02-12T05:30:00Z,46.18,-1.2,5.0,0.0,150,7,,6.21,30.088583,,,TRUE,,,,,,,,,,,,,,,,,,,,,,,,,,,,SPECI,10.0
LFBD 120530Z AUTO 16004KT 110V210 8000 NSC 04/03 Q1019,LFBD,2015-02-12T05:30:00Z,44.82,-0.7,4.0,3.0,160,4,,4.97,30.088583,,,TRUE,,,,,,,,,,,,,,,,,,,,,,,,,,,,SPECI,61.0
LFSN 120530Z AUTO VRB03KT 0150 R03/0600N FZFG VV/// M02/M03 Q1022,LFSN,2015-02-12T05:30:00Z,48.67,6.22,-2.0,-3.0,0,3,,0.09,30.177166,,,TRUE,,,,,,,FZFG,OVX,0,,,,,,,LIFR,,,,,,,,,,,,METAR,217.0
LFQB 120530Z AUTO 00000KT 4900 BR NSC M05/M06 Q1020,LFQB,2015-02-12T05:30:00Z,48.32,4.02,-5.0,-6.0,0,0,,3.04,30.11811,,,TRUE,,,,,,,BR,,,,,,,,,,,,,,,,,,,,,SPECI,118.0
LFQA 120530Z AUTO 11004KT 2400 BR NSC M03/M04 Q1020,LFQA,2015-02-12T05:30:00Z,49.2,4.15,-3.0,-4.0,110,4,,1.49,30.11811,,,TRUE,,,,,,,BR,,,,,,,,,,,,,,,,,,,,,METAR,95.0
LFPB 120530Z AUTO 02003KT 2500 BR SCT019 SCT250 M02/M03 Q1020,LFPB,2015-02-12T05:30:00Z,48.97,2.45,-2.0,-3.0,20,3,,1.55,30.11811,,,TRUE,,,,,,,BR,SCT,1900,SCT,25000,,,,,IFR,,,,,,,,,,,,METAR,65.0
LFOP 120530Z AUTO 00000KT 2400 BR OVC025 02/01 Q1020,LFOP,2015-02-12T05:30:00Z,49.37,1.17,2.0,1.0,0,0,,1.49,30.11811,,,TRUE,,,,,,,BR,OVC,2500,,,,,,,IFR,,,,,,,,,,,,METAR,157.0
LFOK 120530Z AUTO 16005KT 6000 NSC M02/M04 Q1020,LFOK,2015-02-12T05:30:00Z,48.78,4.18,-2.0,-4.0,160,5,,3.73,30.11811,,,TRUE,,,,,,,,,,,,,,,,,,,,,,,,,,,,METAR,162.0
LFOH 120530Z AUTO 00000KT 5000 BR OVC022 03/01 Q1020,LFOH,2015-02-12T05:30:00Z,49.52,0.07,3.0,1.0,0,0,,3.11,30.11811,,,TRUE,,,,,,,BR,OVC,2200,,,,,,,MVFR,,,,,,,,,,,,METAR,103.0
LFOB 120530Z AUTO VRB02KT 2500 BR OVC027 M01/M02 Q1020,LFOB,2015-02-12T05:30:00Z,49.47,2.12,-1.0,-2.0,0,2,,1.55,30.11811,,,TRUE,,,,,,,BR,OVC,2700,,,,,,,IFR,,,,,,,,,,,,METAR,111.0
LFMU 120530Z AUTO 01008KT 9999 NSC 05/03 Q1020,LFMU,2015-02-12T05:30:00Z,43.32,3.35,5.0,3.0,10,8,,6.21,30.11811,,,TRUE,,,,,,,,,,,,,,,,,,,,,,,,,,,,METAR,17.0
LFMT 120530Z 01005KT CAVOK 03/01 Q1021 NOSIG,LFMT,2015-02-12T05:30:00Z,43.57,3.97,3.0,1.0,10,5,,6.21,30.147638,,,,,,TRUE,,,,,CAVOK,,,,,,,,VFR,,,,,,,,,,,,METAR,6.0
LFLY 120530Z AUTO 00000KT 4700 BR NSC M02/M03 Q1021,LFLY,2015-02-12T05:30:00Z,45.72,4.95,-2.0,-3.0,0,0,,2.92,30.147638,,,TRUE,,,,,,,BR,,,,,,,,,,,,,,,,,,,,,SPECI,201.0
LFLS 120530Z AUTO 09013KT 9999 NSC 02/M01 Q1021,LFLS,2015-02-12T05:30:00Z,45.37,5.32,2.0,-1.0,90,13,,6.21,30.147638,,,TRUE,,,,,,,,,,,,,,,,,,,,,,,,,,,,SPECI,386.0
LFLP 120530Z AUTO 02003KT 0200 R04/0650D FZFG VV/// M04/M05 Q1022,LFLP,2015-02-12T05:30:00Z,45.92,6.08,-4.0,-5.0,20,3,,0.12,30.177166,,,TRUE,,,,,,,FZFG,OVX,0,,,,,,,LIFR,,,,,,,,,,,,METAR,463.0
LFJL 120530Z AUTO 10007KT 0150 0100 R22/0550N R04/0600U FZFG VV/// M02/M02 Q1021,LFJL,2015-02-12T05:30:00Z,48.97,6.25,-2.0,-2.0,100,7,,0.09,30.147638,,,TRUE,,,,,,,FZFG,OVX,0,,,,,,,LIFR,,,,,,,,,,,,METAR,264.0
LFCR 120530Z AUTO VRB02KT 9999 NSC M01/M03 Q1019,LFCR,2015-02-12T05:30:00Z,44.38,2.47,-1.0,-3.0,0,2,,6.21,30.088583,,,TRUE,,,,,,,,,,,,,,,,,,,,,,,,,,,,METAR,580.0
LRTR 120530Z 08004KT CAVOK M06/M07 Q1029 NOSIG,LRTR,2015-02-12T05:30:00Z,45.82,21.33,-6.0,-7.0,80,4,,6.21,30.383858,,,,,,TRUE,,,,,CAVOK,,,,,,,,VFR,,,,,,,,,,,,METAR,88.0
LRSB 120530Z VRB01KT CAVOK M09/M11 Q1028 NOSIG,LRSB,2015-02-12T05:30:00Z,45.78,24.08,-9.0,-11.0,0,1,,6.21,30.35433,,,,,,TRUE,,,,,CAVOK,,,,,,,,VFR,,,,,,,,,,,,METAR,444.0
LROP 120530Z 24005KT CAVOK M02/M05 Q1027 R08R/19//95 R08L/19//95 NOSIG,LROP,2015-02-12T05:30:00Z,44.57,26.1,-2.0,-5.0,240,5,,6.21,30.324802,,,,,,TRUE,,,,,CAVOK,,,,,,,,VFR,,,,,,,,,,,,SPECI,95.0
LRCK 120530Z 36010KT 9999 BKN019 M02/M02 Q1025 RMK R36/452594 NOSIG,LRCK,2015-02-12T05:30:00Z,44.37,28.48,-2.0,-2.0,360,10,,6.21,30.265747,,,,,,,,,,,BKN,1900,,,,,,,MVFR,,,,,,,,,,,,METAR,108.0
LRBS 120530Z 21004KT CAVOK M00/M06 Q1028 NOSIG,LRBS,2015-02-12T05:30:00Z,44.5,26.08,0.0,-6.0,210,4,,6.21,30.35433,,,,,,TRUE,,,,,CAVOK,,,,,,,,VFR,,,,,,,,,,,,METAR,91.0
LFMY 120530Z AUTO 00000KT 9999 NSC 01/00 Q1021,LFMY,2015-02-12T05:30:00Z,43.6,5.08,1.0,0.0,0,0,,6.21,30.147638,,,TRUE,,,,,,,,,,,,,,,,,,,,,,,,,,,,METAR,60.0
LFMC 120530Z AUTO 00000KT 0150 FZFG BKN003 OVC007 M01/M01 Q1022,LFMC,2015-02-12T05:30:00Z,43.37,6.37,-1.0,-1.0,0,0,,0.09,30.177166,,,TRUE,,,,,,,FZFG,BKN,300,OVC,700,,,,,LIFR,,,,,,,,,,,,METAR,78.0
LFKS 120530Z AUTO 27008KT 9999 NSC 06/02 Q1021,LFKS,2015-02-12T05:30:00Z,41.92,9.4,6.0,2.0,270,8,,6.21,30.147638,,,TRUE,,,,,,,,,,,,,,,,,,,,,,,,,,,,METAR,22.0
LFBM 120530Z AUTO 00000KT 9999 NSC 03/01 Q1019,LFBM,2015-02-12T05:30:00Z,43.92,-0.5,3.0,1.0,0,0,,6.21,30.088583,,,TRUE,,,,,,,,,,,,,,,,,,,,,,,,,,,,SPECI,63.0
LFBG 120530Z AUTO 00000KT 9000 NSC 01/M02 Q1019,LFBG,2015-02-12T05:30:00Z,45.67,-0.32,1.0,-2.0,0,0,,5.59,30.088583,,,TRUE,,,,,,,,,,,,,,,,,,,,,,,,,,,,METAR,31.0
LFBC 120530Z AUTO 08003KT 9999 NSC 05/02 Q1019,LFBC,2015-02-12T05:30:00Z,44.52,-1.12,5.0,2.0,80,3,,6.21,30.088583,,,TRUE,,,,,,,,,,,,,,,,,,,,,,,,,,,,SPECI,33.0
LFTH 120530Z AUTO 35003KT 320V080 8000 NSC 02/02 Q1021,LFTH,2015-02-12T05:30:00Z,43.1,6.15,2.0,2.0,350,3,,4.97,30.147638,,,TRUE,,,,,,,,,,,,,,,,,,,,,,,,,,,,SPECI,4.0
LFST 120530Z AUTO 00000KT 0400 0300 R23/1700U R05/1100N FZFG VV/// M00/M01 Q1023,LFST,2015-02-12T05:30:00Z,48.53,7.62,0.0,-1.0,0,0,,0.25,30.206694,,,TRUE,,,,,,,FZFG,OVX,0,,,,,,,LIFR,,,,,,,,,,,,SPECI,154.0
LFSG 120530Z AUTO 25001KT 0100 R26/0350N FZFG VV/// M06/M07 Q1021,LFSG,2015-02-12T05:30:00Z,48.33,6.07,-6.0,-7.0,250,1,,0.06,30.147638,,,TRUE,,,,,,,FZFG,OVX,0,,,,,,,LIFR,,,,,,,,,,,,METAR,330.0
LFSB 120530Z VRB01KT 3000 BR NSC M05/M06 Q1022 NOSIG,LFSB,2015-02-12T05:30:00Z,47.6,7.52,-5.0,-6.0,0,1,,1.86,30.177166,,,,,,TRUE,,,,BR,,,,,,,,,,,,,,,,,,,,,METAR,271.0
LFRZ 120530Z AUTO 07004KT 1600 BR NSC M01/M02 Q1019,LFRZ,2015-02-12T05:30:00Z,47.32,-2.17,-1.0,-2.0,70,4,,0.99,30.088583,,,TRUE,,,,,,,BR,,,,,,,,,,,,,,,,,,,,,SPECI,4.0
LFRV 120530Z AUTO 06009KT 0200 FG VV/// 01/00 Q1018,LFRV,2015-02-12T05:30:00Z,47.72,-2.72,1.0,0.0,60,9,,0.12,30.059055,,,TRUE,,,,,,,FG,OVX,0,,,,,,,LIFR,,,,,,,,,,,,METAR,133.0
LFRO 120530Z AUTO 11005KT 0100 R29/0550U FZFG VV/// M00/M00 Q1019,LFRO,2015-02-12T05:30:00Z,48.75,-3.47,0.0,0.0,110,5,,0.06,30.088583,,,TRUE,,,,,,,FZFG,OVX,0,,,,,,,LIFR,,,,,,,,,,,,METAR,89.0
LFRN 120530Z AUTO 00000KT 1800 BR NSC M04/M05 Q1019,LFRN,2015-02-12T05:30:00Z,48.07,-1.72,-4.0,-5.0,0,0,,1.12,30.088583,,,TRUE,,,,,,,BR,,,,,,,,,,,,,,,,,,,,,METAR,37.0
LFRM 120530Z AUTO 07002KT 2700 BR NSC M04/M04 Q1020,LFRM,2015-02-12T05:30:00Z,47.95,0.2,-4.0,-4.0,70,2,,1.68,30.11811,,,TRUE,,,,,,,BR,,,,,,,,,,,,,,,,,,,,,SPECI,52.0
LFRI 120530Z AUTO 11005KT 8000 NSC 02/00 Q1019,LFRI,2015-02-12T05:30:00Z,46.7,-1.37,2.0,0.0,110,5,,4.97,30.088583,,,TRUE,,,,,,,,,,,,,,,,,,,,,,,,,,,,METAR,91.0
LFRD 120530Z AUTO 12006KT 2000 BR NSC M01/M02 Q1019,LFRD,2015-02-12T05:30:00Z,48.58,-2.07,-1.0,-2.0,120,6,,1.24,30.088583,,,TRUE,,,,,,,BR,,,,,,,,,,,,,,,,,,,,,SPECI,59.0
LFOV 120530Z AUTO 36003KT 2100 BR NSC M03/M03 Q1020,LFOV,2015-02-12T05:30:00Z,48.03,-0.75,-3.0,-3.0,360,3,,1.3,30.11811,,,TRUE,,,,,,,BR,,,,,,,,,,,,,,,,,,,,,METAR,101.0
LFMK 120530Z AUTO 17003KT 140V200 6000 BKN010 04/03 Q1019,LFMK,2015-02-12T05:30:00Z,43.22,2.32,4.0,3.0,170,3,,3.73,30.088583,,,TRUE,,,,,,,,BKN,1000,,,,,,,MVFR,,,,,,,,,,,,METAR,130.0
LFMI 120530Z AUTO 05005KT 9999 3700 NSC 01/01 Q1020,LFMI,2015-02-12T05:30:00Z,43.52,4.92,1.0,1.0,50,5,,6.21,30.11811,,,TRUE,,,,,,,,,,,,,,,,,,,,,,,,,,,,METAR,24.0
LFRK 120530Z AUTO 00000KT 1700 BR OVC022 01/00 Q1020,LFRK,2015-02-12T05:30:00Z,49.17,-0.45,1.0,0.0,0,0,,1.06,30.11811,,,TRUE,,,,,,,BR,OVC,2200,,,,,,,IFR,,,,,,,,,,,,METAR,67.0
LFRG 120530Z AUTO 00000KT 3500 BR OVC022 02/01 Q1020,LFRG,2015-02-12T05:30:00Z,49.37,0.15,2.0,1.0,0,0,,2.17,30.11811,,,TRUE,,,,,,,BR,OVC,2200,,,,,,,IFR,,,,,,,,,,,,METAR,146.0
LFRC 120530Z AUTO 15002KT 9999 OVC021 02/00 Q1020,LFRC,2015-02-12T05:30:00Z,49.63,-1.47,2.0,0.0,150,2,,6.21,30.11811,,,TRUE,,,,,,,,OVC,2100,,,,,,,MVFR,,,,,,,,,,,,METAR,138.0
LFPN 120530Z AUTO 24002KT 0100 R25R/0375N FZFG VV/// M04/M05 Q1020,LFPN,2015-02-12T05:30:00Z,48.75,2.12,-4.0,-5.0,240,2,,0.06,30.11811,,,TRUE,,,,,,,FZFG,OVX,0,,,,,,,LIFR,,,,,,,,,,,,METAR,164.0
LFOT 120530Z 08004KT 2000 BR NSC M01/M02 Q1020 NOSIG,LFOT,2015-02-12T05:30:00Z,47.43,0.72,-1.0,-2.0,80,4,,1.24,30.11811,,,,,,TRUE,,,,BR,,,,,,,,,,,,,,,,,,,,,METAR,108.0
LFMH 120530Z 00000KT CAVOK M03/M05 Q1020 NOSIG,LFMH,2015-02-12T05:30:00Z,45.52,4.28,-3.0,-5.0,0,0,,6.21,30.11811,,,,,,TRUE,,,,,CAVOK,,,,,,,,VFR,,,,,,,,,,,,METAR,402.0
LFMD 120530Z AUTO 36004KT 330V040 9999 NSC 03/01 Q1021,LFMD,2015-02-12T05:30:00Z,43.53,6.95,3.0,1.0,360,4,,6.21,30.147638,,,TRUE,,,,,,,,,,,,,,,,,,,,,,,,,,,,METAR,9.0
LFJR 120530Z AUTO 07002KT 2200 BR NSC M04/M05 Q1020,LFJR,2015-02-12T05:30:00Z,47.57,-0.3,-4.0,-5.0,70,2,,1.37,30.11811,,,TRUE,,,,,,,BR,,,,,,,,,,,,,,,,,,,,,METAR,60.0
LFGJ 120530Z AUTO 08004KT 5000 BR NSC M04/M05 Q1021,LFGJ,2015-02-12T05:30:00Z,47.05,5.43,-4.0,-5.0,80,4,,3.11,30.147638,,,TRUE,,,,,,,BR,,,,,,,,,,,,,,,,,,,,,METAR,196.0
LFBE 120530Z AUTO 06002KT 9999 NSC 01/M00 Q1020,LFBE,2015-02-12T05:30:00Z,44.82,0.52,1.0,0.0,60,2,,6.21,30.11811,,,TRUE,,,,,,,,,,,,,,,,,,,,,,,,,,,,METAR,52.0
LFBA 120530Z AUTO 10003KT 4600 BR NSC 02/01 Q1020,LFBA,2015-02-12T05:30:00Z,44.17,0.6,2.0,1.0,100,3,,2.86,30.11811,,,TRUE,,,,,,,BR,,,,,,,,,,,,,,,,,,,,,METAR,60.0
LJCE 120530Z 00000KT 8000 OVC025 01/00 Q1028 RMK BLU,LJCE,2015-02-12T05:30:00Z,45.9,15.52,1.0,0.0,0,0,,4.97,30.35433,,,,,,,,,,,OVC,2500,,,,,,,MVFR,,,,,,,,,,,,METAR,155.0
LFPV 120530Z AUTO 00000KT 0100 R27/0350D R09/0350U FZFG FEW016 M03/M04 Q1019,LFPV,2015-02-12T05:30:00Z,48.77,2.2,-3.0,-4.0,0,0,,0.06,30.088583,,,TRUE,,,,,,,FZFG,FEW,1600,,,,,,,LIFR,,,,,,,,,,,,SPECI,179.0
LFPC 120530Z AUTO 00000KT 0050 R25/0375N FZFG NSC M02/M02 Q1020,LFPC,2015-02-12T05:30:00Z,49.25,2.52,-2.0,-2.0,0,0,,0.03,30.11811,,,TRUE,,,,,,,FZFG,,,,,,,,,,,,,,,,,,,,,METAR,88.0
LJPZ 120530Z 12008KT 9999 BKN016 02/M00 Q1025,LJPZ,2015-02-12T05:30:00Z,45.47,13.62,2.0,0.0,120,8,,6.21,30.265747,,,,,,,,,,,BKN,1600,,,,,,,MVFR,,,,,,,,,,,,METAR,2.0
LJMB 120530Z 13003KT 2700 BR FEW007 OVC019 01/00 Q1027,LJMB,2015-02-12T05:30:00Z,46.47,15.67,1.0,0.0,130,3,,1.68,30.324802,,,,,,,,,,BR,FEW,700,OVC,1900,,,,,IFR,,,,,,,,,,,,METAR,265.0
LJLJ 120530Z 00000KT 3000 BR SCT007 OVC017 01/00 Q1026 R30/29//95 NOSIG,LJLJ,2015-02-12T05:30:00Z,46.22,14.47,1.0,0.0,0,0,,1.86,30.295275,,,,,,TRUE,,,,BR,SCT,700,OVC,1700,,,,,IFR,,,,,,,,,,,,METAR,385.0
LFOJ 120530Z AUTO 14002KT 1000 R25/1900U BCFG VV/// M05/M05 Q1020,LFOJ,2015-02-12T05:30:00Z,47.97,1.75,-5.0,-5.0,140,2,,0.62,30.11811,,,TRUE,,,,,,,BCFG,OVX,0,,,,,,,LIFR,,,,,,,,,,,,METAR,125.0
LFOA 120530Z AUTO 06004KT 2400 BR NSC M02/M03 Q1020,LFOA,2015-02-12T05:30:00Z,47.03,2.63,-2.0,-3.0,60,4,,1.49,30.11811,,,TRUE,,,,,,,BR,,,,,,,,,,,,,,,,,,,,,METAR,179.0
LFMO 120530Z AUTO 00000KT 5000 BR NSC M01/M02 Q1021,LFMO,2015-02-12T05:30:00Z,44.12,4.87,-1.0,-2.0,0,0,,3.11,30.147638,,,TRUE,,,,,,,BR,,,,,,,,,,,,,,,,,,,,,METAR,55.0
LCPH 120530Z 05003KT 360V080 9999 -SHRA FEW020CB SCT025TCU 09/07 Q1010,LCPH,2015-02-12T05:30:00Z,34.72,32.47,9.0,7.0,50,3,,6.21,29.822834,,,,,,,,,,-SHRA,FEW,2000,SCT,2500,,,,,VFR,,,,,,,,,,,,METAR,8.0
LCLK 120530Z 33004KT 280V350 9999 FEW025TCU FEW030CB 07/06 Q1010 NOSIG,LCLK,2015-02-12T05:30:00Z,34.87,33.62,7.0,6.0,330,4,,6.21,29.822834,,,,,,TRUE,,,,,FEW,2500,FEW,3000,,,,,VFR,,,,,,,,,,,,METAR,2.0
OTBD 120530Z 16010KT CAVOK 24/16 Q1016 NOSIG,OTBD,2015-02-12T05:30:00Z,25.25,51.57,24.0,16.0,160,10,,6.21,30.0,,,,,,TRUE,,,,,CAVOK,,,,,,,,VFR,,,,,,,,,,,,METAR,10.0
WADL 120530Z 30007KT 5000 TSRA FEW015CB SCT016 28/24 Q1008 FM0520 TL0630 5000 TSRA FEW015CB SCT016 RMK CB TO N,WADL,2015-02-12T05:30:00Z,-8.75,116.28,28.0,24.0,300,7,,3.11,29.763779,,,,,,,,,,TSRA,FEW,1500,SCT,1600,,,,,MVFR,,,,,,,,,,,,METAR,97.0
WIII 120530Z 32014KT 8000 BKN019 28/24 Q1009 NOSIG,WIII,2015-02-12T05:30:00Z,-6.13,106.67,28.0,24.0,320,14,,4.97,29.793306,,,,,,TRUE,,,,,BKN,1900,,,,,,,MVFR,,,,,,,,,,,,METAR,8.0
HECA 120530Z 20008KT 2000 DU SCT025 OVC070 07/M01 Q1019 BECMG 4000,HECA,2015-02-12T05:30:00Z,30.12,31.38,7.0,-1.0,200,8,,1.24,30.088583,,,,,,,,,,DU,SCT,2500,OVC,7000,,,,,IFR,,,,,,,,,,,,METAR,74.0
VOCL 120530Z 06004KT 8000 NSC 31/20 Q1013 NOSIG,VOCL,2015-02-12T05:30:00Z,11.13,75.95,31.0,20.0,60,4,,4.97,29.911417,,,,,,TRUE,,,,,,,,,,,,,,,,,,,,,,,,,METAR,104.0
DIAP 120530Z 05005KT 9999 TS FEW011 FEW020CB 23/22 Q1012 NOSIG,DIAP,2015-02-12T05:30:00Z,5.25,-3.92,23.0,22.0,50,5,,6.21,29.88189,,,,,,TRUE,,,,TS,FEW,1100,FEW,2000,,,,,VFR,,,,,,,,,,,,METAR,8.0
WMKP 120530Z 21007KT 190V260 6000 FEW020 BKN300 31/23 Q1011 NOSIG,WMKP,2015-02-12T05:30:00Z,5.28,100.27,31.0,23.0,210,7,,3.73,29.852362,,,,,,TRUE,,,,,FEW,2000,BKN,30000,,,,,MVFR,,,,,,,,,,,,METAR,4.0
WMKK 120530Z 35002KT 8000 SCT018 BKN280 31/21 Q1010 NOSIG,WMKK,2015-02-12T05:30:00Z,2.75,101.72,31.0,21.0,350,2,,4.97,29.822834,,,,,,TRUE,,,,,SCT,1800,BKN,28000,,,,,MVFR,,,,,,,,,,,,METAR,22.0
WBSB 120530Z 35009KT 9999 SCT016 BKN300 29/24 Q1012 NOSIG,WBSB,2015-02-12T05:30:00Z,4.92,114.92,29.0,24.0,350,9,,6.21,29.88189,,,,,,TRUE,,,,,SCT,1600,BKN,30000,,,,,VFR,,,,,,,,,,,,METAR,15.0
WBKK 120530Z 33009KT 300V020 9999 FEW015 BKN290 30/24 Q1011 NOSIG,WBKK,2015-02-12T05:30:00Z,5.92,116.03,30.0,24.0,330,9,,6.21,29.852362,,,,,,TRUE,,,,,FEW,1500,BKN,29000,,,,,VFR,,,,,,,,,,,,METAR,3.0
WBGG 120530Z 34006KT 300V030 2000 -RA FEW000 SCT020 BKN150 26/23 Q1012 NOSIG,WBGG,2015-02-12T05:30:00Z,1.47,110.35,26.0,23.0,340,6,,1.24,29.88189,,,,,,TRUE,,,,-RA,FEW,0,SCT,2000,BKN,15000,,,IFR,,,,,,,,,,,,METAR,27.0
RJGG 120530Z 25005KT 9999 VCSH FEW020 SCT070 09/03 Q1005 BECMG 28012KT,RJGG,2015-02-12T05:30:00Z,34.87,136.8,9.0,3.0,250,5,,6.21,29.675198,,,,,,,,,,VCSH,FEW,2000,SCT,7000,,,,,VFR,,,,,,,,,,,,METAR,5.0
RJBB 120530Z 29011KT 9999 FEW035 11/M00 Q1005 NOSIG,RJBB,2015-02-12T05:30:00Z,34.42,135.25,11.0,0.0,290,11,,6.21,29.675198,,,,,,TRUE,,,,,FEW,3500,,,,,,,VFR,,,,,,,,,,,,METAR,8.0
NZCH 120530Z AUTO 08016KT 9999 NCD 20/13 Q1020 NOSIG,NZCH,2015-02-12T05:30:00Z,-43.47,172.55,20.0,13.0,80,16,,6.21,30.11811,,,TRUE,,,TRUE,,,,,,,,,,,,,,,,,,,,,,,,,METAR,34.0
NZWN 120530Z AUTO 36013KT 9999 NCD 22/12 Q1023 NOSIG,NZWN,2015-02-12T05:30:00Z,-41.32,174.8,22.0,12.0,360,13,,6.21,30.206694,,,TRUE,,,TRUE,,,,,,,,,,,,,,,,,,,,,,,,,METAR,7.0
NZAA 120530Z AUTO 24006KT 9999 BKN045/// 20/13 Q1024 NOSIG,NZAA,2015-02-12T05:30:00Z,-37.02,174.8,20.0,13.0,240,6,,6.21,30.236221,,,TRUE,,,TRUE,,,,,,,,,,,,,,,,,,,,,,,,,METAR,6.0
LFLC 120530Z 00000KT CAVOK M02/M03 Q1020 NOSIG,LFLC,2015-02-12T05:30:00Z,45.77,3.17,-2.0,-3.0,0,0,,6.21,30.11811,,,,,,TRUE,,,,,CAVOK,,,,,,,,VFR,,,,,,,,,,,,METAR,330.0
UMMM 120530Z 24004MPS 0300 FZFG VV002 M02/M02 Q1025 R30/390330 NOSIG RMK QFE749 QBB060,UMMM,2015-02-12T05:30:00Z,53.87,27.52,-2.0,-2.0,240,8,,0.19,30.265747,,,,,,TRUE,,,,FZFG,OVX,0,,,,,,,LIFR,,,,,,,,,,,200,METAR,234.0
UMGG 120530Z 25003MPS 1200 -FZDZ BR OVC002 M02/M02 Q1028 R28/290050 TEMPO 0900 FZFG RMK QBB060,UMGG,2015-02-12T05:30:00Z,52.53,31.02,-2.0,-2.0,250,6,,0.75,30.35433,,,,,,,,,,-FZDZ BR,OVC,200,,,,,,,LIFR,,,,,,,,,,,,METAR,144.0
UMMG 120530Z 20003MPS 4200 -FZDZ BR OVC004 M00/M01 Q1027 R17/390134 TEMPO 2000 RMK QBB130,UMMG,2015-02-12T05:30:00Z,53.6,24.05,0.0,-1.0,200,6,,2.61,30.324802,,,,,,,,,,-FZDZ BR,OVC,400,,,,,,,LIFR,,,,,,,,,,,,METAR,135.0
UMBB 120530Z 24004MPS 5000 BR OVC007 01/00 Q1028 NOSIG,UMBB,2015-02-12T05:30:00Z,52.12,23.9,1.0,0.0,240,8,,3.11,30.35433,,,,,,TRUE,,,,BR,OVC,700,,,,,,,IFR,,,,,,,,,,,,METAR,143.0
DTTJ 120530Z 00000KT 6000 FEW030 07/07 Q1019 NOSIG,DTTJ,2015-02-12T05:30:00Z,33.87,10.77,7.0,7.0,0,0,,3.73,30.088583,,,,,,TRUE,,,,,FEW,3000,,,,,,,MVFR,,,,,,,,,,,,METAR,4.0
DTTA 120530Z 00000KT 3000 BR FEW026 03/02 Q1020,DTTA,2015-02-12T05:30:00Z,36.85,10.22,3.0,2.0,0,0,,1.86,30.11811,,,,,,,,,,BR,FEW,2600,,,,,,,IFR,,,,,,,,,,,,METAR,4.0
DTNH 120530Z AUTO 24005KT 6000NDV NCD 02/M00 Q1020,DTNH,2015-02-12T05:30:00Z,36.07,10.43,2.0,0.0,240,5,,,30.11811,,,TRUE,,,,,,,,,,,,,,,,,,,,,,,,,,,,METAR,2.0
DTMB 120530Z VRB01KT CAVOK 06/03 Q1020 NOSIG,DTMB,2015-02-12T05:30:00Z,35.77,10.75,6.0,3.0,0,1,,6.21,30.11811,,,,,,TRUE,,,,,CAVOK,,,,,,,,VFR,,,,,,,,,,,,METAR,2.0
YSNW 120530Z 17013KT 6000 -RA SCT010 OVC022 21/18 Q1023 NOSIG,YSNW,2015-02-12T05:30:00Z,-34.95,150.52,21.0,18.0,170,13,,3.73,30.206694,,,,,,TRUE,,,,-RA,SCT,1000,OVC,2200,,,,,MVFR,,,,,,,,,,,,SPECI,110.0
VMMC 120530Z 02005KT 2200 HZ NSC 19/12 Q1017 NOSIG,VMMC,2015-02-12T05:30:00Z,22.15,113.58,19.0,12.0,20,5,,1.37,30.029528,,,,,,TRUE,,,,HZ,,,,,,,,,,,,,,,,,,,,,METAR,6.0
RCNN 120530Z 34014KT 9999 FEW012 SCT200 22/07 Q1014 NOSIG RMK A2997,RCNN,2015-02-12T05:30:00Z,22.93,120.2,22.0,7.0,340,14,,6.21,29.940945,,,,,,TRUE,,,,,FEW,1200,SCT,20000,,,,,VFR,,,,,,,,,,,,METAR,19.0
RCMQ 120530Z 35015G25KT 9999 FEW010 SCT060 BKN180 20/03 Q1015 NOSIG RMK A2999,RCMQ,2015-02-12T05:30:00Z,24.27,120.62,20.0,3.0,350,15,25,6.21,29.970472,,,,,,TRUE,,,,,FEW,1000,SCT,6000,BKN,18000,,,VFR,,,,,,,,,,,,METAR,5.0
RCKH 120530Z 36009KT 320V060 8000 FEW025 SCT250 BKN300 24/09 Q1015 NOSIG RMK A2998,RCKH,2015-02-12T05:30:00Z,22.57,120.33,24.0,9.0,360,9,,4.97,29.970472,,,,,,TRUE,,,,,FEW,2500,SCT,25000,BKN,30000,,,MVFR,,,,,,,,,,,,METAR,9.0
RCTP 120530Z 02011KT 9999 FEW016 BKN120 BKN200 18/02 Q1019 NOSIG RMK A3009,RCTP,2015-02-12T05:30:00Z,25.07,121.22,18.0,2.0,20,11,,6.21,30.088583,,,,,,TRUE,,,,,FEW,1600,BKN,12000,BKN,20000,,,VFR,,,,,,,,,,,,METAR,33.0
DAUH 120530Z 04010KT CAVOK 08/M03 Q1015,DAUH,2015-02-12T05:30:00Z,31.67,6.15,8.0,-3.0,40,10,,6.21,29.970472,,,,,,,,,,,CAVOK,,,,,,,,VFR,,,,,,,,,,,,METAR,142.0
DAOO 120530Z 21005KT 9999 SCT020 08/06 Q1017,DAOO,2015-02-12T05:30:00Z,35.62,-0.6,8.0,6.0,210,5,,6.21,30.029528,,,,,,,,,,,SCT,2000,,,,,,,VFR,,,,,,,,,,,,METAR,90.0
DAON 120530Z 12003KT 8000 BKN010 07/07 Q1017,DAON,2015-02-12T05:30:00Z,35.02,-1.47,7.0,7.0,120,3,,4.97,30.029528,,,,,,,,,,,BKN,1000,,,,,,,MVFR,,,,,,,,,,,,METAR,247.0
DABS 120530Z 00000KT CAVOK 01/M02 Q1019,DABS,2015-02-12T05:30:00Z,35.43,8.12,1.0,-2.0,0,0,,6.21,30.088583,,,,,,,,,,,CAVOK,,,,,,,,VFR,,,,,,,,,,,,METAR,813.0
DABC 120530Z 00000KT CAVOK 03/M02 Q1019,DABC,2015-02-12T05:30:00Z,36.27,6.62,3.0,-2.0,0,0,,6.21,30.088583,,,,,,,,,,,CAVOK,,,,,,,,VFR,,,,,,,,,,,,METAR,694.0
DABB 120530Z 25004KT 8000 NSC 06/05 Q1018,DABB,2015-02-12T05:30:00Z,36.82,7.82,6.0,5.0,250,4,,4.97,30.059055,,,,,,,,,,,,,,,,,,,,,,,,,,,,,,,METAR,4.0
DAAT 120530Z 11008KT 9999 FEW053 SCT100 17/M03 Q1021,DAAT,2015-02-12T05:30:00Z,22.82,5.47,17.0,-3.0,110,8,,6.21,30.147638,,,,,,,,,,,FEW,5300,SCT,10000,,,,,VFR,,,,,,,,,,,,METAR,1377.0
DAAG 120530Z 00000KT CAVOK 03/02 Q1018,DAAG,2015-02-12T05:30:00Z,36.72,3.22,3.0,2.0,0,0,,6.21,30.059055,,,,,,,,,,,CAVOK,,,,,,,,VFR,,,,,,,,,,,,METAR,25.0
UCFO 120530Z 07003MPS 8000 FEW050 BKN133 10/03 Q1014 R12/CLRD70 TEMPO 25009MPS,UCFO,2015-02-12T05:30:00Z,40.6,72.8,10.0,3.0,70,6,,4.97,29.940945,,,,,,,,,,,FEW,5000,BKN,13300,,,,,MVFR,,,,,,,,,,,,METAR,884.0
UCFM 120530Z 11007MPS 4000 BR NSC 07/05 Q1013 R08/29//55 NOSIG,UCFM,2015-02-12T05:30:00Z,43.07,74.48,7.0,5.0,110,14,,2.49,29.911417,,,,,,TRUE,,,,BR,,,,,,,,,,,,,,,,,,,,,METAR,633.0
UTDL 120530Z 08007G10MPS 3600 -SHRA BR FEW022 BKN070CB OVC100 07/05 Q1017 NOSIG RMK QFE723/0964 8829//50,UTDL,2015-02-12T05:30:00Z,40.22,69.7,7.0,5.0,80,14,19,2.24,30.029528,,,,,,TRUE,,,,-SHRA BR,FEW,2200,BKN,7000,OVC,10000,,,IFR,,,,,,,,,,,,METAR,442.0
UTDT 120530Z 32003MPS 7000 -SHRA FEW046 BKN060CB OVC073 11/09 Q1019 35290450 RMK QFE724/0966,UTDT,2015-02-12T05:30:00Z,37.87,68.87,11.0,9.0,320,6,,4.35,30.088583,,,,,,,,,,-SHRA,FEW,4600,BKN,6000,OVC,7300,,,MVFR,,,,,,,,,,,,METAR,449.0
UTDK 120530Z 01003MPS 9000 -SHRA FEW010 BKN033CB OVC066 10/07 Q1020 0129//50 RMK QFE707/0943,UTDK,2015-02-12T05:30:00Z,37.98,69.8,10.0,7.0,10,6,,5.59,30.11811,,,,,,,,,,-SHRA,FEW,1000,BKN,3300,OVC,6600,,,VFR,,,,,,,,,,,,METAR,699.0
UTDD 120530Z 02002MPS 1900 -RA BR FEW044 BKN057 OVC065 09/07 Q1020 RERA R09/29//50 TEMPO 1000 RA RMK QFE697/0929,UTDD,2015-02-12T05:30:00Z,38.53,68.82,9.0,7.0,20,4,,1.18,30.11811,,,,,,,,,,-RA BR,FEW,4400,BKN,5700,OVC,6500,,,IFR,,,,,,,,,,,,METAR,803.0
WALL 120530Z 08005KT 030V150 9999 FEW018CB SCT020 31/25 Q1008 RMK CB TO SW AND NW,WALL,2015-02-12T05:30:00Z,-1.27,116.9,31.0,25.0,80,5,,6.21,29.763779,,,,,,,,,,,FEW,1800,SCT,2000,,,,,VFR,,,,,,,,,,,,METAR,3.0
WIPP 120530Z 33009KT 9999 BKN013 30/23 Q1010 NOSIG,WIPP,2015-02-12T05:30:00Z,-2.88,104.7,30.0,23.0,330,9,,6.21,29.822834,,,,,,TRUE,,,,,BKN,1300,,,,,,,MVFR,,,,,,,,,,,,METAR,10.0
WIPT 120530Z 25005KT 190V300 8000 SCT020 28/24 Q1010,WIPT,2015-02-12T05:30:00Z,-0.78,100.28,28.0,24.0,250,5,,4.97,29.822834,,,,,,,,,,,SCT,2000,,,,,,,MVFR,,,,,,,,,,,,METAR,5.0
WIBB 120530Z 34006KT 6000 FU SCT012 30/21 Q1010 NOSIG,WIBB,2015-02-12T05:30:00Z,0.47,101.45,30.0,21.0,340,6,,3.73,29.822834,,,,,,TRUE,,,,FU,SCT,1200,,,,,,,MVFR,,,,,,,,,,,,METAR,31.0
WARS 120530Z 32014KT 5000 HZ FEW017CB BKN018 28/25 Q1009 NOSIG,WARS,2015-02-12T05:30:00Z,-6.97,110.38,28.0,25.0,320,14,,3.11,29.793306,,,,,,TRUE,,,,HZ,FEW,1700,BKN,1800,,,,,MVFR,,,,,,,,,,,,METAR,3.0
WATT 120530Z 31007KT 9999 FEW016CB SCT017 31/26 Q1008 NOSIG RMK CB TO NE UNTIL E,WATT,2015-02-12T05:30:00Z,-10.17,123.67,31.0,26.0,310,7,,6.21,29.763779,,,,,,TRUE,,,,,FEW,1600,SCT,1700,,,,,VFR,,,,,,,,,,,,METAR,102.0
UTTT 120530Z 19006KT 7000 BKN064CB OVC100 11/10 Q1015 R88/29//50 NOSIG,UTTT,2015-02-12T05:30:00Z,41.27,69.27,11.0,10.0,190,6,,4.35,29.970472,,,,,,TRUE,,,,,BKN,6400,OVC,10000,,,,,MVFR,,,,,,,,,,,,METAR,489.0
UTST 120530Z 04015KT 9999 -SHRA BKN033CB BKN100 12/11 Q1017 R88/290260 NOSIG,UTST,2015-02-12T05:30:00Z,37.28,67.32,12.0,11.0,40,15,,6.21,30.029528,,,,,,TRUE,,,,-SHRA,BKN,3300,BKN,10000,,,,,VFR,,,,,,,,,,,,METAR,302.0
UTSS 120530Z 21002KT 3500 -SHRA BR BKN009 OVC033CB 10/09 Q1016 R88/29//55 NOSIG,UTSS,2015-02-12T05:30:00Z,39.7,66.98,10.0,9.0,210,2,,2.17,30.0,,,,,,TRUE,,,,-SHRA BR,BKN,900,OVC,3300,,,,,IFR,,,,,,,,,,,,METAR,724.0
UTSK 120530Z 16005KT 7000 -SHRA OVC050CB 11/10 Q1016 R16/290450,UTSK,2015-02-12T05:30:00Z,38.83,65.77,11.0,10.0,160,5,,4.35,30.0,,,,,,,,,,-SHRA,OVC,5000,,,,,,,MVFR,,,,,,,,,,,,METAR,1365.0
UTSB 120530Z 32008KT 4500 -SHRA BR SCT005 OVC024CB 07/06 Q1017 R01/290055 NOSIG RMK BASE500,UTSB,2015-02-12T05:30:00Z,39.77,64.48,7.0,6.0,320,8,,2.8,30.029528,,,,,,TRUE,,,,-SHRA BR,SCT,500,OVC,2400,,,,,IFR,,,,,,,,,,,,METAR,226.0
UTSA 120530Z 30005KT 2900 SHRA BR OVC028CB 08/07 Q1016 R25/2///65 NOSIG,UTSA,2015-02-12T05:30:00Z,40.12,65.17,8.0,7.0,300,5,,1.8,30.0,,,,,,TRUE,,,,SHRA BR,OVC,2800,,,,,,,IFR,,,,,,,,,,,,METAR,346.0
UTNU 120530Z 32010KT 9999 OVC009 03/01 Q1020 R31/CLRD70 NOSIG,UTNU,2015-02-12T05:30:00Z,41.58,60.63,3.0,1.0,320,10,,6.21,30.11811,,,,,,TRUE,,,,,OVC,900,,,,,,,IFR,,,,,,,,,,,,METAR,98.0
UTNN 120530Z 35010KT 9999 OVC006 01/M01 Q1022 R33/CLRD60 NOSIG RMK BASE630,UTNN,2015-02-12T05:30:00Z,42.48,59.63,1.0,-1.0,350,10,,6.21,30.177166,,,,,,TRUE,,,,,OVC,600,,,,,,,IFR,,,,,,,,,,,,METAR,67.0
WAAA 120530Z VRB02KT 3000 RA FEW017CB BKN018 24/24 Q1010 NOSIG,WAAA,2015-02-12T05:30:00Z,-5.07,119.53,24.0,24.0,0,2,,1.86,29.822834,,,,,,TRUE,,,,RA,FEW,1700,BKN,1800,,,,,IFR,,,,,,,,,,,,METAR,14.0
WADD 120530Z 25010KT 9999 FEW016CB FEW017 29/25 Q1007 NOSIG RMK CB TO NE AND E,WADD,2015-02-12T05:30:00Z,-8.73,115.17,29.0,25.0,250,10,,6.21,29.734253,,,,,,TRUE,,,,,FEW,1600,FEW,1700,,,,,VFR,,,,,,,,,,,,METAR,216.0
WIDD 120530Z 05018KT 9999 SCT014 29/20 Q1011,WIDD,2015-02-12T05:30:00Z,1.12,104.12,29.0,20.0,50,18,,6.21,29.852362,,,,,,,,,,,SCT,1400,,,,,,,VFR,,,,,,,,,,,,METAR,38.0
WARR 120530Z 31004KT 280V350 7000 -RA SCT017 FEW020CB 26/24 Q1008 RETSTEMPO TL 0630 7000 -RA,WARR,2015-02-12T05:30:00Z,-7.37,112.78,26.0,24.0,310,4,,4.35,29.763779,,,,,,,,,,-RA -RA,SCT,1700,FEW,2000,,,,,MVFR,,,,,,,,,,,,METAR,2.0
WIMM 120530Z 33009KT 9999 SCT018 31/23 Q1011 NOSIG,WIMM,2015-02-12T05:30:00Z,3.57,98.67,31.0,23.0,330,9,,6.21,29.852362,,,,,,TRUE,,,,,SCT,1800,,,,,,,VFR,,,,,,,,,,,,METAR,25.0
LFLW 120530Z AUTO VRB02KT 9999 NSC M00/M04 Q1019,LFLW,2015-02-12T05:30:00Z,44.88,2.42,0.0,-4.0,0,2,,6.21,30.088583,,,TRUE,,,,,,,,,,,,,,,,,,,,,,,,,,,,METAR,639.0
LPPT 120530Z 00000KT 9000 FEW002 06/06 Q1018,LPPT,2015-02-12T05:30:00Z,38.77,-9.12,6.0,6.0,0,0,,5.59,30.059055,,,,,,,,,,,FEW,200,,,,,,,VFR,,,,,,,,,,,,METAR,123.0
LPPS 120530Z 01006KT 9999 SCT015 13/09 Q1020,LPPS,2015-02-12T05:30:00Z,33.07,-16.35,13.0,9.0,10,6,,6.21,30.11811,,,,,,,,,,,SCT,1500,,,,,,,VFR,,,,,,,,,,,,METAR,82.0
LPPR 120530Z 13005KT 9999 FEW048 08/06 Q1018,LPPR,2015-02-12T05:30:00Z,41.22,-8.67,8.0,6.0,130,5,,6.21,30.059055,,,,,,,,,,,FEW,4800,,,,,,,VFR,,,,,,,,,,,,METAR,73.0
LPMA 120530Z 36004KT 320V060 9999 -DZ BKN016 13/08 Q1020 RS01003KT 0501004KT 2335004KT,LPMA,2015-02-12T05:30:00Z,32.7,-16.77,13.0,8.0,360,4,,6.21,30.11811,,,,,,,,,,-DZ,BKN,1600,,,,,,,MVFR,,,,,,,,,,,,METAR,55.0
LPFR 120530Z 01003KT 9999 FEW035 11/10 Q1016,LPFR,2015-02-12T05:30:00Z,37.02,-7.97,11.0,10.0,10,3,,6.21,30.0,,,,,,,,,,,FEW,3500,,,,,,,VFR,,,,,,,,,,,,METAR,4.0
YPTN 120530Z 10011KT CAVOK 37/17 Q1006,YPTN,2015-02-12T05:30:00Z,-14.52,132.38,37.0,17.0,100,11,,6.21,29.704725,,,,,,,,,,,CAVOK,,,,,,,,VFR,,,,,,,,,,,,METAR,109.0
YSTW 120530Z AUTO 03001KT 9999 // NCD 33/07 Q1017,YSTW,2015-02-12T05:30:00Z,-31.07,150.85,33.0,7.0,30,1,,6.21,30.029528,,,TRUE,,,,,,,,,,,,,,,,,,,,,,,,,,,,METAR,410.0
YSSY 120530Z 13015KT 9999 SCT025 BKN260 FEW030TCU 27/19 Q1021 INTER 0700/0830 5000 SHRA BKN010,YSSY,2015-02-12T05:30:00Z,-33.95,151.17,27.0,19.0,130,15,,6.21,30.147638,,,,,,,,,,,SCT,2500,BKN,26000,FEW,3000,,,VFR,,,,,,,,,,,,METAR,3.0
YPPH 120530Z 25009KT 9999 VCSH BKN160 BKN250 29/17 Q1012 RMK VIRGA,YPPH,2015-02-12T05:30:00Z,-31.93,115.98,29.0,17.0,250,9,,6.21,29.88189,,,,,,,,,,VCSH,BKN,16000,BKN,25000,,,,,VFR,,,,,,,,,,,,METAR,13.0
YMML 120530Z 18013KT CAVOK 23/11 Q1021 NOSIG,YMML,2015-02-12T05:30:00Z,-37.67,144.82,23.0,11.0,180,13,,6.21,30.147638,,,,,,TRUE,,,,,CAVOK,,,,,,,,VFR,,,,,,,,,,,,METAR,141.0
YPLM 120530Z 29011KT CAVOK 40/11 Q1007,YPLM,2015-02-12T05:30:00Z,-22.22,114.07,40.0,11.0,290,11,,6.21,29.734253,,,,,,,,,,,CAVOK,,,,,,,,VFR,,,,,,,,,,,,METAR,6.0
YPKU 120530Z AUTO 30005KT 230V350 9999 // SCT071 37/21 Q1006,YPKU,2015-02-12T05:30:00Z,-15.77,128.68,37.0,21.0,300,5,,6.21,29.704725,,,TRUE,,,,,,,,SCT,7100,,,,,,,VFR,,,,,,,,,,,,METAR,45.0
YPJT 120530Z AUTO 26012KT 210V270 9999 // NCD 28/17 Q1013,YPJT,2015-02-12T05:30:00Z,-32.1,115.88,28.0,17.0,260,12,,6.21,29.911417,,,TRUE,,,,,,,,,,,,,,,,,,,,,,,,,,,,METAR,30.0
YPDN 120530Z 30009KT 9999 FEW035 BKN300 32/22 Q1006,YPDN,2015-02-12T05:30:00Z,-12.42,130.9,32.0,22.0,300,9,,6.21,29.704725,,,,,,,,,,,FEW,3500,BKN,30000,,,,,VFR,,,,,,,,,,,,METAR,30.0
YCFS 120530Z AUTO 08010KT 9999 // NCD 27/20 Q1019,YCFS,2015-02-12T05:30:00Z,-30.32,153.12,27.0,20.0,80,10,,6.21,30.088583,,,TRUE,,,,,,,,,,,,,,,,,,,,,,,,,,,,METAR,5.0
YPCC 120530Z 14012KT 9999 SCT018 30/25 Q1010,YPCC,2015-02-12T05:30:00Z,-12.17,96.82,30.0,25.0,140,12,,6.21,29.822834,,,,,,,,,,,SCT,1800,,,,,,,VFR,,,,,,,,,,,,METAR,3.0
YSCB 120530Z 12017KT 9999 FEW040 SCT140 BKN200 FEW040CB 23/15 Q1023,YSCB,2015-02-12T05:30:00Z,-35.28,149.17,23.0,15.0,120,17,,6.21,30.206694,,,,,,,,,,,FEW,4000,SCT,14000,BKN,20000,FEW,4000,VFR,,,,,,,,,,,,METAR,577.0
YPAD 120530Z 24013KT CAVOK 30/17 Q1016 RMK 5AC150 NOSIG,YPAD,2015-02-12T05:30:00Z,-34.95,138.52,30.0,17.0,240,13,,6.21,30.0,,,,,,,,,,,CAVOK,,,,,,,,VFR,,,,,,,,,,,,METAR,4.0
LPPD 120530Z 30007KT 9999 SCT016 BKN030 14/12 Q1021,LPPD,2015-02-12T05:30:00Z,37.72,-25.68,14.0,12.0,300,7,,6.21,30.147638,,,,,,,,,,,SCT,1600,BKN,3000,,,,,MVFR,,,,,,,,,,,,METAR,72.0
LPAZ 120530Z 22009KT 9999 FEW010 BKN018 15/14 Q1021,LPAZ,2015-02-12T05:30:00Z,36.97,-25.17,15.0,14.0,220,9,,6.21,30.147638,,,,,,,,,,,FEW,1000,BKN,1800,,,,,MVFR,,,,,,,,,,,,METAR,100.0
YPWR 120530Z AUTO 10005KT 9999 // NCD 39/01 Q1014,YPWR,2015-02-12T05:30:00Z,-31.12,136.82,39.0,1.0,100,5,,6.21,29.940945,,,TRUE,,,,,,,,,,,,,,,,,,,,,,,,,,,,METAR,167.0
YWLM 120530Z 11017KT 9999 FEW035 FEW040TCU 28/19 Q1019,YWLM,2015-02-12T05:30:00Z,-32.8,151.83,28.0,19.0,110,17,,6.21,30.088583,,,,,,,,,,,FEW,3500,FEW,4000,,,,,VFR,,,,,,,,,,,,METAR,9.0
YBRK 120530Z 10013KT 9999 VCSH SCT035 FEW040TCU 30/20 Q1012,YBRK,2015-02-12T05:30:00Z,-23.37,150.47,30.0,20.0,100,13,,6.21,29.88189,,,,,,,,,,VCSH,SCT,3500,FEW,4000,,,,,VFR,,,,,,,,,,,,METAR,14.0
YSRI 120530Z AUTO 09014KT 9999 // SCT043 29/18 Q1019,YSRI,2015-02-12T05:30:00Z,-33.6,150.77,29.0,18.0,90,14,,6.21,30.088583,,,TRUE,,,,,,,,SCT,4300,,,,,,,VFR,,,,,,,,,,,,METAR,21.0
YPPD 120530Z 32019KT CAVOK 39/20 Q1006,YPPD,2015-02-12T05:30:00Z,-20.37,118.62,39.0,20.0,320,19,,6.21,29.704725,,,,,,,,,,,CAVOK,,,,,,,,VFR,,,,,,,,,,,,METAR,6.0
YSNF 120530Z 12013KT 9999 SCT018 23/18 Q1017,YSNF,2015-02-12T05:30:00Z,-29.02,167.92,23.0,18.0,120,13,,6.21,30.029528,,,,,,,,,,,SCT,1800,,,,,,,VFR,,,,,,,,,,,,METAR,109.0
YBMA 120530Z AUTO 12011KT 9999 // NCD 36/08 Q1009,YBMA,2015-02-12T05:30:00Z,-20.67,139.47,36.0,8.0,120,11,,6.21,29.793306,,,TRUE,,,,,,,,,,,,,,,,,,,,,,,,,,,,METAR,344.0
YMLT 120530Z AUTO 26005KT 190V310 9999 // BKN065 21/04 Q1026,YMLT,2015-02-12T05:30:00Z,-41.52,147.18,21.0,4.0,260,5,,6.21,30.295275,,,TRUE,,,,,,,,BKN,6500,,,,,,,VFR,,,,,,,,,,,,METAR,178.0
YPKG 120530Z 28004KT CAVOK 37/07 Q1013 RMK 6AC180,YPKG,2015-02-12T05:30:00Z,-30.77,121.45,37.0,7.0,280,4,,6.21,29.911417,,,,,,,,,,,CAVOK,,,,,,,,VFR,,,,,,,,,,,,METAR,360.0
YMHB 120530Z 16014KT 9999 FEW045 17/05 Q1029,YMHB,2015-02-12T05:30:00Z,-42.82,147.52,17.0,5.0,160,14,,6.21,30.383858,,,,,,,,,,,FEW,4500,,,,,,,VFR,,,,,,,,,,,,METAR,27.0
YBHM 120530Z AUTO 13020KT 9999 // SCT026 28/23 Q1010,YBHM,2015-02-12T05:30:00Z,-20.35,148.95,28.0,23.0,130,20,,6.21,29.822834,,,TRUE,,,,,,,,SCT,2600,,,,,,,VFR,,,,,,,,,,,,METAR,5.0
YPGV 120530Z 18007KT 9999 VCSH FEW075 SCT095 29/20 Q1006,YPGV,2015-02-12T05:30:00Z,-12.27,136.82,29.0,20.0,180,7,,6.21,29.704725,,,,,,,,,,VCSH,FEW,7500,SCT,9500,,,,,VFR,,,,,,,,,,,,METAR,55.0
YGEL 120530Z 18018KT CAVOK 29/20 Q1011 RMK 5AC170,YGEL,2015-02-12T05:30:00Z,-28.8,114.7,29.0,20.0,180,18,,6.21,29.852362,,,,,,,,,,,CAVOK,,,,,,,,VFR,,,,,,,,,,,,METAR,37.0
YFRT 120530Z AUTO 05006KT //// // ////// 42/03 Q1012,YFRT,2015-02-12T05:30:00Z,-30.83,128.12,42.0,3.0,50,6,,,29.88189,,,TRUE,,,,,,,,,,,,,,,,,,,,,,,,,,,,METAR,156.0
YSDU 120530Z AUTO 10011KT 9999 // SCT034 SCT040 BKN046 22/21 Q1018,YSDU,2015-02-12T05:30:00Z,-32.22,148.57,22.0,21.0,100,11,,6.21,30.059055,,,TRUE,,,,,,,,SCT,3400,SCT,4000,BKN,4600,,,VFR,,,,,,,,,,,,METAR,275.0
YCIN 120530Z AUTO 21007KT //// // BKN058 BKN070 36/22 Q1006,YCIN,2015-02-12T05:30:00Z,-17.58,123.83,36.0,22.0,210,7,,,29.704725,,,TRUE,,,,,,,,BKN,5800,BKN,7000,,,,,,,,,,,,,,,,,METAR,91.0
YBRM 120530Z 26011KT 9999 FEW035TCU 35/23 Q1008,YBRM,2015-02-12T05:30:00Z,-17.93,122.22,35.0,23.0,260,11,,6.21,29.763779,,,,,,,,,,,FEW,3500,,,,,,,VFR,,,,,,,,,,,,METAR,9.0
YMAV 120530Z AUTO 19014KT 9999 // NCD 21/12 Q1022,YMAV,2015-02-12T05:30:00Z,-38.03,144.48,21.0,12.0,190,14,,6.21,30.177166,,,TRUE,,,,,,,,,,,,,,,,,,,,,,,,,,,,METAR,8.0
ULOO 120530Z 23006MPS 5000 BR OVC008 00/M00 Q1018 19090060 NOSIG RMK QFE759,ULOO,2015-02-12T05:30:00Z,57.78,28.4,0.0,0.0,230,12,,3.11,30.059055,,,,,,TRUE,,,,BR,OVC,800,,,,,,,IFR,,,,,,,,,,,,METAR,47.0
ULAA 120530Z 23003MPS 9999 -SNRA OVC006 01/01 Q0995 26890534 TEMPO 0500 +SHSN BKN003CB RMK QBB200 QFE744/0993,ULAA,2015-02-12T05:30:00Z,64.6,40.72,1.0,1.0,230,6,,6.21,29.379921,,,,,,,,,,-SN -RA,OVC,600,,,,,,,IFR,,,,,,,,,,,,METAR,19.0
UUYY 120530Z 21004MPS 1700 SHSN SCT007 BKN020CB OVC066 M01/M02 Q1001 TEMPO 0700 +SHSN 19491031 RMK QFE742/0990,UUYY,2015-02-12T05:30:00Z,61.65,50.82,-1.0,-2.0,210,8,,1.06,29.557087,,,,,,,,,,SHSN,SCT,700,BKN,2000,OVC,6600,,,IFR,,,,,,,,,,,,METAR,119.0
UUOO 120530Z 27002MPS 5000 -SN OVC016 M06/M08 Q1026 NOSIG RMK 30720345,UUOO,2015-02-12T05:30:00Z,51.82,39.23,-6.0,-8.0,270,4,,3.11,30.295275,,,,,,TRUE,,,,-SN,OVC,1600,,,,,,,MVFR,,,,,,,,,,,,METAR,157.0
ULMM 120530Z 15002MPS 7000 -SHSN BKN015CB M04/M05 Q0984 NOSIG RMK QFE731 31490538,ULMM,2015-02-12T05:30:00Z,68.78,32.75,-4.0,-5.0,150,4,,4.35,29.055119,,,,,,TRUE,,,,-SHSN,BKN,1500,,,,,,,MVFR,,,,,,,,,,,,METAR,51.0
ROAH 120530Z 34012KT 9999 SCT045 18/05 Q1015 RMK 4SC045 A2997,ROAH,2015-02-12T05:30:00Z,26.17,127.65,18.0,5.0,340,12,,6.21,29.970472,,,,,,,,,,,SCT,4500,,,,,,,VFR,,,,,,,,,,,,METAR,8.0
UHPP 120530Z 17002MPS 9999 NSC M03/M07 Q1014 NOSIG RMK QFE757/1010 SC040,UHPP,2015-02-12T05:30:00Z,53.17,158.45,-3.0,-7.0,170,4,,6.21,29.940945,,,,,,TRUE,,,,,,,,,,,,,,,,,,,,,,,,,METAR,40.0
UHWW 120530Z 35007MPS 9999 SCT100 M06/M14 Q1008 NOSIG RMK QFE755/1007 57CLRD60,UHWW,2015-02-12T05:30:00Z,43.4,132.15,-6.0,-14.0,350,14,,6.21,29.763779,,,,,,TRUE,,,,,SCT,10000,,,,,,,VFR,,,,,,,,,,,,METAR,184.0
UHSS 120530Z 20005MPS 9999 BKN033CB M02/M06 Q1003 NOSIG RMK MT OBSC QFE751/1001 19810360,UHSS,2015-02-12T05:30:00Z,46.88,142.72,-2.0,-6.0,200,10,,6.21,29.616142,,,,,,TRUE,,,,,BKN,3300,,,,,,,VFR,,,,,,,,,,,,METAR,31.0
UHMM 120530Z 09001MPS 9999 BKN200 M05/M14 Q1015 NOSIG RMK QFE746 88450535,UHMM,2015-02-12T05:30:00Z,59.92,150.72,-5.0,-14.0,90,2,,6.21,29.970472,,,,,,TRUE,,,,,BKN,20000,,,,,,,VFR,,,,,,,,,,,,METAR,118.0
ULLI 120530Z 21005MPS CAVOK 00/M02 Q1013 88290050 NOSIG,ULLI,2015-02-12T05:30:00Z,59.8,30.27,0.0,-2.0,210,10,,6.21,29.911417,,,,,,TRUE,,,,,CAVOK,,,,,,,,VFR,,,,,,,,,,,,METAR,4.0
UUBW 120530Z 26004MPS 5000 OVC005 00/M00 Q1022 TEMPO 2000 FZDZ RMK QBB160,UUBW,2015-02-12T05:30:00Z,55.55,38.15,0.0,0.0,260,8,,3.11,30.177166,,,,,,,,,,,OVC,500,,,,,,,IFR,,,,,,,,,,,,METAR,115.0
UUDD 120530Z 26005MPS 4700 BR OVC002 M00/M01 Q1022 32290095 82290095 TEMPO 1000 FZDZ,UUDD,2015-02-12T05:30:00Z,55.4,37.9,0.0,-1.0,260,10,,2.92,30.177166,,,,,,,,,,BR,OVC,200,,,,,,,LIFR,,,,,,,,,,,,METAR,168.0
UUDL 120530Z 20002MPS CAVOK M01/M02 Q1017 NOSIG RMK QFE755 23850338,UUDL,2015-02-12T05:30:00Z,57.57,40.17,-1.0,-2.0,200,4,,6.21,30.029528,,,,,,TRUE,,,,,CAVOK,,,,,,,,VFR,,,,,,,,,,,,METAR,88.0
UUEE 120530Z 23006MPS 9000 OVC003 M00/M01 Q1021 75410151 25410151 TEMPO -FZDZ,UUEE,2015-02-12T05:30:00Z,55.97,37.42,0.0,-1.0,230,12,,5.59,30.147638,,,,,,,,,,,OVC,300,,,,,,,LIFR,,,,,,,,,54.1,,,METAR,190.0
UUWW 120530Z 25006MPS 2400 -FZDZ BR OVC001 M01/M01 Q1022 24190060 TEMPO 0900 FZDZ FZFG OVC002 RMK QBB050,UUWW,2015-02-12T05:30:00Z,55.6,37.27,-1.0,-1.0,250,12,,1.49,30.177166,,,,,,,,,,-FZDZ BR,OVC,100,,,,,,,LIFR,,,,,,,,,,,,METAR,203.0
UUMO 120530Z 26004MPS 8000 OVC003 M00/M00 Q1022 NOSIG RMK QFE751/1002 QBB090 26510355,UUMO,2015-02-12T05:30:00Z,55.52,37.5,0.0,0.0,260,8,,4.97,30.177166,,,,,,TRUE,,,,,OVC,300,,,,,,,LIFR,,,,,,,,,,,,METAR,174.0
UIAA 120530Z 00000MPS 9999 SKC M09/M16 Q1014 NOSIG RMK QFE702 29CLRD70,UIAA,2015-02-12T05:30:00Z,52.02,113.32,-9.0,-16.0,0,0,,6.21,29.940945,,,,,,TRUE,,,,,SKC,,,,,,,,VFR,,,,,,,,,,,,METAR,685.0
UIBB 120530Z 13003MPS 9999 BKN100 OVC200 M07/M13 Q1008 NOSIG RMK QFE713/0951 30820550,UIBB,2015-02-12T05:30:00Z,56.37,101.7,-7.0,-13.0,130,6,,6.21,29.763779,,,,,,TRUE,,,,,BKN,10000,OVC,20000,,,,,VFR,,,,,,,,,,,,METAR,490.0
UIII 120530Z 13005MPS CAVOK M06/M12 Q1012 NOSIG RMK QFE716/0955 12390145,UIII,2015-02-12T05:30:00Z,52.27,104.4,-6.0,-12.0,130,10,,6.21,29.88189,,,,,,TRUE,,,,,CAVOK,,,,,,,,VFR,,,,,,,,,,,,METAR,513.0
UIUU 120530Z 00000MPS 5000 BR FEW100 M16/M20 Q1017 NOSIG RMK QFE718/0958 26810550,UIUU,2015-02-12T05:30:00Z,51.8,107.45,-16.0,-20.0,0,0,,3.11,30.029528,,,,,,TRUE,,,,BR,FEW,10000,,,,,,,MVFR,,,,,,,,,,,,METAR,515.0
USCM 120530Z 33007MPS 9999 SCT026 M07/M11 Q1011 TEMPO 32012MPS 01090060 RMK QFE720,USCM,2015-02-12T05:30:00Z,53.4,58.75,-7.0,-11.0,330,14,,6.21,29.852362,,,,,,,,,,,SCT,2600,,,,,,,VFR,,,,,,,,,,,,METAR,435.0
USPP 120530Z 24003MPS 9999 BKN020 M02/M03 Q1009 21290150 NOSIG RMK QFE746/0995,USPP,2015-02-12T05:30:00Z,57.92,56.02,-2.0,-3.0,240,6,,6.21,29.793306,,,,,,TRUE,,,,,BKN,2000,,,,,,,MVFR,,,-29.0,,,,,,,,,METAR,123.0
UWKD 120530Z 26005MPS 9999 OVC018 M02/M03 Q1017 R29/2/0045 TEMPO BKN006 RMK QFE752/1002,UWKD,2015-02-12T05:30:00Z,55.62,49.28,-2.0,-3.0,260,10,,6.21,30.029528,,,,,,,,,,,OVC,1800,,,,,,,MVFR,,,,,,,,,,,,METAR,126.0
UWKE 120530Z 22004MPS 9999 SCT005 M03/M04 Q1016 NOSIG RMK QBB150 QFE745/0993 21410532,UWKE,2015-02-12T05:30:00Z,55.57,52.08,-3.0,-4.0,220,8,,6.21,30.0,,,,,,TRUE,,,,,SCT,500,,,,,,,VFR,,,-41.0,,,,,,,,,METAR,196.0
UWKS 120530Z 25007MPS 9999 OVC006 M02/M03 Q1017 TEMPO -FZRA OVC005 RMK QFE748 24850336,UWKS,2015-02-12T05:30:00Z,56.08,47.35,-2.0,-3.0,250,14,,6.21,30.029528,,,,,,,,,,,OVC,600,,,,,,,IFR,,,,,,,,,,,,METAR,170.0
UWSS 120530Z 28004MPS 6000 OVC009 M07/M08 Q1024 30800350 NOSIG RMK / QFE754,UWSS,2015-02-12T05:30:00Z,51.57,46.07,-7.0,-8.0,280,8,,3.73,30.236221,,,,,,TRUE,,,,,OVC,900,,,,,,,IFR,,,,,,,,,,,,METAR,166.0
UWOO 120530Z 28002MPS P5000 OVC011 M11/M13 Q1020 26820252 NOSIG RMK QFE754/1006,UWOO,2015-02-12T05:30:00Z,51.8,55.47,-11.0,-13.0,280,4,,3.11,30.11811,,,,,,TRUE,,,,,OVC,1100,,,,,,,MVFR,,,,,,26.82,,,,,,METAR,109.0
UWWW 120530Z 28003MPS 2400 BR OVC005 M04/M05 Q1021 23420545 15//99// TEMPO OVC004 RMK QFE754/1006,UWWW,2015-02-12T05:30:00Z,53.5,50.17,-4.0,-5.0,280,6,,1.49,30.147638,,,,,,,,,,BR,OVC,500,,,,,,,IFR,,,,,,,,,,,,METAR,146.0
URML 120530Z 25003MPS 5000 -RA BR OVC011 03/02 Q1022 NOSIG RMK MT OBSC QFE766/1022 SC070,URML,2015-02-12T05:30:00Z,42.82,47.65,3.0,2.0,250,6,,3.11,30.177166,,,,,,TRUE,,,,-RA BR,OVC,1100,,,,,,,MVFR,,,,,,,,,,,,METAR,4.0
URKK 120530Z 07008G11MPS 9999 BKN013 OVC026 02/M00 Q1019 NOSIG RMK QFE761 SC065,URKK,2015-02-12T05:30:00Z,45.03,39.15,2.0,0.0,70,16,21,6.21,30.088583,,,,,,TRUE,,,,,BKN,1300,OVC,2600,,,,,MVFR,,,,,,,,,,,,METAR,34.0
URKA 120530Z 08014G18MPS 9999 BKN009 BKN045 OVC130 01/M00 Q1016 NOSIG RMK QFE758/1011 SC070,URKA,2015-02-12T05:30:00Z,45.0,37.35,1.0,0.0,80,27,35,6.21,30.0,,,,,,TRUE,,,,,BKN,900,BKN,4500,OVC,13000,,,IFR,,,,,,,,,,,,METAR,53.0
HKJK 120530Z 03005KT 9999 FEW021 22/13 Q1023 NOSIG,HKJK,2015-02-12T05:30:00Z,-1.32,36.92,22.0,13.0,30,5,,6.21,30.206694,,,,,,TRUE,,,,,FEW,2100,,,,,,,VFR,,,,,,,,,,,,METAR,1624.0
UNNT 120530Z 19003MPS 7000 OVC008 M05/M06 Q1001 25190055 16810160 NOSIG RMK QFE741/0988,UNNT,2015-02-12T05:30:00Z,55.02,82.63,-5.0,-6.0,190,6,,4.35,29.557087,,,,,,TRUE,,,,,OVC,800,,,,,,,IFR,,,,,,,,,,,,METAR,111.0
UNKL 120530Z VRB01MPS 9999 SCT019CB BKN083 M02/M08 Q1003 NOSIG RMK QFE727 29////65,UNKL,2015-02-12T05:30:00Z,56.17,92.48,-2.0,-8.0,0,2,,6.21,29.616142,,,,,,TRUE,,,,,SCT,1900,BKN,8300,,,,,VFR,,,,,,,,,,,,METAR,276.0
UNEE 120530Z 13001MPS 4500 -SHSN OVC010CB M02/M02 Q1000 NOSIG RMK QFE728 23451040,UNEE,2015-02-12T05:30:00Z,55.27,86.08,-2.0,-2.0,130,2,,2.8,29.52756,,,,,,TRUE,,,,-SHSN,OVC,1000,,,,,,,IFR,,,,,,,,,,,,METAR,260.0
UNBB 120530Z 24003MPS 9999 -SN OVC006 M01/M02 Q1000 NOSIG RMK QBB190 QFE728/0971 24CLRD60,UNBB,2015-02-12T05:30:00Z,53.37,83.53,-1.0,-2.0,240,6,,6.21,29.52756,,,,,,TRUE,,,,-SN,OVC,600,,,,,,,IFR,,,,,,,,,,,,METAR,255.0
UNAA 120530Z 00000MPS 4500 FU SCT030CB BKN083 M03/M09 Q1004 TEMPO 2000 FU RMK QFE731 52190055,UNAA,2015-02-12T05:30:00Z,53.75,91.4,-3.0,-9.0,0,0,,2.8,29.64567,,,,,,,,,,FU,SCT,3000,BKN,8300,,,,,IFR,0.0,,,,,,,,,,,METAR,245.0
UNTT 120530Z 20006MPS 9999 FEW011 SCT016CB OVC066 M05/M07 Q0999 NOSIG RMK QFE735 21490240,UNTT,2015-02-12T05:30:00Z,56.38,85.22,-5.0,-7.0,200,12,,6.21,29.498032,,,,,,TRUE,,,,,FEW,1100,SCT,1600,OVC,6600,,,VFR,,,-49.0,,,,,,,,,METAR,182.0
UNOO 120530Z 26006MPS 4500 -SN BLSN BKN012 OVC066 M07/M09 Q0999 25390137 NOSIG RMK QFE741,UNOO,2015-02-12T05:30:00Z,54.97,73.32,-7.0,-9.0,260,12,,2.8,29.498032,,,,,,TRUE,,,,-SN BLSN,BKN,1200,OVC,6600,,,,,IFR,,,,,,,,,,,,METAR,95.0
USHH 120530Z 26003MPS CAVOK M13/M17 Q0995 NOSIG RMK QFE742 24////45,USHH,2015-02-12T05:30:00Z,61.03,69.08,-13.0,-17.0,260,6,,6.21,29.379921,,,,,,TRUE,,,,,CAVOK,,,,,,,,VFR,,,,,,,,,,,,METAR,23.0
USTR 120530Z 32006G09MPS 9999 DRSN BKN016CB M06/M09 Q1003 NOSIG RMK QFE743/0991 21390048 12350055,USTR,2015-02-12T05:30:00Z,57.17,65.32,-6.0,-9.0,320,12,17,6.21,29.616142,,,,,,TRUE,,,,DRSN,BKN,1600,,,,,,,MVFR,,,-39.0,,,,,,,,,METAR,115.0
UEEE 120530Z 17001MPS CAVOK M14/M17 Q1021 NOSIG RMK QFE757 23490150,UEEE,2015-02-12T05:30:00Z,62.08,129.77,-14.0,-17.0,170,2,,6.21,30.147638,,,,,,TRUE,,,,,CAVOK,,,,,,,,VFR,,,,,,,,,,,,METAR,103.0
ULWC 120530Z 26004G07MPS CAVOK M00/M02 Q1012 NOSIG RMK QFE749/0998 SC045,ULWC,2015-02-12T05:30:00Z,59.28,38.02,0.0,-2.0,260,8,14,6.21,29.88189,,,,,,TRUE,,,,,CAVOK,,,,,,,,VFR,,,,,,,,,,,,METAR,115.0
UUOB 120530Z VRB01MPS 0100 R29/0175 VV002 M12/M14 Q1027 29090060 NOSIG,UUOB,2015-02-12T05:30:00Z,50.65,36.58,-12.0,-14.0,0,2,,0.06,30.324802,,,,,,TRUE,,,,,OVX,0,,,,,,,LIFR,,,,,,,,,,,200,METAR,224.0
UWGG 120530Z 26002MPS 220V310 9000 OVC007 M00/M01 Q1019 TEMPO 2000 BR OVC005 18890034 RMK QFE757,UWGG,2015-02-12T05:30:00Z,56.23,43.78,0.0,-1.0,260,4,,5.59,30.088583,,,,,,,,,,,OVC,700,,,,,,,IFR,,,,,,,,,,,,METAR,73.0
UWUU 120530Z 25004MPS 9999 OVC009 M04/M05 Q1016 82411052 NOSIG RMK QFE751/1001,UWUU,2015-02-12T05:30:00Z,54.57,55.87,-4.0,-5.0,250,8,,6.21,30.0,,,,,,TRUE,,,,,OVC,900,,,,,,,IFR,,,,,,,,,,,,METAR,137.0
USCC 120530Z 28009MPS 5000 -SHSN DRSN BKN026CB BKN070 M04/M08 Q1008 27000060 TEMPO 27015MPS RMK QFE736,USCC,2015-02-12T05:30:00Z,55.3,61.5,-4.0,-8.0,280,17,,3.11,29.763779,,,,,,,,,,-SHSN DRSN,BKN,2600,BKN,7000,,,,,MVFR,,,,,,,,,,,,METAR,234.0
USNN 120530Z 22003MPS 3100 -SN OVC020 M09/M11 Q0989 NOSIG RMK QFE737 21490333,USNN,2015-02-12T05:30:00Z,60.95,76.48,-9.0,-11.0,220,6,,1.93,29.202755,,,,,,TRUE,,,,-SN,OVC,2000,,,,,,,IFR,,,-49.0,,,,,,,,,METAR,54.0
USRR 120530Z 31005MPS 7000 SCT090 M12/M15 Q0990 NOSIG RMK QFE737 25////35,USRR,2015-02-12T05:30:00Z,61.33,73.42,-12.0,-15.0,310,10,,4.35,29.232283,,,,,,TRUE,,,,,SCT,9000,,,,,,,MVFR,,,,,,,,,,,,METAR,44.0
USSS 120530Z 28005MPS 7000 -SHSN SCT016CB BKN036 OVC067 M03/M04 Q1007 76990132 NOSIG RMK QFE734,USSS,2015-02-12T05:30:00Z,56.75,60.82,-3.0,-4.0,280,10,,4.35,29.734253,,,,,,TRUE,,,,-SHSN,SCT,1600,BKN,3600,OVC,6700,,,MVFR,,,,,,,,,0.0,,,METAR,233.0
UHMA 120530Z 35007MPS 9999 OVC080 M29/M31 Q1021 NOSIG RMK QFE762/1016 887///39,UHMA,2015-02-12T05:30:00Z,64.73,177.73,-29.0,-31.0,350,14,,6.21,30.147638,,,,,,TRUE,,,,,OVC,8000,,,,,,,VFR,,,,,,,,,,,,METAR,62.0
UHBB 120530Z 01004MPS CAVOK M05/M10 Q1011 NOSIG RMK QFE740/0987 36420550,UHBB,2015-02-12T05:30:00Z,50.43,127.42,-5.0,-10.0,10,8,,6.21,29.852362,,,,,,TRUE,,,,,CAVOK,,,,,,,,VFR,,,,,,,,,,,,METAR,195.0
CYMH 120526Z AUTO 21004KT 200V290 6SM HZ CLR M26/M30 A3023 RMK SLP240,CYMH,2015-02-12T05:26:00Z,52.28,-55.85,-26.0,-30.0,210,4,,6.0,30.230314,1024.0,,TRUE,,,,,,,HZ,CLR,,,,,,,,VFR,,,,,,,,,,,,SPECI,11.0
CYAH 120525Z AUTO 05004KT 2 1/2SM -SN OVC032 M24/M27 A2996 RMK SLP189,CYAH,2015-02-12T05:25:00Z,53.75,-73.67,-24.0,-27.0,50,4,,2.5,29.958662,1018.9,,TRUE,,,,,,,-SN,OVC,3200,,,,,,,IFR,,,,,,,,,,,,SPECI,306.0
FAEO 120525Z 03005KT 9999 SCT006 14/13 Q1026 REFG,FAEO,2015-02-12T05:25:00Z,-26.5,29.97,14.0,13.0,30,5,,6.21,30.295275,,,,,,,,,,,SCT,600,,,,,,,VFR,,,,,,,,,,,,SPECI,1737.0
EBLB 120525Z AUTO VRB02KT 0150 VV001/// M03/M03 Q1020 RED,EBLB,2015-02-12T05:25:00Z,50.47,6.17,-3.0,-3.0,0,2,,0.09,30.11811,,,TRUE,,,,,,,,,,,,,,,,,,,,,,,,,,,,METAR,570.0
EBDT 120525Z VRB02KT 0100 FZFG OVC001 M04/M04 Q1021 RED,EBDT,2015-02-12T05:25:00Z,51.02,5.07,-4.0,-4.0,0,2,,0.06,30.147638,,,,,,,,,,FZFG,OVC,100,,,,,,,LIFR,,,,,,,,,,,,METAR,54.0
EBCV 120525Z AUTO VRB01KT 0050 FEW001/// SCT003/// M03/M04 Q1020 RED,EBCV,2015-02-12T05:25:00Z,50.57,3.82,-3.0,-4.0,0,1,,0.03,30.11811,,,TRUE,,,,,,,,,,,,,,,,,,,,,,,,,,,,METAR,63.0
EBBE 120525Z VRB02KT 2000 BR FEW250 M00/M01 Q1021 YLO YLO TEMPO AMB,EBBE,2015-02-12T05:25:00Z,50.75,4.77,0.0,-1.0,0,2,,1.24,30.147638,,,,,,,,,,BR,FEW,25000,,,,,,,IFR,,,,,,,,,,,,METAR,127.0
EHSA 120525Z AUTO 13005G07KT //// ///////// 04/// Q1021 W06/H3,EHSA,2015-02-12T05:25:00Z,52.0,3.28,6.0,,130,5,7,,30.147638,,,TRUE,,,,,,,,,,,,,,,,,,,,,,,,,,,,METAR,50.0
EHJR 120525Z AUTO 16004G05KT //// ///////// 05/01 Q1021 W06/H4,EHJR,2015-02-12T05:25:00Z,53.22,3.22,5.0,1.0,160,4,5,,30.147638,,,TRUE,,,,,,,,,,,,,,,,,,,,,,,,,,,,METAR,50.0
EHSC 120525Z AUTO 19009G12KT 8000 ///////// 04/00 Q1021 W06/H3,EHSC,2015-02-12T05:25:00Z,51.93,3.67,4.0,0.0,190,9,12,4.97,30.147638,,,TRUE,,,,,,,,,,,,,,,,,,,,,,,,,,,,METAR,50.0
YMDG 120524Z AUTO 02025KT //// // OVC072 OVC086 21/14 Q1019,YMDG,2015-02-12T05:24:00Z,-32.57,149.62,21.0,14.0,20,25,,,30.088583,,,TRUE,,,,,,,,OVC,7200,OVC,8600,,,,,,,,,,,,,,,,,SPECI,471.0
CYOW 120523Z 04006KT 2SM -SN OVC028 M13/M15 A2977 RMK SN1SC7 SLP089,CYOW,2015-02-12T05:23:00Z,45.32,-75.67,-13.0,-15.0,40,6,,2.0,29.769686,1008.9,,,,,,,,,-SN,OVC,2800,,,,,,,IFR,,,,,,,,,,,,SPECI,114.0
CYLL 120522Z AUTO 16015G20KT 9SM -SN BKN010 OVC015 M19/M22 A3018 RMK SLP295,CYLL,2015-02-12T05:22:00Z,53.32,-110.07,-19.0,-22.0,160,15,20,9.0,30.180119,1029.5,,TRUE,,,,,,,-SN,BKN,1000,OVC,1500,,,,,MVFR,,,,,,,,,,,,SPECI,669.0
CYUS 120520Z AUTO 19012KT 6SM CLR M38/ A3018,CYUS,2015-02-12T05:20:00Z,68.82,-93.42,-38.0,,190,12,,6.0,30.180119,,,TRUE,,,,,,,,CLR,,,,,,,,VFR,,,,,,,,,,,,SPECI,42.0
ETSN 120520Z 13005KT 1200 BR OVC001 M02/M02 Q1023 BLACKRED,ETSN,2015-02-12T05:20:00Z,48.72,11.22,-2.0,-2.0,130,5,,0.75,30.206694,,,,,,,,,,BR,OVC,100,,,,,,,LIFR,,,,,,,,,,,,METAR,387.0
ETSL 120520Z 10003KT 0300 FZFG VV000 M03/M04 Q1022 RED,ETSL,2015-02-12T05:20:00Z,48.17,10.87,-3.0,-4.0,100,3,,0.19,30.177166,,,,,,,,,,FZFG,OVX,0,,,,,,,LIFR,,,,,,,,,,,0,SPECI,562.0
ETSI 120520Z 15005KT 2800 -DZ BR OVC003 M01/M02 Q1023 YLO YLO TEMPO RED,ETSI,2015-02-12T05:20:00Z,48.72,11.52,-1.0,-2.0,150,5,,1.74,30.206694,,,,,,,,,,-DZ BR,OVC,300,,,,,,,LIFR,,,,,,,,,,,,METAR,370.0
ETSB 120520Z 14003KT 0100 R03/0450N FZFG VV001 /// /// /// M01/M01 Q1020 RED RED,ETSB,2015-02-12T05:20:00Z,50.17,7.07,-1.0,-1.0,140,3,,0.06,30.11811,,,,,,,,,,FZFG,OVX,0,,,,,,,LIFR,,,,,,,,,,,100,METAR,486.0
ETSA 120520Z 15002KT 0200 FZFG VV000 M05/M05 Q1022 RED RED,ETSA,2015-02-12T05:20:00Z,48.07,10.9,-5.0,-5.0,150,2,,0.12,30.177166,,,,,,,,,,FZFG,OVX,0,,,,,,,LIFR,,,,,,,,,,,0,SPECI,628.0
ETNN 120520Z 10002KT 6000 M00/M01 Q1021 WHT WHT TEMPO GRN,ETNN,2015-02-12T05:20:00Z,50.82,6.67,0.0,-1.0,100,2,,3.73,30.147638,,,,,,,,,,,,,,,,,,,,,,,,,,,,,,,METAR,135.0
ETHN 120520Z 16009KT 0300 FZFG VV000 M02/M02 Q1022 RED RED,ETHN,2015-02-12T05:20:00Z,49.38,9.97,-2.0,-2.0,160,9,,0.19,30.177166,,,,,,,,,,FZFG,OVX,0,,,,,,,LIFR,,,,,,,,,,,0,SPECI,473.0
ETHL 120520Z 24003KT 0200 R27/0650N FZFG VV000 M04/M05 Q1022 RED RED,ETHL,2015-02-12T05:20:00Z,48.22,9.92,-4.0,-5.0,240,3,,0.12,30.177166,,,,,,,,,,FZFG,OVX,0,,,,,,,LIFR,,,,,,,,,,,0,SPECI,549.0
ETHA 120520Z 22002KT 0300 FZFG M11/M12 Q1021 BLACKRED RED BECMG YLO,ETHA,2015-02-12T05:20:00Z,47.82,10.87,-11.0,-12.0,220,2,,0.19,30.147638,,,,,,,,,,FZFG,,,,,,,,,,,,,,,,,,,,,METAR,760.0
ETGQ 120520Z AUTO 12004KT //// // ////// 02/M00 Q1023 ///,ETGQ,2015-02-12T05:20:00Z,53.13,9.35,2.0,0.0,120,4,,,30.206694,,,TRUE,,,,,,,,,,,,,,,,,,,,,,,,,,,,SPECI,61.0
ETWM 120520Z AUTO 21002KT 4000 // ////// 03/00 Q1022 ///,ETWM,2015-02-12T05:20:00Z,52.72,7.33,3.0,0.0,210,2,,2.49,30.177166,,,TRUE,,,,,,,,,,,,,,,,,,,,,,,,,,,,METAR,21.0
ETSH 120520Z 16003KT 4500 BR BKN006 M00/M01 Q1023 YLO YLO BECMG WHT,ETSH,2015-02-12T05:20:00Z,51.77,13.17,0.0,-1.0,160,3,,2.8,30.206694,,,,,,,,,,BR,BKN,600,,,,,,,IFR,,,,,,,,,,,,METAR,79.0
ETNW 120520Z 09002KT 0050 FZFG M05/M05 Q1022 RED RED,ETNW,2015-02-12T05:20:00Z,52.45,9.42,-5.0,-5.0,90,2,,0.03,30.177166,,,,,,,,,,FZFG,,,,,,,,,,,,,,,,,,,,,SPECI,70.0
ETNT 120520Z 18004KT 6000 OVC008 02/00 Q1022 GRN GRN TEMPO YLO,ETNT,2015-02-12T05:20:00Z,53.53,7.67,2.0,0.0,180,4,,3.73,30.177166,,,,,,,,,,,OVC,800,,,,,,,IFR,,,,,,,,,,,,METAR,12.0
ETNS 120520Z 20002KT 9999 OVC011 02/M00 Q1022 GRN GRN,ETNS,2015-02-12T05:20:00Z,54.47,9.52,2.0,0.0,200,2,,6.21,30.177166,,,,,,,,,,,OVC,1100,,,,,,,MVFR,,,,,,,,,,,,SPECI,25.0
ETNL 120520Z 19004KT 9999 OVC007 01/M00 Q1023 GRN GRN TEMPO YLO,ETNL,2015-02-12T05:20:00Z,53.92,12.27,1.0,0.0,190,4,,6.21,30.206694,,,,,,,,,,,OVC,700,,,,,,,IFR,,,,,,,,,,,,METAR,40.0
ETNH 120520Z 22003KT 9999 BKN012 02/M00 Q1022 GRN GRN TEMPO YLO,ETNH,2015-02-12T05:20:00Z,54.32,9.55,2.0,0.0,220,3,,6.21,30.177166,,,,,,,,,,,BKN,1200,,,,,,,MVFR,,,,,,,,,,,,METAR,17.0
ETMN 120520Z 15003KT 6000 OVC010 03/00 Q1022 GRN GRN TEMPO YLO,ETMN,2015-02-12T05:20:00Z,53.77,8.67,3.0,0.0,150,3,,3.73,30.177166,,,,,,,,,,,OVC,1000,,,,,,,MVFR,,,,,,,,,,,,METAR,31.0
ETML 120520Z AUTO 21002KT //// // ////// 02/00 Q1023 ///,ETML,2015-02-12T05:20:00Z,,,2.0,0.0,210,2,,,30.206694,,,TRUE,,,,,,,,,,,,,,,,,,,,,,,,,,,,SPECI,
ETHE 120520Z 14003KT 3500 BR OVC009 00/M00 Q1022 YLO,ETHE,2015-02-12T05:20:00Z,52.28,7.37,0.0,0.0,140,3,,2.17,30.177166,,,,,,,,,,BR,OVC,900,,,,,,,IFR,,,,,,,,,,,,SPECI,49.0
ETHC 120520Z 14004KT 2000 BR BKN003 00/M01 Q1023 YLO YLO TEMPO AMB,ETHC,2015-02-12T05:20:00Z,52.6,10.02,0.0,-1.0,140,4,,1.24,30.206694,,,,,,,,,,BR,BKN,300,,,,,,,LIFR,,,,,,,,,,,,METAR,52.0
ETHB 120520Z 18005KT 3500 BR FEW004 BKN013 M01/M02 Q1022 YLO GRN TEMPO AMB,ETHB,2015-02-12T05:20:00Z,52.27,9.07,-1.0,-2.0,180,5,,2.17,30.177166,,,,,,,,,,BR,FEW,400,BKN,1300,,,,,IFR,,,,,,,,,,,,METAR,78.0
ETGG 120520Z 21005KT 9999 OVC010 02/M00 Q1022 GRN,ETGG,2015-02-12T05:20:00Z,54.83,9.5,2.0,0.0,210,5,,6.21,30.177166,,,,,,,,,,,OVC,1000,,,,,,,MVFR,,,,,,,,,,,,SPECI,33.0
ENHE 120520Z 33029KT 9999 -SHSN BKN025 M01/M02 Q1005 W///S6,ENHE,2015-02-12T05:20:00Z,65.33,2.33,-1.0,-2.0,330,29,,6.21,29.675198,,,,,,,,,,-SHSN,BKN,2500,,,,,,,MVFR,,,,,,,,,,,,SPECI,1.0
ENEK 120520Z 23017KT 9999 BKN020 06/01 Q1018 W07/S4,ENEK,2015-02-12T05:20:00Z,56.53,3.25,6.0,1.0,230,17,,6.21,30.059055,,,,,,,,,,,BKN,2000,,,,,,,MVFR,,,,,,,,,,,,SPECI,3.0
ENHK 120520Z 31027G37KT 9999 BLSN FEW0037 SCT041 BKN049 M03/M09 Q0987,ENHK,2015-02-12T05:20:00Z,70.47,22.13,-3.0,-9.0,310,27,37,6.21,29.143702,,,,,,,,,,BLSN,SCT,4100,BKN,4900,,,,,VFR,,,,,,,,,,,,SPECI,10.0
RJFK 120520Z 33009KT 300V010 7000 -SHRA FEW007 SCT020 BKN030 FEW030CB 07/04 Q1010 RMK 1ST007 3CU020 5CU030 1CB030 A2983 CB 20KM SE MOV SE,RJFK,2015-02-12T05:20:00Z,31.8,130.72,7.0,4.0,330,9,,4.35,29.822834,,,,,,,,,,-SHRA,FEW,700,SCT,2000,BKN,3000,FEW,3000,MVFR,,,,,,,,,,,,METAR,275.0
LFLX 120520Z 07003KT 2600 BR NSC M03/M03 Q1020 NOSIG,LFLX,2015-02-12T05:20:00Z,46.85,1.72,-3.0,-3.0,70,3,,1.62,30.11811,,,,,,TRUE,,,,BR,,,,,,,,,,,,,,,,,,,,,METAR,157.0
RJOW 120520Z 28020KT 4000 HZ FEW030 SCT050 10/03 Q1006 RMK 1CU030 4CU050 A2972,RJOW,2015-02-12T05:20:00Z,34.67,131.8,10.0,3.0,280,20,,2.49,29.704725,,,,,,,,,,HZ,FEW,3000,SCT,5000,,,,,IFR,,,,,,,,,,,,SPECI,54.0
RJOP 120519Z 23005KT 9999 FEW030 SCT060 BKN080 12/M01 Q1005 RMK 1CU030 3SC060 5AC080 A2970,RJOP,2015-02-12T05:19:00Z,34.0,134.62,12.0,-1.0,230,5,,6.21,29.675198,,,,,,,,,,,FEW,3000,SCT,6000,BKN,8000,,,VFR,,,,,,,,,,,,SPECI,6.0
UTO8 M M M 132/-28/-33/2613/M/ PK WND 2618 0447Z 5002 27MM,UTO8,2015-02-12T05:18:00Z,,,,,,,,3.11,,,,,,,,,,,,,,,,,,,,,,,,,,,,,,,,METAR,
CYOJ 120516Z AUTO VRB02KT 9SM OVC017 M18/M20 A2995 RMK SLP184,CYOJ,2015-02-12T05:16:00Z,58.62,-117.17,-18.0,-20.0,0,2,,9.0,29.949802,1018.4,,TRUE,,,,,,,,OVC,1700,,,,,,,MVFR,,,,,,,,,,,,SPECI,338.0
OAKB 120515Z 21003KT 2500 1200S HZ BKN110 08/M02 Q1024 RMK YLO,OAKB,2015-02-12T05:15:00Z,34.55,69.22,8.0,-2.0,210,3,,1.55,30.236221,,,,,,,,,,HZ,BKN,11000,,,,,,,IFR,,,,,,,,,,,,SPECI,1791.0
RJCO 120514Z 32008KT 9999 -SHSN FEW012 SCT030 BKN060 M00/M04 Q1005 RMK 1ST012 4CU030 6CU060 A2967,RJCO,2015-02-12T05:14:00Z,43.12,141.37,0.0,-4.0,320,8,,6.21,29.675198,,,,,,,,,,-SHSN,FEW,1200,SCT,3000,BKN,6000,,,VFR,,,,,,,,,,,,METAR,11.0
RJOF 120514Z 26017G27KT 9999 FEW020 SCT025 11/01 Q1007 RMK 1CU020 3CU025 A2975,RJOF,2015-02-12T05:14:00Z,34.02,131.55,11.0,1.0,260,17,27,6.21,29.734253,,,,,,,,,,,FEW,2000,SCT,2500,,,,,VFR,,,,,,,,,,,,METAR,5.0
CYQX 120513Z 03006KT 20SM SCT011 OVC210 M17/M19 A3009 RMK SC3CS5 SLP202,CYQX,2015-02-12T05:13:00Z,48.95,-54.58,-17.0,-19.0,30,6,,20.0,30.088583,1020.2,,,,,,,,,,SCT,1100,OVC,21000,,,,,VFR,,,,,,,,,,,,SPECI,151.0
EGVA 120513Z AUTO 12002KT 9999 OVC023 03/00 A3013 RMK AO2,EGVA,2015-02-12T05:13:00Z,51.67,-1.77,3.0,0.0,120,2,,6.21,30.129921,,,TRUE,TRUE,,,,,,,OVC,2300,,,,,,,MVFR,,,,,,,,,,,,METAR,87.0
CYZX 120512Z 05006KT 15SM SCT022 OVC230 M13/M16 A2990 RMK SC4CI4 WNDY,CYZX,2015-02-12T05:12:00Z,44.98,-64.92,-13.0,-16.0,50,6,,15.0,29.899607,,,,,,,,,,,SCT,2200,OVC,23000,,,,,VFR,,,,,,,,,,,,METAR,28.0
CYHU 120512Z AUTO 03007KT 1 3/4SM -SN BKN021 OVC042 M13/M16 A2982 RMK VIS VRB 1 1/4-2 1/4 SLP102,CYHU,2015-02-12T05:12:00Z,45.52,-73.42,-13.0,-16.0,30,7,,1.75,29.819881,1010.2,,TRUE,,,,,,,-SN,BKN,2100,OVC,4200,,,,,IFR,,,,,,,,,,,,SPECI,27.0
CYHE 120511Z AUTO 11006KT 6SM BR BKN100 BKN250 07/07 A3019 RMK SLP226,CYHE,2015-02-12T05:11:00Z,49.37,-121.5,7.0,7.0,110,6,,6.0,30.188976,1022.6,,TRUE,,,,,,,BR,BKN,10000,BKN,25000,,,,,VFR,,,,,,,,,,,,SPECI,39.0
VCRI 120510Z 02006KT 330V070 9999 FEW016 30/23 Q1012 NOSIG,VCRI,2015-02-12T05:10:00Z,6.28,81.13,30.0,23.0,20,6,,6.21,29.88189,,,,,,TRUE,,,,,FEW,1600,,,,,,,VFR,,,,,,,,,,,,METAR,7.0
VCBI 120510Z 04007KT 340V100 9999 SCT018 30/22 Q1013 NOSIG,VCBI,2015-02-12T05:10:00Z,7.17,79.87,30.0,22.0,40,7,,6.21,29.911417,,,,,,TRUE,,,,,SCT,1800,,,,,,,VFR,,,,,,,,,,,,METAR,8.0
VOHS 120510Z 14010KT 5000 HZ NSC 28/12 Q1019 BECMG 6 KM,VOHS,2015-02-12T05:10:00Z,17.23,78.43,28.0,12.0,140,10,,3.11,30.088583,,,,,,,,,,HZ,,,,,,,,,,,,,,,,,,,,,METAR,1.0
VANP 120510Z 07003KT 2500 HZ FEW020 23/16 Q1018 BECMG 3000 HZ,VANP,2015-02-12T05:10:00Z,21.08,79.05,23.0,16.0,70,3,,1.55,30.059055,,,,,,,,,,HZ,FEW,2000,,,,,,,IFR,,,,,,,,,,,,SPECI,310.0
VABB 120510Z 01005KT 2500 FU NSC 29/14 Q1015 NOSIG,VABB,2015-02-12T05:10:00Z,19.1,72.87,29.0,14.0,10,5,,1.55,29.970472,,,,,,TRUE,,,,FU,,,,,,,,,,,,,,,,,,,,,SPECI,8.0
CYBN 120510Z AUTO 31009KT 280V340 9SM BKN025 OVC050 M04/M07 A2976,CYBN,2015-02-12T05:10:00Z,44.27,-79.92,-4.0,-7.0,310,9,,9.0,29.760826,,,TRUE,,,,,,,,BKN,2500,OVC,5000,,,,,MVFR,,,,,,,,,,,,SPECI,223.0
CYZV 120509Z 06008KT 15SM -SN SCT025 OVC060 M17/M23 A3011 RMK SC3SC5 SLP204,CYZV,2015-02-12T05:09:00Z,50.22,-66.27,-17.0,-23.0,60,8,,15.0,30.109253,1020.4,,,,,,,,,-SN,SCT,2500,OVC,6000,,,,,VFR,,,,,,,,,,,,SPECI,55.0
RJTE 120508Z 24017G27KT 200V260 9999 FEW030 14/01 Q1002 RMK 1CU030 A2960,RJTE,2015-02-12T05:08:00Z,34.97,139.82,14.0,1.0,240,17,27,6.21,29.586615,,,,,,,,,,,FEW,3000,,,,,,,VFR,,,,,,,,,,,,METAR,6.0
RJNY 120507Z 27021G31KT 240V300 9999 FEW025 13/M03 Q1003 RMK 1CU025 A2962,RJNY,2015-02-12T05:07:00Z,34.82,138.3,13.0,-3.0,270,21,31,6.21,29.616142,,,,,,,,,,,FEW,2500,,,,,,,VFR,,,,,,,,,,,,METAR,10.0
CYHM 120507Z 27007KT 6SM -SN FEW013 BKN025 OVC070 M03/M04 A2978 RMK CF2SC5AC1 SLP097,CYHM,2015-02-12T05:07:00Z,43.17,-79.93,-3.0,-4.0,270,7,,6.0,29.778543,1009.7,,,,,,,,,-SN,FEW,1300,BKN,2500,OVC,7000,,,MVFR,,,,,,,,,,,,SPECI,238.0
CZBF 120507Z 00000KT 15SM -SHSN BKN015 M23/M26 A3008 RMK SC7 SLP192,CZBF,2015-02-12T05:07:00Z,47.62,-65.75,-23.0,-26.0,0,0,,15.0,30.079725,1019.2,,,,,,,,,-SHSN,BKN,1500,,,,,,,MVFR,,,,,,,,,,,,SPECI,59.0
SCCH 1205RB02KT CAVOK 14/12 Q1016,SCCH,2015-02-12T05:06:09Z,-36.57,-72.02,14.0,12.0,,,,6.21,,,,,,,,,,,,CAVOK,,,,,,,,VFR,,,,,,,,,,,,METAR,148.0
LIRZ 120506Z VRB01KT CAVOK M01/M02 Q1023,LIRZ,2015-02-12T05:06:00Z,43.1,12.5,-1.0,-2.0,0,1,,6.21,30.206694,,,,,,,,,,,CAVOK,,,,,,,,VFR,,,,,,,,,,,,SPECI,205.0
CYZP 120506Z AUTO 15011KT 4SM -RA BR BKN039 BKN050 OVC075 09/09 A2973 RMK SLP068,CYZP,2015-02-12T05:06:00Z,53.25,-131.82,9.0,9.0,150,11,,4.0,29.731298,1006.8,,TRUE,,,,,,,-RA BR,BKN,3900,BKN,5000,OVC,7500,,,MVFR,,,,,,,,,,,,SPECI,6.0
CYYB 120506Z AUTO 36011G16KT 5SM -SN SCT042 OVC090 M10/M12 A2967 RMK SLP075,CYYB,2015-02-12T05:06:00Z,46.35,-79.42,-10.0,-12.0,360,11,16,5.0,29.66929,1007.5,,TRUE,,,,,,,-SN,SCT,4200,OVC,9000,,,,,MVFR,,,,,,,,,,,,SPECI,371.0
MUCL 120505Z AUTO 04013KT 20/13 Q1016,MUCL,2015-02-12T05:05:00Z,21.63,-81.55,20.0,13.0,40,13,,,30.0,,,TRUE,,,,,,,,,,,,,,,,,,,,,,,,,,,,METAR,5.0
CWHN 120501Z AUTO 20008KT 170V230 9SM OVC013 M21/M27 A3022,CWHN,2015-02-12T05:01:00Z,54.88,-109.97,-21.0,-27.0,200,8,,9.0,30.221457,,,TRUE,,,,,,,,OVC,1300,,,,,,,MVFR,,,,,,,,,,,,SPECI,636.0
RJBT 120500Z 20009KT 9999 FEW030 SCT045 08/M02 Q1003,RJBT,2015-02-12T05:00:00Z,35.5,134.8,8.0,-2.0,200,9,,6.21,29.616142,,,,,,,,,,,FEW,3000,SCT,4500,,,,,VFR,,,,,,,,,,,,METAR,210.0
CWWS 120500Z AUTO 32006KT M31/M34 RMK AO1 SOG 55 8004 SLP437 T13071335,CWWS,2015-02-12T05:00:00Z,52.82,-97.62,-30.7,-33.5,320,6,,,,1043.7,,TRUE,TRUE,,,,,,,,,,,,,,,,,,,,,,,,,,,METAR,223.0
HKMY 120500Z 13002KT CAVOK 24/14,HKMY,2015-02-12T05:00:00Z,3.47,39.1,24.0,14.0,130,2,,6.21,,,,,,,,,,,,CAVOK,,,,,,,,VFR,,,,,,,,,,,,METAR,1097.0
VTCN 120500Z 22002KT CAVOK 29/13 Q1012 A2991,VTCN,2015-02-12T05:00:00Z,18.82,100.77,29.0,13.0,220,2,,6.21,29.88189,,,,,,,,,,,CAVOK,,,,,,,,VFR,,,,,,,,,,,,METAR,201.0
FPST 120500Z 26004KT 9999 TS FEW025CB BKN11000 24/23 Q1011 NOSIG,FPST,2015-02-12T05:00:00Z,0.37,6.72,24.0,23.0,260,4,,6.21,29.852362,,,,,,TRUE,,,,TS,FEW,2500,,,,,,,VFR,,,,,,,,,,,,SPECI,13.0
FOOG 120500Z /////KT 9999 TS SCT008 FEW016CB 28/25 Q1010,FOOG,2015-02-12T05:00:00Z,-0.7,8.75,28.0,25.0,,,,6.21,29.822834,,,,,,,,,,TS,SCT,800,FEW,1600,,,,,VFR,,,,,,,,,,,,SPECI,4.0
FGSL 120500Z 00000KT 9999 TS FEW010 FEW020CB 26/24 Q1010 NOSIG,FGSL,2015-02-12T05:00:00Z,3.75,8.72,26.0,24.0,0,0,,6.21,29.822834,,,,,,TRUE,,,,TS,FEW,1000,FEW,2000,,,,,VFR,,,,,,,,,,,,METAR,56.0
DAUG 120500Z 02012KT CAVOK 07/M06 Q1018,DAUG,2015-02-12T05:00:00Z,32.37,3.82,7.0,-6.0,20,12,,6.21,30.059055,,,,,,,,,,,CAVOK,,,,,,,,VFR,,,,,,,,,,,,SPECI,450.0
OEKK 120500Z 30018KT 4000 DU SKC 15/00 Q1017 NOSIG,OEKK,2015-02-12T05:00:00Z,27.88,45.52,15.0,0.0,300,18,,2.49,30.029528,,,,,,TRUE,,,,DU,SKC,,,,,,,,IFR,,,,,,,,,,,,METAR,413.0
CWZN 120500Z AUTO 03001KT M12/M14 RMK AO1 SLP141 T11191143 58028,CWZN,2015-02-12T05:00:00Z,47.37,-55.8,-11.9,-14.3,30,1,,,,1014.1,,TRUE,TRUE,,,,,,,,,,,,,,,,-2.8,,,,,,,,,,,METAR,64.0
CWDA 120500Z AUTO 34006KT M21/M24 RMK AO1 SLP220 T12131236 58014,CWDA,2015-02-12T05:00:00Z,50.72,-56.12,-21.3,-23.6,340,6,,,,1022.0,,TRUE,TRUE,,,,,,,,,,,,,,,,-1.4,,,,,,,,,,,METAR,29.0
CWEF 120500Z AUTO 08023G28KT M06/M08 RMK AO1 PK WND 08029/0428 SLP132 T10601076 58032,CWEF,2015-02-12T05:00:00Z,47.22,-60.12,-6.0,-7.6,80,23,28,,,1013.2,,TRUE,TRUE,,,,,,,,,,,,,,,,-3.2,,,,,,,,,,,METAR,26.0
CWCI 120500Z AUTO 03021G28KT M16/M17 RMK AO1 PK WND 03031/0447 SLP216 T11551168 51042,CWCI,2015-02-12T05:00:00Z,47.32,-85.82,-15.5,-16.8,30,21,28,,,1021.6,,TRUE,TRUE,,,,,,,,,,,,,,,,4.2,,,,,,,,,,,METAR,187.0
CWPS 120500Z AUTO M02/M03 RMK AO1 SLP094 T10151028 56012,CWPS,2015-02-12T05:00:00Z,42.57,-80.03,-1.5,-2.8,,,,,,1009.4,,TRUE,TRUE,,,,,,,,,,,,,,,,-1.2,,,,,,,,,,,METAR,175.0
CWNL 120500Z AUTO 31013G21KT M07/M09 RMK AO1 PK WND 30030/0403 SLP106 T10651092 53002,CWNL,2015-02-12T05:00:00Z,45.62,-82.97,-6.5,-9.2,310,13,21,,,1010.6,,TRUE,TRUE,,,,,,,,,,,,,,,,0.2,,,,,,,,,,,METAR,183.0
CXAT 120500Z AUTO 11001KT M36/M41 RMK AO1 SOG 01 6002 SLP209 T13551407,CXAT,2015-02-12T05:00:00Z,73.0,-85.03,-35.5,-40.7,110,1,,,,1020.9,,TRUE,TRUE,,,,,,,,,,,,,,,,,,,,,,,,,,,METAR,19.0
CWKK 120500Z AUTO 36014KT M24/M26 RMK AO1 4PAST HR SOG 17 1029 PK WND 01021/0413 SLP321 P0002 T12361258 50024,CWKK,2015-02-12T05:00:00Z,49.72,-88.33,-23.6,-25.8,360,14,,,,1032.1,,TRUE,TRUE,,,,,,,,,,,,,,,,2.4,,,,,0.02,,,,,,METAR,260.0
CWMZ 120500Z AUTO 31030KT M07/M10 RMK AO1 PK WND 31039/0404 SLP084 T10691100 53009,CWMZ,2015-02-12T05:00:00Z,45.02,-80.37,-6.9,-10.0,310,30,,,,1008.4,,TRUE,TRUE,,,,,,,,,,,,,,,,0.9,,,,,,,,,,,METAR,191.0
CXVW 120500Z AUTO 16015KT M09/M11 RMK AO1 PK WND 15020/0442 T10871108,CXVW,2015-02-12T05:00:00Z,55.1,-117.2,-8.7,-10.8,160,15,,,,,,TRUE,TRUE,,,,,,,,,,,,,,,,,,,,,,,,,,,METAR,698.0
CXBW 120500Z AUTO 16008KT M02/M04 RMK AO1 T10231038,CXBW,2015-02-12T05:00:00Z,49.8,-112.3,-2.3,-3.8,160,8,,,,,,TRUE,TRUE,,,,,,,,,,,,,,,,,,,,,,,,,,,METAR,824.0
CWEH 120500Z AUTO 16011KT M11/M12 RMK AO1 SOG 30 6021 SLP301 T11121117,CWEH,2015-02-12T05:00:00Z,49.42,-108.97,-11.2,-11.7,160,11,,,,1030.1,,TRUE,TRUE,,,,,,,,,,,,,,,,,,,,,,,,,,,METAR,1078.0
CWDC 120500Z AUTO 10004KT M23/M27 RMK AO1 SOG 34 6060 SLP265 T12281266,CWDC,2015-02-12T05:00:00Z,59.57,-108.47,-22.8,-26.6,100,4,,,,1026.5,,TRUE,TRUE,,,,,,,,,,,,,,,,,,,,,,,,,,,METAR,318.0
CYPD 120500Z AUTO 03006KT 340V050 9SM OVC016 M08/M10 A2980 RMK SLP099,CYPD,2015-02-12T05:00:00Z,45.67,-61.37,-8.0,-10.0,30,6,,9.0,29.799213,1009.9,,TRUE,,,,,,,,OVC,1600,,,,,,,MVFR,,,,,,,,,,,,METAR,114.0
CWYM 120500Z AUTO 26006KT M30/ A2956 RMK SLP103,CWYM,2015-02-12T05:00:00Z,64.95,-63.57,-30.0,,260,6,,,29.56004,1010.3,,TRUE,,,,,,,,,,,,,,,,,,,,,,,,,,,,METAR,583.0
CWXR 120500Z AUTO 31007KT M31/ A3028 RMK SLP271,CWXR,2015-02-12T05:00:00Z,69.27,-119.22,-31.0,,310,7,,,30.280512,1027.1,,TRUE,,,,,,,,,,,,,,,,,,,,,,,,,,,,METAR,69.0
CWTU 120500Z AUTO 30019KT M28/ A2981 RMK SLP187,CWTU,2015-02-12T05:00:00Z,54.72,-58.35,-28.0,,300,19,,,29.811024,1018.7,,TRUE,,,,,,,,,,,,,,,,,,,,,,,,,,,,METAR,683.0
CWRH 120500Z AUTO ///// M29/ A2976 RMK SLP139,CWRH,2015-02-12T05:00:00Z,61.57,-64.65,-29.0,,,,,,29.760826,1013.9,,TRUE,,,,,,,,,,,,,,,,,,,,,,,,,,,,METAR,369.0
CWKP 120500Z AUTO 25009KT M28/ A3011 RMK SLP256,CWKP,2015-02-12T05:00:00Z,69.67,-121.67,-28.0,,250,9,,,30.109253,1025.6,,TRUE,,,,,,,,,,,,,,,,,,,,,,,,,,,,METAR,330.0
CWEU 120500Z 11003KT 15SM SKC M39/M43 A3014 RMK SLP208,CWEU,2015-02-12T05:00:00Z,80.0,-85.92,-39.0,-43.0,110,3,,15.0,30.138779,1020.8,,,,,,,,,,SKC,,,,,,,,VFR,,,,,,,,,,,,METAR,10.0
CZVL 120500Z AUTO 16006KT 9SM OVC080 M10/M12 A3008 RMK SLP239,CZVL,2015-02-12T05:00:00Z,53.67,-113.85,-10.0,-12.0,160,6,,9.0,30.079725,1023.9,,TRUE,,,,,,,,OVC,8000,,,,,,,VFR,,,,,,,,,,,,METAR,686.0
CYZH 120500Z AUTO 09010G15KT 9SM BKN060 BKN074 OVC120 M12/M14 A3000 RMK PRESFR SLP212,CYZH,2015-02-12T05:00:00Z,55.28,-114.77,-12.0,-14.0,90,10,15,9.0,30.0,1021.2,,TRUE,,,,,,,,BKN,6000,BKN,7400,OVC,12000,,,VFR,,,,,,,,,,,,METAR,581.0
CYYL 120500Z AUTO VRB02KT 9SM OVC120 M27/M30 A3050 RMK PRESFR SLP381,CYYL,2015-02-12T05:00:00Z,56.87,-101.07,-27.0,-30.0,0,2,,9.0,30.499016,1038.1,,TRUE,,,,,,,,OVC,12000,,,,,,,VFR,,,,,,,,,,,,METAR,357.0
CYXD 120500Z AUTO 17006KT 9SM OVC068 M10/M13 A3009 RMK SLP244,CYXD,2015-02-12T05:00:00Z,53.57,-113.52,-10.0,-13.0,170,6,,9.0,30.088583,1024.4,,TRUE,,,,,,,,OVC,6800,,,,,,,VFR,,,,,,,,,,,,METAR,671.0
CYVC 120500Z 15004KT 15SM BKN120 M24/M28 A3047 RMK AC7 PRESFR SLP370,CYVC,2015-02-12T05:00:00Z,55.15,-105.27,-24.0,-28.0,150,4,,15.0,30.469488,1037.0,,,,,,,,,,BKN,12000,,,,,,,VFR,,,,,,,,,,,,METAR,379.0
CYQW 120500Z AUTO 12016G21KT 9SM CLR M23/M26 A3036 RMK PRESFR SLP346,CYQW,2015-02-12T05:00:00Z,52.77,-108.25,-23.0,-26.0,120,16,21,9.0,30.360237,1034.6,,TRUE,,,,,,,,CLR,,,,,,,,VFR,,,,,,,,,,,,METAR,548.0
CYQR 120500Z 14012KT 15SM OVC200 M24/M28 A3054 RMK CI8 PRESFR SLP411,CYQR,2015-02-12T05:00:00Z,50.43,-104.67,-24.0,-28.0,140,12,,15.0,30.540354,1041.1,,,,,,,,,,OVC,20000,,,,,,,VFR,,,,,,,,,,,,METAR,577.0
CYQL 120500Z 13005KT 5SM BR SCT120 OVC250 M05/M05 A3006 RMK AC4CI4 LAST STFD OBS/NXT 121300Z SLP235,CYQL,2015-02-12T05:00:00Z,49.63,-112.8,-5.0,-5.0,130,5,,5.0,30.059055,1023.5,,,,,,,,,BR,SCT,12000,OVC,25000,,,,,MVFR,,,,,,,,,,,,METAR,929.0
CYQF 120500Z 17011KT 3SM IC SCT120 BKN200 M09/M11 A3001 RMK AC3CI2 SLP229,CYQF,2015-02-12T05:00:00Z,52.17,-113.9,-9.0,-11.0,170,11,,3.0,30.008858,1022.9,,,,,,,,,IC,SCT,12000,BKN,20000,,,,,MVFR,,,,,,,,,,,,METAR,905.0
CYPA 120500Z 16004KT 15SM BKN170 M25/M30 A3051 RMK AC7 PRESFR SLP389,CYPA,2015-02-12T05:00:00Z,53.22,-105.67,-25.0,-30.0,160,4,,15.0,30.510826,1038.9,,,,,,,,,,BKN,17000,,,,,,,VFR,,,,,,,,,,,,METAR,428.0
CYNE 120500Z AUTO 27002KT 9SM CLR M33/M37 A3070 RMK SLP430,CYNE,2015-02-12T05:00:00Z,53.97,-97.82,-33.0,-37.0,270,2,,9.0,30.699802,1043.0,,TRUE,,,,,,,,CLR,,,,,,,,VFR,,,,,,,,,,,,METAR,223.0
CYMM 120500Z AUTO 14010KT 9SM -SN SCT024 BKN037 OVC046 M16/M19 A3010 RMK PRESFR SLP241,CYMM,2015-02-12T05:00:00Z,56.65,-111.22,-16.0,-19.0,140,10,,9.0,30.100393,1024.1,,TRUE,,,,,,,-SN,SCT,2400,BKN,3700,OVC,4600,,,VFR,,,,,,,,,,,,METAR,369.0
CYKJ 120500Z AUTO 18010G16KT 9SM OVC130 M22/M27 A3027 RMK PRESFR SLP320,CYKJ,2015-02-12T05:00:00Z,57.25,-105.62,-22.0,-27.0,180,10,16,9.0,30.268702,1032.0,,TRUE,,,,,,,,OVC,13000,,,,,,,VFR,,,,,,,,,,,,METAR,509.0
CYGX 120500Z 27006KT 15SM SKC M30/M33 A3061 RMK SLP389,CYGX,2015-02-12T05:00:00Z,56.35,-94.7,-30.0,-33.0,270,6,,15.0,30.611221,1038.9,,,,,,,,,,SKC,,,,,,,,VFR,,,,,,,,,,,,METAR,145.0
CYET 120500Z AUTO 00000KT 7SM FEW090 M13/M14 A3000 RMK SLP232,CYET,2015-02-12T05:00:00Z,53.57,-116.47,-13.0,-14.0,0,0,,7.0,30.0,1023.2,,TRUE,,,,,,,,FEW,9000,,,,,,,VFR,,,,,,,,,,,,METAR,925.0
CYEN 120500Z 09004KT 15SM FEW220 M26/M29 A3060 RMK CI0 SLP428,CYEN,2015-02-12T05:00:00Z,49.22,-102.97,-26.0,-29.0,90,4,,15.0,30.59941,1042.8,,,,,,,,,,FEW,22000,,,,,,,VFR,,,,,,,,,,,,METAR,581.0
CYDN 120500Z AUTO 26008KT 9SM BKN220 BKN240 M29/M32 A3074 RMK SLP451,CYDN,2015-02-12T05:00:00Z,51.1,-100.03,-29.0,-32.0,260,8,,9.0,30.741142,1045.1,,TRUE,,,,,,,,BKN,22000,BKN,24000,,,,,VFR,,,,,,,,,,,,METAR,305.0
CYBU 120500Z AUTO 17007KT 9SM BKN160 OVC190 M28/M31 A3060 RMK SLP414,CYBU,2015-02-12T05:00:00Z,53.32,-104.0,-28.0,-31.0,170,7,,9.0,30.59941,1041.4,,TRUE,,,,,,,,BKN,16000,OVC,19000,,,,,VFR,,,,,,,,,,,,METAR,374.0
CYBR 120500Z 29006KT 15SM FEW220 M31/M34 A3071 RMK CI1 SLP455,CYBR,2015-02-12T05:00:00Z,49.92,-99.95,-31.0,-34.0,290,6,,15.0,30.708662,1045.5,,,,,,,,,,FEW,22000,,,,,,,VFR,,,,,,,,,,,,METAR,409.0
CYBQ 120500Z AUTO 27004KT 240V300 9SM SCT140 M28/M32 A3047 RMK SLP364,CYBQ,2015-02-12T05:00:00Z,58.7,-98.5,-28.0,-32.0,270,4,,9.0,30.469488,1036.4,,TRUE,,,,,,,,SCT,14000,,,,,,,VFR,,,,,,,,,,,,METAR,262.0
CYBK 120500Z 26005KT 170V280 15SM SKC M37/M42 A3037 RMK SLP289,CYBK,2015-02-12T05:00:00Z,64.28,-96.07,-37.0,-42.0,260,5,,15.0,30.369095,1028.9,,,,,,,,,,SKC,,,,,,,,VFR,,,,,,,,,,,,METAR,18.0
CZCP 120500Z AUTO 32005KT 6SM CLR M33/ A3028 RMK SLP271,CZCP,2015-02-12T05:00:00Z,70.17,-124.72,-33.0,,320,5,,6.0,30.280512,1027.1,,TRUE,,,,,,,,CLR,,,,,,,,VFR,,,,,,,,,,,,METAR,93.0
CWZZ 120500Z AUTO 28004KT M30/ A2978 RMK SLP159,CWZZ,2015-02-12T05:00:00Z,58.32,-62.57,-30.0,,280,4,,,29.778543,1015.9,,TRUE,,,,,,,,,,,,,,,,,,,,,,,,,,,,METAR,483.0
CWYK 120500Z AUTO ///// M27/ A2961 RMK SLP134,CWYK,2015-02-12T05:00:00Z,57.12,-61.47,-27.0,,,,,,29.610237,1013.4,,TRUE,,,,,,,,,,,,,,,,,,,,,,,,,,,,METAR,834.0
CWVH 120500Z AUTO 10008KT M29/ A3018 RMK SLP266,CWVH,2015-02-12T05:00:00Z,68.9,-133.93,-29.0,,100,8,,,30.180119,1026.6,,TRUE,,,,,,,,,,,,,,,,,,,,,,,,,,,,METAR,261.0
CWUW 120500Z AUTO 23003KT 9SM CLR M29/ A2977 RMK SLP170,CWUW,2015-02-12T05:00:00Z,68.65,-71.17,-29.0,,230,3,,9.0,29.769686,1017.0,,TRUE,,,,,,,,CLR,,,,,,,,VFR,,,,,,,,,,,,METAR,527.0
CWUP 120500Z AUTO ///// M30/ A2982 RMK SLP161,CWUP,2015-02-12T05:00:00Z,68.47,-66.82,-30.0,,,,,,29.819881,1016.1,,TRUE,,,,,,,,,,,,,,,,,,,,,,,,,,,,METAR,390.0
CWRX 120500Z AUTO 30011KT M37/ A3011,CWRX,2015-02-12T05:00:00Z,69.07,-79.02,-37.0,,300,11,,,30.109253,,,TRUE,,,,,,,,,,,,,,,,,,,,,,,,,,,,METAR,41.0
CWPX 120500Z AUTO 31010KT M33/ A3009 RMK SLP228,CWPX,2015-02-12T05:00:00Z,69.02,-107.82,-33.0,,310,10,,,30.088583,1022.8,,TRUE,,,,,,,,,,,,,,,,,,,,,,,,,,,,METAR,165.0
CWLX 120500Z AUTO 34013KT M34/ A2998 RMK SLP184,CWLX,2015-02-12T05:00:00Z,68.9,-75.15,-34.0,,340,13,,,29.97933,1018.4,,TRUE,,,,,,,,,,,,,,,,,,,,,,,,,,,,METAR,162.0
CWLI 120500Z AUTO 25009KT M34/ A3028 RMK SLP279,CWLI,2015-02-12T05:00:00Z,69.58,-130.9,-34.0,,250,9,,,30.280512,1027.9,,TRUE,,,,,,,,,,,,,,,,,,,,,,,,,,,,METAR,102.0
CWKW 120500Z AUTO ///// M33/ A2969 RMK SLP141,CWKW,2015-02-12T05:00:00Z,59.97,-64.17,-33.0,,,,,,29.68996,1014.1,,TRUE,,,,,,,,,,,,,,,,,,,,,,,,,,,,METAR,551.0
CWKM 120500Z AUTO 10023KT M32/ A3021 RMK SLP236,CWKM,2015-02-12T05:00:00Z,69.6,-140.17,-32.0,,100,23,,,30.209646,1023.6,,TRUE,,,,,,,,,,,,,,,,,,,,,,,,,,,,METAR,13.0
CWIL 120500Z AUTO 26013KT M30/ A3014 RMK SLP217,CWIL,2015-02-12T05:00:00Z,68.32,-100.07,-30.0,,260,13,,,30.138779,1021.7,,TRUE,,,,,,,,,,,,,,,,,,,,,,,,,,,,METAR,36.0
CWCA 120500Z 19005KT 15SM SKC M27/M31 A3021 RMK SLP232,CWCA,2015-02-12T05:00:00Z,53.7,-57.02,-27.0,-31.0,190,5,,15.0,30.209646,1023.2,,,,,,,,,,SKC,,,,,,,,VFR,,,,,,,,,,,,METAR,14.0
CYWK 120500Z AUTO 00000KT 3SM -SN BKN055 OVC073 M26/M30 A2991 RMK SLP201,CYWK,2015-02-12T05:00:00Z,52.92,-66.87,-26.0,-30.0,0,0,,3.0,29.911417,1020.1,,TRUE,,,,,,,-SN,BKN,5500,OVC,7300,,,,,MVFR,,,,,,,,,,,,METAR,551.0
CYUY 120500Z 35013G21KT 6SM -SN OVC030 M18/M21 A2980 RMK SC8 SLP120,CYUY,2015-02-12T05:00:00Z,48.2,-78.82,-18.0,-21.0,350,13,21,6.0,29.799213,1012.0,,,,,,,,,-SN,OVC,3000,,,,,,,MVFR,,,,,,,,,,,,METAR,301.0
CYQI 120500Z 36007KT 15SM BKN250 M14/M17 A2986 RMK CI7 SLP113,CYQI,2015-02-12T05:00:00Z,43.83,-66.08,-14.0,-17.0,360,7,,15.0,29.861221,1011.3,,,,,,,,,,BKN,25000,,,,,,,VFR,,,,,,,,,,,,METAR,43.0
CYPX 120500Z AUTO 30007KT 9SM CLR M37/M41 A3033 RMK SLP275,CYPX,2015-02-12T05:00:00Z,60.03,-77.27,-37.0,-41.0,300,7,,9.0,30.33071,1027.5,,TRUE,,,,,,,,CLR,,,,,,,,VFR,,,,,,,,,,,,METAR,23.0
CYPH 120500Z AUTO 04003KT 360V080 9SM CLR M37/M41 A3036 RMK SLP286,CYPH,2015-02-12T05:00:00Z,58.45,-78.08,-37.0,-41.0,40,3,,9.0,30.360237,1028.6,,TRUE,,,,,,,,CLR,,,,,,,,VFR,,,,,,,,,,,,METAR,3.0
CYOY 120500Z AUTO 11004KT 060V130 9SM OVC084 M13/M21 A2985 RMK SLP123,CYOY,2015-02-12T05:00:00Z,46.88,-71.5,-13.0,-21.0,110,4,,9.0,29.84941,1012.3,,TRUE,,,,,,,,OVC,8400,,,,,,,VFR,,,,,,,,,,,,METAR,168.0
CYGV 120500Z AUTO 05009KT 9SM OVC090 M18/M23 A3015 RMK SLP214,CYGV,2015-02-12T05:00:00Z,50.27,-63.62,-18.0,-23.0,50,9,,9.0,30.15059,1021.4,,TRUE,,,,,,,,OVC,9000,,,,,,,VFR,,,,,,,,,,,,METAR,33.0
CYYG 120500Z 35011G18KT 12SM -SHSN DRSN OVC016 M14/M16 A2993 RMK SC8 SLP139,CYYG,2015-02-12T05:00:00Z,46.27,-63.12,-14.0,-16.0,350,11,18,12.0,29.929134,1013.9,,,,,,,,,-SHSN DRSN,OVC,1600,,,,,,,MVFR,,,,,,,,,,,,METAR,54.0
CYSJ 120500Z 02009G16KT 15SM SCT015 M18/M21 A2992 RMK SC4 SLP143,CYSJ,2015-02-12T05:00:00Z,45.32,-65.87,-18.0,-21.0,20,9,16,15.0,29.920275,1014.3,,,,,,,,,,SCT,1500,,,,,,,VFR,,,,,,,,,,,,METAR,109.0
CYDF 120500Z 06009KT 15SM BKN240 M20/M23 A3014 RMK CI6 SLP208,CYDF,2015-02-12T05:00:00Z,49.22,-57.4,-20.0,-23.0,60,9,,15.0,30.138779,1020.8,,,,,,,,,,BKN,24000,,,,,,,VFR,,,,,,,,,,,,METAR,22.0
CYCX 120500Z 04006KT 15SM FEW020 SCT240 M18/M22 A2999 RMK SC2CI1 DA-4114FT SLP161,CYCX,2015-02-12T05:00:00Z,45.82,-66.42,-18.0,-22.0,40,6,,15.0,29.991142,1016.1,,,,,,,,,,FEW,2000,SCT,24000,,,,,VFR,,,,,,,,,,,,METAR,51.0
CYYY 120500Z 08007KT 30SM SCT085 M18/M22 A3004 RMK AC4 SLP177,CYYY,2015-02-12T05:00:00Z,48.6,-68.22,-18.0,-22.0,80,7,,30.0,30.041338,1017.7,,,,,,,,,,SCT,8500,,,,,,,VFR,,,,,,,,,,,,METAR,52.0
CYVV 120500Z 31010G20KT 8SM -SHSN OVC018 M06/M09 A2978 RMK SC8 SLP097,CYVV,2015-02-12T05:00:00Z,44.75,-81.08,-6.0,-9.0,310,10,20,8.0,29.778543,1009.7,,,,,,,,,-SHSN,OVC,1800,,,,,,,MVFR,,,,,,,,,,,,METAR,222.0
CYVP 120500Z 23006KT 15SM FEW045 FEW240 M34/M38 A3019 RMK SC1CI1 SLP232,CYVP,2015-02-12T05:00:00Z,58.12,-68.42,-34.0,-38.0,230,6,,15.0,30.188976,1023.2,,,,,,,,,,FEW,4500,FEW,24000,,,,,VFR,,,,,,,,,,,,METAR,60.0
CYTZ 120500Z AUTO 24012KT 9SM FEW022 OVC075 M01/M05 A2978 RMK SLP086,CYTZ,2015-02-12T05:00:00Z,43.63,-79.4,-1.0,-5.0,240,12,,9.0,29.778543,1008.6,,TRUE,,,,,,,,FEW,2200,OVC,7500,,,,,VFR,,,,,,,,,,,,METAR,77.0
CYTS 120500Z 34013G20KT 8SM -SN DRSN FEW020 BKN110 M23/M27 A2999 RMK SC2AC3 SLP187,CYTS,2015-02-12T05:00:00Z,48.57,-81.37,-23.0,-27.0,340,13,20,8.0,29.991142,1018.7,,,,,,,,,-SN DRSN,FEW,2000,BKN,11000,,,,,VFR,,,,,,,,,,,,METAR,295.0
CYTL 120500Z AUTO 31005KT 9SM CLR M32/M35 A3055 RMK SLP380,CYTL,2015-02-12T05:00:00Z,53.82,-89.88,-32.0,-35.0,310,5,,9.0,30.549213,1038.0,,TRUE,,,,,,,,CLR,,,,,,,,VFR,,,,,,,,,,,,METAR,224.0
CYRJ 120500Z 34003KT 1SM -SN VV010 M20/M23 A2986 RMK SN8 VIS VRB 1/2-11/2 SLP133,CYRJ,2015-02-12T05:00:00Z,48.52,-72.27,-20.0,-23.0,340,3,,1.0,29.861221,1013.3,,,,,,,,,-SN,OVX,0,,,,,,,LIFR,,,,,,,,,,,1000,METAR,179.0
CYQT 120500Z 34009G15KT 15SM SCT029 M20/M24 A3041 RMK SC4 SLP319,CYQT,2015-02-12T05:00:00Z,48.37,-89.32,-20.0,-24.0,340,9,15,15.0,30.410433,1031.9,,,,,,,,,,SCT,2900,,,,,,,VFR,,,,,,,,,,,,METAR,199.0
CYNA 120500Z AUTO 03010KT 9SM CLR M20/M25 A3016 RMK SLP214,CYNA,2015-02-12T05:00:00Z,50.17,-61.82,-20.0,-25.0,30,10,,9.0,30.159449,1021.4,,TRUE,,,,,,,,CLR,,,,,,,,VFR,,,,,,,,,,,,METAR,11.0
CYHD 120500Z AUTO 35007KT 310V010 9SM CLR M25/M27 A3052 RMK PRESRR SLP387,CYHD,2015-02-12T05:00:00Z,49.82,-92.75,-25.0,-27.0,350,7,,9.0,30.519686,1038.7,,TRUE,,,,,,,,CLR,,,,,,,,VFR,,,,,,,,,,,,METAR,413.0
CYGP 120500Z 27003KT 15SM SKC M24/M27 A3012 RMK SLP203,CYGP,2015-02-12T05:00:00Z,48.77,-64.47,-24.0,-27.0,270,3,,15.0,30.121063,1020.3,,,,,,,,,,SKC,,,,,,,,VFR,,,,,,,,,,,,METAR,33.0
CYAM 120500Z 01016KT 5SM -SN BKN051 M15/M20 A2998 RMK SC6 SLP166,CYAM,2015-02-12T05:00:00Z,46.47,-84.52,-15.0,-20.0,10,16,,5.0,29.97933,1016.6,,,,,,,,,-SN,BKN,5100,,,,,,,MVFR,,,,,,,,,,,,METAR,192.0
CYVM 120500Z AUTO 07011G17KT 9SM CLR M29/M33 A3003 RMK SLP170,CYVM,2015-02-12T05:00:00Z,67.53,-64.02,-29.0,-33.0,70,11,17,9.0,30.029528,1017.0,,TRUE,,,,,,,,CLR,,,,,,,,VFR,,,,,,,,,,,,METAR,6.0
CYTE 120500Z AUTO 29009KT 9SM CLR M33/M37 A3019 RMK SLP233,CYTE,2015-02-12T05:00:00Z,64.22,-76.52,-33.0,-37.0,290,9,,9.0,30.188976,1023.3,,TRUE,,,,,,,,CLR,,,,,,,,VFR,,,,,,,,,,,,METAR,47.0
CYRT 120500Z 28008KT 15SM IC DRSN SKC M38/M42 A3040 RMK SLP303,CYRT,2015-02-12T05:00:00Z,62.82,-92.12,-38.0,-42.0,280,8,,15.0,30.398623,1030.3,,,,,,,,,IC DRSN,SKC,,,,,,,,VFR,,,,,,,,,,,,METAR,32.0
CYHY 120500Z 17003KT 15SM -SN OVC035 M19/M23 A3001 RMK SC8 SLP187,CYHY,2015-02-12T05:00:00Z,60.82,-115.77,-19.0,-23.0,170,3,,15.0,30.008858,1018.7,,,,,,,,,-SN,OVC,3500,,,,,,,VFR,,,,,,,,,,,,METAR,166.0
CYFS 120500Z VRB02KT 15SM -SN BKN027 M23/M27 A3008 RMK SC5 SLP210,CYFS,2015-02-12T05:00:00Z,61.75,-121.22,-23.0,-27.0,0,2,,15.0,30.079725,1021.0,,,,,,,,,-SN,BKN,2700,,,,,,,MVFR,,,,,,,,,,,,METAR,169.0
CYCO 120500Z 25011KT 12SM IC DRSN FEW060 SCT120 M33/M37 A3030 RMK SC1AS2 SLP264,CYCO,2015-02-12T05:00:00Z,67.82,-115.15,-33.0,-37.0,250,11,,12.0,30.301182,1026.4,,,,,,,,,IC DRSN,FEW,6000,SCT,12000,,,,,VFR,,,,,,,,,,,,METAR,22.0
CYCB 120500Z 28006KT 5SM IC SCT035 BKN070 M33/M36 A3018 RMK SC2AC2 SLP227,CYCB,2015-02-12T05:00:00Z,69.08,-105.12,-33.0,-36.0,280,6,,5.0,30.180119,1022.7,,,,,,,,,IC,SCT,3500,BKN,7000,,,,,MVFR,,,,,,,,,,,,METAR,27.0
CZSJ 120500Z AUTO 29002KT 9SM CLR M32/M36 A3060 RMK SLP410,CZSJ,2015-02-12T05:00:00Z,53.07,-93.35,-32.0,-36.0,290,2,,9.0,30.59941,1041.0,,TRUE,,,,,,,,CLR,,,,,,,,VFR,,,,,,,,,,,,METAR,290.0
CZMD 120500Z AUTO 26003KT 9SM CLR M32/M35 A3057 RMK SLP397,CZMD,2015-02-12T05:00:00Z,53.43,-91.77,-32.0,-35.0,260,3,,9.0,30.569881,1039.7,,TRUE,,,,,,,,CLR,,,,,,,,VFR,,,,,,,,,,,,METAR,278.0
CYYU 120500Z 36014G20KT 4SM -SN BLSN SCT018 M23/M27 A3013 RMK SC3 SLP228,CYYU,2015-02-12T05:00:00Z,49.42,-82.47,-23.0,-27.0,360,14,20,4.0,30.129921,1022.8,,,,,,,,,-SN BLSN,SCT,1800,,,,,,,MVFR,,,,,,,,,,,,METAR,227.0
CYYH 120500Z 20005KT 15SM IC FEW030 SCT070 M37/M41 A3019 RMK SC1AC2 SLP229,CYYH,2015-02-12T05:00:00Z,69.53,-93.57,-37.0,-41.0,200,5,,15.0,30.188976,1022.9,,,,,,,,,IC,FEW,3000,SCT,7000,,,,,VFR,,,,,,,,,,,,METAR,28.0
CYXU 120500Z 28008KT 3SM -SN FEW008 OVC065 M04/M05 A2981 RMK SF2SC6 /S02/ SLP110,CYXU,2015-02-12T05:00:00Z,43.02,-81.15,-4.0,-5.0,280,8,,3.0,29.811024,1011.0,,,,,,,,,-SN,FEW,800,OVC,6500,,,,,MVFR,,,,,,,,,,,,METAR,278.0
CYXL 120500Z 36007KT 320V030 15SM IC SKC M26/M29 A3051 RMK PRESRR SLP380,CYXL,2015-02-12T05:00:00Z,50.12,-91.9,-26.0,-29.0,360,7,,15.0,30.510826,1038.0,,,,,,,,,IC,SKC,,,,,,,,VFR,,,,,,,,,,,,METAR,390.0
CYVQ 120500Z 28007KT 4SM -SN BKN040 OVC090 M28/M31 A3024 RMK SC5AC3 SLP252,CYVQ,2015-02-12T05:00:00Z,65.27,-126.78,-28.0,-31.0,280,7,,4.0,30.239174,1025.2,,,,,,,,,-SN,BKN,4000,OVC,9000,,,,,MVFR,,,,,,,,,,,,METAR,74.0
CYSC 120500Z AUTO 07005KT 9SM CLR M13/M16 A2978 RMK SLP104,CYSC,2015-02-12T05:00:00Z,45.43,-71.68,-13.0,-16.0,70,5,,9.0,29.778543,1010.4,,TRUE,,,,,,,,CLR,,,,,,,,VFR,,,,,,,,,,,,METAR,241.0
CYSB 120500Z 01016G24KT 3SM -SN BLSN VV016 M14/M17 A2976 RMK SN8 PRESRR SLP104,CYSB,2015-02-12T05:00:00Z,46.63,-80.8,-14.0,-17.0,10,16,24,3.0,29.760826,1010.4,,,,,,,,,-SN BLSN,OVX,0,,,,,,,LIFR,,,,,,,,,,,1600,METAR,348.0
CYRB 120500Z 34007KT 15SM -SN FEW150 M37/M40 A3015 RMK AC1 SLP223,CYRB,2015-02-12T05:00:00Z,74.72,-94.97,-37.0,-40.0,340,7,,15.0,30.15059,1022.3,,,,,,,,,-SN,FEW,15000,,,,,,,VFR,,,,,,,,,,,,METAR,67.0
CYQK 120500Z 34008KT 15SM IC SKC M24/M27 A3056 RMK SLP399,CYQK,2015-02-12T05:00:00Z,49.77,-94.37,-24.0,-27.0,340,8,,15.0,30.561024,1039.9,,,,,,,,,IC,SKC,,,,,,,,VFR,,,,,,,,,,,,METAR,411.0
CYPO 120500Z AUTO 31006KT 9SM CLR M32/M36 A3049 RMK SLP334,CYPO,2015-02-12T05:00:00Z,54.98,-85.43,-32.0,-36.0,310,6,,9.0,30.490158,1033.4,,TRUE,,,,,,,,CLR,,,,,,,,VFR,,,,,,,,,,,,METAR,53.0
CYLH 120500Z AUTO 33004KT 290V010 9SM FEW018 M28/M31 A3048 RMK SLP359,CYLH,2015-02-12T05:00:00Z,52.2,-87.93,-28.0,-31.0,330,4,,9.0,30.481298,1035.9,,TRUE,,,,,,,,FEW,1800,,,,,,,VFR,,,,,,,,,,,,METAR,254.0
CYKZ 120500Z 28007KT 8SM -SN OVC075 M03/M05 A2974 RMK AC8 SLP083,CYKZ,2015-02-12T05:00:00Z,43.87,-79.37,-3.0,-5.0,280,7,,8.0,29.740158,1008.3,,,,,,,,,-SN,OVC,7500,,,,,,,VFR,,,,,,,,,,,,METAR,198.0
CYKP 120500Z AUTO 34010G16KT 9SM BKN041 M28/M32 A3042 RMK SLP326,CYKP,2015-02-12T05:00:00Z,51.67,-85.9,-28.0,-32.0,340,10,16,9.0,30.41929,1032.6,,TRUE,,,,,,,,BKN,4100,,,,,,,VFR,,,,,,,,,,,,METAR,179.0
CYGQ 120500Z 35012G20KT 15SM -SN DRSN FEW025 SCT100 M25/M28 A3031 RMK SC2AC2 SLP304,CYGQ,2015-02-12T05:00:00Z,49.77,-86.92,-25.0,-28.0,350,12,20,15.0,30.31004,1030.4,,,,,,,,,-SN DRSN,FEW,2500,SCT,10000,,,,,VFR,,,,,,,,,,,,METAR,351.0
CYER 120500Z AUTO 30006KT 9SM CLR M32/M35 A3057 RMK SLP354,CYER,2015-02-12T05:00:00Z,56.02,-87.68,-32.0,-35.0,300,6,,9.0,30.569881,1035.4,,TRUE,,,,,,,,CLR,,,,,,,,VFR,,,,,,,,,,,,METAR,16.0
CYCK 120500Z AUTO 27009KT 9SM BKN065 M04/M06 A2988 RMK SLP127,CYCK,2015-02-12T05:00:00Z,42.3,-82.08,-4.0,-6.0,270,9,,9.0,29.878937,1012.7,,TRUE,,,,,,,,BKN,6500,,,,,,,VFR,,,,,,,,,,,,METAR,198.0
CYBC 120500Z AUTO 09018G25KT 9SM SCT095 OVC130 M16/M20 A3008 RMK SLP187,CYBC,2015-02-12T05:00:00Z,49.12,-68.2,-16.0,-20.0,90,18,25,9.0,30.079725,1018.7,,TRUE,,,,,,,,SCT,9500,OVC,13000,,,,,VFR,,,,,,,,,,,,METAR,22.0
CYAT 120500Z AUTO 34010G15KT 9SM CLR M29/M32 A3038 RMK SLP289,CYAT,2015-02-12T05:00:00Z,52.93,-82.43,-29.0,-32.0,340,10,15,9.0,30.380905,1028.9,,TRUE,,,,,,,,CLR,,,,,,,,VFR,,,,,,,,,,,,METAR,9.0
CYZU 120500Z 08005KT 15SM -SN OVC020 M12/M14 A3003 RMK SC8 LAST OBS/NEXT 121300Z SLP232,CYZU,2015-02-12T05:00:00Z,54.15,-115.78,-12.0,-14.0,80,5,,15.0,30.029528,1023.2,,,,,,,,,-SN,OVC,2000,,,,,,,MVFR,,,,,,,,,,,,METAR,785.0
CYXH 120500Z AUTO 08003KT 9SM OVC140 M07/M08 A3017 RMK PRESFR SLP261,CYXH,2015-02-12T05:00:00Z,50.02,-110.72,-7.0,-8.0,80,3,,9.0,30.171259,1026.1,,TRUE,,,,,,,,OVC,14000,,,,,,,VFR,,,,,,,,,,,,METAR,716.0
CYUX 120500Z AUTO 31011KT 9SM CLR M43/M47 A3021 RMK SLP232,CYUX,2015-02-12T05:00:00Z,68.77,-81.25,-43.0,-47.0,310,11,,9.0,30.209646,1023.2,,TRUE,,,,,,,,CLR,,,,,,,,VFR,,,,,,,,,,,,METAR,8.0
CYUB 120500Z 00000KT 15SM SKC M36/M42 A3034 RMK SLP276,CYUB,2015-02-12T05:00:00Z,69.45,-133.02,-36.0,-42.0,0,0,,15.0,30.339567,1027.6,,,,,,,,,,SKC,,,,,,,,VFR,,,,,,,,,,,,METAR,5.0
CYTH 120500Z 24003KT 15SM IC SKC M30/M33 A3063 RMK SLP408,CYTH,2015-02-12T05:00:00Z,55.78,-97.87,-30.0,-33.0,240,3,,15.0,30.628937,1040.8,,,,,,,,,IC,SKC,,,,,,,,VFR,,,,,,,,,,,,METAR,218.0
CYQV 120500Z AUTO 18004KT 9SM BKN220 OVC240 M28/M31 A3062 RMK PRESFR SLP434,CYQV,2015-02-12T05:00:00Z,51.27,-102.47,-28.0,-31.0,180,4,,9.0,30.620079,1043.4,,TRUE,,,,,,,,BKN,22000,OVC,24000,,,,,VFR,,,,,,,,,,,,METAR,498.0
CYPE 120500Z 21004KT 15SM BKN250 M11/M13 A2993 RMK CI6 SLP184,CYPE,2015-02-12T05:00:00Z,56.22,-117.45,-11.0,-13.0,210,4,,15.0,29.929134,1018.4,,,,,,,,,,BKN,25000,,,,,,,VFR,,,,,,,,,,,,METAR,571.0
CYOD 120500Z 17004KT 15SM OVC017 M19/M25 A3028 RMK SC8 SLP316,CYOD,2015-02-12T05:00:00Z,54.4,-110.28,-19.0,-25.0,170,4,,15.0,30.280512,1031.6,,,,,,,,,,OVC,1700,,,,,,,MVFR,,,,,,,,,,,,METAR,544.0
CYLT 120500Z 24010KT 10SM FEW070 M30/M35 A2989 RMK AC1 FST OBS SLP128,CYLT,2015-02-12T05:00:00Z,82.52,-62.27,-30.0,-35.0,240,10,,10.0,29.890747,1012.8,,,,,,,,,,FEW,7000,,,,,,,VFR,,,,,,,,,,,,METAR,31.0
CYIO 120500Z AUTO 22006KT 9SM FEW060 M38/M42 A3006 RMK SLP192,CYIO,2015-02-12T05:00:00Z,72.67,-77.97,-38.0,-42.0,220,6,,9.0,30.059055,1019.2,,TRUE,,,,,,,,FEW,6000,,,,,,,VFR,,,,,,,,,,,,METAR,57.0
CYEK 120500Z AUTO 23007KT 9SM CLR M38/M42 A3050 RMK PRESFR SLP329,CYEK,2015-02-12T05:00:00Z,61.1,-94.07,-38.0,-42.0,230,7,,9.0,30.499016,1032.9,,TRUE,,,,,,,,CLR,,,,,,,,VFR,,,,,,,,,,,,METAR,10.0
CYCY 120500Z AUTO 30003KT 260V330 9SM CLR M38/M43 A3003 RMK SLP174,CYCY,2015-02-12T05:00:00Z,70.47,-68.52,-38.0,-43.0,300,3,,9.0,30.029528,1017.4,,TRUE,,,,,,,,CLR,,,,,,,,VFR,,,,,,,,,,,,METAR,26.0
CYBW 120500Z AUTO VRB02KT 2 1/2SM BR OVC180 M08/M09 A2999 RMK SLP231,CYBW,2015-02-12T05:00:00Z,51.1,-114.37,-8.0,-9.0,0,2,,2.5,29.991142,1023.1,,TRUE,,,,,,,BR,OVC,18000,,,,,,,IFR,,,,,,,,,,,,METAR,1200.0
CWVD 120500Z AUTO 31014KT M31/ A2967 RMK SLP147,CWVD,2015-02-12T05:00:00Z,67.52,-63.77,-31.0,,310,14,,,29.66929,1014.7,,TRUE,,,,,,,,,,,,,,,,,,,,,,,,,,,,METAR,573.0
CWRF 120500Z AUTO ///// M38/ A3000 RMK SLP231,CWRF,2015-02-12T05:00:00Z,69.42,-89.72,-38.0,,,,,,30.0,1023.1,,TRUE,,,,,,,,,,,,,,,,,,,,,,,,,,,,METAR,325.0
DAUT 120500Z 06008KT 7000 NSC 08/M10 Q1015,DAUT,2015-02-12T05:00:00Z,29.25,0.27,8.0,-10.0,60,8,,4.35,29.970472,,,,,,,,,,,,,,,,,,,,,,,,,,,,,,,METAR,312.0
LELO 120500Z VRB01KT 0800 R29/1200U FZFG NSC M00/M00 Q1020,LELO,2015-02-12T05:00:00Z,42.45,-2.32,0.0,0.0,0,1,,0.5,30.11811,,,,,,,,,,FZFG,,,,,,,,,,,,,,,,,,,,,METAR,363.0
HKNY 120500Z 00000KT 9999 FEW0146 15/07 Q1024,HKNY,2015-02-12T05:00:00Z,-0.07,37.02,15.0,7.0,0,0,,6.21,30.236221,,,,,,,,,,,,,,,,,,,,,,,,,,,,,,,METAR,1905.0
SKLT 120500Z 00000KT 8000 -RA BKN012 SCT080 25/24 A2991 RMK AD OPR IMC,SKLT,2015-02-12T05:00:00Z,-4.2,-69.93,25.0,24.0,0,0,,4.97,29.911417,,,,,,,,,,-RA,BKN,1200,SCT,8000,,,,,MVFR,,,,,,,,,,,,METAR,84.0
SKPE 120500Z VRB02KT 9999 SCT020 SCT090 21/18 A3005,SKPE,2015-02-12T05:00:00Z,4.82,-75.73,21.0,18.0,0,2,,6.21,30.050198,,,,,,,,,,,SCT,2000,SCT,9000,,,,,VFR,,,,,,,,,,,,METAR,1346.0
OETR 120500Z 24010KT 3000 BLDU SKC 03/M03 Q1016,OETR,2015-02-12T05:00:00Z,31.7,38.73,3.0,-3.0,240,10,,1.86,30.0,,,,,,,,,,BLDU,SKC,,,,,,,,IFR,,,,,,,,,,,,METAR,855.0
SGES 120500Z 24003KT 9999 FEW027 BKN080 25/24 Q1012,SGES,2015-02-12T05:00:00Z,-25.45,-54.85,25.0,24.0,240,3,,6.21,29.88189,,,,,,,,,,,FEW,2700,BKN,8000,,,,,VFR,,,,,,,,,,,,METAR,849.0
CZRP 120500Z AUTO 28012KT M36/M40 RMK AO1 SLP264 T13571397 53018,CZRP,2015-02-12T05:00:00Z,75.37,-105.72,-35.7,-39.7,280,12,,,,1026.4,,TRUE,TRUE,,,,,,,,,,,,,,,,1.8,,,,,,,,,,,METAR,12.0
CXYH 120500Z AUTO 36002KT M25/M28 RMK AO1 SOG 57 3015 SLP190 T12511281,CXYH,2015-02-12T05:00:00Z,61.25,-123.75,-25.1,-28.1,360,2,,,,1019.0,,TRUE,TRUE,,,,,,,,,,,,,,,,,,,,,,,,,,,METAR,204.0
CXVN 120500Z AUTO 25007KT M02/M03 RMK AO1 6009 SLP088 T10171031 50002,CXVN,2015-02-12T05:00:00Z,43.18,-79.4,-1.7,-3.1,250,7,,,,1008.8,,TRUE,TRUE,,,,,,,,,,,,,,,,0.2,,,,,,,,,,,METAR,79.0
CXTO 120500Z AUTO M01/M04 RMK AO1 SLP081 T10141044 56010,CXTO,2015-02-12T05:00:00Z,43.67,-79.4,-1.4,-4.4,,,,,,1008.1,,TRUE,TRUE,,,,,,,,,,,,,,,,-1.0,,,,,,,,,,,METAR,113.0
CXDK 120500Z AUTO 24001KT M28/M31 RMK AO1 SOG 37 SLP186 T12811313,CXDK,2015-02-12T05:00:00Z,61.27,-124.47,-28.1,-31.3,240,1,,,,1018.6,,TRUE,TRUE,,,,,,,,,,,,,,,,,,,,,,,,,,,METAR,283.0
CWMM 120500Z AUTO 31001KT 10/09 RMK AO1 SLP220 T00980088 51007,CWMM,2015-02-12T05:00:00Z,49.22,-122.68,9.8,8.8,310,1,,,,1022.0,,TRUE,TRUE,,,,,,,,,,,,,,,,0.7,,,,,,,,,,,METAR,5.0
CWDV 120500Z AUTO 35006KT M24/M26 RMK AO1 SOG 63 2027 PK WND 33018/0402 SLP330 T12361261 50002,CWDV,2015-02-12T05:00:00Z,49.02,-90.47,-23.6,-26.1,350,6,,,,1033.0,,TRUE,TRUE,,,,,,,,,,,,,,,,0.2,,,,,,,,,,,METAR,489.0
VTBO 120500Z 18010KT 7000 SCT023 31/22 Q1013,VTBO,2015-02-12T05:00:00Z,12.28,102.32,31.0,22.0,180,10,,4.35,29.911417,,,,,,,,,,,SCT,2300,,,,,,,MVFR,,,,,,,,,,,,METAR,32.0
CZHY 120500Z AUTO 18002KT M19/M22 RMK AO1 2PAST HR SOG 31 6017 SLP177 P0001 T11911220 50008,CZHY,2015-02-12T05:00:00Z,60.83,-115.78,-19.1,-22.0,180,2,,,,1017.7,,TRUE,TRUE,,,,,,,,,,,,,,,,0.8,,,,,0.01,,,,,,METAR,164.0
CWXC 120500Z AUTO 20002KT M16/M18 RMK AO1 SLP112 T11561184 56020,CWXC,2015-02-12T05:00:00Z,48.88,-71.03,-15.6,-18.4,200,2,,,,1011.2,,TRUE,TRUE,,,,,,,,,,,,,,,,-2.0,,,,,,,,,,,METAR,300.0
CWXA 120500Z AUTO 25009G17KT 07/M04 RMK AO1 PK WND 24020/0449 SLP175 T00721035 58024,CWXA,2015-02-12T05:00:00Z,51.07,-115.07,7.2,-3.5,250,9,17,,,1017.5,,TRUE,TRUE,,,,,,,,,,,,,,,,-2.4,,,,,,,,,,,METAR,1298.0
CWIJ 120500Z AUTO 26002KT M39/M44 RMK AO1 SOG 80 8022 SLP264 T13901436,CWIJ,2015-02-12T05:00:00Z,65.77,-111.23,-39.0,-43.6,260,2,,,,1026.4,,TRUE,TRUE,,,,,,,,,,,,,,,,,,,,,,,,,,,METAR,500.0
CWID 120500Z AUTO 35002KT M21/M24 RMK AO1 SLP192 T12141243 56009,CWID,2015-02-12T05:00:00Z,61.32,-117.6,-21.4,-24.3,350,2,,,,1019.2,,TRUE,TRUE,,,,,,,,,,,,,,,,-0.9,,,,,,,,,,,METAR,161.0
CWEK 120500Z AUTO 06027G32KT 06/ RMK AO1 2PAST HR 8009 PK WND 06035/0433 SLP096 P0005 T0056 50040,CWEK,2015-02-12T05:00:00Z,54.58,-130.7,5.6,,60,27,32,,,1009.6,,TRUE,TRUE,,,,,,,,,,,,,,,,4.0,,,,,0.05,,,,,,METAR,8.0
CWLB 120500Z AUTO 15006KT M17/M20 RMK AO1 SOG 20 6031 SLP276 T11741195,CWLB,2015-02-12T05:00:00Z,54.77,-112.02,-17.4,-19.5,150,6,,,,1027.6,,TRUE,TRUE,,,,,,,,,,,,,,,,,,,,,,,,,,,METAR,567.0
CXSR 120500Z AUTO 24014G19KT M01/M02 RMK AO1 SOG 60 5006 PK WND 23019/0453 SLP159 T10131016 50005,CXSR,2015-02-12T05:00:00Z,55.7,-119.23,-1.3,-1.6,240,14,19,,,1015.9,,TRUE,TRUE,,,,,,,,,,,,,,,,0.5,,,,,,,,,,,METAR,1015.0
CXET 120500Z AUTO 33008KT M04/M06 RMK AO1 SOG 16 5001 PK WND 33017/0449 SLP082 T10351056,CXET,2015-02-12T05:00:00Z,44.23,-79.78,-3.5,-5.6,330,8,,,,1008.2,,TRUE,TRUE,,,,,,,,,,,,,,,,,,,,,,,,,,,METAR,251.0
CXDI 120500Z AUTO 29005KT M03/M04 RMK AO1 2PAST HR 5004 SLP100 P0001 T10341035 50007,CXDI,2015-02-12T05:00:00Z,42.87,-80.55,-3.4,-3.5,290,5,,,,1010.0,,TRUE,TRUE,,,,,,,,,,,,,,,,0.7,,,,,0.01,,,,,,METAR,232.0
DAUU 120500Z 04016KT CAVOK 09/M06 Q1016,DAUU,2015-02-12T05:00:00Z,31.92,5.4,9.0,-6.0,40,16,,6.21,30.0,,,,,,,,,,,CAVOK,,,,,,,,VFR,,,,,,,,,,,,METAR,141.0
YESP 120500Z AUTO 13013KT 9999 // NCD 25/15 Q1015,YESP,2015-02-12T05:00:00Z,-33.68,121.82,25.0,15.0,130,13,,6.21,29.970472,,,TRUE,,,,,,,,,,,,,,,,,,,,,,,,,,,,METAR,143.0
YEML 120500Z AUTO 14011KT 9999 // SCT054 SCT105 32/17 Q1012,YEML,2015-02-12T05:00:00Z,-23.57,148.18,32.0,17.0,140,11,,6.21,29.88189,,,TRUE,,,,,,,,SCT,5400,SCT,10500,,,,,VFR,,,,,,,,,,,,METAR,190.0
YDBY 120500Z AUTO 23005KT //// // ////// 36/24 Q1007,YDBY,2015-02-12T05:00:00Z,-17.37,123.67,36.0,24.0,230,5,,,29.734253,,,TRUE,,,,,,,,,,,,,,,,,,,,,,,,,,,,METAR,7.0
YCNM 120500Z AUTO 07003KT //// // ////// 34/10 Q1015,YCNM,2015-02-12T05:00:00Z,-30.98,148.38,34.0,10.0,70,3,,,29.970472,,,TRUE,,,,,,,,,,,,,,,,,,,,,,,,,,,,METAR,184.0
YCDU 120500Z AUTO 18014KT 9999 // NCD 30/15 Q1013,YCDU,2015-02-12T05:00:00Z,-32.12,133.7,30.0,15.0,180,14,,6.21,29.911417,,,TRUE,,,,,,,,,,,,,,,,,,,,,,,,,,,,METAR,15.0
FYWB 120500Z 01005KT 0500 FG ////// 14/12 Q1014 REFG,FYWB,2015-02-12T05:00:00Z,-22.98,14.65,14.0,12.0,10,5,,0.31,29.940945,,,,,,,,,,FG,,,,,,,,,,,,,,,,,,,,,METAR,46.0
YRMD 120500Z AUTO 07011KT 060V120 //// // ////// 37/12 Q1008,YRMD,2015-02-12T05:00:00Z,-20.7,143.12,37.0,12.0,70,11,,,29.763779,,,TRUE,,,,,,,,,,,,,,,,,,,,,,,,,,,,METAR,207.0
YBPN 120500Z AUTO 11015KT 9999 // NCD 30/22 Q1010,YBPN,2015-02-12T05:00:00Z,-20.5,148.55,30.0,22.0,110,15,,6.21,29.822834,,,TRUE,,,,,,,,,,,,,,,,,,,,,,,,,,,,METAR,25.0
YBOK 120500Z 11017KT 9999 FEW033 SCT055 29/16 Q1017 NOSIG,YBOK,2015-02-12T05:00:00Z,-27.42,151.72,29.0,16.0,110,17,,6.21,30.029528,,,,,,TRUE,,,,,FEW,3300,SCT,5500,,,,,VFR,,,,,,,,,,,,METAR,407.0
YBNA 120500Z AUTO 11007KT 9999 // SCT022 SCT035 BKN046 24/21 Q1019,YBNA,2015-02-12T05:00:00Z,-28.83,153.57,24.0,21.0,110,7,,6.21,30.088583,,,TRUE,,,,,,,,SCT,2200,SCT,3500,BKN,4600,,,VFR,,,,,,,,,,,,METAR,2.0
YBMK 120500Z AUTO 13018KT 9999 // SCT019 BKN029 BKN041 29/25 Q1011,YBMK,2015-02-12T05:00:00Z,-21.17,149.17,29.0,25.0,130,18,,6.21,29.852362,,,TRUE,,,,,,,,SCT,1900,BKN,2900,BKN,4100,,,MVFR,,,,,,,,,,,,METAR,31.0
YBHI 120500Z AUTO 01006KT 320V060 9999 // SCT120 37/08 Q1015,YBHI,2015-02-12T05:00:00Z,-32.0,141.47,37.0,8.0,10,6,,6.21,29.970472,,,TRUE,,,,,,,,SCT,12000,,,,,,,VFR,,,,,,,,,,,,METAR,292.0
YPBO 120500Z AUTO 21007KT 180V270 9999 // NCD 42/10 Q1010,YPBO,2015-02-12T05:00:00Z,-23.2,117.75,42.0,10.0,210,7,,6.21,29.822834,,,TRUE,,,,,,,,,,,,,,,,,,,,,,,,,,,,METAR,1292.0
YOLD 120500Z AUTO 06011KT 9999 // ////// 40/03 Q1013,YOLD,2015-02-12T05:00:00Z,-30.48,136.88,40.0,3.0,60,11,,6.21,29.911417,,,TRUE,,,,,,,,,,,,,,,,,,,,,,,,,,,,METAR,105.0
YNWN 120500Z AUTO 33004KT 270V080 //// // ////// 41/09 Q1010,YNWN,2015-02-12T05:00:00Z,-23.42,119.8,41.0,9.0,330,4,,,29.822834,,,TRUE,,,,,,,,,,,,,,,,,,,,,,,,,,,,METAR,525.0
YNTN 120500Z AUTO 13004KT //// // ////// 35/17 Q1006,YNTN,2015-02-12T05:00:00Z,-17.68,141.07,35.0,17.0,130,4,,,29.704725,,,TRUE,,,,,,,,,,,,,,,,,,,,,,,,,,,,METAR,22.0
YNBR 120500Z AUTO 11008KT 070V150 //// // ////// 34/09 Q1015,YNBR,2015-02-12T05:00:00Z,-30.32,149.83,34.0,9.0,110,8,,,29.970472,,,TRUE,,,,,,,,,,,,,,,,,,,,,,,,,,,,METAR,240.0
YNAR 120500Z AUTO 09005KT 070V130 //// // ////// 32/15 Q1018,YNAR,2015-02-12T05:00:00Z,-34.7,146.52,32.0,15.0,90,5,,,30.059055,,,TRUE,,,,,,,,,,,,,,,,,,,,,,,,,,,,METAR,145.0
YMTG 120500Z AUTO 10009KT 9999 // NCD 26/09 Q1020,YMTG,2015-02-12T05:00:00Z,-37.75,140.78,26.0,9.0,100,9,,6.21,30.11811,,,TRUE,,,,,,,,,,,,,,,,,,,,,,,,,,,,METAR,65.0
YLIS 120500Z AUTO 12012KT 9999 // NCD 28/18 Q1018,YLIS,2015-02-12T05:00:00Z,-28.83,153.27,28.0,18.0,120,12,,6.21,30.059055,,,TRUE,,,,,,,,,,,,,,,,,,,,,,,,,,,,METAR,11.0
YLEC 120500Z AUTO 13010KT //// // ////// 40/01 Q1014,YLEC,2015-02-12T05:00:00Z,-30.6,138.43,40.0,1.0,130,10,,,29.940945,,,TRUE,,,,,,,,,,,,,,,,,,,,,,,,,,,,METAR,262.0
YKRY 120500Z AUTO 11012KT //// // ////// 28/17 Q1017,YKRY,2015-02-12T05:00:00Z,-26.57,151.83,28.0,17.0,110,12,,,30.029528,,,TRUE,,,,,,,,,,,,,,,,,,,,,,,,,,,,METAR,434.0
YHUG 120500Z AUTO 08013KT //// // ////// 34/12 Q1009,YHUG,2015-02-12T05:00:00Z,-20.82,144.23,34.0,12.0,80,13,,,29.793306,,,TRUE,,,,,,,,,,,,,,,,,,,,,,,,,,,,METAR,318.0
YGTH 120500Z AUTO 11010KT 9999 // NCD 32/14 Q1017,YGTH,2015-02-12T05:00:00Z,-34.25,146.07,32.0,14.0,110,10,,6.21,30.029528,,,TRUE,,,,,,,,,,,,,,,,,,,,,,,,,,,,METAR,134.0
YGTE 120500Z AUTO 29009KT 9999 // BKN030 BKN038 BKN062 30/26 Q1006,YGTE,2015-02-12T05:00:00Z,-13.97,136.45,30.0,26.0,290,9,,6.21,29.704725,,,TRUE,,,,,,,,BKN,3000,BKN,3800,BKN,6200,,,MVFR,,,,,,,,,,,,METAR,14.0
YGLA 120500Z AUTO 09018KT 9999 // NCD 30/20 Q1013,YGLA,2015-02-12T05:00:00Z,-23.87,151.22,30.0,20.0,90,18,,6.21,29.911417,,,TRUE,,,,,,,,,,,,,,,,,,,,,,,,,,,,METAR,52.0
YGFN 120500Z AUTO 11008KT 080V140 9999 // SCT035 28/19 Q1019,YGFN,2015-02-12T05:00:00Z,-29.77,153.03,28.0,19.0,110,8,,6.21,30.088583,,,TRUE,,,,,,,,SCT,3500,,,,,,,VFR,,,,,,,,,,,,METAR,34.0
DAOV 120500Z 16009KT CAVOK 07/05 Q1016,DAOV,2015-02-12T05:00:00Z,35.2,0.15,7.0,5.0,160,9,,6.21,30.0,,,,,,,,,,,CAVOK,,,,,,,,VFR,,,,,,,,,,,,METAR,514.0
RKSM 120500Z 32008KT 9999 FEW030 02/M15 A2994,RKSM,2015-02-12T05:00:00Z,37.42,127.12,2.0,-15.0,320,8,,6.21,29.940945,,,,,,,,,,,FEW,3000,,,,,,,VFR,,,,,,,,,,,,METAR,20.0
HEMA 120500Z 30006KT 4000 DU NSC 11/M03 Q1021 NOSIG,HEMA,2015-02-12T05:00:00Z,25.55,34.58,11.0,-3.0,300,6,,2.49,30.147638,,,,,,TRUE,,,,DU,,,,,,,,,,,,,,,,,,,,,METAR,77.0
HESG 120500Z 03002KT 4000 DU NSC 07/M04 Q1021 NOSIG,HESG,2015-02-12T05:00:00Z,26.33,31.75,7.0,-4.0,30,2,,2.49,30.147638,,,,,,TRUE,,,,DU,,,,,,,,,,,,,,,,,,,,,METAR,70.0
HESC 120500Z 27008KT CAVOK M01/M07 Q1020 NOSIG,HESC,2015-02-12T05:00:00Z,28.68,34.07,-1.0,-7.0,270,8,,6.21,30.11811,,,,,,TRUE,,,,,CAVOK,,,,,,,,VFR,,,,,,,,,,,,METAR,1332.0
HEBL 120500Z 34008KT CAVOK 10/M01 Q1022 NOSIG,HEBL,2015-02-12T05:00:00Z,22.38,31.62,10.0,-1.0,340,8,,6.21,30.177166,,,,,,TRUE,,,,,CAVOK,,,,,,,,VFR,,,,,,,,,,,,METAR,188.0
HEBA 120500Z 24012KT 9999 SCT020 05/03 Q1016 NOSIG,HEBA,2015-02-12T05:00:00Z,30.92,29.7,5.0,3.0,240,12,,6.21,30.0,,,,,,TRUE,,,,,SCT,2000,,,,,,,VFR,,,,,,,,,,,,METAR,54.0
HESH 120500Z 28008KT 0800 R04R/0800 DU NSC 12/M03 Q1018 NOSIG,HESH,2015-02-12T05:00:00Z,27.97,34.38,12.0,-3.0,280,8,,0.5,30.059055,,,,,,TRUE,,,,DU,,,,,,,,,,,,,,,,,,,,,METAR,50.0
HEPS 120500Z 25016KT CAVOK 08/06 Q1017 NOSIG,HEPS,2015-02-12T05:00:00Z,31.28,32.25,8.0,6.0,250,16,,6.21,30.029528,,,,,,TRUE,,,,,CAVOK,,,,,,,,VFR,,,,,,,,,,,,METAR,6.0
HEGN 120500Z 31013KT 3000 SA NSC 11/M06 Q1021 NOSIG,HEGN,2015-02-12T05:00:00Z,27.18,33.8,11.0,-6.0,310,13,,1.86,30.147638,,,,,,TRUE,,,,SA,,,,,,,,,,,,,,,,,,,,,METAR,14.0
HEAR 120500Z 23007KT 4000 DU NSC 08/M01 Q1018 NOSG,HEAR,2015-02-12T05:00:00Z,31.07,33.82,8.0,-1.0,230,7,,2.49,30.059055,,,,,,TRUE,,,,DU,,,,,,,,,,,,,,,,,,,,,METAR,32.0
HESN 120500Z 00000KT 6000 NSC 09/M02 Q1023 NOSIG,HESN,2015-02-12T05:00:00Z,23.97,32.82,9.0,-2.0,0,0,,3.73,30.206694,,,,,,TRUE,,,,,,,,,,,,,,,,,,,,,,,,,METAR,194.0
HELX 120500Z 27002KT 3000 DU NSC 09/01 Q1022 NOSIG,HELX,2015-02-12T05:00:00Z,25.67,32.7,9.0,1.0,270,2,,1.86,30.177166,,,,,,TRUE,,,,DU,,,,,,,,,,,,,,,,,,,,,METAR,88.0
HEAX 120500Z 24012KT 9999 SCT020 08/06 Q1015 NOSIG,HEAX,2015-02-12T05:00:00Z,31.18,29.93,8.0,6.0,240,12,,6.21,29.970472,,,,,,TRUE,,,,,SCT,2000,,,,,,,VFR,,,,,,,,,,,,METAR,7.0
HEMM 120500Z 25020KT 9999 SCT020 BKN022 BKN100 07/04 Q1018 NOSIG,HEMM,2015-02-12T05:00:00Z,31.32,27.22,7.0,4.0,250,20,,6.21,30.059055,,,,,,TRUE,,,,,SCT,2000,BKN,2200,BKN,10000,,,MVFR,,,,,,,,,,,,METAR,30.0
VIAR 120500Z 00000KT 1100 RMID/1100 HZ FEW250 17/11 Q1019,VIAR,2015-02-12T05:00:00Z,31.7,74.8,17.0,11.0,0,0,,0.68,30.088583,,,,,,,,,,HZ,FEW,25000,,,,,,,LIFR,,,,,,,,,,,,METAR,234.0
CZKD 120500Z AUTO 24004KT M31/M34 RMK AO1 SOG 50 6012 SLP391 T13051344,CZKD,2015-02-12T05:00:00Z,56.03,-96.52,-30.5,-34.4,240,4,,,,1039.1,,TRUE,TRUE,,,,,,,,,,,,,,,,,,,,,,,,,,,METAR,183.0
CXSE 120500Z AUTO 27008KT M40/M45 RMK AO1 SLP249 T14041448 53018,CXSE,2015-02-12T05:00:00Z,73.77,-105.28,-40.4,-44.8,270,8,,,,1024.9,,TRUE,TRUE,,,,,,,,,,,,,,,,1.8,,,,,,,,,,,METAR,11.0
CWJW 120500Z AUTO 14003KT 03/M01 RMK AO1 SOG 26 3003 SLP202 T00271009,CWJW,2015-02-12T05:00:00Z,52.93,-118.03,2.7,-0.9,140,3,,,,1020.2,,TRUE,TRUE,,,,,,,,,,,,,,,,,,,,,,,,,,,METAR,1020.0
CWJT 120500Z AUTO 10001KT M13/M15 RMK AO1 8015 SLP100 T11271148 50020,CWJT,2015-02-12T05:00:00Z,46.07,-74.57,-12.7,-14.8,100,1,,,,1010.0,,TRUE,TRUE,,,,,,,,,,,,,,,,2.0,,,,,,,,,,,METAR,239.0
CWGL 120500Z AUTO 31021G33KT M05/M06 RMK AO1 PK WND 31033/0451 SLP070 T10511061 55005,CWGL,2015-02-12T05:00:00Z,44.52,-79.22,-5.1,-6.1,310,21,33,,,1007.0,,TRUE,TRUE,,,,,,,,,,,,,,,,-0.5,,,,,,,,,,,METAR,221.0
CWFF 120500Z AUTO 18007KT M26/M29 RMK AO1 SOG 15 8023 SLP405 T12571291,CWFF,2015-02-12T05:00:00Z,52.82,-104.58,-25.7,-29.1,180,7,,,,1040.5,,TRUE,TRUE,,,,,,,,,,,,,,,,,,,,,,,,,,,METAR,490.0
VTSC 120500Z 12010KT 060V150 9000 FEW022 BKN200 28/21 Q1013 A2993 RWY20 INFO D,VTSC,2015-02-12T05:00:00Z,6.52,101.75,28.0,21.0,120,10,,5.59,29.911417,,,,,,,,,,,FEW,2200,BKN,20000,,,,,VFR,,,,,,,,,,,,METAR,6.0
CWWK 120500Z AUTO 00000KT 10/09 RMK AO1 SOG 00 1008 SLP222 T01020086,CWWK,2015-02-12T05:00:00Z,49.02,-122.78,10.2,8.6,0,0,,,,1022.2,,TRUE,TRUE,,,,,,,,,,,,,,,,,,,,,,,,,,,METAR,15.0
CWVI 120500Z AUTO 17012KT M14/M17 RMK AO1 PK WND 16021/0412 SLP272 T11431166 56037,CWVI,2015-02-12T05:00:00Z,53.52,-112.1,-14.3,-16.6,170,12,,,,1027.2,,TRUE,TRUE,,,,,,,,,,,,,,,,-3.7,,,,,,,,,,,METAR,639.0
CWIY 120500Z AUTO 08002KT M19/M23 RMK AO1 SLP165 T11911227 58012,CWIY,2015-02-12T05:00:00Z,47.13,-67.82,-19.1,-22.7,80,2,,,,1016.5,,TRUE,TRUE,,,,,,,,,,,,,,,,-1.2,,,,,,,,,,,METAR,241.0
CWHT 120500Z AUTO 07002KT M16/M18 RMK AO1 SOG 36 3011 SLP083 T11611181,CWHT,2015-02-12T05:00:00Z,60.77,-137.58,-16.1,-18.1,70,2,,,,1008.3,,TRUE,TRUE,,,,,,,,,,,,,,,,,,,,,,,,,,,METAR,599.0
CWDJ 120500Z AUTO 15009KT M24/M28 RMK AO1 SOG 02 8017 SLP407 T12381281 50002,CWDJ,2015-02-12T05:00:00Z,50.4,-104.58,-23.8,-28.1,150,9,,,,1040.7,,TRUE,TRUE,,,,,,,,,,,,,,,,0.2,,,,,,,,,,,METAR,573.0
CWRA 120500Z AUTO 06030G42KT M04/ RMK AO1 PRESFR PK WND 05042/0452 SLP121 T1042 58041,CWRA,2015-02-12T05:00:00Z,46.63,-53.07,-4.2,,60,30,42,,,1012.1,,TRUE,TRUE,,,,,,,,,,,,,,,,-4.1,,,,,,,,,,,METAR,28.0
CWHO 120500Z AUTO 21007KT M25/M31 RMK AO1 SLP228 T12481311 56015,CWHO,2015-02-12T05:00:00Z,55.45,-60.22,-24.8,-31.1,210,7,,,,1022.8,,TRUE,TRUE,,,,,,,,,,,,,,,,-1.5,,,,,,,,,,,METAR,8.0
CWDO 120500Z AUTO M18/M22 RMK AO1 19 0444Z SOG 16 6020 SLP211 T11791218,CWDO,2015-02-12T05:00:00Z,49.67,-54.78,-17.9,-21.8,,,,,,1021.1,,TRUE,TRUE,,,,,,,,,,,,,,,,,,,,,,,,,,,METAR,92.0
CXHM 120500Z AUTO 26003KT M02/M03 RMK AO1 6007 SLP090 T10211031 50003,CXHM,2015-02-12T05:00:00Z,43.28,-79.9,-2.1,-3.1,260,3,,,,1009.0,,TRUE,TRUE,,,,,,,,,,,,,,,,0.3,,,,,,,,,,,METAR,107.0
CWNZ 120500Z AUTO 34012G19KT M23/M26 RMK AO1 1027 PK WND 33019/0458 SLP262 T12331260 50002,CWNZ,2015-02-12T05:00:00Z,49.75,-84.17,-23.3,-26.0,340,12,19,,,1026.2,,TRUE,TRUE,,,,,,,,,,,,,,,,0.2,,,,,,,,,,,METAR,256.0
CWNC 120500Z AUTO 29008KT M02/M03 RMK AO1 SOG 14 7014 SLP067 T10161034 50007,CWNC,2015-02-12T05:00:00Z,43.95,-78.17,-1.6,-3.4,290,8,,,,1006.7,,TRUE,TRUE,,,,,,,,,,,,,,,,0.7,,,,,,,,,,,METAR,78.0
CWLS 120500Z AUTO 31009KT M06/M08 RMK AO1 SOG 26 3002 SLP097 T10631083 50005,CWLS,2015-02-12T05:00:00Z,43.97,-80.75,-6.3,-8.3,310,9,,,,1009.7,,TRUE,TRUE,,,,,,,,,,,,,,,,0.5,,,,,,,,,,,METAR,415.0
CZDB 120500Z AUTO 02011G16KT M13/M16 RMK AO1 SLP119 T11311156 56039,CZDB,2015-02-12T05:00:00Z,45.42,-63.47,-13.1,-15.6,20,11,16,,,1011.9,,TRUE,TRUE,,,,,,,,,,,,,,,,-3.9,,,,,,,,,,,METAR,38.0
CTRA 120500Z AUTO 01005KT M24/M27 RMK AO1 SLP402 T12401268 51018,CTRA,2015-02-12T05:00:00Z,49.67,-93.73,-24.0,-26.8,10,5,,,,1040.2,,TRUE,TRUE,,,,,,,,,,,,,,,,1.8,,,,,,,,,,,METAR,435.0
CTNK 120500Z AUTO 00000KT M08/M10 RMK AO1 2PAST HR SOG 53 6014 SLP059 P0001 T10821095 50015,CTNK,2015-02-12T05:00:00Z,45.53,-78.27,-8.2,-9.5,0,0,,,,1005.9,,TRUE,TRUE,,,,,,,,,,,,,,,,1.5,,,,,0.01,,,,,,METAR,410.0
CXWN 120500Z AUTO 02005KT M24/M28 RMK AO1 SLP422 T12391284 58008,CXWN,2015-02-12T05:00:00Z,49.88,-97.13,-23.9,-28.4,20,5,,,,1042.2,,TRUE,TRUE,,,,,,,,,,,,,,,,-0.8,,,,,,,,,,,METAR,230.0
CXTP 120500Z AUTO 03005KT M15/M17 RMK AO1 SOG 26 7023 SLP185 T11511170,CXTP,2015-02-12T05:00:00Z,48.55,-53.97,-15.1,-17.0,30,5,,,,1018.5,,TRUE,TRUE,,,,,,,,,,,,,,,,,,,,,,,,,,,METAR,107.0
CXRH 120500Z AUTO 15005KT M17/M20 RMK AO1 SOG 102 T11691202,CXRH,2015-02-12T05:00:00Z,49.57,-57.88,-16.9,-20.2,150,5,,,,,,TRUE,TRUE,,,,,,,,,,,,,,,,,,,,,,,,,,,METAR,68.0
CXMY 120500Z AUTO M08/M11 RMK AO1 T10821111,CXMY,2015-02-12T05:00:00Z,44.98,-62.48,-8.2,-11.1,,,,,,,,TRUE,TRUE,,,,,,,,,,,,,,,,,,,,,,,,,,,METAR,40.0
CXMM 120500Z AUTO 14010KT M16/M19 RMK AO1 SOG 25 6050 PK WND 14017/0403 SLP249 T11601189,CXMM,2015-02-12T05:00:00Z,56.65,-111.22,-16.0,-18.9,140,10,,,,1024.9,,TRUE,TRUE,,,,,,,,,,,,,,,,,,,,,,,,,,,METAR,369.0
CXMD 120500Z AUTO 32005KT M24/M27 RMK AO1 SOG 12 8003 SLP433 T12391271,CXMD,2015-02-12T05:00:00Z,49.22,-98.08,-23.9,-27.1,320,5,,,,1043.3,,TRUE,TRUE,,,,,,,,,,,,,,,,,,,,,,,,,,,METAR,301.0
CXEG 120500Z AUTO M10/M12 RMK AO1 SOG 15 T11041115,CXEG,2015-02-12T05:00:00Z,53.3,-113.6,-10.4,-11.5,,,,,,,,TRUE,TRUE,,,,,,,,,,,,,,,,,,,,,,,,,,,METAR,715.0
CXEC 120500Z AUTO M10/ RMK AO1 T1104,CXEC,2015-02-12T05:00:00Z,53.57,-113.52,-10.4,,,,,,,,,TRUE,TRUE,,,,,,,,,,,,,,,,,,,,,,,,,,,METAR,671.0
CXEA 120500Z AUTO 32005KT M26/M29 RMK AO1 SOG 49 1020 SLP399 T12591289 50002,CXEA,2015-02-12T05:00:00Z,50.63,-93.22,-25.9,-28.9,320,5,,,,1039.9,,TRUE,TRUE,,,,,,,,,,,,,,,,0.2,,,,,,,,,,,METAR,355.0
CXDE 120500Z AUTO 27004KT M28/M31 RMK AO1 SOG 15 3005 SLP248 T12811313,CXDE,2015-02-12T05:00:00Z,65.22,-123.43,-28.1,-31.3,270,4,,,,1024.8,,TRUE,TRUE,,,,,,,,,,,,,,,,,,,,,,,,,,,METAR,213.0
CXCA 120500Z AUTO 36016G27KT M21/M24 RMK AO1 PK WND 35027/0453 SLP324 T12131241 52031,CXCA,2015-02-12T05:00:00Z,49.15,-88.35,-21.3,-24.1,360,16,27,,,1032.4,,TRUE,TRUE,,,,,,,,,,,,,,,,3.1,,,,,,,,,,,METAR,228.0
CZSM 120500Z AUTO 10005KT M21/M24 RMK AO1 3PAST HR PRESFR SOG 38 6049 SLP195 P0001 T12141244 50003,CZSM,2015-02-12T05:00:00Z,60.03,-111.93,-21.4,-24.4,100,5,,,,1019.5,,TRUE,TRUE,,,,,,,,,,,,,,,,0.3,,,,,0.01,,,,,,METAR,203.0
WMKC 120500Z 08009KT 050V130 9999 SCT018 BKN280 29/22 Q1013,WMKC,2015-02-12T05:00:00Z,6.17,102.27,29.0,22.0,80,9,,6.21,29.911417,,,,,,,,,,,SCT,1800,BKN,28000,,,,,VFR,,,,,,,,,,,,METAR,5.0
CYED 120500Z AUTO 17008KT 9SM OVC071 M11/M16 A3008 RMK SLP241,CYED,2015-02-12T05:00:00Z,53.67,-113.47,-11.0,-16.0,170,8,,9.0,30.079725,1024.1,,TRUE,,,,,,,,OVC,7100,,,,,,,VFR,,,,,,,,,,,,SPECI,688.0
SBSR 120500Z 00000KT CAVOK 23/21 Q1016,SBSR,2015-02-12T05:00:00Z,-20.8,-49.4,23.0,21.0,0,0,,6.21,30.0,,,,,,,,,,,CAVOK,,,,,,,,VFR,,,,,,,,,,,,METAR,543.0
VRMM 120500Z 05010KT 9000 SCT018 30/25 Q1013 NOSIG,VRMM,2015-02-12T05:00:00Z,4.2,73.52,30.0,25.0,50,10,,5.59,29.911417,,,,,,TRUE,,,,,SCT,1800,,,,,,,VFR,,,,,,,,,,,,METAR,2.0
CWKO 120500Z AUTO 15012KT M18/M20 RMK AO1 SOG 01 6018 SLP371 T11751202,CWKO,2015-02-12T05:00:00Z,49.17,-105.97,-17.5,-20.2,150,12,,,,1037.1,,TRUE,TRUE,,,,,,,,,,,,,,,,,,,,,,,,,,,METAR,917.0
CWJD 120500Z AUTO 28002KT M28/M31 RMK AO1 SOG 45 5002 SLP441 T12841313,CWJD,2015-02-12T05:00:00Z,53.17,-99.27,-28.4,-31.3,280,2,,,,1044.1,,TRUE,TRUE,,,,,,,,,,,,,,,,,,,,,,,,,,,METAR,223.0
CWEQ 120500Z AUTO 22007KT M27/M31 RMK AO1 SLP436 T12711306 56004,CWEQ,2015-02-12T05:00:00Z,52.12,-101.22,-27.1,-30.6,220,7,,,,1043.6,,TRUE,TRUE,,,,,,,,,,,,,,,,-0.4,,,,,,,,,,,METAR,335.0
CWOY 120500Z AUTO 15006KT M26/M29 RMK AO1 SOG 10 8022 SLP408 T12571293,CWOY,2015-02-12T05:00:00Z,51.77,-104.2,-25.7,-29.3,150,6,,,,1040.8,,TRUE,TRUE,,,,,,,,,,,,,,,,,,,,,,,,,,,METAR,560.0
CWLP 120500Z AUTO 12028G34KT 10/07 RMK AO1 0010 PK WND 12035/0425 SLP153 T01020074 50016,CWLP,2015-02-12T05:00:00Z,50.93,-127.63,10.2,7.4,120,28,34,,,1015.3,,TRUE,TRUE,,,,,,,,,,,,,,,,1.6,,,,,,,,,,,METAR,17.0
CPBT 120500Z AUTO 21008KT 01/M02 RMK AO1 T00081018,CPBT,2015-02-12T05:00:00Z,49.57,-113.05,0.8,-1.8,210,8,,,,,,TRUE,TRUE,,,,,,,,,,,,,,,,,,,,,,,,,,,METAR,980.0
CWZV 120500Z AUTO 16019KT 09/09 RMK AO1 PK WND 17025/0410 SLP087 T00940089 53005,CWZV,2015-02-12T05:00:00Z,51.93,-131.02,9.4,8.9,160,19,,,,1008.7,,TRUE,TRUE,,,,,,,,,,,,,,,,0.5,,,,,,,,,,,METAR,92.0
CWZL 120500Z AUTO 16016KT 10/09 RMK AO1 PK WND 16018/0456 SLP073 T00970090 55003,CWZL,2015-02-12T05:00:00Z,53.03,-131.6,9.7,9.0,160,16,,,,1007.3,,TRUE,TRUE,,,,,,,,,,,,,,,,-0.3,,,,,,,,,,,METAR,17.0
CWCF 120500Z AUTO 28002KT M33/M36 RMK AO1 SOG 26 8001 SLP429 T13301355,CWCF,2015-02-12T05:00:00Z,52.35,-97.03,-33.0,-35.5,280,2,,,,1042.9,,TRUE,TRUE,,,,,,,,,,,,,,,,,,,,,,,,,,,METAR,222.0
CXSC 120500Z AUTO 12009KT M07/M09 RMK AO1 T10681087,CXSC,2015-02-12T05:00:00Z,50.3,-110.08,-6.8,-8.7,120,9,,,,,,TRUE,TRUE,,,,,,,,,,,,,,,,,,,,,,,,,,,METAR,800.0
CWRU 120500Z AUTO 12035G42KT 09/09 RMK AO1 2PAST HR 1021 PK WND 12044/0403 SLP141 P0001 T00920089 50016,CWRU,2015-02-12T05:00:00Z,50.12,-127.93,9.2,8.9,120,35,42,,,1014.1,,TRUE,TRUE,,,,,,,,,,,,,,,,1.6,,,,,0.01,,,,,,METAR,98.0
CWQS 120500Z AUTO 17025G30KT 10/10 RMK AO1 4PAST HR 3001 PK WND 17030/0457 SLP057 P0002 T01010096 50032,CWQS,2015-02-12T05:00:00Z,53.32,-132.77,10.1,9.6,170,25,30,,,1005.7,,TRUE,TRUE,,,,,,,,,,,,,,,,3.2,,,,,0.02,,,,,,METAR,14.0
CWME 120500Z AUTO 05015G21KT 06/05 RMK AO1 6PAST HR 0015 PK WND 04023/0437 SLP160 P0002 T00630049 50050,CWME,2015-02-12T05:00:00Z,52.18,-127.47,6.3,4.9,50,15,21,,,1016.0,,TRUE,TRUE,,,,,,,,,,,,,,,,5.0,,,,,0.02,,,,,,METAR,32.0
CXTV 120500Z AUTO 00000KT M37/M41 RMK AO1 SLP270 T13691411 53002,CXTV,2015-02-12T05:00:00Z,68.75,-133.5,-36.9,-41.1,0,0,,,,1027.0,,TRUE,TRUE,,,,,,,,,,,,,,,,0.2,,,,,,,,,,,METAR,85.0
CWHP 120500Z AUTO 06017KT M14/M17 RMK AO1 PK WND 05021/0416 SLP189 T11421169 58028,CWHP,2015-02-12T05:00:00Z,49.07,-61.7,-14.2,-16.9,60,17,,,,1018.9,,TRUE,TRUE,,,,,,,,,,,,,,,,-2.8,,,,,,,,,,,METAR,4.0
CWWX 120500Z AUTO 34022G27KT M06/M08 RMK AO1 PK WND 33029/0424 SLP089 T10611080 56002,CWWX,2015-02-12T05:00:00Z,45.32,-81.73,-6.1,-8.0,340,22,27,,,1008.9,,TRUE,TRUE,,,,,,,,,,,,,,,,-0.2,,,,,,,,,,,METAR,181.0
CXPA 120500Z AUTO 08006KT M11/M12 RMK AO1 T11051115,CXPA,2015-02-12T05:00:00Z,55.62,-118.3,-10.5,-11.5,80,6,,,,,,TRUE,TRUE,,,,,,,,,,,,,,,,,,,,,,,,,,,METAR,621.0
CXOY 120500Z AUTO 15017KT M15/M16 RMK AO1 PK WND 14022/0415 T11471164,CXOY,2015-02-12T05:00:00Z,51.38,-110.35,-14.7,-16.4,150,17,,,,,,TRUE,TRUE,,,,,,,,,,,,,,,,,,,,,,,,,,,METAR,767.0
CXKM 120500Z AUTO 16013KT M14/M16 RMK AO1 PK WND 16021/0441 T11431155,CXKM,2015-02-12T05:00:00Z,52.82,-111.85,-14.3,-15.5,160,13,,,,,,TRUE,TRUE,,,,,,,,,,,,,,,,,,,,,,,,,,,METAR,675.0
CXHR 120500Z AUTO 15015KT M10/M11 RMK AO1 PK WND 15018/0445 T10991108,CXHR,2015-02-12T05:00:00Z,51.18,-112.5,-9.9,-10.8,150,15,,,,,,TRUE,TRUE,,,,,,,,,,,,,,,,,,,,,,,,,,,METAR,971.0
CXFR 120500Z AUTO 02005KT M12/M14 RMK AO1 T11241144,CXFR,2015-02-12T05:00:00Z,56.08,-118.43,-12.4,-14.4,20,5,,,,,,TRUE,TRUE,,,,,,,,,,,,,,,,,,,,,,,,,,,METAR,655.0
CXDP 120500Z AUTO 15013KT M11/M13 RMK AO1 T11071130,CXDP,2015-02-12T05:00:00Z,54.32,-113.95,-10.7,-13.0,150,13,,,,,,TRUE,TRUE,,,,,,,,,,,,,,,,,,,,,,,,,,,METAR,614.0
CXBR 120500Z AUTO 25026KT 07/01 RMK AO1 PK WND 25033/0453 T00680005,CXBR,2015-02-12T05:00:00Z,49.62,-113.82,6.8,0.5,250,26,,,,,,TRUE,TRUE,,,,,,,,,,,,,,,,,,,,,,,,,,,METAR,1073.0
CXAF 120500Z AUTO 16011KT M15/M17 RMK AO1 PK WND 16017/0433 T11461167,CXAF,2015-02-12T05:00:00Z,54.28,-112.97,-14.6,-16.7,160,11,,,,,,TRUE,TRUE,,,,,,,,,,,,,,,,,,,,,,,,,,,METAR,664.0
CWJU 120500Z AUTO 12011G17KT 09/08 RMK AO1 3PAST HR 5004 PK WND 11021/0433 SLP051 P0001 T00880080 50044,CWJU,2015-02-12T05:00:00Z,54.25,-133.07,8.8,8.0,120,11,17,,,1005.1,,TRUE,TRUE,,,,,,,,,,,,,,,,4.4,,,,,0.01,,,,,,METAR,41.0
HKRE 120500Z 00000KT 9999 FEW019 SCT280 17/10 Q1023,HKRE,2015-02-12T05:00:00Z,-1.28,36.87,17.0,10.0,0,0,,6.21,30.206694,,,,,,,,,,,FEW,1900,SCT,28000,,,,,VFR,,,,,,,,,,,,METAR,1627.0
HKML 120500Z 00000KT 9999 BKN020TCU 26/23 Q1013,HKML,2015-02-12T05:00:00Z,-3.22,40.1,26.0,23.0,0,0,,6.21,29.911417,,,,,,,,,,,BKN,2000,,,,,,,MVFR,,,,,,,,,,,,METAR,23.0
HKKS 120500Z 09003KT 9999 FEW020 18/12,HKKS,2015-02-12T05:00:00Z,-0.67,34.77,18.0,12.0,90,3,,6.21,,,,,,,,,,,,FEW,2000,,,,,,,VFR,,,,,,,,,,,,METAR,1493.0
FEFF 120500Z 00000KT 9999 FEW010 SCT300 23/22 Q1010 NOSIG,FEFF,2015-02-12T05:00:00Z,4.4,18.52,23.0,22.0,0,0,,6.21,29.822834,,,,,,TRUE,,,,,FEW,1000,SCT,30000,,,,,VFR,,,,,,,,,,,,METAR,366.0
FCPP 120500Z 26008KT 210V300 7000 TS FEW006 SCT020 SCT030CB 23/22 Q1009 TEMPO 4000 TSRA,FCPP,2015-02-12T05:00:00Z,-4.82,11.9,23.0,22.0,260,8,,4.35,29.793306,,,,,,,,,,TS,FEW,600,SCT,2000,SCT,3000,,,MVFR,,,,,,,,,,,,METAR,17.0
FCBB 120500Z 24004KT 8000 NSC 24/22 Q1012 NOSIG,FCBB,2015-02-12T05:00:00Z,-4.25,15.25,24.0,22.0,240,4,,4.97,29.88189,,,,,,TRUE,,,,,,,,,,,,,,,,,,,,,,,,,SPECI,316.0
HUEN 120500Z 03004KT 9000 FEW019 FEW021CB SCT120 20/19 Q1018,HUEN,2015-02-12T05:00:00Z,0.03,32.45,20.0,19.0,30,4,,5.59,30.059055,,,,,,,,,,,FEW,1900,FEW,2100,SCT,12000,,,VFR,,,,,,,,,,,,METAR,1155.0
CXFM 120500Z AUTO 13014KT M06/M07 RMK AO1 PK WND 12021/0408 T10561067,CXFM,2015-02-12T05:00:00Z,49.48,-111.48,-5.6,-6.7,130,14,,,,,,TRUE,TRUE,,,,,,,,,,,,,,,,,,,,,,,,,,,METAR,881.0
CXTH 120500Z AUTO 15013KT M16/M18 RMK AO1 PK WND 15021/0408 T11611180,CXTH,2015-02-12T05:00:00Z,53.63,-111.68,-16.1,-18.0,150,13,,,,,,TRUE,TRUE,,,,,,,,,,,,,,,,,,,,,,,,,,,METAR,678.0
RJOT 120500Z 26019G29KT 9999 FEW030 SCT040 10/M00 Q1006,RJOT,2015-02-12T05:00:00Z,34.22,134.02,10.0,0.0,260,19,29,6.21,29.704725,,,,,,,,,,,FEW,3000,SCT,4000,,,,,VFR,,,,,,,,,,,,METAR,188.0
RJOR 120500Z 26017KT 8000 -SHRA FEW015 SCT025 BKN040 07/02 Q1005,RJOR,2015-02-12T05:00:00Z,35.52,134.17,7.0,2.0,260,17,,4.97,29.675198,,,,,,,,,,-SHRA,FEW,1500,SCT,2500,BKN,4000,,,MVFR,,,,,,,,,,,,METAR,18.0
RJOO 120500Z 23011KT 200V270 9999 FEW025 SCT040 11/01 Q1005 RMK 1CU025 4CU040 A2969,RJOO,2015-02-12T05:00:00Z,34.77,135.43,11.0,1.0,230,11,,6.21,29.675198,,,,,,,,,,,FEW,2500,SCT,4000,,,,,VFR,,,,,,,,,,,,METAR,15.0
RJOM 120500Z 23013KT 9999 FEW035 12/02 Q1007,RJOM,2015-02-12T05:00:00Z,33.82,132.68,12.0,2.0,230,13,,6.21,29.734253,,,,,,,,,,,FEW,3500,,,,,,,VFR,,,,,,,,,,,,METAR,7.0
RJOK 120500Z 27014KT 9999 SCT035 13/M02 Q1006,RJOK,2015-02-12T05:00:00Z,33.52,133.67,13.0,-2.0,270,14,,6.21,29.704725,,,,,,,,,,,SCT,3500,,,,,,,VFR,,,,,,,,,,,,METAR,10.0
RJOH 120500Z 23011KT 6000 -SHRA FEW020 BKN030 06/03 Q1005,RJOH,2015-02-12T05:00:00Z,35.47,133.25,6.0,3.0,230,11,,3.73,29.675198,,,,,,,,,,-SHRA,FEW,2000,BKN,3000,,,,,MVFR,,,,,,,,,,,,METAR,9.0
RJOC 120500Z 29017KT 9000 FEW020 BKN035 08/02 Q1005,RJOC,2015-02-12T05:00:00Z,35.42,132.87,8.0,2.0,290,17,,5.59,29.675198,,,,,,,,,,,FEW,2000,BKN,3500,,,,,VFR,,,,,,,,,,,,METAR,5.0
RJOB 120500Z 23010KT 9999 FEW030 SCT040 10/01 Q1004,RJOB,2015-02-12T05:00:00Z,34.75,133.83,10.0,1.0,230,10,,6.21,29.64567,,,,,,,,,,,FEW,3000,SCT,4000,,,,,VFR,,,,,,,,,,,,METAR,242.0
RJOA 120500Z 25016G26KT 220V280 9999 -SHRA FEW015 FEW020CB BKN025 06/01 Q1005,RJOA,2015-02-12T05:00:00Z,34.42,132.92,6.0,1.0,250,16,26,6.21,29.675198,,,,,,,,,,-SHRA,FEW,1500,FEW,2000,BKN,2500,,,MVFR,,,,,,,,,,,,METAR,6.0
RJNS 120500Z 27021KT 250V310 9999 FEW040 12/M04 Q1002,RJNS,2015-02-12T05:00:00Z,34.8,138.18,12.0,-4.0,270,21,,6.21,29.586615,,,,,,,,,,,FEW,4000,,,,,,,VFR,,,,,,,,,,,,METAR,135.0
RJNW 120500Z 21006KT 180V250 2000 -SHRASN BR FEW003 SCT005 BKN010 01/01 Q1002,RJNW,2015-02-12T05:00:00Z,37.3,136.97,1.0,1.0,210,6,,1.24,29.586615,,,,,,,,,,-SHRA -SHSN BR,FEW,300,SCT,500,BKN,1000,,,IFR,,,,,,,,,,,,METAR,219.0
RJNT 120500Z 28009KT 9999 FEW020 SCT030 BKN050 06/01 Q1003,RJNT,2015-02-12T05:00:00Z,36.63,137.17,6.0,1.0,280,9,,6.21,29.616142,,,,,,,,,,,FEW,2000,SCT,3000,BKN,5000,,,VFR,,,,,,,,,,,,METAR,27.0
RJKA 120500Z 27013G24KT 240V310 9999 FEW040 SCT050 18/03 Q1012,RJKA,2015-02-12T05:00:00Z,28.42,129.72,18.0,3.0,270,13,24,6.21,29.88189,,,,,,,,,,,FEW,4000,SCT,5000,,,,,VFR,,,,,,,,,,,,METAR,7.0
RJFU 120500Z 31020KT 9000 FEW035 SCT045 12/M01 Q1010,RJFU,2015-02-12T05:00:00Z,32.92,129.92,12.0,-1.0,310,20,,5.59,29.822834,,,,,,,,,,,FEW,3500,SCT,4500,,,,,VFR,,,,,,,,,,,,METAR,5.0
RJFT 120500Z 24008KT 190V280 9999 FEW025 SCT030 BKN040 10/03 Q1009,RJFT,2015-02-12T05:00:00Z,32.82,130.83,10.0,3.0,240,8,,6.21,29.793306,,,,,,,,,,,FEW,2500,SCT,3000,BKN,4000,,,VFR,,,,,,,,,,,,METAR,196.0
RJFR 120500Z 26019KT 8000 SCT040 11/01 Q1007,RJFR,2015-02-12T05:00:00Z,33.82,131.03,11.0,1.0,260,19,,4.97,29.734253,,,,,,,,,,,SCT,4000,,,,,,,MVFR,,,,,,,,,,,,METAR,6.0
RJFO 120500Z 09006KT 060V120 9999 FEW035 SCT050 BKN070 10/03 Q1007,RJFO,2015-02-12T05:00:00Z,33.47,131.72,10.0,3.0,90,6,,6.21,29.734253,,,,,,,,,,,FEW,3500,SCT,5000,BKN,7000,,,VFR,,,,,,,,,,,,METAR,8.0
RJFM 120500Z 27019KT 9999 FEW030 SCT040 13/02 Q1008,RJFM,2015-02-12T05:00:00Z,31.87,131.43,13.0,2.0,270,19,,6.21,29.763779,,,,,,,,,,,FEW,3000,SCT,4000,,,,,VFR,,,,,,,,,,,,METAR,9.0
FBSP 120500Z 00000KT CAVOK 24/16 Q1019,FBSP,2015-02-12T05:00:00Z,-22.05,27.82,24.0,16.0,0,0,,6.21,30.088583,,,,,,,,,,,CAVOK,,,,,,,,VFR,,,,,,,,,,,,METAR,892.0
FBMN 120500Z 05004KT CAVOK 22/17 Q1017,FBMN,2015-02-12T05:00:00Z,-19.97,23.42,22.0,17.0,50,4,,6.21,30.029528,,,,,,,,,,,CAVOK,,,,,,,,VFR,,,,,,,,,,,,METAR,900.0
FBKE 120500Z 00000KT CAVOK 17/16 Q1018,FBKE,2015-02-12T05:00:00Z,-17.82,25.17,17.0,16.0,0,0,,6.21,30.059055,,,,,,,,,,,CAVOK,,,,,,,,VFR,,,,,,,,,,,,METAR,1000.0
FBFT 120500Z VRB01KT CAVOK 20/13 Q1020,FBFT,2015-02-12T05:00:00Z,-21.17,27.48,20.0,13.0,0,1,,6.21,30.11811,,,,,,,,,,,CAVOK,,,,,,,,VFR,,,,,,,,,,,,METAR,1000.0
RJAH 120500Z 09006KT 030V130 9999 FEW030 11/00 Q1001,RJAH,2015-02-12T05:00:00Z,36.17,140.42,11.0,0.0,90,6,,6.21,29.557087,,,,,,,,,,,FEW,3000,,,,,,,VFR,,,,,,,,,,,,METAR,35.0
RORS 120500Z 36018KT 9999 FEW038 SCT045 BKN/// 20/09 Q1015,RORS,2015-02-12T05:00:00Z,24.82,125.15,20.0,9.0,360,18,,6.21,29.970472,,,,,,,,,,,FEW,3800,SCT,4500,,,,,VFR,,,,,,,,,,,,METAR,16.0
ROMY 120500Z 01011KT 330V040 9999 SCT040 BKN/// 19/09 Q1015,ROMY,2015-02-12T05:00:00Z,24.77,125.27,19.0,9.0,10,11,,6.21,29.970472,,,,,,,,,,,SCT,4000,,,,,,,VFR,,,,,,,,,,,,METAR,41.0
ROIG 120500Z 36013KT 330V030 9999 FEW035 SCT037 BKN/// 20/10 Q1015,ROIG,2015-02-12T05:00:00Z,24.32,124.17,20.0,10.0,360,13,,6.21,29.970472,,,,,,,,,,,FEW,3500,SCT,3700,,,,,VFR,,,,,,,,,,,,METAR,7.0
RJTO 120500Z 24014G24KT 9999 FEW040 13/01 Q1002,RJTO,2015-02-12T05:00:00Z,34.77,139.37,13.0,1.0,240,14,24,6.21,29.586615,,,,,,,,,,,FEW,4000,,,,,,,VFR,,,,,,,,,,,,METAR,41.0
RJTI 120500Z 12006KT 8000 NSC 11/M00 Q1002,RJTI,2015-02-12T05:00:00Z,35.63,139.83,11.0,0.0,120,6,,4.97,29.586615,,,,,,,,,,,,,,,,,,,,,,,,,,,,,,,METAR,8.0
RJTF 120500Z 13004KT 090V220 9999 FEW030 12/M05 Q1001,RJTF,2015-02-12T05:00:00Z,35.67,139.52,12.0,-5.0,130,4,,6.21,29.557087,,,,,,,,,,,FEW,3000,,,,,,,VFR,,,,,,,,,,,,METAR,44.0
RJSY 120500Z 08003KT 9999 FEW020 SCT030 BKN080 05/01 Q1003,RJSY,2015-02-12T05:00:00Z,38.82,139.77,5.0,1.0,80,3,,6.21,29.616142,,,,,,,,,,,FEW,2000,SCT,3000,BKN,8000,,,VFR,,,,,,,,,,,,METAR,22.0
RJSS 120500Z 10006KT 9999 FEW030 08/03 Q1003,RJSS,2015-02-12T05:00:00Z,38.12,140.92,8.0,3.0,100,6,,6.21,29.616142,,,,,,,,,,,FEW,3000,,,,,,,VFR,,,,,,,,,,,,METAR,5.0
RJSN 120500Z 25007KT 7000 -SHRA FEW006 BKN015 BKN020 06/04 Q1003,RJSN,2015-02-12T05:00:00Z,37.95,139.12,6.0,4.0,250,7,,4.35,29.616142,,,,,,,,,,-SHRA,FEW,600,BKN,1500,BKN,2000,,,MVFR,,,,,,,,,,,,METAR,4.0
RJSR 120500Z 09001KT 9999 FEW005 BKN/// 02/M02 Q1004,RJSR,2015-02-12T05:00:00Z,40.18,140.37,2.0,-2.0,90,1,,6.21,29.64567,,,,,,,,,,,FEW,500,,,,,,,VFR,,,,,,,,,,,,METAR,87.0
RJSK 120500Z 14003KT 110V190 9999 FEW010 SCT025 BKN050 04/M01 Q1003,RJSK,2015-02-12T05:00:00Z,39.62,140.22,4.0,-1.0,140,3,,6.21,29.616142,,,,,,,,,,,FEW,1000,SCT,2500,BKN,5000,,,VFR,,,,,,,,,,,,METAR,96.0
RJSI 120500Z 02002KT 9999 FEW020 SCT070 BKN/// 05/M00 Q1003,RJSI,2015-02-12T05:00:00Z,39.42,141.12,5.0,0.0,20,2,,6.21,29.616142,,,,,,,,,,,FEW,2000,SCT,7000,,,,,VFR,,,,,,,,,,,,METAR,93.0
RJSF 120500Z 20003KT 130V280 9999 FEW030 SCT045 08/M05 Q1000,RJSF,2015-02-12T05:00:00Z,37.22,140.42,8.0,-5.0,200,3,,6.21,29.52756,,,,,,,,,,,FEW,3000,SCT,4500,,,,,VFR,,,,,,,,,,,,METAR,375.0
RJSC 120500Z 00000KT 9999 FEW015 SCT090 BKN/// 04/M01 Q1003,RJSC,2015-02-12T05:00:00Z,38.42,140.37,4.0,-1.0,0,0,,6.21,29.616142,,,,,,,,,,,FEW,1500,SCT,9000,,,,,VFR,,,,,,,,,,,,METAR,108.0
RJSA 120500Z 29006KT 9999 -SN FEW015 SCT025 BKN050 01/M03 Q1003,RJSA,2015-02-12T05:00:00Z,40.72,140.68,1.0,-3.0,290,6,,6.21,29.616142,,,,,,,,,,-SN,FEW,1500,SCT,2500,BKN,5000,,,VFR,,,,,,,,,,,,METAR,201.0
RJOY 120500Z 27013KT 9999 FEW035 11/01 Q1006,RJOY,2015-02-12T05:00:00Z,34.6,135.58,11.0,1.0,270,13,,6.21,29.704725,,,,,,,,,,,FEW,3500,,,,,,,VFR,,,,,,,,,,,,METAR,13.0
FAUP 120500Z 21007KT CAVOK 25/00 Q1014 NOSIG,FAUP,2015-02-12T05:00:00Z,-28.38,21.27,25.0,0.0,210,7,,6.21,29.940945,,,,,,TRUE,,,,,CAVOK,,,,,,,,VFR,,,,,,,,,,,,METAR,836.0
FAPN 120500Z AUTO 00000KT //// // ////// 22/14 Q1020,FAPN,2015-02-12T05:00:00Z,-25.33,27.17,22.0,14.0,0,0,,,30.11811,,,TRUE,,,,,,,,,,,,,,,,,,,,,,,,,,,,METAR,1039.0
FAPE 120500Z 09006KT 5000 -DZ OVC003 20/19 Q1014 BECMG BKN004,FAPE,2015-02-12T05:00:00Z,-33.97,25.6,20.0,19.0,90,6,,3.11,29.940945,,,,,,,,,,-DZ,OVC,300,,,,,,,LIFR,,,,,,,,,,,,METAR,60.0
FAOR 120500Z 03009KT CAVOK 18/14 Q1026 NOSIG,FAOR,2015-02-12T05:00:00Z,-26.12,28.22,18.0,14.0,30,9,,6.21,30.295275,,,,,,TRUE,,,,,CAVOK,,,,,,,,VFR,,,,,,,,,,,,METAR,1700.0
FAOB 120500Z AUTO 00000KT //// // ////// 11/10 Q1014,FAOB,2015-02-12T05:00:00Z,-34.6,20.27,11.0,10.0,0,0,,,29.940945,,,TRUE,,,,,,,,,,,,,,,,,,,,,,,,,,,,METAR,75.0
FALW 120500Z AUTO 26003KT //// // ////// 15/13 Q1014,FALW,2015-02-12T05:00:00Z,-32.97,18.17,15.0,13.0,260,3,,,29.940945,,,TRUE,,,,,,,,,,,,,,,,,,,,,,,,,,,,SPECI,0.0
FALE 120500Z 01004KT 9000 SCT009 OVC018 24/22 Q1016 NOSIG,FALE,2015-02-12T05:00:00Z,-29.62,31.12,24.0,22.0,10,4,,5.59,30.0,,,,,,TRUE,,,,,SCT,900,OVC,1800,,,,,MVFR,,,,,,,,,,,,METAR,109.0
FALA 120500Z 05006KT CAVOK 19/15 Q1024 NOSIG,FALA,2015-02-12T05:00:00Z,-25.92,27.92,19.0,15.0,50,6,,6.21,30.236221,,,,,,TRUE,,,,,CAVOK,,,,,,,,VFR,,,,,,,,,,,,METAR,1377.0
FAKN 120500Z 24002KT 9999 FEW020 SCT080 19/16 Q1022 NOSIG,FAKN,2015-02-12T05:00:00Z,-25.38,31.1,19.0,16.0,240,2,,6.21,30.177166,,,,,,TRUE,,,,,FEW,2000,SCT,8000,,,,,VFR,,,,,,,,,,,,METAR,862.0
FAGG 120500Z 32003KT 300V360 9999 SCT013 BKN016 15/13 Q1015,FAGG,2015-02-12T05:00:00Z,-34.0,22.37,15.0,13.0,320,3,,6.21,29.970472,,,,,,,,,,,SCT,1300,BKN,1600,,,,,MVFR,,,,,,,,,,,,METAR,193.0
FAEL 120500Z 06005KT 9999 SCT012 BKN017 21/20 Q1015,FAEL,2015-02-12T05:00:00Z,-33.02,27.82,21.0,20.0,60,5,,6.21,29.970472,,,,,,,,,,,SCT,1200,BKN,1700,,,,,MVFR,,,,,,,,,,,,METAR,125.0
FACT 120500Z /////KT CAVOK ///// Q//// NOSIG,FACT,2015-02-12T05:00:00Z,-33.97,18.6,,,,,,6.21,,,,,,,TRUE,,,,,CAVOK,,,,,,,,VFR,,,,,,,,,,,,SPECI,42.0
FABL 120500Z 07004KT 050V130 CAVOK 21/11 Q1022 NOSIG,FABL,2015-02-12T05:00:00Z,-29.1,26.3,21.0,11.0,70,4,,6.21,30.177166,,,,,,TRUE,,,,,CAVOK,,,,,,,,VFR,,,,,,,,,,,,METAR,1348.0
RJFG 120500Z 31008KT 6000 -RA FEW024 SCT030 BKN040 09/07 Q1010,RJFG,2015-02-12T05:00:00Z,30.62,130.98,9.0,7.0,310,8,,3.73,29.822834,,,,,,,,,,-RA,FEW,2400,SCT,3000,BKN,4000,,,MVFR,,,,,,,,,,,,METAR,95.0
RJFS 120500Z 19005KT 160V230 8000 SCT025 11/07 Q1009,RJFS,2015-02-12T05:00:00Z,33.15,130.3,11.0,7.0,190,5,,4.97,29.793306,,,,,,,,,,,SCT,2500,,,,,,,MVFR,,,,,,,,,,,,METAR,5.0
RJEC 120500Z 18008KT 150V270 9999 -SHSN FEW015 BKN030 BKN045 M01/M07 Q1002,RJEC,2015-02-12T05:00:00Z,43.67,142.43,-1.0,-7.0,180,8,,6.21,29.586615,,,,,,,,,,-SHSN,FEW,1500,BKN,3000,BKN,4500,,,MVFR,,,,,,,,,,,,METAR,211.0
RJEB 120500Z 11003KT 080V140 9999 FEW050 SCT060 M02/M07 Q1004,RJEB,2015-02-12T05:00:00Z,44.3,143.4,-2.0,-7.0,110,3,,6.21,29.64567,,,,,,,,,,,FEW,5000,SCT,6000,,,,,VFR,,,,,,,,,,,,METAR,25.0
RJDT 120500Z 27015G27KT 230V300 9999 FEW040 08/M04 Q1008,RJDT,2015-02-12T05:00:00Z,34.27,129.32,8.0,-4.0,270,15,27,6.21,29.763779,,,,,,,,,,,FEW,4000,,,,,,,VFR,,,,,,,,,,,,METAR,66.0
RJDC 120500Z 26014KT 8000 FEW025 SCT040 12/02 Q1007,RJDC,2015-02-12T05:00:00Z,33.92,131.27,12.0,2.0,260,14,,4.97,29.734253,,,,,,,,,,,FEW,2500,SCT,4000,,,,,MVFR,,,,,,,,,,,,METAR,8.0
RJCW 120500Z 27006KT 230V300 9999 FEW010 BKN030 BKN050 M02/M06 Q1003,RJCW,2015-02-12T05:00:00Z,45.38,141.8,-2.0,-6.0,270,6,,6.21,29.616142,,,,,,,,,,,FEW,1000,BKN,3000,BKN,5000,,,MVFR,,,,,,,,,,,,METAR,11.0
RJCN 120500Z 26005KT 9999 FEW030 BKN/// M00/M04 Q1004,RJCN,2015-02-12T05:00:00Z,43.57,144.97,0.0,-4.0,260,5,,6.21,29.64567,,,,,,,,,,,FEW,3000,,,,,,,VFR,,,,,,,,,,,,METAR,70.0
RJCM 120500Z 02005KT 9999 FEW030 SCT050 BKN/// 00/M07 Q1003,RJCM,2015-02-12T05:00:00Z,43.88,144.17,0.0,-7.0,20,5,,6.21,29.616142,,,,,,,,,,,FEW,3000,SCT,5000,,,,,VFR,,,,,,,,,,,,METAR,36.0
RJCK 120500Z 20007KT 9999 FEW018 BKN/// 01/M05 Q1004,RJCK,2015-02-12T05:00:00Z,43.02,144.18,1.0,-5.0,200,7,,6.21,29.64567,,,,,,,,,,,FEW,1800,,,,,,,VFR,,,,,,,,,,,,METAR,98.0
RJCH 120500Z 26007KT 9999 FEW020 02/M05 Q1004,RJCH,2015-02-12T05:00:00Z,41.77,140.82,2.0,-5.0,260,7,,6.21,29.64567,,,,,,,,,,,FEW,2000,,,,,,,VFR,,,,,,,,,,,,METAR,36.0
RJCB 120500Z VRB01KT 9999 FEW050 BKN/// M02/M07 Q1003,RJCB,2015-02-12T05:00:00Z,42.72,143.22,-2.0,-7.0,0,1,,6.21,29.616142,,,,,,,,,,,FEW,5000,,,,,,,VFR,,,,,,,,,,,,METAR,152.0
RJBE 120500Z 26018KT 9999 VCSH FEW035 11/03 Q1005,RJBE,2015-02-12T05:00:00Z,34.63,135.23,11.0,3.0,260,18,,6.21,29.675198,,,,,,,,,,VCSH,FEW,3500,,,,,,,VFR,,,,,,,,,,,,METAR,5.0
RJBD 120500Z 27008KT 230V310 9999 FEW035 13/00 Q1005,RJBD,2015-02-12T05:00:00Z,33.67,135.37,13.0,0.0,270,8,,6.21,29.675198,,,,,,,,,,,FEW,3500,,,,,,,VFR,,,,,,,,,,,,METAR,108.0
RJAF 120500Z 18017KT 9999 VCSH SCT060 06/M03 Q1001,RJAF,2015-02-12T05:00:00Z,36.17,137.92,6.0,-3.0,180,17,,6.21,29.557087,,,,,,,,,,VCSH,SCT,6000,,,,,,,VFR,,,,,,,,,,,,METAR,660.0
CWRM 120500Z AUTO 08001KT M11/M12 RMK AO1 SOG 37 6023 SLP216 T11051116,CWRM,2015-02-12T05:00:00Z,52.42,-114.92,-10.5,-11.6,80,1,,,,1021.6,,TRUE,TRUE,,,,,,,,,,,,,,,,,,,,,,,,,,,METAR,988.0
CWZW 120500Z AUTO 08004KT M10/M12 RMK AO1 SOG 37 3002 SLP130 T11001121,CWZW,2015-02-12T05:00:00Z,60.17,-132.73,-10.0,-12.1,80,4,,,,1013.0,,TRUE,TRUE,,,,,,,,,,,,,,,,,,,,,,,,,,,METAR,705.0
CWVT 120500Z AUTO 16011G16KT M21/M26 RMK AO1 PRESFR SOG 42 8056 PK WND 17018/0441 SLP313 T12111255,CWVT,2015-02-12T05:00:00Z,55.82,-108.42,-21.1,-25.5,160,11,16,,,1031.3,,TRUE,TRUE,,,,,,,,,,,,,,,,,,,,,,,,,,,METAR,434.0
CWZG 120500Z AUTO 24008G15KT 06/M02 RMK AO1 SOG 01 5009 PK WND 24017/0439 SLP210 T00561024,CWZG,2015-02-12T05:00:00Z,51.2,-115.53,5.6,-2.4,240,8,15,,,1021.0,,TRUE,TRUE,,,,,,,,,,,,,,,,,,,,,,,,,,,METAR,1397.0
CWNE 120500Z AUTO 01014KT M15/M17 RMK AO1 PK WND 02018/0442 SLP169 T11541172 56028,CWNE,2015-02-12T05:00:00Z,47.07,-64.0,-15.4,-17.2,10,14,,,,1016.9,,TRUE,TRUE,,,,,,,,,,,,,,,,-2.8,,,,,,,,,,,METAR,15.0
CWHQ 120500Z AUTO 09009G21KT M13/M17 RMK AO1 PK WND 07022/0411 T11291174,CWHQ,2015-02-12T05:00:00Z,46.68,-71.97,-12.9,-17.4,90,9,21,,,,,TRUE,TRUE,,,,,,,,,,,,,,,,,,,,,,,,,,,METAR,55.0
CWHM 120500Z AUTO 05006KT M13/M15 RMK AO1 T11311152,CWHM,2015-02-12T05:00:00Z,45.72,-73.37,-13.1,-15.2,50,6,,,,,,TRUE,TRUE,,,,,,,,,,,,,,,,,,,,,,,,,,,METAR,192.0
CWHL 120500Z AUTO 09013G20KT 08/05 RMK AO1 8007 PK WND 09025/0433 SLP093 T00790048 50002,CWHL,2015-02-12T05:00:00Z,54.17,-130.35,7.9,4.8,90,13,20,,,1009.3,,TRUE,TRUE,,,,,,,,,,,,,,,,0.2,,,,,,,,,,,METAR,5.0
CWGY 120500Z AUTO 11017KT M16/M19 RMK AO1 PRESFR PK WND 11022/0410 SLP287 T11581187 58046,CWGY,2015-02-12T05:00:00Z,51.67,-110.2,-15.8,-18.7,110,17,,,,1028.7,,TRUE,TRUE,,,,,,,,,,,,,,,,-4.6,,,,,,,,,,,METAR,707.0
CWGX 120500Z AUTO 27006KT M30/M33 RMK AO1 SLP389 T12981329 58011,CWGX,2015-02-12T05:00:00Z,56.35,-94.7,-29.8,-32.9,270,6,,,,1038.9,,TRUE,TRUE,,,,,,,,,,,,,,,,-1.1,,,,,,,,,,,METAR,145.0
CWGW 120500Z AUTO 18005KT 05/01 RMK AO1 SOG 01 6007 SLP235 T00540005,CWGW,2015-02-12T05:00:00Z,49.75,-114.9,5.4,0.5,180,5,,,,1023.5,,TRUE,TRUE,,,,,,,,,,,,,,,,,,,,,,,,,,,METAR,1137.0
CWGT 120500Z AUTO 12021KT 10/07 RMK AO1 PK WND 12023/0459 SLP205 T01020069 50011,CWGT,2015-02-12T05:00:00Z,49.48,-124.43,10.2,6.9,120,21,,,,1020.5,,TRUE,TRUE,,,,,,,,,,,,,,,,1.1,,,,,,,,,,,METAR,5.0
CWGR 120500Z AUTO 06017KT M09/M12 RMK AO1 PK WND 07024/0410 SLP146 T10901119 56029,CWGR,2015-02-12T05:00:00Z,47.42,-61.8,-9.0,-11.9,60,17,,,,1014.6,,TRUE,TRUE,,,,,,,,,,,,,,,,-2.9,,,,,,,,,,,METAR,60.0
CZEL 120500Z AUTO 32012G17KT M05/M08 RMK AO1 PK WND 32021/0440 SLP093 T10521076 55002,CZEL,2015-02-12T05:00:00Z,43.65,-80.42,-5.2,-7.6,320,12,17,,,1009.3,,TRUE,TRUE,,,,,,,,,,,,,,,,-0.2,,,,,,,,,,,METAR,376.0
CXZC 120500Z AUTO 34013G20KT M21/M24 RMK AO1 SOG 76 3014 PK WND 33020/0456 SLP222 T12121237 50009,CXZC,2015-02-12T05:00:00Z,51.3,-80.62,-21.2,-23.7,340,13,20,,,1022.2,,TRUE,TRUE,,,,,,,,,,,,,,,,0.9,,,,,,,,,,,METAR,9.0
CXBI 120500Z AUTO 31016G22KT M06/M08 RMK AO1 3003 PK WND 31026/0446 SLP088 T10621081 50015,CXBI,2015-02-12T05:00:00Z,44.48,-79.55,-6.2,-8.1,310,16,22,,,1008.8,,TRUE,TRUE,,,,,,,,,,,,,,,,1.5,,,,,,,,,,,METAR,289.0
CXSL 120500Z AUTO 17008KT M16/M18 RMK AO1 T11621181,CXSL,2015-02-12T05:00:00Z,54.28,-112.5,-16.2,-18.1,170,8,,,,,,TRUE,TRUE,,,,,,,,,,,,,,,,,,,,,,,,,,,METAR,680.0
CPXL 120500Z AUTO 15014KT M06/M07 RMK AO1 PK WND 14025/0429 T10571070,CPXL,2015-02-12T05:00:00Z,49.87,-111.38,-5.7,-7.0,150,14,,,,,,TRUE,TRUE,,,,,,,,,,,,,,,,,,,,,,,,,,,METAR,799.0
CPSV 120500Z AUTO 15005KT M04/M06 RMK AO1 T10351059,CPSV,2015-02-12T05:00:00Z,49.92,-110.92,-3.5,-5.9,150,5,,,,,,TRUE,TRUE,,,,,,,,,,,,,,,,,,,,,,,,,,,METAR,766.0
CPST 120500Z AUTO 17011KT M08/M09 RMK AO1 T10811088,CPST,2015-02-12T05:00:00Z,51.03,-113.28,-8.1,-8.8,170,11,,,,,,TRUE,TRUE,,,,,,,,,,,,,,,,,,,,,,,,,,,METAR,967.0
CWGM 120500Z AUTO 23017G23KT 05/M01 RMK AO1 PK WND 24027/0400 T00531008,CWGM,2015-02-12T05:00:00Z,49.13,-113.78,5.3,-0.8,230,17,23,,,,,TRUE,TRUE,,,,,,,,,,,,,,,,,,,,,,,,,,,METAR,1296.0
CWGD 120500Z AUTO 33012KT M05/M09 RMK AO1 SOG 15 3006 PK WND 33017/0435 SLP110 T10531087 50002,CWGD,2015-02-12T05:00:00Z,43.77,-81.72,-5.3,-8.7,330,12,,,,1011.0,,TRUE,TRUE,,,,,,,,,,,,,,,,0.2,,,,,,,,,,,METAR,214.0
CWGB 120500Z AUTO 11008KT 09/07 RMK AO1 SLP213 T00910072 51014,CWGB,2015-02-12T05:00:00Z,49.35,-124.17,9.1,7.2,110,8,,,,1021.3,,TRUE,TRUE,,,,,,,,,,,,,,,,1.4,,,,,,,,,,,METAR,5.0
CWFQ 120500Z AUTO 10002KT M11/M14 RMK AO1 SOG 34 6015 SLP090 T11101144,CWFQ,2015-02-12T05:00:00Z,45.03,-72.82,-11.0,-14.4,100,2,,,,1009.0,,TRUE,TRUE,,,,,,,,,,,,,,,,,,,,,,,,,,,METAR,152.0
CWEZ 120500Z AUTO 26004KT 09/07 RMK AO1 SLP219 T00910073 51009,CWEZ,2015-02-12T05:00:00Z,48.78,-123.05,9.1,7.3,260,4,,,,1021.9,,TRUE,TRUE,,,,,,,,,,,,,,,,0.9,,,,,,,,,,,METAR,7.0
CWEW 120500Z AUTO 01003KT M14/M16 RMK AO1 0PAST HR SOG 30 6023 SLP118 P0008 T11361156 50020,CWEW,2015-02-12T05:00:00Z,45.82,-73.43,-13.6,-15.6,10,3,,,,1011.8,,TRUE,TRUE,,,,,,,,,,,,,,,,2.0,,,,,0.08,,,,,,METAR,21.0
CWEL 120500Z AUTO 17007KT 09/07 RMK AO1 SLP220 T00920068 52013,CWEL,2015-02-12T05:00:00Z,49.22,-123.78,9.2,6.8,170,7,,,,1022.0,,TRUE,TRUE,,,,,,,,,,,,,,,,1.3,,,,,,,,,,,METAR,5.0
CWEB 120500Z AUTO 09011G21KT 09/09 RMK AO1 4PAST HR 1008 PK WND 09023/0409 SLP199 P0005 T00850090 50091,CWEB,2015-02-12T05:00:00Z,49.38,-126.55,8.5,9.0,90,11,21,,,1019.9,,TRUE,TRUE,,,,,,,,,,,,,,,,9.1,,,,,0.05,,,,,,METAR,7.0
CWBY 120500Z AUTO 06003KT M19/M22 RMK AO1 SOG 18 8016 SLP204 T11871216,CWBY,2015-02-12T05:00:00Z,49.82,-64.28,-18.7,-21.6,60,3,,,,1020.4,,TRUE,TRUE,,,,,,,,,,,,,,,,,,,,,,,,,,,METAR,53.0
CWNH 120500Z AUTO 08002KT M18/M22 RMK AO1 SOG 33 8024 SLP160 T11791215,CWNH,2015-02-12T05:00:00Z,47.78,-69.53,-17.9,-21.5,80,2,,,,1016.0,,TRUE,TRUE,,,,,,,,,,,,,,,,,,,,,,,,,,,METAR,148.0
CWER 120500Z AUTO 04019G24KT RMK AO1 PK WND 05028/0435,CWER,2015-02-12T05:00:00Z,47.0,-70.82,,,40,19,24,,,,,TRUE,TRUE,,,,,,,,,,,,,,,,,,,,,,,,,,,METAR,5.0
CWEP 120500Z AUTO 03011KT M09/M11 RMK AO1 SLP125 T10911108 58035,CWEP,2015-02-12T05:00:00Z,46.45,-61.97,-9.1,-10.8,30,11,,,,1012.5,,TRUE,TRUE,,,,,,,,,,,,,,,,-3.5,,,,,,,,,,,METAR,11.0
CWWE 120500Z AUTO 36009G15KT M11/M13 RMK AO1 PK WND 35017/0440 SLP091 T11051131 56031,CWWE,2015-02-12T05:00:00Z,43.97,-64.67,-10.5,-13.1,360,9,15,,,1009.1,,TRUE,TRUE,,,,,,,,,,,,,,,,-3.1,,,,,,,,,,,METAR,9.0
CWPK 120500Z AUTO 10002KT M15/M17 RMK AO1 5PAST HR SOG 53 6019 SLP085 P0002 T11471171 50027,CWPK,2015-02-12T05:00:00Z,47.92,-74.62,-14.7,-17.1,100,2,,,,1008.5,,TRUE,TRUE,,,,,,,,,,,,,,,,2.7,,,,,0.02,,,,,,METAR,442.0
CWDM 120500Z AUTO 01012KT M21/M26 RMK AO1 SOG 78 6022 SLP216 T12141258,CWDM,2015-02-12T05:00:00Z,50.47,-59.62,-21.4,-25.8,10,12,,,,1021.6,,TRUE,TRUE,,,,,,,,,,,,,,,,,,,,,,,,,,,METAR,6.0
CXZU 120500Z AUTO M12/M14 RMK AO1 SLP230 T11241141 56021,CXZU,2015-02-12T05:00:00Z,54.15,-115.78,-12.4,-14.1,,,,,,1023.0,,TRUE,TRUE,,,,,,,,,,,,,,,,-2.1,,,,,,,,,,,METAR,785.0
CXSH 120500Z AUTO 07007KT M13/M17 RMK AO1 SLP105 T11291166 56030,CXSH,2015-02-12T05:00:00Z,46.58,-72.73,-12.9,-16.6,70,7,,,,1010.5,,TRUE,TRUE,,,,,,,,,,,,,,,,-3.0,,,,,,,,,,,METAR,110.0
CXQT 120500Z AUTO 00000KT 18/09 RMK AO1 T01770091,CXQT,2015-02-12T05:00:00Z,48.43,-89.22,17.7,9.1,0,0,,,,,,TRUE,TRUE,,,,,,,,,,,,,,,,,,,,,,,,,,,METAR,183.0
CXOX 120500Z AUTO 15004KT M24/M28 RMK AO1 3PAST HR SOG 49 8040 SLP367 P0001 T12351280 50007,CXOX,2015-02-12T05:00:00Z,55.15,-105.27,-23.5,-28.0,150,4,,,,1036.7,,TRUE,TRUE,,,,,,,,,,,,,,,,0.7,,,,,0.01,,,,,,METAR,379.0
CXNM 120500Z AUTO 11013G21KT M10/M11 RMK AO1 SOG 161 PK WND 11022/0433 T10971106,CXNM,2015-02-12T05:00:00Z,46.82,-60.67,-9.7,-10.6,110,13,21,,,,,TRUE,TRUE,,,,,,,,,,,,,,,,,,,,,,,,,,,METAR,439.0
CXMI 120500Z AUTO 35008KT M11/M13 RMK AO1 SLP090 T11101132 56042,CXMI,2015-02-12T05:00:00Z,44.6,-63.53,-11.0,-13.2,350,8,,,,1009.0,,TRUE,TRUE,,,,,,,,,,,,,,,,-4.2,,,,,,,,,,,METAR,15.0
CXIB 120500Z AUTO 07007KT M05/M08 RMK AO1 SLP127 T10461077 56036,CXIB,2015-02-12T05:00:00Z,46.67,-60.38,-4.6,-7.7,70,7,,,,1012.7,,TRUE,TRUE,,,,,,,,,,,,,,,,-3.6,,,,,,,,,,,METAR,8.0
CXHF 120500Z AUTO M13/M15 RMK AO1 T11311147,CXHF,2015-02-12T05:00:00Z,45.83,-75.65,-13.1,-14.7,,,,,,,,TRUE,TRUE,,,,,,,,,,,,,,,,,,,,,,,,,,,METAR,190.0
CXGH 120500Z AUTO 31004KT M25/M28 RMK AO1 T12501284,CXGH,2015-02-12T05:00:00Z,50.63,-97.0,-25.0,-28.4,310,4,,,,,,TRUE,TRUE,,,,,,,,,,,,,,,,,,,,,,,,,,,METAR,217.0
CXDW 120500Z AUTO 31007KT M25/M27 RMK AO1 T12451271,CXDW,2015-02-12T05:00:00Z,49.4,-98.32,-24.5,-27.1,310,7,,,,,,TRUE,TRUE,,,,,,,,,,,,,,,,,,,,,,,,,,,METAR,341.0
CXCK 120500Z AUTO 34002KT M18/M20 RMK AO1 SOG 29 3016 SLP119 T11761200,CXCK,2015-02-12T05:00:00Z,62.12,-136.2,-17.6,-20.0,340,2,,,,1011.9,,TRUE,TRUE,,,,,,,,,,,,,,,,,,,,,,,,,,,METAR,540.0
CXCH 120500Z AUTO M08/M10 RMK AO1 SOG 52 T10771095,CXCH,2015-02-12T05:00:00Z,46.63,-60.95,-7.7,-9.5,,,,,,,,TRUE,TRUE,,,,,,,,,,,,,,,,,,,,,,,,,,,METAR,44.0
CXBO 120500Z AUTO 07015G20KT RMK AO1 PK WND 07024/0400,CXBO,2015-02-12T05:00:00Z,46.83,-71.2,,,70,15,20,,,,,TRUE,TRUE,,,,,,,,,,,,,,,,,,,,,,,,,,,METAR,100.0
CXKT 120500Z AUTO 36005KT M14/M16 RMK AO1 SOG 47 6033 SLP120 T11361157,CXKT,2015-02-12T05:00:00Z,45.07,-64.48,-13.6,-15.7,360,5,,,,1012.0,,TRUE,TRUE,,,,,,,,,,,,,,,,,,,,,,,,,,,METAR,49.0
CXBK 120500Z AUTO 15010KT M24/M28 RMK AO1 SOG 13 8013 SLP394 T12441276,CXBK,2015-02-12T05:00:00Z,50.2,-104.7,-24.4,-27.6,150,10,,,,1039.4,,TRUE,TRUE,,,,,,,,,,,,,,,,,,,,,,,,,,,METAR,580.0
CWST 120500Z AUTO 05002KT M17/M21 RMK AO1 SOG 10 6023 SLP153 T11691213,CWST,2015-02-12T05:00:00Z,47.35,-70.02,-16.9,-21.3,50,2,,,,1015.3,,TRUE,TRUE,,,,,,,,,,,,,,,,,,,,,,,,,,,METAR,31.0
CWSR 120500Z AUTO 15011KT M22/M28 RMK AO1 PRESFR SOG 15 8044 SLP333 T12241280,CWSR,2015-02-12T05:00:00Z,53.37,-107.53,-22.4,-28.0,150,11,,,,1033.3,,TRUE,TRUE,,,,,,,,,,,,,,,,,,,,,,,,,,,METAR,584.0
CWSP 120500Z AUTO 04003KT 10/08 RMK AO1 SLP225 T01000076 53010,CWSP,2015-02-12T05:00:00Z,48.38,-123.92,10.0,7.6,40,3,,,,1022.5,,TRUE,TRUE,,,,,,,,,,,,,,,,1.0,,,,,,,,,,,METAR,21.0
CWSL 120500Z AUTO 20001KT 04/04 RMK AO1 SOG 02 6003 SLP245 T00420039 50006,CWSL,2015-02-12T05:00:00Z,50.7,-119.27,4.2,3.9,200,1,,,,1024.5,,TRUE,TRUE,,,,,,,,,,,,,,,,0.6,,,,,,,,,,,METAR,351.0
CWSK 120500Z AUTO 02002KT 09/08 RMK AO1 SLP226 T00860079 53012,CWSK,2015-02-12T05:00:00Z,49.78,-123.17,8.6,7.9,20,2,,,,1022.6,,TRUE,TRUE,,,,,,,,,,,,,,,,1.2,,,,,,,,,,,METAR,60.0
CWSG 120500Z AUTO 22004KT M19/M22 RMK AO1 SLP187 T11871219 58027,CWSG,2015-02-12T05:00:00Z,49.12,-66.65,-18.7,-21.9,220,4,,,,1018.7,,TRUE,TRUE,,,,,,,,,,,,,,,,-2.7,,,,,,,,,,,METAR,5.0
CWSD 120500Z AUTO 02015KT M15/M17 RMK AO1 SOG 55 6028 PK WND 02018/0454 SLP151 T11471169,CWSD,2015-02-12T05:00:00Z,46.42,-63.85,-14.7,-16.9,20,15,,,,1015.1,,TRUE,TRUE,,,,,,,,,,,,,,,,,,,,,,,,,,,METAR,24.0
CWRZ 120500Z AUTO 36008KT M17/M20 RMK AO1 PK WND 04022/0407 SLP191 T11651195 58020,CWRZ,2015-02-12T05:00:00Z,48.42,-64.32,-16.5,-19.5,360,8,,,,1019.1,,TRUE,TRUE,,,,,,,,,,,,,,,,-2.0,,,,,,,,,,,METAR,16.0
CWRY 120500Z AUTO 20012G17KT M03/M05 RMK AO1 SOG 02 8023 PK WND 19018/0419 SLP250 T10251047,CWRY,2015-02-12T05:00:00Z,49.12,-112.03,-2.5,-4.7,200,12,17,,,1025.0,,TRUE,TRUE,,,,,,,,,,,,,,,,,,,,,,,,,,,METAR,1050.0
CWRT 120500Z AUTO 29005KT 05/01 RMK AO1 PK WND 29020/0426 T00490005,CWRT,2015-02-12T05:00:00Z,49.62,-114.47,4.9,0.5,290,5,,,,,,TRUE,TRUE,,,,,,,,,,,,,,,,,,,,,,,,,,,METAR,1303.0
CWRK 120500Z AUTO 22002KT M07/M08 RMK AO1 SOG 39 6017 SLP062 T10731075 50009,CWRK,2015-02-12T05:00:00Z,45.07,-77.87,-7.3,-7.5,220,2,,,,1006.2,,TRUE,TRUE,,,,,,,,,,,,,,,,0.9,,,,,,,,,,,METAR,331.0
CWRJ 120500Z AUTO 14014KT M19/M23 RMK AO1 PRESFR SOG 09 8035 SLP338 T11901227,CWRJ,2015-02-12T05:00:00Z,51.57,-107.92,-19.0,-22.7,140,14,,,,1033.8,,TRUE,TRUE,,,,,,,,,,,,,,,,,,,,,,,,,,,METAR,586.0
CWQV 120500Z AUTO 08009KT M17/M20 RMK AO1 T11691195,CWQV,2015-02-12T05:00:00Z,48.27,-70.12,-16.9,-19.5,80,9,,,,,,TRUE,TRUE,,,,,,,,,,,,,,,,,,,,,,,,,,,METAR,1.0
CWQR 120500Z AUTO 07013KT M16/ RMK AO1 PK WND 08017/0451 T1159,CWQR,2015-02-12T05:00:00Z,50.22,-64.22,-15.9,,70,13,,,,,,TRUE,TRUE,,,,,,,,,,,,,,,,,,,,,,,,,,,METAR,9.0
CWQO 120500Z AUTO 07005KT M15/M18 RMK AO1 T11531184,CWQO,2015-02-12T05:00:00Z,48.42,-68.9,-15.3,-18.4,70,5,,,,,,TRUE,TRUE,,,,,,,,,,,,,,,,,,,,,,,,,,,METAR,1.0
CWQK 120500Z AUTO 34005KT 10/07 RMK AO1 SLP220 T00960070 53008,CWQK,2015-02-12T05:00:00Z,48.3,-123.53,9.6,7.0,340,5,,,,1022.0,,TRUE,TRUE,,,,,,,,,,,,,,,,0.8,,,,,,,,,,,METAR,5.0
CWQH 120500Z AUTO 04006KT M13/M16 RMK AO1 SOG 30 T11311160,CWQH,2015-02-12T05:00:00Z,45.37,-71.82,-13.1,-16.0,40,6,,,,,,TRUE,TRUE,,,,,,,,,,,,,,,,,,,,,,,,,,,METAR,181.0
CWMT 120500Z AUTO 07005KT M26/M28 RMK AO1 SLP220 T12551284 55008,CWMT,2015-02-12T05:00:00Z,63.13,-117.25,-25.5,-28.4,70,5,,,,1022.0,,TRUE,TRUE,,,,,,,,,,,,,,,,-0.8,,,,,,,,,,,SPECI,271.0
CWDZ 120500Z AUTO 15008KT M09/M11 RMK AO1 PRESFR SLP226 T10921106 58047,CWDZ,2015-02-12T05:00:00Z,51.42,-112.67,-9.2,-10.6,150,8,,,,1022.6,,TRUE,TRUE,,,,,,,,,,,,,,,,-4.7,,,,,,,,,,,METAR,678.0
CWDK 120500Z AUTO M06/M07 RMK AO1 SOG 01 8033 SLP231 T10551069,CWDK,2015-02-12T05:00:00Z,50.02,-113.62,-5.5,-6.9,,,,,,1023.1,,TRUE,TRUE,,,,,,,,,,,,,,,,,,,,,,,,,,,METAR,1012.0
CWCJ 120500Z AUTO 01007G18KT M22/M25 RMK AO1 1036 PK WND 01019/0422 SLP261 T12161254 50002,CWCJ,2015-02-12T05:00:00Z,48.6,-86.28,-21.6,-25.4,10,7,18,,,1026.1,,TRUE,TRUE,,,,,,,,,,,,,,,,0.2,,,,,,,,,,,METAR,206.0
CWBZ 120500Z AUTO 07005KT M12/M14 RMK AO1 SLP096 T11241138 58019,CWBZ,2015-02-12T05:00:00Z,45.12,-74.27,-12.4,-13.8,70,5,,,,1009.6,,TRUE,TRUE,,,,,,,,,,,,,,,,-1.9,,,,,,,,,,,METAR,49.0
CWBT 120500Z AUTO 05003KT M18/M21 RMK AO1 SLP216 T11751214 56019,CWBT,2015-02-12T05:00:00Z,50.27,-64.23,-17.5,-21.4,50,3,,,,1021.6,,TRUE,TRUE,,,,,,,,,,,,,,,,-1.9,,,,,,,,,,,METAR,11.0
CWBS 120500Z AUTO 04012KT M13/M17 RMK AO1 T11281169,CWBS,2015-02-12T05:00:00Z,46.18,-72.92,-12.8,-16.9,40,12,,,,,,TRUE,TRUE,,,,,,,,,,,,,,,,,,,,,,,,,,,METAR,16.0
CWBO 120500Z AUTO 16013G19KT M06/M07 RMK AO1 PRESFR SOG 09 8040 PK WND 16019/0459 SLP229 T10591073,CWBO,2015-02-12T05:00:00Z,50.53,-111.83,-5.9,-7.3,160,13,19,,,1022.9,,TRUE,TRUE,,,,,,,,,,,,,,,,,,,,,,,,,,,METAR,747.0
CWBA 120500Z AUTO 35007KT M10/M11 RMK AO1 SOG 63 T10981112 50010,CWBA,2015-02-12T05:00:00Z,46.72,-79.1,-9.8,-11.2,350,7,,,,,,TRUE,TRUE,,,,,,,,,,,,,,,,1.0,,,,,,,,,,,METAR,181.0
CWAV 120500Z AUTO 00000KT M07/M10 RMK AO1 SOG 13 6023 SLP205 T10741097,CWAV,2015-02-12T05:00:00Z,51.77,-114.67,-7.4,-9.7,0,0,,,,1020.5,,TRUE,TRUE,,,,,,,,,,,,,,,,,,,,,,,,,,,METAR,1114.0
CWAQ 120500Z AUTO 13008KT M18/M22 RMK AO1 SOG 00 6017 SLP372 T11831215,CWAQ,2015-02-12T05:00:00Z,49.05,-105.48,-18.3,-21.5,130,8,,,,1037.2,,TRUE,TRUE,,,,,,,,,,,,,,,,,,,,,,,,,,,METAR,756.0
CWAF 120500Z AUTO 00000KT M14/M16 RMK AO1 T11351155,CWAF,2015-02-12T05:00:00Z,48.07,-69.53,-13.5,-15.5,0,0,,,,,,TRUE,TRUE,,,,,,,,,,,,,,,,,,,,,,,,,,,METAR,5.0
CXKE 120500Z AUTO 07001KT M12/M14 RMK AO1 3PAST HR SOG 27 6024 SLP082 P0001 T11221143 50023,CXKE,2015-02-12T05:00:00Z,45.0,-75.63,-12.2,-14.3,70,1,,,,1008.2,,TRUE,TRUE,,,,,,,,,,,,,,,,2.3,,,,,0.01,,,,,,METAR,99.0
CXKA 120500Z AUTO 34012G17KT M23/M26 RMK AO1 SOG 72 1026 PK WND 34020/0427 SLP229 T12311263,CXKA,2015-02-12T05:00:00Z,49.4,-82.45,-23.1,-26.3,340,12,17,,,1022.9,,TRUE,TRUE,,,,,,,,,,,,,,,,,,,,,,,,,,,METAR,218.0
CWZS 120500Z AUTO 16002KT M18/M21 RMK AO1 SLP174 T11791209 58014,CWZS,2015-02-12T05:00:00Z,48.47,-67.43,-17.9,-20.9,160,2,,,,1017.4,,TRUE,TRUE,,,,,,,,,,,,,,,,-1.4,,,,,,,,,,,METAR,166.0
CWZO 120500Z AUTO 17001KT RMK AO1,CWZO,2015-02-12T05:00:00Z,48.55,-123.23,,,170,1,,,,,,TRUE,TRUE,,,,,,,,,,,,,,,,,,,,,,,,,,,METAR,1.0
CWZA 120500Z AUTO 12002KT 08/07 RMK AO1 SLP224 T00760070 50010,CWZA,2015-02-12T05:00:00Z,49.25,-121.77,7.6,7.0,120,2,,,,1022.4,,TRUE,TRUE,,,,,,,,,,,,,,,,1.0,,,,,,,,,,,METAR,15.0
CWYY 120500Z AUTO 16006KT 10/06 RMK AO1 SLP245 T00970060 58004,CWYY,2015-02-12T05:00:00Z,49.03,-119.43,9.7,6.0,160,6,,,,1024.5,,TRUE,TRUE,,,,,,,,,,,,,,,,-0.4,,,,,,,,,,,METAR,283.0
CWYL 120500Z AUTO 26013KT M00/M00 RMK AO1 SOG 92 5007 PK WND 26017/0420 SLP216 T10021002,CWYL,2015-02-12T05:00:00Z,51.45,-116.32,-0.2,-0.2,260,13,,,,1021.6,,TRUE,TRUE,,,,,,,,,,,,,,,,,,,,,,,,,,,METAR,1615.0
CWYJ 120500Z AUTO 28001KT 08/07 RMK AO1 SLP219 T00790069 51007,CWYJ,2015-02-12T05:00:00Z,48.45,-123.3,7.9,6.9,280,1,,,,1021.9,,TRUE,TRUE,,,,,,,,,,,,,,,,0.7,,,,,,,,,,,METAR,39.0
CWXL 120500Z AUTO 16022G29KT M06/M08 RMK AO1 PK WND 16029/0458 T10591081,CWXL,2015-02-12T05:00:00Z,49.73,-111.45,-5.9,-8.1,160,22,29,,,,,TRUE,TRUE,,,,,,,,,,,,,,,,,,,,,,,,,,,METAR,817.0
CWWF 120500Z AUTO 15006KT M25/M28 RMK AO1 SOG 08 6012 SLP422 T12501276,CWWF,2015-02-12T05:00:00Z,49.7,-103.8,-25.0,-27.6,150,6,,,,1042.2,,TRUE,TRUE,,,,,,,,,,,,,,,,,,,,,,,,,,,METAR,589.0
CWWA 120500Z AUTO 00000KT 10/06 RMK AO1 SOG 00 1014 SLP221 T01030055,CWWA,2015-02-12T05:00:00Z,49.35,-123.17,10.3,5.5,0,0,,,,1022.1,,TRUE,TRUE,,,,,,,,,,,,,,,,,,,,,,,,,,,METAR,178.0
CWVU 120500Z AUTO 03018G23KT M08/M09 RMK AO1 PK WND 03023/0403 SLP126 T10841093 58022,CWVU,2015-02-12T05:00:00Z,44.28,-66.33,-8.4,-9.3,30,18,23,,,1012.6,,TRUE,TRUE,,,,,,,,,,,,,,,,-2.2,,,,,,,,,,,METAR,16.0
CWVQ 120500Z AUTO 02005KT M13/M15 RMK AO1 5PAST HR SOG 29 6020 SLP100 P0002 T11281150 50007,CWVQ,2015-02-12T05:00:00Z,45.42,-73.92,-12.8,-15.0,20,5,,,,1010.0,,TRUE,TRUE,,,,,,,,,,,,,,,,0.7,,,,,0.02,,,,,,METAR,39.0
CWVP 120500Z AUTO 17007KT M12/M13 RMK AO1 SOG 00 7018 SLP279 T11151132,CWVP,2015-02-12T05:00:00Z,49.63,-109.52,-11.5,-13.2,170,7,,,,1027.9,,TRUE,TRUE,,,,,,,,,,,,,,,,,,,,,,,,,,,METAR,1271.0
CWVN 120500Z AUTO 15012KT M12/M14 RMK AO1 PK WND 16017/0417 SLP343 T11191143 55013,CWVN,2015-02-12T05:00:00Z,49.07,-107.57,-11.9,-14.3,150,12,,,,1034.3,,TRUE,TRUE,,,,,,,,,,,,,,,,-1.3,,,,,,,,,,,METAR,785.0
CWVF 120500Z AUTO 19004KT 10/09 RMK AO1 T00950087,CWVF,2015-02-12T05:00:00Z,49.1,-123.3,9.5,8.7,190,4,,,,,,TRUE,TRUE,,,,,,,,,,,,,,,,,,,,,,,,,,,METAR,1.0
CWUX 120500Z AUTO 09006KT M17/M21 RMK AO1 SLP139 T11731209 58020,CWUX,2015-02-12T05:00:00Z,48.3,-70.93,-17.3,-20.9,90,6,,,,1013.9,,TRUE,TRUE,,,,,,,,,,,,,,,,-2.0,,,,,,,,,,,METAR,135.0
CWUS 120500Z AUTO 14003KT 09/05 RMK AO1 SLP239 T00880047 56005,CWUS,2015-02-12T05:00:00Z,49.57,-119.65,8.8,4.7,140,3,,,,1023.9,,TRUE,TRUE,,,,,,,,,,,,,,,,-0.5,,,,,,,,,,,METAR,454.0
CWTY 120500Z AUTO 06015G22KT M12/M15 RMK AO1 PK WND 07023/0402 SLP112 T11211154 56026,CWTY,2015-02-12T05:00:00Z,46.35,-72.52,-12.1,-15.4,60,15,22,,,1011.2,,TRUE,TRUE,,,,,,,,,,,,,,,,-2.6,,,,,,,,,,,METAR,6.0
CWTT 120500Z AUTO 05001KT M14/M15 RMK AO1 T11361154,CWTT,2015-02-12T05:00:00Z,45.27,-72.17,-13.6,-15.4,50,1,,,,,,TRUE,TRUE,,,,,,,,,,,,,,,,,,,,,,,,,,,METAR,209.0
CWTN 120500Z AUTO 35007G15KT M13/M20 RMK AO1 PK WND 35018/0426 SLP148 T11281198 57024,CWTN,2015-02-12T05:00:00Z,47.07,-70.78,-12.8,-19.8,350,7,15,,,1014.8,,TRUE,TRUE,,,,,,,,,,,,,,,,-2.4,,,,,,,,,,,METAR,6.0
CWTG 120500Z AUTO 06018KT M16/M20 RMK AO1 PK WND 06023/0439 SLP192 T11621195 56025,CWTG,2015-02-12T05:00:00Z,49.32,-67.37,-16.2,-19.5,60,18,,,,1019.2,,TRUE,TRUE,,,,,,,,,,,,,,,,-2.5,,,,,,,,,,,METAR,5.0
CWTA 120500Z AUTO 02001KT M12/M14 RMK AO1 SLP097 T11231142 56023,CWTA,2015-02-12T05:00:00Z,45.5,-73.58,-12.3,-14.2,20,1,,,,1009.7,,TRUE,TRUE,,,,,,,,,,,,,,,,-2.3,,,,,,,,,,,METAR,63.0
CWMQ 120500Z AUTO 20008G16KT M07/M10 RMK AO1 SOG 01 8023 PK WND 18018/0400 SLP286 T10681096,CWMQ,2015-02-12T05:00:00Z,49.9,-109.47,-6.8,-9.6,200,8,16,,,1028.6,,TRUE,TRUE,,,,,,,,,,,,,,,,,,,,,,,,,,,METAR,767.0
CWMJ 120500Z AUTO 17005KT M12/M14 RMK AO1 0PAST HR SOG 35 6020 SLP083 P0004 T11241140 50010,CWMJ,2015-02-12T05:00:00Z,46.27,-76.0,-12.4,-14.0,170,5,,,,1008.3,,TRUE,TRUE,,,,,,,,,,,,,,,,1.0,,,,,0.04,,,,,,METAR,200.0
CWLM 120500Z AUTO 26003KT 09/07 RMK AO1 SLP221 T00860073 51006,CWLM,2015-02-12T05:00:00Z,48.42,-123.32,8.6,7.3,260,3,,,,1022.1,,TRUE,TRUE,,,,,,,,,,,,,,,,0.6,,,,,,,,,,,METAR,70.0
CWLE 120500Z AUTO 15009KT M20/M23 RMK AO1 SOG 11 8030 SLP357 T11961232,CWLE,2015-02-12T05:00:00Z,50.95,-107.15,-19.6,-23.2,150,9,,,,1035.7,,TRUE,TRUE,,,,,,,,,,,,,,,,,,,,,,,,,,,METAR,665.0
CWLC 120500Z AUTO 12018KT 08/06 RMK AO1 PK WND 12022/0442 T00760056,CWLC,2015-02-12T05:00:00Z,54.3,-130.62,7.6,5.6,120,18,,,,,,TRUE,TRUE,,,,,,,,,,,,,,,,,,,,,,,,,,,METAR,27.0
CWKX 120500Z AUTO 05003KT M16/M18 RMK AO1 SOG 47 3001 SLP176 T11581177,CWKX,2015-02-12T05:00:00Z,58.43,-130.02,-15.8,-17.7,50,3,,,,1017.6,,TRUE,TRUE,,,,,,,,,,,,,,,,,,,,,,,,,,,METAR,793.0
CWKH 120500Z AUTO 08/05 RMK AO1 SLP209 T00810052 51009,CWKH,2015-02-12T05:00:00Z,48.57,-123.55,8.1,5.2,,,,,,1020.9,,TRUE,TRUE,,,,,,,,,,,,,,,,0.9,,,,,,,,,,,METAR,366.0
CWKG 120500Z AUTO 34004KT M15/M16 RMK AO1 SLP105 T11461163 56026,CWKG,2015-02-12T05:00:00Z,44.43,-65.2,-14.6,-16.3,340,4,,,,1010.5,,TRUE,TRUE,,,,,,,,,,,,,,,,-2.6,,,,,,,,,,,METAR,165.0
CWJX 120500Z AUTO 10014KT M14/M17 RMK AO1 PRESFR SOG 03 8038 SLP294 T11401169,CWJX,2015-02-12T05:00:00Z,50.88,-109.5,-14.0,-16.9,100,14,,,,1029.4,,TRUE,TRUE,,,,,,,,,,,,,,,,,,,,,,,,,,,METAR,672.0
CWJV 120500Z AUTO 11007KT 03/03 RMK AO1 SLP244 T00320030 56003,CWJV,2015-02-12T05:00:00Z,50.22,-119.18,3.2,3.0,110,7,,,,1024.4,,TRUE,TRUE,,,,,,,,,,,,,,,,-0.3,,,,,,,,,,,METAR,556.0
CWJR 120500Z AUTO 07002KT 06/05 RMK AO1 SOG 00 5004 SLP263 T00620048,CWJR,2015-02-12T05:00:00Z,49.07,-116.5,6.2,4.8,70,2,,,,1026.3,,TRUE,TRUE,,,,,,,,,,,,,,,,,,,,,,,,,,,METAR,646.0
CWJO 120500Z AUTO 10012G19KT M18/M21 RMK AO1 PK WND 11024/0448 SLP144 T11761214 58020,CWJO,2015-02-12T05:00:00Z,48.43,-71.15,-17.6,-21.4,100,12,19,,,1014.4,,TRUE,TRUE,,,,,,,,,,,,,,,,-2.0,,,,,,,,,,,METAR,133.0
CWJI 120500Z AUTO 14009KT M19/M23 RMK AO1 SOG 02 6018 SLP378 T11941231 50002,CWJI,2015-02-12T05:00:00Z,49.72,-105.92,-19.4,-23.1,140,9,,,,1037.8,,TRUE,TRUE,,,,,,,,,,,,,,,,0.2,,,,,,,,,,,METAR,724.0
CZTB 120500Z AUTO 35008KT M19/M24 RMK AO1 SLP317 T11941242 51032,CZTB,2015-02-12T05:00:00Z,48.37,-89.32,-19.4,-24.2,350,8,,,,1031.7,,TRUE,TRUE,,,,,,,,,,,,,,,,3.2,,,,,,,,,,,METAR,199.0
CZMJ 120500Z AUTO 14011KT M23/M26 RMK AO1 SOG 02 8015 SLP407 T12271261,CZMJ,2015-02-12T05:00:00Z,50.33,-105.57,-22.7,-26.1,140,11,,,,1040.7,,TRUE,TRUE,,,,,,,,,,,,,,,,,,,,,,,,,,,METAR,577.0
CXZV 120500Z AUTO 05005KT M17/M22 RMK AO1 SOG 44 7025 SLP202 T11701220 50002,CXZV,2015-02-12T05:00:00Z,50.22,-66.25,-17.0,-22.0,50,5,,,,1020.2,,TRUE,TRUE,,,,,,,,,,,,,,,,0.2,,,,,,,,,,,METAR,52.0
CXTD 120500Z AUTO 35007KT M09/M10 RMK AO1 SLP115 T10911101 56040,CXTD,2015-02-12T05:00:00Z,45.62,-61.68,-9.1,-10.1,350,7,,,,1011.5,,TRUE,TRUE,,,,,,,,,,,,,,,,-4.0,,,,,,,,,,,METAR,68.0
CXRL 120500Z AUTO M19/M22 RMK AO1 T11911219,CXRL,2015-02-12T05:00:00Z,54.5,-111.7,-19.1,-21.9,,,,,,,,TRUE,TRUE,,,,,,,,,,,,,,,,,,,,,,,,,,,METAR,585.0
CXPC 120500Z AUTO M07/M09 RMK AO1 2PAST HR SOG 45 3013 SLP081 P0001 T10731092 50009,CXPC,2015-02-12T05:00:00Z,45.35,-80.05,-7.3,-9.2,,,,,,1008.1,,TRUE,TRUE,,,,,,,,,,,,,,,,0.9,,,,,0.01,,,,,,METAR,176.0
CXLB 120500Z AUTO 01012G17KT M10/ RMK AO1 PK WND 03018/0416 SLP093 T1095 56038,CXLB,2015-02-12T05:00:00Z,44.37,-64.3,-9.5,,10,12,17,,,1009.3,,TRUE,TRUE,,,,,,,,,,,,,,,,-3.8,,,,,,,,,,,METAR,4.0
CXKI 120500Z AUTO M21/M23 RMK AO1 2PAST HR SOG 53 3033 SLP144 P0001 T12091229 50009,CXKI,2015-02-12T05:00:00Z,48.22,-80.0,-20.9,-22.9,,,,,,1014.4,,TRUE,TRUE,,,,,,,,,,,,,,,,0.9,,,,,0.01,,,,,,METAR,324.0
CXCP 120500Z AUTO 16004KT M07/M08 RMK AO1 T10731079,CXCP,2015-02-12T05:00:00Z,50.28,-113.35,-7.3,-7.9,160,4,,,,,,TRUE,TRUE,,,,,,,,,,,,,,,,,,,,,,,,,,,METAR,1006.0
CWRN 120500Z AUTO 03021G27KT M04/ RMK AO1 PK WND 02027/0454 T1036,CWRN,2015-02-12T05:00:00Z,45.35,-60.98,-3.6,,30,21,27,,,,,TRUE,TRUE,,,,,,,,,,,,,,,,,,,,,,,,,,,METAR,8.0
CWBV 120500Z AUTO 04027KT M06/M08 RMK AO1 PK WND 03035/0403 SLP065 T10551084 56053,CWBV,2015-02-12T05:00:00Z,44.82,-62.32,-5.5,-8.4,40,27,,,,1006.5,,TRUE,TRUE,,,,,,,,,,,,,,,,-5.3,,,,,,,,,,,METAR,10.0
CWSF 120500Z AUTO 16014KT M20/M24 RMK AO1 SLP202 T12041235 58021,CWSF,2015-02-12T05:00:00Z,49.25,-65.32,-20.4,-23.5,160,14,,,,1020.2,,TRUE,TRUE,,,,,,,,,,,,,,,,-2.1,,,,,,,,,,,METAR,29.0
CWSS 120500Z AUTO 03004KT M18/M21 RMK AO1 SOG 52 8026 SLP147 T11781208,CWSS,2015-02-12T05:00:00Z,45.2,-67.25,-17.8,-20.8,30,4,,,,1014.7,,TRUE,TRUE,,,,,,,,,,,,,,,,,,,,,,,,,,,METAR,26.0
CWIK 120500Z AUTO 18002KT M32/M36 RMK AO1 SOG 10 6008 SLP436 T13201355,CWIK,2015-02-12T05:00:00Z,50.37,-102.58,-32.0,-35.5,180,2,,,,1043.6,,TRUE,TRUE,,,,,,,,,,,,,,,,,,,,,,,,,,,SPECI,602.0
CWBU 120500Z AUTO 19007KT M28/M32 RMK AO1 SOG 25 8029 SLP411 T12811316,CWBU,2015-02-12T05:00:00Z,53.33,-104.02,-28.1,-31.6,190,7,,,,1041.1,,TRUE,TRUE,,,,,,,,,,,,,,,,,,,,,,,,,,,SPECI,373.0
CWPZ 120500Z AUTO 09004KT 01/00 RMK AO1 SOG 74 7001 SLP167 T00070000 50019,CWPZ,2015-02-12T05:00:00Z,54.38,-125.97,0.7,0.0,90,4,,,,1016.7,,TRUE,TRUE,,,,,,,,,,,,,,,,1.9,,,,,,,,,,,METAR,713.0
CWPR 120500Z AUTO 19001KT 02/01 RMK AO1 SOG 24 0004 SLP241 T00160012,CWPR,2015-02-12T05:00:00Z,49.47,-120.52,1.6,1.2,190,1,,,,1024.1,,TRUE,TRUE,,,,,,,,,,,,,,,,,,,,,,,,,,,METAR,700.0
CWPE 120500Z AUTO 01008KT M16/M19 RMK AO1 18 0439Z SOG 18 7032 SLP136 T11611190,CWPE,2015-02-12T05:00:00Z,45.07,-66.47,-16.1,-19.0,10,8,,,,1013.6,,TRUE,TRUE,,,,,,,,,,,,,,,,,,,,,,,,,,,METAR,1.0
CWPD 120500Z AUTO 17002KT M16/M21 RMK AO1 SLP105 T11571211 56015,CWPD,2015-02-12T05:00:00Z,47.57,-71.22,-15.7,-21.1,170,2,,,,1010.5,,TRUE,TRUE,,,,,,,,,,,,,,,,-1.5,,,,,,,,,,,METAR,803.0
CWOE 120500Z AUTO 11015KT M08/M10 RMK AO1 PK WND 10018/0429 SLP279 T10831096 58026,CWOE,2015-02-12T05:00:00Z,49.12,-110.47,-8.3,-9.6,110,15,,,,1027.9,,TRUE,TRUE,,,,,,,,,,,,,,,,-2.6,,,,,,,,,,,METAR,935.0
CWOD 120500Z AUTO 05003KT M19/M21 RMK AO1 5PAST HR SOG 08 6021 SLP116 P0002 T11891209 50013,CWOD,2015-02-12T05:00:00Z,48.85,-72.55,-18.9,-20.9,50,3,,,,1011.6,,TRUE,TRUE,,,,,,,,,,,,,,,,1.3,,,,,0.02,,,,,,METAR,137.0
CWOC 120500Z AUTO 02003KT M19/M22 RMK AO1 SLP190 T11861221 58020,CWOC,2015-02-12T05:00:00Z,48.02,-65.32,-18.6,-22.1,20,3,,,,1019.0,,TRUE,TRUE,,,,,,,,,,,,,,,,-2.0,,,,,,,,,,,METAR,47.0
CWNQ 120500Z AUTO 06006KT M13/M18 RMK AO1 SLP103 T11321179 56023,CWNQ,2015-02-12T05:00:00Z,46.22,-72.65,-13.2,-17.9,60,6,,,,1010.3,,TRUE,TRUE,,,,,,,,,,,,,,,,-2.3,,,,,,,,,,,METAR,10.0
CWNP 120500Z AUTO 01002KT 03/03 RMK AO1 SOG 14 5003 SLP255 T00310030,CWNP,2015-02-12T05:00:00Z,50.27,-117.82,3.1,3.0,10,2,,,,1025.5,,TRUE,TRUE,,,,,,,,,,,,,,,,,,,,,,,,,,,METAR,524.0
CWNM 120500Z AUTO 24006KT 05/04 RMK AO1 2PAST HR 3002 SLP263 P0001 T00540042 50002,CWNM,2015-02-12T05:00:00Z,49.5,-117.28,5.4,4.2,240,6,,,,1026.3,,TRUE,TRUE,,,,,,,,,,,,,,,,0.2,,,,,0.01,,,,,,METAR,535.0
CWNK 120500Z AUTO 31002KT M26/M28 RMK AO1 T12571282,CWNK,2015-02-12T05:00:00Z,49.5,-98.03,-25.7,-28.2,310,2,,,,,,TRUE,TRUE,,,,,,,,,,,,,,,,,,,,,,,,,,,METAR,268.0
CWHV 120500Z AUTO 16003KT M14/M20 RMK AO1 SLP116 T11391200 56022,CWHV,2015-02-12T05:00:00Z,46.2,-70.77,-13.9,-20.0,160,3,,,,1011.6,,TRUE,TRUE,,,,,,,,,,,,,,,,-2.2,,,,,,,,,,,METAR,229.0
UUOK 120500Z 21003MPS 1200 R12/1200 BR OVC003 M06/M07 Q1028 NOSIG RMK 12490131,UUOK,2015-02-12T05:00:00Z,51.75,36.28,-6.0,-7.0,210,6,,0.75,30.35433,,,,,,TRUE,,,,BR,OVC,300,,,,,,,LIFR,,,,,,,,,,,,METAR,209.0
UWOR 120500Z 28010MPS 9999 DRSN SCT009 OVC100 M10/M13 Q1015 25820255 NOSIG RMK QFE738/0983,UWOR,2015-02-12T05:00:00Z,51.07,58.6,-10.0,-13.0,280,19,,6.21,29.970472,,,,,,TRUE,,,,DRSN,SCT,900,OVC,10000,,,,,VFR,,,,,,,,,,,,SPECI,277.0
UWLW 120500Z 28003MPS 8000 OVC010 M03/M04 Q1021 20490145 TEMPO 2100 -SNRA BR BKN007 RMK QFE760,UWLW,2015-02-12T05:00:00Z,54.4,48.8,-3.0,-4.0,280,6,,4.97,30.147638,,,,,,,,,,,OVC,1000,,,,,,,MVFR,,,49.0,,,,,,,,,METAR,66.0
FMNN 120500Z 14002KT 9999 BKN020 29/25 Q1012,FMNN,2015-02-12T05:00:00Z,-13.32,48.32,29.0,25.0,140,2,,6.21,29.88189,,,,,,,,,,,BKN,2000,,,,,,,MVFR,,,,,,,,,,,,METAR,9.0
GUCY 120500Z VRB02KT 9999 SCT015 25/23 Q1013 NOSIG,GUCY,2015-02-12T05:00:00Z,9.57,-13.62,25.0,23.0,0,2,,6.21,29.911417,,,,,,TRUE,,,,,SCT,1500,,,,,,,VFR,,,,,,,,,,,,METAR,26.0
DAOY 120500Z 00000KT 9999 BKN026 04/M02 Q1018,DAOY,2015-02-12T05:00:00Z,33.72,1.08,4.0,-2.0,0,0,,6.21,30.059055,,,,,,,,,,,BKN,2600,,,,,,,MVFR,,,,,,,,,,,,METAR,1347.0
LICD 120500Z 25003KT CAVOK 11/08 Q1021,LICD,2015-02-12T05:00:00Z,35.5,12.62,11.0,8.0,250,3,,6.21,30.147638,,,,,,,,,,,CAVOK,,,,,,,,VFR,,,,,,,,,,,,SPECI,20.0
TLPL 110500Z 15008KT 9999 FEW020 27/23 Q1014 NOSIG,TLPL,2015-02-12T05:00:00Z,13.75,-60.95,27.0,23.0,150,8,,6.21,29.940945,,,,,,TRUE,,,,,FEW,2000,,,,,,,VFR,,,,,,,,,,,,METAR,3.0
FKYS 120500Z VRB02KT 8000 BKN006 23/22 Q1015 NOSIG,FKYS,2015-02-12T05:00:00Z,3.82,11.52,23.0,22.0,0,2,,4.97,29.970472,,,,,,TRUE,,,,,BKN,600,,,,,,,IFR,,,,,,,,,,,,METAR,760.0
FKKN 120500Z 32002KT CAVOK 18/02 Q1016,FKKN,2015-02-12T05:00:00Z,7.33,13.57,18.0,2.0,320,2,,6.21,30.0,,,,,,,,,,,CAVOK,,,,,,,,VFR,,,,,,,,,,,,METAR,1104.0
VTCT 120500Z 09005KT 8000 NSC 24/16 Q1014 A2996 RMK/RWY03 INFO F,VTCT,2015-02-12T05:00:00Z,19.95,99.88,24.0,16.0,90,5,,4.97,29.940945,,,,,,,,,,,,,,,,,,,,,,,,,,,,,,,SPECI,390.0
VTCH 120500Z VRB03KT 6000 SCT025 26/14 Q1014 A2994 INFO: F,VTCH,2015-02-12T05:00:00Z,19.3,97.98,26.0,14.0,0,3,,3.73,29.940945,,,,,,,,,,,SCT,2500,,,,,,,MVFR,,,,,,,,,,,,SPECI,269.0
VTUU 120500Z 06005KT 8000 NSC 29/16 Q1013 A2993 NOSIG,VTUU,2015-02-12T05:00:00Z,15.25,104.87,29.0,16.0,60,5,,4.97,29.911417,,,,,,TRUE,,,,,,,,,,,,,,,,,,,,,,,,,SPECI,127.0
VTUK 120500Z 11007KT 050V170 8000 NSC 28/15 Q1014 A2996 RWY03 INFO G,VTUK,2015-02-12T05:00:00Z,16.47,102.78,28.0,15.0,110,7,,4.97,29.940945,,,,,,,,,,,,,,,,,,,,,,,,,,,,,,,SPECI,204.0
VTUI 120500Z 11008KT CAVOK 27/17 Q1015 A2999 INFO F RWY05,VTUI,2015-02-12T05:00:00Z,17.2,104.12,27.0,17.0,110,8,,6.21,29.970472,,,,,,,,,,,CAVOK,,,,,,,,VFR,,,,,,,,,,,,SPECI,172.0
VTSM 120500Z 15012KT 8000 FEW020 BKN300 30/22 Q1013 A2994,VTSM,2015-02-12T05:00:00Z,9.55,100.07,30.0,22.0,150,12,,4.97,29.911417,,,,,,,,,,,FEW,2000,BKN,30000,,,,,MVFR,,,,,,,,,,,,METAR,17.0
VTSH 120500Z 11008KT 9999 FEW020 BKN300 29/23 Q1013 A2992,VTSH,2015-02-12T05:00:00Z,7.2,100.58,29.0,23.0,110,8,,6.21,29.911417,,,,,,,,,,,FEW,2000,BKN,30000,,,,,VFR,,,,,,,,,,,,METAR,5.0
VTSF 120500Z 12007KT 080V170 9999 FEW020 29/22 Q1013 A2992 INFO F / RWY 19,VTSF,2015-02-12T05:00:00Z,8.53,99.95,29.0,22.0,120,7,,6.21,29.911417,,,,,,,,,,,FEW,2000,,,,,,,VFR,,,,,,,,,,,,SPECI,4.0
VTSB 120500Z 06005KT 8000 FEW020 SCT300 30/22 Q1013 A2991,VTSB,2015-02-12T05:00:00Z,9.12,99.13,30.0,22.0,60,5,,4.97,29.911417,,,,,,,,,,,FEW,2000,SCT,30000,,,,,MVFR,,,,,,,,,,,,METAR,11.0
CWDQ 120500Z AUTO 18003KT M13/M15 RMK AO1 SOG 36 6026 SLP110 T11331153,CWDQ,2015-02-12T05:00:00Z,47.42,-72.78,-13.3,-15.3,180,3,,,,1011.0,,TRUE,TRUE,,,,,,,,,,,,,,,,,,,,,,,,,,,METAR,169.0
CWWB 120500Z AUTO 25004KT M02/M03 RMK AO1 SLP093 T10161032 56007,CWWB,2015-02-12T05:00:00Z,43.3,-79.78,-1.6,-3.2,250,4,,,,1009.3,,TRUE,TRUE,,,,,,,,,,,,,,,,-0.7,,,,,,,,,,,METAR,76.0
CWWZ 120500Z AUTO 25008KT M01/M02 RMK AO1 SOG 08 6008 PK WND 26018/0421 SLP092 T10121023 50003,CWWZ,2015-02-12T05:00:00Z,43.25,-79.22,-1.2,-2.3,250,8,,,,1009.2,,TRUE,TRUE,,,,,,,,,,,,,,,,0.3,,,,,,,,,,,METAR,79.0
CWPO 120500Z AUTO 33003KT M28/M31 RMK AO1 SLP443 T12821310 55001,CWPO,2015-02-12T05:00:00Z,49.2,-98.9,-28.2,-31.0,330,3,,,,1044.3,,TRUE,TRUE,,,,,,,,,,,,,,,,-0.1,,,,,,,,,,,METAR,470.0
CWPC 120500Z AUTO 29001KT M02/M03 RMK AO1 SLP096 T10221032 58011,CWPC,2015-02-12T05:00:00Z,42.87,-79.25,-2.2,-3.2,290,1,,,,1009.6,,TRUE,TRUE,,,,,,,,,,,,,,,,-1.1,,,,,,,,,,,METAR,184.0
CWBE 120500Z AUTO 29013G19KT M09/M11 RMK AO1 PK WND 29020/0450 SLP094 T10911108 53007,CWBE,2015-02-12T05:00:00Z,45.98,-81.48,-9.1,-10.8,290,13,19,,,1009.4,,TRUE,TRUE,,,,,,,,,,,,,,,,0.7,,,,,,,,,,,METAR,196.0
CWAJ 120500Z AUTO 26005KT M04/M07 RMK AO1 SLP123 T10421066 52003,CWAJ,2015-02-12T05:00:00Z,42.25,-81.9,-4.2,-6.6,260,5,,,,1012.3,,TRUE,TRUE,,,,,,,,,,,,,,,,0.3,,,,,,,,,,,METAR,178.0
CWJH 120500Z AUTO 22001KT M24/M28 RMK AO1 SOG 43 6028 SLP382 T12421278,CWJH,2015-02-12T05:00:00Z,56.32,-103.27,-24.2,-27.8,220,1,,,,1038.2,,TRUE,TRUE,,,,,,,,,,,,,,,,,,,,,,,,,,,METAR,344.0
CWJB 120500Z AUTO 07013G20KT M14/M16 RMK AO1 SOG 44 PK WND 07020/0427 T11381160,CWJB,2015-02-12T05:00:00Z,46.78,-71.27,-13.8,-16.0,70,13,20,,,,,TRUE,TRUE,,,,,,,,,,,,,,,,,,,,,,,,,,,METAR,91.0
CWIZ 120500Z AUTO 35002KT M13/M14 RMK AO1 T11261140,CWIZ,2015-02-12T05:00:00Z,45.28,-73.33,-12.6,-14.0,350,2,,,,,,TRUE,TRUE,,,,,,,,,,,,,,,,,,,,,,,,,,,METAR,45.0
CWIW 120500Z AUTO 16009KT M25/M28 RMK AO1 SOG 03 8023 SLP402 T12511279,CWIW,2015-02-12T05:00:00Z,51.67,-105.4,-25.1,-27.9,160,9,,,,1040.2,,TRUE,TRUE,,,,,,,,,,,,,,,,,,,,,,,,,,,METAR,526.0
CWIT 120500Z AUTO 08003KT M13/M14 RMK AO1 3PAST HR SOG 15 6026 SLP090 P0001 T11251142 50028,CWIT,2015-02-12T05:00:00Z,45.17,-73.67,-12.5,-14.2,80,3,,,,1009.0,,TRUE,TRUE,,,,,,,,,,,,,,,,2.8,,,,,0.01,,,,,,METAR,52.0
CWIS 120500Z AUTO 02003KT M21/M23 RMK AO1 SOG 96 8021 SLP125 T12081228,CWIS,2015-02-12T05:00:00Z,47.28,-70.63,-20.8,-22.8,20,3,,,,1012.5,,TRUE,TRUE,,,,,,,,,,,,,,,,,,,,,,,,,,,METAR,719.0
CWIP 120500Z AUTO 04006KT M16/ RMK AO1 T1160,CWIP,2015-02-12T05:00:00Z,50.17,-66.43,-16.0,,40,6,,,,,,TRUE,TRUE,,,,,,,,,,,,,,,,,,,,,,,,,,,METAR,25.0
CWII 120500Z AUTO 36005KT M27/M29 RMK AO1 T12651294,CWII,2015-02-12T05:00:00Z,50.7,-96.57,-26.5,-29.4,360,5,,,,,,TRUE,TRUE,,,,,,,,,,,,,,,,,,,,,,,,,,,METAR,220.0
SYCJ 120500Z 00000KT CAVOK 23/22 Q1013 NOSIG,SYCJ,2015-02-12T05:00:00Z,6.5,-58.25,23.0,22.0,0,0,,6.21,29.911417,,,,,,TRUE,,,,,CAVOK,,,,,,,,VFR,,,,,,,,,,,,METAR,30.0
SGAS 120500Z 00000KT 9999 BKN020 BKN070 25/23 Q1012,SGAS,2015-02-12T05:00:00Z,-25.25,-57.52,25.0,23.0,0,0,,6.21,29.88189,,,,,,,,,,,BKN,2000,BKN,7000,,,,,MVFR,,,,,,,,,,,,METAR,101.0
DAOI 120500Z 06006KT CAVOK 09/04 Q1017,DAOI,2015-02-12T05:00:00Z,36.22,1.32,9.0,4.0,60,6,,6.21,30.029528,,,,,,,,,,,CAVOK,,,,,,,,VFR,,,,,,,,,,,,METAR,143.0
GOGG 120500Z VRB02KT 8000 NSC 18/17 Q1012,GOGG,2015-02-12T05:00:00Z,12.55,-16.27,18.0,17.0,0,2,,4.97,29.88189,,,,,,,,,,,,,,,,,,,,,,,,,,,,,,,METAR,23.0
GOSS 120500Z 04008KT CAVOK 19/18 Q1013,GOSS,2015-02-12T05:00:00Z,16.05,-16.43,19.0,18.0,40,8,,6.21,29.911417,,,,,,,,,,,CAVOK,,,,,,,,VFR,,,,,,,,,,,,METAR,4.0
GOGS 120500Z 36006KT CAVOK 19/17 Q1013,GOGS,2015-02-12T05:00:00Z,12.4,-16.75,19.0,17.0,360,6,,6.21,29.911417,,,,,,,,,,,CAVOK,,,,,,,,VFR,,,,,,,,,,,,METAR,13.0
OEYN 120500Z 30008KT CAVOK 17/08 Q1016 NOSIG,OEYN,2015-02-12T05:00:00Z,24.13,38.07,17.0,8.0,300,8,,6.21,30.0,,,,,,TRUE,,,,,CAVOK,,,,,,,,VFR,,,,,,,,,,,,METAR,8.0
OEWJ 120500Z 01006KT 5000 DU BKN040 17/08 Q1019 NOSIG,OEWJ,2015-02-12T05:00:00Z,26.18,36.47,17.0,8.0,10,6,,3.11,30.088583,,,,,,TRUE,,,,DU,BKN,4000,,,,,,,MVFR,,,,,,,,,,,,METAR,16.0
OEWD 120500Z 00000KT CAVOK 18/06 Q1015 NOSIG,OEWD,2015-02-12T05:00:00Z,20.5,45.2,18.0,6.0,0,0,,6.21,29.970472,,,,,,TRUE,,,,,CAVOK,,,,,,,,VFR,,,,,,,,,,,,METAR,617.0
OETB 120500Z 21008KT 3000 BLDU SKC 08/M02 Q1017 NOSIG,OETB,2015-02-12T05:00:00Z,28.37,36.62,8.0,-2.0,210,8,,1.86,30.029528,,,,,,TRUE,,,,BLDU,SKC,,,,,,,,IFR,,,,,,,,,,,,METAR,770.0
OESK 120500Z 29011KT 2500 DU SKC 07/M04 Q1019 NOSIG,OESK,2015-02-12T05:00:00Z,29.77,40.1,7.0,-4.0,290,11,,1.55,30.088583,,,,,,TRUE,,,,DU,SKC,,,,,,,,IFR,,,,,,,,,,,,METAR,684.0
OESH 120500Z 20005KT CAVOK 18/08 Q1016 NOSIG,OESH,2015-02-12T05:00:00Z,17.47,47.12,18.0,8.0,200,5,,6.21,30.0,,,,,,TRUE,,,,,CAVOK,,,,,,,,VFR,,,,,,,,,,,,METAR,722.0
OERR 120500Z 29013KT 2000 BLDU SKC 07/01 Q1017 NOSIG,OERR,2015-02-12T05:00:00Z,30.88,41.12,7.0,1.0,290,13,,1.24,30.029528,,,,,,TRUE,,,,BLDU,SKC,,,,,,,,IFR,,,,,,,,,,,,METAR,552.0
OERF 120500Z 32013KT 7000 BLDU 14/00 Q1014,OERF,2015-02-12T05:00:00Z,29.62,43.47,14.0,0.0,320,13,,4.35,29.940945,,,,,,,,,,BLDU,,,,,,,,,,,,,,,,,,,,,METAR,447.0
OEPA 120500Z 30016KT 7000 SCT035 18/08 Q1014 NOSIG,OEPA,2015-02-12T05:00:00Z,28.32,46.12,18.0,8.0,300,16,,4.35,29.940945,,,,,,TRUE,,,,,SCT,3500,,,,,,,MVFR,,,,,,,,,,,,METAR,355.0
OEMK 120500Z 00000KT CAVOK 21/13 Q1016,OEMK,2015-02-12T05:00:00Z,21.43,40.0,21.0,13.0,0,0,,6.21,30.0,,,,,,,,,,,CAVOK,,,,,,,,VFR,,,,,,,,,,,,METAR,369.0
OEKM 120500Z 00000KT CAVOK 15/02 Q1026 NOSIG,OEKM,2015-02-12T05:00:00Z,18.3,42.78,15.0,2.0,0,0,,6.21,30.295275,,,,,,TRUE,,,,,CAVOK,,,,,,,,VFR,,,,,,,,,,,,METAR,2054.0
OEKJ 120500Z 18008KT 9999 FEW050 23/M02 Q1016,OEKJ,2015-02-12T05:00:00Z,24.07,47.58,23.0,-2.0,180,8,,6.21,30.0,,,,,,,,,,,FEW,5000,,,,,,,VFR,,,,,,,,,,,,METAR,503.0
OEHL 120500Z 33010KT 8000 SKC 09/M03 Q1018 NOSIG,OEHL,2015-02-12T05:00:00Z,27.42,41.67,9.0,-3.0,330,10,,4.97,30.059055,,,,,,TRUE,,,,,SKC,,,,,,,,MVFR,,,,,,,,,,,,METAR,1013.0
OEGT 120500Z 18004KT 4000 DU SKC 05/M04 Q1017 NOSIG,OEGT,2015-02-12T05:00:00Z,31.42,37.27,5.0,-4.0,180,4,,2.49,30.029528,,,,,,TRUE,,,,DU,SKC,,,,,,,,IFR,,,,,,,,,,,,METAR,499.0
OEGS 120500Z 34020KT 4000 DU SCT040 18/03 Q1017,OEGS,2015-02-12T05:00:00Z,26.3,43.77,18.0,3.0,340,20,,2.49,30.029528,,,,,,,,,,DU,SCT,4000,,,,,,,IFR,,,,,,,,,,,,METAR,650.0
OEGN 120500Z 00000KT 9999 SCT030 26/21 Q1016 NOSIG,OEGN,2015-02-12T05:00:00Z,16.88,42.57,26.0,21.0,0,0,,6.21,30.0,,,,,,TRUE,,,,,SCT,3000,,,,,,,VFR,,,,,,,,,,,,METAR,3.0
OEDM 120500Z 26004KT CAVOK 18/10 Q1018,OEDM,2015-02-12T05:00:00Z,24.45,44.12,18.0,10.0,260,4,,6.21,30.059055,,,,,,,,,,,CAVOK,,,,,,,,VFR,,,,,,,,,,,,METAR,922.0
OEBH 120500Z 11002KT CAVOK 17/07 Q1019 NOSIG,OEBH,2015-02-12T05:00:00Z,19.97,42.62,17.0,7.0,110,2,,6.21,30.088583,,,,,,TRUE,,,,,CAVOK,,,,,,,,VFR,,,,,,,,,,,,METAR,1157.0
OEBA 120500Z 18003KT CAVOK 18/11 Q1021 NOSIG,OEBA,2015-02-12T05:00:00Z,20.3,41.62,18.0,11.0,180,3,,6.21,30.147638,,,,,,TRUE,,,,,CAVOK,,,,,,,,VFR,,,,,,,,,,,,METAR,1656.0
OEAO 120500Z 00000KT 5000 DU SKC 09/M02 Q1020,OEAO,2015-02-12T05:00:00Z,26.48,38.12,9.0,-2.0,0,0,,3.11,30.11811,,,,,,,,,,DU,SKC,,,,,,,,MVFR,,,,,,,,,,,,METAR,624.0
OEAH 120500Z 24013KT CAVOK 21/02 Q1014 NOSIG,OEAH,2015-02-12T05:00:00Z,25.27,49.47,21.0,2.0,240,13,,6.21,29.940945,,,,,,TRUE,,,,,CAVOK,,,,,,,,VFR,,,,,,,,,,,,METAR,172.0
OEAB 120500Z 20004KT CAVOK 15/03 Q1026 NOSIG,OEAB,2015-02-12T05:00:00Z,18.22,42.63,15.0,3.0,200,4,,6.21,30.295275,,,,,,TRUE,,,,,CAVOK,,,,,,,,VFR,,,,,,,,,,,,METAR,2084.0
OETF 120500Z 17006KT CAVOK 16/05 Q1020 NOSIG,OETF,2015-02-12T05:00:00Z,21.47,40.53,16.0,5.0,170,6,,6.21,30.11811,,,,,,TRUE,,,,,CAVOK,,,,,,,,VFR,,,,,,,,,,,,METAR,1449.0
VTUL 120500Z 12006KT 3000 HZ NSC 28/17 Q1015 A2996,VTUL,2015-02-12T05:00:00Z,17.43,101.72,28.0,17.0,120,6,,1.86,29.970472,,,,,,,,,,HZ,,,,,,,,,,,,,,,,,,,,,SPECI,254.0
SAME 120500Z 32002KT CAVOK 24/11 Q1011,SAME,2015-02-12T05:00:00Z,-32.82,-68.77,24.0,11.0,320,2,,6.21,29.852362,,,,,,,,,,,CAVOK,,,,,,,,VFR,,,,,,,,,,,,METAR,704.0
URWI 120500Z 07004MPS 8000 BKN004 M04/M04 Q1025 NOSIG RMK QBB120,URWI,2015-02-12T05:00:00Z,46.37,44.33,-4.0,-4.0,70,8,,4.97,30.265747,,,,,,TRUE,,,,,BKN,400,,,,,,,LIFR,,,,,,,,,,,,METAR,150.0
FYWH 120500Z 01003KT 9999 VCSH FEW030 BKN090 18/14 Q1024 NOSIG,FYWH,2015-02-12T05:00:00Z,-22.47,17.47,18.0,14.0,10,3,,6.21,30.236221,,,,,,TRUE,,,,VCSH,FEW,3000,BKN,9000,,,,,VFR,,,,,,,,,,,,METAR,1700.0
FYRN 120500Z 05006KT CAVOK 20/13 Q1018,FYRN,2015-02-12T05:00:00Z,-20.02,13.85,20.0,13.0,50,6,,6.21,30.059055,,,,,,,,,,,CAVOK,,,,,,,,VFR,,,,,,,,,,,,METAR,756.0
FYOA 120500Z AUTO 20002KT //// // ////// 22/16 Q1016,FYOA,2015-02-12T05:00:00Z,-17.88,15.97,22.0,16.0,200,2,,,30.0,,,TRUE,,,,,,,,,,,,,,,,,,,,,,,,,,,,METAR,1095.0
FYGF 120500Z 27004KT CAVOK 16/12 Q1021,FYGF,2015-02-12T05:00:00Z,-19.6,18.12,16.0,12.0,270,4,,6.21,30.147638,,,,,,,,,,,CAVOK,,,,,,,,VFR,,,,,,,,,,,,METAR,1400.0
VTCP 120500Z 00000KT 3000 HZ FEW025 BKN300 28/16 Q1013 A2992 INFO E RWY01,VTCP,2015-02-12T05:00:00Z,18.13,100.17,28.0,16.0,0,0,,1.86,29.911417,,,,,,,,,,HZ,FEW,2500,BKN,30000,,,,,IFR,,,,,,,,,,,,METAR,162.0
SBBR 120500Z 16002KT 9999 FEW040 22/18 Q1021,SBBR,2015-02-12T05:00:00Z,-15.87,-47.92,22.0,18.0,160,2,,6.21,30.147638,,,,,,,,,,,FEW,4000,,,,,,,VFR,,,,,,,,,,,,METAR,1061.0
RPLC 120500Z 01007KT 9999 SCT042 BKN300 30/19 Q1012 NOSIG A2990,RPLC,2015-02-12T05:00:00Z,15.17,120.58,30.0,19.0,10,7,,6.21,29.88189,,,,,,TRUE,,,,,SCT,4200,BKN,30000,,,,,VFR,,,,,,,,,,,,METAR,196.0
HTSU 120500Z 13006KT 9999 FEW017 FEW018CB 17/15 Q1024,HTSU,2015-02-12T05:00:00Z,-7.95,31.67,17.0,15.0,130,6,,6.21,30.236221,,,,,,,,,,,FEW,1700,FEW,1800,,,,,VFR,,,,,,,,,,,,SPECI,1804.0
HTMT 120500Z 18005KT 9999 SCT021 23/22 Q1013,HTMT,2015-02-12T05:00:00Z,-10.27,40.17,23.0,22.0,180,5,,6.21,29.911417,,,,,,,,,,,SCT,2100,,,,,,,VFR,,,,,,,,,,,,SPECI,113.0
HTTB 120500Z 00000KT 9999 FEW017 19/18 Q1019,HTTB,2015-02-12T05:00:00Z,-5.07,32.82,19.0,18.0,0,0,,6.21,30.088583,,,,,,,,,,,FEW,1700,,,,,,,VFR,,,,,,,,,,,,SPECI,1190.0
HTSO 120500Z 00000KT 9999 SCT018 FEW020CB 22/19 Q1019,HTSO,2015-02-12T05:00:00Z,-10.67,35.57,22.0,19.0,0,0,,6.21,30.088583,,,,,,,,,,,SCT,1800,FEW,2000,,,,,VFR,,,,,,,,,,,,SPECI,1067.0
HTMU 120500Z 00000KT 9999 FEW023CB SCT090 22/15 Q1018,HTMU,2015-02-12T05:00:00Z,-1.5,33.78,22.0,15.0,0,0,,6.21,30.059055,,,,,,,,,,,FEW,2300,SCT,9000,,,,,VFR,,,,,,,,,,,,SPECI,1147.0
HTMG 120500Z 00000KT 9999 SCT022 23/21 Q1015,HTMG,2015-02-12T05:00:00Z,-6.82,37.63,23.0,21.0,0,0,,6.21,29.970472,,,,,,,,,,,SCT,2200,,,,,,,VFR,,,,,,,,,,,,SPECI,526.0
HTKA 120500Z 00000KT 9999 SST018 FEW019CB 20/19 Q1019,HTKA,2015-02-12T05:00:00Z,-4.87,29.67,20.0,19.0,0,0,,6.21,30.088583,,,,,,,,,,SS,FEW,1900,,,,,,,VFR,,,,,,,,,,,,SPECI,885.0
HTIR 120500Z 00000KT 9999 FEW017 21/15 Q1021,HTIR,2015-02-12T05:00:00Z,-7.67,35.75,21.0,15.0,0,0,,6.21,30.147638,,,,,,,,,,,FEW,1700,,,,,,,VFR,,,,,,,,,,,,SPECI,1428.0
HTDO 120500Z 00000KT 9999 FEW021 22/16 Q1018 NOSIG,HTDO,2015-02-12T05:00:00Z,-6.17,35.77,22.0,16.0,0,0,,6.21,30.059055,,,,,,TRUE,,,,,FEW,2100,,,,,,,VFR,,,,,,,,,,,,SPECI,1120.0
HTBU 120500Z 24003KT 9999 SCT018 FEW020CB BKN090 22/14 Q1017,HTBU,2015-02-12T05:00:00Z,-1.32,31.82,22.0,14.0,240,3,,6.21,30.029528,,,,,,,,,,,SCT,1800,FEW,2000,BKN,9000,,,VFR,,,,,,,,,,,,SPECI,1137.0
HTAR 120500Z 01005KT CAVOK 18/14 Q1021,HTAR,2015-02-12T05:00:00Z,-3.37,36.63,18.0,14.0,10,5,,6.21,30.147638,,,,,,,,,,,CAVOK,,,,,,,,VFR,,,,,,,,,,,,SPECI,1387.0
HTMB 120500Z 10006KT 9999 FEW018 19/15 Q////,HTMB,2015-02-12T05:00:00Z,-8.92,33.47,19.0,15.0,100,6,,6.21,,,,,,,,,,,,FEW,1800,,,,,,,VFR,,,,,,,,,,,,SPECI,1707.0
HTZA 120500Z 00000KT 9999 FEW016 25/24 Q1013 NOSIG,HTZA,2015-02-12T05:00:00Z,-6.22,39.22,25.0,24.0,0,0,,6.21,29.911417,,,,,,TRUE,,,,,FEW,1600,,,,,,,VFR,,,,,,,,,,,,SPECI,15.0
HTKJ 120500Z 24005KT 9999 FEW022 20/18 Q1017 NOSIG ,HTKJ,2015-02-12T05:00:00Z,-3.42,37.07,20.0,18.0,240,5,,6.21,30.029528,,,,,,TRUE,,,,,FEW,2200,,,,,,,VFR,,,,,,,,,,,,SPECI,896.0
HTDA 120500Z 00000KT 9999 SCT024 26/24 Q1013 NOSIG,HTDA,2015-02-12T05:00:00Z,-6.88,39.2,26.0,24.0,0,0,,6.21,29.911417,,,,,,TRUE,,,,,SCT,2400,,,,,,,VFR,,,,,,,,,,,,SPECI,55.0
CYDB 120500Z AUTO 23003KT 210V330 9SM OVC013 M21/M24 A2965 RMK SLP128,CYDB,2015-02-12T05:00:00Z,61.37,-139.05,-21.0,-24.0,230,3,,9.0,29.648623,1012.8,,TRUE,,,,,,,,OVC,1300,,,,,,,MVFR,,,,,,,,,,,,METAR,801.0
FYKM 120500Z 00000KT CAVOK 20/18 Q1018,FYKM,2015-02-12T05:00:00Z,-17.63,24.18,20.0,18.0,0,0,,6.21,30.059055,,,,,,,,,,,CAVOK,,,,,,,,VFR,,,,,,,,,,,,METAR,958.0
CXMO 120500Z AUTO 19014KT M10/M11 RMK AO1 PK WND 18022/0425 T11011111,CXMO,2015-02-12T05:00:00Z,51.67,-112.68,-10.1,-11.1,190,14,,,,,,TRUE,TRUE,,,,,,,,,,,,,,,,,,,,,,,,,,,METAR,836.0
CXMG 120500Z AUTO 17008KT M12/M14 RMK AO1 T11231135,CXMG,2015-02-12T05:00:00Z,56.97,-117.45,-12.3,-13.5,170,8,,,,,,TRUE,TRUE,,,,,,,,,,,,,,,,,,,,,,,,,,,METAR,457.0
CXHD 120500Z AUTO 16016KT M14/M16 RMK AO1 PK WND 16025/0410 T11431161,CXHD,2015-02-12T05:00:00Z,53.18,-112.25,-14.3,-16.1,160,16,,,,,,TRUE,TRUE,,,,,,,,,,,,,,,,,,,,,,,,,,,METAR,688.0
CPRY 120500Z AUTO 20003KT M02/M03 RMK AO1 T10201032,CPRY,2015-02-12T05:00:00Z,49.48,-112.68,-2.0,-3.2,200,3,,,,,,TRUE,TRUE,,,,,,,,,,,,,,,,,,,,,,,,,,,METAR,937.0
CPFI 120500Z AUTO 15014KT M03/M04 RMK AO1 PK WND 16018/0417 T10261044,CPFI,2015-02-12T05:00:00Z,49.8,-112.03,-2.6,-4.4,150,14,,,,,,TRUE,TRUE,,,,,,,,,,,,,,,,,,,,,,,,,,,METAR,833.0
CXCS 120500Z AUTO 17007KT M16/M18 RMK AO1 T11591178,CXCS,2015-02-12T05:00:00Z,51.93,-110.72,-15.9,-17.8,170,7,,,,,,TRUE,TRUE,,,,,,,,,,,,,,,,,,,,,,,,,,,METAR,772.0
CXCD 120500Z AUTO 30001KT M16/M18 RMK AO1 T11581178,CXCD,2015-02-12T05:00:00Z,56.32,-119.75,-15.8,-17.8,300,1,,,,,,TRUE,TRUE,,,,,,,,,,,,,,,,,,,,,,,,,,,METAR,630.0
CXBA 120500Z AUTO 15011KT M17/M19 RMK AO1 PK WND 14019/0400 T11681191,CXBA,2015-02-12T05:00:00Z,52.12,-110.1,-16.8,-19.1,150,11,,,,,,TRUE,TRUE,,,,,,,,,,,,,,,,,,,,,,,,,,,METAR,687.0
CXAJ 120500Z AUTO 17008KT M15/M17 RMK AO1 SOG 10 T11491172,CXAJ,2015-02-12T05:00:00Z,54.77,-112.82,-14.9,-17.2,170,8,,,,,,TRUE,TRUE,,,,,,,,,,,,,,,,,,,,,,,,,,,METAR,574.0
CXAG 120500Z AUTO 16012KT M15/M17 RMK AO1 PK WND 16017/0453 T11491169,CXAG,2015-02-12T05:00:00Z,53.92,-112.28,-14.9,-16.9,160,12,,,,,,TRUE,TRUE,,,,,,,,,,,,,,,,,,,,,,,,,,,METAR,625.0
CZOL 120500Z AUTO 17006KT M10/M13 RMK AO1 T11031133,CZOL,2015-02-12T05:00:00Z,53.65,-113.35,-10.3,-13.3,170,6,,,,,,TRUE,TRUE,,,,,,,,,,,,,,,,,,,,,,,,,,,METAR,665.0
CXVM 120500Z AUTO 15009KT M18/M20 RMK AO1 T11791202,CXVM,2015-02-12T05:00:00Z,53.35,-110.88,-17.9,-20.2,150,9,,,,,,TRUE,TRUE,,,,,,,,,,,,,,,,,,,,,,,,,,,METAR,623.0
CXSP 120500Z AUTO 14009KT M19/M21 RMK AO1 PK WND 15020/0400 T11871206,CXSP,2015-02-12T05:00:00Z,54.02,-111.27,-18.7,-20.6,140,9,,,,,,TRUE,TRUE,,,,,,,,,,,,,,,,,,,,,,,,,,,METAR,649.0
CXPL 120500Z AUTO 12014KT M12/M13 RMK AO1 PK WND 11019/0448 T11191133,CXPL,2015-02-12T05:00:00Z,51.13,-111.7,-11.9,-13.3,120,14,,,,,,TRUE,TRUE,,,,,,,,,,,,,,,,,,,,,,,,,,,METAR,750.0
CXOL 120500Z AUTO 12010KT M08/M08 RMK AO1 PK WND 14018/0401 T10801075,CXOL,2015-02-12T05:00:00Z,51.77,-114.08,-8.0,-7.5,120,10,,,,,,TRUE,TRUE,,,,,,,,,,,,,,,,,,,,,,,,,,,METAR,1046.0
CZPS 120500Z AUTO 18008KT M10/M12 RMK AO1 T11011119,CZPS,2015-02-12T05:00:00Z,52.43,-113.6,-10.1,-11.9,180,8,,,,,,TRUE,TRUE,,,,,,,,,,,,,,,,,,,,,,,,,,,METAR,965.0
CWRO 120500Z AUTO 13025G30KT 08/07 RMK AO1 PK WND 13033/0433 SLP075 T00830074 56005,CWRO,2015-02-12T05:00:00Z,54.17,-131.67,8.3,7.4,130,25,30,,,1007.5,,TRUE,TRUE,,,,,,,,,,,,,,,,-0.5,,,,,,,,,,,METAR,7.0
CXWB 120500Z AUTO 09001KT M36/M40 RMK AO1 T13591397,CXWB,2015-02-12T05:00:00Z,65.88,-89.45,-35.9,-39.7,90,1,,,,,,TRUE,TRUE,,,,,,,,,,,,,,,,,,,,,,,,,,,METAR,18.0
CXDB 120500Z AUTO 16008KT M04/M04 RMK AO1 T10391043,CXDB,2015-02-12T05:00:00Z,49.05,-112.82,-3.9,-4.3,160,8,,,,,,TRUE,TRUE,,,,,,,,,,,,,,,,,,,,,,,,,,,METAR,1310.0
OIAA 120500Z 19006KT 4000 DU FEW030CB SCT035 SCT090 20/17 Q1011,OIAA,2015-02-12T05:00:00Z,30.37,48.25,20.0,17.0,190,6,,2.49,29.852362,,,,,,,,,,DU,FEW,3000,SCT,3500,SCT,9000,,,IFR,,,,,,,,,,,,METAR,11.0
ZWSH 120500Z 00000MPS 8000 NSC 03/M06 Q1019 NOSIG,ZWSH,2015-02-12T05:00:00Z,39.55,76.02,3.0,-6.0,0,0,,4.97,30.088583,,,,,,TRUE,,,,,,,,,,,,,,,,,,,,,,,,,METAR,1291.0
ZBSJ 120500Z 14003MPS 080V180 CAVOK 07/M13 Q1020 NOSIG,ZBSJ,2015-02-12T05:00:00Z,38.28,114.7,7.0,-13.0,140,6,,6.21,30.11811,,,,,,TRUE,,,,,CAVOK,,,,,,,,VFR,,,,,,,,,,,,METAR,71.0
FNCA 120500Z 06004KT 8000 SCT009 FEW026CB BKN080 24/22 Q1011,FNCA,2015-02-12T05:00:00Z,-5.58,12.18,24.0,22.0,60,4,,4.97,29.852362,,,,,,,,,,,SCT,900,FEW,2600,BKN,8000,,,MVFR,,,,,,,,,,,,METAR,20.0
LKPD 120500Z 16002KT 9999 OVC015 01/M02 Q1026 NOSIG RMK WHT WHT,LKPD,2015-02-12T05:00:00Z,50.02,15.73,1.0,-2.0,160,2,,6.21,30.295275,,,,,,TRUE,,,,,OVC,1500,,,,,,,MVFR,,,,,,,,,,,,METAR,226.0
LKNA 120500Z 16005KT 8000 OVC008 M01/M02 Q1024 NOSIG RMK GRN GRN,LKNA,2015-02-12T05:00:00Z,49.17,16.12,-1.0,-2.0,160,5,,4.97,30.236221,,,,,,TRUE,,,,,OVC,800,,,,,,,IFR,,,,,,,,,,,,METAR,472.0
LKLN 120500Z AUTO 12003KT 7000 OVC006 M01/M02 Q1025,LKLN,2015-02-12T05:00:00Z,49.68,13.27,-1.0,-2.0,120,3,,4.35,30.265747,,,TRUE,,,,,,,,OVC,600,,,,,,,IFR,,,,,,,,,,,,METAR,362.0
LKKB 120500Z 16004KT 9999 OVC012 M00/M03 Q1025 NOSIG,LKKB,2015-02-12T05:00:00Z,50.12,14.53,0.0,-3.0,160,4,,6.21,30.265747,,,,,,TRUE,,,,,OVC,1200,,,,,,,MVFR,,,,,,,,,,,,METAR,286.0
LKCV 120500Z 17004KT 150V220 9999 OVC015 01/M01 Q1025 NOSIG RMK WHT WHT,LKCV,2015-02-12T05:00:00Z,49.93,15.38,1.0,-1.0,170,4,,6.21,30.265747,,,,,,TRUE,,,,,OVC,1500,,,,,,,MVFR,,,,,,,,,,,,METAR,242.0
PLCH 120500Z 12008KT 9999 FEW020 27/23 Q1008,PLCH,2015-02-12T05:00:00Z,1.98,-157.35,27.0,23.0,120,8,,6.21,29.763779,,,,,,,,,,,FEW,2000,,,,,,,VFR,,,,,,,,,,,,METAR,3.0
LETO 120500Z 09002KT 9999 FEW025 BKN040 03/02 Q1018 NOSIG,LETO,2015-02-12T05:00:00Z,40.47,-3.47,3.0,2.0,90,2,,6.21,30.059055,,,,,,TRUE,,,,,FEW,2500,BKN,4000,,,,,VFR,,,,,,,,,,,,METAR,608.0
LELN 120500Z 33002KT 9999 SCT035 M02/M03 Q1017,LELN,2015-02-12T05:00:00Z,42.57,-5.65,-2.0,-3.0,330,2,,6.21,30.029528,,,,,,,,,,,SCT,3500,,,,,,,VFR,,,,,,,,,,,,METAR,914.0
LEBZ 120500Z 00000KT CAVOK 06/05 Q1017,LEBZ,2015-02-12T05:00:00Z,38.87,-6.82,6.0,5.0,0,0,,6.21,30.029528,,,,,,,,,,,CAVOK,,,,,,,,VFR,,,,,,,,,,,,METAR,192.0
LEAB 120500Z 13003KT 9999 -RA FEW025 05/04 Q1018 NOSIG,LEAB,2015-02-12T05:00:00Z,38.95,-1.85,5.0,4.0,130,3,,6.21,30.059055,,,,,,TRUE,,,,-RA,FEW,2500,,,,,,,VFR,,,,,,,,,,,,METAR,704.0
UAKD 120500Z 35003MPS 7000 SCT010 OVC100 M03/M04 Q1010 R04/39//32 NOSIG RMK QFE724/0966,UAKD,2015-02-12T05:00:00Z,47.7,67.73,-3.0,-4.0,350,6,,4.35,29.822834,,,,,,TRUE,,,,,SCT,1000,OVC,10000,,,,,MVFR,,,,,,,,,,,,METAR,381.0
DFOO 120500Z 24004KT CAVOK 26/20 Q1012,DFOO,2015-02-12T05:00:00Z,11.17,-4.32,26.0,20.0,240,4,,6.21,29.88189,,,,,,,,,,,CAVOK,,,,,,,,VFR,,,,,,,,,,,,METAR,460.0
DXXX 120500Z 00000KT 9999 FEW010 24/22 Q1010 NOSIG,DXXX,2015-02-12T05:00:00Z,6.17,1.25,24.0,22.0,0,0,,6.21,29.822834,,,,,,TRUE,,,,,FEW,1000,,,,,,,VFR,,,,,,,,,,,,METAR,25.0
DFFD 120500Z VRB01KT CAVOK 25/16 Q1012 NOSIG,DFFD,2015-02-12T05:00:00Z,12.33,-1.52,25.0,16.0,0,1,,6.21,29.88189,,,,,,TRUE,,,,,CAVOK,,,,,,,,VFR,,,,,,,,,,,,METAR,306.0
DBBB 120500Z 00000KT 8000 SCT011 BKN100 24/22 Q1009 NOSIG,DBBB,2015-02-12T05:00:00Z,6.33,2.37,24.0,22.0,0,0,,4.97,29.793306,,,,,,TRUE,,,,,SCT,1100,BKN,10000,,,,,MVFR,,,,,,,,,,,,METAR,9.0
HKVO 120500Z 27012KT 9999 BKN018 23/20,HKVO,2015-02-12T05:00:00Z,-3.38,38.53,23.0,20.0,270,12,,6.21,,,,,,,,,,,,BKN,1800,,,,,,,MVFR,,,,,,,,,,,,METAR,579.0
HKNK 120500Z 00000KT CAVOK 15/04,HKNK,2015-02-12T05:00:00Z,-0.3,36.17,15.0,4.0,0,0,,6.21,,,,,,,,,,,,CAVOK,,,,,,,,VFR,,,,,,,,,,,,METAR,1901.0
HKNC 120500Z 00000KT 9999 FEW016 SCT080 16/10 Q1023,HKNC,2015-02-12T05:00:00Z,-1.3,36.75,16.0,10.0,0,0,,6.21,30.206694,,,,,,,,,,,FEW,1600,SCT,8000,,,,,VFR,,,,,,,,,,,,METAR,1798.0
HKMU 120500Z 00000KT 9999 BKN019 19/19,HKMU,2015-02-12T05:00:00Z,-2.27,37.82,19.0,19.0,0,0,,6.21,,,,,,,,,,,,BKN,1900,,,,,,,MVFR,,,,,,,,,,,,METAR,1000.0
HKMO 120500Z 36003KT 9999 BKN020 28/24 Q1014 NOSIG,HKMO,2015-02-12T05:00:00Z,-4.02,39.62,28.0,24.0,360,3,,6.21,29.940945,,,,,,TRUE,,,,,BKN,2000,,,,,,,MVFR,,,,,,,,,,,,METAR,55.0
HKKT 120500Z 00000KT CAVOK 12/08,HKKT,2015-02-12T05:00:00Z,0.97,34.97,12.0,8.0,0,0,,6.21,,,,,,,,,,,,CAVOK,,,,,,,,VFR,,,,,,,,,,,,METAR,1850.0
HKGA 120500Z 09005KT 9999 SCT024 BKN080 26/21 Q1013,HKGA,2015-02-12T05:00:00Z,-0.47,39.65,26.0,21.0,90,5,,6.21,29.911417,,,,,,,,,,,SCT,2400,BKN,8000,,,,,VFR,,,,,,,,,,,,METAR,147.0
DGAA 120500Z 26009KT CAVOK 24/20 Q1009 NOSIG,DGAA,2015-02-12T05:00:00Z,5.58,-0.17,24.0,20.0,260,9,,6.21,29.793306,,,,,,TRUE,,,,,CAVOK,,,,,,,,VFR,,,,,,,,,,,,METAR,69.0
DRZA 120500Z 10008KT CAVOK 21/06 Q1016,DRZA,2015-02-12T05:00:00Z,16.97,8.0,21.0,6.0,100,8,,6.21,30.0,,,,,,,,,,,CAVOK,,,,,,,,VFR,,,,,,,,,,,,METAR,502.0
DRRN 120500Z 09010KT 6000 NSC 28/M01 Q1012 TEMPO 4000 DU,DRRN,2015-02-12T05:00:00Z,13.47,2.17,28.0,-1.0,90,10,,3.73,29.88189,,,,,,,,,,,,,,,,,,,,,,,,,,,,,,,METAR,227.0
FQBR 120500Z 20006KT 9999 BKN018 BKN030 FEW030CB 26/26 Q1012 RMK TSRA,FQBR,2015-02-12T05:00:00Z,-19.8,34.88,26.0,26.0,200,6,,6.21,29.88189,,,,,,,,,,,BKN,1800,BKN,3000,FEW,3000,,,MVFR,,,,,,,,,,,,METAR,16.0
FYWW 120500Z 10004KT 9999 FEW025CB BKN100 20/12 Q1022,FYWW,2015-02-12T05:00:00Z,-22.57,17.1,20.0,12.0,100,4,,6.21,30.177166,,,,,,,,,,,FEW,2500,BKN,10000,,,,,VFR,,,,,,,,,,,,METAR,1725.0
CXAK 120500Z AUTO 16014KT M12/M14 RMK AO1 PK WND 17020/0431 T11191136,CXAK,2015-02-12T05:00:00Z,52.35,-112.6,-11.9,-13.6,160,14,,,,,,TRUE,TRUE,,,,,,,,,,,,,,,,,,,,,,,,,,,METAR,795.0
CPRO 120500Z AUTO 11010KT M08/M09 RMK AO1 T10761089,CPRO,2015-02-12T05:00:00Z,50.83,-112.05,-7.6,-8.9,110,10,,,,,,TRUE,TRUE,,,,,,,,,,,,,,,,,,,,,,,,,,,METAR,714.0
CZZJ 120500Z AUTO 23001KT M13/M15 RMK AO1 SOG 42 6015 SLP226 T11341146,CZZJ,2015-02-12T05:00:00Z,53.58,-116.47,-13.4,-14.6,230,1,,,,1022.6,,TRUE,TRUE,,,,,,,,,,,,,,,,,,,,,,,,,,,METAR,927.0
CXWM 120500Z AUTO 16015KT M03/M04 RMK AO1 PK WND 17022/0423 T10281043,CXWM,2015-02-12T05:00:00Z,49.5,-112.12,-2.8,-4.3,160,15,,,,,,TRUE,TRUE,,,,,,,,,,,,,,,,,,,,,,,,,,,METAR,944.0
CXRB 120500Z AUTO 36005KT M36/M40 RMK AO1 SLP216 T13591397 53009,CXRB,2015-02-12T05:00:00Z,74.72,-94.98,-35.9,-39.7,360,5,,,,1021.6,,TRUE,TRUE,,,,,,,,,,,,,,,,0.9,,,,,,,,,,,METAR,68.0
CWBK 120500Z AUTO 35008KT M10/M12 RMK AO1 SOG 81 8038 PK WND 02018/0411 SLP116 T11031119,CWBK,2015-02-12T05:00:00Z,45.77,-62.67,-10.3,-11.9,350,8,,,,1011.6,,TRUE,TRUE,,,,,,,,,,,,,,,,,,,,,,,,,,,METAR,2.0
CWAR 120500Z AUTO 05014G20KT M09/M10 RMK AO1 PK WND 06023/0408 SLP147 T10861102 58030,CWAR,2015-02-12T05:00:00Z,47.28,-54.0,-8.6,-10.2,50,14,20,,,1014.7,,TRUE,TRUE,,,,,,,,,,,,,,,,-3.0,,,,,,,,,,,METAR,16.0
CERM 120500Z AUTO 12003KT M16/M22 RMK AO1 SOG 40 8010 SLP163 T11561220,CERM,2015-02-12T05:00:00Z,47.42,-68.32,-15.6,-22.0,120,3,,,,1016.3,,TRUE,TRUE,,,,,,,,,,,,,,,,,,,,,,,,,,,METAR,154.0
CAHR 120500Z AUTO 36012KT M14/M15 RMK AO1 SLP136 T11381154 56033,CAHR,2015-02-12T05:00:00Z,46.35,-63.17,-13.8,-15.4,360,12,,,,1013.6,,TRUE,TRUE,,,,,,,,,,,,,,,,-3.3,,,,,,,,,,,METAR,53.0
YPEA 120500Z 24008KT CAVOK 31/16 Q1013 RMK 6AC160 NOSIG,YPEA,2015-02-12T05:00:00Z,-31.67,116.02,31.0,16.0,240,8,,6.21,29.911417,,,,,,,,,,,CAVOK,,,,,,,,VFR,,,,,,,,,,,,METAR,49.0
TNCC 120500Z 05007KT 9999 BKN016 27/24 Q1012 NOSIG,TNCC,2015-02-12T05:00:00Z,12.2,-68.97,27.0,24.0,50,7,,6.21,29.88189,,,,,,TRUE,,,,,BKN,1600,,,,,,,MVFR,,,,,,,,,,,,METAR,9.0
TNCE 120500Z AUTO 21008KT //// ////// ///// Q1014,TNCE,2015-02-12T05:00:00Z,17.47,-62.97,,,210,8,,,29.940945,,,TRUE,,,,,,,,,,,,,,,,,,,,,,,,,,,,METAR,39.0
TNCB 120500Z AUTO 02005KT //// ////// 27/24 Q1012 NOSIG,TNCB,2015-02-12T05:00:00Z,12.13,-68.28,27.0,24.0,20,5,,,29.88189,,,TRUE,,,TRUE,,,,,,,,,,,,,,,,,,,,,,,,,METAR,6.0
SBIL 120500Z 26007KT 9999 SCT020 SCT070 23/21 Q1016,SBIL,2015-02-12T05:00:00Z,-14.8,-39.02,23.0,21.0,260,7,,6.21,30.0,,,,,,,,,,,SCT,2000,SCT,7000,,,,,VFR,,,,,,,,,,,,METAR,5.0
SBJU 120500Z 00000KT 9999 SCT020 26/24 Q1016,SBJU,2015-02-12T05:00:00Z,-7.22,-39.27,26.0,24.0,0,0,,6.21,30.0,,,,,,,,,,,SCT,2000,,,,,,,VFR,,,,,,,,,,,,METAR,409.0
LPBJ 120500Z 36002KT CAVOK 05/05 Q1017,LPBJ,2015-02-12T05:00:00Z,38.08,-7.93,5.0,5.0,360,2,,6.21,30.029528,,,,,,,,,,,CAVOK,,,,,,,,VFR,,,,,,,,,,,,METAR,247.0
LPLA 120500Z /////KT 9999 FEW020 SCT030 11/10 Q1020,LPLA,2015-02-12T05:00:00Z,38.77,-27.1,11.0,10.0,,,,6.21,30.11811,,,,,,,,,,,FEW,2000,SCT,3000,,,,,VFR,,,,,,,,,,,,METAR,55.0
AYPY 120500Z 32015G25KT 9999 BKN020 BKN140 30/23 Q1004,AYPY,2015-02-12T05:00:00Z,-9.42,147.22,30.0,23.0,320,15,25,6.21,29.64567,,,,,,,,,,,BKN,2000,BKN,14000,,,,,MVFR,,,,,,,,,,,,METAR,47.0
SBKG 120500Z 11011KT 9999 SCT007 BKN015 23/22 Q1017,SBKG,2015-02-12T05:00:00Z,-7.27,-35.87,23.0,22.0,110,11,,6.21,30.029528,,,,,,,,,,,SCT,700,BKN,1500,,,,,MVFR,,,,,,,,,,,,METAR,560.0
FSPP 120500Z 34014KT //// //// 28/23 Q1014,FSPP,2015-02-12T05:00:00Z,-4.32,55.7,28.0,23.0,340,14,,,29.940945,,,,,,,,,,,,,,,,,,,,,,,,,,,,,,,METAR,4.0
OBBI 120500Z 14012KT CAVOK 23/12 Q1014 NOSIG,OBBI,2015-02-12T05:00:00Z,26.27,50.63,23.0,12.0,140,12,,6.21,29.940945,,,,,,TRUE,,,,,CAVOK,,,,,,,,VFR,,,,,,,,,,,,METAR,2.0
LICR 120500Z 05003KT 030V130 9999 SCT040 07/02 Q1021,LICR,2015-02-12T05:00:00Z,38.07,15.65,7.0,2.0,50,3,,6.21,30.147638,,,,,,,,,,,SCT,4000,,,,,,,VFR,,,,,,,,,,,,SPECI,21.0
DABT 120500Z 00000KT CAVOK 02/M01 Q1021,DABT,2015-02-12T05:00:00Z,35.75,6.32,2.0,-1.0,0,0,,6.21,30.147638,,,,,,,,,,,CAVOK,,,,,,,,VFR,,,,,,,,,,,,METAR,1052.0
RJAW 120500Z 27009KT 240V310 9999 FEW030 20/11 Q1012 RMK 2CU030 A2990,RJAW,2015-02-12T05:00:00Z,24.77,141.32,20.0,11.0,270,9,,6.21,29.88189,,,,,,,,,,,FEW,3000,,,,,,,VFR,,,,,,,,,,,,SPECI,116.0
EIME 120500Z 16004KT 9999 OVC039 04/01 Q1018,EIME,2015-02-12T05:00:00Z,53.3,-6.45,4.0,1.0,160,4,,6.21,30.059055,,,,,,,,,,,OVC,3900,,,,,,,VFR,,,,,,,,,,,,METAR,93.0
FNLU 120500Z VRB02KT 9999 FEW020 BKN023 26/24 Q1010,FNLU,2015-02-12T05:00:00Z,-8.83,13.22,26.0,24.0,0,2,,6.21,29.822834,,,,,,,,,,,FEW,2000,BKN,2300,,,,,MVFR,,,,,,,,,,,,METAR,70.0
FVHA 120500Z 07007KT 9999 SCT015TCU 20/20 Q1023 NOSIG,FVHA,2015-02-12T05:00:00Z,-17.92,31.12,20.0,20.0,70,7,,6.21,30.206694,,,,,,TRUE,,,,,SCT,1500,,,,,,,VFR,,,,,,,,,,,,METAR,1503.0
FMSD 120500Z 04012KT 9999 FEW020 27/22 Q1014,FMSD,2015-02-12T05:00:00Z,-25.02,46.95,27.0,22.0,40,12,,6.21,29.940945,,,,,,,,,,,FEW,2000,,,,,,,VFR,,,,,,,,,,,,METAR,9.0
FMMT 120500Z 22008KT 9999 SCT017 BKN033 27/25 Q1014 NOSIG,FMMT,2015-02-12T05:00:00Z,-18.12,49.38,27.0,25.0,220,8,,6.21,29.940945,,,,,,TRUE,,,,,SCT,1700,BKN,3300,,,,,VFR,,,,,,,,,,,,METAR,6.0
FMNM 120500Z 14006KT 9999 FEW017CB SCT230 29/25 Q1012 NOSIG,FMNM,2015-02-12T05:00:00Z,-15.67,46.35,29.0,25.0,140,6,,6.21,29.88189,,,,,,TRUE,,,,,FEW,1700,SCT,23000,,,,,VFR,,,,,,,,,,,,METAR,18.0
FMCH 120500Z 00000KT 9999 FEW020 28/23 Q1013 NOSIG,FMCH,2015-02-12T05:00:00Z,-11.52,43.27,28.0,23.0,0,0,,6.21,29.911417,,,,,,TRUE,,,,,FEW,2000,,,,,,,VFR,,,,,,,,,,,,METAR,29.0
UMOO 120500Z 25003MPS 0900 FZFG VV002 M01/M01 Q1027 NOSIG RMK QBB060,UMOO,2015-02-12T05:00:00Z,53.95,30.1,-1.0,-1.0,250,6,,0.56,30.324802,,,,,,TRUE,,,,FZFG,OVX,0,,,,,,,LIFR,,,,,,,,,,,200,METAR,194.0
UTAT 120500Z 33004MPS 9999 OVC010 03/02 Q1021 99GLRD70 TEMPO 2000 RABR OVC005,UTAT,2015-02-12T05:00:00Z,41.77,59.83,3.0,2.0,330,8,,6.21,30.147638,,,,,,,,,,,OVC,1000,,,,,,,MVFR,,,,,,,,,,,,SPECI,83.0
UTAM 120500Z 35004MPS 6000 SCT040CB BKN040 11/10 Q1018 NOSIG RMK 882///55,UTAM,2015-02-12T05:00:00Z,37.62,61.9,11.0,10.0,350,8,,3.73,30.059055,,,,,,TRUE,,,,,SCT,4000,BKN,4000,,,,,MVFR,,,,,,,,,,,,SPECI,222.0
CYDQ 120500Z AUTO 27003KT 210V280 9SM OVC110 M08/M11 A2991 RMK SLP181,CYDQ,2015-02-12T05:00:00Z,55.75,-120.17,-8.0,-11.0,270,3,,9.0,29.911417,1018.1,,TRUE,,,,,,,,OVC,11000,,,,,,,VFR,,,,,,,,,,,,METAR,655.0
CYEV 120500Z 08005KT 15SM IC SKC M35/M39 A3029 RMK SLP270,CYEV,2015-02-12T05:00:00Z,68.32,-133.5,-35.0,-39.0,80,5,,15.0,30.28937,1027.0,,,,,,,,,IC,SKC,,,,,,,,VFR,,,,,,,,,,,,METAR,68.0
CYKY 120500Z 15019KT 15SM OVC030 M17/M20 A3024 RMK SC8 PRESFR SLP305,CYKY,2015-02-12T05:00:00Z,51.52,-109.17,-17.0,-20.0,150,19,,15.0,30.239174,1030.5,,,,,,,,,,OVC,3000,,,,,,,MVFR,,,,,,,,,,,,METAR,694.0
CYQD 120500Z 16002KT 15SM OVC038 M27/M30 A3066 RMK SC8 SLP420,CYQD,2015-02-12T05:00:00Z,53.97,-101.08,-27.0,-30.0,160,2,,15.0,30.661417,1042.0,,,,,,,,,,OVC,3800,,,,,,,VFR,,,,,,,,,,,,METAR,271.0
CYXC 120500Z 19003KT 170V230 15SM BKN070 06/01 A3019 RMK AC6 SLP243,CYXC,2015-02-12T05:00:00Z,49.6,-115.77,6.0,1.0,190,3,,15.0,30.188976,1024.3,,,,,,,,,,BKN,7000,,,,,,,VFR,,,,,,,,,,,,METAR,939.0
CYUA 120500Z AUTO 13003KT 9SM CLR M37/ A3027 RMK SLP262,CYUA,2015-02-12T05:00:00Z,68.95,-137.28,-37.0,,130,3,,9.0,30.268702,1026.2,,TRUE,,,,,,,,CLR,,,,,,,,VFR,,,,,,,,,,,,METAR,38.0
SBAF 120500Z 12006KT 9999 FEW020 26/23 Q1014,SBAF,2015-02-12T05:00:00Z,-22.87,-43.37,26.0,23.0,120,6,,6.21,29.940945,,,,,,,,,,,FEW,2000,,,,,,,VFR,,,,,,,,,,,,METAR,34.0
SBBH 120500Z 08004KT CAVOK 21/18 Q1020,SBBH,2015-02-12T05:00:00Z,-19.85,-43.95,21.0,18.0,80,4,,6.21,30.11811,,,,,,,,,,,CAVOK,,,,,,,,VFR,,,,,,,,,,,,METAR,785.0
SBBU 120500Z 24005KT 9999 FEW030 25/24 Q1017,SBBU,2015-02-12T05:00:00Z,-22.32,-49.07,25.0,24.0,240,5,,6.21,30.029528,,,,,,,,,,,FEW,3000,,,,,,,VFR,,,,,,,,,,,,METAR,590.0
SBDN 120500Z 28005KT 9999 VCTS SCT009 FEW055CB 24/22 Q1015,SBDN,2015-02-12T05:00:00Z,-22.18,-51.43,24.0,22.0,280,5,,6.21,29.970472,,,,,,,,,,VCTS,SCT,900,FEW,5500,,,,,VFR,,,,,,,,,,,,METAR,435.0
SULS 120500Z 03004KT CAVOK 19/13 Q1012,SULS,2015-02-12T05:00:00Z,-34.87,-55.1,19.0,13.0,30,4,,6.21,29.88189,,,,,,,,,,,CAVOK,,,,,,,,VFR,,,,,,,,,,,,METAR,30.0
SLVR 120500Z 24002KT 9999 FEW070 BKN200 20/19 Q1015,SLVR,2015-02-12T05:00:00Z,-17.63,-63.12,20.0,19.0,240,2,,6.21,29.970472,,,,,,,,,,,FEW,7000,BKN,20000,,,,,VFR,,,,,,,,,,,,METAR,373.0
SLLP 120500Z 24004KT 9999 -RA FEW003 SCT013 FEW017CB OVC070 07/ 06 Q1039,SLLP,2015-02-12T05:00:00Z,-16.52,-68.17,7.0,,240,4,,6.21,30.679134,,,,,,,,,,-RA,FEW,300,SCT,1300,FEW,1700,OVC,7000,VFR,,,,,,,,,,,,METAR,4014.0
SLCB 120500Z 32003KT 9999 FEW025 SCT070 BKN200 16/12 Q1027,SLCB,2015-02-12T05:00:00Z,-17.42,-66.18,16.0,12.0,320,3,,6.21,30.324802,,,,,,,,,,,FEW,2500,SCT,7000,BKN,20000,,,VFR,,,,,,,,,,,,METAR,2548.0
RPVM 120500Z 06006KT 9999 FEW018CB OVC090 28/24 Q1011 RMK A2985 CB W THRU S,RPVM,2015-02-12T05:00:00Z,10.32,123.98,28.0,24.0,60,6,,6.21,29.852362,,,,,,,,,,,FEW,1800,OVC,9000,,,,,VFR,,,,,,,,,,,,METAR,10.0
RPLL 120500Z 27008KT 240V300 9999 FEW025 BKN300 29/22 Q1012 NOSIG RMK A2988,RPLL,2015-02-12T05:00:00Z,14.52,121.0,29.0,22.0,270,8,,6.21,29.88189,,,,,,TRUE,,,,,FEW,2500,BKN,30000,,,,,VFR,,,,,,,,,,,,METAR,21.0
MROC 120500Z 08007KT CAVOK 20/16 A3004 NOSIG,MROC,2015-02-12T05:00:00Z,10.0,-84.22,20.0,16.0,80,7,,6.21,30.041338,,,,,,TRUE,,,,,CAVOK,,,,,,,,VFR,,,,,,,,,,,,METAR,920.0
UAUU 120500Z 31008MPS 9999 SCT036 BKN100 M07/M11 Q1008 R33/090060 NOSIG RMK QFE740/0987,UAUU,2015-02-12T05:00:00Z,53.2,63.55,-7.0,-11.0,310,16,,6.21,29.763779,,,,,,TRUE,,,,,SCT,3600,BKN,10000,,,,,VFR,,,,,,,,,,,,METAR,182.0
TTPP 120500Z 11006KT 9999 FEW016 25/22 Q1012,TTPP,2015-02-12T05:00:00Z,10.58,-61.35,25.0,22.0,110,6,,6.21,29.88189,,,,,,,,,,,FEW,1600,,,,,,,VFR,,,,,,,,,,,,METAR,15.0
ZGKL 120500Z VRB01MPS 1300 R01/1200 BR FEW006 BKN026 08/08 Q1020 BECMG FM0530 2000,ZGKL,2015-02-12T05:00:00Z,25.22,110.03,8.0,8.0,0,2,,0.81,30.11811,,,,,,,,,,BR,FEW,600,BKN,2600,,,,,LIFR,,,,,,,,,,,,METAR,166.0
FKKD 120500Z 00000KT 8000 SCT016 FEW020CB 26/25 Q1010 TEMPO 4000 BR,FKKD,2015-02-12T05:00:00Z,4.0,9.72,26.0,25.0,0,0,,4.97,29.822834,,,,,,,,,,,SCT,1600,FEW,2000,,,,,MVFR,,,,,,,,,,,,METAR,9.0
SAZN 120500Z 23013G29KT CAVOK 21/10 Q1011,SAZN,2015-02-12T05:00:00Z,-38.95,-68.15,21.0,10.0,230,13,29,6.21,29.852362,,,,,,,,,,,CAVOK,,,,,,,,VFR,,,,,,,,,,,,METAR,271.0
SAZM 120500Z 34015KT CAVOK 20/16 Q1006,SAZM,2015-02-12T05:00:00Z,-37.92,-57.57,20.0,16.0,340,15,,6.21,29.704725,,,,,,,,,,,CAVOK,,,,,,,,VFR,,,,,,,,,,,,METAR,21.0
SAWG 120500Z 25020G31KT 9999 SCT035 08/M02 Q1005,SAWG,2015-02-12T05:00:00Z,-51.62,-69.32,8.0,-2.0,250,20,31,6.21,29.675198,,,,,,,,,,,SCT,3500,,,,,,,VFR,,,,,,,,,,,,METAR,19.0
SAVC 120500Z 27012KT CAVOK 15/M02 Q1008,SAVC,2015-02-12T05:00:00Z,-45.77,-67.47,15.0,-2.0,270,12,,6.21,29.763779,,,,,,,,,,,CAVOK,,,,,,,,VFR,,,,,,,,,,,,METAR,46.0
ZGNN 120500Z 06002MPS 360V150 7000 NSC 18/09 Q1019 NOSIG,ZGNN,2015-02-12T05:00:00Z,22.62,108.17,18.0,9.0,60,4,,4.35,30.088583,,,,,,TRUE,,,,,,,,,,,,,,,,,,,,,,,,,METAR,73.0
ZGOW 120500Z VRB03MPS CAVOK 22/M00 Q1018 NOSIG,ZGOW,2015-02-12T05:00:00Z,23.55,116.5,22.0,0.0,0,6,,6.21,30.059055,,,,,,TRUE,,,,,CAVOK,,,,,,,,VFR,,,,,,,,,,,,METAR,3.0
ZLXY 120500Z 22005MPS 190V250 6000 NSC 14/M06 Q1017 NOSIG,ZLXY,2015-02-12T05:00:00Z,34.43,108.75,14.0,-6.0,220,10,,3.73,30.029528,,,,,,TRUE,,,,,,,,,,,,,,,,,,,,,,,,,METAR,479.0
ZGSZ 120500Z 29005MPS 3000 HZ NSC 19/11 Q1018 NOSIG,ZGSZ,2015-02-12T05:00:00Z,22.63,113.8,19.0,11.0,290,10,,1.86,30.059055,,,,,,TRUE,,,,HZ,,,,,,,,,,,,,,,,,,,,,METAR,18.0
ZPPP 120500Z 22008MPS CAVOK 14/03 Q1021 NOSIG,ZPPP,2015-02-12T05:00:00Z,25.0,102.75,14.0,3.0,220,16,,6.21,30.147638,,,,,,TRUE,,,,,CAVOK,,,,,,,,VFR,,,,,,,,,,,,METAR,1892.0
FNBG 120500Z 20004KT 9999 BKN025 26/24 Q1011,FNBG,2015-02-12T05:00:00Z,-12.62,13.4,26.0,24.0,200,4,,6.21,29.852362,,,,,,,,,,,BKN,2500,,,,,,,MVFR,,,,,,,,,,,,METAR,36.0
YWHA 120500Z AUTO 16010KT 9999 // NCD 33/09 Q1015,YWHA,2015-02-12T05:00:00Z,-33.07,137.52,33.0,9.0,160,10,,6.21,29.970472,,,TRUE,,,,,,,,,,,,,,,,,,,,,,,,,,,,METAR,13.0
YWGT 120500Z AUTO 25001KT //// // ////// 32/11 Q1018,YWGT,2015-02-12T05:00:00Z,-36.42,146.3,32.0,11.0,250,1,,,30.059055,,,TRUE,,,,,,,,,,,,,,,,,,,,,,,,,,,,METAR,153.0
YTRE 120500Z AUTO 08012KT //// // NCD 28/19 Q1019,YTRE,2015-02-12T05:00:00Z,-31.88,152.52,28.0,19.0,80,12,,,30.088583,,,TRUE,,,,,,,,,,,,,,,,,,,,,,,,,,,,METAR,12.0
YTNK 120500Z AUTO 10009KT 9999 // SCT110 36/10 Q1009,YTNK,2015-02-12T05:00:00Z,-19.63,134.18,36.0,10.0,100,9,,6.21,29.793306,,,TRUE,,,,,,,,SCT,11000,,,,,,,VFR,,,,,,,,,,,,METAR,377.0
YTEF 120500Z AUTO 22006KT 170V230 //// // ////// 43/10 Q1008,YTEF,2015-02-12T05:00:00Z,-21.72,122.23,43.0,10.0,220,6,,,29.763779,,,TRUE,,,,,,,,,,,,,,,,,,,,,,,,,,,,METAR,296.0
YSWG 120500Z 04010KT 9999 FEW070TCU BKN290 32/12 Q1018,YSWG,2015-02-12T05:00:00Z,-35.13,147.47,32.0,12.0,40,10,,6.21,30.059055,,,,,,,,,,,FEW,7000,BKN,29000,,,,,VFR,,,,,,,,,,,,METAR,213.0
SARP 120500Z 14003KT CAVOK 25/22 Q1013,SARP,2015-02-12T05:00:00Z,-27.38,-55.97,25.0,22.0,140,3,,6.21,29.911417,,,,,,,,,,,CAVOK,,,,,,,,VFR,,,,,,,,,,,,METAR,125.0
SARL 120500Z 09005KT CAVOK 21/21 Q1012,SARL,2015-02-12T05:00:00Z,-29.67,-57.13,21.0,21.0,90,5,,6.21,29.88189,,,,,,,,,,,CAVOK,,,,,,,,VFR,,,,,,,,,,,,METAR,70.0
SARI 120500Z 05003KT CAVOK 25/24 Q1014,SARI,2015-02-12T05:00:00Z,-25.72,-54.47,25.0,24.0,50,3,,6.21,29.940945,,,,,,,,,,,CAVOK,,,,,,,,VFR,,,,,,,,,,,,METAR,270.0
SARF 120500Z 00000KT 3000 BR NSC 22/22 Q1012,SARF,2015-02-12T05:00:00Z,-26.22,-58.22,22.0,22.0,0,0,,1.86,29.88189,,,,,,,,,,BR,,,,,,,,,,,,,,,,,,,,,METAR,60.0
SARE 120500Z 00000KT 6000 NSC 20/20 Q1012,SARE,2015-02-12T05:00:00Z,-27.43,-59.03,20.0,20.0,0,0,,3.73,29.88189,,,,,,,,,,,,,,,,,,,,,,,,,,,,,,,METAR,52.0
SARC 120500Z 00000KT CAVOK 21/20 Q1012,SARC,2015-02-12T05:00:00Z,-27.43,-58.77,21.0,20.0,0,0,,6.21,29.88189,,,,,,,,,,,CAVOK,,,,,,,,VFR,,,,,,,,,,,,METAR,62.0
SANT 120500Z 32008KT CAVOK 20/16 Q1015,SANT,2015-02-12T05:00:00Z,-26.85,-65.08,20.0,16.0,320,8,,6.21,29.970472,,,,,,,,,,,CAVOK,,,,,,,,VFR,,,,,,,,,,,,METAR,450.0
SAEZ 120500Z 34003KT CAVOK 23/15 Q1011,SAEZ,2015-02-12T05:00:00Z,-34.82,-58.52,23.0,15.0,340,3,,6.21,29.852362,,,,,,,,,,,CAVOK,,,,,,,,VFR,,,,,,,,,,,,METAR,20.0
SACO 120500Z 36005KT CAVOK 17/15 Q1015,SACO,2015-02-12T05:00:00Z,-31.32,-64.22,17.0,15.0,360,5,,6.21,29.970472,,,,,,,,,,,CAVOK,,,,,,,,VFR,,,,,,,,,,,,METAR,474.0
SABE 120500Z 32006KT CAVOK 23/15 Q1011,SABE,2015-02-12T05:00:00Z,-34.57,-58.42,23.0,15.0,320,6,,6.21,29.852362,,,,,,,,,,,CAVOK,,,,,,,,VFR,,,,,,,,,,,,METAR,6.0
SAAR 120500Z 36002KT CAVOK 19/15 Q1011,SAAR,2015-02-12T05:00:00Z,-32.92,-60.77,19.0,15.0,360,2,,6.21,29.852362,,,,,,,,,,,CAVOK,,,,,,,,VFR,,,,,,,,,,,,METAR,25.0
RKNY 120500Z 29014KT 9999 FEW040 04/M18 Q1007 WS ALL RWY NOSIG,RKNY,2015-02-12T05:00:00Z,38.07,128.67,4.0,-18.0,290,14,,6.21,29.734253,,,,,,TRUE,,,,,FEW,4000,,,,,,,VFR,,,,,,,,,,,,METAR,74.0
RKJB 120500Z 33016KT 9999 BKN040 04/M04 Q1015 NOSIG,RKJB,2015-02-12T05:00:00Z,34.98,126.38,4.0,-4.0,330,16,,6.21,29.970472,,,,,,TRUE,,,,,BKN,4000,,,,,,,VFR,,,,,,,,,,,,METAR,2.0
RKTN 120500Z 30013G23KT CAVOK 05/M14 Q1010 NOSIG,RKTN,2015-02-12T05:00:00Z,35.88,128.65,5.0,-14.0,300,13,23,6.21,29.822834,,,,,,TRUE,,,,,CAVOK,,,,,,,,VFR,,,,,,,,,,,,METAR,35.0
RKTU 120500Z 29013KT 9999 FEW040 04/M14 Q1013 NOSIG,RKTU,2015-02-12T05:00:00Z,36.7,127.5,4.0,-14.0,290,13,,6.21,29.911417,,,,,,TRUE,,,,,FEW,4000,,,,,,,VFR,,,,,,,,,,,,METAR,66.0
RKPK 120500Z 29012KT CAVOK 09/M15 Q1009 NOSIG,RKPK,2015-02-12T05:00:00Z,35.17,128.92,9.0,-15.0,290,12,,6.21,29.793306,,,,,,TRUE,,,,,CAVOK,,,,,,,,VFR,,,,,,,,,,,,METAR,15.0
RKPC 120500Z 32014KT 9999 SCT030 07/M04 Q1016 NOSIG,RKPC,2015-02-12T05:00:00Z,33.5,126.48,7.0,-4.0,320,14,,6.21,30.0,,,,,,TRUE,,,,,SCT,3000,,,,,,,VFR,,,,,,,,,,,,METAR,27.0
RKSS 120500Z 32018KT 9999 FEW045 02/M23 Q1014 NOSIG,RKSS,2015-02-12T05:00:00Z,37.53,126.78,2.0,-23.0,320,18,,6.21,29.940945,,,,,,TRUE,,,,,FEW,4500,,,,,,,VFR,,,,,,,,,,,,METAR,19.0
FWKI 120500Z 00000KT CAVOK 18/17 Q1019 NOSIG,FWKI,2015-02-12T05:00:00Z,-13.77,33.77,18.0,17.0,0,0,,6.21,30.088583,,,,,,TRUE,,,,,CAVOK,,,,,,,,VFR,,,,,,,,,,,,METAR,1229.0
LEBT 120500Z AUTO VRB02KT 9999 // SCT047/// 08/05 Q1019,LEBT,2015-02-12T05:00:00Z,39.58,-0.45,8.0,5.0,0,2,,6.21,30.088583,,,TRUE,,,,,,,,,,,,,,,,,,,,,,,,,,,,METAR,50.0
DAUZ 120500Z 08012KT 9999 FEW046 SCT080 10/M07 Q1013,DAUZ,2015-02-12T05:00:00Z,28.05,9.62,10.0,-7.0,80,12,,6.21,29.911417,,,,,,,,,,,FEW,4600,SCT,8000,,,,,VFR,,,,,,,,,,,,METAR,562.0
SCQP 120500Z 01003KT CAVOK 11/10 Q1021,SCQP,2015-02-12T05:00:00Z,-38.92,-72.65,11.0,10.0,10,3,,6.21,30.147638,,,,,,,,,,,CAVOK,,,,,,,,VFR,,,,,,,,,,,,METAR,97.0
SBLO 120500Z 00000KT CAVOK 24/23 Q1016,SBLO,2015-02-12T05:00:00Z,-23.32,-51.12,24.0,23.0,0,0,,6.21,30.0,,,,,,,,,,,CAVOK,,,,,,,,VFR,,,,,,,,,,,,METAR,570.0
SASJ 120500Z 00000KT 9999 SCT030 OVC100 22/18 Q1017,SASJ,2015-02-12T05:00:00Z,-24.37,-65.1,22.0,18.0,0,0,,6.21,30.029528,,,,,,,,,,,SCT,3000,OVC,10000,,,,,VFR,,,,,,,,,,,,METAR,1167.0
SCIC 120500Z AUTO 06003KT 9999 NCD 16/11 Q1015,SCIC,2015-02-12T05:00:00Z,-34.97,-71.22,16.0,11.0,60,3,,6.21,29.970472,,,TRUE,,,,,,,,,,,,,,,,,,,,,,,,,,,,METAR,242.0
SCTB 120500Z N3KT CAVOK 14/12 Q1015,SCTB,2015-02-12T05:00:00Z,-33.45,-70.53,14.0,12.0,,,,6.21,29.970472,,,,,,,,,,,CAVOK,,,,,,,,VFR,,,,,,,,,,,,METAR,649.0
SCVM 120500Z 1500OK 19/17 Q1014 NOSIG,SCVM,2015-02-12T05:00:00Z,-32.95,-71.48,19.0,17.0,,,,,29.940945,,,,,,TRUE,,,,,,,,,,,,,,,,,,,,,,,,,METAR,141.0
SCSN 120500Z AUTO V9 SCT020 24/17 Q1024 NOSIG,SCSN,2015-02-12T05:00:00Z,-33.63,-71.62,24.0,17.0,,,,,30.236221,,,TRUE,,,TRUE,,,,,SCT,2000,,,,,,,,,,,,,,,,,,,METAR,75.0
OYGD 120500Z 30004KT CAVOK 21/17 Q1018,OYGD,2015-02-12T05:00:00Z,16.18,52.17,21.0,17.0,300,4,,6.21,30.059055,,,,,,,,,,,CAVOK,,,,,,,,VFR,,,,,,,,,,,,METAR,41.0
RPLB 120500Z 22001KT 9999 FEW020TCU 30/19 Q1011 RMK A2985 TCU N AND E,RPLB,2015-02-12T05:00:00Z,14.8,120.27,30.0,19.0,220,1,,6.21,29.852362,,,,,,,,,,,FEW,2000,,,,,,,VFR,,,,,,,,,,,,METAR,17.0
ZUUU 120500Z 09002MPS 030V140 4000 HZ NSC 15/04 Q1017 NOSIG,ZUUU,2015-02-12T05:00:00Z,30.58,103.95,15.0,4.0,90,4,,2.49,30.029528,,,,,,TRUE,,,,HZ,,,,,,,,,,,,,,,,,,,,,METAR,508.0
ZUGY 120500Z 23007MPS CAVOK 18/04 Q1017 NOSIG,ZUGY,2015-02-12T05:00:00Z,26.53,106.8,18.0,4.0,230,14,,6.21,30.029528,,,,,,TRUE,,,,,CAVOK,,,,,,,,VFR,,,,,,,,,,,,METAR,1074.0
ZSQD 120500Z VRB01MPS CAVOK 07/M14 Q1019 NOSIG,ZSQD,2015-02-12T05:00:00Z,36.27,120.38,7.0,-14.0,0,2,,6.21,30.088583,,,,,,TRUE,,,,,CAVOK,,,,,,,,VFR,,,,,,,,,,,,METAR,77.0
ZSNB 120500Z 32006G11MPS 290V360 9000 NSC 16/M07 Q1018 NOSIG,ZSNB,2015-02-12T05:00:00Z,29.83,121.47,16.0,-7.0,320,12,21,5.59,30.059055,,,,,,TRUE,,,,,,,,,,,,,,,,,,,,,,,,,METAR,4.0
ZSFZ 120500Z 10005MPS CAVOK 19/M03 Q1018 NOSIG,ZSFZ,2015-02-12T05:00:00Z,25.93,119.67,19.0,-3.0,100,10,,6.21,30.059055,,,,,,TRUE,,,,,CAVOK,,,,,,,,VFR,,,,,,,,,,,,METAR,85.0
ZSAM 120500Z 12005MPS 080V140 CAVOK 21/M02 Q1018 NOSIG,ZSAM,2015-02-12T05:00:00Z,24.53,118.13,21.0,-2.0,120,10,,6.21,30.059055,,,,,,TRUE,,,,,CAVOK,,,,,,,,VFR,,,,,,,,,,,,METAR,139.0
SBME 120500Z 06006KT CAVOK 25/24 Q1015,SBME,2015-02-12T05:00:00Z,-22.35,-41.77,25.0,24.0,60,6,,6.21,29.970472,,,,,,,,,,,CAVOK,,,,,,,,VFR,,,,,,,,,,,,METAR,2.0
SBUL 120500Z 09005KT CAVOK 21/18 Q1019,SBUL,2015-02-12T05:00:00Z,-18.87,-48.22,21.0,18.0,90,5,,6.21,30.088583,,,,,,,,,,,CAVOK,,,,,,,,VFR,,,,,,,,,,,,METAR,922.0
SBSC 120500Z 00000KT CAVOK 26/24 Q1013,SBSC,2015-02-12T05:00:00Z,-22.92,-43.72,26.0,24.0,0,0,,6.21,29.911417,,,,,,,,,,,CAVOK,,,,,,,,VFR,,,,,,,,,,,,METAR,3.0
SBUR 120500Z 04004KT CAVOK 22/20 Q1019,SBUR,2015-02-12T05:00:00Z,-19.77,-47.97,22.0,20.0,40,4,,6.21,30.088583,,,,,,,,,,,CAVOK,,,,,,,,VFR,,,,,,,,,,,,METAR,807.0
DAAJ 120500Z 00000KT CAVOK 14/07 Q1020,DAAJ,2015-02-12T05:00:00Z,24.28,9.47,14.0,7.0,0,0,,6.21,30.11811,,,,,,,,,,,CAVOK,,,,,,,,VFR,,,,,,,,,,,,METAR,968.0
DAAP 120500Z 18008KT 6000 NSC 21/M00 Q1012,DAAP,2015-02-12T05:00:00Z,26.72,8.62,21.0,0.0,180,8,,3.73,29.88189,,,,,,,,,,,,,,,,,,,,,,,,,,,,,,,METAR,558.0
DAAS 120500Z 34005KT 9999 FEW030 SCT100 01/M01 Q1019,DAAS,2015-02-12T05:00:00Z,36.18,5.33,1.0,-1.0,340,5,,6.21,30.088583,,,,,,,,,,,FEW,3000,SCT,10000,,,,,VFR,,,,,,,,,,,,METAR,1038.0
DAAV 120500Z 00000KT CAVOK 07/05 Q1018,DAAV,2015-02-12T05:00:00Z,36.8,5.88,7.0,5.0,0,0,,6.21,30.059055,,,,,,,,,,,CAVOK,,,,,,,,VFR,,,,,,,,,,,,METAR,11.0
DAUK 120500Z 03005KT CAVOK 06/M03 Q1018,DAUK,2015-02-12T05:00:00Z,33.08,6.12,6.0,-3.0,30,5,,6.21,30.059055,,,,,,,,,,,CAVOK,,,,,,,,VFR,,,,,,,,,,,,METAR,85.0
FNUE 120500Z 24005KT CAVOK 16/// Q1019,FNUE,2015-02-12T05:00:00Z,-11.77,19.9,,,240,5,,6.21,30.088583,,,,,,,,,,,CAVOK,,,,,,,,VFR,,,,,,,,,,,,METAR,1329.0
DAUL 120500Z 00000KT 9999 FEW033 03/M01 Q1018,DAUL,2015-02-12T05:00:00Z,33.77,2.92,3.0,-1.0,0,0,,6.21,30.059055,,,,,,,,,,,FEW,3300,,,,,,,VFR,,,,,,,,,,,,METAR,765.0
DAUI 120500Z 00000KT CAVOK 11/M02 Q1011,DAUI,2015-02-12T05:00:00Z,27.25,2.52,11.0,-2.0,0,0,,6.21,29.852362,,,,,,,,,,,CAVOK,,,,,,,,VFR,,,,,,,,,,,,METAR,269.0
DAUB 120500Z 34008KT CAVOK 09/01 Q1018,DAUB,2015-02-12T05:00:00Z,34.78,5.72,9.0,1.0,340,8,,6.21,30.059055,,,,,,,,,,,CAVOK,,,,,,,,VFR,,,,,,,,,,,,METAR,87.0
DAOF 120500Z 00000KT CAVOK 09/03 Q1017,DAOF,2015-02-12T05:00:00Z,27.7,-8.17,9.0,3.0,0,0,,6.21,30.029528,,,,,,,,,,,CAVOK,,,,,,,,VFR,,,,,,,,,,,,METAR,431.0
DAOB 120500Z 00000KT 9999 FEW023 SCT216 02/01 Q1017,DAOB,2015-02-12T05:00:00Z,35.33,1.47,2.0,1.0,0,0,,6.21,30.029528,,,,,,,,,,,FEW,2300,SCT,21600,,,,,VFR,,,,,,,,,,,,METAR,989.0
MHCA 120500Z 10004KT 9999 FEW026 21/16 Q1019,MHCA,2015-02-12T05:00:00Z,14.9,-85.78,21.0,16.0,100,4,,6.21,30.088583,,,,,,,,,,,FEW,2600,,,,,,,VFR,,,,,,,,,,,,METAR,442.0
DAUO 120500Z 040//KT 9999 FEW040 05/M01 Q1018,DAUO,2015-02-12T05:00:00Z,33.5,6.78,5.0,-1.0,,,,6.21,30.059055,,,,,,,,,,,FEW,4000,,,,,,,VFR,,,,,,,,,,,,METAR,63.0
CPIR 120500Z AUTO 20006KT M05/M05 RMK AO1 T10491054,CPIR,2015-02-12T05:00:00Z,49.9,-112.73,-4.9,-5.4,200,6,,,,,,TRUE,TRUE,,,,,,,,,,,,,,,,,,,,,,,,,,,METAR,858.0
CPEH 120500Z AUTO 15008KT M04/M05 RMK AO1 T10431051,CPEH,2015-02-12T05:00:00Z,50.18,-112.43,-4.3,-5.1,150,8,,,,,,TRUE,TRUE,,,,,,,,,,,,,,,,,,,,,,,,,,,METAR,801.0
FXMM 120500Z 00000KT 9999 BKN/// 20/12 Q1024 NOSIG,FXMM,2015-02-12T05:00:00Z,-29.47,27.55,20.0,12.0,0,0,,6.21,30.236221,,,,,,TRUE,,,,,,,,,,,,,,,,,,,,,,,,,SPECI,1631.0
FAWB 120500Z AUTO 10003KT //// // ////// 21/15 Q1022,FAWB,2015-02-12T05:00:00Z,-25.63,28.22,21.0,15.0,100,3,,,30.177166,,,TRUE,,,,,,,,,,,,,,,,,,,,,,,,,,,,METAR,1248.0
FAWK 120500Z AUTO 04006KT 22/16 Q////,FAWK,2015-02-12T05:00:00Z,-25.82,28.22,22.0,16.0,40,6,,,,,,TRUE,,,,,,,,,,,,,,,,,,,,,,,,,,,,METAR,1500.0
FLKK 120500Z 12003KT CAVOK 20/16 Q1020,FLKK,2015-02-12T05:00:00Z,-15.32,28.45,20.0,16.0,120,3,,6.21,30.11811,,,,,,,,,,,CAVOK,,,,,,,,VFR,,,,,,,,,,,,METAR,1154.0
FLSK 120500Z 00000KT 8000 FU NSC 17/17 Q1020,FLSK,2015-02-12T05:00:00Z,-13.0,28.67,17.0,17.0,0,0,,4.97,30.11811,,,,,,,,,,FU,,,,,,,,,,,,,,,,,,,,,METAR,1261.0
SUMU 120500Z 02008KT CAVOK 21/13 Q1011 NOSIG,SUMU,2015-02-12T05:00:00Z,-34.82,-56.0,21.0,13.0,20,8,,6.21,29.852362,,,,,,TRUE,,,,,CAVOK,,,,,,,,VFR,,,,,,,,,,,,METAR,32.0
LERT 120500Z 04004KT 9999 RA SCT020 SCT030 11/10 Q1016 NOSIG,LERT,2015-02-12T05:00:00Z,36.63,-6.33,11.0,10.0,40,4,,6.21,30.0,,,,,,TRUE,,,,RA,SCT,2000,SCT,3000,,,,,VFR,,,,,,,,,,,,METAR,26.0
NGTT 120500Z 05009KT 9999 FEW018TCU BKN300 31/24 Q1006,NGTT,2015-02-12T05:00:00Z,1.35,172.92,31.0,24.0,50,9,,6.21,29.704725,,,,,,,,,,,FEW,1800,BKN,30000,,,,,VFR,,,,,,,,,,,,METAR,2.0
RPLI 120500Z 36012G22KT 9999 FEW019 26/17 Q1014 NOSIG RMK A2994,RPLI,2015-02-12T05:00:00Z,18.17,120.52,26.0,17.0,360,12,22,6.21,29.940945,,,,,,TRUE,,,,,FEW,1900,,,,,,,VFR,,,,,,,,,,,,METAR,5.0
YPXM 120500Z AUTO 22008KT 9999 // SCT017 29/23 Q1010,YPXM,2015-02-12T05:00:00Z,-10.45,105.67,29.0,23.0,220,8,,6.21,29.822834,,,TRUE,,,,,,,,SCT,1700,,,,,,,VFR,,,,,,,,,,,,METAR,259.0
OLBA 120500Z 16016KT 8000 FEW020CB BKN026 10/04 Q1015 NOSIG,OLBA,2015-02-12T05:00:00Z,33.82,35.47,10.0,4.0,160,16,,4.97,29.970472,,,,,,TRUE,,,,,FEW,2000,BKN,2600,,,,,MVFR,,,,,,,,,,,,METAR,19.0
FAGC 120500Z AUTO 04008KT //// // ////// 18/13 Q1024,FAGC,2015-02-12T05:00:00Z,-25.98,28.13,18.0,13.0,40,8,,,30.236221,,,TRUE,,,,,,,,,,,,,,,,,,,,,,,,,,,,METAR,1623.0
FASI 120500Z AUTO /////KT //// // ////// 17/14 Q1025,FASI,2015-02-12T05:00:00Z,-26.25,28.4,17.0,14.0,,,,,30.265747,,,TRUE,,,,,,,,,,,,,,,,,,,,,,,,,,,,METAR,1628.0
FAJB 120500Z AUTO 03001KT //// // ////// 19/13 Q1024,FAJB,2015-02-12T05:00:00Z,-26.15,28.0,19.0,13.0,30,1,,,30.236221,,,TRUE,,,,,,,,,,,,,,,,,,,,,,,,,,,,METAR,1626.0
FAVV 120500Z AUTO /////KT //// // ////// 19/14 Q1024,FAVV,2015-02-12T05:00:00Z,-26.57,27.97,19.0,14.0,,,,,30.236221,,,TRUE,,,,,,,,,,,,,,,,,,,,,,,,,,,,METAR,1483.0
LEGT 120500Z 02005KT 9999 SCT015 BKN032 04/02 Q1018,LEGT,2015-02-12T05:00:00Z,40.28,-3.72,4.0,2.0,20,5,,6.21,30.059055,,,,,,,,,,,SCT,1500,BKN,3200,,,,,VFR,,,,,,,,,,,,METAR,612.0
ORSU 120500Z 04004KT 5000 DU SCT045 SCT070 08/03 Q1016,ORSU,2015-02-12T05:00:00Z,35.57,45.32,8.0,3.0,40,4,,3.11,30.0,,,,,,,,,,DU,SCT,4500,SCT,7000,,,,,MVFR,,,,,,,,,,,,METAR,761.0
WABP 120500Z 26007KT 8000 FEW015CB BKN016 30/25 Q1007,WABP,2015-02-12T05:00:00Z,-4.52,136.88,30.0,25.0,260,7,,4.97,29.734253,,,,,,,,,,,FEW,1500,BKN,1600,,,,,MVFR,,,,,,,,,,,,METAR,31.0
DAAE 120500Z 00000KT CAVOK 08/05 Q1018,DAAE,2015-02-12T05:00:00Z,36.72,5.07,8.0,5.0,0,0,,6.21,30.059055,,,,,,,,,,,CAVOK,,,,,,,,VFR,,,,,,,,,,,,METAR,2.0
SAZS 120500Z 29022KT 9999 SCT030 13/03 Q1016,SAZS,2015-02-12T05:00:00Z,-41.13,-71.17,13.0,3.0,290,22,,6.21,30.0,,,,,,,,,,,SCT,3000,,,,,,,VFR,,,,,,,,,,,,METAR,840.0
CWWL 120500Z AUTO 14019G32KT 08/07 RMK AO1 0PAST HR 5004 PK WND 14034/0447 SLP085 P0004 T00800071 50030,CWWL,2015-02-12T05:00:00Z,53.5,-130.63,8.0,7.1,140,19,32,,,1008.5,,TRUE,TRUE,,,,,,,,,,,,,,,,3.0,,,,,0.04,,,,,,METAR,17.0
DAUE 120500Z 36006KT 8000 NSC 08/M02 Q1016,DAUE,2015-02-12T05:00:00Z,30.57,2.87,8.0,-2.0,360,6,,4.97,30.0,,,,,,,,,,,,,,,,,,,,,,,,,,,,,,,METAR,397.0
GFLL 120500Z 24010KT 9999 BKN012 25/22 Q1012,GFLL,2015-02-12T05:00:00Z,8.62,-13.18,25.0,22.0,240,10,,6.21,29.88189,,,,,,,,,,,BKN,1200,,,,,,,MVFR,,,,,,,,,,,,METAR,27.0
VTPH 120500Z 12007KT 8000 NSC 29/22 Q1013 NOSIG,VTPH,2015-02-12T05:00:00Z,12.63,99.95,29.0,22.0,120,7,,4.97,29.911417,,,,,,TRUE,,,,,,,,,,,,,,,,,,,,,,,,,METAR,6.0
WIHH 120500Z 32010KT 5000 HZ SCT017 30/24 Q1010 NOSIG,WIHH,2015-02-12T05:00:00Z,-6.25,106.88,30.0,24.0,320,10,,3.11,29.822834,,,,,,TRUE,,,,HZ,SCT,1700,,,,,,,MVFR,,,,,,,,,,,,METAR,25.0
WAOO 120500Z 26007KT 9999 -RA SCT017 29/25 Q1009,WAOO,2015-02-12T05:00:00Z,-3.45,114.77,29.0,25.0,260,7,,6.21,29.793306,,,,,,,,,,-RA,SCT,1700,,,,,,,VFR,,,,,,,,,,,,METAR,20.0
VTSG 120500Z 07009KT 360V120 9000 FEW020 31/19 Q1012 A2990,VTSG,2015-02-12T05:00:00Z,8.1,98.98,31.0,19.0,70,9,,5.59,29.88189,,,,,,,,,,,FEW,2000,,,,,,,VFR,,,,,,,,,,,,METAR,25.0
DAUA 120500Z 35010KT 5000 NSC 10/M02 Q1013,DAUA,2015-02-12T05:00:00Z,27.83,-0.18,10.0,-2.0,350,10,,3.11,29.911417,,,,,,,,,,,,,,,,,,,,,,,,,,,,,,,METAR,263.0
SBPJ 120500Z 35004KT CAVOK 26/22 Q1013,SBPJ,2015-02-12T05:00:00Z,-10.28,-48.37,26.0,22.0,350,4,,6.21,29.911417,,,,,,,,,,,CAVOK,,,,,,,,VFR,,,,,,,,,,,,METAR,236.0
SBAN 120500Z 13006KT 9999 FEW013 20/17 Q1020,SBAN,2015-02-12T05:00:00Z,-16.22,-48.97,20.0,17.0,130,6,,6.21,30.11811,,,,,,,,,,,FEW,1300,,,,,,,VFR,,,,,,,,,,,,METAR,1137.0
CXHP 120500Z AUTO 09004KT M10/M12 RMK AO1 T10971116,CXHP,2015-02-12T05:00:00Z,55.4,-116.48,-9.7,-11.6,90,4,,,,,,TRUE,TRUE,,,,,,,,,,,,,,,,,,,,,,,,,,,METAR,602.0
CZFS 120500Z AUTO 20001KT M23/M26 RMK AO1 SOG 36 3006 SLP209 T12301258,CZFS,2015-02-12T05:00:00Z,61.77,-121.23,-23.0,-25.8,200,1,,,,1020.9,,TRUE,TRUE,,,,,,,,,,,,,,,,,,,,,,,,,,,METAR,168.0
CZEV 120500Z AUTO 07006KT M32/M35 RMK AO1 SOG 40 3001 SLP270 T13181353,CZEV,2015-02-12T05:00:00Z,68.32,-133.52,-31.8,-35.3,70,6,,,,1027.0,,TRUE,TRUE,,,,,,,,,,,,,,,,,,,,,,,,,,,METAR,103.0
NSFA 120500Z 00000KT 9999 FEW020TCU SCT022 BKN150 28/26 Q1008,NSFA,2015-02-12T05:00:00Z,-13.83,-172.0,28.0,26.0,0,0,,6.21,29.763779,,,,,,,,,,,FEW,2000,SCT,2200,BKN,15000,,,VFR,,,,,,,,,,,,METAR,5.0
SKCC 120500Z 00000KT 6000 MIFG SCT015 BKN080 25/24 A2997 REDZ RMK AD OPR IMC,SKCC,2015-02-12T05:00:00Z,7.92,-72.52,25.0,24.0,0,0,,3.73,29.970472,,,,,,,,,,MIFG,SCT,1500,BKN,8000,,,,,MVFR,,,,,,,,,,,,METAR,317.0
OITR 120500Z 00000KT 7000 SCT035 OVC100 M01/M01 Q1012 NOSIG,OITR,2015-02-12T05:00:00Z,37.67,45.07,-1.0,-1.0,0,0,,4.35,29.88189,,,,,,TRUE,,,,,SCT,3500,OVC,10000,,,,,MVFR,,,,,,,,,,,,METAR,1312.0
OIAG 120500Z 14022KT 9999 FEW035CB BKN040 26/08 Q1011,OIAG,2015-02-12T05:00:00Z,30.77,49.67,26.0,8.0,140,22,,6.21,29.852362,,,,,,,,,,,FEW,3500,BKN,4000,,,,,VFR,,,,,,,,,,,,METAR,29.0
VLVT 120500Z 12006KT 8000 BKN050 27/18 Q1015 NOSIG,VLVT,2015-02-12T05:00:00Z,17.98,102.57,27.0,18.0,120,6,,4.97,29.970472,,,,,,TRUE,,,,,BKN,5000,,,,,,,MVFR,,,,,,,,,,,,METAR,171.0
VVCT 120500Z 09009KT 9999 FEW015 29/17 Q1013 NOSIG,VVCT,2015-02-12T05:00:00Z,10.08,105.72,29.0,17.0,90,9,,6.21,29.911417,,,,,,TRUE,,,,,FEW,1500,,,,,,,VFR,,,,,,,,,,,,METAR,3.0
ZBHH 120500Z 32006MPS 290V360 9999 FEW040 02/M16 Q1014 NOSIG,ZBHH,2015-02-12T05:00:00Z,40.85,111.82,2.0,-16.0,320,12,,6.21,29.940945,,,,,,TRUE,,,,,FEW,4000,,,,,,,VFR,,,,,,,,,,,,METAR,1065.0
ZGHA 120500Z 17004MPS 140V210 6000 NSC 20/03 Q1018 NOSIG,ZGHA,2015-02-12T05:00:00Z,28.18,113.22,20.0,3.0,170,8,,3.73,30.059055,,,,,,TRUE,,,,,,,,,,,,,,,,,,,,,,,,,METAR,66.0
ZHCC 120500Z VRB02MPS 5000 HZ NSC 13/M10 Q1017 NOSIG,ZHCC,2015-02-12T05:00:00Z,34.52,113.83,13.0,-10.0,0,4,,3.11,30.029528,,,,,,TRUE,,,,HZ,,,,,,,,,,,,,,,,,,,,,METAR,111.0
ZHHH 120500Z 19004MPS 2800 HZ NSC 17/03 Q1018 BECMG TL0540 3000 HZ,ZHHH,2015-02-12T05:00:00Z,30.78,114.22,17.0,3.0,190,8,,1.74,30.059055,,,,,,,,,,HZ,,,,,,,,,,,,,,,,,,,,,METAR,23.0
ZJHK 120500Z 36003MPS 330V050 5000 HZ BKN023 19/14 Q1018 NOSIG,ZJHK,2015-02-12T05:00:00Z,19.93,110.47,19.0,14.0,360,6,,3.11,30.059055,,,,,,TRUE,,,,HZ,BKN,2300,,,,,,,MVFR,,,,,,,,,,,,METAR,23.0
ZJSY 120500Z 13003MPS 100V190 9999 FEW026 BKN050 24/17 Q1018 NOSIG,ZJSY,2015-02-12T05:00:00Z,18.3,109.42,24.0,17.0,130,6,,6.21,30.059055,,,,,,TRUE,,,,,FEW,2600,BKN,5000,,,,,VFR,,,,,,,,,,,,METAR,27.0
ZLLL 120500Z 21004MPS 170V260 CAVOK 06/M19 Q1019 NOSIG,ZLLL,2015-02-12T05:00:00Z,36.52,103.62,6.0,-19.0,210,8,,6.21,30.088583,,,,,,TRUE,,,,,CAVOK,,,,,,,,VFR,,,,,,,,,,,,METAR,1947.0
ZSNJ 120500Z 32002MPS 270V360 4000 HZ NSC 15/M07 Q1018 NOSIG,ZSNJ,2015-02-12T05:00:00Z,31.75,118.87,15.0,-7.0,320,4,,2.49,30.059055,,,,,,TRUE,,,,HZ,,,,,,,,,,,,,,,,,,,,,METAR,33.0
ZSOF 120500Z 23003MPS 160V280 7000 NSC 15/M04 Q1018 NOSIG,ZSOF,2015-02-12T05:00:00Z,31.78,117.3,15.0,-4.0,230,6,,4.35,30.059055,,,,,,TRUE,,,,,,,,,,,,,,,,,,,,,,,,,METAR,33.0
ZUCK 120500Z 02004MPS 350V060 4500 HZ NSC 15/03 Q1017 NOSIG,ZUCK,2015-02-12T05:00:00Z,29.72,106.63,15.0,3.0,20,8,,2.8,30.029528,,,,,,TRUE,,,,HZ,,,,,,,,,,,,,,,,,,,,,METAR,351.0
ZYCC 120500Z 30007MPS 270V330 CAVOK M06/M14 Q1013 NOSIG,ZYCC,2015-02-12T05:00:00Z,43.98,125.68,-6.0,-14.0,300,14,,6.21,29.911417,,,,,,TRUE,,,,,CAVOK,,,,,,,,VFR,,,,,,,,,,,,METAR,238.0
ZYHB 120500Z 34004MPS 290V010 CAVOK M10/M15 Q1012 NOSIG,ZYHB,2015-02-12T05:00:00Z,45.62,126.25,-10.0,-15.0,340,8,,6.21,29.88189,,,,,,TRUE,,,,,CAVOK,,,,,,,,VFR,,,,,,,,,,,,METAR,140.0
OJAM 120500Z 26020KT 1500 DU SCT030 04/M03 Q1014 NOSIG,OJAM,2015-02-12T05:00:00Z,31.97,35.97,4.0,-3.0,260,20,,0.93,29.940945,,,,,,TRUE,,,,DU,SCT,3000,,,,,,,LIFR,,,,,,,,,,,,METAR,773.0
OJAQ 120500Z 14004KT 4000 FEW030 10/M01 Q1017 NOSIG,OJAQ,2015-02-12T05:00:00Z,29.62,35.02,10.0,-1.0,140,4,,2.49,30.029528,,,,,,TRUE,,,,,FEW,3000,,,,,,,IFR,,,,,,,,,,,,METAR,51.0
UTAK 120500Z 07006MPS CAVOK 06/03 Q1019 NOSIG,UTAK,2015-02-12T05:00:00Z,40.05,53.0,6.0,3.0,70,12,,6.21,30.088583,,,,,,TRUE,,,,,CAVOK,,,,,,,,VFR,,,,,,,,,,,,METAR,85.0
UTAV 120500Z 36003PS 9999 -SHRA BKN020CB FEW020 08/07 Q1018 NOSIG,UTAV,2015-02-12T05:00:00Z,39.08,63.62,8.0,7.0,,,,6.21,30.059055,,,,,,TRUE,,,,-SHRA,BKN,2000,FEW,2000,,,,,MVFR,,,,,,,,,,,,SPECI,192.0
GMMH 120500Z 04009KT 1200 R03/2000D BR BKN004 14/14 Q1017 TEMPO 0800 FG,GMMH,2015-02-12T05:00:00Z,23.72,-15.93,14.0,14.0,40,9,,0.75,30.029528,,,,,,,,,,BR,BKN,400,,,,,,,LIFR,,,,,,,,,,,,METAR,11.0
OIBV 120500Z 09010KT 9999 FEW020 BKN180 23/19 Q1016,OIBV,2015-02-12T05:00:00Z,26.82,53.35,23.0,19.0,90,10,,6.21,30.0,,,,,,,,,,,FEW,2000,BKN,18000,,,,,VFR,,,,,,,,,,,,METAR,24.0
OIBA 120500Z 09006KT 5000 BR NSC 24/22 Q1017,OIBA,2015-02-12T05:00:00Z,25.88,55.03,24.0,22.0,90,6,,3.11,30.029528,,,,,,,,,,BR,,,,,,,,,,,,,,,,,,,,,METAR,7.0
OIMQ 120500Z 00000KT 9999 FEW035 18/06 Q1016,OIMQ,2015-02-12T05:00:00Z,35.23,58.47,18.0,6.0,0,0,,6.21,30.0,,,,,,,,,,,FEW,3500,,,,,,,VFR,,,,,,,,,,,,METAR,1140.0
OIMD 120500Z 00000KT 9999 FEW035 17/04 Q1013,OIMD,2015-02-12T05:00:00Z,34.38,58.63,17.0,4.0,0,0,,6.21,29.911417,,,,,,,,,,,FEW,3500,,,,,,,VFR,,,,,,,,,,,,METAR,1100.0
OIMC 120500Z 00000KT CAVOK 13/10 Q1017,OIMC,2015-02-12T05:00:00Z,36.5,61.07,13.0,10.0,0,0,,6.21,30.029528,,,,,,,,,,,CAVOK,,,,,,,,VFR,,,,,,,,,,,,METAR,288.0
SADF 120500Z 00000KT CAVOK 21/17 Q1011,SADF,2015-02-12T05:00:00Z,-34.45,-58.58,21.0,17.0,0,0,,6.21,29.852362,,,,,,,,,,,CAVOK,,,,,,,,VFR,,,,,,,,,,,,METAR,4.0
LEMO 120500Z 09001KT 9999 FEW040 SCT050 10/09 Q1017 NOSIG,LEMO,2015-02-12T05:00:00Z,37.17,-5.62,10.0,9.0,90,1,,6.21,30.029528,,,,,,TRUE,,,,,FEW,4000,SCT,5000,,,,,VFR,,,,,,,,,,,,METAR,88.0
CYZT 120500Z 12013G19KT 15SM BKN033 OVC046 09/08 A3003 RMK SC7SC1 SLP169,CYZT,2015-02-12T05:00:00Z,50.67,-127.37,9.0,8.0,120,13,19,15.0,30.029528,1016.9,,,,,,,,,,BKN,3300,OVC,4600,,,,,VFR,,,,,,,,,,,,METAR,22.0
CYXE 120500Z 16010KT 15SM OVC200 M23/M27 A3048 RMK CI8 PRESFR SLP385,CYXE,2015-02-12T05:00:00Z,52.17,-106.7,-23.0,-27.0,160,10,,15.0,30.481298,1038.5,,,,,,,,,,OVC,20000,,,,,,,VFR,,,,,,,,,,,,METAR,504.0
YMOR 120500Z AUTO 12005KT 050V160 9999 // SCT077 33/11 Q1015,YMOR,2015-02-12T05:00:00Z,-29.5,149.85,33.0,11.0,120,5,,6.21,29.970472,,,TRUE,,,,,,,,SCT,7700,,,,,,,VFR,,,,,,,,,,,,METAR,214.0
YMIA 120500Z AUTO 13004KT 9999 // SCT065 36/13 Q1015,YMIA,2015-02-12T05:00:00Z,-34.23,142.08,36.0,13.0,130,4,,6.21,29.970472,,,TRUE,,,,,,,,SCT,6500,,,,,,,VFR,,,,,,,,,,,,METAR,51.0
YMEN 120500Z AUTO 19013KT 9999 // NCD 22/12 Q1021,YMEN,2015-02-12T05:00:00Z,-37.72,144.9,22.0,12.0,190,13,,6.21,30.147638,,,TRUE,,,,,,,,,,,,,,,,,,,,,,,,,,,,METAR,86.0
YMEK 120500Z 03009KT CAVOK 42/M00 Q1011,YMEK,2015-02-12T05:00:00Z,-26.62,118.55,42.0,0.0,30,9,,6.21,29.852362,,,,,,,,,,,CAVOK,,,,,,,,VFR,,,,,,,,,,,,METAR,522.0
YMAY 120500Z AUTO 16006KT 120V210 9999 // NCD 31/14 Q1018,YMAY,2015-02-12T05:00:00Z,-36.07,146.93,31.0,14.0,160,6,,6.21,30.059055,,,TRUE,,,,,,,,,,,,,,,,,,,,,,,,,,,,METAR,171.0
YLRE 120500Z 13013KT CAVOK 36/10 Q1011,YLRE,2015-02-12T05:00:00Z,-23.43,144.28,36.0,10.0,130,13,,6.21,29.852362,,,,,,,,,,,CAVOK,,,,,,,,VFR,,,,,,,,,,,,METAR,193.0
NVVW 120500Z 09004KT 9999 BKN020 29/26 Q1005 RMK NIL,NVVW,2015-02-12T05:00:00Z,-19.45,169.22,29.0,26.0,90,4,,6.21,29.675198,,,,,,,,,,,BKN,2000,,,,,,,MVFR,,,,,,,,,,,,METAR,6.0
NVVV 120500Z 03002KT 9999 SCT020 BKN300 27/26 Q1004 RMK RESH,NVVV,2015-02-12T05:00:00Z,-17.68,168.3,27.0,26.0,30,2,,6.21,29.64567,,,,,,,,,,,SCT,2000,BKN,30000,,,,,VFR,,,,,,,,,,,,METAR,21.0
NVSL 120500Z 13004KT 9999 SCT023 FEW028CB BKN110 30/26 Q1004 RMK NIL,NVSL,2015-02-12T05:00:00Z,-16.45,167.83,30.0,26.0,130,4,,6.21,29.64567,,,,,,,,,,,SCT,2300,FEW,2800,BKN,11000,,,VFR,,,,,,,,,,,,METAR,26.0
NVSS 130500Z 17008KT 9999 SCT020 FEW025CB 30/25 Q1004 RMK NIL,NVSS,2015-02-12T05:00:00Z,-15.52,167.22,30.0,25.0,170,8,,6.21,29.64567,,,,,,,,,,,SCT,2000,FEW,2500,,,,,VFR,,,,,,,,,,,,METAR,44.0
TNCM 120500Z 22009KT 9999 BKN017 27/24 Q1013 A29924,TNCM,2015-02-12T05:00:00Z,18.05,-63.12,27.0,24.0,220,9,,6.21,29.911417,,,,,,,,,,,BKN,1700,,,,,,,MVFR,,,,,,,,,,,,METAR,4.0
CYQQ 120500Z 16007KT 20SM BKN057 OVC095 10/08 A3016 RMK SC6AC2 SLP214,CYQQ,2015-02-12T05:00:00Z,49.72,-124.9,10.0,8.0,160,7,,20.0,30.159449,1021.4,,,,,,,,,,BKN,5700,OVC,9500,,,,,VFR,,,,,,,,,,,,METAR,24.0
CYQM 120500Z 01011KT 15SM -SHSN OVC017 M16/M19 A2997 RMK SC8 SLP154,CYQM,2015-02-12T05:00:00Z,46.12,-64.67,-16.0,-19.0,10,11,,15.0,29.970472,1015.4,,,,,,,,,-SHSN,OVC,1700,,,,,,,MVFR,,,,,,,,,,,,METAR,71.0
CYQG 120500Z 28013G19KT 8SM -SN FEW020 BKN068 M02/M06 A2990 RMK SC2AC5 -SN INTMT SLP133,CYQG,2015-02-12T05:00:00Z,42.27,-82.97,-2.0,-6.0,280,13,19,8.0,29.899607,1013.3,,,,,,,,,-SN,FEW,2000,BKN,6800,,,,,VFR,,,,,,,,,,,,METAR,190.0
CYQB 120500Z 07013G22KT 15SM FEW010 BKN110 M13/M18 A2990 RMK SF1AC7 SF TR SLP131,CYQB,2015-02-12T05:00:00Z,46.78,-71.37,-13.0,-18.0,70,13,22,15.0,29.899607,1013.1,,,,,,,,,,FEW,1000,BKN,11000,,,,,VFR,,,,,,,,,,,,METAR,73.0
CYMX 120500Z 06005KT 2SM -SN OVC026 M14/M16 A2982 RMK SN5SC3 /S01/ SLP104,CYMX,2015-02-12T05:00:00Z,45.67,-74.02,-14.0,-16.0,60,5,,2.0,29.819881,1010.4,,,,,,,,,-SN,OVC,2600,,,,,,,IFR,,,,,,,,,,,,METAR,82.0
CYHZ 120500Z 36015KT 15SM -SN BKN015 OVC190 M14/M16 A2977 RMK SC5CS3 SLP091,CYHZ,2015-02-12T05:00:00Z,44.87,-63.5,-14.0,-16.0,360,15,,15.0,29.769686,1009.1,,,,,,,,,-SN,BKN,1500,OVC,19000,,,,,MVFR,,,,,,,,,,,,METAR,145.0
CYGL 120500Z 01004KT 12SM -SN SCT100 M26/M29 A3008 RMK AC3 SLP215,CYGL,2015-02-12T05:00:00Z,53.62,-77.7,-26.0,-29.0,10,4,,12.0,30.079725,1021.5,,,,,,,,,-SN,SCT,10000,,,,,,,VFR,,,,,,,,,,,,METAR,195.0
CYFC 120500Z AUTO 03006KT 9SM OVC019 M18/M21 A3000 RMK PRESFR SLP161,CYFC,2015-02-12T05:00:00Z,45.87,-66.52,-18.0,-21.0,30,6,,9.0,30.0,1016.1,,TRUE,,,,,,,,OVC,1900,,,,,,,MVFR,,,,,,,,,,,,METAR,20.0
CYFB 120500Z 31013KT 6SM IC DRSN SCT009 SCT120 M38/M43 A3007 RMK IC2SF1AC1 AC TR SLP188,CYFB,2015-02-12T05:00:00Z,63.75,-68.55,-38.0,-43.0,310,13,,6.0,30.070866,1018.8,,,,,,,,,IC DRSN,SCT,900,SCT,12000,,,,,VFR,,,,,,,,,,,,METAR,34.0
CYEG 120500Z 15009KT 15SM OVC084 M11/M14 A3007 RMK AC8 SLP241,CYEG,2015-02-12T05:00:00Z,53.28,-113.57,-11.0,-14.0,150,9,,15.0,30.070866,1024.1,,,,,,,,,,OVC,8400,,,,,,,VFR,,,,,,,,,,,,METAR,723.0
CYBG 120500Z 09015KT 25SM -SHSN SCT045 OVC080 M17/M20 A2989 RMK SC4AC4 SLP140,CYBG,2015-02-12T05:00:00Z,48.33,-70.98,-17.0,-20.0,90,15,,25.0,29.890747,1014.0,,,,,,,,,-SHSN,SCT,4500,OVC,8000,,,,,VFR,,,,,,,,,,,,METAR,159.0
CYYZ 120500Z 28014KT 15SM OVC075 M02/M05 A2976 RMK AC8 SLP086,CYYZ,2015-02-12T05:00:00Z,43.67,-79.62,-2.0,-5.0,280,14,,15.0,29.760826,1008.6,,,,,,,,,,OVC,7500,,,,,,,VFR,,,,,,,,,,,,METAR,173.0
CYYT 120500Z 06018G24KT 15SM -SHSN OVC020 M10/M12 A3000 RMK SC8 SLP168,CYYT,2015-02-12T05:00:00Z,47.62,-52.72,-10.0,-12.0,60,18,24,15.0,30.0,1016.8,,,,,,,,,-SHSN,OVC,2000,,,,,,,MVFR,,,,,,,,,,,,METAR,140.0
CYYR 120500Z 26005KT 15SM FEW120 FEW200 M28/M34 A3026 RMK AC1CI0 SLP253,CYYR,2015-02-12T05:00:00Z,53.32,-60.42,-28.0,-34.0,260,5,,15.0,30.259842,1025.3,,,,,,,,,,FEW,12000,FEW,20000,,,,,VFR,,,,,,,,,,,,METAR,49.0
CYYQ 120500Z 27007KT 15SM IC SKC M33/M38 A3058 RMK SLP360,CYYQ,2015-02-12T05:00:00Z,58.75,-94.07,-33.0,-38.0,270,7,,15.0,30.578741,1036.0,,,,,,,,,IC,SKC,,,,,,,,VFR,,,,,,,,,,,,METAR,29.0
CYYJ 120500Z 31004KT 300V360 30SM BKN100 OVC140 09/08 A3018 RMK AC5AC3 SLP221,CYYJ,2015-02-12T05:00:00Z,48.63,-123.42,9.0,8.0,310,4,,30.0,30.180119,1022.1,,,,,,,,,,BKN,10000,OVC,14000,,,,,VFR,,,,,,,,,,,,METAR,19.0
CYXX 120500Z 31002KT 10SM BKN140 OVC180 10/08 A3018 RMK AC6AC2 SLP222,CYXX,2015-02-12T05:00:00Z,49.03,-122.38,10.0,8.0,310,2,,10.0,30.180119,1022.2,,,,,,,,,,BKN,14000,OVC,18000,,,,,VFR,,,,,,,,,,,,METAR,58.0
CYWG 120500Z 03008KT 15SM SKC M25/M29 A3070 RMK PRESFR SLP428,CYWG,2015-02-12T05:00:00Z,49.88,-97.22,-25.0,-29.0,30,8,,15.0,30.699802,1042.8,,,,,,,,,,SKC,,,,,,,,VFR,,,,,,,,,,,,METAR,239.0
CYVR 120500Z 33002KT 20SM BKN100 OVC160 08/07 A3019 RMK AC7AC1 SLP223,CYVR,2015-02-12T05:00:00Z,49.17,-123.17,8.0,7.0,330,2,,20.0,30.188976,1022.3,,,,,,,,,,BKN,10000,OVC,16000,,,,,VFR,,,,,,,,,,,,METAR,2.0
CYTR 120500Z 22004KT 4SM -SN OVC012 M02/M03 A2974 RMK SF8 AWOS UNSERBL SLP077,CYTR,2015-02-12T05:00:00Z,44.12,-77.52,-2.0,-3.0,220,4,,4.0,29.740158,1007.7,,,TRUE,,,,,,-SN,OVC,1200,,,,,,,MVFR,,,,,,,,,,,,METAR,86.0
CYQY 120500Z 06013G23KT 10SM OVC027 M04/M08 A2983 RMK SC8 SLP105,CYQY,2015-02-12T05:00:00Z,46.17,-60.03,-4.0,-8.0,60,13,23,10.0,29.828741,1010.5,,,,,,,,,,OVC,2700,,,,,,,MVFR,,,,,,,,,,,,METAR,62.0
CYZF 120500Z 09008KT 15SM OVC027 M25/M28 A3009 RMK SC8 SLP223,CYZF,2015-02-12T05:00:00Z,62.47,-114.45,-25.0,-28.0,90,8,,15.0,30.088583,1022.3,,,,,,,,,,OVC,2700,,,,,,,MVFR,,,,,,,,,,,,METAR,206.0
WMKD 120500Z 02004KT 9999 FEW018TCU SCT019 BKN280 29/22 Q1013 NOSIG,WMKD,2015-02-12T05:00:00Z,3.77,103.22,29.0,22.0,20,4,,6.21,29.911417,,,,,,TRUE,,,,,FEW,1800,SCT,1900,BKN,28000,,,VFR,,,,,,,,,,,,METAR,16.0
WMKB 120500Z 27006KT 230V330 6000 FEW020 BKN300 31/21 Q1011 NOSIG,WMKB,2015-02-12T05:00:00Z,5.47,100.37,31.0,21.0,270,6,,3.73,29.852362,,,,,,TRUE,,,,,FEW,2000,BKN,30000,,,,,MVFR,,,,,,,,,,,,METAR,4.0
WMKA 120500Z 07007KT 330V130 8000 FEW025 BKN300 32/17 Q1011,WMKA,2015-02-12T05:00:00Z,6.2,100.4,32.0,17.0,70,7,,4.97,29.852362,,,,,,,,,,,FEW,2500,BKN,30000,,,,,MVFR,,,,,,,,,,,,METAR,5.0
WMBA 120500Z 08003KT 9999 SCT025 SCT150 BKN280 32/20 Q1011,WMBA,2015-02-12T05:00:00Z,4.22,100.7,32.0,20.0,80,3,,6.21,29.852362,,,,,,,,,,,SCT,2500,SCT,15000,BKN,28000,,,VFR,,,,,,,,,,,,METAR,8.0
WMAU 120500Z 02011KT 9999 FEW020 SCT140 BKN270 28/23 Q//// QFF1012,WMAU,2015-02-12T05:00:00Z,2.38,103.88,28.0,23.0,20,11,,6.21,,,,,,,,,,,,FEW,2000,SCT,14000,BKN,27000,,,VFR,,,,,,,,,,,,METAR,45.0
WMSA 120500Z 34003KT 9999 FEW020 SCT140 BKN260 32/22 Q1011,WMSA,2015-02-12T05:00:00Z,3.13,101.55,32.0,22.0,340,3,,6.21,29.852362,,,,,,,,,,,FEW,2000,SCT,14000,BKN,26000,,,VFR,,,,,,,,,,,,METAR,27.0
WMKJ 120500Z 36009KT 280V050 9999 FEW020 BKN300 31/23 Q1011,WMKJ,2015-02-12T05:00:00Z,1.62,103.67,31.0,23.0,360,9,,6.21,29.852362,,,,,,,,,,,FEW,2000,BKN,30000,,,,,VFR,,,,,,,,,,,,METAR,40.0
WBKW 120500Z 35004KT 9999 FEW017 BKN140 31/24 Q1010,WBKW,2015-02-12T05:00:00Z,4.32,118.12,31.0,24.0,350,4,,6.21,29.822834,,,,,,,,,,,FEW,1700,BKN,14000,,,,,VFR,,,,,,,,,,,,METAR,20.0
WBKT 120500Z 01007KT 9999 FEW015 BKN280 30/24 Q1011,WBKT,2015-02-12T05:00:00Z,6.92,116.82,30.0,24.0,10,7,,6.21,29.852362,,,,,,,,,,,FEW,1500,BKN,28000,,,,,VFR,,,,,,,,,,,,METAR,5.0
WBKS 120500Z 06009KT 020V090 9999 FEW016 BKN300 30/24 Q1011,WBKS,2015-02-12T05:00:00Z,5.9,118.07,30.0,24.0,60,9,,6.21,29.852362,,,,,,,,,,,FEW,1600,BKN,30000,,,,,VFR,,,,,,,,,,,,METAR,13.0
WBKL 120500Z 04008KT 350V110 9999 FEW012 BKN300 29/24 Q1011,WBKL,2015-02-12T05:00:00Z,5.28,115.25,29.0,24.0,40,8,,6.21,29.852362,,,,,,,,,,,FEW,1200,BKN,30000,,,,,VFR,,,,,,,,,,,,METAR,30.0
WBGY 120500Z 30005KT 9999 BKN018 BKN150 28/24 Q1010,WBGY,2015-02-12T05:00:00Z,1.22,111.43,28.0,24.0,300,5,,6.21,29.822834,,,,,,,,,,,BKN,1800,BKN,15000,,,,,MVFR,,,,,,,,,,,,METAR,34.0
WBGS 120500Z 05009KT 9999 FEW015CB SCT016 BKN150 29/25 Q1011,WBGS,2015-02-12T05:00:00Z,2.27,111.98,29.0,25.0,50,9,,6.21,29.852362,,,,,,,,,,,FEW,1500,SCT,1600,BKN,15000,,,VFR,,,,,,,,,,,,METAR,8.0
WBGR 120500Z 33010KT 9999 SCT014 FEW015CB BKN150 28/24 Q1011,WBGR,2015-02-12T05:00:00Z,4.32,113.97,28.0,24.0,330,10,,6.21,29.852362,,,,,,,,,,,SCT,1400,FEW,1500,BKN,15000,,,VFR,,,,,,,,,,,,METAR,18.0
WBGB 120500Z 35009KT 8000 -RA SCT003 SCT014 OVC140 28/24 Q1011,WBGB,2015-02-12T05:00:00Z,3.12,113.02,28.0,24.0,350,9,,4.97,29.852362,,,,,,,,,,-RA,SCT,300,SCT,1400,OVC,14000,,,MVFR,,,,,,,,,,,,METAR,5.0
WMKE 120500Z 04007KT 9999 FEW018 BKN270 28/20 Q1012,WMKE,2015-02-12T05:00:00Z,4.53,103.43,28.0,20.0,40,7,,6.21,29.88189,,,,,,,,,,,FEW,1800,BKN,27000,,,,,VFR,,,,,,,,,,,,METAR,5.0
WMKN 120500Z 07004KT 9999 SCT018 BKN140 28/22 Q1013,WMKN,2015-02-12T05:00:00Z,5.37,103.08,28.0,22.0,70,4,,6.21,29.911417,,,,,,,,,,,SCT,1800,BKN,14000,,,,,VFR,,,,,,,,,,,,METAR,6.0
WMKM 120500Z 04008KT 330V080 9999 FEW021 SCT300 31/23 Q1012,WMKM,2015-02-12T05:00:00Z,2.27,102.25,31.0,23.0,40,8,,6.21,29.88189,,,,,,,,,,,FEW,2100,SCT,30000,,,,,VFR,,,,,,,,,,,,METAR,9.0
WMKL 120500Z 03009KT 340V100 9999 FEW022 BKN290 32/18 Q1011,WMKL,2015-02-12T05:00:00Z,6.32,99.72,32.0,18.0,30,9,,6.21,29.852362,,,,,,,,,,,FEW,2200,BKN,29000,,,,,VFR,,,,,,,,,,,,METAR,7.0
WMKI 120500Z 21003KT 9999 FEW020 BKN290 32/21 Q1011,WMKI,2015-02-12T05:00:00Z,4.57,101.08,32.0,21.0,210,3,,6.21,29.852362,,,,,,,,,,,FEW,2000,BKN,29000,,,,,VFR,,,,,,,,,,,,METAR,39.0
OIIP 120500Z 06004KT 7000 FEW030CB SCT035 OVC090 09/04 Q1015 RERA,OIIP,2015-02-12T05:00:00Z,35.78,50.83,9.0,4.0,60,4,,4.35,29.970472,,,,,,,,,,,FEW,3000,SCT,3500,OVC,9000,,,MVFR,,,,,,,,,,,,METAR,1271.0
VTUD 120500Z 19005KT 110V230 9000 NSC 27/16 Q1015 A2998 INFO G RWY30,VTUD,2015-02-12T05:00:00Z,17.37,102.78,27.0,16.0,190,5,,5.59,29.970472,,,,,,,,,,,,,,,,,,,,,,,,,,,,,,,METAR,182.0
VTPP 120500Z 19010KT 6000 FEW028 31/19 Q1013,VTPP,2015-02-12T05:00:00Z,16.78,100.28,31.0,19.0,190,10,,3.73,29.911417,,,,,,,,,,,FEW,2800,,,,,,,MVFR,,,,,,,,,,,,METAR,44.0
VTCL 120500Z 28003KT 6000 SCT025 SCT120 29/19 Q1013 A2993 NOSIG INFO: G,VTCL,2015-02-12T05:00:00Z,18.27,99.52,29.0,19.0,280,3,,3.73,29.911417,,,,,,TRUE,,,,,SCT,2500,SCT,12000,,,,,MVFR,,,,,,,,,,,,METAR,242.0
CYBL 120500Z 09004KT 15SM OVC055 08/07 A3014 RMK SC8 LAST OBS/NEXT 121400UTC SLP208,CYBL,2015-02-12T05:00:00Z,49.95,-125.27,8.0,7.0,90,4,,15.0,30.138779,1020.8,,,,,,,,,,OVC,5500,,,,,,,VFR,,,,,,,,,,,,METAR,106.0
CYWH 120500Z 00000KT 15SM OVC110 09/07 A3018 RMK AC8 LAST OBS/NEXT 121400 UTC SLP220,CYWH,2015-02-12T05:00:00Z,48.42,-123.38,9.0,7.0,0,0,,15.0,30.180119,1022.0,,,,,,,,,,OVC,11000,,,,,,,VFR,,,,,,,,,,,,METAR,10.0
CYYF 120500Z 19016KT 15SM SCT042 OVC100 10/05 A3021 RMK SC4AC4 SLP237,CYYF,2015-02-12T05:00:00Z,49.47,-119.58,10.0,5.0,190,16,,15.0,30.209646,1023.7,,,,,,,,,,SCT,4200,OVC,10000,,,,,VFR,,,,,,,,,,,,METAR,344.0
CYXY 120500Z 16014G26KT 15SM DRSN FEW060 OVC210 M09/M12 A2964 RMK SC2CI6 PRESRR SLP098,CYXY,2015-02-12T05:00:00Z,60.72,-135.07,-9.0,-12.0,160,14,26,15.0,29.639763,1009.8,,,,,,,,,DRSN,FEW,6000,OVC,21000,,,,,VFR,,,,,,,,,,,,METAR,703.0
CYXT 120500Z 34002KT 1SM -RA BR BKN002 OVC014 00/M00 A2997 RMK SF5SC3 SLP159,CYXT,2015-02-12T05:00:00Z,54.47,-128.57,0.0,0.0,340,2,,1.0,29.970472,1015.9,,,,,,,,,-RA BR,BKN,200,OVC,1400,,,,,LIFR,,,,,,,,,,,,METAR,217.0
CYXJ 120500Z 19006KT 15SM FEW120 OVC190 M14/M16 A2990 RMK AC2AC6 SLP188,CYXJ,2015-02-12T05:00:00Z,56.25,-120.73,-14.0,-16.0,190,6,,15.0,29.899607,1018.8,,,,,,,,,,FEW,12000,OVC,19000,,,,,VFR,,,,,,,,,,,,METAR,695.0
CYWL 120500Z 00000KT 8SM BKN050 02/02 A3004 RMK ST5 SLP205,CYWL,2015-02-12T05:00:00Z,52.18,-122.07,2.0,2.0,0,0,,8.0,30.041338,1020.5,,,,,,,,,,BKN,5000,,,,,,,VFR,,,,,,,,,,,,METAR,940.0
CYQU 120500Z 30004KT 25SM BKN180 M12/M15 A2995 RMK AC5 SLP197,CYQU,2015-02-12T05:00:00Z,55.18,-118.88,-12.0,-15.0,300,4,,25.0,29.949802,1019.7,,,,,,,,,,BKN,18000,,,,,,,VFR,,,,,,,,,,,,METAR,669.0
CYQH 120500Z VRB02KT 20SM -SN OVC025 M18/M21 A2987 RMK SC8 SLP184,CYQH,2015-02-12T05:00:00Z,60.12,-128.82,-18.0,-21.0,0,2,,20.0,29.870079,1018.4,,,,,,,,,-SN,OVC,2500,,,,,,,MVFR,,,,,,,,,,,,METAR,690.0
CYMA 120500Z 21002KT 1SM -SN VV015 M14/M16 A2973 RMK SN8 SLP121,CYMA,2015-02-12T05:00:00Z,63.62,-135.87,-14.0,-16.0,210,2,,1.0,29.731298,1012.1,,,,,,,,,-SN,OVX,0,,,,,,,LIFR,,,,,,,,,,,1500,METAR,504.0
CYLW 120500Z AUTO 34003KT 9SM FEW033 OVC040 05/04 A3023 RMK SLP249,CYLW,2015-02-12T05:00:00Z,49.95,-119.37,5.0,4.0,340,3,,9.0,30.230314,1024.9,,TRUE,,,,,,,,FEW,3300,OVC,4000,,,,,VFR,,,,,,,,,,,,METAR,430.0
CYKA 120500Z 10013KT 20SM FEW090 OVC140 06/04 A3016 RMK AC1AC7 SLP226,CYKA,2015-02-12T05:00:00Z,50.7,-120.45,6.0,4.0,100,13,,20.0,30.159449,1022.6,,,,,,,,,,FEW,9000,OVC,14000,,,,,VFR,,,,,,,,,,,,METAR,346.0
CYIN 120500Z AUTO 14009KT 9SM BKN140 BKN230 02/01 A3006 RMK SLP207,CYIN,2015-02-12T05:00:00Z,51.27,-121.68,2.0,1.0,140,9,,9.0,30.059055,1020.7,,TRUE,,,,,,,,BKN,14000,BKN,23000,,,,,VFR,,,,,,,,,,,,METAR,1128.0
CYCD 120500Z 00000KT 20SM OVC100 09/08 A3019 RMK AC8 LAST OBS/NEXT 121400 UTC SLP225,CYCD,2015-02-12T05:00:00Z,49.05,-123.87,9.0,8.0,0,0,,20.0,30.188976,1022.5,,,,,,,,,,OVC,10000,,,,,,,VFR,,,,,,,,,,,,METAR,30.0
DAOR 120500Z 00000KT CAVOK 05/02 Q1019,DAOR,2015-02-12T05:00:00Z,31.65,-2.27,5.0,2.0,0,0,,6.21,30.088583,,,,,,,,,,,CAVOK,,,,,,,,VFR,,,,,,,,,,,,METAR,773.0
FSIA 120500Z 33016KT 9999 FEW015CB BKN080 28/23 Q1013 NOSIG,FSIA,2015-02-12T05:00:00Z,-4.67,55.52,28.0,23.0,330,16,,6.21,29.911417,,,,,,TRUE,,,,,FEW,1500,BKN,8000,,,,,VFR,,,,,,,,,,,,METAR,3.0
RJNK 120500Z 19010KT 7000 -SHRA FEW008 SCT015 BKN020 06/04 Q1004,RJNK,2015-02-12T05:00:00Z,36.37,136.42,6.0,4.0,190,10,,4.35,29.64567,,,,,,,,,,-SHRA,FEW,800,SCT,1500,BKN,2000,,,MVFR,,,,,,,,,,,,METAR,9.0
DTTZ 120500Z 09008KT 9999 SCT030 10/02 Q1018 NOSIG,DTTZ,2015-02-12T05:00:00Z,33.92,8.08,10.0,2.0,90,8,,6.21,30.059055,,,,,,TRUE,,,,,SCT,3000,,,,,,,VFR,,,,,,,,,,,,METAR,93.0
DTTX 120500Z 30003KT 6000 FEW026 06/05 Q1020 NOSIG,DTTX,2015-02-12T05:00:00Z,34.72,10.67,6.0,5.0,300,3,,3.73,30.11811,,,,,,TRUE,,,,,FEW,2600,,,,,,,MVFR,,,,,,,,,,,,METAR,23.0
DTTG 120500Z 07003KT 8000 NSC 05/02 Q1019 NOSIG,DTTG,2015-02-12T05:00:00Z,33.73,9.92,5.0,2.0,70,3,,4.97,30.088583,,,,,,TRUE,,,,,,,,,,,,,,,,,,,,,,,,,SPECI,5.0
DTTF 120500Z 06006KT 9999 FEW030 05/M05 Q1020 NOSIG,DTTF,2015-02-12T05:00:00Z,34.42,8.82,5.0,-5.0,60,6,,6.21,30.11811,,,,,,TRUE,,,,,FEW,3000,,,,,,,VFR,,,,,,,,,,,,METAR,314.0
DTKA 120500Z 06006KT 9999 FEW020 07/03 Q1018 NOSIG,DTKA,2015-02-12T05:00:00Z,36.98,8.88,7.0,3.0,60,6,,6.21,30.059055,,,,,,TRUE,,,,,FEW,2000,,,,,,,VFR,,,,,,,,,,,,METAR,21.0
SASA 120500Z 36003KT 9999 FEW030 BKN100 20/15 Q1019,SASA,2015-02-12T05:00:00Z,-24.85,-65.47,20.0,15.0,360,3,,6.21,30.088583,,,,,,,,,,,FEW,3000,BKN,10000,,,,,VFR,,,,,,,,,,,,METAR,1216.0
SAOC 120500Z 34009KT CAVOK 20/17 Q1011,SAOC,2015-02-12T05:00:00Z,-33.12,-64.27,20.0,17.0,340,9,,6.21,29.852362,,,,,,,,,,,CAVOK,,,,,,,,VFR,,,,,,,,,,,,METAR,421.0
SBBE 120500Z 08003KT CAVOK 25/23 Q1012,SBBE,2015-02-12T05:00:00Z,-1.37,-48.47,25.0,23.0,80,3,,6.21,29.88189,,,,,,,,,,,CAVOK,,,,,,,,VFR,,,,,,,,,,,,METAR,16.0
RPMD 120500Z 15004KT 9999 FEW016 31/24 Q1009 RMK A2980,RPMD,2015-02-12T05:00:00Z,7.12,125.65,31.0,24.0,150,4,,6.21,29.793306,,,,,,,,,,,FEW,1600,,,,,,,VFR,,,,,,,,,,,,SPECI,18.0
CYJT 120500Z 07013KT 15SM BKN200 M14/M20 A3004 RMK CI7 SLP175,CYJT,2015-02-12T05:00:00Z,48.55,-58.57,-14.0,-20.0,70,13,,15.0,30.041338,1017.5,,,,,,,,,,BKN,20000,,,,,,,VFR,,,,,,,,,,,,METAR,26.0
CYZS 120500Z 03003KT 15SM SKC M41/M46 A3025 RMK SLP259,CYZS,2015-02-12T05:00:00Z,64.2,-83.37,-41.0,-46.0,30,3,,15.0,30.250984,1025.9,,,,,,,,,,SKC,,,,,,,,VFR,,,,,,,,,,,,METAR,64.0
CYIV 120500Z 28003KT 15SM SKC M30/M33 A3064 RMK SLP412,CYIV,2015-02-12T05:00:00Z,53.85,-94.65,-30.0,-33.0,280,3,,15.0,30.640747,1041.2,,,,,,,,,,SKC,,,,,,,,VFR,,,,,,,,,,,,METAR,237.0
CYBX 120500Z 05012KT 15SM SKC M23/M28 A3017 RMK SLP221,CYBX,2015-02-12T05:00:00Z,51.45,-57.17,-23.0,-28.0,50,12,,15.0,30.171259,1022.1,,,,,,,,,,SKC,,,,,,,,VFR,,,,,,,,,,,,METAR,35.0
CYYE 120500Z 25002KT 15SM SKC M24/M26 A2995 RMK SLP191,CYYE,2015-02-12T05:00:00Z,58.82,-122.57,-24.0,-26.0,250,2,,15.0,29.949802,1019.1,,,,,,,,,,SKC,,,,,,,,VFR,,,,,,,,,,,,METAR,382.0
FIMR 120500Z 11017KT 9999 SCT018 BKN050 28/23 Q1013,FIMR,2015-02-12T05:00:00Z,-19.75,63.37,28.0,23.0,110,17,,6.21,29.911417,,,,,,,,,,,SCT,1800,BKN,5000,,,,,VFR,,,,,,,,,,,,METAR,31.0
LFBY 120500Z AUTO 00000KT 9999 // NCD 05/03 Q1019,LFBY,2015-02-12T05:00:00Z,43.67,-1.07,5.0,3.0,0,0,,6.21,30.088583,,,TRUE,,,,,,,,,,,,,,,,,,,,,,,,,,,,METAR,32.0
CWCT 120500Z AUTO 16020KT M14/M16 RMK AO1 SOG 08 8053 PK WND 16024/0426 SLP256 T11381156,CWCT,2015-02-12T05:00:00Z,52.07,-111.47,-13.8,-15.6,160,20,,,,1025.6,,TRUE,TRUE,,,,,,,,,,,,,,,,,,,,,,,,,,,METAR,791.0
CMFM 120500Z AUTO 00000KT M17/M21 RMK AO1 SOG 75 8018 SLP106 T11671213,CMFM,2015-02-12T05:00:00Z,47.32,-71.15,-16.7,-21.3,0,0,,,,1010.6,,TRUE,TRUE,,,,,,,,,,,,,,,,,,,,,,,,,,,SPECI,672.0
CZSP 120500Z AUTO 02006KT M10/M12 RMK AO1 SLP137 T11041118 58033,CZSP,2015-02-12T05:00:00Z,46.45,-62.58,-10.4,-11.8,20,6,,,,1013.7,,TRUE,TRUE,,,,,,,,,,,,,,,,-3.3,,,,,,,,,,,METAR,30.0
CZCR 120500Z AUTO 13002KT M19/M22 RMK AO1 SOG 32 8015 SLP195 T11851223,CZCR,2015-02-12T05:00:00Z,47.97,-66.32,-18.5,-22.3,130,2,,,,1019.5,,TRUE,TRUE,,,,,,,,,,,,,,,,,,,,,,,,,,,METAR,38.0
CXNP 120500Z AUTO 36007KT M15/M16 RMK AO1 SLP144 T11481160 56026,CXNP,2015-02-12T05:00:00Z,45.75,-64.23,-14.8,-16.0,360,7,,,,1014.4,,TRUE,TRUE,,,,,,,,,,,,,,,,-2.6,,,,,,,,,,,METAR,20.0
CWXI 120500Z AUTO 07006KT M23/M25 RMK AO1 SOG 77 6017 SLP217 T12301253,CWXI,2015-02-12T05:00:00Z,51.02,-57.1,-23.0,-25.3,70,6,,,,1021.7,,TRUE,TRUE,,,,,,,,,,,,,,,,,,,,,,,,,,,METAR,6.0
VTST 120500Z 05012KT 7000 FEW020 30/21 Q1011 RWY08 INFO F,VTST,2015-02-12T05:00:00Z,7.52,99.62,30.0,21.0,50,12,,4.35,29.852362,,,,,,,,,,,FEW,2000,,,,,,,MVFR,,,,,,,,,,,,METAR,16.0
KACB 120459Z AUTO 33007G16KT 3SM -SN SCT016 SCT020 OVC037 M10/M14 A3000 RMK AO2,KACB,2015-02-12T04:59:00Z,44.98,-85.2,-10.0,-14.0,330,7,16,3.0,30.0,,,TRUE,TRUE,,,,,,-SN,SCT,1600,SCT,2000,OVC,3700,,,MVFR,,,,,,,,,,,,METAR,190.0
KQGA 120459Z AUTO VRB05KT 4400 HZ CLR 26/00 A2988 RMK CDP03659 CLR,KQGA,2015-02-12T04:59:00Z,100.65,-1000.65,26.0,0.0,0,5,,2.73,29.878937,,,TRUE,,,,,,,HZ,CLR,,,,,,,,IFR,,,,,,,,,,,,METAR,999.0
KQTM 120459Z AUTO 10001KT 9999 CLR 23/M04 A2963 RMK CDP03569 CLR,KQTM,2015-02-12T04:59:00Z,,,23.0,-4.0,100,1,,6.21,29.630905,,,TRUE,,,,,,,,CLR,,,,,,,,VFR,,,,,,,,,,,,METAR,
RKSO 120458Z 28019G25KT 7SM FEW150 02/M14 A2994 RMK AO2A SLP143 T00201136 $,RKSO,2015-02-12T04:58:00Z,37.07,127.02,2.0,-13.6,280,19,25,7.0,29.940945,1014.3,,,TRUE,TRUE,,,,,,FEW,15000,,,,,,,VFR,,,,,,,,,,,,METAR,12.0
KCVS 120458Z 05004KT 10SM BKN065 OVC075 02/M03 A3041 RMK AO2A SLP300 $,KCVS,2015-02-12T04:58:00Z,34.37,-103.32,2.0,-3.0,50,4,,10.0,30.410433,1030.0,,,TRUE,TRUE,,,,,,BKN,6500,OVC,7500,,,,,VFR,,,,,,,,,,,,SPECI,1309.0
EGUN 120458Z AUTO 00000KT 9999 OVC024 03/00 A3015 RMK AO2 SLP213 T00311005,EGUN,2015-02-12T04:58:00Z,52.37,0.47,3.1,-0.5,0,0,,6.21,30.15059,1021.3,,TRUE,TRUE,,,,,,,OVC,2400,,,,,,,MVFR,,,,,,,,,,,,METAR,10.0
LIYW 120458Z AUTO 02003KT 9999 CLR M01/M01 A3025 RMK AO2 SLP252 T10071007,LIYW,2015-02-12T04:58:00Z,46.02,12.62,-0.7,-0.7,20,3,,6.21,30.250984,1025.2,,TRUE,TRUE,,,,,,,CLR,,,,,,,,VFR,,,,,,,,,,,,METAR,126.0
KLTS 120458Z 36007KT 10SM OVC110 06/M03 A3040 RMK AO2A SLP298 T00611030 $,KLTS,2015-02-12T04:58:00Z,34.67,-99.27,6.1,-3.0,360,7,,10.0,30.398623,1029.8,,,TRUE,TRUE,,,,,,OVC,11000,,,,,,,VFR,,,,,,,,,,,,SPECI,420.0
KNGP 120456Z 09005KT 10SM FEW018 BKN029 BKN250 17/17 A3011 RMK SLP195 T01720167,KNGP,2015-02-12T04:56:00Z,27.68,-97.27,17.2,16.7,90,5,,10.0,30.109253,1019.5,,,,,,,,,,FEW,1800,BKN,2900,BKN,25000,,,MVFR,,,,,,,,,,,,SPECI,6.0
LIRT 120455Z 03007KT 0000 -RA FG VV/// 01/M02 Q1019 RMK MON INVIS VAL INVIS VIS MIN 0000,LIRT,2015-02-12T04:55:00Z,41.03,15.22,1.0,-2.0,30,7,,0.0,30.088583,,,,,,,,,,-RA FG,OVX,0,,,,,,,LIFR,,,,,,,,,,,,METAR,1093.0
LIQC 120455Z ///04KT CAVOK 09/07 Q1022 RMK SKC QUK / QUL / VIS MAR 40 KM VIS MIN 9999,LIQC,2015-02-12T04:55:00Z,40.55,14.2,9.0,7.0,,,,6.21,30.177166,,,,,,,,,,,CAVOK,,,,,,,,VFR,,,,,,,,,,,,METAR,269.0
LIRS 120455Z /////KT CAVOK 02/00 Q1022 RMK SKC VIS MIN 9999 WIND THR03 03005KT WIND THR21 /////KT BLU,LIRS,2015-02-12T04:55:00Z,42.75,11.07,2.0,0.0,,,,6.21,30.177166,,,,,,,,,,,CAVOK,,,,,,,,VFR,,,,,,,,,,,,METAR,7.0
LIEB 120455Z 34007KT CAVOK 08/02 Q1021 RMK SKC QUK / QUL / VIS MAR 20 KM MON INVIS VIS MIN 9999,LIEB,2015-02-12T04:55:00Z,39.93,9.72,8.0,2.0,340,7,,6.21,30.147638,,,,,,,,,,,CAVOK,,,,,,,,VFR,,,,,,,,,,,,SPECI,156.0
LICF 120455Z 34004KT 9999 FEW025 10/06 Q1020 RMK BKN BKN080 QUK / QUL / VIS MAR 20 KM MON INVIS NC VIS MIN 9999,LICF,2015-02-12T04:55:00Z,38.2,15.55,10.0,6.0,340,4,,6.21,30.11811,,,,,,,,,,,FEW,2500,,,,,,,VFR,,,,,,,,,,,,SPECI,51.0
LIVT 120455Z 05015G28KT CAVOK 05/M00 Q1024 RMK SKC QUK / QUL / VIS MAR 20 KM VIS MIN 9999,LIVT,2015-02-12T04:55:00Z,45.68,13.75,5.0,0.0,50,15,28,6.21,30.236221,,,,,,,,,,,CAVOK,,,,,,,,VFR,,,,,,,,,,,,SPECI,20.0
LIVR 120455Z 00000KT CAVOK M02/M09 Q1020 RMK SKC MON LIB VIS MIN 9999,LIVR,2015-02-12T04:55:00Z,46.28,11.77,-2.0,-9.0,0,0,,6.21,30.11811,,,,,,,,,,,CAVOK,,,,,,,,VFR,,,,,,,,,,,,SPECI,2006.0
LIVF 120455Z 00000KT CAVOK 03/00 Q1022 RMK SKC MON LIB VAL NIL VIS MIN 9999,LIVF,2015-02-12T04:55:00Z,43.52,12.72,3.0,0.0,0,0,,6.21,30.177166,,,,,,,,,,,CAVOK,,,,,,,,VFR,,,,,,,,,,,,SPECI,574.0
LIVE 120455Z /////KT CAVOK M03/M06 Q1024 RMK SKC VIS MIN 9999,LIVE,2015-02-12T04:55:00Z,46.85,10.5,-3.0,-6.0,,,,6.21,30.236221,,,,,,,,,,,CAVOK,,,,,,,,VFR,,,,,,,,,,,,SPECI,1800.0
LIRK 120455Z AUTO /////KT //// ///// Q////,LIRK,2015-02-12T04:55:00Z,42.47,12.97,,,,,,,,,,TRUE,,,,,,,,,,,,,,,,,,,,,,,,,,,,SPECI,1875.0
LIRE 120455Z 09005KT CAVOK 06/05 Q1023 RMK SKC VIS MIN 9999 WIND THR31 /////KT BLU,LIRE,2015-02-12T04:55:00Z,41.63,12.42,6.0,5.0,90,5,,6.21,30.206694,,,,,,,,,,,CAVOK,,,,,,,,VFR,,,,,,,,,,,,SPECI,12.0
LIQO 120455Z 08017KT CAVOK 06/05 Q1020 RMK SKC VAL E NEBBIA NEBBIA INTER VIS MIN 9999,LIQO,2015-02-12T04:55:00Z,42.37,11.17,6.0,5.0,80,17,,6.21,30.11811,,,,,,,,,,,CAVOK,,,,,,,,VFR,,,,,,,,,,,,SPECI,632.0
LIMU 120455Z 36009KT CAVOK 11/M05 Q1021 RMK SKC QUK / QUL / VIS MAR 20 KM VIS MIN 9999,LIMU,2015-02-12T04:55:00Z,43.95,8.17,11.0,-5.0,360,9,,6.21,30.147638,,,,,,,,,,,CAVOK,,,,,,,,VFR,,,,,,,,,,,,SPECI,221.0
LIMH 120455Z /////KT CAVOK M09/M21 Q1020 RMK SKC MON LIB VAL NIL VIS MIN 9999,LIMH,2015-02-12T04:55:00Z,45.93,7.7,-9.0,-21.0,,,,6.21,30.11811,,,,,,,,,,,CAVOK,,,,,,,,VFR,,,,,,,,,,,,SPECI,3488.0
LIED 120455Z 34002KT 8000 NSC 02/00 Q1020 RMK SKC VIS MIN 8000 WIND THR35 34003KT WIND THR17 35003KT BLU,LIED,2015-02-12T04:55:00Z,39.35,8.97,2.0,0.0,340,2,,4.97,30.11811,,,,,,,,,,,,,,,,,,,,,,,,,,,,,,,SPECI,28.0
LIVP 120455Z 20006KT CAVOK M01/M10 Q1019 RMK SKC MON LIB VAL NIL VIS MIN 9999,LIVP,2015-02-12T04:55:00Z,46.15,11.03,-1.0,-10.0,200,6,,6.21,30.088583,,,,,,,,,,,CAVOK,,,,,,,,VFR,,,,,,,,,,,,METAR,2129.0
LIVC 120455Z 24002KT CAVOK 01/M05 Q1021 RMK SKC MON LIB VAL NIL VIS MIN 9999,LIVC,2015-02-12T04:55:00Z,44.2,10.68,1.0,-5.0,240,2,,6.21,30.147638,,,,,,,,,,,CAVOK,,,,,,,,VFR,,,,,,,,,,,,METAR,2173.0
LIPS 120455Z 04006KT 7000 NSC 02/01 Q1024 RMK SKC VIS MIN 7000 WIND THR26 /////KT WIND THR08 03008KT WHT,LIPS,2015-02-12T04:55:00Z,45.67,12.08,2.0,1.0,40,6,,4.35,30.236221,,,,,,,,,,,,,,,,,,,,,,,,,,,,,,,SPECI,41.0
LIPL 120455Z /////KT 2000 BR NSC M03/M03 Q1023 RMK SKC VIS MIN 2000 WIND THR31 00000KT YLO,LIPL,2015-02-12T04:55:00Z,45.42,10.27,-3.0,-3.0,,,,1.24,30.206694,,,,,,,,,,BR,,,,,,,,,,,,,,,,,,,,,SPECI,92.0
LIPC 120455Z 27002KT 4000 BR BKN006 02/00 Q1024 RMK BKN VIS MIN 4000 WIND THR11 26002KT YLO,LIPC,2015-02-12T04:55:00Z,44.22,12.3,2.0,0.0,270,2,,2.49,30.236221,,,,,,,,,,BR,BKN,600,,,,,,,IFR,,,,,,,,,,,,SPECI,10.0
LIPA 120455Z 02005KT CAVOK 00/M00 Q1024 RMK SKC VIS MIN 9999 A3026 BLU,LIPA,2015-02-12T04:55:00Z,46.02,12.58,0.0,0.0,20,5,,6.21,30.236221,,,,,,,,,,,CAVOK,,,,,,,,VFR,,,,,,,,,,,,SPECI,126.0
LIMN 120455Z /////KT 5000 BR NSC M01/M02 Q1023 RMK SKC VIS MIN 5000 WHT,LIMN,2015-02-12T04:55:00Z,45.52,8.67,-1.0,-2.0,,,,3.11,30.206694,,,,,,,,,,BR,,,,,,,,,,,,,,,,,,,,,SPECI,169.0
LIMK 120455Z 00000KT CAVOK 05/01 Q1021 RMK SKC VAL FOSCHIA SKC SUP VIS MIN 9999,LIMK,2015-02-12T04:55:00Z,45.02,7.72,5.0,1.0,0,0,,6.21,30.147638,,,,,,,,,,,CAVOK,,,,,,,,VFR,,,,,,,,,,,,SPECI,710.0
LIMS 120455Z 26006KT CAVOK M01/M01 Q1022 RMK SKC VIS MIN 9999 WIND THR30 21002KT BLU,LIMS,2015-02-12T04:55:00Z,44.92,9.72,-1.0,-1.0,260,6,,6.21,30.177166,,,,,,,,,,,CAVOK,,,,,,,,VFR,,,-0.2,,,,,,,,,SPECI,138.0
KQBF 120455Z AUTO VRB02KT 9999 CLR 26/12 A2993 RMK AO2 SLP116 T02600124 $,KQBF,2015-02-12T04:55:00Z,100.65,-1000.65,26.0,12.4,0,2,,6.21,29.929134,1011.6,,TRUE,TRUE,TRUE,,,,,,CLR,,,,,,,,VFR,,,,,,,,,,,,METAR,999.0
KQTC 120455Z AUTO 08010G19KT 10SM CLR RMK AO2 SLPNO $,KQTC,2015-02-12T04:55:00Z,100.65,-1000.65,,,80,10,19,10.0,,,,TRUE,TRUE,TRUE,,,,,,CLR,,,,,,,,VFR,,,,,,,,,,,,METAR,999.0
RJOI 120455Z 24016G26KT 9999 FEW015 FEW025 BKN040 12/04 A2974 RMK PK WND 24026/0452 SLP070 T01220044,RJOI,2015-02-12T04:55:00Z,34.13,132.22,12.2,4.4,240,16,26,6.21,29.740158,1007.0,,,,,,,,,,FEW,1500,FEW,2500,BKN,4000,,,VFR,,,,,,,,,,,,METAR,2.0
KQTI 120455Z 33011G18KT 2400 DU SCT240 12/01 A2997 RMK DU FEW020 SLP150 WND DATA ESTMD ALSTG/SLP ESTMD,KQTI,2015-02-12T04:55:00Z,100.65,-1000.65,12.0,1.0,330,11,18,1.49,29.970472,1015.0,,,,,,,,,DU,SCT,24000,,,,,,,IFR,,,,,,,,,,,,METAR,999.0
KRBO 120455Z AUTO 08007KT 10SM SCT032 A3012 RMK AO2,KRBO,2015-02-12T04:55:00Z,27.78,-97.68,,,80,7,,10.0,30.121063,,,TRUE,TRUE,,,,,,,SCT,3200,,,,,,,VFR,,,,,,,,,,,,METAR,24.0
LICT 120455Z 09005KT 9999 FEW025 09/08 Q1021 RMK SCT SCT080 VIS MIN 9999 WIND THR13 /////KT BLU,LICT,2015-02-12T04:55:00Z,37.92,12.5,9.0,8.0,90,5,,6.21,30.147638,,,,,,,,,,,FEW,2500,,,,,,,VFR,,,,,,,,,,,,SPECI,7.0
LIBV 120455Z VRB02KT 9999 SCT025 BKN045 04/M00 Q1021 RMK BKN VIS MIN 9999 WIND THR32 VRB02KT WIND THR14 VRB01KT BLU,LIBV,2015-02-12T04:55:00Z,40.77,16.92,4.0,0.0,0,2,,6.21,30.147638,,,,,,,,,,,SCT,2500,BKN,4500,,,,,VFR,,,,,,,,,,,,SPECI,350.0
LIBN 120455Z 02007KT CAVOK 06/M02 Q1022 RMK SKC VIS MIN 9999 WIND THR14 01007KT BLU,LIBN,2015-02-12T04:55:00Z,40.22,18.13,6.0,-2.0,20,7,,6.21,30.177166,,,,,,,,,,,CAVOK,,,,,,,,VFR,,,,,,,,,,,,SPECI,61.0
LIBA 120455Z /////KT 9999 FEW030 07/03 Q1022 RMK BKN BKN070 VIS MIN 9999 WIND THR29 30002KT BLU,LIBA,2015-02-12T04:55:00Z,41.52,15.72,7.0,3.0,,,,6.21,30.177166,,,,,,,,,,,FEW,3000,,,,,,,VFR,,,,,,,,,,,,SPECI,60.0
LIRV 120455Z 05005KT CAVOK 02/M00 Q1021 RMK SKC MON E SE LIB VIS MIN 9999 BLU,LIRV,2015-02-12T04:55:00Z,42.42,12.07,2.0,0.0,50,5,,6.21,30.147638,,,,,,,,,,,CAVOK,,,,,,,,VFR,,,,,,,,,,,,SPECI,300.0
LIRM 120455Z /////KT 9999 FEW070 02/00 Q1022 RMK FEW VIS MIN 9999 WIND THRO6 /////KT BLU,LIRM,2015-02-12T04:55:00Z,41.03,14.07,2.0,0.0,,,,6.21,30.177166,,,,,,,,,,,FEW,7000,,,,,,,VFR,,,,,,,,,,,,METAR,10.0
LIRL 120455Z 01004KT CAVOK 04/02 Q1022 RMK SKC MON INVIS NC VIS MIN 9999 WIND THR30 01003KT BLU,LIRL,2015-02-12T04:55:00Z,41.53,12.9,4.0,2.0,10,4,,6.21,30.177166,,,,,,,,,,,CAVOK,,,,,,,,VFR,,,,,,,,,,,,METAR,26.0
LIRH 120455Z 28002KT 0900 FG FEW001 01/M01 Q1022 RMK SCT SCT100 MON INVIS VAR RAPID VIS MIN 0900 WIND THR16 30002KT AMB,LIRH,2015-02-12T04:55:00Z,41.65,13.3,1.0,-1.0,280,2,,0.56,30.177166,,,,,,,,,,FG,FEW,100,,,,,,,LIFR,,,,,,,,,,,,SPECI,181.0
LIBY 120455Z 04012KT CAVOK 04/M04 Q1019 RMK SKC QUK / QUL / VIS MAR 15 KM VIS MIN 9999,LIBY,2015-02-12T04:55:00Z,39.82,18.35,4.0,-4.0,40,12,,6.21,30.088583,,,,,,,,,,,CAVOK,,,,,,,,VFR,,,,,,,,,,,,SPECI,112.0
LICZ 120455Z 27004KT 9999 FEW040 SCT060 05/05 Q1021 RMK SCT VIS MIN 9999 WIND THR28 25005KT A3017 BLU,LICZ,2015-02-12T04:55:00Z,37.38,14.92,5.0,5.0,270,4,,6.21,30.147638,,,,,,,,,,,FEW,4000,SCT,6000,,,,,VFR,,,,,,,,,,,,METAR,22.0
MMTM 120454Z 05005KT 10SM SKC 19/17 A3004,MMTM,2015-02-12T04:54:00Z,22.27,-97.87,19.0,17.0,50,5,,10.0,30.041338,,,,,,,,,,,SKC,,,,,,,,VFR,,,,,,,,,,,,METAR,24.0
OAHR 120454Z 04004KT 9999 SCT080 15/06 Q1018 RMKSCT VIS MIN 9999 BLU,OAHR,2015-02-12T04:54:00Z,34.22,62.22,15.0,6.0,40,4,,6.21,30.059055,,,,,,,,,,,SCT,8000,,,,,,,VFR,,,,,,,,,,,,METAR,964.0
KRYT 120453Z AUTO 00000KT 10SM BKN048 OVC060 01/M04 A2984 RMK AO2 SLP119 T00061044 400331072 $,KRYT,2015-02-12T04:53:00Z,39.73,-77.43,0.6,-4.4,0,0,,10.0,29.840551,1011.9,,TRUE,TRUE,TRUE,,,,,,BKN,4800,OVC,6000,,,,,VFR,,,,3.3,-7.2,,,,,,,METAR,274.0
KNQX 120453Z AUTO 36009KT 10SM CLR 17/12 A3004 RMK AO2 SLP172 T01720122 402000156 $,KNQX,2015-02-12T04:53:00Z,24.57,-81.67,17.2,12.2,360,9,,10.0,30.041338,1017.2,,TRUE,TRUE,TRUE,,,,,,CLR,,,,,,,,VFR,,,,20.0,15.6,,,,,,,METAR,2.0
KCNW 120451Z 34007KT 10SM BKN065 13/04 A3026,KCNW,2015-02-12T04:51:00Z,31.63,-97.07,13.0,4.0,340,7,,10.0,30.259842,,,,,,,,,,,BKN,6500,,,,,,,VFR,,,,,,,,,,,,METAR,156.0
EGYD 120450Z AUTO 27004KT 6000 // OVC021/// 03/00 Q1020,EGYD,2015-02-12T04:50:00Z,53.03,-0.5,3.0,0.0,270,4,,3.73,30.11811,,,TRUE,,,,,,,,,,,,,,,,,,,,,,,,,,,,SPECI,67.0
EGXZ 120450Z AUTO 13005KT 2600 BR FEW021/// BKN041/// 01/00 Q1020 RERA,EGXZ,2015-02-12T04:50:00Z,54.2,-1.38,1.0,0.0,130,5,,1.62,30.11811,,,TRUE,,,,,,,BR,,,,,,,,,,,,,,,,,,,,,SPECI,28.0
EGXT 120450Z AUTO 25001KT 9999 OVC022/// 03/M00 Q1020,EGXT,2015-02-12T04:50:00Z,52.62,-0.47,3.0,0.0,250,1,,6.21,30.11811,,,TRUE,,,,,,,,,,,,,,,,,,,,,,,,,,,,SPECI,84.0
EGXS 120450Z AUTO 22003KT 5000 // OVC022/// 03/00 Q1020,EGXS,2015-02-12T04:50:00Z,53.48,0.15,3.0,0.0,220,3,,3.11,30.11811,,,TRUE,,,,,,,,,,,,,,,,,,,,,,,,,,,,METAR,3.0
EGXP 120450Z AUTO 23003KT 7000 // OVC021/// 02/01 Q1020,EGXP,2015-02-12T04:50:00Z,53.3,-0.55,2.0,1.0,230,3,,4.35,30.11811,,,TRUE,,,,,,,,,,,,,,,,,,,,,,,,,,,,METAR,61.0
EGWU 120450Z AUTO 01002KT 9999 // OVC021/// 04/M01 Q1020,EGWU,2015-02-12T04:50:00Z,51.55,-0.42,4.0,-1.0,10,2,,6.21,30.11811,,,TRUE,,,,,,,,,,,,,,,,,,,,,,,,,,,,SPECI,40.0
EGVP 120450Z AUTO 02003KT 8000 // OVC020/// 04/M01 Q1020,EGVP,2015-02-12T04:50:00Z,51.13,-1.57,4.0,-1.0,20,3,,4.97,30.11811,,,TRUE,,,,,,,,,,,,,,,,,,,,,,,,,,,,SPECI,91.0
EGQK 120450Z AUTO 20009KT 9999 FEW039/// 04/01 Q1015,EGQK,2015-02-12T04:50:00Z,57.65,-3.57,4.0,1.0,200,9,,6.21,29.970472,,,TRUE,,,,,,,,,,,,,,,,,,,,,,,,,,,,SPECI,7.0
EGOS 120450Z AUTO 19003KT 8000 HZ OVC027/// 03/01 Q1020,EGOS,2015-02-12T04:50:00Z,52.8,-2.67,3.0,1.0,190,3,,4.97,30.11811,,,TRUE,,,,,,,HZ,,,,,,,,,,,,,,,,,,,,,SPECI,76.0
EGOP 120450Z AUTO 09006KT 7000 // OVC026/// 05/02 Q1020,EGOP,2015-02-12T04:50:00Z,51.72,-4.32,5.0,2.0,90,6,,4.35,30.11811,,,TRUE,,,,,,,,,,,,,,,,,,,,,,,,,,,,SPECI,6.0
EGOM 120450Z AUTO 27004KT 2100 -DZ BKN003/// BKN021/// 02/02 Q1017,EGOM,2015-02-12T04:50:00Z,55.05,-2.55,2.0,2.0,270,4,,1.3,30.029528,,,TRUE,,,,,,,-DZ,,,,,,,,,,,,,,,,,,,,,SPECI,325.0
EGDX 120450Z AUTO 11006KT 9999 OVC030/// 04/01 Q1020,EGDX,2015-02-12T04:50:00Z,51.4,-3.43,4.0,1.0,110,6,,6.21,30.11811,,,TRUE,,,,,,,,,,,,,,,,,,,,,,,,,,,,SPECI,50.0
EGDM 120450Z AUTO 36001KT 9999 OVC020/// 03/M01 Q1020,EGDM,2015-02-12T04:50:00Z,51.17,-1.75,3.0,-1.0,360,1,,6.21,30.11811,,,TRUE,,,,,,,,,,,,,,,,,,,,,,,,,,,,SPECI,124.0
LIPY 120450Z 20003KT CAVOK 01/01 Q1024,LIPY,2015-02-12T04:50:00Z,43.62,13.37,1.0,1.0,200,3,,6.21,30.236221,,,,,,,,,,,CAVOK,,,,,,,,VFR,,,,,,,,,,,,METAR,10.0
LIPO 120450Z 04003KT 3000 BR NSC M00/M00 Q1024,LIPO,2015-02-12T04:50:00Z,45.42,10.33,0.0,0.0,40,3,,1.86,30.236221,,,,,,,,,,BR,,,,,,,,,,,,,,,,,,,,,SPECI,109.0
EGOV 120450Z 14007KT 9999 -RA BKN024 OVC030 06/02 Q1019 WHT,EGOV,2015-02-12T04:50:00Z,53.25,-4.53,6.0,2.0,140,7,,6.21,30.088583,,,,,,,,,,-RA,BKN,2400,OVC,3000,,,,,MVFR,,,,,,,,,,,,METAR,11.0
ENMH 120450Z 26018G28KT 9999 BKN025 M04/M05 Q0982,ENMH,2015-02-12T04:50:00Z,71.02,27.82,-4.0,-5.0,260,18,28,6.21,28.996063,,,,,,,,,,,BKN,2500,,,,,,,MVFR,,,,,,,,,,,,METAR,13.0
MMTG 120450Z 29007KT 10SM SKC 19/13 A3000 RMK ISOL AC,MMTG,2015-02-12T04:50:00Z,16.57,-93.03,19.0,13.0,290,7,,10.0,30.0,,,,,,,,,,,SKC,,,,,,,,VFR,,,,,,,,,,,,METAR,528.0
OOSA 120450Z VRB02KT 9999 FEW025 24/17 Q1019 NOSIG,OOSA,2015-02-12T04:50:00Z,17.02,54.07,24.0,17.0,0,2,,6.21,30.088583,,,,,,TRUE,,,,,FEW,2500,,,,,,,VFR,,,,,,,,,,,,METAR,20.0
EEEI 120450Z 22018KT 9999 BKN007 01/00 Q1015 NOSIG,EEEI,2015-02-12T04:50:00Z,59.27,24.2,1.0,0.0,220,18,,6.21,29.970472,,,,,,TRUE,,,,,BKN,700,,,,,,,IFR,,,,,,,,,,,,METAR,20.0
LICA 120450Z 08007KT 9999 SCT070 04/02 Q1022,LICA,2015-02-12T04:50:00Z,38.88,16.25,4.0,2.0,80,7,,6.21,30.177166,,,,,,,,,,,SCT,7000,,,,,,,VFR,,,,,,,,,,,,METAR,15.0
LIBP 120450Z 23004KT 9999 SCT040 05/02 Q1024,LIBP,2015-02-12T04:50:00Z,42.42,14.18,5.0,2.0,230,4,,6.21,30.236221,,,,,,,,,,,SCT,4000,,,,,,,VFR,,,,,,,,,,,,METAR,11.0
